Ref,Spider,Name,Address,City,State,Zipcode,Country,Phone,Website,Hours,Brand,WikiData
https://stores.aldi.us/#26478029,aldi_sud_us,ALDI  2711 South Harvard Ave.,,Tulsa,OK,,US,+1 855-955-2534,https://stores.aldi.us/ok/tulsa/2711-south-harvard-ave,"Mo-Su 08:30-20:00,09:00-20:00",ALDI,Q41171672
2424 East 21st Street,allied_universal,Allied Universal,,Tulsa,OK,,US,+1 918-660-7002,https://www.aus.com/tulsa-security-systems-services,,Allied Universal,Q4732537
https://bananarepublic.gap.com/stores/ok/tulsa/banana-republic-8050.html,bananarepublic,Banana Republic,,Tulsa,OK,,US,+1 918-742-2068,https://bananarepublic.gap.com/stores/ok/tulsa/banana-republic-8050.html,Mo-Sa 10:00-19:00; Su 12:00-17:00,Banana Republic,Q806085
https://locators.bankofamerica.com/ok/tulsa/atm-tulsa-9890.html,bankofamerica,Bank of America Drive-Thru ATM | Yorktown,,Tulsa,OK,,US,+1 844-401-8500,https://locators.bankofamerica.com/ok/tulsa/atm-tulsa-9890.html,,Bank of America,Q487907
https://locators.bankofamerica.com/ok/tulsa/financial-centers-tulsa-9756.html,bankofamerica,Bank of America Financial Center | Utica Plaza,,Tulsa,OK,,US,+1 918-591-8050,https://locators.bankofamerica.com/ok/tulsa/financial-centers-tulsa-9756.html,Mo-Fr 10:00-16:00,Bank of America,Q487907
2043146,chase_us,Utica Square - New branch,,Tulsa,OK,,US,+1 918-293-4350,https://locator.chase.com/ok/tulsa/2070-utica-square,Mo-Fr 09:00-17:00; Sa 09:00-13:00,Chase,Q524629
39223,citi,ATM Central Bank,,Tulsa,OK,,US,,,,Citibank,Q857063
https://www.coach.com/stores/#17277379,coach_us,COACH,,Tulsa,OK,,US,+1 918-609-4348,https://www.coach.com/stores/ok/tulsa/1846-utica-square,Mo-Sa 10:00-19:00; Su 12:00-17:00,Coach,Q727697
70180384,cricket_wireless,Cricket Wireless Authorized Retailer,,Tulsa,OK,,US,+1 918-551-6379,https://www.cricketwireless.com/stores/ll/US/OK/Tulsa/4933-E-21st-St,Mo-Sa 10:00-20:00; Su 12:00-17:00,Cricket Wireless,Q5184987
6490,dominos_pizza_us,Domino's Pizza,,Tulsa,OK,,US,+1 918-747-6600,https://pizza.dominos.com/oklahoma/tulsa/1408-s-harvard,Mo-Th 10:30-24:00; Fr-Sa 10:30-01:00; Su 10:30-24:00,Domino's,Q839466
https://www.edwardjones.com/us-en/financial-advisor/dewayne-willis,edwardjones,Dewayne Willis,,Tulsa,OK,,US,+1 918-745-0260,https://www.edwardjones.com/us-en/financial-advisor/dewayne-willis,Mo-Th 08:30-16:30; Fr 08:30-15:30,Edward Jones,Q5343830
2660-e-21st-st,einsteinbros,21st & Columbia Einstein Bros. Bagels,,Tulsa,OK,,US,+1 918-960-2761,https://locations.einsteinbros.com/us/ok/tulsa/2660-e-21st-st,Mo-Su 06:00-15:00,Einstein Bros. Bagels,Q5349788
26386,family_dollar_us,FAMILY DOLLAR #6386,,Tulsa,OK,,US,+1 918-281-3763,https://www.familydollar.com/locations/ok/tulsa/26386/,Mo-Su 08:00-22:00,Family Dollar,Q5433101
https://restaurants.fiveguys.com/#15553025,five_guys_us,Five Guys Tulsa,,Tulsa,OK,,US,+1 539-215-5588,https://restaurants.fiveguys.com/10025-s-memorial-drive,"Mo-Su 11:00-21:30,11:00-22:00",Five Guys,Q1131810
9929332,hugo_boss,BOSS Menswear Shop,,Tulsa,OK,,US,+1 918-744-0200,https://www.hugoboss.com/us/storedetail?storeid=9929332,Mo-Sa 12:00-18:00; Su 12:00-17:00,Hugo Boss,Q491627
174137,little_free_library,Taylor Elaine #174137 Tulsa OK,,Tulsa,OK,,US,,,,Little Free Library,Q6650101
36840,little_free_library,Kyle Brett #36840 Tulsa OK,,Tulsa,OK,,US,,,,Little Free Library,Q6650101
30684,little_free_library,For the love of reading #30684 Tulsa OK,,Tulsa,OK,,US,,,,Little Free Library,Q6650101
128276,little_free_library,T-Bird's Lil' Library #128276 Tulsa OK,,Tulsa,OK,,US,,,,Little Free Library,Q6650101
42858,little_free_library,Ginger Homan #42858 Tulsa OK,,Tulsa,OK,,US,,,,Little Free Library,Q6650101
137524,little_free_library,Hoover Elem - in memory of Morrie #137524 Tulsa OK,,Tulsa,OK,,US,,,,Little Free Library,Q6650101
https://stores.loft.com/ok/tulsa/1818-utica-square.html,loft_us,Loft,,Tulsa,OK,,US,+1 918-742-0291,https://stores.loft.com/ok/tulsa/1818-utica-square.html,,Loft,Q62075137
https://stores.madewell.com/#3653386,madewell_us,Madewell,,Tulsa,OK,,US,+1 918-743-6217,https://stores.madewell.com/us/ok/tulsa/1928-utica-square,Mo-Sa 10:00-19:00; Su 12:00-17:00,Madewell,Q64026213
112271,pandaexpress,21st & Yale,,Tulsa,OK,,US,+1 918-743-8186,https://www.pandaexpress.com/locations/ok/tulsa/4728-east-21st-street,Mo-Su 10:00-22:30,Panda Express,Q1358690
https://www.pfchangs.com/locations/#5265478,pf_changs,P.F. Chang's Tulsa,,Tulsa,OK,,US,+1 918-747-6555,https://www.pfchangs.com/locations/us/ok/tulsa/1978-e-21st-st/9924-tulsa.html,"Mo-Th 11:00-22:00,15:00-18:00; Fr 11:00-23:00,15:00-18:00; Sa 11:00-23:00; Su 11:00-22:00",P. F. Chang's China Bistro,Q5360181
https://locations.tacobell.com/#1034578082,taco_bell,Taco Bell,,Tulsa,OK,,US,+1 539-399-2590,https://locations.tacobell.com/ok/tulsa/4716-east-21st-street-south.html,Mo-Th 08:00-01:00; Fr-Sa 08:00-02:00; Su 08:00-01:00,Taco Bell,Q752941
1385598,usps,UTICA SQUARE,,TULSA,OK,,US,+1 918-742-1384,,Mo-Fr 08:30-18:00; Sa 10:00-14:00,United States Postal Service,Q668687
7411400012,usps_collection_boxes,USPS COLLECTION BOX - BLUE BOX,2727 E 21ST ST,TULSA,OK,,US,,,,United States Postal Service,Q668687
7411400004,usps_collection_boxes,USPS COLLECTION BOX - BLUE BOX,2651 E 21ST ST,TULSA,OK,,US,,,,United States Postal Service,Q668687
7411400017,usps_collection_boxes,USPS COLLECTION BOX - BLUE BOX,2032 UTICA SQ,TULSA,OK,,US,,,,United States Postal Service,Q668687
7411400018,usps_collection_boxes,USPS COLLECTION BOX - BLUE BOX,2032 UTICA SQ,TULSA,OK,,US,,,,United States Postal Service,Q668687
7411400019,usps_collection_boxes,USPS COLLECTION BOX - BLUE BOX,2032 UTICA SQ,TULSA,OK,,US,,,,United States Postal Service,Q668687
,visa,,,TULSA,OK,,US,,,,,
,visa,,,TULSA,OK,,US,,,,,
,visa,,,TULSA,OK,,US,,,,,
,visa,,,TULSA,OK,,US,,,,,
,visa,,,TULSA,OK,,US,,,,,
,visa,,,TULSA,OK,,US,,,,,
,visa,,,TULSA,OK,,US,,,,,
,visa,,,TULSA,OK,,US,,,,,
,visa,,,TULSA,OK,,US,,,,,
,visa,,,TULSA,OK,,US,,,,,
,visa,,,TULSA,OK,,US,,,,,
,visa,,,TULSA,OK,,US,,,,,
,visa,,,TULSA,OK,,US,,,,,
,visa,,,TULSA,OK,,US,,,,,
,visa,,,TULSA,OK,,US,,,,,
,visa,,,TULSA,OK,,US,,,,,
,visa,,,TULSA,OK,,US,,,,,
,visa,,,TULSA,OK,,US,,,,,
,visa,,,TULSA,OK,,US,,,,,
,visa,,,TULSA,OK,,US,,,,,
,visa,,,TULSA,OK,,US,,,,,
,visa,,,TULSA,OK,,US,,,,,
,visa,,,TULSA,OK,,US,,,,,
,visa,,,TULSA,OK,,US,,,,,
,visa,,,TULSA,OK,,US,,,,,
,visa,,,TULSA,OK,,US,,,,,
,visa,,,TULSA,OK,,US,,,,,
,visa,,,WEST TULSA,OK,,US,,,,,
,visa,,,TULSA,OK,,US,,,,,
https://www.walgreens.com/locator/walgreens-1714+utica+sq-tulsa-ok-74114/id=15782,walgreens,Walgreens,,Tulsa,OK,,US,+1 918-743-9968,https://www.walgreens.com/locator/walgreens-1714+utica+sq-tulsa-ok-74114/id=15782,Mo-Su 08:00-21:00,Walgreens,Q1591889
https://locations.wendys.com/#9256121,wendys,"Wendy's E. 21st Street in Tulsa, OK",,Tulsa,OK,,US,+1 918-712-5326,https://locations.wendys.com/united-states/ok/tulsa/1905-e-21st-street,"Mo-Su 06:30-10:30,09:00-22:00",Wendy's,Q550258
892d1f0d6540d56225a7537ddad6056d,western_union,WALMART #003340,,Tulsa,OK,,US,+1 918-392-7020,https://location.westernunion.com/us/ok/tulsa/892d1f0d6540d56225a7537ddad6056d,Mo-Su 07:00-21:00,Western Union,Q861042
https://locations.whataburger.com/ok/tulsa/4888-e-21st-st.html,whataburger,21st & Yale,4888 E 21ST ST,TULSA,OK,,US,,https://locations.whataburger.com/ok/tulsa/4888-e-21st-st.html,,Whataburger,Q376627
2551,whitehouseblackmarket,Utica Square,1840 Utica Square,Tulsa,OK,,US,+1 918-712-7300,,Mo-Sa 10:00-18:00; Su 12:00-17:00,White House Black Market,Q7994858
611,world_finance_us,,"4937 E 21 St, Tulsa, OK, 74114",Tulsa,OK,,US,+1 918-836-1020,https://www.loansbyworld.com/branches/branch-611,Mo-Fr 09:00-17:30; Sa 09:00-12:00,World Finance,Q3569971
