Ref,Spider,Name,Address,City,State,Zipcode,Country,Phone,Website,Hours,Brand,WikiData
https://stores.advanceautoparts.com/ct/new-britain/180-e-main-st,advance_auto_parts_us,Advance Auto Parts,,New Britain,CT,,US,+1 860-832-4646,https://stores.advanceautoparts.com/ct/new-britain/180-e-main-st,Mo-Sa 07:30-21:00; Su 09:00-20:00,Advance Auto Parts,Q4686051
https://stores.advanceautoparts.com/ct/new-britain/64-veterans-dr,advance_auto_parts_us,Advance Auto Parts,,New Britain,CT,,US,+1 860-225-6311,https://stores.advanceautoparts.com/ct/new-britain/64-veterans-dr,Mo-Sa 07:30-18:00; Su 09:00-16:00,Advance Auto Parts,Q4686051
498786,afcurgentcare,American Family Care New Britain,,New Britain,CT,,US,+1 860-357-6899,https://www.afcurgentcare.com/new-britain/,Mo-Fr 08:00-20:00; Sa-Su 08:00-17:00,AFC Urgent Care,Q110552174
5066,autozone_us,AutoZone Auto Parts New Britain,,New Britain,CT,,US,+1 860-229-5998,https://www.autozone.com/locations/ct/new-britain/95-myrtle-st.html,Mo-Sa 07:30-21:00; Su 08:00-20:00,AutoZone,Q4826087
151556,bluerhino,Walgreens #7585,,New Britain,CT,,US,+1 860-826-7272,,,Blue Rhino,Q65681213
101699,bluerhino,Cumberland Farms #4660,,New Britain,CT,,US,+1 860-224-1686,,,Blue Rhino,Q65681213
94532,citi,ATM Webster Bank,,New Britain,CT,,US,,,,Citibank,Q857063
94608,citi,ATM Webster Bank,,New Britain,CT,,US,,,,Citibank,Q857063
94607,citi,ATM Webster Bank,,New Britain,CT,,US,,,,Citibank,Q857063
94596,citi,ATM Webster Bank,,New Britain,CT,,US,,,,Citibank,Q857063
28418,citi,ATM 7ELEVEN-FCTI,,New Britain,CT,,US,,,,Citibank,Q857063
48469,citi,ATM CVS,,New Britain,CT,,US,,,,Citibank,Q857063
86415,citi,ATM Walgreens,,New Britain,CT,,US,,,,Citibank,Q857063
82662,citi,ATM Target,,New Britain,CT,,US,,,,Citibank,Q857063
ATM-1940,citizens_us,,,New Britain,CT,,US,,,,Citizens,Q5122694
14231110,cricket_wireless,Cricket Wireless Authorized Retailer,,New Britain,CT,,US,+1 860-223-5262,https://www.cricketwireless.com/stores/ll/US/CT/New-Britain/79-W-Main-St,Mo-Sa 10:00-19:00,Cricket Wireless,Q5184987
520258,cumberland_farms_us,Cumberland Farms,,NEW BRITAIN,CT,,US,+1 860-224-1686,https://www.cumberlandfarms.com/find-us/generic-store-page/?id=004660,,Cumberland Farms,Q1143685
294,cvs_us,CVS Pharmacy,,New Britain,CT,,US,+1 860-229-3757,https://www.cvs.com/store-locator/new-britain-ct-pharmacies/177-columbus-blvd-new-britain-ct-06051/storeid=294,Mo-Fr 07:00-22:00; Sa-Su 08:00-22:00,CVS Pharmacy,Q2078880
16555,dollar_general,Dollar General,,New Britain,CT,,US,+1 860-348-5775,https://www.dollargeneral.com/store-directory/ct/new-britain/16555,Mo-Su 08:00-22:00,Dollar General,Q145168
15241,dollar_general,Dollar General,,New Britain,CT,,US,+1 860-348-5814,https://www.dollargeneral.com/store-directory/ct/new-britain/15241,Mo-Su 08:00-22:00,Dollar General,Q145168
310120,dunkin_us,Dunkin',,New Britain,CT,,US,+1 860-348-0690,https://locations.dunkindonuts.com/en/ct/new-britain/130-s-main-st/310120,Mo-Su 05:00-22:00,Dunkin',Q847743
362457,dunkin_us,Dunkin',,New Britain,CT,,US,+1 860-348-0679,https://locations.dunkindonuts.com/en/ct/new-britain/240-newington-ave/362457,24/7,Dunkin',Q847743
306803,dunkin_us,Dunkin',,New Britain,CT,,US,+1 860-348-0890,https://locations.dunkindonuts.com/en/ct/new-britain/118-e-main-st/306803,Mo-Su 04:00-22:00,Dunkin',Q847743
520258,eg_america_us,Cumberland Farms,,NEW BRITAIN,CT,,US,+1 860-224-1686,https://www.cumberlandfarms.com/find-us/generic-store-page/?id=004660,,Cumberland Farms,Q1143685
E14807,enterprise,New Britain,,New Britain,CT,,US,+1 860-827-1295,,,Enterprise Rent-A-Car,Q17085454
485,firestone_auto_care,Firestone Complete Auto Care,,New Britain,CT,,US,+1 860-356-4842,https://local.firestonecompleteautocare.com/connecticut/new-britain/55-chestnut-st/,,Firestone,Q420837
2605,gulf_pr_us,STANLEY ST GULF,,New Britain,CT,,US,+1 860-832-8294,https://www.gulfoil.com/stanley-st-gulf,,Gulf Oil,Q5617505
3103,gulf_pr_us,NEW BRITAIN GULF,,New Britain,CT,,US,,https://www.gulfoil.com/new-britain-gulf,,Gulf Oil,Q5617505
7637,h_r_block,H&R Block,,New Britain,CT,,US,+1 860-223-2742,https://www.hrblock.com/local-tax-offices/connecticut/new-britain/new-britain-shopping-center/7637/,,H&R Block,Q5627799
https://office.jacksonhewitt.com/#28009571,jackson_hewitt,Jackson Hewitt,,New Britain,CT,,US,+1 401-367-4063,https://office.jacksonhewitt.com/tax-preparation-services-locations/en/ct/new-britain/200-main-st/17438,Mo-Sa 11:00-19:00; Su 12:00-16:00,Jackson Hewitt,Q6117132
2518,key_food_us,Key Food,,New Britain,CT,,US,+1 860-505-0718,https://www.keyfood.com/store/store/2518,Mo-Sa 07:30-21:00; Su 08:00-20:00,Key Food,Q6398037
3607,rentacenter,Rent-A-Center,,New Britain,CT,,US,+1 860-225-7770,https://locations.rentacenter.com/connecticut/new-britain/134-e-main-st/,Mo-Sa 10:00-18:00,Rent-A-Center,Q7313497
6881257,soapy_noble_us,Noble Fueling Station,"240 Newington Ave, New Britain, CT 06051, USA",New Britain,CT,,US,,,,Soapy Noble,Q117237115
https://restaurants.subway.com/#14914255,subway,Subway,,New Britain Hartford,CT,,US,+1 860-924-2488,https://restaurants.subway.com/united-states/ct/new-britain/260-newington-ave,Mo-Su 10:00-20:00,Subway,Q244457
https://locations.tacobell.com/#6145446,taco_bell,Taco Bell,,New Britain,CT,,US,+1 860-827-1875,https://locations.tacobell.com/ct/new-britain/20-e-main-st.html,Mo-We 07:00-02:00; Th-Sa 07:00-03:00; Su 07:00-02:00,Taco Bell,Q752941
917C,tmobile_us,E Main St & MLK Dr,,New Britain,CT,,US,+1 860-256-8118,https://www.t-mobile.com/store-locator/ct/new-britain/e-main-st-mlk-dr,,T-Mobile,Q3511885
newbritain_oil-change-ae1423,valvoline_instant_oil_change,Valvoline,265 East Main Street ,New Britain,CT,,US,+1 860-224-6670,https://store.vioc.com/ct/newbritain/oil-change-ae1423.html,,Valvoline Instant Oil Change,Q7912852
,visa,,,NEW BRITAIN,CT,,US,,,,,
,visa,,,NEW BRITAIN,CT,,US,,,,,
,visa,,,NEW BRITAIN,CT,,US,,,,,
,visa,,,NEW BRITAIN,CT,,US,,,,,
,visa,,,NEW BRITAIN,CT,,US,,,,,
,visa,,,NEW BRITAIN,CT,,US,,,,,
,visa,,,NEW BRITAIN,CT,,US,,,,,
,visa,,,NEW BRITAIN,CT,,US,,,,,
,visa,,,NEW BRITAIN,CT,,US,,,,,
,visa,,,NEW BRITAIN,CT,,US,,,,,
,visa,,,NEW BRITAIN,CT,,US,,,,,
,visa,,,NEW BRITAIN,CT,,US,,,,,
,visa,,,NEW BRITAIN,CT,,US,,,,,
,visa,,,NEW BRITIAN,CT,,US,,,,,
https://www.walgreens.com/locator/walgreens-102+washington+st-new+britain-ct-06051/id=7585,walgreens,Walgreens,,New Britain,CT,,US,+1 860-826-7272,https://www.walgreens.com/locator/walgreens-102+washington+st-new+britain-ct-06051/id=7585,24/7,Walgreens,Q1591889
f3b5927ce2464cdc3dae2193f12ef5e3,western_union,7-ELEVEN #19960,,New Britain,CT,,US,+1 860-827-1858,https://location.westernunion.com/us/ct/new-britain/f3b5927ce2464cdc3dae2193f12ef5e3,,Western Union,Q861042
3ecd8cd538391ee7dcd1be453fc5eeb6,western_union,KEYFOOD,,New Britain,CT,,US,+1 860-505-0718,https://location.westernunion.com/us/ct/new-britain/3ecd8cd538391ee7dcd1be453fc5eeb6,Mo-Sa 07:30-21:00; Su 08:00-20:00,Western Union,Q861042
