Ref,Spider,Name,Address,City,State,Zipcode,Country,Phone,Website,Hours,Brand,WikiData
180901,bluerhino,Family Dollar #02284,,Mifflintown,PA,,US,+1 717-437-9287,,,Blue Rhino,Q65681213
185314,bluerhino,Weis #176,,Mifflintown,PA,,US,+1 717-436-6048,,,Blue Rhino,Q65681213
174731,bluerhino,Rutter's #37,,Mifflintown,PA,,US,+1 717-320-5346,,,Blue Rhino,Q65681213
11779,burgerking,Burger King,,Mifflintown,PA,,US,+1 717-436-5608,https://www.bk.com/store-locator/store/restaurant_6765,Mo-Sa 06:00-22:00; Su 07:00-22:00,Burger King,Q177054
68344,citi,ATM PNC AT SHEETZ,,Mifflintown,PA,,US,,,,Citibank,Q857063
67418,citi,ATM PENNIAN BANK03,,Mifflintown,PA,,US,,,,Citibank,Q857063
67420,citi,ATM PENNIAN BANK03,,Mifflintown,PA,,US,,,,Citibank,Q857063
64232,citi,ATM M&T Bank,,Mifflintown,PA,,US,,,,Citibank,Q857063
75234,citi,ATM Rutters #37 - 1,,Mifflintown,PA,,US,,,,Citibank,Q857063
75235,citi,ATM Rutters #37 - 2,,Mifflintown,PA,,US,,,,Citibank,Q857063
15200,dollar_general,Dollar General,,Mifflintown,PA,,US,+1 717-436-3320,https://www.dollargeneral.com/store-directory/pa/mifflintown/15200,Mo-Su 08:00-21:00,Dollar General,Q145168
11657,dollar_general,Dollar General,,Mifflintown,PA,,US,+1 717-320-8022,https://www.dollargeneral.com/store-directory/pa/mifflintown/11657,Mo-Su 08:00-21:00,Dollar General,Q145168
22284,family_dollar_us,FAMILY DOLLAR #2284,,Mifflintown,PA,,US,+1 717-447-6003,https://www.familydollar.com/locations/pa/mifflintown/22284/,Mo-Su 08:00-22:00,Family Dollar,Q5433101
37158,h_r_block,H&R Block,,Mifflintown,PA,,US,+1 717-436-8035,https://www.hrblock.com/local-tax-offices/pennsylvania/mifflintown/4277-william-penn-hwy/37158/,,H&R Block,Q5627799
pa_mifflintown_breakfast-33-stop-plaza-drive-5647,ihop,IHOP Breakfast Restaurants Near You at 33 Stop Plaza Drive,,Mifflintown,PA,,US,+1 717-436-8941,https://restaurants.ihop.com/en-us/pa/mifflintown/breakfast-33-stop-plaza-drive-5647,,IHOP,Q1185675
3322,mightyflame,MINIT MART #338,,MIFFLINTOWN,PA,,US,+1 717-436-9928,,,Mighty Flame,
https://restaurants.subway.com/#14915703,subway,Subway,,Mifflintown Juniata,PA,,US,+1 717-436-6755,https://restaurants.subway.com/united-states/pa/mifflintown/1858-butchershop-road,Mo-Su 08:00-21:00,Subway,Q244457
1373046,usps,MIFFLINTOWN,,MIFFLINTOWN,PA,,US,+1 717-436-2515,,Mo-Fr 08:00-16:30; Sa 09:00-11:00,United States Postal Service,Q668687
1442245,usps,MIFFLINTOWN CARRIER ANNEX,,MIFFLINTOWN,PA,,US,+1 717-436-2515,,,United States Postal Service,Q668687
1705900009,usps_collection_boxes,USPS COLLECTION BOX - PO LOBBY,150 BRIDGE ST,MIFFLINTOWN,PA,,US,,,,United States Postal Service,Q668687
1705900007,usps_collection_boxes,USPS COLLECTION BOX - PO LOBBY,150 BRIDGE ST,MIFFLINTOWN,PA,,US,,,,United States Postal Service,Q668687
1705900006,usps_collection_boxes,USPS COLLECTION BOX - BLUE BOX,150 BRIDGE ST,MIFFLINTOWN,PA,,US,,,,United States Postal Service,Q668687
1705900001,usps_collection_boxes,USPS COLLECTION BOX - BLUE BOX,501 NORTH ST,MIFFLINTOWN,PA,,US,,,,United States Postal Service,Q668687
1705900005,usps_collection_boxes,USPS COLLECTION BOX - BLUE BOX,33 STOP PLAZA DR,MIFFLINTOWN,PA,,US,,,,United States Postal Service,Q668687
1705900003,usps_collection_boxes,USPS COLLECTION BOX - BLUE BOX,4048 WILLIAM PENN HWY,MIFFLINTOWN,PA,,US,,,,United States Postal Service,Q668687
,visa,,,MIFFLINTOWN,PA,,US,,,,,
,visa,,,MIFFLINTOWN,PA,,US,,,,,
,visa,,,MIFFLINTOWN,PA,,US,,,,,
,visa,,,MIFFLINTOWN,PA,,US,,,,,
,visa,,,MIFFLINTOWN,PA,,US,,,,,
,visa,,,MIFFLINTOWN,PA,,US,,,,,
,visa,,,MIFFLINTOWN,PA,,US,,,,,
,visa,,,MIFFLINTOWN,PA,,US,,,,,
,visa,,,MIFFLINTOWN,PA,,US,,,,,
,visa,,,MIFFLINTOWN,PA,,US,,,,,
,visa,,,MIFFLINTOWN,PA,,US,,,,,
,visa,,,MIFFLINTOWN,PA,,US,,,,,
,visa,,,MIFFLINTOWN,PA,,US,,,,,
,visa,,,MIFFLINTOWN,PA,,US,,,,,
,visa,,,MIFFLINTOWN,PA,,US,,,,,
,visa,,,MIFFLINTOWN,PA,,US,,,,,
,visa,,,MIFFLINTOWN,PA,,US,,,,,
