Ref,Spider,Name,Address,City,State,Zipcode,Country,Phone,Website,Hours,Brand,WikiData
11002600,bp,Witold Piatkowski,,Berlin,,,DE,+49 30 4961035,http://tankstelle.aral.de/tankstelle/11002600,Mo-Su 06:00-22:00,BP,Q152057
33779,dominos_pizza_de,Domino's Pizza Berlin Reinickendorf,,Berlin,,,DE,,https://www.dominos.de/filiale/de-berlinreinickendorf-33779,,Domino's,Q839466
https://www.fressnapf.de/stores/fressnapf-berlin-reinickendorf/,fressnapf_de,Fressnapf Berlin Reinickendorf,,Berlin-Pankow,,,DE,+49 30 43724675,https://www.fressnapf.de/stores/fressnapf-berlin-reinickendorf/,Mo-Fr 09:00-20:00; Sa 09:00-18:00,Fressnapf,Q875796
2760221930,gls_de,Residenz-Fotograf GmbH,,Berlin,,,DE,+49 30 4557780,,Mo-Fr 10:00-18:00; Sa 10:00-13:00,General Logistics Systems,Q46495823
2760917329,gls_de,Provinz Trödel,,Berlin,,,DE,+49 176 78464566,,Mo-Fr 10:00-18:00,General Logistics Systems,Q46495823
2760915928,gls_de,Bio Car Cosmetic,,Berlin,,,DE,+49 163 7793550,,Mo-Sa 09:30-17:00,General Logistics Systems,Q46495823
DE6870,kaufland,"Kaufland Berlin, Residenzstr.",,Berlin-Gesundbrunnen,,,DE,+49 30 499870870,https://filiale.kaufland.de/service/filiale/frankfurt-oder-spitzkrug-multi-center-berlin-gesundbrunnen-residenzstr--6870.html,Mo-Th 07:00-24:00; Sa 07:00-23:30,Kaufland,Q685967
2689,kik,KiK,,Berlin Reinickendorf,,,DE,+49 30 43724494,,Mo-Sa 09:00-19:00,KiK,Q883965
5176,lidl_de,,,Berlin-Mitte-Gesundbrunnen,,,DE,,,Mo-Sa 07:00-21:00,Lidl,Q151954
1269,lidl_de,,,Berlin-Reinickendorf,,,DE,,,Mo-Sa 07:00-21:00,Lidl,Q151954
71001164,moneygram,PHONELAND - BERLIN,,BERLIN,,,DE,+49 30 4989790,,Mo-Sa 09:00-20:00; Su 00:00-24:00,MoneyGram,Q1944412
https://www.rossmann.de/de/filialen/berlin/berlin/residenzstr--42.html,rossmann_de,Rossmann Drogerie-Markt Residenzstr. 42,,Berlin,,,DE,+49 30 43722690,https://www.rossmann.de/de/filialen/berlin/berlin/residenzstr--42.html,Mo-Th 08:00-20:00; Sa 08:00-19:00,Rossmann,Q316004
131776,sparkasse_de,Berliner Sparkasse Geldautomat Kaufland Residenzstraße,,Berlin,,,DE,+49 30 86986969,https://www.sparkasse.de/standorte/geldautomaten/berliner-sparkasse-geldautomat-kaufland-residenzstrasse-131776,Mo-Fr 07:00-24:00; Sa 07:30-23:30,Sparkasse,Q13601825
37014,sparkasse_de,Berliner Sparkasse Geldautomat Residenzstraße,,Berlin,,,DE,+49 30 86986969,https://www.sparkasse.de/standorte/geldautomaten/berliner-sparkasse-geldautomat-residenzstrasse-37014,Mo-Fr 06:00-23:00; Sa-Su 08:00-23:00,Sparkasse,Q13601825
120,sparkasse_de,Berliner Sparkasse BeratungsCenter Residenzstraße,,Berlin,,,DE,+49 30 86986969,https://www.sparkasse.de/standorte/filialen/berliner-sparkasse-beratungs-center-residenzstrasse-120,Mo 09:00-15:00; Tu 09:00-18:00; We 09:00-15:00; Th 09:00-18:00; Fr 09:00-15:00,Sparkasse,Q13601825
79645,steinecke_de,Brotmeisterei Steinecke,,Berlin,,,DE,+49 30 47036907,,Mo-Sa 07:00-20:00,Steinecke,Q57516278
DE_EXT_01856,totalenergies,"ARAL TANKSTELLE BERLIN, RESIDE",,Berlin,,,DE,,https://store.totalenergies.fr/en_EN/DE_EXT_01856,,Aral,Q565734
3486,valora,Cigo,,Berlin,,,DE,,,,Cigo,Q113290782
,visa,,,BERLIN,,,DE,,,,,
,visa,,,BERLIN,,,DE,,,,,
,visa,,,BERLIN,,,DE,,,,,
,visa,,,BERLIN,,,DE,,,,,
,visa,,,BERLIN,,,DE,,,,,
,visa,,,BERLIN,,,DE,,,,,
,visa,,,BERLIN,,,DE,,,,,
,visa,,,BERLIN,,,DE,,,,,
,visa,,,BERLIN,,,DE,,,,,
,visa,,,BERLIN,,,DE,,,,,
