Ref,Spider,Name,Address,City,State,Zipcode,Country,Phone,Website,Hours,Brand,WikiData
https://locations.arbys.com/ks/gardner/1870-e-santa-fe-st.html,arbys_us,"Arby's Fast-Food Drive Through Near You in Gardner, KS",,Gardner,KS,,US,+1 913-884-2955,https://locations.arbys.com/ks/gardner/1870-e-santa-fe-st.html,Mo-Su 09:30-23:00,Arby's,Q630866
3781,autozone_us,AutoZone Auto Parts Gardner,,Gardner,KS,,US,+1 913-856-4968,https://www.autozone.com/locations/ks/gardner/625-e-main-st.html,Mo-Sa 07:30-20:00; Su 09:00-20:00,AutoZone,Q4826087
111584,bluerhino,Star Fuel #150,,Gardner,KS,,US,+1 913-856-4001,,,Blue Rhino,Q65681213
203420,bluerhino,CASEY'S GENERAL STORE #3056,,GARDNER,KS,,US,+1 913-856-6280,,,Blue Rhino,Q65681213
225294,bluerhino,Bomgaar's #127,,Gardner,KS,,US,+1 913-884-6767,,,Blue Rhino,Q65681213
203439,bluerhino,CASEY'S GENERAL STORE #3403,,Gardner,KS,,US,+1 913-289-4490,,,Blue Rhino,Q65681213
152570,bluerhino,Walgreens #10150,,Gardner,KS,,US,+1 785-271-9981,,,Blue Rhino,Q65681213
222929,bluerhino,Westlake Ace Hardware #179 - Ace #18561,,Gardner,KS,,US,+1 913-856-4536,,,Blue Rhino,Q65681213
93658,bluerhino,Walmart #5307,,Gardner,KS,,US,+1 913-884-8004,,,Blue Rhino,Q65681213
190015,bluerhino,Minit Mart #770,,Gardner,KS,,US,+1 913-856-2463,,,Blue Rhino,Q65681213
09021525809056603000100000961334,bp,Amoco,,Gardner,KS,,US,+1 531-829-4244,,24/7,BP,Q152057
92785,citi,ATM Walgreens,,Gardner,KS,,US,,,,Citibank,Q857063
65295,citi,ATM MID AMERICA BANK,,Gardner,KS,,US,,,,Citibank,Q857063
47055,citi,ATM CVS,,Gardner,KS,,US,,,,Citibank,Q857063
39147,citi,ATM Central Bank,,Gardner,KS,,US,,,,Citibank,Q857063
65293,citi,ATM MID AMERICA BANK,,Gardner,KS,,US,,,,Citibank,Q857063
39356,citi,ATM Central Bank,,Gardner,KS,,US,,,,Citibank,Q857063
,credit_union_us,Frontier Community CU,,Gardner,KS,,US,+1 913-651-6575,,Mo-Fr 09:00-05:00,,
10862,cvs_us,CVS Pharmacy,,Gardner,KS,,US,+1 913-856-0280,https://www.cvs.com/store-locator/gardner-ks-pharmacies/110-west-main-st-gardner-ks-66030/storeid=10862,Mo-Fr 08:00-22:00; Sa 08:00-21:00; Su 09:00-20:00,CVS Pharmacy,Q2078880
6328,dominos_pizza_us,Domino's Pizza,,Gardner,KS,,US,+1 913-884-7200,https://pizza.dominos.com/kansas/gardner/937-lincoln-lane,Mo-Th 10:30-24:00; Fr-Sa 10:30-01:00; Su 10:30-24:00,Domino's,Q839466
https://www.edwardjones.com/us-en/financial-advisor/peter-carr,edwardjones,Peter B Carr,,Gardner,KS,,US,+1 913-856-8846,https://www.edwardjones.com/us-en/financial-advisor/peter-carr,Mo-Th 08:00-17:00; Fr 08:00-15:00,Edward Jones,Q5343830
520931,eg_america_us,Minit Mart,,Gardner,KS,,US,+1 913-856-2463,https://www.minitmart.com/find-us/generic-store-page/?id=600770,,Minit Mart,Q18154470
E10584,enterprise,Gardner,,Gardner,KS,,US,+1 913-355-2039,,,Enterprise Rent-A-Car,Q17085454
https://salons.greatclips.com/us/ks/gardner/1813-e-santa-fe-st,greatclips,Great Clips,,Gardner,KS,,US,+1 913-884-8228,https://salons.greatclips.com/us/ks/gardner/1813-e-santa-fe-st,Mo-Fr 09:00-18:00; Sa 09:00-17:00; Su 11:00-17:00,Great Clips,Q5598967
mcigkhx-hampton-gardner-conference-center,hilton,Hampton Inn Gardner Conference  Center,,,KS,,US,+1 913-856-2100,https://www.hilton.com/ar/hotels/mcigkhx-hampton-gardner-conference-center/,,Hampton by Hilton,Q5646230
26664,h_r_block,H&R Block,,Gardner,KS,,US,+1 785-816-5962,https://www.hrblock.com/local-tax-offices/kansas/gardner/812-e-main-st/26664/,,H&R Block,Q5627799
https://office.jacksonhewitt.com/#64293385,jackson_hewitt,Jackson Hewitt,,Gardner,KS,,US,+1 816-282-0923,https://office.jacksonhewitt.com/tax-preparation-services-locations/en/ks/gardner/1725-e-santa-fe-st/55307,Mo-Sa 11:00-19:00; Su 13:00-17:00,Jackson Hewitt,Q6117132
https://locations.kfc.com/#11248895,kfc,Chicken Nuggets Near Gardner,,Gardner,KS,,US,,https://locations.kfc.com/ks/gardner/651-east-main-street/chickennugget,Mo-Su 11:00-23:00,KFC,Q524757
https://locations.oreillyauto.com/ks/gardner/check-engine-light-testing-354.html,oreilly,Your Gardner O'Reilly Auto Parts Store,,Gardner,KS,,US,+1 913-856-8473,https://locations.oreillyauto.com/ks/gardner/check-engine-light-testing-354.html,Mo-Sa 07:30-22:00; Su 08:00-20:00,O'Reilly Auto Parts,Q7071951
https://locations.oreillyauto.com/ks/gardner/wiper-installation-354.html,oreilly,Your Gardner O'Reilly Auto Parts Store,,Gardner,KS,,US,+1 913-856-8473,https://locations.oreillyauto.com/ks/gardner/wiper-installation-354.html,Mo-Sa 07:30-22:00; Su 08:00-20:00,O'Reilly Auto Parts,Q7071951
https://locations.oreillyauto.com/ks/gardner/battery-testing-354.html,oreilly,Your Gardner O'Reilly Auto Parts Store,,Gardner,KS,,US,+1 913-856-8473,https://locations.oreillyauto.com/ks/gardner/battery-testing-354.html,Mo-Sa 07:30-22:00; Su 08:00-20:00,O'Reilly Auto Parts,Q7071951
https://locations.oreillyauto.com/ks/gardner/autopartes-354.html,oreilly,Tu tienda O'Reilly Auto Parts en Gardner,,Gardner,KS,,US,+1 913-856-8473,https://locations.oreillyauto.com/ks/gardner/autopartes-354.html,Mo-Sa 07:30-22:00; Su 08:00-20:00,O'Reilly Auto Parts,Q7071951
206475,pandaexpress,E Santa Fe St & Cedar Niles Rd,,Gardner,KS,,US,+1 913-392-8969,https://www.pandaexpress.com/locations/ks/gardner/1765-e-santa-fe-st,Mo-Sa 10:00-21:30; Su 10:00-21:00,Panda Express,Q1358690
https://locations.papamurphys.com/#15430170,papamurphys,Pizza Takeout & Delivery,,Gardner,KS,,US,+1 913-938-4300,https://locations.papamurphys.com/ks/gardner/800-e-main-street,Mo-Th 11:00-21:00; Fr-Sa 11:00-22:00; Su 11:00-21:00,Papa Murphy's,Q7132349
https://locations.papajohns.com/#28754877,papa_johns,Papa John's,,Gardner,KS,,US,+1 913-215-5101,https://locations.papajohns.com/united-states/ks/66030/gardner/325-n-moonlight-road,Mo-Th 10:30-24:00; Fr-Sa 10:30-01:00; Su 10:30-24:00,Papa John's Pizza,Q2759586
0000893850,phillips_66_conoco_76,MINIT MART EG 770,,GARDNER,KS,,US,+1 913-856-2463,,,Phillips 66,Q1656230
0000883030,phillips_66_conoco_76,X PRESS,,GARDNER,KS,,US,+1 913-856-8955,,,Phillips 66,Q1656230
ks_gardner_619-e-main-st,pizza_hut_us,619 E Main St,,Gardner,KS,,US,+1 913-884-6116,https://locations.pizzahut.com/ks/gardner/619-e-main-st,,Pizza Hut,Q191615
https://locations.quiktrip.com/#16004261,quiktrip_us,QuikTrip Store #249 694 E Main St,,Gardner,KS,,US,+1 913-884-4786,https://locations.quiktrip.com/ks/gardner/694-e-main-st,24/7,QuikTrip,Q7271953
https://locations.quiktrip.com/#38057824,quiktrip_us,QuikTrip Store #294 18860 Gardner Rd,,Gardner,KS,,US,+1 913-603-6303,https://locations.quiktrip.com/ks/gardner/18860-gardner-rd,24/7,QuikTrip,Q7271953
8410,regal_nails_us,"Regal Nails, Salon &#038; Spa",1725 E Santa Fe Street,Gardner,KS,,US,+1 913-884-4744,,,Regal Nails,Q108918028
151,scooters_coffee_us,Gardner,,Gardner,KS,,US,+1 913-283-8576,,Mo-Fr 05:00-21:00; Sa-Su 05:30-21:00,Scooter's Coffee,Q117280308
https://restaurants.subway.com/#14904792,subway,Subway,,Gardner Johnson,KS,,US,+1 913-856-6800,https://restaurants.subway.com/united-states/ks/gardner/1809-e-santa-fe,Mo-Su 09:00-22:00,Subway,Q244457
https://restaurants.subway.com/#14903287,subway,Subway,,Gardner Johnson,KS,,US,+1 913-856-7827,https://restaurants.subway.com/united-states/ks/gardner/29550-w-191-street,Mo-Su 09:00-22:00,Subway,Q244457
8002583001,sunoco_us,Sunoco,,GARDNER,KS,,US,,,,Sunoco,Q1423218
https://locations.tacobell.com/#6142612,taco_bell,Taco Bell,,Gardner,KS,,US,+1 913-856-6299,https://locations.tacobell.com/ks/gardner/651-east-main-street.html,Mo-Th 10:30-23:00; Fr-Sa 10:30-24:00; Su 10:30-23:00,Taco Bell,Q752941
5784,upsstore,Gardner,814 E Main St,Gardner,KS,,US,+1 913-856-4501,https://locations.theupsstore.com/ks/gardner/814-e-main-st,,UPS Store,Q7771029
1364444,usps,GARDNER,,GARDNER,KS,,US,+1 913-856-7275,,Mo-Fr 08:00-16:30; Sa 08:30-12:00,United States Postal Service,Q668687
6603000004,usps_collection_boxes,USPS COLLECTION BOX - BLUE BOX,110 WEST MAIN,GARDNER,KS,,US,,,,United States Postal Service,Q668687
6603000000,usps_collection_boxes,USPS COLLECTION BOX - BLUE BOX,18325 S GARDNER RD,GARDNER,KS,,US,,,,United States Postal Service,Q668687
6603000005,usps_collection_boxes,USPS COLLECTION BOX - PO LOBBY,18325 S GARDNER RD,GARDNER,KS,,US,,,,United States Postal Service,Q668687
6603000006,usps_collection_boxes,USPS COLLECTION BOX - PO LOBBY,18325 S GARDNER RD,GARDNER,KS,,US,,,,United States Postal Service,Q668687
6603000013,usps_collection_boxes,USPS COLLECTION BOX - PO LOBBY,18325 S GARDNER RD,GARDNER,KS,,US,,,,United States Postal Service,Q668687
6603000003,usps_collection_boxes,USPS COLLECTION BOX - BLUE BOX,830 E MAIN ST,GARDNER,KS,,US,,,,United States Postal Service,Q668687
6603000007,usps_collection_boxes,USPS COLLECTION BOX - BLUE BOX,101 BEECH ST,GARDNER,KS,,US,,,,United States Postal Service,Q668687
6603000008,usps_collection_boxes,USPS COLLECTION BOX - BLUE BOX,1000 WILDERNESS TRL,GARDNER,KS,,US,,,,United States Postal Service,Q668687
6603000002,usps_collection_boxes,USPS COLLECTION BOX - BLUE BOX,1199 E SANTA FE ST,GARDNER,KS,,US,,,,United States Postal Service,Q668687
0000013033,valero,Gardner Valero,,Gardner,KS,,US,+1 913-884-6563,https://locations.valero.com/en-us/LocationDetails/Index/432-E-MAIN-STREET/0000013033,,Valero,Q1283291
A00000233701,verizon_us,Wireless Zone Gardner KS,,GARDNER,KS,,US,+1 913-884-4418,https://www.verizon.com/stores/details/kansas/gardner/tcc-gardner-1846922/,Mo-Sa 09:00-19:00; Su 11:00-17:00,Verizon,Q919641
,visa,,,GARDNER,KS,,US,,,,,
,visa,,,GARDNER,KS,,US,,,,,
,visa,,,GARDNER,KS,,US,,,,,
,visa,,,GARDNER,KS,,US,,,,,
,visa,,,GARDNER,KS,,US,,,,,
,visa,,,GARDNER,KS,,US,,,,,
,visa,,,GARDNER,KS,,US,,,,,
,visa,,,GARDNER,KS,,US,,,,,
,visa,,,GARDNER,KS,,US,,,,,
,visa,,,GARDNER,KS,,US,,,,,
,visa,,,GARDNER,KS,,US,,,,,
,visa,,,GARDNER,KS,,US,,,,,
,visa,,,GARDNER,KS,,US,,,,,
,visa,,,GARDNER #2,KS,,US,,,,,
,visa,,,GARDNER #2,KS,,US,,,,,
,visa,,,GARDNER,KS,,US,,,,,
,visa,,,GARDNER,KS,,US,,,,,
,visa,,,GARDNER,KS,,US,,,,,
,visa,,,GARDNER,KS,,US,,,,,
,visa,,,GARDNER,KS,,US,,,,,
https://www.walgreens.com/locator/walgreens-750+e+main+st-gardner-ks-66030/id=10150,walgreens,Walgreens,,Gardner,KS,,US,+1 913-884-7912,https://www.walgreens.com/locator/walgreens-750+e+main+st-gardner-ks-66030/id=10150,Mo-Su 08:00-21:00,Walgreens,Q1591889
a1768a750df1d76f62a605292c1ef900,western_union,QUIKTRIP #294,,Gardner,KS,,US,+1 913-603-6301,https://location.westernunion.com/us/ks/gardner/a1768a750df1d76f62a605292c1ef900,,Western Union,Q861042
4e54df04438d8438f697bbb84fbc78ff,western_union,WALMART #005307,,Gardner,KS,,US,+1 913-884-8004,https://location.westernunion.com/us/ks/gardner/4e54df04438d8438f697bbb84fbc78ff,Mo-Su 07:00-21:00,Western Union,Q861042
