Ref,Spider,Name,Address,City,State,Zipcode,Country,Phone,Website,Hours,Brand,WikiData
35199_1,bmw_group,Excel Automotriz Tegucigalpa,,Tegucigalpa,,,HN,+504-22084275,https://www.bmw.hn,,BMW,Q26678
35199_2,bmw_group,AUTOEXCEL S.A. de C.V.,,Tegucigalpa,,,HN,+504-22084275,https://www.bmw.hn,,BMW,Q26678
68487607,moneygram,BANCO ATLANTIDA - LEYDE  TEGUCIGALPA,,TEGUCIGALPA,,,HN,122800000,,Mo-Sa 11:00-19:00; Su 09:00-17:00,MoneyGram,Q1944412
68524502,moneygram,LOFISA - #6001 - TEGUCIGALPA,,TEGUCIGALPA,,,HN,+504 2776-1992,,Mo-Fr 08:00-16:00; Sa 08:00-12:00; Su 00:00-24:00,MoneyGram,Q1944412
68448688,moneygram,BANCO ATLANTIDA,,TEGUCIGALPA,,,HN,2817651521,,Mo-Fr 00:00-18:00; Sa-Su 00:00-24:00,MoneyGram,Q1944412
72705799,moneygram,BANCO ATLANTIDA - #156 - TIGO CITY MALL,,TEGUCIGALPA,,,HN,+504 2280-0000,,Mo-Su 09:30-19:00,MoneyGram,Q1944412
72705809,moneygram,BANCO ATLANTIDA - #157 - TIGO MALL MULTI,,TEGUCIGALPA,,,HN,+504 2280-0000,,Mo-Su 09:30-19:00,MoneyGram,Q1944412
72705825,moneygram,BANCO ATLANTIDA - #159 - TIGO MALL CASCA,,TEGUCIGALPA,,,HN,+504 2280-0000,,Mo-Fr 09:30-20:00; Sa 09:30-19:00; Su 09:30-16:00,MoneyGram,Q1944412
72705838,moneygram,BANCO ATLANTIDA - #160 - AMDC,,TEGUCIGALPA,,,HN,+504 2280-0000,,Mo-Sa 08:00-19:00; Su 00:00-24:00,MoneyGram,Q1944412
72705841,moneygram,BANCO ATLANTIDA - #161 - CENTRO DE NEGOC,,TEGUCIGALPA,,,HN,+504 2280-0000,,Mo-Sa 08:00-19:00; Su 00:00-24:00,MoneyGram,Q1944412
72705854,moneygram,BANCO ATLANTIDA - #162 - PLAZA LAS HADAS,,TEGUCIGALPA,,,HN,+504 2280-0000,,Mo-Sa 08:00-19:00; Su 00:00-24:00,MoneyGram,Q1944412
69203165,moneygram,BANCO DE OCCIDENTE - #431 - Autob. El Tr,,TEGUCIGALPA,,,HN,+504 2231-1120,,Mo-Fr 08:00-19:30; Sa-Su 07:00-17:00,MoneyGram,Q1944412
69203974,moneygram,BANCO DE OCCIDENTE - #433 - Autob. Edif.,,TEGUCIGALPA,,,HN,+504 2290-4100,,Mo-Fr 08:00-19:30; Sa-Su 07:00-17:00,MoneyGram,Q1944412
69205493,moneygram,BANCO DE OCCIDENTE - #423 - Autob.  Los,,TEGUCIGALPA,,,HN,+504 2221-1104,,Mo-Fr 08:00-19:30; Sa-Su 07:00-17:00,MoneyGram,Q1944412
69205503,moneygram,BANCO DE OCCIDENTE - #441 - Agencia UNIC,,TEGUCIGALPA,,,HN,+504 2290-4100,,Mo-Fr 08:00-19:30; Sa-Su 07:00-17:00,MoneyGram,Q1944412
69240872,moneygram,BANCO AZTECA - #9401 - TEGUCIGALPA,,TEGUCIGALPA,,,HN,5517208177,,Mo-Su 06:00-22:00,MoneyGram,Q1944412
69240953,moneygram,BANCO AZTECA - #1956 - TEGUCIGALPA,,TEGUCIGALPA,,,HN,5517208177,,Mo-Su 06:00-22:00,MoneyGram,Q1944412
73684275,moneygram,PULPERIA JENNYFER,,OLANCHO,,,HN,+504 9683-0459,,Mo-Su 06:00-21:00,MoneyGram,Q1944412
73684136,moneygram,MERCADITO TRAPICHE,,FRANCISCO MORAZAN,,,HN,+504 3203-9829,,Mo-Sa 08:00-21:00; Su 00:00-24:00,MoneyGram,Q1944412
73844808,moneygram,BANCO FICOHSA - #1408 - VTN ISTMANIA TGU,,TGU,,,HN,2239610,,Mo 10:00-18:00; Tu 10:00-17:00; We-Fr 09:00-17:00; Sa 09:00-12:00; Su 00:00-24:00,MoneyGram,Q1944412
73844811,moneygram,BANCO FICOHSA - #1409 - VTN ISTMANIA SPS,,SPS,,,HN,2239610,,Mo 11:00-19:00; Tu 11:00-17:00; We-Fr 09:00-17:00; Sa 09:00-12:00; Su 00:00-24:00,MoneyGram,Q1944412
73886510,moneygram,PUERTO PLATA 2 - DISTRITO CENTRAL - PUER,,DISTRITO CENTRAL,,,HN,+504 9774-4444,,Mo-Su 08:00-21:00,MoneyGram,Q1944412
73946337,moneygram,BANCO ATLANTIDA - BANCA PRIVADA TGU,,TEGUCIGALPA,,,HN,2280000,,Mo-Sa 08:00-19:00; Su 00:00-24:00,MoneyGram,Q1944412
74069802,moneygram,MERCADITO MARVIN - DISTRITO CENTRAL - ME,,DISTRITO CENTRAL,,,HN,+504 9966-0121,,Mo-Su 07:00-22:00,MoneyGram,Q1944412
74210745,moneygram,SUMINISTROS SOFIA - DISTRITO CENTRAL - P,,DISTRITO CENTRAL,,,HN,+504 9619-0132,,Mo-Sa 08:30-22:30; Su 22:30-08:30,MoneyGram,Q1944412
74226069,moneygram,BANCO ATLANTIDA - PLAZA VILLA SAN MIGUEL,,TEGUCIGALPA,,,HN,2801010,,Mo-Sa 08:00-19:00; Su 00:00-24:00,MoneyGram,Q1944412
44537076,moneygram,BANCO ATLANTIDA,,TEGUCIGALPA,,,HN,5042800000,,Mo-Su 09:00-17:00,MoneyGram,Q1944412
74247789,moneygram,MERCADITO HONDURAS - DISTITRO CENTRAL -,,DISTITRO CENTRAL,,,HN,+504 3381-5699,,Mo-Su 07:00-20:00,MoneyGram,Q1944412
74251445,moneygram,INVERSIONES LAS PALMAS - TALANGA - MI RA,,TALANGA,,,HN,+504 9550-4753,,Mo-Su 07:00-20:00,MoneyGram,Q1944412
74257384,moneygram,PULPERIA ABUELA CRISTINA - TEGUCIGALPA -,,TEGUCIGALPA,,,HN,+504 3236-9537,,Mo-Su 07:00-22:00,MoneyGram,Q1944412
74262984,moneygram,PULPERIA MIRNIS - TEGUCIGALPA - PUL. MIR,,TEGUCIGALPA,,,HN,9485573,,Mo-Su 08:00-19:00,MoneyGram,Q1944412
74337686,moneygram,FARMACIA SALUD CONSCIENTE - DISTRITO CEN,,DISTRITO CENTRAL,,,HN,+504 3337-8617,,Mo-Su 08:00-20:00,MoneyGram,Q1944412
74261765,moneygram,PULPERIA KENIA - TEGUCIGALPA - PULPERIA,,TEGUCIGALPA,,,HN,+504 9660-8383,,Mo-Su 07:30-20:30,MoneyGram,Q1944412
74290794,moneygram,PULPERIA MARIA JOSE - PULPERIA MARIA JOS,,AMARATECA,,,HN,+504 9802-9619,,Mo-Sa 08:00-18:00; Su 00:00-24:00,MoneyGram,Q1944412
74300943,moneygram,PULPERIA SEVEN - TEGUCIGALPA - PULPERIA,,TEGUCIGALPA,,,HN,+504 9809-7823,,Mo-Sa 08:00-19:00; Su 00:00-24:00,MoneyGram,Q1944412
74464151,moneygram,KIOSCO DNVT - KIOSCO DNVT,,TEGUCIGALPA,,,HN,2801049,,Mo-Su 07:00-17:00,MoneyGram,Q1944412
74464164,moneygram,KIOSKO VILLA SAN MIGUEL TGU - KIOSKO VIL,,TEGUCIGALPA,,,HN,2801049,,Mo-Su 07:00-17:00,MoneyGram,Q1944412
74464177,moneygram,KSDLC06SANTA FE - KSDLC06SANTA FE,,TEGUCIGALPA,,,HN,2801049,,Mo-Su 07:00-17:00,MoneyGram,Q1944412
74464193,moneygram,KSDLC1 LA BLVD. SUYAPA - KSDLC1 LA BLVD.,,TEGUCIGALPA,,,HN,2801049,,Mo-Su 07:00-17:00,MoneyGram,Q1944412
74464216,moneygram,KSDLC32 COUNTRY - KSDLC32 COUNTRY,,TEGUCIGALPA,,,HN,2801049,,Mo-Su 07:00-17:00,MoneyGram,Q1944412
74464203,moneygram,KSDLC5 KENNEDY - KSDLC5 KENNEDY,,TEGUCIGALPA,,,HN,2801049,,Mo-Su 07:00-17:00,MoneyGram,Q1944412
74464180,moneygram,KSDLC9 LA GRANJA - KSDLC9 LA GRANJA,,TEGUCIGALPA,,,HN,2801049,,Mo-Su 07:00-17:00,MoneyGram,Q1944412
74486867,moneygram,MERCADITO LILIAN,,TEGUCIGALPA,,,HN,9226922,,Mo-Sa 06:00-23:00; Su 00:00-24:00,MoneyGram,Q1944412
74489819,moneygram,DIGITAL TECHNOLOGY CRISTO MI FORTALEZA,,TEGUCIGALPA,,,HN,5662020,,Mo-Sa 06:00-23:00; Su 00:00-24:00,MoneyGram,Q1944412
74489822,moneygram,FARMACIA JESUS DE NAZARET - FARMACIA JES,,TEGUCIGALPA,,,HN,5662020,,Mo-Sa 06:00-23:00; Su 00:00-24:00,MoneyGram,Q1944412
74490468,moneygram,INVERSIONES PINEDA,,TEGUCIGALPA,,,HN,+504 3323-2898,,Mo-Sa 06:00-23:00; Su 00:00-24:00,MoneyGram,Q1944412
74489851,moneygram,MERCADITO FUJIN CHENG,,TEGUCIGALPA,,,HN,+504 9370-4831,,Mo-Su 06:00-23:00,MoneyGram,Q1944412
74490471,moneygram,SALA DE BELLEZA LILIAN,,TEGUCIGALPA,,,HN,+504 3141-2857,,Mo-Sa 06:00-23:00; Su 00:00-24:00,MoneyGram,Q1944412
74491661,moneygram,INVERSIONES E Y L - MINI MARKET EL DORAD,,TEGUCIGALPA,,,HN,624439739,,Mo-Su 06:00-23:00,MoneyGram,Q1944412
74492657,moneygram,CYBER Y VARIEDADES MI BENDICION,,TEGUCIGALPA,,,HN,+504 9992-9956,,Mo-Su 06:00-23:00,MoneyGram,Q1944412
74495311,moneygram,INTERTELECOM,,TEGUCIGALPA,,,HN,+504 9910-8858,,Mo-Su 06:00-23:00,MoneyGram,Q1944412
40689889,moneygram,BANCO ATLANTIDA - SEXTA AVENIDA,,COMAYAGUELA,,,HN,5042321050,,Mo-Sa 08:00-19:00; Su 00:00-24:00,MoneyGram,Q1944412
74524282,moneygram,INVERSIONES SUYAPITA,,TEGUCIGALPA,,,HN,+504 8983-6512,,Mo-Sa 06:00-23:00; Su 00:00-24:00,MoneyGram,Q1944412
74526992,moneygram,MERCADITO PRECIO JUSTO,,TEGUCIGALPA,,,HN,+504 9985-6793,,Mo-Sa 06:00-23:00; Su 00:00-24:00,MoneyGram,Q1944412
74536319,moneygram,COMERCIAL MARK,,TEGUCIGALPA,,,HN,2245679,,Mo-Sa 06:00-23:00; Su 00:00-24:00,MoneyGram,Q1944412
74536322,moneygram,PULPERIA WILLIAM,,TEGUCIGALPA,,,HN,+504 9849-5145,,Mo-Sa 06:00-23:00; Su 00:00-24:00,MoneyGram,Q1944412
74536306,moneygram,PULPERIA Y ABARROTERIA L-12,,TEGUCIGALPA,,,HN,+504 9521-6655,,Mo-Sa 06:00-23:00; Su 00:00-24:00,MoneyGram,Q1944412
74541799,moneygram,PULPERIA 7 HERMANOS,,OJOJONA,,,HN,+504 9734-5345,,Mo-Sa 06:00-23:00; Su 00:00-24:00,MoneyGram,Q1944412
74541553,moneygram,VARIEDADES RICHARD,,TEGUCIGALPA,,,HN,8836268,,Mo-Sa 06:00-23:00; Su 00:00-24:00,MoneyGram,Q1944412
74541566,moneygram,NOVEDADES MONICA,,TEGUCIGALPA,,,HN,9783312,,Mo-Su 06:00-23:00,MoneyGram,Q1944412
74549461,moneygram,COMERCIAL Y DISTRIBUCIONES EL MIRADOR 2,,TEGUCIGALPA,,,HN,+504 3316-8203,,Mo-Su 06:00-23:00,MoneyGram,Q1944412
74549445,moneygram,INVERSIONES SUAZO,,TEGUCIGALPA,,,HN,+504 3273-1977,,Mo-Su 06:00-23:00,MoneyGram,Q1944412
74549474,moneygram,MERCADITO Y FERRETERIA KING,,TEGUCIGALPA,,,HN,+504 9584-8767,,Mo-Su 06:00-23:00,MoneyGram,Q1944412
74549487,moneygram,PULPERIA IBERIA,,TEGUCIGALPA,,,HN,+504 9831-0856,,Mo-Su 06:00-23:00,MoneyGram,Q1944412
74549458,moneygram,VARIEDADES ALEJANDRO,,TEGUCIGALPA,,,HN,+504 9959-4527,,Mo-Su 06:00-23:00,MoneyGram,Q1944412
74550515,moneygram,PULPERIA HELEN,,TEGUCIGALPA,,,HN,+504 9963-7402,,Mo-Su 06:00-23:00,MoneyGram,Q1944412
74550528,moneygram,PULPERIA HELEN,,TEGUCIGALPA,,,HN,+504 9963-7402,,Mo-Su 06:00-23:00,MoneyGram,Q1944412
74555413,moneygram,VARIEDADES LOS GEMELOS,,TEGUCIGALPA,,,HN,+504 9897-3319,,Mo-Su 06:00-23:00,MoneyGram,Q1944412
74556454,moneygram,EMPRESA DE TRANSPORTES Y VARIEDADES GIRE,,DISTRITO CENTRAL,,,HN,+504 2280-1049,,Mo-Su 07:00-17:00,MoneyGram,Q1944412
74556713,moneygram,SUPERMERCADOS LA COLONIA - #TIENDA 1 - T,,TEGUCIGALPA,,,HN,+504 2239-6410,,Mo-Su 07:00-20:00,MoneyGram,Q1944412
74566392,moneygram,FARMA FACIL EL MANCHEN - DISTRITO CENTRA,,DISTRITO CENTRAL,,,HN,+504 9992-2397,,Mo-Su 08:00-20:00,MoneyGram,Q1944412
74566444,moneygram,FARMA FACIL LA KENNEDY - DISTRITO CENTRA,,DISTRITO CENTRAL,,,HN,+504 8957-6300,,Mo-Su 08:00-20:00,MoneyGram,Q1944412
74566415,moneygram,FARMA FACIL LA VEGA - DISTRITO CENTRAL -,,DISTRITO CENTRAL,,,HN,+504 9992-2397,,Mo-Su 08:00-20:00,MoneyGram,Q1944412
74566004,moneygram,HOTEL EL PORTAL,,TEGUCIGALPA,,,HN,9428338,,Mo-Su 06:00-23:00,MoneyGram,Q1944412
74566017,moneygram,SAISGOM,,TEGUCIGALPA,,,HN,+504 3359-3512,,Mo-Su 06:00-23:00,MoneyGram,Q1944412
74567249,moneygram,COMERCIAL ANTHONY,,TEGUCIGALPA,,,HN,+504 9882-0901,,Mo-Su 06:00-23:00,MoneyGram,Q1944412
74572535,moneygram,BANPAIS - #1 - SAN PEDRO SULA - VENTANIL,,SAN PEDRO SULA,,,HN,+504 2566-2020,,Mo-Su 09:00-18:00,MoneyGram,Q1944412
70482658,moneygram,LOFISA - #6009 - GUAIMACA,,GUAIMACA,,,HN,+504 2280-0000,,Mo-Fr 08:30-17:00; Sa 08:30-15:30; Su 08:00-11:30,MoneyGram,Q1944412
74602418,moneygram,MERCADITO MONJARAS - MERCADITO MONJARAS,,OJOJONA,,,HN,+504 2280-1049,,Mo-Su 07:00-19:00,MoneyGram,Q1944412
74602502,moneygram,REGIS - REGIS,,TEGUCIGALPA,,,HN,+504 2280-1049,,Mo-Su 07:00-19:00,MoneyGram,Q1944412
74609466,moneygram,MERCADITO EL COROZO - MERCADITO EL COROZ,,SABANAGRANDE,,,HN,+504 2280-1049,,Mo-Su 07:00-19:00,MoneyGram,Q1944412
74609479,moneygram,VARIEDADES EVA Y PEYTON - VARIEDADES EVA,,DISTRITO CENTRAL,,,HN,2801049,,Mo-Su 07:00-19:00,MoneyGram,Q1944412
74609932,moneygram,DISTRIBUIDORA FAMILIAR ALCIDES - DISTRIB,,CURAREN,,,HN,+504 2280-1049,,Mo-Su 07:00-19:00,MoneyGram,Q1944412
74638495,moneygram,BODEGUITA FLOREM - BODEGUITA FLORENT,,TEGUCIGALPA,,,HN,+504 9678-7774,,Mo-Su 06:00-23:00,MoneyGram,Q1944412
74638893,moneygram,PULPERIA Y VARIEDADES AURORA - PULPERIA,,DISTRITO CENTRAL,,,HN,+504 2280-1049,,Mo-Su 07:00-19:00,MoneyGram,Q1944412
74642614,moneygram,INVERSIONES LA SOLUCION - PULPERIA LA SO,,TEGUCIGALPA,,,HN,+504 9413-9372,,Mo-Su 06:00-23:00,MoneyGram,Q1944412
74642766,moneygram,PULPERIA MV - PULPERIA MV,,EL PORVENIR,,,HN,+504 2280-1049,,Mo-Su 07:00-19:00,MoneyGram,Q1944412
74642805,moneygram,SERVICIOS Y DISTRIBUCIONES BRILI,,TEGUCIGALPA,,,HN,+504 9610-5885,,Mo-Su 06:00-23:00,MoneyGram,Q1944412
74642342,moneygram,PULPERIA JAK - PULPERIA JAK,,DISTRITO CENTRAL,,,HN,+504 2280-1049,,Mo-Su 07:00-19:00,MoneyGram,Q1944412
74647839,moneygram,PRONTO PRESIDENCIAL - PRONTO PRESIDENCIA,,DISTRITO CENTRAL,,,HN,+504 2280-1049,,Mo-Su 07:00-19:00,MoneyGram,Q1944412
74648485,moneygram,FARMACIA 21 DE FEBRERO - FARMACIA 21 DE,,DISTRITO CENTRAL,,,HN,+504 2280-1049,,Mo-Su 07:00-19:00,MoneyGram,Q1944412
74649248,moneygram,PULPERIA ROSARIO,,TEGUCIGALPA,,,HN,+504 9342-1129,,Mo-Su 06:00-23:00,MoneyGram,Q1944412
74649222,moneygram,PULPERIA ROSARIO,,TEGUCIGALPA,,,HN,+504 9342-1129,,Mo-Su 06:00-23:00,MoneyGram,Q1944412
74649235,moneygram,UTILES Y MAS,,TEGUCIGALPA,,,HN,+504 9342-1129,,Mo-Su 06:00-23:00,MoneyGram,Q1944412
74672639,moneygram,DEPOSITO CRISTOPHER,,TEGUCIGALPA,,,HN,+504 9496-1553,,Mo-Su 06:00-23:00,MoneyGram,Q1944412
74687268,moneygram,PLAZA ORQUIDEAS - PLAZA ORQUIDEAS,,TEGUCIGALPA,,,HN,+504 2280-0000,,Mo-Fr 09:00-16:00; Sa 09:00-12:00; Su 00:00-24:00,MoneyGram,Q1944412
74681565,moneygram,FARMACIA ALPHA - FARMACIA ALPHA,,DISTRITO CENTRAL,,,HN,+504 2280-1049,,Mo-Su 07:00-19:00,MoneyGram,Q1944412
74681471,moneygram,LA DESPENSA DE SOFY,,TEGUCIGALPA,,,HN,+504 9675-9292,,Mo-Su 06:00-23:00,MoneyGram,Q1944412
74705218,moneygram,PULPERIA HIJOS DEL REY - PULPERIA HIJOS,,TATUMBLA,,,HN,+504 9690-4660,,Mo-Su 06:00-23:00,MoneyGram,Q1944412
74705292,moneygram,COMERCIAL MAFER,,TEGUCIGALPA,,,HN,+504 3191-0402,,Mo-Su 06:00-23:00,MoneyGram,Q1944412
74705234,moneygram,INVERSIONES MULTIPLE RIVERA - EL PORVENI,,EL PORVENIR,,,HN,+504 9520-7289,,Mo-Su 06:00-23:00,MoneyGram,Q1944412
74704853,moneygram,COMERCIAL YAYDA,,VILLA DE SANFRANCISCO,,,HN,+504 3142-3119,,Mo-Su 06:00-23:00,MoneyGram,Q1944412
74706589,moneygram,UTILES ESCOLARES GENESIS,,TALANGA,,,HN,+504 3170-8110,,Mo-Su 06:00-23:00,MoneyGram,Q1944412
74705205,moneygram,MERCADITO EL CRUCE N 1'' - SANTA ANA - M,,SANTA ANA,,,HN,+504 9915-9759,,Mo-Su 06:00-23:00,MoneyGram,Q1944412
74704840,moneygram,ABARROTERIA FLORIAN - VILLA DE SAN FRANC,,VILLA DE SAN FRANCISCO,,,HN,+504 9884-3813,,Mo-Su 06:00-23:00,MoneyGram,Q1944412
74705289,moneygram,ABARROTERIA ONRRY - EL PORVENIR - MERCAD,,EL PORVENIR,,,HN,+504 9920-3140,,Mo-Su 06:00-23:00,MoneyGram,Q1944412
74706783,moneygram,INVERSIONES Y DISTRIBUCIONES GARCIA - ME,,SANTA LUCIA,,,HN,+504 9534-3484,,Mo-Su 06:00-23:00,MoneyGram,Q1944412
74716045,moneygram,TALLER MECANICO INDUSTRIAL MONTIEL,,TEGUCIGALPA,,,HN,+504 9737-0768,,Mo-Su 06:00-23:00,MoneyGram,Q1944412
74715923,moneygram,INVERSIONES CHALIN,,CEDROS,,,HN,+504 9629-9959,,Mo-Su 06:00-23:00,MoneyGram,Q1944412
74735071,moneygram,TECNOCEL #2 - TECNOCEL,,GUAIMACA,,,HN,+504 9812-9848,,Mo-Su 06:00-23:00,MoneyGram,Q1944412
74735084,moneygram,TECNOCEL,,GUAIMACA,,,HN,+504 9812-9848,,Mo-Su 06:00-23:00,MoneyGram,Q1944412
74742679,moneygram,BANCO FICOHSA - #142300000003 - TEGUCIGA,,TEGUCIGALPA,,,HN,+504 2239-6410,,Mo-Su 06:00-18:00,MoneyGram,Q1944412
74752805,moneygram,MERCADITO C.C - MERCADITO C.C,,DISTRITO CENTRAL,,,HN,+504 2280-1049,,Mo-Su 07:00-19:00,MoneyGram,Q1944412
74752847,moneygram,PULPERIA KARLA - PULPERIA KARLA,,DISTRITO CENTRAL,,,HN,+504 2280-1049,,Mo-Su 07:00-19:00,MoneyGram,Q1944412
74763881,moneygram,EMPRESA DE TRANSPORTES OLIVA - PULPERIA,,TEGUCIGALPA,,,HN,+504 9764-1817,,Mo-Su 06:00-23:00,MoneyGram,Q1944412
74766189,moneygram,MECELANIAS MATD,,TEGUCIGALPA,,,HN,+504 9665-5930,,Mo-Su 06:00-23:00,MoneyGram,Q1944412
74806049,moneygram,MERCADITO BETHEL,,TEGUCIGALPA,,,HN,+504 3323-2898,,Mo-Su 06:00-23:00,MoneyGram,Q1944412
74807488,moneygram,BANPAIS - #1 - TEGUCIGALPA - AGENCIA PLA,,TEGUCIGALPA,,,HN,+504 2566-2020,,Mo-Fr 09:30-18:00; Sa 09:30-14:00; Su 00:00-24:00,MoneyGram,Q1944412
74807475,moneygram,BANPAIS - #1 - TEGUCIGALPA - AGENCIA PLA,,TEGUCIGALPA,,,HN,+504 2566-2020,,Mo-Fr 09:30-18:00; Sa 09:30-14:00; Su 00:00-24:00,MoneyGram,Q1944412
74807983,moneygram,REPUESTOS Y MAS,,CANTARRANAS,,,HN,+504 9818-3631,,Mo-Su 06:00-23:00,MoneyGram,Q1944412
74807970,moneygram,PULPERIA LOS LAURELES,,CANTARRANAS,,,HN,+504 9818-3631,,Mo-Su 06:00-23:00,MoneyGram,Q1944412
74826359,moneygram,INVERSIONES MINA #2 ASADOS - INVERSIONES,,SABANAGRANDE,,,HN,+504 3379-0171,,Mo-Su 06:00-23:00,MoneyGram,Q1944412
74873124,moneygram,MERCADITO VICTORIA - VICTORIA,,TEGUCIGALPA,,,HN,+504 9538-3838,,Mo-Su 06:00-23:00,MoneyGram,Q1944412
74873315,moneygram,INVERSIONES MULTIPLE RIVERA - EL PORVENI,,EL PORVENIR,,,HN,+504 9520-7289,,Mo-Su 06:00-23:00,MoneyGram,Q1944412
74873302,moneygram,INVERSIONES SHALON - TEGUCIGALPA,,TEGUCIGALPA,,,HN,+504 9767-9641,,Mo-Su 06:00-23:00,MoneyGram,Q1944412
74873810,moneygram,INVERSIONES JOHN FUNEZ - COMEDOR JOHN,,CEDROS,,,HN,+504 9449-0790,,Mo-Su 06:00-23:00,MoneyGram,Q1944412
74874246,moneygram,VARIEDADES KALEMIS,,TEGUCIGALPA,,,HN,+504 3213-3936,,Mo-Su 06:00-23:00,MoneyGram,Q1944412
74887851,moneygram,CAROL - MERCADITO LA ECONOMICA,,SANTA ANA,,,HN,+504 9798-4319,,Mo-Su 06:00-23:00,MoneyGram,Q1944412
74900628,moneygram,VARIEDADES ARIANA,,SAN ANTONIO DE ORIENTE,,,HN,+504 9712-8019,,Mo-Su 06:00-23:00,MoneyGram,Q1944412
74903463,moneygram,FREISSI LACTEOS Y CARNES,,VILLA DE SAN FRANCISCO,,,HN,+504 9540-0932,,Mo-Su 06:00-23:00,MoneyGram,Q1944412
74902435,moneygram,COMERCIAL Y FERRETERIA ROMEZA,,TALANGA,,,HN,+504 3171-0936,,Mo-Su 06:00-23:00,MoneyGram,Q1944412
74903450,moneygram,COMERCIAL YENNIFER - VARIEDADES JENNYFEE,,EL PORVENIR,,,HN,+504 9468-0698,,Mo-Su 06:00-23:00,MoneyGram,Q1944412
74903298,moneygram,VARIEDADES MELIROM,,TEGUCIGALPA,,,HN,+504 9839-8157,,Mo-Su 06:00-23:00,MoneyGram,Q1944412
74905762,moneygram,TIENDA DE CONVENIENCIA ROLIN Y TANIA,,SAN ANTONIO DE ORIENTE,,,HN,+504 3341-8330,,Mo-Su 06:00-23:00,MoneyGram,Q1944412
74942945,moneygram,DLA MOSKITIA S. DE R.L.,,TEGUCIGALPA,,,HN,+504 9988-0565,,Mo-Su 06:00-23:00,MoneyGram,Q1944412
74943863,moneygram,PULPERIA M Y E,,TEGUCIGALPA,,,HN,+504 3352-8033,,Mo-Su 06:00-23:00,MoneyGram,Q1944412
74942958,moneygram,PULPERIA SUDY,,TEGUCIGALPA,,,HN,+504 9834-2040,,Mo-Su 06:00-23:00,MoneyGram,Q1944412
74943601,moneygram,FRUTAS Y VERDURAS EL SITIO,,TEGUCIGALPA,,,HN,+504 9943-7324,,Mo-Su 06:00-23:00,MoneyGram,Q1944412
74948428,moneygram,FARMACIA REGIS LAGUNA # 3,,SANTA LUCIA,,,HN,+504 3261-1358,,Mo-Su 06:00-23:00,MoneyGram,Q1944412
74948415,moneygram,FARMACIA REGIS EL CHIMBO # 1 - MULTIPHAR,,SANTA LUCIA,,,HN,+504 3261-1358,,Mo-Su 06:00-23:00,MoneyGram,Q1944412
74949760,moneygram,DELICIAS BUFET - PULPERIA DELICIAS,,TEGUCIGALPA,,,HN,+504 9751-0642,,Mo-Su 06:00-23:00,MoneyGram,Q1944412
74949663,moneygram,FARMACIA DIVA,,TEGUCIGALPA,,,HN,+504 9988-3030,,Mo-Su 06:00-23:00,MoneyGram,Q1944412
74950908,moneygram,MERCADITO MOLINA - TAQUERITOS MERCADITO,,TEGUCIGALPA,,,HN,+504 9820-9919,,Mo-Su 06:00-23:00,MoneyGram,Q1944412
74957066,moneygram,FARMACIA VIA SOLIDARIA,,TEGUCIGALPA,,,HN,+504 3334-6294,,Mo-Su 06:00-23:00,MoneyGram,Q1944412
74958777,moneygram,PULPERIA MARI TE,,CEDROS,,,HN,+504 8913-9742,,Mo-Su 06:00-23:00,MoneyGram,Q1944412
74970674,moneygram,COMERCIAL EL CENTRO,,ZAMBRANO,,,HN,+504 9250-5314,,Mo-Su 06:00-23:00,MoneyGram,Q1944412
74970661,moneygram,INVERSIONES MAKU AVILEZ,,TEGUCIGALPA,,,HN,+504 9566-7646,,Mo-Su 06:00-23:00,MoneyGram,Q1944412
74977790,moneygram,TRANSPORTES LOPEZ AGUILAR,,TEGUCIGALPA,,,HN,+504 3269-0366,,Mo-Su 06:00-23:00,MoneyGram,Q1944412
74976584,moneygram,BANCO FICOHSA - #143700000000 - TEGUCIGA,,TEGUCIGALPA,,,HN,+504 2239-6410,,24/7,MoneyGram,Q1944412
70774146,moneygram,BANCO ATLANTIDA - AG DIG MULTIPLAZA TGU,,TEGUCIGALPA,,,HN,+504 2580-0000,,Mo-Fr 09:30-20:00; Sa 09:30-19:00; Su 09:30-16:00,MoneyGram,Q1944412
74977761,moneygram,Z ELECTRONIC,,TEGUCIGALPA,,,HN,+504 8978-2423,,Mo-Su 06:00-23:00,MoneyGram,Q1944412
74977554,moneygram,SUPERMERCADOS LA COLONIA - #TIENDA 61 -,,TALANGA,,,HN,+504 2239-6410,,Mo-Su 07:00-20:00,MoneyGram,Q1944412
74981003,moneygram,MULTI INVERSIONES - BODEGA SUPER ECONOMI,,TEGUCIGALPA,,,HN,+504 3174-1415,,Mo-Su 06:00-23:00,MoneyGram,Q1944412
74984330,moneygram,TRANSPORTES MILENIUN - ORICA,,ORICA,,,HN,+504 9577-7954,,Mo-Su 06:00-23:00,MoneyGram,Q1944412
74984673,moneygram,TRANSPORTES POSADAS,,ORICA,,,HN,+504 9298-9893,,Mo-Su 06:00-23:00,MoneyGram,Q1944412
74991527,moneygram,INVERSIONES BERSELY,,TEGUCIGALPA,,,HN,+504 9712-7887,,Mo-Su 06:00-23:00,MoneyGram,Q1944412
74993554,moneygram,INVERSIONES ZUNIGA ELVIR,,CANTARRANAS,,,HN,+504 3231-6053,,Mo-Su 06:00-23:00,MoneyGram,Q1944412
74993541,moneygram,COMERCIAL LA ESPERANZA,,EL PORVENIR,,,HN,+504 9825-2149,,Mo-Su 06:00-23:00,MoneyGram,Q1944412
74993538,moneygram,ABARROTERIA LA CIDRA,,CEDROS,,,HN,+504 9540-9728,,Mo-Su 06:00-23:00,MoneyGram,Q1944412
74999671,moneygram,EVENTOS Y ENTRETENIMIENTO AGUILERA - TEG,,TEGUCIGALPA,,,HN,+504 9610-4724,,Mo-Su 06:00-23:00,MoneyGram,Q1944412
74999684,moneygram,PULPERIA LISSETH,,TEGUCIGALPA,,,HN,+504 9639-9622,,Mo-Su 06:00-23:00,MoneyGram,Q1944412
75001047,moneygram,SOLUCIONES INTEGRALES INNOVA,,TEGUCIGALPA,,,HN,+504 8963-2183,,Mo-Su 06:00-23:00,MoneyGram,Q1944412
75002583,moneygram,BANRURAL HONDURAS - #1200 - TEGUCIGALPA,,TEGUCIGALPA,,,HN,+504 2290-1010,,Mo-Su 07:00-20:00,MoneyGram,Q1944412
75003838,moneygram,BANCO ATLANTIDA - INJUPEMP TGU,,TEGUCIGALPA,,,HN,+504 2280-0000,,Mo-Fr 08:00-16:00; Sa-Su 00:00-24:00,MoneyGram,Q1944412
75005674,moneygram,CLINICA MEDICA DIAZ MENDOZA,,LEPATERIQUE,,,HN,+504 3318-7669,,Mo-Su 06:00-23:00,MoneyGram,Q1944412
75022181,moneygram,INVERSIONES URBINA ARGENAL,,TEGUCIGALPA,,,HN,+504 3176-7515,,Mo-Su 06:00-23:00,MoneyGram,Q1944412
75059235,moneygram,TUSOLOPIDE_HN - TEGUCIGALPA,,TEGUCIGALPA,,,HN,+504 3140-9925,,Mo-Su 06:00-23:00,MoneyGram,Q1944412
75059374,moneygram,GOLOSINAS MARIA JOSE,,TEGUCIGALPA,,,HN,+504 9802-9619,,Mo-Su 06:00-23:00,MoneyGram,Q1944412
75061139,moneygram,INVERSIONES DILKAS FRESH,,TEGUCIGALPA,,,HN,+504 3244-9899,,Mo-Su 06:00-23:00,MoneyGram,Q1944412
75060936,moneygram,CARWASH JUANMAC LUBRICANTES Y MAS,,SABANAGRANDE,,,HN,+504 3204-7209,,Mo-Su 06:00-23:00,MoneyGram,Q1944412
75060981,moneygram,MERCADITO SAN JUDAS TADEO,,TATUMBLA,,,HN,+504 8805-8967,,Mo-Su 06:00-23:00,MoneyGram,Q1944412
75060923,moneygram,SMART SAN JOSE,,TALANGA,,,HN,+504 9918-2242,,Mo-Su 06:00-23:00,MoneyGram,Q1944412
75061757,moneygram,INVERSIONES AAM - PULPERIA LA ESTANCIA,,TEGUCIGALPA,,,HN,+504 9683-4949,,Mo-Su 06:00-23:00,MoneyGram,Q1944412
70943854,moneygram,CACIL - TEGUCIGALPA,,TEGUCIGALPA,,,HN,278304595020,,Mo-Fr 08:00-16:30; Sa 08:00-11:00; Su 00:00-24:00,MoneyGram,Q1944412
44461359,moneygram,BANCO FICOHSA - #1,,TEGUCIGALPA,,,HN,5042396410,,Mo-Su 07:30-22:00,MoneyGram,Q1944412
40250739,moneygram,HSBC,,TEGUCIGALPA,,,HN,5042382295,,Mo-Su 06:00-21:00,MoneyGram,Q1944412
40251084,moneygram,HSBC,,TEGUCIGALPA,,,HN,5043690916983,,Mo-Su 06:00-21:00,MoneyGram,Q1944412
40251149,moneygram,HSBC,,TEGUCIGALPA,,,HN,5042237356,,Mo-Su 06:00-21:00,MoneyGram,Q1944412
40250742,moneygram,HSBC,,TEGUCIGALPA,,,HN,5042321482,,Mo-Su 06:00-21:00,MoneyGram,Q1944412
40251107,moneygram,HSBC,,TEGUCIGALPA,,,HN,5042306890,,Mo-Su 06:00-21:00,MoneyGram,Q1944412
40689708,moneygram,BANCO ATLANTIDA - LOARQUE,,TEGUCIGALPA,,,HN,5042266011,,Mo-Sa 08:00-19:00; Su 00:00-24:00,MoneyGram,Q1944412
40689724,moneygram,BANCO ATLANTIDA - SAN ISIDRO,,COMAYAGUELA,,,HN,5042221861,,Mo-Sa 08:00-19:00; Su 00:00-24:00,MoneyGram,Q1944412
40689795,moneygram,BANCO ATLANTIDA - PAZ BARAHONA,,TEGUCIGALPA,,,HN,5042373181,,Mo-Sa 08:00-19:00; Su 00:00-24:00,MoneyGram,Q1944412
40690315,moneygram,BANCO ATLANTIDA - MALL MULTIPLAZA  TEGUC,,TEGUCIGALPA,,,HN,5042322272,,Mo-Fr 09:30-20:00; Sa 09:30-19:00; Su 09:30-16:00,MoneyGram,Q1944412
40251547,moneygram,HSBC,,TEGUCIGALPA,,,HN,5042324510,,Mo-Su 06:00-21:00,MoneyGram,Q1944412
40689818,moneygram,BANCO ATLANTIDA - KENNEDY,,TEGUCIGALPA,,,HN,5042321050,,Mo-Sa 08:00-19:00; Su 00:00-24:00,MoneyGram,Q1944412
40689847,moneygram,BANCO ATLANTIDA - BOULEVARD MORAZAN TEGU,,TEGUCIGALPA,,,HN,5042365611,,Mo-Sa 08:00-19:00; Su 00:00-24:00,MoneyGram,Q1944412
41009442,moneygram,BANCO ATLANTIDA,,TEGUCIGALPA,,,HN,5042321050,,Mo-Su 09:00-17:00,MoneyGram,Q1944412
43033720,moneygram,BANCO ATLANTIDA - MIRAMONTES,,TEGUCIGALPA,,,HN,5042321050,,Mo-Sa 08:00-19:00; Su 00:00-24:00,MoneyGram,Q1944412
40250755,moneygram,HSBC,,TEGUCIGALPA,,,HN,5042323817,,Mo-Su 06:00-21:00,MoneyGram,Q1944412
40689782,moneygram,BANCO ATLANTIDA - CITY MALL TEGUCIGALPA,,COMAYAGUELA,,,HN,5042335619,,Mo-Fr 09:30-20:00; Sa 09:30-19:00; Su 09:30-16:00,MoneyGram,Q1944412
40689876,moneygram,BANCO ATLANTIDA - UNAH TEGUCIGALPA,,TEGUCIGALPA,,,HN,5042321050,,Mo-Sa 08:00-19:00; Su 00:00-24:00,MoneyGram,Q1944412
40690250,moneygram,BANCO ATLANTIDA - GUANACASTE,,TEGUCIGALPA,,,HN,5042378497,,Mo-Sa 08:00-19:00; Su 00:00-24:00,MoneyGram,Q1944412
42683359,moneygram,BANCO ATLANTIDA - EL TRAPICHE,,TEGUCIGALPA,,,HN,5042273006,,Mo-Sa 08:00-19:00; Su 00:00-24:00,MoneyGram,Q1944412
40251097,moneygram,HSBC,,TEGUCIGALPA,,,HN,5042136101,,Mo-Su 06:00-21:00,MoneyGram,Q1944412
40251521,moneygram,HSBC,,TEGUCIGALPA,,,HN,5042320909,,Mo-Su 06:00-21:00,MoneyGram,Q1944412
40689740,moneygram,BANCO ATLANTIDA - MALL PREMIER TEGUCIGAL,,COMAYAGUELA,,,HN,5042236188,,Mo-Fr 09:30-20:00; Sa 09:30-19:00; Su 09:30-16:00,MoneyGram,Q1944412
40689915,moneygram,BANCO ATLANTIDA - MEGADISTRIBUIDORA AVIC,,COMAYAGUELA,,,HN,5042220451,,Mo-Sa 01:00-21:00; Su 09:00-17:00,MoneyGram,Q1944412
40250797,moneygram,HSBC,,TEGUCIGALPA,,,HN,5042375714,,Mo-Su 06:00-21:00,MoneyGram,Q1944412
40251479,moneygram,HSBC,,TEGUCIGALPA,,,HN,5042341767,,Mo-Su 06:00-21:00,MoneyGram,Q1944412
40689850,moneygram,BANCO ATLANTIDA - LOS ALMENDROS,,TEGUCIGALPA,,,HN,5042321050,,Mo-Sa 08:00-19:00; Su 00:00-24:00,MoneyGram,Q1944412
40690108,moneygram,BANCO ATLANTIDA - PLAZA BANCATLAN,,TEGUCIGALPA,,,HN,5042321050,,Mo-Su 07:00-21:00,MoneyGram,Q1944412
43831582,moneygram,HSBC,,TEGUCIGALPA,,,HN,5042312338,,Mo-Su 06:00-21:00,MoneyGram,Q1944412
44047663,moneygram,HSBC,,TEGUCIGALPA,,,HN,5042320909,,Mo-Su 06:00-21:00,MoneyGram,Q1944412
40690331,moneygram,BANCO ATLANTIDA - SEGUNDA AVENIDA,,COMAYAGUELA,,,HN,5042374229,,Mo-Sa 08:00-19:00; Su 00:00-24:00,MoneyGram,Q1944412
44465782,moneygram,BANCO FICOHSA - #66,,TEGUCIGALPA,,,HN,2200333,,Mo-Su 07:30-22:00,MoneyGram,Q1944412
44463959,moneygram,BANCO FICOHSA - #3,,TEGUCIGALPA,,,HN,2383606,,Mo-Su 07:30-22:00,MoneyGram,Q1944412
44464000,moneygram,BANCO FICOHSA - #4,,TEGUCIGALPA,,,HN,2211193,,Mo-Su 07:30-22:00,MoneyGram,Q1944412
44464123,moneygram,BANCO FICOHSA - #8,,TEGUCIGALPA,,,HN,2356216,,Mo-Su 07:30-22:00,MoneyGram,Q1944412
44464550,moneygram,BANCO FICOHSA - #12,,TEGUCIGALPA,,,HN,2201228,,Mo-Su 07:30-22:00,MoneyGram,Q1944412
44464628,moneygram,BANCO FICOHSA - #13,,TEGUCIGALPA,,,HN,2211266,,Mo-Su 07:30-22:00,MoneyGram,Q1944412
44464657,moneygram,BANCO FICOHSA - #15,,TEGUCIGALPA,,,HN,2312504,,Mo-Su 07:30-22:00,MoneyGram,Q1944412
44464660,moneygram,BANCO FICOHSA - #19,,TEGUCIGALPA,,,HN,2395576,,Mo-Su 07:30-22:00,MoneyGram,Q1944412
44464712,moneygram,BANCO FICOHSA - #57,,TEGUCIGALPA,,,HN,2202243,,Mo-Su 07:30-22:00,MoneyGram,Q1944412
44464741,moneygram,BANCO FICOHSA - #69,,TEGUCIGALPA,,,HN,2459097,,Mo-Su 07:30-22:00,MoneyGram,Q1944412
44464822,moneygram,BANCO FICOHSA - #7,,TEGUCIGALPA,,,HN,2341072,,Mo-Su 07:30-22:00,MoneyGram,Q1944412
44464851,moneygram,BANCO FICOHSA - #11,,TEGUCIGALPA,,,HN,2237700,,Mo-Su 07:30-22:00,MoneyGram,Q1944412
44464916,moneygram,BANCO FICOHSA - #18,,TEGUCIGALPA,,,HN,2344700,,Mo-Su 07:30-22:00,MoneyGram,Q1944412
44464987,moneygram,BANCO FICOHSA - #64,,TEGUCIGALPA,,,HN,2256390,,Mo-Su 07:30-22:00,MoneyGram,Q1944412
44536433,moneygram,BANCO ATLANTIDA - MARINA MERCANTE,,TEGUCIGALPA,,,HN,5042800000,,Mo-Sa 09:00-18:00; Su 00:00-24:00,MoneyGram,Q1944412
44536776,moneygram,BANCO ATLANTIDA - EMBAJADA AMERICANA,,TEGUCIGALPA,,,HN,5042800000,,Mo-Sa 08:00-19:00; Su 00:00-24:00,MoneyGram,Q1944412
44536828,moneygram,BANCO ATLANTIDA - IMPREMA TEGUCIGALPA,,COMAYAGUELA,,,HN,5042800000,,Mo-Sa 08:00-19:00; Su 00:00-24:00,MoneyGram,Q1944412
44536860,moneygram,BANCO ATLANTIDA - SONISA,,COMAYAGUELA,,,HN,5042800000,,Mo-Sa 08:00-19:00; Su 00:00-24:00,MoneyGram,Q1944412
44537047,moneygram,BANCO ATLANTIDA - TRANSITO TEGUCIGALPA,,COMAYAGUELA,,,HN,5042800000,,Mo-Sa 08:00-19:00; Su 00:00-24:00,MoneyGram,Q1944412
44537128,moneygram,BANCO ATLANTIDA - COCHSA TGU,,COMAYAGUELA,,,HN,5042800000,,Mo-Fr 09:30-21:00; Sa 10:30-20:00; Su 00:00-24:00,MoneyGram,Q1944412
44537186,moneygram,BANCO ATLANTIDA - COCHSA TALANGA,,TALANGA,,,HN,5042800000,,Mo-Fr 01:00-20:00; Sa 10:30-20:00; Su 09:00-17:00,MoneyGram,Q1944412
44780166,moneygram,BANCO ATLANTIDA - MALL LAS CASCADA,,TEGUCIGALPA,,,HN,+504 2280-0000,,Mo-Su 09:30-19:00,MoneyGram,Q1944412
44994554,moneygram,BANCO FICOHSA - #94,,TEGUCIGALPA,,,HN,5042066410,,Mo-Su 07:30-22:00,MoneyGram,Q1944412
45066258,moneygram,HSBC - #1,,TEGUCIGALPA,,,HN,5042204045,,Mo-Su 06:00-21:00,MoneyGram,Q1944412
45220667,moneygram,BANCO FICOHSA,,TEGUCIGALPA,,,HN,2392744,,Mo-Su 07:30-22:00,MoneyGram,Q1944412
45256149,moneygram,BANCO FICOHSA - #134,,TEGUCIGALPA,,,HN,,,Mo-Su 07:30-22:00,MoneyGram,Q1944412
50289512,moneygram,BANCO AZTECA - #873 - VALLE DE ANGELES,,TEGUCIGALPA,,,HN,7663294,,Mo-Su 06:00-22:00,MoneyGram,Q1944412
50289570,moneygram,ELEKTRA - #2238 - CENTRO,,TEGUCIGALPA,,,HN,2389232,,Mo-Su 06:00-22:00,MoneyGram,Q1944412
50289583,moneygram,ELEKTRA - #2239 - SAN MIGUEL,,TEGUCIGALPA,,,HN,2868150,,Mo-Su 06:00-22:00,MoneyGram,Q1944412
50297339,moneygram,BANCO AZTECA - #3614 - KENNEDY,,TEGUCIGALPA,,,HN,2300857,,Mo-Su 06:00-22:00,MoneyGram,Q1944412
50297355,moneygram,BANCO AZTECA - #3615 - BOLA DE ORO,,TEGUCIGALPA,,,HN,2504354,,Mo-Su 06:00-22:00,MoneyGram,Q1944412
50297449,moneygram,BANCO AZTECA - #3618 - MIRAMONTE,,TEGUCIGALPA,,,HN,,,24/7,MoneyGram,Q1944412
50297876,moneygram,BANCO AZTECA - #4088 - MAYANGLE,,TEGUCIGALPA,,,HN,9263134,,Mo-Su 06:00-22:00,MoneyGram,Q1944412
50307067,moneygram,ELEKTRA - #6486 - LUX,,TEGUCIGALPA,,,HN,2206982,,Mo-Su 06:00-22:00,MoneyGram,Q1944412
50307070,moneygram,ELEKTRA - #7346 - SAN ISIDRO,,TEGUCIGALPA,,,HN,2206981,,Mo-Su 06:00-22:00,MoneyGram,Q1944412
65021671,moneygram,BANCO FICOHSA - #143,,TEGUCIGALPA,,,HN,2396410,,Mo-Su 07:30-22:00,MoneyGram,Q1944412
65262579,moneygram,BANCO ATLANTIDA - NACIONES UNIDAS,,TEGUCIGALPA,,,HN,2800000,,Mo-Sa 08:00-19:00; Su 00:00-24:00,MoneyGram,Q1944412
65262582,moneygram,BANCO ATLANTIDA - PLAZA MIRAFLORES,,TEGUCIGALPA,,,HN,2800000,,Mo-Fr 09:30-20:00; Sa 09:30-19:00; Su 09:30-16:00,MoneyGram,Q1944412
65262618,moneygram,BANCO ATLANTIDA - CCIT  CAMARA DE COMERC,,TEGUCIGALPA,,,HN,2800000,,Mo-Sa 08:00-19:00; Su 00:00-24:00,MoneyGram,Q1944412
65262634,moneygram,BANCO ATLANTIDA - LA GALERIA,,TEGUCIGALPA,,,HN,2800000,,Mo-Su 09:30-19:00,MoneyGram,Q1944412
65262647,moneygram,BANCO ATLANTIDA - LOS PROCERES,,TEGUCIGALPA,,,HN,2800000,,Mo-Fr 09:30-20:00; Sa 09:30-19:00; Su 09:30-16:00,MoneyGram,Q1944412
65262650,moneygram,BANCO ATLANTIDA - SOPTRAVI,,TEGUCIGALPA,,,HN,2800000,,Mo-Sa 08:00-19:00; Su 00:00-24:00,MoneyGram,Q1944412
65262676,moneygram,BANCO ATLANTIDA - ADUANA TONCONTIN,,TEGUCIGALPA,,,HN,2800000,,Mo-Fr 09:30-16:00; Sa 08:30-12:00; Su 09:00-17:00,MoneyGram,Q1944412
65262702,moneygram,BANCO ATLANTIDA - EL PORVENIR FM,,COMAYAGUELA,,,HN,7695410,,Mo-Sa 08:00-19:00; Su 00:00-24:00,MoneyGram,Q1944412
65406144,moneygram,BANCO ATLANTIDA - AG AUTO BCO KENNEDY,,TEGUCIGALPA,,,HN,2800000,,Mo-Fr 09:00-16:00; Sa 08:30-12:00; Su 09:00-18:00,MoneyGram,Q1944412
65766156,moneygram,BANCO AZTECA - #2705,,TEGUCIGALPA,,,HN,5042641460,,Mo-Su 06:00-22:00,MoneyGram,Q1944412
65845462,moneygram,BANCO ATLANTIDA - METRO MALL,,COMAYAGUELA,,,HN,5042800261,,Mo-Fr 09:30-20:00; Sa 09:30-19:00; Su 09:30-16:00,MoneyGram,Q1944412
66066075,moneygram,MINI ELEKTRA - #2743 - BOLA DE ORO,,TEGUCIGALPA,,,HN,5042504354,,Mo-Su 06:00-22:00,MoneyGram,Q1944412
65262621,moneygram,BANCO ATLANTIDA - HONDURAS MEDICAL CENTE,,TEGUCIGALPA,,,HN,2800000,,Mo-Fr 10:00-19:00; Sa 08:30-14:00; Su 00:00-24:00,MoneyGram,Q1944412
66198859,moneygram,BANCO FICOHSA - #168,,TEGUCIGALPA,,,HN,5042396410,,Mo-Su 07:30-22:00,MoneyGram,Q1944412
66226828,moneygram,BANCO FICOHSA - #59,,TEGUCIGALPA,,,HN,5042396410,,Mo-Su 07:30-22:00,MoneyGram,Q1944412
66812300,moneygram,BANCO ATLANTIDA - CORTE SUPREMA DE JUST,,TEGUCIGALPA,,,HN,+504 2280-0000,,Mo-Sa 08:00-19:00; Su 00:00-24:00,MoneyGram,Q1944412
45027792,moneygram,BANCO FICOHSA - #53,,TEGUCIGALPA,,,HN,5042370692,,Mo-Su 07:30-22:00,MoneyGram,Q1944412
67106578,moneygram,BANCO FICOHSA - #183 - ANGENICIA MALL PR,,TEGUCIGALPA,,,HN,+504 2239-6410,,Mo-Fr 10:00-18:00; Sa 10:00-17:00; Su 00:00-24:00,MoneyGram,Q1944412
67375626,moneygram,BANCO AZTECA - #2239 - EKT SAN MIGUEL,,TEGUCIGALPA,,,HN,5517208177,,Mo-Su 06:00-22:00,MoneyGram,Q1944412
68448808,moneygram,BANCO FICOHSA,,TEGUCIGALPA,,,HN,2817651521,,Mo-Fr 00:00-18:00; Sa-Su 00:00-24:00,MoneyGram,Q1944412
67616796,moneygram,BANCO DE OCCIDENTE - #401 - TEGUCIGALPA,,TEGUCIGALPA,,,HN,+504 2290-4100,,Mo-Fr 08:00-19:30; Sa-Su 07:00-17:00,MoneyGram,Q1944412
67616929,moneygram,BANCO DE OCCIDENTE - #437 - PLAZA MIRAFL,,TEGUCIGALPA,,,HN,+504 2290-4100,,Mo-Fr 08:00-19:30; Sa-Su 07:00-17:00,MoneyGram,Q1944412
67616178,moneygram,BANCO DE OCCIDENTE - #434 - CERVANTES,,TEGUCIGALPA,,,HN,+504 2237-0310,,Mo-Fr 08:00-19:30; Sa-Su 07:00-17:00,MoneyGram,Q1944412
67616877,moneygram,BANCO DE OCCIDENTE - #417 - PLAZA MILENI,,TEGUCIGALPA,,,HN,+504 2225-5461,,Mo-Fr 08:00-19:30; Sa-Su 07:00-17:00,MoneyGram,Q1944412
67615797,moneygram,BANCO DE OCCIDENTE - #404 - GUANACASTE,,TEGUCIGALPA,,,HN,+504 2237-9402,,Mo-Fr 08:00-19:30; Sa-Su 07:00-17:00,MoneyGram,Q1944412
67616440,moneygram,BANCO DE OCCIDENTE - #430 - TRAPICHE,,TEGUCIGALPA,,,HN,+504 2235-3417,,Mo-Fr 08:00-19:30; Sa-Su 07:00-17:00,MoneyGram,Q1944412
67630439,moneygram,BANCO FICOHSA - #187 - AGE. CITYMALL TGU,,TEGUCIGALPA,,,HN,+504 2239-6410,,Mo-Sa 10:00-19:00; Su 10:00-17:00,MoneyGram,Q1944412
67615810,moneygram,BANCO DE OCCIDENTE - #426 - KENNEDY,,TEGUCIGALPA,,,HN,+504 2228-0580,,Mo-Fr 08:00-19:30; Sa-Su 07:00-17:00,MoneyGram,Q1944412
67616806,moneygram,BANCO DE OCCIDENTE - #402 - PALMIRA,,TEGUCIGALPA,,,HN,+504 2239-8153,,Mo-Fr 08:00-19:30; Sa-Su 07:00-17:00,MoneyGram,Q1944412
67616851,moneygram,BANCO DE OCCIDENTE - #412 - LOS ARCOS,,TEGUCIGALPA,,,HN,+504 2221-1104,,Mo-Fr 08:00-19:30; Sa-Su 07:00-17:00,MoneyGram,Q1944412
67616880,moneygram,BANCO DE OCCIDENTE - #421 - EL PEDREGAL,,TEGUCIGALPA,,,HN,+504 2245-3025,,Mo-Fr 08:00-19:30; Sa-Su 07:00-17:00,MoneyGram,Q1944412
67616165,moneygram,BANCO DE OCCIDENTE - #424 - CENTRO,,TEGUCIGALPA,,,HN,+504 2237-5141,,Mo-Fr 08:00-19:30; Sa-Su 07:00-17:00,MoneyGram,Q1944412
67616893,moneygram,BANCO DE OCCIDENTE - #422 - MULTIPLE,,TEGUCIGALPA,,,HN,+504 2225-5173,,Mo-Fr 08:00-19:30; Sa-Su 07:00-17:00,MoneyGram,Q1944412
67739945,moneygram,BANCO FICOHSA - #193 - AGENCIA LAS TORRE,,TEGUCIGALPA,,,HN,122396410,,Mo-Sa 10:00-19:00; Su 10:00-17:00,MoneyGram,Q1944412
67771369,moneygram,BANCO DE OCCIDENTE - #440 - CITY MALL,,TEGUCIGALPA,,,HN,+504 2545-2100,,Mo-Sa 08:00-19:30; Su 08:00-16:30,MoneyGram,Q1944412
71760298,moneygram,BANCO AZTECA HONDURAS - COLONIA PALMIRA,,COLONIA PALMIRA,,,HN,5517208177,,Mo-Su 08:00-21:00,MoneyGram,Q1944412
https://www.sixt.co.uk/car-hire/honduras/tegucigalpa/tegucigalpa/,sixt,Car Hire Tegucigalpa | SIXT rent a car,,Tegucigalpa,,,HN,,https://www.sixt.co.uk/car-hire/honduras/tegucigalpa/tegucigalpa/,Mo-Su 07:00-18:00,SIXT,Q705664
https://www.sixt.co.uk/car-hire/honduras/tegucigalpa/tegucigalpa-airport/,sixt,Car Hire Tegucigalpa Airport | SIXT rent a car,,Tegucigalpa,,,HN,,https://www.sixt.co.uk/car-hire/honduras/tegucigalpa/tegucigalpa-airport/,Mo-Su 08:00-17:00,SIXT,Q705664
