Ref,Spider,Name,Address,City,State,Zipcode,Country,Phone,Website,Hours,Brand,WikiData
24219,citi,ATM 7ELEVEN-FCTI,,Pittsburgh,PA,,US,,,,Citibank,Q857063
pittsburgh:5,gbfs,Allegheny Station,,,PA,,US,,https://pogoh.com/,,Pogoh,
5195,mightyflame,VALERO,,PITTSBURGH,PA,,US,+1 412-321-1508,,,Mighty Flame,
441,mightyflame,7-ELEVEN,,PITTSBURGH,PA,,US,+1 412-231-3353,,,Mighty Flame,
03459,rite_aid_us,Rite Aid #03459 Pittsburgh,,Pittsburgh,PA,,US,+1 412-231-0868,https://locations2.riteaid.com.yext-cdn.com/pa/pittsburgh/802-pennsylvania-avenue.html,Mo-Sa 08:00-21:00; Su 08:00-19:00,Rite Aid,Q3433273
36140,seven_eleven_ca_us,7-Eleven Store,,Pittsburgh,PA,,US,+1 412-322-8681,https://www.7-eleven.com/locations/pa/pittsburgh/1001-western-ave-36140,,7-Eleven,Q259340
https://locations.tacobell.com/#6142431,taco_bell,Taco Bell,,Pittsburgh,PA,,US,+1 412-322-0650,https://locations.tacobell.com/pa/pittsburgh/705-allegheny-avenue.html,Mo-Su 08:00-04:00,Taco Bell,Q752941
1454324,usps,PENNSYLVANIA STATION,,PITTSBURGH,PA,,US,+1 412-359-7859,,,United States Postal Service,Q668687
1523300026,usps_collection_boxes,USPS COLLECTION BOX - BLUE BOX,1001 CALIFORNIA AVE,PITTSBURGH,PA,,US,,,,United States Postal Service,Q668687
1523300011,usps_collection_boxes,USPS COLLECTION BOX - BLUE BOX,1100 GALVESTON AVE,PITTSBURGH,PA,,US,,,,United States Postal Service,Q668687
1523300022,usps_collection_boxes,USPS COLLECTION BOX - BLUE BOX,901 WESTERN AVE,PITTSBURGH,PA,,US,,,,United States Postal Service,Q668687
1523300001,usps_collection_boxes,USPS COLLECTION BOX - BLUE BOX,901 ALLEGHENY AVE,PITTSBURGH,PA,,US,,,,United States Postal Service,Q668687
1523300045,usps_collection_boxes,USPS COLLECTION BOX - PO LOBBY,1001 CALIFORNIA AVE,PITTSBURGH,PA,,US,,,,United States Postal Service,Q668687
1523300021,usps_collection_boxes,USPS COLLECTION BOX - BLUE BOX,1014 SHEFFIELD ST,PITTSBURGH,PA,,US,,,,United States Postal Service,Q668687
1523300033,usps_collection_boxes,USPS COLLECTION BOX - PO LOBBY,1001 CALIFORNIA AVE,PITTSBURGH,PA,,US,,,,United States Postal Service,Q668687
1523300034,usps_collection_boxes,USPS COLLECTION BOX - PO LOBBY,1001 CALIFORNIA AVE,PITTSBURGH,PA,,US,,,,United States Postal Service,Q668687
1523300035,usps_collection_boxes,USPS COLLECTION BOX - PO LOBBY,1001 CALIFORNIA AVE,PITTSBURGH,PA,,US,,,,United States Postal Service,Q668687
1523300036,usps_collection_boxes,USPS COLLECTION BOX - PO LOBBY,1001 CALIFORNIA AVE,PITTSBURGH,PA,,US,,,,United States Postal Service,Q668687
1523300041,usps_collection_boxes,USPS COLLECTION BOX - APC,1001 CALIFORNIA AVE,PITTSBURGH,PA,,US,,,,United States Postal Service,Q668687
1523300042,usps_collection_boxes,USPS COLLECTION BOX - BLUE BOX,1001 CALIFORNIA AVE,PITTSBURGH,PA,,US,,,,United States Postal Service,Q668687
1523300009,usps_collection_boxes,USPS COLLECTION BOX - BLUE BOX,1239 W NORTH AVE,PITTSBURGH,PA,,US,,,,United States Postal Service,Q668687
1523300018,usps_collection_boxes,USPS COLLECTION BOX - BLUE BOX,1330 WESTERN AVE,PITTSBURGH,PA,,US,,,,United States Postal Service,Q668687
1523300015,usps_collection_boxes,USPS COLLECTION BOX - BLUE BOX,2295 PREBLE AVE,PITTSBURGH,PA,,US,,,,United States Postal Service,Q668687
1523300004,usps_collection_boxes,USPS COLLECTION BOX - BLUE BOX,1800 COLUMBUS AVE,PITTSBURGH,PA,,US,,,,United States Postal Service,Q668687
1523300008,usps_collection_boxes,USPS COLLECTION BOX - BLUE BOX,1710 N FRANKLIN ST,PITTSBURGH,PA,,US,,,,United States Postal Service,Q668687
1523300002,usps_collection_boxes,USPS COLLECTION BOX - BLUE BOX,1301 BEAVER AVE,PITTSBURGH,PA,,US,,,,United States Postal Service,Q668687
1523300019,usps_collection_boxes,USPS COLLECTION BOX - BLUE BOX,1501 REEDSDALE ST,PITTSBURGH,PA,,US,,,,United States Postal Service,Q668687
,visa,,,PITTSBURGH,PA,,US,,,,,
,visa,,,PITTSBURGH,PA,,US,,,,,
,visa,,,PITTSBURGH,PA,,US,,,,,
,visa,,,PITTSBURGH,PA,,US,,,,,
,visa,,,PITTSBURGH,PA,,US,,,,,
,visa,,,PITTSBURGH,PA,,US,,,,,
,visa,,,PITTSBURGH,PA,,US,,,,,
,visa,,,PITTSBURGH,PA,,US,,,,,
,visa,,,PITTSBURGH,PA,,US,,,,,
,visa,,,PITTSBURGH,PA,,US,,,,,
,visa,,,PITTSBURGH,PA,,US,,,,,
,visa,,,PITTSBURGH,PA,,US,,,,,
,visa,,,PITTSBURGH,PA,,US,,,,,
,visa,,,PITTSBURGH,PA,,US,,,,,
,visa,,,PITTSBURGH,PA,,US,,,,,
,visa,,,PITTSBURGH,PA,,US,,,,,
,visa,,,PITTSBURGH,PA,,US,,,,,
,visa,,,PITTSBURGH,PA,,US,,,,,
,visa,,,PITTSBURGH,PA,,US,,,,,
,visa,,,PITTSBURGH,PA,,US,,,,,
,visa,,,PITTSBURGH,PA,,US,,,,,
,visa,,,PITTSBURGH,PA,,US,,,,,
https://locations.wendys.com/#9254969,wendys,"Wendy's Allegheny Ave in Pittsburgh, PA",,Pittsburgh,PA,,US,+1 412-231-1653,https://locations.wendys.com/united-states/pa/pittsburgh/725-allegheny-ave,"Mo-Su 06:30-10:30,08:00-22:00",Wendy's,Q550258
