Ref,Spider,Name,Address,City,State,Zipcode,Country,Phone,Website,Hours,Brand,WikiData
70996131,moneygram,HDBANK - #040 - DONG NAI - DONG NAI,,DONG NAI,,,VN,+84 251 3918 789,,Mo-Fr 07:30-17:00; Sa-Su 00:00-24:00,MoneyGram,Q1944412
70996144,moneygram,HDBANK - #084 - DONG NAI - THANH BINH,,DONG NAI,,,VN,+84 251 3940 779,,Mo-Fr 07:30-17:00; Sa-Su 00:00-24:00,MoneyGram,Q1944412
70996157,moneygram,HDBANK - #079 - DONG NAI - AMATA,,DONG NAI,,,VN,+84 251 6251 009,,Mo-Fr 07:30-17:00; Sa-Su 00:00-24:00,MoneyGram,Q1944412
70996160,moneygram,HDBANK - #095 - DONG NAI - TAN BIEN,,DONG NAI,,,VN,+84 251 3882 550,,Mo-Fr 07:30-17:00; Sa-Su 00:00-24:00,MoneyGram,Q1944412
70996173,moneygram,HDBANK - #142 - DONG NAI - HO NAI,,DONG NAI,,,VN,+84 251 3881 480,,Mo-Fr 07:30-17:00; Sa-Su 00:00-24:00,MoneyGram,Q1944412
70996199,moneygram,HDBANK - #152 - DONG NAI - XUAN HOA,,DONG NAI,,,VN,+84 251 3877 917,,Mo-Fr 07:30-17:00; Sa-Su 00:00-24:00,MoneyGram,Q1944412
70996209,moneygram,HDBANK - #159 - DONG NAI - TRANG BOM,,DONG NAI,,,VN,+84 251 3675 133,,Mo-Fr 07:30-17:00; Sa-Su 00:00-24:00,MoneyGram,Q1944412
70996212,moneygram,HDBANK - #140 - DONG NAI - QUANG VINH,,DONG NAI,,,VN,+84 251 3957 166,,Mo-Fr 07:30-17:00; Sa-Su 00:00-24:00,MoneyGram,Q1944412
70996225,moneygram,HDBANK - #135 - DONG NAI - SGD DONG NAI,,DONG NAI,,,VN,+84 251 3943 457,,Mo-Fr 07:30-17:00; Sa-Su 00:00-24:00,MoneyGram,Q1944412
70996267,moneygram,HDBANK - #139 - DONG NAI - TAN MAI,,DONG NAI,,,VN,+84 251 8822 502,,Mo-Fr 07:30-17:00; Sa-Su 00:00-24:00,MoneyGram,Q1944412
70996270,moneygram,HDBANK - #141 - DONG NAI - DONG KHOI,,DONG NAI,,,VN,+84 251 3943 132,,Mo-Fr 07:30-17:00; Sa-Su 00:00-24:00,MoneyGram,Q1944412
70996306,moneygram,HDBANK - #145 - DONG NAI - TAN HOA,,DONG NAI,,,VN,+84 251 8253 562,,Mo-Fr 07:30-17:00; Sa-Su 00:00-24:00,MoneyGram,Q1944412
70996335,moneygram,HDBANK - #149 - DONG NAI - LONG BINH,,DONG NAI,,,VN,+84 251 3836 184,,Mo-Fr 07:30-17:00; Sa-Su 00:00-24:00,MoneyGram,Q1944412
70996351,moneygram,HDBANK - #151 - DONG NAI - LONG THANH,,DONG NAI,,,VN,+84 251 3546 529,,Mo-Fr 08:00-17:00; Sa-Su 00:00-24:00,MoneyGram,Q1944412
70996364,moneygram,HDBANK - #153 - DONG NAI - DINH QUAN,,DONG NAI,,,VN,+84 251 3616 648,,Mo-Fr 07:30-17:00; Sa-Su 00:00-24:00,MoneyGram,Q1944412
70996377,moneygram,HDBANK - #154 - DONG NAI - PHUONG LAM,,DONG NAI,,,VN,+84 251 3665 252,,Mo-Fr 07:30-17:00; Sa-Su 00:00-24:00,MoneyGram,Q1944412
70996393,moneygram,HDBANK - #156 - DONG NAI - THONG NHAT,,DONG NAI,,,VN,+84 251 3778 867,,Mo-Fr 07:30-17:00; Sa-Su 00:00-24:00,MoneyGram,Q1944412
70996416,moneygram,HDBANK - #133 - DONG NAI - PHUOC BINH,,DONG NAI,,,VN,+84 251 3879 902,,Mo-Fr 07:30-17:00; Sa-Su 00:00-24:00,MoneyGram,Q1944412
70996429,moneygram,HDBANK - #158 - DONG NAI - XUAN AN,,DONG NAI,,,VN,+84 251 3647 593,,Mo-Fr 07:30-17:00; Sa-Su 00:00-24:00,MoneyGram,Q1944412
70996432,moneygram,HDBANK - #160 - DONG NAI - DONG HOA,,DONG NAI,,,VN,+84 251 3679 956,,Mo-Fr 07:30-17:00; Sa-Su 00:00-24:00,MoneyGram,Q1944412
70996445,moneygram,HDBANK - #161 - DONG NAI - HO NAI 3,,DONG NAI,,,VN,+84 251 8889 000,,Mo-Fr 07:30-17:00; Sa-Su 00:00-24:00,MoneyGram,Q1944412
70996380,moneygram,HDBANK - #155 - DONG NAI - GIA RAY,,DONG NAI,,,VN,+84 251 3743 755,,Mo-Fr 07:30-17:00; Sa-Su 00:00-24:00,MoneyGram,Q1944412
70996186,moneygram,HDBANK - #147 - DONG NAI - TAM HIEP,,DONG NAI,,,VN,+84 251 3913 445,,Mo-Fr 07:30-17:00; Sa-Su 00:00-24:00,MoneyGram,Q1944412
70996296,moneygram,HDBANK - #144 - DONG NAI - TAN HIEP,,DONG NAI,,,VN,+84 251 8871 272,,Mo-Fr 07:30-17:00; Sa-Su 00:00-24:00,MoneyGram,Q1944412
70996403,moneygram,HDBANK - #157 - DONG NAI - SONG RAY,,DONG NAI,,,VN,+84 251 3715 524,,Mo-Fr 07:30-17:00; Sa-Su 00:00-24:00,MoneyGram,Q1944412
70996283,moneygram,HDBANK - #143 - DONG NAI - THANH PHU,,DONG NAI,,,VN,+84 251 3865 950,,Mo-Fr 07:30-17:00; Sa-Su 00:00-24:00,MoneyGram,Q1944412
70996241,moneygram,HDBANK - #137 - DONG NAI - BUU LONG,,DONG NAI,,,VN,+84 251 8850 902,,Mo-Fr 07:30-17:00; Sa-Su 00:00-24:00,MoneyGram,Q1944412
70996348,moneygram,HDBANK - #150 - DONG NAI - NHON TRACH,,DONG NAI,,,VN,+84 251 3569 987,,Mo-Fr 08:00-17:00; Sa-Su 00:00-24:00,MoneyGram,Q1944412
70996322,moneygram,HDBANK - #148 - DONG NAI - TAM PHUOC,,DONG NAI,,,VN,+84 251 3513 266,,Mo-Fr 08:00-17:00; Sa-Su 00:00-24:00,MoneyGram,Q1944412
70996254,moneygram,HDBANK - #138 - DONG NAI - TAN PHONG,,DONG NAI,,,VN,+84 251 3940 592,,Mo-Fr 07:30-17:00; Sa-Su 00:00-24:00,MoneyGram,Q1944412
70996319,moneygram,HDBANK - #146 - DONG NAI - VINH AN,,DONG NAI,,,VN,+84 251 3960 873,,Mo-Fr 08:00-17:00; Sa-Su 00:00-24:00,MoneyGram,Q1944412
70996238,moneygram,HDBANK - #136 - DONG NAI - QUYET THANG,,DONG NAI,,,VN,+84 251 3840 377,,Mo-Fr 07:30-17:00; Sa-Su 00:00-24:00,MoneyGram,Q1944412
44326782,moneygram,SAIGONBANK - #31 - DONG NAI BRANCH,,BIEN HOA,,,VN,+84 251 3948 652,,Mo-Sa 07:30-16:30; Su 00:00-24:00,MoneyGram,Q1944412
65668063,moneygram,SAIGONBANK - #73 - TAN HOA TRANSACTION O,,BIEN HOA,,,VN,+84 251 8889 288,,Mo-Sa 07:30-16:30; Su 00:00-24:00,MoneyGram,Q1944412
66589345,moneygram,SAIGONBANK - #83 - TAM PHUOC TRANSACTION,,BIEN HOA,,,VN,+84 251 3520 456,,Mo-Sa 07:30-16:30; Su 00:00-24:00,MoneyGram,Q1944412
