Ref,Spider,Name,Address,City,State,Zipcode,Country,Phone,Website,Hours,Brand,WikiData
1108,amcal_au,Amcal+ Pharmacy Demarte Lygon St Carlton,"Shop 5 Lygon Crt,  380 Lygon St, Carlton VIC 3053",Carlton,VIC,,AU,+61 3 9347 6310,https://amcal.com.au/store/1108/VIC/amcal-pharmacy-demarte-lygon-st/,Mo-Fr 09:00-19:00; Sa 09:30-17:30; Su 13:00-18:00,Amcal,Q63367373
AU-1381,anytime_fitness,Anytime Fitness,,Carlton,VIC,,AU,+61 432 577 961,https://anytimefitness.com.au/gyms/au-1381/carlton-vic-3053/,,Anytime Fitness,Q4778364
RED0006715,australia_post_au,,,CARLTON,VIC,,AU,,,,Australia Post,Q1142936
RED0006704,australia_post_au,,,CARLTON,VIC,,AU,,,,Australia Post,Q1142936
302826_PO,australia_post_au,CARLTON LPO,,CARLTON,VIC,,AU,+61 3 9347 4483,,,Australia Post,Q1142936
RED0006712,australia_post_au,,,CARLTON,VIC,,AU,,,,Australia Post,Q1142936
RED0006707,australia_post_au,,,CARLTON,VIC,,AU,,,,Australia Post,Q1142936
RED0006713,australia_post_au,,,CARLTON,VIC,,AU,,,,Australia Post,Q1142936
RED0006708,australia_post_au,,,CARLTON,VIC,,AU,,,,Australia Post,Q1142936
RED0015707,australia_post_au,,,CARLTON,VIC,,AU,,,,Australia Post,Q1142936
RED0006706,australia_post_au,,,CARLTON,VIC,,AU,,,,Australia Post,Q1142936
RED0006710,australia_post_au,,,CARLTON,VIC,,AU,,,,Australia Post,Q1142936
328866_PO,australia_post_au,CARLTON SOUTH POST OFFICE,,CARLTON,VIC,,AU,+61 131318,,,Australia Post,Q1142936
RED0006714,australia_post_au,,,CARLTON,VIC,,AU,,,,Australia Post,Q1142936
RED0006711,australia_post_au,,,CARLTON,VIC,,AU,,,,Australia Post,Q1142936
60728630_UPL,australia_post_au,RMIT Building 56 Parcel Locker,,CARLTON,VIC,,AU,,,24/7,Australia Post,Q1142936
RED0006703,australia_post_au,,,CARLTON,VIC,,AU,,,,Australia Post,Q1142936
2594,bakers_delight,Bakers Delight Carlton,,Carlton,VIC,,AU,+61 3 8383 1616,https://www.bakersdelight.com.au/bakery-locator/carlton/,Mo-Sa 06:30-18:30; Su 07:00-18:00,Bakers Delight,Q4849261
21949578,bottlemart_au,Bottlemart On Rathdowne,,,VIC,,AU,+61 3 9191 9040,,,Bottlemart,Q102863175
0271,bp,AA CARLTON,,CARLTON,VIC,,AU,+61 3 9347 5193,,24/7,BP,Q152057
311402,commonwealth_bank_au,Carlton,,Carlton,VIC,,AU,,,,Commonwealth Bank,Q285328
311401,commonwealth_bank_au,Carlton,,Carlton,VIC,,AU,,,,Commonwealth Bank,Q285328
311403,commonwealth_bank_au,Carlton,,Carlton,VIC,,AU,,,,Commonwealth Bank,Q285328
21,grilld_au,Grill'd Carlton,,CARLTON,VIC,,AU,+61 3 9347 1666,,Mo-Th 10:30-22:00; Fr-Sa 10:30-22:30; Su 10:30-22:00,Grill'd,Q18165852
41754,just_group,Peter Alexander Lygon Street,"., 271 Lygon Street, Lygon Street, Carlton, VIC, 3053, Australia",Carlton,VIC,,AU,+61 3 8319 9989,https://justjeans.jgl.com.au/shop/stores/peteralexander-lygon-street,Mo-Fr 10:00-17:30; Sa 10:00-17:00; Su 11:00-17:00,Peter Alexander,Q118383240
OF3263,oporto_au,Carlton,,Carlton,VIC,,AU,+61 3 7007 8118,https://www.oporto.com.au/locations/carlton,Mo-We 10:00-21:30; Th-Fr 10:00-03:00; Sa 10:30-04:00; Su 10:30-21:30,Oporto,Q4412342
1146,seven_eleven_au,Carlton West,,Carlton West,VIC,,AU,+61 3 9348 0947,,24/7,7-Eleven,Q259340
1218,seven_eleven_au,Argyle Square,,Carlton,VIC,,AU,+61 3 9347 1374,,24/7,7-Eleven,Q259340
1464,seven_eleven_au,UniLodge Carlton MMV,,Carlton,VIC,,AU,,,24/7,7-Eleven,Q259340
10111187,shell,SHELL COLES EXPRESS CARLTON (VIC),,CARLTON,VIC,,AU,+61 3 8871 2626,https://find.shell.com/au/fuel/10111187-shell-coles-express-carlton-vic,24/7,Shell,Q110716465
,visa,,,MELBOURNE,VIC,,AU,,,,,
,visa,,,CARLTON,VIC,,AU,,,,,
,visa,,,CARLTON,VIC,,AU,,,,,
,visa,,,CARLTON,VIC,,AU,,,,,
,visa,,,CARLTON,VIC,,AU,,,,,
,visa,,,CARLTON,VIC,,AU,,,,,
,visa,,,CARLTON,VIC,,AU,,,,,
,visa,,,CARLTON,VIC,,AU,,,,,
,visa,,,CARLTON,VIC,,AU,,,,,
,visa,,,CARLTON,VIC,,AU,,,,,
,visa,,,CARLTON,VIC,,AU,,,,,
,visa,,,CARLTON,VIC,,AU,,,,,
11cd2568bfeca77083924c9b3c6fe011,western_union,AUSTRALIA POST,,Carlton,VIC,,AU,+61 1800 501 500,https://location.westernunion.com/au/vic/carlton/11cd2568bfeca77083924c9b3c6fe011,Mo-Fr 08:30-17:00; Sa 10:00-13:30,Western Union,Q861042
f7345cfa55b3b9196b2ea393957c7ee4,western_union,SM GROUP PTY LTD ATF SM GROUP UNIT TRUST,,Carlton South,VIC,,AU,+61 1800 501 500,https://location.westernunion.com/au/vic/carlton-south/f7345cfa55b3b9196b2ea393957c7ee4,Mo-Su 06:00-18:00,Western Union,Q861042
8de5489e1221fd56169bda7b66822eab,western_union,AUSTRALIA POST,,Carlton,VIC,,AU,+61 1800 501 500,https://location.westernunion.com/au/vic/carlton/8de5489e1221fd56169bda7b66822eab,Mo-Fr 09:00-17:00; Sa 09:00-12:00,Western Union,Q861042
