Ref,Spider,Name,Address,City,State,Zipcode,Country,Phone,Website,Hours,Brand,WikiData
PER-56,aldi_sud_ch,ALDI,"Türkheimerstrasse 4-6, Basel, 4055",Basel,,,CH,+41 61 301 84 65,,Mo-Fr 08:00-20:00; Sa 08:00-18:00,ALDI,Q41171672
534795106,bp,BP Tankstelle Jura,,Basel,,,CH,,,,BP,Q152057
552345013,bp,BP Tankstelle Basel,,Basel,,,CH,,,,BP,Q152057
im-westfeld-30-4055-basel,denner_ch,Denner,,Basel,,,CH,+41 58 999 14 46,https://www.denner.ch/de/filialen/denner-filiale-und-oeffnungszeiten/store/im-westfeld-30-4055-basel/,Th-Fr 08:00-19:00; Sa 07:30-18:00,Denner,Q379911
spalenring-4-4055-basel,denner_ch,Denner,,Basel,,,CH,+41 58 999 06 10,https://www.denner.ch/de/filialen/denner-filiale-und-oeffnungszeiten/store/spalenring-4-4055-basel/,Mo-Fr 08:00-19:00; Sa 07:30-18:00,Denner,Q379911
allschwilerstrasse-38-4055-basel,denner_ch,Denner,,Basel,,,CH,+41 58 999 05 52,https://www.denner.ch/de/filialen/denner-filiale-und-oeffnungszeiten/store/allschwilerstrasse-38-4055-basel/,Mo-Fr 08:00-18:30; Sa 07:30-17:00,Denner,Q379911
sharedmobility.ch:carvelo2go:5f3d8a96-d7e7-44bb-d2dd-5cecd126a347,gbfs,Café & Leckerlimanufaktur Spalentor,,,,,CH,,https://www.sharedmobility.ch/info,,sharedmobility.ch,
sharedmobility.ch:carvelo2go:b2befbfd-804d-445e-f634-4dcc9b7790de,gbfs,CO13 Werkstätten,,,,,CH,,https://www.sharedmobility.ch/info,,sharedmobility.ch,
sharedmobility.ch:carvelo2go:fdd4bc8c-69c9-49b2-8b7b-28e8feae191b,gbfs,CO13 Werkstätten Carvelobox,,,,,CH,,https://www.sharedmobility.ch/info,,sharedmobility.ch,
sharedmobility.ch:carvelo2go:bcfa8777-c9be-4272-879d-a3e2e369a860,gbfs,Velove,,,,,CH,,https://www.sharedmobility.ch/info,,sharedmobility.ch,
0029610_mp,migros_ch,Migros Partner,,Basel,,,CH,+41 58 575 87 90,https://filialen.migros.ch/de/migros-partner-basel-wasgenring,Mo-Fr 08:00-19:30; Sa 07:30-18:00,Migros Partner,Q115661515
0025760_gour,migros_ch,Migros Take Away,,Basel,,,CH,+41 58 575 89 14,https://filialen.migros.ch/de/take-away-basel-burgfelder,Mo-Fr 07:00-19:00; Sa 07:30-18:00,Migros Take Away,Q111826610
0024560_super,migros_ch,Migros,,Basel,,,CH,+41 58 575 89 00,https://filialen.migros.ch/de/migros-supermarkt-basel-burgfelder,Mo-Fr 08:00-20:00; Sa 07:30-18:00,Migros,Q115661152
0024560_flori,migros_ch,Florissimo,,Basel,,,CH,+41 58 575 89 00,https://filialen.migros.ch/de/florissimo-basel-burgfelder,Mo-Fr 08:00-20:00; Sa 07:30-18:00,Florissimo,Q115659418
0023170_super,migros_ch,Migros,,Basel,,,CH,+41 58 575 86 70,https://filialen.migros.ch/de/migros-supermarkt-basel-allschwiler,Mo-Fr 08:00-20:00; Sa 07:30-18:00,Migros,Q115661152
cityring-apotheke-basel,rotpunkt_apotheken_ch,CityRing Apotheke,,Basel,,,CH,+41 61 385 96 66,https://www.cityring-apotheke.ch/,Mo-Fr 08:00-18:30; Sa 08:00-17:00,Rotpunkt Apotheke,Q111683777
rosen-apotheke-basel,rotpunkt_apotheken_ch,Rosen Apotheke,,Basel,,,CH,+41 61 302 53 53,https://www.rosenapotheke.ch,Mo-Fr 08:00-18:30; Sa 08:00-15:00,Rotpunkt Apotheke,Q111683777
739,valora,k kiosk,,Basel,,,CH,,,,k kiosk,Q60381703
728,valora,k kiosk,,Basel,,,CH,,,,k kiosk,Q60381703
,visa,,,BASEL,,,CH,,,,,
,visa,,,BASEL,,,CH,,,,,
,visa,,,BASEL,,,CH,,,,,
