Ref,Spider,Name,Address,City,State,Zipcode,Country,Phone,Website,Hours,Brand,WikiData
20876,citi,SORIANA FERIAS,,Tijuana,BAJA CALIFORNIA NORTE,,MX,+52 800 110 3990,,,Citibank,Q857063
,visa,,,TIJUANA,BAJA CALIFORNIA NORTE,,MX,,,,,
,visa,,,TIJUANA,BAJA CALIFORNIA NORTE,,MX,,,,,
,visa,,,TIJUANA,BAJA CALIFORNIA NORTE,,MX,,,,,
ca1c22a645c075a87c1639d2f7f6549b,western_union,OXXO EJIDATARIOS TIJ,,Tijuana,BAJA CALIFORNIA NORTE,,MX,+52 81 8389 2121,https://location.westernunion.com/mx/baja-california-norte/tijuana/ca1c22a645c075a87c1639d2f7f6549b,Mo-Su 08:00-22:00,Western Union,Q861042
ededc1fc2ff458b97846608838dfb051,western_union,OXXO EJIDATARIOS TIJ,,Tijuana,BAJA CALIFORNIA NORTE,,MX,+52 81 8389 2121,https://location.westernunion.com/mx/baja-california-norte/tijuana/ededc1fc2ff458b97846608838dfb051,Mo-Su 08:00-22:00,Western Union,Q861042
604e1ebea5a55d2d065aee2bba918779,western_union,OXXO EJIDATARIOS TIJ,,Tijuana,BAJA CALIFORNIA NORTE,,MX,+52 81 8389 2121,https://location.westernunion.com/mx/baja-california-norte/tijuana/604e1ebea5a55d2d065aee2bba918779,Mo-Su 08:00-22:00,Western Union,Q861042
5e476a6a26c5d360a194c395bef353bb,western_union,OXXO MICHOACAN TIJ,,Tijuana,BAJA CALIFORNIA NORTE,,MX,+52 81 8389 2121,https://location.westernunion.com/mx/baja-california-norte/tijuana/5e476a6a26c5d360a194c395bef353bb,Mo-Su 08:00-22:00,Western Union,Q861042
3ae294ba47ebe0d3555ec3de0ad0bdf3,western_union,OXXO PIRAMIDES TIJ,,Tijuana,BAJA CALIFORNIA NORTE,,MX,+52 81 8389 2121,https://location.westernunion.com/mx/baja-california-norte/tijuana/3ae294ba47ebe0d3555ec3de0ad0bdf3,Mo-Su 08:00-22:00,Western Union,Q861042
d1b1e6c1360320031aa31899e218993f,western_union,OXXO PIRAMIDES TIJ,,Tijuana,BAJA CALIFORNIA NORTE,,MX,+52 81 8389 2121,https://location.westernunion.com/mx/baja-california-norte/tijuana/d1b1e6c1360320031aa31899e218993f,Mo-Su 08:00-22:00,Western Union,Q861042
aefcc05f636eb2cde3bea849d9449dce,western_union,OXXO PIRAMIDES TIJ,,Tijuana,BAJA CALIFORNIA NORTE,,MX,+52 81 8389 2121,https://location.westernunion.com/mx/baja-california-norte/tijuana/aefcc05f636eb2cde3bea849d9449dce,Mo-Su 08:00-22:00,Western Union,Q861042
b5979f7d088136919ce2b068dc05c855,western_union,OXXO DIEZ DE MAYO,,Tijuana,BAJA CALIFORNIA NORTE,,MX,+52 81 8389 2121,https://location.westernunion.com/mx/baja-california-norte/tijuana/b5979f7d088136919ce2b068dc05c855,Mo-Su 08:00-22:00,Western Union,Q861042
2a854d907d10fb2e57742f44b99e0ac9,western_union,OXXO DIEZ DE MAYO,,Tijuana,BAJA CALIFORNIA NORTE,,MX,+52 81 8389 2121,https://location.westernunion.com/mx/baja-california-norte/tijuana/2a854d907d10fb2e57742f44b99e0ac9,Mo-Su 08:00-22:00,Western Union,Q861042
50c86f4f044d4c2c078ff87aa15e7ee1,western_union,OXXO DIEZ DE MAYO,,Tijuana,BAJA CALIFORNIA NORTE,,MX,+52 81 8389 2121,https://location.westernunion.com/mx/baja-california-norte/tijuana/50c86f4f044d4c2c078ff87aa15e7ee1,Mo-Su 08:00-22:00,Western Union,Q861042
6cc9bed5fe19a380805cfff9b33aaea3,western_union,CALIMAX 50 LAS TORRES AP CASH,,Tijuana,BAJA CALIFORNIA NORTE,,MX,+52 664 905 3232,https://location.westernunion.com/mx/baja-california-norte/tijuana/6cc9bed5fe19a380805cfff9b33aaea3,Mo-Su 07:00-23:00,Western Union,Q861042
b3fc7977a4ad97f99c43cc6996e8565d,western_union,CALIMAX 50 LAS TORRES AP CASH,,Tijuana,BAJA CALIFORNIA NORTE,,MX,+52 664 905 3232,https://location.westernunion.com/mx/baja-california-norte/tijuana/b3fc7977a4ad97f99c43cc6996e8565d,Mo-Su 07:00-23:00,Western Union,Q861042
dd7376e38858586677b4cba24e448593,western_union,CALIMAX 50 LAS TORRES AP CASH,,Tijuana,BAJA CALIFORNIA NORTE,,MX,+52 664 905 3232,https://location.westernunion.com/mx/baja-california-norte/tijuana/dd7376e38858586677b4cba24e448593,Mo-Su 07:00-23:00,Western Union,Q861042
753e9d7bbe48ce0e11fbf705f3cea56f,western_union,7ELEVEN LOS OLIVOS E IMPERIAL 2378,,Tijuana,BAJA CALIFORNIA NORTE,,MX,+52 800 833 4700,https://location.westernunion.com/mx/baja-california-norte/tijuana/753e9d7bbe48ce0e11fbf705f3cea56f,Mo-Su 06:00-22:00,Western Union,Q861042
bf8daf34ccbe770b654d02b180c77ecb,western_union,7ELEVEN LOS OLIVOS E IMPERIAL 2378,,Tijuana,BAJA CALIFORNIA NORTE,,MX,+52 800 833 4700,https://location.westernunion.com/mx/baja-california-norte/tijuana/bf8daf34ccbe770b654d02b180c77ecb,Mo-Su 06:00-22:00,Western Union,Q861042
3f30b2eaca596db8f7a90986e7b5b65e,western_union,7ELEVEN LOS OLIVOS E IMPERIAL 2378,,Tijuana,BAJA CALIFORNIA NORTE,,MX,+52 800 833 4700,https://location.westernunion.com/mx/baja-california-norte/tijuana/3f30b2eaca596db8f7a90986e7b5b65e,Mo-Su 06:00-22:00,Western Union,Q861042
94e9c1c85572e83d1061d2f5f51cec3e,western_union,OXXO MICHOACAN TIJ,,Tijuana,BAJA CALIFORNIA NORTE,,MX,+52 81 8389 2121,https://location.westernunion.com/mx/baja-california-norte/tijuana/94e9c1c85572e83d1061d2f5f51cec3e,Mo-Su 08:00-22:00,Western Union,Q861042
5c906b5689a54bf45a0351a31585dbea,western_union,OXXO IMPERIAL TIJ,,Tijuana,BAJA CALIFORNIA NORTE,,MX,+52 81 8389 2121,https://location.westernunion.com/mx/baja-california-norte/tijuana/5c906b5689a54bf45a0351a31585dbea,Mo-Su 08:00-22:00,Western Union,Q861042
194ad05d2abab8046fc2208638d09177,western_union,OXXO IMPERIAL TIJ,,Tijuana,BAJA CALIFORNIA NORTE,,MX,+52 81 8389 2121,https://location.westernunion.com/mx/baja-california-norte/tijuana/194ad05d2abab8046fc2208638d09177,Mo-Su 08:00-22:00,Western Union,Q861042
e6839b1aa64a50560450228e6e97f218,western_union,OXXO IMPERIAL TIJ,,Tijuana,BAJA CALIFORNIA NORTE,,MX,+52 81 8389 2121,https://location.westernunion.com/mx/baja-california-norte/tijuana/e6839b1aa64a50560450228e6e97f218,Mo-Su 08:00-22:00,Western Union,Q861042
9b5a716bb559e956419aaa0fed4bb39c,western_union,OXXO TORRES II TIJ,,Tijuana,BAJA CALIFORNIA NORTE,,MX,+52 81 8389 2121,https://location.westernunion.com/mx/baja-california-norte/tijuana/9b5a716bb559e956419aaa0fed4bb39c,Mo-Su 08:00-22:00,Western Union,Q861042
37181a522a8ddb12000f599d3aa8e1d4,western_union,OXXO TORRES II TIJ,,Tijuana,BAJA CALIFORNIA NORTE,,MX,+52 81 8389 2121,https://location.westernunion.com/mx/baja-california-norte/tijuana/37181a522a8ddb12000f599d3aa8e1d4,Mo-Su 08:00-22:00,Western Union,Q861042
c8772bb82c5ed3c68ec67af3fd0eb122,western_union,OXXO TORRES II TIJ,,Tijuana,BAJA CALIFORNIA NORTE,,MX,+52 81 8389 2121,https://location.westernunion.com/mx/baja-california-norte/tijuana/c8772bb82c5ed3c68ec67af3fd0eb122,Mo-Su 08:00-22:00,Western Union,Q861042
980369840582762902d5c0f4db637c62,western_union,OXXO MAGISTERIAL TIJ,,Tijuana,BAJA CALIFORNIA NORTE,,MX,+52 81 8389 2121,https://location.westernunion.com/mx/baja-california-norte/tijuana/980369840582762902d5c0f4db637c62,Mo-Su 08:00-22:00,Western Union,Q861042
23a19f1a35b085b56bbaf9c50ae31c43,western_union,OXXO MAGISTERIAL TIJ,,Tijuana,BAJA CALIFORNIA NORTE,,MX,+52 81 8389 2121,https://location.westernunion.com/mx/baja-california-norte/tijuana/23a19f1a35b085b56bbaf9c50ae31c43,Mo-Su 08:00-22:00,Western Union,Q861042
f8c46abc960e54f71b6b46d7a1c29983,western_union,OXXO MAGISTERIAL TIJ,,Tijuana,BAJA CALIFORNIA NORTE,,MX,+52 81 8389 2121,https://location.westernunion.com/mx/baja-california-norte/tijuana/f8c46abc960e54f71b6b46d7a1c29983,Mo-Su 08:00-22:00,Western Union,Q861042
023b2b54b3361eb03ac5ac7c2e33758f,western_union,OXXO LAS TORRES TIJ,,Tijuana,BAJA CALIFORNIA NORTE,,MX,+52 81 8389 2121,https://location.westernunion.com/mx/baja-california-norte/tijuana/023b2b54b3361eb03ac5ac7c2e33758f,Mo-Su 08:00-22:00,Western Union,Q861042
67b9c7f1f5e29acc494376114541e59e,western_union,OXXO LAS TORRES TIJ,,Tijuana,BAJA CALIFORNIA NORTE,,MX,+52 81 8389 2121,https://location.westernunion.com/mx/baja-california-norte/tijuana/67b9c7f1f5e29acc494376114541e59e,Mo-Su 08:00-22:00,Western Union,Q861042
71947f86c040144054b7f59c6de98f52,western_union,OXXO LAS TORRES TIJ,,Tijuana,BAJA CALIFORNIA NORTE,,MX,+52 81 8389 2121,https://location.westernunion.com/mx/baja-california-norte/tijuana/71947f86c040144054b7f59c6de98f52,Mo-Su 08:00-22:00,Western Union,Q861042
366427ac2a3c85c34c508370d57b8315,western_union,SORIANA FERIAS 395,,La Mesa,BAJA CALIFORNIA NORTE,,MX,+52 800 555 6555,https://location.westernunion.com/mx/baja-california-norte/la-mesa/366427ac2a3c85c34c508370d57b8315,Mo-Su 08:00-22:00,Western Union,Q861042
