Ref,Spider,Name,Address,City,State,Zipcode,Country,Phone,Website,Hours,Brand,WikiData
189992,bluerhino,Minit Mart #620,,Granville,IL,,US,+1 815-339-6377,,,Blue Rhino,Q65681213
202899,bluerhino,CASEY'S GENERAL STORE #1880,,GRANVILLE,IL,,US,+1 815-339-6248,,,Blue Rhino,Q65681213
26593318835146132600100000961334,bp,BP,,Granville,IL,,US,+1 815-339-6377,,24/7,BP,Q152057
520888,eg_america_us,Minit Mart,,Granville,IL,,US,+1 815-339-6377,https://www.minitmart.com/find-us/generic-store-page/?id=600620,,Minit Mart,Q18154470
https://local.fedex.com/#25231178,fedex,,,Granville,IL,,US,+1 800-463-3339,https://local.fedex.com/en-us/il/granville/stqaf,,FedEx,Q459477
Motorcraft3558USAEnglish,ford,"Al Cioni Ford, Inc.",,Illinois,IL,,US,+1 815-339-2511,,,Ford,Q44294
https://www.ford.com/dealerships/dealer-details/il/granville/al-cioni-ford-inc/,ford_dealers_us,"Al Cioni Ford, Inc.",,Granville,IL,,US,+1 779-946-4162,https://www.ford.com/dealerships/dealer-details/il/granville/al-cioni-ford-inc/,Mo-Fr 08:00-18:00; Sa 08:00-14:30,Ford Motor Company,Q44294
1365418,usps,GRANVILLE,,GRANVILLE,IL,,US,+1 815-339-6541,,"Mo-Fr 09:00-11:30,12:30-16:30; Sa 09:00-11:00",United States Postal Service,Q668687
6132600000,usps_collection_boxes,USPS COLLECTION BOX - BLUE BOX,107 S MCCOY ST,GRANVILLE,IL,,US,,,,United States Postal Service,Q668687
6132600001,usps_collection_boxes,USPS COLLECTION BOX - PO LOBBY,107 S MCCOY ST,GRANVILLE,IL,,US,,,,United States Postal Service,Q668687
6132600002,usps_collection_boxes,USPS COLLECTION BOX - PO LOBBY,107 S MCCOY ST,GRANVILLE,IL,,US,,,,United States Postal Service,Q668687
,visa,,,GRANVILLE,IL,,US,,,,,
,visa,,,GRANVILLE,IL,,US,,,,,
,visa,,,GRANVILLE,IL,,US,,,,,
,visa,,,GRANVILLE,IL,,US,,,,,
,visa,,,GRANVILLE,IL,,US,,,,,
,visa,,,GRANVILLE,IL,,US,,,,,
,visa,,,GRANVILLE,IL,,US,,,,,
,visa,,,GRANVILLE,IL,,US,,,,,
