Ref,Spider,Name,Address,City,State,Zipcode,Country,Phone,Website,Hours,Brand,WikiData
US515917,adidas,"adidas Outlet Store, Sunbury, Columbus Tanger",,Sunbury,OH,,US,+1 740-913-3001,https://www.adidas.co.uk/storefront/US515917-sunbury-400-s-wilson-rd-adidas-outlet-store-sunbury-columbus-tanger,,Adidas,Q3895
https://stores.advanceautoparts.com/oh/sunbury/400-w-cherry-st,advance_auto_parts_us,Advance Auto Parts,,Sunbury,OH,,US,+1 740-965-0835,https://stores.advanceautoparts.com/oh/sunbury/400-w-cherry-st,Mo-Sa 07:30-21:00; Su 09:00-20:00,Advance Auto Parts,Q4686051
https://storelocations.ae.com/#3846927,american_eagle_outfitters,American Eagle & Aerie Outlet Tanger Outlet - Columbus,,Sunbury,OH,,US,+1 740-965-3780,https://storelocations.ae.com/us/oh/sunbury/400-south-wilson-road.html,Mo-Sa 10:00-20:00; Su 11:00-19:00,American Eagle & Aerie Outlet,Q2842931
https://stores.anntaylor.com/factory/us/oh/sunbury/400-south-wilson-road.html,anntaylor,Ann Taylor Factory Store,,Sunbury,OH,,US,+1 740-965-6751,https://stores.anntaylor.com/factory/us/oh/sunbury/400-south-wilson-road.html,Mo-Sa 10:00-20:00; Su 11:00-19:00,Ann Taylor,Q4766699
62670,asics_us,ASICS Outlet Columbus,400 South Wilson Road,Sunbury,OH,,US,+1 740-965-6122,,Mo-Su 11:00-19:00,asics,Q327247
https://locations.auntieannes.com/#5979,auntie_annes,Auntie Anne's Tanger Outlets Columbus II,,Sunbury,OH,,US,+1 740-965-1337,https://locations.auntieannes.com/oh/sunbury/400-south-wilson-rd-5979,Mo-Sa 10:00-20:00; Su 11:00-19:00,Auntie Anne's,Q4822010
https://locations.auntieannes.com/#5953,auntie_annes,Auntie Anne's Tanger Outlets Columbus OH,,Sunbury,OH,,US,+1 740-965-4204,https://locations.auntieannes.com/oh/sunbury/400-south-wilson-rd-5953,Mo-Sa 10:00-20:00; Su 11:00-19:00,Auntie Anne's,Q4822010
4554,autozone_us,AutoZone Auto Parts Sunbury,,Sunbury,OH,,US,+1 740-965-6671,https://www.autozone.com/locations/oh/sunbury/241-w-cherry-st.html,Mo-Fr 07:30-20:00; Sa-Su 08:00-20:00,AutoZone,Q4826087
https://bananarepublic.gap.com/stores/oh/sunbury/banana-republic-1556.html,bananarepublic,Banana Republic,,Sunbury,OH,,US,+1 740-965-0874,https://bananarepublic.gap.com/stores/oh/sunbury/banana-republic-1556.html,Mo-Sa 10:00-20:00; Su 11:00-19:00,Banana Republic,Q806085
BBW02328,bathandbodyworks_us,TANGER OUTLET AT COLUMBUS,,SUNBURY,OH,,US,+1 740-936-6176,,Mo-Sa 10:00-20:00; Su 11:00-19:00,Bath & Body Works,Q810773
76274,bluerhino,Pilot Travel #014,,Sunbury,OH,,US,+1 740-965-5540,,,Blue Rhino,Q65681213
143895,bluerhino,Kroger #802 - Columbus - Fuel Site,,Sunbury,OH,,US,+1 740-965-0500,,,Blue Rhino,Q65681213
113188,bluerhino,Kroger #802 - Columbus,,Sunbury,OH,,US,+1 740-965-0500,,,Blue Rhino,Q65681213
47044,bobevans_us,Sunbury,,Sunbury,OH,,US,+1 740-363-4656,https://www.bobevans.com/locations/sunbury,Mo-Su 07:00-21:00,Bob Evans,Q4932386
62024971503314307400100000000000,bp,BP,,Sunbury,OH,,US,+1 740-965-3091,,24/7,BP,Q152057
159,calvin_klein_ca_us,Calvin Klein,,Sunbury,OH,,US,+1 740-965-4066,https://www.calvinklein.us/en,,Calvin Klein,Q1068628
//locations.carters.com/oh/sunbury/carters-sunbury-oh,carters_us,Carter's Sunbury,,Sunbury,OH,,US,+1 740-965-1139,https://locations.carters.com/oh/sunbury/carters-sunbury-oh,Mo-Sa 10:00-20:00; Su 11:00-19:00,Carter's,Q5047083
11575054,chase_us,Sunbury - New branch,,Sunbury,OH,,US,+1 740-965-4100,https://locator.chase.com/oh/sunbury/115-state-route-3,Mo-Fr 09:00-17:00; Sa 09:00-14:00,Chase,Q524629
oh_sunbury_7162-longhorn-dr,chipotle, ,,Sunbury,OH,,US,+1 740-524-9042,https://locations.chipotle.com/oh/sunbury/7162-longhorn-dr,,Chipotle,Q465751
83565,citi,ATM THE MIDDLEFIELD BANKING COMPANY,,Sunbury,OH,,US,,,,Citibank,Q857063
60996,citi,ATM Kroger,,Sunbury,OH,,US,,,,Citibank,Q857063
columbus/700,claires,Shop Ear Piercings & Jewelry at Columbus Tanger Outlets,,COLUMBUS,OH,,US,+1 740-965-0852,https://stores.claires.com/us/oh/columbus/700.html,Mo-Th 10:00-20:00; Fr 10:00-21:00; Sa 10:00-20:00; Su 11:00-19:00,Claire's,Q2974996
https://www.coach.com/stores/#17277515,coach_us,COACH Outlet,,Sunbury,OH,,US,+1 614-490-1075,https://www.coach.com/stores/outlets/oh/sunbury/400-south-wilson-road,Mo-Sa 10:00-20:00; Su 11:00-19:00,Coach,Q727697
281532,crocs_eu,Crocs Tanger Columbus,,Sunbury,OH,,US,+1 380-710-9548,,,Crocs,Q926699
3364,cvs_us,CVS Pharmacy,,Sunbury,OH,,US,+1 740-965-3061,https://www.cvs.com/store-locator/sunbury-oh-pharmacies/111-w-cherry-st-sunbury-oh-43074/storeid=3364,Mo-Su 08:00-22:00,CVS Pharmacy,Q2078880
248590,dennys,Denny's,,Berkshire,OH,,US,+1 740-965-1541,https://locations.dennys.com/OH/BERKSHIRE/248590,Mo-Su 07:00-02:00,Denny's,Q1189695
https://www.edwardjones.com/us-en/financial-advisor/kelsey-burgett,edwardjones,Kelsey M Burgett,,Sunbury,OH,,US,+1 740-936-0778,https://www.edwardjones.com/us-en/financial-advisor/kelsey-burgett,Mo-Th 08:00-17:00; Fr 08:00-16:00,Edward Jones,Q5343830
520702,eg_america_us,Certified,,SUNBURY,OH,,US,+1 740-965-4114,https://www.certifiedoil.com/find-us/generic-store-page/?id=400402,,Certified Oil,Q100148356
400-south-wilson-rd,express,Tanger Outlet â€“ Columbus,,Sunbury,OH,,US,+1 740-936-6094,https://stores.expressfactoryoutlet.com/us/oh/sunbury/400-south-wilson-rd,Mo-Sa 10:00-20:00; Su 11:00-19:00,Express Factory Outlet,Q1384784
/ohio/sunbury/sunbury-office/75-s-miller-dr/,fcbanking,First Commonwealth Bank - Sunbury Office,,Sunbury,OH,,US,+1 740-548-3360,https://www.fcbanking.com/branch-locations/ohio/sunbury/sunbury-office/75-s-miller-dr/,Mo-Fr 09:00-17:00; Sa 09:00-12:00,First Commonwealth Bank,Q5452773
7609,fossil,Fossil Outlet,,Sunbury,OH,,US,+1 740-301-0459,,Mo-We 10:00-20:00; Th-Sa 10:00-21:00; Su 23:00-19:00,Fossil,Q356212
c419f063-458a-e111-8dde-005056934050,goodwill,Sunbury Goodwill Store,,Sunbury,OH,,US,+1 740-965-9675,https://www.goodwill.org/locator/location/?store=YzQxOWYwNjMtNDU4YS1lMTExLThkZGUtMDA1MDU2OTM0MDUw&lat=NDAuMjUzNzI=&lng=LTgyLjgxNDU2,,Goodwill,Q5583655
https://salons.greatclips.com/us/oh/sunbury/135-state-route-3,greatclips,Great Clips,,Sunbury,OH,,US,+1 740-965-1253,https://salons.greatclips.com/us/oh/sunbury/135-state-route-3,Mo-Fr 09:00-19:00; Sa 09:00-18:00; Su 10:00-17:00,Great Clips,Q5598967
cmhdlhx-hampton-columbus-delaware-i-71-north,hilton,Hampton Inn Columbus/Delaware I-71 North,,,OH,,US,+1 740-363-4700,https://www.hilton.com/ar/hotels/cmhdlhx-hampton-columbus-delaware-i-71-north/,,Hampton by Hilton,Q5646230
34120,h_r_block,H&R Block,,Sunbury,OH,,US,+1 740-965-1793,https://www.hrblock.com/local-tax-offices/ohio/sunbury/484-w-cherry-st/34120/,,H&R Block,Q5627799
https://stores.factory.jcrew.com/#3346016,j_crew_us,J.Crew Factory,,Sunbury,OH,,US,+1 740-965-1041,https://stores.factory.jcrew.com/us/oh/sunbury/400-south-wilson-road,Mo-Sa 10:00-20:00; Su 11:00-19:00,J. Crew,Q5370765
https://www.katespade.com/stores/#18467755,kate_spade_ca_us,Kate Spade Outlet Columbus-Tanger,,Sunbury,OH,,US,+1 740-486-9059,https://www.katespade.com/stores/us/oh/sunbury/400-south-wilson-rd,Mo-Sa 10:00-20:00; Su 11:00-19:00,Kate Spade New York,Q6375797
https://locations.kfc.com/#11248661,kfc,Chicken Nuggets Near Sunbury,,Sunbury,OH,,US,,https://locations.kfc.com/oh/sunbury/7309-e-state-rt-37/chickennugget,Mo-Su 10:00-23:00,KFC,Q524757
https://stores.loft.com/outlet/us/oh/sunbury/400-south-wilson-road.html,loft_us,Loft,,Sunbury,OH,,US,+1 740-965-6961,https://stores.loft.com/outlet/us/oh/sunbury/400-south-wilson-road.html,,Loft,Q62075137
https://locations.maurices.com/#11688183,maurices,maurices Tanger Outlets Columbus,,Sunbury,OH,,US,+1 740-965-1055,https://locations.maurices.com/us/oh/sunbury/400-s-wilson-road-ste-236,Mo-Sa 10:00-20:00; Su 11:00-19:00,maurices,Q6793571
https://locations.michaelkors.com/us/oh/sunbury/400-south-wilson-road.html,michaelkors,Michael Kors Outlet COLUMBUS OUTLET,,Sunbury,OH,,US,+1 740-965-4206,https://locations.michaelkors.com/us/oh/sunbury/400-south-wilson-road.html,Mo-Sa 10:00-20:00; Su 11:00-19:00,Michael Kors,Q19572998
https://locations.michaelkors.com/fr/us/oh/sunbury/400-south-wilson-road.html,michaelkors,Michael Kors Outlet COLUMBUS OUTLET,,Sunbury,OH,,US,+1 740-965-4206,https://locations.michaelkors.com/fr/us/oh/sunbury/400-south-wilson-road.html,Mo-Sa 10:00-20:00; Su 11:00-19:00,Michael Kors,Q19572998
//locations.oshkosh.com/oh/sunbury/oshkosh-sunbury-oh,oshkosh_us,Oshkosh B'gosh Sunbury,,Sunbury,OH,,US,+1 740-965-1139,https://locations.oshkosh.com/oh/sunbury/oshkosh-sunbury-oh,Mo-Sa 10:00-20:00; Su 11:00-19:00,OshKosh B'gosh,Q1417347
14,pilot_flyingj,Pilot Travel Center,,Sunbury,OH,,US,+1 740-965-5540,https://locations.pilotflyingj.com/us/oh/sunbury/7680-e-36-n-state-st,,Pilot,Q7194412
696,pilot_flyingj,Flying J Travel Center,,Berkshire,OH,,US,+1 740-965-9835,https://locations.pilotflyingj.com/us/oh/berkshire/7735-e-state-rt-37,,Flying J,Q16974822
oh_sunbury_55-s-miller-dr,pizza_hut_us,55 S Miller Dr,,Sunbury,OH,,US,+1 740-965-6666,https://locations.pizzahut.com/oh/sunbury/55-s-miller-dr,,Pizza Hut,Q191615
https://restaurants.subway.com/#14898180,subway,Subway,,Sunbury Delaware,OH,,US,+1 740-965-2244,https://restaurants.subway.com/united-states/oh/sunbury/747-w-cherry-street,Mo-Su 10:00-20:00,Subway,Q244457
https://restaurants.subway.com/#14908067,subway,Subway Tanger Outlets,,Sunbury Delaware,OH,,US,+1 740-965-2443,https://restaurants.subway.com/united-states/oh/sunbury/400-s-wilson-road,Mo-Sa 10:00-20:00; Su 11:00-19:00,Subway,Q244457
https://restaurants.subway.com/#14910268,subway,Subway Pilot Travel Center #14,,Sunbury Delaware,OH,,US,+1 740-965-5540,https://restaurants.subway.com/united-states/oh/sunbury/7680-e-sr-37,Mo-Su 09:00-22:00,Subway,Q244457
https://stores.sunglasshut.com/us/oh/sunbury/400-south-wilson-rd,sunglass_hut_1,Sunglass Hut,,Sunbury,OH,,US,+1 740-965-4113,https://stores.sunglasshut.com/us/oh/sunbury/400-south-wilson-rd,Mo-Sa 10:00-19:00; Su 12:00-18:00,Sunglass Hut,Q136311
https://locations.tacobell.com/#6142325,taco_bell,Taco Bell,,Sunbury,OH,,US,+1 740-362-8594,https://locations.tacobell.com/oh/sunbury/7255-state-route-37.html,Mo-Su 09:00-24:00,Taco Bell,Q752941
https://locations.tacobell.com/#10597058,taco_bell,Taco Bell,,Sunbury,OH,,US,+1 740-913-1820,https://locations.tacobell.com/oh/sunbury/117-state-route-3.html,Mo 09:00-22:00; Tu-Th 09:00-01:00; Fr-Sa 09:00-02:00; Su 09:00-01:00,Taco Bell,Q752941
https://www.tangeroutlet.com/columbus/location,tanger_outlet,Tanger Outlets,400 South Wilson Rd.,Columbus,OH,,US,,https://www.tangeroutlet.com/columbus/location,,Tanger Outlet,Q7682888
TNFUS00320,the_north_face,The North Face Tanger Outlets Columbus,,Sunbury,OH,,US,+1 740-965-3675,,Mo-Sa 10:00-20:00; Su 11:00-19:00,The North Face,Q152784
2USH,tmobile_us,W Cherry St & Burrer Dr,,Sunbury,OH,,US,+1 740-965-9555,https://www.t-mobile.com/store-locator/oh/sunbury/w-cherry-st-burrer-dr,,T-Mobile,Q3511885
UAFH-400SWRS500,under_armour,Under Armour Factory House,,Sunbury,OH,,US,+1 740-965-3738,https://store-locations.underarmour.com/oh/sunbury/UAFH-400SWRS500,,Under Armour,Q2031485
2123,united_dairy_farmers_us,United Dairy Farmers,303 W. Granville St,Sunbury,OH,,US,+1 740-965-2701,,,United Dairy Farmers,Q7887677
7830,upsstore,Sunbury,486 W Cherry St,Sunbury,OH,,US,,https://locations.theupsstore.com/oh/sunbury/486-w-cherry-st,,UPS Store,Q7771029
1383976,usps,SUNBURY,,SUNBURY,OH,,US,+1 740-965-2471,,Mo-Fr 08:30-16:30; Sa 09:00-12:00,United States Postal Service,Q668687
4307400001,usps_collection_boxes,USPS COLLECTION BOX - BLUE BOX,7735 E STATE ROUTE 37,SUNBURY,OH,,US,,,,United States Postal Service,Q668687
4307400002,usps_collection_boxes,USPS COLLECTION BOX - BLUE BOX,150 REED WAY,SUNBURY,OH,,US,,,,United States Postal Service,Q668687
4307400005,usps_collection_boxes,USPS COLLECTION BOX - PO LOBBY,267 W GRANVILLE ST,SUNBURY,OH,,US,,,,United States Postal Service,Q668687
4307400007,usps_collection_boxes,USPS COLLECTION BOX - BLUE BOX,267 W GRANVILLE ST,SUNBURY,OH,,US,,,,United States Postal Service,Q668687
4307400003,usps_collection_boxes,USPS COLLECTION BOX - BLUE BOX,267 W GRANVILLE ST,SUNBURY,OH,,US,,,,United States Postal Service,Q668687
4307400013,usps_collection_boxes,USPS COLLECTION BOX - PO LOBBY,267 W GRANVILLE ST,SUNBURY,OH,,US,,,,United States Postal Service,Q668687
4307400008,usps_collection_boxes,USPS COLLECTION BOX - BLUE BOX,50 E CHERRY ST,SUNBURY,OH,,US,,,,United States Postal Service,Q668687
A00000195559,verizon_us,Wireless Zone Sunbury,,Sunbury,OH,,US,+1 740-965-8300,https://www.verizon.com/stores/details/ohio/sunbury/tcc-sunbury-1677022/,Mo-Sa 10:00-19:00; Su 12:00-17:00,Verizon,Q919641
,visa,,,SUNBURY,OH,,US,,,,,
,visa,,,SUNBURY,OH,,US,,,,,
,visa,,,SUNBURY,OH,,US,,,,,
,visa,,,SUNBURY,OH,,US,,,,,
,visa,,,SUNBURY,OH,,US,,,,,
,visa,,,SUNBURY,OH,,US,,,,,
,visa,,,SUNBURY,OH,,US,,,,,
,visa,,,SUNBURY,OH,,US,,,,,
,visa,,,SUNBURY,OH,,US,,,,,
,visa,,,SUNBURY,OH,,US,,,,,
,visa,,,SUNBURY,OH,,US,,,,,
,visa,,,SUNBURY,OH,,US,,,,,
,visa,,,SUNBURY,OH,,US,,,,,
,visa,,,SUNBURY,OH,,US,,,,,
,visa,,,SUNBURY,OH,,US,,,,,
,visa,,,SUNBURY,OH,,US,,,,,
,visa,,,SUNBURY,OH,,US,,,,,
,visa,,,COLUMBUS,OH,,US,,,,,
1129,waffle_house_us,Waffle House #1129,,SUNBURY,OH,,US,+1 740-368-8900,https://locations.wafflehouse.com/sunbury-oh-1129,24/7,Waffle House,Q1701206
https://locations.wendys.com/#9255903,wendys,"Wendy's Sunbury,Oh in Sunbury, OH",,Sunbury,OH,,US,+1 740-913-0693,https://locations.wendys.com/united-states/oh/sunbury/88-miller-drive,"Mo-Su 06:00-10:30,06:00-22:00",Wendy's,Q550258
https://locations.wendys.com/#9255902,wendys,"Wendy's E State Rte 37 in Sunbury, OH",,Sunbury,OH,,US,+1 740-548-4016,https://locations.wendys.com/united-states/oh/sunbury/7272-east-state-rt-37,"Mo-Fr 06:00-10:30,06:00-22:00; Sa-Su 06:00-11:00,06:00-22:00",Wendy's,Q550258
