Ref,Spider,Name,Address,City,State,Zipcode,Country,Phone,Website,Hours,Brand,WikiData
579,aaa,"Rapid City, SD",,Rapid City,SD,,US,+1 605-342-8482,,,American Automobile Association,Q463436
1189,allsups_yesway_us,Yesway,,rapid-city,SD,,US,+1 605-343-0182,,24/7,Yesway,Q75851666
1188,allsups_yesway_us,Yesway,,rapid-city,SD,,US,+1 605-342-1666,,Mo-Su 06:00-00:00,Yesway,Q75851666
1186,allsups_yesway_us,Yesway,,rapid-city,SD,,US,+1 605-791-4100,,24/7,Yesway,Q75851666
https://storelocations.ae.com/#1726266,american_eagle_outfitters,American Eagle Store Rushmore Mall,,Rapid City,SD,,US,+1 605-399-2033,https://storelocations.ae.com/us/sd/rapid-city/2200-north-maple.html,Mo-Sa 10:00-20:00; Su 12:00-18:00,American Eagle Store,Q2842931
https://restaurants.applebees.com/en-us/sd/rapid-city/2160-haines-ave.-90088,applebees,Connect with this Applebee's,,Rapid City,SD,,US,+1 605-394-0338,https://restaurants.applebees.com/en-us/sd/rapid-city/2160-haines-ave.-90088,Mo-Th 11:00-23:00; Fr-Sa 11:00-24:00; Su 11:00-23:00,Applebees,Q621532
https://locations.arbys.com/sd/rapidcity/2410-west-main-st.html,arbys_us,"Arby's Fast-Food Drive Through Near You in Rapid City, SD",,Rapid City,SD,,US,+1 605-341-2049,https://locations.arbys.com/sd/rapidcity/2410-west-main-st.html,Mo-Su 10:00-22:00,Arby's,Q630866
https://locations.arbys.com/sd/rapidcity/2400-mt-rushmore-rd.html,arbys_us,"Arby's Fast-Food Drive Through Near You in Rapid City, SD",,Rapid City,SD,,US,+1 605-348-8605,https://locations.arbys.com/sd/rapidcity/2400-mt-rushmore-rd.html,Mo-Su 10:00-21:00,Arby's,Q630866
https://stores.ashleyfurniture.com/store/us/south-dakota/rapid-city/7710000385/,ashley_furniture,"Ashley Store Rapid City, SD",,Rapid City,SD,,US,+1 605-721-3339,https://stores.ashleyfurniture.com/store/us/south-dakota/rapid-city/7710000385/,,Ashley Furniture,Q4805437
11011,asics_us,SCHEELS ALL SPORTS,1225 Eglin St,Rapid City,SD,,US,+1 605-342-9033,,Mo-Sa 09:00-21:00; Su 11:00-18:00,asics,Q327247
31413,asics_us,Tradehome Shoes ,2200 N Maple Ave,Rapid City,SD,,US,+1 605-343-8911,,Mo-Sa 10:00-20:00; Su 12:00-18:00,asics,Q327247
271395,asics_us,Fit My Feet Rapid City,1625 Lando Ln,Rapid City,SD,,US,+1 605-791-1965,,,asics,Q327247
19520,asics_us,The Runner's Shop,41 E Omaha St,Rapid City,SD,,US,+1 605-348-7866,,,asics,Q327247
270778,asics_us,Black Hills Running Company,1130 W Omaha St,Rapid City,SD,,US,+1 605-716-0432,,Mo-Fr 09:30-17:30; Sa 10:00-16:00; Su 10:00-14:00,asics,Q327247
113199,att_us,RUSHMORE CROSSING,,Rapid City,SD,,US,+1 605-341-3356,https://www.att.com/stores/south-dakota/rapid-city/113199,Mo-Sa 09:00-20:00; Su 11:00-18:00,AT&T,Q298594
3423,autozone_us,AutoZone Auto Parts Rapid City,,Rapid City,SD,,US,+1 605-343-5077,https://www.autozone.com/locations/sd/rapid-city/414-e-north-st.html,Mo-Sa 07:30-21:00; Su 08:00-20:00,AutoZone,Q4826087
6130,autozone_us,AutoZone Auto Parts Rapid City,,Rapid City,SD,,US,+1 605-646-6258,https://www.autozone.com/locations/sd/rapid-city/2005-mount-rushmore-rd.html,Mo-Sa 07:30-21:00; Su 08:30-20:00,AutoZone,Q4826087
BBW00957,bathandbodyworks_us,UPTOWN RAPID,,RAPID CITY,SD,,US,+1 605-341-3886,,Mo-Sa 10:00-20:00; Su 12:00-18:00,Bath & Body Works,Q810773
https://stores.bestbuy.com/sd/rapid-city/2320-n-haines-ave-861.html,bestbuy,Best Buy Rapid City,,Rapid City,SD,,US,+1 605-341-8220,https://stores.bestbuy.com/sd/rapid-city/2320-n-haines-ave-861.html,,Best Buy,Q533415
https://local.biglots.com/#34735170,biglots,Big Lots - Rapid City,,Rapid City,SD,,US,+1 605-863-9040,https://local.biglots.com/sd/rapid-city/1617-eglin-st,Mo 10:00-21:00; Tu-Sa 09:00-21:00; Su 10:00-19:00,Big Lots,Q4905973
35462,blaze_pizza,Blaze Pizza Rapid City,,Rapid City,SD,,US,+1 605-348-2104,https://blazepizza.olo.com/menu/blaze-pizza-rapid-city/,,Blaze Pizza,Q23016666
178074,bluerhino,Loaf N Jug #443,,Rapid City,SD,,US,+1 605-348-5151,,,Blue Rhino,Q65681213
191507,bluerhino,Yesway #1186,,Rapid City,SD,,US,+1 605-791-4100,,,Blue Rhino,Q65681213
210997,bluerhino,Dollar General #20846,,Rapid City,SD,,US,+1 605-646-0266,,,Blue Rhino,Q65681213
191509,bluerhino,Yesway #1188,,Rapid City,SD,,US,+1 605-342-1666,,,Blue Rhino,Q65681213
60903,bluerhino,Lowe's #1634,,Rapid City,SD,,US,+1 605-341-4815,,,Blue Rhino,Q65681213
178075,bluerhino,Loaf N Jug #444,,Rapid City,SD,,US,+1 605-348-9580,,,Blue Rhino,Q65681213
177044,bluerhino,Corner Pantry #10,,Rapid City,SD,,US,+1 605-342-0730,,,Blue Rhino,Q65681213
156268,bluerhino,Walgreens #10656,,Rapid City,SD,,US,+1 605-342-0194,,,Blue Rhino,Q65681213
177049,bluerhino,Corner Pantry #18,,Rapid City,SD,,US,+1 605-341-9600,,,Blue Rhino,Q65681213
239332,bluerhino,Circle K #2746456,,Rapid City,SD,,US,+1 605-348-2220,,,Blue Rhino,Q65681213
186597,bluerhino,Fleet Farm #6410 - Gas Mart,,Rapid City,SD,,US,+1 605-791-8200,,,Blue Rhino,Q65681213
186596,bluerhino,Fleet Farm #6400,,Rapid City,SD,,US,+1 605-791-8200,,,Blue Rhino,Q65681213
152608,bluerhino,Walgreens #09512,,Rapid City,SD,,US,+1 605-348-0015,,,Blue Rhino,Q65681213
177042,bluerhino,Corner Pantry #08,,Rapid City,SD,,US,+1 605-342-0561,,,Blue Rhino,Q65681213
55048,bluerhino,Walmart #1604 - Supercenter,,Rapid City,SD,,US,+1 605-342-9444,,,Blue Rhino,Q65681213
148938,bluerhino,Runnings Supply #27,,Rapid City,SD,,US,+1 605-342-9008,,,Blue Rhino,Q65681213
177046,bluerhino,Corner Pantry #13,,Rapid City,SD,,US,+1 605-342-5363,,,Blue Rhino,Q65681213
239330,bluerhino,Circle K #2746449,,Rapid City,SD,,US,+1 605-342-8005,,,Blue Rhino,Q65681213
172563,bluerhino,Family Dollar #07118,,Rapid City,SD,,US,+1 605-348-0159,,,Blue Rhino,Q65681213
177043,bluerhino,Corner Pantry #09,,Rapid City,SD,,US,+1 605-342-0612,,,Blue Rhino,Q65681213
132272,bluerhino,Walmart #3872 - Supercenter,,Rapid City,SD,,US,+1 605-877-3291,,,Blue Rhino,Q65681213
177026,bluerhino,Family Fare #3253,,Rapid City,SD,,US,+1 605-343-4326,,,Blue Rhino,Q65681213
191512,bluerhino,Yesway #1189,,Rapid City,SD,,US,+1 605-343-0182,,,Blue Rhino,Q65681213
WX000656,bmo,Walgreens,,Rapid City,SD,,US,,,,BMO,Q4835981
KR002337,bmo,Loaf N Jug,,Rapid City,SD,,US,,,,BMO,Q4835981
WW778999,bmo,Walgreens,,Rapid City,SD,,US,,,,BMO,Q4835981
0137,bootbarn,Gillette,,"Rapid City,",SD,,US,+1 605-348-2294,https://www.bootbarn.com/stores?StoreID=0137,Mo-Sa 09:00-21:00; Su 10:00-18:00,Boot Barn,Q109825187
https://local.buckle.com/sd/rapidcity/clothing-59.html,buckle_us,Rapid City Men’s & Women’s Clothing,,Rapid City,SD,,US,+1 605-342-2350,https://local.buckle.com/sd/rapidcity/clothing-59.html,Mo-Sa 10:00-20:00; Su 12:00-18:00,Buckle,Q4983306
RAPCSDYD,builders_firstsource_us,Rapid City SD Yard,,Rapid City,SD,,US,+1 605-343-1115,https://www.bldr.com/location/rapid-city-sd-yard/RAPCSDYD,Mo-Fr 07:00-17:00; Sa 08:00-12:00,Builders FirstSource,Q27686100
1535,burlington_us,Burlington,,Rapid City,SD,,US,+1 605-872-6907,https://stores.burlington.com/sd/rapid-city/1535,Mo-Sa 09:00-23:00; Su 09:00-22:00,Burlington,Q4999220
https://stores.cabelas.com/us/sd/rapid-city/3231-e-mall-dr.html,cabelas,"Cabela's Rapid City, SD",,Rapid City,SD,,US,+1 605-388-5600,https://stores.cabelas.com/us/sd/rapid-city/3231-e-mall-dr.html,Mo-Sa 09:00-20:00; Su 10:00-19:00,Cabela's,Q2793714
12408,cadillac,DENNY MENHOLT RAPID CADILLAC,,Rapid City,SD,,US,+1 605-593-4633,https://www.rapidcadillac.com/,Mo-Fr 08:00-18:00; Sa 08:00-17:00,Cadillac,Q27436
C534,carpet_one_floor_and_home_us,Carpet One Floor & Home,,Rapid City,SD,,US,+1 605-348-8900,https://www.carpetonefloorandhomerapidcity.com/,,Carpet One Floor & Home,Q121335910
12418,chevrolet,DENNY MENHOLT RAPID CHEVROLET,,Rapid City,SD,,US,+1 605-593-4633,https://www.dennymenholtrapidchevrolet.com,Mo-Fr 08:00-18:00; Sa 08:00-17:00,Chevrolet,Q29570
001.005.1813,chilis,Rapid City,,Rapid City,SD,,US,+1 605-388-8100,https://www.chilis.com/locations/us/south-dakota/rapid-city/rapid-city/,Mo-Th 11:00-22:00; Fr-Sa 11:00-23:00; Su 11:00-22:00,Chili's,Q1072948
35403,citi,ATM Aspen Federal Credit Union,,Rapid City,SD,,US,,,,Citibank,Q857063
35404,citi,ATM Aspen Federal Credit Union,,Rapid City,SD,,US,,,,Citibank,Q857063
53628,citi,ATM DACOTAH BANK,,Rapid City,SD,,US,,,,Citibank,Q857063
35402,citi,ATM Aspen Federal Credit Union,,Rapid City,SD,,US,,,,Citibank,Q857063
88465,citi,ATM Walgreens,,Rapid City,SD,,US,,,,Citibank,Q857063
63934,citi,ATM Loaf N Jug,,Rapid City,SD,,US,,,,Citibank,Q857063
56025,citi,ATM FIRST INTERSTATE BANK 09,,Rapid City,SD,,US,,,,Citibank,Q857063
59397,citi,ATM HIGHMARK FEDERAL CREDIT UNION,,Rapid City,SD,,US,,,,Citibank,Q857063
56423,citi,ATM FIRST NATIONAL BANK PIERRE,,Rapid City,SD,,US,,,,Citibank,Q857063
53607,citi,ATM DACOTAH BANK,,Rapid City,SD,,US,,,,Citibank,Q857063
55818,citi,ATM FIRST INTERSTATE BANK,,Rapid City,SD,,US,,,,Citibank,Q857063
36721,citi,ATM BLACK HILLS FCU,,Rapid City,SD,,US,,,,Citibank,Q857063
55972,citi,ATM FIRST INTERSTATE BANK 09,,Rapid City,SD,,US,,,,Citibank,Q857063
86813,citi,ATM Walgreens,,Rapid City,SD,,US,,,,Citibank,Q857063
rapidcity/5270,claires,Shop Ear Piercings & Jewelry at Rushmore Mall,,RAPID CITY,SD,,US,+1 605-342-1378,https://stores.claires.com/us/sd/rapidcity/5270.html,Mo-Sa 10:00-20:00; Su 12:00-18:00,Claire's,Q2974996
,credit_union_us,Black Hills FCU,,Rapid City,SD,,US,+1 605-718-1818,,Mo-Fr 09:00-05:00; Sa 09:00-12:00,,
,credit_union_us,Black Hills FCU,,Rapid City,SD,,US,+1 605-718-1818,,Mo-Fr 09:00-05:00,,
70189568,cricket_wireless,Cricket Wireless Authorized Retailer,,Rapid City,SD,,US,+1 605-791-1924,https://www.cricketwireless.com/stores/ll/US/SD/Rapid-City/1109-W-Omaha-St,Mo-Fr 10:00-19:00; Sa 10:00-17:00; Su 12:00-16:00,Cricket Wireless,Q5184987
70189566,cricket_wireless,Cricket Wireless Authorized Retailer,,Rapid City,SD,,US,+1 605-791-1950,https://www.cricketwireless.com/stores/ll/US/SD/Rapid-City/1225-E-Saint-Patrick-St,Mo-Fr 10:00-19:00; Sa 10:00-17:00; Su 12:00-16:00,Cricket Wireless,Q5184987
70189735,cricket_wireless,Cricket Wireless Authorized Retailer,,Rapid City,SD,,US,+1 605-416-2644,https://www.cricketwireless.com/stores/ll/US/SD/Rapid-City/1315-Haines-Ave,Mo-Fr 10:00-19:00; Sa 10:00-17:00; Su 12:00-16:00,Cricket Wireless,Q5184987
628,culvers_us,"Culver's of Rapid City, SD - Mt. Rushmore Rd",,Rapid City,SD,,US,+1 605-716-2092,http://www.culvers.com/restaurants/rapid-city-mt-rushmore-rd,Mo-Fr 10:00-22:00; Su 10:00-22:00,Culver's,Q1143589
473,culvers_us,"Culver's of Rapid City, SD - Eglin St",,Rapid City,SD,,US,+1 605-718-8665,http://www.culvers.com/restaurants/rapid-city-eglin,Mo-Fr 10:00-22:00; Su 10:00-22:00,Culver's,Q1143589
17510,cvs_us,CVS Pharmacy,,Rapid City,SD,,US,+1 605-341-8621,https://www.cvs.com/store-locator/rapid-city-sd-pharmacies/1415-eglin-st-rapid-city-sd-57701/storeid=17510,"Mo-Fr 09:00-13:30,14:00-21:00; Sa-Su 09:00-13:30,14:00-18:00",CVS Pharmacy,Q2078880
vc_0423V,department_veterans_affairs,Rapid City Vet Center,,Rapid City,SD,,US,+1 605-348-0077,https://www.va.gov/rapid-city-vet-center/,,Department Veterans Affairs,Q592576
vc_0823MVC,department_veterans_affairs,Rapid City Mobile Vet Center,,Rapid City,SD,,US,+1 605-348-0077,https://www.va.gov/rapid-city-vet-center/,,Department Veterans Affairs,Q592576
vba_438a,department_veterans_affairs,Rapid City Veteran Readiness and Employment Office,,Rapid City,SD,,US,+1 800-827-1000,https://www.benefits.va.gov/siouxfalls/,,Department Veterans Affairs,Q592576
8841,dollartree,DollarTree,,Rapid City,SD,,US,+1 605-646-6199,,Mo-Sa 09:00-21:00; Su 10:00-20:00,Dollar Tree,Q5289230
18267,dollar_general,Dollar General,,Rapid City,SD,,US,+1 715-503-0709,https://www.dollargeneral.com/store-directory/sd/rapid-city/18267,Mo-Su 08:00-21:00,Dollar General,Q145168
1840,dominos_pizza_us,Domino's Pizza,,Rapid City,SD,,US,+1 605-341-2401,https://pizza.dominos.com/south-dakota/rapid-city/128-e-north-st,Mo-Th 10:30-24:00; Fr-Sa 10:30-01:00; Su 10:30-24:00,Domino's,Q839466
https://www.edwardjones.com/us-en/financial-advisor/richard-owen,edwardjones,Richard Owen,,Rapid City,SD,,US,+1 605-388-0050,https://www.edwardjones.com/us-en/financial-advisor/richard-owen,,Edward Jones,Q5343830
521064,eg_america_us,Loaf 'N Jug,,Rapid City,SD,,US,+1 605-348-9580,https://www.loafnjug.com/find-us/generic-store-page/?id=750444,,Loaf 'N Jug,Q6663398
521063,eg_america_us,Loaf 'N Jug,,Rapid City,SD,,US,+1 605-348-5151,https://www.loafnjug.com/find-us/generic-store-page/?id=750443,,Loaf 'N Jug,Q6663398
902-mount-rushmore-road,einsteinbros,Mount Rushmore & Colmbus Einstein Bros. Bagels,,Rapid City,SD,,US,+1 605-341-3266,https://locations.einsteinbros.com/us/sd/rapid-city/902-mount-rushmore-road,Mo-Su 06:00-14:00,Einstein Bros. Bagels,Q5349788
501-e-saint-joseph-st,einsteinbros,SD School of Mines & Technology Einstein Bros. Bagels,,Rapid City,SD,,US,+1 605-394-1953,https://locations.einsteinbros.com/us/sd/rapid-city/501-e-saint-joseph-st,Mo-Fr 07:00-15:30,Einstein Bros. Bagels,Q5349788
E16353,enterprise,Rapid City,,Rapid City,SD,,US,+1 605-399-9939,,,Enterprise Rent-A-Car,Q17085454
200326380,exxonmobil,CC #125,,RAPID CITY,SD,,US,+1 605-343-1966,https://www.exxon.com/en/find-station/exxon-rapidcity-sd-cc125-200326380,24/7,Exxon,Q109675651
https://local.fedex.com/#25197189,fedex,,,Rapid City,SD,,US,+1 800-463-3339,https://local.fedex.com/en-us/sd/rapid-city/iid4b,,FedEx,Q459477
https://local.fedex.com/#25199366,fedex,,,Rapid City,SD,,US,+1 800-463-3339,https://local.fedex.com/en-us/sd/rapid-city/f677f,,FedEx,Q459477
https://local.fedex.com/#27747788,fedex,FedEx Authorized ShipCenter,,Rapid City,SD,,US,+1 605-343-0604,https://local.fedex.com/en-us/sd/rapid-city/47365,,FedEx,Q459477
https://local.fedex.com/#25458589,fedex,,,Rapid City,SD,,US,+1 800-463-3339,https://local.fedex.com/en-us/sd/rapid-city/00hb2,,FedEx,Q459477
324010,firestone_auto_care,Firestone Complete Auto Care,,Rapid City,SD,,US,+1 605-593-8383,https://local.firestonecompleteautocare.com/south-dakota/rapid-city/425-main-st/,,Firestone,Q420837
3735,first_cash,First National Pawn,,Rapid City,SD,,US,+1 217-384-6000,,,,
3736,first_cash,First National Pawn,,Rapid City,SD,,US,+1 217-384-6000,,,,
https://locations.fivebelow.com/sd/rapid-city/1726-eglin-street,five_below,Five Below Rushmore Crossing,,Rapid City,SD,,US,,https://locations.fivebelow.com/sd/rapid-city/1726-eglin-street,Mo-Sa 10:00-20:00; Su 11:00-18:00,Five Below,Q5455836
https://restaurants.fiveguys.com/#15553079,five_guys_us,Five Guys Rapid City,,Rapid City,SD,,US,+1 605-342-4897,https://restaurants.fiveguys.com/1329-eglin,"Mo-Su 11:00-21:30,11:00-22:00",Five Guys,Q1131810
Motorcraft4722USAEnglish,ford,"McKie Ford Lincoln, Inc.",,South Dakota,SD,,US,+1 605-348-1400,,,Ford,Q44294
https://www.ford.com/dealerships/dealer-details/sd/rapid-city/mckie-ford/,ford_dealers_us,McKie Ford,,Rapid City,SD,,US,+1 605-646-2750,https://www.ford.com/dealerships/dealer-details/sd/rapid-city/mckie-ford/,Mo-Fr 08:00-18:00; Sa 08:00-17:00,Ford Motor Company,Q44294
https://stores.gnc.com/#24059060,gnc,GNC Black Hills Center,,,SD,,US,+1 605-343-1414,https://stores.gnc.com/all-stores-south-dakota/rapid-city/36-e-stumer-rd,Mo-Fr 09:00-21:00; Sa 09:00-19:00; Su 11:00-18:00,GNC,Q4808595
https://stores.gnc.com/#24059510,gnc,GNC Rushmore Mall,,,SD,,US,+1 605-341-0528,https://stores.gnc.com/all-stores-south-dakota/rapid-city/2200-n-maple,Mo-Sa 10:00-19:00; Su 12:00-18:00,GNC,Q4808595
https://www.goldencorral.com/locations/location-detail/778/golden-corral-north-lacrosse-street/,golden_corral,"Golden Corral 778, Rapid city, SD",,Rapid city,SD,,US,+1 605-399-2195,https://www.goldencorral.com/locations/location-detail/778/golden-corral-north-lacrosse-street/,,Golden Corral,Q4039560
801a94c9-458a-e111-8dde-005056934050,goodwill,611 Lindbergh Ave,,Rapid City,SD,,US,+1 605-737-3955,https://www.goodwill.org/locator/location/?store=ODAxYTk0YzktNDU4YS1lMTExLThkZGUtMDA1MDU2OTM0MDUw&lat=NDQuMTAwMzQ=&lng=LTEwMy4yMjM2Nw==,,Goodwill,Q5583655
https://salons.greatclips.com/us/sd/rapid-city/951-eglin-street,greatclips,Great Clips,,Rapid City,SD,,US,+1 605-718-4278,https://salons.greatclips.com/us/sd/rapid-city/951-eglin-street,Mo-Fr 09:00-19:00; Sa 09:00-18:00; Su 10:00-15:00,Great Clips,Q5598967
https://salons.greatclips.com/us/sd/rapid-city/36-e-stumer-rd,greatclips,Great Clips,,Rapid City,SD,,US,+1 605-721-5544,https://salons.greatclips.com/us/sd/rapid-city/36-e-stumer-rd,Mo-Fr 09:00-19:00; Sa 09:00-18:00; Su 10:00-15:00,Great Clips,Q5598967
https://www.harborfreight.com/storelocator/1555-haines-ave-ste-100-rapid-city-57701?number=419,harborfreight,"Harbor Freight Tools Rapid City, SD",,Rapid City,SD,,US,+1 605-341-2608,https://www.harborfreight.com/storelocator/1555-haines-ave-ste-100-rapid-city-57701?number=419,Mo-Sa 08:00-20:00; Su 09:00-18:00,Harbor Freight Tools,Q5654601
raprchx-hampton-suites-rapid-city-rushmore,hilton,Hampton Inn & Suites Rapid City Rushmore,,,SD,,US,+1 605-341-1879,https://www.hilton.com/ar/hotels/raprchx-hampton-suites-rapid-city-rushmore/,,Hampton by Hilton,Q5646230
20771,h_r_block,H&R Block,,Rapid City,SD,,US,+1 605-341-3118,https://www.hrblock.com/local-tax-offices/south-dakota/rapid-city/36-e-stumer-rd-ste-123/20771/,,H&R Block,Q5627799
39569,h_r_block,H&R Block,,Rapid City,SD,,US,+1 605-394-0222,https://www.hrblock.com/local-tax-offices/south-dakota/rapid-city/1001-e-north-st/39569/,,H&R Block,Q5627799
sd_rapid-city_breakfast-550-disk-dr-3044,ihop,IHOP Breakfast Restaurants Near You at 550 Disk Dr,,Rapid City,SD,,US,+1 605-341-4467,https://restaurants.ihop.com/en-us/sd/rapid-city/breakfast-550-disk-dr-3044,,IHOP,Q1185675
https://office.jacksonhewitt.com/#70077901,jackson_hewitt,Jackson Hewitt,,Rapid City,SD,,US,+1 605-718-4847,https://office.jacksonhewitt.com/tax-preparation-services-locations/en/sd/rapid-city/1601-cambell-st/14578,Mo-Fr 10:00-20:00; Sa 10:00-18:00; Su 12:00-16:00,Jackson Hewitt,Q6117132
https://office.jacksonhewitt.com/#27578963,jackson_hewitt,Jackson Hewitt,,Rapid City,SD,,US,+1 605-341-4847,https://office.jacksonhewitt.com/tax-preparation-services-locations/en/sd/rapid-city/1200-n-lacrosse-st/51604,Mo-Fr 11:00-19:00; Sa 10:00-18:00; Su 12:00-16:00,Jackson Hewitt,Q6117132
https://locations.jimmyjohns.com/sd/rapidcity/sandwiches-888.html,jimmy_johns,Jimmy John's,,Rapid City,SD,,US,+1 605-718-2210,https://locations.jimmyjohns.com/sd/rapidcity/sandwiches-888.html,,Jimmy John's,Q1689380
https://locations.jimmyjohns.com/sd/rapidcity/sandwiches-1338.html,jimmy_johns,Jimmy John's,,Rapid City,SD,,US,+1 605-791-5646,https://locations.jimmyjohns.com/sd/rapidcity/sandwiches-1338.html,,Jimmy John's,Q1689380
2475,joann_us,JOANN Fabric and Crafts,,Rapid City,SD,,US,+1 605-348-2326,https://stores.joann.com/sd/rapid-city/2475/,Mo-Th 09:00-19:00; Fr-Su 10:00-18:00,JOANN,Q6203968
https://locations.kfc.com/#11246899,kfc,Chicken Nuggets Near Rapid City,,Rapid City,SD,,US,,https://locations.kfc.com/sd/rapid-city/817-east-north-street/chickennugget,Mo-Sa 10:00-22:00; Su 10:00-20:00,KFC,Q524757
957,kohls_us,Kohl's,,Rapid City,SD,,US,+1 605-348-5170,https://www.kohls.com/stores/sd/rapidcity-957.shtml,Mo-Sa 09:00-21:00; Su 09:00-20:00,Kohl's,Q967265
110247,little_free_library,Little Free Library #110247 Rapid City SD,,Rapid City,SD,,US,,,,Little Free Library,Q6650101
153369,little_free_library,Villa Readers #153369 Rapid City SD,,Rapid City,SD,,US,,,,Little Free Library,Q6650101
36043,little_free_library,Erika Holzer #36043 Rapid City SD,,Rapid City,SD,,US,,,,Little Free Library,Q6650101
159900,little_free_library,Rapid City Rush #159900 RAPID CITY SD,,RAPID CITY,SD,,US,,,,Little Free Library,Q6650101
88712,little_free_library,Omniciye Multicultural Rotary #88712 Rapid City SD,,Rapid City,SD,,US,,,,Little Free Library,Q6650101
95835,little_free_library,Brendyn Medina #95835 Rapid City SD,,Rapid City,SD,,US,,,,Little Free Library,Q6650101
108973,little_free_library,Catholic Diocese of Rapid City #108973 Rapid City SD,,Rapid City,SD,,US,,,,Little Free Library,Q6650101
36042,little_free_library,Erika Holzer #36042 Rapid City SD,,Rapid City,SD,,US,,,,Little Free Library,Q6650101
https://locations.massageenvy.com/#11148127,massage_envy,Massage Envy Rapid City,,Rapid City,SD,,US,+1 605-415-4480,https://locations.massageenvy.com/south-dakota/rapid-city/1147-eglin-st.html,Mo-Fr 09:00-21:00; Sa-Su 09:00-18:00,Massage Envy,Q10327170
https://locations.maurices.com/#11688493,maurices,maurices Rushmore Mall,,Rapid City,SD,,US,+1 605-341-1234,https://locations.maurices.com/us/sd/rapid-city/2200-n-maple-street,Mo-Sa 10:00-20:00; Su 12:00-18:00,maurices,Q6793571
71499747,moneygram,WAL-MART - #1604,,RAPID CITY,SD,,US,+1 605-342-9444,,Mo-Sa 08:00-20:00; Su 10:00-18:00,MoneyGram,Q1944412
NNA5982,nissan_europe,GRANITE NISSAN,,RAPID CITY,SD,,US,+1 606-342-3400,https://www.granitenissan.com,Mo-Fr 08:00-18:00; Sa 08:00-17:00,Nissan,Q20165
https://locations.noodles.com/sd/rapid-city/1734-eglin-street.html,noodles_and_company_us,Noodles & Company Rushmore Crossing,,Rapid City,SD,,US,+1 605-388-2546,https://locations.noodles.com/sd/rapid-city/1734-eglin-street.html,Mo-Su 10:30-22:00,Noodles and Company,Q7049673
7045,old_chicago_us,Rapid City,"1718 Elgin Street, Rapid City, SD 57701",Rapid City,SD,,US,,https://oldchicago.com/locations/rapid-city,,Old Chicago,Q64411347
10001,old_chicago_us,Rapid City,"1718 Elgin Street, Rapid City, SD 57701",Rapid City,SD,,US,,https://oldchicago.com/locations/rapid-city-2,,Old Chicago,Q64411347
https://locations.oreillyauto.com/sd/rapidcity/check-engine-light-testing-3224.html,oreilly,Your Rapid City O'Reilly Auto Parts Store,,Rapid City,SD,,US,+1 605-388-8092,https://locations.oreillyauto.com/sd/rapidcity/check-engine-light-testing-3224.html,Mo-Sa 07:30-22:00; Su 08:00-21:00,O'Reilly Auto Parts,Q7071951
https://locations.oreillyauto.com/sd/rapidcity/wiper-installation-3224.html,oreilly,Your Rapid City O'Reilly Auto Parts Store,,Rapid City,SD,,US,+1 605-388-8092,https://locations.oreillyauto.com/sd/rapidcity/wiper-installation-3224.html,Mo-Sa 07:30-22:00; Su 08:00-21:00,O'Reilly Auto Parts,Q7071951
https://locations.oreillyauto.com/sd/rapidcity/battery-testing-3224.html,oreilly,Your Rapid City O'Reilly Auto Parts Store,,Rapid City,SD,,US,+1 605-388-8092,https://locations.oreillyauto.com/sd/rapidcity/battery-testing-3224.html,Mo-Sa 07:30-22:00; Su 08:00-21:00,O'Reilly Auto Parts,Q7071951
https://locations.oreillyauto.com/sd/rapidcity/autopartes-3224.html,oreilly,Tu tienda O'Reilly Auto Parts en Rapid City,,Rapid City,SD,,US,+1 605-388-8092,https://locations.oreillyauto.com/sd/rapidcity/autopartes-3224.html,Mo-Sa 07:30-22:00; Su 08:00-21:00,O'Reilly Auto Parts,Q7071951
https://locations.oreillyauto.com/sd/rapidcity/check-engine-light-testing-1550.html,oreilly,Your Rapid City O'Reilly Auto Parts Store,,Rapid City,SD,,US,+1 605-341-5321,https://locations.oreillyauto.com/sd/rapidcity/check-engine-light-testing-1550.html,Mo-Sa 07:30-22:00; Su 08:00-21:00,O'Reilly Auto Parts,Q7071951
https://locations.oreillyauto.com/sd/rapidcity/wiper-installation-1550.html,oreilly,Your Rapid City O'Reilly Auto Parts Store,,Rapid City,SD,,US,+1 605-341-5321,https://locations.oreillyauto.com/sd/rapidcity/wiper-installation-1550.html,Mo-Sa 07:30-22:00; Su 08:00-21:00,O'Reilly Auto Parts,Q7071951
https://locations.oreillyauto.com/sd/rapidcity/battery-testing-1550.html,oreilly,Your Rapid City O'Reilly Auto Parts Store,,Rapid City,SD,,US,+1 605-341-5321,https://locations.oreillyauto.com/sd/rapidcity/battery-testing-1550.html,Mo-Sa 07:30-22:00; Su 08:00-21:00,O'Reilly Auto Parts,Q7071951
https://locations.oreillyauto.com/sd/rapidcity/autopartes-1550.html,oreilly,Tu tienda O'Reilly Auto Parts en Rapid City,,Rapid City,SD,,US,+1 605-341-5321,https://locations.oreillyauto.com/sd/rapidcity/autopartes-1550.html,Mo-Sa 07:30-22:00; Su 08:00-21:00,O'Reilly Auto Parts,Q7071951
https://locations.outback.com/#15502150,outbacksteakhouse,Outback Steakhouse,,Rapid City,SD,,US,+1 605-341-1192,https://locations.outback.com/south-dakota/rapid-city/665-east-disk-drive,Mo-Th 11:00-21:30; Fr-Sa 11:00-22:30; Su 11:00-21:00,Outback Steakhouse,Q1064893
usbbca9030,pandora,About Pandora Jewelry Authorized Retailer - Riddle&#039;s Jewelry #106 Rapid City,,Rapid City,SD,,US,+1 605-342-8406,https://stores.pandora.net/sd/rapidcity/pandora-jewelry-usbbca9030.html,,Pandora,Q2241604
https://locations.papamurphys.com/#15429965,papamurphys,Pizza Takeout & Delivery,,Rapid City,SD,,US,+1 605-341-3252,https://locations.papamurphys.com/sd/rapid-city/606-east-north-street,Mo-Su 10:30-20:00,Papa Murphy's,Q7132349
https://locations.papajohns.com/#10692192,papa_johns,Papa John's,,Rapid City,SD,,US,+1 605-348-7272,https://locations.papajohns.com/united-states/sd/57701/rapid-city/1520-haines-avenue,Mo-Th 10:00-23:00; Fr-Sa 10:00-24:00; Su 10:00-23:00,Papa John's Pizza,Q2759586
https://locations.papajohns.com/#10692196,papa_johns,Papa John's,,Rapid City,SD,,US,+1 605-388-9999,https://locations.papajohns.com/united-states/sd/57701/rapid-city/1011-mount-rushmore-rd,Mo-Th 10:00-23:00; Fr-Sa 10:00-24:00; Su 10:00-23:00,Papa John's Pizza,Q2759586
565523,penske,Mobile Fx,,RAPID CITY,SD,,US,+1 605-872-4462,https://www.pensketruckrental.com/locations/us/south_dakota/rapid_city/565523/,,Penske,Q81234570
565524,penske,Anytime Auto,,RAPID CITY,SD,,US,+1 605-858-6981,https://www.pensketruckrental.com/locations/us/south_dakota/rapid_city/565524/,,Penske,Q81234570
https://stores.petco.com/#27959304,petco,Petco Rapid City,,Rapid City,SD,,US,+1 605-341-2056,https://stores.petco.com/sd/rapidcity/pet-supplies-rapidcity-sd-1493.html,Mo-Sa 09:00-20:00; Su 09:00-18:00,Petco,Q7171798
0000862825,phillips_66_conoco_76,CORNER PANTRY 09,,RAPID CITY,SD,,US,+1 605-342-0612,,24/7,Phillips 66,Q1656230
0000862828,phillips_66_conoco_76,BOBS P66,,RAPID CITY,SD,,US,+1 605-348-6747,,24/7,Phillips 66,Q1656230
0000862833,phillips_66_conoco_76,CP MMEADOWS,,RAPID CITY,SD,,US,+1 605-388-4688,,,Phillips 66,Q1656230
0000862837,phillips_66_conoco_76,CORNER PANTRY 10,,RAPID CITY,SD,,US,+1 605-342-0730,,,Conoco,Q109341187
0000862838,phillips_66_conoco_76,CORNER PANTRY 04,,RAPID CITY,SD,,US,+1 605-341-5464,,24/7,Conoco,Q109341187
0000862843,phillips_66_conoco_76,CORNER PANTRY 08,,RAPID CITY,SD,,US,+1 605-342-0561,,24/7,Phillips 66,Q1656230
0000862851,phillips_66_conoco_76,FLYING J TRAVEL PLAZA,,RAPID CITY,SD,,US,+1 605-342-0527,,,Conoco,Q109341187
931,pilot_flyingj,Flying J Licensed Location,,Rapid City,SD,,US,+1 605-342-5450,https://locations.pilotflyingj.com/us/sd/rapid-city/4200-n-i-90-service-rd-exit-61,,Flying J,Q16974822
sd_rapid-city_1402-e-st-patrick,pizza_hut_us,1402 E. St. Patrick,,Rapid City,SD,,US,+1 605-342-4200,https://locations.pizzahut.com/sd/rapid-city/1402-e-st-patrick,,Pizza Hut,Q191615
sd_rapid-city_1315-haines-ave,pizza_hut_us,1315 Haines Ave,,Rapid City,SD,,US,+1 605-342-1542,https://locations.pizzahut.com/sd/rapid-city/1315-haines-ave,,Pizza Hut,Q191615
https://pizzaranch.com/locations/sd/rapid-city/405-e-stumer-road,pizza_ranch_us,Pizza Ranch & FunZone Arcade Rapid City South,,Rapid City,SD,,US,+1 605-791-5255,https://pizzaranch.com/locations/sd/rapid-city/405-e-stumer-road,Mo-Su 10:30-20:00,Pizza Ranch,Q7199978
https://pizzaranch.com/locations/sd/rapid-city/1556-luna-avenue,pizza_ranch_us,Pizza Ranch Rapid City North,,Rapid City,SD,,US,+1 605-348-9114,https://pizzaranch.com/locations/sd/rapid-city/1556-luna-avenue,Mo-Su 11:00-20:00,Pizza Ranch,Q7199978
restaurant_85011,popeyes_us_fr,Popeyes,"1323 East North Street Rapid City, South Dakota 57701 - USA",Rapid City,SD,,US,+1 605-791-5444,https://www.popeyes.com/store-locator/store/restaurant_85011,Mo-Su 10:30-22:00,Popeyes,Q1330910
roger-fryes-paint-and-supply-32710,ppgpaints,ROGER FRYES PAINT & SUPPLY,,"Rapid City, ",SD,,US,+1 605-342-1309,https://www.ppgpaints.com/store-locator/us/south-dakota/rapid-city-paint-stores/roger-fryes-paint-and-supply-32710,,PPG Paints,Q83891559
https://locations.qdoba.com/us/sd/rapid-city/1745-eglin-st.html,qdoba,QDOBA Eglin,,Rapid City,SD,,US,+1 605-791-1555,https://locations.qdoba.com/us/sd/rapid-city/1745-eglin-st.html,Mo-Su 10:30-21:00,Qdoba,Q1363885
895,rentacenter,Rent-A-Center,,Rapid City,SD,,US,+1 605-343-3600,https://locations.rentacenter.com/south-dakota/rapid-city/301-east-blvd-n/,Mo-Sa 10:00-18:00,Rent-A-Center,Q7313497
1854,ross_dress_for_less_us,Rapid City,,Rapid City,SD,,US,+1 605-348-2708,,Mo-Th 09:30-21:00; Fr-Sa 09:00-21:00; Su 09:00-20:00,Ross Dress for Less,Q3442791
6645,ruby_tuesday_us,Ruby Tuesday,821 FAIRMONT BLVD. RAPID CITY SD 57701,Rapid City,SD,,US,+1 605-343-1700,,Mo-Sa 11:00-22:00; Su 11:00-21:00,Ruby Tuesday,Q7376400
2200-n-maple-ave,rue21,Rushmore Mall,,Rapid City,SD,,US,,https://stores.rue21.com/sd/rapid-city/2200-n-maple-ave.html,Mo-Sa 10:00-20:00; Su 12:00-18:00,rue21,Q7377762
https://local.pharmacy.safeway.com/#5673745,safeway,Safeway Pharmacy,,Rapid City,SD,,US,+1 605-348-7552,https://local.pharmacy.safeway.com/safeway/sd/rapid-city/2120-mt-rushmore-rd.html,,Safeway,Q1508234
https://local.safeway.com/#5604693,safeway,Safeway,,Rapid City,SD,,US,+1 605-348-5125,https://local.safeway.com/safeway/sd/rapid-city/2120-mt-rushmore-rd.html,,Safeway,Q1508234
6565,sams_club,Rapid City Sam's Club,,Rapid City,SD,,US,+1 605-877-3051,https://www.samsclub.com/club/rapid-city-sd-sams-club/6565,Mo 10:00-20:00; Sa 09:00-20:00; Su 10:00-18:00,Sam's Club,Q1972120
175,scooters_coffee_us,Rapid City,,Rapid City,SD,,US,+1 605-791-0195,,Mo-Fr 05:00-20:00; Sa-Su 06:00-20:00,Scooter's Coffee,Q117280308
396,shoe_carnival_us,Shoe Carnival,,Rapid City,SD,,US,+1 605-342-1074,https://stores.shoecarnival.com/sd/rapidcity/shoe-store-rapid-city-sd-396.html,Mo-Sa 10:00-21:00; Su 11:00-19:00,Shoe Carnival,Q7500007
https://stations.sinclairoil.com/sd/rapid-city/3343-haines-ave,sinclair_us,Sinclair Gas Station,,Rapid City,SD,,US,+1 605-791-4100,https://stations.sinclairoil.com/sd/rapid-city/3343-haines-ave,,Sinclair,Q1290900
https://stations.sinclairoil.com/sd/rapid-city/850-e-north-street,sinclair_us,Sinclair Gas Station,,Rapid City,SD,,US,+1 605-341-4846,https://stations.sinclairoil.com/sd/rapid-city/850-e-north-street,Mo-Su 06:00-22:00,Sinclair,Q1290900
https://stations.sinclairoil.com/sd/rapid-city/251-e-stumer,sinclair_us,Sinclair Gas Station,,Rapid City,SD,,US,+1 605-342-1750,https://stations.sinclairoil.com/sd/rapid-city/251-e-stumer,Mo-Su 06:00-22:00,Sinclair,Q1290900
https://stations.sinclairoil.com/sd/rapid-city/1160-lacrosse,sinclair_us,Sinclair Gas Station,,Rapid City,SD,,US,+1 605-341-4846,https://stations.sinclairoil.com/sd/rapid-city/1160-lacrosse,Mo-Su 06:00-22:00,Sinclair,Q1290900
https://stations.sinclairoil.com/sd/rapid-city/2420-mount-rushmore-rd,sinclair_us,Sinclair Gas Station,,Rapid City,SD,,US,+1 605-348-4222,https://stations.sinclairoil.com/sd/rapid-city/2420-mount-rushmore-rd,Mo-Su 06:30-21:00,Sinclair,Q1290900
https://stations.sinclairoil.com/sd/rapid-city/49-e-omaha-st,sinclair_us,Sinclair Gas Station,,Rapid City,SD,,US,+1 605-342-8668,https://stations.sinclairoil.com/sd/rapid-city/49-e-omaha-st,Mo-Fr 05:30-22:00; Sa-Su 06:00-22:00,Sinclair,Q1290900
https://stations.sinclairoil.com/sd/rapid-city/1515-mount-rushmore-rd,sinclair_us,Sinclair Gas Station,,Rapid City,SD,,US,+1 605-341-2690,https://stations.sinclairoil.com/sd/rapid-city/1515-mount-rushmore-rd,Mo-Su 06:00-22:00,Sinclair,Q1290900
13346996864371096753,sleep_number_us,Sleep Number,,Rapid City,SD,,US,,https://www.sleepnumber.com/stores/sd/rapid-city/1734-eglin-street,Mo-Tu 11:00-19:00; We-Sa 10:00-19:00; Su 12:00-17:00,Sleep Number,Q7447640
143,sola_salon_studios,Downtown Rapid City,,Rapid City,SD,,US,+1 605-600-3939,https://www.solasalonstudios.com/locations/downtown-rapid-city,,Sola Salon Studios,Q64337426
https://restaurants.subway.com/#14908705,subway,Subway,,Rapid City Pennington,SD,,US,+1 605-343-4256,https://restaurants.subway.com/united-states/sd/rapid-city/532-e-anamosa-st,Mo-Su 08:00-21:00,Subway,Q244457
https://restaurants.subway.com/#14914057,subway,Subway,,Rapid City Pennington,SD,,US,+1 605-341-0387,https://restaurants.subway.com/united-states/sd/rapid-city/2415-mt-rushmore-rd,Mo-Su 08:00-21:00,Subway,Q244457
https://restaurants.subway.com/#14910678,subway,Subway Wal-Mart #3872,,Rapid City Pennington,SD,,US,+1 605-342-0003,https://restaurants.subway.com/united-states/sd/rapid-city/100-stumer-road,Mo-Su 08:00-21:00,Subway,Q244457
https://restaurants.subway.com/#14915319,subway,Subway,,Rapid City Pennington,SD,,US,+1 605-342-2847,https://restaurants.subway.com/united-states/sd/rapid-city/1001-east-north-street,Mo-Su 08:00-21:00,Subway,Q244457
https://restaurants.subway.com/#14905521,subway,Subway,,Rapid City Pennington,SD,,US,+1 605-341-3057,https://restaurants.subway.com/united-states/sd/rapid-city/1225-e-st-patrick,Mo-Su 08:00-21:00,Subway,Q244457
https://locations.tacobell.com/#6141792,taco_bell,Taco Bell,,Rapid City,SD,,US,+1 605-341-7564,https://locations.tacobell.com/sd/rapid-city/902-e--north-street.html,Mo-Th 06:00-03:00; Fr-Sa 06:00-04:00; Su 06:00-03:00,Taco Bell,Q752941
https://locations.tacobell.com/#6143469,taco_bell,Taco Bell,,Rapid City,SD,,US,+1 605-348-2215,https://locations.tacobell.com/sd/rapid-city/449-e--stumer-road.html,Mo-We 07:00-24:00; Th-Sa 07:00-01:00; Su 07:00-24:00,Taco Bell,Q752941
https://locations.tacobell.com/#6144677,taco_bell,Taco Bell,,Rapid City,SD,,US,+1 605-388-0212,https://locations.tacobell.com/sd/rapid-city/2700-mt-rushmore-road.html,Mo-Su 06:00-02:00,Taco Bell,Q752941
583783,taco_johns_us,Rapid City - Cambell St.,"1710 Cambell St, Rapid City SD 57701",Rapid City,SD,,US,+1 605-343-6778,https://locations.tacojohns.com/sd/rapid-city/1710-cambell-st/,Mo-Sa 06:00-00:00; Su 07:00-00:00,Taco John's,Q7673962
583789,taco_johns_us,Rapid City - Haines Ave.,"1828 Haines Ave, Rapid City SD 57701",Rapid City,SD,,US,+1 605-343-3119,https://locations.tacojohns.com/sd/rapid-city/1828-haines-ave/,Mo-Sa 06:30-22:00; Su 07:30-22:00,Taco John's,Q7673962
081122,tjx,Rapid City ,1611 Eglin St ,Rapid City ,SD,,US,+1 605-341-4890,,Mo-Sa 09:30-20:00; Su 10:00-18:00,TJ Maxx,Q10860683
819E,tmobile_us,Rushmore Mall,,Rapid City,SD,,US,+1 605-791-1412,https://www.t-mobile.com/store-locator/sd/rapid-city/rushmore-mall,,T-Mobile,Q3511885
818E,tmobile_us,The Plaza at Omaha,,Rapid City,SD,,US,+1 605-791-1481,https://www.t-mobile.com/store-locator/sd/rapid-city/the-plaza-at-omaha,,T-Mobile,Q3511885
6B62,tmobile_us,Sam's Club Rapid City SD,,Rapid City,SD,,US,+1 605-971-6524,https://www.t-mobile.com/store-locator/sd/rapid-city/sams-club-rapid-city-sd,,T-Mobile,Q3511885
813E,tmobile_us,Rushmore Crossings,,Rapid City,SD,,US,+1 605-791-0802,https://www.t-mobile.com/store-locator/sd/rapid-city/rushmore-crossings,,T-Mobile,Q3511885
https://www.ubreakifix.com/locations/rapidcity,ubreakifix,uBreakiFix Rapid City,,Rapid City,SD,,US,+1 605-791-0152,https://www.ubreakifix.com/locations/rapidcity,Mo-Sa 10:00-19:00; Su 12:00-17:00,uBreakiFix,Q53685733
1378819,usps,RAPID CITY,,RAPID CITY,SD,,US,+1 605-394-8617,,Mo-Fr 08:00-17:30; Sa 08:30-12:30,United States Postal Service,Q668687
5770100058,usps_collection_boxes,USPS COLLECTION BOX - BLUE BOX,310 E FAIRMONT BLVD,RAPID CITY,SD,,US,,,,United States Postal Service,Q668687
5770100091,usps_collection_boxes,USPS COLLECTION BOX - BLUE BOX,353 FAIRMONT BLVD,RAPID CITY,SD,,US,,,,United States Postal Service,Q668687
5770100089,usps_collection_boxes,USPS COLLECTION BOX - BLUE BOX,909 E SAINT PATRICK ST,RAPID CITY,SD,,US,,,,United States Postal Service,Q668687
5770100006,usps_collection_boxes,USPS COLLECTION BOX - BLUE BOX,319 SAINT PATRICK ST,RAPID CITY,SD,,US,,,,United States Postal Service,Q668687
5770100098,usps_collection_boxes,USPS COLLECTION BOX - BLUE BOX,339 SAINT PATRICK ST,RAPID CITY,SD,,US,,,,United States Postal Service,Q668687
5770100004,usps_collection_boxes,USPS COLLECTION BOX - BLUE BOX,445 MOUNT RUSHMORE RD,RAPID CITY,SD,,US,,,,United States Postal Service,Q668687
5770100025,usps_collection_boxes,USPS COLLECTION BOX - BLUE BOX,500 EAST BLVD,RAPID CITY,SD,,US,,,,United States Postal Service,Q668687
5770100027,usps_collection_boxes,USPS COLLECTION BOX - BLUE BOX,500 EAST BLVD,RAPID CITY,SD,,US,,,,United States Postal Service,Q668687
5770100028,usps_collection_boxes,USPS COLLECTION BOX - BLUE BOX,500 EAST BLVD,RAPID CITY,SD,,US,,,,United States Postal Service,Q668687
5770100031,usps_collection_boxes,USPS COLLECTION BOX - BLUE BOX,500 EAST BLVD,RAPID CITY,SD,,US,,,,United States Postal Service,Q668687
5770100065,usps_collection_boxes,USPS COLLECTION BOX - BLUE BOX,500 EAST BLVD,RAPID CITY,SD,,US,,,,United States Postal Service,Q668687
5770100066,usps_collection_boxes,USPS COLLECTION BOX - BLUE BOX,500 EAST BLVD,RAPID CITY,SD,,US,,,,United States Postal Service,Q668687
5770100067,usps_collection_boxes,USPS COLLECTION BOX - BLUE BOX,500 EAST BLVD,RAPID CITY,SD,,US,,,,United States Postal Service,Q668687
5770100083,usps_collection_boxes,USPS COLLECTION BOX - PO LOBBY,500 EAST BLVD,RAPID CITY,SD,,US,,,,United States Postal Service,Q668687
5770100023,usps_collection_boxes,USPS COLLECTION BOX - BLUE BOX,527 QUINCY ST,RAPID CITY,SD,,US,,,,United States Postal Service,Q668687
5770100097,usps_collection_boxes,USPS COLLECTION BOX - BLUE BOX,912 9TH ST,RAPID CITY,SD,,US,,,,United States Postal Service,Q668687
5770100045,usps_collection_boxes,USPS COLLECTION BOX - BLUE BOX,621 6TH ST,RAPID CITY,SD,,US,,,,United States Postal Service,Q668687
5770100042,usps_collection_boxes,USPS COLLECTION BOX - BLUE BOX,629 SAINT JOSEPH ST,RAPID CITY,SD,,US,,,,United States Postal Service,Q668687
5770100073,usps_collection_boxes,USPS COLLECTION BOX - BLUE BOX,919 MAIN ST,RAPID CITY,SD,,US,,,,United States Postal Service,Q668687
5770100012,usps_collection_boxes,USPS COLLECTION BOX - BLUE BOX,444 N MOUNT RUSHMORE RD,RAPID CITY,SD,,US,,,,United States Postal Service,Q668687
5770100033,usps_collection_boxes,USPS COLLECTION BOX - BLUE BOX,1200 N LACROSSE ST,RAPID CITY,SD,,US,,,,United States Postal Service,Q668687
5770100096,usps_collection_boxes,USPS COLLECTION BOX - BLUE BOX,1430 HAINES AVE,RAPID CITY,SD,,US,,,,United States Postal Service,Q668687
5770100024,usps_collection_boxes,USPS COLLECTION BOX - BLUE BOX,1845 HAINES AVE,RAPID CITY,SD,,US,,,,United States Postal Service,Q668687
R00000236295,verizon_us,Rapid City,,Rapid City,SD,,US,+1 605-342-4000,https://www.verizon.com/stores/details/south-dakota/rapid-city/rapid-city-349679/,Mo-Sa 09:00-19:00; Su 10:00-17:00,Verizon,Q919641
R00000233315,verizon_us,Rushmore Crossing,,Rapid City,SD,,US,+1 605-343-1922,https://www.verizon.com/stores/details/south-dakota/rapid-city/rushmore-crossings-338852/,Mo-Fr 10:00-20:00; Sa 09:00-19:00; Su 10:00-17:00,Verizon,Q919641
A00000013874,verizon_us,Russell Cellular Metro,,RAPID CITY,SD,,US,+1 605-341-5600,https://www.verizon.com/stores/details/south-dakota/rapid-city/russell-cellular-metro-1892122/,Mo-Sa 09:00-19:00; Su 11:00-17:00,Verizon,Q919641
A00000245624,verizon_us,Victra Rapid City Stumer Rd,,Rapid City,SD,,US,+1 605-858-6750,https://www.verizon.com/stores/details/south-dakota/rapid-city/victra-rapid-city-stumer-rd-1873922/,Mo-Sa 10:00-19:00; Su 12:00-17:00,Verizon,Q919641
,visa,,,RAPID CITY,SD,,US,,,,,
,visa,,,RAPID CITY,SD,,US,,,,,
,visa,,,RAPID CITY,SD,,US,,,,,
,visa,,,RAPID CITY,SD,,US,,,,,
,visa,,,RAPID CITY,SD,,US,,,,,
,visa,,,RAPID CITY,SD,,US,,,,,
,visa,,,RAPID CITY,SD,,US,,,,,
,visa,,,RAPID CITY,SD,,US,,,,,
,visa,,,RAPID CITY,SD,,US,,,,,
,visa,,,RAPID CITY,SD,,US,,,,,
,visa,,,RAPID CITY,SD,,US,,,,,
,visa,,,RAPID CITY,SD,,US,,,,,
,visa,,,RAPID CITY,SD,,US,,,,,
,visa,,,RAPID CITY,SD,,US,,,,,
,visa,,,RAPID CITY,SD,,US,,,,,
,visa,,,RAPID CITY,SD,,US,,,,,
,visa,,,RAPID CITY,SD,,US,,,,,
,visa,,,RAPID CITY,SD,,US,,,,,
,visa,,,RAPID CITY,SD,,US,,,,,
,visa,,,RAPID CITY,SD,,US,,,,,
,visa,,,RAPID CITY,SD,,US,,,,,
,visa,,,RAPID CITY,SD,,US,,,,,
,visa,,,RAPID CITY,SD,,US,,,,,
,visa,,,RAPID CITY,SD,,US,,,,,
,visa,,,RAPID CITY,SD,,US,,,,,
,visa,,,RAPID CITY,SD,,US,,,,,
,visa,,,RAPID CITY,SD,,US,,,,,
,visa,,,RAPID CITY,SD,,US,,,,,
,visa,,,RAPID CITY,SD,,US,,,,,
,visa,,,RAPID CITY,SD,,US,,,,,
,visa,,,RAPID CITY,SD,,US,,,,,
,visa,,,RAPID CITY,SD,,US,,,,,
,visa,,,RAPID CITY,SD,,US,,,,,
,visa,,,RAPID CITY,SD,,US,,,,,
,visa,,,RAPID CITY,SD,,US,,,,,
,visa,,,RAPID CITY,SD,,US,,,,,
,visa,,,RAPID CITY,SD,,US,,,,,
,visa,,,RAPID CITY,SD,,US,,,,,
,visa,,,RAPID CITY,SD,,US,,,,,
,visa,,,RAPID CITY,SD,,US,,,,,
,visa,,,RAPID CITY,SD,,US,,,,,
,visa,,,RAPID CITY,SD,,US,,,,,
,visa,,,RAPID CITY,SD,,US,,,,,
,visa,,,RAPID CITY,SD,,US,,,,,
,visa,,,RAPID CITY,SD,,US,,,,,
,visa,,,RAPID CITY,SD,,US,,,,,
,visa,,,RAPID CITY,SD,,US,,,,,
,visa,,,RAPID CITY,SD,,US,,,,,
,visa,,,RAPID CITY,SD,,US,,,,,
,visa,,,RAPID CITY,SD,,US,,,,,
,visa,,,RAPID CITY,SD,,US,,,,,
,visa,,,RAPID CITY,SD,,US,,,,,
,visa,,,RAPID CITY,SD,,US,,,,,
,visa,,,RAPID CITY,SD,,US,,,,,
,visa,,,RAPID CITY,SD,,US,,,,,
,visa,,,RAPID CITY,SD,,US,,,,,
,visa,,,RAPID CITY,SD,,US,,,,,
,visa,,,RAPID CITY,SD,,US,,,,,
,visa,,,RAPID CITY,SD,,US,,,,,
,visa,,,RAPID CITY,SD,,US,,,,,
,visa,,,RAPID CITY,SD,,US,,,,,
,visa,,,RAPID CITY,SD,,US,,,,,
,visa,,,RAPID CITY,SD,,US,,,,,
,visa,,,RAPID CITY,SD,,US,,,,,
,visa,,,RAPID CITY,SD,,US,,,,,
,visa,,,RAPID CITY,SD,,US,,,,,
,visa,,,RAPID CITY,SD,,US,,,,,
,visa,,,RAPID CITY,SD,,US,,,,,
,visa,,,RAPID CITY,SD,,US,,,,,
,visa,,,RAPID CITY,SD,,US,,,,,
,visa,,,RAPID CITY,SD,,US,,,,,
,visa,,,RAPID CITY,SD,,US,,,,,
,visa,,,RAPID CITY,SD,,US,,,,,
,visa,,,RAPID CITY,SD,,US,,,,,
,visa,,,RAPID CITY,SD,,US,,,,,
,visa,,,RAPID CITY,SD,,US,,,,,
,visa,,,RAPID CITY,SD,,US,,,,,
,visa,,,RAPID CITY,SD,,US,,,,,
,visa,,,RAPID CITY,SD,,US,,,,,
,visa,,,RAPID CITY,SD,,US,,,,,
,visa,,,RAPID CITY,SD,,US,,,,,
,visa,,,RAPID CITY,SD,,US,,,,,
,visa,,,RAPID CITY,SD,,US,,,,,
,visa,,,RAPID CITY,SD,,US,,,,,
,visa,,,RAPID CITY,SD,,US,,,,,
,visa,,,RAPID CITY,SD,,US,,,,,
,visa,,,RAPID CITY,SD,,US,,,,,
,visa,,,RAPID CITY,SD,,US,,,,,
,visa,,,RAPID CITY,SD,,US,,,,,
,visa,,,RAPID CITY,SD,,US,,,,,
,visa,,,RAPID CITY,SD,,US,,,,,
,visa,,,RAPID CITY,SD,,US,,,,,
,visa,,,RAPID CITY,SD,,US,,,,,
,visa,,,RAPID CITY,SD,,US,,,,,
,visa,,,RAPID CITY,SD,,US,,,,,
,visa,,,RAPID CITY,SD,,US,,,,,
,visa,,,RAPID CITY,SD,,US,,,,,
,visa,,,RAPID CITY,SD,,US,,,,,
,visa,,,RAPID CITY,SD,,US,,,,,
,visa,,,RAPID CITY,SD,,US,,,,,
,visa,,,RAPID CITY,SD,,US,,,,,
,visa,,,RAPID CITY,SD,,US,,,,,
,visa,,,RAPID CITY,SD,,US,,,,,
,visa,,,RAPID CITY,SD,,US,,,,,
,visa,,,RAPID CITY,SD,,US,,,,,
,visa,,,RAPID CITY,SD,,US,,,,,
,visa,,,RAPID CITY,SD,,US,,,,,
,visa,,,RAPID CITY,SD,,US,,,,,
,visa,,,RAPID CITY,SD,,US,,,,,
,visa,,,RAPID CITY,SD,,US,,,,,
,visa,,,RAPID CITY,SD,,US,,,,,
,visa,,,RAPID CITY,SD,,US,,,,,
,visa,,,RAPID CITY,SD,,US,,,,,
,visa,,,RAPID CITY,SD,,US,,,,,
,visa,,,RAPID CITY,SD,,US,,,,,
,visa,,,RAPID CITY,SD,,US,,,,,
,visa,,,RAPID CITY,SD,,US,,,,,
,visa,,,RAPID CITY,SD,,US,,,,,
,visa,,,RAPID CITY,SD,,US,,,,,
,visa,,,RAPID CITY,SD,,US,,,,,
,visa,,,RAPID CITY,SD,,US,,,,,
,visa,,,RAPID CITY,SD,,US,,,,,
,visa,,,RAPID CITY,SD,,US,,,,,
,visa,,,RAPID CITY,SD,,US,,,,,
,visa,,,RAPID,SD,,US,,,,,
,visa,,,RAPID CITY,SD,,US,,,,,
,visa,,,RAPID CITY,SD,,US,,,,,
,visa,,,RAPID CITY,SD,,US,,,,,
,visa,,,RAPID CITY,SD,,US,,,,,
,visa,,,RAPID CITY,SD,,US,,,,,
,visa,,,RAPID CITY,SD,,US,,,,,
,visa,,,RAPID CITY,SD,,US,,,,,
,visa,,,RAPID CITY,SD,,US,,,,,
,visa,,,RAPID CITY,SD,,US,,,,,
,visa,,,RAPID CITY,SD,,US,,,,,
,visa,,,RAPID CITY,SD,,US,,,,,
,visa,,,RAPID CITY,SD,,US,,,,,
,visa,,,RAPID CITY,SD,,US,,,,,
,visa,,,RAPID CITY,SD,,US,,,,,
,visa,,,RAPID CITY,SD,,US,,,,,
,visa,,,RAPID CITY,SD,,US,,,,,
,visa,,,RAPID CITY,SD,,US,,,,,
,visa,,,RAPID CITY,SD,,US,,,,,
,visa,,,RAPID CITY,SD,,US,,,,,
,visa,,,RAPID CITY,SD,,US,,,,,
,visa,,,RAPID CITYS,SD,,US,,,,,
,visa,,,RAPID CITY,SD,,US,,,,,
,visa,,,RAPID CITY,SD,,US,,,,,
,visa,,,RAPID CITY,SD,,US,,,,,
,visa,,,RAPID CITY,SD,,US,,,,,
,visa,,,RAPID CITY,SD,,US,,,,,
,visa,,,RAPID CITY,SD,,US,,,,,
,visa,,,RAPID CITY,SD,,US,,,,,
,visa,,,RAPID CITY,SD,,US,,,,,
,visa,,,RAPID CITY,SD,,US,,,,,
,visa,,,RAPID CITY,SD,,US,,,,,
,visa,,,RAPID CITY,SD,,US,,,,,
,visa,,,RAPID CITY,SD,,US,,,,,
,visa,,,RAPID CITY,SD,,US,,,,,
,visa,,,RAPID CITY,SD,,US,,,,,
,visa,,,RAPID CITY,SD,,US,,,,,
,visa,,,RAPID CITY,SD,,US,,,,,
,visa,,,RAPID CITY,SD,,US,,,,,
,visa,,,RAPID CITY,SD,,US,,,,,
,visa,,,RAPID CITY,SD,,US,,,,,
,visa,,,RAPID CITY,SD,,US,,,,,
,visa,,,RAPID CITY,SD,,US,,,,,
,visa,,,RAPID CITY,SD,,US,,,,,
,visa,,,RAPID CITY,SD,,US,,,,,
,visa,,,RAPID CITY,SD,,US,,,,,
,visa,,,RAPID CITY,SD,,US,,,,,
,visa,,,RAPID CITY,SD,,US,,,,,
,visa,,,RAPID CITY,SD,,US,,,,,
,visa,,,RAPID CITY,SD,,US,,,,,
,visa,,,RAPID CITY,SD,,US,,,,,
,visa,,,RAPID CITY,SD,,US,,,,,
,visa,,,RAPID CITY,SD,,US,,,,,
,visa,,,RA[PID CITY,SD,,US,,,,,
,visa,,,RAPID CITY,SD,,US,,,,,
,visa,,,RAPID CITY,SD,,US,,,,,
,visa,,,RAPID CITY,SD,,US,,,,,
,visa,,,RAPID CITY,SD,,US,,,,,
,visa,,,RAPID CITY,SD,,US,,,,,
,visa,,,RAPID CITY,SD,,US,,,,,
,visa,,,RAPID CITY,SD,,US,,,,,
,visa,,,RAPID CITY,SD,,US,,,,,
,visa,,,RAPID CITY,SD,,US,,,,,
,visa,,,RAPID CITY,SD,,US,,,,,
https://www.walgreens.com/locator/walgreens-1125+n+lacrosse+st-rapid+city-sd-57701/id=9512,walgreens,Walgreens,,Rapid City,SD,,US,+1 605-348-3265,https://www.walgreens.com/locator/walgreens-1125+n+lacrosse+st-rapid+city-sd-57701/id=9512,Mo-Fr 07:00-23:00; Sa-Su 07:00-22:00,Walgreens,Q1591889
https://www.walgreens.com/locator/walgreens-1902+mount+rushmore+rd-rapid+city-sd-57701/id=10656,walgreens,Walgreens,,Rapid City,SD,,US,+1 605-342-0194,https://www.walgreens.com/locator/walgreens-1902+mount+rushmore+rd-rapid+city-sd-57701/id=10656,Mo-Su 07:00-23:00,Walgreens,Q1591889
825__SAINT__JOSEPH__ST_RAPID__CITY_SD_57701,wellsfargo,Wells Fargo,825 SAINT JOSEPH ST,RAPID CITY,SD,,US,+1 605-394-3800,https://www.wellsfargo.com/locator/bank/825__SAINT__JOSEPH__ST_RAPID__CITY_SD_57701/,Mo-Fr 09:00-17:00,Wells Fargo,Q744149
202__DISK__DR_RAPID__CITY_SD_57701,wellsfargo,,202 DISK DR,RAPID CITY,SD,,US,+1 800-869-3557,https://www.wellsfargo.com/locator/bank/202__DISK__DR_RAPID__CITY_SD_57701/,,Wells Fargo,Q744149
1035__E__SAINT__PATRICK__ST_RAPID__CITY_SD_57701,wellsfargo,Wells Fargo,1035 E SAINT PATRICK ST,RAPID CITY,SD,,US,+1 605-394-3960,https://www.wellsfargo.com/locator/bank/1035__E__SAINT__PATRICK__ST_RAPID__CITY_SD_57701/,Mo-Fr 09:00-17:00,Wells Fargo,Q744149
https://locations.wendys.com/#9255163,wendys,"Wendy's Rapid E N in Rapid City, SD",,Rapid City,SD,,US,+1 605-342-3142,https://locations.wendys.com/united-states/sd/rapid-city/701-e-north-st,"Mo-Su 06:30-10:30,07:00-22:00",Wendy's,Q550258
https://locations.wendys.com/#9255161,wendys,"Wendy's Haines Ave in Rapid City, SD",,Rapid City,SD,,US,+1 605-342-9410,https://locations.wendys.com/united-states/sd/rapid-city/1911-n-haines-ave,"Mo-Su 06:30-10:30,07:30-22:00",Wendy's,Q550258
88bf1fa521b8402961280ee963f593a7,western_union,WALMART #003872,,Rapid City,SD,,US,+1 605-877-3291,https://location.westernunion.com/us/sd/rapid-city/88bf1fa521b8402961280ee963f593a7,Mo-Sa 08:00-20:00; Su 10:00-18:00,Western Union,Q861042
16bb0139806bfd34f4bc5c0533e79295,western_union,LOAF N JUG #447,,Rapid City,SD,,US,+1 605-348-6484,https://location.westernunion.com/us/sd/rapid-city/16bb0139806bfd34f4bc5c0533e79295,Mo-We 05:00-23:00; Th-Su 07:00-23:00,Western Union,Q861042
bb4bc2a098a7a2193782da3a0f90c371,western_union,WALMART #001604,,Rapid City,SD,,US,+1 605-342-9444,https://location.westernunion.com/us/sd/rapid-city/bb4bc2a098a7a2193782da3a0f90c371,Mo-Sa 08:00-20:00; Su 10:00-18:00,Western Union,Q861042
7346ce242737a39b4fcf45ca51fc9c55,western_union,LOAF N JUG #444,,Rapid City,SD,,US,+1 605-348-9580,https://location.westernunion.com/us/sd/rapid-city/7346ce242737a39b4fcf45ca51fc9c55,Mo-We 05:00-23:00; Th-Su 07:00-23:00,Western Union,Q861042
