Ref,Spider,Name,Address,City,State,Zipcode,Country,Phone,Website,Hours,Brand,WikiData
https://stores.advanceautoparts.com/tn/huntingdon/20700-main-st-e,advance_auto_parts_us,Advance Auto Parts,,Huntingdon,TN,,US,+1 731-986-8866,https://stores.advanceautoparts.com/tn/huntingdon/20700-main-st-e,Mo-Sa 07:00-21:00; Su 09:00-20:00,Advance Auto Parts,Q4686051
9269,autozone_us,AutoZone Auto Parts Huntingdon,,Huntingdon,TN,,US,+1 731-535-6203,https://www.autozone.com/locations/tn/huntingdon/19046-w--main-st-.html,Mo-Sa 07:00-21:00; Su 09:00-20:00,AutoZone,Q4826087
4826,bluerhino,Walmart #0161,,Huntingdon,TN,,US,+1 731-986-4439,,,Blue Rhino,Q65681213
https://stores.catofashions.com/#26560657,cato_us,Cato,,,TN,,US,+1 731-986-2174,https://stores.catofashions.com/tn/huntingdon/87-veterans-drive-north,Mo-Sa 10:00-19:00; Su 13:00-18:00,Cato,Q16956136
38895,citi,ATM CARROLL BANK AND TRUST,,Mclemoresvill,TN,,US,,,,Citibank,Q857063
59890,citi,ATM Hucks,,Huntingdon,TN,,US,,,,Citibank,Q857063
38891,citi,ATM CARROLL BANK AND TRUST,,Huntingdon,TN,,US,,,,Citibank,Q857063
38892,citi,ATM CARROLL BANK AND TRUST,,Huntingdon,TN,,US,,,,Citibank,Q857063
5988,dollartree,DollarTree,,Huntingdon,TN,,US,+1 731-535-6049,,Mo-Sa 09:00-21:00; Su 09:00-20:00,Dollar Tree,Q5289230
6168,dominos_pizza_us,Domino's Pizza,,Huntingdon,TN,,US,+1 731-986-8686,https://pizza.dominos.com/tennessee/huntingdon/20685-e-main-street,Mo-Th 10:00-24:00; Fr-Sa 10:00-01:00; Su 10:00-24:00,Domino's,Q839466
https://www.edwardjones.com/us-en/financial-advisor/cody-crocker,edwardjones,Cody W Crocker,,Huntingdon,TN,,US,+1 731-986-0348,https://www.edwardjones.com/us-en/financial-advisor/cody-crocker,Mo-Fr 08:00-16:00,Edward Jones,Q5343830
https://local.fedex.com/#25228969,fedex,,,Huntingdon,TN,,US,+1 800-463-3339,https://local.fedex.com/en-us/tn/huntingdon/mklja,,FedEx,Q459477
Motorcraft1992USAEnglish,ford,"Carroll County Ford-Mercury, Inc.",,Tennessee,TN,,US,+1 731-986-0794,,,Ford,Q44294
40043,h_r_block,H&R Block,,Huntingdon,TN,,US,+1 731-986-3023,https://www.hrblock.com/local-tax-offices/tennessee/huntingdon/12680-lexington-st/40043/,,H&R Block,Q5627799
https://office.jacksonhewitt.com/#27576580,jackson_hewitt,Jackson Hewitt,,Huntingdon,TN,,US,+1 731-986-2280,https://office.jacksonhewitt.com/tax-preparation-services-locations/en/tn/huntingdon/51-haywood-drive/13692,Mo-Fr 09:00-19:00; Sa 09:00-18:00; Su 13:00-18:00,Jackson Hewitt,Q6117132
159464,marathon_petroleum_us,LITTLE GENERAL 60,,HUNTINGDON,TN,,US,+1 731-986-9911,,,Marathon,Q458363
6769,murphy_usa_us,,,Huntingdon,TN,,US,+1 731-986-9620,,Mo-Sa 05:00-00:00; Su 06:00-23:00,Murphy USA,Q19604459
https://restaurants.subway.com/#14902523,subway,Subway Huntingdon Plaza S/C,,Huntingdon Carroll,TN,,US,+1 731-986-5025,https://restaurants.subway.com/united-states/tn/huntingdon/40-buena-vista-rd,Mo-Su 08:00-21:00,Subway,Q244457
https://locations.tacobell.com/#24955998,taco_bell,Taco Bell,,Huntingdon,TN,,US,+1 731-986-5750,https://locations.tacobell.com/tn/huntingdon/210-veterans-drive.html,Mo-Su 09:00-01:00,Taco Bell,Q752941
1367658,usps,HUNTINGDON,,HUNTINGDON,TN,,US,+1 731-986-3664,,Mo-Fr 08:00-16:30; Sa 08:30-10:30,United States Postal Service,Q668687
3834400006,usps_collection_boxes,USPS COLLECTION BOX - BLUE BOX,19478 MAIN ST W,HUNTINGDON,TN,,US,,,,United States Postal Service,Q668687
3834400011,usps_collection_boxes,USPS COLLECTION BOX - BLUE BOX,100 COURT SQ,HUNTINGDON,TN,,US,,,,United States Postal Service,Q668687
3834400016,usps_collection_boxes,USPS COLLECTION BOX - BLUE BOX,103 W PARIS ST,HUNTINGDON,TN,,US,,,,United States Postal Service,Q668687
3834400008,usps_collection_boxes,USPS COLLECTION BOX - BLUE BOX,12740 LEXINGTON ST,HUNTINGDON,TN,,US,,,,United States Postal Service,Q668687
3834400001,usps_collection_boxes,USPS COLLECTION BOX - BLUE BOX,19731 MAIN ST E,HUNTINGDON,TN,,US,,,,United States Postal Service,Q668687
3834400004,usps_collection_boxes,USPS COLLECTION BOX - BLUE BOX,19855 MAIN ST E,HUNTINGDON,TN,,US,,,,United States Postal Service,Q668687
3834400017,usps_collection_boxes,USPS COLLECTION BOX - BLUE BOX,543 HIGH ST,HUNTINGDON,TN,,US,,,,United States Postal Service,Q668687
3834400020,usps_collection_boxes,USPS COLLECTION BOX - PO LOBBY,543 HIGH ST,HUNTINGDON,TN,,US,,,,United States Postal Service,Q668687
A00000041831,verizon_us,Victra Huntingdon,,Huntingdon,TN,,US,+1 731-418-6063,https://www.verizon.com/stores/details/tennessee/huntingdon/victra-huntingdon-1525222/,Mo-Sa 10:00-19:00,Verizon,Q919641
,visa,,,HUNTINGTON,TN,,US,,,,,
,visa,,,HUNTINGDON,TN,,US,,,,,
,visa,,,HUNTINGDON,TN,,US,,,,,
,visa,,,HUNTINGDON,TN,,US,,,,,
,visa,,,HUNTINGDON,TN,,US,,,,,
,visa,,,HUNTINGTON,TN,,US,,,,,
,visa,,,HUNTINGDON,TN,,US,,,,,
,visa,,,HUNTINGDON,TN,,US,,,,,
,visa,,,HUNTINGTON,TN,,US,,,,,
,visa,,,HUNTINGDON,TN,,US,,,,,
,visa,,,MCLEMORESVILL,TN,,US,,,,,
https://locations.wendys.com/#9253040,wendys,"Wendy's Huntingdon in Huntingdon, TN",,Huntingdon,TN,,US,+1 731-986-5220,https://locations.wendys.com/united-states/tn/huntingdon/20960-e-main-st,"Mo-Su 06:00-10:30,06:00-22:00",Wendy's,Q550258
5de77605ef40a30875143503dfbf4073,western_union,WALMART #000161,,Huntingdon,TN,,US,+1 731-986-4439,https://location.westernunion.com/us/tn/huntingdon/5de77605ef40a30875143503dfbf4073,Mo-Su 07:00-21:00,Western Union,Q861042
885,world_finance_us,,"163 Court Sq, Huntingdon, TN, 38344",Huntingdon,TN,,US,+1 731-209-0155,https://www.loansbyworld.com/branches/branch-885,Mo-Fr 09:00-17:30; Sa 09:00-12:00,World Finance,Q3569971
