Ref,Spider,Name,Address,City,State,Zipcode,Country,Phone,Website,Hours,Brand,WikiData
177,autozone_us,AutoZone Auto Parts Memphis,,Memphis,TN,,US,+1 901-789-5573,https://www.autozone.com/locations/tn/memphis/4124-s-3rd-st.html,Mo-Sa 07:30-21:00; Su 08:00-20:00,AutoZone,Q4826087
27,autozone_us,AutoZone Auto Parts Memphis,,Memphis,TN,,US,+1 901-947-3121,https://www.autozone.com/locations/tn/memphis/1850-s-third-st.html,Mo-Sa 07:30-20:00; Su 08:00-20:00,AutoZone,Q4826087
154888,bluerhino,Walgreens #09174,,Memphis,TN,,US,+1 901-947-4203,,,Blue Rhino,Q65681213
154571,bluerhino,Walgreens #2775,,MEMPHIS,TN,,US,+1 901-785-6851,,,Blue Rhino,Q65681213
53977,citi,ATM Dodges-Memphis #1,,Memphis,TN,,US,,,,Citibank,Q857063
53978,citi,ATM Dodges-Memphis #1B,,Memphis,TN,,US,,,,Citibank,Q857063
90965,citi,ATM Walgreens,,Memphis,TN,,US,,,,Citibank,Q857063
75580,citi,ATM SECURTRUST FEDERAL CREDIT UNION,,Memphis,TN,,US,,,,Citibank,Q857063
42254,citi,ATM Circle K,,Memphis,TN,,US,,,,Citibank,Q857063
63757,citi,ATM LG&W FEDERAL CREDIT UNION,,Memphis,TN,,US,,,,Citibank,Q857063
88390,citi,ATM Walgreens,,Memphis,TN,,US,,,,Citibank,Q857063
om_tn_memphis_1967-s--third-street,cititrends,Citi Trends,,Memphis,TN,,US,+1 901-305-8359,https://locations.cititrends.com/tn/memphis/1967-s--third-street.html,Mo 10:00-20:00; Tu 10:00-20:00; We 10:00-20:00; Th 10:00-20:00; Fr 10:00-20:00; Sa 10:00-20:00; Su 12:00-18:00,Citi Trends,Q5122438
70028109,cricket_wireless,Cricket Wireless Authorized Retailer,,Memphis,TN,,US,+1 901-249-4647,https://www.cricketwireless.com/stores/ll/US/TN/Memphis/1979-S-3rd-St,Mo-Sa 09:30-18:30; Su 12:00-17:00,Cricket Wireless,Q5184987
70028110,cricket_wireless,Cricket Wireless Authorized Retailer,,Memphis,TN,,US,+1 901-529-7973,https://www.cricketwireless.com/stores/ll/US/TN/Memphis/3199-S-3rd-St,Mo-Sa 09:30-18:30; Su 12:00-17:00,Cricket Wireless,Q5184987
28580,family_dollar_us,FAMILY DOLLAR #8580,,Memphis,TN,,US,+1 901-450-6041,https://www.familydollar.com/locations/tn/memphis/28580/,Mo-Su 08:00-21:00,Family Dollar,Q5433101
28735,family_dollar_us,FAMILY DOLLAR #8735,,Memphis,TN,,US,+1 901-450-6030,https://www.familydollar.com/locations/tn/memphis/28735/,Mo-Su 08:00-22:00,Family Dollar,Q5433101
https://local.fedex.com/#25204597,fedex,,,Memphis,TN,,US,+1 800-463-3339,https://local.fedex.com/en-us/tn/memphis/apzbv,,FedEx,Q459477
https://local.fedex.com/#25205380,fedex,,,Memphis,TN,,US,+1 800-463-3339,https://local.fedex.com/en-us/tn/memphis/abmbz,,FedEx,Q459477
2708,first_cash,Cash America Pawn,,Memphis,TN,,US,+1 901-774-6335,,,Cash America,Q5048636
2718,first_cash,Cash America Pawn,,Memphis,TN,,US,+1 901-346-1346,,,Cash America,Q5048636
39853,h_r_block,H&R Block,,Memphis,TN,,US,+1 901-946-1577,https://www.hrblock.com/local-tax-offices/tennessee/memphis/southgate/39853/,,H&R Block,Q5627799
https://office.jacksonhewitt.com/#27579142,jackson_hewitt,Jackson Hewitt,,Memphis,TN,,US,+1 901-495-2377,https://office.jacksonhewitt.com/tax-preparation-services-locations/en/tn/memphis/4670-horn-lake-road/16847,Mo-Sa 11:00-19:00; Su 12:00-16:00,Jackson Hewitt,Q6117132
https://locations.kfc.com/#11247649,kfc,Chicken Nuggets Near Memphis,,Memphis,TN,,US,,https://locations.kfc.com/tn/memphis/3995-s-3rd-st/chickennugget,Mo-Th 10:00-23:00; Fr-Sa 10:00-24:00; Su 10:00-23:00,KFC,Q524757
https://locations.kfc.com/#11250344,kfc,Chicken Nuggets Near Memphis,,Memphis,TN,,US,,https://locations.kfc.com/tn/memphis/3144-s-3rd-st/chickennugget,Mo-Su 10:00-23:00,KFC,Q524757
157517,marathon_petroleum_us,R AND S FOOD MART,,MEMPHIS,TN,,US,+1 901-396-8888,,,Marathon,Q458363
156577,marathon_petroleum_us,FILL N GO TRAVEL CENTER,,MEMPHIS,TN,,US,+1 901-417-6249,,,Marathon,Q458363
156858,marathon_petroleum_us,RAINES NEELY MARATHON,,MEMPHIS,TN,,US,+1 901-332-2691,,,Marathon,Q458363
156861,marathon_petroleum_us,SHELBY DRIVE MARATHON,,MEMPHIS,TN,,US,+1 901-785-2246,,,Marathon,Q458363
157897,marathon_petroleum_us,T J EXPRESS MARATHON,,MEMPHIS,TN,,US,+1 901-275-8352,,,Marathon,Q458363
1533,mightyflame,HOP IN EXXON,,MEMPHIS,TN,,US,+1 901-428-2668,,,Mighty Flame,
3081,mightyflame,MINUTE MART,,MEMPHIS,TN,,US,+1 901-275-8352,,,Mighty Flame,
3247,mightyflame,N&M EXPRESS,,MEMPHIS,TN,,US,+1 901-282-1780,,,Mighty Flame,
2608,mightyflame,MAPCO EXPRESS #3148,,Memphis,TN,,US,+1 901-332-7760,,,Mighty Flame,
3077,mightyflame,MINI MART,,MEMPHIS,TN,,US,+1 901-789-2222,,,Mighty Flame,
62396859,moneygram,ACE CASH EXPRESS - #2168,,MEMPHIS,TN,,US,+1 901-789-3397,,Mo-Fr 08:00-20:00; Sa 09:00-18:00; Su 00:00-24:00,MoneyGram,Q1944412
https://locations.oreillyauto.com/tn/memphis/check-engine-light-testing-889.html,oreilly,Your Memphis O'Reilly Auto Parts Store,,Memphis,TN,,US,+1 901-786-1412,https://locations.oreillyauto.com/tn/memphis/check-engine-light-testing-889.html,Mo-Sa 07:00-21:00; Su 08:00-20:00,O'Reilly Auto Parts,Q7071951
https://locations.oreillyauto.com/tn/memphis/wiper-installation-889.html,oreilly,Your Memphis O'Reilly Auto Parts Store,,Memphis,TN,,US,+1 901-786-1412,https://locations.oreillyauto.com/tn/memphis/wiper-installation-889.html,Mo-Sa 07:00-21:00; Su 08:00-20:00,O'Reilly Auto Parts,Q7071951
https://locations.oreillyauto.com/tn/memphis/battery-testing-889.html,oreilly,Your Memphis O'Reilly Auto Parts Store,,Memphis,TN,,US,+1 901-786-1412,https://locations.oreillyauto.com/tn/memphis/battery-testing-889.html,Mo-Sa 07:00-21:00; Su 08:00-20:00,O'Reilly Auto Parts,Q7071951
https://locations.oreillyauto.com/tn/memphis/autopartes-889.html,oreilly,Tu tienda O'Reilly Auto Parts en Memphis,,Memphis,TN,,US,+1 901-786-1412,https://locations.oreillyauto.com/tn/memphis/autopartes-889.html,Mo-Sa 07:00-21:00; Su 08:00-20:00,O'Reilly Auto Parts,Q7071951
https://restaurants.subway.com/#14903480,subway,Subway,,Memphis Shelby,TN,,US,+1 901-345-2132,https://restaurants.subway.com/united-states/tn/memphis/2953-s-3rd-st,Mo-Su 08:00-21:00,Subway,Q244457
https://locations.tacobell.com/#6143793,taco_bell,Taco Bell,,Memphis,TN,,US,+1 901-789-6247,https://locations.tacobell.com/tn/memphis/3995-s--3rd-st-.html,Mo-Th 10:00-23:00; Fr-Sa 10:00-24:00; Su 10:00-23:00,Taco Bell,Q752941
1371556,usps,MALLORY,,MEMPHIS,TN,,US,+1 901-344-9840,,Mo-Fr 09:00-17:00; Sa 10:00-12:00,United States Postal Service,Q668687
3810900014,usps_collection_boxes,USPS COLLECTION BOX - BLUE BOX,4449 S 3RD ST,MEMPHIS,TN,,US,,,,United States Postal Service,Q668687
3810900007,usps_collection_boxes,USPS COLLECTION BOX - BLUE BOX,1929 S 3RD ST,MEMPHIS,TN,,US,,,,United States Postal Service,Q668687
3810900002,usps_collection_boxes,USPS COLLECTION BOX - BLUE BOX,193 E MITCHELL RD,MEMPHIS,TN,,US,,,,United States Postal Service,Q668687
3810900003,usps_collection_boxes,USPS COLLECTION BOX - BLUE BOX,193 E MITCHELL RD,MEMPHIS,TN,,US,,,,United States Postal Service,Q668687
3810900026,usps_collection_boxes,USPS COLLECTION BOX - PO LOBBY,193 E MITCHELL RD,MEMPHIS,TN,,US,,,,United States Postal Service,Q668687
3810900028,usps_collection_boxes,USPS COLLECTION BOX - PO LOBBY,193 E MITCHELL RD,MEMPHIS,TN,,US,,,,United States Postal Service,Q668687
3810900027,usps_collection_boxes,USPS COLLECTION BOX - PO LOBBY,193 E MITCHELL RD,MEMPHIS,TN,,US,,,,United States Postal Service,Q668687
,visa,,,MEMPHIS,TN,,US,,,,,
,visa,,,MEMPHIS,TN,,US,,,,,
,visa,,,MEMPHIS,TN,,US,,,,,
,visa,,,MEMPHIS,TN,,US,,,,,
,visa,,,MEMPHIS,TN,,US,,,,,
,visa,,,MEMPHIS,TN,,US,,,,,
,visa,,,MEMPHIS,TN,,US,,,,,
,visa,,,MEMPHIS,TN,,US,,,,,
,visa,,,MEMPHIS,TN,,US,,,,,
,visa,,,MEMPHIS,TN,,US,,,,,
,visa,,,MEMPHIS,TN,,US,,,,,
,visa,,,MEMPHIS,TN,,US,,,,,
,visa,,,MEMPHIS,TN,,US,,,,,
,visa,,,MEMPHIS,TN,,US,,,,,
,visa,,,MEMPHIS,TN,,US,,,,,
,visa,,,MEMPHIS,TN,,US,,,,,
,visa,,,MEMPHIS,TN,,US,,,,,
,visa,,,MEMPHIS,TN,,US,,,,,
,visa,,,MEMPHIS,TN,,US,,,,,
,visa,,,MEMPHIS,TN,,US,,,,,
,visa,,,MEMPHIS,TN,,US,,,,,
,visa,,,MEMPHIS,TN,,US,,,,,
,visa,,,MEMPHIS,TN,,US,,,,,
,visa,,,MEMPHIS,TN,,US,,,,,
,visa,,,MEMPHIS,TN,,US,,,,,
,visa,,,MEMPHIS,TN,,US,,,,,
,visa,,,MEMPHIS,TN,,US,,,,,
,visa,,,MEMPHIS,TN,,US,,,,,
,visa,,,MEMPHIS,TN,,US,,,,,
,visa,,,MEMPHIS,TN,,US,,,,,
,visa,,,MEMPHIS,TN,,US,,,,,
,visa,,,MEMPHIS,TN,,US,,,,,
,visa,,,MEMPHIS,TN,,US,,,,,
,visa,,,MEMPHIS,TN,,US,,,,,
,visa,,,MEMPHIS,TN,,US,,,,,
,visa,,,MEMPHIS,TN,,US,,,,,
,visa,,,MEMPHIS,TN,,US,,,,,
,visa,,,MEMPHIS,TN,,US,,,,,
,visa,,,MEMPHIS,TN,,US,,,,,
,visa,,,MEMPHIS,TN,,US,,,,,
,visa,,,MEMPHIS,TN,,US,,,,,
,visa,,,MEMPHIS,TN,,US,,,,,
,visa,,,MEMPHIS,TN,,US,,,,,
,visa,,,MEMPHIS,TN,,US,,,,,
,visa,,,MEMPHIS,TN,,US,,,,,
,visa,,,MEMPHIS,TN,,US,,,,,
,visa,,,"MEMPHIS,",TN,,US,,,,,
,visa,,,MEMPHIS,TN,,US,,,,,
,visa,,,MEMPHIS,TN,,US,,,,,
,visa,,,MEMPHIS,TN,,US,,,,,
,visa,,,MEMPHIS,TN,,US,,,,,
,visa,,,MEMPHIS,TN,,US,,,,,
,visa,,,MEMPHIS,TN,,US,,,,,
,visa,,,MEMPHIS,TN,,US,,,,,
,visa,,,MEMPHIS,TN,,US,,,,,
,visa,,,MEMPHIS,TN,,US,,,,,
,visa,,,MEMPHIS,TN,,US,,,,,
,visa,,,MEMPHIS,TN,,US,,,,,
,visa,,,MEMPHIS,TN,,US,,,,,
,visa,,,MEMPHIS,TN,,US,,,,,
,visa,,,MEMPHIS,TN,,US,,,,,
,visa,,,MEMPHIS,TN,,US,,,,,
,visa,,,MEMPHIS,TN,,US,,,,,
,visa,,,MEMPHIS,TN,,US,,,,,
,visa,,,MEMPHIS,TN,,US,,,,,
,visa,,,MEMPHIS,TN,,US,,,,,
,visa,,,MEMPHIS,TN,,US,,,,,
,visa,,,MEMPHIS,TN,,US,,,,,
,visa,,,MEMPHIS,TN,,US,,,,,
,visa,,,MEMPHIS,TN,,US,,,,,
,visa,,,MEMPHIS,TN,,US,,,,,
,visa,,,MEMPHIS,TN,,US,,,,,
,visa,,,MEMPHIS,TN,,US,,,,,
,visa,,,MEMPHIS,TN,,US,,,,,
,visa,,,MEMPHIS,TN,,US,,,,,
,visa,,,MEMPHIS,TN,,US,,,,,
,visa,,,MEMPHIS,TN,,US,,,,,
,visa,,,MEMPHIS,TN,,US,,,,,
,visa,,,MEMPHIS,TN,,US,,,,,
,visa,,,MEMPHIS,TN,,US,,,,,
,visa,,,MEMPHIS,TN,,US,,,,,
,visa,,,MEMPHIS,TN,,US,,,,,
,visa,,,MEMPHIS,TN,,US,,,,,
,visa,,,MEMPHIS,TN,,US,,,,,
,visa,,,MEMPHIS,TN,,US,,,,,
,visa,,,MEMPHIS,TN,,US,,,,,
,visa,,,MEMPHIS,TN,,US,,,,,
,visa,,,MEM,TN,,US,,,,,
,visa,,,MEMPHIS,TN,,US,,,,,
,visa,,,MEMPHIS,TN,,US,,,,,
,visa,,,MEMPHIS,TN,,US,,,,,
,visa,,,MEMPHIS,TN,,US,,,,,
,visa,,,MEMPHIS,TN,,US,,,,,
,visa,,,MEMPHIS,TN,,US,,,,,
,visa,,,MEMPHIS,TN,,US,,,,,
https://www.walgreens.com/locator/walgreens-4155+s+3rd+st-memphis-tn-38109/id=2775,walgreens,Walgreens,,Memphis,TN,,US,+1 901-785-6851,https://www.walgreens.com/locator/walgreens-4155+s+3rd+st-memphis-tn-38109/id=2775,Mo-Sa 08:00-21:00; Su 09:00-21:00,Walgreens,Q1591889
https://www.walgreens.com/locator/walgreens-1845+s+3rd+st-memphis-tn-38109/id=9174,walgreens,Walgreens,,Memphis,TN,,US,+1 901-947-4203,https://www.walgreens.com/locator/walgreens-1845+s+3rd+st-memphis-tn-38109/id=9174,Mo-Su 08:00-20:00,Walgreens,Q1591889
https://locations.wendys.com/#9253993,wendys,"Wendy's Hwy 61 S. in Memphis, TN",,Memphis,TN,,US,+1 901-789-0919,https://locations.wendys.com/united-states/tn/memphis/3990-s-3rd-st,"Mo-Su 06:30-10:30,06:30-22:00",Wendy's,Q550258
175712ed8ffa191d780796677ffa40de,western_union,CASH SAVER #327,,Memphis,TN,,US,+1 901-989-2084,https://location.westernunion.com/us/tn/memphis/175712ed8ffa191d780796677ffa40de,Mo-Fr 09:00-18:00; Sa 09:00-17:00; Su 09:00-15:00,Western Union,Q861042
4ab9e26d55c1b5afc542b23421b0502e,western_union,GORDIN'S FOOD & BUTCHER SHOPPE,,Memphis,TN,,US,+1 901-942-2399,https://location.westernunion.com/us/tn/memphis/4ab9e26d55c1b5afc542b23421b0502e,Mo-Su 07:00-21:00,Western Union,Q861042
8fb4aacaad31294ea16baf1541e8aa2a,western_union,R&S FOOD MARKET,,Memphis,TN,,US,+1 901-396-8888,https://location.westernunion.com/us/tn/memphis/8fb4aacaad31294ea16baf1541e8aa2a,Mo-Th 07:00-22:00; Fr-Sa 07:00-23:00; Su 07:00-22:00,Western Union,Q861042
72e92cc39fd7bd98c2fa1eb76a9869f9,western_union,DOLLAR GENERAL   #23977,,Memphis,TN,,US,+1 901-582-2083,https://location.westernunion.com/us/tn/memphis/72e92cc39fd7bd98c2fa1eb76a9869f9,Mo-Su 08:00-22:00,Western Union,Q861042
