Ref,Spider,Name,Address,City,State,Zipcode,Country,Phone,Website,Hours,Brand,WikiData
,visa,,,LA CEIBA,ATLANTIDA,,HN,,,,,
,visa,,,LA CEIBA,ATLANTIDA,,HN,,,,,
,visa,,,LA CEIBA,ATLANTIDA,,HN,,,,,
,visa,,,LA CEIBA,ATLANTIDA,,HN,,,,,
,visa,,,LA CEIBA,ATLANTIDA,,HN,,,,,
,visa,,,LA CEIBA,ATLANTIDA,,HN,,,,,
,visa,,,LA CEIBA,ATLANTIDA,,HN,,,,,
,visa,,,LA CEIBA,ATLANTIDA,,HN,,,,,
,visa,,,LA CEIBA,ATLANTIDA,,HN,,,,,
,visa,,,TELA,ATLANTIDA,,HN,,,,,
,visa,,,TELA,ATLANTIDA,,HN,,,,,
e56893969b236b30477b66389253b8a0,western_union,FICOHSA TENGO CLAUDIA PATRICIA CRUZ,,Tela,ATLANTIDA,,HN,+504 2239-6410,https://location.westernunion.com/hn/atlantida/tela/e56893969b236b30477b66389253b8a0,Mo-Su 07:00-22:00,Western Union,Q861042
0dcba1492cd557b43c61f202a7e60f4d,western_union,FICOHSA TENGO CLAUDIA PATRICIA CRUZ,,Tela,ATLANTIDA,,HN,+504 2239-6410,https://location.westernunion.com/hn/atlantida/tela/0dcba1492cd557b43c61f202a7e60f4d,Mo-Su 07:00-22:00,Western Union,Q861042
5dc6c4cd9b2c9d32825c8a0a565ce256,western_union,BP CORRESPONSAL MAYRA RIVERA,,Jutiapa,ATLANTIDA,,HN,+504 2509-2020,https://location.westernunion.com/hn/atlantida/jutiapa/5dc6c4cd9b2c9d32825c8a0a565ce256,Mo-Fr 06:00-21:00; Sa-Su 06:30-21:00,Western Union,Q861042
f08dee3dc2a0bd378e04ca8f2344f75c,western_union,BP CORRESPONSAL MAYRA RIVERA,,Jutiapa,ATLANTIDA,,HN,+504 2509-2020,https://location.westernunion.com/hn/atlantida/jutiapa/f08dee3dc2a0bd378e04ca8f2344f75c,Mo-Fr 06:00-21:00; Sa-Su 06:30-21:00,Western Union,Q861042
5e13a1bb74a300d6afa000ece161ca0c,western_union,FICOHSA TENGO MARIA SARA DIAZ NUNEZ,,Jutiapa,ATLANTIDA,,HN,+504 2239-6410,https://location.westernunion.com/hn/atlantida/jutiapa/5e13a1bb74a300d6afa000ece161ca0c,Mo-Su 07:00-22:00,Western Union,Q861042
983ecbd3fa3a0cbbdb2142c5ee4ee0b9,western_union,FICOHSA TENGO MARIA SARA DIAZ NUNEZ,,Jutiapa,ATLANTIDA,,HN,+504 2239-6410,https://location.westernunion.com/hn/atlantida/jutiapa/983ecbd3fa3a0cbbdb2142c5ee4ee0b9,Mo-Su 07:00-22:00,Western Union,Q861042
b1212cfa69f9239a92c4053865fcbf07,western_union,BP-CORRESPONSAL BLANCA CASTRO,,Jutiapa,ATLANTIDA,,HN,+504 2509-2020,https://location.westernunion.com/hn/atlantida/jutiapa/b1212cfa69f9239a92c4053865fcbf07,Mo-Su 07:00-23:00,Western Union,Q861042
ade06178b1ea2c670cfccc5aaddcdf7c,western_union,BP-CORRESPONSAL BLANCA CASTRO,,Jutiapa,ATLANTIDA,,HN,+504 2509-2020,https://location.westernunion.com/hn/atlantida/jutiapa/ade06178b1ea2c670cfccc5aaddcdf7c,Mo-Su 07:00-23:00,Western Union,Q861042
67414c37ee05ab6fa38a5b0bb9f768a6,western_union,FICOHSA TENGO RUDY CHINCHILLA,,Jutiapa,ATLANTIDA,,HN,+504 2239-6410,https://location.westernunion.com/hn/atlantida/jutiapa/67414c37ee05ab6fa38a5b0bb9f768a6,Mo-Su 07:00-18:00,Western Union,Q861042
2f1709eb823785da90cab970bbdd03e0,western_union,FICOHSA TENGO RUDY CHINCHILLA,,Jutiapa,ATLANTIDA,,HN,+504 2239-6410,https://location.westernunion.com/hn/atlantida/jutiapa/2f1709eb823785da90cab970bbdd03e0,Mo-Su 07:00-18:00,Western Union,Q861042
49f7f861e40b7bb01b9ababe7736fc80,western_union,BP-CORRESPONSAL ORLYN MARTEL,,Jutiapa,ATLANTIDA,,HN,+504 2509-2020,https://location.westernunion.com/hn/atlantida/jutiapa/49f7f861e40b7bb01b9ababe7736fc80,Mo-Su 07:00-23:00,Western Union,Q861042
90f57922cfbea40327bf96ea5a8ef513,western_union,BP-CORRESPONSAL ORLYN MARTEL,,Jutiapa,ATLANTIDA,,HN,+504 2509-2020,https://location.westernunion.com/hn/atlantida/jutiapa/90f57922cfbea40327bf96ea5a8ef513,Mo-Su 07:00-23:00,Western Union,Q861042
3384397433bdb0f2d0918d7b5742d7b6,western_union,BANCO OCCIDENTE JUTIAPA,,Jutiapa,ATLANTIDA,,HN,+504 2290-4100,https://location.westernunion.com/hn/atlantida/jutiapa/3384397433bdb0f2d0918d7b5742d7b6,Mo-Fr 08:45-16:15; Sa 08:30-11:30,Western Union,Q861042
fa950b9d1b56b27375a7833aeb315bda,western_union,BANCO OCCIDENTE JUTIAPA,,Jutiapa,ATLANTIDA,,HN,+504 2232-9500,https://location.westernunion.com/hn/atlantida/jutiapa/fa950b9d1b56b27375a7833aeb315bda,Mo-Fr 08:45-16:15; Sa 08:30-11:30,Western Union,Q861042
3375d0158731388358c834fde78388b6,western_union,BP-CORRESPONSAL OSCAR FUNEZ,,Jutiapa,ATLANTIDA,,HN,+504 2509-2020,https://location.westernunion.com/hn/atlantida/jutiapa/3375d0158731388358c834fde78388b6,Mo-Su 07:00-23:00,Western Union,Q861042
436f7100caaa85381804af9e8bdb3040,western_union,FICOHSA TENGO ORLYN CASTRO,,Jutiapa,ATLANTIDA,,HN,+504 2239-6410,https://location.westernunion.com/hn/atlantida/jutiapa/436f7100caaa85381804af9e8bdb3040,Mo-Su 07:00-18:00,Western Union,Q861042
983409729b164c5b1c58d0d976f669bf,western_union,FICOHSA TENGO ORLYN CASTRO,,Jutiapa,ATLANTIDA,,HN,+504 2239-6410,https://location.westernunion.com/hn/atlantida/jutiapa/983409729b164c5b1c58d0d976f669bf,Mo-Su 07:00-18:00,Western Union,Q861042
8bbfa3e8fe4755b2f7018aa369b41e13,western_union,BP-CORRESPONSAL SAMIR LOPEZ,,Jutiapa,ATLANTIDA,,HN,+504 2509-2020,https://location.westernunion.com/hn/atlantida/jutiapa/8bbfa3e8fe4755b2f7018aa369b41e13,Mo-Su 07:00-23:00,Western Union,Q861042
abe91fa56480573fb53601b14aa32712,western_union,TRANSPORTES Y MERCADITO FUNEZ,,Jutiapa,ATLANTIDA,,HN,+504 2232-9500,https://location.westernunion.com/hn/atlantida/jutiapa/abe91fa56480573fb53601b14aa32712,Mo-Th 09:00-17:00; Fr 09:00-18:00; Sa 08:00-17:00,Western Union,Q861042
e26118893ec3700b53f4a139f0ad1178,western_union,TRANSPORTES Y MERCADITO FUNEZ,,Jutiapa,ATLANTIDA,,HN,+504 2232-9500,https://location.westernunion.com/hn/atlantida/jutiapa/e26118893ec3700b53f4a139f0ad1178,Mo-Sa 08:00-17:00,Western Union,Q861042
5419e81e9b80bad6a2721e43ff6a466b,western_union,BP-CORRESPONSAL OSCAR FUNEZ,,Jutiapa,ATLANTIDA,,HN,+504 2509-2020,https://location.westernunion.com/hn/atlantida/jutiapa/5419e81e9b80bad6a2721e43ff6a466b,Mo-Su 07:00-23:00,Western Union,Q861042
7e133cfdff5aac3bfc4605fc5911fdab,western_union,BP-CORRESPONSAL MODESTO POSAS,,La Ceiba,ATLANTIDA,,HN,+504 2509-2020,https://location.westernunion.com/hn/atlantida/la-ceiba/7e133cfdff5aac3bfc4605fc5911fdab,Mo-Su 07:00-23:00,Western Union,Q861042
dff67fd17777e5aec226bc166776b63d,western_union,FICOHSA TENGO DEISI HERNANDEZ,,Jutiapa,ATLANTIDA,,HN,+504 2239-6410,https://location.westernunion.com/hn/atlantida/jutiapa/dff67fd17777e5aec226bc166776b63d,Mo-Su 07:00-22:00,Western Union,Q861042
495f92597a69f0b6b9e510490d4e0293,western_union,FICOHSA TENGO DEISI HERNANDEZ,,Jutiapa,ATLANTIDA,,HN,+504 2239-6410,https://location.westernunion.com/hn/atlantida/jutiapa/495f92597a69f0b6b9e510490d4e0293,Mo-Su 07:00-22:00,Western Union,Q861042
5fe178977b49ad7b1015de28f0e7536e,western_union,FICOHSA TENGO-SAMIR LOPEZ,,Jutiapa,ATLANTIDA,,HN,+504 2239-6410,https://location.westernunion.com/hn/atlantida/jutiapa/5fe178977b49ad7b1015de28f0e7536e,Mo-Su 07:00-21:00,Western Union,Q861042
a123f20e2d4af81a2f594f59a29988b3,western_union,FICOHSA TENGO-SAMIR LOPEZ,,Jutiapa,ATLANTIDA,,HN,+504 2239-6410,https://location.westernunion.com/hn/atlantida/jutiapa/a123f20e2d4af81a2f594f59a29988b3,Mo-Su 07:00-21:00,Western Union,Q861042
463d5625805390190d194c8e7e5771eb,western_union,BP-CORRESPONSAL MODESTO POSAS,,La Ceiba,ATLANTIDA,,HN,+504 2509-2020,https://location.westernunion.com/hn/atlantida/la-ceiba/463d5625805390190d194c8e7e5771eb,Mo-Su 07:00-23:00,Western Union,Q861042
636df7d750b1247599f938981d24ed4c,western_union,BP-CORRESPONSAL ELSI O RIVERA FERNANDEZ,,Jutiapa,ATLANTIDA,,HN,+504 2566-2020,https://location.westernunion.com/hn/atlantida/jutiapa/636df7d750b1247599f938981d24ed4c,Mo-Sa 07:00-19:00; Su 07:00-13:00,Western Union,Q861042
b9e5fb82033400800a7e773b49c8d952,western_union,BP-CORRESPONSAL ELSI O RIVERA FERNANDEZ,,Jutiapa,ATLANTIDA,,HN,+504 2566-2020,https://location.westernunion.com/hn/atlantida/jutiapa/b9e5fb82033400800a7e773b49c8d952,Mo-Sa 07:00-19:00; Su 07:00-13:00,Western Union,Q861042
ffff699ecc45df4bdc017393d789186d,western_union,JOHNNY EMILSON HERNANDEZ GARAY,,Jutiapa,ATLANTIDA,,HN,+504 2232-9500,https://location.westernunion.com/hn/atlantida/jutiapa/ffff699ecc45df4bdc017393d789186d,Mo-Su 08:00-17:00,Western Union,Q861042
cc31af33384e6fe8ca9cc60eba0aceef,western_union,JOHNNY EMILSON HERNANDEZ GARAY,,Jutiapa,ATLANTIDA,,HN,+504 2232-9500,https://location.westernunion.com/hn/atlantida/jutiapa/cc31af33384e6fe8ca9cc60eba0aceef,Mo-Su 08:00-17:00,Western Union,Q861042
af1bd92b1b0e876f71e9bc762ce291c6,western_union,BANPAIS VENT GALAXI SECTOR ESTE,,La Ceiba,ATLANTIDA,,HN,(+504) 22329500-6311,https://location.westernunion.com/hn/atlantida/la-ceiba/af1bd92b1b0e876f71e9bc762ce291c6,Mo-Su 08:30-17:00,Western Union,Q861042
9a19852513bb3777ca6753492ebe62af,western_union,CASOL,,La Ceiba,ATLANTIDA,,HN,+504 2232-9500,https://location.westernunion.com/hn/atlantida/la-ceiba/9a19852513bb3777ca6753492ebe62af,Mo-Fr 08:00-17:00; Sa 08:00-13:00,Western Union,Q861042
233acf6eca8fb6af338aea7403e5a1e3,western_union,CUSCATLAN LA CEIBA,,La Ceiba,ATLANTIDA,,HN,+504 2232-9500,https://location.westernunion.com/hn/atlantida/la-ceiba/233acf6eca8fb6af338aea7403e5a1e3,Mo-Fr 08:30-16:00; Sa 08:30-12:00,Western Union,Q861042
a0a8f40a0ee62cd82fa6013ad7bf293a,western_union,BANPAIS VENT GALAXI ROATAN,,La Ceiba,ATLANTIDA,,HN,(+504) 22329500-6312,https://location.westernunion.com/hn/atlantida/la-ceiba/a0a8f40a0ee62cd82fa6013ad7bf293a,Mo-Su 08:30-16:00,Western Union,Q861042
2bb41f19d28a67d2d4b846eec5b9ae58,western_union,FICOHSA TENGO LEONARDO LOPEZ,,El Porvenir,ATLANTIDA,,HN,+504 2239-6410,https://location.westernunion.com/hn/atlantida/el-porvenir/2bb41f19d28a67d2d4b846eec5b9ae58,Mo-Su 07:00-22:00,Western Union,Q861042
f7d7ad4abbcecdef9af2c1585ebe3143,western_union,FICOHSA TENGO LEONARDO LOPEZ,,El Porvenir,ATLANTIDA,,HN,+504 2239-6410,https://location.westernunion.com/hn/atlantida/el-porvenir/f7d7ad4abbcecdef9af2c1585ebe3143,Mo-Su 07:00-22:00,Western Union,Q861042
351ab8dde75bd23036a7fea54ee8ef68,western_union,MINI SUPER TURCAL,,La Masica,ATLANTIDA,,HN,+504 2436-1352,https://location.westernunion.com/hn/atlantida/la-masica/351ab8dde75bd23036a7fea54ee8ef68,Mo-Fr 08:00-16:00; Sa 08:00-17:00,Western Union,Q861042
1500d806602002ec37f41fe6af7af52e,western_union,BP-CORRESPONSAL OVIDIO TURCIOS,,La Masica,ATLANTIDA,,HN,+504 2509-2020,https://location.westernunion.com/hn/atlantida/la-masica/1500d806602002ec37f41fe6af7af52e,Mo-Su 07:00-23:00,Western Union,Q861042
9141e419fe71936bff4770a838ac17d3,western_union,BP-CORRESPONSAL OVIDIO TURCIOS,,La Masica,ATLANTIDA,,HN,+504 2509-2020,https://location.westernunion.com/hn/atlantida/la-masica/9141e419fe71936bff4770a838ac17d3,Mo-Su 07:00-23:00,Western Union,Q861042
ca5685d67f0da08e2dfbac2141f72225,western_union,BP CORRESPONSAL FRANCY CANTILLANO,,La Masica,ATLANTIDA,,HN,+504 2509-2020,https://location.westernunion.com/hn/atlantida/la-masica/ca5685d67f0da08e2dfbac2141f72225,Mo-Su 07:00-21:00,Western Union,Q861042
47132d1e09d7a8e050515900cf51c6e1,western_union,BP CORRESPONSAL FRANCY CANTILLANO,,La Masica,ATLANTIDA,,HN,+504 2509-2020,https://location.westernunion.com/hn/atlantida/la-masica/47132d1e09d7a8e050515900cf51c6e1,Mo-Su 07:00-21:00,Western Union,Q861042
85d6a89b694e7395a3a5581f0adba817,western_union,BP-CORRESPONSAL NOLVIA GARCIA,,San Francisco,ATLANTIDA,,HN,+504 2509-2020,https://location.westernunion.com/hn/atlantida/san-francisco/85d6a89b694e7395a3a5581f0adba817,Mo-Su 07:00-23:00,Western Union,Q861042
126eaf6161221713b312b4bac1228ff6,western_union,BP-CORRESPONSAL NOLVIA GARCIA,,San Francisco,ATLANTIDA,,HN,+504 2509-2020,https://location.westernunion.com/hn/atlantida/san-francisco/126eaf6161221713b312b4bac1228ff6,Mo-Su 07:00-23:00,Western Union,Q861042
dde770d8b2cf8fc5e41314a4d4a37ecd,western_union,FICOHSA TENGO NOLVIA ALEJANDRA GARCIA,,San Francisco,ATLANTIDA,,HN,+504 2239-6410,https://location.westernunion.com/hn/atlantida/san-francisco/dde770d8b2cf8fc5e41314a4d4a37ecd,Mo-Su 07:00-22:00,Western Union,Q861042
e2cdfe9af78a770de2e23e99041028d0,western_union,FICOHSA TENGO NOLVIA ALEJANDRA GARCIA,,San Francisco,ATLANTIDA,,HN,+504 2239-6410,https://location.westernunion.com/hn/atlantida/san-francisco/e2cdfe9af78a770de2e23e99041028d0,Mo-Su 07:00-22:00,Western Union,Q861042
433890d512aff60d44285b891f45839c,western_union,449 MINI SUPER EL TURCAL,,La Masica,ATLANTIDA,,HN,+504 9949-3344,https://location.westernunion.com/hn/atlantida/la-masica/433890d512aff60d44285b891f45839c,Mo-Sa 07:00-19:00; Su 07:00-12:00,Western Union,Q861042
6e91aea66deb0f282a4d62e8ad2d26b4,western_union,BP-CORRESPONSAL-CINTIA ALVARADO,,La Masica,ATLANTIDA,,HN,+504 2509-2020,https://location.westernunion.com/hn/atlantida/la-masica/6e91aea66deb0f282a4d62e8ad2d26b4,Mo-Su 07:00-23:00,Western Union,Q861042
683b271e45080dec5825edcaf36ba726,western_union,BP-CORRESPONSAL-CINTIA ALVARADO,,La Masica,ATLANTIDA,,HN,+504 2509-2020,https://location.westernunion.com/hn/atlantida/la-masica/683b271e45080dec5825edcaf36ba726,Mo-Su 07:00-23:00,Western Union,Q861042
8974026dcf05f76844134687be682d6d,western_union,BP-CORRESPONSAL INDIRA J LEMUS EUCEDA,,La Masica,ATLANTIDA,,HN,+504 2566-2020,https://location.westernunion.com/hn/atlantida/la-masica/8974026dcf05f76844134687be682d6d,Mo-Su 08:00-18:00,Western Union,Q861042
92e8923854da27ad7d1460ee468f1d51,western_union,BP-CORRESPONSAL INDIRA J LEMUS EUCEDA,,La Masica,ATLANTIDA,,HN,+504 2566-2020,https://location.westernunion.com/hn/atlantida/la-masica/92e8923854da27ad7d1460ee468f1d51,Mo-Su 08:00-18:00,Western Union,Q861042
b064f374fb4d1c0638a1cf705ee9996d,western_union,BP CORRESPONSAL FELIX PADILLA,,La Masica,ATLANTIDA,,HN,+504 2509-2020,https://location.westernunion.com/hn/atlantida/la-masica/b064f374fb4d1c0638a1cf705ee9996d,Mo-Su 07:00-19:00,Western Union,Q861042
3c4b8f7ffb84c3c94c8a138fbdc8207d,western_union,BP CORRESPONSAL FELIX PADILLA,,La Masica,ATLANTIDA,,HN,+504 2509-2020,https://location.westernunion.com/hn/atlantida/la-masica/3c4b8f7ffb84c3c94c8a138fbdc8207d,Mo-Su 07:00-19:00,Western Union,Q861042
5ad509f515fa0bbd6a12b6c8c9e8ea19,western_union,FICOHSA TENGO BESSY ALFARO ESPINOZA,,La Masica,ATLANTIDA,,HN,+504 2239-6410,https://location.westernunion.com/hn/atlantida/la-masica/5ad509f515fa0bbd6a12b6c8c9e8ea19,Mo-Su 07:00-22:00,Western Union,Q861042
cb515cf625a9fb50794b9f81e7f09c9a,western_union,FICOHSA TENGO BESSY ALFARO ESPINOZA,,La Masica,ATLANTIDA,,HN,+504 2239-6410,https://location.westernunion.com/hn/atlantida/la-masica/cb515cf625a9fb50794b9f81e7f09c9a,Mo-Su 07:00-22:00,Western Union,Q861042
3c1678e58176221f9f02bdbb122064a1,western_union,SAGRADA FAMILIA LA MASICA,,La Masica,ATLANTIDA,,HN,+504 2232-9500,https://location.westernunion.com/hn/atlantida/la-masica/3c1678e58176221f9f02bdbb122064a1,Mo-Fr 08:30-16:00; Sa 08:30-12:00,Western Union,Q861042
3ea403f3b6fb85afc98db13db0c71cd9,western_union,FICOHSA TENGO KIELSA K136,,San Juan Pueblo,ATLANTIDA,,HN,+504 3357-2835,https://location.westernunion.com/hn/atlantida/san-juan-pueblo/3ea403f3b6fb85afc98db13db0c71cd9,Mo-Sa 07:00-22:00; Su 07:00-21:00,Western Union,Q861042
b7f36ad2781e5734b4949967cc664349,western_union,FICOHSA TENGO KIELSA K136,,San Juan Pueblo,ATLANTIDA,,HN,+504 3357-2835,https://location.westernunion.com/hn/atlantida/san-juan-pueblo/b7f36ad2781e5734b4949967cc664349,Mo-Sa 07:00-22:00; Su 07:00-21:00,Western Union,Q861042
58c16b677ab5b3c872517b9588985bf6,western_union,DF SAN JUAN PUEBLO,,La Masica,ATLANTIDA,,HN,+504 2265-8100,https://location.westernunion.com/hn/atlantida/la-masica/58c16b677ab5b3c872517b9588985bf6,Mo-Su 08:00-20:00,Western Union,Q861042
10056e325ab2f0034d8dfa53952eae50,western_union,DF SAN JUAN PUEBLO,,La Masica,ATLANTIDA,,HN,+504 2265-8100,https://location.westernunion.com/hn/atlantida/la-masica/10056e325ab2f0034d8dfa53952eae50,Mo-Su 08:00-20:00,Western Union,Q861042
12a5711603adc82ebbc8f4840bd98479,western_union,BANCO OCCIDENTE SAN JUAN PUEBLO,,La Masica,ATLANTIDA,,HN,+504 2290-4100,https://location.westernunion.com/hn/atlantida/la-masica/12a5711603adc82ebbc8f4840bd98479,Mo-Fr 08:45-16:15; Sa 08:30-11:30,Western Union,Q861042
f2d8ceecf0cd9b6ad4fde530e5cfc8d1,western_union,BANCO OCCIDENTE SAN JUAN PUEBLO,,La Masica,ATLANTIDA,,HN,+504 2232-9500,https://location.westernunion.com/hn/atlantida/la-masica/f2d8ceecf0cd9b6ad4fde530e5cfc8d1,Mo-Fr 08:45-16:15; Sa 08:30-11:30,Western Union,Q861042
1ca983ee71c53e075570aa5fd2636112,western_union,FICOHSA TENGO F SIMAN SAN JUAN PUEBLO 1,,San Juan Pueblo,ATLANTIDA,,HN,+504 3175-4456,https://location.westernunion.com/hn/atlantida/san-juan-pueblo/1ca983ee71c53e075570aa5fd2636112,Mo-Fr 07:00-23:00; Sa 07:00-22:00; Su 07:00-21:00,Western Union,Q861042
71e0bcb55a1e33ad8bf2da6cc9c06cc4,western_union,FICOHSA TENGO F SIMAN SAN JUAN PUEBLO 1,,San Juan Pueblo,ATLANTIDA,,HN,+504 3175-4602,https://location.westernunion.com/hn/atlantida/san-juan-pueblo/71e0bcb55a1e33ad8bf2da6cc9c06cc4,Mo-Fr 07:00-23:00; Sa 07:00-22:00; Su 07:00-21:00,Western Union,Q861042
ecbf865208c1e0e23e9864fe1aa69f89,western_union,FICOHSA TENGO DEYSI CHAVEZ,,La Masica,ATLANTIDA,,HN,+504 2239-6410,https://location.westernunion.com/hn/atlantida/la-masica/ecbf865208c1e0e23e9864fe1aa69f89,Mo-Su 07:00-22:00,Western Union,Q861042
c6accee12a9550358f215e5ed440f76c,western_union,FICOHSA TENGO DEYSI CHAVEZ,,La Masica,ATLANTIDA,,HN,+504 2239-6410,https://location.westernunion.com/hn/atlantida/la-masica/c6accee12a9550358f215e5ed440f76c,Mo-Su 07:00-22:00,Western Union,Q861042
65aeba5dac413016cc4b9e87dfacdcba,western_union,0795 BANCO AZTECA DAZ SAN JUAN PUEBLO,,San Juan Pueblo,ATLANTIDA,,HN,+504 2264-1460,https://location.westernunion.com/hn/atlantida/san-juan-pueblo/65aeba5dac413016cc4b9e87dfacdcba,Mo-Su 08:00-20:00,Western Union,Q861042
c6bf04e6eac19e53828db6928f37e602,western_union,CHOROTEGA CORRESPONSALES JORGE PINTO,,La Masica,ATLANTIDA,,HN,+504 9985-6275,https://location.westernunion.com/hn/atlantida/la-masica/c6bf04e6eac19e53828db6928f37e602,Mo-Sa 08:00-17:00,Western Union,Q861042
c2d9590a219482fdcf277284c8707aeb,western_union,CHOROTEGA CORRESPONSALES JORGE PINTO,,La Masica,ATLANTIDA,,HN,+504 9985-6275,https://location.westernunion.com/hn/atlantida/la-masica/c2d9590a219482fdcf277284c8707aeb,Mo-Sa 08:00-17:00,Western Union,Q861042
e5b0f86b41141218df24010605959049,western_union,BP-CORRESPONSAL LUIS A JUAREZ PINEDA,,La Masica,ATLANTIDA,,HN,+504 2566-2020,https://location.westernunion.com/hn/atlantida/la-masica/e5b0f86b41141218df24010605959049,Mo-Sa 08:00-17:00; Su 08:00-13:00,Western Union,Q861042
fac00b57cbd478548db72aefb3c420d7,western_union,BP-CORRESPONSAL LUIS A JUAREZ PINEDA,,La Masica,ATLANTIDA,,HN,+504 2566-2020,https://location.westernunion.com/hn/atlantida/la-masica/fac00b57cbd478548db72aefb3c420d7,Mo-Sa 08:00-17:00; Su 08:00-13:00,Western Union,Q861042
cb7a83e9e6b381281978e508affbec5b,western_union,BP-CORRESPONSAL LUIS JUAREZ,,La Masica,ATLANTIDA,,HN,+504 2509-2020,https://location.westernunion.com/hn/atlantida/la-masica/cb7a83e9e6b381281978e508affbec5b,Mo-Su 07:00-23:00,Western Union,Q861042
9bf4c2a94d6e11a0440fad82d2086ef9,western_union,BP-CORRESPONSAL LUIS JUAREZ,,La Masica,ATLANTIDA,,HN,+504 2509-2020,https://location.westernunion.com/hn/atlantida/la-masica/9bf4c2a94d6e11a0440fad82d2086ef9,Mo-Su 07:00-23:00,Western Union,Q861042
3f7203fb2d6e03135a7ef3e0208c5ecd,western_union,7889 BANCO AZTECA ITK ESPARTA,,San Juan Pueblo,ATLANTIDA,,HN,+504 2264-1404,https://location.westernunion.com/hn/atlantida/san-juan-pueblo/3f7203fb2d6e03135a7ef3e0208c5ecd,Mo-Su 08:00-20:00,Western Union,Q861042
4261a58e13aa5fec1284bbd0dcabfed0,western_union,555 SUPERMERCADO Y DISTRIBUIDOR LA GRANJ,,Esparta,ATLANTIDA,,HN,+504 2451-7081,https://location.westernunion.com/hn/atlantida/esparta/4261a58e13aa5fec1284bbd0dcabfed0,Mo-Su 07:00-19:00,Western Union,Q861042
a4449c1ce7d52c92fdfb51f87634eb6a,western_union,BP-CORRESPONSAL NELSON MARTINEZ,,Arizona,ATLANTIDA,,HN,+504 2509-2020,https://location.westernunion.com/hn/atlantida/arizona/a4449c1ce7d52c92fdfb51f87634eb6a,Mo-Su 07:00-23:00,Western Union,Q861042
b2657feb62227c5c71a9036324f11e6f,western_union,BP-CORRESPONSAL NELSON MARTINEZ,,Arizona,ATLANTIDA,,HN,+504 2509-2020,https://location.westernunion.com/hn/atlantida/arizona/b2657feb62227c5c71a9036324f11e6f,Mo-Su 07:00-23:00,Western Union,Q861042
d765e4d40ac6f02fc0b6246a08021371,western_union,BP CORRESPONSAL SILVIA FLORES,,Esparta,ATLANTIDA,,HN,+504 2509-2020,https://location.westernunion.com/hn/atlantida/esparta/d765e4d40ac6f02fc0b6246a08021371,Mo-Su 07:00-19:00,Western Union,Q861042
10b5da7c758cadc17e22aeef033b5df1,western_union,BP CORRESPONSAL SILVIA FLORES,,Esparta,ATLANTIDA,,HN,+504 2509-2020,https://location.westernunion.com/hn/atlantida/esparta/10b5da7c758cadc17e22aeef033b5df1,Mo-Su 07:00-19:00,Western Union,Q861042
d5ac4b30a88976c4e6875b1e291d09b5,western_union,BP CORRESPONSAL ALEXANDER PEREZ,,Arizona,ATLANTIDA,,HN,+504 2240-1212,https://location.westernunion.com/hn/atlantida/arizona/d5ac4b30a88976c4e6875b1e291d09b5,Mo-Sa 08:00-16:00; Su 08:00-18:00,Western Union,Q861042
5f6b9caf0488ab526a0118558da369a7,western_union,BP CORRESPONSAL ALEXANDER PEREZ,,Arizona,ATLANTIDA,,HN,+504 2240-1212,https://location.westernunion.com/hn/atlantida/arizona/5f6b9caf0488ab526a0118558da369a7,Mo-Sa 08:00-16:00; Su 08:00-18:00,Western Union,Q861042
75178cf52c32e78fff6f7ea70263e899,western_union,BP-CORRESPONSAL SERGIO PINEDA,,Arizona,ATLANTIDA,,HN,+504 2509-2020,https://location.westernunion.com/hn/atlantida/arizona/75178cf52c32e78fff6f7ea70263e899,Mo-Su 07:00-23:00,Western Union,Q861042
1485eac03ccbc79930ef1e96bcc4f0f2,western_union,BP-CORRESPONSAL SERGIO PINEDA,,Arizona,ATLANTIDA,,HN,+504 2509-2020,https://location.westernunion.com/hn/atlantida/arizona/1485eac03ccbc79930ef1e96bcc4f0f2,Mo-Su 07:00-23:00,Western Union,Q861042
e9a75c5386d9b681585b813d96448f7e,western_union,BP-CORRESPONSAL MARLON PACHECO,,Arizona,ATLANTIDA,,HN,+504 2509-2020,https://location.westernunion.com/hn/atlantida/arizona/e9a75c5386d9b681585b813d96448f7e,Mo-Su 07:00-23:00,Western Union,Q861042
40213b84604066fba094ceff20423bb4,western_union,BP-CORRESPONSAL MARLON PACHECO,,Arizona,ATLANTIDA,,HN,+504 2509-2020,https://location.westernunion.com/hn/atlantida/arizona/40213b84604066fba094ceff20423bb4,Mo-Su 07:00-23:00,Western Union,Q861042
42c1df83cf39a6fc40d15964f6956129,western_union,FICOHSA TENGO MARLON MEJIA,,Arizona,ATLANTIDA,,HN,+504 2239-6410,https://location.westernunion.com/hn/atlantida/arizona/42c1df83cf39a6fc40d15964f6956129,Mo-Su 07:00-18:00,Western Union,Q861042
a05ec5c5cfac8a0729e96fc1b5fdedce,western_union,FICOHSA TENGO MARLON MEJIA,,Arizona,ATLANTIDA,,HN,+504 2239-6410,https://location.westernunion.com/hn/atlantida/arizona/a05ec5c5cfac8a0729e96fc1b5fdedce,Mo-Su 07:00-18:00,Western Union,Q861042
580f3707b6e004ca8b6e0365916ba3f0,western_union,FICOHSA TENGO MARCO JOEL MALDONADO,,Arizona,ATLANTIDA,,HN,+504 2239-6410,https://location.westernunion.com/hn/atlantida/arizona/580f3707b6e004ca8b6e0365916ba3f0,Mo-Su 07:00-22:00,Western Union,Q861042
d5396cc35e0e1422ef076f851c683c8a,western_union,FICOHSA TENGO MARCO JOEL MALDONADO,,Arizona,ATLANTIDA,,HN,+504 2239-6410,https://location.westernunion.com/hn/atlantida/arizona/d5396cc35e0e1422ef076f851c683c8a,Mo-Su 07:00-22:00,Western Union,Q861042
59de82f9dadece0bcc8a75eee58421cf,western_union,BANCO OCCIDENTE ARIZONA,,Arizona,ATLANTIDA,,HN,+504 2232-9500,https://location.westernunion.com/hn/atlantida/arizona/59de82f9dadece0bcc8a75eee58421cf,Mo-Fr 08:45-16:15; Sa 08:30-11:30,Western Union,Q861042
951bdf3323b4669a8a4074e7149c86cf,western_union,BANCO OCCIDENTE ARIZONA,,Arizona,ATLANTIDA,,HN,+504 2290-4100,https://location.westernunion.com/hn/atlantida/arizona/951bdf3323b4669a8a4074e7149c86cf,Mo-Fr 08:45-16:15; Sa 08:30-11:30,Western Union,Q861042
3a6624f9309a8d803467495a6a22f77f,western_union,BP CORRESPONSAL JEOVANI CALIX,,Arizona,ATLANTIDA,,HN,+504 2240-1212,https://location.westernunion.com/hn/atlantida/arizona/3a6624f9309a8d803467495a6a22f77f,Mo-Sa 08:00-16:00; Su 08:00-18:00,Western Union,Q861042
aafd8ed5e89d87d68f749bba3e718805,western_union,BP CORRESPONSAL JEOVANI CALIX,,Arizona,ATLANTIDA,,HN,+504 2240-1212,https://location.westernunion.com/hn/atlantida/arizona/aafd8ed5e89d87d68f749bba3e718805,Mo-Sa 08:00-16:00; Su 08:00-18:00,Western Union,Q861042
962298a6f818db2f868eaa340c512f1d,western_union,FICOHSA TENGO JOSE ANTONIO JIMENEZ,,Arizona,ATLANTIDA,,HN,+504 2239-6410,https://location.westernunion.com/hn/atlantida/arizona/962298a6f818db2f868eaa340c512f1d,Mo-Su 07:00-22:00,Western Union,Q861042
836f77459a7bf7e43af2d89dbc2ce83f,western_union,FICOHSA TENGO JOSE ANTONIO JIMENEZ,,Arizona,ATLANTIDA,,HN,+504 2239-6410,https://location.westernunion.com/hn/atlantida/arizona/836f77459a7bf7e43af2d89dbc2ce83f,Mo-Su 07:00-22:00,Western Union,Q861042
b0697e3b92780492bcdd50f7c0dd6b46,western_union,FICOHSA TENGO CARMEN GABRIELA MARTINEZ,,Arizona,ATLANTIDA,,HN,+504 2239-6410,https://location.westernunion.com/hn/atlantida/arizona/b0697e3b92780492bcdd50f7c0dd6b46,Mo-Su 07:00-22:00,Western Union,Q861042
e96b71137307889adc32a0b0162e73de,western_union,FICOHSA TENGO CARMEN GABRIELA MARTINEZ,,Arizona,ATLANTIDA,,HN,+504 2239-6410,https://location.westernunion.com/hn/atlantida/arizona/e96b71137307889adc32a0b0162e73de,Mo-Su 07:00-22:00,Western Union,Q861042
16d7324b9e49dc1d65bd03e221091606,western_union,FICOHSA TENGO NELSON CARTAGENA,,Arizona,ATLANTIDA,,HN,+504 2239-6410,https://location.westernunion.com/hn/atlantida/arizona/16d7324b9e49dc1d65bd03e221091606,Mo-Su 07:00-22:00,Western Union,Q861042
63ca2d5a0dc27dd84eb1e08f9908bd05,western_union,FICOHSA TENGO NELSON CARTAGENA,,Arizona,ATLANTIDA,,HN,+504 2239-6410,https://location.westernunion.com/hn/atlantida/arizona/63ca2d5a0dc27dd84eb1e08f9908bd05,Mo-Su 07:00-22:00,Western Union,Q861042
e85b2ba0f05aa1149e8cd10fda1f6b79,western_union,BP CORRESPONSAL ARIEL FUENTES,,Arizona,ATLANTIDA,,HN,+504 2509-2020,https://location.westernunion.com/hn/atlantida/arizona/e85b2ba0f05aa1149e8cd10fda1f6b79,Mo-Su 07:00-21:00,Western Union,Q861042
1d36de6c21e8553103c72cd644650cab,western_union,BP CORRESPONSAL ARIEL FUENTES,,Arizona,ATLANTIDA,,HN,+504 2509-2020,https://location.westernunion.com/hn/atlantida/arizona/1d36de6c21e8553103c72cd644650cab,Mo-Su 07:00-21:00,Western Union,Q861042
f7d226d08a619b0d768db21ade415119,western_union,BP-CORRESPONSAL JOSE BENITEZ,,Tela,ATLANTIDA,,HN,+504 2509-5600,https://location.westernunion.com/hn/atlantida/tela/f7d226d08a619b0d768db21ade415119,Mo-Su 07:00-19:00,Western Union,Q861042
a1166341d6d4b37d5352d756e4967f02,western_union,BP-CORRESPONSAL JOSE BENITEZ,,Tela,ATLANTIDA,,HN,+504 2509-5600,https://location.westernunion.com/hn/atlantida/tela/a1166341d6d4b37d5352d756e4967f02,Mo-Su 07:00-19:00,Western Union,Q861042
c1b32560013b96a20f6409d86711120e,western_union,FICOHSA TENGO JOSE BENITEZ,,Tela,ATLANTIDA,,HN,+504 2239-6410,https://location.westernunion.com/hn/atlantida/tela/c1b32560013b96a20f6409d86711120e,Mo-Su 07:00-22:00,Western Union,Q861042
c3f6749ddc2a2e9707621b67b1413fbe,western_union,FICOHSA TENGO JOSE BENITEZ,,Tela,ATLANTIDA,,HN,+504 2239-6410,https://location.westernunion.com/hn/atlantida/tela/c3f6749ddc2a2e9707621b67b1413fbe,Mo-Su 07:00-22:00,Western Union,Q861042
9015291652bf7a21f7e82b9cb4778231,western_union,BP-CORRESPONSAL ELISEO LICONA,,Tela,ATLANTIDA,,HN,+504 2509-5600,https://location.westernunion.com/hn/atlantida/tela/9015291652bf7a21f7e82b9cb4778231,Mo-Sa 08:00-17:00,Western Union,Q861042
d882776ba6e58ef2774b286d3ee25258,western_union,BP-CORRESPONSAL ELISEO LICONA,,Tela,ATLANTIDA,,HN,+504 2509-5600,https://location.westernunion.com/hn/atlantida/tela/d882776ba6e58ef2774b286d3ee25258,Mo-Sa 08:00-17:00,Western Union,Q861042
a07455bee32d8df4f8276fedc4043288,western_union,FICOHSA TENGO WENDY BROWN,,Tela,ATLANTIDA,,HN,+504 2239-6410,https://location.westernunion.com/hn/atlantida/tela/a07455bee32d8df4f8276fedc4043288,Mo-Su 07:00-18:00,Western Union,Q861042
a0c15bc4bd41eaae18f089f4573441fe,western_union,FICOHSA TENGO WENDY BROWN,,Tela,ATLANTIDA,,HN,+504 2239-6410,https://location.westernunion.com/hn/atlantida/tela/a0c15bc4bd41eaae18f089f4573441fe,Mo-Su 07:00-18:00,Western Union,Q861042
a467526de23b4f45d5b44c778fe9b333,western_union,BP-CORRESPONSAL WENDY BROWN,,Tela,ATLANTIDA,,HN,+504 2509-5600,https://location.westernunion.com/hn/atlantida/tela/a467526de23b4f45d5b44c778fe9b333,Mo-Sa 08:00-19:00; Su 08:00-15:00,Western Union,Q861042
ba48fefe3d90125a36c3533dd6de432d,western_union,BP-CORRESPONSAL WENDY BROWN,,Tela,ATLANTIDA,,HN,+504 2509-5600,https://location.westernunion.com/hn/atlantida/tela/ba48fefe3d90125a36c3533dd6de432d,Mo-Sa 08:00-19:00; Su 08:00-15:00,Western Union,Q861042
0e584e1bf6d61d3ad425b90395b7d0a1,western_union,33 LC TELA - PLAZA TELA,,Tela,ATLANTIDA,,HN,+504 2239-6410,https://location.westernunion.com/hn/atlantida/tela/0e584e1bf6d61d3ad425b90395b7d0a1,Mo-Su 07:00-21:00,Western Union,Q861042
6652fd61f9402a95177efe58733877af,western_union,33 LC TELA - PLAZA TELA,,Tela,ATLANTIDA,,HN,+504 2239-6410,https://location.westernunion.com/hn/atlantida/tela/6652fd61f9402a95177efe58733877af,Mo-Su 07:00-21:00,Western Union,Q861042
d21507fda98a64dc8bb647d25a73299e,western_union,IDH AGENCIA TELA,,Tela,ATLANTIDA,,HN,+504 2232-9500,https://location.westernunion.com/hn/atlantida/tela/d21507fda98a64dc8bb647d25a73299e,Mo-Fr 08:00-16:00; Sa 08:00-12:00,Western Union,Q861042
845f2bafde64c69ae1a152e71726f9b1,western_union,IDH AGENCIA TELA,,Tela,ATLANTIDA,,HN,+504 2232-9500,https://location.westernunion.com/hn/atlantida/tela/845f2bafde64c69ae1a152e71726f9b1,Mo-Fr 08:00-16:00; Sa 08:00-12:00,Western Union,Q861042
2a0ce64d015e1c2ccfb3ac22da99ec10,western_union,7B03 SAN ANTONIO MARIA CLARET TELA,,Tela,ATLANTIDA,,HN,+504 2232-9500,https://location.westernunion.com/hn/atlantida/tela/2a0ce64d015e1c2ccfb3ac22da99ec10,Mo-Su 10:00-19:00,Western Union,Q861042
0b46647ff89ada363835e95dd52845fd,western_union,FICOHSA TENGO F SIMAN TELA 3,,Tela,ATLANTIDA,,HN,+504 3175-4481,https://location.westernunion.com/hn/atlantida/tela/0b46647ff89ada363835e95dd52845fd,Mo-Fr 07:00-23:00; Sa 07:00-22:00; Su 07:00-21:00,Western Union,Q861042
8f7cdfd84590abfc99f7c4df15e4b6d2,western_union,FICOHSA TENGO F SIMAN TELA 3,,Tela,ATLANTIDA,,HN,+504 3175-4456,https://location.westernunion.com/hn/atlantida/tela/8f7cdfd84590abfc99f7c4df15e4b6d2,Mo-Fr 07:00-23:00; Sa 07:00-22:00; Su 07:00-21:00,Western Union,Q861042
9602431ca1e6f5ef220a39bcf410db6b,western_union,CORELSA MAXIDESPENSA TELA,,Tela,ATLANTIDA,,HN,+504 2232-9500,https://location.westernunion.com/hn/atlantida/tela/9602431ca1e6f5ef220a39bcf410db6b,Mo-Su 09:00-18:00,Western Union,Q861042
36643ae8108f3855bdb3ded50fe49101,western_union,CORELSA MAXIDESPENSA TELA,,Tela,ATLANTIDA,,HN,+504 2232-9500,https://location.westernunion.com/hn/atlantida/tela/36643ae8108f3855bdb3ded50fe49101,Mo-Su 09:00-18:00,Western Union,Q861042
a8ae0174af4940dff87074b571ff980f,western_union,BANCO OCCIDENTE TELA,,Tela,ATLANTIDA,,HN,+504 2232-9500,https://location.westernunion.com/hn/atlantida/tela/a8ae0174af4940dff87074b571ff980f,Mo-Fr 08:45-16:15; Sa 08:30-11:30,Western Union,Q861042
c91dbe4891b752f7eeaeb2c78702407e,western_union,BANCO OCCIDENTE TELA,,Tela,ATLANTIDA,,HN,+504 2290-4100,https://location.westernunion.com/hn/atlantida/tela/c91dbe4891b752f7eeaeb2c78702407e,Mo-Fr 08:45-16:15; Sa 08:30-11:30,Western Union,Q861042
44f30271e147cc8d98d30b61584ca365,western_union,9452 BANCO AZTECA ITK TELA,,Tela,ATLANTIDA,,HN,+504 2264-1404,https://location.westernunion.com/hn/atlantida/tela/44f30271e147cc8d98d30b61584ca365,Mo-Su 08:00-20:00,Western Union,Q861042
6c145a6f8cd8b5f78b56fea447d2f248,western_union,FICOHSA TENGO F SIMAN TELA 2,,Tela,ATLANTIDA,,HN,+504 3175-4456,https://location.westernunion.com/hn/atlantida/tela/6c145a6f8cd8b5f78b56fea447d2f248,Mo-Fr 07:00-23:00; Sa 07:00-22:00; Su 07:00-21:00,Western Union,Q861042
c6cc8d30de95187c63f2f01f262f75d0,western_union,FICOHSA TENGO F SIMAN TELA 2,,Tela,ATLANTIDA,,HN,+504 3175-4480,https://location.westernunion.com/hn/atlantida/tela/c6cc8d30de95187c63f2f01f262f75d0,Mo-Fr 07:00-23:00; Sa 07:00-22:00; Su 07:00-21:00,Western Union,Q861042
9258c9871ca46538eb29aebcec827167,western_union,BP-CORRESPONSAL MARIA SANCHEZ,,Tela,ATLANTIDA,,HN,+504 2509-5600,https://location.westernunion.com/hn/atlantida/tela/9258c9871ca46538eb29aebcec827167,Mo-Sa 08:00-17:00,Western Union,Q861042
1fe6139205b3a565aee24d8e5b22ff3a,western_union,BP-CORRESPONSAL MARIA SANCHEZ,,Tela,ATLANTIDA,,HN,+504 2509-5600,https://location.westernunion.com/hn/atlantida/tela/1fe6139205b3a565aee24d8e5b22ff3a,Mo-Sa 08:00-17:00,Western Union,Q861042
78963216ad3ffb2e651898592e4d8e50,western_union,DF TELA,,Tela,ATLANTIDA,,HN,+504 2265-8100,https://location.westernunion.com/hn/atlantida/tela/78963216ad3ffb2e651898592e4d8e50,Mo-Su 08:00-20:00,Western Union,Q861042
1f91c10bfc4adc1d08c81dd13d8e8773,western_union,DF TELA,,Tela,ATLANTIDA,,HN,+504 2265-8100,https://location.westernunion.com/hn/atlantida/tela/1f91c10bfc4adc1d08c81dd13d8e8773,Mo-Su 08:00-20:00,Western Union,Q861042
cc0de70e4ad40d58bc721b5cc01b932e,western_union,FARMACIAS EL AHORRO TELA,,Tela,ATLANTIDA,,HN,+504 2232-9500,https://location.westernunion.com/hn/atlantida/tela/cc0de70e4ad40d58bc721b5cc01b932e,Mo-Fr 08:00-23:00; Sa 08:00-22:00; Su 07:00-19:00,Western Union,Q861042
5515cd86a886da2d74c2b01b0cfb465a,western_union,FICOHSA TENGO KIELSA K077,,Tela,ATLANTIDA,,HN,+504 8985-1682,https://location.westernunion.com/hn/atlantida/tela/5515cd86a886da2d74c2b01b0cfb465a,Mo-Sa 07:00-20:30; Su 08:00-16:30,Western Union,Q861042
bc0898cdc60bd7e1ec71189545f8e670,western_union,SAGRADA FAMILIA TELA,,Tela,ATLANTIDA,,HN,+504 2232-9500,https://location.westernunion.com/hn/atlantida/tela/bc0898cdc60bd7e1ec71189545f8e670,Mo-Fr 08:30-16:00; Sa 08:00-11:30,Western Union,Q861042
8fb4dd20e324edfd3281f00510d0bcc1,western_union,BANPAIS AGENCIA TELA,,Tela,ATLANTIDA,,HN,+504 2232-9500,https://location.westernunion.com/hn/atlantida/tela/8fb4dd20e324edfd3281f00510d0bcc1,Mo-Fr 08:00-15:30; Sa 08:00-12:00,Western Union,Q861042
ccd43120151041811ea28409111ef620,western_union,BANPAIS AGENCIA TELA,,Tela,ATLANTIDA,,HN,+504 2232-9500,https://location.westernunion.com/hn/atlantida/tela/ccd43120151041811ea28409111ef620,Mo-Fr 08:00-15:30; Sa 08:00-12:00,Western Union,Q861042
3584bdbbd101dd839a4aacce25d8a4cd,western_union,7623 BANCO AZTECA DAZ TELA,,Tela,ATLANTIDA,,HN,+504 2264-1460,https://location.westernunion.com/hn/atlantida/tela/3584bdbbd101dd839a4aacce25d8a4cd,Mo-Su 08:00-20:00,Western Union,Q861042
bb4e8742268332ec3ccfa6c4a09299b4,western_union,BANCO POPULAR AGENCIA TELA,,Tela,ATLANTIDA,,HN,+504 2232-9500,https://location.westernunion.com/hn/atlantida/tela/bb4e8742268332ec3ccfa6c4a09299b4,Mo-Fr 08:00-18:00; Sa 08:00-12:00,Western Union,Q861042
77d3f30578a69fcb6b4d5ad473e0f3b6,western_union,BANCO POPULAR AGENCIA TELA,,Tela,ATLANTIDA,,HN,+504 2232-9500,https://location.westernunion.com/hn/atlantida/tela/77d3f30578a69fcb6b4d5ad473e0f3b6,Mo-Fr 08:00-18:00; Sa 08:00-12:00,Western Union,Q861042
c30ca34031bfe8a6052437a0dd035a30,western_union,FICOHSA TENGO KIELSA K108,,Tela,ATLANTIDA,,HN,+504 9987-7729,https://location.westernunion.com/hn/atlantida/tela/c30ca34031bfe8a6052437a0dd035a30,Mo-Su 07:00-22:00,Western Union,Q861042
6cf2b9fd21d3f7992bf56d2dfa1e8306,western_union,FICOHSA TENGO KIELSA K108,,Tela,ATLANTIDA,,HN,+504 9987-7729,https://location.westernunion.com/hn/atlantida/tela/6cf2b9fd21d3f7992bf56d2dfa1e8306,Mo-Su 07:00-22:00,Western Union,Q861042
34942233e5c66a964da48e1d8828c27c,western_union,FICOHSA TENGO F SIMAN TELA 1,,Tela,ATLANTIDA,,HN,+504 3175-4456,https://location.westernunion.com/hn/atlantida/tela/34942233e5c66a964da48e1d8828c27c,Mo-Fr 07:00-23:00; Sa 07:00-22:00; Su 07:00-21:00,Western Union,Q861042
d1d238a2cfc38070f6b7ef15a1cb5f25,western_union,FICOHSA TENGO F SIMAN TELA 1,,Tela,ATLANTIDA,,HN,+504 3175-4479,https://location.westernunion.com/hn/atlantida/tela/d1d238a2cfc38070f6b7ef15a1cb5f25,Mo-Fr 07:00-23:00; Sa 07:00-22:00; Su 07:00-21:00,Western Union,Q861042
70662dc26cabdf78f0eb80204af9d555,western_union,7B03 SAN ANTONIO MARIA CLARET TELA,,Tela,ATLANTIDA,,HN,+504 2232-9500,https://location.westernunion.com/hn/atlantida/tela/70662dc26cabdf78f0eb80204af9d555,Mo-Fr 10:00-19:00; Sa 10:00-15:00,Western Union,Q861042
faad1bf6a5a7bbdfd0cdd1c20ae68686,western_union,BP-CORRESPONSAL ELISEO R LICONA AVILA,,Tela,ATLANTIDA,,HN,+504 2566-2020,https://location.westernunion.com/hn/atlantida/tela/faad1bf6a5a7bbdfd0cdd1c20ae68686,Mo-Sa 07:00-17:30,Western Union,Q861042
0557ac20f5de44f00c974f6f63b7d857,western_union,444 DEPOSITO Y PULPERIA MURILLO,,Tela,ATLANTIDA,,HN,+504 2448-1317,https://location.westernunion.com/hn/atlantida/tela/0557ac20f5de44f00c974f6f63b7d857,Mo-Su 06:30-20:00,Western Union,Q861042
43b80507460815c430618b097b2e844d,western_union,BP-CORRESPONSAL JERRY AGUILUZ,,Tela,ATLANTIDA,,HN,+504 2509-5600,https://location.westernunion.com/hn/atlantida/tela/43b80507460815c430618b097b2e844d,Mo-Su 08:00-17:00,Western Union,Q861042
c2c259885d2c1288e4d015a531a04816,western_union,BP-CORRESPONSAL JERRY AGUILUZ,,Tela,ATLANTIDA,,HN,+504 2509-5600,https://location.westernunion.com/hn/atlantida/tela/c2c259885d2c1288e4d015a531a04816,Mo-Su 08:00-17:00,Western Union,Q861042
6055d5ea9135c741452f0ab8408ef7b5,western_union,BANCO OCCIDENTE CENTRO MED LANCETILLA,,Tela,ATLANTIDA,,HN,+504 2780-3757,https://location.westernunion.com/hn/atlantida/tela/6055d5ea9135c741452f0ab8408ef7b5,Mo-Fr 08:45-16:15; Sa 08:45-12:00; Su 09:00-15:00,Western Union,Q861042
739d1f6696f826d118678b5a410d4c82,western_union,BANCO OCCIDENTE CENTRO MED LANCETILLA,,Tela,ATLANTIDA,,HN,+504 2780-3757,https://location.westernunion.com/hn/atlantida/tela/739d1f6696f826d118678b5a410d4c82,Mo-Fr 08:45-16:15; Sa 08:45-12:00; Su 09:00-15:00,Western Union,Q861042
f49060b81ed84d08e08bea2e37866094,western_union,BANPAIS VNT CENTRO MEDICO LANCETILLA,,Tela,ATLANTIDA,,HN,+504 2566-2020,https://location.westernunion.com/hn/atlantida/tela/f49060b81ed84d08e08bea2e37866094,Mo-Fr 09:00-16:00; Sa 09:00-12:00,Western Union,Q861042
0d109724ede370a37d33f277a84679cd,western_union,SELMEDIC TELA,,Tela,ATLANTIDA,,HN,+504 2232-9500,https://location.westernunion.com/hn/atlantida/tela/0d109724ede370a37d33f277a84679cd,Mo-Sa 06:00-19:00,Western Union,Q861042
9544d50118274c796d9a77786a251b6a,western_union,SELMEDIC TELA,,Tela,ATLANTIDA,,HN,+504 2232-9500,https://location.westernunion.com/hn/atlantida/tela/9544d50118274c796d9a77786a251b6a,Mo-Sa 06:00-19:00,Western Union,Q861042
bdbefab7f2f2bfd29e3d5213e72119fb,western_union,DF VENECIA,,Tela,ATLANTIDA,,HN,+504 2265-8100,https://location.westernunion.com/hn/atlantida/tela/bdbefab7f2f2bfd29e3d5213e72119fb,Mo-Su 08:00-20:00,Western Union,Q861042
34d2ad8ad7ee86de868c47301905254d,western_union,DF VENECIA,,Tela,ATLANTIDA,,HN,+504 2265-8100,https://location.westernunion.com/hn/atlantida/tela/34d2ad8ad7ee86de868c47301905254d,Mo-Su 08:00-20:00,Western Union,Q861042
18370b7eb75656787141c8a80385a9a6,western_union,470 VENECIAS MART,,Tela,ATLANTIDA,,HN,+504 2448-5587,https://location.westernunion.com/hn/atlantida/tela/18370b7eb75656787141c8a80385a9a6,Mo-Su 06:00-18:00,Western Union,Q861042
d06ea9aed8be1746b49e0a406e8376d0,western_union,BP- CORRESPONSAL WELNER J CRUZ MALDONADO,,Tela,ATLANTIDA,,HN,+504 2566-2020,https://location.westernunion.com/hn/atlantida/tela/d06ea9aed8be1746b49e0a406e8376d0,Mo-Su 07:00-19:00,Western Union,Q861042
bf667edc58c4fadf31f88a7c53860421,western_union,BP- CORRESPONSAL WELNER J CRUZ MALDONADO,,Tela,ATLANTIDA,,HN,+504 2566-2020,https://location.westernunion.com/hn/atlantida/tela/bf667edc58c4fadf31f88a7c53860421,Mo-Su 07:00-19:00,Western Union,Q861042
f07195a38831af6aa1c13e8fe1476ae7,western_union,FICOHSA TENGO RINA ORTEZ,,Tela,ATLANTIDA,,HN,+504 2239-6410,https://location.westernunion.com/hn/atlantida/tela/f07195a38831af6aa1c13e8fe1476ae7,Mo-Su 07:00-18:00,Western Union,Q861042
ced93d6e3a542eb3e42992fc6dd29761,western_union,FICOHSA TENGO RINA ORTEZ,,Tela,ATLANTIDA,,HN,+504 2239-6410,https://location.westernunion.com/hn/atlantida/tela/ced93d6e3a542eb3e42992fc6dd29761,Mo-Su 07:00-18:00,Western Union,Q861042
ce4bf58cb9312469e46e1b4043a1ad3d,western_union,FICOHSA TENGO KEVIN DAVID MALDONADO,,Tela,ATLANTIDA,,HN,+504 2239-6410,https://location.westernunion.com/hn/atlantida/tela/ce4bf58cb9312469e46e1b4043a1ad3d,Mo-Su 07:00-22:00,Western Union,Q861042
6bd25f31bd1a31a7223cb1a471920057,western_union,FICOHSA TENGO KEVIN DAVID MALDONADO,,Tela,ATLANTIDA,,HN,+504 2239-6410,https://location.westernunion.com/hn/atlantida/tela/6bd25f31bd1a31a7223cb1a471920057,Mo-Su 07:00-22:00,Western Union,Q861042
8208f29e756c5e050b5785eb6d71c5af,western_union,BP-CORRESPONSAL BETY MARTINEZ,,Tela,ATLANTIDA,,HN,+504 2509-5612,https://location.westernunion.com/hn/atlantida/tela/8208f29e756c5e050b5785eb6d71c5af,Mo-Sa 07:00-17:00; Su 07:00-24:00,Western Union,Q861042
4070e79f5d34b526c7de883923cc9b5b,western_union,BP-CORRESPONSAL BETY MARTINEZ,,Tela,ATLANTIDA,,HN,+504 2509-5612,https://location.westernunion.com/hn/atlantida/tela/4070e79f5d34b526c7de883923cc9b5b,Mo-Sa 07:00-17:00; Su 07:00-24:00,Western Union,Q861042
2fdf538ddf36d89ee8e7d4cae28aeb6e,western_union,BP-CORRESPONSAL SAMUEL CRUZ,,Tela,ATLANTIDA,,HN,+504 2509-5600,https://location.westernunion.com/hn/atlantida/tela/2fdf538ddf36d89ee8e7d4cae28aeb6e,Mo-Sa 07:00-19:00,Western Union,Q861042
c4566b5439e9bc7e889d76f14933e546,western_union,BP-CORRESPONSAL SAMUEL CRUZ,,Tela,ATLANTIDA,,HN,+504 2509-5600,https://location.westernunion.com/hn/atlantida/tela/c4566b5439e9bc7e889d76f14933e546,Mo-Sa 07:00-19:00,Western Union,Q861042
ea2f0b8796b5209cdc894cc7a77b1c16,western_union,BANPAIS VENTANILLA EMSULA,,Ceiba,ATLANTIDA,,HN,+504 2232-9500,https://location.westernunion.com/hn/atlantida/ceiba/ea2f0b8796b5209cdc894cc7a77b1c16,Mo-Sa 13:00-20:00,Western Union,Q861042
68970da4f3d1f3f83616d42217b00336,western_union,ELENA GAITAN,,Arizona,ATLANTIDA,,HN,+504 2232-9500,https://location.westernunion.com/hn/atlantida/arizona/68970da4f3d1f3f83616d42217b00336,Mo-Su 08:00-17:30,Western Union,Q861042
c5dae21ff9507c11b1a2aa9c49319dd0,western_union,AIRPAK INDEP OSCAR ARMANDO NO,,Tela,ATLANTIDA,,HN,+504 2232-9500,https://location.westernunion.com/hn/atlantida/tela/c5dae21ff9507c11b1a2aa9c49319dd0,Mo-Fr 07:00-17:00; Sa 07:00-14:00; Su 07:00-10:00,Western Union,Q861042
