Ref,Spider,Name,Address,City,State,Zipcode,Country,Phone,Website,Hours,Brand,WikiData
10021633,shell,SH N EXPRESSWAY DAU PAMP,,MABALACAT,Pampanga,,PH,+63 45 458 0990,https://find.shell.com/ph/fuel/10021633-sh-n-expressway-dau-pamp,24/7,Shell,Q110716465
10021566,shell,SH MCARTHUR DAU MABALACAT,,MABALACAT,Pampanga,,PH,+63 45 458 3163,https://find.shell.com/ph/fuel/10021566-sh-mcarthur-dau-mabalacat,24/7,Shell,Q110716465
12481140,shell,SH MABIGA MABALACAT PAMP,,PAMPANGA CITY,Pampanga,,PH,+63 2 8370 4120,https://find.shell.com/ph/fuel/12481140-sh-mabiga-mabalacat-pamp,24/7,Shell,Q110716465
12305267,shell,SH MCARTHUR MABALACAT PAM,,MABALACAT CITY,Pampanga,,PH,+63 45 331 8808,https://find.shell.com/ph/fuel/12305267-sh-mcarthur-mabalacat-pam,24/7,Shell,Q110716465
,visa,,,MABALACAT,PAMPANGA,,PH,,,,,
c86293765dc556ad16c4ff02124e65f9,western_union,MLI DAU 2 PAMPANGA,,Mabalacat,PAMPANGA,,PH,+63 32 345 6476,https://location.westernunion.com/ph/pampanga/mabalacat/c86293765dc556ad16c4ff02124e65f9,Mo-Sa 08:00-19:00; Su 08:00-18:00,Western Union,Q861042
1f00b35fb32fe3d7f6409a1b92dacd1a,western_union,BDO PAMPANGA  PUREGOLD DAU,,Mabalacat,PAMPANGA,,PH,(+63) 02-6318000,https://location.westernunion.com/ph/pampanga/mabalacat/1f00b35fb32fe3d7f6409a1b92dacd1a,Mo-We 09:00-18:00; Th 08:30-17:30; Fr-Sa 09:00-18:00,Western Union,Q861042
cdd69bef9e9d1479d852b04d31163e8c,western_union,USSC SERVICE STORE - DAU,,Mabalacat,PAMPANGA,,PH,(+63) 02-4492973,https://location.westernunion.com/ph/pampanga/mabalacat/cdd69bef9e9d1479d852b04d31163e8c,Mo-Fr 08:00-19:00; Sa 08:00-18:00; Su 08:00-17:00,Western Union,Q861042
b79b15f69baacae025498de99d0f8885,western_union,EBIZ DAU,,Mabalacat,PAMPANGA,,PH,(+63) 02-0458884261,https://location.westernunion.com/ph/pampanga/mabalacat/b79b15f69baacae025498de99d0f8885,Mo-Su 07:00-17:00,Western Union,Q861042
4bcacbd04e1e490e5d3f57488f0044f9,western_union,LBC EXPRESS INC,,Mabalacat,PAMPANGA,,PH,(+63) 02-8585999,https://location.westernunion.com/ph/pampanga/mabalacat/4bcacbd04e1e490e5d3f57488f0044f9,Mo-Su 07:00-19:00,Western Union,Q861042
0163b9519d87da68918f75857a0ce65d,western_union,CLH LAKANDULA DAU,,Mabalacat,PAMPANGA,,PH,+63 2 7759 9800,https://location.westernunion.com/ph/pampanga/mabalacat/0163b9519d87da68918f75857a0ce65d,Mo-Su 08:00-18:00,Western Union,Q861042
ec62e5192ce994d7277a8d1a0e3d2747,western_union,PETNET PUREGOLD MABALACAT,,Mabalacat,PAMPANGA,,PH,+63 45 892 4848,https://location.westernunion.com/ph/pampanga/mabalacat/ec62e5192ce994d7277a8d1a0e3d2747,Mo-Su 08:00-20:00,Western Union,Q861042
67d60ddfa15924b352fc4c3390bae398,western_union,CLH DAU 2,,Mabalacat,PAMPANGA,,PH,+63 2 7759 9800,https://location.westernunion.com/ph/pampanga/mabalacat/67d60ddfa15924b352fc4c3390bae398,Mo-Sa 07:00-19:00; Su 08:00-17:00,Western Union,Q861042
e467203c09ab62b28932991145511712,western_union,PFSI PAMPANGA-MABALACAT CITY-DAU HIGHWAY,,Mabalacat,PAMPANGA,,PH,+63 83 434 8596,https://location.westernunion.com/ph/pampanga/mabalacat/e467203c09ab62b28932991145511712,Mo-Su 08:00-17:30,Western Union,Q861042
905b2e4acd909596f20a5bbbfbcc22f0,western_union,PALAWAN PAWNSHOP-DAU JENRA,,Mabalacat,PAMPANGA,,PH,(+63) 4348596,https://location.westernunion.com/ph/pampanga/mabalacat/905b2e4acd909596f20a5bbbfbcc22f0,Mo-Su 08:00-17:30,Western Union,Q861042
06c7d51f57ca503082f7dda8a81b1390,western_union,CLH DAU 1,,Mabalacat,PAMPANGA,,PH,+63 2 7759 9800,https://location.westernunion.com/ph/pampanga/mabalacat/06c7d51f57ca503082f7dda8a81b1390,Mo-Sa 08:00-19:00; Su 08:00-17:00,Western Union,Q861042
f470f176c8c5582849253de08c05e058,western_union,CLH DAU 3,,Mabalacat,PAMPANGA,,PH,+63 2 7759 9800,https://location.westernunion.com/ph/pampanga/mabalacat/f470f176c8c5582849253de08c05e058,Mo-Sa 07:00-20:00; Su 08:00-17:00,Western Union,Q861042
e43124fd4c336b3de0378dc1360b9117,western_union,HL VILLARICA PAWNSHOP INC MABALACAT,,Mabalacat,PAMPANGA,,PH,(+63) 02-5556012,https://location.westernunion.com/ph/pampanga/mabalacat/e43124fd4c336b3de0378dc1360b9117,Mo-Sa 08:00-18:00; Su 08:00-17:00,Western Union,Q861042
8c23b29be153252f3c368d3727e2b7e2,western_union,SM HYPERMARKET   PAMPANGA,,Mabalacat,PAMPANGA,,PH,+63 2 8631 8000,https://location.westernunion.com/ph/pampanga/mabalacat/8c23b29be153252f3c368d3727e2b7e2,Mo-Su 08:00-20:00,Western Union,Q861042
45d99228a1eb9fb0718c8c3ca1ae0d0a,western_union,BDO SM HYPERMARKET MABALACAT,,Mabalacat,PAMPANGA,,PH,(+63) 02-6318000,https://location.westernunion.com/ph/pampanga/mabalacat/45d99228a1eb9fb0718c8c3ca1ae0d0a,Mo-We 09:00-18:00; Th 08:30-17:30; Fr-Sa 09:00-18:00,Western Union,Q861042
bc59031c643764f01918b2da1feec118,western_union,LBC EXPRESS INC,,Mabalacat,PAMPANGA,,PH,(+63) 02-8585999,https://location.westernunion.com/ph/pampanga/mabalacat/bc59031c643764f01918b2da1feec118,Mo-Sa 07:00-18:00; Su 08:00-17:00,Western Union,Q861042
851b43d6e99ec17398136befe36cdcda,western_union,PRODUCERS BANK DAU,,Mabalacat,PAMPANGA,,PH,+63 45 892 4730,https://location.westernunion.com/ph/pampanga/mabalacat/851b43d6e99ec17398136befe36cdcda,Mo-Sa 09:00-17:00,Western Union,Q861042
b88d5c9be4844ca9c4e442bebbee9d10,western_union,USSC SERVICE STORE DAU CITY MALL,,Mabalacat,PAMPANGA,,PH,+63 45 409 1381,https://location.westernunion.com/ph/pampanga/mabalacat/b88d5c9be4844ca9c4e442bebbee9d10,Mo-Su 09:00-21:00,Western Union,Q861042
1440f5d99c4b780c8903efc1a8e042bf,western_union,MYSINAG GLOBAL REMIT INC. -MABALACAT,,Mabalacat City,PAMPANGA,,PH,+63 905 885 8727,https://location.westernunion.com/ph/pampanga/mabalacat-city/1440f5d99c4b780c8903efc1a8e042bf,Mo-Su 08:00-17:00,Western Union,Q861042
8c5dbe4d27e291cdebb52ddcd8ca4c2f,western_union,GAB28 SARI SARI STORE,,Mabalacat,PAMPANGA,,PH,+63 929 610 7766,https://location.westernunion.com/ph/pampanga/mabalacat/8c5dbe4d27e291cdebb52ddcd8ca4c2f,Mo-Su 07:00-19:00,Western Union,Q861042
36f14c5e625ea07560e5bc74ee6285c4,western_union,USSC SERVICE STORE - PAMPANGA PUREGOLD M,,Mabalacat,PAMPANGA,,PH,+63 995 874 7401,https://location.westernunion.com/ph/pampanga/mabalacat/36f14c5e625ea07560e5bc74ee6285c4,Mo-Su 08:00-19:00,Western Union,Q861042
c6881089b11042c6c03ea51920e15362,western_union,LBC EXPRESS INC,,Mabalacat,PAMPANGA,,PH,(+63) 02-8585999,https://location.westernunion.com/ph/pampanga/mabalacat/c6881089b11042c6c03ea51920e15362,Mo-Su 07:00-19:00,Western Union,Q861042
768b4b9bac3e437afd79109b322640d1,western_union,MLI MABALACAT 2 PAM,,Mabalacat,PAMPANGA,,PH,(+63) 02-8410642,https://location.westernunion.com/ph/pampanga/mabalacat/768b4b9bac3e437afd79109b322640d1,Mo-Su 07:00-18:00,Western Union,Q861042
554b53f76f6ccc7e748560391d8bfd7b,western_union,MLI DAU 3 PAMPANGA,,Mabalacat,PAMPANGA,,PH,+63 32 345 6476,https://location.westernunion.com/ph/pampanga/mabalacat/554b53f76f6ccc7e748560391d8bfd7b,Mo-Su 07:00-22:00,Western Union,Q861042
46942884d353da4d3bd660a2ec6b0f52,western_union,CLH MABALACAT,,Mabalacat,PAMPANGA,,PH,+63 2 7759 9800,https://location.westernunion.com/ph/pampanga/mabalacat/46942884d353da4d3bd660a2ec6b0f52,Mo-Sa 07:00-19:00; Su 08:00-17:00,Western Union,Q861042
69c93354fb734912802aa8b822006291,western_union,VILLARICA PAWNSHOP INC MABALACAT 2,,Mabalacat,PAMPANGA,,PH,+63 935 331 1697,https://location.westernunion.com/ph/pampanga/mabalacat/69c93354fb734912802aa8b822006291,Mo-Sa 08:00-18:00; Su 08:00-17:00,Western Union,Q861042
4f49fe1cd9fe34a1a66c71f7efab8a5c,western_union,DATAFIX CALL COPY AND CYBER CNTR,,Mabalacat City,PAMPANGA,,PH,+63 917 732 0761,https://location.westernunion.com/ph/pampanga/mabalacat-city/4f49fe1cd9fe34a1a66c71f7efab8a5c,Mo-Sa 08:00-17:00,Western Union,Q861042
74ebfb7e387ba511558454e69e230c0f,western_union,PALAWAN PAWNSHOP  MABALACAT,,Mabalacat,PAMPANGA,,PH,+63 45 434 8596,https://location.westernunion.com/ph/pampanga/mabalacat/74ebfb7e387ba511558454e69e230c0f,Mo-Su 08:00-17:30,Western Union,Q861042
46610e56d0cb37fe0e11a0a5395d7dc1,western_union,MLI DOLORES MABALACAT PAMPANGA,,Mabalacat,PAMPANGA,,PH,+63 32 345 6476,https://location.westernunion.com/ph/pampanga/mabalacat/46610e56d0cb37fe0e11a0a5395d7dc1,Mo-Su 07:00-18:00,Western Union,Q861042
d6e84aa3fde284b2beb061932e7fedad,western_union,MLI MAWAQUE PAMPANGA,,Mabalacat,PAMPANGA,,PH,+63 32 345 6476,https://location.westernunion.com/ph/pampanga/mabalacat/d6e84aa3fde284b2beb061932e7fedad,Mo-Su 07:00-18:00,Western Union,Q861042
57ce887b4fc3a5c2d570a2557069dc3d,western_union,CLH MAUAQUE RESETTLEMENT,,Mabalacat,PAMPANGA,,PH,+63 2 7759 9800,https://location.westernunion.com/ph/pampanga/mabalacat/57ce887b4fc3a5c2d570a2557069dc3d,Mo-Sa 07:00-18:00,Western Union,Q861042
ecf75132d64bc98f8df78202b1420927,western_union,MLI MABIGA PAMPANGA,,Mabalacat,PAMPANGA,,PH,+63 32 345 6476,https://location.westernunion.com/ph/pampanga/mabalacat/ecf75132d64bc98f8df78202b1420927,Mo-Su 07:00-18:00,Western Union,Q861042
88deb62cee53ab42aedbd9309f510ab7,western_union,PS-JOLAS PAWNSHOP,,Mabalacat,PAMPANGA,,PH,+63 905 199 2634,https://location.westernunion.com/ph/pampanga/mabalacat/88deb62cee53ab42aedbd9309f510ab7,Mo-Su 07:00-19:00,Western Union,Q861042
c10560f745647034cd95c8d7075af26b,western_union,JODALYX DOLLAR EXCHANGE - MAWA,,Mabalacat,PAMPANGA,,PH,(+63) 02-4492973,https://location.westernunion.com/ph/pampanga/mabalacat/c10560f745647034cd95c8d7075af26b,Mo-Su 08:30-18:30,Western Union,Q861042
fb4179cb966d411deb6e47055b30163d,western_union,CLH MABIGA,,Mabalacat,PAMPANGA,,PH,+63 2 7759 9800,https://location.westernunion.com/ph/pampanga/mabalacat/fb4179cb966d411deb6e47055b30163d,Mo-Sa 07:00-18:00; Su 08:00-17:00,Western Union,Q861042
22e992f8f7a1ad91cf04b1f5108520b1,western_union,LEMON MONEY CHANGER- MAUAQUE,,Mabalacat,PAMPANGA,,PH,+63 927 420 7188,https://location.westernunion.com/ph/pampanga/mabalacat/22e992f8f7a1ad91cf04b1f5108520b1,Mo-Su 07:00-18:00,Western Union,Q861042
a186ed97646f1a651171e68e776b9cef,western_union,CLH MADAPDAP,,Mabalacat,PAMPANGA,,PH,+63 2 7759 9800,https://location.westernunion.com/ph/pampanga/mabalacat/a186ed97646f1a651171e68e776b9cef,Mo-Sa 07:00-18:00; Su 08:00-17:00,Western Union,Q861042
5843f90987605dff55aee1b4a14670e8,western_union,MLI BUNDAGUL MABALACAT PAMPANGA,,Mabalacat,PAMPANGA,,PH,(+63) 88923159,https://location.westernunion.com/ph/pampanga/mabalacat/5843f90987605dff55aee1b4a14670e8,Mo-Su 08:00-17:00,Western Union,Q861042
bc969f3bb55e0ba4a4cf0408002f60f7,western_union,PFSI PAMPANGA-MABALACAT CITY-MADAPDAP,,Mabalacat,PAMPANGA,,PH,+63 83 434 8596,https://location.westernunion.com/ph/pampanga/mabalacat/bc969f3bb55e0ba4a4cf0408002f60f7,Mo-Su 08:00-17:30,Western Union,Q861042
58f3d6f15d287eef55cf5bdee6fbb186,western_union,MLI MADAPDAP PAMPANGA,,Mabalacat,PAMPANGA,,PH,(+63) 02-8923159,https://location.westernunion.com/ph/pampanga/mabalacat/58f3d6f15d287eef55cf5bdee6fbb186,Mo-Su 07:00-18:00,Western Union,Q861042
bcb80b04a625729cc52b6a8b50891bc4,western_union,COUNTRYGEM PAWNSHOP  MABALACAT,,Mabalacat,PAMPANGA,,PH,(+63) 32-9985859059,https://location.westernunion.com/ph/pampanga/mabalacat/bcb80b04a625729cc52b6a8b50891bc4,Mo-Su 08:30-17:30,Western Union,Q861042
e267394f47678a6e9584ac1880ad1f18,western_union,ROYAL HOUSE JEWERLY & PAWNSHOP,,Mabalacat,PAMPANGA,,PH,(+63) 02-4492973,https://location.westernunion.com/ph/pampanga/mabalacat/e267394f47678a6e9584ac1880ad1f18,Mo-Su 07:30-21:00,Western Union,Q861042
