Ref,Spider,Name,Address,City,State,Zipcode,Country,Phone,Website,Hours,Brand,WikiData
https://stores.advanceautoparts.com/in/linton/1600-north-east-a-street,advance_auto_parts_us,Advance Auto Parts,,Linton,IN,,US,+1 812-847-2268,https://stores.advanceautoparts.com/in/linton/1600-north-east-a-street,Mo-Sa 07:30-21:00; Su 09:00-20:00,Advance Auto Parts,Q4686051
2019,autozone_us,AutoZone Auto Parts Linton,,Linton,IN,,US,+1 812-847-7658,https://www.autozone.com/locations/in/linton/1400-ne-a-st.html,Mo-Th 07:30-20:00; Fr-Sa 07:30-21:00; Su 09:00-20:00,AutoZone,Q4826087
203186,bluerhino,CASEY'S GENERAL STORE #1824,,LINTON,IN,,US,+1 812-416-5334,,,Blue Rhino,Q65681213
226326,bluerhino,Tractor Supply #2821,,LInton,IN,,US,+1 812-847-0816,,,Blue Rhino,Q65681213
48387,citi,ATM CVS,,Linton,IN,,US,,,,Citibank,Q857063
,credit_union_us,Crane CU,,Linton,IN,,US,+1 812-847-0777,,Mo-Th 09:00-04:00; Fr 09:00-06:00; Sa 09:00-12:00,,
https://www.edwardjones.com/us-en/financial-advisor/lucas-bishop,edwardjones,Lucas G Bishop,,Linton,IN,,US,+1 812-512-4895,https://www.edwardjones.com/us-en/financial-advisor/lucas-bishop,Mo-Fr 08:00-16:30,Edward Jones,Q5343830
2123,extra_space_storage,Linton Self Storage at 349 NW I St,,Linton,IN,,US,,https://www.extraspace.com/storage-express/storage/facilities/us/indiana/linton/2123/,Mo-Su 06:00-22:00,Extra Space Storage,Q5422162
2103,extra_space_storage,Linton Self Storage at 292 13th St NW,,Linton,IN,,US,,https://www.extraspace.com/storage-express/storage/facilities/us/indiana/linton/2103/,Mo-Su 06:00-22:00,Extra Space Storage,Q5422162
4359,fresenius_kidney_care_us,Fresenius Kidney Care Linton,,Linton,IN,,US,+1 800-881-5101,https://www.freseniuskidneycare.com/dialysis-centers/indiana/4359,Mo-Fr 06:00-20:00; Sa 06:00-22:00,,
fef0e1b2-55cb-e911-80e2-00505689ac90,goodwill,Linton,,Linton,IN,,US,+1 812-699-4262,https://www.goodwill.org/locator/location/?store=ZmVmMGUxYjItNTVjYi1lOTExLTgwZTItMDA1MDU2ODlhYzkw&lat=MzkuMDQwNTY=&lng=LTg3LjE0NDY3,,Goodwill,Q5583655
15562,h_r_block,H&R Block,,Linton,IN,,US,+1 812-847-9958,https://www.hrblock.com/local-tax-offices/indiana/linton/1209-ne-a-st/15562/,,H&R Block,Q5627799
161590,marathon_petroleum_us,KANGS PETRO PLUS,,Linton,IN,,US,+1 812-391-4590,,,Marathon,Q458363
4432,mightyflame,FAST POINT SUNOCO,,LINTON,IN,,US,+1 812-847-8160,,,Mighty Flame,
66019349,moneygram,CVS - #6706,,LINTON,IN,,US,+1 812-847-2226,,Mo-Fr 08:00-21:00; Sa 09:00-21:00; Su 10:00-18:00,MoneyGram,Q1944412
https://www.monicals.com/locations/monicals-pizza-of-linton/,monicals_pizza_us,Monicalâ€™s Pizza of Linton,,Linton,IN,,US,+1 812-847-2900,https://www.monicals.com/locations/monicals-pizza-of-linton/,,Monical's Pizza,Q6900121
6586,murphy_usa_us,,,Linton,IN,,US,+1 812-847-4416,,Mo-Sa 05:00-22:30; Su 06:00-22:30,Murphy USA,Q19604459
https://locations.northwest.bank/#38117356,northwest_bank,1450 A Street NE Linton,,Linton,IN,,US,+1 812-847-8681,https://locations.northwest.bank/in/linton/1450-a-street-ne,Mo-Th 09:00-16:00; Fr 09:00-17:00; Sa 09:00-12:00,Northwest Bank,Q7060191
https://locations.oreillyauto.com/in/linton/check-engine-light-testing-1792.html,oreilly,Your Linton O'Reilly Auto Parts Store,,Linton,IN,,US,+1 812-847-0269,https://locations.oreillyauto.com/in/linton/check-engine-light-testing-1792.html,Mo-Sa 07:00-21:00; Su 08:00-20:00,O'Reilly Auto Parts,Q7071951
https://locations.oreillyauto.com/in/linton/wiper-installation-1792.html,oreilly,Your Linton O'Reilly Auto Parts Store,,Linton,IN,,US,+1 812-847-0269,https://locations.oreillyauto.com/in/linton/wiper-installation-1792.html,Mo-Sa 07:00-21:00; Su 08:00-20:00,O'Reilly Auto Parts,Q7071951
https://locations.oreillyauto.com/in/linton/battery-testing-1792.html,oreilly,Your Linton O'Reilly Auto Parts Store,,Linton,IN,,US,+1 812-847-0269,https://locations.oreillyauto.com/in/linton/battery-testing-1792.html,Mo-Sa 07:00-21:00; Su 08:00-20:00,O'Reilly Auto Parts,Q7071951
https://locations.oreillyauto.com/in/linton/autopartes-1792.html,oreilly,Tu tienda O'Reilly Auto Parts en Linton,,Linton,IN,,US,+1 812-847-0269,https://locations.oreillyauto.com/in/linton/autopartes-1792.html,Mo-Sa 07:00-21:00; Su 08:00-20:00,O'Reilly Auto Parts,Q7071951
https://locations.papajohns.com/#14502577,papa_johns,Papa John's,,Linton,IN,,US,+1 812-512-9415,https://locations.papajohns.com/united-states/in/47441/linton/9670-w-state-rd-54,Mo-Su 11:00-22:40,Papa John's Pizza,Q2759586
in_linton_9610-w-state-road-54,pizza_hut_us,9610 W. State Road 54,,Linton,IN,,US,+1 812-847-2795,https://locations.pizzahut.com/in/linton/9610-w-state-road-54,,Pizza Hut,Q191615
riles-home-hardware-supply-67899,ppgpaints,RILES HOME HARDWARE SUPPLY,,"Linton, ",IN,,US,+1 812-699-4028,https://www.ppgpaints.com/store-locator/us/indiana/linton-paint-stores/riles-home-hardware-supply-67899,,PPG Paints,Q83891559
https://restaurants.subway.com/#14896078,subway,Subway,,Linton Greene,IN,,US,+1 812-847-0062,https://restaurants.subway.com/united-states/in/linton/140-ne-3rd-st,Mo-Su 09:00-22:00,Subway,Q244457
0927448100,sunoco_us,Sunoco,,LINTON,IN,,US,+1 812-847-8160,,Mo-Sa 05:00-01:00; Su 06:00-00:00,Sunoco,Q1423218
https://locations.tacobell.com/#6146253,taco_bell,Taco Bell,,Linton,IN,,US,+1 812-847-4995,https://locations.tacobell.com/in/linton/1459-north-east-a-street.html,Mo-Su 09:00-02:00,Taco Bell,Q752941
1370565,usps,LINTON,,LINTON,IN,,US,+1 812-847-7419,,Mo-Fr 08:30-16:30; Sa 09:00-12:30,United States Postal Service,Q668687
4744100012,usps_collection_boxes,USPS COLLECTION BOX - BLUE BOX,2251 E STATE HIGHWAY 54,LINTON,IN,,US,,,,United States Postal Service,Q668687
4744100001,usps_collection_boxes,USPS COLLECTION BOX - BLUE BOX,109 S MAIN ST,LINTON,IN,,US,,,,United States Postal Service,Q668687
4744100002,usps_collection_boxes,USPS COLLECTION BOX - BLUE BOX,109 S MAIN ST,LINTON,IN,,US,,,,United States Postal Service,Q668687
4744100013,usps_collection_boxes,USPS COLLECTION BOX - BLUE BOX,109 S MAIN ST,LINTON,IN,,US,,,,United States Postal Service,Q668687
4744100015,usps_collection_boxes,USPS COLLECTION BOX - PO LOBBY,109 S MAIN ST,LINTON,IN,,US,,,,United States Postal Service,Q668687
,visa,,,LINTON,IN,,US,,,,,
,visa,,,LINTON,IN,,US,,,,,
,visa,,,LINTON,IN,,US,,,,,
,visa,,,LINTON,IN,,US,,,,,
,visa,,,LINTON,IN,,US,,,,,
,visa,,,LINTON,IN,,US,,,,,
,visa,,,LINTON,IN,,US,,,,,
,visa,,,LINTON,IN,,US,,,,,
,visa,,,LINTON,IN,,US,,,,,
,visa,,,LINTON,IN,,US,,,,,
,visa,,,LINTON,IN,,US,,,,,
,visa,,,LINTON,IN,,US,,,,,
,visa,,,LINTON,IN,,US,,,,,
,visa,,,LINTON,IN,,US,,,,,
,visa,,,LINTON,IN,,US,,,,,
,visa,,,LINTON,IN,,US,,,,,
,visa,,,LINTON,IN,,US,,,,,
,visa,,,LINTON,IN,,US,,,,,
,visa,,,LINTON,IN,,US,,,,,
,visa,,,LINTON,IN,,US,,,,,
,visa,,,LINTON,IN,,US,,,,,
,visa,,,LINTON,IN,,US,,,,,
,visa,,,LINTON,IN,,US,,,,,
,visa,,,LINTON,IN,,US,,,,,
,visa,,,LINTON,IN,,US,,,,,
,visa,,,LINTON,IN,,US,,,,,
,visa,,,LINTON,IN,,US,,,,,
https://locations.wendys.com/#9253655,wendys,"Wendy's Linton in Linton, IN",,Linton,IN,,US,+1 812-847-9631,https://locations.wendys.com/united-states/in/linton/410-ne-a-street,"Mo-Su 06:30-10:30,09:00-22:00",Wendy's,Q550258
2d86a4aa8fb83323a437fa6c45ceb8e9,western_union,WALMART #001002,,Linton,IN,,US,+1 812-847-2127,https://location.westernunion.com/us/in/linton/2d86a4aa8fb83323a437fa6c45ceb8e9,Mo-Su 07:00-21:00,Western Union,Q861042
2024,world_finance_us,,"1600 A St NE Ste 6, Linton, IN, 47441",Linton,IN,,US,+1 812-699-4070,https://www.loansbyworld.com/branches/branch-2024,Mo-Fr 09:00-17:30; Sa 09:00-12:00,World Finance,Q3569971
