Ref,Spider,Name,Address,City,State,Zipcode,Country,Phone,Website,Hours,Brand,WikiData
3577,action,Heinsberg,,Heinsberg,,,DE,,https://www.action.com/de-de/laden/heinsberg/,,Action,Q2634111
ESC-62,aldi_sud_de,,"Boos-Fremery-Straße 90, 52525, Heinsberg-Oberbruch, Deutschland",Heinsberg-Oberbruch,,,DE,,https://www.aldi-sued.de/de/homepage.html,Mo-Sa 08:00-20:00,ALDI Süd,Q41171672
B552,aldi_sud_de,,"Westpromenade 88, 52525, Heinsberg, Deutschland",Heinsberg,,,DE,+49 2452 106576,https://www.aldi-sued.de/de/homepage.html,Mo-Sa 08:00-20:00,ALDI Süd,Q41171672
B536,aldi_sud_de,,"Humboldtstraße 22, 52525, Heinsberg, Deutschland",Heinsberg,,,DE,+49 2452 2051,https://www.aldi-sued.de/de/homepage.html,Mo-Sa 08:00-20:00,ALDI Süd,Q41171672
B549,aldi_sud_de,,"Raiffeisenstraße 4, 52525, Waldfeucht, Deutschland",Waldfeucht,,,DE,+49 2455 398707,https://www.aldi-sued.de/de/homepage.html,Mo-Sa 08:00-20:00,ALDI Süd,Q41171672
https://vertretung.allianz.de/volker.dohmen/,allianz_de,Allianz Versicherung Volker Dohmen GENERALVERTRETUNG,,Heinsberg,,,DE,+49 2452 1809655,https://vertretung.allianz.de/volker.dohmen/,Mo-Fr 09:00-13:00,Allianz SE,Q487292
https://vertretung.allianz.de/vogels.hens/,allianz_de,Allianz Versicherung Vogels-Hens OHG GENERALVERTRETUNG,,Heinsberg,,,DE,+49 2452 88535,https://vertretung.allianz.de/vogels.hens/,"Mo-Tu 09:00-12:30,14:00-17:30; We 09:00-12:30; Th 09:00-12:30,14:00-17:30; Fr 09:00-12:30",Allianz SE,Q487292
https://vertretung.allianz.de/melanie.dehner/,allianz_de,Allianz Versicherung Melanie Dehner HAUPTVERTRETUNG,,Heinsberg,,,DE,+49 2452 1572828,https://vertretung.allianz.de/melanie.dehner/,"Mo-Tu 09:00-12:30,14:00-15:30; We 09:00-12:30; Th 09:00-12:30,14:00-15:30; Fr 09:00-12:30",Allianz SE,Q487292
https://vertretung.allianz.de/daniel.boerger/,allianz_de,Allianz Versicherung Daniel Börger HAUPTVERTRETUNG,,Heinsberg,,,DE,+49 2452 8604784,https://vertretung.allianz.de/daniel.boerger/,Mo-Th 09:00-17:00; Fr 09:00-12:30,Allianz SE,Q487292
https://vertretung.allianz.de/krieger.agentur/,allianz_de,Allianz Versicherung Krieger e.K. GENERALVERTRETUNG,,Heinsberg,,,DE,+49 2452 21785,https://vertretung.allianz.de/krieger.agentur/,"Mo-Th 09:00-13:00,14:00-18:00; Fr 09:00-13:00",Allianz SE,Q487292
https://vertretung.allianz.de/stefan.corall/,allianz_de,Allianz Versicherung Stefan Corall GENERALVERTRETUNG,,Waldfeucht,,,DE,+49 2452 4099,https://vertretung.allianz.de/stefan.corall/,"Mo 09:00-12:00,14:30-17:00; Tu-We 09:00-12:00; Th 09:00-12:00,14:30-17:00; Fr 09:00-12:00",Allianz SE,Q487292
https://vertretung.allianz.de/andreas.mergel/,allianz_de,Allianz Versicherung Andreas Mergel GENERALVERTRETUNG,,Heinsberg,,,DE,+49 2452 158410,https://vertretung.allianz.de/andreas.mergel/,"Mo 09:00-13:00; Tu-Th 09:00-13:00,15:00-18:00; Fr 09:00-13:00",Allianz SE,Q487292
04746_11,bmw_group,Kohl-Automobile GmbH,,Heinsberg,,,DE,+49 2452 913528,https://www.bmw-motorrad.de/kohl-heinsberg,,BMW,Q26678
20162300,bp,Marcus Thies,,Heinsberg,,,DE,+49 2452 7601,http://tankstelle.aral.de/tankstelle/20162300,Mo-Fr 07:00-21:00; Sa 08:00-21:00; Su 09:00-21:00,BP,Q152057
16777,burgerking,Burger King,,Heinsberg,,,DE,02452,https://www.burgerking.de/store-locator/store/restaurant_10522,Mo-Su 10:00-00:00,Burger King,Q177054
186,deutsche_telekom_de,Telekom Shop Heinsberg,,Heinsberg,,,DE,+49 2452 23004,https://shopseite.telekom.de/west/heinsberg/hochstr-124,Mo-Fr 09:30-18:30; Sa 09:30-14:30,Deutsche Telekom,Q9396
de:1066,dm,dm-drogerie markt,,Heinsberg,,,DE,+49 2452 1060864,https://www.dm.de/store/d1ka/heinsberg/hochstrasse-96,Mo-Sa 09:00-20:00,dm,Q266572
51.0579996.141301,dpd_de,NKD Deutschland GmbH,,Heinsberg,,,DE,,,,DPD,Q541030
51.0556936.063425,dpd_de,Futterscheune,,Heinsberg,,,DE,,,,DPD,Q541030
100151328,exxonmobil,Esso Station Heinsberg Janses Mattes,,HEINSBERG,,,DE,+49 2452 21061,https://www.esso.de/de-de/find-station/esso-heinsberg-essostationheinsbergjansesmattes-100151328,Mo-Fr 06:00-20:00; Sa 08:00-16:00,Esso,Q867662
100151323,exxonmobil,Esso Station Heinsberg Roermonder,,HEINSBERG,,,DE,+49 2452 989083,https://www.esso.de/de-de/find-station/esso-heinsberg-essostationheinsbergroermonder-100151323,Mo-Fr 06:00-21:00; Sa 07:00-21:00; Su 08:00-21:00,Esso,Q867662
FordGK1L750  DEU,ford,Autohaus Königs - Heinsberg,,Heinsberg,,,DE,+49 2452 91880,ford-koenigs-heinsberg.de,,Ford,Q44294
FordGK2L752  DEU,ford,Auto Evertz GmbH,,Heinsberg,,,DE,+49 2453 2343,ford-schiffgens-heinsberg.de,,Ford,Q44294
https://www.fressnapf.de/stores/fressnapf-heinsberg/,fressnapf_de,Fressnapf Heinsberg,,Heinsberg,,,DE,+49 2452 62065,https://www.fressnapf.de/stores/fressnapf-heinsberg/,Mo-Fr 09:00-19:00; Sa 09:00-18:00,Fressnapf,Q875796
2760909491,gls_de,DTS Holger Refke - KFZ Werkstatt,,Heinsberg,,,DE,+49 2452 9779922,,"Tu-Th 08:30-13:00,14:00-17:00; Fr 08:30-13:00,14:00-15:00",General Logistics Systems,Q46495823
2760913325,gls_de,Louis e.K.,,Heinsberg,,,DE,+49 2452 903990,,Mo-Fr 08:00-18:00; Sa 09:00-13:00,General Logistics Systems,Q46495823
2760916227,gls_de,WorldPhone,,Heinsberg,,,DE,+49 1522 6800985,,Mo-Fr 11:00-17:00; Sa 11:00-16:00,General Logistics Systems,Q46495823
https://kamps.de/standort/kamps-baeckerei-heinsberg-hochstrasse-109,kamps_de,Kamps,,Heinsberg,,,DE,+49 2452 101172,https://kamps.de/standort/kamps-baeckerei-heinsberg-hochstrasse-109,Mo-Fr 07:30-18:30; Sa 07:30-16:00,Kamps,Q1723381
https://kamps.de/standort/kamps-baeckerei-rewe-heinsberg-boos-fremery-str-69,kamps_de,Kamps,,Heinsberg,,,DE,+49 2452 931484,https://kamps.de/standort/kamps-baeckerei-rewe-heinsberg-boos-fremery-str-69,Mo-Sa 06:00-21:00; Su 07:00-11:00,Kamps,Q1723381
DE4393,kaufland,Kaufland Heinsberg,,Heinsberg,,,DE,+49 2452 670600,https://filiale.kaufland.de/service/filiale/frankfurt-oder-spitzkrug-multi-center-heinsberg-4393.html,Mo-Sa 07:00-22:00,Kaufland,Q685967
8048,kik,KiK,,Waldfeucht,,,DE,+49 2455 3987810,,Mo-Fr 09:00-19:00; Sa 09:00-18:00,KiK,Q883965
6962,kik,KiK,,Heinsberg,,,DE,+49 2452 1066181,,Mo-Fr 09:00-19:00; Sa 09:00-18:00,KiK,Q883965
739,kik,KiK,,Heinsberg Innenstadt,,,DE,+49 2452 101376,,Mo-Fr 09:30-19:00; Sa 09:30-18:00,KiK,Q883965
6132,lidl_de,Oberbruch,,Heinsberg,,,DE,,,Mo-Sa 07:00-21:00,Lidl,Q151954
3700,lidl_de,,,Heinsberg,,,DE,,,Mo-Sa 07:00-21:00,Lidl,Q151954
57242,man_truck_and_bus,TBS Truck & Bus Service Heinsberg GmbH & Co. KG,,Heinsberg,,,DE,+49 2452 967530,,,MAN Truck & Bus,Q708667
74161629,moneygram,RAS KIOSK - HEINSBERG,,HEINSBERG,,,DE,+49 2452 9884453,,Mo-Sa 10:00-21:00; Su 13:00-21:00,MoneyGram,Q1944412
3566,mueller,Müller,,Heinsberg,,,DE,+49 2452 1801410,https://www.mueller.de/meine-filiale/heinsberg/hochstr-123/,,Müller,Q1958759
27616081_001-renault,renault,AH Ewald Vosdellen GmbH&Co. KG Heinsberg,,Heinsberg,,,DE,+49 2452 903330,,,Renault,Q6686
27616081_001-dacia,renault,AH Ewald Vosdellen GmbH&Co. KG Heinsberg,,Heinsberg,,,DE,+49 2452 903330,,,Dacia,Q27460
27617100_001-dacia,renault,AH Ewald Vosdellen GmbH&Co. KG Heinsberg,,Heinsberg,,,DE,+49 2452 903330,,,Dacia,Q27460
https://www.rossmann.de/de/filialen/nordrhein-westfalen/waldfeucht/raiffeisenstr--6-b.html,rossmann_de,Rossmann Drogerie-Markt Raiffeisenstr. 6 b,,Waldfeucht,,,DE,+49 2455 397786,https://www.rossmann.de/de/filialen/nordrhein-westfalen/waldfeucht/raiffeisenstr--6-b.html,Mo-Fr 08:30-19:00; Sa 08:30-18:00,Rossmann,Q316004
https://www.rossmann.de/de/filialen/nordrhein-westfalen/heinsberg/ostpromenade-103.html,rossmann_de,Rossmann Drogerie-Markt Ostpromenade 103,,Heinsberg,,,DE,+49 2452 1063732,https://www.rossmann.de/de/filialen/nordrhein-westfalen/heinsberg/ostpromenade-103.html,Mo-Fr 09:00-19:00; Sa 09:00-17:00,Rossmann,Q316004
https://www.rossmann.de/de/filialen/nordrhein-westfalen/heinsberg/karl-arnold-str--55-a.html,rossmann_de,Rossmann Drogerie-Markt Karl-Arnold-Str. 55 a,,Heinsberg,,,DE,+49 2452 1555216,https://www.rossmann.de/de/filialen/nordrhein-westfalen/heinsberg/karl-arnold-str--55-a.html,Mo-Sa 08:00-20:00,Rossmann,Q316004
e16183c6-a25a-4ce2-9ef5-531afe873cee,scania,TBS Truck & Bus Service Heinsberg GmbH & Co. KG,,Heinsberg-Dremmen,,,DE,+49 2452 967530,,Mo-Fr 07:30-18:00; Sa 07:00-14:00,Scania,Q219960
109575,sparkasse_de,Kreissparkasse Heinsberg  Geldautomat Oberbruch,,Heinsberg,,,DE,+49 2451 600,https://www.sparkasse.de/standorte/geldautomaten/kreissparkasse-heinsberg-geldautomat-oberbruch-109575,Mo-Su 06:00-23:00,Sparkasse,Q13601825
6594,sparkasse_de,Kreissparkasse Heinsberg  Filiale Oberbruch,,Heinsberg,,,DE,+49 2451 600,https://www.sparkasse.de/standorte/filialen/kreissparkasse-heinsberg-filiale-oberbruch-6594,"Mo-We 09:30-12:30,14:00-16:00; Th 09:30-12:30,14:00-18:00; Fr 09:30-12:30",Sparkasse,Q13601825
109570,sparkasse_de,Kreissparkasse Heinsberg  Geldautomat Waldfeucht,,Waldfeucht,,,DE,+49 2451 600,https://www.sparkasse.de/standorte/geldautomaten/kreissparkasse-heinsberg-geldautomat-waldfeucht-109570,Mo-Su 06:00-23:00,Sparkasse,Q13601825
35566,sparkasse_de,Kreissparkasse Heinsberg  Filiale Waldfeucht,,Waldfeucht,,,DE,+49 2451 600,https://www.sparkasse.de/standorte/filialen/kreissparkasse-heinsberg-filiale-waldfeucht-35566,"Mo-We 09:30-12:30; Th 09:30-12:30,14:00-18:00; Fr 09:30-12:30",Sparkasse,Q13601825
EX_BP_2800,totalenergies,"ARAL TANKSTELLE HEINSBERG, ROE",,Heinsberg,,,DE,,https://store.totalenergies.fr/en_EN/EX_BP_2800,,Aral,Q565734
ND000933,totalenergies,HEINSBERG BORSIGSTRASSE 42,,HEINSBERG,,,DE,+49 2452 101007,https://store.totalenergies.fr/en_EN/ND000933,Mo-Fr 06:00-22:00; Sa 07:00-22:00; Su 11:00-19:00,,
ND121500,totalenergies,HEINSBERG LIECKER STR. 62,,HEINSBERG,,,DE,+49 2452 155476,https://store.totalenergies.fr/en_EN/ND121500,Mo-Fr 05:00-22:00; Sa 06:00-22:00; Su 08:00-22:00,TotalEnergies,Q154037
3417,valora,Cigo,,Heinsberg,,,DE,,,,Cigo,Q113290782
https://www.vlh.de/bst/4097/Oeffnungszeiten.html,vhl_de,VLH-Beraterin Tatjana Schwan in Heinsberg,,Heinsberg,,,DE,+49 2453 3838879,https://www.vlh.de/bst/4097/,Mo-Th 11:00-17:00,Vereinigte Lohnsteuerhilfe e.V.,Q15852617
,visa,,,HEINSBERG,,,DE,,,,,
,visa,,,HEINSBERG,,,DE,,,,,
,visa,,,WALDFEUCHT,,,DE,,,,,
,visa,,,HEINSBERG,,,DE,,,,,
,visa,,,WALDFEUCHT,,,DE,,,,,
,visa,,,HEINSBERG,,,DE,,,,,
,visa,,,HEINSBERG,,,DE,,,,,
,visa,,,HEINSBERG,,,DE,,,,,
,visa,,,HEINSBERG,,,DE,,,,,
,visa,,,HEINSBERG,,,DE,,,,,
,visa,,,HEINSBERG,,,DE,,,,,
,visa,,,HEINSBERG,,,DE,,,,,
,visa,,,HEINSBERG,,,DE,,,,,
,visa,,,WALDFEUCHT,,,DE,,,,,
,visa,,,HEINSBERG,,,DE,,,,,
https://shops.vodafone.de/heinsberg/hochstr.-115-117,vodafone_de,Vodafone-Shop,,Heinsberg,,,DE,+49 800 1188880,https://shops.vodafone.de/heinsberg/hochstr.-115-117,Mo-Fr 10:00-18:30; Sa 10:00-15:00,Vodafone,Q122141
https://www.vr.de/standorte/W/Wa-Wm/volksbank-haaren-zweigniederlassung-der-raiffeisenbank-eifel-e-19828.html,vr_bank,"Volksbank Haaren - Zweigniederlassung der Raiffeisenbank Eifel eG, Geschäftsstelle Haaren",,Waldfeucht,,,DE,+49 2452 99000,https://www.raiffeisenbank-eifel.de,"Mo 09:00-13:00; Tu 09:00-13:00,14:00-17:00; We 09:00-13:00; Th 09:00-13:00,14:00-18:00; Fr 09:00-13:00",,
https://www.vr.de/standorte/W/Wa-Wm/volksbank-haaren-zweigniederlassung-der-raiffeisenbank-eifel-e-19829.html,vr_bank,"Volksbank Haaren - Zweigniederlassung der Raiffeisenbank Eifel eG, Geschäftsstelle Bocket",,Waldfeucht,,,DE,+49 2455 2344,https://www.raiffeisenbank-eifel.de,Tu 09:00-13:00; Fr 09:00-13:00,,
https://www.vr.de/standorte/W/Wa-Wm/volksbank-heinsberg-eg-filiale-waldfeucht-9131.html,vr_bank,"Volksbank Heinsberg eG, Filiale Waldfeucht",,Waldfeucht,,,DE,+49 2452 9255280,https://www.volksbank-heinsberg.de,,,
https://www.vr.de/standorte/H/Ha-Hm/volksbank-heinsberg-eg-sb-filiale-randerath-3562.html,vr_bank,Volksbank Heinsberg eG SB-Filiale Randerath,,Heinsberg,,,DE,+49 2452 9253000,https://www.volksbank-heinsberg.de,,,
https://www.vr.de/standorte/H/Ha-Hm/volksbank-heinsberg-eg-sb-filiale-kirchhoven-3561.html,vr_bank,"Volksbank Heinsberg eG, SB-Filiale Kirchhoven",,Heinsberg,,,DE,,https://www.volksbank-heinsberg.de,,,
https://www.vr.de/standorte/H/Ha-Hm/volksbank-heinsberg-eg-regionalzentrum-heinsberg-hochstrasse-3556.html,vr_bank,"Volksbank Heinsberg eG, Regionalzentrum Heinsberg-Hochstraße",,Heinsberg,,,DE,+49 2452 9255300,https://www.volksbank-heinsberg.de,Mo-Th 09:00-17:00; Fr 09:00-14:00,,
https://www.vr.de/standorte/H/Ha-Hm/volksbank-heinsberg-eg-filiale-oberbruch-3558.html,vr_bank,"Volksbank Heinsberg eG, Filiale Oberbruch",,Heinsberg,,,DE,+49 2452 9255010,https://www.volksbank-heinsberg.de,"Mo-Th 09:00-12:30,14:00-17:00; Fr 09:00-14:00",,
https://www.vr.de/standorte/H/Ha-Hm/volksbank-heinsberg-eg-filiale-karken-3560.html,vr_bank,"Volksbank Heinsberg eG, Filiale Karken",,Heinsberg,,,DE,+49 2452 9255200,https://www.volksbank-heinsberg.de,"Mo-Th 09:00-12:30,14:00-17:00; Fr 09:00-14:00",,
https://www.vr.de/standorte/H/Ha-Hm/volksbank-heinsberg-eg-3557.html,vr_bank,Volksbank Heinsberg eG,,Heinsberg,,,DE,+49 2452 9250,https://www.volksbank-heinsberg.de,"Mo-Th 09:00-12:30,14:00-17:00; Fr 09:00-14:00",,
