Ref,Spider,Name,Address,City,State,Zipcode,Country,Phone,Website,Hours,Brand,WikiData
https://locators.bankofamerica.com/me/york/atm-york-103745.html,bankofamerica,Bank of America Drive-Thru ATM | Meadowbrook Branch,,York,ME,,US,+1 844-401-8500,https://locators.bankofamerica.com/me/york/atm-york-103745.html,,Bank of America,Q487907
93331,bluerhino,Hannaford #8384,,York,ME,,US,+1 207-363-5357,,,Blue Rhino,Q65681213
104493,bluerhino,AG #90357 - Anthony's Food Shop,,York,ME,,US,+1 207-363-2322,,,Blue Rhino,Q65681213
191371,bluerhino,Walgreens #19796,,York,ME,,US,+1 207-363-4312,,,Blue Rhino,Q65681213
240132,bluerhino,Circle K #4707049,,York,ME,,US,+1 207-363-9863,,,Blue Rhino,Q65681213
187523,bluerhino,"Global #325 - York, ME",,York,ME,,US,+1 207-363-3414,,,Blue Rhino,Q65681213
A0006591,bmo,Walgreens,,York,ME,,US,,,,BMO,Q4835981
42945,citi,ATM Circle K,,York,ME,,US,,,,Citibank,Q857063
ATM-1446,citizens_us,,,York Village,ME,,US,,,,Citizens,Q5122694
,credit_union_us,Atlantic FCU,,York,ME,,US,+1 207-351-1021,,Mo-Tu 08:30-05:00; We 09:00-05:00; Th-Fr 08:30-05:00,,
520323,cumberland_farms_us,Cumberland Farms,,YORK VILLAGE,ME,,US,+1 207-351-3087,https://www.cumberlandfarms.com/find-us/generic-store-page/?id=005567,,Cumberland Farms,Q1143685
7130,dollartree,DollarTree,,York,ME,,US,+1 207-606-6002,,Mo-Sa 09:00-21:00; Su 09:00-20:00,Dollar Tree,Q5289230
https://www.edwardjones.com/us-en/financial-advisor/irene-bowen,edwardjones,Irene P Bowen,,York,ME,,US,+1 207-361-4665,https://www.edwardjones.com/us-en/financial-advisor/irene-bowen,Mo-Fr 08:30-17:00,Edward Jones,Q5343830
520323,eg_america_us,Cumberland Farms,,YORK VILLAGE,ME,,US,+1 207-351-3087,https://www.cumberlandfarms.com/find-us/generic-store-page/?id=005567,,Cumberland Farms,Q1143685
E110H6,enterprise,York,,York,ME,,US,+1 207-351-1790,,,Enterprise Rent-A-Car,Q17085454
7686,extra_space_storage,York Self Storage at 326 US Route 1,,York,ME,,US,+1 207-613-2506,https://www.extraspace.com/storage/facilities/us/maine/york/7686/,Mo-Fr 09:30-18:00; Sa 09:00-17:30,Extra Space Storage,Q5422162
200304640,exxonmobil,MR MIKE'S MARKET #25,,YORK,ME,,US,+1 207-363-3414,https://www.exxon.com/en/find-station/mobil-york-me-mrmikesmarket25-200304640,24/7,Mobil,Q109676002
Motorcraft4430USAEnglish,ford,Starkey Ford Inc,,Maine,ME,,US,+1 207-363-2483,,,Ford,Q44294
https://stores.hannaford.com/#8905457,hannaford,Hannaford - York 5 Hannaford Drive - York,,York County,ME,,US,+1 207-363-5357,https://stores.hannaford.com/me/york/8384,Mo-Sa 07:00-22:00; Su 07:00-21:00,Hannaford,Q5648760
https://locations.mtb.com/#3028012,mt_bank_us,M&T Bank,,,ME,,US,+1 207-363-2151,https://locations.mtb.com/me/york/bank-branches-and-atms-york-me-8114.html,Mo-Th 09:00-16:00; Fr 09:00-17:00,M&T Bank,Q3272257
https://locations.oreillyauto.com/me/york/check-engine-light-testing-6214.html,oreilly,Your York O'Reilly Auto Parts Store,,York,ME,,US,+1 207-361-6050,https://locations.oreillyauto.com/me/york/check-engine-light-testing-6214.html,Mo-Sa 07:30-20:00; Su 09:00-19:00,O'Reilly Auto Parts,Q7071951
https://locations.oreillyauto.com/me/york/wiper-installation-6214.html,oreilly,Your York O'Reilly Auto Parts Store,,York,ME,,US,+1 207-361-6050,https://locations.oreillyauto.com/me/york/wiper-installation-6214.html,Mo-Sa 07:30-20:00; Su 09:00-19:00,O'Reilly Auto Parts,Q7071951
https://locations.oreillyauto.com/me/york/battery-testing-6214.html,oreilly,Your York O'Reilly Auto Parts Store,,York,ME,,US,+1 207-361-6050,https://locations.oreillyauto.com/me/york/battery-testing-6214.html,Mo-Sa 07:30-20:00; Su 09:00-19:00,O'Reilly Auto Parts,Q7071951
https://locations.oreillyauto.com/me/york/autopartes-6214.html,oreilly,O'Reilly Auto Parts,,York,ME,,US,+1 207-361-6050,https://locations.oreillyauto.com/me/york/autopartes-6214.html,Mo-Sa 07:30-20:00; Su 09:00-19:00,O'Reilly Auto Parts,Q7071951
1088,upsstore,York,647 US Route 1 #14 Meadowbrook Plaza,York,ME,,US,+1 207-363-5044,https://locations.theupsstore.com/me/york/647-us-route-1-14-meadowbrook-plaza,,UPS Store,Q7771029
1388489,usps,YORK,,YORK,ME,,US,+1 207-363-2441,,Mo-Fr 08:30-17:00; Sa 09:00-12:00,United States Postal Service,Q668687
0390900004,usps_collection_boxes,USPS COLLECTION BOX - BLUE BOX,647 US ROUTE 1,YORK,ME,,US,,,,United States Postal Service,Q668687
0390900005,usps_collection_boxes,USPS COLLECTION BOX - BLUE BOX,519 US ROUTE 1,YORK,ME,,US,,,,United States Postal Service,Q668687
0390900009,usps_collection_boxes,USPS COLLECTION BOX - BLUE BOX,5 HANNAFORD DR,YORK,ME,,US,,,,United States Postal Service,Q668687
0390900015,usps_collection_boxes,USPS COLLECTION BOX - BLUE BOX,127 LONG SANDS RD,YORK,ME,,US,,,,United States Postal Service,Q668687
0390900017,usps_collection_boxes,USPS COLLECTION BOX - PO LOBBY,10 WOODBRIDGE RD,YORK,ME,,US,,,,United States Postal Service,Q668687
0390900014,usps_collection_boxes,USPS COLLECTION BOX - PO LOBBY,10 WOODBRIDGE RD,YORK,ME,,US,,,,United States Postal Service,Q668687
0390900001,usps_collection_boxes,USPS COLLECTION BOX - BLUE BOX,10 WOODBRIDGE RD,YORK,ME,,US,,,,United States Postal Service,Q668687
,visa,,,YORK,ME,,US,,,,,
,visa,,,YORK,ME,,US,,,,,
,visa,,,YORK,ME,,US,,,,,
,visa,,,YORK VILLAGE,ME,,US,,,,,
,visa,,,YORK VILLAGE,ME,,US,,,,,
,visa,,,YORK,ME,,US,,,,,
,visa,,,YORK,ME,,US,,,,,
,visa,,,YORK,ME,,US,,,,,
,visa,,,YORK,ME,,US,,,,,
,visa,,,YORK,ME,,US,,,,,
,visa,,,YORK,ME,,US,,,,,
,visa,,,YORK,ME,,US,,,,,
,visa,,,YORK,ME,,US,,,,,
https://www.walgreens.com/locator/walgreens-400+us+route+1-york-me-03909/id=19796,walgreens,Walgreens,,York,ME,,US,+1 207-363-4312,https://www.walgreens.com/locator/walgreens-400+us+route+1-york-me-03909/id=19796,Mo-Su 08:00-21:00,Walgreens,Q1591889
