Ref,Spider,Name,Address,City,State,Zipcode,Country,Phone,Website,Hours,Brand,WikiData
https://www.dominos.co.in/store-locations/bijnor/shoppers-pride-mall-bijnor,dominos_pizza_in,"Dominos Pizza SHOPPERS PRIDE MALL, BIJNOR","HALL NO. 2 (GROUND FLOOR), HALL NOS. 14 &amp; 15 (LOWER GROUND FLOOR)SHOPPERS PRIDE MALL, CIVIL LINES, SHASTRI CHAUK SHOPPERS PRIDE MALL, BIJNOR, BIJNOR, Uttar Pradesh - 246701",Bijnor,Uttar Pradesh,,IN,+91 22 2632 6699,https://www.dominos.co.in/store-locations/bijnor/shoppers-pride-mall-bijnor,,Domino's Pizza,Q839466
BJ2A_VEVO_444,nissan_europe,SARDAR NISSAN (Showroom & Workshop),,BIJNOR,UTTAR PRADESH,,IN,+91 84393 30585;+91 97582 83030;+91 81714 65430;+91 95288 69850,,,Nissan,Q20165
fac7450532433a2ed957b24d545f05d3,western_union,GLOBAL TRADERS,,Bijnor,UTTAR PRADESH,,IN,+91 98372 01500,https://location.westernunion.com/in/uttar-pradesh/bijnor/fac7450532433a2ed957b24d545f05d3,Mo-Su 08:00-21:00,Western Union,Q861042
4b52f08a9b99eee2d9a58d16f0f54392,western_union,AKRAM JAN SEVA KENDRA,,Bijnor,UTTAR PRADESH,,IN,+91 82732 03656,https://location.westernunion.com/in/uttar-pradesh/bijnor/4b52f08a9b99eee2d9a58d16f0f54392,Mo-Su 09:00-21:00,Western Union,Q861042
489fa720d7c27bb82d0838a12aa1308e,western_union,AL HIND FAIZ E AAM SAMITI,,Bijnor,UTTAR PRADESH,,IN,+91 98974 30663,https://location.westernunion.com/in/uttar-pradesh/bijnor/489fa720d7c27bb82d0838a12aa1308e,Mo-Su 09:00-21:00,Western Union,Q861042
bcc48cd8b5354fb99d44b0359e80284e,western_union,JAY MATA DI ENTERPRISES,,Bijnor,UTTAR PRADESH,,IN,+91 91491 33175,https://location.westernunion.com/in/uttar-pradesh/bijnor/bcc48cd8b5354fb99d44b0359e80284e,Mo-Su 08:00-21:00,Western Union,Q861042
6e991eade3d112832b66bc852233aa94,western_union,MUTHOOT FINCORP LIMITED,,Bijnor,UTTAR PRADESH,,IN,+91 97618 38456,https://location.westernunion.com/in/uttar-pradesh/bijnor/6e991eade3d112832b66bc852233aa94,Mo-Sa 09:00-17:30,Western Union,Q861042
ad3680b9bdac107e46b88e6d0f89eeb8,western_union,ANURAG MEDICOSE,,Bijnor,UTTAR PRADESH,,IN,+91 82795 03893,https://location.westernunion.com/in/uttar-pradesh/bijnor/ad3680b9bdac107e46b88e6d0f89eeb8,Mo-Su 09:00-21:00,Western Union,Q861042
7b83f9ca2fdbdf85c62618d216190cad,western_union,AIJAZ PCO,,Bijnor,UTTAR PRADESH,,IN,+91 98974 72946,https://location.westernunion.com/in/uttar-pradesh/bijnor/7b83f9ca2fdbdf85c62618d216190cad,Mo-Su 09:00-22:00,Western Union,Q861042
c14f251d4e16bdfe7ac54bb6cdb86a12,western_union,VENUS POINT,,Bijnor,UTTAR PRADESH,,IN,+91 99275 17960,https://location.westernunion.com/in/uttar-pradesh/bijnor/c14f251d4e16bdfe7ac54bb6cdb86a12,Mo-Su 07:00-21:00,Western Union,Q861042
52a511a425ea0d6a17a9d529f5fa7d3f,western_union,M S TOONS,,Bijnor,UTTAR PRADESH,,IN,+91 94122 15883,https://location.westernunion.com/in/uttar-pradesh/bijnor/52a511a425ea0d6a17a9d529f5fa7d3f,Mo-Su 09:00-20:00,Western Union,Q861042
7fdfd452fd02f100a9ea8405873b679d,western_union,JAN SEWA KENDRA,,Bijnor,UTTAR PRADESH,,IN,+91 79 4802 7194,https://location.westernunion.com/in/uttar-pradesh/bijnor/7fdfd452fd02f100a9ea8405873b679d,Mo-Su 09:00-21:00,Western Union,Q861042
8e5496bc0c039bd1f4f952e27c63b94f,western_union,JAN SEWA KENDRA,,Bijnor,UTTAR PRADESH,,IN,+91 98971 50441,https://location.westernunion.com/in/uttar-pradesh/bijnor/8e5496bc0c039bd1f4f952e27c63b94f,Mo-Su 09:00-21:00,Western Union,Q861042
913ce854efd6db4f51bed668efe0b422,western_union,A K ENTERPRISES,,Bijnor,UTTAR PRADESH,,IN,+91 90450 65480,https://location.westernunion.com/in/uttar-pradesh/bijnor/913ce854efd6db4f51bed668efe0b422,Mo-Su 09:00-21:00,Western Union,Q861042
d5d959d68ab8b92a991264045129326f,western_union,ANURAG MEDICOS,,Bijnor,UTTAR PRADESH,,IN,+91 97565 00900,https://location.westernunion.com/in/uttar-pradesh/bijnor/d5d959d68ab8b92a991264045129326f,Mo-Su 09:00-21:00,Western Union,Q861042
8c76b695fad46914cb91bb1aa1629502,western_union,INDIAN JAN SEVA KENDRA,,Bijnor,UTTAR PRADESH,,IN,+91 79069 45409,https://location.westernunion.com/in/uttar-pradesh/bijnor/8c76b695fad46914cb91bb1aa1629502,Mo-Su 08:00-20:00,Western Union,Q861042
079ae91dd36da868875229bc84b9955e,western_union,SANGEET ELECTRONIC,,Bijnor,UTTAR PRADESH,,IN,(+91) 1334-9012010086,https://location.westernunion.com/in/uttar-pradesh/bijnor/079ae91dd36da868875229bc84b9955e,Mo-Su 08:00-21:00,Western Union,Q861042
c3fc257c90c5e80f737a1c27ec748989,western_union,MUTHOOT FINANCE LTD,,Bijnor,UTTAR PRADESH,,IN,+91 1342 260 106,https://location.westernunion.com/in/uttar-pradesh/bijnor/c3fc257c90c5e80f737a1c27ec748989,Mo-Sa 09:00-17:30,Western Union,Q861042
be7682f8edf8b6b36a1b286b89da7319,western_union,MODERN STEEL FURNITURE,,Bijnor,UTTAR PRADESH,,IN,+91 89235 40009,https://location.westernunion.com/in/uttar-pradesh/bijnor/be7682f8edf8b6b36a1b286b89da7319,Mo-Su 09:00-21:00,Western Union,Q861042
33d9c6fa9ff71901f7c9230b429052a8,western_union,JEESHAN COMMUNICATION,,Bijnor,UTTAR PRADESH,,IN,+91 88690 90167,https://location.westernunion.com/in/uttar-pradesh/bijnor/33d9c6fa9ff71901f7c9230b429052a8,Mo-Su 08:00-21:00,Western Union,Q861042
d500e3d4308bbd4b1e547be56677352e,western_union,HAJI TOUR AND TRAVELS,,Bijnor,UTTAR PRADESH,,IN,+91 70178 18636,https://location.westernunion.com/in/uttar-pradesh/bijnor/d500e3d4308bbd4b1e547be56677352e,Mo-Su 09:00-21:00,Western Union,Q861042
80560b55a78b84f283aeed60eff0a07d,western_union,GRAHAK SEVA KENDRA,,Bijnor,UTTAR PRADESH,,IN,+91 97202 74703,https://location.westernunion.com/in/uttar-pradesh/bijnor/80560b55a78b84f283aeed60eff0a07d,Mo-Su 09:00-21:00,Western Union,Q861042
5a7887071b49eda6e2fb5b890a218976,western_union,JAN SEWA KENDRA,,Bijnor,UTTAR PRADESH,,IN,+91 98974 40111,https://location.westernunion.com/in/uttar-pradesh/bijnor/5a7887071b49eda6e2fb5b890a218976,Mo-Su 09:00-21:00,Western Union,Q861042
97800e9d4a8323ef0c3c4b1ab96c2801,western_union,CAPPERS ONLINE SERVICES,,Bijnor,UTTAR PRADESH,,IN,+91 84456 14735,https://location.westernunion.com/in/uttar-pradesh/bijnor/97800e9d4a8323ef0c3c4b1ab96c2801,Mo-Su 09:00-21:00,Western Union,Q861042
a6a9df9380d4dda51865127fb5ad2519,western_union,AMAN ENTERPRISES,,Bijnor,UTTAR PRADESH,,IN,+91 99174 61491,https://location.westernunion.com/in/uttar-pradesh/bijnor/a6a9df9380d4dda51865127fb5ad2519,Mo-Su 08:00-22:00,Western Union,Q861042
b4cb33fdb8812e5c6fab27de9fec4a25,western_union,SHAHNAWAZ TELICOME,,Bijnor,UTTAR PRADESH,,IN,+91 94125 55762,https://location.westernunion.com/in/uttar-pradesh/bijnor/b4cb33fdb8812e5c6fab27de9fec4a25,Mo-Su 09:00-21:00,Western Union,Q861042
