Ref,Spider,Name,Address,City,State,Zipcode,Country,Phone,Website,Hours,Brand,WikiData
,visa,,,CUITZEO,MICHOACAN,,MX,,,,,
ad10e95e720ffb85ae0d73f2fb5d3d7e,western_union,OXXO CUAMIO TLC,,Cuitzeo,MICHOACAN,,MX,+52 81 8389 2121,https://location.westernunion.com/mx/michoacan/cuitzeo/ad10e95e720ffb85ae0d73f2fb5d3d7e,Mo-Su 06:00-22:00,Western Union,Q861042
ae96ef3c1ba15b289d24dd94c421b5d5,western_union,CAJA POPULAR ALIANZA CUITZEO,,Cuitzeo,MICHOACAN,,MX,+52 81 2133 2160,https://location.westernunion.com/mx/michoacan/cuitzeo/ae96ef3c1ba15b289d24dd94c421b5d5,Mo-Fr 08:00-17:00; Sa 08:00-13:00,Western Union,Q861042
bbd3884d6a16d8f13e3c390f18360dc5,western_union,MONEY COOP CAJA MORELIA CUITZEO,,Cuitzeo,MICHOACAN,,MX,+52 81 2133 2160,https://location.westernunion.com/mx/michoacan/cuitzeo/bbd3884d6a16d8f13e3c390f18360dc5,Mo-Sa 08:00-17:30,Western Union,Q861042
0086db3fa508d2cff8635b6299f116dc,western_union,CAJA MORELIA SUC CUITZEO,,Cuitzeo,MICHOACAN,,MX,+52 81 2133 2160,https://location.westernunion.com/mx/michoacan/cuitzeo/0086db3fa508d2cff8635b6299f116dc,Mo-Sa 08:00-17:30,Western Union,Q861042
7ebc88547f77882a421b67228a4fcf01,western_union,MONEY COOP CAJA MORELIA CUITZEO,,Cuitzeo,MICHOACAN,,MX,+52 81 2133 2160,https://location.westernunion.com/mx/michoacan/cuitzeo/7ebc88547f77882a421b67228a4fcf01,Mo-Sa 08:00-17:30,Western Union,Q861042
f81b65ca60fce61540734a087080a4b2,western_union,SERVI CENTRAL DE ENVIOS CUITZEO AP CASH,,Cuitzeo,MICHOACAN,,MX,+52 443 405 9966,https://location.westernunion.com/mx/michoacan/cuitzeo/f81b65ca60fce61540734a087080a4b2,Mo-Fr 09:00-15:00; Sa-Su 09:00-14:00,Western Union,Q861042
a53aec2447f50a6556a581cdf9d79680,western_union,SERVI CENTRAL DE ENVIOS CUITZEO AP CASH,,Cuitzeo,MICHOACAN,,MX,+52 443 405 9966,https://location.westernunion.com/mx/michoacan/cuitzeo/a53aec2447f50a6556a581cdf9d79680,Mo-Fr 09:00-15:00; Sa-Su 09:00-14:00,Western Union,Q861042
869188d92767d2dc1ebedcc69f8f0fdf,western_union,SERVI CENTRAL DE ENVIOS CUITZEO AP CASH,,Cuitzeo,MICHOACAN,,MX,+52 443 405 9966,https://location.westernunion.com/mx/michoacan/cuitzeo/869188d92767d2dc1ebedcc69f8f0fdf,Mo-Fr 09:00-15:00; Sa-Su 09:00-14:00,Western Union,Q861042
abba014b6e9d50ed52ac5ceabc31e05a,western_union,AURRERA CUITZEO 1780,,Cuitzeo,MICHOACAN,,MX,+52 800 833 4700,https://location.westernunion.com/mx/michoacan/cuitzeo/abba014b6e9d50ed52ac5ceabc31e05a,Mo-Su 07:00-23:00,Western Union,Q861042
48b1d7c4445327cebbd513f93d9c6b70,western_union,ISSEG CUITZEO MORELOS 117,,Cuitzeo,MICHOACAN,,MX,+52 800 224 7734,https://location.westernunion.com/mx/michoacan/cuitzeo/48b1d7c4445327cebbd513f93d9c6b70,Mo-Su 07:00-21:00,Western Union,Q861042
ebe53a90458468d7415a10103be39499,western_union,ISSEG CUITZEO MORELOS 117,,Cuitzeo,MICHOACAN,,MX,+52 800 224 7734,https://location.westernunion.com/mx/michoacan/cuitzeo/ebe53a90458468d7415a10103be39499,Mo-Su 07:00-21:00,Western Union,Q861042
dde14920d5424f646c61cc0383ef9a66,western_union,ISSEG CUITZEO MORELOS 117,,Cuitzeo,MICHOACAN,,MX,+52 800 224 7734,https://location.westernunion.com/mx/michoacan/cuitzeo/dde14920d5424f646c61cc0383ef9a66,Mo-Su 07:00-21:00,Western Union,Q861042
6470c04f607fb38eb1499f5841c38580,western_union,EL BODEGON CUITZEO,,Cuitzeo,MICHOACAN,,MX,+52 312 316 3500,https://location.westernunion.com/mx/michoacan/cuitzeo/6470c04f607fb38eb1499f5841c38580,Mo-Sa 10:00-20:30; Su 10:00-14:00,Western Union,Q861042
01184138023c5dc1f2f847dc3a5f4e18,western_union,EL BODEGON CUITZEO,,Cuitzeo,MICHOACAN,,MX,+52 312 316 3500,https://location.westernunion.com/mx/michoacan/cuitzeo/01184138023c5dc1f2f847dc3a5f4e18,Mo-Sa 10:00-20:30; Su 10:00-14:00,Western Union,Q861042
cdde6f5e3840255d224f127d8bd0833c,western_union,EL BODEGON CUITZEO,,Cuitzeo,MICHOACAN,,MX,+52 312 316 3500,https://location.westernunion.com/mx/michoacan/cuitzeo/cdde6f5e3840255d224f127d8bd0833c,Mo-Sa 10:00-20:30; Su 10:00-14:00,Western Union,Q861042
539316fb3207bd75218f0309b0470bf0,western_union,OXXO CUITZEO MLM,,Cuitzeo,MICHOACAN,,MX,+52 81 8389 2121,https://location.westernunion.com/mx/michoacan/cuitzeo/539316fb3207bd75218f0309b0470bf0,Mo-Su 08:00-22:00,Western Union,Q861042
4ced8089cd9714abce3bd10f014063ad,western_union,OXXO CUITZEO MLM,,Cuitzeo,MICHOACAN,,MX,+52 81 8389 2121,https://location.westernunion.com/mx/michoacan/cuitzeo/4ced8089cd9714abce3bd10f014063ad,Mo-Su 08:00-22:00,Western Union,Q861042
b346fa198bf1705680007e4942cd4ad3,western_union,OXXO CUITZEO MLM,,Cuitzeo,MICHOACAN,,MX,+52 81 8389 2121,https://location.westernunion.com/mx/michoacan/cuitzeo/b346fa198bf1705680007e4942cd4ad3,Mo-Su 08:00-22:00,Western Union,Q861042
f3dc42b3f17f3cde96aa14461d364f6a,western_union,AURRERA CUITZEO 1780,,Cuitzeo,MICHOACAN,,MX,+52 800 833 4700,https://location.westernunion.com/mx/michoacan/cuitzeo/f3dc42b3f17f3cde96aa14461d364f6a,Mo-Su 07:00-23:00,Western Union,Q861042
041d79d50381926d7a96ec2a53140fdc,western_union,AURRERA CUITZEO 1780,,Cuitzeo,MICHOACAN,,MX,+52 800 833 4700,https://location.westernunion.com/mx/michoacan/cuitzeo/041d79d50381926d7a96ec2a53140fdc,Mo-Su 07:00-23:00,Western Union,Q861042
12def4d04f18853f483079ff3011d4bb,western_union,TELECOMM 16099,,Cuitzeo,MICHOACAN,,MX,+52 443 323 5110,https://location.westernunion.com/mx/michoacan/cuitzeo/12def4d04f18853f483079ff3011d4bb,Mo-Fr 09:00-16:00,Western Union,Q861042
22d043cc2a0c32667ddbb565bd4de34a,western_union,TELECOMM 16099,,Cuitzeo,MICHOACAN,,MX,+52 443 323 5110,https://location.westernunion.com/mx/michoacan/cuitzeo/22d043cc2a0c32667ddbb565bd4de34a,Mo-Fr 09:00-16:00,Western Union,Q861042
81f3a8454aae9331b20f211981fca26f,western_union,TELECOMM 16099,,Cuitzeo,MICHOACAN,,MX,+52 443 323 5110,https://location.westernunion.com/mx/michoacan/cuitzeo/81f3a8454aae9331b20f211981fca26f,Mo-Fr 09:00-16:00,Western Union,Q861042
