Ref,Spider,Name,Address,City,State,Zipcode,Country,Phone,Website,Hours,Brand,WikiData
3985,anytime_fitness,Anytime Fitness,,West Lawn,PA,,US,+1 484-987-2624,https://www.anytimefitness.com/gyms/3985/west-lawn-pa-19609/,,Anytime Fitness,Q4778364
157734,bluerhino,Giant Food #6289 - Fuel Site - GC,,West Lawn,PA,,US,+1 610-670-4713,,,Blue Rhino,Q65681213
78189,bluerhino,Giant Food #6289 - GC,,Reading,PA,,US,+1 610-670-4713,,,Blue Rhino,Q65681213
185337,bluerhino,Weis #175,,West Lawn,PA,,US,+1 610-775-0427,,,Blue Rhino,Q65681213
69725,citi,ATM PNC AT WAWA,,West Lawn,PA,,US,,,,Citibank,Q857063
,credit_union_us,Visions FCU,,West Lawn,PA,,US,+1 610-376-6639,,Mo-Fr 09:00-06:00; Sa 09:00-12:00,,
4753,dominos_pizza_us,Domino's Pizza,,Reading,PA,,US,+1 610-678-7100,https://pizza.dominos.com/pennsylvania/reading/2844-penn-ave,Mo-Th 10:30-24:00; Fr-Sa 10:30-01:00; Su 10:30-24:00,Domino's,Q839466
E15746,enterprise,West Lawn,,West Lawn,PA,,US,+1 610-927-3111,,,Enterprise Rent-A-Car,Q17085454
#6289,giantfoodstores,GIANT West Lawn,,West Lawn,PA,,US,+1 610-670-4713,https://stores.giantfoodstores.com/pa/west-lawn/2104-van-reed-rd,"Mo-Fr 06:00-23:00,09:00-20:00; Sa 06:00-23:00,09:00-17:00; Su 06:00-23:00,10:00-17:00",Giant,Q5558332
#6050,giantfoodstores,GIANT Reading,,Reading,PA,,US,+1 610-678-3286,https://stores.giantfoodstores.com/pa/reading/2641-shillington-rd,"Mo-Fr 06:00-23:00,09:00-20:00; Sa 06:00-23:00,09:00-17:00; Su 06:00-23:00,10:00-17:00",Giant,Q5558332
https://locations.papajohns.com/#10692247,papa_johns,Papa John's,,Reading,PA,,US,+1 610-927-9500,https://locations.papajohns.com/united-states/pa/19609/reading/2612-penn-ave,Mo-Th 10:30-24:00; Fr-Sa 10:30-00:30; Su 10:30-23:00,Papa John's Pizza,Q2759586
https://stores.saloncentric.com/#29173627,salon_centric_us,SalonCentric,,,PA,,US,+1 610-775-3720,https://stores.saloncentric.com/pa/west-lawn/3101,Mo 08:00-18:30; Tu-Fr 08:00-18:00; Sa 08:30-16:00; Su 12:00-16:00,SalonCentric,Q124339481
0717212500,sunoco_us,Sunoco,,READING,PA,,US,+1 610-927-5164,,Mo-Sa 06:00-22:00; Su 07:00-22:00,Sunoco,Q1423218
81098,supercuts,West Lawn Shopping Center,1106 W Wyomissing Blvd,West Lawn,PA,,US,+1 610-750-5268,https://www.supercuts.com/checkin/81098,Mo-Fr 09:00-18:00; Sa 09:00-19:00; Su 10:00-18:00,Supercuts,Q7643239
1960900004,usps_collection_boxes,USPS COLLECTION BOX - BLUE BOX,217 AMHERST AVE,WEST LAWN,PA,,US,,,,United States Postal Service,Q668687
1960900002,usps_collection_boxes,USPS COLLECTION BOX - BLUE BOX,323 JEFFERSON BLVD,WEST LAWN,PA,,US,,,,United States Postal Service,Q668687
1960900009,usps_collection_boxes,USPS COLLECTION BOX - BLUE BOX,3311 PENN AVE,WEST LAWN,PA,,US,,,,United States Postal Service,Q668687
1960900012,usps_collection_boxes,USPS COLLECTION BOX - BLUE BOX,301 W WYOMISSING BLVD,WEST LAWN,PA,,US,,,,United States Postal Service,Q668687
1960900001,usps_collection_boxes,USPS COLLECTION BOX - BLUE BOX,125 W LAWN AVE,WEST LAWN,PA,,US,,,,United States Postal Service,Q668687
1960900024,usps_collection_boxes,USPS COLLECTION BOX - BLUE BOX,101 WOODSIDE AVE,WEST LAWN,PA,,US,,,,United States Postal Service,Q668687
1960900023,usps_collection_boxes,USPS COLLECTION BOX - BLUE BOX,319 TELFORD AVE,WEST LAWN,PA,,US,,,,United States Postal Service,Q668687
1960900030,usps_collection_boxes,USPS COLLECTION BOX - BLUE BOX,2208 QUARRY DR,WEST LAWN,PA,,US,,,,United States Postal Service,Q668687
,visa,,,READING,PA,,US,,,,,
,visa,,,WEST LAWN,PA,,US,,,,,
,visa,,,WEST LAWN,PA,,US,,,,,
,visa,,,WEST LAWN,PA,,US,,,,,
,visa,,,WEST LAWN,PA,,US,,,,,
,visa,,,WEST LAWN,PA,,US,,,,,
2137__PENN__AVE_WEST__LAWN_PA_19609,wellsfargo,,2137 PENN AVE,WEST LAWN,PA,,US,+1 800-869-3557,https://www.wellsfargo.com/locator/bank/2137__PENN__AVE_WEST__LAWN_PA_19609/,,Wells Fargo,Q744149
