Ref,Spider,Name,Address,City,State,Zipcode,Country,Phone,Website,Hours,Brand,WikiData
222,aaa,Chesapeake Branch,,Chesapeake,VA,,US,+1 757-547-9741,,,American Automobile Association,Q463436
https://stores.advanceautoparts.com/va/chesapeake/2221-s-military-hwy,advance_auto_parts_us,Advance Auto Parts,,Chesapeake,VA,,US,+1 757-543-2054,https://stores.advanceautoparts.com/va/chesapeake/2221-s-military-hwy,Mo-Sa 07:30-21:00; Su 09:00-20:00,Advance Auto Parts,Q4686051
https://stores.advanceautoparts.com/va/chesapeake/1608-volvo-pkwy,advance_auto_parts_us,Advance Auto Parts,,Chesapeake,VA,,US,+1 757-548-0882,https://stores.advanceautoparts.com/va/chesapeake/1608-volvo-pkwy,Mo-Sa 07:30-21:00; Su 09:00-20:00,Advance Auto Parts,Q4686051
https://stores.aldi.us/#7233758,aldi_sud_us,ALDI  1256 Executive Blvd,,Chesapeake,VA,,US,+1 833-480-1052,https://stores.aldi.us/va/chesapeake/1256-executive-blvd,"Mo-Su 08:00-20:00,09:00-20:00",ALDI,Q41171672
816 Greenbrier Circle,allied_universal,Allied Universal,,Chesapeake,VA,,US,+1 757-686-0226,https://www.aus.com/chesapeake-security-systems-services,,Allied Universal,Q4732537
https://storelocations.ae.com/#32667238,american_eagle_outfitters,American Eagle Store Greenbrier Marketplace,,Chesapeake,VA,,US,+1 757-550-6935,https://storelocations.ae.com/us/va/chesapeake/1320-greenbrier-pkwy.html,Mo-Sa 10:00-20:00; Su 12:00-19:00,American Eagle Store,Q2842931
3920ae73-e11d-e611-80c5-005056aa8521,amf_bowling,Bowlero Chesapeake,,Chesapeake,VA,,US,+1 757-436-4444,https://www.bowlero.com/location/bowlero-chesapeake,,Bowlero,Q17102967
https://restaurants.applebees.com/en-us/va/chesapeake/1520-sams-circle-83001,applebees,Connect with this Applebee's,,Chesapeake,VA,,US,+1 757-549-1020,https://restaurants.applebees.com/en-us/va/chesapeake/1520-sams-circle-83001,Mo-Su 11:00-24:00,Applebees,Q621532
https://locations.arbys.com/va/chesapeake/809-n-battlefield-blvd.html,arbys_us,"Arby's Fast-Food Drive Through Near You in Chesapeake, VA",,Chesapeake,VA,,US,+1 757-548-7716,https://locations.arbys.com/va/chesapeake/809-n-battlefield-blvd.html,Mo-Th 10:00-23:00; Fr-Sa 10:00-24:00; Su 10:00-23:00,Arby's,Q630866
https://locations.arbys.com/va/chesapeake/100-woodlake-dr.html,arbys_us,"Arby's Fast-Food Near You in Chesapeake, VA",,Chesapeake,VA,,US,+1 757-494-1840,https://locations.arbys.com/va/chesapeake/100-woodlake-dr.html,Mo-Su 10:00-24:00,Arby's,Q630866
https://stores.ashleyfurniture.com/store/us/virginia/chesapeake/9000771187/,ashley_furniture,"Ashley Outlet Chesapeake, VA",,Chesapeake,VA,,US,+1 757-998-2480,https://stores.ashleyfurniture.com/store/us/virginia/chesapeake/9000771187/,,Ashley Furniture,Q4805437
https://stores.ashleyfurniture.com/store/us/virginia/chesapeake/7710000453/,ashley_furniture,"Ashley Store Chesapeake, VA",,Chesapeake,VA,,US,+1 757-457-0020,https://stores.ashleyfurniture.com/store/us/virginia/chesapeake/7710000453/,,Ashley Furniture,Q4805437
174811,asics_us,Point 2 Running Company,741 Eden Way N #310,Chesapeake,VA,,US,+1 757-609-3516,,Mo-Fr 10:00-20:00; Sa 10:00-19:00,asics,Q327247
23169,asics_us,Finish Line,1401 Greenbrier Parkway,Chesapeake,VA,,US,+1 757-424-4434,,,asics,Q327247
185883,att_us,GREENBRIER SQUARE STORE,,Chesapeake,VA,,US,+1 757-494-1604,https://www.att.com/stores/virginia/chesapeake/185883,Mo-Sa 10:00-20:00; Su 11:00-18:00,AT&T,Q298594
2276,att_us,GREENBRIER STORE - CHESAPEAKE VA,,Chesapeake,VA,,US,+1 757-761-8430,https://www.att.com/stores/virginia/chesapeake/2276,Mo-Sa 09:00-20:00; Su 10:00-18:00,AT&T,Q298594
https://locations.auntieannes.com/#5415,auntie_annes,Auntie Anne's Greenbrier Mall,,Chesapeake,VA,,US,+1 757-420-0485,https://locations.auntieannes.com/va/chesapeake/1401-greenbrier-parkway,Mo-Sa 11:00-19:00; Su 12:00-17:30,Auntie Anne's,Q4822010
4926,autozone_us,AutoZone Auto Parts Chesapeake,,Chesapeake,VA,,US,+1 757-382-4234,https://www.autozone.com/locations/va/chesapeake/1402-kempsville-rd.html,Mo-Sa 07:30-21:00; Su 08:00-21:00,AutoZone,Q4826087
928,autozone_us,AutoZone Auto Parts Chesapeake,,Chesapeake,VA,,US,+1 757-420-0403,https://www.autozone.com/locations/va/chesapeake/1137-s-military-hwy.html,Mo-Sa 07:30-22:00; Su 08:00-20:00,AutoZone,Q4826087
https://www.avis.com/en/locations/us/va/chesapeake/c9k,avis,Avis U S A Chesapeake,,Chesapeake,VA,,US,+1 757-312-0516,https://www.avis.com/en/locations/us/va/chesapeake/c9k,Mo-Fr 08:00-18:00; Sa 08:30-13:00; Su 09:00-13:00,Avis,Q791136
https://www.banfield.com/locations/veterinarians/va/chesapeake/chs,banfield_pet_hospital,Chesapeake,,Chesapeake,VA,,US,+1 757-436-7420,https://www.banfield.com/locations/veterinarians/va/chesapeake/chs,Mo 07:00-18:00; Tu-Sa 08:00-18:00; Su 10:00-17:00,Banfield Pet Hospital,Q2882416
https://locators.bankofamerica.com/va/chesapeake/financial-centers-chesapeake-7759.html,bankofamerica,Bank of America Financial Center & Drive-Thru ATM | Greenbrier Parkway,,Chesapeake,VA,,US,+1 757-523-5180,https://locators.bankofamerica.com/va/chesapeake/financial-centers-chesapeake-7759.html,Mo-Fr 09:00-17:00; Sa 09:00-14:00,Bank of America,Q487907
https://locations.baskinrobbins.com/va/chesapeake/1435-battlefield-blvd-n-306659-br,baskin_robbins_us,Baskin-Robbins™,,Chesapeake,VA,,US,+1 757-436-2285,https://locations.baskinrobbins.com/va/chesapeake/1435-battlefield-blvd-n-306659-br,Mo-Su 06:00-20:00,Baskin-Robbins,Q584601
BBW00208,bathandbodyworks_us,GREENBRIER MALL,,CHESAPEAKE,VA,,US,+1 757-366-0751,,Mo-Th 10:00-20:00; Fr-Sa 10:00-21:00; Su 12:00-18:00,Bath & Body Works,Q810773
219,batteriesplus,Stop by our Chesapeake store today,,Chesapeake,VA,,US,+1 757-548-5800,https://www.batteriesplus.com/store-locator/va/chesapeake/batteries-plus-219,Mo-Sa 08:00-19:00; Su 10:00-17:00,Batteries Plus Bulbs,Q17005157
https://stores.bestbuy.com/va/chesapeake/1340-greenbrier-pkwy-421.html,bestbuy,Best Buy Chesapeake,,Chesapeake,VA,,US,+1 757-549-4635,https://stores.bestbuy.com/va/chesapeake/1340-greenbrier-pkwy-421.html,,Best Buy,Q533415
https://local.biglots.com/#13190990,biglots,Big Lots - Chesapeake,,Chesapeake,VA,,US,+1 757-494-1097,https://local.biglots.com/va/chesapeake/1971-s-military-hwy,Mo-Sa 09:00-21:00; Su 10:00-19:00,Big Lots,Q4905973
90743,bluerhino,Food Lion #2631,,Chesapeake,VA,,US,+1 757-494-3527,,,Blue Rhino,Q65681213
229565,bluerhino,Global #512,,CHESAPEAKE,VA,,US,+1 757-543-9886,,,Blue Rhino,Q65681213
229570,bluerhino,Global #561,,CHESAPEAKE,VA,,US,+1 757-545-3361,,,Blue Rhino,Q65681213
159221,bluerhino,Kroger #557 - MidAtlantic,,Chesapeake,VA,,US,+1 757-389-7326,,,Blue Rhino,Q65681213
159928,bluerhino,Kroger #557 - MidAtlantic - Fuel Site,,Chesapeake,VA,,US,+1 757-389-7331,,,Blue Rhino,Q65681213
229564,bluerhino,Global #511,,CHESAPEAKE,VA,,US,+1 757-549-1018,,,Blue Rhino,Q65681213
5444,bluerhino,Walmart #1841 - Supercenter,,Chesapeake (E),VA,,US,+1 757-436-6055,,,Blue Rhino,Q65681213
151346,bluerhino,Walgreens #7886,,Chesapeake,VA,,US,+1 757-548-4467,,,Blue Rhino,Q65681213
5442,bluerhino,Lowe's #439,,Chesapeake,VA,,US,+1 757-436-0707,,,Blue Rhino,Q65681213
216784,bluerhino,Family Dollar #12667,,Chesapeake,VA,,US,+1 757-216-0140,,,Blue Rhino,Q65681213
187975,bluerhino,American Ace Hardware #17345,,Chesapeake,VA,,US,+1 757-424-9000,,,Blue Rhino,Q65681213
229567,bluerhino,Global #521,,CHESAPEAKE,VA,,US,+1 757-549-6860,,,Blue Rhino,Q65681213
144815,bluerhino,Food Lion #1613,,Chesapeake,VA,,US,+1 757-382-7799,,,Blue Rhino,Q65681213
155272,bluerhino,Walgreens #13474,,Chesapeake,VA,,US,+1 757-548-0165,,,Blue Rhino,Q65681213
221486,bluerhino,Dollar General #8951,,CHESAPEAKE,VA,,US,+1 757-609-0551,,,Blue Rhino,Q65681213
209955,bluerhino,Harris Teeter #465,,Chesapeake,VA,,US,+1 757-217-1853,,,Blue Rhino,Q65681213
229572,bluerhino,Global #572,,CHESAPEAKE,VA,,US,+1 757-549-0336,,,Blue Rhino,Q65681213
182563,bluerhino,Kroger #578  - MidAtlantic,,Chesapeake,VA,,US,+1 757-217-4030,,,Blue Rhino,Q65681213
20746_1,bmw_group,Adventure BMW,,Chesapeake,VA,,US,+1 757-523-7055,https://www.adventurebmw.com,,BMW Motorrad,Q249173
122279,bp,BP,,Chesapeake,VA,,US,+1 757-549-6860,,24/7,BP,Q152057
126371,bp,Amoco,,Chesapeake,VA,,US,+1 757-545-3361,,24/7,BP,Q152057
119816,bp,BP,,Chesapeake,VA,,US,+1 757-543-9886,,24/7,BP,Q152057
https://www.bubbas33.com/locations/virginia/chesapeake-greenbrier,bubbas33_us,Chesapeake / Greenbrier,,Chesapeake,VA,,US,+1 757-447-4242,https://www.bubbas33.com/locations/virginia/chesapeake-greenbrier,Mo-Th 11:00-22:00; Fr-Sa 11:00-23:00; Su 11:00-22:00,Bubba's 33,Q119359352
CHESVAYD,builders_firstsource_us,Chesapeake VA Yard,,Chesapeake,VA,,US,+1 757-548-1532,https://www.bldr.com/location/chesapeake-va-yard/CHESVAYD,Mo-Fr 07:00-16:00,Builders FirstSource,Q27686100
https://locations.carrabbas.com/#15502928,carrabbasitaliangrill,"Carrabba's Chesapeake, VA",,Chesapeake,VA,,US,+1 757-382-0337,https://locations.carrabbas.com/virginia/chesapeake/1217-n-battlefield-blvd,Mo-Th 11:00-22:00; Fr-Sa 11:00-23:00; Su 11:00-21:00,Carrabba's Italian Grill,Q5045999
va_chesapeake_836-eden-way-n,chipotle, ,,Chesapeake,VA,,US,+1 757-361-3911,https://locations.chipotle.com/va/chesapeake/836-eden-way-n,,Chipotle,Q465751
va_chesapeake_100-coastal-way,chipotle, ,,Chesapeake,VA,,US,+1 757-389-8414,https://locations.chipotle.com/va/chesapeake/100-coastal-way,,Chipotle,Q465751
https://locations.chuckecheese.com/us/va/chesapeake/1528-sams-circle,chuckecheese,Chuck E. Cheese,,Chesapeake,VA,,US,+1 757-549-2684,https://locations.chuckecheese.com/us/va/chesapeake/1528-sams-circle,Mo-Th 11:00-21:00; Fr 11:00-22:00; Sa 10:00-22:00; Su 11:00-21:00,Chuck E. Cheese,Q2438391
33893,citi,ATM ABNB FEDERAL CREDIT UNION,,Chesapeake,VA,,US,,,,Citibank,Q857063
33821,citi,ATM 7ELEVEN-FCTI,,Chesapeake,VA,,US,,,,Citibank,Q857063
26614,citi,ATM 7ELEVEN-FCTI,,Chesapeake,VA,,US,,,,Citibank,Q857063
70257,citi,ATM PNC AT WAWA,,Chesapeake,VA,,US,,,,Citibank,Q857063
33900,citi,ATM ABNB FEDERAL CREDIT UNION,,Chesapeake,VA,,US,,,,Citibank,Q857063
27592,citi,ATM 7ELEVEN-FCTI,,Chesapeake,VA,,US,,,,Citibank,Q857063
61100,citi,ATM Kroger,,Chesapeake,VA,,US,,,,Citibank,Q857063
24371,citi,ATM 7ELEVEN-FCTI,,Chesapeake,VA,,US,,,,Citibank,Q857063
32998,citi,ATM 7ELEVEN-FCTI,,Chesapeake,VA,,US,,,,Citibank,Q857063
33899,citi,ATM ABNB FEDERAL CREDIT UNION,,Chesapeake,VA,,US,,,,Citibank,Q857063
32325,citi,ATM 7ELEVEN-FCTI,,Chesapeake,VA,,US,,,,Citibank,Q857063
81574,citi,ATM Target,,Chesapeake,VA,,US,,,,Citibank,Q857063
54760,citi,ATM Family Dollar/Dollar Tree Corporate Office,,Chesapeake,VA,,US,,,,Citibank,Q857063
58781,citi,ATM Harris Teeter,,Chesapeake,VA,,US,,,,Citibank,Q857063
87369,citi,ATM Walgreens,,Chesapeake,VA,,US,,,,Citibank,Q857063
87010,citi,ATM Walgreens,,Chesapeake,VA,,US,,,,Citibank,Q857063
24751,citi,ATM 7ELEVEN-FCTI,,Chesapeake,VA,,US,,,,Citibank,Q857063
24435,citi,ATM 7ELEVEN-FCTI,,Chesapeake,VA,,US,,,,Citibank,Q857063
33455,citi,ATM 7ELEVEN-FCTI,,Chesapeake,VA,,US,,,,Citibank,Q857063
33667,citi,ATM 7ELEVEN-FCTI,,Chesapeake,VA,,US,,,,Citibank,Q857063
58801,citi,ATM Harris Teeter,,Chesapeake,VA,,US,,,,Citibank,Q857063
47750,citi,ATM CVS,,Chesapeake,VA,,US,,,,Citibank,Q857063
25527,citi,ATM 7ELEVEN-FCTI,,Chesapeake,VA,,US,,,,Citibank,Q857063
35166,citi,ATM ANGEL NAILS,,Chesapeake,VA,,US,,,,Citibank,Q857063
72616,citi,ATM Rite Aid,,Chesapeake,VA,,US,,,,Citibank,Q857063
31107,citi,ATM 7ELEVEN-FCTI,,Chesapeake,VA,,US,,,,Citibank,Q857063
69936,citi,ATM PNC AT WAWA,,Chesapeake,VA,,US,,,,Citibank,Q857063
69935,citi,ATM PNC AT WAWA,,Chesapeake,VA,,US,,,,Citibank,Q857063
30256,citi,ATM 7ELEVEN-FCTI,,Chesapeake,VA,,US,,,,Citibank,Q857063
31721,citi,ATM 7ELEVEN-FCTI,,Chesapeake,VA,,US,,,,Citibank,Q857063
30779,citi,ATM 7ELEVEN-FCTI,,Chesapeake,VA,,US,,,,Citibank,Q857063
om_va_chesapeake_1983-s-military-hwy,cititrends,Citi Trends,,Chesapeake,VA,,US,+1 757-563-4019,https://locations.cititrends.com/va/chesapeake/1983-s-military-hwy.html,Mo 11:00-20:00; Tu 11:00-20:00; We 11:00-20:00; Th 11:00-20:00; Fr 10:00-21:00; Sa 10:00-21:00; Su 12:00-18:00,Citi Trends,Q5122438
ATM-2097,citizens_us,,,Chesapeake,VA,,US,,,,Citizens,Q5122694
ATM-2110,citizens_us,,,Chesapeake,VA,,US,,,,Citizens,Q5122694
chesapeake/5560,claires,Shop Ear Piercings & Jewelry at Greenbrier Mall,,CHESAPEAKE,VA,,US,+1 757-420-5122,https://stores.claires.com/us/va/chesapeake/5560.html,Mo-Th 10:00-20:00; Fr-Sa 10:00-21:00; Su 12:00-18:00,Claire's,Q2974996
99,clean_eatz_us,,,Chesapeake,VA,,US,+1 757-698-4485,https://locations.cleaneatz.com/va/chesapeake/meal-prep-99.html,Mo-Fr 11:00-19:00; Sa-Su 11:00-15:00,Clean Eatz,Q124412638
4541 Bainbridge BlvdChesapeakeVA,clean_harbors,Clean Harbors,,Chesapeake,VA,,US,+1 757-545-1958,,,Clean Harbors,Q5130494
20942,coldstone_creamery,Cold Stone Creamery,,Chesapeake,VA,,US,+1 757-353-3222,https://www.coldstonecreamery.com/stores/20942,,Cold Stone Creamery,Q1094923
431,cookout,Chesapeake,,Chesapeake,VA,,US,,https://www.facebook.com/Cook-Out-Chesapeake-VA-1210558818965725/,Mo-Th 10:30-03:00; Fr-Sa 10:30-04:00; Su 10:30-03:00,Cookout,Q5166992
,credit_union_us,ABNB FCU,,Chesapeake,VA,,US,+1 757-523-5300,,Mo-Th 09:00-05:00; Fr 09:00-06:00; Sa 09:00-01:00,,
,credit_union_us,BayPort CU,,Chesapeake,VA,,US,+1 757-928-8850,,Mo-Th 09:00-05:30; Fr 09:00-06:00,,
,credit_union_us,Langley FCU,,Chesapeake,VA,,US,+1 757-827-5328,,Mo-Fr 08:30-05:00; Sa 08:30-12:30,,
,credit_union_us,NAE FCU,,Chesapeake,VA,,US,+1 757-410-2000,,Mo-Fr 09:00-05:00,,
80293123,cricket_wireless,Cricket Wireless Authorized Retailer,,Chesapeake,VA,,US,+1 757-410-8979,https://www.cricketwireless.com/stores/ll/US/VA/Chesapeake/1508-Sams-Cir,Mo-Sa 10:00-20:00; Su 12:00-18:00,Cricket Wireless,Q5184987
16409,cvs_us,CVS Pharmacy,,Chesapeake,VA,,US,+1 757-547-5802,https://www.cvs.com/store-locator/chesapeake-va-pharmacies/1316-greenbrier-pkwy-chesapeake-va-23320/storeid=16409,"Mo-Fr 09:00-13:30,14:00-19:00; Sa 10:00-13:30,14:00-18:00; Su 11:00-13:30,14:00-17:00",CVS Pharmacy,Q2078880
255,cvs_us,CVS Pharmacy,,Chesapeake,VA,,US,+1 757-312-0502,https://www.cvs.com/store-locator/chesapeake-va-pharmacies/1329-kempsville-rd-chesapeake-va-23320/storeid=255,24/7,CVS Pharmacy,Q2078880
248788,dennys,Denny's,,Chesapeake,VA,,US,+1 757-312-9008,https://locations.dennys.com/VA/CHESAPEAKE/248788,24/7,Denny's,Q1189695
0172,dillards,"Dillard's Greenbrier Mall in Chesapeake, Virginia",,Chesapeake,VA,,US,+1 757-523-9031,https://www.dillards.com/stores/virginia/greenbrier-mall-chesapeake/0172,Mo-Sa 11:00-20:00; Su 12:00-18:00,Dillard's,Q844805
4212,dominos_pizza_us,Domino's Pizza,,Chesapeake,VA,,US,+1 757-424-4075,https://pizza.dominos.com/virginia/chesapeake/1011-eden-way-n-ste-b,Mo-Th 10:00-24:00; Fr-Sa 10:00-01:00; Su 10:00-24:00,Domino's,Q839466
4207,dominos_pizza_us,Domino's Pizza,,Chesapeake,VA,,US,+1 757-330-5353,https://pizza.dominos.com/virginia/chesapeake/745-north-battlefield-blvd-102,Mo-Th 10:00-24:00; Fr-Sa 10:00-01:00; Su 10:00-24:00,Domino's,Q839466
Crossways at Greenbrier,dsw,DSW,,Chesapeake,VA,,US,+1 757-361-5807,https://stores.dsw.com/usa/va/chesapeake/dsw-designer-shoe-warehouse-crossways-at-greenbrier.html,Mo-Sa 10:00-20:00; Su 11:00-19:00,Designer Shoe Warehouse,Q5206207
306659,dunkin_us,Dunkin',,Chesapeake,VA,,US,+1 757-436-2285,https://locations.dunkindonuts.com/en/va/chesapeake/1435-battlefield-blvd-n/306659,Mo-Su 06:00-20:00,Dunkin',Q847743
356916,dunkin_us,Dunkin',,Chesapeake,VA,,US,+1 757-547-7271,https://locations.dunkindonuts.com/en/va/chesapeake/1108-volvo-pkwy/356916,Mo-Su 05:00-19:00,Dunkin',Q847743
https://www.edwardjones.com/us-en/financial-advisor/jason-legato,edwardjones,Jason M Legato,,Chesapeake,VA,,US,+1 757-485-3309,https://www.edwardjones.com/us-en/financial-advisor/jason-legato,Mo-Th 08:30-17:00; Fr 08:30-16:00,Edward Jones,Q5343830
1148-volvo-pkwy,einsteinbros,Chesapeake Einstein Bros. Bagels,,Chesapeake,VA,,US,+1 757-410-3646,https://locations.einsteinbros.com/us/va/chesapeake/1148-volvo-pkwy,Mo-Su 07:00-15:00,Einstein Bros. Bagels,Q5349788
E12108,enterprise,Chesapeake Military & Paramount,,Chesapeake,VA,,US,+1 757-420-7700,,,Enterprise Rent-A-Car,Q17085454
E1218T,enterprise,Enterprise Rent-A-Car,,Chesapeake,VA,,US,+1 757-361-9016,,,Enterprise Rent-A-Car,Q17085454
E12160,enterprise,Chesapeake N. Battlefield Blvd.,,Chesapeake,VA,,US,+1 757-549-6600,,,Enterprise Rent-A-Car,Q17085454
E121G2,enterprise,Chesapeake Greenbrier & Military,,Chesapeake,VA,,US,+1 757-361-0081,,,Enterprise Rent-A-Car,Q17085454
E121N9,enterprise,Chesapeake Priority Chevrolet,,Chesapeake,VA,,US,+1 757-424-6010,,,Enterprise Rent-A-Car,Q17085454
0546,european_wax_center_us,European Wax Center,,Chesapeake,VA,,US,+1 757-512-7929,https://locations.waxcenter.com/va/chesapeake/chesapeake-crossways-shopping-center-0546.html,Mo-Fr 09:00-21:00; Sa 09:00-19:00; Su 09:00-18:00,European Wax Center,Q5413426
1000000342,extra_space_storage,Chesapeake Self Storage at 659 Woodlake Dr,,Chesapeake,VA,,US,+1 757-366-0055,https://www.extraspace.com/storage/facilities/us/virginia/chesapeake/1000000342/,Mo-Su 06:00-22:00,Extra Space Storage,Q5422162
200325297,exxonmobil,Exxon,,CHESAPEAKE,VA,,US,,https://www.exxon.com/en/find-station/exxon-chesapeake-va-exxon-200325297,Mo-Su 06:00-00:00,Exxon,Q109675651
200324975,exxonmobil,7-ELEVEN 32964,,CHESAPEAKE,VA,,US,+1 757-312-8434,https://www.exxon.com/en/find-station/exxon-chesapeake-va-7eleven32964-200324975,24/7,Exxon,Q109675651
200310598,exxonmobil,Exxon,,CHESAPEAKE,VA,,US,,https://www.exxon.com/en/find-station/exxon-chesapeake-va-exxon-200310598,Mo-Su 06:00-00:00,Exxon,Q109675651
https://local.fedex.com/#25207150,fedex,,,Chesapeake,VA,,US,+1 800-463-3339,https://local.fedex.com/en-us/va/chesapeake/ca9m6,,FedEx,Q459477
https://local.fedex.com/#25205004,fedex,,,Chesapeake,VA,,US,+1 800-463-3339,https://local.fedex.com/en-us/va/chesapeake/briyd,,FedEx,Q459477
https://local.fedex.com/#25457890,fedex,,,Chesapeake,VA,,US,+1 800-463-3339,https://local.fedex.com/en-us/va/chesapeake/84076,,FedEx,Q459477
790198,firestone_auto_care,Firestone Complete Auto Care,,Chesapeake,VA,,US,+1 757-932-0676,https://local.firestonecompleteautocare.com/virginia/chesapeake/1545-ring-rd/,,Firestone,Q420837
1910,firestone_auto_care,Firestone Complete Auto Care,,Chesapeake,VA,,US,+1 757-512-5161,https://local.firestonecompleteautocare.com/virginia/chesapeake/453-n-battlefield-blvd/,,Firestone,Q420837
https://locations.fivebelow.com/va/chesapeake/1501-sentinel-drive,five_below,Five Below Chesapeake Greenbrier Square,,Chesapeake,VA,,US,,https://locations.fivebelow.com/va/chesapeake/1501-sentinel-drive,Mo-Sa 10:00-20:00; Su 11:00-18:00,Five Below,Q5455836
https://restaurants.fiveguys.com/#15553650,five_guys_us,Five Guys Chesapeake,,Chesapeake,VA,,US,+1 757-382-0070,https://restaurants.fiveguys.com/1217-battlefield-blvd,"Mo-Su 11:00-21:30,11:00-22:00",Five Guys,Q1131810
https://stores.footlocker.com/va/chesapeake/1401-greenbrier-parkway-7352.html,footlocker,"Foot Locker in Chesapeake: Chesapeake, Virginia | Approved | Own It",,Chesapeake,VA,,US,+1 757-420-5690,https://stores.footlocker.com/va/chesapeake/1401-greenbrier-parkway-7352.html,Mo-Th 10:00-20:00; Fr-Sa 10:00-21:00; Su 12:00-18:00,Foot Locker,Q63335
Motorcraft2148USAEnglish,ford,Freedom Lincoln Mercury,,Virginia,VA,,US,+1 757-424-1100,,,Ford,Q44294
Motorcraft2150USAEnglish,ford,Cavalier Ford Lincoln,,Virginia,VA,,US,+1 757-424-1111,,,Ford,Q44294
https://www.ford.com/dealerships/dealer-details/va/chesapeake/cavalier-ford-greenbrier/,ford_dealers_us,Cavalier Ford Greenbrier,,Chesapeake,VA,,US,+1 757-392-4215,https://www.ford.com/dealerships/dealer-details/va/chesapeake/cavalier-ford-greenbrier/,Mo-Fr 09:00-20:00; Sa 09:00-19:00; Su 12:00-17:00,Ford Motor Company,Q44294
3837,fresenius_kidney_care_us,Fresenius Kidney Care Dominion,,Chesapeake,VA,,US,+1 800-881-5101,https://www.freseniuskidneycare.com/dialysis-centers/virginia/3837,Mo 06:00-19:30; We 06:00-19:30; Fr 06:00-19:30,,
1441,fresenius_kidney_care_us,Fresenius Kidney Care Eastern Virginia,,Chesapeake,VA,,US,+1 800-881-5101,https://www.freseniuskidneycare.com/dialysis-centers/virginia/1441,Mo 05:30-20:00; Tu 05:30-16:30; We 05:30-20:00; Th 05:30-16:30; Fr 05:30-20:00; Sa 05:30-16:30,,
3908,gamestop_us,Greenbrier Market Center,,Chesapeake,VA,,US,+1 757-549-3473,https://www.gamestop.com/search/?store=3908,Mo-Th 12:00-20:00; Fr-Sa 10:00-21:00; Su 12:00-19:00,GameStop,Q202210
norfolk_mike-pagan,geico,Mike Pagan,,Chesapeake,VA,,US,+1 757-549-1772,https://www.geico.com/insurance-agents/virginia/norfolk/mike-pagan/,,GEICO,Q1498689
https://stores.gnc.com/#24058884,gnc,GNC Greenbrier Mall,,,VA,,US,+1 757-420-6905,https://stores.gnc.com/all-stores-virginia/chesapeake/1401-greenbrier-parkway,Mo-Th 11:00-19:00; Fr-Sa 11:00-20:00; Su 12:00-18:00,GNC,Q4808595
https://www.goldencorral.com/locations/location-detail/721/golden-corral-volvo-parkway/,golden_corral,"Golden Corral 721, Chesapeake, VA",,Chesapeake,VA,,US,+1 757-549-2819,https://www.goldencorral.com/locations/location-detail/721/golden-corral-volvo-parkway/,,Golden Corral,Q4039560
ae51053a-458a-e111-8dde-005056934050,goodwill,Battlefield ADC,,Chesapeake,VA,,US,,https://www.goodwill.org/locator/location/?store=YWU1MTA1M2EtNDU4YS1lMTExLThkZGUtMDA1MDU2OTM0MDUw&lat=MzYuNzY4ODY=&lng=LTc2LjI0OTk=,,Goodwill,Q5583655
https://salons.greatclips.com/us/va/chesapeake/1437-sams-dr,greatclips,Great Clips,,Chesapeake,VA,,US,+1 757-548-0119,https://salons.greatclips.com/us/va/chesapeake/1437-sams-dr,Mo-Fr 09:00-20:00; Sa 09:00-19:00; Su 10:00-18:00,Great Clips,Q5598967
https://salons.greatclips.com/us/va/chesapeake/473-kempsville-rd,greatclips,Great Clips,,Chesapeake,VA,,US,+1 757-382-5908,https://salons.greatclips.com/us/va/chesapeake/473-kempsville-rd,Mo-Fr 09:00-20:00; Sa 09:00-19:00; Su 10:00-17:00,Great Clips,Q5598967
https://www.harborfreight.com/storelocator/701-battlefield-blvd-n-suite-a-chesapeake-23320?number=3043,harborfreight,"Harbor Freight Tools Chesapeake, VA",,Chesapeake,VA,,US,+1 757-264-6660,https://www.harborfreight.com/storelocator/701-battlefield-blvd-n-suite-a-chesapeake-23320?number=3043,Mo-Sa 08:00-20:00; Su 09:00-18:00,Harbor Freight Tools,Q5654601
orfhwhw-homewood-suites-chesapeake-greenbrier,hilton,Homewood Suites by Hilton Chesapeake-Greenbrier,,,VA,,US,+1 757-213-0808,https://www.hilton.com/ar/hotels/orfhwhw-homewood-suites-chesapeake-greenbrier/,,Homewood Suites by Hilton,Q5890701
orfchgi-hilton-garden-inn-chesapeake-greenbrier,hilton,Hilton Garden Inn Chesapeake/Greenbrier,,,VA,,US,+1 757-420-2515,https://www.hilton.com/ar/hotels/orfchgi-hilton-garden-inn-chesapeake-greenbrier/,,Hilton Garden Inn,Q1162859
US0464,hm,Greenbrier Mall,,Chesapeake,VA,,US,+1 855-466-7467,,Mo-Th 11:00-19:00; Fr-Sa 11:00-20:00; Su 12:00-18:00,H&M,Q188326
839,huddle_house_us,VA - Chesapeake,,Chesapeake,VA,,US,+1 757-410-9091,https://www.huddlehouse.com/locations/va/chesapeake/473-kempsville-road-110,Mo-Su 06:00-15:00,Huddle House,Q5928324
44230,h_r_block,H&R Block,,Chesapeake,VA,,US,+1 757-545-7852,https://www.hrblock.com/local-tax-offices/virginia/chesapeake/village-square-shopping-center/44230/,,H&R Block,Q5627799
44238,h_r_block,H&R Block,,Chesapeake,VA,,US,+1 757-547-4244,https://www.hrblock.com/local-tax-offices/virginia/chesapeake/woodford-square-shop-ctr/44238/,,H&R Block,Q5627799
44585,h_r_block,H&R Block,,Chesapeake,VA,,US,+1 757-312-0660,https://www.hrblock.com/local-tax-offices/virginia/chesapeake/walmart-way-crossing/44585/,,H&R Block,Q5627799
va_chesapeake_breakfast-641-battlefield-blvd-n-493,ihop,IHOP Breakfast Restaurants Near You at 641 Battlefield Blvd N,,Chesapeake,VA,,US,+1 866-891-0848,https://restaurants.ihop.com/en-us/va/chesapeake/breakfast-641-battlefield-blvd-n-493,,IHOP,Q1185675
https://office.jacksonhewitt.com/#27578222,jackson_hewitt,Jackson Hewitt,,Chesapeake,VA,,US,+1 757-548-4594,https://office.jacksonhewitt.com/tax-preparation-services-locations/en/va/chesapeake/801-volvo-pky/10015,Mo-Fr 10:00-18:00; Sa 10:00-17:00; Su 13:00-17:00,Jackson Hewitt,Q6117132
https://office.jacksonhewitt.com/#27580040,jackson_hewitt,Jackson Hewitt,,Chesapeake,VA,,US,+1 757-410-2200,https://office.jacksonhewitt.com/tax-preparation-services-locations/en/va/chesapeake/1200-battlefield-blvd-n/10014,Mo-Fr 10:00-19:00; Sa 10:00-17:30; Su 12:00-17:30,Jackson Hewitt,Q6117132
chesapeake-deli,jasonsdeli,Chesapeake Deli,"725 Eden Way N, Chesapeake, Virginia 23320",Chesapeake,VA,,US,+1 757-382-0889,https://www.jasonsdeli.com/restaurants/chesapeake-deli,Mo-Su 08:00-22:00,Jason's Deli,Q16997641
https://locations.jimmyjohns.com/va/chesapeake/sandwiches-1059.html,jimmy_johns,Jimmy John's,,Chesapeake,VA,,US,+1 757-547-0850,https://locations.jimmyjohns.com/va/chesapeake/sandwiches-1059.html,,Jimmy John's,Q1689380
2507,joann_us,JOANN Fabric and Crafts,,Chesapeake,VA,,US,+1 757-523-6479,https://stores.joann.com/va/chesapeake/2507/,Mo-Sa 09:00-21:00; Su 10:00-18:00,JOANN,Q6203968
https://locations.kfc.com/#11249293,kfc,Chicken Nuggets Near Chesapeake,,Chesapeake,VA,,US,,https://locations.kfc.com/va/chesapeake/2212-s-military-hwy/chickennugget,Mo-Th 10:30-23:00; Fr-Sa 10:30-23:30; Su 10:30-23:00,KFC,Q524757
301288,kindercare,Greenbrier KinderCare,,Chesapeake,VA,,US,,https://www.kindercare.com/our-centers/chesapeake/va/301288,,KinderCare Learning Centers,Q6410551
656,kohls_us,Kohl's,,Chesapeake,VA,,US,+1 757-312-0980,https://www.kohls.com/stores/va/chesapeake-656.shtml,Mo-Sa 09:00-21:00; Su 09:00-20:00,Kohl's,Q967265
158810,marathon_petroleum_us,Battlefield Marathon,,Chesapeake,VA,,US,+1 757-410-2869,,,Marathon,Q458363
ORFAL,marriott,Aloft Chesapeake,,Chesapeake,VA,,US,+1 757-410-9562,https://www.marriott.com/ORFAL,,Aloft Hotels,Q4734166
ORFCY,marriott,Courtyard Chesapeake Greenbrier,,Chesapeake,VA,,US,+1 757-420-1700,https://www.marriott.com/ORFCY,,Courtyard by Marriott,Q1053170
ORFCD,marriott,Delta Hotels Chesapeake Norfolk,,Chesapeake,VA,,US,+1 757-523-1500,https://www.marriott.com/ORFCD,,Delta Hotels,Q5254663
ORFFC,marriott,Fairfield Inn & Suites Chesapeake,,Chesapeake,VA,,US,+1 757-420-1300,https://www.marriott.com/ORFFC,,Fairfield by Marriott,Q5430314
ORFGB,marriott,Residence Inn Chesapeake Greenbrier,,Chesapeake,VA,,US,+1 757-502-7300,https://www.marriott.com/ORFGB,,Residence Inn by Marriott,Q7315394
ORFNC,marriott,SpringHill Suites Chesapeake Greenbrier,,Chesapeake,VA,,US,+1 757-410-9406,https://www.marriott.com/ORFNC,,SpringHill Suites,Q7580351
17304,mattress_firm_us,Mattress Firm Volvo Parkway,,Chesapeake,VA,,US,+1 757-312-9020,https://www.mattressfirm.com/en-us/stores/va/chesapeake/061177/,,Mattress Firm,Q6791878
16901,mattress_firm_us,Mattress Firm Greenbrier,,Chesapeake,VA,,US,+1 757-420-1800,https://www.mattressfirm.com/en-us/stores/va/chesapeake/061016/,,Mattress Firm,Q6791878
https://metrodiner.com/locations/virginia/chesapeake/,metrodiner,Metro Diner – Chesapeake,,Chesapeake,VA,,US,+1 757-645-0203,https://metrodiner.com/locations/virginia/chesapeake/,Mo-Su 08:00-20:00,Metro Diner,Q104870732
https://metrodiner.com/locations/virginia/chesapeake/,metro_diner_us,Metro Diner – Chesapeake,,Chesapeake,VA,,US,+1 757-645-0203,https://metrodiner.com/locations/virginia/chesapeake/,Mo-Su 08:00-20:00,Metro Diner,Q104870732
https://locations.modpizza.com/#23558101,modpizza,MOD Pizza Battlefield Boulevard,,Chesapeake,VA,,US,+1 757-366-2354,https://locations.modpizza.com/usa/va/chesapeake/1329-n-battlefield-blvd,Mo-Th 10:30-22:00; Fr-Sa 10:30-23:00; Su 10:30-22:00,MOD Pizza,Q19903469
https://locations.moes.com/#553,moes,Moe's Southwest Grill,,Chesapeake,VA,,US,+1 757-410-5664,https://locations.moes.com/va/chesapeake/717-eden-way-north,Mo-Su 10:30-21:00,Moe's Southwest Grill,Q6889938
1328-greenbrier-parkway,my_eye_dr,,,Chesapeake,VA,,US,+1 757-523-2000,https://locations.myeyedr.com/va/chesapeake/1328-greenbrier-parkway,,MyEyeDr.,Q117864710
NNA5692,nissan_europe,BANISTER NISSAN OF CHESAPEAKE,,CHESAPEAKE,VA,,US,+1 757-644-3405,https://www.banisternissanofchesapeake.com,Mo-Sa 09:00-19:00,Nissan,Q20165
17936,orangetheory_fitness,"Greenbrier, VA",,Chesapeake,VA,,US,+1 757-335-6896,,,Orangetheory Fitness,Q25005163
https://locations.oreillyauto.com/va/chesapeake/check-engine-light-testing-3976.html,oreilly,Your Chesapeake O'Reilly Auto Parts Store,,Chesapeake,VA,,US,+1 757-361-2484,https://locations.oreillyauto.com/va/chesapeake/check-engine-light-testing-3976.html,Mo-Sa 07:30-21:00; Su 09:00-20:00,O'Reilly Auto Parts,Q7071951
https://locations.oreillyauto.com/va/chesapeake/wiper-installation-3976.html,oreilly,Your Chesapeake O'Reilly Auto Parts Store,,Chesapeake,VA,,US,+1 757-361-2484,https://locations.oreillyauto.com/va/chesapeake/wiper-installation-3976.html,Mo-Sa 07:30-21:00; Su 09:00-20:00,O'Reilly Auto Parts,Q7071951
https://locations.oreillyauto.com/va/chesapeake/battery-testing-3976.html,oreilly,Your Chesapeake O'Reilly Auto Parts Store,,Chesapeake,VA,,US,+1 757-361-2484,https://locations.oreillyauto.com/va/chesapeake/battery-testing-3976.html,Mo-Sa 07:30-21:00; Su 09:00-20:00,O'Reilly Auto Parts,Q7071951
https://locations.oreillyauto.com/va/chesapeake/autopartes-3976.html,oreilly,Tu tienda O'Reilly Auto Parts en Chesapeake,,Chesapeake,VA,,US,+1 757-361-2484,https://locations.oreillyauto.com/va/chesapeake/autopartes-3976.html,Mo-Sa 07:30-21:00; Su 09:00-20:00,O'Reilly Auto Parts,Q7071951
https://www.orkin.com/locations/virginia-va/chesapeake-pest-control/branch-457,orkin_us,Orkin,,Chesapeake,VA,,US,+1 757-938-7135,https://www.orkin.com/locations/virginia-va/chesapeake-pest-control/branch-457,,Orkin,Q7102943
112597,pandaexpress,Battlefield & Volvo,,Chesapeake,VA,,US,+1 757-312-0030,https://www.pandaexpress.com/locations/va/chesapeake/1220-n-battlefield-blvd,Mo-Th 10:00-22:00; Fr-Sa 10:00-22:30; Su 10:00-22:00,Panda Express,Q1358690
us01dac03d,pandora,About Pandora Jewelry Authorized Retailer - Reeds Jewelers #20 / Greenbrier Mall,,South Chesapeake,VA,,US,+1 757-420-1367,https://stores.pandora.net/va/southchesapeake/pandora-jewelry-us01dac03d.html,,Pandora,Q2241604
usf791cc3a,pandora,About Pandora Jewelry Authorized Retailer - Long Jewelers,,Chesapeake,VA,,US,+1 757-436-1920,https://stores.pandora.net/va/chesapeake/pandora-jewelry-usf791cc3a.html,Mo-Fr 09:30-18:30; Sa 09:30-17:00,Pandora,Q2241604
https://locations.papajohns.com/#10692761,papa_johns,Papa John's,,Chesapeake,VA,,US,+1 757-549-0300,https://locations.papajohns.com/united-states/va/23320/chesapeake/1148a-volvo-pkwy,Mo-Th 10:00-23:00; Fr-Sa 10:00-24:00; Su 10:00-23:00,Papa John's Pizza,Q2759586
137,party_city,Volvo Parkway,,Chesapeake,VA,,US,+1 757-447-6028,https://stores.partycity.com/us/va/chesapeake/party-store-pc137.html,,Party City,Q7140896
070710,penske,Penske Chesapeake,,CHESAPEAKE,VA,,US,+1 757-420-0300,https://www.pensketruckrental.com/locations/us/virginia/chesapeake/070710/,,Penske,Q81234570
070727,penske,Home Depot #4619,,CHESAPEAKE,VA,,US,+1 757-547-5623,https://www.pensketruckrental.com/locations/us/virginia/chesapeake/070727/,,Penske,Q81234570
va_chesapeake_801-volvo-pkwy,pizza_hut_us,801 Volvo Pkwy,,Chesapeake,VA,,US,+1 757-548-7777,https://locations.pizzahut.com/va/chesapeake/801-volvo-pkwy,,Pizza Hut,Q191615
va_chesapeake_1316-greenbrier-parkway,pizza_hut_us,1316 Greenbrier Parkway,,Chesapeake,VA,,US,,https://locations.pizzahut.com/va/chesapeake/1316-greenbrier-parkway,,Pizza Hut,Q191615
restaurant_86599,popeyes_us_fr,Popeyes,"100 Debaun Loop Chesapeake, Virginia 23320 - USA",Chesapeake,VA,,US,+1 757-351-1943,https://www.popeyes.com/store-locator/store/restaurant_86599,Mo-Su 10:30-22:00,Popeyes,Q1330910
spectrum-paint-31065,ppgpaints,SPECTRUM PAINT,,"Chesapeake, ",VA,,US,+1 757-549-6849,https://www.ppgpaints.com/store-locator/us/virginia/chesapeake-paint-stores/spectrum-paint-31065,,PPG Paints,Q83891559
ppg-paints-9969-22180,ppgpaints,PPG Paints 9969,,"Chesapeake, ",VA,,US,+1 757-494-5116,https://www.ppgpaints.com/store-locator/us/virginia/chesapeake-paint-stores/ppg-paints-9969-22180,,PPG Paints,Q83891559
home-depot-4619-14270,ppgpaints,HOME DEPOT 4619,,"Chesapeake, ",VA,,US,+1 757-548-8478,https://www.ppgpaints.com/store-locator/us/virginia/chesapeake-paint-stores/home-depot-4619-14270,,PPG Paints,Q83891559
https://www.publicstorage.com/self-storage-va-chesapeake/2366.html,public_storage_us,Public Storage,,Chesapeake,VA,,US,+1 757-550-0949,https://www.publicstorage.com/self-storage-va-chesapeake/2366.html,,Public Storage,Q1156045
https://www.publicstorage.com/self-storage-va-chesapeake/1811.html,public_storage_us,Public Storage,,Chesapeake,VA,,US,+1 757-401-4862,https://www.publicstorage.com/self-storage-va-chesapeake/1811.html,,Public Storage,Q1156045
https://www.publicstorage.com/self-storage-va-chesapeake/1045.html,public_storage_us,Public Storage,,Chesapeake,VA,,US,+1 757-777-9000,https://www.publicstorage.com/self-storage-va-chesapeake/1045.html,,Public Storage,Q1156045
347,pure_barre_us,Chesapeake,,Chesapeake,VA,,US,+1 757-842-4288,https://www.purebarre.com/location/chesapeake-va,,Pure Barre,Q86707084
8707,regal_nails_us,"Regal Nails, Salon &#038; Spa",1521 Sams Circle,Chesapeake,VA,,US,+1 757-549-9996,,,Regal Nails,Q108918028
2447,rentacenter,Rent-A-Center,,Chesapeake,VA,,US,+1 757-545-6100,https://locations.rentacenter.com/virginia/chesapeake/1903-s-military-hwy/,Mo-Sa 10:00-18:00,Rent-A-Center,Q7313497
81476,ritasitalianice,Rita’s of Greenbrier Shoppes VA,,Chesapeake,VA,,US,+1 757-410-8850,https://www.ritasice.com/location/ritas-of-greenbrier-shoppes-va/,,Rita's Italian Ice,Q7336456
11250,rite_aid_us,Rite Aid #11250 Chesapeake,,Chesapeake,VA,,US,+1 757-547-2456,https://locations2.riteaid.com.yext-cdn.com/va/chesapeake/101-gainsborough-square.html,Mo-Fr 08:00-21:00; Sa-Su 09:00-21:00,Rite Aid,Q3433273
612,ross_dress_for_less_us,Greenbrier,,Chesapeake,VA,,US,+1 757-578-7280,,Mo-Th 09:00-22:30; Fr-Sa 08:30-23:30; Su 09:00-22:00,Ross Dress for Less,Q3442791
2906,ruby_tuesday_us,Ruby Tuesday,1412 GREENBRIER PKWY #130 CHESAPEAKE VA 23320,Chesapeake,VA,,US,+1 757-366-0739,,Mo-Th 11:00-22:00; Fr-Sa 11:00-23:00; Su 11:00-22:00,Ruby Tuesday,Q7376400
1412-greenbriar-parkway,rue21,Crossways Shopping Center,,Chesapeake,VA,,US,,https://stores.rue21.com/va/chesapeake/1412-greenbriar-parkway.html,Mo-Sa 10:00-20:00; Su 12:00-18:00,rue21,Q7377762
https://stores.saloncentric.com/#29173311,salon_centric_us,SalonCentric,,,VA,,US,+1 757-547-0903,https://stores.saloncentric.com/va/chesapeake/2809,Mo 08:00-18:30; Tu-Fr 08:00-18:00; Sa 08:30-16:00,SalonCentric,Q124339481
6368,sams_club,Chesapeake Sam's Club,,Chesapeake,VA,,US,+1 757-436-7119,https://www.samsclub.com/club/chesapeake-va-sams-club/6368,Mo 10:00-20:00; Sa 09:00-20:00; Su 10:00-18:00,Sam's Club,Q1972120
33668,seven_eleven_ca_us,7-11 Str   713 Eden Way North,,Chesapeake,VA,,US,+1 757-312-9046,https://www.7-eleven.com/locations/va/chesapeake/713-eden-way-north-33668,,7-Eleven,Q259340
32963,seven_eleven_ca_us,7-Eleven Store,,Chesapeake,VA,,US,+1 757-424-5802,https://www.7-eleven.com/locations/va/chesapeake/828-eden-way-nr-32963,,7-Eleven,Q259340
33473,seven_eleven_ca_us,7-11 Str   437 Kempsville Rd,,Chesapeake,VA,,US,+1 757-549-1580,https://www.7-eleven.com/locations/va/chesapeake/437-kempsville-rd-33473,,7-Eleven,Q259340
32962,seven_eleven_ca_us,7-Eleven Store,,Chesapeake,VA,,US,+1 757-523-1314,https://www.7-eleven.com/locations/va/chesapeake/1729-military-hwy-south-32962,,7-Eleven,Q259340
33463,seven_eleven_ca_us,7-Eleven Store,,Chesapeake,VA,,US,+1 757-382-0134,https://www.7-eleven.com/locations/va/chesapeake/1108-volvo-pkwy-33463,,7-Eleven,Q259340
36094,seven_eleven_ca_us,7-11 Str   1498 South Military Hwy,,Chesapeake,VA,,US,+1 757-424-4326,https://www.7-eleven.com/locations/va/chesapeake/1498-south-military-hwy-36094,,7-Eleven,Q259340
36052,seven_eleven_ca_us,7-11 Str   1025 N Eden Way,,Chesapeake,VA,,US,+1 757-312-0810,https://www.7-eleven.com/locations/va/chesapeake/1025-n-eden-way-36052,,7-Eleven,Q259340
32752,seven_eleven_ca_us,7-Eleven Store,,Chesapeake,VA,,US,+1 757-312-9190,https://www.7-eleven.com/locations/va/chesapeake/956-n-battlefield-blvd-32752,,7-Eleven,Q259340
32964,seven_eleven_ca_us,7-Eleven Store,,Chesapeake,VA,,US,+1 757-312-8434,https://www.7-eleven.com/locations/va/chesapeake/907-great-bridge-blvd-nr-32964,,7-Eleven,Q259340
38163,seven_eleven_ca_us,7-11 Str   536 Kempsville Rd,,Chesapeake,VA,,US,+1 757-548-0393,https://www.7-eleven.com/locations/va/chesapeake/536-kempsville-rd-38163,,7-Eleven,Q259340
3064,shellrecharge,Volvo Penta,,Chesapeake,VA,,US,,,,Shell Recharge,Q105883058
https://smashburger.com/locations/#64506862,smashburger,Smashburger,,Chesapeake,VA,,US,+1 757-351-3792,https://smashburger.com/locations/us/va/chesapeake/1412-greenbrier-pkwy,Mo-Su 11:00-20:00,Smashburger,Q17061332
330,sola_salon_studios,Greenbrier,,Chesapeake,VA,,US,+1 757-946-9000,https://www.solasalonstudios.com/locations/greenbrier1,,Sola Salon Studios,Q64337426
https://restaurants.subway.com/#14900787,subway,Subway Greenbriar S Shopping Ctr,,Chesapeake Chesapeake City,VA,,US,+1 757-436-6736,https://restaurants.subway.com/united-states/va/chesapeake/801-volvo-pkwy,Mo-Fr 07:00-22:00; Sa 08:00-22:00; Su 09:00-21:00,Subway,Q244457
https://restaurants.subway.com/#14896860,subway,Subway Great Bridge Shoppes,,Chesapeake Chesapeake City,VA,,US,+1 757-312-0245,https://restaurants.subway.com/united-states/va/chesapeake/865-great-bridge-blvd,Mo-Su 09:00-21:00,Subway,Q244457
https://restaurants.subway.com/#14900020,subway,Subway Parkview Shopping Ctr,,Chesapeake Chesapeake City,VA,,US,+1 757-523-1842,https://restaurants.subway.com/united-states/va/chesapeake/1757-parkview-dr,Mo-Fr 08:00-22:00; Sa-Su 09:00-22:00,Subway,Q244457
https://restaurants.subway.com/#14902903,subway,Subway Gainsborough Square,,Chesapeake Chesapeake City,VA,,US,+1 757-547-3629,https://restaurants.subway.com/united-states/va/chesapeake/109-gainsborough-square,Mo-Sa 09:00-21:30; Su 09:00-21:00,Subway,Q244457
https://stores.sunglasshut.com/us/va/chesapeake/1401-greenbrier-pkwy,sunglass_hut_1,Sunglass Hut at Macy's,,Chesapeake,VA,,US,+1 757-424-6260,https://stores.sunglasshut.com/us/va/chesapeake/1401-greenbrier-pkwy,Mo-Th 10:00-20:00; Fr-Sa 10:00-21:00; Su 11:00-18:00,Sunglass Hut,Q136311
8002326901,sunoco_us,Sunoco,,CHESAPEAKE,VA,,US,+1 757-606-7283,,,Sunoco,Q1423218
0600174700,sunoco_us,Sunoco,,CHESAPEAKE,VA,,US,+1 757-549-0336,,24/7,Sunoco,Q1423218
0377246400,sunoco_us,Sunoco,,CHESAPEAKE,VA,,US,,,Mo-Sa 06:00-23:00; Su 07:00-22:00,Sunoco,Q1423218
0282953900,sunoco_us,Sunoco,,CHESAPEAKE,VA,,US,+1 757-424-0304,,Mo-Sa 06:00-23:00; Su 07:00-22:00,Sunoco,Q1423218
82933,supercuts,Gainesborough Marketplace,109 Gainesborough Sq Ste F,Chesapeake,VA,,US,+1 757-549-6661,https://www.supercuts.com/checkin/82933,Mo-Sa 09:00-19:00; Su 11:00-17:00,Supercuts,Q7643239
82932,supercuts,Greenbrier South Shopping Ctr,801 Volvo Pkwy Ste 112,Chesapeake,VA,,US,+1 757-436-7176,https://www.supercuts.com/checkin/82932,Mo-Sa 09:00-19:00; Su 11:00-17:00,Supercuts,Q7643239
35131,sweetfrog_us,sweetFrog Store 35131,,Chesapeake,VA,,US,+1 757-410-9988,https://www.sweetfrog.com/stores/frozen-yogurt-chesapeake/35131,Mo-Su 11:00-22:00,sweetFrog,Q16952110
https://locations.tacobell.com/#6141701,taco_bell,Taco Bell,,Chesapeake,VA,,US,+1 757-436-0414,https://locations.tacobell.com/va/chesapeake/929-battlefield-blvd--n.html,Mo-We 07:00-03:00; Th-Sa 07:00-03:30; Su 07:00-03:00,Taco Bell,Q752941
https://locations.tacobell.com/#15408057,taco_bell,Taco Bell,,Chesapeake,VA,,US,+1 757-543-1939,https://locations.tacobell.com/va/chesapeake/2212-s--military-hwy-.html,Mo-Th 10:30-24:00; Fr-Sa 10:30-01:00; Su 10:30-24:00,Taco Bell,Q752941
https://locations.tacobell.com/#6145797,taco_bell,Taco Bell,,Chesapeake,VA,,US,+1 757-424-0901,https://locations.tacobell.com/va/chesapeake/1720-parkview-drive.html,Mo-Su 07:00-03:30,Taco Bell,Q752941
https://locations.tacobell.com/#6146457,taco_bell,Taco Bell,,Chesapeake,VA,,US,+1 757-547-4714,https://locations.tacobell.com/va/chesapeake/1353-kempsville-rd.html,Mo-Su 07:00-03:00,Taco Bell,Q752941
28788,tjx,Chesapeake,1501 Sentinel Drive Suite 300A ,Chesapeake,VA,,US,+1 757-321-1617,,Mo-Sa 09:30-21:30; Su 10:00-20:00,HomeGoods,Q5887941
08864,tjx,Chesapeake,1412 Greenbriar Pkwy.,Chesapeake,VA,,US,+1 757-366-9542,,Mo-Sa 09:30-21:30; Su 10:00-20:00,TJ Maxx,Q10860683
10412,tjx,Chesapeake,1228 Greenbrier Pkwy,Chesapeake,VA,,US,+1 757-548-7192,,Mo-Sa 09:30-21:30; Su 10:00-20:00,Marshalls,Q15903261
3B23,tmobile_us,Sam's Club Chesapeake VA,,Chesapeake,VA,,US,+1 757-239-4476,https://www.t-mobile.com/store-locator/va/chesapeake/sams-club-chesapeake-va,,T-Mobile,Q3511885
4675,tmobile_us,N Battlefield Blvd & Gibson Dr,,Chesapeake,VA,,US,+1 757-410-7329,https://www.t-mobile.com/store-locator/va/chesapeake/n-battlefield-blvd-gibson-dr,,T-Mobile,Q3511885
7073,tmobile_us,Crossways,,Chesapeake,VA,,US,+1 757-523-4901,https://www.t-mobile.com/store-locator/va/chesapeake/crossways,,T-Mobile,Q3511885
211,total_wine_and_more_us,Chesapeake,,Chesapeake,VA,,US,+1 757-420-6404,https://www.totalwine.com/store-info/211,Mo-Th 09:00-21:00; Fr-Sa 09:00-22:00; Su 10:00-19:00,Total Wine & More,Q7828084
https://www.ubreakifix.com/locations/volvo,ubreakifix,uBreakiFix Volvo,,Chesapeake,VA,,US,+1 757-891-5600,https://www.ubreakifix.com/locations/volvo,Tu-Sa 10:00-19:00,uBreakiFix,Q53685733
1357829,usps,CHESAPEAKE,,CHESAPEAKE,VA,,US,+1 757-436-2054,,Mo-Fr 09:00-17:00; Sa 10:00-14:00,United States Postal Service,Q668687
2332000072,usps_collection_boxes,USPS COLLECTION BOX - BLUE BOX,232 BATTLEFIELD BLVD N,CHESAPEAKE,VA,,US,,,,United States Postal Service,Q668687
2332000086,usps_collection_boxes,USPS COLLECTION BOX - BLUE BOX,651 RIVER WALK PKWY,CHESAPEAKE,VA,,US,,,,United States Postal Service,Q668687
2332000093,usps_collection_boxes,USPS COLLECTION BOX - BLUE BOX,408 TROTMAN WAY,CHESAPEAKE,VA,,US,,,,United States Postal Service,Q668687
2332000088,usps_collection_boxes,USPS COLLECTION BOX - BLUE BOX,301 WIMBLEDON CHASE,CHESAPEAKE,VA,,US,,,,United States Postal Service,Q668687
2332000085,usps_collection_boxes,USPS COLLECTION BOX - BLUE BOX,1001 RIVER WALK PKWY,CHESAPEAKE,VA,,US,,,,United States Postal Service,Q668687
2332000046,usps_collection_boxes,USPS COLLECTION BOX - BLUE BOX,109 WIMBLEDON SQ,CHESAPEAKE,VA,,US,,,,United States Postal Service,Q668687
2332000034,usps_collection_boxes,USPS COLLECTION BOX - BLUE BOX,736 BATTLEFIELD BLVD N,CHESAPEAKE,VA,,US,,,,United States Postal Service,Q668687
2332000036,usps_collection_boxes,USPS COLLECTION BOX - BLUE BOX,701 BATTLEFIELD BLVD N,CHESAPEAKE,VA,,US,,,,United States Postal Service,Q668687
2332000080,usps_collection_boxes,USPS COLLECTION BOX - BLUE BOX,717 HUNTERS BRIDGE DR,CHESAPEAKE,VA,,US,,,,United States Postal Service,Q668687
2332000062,usps_collection_boxes,USPS COLLECTION BOX - BLUE BOX,1400 KEMPSVILLE RD,CHESAPEAKE,VA,,US,,,,United States Postal Service,Q668687
2332000031,usps_collection_boxes,USPS COLLECTION BOX - BLUE BOX,1200 EXECUTIVE BLVD,CHESAPEAKE,VA,,US,,,,United States Postal Service,Q668687
2332000071,usps_collection_boxes,USPS COLLECTION BOX - BLUE BOX,1132 IVYSTONE SQ,CHESAPEAKE,VA,,US,,,,United States Postal Service,Q668687
2332000064,usps_collection_boxes,USPS COLLECTION BOX - BLUE BOX,1226 PROGRESSIVE DR,CHESAPEAKE,VA,,US,,,,United States Postal Service,Q668687
2332000045,usps_collection_boxes,USPS COLLECTION BOX - BLUE BOX,910 GREAT BRIDGE BLVD,CHESAPEAKE,VA,,US,,,,United States Postal Service,Q668687
2332000020,usps_collection_boxes,USPS COLLECTION BOX - BLUE BOX,1247 BASSWOOD CT,CHESAPEAKE,VA,,US,,,,United States Postal Service,Q668687
2332000075,usps_collection_boxes,USPS COLLECTION BOX - BLUE BOX,1360 MILL LAKE QUARTER,CHESAPEAKE,VA,,US,,,,United States Postal Service,Q668687
2332000084,usps_collection_boxes,USPS COLLECTION BOX - BLUE BOX,1300 TINTERN ST,CHESAPEAKE,VA,,US,,,,United States Postal Service,Q668687
2332000068,usps_collection_boxes,USPS COLLECTION BOX - BLUE BOX,1425 BATTLEFIELD BLVD N,CHESAPEAKE,VA,,US,,,,United States Postal Service,Q668687
2332000069,usps_collection_boxes,USPS COLLECTION BOX - BLUE BOX,1425 BATTLEFIELD BLVD N,CHESAPEAKE,VA,,US,,,,United States Postal Service,Q668687
2332000092,usps_collection_boxes,USPS COLLECTION BOX - PO LOBBY,1425 BATTLEFIELD BLVD N,CHESAPEAKE,VA,,US,,,,United States Postal Service,Q668687
2332000097,usps_collection_boxes,USPS COLLECTION BOX - APC,1425 BATTLEFIELD BLVD N,CHESAPEAKE,VA,,US,,,,United States Postal Service,Q668687
2332000106,usps_collection_boxes,USPS COLLECTION BOX - PO LOBBY,1425 BATTLEFIELD BLVD N,CHESAPEAKE,VA,,US,,,,United States Postal Service,Q668687
2332000019,usps_collection_boxes,USPS COLLECTION BOX - BLUE BOX,240 RED CEDAR CT,CHESAPEAKE,VA,,US,,,,United States Postal Service,Q668687
2332000059,usps_collection_boxes,USPS COLLECTION BOX - BLUE BOX,1403 GREENBRIER PKWY,CHESAPEAKE,VA,,US,,,,United States Postal Service,Q668687
2332000022,usps_collection_boxes,USPS COLLECTION BOX - BLUE BOX,1400 KRISTINA WAY,CHESAPEAKE,VA,,US,,,,United States Postal Service,Q668687
2332000087,usps_collection_boxes,USPS COLLECTION BOX - BLUE BOX,1401 GREENBRIER PKWY,CHESAPEAKE,VA,,US,,,,United States Postal Service,Q668687
2332000009,usps_collection_boxes,USPS COLLECTION BOX - BLUE BOX,1025 EDEN WAY N,CHESAPEAKE,VA,,US,,,,United States Postal Service,Q668687
2332000023,usps_collection_boxes,USPS COLLECTION BOX - BLUE BOX,1412 GREENBRIER PKWY,CHESAPEAKE,VA,,US,,,,United States Postal Service,Q668687
2332000089,usps_collection_boxes,USPS COLLECTION BOX - BLUE BOX,1435 CROSSWAYS BLVD,CHESAPEAKE,VA,,US,,,,United States Postal Service,Q668687
2332000094,usps_collection_boxes,USPS COLLECTION BOX - BLUE BOX,1529 TECHNOLOGY DR,CHESAPEAKE,VA,,US,,,,United States Postal Service,Q668687
2332000055,usps_collection_boxes,USPS COLLECTION BOX - BLUE BOX,870 GREENBRIER CIR,CHESAPEAKE,VA,,US,,,,United States Postal Service,Q668687
2332000091,usps_collection_boxes,USPS COLLECTION BOX - BLUE BOX,870A GREENBRIER CIR,CHESAPEAKE,VA,,US,,,,United States Postal Service,Q668687
2332000014,usps_collection_boxes,USPS COLLECTION BOX - BLUE BOX,2211 S MILITARY HWY,CHESAPEAKE,VA,,US,,,,United States Postal Service,Q668687
2332000082,usps_collection_boxes,USPS COLLECTION BOX - BLUE BOX,1801 SARA DR,CHESAPEAKE,VA,,US,,,,United States Postal Service,Q668687
2332000027,usps_collection_boxes,USPS COLLECTION BOX - BLUE BOX,663 WOODLAKE DR,CHESAPEAKE,VA,,US,,,,United States Postal Service,Q668687
2332000048,usps_collection_boxes,USPS COLLECTION BOX - BLUE BOX,2001 S MILITARY HWY,CHESAPEAKE,VA,,US,,,,United States Postal Service,Q668687
2332000028,usps_collection_boxes,USPS COLLECTION BOX - BLUE BOX,723 WOODLAKE DR,CHESAPEAKE,VA,,US,,,,United States Postal Service,Q668687
2332000081,usps_collection_boxes,USPS COLLECTION BOX - BLUE BOX,804 GREENBRIER CIR,CHESAPEAKE,VA,,US,,,,United States Postal Service,Q668687
2332000090,usps_collection_boxes,USPS COLLECTION BOX - BLUE BOX,2018 PARAMONT AVE,CHESAPEAKE,VA,,US,,,,United States Postal Service,Q668687
2332000050,usps_collection_boxes,USPS COLLECTION BOX - BLUE BOX,1733 PARKVIEW DR,CHESAPEAKE,VA,,US,,,,United States Postal Service,Q668687
2332000076,usps_collection_boxes,USPS COLLECTION BOX - BLUE BOX,2112 SMITH AVE,CHESAPEAKE,VA,,US,,,,United States Postal Service,Q668687
2332000049,usps_collection_boxes,USPS COLLECTION BOX - EXPRESS,2112 SMITH AVE,CHESAPEAKE,VA,,US,,,,United States Postal Service,Q668687
chesapeake_oil-change-080035,valvoline_instant_oil_change,Valvoline,1740 Sentinel Drive ,Chesapeake,VA,,US,+1 757-512-5374,https://store.vioc.com/va/chesapeake/oil-change-080035.html,,Valvoline Instant Oil Change,Q7912852
R00000000420,verizon_us,Chesapeake Hub,,Chesapeake,VA,,US,+1 757-549-9500,https://www.verizon.com/stores/details/virginia/chesapeake/chesapeake-202622/,Mo-Fr 10:00-20:00; Sa 09:00-19:00; Su 10:00-17:00,Verizon,Q919641
A00000170883,verizon_us,Victra Chesapeake Eden Way,,CHESAPEAKE,VA,,US,+1 757-938-9910,https://www.verizon.com/stores/details/virginia/chesapeake/gowireless-chesapeake-eden-way-1509222/,Mo-Fr 11:00-19:00; Sa 10:00-17:00,Verizon,Q919641
A00000255704,verizon_us,Cellular Sales Chesapeake Battlefield,,CHESAPEAKE,VA,,US,+1 757-819-6745,https://www.verizon.com/stores/details/virginia/chesapeake/cellular-sales-chesapeake-battlefield-1523522/,Mo-Sa 10:00-20:00; Su 12:00-18:00,Verizon,Q919641
10828,vestis_uniform_services_us,Vestis Chesapeake,,Chesapeake,VA,,US,+1 757-632-3820,https://www.vestis.com/our-locations/vestis-chesapeake,,Vestis,Q122947676
,visa,,,CHESAPEAKE,VA,,US,,,,,
,visa,,,VIRGINIA BEACH,VA,,US,,,,,
,visa,,,CHESAPEAKE,VA,,US,,,,,
,visa,,,CHESAPEAKE,VA,,US,,,,,
,visa,,,CHESAPEAKE,VA,,US,,,,,
,visa,,,CHESAPEAKE,VA,,US,,,,,
,visa,,,CHESAPEAKE,VA,,US,,,,,
,visa,,,CHESAPEAKE,VA,,US,,,,,
,visa,,,CHESAPEAKE,VA,,US,,,,,
,visa,,,CHESAPEAKE,VA,,US,,,,,
,visa,,,CHESAPEAKE,VA,,US,,,,,
,visa,,,CHESAPEAKE,VA,,US,,,,,
,visa,,,CHESAPEAKE,VA,,US,,,,,
,visa,,,CHESAPEAKE,VA,,US,,,,,
,visa,,,CHESAPEAKE,VA,,US,,,,,
,visa,,,CHESAPEAKE,VA,,US,,,,,
,visa,,,CHESAPEAKE,VA,,US,,,,,
,visa,,,CHESAPEAKE,VA,,US,,,,,
,visa,,,CHESAPEAKE,VA,,US,,,,,
,visa,,,CHESAPEAKE,VA,,US,,,,,
,visa,,,CHESAPEAKE,VA,,US,,,,,
,visa,,,CHESAPEAKE,VA,,US,,,,,
,visa,,,CHESAPEAKE,VA,,US,,,,,
,visa,,,CHESAPEAKE,VA,,US,,,,,
,visa,,,CHESAPEAKE,VA,,US,,,,,
,visa,,,CHESAPEAKE,VA,,US,,,,,
,visa,,,CHESAPEAKE,VA,,US,,,,,
,visa,,,CHESAPEAKE,VA,,US,,,,,
,visa,,,CHESAPEAKE,VA,,US,,,,,
,visa,,,CHESAPEAKE,VA,,US,,,,,
,visa,,,CHESAPEAKE,VA,,US,,,,,
,visa,,,CHESAPEAKE,VA,,US,,,,,
,visa,,,CHESAPEAKE,VA,,US,,,,,
,visa,,,CHESAPEAKE,VA,,US,,,,,
,visa,,,CHESAPEAKE,VA,,US,,,,,
,visa,,,CHESAPEAKE,VA,,US,,,,,
,visa,,,CHESAPEAKE,VA,,US,,,,,
,visa,,,CHESAPEAKE,VA,,US,,,,,
,visa,,,CHEASAPEAKE,VA,,US,,,,,
,visa,,,CHESAPEAKE,VA,,US,,,,,
,visa,,,CHESAPEAKE,VA,,US,,,,,
,visa,,,CHESAPEAKE,VA,,US,,,,,
,visa,,,CHESAPEAKE,VA,,US,,,,,
,visa,,,CHESAPEAKE,VA,,US,,,,,
,visa,,,CHESAPEAKE,VA,,US,,,,,
,visa,,,CHESAPEAKE,VA,,US,,,,,
,visa,,,CHESAPEAKE,VA,,US,,,,,
,visa,,,CHESAPEAKE,VA,,US,,,,,
,visa,,,CHESAPEAKE,VA,,US,,,,,
,visa,,,CHESAPEAKE,VA,,US,,,,,
,visa,,,CHESAPEAKE,VA,,US,,,,,
,visa,,,CHESAPEAKE,VA,,US,,,,,
,visa,,,CHESAPEAKE,VA,,US,,,,,
,visa,,,CHESAPEAKE,VA,,US,,,,,
,visa,,,CHESAPEAKE,VA,,US,,,,,
,visa,,,CHESAPEAKE,VA,,US,,,,,
,visa,,,CHESAPEAKE,VA,,US,,,,,
,visa,,,CHESAPEAKE,VA,,US,,,,,
,visa,,,CHESAPEAKE,VA,,US,,,,,
,visa,,,CHESAPEAKE,VA,,US,,,,,
,visa,,,CHESAPEAKE,VA,,US,,,,,
,visa,,,CHESAPEAKE,VA,,US,,,,,
,visa,,,CHESAPEAKE,VA,,US,,,,,
,visa,,,CHESAPEAKE,VA,,US,,,,,
,visa,,,CHESAPEAKE,VA,,US,,,,,
,visa,,,CHESAPEAKE,VA,,US,,,,,
,visa,,,CHESAPEAKE,VA,,US,,,,,
,visa,,,CHESAPEAKE,VA,,US,,,,,
,visa,,,CHESAPEAKE,VA,,US,,,,,
,visa,,,CHESAPEAKE,VA,,US,,,,,
,visa,,,CHESAPEAKE,VA,,US,,,,,
,visa,,,CHESAPEAKE,VA,,US,,,,,
,visa,,,CHESAPEAKE,VA,,US,,,,,
,visa,,,CHESAPEAKE,VA,,US,,,,,
,visa,,,CHESAPEAKE,VA,,US,,,,,
,visa,,,CHESAPEAKE,VA,,US,,,,,
,visa,,,CHESAPEAKE,VA,,US,,,,,
,visa,,,CHESAPEAKE,VA,,US,,,,,
,visa,,,CHESAPEAKE,VA,,US,,,,,
,visa,,,CHESAPEAKE,VA,,US,,,,,
,visa,,,CHESAPEAKE,VA,,US,,,,,
,visa,,,CHESAPEAKE,VA,,US,,,,,
,visa,,,CHESAPEAKE,VA,,US,,,,,
,visa,,,CHESAPEAKE,VA,,US,,,,,
,visa,,,CHESAPEAKE,VA,,US,,,,,
,visa,,,CHESAPEAKE,VA,,US,,,,,
,visa,,,CHESAPEAKE,VA,,US,,,,,
,visa,,,CHESAPEAKE,VA,,US,,,,,
,visa,,,CHESAPEAKE,VA,,US,,,,,
,visa,,,CHESAPEAKE,VA,,US,,,,,
,visa,,,CHESAPEAKE,VA,,US,,,,,
,visa,,,CHESAPEAKE,VA,,US,,,,,
,visa,,,CHESAPEAKE,VA,,US,,,,,
,visa,,,CHESAPEAKE,VA,,US,,,,,
,visa,,,CHESAPEAKE,VA,,US,,,,,
,visa,,,CHESAPEAKE,VA,,US,,,,,
,visa,,,CHESAPEAKE,VA,,US,,,,,
,visa,,,CHESAPEAKE,VA,,US,,,,,
,visa,,,CHESAPEAKE,VA,,US,,,,,
,visa,,,CHESAPEAKE,VA,,US,,,,,
,visa,,,CHESAPEAKE,VA,,US,,,,,
,visa,,,CHESAPEAKE,VA,,US,,,,,
,visa,,,CHESAPEAKE,VA,,US,,,,,
,visa,,,CHESAPEAKE,VA,,US,,,,,
,visa,,,CHESAPEAKE,VA,,US,,,,,
,visa,,,CHESAPEAKE,VA,,US,,,,,
,visa,,,CHESAPEAKE,VA,,US,,,,,
,visa,,,CHESAPEAKE.,VA,,US,,,,,
,visa,,,CHESAPEAKE,VA,,US,,,,,
,visa,,,CHESAPEAKE,VA,,US,,,,,
,visa,,,CHESAPEAKE,VA,,US,,,,,
,visa,,,CHESAPEAKE,VA,,US,,,,,
,visa,,,CHESAPEAKE,VA,,US,,,,,
,visa,,,CHESAPEAKE,VA,,US,,,,,
,visa,,,CHESAPEAKE,VA,,US,,,,,
,visa,,,CHESAPEAKE,VA,,US,,,,,
,visa,,,CHESAPEAKE,VA,,US,,,,,
,visa,,,CHESAPEAKE,VA,,US,,,,,
,visa,,,CHESAPEAKE,VA,,US,,,,,
,visa,,,CHESAPEAKE,VA,,US,,,,,
,visa,,,CHEAPEAKE,VA,,US,,,,,
,visa,,,CHESAPEAKE,VA,,US,,,,,
,visa,,,CHESAPEAKE,VA,,US,,,,,
,visa,,,CHESAPEAKE,VA,,US,,,,,
,visa,,,CHESAPEAKE,VA,,US,,,,,
,visa,,,CHESAPEAKE,VA,,US,,,,,
,visa,,,CHESAPEAKE,VA,,US,,,,,
,visa,,,CHESAPEAKE,VA,,US,,,,,
,visa,,,CHESAPEAKE,VA,,US,,,,,
,visa,,,CHESAPEAKE,VA,,US,,,,,
,visa,,,CHESAPEAKE,VA,,US,,,,,
,visa,,,CHESAPEAKE,VA,,US,,,,,
,visa,,,CHESAPEAKE,VA,,US,,,,,
,visa,,,CHESAPEAKE,VA,,US,,,,,
,visa,,,CHESAPEAKE,VA,,US,,,,,
,visa,,,CHESAPEAKE,VA,,US,,,,,
,visa,,,CHESAPEAKE,VA,,US,,,,,
,visa,,,CHESAPEAKE,VA,,US,,,,,
,visa,,,CHESAPEAKE,VA,,US,,,,,
,visa,,,CHESAPEAKE,VA,,US,,,,,
,visa,,,CHESAPEAKE,VA,,US,,,,,
,visa,,,CHESAPEAKE,VA,,US,,,,,
,visa,,,CHESAPEAKE,VA,,US,,,,,
,visa,,,CHESAPEAKE,VA,,US,,,,,
,visa,,,CHESAPEAKE,VA,,US,,,,,
,visa,,,CHESAPEAKE,VA,,US,,,,,
,visa,,,CHESAPEAKE,VA,,US,,,,,
,visa,,,CHESAPEAKE,VA,,US,,,,,
,visa,,,CHESAPEAKE,VA,,US,,,,,
,visa,,,CHESAPEAKE,VA,,US,,,,,
,visa,,,CHESAPEAKE,VA,,US,,,,,
,visa,,,CHESAPEAKE,VA,,US,,,,,
,visa,,,CHESAPEAKE,VA,,US,,,,,
,visa,,,CHESAPEAKE,VA,,US,,,,,
,visa,,,CHESAPEAKE,VA,,US,,,,,
,visa,,,CHESAPEAKE,VA,,US,,,,,
,visa,,,CHESAPEAKE,VA,,US,,,,,
,visa,,,CHESAPEAK,VA,,US,,,,,
,visa,,,CHESAPEAKE,VA,,US,,,,,
,visa,,,CHESAPEAKE,VA,,US,,,,,
,visa,,,CHESAPEAKE,VA,,US,,,,,
,visa,,,CHESAPEAKE,VA,,US,,,,,
,visa,,,CHESAPEAKE,VA,,US,,,,,
,visa,,,CHESAPEAKE,VA,,US,,,,,
,visa,,,HAMPTON,VA,,US,,,,,
https://locations.vitaminshoppe.com/va/chesapeake/vitamins-supplements-chesapeake-va-122.html,vitamin_shoppe,The Vitamin Shoppe® Chesapeake ,1412 Greenbrier Parkway Suite 125,Chesapeake,VA,,US,+1 757-366-9494,https://locations.vitaminshoppe.com/va/chesapeake/vitamins-supplements-chesapeake-va-122.html,Su 09:30-19:00; Mo 09:00-21:00; Tu 09:00-21:00; We 09:00-21:00; Th 09:00-21:00; Fr 09:00-21:00; Sa 09:00-20:30,The Vitamin Shoppe,Q7772938
659,waffle_house_us,Waffle House #659,,CHESAPEAKE,VA,,US,+1 757-436-3926,https://locations.wafflehouse.com/chesapeake-va-659,24/7,Waffle House,Q1701206
https://www.walgreens.com/locator/walgreens-1200+greenbrier+pkwy-chesapeake-va-23320/id=13474,walgreens,Walgreens,,Chesapeake,VA,,US,+1 757-548-0165,https://www.walgreens.com/locator/walgreens-1200+greenbrier+pkwy-chesapeake-va-23320/id=13474,Mo-Su 07:00-22:00,Walgreens,Q1591889
https://www.walgreens.com/locator/walgreens-1316+battlefield+blvd+n-chesapeake-va-23320/id=7886,walgreens,Walgreens,,Chesapeake,VA,,US,+1 757-548-4217,https://www.walgreens.com/locator/walgreens-1316+battlefield+blvd+n-chesapeake-va-23320/id=7886,Mo-Su 07:00-23:00,Walgreens,Q1591889
672__BATTLEFIELD__BLVD__N_CHESAPEAKE_VA_23320,wellsfargo,Wells Fargo,672 BATTLEFIELD BLVD N,CHESAPEAKE,VA,,US,+1 757-547-3348,https://www.wellsfargo.com/locator/bank/672__BATTLEFIELD__BLVD__N_CHESAPEAKE_VA_23320/,Mo-Fr 09:00-17:00,Wells Fargo,Q744149
1208__GREENBRIER__PKWY_CHESAPEAKE_VA_23320,wellsfargo,Wells Fargo,1208 GREENBRIER PKWY,CHESAPEAKE,VA,,US,+1 757-424-6622,https://www.wellsfargo.com/locator/bank/1208__GREENBRIER__PKWY_CHESAPEAKE_VA_23320/,Mo-Fr 09:00-17:00,Wells Fargo,Q744149
https://locations.wendys.com/#9251436,wendys,"Wendy's Battlefield in Chesapeake, VA",,Chesapeake,VA,,US,+1 757-547-9780,https://locations.wendys.com/united-states/va/chesapeake/957-battlefield-blvd,"Mo-Su 06:30-10:30,09:00-22:00",Wendy's,Q550258
https://locations.wendys.com/#9251431,wendys,"Wendy's 1630 S Military Highway in Chesapeake, VA",,Chesapeake,VA,,US,+1 757-420-6087,https://locations.wendys.com/united-states/va/chesapeake/1630-s-military-highway,"Mo-Su 06:30-10:30,09:00-22:00",Wendy's,Q550258
https://locations.wendys.com/#9251430,wendys,"Wendy's 1524 Sams Circle in Chesapeake, VA",,Chesapeake,VA,,US,+1 757-549-1423,https://locations.wendys.com/united-states/va/chesapeake/1524-sams-circle,"Mo-Su 06:30-10:30,09:00-22:00",Wendy's,Q550258
https://locations.wendys.com/#9251428,wendys,"Wendy's 1410 Kempsville Road in Chesapeake, VA",,Chesapeake,VA,,US,+1 757-436-5413,https://locations.wendys.com/united-states/va/chesapeake/1410-kempsville-road,"Mo-Su 06:30-10:30,09:00-22:00",Wendy's,Q550258
51ca80e6543e9027f971d3e84b31fcbd,western_union,7-ELEVEN #32962,,Chesapeake,VA,,US,+1 757-523-1314,https://location.westernunion.com/us/va/chesapeake/51ca80e6543e9027f971d3e84b31fcbd,,Western Union,Q861042
6a1cdd5f4601b0dc8a7cf5f12c803175,western_union,7-ELEVEN #32964,,Chesapeake,VA,,US,+1 757-312-8434,https://location.westernunion.com/us/va/chesapeake/6a1cdd5f4601b0dc8a7cf5f12c803175,,Western Union,Q861042
2f31ffe30f32192ea3e9928df33af043,western_union,WALMART #001841,,Chesapeake,VA,,US,+1 757-436-6055,https://location.westernunion.com/us/va/chesapeake/2f31ffe30f32192ea3e9928df33af043,Mo-Sa 08:00-20:00; Su 10:00-18:00,Western Union,Q861042
c5c778e33b6aee8bfbc6aec1bceff423,western_union,7-ELEVEN #36052,,Chesapeake,VA,,US,+1 757-312-0810,https://location.westernunion.com/us/va/chesapeake/c5c778e33b6aee8bfbc6aec1bceff423,,Western Union,Q861042
ab88ed6c66b53e0225a71706e4982db7,western_union,7-ELEVEN #33668,,Chesapeake,VA,,US,+1 757-312-9046,https://location.westernunion.com/us/va/chesapeake/ab88ed6c66b53e0225a71706e4982db7,,Western Union,Q861042
7d3eefca55398db182748da71d3471a4,western_union,7-ELEVEN #32963,,Chesapeake,VA,,US,+1 757-424-5802,https://location.westernunion.com/us/va/chesapeake/7d3eefca55398db182748da71d3471a4,,Western Union,Q861042
12a3829104715b983bbd012875f6f6d1,western_union,7-ELEVEN #33463,,Chesapeake,VA,,US,+1 757-382-0134,https://location.westernunion.com/us/va/chesapeake/12a3829104715b983bbd012875f6f6d1,,Western Union,Q861042
90f0213dc334e66c6b4b146452804de2,western_union,LA RAZA LLC,,Chesapeake,VA,,US,+1 757-937-8900,https://location.westernunion.com/us/va/chesapeake/90f0213dc334e66c6b4b146452804de2,Mo-Su 09:30-20:00,Western Union,Q861042
6f11672d42c1eef57acbf3e96c61b0e2,western_union,MI RANCHO STORE,,Chesapeake,VA,,US,+1 757-962-7794,https://location.westernunion.com/us/va/chesapeake/6f11672d42c1eef57acbf3e96c61b0e2,Mo-Su 08:00-22:00,Western Union,Q861042
d3fed298f4eba7608468aeede20a394a,western_union,PLAYA ESCONDIDA RESTAURANT,,Chesapeake,VA,,US,+1 757-348-9593,https://location.westernunion.com/us/va/chesapeake/d3fed298f4eba7608468aeede20a394a,Mo-Su 07:00-22:00,Western Union,Q861042
9d773f723514c33fd0850376a17ba0fd,western_union,PLAYA ESCONDIDA RESTAURANT,,Chesapeake,VA,,US,+1 757-348-9593,https://location.westernunion.com/us/va/chesapeake/9d773f723514c33fd0850376a17ba0fd,Mo-Su 07:00-22:00,Western Union,Q861042
3efc337a16b80dbb77832522a6fc39ee,western_union,KROGER #572,,Chesapeake,VA,,US,+1 757-482-3377,https://location.westernunion.com/us/va/chesapeake/3efc337a16b80dbb77832522a6fc39ee,Mo-Su 08:00-22:00,Western Union,Q861042
d0e1498bd3bd1d294b68650c75063c5c,western_union,7-ELEVEN #38163,,Chesapeake,VA,,US,+1 757-548-0393,https://location.westernunion.com/us/va/chesapeake/d0e1498bd3bd1d294b68650c75063c5c,,Western Union,Q861042
d4748a183f5a5321b57016369b350af6,western_union,7-ELEVEN #33473,,Chesapeake,VA,,US,+1 757-549-1580,https://location.westernunion.com/us/va/chesapeake/d4748a183f5a5321b57016369b350af6,,Western Union,Q861042
2478ab3daffa381dc72cbfba8d5cf3fe,western_union,WALMART #003299,,Chesapeake,VA,,US,+1 757-447-9223,https://location.westernunion.com/us/va/chesapeake/2478ab3daffa381dc72cbfba8d5cf3fe,Mo-Su 07:00-21:00,Western Union,Q861042
3d884bca8f1b7b261a49206b1949fee0,western_union,HARRIS TEETER #465,,Chesapeake,VA,,US,+1 757-217-1853,https://location.westernunion.com/us/va/chesapeake/3d884bca8f1b7b261a49206b1949fee0,Mo-Su 08:00-21:00,Western Union,Q861042
https://www.willscot.com/locations/norfolk,willscot,WillScot,,Chesapeake,VA,,US,+1 757-548-3125,https://www.willscot.com/locations/norfolk,,WillScot,Q123415387
20171,wingstop,Wingstop Chesapeake Volvo Pkwy,109 Volvo Pkwy,Chesapeake,VA,,US,+1 757-548-9464,,,Wingstop,Q8025339
