Ref,Spider,Name,Address,City,State,Zipcode,Country,Phone,Website,Hours,Brand,WikiData
68324320,moneygram,RD PAWNSHOP - #674 - KABACAN 3,,KABACAN,,,PH,+63 916 719 6072,,Mo-Sa 08:00-18:00; Su 09:00-17:30,MoneyGram,Q1944412
72576766,moneygram,USSC - #50217 - NORTH COTABATO - KABACAN,,KABACAN,,,PH,+63 64 248 2804,,Mo-Su 07:00-20:00,MoneyGram,Q1944412
68972824,moneygram,M LHUILLIER - USM AVENUE COTABATO,,LABACAN,,,PH,+63 32 348 9400,,Mo-Su 07:00-18:00,MoneyGram,Q1944412
73524005,moneygram,RD PAWNSHOP INC - KABACAN 4,,KABACAN,,,PH,+63 967 396 8297,,Mo-Sa 08:00-18:00; Su 09:00-17:00,MoneyGram,Q1944412
73661081,moneygram,RD PAWNSHOP INC - KABACAN 5,,KABACAN,,,PH,+63 967 002 4825,,Mo-Sa 08:00-18:00; Su 09:00-17:00,MoneyGram,Q1944412
73690340,moneygram,RD PAWNSHOP INC - KABACAN 5,,KABACAN,,,PH,+63 967 002 4825,,Mo-Sa 08:00-17:00; Su 09:00-17:00,MoneyGram,Q1944412
70159761,moneygram,CEBUANA LHUILLIER - CLH KABACAN,,KABACAN,,,PH,27799800,,Mo-Su 08:00-17:00,MoneyGram,Q1944412
70747898,moneygram,CEBUANA LHUILLIER - CLH KABACAN-NATIONAL,,KABACAN,,,PH,+63 63 779 9800,,Mo-Su 08:00-17:00,MoneyGram,Q1944412
72511608,moneygram,LBC - #1278 - KABACAN - KABACAN,,KABACAN,,,PH,8527239,,Mo-Su 08:00-17:00,MoneyGram,Q1944412
73880985,moneygram,PETNET INC. - #KC2 - KABACAN - KABACAN 2,,KABACAN,,,PH,649464293281,,Mo-Sa 08:00-17:00; Su 08:00-16:00,MoneyGram,Q1944412
73991311,moneygram,PALAWAN PAWNSHOP - #GFO - KABACAN - PSB-,,KABACAN,,,PH,+63 48 433 4110,,Mo-Su 08:00-17:30,MoneyGram,Q1944412
74034701,moneygram,PALAWAN PAWNSHOP - #GFO - KABACAN - PSB-,,KABACAN,,,PH,+63 48 433 4110,,Mo-Su 08:00-17:30,MoneyGram,Q1944412
69763689,moneygram,PALAWAN PAWNSHOP - KABACAN II,,NORTH COTABATO,,,PH,+63 48 433 4110,,Mo-Su 08:00-17:30,MoneyGram,Q1944412
69761681,moneygram,PALAWAN PAWNSHOP - KABACAN,,NORTH COTABATO,,,PH,+63 48 433 4110,,Mo-Su 08:00-17:30,MoneyGram,Q1944412
69947162,moneygram,PALAWAN PAWNSHOP - KABACAN MARKET,,KABACAN,,,PH,+63 48 433 4110,,Mo-Su 08:00-17:30,MoneyGram,Q1944412
74730034,moneygram,CARD BANK INC. - #47382 - KABACAN - CARD,,KABACAN,,,PH,6485726249,,Mo-Fr 08:00-17:00; Sa-Su 00:00-24:00,MoneyGram,Q1944412
73784612,moneygram,PERAHUB - #KAB - KABACAN - KABACAN,,KABACAN,,,PH,+63 64 572 0593,,Mo-Sa 08:00-17:00; Su 08:00-16:00,MoneyGram,Q1944412
74729935,moneygram,PERAHUB - #KC2 - KABACAN - KABACAN 2,,KABACAN,,,PH,6499101326,,Mo-Sa 08:00-17:00; Su 08:00-16:00,MoneyGram,Q1944412
65284492,moneygram,M LHUILLIER - KABACAN 1,,KABACAN,,,PH,+63 32 348 9400,,Mo-Su 07:00-17:00,MoneyGram,Q1944412
65284515,moneygram,M LHUILLIER - KABACAN 2,,KABACAN,,,PH,+63 32 348 9400,,Mo-Su 07:00-20:00,MoneyGram,Q1944412
65531349,moneygram,RD PAWNSHOP - #117,,KABACAN,,,PH,+63 916 719 6072,,Mo-Sa 08:00-18:00; Su 09:00-17:30,MoneyGram,Q1944412
65531365,moneygram,RD PAWNSHOP - #179,,KABACAN,,,PH,+63 916 719 6072,,Mo-Sa 08:00-18:00; Su 09:00-17:30,MoneyGram,Q1944412
67247246,moneygram,BDO - #331 - COTABATO - KABACAN,,KABACAN,,,PH,+63 64 248 2119,,Mo-Sa 08:30-16:30; Su 00:00-24:00,MoneyGram,Q1944412
