Ref,Spider,Name,Address,City,State,Zipcode,Country,Phone,Website,Hours,Brand,WikiData
120,arctic_circle_us,Herriman,,Herriman,UT,,US,+1 801-302-8652,,,Arctic Circle,Q4787501
122,arctic_circle_us,Academy Ridge,,Herriman,UT,,US,+1 385-395-0200,,,Arctic Circle,Q4787501
6208,autozone_us,AutoZone Auto Parts Herriman,,Herriman,UT,,US,+1 801-446-5182,https://www.autozone.com/locations/ut/herriman/5462-w-13400-s.html,Mo-Sa 07:30-21:00; Su 09:00-20:00,AutoZone,Q4826087
https://locators.bankofamerica.com/ut/riverton/financial-centers-riverton-16931.html,bankofamerica,Bank of America Financial Center & Drive-Thru ATM | Riverton,,Riverton,UT,,US,+1 801-316-0086,https://locators.bankofamerica.com/ut/riverton/financial-centers-riverton-16931.html,Mo-Fr 09:00-16:00; Sa 09:00-13:00,Bank of America,Q487907
BBW02655,bathandbodyworks_us,MOUNTAIN VIEW VILLAGE,,RIVERTON,UT,,US,+1 385-275-3460,,Mo-Sa 10:00-21:00; Su 12:00-18:00,Bath & Body Works,Q810773
208411,bluerhino,WinCo Foods #159 (Herriman),,Herriman,UT,,US,+1 801-902-9678,,,Blue Rhino,Q65681213
189424,bluerhino,Ace Hardware of Herriman #16976,,Herriman,UT,,US,+1 801-890-4451,,,Blue Rhino,Q65681213
189412,bluerhino,Harmons Grocery #82 - Mountain View,,Riverton,UT,,US,+1 385-257-6440,,,Blue Rhino,Q65681213
225735,bluerhino,Lee's Marketplace #10882 - Academy Village,,Herriman,UT,,US,+1 385-336-7471,,,Blue Rhino,Q65681213
https://local.buckle.com/ut/riverton/clothing-533.html,buckle_us,Riverton Men’s & Women’s Clothing,,Riverton,UT,,US,+1 801-503-9100,https://local.buckle.com/ut/riverton/clothing-533.html,Mo-Sa 10:00-21:00; Su 12:00-18:00,Buckle,Q4983306
83,cafe_zupas,Riverton,,Riverton,UT,,US,+1 801-853-8244,https://cafezupas.com/locationcopy/info/riverton,Mo-Th 10:00-21:00; Fr-Sa 10:00-22:00,Café Zupas,Q123687995
1102654,carlsjr_us,Carl's Jr.,,Herriman,UT,,US,+1 801-792-1220,https://locations.carlsjr.com/ut/herriman/5402-w-13400-s,,Carl's Jr.,Q1043486
14674297,chase_us,Mountain View and 134th - New branch,,Riverton,UT,,US,+1 801-316-0124,https://locator.chase.com/ut/riverton/4671-w-partridgehill-ln,Mo-Fr 09:00-17:00; Sa 09:00-14:00,Chase,Q524629
ut_riverton_4599-w-partridge-hill-ln,chipotle, ,,Riverton,UT,,US,+1 801-871-3898,https://locations.chipotle.com/ut/riverton/4599-w-partridge-hill-ln,,Chipotle,Q465751
ut-riverton/cinemark-riverton-and-xd,cinemark,Cinemark Riverton and XD,,Riverton,UT,,US,+1 801-938-5700,https://www.cinemark.com/theatres/ut-riverton/cinemark-riverton-and-xd,,Cinemark,Q707530
91872,citi,ATM Walgreens,,Herriman,UT,,US,,,,Citibank,Q857063
58264,citi,ATM Goldenwest Credit Union,,Herriman,UT,,US,,,,Citibank,Q857063
25288,citi,ATM 7ELEVEN-FCTI,,Herriman,UT,,US,,,,Citibank,Q857063
51418,citi,ATM CVS,,Herriman,UT,,US,,,,Citibank,Q857063
45834,citi,ATM Costco,,Riverton,UT,,US,,,,Citibank,Q857063
56793,citi,ATM FIRST UTAH BANK,,Riverton,UT,,US,,,,Citibank,Q857063
,credit_union_us,Hercules First CU,,Herriman,UT,,US,+1 801-968-9011,,Mo-Fr 09:00-06:00; Sa 09:00-01:00,,
7532,dominos_pizza_us,Domino's Pizza,,Herriman,UT,,US,+1 801-253-3988,https://pizza.dominos.com/utah/herriman/5184-west-13400-south,Mo-Th 10:00-24:00; Fr-Sa 10:00-01:00; Su 10:00-24:00,Domino's,Q839466
7557,dominos_pizza_us,Domino's Pizza,,Saratoga Springs,UT,,US,+1 385-336-2363,https://pizza.dominos.com/utah/saratoga-springs/1593-north-redwood-road,Mo-Th 10:00-24:00; Fr-Sa 10:00-01:00; Su 10:00-24:00,Domino's,Q839466
11977-s-herriman-main-street,einsteinbros,Herriman Einstein Bros. Bagels,,Herriman,UT,,US,+1 385-334-6423,https://locations.einsteinbros.com/us/ut/herriman/11977-s-herriman-main-street,Mo-Su 06:00-14:00,Einstein Bros. Bagels,Q5349788
https://local.fedex.com/#25205886,fedex,,,Herriman,UT,,US,+1 800-463-3339,https://local.fedex.com/en-us/ut/herriman/ns2d1,,FedEx,Q459477
https://locations.fivebelow.com/ut/riverton/4536-w-kestrel-range-rd,five_below,Five Below Mountain View Village,,Riverton,UT,,US,,https://locations.fivebelow.com/ut/riverton/4536-w-kestrel-range-rd,Mo-Sa 10:00-20:00; Su 11:00-18:00,Five Below,Q5455836
244,innout,Riverton,,Riverton,UT,,US,,http://locations.in-n-out.com/244,,In-N-Out Burger,Q1205312
3211,jiffy_lube_us,South 5600 West,,HERRIMAN,UT,,US,+1 801-254-8768,https://www.jiffylube.com/locations/ut/herriman/3211,Mo-Fr 08:00-18:00; Sa 08:00-17:00; Su 09:00-16:00,Jiffy Lube,Q6192247
https://locations.jimmyjohns.com/ut/herriman/sandwiches-1918.html,jimmy_johns,Jimmy John's,,Herriman,UT,,US,+1 801-676-1571,https://locations.jimmyjohns.com/ut/herriman/sandwiches-1918.html,,Jimmy John's,Q1689380
https://locations.kfc.com/#12434772,kfc,Chicken Nuggets Near Herriman,,Herriman,UT,,US,,https://locations.kfc.com/ut/herriman/5665-west-13400-south/chickennugget,Mo-Su 10:00-23:00,KFC,Q524757
140668,little_free_library,Emily Goldman #140668 Herriman UT,,Herriman,UT,,US,,,,Little Free Library,Q6650101
90017,little_free_library,Jason Spendlove #90017 Herriman UT,,Herriman,UT,,US,,,,Little Free Library,Q6650101
151511,little_free_library,Fisch’s Little Free Library #151511 Herriman UT,,Herriman,UT,,US,,,,Little Free Library,Q6650101
129494,little_free_library,Little Free Library #129494 Herriman UT,,Herriman,UT,,US,,,,Little Free Library,Q6650101
155098,little_free_library,The Kindness Library #155098 Herriman UT,,Herriman,UT,,US,,,,Little Free Library,Q6650101
13620,little_free_library,Ron Mortensen #13620 Herriman UT,,Herriman,UT,,US,,,,Little Free Library,Q6650101
171622,little_free_library,Sunny’s Book Barn #171622 Herriman UT,,Herriman,UT,,US,,,,Little Free Library,Q6650101
169542,little_free_library,Little Free Library #169542 Riverton UT,,Riverton,UT,,US,,,,Little Free Library,Q6650101
111811,little_free_library,Utah Homes with Jess Little Library #111811 Herriman UT,,Herriman,UT,,US,,,,Little Free Library,Q6650101
147744,little_free_library,Natalie Redd #147744 #147744 Herriman UT,,Herriman,UT,,US,,,,Little Free Library,Q6650101
113655,little_free_library,Turtle Tracks #113655 Riverton UT,,Riverton,UT,,US,,,,Little Free Library,Q6650101
Mountain View Village,lululemon,Lululemon,"13303 S Teal Ridge Way, Suite M-100, Riverton, UT, US, 84096",Riverton,UT,,US,+1 385-855-1520,https://shop.lululemon.com/stores/us/riverton/mountain-view-village,Mo-Sa 10:00-21:00; Su 12:00-18:00,Lululemon,Q6702957
https://locations.modpizza.com/#23557958,modpizza,MOD Pizza Mountain View Village,,Riverton,UT,,US,+1 385-247-1056,https://locations.modpizza.com/usa/ut/riverton/4578-w-partridge-hill-lane,Mo-Th 10:30-22:00; Fr-Sa 10:30-23:00; Su 10:30-22:00,MOD Pizza,Q19903469
47920,orangetheory_fitness,"Herriman, UT",,Riverton,UT,,US,+1 801-988-5544,,,Orangetheory Fitness,Q25005163
https://locations.oreillyauto.com/ut/herriman/check-engine-light-testing-3655.html,oreilly,Your Herriman O'Reilly Auto Parts Store,,Herriman,UT,,US,+1 801-253-6157,https://locations.oreillyauto.com/ut/herriman/check-engine-light-testing-3655.html,Mo-Sa 07:30-22:00; Su 09:00-20:00,O'Reilly Auto Parts,Q7071951
https://locations.oreillyauto.com/ut/herriman/wiper-installation-3655.html,oreilly,Your Herriman O'Reilly Auto Parts Store,,Herriman,UT,,US,+1 801-253-6157,https://locations.oreillyauto.com/ut/herriman/wiper-installation-3655.html,Mo-Sa 07:30-22:00; Su 09:00-20:00,O'Reilly Auto Parts,Q7071951
https://locations.oreillyauto.com/ut/herriman/battery-testing-3655.html,oreilly,Your Herriman O'Reilly Auto Parts Store,,Herriman,UT,,US,+1 801-253-6157,https://locations.oreillyauto.com/ut/herriman/battery-testing-3655.html,Mo-Sa 07:30-22:00; Su 09:00-20:00,O'Reilly Auto Parts,Q7071951
https://locations.oreillyauto.com/ut/herriman/autopartes-3655.html,oreilly,Tu tienda O'Reilly Auto Parts en Herriman,,Herriman,UT,,US,+1 801-253-6157,https://locations.oreillyauto.com/ut/herriman/autopartes-3655.html,Mo-Sa 07:30-22:00; Su 09:00-20:00,O'Reilly Auto Parts,Q7071951
226472,pandaexpress,Herriman Main St & Anthem Park Blvd,,Herriman,UT,,US,+1 385-799-7767,https://www.pandaexpress.com/locations/ut/herriman/12051-s-herriman-main-street,Mo-Th 10:00-21:30; Fr-Sa 10:00-22:00; Su 10:30-21:00,Panda Express,Q1358690
https://locations.papamurphys.com/#15430538,papamurphys,Pizza Takeout & Delivery,,Herriman,UT,,US,+1 801-254-7676,https://locations.papamurphys.com/ut/herriman/5532-west-13400-south,Mo-Th 11:00-20:00; Fr-Sa 11:00-21:00; Su 12:00-19:00,Papa Murphy's,Q7132349
https://locations.papajohns.com/#10692939,papa_johns,Papa John's,,Riverton,UT,,US,+1 801-254-5656,https://locations.papajohns.com/united-states/ut/84096/riverton/12447-crossing-drive-2,Mo-Su 10:00-24:00,Papa John's Pizza,Q2759586
1908,pet_suites_us,PetSuites Herriman,,Herriman,UT,,US,+1 801-849-3681,https://herriman.petsuitesofamerica.com/,Mo-Su 06:30-20:00,PetSuites,Q112037454
ut_riverton_13257-s-teal-ridge-way,pizza_hut_us,13257 S. Teal Ridge Way,,Riverton,UT,,US,,https://locations.pizzahut.com/ut/riverton/13257-s-teal-ridge-way,,Pizza Hut,Q191615
restaurant_85018,popeyes_us_fr,Popeyes,"5118 W 13400 S Herriman, Utah 84096 - USA",Herriman,UT,,US,+1 801-253-9969,https://www.popeyes.com/store-locator/store/restaurant_85018,Mo-Su 10:00-00:00,Popeyes,Q1330910
https://www.publicstorage.com/self-storage-ut-riverton/6093.html,public_storage_us,Public Storage,,Riverton,UT,,US,+1 801-630-8549,https://www.publicstorage.com/self-storage-ut-riverton/6093.html,,Public Storage,Q1156045
https://www.publicstorage.com/self-storage-ut-herriman/5586.html,public_storage_us,Public Storage,,Herriman,UT,,US,+1 801-216-3114,https://www.publicstorage.com/self-storage-ut-herriman/5586.html,,Public Storage,Q1156045
102805,ritasitalianice,Rita’s of Riverton UT,,Riverton,UT,,US,+1 385-361-3163,https://www.ritasice.com/location/ritas-of-riverton-ut-2/,,Rita's Italian Ice,Q7336456
38875,seven_eleven_ca_us,7-Eleven Store,,Herriman,UT,,US,+1 385-302-7597,https://www.7-eleven.com/locations/ut/herriman/12480-s-5600-w-38875,,7-Eleven,Q259340
https://stations.sinclairoil.com/ut/herriman/6382-w-13400-s,sinclair_us,Sinclair Gas Station,,Herriman,UT,,US,+1 801-666-6932,https://stations.sinclairoil.com/ut/herriman/6382-w-13400-s,Mo-Fr 05:00-23:00; Sa 05:00-24:00; Su 07:00-22:00,Sinclair,Q1290900
https://stations.sinclairoil.com/ut/herriman/5013-w-rosecrest-rd,sinclair_us,Sinclair Gas Station,,Herriman,UT,,US,+1 801-679-1005,https://stations.sinclairoil.com/ut/herriman/5013-w-rosecrest-rd,Mo-Fr 05:00-23:00; Sa 05:00-24:00; Su 07:00-22:00,Sinclair,Q1290900
https://restaurants.subway.com/#14900531,subway,Subway,,Herriman Lewis And Clark,UT,,US,+1 385-300-2321,https://restaurants.subway.com/united-states/ut/herriman/14732-marketplace-dr,Mo-Su 08:00-22:00,Subway,Q244457
https://restaurants.subway.com/#14907840,subway,Subway,,Herriman Salt Lake,UT,,US,+1 801-302-5882,https://restaurants.subway.com/united-states/ut/herriman/13338-s-rosecrest-rd,Mo-Sa 08:00-22:00; Su 09:00-21:00,Subway,Q244457
81507,supercuts,Herriman Towne Center,5174 W 13400 S Ste 103,Herriman,UT,,US,+1 801-302-7274,https://www.supercuts.com/checkin/81507,Mo-Fr 09:00-19:00; Sa 09:00-18:00,Supercuts,Q7643239
https://locations.tacobell.com/#45447896,taco_bell,Taco Bell,,Herriman,UT,,US,+1 385-275-4415,https://locations.tacobell.com/ut/herriman/5161-w--anthem-park-boulevard.html,Mo-Th 08:00-24:00; Fr-Sa 08:00-01:00; Su 08:00-24:00,Taco Bell,Q752941
https://locations.tacobell.com/#6143195,taco_bell,Taco Bell,,Herriman,UT,,US,+1 801-254-9132,https://locations.tacobell.com/ut/herriman/5088-w-13400-south.html,Mo-We 07:00-01:00; Th 07:00-02:00; Fr 07:00-05:30; Sa 05:30-05:29; Su 05:30-01:00,Taco Bell,Q752941
5095,tjx,Riverton,4632 West Kestrel Range Road,Riverton,UT,,US,+1 801-878-7297,,Mo-Sa 09:30-21:30; Su 10:00-20:00,Sierra,Q7511598
106F,tmobile_us,Mountain View Village,,Riverton,UT,,US,+1 801-438-4531,https://www.t-mobile.com/store-locator/ut/riverton/mountain-view-village,,T-Mobile,Q3511885
2C68,tmobile_us,Costco Riverton UT,,Riverton,UT,,US,+1 385-409-0098,https://www.t-mobile.com/store-locator/ut/riverton/costco-riverton-ut,,T-Mobile,Q3511885
4976,upsstore,Herriman,5526 West 13400 South,Herriman,UT,,US,+1 801-254-8292,https://locations.theupsstore.com/ut/herriman/5526-west-13400-south,,UPS Store,Q7771029
USA589,vans,Vans Store - Mountain View Village,,Riverton,UT,,US,+1 385-887-8048,https://www.vans.com/en-us/stores/ut/riverton/usa589,Mo-Sa 10:00-21:00; Su 12:00-18:00,Vans,Q1135366
https://vcahospitals.com/oquirrh-hills,vca,VCA Oquirrh Hills Animal Hospital,,Herriman,UT,,US,+1 801-446-5194,https://vcahospitals.com/oquirrh-hills,Mo-Fr 08:00-17:30; Sa 08:00-13:00,VCA,Q7906620
R00000257621,verizon_us,Riverton,,RIVERTON,UT,,US,+1 385-275-3241,https://www.verizon.com/stores/details/utah/riverton/riverton-1281122/,Mo-Fr 10:00-20:00; Sa 09:00-19:00; Su 11:00-18:00,Verizon,Q919641
13222-south-tree-sparrow-dr-,via313,Via 313 - Riverton,,Riverton,UT,,US,+1 385-446-8313,https://locations.via313.com/locations/13222-south-tree-sparrow-dr-,,Via 313,Q115699944
,visa,,,HERRIMAN,UT,,US,,,,,
,visa,,,RIVERTON,UT,,US,,,,,
,visa,,,RIVERTON,UT,,US,,,,,
,visa,,,RIVERTON,UT,,US,,,,,
,visa,,,RIVERTON,UT,,US,,,,,
,visa,,,RIVERTON,UT,,US,,,,,
,visa,,,RIVERTON,UT,,US,,,,,
,visa,,,HERRIMAN,UT,,US,,,,,
,visa,,,HERRIMAN,UT,,US,,,,,
,visa,,,HERRIMAN,UT,,US,,,,,
,visa,,,HERRIMAN,UT,,US,,,,,
,visa,,,HERRIMAN,UT,,US,,,,,
,visa,,,HERRIMAN,UT,,US,,,,,
,visa,,,HERRIMAN,UT,,US,,,,,
,visa,,,HERRIMAN,UT,,US,,,,,
,visa,,,HERRIMAN,UT,,US,,,,,
,visa,,,HERRIMAN,UT,,US,,,,,
,visa,,,HERRIMAN,UT,,US,,,,,
1424,visionworks,Visionworks Mountain View Village,,Riverton,UT,,US,+1 385-324-5654,https://locations.visionworks.com/ll/US/UT/Riverton/13222-Tree-Sparrow-Dr,Mo-Sa 10:00-18:30,Visionworks,Q5422607
https://www.walgreens.com/locator/walgreens-5627+w+13400+s-herriman-ut-84096/id=11524,walgreens,Walgreens,,Herriman,UT,,US,+1 801-307-1909,https://www.walgreens.com/locator/walgreens-5627+w+13400+s-herriman-ut-84096/id=11524,Mo-Su 07:00-22:00,Walgreens,Q1591889
13338__S__ROSECREST__RD_HERRIMAN_UT_84096,wellsfargo,,13338 S ROSECREST RD,HERRIMAN,UT,,US,+1 800-869-3557,https://www.wellsfargo.com/locator/bank/13338__S__ROSECREST__RD_HERRIMAN_UT_84096/,,Wells Fargo,Q744149
https://locations.wendys.com/#9252887,wendys,"Wendy's Herriman in Herriman, UT",,Herriman,UT,,US,+1 801-302-1500,https://locations.wendys.com/united-states/ut/herriman/5592-west-13400-south,"Mo-Su 06:00-10:30,06:00-22:00",Wendy's,Q550258
54666ab79660f826a22f9d968f9cf1a1,western_union,WALMART #007168,,Herriman,UT,,US,+1 801-981-1675,https://location.westernunion.com/us/ut/herriman/54666ab79660f826a22f9d968f9cf1a1,Mo-Su 07:00-21:00,Western Union,Q861042
862154c1e8efbd6dff78381cd55f97e4,western_union,WINCO FOODS #159,,Herriman,UT,,US,+1 801-902-9678,https://location.westernunion.com/us/ut/herriman/862154c1e8efbd6dff78381cd55f97e4,Mo-Su 08:00-22:00,Western Union,Q861042
4b3f0a8d9a87d79d71d4ac6f10cbed19,western_union,7-ELEVEN #38875,,Herriman,UT,,US,+1 385-302-7597,https://location.westernunion.com/us/ut/herriman/4b3f0a8d9a87d79d71d4ac6f10cbed19,,Western Union,Q861042
4138,xfinity,Xfinity,,Riverton,UT,,US,,https://www.xfinity.com/local/ut/riverton/4531-w--partridge-hill-lane.html,Mo-Sa 10:00-20:00; Su 11:00-17:00,Xfinity,Q5151002
