Ref,Spider,Name,Address,City,State,Zipcode,Country,Phone,Website,Hours,Brand,WikiData
,visa,,,AMECA,JALISCO,,MX,,,,,
,visa,,,AMECA,JALISCO,,MX,,,,,
,visa,,,AMECA,JALISCO,,MX,,,,,
,visa,,,AMECA,JALISCO,,MX,,,,,
,visa,,,AMECA,JALISCO,,MX,,,,,
,visa,,,AMECA,JALISCO,,MX,,,,,
,visa,,,AMECA,JALISCO,,MX,,,,,
,visa,,,AMECA,JALISCO,,MX,,,,,
,visa,,,AMECA,JALISCO,,MX,,,,,
,visa,,,AMECA,JALISCO,,MX,,,,,
,visa,,,AMECA,JALISCO,,MX,,,,,
db99764d4aa016a3ebe8001f24318518,western_union,CAJA POPULAR JOSE MA MERCADO AMECA,,Ameca,JALISCO,,MX,+52 375 755 8538,https://location.westernunion.com/mx/jalisco/ameca/db99764d4aa016a3ebe8001f24318518,Mo-Su 09:00-19:30,Western Union,Q861042
11a4b509ed9b3c222dfa99e6ac1885b7,western_union,CAJA POPULAR JOSE MA MERCADO AMECA,,Ameca,JALISCO,,MX,+52 375 755 8538,https://location.westernunion.com/mx/jalisco/ameca/11a4b509ed9b3c222dfa99e6ac1885b7,Mo-Su 09:00-19:30,Western Union,Q861042
ad323e131ead33afdff8184a1558dac2,western_union,OXXO AMECA PREPA GDL,,Ameca,JALISCO,,MX,+52 81 8389 2121,https://location.westernunion.com/mx/jalisco/ameca/ad323e131ead33afdff8184a1558dac2,Mo-Su 06:00-22:00,Western Union,Q861042
da1d96b8996a5724c794797d0d9649aa,western_union,OXXO AMECA BOULEVARD GDL,,Ameca,JALISCO,,MX,+52 81 8389 2121,https://location.westernunion.com/mx/jalisco/ameca/da1d96b8996a5724c794797d0d9649aa,Mo-Su 08:00-22:00,Western Union,Q861042
3c077e86a56694705bfadf1ede627df0,western_union,OXXO AMECA BOULEVARD GDL,,Ameca,JALISCO,,MX,+52 81 8389 2121,https://location.westernunion.com/mx/jalisco/ameca/3c077e86a56694705bfadf1ede627df0,Mo-Su 08:00-22:00,Western Union,Q861042
01f54f93e08cf63d4ddee723a2064a37,western_union,OXXO AMECA BOULEVARD GDL,,Ameca,JALISCO,,MX,+52 81 8389 2121,https://location.westernunion.com/mx/jalisco/ameca/01f54f93e08cf63d4ddee723a2064a37,Mo-Su 08:00-22:00,Western Union,Q861042
7489b112e2e61d33a13ff052b8692a8b,western_union,FARM GUAD AV PATRIA JAL,,Jocotepec,JALISCO,,MX,+52 800 833 4700,https://location.westernunion.com/mx/jalisco/jocotepec/7489b112e2e61d33a13ff052b8692a8b,Mo-Su 08:00-20:00,Western Union,Q861042
ecd1638451d69dfb89d46c9b779aa3ec,western_union,FARM GUAD AV PATRIA JAL,,Jocotepec,JALISCO,,MX,+52 800 833 4700,https://location.westernunion.com/mx/jalisco/jocotepec/ecd1638451d69dfb89d46c9b779aa3ec,Mo-Su 08:00-20:00,Western Union,Q861042
deaa2fc30d8abf6e6ec3b978a3447063,western_union,FARM GUAD AV PATRIA JAL,,Jocotepec,JALISCO,,MX,+52 800 833 4700,https://location.westernunion.com/mx/jalisco/jocotepec/deaa2fc30d8abf6e6ec3b978a3447063,Mo-Su 08:00-20:00,Western Union,Q861042
85399c42b393b64d06c82f1804e0763c,western_union,OXXO AMECA II GDL,,Ameca,JALISCO,,MX,+52 81 8389 2121,https://location.westernunion.com/mx/jalisco/ameca/85399c42b393b64d06c82f1804e0763c,Mo-Su 08:00-22:00,Western Union,Q861042
ebc73faa85b95d2a99eb7156daf260c4,western_union,OXXO AMECA II GDL,,Ameca,JALISCO,,MX,+52 81 8389 2121,https://location.westernunion.com/mx/jalisco/ameca/ebc73faa85b95d2a99eb7156daf260c4,Mo-Su 08:00-22:00,Western Union,Q861042
eca5d572cdf77883193d81510282a345,western_union,OXXO AMECA II GDL,,Ameca,JALISCO,,MX,+52 81 8389 2121,https://location.westernunion.com/mx/jalisco/ameca/eca5d572cdf77883193d81510282a345,Mo-Su 08:00-22:00,Western Union,Q861042
5f68d5402d0669d1bca775e9a448b6ca,western_union,ELEKTRA 6022,,Ameca,JALISCO,,MX,+52 55 1720 8177,https://location.westernunion.com/mx/jalisco/ameca/5f68d5402d0669d1bca775e9a448b6ca,Mo-Su 09:00-21:00,Western Union,Q861042
cd2b37a6671245b573205890af786a4f,western_union,ELEKTRA 6022,,Ameca,JALISCO,,MX,+52 55 1720 8177,https://location.westernunion.com/mx/jalisco/ameca/cd2b37a6671245b573205890af786a4f,Mo-Su 09:00-21:00,Western Union,Q861042
fc64c8135fca6b7dea964a25ca1605eb,western_union,BANCOPPEL 147 ZEPEDA,,Ameca,JALISCO,,MX,+52 469 692 2093,https://location.westernunion.com/mx/jalisco/ameca/fc64c8135fca6b7dea964a25ca1605eb,Mo-Sa 09:30-20:00; Su 10:00-17:00,Western Union,Q861042
dc09ca686b703309b9f6c5af65f05468,western_union,BANCOPPEL 147 ZEPEDA,,Ameca,JALISCO,,MX,+52 469 692 2093,https://location.westernunion.com/mx/jalisco/ameca/dc09ca686b703309b9f6c5af65f05468,Mo-Sa 09:30-20:00; Su 10:00-17:00,Western Union,Q861042
38c1ce3761175ec0d814938cdaebf1c6,western_union,BANCOPPEL 147 ZEPEDA,,Ameca,JALISCO,,MX,+52 469 692 2093,https://location.westernunion.com/mx/jalisco/ameca/38c1ce3761175ec0d814938cdaebf1c6,Mo-Sa 09:30-20:00; Su 10:00-17:00,Western Union,Q861042
18272ca831ed905f878186d14bdc2295,western_union,OXXO AMECA PLAZA GDL,,Ameca,JALISCO,,MX,+52 81 8389 2121,https://location.westernunion.com/mx/jalisco/ameca/18272ca831ed905f878186d14bdc2295,Mo-Su 06:00-22:00,Western Union,Q861042
5876248d2b758e22782e8b94321a2691,western_union,OXXO AMECA PLAZA GDL,,Ameca,JALISCO,,MX,+52 81 8389 2121,https://location.westernunion.com/mx/jalisco/ameca/5876248d2b758e22782e8b94321a2691,Mo-Su 06:00-22:00,Western Union,Q861042
caaa7026b4f18d9e2301abb9ab2087be,western_union,OXXO AMECA PLAZA GDL,,Ameca,JALISCO,,MX,+52 81 8389 2121,https://location.westernunion.com/mx/jalisco/ameca/caaa7026b4f18d9e2301abb9ab2087be,Mo-Su 06:00-22:00,Western Union,Q861042
61626e5cf0b79c12535d36bc76067d21,western_union,MODATELAS 168 AP CASH,,Ameca,JALISCO,,MX,(+52) 33-7558797,https://location.westernunion.com/mx/jalisco/ameca/61626e5cf0b79c12535d36bc76067d21,Mo-Su 08:00-20:00,Western Union,Q861042
9ab856020ab1d98510e68cfa1dd733e0,western_union,MODATELAS 168 AP CASH,,Ameca,JALISCO,,MX,(+52) 33-7558797,https://location.westernunion.com/mx/jalisco/ameca/9ab856020ab1d98510e68cfa1dd733e0,Mo-Su 08:00-20:00,Western Union,Q861042
2e55b03e453b40e198942c6b13fa5a71,western_union,MODATELAS 168 AP CASH,,Ameca,JALISCO,,MX,(+52) 33-7558797,https://location.westernunion.com/mx/jalisco/ameca/2e55b03e453b40e198942c6b13fa5a71,Mo-Su 08:00-20:00,Western Union,Q861042
1e74fb5484f79683ad241b37a40dd68a,western_union,MUEBLES AMERICA 13 AP CASH,,Ameca,JALISCO,,MX,+52 375 758 0982,https://location.westernunion.com/mx/jalisco/ameca/1e74fb5484f79683ad241b37a40dd68a,Mo-Su 09:30-20:30,Western Union,Q861042
83e8eaf975c2e452586bdef5829c33cc,western_union,MUEBLES AMERICA 13 AP CASH,,Ameca,JALISCO,,MX,+52 375 758 0982,https://location.westernunion.com/mx/jalisco/ameca/83e8eaf975c2e452586bdef5829c33cc,Mo-Su 09:30-20:30,Western Union,Q861042
163b90e61aa8871ea607bc9d5dbb5523,western_union,MUEBLES AMERICA 13 AP CASH,,Ameca,JALISCO,,MX,+52 375 758 0982,https://location.westernunion.com/mx/jalisco/ameca/163b90e61aa8871ea607bc9d5dbb5523,Mo-Su 09:30-20:30,Western Union,Q861042
d4bb0964988e21fab4c949f883de10f5,western_union,CAJA TAMAZULA AMECA JAL,,Ameca,JALISCO,,MX,+52 81 2133 2160,https://location.westernunion.com/mx/jalisco/ameca/d4bb0964988e21fab4c949f883de10f5,Mo-Fr 08:00-17:00; Sa 08:00-13:00,Western Union,Q861042
845080ea4218b17b4046c3b954656255,western_union,CAJA TAMAZULA AMECA JAL,,Ameca,JALISCO,,MX,+52 81 2133 2160,https://location.westernunion.com/mx/jalisco/ameca/845080ea4218b17b4046c3b954656255,Mo-Fr 08:00-17:00; Sa 08:00-13:00,Western Union,Q861042
e074848646420df2598f9fb9a1df1277,western_union,SORIANA AMECA 512,,Ameca,JALISCO,,MX,(+52) 81-1112009,https://location.westernunion.com/mx/jalisco/ameca/e074848646420df2598f9fb9a1df1277,Mo-Su 08:00-23:00,Western Union,Q861042
7f1b5754782521083d8f70770c274ea5,western_union,SORIANA AMECA 512,,Ameca,JALISCO,,MX,(+52) 81-1112009,https://location.westernunion.com/mx/jalisco/ameca/7f1b5754782521083d8f70770c274ea5,Mo-Su 08:00-23:00,Western Union,Q861042
46d8b88f2d3112373a166495272589b4,western_union,SORIANA AMECA 512,,Ameca,JALISCO,,MX,(+52) 81-1112009,https://location.westernunion.com/mx/jalisco/ameca/46d8b88f2d3112373a166495272589b4,Mo-Su 08:00-23:00,Western Union,Q861042
3cd37c6cb5da17de79ebf50218bf3833,western_union,TIENDA MUEBLERIA BODEGON AMECA 1,,Ameca,JALISCO,,MX,+52 375 758 5959,https://location.westernunion.com/mx/jalisco/ameca/3cd37c6cb5da17de79ebf50218bf3833,Mo-Sa 10:00-20:30; Su 10:00-14:00,Western Union,Q861042
f6c104587227f71c6bc22ca92488053e,western_union,TIENDA MUEBLERIA BODEGON AMECA 1,,Ameca,JALISCO,,MX,+52 375 758 5959,https://location.westernunion.com/mx/jalisco/ameca/f6c104587227f71c6bc22ca92488053e,Mo-Sa 10:00-20:30; Su 10:00-14:00,Western Union,Q861042
08b946bc09285c65d7d82687aecad108,western_union,TIENDA MUEBLERIA BODEGON AMECA 1,,Ameca,JALISCO,,MX,+52 375 758 5959,https://location.westernunion.com/mx/jalisco/ameca/08b946bc09285c65d7d82687aecad108,Mo-Sa 10:00-20:30; Su 10:00-14:00,Western Union,Q861042
cfeba21bbbdb998b5a3d1b2e60a34255,western_union,CRISTOBAL COLON AMECA AP CASH,,Ameca,JALISCO,,MX,+52 317 100 1841,https://location.westernunion.com/mx/jalisco/ameca/cfeba21bbbdb998b5a3d1b2e60a34255,Mo-Fr 08:00-16:00; Sa 09:00-15:00,Western Union,Q861042
7ad84704b5f069371384043572e5f74a,western_union,CRISTOBAL COLON AMECA AP CASH,,Ameca,JALISCO,,MX,+52 317 100 1841,https://location.westernunion.com/mx/jalisco/ameca/7ad84704b5f069371384043572e5f74a,Mo-Fr 08:00-16:00; Sa 09:00-15:00,Western Union,Q861042
4028a14441cdb7af68a7656815e150bf,western_union,OXXO CALZADA AMECA GDL,,Ameca,JALISCO,,MX,+52 81 8389 2121,https://location.westernunion.com/mx/jalisco/ameca/4028a14441cdb7af68a7656815e150bf,Mo-Su 06:00-22:00,Western Union,Q861042
c574644c41faea6c0db12a580172ea58,western_union,CAJA INMACULADA - AMECA,,Ameca,JALISCO,,MX,+52 81 2133 2160,https://location.westernunion.com/mx/jalisco/ameca/c574644c41faea6c0db12a580172ea58,Mo-Fr 08:00-17:00; Sa 08:00-14:00,Western Union,Q861042
b77b1aeccdb145ae19b28eff266b482b,western_union,FARM GUAD AMECA,,Ameca,JALISCO,,MX,+52 800 833 4700,https://location.westernunion.com/mx/jalisco/ameca/b77b1aeccdb145ae19b28eff266b482b,Mo-Su 08:00-20:00,Western Union,Q861042
c8bda843ad0f6298c2aba944433078ef,western_union,FARM GUAD AMECA,,Ameca,JALISCO,,MX,+52 800 833 4700,https://location.westernunion.com/mx/jalisco/ameca/c8bda843ad0f6298c2aba944433078ef,Mo-Su 08:00-20:00,Western Union,Q861042
47a62308815e7701d9424bd6802e83ac,western_union,FARM GUAD AMECA,,Ameca,JALISCO,,MX,+52 800 833 4700,https://location.westernunion.com/mx/jalisco/ameca/47a62308815e7701d9424bd6802e83ac,Mo-Su 08:00-20:00,Western Union,Q861042
28aef2eb0855ca828df4c0ab2d2802fc,western_union,OXXO AMECA CENTRO GDL,,Ameca,JALISCO,,MX,+52 81 8389 2121,https://location.westernunion.com/mx/jalisco/ameca/28aef2eb0855ca828df4c0ab2d2802fc,Mo-Su 08:00-22:00,Western Union,Q861042
18f0ea849b0c86ff217e0d574fef00c8,western_union,OXXO AMECA CENTRO GDL,,Ameca,JALISCO,,MX,+52 81 8389 2121,https://location.westernunion.com/mx/jalisco/ameca/18f0ea849b0c86ff217e0d574fef00c8,Mo-Su 08:00-22:00,Western Union,Q861042
abb41dbcebeb229658d0e5662dd54807,western_union,OXXO AMECA CENTRO GDL,,Ameca,JALISCO,,MX,+52 81 8389 2121,https://location.westernunion.com/mx/jalisco/ameca/abb41dbcebeb229658d0e5662dd54807,Mo-Su 08:00-22:00,Western Union,Q861042
bf4352686e9bcb3581b99d0bbaae6e64,western_union,CAJA POPULAR JOSE MA MERCADO AMECA,,Ameca,JALISCO,,MX,+52 375 755 8538,https://location.westernunion.com/mx/jalisco/ameca/bf4352686e9bcb3581b99d0bbaae6e64,Mo-Su 09:00-19:30,Western Union,Q861042
31bf0fc59cfd9e1f768fbaae22f7e4dc,western_union,TIENDA MUEBLERIA BODEGON AMECA 2,,Ameca,JALISCO,,MX,+52 375 755 8976,https://location.westernunion.com/mx/jalisco/ameca/31bf0fc59cfd9e1f768fbaae22f7e4dc,Mo-Sa 10:00-20:30; Su 10:00-14:00,Western Union,Q861042
ce1bfd0e2ca84c08f6a364991011cbd8,western_union,TIENDA MUEBLERIA BODEGON AMECA 2,,Ameca,JALISCO,,MX,+52 375 755 8976,https://location.westernunion.com/mx/jalisco/ameca/ce1bfd0e2ca84c08f6a364991011cbd8,Mo-Sa 10:00-20:30; Su 10:00-14:00,Western Union,Q861042
59018ea186521949054bcdc34ff02fa6,western_union,TIENDA MUEBLERIA BODEGON AMECA 2,,Ameca,JALISCO,,MX,+52 375 755 8976,https://location.westernunion.com/mx/jalisco/ameca/59018ea186521949054bcdc34ff02fa6,Mo-Sa 10:00-20:30; Su 10:00-14:00,Western Union,Q861042
576318957e3d9c6be0d6053a47c7143e,western_union,OXXO AMECA GDL,,Ameca,JALISCO,,MX,+52 81 8389 2121,https://location.westernunion.com/mx/jalisco/ameca/576318957e3d9c6be0d6053a47c7143e,Mo-Su 08:00-22:00,Western Union,Q861042
15e20c50bcb3997832160d26e448a39c,western_union,OXXO AMECA GDL,,Ameca,JALISCO,,MX,+52 81 8389 2121,https://location.westernunion.com/mx/jalisco/ameca/15e20c50bcb3997832160d26e448a39c,Mo-Su 08:00-22:00,Western Union,Q861042
f0c749130dff22dca4bacf8fa70a78b1,western_union,OXXO AMECA GDL,,Ameca,JALISCO,,MX,+52 81 8389 2121,https://location.westernunion.com/mx/jalisco/ameca/f0c749130dff22dca4bacf8fa70a78b1,Mo-Su 08:00-22:00,Western Union,Q861042
a1b432e081dc45395a9da35c776f2297,western_union,OXXO AMECA ALLENDE GDL,,Ameca,JALISCO,,MX,+52 81 8389 2121,https://location.westernunion.com/mx/jalisco/ameca/a1b432e081dc45395a9da35c776f2297,Mo-Su 08:00-22:00,Western Union,Q861042
e0cb5e8aa1a06e7a35dda2f3370f141c,western_union,CAJA GUACHINANGO - AMECA,,Ameca,JALISCO,,MX,+52 81 2133 2160,https://location.westernunion.com/mx/jalisco/ameca/e0cb5e8aa1a06e7a35dda2f3370f141c,Mo-Su 08:00-17:00,Western Union,Q861042
657bb261e2e1622d7c34379ed0e41a5d,western_union,CAJA GUACHINANGO - AMECA,,Ameca,JALISCO,,MX,+52 81 2133 2160,https://location.westernunion.com/mx/jalisco/ameca/657bb261e2e1622d7c34379ed0e41a5d,Mo-Su 08:00-17:00,Western Union,Q861042
05c83f9a13bf728ca0146ef0ec08c7db,western_union,CAJA GUACHINANGO - AMECA,,Ameca,JALISCO,,MX,+52 81 2133 2160,https://location.westernunion.com/mx/jalisco/ameca/05c83f9a13bf728ca0146ef0ec08c7db,Mo-Su 08:00-17:00,Western Union,Q861042
d685745cd64c6934d0d7e625fb65ca73,western_union,BANORTE 07710 AMECA,,Ameca,JALISCO,,MX,+52 800 833 4700,https://location.westernunion.com/mx/jalisco/ameca/d685745cd64c6934d0d7e625fb65ca73,Mo-Fr 09:00-17:00,Western Union,Q861042
a267862f93d12ea844f14201dcd67c37,western_union,BANORTE 07710 AMECA,,Ameca,JALISCO,,MX,+52 800 833 4700,https://location.westernunion.com/mx/jalisco/ameca/a267862f93d12ea844f14201dcd67c37,Mo-Su 09:00-20:00,Western Union,Q861042
45a6ca60dd84cf3babfd6ec7b62787c1,western_union,BANORTE 07710 AMECA,,Ameca,JALISCO,,MX,+52 800 833 4700,https://location.westernunion.com/mx/jalisco/ameca/45a6ca60dd84cf3babfd6ec7b62787c1,Mo-Fr 09:00-17:00,Western Union,Q861042
6f457b8d931484523146e0f17e3ba176,western_union,TELECOMM 14005,,Ameca,JALISCO,,MX,+52 800 800 8930,https://location.westernunion.com/mx/jalisco/ameca/6f457b8d931484523146e0f17e3ba176,Mo-Su 09:00-20:00,Western Union,Q861042
680440b3b5600e6949716561529afd88,western_union,TELECOMM 14005,,Ameca,JALISCO,,MX,+52 800 800 9889,https://location.westernunion.com/mx/jalisco/ameca/680440b3b5600e6949716561529afd88,Mo-Fr 09:00-15:00; Sa 09:00-12:30,Western Union,Q861042
1765e8c063d01aef0bf8514ace2b89b7,western_union,TELECOMM 14005,,Ameca,JALISCO,,MX,+52 800 800 8930,https://location.westernunion.com/mx/jalisco/ameca/1765e8c063d01aef0bf8514ace2b89b7,Mo-Fr 09:00-15:30,Western Union,Q861042
5da643c6e468914399a11a6d975da6c9,western_union,ELEKTRA PPR 2698,,Ameca,JALISCO,,MX,+52 55 1720 8177,https://location.westernunion.com/mx/jalisco/ameca/5da643c6e468914399a11a6d975da6c9,Mo-Su 09:00-21:00,Western Union,Q861042
bacbd9779455637a0f6a35d4f9f23957,western_union,ELEKTRA PPR 2698,,Ameca,JALISCO,,MX,+52 55 1720 8177,https://location.westernunion.com/mx/jalisco/ameca/bacbd9779455637a0f6a35d4f9f23957,Mo-Su 09:00-20:00,Western Union,Q861042
f109f55cab979b1edd2621b7a147d410,western_union,ELEKTRA PPR 2698,,Ameca,JALISCO,,MX,+52 55 1720 8177,https://location.westernunion.com/mx/jalisco/ameca/f109f55cab979b1edd2621b7a147d410,Mo-Su 09:00-21:00,Western Union,Q861042
865fd45d1a055113923207357de53e82,western_union,CAJA INMACULADA - AMECA,,Ameca,JALISCO,,MX,+52 81 2133 2160,https://location.westernunion.com/mx/jalisco/ameca/865fd45d1a055113923207357de53e82,Mo-Fr 08:00-17:00; Sa 08:00-14:00,Western Union,Q861042
23f9bbbf9c42199ac9275b659a60c140,western_union,CAJA INMACULADA - AMECA,,Ameca,JALISCO,,MX,+52 81 2133 2160,https://location.westernunion.com/mx/jalisco/ameca/23f9bbbf9c42199ac9275b659a60c140,Mo-Fr 08:00-17:00; Sa 08:00-14:00,Western Union,Q861042
70bbded23488626fb8b9de607d8e3b77,western_union,OXXO AMECA ALLENDE GDL,,Ameca,JALISCO,,MX,+52 81 8389 2121,https://location.westernunion.com/mx/jalisco/ameca/70bbded23488626fb8b9de607d8e3b77,Mo-Su 08:00-22:00,Western Union,Q861042
