Ref,Spider,Name,Address,City,State,Zipcode,Country,Phone,Website,Hours,Brand,WikiData
209302,bluerhino,Family Dollar #12774,,Mason,TX,,US,+1 325-792-5014,,,Blue Rhino,Q65681213
176453,bluerhino,Cal's #5063,,Mason,TX,,US,+1 325-347-5133,,,Blue Rhino,Q65681213
150257,bluerhino,Orgill #142612 - Mason Building Supply & Rental,,Mason,TX,,US,+1 325-347-5899,,,Blue Rhino,Q65681213
138115,bluerhino,Lowe's Super S #138,,Mason,TX,,US,+1 325-347-5906,,,Blue Rhino,Q65681213
76250,chevron,Chevron Station #76250,615 FORT MCKAVITT,MASON,TX,,US,,,,Chevron,Q319642
32774,family_dollar_us,FAMILY DOLLAR #12774,,Mason,TX,,US,+1 737-279-4062,https://www.familydollar.com/locations/tx/mason/32774/,Mo-Su 08:00-22:00,Family Dollar,Q5433101
https://local.fedex.com/#25234339,fedex,,,Mason,TX,,US,+1 800-463-3339,https://local.fedex.com/en-us/tx/mason/bwdac,,FedEx,Q459477
2096,mightyflame,NUWAY,,Mason,TX,,US,+1 325-347-5713,,,Mighty Flame,
0000865764,phillips_66_conoco_76,LOWES FUEL 138,,MASON,TX,,US,+1 325-347-5906,,,Phillips 66,Q1656230
https://restaurants.subway.com/#14908026,subway,Subway Strips C-Store,,Mason Mason,TX,,US,+1 325-347-5133,https://restaurants.subway.com/united-states/tx/mason/616-ft-mckavitt-st,Mo-Su 08:00-22:00,Subway,Q244457
1372095,usps,MASON,,MASON,TX,,US,+1 325-347-5442,,Mo-Fr 09:00-16:00,United States Postal Service,Q668687
7685600000,usps_collection_boxes,USPS COLLECTION BOX - BLUE BOX,206 MOODY ST,MASON,TX,,US,,,,United States Postal Service,Q668687
7685600005,usps_collection_boxes,USPS COLLECTION BOX - PO LOBBY,704 WREN ST,MASON,TX,,US,,,,United States Postal Service,Q668687
7685600001,usps_collection_boxes,USPS COLLECTION BOX - PO LOBBY,704 WREN ST,MASON,TX,,US,,,,United States Postal Service,Q668687
7685600004,usps_collection_boxes,USPS COLLECTION BOX - BLUE BOX,704 WREN ST,MASON,TX,,US,,,,United States Postal Service,Q668687
0000030726,valero,Mason Short Stop,,Mason,TX,,US,+1 325-347-6648,https://locations.valero.com/en-us/LocationDetails/Index/425-FORT-MCKAVITT-ST/0000030726,,Valero,Q1283291
,visa,,,MASON,TX,,US,,,,,
,visa,,,MIDLAND,TX,,US,,,,,
34aa98cb2d664994384ff28142efe041,western_union,GIGIS CONVENIENCE STORE,,Mason,TX,,US,+1 325-347-0407,https://location.westernunion.com/us/tx/mason/34aa98cb2d664994384ff28142efe041,Mo-Su 08:00-21:00,Western Union,Q861042
