Ref,Spider,Name,Address,City,State,Zipcode,Country,Phone,Website,Hours,Brand,WikiData
159794,bluerhino,Pump & Pantry #09,,Lincoln,NE,,US,+1 402-435-2022,,,Blue Rhino,Q65681213
85389,citi,ATM UNION BANK AND TRUST10,,Lincoln,NE,,US,,,,Citibank,Q857063
85390,citi,ATM UNION BANK AND TRUST10,,Lincoln,NE,,US,,,,Citibank,Q857063
071515,kindercare,West A Street KinderCare,,Lincoln,NE,,US,,https://www.kindercare.com/our-centers/lincoln/ne/071515,,KinderCare Learning Centers,Q6410551
ne_lincoln_1550-s-coddington,pizza_hut_us,1550 S. Coddington,,Lincoln,NE,,US,+1 402-435-0313,https://locations.pizzahut.com/ne/lincoln/1550-s-coddington,,Pizza Hut,Q191615
https://restaurants.subway.com/#14898229,subway,Subway,,Lincoln Lancaster,NE,,US,+1 402-477-1551,https://restaurants.subway.com/united-states/ne/lincoln/1550-s-coddington,Mo-Su 09:00-22:00,Subway,Q244457
80155,supercuts,Coddington Park Centre,1550 S Coddington Ave,Lincoln,NE,,US,+1 402-477-8007,https://www.supercuts.com/checkin/80155,Mo-Fr 10:00-18:00; Sa 09:00-17:00,Supercuts,Q7643239
6852200004,usps_collection_boxes,USPS COLLECTION BOX - BLUE BOX,1550 S CODDINGTON AVE,LINCOLN,NE,,US,,,,United States Postal Service,Q668687
,visa,,,LINCOLN,NE,,US,,,,,
,visa,,,LINCOLN,NE,,US,,,,,
,visa,,,LINCOLN,NE,,US,,,,,
,visa,,,LINCOLN,NE,,US,,,,,
,visa,,,LINCOLN,NE,,US,,,,,
,visa,,,LINCOLN,NE,,US,,,,,
,visa,,,LINCOLN,NE,,US,,,,,
,visa,,,LINCOLN,NE,,US,,,,,
,visa,,,LINCOLN,NE,,US,,,,,
,visa,,,LINCOLN,NE,,US,,,,,
,visa,,,LINCOLN,NE,,US,,,,,
,visa,,,LINCOLN,NE,,US,,,,,
,visa,,,LINCOLN,NE,,US,,,,,
,visa,,,LINCOLN,NE,,US,,,,,
,visa,,,LINCOLN,NE,,US,,,,,
,visa,,,LINCOLN,NE,,US,,,,,
