Ref,Spider,Name,Address,City,State,Zipcode,Country,Phone,Website,Hours,Brand,WikiData
1471,autozone_us,AutoZone Auto Parts Houston,,Houston,TX,,US,+1 713-522-8482,https://www.autozone.com/locations/tx/houston/2301-montrose-blvd.html,Mo-Sa 07:30-23:00; Su 08:00-22:00,AutoZone,Q4826087
houston-montrose,barmethod,The Bar Method Houston - Montrose,,Houston,TX,,US,+1 713-485-5399,https://barmethod.com/locations/houston-montrose/,,The Bar Method,Q117599728
237788,bluerhino,Circle K #2742148,,Houston,TX,,US,+1 713-528-0902,,,Blue Rhino,Q65681213
155097,bluerhino,Walgreens #3157,,HOUSTON,TX,,US,+1 713-520-7777,,,Blue Rhino,Q65681213
2041521,chase_us,Midtown - New branch - Newly renovated,,Houston,TX,,US,+1 713-533-1309,https://locator.chase.com/tx/houston/600-mcgowen-st,Mo-Fr 09:00-17:00; Sa 09:00-14:00,Chase,Q524629
2041516,chase_us,Montrose Blvd - New branch,,Houston,TX,,US,+1 713-524-5755,https://locator.chase.com/tx/houston/4313-montrose-blvd,Mo-Fr 09:00-17:00,Chase,Q524629
tx_houston_2625-lousiana-st,chipotle, ,,Houston,TX,,US,+1 713-231-1353,https://locations.chipotle.com/tx/houston/2625-lousiana-st,,Chipotle,Q465751
89522,citi,ATM Walgreens,,Houston,TX,,US,,,,Citibank,Q857063
71452,citi,ATM PrimeWay FCU,,Houston,TX,,US,,,,Citibank,Q857063
54281,citi,ATM EAST WEST BANK,,Houston,TX,,US,,,,Citibank,Q857063
60553,citi,ATM Jrs Bar And Grill,,Houston,TX,,US,,,,Citibank,Q857063
90259,citi,ATM Walgreens,,Houston,TX,,US,,,,Citibank,Q857063
7162,cvs_us,CVS Pharmacy,,Houston,TX,,US,+1 713-807-8491,https://www.cvs.com/store-locator/houston-tx-pharmacies/1003-richmond-ave-houston-tx-77006/storeid=7162,Mo-Su 07:00-00:00,CVS Pharmacy,Q2078880
6790,dominos_pizza_us,Domino's Pizza,,Houston,TX,,US,+1 832-917-0977,https://pizza.dominos.com/texas/houston/120-westheimer-rd-ste-k,Mo-Th 10:00-24:00; Fr-Sa 10:00-01:00; Su 10:00-24:00,Domino's,Q839466
https://www.edwardjones.com/us-en/financial-advisor/nico-ditges,edwardjones,Nico E Ditges,,Houston,TX,,US,+1 713-807-7922,https://www.edwardjones.com/us-en/financial-advisor/nico-ditges,Mo-Fr 08:00-17:00,Edward Jones,Q5343830
https://local.fedex.com/#25198249,fedex,,,Houston,TX,,US,+1 800-463-3339,https://local.fedex.com/en-us/tx/houston/hipkm,,FedEx,Q459477
https://local.fedex.com/#25197293,fedex,,,Houston,TX,,US,+1 800-463-3339,https://local.fedex.com/en-us/tx/houston/f8w8n,,FedEx,Q459477
3869,fresenius_kidney_care_us,Fresenius Kidney Care Museum District 2,,Houston,TX,,US,+1 800-881-5101,https://www.freseniuskidneycare.com/dialysis-centers/texas/3869,Mo 05:00-21:30; Tu 06:00-18:00; We 05:00-21:30; Th 06:00-18:00; Fr 05:00-21:30; Sa 06:00-18:00,,
https://locations.jimmyjohns.com/tx/houston/sandwiches-2468.html,jimmy_johns,Jimmy John's,,Houston,TX,,US,+1 832-767-0707,https://locations.jimmyjohns.com/tx/houston/sandwiches-2468.html,,Jimmy John's,Q1689380
https://www.juiceland.com/locations/montrose/,juiceland,Montrose,,Houston,TX,,US,+1 832-487-9914,https://www.juiceland.com/locations/montrose/,"Mo-Fr 07:00-21:00; Su 07:00-21:00,08:00-21:00",JuiceLand,Q123022671
3110,little_free_library,Janet Blossman #3110 Houston TX,,Houston,TX,,US,,,,Little Free Library,Q6650101
34750,little_free_library,Inprint House Free Library #34750 Houston TX,,Houston,TX,,US,,,,Little Free Library,Q6650101
77806,little_free_library,Alebrije #77806 Houston TX,,Houston,TX,,US,,,,Little Free Library,Q6650101
97558,little_free_library,Kathryn Ellis #97558 Houston TX,,Houston,TX,,US,,,,Little Free Library,Q6650101
149645,little_free_library,Rebekah Hernandez #149645 #149645 Houston TX,,Houston,TX,,US,,,,Little Free Library,Q6650101
4115789,pepperonis_us,Pepperoni's - Montrose,"2710B Montrose Boulevard, Houston, TX, 77006, US",Houston,TX,,US,+1 713-526-0202,,Mo-We 10:00-24:00; Th 10:00-01:00; Fr-Sa 10:00-03:00; Su 10:00-01:00,Pepperoni's,Q117229592
tx_houston_1225-westheimer-rd,pizza_hut_us,1225 Westheimer Rd,,Houston,TX,,US,+1 713-521-3366,https://locations.pizzahut.com/tx/houston/1225-westheimer-rd,,Pizza Hut,Q191615
136925,potbelly_sandwich,Louisiana & McGowen,,Houston,TX,,US,+1 713-469-4718,,Mo-Su 10:00-22:00,Potbelly Sandwich Shop,Q7234777
southwestern-paint-co-inc-23061,ppgpaints,SOUTHWESTERN PAINT CO INC,,"Houston, ",TX,,US,+1 713-522-1685,https://www.ppgpaints.com/store-locator/us/texas/houston-paint-stores/southwestern-paint-co-inc-23061,,PPG Paints,Q83891559
southwestern-paint-and-wallpaper-27444,ppgpaints,SOUTHWESTERN PAINT & WALLPAPER,,"Houston, ",TX,,US,+1 713-522-1685,https://www.ppgpaints.com/store-locator/us/texas/houston-paint-stores/southwestern-paint-and-wallpaper-27444,,PPG Paints,Q83891559
https://www.solidcore.co/tx/houston/montrose/,solidcore_us,[solidcore],,Houston,TX,,US,+1 832-280-1658,https://www.solidcore.co/tx/houston/montrose/,,[solidcore],Q124429271
https://restaurants.subway.com/#14907445,subway,Subway,,Houston Harris,TX,,US,+1 713-807-7977,https://restaurants.subway.com/united-states/tx/houston/2315-bagby,Mo-Sa 08:00-22:00; Su 09:00-22:00,Subway,Q244457
82767,supercuts,Plazas At Midtown,2509 Bagby St,Houston,TX,,US,+1 713-524-9810,https://www.supercuts.com/checkin/82767,Mo-Fr 09:00-20:00; Sa 09:00-19:00; Su 10:00-17:00,Supercuts,Q7643239
1385463,usps,UNIVERSITY,,HOUSTON,TX,,US,+1 713-522-7389,,Mo-Fr 09:00-17:00,United States Postal Service,Q668687
7700600022,usps_collection_boxes,USPS COLLECTION BOX - BLUE BOX,4200 MONTROSE BLVD,HOUSTON,TX,,US,,,,United States Postal Service,Q668687
7700600052,usps_collection_boxes,USPS COLLECTION BOX - PO LOBBY,1319 RICHMOND AVE,HOUSTON,TX,,US,,,,United States Postal Service,Q668687
7700600043,usps_collection_boxes,USPS COLLECTION BOX - PO LOBBY,1319 RICHMOND AVE,HOUSTON,TX,,US,,,,United States Postal Service,Q668687
7700600048,usps_collection_boxes,USPS COLLECTION BOX - APC,1319 RICHMOND AVE,HOUSTON,TX,,US,,,,United States Postal Service,Q668687
7700600008,usps_collection_boxes,USPS COLLECTION BOX - BLUE BOX,214 FAIRVIEW ST,HOUSTON,TX,,US,,,,United States Postal Service,Q668687
7700600017,usps_collection_boxes,USPS COLLECTION BOX - BLUE BOX,500 LOVETT BLVD,HOUSTON,TX,,US,,,,United States Postal Service,Q668687
7700600046,usps_collection_boxes,USPS COLLECTION BOX - BLUE BOX,2900 LOUISIANA ST,HOUSTON,TX,,US,,,,United States Postal Service,Q668687
7700600007,usps_collection_boxes,USPS COLLECTION BOX - BLUE BOX,3800 DUNLAVY ST,HOUSTON,TX,,US,,,,United States Postal Service,Q668687
,visa,,,HOUSTON,TX,,US,,,,,
,visa,,,HOUSTON,TX,,US,,,,,
,visa,,,HOUSTON,TX,,US,,,,,
,visa,,,HOUSTON,TX,,US,,,,,
,visa,,,HOUSTON,TX,,US,,,,,
,visa,,,HOUSTON,TX,,US,,,,,
,visa,,,HOUSTON,TX,,US,,,,,
,visa,,,HOUSTON,TX,,US,,,,,
,visa,,,HOUSTON,TX,,US,,,,,
,visa,,,HOUSTON,TX,,US,,,,,
,visa,,,HOUSTON,TX,,US,,,,,
,visa,,,HOUSTON,TX,,US,,,,,
,visa,,,HOUSTON,TX,,US,,,,,
,visa,,,HOUSTON,TX,,US,,,,,
,visa,,,HOUSTON,TX,,US,,,,,
,visa,,,HOUSTON,TX,,US,,,,,
,visa,,,HOUSTON,TX,,US,,,,,
,visa,,,HOUSTON,TX,,US,,,,,
,visa,,,HOUSTON,TX,,US,,,,,
,visa,,,HOUSTON,TX,,US,,,,,
,visa,,,HOUSTON,TX,,US,,,,,
,visa,,,HOUSTON,TX,,US,,,,,
,visa,,,HOUSTON,TX,,US,,,,,
,visa,,,HOUSTON,TX,,US,,,,,
,visa,,,HOUSTON,TX,,US,,,,,
,visa,,,HOUSTON,TX,,US,,,,,
,visa,,,HOUSTON,TX,,US,,,,,
,visa,,,HOUSTON,TX,,US,,,,,
,visa,,,HOUSTON,TX,,US,,,,,
,visa,,,HOUSTON,TX,,US,,,,,
,visa,,,HOUSTON,TX,,US,,,,,
,visa,,,HOUSTON,TX,,US,,,,,
,visa,,,HOUSTON,TX,,US,,,,,
,visa,,,HOUSTON,TX,,US,,,,,
,visa,,,HOUSTON,TX,,US,,,,,
,visa,,,HOUSTON,TX,,US,,,,,
,visa,,,HOUSTON,TX,,US,,,,,
,visa,,,HOUSTON,TX,,US,,,,,
,visa,,,HOUSTON,TX,,US,,,,,
,visa,,,HOUSTON,TX,,US,,,,,
,visa,,,HOUSTON,TX,,US,,,,,
,visa,,,HOUSTON,TX,,US,,,,,
,visa,,,HOUSTON,TX,,US,,,,,
,visa,,,HOUSTON,TX,,US,,,,,
,visa,,,HOUSTON,TX,,US,,,,,
,visa,,,HOUSTON,TX,,US,,,,,
,visa,,,HOUSTON,TX,,US,,,,,
,visa,,,HOUSTON,TX,,US,,,,,
,visa,,,HOUSTON,TX,,US,,,,,
,visa,,,HOUSTON,TX,,US,,,,,
,visa,,,HOUSTON,TX,,US,,,,,
,visa,,,HOUSTON,TX,,US,,,,,
,visa,,,HOUSTON,TX,,US,,,,,
,visa,,,HOUSTON,TX,,US,,,,,
,visa,,,HOUSTON,TX,,US,,,,,
,visa,,,HOUSTON,TX,,US,,,,,
,visa,,,HOUSTON,TX,,US,,,,,
,visa,,,HOUSTON,TX,,US,,,,,
,visa,,,HOUSTON,TX,,US,,,,,
,visa,,,HOUSTON,TX,,US,,,,,
,visa,,,HOUSTON,TX,,US,,,,,
,visa,,,HOUSTON,TX,,US,,,,,
,visa,,,HOUSTON,TX,,US,,,,,
,visa,,,HOUSTON,TX,,US,,,,,
,visa,,,HOUSTON,TX,,US,,,,,
,visa,,,HOUSTON,TX,,US,,,,,
,visa,,,HOUSTON,TX,,US,,,,,
,visa,,,HOUSTON,TX,,US,,,,,
,visa,,,HOUSTON,TX,,US,,,,,
,visa,,,HOUSTON,TX,,US,,,,,
,visa,,,HOUSTON,TX,,US,,,,,
,visa,,,HOUSTON,TX,,US,,,,,
,visa,,,HOUSTON,TX,,US,,,,,
,visa,,,HOUSTON,TX,,US,,,,,
,visa,,,HOUSTON,TX,,US,,,,,
,visa,,,HOUSTON,TX,,US,,,,,
,visa,,,HOUSTON,TX,,US,,,,,
,visa,,,HOUSTON,TX,,US,,,,,
,visa,,,HOUSTON,TX,,US,,,,,
,visa,,,HOUSTON,TX,,US,,,,,
,visa,,,HOUSTON,TX,,US,,,,,
,visa,,,HOUSTON,TX,,US,,,,,
,visa,,,HOUSTON,TX,,US,,,,,
,visa,,,HOUSTON,TX,,US,,,,,
,visa,,,HOUSTON,TX,,US,,,,,
,visa,,,HOUSTON,TX,,US,,,,,
,visa,,,HOUSTON,TX,,US,,,,,
,visa,,,HOUSTON,TX,,US,,,,,
,visa,,,HOUSTON,TX,,US,,,,,
,visa,,,HOUSTON,TX,,US,,,,,
https://www.walgreens.com/locator/walgreens-3317+montrose+blvd-houston-tx-77006/id=3157,walgreens,Walgreens,,Houston,TX,,US,+1 713-520-7777,https://www.walgreens.com/locator/walgreens-3317+montrose+blvd-houston-tx-77006/id=3157,24/7,Walgreens,Q1591889
https://www.walgreens.com/locator/walgreens-2612+smith+st-houston-tx-77006/id=9808,walgreens,Walgreens,,Houston,TX,,US,+1 713-529-2969,https://www.walgreens.com/locator/walgreens-2612+smith+st-houston-tx-77006/id=9808,Mo-Sa 08:00-22:00; Su 09:00-21:00,Walgreens,Q1591889
https://www.walgreens.com/locator/walgreens-3217+montrose+blvd-houston-tx-77006/id=21239,walgreens,Walgreens,,Houston,TX,,US,+1 713-258-1582,https://www.walgreens.com/locator/walgreens-3217+montrose+blvd-houston-tx-77006/id=21239,,Walgreens,Q1591889
2714__SMITH__ST_HOUSTON_TX_77006,wellsfargo,Wells Fargo,2714 SMITH ST,HOUSTON,TX,,US,+1 713-522-0616,https://www.wellsfargo.com/locator/bank/2714__SMITH__ST_HOUSTON_TX_77006/,Mo-Fr 09:00-17:00,Wells Fargo,Q744149
