Ref,Spider,Name,Address,City,State,Zipcode,Country,Phone,Website,Hours,Brand,WikiData
239284,bluerhino,Circle K #2746086,,Negaunee,MI,,US,+1 906-475-5375,,,Blue Rhino,Q65681213
144705,bluerhino,Negaunee Super One Foods #181593,,Negaunee,MI,,US,+1 906-475-4132,,,Blue Rhino,Q65681213
18694,chevrolet,FOX NEGAUNEE CHEVROLET GMC,,Negaunee,MI,,US,+1 906-475-8360,https://www.foxnegauneegm.com,Mo-Fr 08:30-18:00; Sa 09:00-14:00,Chevrolet,Q29570
13476,dollar_general,Dollar General,,Negaunee,MI,,US,+1 906-464-0526,https://www.dollargeneral.com/store-directory/mi/negaunee/13476,Mo-Su 08:00-22:00,Dollar General,Q145168
https://www.edwardjones.com/us-en/financial-advisor/ryan-lamere,edwardjones,Ryan M LaMere,,Negaunee,MI,,US,+1 906-475-8750,https://www.edwardjones.com/us-en/financial-advisor/ryan-lamere,Mo-Th 08:30-17:00; Fr 08:30-16:00,Edward Jones,Q5343830
https://locations.oreillyauto.com/mi/negaunee/check-engine-light-testing-4302.html,oreilly,Your Negaunee O'Reilly Auto Parts Store,,Negaunee,MI,,US,+1 906-475-6369,https://locations.oreillyauto.com/mi/negaunee/check-engine-light-testing-4302.html,Mo-Sa 07:00-21:00; Su 08:00-19:00,O'Reilly Auto Parts,Q7071951
https://locations.oreillyauto.com/mi/negaunee/wiper-installation-4302.html,oreilly,Your Negaunee O'Reilly Auto Parts Store,,Negaunee,MI,,US,+1 906-475-6369,https://locations.oreillyauto.com/mi/negaunee/wiper-installation-4302.html,Mo-Sa 07:00-21:00; Su 08:00-19:00,O'Reilly Auto Parts,Q7071951
https://locations.oreillyauto.com/mi/negaunee/autopartes-4302.html,oreilly,Tu tienda O'Reilly Auto Parts en Negaunee,,Negaunee,MI,,US,+1 906-475-6369,https://locations.oreillyauto.com/mi/negaunee/autopartes-4302.html,Mo-Sa 07:00-21:00; Su 08:00-19:00,O'Reilly Auto Parts,Q7071951
https://locations.oreillyauto.com/mi/negaunee/battery-testing-4302.html,oreilly,Your Negaunee O'Reilly Auto Parts Store,,Negaunee,MI,,US,+1 906-475-6369,https://locations.oreillyauto.com/mi/negaunee/battery-testing-4302.html,Mo-Sa 07:00-21:00; Su 08:00-19:00,O'Reilly Auto Parts,Q7071951
https://restaurants.subway.com/#14915515,subway,Subway,,Negaunee Marquette,MI,,US,+1 906-475-4745,https://restaurants.subway.com/united-states/mi/negaunee/430-us-highway-41-east,Mo-Tu 09:00-22:00; We 08:00-22:00; Th-Sa 09:00-22:00; Su 09:00-21:00,Subway,Q244457
57ede4543dac7b5c124b9ba8,super_one_foods_us,Negaunee Super One Foods,,Negaunee,MI,,US,+1 906-475-4132,https://www.superonefoods.com/store-details/negaunee-super-one-foods,,Super One Foods,Q17108733
1374537,usps,NEGAUNEE,,NEGAUNEE,MI,,US,+1 906-475-9172,,"Mo-Fr 09:00-10:30,11:30-16:45; Sa 09:00-11:00",United States Postal Service,Q668687
4986600006,usps_collection_boxes,USPS COLLECTION BOX - BLUE BOX,490 US HIGHWAY 41,NEGAUNEE,MI,,US,,,,United States Postal Service,Q668687
4986600010,usps_collection_boxes,USPS COLLECTION BOX - PO LOBBY,304 W CASE ST,NEGAUNEE,MI,,US,,,,United States Postal Service,Q668687
4986600014,usps_collection_boxes,USPS COLLECTION BOX - PO LOBBY,304 W CASE ST,NEGAUNEE,MI,,US,,,,United States Postal Service,Q668687
4986600008,usps_collection_boxes,USPS COLLECTION BOX - BLUE BOX,319 W CASE ST,NEGAUNEE,MI,,US,,,,United States Postal Service,Q668687
4986600009,usps_collection_boxes,USPS COLLECTION BOX - BLUE BOX,319 W CASE ST,NEGAUNEE,MI,,US,,,,United States Postal Service,Q668687
,visa,,,NEGAUNEE,MI,,US,,,,,
,visa,,,NEGAUNEE,MI,,US,,,,,
,visa,,,NEGAUNEE,MI,,US,,,,,
,visa,,,NEGAUNEE,MI,,US,,,,,
,visa,,,NEGAUNEE,MI,,US,,,,,
,visa,,,NEGAUNEE,MI,,US,,,,,
,visa,,,NEGAUNEE,MI,,US,,,,,
,visa,,,MARQUETTE,MI,,US,,,,,
,visa,,,NEGAUNEE,MI,,US,,,,,
,visa,,,NEGAUNEE,MI,,US,,,,,
,visa,,,NEGAUNEE,MI,,US,,,,,
,visa,,,NEGAUNEE,MI,,US,,,,,
,visa,,,NEGAUNEE,MI,,US,,,,,
,visa,,,NEGAUNEE,MI,,US,,,,,
,visa,,,NEGAUNEE,MI,,US,,,,,
