Ref,Spider,Name,Address,City,State,Zipcode,Country,Phone,Website,Hours,Brand,WikiData
https://locations.99only.com/ca/norwalk/discount-store-32.html,99_cents_only_us,99 Cents Only Stores,,Norwalk,CA,,US,+1 562-929-9984,https://locations.99only.com/ca/norwalk/discount-store-32.html,Mo 08:00-22:00; Tu 07:00-22:00; We 08:00-22:00; Th 07:00-22:00; Fr-Su 08:00-22:00,99 Cents Only Stores,Q4646294
https://locations.99only.com/ca/norwalk/discount-store-429.html,99_cents_only_us,99 Cents Only Stores,,Norwalk,CA,,US,+1 562-864-1112,https://locations.99only.com/ca/norwalk/discount-store-429.html,Mo 08:00-22:00; Tu 07:00-22:00; We 08:00-22:00; Th 07:00-22:00; Fr-Su 08:00-22:00,99 Cents Only Stores,Q4646294
13035 Rosecrans Avenue,allied_universal,Allied Universal,,Norwalk,CA,,US,,https://www.aus.com/los-angeles-security-services-systems,,Allied Universal,Q4732537
https://restaurants.applebees.com/en-us/ca/norwalk/12129-imperial-highway-78018,applebees,Connect with this Applebee's,,Norwalk,CA,,US,+1 562-863-0798,https://restaurants.applebees.com/en-us/ca/norwalk/12129-imperial-highway-78018,Mo-Th 11:00-24:00; Fr-Sa 11:00-01:00; Su 11:00-24:00,Applebees,Q621532
USAA22A61,audi,McKenna Audi,"10850 Firestone Blvd, Norwalk, CA 90650",Norwalk,CA,,US,+1 562-868-3233,,,Audi,Q23317
5456,autozone_us,AutoZone Auto Parts Norwalk,,Norwalk,CA,,US,+1 562-863-8794,https://www.autozone.com/locations/ca/norwalk/13927-s-pioneer-blvd.html,Mo-Su 07:00-23:00,AutoZone,Q4826087
6395,autozone_us,AutoZone Auto Parts Norwalk,,Norwalk,CA,,US,+1 562-526-3840,https://www.autozone.com/locations/ca/norwalk/12124-s-studebake-rd.html,Mo-Su 08:00-21:00,AutoZone,Q4826087
https://locators.bankofamerica.com/ca/norwalk/atm-norwalk-108623.html,bankofamerica,Bank of America Walk-Up ATM | Rosecrans Town Center,,Norwalk,CA,,US,+1 844-401-8500,https://locators.bankofamerica.com/ca/norwalk/atm-norwalk-108623.html,,Bank of America,Q487907
https://locations.baskinrobbins.com/ca/norwalk/10939-firestone-blvd-346679-br,baskin_robbins_us,Baskin-Robbins™,,Norwalk,CA,,US,+1 562-807-3638,https://locations.baskinrobbins.com/ca/norwalk/10939-firestone-blvd-346679-br,Mo-Su 11:00-22:00,Baskin-Robbins,Q584601
181743,bluerhino,Smart & Final #325,,Norwalk,CA,,US,+1 562-863-7057,,,Blue Rhino,Q65681213
169076,bluerhino,United Pacific  #117,,Norwalk,CA,,US,+1 562-864-6467,,,Blue Rhino,Q65681213
33064,bluerhino,TruServ - Norwalk True Value #08272-7,,Norwalk,CA,,US,+1 562-864-0912,,,Blue Rhino,Q65681213
174806,bluerhino,Northgate Market #24,,Norwalk,CA,,US,+1 562-863-8203,,,Blue Rhino,Q65681213
209830,bluerhino,Jacksons #215,,Norwalk,CA,,US,+1 562-402-4333,,,Blue Rhino,Q65681213
215187,bluerhino,7-Eleven Stores #43119,,Norwalk,CA,,US,+1 562-864-6846,,,Blue Rhino,Q65681213
197967,bluerhino,R & G's Food Basket - UNFI #77706,,Norwalk,CA,,US,+1 562-864-4527,,,Blue Rhino,Q65681213
143391,bluerhino,G & M #81,,Norwalk,CA,,US,+1 562-677-6112,,,Blue Rhino,Q65681213
39289,bluerhino,Lowe's #56,,Norwalk,CA,,US,+1 562-926-0826,,,Blue Rhino,Q65681213
96733_01,bmw_group,McKenna BMW,,Norwalk,CA,,US,+1 562-868-3233,https://www.mckennabmw.com,,BMW,Q26678
2040739,chase_us,Norwalk - New branch,,Norwalk,CA,,US,+1 562-868-3796,https://locator.chase.com/ca/norwalk/11618-e-rosecrans-ave,Mo-Fr 09:00-17:00; Sa 09:00-14:00,Chase,Q524629
ca_norwalk_12539-imperial-hwy,chipotle, ,,Norwalk,CA,,US,+1 562-210-4915,https://locations.chipotle.com/ca/norwalk/12539-imperial-hwy,,Chipotle,Q465751
https://locations.chuckecheese.com/us/ca/norwalk/10949-firestone,chuckecheese,Chuck E. Cheese,,Norwalk,CA,,US,+1 562-868-4184,https://locations.chuckecheese.com/us/ca/norwalk/10949-firestone,Mo-Th 11:00-21:00; Fr 11:00-22:00; Sa 10:00-22:00; Su 11:00-21:00,Chuck E. Cheese,Q2438391
15816-pioneer-boulevard,churchs_chicken,Pioneer Boulevard,,Norwalk,CA,,US,+1 562-929-4015,https://locations.churchs.com/ca/norwalk/15816-pioneer-boulevard,,Church's Chicken,Q1089932
10089164,cricket_wireless,Cricket Wireless Authorized Retailer,,Norwalk,CA,,US,+1 562-863-9049,https://www.cricketwireless.com/stores/ll/US/CA/Norwalk/11617-Rosecrans-Ave,Mo-Sa 10:00-20:00; Su 11:00-18:00,Cricket Wireless,Q5184987
331,crunch_fitness,Crunch Fitness,,Norwalk,CA,,US,+1 562-741-5331,https://www.crunch.com/locations/norwalkca,,Crunch Fitness,Q5190093
16761,cvs_us,CVS Pharmacy,,Norwalk,CA,,US,+1 562-484-9849,https://www.cvs.com/store-locator/norwalk-ca-pharmacies/12051-imperial-hwy-norwalk-ca-90650/storeid=16761,"Mo-Fr 10:00-13:30,14:00-19:00; Sa 09:00-13:30,14:00-17:00; Su 11:00-13:30,14:00-17:00",CVS Pharmacy,Q2078880
8865,cvs_us,CVS Pharmacy,,Norwalk,CA,,US,+1 562-864-2427,https://www.cvs.com/store-locator/norwalk-ca-pharmacies/11011-alondra-boulevard-norwalk-ca-90650/storeid=8865,Mo-Su 07:00-23:00,CVS Pharmacy,Q2078880
16680,cvs_us,CVS Pharmacy,,Norwalk,CA,,US,+1 562-406-8861,https://www.cvs.com/store-locator/norwalk-ca-pharmacies/10600-firestone-blvd-norwalk-ca-90650/storeid=16680,"Mo-Fr 10:00-13:30,14:00-19:00; Sa 09:00-13:30,14:00-17:00",CVS Pharmacy,Q2078880
8841,cvs_us,CVS Pharmacy y más,,Norwalk,CA,,US,+1 562-868-8216,https://www.cvs.com/store-locator/norwalk-ca-pharmacies/11623-rosecrans-ave-norwalk-ca-90650/storeid=8841,Mo-Su 07:00-00:00,CVS Pharmacy,Q2078880
102,daniels_jewelers_us,NORWALK TOWN SQUARE,,Norwalk,CA,,US,+1 562-863-3402,,Mo-Sa 11:00-19:00; Su 12:00-18:00,Daniel's Jewelers,Q120763875
201300,dennys,Denny's,,Norwalk,CA,,US,+1 562-868-3422,https://locations.dennys.com/CA/NORWALK/201300,24/7,Denny's,Q1189695
7817,dominos_pizza_us,Domino's Pizza,,Norwalk,CA,,US,+1 562-864-9951,https://pizza.dominos.com/california/norwalk/10948-imperial-hwy,Mo-Th 10:00-24:00; Fr-Sa 10:00-01:00; Su 10:00-24:00,Domino's,Q839466
3294,elpolloloco,El Pollo Loco,,Norwalk,CA,,US,+1 562-864-4060,,,El Pollo Loco,Q2353849
E13227,enterprise,Norwalk,,Norwalk,CA,,US,+1 562-864-0006,,,Enterprise Rent-A-Car,Q17085454
501889,extra_space_storage,Norwalk Self Storage at 10950 Firestone Blvd,,Norwalk,CA,,US,+1 562-929-4221,https://www.extraspace.com/storage/facilities/us/california/norwalk/501889/,Mo-Fr 09:30-18:00; Sa 09:00-17:30,Extra Space Storage,Q5422162
6349,extra_space_storage,Norwalk Self Storage at 14879 Carmenita Rd,,Norwalk,CA,,US,+1 562-662-4025,https://www.extraspace.com/storage/facilities/us/california/norwalk/6349/,Mo-Fr 09:30-18:00; Sa 09:00-17:30,Extra Space Storage,Q5422162
2379,gamestop_us,Norwalk Town Center,,Norwalk,CA,,US,+1 562-863-5345,https://www.gamestop.com/search/?store=2379,Mo-Th 12:00-20:00; Fr-Sa 10:00-21:00; Su 12:00-19:00,GameStop,Q202210
https://stores.gnc.com/#24059597,gnc,GNC Norwalk Town Square,,,CA,,US,+1 562-462-9221,https://stores.gnc.com/all-stores-california/norwalk/13931-s-pioneer-blvd,Mo-Fr 10:00-20:00; Sa 10:00-19:00; Su 10:00-18:00,GNC,Q4808595
https://www.habitburger.com/locations/norwalk/,habit_burger,The Habit Burger Grill,,Norwalk,CA,,US,+1 562-863-3061,https://www.habitburger.com/locations/norwalk/,Mo-Th 10:30-21:30; Fr-Sa 10:30-22:00; Su 10:30-21:30,The Habit Burger Grill,Q18158741
3784,h_r_block,H&R Block,,Norwalk,CA,,US,+1 562-929-9936,https://www.hrblock.com/local-tax-offices/california/norwalk/norwalk-shopping-center/3784/,,H&R Block,Q5627799
6260,h_r_block,H&R Block,,Norwalk,CA,,US,+1 562-868-3518,https://www.hrblock.com/local-tax-offices/california/norwalk/11825-alondra-blvd/6260/,,H&R Block,Q5627799
ca_norwalk_breakfast-12623-norwalk-blvd-939,ihop,IHOP Breakfast Restaurants Near You at 12623 Norwalk Blvd,,Norwalk,CA,,US,+1 562-868-6394,https://restaurants.ihop.com/en-us/ca/norwalk/breakfast-12623-norwalk-blvd-939,,IHOP,Q1185675
14,innout,Norwalk,,Norwalk,CA,,US,,http://locations.in-n-out.com/14,,In-N-Out Burger,Q1205312
https://locations.jackinthebox.com/us/ca/norwalk/11353-firestone-blvd,jackinthebox,Jack in the Box,,Norwalk,CA,,US,+1 562-929-0132,https://locations.jackinthebox.com/us/ca/norwalk/11353-firestone-blvd,Mo-Su 04:00-04:00,Jack in the Box,Q1538507
https://locations.jackinthebox.com/us/ca/norwalk/12060-rosecrans-ave,jackinthebox,Jack in the Box,,Norwalk,CA,,US,+1 562-929-6531,https://locations.jackinthebox.com/us/ca/norwalk/12060-rosecrans-ave,Mo-Th 06:00-01:00; Fr-Sa 06:00-02:00; Su 06:00-00:00,Jack in the Box,Q1538507
https://locations.jackinthebox.com/us/ca/norwalk/12603-norwalk-blvd,jackinthebox,Jack in the Box,,Norwalk,CA,,US,+1 562-868-5677,https://locations.jackinthebox.com/us/ca/norwalk/12603-norwalk-blvd,Mo-Th 06:00-02:00; Fr 06:00-04:00; Sa 04:00-04:00; Su 04:00-02:00,Jack in the Box,Q1538507
https://office.jacksonhewitt.com/#27575888,jackson_hewitt,Jackson Hewitt,,Norwalk,CA,,US,+1 562-239-2506,https://office.jacksonhewitt.com/tax-preparation-services-locations/en/ca/norwalk/15016-south-pioneer/14040,Mo 09:00-20:00; Tu-We 11:00-19:00; Th-Fr 09:00-20:00; Sa 11:00-19:00; Su 12:00-16:00,Jackson Hewitt,Q6117132
https://locations.jamba.com/#1451-Jamba,jambajuice,Jamba Civic Center Plaza,,Norwalk,CA,,US,+1 562-868-3555,https://locations.jamba.com/ca/norwalk/12305-imperial-hwy,Mo-Fr 07:30-18:00; Sa-Su 09:00-18:00,Jamba Juice,Q3088784
https://locations.jimmyjohns.com/ca/norwalk/sandwiches-4450.html,jimmy_johns,Jimmy John's,,Norwalk,CA,,US,+1 562-991-5198,https://locations.jimmyjohns.com/ca/norwalk/sandwiches-4450.html,,Jimmy John's,Q1689380
https://healthy.kaiserpermanente.org/southern-california/facilities/villa-elena-healthcare-center-329293,kaiser_permanente_us,Villa Elena Healthcare Center,,Norwalk,CA,,US,+1 562-868-0591,https://healthy.kaiserpermanente.org/southern-california/facilities/villa-elena-healthcare-center-329293,,Kaiser Permanente,Q1721601
https://healthy.kaiserpermanente.org/southern-california/facilities/target-clinic-care-provided-by-kaiser-permanente-norwalk-339713,kaiser_permanente_us,"Target Clinic, care provided by Kaiser Permanente -  Norwalk",,Norwalk,CA,,US,+1 562-466-6015,https://healthy.kaiserpermanente.org/southern-california/facilities/target-clinic-care-provided-by-kaiser-permanente-norwalk-339713,,Kaiser Permanente,Q1721601
https://healthy.kaiserpermanente.org/southern-california/facilities/southland-care-center-328587,kaiser_permanente_us,Southland Care Center,,Norwalk,CA,,US,+1 562-868-9761,https://healthy.kaiserpermanente.org/southern-california/facilities/southland-care-center-328587,,Kaiser Permanente,Q1721601
https://healthy.kaiserpermanente.org/southern-california/facilities/norwalk-medical-offices-300294,kaiser_permanente_us,Norwalk Medical Offices,,Norwalk,CA,,US,+1 562-807-6100,https://healthy.kaiserpermanente.org/southern-california/facilities/norwalk-medical-offices-300294,,Kaiser Permanente,Q1721601
https://healthy.kaiserpermanente.org/southern-california/facilities/intercommunity-healthcare-rehabilitation-center-174641,kaiser_permanente_us,Intercommunity Healthcare & Rehabilitation Center,,Norwalk,CA,,US,+1 562-868-4767,https://healthy.kaiserpermanente.org/southern-california/facilities/intercommunity-healthcare-rehabilitation-center-174641,,Kaiser Permanente,Q1721601
https://healthy.kaiserpermanente.org/southern-california/facilities/helpline-community-supports-cs-173016,kaiser_permanente_us,Helpline - Community Supports (CS),,Norwalk,CA,,US,+1 562-864-3722,https://healthy.kaiserpermanente.org/southern-california/facilities/helpline-community-supports-cs-173016,,Kaiser Permanente,Q1721601
https://healthy.kaiserpermanente.org/southern-california/facilities/helpline-youth-enhanced-care-management-ecm-173128,kaiser_permanente_us,Helpline Youth - Enhanced Care Management (ECM),,Norwalk,CA,,US,+1 562-864-3722,https://healthy.kaiserpermanente.org/southern-california/facilities/helpline-youth-enhanced-care-management-ecm-173128,,Kaiser Permanente,Q1721601
https://healthy.kaiserpermanente.org/southern-california/facilities/firestone-blvd-dialysis-429321,kaiser_permanente_us,Firestone Blvd. Dialysis,,Norwalk,CA,,US,+1 562-863-2127,https://healthy.kaiserpermanente.org/southern-california/facilities/firestone-blvd-dialysis-429321,,Kaiser Permanente,Q1721601
https://healthy.kaiserpermanente.org/southern-california/facilities/crittenton-enhanced-care-management-ecm-172201,kaiser_permanente_us,Crittenton - Enhanced Care Management (ECM),,Norwalk,CA,,US,+1 562-929-4308,https://healthy.kaiserpermanente.org/southern-california/facilities/crittenton-enhanced-care-management-ecm-172201,,Kaiser Permanente,Q1721601
https://healthy.kaiserpermanente.org/southern-california/facilities/crittenton-community-health-worker-chw-172177,kaiser_permanente_us,Crittenton - Community Health Worker (CHW),,Norwalk,CA,,US,+1 562-929-4308,https://healthy.kaiserpermanente.org/southern-california/facilities/crittenton-community-health-worker-chw-172177,,Kaiser Permanente,Q1721601
https://locations.kfc.com/#11247929,kfc,Chicken Nuggets Near Norwalk,,Norwalk,CA,,US,,https://locations.kfc.com/ca/norwalk/12959-rosecrans-avenue/chickennugget,Mo-Su 10:30-22:00,KFC,Q524757
https://locations.kfc.com/#11246482,kfc,Chicken Nuggets Near Norwalk,,Norwalk,CA,,US,,https://locations.kfc.com/ca/norwalk/10937-alondra-blvd/chickennugget,Mo-Su 10:00-22:00,KFC,Q524757
150299,little_free_library,The Little Corner Library #150299 #150299 Norwalk CA,,Norwalk,CA,,US,,,,Little Free Library,Q6650101
107582,little_free_library,Graystone Little Free Library #107582 Norwalk CA,,Norwalk,CA,,US,,,,Little Free Library,Q6650101
169833,little_free_library,Neighborhood Little Library #169833 Norwalk CA,,Norwalk,CA,,US,,,,Little Free Library,Q6650101
117340,little_free_library,The Olive Street Library #117340 Norwalk CA,,Norwalk,CA,,US,,,,Little Free Library,Q6650101
154541,little_free_library,Cynthia’s  Lil  Library #154541 Norwalk Ca,,Norwalk,CA,,US,,,,Little Free Library,Q6650101
108876,little_free_library,Oh! The places you will go! #108876 Norwalk CA,,Norwalk,CA,,US,,,,Little Free Library,Q6650101
86461,little_free_library,Los Alisos Community Garden Club Little #86461 Norwalk CA,,Norwalk,CA,,US,,,,Little Free Library,Q6650101
285768,marathon_petroleum_us,ARCO #42357 AMPM,,Norwalk,CA,,US,+1 562-802-0456,,,Arco,Q304769
286110,marathon_petroleum_us,ARCO #42581 AMPM,,Norwalk,CA,,US,+1 562-807-2135,,,Arco,Q304769
285679,marathon_petroleum_us,ARCO #42151,,Norwalk,CA,,US,+1 562-281-0444,,,Arco,Q304769
https://locations.oreillyauto.com/ca/norwalk/check-engine-light-testing-4423.html,oreilly,Your Norwalk O'Reilly Auto Parts Store,,Norwalk,CA,,US,+1 562-465-0131,https://locations.oreillyauto.com/ca/norwalk/check-engine-light-testing-4423.html,Mo-Sa 07:00-23:00; Su 07:00-22:00,O'Reilly Auto Parts,Q7071951
https://locations.oreillyauto.com/ca/norwalk/wiper-installation-4423.html,oreilly,Your Norwalk O'Reilly Auto Parts Store,,Norwalk,CA,,US,+1 562-465-0131,https://locations.oreillyauto.com/ca/norwalk/wiper-installation-4423.html,Mo-Sa 07:00-23:00; Su 07:00-22:00,O'Reilly Auto Parts,Q7071951
https://locations.oreillyauto.com/ca/norwalk/battery-testing-4423.html,oreilly,Your Norwalk O'Reilly Auto Parts Store,,Norwalk,CA,,US,+1 562-465-0131,https://locations.oreillyauto.com/ca/norwalk/battery-testing-4423.html,Mo-Sa 07:00-23:00; Su 07:00-22:00,O'Reilly Auto Parts,Q7071951
https://locations.oreillyauto.com/ca/norwalk/autopartes-4423.html,oreilly,Tu tienda O'Reilly Auto Parts en Norwalk,,Norwalk,CA,,US,+1 562-465-0131,https://locations.oreillyauto.com/ca/norwalk/autopartes-4423.html,Mo-Sa 07:00-23:00; Su 07:00-22:00,O'Reilly Auto Parts,Q7071951
https://locations.oreillyauto.com/ca/norwalk/check-engine-light-testing-3075.html,oreilly,Your Norwalk O'Reilly Auto Parts Store,,Norwalk,CA,,US,+1 562-406-2466,https://locations.oreillyauto.com/ca/norwalk/check-engine-light-testing-3075.html,Mo-Sa 07:30-22:00; Su 07:30-21:00,O'Reilly Auto Parts,Q7071951
https://locations.oreillyauto.com/ca/norwalk/wiper-installation-3075.html,oreilly,Your Norwalk O'Reilly Auto Parts Store,,Norwalk,CA,,US,+1 562-406-2466,https://locations.oreillyauto.com/ca/norwalk/wiper-installation-3075.html,Mo-Sa 07:30-22:00; Su 07:30-21:00,O'Reilly Auto Parts,Q7071951
https://locations.oreillyauto.com/ca/norwalk/battery-testing-3075.html,oreilly,Your Norwalk O'Reilly Auto Parts Store,,Norwalk,CA,,US,+1 562-406-2466,https://locations.oreillyauto.com/ca/norwalk/battery-testing-3075.html,Mo-Sa 07:30-22:00; Su 07:30-21:00,O'Reilly Auto Parts,Q7071951
https://locations.oreillyauto.com/ca/norwalk/autopartes-3075.html,oreilly,Tu tienda O'Reilly Auto Parts en Norwalk,,Norwalk,CA,,US,+1 562-406-2466,https://locations.oreillyauto.com/ca/norwalk/autopartes-3075.html,Mo-Sa 07:30-22:00; Su 07:30-21:00,O'Reilly Auto Parts,Q7071951
https://locations.outback.com/#15502567,outbacksteakhouse,Outback Steakhouse,,Norwalk,CA,,US,+1 562-863-8908,https://locations.outback.com/california/norwalk/12850-norwalk-blvd.,Mo-Th 11:00-22:00; Fr-Sa 11:00-23:00; Su 11:00-22:00,Outback Steakhouse,Q1064893
112175,pandaexpress,Norwalk & Imperial,,Norwalk,CA,,US,+1 562-863-7600,https://www.pandaexpress.com/locations/ca/norwalk/12327-norwalk-blvd,Mo-Fr 09:30-21:30; Sa-Su 10:00-22:00,Panda Express,Q1358690
0000880152,phillips_66_conoco_76,WW SERVICE INC,,NORWALK,CA,,US,+1 562-291-3969,,,U76,Q1658320
0000878039,phillips_66_conoco_76,UNITED OIL 117,,NORWALK,CA,,US,+1 562-864-6467,,,U76,Q1658320
ca_norwalk_12125-imperial-highway,pizza_hut_us,12125 Imperial Highway,,Norwalk,CA,,US,+1 562-864-5226,https://locations.pizzahut.com/ca/norwalk/12125-imperial-highway,,Pizza Hut,Q191615
ca_norwalk_11006-rosecrans-ave,pizza_hut_us,11006 Rosecrans Ave,,Norwalk,CA,,US,+1 562-863-4466,https://locations.pizzahut.com/ca/norwalk/11006-rosecrans-ave,,Pizza Hut,Q191615
ca_norwalk_10600-firestone-blvd,pizza_hut_us,10600 Firestone Blvd.,,Norwalk,CA,,US,,https://locations.pizzahut.com/ca/norwalk/10600-firestone-blvd,,Pizza Hut,Q191615
restaurant_240156,popeyes_us_fr,Popeyes,"12623 Norwalk Blvd Norwalk, California 90650 - USA",Norwalk,CA,,US,+1 562-651-1033,https://www.popeyes.com/store-locator/store/restaurant_240156,Mo-Th 10:00-23:00; Fr-Sa 10:00-00:00; Su 10:00-23:00,Popeyes,Q1330910
875,rentacenter,Rent-A-Center,,Norwalk,CA,,US,+1 562-868-4222,https://locations.rentacenter.com/california/norwalk/11033-rosecrans-ave/,Mo-Sa 10:00-18:00,Rent-A-Center,Q7313497
05505,rite_aid_us,Rite Aid #05505 Norwalk,,Norwalk,CA,,US,+1 562-863-3688,https://locations2.riteaid.com.yext-cdn.com/ca/norwalk/12319-south-norwalk-boulevard.html,Mo-Fr 08:00-22:00; Sa-Su 09:00-22:00,Rite Aid,Q3433273
997088,rocket_us,Rocket,,Norwalk,CA,,US,+1 562-229-0448,,,Rocket,Q121513516
997066,rocket_us,Rocket,,Norwalk,CA,,US,+1 562-864-6467,,,Rocket,Q121513516
43119,seven_eleven_ca_us,7-Eleven,,Norwalk,CA,,US,+1 562-864-6846,https://www.7-eleven.com/locations/ca/norwalk/11821-rosecrans-ave-43119,,7-Eleven,Q259340
34737,seven_eleven_ca_us,7-Eleven Store,,Norwalk,CA,,US,+1 562-406-3839,https://www.7-eleven.com/locations/ca/norwalk/10965-firestone-blv-34737,,7-Eleven,Q259340
34753,seven_eleven_ca_us,7-Eleven Store,,Norwalk,CA,,US,+1 562-484-9806,https://www.7-eleven.com/locations/ca/norwalk/10656-rosecrans-34753,,7-Eleven,Q259340
39771,seven_eleven_ca_us,Bcp Store,,Norwalk,CA,,US,+1 562-921-3969,https://www.7-eleven.com/locations/ca/norwalk/12800-rosecrans-39771,,7-Eleven,Q259340
32144,smilebrands,Bright Now! Dental Norwalk,12539 Imperial Highway,Norwalk,CA,,US,+1 562-863-4775,https://www.brightnow.com/dentist-near-me/norwalk-dentist/13080/,,Smile Brands Inc.,Q108286823
32140,smilebrands,Newport Dental Norwalk,11481 Rosecrans Avenue,Norwalk,CA,,US,+1 562-863-3457,https://www.brightnow.com/dentist-near-me/norwalk-dentist/12080/,,Smile Brands Inc.,Q108286823
https://www.sprouts.com/store/ca/norwalk/alondra-blvd/,sprouts_farmer_market,Sprouts Farmers Market 451-Norwalk,,Norwalk,CA,,US,+1 562-564-5410,https://www.sprouts.com/store/ca/norwalk/alondra-blvd/,Mo-Su 07:00-22:00,Sprouts Farmer Market,Q7581369
154,stater_bros_us,Stater Bros. Markets Firestone,"11300 Firestone Blvd, Norwalk, CA 90650, USA",Norwalk,CA,,US,+1 562-929-1878,https://www.staterbros.com/stores/154,Mo-Su 06:00-23:00,Stater Bros.,Q7604016
70,stater_bros_us,Stater Bros. Markets Norwalk,"12523 Alondra Blvd, Norwalk, CA 90650, USA",Norwalk,CA,,US,+1 562-921-3908,https://www.staterbros.com/stores/70,Mo-Su 06:00-23:00,Stater Bros.,Q7604016
https://restaurants.subway.com/#14894005,subway,Subway Cerritos Community College,,Norwalk Los Angeles,CA,,US,+1 562-474-1485,https://restaurants.subway.com/united-states/ca/norwalk/11110-alondra-blvd,Mo-Th 10:00-15:00,Subway,Q244457
https://restaurants.subway.com/#14909454,subway,Subway Rosecrans Towne Centre,,Norwalk Los Angeles,CA,,US,+1 562-991-5206,https://restaurants.subway.com/united-states/ca/norwalk/13019-rosecrans-avenue,Mo-Fr 08:00-21:00; Sa-Su 09:00-20:00,Subway,Q244457
https://restaurants.subway.com/#14905830,subway,Subway Civic Center Plaza,,Norwalk Los Angeles,CA,,US,+1 562-929-1687,https://restaurants.subway.com/united-states/ca/norwalk/12301-imperial-hwy,Mo-Fr 06:00-22:00; Sa 07:00-22:00; Su 08:00-21:00,Subway,Q244457
https://restaurants.subway.com/#14901387,subway,Subway,,Norwalk Los Angeles,CA,,US,+1 562-484-9995,https://restaurants.subway.com/united-states/ca/norwalk/11005-firestone-blvd,Mo-Sa 09:00-21:30; Su 10:00-20:30,Subway,Q244457
https://restaurants.subway.com/#14905855,subway,Subway,,Norwalk Los Angeles,CA,,US,+1 562-864-2525,https://restaurants.subway.com/united-states/ca/norwalk/10995-east-rosecrans-avenue,Mo-Sa 07:00-23:00; Su 08:00-23:00,Subway,Q244457
https://locations.tacobell.com/#6146286,taco_bell,Taco Bell,,Norwalk,CA,,US,+1 562-677-8873,https://locations.tacobell.com/ca/norwalk/14301-pioneer.html,Mo-Th 09:00-00:30; Fr-Sa 09:00-01:00; Su 09:00-00:30,Taco Bell,Q752941
https://locations.tacobell.com/#6146475,taco_bell,Taco Bell,,Norwalk,CA,,US,+1 562-229-9991,https://locations.tacobell.com/ca/norwalk/13410-rosecrans-ave.html,Mo-Fr 07:00-23:30; Sa 08:00-23:00; Su 10:00-17:00,Taco Bell,Q752941
https://locations.tacobell.com/#6146663,taco_bell,Taco Bell,,Norwalk,CA,,US,+1 562-677-8872,https://locations.tacobell.com/ca/norwalk/12503-e-alondra-blvd.html,Mo-Su 07:00-02:00,Taco Bell,Q752941
https://locations.tacobell.com/#6147083,taco_bell,Taco Bell,,Norwalk,CA,,US,+1 562-863-8829,https://locations.tacobell.com/ca/norwalk/11005-imperial-highway.html,Mo-Th 07:00-01:00; Fr-Sa 07:00-03:00; Su 07:00-01:00,Taco Bell,Q752941
081240,tjx,Norwalk,11758 Firestone Blvd,Norwalk,CA,,US,+1 562-864-5707,,Mo-Sa 09:30-21:30; Su 10:00-20:00,TJ Maxx,Q10860683
4SHD,tmobile_us,Rosecrans Ave & Pioneer Blvd,,Norwalk,CA,,US,+1 562-667-3036,https://www.t-mobile.com/store-locator/ca/norwalk/rosecrans-ave-pioneer-blvd,,T-Mobile,Q3511885
2C05,tmobile_us,Costco Norwalk CA,,Norwalk,CA,,US,+1 562-844-7448,https://www.t-mobile.com/store-locator/ca/norwalk/costco-norwalk-ca,,T-Mobile,Q3511885
9277,tmobile_us,Imperial Hwy & Norwalk Blvd,,Norwalk,CA,,US,+1 562-864-4291,https://www.t-mobile.com/store-locator/ca/norwalk/imperial-hwy-norwalk-blvd,,T-Mobile,Q3511885
1375607,usps,NORWALK,,NORWALK,CA,,US,+1 562-868-9408,,Mo-Fr 08:00-17:00; Sa 08:30-15:00,United States Postal Service,Q668687
1376570,usps,PADDISON SQUARE,,NORWALK,CA,,US,+1 562-868-9408,,Mo-Fr 09:00-17:00,United States Postal Service,Q668687
9065000021,usps_collection_boxes,USPS COLLECTION BOX - EXPRESS,14635 CARMENITA RD,NORWALK,CA,,US,,,,United States Postal Service,Q668687
9065000104,usps_collection_boxes,USPS COLLECTION BOX - BLUE BOX,14635 CARMENITA RD,NORWALK,CA,,US,,,,United States Postal Service,Q668687
9065000086,usps_collection_boxes,USPS COLLECTION BOX - BLUE BOX,15330 PIUMA AVE,NORWALK,CA,,US,,,,United States Postal Service,Q668687
9065000060,usps_collection_boxes,USPS COLLECTION BOX - BLUE BOX,11559 ELMHURST DR,NORWALK,CA,,US,,,,United States Postal Service,Q668687
9065000014,usps_collection_boxes,USPS COLLECTION BOX - BLUE BOX,11829 ALONDRA BLVD,NORWALK,CA,,US,,,,United States Postal Service,Q668687
9065000103,usps_collection_boxes,USPS COLLECTION BOX - BLUE BOX,11360 ROSECRANS AVE,NORWALK,CA,,US,,,,United States Postal Service,Q668687
9065000010,usps_collection_boxes,USPS COLLECTION BOX - BLUE BOX,12646 OLAND ST,NORWALK,CA,,US,,,,United States Postal Service,Q668687
9065000016,usps_collection_boxes,USPS COLLECTION BOX - BLUE BOX,12825 ALONDRA BLVD,NORWALK,CA,,US,,,,United States Postal Service,Q668687
9065000113,usps_collection_boxes,USPS COLLECTION BOX - PO LOBBY,14011 CLARKDALE AVE LOBBY,NORWALK,CA,,US,,,,United States Postal Service,Q668687
9065000130,usps_collection_boxes,USPS COLLECTION BOX - PO LOBBY,14011 CLARKDALE AVE  LOBBY,NORWALK,CA,,US,,,,United States Postal Service,Q668687
9065000004,usps_collection_boxes,USPS COLLECTION BOX - BLUE BOX,14011 CLARKDALE AVE  LOBBY,NORWALK,CA,,US,,,,United States Postal Service,Q668687
9065000033,usps_collection_boxes,USPS COLLECTION BOX - BLUE BOX,12845 REXTON ST,NORWALK,CA,,US,,,,United States Postal Service,Q668687
9065000102,usps_collection_boxes,USPS COLLECTION BOX - BLUE BOX,11018 ROSECRANS AVE,NORWALK,CA,,US,,,,United States Postal Service,Q668687
9065000044,usps_collection_boxes,USPS COLLECTION BOX - BLUE BOX,12727 NORWALK BLVD,NORWALK,CA,,US,,,,United States Postal Service,Q668687
9065000002,usps_collection_boxes,USPS COLLECTION BOX - BLUE BOX,12700 NORWALK BLVD,NORWALK,CA,,US,,,,United States Postal Service,Q668687
9065000083,usps_collection_boxes,USPS COLLECTION BOX - BLUE BOX,12700 NORWALK BLVD,NORWALK,CA,,US,,,,United States Postal Service,Q668687
9065000109,usps_collection_boxes,USPS COLLECTION BOX - EXPRESS,12400 IMPERIAL HWY,NORWALK,CA,,US,,,,United States Postal Service,Q668687
9065000031,usps_collection_boxes,USPS COLLECTION BOX - BLUE BOX,12400 IMPERIAL HWY,NORWALK,CA,,US,,,,United States Postal Service,Q668687
9065000043,usps_collection_boxes,USPS COLLECTION BOX - EXPRESS,12415 NORWALK BLVD,NORWALK,CA,,US,,,,United States Postal Service,Q668687
9065000115,usps_collection_boxes,USPS COLLECTION BOX - PO LOBBY,12415 NORWALK BLVD LOBBY,NORWALK,CA,,US,,,,United States Postal Service,Q668687
9065000129,usps_collection_boxes,USPS COLLECTION BOX - PO LOBBY,12415 NORWALK BLVD  LOBBY,NORWALK,CA,,US,,,,United States Postal Service,Q668687
9065000065,usps_collection_boxes,USPS COLLECTION BOX - BLUE BOX,11300 FIRESTONE BLVD,NORWALK,CA,,US,,,,United States Postal Service,Q668687
9065000096,usps_collection_boxes,USPS COLLECTION BOX - BLUE BOX,10929 FIRESTONE BLVD,NORWALK,CA,,US,,,,United States Postal Service,Q668687
9065000084,usps_collection_boxes,USPS COLLECTION BOX - BLUE BOX,11202 CECILIA ST,NORWALK,CA,,US,,,,United States Postal Service,Q668687
USA7,vans,Vans Store - NORWALK,,Norwalk,CA,,US,+1 562-863-6262,https://www.vans.com/en-us/stores/ca/norwalk/usa7,Mo-Su 10:00-19:00,Vans,Q1135366
A00000199503,verizon_us,Victra Norwalk CA,,NORWALK,CA,,US,+1 562-863-7471,https://www.verizon.com/stores/details/california/norwalk/victra-norwalk-1628922/,Mo-Sa 10:00-20:00; Su 11:00-18:00,Verizon,Q919641
,visa,,,NORWALK,CA,,US,,,,,
,visa,,,NORWALK,CA,,US,,,,,
,visa,,,NORWALK,CA,,US,,,,,
,visa,,,NORWALK,CA,,US,,,,,
,visa,,,NORWALK,CA,,US,,,,,
,visa,,,NORWALK,CA,,US,,,,,
,visa,,,NORWALK,CA,,US,,,,,
,visa,,,NORWALK,CA,,US,,,,,
,visa,,,NORWALK,CA,,US,,,,,
,visa,,,NORWALK,CA,,US,,,,,
,visa,,,NORWALK,CA,,US,,,,,
,visa,,,NORWALK,CA,,US,,,,,
,visa,,,NORWALK,CA,,US,,,,,
,visa,,,NORWALK,CA,,US,,,,,
,visa,,,NORWALK,CA,,US,,,,,
,visa,,,NORWALK,CA,,US,,,,,
,visa,,,NORWALK,CA,,US,,,,,
,visa,,,NORWALK,CA,,US,,,,,
,visa,,,NORWALK,CA,,US,,,,,
,visa,,,NORWALK,CA,,US,,,,,
,visa,,,NORWALK,CA,,US,,,,,
,visa,,,NORWALK,CA,,US,,,,,
,visa,,,NORWALK,CA,,US,,,,,
,visa,,,NORWALK,CA,,US,,,,,
,visa,,,NORWALK,CA,,US,,,,,
,visa,,,NORWALK,CA,,US,,,,,
,visa,,,NORWALK,CA,,US,,,,,
,visa,,,NORWALK,CA,,US,,,,,
,visa,,,NORWALK,CA,,US,,,,,
,visa,,,NORWALK,CA,,US,,,,,
,visa,,,NORWALK,CA,,US,,,,,
,visa,,,NORWALK,CA,,US,,,,,
,visa,,,NORWALK,CA,,US,,,,,
,visa,,,NORWALK,CA,,US,,,,,
,visa,,,NORWALK,CA,,US,,,,,
,visa,,,NORWALK,CA,,US,,,,,
,visa,,,NORWALK,CA,,US,,,,,
,visa,,,NORWALK,CA,,US,,,,,
,visa,,,NORWALK,CA,,US,,,,,
,visa,,,NORWALK,CA,,US,,,,,
,visa,,,NORWALK,CA,,US,,,,,
,visa,,,NORWALK,CA,,US,,,,,
,visa,,,NORWALK,CA,,US,,,,,
,visa,,,NORWALK,CA,,US,,,,,
,visa,,,NORWALK,CA,,US,,,,,
,visa,,,NORWALK,CA,,US,,,,,
,visa,,,NORWALK,CA,,US,,,,,
,visa,,,NORWALK,CA,,US,,,,,
,visa,,,NORWALK,CA,,US,,,,,
,visa,,,NORWALK,CA,,US,,,,,
,visa,,,NORWALK,CA,,US,,,,,
,visa,,,NORWALK,CA,,US,,,,,
,visa,,,NORWALK,CA,,US,,,,,
,visa,,,NORWALK,CA,,US,,,,,
,visa,,,NORWALK,CA,,US,,,,,
,visa,,,NORWALK,CA,,US,,,,,
,visa,,,NORWALK,CA,,US,,,,,
,visa,,,NORWALK,CA,,US,,,,,
,visa,,,NORWALK,CA,,US,,,,,
,visa,,,NORWALK,CA,,US,,,,,
,visa,,,NORWALK,CA,,US,,,,,
,visa,,,NORWALK,CA,,US,,,,,
,visa,,,NORWALK,CA,,US,,,,,
,visa,,,NORWALK,CA,,US,,,,,
,visa,,,NORWALK,CA,,US,,,,,
,visa,,,NORWALK,CA,,US,,,,,
,visa,,,NORWALK,CA,,US,,,,,
,visa,,,NORWALK,CA,,US,,,,,
,visa,,,NORWALK,CA,,US,,,,,
,visa,,,NORWALK,CA,,US,,,,,
,visa,,,NORWALK,CA,,US,,,,,
,visa,,,NORWALK,CA,,US,,,,,
,visa,,,NORWALK,CA,,US,,,,,
,visa,,,NORWALK,CA,,US,,,,,
,visa,,,NORWALK,CA,,US,,,,,
,visa,,,NORWALK,CA,,US,,,,,
,visa,,,NORWALK,CA,,US,,,,,
,visa,,,NORWALK,CA,,US,,,,,
,visa,,,NORWALK,CA,,US,,,,,
,visa,,,NORWALK,CA,,US,,,,,
,visa,,,NORWALK,CA,,US,,,,,
,visa,,,NORWALK,CA,,US,,,,,
,visa,,,NORWALK,CA,,US,,,,,
,visa,,,NORWALK,CA,,US,,,,,
,visa,,,NORWALK,CA,,US,,,,,
,visa,,,NORWALK,CA,,US,,,,,
,visa,,,NORWALK,CA,,US,,,,,
,visa,,,NORWALK,CA,,US,,,,,
,visa,,,NORWALK,CA,,US,,,,,
,visa,,,NORWALK,CA,,US,,,,,
,visa,,,NORWALK,CA,,US,,,,,
,visa,,,NORWALK,CA,,US,,,,,
,visa,,,NORWALK,CA,,US,,,,,
,visa,,,NORWALK,CA,,US,,,,,
,visa,,,NORWALK,CA,,US,,,,,
,visa,,,NORWALK,CA,,US,,,,,
,visa,,,NORWALK,CA,,US,,,,,
,visa,,,NORWALK,CA,,US,,,,,
,visa,,,NORWALK,CA,,US,,,,,
,visa,,,NORWALK,CA,,US,,,,,
,visa,,,NORWALK,CA,,US,,,,,
,visa,,,NORWALK,CA,,US,,,,,
,visa,,,NORWALK,CA,,US,,,,,
,visa,,,NORWALK,CA,,US,,,,,
,visa,,,NORWALK,CA,,US,,,,,
,visa,,,NORWALK,CA,,US,,,,,
,visa,,,NORWALK,CA,,US,,,,,
,visa,,,NORWALK,CA,,US,,,,,
,visa,,,NORWALK,CA,,US,,,,,
,visa,,,NORWALK,CA,,US,,,,,
,visa,,,NORWALK,CA,,US,,,,,
,visa,,,NORWALK,CA,,US,,,,,
,visa,,,NORWALK,CA,,US,,,,,
,visa,,,NORWALK,CA,,US,,,,,
,visa,,,NORWALK,CA,,US,,,,,
,visa,,,NORWALK,CA,,US,,,,,
,visa,,,NORWALK,CA,,US,,,,,
,visa,,,NORWALK,CA,,US,,,,,
,visa,,,NORWALK,CA,,US,,,,,
,visa,,,HAWTHORNE,CA,,US,,,,,
https://www.walgreens.com/locator/walgreens-11930+studebaker+rd-norwalk-ca-90650/id=11243,walgreens,Walgreens,,Norwalk,CA,,US,+1 562-864-8138,https://www.walgreens.com/locator/walgreens-11930+studebaker+rd-norwalk-ca-90650/id=11243,Mo-Su 07:00-22:00,Walgreens,Q1591889
13926__S__SAN__ANTONIO__DR_NORWALK_CA_90650,wellsfargo,,13926 S SAN ANTONIO DR,NORWALK,CA,,US,+1 800-869-3557,https://www.wellsfargo.com/locator/bank/13926__S__SAN__ANTONIO__DR_NORWALK_CA_90650/,,Wells Fargo,Q744149
12521__1--2__ALONDRA__BLVD_NORWALK_CA_90650,wellsfargo,,12521 1/2 ALONDRA BLVD,NORWALK,CA,,US,+1 800-869-3557,https://www.wellsfargo.com/locator/bank/12521__1--2__ALONDRA__BLVD_NORWALK_CA_90650/,,Wells Fargo,Q744149
11732__FIRESTONE__BLVD_NORWALK_CA_90650,wellsfargo,Wells Fargo,11732 FIRESTONE BLVD,NORWALK,CA,,US,+1 562-406-7220,https://www.wellsfargo.com/locator/bank/11732__FIRESTONE__BLVD_NORWALK_CA_90650/,Mo-Fr 09:00-17:00,Wells Fargo,Q744149
10935__FIRESTONE__BLVD_NORWALK_CA_90650,wellsfargo,,10935 FIRESTONE BLVD,NORWALK,CA,,US,+1 800-869-3557,https://www.wellsfargo.com/locator/bank/10935__FIRESTONE__BLVD_NORWALK_CA_90650/,,Wells Fargo,Q744149
https://locations.wendys.com/#9254554,wendys,"Wendy's Norwalk in Norwalk, CA",,Norwalk,CA,,US,+1 562-868-8633,https://locations.wendys.com/united-states/ca/norwalk/12138-east-imperial-highway,"Mo-Su 06:30-10:30,07:00-22:00",Wendy's,Q550258
9e7f6c555d6caf21d0a7abc0c19c1905,western_union,IMPERIAL MAIL BOX,,Norwalk,CA,,US,+1 562-651-1620,https://location.westernunion.com/us/ca/norwalk/9e7f6c555d6caf21d0a7abc0c19c1905,Mo-Fr 09:00-17:00; Sa 10:00-14:00,Western Union,Q861042
87c8552c87e99e061f1e0d276f15144f,western_union,7-ELEVEN #39273,,Norwalk,CA,,US,+1 562-864-1711,https://location.westernunion.com/us/ca/norwalk/87c8552c87e99e061f1e0d276f15144f,,Western Union,Q861042
a5b70ecf38de1942ce357a39af5b24d7,western_union,FAM AUTO REGISTRATION,,Norwalk,CA,,US,+1 562-556-0843,https://location.westernunion.com/us/ca/norwalk/a5b70ecf38de1942ce357a39af5b24d7,Mo-Fr 10:00-19:00; Sa-Su 10:00-16:00,Western Union,Q861042
9f8581d2e2e562f597a23ed9ebd53dab,western_union,7-ELEVEN/SUNOCO #43119,,Norwalk,CA,,US,+1 562-864-6846,https://location.westernunion.com/us/ca/norwalk/9f8581d2e2e562f597a23ed9ebd53dab,,Western Union,Q861042
3d7cb084210d9119c84c3e046a3f001b,western_union,PLS STORE CC455,,Norwalk,CA,,US,+1 562-320-8525,https://location.westernunion.com/us/ca/norwalk/3d7cb084210d9119c84c3e046a3f001b,,Western Union,Q861042
4f7fe93c1d156711e451d65b64fbf5e2,western_union,7-ELEVEN #33325,,Norwalk,CA,,US,+1 562-865-4443,https://location.westernunion.com/us/ca/norwalk/4f7fe93c1d156711e451d65b64fbf5e2,,Western Union,Q861042
dd8b3bb3c0f2ba036163d281f1f781dc,western_union,CASH IN FLASH,,Norwalk,CA,,US,+1 562-863-3800,https://location.westernunion.com/us/ca/norwalk/dd8b3bb3c0f2ba036163d281f1f781dc,Mo-Fr 10:30-18:30,Western Union,Q861042
16878,wingstop,Wingstop Norwalk Rosecrans Ave,11739 Rosecrans Ave,Norwalk,CA,,US,+1 562-868-2088,,,Wingstop,Q8025339
