Ref,Spider,Name,Address,City,State,Zipcode,Country,Phone,Website,Hours,Brand,WikiData
https://stores.advanceautoparts.com/mi/sturgis/600-w-chicago-rd,advance_auto_parts_us,Advance Auto Parts,,Sturgis,MI,,US,+1 269-659-1959,https://stores.advanceautoparts.com/mi/sturgis/600-w-chicago-rd,Mo-Sa 07:30-21:00; Su 09:00-20:00,Advance Auto Parts,Q4686051
https://stores.aldi.us/#81220510,aldi_sud_us,ALDI  811 S. Centerville Rd.,,Sturgis,MI,,US,+1 855-955-2534,https://stores.aldi.us/mi/sturgis/811-s-centerville-rd,Mo-Su 09:00-20:00,ALDI,Q41171672
https://restaurants.applebees.com/en-us/mi/sturgis/1310-s-centerville-rd-83096,applebees,Connect with this Applebee's,,Sturgis,MI,,US,+1 269-651-9880,https://restaurants.applebees.com/en-us/mi/sturgis/1310-s-centerville-rd-83096,Mo-Sa 11:00-24:00; Su 11:00-23:00,Applebees,Q621532
85800,asics_us,Dunham's Sports,69060 M-66,Sturgis,MI,,US,+1 269-651-2731,,,asics,Q327247
2166,autozone_us,AutoZone Auto Parts Sturgis,,Sturgis,MI,,US,+1 269-659-1174,https://www.autozone.com/locations/mi/sturgis/485-chicago-rd.html,Mo-Sa 07:30-21:00; Su 08:00-20:00,AutoZone,Q4826087
766,biggby_coffee_us,Biggby Coffee,1031 N Nottowa Sturgis MI 49091,Sturgis,MI,,US,+1 269-221-6361,,Mo-Fr 05:00-19:00; Sa 06:00-19:00; Su 07:00-19:00,Biggby Coffee,Q4906876
484,biggby_coffee_us,Biggby Coffee,27046 E Fawn River Rd Sturgis MI 49091,Sturgis,MI,,US,+1 269-503-7392,,Mo-Fr 05:00-19:00; Sa 06:00-19:00; Su 07:00-19:00,Biggby Coffee,Q4906876
199070,bluerhino,Nottawa Lumber - DIB #3645,,Sturgis,MI,,US,+1 269-467-4800,,,Blue Rhino,Q65681213
211078,bluerhino,Dollar General #22837,,Sturgis,MI,,US,+1 269-257-9072,,,Blue Rhino,Q65681213
73237,bluerhino,Speedway #7143,,Sturgis,MI,,US,+1 269-651-2226,,,Blue Rhino,Q65681213
151712,bluerhino,Walgreens #9146,,Sturgis,MI,,US,+1 269-651-9519,,,Blue Rhino,Q65681213
8309,bluerhino,Walmart #1771 - Supercenter,,Sturgis,MI,,US,+1 616-651-8580,,,Blue Rhino,Q65681213
221146,bluerhino,Dollar General #8169,,STURGIS,MI,,US,+1 269-503-8163,,,Blue Rhino,Q65681213
WA009146,bmo,Walgreens,,Sturgis,MI,,US,,,,BMO,Q4835981
SPF31012,bmo,Speedway,,Sturgis,MI,,US,,,,BMO,Q4835981
45336110351594909100100000000000,bp,BP,,STURGIS,MI,,US,+1 269-651-7627,,Mo-Sa 05:00-23:00; Su 06:00-23:00,BP,Q152057
3790,buffalo_wild_wings_us,"Sturgis, MI",,Sturgis,MI,,US,+1 269-503-7500,https://www.buffalowildwings.com/locations/us/mi/sturgis/721-south-centerville-road/sports-bar-1386,Mo-Th 11:00-23:00; Fr-Sa 11:00-24:00; Su 11:00-22:00,Buffalo Wild Wings,Q509255
44584,chevrolet,JIM STYKEMAIN CHEVROLET GMC,,STURGIS,MI,,US,+1 269-651-9304,https://www.stykemainsturgis.com,Mo 09:00-19:00; Tu-We 09:00-18:00; Th 09:00-19:00; Fr 09:00-17:00; Sa 09:00-15:00,Chevrolet,Q29570
79561,citi,ATM SPEEDWAY #7143,,Sturgis,MI,,US,,,,Citibank,Q857063
78721,citi,ATM Speedway,,Sturgis,MI,,US,,,,Citibank,Q857063
93562,citi,ATM Walgreens,,Sturgis,MI,,US,,,,Citibank,Q857063
70088232,cricket_wireless,Cricket Wireless Authorized Retailer,,Sturgis,MI,,US,+1 269-221-6596,https://www.cricketwireless.com/stores/ll/US/MI/Sturgis/1352~B-S-Centerville-Rd,Mo-Sa 10:00-20:00; Su 12:00-17:00,Cricket Wireless,Q5184987
527,culvers_us,"Culver's of Sturgis, MI - S Centerville Rd",,Sturgis,MI,,US,+1 269-503-8550,http://www.culvers.com/restaurants/sturgis-mi,Mo-Fr 10:00-22:00; Su 10:00-22:00,Culver's,Q1143589
22837,dollar_general,Dollar General,,Sturgis,MI,,US,+1 269-257-9072,https://www.dollargeneral.com/store-directory/mi/sturgis/22837,Mo-Su 08:00-22:00,Dollar General,Q145168
240,dunhams_sports_us,STURGIS MI,,STURGIS,MI,,US,+1 269-651-2731,https://www.dunhamssports.com/store-details?storeID=240,Mo-Sa 09:00-21:00; Su 10:00-19:00,Dunham's Sports,Q5315238
https://www.edwardjones.com/us-en/financial-advisor/david-lehman,edwardjones,David M Lehman,,Sturgis,MI,,US,+1 269-651-7861,https://www.edwardjones.com/us-en/financial-advisor/david-lehman,Mo-Th 09:00-16:30; Fr 09:00-16:00,Edward Jones,Q5343830
E120X0,enterprise,Sturgis,,Sturgis,MI,,US,+1 269-651-4899,,,Enterprise Rent-A-Car,Q17085454
Motorcraft3825USAEnglish,ford,Auto Park Ford,,Michigan,MI,,US,+1 269-651-7728,,,Ford,Q44294
Motorcraft3826USAEnglish,ford,"Morgan Olson, LLC",,Michigan,MI,,US,,,,Ford,Q44294
https://www.ford.com/dealerships/dealer-details/mi/sturgis/auto-park-ford/,ford_dealers_us,Auto Park Ford,,Sturgis,MI,,US,+1 269-257-2789,https://www.ford.com/dealerships/dealer-details/mi/sturgis/auto-park-ford/,Mo 09:00-19:00; Tu-We 09:00-18:00; Th 09:00-19:00; Fr 09:00-18:00; Sa 09:00-15:00,Ford Motor Company,Q44294
4297,fresenius_kidney_care_us,Fresenius Kidney Care Sturgis,,Sturgis,MI,,US,+1 800-881-5101,https://www.freseniuskidneycare.com/dialysis-centers/michigan/4297,Mo 06:00-19:00; We 06:00-19:00; Fr 06:00-19:00,,
6683,gamestop_us,Centerville Rd Sturgis,,Sturgis,MI,,US,+1 269-651-9467,https://www.gamestop.com/search/?store=6683,Mo-Th 12:00-19:00; Fr-Sa 11:00-20:00; Su 12:00-19:00,GameStop,Q202210
32f5a1b7-458a-e111-8dde-005056934050,goodwill,Sturgis Store,,Sturgis,MI,,US,+1 269-659-6339,https://www.goodwill.org/locator/location/?store=MzJmNWExYjctNDU4YS1lMTExLThkZGUtMDA1MDU2OTM0MDUw&lat=NDEuNzkwNA==&lng=LTg1LjQyODQ0,,Goodwill,Q5583655
https://salons.greatclips.com/us/mi/sturgis/1352-s-centerville-rd,greatclips,Great Clips,,Sturgis,MI,,US,+1 269-503-7077,https://salons.greatclips.com/us/mi/sturgis/1352-s-centerville-rd,Mo-Fr 10:00-19:00; Sa 09:00-18:00; Su 00:00-24:00,Great Clips,Q5598967
irsmihx-hampton-sturgis-lagrange-area,hilton,Hampton Inn Sturgis-Lagrange Area,,,MI,,US,+1 269-651-4210,https://www.hilton.com/ar/hotels/irsmihx-hampton-sturgis-lagrange-area/,,Hampton by Hilton,Q5646230
18872,h_r_block,H&R Block,,Sturgis,MI,,US,+1 269-651-2319,https://www.hrblock.com/local-tax-offices/michigan/sturgis/26682-w-us-12/18872/,,H&R Block,Q5627799
https://office.jacksonhewitt.com/#27578064,jackson_hewitt,Jackson Hewitt,,Sturgis,MI,,US,+1 269-659-2727,https://office.jacksonhewitt.com/tax-preparation-services-locations/en/mi/sturgis/973-s-centerville-rd/12388,Mo-Sa 11:00-19:00; Su 12:00-16:00,Jackson Hewitt,Q6117132
https://office.jacksonhewitt.com/#1019682245,jackson_hewitt,Jackson Hewitt,,Sturgis,MI,,US,+1 269-224-0871,https://office.jacksonhewitt.com/tax-preparation-services-locations/en/mi/sturgis/1500-s-centerville-rd/51771,Mo-Sa 11:00-18:00; Su 12:00-16:00,Jackson Hewitt,Q6117132
https://locations.jimmyjohns.com/mi/sturgis/sandwiches-4402.html,jimmy_johns,Jimmy John's,,Sturgis,MI,,US,+1 269-238-9771,https://locations.jimmyjohns.com/mi/sturgis/sandwiches-4402.html,,Jimmy John's,Q1689380
https://locations.kfc.com/#12434777,kfc,Chicken Nuggets Near Sturgis,,Sturgis,MI,,US,,https://locations.kfc.com/mi/sturgis/406-s-centerville-ave/chickennugget,Mo-Su 10:30-22:00,KFC,Q524757
156033,marathon_petroleum_us,SM Gas,,STURGIS,MI,,US,+1 269-651-3846,,,Marathon,Q458363
157579,marathon_petroleum_us,LIGHTNING QUICK GAS N GO 12,,STURGIS,MI,,US,+1 269-503-8606,,,Marathon,Q458363
157332,marathon_petroleum_us,LIGHTNING QUICK GAS N GO 11,,STURGIS,MI,,US,+1 269-503-8131,,,Marathon,Q458363
https://locations.maurices.com/#11688312,maurices,maurices Wal-Mart Plaza,,Sturgis,MI,,US,+1 269-659-4811,https://locations.maurices.com/us/mi/sturgis/69821-s-centerville-rd,Mo-Fr 10:00-20:00; Sa 10:00-19:00; Su 11:00-17:00,maurices,Q6793571
6809,murphy_usa_us,,,Sturgis,MI,,US,+1 269-651-9323,,Mo-Sa 06:00-22:30; Su 06:00-21:30,Murphy USA,Q19604459
500-s-centerville-rd,my_eye_dr,,,Sturgis,MI,,US,+1 269-651-1958,https://locations.myeyedr.com/mi/sturgis/500-s-centerville-rd,,MyEyeDr.,Q117864710
https://locations.oreillyauto.com/mi/sturgis/check-engine-light-testing-4983.html,oreilly,Your Sturgis O'Reilly Auto Parts Store,,Sturgis,MI,,US,+1 269-319-3083,https://locations.oreillyauto.com/mi/sturgis/check-engine-light-testing-4983.html,Mo-Sa 07:30-21:00; Su 08:00-20:00,O'Reilly Auto Parts,Q7071951
https://locations.oreillyauto.com/mi/sturgis/wiper-installation-4983.html,oreilly,Your Sturgis O'Reilly Auto Parts Store,,Sturgis,MI,,US,+1 269-319-3083,https://locations.oreillyauto.com/mi/sturgis/wiper-installation-4983.html,Mo-Sa 07:30-21:00; Su 08:00-20:00,O'Reilly Auto Parts,Q7071951
https://locations.oreillyauto.com/mi/sturgis/battery-testing-4983.html,oreilly,Your Sturgis O'Reilly Auto Parts Store,,Sturgis,MI,,US,+1 269-319-3083,https://locations.oreillyauto.com/mi/sturgis/battery-testing-4983.html,Mo-Sa 07:30-21:00; Su 08:00-20:00,O'Reilly Auto Parts,Q7071951
https://locations.oreillyauto.com/mi/sturgis/autopartes-4983.html,oreilly,Tu tienda O'Reilly Auto Parts en Sturgis,,Sturgis,MI,,US,+1 269-319-3083,https://locations.oreillyauto.com/mi/sturgis/autopartes-4983.html,Mo-Sa 07:30-21:00; Su 08:00-20:00,O'Reilly Auto Parts,Q7071951
581157,penske,Affordable Equipment Ren,,STURGIS,MI,,US,+1 269-659-6049,https://www.pensketruckrental.com/locations/us/michigan/sturgis/581157/,,Penske,Q81234570
mi_sturgis_519-s-centerville-rd,pizza_hut_us,519 S Centerville Rd,,Sturgis,MI,,US,+1 269-651-1444,https://locations.pizzahut.com/mi/sturgis/519-s-centerville-rd,,Pizza Hut,Q191615
592,rentacenter,Rent-A-Center,,Sturgis,MI,,US,+1 269-651-2325,https://locations.rentacenter.com/michigan/sturgis/1388-s-centerville-rd/,Mo-Sa 10:00-18:00,Rent-A-Center,Q7313497
https://restaurants.subway.com/#14893992,subway,Subway Wal-Mart #1771,,Sturgis St Joseph,MI,,US,+1 269-659-1000,https://restaurants.subway.com/united-states/mi/sturgis/1500-s-centerville-rd,Mo-Su 08:00-21:00,Subway,Q244457
https://restaurants.subway.com/#14913322,subway,Subway,,Sturgis Saint Joseph,MI,,US,+1 269-651-9105,https://restaurants.subway.com/united-states/mi/sturgis/128-s-centerville-rd,Mo-Su 09:00-22:00,Subway,Q244457
0390961100,sunoco_us,Sunoco,,STURGIS,MI,,US,+1 269-651-4857,,Mo-Sa 04:00-23:00; Su 07:00-23:00,Sunoco,Q1423218
https://locations.tacobell.com/#6142847,taco_bell,Taco Bell,,Sturgis,MI,,US,+1 269-651-1988,https://locations.tacobell.com/mi/sturgis/601-s-centerville-rd.html,,Taco Bell,Q752941
3HSG,tmobile_us,S Centerville Rd & M 66,,Sturgis,MI,,US,+1 269-651-1620,https://www.t-mobile.com/store-locator/mi/sturgis/s-centerville-rd-m-66,,T-Mobile,Q3511885
1383805,usps,STURGIS,,STURGIS,MI,,US,+1 269-659-1780,,Mo-Fr 08:30-16:30; Sa 09:00-12:00,United States Postal Service,Q668687
4909100001,usps_collection_boxes,USPS COLLECTION BOX - BLUE BOX,27010 FAWN RIVER RD,STURGIS,MI,,US,,,,United States Postal Service,Q668687
4909100034,usps_collection_boxes,USPS COLLECTION BOX - BLUE BOX,1500 S CENTERVILLE RD,STURGIS,MI,,US,,,,United States Postal Service,Q668687
4909100022,usps_collection_boxes,USPS COLLECTION BOX - BLUE BOX,916 MYRTLE ST,STURGIS,MI,,US,,,,United States Postal Service,Q668687
4909100008,usps_collection_boxes,USPS COLLECTION BOX - BLUE BOX,815 S CENTERVILLE RD,STURGIS,MI,,US,,,,United States Postal Service,Q668687
4909100018,usps_collection_boxes,USPS COLLECTION BOX - BLUE BOX,1517 E CHICAGO RD,STURGIS,MI,,US,,,,United States Postal Service,Q668687
4909100037,usps_collection_boxes,USPS COLLECTION BOX - PO LOBBY,124 E CHICAGO RD,STURGIS,MI,,US,,,,United States Postal Service,Q668687
4909100035,usps_collection_boxes,USPS COLLECTION BOX - BLUE BOX,124 E CHICAGO RD,STURGIS,MI,,US,,,,United States Postal Service,Q668687
4909100036,usps_collection_boxes,USPS COLLECTION BOX - BLUE BOX,124 E CHICAGO RD,STURGIS,MI,,US,,,,United States Postal Service,Q668687
4909100033,usps_collection_boxes,USPS COLLECTION BOX - PO LOBBY,124 E CHICAGO RD,STURGIS,MI,,US,,,,United States Postal Service,Q668687
4909100003,usps_collection_boxes,USPS COLLECTION BOX - BLUE BOX,67699 N M 66,STURGIS,MI,,US,,,,United States Postal Service,Q668687
,visa,,,STURGIS,MI,,US,,,,,
,visa,,,STURGIS,MI,,US,,,,,
,visa,,,STURGIS,MI,,US,,,,,
,visa,,,STURGIS,MI,,US,,,,,
,visa,,,STURGIS,MI,,US,,,,,
,visa,,,STURGIS,MI,,US,,,,,
,visa,,,STURGIS,MI,,US,,,,,
,visa,,,STURGIS,MI,,US,,,,,
,visa,,,STURGIS,MI,,US,,,,,
,visa,,,STURGIS,MI,,US,,,,,
,visa,,,STURGIS,MI,,US,,,,,
,visa,,,STURGIS,MI,,US,,,,,
,visa,,,STURGIS,MI,,US,,,,,
,visa,,,STURGIS,MI,,US,,,,,
,visa,,,STURGIS,MI,,US,,,,,
,visa,,,STURGIS,MI,,US,,,,,
,visa,,,STURGIS,MI,,US,,,,,
,visa,,,STURGIS,MI,,US,,,,,
,visa,,,STURGIS,MI,,US,,,,,
,visa,,,STURGIS,MI,,US,,,,,
,visa,,,STURGIS,MI,,US,,,,,
,visa,,,STURGIS,MI,,US,,,,,
,visa,,,STURGIS,MI,,US,,,,,
,visa,,,STURGIS,MI,,US,,,,,
,visa,,,STURGIS,MI,,US,,,,,
,visa,,,STURGIS,MI,,US,,,,,
,visa,,,STURGIS,MI,,US,,,,,
,visa,,,STURGIS,MI,,US,,,,,
,visa,,,STURGIS,MI,,US,,,,,
,visa,,,STURGIS,MI,,US,,,,,
,visa,,,STURGIS,MI,,US,,,,,
,visa,,,STURGIS,MI,,US,,,,,
,visa,,,STURGIS,MI,,US,,,,,
,visa,,,STURGIS,MI,,US,,,,,
,visa,,,STURGIS,MI,,US,,,,,
,visa,,,STURGIS,MI,,US,,,,,
,visa,,,STURGIS,MI,,US,,,,,
,visa,,,STURGIS,MI,,US,,,,,
,visa,,,STURGIS,MI,,US,,,,,
https://www.walgreens.com/locator/walgreens-950+s+centerville+rd-sturgis-mi-49091/id=9146,walgreens,Walgreens,,Sturgis,MI,,US,+1 269-651-9519,https://www.walgreens.com/locator/walgreens-950+s+centerville+rd-sturgis-mi-49091/id=9146,Mo-Su 09:00-21:00,Walgreens,Q1591889
https://locations.wendys.com/#9255881,wendys,"Wendy's Sturgis in Sturgis, MI",,Sturgis,MI,,US,+1 269-651-6657,https://locations.wendys.com/united-states/mi/sturgis/601-s-centerville,"Mo-Su 06:30-10:30,07:30-22:00",Wendy's,Q550258
1a71b45bf3afea9c96e149668976cdb5,western_union,STURGIS PARTY STORE,,Sturgis,MI,,US,+1 269-651-2539,https://location.westernunion.com/us/mi/sturgis/1a71b45bf3afea9c96e149668976cdb5,Mo-Su 05:00-12:00,Western Union,Q861042
4bdf390b3875a5f15293150f2a3ad023,western_union,ADVANCE AMERICA #01356,,Sturgis,MI,,US,+1 269-659-1900,https://location.westernunion.com/us/mi/sturgis/4bdf390b3875a5f15293150f2a3ad023,Mo-Th 10:00-18:00; Fr 09:00-18:00; Sa 10:00-14:00,Western Union,Q861042
55eaa8e408b0477a01603ba041838fdd,western_union,WALMART #001771,,Sturgis,MI,,US,+1 269-651-8580,https://location.westernunion.com/us/mi/sturgis/55eaa8e408b0477a01603ba041838fdd,Mo-Sa 08:00-20:00; Su 10:00-18:00,Western Union,Q861042
