Ref,Spider,Name,Address,City,State,Zipcode,Country,Phone,Website,Hours,Brand,WikiData
8206,aaa,"Kniffen Insurance Agency, LLC",,Three Rivers,MI,,US,,,,American Automobile Association,Q463436
https://stores.advanceautoparts.com/mi/three-rivers/320-south-u-s-131,advance_auto_parts_us,Advance Auto Parts,,Three Rivers,MI,,US,+1 269-273-6321,https://stores.advanceautoparts.com/mi/three-rivers/320-south-u-s-131,Mo-Sa 07:30-21:00; Su 09:00-20:00,Advance Auto Parts,Q4686051
https://stores.aldi.us/#4421280,aldi_sud_us,ALDI  1220 W. Broadway St.,,Three Rivers,MI,,US,+1 855-955-2534,https://stores.aldi.us/mi/three-rivers/1220-w-broadway-st,"Mo-Su 08:30-20:00,09:00-20:00",ALDI,Q41171672
https://restaurants.applebees.com/en-us/mi/three-rivers/1330-w.-broadway-83099,applebees,Connect with this Applebee's,,Three Rivers,MI,,US,+1 269-273-7505,https://restaurants.applebees.com/en-us/mi/three-rivers/1330-w.-broadway-83099,Mo-Sa 11:00-24:00; Su 11:00-23:00,Applebees,Q621532
https://locations.arbys.com/mi/threerivers/700-s-us-highway-131.html,arbys_us,"Arby's Fast-Food Drive Through Near You in Three Rivers, MI",,Three Rivers,MI,,US,+1 269-273-8995,https://locations.arbys.com/mi/threerivers/700-s-us-highway-131.html,Mo-Su 10:00-24:00,Arby's,Q630866
77989,asics_us,Dunham's Sports,1320 W Broadway St,Three Rivers,MI,,US,+1 269-273-7646,,,asics,Q327247
2156,autozone_us,AutoZone Auto Parts Three Rivers,,Three Rivers,MI,,US,+1 269-279-4089,https://www.autozone.com/locations/mi/three-rivers/58718-s-us-hwy-131.html,Mo-Sa 07:30-21:00; Su 09:00-19:00,AutoZone,Q4826087
330,biggby_coffee_us,Biggby Coffee,201 N US-131 Suite K-1 Three Rivers MI 49093,Three Rivers,MI,,US,+1 269-244-4392,,Mo-Sa 06:00-20:00; Su 07:00-20:00,Biggby Coffee,Q4906876
220570,bluerhino,Dollar General #23893,,THREE RIVERS,MI,,US,+1 269-718-3685,,,Blue Rhino,Q65681213
200697,bluerhino,"Gill Mart & Gas, Inc",,Three Rivers,MI,,US,+1 269-279-7986,,,Blue Rhino,Q65681213
100947,bluerhino,Walmart #3791,,Three Rivers,MI,,US,+1 269-273-7820,,,Blue Rhino,Q65681213
201843,bluerhino,Menards - THREE RIVERS #3301,,THREE RIVERS,MI,,US,+1 269-273-0472,,,Blue Rhino,Q65681213
151465,bluerhino,Walgreens #7934,,Three Rivers,MI,,US,+1 269-244-3700,,,Blue Rhino,Q65681213
162400,bluerhino,Hoffman Grocery LLC,,Three Rivers,MI,,US,+1 269-279-2510,,,Blue Rhino,Q65681213
189558,bluerhino,Harding's #939,,Three Rivers,MI,,US,+1 269-273-2585,,,Blue Rhino,Q65681213
144064,bluerhino,S & K,,Three Rivers,MI,,US,+1 269-278-8965,,,Blue Rhino,Q65681213
204953,bluerhino,Mega Fisher Lake Market Inc.,,Three Rivers,MI,,US,+1 574-302-9107,,,Blue Rhino,Q65681213
5055,burgerking,Burger King,,Three Rivers,MI,,US,+1 269-278-6605,https://www.bk.com/store-locator/store/restaurant_2819,Mo-Sa 06:00-23:00; Su 07:00-23:00,Burger King,Q177054
44515,chevrolet,"VETTER-MCGILL CHEVROLET, INC.",,THREE RIVERS,MI,,US,+1 269-278-1485,https://www.vettermcgillchevy.com,Mo 09:00-20:00; Tu-Fr 09:00-18:00; Sa 09:00-13:00,Chevrolet,Q29570
59726,citi,ATM HORIZON BANK,,Three Rivers,MI,,US,,,,Citibank,Q857063
89931,citi,ATM Walgreens,,Three Rivers,MI,,US,,,,Citibank,Q857063
70088375,cricket_wireless,Cricket Wireless Authorized Retailer,,Three Rivers,MI,,US,+1 269-528-3141,https://www.cricketwireless.com/stores/ll/US/MI/Three-Rivers/733-S-US-Highway-131,Mo-Sa 10:00-20:00; Su 12:00-17:00,Cricket Wireless,Q5184987
765,culvers_us,"Culver's of Three Rivers, MI - S US 131",,Three Rivers,MI,,US,+1 269-858-3635,http://www.culvers.com/restaurants/three-rivers-mi-us-131,Mo-Fr 10:00-00:00; Su 10:00-00:00,Culver's,Q1143589
23893,dollar_general,Dollar General,,Three Rivers,MI,,US,+1 269-718-3685,https://www.dollargeneral.com/store-directory/mi/three-rivers/23893,Mo-Su 08:00-22:00,Dollar General,Q145168
136,dunhams_sports_us,THREE RIVERS MI,,THREE RIVERS,MI,,US,+1 269-273-7646,https://www.dunhamssports.com/store-details?storeID=136,Mo-Sa 09:00-21:00; Su 10:00-19:00,Dunham's Sports,Q5315238
https://www.edwardjones.com/us-en/financial-advisor/jared-dishinger,edwardjones,Jared Dishinger,,Three Rivers,MI,,US,+1 269-718-3053,https://www.edwardjones.com/us-en/financial-advisor/jared-dishinger,Mo-Tu 09:00-16:30; We 09:00-17:30; Th 09:00-16:30; Fr 09:00-16:00,Edward Jones,Q5343830
https://locations.53.com/#3034767,fifththirdbank,Fifth Third Bank Three Rivers,,Three Rivers,MI,,US,+1 269-273-8411,https://locations.53.com/mi/three-rivers/216-north-main-street.html,Mo-Th 09:00-17:00; Fr 09:00-17:30; Sa 09:00-12:00,Fifth Third Bank,Q1411810
4376,fresenius_kidney_care_us,Fresenius Kidney Care Three Rivers,,Three Rivers,MI,,US,+1 800-881-5101,https://www.freseniuskidneycare.com/dialysis-centers/michigan/4376,Mo 05:00-21:00; Tu 05:00-17:00; We 05:00-21:00; Th 05:00-17:00; Fr 05:00-21:00; Sa 05:00-17:00,,
2a4ea1bd-458a-e111-8dde-005056934050,goodwill,Three Rivers Store,,Three Rivers,MI,,US,+1 269-279-5375,https://www.goodwill.org/locator/location/?store=MmE0ZWExYmQtNDU4YS1lMTExLThkZGUtMDA1MDU2OTM0MDUw&lat=NDEuOTQ0NA==&lng=LTg1LjY0OTM4,,Goodwill,Q5583655
https://salons.greatclips.com/us/mi/three-rivers/701-s-us-highway-131,greatclips,Great Clips,,Three Rivers,MI,,US,+1 269-273-4999,https://salons.greatclips.com/us/mi/three-rivers/701-s-us-highway-131,Mo-Sa 09:00-17:00; Su 00:00-24:00,Great Clips,Q5598967
https://www.harborfreight.com/storelocator/205-n-us-highway-131-three-rivers-49093?number=867,harborfreight,"Harbor Freight Tools Three Rivers, MI",,Three Rivers,MI,,US,+1 269-475-3800,https://www.harborfreight.com/storelocator/205-n-us-highway-131-three-rivers-49093?number=867,Mo-Sa 08:00-20:00; Su 09:00-18:00,Harbor Freight Tools,Q5654601
21342,h_r_block,H&R Block,,Three Rivers,MI,,US,+1 269-273-2185,https://www.hrblock.com/local-tax-offices/michigan/three-rivers/57201-n-main-st/21342/,,H&R Block,Q5627799
https://office.jacksonhewitt.com/#27576597,jackson_hewitt,Jackson Hewitt,,Three Rivers,MI,,US,+1 269-215-0961,https://office.jacksonhewitt.com/tax-preparation-services-locations/en/mi/three-rivers/56964-n-main-st/15574,Mo-Sa 10:00-18:00; Su 12:00-16:00,Jackson Hewitt,Q6117132
https://locations.jimmyjohns.com/mi/threerivers/sandwiches-3994.html,jimmy_johns,Jimmy John's,,Three Rivers,MI,,US,+1 231-495-0042,https://locations.jimmyjohns.com/mi/threerivers/sandwiches-3994.html,,Jimmy John's,Q1689380
156725,marathon_petroleum_us,ADMIRAL 5724,,Three Rivers,MI,,US,+1 269-279-9810,,,Marathon,Q458363
157278,marathon_petroleum_us,LIGHTNING QUICK GASNGO 10,,THREE RIVERS,MI,,US,+1 269-244-3228,,,Marathon,Q458363
3301,menards,THREE RIVERS,"1001 WARNER DR, THREE RIVERS, MI 49093",THREE RIVERS,MI,,US,,https://www.menards.com/main/storeDetails.html?store=3301,,Menards,Q1639897
111-n-us-hwy-131,my_eye_dr,,,Three Rivers,MI,,US,+1 269-273-9515,https://locations.myeyedr.com/mi/three-rivers/111-n-us-hwy-131,,MyEyeDr.,Q117864710
https://locations.oreillyauto.com/mi/threerivers/check-engine-light-testing-5636.html,oreilly,Your Three Rivers O'Reilly Auto Parts Store,,Three Rivers,MI,,US,+1 269-244-3050,https://locations.oreillyauto.com/mi/threerivers/check-engine-light-testing-5636.html,Mo-Sa 07:30-21:00; Su 08:00-20:00,O'Reilly Auto Parts,Q7071951
https://locations.oreillyauto.com/mi/threerivers/wiper-installation-5636.html,oreilly,Your Three Rivers O'Reilly Auto Parts Store,,Three Rivers,MI,,US,+1 269-244-3050,https://locations.oreillyauto.com/mi/threerivers/wiper-installation-5636.html,Mo-Sa 07:30-21:00; Su 08:00-20:00,O'Reilly Auto Parts,Q7071951
https://locations.oreillyauto.com/mi/threerivers/battery-testing-5636.html,oreilly,Your Three Rivers O'Reilly Auto Parts Store,,Three Rivers,MI,,US,+1 269-244-3050,https://locations.oreillyauto.com/mi/threerivers/battery-testing-5636.html,Mo-Sa 07:30-21:00; Su 08:00-20:00,O'Reilly Auto Parts,Q7071951
https://locations.oreillyauto.com/mi/threerivers/autopartes-5636.html,oreilly,Tu tienda O'Reilly Auto Parts en Three Rivers,,Three Rivers,MI,,US,+1 269-244-3050,https://locations.oreillyauto.com/mi/threerivers/autopartes-5636.html,Mo-Sa 07:30-21:00; Su 08:00-20:00,O'Reilly Auto Parts,Q7071951
581154,penske,Home Depot #2785,,THREE RIVERS,MI,,US,+1 269-381-1328,https://www.pensketruckrental.com/locations/us/michigan/three_rivers/581154/,,Penske,Q81234570
mi_three-rivers_401-w-michigan-ave,pizza_hut_us,401 W Michigan Ave,,Three Rivers,MI,,US,+1 269-273-3035,https://locations.pizzahut.com/mi/three-rivers/401-w-michigan-ave,,Pizza Hut,Q191615
home-depot-2785-9696,ppgpaints,HOME DEPOT 2785,,"Three Rivers, ",MI,,US,+1 269-273-5250,https://www.ppgpaints.com/store-locator/us/michigan/three-rivers-paint-stores/home-depot-2785-9696,,PPG Paints,Q83891559
https://www.promedicaskillednursing.org/locations/promedica-skilled-nursing-and-rehabilitation-three-rivers/,promedica_us,ProMedica Skilled Nursing and Rehabilitation (Three Rivers),,Three Rivers,MI,,US,+1 269-273-8661,https://www.promedicaskillednursing.org/locations/promedica-skilled-nursing-and-rehabilitation-three-rivers/,,ProMedica,Q7246673
4348,rentacenter,Rent-A-Center,,Three Rivers,MI,,US,+1 269-279-5911,https://locations.rentacenter.com/michigan/three-rivers/918-s-us-highway-131/,Mo-Sa 10:00-18:00,Rent-A-Center,Q7313497
https://restaurants.subway.com/#14909496,subway,Subway,,Three Rivers Saint Joseph,MI,,US,+1 269-273-2290,https://restaurants.subway.com/united-states/mi/three-rivers/201-n-main-st,Mo-Fr 08:30-22:00; Sa 09:00-22:00; Su 09:30-21:00,Subway,Q244457
https://restaurants.subway.com/#14898207,subway,Subway,,Three Rivers Saint Joseph,MI,,US,+1 269-273-7581,https://restaurants.subway.com/united-states/mi/three-rivers/741-us-highway-131,Mo-Sa 08:30-22:00; Su 10:00-21:00,Subway,Q244457
https://restaurants.subway.com/#14984034,subway,Subway Wal-Mart #3791,,Hree Rivers Saint Joseph,MI,,US,+1 269-273-7939,https://restaurants.subway.com/united-states/mi/hree-rivers/101-s-tolbert-dr,Mo-Su 08:00-21:00,Subway,Q244457
0603239500,sunoco_us,Sunoco,,THREE RIVERS,MI,,US,+1 269-278-8965,,Mo-Sa 04:00-00:00; Su 06:00-00:00,Sunoco,Q1423218
https://locations.tacobell.com/#6147313,taco_bell,Taco Bell,,Three Rivers,MI,,US,+1 269-273-3194,https://locations.tacobell.com/mi/three-rivers/1017-w-michigan-ave.html,Mo-Su 07:00-02:00,Taco Bell,Q752941
101564,tjx,Three Rivers,1316 W Broadway Rd,Three Rivers,MI,,US,+1 269-273-8774,,Mo-Sa 09:30-21:30; Su 10:00-20:00,Marshalls,Q15903261
2XSH,tmobile_us,S US Hwy 131 & Super 8 Way,,Three Rivers,MI,,US,+1 269-273-2460,https://www.t-mobile.com/store-locator/mi/three-rivers/s-us-hwy-131-super-8-way,,T-Mobile,Q3511885
1438015,usps,THREE RIVERS,,THREE RIVERS,MI,,US,+1 269-278-6595,,Mo-Fr 08:30-16:30; Sa 09:30-11:30,United States Postal Service,Q668687
4909300015,usps_collection_boxes,USPS COLLECTION BOX - BLUE BOX,101 S TOLBERT DR,THREE RIVERS,MI,,US,,,,United States Postal Service,Q668687
4909300001,usps_collection_boxes,USPS COLLECTION BOX - BLUE BOX,800 S US 131,THREE RIVERS,MI,,US,,,,United States Postal Service,Q668687
4909300008,usps_collection_boxes,USPS COLLECTION BOX - BLUE BOX,209 N US HIGHWAY 131,THREE RIVERS,MI,,US,,,,United States Postal Service,Q668687
4909300007,usps_collection_boxes,USPS COLLECTION BOX - BLUE BOX,701 S HEALTH PARKWAY,THREE RIVERS,MI,,US,,,,United States Postal Service,Q668687
4909300010,usps_collection_boxes,USPS COLLECTION BOX - BLUE BOX,808 W MICHIGAN AVE,THREE RIVERS,MI,,US,,,,United States Postal Service,Q668687
4909300002,usps_collection_boxes,USPS COLLECTION BOX - BLUE BOX,100 N MAIN ST,THREE RIVERS,MI,,US,,,,United States Postal Service,Q668687
4909300003,usps_collection_boxes,USPS COLLECTION BOX - BLUE BOX,100 N MAIN ST,THREE RIVERS,MI,,US,,,,United States Postal Service,Q668687
4909300004,usps_collection_boxes,USPS COLLECTION BOX - BLUE BOX,100 N MAIN ST,THREE RIVERS,MI,,US,,,,United States Postal Service,Q668687
4909300005,usps_collection_boxes,USPS COLLECTION BOX - BLUE BOX,100 N MAIN ST,THREE RIVERS,MI,,US,,,,United States Postal Service,Q668687
4909300013,usps_collection_boxes,USPS COLLECTION BOX - PO LOBBY,100 N MAIN ST,THREE RIVERS,MI,,US,,,,United States Postal Service,Q668687
4909300016,usps_collection_boxes,USPS COLLECTION BOX - PO LOBBY,100 N MAIN ST,THREE RIVERS,MI,,US,,,,United States Postal Service,Q668687
A00000236950,verizon_us,Russell Cellular Three Rivers,,THREE RIVERS,MI,,US,+1 269-858-3649,https://www.verizon.com/stores/details/michigan/three-rivers/russell-cellular-three-rivers-1460922/,Mo-Sa 09:00-19:00; Su 11:00-17:00,Verizon,Q919641
,visa,,,THREE RIVERS,MI,,US,,,,,
,visa,,,THREE RIVERS,MI,,US,,,,,
,visa,,,THREE RIVERS,MI,,US,,,,,
,visa,,,THREE RIVERS,MI,,US,,,,,
,visa,,,THREE RIVERS,MI,,US,,,,,
,visa,,,THREE RIVERS,MI,,US,,,,,
,visa,,,THREE RIVERS,MI,,US,,,,,
,visa,,,THREE RIVERS,MI,,US,,,,,
,visa,,,THREE RIVERS,MI,,US,,,,,
,visa,,,THREE RIVERS,MI,,US,,,,,
,visa,,,THREE RIVERS,MI,,US,,,,,
,visa,,,THREE RIVERS,MI,,US,,,,,
,visa,,,THREE RIVERS,MI,,US,,,,,
,visa,,,THREE RIVERS,MI,,US,,,,,
,visa,,,THREE RIVERS,MI,,US,,,,,
,visa,,,THREE RIVERS,MI,,US,,,,,
,visa,,,THREE RIVERS,MI,,US,,,,,
,visa,,,THREE RIVERS,MI,,US,,,,,
,visa,,,THREE RIVERS,MI,,US,,,,,
,visa,,,THREE RIVERS,MI,,US,,,,,
,visa,,,THREE RIVERS,MI,,US,,,,,
,visa,,,THREE RIVERS,MI,,US,,,,,
,visa,,,THREE RIVERS,MI,,US,,,,,
,visa,,,THREE RIVERS,MI,,US,,,,,
,visa,,,THREE RIVERS,MI,,US,,,,,
,visa,,,THREE RIVERS,MI,,US,,,,,
,visa,,,THREE RIVERS,MI,,US,,,,,
,visa,,,THREE RIVERS,MI,,US,,,,,
,visa,,,THREE RIVERS,MI,,US,,,,,
,visa,,,THREE RIVERS,MI,,US,,,,,
,visa,,,THREE RIVERS,MI,,US,,,,,
,visa,,,THREE RIVERS,MI,,US,,,,,
,visa,,,THREE RIVERS,MI,,US,,,,,
,visa,,,THREE RIVERS,MI,,US,,,,,
,visa,,,THREE RIVERS,MI,,US,,,,,
,visa,,,THREE RIVERS,MI,,US,,,,,
,visa,,,THREE RIVERS,MI,,US,,,,,
,visa,,,THREE RIVERS,MI,,US,,,,,
,visa,,,THREE RIVERS,MI,,US,,,,,
,visa,,,THREE RIVERS,MI,,US,,,,,
,visa,,,THREE RIVERS,MI,,US,,,,,
,visa,,,THREE RIVERS,MI,,US,,,,,
,visa,,,THREE RIVERS,MI,,US,,,,,
,visa,,,JONES,MI,,US,,,,,
,visa,,,SOUTH HAVEN,MI,,US,,,,,
https://www.walgreens.com/locator/walgreens-301+s+us+highway+131-three+rivers-mi-49093/id=7934,walgreens,Walgreens,,Three Rivers,MI,,US,+1 269-279-9066,https://www.walgreens.com/locator/walgreens-301+s+us+highway+131-three+rivers-mi-49093/id=7934,Mo-Su 09:00-21:00,Walgreens,Q1591889
https://locations.wendys.com/#9256031,wendys,"Wendy's Three Rivers#20 in Three Rivers, MI",,Three Rivers,MI,,US,+1 269-278-7105,https://locations.wendys.com/united-states/mi/three-rivers/233-n-us-highway-131,"Mo-Su 06:30-10:30,09:00-22:00",Wendy's,Q550258
645ead26f22865880e9fc395f1332ee9,western_union,WALMART #003791,,Three Rivers,MI,,US,+1 269-273-7820,https://location.westernunion.com/us/mi/three-rivers/645ead26f22865880e9fc395f1332ee9,Mo-Su 07:00-21:00,Western Union,Q861042
ymca-camp-eberhart,ymca,YMCA Camp Eberhart,10481 Camp Eberhart Rd,Three Rivers,MI,,US,+1 269-244-5125,https://www.ymca.org/locations/ymca-camp-eberhart,Mo-Fr 08:30-16:00,YMCA,Q157169
