Ref,Spider,Name,Address,City,State,Zipcode,Country,Phone,Website,Hours,Brand,WikiData
https://stores.advanceautoparts.com/wv/glenville/3-foodland-plz,advance_auto_parts_us,Advance Auto Parts,,Glenville,WV,,US,+1 304-462-2771,https://stores.advanceautoparts.com/wv/glenville/3-foodland-plz,Mo-Sa 07:30-21:00; Su 09:00-20:00,Advance Auto Parts,Q4686051
196295,bluerhino,Glenville Go-Mart #10,,Glenville,WV,,US,+1 304-462-5234,,,Blue Rhino,Q65681213
192318,bluerhino,Par Mar #124,,Glenville,WV,,US,+1 304-462-0555,,,Blue Rhino,Q65681213
198425,bluerhino,Mountaineer Mart #135 (Exxon),,Glenville,WV,,US,+1 304-462-7530,,,Blue Rhino,Q65681213
169856,bluerhino,Glenville Foodland #214162,,Glenville,WV,,US,+1 304-462-5463,,,Blue Rhino,Q65681213
46687493831702635100100000000000,bp,BP,,Glenville,WV,,US,+1 304-462-7530,,24/7,BP,Q152057
46230,h_r_block,H&R Block,,Glenville,WV,,US,+1 304-462-5688,https://www.hrblock.com/local-tax-offices/west-virginia/glenville/226-w-main-st/46230/,,H&R Block,Q5627799
158583,marathon_petroleum_us,Par Mar 124,,Glenville,WV,,US,+1 304-462-0555,,,Marathon,Q458363
wv_glenville_2-w-main-st,pizza_hut_us,2 W Main St,,Glenville,WV,,US,+1 304-462-8800,https://locations.pizzahut.com/wv/glenville/2-w-main-st,,Pizza Hut,Q191615
https://restaurants.subway.com/#14896478,subway,Subway,,Glenville Gilmer,WV,,US,+1 304-462-7999,https://restaurants.subway.com/united-states/wv/glenville/14-foodland-plaza,Tu-Th 08:00-21:00; Sa-Su 08:00-21:00,Subway,Q244457
007762,uhaul,Par Mar Stores,170 State Hwy 5 E,Glenville,WV,,US,+1 304-462-5556,,Mo-We 30:00-14:00; Th-Sa 30:00-18:00; Su 00:00-18:00,U-Haul,Q7862902
1365000,usps,GLENVILLE,,GLENVILLE,WV,,US,+1 304-462-7323,,"Mo-Fr 08:00-13:00,13:30-16:00; Sa 09:00-11:00",United States Postal Service,Q668687
2635100010,usps_collection_boxes,USPS COLLECTION BOX - BLUE BOX,201 E MAIN ST,GLENVILLE,WV,,US,,,,United States Postal Service,Q668687
2635100013,usps_collection_boxes,USPS COLLECTION BOX - PO LOBBY,201 E MAIN ST,GLENVILLE,WV,,US,,,,United States Postal Service,Q668687
2635100015,usps_collection_boxes,USPS COLLECTION BOX - PO LOBBY,201 E MAIN ST RM 100,GLENVILLE,WV,,US,,,,United States Postal Service,Q668687
,visa,,,GLENVILLE,WV,,US,,,,,
,visa,,,GLENVILLE,WV,,US,,,,,
,visa,,,GLENVILLE,WV,,US,,,,,
,visa,,,GLENVILLE,WV,,US,,,,,
,visa,,,GLENVILLE,WV,,US,,,,,
,visa,,,GLENVILLE,WV,,US,,,,,
,visa,,,GLENVILLE,WV,,US,,,,,
,visa,,,GLENVILLE,WV,,US,,,,,
,visa,,,GLENVILLE,WV,,US,,,,,
,visa,,,GLENNVILLE,WV,,US,,,,,
,visa,,,GLENVILLE,WV,,US,,,,,
,visa,,,GLENVILLE,WV,,US,,,,,
