Ref,Spider,Name,Address,City,State,Zipcode,Country,Phone,Website,Hours,Brand,WikiData
https://vertretung.allianz.de/gb/,allianz_de,Allianz Versicherung Gehring und Bogdanovic GbR GENERALVERTRETUNG,,Dortmund,,,DE,+49 231 5316130,https://vertretung.allianz.de/gb/,"Mo 09:00-12:00; Tu 09:00-12:00,14:00-17:00; We 09:00-12:00; Th 09:00-12:00,14:00-17:00; Fr 09:00-12:00",Allianz SE,Q487292
14007600,bp,Birte Berg,,Dortmund,,,DE,+49 231 597276,http://tankstelle.aral.de/tankstelle/14007600,Mo-Sa 06:00-22:00; Su 08:00-22:00,BP,Q152057
de:857,dm,dm-drogerie markt,,Dortmund,,,DE,+49 231 1769035,https://www.dm.de/store/d1bh/dortmund/koerner-hellweg-72,Mo-Fr 08:00-20:00; Sa 08:00-18:00,dm,Q266572
2760913077,gls_de,Meli-Druck,,Dortmund,,,DE,+49 177 7822722,,"Mo-We 10:00-12:00,14:00-18:00",General Logistics Systems,Q46495823
2760910198,gls_de,Call Shop Amira,,Dortmund,,,DE,+49 231 58441451,,"Mo-Th 10:00-19:00; Fr 10:00-13:00,15:00-20:00; Sa 10:00-19:00",General Logistics Systems,Q46495823
2760906721,gls_de,Kiosk Körner,,Dortmund,,,DE,+49 231 1888819,,Mo-Sa 08:00-18:00,General Logistics Systems,Q46495823
2760915462,gls_de,A&M Kiosk,,Dortmund,,,DE,+49 176 63747040,,Mo-Su 10:00-22:00,General Logistics Systems,Q46495823
https://kamps.de/standort/kamps-baeckerei-hellweg-baumarkt-dortmund-hannoeversche-str-52a,kamps_de,Kamps,,Dortmund,,,DE,+49 231 5313585,https://kamps.de/standort/kamps-baeckerei-hellweg-baumarkt-dortmund-hannoeversche-str-52a,Mo-Sa 07:00-18:00,Kamps,Q1723381
DE5830,kaufland,Kaufland Dortmund-Innenstadt-O,,Dortmund-Körne,,,DE,+49 231 9369630,https://filiale.kaufland.de/service/filiale/frankfurt-oder-spitzkrug-multi-center-dortmund-innenstadt-ost-5830.html,Mo-Sa 07:00-22:00,Kaufland,Q685967
1284,lidl_de,,,Dortmund,,,DE,,,Mo-Sa 07:00-21:00,Lidl,Q151954
40729,man_truck_and_bus,MAN Truck & Bus Service und Verkauf Dortmund,,Dortmund,,,DE,+49 231 519050,,,MAN Truck & Bus,Q708667
https://www.sixt.co.uk/car-hire/germany/dortmund/dortmund-borsigplatz/,sixt,Car Hire Dortmund Borsigplatz 24h | SIXT rent a car,,Dortmund,,,DE,,https://www.sixt.co.uk/car-hire/germany/dortmund/dortmund-borsigplatz/,24/7,SIXT,Q705664
308,sparkasse_de,Sparkasse Dortmund Geldautomat Körne,,Dortmund,,,DE,+49 231 1830,https://www.sparkasse.de/standorte/geldautomaten/sparkasse-dortmund-geldautomat-koerne-308,Mo-Su 05:00-24:00,Sparkasse,Q13601825
34344,sparkasse_de,Sparkasse Dortmund Filiale Körne,,Dortmund,,,DE,+49 231 1830,https://www.sparkasse.de/standorte/filialen/sparkasse-dortmund-filiale-koerne-34344,Mo-Fr 09:00-13:00,Sparkasse,Q13601825
34309,sparkasse_de,Sparkasse Dortmund Geldautomat Wambel,,Dortmund,,,DE,+49 231 1830,https://www.sparkasse.de/standorte/geldautomaten/sparkasse-dortmund-geldautomat-wambel-34309,Mo-Su 06:00-21:00,Sparkasse,Q13601825
434,sparkasse_de,Sparkasse Dortmund SB-Filiale Wambel,,Dortmund,,,DE,+49 231 1830,https://www.sparkasse.de/standorte/filialen/sparkasse-dortmund-sb-filiale-wambel-434,Mo-Su 06:00-21:00,Sparkasse,Q13601825
EX_BP_1267,totalenergies,"ARAL TANKSTELLE DORTMUND, WAMB",,Dortmund,,,DE,,https://store.totalenergies.fr/en_EN/EX_BP_1267,,Aral,Q565734
ND124360,totalenergies,DORTMUND HANNOEVERSCHE STR.52A,,DORTMUND,,,DE,+49 231 5315877,https://store.totalenergies.fr/en_EN/ND124360,Mo-Fr 05:00-22:00; Sa 06:00-22:00; Su 08:00-22:00,TotalEnergies,Q154037
,visa,,,DORTMUND,,,DE,,,,,
6DE03509,volvo,Premium Cars Peters GmbH & Co. KG,,Dortmund-Wambel,,,DE,+49 231 9120400,http://www.volvocars-haendler.de/premium-cars/,,Volvo,Q215293
