Ref,Spider,Name,Address,City,State,Zipcode,Country,Phone,Website,Hours,Brand,WikiData
https://locators.bankofamerica.com/fl/lutz/financial-centers-lutz-15863.html,bankofamerica,Bank of America Financial Center & Drive-Thru ATM | Van Dyke Commons,,Lutz,FL,,US,+1 813-961-9169,https://locators.bankofamerica.com/fl/lutz/financial-centers-lutz-15863.html,Mo-Fr 10:00-16:00,Bank of America,Q487907
161437,bluerhino,Publix #0831,,Lutz,FL,,US,+1 813-949-3882,,,Blue Rhino,Q65681213
153202,bluerhino,Walgreens #9300,,Lutz,FL,,US,+1 813-269-2814,,,Blue Rhino,Q65681213
380801,chevron,Chevron Station #380801,18901 N DALE MABRY HWY,LUTZ,FL,,US,+1 813-241-4610,,,Chevron,Q319642
81363,citi,ATM Target,,Lutz,FL,,US,,,,Citibank,Q857063
17201,cvs_us,CVS Pharmacy,,Lutz,FL,,US,+1 813-435-2934,https://www.cvs.com/store-locator/lutz-fl-pharmacies/1040-dale-mabry-hwy-lutz-fl-33548/storeid=17201,"Mo-Fr 09:00-13:30,14:00-19:00; Sa 09:00-13:30,14:00-17:00; Su 11:00-13:30,14:00-17:00",CVS Pharmacy,Q2078880
3841,dominos_pizza_us,Domino's Pizza,,Lutz,FL,,US,+1 813-960-1888,https://pizza.dominos.com/florida/lutz/17804-dale-mabry-hwy-n--nw-corner-of-van-dyke,Mo-Th 10:00-24:00; Fr-Sa 10:00-01:00; Su 10:00-24:00,Domino's,Q839466
352309,dunkin_us,Dunkin',,Lutz,FL,,US,+1 813-953-1851,https://locations.dunkindonuts.com/en/fl/lutz/19130-north-dale-mabry-hwy/352309,Mo-Su 05:00-21:00,Dunkin',Q847743
https://www.edwardjones.com/us-en/financial-advisor/jared-kohn,edwardjones,Jared D Kohn,,Lutz,FL,,US,+1 813-575-8522,https://www.edwardjones.com/us-en/financial-advisor/jared-kohn,,Edward Jones,Q5343830
1000001431,extra_space_storage,Lutz Self Storage at 17921 N Dale Mabry Hwy,,Lutz,FL,,US,+1 813-563-6493,https://www.extraspace.com/storage/facilities/us/florida/lutz/1000001431/,Mo-Fr 09:30-18:00; Sa 09:00-17:30,Extra Space Storage,Q5422162
https://local.fedex.com/#25198480,fedex,,,Lutz,FL,,US,+1 800-463-3339,https://local.fedex.com/en-us/fl/lutz/dd7zv,,FedEx,Q459477
https://local.fedex.com/#27745261,fedex,FedEx Authorized ShipCenter,,Lutz,FL,,US,+1 813-949-5370,https://local.fedex.com/en-us/fl/lutz/0061u,,FedEx,Q459477
https://stores.gnc.com/#24059594,gnc,GNC Van Dyke Commons,,,FL,,US,+1 813-961-4516,https://stores.gnc.com/all-stores-florida/lutz/17681-dale-mabry-hwy-n,Mo-Th 10:00-21:00; Fr-Sa 10:00-20:00; Su 11:00-18:00,GNC,Q4808595
https://salons.greatclips.com/us/fl/lutz/17469-n-dale-mabry-hwy,greatclips,Great Clips,,Lutz,FL,,US,+1 813-962-3737,https://salons.greatclips.com/us/fl/lutz/17469-n-dale-mabry-hwy,Mo-Fr 09:00-20:00; Sa 09:00-18:00; Su 10:00-18:00,Great Clips,Q5598967
9635,h_r_block,H&R Block,,Lutz,FL,,US,+1 813-264-9416,https://www.hrblock.com/local-tax-offices/florida/lutz/van-dyke-commons/9635/,,H&R Block,Q5627799
https://locations.massageenvy.com/#1773605,massage_envy,Massage Envy Lutz MM# 20104,,Lutz,FL,,US,+1 813-868-5400,https://locations.massageenvy.com/florida/lutz/17673-n-dale-mabry-hwy.html,Mo-Fr 08:00-22:00; Sa 09:00-20:00; Su 09:00-18:00,Massage Envy,Q10327170
16554,mattress_firm_us,Mattress Firm County Line Commons,,Lutz,FL,,US,+1 813-909-8600,https://www.mattressfirm.com/en-us/stores/fl/lutz/025052/,,Mattress Firm,Q6791878
fl_lutz_1040-dale-mabry-hwy,pizza_hut_us,1040 Dale Mabry Hwy,,Lutz,FL,,US,,https://locations.pizzahut.com/fl/lutz/1040-dale-mabry-hwy,,Pizza Hut,Q191615
23403,seven_eleven_ca_us,7-11 Str   18902 N Dale Mabry Hwy,,Lutz,FL,,US,+1 813-949-7164,https://www.7-eleven.com/locations/fl/lutz/18902-n-dale-mabry-23403,,7-Eleven,Q259340
lutz,tijuanaflats,Lutz - Tijuana Flats,,Lutz,FL,,US,+1 813-235-4257,https://www.tijuanaflats.com/locations/lutz,,Tijuana Flats,Q7801833
28394,tjx,Lutz,17641 N. Dale Mabry Hwy,Lutz,FL,,US,+1 813-962-6826,,Mo-Sa 09:30-21:30; Su 10:00-20:00,HomeGoods,Q5887941
124E,tmobile_us,Dale Mabry Hwy & Van Dyke Rd,,Lutz,FL,,US,+1 813-392-2591,https://www.t-mobile.com/store-locator/fl/lutz/dale-mabry-hwy-van-dyke-rd,,T-Mobile,Q3511885
,visa,,,FT MEYERS,FL,,US,,,,,
,visa,,,OCALA,FL,,US,,,,,
,visa,,,SEFFNER,FL,,US,,,,,
,visa,,,TAMPA,FL,,US,,,,,
,visa,,,LUTZ,FL,,US,,,,,
,visa,,,LUTZ,FL,,US,,,,,
,visa,,,LUTZ,FL,,US,,,,,
,visa,,,LUTZ,FL,,US,,,,,
,visa,,,LUTZ,FL,,US,,,,,
,visa,,,LUTZ,FL,,US,,,,,
,visa,,,LUTZ,FL,,US,,,,,
,visa,,,LUTZ,FL,,US,,,,,
,visa,,,LUTZ,FL,,US,,,,,
,visa,,,LUTZ.,FL,,US,,,,,
,visa,,,LUTZ,FL,,US,,,,,
,visa,,,LUTZ,FL,,US,,,,,
,visa,,,LUTZ,FL,,US,,,,,
,visa,,,LUTZ,FL,,US,,,,,
,visa,,,SPRING HILL,FL,,US,,,,,
,visa,,,SPRINGHILL,FL,,US,,,,,
,visa,,,HOLIDAY,FL,,US,,,,,
,visa,,,CLEARWATER,FL,,US,,,,,
https://www.walgreens.com/locator/walgreens-3890+van+dyke+rd-lutz-fl-33548/id=9300,walgreens,Walgreens,,Lutz,FL,,US,+1 813-269-2814,https://www.walgreens.com/locator/walgreens-3890+van+dyke+rd-lutz-fl-33548/id=9300,Mo-Su 07:00-24:00,Walgreens,Q1591889
https://locations.wendys.com/#11206639,wendys,"Wendy's Dale Mabry Hwy N in Lutz, FL",,Lutz,FL,,US,+1 813-265-6774,https://locations.wendys.com/united-states/fl/lutz/17951-north-dale-mabry-highway,"Mo-Th 06:30-10:30,06:30-22:00; Fr 06:30-10:30,06:30-23:00; Sa 06:30-11:00,06:30-23:00; Su 06:30-11:00,06:30-22:00",Wendy's,Q550258
7ce3e8bf2e197092ddfdbff73f4c2068,western_union,7-ELEVEN #23403,,Lutz,FL,,US,+1 813-949-7164,https://location.westernunion.com/us/fl/lutz/7ce3e8bf2e197092ddfdbff73f4c2068,,Western Union,Q861042
