Ref,Spider,Name,Address,City,State,Zipcode,Country,Phone,Website,Hours,Brand,WikiData
2C66,tmobile_us,Costco Ocean NJ,,Ocean,NJ,,US,+1 848-997-9977,https://www.t-mobile.com/store-locator/nj/ocean/costco-ocean-nj,,T-Mobile,Q3511885
,visa,,,ASBURY PARK,NJ,,US,,,,,
,visa,,,ASBURY PARK,NJ,,US,,,,,
,visa,,,ASBURY AVENUE,NJ,,US,,,,,
,visa,,,ASBURY PARK,NJ,,US,,,,,
,visa,,,ASBURY PARK,NJ,,US,,,,,
,visa,,,BRADLEY BEACH,NJ,,US,,,,,
,visa,,,ASBURY PARK,NJ,,US,,,,,
,visa,,,ASBURY PARK,NJ,,US,,,,,
,visa,,,ASBURY PARK,NJ,,US,,,,,
,visa,,,BELMAR,NJ,,US,,,,,
,visa,,,ASBURY PARK,NJ,,US,,,,,
,visa,,,ASBURY PARK,NJ,,US,,,,,
,visa,,,ASBURY PARK,NJ,,US,,,,,
,visa,,,ASBURY PARK,NJ,,US,,,,,
,visa,,,ASBURY PARK,NJ,,US,,,,,
,visa,,,ASBURY PARK,NJ,,US,,,,,
,visa,,,ASBURY PARK,NJ,,US,,,,,
,visa,,,ASBURY PARK,NJ,,US,,,,,
,visa,,,ASBURY PARK,NJ,,US,,,,,
,visa,,,ASBURY PARK,NJ,,US,,,,,
,visa,,,ASBURY PARK,NJ,,US,,,,,
,visa,,,ASBURY PARK,NJ,,US,,,,,
,visa,,,ASBURY PARK,NJ,,US,,,,,
,visa,,,ASBURY PARK,NJ,,US,,,,,
,visa,,,ASBURY PARK,NJ,,US,,,,,
,visa,,,ASBURY PARK,NJ,,US,,,,,
,visa,,,ASBURY PARK,NJ,,US,,,,,
,visa,,,ASBURY PARK,NJ,,US,,,,,
,visa,,,ASBURY PARK,NJ,,US,,,,,
,visa,,,ASBURY,NJ,,US,,,,,
,visa,,,ASBURY PARK,NJ,,US,,,,,
,visa,,,ASBURY PARK,NJ,,US,,,,,
,visa,,,ASBURY PARK,NJ,,US,,,,,
,visa,,,ASBURY PARK,NJ,,US,,,,,
,visa,,,ASBURY PARK,NJ,,US,,,,,
,visa,,,ASBURY PARK,NJ,,US,,,,,
,visa,,,ASBURY PARK,NJ,,US,,,,,
,visa,,,ASBURY PARK,NJ,,US,,,,,
,visa,,,ASBURY PARK,NJ,,US,,,,,
,visa,,,ASBURY PARK,NJ,,US,,,,,
,visa,,,ASBURY PARK,NJ,,US,,,,,
,visa,,,ASBURY,NJ,,US,,,,,
,visa,,,ASBURY PARK,NJ,,US,,,,,
,visa,,,ASBURY PARK,NJ,,US,,,,,
,visa,,,ASBURY PARK,NJ,,US,,,,,
,visa,,,ASBURY PARK,NJ,,US,,,,,
,visa,,,ASBURY PARK,NJ,,US,,,,,
,visa,,,ASBURY PARK,NJ,,US,,,,,
,visa,,,ASBURY PARK,NJ,,US,,,,,
,visa,,,ASBURY PARK,NJ,,US,,,,,
,visa,,,ASBURY PARK,NJ,,US,,,,,
,visa,,,ASBURY PARL,NJ,,US,,,,,
,visa,,,ASBURY PARK,NJ,,US,,,,,
,visa,,,ASBURY PARK,NJ,,US,,,,,
,visa,,,ASBURY PARK,NJ,,US,,,,,
,visa,,,ASBURY PARK,NJ,,US,,,,,
,visa,,,ASBURY PARK,NJ,,US,,,,,
,visa,,,ASBURY PARK,NJ,,US,,,,,
,visa,,,ASBURY PARK,NJ,,US,,,,,
,visa,,,ASBURY PARK,NJ,,US,,,,,
,visa,,,ASBURY PARK,NJ,,US,,,,,
,visa,,,ASBURY PARK,NJ,,US,,,,,
,visa,,,ASBURY PARK,NJ,,US,,,,,
,visa,,,ASBURY PARK,NJ,,US,,,,,
,visa,,,ASBURY PARK,NJ,,US,,,,,
,visa,,,ASBURY PARK,NJ,,US,,,,,
,visa,,,WANAMASSA,NJ,,US,,,,,
,visa,,,ASBURY PARK,NJ,,US,,,,,
,visa,,,WANAMASSA,NJ,,US,,,,,
,visa,,,OCEAN TOWNSHIP,NJ,,US,,,,,
,visa,,,WANAMASSA,NJ,,US,,,,,
,visa,,,OCEAN TOWNSHIP,NJ,,US,,,,,
,visa,,,OCEAN TOWNSHIP,NJ,,US,,,,,
,visa,,,OCEAN TOWNSHIP,NJ,,US,,,,,
,visa,,,OCEAN TOWNSHIP,NJ,,US,,,,,
,visa,,,OCEAN TOWNSHIP,NJ,,US,,,,,
,visa,,,OCEAN TOWNSHIP,NJ,,US,,,,,
,visa,,,OCEAN,NJ,,US,,,,,
,visa,,,OCEAN TWP,NJ,,US,,,,,
,visa,,,TINTON FALLS,NJ,,US,,,,,
