Ref,Spider,Name,Address,City,State,Zipcode,Country,Phone,Website,Hours,Brand,WikiData
/locations/propane-offices/new-mexico/farmington/5849-us-64,amerigas,"AmerGas Propane | Farmington, New Mexico",,Farmington,NM,,US,+1 866-688-3601,/locations/propane-offices/new-mexico/farmington/5849-us-64,,AmeriGas,Q23130318
21984,asics_us,Brown's Shoe Fit Farmington,124 W Main St,Farmington,NM,,US,+1 505-327-9330,,Mo-Fr 09:30-18:00; Sa 09:30-17:00,asics,Q327247
2509,autozone_us,AutoZone Auto Parts Farmington,,Farmington,NM,,US,+1 505-326-1147,https://www.autozone.com/locations/nm/farmington/760-broadway.html,Mo-Sa 07:30-22:00; Su 08:00-21:00,AutoZone,Q4826087
https://locators.bankofamerica.com/nm/farmington/financial-centers-farmington-9045.html,bankofamerica,Bank of America Financial Center & Drive-Thru ATM | Farmington Main,,Farmington,NM,,US,+1 505-599-3600,https://locators.bankofamerica.com/nm/farmington/financial-centers-farmington-9045.html,Mo-Fr 09:00-16:00; Sa 09:00-14:00,Bank of America,Q487907
https://locators.bankofamerica.com/nm/farmington/atm-farmington-103023.html,bankofamerica,Bank of America Walk-Up ATM | San Juan Regional Medical Center,,Farmington,NM,,US,+1 844-401-8500,https://locators.bankofamerica.com/nm/farmington/atm-farmington-103023.html,,Bank of America,Q487907
https://local.biglots.com/#13190026,biglots,Big Lots - Farmington,,Farmington,NM,,US,+1 505-564-8944,https://local.biglots.com/nm/farmington/909-farmington-ave,Mo-Sa 09:00-21:00; Su 10:00-19:00,Big Lots,Q4905973
78533,blakes_lotaburgers,"420 East Broadway Avenue, Farmington, NM (63)",,Farmington,NM,,US,+1 505-325-8226,https://www.lotaburger.com/locations/420-east-broadway-avenue-farmington-nm-63/,Mo-Sa 06:00-22:00; Su 07:00-22:00,Blakes Lotaburgers,Q4924308
78523,blakes_lotaburgers,"2130 Bloomfield Boulevard, Farmington, NM (52)",,Farmington,NM,,US,+1 505-327-1141,https://www.lotaburger.com/locations/2130-bloomfield-boulevard-farmington-nm-52/,Mo-Sa 06:00-22:00; Su 07:00-22:00,Blakes Lotaburgers,Q4924308
78522,blakes_lotaburgers,"1611 West Main Street, Farmington, NM (51)",,Farmington,NM,,US,+1 505-327-2561,https://www.lotaburger.com/locations/1611-west-main-street-farmington-nm-51/,Mo-Sa 06:00-22:00; Su 07:00-22:00,Blakes Lotaburgers,Q4924308
78521,blakes_lotaburgers,"2220 East 20th Street, Farmington, NM (50)",,Farmington,NM,,US,+1 505-327-2489,https://www.lotaburger.com/locations/2220-east-20th-street-farmington-nm-50/,Mo-Sa 06:00-22:00; Su 07:00-22:00,Blakes Lotaburgers,Q4924308
187075,bluerhino,Speedway #9568,,Farmington,NM,,US,+1 505-325-3899,,,Blue Rhino,Q65681213
187061,bluerhino,Speedway #9556,,Farmington,NM,,US,+1 505-325-7996,,,Blue Rhino,Q65681213
186254,bluerhino,Smiths Food & Drug 409- Fuel Site,,Farmington,NM,,US,+1 505-327-7326,,,Blue Rhino,Q65681213
57039,bluerhino,Smiths Food & Drug 409,,Farmington,NM,,US,+1 505-327-7326,,,Blue Rhino,Q65681213
187068,bluerhino,Speedway #9577,,Farmington,NM,,US,+1 505-325-6223,,,Blue Rhino,Q65681213
152005,bluerhino,Walgreens #9067,,Farmington,NM,,US,+1 505-326-3340,,,Blue Rhino,Q65681213
162900,bluerhino,Family Dollar #05080,,FARMINGTON,NM,,US,+1 505-325-8389,,,Blue Rhino,Q65681213
188961,bluerhino,Speedway #9141,,Farmington,NM,,US,+1 505-327-2410,,,Blue Rhino,Q65681213
187062,bluerhino,Speedway #9738,,Farmington,NM,,US,+1 505-327-2961,,,Blue Rhino,Q65681213
187067,bluerhino,Speedway #9372,,Farmington,NM,,US,+1 505-327-6769,,,Blue Rhino,Q65681213
187069,bluerhino,Speedway #9378,,Farmington,NM,,US,+1 505-327-3639,,,Blue Rhino,Q65681213
188960,bluerhino,Speedway #8689,,Farmington,NM,,US,+1 505-327-1483,,,Blue Rhino,Q65681213
187064,bluerhino,Speedway #9316,,Farmington,NM,,US,+1 505-325-9288,,,Blue Rhino,Q65681213
187063,bluerhino,Speedway #9629,,Farmington,NM,,US,+1 505-327-2445,,,Blue Rhino,Q65681213
23192,burgerking,Burger King,,Farmington,NM,,US,+1 505-326-2634,https://www.bk.com/store-locator/store/restaurant_62690,Mo-Th 06:00-22:00; Fr 06:00-00:00; Sa 06:00-23:00; Su 07:00-22:00,Burger King,Q177054
205963,captaind,Captain D's,,Farmington,NM,,US,+1 505-327-4931,https://locations.captainds.com/ll/US/NM/Farmington/1735-E-Main-St,Mo-Su 10:30-22:00,Captain D's,Q5036616
1102465,carlsjr_us,Carl's Jr.,,Farmington,NM,,US,+1 505-326-9141,https://locations.carlsjr.com/nm/farmington/2300-e-main-st,,Carl's Jr.,Q1043486
745-w-main-street,churchs_chicken,W. Main Street,,Farmington,NM,,US,+1 505-324-8500,https://locations.churchs.com/nm/farmington/745-w-main-street,,Church's Chicken,Q1089932
77705,citi,ATM Speedway,,Farmington,NM,,US,,,,Citibank,Q857063
76516,citi,ATM Speedway,,Farmington,NM,,US,,,,Citibank,Q857063
79005,citi,ATM Speedway,,Farmington,NM,,US,,,,Citibank,Q857063
78508,citi,ATM Speedway,,Farmington,NM,,US,,,,Citibank,Q857063
78569,citi,ATM Speedway,,Farmington,NM,,US,,,,Citibank,Q857063
77830,citi,ATM Speedway,,Farmington,NM,,US,,,,Citibank,Q857063
78763,citi,ATM Speedway,,Farmington,NM,,US,,,,Citibank,Q857063
92566,citi,ATM Walgreens,,Farmington,NM,,US,,,,Citibank,Q857063
77825,citi,ATM Speedway,,Farmington,NM,,US,,,,Citibank,Q857063
77675,citi,ATM Speedway,,Farmington,NM,,US,,,,Citibank,Q857063
77668,citi,ATM Speedway,,Farmington,NM,,US,,,,Citibank,Q857063
82684,citi,ATM Target,,Farmington,NM,,US,,,,Citibank,Q857063
78657,citi,ATM Speedway,,Farmington,NM,,US,,,,Citibank,Q857063
,credit_union_us,Southwest FCU,,Farmington,NM,,US,+1 505-243-6751,,Mo-Tu 09:00-05:00; Th-Fr 09:00-05:00,,
70109128,cricket_wireless,Cricket Wireless Authorized Retailer,,Farmington,NM,,US,+1 505-258-4941,https://www.cricketwireless.com/stores/ll/US/NM/Farmington/1245-W-Apache-St,Mo-Sa 10:00-19:00; Su 12:00-17:00,Cricket Wireless,Q5184987
247171,dennys,Denny's,,Farmington,NM,,US,+1 505-324-8415,https://locations.dennys.com/NM/FARMINGTON/247171,24/7,Denny's,Q1189695
5772,dollartree,DollarTree,,Farmington,NM,,US,+1 505-427-5223,,Mo-Sa 08:00-22:00; Su 09:00-21:00,Dollar Tree,Q5289230
25035,dollar_general,Dollar General,,Farmington,NM,,US,+1 505-478-0231,https://www.dollargeneral.com/store-directory/nm/farmington/25035,Mo-Su 08:00-22:00,Dollar General,Q145168
15260,dollar_general,Dollar General,,Farmington,NM,,US,+1 505-421-0040,https://www.dollargeneral.com/store-directory/nm/farmington/15260,Mo-Su 08:00-22:00,Dollar General,Q145168
9305,dominos_pizza_us,Domino's Pizza,,Farmington,NM,,US,+1 505-793-3030,https://pizza.dominos.com/new-mexico/farmington/725-w-main-street,Mo-Th 10:00-24:00; Fr-Sa 10:00-01:00; Su 10:00-24:00,Domino's,Q839466
https://www.edwardjones.com/us-en/financial-advisor/angela-brandt,edwardjones,Angela M Brandt,,Farmington,NM,,US,+1 505-326-7200,https://www.edwardjones.com/us-en/financial-advisor/angela-brandt,Mo-Th 08:30-16:30; Fr 08:30-14:30,Edward Jones,Q5343830
FMNT61,enterprise,Farmington Four Corners Reg. Airport,,Farmington,NM,,US,+1 505-325-5013,,,Enterprise Rent-A-Car,Q17085454
https://branches.fleetpride.com/nm/farmington/truckparts-frm.html,fleet_pride_us,FleetPride,,Farmington,NM,,US,+1 505-326-0831,https://branches.fleetpride.com/nm/farmington/truckparts-frm.html,Mo-Fr 07:30-17:00,FleetPride,Q121436710
101134,fresenius_kidney_care_us,"Fresenius Kidney Care Farmington, NM",,Farmington,NM,,US,+1 888-489-4718,https://www.freseniuskidneycare.com/dialysis-centers/new-mexico/101134,Mo-Sa 05:30-17:00,,
fmnblht-home2-suites-farmington-bloomfield,hilton,Home2 Suites by Hilton Farmington/ Bloomfield,,,NM,,US,+1 505-325-1500,https://www.hilton.com/ar/hotels/fmnblht-home2-suites-farmington-bloomfield/,,Home2 Suites by Hilton,Q5887912
29337,h_r_block,H&R Block,,Farmington,NM,,US,+1 505-258-4435,https://www.hrblock.com/local-tax-offices/new-mexico/farmington/1245-w-apache-st/29337/,,H&R Block,Q5627799
https://office.jacksonhewitt.com/#27576798,jackson_hewitt,Jackson Hewitt,,Farmington,NM,,US,+1 505-485-1065,https://office.jacksonhewitt.com/tax-preparation-services-locations/en/nm/farmington/1400-w-main-street/53428,Mo-Sa 11:00-19:00; Su 12:00-16:00,Jackson Hewitt,Q6117132
https://office.jacksonhewitt.com/#27580287,jackson_hewitt,Jackson Hewitt,,Farmington,NM,,US,+1 505-485-1058,https://office.jacksonhewitt.com/tax-preparation-services-locations/en/nm/farmington/115-e-main-street/13538,Mo-Sa 11:00-19:00; Su 12:00-16:00,Jackson Hewitt,Q6117132
3750,jiffy_lube_us,W. Main Street,,FARMINGTON,NM,,US,+1 505-258-4133,https://www.jiffylube.com/locations/nm/farmington/3750,Mo-Sa 08:00-18:00,Jiffy Lube,Q6192247
https://locations.kfc.com/#11247078,kfc,Chicken Nuggets Near Farmington,,Farmington,NM,,US,,https://locations.kfc.com/nm/farmington/532-e-main-street/chickennugget,Mo-Th 10:00-21:00; Fr-Sa 10:00-22:00; Su 10:00-21:00,KFC,Q524757
160275,marathon_petroleum_us,7211 35,,Farmington,NM,,US,+1 404-667-3191,,,Marathon,Q458363
158078,marathon_petroleum_us,7211 2,,Farmington,NM,,US,+1 404-667-3191,,,Marathon,Q458363
159109,marathon_petroleum_us,7211 23,,Farmington,NM,,US,+1 404-667-3191,,,Marathon,Q458363
159892,marathon_petroleum_us,7211 43,,Farmington,NM,,US,+1 404-667-3191,,,Marathon,Q458363
159647,marathon_petroleum_us,7211 Food Store 46,,Farmington,NM,,US,+1 404-667-3191,,,Marathon,Q458363
158636,marathon_petroleum_us,7211 34,,Farmington,NM,,US,+1 404-667-3191,,,Marathon,Q458363
160701,marathon_petroleum_us,7211 42,,Farmington,NM,,US,+1 404-667-3191,,,Marathon,Q458363
158922,marathon_petroleum_us,7211 440,,Farmington,NM,,US,+1 404-667-3191,,,Marathon,Q458363
FMNCY,marriott,Courtyard Farmington,,Farmington,NM,,US,+1 505-325-5111,https://www.marriott.com/FMNCY,,Courtyard by Marriott,Q1053170
https://www.naturalgrocers.com/store/farmington,natural_grocers_us,Farmington,,Farmington,NM,,US,,https://www.naturalgrocers.com/store/farmington,Mo-Sa 08:57-20:36; Su 08:57-19:36,Natural Grocers,Q17146520
https://locations.oreillyauto.com/nm/farmington/check-engine-light-testing-4028.html,oreilly,Your Farmington O'Reilly Auto Parts Store,,Farmington,NM,,US,+1 505-327-4544,https://locations.oreillyauto.com/nm/farmington/check-engine-light-testing-4028.html,Mo-Fr 07:00-21:00; Sa 07:30-21:00; Su 08:00-20:00,O'Reilly Auto Parts,Q7071951
https://locations.oreillyauto.com/nm/farmington/wiper-installation-4028.html,oreilly,Your Farmington O'Reilly Auto Parts Store,,Farmington,NM,,US,+1 505-327-4544,https://locations.oreillyauto.com/nm/farmington/wiper-installation-4028.html,Mo-Fr 07:00-21:00; Sa 07:30-21:00; Su 08:00-20:00,O'Reilly Auto Parts,Q7071951
https://locations.oreillyauto.com/nm/farmington/battery-testing-4028.html,oreilly,Your Farmington O'Reilly Auto Parts Store,,Farmington,NM,,US,+1 505-327-4544,https://locations.oreillyauto.com/nm/farmington/battery-testing-4028.html,Mo-Fr 07:00-21:00; Sa 07:30-21:00; Su 08:00-20:00,O'Reilly Auto Parts,Q7071951
https://locations.oreillyauto.com/nm/farmington/autopartes-4028.html,oreilly,Tu tienda O'Reilly Auto Parts en Farmington,,Farmington,NM,,US,+1 505-327-4544,https://locations.oreillyauto.com/nm/farmington/autopartes-4028.html,Mo-Fr 07:00-21:00; Sa 07:30-21:00; Su 08:00-20:00,O'Reilly Auto Parts,Q7071951
666610,penske,Penske Farmington,,FARMINGTON,NM,,US,+1 505-793-8422,https://www.pensketruckrental.com/locations/us/new_mexico/farmington/666610/,,Penske,Q81234570
nm_farmington_657-w-main,pizza_hut_us,657 W. Main,,Farmington,NM,,US,+1 505-325-1700,https://locations.pizzahut.com/nm/farmington/657-w-main,,Pizza Hut,Q191615
https://www.plannedparenthood.org/health-center/new-mexico/farmington/87401/farmington-2407-90210,planned_parenthood,Planned Parenthood,,Farmington,NM,,US,,https://www.plannedparenthood.org/health-center/new-mexico/farmington/87401/farmington-2407-90210,,Planned Parenthood,Q2553262
restaurant_242442,popeyes_us_fr,Popeyes,"2408 East Main St Farmington, New Mexico 87401 - USA",Farmington,NM,,US,+1 505-512-0532,https://www.popeyes.com/store-locator/store/restaurant_242442,Mo-Su 10:00-21:00,Popeyes,Q1330910
restaurant_878896,popeyes_us_fr,Popeyes,"2121 W Main Farmington, New Mexico 87401 - USA",Farmington,NM,,US,+1 505-609-5083,https://www.popeyes.com/store-locator/store/restaurant_878896,Mo-Su 10:00-21:00,Popeyes,Q1330910
home-depot-3508-8366,ppgpaints,HOME DEPOT 3508,,"Farmington, ",NM,,US,+1 505-327-0710,https://www.ppgpaints.com/store-locator/us/new-mexico/farmington-paint-stores/home-depot-3508-8366,,PPG Paints,Q83891559
1865,rentacenter,Rent-A-Center,,Farmington,NM,,US,+1 505-326-5400,https://locations.rentacenter.com/new-mexico/farmington/915-farmington-ave/,Mo-Sa 10:00-18:00,Rent-A-Center,Q7313497
https://local.safeway.com/#5604709,safeway,Safeway,,Farmington,NM,,US,+1 505-325-8732,https://local.safeway.com/safeway/nm/farmington/730-w-main-st.html,Mo-Su 07:00-22:00,Safeway,Q1508234
https://locations.schlotzskys.com/#2381,schlotzskys,Schlotzsky's,,San Juan County,NM,,US,+1 505-327-2722,https://locations.schlotzskys.com/nm/farmington/484-east-20th-st,Mo-Su 09:00-21:00,Schlotzsky's,Q2244796
https://stations.sinclairoil.com/nm/farmington/3101-la-plata-hwy,sinclair_us,Sinclair Gas Station,,Farmington,NM,,US,+1 505-564-6837,https://stations.sinclairoil.com/nm/farmington/3101-la-plata-hwy,Mo-Su 06:00-22:00,Sinclair,Q1290900
https://stations.sinclairoil.com/nm/farmington/5656-bloomfield-hwy,sinclair_us,Sinclair Gas Station,,Farmington,NM,,US,+1 303-297-3835,https://stations.sinclairoil.com/nm/farmington/5656-bloomfield-hwy,24/7,Sinclair,Q1290900
32376,smilebrands,Mountain Dental Farmington,708 E 20th St.,Farmington,NM,,US,+1 505-327-6155,https://mountaindental.com/locations/new-mexico-dental-centers/farmington-nm/,,Smile Brands Inc.,Q108286823
https://restaurants.subway.com/#14915366,subway,Subway Wal-Mart #3428,,Farmington San Juan,NM,,US,+1 505-326-1405,https://restaurants.subway.com/united-states/nm/farmington/1400-w-main-st,Mo-Su 08:00-22:00,Subway,Q244457
https://restaurants.subway.com/#14905069,subway,Subway,,Farmington San Juan,NM,,US,+1 505-326-5191,https://restaurants.subway.com/united-states/nm/farmington/2100-bloomfield-blvd,Mo-Fr 08:00-22:00; Sa 09:00-21:00; Su 10:30-20:00,Subway,Q244457
https://restaurants.subway.com/#14903614,subway,Subway,,Farmington San Juan,NM,,US,+1 505-326-2189,https://restaurants.subway.com/united-states/nm/farmington/300-e-20th-st,Mo-Fr 07:00-22:00; Sa 08:00-21:00; Su 09:00-21:00,Subway,Q244457
https://restaurants.subway.com/#14905984,subway,Subway,,Farmington San Juan,NM,,US,+1 505-326-1979,https://restaurants.subway.com/united-states/nm/farmington/100-phillips-road,Mo-Fr 07:00-22:00; Sa 08:00-22:00; Su 09:00-21:00,Subway,Q244457
655,sun_loan_us,Sun Loan Company â€“ Farmington,,Farmington,NM,,US,+1 505-324-8119,https://www.sunloan.com/find-a-branch/sun-loan-company-farmington-new-mexico-81/,Mo-Th 08:30-17:30; Fr 08:30-18:00; Sa 08:30-12:30,Sun Loan,Q118725658
https://locations.tacobell.com/#6145101,taco_bell,Taco Bell,,Farmington,NM,,US,+1 505-327-5481,https://locations.tacobell.com/nm/farmington/2226-e-main-street.html,Mo-Th 06:30-01:00; Fr-Sa 06:30-02:00; Su 06:30-01:00,Taco Bell,Q752941
https://locations.tacobell.com/#6145259,taco_bell,Taco Bell,,Farmington,NM,,US,+1 505-326-2133,https://locations.tacobell.com/nm/farmington/2100-west-main-st.html,Mo-Su 06:30-01:00,Taco Bell,Q752941
https://locations.tacobell.com/#64351343,taco_bell,Taco Bell,,Farmington,NM,,US,+1 505-535-3058,https://locations.tacobell.com/nm/farmington/1400-w-main-st.html,,Taco Bell,Q752941
1363178,usps,FARMINGTON,,FARMINGTON,NM,,US,+1 505-324-3055,,Mo-Fr 08:00-16:30; Sa 10:00-13:00,United States Postal Service,Q668687
8740100021,usps_collection_boxes,USPS COLLECTION BOX - BLUE BOX,101 W ANIMAS ST,FARMINGTON,NM,,US,,,,United States Postal Service,Q668687
8740100012,usps_collection_boxes,USPS COLLECTION BOX - BLUE BOX,1800 E MURRAY DR,FARMINGTON,NM,,US,,,,United States Postal Service,Q668687
8740100010,usps_collection_boxes,USPS COLLECTION BOX - BLUE BOX,203 W MAIN ST,FARMINGTON,NM,,US,,,,United States Postal Service,Q668687
8740100053,usps_collection_boxes,USPS COLLECTION BOX - BLUE BOX,300 W ARRINGTON ST,FARMINGTON,NM,,US,,,,United States Postal Service,Q668687
8740100041,usps_collection_boxes,USPS COLLECTION BOX - BLUE BOX,850 MUNICIPAL DR,FARMINGTON,NM,,US,,,,United States Postal Service,Q668687
8740100011,usps_collection_boxes,USPS COLLECTION BOX - BLUE BOX,850 MUNICIPAL DR,FARMINGTON,NM,,US,,,,United States Postal Service,Q668687
8740100045,usps_collection_boxes,USPS COLLECTION BOX - BLUE BOX,5699 HIGHWAY 64,FARMINGTON,NM,,US,,,,United States Postal Service,Q668687
8740100008,usps_collection_boxes,USPS COLLECTION BOX - BLUE BOX,710 E 30TH ST,FARMINGTON,NM,,US,,,,United States Postal Service,Q668687
8740100000,usps_collection_boxes,USPS COLLECTION BOX - BLUE BOX,2301 E 20TH ST,FARMINGTON,NM,,US,,,,United States Postal Service,Q668687
8740100052,usps_collection_boxes,USPS COLLECTION BOX - APC,2301 E 20TH ST,FARMINGTON,NM,,US,,,,United States Postal Service,Q668687
8740100044,usps_collection_boxes,USPS COLLECTION BOX - PO LOBBY,2301 E 20TH ST,FARMINGTON,NM,,US,,,,United States Postal Service,Q668687
8740100043,usps_collection_boxes,USPS COLLECTION BOX - PO LOBBY,2301 E 20TH ST,FARMINGTON,NM,,US,,,,United States Postal Service,Q668687
8740100003,usps_collection_boxes,USPS COLLECTION BOX - BLUE BOX,2301 E 20TH ST,FARMINGTON,NM,,US,,,,United States Postal Service,Q668687
8740100055,usps_collection_boxes,USPS COLLECTION BOX - PO LOBBY,2301 E 20TH ST,FARMINGTON,NM,,US,,,,United States Postal Service,Q668687
A00000246216,verizon_us,Russell Cellular Farmington,,FARMINGTON,NM,,US,+1 505-324-8820,https://www.verizon.com/stores/details/new-mexico/farmington/russell-cellular-farmington-1590022/,Mo-Sa 09:00-19:00; Su 11:00-17:00,Verizon,Q919641
,visa,,,AZTEC,NM,,US,,,,,
,visa,,,FARMINGTON,NM,,US,,,,,
,visa,,,FARMINGTON,NM,,US,,,,,
,visa,,,FARMINGTON,NM,,US,,,,,
,visa,,,FARMINGTON,NM,,US,,,,,
,visa,,,FARMINGTON,NM,,US,,,,,
,visa,,,FARMINGTON,NM,,US,,,,,
,visa,,,FARMINGTON,NM,,US,,,,,
,visa,,,FARMINGTON,NM,,US,,,,,
,visa,,,FARMINGTON,NM,,US,,,,,
,visa,,,FARMINGTON,NM,,US,,,,,
,visa,,,FARMINGTON,NM,,US,,,,,
,visa,,,FARMINGTON,NM,,US,,,,,
,visa,,,FARMINGTON,NM,,US,,,,,
,visa,,,FARMINGTON,NM,,US,,,,,
,visa,,,FARMINGTON,NM,,US,,,,,
,visa,,,FARMINGTON,NM,,US,,,,,
,visa,,,FARMINGTON,NM,,US,,,,,
,visa,,,FARMINGTON,NM,,US,,,,,
,visa,,,FARMINGTON,NM,,US,,,,,
,visa,,,FARMINGTON,NM,,US,,,,,
,visa,,,FRUITLAND,NM,,US,,,,,
,visa,,,FARMINGTON,NM,,US,,,,,
,visa,,,FARMINGTON,NM,,US,,,,,
,visa,,,FARMINGTON,NM,,US,,,,,
,visa,,,FARMINGTON,NM,,US,,,,,
,visa,,,FARMINGTON,NM,,US,,,,,
,visa,,,FARMINGTON,NM,,US,,,,,
,visa,,,FARMINGTON,NM,,US,,,,,
,visa,,,FARMINGTON,NM,,US,,,,,
,visa,,,FARMINGTON,NM,,US,,,,,
,visa,,,FARMINGTON,NM,,US,,,,,
,visa,,,FARMINGTON,NM,,US,,,,,
,visa,,,FARMINGTON,NM,,US,,,,,
,visa,,,FARMINGTON,NM,,US,,,,,
,visa,,,FARMINGTON,NM,,US,,,,,
https://www.walgreens.com/locator/walgreens-701+e+20th+st-farmington-nm-87401/id=9067,walgreens,Walgreens,,Farmington,NM,,US,+1 505-326-3342,https://www.walgreens.com/locator/walgreens-701+e+20th+st-farmington-nm-87401/id=9067,Mo-Su 07:00-23:00,Walgreens,Q1591889
501__E__20TH__ST_FARMINGTON_NM_87401,wellsfargo,Wells Fargo,501 E 20TH ST,FARMINGTON,NM,,US,+1 505-566-7220,https://www.wellsfargo.com/locator/bank/501__E__20TH__ST_FARMINGTON_NM_87401/,Mo-Fr 09:00-17:00,Wells Fargo,Q744149
100__E__BROADWAY_FARMINGTON_NM_87401,wellsfargo,,100 E BROADWAY,FARMINGTON,NM,,US,+1 800-869-3557,https://www.wellsfargo.com/locator/bank/100__E__BROADWAY_FARMINGTON_NM_87401/,,Wells Fargo,Q744149
https://locations.wendys.com/#9252294,wendys,"Wendy's #264 Apache in Farmington, NM",,Farmington,NM,,US,+1 505-564-4434,https://locations.wendys.com/united-states/nm/farmington/2610-west-main-street,"Mo-Su 06:30-10:30,07:30-22:00",Wendy's,Q550258
https://locations.wendys.com/#9252292,wendys,"Wendy's Farmington in Farmington, NM",,Farmington,NM,,US,+1 505-326-3456,https://locations.wendys.com/united-states/nm/farmington/1820-east-main-street,"Mo-Su 06:30-10:30,07:30-22:00",Wendy's,Q550258
1c6b3135635d176f0e8b1b25b94b1373,western_union,WALMART #003428,,Farmington,NM,,US,+1 505-327-1243,https://location.westernunion.com/us/nm/farmington/1c6b3135635d176f0e8b1b25b94b1373,Mo-Sa 08:00-20:00; Su 10:00-18:00,Western Union,Q861042
ce578570e8d8a4174e2844cfd591c70c,western_union,7-ELEVEN/SPEEDWAY #44857,,Farmington,NM,,US,+1 505-325-7996,https://location.westernunion.com/us/nm/farmington/ce578570e8d8a4174e2844cfd591c70c,,Western Union,Q861042
1210,world_finance_us,,"2501 E 20th St Ste 11, Farmington, NM, 87401",Farmington,NM,,US,+1 505-325-7220,https://www.loansbyworld.com/branches/branch-1210,Mo-Fr 09:00-17:30; Sa 09:00-12:00,World Finance,Q3569971
