Ref,Spider,Name,Address,City,State,Zipcode,Country,Phone,Website,Hours,Brand,WikiData
https://stores.advanceautoparts.com/nc/new-bern/996-us-70-hwy-e,advance_auto_parts_us,Advance Auto Parts,,New Bern,NC,,US,+1 252-514-2135,https://stores.advanceautoparts.com/nc/new-bern/996-us-70-hwy-e,Mo-Sa 07:30-21:00; Su 09:00-20:00,Advance Auto Parts,Q4686051
299,autozone_us,AutoZone Auto Parts New Bern,,New Bern,NC,,US,+1 252-636-5350,https://www.autozone.com/locations/nc/new-bern/1707-neuse-blvd.html,Mo-Sa 07:30-21:00; Su 09:00-20:00,AutoZone,Q4826087
6746,autozone_us,AutoZone Auto Parts New Bern,,New Bern,NC,,US,+1 252-649-6320,https://www.autozone.com/locations/nc/new-bern/1211-us-highway-70-e.html,Mo-Sa 07:30-21:00; Su 09:00-20:00,AutoZone,Q4826087
199761,bluerhino,Dollar General #21737,,New Bern,NC,,US,+1 252-497-7140,,,Blue Rhino,Q65681213
146682,bluerhino,Speedway #8214,,New Bern,NC,,US,+1 252-633-3340,,,Blue Rhino,Q65681213
235916,bluerhino,Circle K #2720934,,New Bern,NC,,US,+1 252-633-5778,,,Blue Rhino,Q65681213
151670,bluerhino,Walgreens #2222,,New Bern,NC,,US,+1 252-672-8362,,,Blue Rhino,Q65681213
201165,bluerhino,Super Stop,,New Bern,NC,,US,+1 252-637-3273,,,Blue Rhino,Q65681213
172388,bluerhino,Family Dollar #07066,,New Bern,NC,,US,+1 252-634-1793,,,Blue Rhino,Q65681213
41148,bluerhino,Food Lion #817,,New Bern,NC,,US,+1 252-636-5056,,,Blue Rhino,Q65681213
229259,bluerhino,5 Points Mini Mart #2,,New Bern,NC,,US,+1 252-633-0741,,,Blue Rhino,Q65681213
229258,bluerhino,5 Points Mini Mart #1,,New Bern,NC,,US,+1 252-876-3780,,,Blue Rhino,Q65681213
223736,bluerhino,Riverside Hardware & Paint #30790,,New Bern,NC,,US,+1 252-637-6308,,,Blue Rhino,Q65681213
67518,bluerhino,Food Lion #2556,,New Bern,NC,,US,+1 252-637-5601,,,Blue Rhino,Q65681213
210713,bluerhino,Dollar General #22232,,New Bern,NC,,US,+1 252-497-7195,,,Blue Rhino,Q65681213
nc/new-bern/1238-s--glenburnie-rd,bojangles,"Bojangles New Bern, NC",,New Bern,NC,,US,+1 252-633-1507,https://locations.bojangles.com/nc/new-bern/1238-s--glenburnie-rd.html,,Bojangles',Q891163
nc/james-city/931-us-hwy--70-east,bojangles,"Bojangles James City, NC",,James City,NC,,US,+1 252-633-6212,https://locations.bojangles.com/nc/james-city/931-us-hwy--70-east.html,,Bojangles',Q891163
19065697583002856000100000000000,bp,BP,,New Bern,NC,,US,+1 252-633-4648,,24/7,BP,Q152057
11021,cadillac,TRENT CADILLAC,,New Bern,NC,,US,+1 252-633-2213,https://www.trentcadillac.com,Mo-Fr 08:30-19:00; Sa 09:00-18:00,Cadillac,Q27436
16437,chevrolet,CHEVROLET OF NEW BERN,,NEW BERN,NC,,US,+1 252-638-6161,https://www.chevroletofnewbern.com,Mo-Fr 09:00-19:00; Sa 09:00-18:00,Chevrolet,Q29570
https://schools.childcarenetwork.com/nc/new-bern/3705-old-cherry-point-road,childcare_network_us,Childcare Network,,New Bern,NC,,US,+1 252-636-3791,https://schools.childcarenetwork.com/nc/new-bern/3705-old-cherry-point-road,,Childcare Network,Q121356406
https://schools.childcarenetwork.com/nc/new-bern/301-ninth-street,childcare_network_us,Childcare Network,,New Bern,NC,,US,+1 252-638-2957,https://schools.childcarenetwork.com/nc/new-bern/301-ninth-street,,Childcare Network,Q121356406
77978,citi,ATM Speedway,,New Bern,NC,,US,,,,Citibank,Q857063
40491,citi,ATM Circle K,,New Bern,NC,,US,,,,Citibank,Q857063
88667,citi,ATM Walgreens,,New Bern,NC,,US,,,,Citibank,Q857063
om_nc_new-bern_1707-red-robin-ln,cititrends,Citi Trends,,New Bern,NC,,US,+1 252-923-3959,https://locations.cititrends.com/nc/new-bern/1707-red-robin-ln.html,Mo 10:00-21:00; Tu 10:00-21:00; We 10:00-21:00; Th 10:00-21:00; Fr 10:00-21:00; Sa 10:00-21:00; Su 12:00-18:00,Citi Trends,Q5122438
nca_868,department_veterans_affairs,New Bern National Cemetery,,New Bern,NC,,US,+1 252-637-2912,https://www.cem.va.gov/cems/nchp/NewBern.asp,,Department Veterans Affairs,Q592576
9524,dollartree,DollarTree,,New Bern,NC,,US,+1 252-497-2261,,Mo-Sa 09:00-21:00; Su 10:00-20:00,Dollar Tree,Q5289230
25173,dollar_general,Dollar General,,New Bern,NC,,US,+1 615-855-4000,https://www.dollargeneral.com/store-directory/nc/new-bern/25173,Mo-Su 08:00-22:00,Dollar General,Q145168
22232,dollar_general,Dollar General,,New Bern,NC,,US,+1 252-497-7195,https://www.dollargeneral.com/store-directory/nc/new-bern/22232,Mo-Su 08:00-22:00,Dollar General,Q145168
21737,dollar_general,Dollar General,,New Bern,NC,,US,+1 252-497-7140,https://www.dollargeneral.com/store-directory/nc/new-bern/21737,Mo-Su 08:00-22:00,Dollar General,Q145168
346900,dunkin_us,Dunkin',,New Bern,NC,,US,+1 252-633-2300,https://locations.dunkindonuts.com/en/nc/new-bern/2315-neuse-blvd/346900,Mo-Su 05:00-22:00,Dunkin',Q847743
https://www.edwardjones.com/us-en/financial-advisor/robert-knisley,edwardjones,Robert Knisley,,New Bern,NC,,US,+1 252-514-0279,https://www.edwardjones.com/us-en/financial-advisor/robert-knisley,Mo-Th 08:30-17:00; Fr 08:30-16:00,Edward Jones,Q5343830
1374,fresenius_kidney_care_us,Fresenius Kidney Care New Bern,,New Bern,NC,,US,+1 800-881-5101,https://www.freseniuskidneycare.com/dialysis-centers/north-carolina/1374,Mo-Sa 05:30-17:00,,
2831,fresenius_kidney_care_us,Fresenius Kidney Care Craven County Dialysis Center,,New Bern,NC,,US,+1 800-881-5101,https://www.freseniuskidneycare.com/dialysis-centers/north-carolina/2831,Mo-Sa 05:00-17:00,,
ewnmsdt-doubletree-new-bern-riverfront,hilton,DoubleTree by Hilton Hotel New Bern Riverfront,,,NC,,US,+1 252-658-9000,https://www.hilton.com/ar/hotels/ewnmsdt-doubletree-new-bern-riverfront/,,DoubleTree by Hilton,Q2504643
1652,honey_baked,HoneyBaked of New Bern,,New Bern,NC,,US,+1 252-631-5125,https://www.honeybaked.com/stores/1652,,Honey Baked Ham,Q5893363
https://locations.kfc.com/#11247176,kfc,Chicken Nuggets Near New Bern,,New Bern,NC,,US,,https://locations.kfc.com/nc/new-bern/2212-neuse-boulevard/chickennugget,Mo-Th 10:30-21:30; Fr-Sa 10:30-22:00; Su 10:00-21:30,KFC,Q524757
https://locations.kfc.com/#11247175,kfc,Chicken Nuggets Near New Bern,,New Bern,NC,,US,,https://locations.kfc.com/nc/new-bern/1512-highway-70-east/chickennugget,Mo-Sa 10:30-22:00; Su 10:00-22:00,KFC,Q524757
EWNCY,marriott,Courtyard New Bern,,New Bern,NC,,US,+1 252-636-0022,https://www.marriott.com/EWNCY,,Courtyard by Marriott,Q1053170
NNA3149,nissan_europe,EASTERN CAROLINA NISSAN,,NEW BERN,NC,,US,+1 252-636-1000,https://www.ecnissan.com,Mo-Fr 09:00-20:00; Sa 09:00-18:00,Nissan,Q20165
267,piggly_wiggly_us,Piggly Wiggly,,New Bern,NC,,US,+1 252-638-6312,https://www.pigglywigglystores.com,,Piggly Wiggly,Q3388303
268,piggly_wiggly_us,Piggly Wiggly,,New BErn,NC,,US,+1 252-638-8474,https://www.pigglywigglystores.com,,Piggly Wiggly,Q3388303
nc_new-bern_3201-dr-ml-king-jr-blvd,pizza_hut_us,3201 Dr Ml King Jr Blvd,,New Bern,NC,,US,+1 252-638-5400,https://locations.pizzahut.com/nc/new-bern/3201-dr-ml-king-jr-blvd,,Pizza Hut,Q191615
nc_new-bern_1505-s-glenburnie-rd,pizza_hut_us,1505 S Glenburnie Rd,,New Bern,NC,,US,+1 252-638-3100,https://locations.pizzahut.com/nc/new-bern/1505-s-glenburnie-rd,,Pizza Hut,Q191615
https://restaurants.subway.com/#14907545,subway,Subway Bridgeton Crossing,,New Bern Craven,NC,,US,+1 252-636-3896,https://restaurants.subway.com/united-states/nc/new-bern/131-bridgetown-rd,Mo-Su 09:00-21:00,Subway,Q244457
https://restaurants.subway.com/#14913628,subway,Subway Trent East Crossing Shop. Ctr.,,New Bern Craven,NC,,US,+1 252-636-0020,https://restaurants.subway.com/united-states/nc/new-bern/963-&-965-highway-70-east,Mo-Su 09:00-22:00,Subway,Q244457
https://locations.tacobell.com/#6141600,taco_bell,Taco Bell,,New Bern,NC,,US,+1 252-636-0628,https://locations.tacobell.com/nc/new-bern/971-e-us-70-hwy-.html,Mo-Tu 07:00-23:00; We 07:00-21:00; Th-Sa 07:00-23:00; Su 11:00-23:00,Taco Bell,Q752941
https://locations.tacobell.com/#6145654,taco_bell,Taco Bell,,New Bern,NC,,US,+1 252-633-2355,https://locations.tacobell.com/nc/new-bern/1815-neuse-blvd.html,Mo-We 08:00-23:30; Th-Sa 08:00-24:00; Su 11:00-23:00,Taco Bell,Q752941
1361178,usps,DOWNTOWN NEW BERN,,NEW BERN,NC,,US,+1 252-638-6921,,Mo-Fr 10:30-16:30,United States Postal Service,Q668687
1438211,usps,NEUSE FOREST,,NEW BERN,NC,,US,+1 252-638-6418,,Mo-Fr 09:00-16:00,United States Postal Service,Q668687
2856000034,usps_collection_boxes,USPS COLLECTION BOX - BLUE BOX,1620 OLD CHERRY POINT RD,NEW BERN,NC,,US,,,,United States Postal Service,Q668687
2856000063,usps_collection_boxes,USPS COLLECTION BOX - PO LOBBY,1620 OLD CHERRY POINT RD,NEW BERN,NC,,US,,,,United States Postal Service,Q668687
2856000068,usps_collection_boxes,USPS COLLECTION BOX - PO LOBBY,1620 OLD CHERRY POINT RD,NEW BERN,NC,,US,,,,United States Postal Service,Q668687
2856000037,usps_collection_boxes,USPS COLLECTION BOX - BLUE BOX,719 PROFESSIONAL DR,NEW BERN,NC,,US,,,,United States Postal Service,Q668687
2856000061,usps_collection_boxes,USPS COLLECTION BOX - BLUE BOX,2000 NEUSE BLVD,NEW BERN,NC,,US,,,,United States Postal Service,Q668687
2856000059,usps_collection_boxes,USPS COLLECTION BOX - BLUE BOX,2203 NEUSE BLVD,NEW BERN,NC,,US,,,,United States Postal Service,Q668687
2856000062,usps_collection_boxes,USPS COLLECTION BOX - BLUE BOX,613 POLLOCK ST,NEW BERN,NC,,US,,,,United States Postal Service,Q668687
2856000018,usps_collection_boxes,USPS COLLECTION BOX - BLUE BOX,233 MIDDLE ST,NEW BERN,NC,,US,,,,United States Postal Service,Q668687
2856000030,usps_collection_boxes,USPS COLLECTION BOX - BLUE BOX,233 MIDDLE ST,NEW BERN,NC,,US,,,,United States Postal Service,Q668687
2856000066,usps_collection_boxes,USPS COLLECTION BOX - PO LOBBY,233 MIDDLE ST,NEW BERN,NC,,US,,,,United States Postal Service,Q668687
2856000067,usps_collection_boxes,USPS COLLECTION BOX - PO LOBBY,233 MIDDLE ST,NEW BERN,NC,,US,,,,United States Postal Service,Q668687
2856000015,usps_collection_boxes,USPS COLLECTION BOX - BLUE BOX,415 MIDDLE ST,NEW BERN,NC,,US,,,,United States Postal Service,Q668687
2856000011,usps_collection_boxes,USPS COLLECTION BOX - BLUE BOX,248 CRAVEN ST,NEW BERN,NC,,US,,,,United States Postal Service,Q668687
,visa,,,NEW BERN,NC,,US,,,,,
,visa,,,NEW BERN,NC,,US,,,,,
,visa,,,NEW BERN,NC,,US,,,,,
,visa,,,NEW BERN,NC,,US,,,,,
,visa,,,NEW BERN,NC,,US,,,,,
,visa,,,NEW BERN,NC,,US,,,,,
,visa,,,NEW BERN,NC,,US,,,,,
,visa,,,NEW BERN,NC,,US,,,,,
,visa,,,NEW BERN,NC,,US,,,,,
,visa,,,NEW BERN,NC,,US,,,,,
,visa,,,NEWBERN,NC,,US,,,,,
,visa,,,NEW BERN,NC,,US,,,,,
,visa,,,NEW BERN,NC,,US,,,,,
,visa,,,NEW BERN,NC,,US,,,,,
,visa,,,NEW BERN,NC,,US,,,,,
,visa,,,NEW BERN,NC,,US,,,,,
,visa,,,NEW BERN,NC,,US,,,,,
,visa,,,NEW BERN,NC,,US,,,,,
,visa,,,NEW BERN,NC,,US,,,,,
,visa,,,NEW BERN,NC,,US,,,,,
,visa,,,NEW BERN,NC,,US,,,,,
,visa,,,NEW BERN,NC,,US,,,,,
,visa,,,NEW BERN,NC,,US,,,,,
,visa,,,NEW BERN,NC,,US,,,,,
,visa,,,NEW BERN,NC,,US,,,,,
,visa,,,NEW BERN,NC,,US,,,,,
,visa,,,NEW BERN,NC,,US,,,,,
,visa,,,NEW BERN,NC,,US,,,,,
,visa,,,NEW BERN,NC,,US,,,,,
,visa,,,NEW BERN,NC,,US,,,,,
,visa,,,NEW BERN,NC,,US,,,,,
,visa,,,NEW BERN,NC,,US,,,,,
,visa,,,NEW BREN,NC,,US,,,,,
,visa,,,NEW BERN,NC,,US,,,,,
,visa,,,NEWBERN,NC,,US,,,,,
,visa,,,NEW BERN,NC,,US,,,,,
,visa,,,NEW BERN,NC,,US,,,,,
,visa,,,NEW BERN,NC,,US,,,,,
,visa,,,NEW BERN,NC,,US,,,,,
,visa,,,NEW BERN,NC,,US,,,,,
,visa,,,NEW BERN,NC,,US,,,,,
,visa,,,NEW BERN,NC,,US,,,,,
,visa,,,NEW BERN,NC,,US,,,,,
,visa,,,NEW BERN,NC,,US,,,,,
,visa,,,NEW BERN,NC,,US,,,,,
,visa,,,NEW BERN,NC,,US,,,,,
,visa,,,NEW BERN,NC,,US,,,,,
,visa,,,JACKSONVILLE,NC,,US,,,,,
,visa,,,MORRISVILLE,NC,,US,,,,,
,visa,,,SOUTHERN PINES,NC,,US,,,,,
,visa,,,SOUTHERN PINES,NC,,US,,,,,
1369,waffle_house_us,Waffle House #1369,,NEW BERN,NC,,US,+1 252-635-5220,https://locations.wafflehouse.com/newbern-nc-1369,24/7,Waffle House,Q1701206
https://www.walgreens.com/locator/walgreens-2001+neuse+blvd-new+bern-nc-28560/id=2222,walgreens,Walgreens,,New Bern,NC,,US,+1 252-672-8365,https://www.walgreens.com/locator/walgreens-2001+neuse+blvd-new+bern-nc-28560/id=2222,Mo-Su 07:00-22:00,Walgreens,Q1591889
401__S__FRONT__ST_NEW__BERN_NC_28560,wellsfargo,,401 S FRONT ST,NEW BERN,NC,,US,+1 800-869-3557,https://www.wellsfargo.com/locator/bank/401__S__FRONT__ST_NEW__BERN_NC_28560/,,Wells Fargo,Q744149
https://locations.wendys.com/#9254417,wendys,"Wendy's Neuse in New Bern, NC",,New Bern,NC,,US,+1 252-288-5703,https://locations.wendys.com/united-states/nc/new-bern/2900-neuse-blvd,"Mo-Su 06:30-10:30,09:00-22:00",Wendy's,Q550258
a73b25b859ce23e900b0f62be34cdc68,western_union,ENVIOS EXPRESS,,New Bern,NC,,US,+1 252-253-9800,https://location.westernunion.com/us/nc/new-bern/a73b25b859ce23e900b0f62be34cdc68,Mo-Su 08:00-21:00,Western Union,Q861042
e6b2f9379105b200debc1dbbc6274029,western_union,BURLEYS,,New Bern,NC,,US,+1 252-675-5675,https://location.westernunion.com/us/nc/new-bern/e6b2f9379105b200debc1dbbc6274029,Mo-Sa 11:00-20:00,Western Union,Q861042
4ae6d22dce277b51bd6fb78d043f26b2,western_union,DOLLAR GENERAL ##25173,,New Bern,NC,,US,+1 615-855-4000,https://location.westernunion.com/us/nc/new-bern/4ae6d22dce277b51bd6fb78d043f26b2,Mo-Su 08:00-22:00,Western Union,Q861042
0fe33800e15f49d86571b17fffed65c6,western_union,HANDY MART #4725,,New Bern,NC,,US,+1 252-638-3805,https://location.westernunion.com/us/nc/new-bern/0fe33800e15f49d86571b17fffed65c6,Mo-Su 06:00-22:00,Western Union,Q861042
3ebf23c6e5fcd7b742f97485a88d497f,western_union,PIGGLY WIGGLY #28,,New Bern,NC,,US,+1 252-638-8474,https://location.westernunion.com/us/nc/new-bern/3ebf23c6e5fcd7b742f97485a88d497f,Mo-Su 08:00-22:00,Western Union,Q861042
