Ref,Spider,Name,Address,City,State,Zipcode,Country,Phone,Website,Hours,Brand,WikiData
https://stores.advanceautoparts.com/sc/inman/11036-asheville-hwy,advance_auto_parts_us,Advance Auto Parts,,Inman,SC,,US,+1 864-472-2431,https://stores.advanceautoparts.com/sc/inman/11036-asheville-hwy,Mo-Sa 07:30-21:00; Su 09:00-20:00,Advance Auto Parts,Q4686051
4869,autozone_us,AutoZone Auto Parts Inman,,Inman,SC,,US,+1 864-472-0354,https://www.autozone.com/locations/sc/inman/11467-asheville-hwy.html,Mo-Sa 07:30-21:00; Su 08:00-21:00,AutoZone,Q4826087
https://locators.bankofamerica.com/sc/inman/atm-inman-9946.html,bankofamerica,Bank of America Drive-Thru ATM | Inman,,Inman,SC,,US,+1 844-401-8500,https://locators.bankofamerica.com/sc/inman/atm-inman-9946.html,,Bank of America,Q487907
236256,bluerhino,Circle K #2721502,,Inman,SC,,US,+1 864-472-3777,,,Blue Rhino,Q65681213
184218,bluerhino,Walgreens #17381,,Inman,SC,,US,+1 864-472-3540,,,Blue Rhino,Q65681213
207807,bluerhino,Food Lion #2835,,Inman,SC,,US,+1 864-472-3311,,,Blue Rhino,Q65681213
228897,bluerhino,Highway 9 Auto Stop,,Inman,SC,,US,+1 864-909-0682,,,Blue Rhino,Q65681213
236255,bluerhino,Circle K #2705370,,Inman,SC,,US,+1 864-599-5208,,,Blue Rhino,Q65681213
sc/inman/11304-asheville-highway,bojangles,"Bojangles Inman, SC",,Inman,SC,,US,+1 864-473-1130,https://locations.bojangles.com/sc/inman/11304-asheville-highway.html,,Bojangles',Q891163
41147869495082934900100000000000,bp,BP,,Inman,SC,,US,+1 864-541-7425,,Mo-Su 06:00-22:00,BP,Q152057
28486,burgerking,Burger King,,Inman,SC,,US,7685685089,https://www.bk.com/store-locator/store/restaurant_234778,Mo-Sa 06:00-00:00; Su 07:00-00:00,Burger King,Q177054
40461,citi,ATM Circle K,,Inman,SC,,US,,,,Citibank,Q857063
47170,citi,ATM CVS,,Inman,SC,,US,,,,Citibank,Q857063
86781,citi,ATM Walgreens,,Inman,SC,,US,,,,Citibank,Q857063
44415,citi,ATM Circle K,,Inman,SC,,US,,,,Citibank,Q857063
4185,cvs_us,CVS Pharmacy,,Inman,SC,,US,+1 864-472-2831,https://www.cvs.com/store-locator/inman-sc-pharmacies/11211-asheville-hwy-inman-sc-29349/storeid=4185,Mo-Sa 09:00-21:00; Su 10:00-18:00,CVS Pharmacy,Q2078880
5672,dominos_pizza_us,Domino's Pizza - Coming Soon,,Inman,SC,,US,+1 877-883-9643,https://pizza.dominos.com/south-carolina/inman/12046-asheville-hwy,,Domino's,Q839466
https://www.edwardjones.com/us-en/financial-advisor/jill-hughey,edwardjones,Jill D Hughey,,Inman,SC,,US,+1 864-472-4622,https://www.edwardjones.com/us-en/financial-advisor/jill-hughey,Mo-Fr 08:00-17:00,Edward Jones,Q5343830
200323145,exxonmobil,PATS # 2,,INMAN,SC,,US,+1 864-472-3208,https://www.exxon.com/en/find-station/mobil-inman-sc-pats2-200323145,Mo-Fr 06:00-22:00; Sa 07:00-22:00; Su 08:00-21:00,Mobil,Q109676002
20099,family_dollar_us,FAMILY DOLLAR #99,,Inman,SC,,US,+1 864-708-6029,https://www.familydollar.com/locations/sc/inman/20099/,Mo-Su 08:00-22:00,Family Dollar,Q5433101
https://local.fedex.com/#25199500,fedex,,,Inman,SC,,US,+1 800-463-3339,https://local.fedex.com/en-us/sc/inman/spalf,,FedEx,Q459477
https://local.fedex.com/#25235850,fedex,,,Inman,SC,,US,+1 800-463-3339,https://local.fedex.com/en-us/sc/inman/spacj,,FedEx,Q459477
https://local.fedex.com/#25229327,fedex,,,Inman,SC,,US,+1 800-463-3339,https://local.fedex.com/en-us/sc/inman/spaci,,FedEx,Q459477
https://local.fedex.com/#25232739,fedex,,,Inman,SC,,US,+1 800-463-3339,https://local.fedex.com/en-us/sc/inman/spaah,,FedEx,Q459477
Motorcraft1737USAEnglish,ford,"Ed Perry Auto Parts Co., Inc.",,South Carolina,SC,,US,+1 864-472-2166,,,Ford,Q44294
https://salons.greatclips.com/us/sc/inman/11149-asheville-hwy,greatclips,Great Clips,,Inman,SC,,US,+1 864-708-3300,https://salons.greatclips.com/us/sc/inman/11149-asheville-hwy,Mo-Fr 08:00-20:00; Sa 08:00-19:00; Su 12:00-18:00,Great Clips,Q5598967
1501682,hardees_us,Hardee's,,Inman,SC,,US,+1 864-472-9777,https://locations.hardees.com/sc/inman/11960-asheville-hwy,,Hardee's,Q1585088
39018,h_r_block,H&R Block,,Inman,SC,,US,+1 864-472-2612,https://www.hrblock.com/local-tax-offices/south-carolina/inman/11210-4-asheville-hwy/39018/,,H&R Block,Q5627799
200,ingles,Inman,,Inman,SC,,US,+1 864-814-3093,https://www.ingles-markets.com/storelocate/storeinfo.php?storenum=200,Mo-Su 06:00-23:00,Ingles,Q6032595
https://locations.oreillyauto.com/sc/inman/check-engine-light-testing-5169.html,oreilly,Your Inman O'Reilly Auto Parts Store,,Inman,SC,,US,+1 864-529-9555,https://locations.oreillyauto.com/sc/inman/check-engine-light-testing-5169.html,Mo-Sa 07:30-21:00; Su 09:00-20:00,O'Reilly Auto Parts,Q7071951
https://locations.oreillyauto.com/sc/inman/wiper-installation-5169.html,oreilly,Your Inman O'Reilly Auto Parts Store,,Inman,SC,,US,+1 864-529-9555,https://locations.oreillyauto.com/sc/inman/wiper-installation-5169.html,Mo-Sa 07:30-21:00; Su 09:00-20:00,O'Reilly Auto Parts,Q7071951
https://locations.oreillyauto.com/sc/inman/battery-testing-5169.html,oreilly,Your Inman O'Reilly Auto Parts Store,,Inman,SC,,US,+1 864-529-9555,https://locations.oreillyauto.com/sc/inman/battery-testing-5169.html,Mo-Sa 07:30-21:00; Su 09:00-20:00,O'Reilly Auto Parts,Q7071951
https://locations.oreillyauto.com/sc/inman/autopartes-5169.html,oreilly,Tu tienda O'Reilly Auto Parts en Inman,,Inman,SC,,US,+1 864-529-9555,https://locations.oreillyauto.com/sc/inman/autopartes-5169.html,Mo-Sa 07:30-21:00; Su 09:00-20:00,O'Reilly Auto Parts,Q7071951
sc_inman_11093-asheville-hwy,pizza_hut_us,11093 Asheville Hwy,,Inman,SC,,US,+1 864-472-6677,https://locations.pizzahut.com/sc/inman/11093-asheville-hwy,,Pizza Hut,Q191615
https://locations.quiktrip.com/#16003942,quiktrip_us,QuikTrip Store #1128 9620 Asheville Hwy,,Inman,SC,,US,+1 864-472-0819,https://locations.quiktrip.com/sc/inman/9620-asheville-hwy,24/7,QuikTrip,Q7271953
297,roadys_us,Hot Spot T/S #2013,,Inman,SC,,US,+1 864-472-3199,,24/7,Roadyâ€™s Truck Stops,Q7339701
3402,shellrecharge,Shell - Inman,,Inman,SC,,US,,,,Shell Recharge,Q105883058
https://restaurants.subway.com/#14910668,subway,Subway R L Jordan Oil Co/Hot Spot,,Inman Spartanburg,SC,,US,+1 864-472-8882,https://restaurants.subway.com/united-states/sc/inman/1940-highway-292-interstate-26,Mo-Sa 06:00-22:00; Su 07:00-22:00,Subway,Q244457
https://restaurants.subway.com/#14914694,subway,Subway Inman Market Place,,Inman Spartanburg,SC,,US,+1 864-472-6868,https://restaurants.subway.com/united-states/sc/inman/11090-ashville-hwy,Mo-Fr 08:00-21:30; Sa 09:00-21:30; Su 09:30-21:00,Subway,Q244457
https://locations.tacobell.com/#6147041,taco_bell,Taco Bell,,Inman,SC,,US,+1 864-473-2278,https://locations.tacobell.com/sc/inman/11083-asheville-hwy.html,Mo-Th 09:00-01:00; Fr-Sa 09:00-02:00; Su 09:00-01:00,Taco Bell,Q752941
382G,tmobile_us,Asheville Hwy & E Main St,,Inman,SC,,US,+1 864-806-3534,https://www.t-mobile.com/store-locator/sc/inman/asheville-hwy-e-main-st,,T-Mobile,Q3511885
1367964,usps,INMAN,,INMAN,SC,,US,+1 864-472-8401,,Mo-Fr 10:00-16:30; Sa 10:00-11:00,United States Postal Service,Q668687
2934900003,usps_collection_boxes,USPS COLLECTION BOX - PO LOBBY,14 BLACKSTOCK RD,INMAN,SC,,US,,,,United States Postal Service,Q668687
2934900004,usps_collection_boxes,USPS COLLECTION BOX - PO LOBBY,14 BLACKSTOCK RD,INMAN,SC,,US,,,,United States Postal Service,Q668687
2934900007,usps_collection_boxes,USPS COLLECTION BOX - PO LOBBY,14 BLACKSTOCK RD,INMAN,SC,,US,,,,United States Postal Service,Q668687
A00000202112,verizon_us,Victra Inman,,Inman,SC,,US,+1 864-472-8626,https://www.verizon.com/stores/details/south-carolina/inman/victra-inman-1468922/,Mo-Fr 10:00-19:00; Sa 10:00-18:00,Verizon,Q919641
,visa,,,INMAN,SC,,US,,,,,
,visa,,,INMAN,SC,,US,,,,,
,visa,,,INMAN,SC,,US,,,,,
,visa,,,INMAN,SC,,US,,,,,
,visa,,,INMAN,SC,,US,,,,,
,visa,,,INMAN,SC,,US,,,,,
,visa,,,INMAN,SC,,US,,,,,
,visa,,,INMAN,SC,,US,,,,,
,visa,,,INMAN,SC,,US,,,,,
,visa,,,INMAN,SC,,US,,,,,
,visa,,,INMAN,SC,,US,,,,,
,visa,,,INMAN,SC,,US,,,,,
,visa,,,INMAN,SC,,US,,,,,
,visa,,,INMAN,SC,,US,,,,,
,visa,,,INMAN,SC,,US,,,,,
,visa,,,INMAN,SC,,US,,,,,
,visa,,,INMAN,SC,,US,,,,,
,visa,,,INMAN,SC,,US,,,,,
,visa,,,INMAN,SC,,US,,,,,
,visa,,,INMAN,SC,,US,,,,,
,visa,,,INMAN,SC,,US,,,,,
,visa,,,INMAN,SC,,US,,,,,
,visa,,,INMAN,SC,,US,,,,,
,visa,,,INMAN,SC,,US,,,,,
,visa,,,INMAN,SC,,US,,,,,
,visa,,,INMAN,SC,,US,,,,,
,visa,,,INMAN,SC,,US,,,,,
,visa,,,INMAN,SC,,US,,,,,
,visa,,,INMAN,SC,,US,,,,,
,visa,,,INMAN,SC,,US,,,,,
,visa,,,INMAN,SC,,US,,,,,
818,waffle_house_us,Waffle House #818,,INMAN,SC,,US,+1 864-578-5199,https://locations.wafflehouse.com/inman-sc-818,24/7,Waffle House,Q1701206
https://www.walgreens.com/locator/walgreens-11156+asheville+hwy-inman-sc-29349/id=17381,walgreens,Walgreens,,Inman,SC,,US,+1 864-472-3540,https://www.walgreens.com/locator/walgreens-11156+asheville+hwy-inman-sc-29349/id=17381,Mo-Su 08:00-21:00,Walgreens,Q1591889
9620__ASHEVILLE__HWY_INMAN_SC_29349,wellsfargo,,9620 ASHEVILLE HWY,INMAN,SC,,US,+1 800-869-3557,https://www.wellsfargo.com/locator/bank/9620__ASHEVILLE__HWY_INMAN_SC_29349/,,Wells Fargo,Q744149
60eb2b3cb536b9e01aeaf36d2a86e3da,western_union,WALGREENS #17381,,Inman,SC,,US,+1 864-472-3540,https://location.westernunion.com/us/sc/inman/60eb2b3cb536b9e01aeaf36d2a86e3da,Mo-Sa 08:00-21:00; Su 08:00-18:00,Western Union,Q861042
b31204b90ff206c550c4d4bb518c788a,western_union,FOOD LION #2835,,Inman,SC,,US,+1 864-472-3311,https://location.westernunion.com/us/sc/inman/b31204b90ff206c550c4d4bb518c788a,Mo-Su 07:00-23:00,Western Union,Q861042
389,world_finance_us,,"1 N Main St, Inman, SC, 29349",Inman,SC,,US,+1 864-473-0727,https://www.loansbyworld.com/branches/branch-389,Mo-Fr 09:00-17:30; Sa 09:00-12:00,World Finance,Q3569971
