Ref,Spider,Name,Address,City,State,Zipcode,Country,Phone,Website,Hours,Brand,WikiData
6225,autozone_us,AutoZone Auto Parts Ponderay,,Ponderay,ID,,US,+1 208-255-1426,https://www.autozone.com/locations/id/ponderay/476995-hwy-95-n.html,Mo-Sa 07:30-20:00; Su 08:00-19:00,AutoZone,Q4826087
0417,carpet_one_floor_and_home_us,Sandpoint Furniture Carpet One Floor & Home,,Ponderay,ID,,US,+1 208-263-5138,https://www.sandpointfurnitureponderay.com/,,Carpet One Floor & Home,Q121335910
36401,chevrolet,TAYLOR & SONS CHEVROLET,,Ponderay,ID,,US,+1 208-263-2138,https://www.tschevy.com,Mo-Sa 08:00-18:00,Chevrolet,Q29570
,credit_union_us,Potlatch No 1 Financial CU,,Ponderay,ID,,US,+1 208-255-5493,,Mo-Th 09:00-05:30; Fr 09:00-06:00,,
https://www.edwardjones.com/us-en/financial-advisor/charity-hegel,edwardjones,Charity H Hegel,,Ponderay,ID,,US,+1 208-255-2613,https://www.edwardjones.com/us-en/financial-advisor/charity-hegel,Mo-Th 07:30-16:30; Fr 07:00-15:00,Edward Jones,Q5343830
https://local.fedex.com/#27745082,fedex,FedEx Authorized ShipCenter,,Ponderay,ID,,US,+1 208-263-4211,https://local.fedex.com/en-us/id/ponderay/79788,,FedEx,Q459477
Motorcraft5508USAEnglish,ford,Rokstad Ford,,Idaho,ID,,US,+1 208-263-3127,,,Ford,Q44294
https://www.ford.com/dealerships/dealer-details/id/ponderay/mike-white-ford-of-sandpoint-llc/,ford_dealers_us,Mike White Ford of Sandpoint LLC,,Ponderay,ID,,US,+1 986-235-0006,https://www.ford.com/dealerships/dealer-details/id/ponderay/mike-white-ford-of-sandpoint-llc/,Mo-Fr 08:00-18:00; Sa 09:00-17:00,Ford Motor Company,Q44294
6565,gamestop_us,Kootenal Cutoff Rd Ponderay,,Ponderay,ID,,US,+1 208-263-5358,https://www.gamestop.com/search/?store=6565,Mo-Th 12:00-19:00; Fr-Sa 11:00-20:00; Su 12:00-18:00,GameStop,Q202210
d1e6cd81-458a-e111-8dde-005056934050,goodwill,204 Larkspur Store,,Ponderay,ID,,US,+1 208-265-1980,https://www.goodwill.org/locator/location/?store=ZDFlNmNkODEtNDU4YS1lMTExLThkZGUtMDA1MDU2OTM0MDUw&lat=NDguMzA4MDM=&lng=LTExNi41MzI4NA==,,Goodwill,Q5583655
https://salons.greatclips.com/us/id/ponderay/675-kootenai-cut-off-rd,greatclips,Great Clips,,Ponderay,ID,,US,+1 208-265-9262,https://salons.greatclips.com/us/id/ponderay/675-kootenai-cut-off-rd,Mo-Sa 09:00-18:00; Su 00:00-24:00,Great Clips,Q5598967
https://www.harborfreight.com/storelocator/300-bonner-mall-way-102-ponderay-83852?number=3145,harborfreight,"Harbor Freight Tools Ponderay, ID",,Ponderay,ID,,US,+1 208-920-5999,https://www.harborfreight.com/storelocator/300-bonner-mall-way-102-ponderay-83852?number=3145,Mo-Sa 08:00-20:00; Su 09:00-18:00,Harbor Freight Tools,Q5654601
12470,h_r_block,H&R Block,,Ponderay,ID,,US,+1 208-263-5179,https://www.hrblock.com/local-tax-offices/idaho/ponderay/476930-hwy-95-n/12470/,,H&R Block,Q5627799
https://office.jacksonhewitt.com/#27575923,jackson_hewitt,Jackson Hewitt,,Ponderay,ID,,US,+1 208-255-5223,https://office.jacksonhewitt.com/tax-preparation-services-locations/en/id/ponderay/476999-highway-95/52485,Mo-Sa 11:00-19:00; Su 12:00-16:00,Jackson Hewitt,Q6117132
GEGPS,marriott,SpringHill Suites Sandpoint,,Ponderay,ID,,US,+1 208-718-2051,https://www.marriott.com/GEGPS,,SpringHill Suites,Q7580351
https://locations.oreillyauto.com/id/ponderay/check-engine-light-testing-3456.html,oreilly,Your Ponderay O'Reilly Auto Parts Store,,Ponderay,ID,,US,+1 208-263-7057,https://locations.oreillyauto.com/id/ponderay/check-engine-light-testing-3456.html,Mo-Sa 07:30-21:00; Su 08:00-20:00,O'Reilly Auto Parts,Q7071951
https://locations.oreillyauto.com/id/ponderay/wiper-installation-3456.html,oreilly,Your Ponderay O'Reilly Auto Parts Store,,Ponderay,ID,,US,+1 208-263-7057,https://locations.oreillyauto.com/id/ponderay/wiper-installation-3456.html,Mo-Sa 07:30-21:00; Su 08:00-20:00,O'Reilly Auto Parts,Q7071951
https://locations.oreillyauto.com/id/ponderay/battery-testing-3456.html,oreilly,Your Ponderay O'Reilly Auto Parts Store,,Ponderay,ID,,US,+1 208-263-7057,https://locations.oreillyauto.com/id/ponderay/battery-testing-3456.html,Mo-Sa 07:30-21:00; Su 08:00-20:00,O'Reilly Auto Parts,Q7071951
https://locations.oreillyauto.com/id/ponderay/autopartes-3456.html,oreilly,Tu tienda O'Reilly Auto Parts en Ponderay,,Ponderay,ID,,US,+1 208-263-7057,https://locations.oreillyauto.com/id/ponderay/autopartes-3456.html,Mo-Sa 07:30-21:00; Su 08:00-20:00,O'Reilly Auto Parts,Q7071951
https://locations.papamurphys.com/#15430575,papamurphys,Pizza Takeout & Delivery,,Ponderay,ID,,US,+1 208-255-1557,https://locations.papamurphys.com/id/ponderay/1010-fontaine-drive,Mo-Th 11:00-19:00; Fr-Sa 11:00-20:00; Su 11:00-19:00,Papa Murphy's,Q7132349
070460,penske,7b Small Engines &amp; Marin,,PONDERAY,ID,,US,+1 208-263-5049,https://www.pensketruckrental.com/locations/us/idaho/ponderay/070460/,,Penske,Q81234570
https://stores.petco.com/#27959246,petco,Petco Ponderay,,Ponderay,ID,,US,+1 208-255-2202,https://stores.petco.com/id/ponderay/pet-supplies-ponderay-id-1277.html,Mo-Sa 09:00-20:00; Su 10:00-19:00,Petco,Q7171798
0000894397,phillips_66_conoco_76,PONDERAY ONE STOP,,PONDERAY,ID,,US,+1 208-263-6048,,,U76,Q1658320
0000904798,phillips_66_conoco_76,SCHWEITZER CONOCO,,PONDERAY,ID,,US,+1 208-265-8522,,,Conoco,Q109341187
home-depot-1810-9706,ppgpaints,HOME DEPOT 1810,,"Ponderay, ",ID,,US,+1 208-263-2373,https://www.ppgpaints.com/store-locator/us/idaho/ponderay-paint-stores/home-depot-1810-9706,,PPG Paints,Q83891559
260-bonner-mall-way,staples,"Staples Ponderay, ID",,Ponderay,ID,,US,,https://stores.staples.com/id/ponderay/260-bonner-mall-way,Mo-Fr 08:00-19:00; Sa 10:00-19:00; Su 10:00-18:00,Staples,Q785943
https://restaurants.subway.com/#14907673,subway,Subway,,Ponderay Bonner,ID,,US,+1 208-255-7525,https://restaurants.subway.com/united-states/id/ponderay/476534-hwy-95,Mo-Sa 08:00-21:00; Su 08:00-20:00,Subway,Q244457
https://locations.tacobell.com/#6143359,taco_bell,Taco Bell,,Ponderay,ID,,US,+1 208-255-1570,https://locations.tacobell.com/id/ponderay/476930-hwy-95-n.html,Mo-Th 07:00-24:00; Fr-Sa 07:00-01:00; Su 07:00-24:00,Taco Bell,Q752941
https://locations.tccrocks.com/id/ponderay/477100-n-highway-95.html,tcc_us,TCC Ponderay,,Ponderay,ID,,US,+1 208-263-2929,https://locations.tccrocks.com/id/ponderay/477100-n-highway-95.html,Mo-Sa 09:00-19:00; Su 10:00-17:00,Verizon,Q919641
1378008,usps,PONDERAY,,PONDERAY,ID,,US,+1 208-263-9803,,"Mo-Fr 08:00-13:00,14:00-17:00; Sa 08:00-11:00",United States Postal Service,Q668687
8385200003,usps_collection_boxes,USPS COLLECTION BOX - BLUE BOX,212 BONNER MALL WAY,PONDERAY,ID,,US,,,,United States Postal Service,Q668687
8385200001,usps_collection_boxes,USPS COLLECTION BOX - BLUE BOX,296 4TH ST,PONDERAY,ID,,US,,,,United States Postal Service,Q668687
8385200002,usps_collection_boxes,USPS COLLECTION BOX - PO LOBBY,296 4TH ST,PONDERAY,ID,,US,,,,United States Postal Service,Q668687
8385200004,usps_collection_boxes,USPS COLLECTION BOX - PO LOBBY,296 4TH ST,PONDERAY,ID,,US,,,,United States Postal Service,Q668687
A00000253227,verizon_us,TCC Ponderay,,PONDERAY,ID,,US,+1 208-263-9925,https://www.verizon.com/stores/details/idaho/ponderay/tcc-ponderay-1724622/,Mo-Sa 09:00-19:00; Su 10:00-17:00,Verizon,Q919641
,visa,,,PONDERAY,ID,,US,,,,,
,visa,,,PONDERAY,ID,,US,,,,,
,visa,,,PONDERAY,ID,,US,,,,,
,visa,,,PONDERAY,ID,,US,,,,,
,visa,,,PONDERAY,ID,,US,,,,,
,visa,,,PONDERAY,ID,,US,,,,,
https://locations.wendys.com/#27712342,wendys,"Wendy's Schweitzer Cutoff And 95 in Ponderay, ID",,Ponderay,ID,,US,+1 208-997-4111,https://locations.wendys.com/united-states/id/ponderay/477150-hwy-95,"Mo-Su 06:30-10:30,09:00-22:00",Wendy's,Q550258
502259ec4e8eac413c2964973383486a,western_union,WALMART #002485,,Ponderay,ID,,US,+1 208-265-8332,https://location.westernunion.com/us/id/ponderay/502259ec4e8eac413c2964973383486a,Mo-Su 07:00-21:00,Western Union,Q861042
