Ref,Spider,Name,Address,City,State,Zipcode,Country,Phone,Website,Hours,Brand,WikiData
https://stores.aldi.us/#4420366,aldi_sud_us,ALDI  6521 N. Ridge Road,,Madison,OH,,US,+1 833-463-7042,https://stores.aldi.us/oh/madison/6521-n-ridge-road,Mo-Su 09:00-20:00,ALDI,Q41171672
1748,autozone_us,AutoZone Auto Parts Madison,,Madison,OH,,US,+1 440-428-2153,https://www.autozone.com/locations/oh/madison/6646-n-ridge-rd.html,Mo-Sa 07:30-21:00; Su 09:00-19:00,AutoZone,Q4826087
357,bealls_us,Bealls,,Madison,OH,,US,+1 440-307-7778,https://stores.bealls.com/oh/madison/clothing-store-357.html,Mo-Th 09:00-21:00; Fr-Sa 09:00-21:30; Su 10:00-20:00,Bealls,Q4876153
228586,bluerhino,The Shore Beach Store,,Madison,OH,,US,+1 440-417-6263,,,Blue Rhino,Q65681213
211216,bluerhino,Dollar General #22391,,Madison,OH,,US,+1 440-428-8004,,,Blue Rhino,Q65681213
87762,bluerhino,Walmart #3608,,Madison,OH,,US,+1 440-417-0010,,,Blue Rhino,Q65681213
239994,bluerhino,Circle K #4705693,,Madison,OH,,US,+1 440-428-1991,,,Blue Rhino,Q65681213
160721,bluerhino,GetGo #3658 (Giant Eagle),,North Madison,OH,,US,+1 440-428-1232,,,Blue Rhino,Q65681213
152509,bluerhino,Walgreens #10518,,Madison,OH,,US,+1 440-428-3330,,,Blue Rhino,Q65681213
199168,bluerhino,South Madison Marathon,,Madison,OH,,US,+1 440-428-3112,,,Blue Rhino,Q65681213
0313,carpet_one_floor_and_home_us,Rakes Carpet One Floor & Home,,Madison,OH,,US,+1 440-428-7675,https://www.rakescarpetonemadison.com/,,Carpet One Floor & Home,Q121335910
https://stores.catofashions.com/#26560399,cato_us,Cato,,,OH,,US,+1 440-428-6010,https://stores.catofashions.com/oh/madison/2567-walter-green-commons,Mo-Sa 10:00-19:00; Su 13:00-18:00,Cato,Q16956136
2040004,chase_us,Madison Ridge - New branch,,Madison,OH,,US,+1 440-428-1158,https://locator.chase.com/oh/madison/6572-n-ridge-rd,Mo-Fr 09:00-17:00; Sa 09:00-14:00,Chase,Q524629
28387,chevrolet,CLASSIC CHEVROLET GMC,,Madison,OH,,US,+1 440-417-1000,https://www.driveclassicgm.com,Mo-Th 09:00-19:00; Fr-Sa 09:00-18:00,Chevrolet,Q29570
92432,citi,ATM Walgreens,,Madison,OH,,US,,,,Citibank,Q857063
35162,citi,ATM ANDOVER BANK,,Madison,OH,,US,,,,Citibank,Q857063
64739,citi,ATM Marcs,,Madison,OH,,US,,,,Citibank,Q857063
43444,citi,ATM Circle K,,Madison,OH,,US,,,,Citibank,Q857063
68583,citi,ATM PNC AT SHEETZ,,Madison,OH,,US,,,,Citibank,Q857063
68548,citi,ATM PNC AT SHEETZ,,Madison,OH,,US,,,,Citibank,Q857063
2163,dominos_pizza_us,Domino's Pizza,,Madison,OH,,US,+1 440-428-5000,https://pizza.dominos.com/ohio/madison/2707-hubbard-rd,Mo-Th 10:30-24:00; Fr-Sa 10:30-01:00; Su 10:30-24:00,Domino's,Q839466
https://www.edwardjones.com/us-en/financial-advisor/kevin-reeg,edwardjones,Kevin P Reeg,,Madison,OH,,US,+1 440-307-9510,https://www.edwardjones.com/us-en/financial-advisor/kevin-reeg,Mo-Fr 09:00-17:00,Edward Jones,Q5343830
E13926,enterprise,Madison,,Madison,OH,,US,+1 440-417-0021,,,Enterprise Rent-A-Car,Q17085454
Motorcraft3836USAEnglish,ford,Classic Ford of Madison,,Ohio,OH,,US,+1 440-466-1164,,,Ford,Q44294
https://www.ford.com/dealerships/dealer-details/oh/madison/classic-ford-of-madison/,ford_dealers_us,Classic Ford of Madison,,Madison,OH,,US,+1 440-844-4757,https://www.ford.com/dealerships/dealer-details/oh/madison/classic-ford-of-madison/,Mo-Th 09:00-19:00; Fr-Sa 09:00-18:00,Ford Motor Company,Q44294
6393,gamestop_us,Walter Green Commons,,Madison,OH,,US,+1 440-490-3080,https://www.gamestop.com/search/?store=6393,Mo-Th 12:00-19:00; Fr-Sa 11:00-21:00; Su 12:00-19:00,GameStop,Q202210
4097,gianteagle,North Madison Giant Eagle,,North Madison,OH,,US,+1 440-428-1156,,Mo-Su 07:00-21:00,Giant Eagle,Q1522721
3658,gianteagle,North Madison GetGo,,North Madison,OH,,US,+1 440-428-1232,,Mo-Su 06:00-21:00,Giant Eagle,Q1522721
dd950841-c790-eb11-80f1-00505689ac90,goodwill,Madison Store and Donation Center,,Madison,OH,,US,+1 440-417-0101,https://www.goodwill.org/locator/location/?store=ZGQ5NTA4NDEtYzc5MC1lYjExLTgwZjEtMDA1MDU2ODlhYzkw&lat=NDEuODAyNDc=&lng=LTgxLjA1MTIz,,Goodwill,Q5583655
https://salons.greatclips.com/us/oh/madison/2575-walter-green-cmns,greatclips,Great Clips,,Madison,OH,,US,+1 440-428-0005,https://salons.greatclips.com/us/oh/madison/2575-walter-green-cmns,Mo-Fr 08:30-19:00; Sa 09:00-18:00; Su 09:00-14:00,Great Clips,Q5598967
clemshx-hampton-madison,hilton,Hampton Inn Madison,,,OH,,US,+1 440-307-4450,https://www.hilton.com/ar/hotels/clemshx-hampton-madison/,,Hampton by Hilton,Q5646230
23752,huntingtonbank,Madison N Ridge Rd,,Madison,OH,,US,+1 440-428-5182,https://www.huntington.com/Community/branch-info?locationId=23752,Mo-Fr 09:00-17:00; Sa 09:00-12:00; Su 00:00-00:00,Huntington Bank,Q798819
31412,h_r_block,H&R Block,,Madison,OH,,US,+1 440-428-4304,https://www.hrblock.com/local-tax-offices/ohio/madison/6716-n-ridge-rd/31412/,,H&R Block,Q5627799
https://office.jacksonhewitt.com/#27579298,jackson_hewitt,Jackson Hewitt,,Madison,OH,,US,+1 440-715-7014,https://office.jacksonhewitt.com/tax-preparation-services-locations/en/oh/madison/6067-n-ridge-road/53608,Mo-Sa 11:00-19:00; Su 12:00-16:00,Jackson Hewitt,Q6117132
1166,loves,Site 863,,Madison,OH,,US,+1 440-307-6005,,,Love's,Q1872496
156823,marathon_petroleum_us,S MADISON MARATHON,,MADISON,OH,,US,+1 440-428-3112,,,Marathon,Q458363
7294,murphy_usa_us,,,Madison,OH,,US,+1 440-417-0136,,Mo-Sa 05:00-23:00; Su 05:30-22:30,Murphy USA,Q19604459
https://locations.oreillyauto.com/oh/madison/check-engine-light-testing-4811.html,oreilly,Your Madison O'Reilly Auto Parts Store,,Madison,OH,,US,+1 440-210-3425,https://locations.oreillyauto.com/oh/madison/check-engine-light-testing-4811.html,Mo-Sa 07:30-21:00; Su 09:00-20:00,O'Reilly Auto Parts,Q7071951
https://locations.oreillyauto.com/oh/madison/wiper-installation-4811.html,oreilly,Your Madison O'Reilly Auto Parts Store,,Madison,OH,,US,+1 440-210-3425,https://locations.oreillyauto.com/oh/madison/wiper-installation-4811.html,Mo-Sa 07:30-21:00; Su 09:00-20:00,O'Reilly Auto Parts,Q7071951
https://locations.oreillyauto.com/oh/madison/battery-testing-4811.html,oreilly,Your Madison O'Reilly Auto Parts Store,,Madison,OH,,US,+1 440-210-3425,https://locations.oreillyauto.com/oh/madison/battery-testing-4811.html,Mo-Sa 07:30-21:00; Su 09:00-20:00,O'Reilly Auto Parts,Q7071951
https://locations.oreillyauto.com/oh/madison/autopartes-4811.html,oreilly,Tu tienda O'Reilly Auto Parts en Madison,,Madison,OH,,US,+1 440-210-3425,https://locations.oreillyauto.com/oh/madison/autopartes-4811.html,Mo-Sa 07:30-21:00; Su 09:00-20:00,O'Reilly Auto Parts,Q7071951
oh_madison_6640-n-ridge-rd,pizza_hut_us,6640 N Ridge Rd,,Madison,OH,,US,+1 440-428-1155,https://locations.pizzahut.com/oh/madison/6640-n-ridge-rd,,Pizza Hut,Q191615
745,sheetz,Sheetz,,Madison,OH,,US,+1 440-307-4286,https://orders.sheetz.com/findASheetz/store/745,24/7,Sheetz,Q7492551
792,sheetz,Sheetz,,Madison,OH,,US,+1 440-983-4008,https://orders.sheetz.com/findASheetz/store/792,24/7,Sheetz,Q7492551
2503,snap_fitness,"Madison, OH",6581 N Ridge Rd,Madison,OH,,US,+1 440-290-4255,https://www.snapfitness.com/us/gyms/madison-oh,24/7,Snap Fitness,Q7547254
https://restaurants.subway.com/#14903136,subway,Subway Wal-Mart #3608,,North Madison Lake,OH,,US,+1 440-417-0447,https://restaurants.subway.com/united-states/oh/north-madison/6067-north-ridge-rd,Mo-Su 08:00-21:00,Subway,Q244457
https://restaurants.subway.com/#14910365,subway,Subway,,Madison Lake,OH,,US,+1 440-428-7827,https://restaurants.subway.com/united-states/oh/madison/6700-north-ridge-road,Mo-Su 09:00-22:00,Subway,Q244457
0788341600,sunoco_us,Sunoco,,MADISON,OH,,US,+1 440-428-2303,,,Sunoco,Q1423218
0408780500,sunoco_us,Sunoco,,MADISON,OH,,US,+1 440-428-2215,,Mo-Su 06:00-23:00,Sunoco,Q1423218
https://locations.tacobell.com/#3917197,taco_bell,Taco Bell,,North Madison,OH,,US,+1 440-536-9886,https://locations.tacobell.com/oh/north-madison/6568-north-ridge-road.html,Mo-Th 09:00-02:00; Fr-Sa 09:00-03:00; Su 09:00-02:00,Taco Bell,Q752941
783E,tmobile_us,Green Rd & North Ridge Rd,,Madison,OH,,US,+1 440-417-0001,https://www.t-mobile.com/store-locator/oh/madison/green-rd-north-ridge-rd,,T-Mobile,Q3511885
1371373,usps,MADISON,,MADISON,OH,,US,+1 440-428-5134,,Mo-Fr 08:30-17:00; Sa 09:00-13:00,United States Postal Service,Q668687
4405700000,usps_collection_boxes,USPS COLLECTION BOX - BLUE BOX,46 W MAIN ST,MADISON,OH,,US,,,,United States Postal Service,Q668687
4405700001,usps_collection_boxes,USPS COLLECTION BOX - BLUE BOX,49 PARK ST,MADISON,OH,,US,,,,United States Postal Service,Q668687
4405700010,usps_collection_boxes,USPS COLLECTION BOX - BLUE BOX,375 N LAKE ST,MADISON,OH,,US,,,,United States Postal Service,Q668687
4405700011,usps_collection_boxes,USPS COLLECTION BOX - BLUE BOX,375 N LAKE ST,MADISON,OH,,US,,,,United States Postal Service,Q668687
4405700009,usps_collection_boxes,USPS COLLECTION BOX - PO LOBBY,375 N LAKE ST,MADISON,OH,,US,,,,United States Postal Service,Q668687
4405700017,usps_collection_boxes,USPS COLLECTION BOX - PO LOBBY,375 N LAKE ST,MADISON,OH,,US,,,,United States Postal Service,Q668687
4405700004,usps_collection_boxes,USPS COLLECTION BOX - BLUE BOX,6708 N RIDGE RD,MADISON,OH,,US,,,,United States Postal Service,Q668687
4405700006,usps_collection_boxes,USPS COLLECTION BOX - BLUE BOX,6666 N RIDGE RD,MADISON,OH,,US,,,,United States Postal Service,Q668687
4405700013,usps_collection_boxes,USPS COLLECTION BOX - BLUE BOX,2610 HUBBARD RD,MADISON,OH,,US,,,,United States Postal Service,Q668687
4405700005,usps_collection_boxes,USPS COLLECTION BOX - BLUE BOX,6576 N RIDGE RD,MADISON,OH,,US,,,,United States Postal Service,Q668687
4405700003,usps_collection_boxes,USPS COLLECTION BOX - BLUE BOX,1971 HUBBARD RD,MADISON,OH,,US,,,,United States Postal Service,Q668687
4405700014,usps_collection_boxes,USPS COLLECTION BOX - BLUE BOX,6067 N RIDGE RD,MADISON,OH,,US,,,,United States Postal Service,Q668687
https://vcahospitals.com/north-ridge,vca,VCA North Ridge Animal Hospital,,Madison,OH,,US,+1 440-428-5166,https://vcahospitals.com/north-ridge,Mo-Th 08:00-18:00; Fr 08:00-17:00,VCA,Q7906620
,visa,,,MADISON,OH,,US,,,,,
,visa,,,MADISON,OH,,US,,,,,
,visa,,,MADISON,OH,,US,,,,,
,visa,,,MADISON,OH,,US,,,,,
,visa,,,MADISON,OH,,US,,,,,
,visa,,,MADISON,OH,,US,,,,,
,visa,,,MADISON,OH,,US,,,,,
,visa,,,MADISON,OH,,US,,,,,
,visa,,,MADISON,OH,,US,,,,,
,visa,,,MADISON,OH,,US,,,,,
,visa,,,MADISON,OH,,US,,,,,
,visa,,,MADISON,OH,,US,,,,,
,visa,,,MADISON,OH,,US,,,,,
,visa,,,MADISON,OH,,US,,,,,
,visa,,,NORTH MADISON,OH,,US,,,,,
,visa,,,NORTH MADISON,OH,,US,,,,,
,visa,,,MADISON,OH,,US,,,,,
,visa,,,MADISON,OH,,US,,,,,
,visa,,,MADISON,OH,,US,,,,,
,visa,,,MADISON,OH,,US,,,,,
,visa,,,MADISON,OH,,US,,,,,
,visa,,,MADISON,OH,,US,,,,,
,visa,,,MADISON,OH,,US,,,,,
,visa,,,MADISON,OH,,US,,,,,
,visa,,,MADISON,OH,,US,,,,,
,visa,,,MADISON,OH,,US,,,,,
,visa,,,MADISON,OH,,US,,,,,
,visa,,,MADISON,OH,,US,,,,,
,visa,,,MADISON,OH,,US,,,,,
,visa,,,MADISON,OH,,US,,,,,
,visa,,,MADISON,OH,,US,,,,,
,visa,,,MADISON,OH,,US,,,,,
,visa,,,MADISON,OH,,US,,,,,
,visa,,,MADISON,OH,,US,,,,,
,visa,,,MADISON,OH,,US,,,,,
,visa,,,MADISON,OH,,US,,,,,
,visa,,,MADISON,OH,,US,,,,,
,visa,,,WILLOUGHBY,OH,,US,,,,,
https://www.walgreens.com/locator/walgreens-6707+n+ridge+rd-madison-oh-44057/id=10518,walgreens,Walgreens,,Madison,OH,,US,+1 440-428-3330,https://www.walgreens.com/locator/walgreens-6707+n+ridge+rd-madison-oh-44057/id=10518,Mo-Su 09:00-21:00,Walgreens,Q1591889
https://locations.wendys.com/#9253809,wendys,"Wendy's Madison #24 in Madison, OH",,Madison,OH,,US,+1 440-428-9102,https://locations.wendys.com/united-states/oh/madison/6598-n-ridge-rd,"Mo-Su 06:00-10:30,07:00-22:00",Wendy's,Q550258
417c91d7bf4dade4f4b613397816a1de,western_union,WALMART #003608,,Madison,OH,,US,+1 440-417-0010,https://location.westernunion.com/us/oh/madison/417c91d7bf4dade4f4b613397816a1de,Mo-Su 07:00-21:00,Western Union,Q861042
d6e04d882cded8910f74bc4a26e3bb93,western_union,GIANT EAGLE #4097,,Madison,OH,,US,+1 440-428-1156,https://location.westernunion.com/us/oh/madison/d6e04d882cded8910f74bc4a26e3bb93,Mo-Su 08:00-20:00,Western Union,Q861042
