Ref,Spider,Name,Address,City,State,Zipcode,Country,Phone,Website,Hours,Brand,WikiData
https://stores.advanceautoparts.com/nc/kings-mountain/512-e-king-st,advance_auto_parts_us,Advance Auto Parts,,Kings Mountain,NC,,US,+1 704-739-1033,https://stores.advanceautoparts.com/nc/kings-mountain/512-e-king-st,Mo-Sa 07:30-21:00; Su 09:00-20:00,Advance Auto Parts,Q4686051
https://locations.arbys.com/nc/kingsmountain/216-cleveland-avenue.html,arbys_us,"Arby's Fast-Food Drive Through Near You in Kings Mountain, NC",,Kings Mountain,NC,,US,+1 704-750-7377,https://locations.arbys.com/nc/kingsmountain/216-cleveland-avenue.html,Mo-Su 10:00-22:00,Arby's,Q630866
2065889b64a1411da9bd5754bb95b422,atrium_health,"Atrium Health Kings Mountain, a facility of Atrium Health Cleveland",,Kings Mountain,NC,,US,+1 980-487-5000,https://atriumhealth.org/locations/detail/atrium-health-kings-mountain,,Atrium Health,Q5044932
04960d93fc3c4f38b487a31b43179491,atrium_health,Atrium Health Women's Care Shelby OB/GYN,,Kings Mountain,NC,,US,+1 980-487-2800,https://atriumhealth.org/locations/detail/atrium-health-womens-care-shelby-obgyn-kings-mountain,,Atrium Health,Q5044932
2e24c61e2fb54d738091ac9621d816a3,atrium_health,Atrium Health Kings Mountain Pain Management,,Kings Mountain,NC,,US,+1 980-487-5500,https://atriumhealth.org/locations/detail/atrium-health-kings-mountain-pain-management,,Atrium Health,Q5044932
c85dfa011c0249e2a7cd8599caaf45f6,atrium_health,Atrium Health Kings Mountain Emergency Department,,Kings Mountain,NC,,US,+1 980-487-5000,https://atriumhealth.org/locations/detail/atrium-health-kings-mountain-emergency-department,,Atrium Health,Q5044932
ba8f6fd7ac854cbcadaa1ec72082e783,atrium_health,Atrium Health Kings Mountain Rehabilitation,,Kings Mountain,NC,,US,+1 980-487-5436,https://atriumhealth.org/locations/detail/atrium-health-kings-mountain-rehabilitation,,Atrium Health,Q5044932
143d510bd4c84ed6996c240e36c0745d,atrium_health,Atrium Health Levine Children's Shelby Children's Clinic,,Kings Mountain,NC,,US,+1 980-487-2950,https://atriumhealth.org/medical-services/childrens-services/locations/detail/atrium-health-levine-childrens-shelby-childrens-clinic-kings-mountain,,Atrium Health,Q5044932
d2dd086ebee1418e8f2e231ddf4653b5,atrium_health,Atrium Health Primary Care Kings Mountain Internal Medicine,,Kings Mountain,NC,,US,+1 980-487-2290,https://atriumhealth.org/locations/detail/atrium-health-primary-care-kings-mountain-internal-medicine,,Atrium Health,Q5044932
2199ca13fcd74901925304b562117a92,atrium_health,Atrium Health Endocrinology,,Kings Mountain,NC,,US,+1 980-487-2270,https://atriumhealth.org/locations/detail/atrium-health-endocrinology,,Atrium Health,Q5044932
3918,autozone_us,AutoZone Auto Parts Kings Mountain,,Kings Mountain,NC,,US,+1 704-730-8767,https://www.autozone.com/locations/nc/kings-mountain/611-e-king-st.html,Mo-Fr 07:30-21:00; Sa-Su 08:00-21:00,AutoZone,Q4826087
213639,bluerhino,Tom's Family Mart,,Kings Mountain,NC,,US,+1 704-775-8822,,,Blue Rhino,Q65681213
101765,bluerhino,Ole Country Store,,Kings Mountain,NC,,US,+1 704-739-7534,,,Blue Rhino,Q65681213
40945,bluerhino,Food Lion #230,,Kings Mountain,NC,,US,+1 704-739-8044,,,Blue Rhino,Q65681213
156584,bluerhino,Walgreens #15110,,Kings Mountain,NC,,US,+1 704-739-2127,,,Blue Rhino,Q65681213
161508,bluerhino,"Bridges Hardware, Inc. #12420-9",,Kings Mountain,NC,,US,+1 704-739-5461,,,Blue Rhino,Q65681213
222652,bluerhino,Lucky Mart,,Kings Mountain,NC,,US,+1 828-962-4090,,,Blue Rhino,Q65681213
165245,bluerhino,Family Dollar #00269,,KINGS MOUNTAIN,NC,,US,+1 704-739-8501,,,Blue Rhino,Q65681213
96543,bluerhino,Linwood Family Mart,,Kings Mountain,NC,,US,+1 704-734-5246,,,Blue Rhino,Q65681213
236244,bluerhino,Circle K #2723970,,Kings Mountain,NC,,US,+1 704-739-4440,,,Blue Rhino,Q65681213
192042,bluerhino,Walgreens #17863,,Kings Mountain,NC,,US,+1 704-739-9771,,,Blue Rhino,Q65681213
86990,bluerhino,Food Lion #2654,,Kings Mountain,NC,,US,+1 704-739-7458,,,Blue Rhino,Q65681213
nc/kings-mountain/218-cleveland-ave,bojangles,"Bojangles Kings Mountain, NC",,Kings Mountain,NC,,US,+1 704-730-0206,https://locations.bojangles.com/nc/kings-mountain/218-cleveland-ave.html,,Bojangles',Q891163
08811736921202808600100000000000,bp,BP,,Kings Mountain,NC,,US,+1 704-730-1663,,24/7,BP,Q152057
28976137167242808600100000000000,bp,BP,,Kings Mountain,NC,,US,+1 704-739-9218,,Mo-Fr 05:30-23:30; Sa 05:30-24:00; Su 07:00-22:00,BP,Q152057
27813,burgerking,Burger King,,Kings Moutain,NC,,US,+1 704-318-7882,https://www.bk.com/store-locator/store/restaurant_234934,Mo-Sa 06:00-00:00; Su 07:00-00:00,Burger King,Q177054
46786,citi,ATM CVS,,Kings Mountain,NC,,US,,,,Citibank,Q857063
93334,citi,ATM Walgreens,,Kings Mountain,NC,,US,,,,Citibank,Q857063
41615,citi,ATM Circle K,,Kings Mountain,NC,,US,,,,Citibank,Q857063
92074,citi,ATM Walgreens,,Kings Mountain,NC,,US,,,,Citibank,Q857063
,credit_union_us,Skyla CU,,Kings Mountain,NC,,US,,,Mo-Fr 09:00-05:00,,
80424100,cricket_wireless,Cricket Wireless Authorized Retailer,,Kings Mountain,NC,,US,+1 704-750-3335,https://www.cricketwireless.com/stores/ll/US/NC/Kings-Mountain/507-E-King-St,Mo-Sa 10:00-19:00,Cricket Wireless,Q5184987
6407,cvs_us,CVS Pharmacy,,Kings Mountain,NC,,US,+1 704-739-2571,https://www.cvs.com/store-locator/kings-mountain-nc-pharmacies/1017-shelby-rd-kings-mountain-nc-28086/storeid=6407,Mo-Fr 08:00-21:00; Sa 09:00-21:00; Su 10:00-19:00,CVS Pharmacy,Q2078880
19497,dollar_general,Dollar General,,Kings Mountain,NC,,US,+1 980-291-0010,https://www.dollargeneral.com/store-directory/nc/kings-mountain/19497,Mo-Su 08:00-22:00,Dollar General,Q145168
18461,dollar_general,Dollar General,,Kings Mountain,NC,,US,+1 980-553-0800,https://www.dollargeneral.com/store-directory/nc/kings-mountain/18461,Mo-Su 08:00-22:00,Dollar General,Q145168
8856,dominos_pizza_us,Domino's Pizza,,Kings Mountain,NC,,US,+1 704-734-0999,https://pizza.dominos.com/north-carolina/kings-mountain/110-west-king-st,Mo-Th 10:30-24:00; Fr-Sa 10:30-01:00; Su 10:30-24:00,Domino's,Q839466
https://www.edwardjones.com/us-en/financial-advisor/joshua-shelton,edwardjones,Joshua Shelton,,Kings Mountain,NC,,US,+1 704-734-4832,https://www.edwardjones.com/us-en/financial-advisor/joshua-shelton,Mo 08:00-17:00; Tu-Fr 08:00-16:00,Edward Jones,Q5343830
2074,fresenius_kidney_care_us,Fresenius Kidney Care Kings Mountain,,Kings Mountain,NC,,US,+1 800-881-5101,https://www.freseniuskidneycare.com/dialysis-centers/north-carolina/2074,Mo-Sa 05:00-17:00,,
31998,h_r_block,H&R Block,,Kings Mountain,NC,,US,+1 704-739-2865,https://www.hrblock.com/local-tax-offices/north-carolina/kings-mountain/kingsview-building/31998/,,H&R Block,Q5627799
147,ingles,Kings Mountain,,Kings Mountain,NC,,US,+1 704-739-2970,https://www.ingles-markets.com/storelocate/storeinfo.php?storenum=147,Mo-Su 06:00-23:00,Ingles,Q6032595
https://office.jacksonhewitt.com/#27578618,jackson_hewitt,Jackson Hewitt,,Kings Mountain,NC,,US,+1 704-730-0772,https://office.jacksonhewitt.com/tax-preparation-services-locations/en/nc/kings-mountain/308-east-king-street/11449,Mo-Fr 10:00-18:00; Sa 09:00-17:00,Jackson Hewitt,Q6117132
https://locations.kfc.com/#38853692,kfc,Chicken Nuggets Near Kings Mountain,,Kings Mountain,NC,,US,,https://locations.kfc.com/nc/kings-mountain/409-e-king-street-G135959/chickennugget,Mo-Su 10:30-22:30,KFC,Q524757
https://locations.kfc.com/#39140882,kfc,Chicken Nuggets Near Kings Mountain,,Kings Mountain,NC,,US,,https://locations.kfc.com/nc/kings-mountain/409-e-king-street-C426001/chickennugget,,KFC,Q524757
160289,marathon_petroleum_us,Toms Family Mart,,Kings Mountain,NC,,US,+1 704-739-9594,,,Marathon,Q458363
159273,marathon_petroleum_us,3 Point Market & Grill,,Kings Mountain,NC,,US,+1 704-739-2800,,,Marathon,Q458363
https://locations.oreillyauto.com/nc/kingsmountain/check-engine-light-testing-4892.html,oreilly,Your Kings Mountain O'Reilly Auto Parts Store,,Kings Mountain,NC,,US,+1 980-292-2950,https://locations.oreillyauto.com/nc/kingsmountain/check-engine-light-testing-4892.html,Mo-Sa 07:30-21:00; Su 09:00-20:00,O'Reilly Auto Parts,Q7071951
https://locations.oreillyauto.com/nc/kingsmountain/wiper-installation-4892.html,oreilly,Your Kings Mountain O'Reilly Auto Parts Store,,Kings Mountain,NC,,US,+1 980-292-2950,https://locations.oreillyauto.com/nc/kingsmountain/wiper-installation-4892.html,Mo-Sa 07:30-21:00; Su 09:00-20:00,O'Reilly Auto Parts,Q7071951
https://locations.oreillyauto.com/nc/kingsmountain/autopartes-4892.html,oreilly,Tu tienda O'Reilly Auto Parts en Kings Mountain,,Kings Mountain,NC,,US,+1 980-292-2950,https://locations.oreillyauto.com/nc/kingsmountain/autopartes-4892.html,Mo-Sa 07:30-21:00; Su 09:00-20:00,O'Reilly Auto Parts,Q7071951
https://locations.oreillyauto.com/nc/kingsmountain/battery-testing-4892.html,oreilly,Your Kings Mountain O'Reilly Auto Parts Store,,Kings Mountain,NC,,US,+1 980-292-2950,https://locations.oreillyauto.com/nc/kingsmountain/battery-testing-4892.html,Mo-Sa 07:30-21:00; Su 09:00-20:00,O'Reilly Auto Parts,Q7071951
https://locations.papajohns.com/#10692517,papa_johns,Papa John's,,Kings Mountain,NC,,US,+1 704-730-1434,https://locations.papajohns.com/united-states/nc/28086/kings-mountain/231-south-battleground-avenue,Mo-Th 10:00-24:00; Fr-Sa 10:00-01:00; Su 10:00-24:00,Papa John's Pizza,Q2759586
0000889914,phillips_66_conoco_76,SILVER EXPRESS,,KINGS MOUNTAIN,NC,,US,+1 704-734-1951,,,U76,Q1658320
nc_kings-mountain_1031-shelby-rd,pizza_hut_us,1031 Shelby Rd.,,Kings Mountain,NC,,US,+1 704-739-4436,https://locations.pizzahut.com/nc/kings-mountain/1031-shelby-rd,,Pizza Hut,Q191615
charlotte-paint-center-26552,ppgpaints,CHARLOTTE PAINT CENTER,,"Kings Mountain, ",NC,,US,+1 704-739-5202,https://www.ppgpaints.com/store-locator/us/north-carolina/kings-mountain-paint-stores/charlotte-paint-center-26552,,PPG Paints,Q83891559
https://restaurants.subway.com/#14899754,subway,Subway Mountain Plaza,,Kings Mountain Cleveland,NC,,US,+1 704-734-4782,https://restaurants.subway.com/united-states/nc/kings-mountain/105-york-rd,Mo-Fr 08:00-22:00; Sa-Su 09:00-22:00,Subway,Q244457
https://restaurants.subway.com/#14896852,subway,Subway Bp Gas Station/C-Store,,Kings Mountain Cleveland,NC,,US,+1 704-734-0622,https://restaurants.subway.com/united-states/nc/kings-mountain/2120-shelby-road,Mo-Su 07:00-21:00,Subway,Q244457
https://locations.tacobell.com/#3917212,taco_bell,Taco Bell,,Kings Mountain,NC,,US,+1 704-739-2427,https://locations.tacobell.com/nc/kings-mountain/705-york-road.html,Mo-Su 08:00-02:00,Taco Bell,Q752941
1369086,usps,KINGS MOUNTAIN,,KINGS MOUNTAIN,NC,,US,+1 704-739-6138,,Mo-Fr 08:00-16:45; Sa 09:00-12:00,United States Postal Service,Q668687
2808600005,usps_collection_boxes,USPS COLLECTION BOX - BLUE BOX,1101 OAK GROVE RD,KINGS MOUNTAIN,NC,,US,,,,United States Postal Service,Q668687
2808600006,usps_collection_boxes,USPS COLLECTION BOX - BLUE BOX,300 W MOUNTAIN ST,KINGS MOUNTAIN,NC,,US,,,,United States Postal Service,Q668687
2808600013,usps_collection_boxes,USPS COLLECTION BOX - BLUE BOX,225 S BATTLEGROUND AVE,KINGS MOUNTAIN,NC,,US,,,,United States Postal Service,Q668687
2808600010,usps_collection_boxes,USPS COLLECTION BOX - BLUE BOX,100 S CHEROKEE ST,KINGS MOUNTAIN,NC,,US,,,,United States Postal Service,Q668687
2808600019,usps_collection_boxes,USPS COLLECTION BOX - BLUE BOX,115 E GOLD ST,KINGS MOUNTAIN,NC,,US,,,,United States Postal Service,Q668687
2808600018,usps_collection_boxes,USPS COLLECTION BOX - BLUE BOX,115 E GOLD ST,KINGS MOUNTAIN,NC,,US,,,,United States Postal Service,Q668687
2808600020,usps_collection_boxes,USPS COLLECTION BOX - PO LOBBY,115 E GOLD ST,KINGS MOUNTAIN,NC,,US,,,,United States Postal Service,Q668687
2808600021,usps_collection_boxes,USPS COLLECTION BOX - PO LOBBY,115 E GOLD ST,KINGS MOUNTAIN,NC,,US,,,,United States Postal Service,Q668687
2808600025,usps_collection_boxes,USPS COLLECTION BOX - PO LOBBY,115 E GOLD ST,KINGS MOUNTAIN,NC,,US,,,,United States Postal Service,Q668687
2808600007,usps_collection_boxes,USPS COLLECTION BOX - BLUE BOX,410 E KING ST,KINGS MOUNTAIN,NC,,US,,,,United States Postal Service,Q668687
A00000250980,verizon_us,Victra Kings Mountain,,Kings Mountain,NC,,US,+1 704-469-5589,https://www.verizon.com/stores/details/north-carolina/kings-mountain/victra-kings-mountain-1482122/,Mo-Fr 11:00-18:00; Sa 10:00-17:00,Verizon,Q919641
,visa,,,KINGS MOUNTAIN,NC,,US,,,,,
,visa,,,STANLEY,NC,,US,,,,,
,visa,,,KINGS MOUNTAIN,NC,,US,,,,,
,visa,,,KINGS MTN,NC,,US,,,,,
,visa,,,KING MOUNTAIN,NC,,US,,,,,
,visa,,,KINGS MOUNTAIN,NC,,US,,,,,
,visa,,,KINGS MOUNTAIN,NC,,US,,,,,
,visa,,,KINGS MOUNTAIN,NC,,US,,,,,
,visa,,,KINGS MTN.,NC,,US,,,,,
,visa,,,KINGS MTN.,NC,,US,,,,,
,visa,,,KINGS MTN.,NC,,US,,,,,
,visa,,,KINGS MOUNTAIN,NC,,US,,,,,
,visa,,,KINGS MOUNTAIN,NC,,US,,,,,
,visa,,,KINGS MOUNTAIN,NC,,US,,,,,
,visa,,,KINGS MOUNTAIN,NC,,US,,,,,
,visa,,,KINGS MOUNTAIN,NC,,US,,,,,
,visa,,,KINGS MOUNTAIN,NC,,US,,,,,
,visa,,,KINGS MOUNTAIN,NC,,US,,,,,
,visa,,,KINGS MOUNTAIN,NC,,US,,,,,
,visa,,,KINGS MOUNTAIN,NC,,US,,,,,
,visa,,,KINGS MOUNTAIN,NC,,US,,,,,
,visa,,,KINGS MOUNTAIN,NC,,US,,,,,
,visa,,,KINGS MTN,NC,,US,,,,,
,visa,,,KINGS MOUNTAIN,NC,,US,,,,,
,visa,,,KINGS MOUNTAIN,NC,,US,,,,,
,visa,,,KINGS MOUNTAIN,NC,,US,,,,,
,visa,,,KINGS MOUNTAIN,NC,,US,,,,,
,visa,,,KINGS MOUNTAIN,NC,,US,,,,,
,visa,,,KINGS MOUNTAIN,NC,,US,,,,,
,visa,,,KINGS MOUNTAIN,NC,,US,,,,,
,visa,,,KINGS MOUNTAIN,NC,,US,,,,,
,visa,,,KINGS MTN,NC,,US,,,,,
,visa,,,KINGS MOUNTAIN,NC,,US,,,,,
,visa,,,KINGS MOUNTAIN,NC,,US,,,,,
,visa,,,KINGS MOUNTIAN,NC,,US,,,,,
,visa,,,KINGS MOUNTAIN,NC,,US,,,,,
,visa,,,KINGS MOUNTAIN,NC,,US,,,,,
,visa,,,KINGS MOUNTAIN,NC,,US,,,,,
,visa,,,KINGS MOUNTAIN,NC,,US,,,,,
,visa,,,KINGS MOUNTAIN,NC,,US,,,,,
,visa,,,KINGS MOUNTAIN,NC,,US,,,,,
,visa,,,KINGS MOUNTAIN,NC,,US,,,,,
,visa,,,KINGS MOUNTAIN,NC,,US,,,,,
,visa,,,KINGS MOUNTAIN,NC,,US,,,,,
,visa,,,KINGS MOUNTAIN,NC,,US,,,,,
,visa,,,KINGS MOUNTAIN,NC,,US,,,,,
,visa,,,KINGS MTN,NC,,US,,,,,
,visa,,,KINGS MOUNTAIN,NC,,US,,,,,
,visa,,,KINGS MOUNTAIN,NC,,US,,,,,
,visa,,,KINGS MOUNTAIN,NC,,US,,,,,
453,waffle_house_us,Waffle House #453,,KINGS MOUNTAIN,NC,,US,+1 704-739-0138,https://locations.wafflehouse.com/kingsmountain-nc-453,24/7,Waffle House,Q1701206
https://www.walgreens.com/locator/walgreens-601+e+kings+st-kings+mountain-nc-28086/id=17863,walgreens,Walgreens,,Kings Mountain,NC,,US,+1 704-739-9771,https://www.walgreens.com/locator/walgreens-601+e+kings+st-kings+mountain-nc-28086/id=17863,Mo-Sa 09:00-21:00; Su 09:00-19:00,Walgreens,Q1591889
https://www.walgreens.com/locator/walgreens-900+shelby+rd-kings+mountain-nc-28086/id=15110,walgreens,Walgreens,,Kings Mountain,NC,,US,+1 704-739-2127,https://www.walgreens.com/locator/walgreens-900+shelby+rd-kings+mountain-nc-28086/id=15110,Mo-Su 09:00-21:00,Walgreens,Q1591889
1027__SHELBY__RD_KINGS__MOUNTAIN_NC_28086,wellsfargo,,1027 SHELBY RD,KINGS MOUNTAIN,NC,,US,+1 800-869-3557,https://www.wellsfargo.com/locator/bank/1027__SHELBY__RD_KINGS__MOUNTAIN_NC_28086/,,Wells Fargo,Q744149
https://locations.wendys.com/#9253331,wendys,"Wendy's 65 Kings Mtn. in Kings Mountain, NC",,Kings Mountain,NC,,US,+1 704-730-1685,https://locations.wendys.com/united-states/nc/kings-mountain/713-york-road,"Mo-Th 06:00-10:30,09:00-22:00; Fr-Sa 06:00-10:30,09:00-23:00; Su 06:00-10:30,09:00-22:00",Wendy's,Q550258
3d05854ae17984ae637c8d101d2c196d,western_union,WALMART #007146,,Kings Mountain,NC,,US,+1 704-259-5213,https://location.westernunion.com/us/nc/kings-mountain/3d05854ae17984ae637c8d101d2c196d,Mo-Su 07:00-21:00,Western Union,Q861042
6ead283cb31be03dd6b13cb41f8f18d6,western_union,WALGREENS #17863,,Kings Mountain,NC,,US,+1 704-739-9771,https://location.westernunion.com/us/nc/kings-mountain/6ead283cb31be03dd6b13cb41f8f18d6,Mo-Sa 08:00-21:00; Su 08:00-19:00,Western Union,Q861042
