Ref,Spider,Name,Address,City,State,Zipcode,Country,Phone,Website,Hours,Brand,WikiData
https://stores.advanceautoparts.com/oh/hebron/610-e-main-st,advance_auto_parts_us,Advance Auto Parts,,Hebron,OH,,US,+1 740-928-0888,https://stores.advanceautoparts.com/oh/hebron/610-e-main-st,Mo-Sa 07:30-21:00; Su 09:00-20:00,Advance Auto Parts,Q4686051
77536,bluerhino,Pilot Travel #285,,Hebron,OH,,US,+1 740-928-5588,,,Blue Rhino,Q65681213
73825,bluerhino,Speedway #9385,,Hebron,OH,,US,+1 740-928-9501,,,Blue Rhino,Q65681213
143820,bluerhino,Kroger #621 - Columbus - Fuel Site,,Hebron,OH,,US,+1 740-928-0795,,,Blue Rhino,Q65681213
60697,bluerhino,Kroger #621 - Columbus,,Hebron,OH,,US,+1 740-928-0795,,,Blue Rhino,Q65681213
18129937031024302500100000000000,bp,BP,,Hebron,OH,,US,+1 740-928-7186,,24/7,BP,Q152057
57118548956794302500100000000000,bp,BP,,Hebron,OH,,US,+1 740-467-2900,,24/7,BP,Q152057
28183,burgerking,Burger King,,Hebron,OH,,US,+1 740-822-0037,https://www.bk.com/store-locator/store/restaurant_237494,Mo-Sa 06:00-22:00; Su 07:00-22:00,Burger King,Q177054
39437,citi,ATM Certified Oil,,Hebron,OH,,US,,,,Citibank,Q857063
78040,citi,ATM Speedway,,Hebron,OH,,US,,,,Citibank,Q857063
80025,citi,ATM SPEEDWAY #9385,,Hebron,OH,,US,,,,Citibank,Q857063
581 Milliken DriveHebronOH,clean_harbors,Clean Harbors,,Hebron,OH,,US,+1 740-929-3532,,,Clean Harbors,Q5130494
16965,dollar_general,Dollar General,,Hebron,OH,,US,+1 740-527-3141,https://www.dollargeneral.com/store-directory/oh/hebron/16965,Mo-Su 08:00-22:00,Dollar General,Q145168
520705,eg_america_us,Certified,,HEBRON,OH,,US,+1 740-928-0616,https://www.certifiedoil.com/find-us/generic-store-page/?id=400423,,Certified Oil,Q100148356
161443,marathon_petroleum_us,CERTIFIED OIL 423,,HEBRON,OH,,US,+1 740-928-0616,,,Marathon,Q458363
001283,penske,Buckeye Lake Anchor Away,,HEBRON,OH,,US,+1 740-263-3059,https://www.pensketruckrental.com/locations/us/ohio/hebron/001283/,,Penske,Q81234570
285,pilot_flyingj,Pilot Travel Center,,Hebron,OH,,US,+1 740-928-5588,https://locations.pilotflyingj.com/us/oh/hebron/10258-lancaster-road-sw,,Pilot,Q7194412
restaurant_82791,popeyes_us_fr,Popeyes,"10679 Lancaster Rd Hebron, Ohio 43025 - USA",Hebron,OH,,US,+1 740-467-2900,https://www.popeyes.com/store-locator/store/restaurant_82791,Mo-Su 10:00-22:00,Popeyes,Q1330910
https://restaurants.subway.com/#14896457,subway,Subway Pilot Travel Center #285,,Hebron Licking,OH,,US,+1 740-928-6128,https://restaurants.subway.com/united-states/oh/hebron/10258-lancaster-rd-sw,Mo-Su 07:00-23:00,Subway,Q244457
https://restaurants.subway.com/#14913752,subway,Subway,,Hebron Licking,OH,,US,+1 740-928-2541,https://restaurants.subway.com/united-states/oh/hebron/620-e-main-st,Mo-Su 08:00-21:00,Subway,Q244457
1366626,usps,HEBRON,,HEBRON,OH,,US,+1 740-928-2391,,Mo-Fr 08:30-16:15; Sa 09:00-12:00,United States Postal Service,Q668687
4302500007,usps_collection_boxes,USPS COLLECTION BOX - BLUE BOX,600 E MAIN ST,HEBRON,OH,,US,,,,United States Postal Service,Q668687
4302500004,usps_collection_boxes,USPS COLLECTION BOX - BLUE BOX,146 N HIGH ST,HEBRON,OH,,US,,,,United States Postal Service,Q668687
4302500010,usps_collection_boxes,USPS COLLECTION BOX - PO LOBBY,146 N HIGH ST,HEBRON,OH,,US,,,,United States Postal Service,Q668687
4302500006,usps_collection_boxes,USPS COLLECTION BOX - PO LOBBY,146 N HIGH ST,HEBRON,OH,,US,,,,United States Postal Service,Q668687
4302500002,usps_collection_boxes,USPS COLLECTION BOX - BLUE BOX,10258 LANCASTER RD,HEBRON,OH,,US,,,,United States Postal Service,Q668687
,visa,,,HEBRON,OH,,US,,,,,
,visa,,,HEBRON,OH,,US,,,,,
,visa,,,HEBRON,OH,,US,,,,,
,visa,,,HEBRON,OH,,US,,,,,
,visa,,,HEBRON,OH,,US,,,,,
,visa,,,HEBRON,OH,,US,,,,,
,visa,,,HEBRON,OH,,US,,,,,
,visa,,,HEBRON,OH,,US,,,,,
,visa,,,HEBRON,OH,,US,,,,,
,visa,,,HEBRON,OH,,US,,,,,
,visa,,,HEBRON,OH,,US,,,,,
,visa,,,HEBRON,OH,,US,,,,,
