Ref,Spider,Name,Address,City,State,Zipcode,Country,Phone,Website,Hours,Brand,WikiData
72561302,moneygram,FINE ARTS,,MUMBAI,,,IN,+91 98700 66590,,Mo-Su 08:00-21:00,MoneyGram,Q1944412
72559563,moneygram,S P CREATION,,MUMBAI,,,IN,+91 99670 30378,,Mo-Su 08:00-21:00,MoneyGram,Q1944412
72605080,moneygram,FINASTA TRAVEL AND TOURS PVT LTD,,MUMBAI,,,IN,+91 98200 51963,,Mo-Su 08:00-21:00,MoneyGram,Q1944412
72591220,moneygram,ATLAS TOURS & TRAVELS PVT LTD,,MUMBAI,,,IN,+91 97690 47633,,Mo-Su 08:00-21:00,MoneyGram,Q1944412
72599109,moneygram,SAQLAINI KARWAN TOURS & TRAVELS,,MUMBAI,,,IN,+91 86521 45599,,Mo-Su 08:00-21:00,MoneyGram,Q1944412
72891807,moneygram,ATLAS EXCHANGE BUREAU PVT LTD,,MUMBAI,,,IN,+91 98337 98605,,Mo-Su 08:00-21:00,MoneyGram,Q1944412
71433156,moneygram,QASSWA INTERNATIONAL - MUMBAI - MUMBAI,,MUMBAI,,,IN,+91 98674 78620,,Mo-Su 09:00-21:00,MoneyGram,Q1944412
73442226,moneygram,ADIL TRAVEL,,MUMBAI,,,IN,+91 99876 61179,,Mo-Su 08:00-21:00,MoneyGram,Q1944412
73450069,moneygram,XPRESS 4X FOREIGNEXCHANGE SERVICES PVT L,,MUMBAI,,,IN,+91 98698 39158,,Mo-Su 08:00-21:00,MoneyGram,Q1944412
73695730,moneygram,NUHA TOURS & TRAVELS - MUMBAI,,MUMBAI,,,IN,+91 98921 82943,,Mo-Su 08:00-20:00,MoneyGram,Q1944412
73743213,moneygram,NET POINT TRAVELS,,MUMBAI,,,IN,+91 95940 00404,,Mo-Su 08:00-21:00,MoneyGram,Q1944412
73738833,moneygram,TRAVWORLD TOURS,,MUMBAI,,,IN,+91 98692 72192,,Mo-Su 08:00-21:00,MoneyGram,Q1944412
72971413,moneygram,AL QIBLATAIN TOURS AND TRAVELS,,MUMBAI,,,IN,+91 98204 65726,,Mo-Su 08:00-21:00,MoneyGram,Q1944412
73665485,moneygram,PARKAR AGENCY,,MUMBAI,,,IN,+91 98331 81713,,Mo-Su 08:00-21:00,MoneyGram,Q1944412
74107324,moneygram,SIDRA COMMUNICATION,,MUMBAI,,,IN,+91 70453 12339,,Mo-Su 08:00-21:00,MoneyGram,Q1944412
74209112,moneygram,ATLAS TOURS AND TRAVELS PVT LTD,,MUMBAI,,,IN,+91 97690 47633,,Mo-Su 08:00-21:00,MoneyGram,Q1944412
74239920,moneygram,IDEAL COMMUNICATION,,MUMBAI,,,IN,+91 99202 79980,,Mo-Su 08:00-21:00,MoneyGram,Q1944412
74705221,moneygram,S.K.ENTERPRISES,,MUMBAI,,,IN,+91 96198 53883,,Mo-Su 08:00-23:00,MoneyGram,Q1944412
65553932,moneygram,MANAPPURAM FINANCE,,MUMBAI,,,IN,23204334,,Mo-Sa 10:00-19:00; Su 00:00-24:00,MoneyGram,Q1944412
67470039,moneygram,MANAPPURAM FINANCE - #3058 - MUMBAI,,MUMBAI,,,IN,+91 22 3226 3862,,Mo-Sa 10:00-19:00; Su 00:00-24:00,MoneyGram,Q1944412
,visa,,,MUMBAI,,,IN,,,,,
,visa,,,MUMBAI,,,IN,,,,,
