Ref,Spider,Name,Address,City,State,Zipcode,Country,Phone,Website,Hours,Brand,WikiData
https://locators.bankofamerica.com/ny/flushing/financial-centers-flushing-16829.html,bankofamerica,Bank of America Financial Center & Drive-Thru ATM | Maspeth,,Flushing,NY,,US,+1 929-208-4963,https://locators.bankofamerica.com/ny/flushing/financial-centers-flushing-16829.html,Mo-Fr 10:00-16:00,Bank of America,Q487907
https://locations.baskinrobbins.com/ny/maspeth/6103-flushing-ave-304401-br,baskin_robbins_us,Baskin-Robbinsâ„¢,,Maspeth,NY,,US,+1 718-521-6190,https://locations.baskinrobbins.com/ny/maspeth/6103-flushing-ave-304401-br,Mo-Su 04:00-23:00,Baskin-Robbins,Q584601
25543243589361137800100000000000,bp,BP,,Queens,NY,,US,+1 718-326-3638,,24/7,BP,Q152057
85310627440901137800100000000000,bp,BP,,MASPETH,NY,,US,+1 718-629-8140,,24/7,BP,Q152057
67819078256151137800100000000000,bp,BP,,Queens,NY,,US,+1 718-255-6031,,24/7,BP,Q152057
26231,burgerking,Burger King,,Maspeth,NY,,US,+1 718-424-0687,https://www.bk.com/store-locator/store/restaurant_88217,Mo-Sa 07:00-23:00; Su 07:00-22:00,Burger King,Q177054
0550,carpet_one_floor_and_home_us,Hamilton Carpet One Floor & Home,,Maspeth,NY,,US,+1 718-899-3610,https://www.hamiltoncarpetone.com/,,Carpet One Floor & Home,Q121335910
2041693,chase_us,Grand Ave and 66th St - New branch,,Maspeth,NY,,US,+1 718-335-1174,https://locator.chase.com/ny/maspeth/66-02-grand-ave,Mo-Fr 09:00-17:00; Sa 09:00-14:00,Chase,Q524629
ny_maspeth_5901-maurice-ave,chipotle, ,,Maspeth,NY,,US,+1 718-578-4019,https://locations.chipotle.com/ny/maspeth/5901-maurice-ave,,Chipotle,Q465751
NY468,citizens_us,Citizens Maspeth,,Queens,NY,,US,+1 718-898-2329,,Mo-Fr 09:00-17:00; Sa 09:00-13:00,Citizens,Q5122694
ATM-2747,citizens_us,,,Maspeth,NY,,US,+1 718-289-6281,,24/7,Citizens,Q5122694
5773,cvs_us,CVS Pharmacy,,Maspeth,NY,,US,+1 718-424-2846,https://www.cvs.com/store-locator/maspeth-ny-pharmacies/69-80-grand-ave-maspeth-ny-11378/storeid=5773,Mo-Su 08:00-22:00,CVS Pharmacy,Q2078880
339943,dunkin_us,Dunkin',,Maspeth,NY,,US,+1 718-424-2637,https://locations.dunkindonuts.com/en/ny/maspeth/5951-queens-midtown-expy/339943,24/7,Dunkin',Q847743
307496,dunkin_us,Dunkin',,Maspeth,NY,,US,+1 718-247-9530,https://locations.dunkindonuts.com/en/ny/maspeth/6908-grand-ave/307496,Mo-Fr 05:00-21:00; Sa-Su 05:30-20:00,Dunkin',Q847743
304401,dunkin_us,Dunkin',,Maspeth,NY,,US,+1 718-521-6190,https://locations.dunkindonuts.com/en/ny/maspeth/6103-flushing-ave/304401,Mo-Su 04:00-23:00,Dunkin',Q847743
200314697,exxonmobil,OLYMPIC THREE,,MASPETH,NY,,US,+1 718-424-2637,https://www.exxon.com/en/find-station/exxon-maspeth-ny-olympicthree-200314697,24/7,Exxon,Q109675651
100445,fresenius_kidney_care_us,Fresenius Kidney Care Queens Kidney Care,,Maspeth,NY,,US,+1 800-881-5101,https://www.freseniuskidneycare.com/dialysis-centers/new-york/100445,Mo 05:00-15:00; We 05:00-15:00; Fr 05:00-15:00,,
29798,h_r_block,H&R Block,,Maspeth,NY,,US,+1 718-446-3373,https://www.hrblock.com/local-tax-offices/new-york/maspeth/6611-grand-ave/29798/,,H&R Block,Q5627799
74245875,moneygram,MASPETH CHEMISTS INC - #1 - MASPETH - MA,,MASPETH,NY,,US,+1 347-448-6219,,Mo-Fr 10:00-18:00; Sa-Su 00:00-24:00,MoneyGram,Q1944412
https://smashburger.com/locations/#64506785,smashburger,Smashburger,,Maspeth,NY,,US,+1 347-690-7900,https://smashburger.com/locations/us/ny/maspeth/59-11-maurice-avenue,Mo-Su 10:00-22:00,Smashburger,Q17061332
0509,stop_and_shop,Super Stop & Shop,74-17 Grand Avenue,Maspeth,NY,,US,,,,Stop and Shop,Q3658429
https://restaurants.subway.com/#14902563,subway,Subway,,Maspeth Queens,NY,,US,+1 718-446-1251,https://restaurants.subway.com/united-states/ny/maspeth/69-79-grand-ave,Mo-Su 08:00-21:00,Subway,Q244457
1372108,usps,MASPETH,,MASPETH,NY,,US,+1 718-457-5623,,Mo-Fr 09:00-17:00; Sa 09:00-14:00,United States Postal Service,Q668687
1137800051,usps_collection_boxes,USPS COLLECTION BOX - BLUE BOX,4306 54TH RD,FLUSHING,NY,,US,,,,United States Postal Service,Q668687
1137800020,usps_collection_boxes,USPS COLLECTION BOX - BLUE BOX,5902 BORDEN AVE,FLUSHING,NY,,US,,,,United States Postal Service,Q668687
1137800016,usps_collection_boxes,USPS COLLECTION BOX - BLUE BOX,5530 58TH ST,FLUSHING,NY,,US,,,,United States Postal Service,Q668687
1137800005,usps_collection_boxes,USPS COLLECTION BOX - BLUE BOX,5301 62ND ST,FLUSHING,NY,,US,,,,United States Postal Service,Q668687
1137800072,usps_collection_boxes,USPS COLLECTION BOX - BLUE BOX,5224 65TH PL,FLUSHING,NY,,US,,,,United States Postal Service,Q668687
1137800068,usps_collection_boxes,USPS COLLECTION BOX - BLUE BOX,5381 63RD ST,FLUSHING,NY,,US,,,,United States Postal Service,Q668687
1137800061,usps_collection_boxes,USPS COLLECTION BOX - BLUE BOX,4605 56TH RD,FLUSHING,NY,,US,,,,United States Postal Service,Q668687
1137800026,usps_collection_boxes,USPS COLLECTION BOX - BLUE BOX,5301 65TH PL,FLUSHING,NY,,US,,,,United States Postal Service,Q668687
1137800015,usps_collection_boxes,USPS COLLECTION BOX - BLUE BOX,5645 58TH ST,FLUSHING,NY,,US,,,,United States Postal Service,Q668687
1137800004,usps_collection_boxes,USPS COLLECTION BOX - BLUE BOX,6626 52ND AVE,FLUSHING,NY,,US,,,,United States Postal Service,Q668687
1137800024,usps_collection_boxes,USPS COLLECTION BOX - BLUE BOX,5401 65TH PL,FLUSHING,NY,,US,,,,United States Postal Service,Q668687
1137800025,usps_collection_boxes,USPS COLLECTION BOX - BLUE BOX,5302 68TH ST,FLUSHING,NY,,US,,,,United States Postal Service,Q668687
1137800011,usps_collection_boxes,USPS COLLECTION BOX - BLUE BOX,5894 59TH ST,FLUSHING,NY,,US,,,,United States Postal Service,Q668687
1137800003,usps_collection_boxes,USPS COLLECTION BOX - BLUE BOX,5255 69TH ST,FLUSHING,NY,,US,,,,United States Postal Service,Q668687
1137800001,usps_collection_boxes,USPS COLLECTION BOX - BLUE BOX,5267 73RD ST,FLUSHING,NY,,US,,,,United States Postal Service,Q668687
1137800002,usps_collection_boxes,USPS COLLECTION BOX - BLUE BOX,5309 72ND ST,FLUSHING,NY,,US,,,,United States Postal Service,Q668687
1137800023,usps_collection_boxes,USPS COLLECTION BOX - BLUE BOX,5369 69TH ST,FLUSHING,NY,,US,,,,United States Postal Service,Q668687
1137800060,usps_collection_boxes,USPS COLLECTION BOX - BLUE BOX,5000 GRAND AVE,FLUSHING,NY,,US,,,,United States Postal Service,Q668687
1137800038,usps_collection_boxes,USPS COLLECTION BOX - BLUE BOX,5208 GRAND AVE,FLUSHING,NY,,US,,,,United States Postal Service,Q668687
1137800069,usps_collection_boxes,USPS COLLECTION BOX - BLUE BOX,5514 GRAND AVE,FLUSHING,NY,,US,,,,United States Postal Service,Q668687
1137800012,usps_collection_boxes,USPS COLLECTION BOX - BLUE BOX,5504 MASPETH AVE,FLUSHING,NY,,US,,,,United States Postal Service,Q668687
1137800039,usps_collection_boxes,USPS COLLECTION BOX - BLUE BOX,5420 FLUSHING AVE,FLUSHING,NY,,US,,,,United States Postal Service,Q668687
1137800050,usps_collection_boxes,USPS COLLECTION BOX - BLUE BOX,6084 FRESHPOND RD,FLUSHING,NY,,US,,,,United States Postal Service,Q668687
1137800049,usps_collection_boxes,USPS COLLECTION BOX - BLUE BOX,6020 FRESHPOND RD,FLUSHING,NY,,US,,,,United States Postal Service,Q668687
1137800064,usps_collection_boxes,USPS COLLECTION BOX - BLUE BOX,5963 FRESHPOND RD,FLUSHING,NY,,US,,,,United States Postal Service,Q668687
1137800054,usps_collection_boxes,USPS COLLECTION BOX - BLUE BOX,6486 58TH RD,FLUSHING,NY,,US,,,,United States Postal Service,Q668687
1137800048,usps_collection_boxes,USPS COLLECTION BOX - BLUE BOX,6201 60TH ST,FLUSHING,NY,,US,,,,United States Postal Service,Q668687
1137800042,usps_collection_boxes,USPS COLLECTION BOX - BLUE BOX,5858 61ST ST,FLUSHING,NY,,US,,,,United States Postal Service,Q668687
1137800047,usps_collection_boxes,USPS COLLECTION BOX - BLUE BOX,6032 60TH ST,FLUSHING,NY,,US,,,,United States Postal Service,Q668687
1137800046,usps_collection_boxes,USPS COLLECTION BOX - BLUE BOX,6822 60TH RD,FLUSHING,NY,,US,,,,United States Postal Service,Q668687
1137800043,usps_collection_boxes,USPS COLLECTION BOX - BLUE BOX,6104 FLUSHING AVE,FLUSHING,NY,,US,,,,United States Postal Service,Q668687
1137800044,usps_collection_boxes,USPS COLLECTION BOX - BLUE BOX,6402 FLUSHING AVE,FLUSHING,NY,,US,,,,United States Postal Service,Q668687
1137800041,usps_collection_boxes,USPS COLLECTION BOX - BLUE BOX,5946 FLUSHING AVE,FLUSHING,NY,,US,,,,United States Postal Service,Q668687
1137800008,usps_collection_boxes,USPS COLLECTION BOX - BLUE BOX,6167 MASPETH AVE,FLUSHING,NY,,US,,,,United States Postal Service,Q668687
1137800034,usps_collection_boxes,USPS COLLECTION BOX - BLUE BOX,5901 69TH ST,FLUSHING,NY,,US,,,,United States Postal Service,Q668687
1137800035,usps_collection_boxes,USPS COLLECTION BOX - BLUE BOX,5734 61ST ST,FLUSHING,NY,,US,,,,United States Postal Service,Q668687
1137800032,usps_collection_boxes,USPS COLLECTION BOX - BLUE BOX,5963 69TH PL,FLUSHING,NY,,US,,,,United States Postal Service,Q668687
1137800045,usps_collection_boxes,USPS COLLECTION BOX - BLUE BOX,6610 GRAND AVE,FLUSHING,NY,,US,,,,United States Postal Service,Q668687
1137800009,usps_collection_boxes,USPS COLLECTION BOX - BLUE BOX,6101 MASPETH AVE,FLUSHING,NY,,US,,,,United States Postal Service,Q668687
1137800036,usps_collection_boxes,USPS COLLECTION BOX - BLUE BOX,5904 58TH RD,FLUSHING,NY,,US,,,,United States Postal Service,Q668687
1137800033,usps_collection_boxes,USPS COLLECTION BOX - BLUE BOX,7020 60TH AVE,FLUSHING,NY,,US,,,,United States Postal Service,Q668687
1137800010,usps_collection_boxes,USPS COLLECTION BOX - BLUE BOX,5619 61ST ST,FLUSHING,NY,,US,,,,United States Postal Service,Q668687
1137800028,usps_collection_boxes,USPS COLLECTION BOX - BLUE BOX,5678 69TH ST,FLUSHING,NY,,US,,,,United States Postal Service,Q668687
1137800031,usps_collection_boxes,USPS COLLECTION BOX - BLUE BOX,5841 71ST ST,FLUSHING,NY,,US,,,,United States Postal Service,Q668687
1137800058,usps_collection_boxes,USPS COLLECTION BOX - BLUE BOX,4900 MASPETH AVE,FLUSHING,NY,,US,,,,United States Postal Service,Q668687
1137800007,usps_collection_boxes,USPS COLLECTION BOX - BLUE BOX,6506 JAY AVE,FLUSHING,NY,,US,,,,United States Postal Service,Q668687
1137800029,usps_collection_boxes,USPS COLLECTION BOX - BLUE BOX,6948 GRAND AVE,FLUSHING,NY,,US,,,,United States Postal Service,Q668687
1137800013,usps_collection_boxes,USPS COLLECTION BOX - BLUE BOX,5620 GRAND AVE,FLUSHING,NY,,US,,,,United States Postal Service,Q668687
1137800076,usps_collection_boxes,USPS COLLECTION BOX - PO LOBBY,5502 69TH ST,FLUSHING,NY,,US,,,,United States Postal Service,Q668687
1137800073,usps_collection_boxes,USPS COLLECTION BOX - PO LOBBY,5502 69TH ST,FLUSHING,NY,,US,,,,United States Postal Service,Q668687
1137800057,usps_collection_boxes,USPS COLLECTION BOX - EXPRESS,5502 69TH ST,FLUSHING,NY,,US,,,,United States Postal Service,Q668687
1137800027,usps_collection_boxes,USPS COLLECTION BOX - BLUE BOX,5502 69TH ST,FLUSHING,NY,,US,,,,United States Postal Service,Q668687
1137800014,usps_collection_boxes,USPS COLLECTION BOX - BLUE BOX,5755 58TH ST,FLUSHING,NY,,US,,,,United States Postal Service,Q668687
1137800030,usps_collection_boxes,USPS COLLECTION BOX - BLUE BOX,7120 GRAND AVE,FLUSHING,NY,,US,,,,United States Postal Service,Q668687
A00000165634,verizon_us,Your Wireless Maspeth,,Maspeth,NY,,US,+1 718-335-4500,https://www.verizon.com/stores/details/new-york/maspeth/your-wireless-maspeth-1689322/,Mo-Sa 10:00-19:00; Su 11:00-16:00,Verizon,Q919641
,visa,,,RIDGEWOOD,NY,,US,,,,,
,visa,,,MASPETH,NY,,US,,,,,
,visa,,,MASPETH,NY,,US,,,,,
,visa,,,MASPETH,NY,,US,,,,,
,visa,,,MASPETH,NY,,US,,,,,
,visa,,,FLUSHING,NY,,US,,,,,
,visa,,,FLUSHING,NY,,US,,,,,
,visa,,,MASPETH,NY,,US,,,,,
,visa,,,MASPETH,NY,,US,,,,,
,visa,,,MASPETH,NY,,US,,,,,
,visa,,,MASPETH,NY,,US,,,,,
,visa,,,MASPETH,NY,,US,,,,,
,visa,,,MASPETH,NY,,US,,,,,
,visa,,,MASPETH,NY,,US,,,,,
,visa,,,MASPETH,NY,,US,,,,,
,visa,,,MASPETH,NY,,US,,,,,
,visa,,,RIDGEWOOD,NY,,US,,,,,
,visa,,,MASPETH,NY,,US,,,,,
,visa,,,MASPETH,NY,,US,,,,,
,visa,,,"E QUEENS, NY",NY,,US,,,,,
,visa,,,MASPETH,NY,,US,,,,,
,visa,,,MASPETH,NY,,US,,,,,
,visa,,,MASPETH,NY,,US,,,,,
,visa,,,MASPETH,NY,,US,,,,,
,visa,,,MASPETH,NY,,US,,,,,
,visa,,,MASPETH,NY,,US,,,,,
,visa,,,MASPETH,NY,,US,,,,,
,visa,,,RIDGEWOOD,NY,,US,,,,,
,visa,,,MASPETH,NY,,US,,,,,
,visa,,,FLUSHING,NY,,US,,,,,
,visa,,,MASPETH,NY,,US,,,,,
,visa,,,MASPETH,NY,,US,,,,,
,visa,,,MASPETH,NY,,US,,,,,
,visa,,,MASPETH,NY,,US,,,,,
,visa,,,MASPETH,NY,,US,,,,,
,visa,,,MASPETH,NY,,US,,,,,
,visa,,,FLUSHING,NY,,US,,,,,
,visa,,,MASPETH,NY,,US,,,,,
,visa,,,MASPETH,NY,,US,,,,,
,visa,,,MASPETH,NY,,US,,,,,
,visa,,,WOODSIDE,NY,,US,,,,,
,visa,,,MASPETH,NY,,US,,,,,
,visa,,,MASPETH,NY,,US,,,,,
,visa,,,MASPETH,NY,,US,,,,,
,visa,,,MASPETH,NY,,US,,,,,
,visa,,,MASPETH,NY,,US,,,,,
,visa,,,MASPETH,NY,,US,,,,,
,visa,,,MASPETH,NY,,US,,,,,
,visa,,,FLUSHING,NY,,US,,,,,
,visa,,,MASPETH,NY,,US,,,,,
,visa,,,MASPETH,NY,,US,,,,,
,visa,,,MASPETH,NY,,US,,,,,
,visa,,,MASPETH,NY,,US,,,,,
,visa,,,MASPETH,NY,,US,,,,,
,visa,,,MASPETH,NY,,US,,,,,
,visa,,,MASPETH,NY,,US,,,,,
,visa,,,MASPETH,NY,,US,,,,,
,visa,,,MASPETH,NY,,US,,,,,
,visa,,,MASPETH,NY,,US,,,,,
,visa,,,MASPETH,NY,,US,,,,,
,visa,,,MASPETH,NY,,US,,,,,
,visa,,,MASPETH,NY,,US,,,,,
,visa,,,MASPETH,NY,,US,,,,,
,visa,,,MASPETH,NY,,US,,,,,
,visa,,,QUEENS,NY,,US,,,,,
,visa,,,MASPETH,NY,,US,,,,,
,visa,,,MASPETH,NY,,US,,,,,
,visa,,,MASPETH,NY,,US,,,,,
,visa,,,MASPETH,NY,,US,,,,,
,visa,,,MASPETH,NY,,US,,,,,
,visa,,,MASPETH,NY,,US,,,,,
,visa,,,MASPETH,NY,,US,,,,,
,visa,,,MASPETH,NY,,US,,,,,
,visa,,,MASPETH,NY,,US,,,,,
,visa,,,MASPETH,NY,,US,,,,,
,visa,,,MESPETH,NY,,US,,,,,
,visa,,,MASPETH,NY,,US,,,,,
,visa,,,MASPETH,NY,,US,,,,,
,visa,,,MASPETH,NY,,US,,,,,
,visa,,,MASPETH,NY,,US,,,,,
,visa,,,MASPETH,NY,,US,,,,,
,visa,,,MASPETH,NY,,US,,,,,
,visa,,,MASPETH,NY,,US,,,,,
,visa,,,QUEENS,NY,,US,,,,,
,visa,,,MASPETH,NY,,US,,,,,
,visa,,,MASPETH,NY,,US,,,,,
,visa,,,MASPETH,NY,,US,,,,,
,visa,,,MASPETH,NY,,US,,,,,
,visa,,,MASPETH,NY,,US,,,,,
,visa,,,MASPETH,NY,,US,,,,,
,visa,,,MASPETH,NY,,US,,,,,
,visa,,,MASPETH,NY,,US,,,,,
,visa,,,MASPETH,NY,,US,,,,,
,visa,,,MASPETH,NY,,US,,,,,
,visa,,,MASPETH,NY,,US,,,,,
,visa,,,MASPETH,NY,,US,,,,,
,visa,,,QUEENS,NY,,US,,,,,
,visa,,,MASPETH,NY,,US,,,,,
,visa,,,MASPETH,NY,,US,,,,,
,visa,,,MASPETH,NY,,US,,,,,
,visa,,,MASPETH,NY,,US,,,,,
,visa,,,MASPETH,NY,,US,,,,,
,visa,,,FLUSHING,NY,,US,,,,,
,visa,,,MASPETH,NY,,US,,,,,
,visa,,,MASPETH,NY,,US,,,,,
,visa,,,BROOKLYN,NY,,US,,,,,
,visa,,,MASPETH,NY,,US,,,,,
,visa,,,BROOKLYN,NY,,US,,,,,
,visa,,,BROOKLYN,NY,,US,,,,,
f9c37e846d821a539d12a0f3873368f8,western_union,BRAVO CARNICERIA MINI MARKET I,,Maspeth,NY,,US,+1 718-440-8215,https://location.westernunion.com/us/ny/maspeth/f9c37e846d821a539d12a0f3873368f8,Mo-Sa 10:00-21:00,Western Union,Q861042
