Ref,Spider,Name,Address,City,State,Zipcode,Country,Phone,Website,Hours,Brand,WikiData
014517a217ccf9032817c6bb9d8ea334,western_union,DC SIDI SLIMANE AGDAL 2,,Sidi Slimane,SIDI SLIMANE,,MA,+212 716-005149,https://location.westernunion.com/ma/sidi-slimane/sidi-slimane/014517a217ccf9032817c6bb9d8ea334,Mo-Su 08:00-24:00,Western Union,Q861042
6e07fcccc5da3743b02825cfea2182e2,western_union,DC SIDI SLIMANE JALIL TAZI,,Sidi Slimane,SIDI SLIMANE,,MA,+212 666-292922,https://location.westernunion.com/ma/sidi-slimane/sidi-slimane/6e07fcccc5da3743b02825cfea2182e2,Mo-Su 08:00-24:00,Western Union,Q861042
642b0b2a7b73cb31e983d136771442e8,western_union,LEMNARA,,Sidi Slimane,SIDI SLIMANE,,MA,+212 5375-00949,https://location.westernunion.com/ma/sidi-slimane/sidi-slimane/642b0b2a7b73cb31e983d136771442e8,Mo-Su 00:01-24:00,Western Union,Q861042
ec80e77f3400427945f158256052d87a,western_union,CANALM SIDI SLIMANE,,Sidi Slimane,SIDI SLIMANE,,MA,+212 5224-29030,https://location.westernunion.com/ma/sidi-slimane/sidi-slimane/ec80e77f3400427945f158256052d87a,Mo-Su 08:00-23:00,Western Union,Q861042
2f11895bfa5fc515355dfd52792e901d,western_union,WAFACASH SIDI SLIMANE HAY SALAM ILC,,Sidi Slimane,SIDI SLIMANE,,MA,+212 5224-35050,https://location.westernunion.com/ma/sidi-slimane/sidi-slimane/2f11895bfa5fc515355dfd52792e901d,Mo-Su 08:00-24:00,Western Union,Q861042
bd1171b478078a0fdeb98c37bab67383,western_union,PAM,,Sidi Slimane,SIDI SLIMANE,,MA,+212 5375-01502,https://location.westernunion.com/ma/sidi-slimane/sidi-slimane/bd1171b478078a0fdeb98c37bab67383,Mo-Su 00:01-24:00,Western Union,Q861042
52e149cb5f01f8b7a96c88a4b271fc53,western_union,SIDI SLIMAN MED V,,Sidi Slimane,SIDI SLIMANE,,MA,+212 5375-00171,https://location.westernunion.com/ma/sidi-slimane/sidi-slimane/52e149cb5f01f8b7a96c88a4b271fc53,Mo-Su 00:01-24:00,Western Union,Q861042
2b95f99f527f25490a1111b0f2619d32,western_union,SIDISLIMANEFR,,Sidi Slimane,SIDI SLIMANE,,MA,+212 5375-03421,https://location.westernunion.com/ma/sidi-slimane/sidi-slimane/2b95f99f527f25490a1111b0f2619d32,Mo-Su 00:01-24:00,Western Union,Q861042
1c4bb8950fba2bade6efa11c5f95a1f9,western_union,WAFACASH SIDI SLIMANE EC,,Sidi Slimane,SIDI SLIMANE,,MA,+212 5224-35050,https://location.westernunion.com/ma/sidi-slimane/sidi-slimane/1c4bb8950fba2bade6efa11c5f95a1f9,Mo-Su 08:00-24:00,Western Union,Q861042
0619719eacd8e53e5d797937d3b14af3,western_union,DC SIDI SLIMANE HASSAN II,,Sidi Slimane,SIDI SLIMANE,,MA,+212 666-519163,https://location.westernunion.com/ma/sidi-slimane/sidi-slimane/0619719eacd8e53e5d797937d3b14af3,Mo-Su 08:00-24:00,Western Union,Q861042
29602b17bc798b69594a8e65d03c8966,western_union,DC SIDI SLIMANE HAY KHOURIBGA,,Sidi Slimane,SIDI SLIMANE,,MA,+212 633-498080,https://location.westernunion.com/ma/sidi-slimane/sidi-slimane/29602b17bc798b69594a8e65d03c8966,Mo-Su 08:00-24:00,Western Union,Q861042
a8a4377fd9688ef43b91211d0744ad08,western_union,ENNACER SIDISLIMANE,,Sidi Slimane,SIDI SLIMANE,,MA,+212 5375-05622,https://location.westernunion.com/ma/sidi-slimane/sidi-slimane/a8a4377fd9688ef43b91211d0744ad08,Mo-Su 00:01-24:00,Western Union,Q861042
f3d5408ec1cd59972366caf69b16b7a4,western_union,CASH PLUS SA OULED ELGHAZI,,Sidi Slimane,SIDI SLIMANE,,MA,+212 612-257694,https://location.westernunion.com/ma/sidi-slimane/sidi-slimane/f3d5408ec1cd59972366caf69b16b7a4,Mo-Su 00:01-24:00,Western Union,Q861042
db962380df18b9758c14d74cbc49deae,western_union,DC SIDI SLIMANE HAY SALAM LA FOIRE,,Sidi Slimane,SIDI SLIMANE,,MA,+212 5375-00834,https://location.westernunion.com/ma/sidi-slimane/sidi-slimane/db962380df18b9758c14d74cbc49deae,Mo-Su 08:00-24:00,Western Union,Q861042
9364469b0c134aa860b969a71a69481e,western_union,DC SFAFAA,,Sidi Slimane,SIDI SLIMANE,,MA,+212 663-121800,https://location.westernunion.com/ma/sidi-slimane/sidi-slimane/9364469b0c134aa860b969a71a69481e,Mo-Su 08:00-24:00,Western Union,Q861042
62ad4a6dda0bae95291842075bf2de8a,western_union,CASH PLUS SIDI YAHYA EL GHARB,,Sidi Yahya El Gharb,SIDI SLIMANE,,MA,+212 5228-60100,https://location.westernunion.com/ma/sidi-slimane/sidi-yahya-el-gharb/62ad4a6dda0bae95291842075bf2de8a,Mo-Su 00:01-24:00,Western Union,Q861042
6df52b2ff1d4974bee0620f5440ee510,western_union,JARDA SIDI YAHYA,,Sidi Yahya El Gharb,SIDI SLIMANE,,MA,+212 5373-00183,https://location.westernunion.com/ma/sidi-slimane/sidi-yahya-el-gharb/6df52b2ff1d4974bee0620f5440ee510,Mo-Su 00:01-24:00,Western Union,Q861042
edc9fe00e830b6516911d17163ddb997,western_union,WAFACASH SIDI YAHIA EL GHARB ILC,,Sidi Yahia El Gharb,SIDI SLIMANE,,MA,+212 5224-35050,https://location.westernunion.com/ma/sidi-slimane/sidi-yahia-el-gharb/edc9fe00e830b6516911d17163ddb997,Mo-Su 08:00-24:00,Western Union,Q861042
f74bdbc081594f70a85d7e464663646c,western_union,LA POSTE SIDI YAHYA ELGHARB,,Sidi Yahya El Gharb,SIDI SLIMANE,,MA,+212 5373-00202,https://location.westernunion.com/ma/sidi-slimane/sidi-yahya-el-gharb/f74bdbc081594f70a85d7e464663646c,Mo-Su 00:01-24:00,Western Union,Q861042
28de3a290d9cf791b972340b4bc0f243,western_union,DC SIDI SLIMANE ZERKTOUNI,,Sidi Slimane,SIDI SLIMANE,,MA,+212 719-086019,https://location.westernunion.com/ma/sidi-slimane/sidi-slimane/28de3a290d9cf791b972340b4bc0f243,Mo-Su 08:00-24:00,Western Union,Q861042
