Ref,Spider,Name,Address,City,State,Zipcode,Country,Phone,Website,Hours,Brand,WikiData
72057450,moneygram,CHAABI CASH - #6588 - GUELMIM,,GUELMIM,,,MA,+212 5287-73380,,Mo-Su 08:00-23:00,MoneyGram,Q1944412
67508914,moneygram,ASSOCIATION AL AMANA POUR LA PROMOTION D,,GUELMIM,,,MA,+212 5224-35050,,Mo-Sa 06:00-24:00; Su 09:00-16:00,MoneyGram,Q1944412
72105946,moneygram,REZO CASH - #2990 - GUELMIM - GUELMIM HA,,GUELMIM,,,MA,+212 5224-35050,,Mo-Fr 08:00-23:00; Sa-Su 09:00-16:00,MoneyGram,Q1944412
72174948,moneygram,SAHARA CASH - #5002 - GUELMIM - GUELMIM,,GUELMIM,,,MA,+212 5224-35050,,Mo-Fr 08:00-23:00; Sa-Su 09:00-16:00,MoneyGram,Q1944412
68491282,moneygram,WAFACASH - GUELMIM,,GUELMIM,,,MA,+212 5224-35050,,Mo-Sa 06:00-24:00; Su 09:00-16:00,MoneyGram,Q1944412
72517864,moneygram,CHAABI CASH - #6278 - GUELMIM,,GUELMIM,,,MA,+212 5287-73530,,Mo-Su 08:00-23:00,MoneyGram,Q1944412
68777922,moneygram,STE YASSINE SARL - GUELMIM,,GUELMIM,,,MA,+212 5224-29030,,Mo-Su 08:00-20:00,MoneyGram,Q1944412
72885570,moneygram,CASHPLUS - #408901 - GULEMIM HAY MIRI,,GUELMIM,,,MA,+212 5288-71981,,Mo-Su 08:00-24:00,MoneyGram,Q1944412
72901137,moneygram,CHAABI CASH - #6845 - GUELMIM,,GUELMIM,,,MA,+212 697-524538,,Mo-Su 08:00-23:00,MoneyGram,Q1944412
68973098,moneygram,CASH PLUS - GUELMIM,,GUELMIM,,,MA,+212 5288-72978,,Mo-Su 08:00-23:30,MoneyGram,Q1944412
72932818,moneygram,CHAABI CASH - #6947 - GUELMIM,,GUELMIM,,,MA,09699339866,,Mo-Su 08:00-23:00,MoneyGram,Q1944412
72981649,moneygram,CHAABI CASH - #6883 - GUELMIM,,GUELMIM,,,MA,+212 670-263873,,Mo-Su 08:00-23:00,MoneyGram,Q1944412
73706917,moneygram,CHAABI CASH - #6634 - GUELMIM,,GUELMIM,,,MA,+212 670-453706,,Mo-Su 08:00-23:00,MoneyGram,Q1944412
66648765,moneygram,ABB,,GUELMIM,,,MA,+212 5287-88877,,Mo-Su 07:00-24:00,MoneyGram,Q1944412
66651930,moneygram,ABB,,GUELMIM,,,MA,+212 5287-89022,,Mo-Su 07:00-24:00,MoneyGram,Q1944412
66642525,moneygram,ABB,,GUELMIM,,,MA,+212 5288-72220,,Mo-Su 07:00-24:00,MoneyGram,Q1944412
66649913,moneygram,ABB,,GUELMIM,,,MA,+212 5288-73222,,Mo-Su 07:00-24:00,MoneyGram,Q1944412
66633408,moneygram,ABB,,GUELMIM,,,MA,+212 80-2006060,,Mo-Su 07:00-24:00,MoneyGram,Q1944412
66640488,moneygram,ABB,,GUELMIM,,,MA,+212 5287-88888,,Mo-Su 07:00-24:00,MoneyGram,Q1944412
66643139,moneygram,ABB,,GUELMIM,,,MA,+212 5288-73232,,Mo-Su 07:00-24:00,MoneyGram,Q1944412
66636366,moneygram,ABB,,GUELMIM,,,MA,+212 5287-85989,,Mo-Su 07:00-24:00,MoneyGram,Q1944412
73898171,moneygram,CASHPLUS - #99703 - GULEMIM PLACE DES TA,,GUELMIM,,,MA,+212 662-284945,,Mo-Su 08:00-24:00,MoneyGram,Q1944412
73962065,moneygram,CASHPLUS - #463101 - TAGHJIJT FR,,GUELMIM,,,MA,+212 626-374625,,Mo-Su 08:00-24:00,MoneyGram,Q1944412
73967248,moneygram,CASHPLUS - #426601 - GUELMIM - GULEMIM A,,GUELMIM,,,MA,+212 669-827660,,Mo-Su 08:00-24:00,MoneyGram,Q1944412
73973232,moneygram,BMCE CASH - #560801 - DC GUELMIM HAY EL,,GUELMIM,,,MA,+212 677-701195,,Mo-Su 08:00-24:00,MoneyGram,Q1944412
73981541,moneygram,CASHPLUS - #446502 - DRARGA IGUIDAR,,DRARGUA,,,MA,+212 666-552952,,Mo-Su 08:00-24:00,MoneyGram,Q1944412
73993856,moneygram,CASHPLUS - #28796 - DJIHADIA PR,,DCHIRA,,,MA,+212 688-639584,,Mo-Su 08:00-24:00,MoneyGram,Q1944412
74017278,moneygram,CHAABI CASH - #6462 - GUELMIM,,GUELMIM,,,MA,+212 666-878049,,Mo-Su 08:00-23:00,MoneyGram,Q1944412
74017469,moneygram,SIDI BIBI 2 - #172302 - CASHPLUS,,SIDI BIBI,,,MA,+212 607-397847,,Mo-Su 08:00-24:00,MoneyGram,Q1944412
74024122,moneygram,CASHPLUS - #463001 - GUELMIM MEHDI BEN T,,GUELMIM,,,MA,+212 661-558084,,Mo-Su 08:00-24:00,MoneyGram,Q1944412
74026379,moneygram,CASHPLUS - #477401 - TIZNIT LES AMICALES,,TIZNIT,,,MA,+212 610-537806,,Mo-Su 08:00-24:00,MoneyGram,Q1944412
74168237,moneygram,CHAABI CASH - #10929 - GUELMIM,,GUELMIM,,,MA,+212 671-058934,,Mo-Su 08:00-23:00,MoneyGram,Q1944412
74223486,moneygram,GUELMIM HAY RAJA FILLAH (SHC) - #5318 -,,GUELMIM,,,MA,+212 5224-35050,,Mo-Fr 08:00-23:00; Sa 09:00-17:00; Su 10:00-16:00,MoneyGram,Q1944412
74240809,moneygram,CHAABI CASH - #11013 - GUELMIM,,GUELMIM,,,MA,+212 658-307459,,Mo-Su 08:00-23:00,MoneyGram,Q1944412
74251335,moneygram,CHAABI CASH - #11068 - GUELMIM,,GUELMIM,,,MA,+212 658-793216,,Mo-Su 08:00-23:00,MoneyGram,Q1944412
71706456,moneygram,CASHPLUS - #193801 - GUELMIM PLACE HASSA,,GUELMIM,,,MA,66664535,,Mo-Su 08:00-24:00,MoneyGram,Q1944412
69975875,moneygram,WAFACASH - #3505 - ASSOCIATION AL AMANA,,GUELMIM,,,MA,528435050,,Mo-Fr 08:00-20:00; Sa-Su 09:00-16:00,MoneyGram,Q1944412
74337149,moneygram,CASHPLUS - #431803 - GUELMIM HAY AMHIRIC,,GUELMIM,,,MA,+212 651-653191,,Mo-Su 08:00-24:00,MoneyGram,Q1944412
74304897,moneygram,CHAABI CASH - #11030 - GUELMIM,,GUELMIM,,,MA,+212 670-603376,,Mo-Su 08:00-23:00,MoneyGram,Q1944412
74360352,moneygram,GUELMIM TAYERTE SOUFLA (SHC) - #5334 - G,,GUELMIM,,,MA,+212 5224-35050,,Mo-Fr 08:00-23:00; Sa 09:00-17:00; Su 10:00-16:00,MoneyGram,Q1944412
74390856,moneygram,CASH PLUS - #508701 - GUELMIME TAYERTE,,GUELMIM,,,MA,+212 669-567785,,Mo-Su 08:00-24:00,MoneyGram,Q1944412
74405123,moneygram,CHAABI CASH - #3662 - GUELMIM,,GUELMIM,,,MA,+212 606-699698,,Mo-Su 08:00-23:00,MoneyGram,Q1944412
74433331,moneygram,AGOUJGAL ABELLA - #6602 - GUELMIM,,GUELMIM,,,MA,+212 667-601420,,Mo-Su 08:00-23:00,MoneyGram,Q1944412
74463547,moneygram,MBTS GUELMIM BEN TOUMERTE - #99347 - GUE,,GUELMIM,,,MA,+212 670-453706,,Mo-Su 07:00-24:00,MoneyGram,Q1944412
74533707,moneygram,CHAABI CASH - #11518 - GUELMIM - STE KAF,,GUELMIM,,,MA,+212 671-168276,,Mo-Su 08:00-23:00,MoneyGram,Q1944412
74556603,moneygram,CASHPLUS - #519401 - GUELMIM BD ALMASSIR,,GUELMIM,,,MA,+212 669-018332,,Mo-Su 08:00-24:00,MoneyGram,Q1944412
74638848,moneygram,CASHPLUS - #28778 - GUELMIM AV HASSAN 2,,GUELMIM,,,MA,+212 669-567785,,Mo-Su 08:00-24:00,MoneyGram,Q1944412
74646267,moneygram,CASHPLUS - #541701 - GUELMIM HAY EL FATH,,GUELMIM,,,MA,+212 611-487986,,Mo-Su 08:00-24:00,MoneyGram,Q1944412
74656545,moneygram,CHAABI CASH - #3193 - GUELMIM - BADININI,,GUELMIM,,,MA,+212 661-828110,,Mo-Su 08:00-23:00,MoneyGram,Q1944412
74672273,moneygram,LC GUELMIM SOUK DELALA,,GUELMIM,,,MA,6466486129,,Mo-Su 08:00-24:00,MoneyGram,Q1944412
74715716,moneygram,CASH PLUS - #532601 - ASSA VILLE,,ASSA,,,MA,+212 622-740297,,Mo-Su 08:00-24:00,MoneyGram,Q1944412
74722958,moneygram,LANA CASH,,GUELMIM,,,MA,+212 663-797540,,Mo-Su 08:00-24:00,MoneyGram,Q1944412
74739608,moneygram,CASHPLUS - #550301 - GUELMIM TOUAGHIL,,GUELMIM,,,MA,+212 687-004896,,Mo-Su 08:00-24:00,MoneyGram,Q1944412
74809198,moneygram,CHAABI CASH - #3226 - GUELMIM - AFKIR SE,,GUELMIM,,,MA,+212 668-227282,,Mo-Su 08:00-23:00,MoneyGram,Q1944412
74892480,moneygram,DAMANE CASH - #716701 - DC KELAAT SRAGHN,,KELAAT SRAGHNA,,,MA,+212 631-316544,,Mo-Su 08:00-24:00,MoneyGram,Q1944412
74314366,moneygram,LANA CASH,,GUELMIM,,,MA,+212 671-744644,,Mo-Su 08:00-24:00,MoneyGram,Q1944412
74415414,moneygram,LANA CASH - GUELMIM,,GUELMIM,,,MA,+212 662-895794,,Mo-Su 08:00-24:00,MoneyGram,Q1944412
74969902,moneygram,CANAL M - #700 - GUELMIM,,GUELMIM,,,MA,+212 5288-70500,,Mo-Su 07:00-23:00,MoneyGram,Q1944412
74981485,moneygram,CHAABI CASH - #12320 - GUELMIM - SEMLALI,,GUELMIM,,,MA,+212 641-856914,,Mo-Su 08:00-23:00,MoneyGram,Q1944412
71032476,moneygram,CASHPLUS - #28635 - MEHDI BEN TOUMERT GU,,GUELMIM,,,MA,+212 5287-74854,,Mo-Su 08:00-24:00,MoneyGram,Q1944412
65727687,moneygram,SAHARA CASH - #2076,,GUELMIM,,,MA,8772121,,Mo-Sa 06:00-24:00; Su 09:00-16:00,MoneyGram,Q1944412
65727917,moneygram,SAHARA CASH - #2296,,GUELMIM,,,MA,8873100,,Mo-Sa 06:00-24:00; Su 09:00-16:00,MoneyGram,Q1944412
67128637,moneygram,CASH,,GUELMIM,,,MA,+212 5287-73073,,Mo-Su 07:00-24:00,MoneyGram,Q1944412
71630467,moneygram,CASHPLUS - #161602 - GULEMIM AV MOULAY A,,GUELMIM,,,MA,+212 5228-60100,,Mo-Su 08:00-24:00,MoneyGram,Q1944412
67617517,moneygram,SAHARA CASH - GUELMIM,,GUELMIM,,,MA,+212 5224-35050,,Mo-Sa 06:00-24:00; Su 09:00-16:00,MoneyGram,Q1944412
71682198,moneygram,CASHPLUS - #99702 - GULEMIM HASSAN 2,,GUELMIM,,,MA,+212 5288-70555,,Mo-Su 08:00-24:00,MoneyGram,Q1944412
