Ref,Spider,Name,Address,City,State,Zipcode,Country,Phone,Website,Hours,Brand,WikiData
USAA24B29,audi,Audi Springfield,"3500 E Sunshine St., Springfield, MO 65809",Springfield,MO,,US,+1 417-881-2834,,,Audi,Q23317
170521,bluerhino,Kum & Go #1481,,Springfield,MO,,US,+1 417-823-9302,,,Blue Rhino,Q65681213
20416_01,bmw_group,BMW of Springfield,,Springfield,MO,,US,+1 417-889-9200,https://www.reliablebmw.com,,BMW,Q26678
39262,citi,ATM Central Bank,,Springfield,MO,,US,,,,Citibank,Q857063
39261,citi,ATM Central Bank,,Springfield,MO,,US,,,,Citibank,Q857063
39260,citi,ATM Central Bank,,Springfield,MO,,US,,,,Citibank,Q857063
39183,citi,ATM Central Bank,,Ozark,MO,,US,,,,Citibank,Q857063
"3525 E. Battlefield Rd Springfield, MO 65809",cox_health,CoxHealth Welcome Clinic,,Springfield,MO,,US,+1 417-269-1499,,,CoxHealth,Q5179867
https://www.edwardjones.com/us-en/financial-advisor/joanne-mckenzie,edwardjones,Joanne R McKenzie,,Springfield,MO,,US,+1 417-887-5367,https://www.edwardjones.com/us-en/financial-advisor/joanne-mckenzie,Mo-Fr 08:30-17:00,Edward Jones,Q5343830
1481,kum_and_go,Kum & Go #1481,,Springfield,MO,,US,+1 417-823-9302,https://www.kumandgo.com/store-locator?details=1481,24/7,Kum & Go,Q6443340
https://locations.qdoba.com/us/mo/springfield/4127-s-kansas-expressway.html,qdoba,QDOBA Kansas Expressway,,Springfield,MO,,US,+1 417-823-7835,https://locations.qdoba.com/us/mo/springfield/4127-s-kansas-expressway.html,Mo-Su 10:30-22:00,Qdoba,Q1363885
8296,sams_club,Springfield Sam's Club,,Springfield,MO,,US,+1 417-882-4487,https://www.samsclub.com/club/springfield-mo-sams-club/8296,Mo 10:00-20:00; Sa 09:00-20:00; Su 10:00-18:00,Sam's Club,Q1972120
2203,snap_fitness,"Springfield, MO",3659 E Sunshine St,Springfield,MO,,US,+1 417-889-7627,https://www.snapfitness.com/us/gyms/springfield-mo,24/7,Snap Fitness,Q7547254
3B91,tmobile_us,Sam's Club Springfield MO,,Springfield,MO,,US,+1 417-410-9733,https://www.t-mobile.com/store-locator/mo/springfield/sams-club-springfield-mo,,T-Mobile,Q3511885
6580900002,usps_collection_boxes,USPS COLLECTION BOX - BLUE BOX,5000 S HIGHLAND SPRINGS BLVD,SPRINGFIELD,MO,,US,,,,United States Postal Service,Q668687
6580900001,usps_collection_boxes,USPS COLLECTION BOX - BLUE BOX,1625 S EASTGATE AVE,SPRINGFIELD,MO,,US,,,,United States Postal Service,Q668687
,visa,,,SPRINGFIELD,MO,,US,,,,,
,visa,,,SPRINGFIELD,MO,,US,,,,,
,visa,,,SPRINGFIELD,MO,,US,,,,,
,visa,,,SPRINGFIELD,MO,,US,,,,,
70261309f9f6624f0178f8b13558db91,western_union,WALMART #003238,,Springfield,MO,,US,+1 417-576-9358,https://location.westernunion.com/us/mo/springfield/70261309f9f6624f0178f8b13558db91,Mo-Su 07:00-21:00,Western Union,Q861042
