Ref,Spider,Name,Address,City,State,Zipcode,Country,Phone,Website,Hours,Brand,WikiData
68307800,moneygram,METROBANK - SAN PABLO-MAIN,,SAN PABLO,,,PH,28700700,,Mo-Fr 09:00-17:00; Sa 13:00-16:30; Su 00:00-24:00,MoneyGram,Q1944412
68306911,moneygram,METROBANK - SAN PABLO-COLAGO,,SAN PABLO,,,PH,28700700,,Mo-Fr 09:00-17:00; Sa-Su 00:00-24:00,MoneyGram,Q1944412
68310444,moneygram,METROBANK - SAN PABLO MAHARLIKA,,SAN PABLO,,,PH,28700700,,Mo-Fr 09:00-16:30; Sa-Su 00:00-24:00,MoneyGram,Q1944412
70156447,moneygram,CEBUANA LHUILLIER - CLH BONIFACIO,,SAN PABLO,,,PH,27799800,,Mo-Su 08:00-20:00,MoneyGram,Q1944412
70164264,moneygram,CEBUANA LHUILLIER - CLH SAN PABLO 3,,SAN PABLO,,,PH,27799800,,Mo-Su 08:00-20:00,MoneyGram,Q1944412
70171341,moneygram,CEBUANA LHUILLIER - CLH SAN PABLO 4,,SAN PABLO,,,PH,27799800,,Mo-Su 08:00-20:00,MoneyGram,Q1944412
70164277,moneygram,CEBUANA LHUILLIER - CLH SAN PABLO MAIN,,SAN PABLO,,,PH,27799800,,Mo-Su 07:00-21:00,MoneyGram,Q1944412
73787211,moneygram,EBIZ - #124 - SAN PABLO CITY - SAN PABLO,,SAN PABLO CITY,,,PH,+63 49 503 6403,,Mo-Su 08:00-17:00,MoneyGram,Q1944412
72503975,moneygram,LBC - #523 - SAN PABLO - SAN PABLO,,SAN PABLO,,,PH,8527239,,Mo-Sa 07:00-19:00; Su 08:00-18:00,MoneyGram,Q1944412
73778929,moneygram,LBC - #SNP08 - SAN PABLO CITY - SAN PABL,,SAN PABLO CITY,,,PH,28527239,,Mo-Su 07:00-22:00,MoneyGram,Q1944412
69754915,moneygram,PALAWAN PAWNSHOP - LAGUNA SAN PABLO SAMB,,SAN PABLO CITY,,,PH,+63 48 433 4110,,Mo-Su 08:00-17:30,MoneyGram,Q1944412
69760365,moneygram,PALAWAN PAWNSHOP - SAN PABLO,,SAN PABLO CITY,,,PH,+63 48 433 4110,,Mo-Su 08:00-17:30,MoneyGram,Q1944412
74374924,moneygram,CEBUANA LHUILLIER - #62524 - SAN PABLO C,,SAN PABLO CITY,,,PH,6337799803,,Mo-Su 07:00-23:00,MoneyGram,Q1944412
70767027,moneygram,PALAWAN PAWNSHOP - #CTS - SAN PABLO CITY,,SAN PABLO CITY,,,PH,+63 48 433 4110,,Mo-Su 08:00-17:30,MoneyGram,Q1944412
70767399,moneygram,PALAWAN PAWNSHOP - #CWU - SAN PABLO CITY,,SAN PABLO CITY,,,PH,+63 48 433 4110,,Mo-Su 08:00-17:30,MoneyGram,Q1944412
70767797,moneygram,PALAWAN PAWNSHOP - #DAH - SAN PABLO CITY,,SAN PABLO CITY,,,PH,+63 48 433 4110,,Mo-Su 08:00-17:30,MoneyGram,Q1944412
71191715,moneygram,M LHUILLIER - SAN PABLO CITY - COLAGO AV,,SAN PABLO CITY,,,PH,+63 32 348 9400,,Mo-Sa 07:00-17:00; Su 08:00-18:00,MoneyGram,Q1944412
65051557,moneygram,CARD BANK - #CARD019 - SAN PABLO BRANCH,,SAN PABLO,,,PH,+63 49562 7660,,Mo-Fr 08:00-16:00; Sa-Su 00:00-24:00,MoneyGram,Q1944412
65266407,moneygram,BDO - #503 - SAN PABLO - RIZAL ST.,,SAN PABLO,,,PH,+63 49561 1882,,Mo-Fr 08:30-17:30; Sa-Su 00:00-24:00,MoneyGram,Q1944412
65275045,moneygram,M LHUILLIER - M BASA SAN PABLO LAGUNA,,SAN PABLO,,,PH,+63 32 348 9400,,Mo-Su 07:00-20:00,MoneyGram,Q1944412
65275236,moneygram,M LHUILLIER - SAN PABLO 2 LAGUNA,,SAN PABLO CITY,,,PH,+63 32 348 9400,,Mo-Su 07:00-19:00,MoneyGram,Q1944412
65629992,moneygram,BDO - #565 - SAN PABLO - MAHARLIKA HIGHW,,SAN PABLO,,,PH,6327026350,,Mo-Fr 08:30-18:00; Sa-Su 00:00-24:00,MoneyGram,Q1944412
66347341,moneygram,RD PAWNSHOP - #508,,SAN PABLO,,,PH,+63 916 719 6072,,Mo-Sa 08:00-18:00; Su 09:00-17:30,MoneyGram,Q1944412
67254763,moneygram,BDO - #712 - SAN PABLO - PAULINO,,SAN PABLO CITY,,,PH,+63 49562 4991,,Mo-Sa 09:00-18:30; Su 00:00-24:00,MoneyGram,Q1944412
67532472,moneygram,SM FOREX DEPT. STORE - #FX440 - SAN PABL,,SAN PABLO CITY,,,PH,+63 49 519 0223,,Mo-Su 10:00-20:30,MoneyGram,Q1944412
71712958,moneygram,M LHUILLIER - SAN PABLO CITY - MAHARLIKA,,SAN PABLO CITY,,,PH,+63 32 348 9400,,Mo-Sa 07:00-18:00; Su 08:00-17:00,MoneyGram,Q1944412
67784217,moneygram,SM FOREX GLOBAL PINOY - SAN PABLO - SAN,,SAN PABLO,,,PH,+63 49 519 0223,,Mo-Su 10:00-20:30,MoneyGram,Q1944412
PH_153,totalenergies,San Pablo,,San Pablo City,,,PH,,https://store.totalenergies.fr/en_EN/PH_153,Mo-Su 05:00-22:00,TotalEnergies,Q154037
PH_154,totalenergies,San Pablo 3,,San Pablo City,,,PH,+63 917 592 9409,https://store.totalenergies.fr/en_EN/PH_154,Mo-Su 05:00-22:00,TotalEnergies,Q154037
