Ref,Spider,Name,Address,City,State,Zipcode,Country,Phone,Website,Hours,Brand,WikiData
6703,bricks_minifigs_ca_us,Montana &#8211; Great Falls,Coming soon to the Great Falls area!,Great Falls,MT,,US,,,,Bricks & Minifigs,Q109329121
0150ccfd-b212-4622-89f4-1cb18be84913,cintas,"Missoula, MT","2901 W Broadway St , Missoula, MT 59802",Missoula County,MT,,US,+1 406-552-0980,,Mo-Fr 08:00-17:00,Cintas,Q1092571
2746271,circle_k,Circle K,,GLENDIVE,MT,,US,,https://www.circlek.com/store-locator/US/glendive/701-n-merrill-ave/2746271,,Circle K,Q3268010
2746281,circle_k,Circle K,,GLASGOW,MT,,US,,https://www.circlek.com/store-locator/US/glasgow/108-1st-st-n/2746281,,Circle K,Q3268010
2746272,circle_k,Circle K,,HAVRE,MT,,US,,https://www.circlek.com/store-locator/US/havre/200-w-1st-st/2746272,,Circle K,Q3268010
2746280,circle_k,Circle K,,BILLINGS,MT,,US,,https://www.circlek.com/store-locator/US/billings/1020-main-st/2746280,,Circle K,Q3268010
2746274,circle_k,Circle K,,BILLINGS,MT,,US,,https://www.circlek.com/store-locator/US/billings/2620-6th-ave-n/2746274,,Circle K,Q3268010
2746275,circle_k,Circle K,,BILLINGS,MT,,US,,https://www.circlek.com/store-locator/US/billings/105-broadwater/2746275,,Circle K,Q3268010
2746266,circle_k,Circle K,,BILLINGS,MT,,US,,https://www.circlek.com/store-locator/US/billings/745-grand-ave/2746266,,Circle K,Q3268010
2746731,circle_k,Circle K,,BILLINGS,MT,,US,,https://www.circlek.com/store-locator/US/billings/1280-grand-ave/2746731,,Circle K,Q3268010
2746108,circle_k,Circle K,,BILLINGS,MT,,US,,https://www.circlek.com/store-locator/US/billings/790-s-billings-blvd/2746108,,Circle K,Q3268010
2746470,circle_k,Circle K,,BILLINGS,MT,,US,,https://www.circlek.com/store-locator/US/billings/1212-mullowney-ln/2746470,,Circle K,Q3268010
2746285,circle_k,Circle K,,BILLINGS,MT,,US,,https://www.circlek.com/store-locator/US/billings/785-s-20th-st-w/2746285,,Circle K,Q3268010
2746087,circle_k,Circle K,,BILLINGS,MT,,US,,https://www.circlek.com/store-locator/US/billings/4041-grand-ave/2746087,,Circle K,Q3268010
2746284,circle_k,Circle K,,BILLINGS,MT,,US,,https://www.circlek.com/store-locator/US/billings/3226-rosebud-dr/2746284,,Circle K,Q3268010
2746385,circle_k,Circle K,,BILLINGS,MT,,US,,https://www.circlek.com/store-locator/US/billings/3551-ember-ln/2746385,,Circle K,Q3268010
2746273,circle_k,Circle K,,GREAT FALLS,MT,,US,,https://www.circlek.com/store-locator/US/great-falls/1020-15th-st-n/2746273,,Circle K,Q3268010
2746724,circle_k,Circle K,,GREAT FALLS,MT,,US,,https://www.circlek.com/store-locator/US/great-falls/2260-10th-ave-s/2746724,,Circle K,Q3268010
2746730,circle_k,Circle K,,GREAT FALLS,MT,,US,,https://www.circlek.com/store-locator/US/great-falls/1428-3rd-st-nw/2746730,,Circle K,Q3268010
2746059,circle_k,Circle K,,GREAT FALLS,MT,,US,,https://www.circlek.com/store-locator/US/great-falls/601-nw-byp/2746059,,Circle K,Q3268010
2746010,circle_k,Circle K,,GREAT FALLS,MT,,US,,https://www.circlek.com/store-locator/US/great-falls/1601-fox-farm-rd/2746010,,Circle K,Q3268010
2746270,circle_k,Circle K,,HELENA,MT,,US,,https://www.circlek.com/store-locator/US/helena/401-euclid-ave/2746270,,Circle K,Q3268010
2746305,circle_k,Circle K,,BOZEMAN,MT,,US,,https://www.circlek.com/store-locator/US/bozeman/1951-durston-rd/2746305,,Circle K,Q3268010
2746506,circle_k,Circle K,,BELGRADE,MT,,US,,https://www.circlek.com/store-locator/US/belgrade/402-belgrade-blvd/2746506,,Circle K,Q3268010
2746282,circle_k,Circle K,,MISSOULA,MT,,US,,https://www.circlek.com/store-locator/US/missoula/605-s-higgins/2746282,,Circle K,Q3268010
2746278,circle_k,Circle K,,MISSOULA,MT,,US,,https://www.circlek.com/store-locator/US/missoula/403-russell-st-s/2746278,,Circle K,Q3268010
2746283,circle_k,Circle K,,MISSOULA,MT,,US,,https://www.circlek.com/store-locator/US/missoula/2325-s-reserve-st/2746283,,Circle K,Q3268010
5b289060-5e6e-11ea-ac15-4dfeebe00dcc:Store,crumbl_cookies_us,Billings,"27 Shiloh Rd, Suite 6, Billings, Montana 59106",,MT,,US,+1 406-530-7327,https://crumblcookies.com/billings,Mo-Th 08:00-22:00,Crumbl Cookies,Q106924414
0929afb0-12f0-11eb-994f-d7f32a3d1f51:Store,crumbl_cookies_us,Bozeman,"1060 Fowler Ave, Bozeman, Montana 59718",,MT,,US,+1 406-351-4589,https://crumblcookies.com/bozeman,Mo-Sa 08:00-22:00,Crumbl Cookies,Q106924414
530349d0-9f2a-11ec-bae3-6bcffea163b5:Store,crumbl_cookies_us,Great Falls,"2114 10th Ave., Great Falls, Montana 59405",,MT,,US,+1 406-315-5002,https://crumblcookies.com/mtgreatfalls,Mo-Sa 08:00-22:00,Crumbl Cookies,Q106924414
22d4d950-d850-11eb-a55e-05de4b973ace:Store,crumbl_cookies_us,Helena,"2030 Cromwell Dixon Ln Suite J, Helena, Montana 59602",,MT,,US,+1 406-204-0568,https://crumblcookies.com/mthelena,Mo-Sa 08:00-22:00,Crumbl Cookies,Q106924414
531d63f0-5e6e-11ea-bdc8-4f8d0b878ff3:Store,crumbl_cookies_us,Missoula,"3075 N Reserve St, Suite J , Missoula, Montana 59808",,MT,,US,+1 406-351-0900,https://crumblcookies.com/missoula,Mo-Th 08:00-23:00,Crumbl Cookies,Q106924414
44744622,francescas_us,Rimrock Mall #519,"300 S. 24th Street W. C-08,Billings, MT 59102",,MT,,US,+1 406-272-0667,,,Francesca's,Q72982331
,good_2_go_stores_us,Good 2 Go #808,"1600 North Crawford Ave, Hardin, MT 59034",Big Horn County,MT,,US,+1 406-665-2920,,,Good 2 Go,Q109826132
283,holiday_stationstores_us,Holiday,,Missoula,MT,,US,+1 406-542-1436,https://www.holidaystationstores.com/Locations/Detail?storeNumber=283,24/7,Holiday Stationstores,Q5880490
282,holiday_stationstores_us,Holiday,,Missoula,MT,,US,+1 406-721-6911,https://www.holidaystationstores.com/Locations/Detail?storeNumber=282,24/7,Holiday Stationstores,Q5880490
278,holiday_stationstores_us,Holiday,,Missoula,MT,,US,+1 406-728-2380,https://www.holidaystationstores.com/Locations/Detail?storeNumber=278,24/7,Holiday Stationstores,Q5880490
722,holiday_stationstores_us,Holiday,,Kalispell,MT,,US,+1 406-257-9893,https://www.holidaystationstores.com/Locations/Detail?storeNumber=722,Mo-Su 07:00-19:00,Holiday Stationstores,Q5880490
270,holiday_stationstores_us,Holiday,,Helena,MT,,US,+1 406-443-0135,https://www.holidaystationstores.com/Locations/Detail?storeNumber=270,24/7,Holiday Stationstores,Q5880490
272,holiday_stationstores_us,Holiday,,Havre,MT,,US,+1 406-265-8421,https://www.holidaystationstores.com/Locations/Detail?storeNumber=272,24/7,Holiday Stationstores,Q5880490
730,holiday_stationstores_us,Holiday,,Great Falls,MT,,US,+1 406-453-5058,https://www.holidaystationstores.com/Locations/Detail?storeNumber=730,Mo-Su 06:00-23:00,Holiday Stationstores,Q5880490
724,holiday_stationstores_us,Holiday,,Great Falls,MT,,US,+1 406-761-4047,https://www.holidaystationstores.com/Locations/Detail?storeNumber=724,Mo-Su 08:00-20:00,Holiday Stationstores,Q5880490
273,holiday_stationstores_us,Holiday,,Great Falls,MT,,US,+1 406-727-3573,https://www.holidaystationstores.com/Locations/Detail?storeNumber=273,24/7,Holiday Stationstores,Q5880490
59,holiday_stationstores_us,Holiday,,Great Falls,MT,,US,+1 406-454-1054,https://www.holidaystationstores.com/Locations/Detail?storeNumber=59,24/7,Holiday Stationstores,Q5880490
10,holiday_stationstores_us,Holiday,,Great Falls,MT,,US,+1 406-727-7757,https://www.holidaystationstores.com/Locations/Detail?storeNumber=10,24/7,Holiday Stationstores,Q5880490
271,holiday_stationstores_us,Holiday,,Glendive,MT,,US,+1 406-365-2221,https://www.holidaystationstores.com/Locations/Detail?storeNumber=271,24/7,Holiday Stationstores,Q5880490
281,holiday_stationstores_us,Holiday,,Glasgow,MT,,US,+1 406-228-9578,https://www.holidaystationstores.com/Locations/Detail?storeNumber=281,24/7,Holiday Stationstores,Q5880490
305,holiday_stationstores_us,Holiday,,Bozeman,MT,,US,+1 406-585-3460,https://www.holidaystationstores.com/Locations/Detail?storeNumber=305,24/7,Holiday Stationstores,Q5880490
731,holiday_stationstores_us,Holiday,,Billings,MT,,US,+1 406-256-7208,https://www.holidaystationstores.com/Locations/Detail?storeNumber=731,Mo-Su 06:00-23:00,Holiday Stationstores,Q5880490
470,holiday_stationstores_us,Holiday,,Billings,MT,,US,+1 406-259-7203,https://www.holidaystationstores.com/Locations/Detail?storeNumber=470,24/7,Holiday Stationstores,Q5880490
385,holiday_stationstores_us,Holiday,,Billings,MT,,US,+1 406-651-0972,https://www.holidaystationstores.com/Locations/Detail?storeNumber=385,24/7,Holiday Stationstores,Q5880490
285,holiday_stationstores_us,Holiday,,Billings,MT,,US,+1 406-656-3430,https://www.holidaystationstores.com/Locations/Detail?storeNumber=285,24/7,Holiday Stationstores,Q5880490
284,holiday_stationstores_us,Holiday,,Billings,MT,,US,+1 406-652-4095,https://www.holidaystationstores.com/Locations/Detail?storeNumber=284,Mo-Su 05:00-00:00,Holiday Stationstores,Q5880490
280,holiday_stationstores_us,Holiday,,Billings,MT,,US,+1 406-245-1254,https://www.holidaystationstores.com/Locations/Detail?storeNumber=280,24/7,Holiday Stationstores,Q5880490
275,holiday_stationstores_us,Holiday,,Billings,MT,,US,+1 406-259-7361,https://www.holidaystationstores.com/Locations/Detail?storeNumber=275,24/7,Holiday Stationstores,Q5880490
274,holiday_stationstores_us,Holiday,,Billings,MT,,US,+1 406-248-7037,https://www.holidaystationstores.com/Locations/Detail?storeNumber=274,24/7,Holiday Stationstores,Q5880490
266,holiday_stationstores_us,Holiday,,Billings,MT,,US,+1 406-248-7038,https://www.holidaystationstores.com/Locations/Detail?storeNumber=266,24/7,Holiday Stationstores,Q5880490
108,holiday_stationstores_us,Holiday,,Billings,MT,,US,+1 406-896-1896,https://www.holidaystationstores.com/Locations/Detail?storeNumber=108,24/7,Holiday Stationstores,Q5880490
87,holiday_stationstores_us,Holiday,,Billings,MT,,US,+1 406-651-9353,https://www.holidaystationstores.com/Locations/Detail?storeNumber=87,24/7,Holiday Stationstores,Q5880490
506,holiday_stationstores_us,Holiday,,Belgrade,MT,,US,+1 406-924-0203,https://www.holidaystationstores.com/Locations/Detail?storeNumber=506,24/7,Holiday Stationstores,Q5880490
2292,petsmart,Kalispell,"65 Treeline Rd Kalispell, MT 59901",,MT,,US,+1 406-756-0534,https://www.petsmart.com/stores/us/mt/kalispell-store2292.html,Mo-Sa 09:00-21:00; Su 10:00-19:00,PetSmart,Q3307147
2747,petsmart,Great Falls,"1200 10th Ave S STE 91 Great Falls, MT 59405",,MT,,US,+1 406-770-4238,https://www.petsmart.com/stores/us/mt/great-falls-store2747.html,Mo-Sa 09:00-21:00; Su 10:00-19:00,PetSmart,Q3307147
3027,petsmart,N Billings Mt,"1537 Main St Billings, MT 59105",,MT,,US,+1 406-371-4890,https://www.petsmart.com/stores/us/mt/billings-store3027.html,Mo-Sa 09:00-21:00; Su 10:00-18:00,PetSmart,Q3307147
2447,petsmart,Helena,"3341 N Montana Ave Helena, MT 59602",,MT,,US,+1 406-437-9040,https://www.petsmart.com/stores/us/mt/helena-store2447.html,Mo-Sa 09:00-21:00; Su 10:00-19:00,PetSmart,Q3307147
1033,petsmart,Bozeman,"2997 Max Ave Bozeman, MT 59718",,MT,,US,+1 406-522-1515,https://www.petsmart.com/stores/us/mt/bozeman-store1033.html,Mo-Sa 09:00-21:00; Su 10:00-19:00,PetSmart,Q3307147
0393,petsmart,Billings,"2510 King Ave West Billings, MT 59102",,MT,,US,+1 406-656-2309,https://www.petsmart.com/stores/us/mt/billings-store0393.html,Mo-Sa 09:00-21:00; Su 10:00-19:00,PetSmart,Q3307147
0391,petsmart,Missoula,"2850 N Reserve St Missoula, MT 59808",,MT,,US,+1 406-549-9188,https://www.petsmart.com/stores/us/mt/missoula-store0391.html,Mo-Sa 09:00-21:00; Su 10:00-19:00,PetSmart,Q3307147
https://www.questdiagnostics.com/locations/detail.html/X9J/59718/75/1,quest_diagnostics,Tri* Med Services - 3rd party draw site  - Tri* Med Services,"233 Edelweiss Dr, Unit 10B, Bozeman, MT 59718",Gallatin County,MT,,US,+1 406-585-3301,https://www.questdiagnostics.com/locations/detail.html/X9J/59718/75/1,Mo-Fr 08:00-16:30,Quest Diagnostics,Q7271456
https://www.questdiagnostics.com/locations/detail.html/L8H/59901/75/1,quest_diagnostics,Valley Medical Services - Flat Head Valley Medical Services,"2425 Us Highway 2 E, First Floor, Kalispell, MT 59901",Flathead County,MT,,US,+1 406-313-0493,https://www.questdiagnostics.com/locations/detail.html/L8H/59901/75/1,Mo-Th 08:00-16:00,Quest Diagnostics,Q7271456
https://www.questdiagnostics.com/locations/detail.html/BIN/59101/75/1,quest_diagnostics,Quest Diagnostics - Billings PSC,"2900 12Th Ave N, Suite 255 West Wing, Billings, MT 59101",Yellowstone County,MT,,US,+1 406-200-5026,https://www.questdiagnostics.com/locations/detail.html/BIN/59101/75/1,"Mo-Fr 07:00-12:00,13:00-15:30",Quest Diagnostics,Q7271456
https://www.questdiagnostics.com/locations/detail.html/KI3/59405/75/1,quest_diagnostics,Quest Diagnostics - Great Falls,"401 15Th Ave S, Ste 107, Great Falls, MT 59405",Cascade County,MT,,US,+1 406-750-7795,https://www.questdiagnostics.com/locations/detail.html/KI3/59405/75/1,"Mo-Th 07:00-12:00,13:00-16:00; Fr 07:00-12:00",Quest Diagnostics,Q7271456
42382189,simple_simons_pizza_us,Simple Simon's Pizza,"102 E Railroad Ave, Plains, MT 59859",,MT,,US,+1 406-826-5505,,Mo-Su 11:00-20:00,Simple Simon's Pizza,Q116737866
48490566,simple_simons_pizza_us,Simple Simon's Pizza,"110 Blaine St, St. Ignatius, MT 59865",,MT,,US,+1 406-745-7492,,Mo-Su 11:00-21:00,Simple Simon's Pizza,Q116737866
https://www.statefarm.com/agent/us/mt/billings/jeff-boyd-k4ql01ys000,state_farm_us,Jeff Boyd,,,MT,,US,+1 406-656-6771,https://www.statefarm.com/agent/us/mt/billings/jeff-boyd-k4ql01ys000,,State Farm,Q2007336
https://www.statefarm.com/agent/us/mt/east-helena/joe-mitchell-027lbbnz7gf,state_farm_us,Joe Mitchell,,,MT,,US,+1 406-502-1600,https://www.statefarm.com/agent/us/mt/east-helena/joe-mitchell-027lbbnz7gf,,State Farm,Q2007336
https://www.statefarm.com/agent/us/mt/billings/tim-friez-zc84y1ys000,state_farm_us,Tim Friez,,,MT,,US,+1 406-248-2507,https://www.statefarm.com/agent/us/mt/billings/tim-friez-zc84y1ys000,,State Farm,Q2007336
https://www.statefarm.com/agent/us/mt/bozeman/daniel-corbin-bpfc452pdak,state_farm_us,Daniel Corbin,,,MT,,US,+1 406-624-0099,https://www.statefarm.com/agent/us/mt/bozeman/daniel-corbin-bpfc452pdak,,State Farm,Q2007336
https://www.statefarm.com/agent/us/mt/missoula/bob-king-1zsmb1ys000,state_farm_us,Bob King,,,MT,,US,+1 406-549-2222,https://www.statefarm.com/agent/us/mt/missoula/bob-king-1zsmb1ys000,,State Farm,Q2007336
https://www.statefarm.com/agent/us/mt/havre/anthony-cammon-h1nwz4sdsal,state_farm_us,Anthony Cammon,,,MT,,US,+1 406-945-9000,https://www.statefarm.com/agent/us/mt/havre/anthony-cammon-h1nwz4sdsal,,State Farm,Q2007336
https://www.statefarm.com/agent/us/mt/great-falls/greg-franczyk-b8jx64vn1ak,state_farm_us,Greg Franczyk,,,MT,,US,+1 406-770-3040,https://www.statefarm.com/agent/us/mt/great-falls/greg-franczyk-b8jx64vn1ak,,State Farm,Q2007336
https://www.statefarm.com/agent/us/mt/great-falls/mike-radovich-y5b6t1ys000,state_farm_us,Mike Radovich,,,MT,,US,+1 406-727-9311,https://www.statefarm.com/agent/us/mt/great-falls/mike-radovich-y5b6t1ys000,,State Farm,Q2007336
https://www.statefarm.com/agent/us/mt/kalispell/matt-downing-jm3pz4sq1ak,state_farm_us,Matt Downing,,,MT,,US,+1 406-752-2116,https://www.statefarm.com/agent/us/mt/kalispell/matt-downing-jm3pz4sq1ak,,State Farm,Q2007336
https://www.statefarm.com/agent/us/mt/conrad/krysta-bakken-t8fcr7sb6ak,state_farm_us,Krysta Bakken,,,MT,,US,+1 406-278-3222,https://www.statefarm.com/agent/us/mt/conrad/krysta-bakken-t8fcr7sb6ak,,State Farm,Q2007336
https://www.statefarm.com/agent/us/mt/forsyth/shan-kuntz-tctyr1ys000,state_farm_us,Shan Kuntz,,,MT,,US,+1 406-346-7341,https://www.statefarm.com/agent/us/mt/forsyth/shan-kuntz-tctyr1ys000,,State Farm,Q2007336
https://www.statefarm.com/agent/us/mt/great-falls/scott-schissler-7v1pm1ys000,state_farm_us,Scott Schissler,,,MT,,US,+1 406-761-8612,https://www.statefarm.com/agent/us/mt/great-falls/scott-schissler-7v1pm1ys000,,State Farm,Q2007336
https://www.statefarm.com/agent/us/mt/dillon/ted-ori-xdtb71ys000,state_farm_us,Ted Ori,,,MT,,US,+1 406-683-5721,https://www.statefarm.com/agent/us/mt/dillon/ted-ori-xdtb71ys000,,State Farm,Q2007336
https://www.statefarm.com/agent/us/mt/hamilton/marc-spear-bw1yp1ys000,state_farm_us,Marc Spear,,,MT,,US,+1 406-363-1544,https://www.statefarm.com/agent/us/mt/hamilton/marc-spear-bw1yp1ys000,,State Farm,Q2007336
https://www.statefarm.com/agent/us/mt/great-falls/austin-collins-tm9hx87rnge,state_farm_us,Austin Collins,,,MT,,US,+1 406-770-3131,https://www.statefarm.com/agent/us/mt/great-falls/austin-collins-tm9hx87rnge,,State Farm,Q2007336
https://www.statefarm.com/agent/us/mt/billings/bonnie-dedmore-y1yp21ys000,state_farm_us,Bonnie Dedmore,,,MT,,US,+1 406-248-8088,https://www.statefarm.com/agent/us/mt/billings/bonnie-dedmore-y1yp21ys000,,State Farm,Q2007336
https://www.statefarm.com/agent/us/mt/helena/gayle-grimsrud-6rgny1ys000,state_farm_us,Gayle Grimsrud,,,MT,,US,+1 406-449-8793,https://www.statefarm.com/agent/us/mt/helena/gayle-grimsrud-6rgny1ys000,,State Farm,Q2007336
https://www.statefarm.com/agent/us/mt/miles-city/freddie-wambolt-tz9q54qltal,state_farm_us,Freddie Wambolt,,,MT,,US,+1 406-234-1972,https://www.statefarm.com/agent/us/mt/miles-city/freddie-wambolt-tz9q54qltal,,State Farm,Q2007336
https://www.statefarm.com/agent/us/mt/kalispell/jon-shaw-t4r768vf0ak,state_farm_us,Jon Shaw,,,MT,,US,+1 406-314-6505,https://www.statefarm.com/agent/us/mt/kalispell/jon-shaw-t4r768vf0ak,,State Farm,Q2007336
https://www.statefarm.com/agent/us/mt/livingston/sarah-skofield-k6vh036r000,state_farm_us,Sarah Skofield,,,MT,,US,+1 406-222-1000,https://www.statefarm.com/agent/us/mt/livingston/sarah-skofield-k6vh036r000,,State Farm,Q2007336
https://www.statefarm.com/agent/us/mt/miles-city/tyler-chapmon-rbbtc5bphak,state_farm_us,Tyler Chapmon,,,MT,,US,+1 406-232-2572,https://www.statefarm.com/agent/us/mt/miles-city/tyler-chapmon-rbbtc5bphak,,State Farm,Q2007336
https://www.statefarm.com/agent/us/mt/billings/kari-hooper-jones-g31hw51j6al,state_farm_us,Kari Jones,,,MT,,US,+1 406-248-6556,https://www.statefarm.com/agent/us/mt/billings/kari-hooper-jones-g31hw51j6al,,State Farm,Q2007336
https://www.statefarm.com/agent/us/mt/plentywood/sherri-mccrory-v33t12pv000,state_farm_us,Sherri McCrory,,,MT,,US,+1 406-765-1821,https://www.statefarm.com/agent/us/mt/plentywood/sherri-mccrory-v33t12pv000,,State Farm,Q2007336
https://www.statefarm.com/agent/us/mt/helena/joe-mitchell-v46zp5y4hak,state_farm_us,Joe Mitchell,,,MT,,US,+1 406-443-0867,https://www.statefarm.com/agent/us/mt/helena/joe-mitchell-v46zp5y4hak,,State Farm,Q2007336
https://www.statefarm.com/agent/us/mt/sidney/michele-herres-cpjty83vzak,state_farm_us,Michele Herres,,,MT,,US,+1 406-488-2400,https://www.statefarm.com/agent/us/mt/sidney/michele-herres-cpjty83vzak,,State Farm,Q2007336
https://www.statefarm.com/agent/us/mt/bozeman/jeff-weedin-hlk8j27t000,state_farm_us,Jeff Weedin,,,MT,,US,+1 406-586-4900,https://www.statefarm.com/agent/us/mt/bozeman/jeff-weedin-hlk8j27t000,,State Farm,Q2007336
https://www.statefarm.com/agent/us/mt/livingston/dean-hendrickson-k4q8c1ys000,state_farm_us,Dean Hendrickson,,,MT,,US,+1 406-222-2250,https://www.statefarm.com/agent/us/mt/livingston/dean-hendrickson-k4q8c1ys000,,State Farm,Q2007336
https://www.statefarm.com/agent/us/mt/bozeman/dan-rust-gk4w01ys000,state_farm_us,Dan Rust,,,MT,,US,+1 406-587-8287,https://www.statefarm.com/agent/us/mt/bozeman/dan-rust-gk4w01ys000,,State Farm,Q2007336
https://www.statefarm.com/agent/us/mt/billings/mike-mcelvain-ph0291ys000,state_farm_us,Mike McElvain,,,MT,,US,+1 406-248-1213,https://www.statefarm.com/agent/us/mt/billings/mike-mcelvain-ph0291ys000,,State Farm,Q2007336
https://www.statefarm.com/agent/us/mt/hardin/terri-hein-lkc781ys000,state_farm_us,Terri Hein,,,MT,,US,+1 406-665-1006,https://www.statefarm.com/agent/us/mt/hardin/terri-hein-lkc781ys000,,State Farm,Q2007336
https://www.statefarm.com/agent/us/mt/missoula/robin-peters-xdth91ys000,state_farm_us,Robin Peters,,,MT,,US,+1 406-728-1697,https://www.statefarm.com/agent/us/mt/missoula/robin-peters-xdth91ys000,,State Farm,Q2007336
https://www.statefarm.com/agent/us/mt/missoula/darby-south-6n4f41ys000,state_farm_us,Darby South,,,MT,,US,+1 406-721-2980,https://www.statefarm.com/agent/us/mt/missoula/darby-south-6n4f41ys000,,State Farm,Q2007336
https://www.statefarm.com/agent/us/mt/billings/jeff-keil-7qp661ys000,state_farm_us,Jeff Keil,,,MT,,US,+1 406-245-6381,https://www.statefarm.com/agent/us/mt/billings/jeff-keil-7qp661ys000,,State Farm,Q2007336
https://www.statefarm.com/agent/us/mt/billings/randy-glover-57hbm1ys000,state_farm_us,Randy Glover,,,MT,,US,+1 406-248-1104,https://www.statefarm.com/agent/us/mt/billings/randy-glover-57hbm1ys000,,State Farm,Q2007336
https://www.statefarm.com/agent/us/mt/kalispell/sandy-goode-long-sq0714qpval,state_farm_us,Sandra Goode-Long,,,MT,,US,+1 406-257-7714,https://www.statefarm.com/agent/us/mt/kalispell/sandy-goode-long-sq0714qpval,,State Farm,Q2007336
https://www.statefarm.com/agent/us/mt/kalispell/jeremy-hicks-4gqfx8vg2ak,state_farm_us,Jeremy Hicks,,,MT,,US,+1 406-752-3515,https://www.statefarm.com/agent/us/mt/kalispell/jeremy-hicks-4gqfx8vg2ak,,State Farm,Q2007336
https://www.statefarm.com/agent/us/mt/havre/thomas-lafond-jdhnp7qf5al,state_farm_us,Tom LaFond,,,MT,,US,+1 406-265-5861,https://www.statefarm.com/agent/us/mt/havre/thomas-lafond-jdhnp7qf5al,,State Farm,Q2007336
https://www.statefarm.com/agent/us/mt/glasgow/troy-kelsey-frmzxbpfmgf,state_farm_us,Troy Kelsey,,,MT,,US,+1 406-228-4329,https://www.statefarm.com/agent/us/mt/glasgow/troy-kelsey-frmzxbpfmgf,,State Farm,Q2007336
https://www.statefarm.com/agent/us/mt/great-falls/gary-fosse-bzcyd1ys000,state_farm_us,Gary Fosse,,,MT,,US,+1 406-268-8888,https://www.statefarm.com/agent/us/mt/great-falls/gary-fosse-bzcyd1ys000,,State Farm,Q2007336
https://www.statefarm.com/agent/us/mt/missoula/nate-sanders-k38mh604dak,state_farm_us,Nate Sanders,,,MT,,US,+1 406-721-5050,https://www.statefarm.com/agent/us/mt/missoula/nate-sanders-k38mh604dak,,State Farm,Q2007336
https://www.statefarm.com/agent/us/mt/bozeman/brad-daws-h696v1ys000,state_farm_us,Brad Daws,,,MT,,US,+1 406-586-4663,https://www.statefarm.com/agent/us/mt/bozeman/brad-daws-h696v1ys000,,State Farm,Q2007336
https://www.statefarm.com/agent/us/mt/helena/jon-miller-7dbjs5gg7al,state_farm_us,Jon Miller,,,MT,,US,+1 406-502-2200,https://www.statefarm.com/agent/us/mt/helena/jon-miller-7dbjs5gg7al,,State Farm,Q2007336
https://www.statefarm.com/agent/us/mt/kalispell/tj-wendt-b06kn1ys000,state_farm_us,TJ Wendt,,,MT,,US,+1 406-752-9300,https://www.statefarm.com/agent/us/mt/kalispell/tj-wendt-b06kn1ys000,,State Farm,Q2007336
https://www.statefarm.com/agent/us/mt/stevensville/darcy-hansen-n7y609y41ak,state_farm_us,Darcy Hansen,,,MT,,US,+1 406-625-3715,https://www.statefarm.com/agent/us/mt/stevensville/darcy-hansen-n7y609y41ak,,State Farm,Q2007336
https://www.statefarm.com/agent/us/mt/plains/gabby-bache-tpyxs971bak,state_farm_us,Gabby Bache,,,MT,,US,+1 406-826-3877,https://www.statefarm.com/agent/us/mt/plains/gabby-bache-tpyxs971bak,,State Farm,Q2007336
https://www.statefarm.com/agent/us/mt/missoula/misti-svoboda-s8x7y56j8ak,state_farm_us,Misti Svoboda,,,MT,,US,+1 406-552-0730,https://www.statefarm.com/agent/us/mt/missoula/misti-svoboda-s8x7y56j8ak,,State Farm,Q2007336
https://www.statefarm.com/agent/us/mt/bigfork/katie-hicks-9gq429547ak,state_farm_us,Katie Hicks,,,MT,,US,+1 406-420-0152,https://www.statefarm.com/agent/us/mt/bigfork/katie-hicks-9gq429547ak,,State Farm,Q2007336
https://www.statefarm.com/agent/us/mt/chinook/crystal-stepper-50m6z8czrak,state_farm_us,Crystal Stepper,,,MT,,US,+1 406-357-3198,https://www.statefarm.com/agent/us/mt/chinook/crystal-stepper-50m6z8czrak,,State Farm,Q2007336
https://www.statefarm.com/agent/us/mt/helena/jeff-bolstad-72jvc1ys000,state_farm_us,Jeff Bolstad,,,MT,,US,+1 406-449-2545,https://www.statefarm.com/agent/us/mt/helena/jeff-bolstad-72jvc1ys000,,State Farm,Q2007336
https://www.statefarm.com/agent/us/mt/helena/mike-miller-vr7n93nx000,state_farm_us,Mike Miller,,,MT,,US,+1 406-442-9900,https://www.statefarm.com/agent/us/mt/helena/mike-miller-vr7n93nx000,,State Farm,Q2007336
https://www.statefarm.com/agent/us/mt/bozeman/bethany-lentz-lf0qp69hfak,state_farm_us,Bethany Lentz,,,MT,,US,+1 406-624-6767,https://www.statefarm.com/agent/us/mt/bozeman/bethany-lentz-lf0qp69hfak,,State Farm,Q2007336
https://www.statefarm.com/agent/us/mt/missoula/riley-mcgiboney-yhdfz1ys000,state_farm_us,Riley McGiboney,,,MT,,US,+1 406-549-3621,https://www.statefarm.com/agent/us/mt/missoula/riley-mcgiboney-yhdfz1ys000,,State Farm,Q2007336
https://www.statefarm.com/agent/us/mt/billings/ed-smith-bb8361ys000,state_farm_us,Ed Smith,,,MT,,US,+1 406-245-6374,https://www.statefarm.com/agent/us/mt/billings/ed-smith-bb8361ys000,,State Farm,Q2007336
https://www.statefarm.com/agent/us/mt/billings/brian-nearpass-bw12f1ys000,state_farm_us,Brian Nearpass,,,MT,,US,+1 406-248-2193,https://www.statefarm.com/agent/us/mt/billings/brian-nearpass-bw12f1ys000,,State Farm,Q2007336
https://www.statefarm.com/agent/us/mt/bozeman/larry-bitterman-2jljj1ys000,state_farm_us,Larry Bitterman,,,MT,,US,+1 406-586-2200,https://www.statefarm.com/agent/us/mt/bozeman/larry-bitterman-2jljj1ys000,,State Farm,Q2007336
https://www.statefarm.com/agent/us/mt/great-falls/terry-ehrhardt-ksw3v1ys000,state_farm_us,Terry Ehrhardt,,,MT,,US,+1 406-761-6211,https://www.statefarm.com/agent/us/mt/great-falls/terry-ehrhardt-ksw3v1ys000,,State Farm,Q2007336
https://www.statefarm.com/agent/us/mt/bozeman/dusty-daws-c4wdp3k9000,state_farm_us,Dusty Daws,,,MT,,US,+1 406-586-0084,https://www.statefarm.com/agent/us/mt/bozeman/dusty-daws-c4wdp3k9000,,State Farm,Q2007336
https://www.statefarm.com/agent/us/mt/billings/don-lillis-lfzz11ys000,state_farm_us,Don Lillis,,,MT,,US,+1 406-252-1915,https://www.statefarm.com/agent/us/mt/billings/don-lillis-lfzz11ys000,,State Farm,Q2007336
https://www.statefarm.com/agent/us/mt/billings/karen-smith-t5y3k9sz3ak,state_farm_us,Karen Smith,,,MT,,US,+1 406-651-0610,https://www.statefarm.com/agent/us/mt/billings/karen-smith-t5y3k9sz3ak,,State Farm,Q2007336
https://www.statefarm.com/agent/us/mt/manhattan/daniel-corbin-sbc2wbjtxak,state_farm_us,Daniel Corbin,,,MT,,US,+1 406-282-0021,https://www.statefarm.com/agent/us/mt/manhattan/daniel-corbin-sbc2wbjtxak,,State Farm,Q2007336
https://www.statefarm.com/agent/us/mt/butte/jim-lynch-g72pl1ys000,state_farm_us,Jim Lynch,,,MT,,US,+1 406-494-3300,https://www.statefarm.com/agent/us/mt/butte/jim-lynch-g72pl1ys000,,State Farm,Q2007336
https://www.statefarm.com/agent/us/mt/cut-bank/adam-kerfoot-xjbth8vf4ak,state_farm_us,Adam Kerfoot,,,MT,,US,+1 406-873-4444,https://www.statefarm.com/agent/us/mt/cut-bank/adam-kerfoot-xjbth8vf4ak,,State Farm,Q2007336
https://www.statefarm.com/agent/us/mt/belgrade/ty-elliot-75xjx1ys000,state_farm_us,Ty Elliot,,,MT,,US,+1 406-388-3178,https://www.statefarm.com/agent/us/mt/belgrade/ty-elliot-75xjx1ys000,,State Farm,Q2007336
https://www.statefarm.com/agent/us/mt/billings/sean-odaniel-9f2x77mqqak,state_farm_us,Sean O'Daniel,,,MT,,US,+1 406-702-7711,https://www.statefarm.com/agent/us/mt/billings/sean-odaniel-9f2x77mqqak,,State Farm,Q2007336
https://www.statefarm.com/agent/us/mt/hamilton/taylor-king-k73vq6qbdal,state_farm_us,Taylor King,,,MT,,US,+1 406-363-2315,https://www.statefarm.com/agent/us/mt/hamilton/taylor-king-k73vq6qbdal,,State Farm,Q2007336
https://www.statefarm.com/agent/us/mt/deer-lodge/matt-king-k5qfz6zpsgf,state_farm_us,Matt King,,,MT,,US,+1 406-846-1111,https://www.statefarm.com/agent/us/mt/deer-lodge/matt-king-k5qfz6zpsgf,,State Farm,Q2007336
https://www.statefarm.com/agent/us/mt/billings/diana-larson-0svts1ys000,state_farm_us,Diana Larson,,,MT,,US,+1 406-656-4764,https://www.statefarm.com/agent/us/mt/billings/diana-larson-0svts1ys000,,State Farm,Q2007336
https://www.statefarm.com/agent/us/mt/glendive/jay-morasko-yd0vh1ys000,state_farm_us,Jay Morasko,,,MT,,US,+1 406-365-2497,https://www.statefarm.com/agent/us/mt/glendive/jay-morasko-yd0vh1ys000,,State Farm,Q2007336
https://www.statefarm.com/agent/us/mt/columbia-falls/lyle-mitchell-rb2071ys000,state_farm_us,Lyle Mitchell,,,MT,,US,+1 406-892-5500,https://www.statefarm.com/agent/us/mt/columbia-falls/lyle-mitchell-rb2071ys000,,State Farm,Q2007336
https://www.statefarm.com/agent/us/mt/polson/adam-probst-mk6sd99w7ak,state_farm_us,Adam Probst,,,MT,,US,+1 406-883-5983,https://www.statefarm.com/agent/us/mt/polson/adam-probst-mk6sd99w7ak,,State Farm,Q2007336
https://www.statefarm.com/agent/us/mt/whitefish/joe-akey-wz2nl67g0al,state_farm_us,Joe Akey,,,MT,,US,+1 406-862-7747,https://www.statefarm.com/agent/us/mt/whitefish/joe-akey-wz2nl67g0al,,State Farm,Q2007336
https://www.statefarm.com/agent/us/mt/missoula/tom-larson-g3qv51ys000,state_farm_us,Tom Larson,,,MT,,US,+1 406-542-2101,https://www.statefarm.com/agent/us/mt/missoula/tom-larson-g3qv51ys000,,State Farm,Q2007336
https://www.statefarm.com/agent/us/mt/butte/leo-mccarthy-ytgg71ys000,state_farm_us,Leo McCarthy,,,MT,,US,+1 406-723-3285,https://www.statefarm.com/agent/us/mt/butte/leo-mccarthy-ytgg71ys000,,State Farm,Q2007336
https://www.statefarm.com/agent/us/mt/billings/jeff-wigen-jt7645zr7al,state_farm_us,Jeff Wigen,,,MT,,US,+1 406-294-5310,https://www.statefarm.com/agent/us/mt/billings/jeff-wigen-jt7645zr7al,,State Farm,Q2007336
https://www.statefarm.com/agent/us/mt/libby/teresa-wilson-rxyrp3mj000,state_farm_us,Teresa Wilson,,,MT,,US,+1 406-293-3774,https://www.statefarm.com/agent/us/mt/libby/teresa-wilson-rxyrp3mj000,,State Farm,Q2007336
https://www.statefarm.com/agent/us/mt/billings/jamie-anderson-m9vmq1ys000,state_farm_us,Jamie Anderson,,,MT,,US,+1 406-656-6404,https://www.statefarm.com/agent/us/mt/billings/jamie-anderson-m9vmq1ys000,,State Farm,Q2007336
https://www.statefarm.com/agent/us/mt/sidney/mike-morasko-7dm0s1ys000,state_farm_us,Mike Morasko,,,MT,,US,+1 406-482-3115,https://www.statefarm.com/agent/us/mt/sidney/mike-morasko-7dm0s1ys000,,State Farm,Q2007336
https://www.statefarm.com/agent/us/mt/lewistown/rudy-strnad-p2z0h7jctge,state_farm_us,Rudy Strnad,,,MT,,US,+1 406-535-3010,https://www.statefarm.com/agent/us/mt/lewistown/rudy-strnad-p2z0h7jctge,,State Farm,Q2007336
https://www.statefarm.com/agent/us/mt/billings/nathan-lee-q5t1t534qak,state_farm_us,Nathan Lee,,,MT,,US,+1 406-656-6405,https://www.statefarm.com/agent/us/mt/billings/nathan-lee-q5t1t534qak,,State Farm,Q2007336
https://www.statefarm.com/agent/us/mt/butte/mike-paffhausen-809gc7dppak,state_farm_us,Mike Paffhausen,,,MT,,US,+1 406-565-4363,https://www.statefarm.com/agent/us/mt/butte/mike-paffhausen-809gc7dppak,,State Farm,Q2007336
https://www.statefarm.com/agent/us/mt/kalispell/dan-schneller-1nr221ys000,state_farm_us,Dan Schneller,,,MT,,US,+1 406-755-3122,https://www.statefarm.com/agent/us/mt/kalispell/dan-schneller-1nr221ys000,,State Farm,Q2007336
https://www.statefarm.com/agent/us/mt/anaconda/mike-king-g734p1ys000,state_farm_us,Mike King,,,MT,,US,+1 406-563-2991,https://www.statefarm.com/agent/us/mt/anaconda/mike-king-g734p1ys000,,State Farm,Q2007336
https://www.statefarm.com/agent/us/mt/great-falls/pam-h-alfred-6fdhj1ys000,state_farm_us,Pam Hansen Alfred,,,MT,,US,+1 406-453-6010,https://www.statefarm.com/agent/us/mt/great-falls/pam-h-alfred-6fdhj1ys000,,State Farm,Q2007336
https://www.statefarm.com/agent/us/mt/laurel/tom-maack-fkywc1ys000,state_farm_us,Tom Maack,,,MT,,US,+1 406-628-8618,https://www.statefarm.com/agent/us/mt/laurel/tom-maack-fkywc1ys000,,State Farm,Q2007336
4329468,teriyaki_madness_us,MT | Teriyaki Madness Great Falls,"1710 10th Avenue South Great Falls, MT, 59405",,MT,,US,+1 406-315-3388,,Mo-We 11:00-20:00; Th-Sa 11:00-21:00; Su 11:00-20:00,Teriyaki Madness,Q107692862
42340713,touchstone_medical_imaging_us,Touchstone Imaging Billings,"1739 Spring Creek Lane, Billings, MT 59106",,MT,,US,+1 406-545-2110,,,Touchstone Medical Imaging,Q123370518
759,us_army_national_guard,Montana National Guard,"1956 MT Majo St, FT Harrison, MT 59636, ",,MT,,US,,,,US Army National Guard,Q928670
760,us_army_national_guard,Montana Army National Guard,"Helena, MT",,MT,,US,,,,US Army National Guard,Q928670
830,us_army_national_guard,JFHQ STARC,"FT Harrison, MT",,MT,,US,,,,US Army National Guard,Q928670
831,us_army_national_guard,DET 2 1244TH TRIAL DEFENSE TEAM,"1956 MT MAJO ST. FT HARRISON, MT",,MT,,US,,,,US Army National Guard,Q928670
832,us_army_national_guard,MTARNG TRAINING CENTER,"1956 MT MAJO ST
FT HARRISON, MT 59636",,MT,,US,,,,US Army National Guard,Q928670
833,us_army_national_guard,208TH REGIMENT MRTRI,"1956 MT MAJO ST
FT HARRISON, MT
59636",,MT,,US,,,,US Army National Guard,Q928670
834,us_army_national_guard,83RD CIVIL SPT TEAM,"1956 MT MAJO ST. 
FT. HARRISON, MT 59636",,MT,,US,,,,US Army National Guard,Q928670
835,us_army_national_guard,1889TH REG. SPT. GP. ,"600 GILMAN, ST 
BUTTE, MT 59701",,MT,,US,,,,US Army National Guard,Q928670
836,us_army_national_guard,DET 1 CO E 145th FSC,"9383 RUNNING W. ROAD
MISSOULA, MT 59808

",,MT,,US,,,,US Army National Guard,Q928670
837,us_army_national_guard,CO A163RD CAB,"2915 GABEL ROAD
BILLING, MT 59102",,MT,,US,,,,US Army National Guard,Q928670
838,us_army_national_guard,DET 1 CO A 163RD CAB,"RR2 BOX 2366 
LEWISTOWN, MT 59457",,MT,,US,,,,US Army National Guard,Q928670
839,us_army_national_guard,CO B 163RD CAB,"9383 RUNNING W. ROAD
MISSOULA, MT 59808",,MT,,US,,,,US Army National Guard,Q928670
840,us_army_national_guard,DET 1 CO B 163RD CAB,"2989 HWY 93 N
KALISPELL, MT 59901",,MT,,US,,,,US Army National Guard,Q928670
841,us_army_national_guard,CO C 163RD CAB,"401 63 RD ST SOUTH 
GREAT FALLS, MT 59405",,MT,,US,,,,US Army National Guard,Q928670
842,us_army_national_guard,CO D 163RD CAB,"600 GILMAN ST
BUTTE, MT 59701",,MT,,US,,,,US Army National Guard,Q928670
843,us_army_national_guard,HHC 163RD CAB,"350 AIRPORT RD
BELGRADE, MT 59714",,MT,,US,,,,US Army National Guard,Q928670
844,us_army_national_guard,DET 1 CO C 1-112TH AVN,"3330 SKYWAY DR.
HELENA, MT 59602",,MT,,US,,,,US Army National Guard,Q928670
845,us_army_national_guard,260TH EN SP CO ,"2500 MAIN ST. 
MILES CITY, MT 59301",,MT,,US,,,,US Army National Guard,Q928670
846,us_army_national_guard,DET 1 260TH EN SP CO ,"2190 HOLLEY
SIDNEY, MT 59270",,MT,,US,,,,US Army National Guard,Q928670
847,us_army_national_guard,DET 2 260TH ENSP CO ,"HC 60 BOX 4
CULBERTSON, MT 59218",,MT,,US,,,,US Army National Guard,Q928670
848,us_army_national_guard,443RD SIGNAL CO ,"2915 GABEL RD
BILLINGS, MT 59102",,MT,,US,,,,US Army National Guard,Q928670
849,us_army_national_guard,DET 1 484TH MP CSC,"81 AIRPORT RD
GLASGOW, MT 59538",,MT,,US,,,,US Army National Guard,Q928670
850,us_army_national_guard,DET 2 484TH MO CSC ,"2915 GABEL RD
BILLINGS, MT 59101",,MT,,US,,,,US Army National Guard,Q928670
851,us_army_national_guard,484TH MP CMBT SPT CO ,"1008 US HWY 191 S
MALTA, MT 59538",,MT,,US,,,,US Army National Guard,Q928670
852,us_army_national_guard,DET 1 1063RD SMC,"1050 HWY 41 NORTH
DILLON, MT 59725",,MT,,US,,,,US Army National Guard,Q928670
853,us_army_national_guard,DET 2 1063RD SMC,"9895 HWY 12 WEST
HARLOWTON, MT 59036",,MT,,US,,,,US Army National Guard,Q928670
854,us_army_national_guard,HHC 190TH CSSB,"2915 GABEL RD
BILLINGS, MT 
59102",,MT,,US,,,,US Army National Guard,Q928670
855,us_army_national_guard,103RD PUB AFFAIRS,"1956 MT MAJO ST. 
FT HARRISON, MT 59636",,MT,,US,,,,US Army National Guard,Q928670
856,us_army_national_guard,1052ND ENGR DET FFTG,"1956 MT MAJO ST. 
FT HARRISON, MT 
59636",,MT,,US,,,,US Army National Guard,Q928670
857,us_army_national_guard,DET 3 230TH EN CO ,"910 WEST MAIN
HAMILTON, MT 59840",,MT,,US,,,,US Army National Guard,Q928670
858,us_army_national_guard,DET 631ST CHEM CO ,"101 N. POLK DR
ANACONDA, MT 59711",,MT,,US,,,,US Army National Guard,Q928670
859,us_army_national_guard, SFC Joel Pitsch ,"BOZEMAN, MT ",,MT,,US,,,,US Army National Guard,Q928670
860,us_army_national_guard,SGT Davey Johnson,Bozeman Mt,,MT,,US,,,,US Army National Guard,Q928670
861,us_army_national_guard,SFC Cody Lentz,"Great falls, MT",,MT,,US,,,,US Army National Guard,Q928670
862,us_army_national_guard,SGT Mark Bakas,"Great Falls , MT ",,MT,,US,,,,US Army National Guard,Q928670
863,us_army_national_guard,SSG Jessie Weaver,"Billings, MT ",,MT,,US,,,,US Army National Guard,Q928670
864,us_army_national_guard,MSG Matt Pettis,"Glasgow, MT",,MT,,US,,,,US Army National Guard,Q928670
865,us_army_national_guard,SSG Shayne Boushey,"Havre, MT",,MT,,US,,,,US Army National Guard,Q928670
866,us_army_national_guard,SSG Dennis Thompson,"Miles City, MT",,MT,,US,,,,US Army National Guard,Q928670
867,us_army_national_guard,SFC Todd Carver,"Butte, MT",,MT,,US,,,,US Army National Guard,Q928670
868,us_army_national_guard,SSG John Inman,"Kalispell, MT",,MT,,US,,,,US Army National Guard,Q928670
869,us_army_national_guard,SFC Cook,"Missoula, MT",,MT,,US,,,,US Army National Guard,Q928670
