Ref,Spider,Name,Address,City,State,Zipcode,Country,Phone,Website,Hours,Brand,WikiData
239442,bluerhino,Circle K #4705718,,Moraine,OH,,US,+1 937-299-3920,,,Blue Rhino,Q65681213
226425,bluerhino,Walmart #5104 - Supercenter - Vending,,Moraine,OH,,US,+1 937-643-2124,,,Blue Rhino,Q65681213
227922,bluerhino,Multani Fuel,,West Carrolton,OH,,US,+1 937-294-2064,,,Blue Rhino,Q65681213
15576543710014543900100000000000,bp,BP,,Kettering,OH,,US,+1 937-293-1474,,Mo-Su 06:00-23:00,BP,Q152057
oh_moraine_1925-w-dorothy-ln,chipotle, ,,Moraine,OH,,US,+1 937-518-4399,https://locations.chipotle.com/oh/moraine/1925-w-dorothy-ln,,Chipotle,Q465751
,credit_union_us,Daymet CU,,Moraine,OH,,US,+1 937-236-2562,,Mo-Fr 09:00-05:30,,
,credit_union_us,MYUSA CU,,Dayton,OH,,US,+1 937-294-1991,,Mo-Th 09:00-05:00; Fr 09:00-06:00,,
2356,dominos_pizza_us,Domino's Pizza,,Dayton,OH,,US,+1 937-294-3030,https://pizza.dominos.com/ohio/dayton/5099-springboro-pike,Mo-Th 10:30-01:00; Fr-Sa 10:30-02:00; Su 10:30-01:00,Domino's,Q839466
https://www.edwardjones.com/us-en/financial-advisor/forst-elliott,edwardjones,Forst Elliott,,Dayton,OH,,US,+1 937-965-7044,https://www.edwardjones.com/us-en/financial-advisor/forst-elliott,Mo-Fr 08:30-16:30,Edward Jones,Q5343830
https://locations.53.com/#3034375,fifththirdbank,Fifth Third Bank Moraine,,Moraine,OH,,US,+1 937-297-5300,https://locations.53.com/oh/moraine/1923-dorothy-lane.html,Mo-Th 09:00-17:00; Fr 09:00-18:00,Fifth Third Bank,Q1411810
Motorcraft2905USAEnglish,ford,Automotive Distributors Warehouse,,Ohio,OH,,US,+1 937-228-2111,,,Ford,Q44294
6336,gamestop_us,Dorothy Lane Kettering,,Kettering,OH,,US,+1 937-296-0081,https://www.gamestop.com/search/?store=6336,Mo-Th 12:00-20:00; Fr-Sa 12:00-21:00; Su 12:00-20:00,GameStop,Q202210
33460,h_r_block,H&R Block,,Moraine,OH,,US,+1 937-294-2036,https://www.hrblock.com/local-tax-offices/ohio/moraine/5540-springboro-pike/33460/,,H&R Block,Q5627799
https://office.jacksonhewitt.com/#27576986,jackson_hewitt,Jackson Hewitt,,Moraine,OH,,US,+1 937-823-4474,https://office.jacksonhewitt.com/tax-preparation-services-locations/en/oh/moraine/1701-w-dorothy-ln/55104,Mo-Su 10:00-19:00,Jackson Hewitt,Q6117132
000230,kindercare,Ebert KinderCare,,Moraine,OH,,US,,https://www.kindercare.com/our-centers/moraine/oh/000230,,KinderCare Learning Centers,Q6410551
157188,marathon_petroleum_us,DRYDEN MARATHON,,MORAINE,OH,,US,+1 937-293-5479,,,Marathon,Q458363
159883,marathon_petroleum_us,Tap Food LLC,,MORAINE,OH,,US,+1 850-228-8196,,,Marathon,Q458363
156627,marathon_petroleum_us,FAT DADDYS ROAD DOG,,Dayton,OH,,US,+1 937-298-8141,,,Marathon,Q458363
4412,mightyflame,STROOPS MARKET,,DAYTON,OH,,US,+1 513-886-8101,,,Mighty Flame,
6935,murphy_usa_us,,,Moraine,OH,,US,+1 937-643-2735,,Mo-Sa 05:30-23:00; Su 05:30-21:30,Murphy USA,Q19604459
8391,regal_nails_us,"Regal Nails, Salon &#038; Spa",1701 W Dorothy Lane,Moraine (Kettering/Dayton),OH,,US,+1 937-643-1051,,,Regal Nails,Q108918028
195,skyline_chili,Skyline Chili,5774 Springboro Pike,Moraine,OH,,US,+1 937-293-0496,https://locations.skylinechili.com/skyline-chili-a03b6d431625,Mo-Sa 10:30-21:00; Su 11:00-21:00,Skyline Chili,Q151224
https://restaurants.subway.com/#14898559,subway,Subway Alex Bell Center,,Moraine Montgomery,OH,,US,+1 937-299-3811,https://restaurants.subway.com/united-states/oh/moraine/5652-springboro-pike,Mo-We 09:00-22:00; Th-Fr 08:30-22:00; Sa 09:00-22:00; Su 09:00-21:00,Subway,Q244457
https://restaurants.subway.com/#14910546,subway,Subway Wal-Mart #5104,,Moraine Montgomery,OH,,US,+1 937-293-2850,https://restaurants.subway.com/united-states/oh/moraine/1701-west-dorothy-lane,Mo-Su 08:00-21:00,Subway,Q244457
https://restaurants.subway.com/#14911457,subway,Subway Southern Hills Crossing,,Moraine Montgomery,OH,,US,+1 937-424-5668,https://restaurants.subway.com/united-states/oh/moraine/1689-west-dorothy-lane,Mo-Su 08:00-21:00,Subway,Q244457
0013874300,sunoco_us,Sunoco,,MORAINE,OH,,US,+1 937-665-0881,,Mo-Su 06:00-22:00,Sunoco,Q1423218
https://locations.tacobell.com/#6144405,taco_bell,Taco Bell,,Dayton,OH,,US,+1 937-298-7353,https://locations.tacobell.com/oh/dayton/3019-kettering-blvd.html,Mo-Su 09:00-04:00,Taco Bell,Q752941
916654,tim_hortons,Tim Hortons,,Moraine,OH,,US,+1 937-299-3340,,Mo-We 05:00-16:00; Fr-Su 05:00-16:00,Tim Hortons,Q175106
4543900023,usps_collection_boxes,USPS COLLECTION BOX - BLUE BOX,4200 DRYDEN RD,MORAINE,OH,,US,,,,United States Postal Service,Q668687
4543900041,usps_collection_boxes,USPS COLLECTION BOX - BLUE BOX,2621 DRYDEN RD,MORAINE,OH,,US,,,,United States Postal Service,Q668687
4543900000,usps_collection_boxes,USPS COLLECTION BOX - BLUE BOX,2205 DRYDEN RD,MORAINE,OH,,US,,,,United States Postal Service,Q668687
4543900044,usps_collection_boxes,USPS COLLECTION BOX - BLUE BOX,1900 DRYDEN RD,MORAINE,OH,,US,,,,United States Postal Service,Q668687
4543900051,usps_collection_boxes,USPS COLLECTION BOX - BLUE BOX,2360 W DOROTHY LN,MORAINE,OH,,US,,,,United States Postal Service,Q668687
4543900031,usps_collection_boxes,USPS COLLECTION BOX - BLUE BOX,3864 KETTERING BLVD,MORAINE,OH,,US,,,,United States Postal Service,Q668687
4543900029,usps_collection_boxes,USPS COLLECTION BOX - BLUE BOX,2298 LEHIGH PL,MORAINE,OH,,US,,,,United States Postal Service,Q668687
4543900050,usps_collection_boxes,USPS COLLECTION BOX - BLUE BOX,3445 S DIXIE DR,MORAINE,OH,,US,,,,United States Postal Service,Q668687
4543900009,usps_collection_boxes,USPS COLLECTION BOX - BLUE BOX,3490 S DIXIE DR,MORAINE,OH,,US,,,,United States Postal Service,Q668687
4543900013,usps_collection_boxes,USPS COLLECTION BOX - BLUE BOX,3481 OFFICE PARK DR,MORAINE,OH,,US,,,,United States Postal Service,Q668687
4543900016,usps_collection_boxes,USPS COLLECTION BOX - BLUE BOX,3400 OFFICE PARK DR,MORAINE,OH,,US,,,,United States Postal Service,Q668687
4543900090,usps_collection_boxes,USPS COLLECTION BOX - BLUE BOX,3400 OFFICE PARK DR,MORAINE,OH,,US,,,,United States Postal Service,Q668687
4543900084,usps_collection_boxes,USPS COLLECTION BOX - BLUE BOX,3400 S DIXIE DR,MORAINE,OH,,US,,,,United States Postal Service,Q668687
4543900017,usps_collection_boxes,USPS COLLECTION BOX - BLUE BOX,3300 OFFICE PARK DR,MORAINE,OH,,US,,,,United States Postal Service,Q668687
4543900039,usps_collection_boxes,USPS COLLECTION BOX - BLUE BOX,3100 KETTERING BLVD,MORAINE,OH,,US,,,,United States Postal Service,Q668687
4543900036,usps_collection_boxes,USPS COLLECTION BOX - BLUE BOX,3055 KETTERING BLVD,MORAINE,OH,,US,,,,United States Postal Service,Q668687
4543900033,usps_collection_boxes,USPS COLLECTION BOX - BLUE BOX,3033 KETTERING BLVD,MORAINE,OH,,US,,,,United States Postal Service,Q668687
4543900037,usps_collection_boxes,USPS COLLECTION BOX - BLUE BOX,3033 KETTERING BLVD,MORAINE,OH,,US,,,,United States Postal Service,Q668687
4543900095,usps_collection_boxes,USPS COLLECTION BOX - BLUE BOX,2000 W DOROTHY LN,MORAINE,OH,,US,,,,United States Postal Service,Q668687
,visa,,,DAYTON,OH,,US,,,,,
,visa,,,KETTERING,OH,,US,,,,,
,visa,,,DAYTON,OH,,US,,,,,
,visa,,,DAYTON,OH,,US,,,,,
,visa,,,DAYTON,OH,,US,,,,,
,visa,,,DAYTON,OH,,US,,,,,
,visa,,,DAYTON,OH,,US,,,,,
,visa,,,MORAINE,OH,,US,,,,,
,visa,,,MORAINE,OH,,US,,,,,
,visa,,,DAYTON,OH,,US,,,,,
,visa,,,MORAINE,OH,,US,,,,,
,visa,,,KETTERING,OH,,US,,,,,
,visa,,,MORAINE,OH,,US,,,,,
,visa,,,DAYTON,OH,,US,,,,,
,visa,,,MORAINE,OH,,US,,,,,
,visa,,,MORAINE,OH,,US,,,,,
,visa,,,DAYTON,OH,,US,,,,,
,visa,,,MORAINE,OH,,US,,,,,
,visa,,,MORAINE,OH,,US,,,,,
,visa,,,MORAINE,OH,,US,,,,,
,visa,,,MORAINE,OH,,US,,,,,
,visa,,,DAYTON,OH,,US,,,,,
,visa,,,MORAINE,OH,,US,,,,,
,visa,,,MORRAINE,OH,,US,,,,,
,visa,,,DAYTON,OH,,US,,,,,
,visa,,,MORAINE,OH,,US,,,,,
,visa,,,WEST CARROLLTON,OH,,US,,,,,
,visa,,,DAYTON,OH,,US,,,,,
,visa,,,MORAINE,OH,,US,,,,,
,visa,,,MORAINE,OH,,US,,,,,
,visa,,,MORAINE,OH,,US,,,,,
386,waffle_house_us,Waffle House #386,,MORAINE,OH,,US,+1 937-294-9709,https://locations.wafflehouse.com/moraine-oh-386,24/7,Waffle House,Q1701206
https://locations.wendys.com/#9254239,wendys,"Wendy's S Dixie Dr in Moraine, OH",,Moraine,OH,,US,+1 937-401-8665,https://locations.wendys.com/united-states/oh/moraine/3001-south-dixie-drive,"Mo-Su 06:00-10:30,06:00-22:00",Wendy's,Q550258
de9d4404a66c6cac7fa243ca3410485d,western_union,WALMART #005104,,Moraine,OH,,US,+1 937-643-2124,https://location.westernunion.com/us/oh/moraine/de9d4404a66c6cac7fa243ca3410485d,Mo-Sa 08:00-20:00; Su 10:00-18:00,Western Union,Q861042
