Ref,Spider,Name,Address,City,State,Zipcode,Country,Phone,Website,Hours,Brand,WikiData
123308,bluerhino,Dajaos Comerical,,Bayamon,PR,,US,+1 787-740-7877,,,Blue Rhino,Q65681213
150625,bluerhino,Walgreens #0714,,Bayamon,PR,,US,+1 787-787-8989,,,Blue Rhino,Q65681213
150657,bluerhino,Walgreens #0851,,Bayamon,PR,,US,+1 787-395-7480,,,Blue Rhino,Q65681213
150630,bluerhino,Walgreens #0936,,Bayamon,PR,,US,+1 787-740-1701,,,Blue Rhino,Q65681213
86266,citi,ATM Walgreens,,Bayamon,PR,,US,,,,Citibank,Q857063
91805,citi,ATM Walgreens,,Bayamon,PR,,US,,,,Citibank,Q857063
86184,citi,ATM Walgreens,,Bayamon,PR,,US,,,,Citibank,Q857063
54573,citi,ATM Estacion Jardines,,Bayamon,PR,,US,,,,Citibank,Q857063
1232,fresenius_kidney_care_us,Fresenius Kidney Care Bayamon,,Bayamon,PR,,US,+1 800-881-5101,https://www.freseniuskidneycare.com/dialysis-centers/puerto-rico/1232,Mo-Sa 05:00-22:30,,
0000892680,phillips_66_conoco_76,HATO TEJAS S/S,,BAYAMON,PR,,US,+1 787-447-6461,,,Phillips 66,Q1656230
ppg-paints-glidden-21284,ppgpaints,PPG Paints / Glidden,,"Bayamon, ",PR,,US,+1 787-780-1477,https://www.ppgpaints.com/store-locator/us/puerto-rico/bayamon-paint-stores/ppg-paints-glidden-21284,,PPG Paints,Q83891559
4073,rentacenter,Rent-A-Center,,Bayamon,PR,,US,+1 787-269-0880,https://locations.rentacenter.com/pr/bayamon/drive-inn-plaza-2135carr-2-ste-115/,Mo-Sa 09:00-18:00,Rent-A-Center,Q7313497
28335,tjx,Bayamon,Comerio Blvd & Expo De Diego,Bayamon,PR,,US,+1 787-269-7802,,Mo-Sa 09:00-21:00; Su 10:00-20:00,HomeGoods,Q5887941
10749,tjx,Bayamon,Comerio Blvd & Expo De Diego,Bayamon,PR,,US,+1 787-261-6110,,Mo-Sa 09:00-21:00; Su 10:00-20:00,Marshalls,Q15903261
1C17,tmobile_us,Costco E Bayamon,,Bayamon,PR,,US,+1 939-641-3199,https://www.t-mobile.com/store-locator/pr/bayamon/costco-e-bayamon,,T-Mobile,Q3511885
4766,tmobile_us,Plaza Bayamon,,Bayamon,PR,,US,+1 787-626-1490,https://www.t-mobile.com/store-locator/pr/bayamon/plaza-bayamon,,T-Mobile,Q3511885
1433940,usps,BAYAMON,,BAYAMON,PR,,US,+1 787-785-0415,,Mo-Fr 07:30-16:30; Sa 07:30-12:00,United States Postal Service,Q668687
0095900008,usps_collection_boxes,USPS COLLECTION BOX - BLUE BOX,300 CALLE 6,BAYAMON,PR,,US,,,,United States Postal Service,Q668687
0095900009,usps_collection_boxes,USPS COLLECTION BOX - BLUE BOX,AJ16 CALLE SONIA,BAYAMON,PR,,US,,,,United States Postal Service,Q668687
0095900030,usps_collection_boxes,USPS COLLECTION BOX - BLUE BOX,D34 CALLE MARGINAL,BAYAMON,PR,,US,,,,United States Postal Service,Q668687
0095900017,usps_collection_boxes,USPS COLLECTION BOX - BLUE BOX,211 CALLE COMERIO,BAYAMON,PR,,US,,,,United States Postal Service,Q668687
0095900021,usps_collection_boxes,USPS COLLECTION BOX - BLUE BOX,1845 CARR 2,BAYAMON,PR,,US,,,,United States Postal Service,Q668687
0095900047,usps_collection_boxes,USPS COLLECTION BOX - BLUE BOX,153 CARR 174,BAYAMON,PR,,US,,,,United States Postal Service,Q668687
0095900069,usps_collection_boxes,USPS COLLECTION BOX - BLUE BOX,100 AVE RAMON R RODRIGUEZ,BAYAMON,PR,,US,,,,United States Postal Service,Q668687
0095900073,usps_collection_boxes,USPS COLLECTION BOX - PO LOBBY,100 AVE RAMON L RODRIGUEZ,BAYAMON,PR,,US,,,,United States Postal Service,Q668687
0095900022,usps_collection_boxes,USPS COLLECTION BOX - BLUE BOX,1698 CARR 2,BAYAMON,PR,,US,,,,United States Postal Service,Q668687
0095900075,usps_collection_boxes,USPS COLLECTION BOX - PO LOBBY,100 AVE RAMON L RODRIGUEZ,BAYAMON,PR,,US,,,,United States Postal Service,Q668687
0095900048,usps_collection_boxes,USPS COLLECTION BOX - BLUE BOX,A1 CALLE 1 VILLAS DE SAN AGUSTIN,BAYAMON,PR,,US,,,,United States Postal Service,Q668687
0095900026,usps_collection_boxes,USPS COLLECTION BOX - BLUE BOX,1525 CARR 2,BAYAMON,PR,,US,,,,United States Postal Service,Q668687
0095900062,usps_collection_boxes,USPS COLLECTION BOX - BLUE BOX,10 CALLE SANTA CRUZ,BAYAMON,PR,,US,,,,United States Postal Service,Q668687
0095900035,usps_collection_boxes,USPS COLLECTION BOX - BLUE BOX,19-23 CALLE 17,BAYAMON,PR,,US,,,,United States Postal Service,Q668687
0095900052,usps_collection_boxes,USPS COLLECTION BOX - BLUE BOX,10-17 AVE AGUAS BUENAS,BAYAMON,PR,,US,,,,United States Postal Service,Q668687
0095900049,usps_collection_boxes,USPS COLLECTION BOX - BLUE BOX,66 CALLE SANTA CRUZ,BAYAMON,PR,,US,,,,United States Postal Service,Q668687
0095900070,usps_collection_boxes,USPS COLLECTION BOX - BLUE BOX,43-12 AVE MAIN,BAYAMON,PR,,US,,,,United States Postal Service,Q668687
0095900040,usps_collection_boxes,USPS COLLECTION BOX - BLUE BOX,35-15 CALLE 24,BAYAMON,PR,,US,,,,United States Postal Service,Q668687
0095900039,usps_collection_boxes,USPS COLLECTION BOX - BLUE BOX,W13 AVE RUIZ SOLER,BAYAMON,PR,,US,,,,United States Postal Service,Q668687
11002,vestis_uniform_services_us,Vestis Cleanroom Services Bayamon,,Bayamon,PR,,US,+1 787-995-2511,https://www.vestis.com/our-locations/vestis-cleanroom-services-bayamon,,Vestis Cleanroom Services,Q122947676
https://www.walgreens.com/locator/walgreens-100+boulevard+dr-bayamon-pr-00959/id=936,walgreens,Walgreens,,Bayamon,PR,,US,+1 787-740-1704,https://www.walgreens.com/locator/walgreens-100+boulevard+dr-bayamon-pr-00959/id=936,Mo-Su 06:00-24:00,Walgreens,Q1591889
https://www.walgreens.com/locator/walgreens-1000+ave+ramon+luis+rivera-bayamon-pr-00959/id=714,walgreens,Walgreens,,Bayamon,PR,,US,+1 787-787-9033,https://www.walgreens.com/locator/walgreens-1000+ave+ramon+luis+rivera-bayamon-pr-00959/id=714,Mo-Su 07:00-23:00,Walgreens,Q1591889
dba663643ab7216f2781201d4e2a88fc,western_union,FARMACIA CRISTINA,,Bayamon,PR,,US,+1 787-786-1084,https://location.westernunion.com/us/pr/bayamon/dba663643ab7216f2781201d4e2a88fc,Mo-Sa 08:00-20:00; Su 09:00-18:00,Western Union,Q861042
21f36807412ad788cfee6bc99dc336fa,western_union,WALGREENS #851,,Bayamon,PR,,US,+1 787-395-7480,https://location.westernunion.com/us/pr/bayamon/21f36807412ad788cfee6bc99dc336fa,Mo-Su 08:00-21:00,Western Union,Q861042
37129b068f7fb5642523656da36fccca,western_union,SUPERMAX LOS FILTROS,,Bayamon,PR,,US,+1 787-622-0576,https://location.westernunion.com/us/pr/bayamon/37129b068f7fb5642523656da36fccca,Mo-Su 05:00-23:00,Western Union,Q861042
10f094383b15853650dfe0b5553e3896,western_union,PUEBLO #917 DRIVE INN,,Bayamon,PR,,US,+1 787-798-2370,https://location.westernunion.com/us/pr/bayamon/10f094383b15853650dfe0b5553e3896,Mo-Sa 06:00-22:00; Su 07:00-21:00,Western Union,Q861042
