Ref,Spider,Name,Address,City,State,Zipcode,Country,Phone,Website,Hours,Brand,WikiData
131999,bluerhino,Panaderia El Gran Maestro,,Toa Alta,PR,,US,+1 787-962-1396,,,Blue Rhino,Q65681213
96884,bluerhino,Sammy Service Station,,Toa Alta,PR,,US,+1 787-870-3330,,,Blue Rhino,Q65681213
143696,bluerhino,Baby City,,Toa Alta,PR,,US,+1 787-427-4276,,,Blue Rhino,Q65681213
150505,bluerhino,American Gasoline Pinas,,Toa Alta,PR,,US,+1 787-969-3497,,,Blue Rhino,Q65681213
86416,bluerhino,Home Repair Ferreterias,,Toa Alta,PR,,US,+1 787-585-0423,,,Blue Rhino,Q65681213
104832,bluerhino,Pananderia Genesis,,Toa Alta,PR,,US,+1 787-797-1888,,,Blue Rhino,Q65681213
96892,bluerhino,Galateo Service Station,,Toa Alta,PR,,US,+1 787-870-6898,,,Blue Rhino,Q65681213
150673,bluerhino,Walgreens #15132,,Toa Alta,PR,,US,+1 787-545-3191,,,Blue Rhino,Q65681213
93703,citi,ATM Walgreens,,Toa Alta,PR,,US,,,,Citibank,Q857063
88450,citi,ATM Walgreens,,Toa Alta,PR,,US,,,,Citibank,Q857063
122,rentacenter,Rent-A-Center,,Toa Alta,PR,,US,+1 787-545-3202,https://locations.rentacenter.com/pr/toa-alta/state-road-148-and-las-palacios-ave-spaces-c2-c4/,Mo-Sa 09:00-18:00,Rent-A-Center,Q7313497
1384741,usps,TOA ALTA,,TOA ALTA,PR,,US,+1 787-870-2061,,Mo-Fr 07:30-16:00; Sa 08:00-12:00,United States Postal Service,Q668687
0095300000,usps_collection_boxes,USPS COLLECTION BOX - BLUE BOX,125 CARR 165 STE 1,TOA ALTA,PR,,US,,,,United States Postal Service,Q668687
0095300009,usps_collection_boxes,USPS COLLECTION BOX - PO LOBBY,125 CARR 165 STE 1,TOA ALTA,PR,,US,,,,United States Postal Service,Q668687
0095300010,usps_collection_boxes,USPS COLLECTION BOX - PO LOBBY,125 CARR 165 STE 1,TOA ALTA,PR,,US,,,,United States Postal Service,Q668687
0095300004,usps_collection_boxes,USPS COLLECTION BOX - BLUE BOX,N15 CALLE 18,TOA ALTA,PR,,US,,,,United States Postal Service,Q668687
0095300006,usps_collection_boxes,USPS COLLECTION BOX - BLUE BOX,24 CALLE UCAR,TOA ALTA,PR,,US,,,,United States Postal Service,Q668687
0095300007,usps_collection_boxes,USPS COLLECTION BOX - BLUE BOX,500 AVE NORFE,TOA ALTA,PR,,US,,,,United States Postal Service,Q668687
https://www.walgreens.com/locator/walgreens-plaza+aquarium+carr+165.+km.+4.7-toa+alta-pr-00953/id=12651,walgreens,Walgreens,,Toa Alta,PR,,US,+1 787-870-4776,https://www.walgreens.com/locator/walgreens-plaza+aquarium+carr+165.+km.+4.7-toa+alta-pr-00953/id=12651,Mo-Su 07:00-22:00,Walgreens,Q1591889
3bc1a5ca135404e8c4adf76e8b36b23f,western_union,WALGREENS #12651,,Toa Alta,PR,,US,+1 787-870-4776,https://location.westernunion.com/us/pr/toa-alta/3bc1a5ca135404e8c4adf76e8b36b23f,Mo-Su 08:00-21:00,Western Union,Q861042
e94691c808aa91748776e0bceec1c8de,western_union,WALGREENS #15132,,Toa Alta,PR,,US,+1 787-545-3191,https://location.westernunion.com/us/pr/toa-alta/e94691c808aa91748776e0bceec1c8de,Mo-Su 08:00-21:00,Western Union,Q861042
c76dfb84fcbb60827bee6a93839d4bec,western_union,ECONO MORALES 2,,Toa Alta,PR,,US,+1 787-798-8915,https://location.westernunion.com/us/pr/toa-alta/c76dfb84fcbb60827bee6a93839d4bec,Mo-Sa 07:00-21:00; Su 07:00-19:00,Western Union,Q861042
