Ref,Spider,Name,Address,City,State,Zipcode,Country,Phone,Website,Hours,Brand,WikiData
25226,burgerking,Burger King,,Madrid,Madrid,,ES,+34 910 74 47 96,,Mo-Th 12:30-23:30; Fr-Sa 12:30-01:30; Su 12:30-01:00,Burger King,Q177054
12743,burgerking,Burger King,,Madrid,Madrid,,ES,+34 608 50 86 43,,,Burger King,Q177054
10651,burgerking,Burger King,,Madrid,Madrid,,ES,+34 608 44 82 61,,Mo-Th 12:30-23:30; Fr 12:30-01:00; Sa-Su 12:30-23:30,Burger King,Q177054
,carrefour_es,Carrefour Market Acacias,,Madrid,Madrid,,ES,+34 640 28 29 11,https://www.carrefour.es/tiendas-carrefour/supermercados/carrefour-market/acacias_-_s.aspx,,Carrefour Market,Q2689639
,carrefour_es,Carrefour Express Ercilla,,Madrid,Madrid,,ES,+34 914 90 89 00,https://www.carrefour.es/tiendas-carrefour/supermercados/carrefour-express/ercilla_-_s.aspx,,Carrefour Express,Q2940190
,carrefour_es,Carrefour Express Calle Toledo Madrid,,Madrid,Madrid,,ES,+34 618 16 97 70,https://www.carrefour.es/tiendas-carrefour/supermercados/carrefour-express/carrefour_expres_calle_toledo_madrid.aspx,,Carrefour Express,Q2940190
,carrefour_es,Carrefour Express Embajadores,,Madrid,Madrid,,ES,+34 914 90 89 00,https://www.carrefour.es/tiendas-carrefour/supermercados/carrefour-express/embajadores-s.aspx,,Carrefour Express,Q2940190
,carrefour_es,Carrefour Express Calle Humilladero,,Madrid,Madrid,,ES,+34 914 90 89 00,https://www.carrefour.es/tiendas-carrefour/supermercados/carrefour-express/calle-humilladero-25-madrid-s.aspx,,Carrefour Express,Q2940190
,carrefour_es,Carrefour Express Juan Duque 23,,Madrid,Madrid,,ES,+34 914 90 89 00,https://www.carrefour.es/tiendas-carrefour/supermercados/carrefour-express/juan-duque-madrid-s.aspx,,Carrefour Express,Q2940190
,carrefour_es,Carrefour Express Paseo Virgen del Puerto 61,,Madrid,Madrid,,ES,+34 914 90 89 00,https://www.carrefour.es/tiendas-carrefour/supermercados/carrefour-express/paseo-virgen-del-puerto-61-madrid.aspx,,Carrefour Express,Q2940190
https://local.fedex.com/#1031995711,fedex,,,Madrid,Madrid,,ES,,https://local.fedex.com/es-es/madrid/rozut,,FedEx,Q459477
https://local.fedex.com/#1018308014,fedex,,,Madrid,Madrid,,ES,,https://local.fedex.com/es-es/madrid/rozdy,,FedEx,Q459477
https://local.fedex.com/#1018304036,fedex,,,Madrid,Madrid,,ES,,https://local.fedex.com/es-es/madrid/rozcf,,FedEx,Q459477
https://local.fedex.com/#1018300858,fedex,,,Madrid,Madrid,,ES,,https://local.fedex.com/es-es/madrid/rozas,,FedEx,Q459477
https://local.fedex.com/#1018301896,fedex,,,Madrid,Madrid,,ES,,https://local.fedex.com/es-es/madrid/roz8f,,FedEx,Q459477
https://local.fedex.com/#1031995586,fedex,,,Madrid,Madrid,,ES,,https://local.fedex.com/es-es/madrid/roz4o,,FedEx,Q459477
https://local.fedex.com/#1018305547,fedex,,,Madrid,Madrid,,ES,,https://local.fedex.com/es-es/madrid/roz2k,,FedEx,Q459477
1142,mcdonalds_es,Acacias,PASEO ACACIAS NÂºPORTAL 22 A PISO BAJO PUERTA LC-1,Madrid,Madrid,,ES,+34 913 92 04 98,,Mo-Th 11:00-24:00; Fr-Su 11:00-01:00,McDonald's,Q38076
1022,mcdonalds_es,La Latina,"C/ Toledo, 63",Madrid,Madrid,,ES,+34 910 58 56 48,,Mo-Th 10:00-03:00; Fr 10:00-24:00; Sa 00:00-24:00; Su 00:00-03:00,McDonald's,Q38076
,visa,,,MADRID,MADRID,,ES,,,,,
4212b7cb54e1074d8977e43b44edf0d6,western_union,EUROCHANGE MADRID,,Madrid,MADRID,,ES,+34 912 77 30 95,https://location.westernunion.com/es/madrid/madrid/4212b7cb54e1074d8977e43b44edf0d6,Mo-Fr 10:00-20:00; Sa-Su 11:00-20:00,Western Union,Q861042
edfb3ef6af2eb804fc236a767ef56b7f,western_union,CORREOS Y TELEGRAFOS,,Madrid,MADRID,,ES,+34 915 19 71 97,https://location.westernunion.com/es/madrid/madrid/edfb3ef6af2eb804fc236a767ef56b7f,Mo-Fr 08:30-20:30; Sa 08:30-14:30,Western Union,Q861042
8e3e0710d968c02c0de976007f68cf45,western_union,LOCUTORIO CIBER MARCO,,Madrid,MADRID,,ES,+34 653 95 95 44,https://location.westernunion.com/es/madrid/madrid/8e3e0710d968c02c0de976007f68cf45,Mo-Su 10:00-22:00,Western Union,Q861042
4f7f2a4b1e5d5e1a8cb60145616c4b82,western_union,NAHID INFORMATICA,,Madrid,MADRID,,ES,+34 919 12 75 14,https://location.westernunion.com/es/madrid/madrid/4f7f2a4b1e5d5e1a8cb60145616c4b82,Mo-Su 09:30-22:00,Western Union,Q861042
