Ref,Spider,Name,Address,City,State,Zipcode,Country,Phone,Website,Hours,Brand,WikiData
ES004166,aldi_nord_es,ALDI,,Madrid,Madrid,,ES,+34 900 902 466,,Mo-Sa 09:00-22:00; Su 10:00-22:00,ALDI,Q41171373
T-003,aristocrazy_es,Aristocrazy Jardín de Serrano,,Madrid,Madrid,,ES,+34 915 04 80 20,,Mo-Sa 10:00-21:00; Su 00:00-20:00,Aristocrazy,Q117802848
61101,botteg_aveneta,Madrid - Calle De Serrano,,Madrid,Madrid,,ES,+34 917 81 24 42,https://www.bottegaveneta.com/de-de/storelocator/madrid-calledeserrano,Mo-Sa 10:30-20:00; Su 12:00-20:00,BottegAveneta,Q894874
954,burgerking,Burger King,,Madrid,Madrid,,ES,+34 914 02 23 98,,Mo 12:00-00:00; Tu-Su 12:00-00:30,Burger King,Q177054
13590,burgerking,Burger King,,Madrid,Madrid,,ES,+34 606 84 39 01,,Mo-Th 12:30-00:00; Fr-Su 12:30-00:30,Burger King,Q177054
,carrefour_es,Carrefour Market Conde de Peñalver,,Madrid,Madrid,,ES,+34 629 19 99 17,https://www.carrefour.es/tiendas-carrefour/supermercados/carrefour-market/conde_de_penalver_-_s.aspx,,Carrefour Market,Q2689639
,carrefour_es,Carrefour Express Calle Montesa,,Madrid,Madrid,,ES,+34 652 73 88 98,https://www.carrefour.es/tiendas-carrefour/supermercados/carrefour-express/calle-montesa-s.aspx,,Carrefour Express,Q2940190
,carrefour_es,"Carrefour Express C/ Ortega y Gasset, 51",,Madrid,Madrid,,ES,+34 675 55 22 46,https://www.carrefour.es/tiendas-carrefour/supermercados/carrefour-express/calle-ortega-y-gasset-51-madrid-s.aspx,,Carrefour Express,Q2940190
,carrefour_es,"Carrefour Express Conde Peñalver, 63",,Madrid,Madrid,,ES,+34 639 18 26 89,https://www.carrefour.es/tiendas-carrefour/supermercados/carrefour-express/conde-penalver-63-madrid-s.aspx,,Carrefour Express,Q2940190
,carrefour_es,"Carrefour Express Calle Castelló, 81",,Madrid,Madrid,,ES,+34 691 35 72 02,https://www.carrefour.es/tiendas-carrefour/supermercados/carrefour-express/calle-castello-81-madrid-s.aspx,,Carrefour Express,Q2940190
,carrefour_es,Viajes Carrefour Madrid - Diego de Leon 57,,Madrid,Madrid,,ES,+34 913 09 68 87,https://www.carrefour.es/tiendas-carrefour/buscador-de-tiendas/locations.aspx,,Carrefour Viajes,Q116483791
,carrefour_es,Carrefour Express Diego de León 32,,Madrid,Madrid,,ES,+34 645 47 18 46,https://www.carrefour.es/tiendas-carrefour/supermercados/carrefour-express/diego-de-leon-32-madrid-s.aspx,,Carrefour Express,Q2940190
,carrefour_es,Carrefour Market Ortega y Gasset - Madrid,,Madrid,Madrid,,ES,+34 605 95 96 99,https://www.carrefour.es/tiendas-carrefour/supermercados/carrefour-market/ortega-y-gasset-madrid-s.aspx,,Carrefour Market,Q2689639
https://local.fedex.com/#1031994414,fedex,,,Madrid,Madrid,,ES,,https://local.fedex.com/es-es/madrid/madeb,,FedEx,Q459477
https://local.fedex.com/#1031995722,fedex,,,Madrid,Madrid,,ES,,https://local.fedex.com/es-es/madrid/maddi,,FedEx,Q459477
https://local.fedex.com/#27746334,fedex,,,Madrid,Madrid,,ES,,https://local.fedex.com/es-es/madrid/madda,,FedEx,Q459477
https://local.fedex.com/#1018307779,fedex,,,Madrid,Madrid,,ES,,https://local.fedex.com/es-es/madrid/madbs,,FedEx,Q459477
https://local.fedex.com/#27752626,fedex,,,Madrid,Madrid,,ES,,https://local.fedex.com/es-es/madrid/madaz,,FedEx,Q459477
maria-de-molina,indigo,María de Molina,,Madrid,Madrid,,ES,+34 915 62 56 60,,,Indigo,Q3559970
,visa,,,MADRID,MADRID,,ES,,,,,
,visa,,,MADRID,MADRID,,ES,,,,,
,visa,,,MADRID,MADRID,,ES,,,,,
,visa,,,MADRID,MADRID,,ES,,,,,
,visa,,,MADRID,MADRID,,ES,,,,,
https://tiendas.vodafone.es/tiendas/comunidad-de-madrid/madrid/vodafone-conde-penalver,vodafone_es,Vodafone Conde Peñalver,,Madrid,Madrid,,ES,+34 645 70 70 70,https://tiendas.vodafone.es/tiendas/comunidad-de-madrid/madrid/vodafone-conde-penalver,"Mo-Fr 10:00-14:00,17:00-20:30; Sa 10:00-14:00",Vodafone,Q122141
b9a54c97f2a4eb6ac32524cb6c99810f,western_union,LOCUTORIO MARANDU,,Madrid,MADRID,,ES,+34 699 25 43 65,https://location.westernunion.com/es/madrid/madrid/b9a54c97f2a4eb6ac32524cb6c99810f,Mo-Su 10:00-22:00,Western Union,Q861042
d79ca61acbd2ee1d32d8a9688f3a9ddd,western_union,CORREOS Y TELEGRAFOS,,Madrid,MADRID,,ES,+34 915 19 71 97,https://location.westernunion.com/es/madrid/madrid/d79ca61acbd2ee1d32d8a9688f3a9ddd,Mo-Fr 08:30-20:30; Sa 08:30-14:30,Western Union,Q861042
967d384a8603e03a9129d89058fbe3a3,western_union,CORREOS Y TELEGRAFOS,,Madrid,MADRID,,ES,+34 915 19 71 97,https://location.westernunion.com/es/madrid/madrid/967d384a8603e03a9129d89058fbe3a3,Mo-Fr 08:30-20:30; Sa 08:30-14:30,Western Union,Q861042
781112b80703b797acecbdf5b46c7564,western_union,CORREOS Y TELEGRAFOS,,Madrid,MADRID,,ES,+34 915 19 71 97,https://location.westernunion.com/es/madrid/madrid/781112b80703b797acecbdf5b46c7564,Mo-Fr 08:30-20:30; Sa 08:30-14:30,Western Union,Q861042
