Ref,Spider,Name,Address,City,State,Zipcode,Country,Phone,Website,Hours,Brand,WikiData
https://stores.advanceautoparts.com/pa/quarryville/479-w-4th-st,advance_auto_parts_us,Advance Auto Parts,,Quarryville,PA,,US,+1 717-786-0291,https://stores.advanceautoparts.com/pa/quarryville/479-w-4th-st,Mo-Sa 07:30-21:00; Su 09:00-20:00,Advance Auto Parts,Q4686051
https://locations.atipt.com/quarryville-pa,ati_physical_therapy,ATI Physical Therapy Quarryville 486,,Quarryville,PA,,US,+1 717-806-5126,https://locations.atipt.com/quarryville-pa,,ATI Physical Therapy,Q50039703
177749,bluerhino,Turkey Hill #315,,Quarryville,PA,,US,+1 717-284-6973,,,Blue Rhino,Q65681213
190216,bluerhino,Giant Food #6567 - GC,,Quarryville,PA,,US,+1 717-284-4147,,,Blue Rhino,Q65681213
188305,bluerhino,Giant Food #6563 - GC,,Quarryville,PA,,US,+1 717-254-1614,,,Blue Rhino,Q65681213
177758,bluerhino,Turkey Hill #038,,Quarryville,PA,,US,+1 717-786-4239,,,Blue Rhino,Q65681213
96135,bluerhino,Little Britain Store,,Quarryville,PA,,US,+1 717-529-2527,,,Blue Rhino,Q65681213
5808,burgerking,Burger King,,Quarryville,PA,,US,+1 717-894-1243,https://www.bk.com/store-locator/store/restaurant_3259,Mo-Th 07:00-21:00; Fr-Sa 07:00-22:00; Su 07:00-21:00,Burger King,Q177054
ATM-2216,citizens_us,,,Quarryville,PA,,US,,,,Citizens,Q5122694
ATM-2220,citizens_us,,,Quarryville,PA,,US,,,,Citizens,Q5122694
521442,eg_america_us,Turkey Hill,,Quarryville,PA,,US,+1 717-284-6973,https://www.turkeyhillcstores.com/find-us/generic-store-page/?id=950315,,Turkey Hill,Q42376970
521254,eg_america_us,Turkey Hill,,Quarryville,PA,,US,+1 717-786-4239,https://www.turkeyhillcstores.com/find-us/generic-store-page/?id=950038,,Turkey Hill,Q42376970
Motorcraft2965USAEnglish,ford,Stoner-Wade Ford Inc,,Pennsylvania,PA,,US,+1 717-786-7331,,,Ford,Q44294
#6567,giantfoodstores,GIANT Quarryville,,Quarryville,PA,,US,+1 717-284-4147,https://stores.giantfoodstores.com/pa/quarryville/35-friendly-drive,Mo-Su 07:00-22:00,Giant,Q5558332
#6563,giantfoodstores,GIANT Quarryville,,Quarryville,PA,,US,+1 717-786-7301,https://stores.giantfoodstores.com/pa/quarryville/100-towns-edge-drive,"Mo-Fr 07:00-22:00,09:00-20:00; Sa 07:00-22:00,09:00-17:00; Su 07:00-22:00,10:00-17:00",Giant,Q5558332
36669,h_r_block,H&R Block,,Quarryville,PA,,US,+1 717-786-4440,https://www.hrblock.com/local-tax-offices/pennsylvania/quarryville/140-townsedge-dr/36669/,,H&R Block,Q5627799
fisher-paints-quarryville-67434,ppgpaints,FISHER PAINTS - QUARRYVILLE,,"Quarryville, ",PA,,US,+1 717-768-3239,https://www.ppgpaints.com/store-locator/us/pennsylvania/quarryville-paint-stores/fisher-paints-quarryville-67434,,PPG Paints,Q83891559
01922,rite_aid_us,Rite Aid #01922 Quarryville,,Quarryville,PA,,US,+1 717-786-9091,https://locations2.riteaid.com.yext-cdn.com/pa/quarryville/315-west-fourth-street.html,Mo-Sa 08:00-21:00; Su 08:00-20:00,Rite Aid,Q3433273
1378599,usps,QUARRYVILLE,,QUARRYVILLE,PA,,US,+1 717-786-2420,,Mo-Fr 08:00-16:30; Sa 09:00-11:00,United States Postal Service,Q668687
1756600004,usps_collection_boxes,USPS COLLECTION BOX - BLUE BOX,35 FRIENDLY DR,QUARRYVILLE,PA,,US,,,,United States Postal Service,Q668687
1756600018,usps_collection_boxes,USPS COLLECTION BOX - BLUE BOX,625 ROBERT FULTON HWY,QUARRYVILLE,PA,,US,,,,United States Postal Service,Q668687
1756600010,usps_collection_boxes,USPS COLLECTION BOX - BLUE BOX,112 TOWNS EDGE DR,QUARRYVILLE,PA,,US,,,,United States Postal Service,Q668687
1756600003,usps_collection_boxes,USPS COLLECTION BOX - BLUE BOX,315 W 4TH ST,QUARRYVILLE,PA,,US,,,,United States Postal Service,Q668687
1756600020,usps_collection_boxes,USPS COLLECTION BOX - PO LOBBY,220 W STATE ST,QUARRYVILLE,PA,,US,,,,United States Postal Service,Q668687
1756600012,usps_collection_boxes,USPS COLLECTION BOX - BLUE BOX,220 W STATE ST,QUARRYVILLE,PA,,US,,,,United States Postal Service,Q668687
1756600017,usps_collection_boxes,USPS COLLECTION BOX - PO LOBBY,220 W STATE ST,QUARRYVILLE,PA,,US,,,,United States Postal Service,Q668687
1756600007,usps_collection_boxes,USPS COLLECTION BOX - BLUE BOX,220 W STATE ST,QUARRYVILLE,PA,,US,,,,United States Postal Service,Q668687
1756600009,usps_collection_boxes,USPS COLLECTION BOX - BLUE BOX,29 E STATE ST,QUARRYVILLE,PA,,US,,,,United States Postal Service,Q668687
A00000220125,verizon_us,Wireless Zone Quarryville,,Quarryville,PA,,US,+1 717-806-1119,https://www.verizon.com/stores/details/pennsylvania/quarryville/wireless-zone-quarryville-1656522/,Mo-Fr 09:00-20:00; Sa 10:00-17:00; Su 11:00-17:00,Verizon,Q919641
,visa,,,QUARRYVILLE,PA,,US,,,,,
,visa,,,QUARRYVILLE,PA,,US,,,,,
,visa,,,QUARRYVILLE,PA,,US,,,,,
,visa,,,QUARRYVILLE,PA,,US,,,,,
,visa,,,QUARRYVILLE,PA,,US,,,,,
,visa,,,QUARRYVILLE,PA,,US,,,,,
,visa,,,QUARRYVILLE,PA,,US,,,,,
,visa,,,QUARRYVILLE,PA,,US,,,,,
,visa,,,QUARRYVILLE,PA,,US,,,,,
,visa,,,QUARRYVILLE,PA,,US,,,,,
,visa,,,QUARRYVILLE,PA,,US,,,,,
,visa,,,QUARRYVILLE,PA,,US,,,,,
,visa,,,QUARRYVILLE,PA,,US,,,,,
,visa,,,QUARRYVILLE,PA,,US,,,,,
,visa,,,QUARRYVILLE,PA,,US,,,,,
,visa,,,QUARRYVILLE,PA,,US,,,,,
,visa,,,QUARRYVILLE,PA,,US,,,,,
,visa,,,QUARRYVILLE,PA,,US,,,,,
,visa,,,QUARRYVILLE,PA,,US,,,,,
1__S__CHURCH__ST_QUARRYVILLE_PA_17566,wellsfargo,,1 S CHURCH ST,QUARRYVILLE,PA,,US,+1 800-869-3557,https://www.wellsfargo.com/locator/bank/1__S__CHURCH__ST_QUARRYVILLE_PA_17566/,,Wells Fargo,Q744149
c78ee7181651cef905259932b4fd9726,western_union,TURKEY HILL #38,,Quarryville,PA,,US,+1 717-786-4239,https://location.westernunion.com/us/pa/quarryville/c78ee7181651cef905259932b4fd9726,Mo-Su 06:00-21:00,Western Union,Q861042
3324b4f1024b06b4b1275c1885cec6ea,western_union,GIANT FOOD STORE #6563,,Quarryville,PA,,US,+1 717-786-7301,https://location.westernunion.com/us/pa/quarryville/3324b4f1024b06b4b1275c1885cec6ea,Mo-Su 07:00-22:00,Western Union,Q861042
59db354d46ff37ae832005cba0d160f6,western_union,TURKEY HILL #315,,Quarryville,PA,,US,+1 717-284-6973,https://location.westernunion.com/us/pa/quarryville/59db354d46ff37ae832005cba0d160f6,Mo-Su 06:00-21:00,Western Union,Q861042
