Ref,Spider,Name,Address,City,State,Zipcode,Country,Phone,Website,Hours,Brand,WikiData
CN483659,adidas,"adidas Outlet Store Changzhou, North Yongning Road",,常州市,,,CN,+8600519-85517516,https://www.adidas.co.uk/storefront/CN483659-常州市-永宁北路18号永宁欧尚超市1层yna1003-adidas-outlet-store-changzhou-north-yongning-road,,Adidas,Q3895
68881766,moneygram,BOC - #07276 - JSCZ JIU ZHOU XIN SHI JIE,,CHANGZHOU,,,CN,+86 519 8665 4308,,Mo-Sa 09:00-17:00; Su 00:00-24:00,MoneyGram,Q1944412
68881795,moneygram,BOC - #07108 - JSCZ BEI DA JIE SUBBR,,CHANGZHOU,,,CN,+86 519 8668 4694,,Mo-Sa 09:00-17:00; Su 00:00-24:00,MoneyGram,Q1944412
65839902,moneygram,BOC - #07208 - JSXZ XIZHOU BRANCH SUININ,,CHANGZHOU,,,CN,+86 519 8817 8341,,Mo-Su 08:30-17:00,MoneyGram,Q1944412
65840153,moneygram,BOC - #06609 - JSCZ HUAYUAN SUB-BRANCH,,CHANGZHOU,,,CN,+86 519 8327 7221,,Mo-Sa 08:30-17:00; Su 00:00-24:00,MoneyGram,Q1944412
65840179,moneygram,BOC - #06610 - JSCZ XIGENGJE SUB-BRANCH,,CHANGZHOU,,,CN,+86 519 8668 4694,,Mo-Sa 08:30-17:00; Su 00:00-24:00,MoneyGram,Q1944412
65840182,moneygram,BOC - #06617 - JSCZ XINGGANG SUB-BRANCH,,CHANGZHOU,,,CN,+86 519 8329 5677,,Mo-Sa 08:30-17:00; Su 00:00-24:00,MoneyGram,Q1944412
65840195,moneygram,BOC - #06614 - JSCZ QINGTAN SUB-BRANCH,,CHANGZHOU,,,CN,+86 519 8696 8530,,Mo-Sa 08:30-17:00; Su 00:00-24:00,MoneyGram,Q1944412
65840263,moneygram,BOC - #06598 - JSCZ HUBINLU BANKING OFFI,,CHANGZHOU,,,CN,+86 519 8698 6839,,Mo-Sa 08:30-17:00; Su 00:00-24:00,MoneyGram,Q1944412
65840218,moneygram,BOC - #06618 - JSCZ JUQIANJIE SUB-BRANCH,,CHANGZHOU,,,CN,+86 519 8660 9588,,Mo-Sa 08:30-17:00; Su 00:00-24:00,MoneyGram,Q1944412
65840250,moneygram,BOC - #06612 - JSCZ QINYE SUB-BRANCH,,CHANGZHOU,,,CN,+86 519 8685 4916,,Mo-Sa 08:30-17:00; Su 00:00-24:00,MoneyGram,Q1944412
65840276,moneygram,BOC - #06603 - JSCZ PUNAN SUB-BRANCH,,CHANGZHOU,,,CN,+86 519 8666 9225,,Mo-Sa 08:30-17:00; Su 00:00-24:00,MoneyGram,Q1944412
65840292,moneygram,BOC - #06613 - JSCZ XIHUAN ROAD SUB-BRAN,,CHANGZHOU,,,CN,+86 519 8696 9920,,Mo-Sa 08:30-17:00; Su 00:00-24:00,MoneyGram,Q1944412
65840302,moneygram,BOC - #06608 - JSCZ HUI GUAN BANG SUB-BR,,CHANGZHOU,,,CN,+86 519 8664 7854,,Mo-Sa 08:30-17:00; Su 00:00-24:00,MoneyGram,Q1944412
65840328,moneygram,BOC - #06615 - JSCZ JINSEXINCHENG SUB-BR,,CHANGZHOU,,,CN,+86 519 8680 2729,,Mo-Sa 08:30-17:00; Su 00:00-24:00,MoneyGram,Q1944412
65844078,moneygram,BOC - #06605 - JSCZ RENMINXINJIAYUAN SUB,,CHANGZHOU,,,CN,8865198851647,,Mo-Sa 08:30-17:00; Su 00:00-24:00,MoneyGram,Q1944412
65844191,moneygram,BOC - #06626 - JSCZ YONGNING SUB-BRANCH,,CHANGZHOU,,,CN,+86 519 8556 0374,,Mo-Sa 08:30-17:00; Su 00:00-24:00,MoneyGram,Q1944412
65844405,moneygram,BOC - #06600 - JSCZ TONGJIHUAYUAN SUB-BR,,CHANGZHOU,,,CN,+86 519 8881 6081,,Mo-Sa 08:30-17:00; Su 00:00-24:00,MoneyGram,Q1944412
65844502,moneygram,BOC - #06623 - JSCZ BEIHUAN SUB-BRANCH,,CHANGZHOU,,,CN,+86 519 8535 0797,,Mo-Sa 08:30-17:00; Su 00:00-24:00,MoneyGram,Q1944412
65844515,moneygram,BOC - #06621 - JSCZ YUANFENGQIAO SUB-BRA,,CHANGZHOU,,,CN,+86 519 8811 5364,,Mo-Sa 08:30-17:00; Su 00:00-24:00,MoneyGram,Q1944412
65844528,moneygram,BOC - #06624 - JSCZ YIKANG SUB-BRANCH,,CHANGZHOU,,,CN,+86 519 8816 1259,,Mo-Sa 08:30-17:00; Su 00:00-24:00,MoneyGram,Q1944412
65844531,moneygram,BOC - #06606 - JSCZ GUANGHUALU SUB-BRANC,,CHANGZHOU,,,CN,+86 519 8886 4179,,Mo-Sa 08:30-17:00; Su 00:00-24:00,MoneyGram,Q1944412
65846487,moneygram,BOC - #06631 - JSCZ XIXINGQIAO SUB-BRANC,,CHANGZHOU,,,CN,+86 519 8678 0127,,Mo-Sa 08:30-17:00; Su 00:00-24:00,MoneyGram,Q1944412
65846490,moneygram,BOC - #06635 - JSCZ RUNDE BANDAO SUB-BRA,,CHANGZHOU,,,CN,+86 519 8520 0965,,Mo-Sa 08:30-17:00; Su 00:00-24:00,MoneyGram,Q1944412
65846584,moneygram,BOC - #06668 - JSCZ XUEJIA BANKING OFFIC,,CHANGZHOU,,,CN,+86 519 8596 5902,,Mo-Sa 08:30-17:00; Su 00:00-24:00,MoneyGram,Q1944412
66684363,moneygram,BOC - #06622 - JSCZ WENHUAGONG SUB-BRANC,,CHANGZHOU,,,CN,+86 519 8815 7937,,Mo-Fr 08:30-17:00; Sa-Su 00:00-24:00,MoneyGram,Q1944412
66684392,moneygram,BOC - #07338 - JSCZ PRESTIGIOUS WEALTH M,,CHANGZHOU,,,CN,+86 519 8817 8502,,Mo-Fr 08:30-17:00; Sa-Su 00:00-24:00,MoneyGram,Q1944412
65840140,moneygram,BOC - #06616 - JSCZ YINHEWAN SUB-BRANCH,,CHANGZHOU,,,CN,+86 519 8699 0071,,Mo-Sa 08:30-17:00; Su 00:00-24:00,MoneyGram,Q1944412
65844382,moneygram,BOC - #06601 - JSCZ LIHUA SUB-BRANCH,,CHANGZHOU,,,CN,+86 519 8882 2934,,Mo-Sa 08:30-17:00; Su 00:00-24:00,MoneyGram,Q1944412
71777388,moneygram,BOC - #6619 - CHANGZHOU - HONGMEI HOLIDA,,CHANGZHOU,,,CN,+86 519 8557 0521,,Mo-Sa 08:30-17:00; Su 00:00-24:00,MoneyGram,Q1944412
68175935,moneygram,BOC - #06738 - JSCZ HUANGLI SUBBR,,CHANGZHOU,,,CN,+86 519 8376 1272,,Mo-Sa 09:00-17:00; Su 00:00-24:00,MoneyGram,Q1944412
68176167,moneygram,BOC - #07352 - JSCZ PANJIA SUBBR,,CHANGZHOU,,,CN,+86 519 8373 9705,,Mo-Sa 09:00-17:00; Su 00:00-24:00,MoneyGram,Q1944412
68176170,moneygram,BOC - #07353 - JSCZ HUAYANG SUBBR,,CHANGZHOU,,,CN,+86 519 8282 3147,,Mo-Sa 09:00-17:00; Su 00:00-24:00,MoneyGram,Q1944412
68176183,moneygram,BOC - #07349 - JSCZ XIXIASHU SUBBR,,CHANGZHOU,,,CN,+86 519 8580 5095,,Mo-Sa 09:00-17:00; Su 00:00-24:00,MoneyGram,Q1944412
