Ref,Spider,Name,Address,City,State,Zipcode,Country,Phone,Website,Hours,Brand,WikiData
A267,action,Nowy Tomyśl,,Nowy Tomyśl,,,PL,,https://www.action.com/pl-pl/sklepy/nowy-tomyl/,,Action,Q2634111
403857,alior_bank_pl,Placówka Partnerska w Nowym Tomyślu,,Nowy Tomyśl,,,PL,,,Mo-Fr 09:00-17:00,Alior Bank,Q9148395
884,biedronka_pl,Biedronka,,Nowy Tomyśl,,,PL,,"https://www.biedronka.pl/pl/shop,id,884",Mo-We 06:00-22:00; Th-Sa 06:00-23:00,Biedronka,Q857182
128,biedronka_pl,Biedronka,,Nowy Tomyśl,,,PL,,"https://www.biedronka.pl/pl/shop,id,128",Mo-Sa 06:00-23:00,Biedronka,Q857182
"https://www.brw.pl/siec-sprzedazy/salon,nowotomyski-dom-handlowy-pawelec,nowy-tomysl,209.html",black_red_white_pl,Nowotomyski Dom Handlowy Pawelec - Nowy Tomyśl,,Nowy Tomyśl,,,PL,+48 61 442 20 38,"https://www.brw.pl/siec-sprzedazy/salon,nowotomyski-dom-handlowy-pawelec,nowy-tomysl,209.html",Mo-Fr 10:00-18:00; Sa 09:00-14:00,Black Red White,Q4921546
31893_1,bmw_group,Pawelec Moto Expert Sp.zo.o.,,Nowy Tomysl,,,PL,+48 61 442 61 82,https://www.bmw-motorrad.pl/pawelec-nowy-tomysl,,BMW,Q26678
810805880,bp,PRZYŁĘK,,NOWY TOMYSL,,,PL,+48 61 442 08 91,,24/7,BP,Q152057
410,ccc,Nowy Tomyśl CCC Multibox 2115,,Nowy Tomyśl,,,PL,+48 61 223 21 77,https://ccc.eu/pl/market/nowy-tomysl-ccc-multibox-2115,Mo-Sa 09:00-20:00; Su 10:00-18:00,CCC,Q11788344
4307,chorten_pl,Chorten,,NOWY TOMYŚL,,,PL,,https://chorten.com.pl/sklepy/nowy_tomy%C5%9Bl_anna_4307,Mo-Sa 07:00-22:30,Chorten,Q48843988
101577,delikatesy_centrum_pl,NOWY TOMYŚL OSIEDLE BATOREGO,,Nowy Tomyśl,,,PL,,,Mo-Sa 06:30-21:00; Su 09:00-19:00,Delikatesy Centrum,Q11693824
PL5760,kaufland,Kaufland Nowy Tomyśl,,Nowy Tomyśl,,,PL,+48 800 300 062,https://www.kaufland.pl/dla-klienta/sklepy/nowy-tomysl-5760.html,Mo-Sa 06:00-22:00,Kaufland,Q685967
7058,kik,KiK,,Nowy Tomyśl,,,PL,+48 881 985 058,,Mo-Fr 09:00-20:00; Sa 09:00-18:00; Su 10:00-16:00,KiK,Q883965
2019,lidl_pl,Lidl,,Nowy Tomyśl,,,PL,,,Mo-Sa 06:00-22:00; Su 09:00-19:00,Lidl,Q151954
48740,man_truck_and_bus,REDOS Pojazdy Użytkowe Sp. z o.o.,,Nowy Tomyśl,,,PL,+48 61 445 24 00,,,MAN Truck & Bus,Q708667
RCW80J19,millennium_bank_pl,RCW80J19,,Nowy Tomyśl,,,PL,,,,Bank Millennium,Q4855947
RNET6289,millennium_bank_pl,RNET6289,,Nowy Tomyśl,,,PL,,,,Bank Millennium,Q4855947
RNETA509,millennium_bank_pl,RNETA509,,Nowy Tomyśl,,,PL,,,,Bank Millennium,Q4855947
65069413,moneygram,UP NOWY TOMYSL - POCZTA POLSKA,,NOWY TOMYSL,,,PL,+48 61 442 19 28,,Mo-Fr 06:00-22:00; Sa 08:00-20:00; Su 00:00-24:00,MoneyGram,Q1944412
70964406,moneygram,FUP NOWY TOMYSL - POCZTA POLSKA,,NOWY TOMYSL,,,PL,+48 61 442 27 96,,Mo-Fr 06:00-22:00; Sa 08:00-20:00; Su 00:00-24:00,MoneyGram,Q1944412
https://www.netto.pl/sklepy/nowy-tomysl/ul-zbaszynska-18c/dc4df170b2d645f6a40a29c0374b7f05/,netto_salling,Netto Nowy Tomyśl Zbaszyńska 18c,,Nowy Tomyśl,,,PL,+48 531 994 994,https://www.netto.pl/sklepy/nowy-tomysl/ul-zbaszynska-18c/dc4df170b2d645f6a40a29c0374b7f05/,Mo-Sa 06:00-23:00,Netto,Q552652
https://www.netto.pl/sklepy/nowy-tomysl/kolejowa-8/1bfd45dca08141c595608b88598fe3d8/,netto_salling,Netto Nowy Tomyśl,,Nowy Tomyśl,,,PL,+48 531 994 994,https://www.netto.pl/sklepy/nowy-tomysl/kolejowa-8/1bfd45dca08141c595608b88598fe3d8/,Mo-Th 06:00-21:00; Fr-Sa 06:00-22:00,Netto,Q552652
https://www.netto.pl/sklepy/nowy-tomysl/poznanska-22/5c4a5b73d6aa4cb8906ada4688569497/,netto_salling,Netto Nowy Tomyśl,,Nowy Tomyśl,,,PL,+48 531 994 994,https://www.netto.pl/sklepy/nowy-tomysl/poznanska-22/5c4a5b73d6aa4cb8906ada4688569497/,Mo-Th 06:00-21:00; Fr-Sa 06:00-22:00,Netto,Q552652
27384,orange_pl,Orange Nowy Tomyśl,,Nowy Tomyśl,,,PL,+48 61 445 10 92,https://salony.orange.pl/pl/orange-nowy-tomy%C5%9Bl-27384,Mo-Fr 09:00-17:00; Sa 09:00-13:00,Orange,Q1431486
597822,orlen_paczka_pl,,,Nowy Tomyśl,,,PL,,,Mo-Sa 06:00-23:00; Su 10:00-20:00,Orlen Paczka,Q110457879
677051,orlen_paczka_pl,,,Nowy Tomyśl,,,PL,,,Mo-Fr 09:00-23:00; Sa 09:00-24:00; Su 10:00-20:00,Orlen Paczka,Q110457879
872501,orlen_paczka_pl,,,Nowy Tomyśl,,,PL,,,Mo-Fr 09:00-17:00; Sa 10:00-12:00,Orlen Paczka,Q110457879
846376,orlen_paczka_pl,,,Nowy Tomyśl,,,PL,,,,Orlen Paczka,Q110457879
530870,orlen_paczka_pl,,,Nowy Tomyśl,,,PL,,,Mo-Fr 08:30-17:00; Sa 09:00-13:00,Orlen Paczka,Q110457879
438767,orlen_paczka_pl,,,Nowy Tomyśl,,,PL,,,,Orlen Paczka,Q110457879
1522294,santander_pl,1 Oddział w Nowym Tomyślu,,Nowy Tomyśl,,,PL,+48 61 811 99 99,,Mo-Fr 10:00-17:00,Santander,Q806653
192,tmobile_pl,T-Mobile,,Nowy Tomyśl,,,PL,+48 728 901 370,,Mo-Fr 10:00-18:00; Sa 09:00-13:00,T-Mobile,Q327634
BP_EXT_22258,totalenergies,PRZYŁĘK,,Nowy Tomyśl,,,PL,,https://store.totalenergies.fr/en_EN/BP_EXT_22258,,BP,Q152057
,visa,,,OSTROW WIELKOPOLSKI,,,PL,,,,,
,visa,,,NOWY TOMYŚL,,,PL,,,,,
,visa,,,NOWY TOMYŚL,,,PL,,,,,
,visa,,,NOWY TOMYŚL,,,PL,,,,,
ID02959,zabka_pl,Żabka,,Nowy Tomyśl,,,PL,,,Mo-Sa 06:00-23:00; Su 09:00-21:00,Żabka,Q2589061
ID03510,zabka_pl,Żabka,,Nowy Tomyśl,,,PL,,,Mo-Sa 06:00-23:00,Żabka,Q2589061
ID08914,zabka_pl,Żabka,,Nowy Tomyśl,,,PL,,,Mo-Sa 06:00-23:00,Żabka,Q2589061
ID0A205,zabka_pl,Żabka,,Nowy Tomyśl,,,PL,,,Mo-Sa 06:00-23:00; Su 10:00-20:00,Żabka,Q2589061
ID0B490,zabka_pl,Żabka,,Boruja Kościelna,,,PL,,,Mo-Sa 06:00-22:00; Su 08:00-22:00,Żabka,Q2589061
ID0B538,zabka_pl,Żabka,,Nowy Tomyśl,,,PL,,,Mo-Sa 06:00-23:00; Su 10:00-21:00,Żabka,Q2589061
ID0C513,zabka_pl,Żabka,,Nowy Tomyśl,,,PL,,,Mo-Sa 06:00-23:00; Su 09:00-22:00,Żabka,Q2589061
