Ref,Spider,Name,Address,City,State,Zipcode,Country,Phone,Website,Hours,Brand,WikiData
72069176,moneygram,PAKISTAN CURRENCY EXCHANGE CO PRIVATE LI,,RAWALPINDI,,,PK,+92 51 5111621,,Mo-Su 08:00-23:00,MoneyGram,Q1944412
72069804,moneygram,PAKISTAN CURRENCY EXCHANGE CO PRIVATE LI,,RAWALPINDI,,,PK,+92 51 5515062,,Mo-Su 08:00-23:00,MoneyGram,Q1944412
72148709,moneygram,PAKISTAN CURRENCY EXCHANGE CO PRIVATE LI,,RAWALPINDI,,,PK,+92 51 5132162,,Mo-Su 08:00-23:00,MoneyGram,Q1944412
72359307,moneygram,PAKISTAN CURRENCY EXCHANGE CO PRIVATE LI,,RAWALPINDI,,,PK,+92 51 5180675,,Mo-Su 08:00-23:00,MoneyGram,Q1944412
72634938,moneygram,PAKISTAN CURRENCY EXCHANGE CO PRIVATE LI,,RAWALPINDI,,,PK,+92 51 5511568,,Mo-Su 08:00-23:00,MoneyGram,Q1944412
69004018,moneygram,HABIB METROPOLITAN BANK - RAWALPINDI - K,,RAWALPINDI,,,PK,+92 51 5565160,,Mo-Fr 08:00-18:30; Sa 08:00-13:30; Su 00:00-24:00,MoneyGram,Q1944412
72326194,moneygram,BANK AL HABIB - #5546 - RAWALPINDI - ISL,,RAWALPINDI,,,PK,+92 331 8557776,,Mo-Fr 08:00-18:00; Sa 08:00-14:00; Su 00:00-24:00,MoneyGram,Q1944412
73628817,moneygram,BANK AL HABIB - #379 - RAWALPINDI - COMM,,RAWALPINDI,,,PK,+92 51 5702290,,Mo-Fr 08:00-18:00; Sa 08:00-14:00; Su 00:00-24:00,MoneyGram,Q1944412
73762524,moneygram,BANK AL HABIB - #5582 - RAWALPINDI - ISL,,RAWALPINDI,,,PK,+92 51 5176541,,Mo-Fr 08:00-18:00; Sa 08:00-14:00; Su 00:00-24:00,MoneyGram,Q1944412
73621144,moneygram,BANK AL HABIB LIMITED - #378 - RAWALPIND,,RAWALPINDI,,,PK,+92 51 5401469,,Mo-Fr 08:00-18:00; Sa 08:00-14:00; Su 00:00-24:00,MoneyGram,Q1944412
72002023,moneygram,SADIQ EXCHANGE COMPANY PVT LTD - #SEC040,,RAWALPINDI,,,PK,+92 51 5181439,,Mo-Su 09:00-20:00,MoneyGram,Q1944412
72032802,moneygram,LINK INTERNATIONAL EXCHANGE COMPANY PVT,,RAWALPINDI,,,PK,423688037,,Mo-Su 09:00-21:00,MoneyGram,Q1944412
72032938,moneygram,LINK INTERNATIONAL EXCHANGE COMPANY PVT,,RAWALPINDI,,,PK,+92 51 5194458,,Mo-Su 09:00-21:00,MoneyGram,Q1944412
72033047,moneygram,LINK INTERNATIONAL EXCHANGE COMPANY PVT,,LAHORE,,,PK,+92 42 36688037,,Mo-Su 09:00-21:00,MoneyGram,Q1944412
65756412,moneygram,MCB BANK LIMITED - #0467,,RAWALPINDI,,,PK,+92 51 4409017,,Mo-Th 08:00-13:45; Fr 08:00-12:30; Sa 10:00-13:00; Su 00:00-24:00,MoneyGram,Q1944412
65756438,moneygram,MCB BANK LIMITED - #0473,,MURREE,,,PK,+92 51 3410220,,Mo-Th 08:00-13:45; Fr 08:00-12:30; Sa 10:00-13:00; Su 00:00-24:00,MoneyGram,Q1944412
65757288,moneygram,MCB BANK LIMITED - #0582,,RAWALPINDI,,,PK,+92 51 5525730,,Mo-Th 08:00-13:45; Fr 08:00-12:30; Sa 10:00-13:00; Su 00:00-24:00,MoneyGram,Q1944412
65757369,moneygram,MCB BANK LIMITED - #0597,,ISLAMABAD,,,PK,+92 51 2603030,,Mo-Th 08:00-13:45; Fr 08:00-12:30; Sa 10:00-13:00; Su 00:00-24:00,MoneyGram,Q1944412
65757398,moneygram,MCB BANK LIMITED - #0611,,RAWALPINDI,,,PK,+92 51 4537309,,Mo-Th 08:00-13:45; Fr 08:00-12:30; Sa 10:00-13:00; Su 00:00-24:00,MoneyGram,Q1944412
65757424,moneygram,MCB BANK LIMITED - #0612,,RAWALPINDI,,,PK,+92 51 5533055,,Mo-Th 08:00-13:45; Fr 08:00-12:30; Sa 10:00-13:00; Su 00:00-24:00,MoneyGram,Q1944412
65757453,moneygram,MCB BANK LIMITED - #0614,,RAWALPINDI,,,PK,+92 51 5533429,,Mo-Th 08:00-13:45; Fr 08:00-12:30; Sa 10:00-13:00; Su 00:00-24:00,MoneyGram,Q1944412
65757479,moneygram,MCB BANK LIMITED - #0619,,RAWALPINDI,,,PK,+92 51 5568268,,Mo-Th 08:00-13:45; Fr 08:00-12:30; Sa 10:00-13:00; Su 00:00-24:00,MoneyGram,Q1944412
65757495,moneygram,MCB BANK LIMITED - #0621,,RAWALPINDI,,,PK,+92 51 4210966,,Mo-Th 08:00-13:45; Fr 08:00-12:30; Sa 10:00-13:00; Su 00:00-24:00,MoneyGram,Q1944412
65762998,moneygram,MCB BANK LIMITED - #0633,,RAWALPINDI,,,PK,+92 51 4429357,,Mo-Th 08:00-13:45; Fr 08:00-12:30; Sa 10:00-13:00; Su 00:00-24:00,MoneyGram,Q1944412
65757505,moneygram,MCB BANK LIMITED - #0642,,RAWALPINDI,,,PK,+92 51 3530042,,Mo-Th 08:00-13:45; Fr 08:00-12:30; Sa 10:00-13:00; Su 00:00-24:00,MoneyGram,Q1944412
65757576,moneygram,MCB BANK LIMITED - #0655,,RAWALPINDI,,,PK,+92 51 4534900,,Mo-Th 08:00-13:45; Fr 08:00-12:30; Sa 10:00-13:00; Su 00:00-24:00,MoneyGram,Q1944412
65757699,moneygram,MCB BANK LIMITED - #0794,,RAWALPINDI,,,PK,+92 51 5515075,,Mo-Th 08:00-13:45; Fr 08:00-12:30; Sa 10:00-13:00; Su 00:00-24:00,MoneyGram,Q1944412
65757880,moneygram,MCB BANK LIMITED - #0846,,RAWALPINDI,,,PK,+92 51 5798019,,Mo-Th 08:00-13:45; Fr 08:00-12:30; Sa 10:00-13:00; Su 00:00-24:00,MoneyGram,Q1944412
65758562,moneygram,MCB BANK LIMITED - #0890,,RAWALPINDI,,,PK,+92 51 5517288,,Mo-Th 08:00-13:45; Fr 08:00-12:30; Sa 10:00-13:00; Su 00:00-24:00,MoneyGram,Q1944412
65758737,moneygram,MCB BANK LIMITED - #0956,,RAWALPINDI,,,PK,+92 51 5480960,,Mo-Th 08:00-13:45; Fr 08:00-12:30; Sa 10:00-13:00; Su 00:00-24:00,MoneyGram,Q1944412
65758779,moneygram,MCB BANK LIMITED - #0973,,RAWALPINDI,,,PK,+92 51 5532676,,Mo-Th 08:00-13:45; Fr 08:00-12:30; Sa 10:00-13:00; Su 00:00-24:00,MoneyGram,Q1944412
65758850,moneygram,MCB BANK LIMITED - #1012,,RAWALPINDI,,,PK,+92 51 5467434,,Mo-Th 08:00-13:45; Fr 08:00-12:30; Sa 10:00-13:00; Su 00:00-24:00,MoneyGram,Q1944412
65758876,moneygram,MCB BANK LIMITED - #1020,,RAWALPINDI,,,PK,+92 51 5481781,,Mo-Th 08:00-13:45; Fr 08:00-12:30; Sa 10:00-13:00; Su 00:00-24:00,MoneyGram,Q1944412
65759066,moneygram,MCB BANK LIMITED - #1115,,RAWALPINDI,,,PK,+92 51 5780377,,Mo-Th 08:00-13:45; Fr 08:00-12:30; Sa 10:00-13:00; Su 00:00-24:00,MoneyGram,Q1944412
65759163,moneygram,MCB BANK LIMITED - #1160,,ISLAMABAD,,,PK,+92 51 2651049,,Mo-Th 08:00-13:45; Fr 08:00-12:30; Sa 10:00-13:00; Su 00:00-24:00,MoneyGram,Q1944412
65759626,moneygram,MCB BANK LIMITED - #1280,,RAWALPINDI,,,PK,+92 51 4671150,,Mo-Th 08:00-13:45; Fr 08:00-12:30; Sa 10:00-13:00; Su 00:00-24:00,MoneyGram,Q1944412
65759684,moneygram,MCB BANK LIMITED - #1301,,ISLAMABAD,,,PK,+92 51 4433037,,Mo-Th 08:00-13:45; Fr 08:00-12:30; Sa 10:00-13:00; Su 00:00-24:00,MoneyGram,Q1944412
65759778,moneygram,MCB BANK LIMITED - #1331,,RAWALPINDI,,,PK,+92 51 4511812,,Mo-Th 08:00-13:45; Fr 08:00-12:30; Sa 10:00-13:00; Su 00:00-24:00,MoneyGram,Q1944412
65760013,moneygram,MCB BANK LIMITED - #1389,,RAWALPINDI,,,PK,+92 51 5487888,,Mo-Th 08:00-13:45; Fr 08:00-12:30; Sa 10:00-13:00; Su 00:00-24:00,MoneyGram,Q1944412
65760165,moneygram,MCB BANK LIMITED - #1406,,ISLAMABAD,,,PK,+92 51 2294237,,Mo-Th 08:00-13:45; Fr 08:00-12:30; Sa 10:00-13:00; Su 00:00-24:00,MoneyGram,Q1944412
65760408,moneygram,MCB BANK LIMITED - #1445,,ISLAMABAD,,,PK,+92 51 2287325,,Mo-Th 08:00-13:45; Fr 08:00-12:30; Sa 10:00-13:00; Su 00:00-24:00,MoneyGram,Q1944412
65760916,moneygram,MCB BANK LIMITED - #1501,,ISLAMABAD,,,PK,+92 51 4468975,,Mo-Th 08:00-13:45; Fr 08:00-12:30; Sa 10:00-13:00; Su 00:00-24:00,MoneyGram,Q1944412
65760974,moneygram,MCB BANK LIMITED - #1517,,RAWALPINDI,,,PK,+92 51 5766027,,Mo-Th 08:00-13:45; Fr 08:00-12:30; Sa 10:00-13:00; Su 00:00-24:00,MoneyGram,Q1944412
65761054,moneygram,MCB BANK LIMITED - #1537,,GUJAR KHAN,,,PK,+92 51 3360205,,Mo-Th 08:00-13:45; Fr 08:00-12:30; Sa 10:00-13:00; Su 00:00-24:00,MoneyGram,Q1944412
65761261,moneygram,MCB BANK LIMITED - #1556,,ISLAMABAD,,,PK,+92 51 2830100,,Mo-Th 08:00-13:45; Fr 08:00-12:30; Sa 10:00-13:00; Su 00:00-24:00,MoneyGram,Q1944412
65761436,moneygram,MCB BANK LIMITED - #1568,,ISLAMABAD,,,PK,+92 51 2228350,,Mo-Th 08:00-13:45; Fr 08:00-12:30; Sa 10:00-13:00; Su 00:00-24:00,MoneyGram,Q1944412
65762464,moneygram,MCB BANK LIMITED - #1577,,ISLAMABAD,,,PK,+92 51 2601781,,Mo-Th 08:00-13:45; Fr 08:00-12:30; Sa 10:00-13:00; Su 00:00-24:00,MoneyGram,Q1944412
65762477,moneygram,MCB BANK LIMITED - #1604,,ISLAMABAD,,,PK,+92 51 2802314,,Mo-Th 08:00-13:45; Fr 08:00-12:30; Sa 10:00-13:00; Su 00:00-24:00,MoneyGram,Q1944412
65139589,moneygram,MCB BANK LIMITED - #581 -  RAWALPINDI CI,,RAWALPINDI,,,PK,+92 51 5530284,,Mo-Th 08:00-13:45; Fr 08:00-12:30; Sa 10:00-13:00; Su 00:00-24:00,MoneyGram,Q1944412
69607512,moneygram,HABIB METROPOLITAN BANK - #403 - RAWALPI,,RAWALPINDI,,,PK,+92 51 5155624,,Mo-Fr 08:00-18:30; Sa 08:00-14:00; Su 00:00-24:00,MoneyGram,Q1944412
69636512,moneygram,HABIB METROPOLITAN BANK - #0299' - RAWAL,,RAWALPINDI,,,PK,+92 51 3572115,,Mo-Fr 08:00-18:30; Sa 08:00-14:00; Su 00:00-24:00,MoneyGram,Q1944412
69636538,moneygram,HABIB METROPOLITAN BANK - #0402' - RAWAL,,RAWALPINDI,,,PK,+92 51 5126880,,Mo-Fr 08:00-18:30; Sa 08:00-14:00; Su 00:00-24:00,MoneyGram,Q1944412
69712711,moneygram,HABIB METROPOLITAN BANK - #9910 - RAWALP,,RAWALPINDI,,,PK,+92 51 5419277,,Mo-Fr 08:00-18:30; Sa 08:00-14:00; Su 00:00-24:00,MoneyGram,Q1944412
74369997,moneygram,RAVI EXCHANGE COMPANY (PVT) LTD - #21 -,,RAWALPINDI,,,PK,+92 51 5120224,,Mo-Sa 09:00-20:00; Su 09:00-18:00,MoneyGram,Q1944412
74462234,moneygram,BANK AL HABIB - #461 - RAWALPINDI - BRAN,,RAWALPINDI,,,PK,+92 51 5681607,,Mo-Fr 08:00-18:00; Sa 08:00-14:00; Su 00:00-24:00,MoneyGram,Q1944412
74479298,moneygram,EURO INTERNATIONAL - #FPCE05RWP - RAWALP,,RAWALPINDI,,,PK,+92 51 5581433,,Mo-Su 08:00-23:00,MoneyGram,Q1944412
44907583,moneygram,BANK AL FALAH LIMITED - PESHAWAR ROAD BR,,RAWALPINDI,,,PK,+92 51 5468404,,Mo-Fr 08:00-19:00; Sa 08:00-15:00; Su 00:00-24:00,MoneyGram,Q1944412
65566149,moneygram,BANK AL FALAH LIMITED - COLLEGE ROAD BRA,,RAWALPINDI,,,PK,+92 51 5762008,,Mo-Fr 08:00-19:00; Sa 08:00-15:00; Su 00:00-24:00,MoneyGram,Q1944412
65566288,moneygram,BANK AL FALAH LIMITED - SATELLITE TOWN B,,RAWALPINDI,,,PK,+92 51 4424080,,Mo-Fr 08:00-19:00; Sa 08:00-15:00; Su 00:00-24:00,MoneyGram,Q1944412
65566330,moneygram,BANK AL FALAH LIMITED - TALAGANG BRANCH,,RAWALPINDI,,,PK,+92 543 410791,,Mo-Fr 08:00-19:00; Sa 08:00-15:00; Su 00:00-24:00,MoneyGram,Q1944412
65557983,moneygram,BANK AL FALAH LIMITED - RAIL BAZAR BRANC,,FAISALABAD,,,PK,+92 41 2540801,,Mo-Fr 08:00-19:00; Sa 08:00-15:00; Su 00:00-24:00,MoneyGram,Q1944412
65557996,moneygram,BANK AL FALAH LIMITED - BABAR CHOWK BRAN,,FAISALABAD,,,PK,+92 41 8557421,,Mo-Fr 08:00-19:00; Sa 08:00-15:00; Su 00:00-24:00,MoneyGram,Q1944412
65557475,moneygram,BANK AL FALAH LIMITED - SUSAN ROAD BRANC,,FAISALABAD,,,PK,+92 41 8556673,,Mo-Fr 08:00-19:00; Sa 08:00-15:00; Su 00:00-24:00,MoneyGram,Q1944412
65557491,moneygram,BANK AL FALAH LIMITED - SAMANABAD BRANCH,,FAISALABAD,,,PK,+92 41 2561502,,Mo-Fr 08:00-19:00; Sa 08:00-15:00; Su 00:00-24:00,MoneyGram,Q1944412
65557705,moneygram,BANK AL FALAH LIMITED - LALAZAR BRANCH,,RAWALPINDI,,,PK,+92 51 5524904,,Mo-Fr 08:00-19:00; Sa 08:00-15:00; Su 00:00-24:00,MoneyGram,Q1944412
65557718,moneygram,BANK AL FALAH LIMITED - AIRPORT ROAD BRA,,RAWALPINDI,,,PK,+92 51 5781484,,Mo-Fr 08:00-19:00; Sa 08:00-15:00; Su 00:00-24:00,MoneyGram,Q1944412
65557734,moneygram,BANK AL FALAH LIMITED - CHAKLALA SCHEME,,RAWALPINDI,,,PK,+92 51 5766003,,Mo-Fr 08:00-19:00; Sa 08:00-15:00; Su 00:00-24:00,MoneyGram,Q1944412
65577002,moneygram,BANK AL FALAH LIMITED - IB PINDI GHEB BR,,PINDI GHEB,,,PK,+92 57 2350123,,Mo-Fr 08:00-19:00; Sa 08:00-15:00; Su 00:00-24:00,MoneyGram,Q1944412
65577015,moneygram,BANK AL FALAH LIMITED - IB SATELLITE TOW,,RAWALPINDI,,,PK,+92 51 4452048,,Mo-Fr 08:00-19:00; Sa 08:00-15:00; Su 00:00-24:00,MoneyGram,Q1944412
65681383,moneygram,BANK AL FALAH LIMITED - ADAMJEE ROAD RAW,,RAWALPINDI,,,PK,+92 51 5563728,,Mo-Fr 08:00-19:00; Sa 08:00-15:00; Su 00:00-24:00,MoneyGram,Q1944412
65681516,moneygram,BANK AL FALAH LIMITED - JINNAH ROAD  RAW,,RAWALPINDI,,,PK,+92 51 5775325,,Mo-Fr 08:00-19:00; Sa 08:00-15:00; Su 00:00-24:00,MoneyGram,Q1944412
65681532,moneygram,BANK AL FALAH LIMITED - TENCH BHATTA  RA,,RAWALPINDI,,,PK,+92 51 5520475,,Mo-Fr 08:00-19:00; Sa 08:00-15:00; Su 00:00-24:00,MoneyGram,Q1944412
66372918,moneygram,BANK AL FALAH LIMITED - RAWALPINDI - Boh,,RAWALPINDI,,,PK,+92 21 34301526,,Mo-Sa 08:00-18:00; Su 00:00-24:00,MoneyGram,Q1944412
66373438,moneygram,BANK AL FALAH LIMITED - RAWALPINDI - RAW,,RAWALPINDI,,,PK,+92 21 34301526,,Mo-Sa 08:00-18:00; Su 00:00-24:00,MoneyGram,Q1944412
66373522,moneygram,BANK AL FALAH LIMITED - RAWALPINDI - FAI,,RAWALPINDI,,,PK,+92 21 34301526,,Mo-Sa 08:00-18:00; Su 00:00-24:00,MoneyGram,Q1944412
66373674,moneygram,BANK AL FALAH LIMITED - RAWALPINDI - BAG,,RAWALPINDI,,,PK,+92 21 34301526,,Mo-Sa 08:00-18:00; Su 00:00-24:00,MoneyGram,Q1944412
66373849,moneygram,BANK AL FALAH LIMITED - RAWALPINDI - ADY,,RAWALPINDI,,,PK,+92 21 34301526,,Mo-Sa 08:00-18:00; Su 00:00-24:00,MoneyGram,Q1944412
171692,totalenergies,B. K. ELAHI & SONS,,RAWALPINDI,,,PK,+92 300 5055078,https://store.totalenergies.fr/en_EN/171692,,TotalEnergies,Q154037
PK00106,totalenergies,Swan Filling Station,,Rawalpindi,,,PK,+92 322 2929629,https://store.totalenergies.fr/en_EN/PK00106,24/7,TotalEnergies,Q154037
PK00129,totalenergies,Khattak Sons (PVT) Ltd,,Rawalpindi,,,PK,,https://store.totalenergies.fr/en_EN/PK00129,24/7,TotalEnergies,Q154037
PK00132,totalenergies,Rawal Filling Station,,Rawalpindi,,,PK,+92 322 5151530,https://store.totalenergies.fr/en_EN/PK00132,24/7,TotalEnergies,Q154037
PK00141,totalenergies,Kamran & Brothers Filling Station,,Rawalpindi,,,PK,+92 322 5033208,https://store.totalenergies.fr/en_EN/PK00141,24/7,TotalEnergies,Q154037
PK00190,totalenergies,Gas Linx Filling Station,,Rawalpindi,,,PK,+92 300 8409600,https://store.totalenergies.fr/en_EN/PK00190,24/7,TotalEnergies,Q154037
PK00210,totalenergies,Asar & Malik Enterprises,,Rawalpindi,,,PK,+92 51 5794441,https://store.totalenergies.fr/en_EN/PK00210,24/7,TotalEnergies,Q154037
PK00288,totalenergies,CH. AHMED DIN FILLING STATION,,Rawalpindi,,,PK,+92 312 5006000,https://store.totalenergies.fr/en_EN/PK00288,24/7,TotalEnergies,Q154037
PK00483,totalenergies,KAMRAN AND BROTHERS,,Rawalpindi,,,PK,,https://store.totalenergies.fr/en_EN/PK00483,24/7,TotalEnergies,Q154037
PK00485,totalenergies,PRIME PETROLEUM SERVICES,,Rawalpindi,,,PK,,https://store.totalenergies.fr/en_EN/PK00485,24/7,TotalEnergies,Q154037
PK00489,totalenergies,RAJA SAIDEN KAHN F/S,,Rawalpindi,,,PK,+92 334 5056376,https://store.totalenergies.fr/en_EN/PK00489,24/7,TotalEnergies,Q154037
PK00506,totalenergies,TYCOONS PETROLEUM,,Rawalpindi,,,PK,+92 307 5006848,https://store.totalenergies.fr/en_EN/PK00506,24/7,TotalEnergies,Q154037
PK00507,totalenergies,KHAN FILLING STATION,,Rawalpindi,,,PK,,https://store.totalenergies.fr/en_EN/PK00507,24/7,TotalEnergies,Q154037
PK00559,totalenergies,GREEN GAS STATION,,Rawalpindi,,,PK,,https://store.totalenergies.fr/en_EN/PK00559,24/7,TotalEnergies,Q154037
PK00564,totalenergies,ANEEQ PETROLEUM,,Rawalpindi,,,PK,,https://store.totalenergies.fr/en_EN/PK00564,24/7,TotalEnergies,Q154037
PK00688,totalenergies,CENTRAL F/S,,Rawalpindi,,,PK,+92 333 5481401,https://store.totalenergies.fr/en_EN/PK00688,24/7,TotalEnergies,Q154037
PK00715,totalenergies,LEHTRAR FILLING STATION,,Rawalpindi,,,PK,+92 345 5307472,https://store.totalenergies.fr/en_EN/PK00715,24/7,TotalEnergies,Q154037
