Ref,Spider,Name,Address,City,State,Zipcode,Country,Phone,Website,Hours,Brand,WikiData
https://stores.aldi.us/#4421007,aldi_sud_us,ALDI  614 Middle Country Road,,Selden,NY,,US,+1 844-473-1004,https://stores.aldi.us/ny/selden/614-middle-country-road,"Mo-Su 08:30-20:00,09:00-20:00",ALDI,Q41171672
62598,asics_us,Bob's Stores Footwear & Apparel,71 Middle Country Rd,Selden,NY,,US,+1 631-736-1300,,,asics,Q327247
2974,autozone_us,AutoZone Auto Parts Selden,,Selden,NY,,US,+1 631-732-3426,https://www.autozone.com/locations/ny/selden/615-middle-country-rd.html,Mo-Sa 07:30-21:00; Su 08:00-21:00,AutoZone,Q4826087
https://locators.bankofamerica.com/ny/selden/financial-centers-selden-15254.html,bankofamerica,Bank of America Financial Center & Drive-Thru ATM | Selden,,Selden,NY,,US,+1 631-320-2264,https://locators.bankofamerica.com/ny/selden/financial-centers-selden-15254.html,Mo-Fr 10:00-16:00,Bank of America,Q487907
BBW02409,bathandbodyworks_us,COLLEGE PLAZA,,SELDEN,NY,,US,+1 631-320-2147,,Mo-Sa 09:00-20:00; Su 11:00-18:00,Bath & Body Works,Q810773
90636,bluerhino,Selden Beverages,,Selden,NY,,US,+1 631-732-0224,,,Blue Rhino,Q65681213
96871708092581178400100000000000,bp,BP,,Selden,NY,,US,+1 631-458-0058,,24/7,BP,Q152057
2041238,chase_us,Selden - New branch,,Selden,NY,,US,+1 631-736-4770,https://locator.chase.com/ny/selden/999-middle-country-rd,Mo-Fr 09:00-17:00; Sa 09:00-14:00,Chase,Q524629
ny_selden_261-middle-country-rd,chipotle, ,,Selden,NY,,US,+1 631-732-1459,https://locations.chipotle.com/ny/selden/261-middle-country-rd,,Chipotle,Q465751
92371,citi,ATM Walgreens,,Selden,NY,,US,,,,Citibank,Q857063
31906,citi,ATM 7ELEVEN-FCTI,,Selden,NY,,US,,,,Citibank,Q857063
299,citi,Selden,,Selden,NY,,US,+1 800-627-3999,,,Citibank,Q857063
53082,citi,ATM CVS,,Selden,NY,,US,,,,Citibank,Q857063
60327,citi,ATM ISLAND FEDERAL CREDIT UNION,,Selden,NY,,US,,,,Citibank,Q857063
58555,citi,ATM Half Off Cards Of Selden,,Selden,NY,,US,,,,Citibank,Q857063
72914,citi,ATM Rite Aid,,Selden,NY,,US,,,,Citibank,Q857063
29446,citi,ATM 7ELEVEN-FCTI,,Selden,NY,,US,,,,Citibank,Q857063
57989,citi,ATM GEZI MARKET CORP,,Selden,NY,,US,,,,Citibank,Q857063
82292,citi,ATM Target,,Selden,NY,,US,,,,Citibank,Q857063
25497,citi,ATM 7ELEVEN-FCTI,,Selden,NY,,US,,,,Citibank,Q857063
,credit_union_us,Island FCU,,Selden,NY,,US,+1 631-851-1100,,Mo-We 08:30-04:30; Th-Fr 08:30-05:00; Sa 08:30-03:00,,
,credit_union_us,Teachers FCU,,Selden,NY,,US,+1 631-698-7000,,Mo-Th 08:30-04:30; Fr 08:30-06:00; Sa 08:30-04:30,,
1186,cvs_us,CVS Pharmacy,,Selden,NY,,US,+1 631-698-3102,https://www.cvs.com/store-locator/selden-ny-pharmacies/822-middle-country-rd-selden-ny-11784/storeid=1186,Mo-Su 08:00-22:00,CVS Pharmacy,Q2078880
6653,firestone_auto_care,Firestone Complete Auto Care,,Selden,NY,,US,+1 631-880-6262,https://local.firestonecompleteautocare.com/new-york/selden/995-middle-country-rd/,,Firestone,Q420837
https://locations.fivebelow.com/ny/selden/787-middle-country-rd-17c,five_below,Five Below College Plaza,,Selden,NY,,US,,https://locations.fivebelow.com/ny/selden/787-middle-country-rd-17c,Mo-Sa 10:00-20:00; Su 11:00-18:00,Five Below,Q5455836
https://restaurants.fiveguys.com/#15834431,five_guys_us,"Five Guys Selden, NY",,Selden,NY,,US,+1 631-880-4300,https://restaurants.fiveguys.com/202-independence-plaza,"Mo-Su 11:00-21:30,11:00-22:00",Five Guys,Q1131810
6774,gamestop_us,Selden Plaza,,Selden,NY,,US,+1 631-736-0158,https://www.gamestop.com/search/?store=6774,Mo-Th 12:00-19:00; Fr-Sa 11:00-21:00; Su 12:00-18:00,GameStop,Q202210
https://stores.gnc.com/#24058779,gnc,GNC Independence Plaza,,,NY,,US,+1 631-736-1137,https://stores.gnc.com/all-stores-new-york/selden/335-independence-plaza,Mo-Sa 10:00-19:00; Su 11:00-17:00,GNC,Q4808595
29714,h_r_block,H&R Block,,Selden,NY,,US,+1 631-698-1460,https://www.hrblock.com/local-tax-offices/new-york/selden/selden-plaza/29714/,,H&R Block,Q5627799
https://office.jacksonhewitt.com/#27577597,jackson_hewitt,Jackson Hewitt,,Selden,NY,,US,+1 631-732-7800,https://office.jacksonhewitt.com/tax-preparation-services-locations/en/ny/selden/373-independence-plz/15511,Mo-Fr 10:00-19:00; Sa 10:00-18:00; Su 11:00-15:00,Jackson Hewitt,Q6117132
8025,lidl_us,Selden NY - Middle Country Rd,,Selden,NY,,US,+1 844-747-5435,,,Lidl,Q151954
https://locations.moes.com/#4861,moes,Moe's Southwest Grill,,Selden,NY,,US,+1 631-732-1838,https://locations.moes.com/ny/selden/533-college-road,,Moe's Southwest Grill,Q6889938
523,ollies_bargain_outlet,Ollie's Bargain Outlet,,Selden,NY,,US,+1 631-320-5172,https://www.ollies.us/locations/323-middle-country-road-selden-ny/,Mo-Sa 09:00-21:00; Su 10:00-19:00,Ollie's Bargain Outlet,Q7088304
https://locations.papajohns.com/#10692377,papa_johns,Papa John's,,Selden,NY,,US,+1 631-320-1848,https://locations.papajohns.com/united-states/ny/11784/selden/1310-middle-country-rd,Mo-Th 10:30-03:30; Fr-Sa 10:30-04:30; Su 10:30-03:30,Papa John's Pizza,Q2759586
https://stores.petco.com/#27959919,petco,Petco Selden,,Selden,NY,,US,+1 631-451-8021,https://stores.petco.com/ny/selden/pet-supplies-selden-ny-738.html,Mo-Sa 09:00-21:00; Su 10:00-19:00,Petco,Q7171798
home-depot-1209-14284,ppgpaints,HOME DEPOT 1209,,"Selden, ",NY,,US,+1 631-732-9200,https://www.ppgpaints.com/store-locator/us/new-york/selden-paint-stores/home-depot-1209-14284,,PPG Paints,Q83891559
10662,rite_aid_us,Rite Aid #10662 Selden,,Selden,NY,,US,+1 631-698-8500,https://locations2.riteaid.com.yext-cdn.com/ny/selden/229-independence-plaza.html,Mo-Fr 08:00-22:00; Sa-Su 09:00-21:00,Rite Aid,Q3433273
https://locations.scrubsandbeyond.com/ny/selden/scrubs-selden-ny-195.html,scrubs_and_beyond,Nursing Uniforms & Medical Scrubs at 87 College Plaza | Scrubs & Beyond Near Me,,Selden,NY,,US,+1 631-732-3650,https://locations.scrubsandbeyond.com/ny/selden/scrubs-selden-ny-195.html,Mo-Sa 09:00-20:30; Su 10:00-17:00,Scrubs and Beyond,Q119972011
808,shoprite,ShopRite of Selden,,Selden,NY,,US,+1 631-561-6050,https://www.shoprite.com/sm/planning/rsid/808,Mo-Su 07:00-23:00,ShopRite,Q7501097
https://restaurants.subway.com/#14907298,subway,Subway Royal Selden Plaza,,Selden Suffolk,NY,,US,+1 631-696-1212,https://restaurants.subway.com/united-states/ny/selden/672-middle-country-rd,Mo-Sa 09:30-23:30; Su 09:30-22:30,Subway,Q244457
https://locations.tacobell.com/#6146524,taco_bell,Taco Bell,,Selden,NY,,US,+1 631-320-7956,https://locations.tacobell.com/ny/selden/1314-middle-country-rd.html,Mo-Th 08:00-02:00; Fr-Sa 08:00-04:00; Su 08:00-02:00,Taco Bell,Q752941
5345,upsstore,Selden,1070 Middle Country Rd,Selden,NY,,US,+1 631-451-8200,https://locations.theupsstore.com/ny/selden/1070-middle-country-rd,,UPS Store,Q7771029
1381172,usps,SELDEN,,SELDEN,NY,,US,+1 631-732-8627,,Mo-Fr 09:00-17:30; Sa 09:00-16:00,United States Postal Service,Q668687
1178400001,usps_collection_boxes,USPS COLLECTION BOX - BLUE BOX,2000 BOYLE RD,SELDEN,NY,,US,,,,United States Postal Service,Q668687
1178400002,usps_collection_boxes,USPS COLLECTION BOX - BLUE BOX,243 BOYLE RD,SELDEN,NY,,US,,,,United States Postal Service,Q668687
1178400003,usps_collection_boxes,USPS COLLECTION BOX - BLUE BOX,211 MIDDLE COUNTRY RD,SELDEN,NY,,US,,,,United States Postal Service,Q668687
1178400006,usps_collection_boxes,USPS COLLECTION BOX - BLUE BOX,329 INDEPENDENCE PLZ,SELDEN,NY,,US,,,,United States Postal Service,Q668687
1178400018,usps_collection_boxes,USPS COLLECTION BOX - PO LOBBY,109 COLLEGE PLZ,SELDEN,NY,,US,,,,United States Postal Service,Q668687
1178400007,usps_collection_boxes,USPS COLLECTION BOX - BLUE BOX,109 COLLEGE PLZ,SELDEN,NY,,US,,,,United States Postal Service,Q668687
1178400009,usps_collection_boxes,USPS COLLECTION BOX - BLUE BOX,109 COLLEGE PLZ,SELDEN,NY,,US,,,,United States Postal Service,Q668687
1178400015,usps_collection_boxes,USPS COLLECTION BOX - PO LOBBY,109 COLLEGE PLZ,SELDEN,NY,,US,,,,United States Postal Service,Q668687
1178400010,usps_collection_boxes,USPS COLLECTION BOX - BLUE BOX,109 COLLEGE PLZ,SELDEN,NY,,US,,,,United States Postal Service,Q668687
1178400005,usps_collection_boxes,USPS COLLECTION BOX - BLUE BOX,111 COLLEGE RD,SELDEN,NY,,US,,,,United States Postal Service,Q668687
A00000253331,verizon_us,Cellular Sales Selden,,SELDEN,NY,,US,+1 631-320-3783,https://www.verizon.com/stores/details/new-york/selden/cellular-sales-selden-1767422/,Mo-Sa 09:00-21:00; Su 11:00-19:00,Verizon,Q919641
,visa,,,MEDFORD,NY,,US,,,,,
,visa,,,SELDEN,NY,,US,,,,,
,visa,,,SELDEN,NY,,US,,,,,
,visa,,,SELDEN,NY,,US,,,,,
,visa,,,SELDEN,NY,,US,,,,,
,visa,,,SELDEN,NY,,US,,,,,
,visa,,,SELDEN,NY,,US,,,,,
,visa,,,GOLDEN,NY,,US,,,,,
,visa,,,SELDEN,NY,,US,,,,,
,visa,,,SELDEN,NY,,US,,,,,
,visa,,,SELDEN,NY,,US,,,,,
,visa,,,SELDEN,NY,,US,,,,,
,visa,,,SELDEN,NY,,US,,,,,
,visa,,,SELDEN,NY,,US,,,,,
,visa,,,SELDEN,NY,,US,,,,,
,visa,,,SELDEN,NY,,US,,,,,
,visa,,,SELDEN,NY,,US,,,,,
,visa,,,SELDEN,NY,,US,,,,,
,visa,,,SELDEN,NY,,US,,,,,
,visa,,,SELDEN,NY,,US,,,,,
,visa,,,SELDEN,NY,,US,,,,,
,visa,,,SELDEN,NY,,US,,,,,
,visa,,,SELDEN,NY,,US,,,,,
,visa,,,SELDEN,NY,,US,,,,,
,visa,,,SELDEN,NY,,US,,,,,
,visa,,,SELDEN,NY,,US,,,,,
,visa,,,SELDEN,NY,,US,,,,,
,visa,,,SELDEN,NY,,US,,,,,
,visa,,,SELDEN,NY,,US,,,,,
,visa,,,SELDEN,NY,,US,,,,,
,visa,,,SELDEN,NY,,US,,,,,
,visa,,,SELDEN,NY,,US,,,,,
,visa,,,SELDEN,NY,,US,,,,,
,visa,,,SELDEN,NY,,US,,,,,
,visa,,,SELDEN,NY,,US,,,,,
,visa,,,SELDEN,NY,,US,,,,,
,visa,,,SELDEN,NY,,US,,,,,
,visa,,,SELDEN,NY,,US,,,,,
,visa,,,SELDEN,NY,,US,,,,,
,visa,,,SELDEN,NY,,US,,,,,
,visa,,,SELDEN,NY,,US,,,,,
,visa,,,SELDEN,NY,,US,,,,,
,visa,,,SELDEN,NY,,US,,,,,
,visa,,,SELDEN,NY,,US,,,,,
,visa,,,SELDEN,NY,,US,,,,,
,visa,,,SELDON,NY,,US,,,,,
,visa,,,SELDEN,NY,,US,,,,,
,visa,,,SELDEN,NY,,US,,,,,
,visa,,,SELDEN,NY,,US,,,,,
,visa,,,SELDEN,NY,,US,,,,,
,visa,,,SELDEN,NY,,US,,,,,
,visa,,,SELDEN,NY,,US,,,,,
,visa,,,SELDEN,NY,,US,,,,,
,visa,,,SELDEN,NY,,US,,,,,
,visa,,,SELDEN,NY,,US,,,,,
,visa,,,SELDEN,NY,,US,,,,,
,visa,,,SELDEN,NY,,US,,,,,
,visa,,,SELDEN,NY,,US,,,,,
https://www.walgreens.com/locator/walgreens-655+middle+country+rd-selden-ny-11784/id=5135,walgreens,Walgreens,,Selden,NY,,US,+1 631-451-6849,https://www.walgreens.com/locator/walgreens-655+middle+country+rd-selden-ny-11784/id=5135,24/7,Walgreens,Q1591889
https://locations.wendys.com/#9255598,wendys,"Wendy's 259 Middle Country Road in Selden, NY",,Selden,NY,,US,+1 631-888-5654,https://locations.wendys.com/united-states/ny/selden/259-middle-country-road,"Mo-Su 07:00-10:30,08:00-22:00",Wendy's,Q550258
97f8945c9b4038ae4f7d9367f2ef90f2,western_union,7-ELEVEN #16299,,Selden,NY,,US,+1 631-474-4880,https://location.westernunion.com/us/ny/selden/97f8945c9b4038ae4f7d9367f2ef90f2,,Western Union,Q861042
30df30e6c371fe1a434eb7b544f84073,western_union,7-ELEVEN #11194,,Selden,NY,,US,+1 631-732-0418,https://location.westernunion.com/us/ny/selden/30df30e6c371fe1a434eb7b544f84073,,Western Union,Q861042
