Ref,Spider,Name,Address,City,State,Zipcode,Country,Phone,Website,Hours,Brand,WikiData
https://local.biglots.com/#13190802,biglots,Big Lots - Evansville: Town Center,,Evansville,IN,,US,+1 812-423-9315,https://local.biglots.com/in/evansville/410-e-diamond-ave,Mo-Th 10:00-21:00; Fr-Sa 09:00-21:00; Su 11:00-19:00,Big Lots,Q4905973
198155,bluerhino,Virginia Food Mart,,Evansville,IN,,US,+1 812-425-7441,,,Blue Rhino,Q65681213
239602,bluerhino,Circle K #4700120,,Evansville,IN,,US,+1 812-424-6497,,,Blue Rhino,Q65681213
239601,bluerhino,Circle K #4700104,,Evansville,IN,,US,+1 812-425-4615,,,Blue Rhino,Q65681213
214975,bluerhino,Fast Stop,,Evansville,IN,,US,+1 812-437-9799,,,Blue Rhino,Q65681213
203212,bluerhino,CASEY'S GENERAL STORE #2228,,EVANSVILLE,IN,,US,+1 812-473-3523,,,Blue Rhino,Q65681213
30035,bluerhino,Rural King Supply #14,,Evansville,IN,,US,+1 812-473-5750,,,Blue Rhino,Q65681213
114510,bluerhino,Bonkers,,Evansville,IN,,US,+1 812-867-2126,,,Blue Rhino,Q65681213
85753,citi,ATM UNITED FIDELITY BANK,,Evansville,IN,,US,,,,Citibank,Q857063
40457,citi,ATM Circle K,,Evansville,IN,,US,,,,Citibank,Q857063
59886,citi,ATM Hucks,,Evansville,IN,,US,,,,Citibank,Q857063
42752,citi,ATM Circle K,,Evansville,IN,,US,,,,Citibank,Q857063
48889,citi,ATM CVS,,Evansville,IN,,US,,,,Citibank,Q857063
43714,citi,ATM Circle K,,Evansville,IN,,US,,,,Citibank,Q857063
50722,citi,ATM CVS,,Evansville,IN,,US,,,,Citibank,Q857063
40379,citi,ATM Circle K,,Evansville,IN,,US,,,,Citibank,Q857063
44,cvs_us,CVS Pharmacy,,Evansville,IN,,US,+1 812-475-8497,https://www.cvs.com/store-locator/evansville-in-pharmacies/3900-oak-hill-rd-evansville-in-47711/storeid=44,Mo-Su 08:00-21:00,CVS Pharmacy,Q2078880
6258,cvs_us,CVS Pharmacy,,Evansville,IN,,US,+1 812-422-6330,https://www.cvs.com/store-locator/evansville-in-pharmacies/2020-east-morgan-avenue-evansville-in-47711/storeid=6258,24/7,CVS Pharmacy,Q2078880
246738,dennys,Denny's,,EVANSVILLE,IN,,US,+1 812-550-1188,https://locations.dennys.com/IN/EVANSVILLE/246738,24/7,Denny's,Q1189695
9024,dollartree,DollarTree,,Evansville,IN,,US,+1 812-909-7246,,Mo-Sa 09:00-22:00; Su 09:00-21:00,Dollar Tree,Q5289230
2570,dominos_pizza_us,Domino's Pizza,,Evansville,IN,,US,+1 812-473-1011,https://pizza.dominos.com/indiana/evansville/600-n-weinbach-ave,Mo-Th 10:30-24:00; Fr-Sa 10:30-01:00; Su 10:30-24:00,Domino's,Q839466
Motorcraft2418USAEnglish,ford,Open Point,,Indiana,IN,,US,,,,Ford,Q44294
https://www.harborfreight.com/storelocator/1200-n-willow-rd-ste-201-evansville-47711?number=89,harborfreight,"Harbor Freight Tools Evansville, IN",,Evansville,IN,,US,+1 812-425-0233,https://www.harborfreight.com/storelocator/1200-n-willow-rd-ste-201-evansville-47711?number=89,Mo-Sa 08:00-20:00; Su 09:00-18:00,Harbor Freight Tools,Q5654601
IGA Evansville #452,iga,IGA Evansville #452,"2220 E. Morgan Ave., Evansville, IN, 47711",Evansville,IN,,US,+1 812-438-2405,http://www.myiga.com,,IGA,Q3146662
https://office.jacksonhewitt.com/#27578792,jackson_hewitt,Jackson Hewitt,,Evansville,IN,,US,+1 812-479-8807,https://office.jacksonhewitt.com/tax-preparation-services-locations/en/in/evansville/2100-e-division-st/19206,Mo-Fr 10:00-18:00; Sa 09:00-17:00; Su 13:00-17:00,Jackson Hewitt,Q6117132
158274,marathon_petroleum_us,Fast Stop,,Evansville,IN,,US,+1 812-550-5465,,,Marathon,Q458363
2930,mightyflame,MARATHON FOOD MART,,EVANSVILLE,IN,,US,+1 812-461-2301,,,Mighty Flame,
1988,mightyflame,CIRCLE H,,EVANSVILLE,IN,,US,+1 812-422-4474,,,Mighty Flame,
4641,mightyflame,THORNTONS #82,,EVANSVILLE,IN,,US,+1 812-477-0669,,,Mighty Flame,
66018010,moneygram,CVS - #6258,,EVANSVILLE,IN,,US,+1 812-422-6330,,Mo-Su 08:00-23:00,MoneyGram,Q1944412
234,ollies_bargain_outlet,Ollie's Bargain Outlet,,Evansville,IN,,US,+1 812-425-3097,https://www.ollies.us/locations/620-east-diamond-avenue-evansville-in/,Mo-Sa 09:00-21:00; Su 10:00-19:00,Ollie's Bargain Outlet,Q7088304
2207,orangetheory_fitness,"Evansville, IN",,Evansville,IN,,US,+1 812-645-9712,,,Orangetheory Fitness,Q25005163
https://locations.papajohns.com/#10693046,papa_johns,Papa John's,,Evansville,IN,,US,+1 812-477-7700,https://locations.papajohns.com/united-states/in/47711/evansville/303-north-weinbach-avenue,Mo-Th 10:00-00:30; Fr-Sa 10:00-01:30; Su 10:00-24:00,Papa John's Pizza,Q2759586
0000888421,phillips_66_conoco_76,XPRESS MART,,EVANSVILLE,IN,,US,+1 812-401-2331,,,Conoco,Q109341187
https://www.plannedparenthood.org/health-center/indiana/evansville/47711/evansville-health-center-2637-91810,planned_parenthood,Planned Parenthood,,Evansville,IN,,US,,https://www.plannedparenthood.org/health-center/indiana/evansville/47711/evansville-health-center-2637-91810,,Planned Parenthood,Q2553262
632,rentacenter,Rent-A-Center,,Evansville,IN,,US,+1 812-421-0444,https://locations.rentacenter.com/indiana/evansville/520-e-diamond-ave/,Mo-Sa 10:00-18:00,Rent-A-Center,Q7313497
57,ruler_foods_us,Ruler Foods,,Evansville,IN,,US,+1 812-471-9970,,Mo-Su 08:00-21:00,Ruler Foods,Q17125470
https://restaurants.subway.com/#14903291,subway,Subway,,Evansville Vanderburgh,IN,,US,+1 812-626-9008,https://restaurants.subway.com/united-states/in/evansville/6011-us-highway-41-n,Mo-Su 08:00-21:00,Subway,Q244457
https://restaurants.subway.com/#14913285,subway,Subway,,Evansville Vanderburgh,IN,,US,+1 812-401-4545,https://restaurants.subway.com/united-states/in/evansville/501-n-main-street,Mo-Su 09:00-21:00,Subway,Q244457
https://restaurants.subway.com/#14909595,subway,Subway Diamond Plaza S/C,,Evansville Vanderburgh,IN,,US,+1 812-424-8655,https://restaurants.subway.com/united-states/in/evansville/611-e-diamond-avenue,Mo-Th 07:30-21:00; Fr 07:30-20:30; Sa-Su 08:00-20:00,Subway,Q244457
https://restaurants.subway.com/#14915700,subway,Subway,,Evansville Vanderburgh,IN,,US,+1 812-402-7821,https://restaurants.subway.com/united-states/in/evansville/1300-e-morgan-ave,Mo-Th 07:00-20:00; Fr 07:00-18:30; Sa 08:00-21:00; Su 08:00-20:00,Subway,Q244457
8002531301,sunoco_us,Sunoco,,EVANSVILLE,IN,,US,,,,Sunoco,Q1423218
8002198701,sunoco_us,Sunoco,,EVANSVILLE,IN,,US,+1 812-430-7838,,Mo-Sa 07:00-00:00; Su 00:00-00:00,Sunoco,Q1423218
8002146201,sunoco_us,Sunoco,,EVANSVILLE,IN,,US,+1 812-303-3057,,,Sunoco,Q1423218
https://locations.tacobell.com/#6146201,taco_bell,Taco Bell,,Evansville,IN,,US,+1 812-422-4705,https://locations.tacobell.com/in/evansville/1500-n-willow-rd.html,Mo-Tu 08:00-04:00; We 08:00-01:30; Th-Su 08:00-04:00,Taco Bell,Q752941
100290,two_men_and_truck,Evansville,4600 Ohara Dr,Evansville,IN,,US,+1 812-401-4757,https://twomenandatruck.com/movers/in/evansville,,Two Men and a Truck,Q7859087
4771100036,usps_collection_boxes,USPS COLLECTION BOX - BLUE BOX,5817 STRINGTOWN RD,EVANSVILLE,IN,,US,,,,United States Postal Service,Q668687
4771100029,usps_collection_boxes,USPS COLLECTION BOX - BLUE BOX,1033 E MOUNT PLEASANT RD,EVANSVILLE,IN,,US,,,,United States Postal Service,Q668687
4771100052,usps_collection_boxes,USPS COLLECTION BOX - BLUE BOX,12500 HIGHWAY 41 N,EVANSVILLE,IN,,US,,,,United States Postal Service,Q668687
4771100035,usps_collection_boxes,USPS COLLECTION BOX - BLUE BOX,2587 STRINGTOWN RD,EVANSVILLE,IN,,US,,,,United States Postal Service,Q668687
4771100005,usps_collection_boxes,USPS COLLECTION BOX - BLUE BOX,600 E DIAMOND AVE,EVANSVILLE,IN,,US,,,,United States Postal Service,Q668687
4771100008,usps_collection_boxes,USPS COLLECTION BOX - BLUE BOX,1031 E DIAMOND AVE,EVANSVILLE,IN,,US,,,,United States Postal Service,Q668687
4771100012,usps_collection_boxes,USPS COLLECTION BOX - BLUE BOX,2230 N FARES AVE,EVANSVILLE,IN,,US,,,,United States Postal Service,Q668687
4771100009,usps_collection_boxes,USPS COLLECTION BOX - BLUE BOX,1718 N FARES AVE,EVANSVILLE,IN,,US,,,,United States Postal Service,Q668687
4771100041,usps_collection_boxes,USPS COLLECTION BOX - BLUE BOX,523 E VIRGINIA ST,EVANSVILLE,IN,,US,,,,United States Postal Service,Q668687
4771100017,usps_collection_boxes,USPS COLLECTION BOX - BLUE BOX,9634 HEDDEN RD,EVANSVILLE,IN,,US,,,,United States Postal Service,Q668687
4771100022,usps_collection_boxes,USPS COLLECTION BOX - BLUE BOX,2800 LYNCH RD,EVANSVILLE,IN,,US,,,,United States Postal Service,Q668687
4771100050,usps_collection_boxes,USPS COLLECTION BOX - BLUE BOX,2015 MAXWELL AVE,EVANSVILLE,IN,,US,,,,United States Postal Service,Q668687
4771100030,usps_collection_boxes,USPS COLLECTION BOX - BLUE BOX,3222 MARINER DR,EVANSVILLE,IN,,US,,,,United States Postal Service,Q668687
4771100028,usps_collection_boxes,USPS COLLECTION BOX - BLUE BOX,2040 E MORGAN AVE,EVANSVILLE,IN,,US,,,,United States Postal Service,Q668687
4771100004,usps_collection_boxes,USPS COLLECTION BOX - BLUE BOX,1701 E COLUMBIA ST,EVANSVILLE,IN,,US,,,,United States Postal Service,Q668687
4771100033,usps_collection_boxes,USPS COLLECTION BOX - BLUE BOX,300 N ROTHERWOOD AVE,EVANSVILLE,IN,,US,,,,United States Postal Service,Q668687
4771100047,usps_collection_boxes,USPS COLLECTION BOX - BLUE BOX,600 N WEINBACH AVE,EVANSVILLE,IN,,US,,,,United States Postal Service,Q668687
4771100048,usps_collection_boxes,USPS COLLECTION BOX - BLUE BOX,701 N WEINBACH AVE,EVANSVILLE,IN,,US,,,,United States Postal Service,Q668687
4771100053,usps_collection_boxes,USPS COLLECTION BOX - BLUE BOX,1200 N BOEKE RD,EVANSVILLE,IN,,US,,,,United States Postal Service,Q668687
4771100046,usps_collection_boxes,USPS COLLECTION BOX - BLUE BOX,125 N WEINBACH AVE,EVANSVILLE,IN,,US,,,,United States Postal Service,Q668687
4771100060,usps_collection_boxes,USPS COLLECTION BOX - BLUE BOX,12420 N GREEN RIVER RD,EVANSVILLE,IN,,US,,,,United States Postal Service,Q668687
0000029136,valero,Twinz,,EVANSVILLE,IN,,US,,https://locations.valero.com/en-us/LocationDetails/Index/219-EAST-FRANKLIN/0000029136,24/7,Valero,Q1283291
,visa,,,EVANSVILLE,IN,,US,,,,,
,visa,,,EVANSVILLE,IN,,US,,,,,
,visa,,,EVANSVILLE,IN,,US,,,,,
,visa,,,EVANSVILLE,IN,,US,,,,,
,visa,,,EVANSVILLE,IN,,US,,,,,
,visa,,,EVANSVILLE,IN,,US,,,,,
,visa,,,EVANSVILLE,IN,,US,,,,,
,visa,,,EVANSVILLE,IN,,US,,,,,
,visa,,,EVANSVILLE,IN,,US,,,,,
,visa,,,EVANSVILLE,IN,,US,,,,,
,visa,,,EVANSVILLE,IN,,US,,,,,
,visa,,,EVANSVILLE,IN,,US,,,,,
,visa,,,EVANSVILLE,IN,,US,,,,,
,visa,,,EVANSVILLE,IN,,US,,,,,
,visa,,,EVANSVILLE,IN,,US,,,,,
,visa,,,EVANSVILLE,IN,,US,,,,,
,visa,,,EVANSVILLE,IN,,US,,,,,
,visa,,,EVANSVILLE,IN,,US,,,,,
,visa,,,EVANSVILLE,IN,,US,,,,,
,visa,,,EVANSVILLE,IN,,US,,,,,
,visa,,,EVANSVILLE,IN,,US,,,,,
,visa,,,EVANSVILLE,IN,,US,,,,,
,visa,,,EVANSVILLE,IN,,US,,,,,
,visa,,,EVANSVILLE,IN,,US,,,,,
,visa,,,EVANSVILLE,IN,,US,,,,,
,visa,,,EVANSVILLE,IN,,US,,,,,
,visa,,,EVANSVILLE,IN,,US,,,,,
,visa,,,EVANSVILLE,IN,,US,,,,,
,visa,,,EVANSVILLE,IN,,US,,,,,
,visa,,,EVANSVILLE,IN,,US,,,,,
,visa,,,EVANSVILLE,IN,,US,,,,,
,visa,,,EVANSVILLE,IN,,US,,,,,
,visa,,,EVANSVILLE,IN,,US,,,,,
,visa,,,EVANSVILLE,IN,,US,,,,,
,visa,,,EVANSVILLE,IN,,US,,,,,
,visa,,,EVANSVILLE,IN,,US,,,,,
,visa,,,EVANSVILLE,IN,,US,,,,,
,visa,,,EVANSVILLE,IN,,US,,,,,
,visa,,,EVANSVILLE,IN,,US,,,,,
,visa,,,EVANSVILLE,IN,,US,,,,,
,visa,,,EVANSVILLE,IN,,US,,,,,
,visa,,,EVANSVILLE,IN,,US,,,,,
,visa,,,EVANSVILLE,IN,,US,,,,,
,visa,,,EVANSVILLE,IN,,US,,,,,
,visa,,,EVANSVILLE,IN,,US,,,,,
,visa,,,EVANSVILLE,IN,,US,,,,,
,visa,,,EVANSVILLE,IN,,US,,,,,
,visa,,,EVANSVILLE,IN,,US,,,,,
,visa,,,EVANSVILLE,IN,,US,,,,,
,visa,,,EVANSVILLE,IN,,US,,,,,
,visa,,,EVANSVILLE,IN,,US,,,,,
,visa,,,EVANSVILLE,IN,,US,,,,,
,visa,,,EVANSVILLE,IN,,US,,,,,
,visa,,,EVANSVILLE,IN,,US,,,,,
,visa,,,EVANSVILLE,IN,,US,,,,,
,visa,,,EVANSVILLE,IN,,US,,,,,
,visa,,,EVANSVILLE,IN,,US,,,,,
,visa,,,EVANSVILLE,IN,,US,,,,,
,visa,,,EVANSVILLE,IN,,US,,,,,
,visa,,,EVANSVILLE,IN,,US,,,,,
,visa,,,EVANSVILLE,IN,,US,,,,,
,visa,,,EVANSVILLE,IN,,US,,,,,
,visa,,,EVANSVILLE,IN,,US,,,,,
,visa,,,EVANSVILLE,IN,,US,,,,,
,visa,,,EVANSVILLE,IN,,US,,,,,
,visa,,,EVANSVILLE,IN,,US,,,,,
,visa,,,EVANSVILLE,IN,,US,,,,,
,visa,,,EVANSVILLE,IN,,US,,,,,
,visa,,,EVANSVILLE,IN,,US,,,,,
,visa,,,EVANSVILLE,IN,,US,,,,,
,visa,,,EVANSVILLE,IN,,US,,,,,
,visa,,,EVANSVILLE,IN,,US,,,,,
,visa,,,EVANSVILLE,IN,,US,,,,,
,visa,,,EVANSVILLE,IN,,US,,,,,
,visa,,,EVANSVILLE,IN,,US,,,,,
,visa,,,EVANSVILLE,IN,,US,,,,,
,visa,,,EVANSVILLE,IN,,US,,,,,
,visa,,,EVANSVILLE,IN,,US,,,,,
,visa,,,EVANSVILLE,IN,,US,,,,,
,visa,,,EVANSVILLE,IN,,US,,,,,
,visa,,,EVANSVILLE,IN,,US,,,,,
