Ref,Spider,Name,Address,City,State,Zipcode,Country,Phone,Website,Hours,Brand,WikiData
https://locations.99only.com/ca/colton/discount-store-345.html,99_cents_only_us,99 Cents Only Stores,,Colton,CA,,US,+1 909-370-2299,https://locations.99only.com/ca/colton/discount-store-345.html,Mo 08:00-23:00; Tu 07:00-23:00; We 08:00-23:00; Th 07:00-23:00; Fr-Su 08:00-23:00,99 Cents Only Stores,Q4646294
https://locations.99only.com/ca/colton/discount-store-240.html,99_cents_only_us,99 Cents Only Stores,,Colton,CA,,US,+1 909-433-0740,https://locations.99only.com/ca/colton/discount-store-240.html,Mo 08:00-21:00; Tu 07:00-21:00; We 08:00-21:00; Th 07:00-21:00; Fr-Su 08:00-21:00,99 Cents Only Stores,Q4646294
https://stores.ashleyfurniture.com/store/us/california/colton/9000128001/,ashley_furniture,"Ashley Outlet Colton, CA",,Colton,CA,,US,+1 909-572-2260,https://stores.ashleyfurniture.com/store/us/california/colton/9000128001/,,Ashley Furniture,Q4805437
https://stores.ashleyfurniture.com/store/us/california/colton/7710000034/,ashley_furniture,"Ashley Store Colton, CA",,Colton,CA,,US,+1 909-433-5303,https://stores.ashleyfurniture.com/store/us/california/colton/7710000034/,,Ashley Furniture,Q4805437
https://www.avis.com/en/locations/us/ca/colton/nd4,avis,Avis U S A Colton,,Colton,CA,,US,+1 909-824-2308,https://www.avis.com/en/locations/us/ca/colton/nd4,Mo-Fr 08:00-17:00; Sa-Su 08:00-12:00,Avis,Q791136
https://locators.bankofamerica.com/ca/colton/atm-colton-7913.html,bankofamerica,Bank of America Drive-Thru ATM | Colton,,Colton,CA,,US,+1 844-401-8500,https://locators.bankofamerica.com/ca/colton/atm-colton-7913.html,,Bank of America,Q487907
171475,blaze_pizza,Blaze Pizza Colton,,Colton,CA,,US,+1 909-533-4174,https://blazepizza.olo.com/menu/blaze-pizza-colton/,,Blaze Pizza,Q23016666
67207,bluerhino,Food 4 Less #786,,Colton,CA,,US,+1 909-370-1761,,,Blue Rhino,Q65681213
168465,bluerhino,ARCO AMPM #42926,,Colton,CA,,US,+1 909-783-7966,,,Blue Rhino,Q65681213
191036,bluerhino,La Cadena's Express,,Colton,CA,,US,+1 951-999-5506,,,Blue Rhino,Q65681213
206538,bluerhino,Rite Aid #05694,,Colton,CA,,US,+1 909-825-6731,,,Blue Rhino,Q65681213
190201,bluerhino,Iowa Shell (Lucky Oil Co.),,Colton,CA,,US,+1 951-781-6211,,,Blue Rhino,Q65681213
CCA,camping_world_us,Camping World of Colton,"1175 South Mount Vernon Avenue Colton, CA 92324",Colton,CA,,US,+1 877-763-0938,https://rv.campingworld.com/dealer/wichita-kansascolton-ca,,Camping World,Q5028383
2042938,chase_us,Washington and Cooley - New branch,,Colton,CA,,US,+1 909-433-0553,https://locator.chase.com/ca/colton/2005-e-washington-st,Mo-Fr 09:00-17:00; Sa 09:00-14:00,Chase,Q524629
376952,chevron,Chevron Station #376952,1600 W. VALLEY BLVD.,COLTON,CA,,US,+1 909-533-4623,,,Chevron,Q319642
36006,citi,ATM BANK OF HOPE12,,Colton,CA,,US,,,,Citibank,Q857063
24415,citi,ATM 7ELEVEN-FCTI,,Colton,CA,,US,,,,Citibank,Q857063
27266,citi,ATM 7ELEVEN-FCTI,,Colton,CA,,US,,,,Citibank,Q857063
26062,citi,ATM 7ELEVEN-FCTI,,Colton,CA,,US,,,,Citibank,Q857063
38849,citi,ATM Cardenas Market,,Colton,CA,,US,,,,Citibank,Q857063
47453,citi,ATM CVS,,Grand Terrace,CA,,US,,,,Citibank,Q857063
72686,citi,ATM Rite Aid,,Colton,CA,,US,,,,Citibank,Q857063
649,citi,Colton,,Colton,CA,,US,+1 800-627-3999,,,Citibank,Q857063
57084,citi,ATM Food 4 Less,,Colton,CA,,US,,,,Citibank,Q857063
46762,citi,ATM CVS,,Colton,CA,,US,,,,Citibank,Q857063
80100108,cricket_wireless,Cricket Wireless Authorized Retailer,,Colton,CA,,US,+1 909-533-4745,https://www.cricketwireless.com/stores/ll/US/CA/Colton/1119-N-Mount-Vernon-Ave,Mo-Sa 10:00-19:30; Su 10:00-18:00,Cricket Wireless,Q5184987
10792,cvs_us,CVS Pharmacy,,Colton,CA,,US,+1 909-954-2242,https://www.cvs.com/store-locator/colton-ca-pharmacies/1010-n-pepper-avenue-colton-ca-92324/storeid=10792,Mo-Su 07:00-22:00,CVS Pharmacy,Q2078880
247990,dennys,Denny's,,Colton,CA,,US,+1 909-824-2132,https://locations.dennys.com/CA/COLTON/247990,Mo-Su 05:00-24:00,Denny's,Q1189695
247992,dennys,Denny's,,Colton,CA,,US,+1 909-825-8612,https://locations.dennys.com/CA/COLTON/247992,24/7,Denny's,Q1189695
7736,dominos_pizza_us,Domino's Pizza,,Colton,CA,,US,+1 909-383-8080,https://pizza.dominos.com/california/colton/229-w-valley-blvd,Mo-Th 10:30-24:00; Fr-Sa 10:30-01:00; Su 10:30-24:00,Domino's,Q839466
363550,dunkin_us,Dunkin',,Colton,CA,,US,+1 909-514-1866,https://locations.dunkindonuts.com/en/ca/colton/1320-e-washington-st/363550,Mo-Su 05:00-21:00,Dunkin',Q847743
100043,electrify_america,Walmart 1692 Colton,,Colton,CA,,US,,,,Electrify America,Q59773555
3506,elpolloloco,El Pollo Loco,,Colton,CA,,US,+1 909-777-0045,,,El Pollo Loco,Q2353849
E132LU,enterprise,Colton Truck Rental,,Colton,CA,,US,+1 909-370-2404,,,Enterprise Rent-A-Car,Q17085454
501244,extra_space_storage,Colton Self Storage at 850 S Mt Vernon Ave,,Colton,CA,,US,+1 909-872-0868,https://www.extraspace.com/storage/facilities/us/california/colton/501244/,Mo-Fr 09:30-18:00; Sa 09:00-17:30,Extra Space Storage,Q5422162
29289,family_dollar_us,FAMILY DOLLAR #9289,,Colton,CA,,US,+1 840-600-7679,https://www.familydollar.com/locations/ca/colton/29289/,Mo-Su 08:00-22:00,Family Dollar,Q5433101
7193,fresenius_kidney_care_us,Fresenius Kidney Care Colton - West C Street,,Colton,CA,,US,+1 800-881-5101,https://www.freseniuskidneycare.com/dialysis-centers/california/7193,Mo 04:00-23:00; Tu 04:00-22:30; We 04:00-23:00; Th 04:00-22:30; Fr 04:00-23:00; Sa 04:00-22:30,,
3971,gamestop_us,Centerpointe Shopping Center,,Colton,CA,,US,+1 909-872-0138,https://www.gamestop.com/search/?store=3971,Mo-Th 12:00-20:00; Fr-Sa 11:00-21:00; Su 11:00-20:00,GameStop,Q202210
656c7be7-458a-e111-8dde-005056934050,goodwill,Colton Retail Store and Donation Center,,Colton,CA,,US,+1 909-503-1240,https://www.goodwill.org/locator/location/?store=NjU2YzdiZTctNDU4YS1lMTExLThkZGUtMDA1MDU2OTM0MDUw&lat=MzQuMDQ3OQ==&lng=LTExNy4zMDQ1NA==,,Goodwill,Q5583655
https://www.habitburger.com/locations/colton-dt/,habit_burger,The Habit Burger Grill,,Colton,CA,,US,+1 909-679-2070,https://www.habitburger.com/locations/colton-dt/,Mo-Su 10:30-20:00,The Habit Burger Grill,Q18158741
6298,h_r_block,H&R Block,,Colton,CA,,US,+1 909-954-2020,https://www.hrblock.com/local-tax-offices/california/colton/plaza-las-glorias/6298/,,H&R Block,Q5627799
3757,h_r_block,H&R Block,,Colton,CA,,US,+1 909-777-3101,https://www.hrblock.com/local-tax-offices/california/colton/courtyard-shopping-center/3757/,,H&R Block,Q5627799
https://locations.jackinthebox.com/us/ca/colton/1602-w-valley-blvd,jackinthebox,Jack in the Box,,Colton,CA,,US,+1 909-433-0275,https://locations.jackinthebox.com/us/ca/colton/1602-w-valley-blvd,Mo-Su 04:30-04:00,Jack in the Box,Q1538507
https://locations.jackinthebox.com/us/ca/colton/756-w-valley-blvd,jackinthebox,Jack in the Box,,Colton,CA,,US,+1 909-572-3066,https://locations.jackinthebox.com/us/ca/colton/756-w-valley-blvd,Mo-Su 04:30-04:00,Jack in the Box,Q1538507
https://locations.jackinthebox.com/us/ca/colton/1199-n-mt-vernon-ave,jackinthebox,Jack in the Box,,Colton,CA,,US,+1 909-219-5864,https://locations.jackinthebox.com/us/ca/colton/1199-n-mt-vernon-ave,Mo-Su 04:30-04:00,Jack in the Box,Q1538507
https://locations.jackinthebox.com/us/ca/colton/1191-s-mt-vernon-ave,jackinthebox,Jack in the Box,,Colton,CA,,US,+1 909-572-3025,https://locations.jackinthebox.com/us/ca/colton/1191-s-mt-vernon-ave,Mo-Su 04:00-04:00,Jack in the Box,Q1538507
https://locations.jackinthebox.com/us/ca/colton/2780-s-iowa-ave,jackinthebox,Jack in the Box,,Colton,CA,,US,+1 951-369-7086,https://locations.jackinthebox.com/us/ca/colton/2780-s-iowa-ave,Mo-Su 04:30-03:30,Jack in the Box,Q1538507
https://office.jacksonhewitt.com/#27575256,jackson_hewitt,Jackson Hewitt,,Colton,CA,,US,+1 951-324-5818,https://office.jacksonhewitt.com/tax-preparation-services-locations/en/ca/colton/1120-s-mt-vernon-ave/51692,Mo-Sa 11:00-19:00; Su 12:00-16:00,Jackson Hewitt,Q6117132
3185,jiffy_lube_us,E Washington St Bldg 100,,COLTON,CA,,US,+1 909-423-0381,https://www.jiffylube.com/locations/ca/colton/3185,Mo-Fr 08:00-18:00; Sa 08:00-17:00; Su 08:00-16:00,Jiffy Lube,Q6192247
https://healthy.kaiserpermanente.org/southern-california/facilities/the-eye-surgery-center-143747,kaiser_permanente_us,The Eye Surgery Center,,Colton,CA,,US,+1 909-825-3425,https://healthy.kaiserpermanente.org/southern-california/facilities/the-eye-surgery-center-143747,,Kaiser Permanente,Q1721601
https://healthy.kaiserpermanente.org/southern-california/facilities/south-coast-childrens-society-dba-south-coast-community-servcies-enhanced-care-management-ecm-173320,kaiser_permanente_us,"South Coast Children's Society, dba South Coast Community Servcies - Enhanced Care Management (ECM)",,Colton,CA,,US,+1 877-527-7227,https://healthy.kaiserpermanente.org/southern-california/facilities/south-coast-childrens-society-dba-south-coast-community-servcies-enhanced-care-management-ecm-173320,,Kaiser Permanente,Q1721601
https://healthy.kaiserpermanente.org/southern-california/facilities/south-coast-childrens-society-dba-south-coast-community-servcies-community-health-worker-chw-172633,kaiser_permanente_us,"South Coast Children's Society, dba South Coast Community Servcies - Community Health Worker (CHW)",,Colton,CA,,US,+1 877-527-7227,https://healthy.kaiserpermanente.org/southern-california/facilities/south-coast-childrens-society-dba-south-coast-community-servcies-community-health-worker-chw-172633,,Kaiser Permanente,Q1721601
https://healthy.kaiserpermanente.org/southern-california/facilities/reche-canyon-regional-rehabilitation-center-327089,kaiser_permanente_us,Reche Canyon Regional Rehabilitation Center,,Colton,CA,,US,+1 909-370-4411,https://healthy.kaiserpermanente.org/southern-california/facilities/reche-canyon-regional-rehabilitation-center-327089,,Kaiser Permanente,Q1721601
https://healthy.kaiserpermanente.org/southern-california/facilities/rai-west-of-colton-429684,kaiser_permanente_us,RAI - West Of Colton,,Colton,CA,,US,+1 909-430-0930,https://healthy.kaiserpermanente.org/southern-california/facilities/rai-west-of-colton-429684,,Kaiser Permanente,Q1721601
https://healthy.kaiserpermanente.org/southern-california/facilities/premier-outpatient-surgery-center-429649,kaiser_permanente_us,Premier Outpatient Surgery Center,,Colton,CA,,US,+1 909-370-2190,https://healthy.kaiserpermanente.org/southern-california/facilities/premier-outpatient-surgery-center-429649,,Kaiser Permanente,Q1721601
https://healthy.kaiserpermanente.org/southern-california/facilities/premier-outpatient-surgery-center-340177,kaiser_permanente_us,Premier Outpatient Surgery Center,,Colton,CA,,US,+1 909-370-2190,https://healthy.kaiserpermanente.org/southern-california/facilities/premier-outpatient-surgery-center-340177,,Kaiser Permanente,Q1721601
https://healthy.kaiserpermanente.org/southern-california/facilities/new-creation-behavioral-healthcare-foundation-133085,kaiser_permanente_us,New Creation Behavioral Healthcare Foundation,,Colton,CA,,US,+1 888-200-6157,https://healthy.kaiserpermanente.org/southern-california/facilities/new-creation-behavioral-healthcare-foundation-133085,,Kaiser Permanente,Q1721601
https://healthy.kaiserpermanente.org/southern-california/facilities/new-creation-addiction-treatment-center-133081,kaiser_permanente_us,New Creation Addiction Treatment Center,,Colton,CA,,US,+1 888-200-6157,https://healthy.kaiserpermanente.org/southern-california/facilities/new-creation-addiction-treatment-center-133081,,Kaiser Permanente,Q1721601
https://healthy.kaiserpermanente.org/southern-california/facilities/new-creation-addiction-treatment-center-133073,kaiser_permanente_us,New Creation Addiction Treatment Center,,Colton,CA,,US,+1 888-200-6157,https://healthy.kaiserpermanente.org/southern-california/facilities/new-creation-addiction-treatment-center-133073,,Kaiser Permanente,Q1721601
https://healthy.kaiserpermanente.org/southern-california/facilities/meadows-ridge-care-center-175880,kaiser_permanente_us,Meadows Ridge Care Center,,Colton,CA,,US,+1 909-824-1530,https://healthy.kaiserpermanente.org/southern-california/facilities/meadows-ridge-care-center-175880,,Kaiser Permanente,Q1721601
https://healthy.kaiserpermanente.org/southern-california/facilities/colton-ranch-dialysis-429231,kaiser_permanente_us,Colton Ranch Dialysis,,Colton,CA,,US,+1 909-783-7948,https://healthy.kaiserpermanente.org/southern-california/facilities/colton-ranch-dialysis-429231,,Kaiser Permanente,Q1721601
https://healthy.kaiserpermanente.org/southern-california/facilities/colton-medical-offices-100148,kaiser_permanente_us,Colton Medical Offices,,Colton,CA,,US,+1 833-574-2273,https://healthy.kaiserpermanente.org/southern-california/facilities/colton-medical-offices-100148,,Kaiser Permanente,Q1721601
https://healthy.kaiserpermanente.org/southern-california/facilities/charter-hospice-llc-429211,kaiser_permanente_us,"Charter Hospice, Llc",,Colton,CA,,US,+1 909-825-2969,https://healthy.kaiserpermanente.org/southern-california/facilities/charter-hospice-llc-429211,,Kaiser Permanente,Q1721601
https://healthy.kaiserpermanente.org/southern-california/facilities/cal-med-asc-llc-429183,kaiser_permanente_us,"Cal Med Asc, Llc",,Colton,CA,,US,+1 909-679-2706,https://healthy.kaiserpermanente.org/southern-california/facilities/cal-med-asc-llc-429183,,Kaiser Permanente,Q1721601
https://healthy.kaiserpermanente.org/southern-california/facilities/arrowhead-regional-medical-center-340293,kaiser_permanente_us,Arrowhead Regional Medical Center,,Colton,CA,,US,+1 909-580-6300,https://healthy.kaiserpermanente.org/southern-california/facilities/arrowhead-regional-medical-center-340293,,Kaiser Permanente,Q1721601
https://healthy.kaiserpermanente.org/southern-california/facilities/allstar-medical-respite-and-recuperative-care-community-supports-cs-134229,kaiser_permanente_us,Allstar Medical Respite and Recuperative Care - Community Supports (CS),,Colton,CA,,US,+1 909-945-9899,https://healthy.kaiserpermanente.org/southern-california/facilities/allstar-medical-respite-and-recuperative-care-community-supports-cs-134229,,Kaiser Permanente,Q1721601
https://locations.kfc.com/#11250292,kfc,Chicken Nuggets Near Colton,,Colton,CA,,US,,https://locations.kfc.com/ca/colton/792-west-valley-blvd/chickennugget,Mo-Th 10:00-23:00; Fr-Sa 10:00-24:00; Su 10:00-23:00,KFC,Q524757
301048,kindercare,Colton KinderCare,,Colton,CA,,US,,https://www.kindercare.com/our-centers/colton/ca/301048,,KinderCare Learning Centers,Q6410551
117468,little_free_library,Colton's First Little Free Library #117468 Colton CA,,Colton,CA,,US,,,,Little Free Library,Q6650101
167316,little_free_library,Little Free Library #167316 Colton CA,,Colton,CA,,US,,,,Little Free Library,Q6650101
133218,little_free_library,Reche Canyon's Little Free Library #133218 Colton CA,,Colton,CA,,US,,,,Little Free Library,Q6650101
286020,marathon_petroleum_us,ARCO #42086 AMPM,,Colton,CA,,US,+1 909-824-7340,,,Arco,Q304769
285818,marathon_petroleum_us,ARCO #42955,,Colton,CA,,US,+1 909-571-5633,,,Arco,Q304769
286098,marathon_petroleum_us,ARCO #42968 AMPM,,Colton,CA,,US,+1 909-783-7966,,,Arco,Q304769
286389,marathon_petroleum_us,ARCO #42543,,Colton,CA,,US,+1 909-572-6063,,,Arco,Q304769
74075838,moneygram,NEIGHBORHOOD MARKET,,COLTON,CA,,US,+1 909-514-1582,,Mo-Su 06:00-21:00,MoneyGram,Q1944412
https://locations.oreillyauto.com/ca/colton/check-engine-light-testing-6229.html,oreilly,Your Colton O'Reilly Auto Parts Store,,Colton,CA,,US,+1 909-222-1005,https://locations.oreillyauto.com/ca/colton/check-engine-light-testing-6229.html,Mo-Sa 07:30-22:00; Su 08:00-21:00,O'Reilly Auto Parts,Q7071951
https://locations.oreillyauto.com/ca/colton/wiper-installation-6229.html,oreilly,Your Colton O'Reilly Auto Parts Store,,Colton,CA,,US,+1 909-222-1005,https://locations.oreillyauto.com/ca/colton/wiper-installation-6229.html,Mo-Sa 07:30-22:00; Su 08:00-21:00,O'Reilly Auto Parts,Q7071951
https://locations.oreillyauto.com/ca/colton/battery-testing-6229.html,oreilly,Your Colton O'Reilly Auto Parts Store,,Colton,CA,,US,+1 909-222-1005,https://locations.oreillyauto.com/ca/colton/battery-testing-6229.html,Mo-Sa 07:30-22:00; Su 08:00-21:00,O'Reilly Auto Parts,Q7071951
https://locations.oreillyauto.com/ca/colton/autopartes-6229.html,oreilly,O'Reilly Auto Parts,,Colton,CA,,US,+1 909-222-1005,https://locations.oreillyauto.com/ca/colton/autopartes-6229.html,Mo-Sa 07:30-22:00; Su 08:00-21:00,O'Reilly Auto Parts,Q7071951
https://locations.oreillyauto.com/ca/colton/check-engine-light-testing-3681.html,oreilly,Your Colton O'Reilly Auto Parts Store,,Colton,CA,,US,+1 909-825-8336,https://locations.oreillyauto.com/ca/colton/check-engine-light-testing-3681.html,Mo-Sa 07:30-22:00; Su 07:30-21:00,O'Reilly Auto Parts,Q7071951
https://locations.oreillyauto.com/ca/colton/wiper-installation-3681.html,oreilly,Your Colton O'Reilly Auto Parts Store,,Colton,CA,,US,+1 909-825-8336,https://locations.oreillyauto.com/ca/colton/wiper-installation-3681.html,Mo-Sa 07:30-22:00; Su 07:30-21:00,O'Reilly Auto Parts,Q7071951
https://locations.oreillyauto.com/ca/colton/battery-testing-3681.html,oreilly,Your Colton O'Reilly Auto Parts Store,,Colton,CA,,US,+1 909-825-8336,https://locations.oreillyauto.com/ca/colton/battery-testing-3681.html,Mo-Sa 07:30-22:00; Su 07:30-21:00,O'Reilly Auto Parts,Q7071951
https://locations.oreillyauto.com/ca/colton/autopartes-3681.html,oreilly,Tu tienda O'Reilly Auto Parts en Colton,,Colton,CA,,US,+1 909-825-8336,https://locations.oreillyauto.com/ca/colton/autopartes-3681.html,Mo-Sa 07:30-22:00; Su 07:30-21:00,O'Reilly Auto Parts,Q7071951
https://locations.papajohns.com/#10693401,papa_johns,Papa John's,,Colton,CA,,US,+1 909-824-7272,https://locations.papajohns.com/united-states/ca/92324/colton/1130-n-pepper-ave,Mo-Th 10:00-23:00; Fr-Sa 10:00-02:00; Su 10:00-23:00,Papa John's Pizza,Q2759586
1326,pilot_flyingj,Pilot Travel Center,,Colton,CA,,US,+1 909-780-1019,https://locations.pilotflyingj.com/us/ca/colton/2300-e-steel-rd-unit-e,,Pilot,Q7194412
ca_colton_2021-e-washington-st-3a,pizza_hut_us,2021 E. Washington St.  3A,,Colton,CA,,US,+1 909-783-3700,https://locations.pizzahut.com/ca/colton/2021-e-washington-st-3a,,Pizza Hut,Q191615
restaurant_239231,popeyes_us_fr,Popeyes,"1500 W Valley Blvd Colton, California 92324 - USA",Colton,CA,,US,+1 909-533-4579,https://www.popeyes.com/store-locator/store/restaurant_239231,Mo-Su 10:00-22:00,Popeyes,Q1330910
https://www.publicstorage.com/self-storage-ca-colton/2215.html,public_storage_us,Public Storage,,Colton,CA,,US,+1 909-430-1793,https://www.publicstorage.com/self-storage-ca-colton/2215.html,,Public Storage,Q1156045
870,rentacenter,Rent-A-Center,,Colton,CA,,US,+1 909-426-4747,https://locations.rentacenter.com/california/colton/1100-south-mount-vernon-ave/,Mo-Sa 10:00-18:00,Rent-A-Center,Q7313497
05693,rite_aid_us,Rite Aid #05693 Colton,,Colton,CA,,US,+1 909-824-8299,https://locations2.riteaid.com.yext-cdn.com/ca/colton/2025-east-washington-street.html,Mo-Su 08:00-22:00,Rite Aid,Q3433273
05694,rite_aid_us,Rite Aid #05694 Colton,,Colton,CA,,US,+1 909-825-6731,https://locations2.riteaid.com.yext-cdn.com/ca/colton/1133-n-mount-vernon-ave.html,Mo-Su 08:00-22:00,Rite Aid,Q3433273
1046,ross_dress_for_less_us,Colton,,Colton,CA,,US,+1 909-783-9422,,Mo-Th 09:00-22:00; Fr-Sa 08:30-23:00; Su 09:00-22:00,Ross Dress for Less,Q3442791
32941,seven_eleven_ca_us,7-Eleven Store,,Colton,CA,,US,+1 909-783-2399,https://www.7-eleven.com/locations/ca/colton/1511-n-mt-vernon-ave-32941,,7-Eleven,Q259340
39632,seven_eleven_ca_us,Bcp Str    1035 S Mt Vernon Ave,,Colton,CA,,US,+1 909-422-0711,https://www.7-eleven.com/locations/ca/colton/1035-s-mt-vernon-ave-39632,,7-Eleven,Q259340
3454,shellrecharge,Mohave Dr,,Colton,CA,,US,,,,Shell Recharge,Q105883058
367,shellrecharge,Gonzales Community Center,,Colton,CA,,US,,,,Shell Recharge,Q105883058
285,shellrecharge,Fiesta Village,,Colton,CA,,US,,,,Shell Recharge,Q105883058
640,shellrecharge,663 N La Cadena Dr,,Colton,CA,,US,,,,Shell Recharge,Q105883058
639,shellrecharge,Santo Antonio Dr,,Colton,CA,,US,,,,Shell Recharge,Q105883058
637,shellrecharge,E Washington St,,Colton,CA,,US,,,,Shell Recharge,Q105883058
284,shellrecharge,Arrowhead Regional Medical Ctr,,Colton,CA,,US,,,,Shell Recharge,Q105883058
117,stater_bros_us,Stater Bros. Markets Colton/Washington,"2053 E Washington St, Colton, CA 92324, USA",Colton,CA,,US,+1 909-423-0720,https://www.staterbros.com/stores/117,Mo-Su 06:00-23:00,Stater Bros.,Q7604016
3,stater_bros_us,Stater Bros. Markets Colton,"151 E Valley Blvd, Colton, CA 92324, USA",Colton,CA,,US,+1 909-825-5186,https://www.staterbros.com/stores/3,Mo-Su 06:00-23:00,Stater Bros.,Q7604016
https://restaurants.subway.com/#14903178,subway,Subway,,Colton San Bernardino,CA,,US,+1 909-783-7642,https://restaurants.subway.com/united-states/ca/colton/1130-n-pepper-ave,Mo-Su 08:30-21:30,Subway,Q244457
https://restaurants.subway.com/#14909798,subway,Subway,,Colton San Bernardino,CA,,US,+1 909-433-9853,https://restaurants.subway.com/united-states/ca/colton/291-e-valley-blvd,Mo-Sa 09:00-22:00; Su 09:00-21:00,Subway,Q244457
https://restaurants.subway.com/#14904697,subway,Subway Cooley Plaza,,Colton San Bernardino,CA,,US,+1 909-422-1006,https://restaurants.subway.com/united-states/ca/colton/2097-e-washington-st,Mo-Su 08:00-21:00,Subway,Q244457
054398,uhaul,Property Brothas,1280 E Cooley Dr Unit 19,Colton,CA,,US,+1 909-512-6963,,Mo-Sa 00:00-16:00,U-Haul,Q7862902
028311,uhaul,Colton Outlet,2010 W Valley Bl,Colton,CA,,US,+1 909-825-2101,,We-Sa 00:00-17:00; Su 30:00-14:00,U-Haul,Q7862902
019645,uhaul,GT Sew and Vac,1231 E Washington St Ste E,Colton,CA,,US,+1 909-512-6989,,Mo-Fr 00:00-17:00; Sa 00:00-15:00,U-Haul,Q7862902
044789,uhaul,Sombrero Market,371 S La Cadena Dr,Colton,CA,,US,+1 909-783-6968,,Mo-Sa 00:00-19:00,U-Haul,Q7862902
7178,upsstore,Colton,1040 S Mt Vernon Ave Ste G,Colton,CA,,US,+1 909-514-1150,https://locations.theupsstore.com/ca/colton/1040-s-mt-vernon-ave,,UPS Store,Q7771029
1358758,usps,COLTON,,COLTON,CA,,US,+1 909-825-2154,,Mo-Fr 08:30-17:00,United States Postal Service,Q668687
9232400013,usps_collection_boxes,USPS COLLECTION BOX - BLUE BOX,400 N PEPPER AVE,COLTON,CA,,US,,,,United States Postal Service,Q668687
9232400026,usps_collection_boxes,USPS COLLECTION BOX - BLUE BOX,650 N LA CADENA DR,COLTON,CA,,US,,,,United States Postal Service,Q668687
9232400003,usps_collection_boxes,USPS COLLECTION BOX - BLUE BOX,265 N 7TH ST,COLTON,CA,,US,,,,United States Postal Service,Q668687
9232400052,usps_collection_boxes,USPS COLLECTION BOX - BLUE BOX,265 N 7TH ST,COLTON,CA,,US,,,,United States Postal Service,Q668687
9232400046,usps_collection_boxes,USPS COLLECTION BOX - BLUE BOX,265 N 7TH ST,COLTON,CA,,US,,,,United States Postal Service,Q668687
9232400051,usps_collection_boxes,USPS COLLECTION BOX - BLUE BOX,265 N 7TH ST,COLTON,CA,,US,,,,United States Postal Service,Q668687
9232400053,usps_collection_boxes,USPS COLLECTION BOX - BLUE BOX,265 N 7TH ST,COLTON,CA,,US,,,,United States Postal Service,Q668687
9232400082,usps_collection_boxes,USPS COLLECTION BOX - PO LOBBY,265 N 7TH ST,COLTON,CA,,US,,,,United States Postal Service,Q668687
9232400019,usps_collection_boxes,USPS COLLECTION BOX - BLUE BOX,2851 S LA CADENA DR,COLTON,CA,,US,,,,United States Postal Service,Q668687
,visa,,,COLTON,CA,,US,,,,,
,visa,,,COLTON,CA,,US,,,,,
,visa,,,COLTON,CA,,US,,,,,
,visa,,,COLTON,CA,,US,,,,,
,visa,,,COLTON,CA,,US,,,,,
,visa,,,COLTON,CA,,US,,,,,
,visa,,,COLTON,CA,,US,,,,,
,visa,,,COLTON,CA,,US,,,,,
,visa,,,COLTON,CA,,US,,,,,
,visa,,,COLTON,CA,,US,,,,,
,visa,,,COLTON,CA,,US,,,,,
,visa,,,COLTON,CA,,US,,,,,
,visa,,,COLTON,CA,,US,,,,,
,visa,,,COLTON,CA,,US,,,,,
,visa,,,COLTON,CA,,US,,,,,
,visa,,,COLTON,CA,,US,,,,,
,visa,,,COLTON,CA,,US,,,,,
,visa,,,COLTON,CA,,US,,,,,
,visa,,,COLTON,CA,,US,,,,,
,visa,,,COLTON,CA,,US,,,,,
,visa,,,COLTON,CA,,US,,,,,
,visa,,,COLTON,CA,,US,,,,,
,visa,,,COLTON,CA,,US,,,,,
,visa,,,COLTON,CA,,US,,,,,
,visa,,,COLTON,CA,,US,,,,,
,visa,,,COLTON,CA,,US,,,,,
,visa,,,COTTON,CA,,US,,,,,
,visa,,,COLTON,CA,,US,,,,,
,visa,,,COLTON,CA,,US,,,,,
,visa,,,COLTON,CA,,US,,,,,
,visa,,,COLTON,CA,,US,,,,,
,visa,,,COLTON,CA,,US,,,,,
,visa,,,COLTON,CA,,US,,,,,
,visa,,,COLTON,CA,,US,,,,,
,visa,,,COLTON,CA,,US,,,,,
,visa,,,COLTON,CA,,US,,,,,
,visa,,,COLTON,CA,,US,,,,,
,visa,,,COLTON,CA,,US,,,,,
,visa,,,COLTON,CA,,US,,,,,
,visa,,,COLTON,CA,,US,,,,,
,visa,,,COLTON,CA,,US,,,,,
,visa,,,COLTON,CA,,US,,,,,
,visa,,,COLTON,CA,,US,,,,,
,visa,,,COLTON,CA,,US,,,,,
,visa,,,COLTON,CA,,US,,,,,
,visa,,,COLTON,CA,,US,,,,,
,visa,,,GRAND TERRACE,CA,,US,,,,,
,visa,,,GRAND TERRACE,CA,,US,,,,,
,visa,,,COLTON,CA,,US,,,,,
,visa,,,GRAND TERRACE,CA,,US,,,,,
,visa,,,COLTON,CA,,US,,,,,
,visa,,,COLTON,CA,,US,,,,,
,visa,,,COLTON,CA,,US,,,,,
,visa,,,COLTON,CA,,US,,,,,
,visa,,,COLTON,CA,,US,,,,,
,visa,,,COLTON,CA,,US,,,,,
,visa,,,COLTON,CA,,US,,,,,
,visa,,,COLTON,CA,,US,,,,,
,visa,,,COLTON,CA,,US,,,,,
,visa,,,COLTON,CA,,US,,,,,
,visa,,,COLTON,CA,,US,,,,,
,visa,,,COLTON,CA,,US,,,,,
,visa,,,COLTON,CA,,US,,,,,
,visa,,,COLTON,CA,,US,,,,,
,visa,,,COLTON,CA,,US,,,,,
,visa,,,COLTON,CA,,US,,,,,
,visa,,,COLTON,CA,,US,,,,,
,visa,,,COLTON,CA,,US,,,,,
,visa,,,COLTON,CA,,US,,,,,
,visa,,,COLTON,CA,,US,,,,,
,visa,,,COLTON,CA,,US,,,,,
,visa,,,COLTON,CA,,US,,,,,
,visa,,,COLTON,CA,,US,,,,,
,visa,,,COLTON,CA,,US,,,,,
,visa,,,COLTON,CA,,US,,,,,
,visa,,,COLTON,CA,,US,,,,,
,visa,,,COLTON,CA,,US,,,,,
,visa,,,COLTON,CA,,US,,,,,
https://locations.wendys.com/#9251642,wendys,"Wendy's 1110 S. Mt. Vernon Ave in Colton, CA",,Colton,CA,,US,+1 909-825-8499,https://locations.wendys.com/united-states/ca/colton/1110-s-mt-vernon-ave,"Mo-Su 06:30-10:30,07:00-22:00",Wendy's,Q550258
https://locations.wendys.com/#9251641,wendys,"Wendy's 1090 N. Pepper Ave. in Colton, CA",,Colton,CA,,US,+1 909-514-0218,https://locations.wendys.com/united-states/ca/colton/1090-n-pepper-ave,"Mo-Fr 06:30-10:30,06:30-22:00; Sa-Su 06:30-11:00,06:30-22:00",Wendy's,Q550258
bd6a759ea8664722e1d4784630a3ea5f,western_union,ORDER EXPRESS- CA018,,Colton,CA,,US,+1 909-824-3471,https://location.westernunion.com/us/ca/colton/bd6a759ea8664722e1d4784630a3ea5f,Mo-Sa 09:00-20:00; Su 10:00-20:00,Western Union,Q861042
c85ab94833faa670438438777017e32c,western_union,ORDER EXPRESS- CA018,,Colton,CA,,US,+1 909-824-3471,https://location.westernunion.com/us/ca/colton/c85ab94833faa670438438777017e32c,Mo-Fr 09:00-19:00; Sa 09:00-18:00; Su 10:00-18:00,Western Union,Q861042
c91f60a233bb26b43fac8dcb195a775e,western_union,LOS AMAYA ENVIOS,,Colton,CA,,US,+1 909-824-5565,https://location.westernunion.com/us/ca/colton/c91f60a233bb26b43fac8dcb195a775e,Mo-Su 09:30-21:00,Western Union,Q861042
60d88b5c631a2fc083d397eefd91a2c4,western_union,THE ABSOLUTE WATER & OTHER SER,,Colton,CA,,US,+1 909-572-6163,https://location.westernunion.com/us/ca/colton/60d88b5c631a2fc083d397eefd91a2c4,Mo-Sa 10:00-18:00,Western Union,Q861042
9c131f37016738ab057a84767e0fbe98,western_union,WALMART #001692,,Colton,CA,,US,+1 909-783-0497,https://location.westernunion.com/us/ca/colton/9c131f37016738ab057a84767e0fbe98,Mo-Su 07:00-21:00,Western Union,Q861042
5ee99587bd91c746bfb8e8ae83658a51,western_union,7-ELEVEN #39632,,Colton,CA,,US,+1 909-422-0711,https://location.westernunion.com/us/ca/colton/5ee99587bd91c746bfb8e8ae83658a51,,Western Union,Q861042
e1aeac4e76cf7809aece5b4ada58315f,western_union,ADVANCE AMERICA #01114,,Colton,CA,,US,+1 909-825-5795,https://location.westernunion.com/us/ca/colton/e1aeac4e76cf7809aece5b4ada58315f,Mo-Fr 10:00-18:00; Sa 10:00-14:00,Western Union,Q861042
