Ref,Spider,Name,Address,City,State,Zipcode,Country,Phone,Website,Hours,Brand,WikiData
https://vertretung.allianz.de/katharina.tobsch/,allianz_de,Allianz Versicherung Katharina Tobsch HAUPTVERTRETUNG,,Potsdam,,,DE,+49 331 6012864,https://vertretung.allianz.de/katharina.tobsch/,Tu 10:00-18:00; Th-Fr 10:00-18:00,Allianz SE,Q487292
https://vertretung.allianz.de/andreas.leyding/,allianz_de,Allianz Versicherung Andreas Leyding GENERALVERTRETUNG,,Potsdam,,,DE,+49 331 2705531,https://vertretung.allianz.de/andreas.leyding/,Tu 10:00-18:00; Th-Fr 10:00-18:00,Allianz SE,Q487292
https://vertretung.allianz.de/agentur.bruecker/,allianz_de,Allianz Versicherung Brücker und Brücker OHG HAUPTVERTRETUNG,,Potsdam,,,DE,+49 331 24384615,https://vertretung.allianz.de/agentur.bruecker/,Mo-Th 09:00-16:00,Allianz SE,Q487292
https://vertretung.allianz.de/stefan.kowalski/,allianz_de,Allianz Versicherung Stefan Kowalski GENERALVERTRETUNG,,Potsdam,,,DE,+49 331 95130916,https://vertretung.allianz.de/stefan.kowalski/,Mo-Th 09:00-18:00; Fr 09:00-15:00,Allianz SE,Q487292
https://vertretung.allianz.de/agentur.wieschendorf/,allianz_de,Allianz Versicherung Rene Wieschendorf HAUPTVERTRETUNG,,Potsdam,,,DE,+49 331 70427933,https://vertretung.allianz.de/agentur.wieschendorf/,,Allianz SE,Q487292
{B9D68440-FC32-4AE7-BBC7-987E00585BBE},alnatura_de,Alnatura Super Natur Markt,,Potsdam,,,DE,+49 331 23704473,,Mo-Sa 08:00-20:00,Alnatura,Q876811
https://www.biomarkt.de/potsdam-hegelallee-23,denns_de,Lebensquell BioMarkt,,Potsdam,,,DE,+49 331 2702063,https://www.biomarkt.de/potsdam-hegelallee-23/marktseite,,Denns BioMarkt,Q48883773
de:2120,dm,dm-drogerie markt,,Potsdam,,,DE,+49 331 20056550,https://www.dm.de/store/d3g8/potsdam/brandenburger-strasse-49-51,Mo-Sa 09:30-20:00,dm,Q266572
52.40028713.059049,dpd_de,Hadi Barber,,Potsdam,,,DE,,,,DPD,Q541030
52.40287413.070962,dpd_de,BIO COMPANY SE,,Potsdam,,,DE,,,,DPD,Q541030
15185065,esprit,Esprit Franchise Store Potsdam,,Potsdam,,,DE,+49 331 6012118,"https://www.esprit.com/storefinder?storeid=15185065&location=52.40050000,13.05450000",Tu-Sa 10:00-19:00; Su 10:00-18:00,Esprit,Q532746
31353035HndR82,eyes_and_more,eyes + more Potsdam,"Brandenburger Straße   12, Potsdam, 14467",,,,DE,+49 331 2008977,https://www.eyesandmore.de/termin-vereinbaren/?storeId=31353035HndR82,Mo-Fr 09:00-19:00; Sa 09:00-18:00,eyes + more,Q1385775
2760906287,gls_de,Blumenhaus zur Rose,,Potsdam,,,DE,+49 331 2703018,,Mo-Fr 08:00-18:00; Sa 09:00-12:30,General Logistics Systems,Q46495823
2760916746,gls_de,Handy Chirurg Potsdam,,Potsdam,,,DE,+49 163 7253411,,Mo-Sa 10:00-18:00,General Logistics Systems,Q46495823
617,ikea,Potsdam,,Potsdam,,,DE,,https://www.ikea.com/de/de/stores/potsdam/,Mo-Sa 10:00-20:00,IKEA,Q54078
1522,lidl_de,,,Potsdam,,,DE,,,Mo-Sa 07:00-21:00,Lidl,Q151954
https://www.rossmann.de/de/filialen/brandenburg/potsdam/charlottenstr--42.html,rossmann_de,Rossmann Drogerie-Markt Charlottenstr. 42,,Potsdam,,,DE,+49 331 2805103,https://www.rossmann.de/de/filialen/brandenburg/potsdam/charlottenstr--42.html,Mo-Sa 08:00-20:00,Rossmann,Q316004
4087,santander_de,,,Potsdam,,,DE,,,,Santander,Q875292
125098,sparkasse_de,Mittelbrandenburgische Sparkasse in Potsdam Private Banking Center Mitte,,Potsdam,,,DE,+49 331 8976211,https://www.sparkasse.de/standorte/filialen/mittelbrandenburgische-sparkasse-in-potsdam-private-banking-center-mitte-125098,"Mo 09:30-12:30,13:00-16:00; Tu 09:30-12:30,13:00-18:00; We 09:30-12:30; Th 09:30-12:30,13:00-18:00; Fr 09:30-12:30,13:00-16:00",Sparkasse,Q13601825
145376,sparkasse_de,Mittelbrandenburgische Sparkasse in Potsdam Geldautomat Potsdam-Stadtmitte,,Potsdam,,,DE,+49 331 898989,https://www.sparkasse.de/standorte/geldautomaten/mittelbrandenburgische-sparkasse-in-potsdam-geldautomat-potsdam-stadtmitte-145376,24/7,Sparkasse,Q13601825
124920,sparkasse_de,Mittelbrandenburgische Sparkasse in Potsdam Geschäftsstelle Potsdam-Stadtmitte,,Potsdam,,,DE,+49 331 8950311,https://www.sparkasse.de/standorte/filialen/mittelbrandenburgische-sparkasse-in-potsdam-geschaeftsstelle-potsdam-stadtmitte-124920,"Mo 09:30-12:30,13:00-16:00; Tu 09:30-12:30,13:00-18:00; We 09:30-12:30; Th 09:30-12:30,13:00-18:00; Fr 09:30-12:30,13:00-16:00",Sparkasse,Q13601825
140822,sparkasse_de,"Mittelbrandenburgische Sparkasse in Potsdam Geldautomat Potsdam, Klinikum Ernst von Bergmann(SB)",,Potsdam,,,DE,+49 331 898989,https://www.sparkasse.de/standorte/geldautomaten/mittelbrandenburgische-sparkasse-in-potsdam-geldautomat-potsdam-klinikum-ernst-von-bergmann-sb-140822,24/7,Sparkasse,Q13601825
125078,sparkasse_de,"Mittelbrandenburgische Sparkasse in Potsdam Geldautomat Potsdam, Brandenburger Straße (SB)",,Potsdam,,,DE,+49 331 898989,https://www.sparkasse.de/standorte/geldautomaten/mittelbrandenburgische-sparkasse-in-potsdam-geldautomat-potsdam-brandenburger-strasse-sb-125078,24/7,Sparkasse,Q13601825
79594,steinecke_de,Brotmeisterei Steinecke,,Potsdam,,,DE,+49 331 2702827,,Mo-Fr 06:30-16:00; Sa 07:00-16:00,Steinecke,Q57516278
79725,steinecke_de,Brotmeisterei Steinecke,,Potsdam,,,DE,+49 331 20076923,,Mo-Sa 07:00-16:30; Su 07:30-11:30,Steinecke,Q57516278
THDE0113,tommy_hilfiger,Tommy Hilfiger,,Potsdam,,,DE,+49 331 23703579,,,Tommy Hilfiger,Q634881
N981906,united_colors_of_benetton,Benetton Potsdam,,POTSDAM,,,DE,+49 331 2803217,,Mo-Sa 10:00-19:00,United Colors of Benetton,Q817139
3211,valora,k kiosk,,Potsdam,,,DE,,,,k kiosk,Q60381703
https://www.vlh.de/bst/92482/Oeffnungszeiten.html,vhl_de,VLH-Beraterin Simona Neumann in Potsdam,,Potsdam,,,DE,+49 33200 559628,https://www.vlh.de/bst/92482/,,Vereinigte Lohnsteuerhilfe e.V.,Q15852617
https://www.vlh.de/bst/9779/Oeffnungszeiten.html,vhl_de,VLH-Berater Florian Letzel in Potsdam,,Potsdam,,,DE,+49 331 2709633,https://www.vlh.de/bst/9779/,,Vereinigte Lohnsteuerhilfe e.V.,Q15852617
https://www.vlh.de/bst/15762/Oeffnungszeiten.html,vhl_de,VLH-Berater Jürgen Webner in Potsdam,,Potsdam,,,DE,+49 331 98391417,https://www.vlh.de/bst/15762/,,Vereinigte Lohnsteuerhilfe e.V.,Q15852617
,visa,,,POTSDAM,,,DE,,,,,
,visa,,,POTSDAM,,,DE,,,,,
,visa,,,POTSDAM,,,DE,,,,,
,visa,,,POTSDAM,,,DE,,,,,
,visa,,,POTSDAM,,,DE,,,,,
,visa,,,POTSDAM,,,DE,,,,,
,visa,,,POTSDAM,,,DE,,,,,
,visa,,,POTSDAM,,,DE,,,,,
,visa,,,POTSDAM,,,DE,,,,,
,visa,,,POTSDAM,,,DE,,,,,
,visa,,,POTSDAM,,,DE,,,,,
,visa,,,POTSDAM,,,DE,,,,,
,visa,,,POTSDAM,,,DE,,,,,
,visa,,,POTSDAM,,,DE,,,,,
,visa,,,POTSDAM,,,DE,,,,,
https://shops.vodafone.de/potsdam/dortustr.-17,vodafone_de,Vodafone-Shop,,Potsdam,,,DE,+49 173 2050023,https://shops.vodafone.de/potsdam/dortustr.-17,Mo-Fr 10:00-18:00; Sa 10:00-15:30,Vodafone,Q122141
https://www.vr.de/standorte/P/berliner-volksbank-eg-beratungscenter-potsdam-6987.html,vr_bank,"Berliner Volksbank eG, Beratungscenter Potsdam",,Potsdam,,,DE,+49 30 30633300,https://www.berliner-volksbank.de,"Mo 10:00-13:00,14:00-16:00; Tu 10:00-13:00,14:00-18:00; We 10:00-13:00; Th 10:00-13:00,14:00-18:00; Fr 10:00-13:00",,
