Ref,Spider,Name,Address,City,State,Zipcode,Country,Phone,Website,Hours,Brand,WikiData
https://www.ameripriseadvisors.com/team/tammy-d-davis-and-associates/contact/,ameriprise_us,Tammy D Davis and Associates,,Little Rock,AR,,US,+1 501-812-5252,https://www.ameripriseadvisors.com/team/tammy-d-davis-and-associates/,,Ameriprise Financial,Q2843129
https://www.ameripriseadvisors.com/team/ekeanyanwu-associates/contact/,ameriprise_us,Ekeanyanwu & Associates,,Little Rock,AR,,US,+1 501-537-1101,https://www.ameripriseadvisors.com/team/ekeanyanwu-associates/,Mo-Fr 08:00-05:00,Ameriprise Financial,Q2843129
R286,apple,Apple The Promenade at Chenal,,Little Rock,AR,,US,+1 501-821-5130,https://www.apple.com/retail/thepromenadeatchenal,Mo-Sa 10:00-20:00; Su 12:00-18:00,Apple,Q421253
https://locations.arbys.com/ar/littlerock/15510-chenal-pkwy.html,arbys_us,"Arby's Fast-Food Drive Through Near You in Little Rock, AR",,Little Rock,AR,,US,+1 501-217-9855,https://locations.arbys.com/ar/littlerock/15510-chenal-pkwy.html,Mo-Su 09:30-23:00,Arby's,Q630866
4638,athleta,PROMENADE AT CHENAL,,Little Rock,AR,,US,+1 501-821-8893,https://athleta.gap.com/stores/ar/little rock/athleta-4638.html,Mo-Sa 10:00-19:00; Su 12:00-18:00,Athleta,Q105722424
BBW02355,bathandbodyworks_us,PROMENADE AT CHENAL,,LITTLE ROCK,AR,,US,+1 501-482-3369,,Mo-Sa 10:00-20:00; Su 12:00-18:00,Bath & Body Works,Q810773
https://www.baptist-health.com/location/baptist-health-family-clinic-west/,bha_us,Baptist Health Family Clinic-West,,Little Rock,AR,,US,+1 501-868-8410,https://www.baptist-health.com/location/baptist-health-family-clinic-west/,,Baptist Health Foundation,Q50379824
https://www.baptist-health.com/location/baptist-health-therapy-center-saddlecreek/,bha_us,Baptist Health Therapy Center-Saddlecreek,,Little Rock,AR,,US,+1 501-868-9694,https://www.baptist-health.com/location/baptist-health-therapy-center-saddlecreek/,,Baptist Health Foundation,Q50379824
https://www.baptist-health.com/location/baptist-health-urgent-care-little-rock-west/,bha_us,Baptist Health Urgent Care-Little Rock (West),,Little Rock,AR,,US,+1 501-482-3074,https://www.baptist-health.com/location/baptist-health-urgent-care-little-rock-west/,,Baptist Health Foundation,Q50379824
151964,bluerhino,Walgreens #7284,,Little Rock,AR,,US,+1 501-868-6324,,,Blue Rhino,Q65681213
192705,bluerhino,Murphy's #8754,,Little Rock,AR,,US,+1 501-868-6618,,,Blue Rhino,Q65681213
185596,bluerhino,Kroger #622 - Delta- Fuel Center,,Little Rock,AR,,US,+1 501-225-4588,,,Blue Rhino,Q65681213
121342,bluerhino,Kroger Marketplace #623 - Delta,,Little Rock,AR,,US,+1 501-217-7910,,,Blue Rhino,Q65681213
185597,bluerhino,Kroger #623 - Delta- Fuel Center,,Little Rock,AR,,US,+1 501-217-7910,,,Blue Rhino,Q65681213
236943,bluerhino,Circle K #2741798,,Little Rock,AR,,US,+1 501-228-4004,,,Blue Rhino,Q65681213
10222,brookdale_us,Brookdale Chenal Heights,,Little Rock,AR,,US,+1 501-821-1555,https://www.brookdale.com/en/communities/brookdale-chenal-heights.html,,Brookdale,Q4974387
16826,burgerking,Burger King,,Little Rock,AR,,US,+1 833-435-4736,https://www.bk.com/store-locator/store/restaurant_10567,Mo-Sa 06:00-22:00; Su 07:00-22:00,Burger King,Q177054
40738739,chase_us,Chenal Valley - New branch,,Little Rock,AR,,US,+1 501-404-3777,https://locator.chase.com/ar/little-rock/16400-chenal-pkwy,Mo-Fr 09:00-17:00; Sa 09:00-13:00,Chase,Q524629
https://schools.childcarenetwork.com/ar/little-rock/800-kirk-road,childcare_network_us,Childcare Network,,Little Rock,AR,,US,+1 501-821-2029,https://schools.childcarenetwork.com/ar/little-rock/800-kirk-road,,Childcare Network,Q121356406
1518,chuys,Chuy's,"16001 Chenal Parkway, Little Rock, AR 72223",Little Rock,AR,,US,+1 501-821-2489,https://www.chuys.com/locations/little-rock,,Chuy's,Q5118415
75971,citi,ATM SIMMONS BANK,,Little Rock,AR,,US,,,,Citibank,Q857063
45900,citi,ATM Costco,,Little Rock,AR,,US,,,,Citibank,Q857063
61069,citi,ATM Kroger,,Little Rock,AR,,US,,,,Citibank,Q857063
40731,citi,ATM Circle K,,Little Rock,AR,,US,,,,Citibank,Q857063
87682,citi,ATM Walgreens,,Little Rock,AR,,US,,,,Citibank,Q857063
61014,citi,ATM Kroger,,Little Rock,AR,,US,,,,Citibank,Q857063
Promenade @ Chenal,dsw,DSW,,Little Rock,AR,,US,+1 501-881-6004,https://stores.dsw.com/usa/ar/littlerock/dsw-designer-shoe-warehouse-promenade---chenal.html,Mo-Sa 10:00-20:00; Su 11:00-19:00,Designer Shoe Warehouse,Q5206207
https://www.edwardjones.com/us-en/financial-advisor/mark-peterson,edwardjones,Mark G Peterson,,Little Rock,AR,,US,+1 501-295-4420,https://www.edwardjones.com/us-en/financial-advisor/mark-peterson,,Edward Jones,Q5343830
https://locations.fivebelow.com/ar/little-rock/16105-chenal-parkway,five_below,Five Below Kroger Center,,Little Rock,AR,,US,,https://locations.fivebelow.com/ar/little-rock/16105-chenal-parkway,Mo-Sa 10:00-20:00; Su 11:00-18:00,Five Below,Q5455836
2067bdfa-156e-e311-9471-0050568924e6,goodwill,Store #5262,,Little Rock,AR,,US,+1 501-673-1550,https://www.goodwill.org/locator/location/?store=MjA2N2JkZmEtMTU2ZS1lMzExLTk0NzEtMDA1MDU2ODkyNGU2&lat=MzQuODA0NQ==&lng=LTkyLjQ1OTg2,,Goodwill,Q5583655
https://salons.greatclips.com/us/ar/little-rock/13924-cantrell-road,greatclips,Great Clips,,Little Rock,AR,,US,+1 501-615-8395,https://salons.greatclips.com/us/ar/little-rock/13924-cantrell-road,Mo-Sa 09:00-18:00; Su 10:00-17:00,Great Clips,Q5598967
https://salons.greatclips.com/us/ar/little-rock/19301-cantrell-rd.,greatclips,Great Clips,,Little Rock,AR,,US,+1 501-673-4333,https://salons.greatclips.com/us/ar/little-rock/19301-cantrell-rd.,Mo-Fr 09:00-17:00; Sa 09:00-18:00; Su 10:00-17:00,Great Clips,Q5598967
https://office.jacksonhewitt.com/#27578347,jackson_hewitt,Jackson Hewitt,,Little Rock,AR,,US,+1 501-215-8165,https://office.jacksonhewitt.com/tax-preparation-services-locations/en/ar/little-rock/19301-cantrell-road/55244,Mo-Sa 11:00-19:00; Su 13:00-17:00,Jackson Hewitt,Q6117132
4089,jiffy_lube_us,Hwy 10 (cantrell Rd),,Little Rock,AR,,US,+1 501-451-6600,https://www.jiffylube.com/locations/ar/little-rock/4089,Mo-Fr 08:00-18:00; Sa 08:00-17:00,Jiffy Lube,Q6192247
Promenade at Chenal,lululemon,Lululemon,"17819 Chenal Parkway, Unit C117, Little Rock, AR, US, 72223",Little Rock,AR,,US,+1 501-356-3972,https://shop.lululemon.com/stores/us/little-rock/promenadeatchenal,Mo-Sa 10:00-20:00; Su 12:00-18:00,Lululemon,Q6702957
LITAL,marriott,Aloft Little Rock West,,Little Rock,AR,,US,+1 501-791-9999,https://www.marriott.com/LITAL,,Aloft Hotels,Q4734166
https://locations.massageenvy.com/#1773596,massage_envy,Massage Envy Chenal,,Little Rock,AR,,US,+1 501-821-5353,https://locations.massageenvy.com/arkansas/little-rock/17200-chenal-parkway.html,Mo-Sa 09:00-22:00; Su 10:00-18:00,Massage Envy,Q10327170
8754,murphy_usa_us,,,Little Rock,AR,,US,+1 501-868-6618,,Mo-Sa 04:30-23:30; Su 05:00-23:30,Murphy USA,Q19604459
7102,murphy_usa_us,,,Little Rock,AR,,US,+1 501-868-7424,,Mo-Sa 05:00-22:30; Su 06:00-22:30,Murphy USA,Q19604459
1855,orangetheory_fitness,"Little Rock West, AR",,Little Rock,AR,,US,+1 501-817-3166,,,Orangetheory Fitness,Q25005163
ar_little-rock_14710-cantrell-rd,pizza_hut_us,14710 Cantrell Rd,,Little Rock,AR,,US,+1 501-868-4203,https://locations.pizzahut.com/ar/little-rock/14710-cantrell-rd,,Pizza Hut,Q191615
restaurant_88990,popeyes_us_fr,Popeyes,"19600 Cantrell Rd. Little Rock, Arkansas 72223 - USA",Little Rock,AR,,US,+1 501-367-8187,https://www.popeyes.com/store-locator/store/restaurant_88990,Mo-Su 10:00-20:00,Popeyes,Q1330910
383,primrose_schools,Primrose School of West Little Rock,,Little Rock,AR,,US,+1 501-821-2200,https://www.primroseschools.com/schools/west-little-rock/,,Primrose Schools,Q7243677
2507818576894149773,sleep_number_us,Sleep Number,,Little Rock,AR,,US,,https://www.sleepnumber.com/stores/ar/little-rock/17721-chenal-parkway,Mo-Th 10:00-19:00; Fr-Sa 10:00-20:00; Su 11:00-19:00,Sleep Number,Q7447640
https://restaurants.subway.com/#14908594,subway,Subway Saddle Creek Center,,Little Rock Pulaski,AR,,US,+1 501-868-3305,https://restaurants.subway.com/united-states/ar/little-rock/8201-ranch-blvd,Mo-Su 08:00-21:00,Subway,Q244457
https://restaurants.subway.com/#14914794,subway,Subway Westside Plaza,,Little Rock Pulaski,AR,,US,+1 501-221-0800,https://restaurants.subway.com/united-states/ar/little-rock/14309-cantrell-rd,Mo-Su 08:00-21:00,Subway,Q244457
https://restaurants.subway.com/#14904644,subway,Subway Rivercity Energy,,Little Rock Pulaski,AR,,US,+1 501-821-3744,https://restaurants.subway.com/united-states/ar/little-rock/16800-chenal-parkway,We 10:00-20:00; Fr 08:00-20:00; Su 09:00-14:00,Subway,Q244457
https://locations.tacobell.com/#93927451,taco_bell,Taco Bell,,Little Rock,AR,,US,+1 501-859-9882,https://locations.tacobell.com/ar/little-rock/17116-chenal-parkway.html,Mo-Th 08:00-02:00; Fr-Sa 08:00-03:00; Su 08:00-02:00,Taco Bell,Q752941
37,the_exercise_coach_us,The Exercise Coach,,Little Rock,AR,,US,+1 501-500-6880,https://exercisecoach.com/west-little-rock/,,The Exercise Coach,Q121502262
28650,tjx,Little Rock,17625 Chenal Parkway,Little Rock,AR,,US,+1 501-821-8084,,Mo-Sa 09:30-21:30; Su 10:00-20:00,HomeGoods,Q5887941
101164,tjx,Little Rock,16105 Chenal Pky,Little Rock,AR,,US,+1 501-821-8006,,Mo-Sa 09:30-21:30; Su 10:00-20:00,Marshalls,Q15903261
3SJG,tmobile_us,Chenal Pkwy & Kanis Rd,,Little Rock,AR,,US,+1 501-916-4964,https://www.t-mobile.com/store-locator/ar/little-rock/chenal-pkwy-kanis-rd,,T-Mobile,Q3511885
1030279,uhaul,USA Storage - Ferndale,27000 Kanis Road,Little Rock,AR,,US,+1 501-821-5546,,,U-Haul,Q7862902
089067,uhaul,Chenal 10 Storage,24300 Chenal Pkwy,Little Rock,AR,,US,+1 501-562-0484,,Mo-Fr 30:00-17:00; Sa 00:00-15:00,U-Haul,Q7862902
1357782,usps,CHENAL,,LITTLE ROCK,AR,,US,+1 501-821-6299,,Mo-Fr 09:15-17:30; Sa 09:00-13:00,United States Postal Service,Q668687
7222300003,usps_collection_boxes,USPS COLLECTION BOX - PO LOBBY,815 TECHNOLOGY DR,LITTLE ROCK,AR,,US,,,,United States Postal Service,Q668687
7222300004,usps_collection_boxes,USPS COLLECTION BOX - PO LOBBY,815 TECHNOLOGY DR,LITTLE ROCK,AR,,US,,,,United States Postal Service,Q668687
7222300015,usps_collection_boxes,USPS COLLECTION BOX - PO LOBBY,815 TECHNOLOGY DR,LITTLE ROCK,AR,,US,,,,United States Postal Service,Q668687
7222300012,usps_collection_boxes,USPS COLLECTION BOX - BLUE BOX,16105 CHENAL PKWY,LITTLE ROCK,AR,,US,,,,United States Postal Service,Q668687
7222300008,usps_collection_boxes,USPS COLLECTION BOX - BLUE BOX,815 TECHNOLOGY DR,LITTLE ROCK,AR,,US,,,,United States Postal Service,Q668687
7222300007,usps_collection_boxes,USPS COLLECTION BOX - BLUE BOX,14000 CANTRELL RD,LITTLE ROCK,AR,,US,,,,United States Postal Service,Q668687
,visa,,,LITTLE ROCK,AR,,US,,,,,
,visa,,,LITTLE ROCK,AR,,US,,,,,
,visa,,,LITTLE ROCK,AR,,US,,,,,
,visa,,,LITTLE ROCK,AR,,US,,,,,
,visa,,,LITTLE ROCK,AR,,US,,,,,
,visa,,,LITTLE ROCK,AR,,US,,,,,
,visa,,,LITTLE ROCK,AR,,US,,,,,
,visa,,,LITTLE ROCK,AR,,US,,,,,
,visa,,,LITTLE ROCK,AR,,US,,,,,
,visa,,,LITTLE ROCK,AR,,US,,,,,
,visa,,,LITTLE ROCK,AR,,US,,,,,
,visa,,,LITTLE ROCK,AR,,US,,,,,
,visa,,,LITTLE ROCK,AR,,US,,,,,
,visa,,,LITTLE ROCK,AR,,US,,,,,
,visa,,,LITTLE ROCK,AR,,US,,,,,
,visa,,,LITTLE ROCK,AR,,US,,,,,
https://www.walgreens.com/locator/walgreens-14820+cantrell+rd-little+rock-ar-72223/id=7284,walgreens,Walgreens,,Little Rock,AR,,US,+1 501-868-6324,https://www.walgreens.com/locator/walgreens-14820+cantrell+rd-little+rock-ar-72223/id=7284,Mo-Su 07:00-23:00,Walgreens,Q1591889
https://locations.wendys.com/#9253664,wendys,"Wendy's Little Rock, Ar in Little Rock, AR",,Little Rock,AR,,US,+1 501-367-8345,https://locations.wendys.com/united-states/ar/little-rock/17717-cantrell-rd,"Mo-Su 06:30-10:30,08:00-22:00",Wendy's,Q550258
86802a0c134f74189e4e7a0e644a26bd,western_union,BEAR CREEK,,Little Rock,AR,,US,+1 501-821-4090,https://location.westernunion.com/us/ar/little-rock/86802a0c134f74189e4e7a0e644a26bd,Mo-Su 06:00-21:00,Western Union,Q861042
c746d7e9292e105d459b2df03da8e5ee,western_union,WALMART #005244,,Little Rock,AR,,US,+1 501-868-4659,https://location.westernunion.com/us/ar/little-rock/c746d7e9292e105d459b2df03da8e5ee,Mo-Su 07:00-21:00,Western Union,Q861042
https://locations.whataburger.com/ar/little-rock/17100-chenal-parkway.html,whataburger,Chenal,17100 Chenal Parkway,Little Rock,AR,,US,,https://locations.whataburger.com/ar/little-rock/17100-chenal-parkway.html,,Whataburger,Q376627
1383,whitehouseblackmarket,The Promenade at Chenal,"17809 Chenal Parkway, Sp # G-109",Little Rock,AR,,US,+1 501-821-3210,,Mo-Sa 10:00-21:00; Su 12:00-18:00,White House Black Market,Q7994858
