Ref,Spider,Name,Address,City,State,Zipcode,Country,Phone,Website,Hours,Brand,WikiData
https://stores.advanceautoparts.com/md/bladensburg/5454-annapolis-rd,advance_auto_parts_us,Advance Auto Parts,,Bladensburg,MD,,US,+1 301-779-3567,https://stores.advanceautoparts.com/md/bladensburg/5454-annapolis-rd,Mo-Sa 07:30-21:00; Su 09:00-20:00,Advance Auto Parts,Q4686051
1844,autozone_us,AutoZone Auto Parts Bladensburg,,Bladensburg,MD,,US,+1 301-699-5683,https://www.autozone.com/locations/md/bladensburg/4920-annapolis-rd.html,Mo-Sa 07:30-21:00; Su 08:00-20:00,AutoZone,Q4826087
194318,bluerhino,Bladensburg Exxon,,Bladensburg,MD,,US,+1 202-766-7808,,,Blue Rhino,Q65681213
127981,bp,Amoco,,Bladensburg,MD,,US,+1 301-277-6454,,,BP,Q152057
80193598,cricket_wireless,Cricket Wireless Authorized Retailer,,Bladensburg,MD,,US,+1 240-667-1625,https://www.cricketwireless.com/stores/ll/US/MD/Bladensburg/4916-Annapolis-Rd,Mo-Sa 10:00-20:00; Su 12:00-18:00,Cricket Wireless,Q5184987
200316822,exxonmobil,BLADENSBURG EXXON,,BLADENSBURG,MD,,US,+1 301-927-0075,https://www.exxon.com/en/find-station/exxon-bladensburg-md-bladensburgexxon-200316822,24/7,Exxon,Q109675651
102,first_cash,King Pawn,,Bladensburg,MD,,US,+1 301-779-4040,,,,
33,first_cash,First Cash Pawn,,Bladensburg,MD,,US,+1 301-699-3300,,,First Cash Pawn,
https://locations.papajohns.com/#10691178,papa_johns,Papa John's,,Bladensburg,MD,,US,+1 301-864-7272,https://locations.papajohns.com/united-states/md/20710/bladensburg/4930-annapolis-road,Mo-Th 10:00-23:00; Fr-Sa 10:00-24:00; Su 10:00-23:00,Papa John's Pizza,Q2759586
36480,seven_eleven_ca_us,7-11 Str   4907 Annapolis Rd,,Bladensburg,MD,,US,+1 301-699-2151,https://www.7-eleven.com/locations/md/bladensburg/4907-annapolis-rd-36480,,7-Eleven,Q259340
36685,seven_eleven_ca_us,7-11 Str   5456 Annapolis Rd,,Bladensburg,MD,,US,+1 301-779-1059,https://www.7-eleven.com/locations/md/bladensburg/5456-annapolis-rd-36685,,7-Eleven,Q259340
4003,shellrecharge,Pepco - Bladensburg Town Hall,,Bladensburg,MD,,US,,,,Shell Recharge,Q105883058
4106,shellrecharge,Pepco - Bladensburg Street Parking - 57th Ave,,Bladensburg,MD,,US,,,,Shell Recharge,Q105883058
0013546700,sunoco_us,Sunoco,,BLADENSBURG,MD,,US,+1 301-779-0057,,Mo-Sa 06:00-21:00; Su 00:00-00:00,Sunoco,Q1423218
1355094,usps,BLADENSBURG,,BLADENSBURG,MD,,US,+1 301-864-5985,,Mo-Fr 09:00-17:00; Sa 09:00-12:00,United States Postal Service,Q668687
2071000025,usps_collection_boxes,USPS COLLECTION BOX - BLUE BOX,4253 58TH AVE,BLADENSBURG,MD,,US,,,,United States Postal Service,Q668687
,visa,,,BLADENSBURG,MD,,US,,,,,
,visa,,,BLADENSBURG,MD,,US,,,,,
,visa,,,BLADENSBURG,MD,,US,,,,,
,visa,,,BLADENSBURG,MD,,US,,,,,
,visa,,,BLADENSBURG,MD,,US,,,,,
,visa,,,BLADENSBURG,MD,,US,,,,,
,visa,,,BLADENSBURG,MD,,US,,,,,
,visa,,,BLADENSBURG,MD,,US,,,,,
,visa,,,BLADENSBURG,MD,,US,,,,,
,visa,,,BLADENSBURG,MD,,US,,,,,
,visa,,,BLADENSBURG,MD,,US,,,,,
,visa,,,BLADENSBURG,MD,,US,,,,,
,visa,,,BLADENSBURG,MD,,US,,,,,
,visa,,,BLADENSBURG,MD,,US,,,,,
,visa,,,BLADENSBURG,MD,,US,,,,,
,visa,,,BLADENSBURG,MD,,US,,,,,
,visa,,,BLADENSBURG,MD,,US,,,,,
,visa,,,PLADENSBURG,MD,,US,,,,,
,visa,,,BLADENSBURG,MD,,US,,,,,
,visa,,,BLADENSBURG,MD,,US,,,,,
,visa,,,BLADENSBURG,MD,,US,,,,,
,visa,,,BLADENSBURG,MD,,US,,,,,
,visa,,,BLADENSBURG,MD,,US,,,,,
,visa,,,BLADENSBURG,MD,,US,,,,,
,visa,,,BLADENSBURG,MD,,US,,,,,
,visa,,,BLADENSBURG,MD,,US,,,,,
,visa,,,BURTONSVILLE,MD,,US,,,,,
,visa,,,BLADENSBURG,MD,,US,,,,,
,visa,,,BLADENSBURG,MD,,US,,,,,
,visa,,,BLADENSBURG,MD,,US,,,,,
,visa,,,BLADENSBURG,MD,,US,,,,,
,visa,,,BLADENSBURG,MD,,US,,,,,
,visa,,,BLADENSBURG,MD,,US,,,,,
,visa,,,BLADENSBURG,MD,,US,,,,,
,visa,,,BLADENSBURG,MD,,US,,,,,
,visa,,,BLADENSBURG,MD,,US,,,,,
6a1bd5e11c856fe832002b2e4b8ecb55,western_union,F&M MONEY TRANSFER LLC,,Bladensburg,MD,,US,+1 240-770-7269,https://location.westernunion.com/us/md/bladensburg/6a1bd5e11c856fe832002b2e4b8ecb55,Mo-Su 08:00-21:00,Western Union,Q861042
c9e3ee5b1c8cf36e06629029004bf2f6,western_union,J&A ENVIOS EXPRESS LLC,,Bladensburg,MD,,US,+1 301-864-1402,https://location.westernunion.com/us/md/bladensburg/c9e3ee5b1c8cf36e06629029004bf2f6,Mo-Su 08:00-22:00,Western Union,Q861042
ac8e0a3ebddd42d0021fd87985d695a0,western_union,7-ELEVEN #36685,,Bladensburg,MD,,US,+1 301-779-1059,https://location.westernunion.com/us/md/bladensburg/ac8e0a3ebddd42d0021fd87985d695a0,,Western Union,Q861042
b4993918b725ada7c67c6be0e2357e65,western_union,VARIEDADES LOS 3 BROTHERS LLC,,Bladensburg,MD,,US,+1 240-770-6624,https://location.westernunion.com/us/md/bladensburg/b4993918b725ada7c67c6be0e2357e65,Mo-Su 08:00-20:00,Western Union,Q861042
37ad4619b333eef99454e0af81688c91,western_union,AZTECA LATIN JEWELRY,,Bladensburg,MD,,US,+1 240-355-1011,https://location.westernunion.com/us/md/bladensburg/37ad4619b333eef99454e0af81688c91,Mo-Su 08:00-22:00,Western Union,Q861042
5a779e9522119226ee9635408c25f4ea,western_union,FANTASTIC HAIR SALON,,Bladensburg,MD,,US,+1 301-277-2545,https://location.westernunion.com/us/md/bladensburg/5a779e9522119226ee9635408c25f4ea,Mo-Su 08:00-21:00,Western Union,Q861042
113f76e6e20875fe934163bb23f60907,western_union,7-ELEVEN #36480,,Bladensburg,MD,,US,+1 301-699-2151,https://location.westernunion.com/us/md/bladensburg/113f76e6e20875fe934163bb23f60907,Mo-Su 05:00-24:00,Western Union,Q861042
