Ref,Spider,Name,Address,City,State,Zipcode,Country,Phone,Website,Hours,Brand,WikiData
ADE-72,aldi_sud_de,,"Allee am Röthelheimpark 15, 91052, Erlangen, Deutschland",Erlangen,,,DE,,,Mo-Sa 08:00-20:00,ALDI Süd,Q41171672
ADE-20,aldi_sud_de,,"Henkestraße 92, 91052, Erlangen, Deutschland",Erlangen,,,DE,,,Mo-Sa 07:30-20:00,ALDI Süd,Q41171672
https://vertretung.allianz.de/mario.leibold/,allianz_de,Allianz Versicherung Mario Leibold GENERALVERTRETUNG,,Erlangen,,,DE,+49 9131 9202860,https://vertretung.allianz.de/mario.leibold/,"Mo-Tu 09:00-12:30; We 09:00-12:30,14:00-17:00; Th-Fr 09:00-12:30",Allianz SE,Q487292
22050100,bp,Udo Wiechers,,Erlangen,,,DE,+49 9131 52370,http://tankstelle.aral.de/tankstelle/22050100,Mo-Tu 06:00-22:00; We-Fr 00:00-24:00; Sa-Su 06:00-22:00,BP,Q152057
DE0081,c_and_a,Erlangen Rathausplatz,"Rathausplatz 4, 91052 Erlangen",Erlangen,,,DE,,https://www.c-and-a.com/stores/de-de/bayern/erlangen/rathausplatz-4.html,Mo 09:30-20:00; Tu 09:30-20:00; We 09:30-20:00; Th 09:30-20:00; Fr 09:30-20:00; Sa 09:30-20:00,C&A,Q701338
https://www.biomarkt.de/erlangen-paul-gossen-str-69,denns_de,Denns BioMarkt Erlangen,,Erlangen,,,DE,+49 9131 9322630,https://www.biomarkt.de/erlangen-paul-gossen-str-69/marktseite,,Denns BioMarkt,Q48883773
de:2118,dm,dm-drogerie markt,,Erlangen,,,DE,+49 9131 4000814,https://www.dm.de/store/d3g6/erlangen/nuernberger-strasse-24,Mo-Sa 08:00-20:00,dm,Q266572
de:1602,dm,dm-drogerie markt,,Erlangen,,,DE,+49 9131 4010046,https://www.dm.de/store/d2ii/erlangen/allee-am-roethelheimpark-11,Mo-Sa 07:30-20:00,dm,Q266572
de:1323,dm,dm-drogerie markt,,Erlangen,,,DE,+49 9131 5302710,https://www.dm.de/store/d273/erlangen/nuernberger-strasse-7,Mo-Sa 08:30-20:00,dm,Q266572
100151031,exxonmobil,Esso Station Erlangen Wichernstr.,,ERLANGEN,,,DE,+49 9131 301757,https://www.esso.de/de-de/find-station/esso-erlangen-essostationerlangenwichernstr-100151031,24/7,Esso,Q867662
100150542,exxonmobil,Esso Station Erlangen Gebbertstr.,,ERLANGEN,,,DE,+49 9131 33686,https://www.esso.de/de-de/find-station/esso-erlangen-essostationerlangengebbertstr-100150542,Mo-Fr 05:00-23:00; Sa-Su 06:00-23:00,Esso,Q867662
3135313732HndR82,eyes_and_more,"eyes + more Erlangen, Arcaden","Nürnberger Straße   7, Erlangen, 91052",,,,DE,+49 9131 9797266,https://www.eyesandmore.de/termin-vereinbaren/?storeId=3135313732HndR82,Mo-Sa 09:30-19:00,eyes + more,Q1385775
FordGK1W540  DEU,ford,Autohaus Konrad GmbH,,Erlangen,,,DE,+49 9131 12090,ford-konrad-erlangen.de,,Ford,Q44294
https://www.fressnapf.de/stores/fressnapf-erlangen/,fressnapf_de,Fressnapf Erlangen,,Erlangen,,,DE,+49 9131 126626,https://www.fressnapf.de/stores/fressnapf-erlangen/,Mo-Fr 09:00-20:00; Sa 09:00-18:00,Fressnapf,Q875796
2760913036,gls_de,e-rauchershop Erlangen,,Erlangen,,,DE,+49 9131 9264593,,Mo-Fr 11:00-18:00; Sa 10:00-16:00,General Logistics Systems,Q46495823
2760905090,gls_de,OZ-Toner,,Erlangen,,,DE,+49 9131 9244372,,Mo-Tu 10:00-16:00; Th 10:00-16:00; Fr 10:00-14:00,General Logistics Systems,Q46495823
4551,jack_and_jones,Erlangen-Arcaden,,Erlangen,,,DE,+49 9131 9789930,,,Jack & Jones,Q6077665
DE4430,kaufland,Kaufland Erlangen-Röthelheimpa,,Erlangen,,,DE,+49 9131 506710,https://filiale.kaufland.de/service/filiale/frankfurt-oder-spitzkrug-multi-center-erlangen-roethelheimpark-4430.html,Mo-Sa 07:00-20:00,Kaufland,Q685967
4420,lidl_de,,,Erlangen-Innenstadt,,,DE,,,Mo-Sa 07:00-20:00,Lidl,Q151954
71669810,moneygram,DER BUNTSTIFT - ERLANGEN,,ERLANGEN,,,DE,+49 9131 9076013,,Mo-Fr 07:00-18:00; Sa 09:00-13:00; Su 00:00-24:00,MoneyGram,Q1944412
3109,mueller,Müller,,Erlangen,,,DE,+49 9131 9733960,https://www.mueller.de/meine-filiale/erlangen/nuernberger-str-10/,,Müller,Q1958759
5b3cb3fac00458481b437c6b,newyorker,NEW YORKER | Erlangen Arcaden,"Nürnberger Str. 7, 91052 Erlangen",Erlangen,,,DE,+49 9131 9778840,,Mo-Sa 09:30-20:00,New Yorker,Q706421
ER001,rsg_group,McFIT Erlangen,,Erlangen,,,DE,+49 9131 5301737,https://www.mcfit.com/de/studio/erlangen/,24/7,McFit,Q871302
ER002,rsg_group,Club Erlangen,,Erlangen,,,DE,+49 9131 9785575,https://johnreed.fitness/clubs/erlangen,Mo-Fr 06:00-23:00; Sa-Su 08:00-22:00,JOHN REED Fitness,Q106434148
https://www.sixt.co.uk/car-hire/germany/erlangen/erlangen-siemens/,sixt,Car Hire Erlangen/Siemens | SIXT rent a car,,Erlangen,,,DE,,https://www.sixt.co.uk/car-hire/germany/erlangen/erlangen-siemens/,Mo-Fr 06:00-20:00; Sa 06:00-14:00; Su 08:00-12:00,SIXT,Q705664
31070,sparkasse_de,Stadt- und Kreissparkasse Erlangen Höchstadt Herzogenaurach Geldautomat Paul Carré,,Erlangen,,,DE,+49 9131 8243180,https://www.sparkasse.de/standorte/geldautomaten/stadt-und-kreissparkasse-erlangen-hoechstadt-herzogenaurach-geldautomat-paul-carre-31070,Mo-Su 06:00-24:00,Sparkasse,Q13601825
12432,sparkasse_de,Stadt- und Kreissparkasse Erlangen Höchstadt Herzogenaurach Geschäftsstelle Paul Carré,,Erlangen,,,DE,+49 9131 8243180,https://www.sparkasse.de/standorte/filialen/stadt-und-kreissparkasse-erlangen-hoechstadt-herzogenaurach-geschaeftsstelle-paul-carre-12432,"Mo-Tu 09:00-13:00,14:00-16:00; We 09:00-13:00; Th 09:00-13:00,14:30-17:30; Fr 09:00-13:00",Sparkasse,Q13601825
31027,sparkasse_de,Stadt- und Kreissparkasse Erlangen Höchstadt Herzogenaurach Geldautomat Neue Mitte,,Erlangen,,,DE,+49 9131 8243190,https://www.sparkasse.de/standorte/geldautomaten/stadt-und-kreissparkasse-erlangen-hoechstadt-herzogenaurach-geldautomat-neue-mitte-31027,Mo-Su 06:00-24:00,Sparkasse,Q13601825
12448,sparkasse_de,Stadt- und Kreissparkasse Erlangen Höchstadt Herzogenaurach Geschäftsstelle Neue Mitte,,Erlangen,,,DE,+49 9131 8243190,https://www.sparkasse.de/standorte/filialen/stadt-und-kreissparkasse-erlangen-hoechstadt-herzogenaurach-geschaeftsstelle-neue-mitte-12448,"Mo-Tu 09:00-13:00,14:00-16:00; We 09:00-13:00; Th 09:00-13:00,14:30-17:30; Fr 09:00-13:00,14:00-16:00",Sparkasse,Q13601825
145156,sparkasse_de,Stadt- und Kreissparkasse Erlangen Höchstadt Herzogenaurach Geldautomat SB Arcaden,,Erlangen,,,DE,+49 9131 5301344,https://www.sparkasse.de/standorte/geldautomaten/stadt-und-kreissparkasse-erlangen-hoechstadt-herzogenaurach-geldautomat-sb-arcaden-145156,24/7,Sparkasse,Q13601825
31054,sparkasse_de,Stadt- und Kreissparkasse Erlangen Höchstadt Herzogenaurach Geldautomat Stintzingstraße,,Erlangen,,,DE,+49 9131 8243020,https://www.sparkasse.de/standorte/geldautomaten/stadt-und-kreissparkasse-erlangen-hoechstadt-herzogenaurach-geldautomat-stintzingstrasse-31054,Mo-Su 06:00-24:00,Sparkasse,Q13601825
35978,sparkasse_de,Stadt- und Kreissparkasse Erlangen Höchstadt Herzogenaurach Geschäftsstelle Stintzingstraße,,Erlangen,,,DE,+49 9131 8243020,https://www.sparkasse.de/standorte/filialen/stadt-und-kreissparkasse-erlangen-hoechstadt-herzogenaurach-geschaeftsstelle-stintzingstrasse-35978,"Mo-Tu 09:00-13:00,14:00-16:00; We 09:00-13:00; Th 09:00-13:00,14:30-17:30; Fr 09:00-13:00,14:00-16:00",Sparkasse,Q13601825
128157,sparkasse_de,Stadt- und Kreissparkasse Erlangen Höchstadt Herzogenaurach Geldautomat Röthelheimpark,,Erlangen,,,DE,+49 9131 8243520,https://www.sparkasse.de/standorte/geldautomaten/stadt-und-kreissparkasse-erlangen-hoechstadt-herzogenaurach-geldautomat-roethelheimpark-128157,Mo-Su 06:00-24:00,Sparkasse,Q13601825
127716,sparkasse_de,Stadt- und Kreissparkasse Erlangen Höchstadt Herzogenaurach Geschäftsstelle Röthelheimpark,,Erlangen,,,DE,+49 9131 8243520,https://www.sparkasse.de/standorte/filialen/stadt-und-kreissparkasse-erlangen-hoechstadt-herzogenaurach-geschaeftsstelle-roethelheimpark-127716,"Mo 09:00-13:00,14:00-16:00; Tu-We 09:00-13:00; Th 09:00-13:00,14:30-17:30; Fr 09:00-13:00,14:00-16:00",Sparkasse,Q13601825
12440,sparkasse_de,Stadt- und Kreissparkasse Erlangen Höchstadt Herzogenaurach Geschäftsstelle Am Anger,,Erlangen,,,DE,+49 9131 8243090,https://www.sparkasse.de/standorte/filialen/stadt-und-kreissparkasse-erlangen-hoechstadt-herzogenaurach-geschaeftsstelle-am-anger-12440,"Mo-Tu 09:30-12:30,14:00-16:00; We 09:30-12:30; Th 09:30-12:30,14:30-17:30; Fr 09:30-12:30,14:00-16:00",Sparkasse,Q13601825
31033,sparkasse_de,Stadt- und Kreissparkasse Erlangen Höchstadt Herzogenaurach Geldautomat Am Anger,,Erlangen,,,DE,+49 9131 8243090,https://www.sparkasse.de/standorte/geldautomaten/stadt-und-kreissparkasse-erlangen-hoechstadt-herzogenaurach-geldautomat-am-anger-31033,Mo-Su 06:00-24:00,Sparkasse,Q13601825
128176,sparkasse_de,Stadt- und Kreissparkasse Erlangen Höchstadt Herzogenaurach SB-Center Arcaden,,Erlangen,,,DE,+49 9131 5301344,https://www.sparkasse.de/standorte/filialen/stadt-und-kreissparkasse-erlangen-hoechstadt-herzogenaurach-sb-center-arcaden-128176,Mo-Sa 08:00-20:00,Sparkasse,Q13601825
https://www.tegut.com/maerkte/markt/tegut-erlangen-nuernberger-strasse-7.html,tegut_de,tegut…  Erlangen,,Erlangen,,,DE,+49 9131 4000695,/maerkte/markt/tegut-erlangen-nuernberger-strasse-7.html,Mo-Sa 08:00-20:00,tegut…,Q1547993
EX_BP_1580,totalenergies,"ARAL TANKSTELLE ERLANGEN, DRAU",,Erlangen,,,DE,,https://store.totalenergies.fr/en_EN/EX_BP_1580,,Aral,Q565734
https://www.vlh.de/bst/8759/Oeffnungszeiten.html,vhl_de,VLH-Beraterin Mirjam Antunovic in Erlangen,,Erlangen,,,DE,+49 9131 9201241,https://www.vlh.de/bst/8759/,,Vereinigte Lohnsteuerhilfe e.V.,Q15852617
https://www.vlh.de/bst/8107/Oeffnungszeiten.html,vhl_de,VLH-Beraterin Ilka Rothe in Erlangen,,Erlangen,,,DE,+49 9131 977368,https://www.vlh.de/bst/8107/,,Vereinigte Lohnsteuerhilfe e.V.,Q15852617
,visa,,,ERLANGEN,,,DE,,,,,
,visa,,,ERLANGEN,,,DE,,,,,
,visa,,,ERLANGEN,,,DE,,,,,
,visa,,,ERLANGEN,,,DE,,,,,
,visa,,,ERLANGEN,,,DE,,,,,
,visa,,,ERLANGEN,,,DE,,,,,
,visa,,,ERLANGEN,,,DE,,,,,
,visa,,,ERLANGEN,,,DE,,,,,
,visa,,,ERLANGEN,,,DE,,,,,
https://shops.vodafone.de/erlangen/nuernberger-str.-7,vodafone_de,Vodafone-Shop,,Erlangen,,,DE,+49 9131 9085281,https://shops.vodafone.de/erlangen/nuernberger-str.-7,Mo-Sa 09:30-19:00,Vodafone,Q122141
https://shops.vodafone.de/erlangen/nuernberger-str.-11,vodafone_de,Vodafone-Shop,,Erlangen,,,DE,+49 172 8994001,https://shops.vodafone.de/erlangen/nuernberger-str.-11,Mo-Sa 09:30-19:00,Vodafone,Q122141
https://www.vr.de/standorte/E/vr-bank-metropolregion-nuernberg-eg-19315.html,vr_bank,VR Bank Metropolregion Nürnberg eG,,Erlangen,,,DE,+49 911 23700,https://www.vr-teilhaberbank.de,"Mo-Tu 09:00-12:00,14:00-16:00; We 09:00-12:00; Th-Fr 09:00-12:00,14:00-16:00",,
https://www.vr.de/standorte/E/vr-bank-metropolregion-nuernberg-eg-14579.html,vr_bank,VR Bank Metropolregion Nürnberg eG,,Erlangen,,,DE,+49 911 23700,https://www.vr-teilhaberbank.de,"Mo-Tu 09:00-13:00,14:00-16:00; We 09:00-13:00; Th 09:00-13:00,14:00-17:00; Fr 09:00-13:00,14:00-16:00",,
