Ref,Spider,Name,Address,City,State,Zipcode,Country,Phone,Website,Hours,Brand,WikiData
https://www.academy.com/storelocator/#8745589,academy_us,Academy Sports + Outdoors,,Houston,TX,,US,+1 713-874-6020,https://www.academy.com/storelocator/texas/houston/store-0019,Mo-Th 09:00-21:00; Fr 09:00-22:00; Sa 08:00-22:00; Su 09:00-21:00,Academy Sports + Outdoors,Q4671380
12403,asics_us,Academy Sports + Outdoors,2404 Southwest Fwy,Houston,TX,,US,+1 713-874-6020,,,asics,Q327247
USAA25A61,audi,Audi Central Houston,"2120 Southwest Fwy, Houston, TX 77098",Houston,TX,,US,+1 713-596-3500,,,Audi,Q23317
https://www.banfield.com/locations/veterinarians/tx/houston/ilp,banfield_pet_hospital,Houston (Inner Loop),,Houston,TX,,US,+1 713-524-5553,https://www.banfield.com/locations/veterinarians/tx/houston/ilp,Mo-Sa 07:00-18:00; Su 09:00-17:00,Banfield Pet Hospital,Q2882416
https://locators.bankofamerica.com/tx/houston/financial-centers-houston-10486.html,bankofamerica,Bank of America Financial Center & Drive-Thru ATM | Kirby,,Houston,TX,,US,+1 713-535-6500,https://locators.bankofamerica.com/tx/houston/financial-centers-houston-10486.html,Mo-Fr 09:00-17:00; Sa 09:00-14:00,Bank of America,Q487907
https://locations.baskinrobbins.com/tx/houston/3266-westheimer-rd-360468-br,baskin_robbins_us,Baskin-Robbins™,,Houston,TX,,US,+1 713-520-6881,https://locations.baskinrobbins.com/tx/houston/3266-westheimer-rd-360468-br,Mo-Su 11:00-22:00,Baskin-Robbins,Q584601
227269,bluerhino,Timewise #880842,,Houston,TX,,US,+1 713-528-4756,,,Blue Rhino,Q65681213
212263,bluerhino,Timewise #217,,Houston,TX,,US,+1 713-529-9536,,,Blue Rhino,Q65681213
212425,bluerhino,Timewise #237,,Houston,TX,,US,+1 713-523-6402,,,Blue Rhino,Q65681213
225435,bluerhino,Alta Shepard Ventures LLC dba Primespot #31,,Houston,TX,,US,+1 346-802-2405,,,Blue Rhino,Q65681213
126793,bluerhino,HWI - Southland Hardware #1200,,Houston,TX,,US,+1 713-529-0571,,,Blue Rhino,Q65681213
196778,bluerhino,H-E-B #630,,HOUSTON,TX,,US,+1 713-529-2475,,,Blue Rhino,Q65681213
1150,buffalo_exchange_us,Houston &#8211; Shepherd Montrose,2901 S Shepherd Dr,"Houston,",TX,,US,+1 713-523-8701,https://buffaloexchange.com/location/shepherd-montrose-houston/,,Buffalo Exchange,Q4985721
12293894,chase_us,LAST LANE OF MOTOR BANK - 145105,,HOUSTON,TX,,US,+1 800-935-9935,https://locator.chase.com/tx/houston/3002-kirby-dr,,Chase,Q524629
2041517,chase_us,Kirby - New branch,,Houston,TX,,US,+1 713-525-2218,https://locator.chase.com/tx/houston/2435-w-alabama-st,Mo-Fr 09:00-17:00; Sa 09:00-14:00,Chase,Q524629
1607,chuys,Chuy's,"2706 Westheimer Rd, Houston, TX, 77098",Houston,TX,,US,+1 713-524-1700,https://www.chuys.com/locations/river-oaks,,Chuy's,Q5118415
59180,citi,ATM Heb,,Houston,TX,,US,,,,Citibank,Q857063
81949,citi,ATM Target,,Houston,TX,,US,,,,Citibank,Q857063
65095,citi,ATM MCGONIGELS MUCKY DUCK,,Houston,TX,,US,,,,Citibank,Q857063
west-university,corner_bakery_cafe,West University,,Houston,TX,,US,+1 713-520-8211,https://cornerbakerycafe.com/location/west-university,Mo 06:30-09:00; Tu-Fr 06:30-21:00; Sa 07:00-21:00; Su 07:00-20:00,Corner Bakery Cafe,Q5171598
,credit_union_us,Houston FCU,,Houston,TX,,US,+1 281-243-0500,,Mo-Fr 09:00-04:30,,
7126,cvs_us,CVS Pharmacy,,Houston,TX,,US,+1 713-526-0062,https://www.cvs.com/store-locator/houston-tx-pharmacies/2910-westheimer-rd-houston-tx-77098/storeid=7126,Mo-Su 07:00-22:00,CVS Pharmacy,Q2078880
17802,cvs_us,CVS Pharmacy,,Houston,TX,,US,+1 832-325-3654,https://www.cvs.com/store-locator/houston-tx-pharmacies/2075-westheimer-rd-houston-tx-77098/storeid=17802,"Mo-Fr 09:00-13:30,14:00-19:00; Sa 09:00-13:30,14:00-17:00; Su 11:00-13:30,14:00-17:00",CVS Pharmacy,Q2078880
10554,cvs_us,CVS Pharmacy,,Houston,TX,,US,+1 713-874-1085,https://www.cvs.com/store-locator/houston-tx-pharmacies/2111-w-alabama-st-houston-tx-77098/storeid=10554,Mo-Th 07:00-22:00; Fr-Sa 07:00-23:00; Su 07:00-22:00,CVS Pharmacy,Q2078880
5685,cvs_us,CVS Pharmacy,,Houston,TX,,US,+1 713-533-2200,https://www.cvs.com/store-locator/houston-tx-pharmacies/4700-kirby-dr-houston-tx-77098/storeid=5685,24/7,CVS Pharmacy,Q2078880
https://www.edwardjones.com/us-en/financial-advisor/andrea-flores,edwardjones,Andrea N Flores,,Houston,TX,,US,+1 713-429-5154,https://www.edwardjones.com/us-en/financial-advisor/andrea-flores,Mo-Fr 08:00-16:00,Edward Jones,Q5343830
E106X9,enterprise,Houston River Oaks Chrysler,,Houston,TX,,US,+1 713-942-7076,,,Enterprise Rent-A-Car,Q17085454
501758,extra_space_storage,Houston Self Storage at 2222 Southwest Fwy,,Houston,TX,,US,+1 713-807-0900,https://www.extraspace.com/storage/facilities/us/texas/houston/501758/,Mo-Su 06:00-22:00,Extra Space Storage,Q5422162
https://local.fedex.com/#25457606,fedex,,,Houston,TX,,US,+1 800-463-3339,https://local.fedex.com/en-us/tx/houston/00jy2,,FedEx,Q459477
4931,gamestop_us,South Shepherd Dr,,HOUSTON,TX,,US,+1 713-528-6609,https://www.gamestop.com/search/?store=4931,Mo-Th 12:00-20:00; Fr-Sa 11:00-21:00; Su 12:00-19:00,GameStop,Q202210
43416,h_r_block,H&R Block,,Houston,TX,,US,+1 713-523-1743,https://www.hrblock.com/local-tax-offices/texas/houston/shepherd-square/43416/,,H&R Block,Q5627799
tx_houston_breakfast-2515-southwest-fwy-1448,ihop,IHOP Breakfast Restaurants Near You at 2515 Southwest Fwy,,Houston,TX,,US,+1 713-520-9908,https://restaurants.ihop.com/en-us/tx/houston/breakfast-2515-southwest-fwy-1448,,IHOP,Q1185675
crowne-plaza-houston,indigo,Crowne Plaza Houston,,Houston,TX,,US,+1 713-659-8312,,,Indigo,Q3559970
https://locations.jackinthebox.com/us/tx/houston/3302-richmond-ave,jackinthebox,Jack in the Box,,Houston,TX,,US,+1 346-476-1653,https://locations.jackinthebox.com/us/tx/houston/3302-richmond-ave,Mo 06:00-23:00; Tu 06:00-04:00; We-Sa 04:00-04:00; Su 04:00-23:00,Jack in the Box,Q1538507
shepherd-square-deli,jasonsdeli,Shepherd Square Deli,"2611 S Shepherd Dr, Houston, Texas 77098",Houston,TX,,US,+1 713-520-6728,https://www.jasonsdeli.com/restaurants/shepherd-square-deli,Mo-Su 10:00-22:00,Jason's Deli,Q16997641
58877,little_free_library,Steven Cook #58877 Houston TX,,Houston,TX,,US,,,,Little Free Library,Q6650101
137266,little_free_library,St. Anne's Barbara's Book Box #137266 Houston TX,,Houston,TX,,US,,,,Little Free Library,Q6650101
107851,little_free_library,“Read With Me” Little Free Library #107851 Houston TX,,Houston,TX,,US,,,,Little Free Library,Q6650101
68346,little_free_library,Mariah Baker-Castro #68346 Houston TX,,Houston,TX,,US,,,,Little Free Library,Q6650101
112811,little_free_library,Books on Branard Little Free Library #112811 Houston TX,,Houston,TX,,US,,,,Little Free Library,Q6650101
9285,little_free_library,Karen Verm #9285 Houston TX,,Houston,TX,,US,,,,Little Free Library,Q6650101
110729,little_free_library,Ruth's House #110729 Houston TX,,Houston,TX,,US,,,,Little Free Library,Q6650101
17309,mattress_firm_us,Mattress Firm River Oaks,,Houston,TX,,US,+1 713-529-3606,https://www.mattressfirm.com/en-us/stores/tx/houston/001048/,,Mattress Firm,Q6791878
https://locations.papajohns.com/#10592569,papa_johns,Papa John's,,Houston,TX,,US,+1 713-432-7272,https://locations.papajohns.com/united-states/tx/77098/houston/2620-s-shepherd-drive,Mo-Th 09:30-24:00; Fr-Sa 09:30-01:00; Su 09:30-24:00,Papa John's Pizza,Q2759586
626523,penske,Amazing Spaces Greenway,,HOUSTON,TX,,US,+1 713-774-1207,https://www.pensketruckrental.com/locations/us/texas/houston/626523/,,Penske,Q81234570
wesco-sps-27486,ppgpaints,WESCO SPS,,"Houston, ",TX,,US,+1 713-334-9992,https://www.ppgpaints.com/store-locator/us/texas/houston-paint-stores/wesco-sps-27486,,PPG Paints,Q83891559
ppg-paints-9618-22000,ppgpaints,PPG Paints 9618,,"Houston, ",TX,,US,+1 713-526-3337,https://www.ppgpaints.com/store-locator/us/texas/houston-paint-stores/ppg-paints-9618-22000,,PPG Paints,Q83891559
324,primrose_schools,Primrose School of Upper Kirby,,Houston,TX,,US,+1 713-522-6700,https://www.primroseschools.com/schools/upper-kirby/,,Primrose Schools,Q7243677
https://www.publicstorage.com/self-storage-tx-houston/2046.html,public_storage_us,Public Storage,,Houston,TX,,US,+1 832-384-5261,https://www.publicstorage.com/self-storage-tx-houston/2046.html,,Public Storage,Q1156045
https://www.publicstorage.com/self-storage-tx-houston/2014.html,public_storage_us,Public Storage,,Houston,TX,,US,+1 832-384-5284,https://www.publicstorage.com/self-storage-tx-houston/2014.html,,Public Storage,Q1156045
https://restaurants.subway.com/#14900182,subway,Subway,,Houston Harris,TX,,US,+1 713-529-9345,https://restaurants.subway.com/united-states/tx/houston/3518-s-shepherd,Mo-Su 08:00-21:00,Subway,Q244457
8660,supercuts,Kirby Richmond Center,3413 Kirby Dr,Houston,TX,,US,+1 713-523-2292,https://www.supercuts.com/checkin/8660,Mo-Fr 09:00-20:00; Sa 09:00-19:00; Su 10:00-18:00,Supercuts,Q7643239
20404,taco_cabana_us,Parking lot,"3905 Kirby Drive, Houston, TX, USA",Houston,TX,,US,+1 713-528-6933,,,Taco Cabana,Q12070488
1TSZ,tmobile_us,Westheimer Rd & Huldy St,,Houston,TX,,US,+1 713-781-6989,https://www.t-mobile.com/store-locator/tx/houston/westheimer-rd-huldy-st,,T-Mobile,Q3511885
426,trader_joes_us,Trader Joe's Houston - Alabama Theater (426),,Houston,TX,,US,+1 713-526-4034,https://locations.traderjoes.com/tx/houston/426/,Mo-Su 08:00-21:00,Trader Joe's,Q688825
100325,two_men_and_truck,Houston Southwest,4101 Greenbriar Dr,Houston,TX,,US,+1 713-300-5443,https://twomenandatruck.com/movers/tx/houston/southwest,,Two Men and a Truck,Q7859087
1365567,usps,GREENBRIAR,,HOUSTON,TX,,US,+1 713-528-5875,,Mo-Fr 08:00-17:00,United States Postal Service,Q668687
7709800077,usps_collection_boxes,USPS COLLECTION BOX - BLUE BOX,4101 GREENBRIAR ST,HOUSTON,TX,,US,,,,United States Postal Service,Q668687
7709800065,usps_collection_boxes,USPS COLLECTION BOX - BLUE BOX,2055 WESTHEIMER RD,HOUSTON,TX,,US,,,,United States Postal Service,Q668687
7709800008,usps_collection_boxes,USPS COLLECTION BOX - BLUE BOX,3740 GREENBRIAR ST,HOUSTON,TX,,US,,,,United States Postal Service,Q668687
7709800062,usps_collection_boxes,USPS COLLECTION BOX - BLUE BOX,3131 W ALABAMA ST,HOUSTON,TX,,US,,,,United States Postal Service,Q668687
7709800084,usps_collection_boxes,USPS COLLECTION BOX - PO LOBBY,3740 GREENBRIAR DR,HOUSTON,TX,,US,,,,United States Postal Service,Q668687
7709800068,usps_collection_boxes,USPS COLLECTION BOX - APC,3740 GREENBRIAR ST,HOUSTON,TX,,US,,,,United States Postal Service,Q668687
7709800064,usps_collection_boxes,USPS COLLECTION BOX - PO LOBBY,3740 GREENBRIAR ST,HOUSTON,TX,,US,,,,United States Postal Service,Q668687
7709800076,usps_collection_boxes,USPS COLLECTION BOX - BLUE BOX,2200 SOUTHWEST FWY,HOUSTON,TX,,US,,,,United States Postal Service,Q668687
7709800013,usps_collection_boxes,USPS COLLECTION BOX - BLUE BOX,3730 KIRBY DR,HOUSTON,TX,,US,,,,United States Postal Service,Q668687
7709800080,usps_collection_boxes,USPS COLLECTION BOX - BLUE BOX,2925 RICHMOND AVE,HOUSTON,TX,,US,,,,United States Postal Service,Q668687
7709800020,usps_collection_boxes,USPS COLLECTION BOX - BLUE BOX,2990 RICHMOND AVE,HOUSTON,TX,,US,,,,United States Postal Service,Q668687
7709800066,usps_collection_boxes,USPS COLLECTION BOX - BLUE BOX,3207 W ALABAMA ST,HOUSTON,TX,,US,,,,United States Postal Service,Q668687
7709800071,usps_collection_boxes,USPS COLLECTION BOX - BLUE BOX,3131 RICHMOND AVE,HOUSTON,TX,,US,,,,United States Postal Service,Q668687
houston_oil-change-070125,valvoline_instant_oil_change,Valvoline,3130 Kirby Dr ,Houston,TX,,US,+1 713-522-3860,https://store.vioc.com/tx/houston/oil-change-070125.html,,Valvoline Instant Oil Change,Q7912852
R00000005093,verizon_us,River Oaks,,Houston,TX,,US,+1 713-522-2810,https://www.verizon.com/stores/details/texas/houston/river-oaks-281741/,Mo-Sa 10:00-19:00; Su 11:00-18:00,Verizon,Q919641
,visa,,,WEBSTER,TX,,US,,,,,
,visa,,,HOUSTON,TX,,US,,,,,
,visa,,,HOUSTON,TX,,US,,,,,
,visa,,,HOUSTON,TX,,US,,,,,
,visa,,,HOUSTON,TX,,US,,,,,
,visa,,,HOUSTON,TX,,US,,,,,
,visa,,,HOUSTON,TX,,US,,,,,
,visa,,,HOUSTON,TX,,US,,,,,
,visa,,,HOUSTON,TX,,US,,,,,
,visa,,,HOUSTON,TX,,US,,,,,
,visa,,,HOUSTON,TX,,US,,,,,
,visa,,,HOUSTON,TX,,US,,,,,
,visa,,,HOUSTON,TX,,US,,,,,
,visa,,,HOUSTON,TX,,US,,,,,
,visa,,,HOUSTON,TX,,US,,,,,
,visa,,,HOUSTON,TX,,US,,,,,
,visa,,,HOUSTON,TX,,US,,,,,
,visa,,,HOUSTON,TX,,US,,,,,
,visa,,,UNIVERSITY PLACE,TX,,US,,,,,
,visa,,,UNIVERSITY PLACE,TX,,US,,,,,
,visa,,,HOUSTON,TX,,US,,,,,
,visa,,,HOUSTON,TX,,US,,,,,
,visa,,,HOUSTON,TX,,US,,,,,
,visa,,,HOUSTON,TX,,US,,,,,
,visa,,,HOUSTON,TX,,US,,,,,
,visa,,,HOUSTON,TX,,US,,,,,
,visa,,,HOUSTON,TX,,US,,,,,
,visa,,,HOUSTON,TX,,US,,,,,
,visa,,,HOUSTON,TX,,US,,,,,
,visa,,,HOUSTON,TX,,US,,,,,
,visa,,,HOUSTON,TX,,US,,,,,
,visa,,,HOUSTON,TX,,US,,,,,
,visa,,,HOUSTON,TX,,US,,,,,
,visa,,,HOUSTON,TX,,US,,,,,
,visa,,,HOUSTON,TX,,US,,,,,
,visa,,,HOUSTON,TX,,US,,,,,
,visa,,,HOUSTON,TX,,US,,,,,
,visa,,,HOUSTON,TX,,US,,,,,
,visa,,,HOUSTON,TX,,US,,,,,
,visa,,,HOUSTON,TX,,US,,,,,
,visa,,,HOUSTON,TX,,US,,,,,
,visa,,,HOUSTON,TX,,US,,,,,
,visa,,,HOUSTON,TX,,US,,,,,
,visa,,,HOUSTON,TX,,US,,,,,
,visa,,,HOUSTON,TX,,US,,,,,
,visa,,,HOUSTON,TX,,US,,,,,
,visa,,,HOUSTON,TX,,US,,,,,
,visa,,,HOUSTON,TX,,US,,,,,
,visa,,,HOUSTON,TX,,US,,,,,
,visa,,,HOUSTON,TX,,US,,,,,
,visa,,,HOUSTON,TX,,US,,,,,
,visa,,,HOUSTON,TX,,US,,,,,
,visa,,,HOUSTON,TX,,US,,,,,
,visa,,,HOUSTON,TX,,US,,,,,
,visa,,,HOUSTON,TX,,US,,,,,
,visa,,,HOUSTON,TX,,US,,,,,
,visa,,,HOUSTON,TX,,US,,,,,
,visa,,,HOUSTON,TX,,US,,,,,
,visa,,,HOUSTON,TX,,US,,,,,
,visa,,,HOUSTON,TX,,US,,,,,
,visa,,,HOUSTON,TX,,US,,,,,
,visa,,,HOUSTON,TX,,US,,,,,
,visa,,,HOUSTON,TX,,US,,,,,
,visa,,,HOUSTON,TX,,US,,,,,
,visa,,,HOUSTON,TX,,US,,,,,
https://www.walgreens.com/locator/walgreens-3701+kirby+dr-houston-tx-77098/id=21161,walgreens,Walgreens,,Houston,TX,,US,+1 713-258-1913,https://www.walgreens.com/locator/walgreens-3701+kirby+dr-houston-tx-77098/id=21161,Mo-Fr 08:00-18:00; Sa-Su 00:00-24:00,Walgreens,Q1591889
"https://www.walgreens.com/locator/community,+a+walgreens+pharmacy-4101+greenbriar+dr-houston-tx-77098/id=15320",walgreens,"Community, a Walgreens Pharmacy",,Houston,TX,,US,+1 713-521-1700,"https://www.walgreens.com/locator/community,+a+walgreens+pharmacy-4101+greenbriar+dr-houston-tx-77098/id=15320",,,
5202__KIRBY__DR_HOUSTON_TX_77098,wellsfargo,Wells Fargo,5202 KIRBY DR,HOUSTON,TX,,US,+1 713-807-0272,https://www.wellsfargo.com/locator/bank/5202__KIRBY__DR_HOUSTON_TX_77098/,Mo-Fr 09:00-17:00,Wells Fargo,Q744149
2651__KIPLING__ST__STE__103_HOUSTON_TX_77098,wellsfargo,Wells Fargo,2651 KIPLING ST STE 103,HOUSTON,TX,,US,+1 713-369-3316,https://www.wellsfargo.com/locator/bank/2651__KIPLING__ST__STE__103_HOUSTON_TX_77098/,Mo-Fr 09:00-17:00,Wells Fargo,Q744149
https://locations.wendys.com/#9253013,wendys,"Wendy's 020 Kirby in Houston, TX",,Houston,TX,,US,+1 832-509-1793,https://locations.wendys.com/united-states/tx/houston/5003-kirby,"Mo-Su 06:30-10:30,09:00-22:00",Wendy's,Q550258
https://locations.whataburger.com/tx/houston/3712-s-shepherd-dr.html,whataburger,Shepherd & Farnham,3712 S SHEPHERD DR,HOUSTON,TX,,US,,https://locations.whataburger.com/tx/houston/3712-s-shepherd-dr.html,,Whataburger,Q376627
kirby,whole_foods,Kirby,2955 Kirby Dr,Houston,TX,,US,+1 713-520-1937,https://www.wholefoodsmarket.com/stores/kirby,Mo-Su 07:00-22:00,Whole Foods,Q1809448
