Ref,Spider,Name,Address,City,State,Zipcode,Country,Phone,Website,Hours,Brand,WikiData
https://www.avis.com/en/locations/do/la-romana/lrm,avis,Avis Dominican Republic La Romana Airport,,La Romana,La Romana,,DO,+1 809-813-9099,https://www.avis.com/en/locations/do/la-romana/lrm,Mo-Su 08:00-17:00,Avis,Q791136
,visa,,,DOMINICUS BAYAHIBE,LA ROMANA,,DO,,,,,
,visa,,,BAYAHIBE,LA ROMANA,,DO,,,,,
,visa,,,LA ROMANA,LA ROMANA,,DO,,,,,
,visa,,,LA ROMANA,LA ROMANA,,DO,,,,,
,visa,,,LA ROMANA,LA ROMANA,,DO,,,,,
,visa,,,LA ROMANA,LA ROMANA,,DO,,,,,
,visa,,,LA ROMANA,LA ROMANA,,DO,,,,,
,visa,,,LA ROMANA,LA ROMANA,,DO,,,,,
,visa,,,LA ROMANA,LA ROMANA,,DO,,,,,
,visa,,,LA ROMANA,LA ROMANA,,DO,,,,,
,visa,,,LA ROMANA,LA ROMANA,,DO,,,,,
,visa,,,LA ROMANA,LA ROMANA,,DO,,,,,
,visa,,,LA ROMANA,LA ROMANA,,DO,,,,,
,visa,,,LA ROMANA,LA ROMANA,,DO,,,,,
,visa,,,LA ROMANA,LA ROMANA,,DO,,,,,
,visa,,,LA ROMANA,LA ROMANA,,DO,,,,,
,visa,,,LA ROMANA,LA ROMANA,,DO,,,,,
,visa,,,LA ROMANA,LA ROMANA,,DO,,,,,
,visa,,,LA ROMANA,LA ROMANA,,DO,,,,,
,visa,,,LA ROMANA,LA ROMANA,,DO,,,,,
,visa,,,LA ROMANA,LA ROMANA,,DO,,,,,
,visa,,,LA ROMANA,LA ROMANA,,DO,,,,,
,visa,,,LA ROMANA,LA ROMANA,,DO,,,,,
,visa,,,LA ROMANA,LA ROMANA,,DO,,,,,
,visa,,,LA ROMANA,LA ROMANA,,DO,,,,,
,visa,,,LA ROMANA,LA ROMANA,,DO,,,,,
,visa,,,LA ROMANA,LA ROMANA,,DO,,,,,
,visa,,,LA ROMANA,LA ROMANA,,DO,,,,,
,visa,,,LA ROMANA,LA ROMANA,,DO,,,,,
,visa,,,LA ROMANA,LA ROMANA,,DO,,,,,
,visa,,,LA ROMANA,LA ROMANA,,DO,,,,,
,visa,,,LA ROMANA,LA ROMANA,,DO,,,,,
,visa,,,LA ROMANA,LA ROMANA,,DO,,,,,
,visa,,,LA ROMANA,LA ROMANA,,DO,,,,,
,visa,,,LA ROMANA,LA ROMANA,,DO,,,,,
,visa,,,LA ROMANA,LA ROMANA,,DO,,,,,
,visa,,,LA ROMANA,LA ROMANA,,DO,,,,,
,visa,,,LA ROMANA,LA ROMANA,,DO,,,,,
,visa,,,LA ROMANA,LA ROMANA,,DO,,,,,
,visa,,,VILLA HERMOSA,LA ROMANA,,DO,,,,,
,visa,,,VILLA HERMOSA,LA ROMANA,,DO,,,,,
,visa,,,LA ROMANA,LA ROMANA,,DO,,,,,
,visa,,,LA ROMANA,LA ROMANA,,DO,,,,,
,visa,,,LA ROMANA,LA ROMANA,,DO,,,,,
88c54d694ff745af1febb157dd526201,western_union,CARIBE EXPRESS  LA ROMANA,,La Romana,LA ROMANA,,DO,+1 809-550-1680,https://location.westernunion.com/do/la-romana/la-romana/88c54d694ff745af1febb157dd526201,Mo-Sa 08:00-14:00,Western Union,Q861042
2c3798b60bff349f8dd6a9edcd5aac19,western_union,CARIBE EXPRESS SUC SIRENA LA ROMANA,,La Romana,LA ROMANA,,DO,+1 809-833-8038,https://location.westernunion.com/do/la-romana/la-romana/2c3798b60bff349f8dd6a9edcd5aac19,Mo-Fr 08:30-16:00; Sa-Su 09:00-13:00,Western Union,Q861042
2ebad74c5787ea33ba109c196b5a4e11,western_union,CARIBE EXPRESS SUC PLAZA LAMA LA ROMANA,,La Romana,LA ROMANA,,DO,+1 809-813-2024,https://location.westernunion.com/do/la-romana/la-romana/2ebad74c5787ea33ba109c196b5a4e11,Mo-Fr 08:30-16:00; Sa-Su 09:00-13:00,Western Union,Q861042
10346a49282241c7bd7f264c6ac208ec,western_union,CARIBE EXPRESS SUCURSAL BAYAHIBE,,La Romana,LA ROMANA,,DO,+1 809-833-0441,https://location.westernunion.com/do/la-romana/la-romana/10346a49282241c7bd7f264c6ac208ec,Mo-Fr 08:30-16:00; Sa-Su 09:00-13:00,Western Union,Q861042
