Ref,Spider,Name,Address,City,State,Zipcode,Country,Phone,Website,Hours,Brand,WikiData
122081,bluerhino,AAFES - Ft. Lee Shoppette,,Ft. Lee,VA,,US,+1 804-861-8081,,,Blue Rhino,Q65681213
44103,bluerhino,Fort Gregg-Adams Exchange,,Fort Gregg-Adams,VA,,US,+1 804-861-5970,,,Blue Rhino,Q65681213
57324,citi,ATM Fort Lee FCU,,Fort Lee,VA,,US,,,,Citibank,Q857063
57322,citi,ATM Fort Lee FCU,,Fort Lee,VA,,US,,,,Citibank,Q857063
57326,citi,ATM Fort Lee FCU,,Fort Lee,VA,,US,,,,Citibank,Q857063
57325,citi,ATM Fort Lee FCU,,Fort Lee,VA,,US,,,,Citibank,Q857063
vba_314o,department_veterans_affairs,Integrated Disability Evaluation System (IDES) Site at Fort Gregg-Adams,,Fort Gregg-Adams,VA,,US,+1 804-734-9314,,,Department Veterans Affairs,Q592576
562-quarters-rd,einsteinbros,Fort Lee Einstein Bros. Bagels,,Fort Lee,VA,,US,+1 804-732-1925,https://locations.einsteinbros.com/us/va/fort-lee/562-quarters-rd,Mo-Fr 07:00-14:00,Einstein Bros. Bagels,Q5349788
E121K9,enterprise,Fort Lee,,Fort Lee,VA,,US,+1 804-957-4653,,,Enterprise Rent-A-Car,Q17085454
https://stores.gnc.com/#24059649,gnc,GNC Fort Gregg-Adams,,,VA,,US,+1 804-957-4961,https://stores.gnc.com/all-stores-virginia/fort-gregg-adams/300-a-ave,Mo-Sa 09:00-18:00; Su 10:00-17:00,GNC,Q4808595
19808,h_r_block,H&R Block,,Fort Gregg Adams,VA,,US,+1 804-518-3076,https://www.hrblock.com/local-tax-offices/virginia/fort-gregg-adams/1431-sustainment-ave/19808/,,H&R Block,Q5627799
https://locations.jimmyjohns.com/va/fortlee/sandwiches-3733.html,jimmy_johns,Jimmy John's,,Fort Lee,VA,,US,+1 804-203-4075,https://locations.jimmyjohns.com/va/fortlee/sandwiches-3733.html,,Jimmy John's,Q1689380
va_fort-lee_1431-mahone-avenue,pizza_hut_us,1431 Mahone Avenue,,Fort Lee,VA,,US,,https://locations.pizzahut.com/va/fort-lee/1431-mahone-avenue,,Pizza Hut,Q191615
restaurant_84299,popeyes_us_fr,Popeyes,"(Military Post Access Required) 1431 Mahone Ave Fort Lee, Virginia 23801 - USA",Fort Lee,VA,,US,+1 804-861-3916,https://www.popeyes.com/store-locator/store/restaurant_84299,Mo-Su 11:00-17:00,Popeyes,Q1330910
https://locations.qdoba.com/us/va/fort-lee/300-a-ave.html,qdoba,QDOBA Fort Lee,,Fort Lee,VA,,US,+1 888-736-2224,https://locations.qdoba.com/us/va/fort-lee/300-a-ave.html,Mo-Su 11:00-18:00,Qdoba,Q1363885
https://restaurants.subway.com/#14908926,subway,Subway AAFES Food Court,,Fort Lee Prince George,VA,,US,+1 804-862-4642,https://restaurants.subway.com/united-states/va/fort-lee/1605-fort-lee,Mo-Su 11:00-16:00,Subway,Q244457
1A14,tmobile_us,AAFES Ft Gregg-Adams S VA,,Ft Gregg-Adams,VA,,US,,https://www.t-mobile.com/store-locator/va/ft-gregg-adams/aafes-ft-gregg-adams-s-va,,T-Mobile,Q3511885
1A15,tmobile_us,AAFES Ft Gregg-Adams VA,,Ft Gregg-Adams,VA,,US,,https://www.t-mobile.com/store-locator/va/ft-gregg-adams/aafes-ft-gregg-adams-va,,T-Mobile,Q3511885
042276,uhaul,AAAA Self Storage Petersburg,1607 E Washington St,Petersburg,VA,,US,+1 804-451-3668,,Mo-Fr 00:00-17:00; Sa 00:00-16:00,U-Haul,Q7862902
7527,upsstore,Fort Gregg-Adams,300 Adams Avenue Building 1605,Fort Gregg-Adams,VA,,US,+1 804-835-9624,https://locations.theupsstore.com/va/fort-gregg-adams/300-adams-avenue,,UPS Store,Q7771029
1437301,usps,FORT GREGG ADAMS,,FORT GREGG ADAMS,VA,,US,+1 804-861-0539,,Mo-Fr 09:00-16:30; Sa 09:00-13:00,United States Postal Service,Q668687
2380100014,usps_collection_boxes,USPS COLLECTION BOX - BLUE BOX,2401 QUARTERS RD,PETERSBURG,VA,,US,,,,United States Postal Service,Q668687
2380100015,usps_collection_boxes,USPS COLLECTION BOX - BLUE BOX,1300 E AVE,PETERSBURG,VA,,US,,,,United States Postal Service,Q668687
2380100009,usps_collection_boxes,USPS COLLECTION BOX - BLUE BOX,1401 MAHONE AVE,PETERSBURG,VA,,US,,,,United States Postal Service,Q668687
2380100010,usps_collection_boxes,USPS COLLECTION BOX - BLUE BOX,1401 MAHONE AVE,PETERSBURG,VA,,US,,,,United States Postal Service,Q668687
2380100017,usps_collection_boxes,USPS COLLECTION BOX - BLUE BOX,222 EDGEWOOD RD,PETERSBURG,VA,,US,,,,United States Postal Service,Q668687
2380100016,usps_collection_boxes,USPS COLLECTION BOX - BLUE BOX,821 11TH ST,PETERSBURG,VA,,US,,,,United States Postal Service,Q668687
,visa,,,FORT LEE,VA,,US,,,,,
,visa,,,FORT LEE,VA,,US,,,,,
,visa,,,FORT LEE,VA,,US,,,,,
,visa,,,FORT LEE,VA,,US,,,,,
,visa,,,FORT LEE,VA,,US,,,,,
,visa,,,FORT LEE,VA,,US,,,,,
,visa,,,FORT LEE,VA,,US,,,,,
,visa,,,FORT LEE,VA,,US,,,,,
,visa,,,FORT LEE,VA,,US,,,,,
,visa,,,FORT LEE,VA,,US,,,,,
,visa,,,FORT LEE,VA,,US,,,,,
,visa,,,FORT LEE,VA,,US,,,,,
,visa,,,FORT LEE,VA,,US,,,,,
,visa,,,FORT LEE,VA,,US,,,,,
,visa,,,FORT LEE,VA,,US,,,,,
,visa,,,FORT LEE,VA,,US,,,,,
,visa,,,FORT LEE,VA,,US,,,,,
,visa,,,FORT LEE,VA,,US,,,,,
,visa,,,FORT LEE,VA,,US,,,,,
,visa,,,FORT LEE,VA,,US,,,,,
,visa,,,FORT LEE,VA,,US,,,,,
,visa,,,FORT LEE,VA,,US,,,,,
,visa,,,FORT LEE,VA,,US,,,,,
,visa,,,FORT LEE,VA,,US,,,,,
,visa,,,FORT LEE,VA,,US,,,,,
,visa,,,PETERSBURG,VA,,US,,,,,
,visa,,,FORT LEE,VA,,US,,,,,
,visa,,,FORT LEE,VA,,US,,,,,
,visa,,,FORT LEE,VA,,US,,,,,
,visa,,,FORT LEE,VA,,US,,,,,
6b9623fdd2ff668558490bfc1cf0f88d,western_union,FT GREGG-ADAMS MS,,Ft Lee,VA,,US,+1 804-861-5972,https://location.westernunion.com/us/va/ft-lee/6b9623fdd2ff668558490bfc1cf0f88d,,Western Union,Q861042
