Ref,Spider,Name,Address,City,State,Zipcode,Country,Phone,Website,Hours,Brand,WikiData
16487,ace_hardware,Shinnston Ace Hardware,,Shinnston,WV,,US,+1 304-371-3512,,Mo-Sa 08:00-19:00; Su 10:00-16:00,Ace Hardware,Q4672981
https://stores.advanceautoparts.com/wv/shinnston/210-s-pike-st,advance_auto_parts_us,Advance Auto Parts,,Shinnston,WV,,US,+1 304-592-2095,https://stores.advanceautoparts.com/wv/shinnston/210-s-pike-st,Mo-Sa 07:30-21:00; Su 09:00-20:00,Advance Auto Parts,Q4686051
178317,bluerhino,Shinnston Price Cutter #5433,,Shinnston,WV,,US,+1 304-592-1512,,,Blue Rhino,Q65681213
187851,bluerhino,Family Dollar #01125,,Shinnston,WV,,US,+1 304-592-3852,,,Blue Rhino,Q65681213
196308,bluerhino,Shinnston Go-Mart #29,,Shinnston,WV,,US,+1 304-592-0316,,,Blue Rhino,Q65681213
178315,bluerhino,Fairmont Price Market #5445,,Fairmont,WV,,US,+1 304-366-8222,,,Blue Rhino,Q65681213
78123619885142643100100000000000,bp,BP,,Shinnston,WV,,US,+1 304-592-5618,,24/7,BP,Q152057
26068,citi,ATM 7ELEVEN-FCTI,,Shinnston,WV,,US,,,,Citibank,Q857063
88815,citi,ATM Walgreens,,Shinnston,WV,,US,,,,Citibank,Q857063
25592,dollar_general,Dollar General,,Shinnston,WV,,US,+1 304-371-2277,https://www.dollargeneral.com/store-directory/wv/shinnston/25592,Mo-Su 08:00-22:00,Dollar General,Q145168
https://local.fedex.com/#25205438,fedex,,,Shinnston,WV,,US,+1 800-463-3339,https://local.fedex.com/en-us/wv/shinnston/ckblb,,FedEx,Q459477
https://local.fedex.com/#25229941,fedex,,,Shinnston,WV,,US,+1 800-463-3339,https://local.fedex.com/en-us/wv/shinnston/ckbae,,FedEx,Q459477
1961,mightyflame,HAMMER'S MARKET,,SHINNSTON,WV,,US,+1 304-592-2198,,,Mighty Flame,
vincent-lumber-65319,ppgpaints,VINCENT LUMBER,,"Shinnston, ",WV,,US,+1 304-592-2293,https://www.ppgpaints.com/store-locator/us/west-virginia/shinnston-paint-stores/vincent-lumber-65319,,PPG Paints,Q83891559
35938,seven_eleven_ca_us,7-Eleven Store,,Shinnston,WV,,US,+1 304-592-5618,https://www.7-eleven.com/locations/wv/shinnston/1514-s-pike-st-35938,,7-Eleven,Q259340
https://restaurants.subway.com/#14983902,subway,Subway,,Shinnston Harrison,WV,,US,+1 304-592-0777,https://restaurants.subway.com/united-states/wv/shinnston/junction-19-&-20,Mo-Fr 07:00-22:00; Sa-Su 09:00-22:00,Subway,Q244457
0376472700,sunoco_us,Sunoco,,SHINNSTON,WV,,US,+1 304-592-1512,,Mo-Su 06:00-00:00,Sunoco,Q1423218
1381540,usps,SHINNSTON,,SHINNSTON,WV,,US,+1 304-592-2212,,"Mo-Fr 08:30-12:30,14:30-16:00; Sa 08:00-10:00",United States Postal Service,Q668687
2643100007,usps_collection_boxes,USPS COLLECTION BOX - BLUE BOX,540 S PIKE ST,SHINNSTON,WV,,US,,,,United States Postal Service,Q668687
2643100001,usps_collection_boxes,USPS COLLECTION BOX - BLUE BOX,412 PIKE ST,SHINNSTON,WV,,US,,,,United States Postal Service,Q668687
2643100000,usps_collection_boxes,USPS COLLECTION BOX - BLUE BOX,1001 HOOD AVE,SHINNSTON,WV,,US,,,,United States Postal Service,Q668687
2643100010,usps_collection_boxes,USPS COLLECTION BOX - PO LOBBY,1001 HOOD AVE,SHINNSTON,WV,,US,,,,United States Postal Service,Q668687
2643100012,usps_collection_boxes,USPS COLLECTION BOX - PO LOBBY,1001 HOOD AVE,SHINNSTON,WV,,US,,,,United States Postal Service,Q668687
,visa,,,SHINNSTON,WV,,US,,,,,
,visa,,,SHINNSTON,WV,,US,,,,,
,visa,,,SHINNSTON,WV,,US,,,,,
,visa,,,SHINNSTON,WV,,US,,,,,
,visa,,,SHINNSTON,WV,,US,,,,,
,visa,,,SHINNSTON,WV,,US,,,,,
,visa,,,SHINNSTON,WV,,US,,,,,
,visa,,,SHINNSTON,WV,,US,,,,,
,visa,,,SHINNSTON,WV,,US,,,,,
,visa,,,SHINNSTON,WV,,US,,,,,
,visa,,,SHINNSTON,WV,,US,,,,,
,visa,,,SHINNSTON,WV,,US,,,,,
,visa,,,SHINNSTON,WV,,US,,,,,
,visa,,,SHINNSTON,WV,,US,,,,,
,visa,,,SHINNSTON,WV,,US,,,,,
,visa,,,SHINNSTON,WV,,US,,,,,
https://www.walgreens.com/locator/walgreens-208+s+pike+st-shinnston-wv-26431/id=19094,walgreens,Walgreens,,Shinnston,WV,,US,+1 304-592-8003,https://www.walgreens.com/locator/walgreens-208+s+pike+st-shinnston-wv-26431/id=19094,Mo-Su 09:00-21:00,Walgreens,Q1591889
975d6f6f86ff164198ab0a49884e5881,western_union,WALGREENS #19094,,Shinnston,WV,,US,+1 304-592-8003,https://location.westernunion.com/us/wv/shinnston/975d6f6f86ff164198ab0a49884e5881,Mo-Fr 08:00-21:00; Sa 08:00-20:00; Su 08:00-19:00,Western Union,Q861042
