Ref,Spider,Name,Address,City,State,Zipcode,Country,Phone,Website,Hours,Brand,WikiData
150402,lukoil,MAZS No31380 (Belgorodskaya region),"Russia, Belgorod region, Belgorod, along the main street of regulated traffic from the roundabout, pr. Vatutina  and Gubkin st. to the Belgorod-Nikolskoye road",Belgorod,Belgorod,,RU,,,24/7,Лукойл,Q329347
136915,lukoil,AZSNo31814 Belgorod,"Russia, Belgorod region, Novosadovyy, within the boundaries AOZT ""Plodoovoshchnoy"" 13 km road ""Belgorod-Voronezh""",,Belgorod,,RU,,,24/7,Лукойл,Q329347
9,wildberries,Wildberries,"г. Белгород (Белгородская обл), ул. Белгородского полка, 62",Belgorodskiy Rayon,Belgorod,,RU,,,Mo-Su 10:00-21:00,Wildberries,Q24933714
868,wildberries,Wildberries,"Белгородская область, Белгород, Садовая улица, 118Г",Belgorodskiy Rayon,Belgorod,,RU,,,Mo-Su 10:00-21:00,Wildberries,Q24933714
1025,wildberries,Wildberries,"г. Алексеевка (Белгородская обл.), ул. Ольминского, д. 87А",,Belgorod,,RU,,,Mo-Su 10:00-21:00,Wildberries,Q24933714
1268,wildberries,Wildberries,"г. Белгород (Белгородская область), улица 5 Августа, д. 1А",Belgorodskiy Rayon,Belgorod,,RU,,,Mo-Su 10:00-21:00,Wildberries,Q24933714
1632,wildberries,Wildberries,"г. Валуйки (Белгородская область), улица 9 Января, д. 61а",,Belgorod,,RU,,,Mo-Su 10:00-19:00,Wildberries,Q24933714
2126,wildberries,Wildberries,"Белгородская область, Старый Оскол, микрорайон Парковый, 27",,Belgorod,,RU,,,Mo-Su 10:00-21:00,Wildberries,Q24933714
2127,wildberries,Wildberries,"г. Белгород (Белгородская область), улица Губкина, д. 20Б",Belgorodskiy Rayon,Belgorod,,RU,,,Mo-Su 10:00-21:00,Wildberries,Q24933714
2239,wildberries,Wildberries,"г. Алексеевка (Белгородская область), улица Некрасова, д. 9",,Belgorod,,RU,,,Mo-Su 08:00-22:00,Wildberries,Q24933714
2309,wildberries,Wildberries,"г. Белгород (Белгородская область), улица 60 лет Октября, д. 9А",Belgorodskiy Rayon,Belgorod,,RU,,,Mo-Su 10:00-21:00,Wildberries,Q24933714
2502,wildberries,Wildberries,"Белгородская область, Валуйки, Новая улица, 6/2",,Belgorod,,RU,,,Mo-Su 10:00-19:00,Wildberries,Q24933714
2539,wildberries,Wildberries,"Белгородская область, Короча, Советская улица, 26",,Belgorod,,RU,,,Mo-Su 10:00-21:00,Wildberries,Q24933714
2733,wildberries,Wildberries,"г. Белгород (Белгородская область), улица Щорса, д. 45К",Belgorodskiy Rayon,Belgorod,,RU,,,Mo-Su 10:00-21:00,Wildberries,Q24933714
2888,wildberries,Wildberries,"г. Алексеевка (Белгородская область), улица В. Собины, д. 4",,Belgorod,,RU,,,Mo-Su 10:00-21:00,Wildberries,Q24933714
2900,wildberries,Wildberries,"г. Белгород (Белгородская область), проспект Богдана Хмельницкого, д. 60А",Belgorodskiy Rayon,Belgorod,,RU,,,Mo-Su 10:00-21:00,Wildberries,Q24933714
3011,wildberries,Wildberries,"Белгородская область, Белгород, проспект Ватутина, 6",Belgorodskiy Rayon,Belgorod,,RU,,,Mo-Su 10:00-21:00,Wildberries,Q24933714
3107,wildberries,Wildberries,"Белгородская область, Старый Оскол, микрорайон Северный, 7",,Belgorod,,RU,,,Mo-Su 10:00-21:00,Wildberries,Q24933714
3127,wildberries,Wildberries,"Строитель (Белгородская область), улица Ленина, д. 15В",,Belgorod,,RU,,,Mo-Su 10:00-21:00,Wildberries,Q24933714
3239,wildberries,Wildberries,"г. Новый Оскол (Белгородская область), улица Ленина, д. 8 корп. 1",,Belgorod,,RU,,,Mo-Su 10:00-21:00,Wildberries,Q24933714
3515,wildberries,Wildberries,"г. Белгород (Белгородская область), улица Николая Чумичова, д. 40",Belgorodskiy Rayon,Belgorod,,RU,,,Mo-Su 10:00-21:00,Wildberries,Q24933714
3631,wildberries,Wildberries,"Белгородская область, Белгород, улица Есенина, 9к3",Belgorodskiy Rayon,Belgorod,,RU,,,Mo-Su 10:00-21:00,Wildberries,Q24933714
3695,wildberries,Wildberries,"г. Губкин (Белгородская область), улица Кирова, д. 30",,Belgorod,,RU,,,Mo-Su 08:00-22:00,Wildberries,Q24933714
3942,wildberries,Wildberries,"Белгородская область, Старый Оскол, микрорайон Восточный, 47",,Belgorod,,RU,,,Mo-Su 10:00-21:00,Wildberries,Q24933714
5067,wildberries,Wildberries,"посёлок городского типа Волоконовка (Белгородская область), улица Лавренова, д. 15",,Belgorod,,RU,,,Mo-Su 10:00-21:00,Wildberries,Q24933714
5233,wildberries,Wildberries,"г. Белгород (Белгородская область), улица Конева, д. 17",Belgorodskiy Rayon,Belgorod,,RU,,,Mo-Su 10:00-21:00,Wildberries,Q24933714
5489,wildberries,Wildberries,"г. Белгород (Белгородская область), улица Шаландина, д. 9",Belgorodskiy Rayon,Belgorod,,RU,,,Mo-Su 10:00-21:00,Wildberries,Q24933714
5633,wildberries,Wildberries,"Белгородская область, Валуйки, улица 1 Мая, 18",,Belgorod,,RU,,,Mo-Su 10:00-19:00,Wildberries,Q24933714
6044,wildberries,Wildberries,"посёлок Дубовое (Белгородская область), Лунная улица, д. 1",Belgorodskiy Rayon,Belgorod,,RU,,,Mo-Su 10:00-21:00,Wildberries,Q24933714
101494,wildberries,Wildberries,"г. Белгород (Белгородская область), улица Железнякова, д. 18",Belgorodskiy Rayon,Belgorod,,RU,,,Mo-Su 10:00-21:00,Wildberries,Q24933714
102246,wildberries,Wildberries,"Белгородская область, Белгород, улица Победы, 49к3",Belgorodskiy Rayon,Belgorod,,RU,,,Mo-Su 10:00-21:00,Wildberries,Q24933714
103100,wildberries,Wildberries,"г. Белгород (Белгородская область), улица Толстого, д. 37",Belgorodskiy Rayon,Belgorod,,RU,,,Mo-Su 10:00-21:00,Wildberries,Q24933714
103110,wildberries,Wildberries,"г. Белгород (Белгородская область), улица Чапаева, д. 14А",Belgorodskiy Rayon,Belgorod,,RU,,,Mo-Su 10:00-21:00,Wildberries,Q24933714
103680,wildberries,Wildberries,"посёлок городского типа Прохоровка (Белгородская область), Первомайская улица, д.1Ж",,Belgorod,,RU,,,Mo-Su 10:00-21:00,Wildberries,Q24933714
105197,wildberries,Wildberries,"г. Старый Оскол (Белгородская область), улица Ленина, д. 27",,Belgorod,,RU,,,Mo-Su 10:00-21:00,Wildberries,Q24933714
105788,wildberries,Wildberries,"г. Белгород (Белгородская область), бульвар Юности, д. 31",Belgorodskiy Rayon,Belgorod,,RU,,,Mo-Su 10:00-21:00,Wildberries,Q24933714
106026,wildberries,Wildberries,"Белгородская область, Валуйки, Коммунистическая улица, 109",,Belgorod,,RU,,,Mo-Su 10:00-19:00,Wildberries,Q24933714
106029,wildberries,Wildberries,г. Белгород (Белгородская обл) Газовиков 11,Belgorodskiy Rayon,Belgorod,,RU,,,Mo-Su 10:00-21:00,Wildberries,Q24933714
106650,wildberries,Wildberries,с. Чернянка (Белгородская обл) 20 Годовщины октября  24,,Belgorod,,RU,,,Mo-Su 10:00-21:00,Wildberries,Q24933714
107567,wildberries,Wildberries,"г Белгород (Белгородская обл), улица Макаренко  32",,Belgorod,,RU,,,Mo-Su 10:00-21:00,Wildberries,Q24933714
107670,wildberries,Wildberries,пгт. Северный (Белгородская область ) Садовая 84,,Belgorod,,RU,,,Mo-Su 10:00-21:00,Wildberries,Q24933714
108194,wildberries,Wildberries,"г Шебекино (Россия, Белгородская обл) ул. Ленина 62",,Belgorod,,RU,,,Mo-Su 10:00-19:00,Wildberries,Q24933714
108847,wildberries,Wildberries,"г Короча (Россия, Белгородская обл, Корочанский р-н) Красная Площадь 16а",,Belgorod,,RU,,,Mo-Su 10:00-21:00,Wildberries,Q24933714
109219,wildberries,Wildberries,"Белгородская область, Старый Оскол, микрорайон Олимпийский, 56с1",,Belgorod,,RU,,,Mo-Su 10:00-21:00,Wildberries,Q24933714
110267,wildberries,Wildberries,"г Шебекино (Белгородская область, Шебекинский городской округ) Октябрьская улица 11А",,Belgorod,,RU,,,Mo-Su 10:00-19:00,Wildberries,Q24933714
110616,wildberries,Wildberries,"Белгородская область, посёлок городского типа Вейделевка, Центральная улица, 2А",,Belgorod,,RU,,,Mo-Su 10:00-21:00,Wildberries,Q24933714
111549,wildberries,Wildberries,"Шебекино Белгородская область, Шебекинский городской округ Московская улица 11",,Belgorod,,RU,,,Mo-Su 10:00-19:00,Wildberries,Q24933714
111717,wildberries,Wildberries,г Грайворон (Белгородская область) улица Свердлова 66,,Belgorod,,RU,,,Mo-Su 10:00-19:00,Wildberries,Q24933714
112130,wildberries,Wildberries,"г Старый Оскол (Белгородская область), Дубрава-1  20",,Belgorod,,RU,,,Mo-Su 10:00-21:00,Wildberries,Q24933714
113041,wildberries,Wildberries,"Белгородская область, посёлок городского типа Уразово, улица Плеханова, 15/2",,Belgorod,,RU,,,Mo-Su 10:00-19:00,Wildberries,Q24933714
114581,wildberries,Wildberries,"г Старый Оскол (Белгородская область), Приборостроитель 27а",,Belgorod,,RU,,,Mo-Su 08:00-22:00,Wildberries,Q24933714
114729,wildberries,Wildberries,"г Белгород (Белгородская обл), Почтовая 50Б  ",,Belgorod,,RU,,,Mo-Su 10:00-21:00,Wildberries,Q24933714
115779,wildberries,Wildberries,"Дубовое (Белгородская обл), Счастливая улица 6",Belgorodskiy Rayon,Belgorod,,RU,,,Mo-Su 10:00-21:00,Wildberries,Q24933714
116134,wildberries,Wildberries,Губкин (Белгородская область) улица Лазарева 12,,Belgorod,,RU,,,Mo-Su 10:00-21:00,Wildberries,Q24933714
121160,wildberries,Wildberries,"с Таврово, Комсомольская 26б",Belgorodskiy Rayon,Belgorod,,RU,,,Mo-Su 10:00-21:00,Wildberries,Q24933714
121201,wildberries,Wildberries,"г Старый Оскол, Макаренко 3а",,Belgorod,,RU,,,Mo-Su 10:00-21:00,Wildberries,Q24933714
121442,wildberries,Wildberries,"г Белгород, Садовая Улица 25а",Belgorodskiy Rayon,Belgorod,,RU,,,Mo-Su 10:00-21:00,Wildberries,Q24933714
121444,wildberries,Wildberries,"г Белгород, Преображенская Улица 106",Belgorodskiy Rayon,Belgorod,,RU,,,Mo-Su 10:00-21:00,Wildberries,Q24933714
121476,wildberries,Wildberries,"рп Ивня, Советская Улица 2",,Belgorod,,RU,,,Mo-Su 10:00-21:00,Wildberries,Q24933714
121477,wildberries,Wildberries,"г Короча, Улица Красная Площадь 30",,Belgorod,,RU,,,Mo-Su 10:00-21:00,Wildberries,Q24933714
121478,wildberries,Wildberries,"г Бирюч, Соборная Площадь 20",,Belgorod,,RU,,,Mo-Su 10:00-21:00,Wildberries,Q24933714
121489,wildberries,Wildberries,"г Шебекино, Улица Ленина 13",,Belgorod,,RU,,,Mo-Su 09:00-20:00,Wildberries,Q24933714
121493,wildberries,Wildberries,"г Шебекино, Харьковская улица 12",,Belgorod,,RU,,,Mo-Su 10:00-21:00,Wildberries,Q24933714
121647,wildberries,Wildberries,"с Красное, Октябрьская Улица 90",,Belgorod,,RU,,,Mo-Su 10:00-21:00,Wildberries,Q24933714
121950,wildberries,Wildberries,"г Белгород, Улица Николая Чумичова 149",Belgorodskiy Rayon,Belgorod,,RU,,,Mo-Su 10:00-21:00,Wildberries,Q24933714
122057,wildberries,Wildberries,"г строитель, Улица Жукова 7",,Belgorod,,RU,,,Mo-Su 10:00-21:00,Wildberries,Q24933714
122352,wildberries,Wildberries,"п Новосадовый, Сторожевая Улица 10",Belgorodskiy Rayon,Belgorod,,RU,,,Mo-Su 10:00-21:00,Wildberries,Q24933714
122380,wildberries,Wildberries,"г Белгород, Улица Мичурина 54",Belgorodskiy Rayon,Belgorod,,RU,,,Mo-Su 10:00-21:00,Wildberries,Q24933714
123128,wildberries,Wildberries,"г Губкин, Улица Раевского 14а",,Belgorod,,RU,,,Mo-Su 09:00-21:00,Wildberries,Q24933714
123250,wildberries,Wildberries,"г Белгород, Улица Костюкова 35а",Belgorodskiy Rayon,Belgorod,,RU,,,Mo-Su 10:00-21:00,Wildberries,Q24933714
123258,wildberries,Wildberries,"п Северный, 2-Й Восточный Переулок 3",,Belgorod,,RU,,,Mo-Su 10:00-21:00,Wildberries,Q24933714
123975,wildberries,Wildberries,"г Губкин, Проспект Горняков 1в",,Belgorod,,RU,,,Mo-Su 09:00-21:00,Wildberries,Q24933714
124091,wildberries,Wildberries,"г Старый Оскол, Микрорайон Степной 13",,Belgorod,,RU,,,Mo-Su 09:00-22:00,Wildberries,Q24933714
124272,wildberries,Wildberries,"г Шебекино, Ржевское Шоссе 3б",,Belgorod,,RU,,,Mo-Su 10:00-21:00,Wildberries,Q24933714
124522,wildberries,Wildberries,"п Пролетарский, Пролетарская Улица 1",,Belgorod,,RU,,,Mo-Su 10:00-21:00,Wildberries,Q24933714
124523,wildberries,Wildberries,"п Ракитное, Пролетарская Улица 15",,Belgorod,,RU,,,Mo-Su 09:00-20:00,Wildberries,Q24933714
124525,wildberries,Wildberries,"г строитель, Промышленная Улица 69",,Belgorod,,RU,,,Mo-Su 10:00-21:00,Wildberries,Q24933714
124904,wildberries,Wildberries,"с Стрелецкое, Улица Королёва 54г",,Belgorod,,RU,,,Mo-Su 10:00-21:00,Wildberries,Q24933714
124964,wildberries,Wildberries,"п Томаровка, Улица Ленина 18",,Belgorod,,RU,,,Mo-Su 10:00-21:00,Wildberries,Q24933714
125470,wildberries,Wildberries,"г Валуйки, Улица Максима Горького 2",,Belgorod,,RU,,,Mo-Su 10:00-20:00,Wildberries,Q24933714
125664,wildberries,Wildberries,"г Белгород, Народный Бульвар 78",Belgorodskiy Rayon,Belgorod,,RU,,,Mo-Su 09:00-20:00,Wildberries,Q24933714
125956,wildberries,Wildberries,"п Борисовка, Улица Луначарского 2",,Belgorod,,RU,,,Mo-Su 10:00-21:00,Wildberries,Q24933714
126586,wildberries,Wildberries,"г Белгород, Улица Щорса 33",Belgorodskiy Rayon,Belgorod,,RU,,,Mo-Su 10:00-21:00,Wildberries,Q24933714
126608,wildberries,Wildberries,"Губкин Белгородская область, Губкинский городской округ Комсомольская улица 4",,Belgorod,,RU,,,Mo-Su 10:00-21:00,Wildberries,Q24933714
126642,wildberries,Wildberries,"п Троицкий, Молодёжная Улица 8",,Belgorod,,RU,,,Mo-Su 10:00-21:00,Wildberries,Q24933714
126656,wildberries,Wildberries,"пгт Разумное, Вересковая Улица 8",,Belgorod,,RU,,,Mo-Su 10:00-21:00,Wildberries,Q24933714
126923,wildberries,Wildberries,"п Борисовка, Улица Гагарина 73б",,Belgorod,,RU,,,Mo-Su 10:00-21:00,Wildberries,Q24933714
127263,wildberries,Wildberries,"г Белгород, Улица Князя Трубецкого 35а",Belgorodskiy Rayon,Belgorod,,RU,,,Mo-Su 09:00-21:00,Wildberries,Q24933714
127745,wildberries,Wildberries,"г Бирюч, Улица Маркина 1а/1",,Belgorod,,RU,,,Mo-Su 10:00-21:00,Wildberries,Q24933714
128462,wildberries,Wildberries,"п Чернянка, Улица Ленина 20",,Belgorod,,RU,,,Mo-Su 10:00-21:00,Wildberries,Q24933714
128817,wildberries,Wildberries,"г Белгород, Улица Князя Трубецкого 57",Belgorodskiy Rayon,Belgorod,,RU,,,Mo-Su 10:00-21:00,Wildberries,Q24933714
129206,wildberries,Wildberries,"г Белгород, Улица 3 Интернационала 25",Belgorodskiy Rayon,Belgorod,,RU,,,Mo-Su 10:00-21:00,Wildberries,Q24933714
129834,wildberries,Wildberries,"г Белгород, Улица Машковцева 22",,Belgorod,,RU,,,Mo-Su 10:00-21:00,Wildberries,Q24933714
130125,wildberries,Wildberries,"п Майский, Улица Кирова 12а",,Belgorod,,RU,,,Mo-Su 10:00-21:00,Wildberries,Q24933714
131358,wildberries,Wildberries,"г Белгород, Бульвар Юности 41",Belgorodskiy Rayon,Belgorod,,RU,,,Mo-Su 10:00-21:00,Wildberries,Q24933714
131637,wildberries,Wildberries,"г Губкин, Севастопольская Улица 57а",,Belgorod,,RU,,,Mo-Su 10:00-21:00,Wildberries,Q24933714
131902,wildberries,Wildberries,"г Губкин, Севастопольская Улица 101а",,Belgorod,,RU,,,Mo-Su 09:00-21:00,Wildberries,Q24933714
131949,wildberries,Wildberries,"Белгородская область, Старый Оскол, микрорайон Северный, 9",,Belgorod,,RU,,,Mo-Su 10:00-21:00,Wildberries,Q24933714
133527,wildberries,Wildberries,"с Новая Таволжанка, Улица 9 Мая 1",,Belgorod,,RU,,,Mo-Su 10:00-21:00,Wildberries,Q24933714
133648,wildberries,Wildberries,"пгт Октябрьский, Привокзальная Улица 17в",,Belgorod,,RU,,,Mo-Sa 09:00-20:00; Su 09:00-19:00,Wildberries,Q24933714
133697,wildberries,Wildberries,"г Новый Оскол, Кооперативная Улица 30",,Belgorod,,RU,,,Mo-Su 10:00-21:00,Wildberries,Q24933714
133866,wildberries,Wildberries,"Белгородская область, Алексеевка, улица Некрасова, 106/2",,Belgorod,,RU,,,Mo-Su 10:00-21:00,Wildberries,Q24933714
134037,wildberries,Wildberries,"г Белгород, Гостенская Улица 12",Belgorodskiy Rayon,Belgorod,,RU,,,Mo-Su 10:00-21:00,Wildberries,Q24933714
134411,wildberries,Wildberries,"с Головчино, Улица Карла Маркса 4б",,Belgorod,,RU,,,Mo-Su 09:00-20:00,Wildberries,Q24933714
134783,wildberries,Wildberries,"г Новый Оскол, Кирзаводская Улица 1",,Belgorod,,RU,,,Mo-Su 10:00-22:00,Wildberries,Q24933714
136090,wildberries,Wildberries,"г Белгород, Улица Конева 27а",Belgorodskiy Rayon,Belgorod,,RU,,,Mo-Fr 09:00-20:00; Sa-Su 10:00-21:00,Wildberries,Q24933714
136233,wildberries,Wildberries,"г Белгород, Спортивная Улица 6",Belgorodskiy Rayon,Belgorod,,RU,,,Mo-Su 10:00-21:00,Wildberries,Q24933714
137050,wildberries,Wildberries,"п Дубовое, Благодатная Улица 3а",Belgorodskiy Rayon,Belgorod,,RU,,,Mo-Su 10:00-21:00,Wildberries,Q24933714
137051,wildberries,Wildberries,"г Белгород, Южная Улица 5а",,Belgorod,,RU,,,Mo-Su 09:00-20:00,Wildberries,Q24933714
137248,wildberries,Wildberries,"г Белгород, Бульвар Строителей 18",Belgorodskiy Rayon,Belgorod,,RU,,,Mo-Su 10:00-21:00,Wildberries,Q24933714
138484,wildberries,Wildberries,"г Губкин, Улица Королёва 10",,Belgorod,,RU,,,Mo-Su 09:00-22:00,Wildberries,Q24933714
138847,wildberries,Wildberries,"г строитель, Улица 5 Августа 1а",,Belgorod,,RU,,,Mo-Su 10:00-21:00,Wildberries,Q24933714
139186,wildberries,Wildberries,"с Недоступовка, Советская Улица 26и",,Belgorod,,RU,,,Mo-Su 10:00-21:00,Wildberries,Q24933714
139295,wildberries,Wildberries,"г Старый Оскол, Микрорайон Королёва 29б",,Belgorod,,RU,,,Mo-Su 10:00-21:00,Wildberries,Q24933714
139521,wildberries,Wildberries,"г Губкин, Улица Дзержинского 113а",,Belgorod,,RU,,,Mo-Su 09:00-21:00,Wildberries,Q24933714
139875,wildberries,Wildberries,"г Белгород, Каштановая Улица 14",Belgorodskiy Rayon,Belgorod,,RU,,,Mo-Su 10:00-21:00,Wildberries,Q24933714
140142,wildberries,Wildberries,"Белгородская область, Старый Оскол, улица Ленина, 94",,Belgorod,,RU,,,Mo-Su 10:00-21:00,Wildberries,Q24933714
140430,wildberries,Wildberries,"г Новый Оскол, Улица Славы 27",,Belgorod,,RU,,,Mo-Su 09:00-20:00,Wildberries,Q24933714
140432,wildberries,Wildberries,"г Новый Оскол, Ливенская Улица 113",,Belgorod,,RU,,,Mo-Su 10:00-21:00,Wildberries,Q24933714
140886,wildberries,Wildberries,"г Белгород, Улица Попова 76а",Belgorodskiy Rayon,Belgorod,,RU,,,Mo-Su 10:00-21:00,Wildberries,Q24933714
140899,wildberries,Wildberries,"с Беломестное, Дорожная Улица 2в",Belgorodskiy Rayon,Belgorod,,RU,,,Mo-Su 10:00-21:00,Wildberries,Q24933714
141244,wildberries,Wildberries,"г Белгород, Томаровская Улица 4",Belgorodskiy Rayon,Belgorod,,RU,,,Mo-Su 10:00-21:00,Wildberries,Q24933714
141452,wildberries,Wildberries,"Разумное Белгородская область, Белгородский район Зелёная улица 1а",,Belgorod,,RU,,,Mo-Su 10:00-19:00,Wildberries,Q24933714
141607,wildberries,Wildberries,"г Белгород, Переулок Володарского 2",Belgorodskiy Rayon,Belgorod,,RU,,,Mo-Su 10:00-21:00,Wildberries,Q24933714
141821,wildberries,Wildberries,"г Белгород, Улица Пушкина 55",Belgorodskiy Rayon,Belgorod,,RU,,,Mo-Su 10:00-21:00,Wildberries,Q24933714
142210,wildberries,Wildberries,"г строитель, Улица Ленина 12а",,Belgorod,,RU,,,Mo-Su 10:00-21:00,Wildberries,Q24933714
142459,wildberries,Wildberries,"п Дубовое, Зелёная Улица 16",Belgorodskiy Rayon,Belgorod,,RU,,,Mo-Su 10:00-21:00,Wildberries,Q24933714
142597,wildberries,Wildberries,"пгт Маслова Пристань, Улица 1 Мая 65",,Belgorod,,RU,,,Mo-Su 10:00-21:00,Wildberries,Q24933714
142624,wildberries,Wildberries,"Новый Оскол Белгородская область, Новооскольский  округ Гражданская улица 36",,Belgorod,,RU,,,Mo-Su 10:00-21:00,Wildberries,Q24933714
142793,wildberries,Wildberries,Старый Оскол Белгородская область микрорайон Центральный 1,,Belgorod,,RU,,,Mo-Su 10:00-21:00,Wildberries,Q24933714
143067,wildberries,Wildberries,Белгород Белгородская область улица Белгородского Полка 40А,Belgorodskiy Rayon,Belgorod,,RU,,,Mo-Su 10:00-21:00,Wildberries,Q24933714
143422,wildberries,Wildberries,"г Белгород, Ботаническая Улица 17",Belgorodskiy Rayon,Belgorod,,RU,,,Mo-Su 10:00-21:00,Wildberries,Q24933714
143536,wildberries,Wildberries,"г Белгород, Бульвар 1 Салюта 6в",Belgorodskiy Rayon,Belgorod,,RU,,,Mo-Su 10:00-21:00,Wildberries,Q24933714
144267,wildberries,Wildberries,"п Борисовка, Улица Коминтерна 39б",,Belgorod,,RU,,,Mo-Su 10:00-21:00,Wildberries,Q24933714
144475,wildberries,Wildberries,"г Белгород, Сторожевая Улица 14",Belgorodskiy Rayon,Belgorod,,RU,,,Mo-Su 10:00-21:00,Wildberries,Q24933714
144651,wildberries,Wildberries,"г Белгород, Улица Будённого 14г",Belgorodskiy Rayon,Belgorod,,RU,,,Mo-Su 10:00-21:00,Wildberries,Q24933714
144766,wildberries,Wildberries,"д Алексеевка, Центральная Улица 1",,Belgorod,,RU,,,Mo-Su 09:00-21:00,Wildberries,Q24933714
144831,wildberries,Wildberries,"г Белгород, Улица Гагарина 17",Belgorodskiy Rayon,Belgorod,,RU,,,Mo-Su 10:00-23:00,Wildberries,Q24933714
145045,wildberries,Wildberries,"г Старый Оскол, Микрорайон Юность 3",,Belgorod,,RU,,,Mo-Su 09:00-21:00,Wildberries,Q24933714
145232,wildberries,Wildberries,"п Красная Яруга, Центральная Улица 41",,Belgorod,,RU,,,Mo-Su 09:00-21:00,Wildberries,Q24933714
145501,wildberries,Wildberries,"г Грайворон, Интернациональная Улица 2",,Belgorod,,RU,,,Mo-Su 09:00-20:00,Wildberries,Q24933714
146019,wildberries,Wildberries,"г Белгород, Улица Некрасова 6а",Belgorodskiy Rayon,Belgorod,,RU,,,Mo-Su 10:00-21:00,Wildberries,Q24933714
146404,wildberries,Wildberries,"с Стрелецкое, Привольная Улица 28",,Belgorod,,RU,,,Mo-Su 10:00-21:00,Wildberries,Q24933714
146409,wildberries,Wildberries,"пгт Прохоровка, Советская Улица 59а",,Belgorod,,RU,,,Mo-Su 10:00-21:00,Wildberries,Q24933714
146693,wildberries,Wildberries,"с Таврово, Улица Надежды 6",Belgorodskiy Rayon,Belgorod,,RU,,,Mo-Su 10:00-21:00,Wildberries,Q24933714
146736,wildberries,Wildberries,"г Старый Оскол, Микрорайон Солнечный 6",,Belgorod,,RU,,,Mo-Su 10:00-21:00,Wildberries,Q24933714
149047,wildberries,Wildberries,"Алексеевка Белгородская обл, Алексеевский р-н Комсомольская улица 60",,Belgorod,,RU,,,Mo-Su 10:00-21:00,Wildberries,Q24933714
149244,wildberries,Wildberries,"г Губкин, Улица Фрунзе 21а",,Belgorod,,RU,,,Mo-Su 10:00-21:00,Wildberries,Q24933714
149581,wildberries,Wildberries,"г Белгород, Михайловское Шоссе 18",,Belgorod,,RU,,,Mo-Su 10:00-21:00,Wildberries,Q24933714
150774,wildberries,Wildberries,"г Белгород, Улица Чапаева 28а",Belgorodskiy Rayon,Belgorod,,RU,,,Mo-Su 10:00-21:00,Wildberries,Q24933714
151339,wildberries,Wildberries,"г Белгород, Улица Виктора Лосева 9",,Belgorod,,RU,,,Mo-Su 09:00-20:00,Wildberries,Q24933714
151531,wildberries,Wildberries,"г Белгород, Улица Челюскинцев 55а",Belgorodskiy Rayon,Belgorod,,RU,,,Mo-Su 10:00-21:00,Wildberries,Q24933714
151625,wildberries,Wildberries,"пгт Разумное, Проспект Ленина 8",,Belgorod,,RU,,,Mo-Su 10:00-21:00,Wildberries,Q24933714
151672,wildberries,Wildberries,"п Комсомольский, Зелёная Улица 25а",,Belgorod,,RU,,,Mo-Su 10:00-21:00,Wildberries,Q24933714
151677,wildberries,Wildberries,"г Грайворон, Улица Мира 38",,Belgorod,,RU,,,Mo-Su 10:00-21:00,Wildberries,Q24933714
151738,wildberries,Wildberries,"г Белгород, Улица Губкина 18б",Belgorodskiy Rayon,Belgorod,,RU,,,Mo-Su 10:00-21:00,Wildberries,Q24933714
152012,wildberries,Wildberries,"г Шебекино, Улица Ленина 90",,Belgorod,,RU,,,Mo-Su 10:00-20:00,Wildberries,Q24933714
152182,wildberries,Wildberries,"пгт Разумное, Улица Ленина 4а",,Belgorod,,RU,,,Mo-Su 10:00-20:00,Wildberries,Q24933714
152407,wildberries,Wildberries,"г Белгород, Улица Есенина 44",Belgorodskiy Rayon,Belgorod,,RU,,,Mo-Su 10:00-21:00,Wildberries,Q24933714
152412,wildberries,Wildberries,"г Белгород, Улица Губкина 17",Belgorodskiy Rayon,Belgorod,,RU,,,Mo-Su 10:00-21:00,Wildberries,Q24933714
152552,wildberries,Wildberries,"г Белгород, Привольная Улица 66",Belgorodskiy Rayon,Belgorod,,RU,,,Mo-Su 10:00-21:00,Wildberries,Q24933714
152731,wildberries,Wildberries,"Белгородская область, Белгород, Гостенская улица, 2А",Belgorodskiy Rayon,Belgorod,,RU,,,Mo-Su 10:00-21:00,Wildberries,Q24933714
152972,wildberries,Wildberries,"г Белгород, Проспект Ватутина 18б",Belgorodskiy Rayon,Belgorod,,RU,,,Mo-Su 10:00-21:00,Wildberries,Q24933714
153374,wildberries,Wildberries,"г Губкин, Улица Королёва 6",,Belgorod,,RU,,,Mo-Su 10:00-21:00,Wildberries,Q24933714
154172,wildberries,Wildberries,"п Новосадовый, Ягодная Улица 2в",Belgorodskiy Rayon,Belgorod,,RU,,,Mo-Su 10:00-21:00,Wildberries,Q24933714
155448,wildberries,Wildberries,"г Губкин, Комсомольская Улица 43",,Belgorod,,RU,,,Mo-Su 10:00-21:00,Wildberries,Q24933714
155801,wildberries,Wildberries,"г Белгород, Улица Есенина 40",Belgorodskiy Rayon,Belgorod,,RU,,,Mo-Su 09:00-21:00,Wildberries,Q24933714
155802,wildberries,Wildberries,"г Белгород, Улица 3 Интернационала 23",Belgorodskiy Rayon,Belgorod,,RU,,,Mo-Su 09:00-21:00,Wildberries,Q24933714
155930,wildberries,Wildberries,"г Белгород, Улица Щорса 46",Belgorodskiy Rayon,Belgorod,,RU,,,Mo-Su 10:00-21:00,Wildberries,Q24933714
156726,wildberries,Wildberries,"Белгородская область, Валуйки, улица Максима Горького, 76/1",,Belgorod,,RU,,,Mo-Su 10:00-21:00,Wildberries,Q24933714
156963,wildberries,Wildberries,"п Чернянка, Улица Степана Разина 2",,Belgorod,,RU,,,Mo-Su 10:00-21:00,Wildberries,Q24933714
156978,wildberries,Wildberries,"г Белгород, Улица Победы 85а",Belgorodskiy Rayon,Belgorod,,RU,,,Mo-Su 10:00-21:00,Wildberries,Q24933714
157033,wildberries,Wildberries,"г Белгород, Славянская Улица 7а",Belgorodskiy Rayon,Belgorod,,RU,,,Mo-Su 10:00-21:00,Wildberries,Q24933714
157143,wildberries,Wildberries,"г Белгород, Улица Костюкова 13",Belgorodskiy Rayon,Belgorod,,RU,,,Mo-Su 09:00-20:00,Wildberries,Q24933714
157152,wildberries,Wildberries,"г Белгород, Улица Щорса 47б",Belgorodskiy Rayon,Belgorod,,RU,,,Mo-Su 10:00-21:00,Wildberries,Q24933714
157162,wildberries,Wildberries,"г Белгород, Улица Дегтярёва 2б",Belgorodskiy Rayon,Belgorod,,RU,,,Mo-Su 10:00-21:00,Wildberries,Q24933714
157207,wildberries,Wildberries,"г Бирюч, Красная Улица 20г",,Belgorod,,RU,,,Mo-Su 10:00-21:00,Wildberries,Q24933714
157220,wildberries,Wildberries,"г Губкин, Народная Улица 15а",,Belgorod,,RU,,,Mo-Su 10:00-21:00,Wildberries,Q24933714
157222,wildberries,Wildberries,"г. Алексеевка, Мостовая Улица 16",,Belgorod,,RU,,,Mo-Su 10:00-21:00,Wildberries,Q24933714
157224,wildberries,Wildberries,"г Белгород, Улица Будённого 3",Belgorodskiy Rayon,Belgorod,,RU,,,Mo-Su 10:00-21:00,Wildberries,Q24933714
157554,wildberries,Wildberries,"г Белгород, Молодёжная Улица 14",Belgorodskiy Rayon,Belgorod,,RU,,,Mo-Su 10:00-21:00,Wildberries,Q24933714
157777,wildberries,Wildberries,"рп Ивня, Коммунальная Улица 1а",,Belgorod,,RU,,,Mo-Su 09:00-20:00,Wildberries,Q24933714
157883,wildberries,Wildberries,"д Алексеевка, Деревня Алексеевка 28а",,Belgorod,,RU,,,Mo-Su 09:00-21:00,Wildberries,Q24933714
157979,wildberries,Wildberries,"г Губкин, Улица Ленина 28",,Belgorod,,RU,,,Mo-Su 10:00-21:00,Wildberries,Q24933714
158068,wildberries,Wildberries,"п Борисовка, Площадь Ушакова 12",,Belgorod,,RU,,,Mo-Su 09:00-20:00,Wildberries,Q24933714
158102,wildberries,Wildberries,"с Таврово, Садовая Улица 76",Belgorodskiy Rayon,Belgorod,,RU,,,Mo-Su 10:00-21:00,Wildberries,Q24933714
158174,wildberries,Wildberries,"пгт Разумное, Улица 78-Й Гвардейской Дивизии 9а",,Belgorod,,RU,,,Mo-Su 10:00-21:00,Wildberries,Q24933714
158179,wildberries,Wildberries,"г Белгород, Улица Кутузова 2а",,Belgorod,,RU,,,Mo-Su 10:00-21:00,Wildberries,Q24933714
158340,wildberries,Wildberries,"г Старый Оскол, Майская Улица 21",,Belgorod,,RU,,,Mo-Su 10:00-22:00,Wildberries,Q24933714
158584,wildberries,Wildberries,"г Белгород, Белгородский Проспект 36",Belgorodskiy Rayon,Belgorod,,RU,,,Mo-Su 10:00-21:00,Wildberries,Q24933714
158594,wildberries,Wildberries,"п Красная Яруга, Первомайская Улица 1а",,Belgorod,,RU,,,Mo-Su 10:00-21:00,Wildberries,Q24933714
158826,wildberries,Wildberries,"Белгородская область, посёлок городского типа Вейделевка, Центральная улица, 37А",,Belgorod,,RU,,,Mo-Su 10:00-21:00,Wildberries,Q24933714
159123,wildberries,Wildberries,"г Белгород, Садовая Улица 118ж",Belgorodskiy Rayon,Belgorod,,RU,,,Mo-Su 10:00-21:00,Wildberries,Q24933714
159459,wildberries,Wildberries,"г Белгород, Улица Толстого 51",Belgorodskiy Rayon,Belgorod,,RU,,,Mo-Su 10:00-21:00,Wildberries,Q24933714
159530,wildberries,Wildberries,"пгт Октябрьский, Улица Матросова 22а",,Belgorod,,RU,,,Mo-Su 09:00-20:00,Wildberries,Q24933714
159533,wildberries,Wildberries,"г Белгород, Улица Губкина 54",Belgorodskiy Rayon,Belgorod,,RU,,,Mo-Su 10:00-21:00,Wildberries,Q24933714
159639,wildberries,Wildberries,"г Белгород, Улица Шершнева 28",Belgorodskiy Rayon,Belgorod,,RU,,,Mo-Su 10:00-21:00,Wildberries,Q24933714
159945,wildberries,Wildberries,"Белгородская область, Губкин, Севастопольская улица, 18",,Belgorod,,RU,,,Mo-Su 10:00-21:00,Wildberries,Q24933714
160284,wildberries,Wildberries,"г строитель, Октябрьская Улица 24",,Belgorod,,RU,,,Mo-Su 09:00-20:00,Wildberries,Q24933714
160393,wildberries,Wildberries,"г Белгород, Проспект Богдана Хмельницкого 156",Belgorodskiy Rayon,Belgorod,,RU,,,Mo-Su 10:00-21:00,Wildberries,Q24933714
160439,wildberries,Wildberries,"пгт Октябрьский, Улица Матросова 3",,Belgorod,,RU,,,Mo-Su 10:00-21:00,Wildberries,Q24933714
160446,wildberries,Wildberries,"г Старый Оскол, Микрорайон Жукова 52",,Belgorod,,RU,,,Mo-Su 09:00-20:00,Wildberries,Q24933714
160507,wildberries,Wildberries,"г Белгород, Бульвар Юности 7",Belgorodskiy Rayon,Belgorod,,RU,,,Mo-Su 10:00-21:00,Wildberries,Q24933714
161032,wildberries,Wildberries,"г Новый Оскол, Ливенская Улица 130а",,Belgorod,,RU,,,Mo-Su 09:00-21:00,Wildberries,Q24933714
161318,wildberries,Wildberries,"Белгород, улица Костюкова 55",Belgorodskiy Rayon,Belgorod,,RU,,,Mo-Su 10:00-21:00,Wildberries,Q24933714
161342,wildberries,Wildberries,"г Старый Оскол, Микрорайон Макаренко 5",,Belgorod,,RU,,,Mo-Su 10:00-21:00,Wildberries,Q24933714
161379,wildberries,Wildberries,"Белгородская область, село Иловка, Красногвардейская улица, 2",,Belgorod,,RU,,,Mo-Su 10:00-21:00,Wildberries,Q24933714
161439,wildberries,Wildberries,"г Белгород, Улица Имени Героя Советского Союза А.И. Орлова 84",,Belgorod,,RU,,,Mo-Su 10:00-21:00,Wildberries,Q24933714
161499,wildberries,Wildberries,"с Нежеголь, Улица Пески 31",,Belgorod,,RU,,,Mo-Su 10:00-21:00,Wildberries,Q24933714
161502,wildberries,Wildberries,"п Северный, Олимпийская Улица 4а",,Belgorod,,RU,,,Mo-Su 10:00-21:00,Wildberries,Q24933714
161845,wildberries,Wildberries,"г Старый Оскол, Микрорайон Дубрава 31а",,Belgorod,,RU,,,Mo-Su 09:00-21:00,Wildberries,Q24933714
162438,wildberries,Wildberries,"г Губкин, Улица Белинского 8а",,Belgorod,,RU,,,Mo-Su 10:00-21:00,Wildberries,Q24933714
162628,wildberries,Wildberries,"г Старый Оскол, Микрорайон Юбилейный 7а",,Belgorod,,RU,,,Mo-Su 10:00-21:00,Wildberries,Q24933714
162754,wildberries,Wildberries,"г Белгород, Переулок Королёва 2",,Belgorod,,RU,,,Mo-Su 10:00-21:00,Wildberries,Q24933714
162756,wildberries,Wildberries,"г Старый Оскол, Микрорайон Макаренко 11в",,Belgorod,,RU,,,Mo-Su 09:00-20:00,Wildberries,Q24933714
162785,wildberries,Wildberries,"г Старый Оскол, Микрорайон Северный 31",,Belgorod,,RU,,,Mo-Su 10:00-21:00,Wildberries,Q24933714
162789,wildberries,Wildberries,"г Белгород, Привольная Улица 1г",Belgorodskiy Rayon,Belgorod,,RU,,,Mo-Su 10:00-21:00,Wildberries,Q24933714
162815,wildberries,Wildberries,"г Белгород, Проспект Богдана Хмельницкого 134а",Belgorodskiy Rayon,Belgorod,,RU,,,Mo-Su 10:00-21:00,Wildberries,Q24933714
162970,wildberries,Wildberries,"г Старый Оскол, Микрорайон Горняк 16",,Belgorod,,RU,,,Mo-Su 10:00-21:00,Wildberries,Q24933714
162975,wildberries,Wildberries,"с Бехтеевка, Улица Дорошенко 36",,Belgorod,,RU,,,Mo-Su 10:00-21:00,Wildberries,Q24933714
162977,wildberries,Wildberries,"п Вейделевка, Центральная Улица 44",,Belgorod,,RU,,,Mo-Su 09:00-20:00,Wildberries,Q24933714
163196,wildberries,Wildberries,"п Пролетарский, Улица Ватутина 11в",,Belgorod,,RU,,,Mo-Su 10:00-21:00,Wildberries,Q24933714
163348,wildberries,Wildberries,"пгт Разумное, Сиреневый Бульвар 4а",,Belgorod,,RU,,,Mo-Su 10:00-22:00,Wildberries,Q24933714
163484,wildberries,Wildberries,"с Репное, Попутная Улица 15а",,Belgorod,,RU,,,Mo-Su 10:00-21:00,Wildberries,Q24933714
163486,wildberries,Wildberries,"п Дубовое, Счастливая Улица 3",Belgorodskiy Rayon,Belgorod,,RU,,,Mo-Su 10:00-21:00,Wildberries,Q24933714
163578,wildberries,Wildberries,"п Новосадовый, Центральная Улица 2б",Belgorodskiy Rayon,Belgorod,,RU,,,Mo-Su 10:00-21:00,Wildberries,Q24933714
163968,wildberries,Wildberries,"п Красная Яруга, Трудовая Улица 14",,Belgorod,,RU,,,Mo-Fr 09:00-20:00; Sa-Su 09:00-19:00,Wildberries,Q24933714
163993,wildberries,Wildberries,"г Белгород, Улица Попова 37",Belgorodskiy Rayon,Belgorod,,RU,,,Mo-Su 10:00-21:00,Wildberries,Q24933714
164036,wildberries,Wildberries,"п Майский, Зелёная Улица 14",,Belgorod,,RU,,,Mo-Su 10:00-21:00,Wildberries,Q24933714
164148,wildberries,Wildberries,"п Дубовое, Зелёная Улица 2г",Belgorodskiy Rayon,Belgorod,,RU,,,Mo-Su 10:00-21:00,Wildberries,Q24933714
164156,wildberries,Wildberries,"г Старый Оскол, Микрорайон Олимпийский 55",,Belgorod,,RU,,,Mo-Su 10:00-21:00,Wildberries,Q24933714
164171,wildberries,Wildberries,"г Старый Оскол, Микрорайон Конева 10",,Belgorod,,RU,,,Mo-Su 10:00-21:00,Wildberries,Q24933714
164189,wildberries,Wildberries,"г Белгород, Улица Апанасенко 56",Belgorodskiy Rayon,Belgorod,,RU,,,Mo-Su 10:00-21:00,Wildberries,Q24933714
164201,wildberries,Wildberries,"г Белгород, Улица Костюкова 69",Belgorodskiy Rayon,Belgorod,,RU,,,Mo-Su 10:00-21:00,Wildberries,Q24933714
164208,wildberries,Wildberries,"г Белгород, Гражданский Проспект 5",Belgorodskiy Rayon,Belgorod,,RU,,,Mo-Su 10:00-21:00,Wildberries,Q24933714
164240,wildberries,Wildberries,"г Белгород, Бульвар Юности 39",Belgorodskiy Rayon,Belgorod,,RU,,,Mo-Su 10:00-21:00,Wildberries,Q24933714
164269,wildberries,Wildberries,"п Северный, Шоссейная Улица 34б",,Belgorod,,RU,,,Mo-Su 10:00-21:00,Wildberries,Q24933714
164353,wildberries,Wildberries,"г Белгород, Улица Дегтярёва 2а",Belgorodskiy Rayon,Belgorod,,RU,,,Mo-Su 09:00-21:00,Wildberries,Q24933714
164355,wildberries,Wildberries,"г строитель, Улица Жукова 8",,Belgorod,,RU,,,Mo-Su 10:00-21:00,Wildberries,Q24933714
164362,wildberries,Wildberries,"г Белгород, Преображенская Улица 53",Belgorodskiy Rayon,Belgorod,,RU,,,Mo-Su 10:00-21:00,Wildberries,Q24933714
164377,wildberries,Wildberries,"г Валуйки, Улица Максима Горького 82а",,Belgorod,,RU,,,Mo-Fr 09:00-21:00; Sa-Su 10:00-20:00,Wildberries,Q24933714
165172,wildberries,Wildberries,"с Стрелецкое, Советская Улица 5",,Belgorod,,RU,,,Mo-Su 10:00-21:00,Wildberries,Q24933714
166077,wildberries,Wildberries,"Белгородская область, Алексеевка, улица Маяковского, 138",,Belgorod,,RU,,,Mo-Su 10:00-21:00,Wildberries,Q24933714
166602,wildberries,Wildberries,"Белгородская область, Старый Оскол, микрорайон Королёва, 33",,Belgorod,,RU,,,Mo-Su 10:00-21:00,Wildberries,Q24933714
166923,wildberries,Wildberries,"г Шебекино, Ржевское Шоссе 314",,Belgorod,,RU,,,Mo-Su 10:00-21:00,Wildberries,Q24933714
166978,wildberries,Wildberries,"г Старый Оскол, Бульвар Дружбы 6",,Belgorod,,RU,,,Mo-Su 10:00-21:00,Wildberries,Q24933714
167141,wildberries,Wildberries,"г Старый Оскол, Центральная Улица 27",,Belgorod,,RU,,,Mo-Su 10:00-21:00,Wildberries,Q24933714
167621,wildberries,Wildberries,"Белгородская область, Старый Оскол, микрорайон Степной, 18",,Belgorod,,RU,,,Mo-Su 10:00-21:00,Wildberries,Q24933714
168753,wildberries,Wildberries,"г Белгород, Юбилейная Улица 1",,Belgorod,,RU,,,Mo-Su 10:00-21:00,Wildberries,Q24933714
169785,wildberries,Wildberries,"п Новосадовый, Тенистая Улица 37",,Belgorod,,RU,,,Mo-Su 10:00-21:00,Wildberries,Q24933714
170169,wildberries,Wildberries,"г Губкин, Улица Ленина 70",,Belgorod,,RU,,,Mo-Su 10:00-21:00,Wildberries,Q24933714
170558,wildberries,Wildberries,"г Короча, Площадь Васильева 24",,Belgorod,,RU,,,Mo-Su 10:00-21:00,Wildberries,Q24933714
171250,wildberries,Wildberries,"Белгородская область, Старый Оскол, улица Хмелёва, 26",,Belgorod,,RU,,,Mo-Su 10:00-21:00,Wildberries,Q24933714
171361,wildberries,Wildberries,"г Шебекино, Улица Ленина 41",,Belgorod,,RU,,,Mo-Su 10:00-19:00,Wildberries,Q24933714
171588,wildberries,Wildberries,"г Белгород, Магистральная Улица 2в",Belgorodskiy Rayon,Belgorod,,RU,,,Mo-Su 10:00-21:00,Wildberries,Q24933714
172050,wildberries,Wildberries,"г Старый Оскол, Микрорайон Молодогвардеец 17",,Belgorod,,RU,,,Mo-Su 10:00-22:00,Wildberries,Q24933714
172546,wildberries,Wildberries,"г Белгород, Садовая Улица 14",Belgorodskiy Rayon,Belgorod,,RU,,,Mo-Su 10:00-21:00,Wildberries,Q24933714
172656,wildberries,Wildberries,"г Белгород, Корочанская Улица 409а",Belgorodskiy Rayon,Belgorod,,RU,,,Mo-Su 10:00-21:00,Wildberries,Q24933714
172762,wildberries,Wildberries,"г строитель, Улица Ленина 19а",,Belgorod,,RU,,,Mo-Su 10:00-21:00,Wildberries,Q24933714
172823,wildberries,Wildberries,"г Белгород, Октябрьская Улица 35",Belgorodskiy Rayon,Belgorod,,RU,,,Mo-Su 10:00-21:00,Wildberries,Q24933714
200248,wildberries,Wildberries,"г Белгород, Переулок Макаренко 12",,Belgorod,,RU,,,Mo-Su 10:00-21:00,Wildberries,Q24933714
200356,wildberries,Wildberries,"село Великомихайловка, Улица 40 Лет Октября 11",,Belgorod,,RU,,,Mo-Su 10:00-21:00,Wildberries,Q24933714
200512,wildberries,Wildberries,"посёлок городского типа Ивня, Улица Десницкого 3а",,Belgorod,,RU,,,Mo-Su 10:00-21:00,Wildberries,Q24933714
200547,wildberries,Wildberries,"г Белгород, Улица Шаландина 4к1",Belgorodskiy Rayon,Belgorod,,RU,,,Mo-Su 10:00-21:00,Wildberries,Q24933714
201076,wildberries,Wildberries,"Белгород, Октябрьская Улица 63а",Belgorodskiy Rayon,Belgorod,,RU,,,Mo-Su 10:00-21:00,Wildberries,Q24933714
201081,wildberries,Wildberries,"Старый Оскол, Комсомольский Проспект 3б",,Belgorod,,RU,,,Mo-Su 10:00-21:00,Wildberries,Q24933714
202304,wildberries,Wildberries,"Белгород, Улица Щорса 8в",Belgorodskiy Rayon,Belgorod,,RU,,,Mo-Su 10:00-21:00,Wildberries,Q24933714
202343,wildberries,Wildberries,"г Старый Оскол, Микрорайон Рудничный 16а",,Belgorod,,RU,,,Mo-Su 10:00-21:00,Wildberries,Q24933714
202404,wildberries,Wildberries,"село Гостищево, Комсомольская Улица 11",,Belgorod,,RU,,,Mo-Su 10:00-21:00,Wildberries,Q24933714
202748,wildberries,Wildberries,"село Весёлая Лопань, Кооперативная Улица 32",,Belgorod,,RU,,,Mo-Su 10:00-21:00,Wildberries,Q24933714
203004,wildberries,Wildberries,"село Таврово, Народная Улица 1б",Belgorodskiy Rayon,Belgorod,,RU,,,Mo-Su 10:00-21:00,Wildberries,Q24933714
203005,wildberries,Wildberries,"Алексеевка, Заводская Улица 8",,Belgorod,,RU,,,Mo-Su 10:00-21:00,Wildberries,Q24933714
203008,wildberries,Wildberries,"посёлок городского типа Ракитное, Улица Федутенко 3",,Belgorod,,RU,,,Mo-Su 10:00-21:00,Wildberries,Q24933714
203009,wildberries,Wildberries,"село Бессоновка, Улица Гагарина 5",,Belgorod,,RU,,,Mo-Su 10:00-21:00,Wildberries,Q24933714
203050,wildberries,Wildberries,"посёлок городского типа Томаровка, Белгородская Улица 116",,Belgorod,,RU,,,Mo-Su 10:00-21:00,Wildberries,Q24933714
203149,wildberries,Wildberries,"посёлок городского типа Разумное, Новая Улица 23",,Belgorod,,RU,,,Mo-Su 10:00-21:00,Wildberries,Q24933714
203150,wildberries,Wildberries,"Губкин, Покровская Улица 86",,Belgorod,,RU,,,Mo-Su 10:00-21:00,Wildberries,Q24933714
203151,wildberries,Wildberries,"Губкин, Улица Космонавтов 1",,Belgorod,,RU,,,Mo-Su 10:00-21:00,Wildberries,Q24933714
203174,wildberries,Wildberries,"г Старый Оскол, Микрорайон Жукова 23",,Belgorod,,RU,,,Mo-Su 09:00-20:00,Wildberries,Q24933714
203600,wildberries,Wildberries,"село Таврово, Урожайная Улица 35а",Belgorodskiy Rayon,Belgorod,,RU,,,Mo-Su 10:00-21:00,Wildberries,Q24933714
203819,wildberries,Wildberries,"Старый Оскол, Микрорайон Южный 5",,Belgorod,,RU,,,Mo-Su 09:00-21:00,Wildberries,Q24933714
204837,wildberries,Wildberries,"село Никольское, Улица Ударников 33а",,Belgorod,,RU,,,Mo-Su 10:00-21:00,Wildberries,Q24933714
205618,wildberries,Wildberries,"посёлок Майский, Садовая Улица 14",,Belgorod,,RU,,,Mo-Su 10:00-21:00,Wildberries,Q24933714
206446,wildberries,Wildberries,"село Лапыгино, Центральная Улица 99",,Belgorod,,RU,,,Mo-Su 10:00-21:00,Wildberries,Q24933714
206577,wildberries,Wildberries,"Белгород, Проспект Богдана Хмельницкого 133в",Belgorodskiy Rayon,Belgorod,,RU,,,Mo-Su 10:00-21:00,Wildberries,Q24933714
206676,wildberries,Wildberries,"Белгородская область, Губкин, Мичуринский микрорайон, 5",,Belgorod,,RU,,,Mo-Su 10:00-21:00,Wildberries,Q24933714
206691,wildberries,Wildberries,"Новый Оскол, Площадь Революции 24",,Belgorod,,RU,,,Mo-Su 10:00-21:00,Wildberries,Q24933714
207669,wildberries,Wildberries,"село Скородное, Улица Победы 12",,Belgorod,,RU,,,Mo-Su 10:00-21:00,Wildberries,Q24933714
207701,wildberries,Wildberries,"Старый Оскол, Коммунистическая Улица 12к1",,Belgorod,,RU,,,Mo-Su 09:00-21:00,Wildberries,Q24933714
207720,wildberries,Wildberries,"Белгородская область, Белгород, улица Князя Трубецкого, 26А",Belgorodskiy Rayon,Belgorod,,RU,,,Mo-Su 10:00-21:00,Wildberries,Q24933714
208183,wildberries,Wildberries,"Белгородская область, посёлок городского типа Томаровка, Магистральная улица, 21Б",,Belgorod,,RU,,,Mo-Su 10:00-21:00,Wildberries,Q24933714
208967,wildberries,Wildberries,"Белгородская область, Белгород, улица Губкина, 32",Belgorodskiy Rayon,Belgorod,,RU,,,Mo-Su 10:00-21:00,Wildberries,Q24933714
209115,wildberries,Wildberries,"Старый Оскол, Мирная Улица 60",,Belgorod,,RU,,,Mo-Su 10:00-21:00,Wildberries,Q24933714
209164,wildberries,Wildberries,"Старый Оскол, Микрорайон Лесной 14",,Belgorod,,RU,,,Mo-Su 10:00-21:00,Wildberries,Q24933714
209711,wildberries,Wildberries,"Старый Оскол, Улица Титова 19",,Belgorod,,RU,,,Mo-Su 09:00-21:00,Wildberries,Q24933714
209835,wildberries,Wildberries,"Белгородская область, Старый Оскол, Комсомольский проспект, 31",,Belgorod,,RU,,,Mo-Su 10:00-21:00,Wildberries,Q24933714
209920,wildberries,Wildberries,"Белгород, Улица Горького 54а",Belgorodskiy Rayon,Belgorod,,RU,,,Mo-Su 10:00-21:00,Wildberries,Q24933714
210451,wildberries,Wildberries,"Белгородская область, Белгород, улица Костюкова, 34",Belgorodskiy Rayon,Belgorod,,RU,,,Mo-Su 10:00-21:00,Wildberries,Q24933714
210754,wildberries,Wildberries,"Шебекино, Улица Ленина 57а",,Belgorod,,RU,,,Mo-Su 10:00-21:00,Wildberries,Q24933714
210762,wildberries,Wildberries,"Белгородская область, Старый Оскол, микрорайон Олимпийский, 30с1",,Belgorod,,RU,,,Mo-Su 10:00-21:00,Wildberries,Q24933714
210804,wildberries,Wildberries,"посёлок городского типа Разумное, Улица Бельгина 8",,Belgorod,,RU,,,Mo-Su 10:00-21:00,Wildberries,Q24933714
210894,wildberries,Wildberries,"Белгородская область, Белгород, улица Мичурина, 43",Belgorodskiy Rayon,Belgorod,,RU,,,Mo-Su 10:00-21:00,Wildberries,Q24933714
211606,wildberries,Wildberries,"Белгородская область, посёлок городского типа Волоконовка, улица Чехова, 66А",,Belgorod,,RU,,,Mo-Su 10:00-21:00,Wildberries,Q24933714
211900,wildberries,Wildberries,"Белгородская область, рабочий посёлок Волоконовка, улица Корнилова, 23А",,Belgorod,,RU,,,Mo-Su 10:00-21:00,Wildberries,Q24933714
212070,wildberries,Wildberries,"Белгородская область, посёлок городского типа Волоконовка, улица Ленина, 22",,Belgorod,,RU,,,Mo-Su 10:00-21:00,Wildberries,Q24933714
212398,wildberries,Wildberries,"Белгородская область, Белгород, проспект Славы, 125А",Belgorodskiy Rayon,Belgorod,,RU,,,Mo-Su 10:00-21:00,Wildberries,Q24933714
212788,wildberries,Wildberries,"Белгородская область, Валуйки, улица Курячего, 14/3",,Belgorod,,RU,,,Mo-Su 10:00-21:00,Wildberries,Q24933714
212827,wildberries,Wildberries,"Белгород, Каштановая Улица 39",Belgorodskiy Rayon,Belgorod,,RU,,,Mo-Su 10:00-21:00,Wildberries,Q24933714
213239,wildberries,Wildberries,"Белгород, Проспект Богдана Хмельницкого 62а",Belgorodskiy Rayon,Belgorod,,RU,,,Mo-Su 10:00-21:00,Wildberries,Q24933714
213280,wildberries,Wildberries,"посёлок городского типа Волоконовка, Улица Курочкина 13",,Belgorod,,RU,,,Mo-Su 09:00-21:00,Wildberries,Q24933714
213537,wildberries,Wildberries,"Старый Оскол, Микрорайон Дубрава 15",,Belgorod,,RU,,,Mo-Su 10:00-21:00,Wildberries,Q24933714
213604,wildberries,Wildberries,"село Красное, Подгорная Улица 7",,Belgorod,,RU,,,Mo-Su 10:00-21:00,Wildberries,Q24933714
213759,wildberries,Wildberries,"Старый Оскол, Микрорайон Парковый 33",,Belgorod,,RU,,,Mo-Su 10:00-21:00,Wildberries,Q24933714
214091,wildberries,Wildberries,"Старый Оскол, Микрорайон Зелёный Лог 7",,Belgorod,,RU,,,Mo-Su 10:00-21:00,Wildberries,Q24933714
214219,wildberries,Wildberries,"Алексеевка, Мостовая Улица 83",,Belgorod,,RU,,,Mo-Su 10:00-21:00,Wildberries,Q24933714
214374,wildberries,Wildberries,"село Городище, Улица Ленина 247",,Belgorod,,RU,,,Mo-Su 10:00-21:00,Wildberries,Q24933714
214421,wildberries,Wildberries,"Белгород, Молодёжная Улица 2",Belgorodskiy Rayon,Belgorod,,RU,,,Mo-Su 10:00-21:00,Wildberries,Q24933714
214555,wildberries,Wildberries,"Белгород, Улица Губкина 42г",Belgorodskiy Rayon,Belgorod,,RU,,,Mo-Su 10:00-21:00,Wildberries,Q24933714
214719,wildberries,Wildberries,"село Крутой Лог, 1-Й Восточный Переулок 6б",,Belgorod,,RU,,,Mo-Su 10:00-21:00,Wildberries,Q24933714
214825,wildberries,Wildberries,"Старый Оскол, Микрорайон Макаренко 4ас1",,Belgorod,,RU,,,Mo-Su 10:00-21:00,Wildberries,Q24933714
215518,wildberries,Wildberries,"Белгород, Проспект Ватутина 13а",Belgorodskiy Rayon,Belgorod,,RU,,,Mo-Su 10:00-21:00,Wildberries,Q24933714
215568,wildberries,Wildberries,"Старый Оскол, Микрорайон Интернациональный 39",,Belgorod,,RU,,,Mo-Su 10:00-21:00,Wildberries,Q24933714
215681,wildberries,Wildberries,"Белгород, Белгородский Проспект 54",Belgorodskiy Rayon,Belgorod,,RU,,,Mo-Su 10:00-21:00,Wildberries,Q24933714
215703,wildberries,Wildberries,"село Таврово, Пригородная Улица 6а",,Belgorod,,RU,,,Mo-Su 10:00-21:00,Wildberries,Q24933714
215732,wildberries,Wildberries,"Старый Оскол, Микрорайон Приборостроитель 7",,Belgorod,,RU,,,Mo-Su 10:00-21:00,Wildberries,Q24933714
215778,wildberries,Wildberries,"Белгород, Улица Мокроусова 5а",Belgorodskiy Rayon,Belgorod,,RU,,,Mo-Su 10:00-21:00,Wildberries,Q24933714
215899,wildberries,Wildberries,"село Незнамово, Центральная Улица 20а",,Belgorod,,RU,,,Mo-Su 10:00-21:00,Wildberries,Q24933714
215995,wildberries,Wildberries,"рабочий посёлок Волоконовка, Улица Ленина 57",,Belgorod,,RU,,,Mo-Su 10:00-21:00,Wildberries,Q24933714
216048,wildberries,Wildberries,"Грайворон, Улица Тарана 49",,Belgorod,,RU,,,Mo-Su 10:00-21:00,Wildberries,Q24933714
216064,wildberries,Wildberries,"Белгород, Народный Бульвар 89а",Belgorodskiy Rayon,Belgorod,,RU,,,Mo-Su 10:00-21:00,Wildberries,Q24933714
216097,wildberries,Wildberries,"Белгород, Улица Щорса 8б",Belgorodskiy Rayon,Belgorod,,RU,,,Mo-Su 10:00-21:00,Wildberries,Q24933714
216125,wildberries,Wildberries,"Белгородская область, Алексеевка, Никольская улица, 8",,Belgorod,,RU,,,Mo-Su 10:00-21:00,Wildberries,Q24933714
216238,wildberries,Wildberries,"Строитель, Центральная Улица 9а",,Belgorod,,RU,,,Mo-Su 10:00-21:00,Wildberries,Q24933714
216301,wildberries,Wildberries,"Белгородская область, село Никитовка, улица Калинина, 27",,Belgorod,,RU,,,Mo-Su 10:00-21:00,Wildberries,Q24933714
216488,wildberries,Wildberries,"село Ближняя Игуменка, Привольная Улица 3г",,Belgorod,,RU,,,Mo-Su 10:00-22:00,Wildberries,Q24933714
216583,wildberries,Wildberries,"Губкин, Улица Раевского 7",,Belgorod,,RU,,,Mo-Su 10:00-21:00,Wildberries,Q24933714
216585,wildberries,Wildberries,"Белгород, Улица Имени Раздобаркина 15",Belgorodskiy Rayon,Belgorod,,RU,,,Mo-Su 10:00-21:00,Wildberries,Q24933714
216963,wildberries,Wildberries,"село Засосна, Улица Ленина 105",,Belgorod,,RU,,,Mo-Su 10:00-21:00,Wildberries,Q24933714
217056,wildberries,Wildberries,"рабочий посёлок Чернянка, Улица Ленина 2",,Belgorod,,RU,,,Mo-Su 10:00-21:00,Wildberries,Q24933714
217228,wildberries,Wildberries,"рабочий посёлок Пролетарский, Почтовый Переулок 1а",,Belgorod,,RU,,,Mo-Su 10:00-21:00,Wildberries,Q24933714
217326,wildberries,Wildberries,"село Ливенка, Советская Улица 8",,Belgorod,,RU,,,Mo-Su 10:00-21:00,Wildberries,Q24933714
217329,wildberries,Wildberries,"рабочий посёлок Красная Яруга, Улица Мира 10",,Belgorod,,RU,,,Mo-Su 10:00-21:00,Wildberries,Q24933714
217330,wildberries,Wildberries,"Валуйки, Улица Демьяна Бедного 2/1",,Belgorod,,RU,,,Mo-Su 10:00-19:00,Wildberries,Q24933714
217345,wildberries,Wildberries,"рабочий посёлок Ракитное, Улица Коммунаров 21г",,Belgorod,,RU,,,Mo-Su 10:00-21:00,Wildberries,Q24933714
217442,wildberries,Wildberries,"Старый Оскол, Микрорайон Восточный 1",,Belgorod,,RU,,,Mo-Su 10:00-21:00,Wildberries,Q24933714
217450,wildberries,Wildberries,"Старый Оскол, Микрорайон Приборостроитель 6",,Belgorod,,RU,,,Mo-Su 09:00-21:00,Wildberries,Q24933714
217471,wildberries,Wildberries,"Новый Оскол, Дорожная Улица 3а",,Belgorod,,RU,,,Mo-Su 10:00-21:00,Wildberries,Q24933714
217723,wildberries,Wildberries,"рабочий посёлок Вейделевка, Парковая Улица 19",,Belgorod,,RU,,,Mo-Su 10:00-21:00,Wildberries,Q24933714
217736,wildberries,Wildberries,"Белгород, Улица Шумилова 2",Belgorodskiy Rayon,Belgorod,,RU,,,Mo-Su 10:00-21:00,Wildberries,Q24933714
218118,wildberries,Wildberries,"село Бехтеевка, Улица Дорошенко 10а",,Belgorod,,RU,,,Mo-Su 10:00-21:00,Wildberries,Q24933714
218256,wildberries,Wildberries,"посёлок Северный-Первый, Майская Улица 1а",,Belgorod,,RU,,,Mo-Su 10:00-21:00,Wildberries,Q24933714
218786,wildberries,Wildberries,"Белгородская область, рабочий посёлок Уразово, улица Ленина, 9",,Belgorod,,RU,,,Mo-Su 10:00-21:00,Wildberries,Q24933714
300489,wildberries,Wildberries,"Белгородская область, село Весёлое, Отсутствует, 180б",,Belgorod,,RU,,,Mo-Su 10:00-21:00,Wildberries,Q24933714
301647,wildberries,Wildberries,"село Роговатое, Улица Владимира Ленина 13а",,Belgorod,,RU,,,Mo-Su 10:00-21:00,Wildberries,Q24933714
301695,wildberries,Wildberries,"село Кустовое, Улица Победы 64",,Belgorod,,RU,,,Mo-Su 10:00-21:00,Wildberries,Q24933714
301997,wildberries,Wildberries,"рабочий посёлок Красная Яруга, Центральная Улица 57",,Belgorod,,RU,,,Mo-Su 10:00-21:00,Wildberries,Q24933714
302082,wildberries,Wildberries,"Белгородская область, село Большетроицкое, Садовая улица, 2",,Belgorod,,RU,,,Mo-Su 10:00-21:00,Wildberries,Q24933714
302355,wildberries,Wildberries,"село Головчино, Улица Смирнова 33/2а",,Belgorod,,RU,,,Mo-Su 10:00-21:00,Wildberries,Q24933714
302414,wildberries,Wildberries,"Белгородская область, рабочий посёлок Уразово, улица Плеханова, 49В",,Belgorod,,RU,,,Mo-Su 10:00-21:00,Wildberries,Q24933714
302474,wildberries,Wildberries,"село Федосеевка, Улица Натальи Лихачёвой 9",,Belgorod,,RU,,,Mo-Su 10:00-21:00,Wildberries,Q24933714
302498,wildberries,Wildberries,"Белгородская область, село Яблоново, Центральная улица, 46",,Belgorod,,RU,,,Mo-Su 10:00-21:00,Wildberries,Q24933714
302577,wildberries,Wildberries,"село Ломово, Спортивная Улица 2/1",,Belgorod,,RU,,,Mo-Su 10:00-21:00,Wildberries,Q24933714
302594,wildberries,Wildberries,"село Казацкое, Дорожная Улица 2б",,Belgorod,,RU,,,Mo-Su 10:00-21:00,Wildberries,Q24933714
302787,wildberries,Wildberries,"село Пушкарное, Солнечный Переулок 1",,Belgorod,,RU,,,Mo-Su 10:00-21:00,Wildberries,Q24933714
302812,wildberries,Wildberries,"село Венгеровка, Центральная Улица 45",,Belgorod,,RU,,,Mo-Su 10:00-21:00,Wildberries,Q24933714
302817,wildberries,Wildberries,"село Красный Октябрь, Улица Гагарина 14",,Belgorod,,RU,,,Mo-Su 10:00-21:00,Wildberries,Q24933714
302823,wildberries,Wildberries,"Белгород, Улица Василия Трутовского 4",,Belgorod,,RU,,,Mo-Su 10:00-21:00,Wildberries,Q24933714
303005,wildberries,Wildberries,"рабочий посёлок Борисовка, Первомайская Улица 68а",,Belgorod,,RU,,,Mo-Su 10:00-21:00,Wildberries,Q24933714
303252,wildberries,Wildberries,"Белгородская область, село Русская Халань, улица 1 Мая, 36",,Belgorod,,RU,,,Mo-Su 10:00-21:00,Wildberries,Q24933714
303284,wildberries,Wildberries,"Белгородская область, Валуйки, Безымянный переулок, 4",,Belgorod,,RU,,,Mo-Su 10:00-21:00,Wildberries,Q24933714
303352,wildberries,Wildberries,"село Подкопаевка, Центральная Улица 69а",,Belgorod,,RU,,,Mo-Su 10:00-21:00,Wildberries,Q24933714
303386,wildberries,Wildberries,"рабочий посёлок Пятницкое, Проспект Маресевой 18",,Belgorod,,RU,,,Mo-Su 10:00-21:00,Wildberries,Q24933714
303401,wildberries,Wildberries,"рабочий посёлок Чернянка, Строительная Улица 11",,Belgorod,,RU,,,Mo-Su 10:00-21:00,Wildberries,Q24933714
303402,wildberries,Wildberries,"село Шелаево, Центральная Улица 88в",,Belgorod,,RU,,,Mo-Su 10:00-21:00,Wildberries,Q24933714
303482,wildberries,Wildberries,"рабочий посёлок Борисовка, Новоборисовская Улица 49а",,Belgorod,,RU,,,Mo-Su 10:00-21:00,Wildberries,Q24933714
303516,wildberries,Wildberries,"Белгород, Проспект Богдана Хмельницкого 73",Belgorodskiy Rayon,Belgorod,,RU,,,Mo-Su 10:00-21:00,Wildberries,Q24933714
303517,wildberries,Wildberries,"Белгород, Свято-Троицкий Бульвар 11",Belgorodskiy Rayon,Belgorod,,RU,,,Mo-Su 10:00-21:00,Wildberries,Q24933714
303526,wildberries,Wildberries,"рабочий посёлок Северный, Октябрьская Улица 125",,Belgorod,,RU,,,Mo-Su 10:00-21:00,Wildberries,Q24933714
303537,wildberries,Wildberries,"село Стригуны, Улица Ленина 119б",,Belgorod,,RU,,,Mo-Su 10:00-21:00,Wildberries,Q24933714
303604,wildberries,Wildberries,"Строитель, Улица Победы 4",,Belgorod,,RU,,,Mo-Su 10:00-21:00,Wildberries,Q24933714
303802,wildberries,Wildberries,"село Поповка, Центральная Улица 17",,Belgorod,,RU,,,Mo-Su 10:00-21:00,Wildberries,Q24933714
303937,wildberries,Wildberries,"Белгород, Спортивная Улица 8",Belgorodskiy Rayon,Belgorod,,RU,,,Mo-Su 10:00-21:00,Wildberries,Q24933714
304242,wildberries,Wildberries,"Белгородская область, село Насоново, улица Кирова, 10",,Belgorod,,RU,,,Mo-Su 10:00-21:00,Wildberries,Q24933714
304261,wildberries,Wildberries,"Белгород, Улица Есенина 32",Belgorodskiy Rayon,Belgorod,,RU,,,Mo-Su 10:00-21:00,Wildberries,Q24933714
304345,wildberries,Wildberries,"село Дальняя Игуменка, Центральная Улица 80",,Belgorod,,RU,,,Mo-Su 09:00-21:00,Wildberries,Q24933714
304402,wildberries,Wildberries,"Старый Оскол, Микрорайон Лебединец 3",,Belgorod,,RU,,,Mo-Su 10:00-21:00,Wildberries,Q24933714
304718,wildberries,Wildberries,"Белгород, Улица 60 Лет Октября 12а",Belgorodskiy Rayon,Belgorod,,RU,,,Mo-Su 10:00-21:00,Wildberries,Q24933714
304885,wildberries,Wildberries,"Старый Оскол, Микрорайон Жукова 37",,Belgorod,,RU,,,Mo-Su 10:00-21:00,Wildberries,Q24933714
305230,wildberries,Wildberries,"село Беленькое, Беленькая Улица 4",,Belgorod,,RU,,,Mo-Su 10:00-21:00,Wildberries,Q24933714
305897,wildberries,Wildberries,"Белгородская область, село Рождествено, улица Ленина, 4А",,Belgorod,,RU,,,Mo-Su 10:00-21:00,Wildberries,Q24933714
305909,wildberries,Wildberries,"рабочий посёлок Борисовка, Улица Луначарского 16",,Belgorod,,RU,,,Mo-Su 10:00-21:00,Wildberries,Q24933714
305979,wildberries,Wildberries,"Белгородская область, Белгород, Кирпичная улица, 65с1",Belgorodskiy Rayon,Belgorod,,RU,,,Mo-Su 10:00-21:00,Wildberries,Q24933714
306214,wildberries,Wildberries,"Белгородская область, село Купино, Молодёжная улица, 1",,Belgorod,,RU,,,Mo-Su 10:00-21:00,Wildberries,Q24933714
306257,wildberries,Wildberries,"Белгородская область, Новый Оскол, Успенская улица, 36",,Belgorod,,RU,,,Mo-Su 10:00-21:00,Wildberries,Q24933714
306780,wildberries,Wildberries,"рабочий посёлок Прохоровка, Улица Титова 10/1",,Belgorod,,RU,,,Mo-Su 09:00-21:00,Wildberries,Q24933714
306805,wildberries,Wildberries,"Белгород, Садовая Улица 65в",Belgorodskiy Rayon,Belgorod,,RU,,,Mo-Su 10:00-21:00,Wildberries,Q24933714
306866,wildberries,Wildberries,"Белгородская область, село Хотмыжск, улица Данкова, 11",,Belgorod,,RU,,,Mo-Su 10:00-21:00,Wildberries,Q24933714
307281,wildberries,Wildberries,"село Драгунское, Площадь Покровская 10Б",,Belgorod,,RU,,,Mo-Su 10:00-21:00,Wildberries,Q24933714
307415,wildberries,Wildberries,"рабочий посёлок Северный, Парковый Переулок 1",,Belgorod,,RU,,,Mo-Su 10:00-21:00,Wildberries,Q24933714
307531,wildberries,Wildberries,"село Шаталовка, Центральная Улица 69",,Belgorod,,RU,,,Mo-Su 10:00-21:00,Wildberries,Q24933714
307558,wildberries,Wildberries,"село Замостье, Добросельская Улица 8а",,Belgorod,,RU,,,Mo-Su 10:00-21:00,Wildberries,Q24933714
307575,wildberries,Wildberries,"Строитель, Юбилейная Улица 3",,Belgorod,,RU,,,Mo-Su 10:00-21:00,Wildberries,Q24933714
307897,wildberries,Wildberries,"Старый Оскол, Микрорайон Солнечный 3с1",,Belgorod,,RU,,,Mo-Su 10:00-21:00,Wildberries,Q24933714
308108,wildberries,Wildberries,"село Монаково, Школьная Улица 26",,Belgorod,,RU,,,Mo-Su 10:00-21:00,Wildberries,Q24933714
308233,wildberries,Wildberries,"Белгород, Улица Есенина 8а",Belgorodskiy Rayon,Belgorod,,RU,,,Mo-Su 10:00-21:00,Wildberries,Q24933714
308271,wildberries,Wildberries,"Старый Оскол, Микрорайон Космос 3",,Belgorod,,RU,,,Mo-Su 10:00-21:00,Wildberries,Q24933714
308374,wildberries,Wildberries,"село Грузское, Центральная Улица 13/1",,Belgorod,,RU,,,Mo-Su 10:00-21:00,Wildberries,Q24933714
308476,wildberries,Wildberries,"Старый Оскол, Микрорайон Восточный 10",,Belgorod,,RU,,,Mo-Su 10:00-21:00,Wildberries,Q24933714
308496,wildberries,Wildberries,"Белгородская область, Алексеевка, улица Чернышевского, 3",,Belgorod,,RU,,,Mo-Su 10:00-21:00,Wildberries,Q24933714
308685,wildberries,Wildberries,"посёлок Дубовое, Квартал № 1 7",Belgorodskiy Rayon,Belgorod,,RU,,,Mo-Su 10:00-21:00,Wildberries,Q24933714
308696,wildberries,Wildberries,"Белгород, Улица Щорса 55",Belgorodskiy Rayon,Belgorod,,RU,,,Mo-Su 10:00-21:00,Wildberries,Q24933714
308850,wildberries,Wildberries,"село Алексеевка, Улица Базар 29",,Belgorod,,RU,,,Mo-Su 10:00-21:00,Wildberries,Q24933714
308957,wildberries,Wildberries,"село Анновка, Центральная Улица 4",,Belgorod,,RU,,,Mo-Su 09:00-21:00,Wildberries,Q24933714
308959,wildberries,Wildberries,"село Беловское, Первомайская Улица 21",,Belgorod,,RU,,,Mo-Su 10:00-21:00,Wildberries,Q24933714
309077,wildberries,Wildberries,"Белгород, Магистральная Улица 12а",,Belgorod,,RU,,,Mo-Su 10:00-21:00,Wildberries,Q24933714
309237,wildberries,Wildberries,"рабочий посёлок Ракитное, Улица Даниленко 3",,Belgorod,,RU,,,Mo-Su 10:00-21:00,Wildberries,Q24933714
309333,wildberries,Wildberries,"Белгород, Бульвар Юности 45",Belgorodskiy Rayon,Belgorod,,RU,,,Mo-Su 10:00-21:00,Wildberries,Q24933714
309340,wildberries,Wildberries,"рабочий посёлок Маслова Пристань, Улица 1 Мая 6",,Belgorod,,RU,,,Mo-Su 10:00-21:00,Wildberries,Q24933714
309502,wildberries,Wildberries,"Белгород, Парковая Улица 8",Belgorodskiy Rayon,Belgorod,,RU,,,Mo-Su 10:00-21:00,Wildberries,Q24933714
309504,wildberries,Wildberries,"посёлок Дубовое, Зелёная Улица 11а",Belgorodskiy Rayon,Belgorod,,RU,,,Mo-Su 10:00-21:00,Wildberries,Q24933714
309631,wildberries,Wildberries,"Губкин, Народная Улица 6",,Belgorod,,RU,,,Mo-Su 10:00-21:00,Wildberries,Q24933714
309812,wildberries,Wildberries,"Белгород, Садовая Улица 92",Belgorodskiy Rayon,Belgorod,,RU,,,Mo-Su 10:00-21:00,Wildberries,Q24933714
309888,wildberries,Wildberries,"село Гора-Подол, Улица Борисенко 48б",,Belgorod,,RU,,,Mo-Su 09:00-20:00,Wildberries,Q24933714
309908,wildberries,Wildberries,"село Ездочное, Центральная Улица 14",,Belgorod,,RU,,,Mo-Su 10:00-21:00,Wildberries,Q24933714
310071,wildberries,Wildberries,"Белгородская область, рабочий посёлок Разумное, улица Бельгина, 16",,Belgorod,,RU,,,Mo-Su 10:00-21:00,Wildberries,Q24933714
310118,wildberries,Wildberries,"рабочий посёлок Ракитное, Советская Площадь 6",,Belgorod,,RU,,,Mo-Su 10:00-21:00,Wildberries,Q24933714
310274,wildberries,Wildberries,"село Дорогощь, Советская Улица 8б",,Belgorod,,RU,,,Mo-Su 09:00-20:00,Wildberries,Q24933714
310346,wildberries,Wildberries,"Белгород, Проспект Ватутина 23а",Belgorodskiy Rayon,Belgorod,,RU,,,Mo-Su 10:00-21:00,Wildberries,Q24933714
310411,wildberries,Wildberries,"Белгородская область, рабочий посёлок Чернянка, Железнодорожная улица, 9",,Belgorod,,RU,,,Mo-Su 10:00-21:00,Wildberries,Q24933714
310447,wildberries,Wildberries,"посёлок городского типа Томаровка, Магистральная Улица 43",,Belgorod,,RU,,,Mo-Su 10:00-21:00,Wildberries,Q24933714
311058,wildberries,Wildberries,"Старый Оскол, Микрорайон Конева 2/3",,Belgorod,,RU,,,Mo-Su 10:00-21:00,Wildberries,Q24933714
311183,wildberries,Wildberries,"рабочий посёлок Пролетарский, Переулок Кирпичного Завода 1ж",,Belgorod,,RU,,,Mo-Su 10:00-21:00,Wildberries,Q24933714
311393,wildberries,Wildberries,"село Беломестное, Центральная Улица 30",,Belgorod,,RU,,,Mo-Su 09:00-20:00,Wildberries,Q24933714
311681,wildberries,Wildberries,"Белгородская область, Алексеевка, улица Кирова, 61",,Belgorod,,RU,,,Mo-Su 10:00-21:00,Wildberries,Q24933714
311729,wildberries,Wildberries,"Губкин, Аверинский Проезд 2/20",,Belgorod,,RU,,,Mo-Su 10:00-21:00,Wildberries,Q24933714
311828,wildberries,Wildberries,"Губкин, Улица Воинов-Интернационалистов 5",,Belgorod,,RU,,,Mo-Su 10:00-21:00,Wildberries,Q24933714
312151,wildberries,Wildberries,"Шебекино, Улица Петровского 8",,Belgorod,,RU,,,Mo-Su 10:00-21:00,Wildberries,Q24933714
312192,wildberries,Wildberries,"Белгород, Улица Сосновка 7б",,Belgorod,,RU,,,Mo-Su 10:00-21:00,Wildberries,Q24933714
312206,wildberries,Wildberries,"рабочий посёлок Пятницкое, Проспект Маресевой 2и",,Belgorod,,RU,,,Mo-Su 10:00-21:00,Wildberries,Q24933714
312222,wildberries,Wildberries,"Белгородская область, село Бобровы Дворы, Белгородская улица, 114",,Belgorod,,RU,,,Mo-Su 10:00-21:00,Wildberries,Q24933714
312281,wildberries,Wildberries,"Белгородская область, Шебекино, улица Шолохова, 1",,Belgorod,,RU,,,Mo-Su 10:00-21:00,Wildberries,Q24933714
312290,wildberries,Wildberries,"Белгородская область, Старый Оскол, Мебельная улица, 26",,Belgorod,,RU,,,Mo-Su 10:00-21:00,Wildberries,Q24933714
312482,wildberries,Wildberries,"посёлок Троицкий, Улица Василевского 93",,Belgorod,,RU,,,Mo-Su 10:00-21:00,Wildberries,Q24933714
312604,wildberries,Wildberries,"Шебекино, Улица Ленина 7",,Belgorod,,RU,,,Mo-Su 10:00-21:00,Wildberries,Q24933714
50000198,wildberries,Wildberries,"рабочий посёлок Ивня, Улица Горовца 55а",,Belgorod,,RU,,,Mo-Su 09:00-21:00,Wildberries,Q24933714
50000205,wildberries,Wildberries,"село Головино, Центральная Улица 19а",,Belgorod,,RU,,,Mo-Su 09:00-21:00,Wildberries,Q24933714
50000231,wildberries,Wildberries,"Белгород, Улица Мичурина 50",Belgorodskiy Rayon,Belgorod,,RU,,,Mo-Su 09:00-21:00,Wildberries,Q24933714
50000257,wildberries,Wildberries,"село Дмитриевка, Центральная Улица 58",,Belgorod,,RU,,,Mo-Su 09:00-21:00,Wildberries,Q24933714
50000338,wildberries,Wildberries,"рабочий посёлок Чернянка, Улица Маринченко 52а",,Belgorod,,RU,,,Mo-Su 10:00-22:00,Wildberries,Q24933714
50000349,wildberries,Wildberries,"Белгород, Проспект Славы 74",Belgorodskiy Rayon,Belgorod,,RU,,,Mo-Su 10:00-21:00,Wildberries,Q24933714
50000351,wildberries,Wildberries,"село Новенькое, Улица Куйбышева 121",,Belgorod,,RU,,,Mo-Su 09:00-21:00,Wildberries,Q24933714
50000614,wildberries,Wildberries,"посёлок Дубовое, Лазурная Улица 2",Belgorodskiy Rayon,Belgorod,,RU,,,Mo-Su 09:00-21:00,Wildberries,Q24933714
50000675,wildberries,Wildberries,"посёлок Прибрежный, 1-Я Совхозная Улица 2б",,Belgorod,,RU,,,Mo-Su 10:00-21:00,Wildberries,Q24933714
50000688,wildberries,Wildberries,"село Стрелецкое, Окружная Улица 21а",,Belgorod,,RU,,,Mo-Su 10:00-21:00,Wildberries,Q24933714
50000705,wildberries,Wildberries,"Старый Оскол, Владимирская Улица 19а",,Belgorod,,RU,,,Mo-Su 10:00-22:00,Wildberries,Q24933714
50000962,wildberries,Wildberries,"село Антоновка, Село Антоновка 2б",,Belgorod,,RU,,,Mo-Su 10:00-22:00,Wildberries,Q24933714
50000969,wildberries,Wildberries,"рабочий посёлок Разумное, Хлебная Улица 46",,Belgorod,,RU,,,Mo-Su 10:00-22:00,Wildberries,Q24933714
50000974,wildberries,Wildberries,"село Бобрава, Центральная Улица 8",,Belgorod,,RU,,,Mo-Su 10:00-21:00,Wildberries,Q24933714
50001162,wildberries,Wildberries,"Старый Оскол, Пролетарская Улица 45",,Belgorod,,RU,,,Mo-Su 10:00-22:00,Wildberries,Q24933714
50001360,wildberries,Wildberries,"село Шагаровка, Просторная Улица 51ак2",,Belgorod,,RU,,,Mo-Su 10:00-22:00,Wildberries,Q24933714
50001396,wildberries,Wildberries,"село Центральное, Совхозная Улица 5",,Belgorod,,RU,,,Mo-Su 10:00-22:00,Wildberries,Q24933714
50001478,wildberries,Wildberries,"Алексеевка, Улица Победы 177",,Belgorod,,RU,,,Mo-Su 10:00-22:00,Wildberries,Q24933714
