Ref,Spider,Name,Address,City,State,Zipcode,Country,Phone,Website,Hours,Brand,WikiData
https://stores.advanceautoparts.com/tn/jonesborough/1300-w-jackson-blvd,advance_auto_parts_us,Advance Auto Parts,,Jonesborough,TN,,US,+1 423-913-2489,https://stores.advanceautoparts.com/tn/jonesborough/1300-w-jackson-blvd,Mo-Sa 07:30-21:00; Su 09:00-20:00,Advance Auto Parts,Q4686051
https://locations.arbys.com/tn/jonesborough/405-e-jackson-blvd.html,arbys_us,"Arby's Fast-Food Drive Through Near You in Jonesborough, TN",,Jonesborough,TN,,US,+1 423-753-5210,https://locations.arbys.com/tn/jonesborough/405-e-jackson-blvd.html,Mo-Sa 10:00-24:00; Su 10:00-23:00,Arby's,Q630866
2087,autozone_us,AutoZone Auto Parts Jonesborough,,Jonesborough,TN,,US,+1 423-753-3772,https://www.autozone.com/locations/tn/jonesborough/505-boones-creek-rd.html,Mo-Fr 07:30-21:00; Sa 07:30-20:00; Su 09:00-20:00,AutoZone,Q4826087
159238,bluerhino,Crossroad Country Store,,Jonesborough,TN,,US,+1 423-753-4324,,,Blue Rhino,Q65681213
218437,bluerhino,Dollar General #23695,,JONESBOROUGH,TN,,US,+1 423-410-0034,,,Blue Rhino,Q65681213
185176,bluerhino,Main Street Tobacco,,Jonesborough,TN,,US,+1 423-788-9189,,,Blue Rhino,Q65681213
221423,bluerhino,Dollar General #3394,,JONESBOROUGH,TN,,US,+1 423-900-2812,,,Blue Rhino,Q65681213
156489,bluerhino,Walgreens #13660,,Jonesborough,TN,,US,+1 423-753-7016,,,Blue Rhino,Q65681213
111437,bluerhino,Lowe's #2993,,Jonesborough,TN,,US,+1 423-788-7000,,,Blue Rhino,Q65681213
214902,bluerhino,Weigels #1099,,Jonesborough,TN,,US,+1 423-836-2864,,,Blue Rhino,Q65681213
tn/jonesborough/1196-east-jackson-blvd,bojangles,"Bojangles Jonesborough, TN",,Jonesborough,TN,,US,+1 423-753-0641,https://locations.bojangles.com/tn/jonesborough/1196-east-jackson-blvd.html,,Bojangles',Q891163
51682024901013765900100000000000,bp,BP,,Jonesborough,TN,,US,+1 423-753-9155,,24/7,BP,Q152057
360047,captaind,Captain D's,,Jonesborough,TN,,US,+1 423-913-1331,https://locations.captainds.com/ll/US/TN/Jonesborough/1531-E-Jackson-Blvd,Mo-Su 10:45-20:00,Captain D's,Q5036616
95012,citi,ATM Weigels #99-1,,Jonesborough,TN,,US,,,,Citibank,Q857063
95013,citi,ATM Weigels #99-2,,Jonesborough,TN,,US,,,,Citibank,Q857063
91718,citi,ATM Walgreens,,Jonesborough,TN,,US,,,,Citibank,Q857063
73861,citi,ATM Roadrunner Market,,Jonesborough,TN,,US,,,,Citibank,Q857063
3355,cookout,"Jonesborough, TN",,Jonesborough,TN,,US,,,Mo-Th 10:30-03:00; Fr-Sa 10:30-04:00; Su 10:30-03:00,Cookout,Q5166992
7373,dollartree,DollarTree,,Jonesborough,TN,,US,+1 423-850-6000,,Mo-Sa 09:00-21:00; Su 10:00-20:00,Dollar Tree,Q5289230
23695,dollar_general,Dollar General,,Jonesborough,TN,,US,+1 423-410-0034,https://www.dollargeneral.com/store-directory/tn/jonesborough/23695,Mo-Su 08:00-22:00,Dollar General,Q145168
21201,dollar_general,Dollar General,,Jonesborough,TN,,US,+1 615-649-9319,https://www.dollargeneral.com/store-directory/tn/jonesborough/21201,Mo-Su 08:00-22:00,Dollar General,Q145168
350820,dunkin_us,Dunkin',,Jonesborough,TN,,US,+1 423-753-4950,https://locations.dunkindonuts.com/en/tn/jonesborough/141-boone-st/350820,24/7,Dunkin',Q847743
https://www.edwardjones.com/us-en/financial-advisor/diego-iglesias,edwardjones,Diego J Iglesias,,Jonesborough,TN,,US,+1 423-788-0284,https://www.edwardjones.com/us-en/financial-advisor/diego-iglesias,Mo-Th 08:30-17:00; Fr 08:30-16:00,Edward Jones,Q5343830
200321304,exxonmobil,LEE'S FOOD MART #28,,JONESBOROUGH,TN,,US,+1 423-753-3400,https://www.exxon.com/en/find-station/exxon-jonesborough-tn-leesfoodmart28-200321304,Mo-Th 06:00-23:00; Fr-Sa 06:00-00:00; Su 06:00-23:00,Exxon,Q109675651
https://local.fedex.com/#25202221,fedex,,,Jonesborough,TN,,US,+1 800-463-3339,https://local.fedex.com/en-us/tn/jonesborough/bbjax,,FedEx,Q459477
https://local.fedex.com/#27749422,fedex,FedEx Authorized ShipCenter,,Jonesborough,TN,,US,+1 423-753-0101,https://local.fedex.com/en-us/tn/jonesborough/00m8y,,FedEx,Q459477
fe99b3d4-cb3b-ea11-80e3-00505689ac90,goodwill,Goodwill Attended Donation Center - Jonesborough,,Jonesborough,TN,,US,,https://www.goodwill.org/locator/location/?store=ZmU5OWIzZDQtY2IzYi1lYTExLTgwZTMtMDA1MDU2ODlhYzkw&lat=MzYuMzAyMzk=&lng=LTgyLjQ1OTE4,,Goodwill,Q5583655
1501825,hardees_us,Hardee's,,Jonesborough,TN,,US,+1 423-753-4501,https://locations.hardees.com/tn/jonesborough/395-east-jackson-blvd,,Hardee's,Q1585088
40561,h_r_block,H&R Block,,Jonesborough,TN,,US,+1 423-781-3005,https://www.hrblock.com/local-tax-offices/tennessee/jonesborough/fox-plaza/40561/,,H&R Block,Q5627799
398,ingles,Jonesborough,,Jonesborough,TN,,US,+1 423-753-8893,https://www.ingles-markets.com/storelocate/storeinfo.php?storenum=398,Mo-Su 06:00-23:00,Ingles,Q6032595
157108,marathon_petroleum_us,QUICK STOP 49,,JONESBOROUGH,TN,,US,+1 423-753-6080,,,Marathon,Q458363
156607,marathon_petroleum_us,QUICK STOP 33,,JONESBOROUGH,TN,,US,+1 423-753-9560,,,Marathon,Q458363
157439,marathon_petroleum_us,Crockett Corner,,JONESBOROUGH,TN,,US,+1 423-753-7779,,,Marathon,Q458363
https://locations.oreillyauto.com/tn/jonesborough/check-engine-light-testing-5317.html,oreilly,Your Jonesborough O'Reilly Auto Parts Store,,Jonesborough,TN,,US,+1 423-788-6242,https://locations.oreillyauto.com/tn/jonesborough/check-engine-light-testing-5317.html,Mo-Sa 07:30-21:00; Su 08:00-20:00,O'Reilly Auto Parts,Q7071951
https://locations.oreillyauto.com/tn/jonesborough/wiper-installation-5317.html,oreilly,Your Jonesborough O'Reilly Auto Parts Store,,Jonesborough,TN,,US,+1 423-788-6242,https://locations.oreillyauto.com/tn/jonesborough/wiper-installation-5317.html,Mo-Sa 07:30-21:00; Su 08:00-20:00,O'Reilly Auto Parts,Q7071951
https://locations.oreillyauto.com/tn/jonesborough/battery-testing-5317.html,oreilly,Your Jonesborough O'Reilly Auto Parts Store,,Jonesborough,TN,,US,+1 423-788-6242,https://locations.oreillyauto.com/tn/jonesborough/battery-testing-5317.html,Mo-Sa 07:30-21:00; Su 08:00-20:00,O'Reilly Auto Parts,Q7071951
https://locations.oreillyauto.com/tn/jonesborough/autopartes-5317.html,oreilly,Tu tienda O'Reilly Auto Parts en Jonesborough,,Jonesborough,TN,,US,+1 423-788-6242,https://locations.oreillyauto.com/tn/jonesborough/autopartes-5317.html,Mo-Sa 07:30-21:00; Su 08:00-20:00,O'Reilly Auto Parts,Q7071951
https://locations.papajohns.com/#10691760,papa_johns,Papa John's,,Jonesborough,TN,,US,+1 423-913-1414,https://locations.papajohns.com/united-states/tn/37659/jonesborough/900-east-jackson-boulevard,Mo-Th 10:00-23:00; Fr-Sa 10:00-24:00; Su 10:00-23:00,Papa John's Pizza,Q2759586
tn_jonesborough_500-forest-drive,pizza_hut_us,500 Forest Drive,,Jonesborough,TN,,US,+1 423-753-7778,https://locations.pizzahut.com/tn/jonesborough/500-forest-drive,,Pizza Hut,Q191615
https://restaurants.subway.com/#14897842,subway,Subway Roadrunner,,Jonesborough Washington,TN,,US,+1 423-753-0131,https://restaurants.subway.com/united-states/tn/jonesborough/101-east-jackson-boulevard,Mo-Su 09:00-01:00,Subway,Q244457
https://locations.tacobell.com/#6142430,taco_bell,Taco Bell,,Jonesborough,TN,,US,+1 423-753-0782,https://locations.tacobell.com/tn/jonesborough/705-e--jackson-blvd-.html,Mo-Th 09:00-01:00; Fr-Sa 09:00-02:00; Su 09:00-01:00,Taco Bell,Q752941
1368531,usps,JONESBOROUGH,,JONESBOROUGH,TN,,US,+1 423-753-7048,,Mo-Fr 08:30-17:00; Sa 10:00-12:00,United States Postal Service,Q668687
3765900001,usps_collection_boxes,USPS COLLECTION BOX - BLUE BOX,121 BOONE ST,JONESBOROUGH,TN,,US,,,,United States Postal Service,Q668687
3765900006,usps_collection_boxes,USPS COLLECTION BOX - PO LOBBY,121 BOONE ST,JONESBOROUGH,TN,,US,,,,United States Postal Service,Q668687
3765900007,usps_collection_boxes,USPS COLLECTION BOX - PO LOBBY,121 BOONE ST,JONESBOROUGH,TN,,US,,,,United States Postal Service,Q668687
3765900008,usps_collection_boxes,USPS COLLECTION BOX - PO LOBBY,121 BOONE ST,JONESBOROUGH,TN,,US,,,,United States Postal Service,Q668687
,visa,,,JONESBOROUGH,TN,,US,,,,,
,visa,,,JONESBOROUGH,TN,,US,,,,,
,visa,,,JONESBOROUGH,TN,,US,,,,,
,visa,,,JONESBOROUGH,TN,,US,,,,,
,visa,,,JONESBOROUGH,TN,,US,,,,,
,visa,,,JONESBOROUGH,TN,,US,,,,,
,visa,,,JONESBOROUGH,TN,,US,,,,,
,visa,,,JONESBOROUGH,TN,,US,,,,,
,visa,,,JONESBOROUGH,TN,,US,,,,,
,visa,,,JONESBOROUGH,TN,,US,,,,,
,visa,,,JONESBORO,TN,,US,,,,,
,visa,,,JONESBOROUGH,TN,,US,,,,,
,visa,,,JONESBOROUGH,TN,,US,,,,,
,visa,,,JONESBOROUGH,TN,,US,,,,,
,visa,,,JONESBOROUGH,TN,,US,,,,,
,visa,,,JONESBOROUGH,TN,,US,,,,,
,visa,,,JONESBOROUGH,TN,,US,,,,,
,visa,,,JONESBOROUGH,TN,,US,,,,,
,visa,,,JONESBOROUGH,TN,,US,,,,,
,visa,,,JONESBOROUGH,TN,,US,,,,,
,visa,,,JONESBOROUGH,TN,,US,,,,,
,visa,,,JONESBORO,TN,,US,,,,,
,visa,,,JONESBOROUGH,TN,,US,,,,,
,visa,,,SULFUR SPRING,TN,,US,,,,,
,visa,,,JONESBOROUGH,TN,,US,,,,,
https://www.walgreens.com/locator/walgreens-531+e+jackson+blvd-jonesborough-tn-37659/id=13660,walgreens,Walgreens,,Jonesborough,TN,,US,+1 423-753-7016,https://www.walgreens.com/locator/walgreens-531+e+jackson+blvd-jonesborough-tn-37659/id=13660,Mo-Su 07:00-23:00,Walgreens,Q1591889
69c2090d60be8b20d551a3b252672ef7,western_union,ADVANCE FINANCIAL #93,,Jonesborough,TN,,US,+1 423-281-2204,https://location.westernunion.com/us/tn/jonesborough/69c2090d60be8b20d551a3b252672ef7,Mo-Fr 09:00-18:00; Sa-Su 10:00-16:00,Western Union,Q861042
