Ref,Spider,Name,Address,City,State,Zipcode,Country,Phone,Website,Hours,Brand,WikiData
https://stores.aldi.us/#4420241,aldi_sud_us,ALDI  1700 North Lincoln St,,Greensburg,IN,,US,+1 844-444-1058,https://stores.aldi.us/in/greensburg/1700-north-lincoln-st,Mo-Su 09:00-20:00,ALDI,Q41171672
162,anytime_fitness,Anytime Fitness,,Greensburg,IN,,US,+1 812-662-3055,https://www.anytimefitness.com/gyms/162/greensburg-in-47240/,,Anytime Fitness,Q4778364
15217,asics_us,Hibbett Sports,740 Greensburg Commons Shopping Center,Greensburg,IN,,US,+1 812-662-7787,,,asics,Q327247
2699,autozone_us,AutoZone Auto Parts Greensburg,,Greensburg,IN,,US,+1 812-662-8744,https://www.autozone.com/locations/in/greensburg/1515-n-lincoln-st.html,Mo-Sa 07:30-21:00; Su 08:30-20:00,AutoZone,Q4826087
https://awrestaurants.com/locations/indiana/greensburg/1501-n-lincoln-street/,awrestaurants,A&W Restaurant,,Greensburg,IN,,US,+1 812-663-2772,https://awrestaurants.com/locations/indiana/greensburg/1501-n-lincoln-street/,Mo-Su 10:00-22:00,A&W Restaurants,Q277641
BBW01289,bathandbodyworks_us,GREENSBURG SHOPPING CENTER,,GREENSBURG,IN,,US,+1 812-662-7786,,Mo-Sa 10:00-21:00; Su 12:00-18:00,Bath & Body Works,Q810773
198359,bluerhino,Harvest Supermarket #9,,Greensburg,IN,,US,+1 812-663-7003,,,Blue Rhino,Q65681213
195459,bluerhino,Needler's Fresh Market #931,,Greensburg,IN,,US,+1 812-663-9411,,,Blue Rhino,Q65681213
36951,bluerhino,Speedway #1310,,Greensburg,IN,,US,+1 812-663-3593,,,Blue Rhino,Q65681213
165022,bluerhino,Family Dollar #01097,,Greensburg,IN,,US,+1 812-663-8682,,,Blue Rhino,Q65681213
114074,bluerhino,Rural King Supply #43,,Greensburg,IN,,US,+1 812-663-8200,,,Blue Rhino,Q65681213
221059,bluerhino,Dollar General #7678,,GREENSBURG,IN,,US,+1 812-651-0830,,,Blue Rhino,Q65681213
239623,bluerhino,Circle K #4700064,,Greensburg,IN,,US,+1 812-663-6343,,,Blue Rhino,Q65681213
26738,bluerhino,Speedway #5566,,Greensburg,IN,,US,+1 812-663-5956,,,Blue Rhino,Q65681213
96917001094094724000100000000000,bp,BP,,Greensburg,IN,,US,+1 812-663-2333,,24/7,BP,Q152057
23338819032274724000100000000000,bp,BP,,Greensburg,IN,,US,+1 812-663-3777,,Mo-Fr 05:00-21:00; Sa-Su 07:00-21:00,BP,Q152057
89705478398154724000100000000000,bp,BP,,Greensburg,IN,,US,+1 812-222-1992,,24/7,BP,Q152057
13846989039154724000100000000000,bp,BP,,Greensburg,IN,,US,+1 812-662-0781,,24/7,BP,Q152057
5810,burgerking,Burger King,,Greensburg,IN,,US,+1 812-663-2926,https://www.bk.com/store-locator/store/restaurant_3261,Mo-Sa 06:00-21:00; Su 07:00-21:00,Burger King,Q177054
25410,chevrolet,FLEETWOOD CHEVROLET,,Greensburg,IN,,US,+1 800-743-3032 ext. 2,https://www.fleetwoodchevy.com,Mo-Tu 08:00-19:00; We 08:00-17:00; Th 08:00-19:00; Fr 08:00-18:00; Sa 08:00-16:00,Chevrolet,Q29570
001.005.1783,chilis,Greensburg,,Greensburg,IN,,US,+1 812-662-9870,https://www.chilis.com/locations/us/indiana/greensburg/greensburg/,Mo-Th 11:00-22:00; Fr-Sa 11:00-23:00; Su 11:00-22:00,Chili's,Q1072948
40076,citi,ATM Circle K,,Greensburg,IN,,US,,,,Citibank,Q857063
83574,citi,ATM THE NAPOLEON STATE BANK,,Greensburg,IN,,US,,,,Citibank,Q857063
48074,citi,ATM CVS,,Greensburg,IN,,US,,,,Citibank,Q857063
80293,citi,ATM SPEEDWAY #5566,,Greensburg,IN,,US,,,,Citibank,Q857063
77232,citi,ATM Speedway,,Greensburg,IN,,US,,,,Citibank,Q857063
78234,citi,ATM Speedway,,Greensburg,IN,,US,,,,Citibank,Q857063
80192,citi,ATM SPEEDWAY #1310,,Greensburg,IN,,US,,,,Citibank,Q857063
83576,citi,ATM THE NAPOLEON STATE BANK,,Greenburg,IN,,US,,,,Citibank,Q857063
,credit_union_us,Centra CU,,Greensburg,IN,,US,+1 812-663-5807,,Mo-Th 08:30-05:00; Fr 08:30-06:00; Sa 08:30-12:00,,
966,culvers_us,"Culver's of Greensburg, IN - N Broadway St",,Greensburg,IN,,US,+1 812-560-4404,http://www.culvers.com/restaurants/greensburg-in-n-broadway-st,Mo-Th 10:00-22:00; Fr 10:00-23:00; Su 10:00-22:00,Culver's,Q1143589
6758,cvs_us,CVS Pharmacy,,Greensburg,IN,,US,+1 812-663-2756,https://www.cvs.com/store-locator/greensburg-in-pharmacies/1512-n-lincoln-ave-greensburg-in-47240/storeid=6758,24/7,CVS Pharmacy,Q2078880
2519,dominos_pizza_us,Domino's Pizza,,Greensburg,IN,,US,+1 812-651-4001,https://pizza.dominos.com/indiana/greensburg/2020-n-lincoln-street,Mo-Th 10:30-24:00; Fr-Sa 10:30-01:00; Su 10:30-24:00,Domino's,Q839466
358993,dunkin_us,Dunkin',,Greensburg,IN,,US,+1 812-410-5940,https://locations.dunkindonuts.com/en/in/greensburg/1801-n-lincoln-st/358993,Mo-Su 05:00-19:00,Dunkin',Q847743
https://www.edwardjones.com/us-en/financial-advisor/morgan-denham,edwardjones,Morgan E Denham,,Greensburg,IN,,US,+1 812-663-6500,https://www.edwardjones.com/us-en/financial-advisor/morgan-denham,Mo-Th 08:30-17:00; Fr 08:30-16:00,Edward Jones,Q5343830
E10864,enterprise,Greensburg,,Greensburg,IN,,US,+1 812-933-5700,,,Enterprise Rent-A-Car,Q17085454
https://locations.53.com/#3034413,fifththirdbank,Fifth Third Bank Greensburg,,Greensburg,IN,,US,+1 812-663-2265,https://locations.53.com/in/greensburg/314-west-main-street.html,Mo-Fr 09:00-17:00; Sa 09:00-12:00,Fifth Third Bank,Q1411810
Motorcraft2800USAEnglish,ford,"Don Meyer Ford, Inc.",,Indiana,IN,,US,+1 812-663-7621,,,Ford,Q44294
https://www.ford.com/dealerships/dealer-details/in/greensburg/russ-hubler-ford/,ford_dealers_us,Russ Hubler Ford,,Greensburg,IN,,US,+1 812-591-7053,https://www.ford.com/dealerships/dealer-details/in/greensburg/russ-hubler-ford/,Mo-Tu 08:00-19:00; We 08:00-17:00; Th-Fr 08:00-19:00; Sa 08:00-16:00,Ford Motor Company,Q44294
6085,fresenius_kidney_care_us,Fresenius Kidney Care Greensburg IN,,Greensburg,IN,,US,+1 800-881-5101,https://www.freseniuskidneycare.com/dialysis-centers/indiana/6085,Mo 06:00-19:00; We 06:00-19:00; Fr 06:00-19:00,,
6788,gamestop_us,Greensburg Commons,,Greensburg,IN,,US,+1 812-663-0690,https://www.gamestop.com/search/?store=6788,Mo-Th 12:00-19:00; Fr-Sa 10:00-21:00; Su 11:00-19:00,GameStop,Q202210
https://stores.gnc.com/#24058927,gnc,GNC Greensburg Commons,,,IN,,US,+1 812-662-8617,https://stores.gnc.com/all-stores-indiana/greensburg/508-greensburg-commons,Mo-Fr 10:00-19:00; Sa 10:00-18:00; Su 12:00-17:00,GNC,Q4808595
ad0e7a6d-a4a7-e811-80dd-00505689ac90,goodwill,Greensburg Goodwill Store,,Greensburg,IN,,US,+1 812-663-9024,https://www.goodwill.org/locator/location/?store=YWQwZTdhNmQtYTRhNy1lODExLTgwZGQtMDA1MDU2ODlhYzkw&lat=MzkuMzYwNzY=&lng=LTg1LjQ3NzAy,,Goodwill,Q5583655
https://salons.greatclips.com/us/in/greensburg/450-greensburg-commons-ctr,greatclips,Great Clips,,Greensburg,IN,,US,+1 812-663-2102,https://salons.greatclips.com/us/in/greensburg/450-greensburg-commons-ctr,Mo-Fr 09:00-19:00; Sa 09:00-18:00; Su 09:00-17:00,Great Clips,Q5598967
https://www.harborfreight.com/storelocator/1927-n-greensburg-crossing-greensburg-47240?number=3446,harborfreight,"Harbor Freight Tools Greensburg, IN",,Greensburg,IN,,US,+1 930-500-4849,https://www.harborfreight.com/storelocator/1927-n-greensburg-crossing-greensburg-47240?number=3446,Mo-Sa 08:00-20:00; Su 09:00-18:00,Harbor Freight Tools,Q5654601
clugbhx-hampton-suites-greensburg,hilton,Hampton Inn & Suites Greensburg,,,IN,,US,+1 812-663-5000,https://www.hilton.com/ar/hotels/clugbhx-hampton-suites-greensburg/,,Hampton by Hilton,Q5646230
14926,h_r_block,H&R Block,,Greensburg,IN,,US,+1 812-663-7608,https://www.hrblock.com/local-tax-offices/indiana/greensburg/1801-n-greensburg-crossing/14926/,,H&R Block,Q5627799
https://office.jacksonhewitt.com/#27575281,jackson_hewitt,Jackson Hewitt,,Greensburg,IN,,US,+1 812-668-8843,https://office.jacksonhewitt.com/tax-preparation-services-locations/en/in/greensburg/208-west-main-street/15109,Mo-Sa 10:00-18:00,Jackson Hewitt,Q6117132
https://locations.jimmyjohns.com/in/greensburg/sandwiches-2331.html,jimmy_johns,Jimmy John's,,Greensburg,IN,,US,+1 812-663-3278,https://locations.jimmyjohns.com/in/greensburg/sandwiches-2331.html,,Jimmy John's,Q1689380
https://locations.kfc.com/#11249843,kfc,Chicken Nuggets Near Greensburg,,Greensburg,IN,,US,,https://locations.kfc.com/in/greensburg/1906-north-lincoln-road/chickennugget,Mo-Su 10:00-23:30,KFC,Q524757
161266,marathon_petroleum_us,GREENSBURG MARATHON,,GREENSBURG,IN,,US,+1 812-662-8739,,,Marathon,Q458363
https://locations.maurices.com/#11688267,maurices,maurices Greensburg Crossing,,Greensburg,IN,,US,+1 812-527-8974,https://locations.maurices.com/us/in/greensburg/516-greensburg-commons,Mo-Sa 10:00-20:00; Su 11:00-17:00,maurices,Q6793571
https://locations.oreillyauto.com/in/greensburg/check-engine-light-testing-4311.html,oreilly,Your Greensburg O'Reilly Auto Parts Store,,Greensburg,IN,,US,+1 812-527-8100,https://locations.oreillyauto.com/in/greensburg/check-engine-light-testing-4311.html,Mo-Sa 07:30-21:00; Su 08:30-20:00,O'Reilly Auto Parts,Q7071951
https://locations.oreillyauto.com/in/greensburg/wiper-installation-4311.html,oreilly,Your Greensburg O'Reilly Auto Parts Store,,Greensburg,IN,,US,+1 812-527-8100,https://locations.oreillyauto.com/in/greensburg/wiper-installation-4311.html,Mo-Sa 07:30-21:00; Su 08:30-20:00,O'Reilly Auto Parts,Q7071951
https://locations.oreillyauto.com/in/greensburg/battery-testing-4311.html,oreilly,Your Greensburg O'Reilly Auto Parts Store,,Greensburg,IN,,US,+1 812-527-8100,https://locations.oreillyauto.com/in/greensburg/battery-testing-4311.html,Mo-Sa 07:30-21:00; Su 08:30-20:00,O'Reilly Auto Parts,Q7071951
https://locations.oreillyauto.com/in/greensburg/autopartes-4311.html,oreilly,Tu tienda O'Reilly Auto Parts en Greensburg,,Greensburg,IN,,US,+1 812-527-8100,https://locations.oreillyauto.com/in/greensburg/autopartes-4311.html,Mo-Sa 07:30-21:00; Su 08:30-20:00,O'Reilly Auto Parts,Q7071951
https://locations.papajohns.com/#10693053,papa_johns,Papa John's,,Greensburg,IN,,US,+1 812-662-6331,https://locations.papajohns.com/united-states/in/47240/greensburg/1821-north-lincoln-street,Mo-Th 10:00-23:00; Fr-Sa 10:00-24:00; Su 11:00-23:00,Papa John's Pizza,Q2759586
in_greensburg_405-e-freeland-rd,pizza_hut_us,405 E Freeland Rd,,Greensburg,IN,,US,+1 812-662-0531,https://locations.pizzahut.com/in/greensburg/405-e-freeland-rd,,Pizza Hut,Q191615
3511,rentacenter,Rent-A-Center,,Greensburg,IN,,US,+1 812-662-8483,https://locations.rentacenter.com/indiana/greensburg/620-greensburg-commons-sc/,Mo-Sa 10:00-18:00,Rent-A-Center,Q7313497
https://stations.sinclairoil.com/in/greensburg/106-s-michigan-ave,sinclair_us,Sinclair Gas Station,,Greensburg,IN,,US,+1 812-410-5142,https://stations.sinclairoil.com/in/greensburg/106-s-michigan-ave,Mo-Sa 06:00-23:00; Su 07:00-22:00,Sinclair,Q1290900
https://restaurants.subway.com/#14899935,subway,Subway,,Greensburg Decatur,IN,,US,+1 812-663-4242,https://restaurants.subway.com/united-states/in/greensburg/405-freeland-rd,Mo 08:00-19:30; Tu 08:00-20:00; We 08:00-21:00; Th 08:00-18:00; Fr-Su 08:00-21:00,Subway,Q244457
https://restaurants.subway.com/#14901424,subway,Subway Wal-Mart #1180,,Greensburg Decatur,IN,,US,+1 812-662-0860,https://restaurants.subway.com/united-states/in/greensburg/790-greensburg-commons-s/c,Mo-We 08:00-21:00; Th-Sa 08:00-22:00; Su 09:00-21:00,Subway,Q244457
0867067100,sunoco_us,Sunoco,,GREENSBURG,IN,,US,+1 812-560-9101,,Mo-Su 06:00-00:00,Sunoco,Q1423218
https://locations.tacobell.com/#6145533,taco_bell,Taco Bell,,Greensburg,IN,,US,+1 812-663-8226,https://locations.tacobell.com/in/greensburg/1915-n-lincoln-st.html,Mo-Su 07:00-04:00,Taco Bell,Q752941
https://locations.tccrocks.com/in/greensburg/430-e-freeland-road.html,tcc_us,TCC Greensburg,,Greensburg,IN,,US,+1 812-934-5500,https://locations.tccrocks.com/in/greensburg/430-e-freeland-road.html,Mo-Sa 09:00-19:00; Su 11:00-17:00,Verizon,Q919641
511G,tmobile_us,Greensburg Commons,,Greensburg,IN,,US,+1 812-716-7425,https://www.t-mobile.com/store-locator/in/greensburg/greensburg-commons,,T-Mobile,Q3511885
0379,travelcenters_of_america_us,Petro Greensburg #0379,,Greensburg,IN,,US,+1 812-663-2333,https://www.ta-petro.com/location/in/petro-greensburg/,,Petro,Q64051305
1365631,usps,GREENSBURG,,GREENSBURG,IN,,US,+1 812-663-8109,,Mo-Fr 08:00-17:00; Sa 08:00-12:00,United States Postal Service,Q668687
4724000011,usps_collection_boxes,USPS COLLECTION BOX - BLUE BOX,115 W MAIN ST,GREENSBURG,IN,,US,,,,United States Postal Service,Q668687
4724000009,usps_collection_boxes,USPS COLLECTION BOX - BLUE BOX,201 N BROADWAY ST,GREENSBURG,IN,,US,,,,United States Postal Service,Q668687
4724000004,usps_collection_boxes,USPS COLLECTION BOX - BLUE BOX,231 N FRANKLIN ST,GREENSBURG,IN,,US,,,,United States Postal Service,Q668687
4724000005,usps_collection_boxes,USPS COLLECTION BOX - BLUE BOX,231 N FRANKLIN ST,GREENSBURG,IN,,US,,,,United States Postal Service,Q668687
4724000036,usps_collection_boxes,USPS COLLECTION BOX - PO LOBBY,231 N FRANKLIN ST,GREENSBURG,IN,,US,,,,United States Postal Service,Q668687
4724000037,usps_collection_boxes,USPS COLLECTION BOX - PO LOBBY,231 N FRANKLIN ST,GREENSBURG,IN,,US,,,,United States Postal Service,Q668687
4724000039,usps_collection_boxes,USPS COLLECTION BOX - PO LOBBY,231 N FRANKLIN ST,GREENSBURG,IN,,US,,,,United States Postal Service,Q668687
4724000012,usps_collection_boxes,USPS COLLECTION BOX - BLUE BOX,916 W 4TH ST,GREENSBURG,IN,,US,,,,United States Postal Service,Q668687
4724000016,usps_collection_boxes,USPS COLLECTION BOX - BLUE BOX,1305 N LINCOLN ST,GREENSBURG,IN,,US,,,,United States Postal Service,Q668687
4724000025,usps_collection_boxes,USPS COLLECTION BOX - BLUE BOX,1923 N CARVER ST,GREENSBURG,IN,,US,,,,United States Postal Service,Q668687
4724000015,usps_collection_boxes,USPS COLLECTION BOX - BLUE BOX,1809 N LINCOLN ST,GREENSBURG,IN,,US,,,,United States Postal Service,Q668687
4724000014,usps_collection_boxes,USPS COLLECTION BOX - BLUE BOX,1919 N GREENSBURG XING,GREENSBURG,IN,,US,,,,United States Postal Service,Q668687
greensburg_oil-change-040192,valvoline_instant_oil_change,Valvoline,1000 N Lincoln St ,Greensburg,IN,,US,+1 812-663-7795,https://store.vioc.com/in/greensburg/oil-change-040192.html,,Valvoline Instant Oil Change,Q7912852
A00000018562,verizon_us,TCC Greensburg,,GREENSBURG,IN,,US,+1 812-662-8885,https://www.verizon.com/stores/details/indiana/greensburg/tcc-greensburg-1445822/,Mo-Sa 09:00-19:00; Su 11:00-17:00,Verizon,Q919641
,visa,,,GREENSBURG,IN,,US,,,,,
,visa,,,GREENSBURG,IN,,US,,,,,
,visa,,,GREENSBURG,IN,,US,,,,,
,visa,,,GREENSBURG,IN,,US,,,,,
,visa,,,GREENSBURG,IN,,US,,,,,
,visa,,,GREENSBURG,IN,,US,,,,,
,visa,,,GREENSBURG,IN,,US,,,,,
,visa,,,GREENSBURG,IN,,US,,,,,
,visa,,,GREENSBURG,IN,,US,,,,,
,visa,,,GREENSBURG,IN,,US,,,,,
,visa,,,GREENSBURG,IN,,US,,,,,
,visa,,,GREENSBURG,IN,,US,,,,,
,visa,,,GREENSBURG,IN,,US,,,,,
,visa,,,GREENSBURG,IN,,US,,,,,
,visa,,,GREENSBURG,IN,,US,,,,,
,visa,,,GREENSBURG,IN,,US,,,,,
,visa,,,GREENSBURG,IN,,US,,,,,
,visa,,,GREENSBURG,IN,,US,,,,,
,visa,,,GREENSBURG,IN,,US,,,,,
,visa,,,GREENSBURG,IN,,US,,,,,
,visa,,,GREENSBURG,IN,,US,,,,,
,visa,,,GREENSBURG,IN,,US,,,,,
,visa,,,GREENSBURG,IN,,US,,,,,
,visa,,,GREENSBURG,IN,,US,,,,,
,visa,,,GREENSBURG,IN,,US,,,,,
,visa,,,GREENSBURG,IN,,US,,,,,
,visa,,,GREENSBURG,IN,,US,,,,,
,visa,,,GREENSBURG,IN,,US,,,,,
,visa,,,GREENSBURG,IN,,US,,,,,
,visa,,,GREENSBURG,IN,,US,,,,,
,visa,,,GREENSBURG,IN,,US,,,,,
,visa,,,GREENSBURG,IN,,US,,,,,
,visa,,,GREENSBURG,IN,,US,,,,,
,visa,,,GREENSBURG,IN,,US,,,,,
,visa,,,GREENSBURG,IN,,US,,,,,
,visa,,,GREENBURG,IN,,US,,,,,
,visa,,,GREENSBURG,IN,,US,,,,,
,visa,,,GREENSBURG,IN,,US,,,,,
,visa,,,GREENSBURG,IN,,US,,,,,
,visa,,,GREENSBURG,IN,,US,,,,,
https://locations.wendys.com/#9254262,wendys,"Wendy's Greensburg in Greensburg, IN",,Greensburg,IN,,US,+1 812-662-6548,https://locations.wendys.com/united-states/in/greensburg/1801-nbroadway,"Mo-Fr 06:00-10:30,06:00-22:00; Sa 06:30-10:30,06:30-22:00; Su 07:00-10:30,07:00-22:00",Wendy's,Q550258
e6f892b26148f585bf6512bcd7061c49,western_union,NEEDLER'S FRESH MARKET #931,,Greensburg,IN,,US,+1 812-663-8411,https://location.westernunion.com/us/in/greensburg/e6f892b26148f585bf6512bcd7061c49,,Western Union,Q861042
6bf65bd40715e19363e4a238c2ea2e9d,western_union,WALMART #001180,,Greensburg,IN,,US,+1 812-663-3434,https://location.westernunion.com/us/in/greensburg/6bf65bd40715e19363e4a238c2ea2e9d,Mo-Su 07:00-21:00,Western Union,Q861042
decatur-county-family-ymca-branch,ymca,Decatur County Family YMCA Branch,1 YMCA Way,Greensburg,IN,,US,+1 812-663-9622,https://www.ymca.org/locations/decatur-county-family-ymca-branch,,YMCA,Q157169
