Ref,Spider,Name,Address,City,State,Zipcode,Country,Phone,Website,Hours,Brand,WikiData
route-suisse-35-1196-gland,denner_ch,Denner,,Gland,,,CH,+41 58 999 17 29,https://www.denner.ch/de/filialen/denner-filiale-und-oeffnungszeiten/store/route-suisse-35-1196-gland/,Mo-Fr 07:30-19:00; Sa 07:30-18:00,Denner,Q379911
rue-de-la-paix-3-1196-gland,denner_ch,Denner,,Gland,,,CH,+41 58 999 07 56,https://www.denner.ch/de/filialen/denner-filiale-und-oeffnungszeiten/store/rue-de-la-paix-3-1196-gland/,Mo-Fr 07:30-19:00; Sa 07:30-18:00,Denner,Q379911
FordSU54702  CHE,ford,BYmyCAR - Gland,,Gland,,,CH,+41 22 999 99 69,http://www.ford.bymycar.ch/,,Ford,Q44294
publibike:f5655654-31bc-426a-bee9-795cd42fb5bb,gbfs,"Gland, La Lignière",,,,,CH,,https://www.publibike.ch,,PubliBike,
publibike:254633bf-912a-45dd-bfad-da9c9b32d1de,gbfs,"Gland, Swissquote",,,,,CH,,https://www.publibike.ch,,PubliBike,
publibike:79b2cebf-f35d-4bd5-ac7c-cc0b3c0a39e9,gbfs,"Gland, Les Tuillières",,,,,CH,,https://www.publibike.ch,,PubliBike,
publibike:94bbfe05-79db-4564-954c-77eb95bcef63,gbfs,"Gland, Gare Sud",,,,,CH,,https://www.publibike.ch,,PubliBike,
publibike:80716508-04b7-4311-90d1-b92c323fb4bc,gbfs,"Gland, UICN",,,,,CH,,https://www.publibike.ch,,PubliBike,
publibike:0de00fa0-c3a7-42d0-b0d2-2888cefa8fc8,gbfs,"Gland, Eikenott",,,,,CH,,https://www.publibike.ch,,PubliBike,
publibike:f900f4d4-8922-4dff-995a-efbdf366c952,gbfs,"hors service pour des raisons techniques : Gland, La Falaise",,,,,CH,,https://www.publibike.ch,,PubliBike,
publibike:bd1491c5-a4fc-4657-b67b-c095d2c810de,gbfs,"Gland, En Bord",,,,,CH,,https://www.publibike.ch,,PubliBike,
publibike:c9107d4f-a9f1-41e7-82d5-c188a796acee,gbfs,"Gland, La Dôle",,,,,CH,,https://www.publibike.ch,,PubliBike,
publibike:06469d7a-be24-4447-9d1d-4ea5f9ff89e1,gbfs,"Gland, Grand'Rue",,,,,CH,,https://www.publibike.ch,,PubliBike,
publibike:cf6916b2-cfc5-4574-9787-e2321619f4db,gbfs,"Gland, Montoly",,,,,CH,,https://www.publibike.ch,,PubliBike,
publibike:c4b13c56-a216-4587-959f-08a32bbbb01a,gbfs,"Gland, Place Riant-Coteau",,,,,CH,,https://www.publibike.ch,,PubliBike,
publibike:27048532-67cc-4ae5-9b67-526d7489a79e,gbfs,"Gland, Le Midi",,,,,CH,,https://www.publibike.ch,,PubliBike,
124,lidl_ch,Lidl,,Gland,,,CH,,,Mo-Fr 07:30-19:00; Sa 07:30-18:00,Lidl,Q151954
0045260_spx,migros_ch,SportXX,,Gland,,,CH,+41 58 573 41 00,https://filialen.migros.ch/de/bike-world-bike-world-gland,Tu-Fr 09:00-18:30; Sa 09:00-18:00,SportXX,Q19309319
4797157_mno,migros_ch,Migrolino,,Gland,,,CH,,https://filialen.migros.ch/de/migrolino-gland,Mo-Fr 06:00-22:00; Sa-Su 07:00-22:00,Migrolino,Q56745088
0044300_super,migros_ch,Migros,,Gland,,,CH,+41 58 573 49 00,https://filialen.migros.ch/de/migros-supermarkt-gland,Mo-Fr 07:30-19:00; Sa 07:30-18:00,Migros,Q115661152
0044300_flori,migros_ch,Florissimo,,Gland,,,CH,+41 58 573 49 00,https://filialen.migros.ch/de/florissimo-gland,Mo-Fr 07:30-19:00; Sa 07:30-18:00,Florissimo,Q115659418
0049102_voi,migros_ch,VOI,,Gland,,,CH,+41 58 573 40 90,https://filialen.migros.ch/de/voi-voi-gland,Mo-Fr 07:30-19:00; Sa 07:30-18:00,VOI,Q110277616
75656017_001-renault,renault,AUTO-LA COTE SA,,GLAND,,,CH,+41 22 364 12 72,,,Renault,Q6686
75656017_001-dacia,renault,AUTO-LA COTE SA,,GLAND,,,CH,+41 22 364 12 72,,,Dacia,Q27460
7612555515719,valora,Avec,,Gland,,,CH,,,,Avec,Q103863974
,visa,,,GLAND,,,CH,,,,,
