Ref,Spider,Name,Address,City,State,Zipcode,Country,Phone,Website,Hours,Brand,WikiData
209480,bluerhino,CASEY'S GENERAL STORE #6524,,Itasca,IL,,US,+1 630-438-5002,,,Blue Rhino,Q65681213
73720,bluerhino,Speedway #7505,,Itasca,IL,,US,+1 630-350-2119,,,Blue Rhino,Q65681213
155425,bluerhino,Walgreens #3622,,Itasca,IL,,US,+1 630-875-0244,,,Blue Rhino,Q65681213
18952046921496014300100000000000,bp,BP,,Itasca,IL,,US,+1 708-407-1866,,Mo-Su 07:00-22:00,BP,Q152057
https://child-care-preschool.brighthorizons.com/IL/Itasca/chancellory,brighthorizons,Bright Horizons at The Chancellory,,Itasca,IL,,US,+1 630-250-0400,https://child-care-preschool.brighthorizons.com/il/itasca/chancellory,Mo-Fr 07:00-18:00,Bright Horizons,Q4967421
76933,citi,ATM Speedway,,Itasca,IL,,US,,,,Citibank,Q857063
362494,dunkin_us,Dunkin',,Itasca,IL,,US,+1 630-634-7006,https://locations.dunkindonuts.com/en/il/itasca/351-n-rohlwing-rd/362494,Mo-Fr 04:00-19:00; Sa-Su 05:00-18:00,Dunkin',Q847743
https://www.edwardjones.com/us-en/financial-advisor/erin-wambangco,edwardjones,Erin A Wambangco,,Itasca,IL,,US,+1 630-773-1869,https://www.edwardjones.com/us-en/financial-advisor/erin-wambangco,,Edward Jones,Q5343830
6068,extra_space_storage,Itasca Self Storage at 1220 Norwood Ave,,Itasca,IL,,US,+1 630-468-1611,https://www.extraspace.com/storage/facilities/us/illinois/itasca/6068/,Mo-Fr 09:30-18:00; Sa 09:00-17:30,Extra Space Storage,Q5422162
200323000,exxonmobil,7-ELEVEN 33346,,ITASCA,IL,,US,+1 630-285-0711,https://www.exxon.com/en/find-station/exxon-itasca-il-7eleven33346-200323000,24/7,Exxon,Q109675651
https://local.fedex.com/#25197830,fedex,,,Itasca,IL,,US,+1 800-463-3339,https://local.fedex.com/en-us/il/itasca/mxi49,,FedEx,Q459477
https://locations.53.com/#3033813,fifththirdbank,Fifth Third Bank Itasca,,Itasca,IL,,US,+1 630-250-0610,https://locations.53.com/il/itasca/600-park-boulevard.html,Mo-Th 09:00-17:30; Fr 09:00-18:00; Sa 09:00-14:00,Fifth Third Bank,Q1411810
https://locations.ironmountain.com/il/itasca/177/,iron_mountain,"Iron Mountain in 1400 w Thorndale ave, Itasca, Illinois | Secure Shredding, Scanning, IT Asset Disposition, & Records Management",,Itasca,IL,,US,+1 800-899-4766,https://locations.ironmountain.com/il/itasca/177/,,Iron Mountain Incorporated,Q1673079
786,mightyflame,BP ITASCA,,ITASCA,IL,,US,+1 630-438-5190,,,Mighty Flame,
https://restaurants.subway.com/#14897140,subway,Subway,,Itasca Du Page,IL,,US,+1 630-250-7180,https://restaurants.subway.com/united-states/il/itasca/1209-w-irving-park-rd,Mo-We 07:00-21:30; Th-Fr 07:00-22:00; Sa 09:00-20:00; Su 10:00-18:00,Subway,Q244457
1368128,usps,ITASCA,,ITASCA,IL,,US,+1 630-773-0979,,Mo-Fr 08:30-18:00; Sa 09:00-13:00,United States Postal Service,Q668687
6014300044,usps_collection_boxes,USPS COLLECTION BOX - BLUE BOX,1097 W HAWTHORN DR,ITASCA,IL,,US,,,,United States Postal Service,Q668687
6014300041,usps_collection_boxes,USPS COLLECTION BOX - PO LOBBY,1050 W IRVING PARK RD,ITASCA,IL,,US,,,,United States Postal Service,Q668687
6014300042,usps_collection_boxes,USPS COLLECTION BOX - PO LOBBY,1050 W IRVING PARK RD,ITASCA,IL,,US,,,,United States Postal Service,Q668687
6014300046,usps_collection_boxes,USPS COLLECTION BOX - APC,1050 W IRVING PARK RD,ITASCA,IL,,US,,,,United States Postal Service,Q668687
6014300048,usps_collection_boxes,USPS COLLECTION BOX - PO LOBBY,1050 W IRVING PARK RD,ITASCA,IL,,US,,,,United States Postal Service,Q668687
6014300034,usps_collection_boxes,USPS COLLECTION BOX - BLUE BOX,1050 W IRVING PARK RD,ITASCA,IL,,US,,,,United States Postal Service,Q668687
6014300031,usps_collection_boxes,USPS COLLECTION BOX - EXPRESS,300 PARK BLVD,ITASCA,IL,,US,,,,United States Postal Service,Q668687
6014300002,usps_collection_boxes,USPS COLLECTION BOX - BLUE BOX,1222 HAMILTON PKWY,ITASCA,IL,,US,,,,United States Postal Service,Q668687
6014300038,usps_collection_boxes,USPS COLLECTION BOX - BLUE BOX,550 E DEVON AVE,ITASCA,IL,,US,,,,United States Postal Service,Q668687
6014300045,usps_collection_boxes,USPS COLLECTION BOX - BLUE BOX,1100 N ARLINGTON HEIGHTS RD,ITASCA,IL,,US,,,,United States Postal Service,Q668687
6014300019,usps_collection_boxes,USPS COLLECTION BOX - BLUE BOX,1222 ARDMORE AVE,ITASCA,IL,,US,,,,United States Postal Service,Q668687
6014300032,usps_collection_boxes,USPS COLLECTION BOX - EXPRESS,1222 ARDMORE AVE,ITASCA,IL,,US,,,,United States Postal Service,Q668687
6014300023,usps_collection_boxes,USPS COLLECTION BOX - BLUE BOX,308 W IRVING PARK RD,ITASCA,IL,,US,,,,United States Postal Service,Q668687
,visa,,,WOOD DALE,IL,,US,,,,,
,visa,,,ITASCA,IL,,US,,,,,
,visa,,,ITASCA,IL,,US,,,,,
,visa,,,ITASCA,IL,,US,,,,,
,visa,,,ITASCA,IL,,US,,,,,
,visa,,,ITASCA,IL,,US,,,,,
,visa,,,ITASCA,IL,,US,,,,,
,visa,,,ITASCA,IL,,US,,,,,
,visa,,,ITASCA,IL,,US,,,,,
,visa,,,ITASCA,IL,,US,,,,,
,visa,,,ITASCA,IL,,US,,,,,
,visa,,,ITASCA,IL,,US,,,,,
,visa,,,ITASCA,IL,,US,,,,,
,visa,,,ITASCA,IL,,US,,,,,
,visa,,,ITASCA,IL,,US,,,,,
,visa,,,ITASCA,IL,,US,,,,,
,visa,,,ITASCA,IL,,US,,,,,
,visa,,,ITASCA,IL,,US,,,,,
,visa,,,ITASCA,IL,,US,,,,,
,visa,,,ITASCA,IL,,US,,,,,
,visa,,,ITASCA,IL,,US,,,,,
,visa,,,ITASCA,IL,,US,,,,,
,visa,,,ITASCA,IL,,US,,,,,
,visa,,,ITASCA,IL,,US,,,,,
,visa,,,ITASCA,IL,,US,,,,,
,visa,,,ITASCA,IL,,US,,,,,
,visa,,,ITASCA,IL,,US,,,,,
,visa,,,ITASCA,IL,,US,,,,,
,visa,,,ITASCA,IL,,US,,,,,
https://www.walgreens.com/locator/walgreens-1325+e+irving+park+rd-itasca-il-60143/id=3622,walgreens,Walgreens,,Itasca,IL,,US,+1 630-875-0244,https://www.walgreens.com/locator/walgreens-1325+e+irving+park+rd-itasca-il-60143/id=3622,Mo-Sa 07:00-22:00; Su 08:00-22:00,Walgreens,Q1591889
https://locations.wendys.com/#9253128,wendys,"Wendy's 1171 North Rohlwing Road in Itasca, IL",,Itasca,IL,,US,+1 630-250-7160,https://locations.wendys.com/united-states/il/itasca/1171-north-rohlwing-road,"Mo-Sa 06:00-10:30,06:00-22:00; Su 10:30-18:00",Wendy's,Q550258
