Ref,Spider,Name,Address,City,State,Zipcode,Country,Phone,Website,Hours,Brand,WikiData
DON-32,aldi_sud_de,,"Heiligenbreite 3, 88662, Überlingen, Deutschland",Überlingen,,,DE,,,Mo-Sa 08:00-20:00,ALDI Süd,Q41171672
https://vertretung.allianz.de/bienert.schweizer/,allianz_de,Allianz Versicherung Bienert und Schweizer OHG UNKNOWN,,Überlingen,,,DE,+49 7551 92810,https://vertretung.allianz.de/bienert.schweizer/,Mo-Fr 09:00-12:00,Allianz SE,Q487292
23031700,bp,David Gruhn,,Überlingen,,,DE,+49 7551 4767,http://tankstelle.aral.de/tankstelle/23031700,Mo-Su 05:00-22:00,BP,Q152057
https://www.biomarkt.de/ueberlingen-hochbildstrasse-1,denns_de,Bio Fritz Überlingen,,Überlingen,,,DE,+49 7551 9810491,https://www.biomarkt.de/ueberlingen-hochbildstrasse-1/marktseite,,Denns BioMarkt,Q48883773
de:976,dm,dm-drogerie markt,,Überlingen,,,DE,+49 7551 301216,https://www.dm.de/store/d1gg/ueberlingen/lippertsreuter-strasse-4b,Mo-Sa 08:00-20:00,dm,Q266572
47.769629.16722,dpd_de,Galerie und Einrahmungen,,Überlingen,,,DE,,,,DPD,Q541030
47.76759139.156712,dpd_de,Inra Store,,Überlingen,,,DE,,,,DPD,Q541030
47.75372409359.1916707001,dpd_de,NKD Deutschland GmbH,,Überlingen,,,DE,,,,DPD,Q541030
FordGK1U120  DEU,ford,Bihl GmbH & Co. KG - Überlingen,,Überlingen,,,DE,+49 7551 92360,ford-bihl-ueberlingen.de,,Ford,Q44294
https://www.fressnapf.de/stores/fressnapf-uberlingen/,fressnapf_de,Fressnapf Überlingen,,Überlingen,,,DE,+49 7551 69203,https://www.fressnapf.de/stores/fressnapf-uberlingen/,Mo-Fr 08:00-20:00; Sa 08:00-18:00,Fressnapf,Q875796
2760913447,gls_de,Inra store,,Überlingen,,,DE,+49 160 99120339,,Mo-Sa 11:00-20:00,General Logistics Systems,Q46495823
2760900864,gls_de,TV-Hifi-Video Kirchmann GmbH,,Überlingen,,,DE,+49 7551 5017,,Mo-Fr 09:00-18:00,General Logistics Systems,Q46495823
1799,jysk,Überlingen,,Überlingen,,,DE,+49 7551 3097790,https://jysk.de/filialen?storeId=1799,Mo-Fr 10:00-19:00; Sa 09:30-18:00,JYSK,Q138913
DE6820,kaufland,Kaufland Überlingen,,Überlingen am Bodensee,,,DE,+49 7551 93230,https://filiale.kaufland.de/service/filiale/frankfurt-oder-spitzkrug-multi-center-ueberlingen-6820.html,Mo-Sa 07:00-21:00,Kaufland,Q685967
1371,kik,KiK,,Überlingen,,,DE,+49 7551 309151,,Mo-Sa 09:00-19:00,KiK,Q883965
1276,lidl_de,,,Überlingen,,,DE,,,Mo-Sa 07:00-21:00,Lidl,Q151954
3340,mueller,Müller,,Überlingen,,,DE,+49 7551 9370760,https://www.mueller.de/meine-filiale/ueberlingen/abigstr-1/,,Müller,Q1958759
3304,mueller,Müller,,Überlingen,,,DE,+49 7551 9379890,https://www.mueller.de/meine-filiale/ueberlingen/christophstr-25/,,Müller,Q1958759
47.77193_9.17446,norma_de,NORMA,,Überlingen,,,DE,,,Mo-Sa 07:00-20:00,Norma,Q450180
7269,remax_de,RE/MAX,,,,,DE,+49 7551 944560,/seeimmobilien-ueberlingen,Mo-Th 08:30-18:00; Fr 08:30-15:30; Sa-Su 00:00-24:00,RE/MAX,Q965845
27613806_001-renault,renault,Autohaus Canic GmbH,,Überlingen,,,DE,+49 7551 9376380,,,Renault,Q6686
27681195_001-dacia,renault,Autohaus Canic GmbH,,Überlingen,,,DE,+49 7551 9376380,,,Dacia,Q27460
41151,seat_de,Gohm + Graf Hardenberg GmbH,,Überlingen,,,DE,+49 7551 80950,,,SEAT,Q188217
https://www.sixt.co.uk/car-hire/germany/ueberlingen/ueberlingen/,sixt,Car Hire Ueberlingen | SIXT rent a car,,Überlingen,,,DE,,https://www.sixt.co.uk/car-hire/germany/ueberlingen/ueberlingen/,Mo-Fr 07:30-18:00; Sa 08:00-12:00,SIXT,Q705664
128890,sparkasse_de,Sparkasse Bodensee Geldautomat LA PIAZZA,,Überlingen,,,DE,+49 7541 7040,https://www.sparkasse.de/standorte/geldautomaten/sparkasse-bodensee-geldautomat-la-piazza-128890,Mo-Sa 08:00-20:00,Sparkasse,Q13601825
110437,sparkasse_de,Sparkasse Bodensee SB-Filiale LA PIAZZA,,Überlingen,,,DE,+49 7541 7040,https://www.sparkasse.de/standorte/filialen/sparkasse-bodensee-sb-filiale-la-piazza-110437,Mo-Sa 08:00-20:00,Sparkasse,Q13601825
168053,sparkasse_de,Sparkasse Bodensee Geldautomat Nußdorf,,Überlingen,,,DE,+49 7541 7040,https://www.sparkasse.de/standorte/geldautomaten/sparkasse-bodensee-geldautomat-nussdorf-168053,24/7,Sparkasse,Q13601825
128841,sparkasse_de,Sparkasse Bodensee SB-Filiale Nußdorf,,Überlingen,,,DE,+49 7541 7040,https://www.sparkasse.de/standorte/filialen/sparkasse-bodensee-sb-filiale-nussdorf-128841,24/7,Sparkasse,Q13601825
128895,sparkasse_de,Sparkasse Bodensee Geldautomat St. Johann,,Überlingen,,,DE,+49 7541 7040,https://www.sparkasse.de/standorte/geldautomaten/sparkasse-bodensee-geldautomat-st-johann-128895,Mo-Su 05:00-24:00,Sparkasse,Q13601825
110440,sparkasse_de,Sparkasse Bodensee Beratungscenter St. Johann,,Überlingen,,,DE,+49 7551 9330,https://www.sparkasse.de/standorte/filialen/sparkasse-bodensee-beratungscenter-st-johann-110440,Mo-Tu 09:30-12:30; Fr 09:30-12:30,Sparkasse,Q13601825
110434,sparkasse_de,Sparkasse Bodensee Direktion Überlingen,,Überlingen,,,DE,+49 7551 9330,https://www.sparkasse.de/standorte/filialen/sparkasse-bodensee-direktion-ueberlingen-110434,"Mo-Fr 09:30-12:30,13:00-17:00",Sparkasse,Q13601825
128886,sparkasse_de,Sparkasse Bodensee Geldautomat Direktion Überlingen,,Überlingen,,,DE,+49 7541 7040,https://www.sparkasse.de/standorte/geldautomaten/sparkasse-bodensee-geldautomat-direktion-ueberlingen-128886,24/7,Sparkasse,Q13601825
DE_EXT_01001,totalenergies,Johann Deisenhofer GmbH,,Überlingen,,,DE,,https://store.totalenergies.fr/en_EN/DE_EXT_01001,,Aral,Q565734
DE_EXT_12135,totalenergies,Agip Ueberlingen,,Ueberlingen,,,DE,,https://store.totalenergies.fr/en_EN/DE_EXT_12135,,Agip,Q377915
EX_BP_1329,totalenergies,"ARAL TANKSTELLE ÜBERLINGEN, LI",,Überlingen,,,DE,,https://store.totalenergies.fr/en_EN/EX_BP_1329,,Aral,Q565734
N730021,united_colors_of_benetton,Benetton Ueberlingen,,UEBERLINGEN,,,DE,+49 7551 5305,,,United Colors of Benetton,Q817139
,visa,,,UEBERLINGEN,,,DE,,,,,
,visa,,,UEBERLINGEN,,,DE,,,,,
,visa,,,UEBERLINGEN,,,DE,,,,,
,visa,,,UEBERLINGEN,,,DE,,,,,
,visa,,,UEBERLINGEN,,,DE,,,,,
,visa,,,UEBERLINGEN,,,DE,,,,,
6DE08187,volvo,Autohaus Repp GmbH & Co. KG,,Überlingen,,,DE,+49 7551 4188,http://www.volvocars-haendler.de/repp/,,Volvo,Q215293
https://www.vr.de/standorte/Z/volksbank-ueberlingen-sb-filiale-ueberlingen-la-piazza-8817.html,vr_bank,Volksbank Überlingen - SB-Filiale Überlingen La Piazza,,Überlingen,,,DE,+49 7551 9300,https://www.volksbank-ueberlingen.de,24/7,,
https://www.vr.de/standorte/Z/volksbank-ueberlingen-filiale-ueberlingen-espach-8816.html,vr_bank,Volksbank Überlingen - Filiale Überlingen Espach,,Überlingen,,,DE,+49 7551 9301339,https://www.volksbank-ueberlingen.de,"Mo-Th 09:00-12:30,14:00-16:30; Fr 09:00-12:30",,
https://www.vr.de/standorte/Z/volksbank-ueberlingen-8815.html,vr_bank,Volksbank Überlingen,,Überlingen,,,DE,+49 7551 9300,https://www.volksbank-ueberlingen.de,"Tu 09:00-12:30,14:00-16:30; We 09:00-12:30; Th 09:00-12:30,14:00-16:30; Fr 09:00-12:30",,
