Ref,Spider,Name,Address,City,State,Zipcode,Country,Phone,Website,Hours,Brand,WikiData
34096,bluerhino,Home Town Hardware,,Gouldsboro,PA,,US,+1 570-842-8460,,,Blue Rhino,Q65681213
17002,burgerking,Burger King,,Gouldsboro ,PA,,US,+1 570-842-3888,https://www.bk.com/store-locator/store/restaurant_10719,Mo-Sa 06:00-23:00; Su 07:00-23:00,Burger King,Q177054
200313181,exxonmobil,AL'S KWIK MART #3,,GOULDSBORO,PA,,US,+1 570-842-6214,https://www.exxon.com/en/find-station/exxon-gouldsboro-pa-alskwikmart3-200313181,Mo-Su 06:00-22:30,Exxon,Q109675651
hometown-hardware-37947,ppgpaints,HOMETOWN HARDWARE,,"Gouldsboro, ",PA,,US,,https://www.ppgpaints.com/store-locator/us/pennsylvania/gouldsboro-paint-stores/hometown-hardware-37947,,PPG Paints,Q83891559
https://restaurants.subway.com/#14983921,subway,Subway Exxon Gas/Joe's Kwik Mart,,Gouldsboro Wayne,PA,,US,+1 570-842-6214,https://restaurants.subway.com/united-states/pa/gouldsboro/route-307-&-route-435,Mo-Su 08:00-20:00,Subway,Q244457
1365221,usps,GOULDSBORO,,GOULDSBORO,PA,,US,+1 570-842-7191,,"Mo-Fr 08:30-13:00,14:00-17:00; Sa 09:00-12:00",United States Postal Service,Q668687
1842400001,usps_collection_boxes,USPS COLLECTION BOX - BLUE BOX,546 MAIN ST,GOULDSBORO,PA,,US,,,,United States Postal Service,Q668687
1842400008,usps_collection_boxes,USPS COLLECTION BOX - PO LOBBY,546 MAIN ST,GOULDSBORO,PA,,US,,,,United States Postal Service,Q668687
1842400005,usps_collection_boxes,USPS COLLECTION BOX - PO LOBBY,546 MAIN ST,GOULDSBORO,PA,,US,,,,United States Postal Service,Q668687
,visa,,,GOULDSBORO,PA,,US,,,,,
,visa,,,GOULDSBORO,PA,,US,,,,,
,visa,,,GOLDSBORO,PA,,US,,,,,
,visa,,,HAWLEY,PA,,US,,,,,
,visa,,,GOULDSBORO,PA,,US,,,,,
,visa,,,GOULDSBORO,PA,,US,,,,,
,visa,,,CLIFTON TOWNSHIP,PA,,US,,,,,
,visa,,,GOULDSBORO,PA,,US,,,,,
,visa,,,GOULDSBORO,PA,,US,,,,,
,visa,,,COVINGTON,PA,,US,,,,,
,visa,,,GOULDSBORO,PA,,US,,,,,
