Ref,Spider,Name,Address,City,State,Zipcode,Country,Phone,Website,Hours,Brand,WikiData
Ford43400THAEN,ford,Ford Eaksaha Group Korat(Pakchong),,A.Pakchong,,,TH,+66 44 049 828,,Mo-Fr 08:00-17:00; Su 08:00-17:00,Ford,Q44294
Ford43400THATH,ford,ฟอร์ด เอกสห กรุ๊ป โคราช (ปากช่อง),,อ.ปากช่อง,,,TH,+66 44 049 828,,Mo-Fr 08:00-17:00; Su 08:00-17:00,Ford,Q44294
69159549,moneygram,GOVERNMENT SAVINGS BANK - PAKCHONG - PAK,,PAKCHONG,,,TH,+66 44 311 561,,Mo-Fr 08:30-15:30; Sa-Su 00:00-24:00,MoneyGram,Q1944412
69158663,moneygram,GOVERNMENT SAVINGS BANK - PAKCHONG - PAL,,PAKCHONG,,,TH,+66 44 365 884,,Mo-Su 09:00-18:00,MoneyGram,Q1944412
69157745,moneygram,GOVERNMENT SAVINGS BANK - PAKCHONG - LOT,,PAKCHONG,,,TH,32051246164,,Mo-Su 09:00-19:00,MoneyGram,Q1944412
,visa,,,NAKHON RATCHASIMA,,,TH,,,,,
,visa,,,NAKHON RATCHASIMA,,,TH,,,,,
,visa,,,NAKHON RATCHASIMA,,,TH,,,,,
,visa,,,NAKHON RATCHASIMA,,,TH,,,,,
,visa,,,NAKHON RATCHASIMA,,,TH,,,,,
,visa,,,NAKHON RATCHASIMA,,,TH,,,,,
,visa,,,NAKHON RATCHASIMA,,,TH,,,,,
,visa,,,NAKHON RATCHASIMA,,,TH,,,,,
,visa,,,NAKHON RATCHASIMA,,,TH,,,,,
,visa,,,NAKHON RATCHASIMA,,,TH,,,,,
,visa,,,NAKHON RATCHASIMA,,,TH,,,,,
,visa,,,NAKHON RATCHASIMA,,,TH,,,,,
,visa,,,NAKHON RATCHASIMA,,,TH,,,,,
,visa,,,NAKHON RATCHASIMA,,,TH,,,,,
,visa,,,NAKHON RATCHASIMA,,,TH,,,,,
,visa,,,NAKHON RATCHASIMA,,,TH,,,,,
,visa,,,NAKHON RATCHASIMA,,,TH,,,,,
,visa,,,NAKHON RATCHASIMA,,,TH,,,,,
,visa,,,NAKHON RATCHASIMA,,,TH,,,,,
,visa,,,NAKHON RATCHASIMA,,,TH,,,,,
,visa,,,NAKHON RATCHASIMA,,,TH,,,,,
,visa,,,NAKHON RATCHASIMA,,,TH,,,,,
,visa,,,NAKHON RATCHASIMA,,,TH,,,,,
,visa,,,NAKHON RATCHASIMA,,,TH,,,,,
,visa,,,NAKHON RATCHASIMA,,,TH,,,,,
,visa,,,NAKHON RATCHASIMA,,,TH,,,,,
,visa,,,NAKHON RATCHASIMA,,,TH,,,,,
,visa,,,NAKHON RATCHASIMA,,,TH,,,,,
,visa,,,NAKHON RATCHASIMA,,,TH,,,,,
,visa,,,NAKHON RATCHASIMA,,,TH,,,,,
,visa,,,NAKHON RATCHASIMA,,,TH,,,,,
,visa,,,NAKHON RATCHASIMA,,,TH,,,,,
,visa,,,NAKHON RATCHASIMA,,,TH,,,,,
,visa,,,NAKHON RATCHASIMA,,,TH,,,,,
,visa,,,NAKHON RATCHASIMA,,,TH,,,,,
,visa,,,NAKHON RATCHASIMA,,,TH,,,,,
,visa,,,NAKHON RATCHASIMA,,,TH,,,,,
,visa,,,NAKHON RATCHASIMA,,,TH,,,,,
,visa,,,NAKHON RATCHASIMA,,,TH,,,,,
,visa,,,NAKHON RATCHASIMA,,,TH,,,,,
,visa,,,NAKHON RATCHASIMA,,,TH,,,,,
,visa,,,NAKHON RATCHASIMA,,,TH,,,,,
,visa,,,NAKHON RATCHASIMA,,,TH,,,,,
,visa,,,NAKHON RATCHASIMA,,,TH,,,,,
,visa,,,NAKHON RATCHASIMA,,,TH,,,,,
,visa,,,NAKHON RATCHASIMA,,,TH,,,,,
,visa,,,NAKHON RATCHASIMA,,,TH,,,,,
,visa,,,NAKHON RATCHASIMA,,,TH,,,,,
,visa,,,NAKHON RATCHASIMA,,,TH,,,,,
,visa,,,NAKHON RATCHASIMA,,,TH,,,,,
,visa,,,NAKHON RATCHASIMA,,,TH,,,,,
,visa,,,NAKHON RATCHASIMA,,,TH,,,,,
,visa,,,NAKHON RATCHASIMA,,,TH,,,,,
,visa,,,NAKHON RATCHASIMA,,,TH,,,,,
,visa,,,NAKHON RATCHASIMA,,,TH,,,,,
,visa,,,NAKHON RATCHASIMA,,,TH,,,,,
,visa,,,NAKHON RATCHASIMA,,,TH,,,,,
,visa,,,NAKHON RATCHASIMA,,,TH,,,,,
,visa,,,NAKHON RATCHASIMA,,,TH,,,,,
,visa,,,NAKHON RATCHASIMA,,,TH,,,,,
,visa,,,NAKHON RATCHASIMA,,,TH,,,,,
,visa,,,NAKHON RATCHASIMA,,,TH,,,,,
,visa,,,NAKHON RATCHASIMA,,,TH,,,,,
,visa,,,NAKHON RATCHASIMA,,,TH,,,,,
,visa,,,NAKHON RATCHASIMA,,,TH,,,,,
,visa,,,NAKHON RATCHASIMA,,,TH,,,,,
,visa,,,NAKHON RATCHASIMA,,,TH,,,,,
,visa,,,NAKHON RATCHASIMA,,,TH,,,,,
,visa,,,NAKHON RATCHASIMA,,,TH,,,,,
,visa,,,NAKHON RATCHASIMA,,,TH,,,,,
,visa,,,NAKHON RATCHASIMA,,,TH,,,,,
,visa,,,NAKHON RATCHASIMA,,,TH,,,,,
,visa,,,NAKHON RATCHASIMA,,,TH,,,,,
,visa,,,NAKHON RATCHASIMA,,,TH,,,,,
,visa,,,NAKHON RATCHASIMA,,,TH,,,,,
,visa,,,NAKHON RATCHASIMA,,,TH,,,,,
,visa,,,NAKHON RATCHASIMA,,,TH,,,,,
,visa,,,NAKHON RATCHASIMA,,,TH,,,,,
,visa,,,SARABURI,,,TH,,,,,
,visa,,,NAKHON RATCHASIMA,,,TH,,,,,
,visa,,,NAKHON RATCHASIMA,,,TH,,,,,
,visa,,,NAKHON RATCHASIMA,,,TH,,,,,
,visa,,,NAKHON RATCHASIMA,,,TH,,,,,
,visa,,,NAKHON RATCHASIMA,,,TH,,,,,
,visa,,,NAKHON RATCHASIMA,,,TH,,,,,
,visa,,,NAKHON RATCHASIMA,,,TH,,,,,
,visa,,,NAKHON RATCHASIMA,,,TH,,,,,
,visa,,,NAKHON RATCHASIMA,,,TH,,,,,
,visa,,,NAKHON RATCHASIMA,,,TH,,,,,
,visa,,,NAKHON RATCHASIMA,,,TH,,,,,
,visa,,,NAKHON RATCHASIMA,,,TH,,,,,
,visa,,,NAKHON RATCHASIMA,,,TH,,,,,
,visa,,,NAKHON RATCHASIMA,,,TH,,,,,
,visa,,,NAKHON RATCHASIMA,,,TH,,,,,
,visa,,,NAKHON RATCHASIMA,,,TH,,,,,
,visa,,,NAKHON RATCHASIMA,,,TH,,,,,
