Ref,Spider,Name,Address,City,State,Zipcode,Country,Phone,Website,Hours,Brand,WikiData
,visa,,,MUKACHEVE,ZAKARPATSKA,,UA,,,,,
,visa,,,MUKACHEVE,ZAKARPATSKA,,UA,,,,,
,visa,,,MUKACHEVE,ZAKARPATSKA,,UA,,,,,
,visa,,,MUKACHEVO,ZAKARPATSKA,,UA,,,,,
,visa,,,MUKACHEVE,ZAKARPATSKA,,UA,,,,,
,visa,,,MUKACHEVO,ZAKARPATSKA,,UA,,,,,
,visa,,,MUKACHEVO,ZAKARPATS'KA,,UA,,,,,
66a69f8e7370197d2253c130d5c26617,western_union,NOVA POSHTA,,Zolotarovo,ZAKARPATSKA,,UA,,https://location.westernunion.com/ua/zakarpatska/zolotarovo/66a69f8e7370197d2253c130d5c26617,Mo-Fr 09:00-19:00; Sa 09:00-17:00,Western Union,Q861042
4894ac0bb5b7f53f6b18f866d245b498,western_union,NOVA POSHTA,,Muzhijevo,ZAKARPATSKA,,UA,,https://location.westernunion.com/ua/zakarpatska/muzhijevo/4894ac0bb5b7f53f6b18f866d245b498,Mo-Fr 09:00-19:00; Sa 09:00-17:00,Western Union,Q861042
335c6145833f066d3e0dc70234edfb6c,western_union,NOVA POSHTA,,Beregovo,ZAKARPATSKA,,UA,,https://location.westernunion.com/ua/zakarpatska/beregovo/335c6145833f066d3e0dc70234edfb6c,Mo-Fr 09:00-19:00; Sa 09:00-17:00; Su 11:00-17:00,Western Union,Q861042
58f2ae07f93913b0decff535719ca06b,western_union,TASCOMBANK JSC,,Mukachevo,ZAKARPATSKA,,UA,(+380) 3131-951753,https://location.westernunion.com/ua/zakarpatska/mukachevo/58f2ae07f93913b0decff535719ca06b,Mo-Sa 09:00-18:00,Western Union,Q861042
c9789f484c528125b10c522cc0f5c8e9,western_union,PRIVATBANK,,Mukachevo,ZAKARPATSKA,,UA,+380 56 716 1131,https://location.westernunion.com/ua/zakarpatska/mukachevo/c9789f484c528125b10c522cc0f5c8e9,Mo-Fr 09:00-17:00; Sa 09:00-16:00,Western Union,Q861042
369269bcac689d271d01437b39632021,western_union,OSCHADBANK,,Mukachevo Mukacheve,ZAKARPATSKA,,UA,+380 3131 23038,https://location.westernunion.com/ua/zakarpatska/mukachevo-mukacheve/369269bcac689d271d01437b39632021,Mo-Fr 09:00-18:00,Western Union,Q861042
e3b90e0dccf3f64ea6ac2dfc7010d1a4,western_union,NOVA POSHTA,,Mukacheve,ZAKARPATSKA,,UA,,https://location.westernunion.com/ua/zakarpatska/mukacheve/e3b90e0dccf3f64ea6ac2dfc7010d1a4,Mo-Fr 08:00-20:00; Sa 09:00-17:00; Su 11:00-17:00,Western Union,Q861042
d4ec1ce6652ff0f20f7298a3fc2a599b,western_union,PRIVATBANK,,Mukachevo,ZAKARPATSKA,,UA,+380 56 716 1131,https://location.westernunion.com/ua/zakarpatska/mukachevo/d4ec1ce6652ff0f20f7298a3fc2a599b,Mo-Fr 08:30-17:30,Western Union,Q861042
8c38ed6c67ec50000be8623cf664883a,western_union,PRIVATBANK,,Mukachevo,ZAKARPATSKA,,UA,+380 56 716 1131,https://location.westernunion.com/ua/zakarpatska/mukachevo/8c38ed6c67ec50000be8623cf664883a,Mo-Fr 09:00-17:00; Sa 09:00-16:00,Western Union,Q861042
1e204a47db62abc3750e7f92ecba93b2,western_union,OTP BANK,,Mukachevo,ZAKARPATSKA,,UA,(+380) 313-13138093,https://location.westernunion.com/ua/zakarpatska/mukachevo/1e204a47db62abc3750e7f92ecba93b2,Mo-Fr 09:15-17:30,Western Union,Q861042
715071f326adffbe5014119aada88af9,western_union,RAIFFEISEN BANK,,Mukachevo,ZAKARPATSKA,,UA,+380 800 500 500,https://location.westernunion.com/ua/zakarpatska/mukachevo/715071f326adffbe5014119aada88af9,Mo-Fr 09:00-17:30,Western Union,Q861042
0ff4e260569bd252093ac504ed5e7a94,western_union,NOVA POSHTA,,Mukacheve,ZAKARPATSKA,,UA,,https://location.westernunion.com/ua/zakarpatska/mukacheve/0ff4e260569bd252093ac504ed5e7a94,Mo-Fr 08:00-20:00; Sa 09:00-17:00; Su 11:00-17:00,Western Union,Q861042
5184b1ae779db4b853523c662c7b5208,western_union,OSCHADBANK,,Mukachevo Mukacheve,ZAKARPATSKA,,UA,+380 3131 22116,https://location.westernunion.com/ua/zakarpatska/mukachevo-mukacheve/5184b1ae779db4b853523c662c7b5208,Mo-Fr 09:00-18:00,Western Union,Q861042
6c6100243d3c253fd75ddb1ffafa8c9e,western_union,ACCENT BANK,,Mukachevo,ZAKARPATSKA,,UA,+380 56 722 0555,https://location.westernunion.com/ua/zakarpatska/mukachevo/6c6100243d3c253fd75ddb1ffafa8c9e,Mo-Fr 08:30-17:30,Western Union,Q861042
fa38e0251ecc18e78d0835276470954d,western_union,NOVA POSHTA,,Mukacheve,ZAKARPATSKA,,UA,,https://location.westernunion.com/ua/zakarpatska/mukacheve/fa38e0251ecc18e78d0835276470954d,Mo-Fr 08:00-20:00; Sa 09:00-17:00; Su 11:00-17:00,Western Union,Q861042
fef3346db19b58fffcb6125fce53dfbf,western_union,NOVA POSHTA,,Mukacheve,ZAKARPATSKA,,UA,,https://location.westernunion.com/ua/zakarpatska/mukacheve/fef3346db19b58fffcb6125fce53dfbf,Mo-Fr 08:00-20:00; Sa 09:00-17:00; Su 11:00-17:00,Western Union,Q861042
ac8515f1507256a67b45dba868e39f82,western_union,ACCENT BANK,,Mukachevo,ZAKARPATSKA,,UA,+380 56 722 0555,https://location.westernunion.com/ua/zakarpatska/mukachevo/ac8515f1507256a67b45dba868e39f82,Mo-Fr 08:30-17:30,Western Union,Q861042
143c7c62c77c3be05a8210bc9eb882dd,western_union,PRIVATBANK,,Mukachevo,ZAKARPATSKA,,UA,+380 56 716 1131,https://location.westernunion.com/ua/zakarpatska/mukachevo/143c7c62c77c3be05a8210bc9eb882dd,Mo-Fr 09:00-17:00; Sa 09:00-16:00,Western Union,Q861042
a87bf0ff27a028898196489bc9304e67,western_union,NOVA POSHTA,,Mukacheve,ZAKARPATSKA,,UA,,https://location.westernunion.com/ua/zakarpatska/mukacheve/a87bf0ff27a028898196489bc9304e67,Mo-Fr 08:00-20:00; Sa 09:00-17:00; Su 11:00-17:00,Western Union,Q861042
a9bbc3c59c881c962df7b7426dcab603,western_union,NOVA POSHTA,,Mukachevo,ZAKARPATSKA,,UA,+380 800 307 979,https://location.westernunion.com/ua/zakarpatska/mukachevo/a9bbc3c59c881c962df7b7426dcab603,Mo-Fr 08:00-20:00; Sa 09:00-18:00; Su 10:00-18:00,Western Union,Q861042
084e2731cc3276177d8e3a682705d4c0,western_union,OSCHADBANK,,Mukachevo Mukacheve,ZAKARPATSKA,,UA,+380 3131 53767,https://location.westernunion.com/ua/zakarpatska/mukachevo-mukacheve/084e2731cc3276177d8e3a682705d4c0,Mo-Fr 09:00-18:00,Western Union,Q861042
