Ref,Spider,Name,Address,City,State,Zipcode,Country,Phone,Website,Hours,Brand,WikiData
https://vertretung.allianz.de/richter.striehn/,allianz_de,Allianz Versicherung Richter und Striehn GbR GENERALVERTRETUNG,,Erfurt,,,DE,+49 361 6013862,https://vertretung.allianz.de/richter.striehn/,Mo-Th 10:00-16:00,Allianz SE,Q487292
https://vertretung.allianz.de/sigrun.klein/,allianz_de,Allianz Versicherung Sigrun Klein HAUPTVERTRETUNG,,Erfurt,,,DE,+49 361 78964455,https://vertretung.allianz.de/sigrun.klein/,"Mo 09:30-13:00; Tu 09:30-13:00,14:00-18:00; We 09:30-13:00; Th 09:30-13:00,14:00-18:00",Allianz SE,Q487292
33770,dominos_pizza_de,Domino's Pizza Erfurt Steinplatz,,Erfurt,,,DE,,https://www.dominos.de/filiale/de-erfurtsteinplatz-33770,,Domino's,Q839466
50.994312611.0259729,dpd_de,Contineo Buchhandlung,,Erfurt,,,DE,,,,DPD,Q541030
50.998193311.026359,dpd_de,ABRAXAS,,Erfurt,,,DE,,,,DPD,Q541030
FordGK2A593  DEU,ford,Spranger Automobile,,Erfurt,,,DE,+49 361 6530601,ford-spranger-erfurt.de,,Ford,Q44294
https://www.fressnapf.de/stores/fressnapf-erfurt/,fressnapf_de,Fressnapf Erfurt,,Erfurt,,,DE,+49 361 7464565,https://www.fressnapf.de/stores/fressnapf-erfurt/,Mo-Fr 09:00-19:00; Sa 09:00-18:00,Fressnapf,Q875796
2760911791,gls_de,Abraxas,,Erfurt,,,DE,+49 1523 8431230,,Mo-Fr 09:30-18:00,General Logistics Systems,Q46495823
2760913977,gls_de,Mac Drive - deine Fahrschule,,Erfurt,,,DE,+49 176 43817374,,Mo-Th 16:00-18:00; Fr 14:00-16:00,General Logistics Systems,Q46495823
8203,lidl_de,Johannesplatz,,Erfurt,,,DE,,,Mo-Fr 07:00-21:00; Sa 07:00-20:00,Lidl,Q151954
66664215,moneygram,ELEKTRONIK LIFE - ERFURT,,ERFURT,,,DE,+49 361 7521855,,Mo-Fr 10:00-19:00; Sa 10:00-15:00; Su 00:00-24:00,MoneyGram,Q1944412
51.00311_11.03684,norma_de,NORMA,,Erfurt,,,DE,,,Mo-Sa 07:00-20:00,Norma,Q450180
https://www.rossmann.de/de/filialen/thueringen/erfurt/ammertalweg-7-13.html,rossmann_de,Rossmann Drogerie-Markt Ammertalweg 7-13,,Erfurt,,,DE,+49 361 5549299,https://www.rossmann.de/de/filialen/thueringen/erfurt/ammertalweg-7-13.html,Mo-Fr 08:00-19:00; Sa 08:00-16:00,Rossmann,Q316004
EF001,rsg_group,McFIT Erfurt,,Erfurt,,,DE,+49 361 6538380,https://www.mcfit.com/de/studio/erfurt/,24/7,McFit,Q871302
115930,sparkasse_de,Sparkasse Mittelthüringen Geldautomat Magdeburger Allee,,Erfurt,,,DE,+49 361 5455000,https://www.sparkasse.de/standorte/geldautomaten/sparkasse-mittelthueringen-geldautomat-magdeburger-allee-115930,Mo-Su 05:00-23:00,Sparkasse,Q13601825
116054,sparkasse_de,Sparkasse Mittelthüringen SB-Center Magdeburger Allee,,Erfurt,,,DE,+49 361 5455000,https://www.sparkasse.de/standorte/filialen/sparkasse-mittelthueringen-sb-center-magdeburger-allee-116054,Mo-Su 05:00-23:00,Sparkasse,Q13601825
8844,sparkasse_de,Sparkasse Mittelthüringen BeratungsCenter Magdeburger Allee,,Erfurt,,,DE,+49 361 5455000,https://www.sparkasse.de/standorte/filialen/sparkasse-mittelthueringen-beratungs-center-magdeburger-allee-8844,"Mo 09:00-12:00,14:00-16:00; Tu 09:00-12:00,14:00-18:00; We 09:00-12:00; Th 09:00-12:00,14:00-18:00; Fr 09:00-12:00",Sparkasse,Q13601825
115931,sparkasse_de,Sparkasse Mittelthüringen Geldautomat Stadtwerke,,Erfurt,,,DE,+undefinedundefinedundefined,https://www.sparkasse.de/standorte/geldautomaten/sparkasse-mittelthueringen-geldautomat-stadtwerke-115931,Mo-Su 05:00-23:00,Sparkasse,Q13601825
39688,sparkasse_de,Sparkasse Mittelthüringen SB-Stelle Stadtwerke,,Erfurt,,,DE,+49 361 5455000,https://www.sparkasse.de/standorte/filialen/sparkasse-mittelthueringen-sb-stelle-stadtwerke-39688,Mo-Su 05:00-23:00,Sparkasse,Q13601825
115902,sparkasse_de,Sparkasse Mittelthüringen Geldautomat Steinplatz-Arkaden,,Erfurt,,,DE,+undefinedundefinedundefined,https://www.sparkasse.de/standorte/geldautomaten/sparkasse-mittelthueringen-geldautomat-steinplatz-arkaden-115902,Mo-Su 05:00-23:00,Sparkasse,Q13601825
39683,sparkasse_de,Sparkasse Mittelthüringen SB-Stelle Steinplatz-Arkaden,,Erfurt,,,DE,+49 361 5455000,https://www.sparkasse.de/standorte/filialen/sparkasse-mittelthueringen-sb-stelle-steinplatz-arkaden-39683,Mo-Su 05:00-23:00,Sparkasse,Q13601825
https://toom.de/m/erfurt-am-roten-berg/,toom_baumarkt_de,toom Baumarkt in Erfurt-Roter Berg,,Erfurt-Roter Berg,,,DE,+49 361 777620,https://toom.de/m/erfurt-am-roten-berg/,Mo-Sa 08:00-20:00,Toom Baumarkt,Q2442970
,visa,,,ERFURT,,,DE,,,,,
,visa,,,ERFURT -SB,,,DE,,,,,
https://www.vr.de/standorte/E/volksbank-thueringen-mitte-eg-geschaeftsstelle-erfurt-magdeburge-11085.html,vr_bank,Volksbank Thüringen Mitte eG Geschäftsstelle Erfurt Magdeburger Allee,,Erfurt,,,DE,+49 361 65790,https://www.volksbank-thueringen-mitte.de,,,
https://www.vr.de/standorte/E/vr-bank-bad-salzungen-schmalkalden-eg-beratungsstelle-erfurt-sto-17841.html,vr_bank,VR-Bank Bad Salzungen Schmalkalden eG Beratungsstelle Erfurt Stotternheimer Straße,,Erfurt,,,DE,+49 3695 6780,https://www.vrb-meinebank.de,,,
