Ref,Spider,Name,Address,City,State,Zipcode,Country,Phone,Website,Hours,Brand,WikiData
https://stores.advanceautoparts.com/or/portland/727-se-122nd-ave,advance_auto_parts_us,Advance Auto Parts - CLOSED,,Portland,OR,,US,+1 503-253-1113,https://stores.advanceautoparts.com/or/portland/727-se-122nd-ave,24/7,Advance Auto Parts,Q4686051
https://locators.bankofamerica.com/or/portland/financial-centers-portland-11339.html,bankofamerica,Bank of America Financial Center & Drive-Thru ATM | 122nd & Stark,,Portland,OR,,US,+1 503-257-3412,https://locators.bankofamerica.com/or/portland/financial-centers-portland-11339.html,Mo-Fr 10:00-16:00,Bank of America,Q487907
12,burgerville,Burgerville - Closed,,Portland,OR,,US,+1 503-253-0553,https://locations.burgerville.com/burgerville-5c6eade1f272,,Burgerville,Q4998570
26882,citi,ATM 7ELEVEN-FCTI,,Portland,OR,,US,,,,Citibank,Q857063
26360,citi,ATM 7ELEVEN-FCTI,,Portland,OR,,US,,,,Citibank,Q857063
25920,citi,ATM 7ELEVEN-FCTI,,Portland,OR,,US,,,,Citibank,Q857063
7239,dominos_pizza_us,Domino's Pizza,,Portland,OR,,US,+1 503-666-3000,https://pizza.dominos.com/oregon/portland/2323-se-182nd-ave,Mo-Th 10:00-24:00; Fr-Sa 10:00-01:00; Su 10:00-24:00,Domino's,Q839466
7232,dominos_pizza_us,Domino's Pizza,,Portland,OR,,US,+1 503-253-4848,https://pizza.dominos.com/oregon/portland/1600-se-122-ave,Mo-Th 10:00-24:00; Fr-Sa 10:00-01:00; Su 10:00-24:00,Domino's,Q839466
DB025,dutchbros,"Gresham, OR (Stark)",,Gresham,OR,,US,,https://locations.dutchbros.com/dutch-bros-coffee-626b3dded8f1,Mo-Th 05:00-22:00; Fr-Sa 05:00-23:00; Su 05:30-22:00,Dutch Bros. Coffee,Q5317253
DB091,dutchbros,"Gresham, OR - (Bk Lounge/ 187)",,Gresham,OR,,US,,https://locations.dutchbros.com/dutch-bros-coffee-6554cdfc21bb,Mo-Th 05:00-22:00; Fr-Sa 05:00-23:00; Su 05:30-22:00,Dutch Bros. Coffee,Q5317253
438,empres_us,Portland Health and Rehabilitation Center,,Portland,OR,,US,+1 503-255-7040,https://www.empres.com/location/portland-health-rehab-center/,,EmpRes,Q123370276
E14674,enterprise,Rockwood,,Portland,OR,,US,+1 503-465-1020,,,Enterprise Rent-A-Car,Q17085454
E146MJ,enterprise,Portland Truck Rental on SE Stark Street,,Portland,OR,,US,+1 503-491-1072,,,Enterprise Rent-A-Car,Q17085454
36164,h_r_block,H&R Block,,Portland,OR,,US,+1 503-661-2675,https://www.hrblock.com/local-tax-offices/oregon/portland/202-se-181-st/36164/,,H&R Block,Q5627799
36314,h_r_block,H&R Block,,Portland,OR,,US,+1 503-257-7772,https://www.hrblock.com/local-tax-offices/oregon/portland/14247-stark-st-ste-100/36314/,,H&R Block,Q5627799
https://locations.jackinthebox.com/us/or/portland/19110-se-stark-st,jackinthebox,Jack in the Box,,Portland,OR,,US,+1 503-667-5393,https://locations.jackinthebox.com/us/or/portland/19110-se-stark-st,Mo 06:00-22:00; Tu-Sa 06:00-00:00; Su 06:00-22:00,Jack in the Box,Q1538507
https://office.jacksonhewitt.com/#27578519,jackson_hewitt,Jackson Hewitt,,Portland,OR,,US,+1 503-253-6111,https://office.jacksonhewitt.com/tax-preparation-services-locations/en/or/portland/14240-se-stark/17126,Mo-Sa 11:00-19:00; Su 12:00-16:00,Jackson Hewitt,Q6117132
https://healthy.kaiserpermanente.org/oregon-washington/facilities/serenity-lane-portland-east-175408,kaiser_permanente_us,Serenity Lane - Portland East,,Portland,OR,,US,+1 503-244-4500,https://healthy.kaiserpermanente.org/oregon-washington/facilities/serenity-lane-portland-east-175408,,Kaiser Permanente,Q1721601
https://healthy.kaiserpermanente.org/oregon-washington/facilities/rockwood-medical-office-100255,kaiser_permanente_us,Rockwood Medical Office,,Portland,OR,,US,+1 800-813-2000,https://healthy.kaiserpermanente.org/oregon-washington/facilities/rockwood-medical-office-100255,,Kaiser Permanente,Q1721601
https://healthy.kaiserpermanente.org/oregon-washington/facilities/central-city-concern-puentes-135205,kaiser_permanente_us,Central City Concern - Puentes,,Portland,OR,,US,+1 503-294-1681,https://healthy.kaiserpermanente.org/oregon-washington/facilities/central-city-concern-puentes-135205,,Kaiser Permanente,Q1721601
122371,little_free_library,Little DK’s Little Library #122371 Portland OR,,Portland,OR,,US,,,,Little Free Library,Q6650101
102700,little_free_library,Nathan’s Library #102700 Portland OR,,Portland,OR,,US,,,,Little Free Library,Q6650101
31778,little_free_library,Lisa's Little Library #31778 Portland OR,,Portland,OR,,US,,,,Little Free Library,Q6650101
177988,little_free_library,Alosa's Hidden Map #177988 Portland OR,,Portland,OR,,US,,,,Little Free Library,Q6650101
107752,little_free_library,La Petite Maison Des Livres #107752 Portland OR,,Portland,OR,,US,,,,Little Free Library,Q6650101
5240,little_free_library,Kid's Little Library - Hazelwood #5240 Portland OR,,Portland,OR,,US,,,,Little Free Library,Q6650101
49008,little_free_library,The Book Barn #49008 Portland OR,,Portland,OR,,US,,,,Little Free Library,Q6650101
153970,little_free_library,Chickadee Peak Little Library #153970 Portland OR,,Portland,OR,,US,,,,Little Free Library,Q6650101
15216,little_free_library,La Bibliothèque des Rêves #15216 Portland OR,,Portland,OR,,US,,,,Little Free Library,Q6650101
100452,little_free_library,The Mosaic Library #100452 Portland OR,,Portland,OR,,US,,,,Little Free Library,Q6650101
86649,little_free_library,Eastman Home #86649 Portland OR,,Portland,OR,,US,,,,Little Free Library,Q6650101
131803,little_free_library,Get Lit-eratured #131803 Portland OR,,Portland,OR,,US,,,,Little Free Library,Q6650101
159133,little_free_library,NSBE Portland Professionals #159133 #159133 Portland OR,,Portland,OR,,US,,,,Little Free Library,Q6650101
166352,little_free_library,Catherine Rondthaler #166352 #166352 Portland OR,,Portland,OR,,US,,,,Little Free Library,Q6650101
https://locations.oreillyauto.com/or/portland/check-engine-light-testing-2514.html,oreilly,Your Portland O'Reilly Auto Parts Store,,Portland,OR,,US,+1 503-667-1400,https://locations.oreillyauto.com/or/portland/check-engine-light-testing-2514.html,Mo-Sa 07:30-21:00; Su 08:00-20:00,O'Reilly Auto Parts,Q7071951
https://locations.oreillyauto.com/or/portland/wiper-installation-2514.html,oreilly,Your Portland O'Reilly Auto Parts Store,,Portland,OR,,US,+1 503-667-1400,https://locations.oreillyauto.com/or/portland/wiper-installation-2514.html,Mo-Sa 07:30-21:00; Su 08:00-20:00,O'Reilly Auto Parts,Q7071951
https://locations.oreillyauto.com/or/portland/battery-testing-2514.html,oreilly,Your Portland O'Reilly Auto Parts Store,,Portland,OR,,US,+1 503-667-1400,https://locations.oreillyauto.com/or/portland/battery-testing-2514.html,Mo-Sa 07:30-21:00; Su 08:00-20:00,O'Reilly Auto Parts,Q7071951
https://locations.oreillyauto.com/or/portland/autopartes-2514.html,oreilly,Tu tienda O'Reilly Auto Parts en Portland,,Portland,OR,,US,+1 503-667-1400,https://locations.oreillyauto.com/or/portland/autopartes-2514.html,Mo-Sa 07:30-21:00; Su 08:00-20:00,O'Reilly Auto Parts,Q7071951
https://locations.papamurphys.com/#15430197,papamurphys,Pizza Takeout & Delivery,,Portland,OR,,US,+1 503-666-7272,https://locations.papamurphys.com/or/portland/18012-south-east-stark-street,Mo-Su 10:00-21:00,Papa Murphy's,Q7132349
https://www.providence.org/locations/or/elderplace-gresham,providence_us,ElderPlace Gresham,,Portland,OR,,US,+1 503-215-9800,https://www.providence.org/locations/or/elderplace-gresham,,Providence,Q7252430
https://restaurants.subway.com/#14907768,subway,Subway,,Portland Multnomah,OR,,US,+1 503-907-0096,https://restaurants.subway.com/united-states/or/portland/18801-southeast-starkstreet,Mo-Su 08:00-22:00,Subway,Q244457
https://locations.tacobell.com/#6145613,taco_bell,Taco Bell,,Portland,OR,,US,+1 503-665-1555,https://locations.tacobell.com/or/portland/18510-se-stark-st-.html,Mo-We 07:00-02:00; Th-Sa 07:00-03:00; Su 07:00-02:00,Taco Bell,Q752941
6670,taco_time,Taco Time Store 6670,,Portland,OR,,US,+1 503-465-9220,https://www.tacotime.com/stores/6670,Mo-Sa 10:00-22:00; Su 10:00-21:30,Taco Time,Q7673969
9723300050,usps_collection_boxes,USPS COLLECTION BOX - BLUE BOX,2410 SE 182ND AVE,PORTLAND,OR,,US,,,,United States Postal Service,Q668687
9723300057,usps_collection_boxes,USPS COLLECTION BOX - BLUE BOX,12500 SE STARK ST,PORTLAND,OR,,US,,,,United States Postal Service,Q668687
9723300026,usps_collection_boxes,USPS COLLECTION BOX - BLUE BOX,14220 SE STARK ST,PORTLAND,OR,,US,,,,United States Postal Service,Q668687
https://vcahospitals.com/southeast-portland,vca,VCA Southeast Portland Animal Hospital,,Portland,OR,,US,+1 503-255-8139,https://vcahospitals.com/southeast-portland,Mo-Su 07:00-19:00,VCA,Q7906620
,visa,,,PORTLAND,OR,,US,,,,,
,visa,,,PORTLAND,OR,,US,,,,,
,visa,,,PORTLAND,OR,,US,,,,,
,visa,,,PORTLAND,OR,,US,,,,,
,visa,,,POIRTLAND,OR,,US,,,,,
,visa,,,PORTLAND,OR,,US,,,,,
,visa,,,PORTLAND,OR,,US,,,,,
,visa,,,PORTLAND,OR,,US,,,,,
,visa,,,PORTLAND,OR,,US,,,,,
,visa,,,PORTLAND,OR,,US,,,,,
,visa,,,PORTLAND,OR,,US,,,,,
,visa,,,PORTLAND,OR,,US,,,,,
,visa,,,PORTLAND,OR,,US,,,,,
,visa,,,GRESHAM BUTTE,OR,,US,,,,,
,visa,,,GRESHAM BUTTE,OR,,US,,,,,
,visa,,,PORTLAND,OR,,US,,,,,
,visa,,,PORTLAND,OR,,US,,,,,
,visa,,,PORTLAND,OR,,US,,,,,
,visa,,,PORTLAND,OR,,US,,,,,
,visa,,,PORTLAND,OR,,US,,,,,
,visa,,,PORTLAND,OR,,US,,,,,
,visa,,,PORTLAND,OR,,US,,,,,
,visa,,,PORTLAND,OR,,US,,,,,
,visa,,,PORTLAND,OR,,US,,,,,
,visa,,,PORTLAND,OR,,US,,,,,
,visa,,,PORTLAND,OR,,US,,,,,
,visa,,,PORTLAND,OR,,US,,,,,
,visa,,,PORTLAND,OR,,US,,,,,
,visa,,,PORTLAND,OR,,US,,,,,
,visa,,,PORTLAND,OR,,US,,,,,
,visa,,,PORTLAND,OR,,US,,,,,
,visa,,,PORTLAND,OR,,US,,,,,
,visa,,,PORTLAND,OR,,US,,,,,
,visa,,,PORTLAND,OR,,US,,,,,
,visa,,,PORTLAND,OR,,US,,,,,
,visa,,,GRESHAM,OR,,US,,,,,
,visa,,,PORTLAND,OR,,US,,,,,
,visa,,,PORTLAND,OR,,US,,,,,
,visa,,,PORTLAND,OR,,US,,,,,
,visa,,,PORTLAND,OR,,US,,,,,
,visa,,,PORTLAND,OR,,US,,,,,
,visa,,,PORTLAND,OR,,US,,,,,
,visa,,,PORTLAND,OR,,US,,,,,
,visa,,,PORTLAND,OR,,US,,,,,
,visa,,,PORTLAND,OR,,US,,,,,
,visa,,,PORTLAND,OR,,US,,,,,
,visa,,,PORTLAND,OR,,US,,,,,
,visa,,,PORTLAND,OR,,US,,,,,
,visa,,,PORTLAND,OR,,US,,,,,
,visa,,,PORTLAND,OR,,US,,,,,
,visa,,,PORTLAND,OR,,US,,,,,
,visa,,,PORTLAND,OR,,US,,,,,
,visa,,,PORTLAND,OR,,US,,,,,
,visa,,,PORTLAND,OR,,US,,,,,
,visa,,,PORTLAND,OR,,US,,,,,
,visa,,,PORTLAND,OR,,US,,,,,
,visa,,,PORTLAND,OR,,US,,,,,
,visa,,,PORTLAND,OR,,US,,,,,
,visa,,,PORTLAND,OR,,US,,,,,
,visa,,,PORTLAND,OR,,US,,,,,
,visa,,,PORTLAND,OR,,US,,,,,
,visa,,,PORTLAND,OR,,US,,,,,
,visa,,,PORTLAND,OR,,US,,,,,
,visa,,,PORTLAND,OR,,US,,,,,
,visa,,,PORTLAND,OR,,US,,,,,
,visa,,,PORTLAND,OR,,US,,,,,
,visa,,,PORTLAND,OR,,US,,,,,
,visa,,,PORTLAND,OR,,US,,,,,
,visa,,,TIGARD,OR,,US,,,,,
,visa,,,TIGARD,OR,,US,,,,,
,visa,,,KING CITY,OR,,US,,,,,
440__SE__181ST__AVE_PORTLAND_OR_97233,wellsfargo,Wells Fargo,440 SE 181ST AVE,PORTLAND,OR,,US,+1 503-667-7181,https://www.wellsfargo.com/locator/bank/440__SE__181ST__AVE_PORTLAND_OR_97233/,Mo-Fr 09:00-17:00,Wells Fargo,Q744149
3c725ef4e092e581112728ff53af437e,western_union,7-ELEVEN #14503,,Portland,OR,,US,+1 503-253-8966,https://location.westernunion.com/us/or/portland/3c725ef4e092e581112728ff53af437e,,Western Union,Q861042
