Ref,Spider,Name,Address,City,State,Zipcode,Country,Phone,Website,Hours,Brand,WikiData
https://local.jewelosco.com/#5603698,albertsons,Jewel-Osco,,Oak Park,IL,,US,+1 708-524-9660,https://local.jewelosco.com/il/oak-park/7036-roosevelt-rd.html,Mo-Su 06:00-23:00,Jewel-Osco,Q3178470
https://locators.bankofamerica.com/il/oakpark/financial-centers-oak-park-16295.html,bankofamerica,Bank of America Financial Center & Drive-Thru ATM | Oak Park,,Oak Park,IL,,US,+1 708-383-5900,https://locators.bankofamerica.com/il/oakpark/financial-centers-oak-park-16295.html,Mo-Fr 10:00-16:00,Bank of America,Q487907
https://locations.baskinrobbins.com/il/oak-park/6820-w.-roosevelt-336492-br,baskin_robbins_us,Baskin-Robbinsâ„¢,,Oak Park,IL,,US,+1 708-386-3322,https://locations.baskinrobbins.com/il/oak-park/6820-w.-roosevelt-336492-br,Mo-Fr 03:00-24:00; Sa 00:00-24:00; Su 03:00-24:00,Baskin-Robbins,Q584601
155507,bluerhino,Walgreens #5235,,Oak Park,IL,,US,+1 708-386-9359,,,Blue Rhino,Q65681213
83487505975206030400100000000000,bp,BP,,Oak Park,IL,,US,+1 708-386-2816,,Mo-Su 07:00-22:00,BP,Q152057
46311788441406030400100000961334,bp,BP,,Oak Park,IL,,US,+1 708-386-1053,,Mo-Su 07:00-22:00,BP,Q152057
5862,camp_bow_wow,Camp Bow Wow Oak Park,,Oak Park,IL,,US,+1 708-848-2267,,,Camp Bow Wow,Q121322343
2844,cvs_us,CVS Pharmacy,,Oak Park,IL,,US,+1 708-358-7791,https://www.cvs.com/store-locator/oak-park-il-pharmacies/6748-roosevelt-rd-oak-park-il-60304/storeid=2844,Mo-Su 08:00-22:00,CVS Pharmacy,Q2078880
2777,dominos_pizza_us,Domino's Pizza,,Oak Park,IL,,US,+1 708-524-8111,https://pizza.dominos.com/illinois/oak-park/329-w-chicago-ave,Mo-Th 10:30-24:00; Fr-Sa 10:30-01:00; Su 10:30-24:00,Domino's,Q839466
210125,electrify_america,"BofA Oak Park (Oak Park, IL)",,Oak Park,IL,,US,,,,Electrify America,Q59773555
https://local.fedex.com/#25199753,fedex,,,Oak Park,IL,,US,+1 800-463-3339,https://local.fedex.com/en-us/il/oak-park/rp4kb,,FedEx,Q459477
https://locations.53.com/#3034584,fifththirdbank,Fifth Third Bank Oak Park,,Oak Park,IL,,US,+1 708-848-6700,https://locations.53.com/il/oak-park/840-south-oak-park-avenue.html,Mo-Th 09:00-17:30; Fr 09:00-18:00; Sa 09:00-14:00,Fifth Third Bank,Q1411810
Motorcraft3858USAEnglish,ford,"Associated Tire & Battery Co., Inc.",,Illinois,IL,,US,+1 708-383-6673,,,Ford,Q44294
1434893,usps,OAK PARK SOUTH,,OAK PARK,IL,,US,+1 708-848-6561,,Mo-Fr 09:00-17:00; Sa 09:00-12:00,United States Postal Service,Q668687
6030400003,usps_collection_boxes,USPS COLLECTION BOX - PO LOBBY,1116 GARFIELD ST,OAK PARK,IL,,US,,,,United States Postal Service,Q668687
oakpark_oil-change-gr0039,valvoline_instant_oil_change,Valvoline,6644 W Rooselvelt Rd ,Oak Park,IL,,US,+1 708-386-6080,https://store.vioc.com/il/oakpark/oil-change-gr0039.html,,Valvoline Instant Oil Change,Q7912852
,visa,,,OAK PARK,IL,,US,,,,,
,visa,,,OAK PARK,IL,,US,,,,,
,visa,,,OAK PARK,IL,,US,,,,,
,visa,,,OAK PARK,IL,,US,,,,,
,visa,,,OAK PARK,IL,,US,,,,,
,visa,,,OAK PARK,IL,,US,,,,,
,visa,,,OAK PARK,IL,,US,,,,,
,visa,,,OAK PARK,IL,,US,,,,,
,visa,,,OAK PARK,IL,,US,,,,,
,visa,,,OAK PARK,IL,,US,,,,,
,visa,,,OAK PARK,IL,,US,,,,,
,visa,,,OAK PARK,IL,,US,,,,,
,visa,,,OAK PARK,IL,,US,,,,,
,visa,,,OAK PARK,IL,,US,,,,,
,visa,,,OAK PARK,IL,,US,,,,,
https://www.walgreens.com/locator/walgreens-6412+roosevelt+rd-oak+park-il-60304/id=5235,walgreens,Walgreens,,Oak Park,IL,,US,+1 708-386-9359,https://www.walgreens.com/locator/walgreens-6412+roosevelt+rd-oak+park-il-60304/id=5235,Mo-Fr 07:00-23:00; Sa-Su 07:00-22:00,Walgreens,Q1591889
a69ba1ffe5bc9f0e82cbd0fa13ea152f,western_union,LOLA TININGS CUISINE,,Oak Park,IL,,US,+1 708-616-8000,https://location.westernunion.com/us/il/oak-park/a69ba1ffe5bc9f0e82cbd0fa13ea152f,Mo 09:30-18:30; We-Sa 09:30-18:30; Su 09:30-15:00,Western Union,Q861042
160553,wingstop,Wingstop Oak Park Madison St,515 Madison Street,Oak Park,IL,,US,+1 708-665-9464,,,Wingstop,Q8025339
