Ref,Spider,Name,Address,City,State,Zipcode,Country,Phone,Website,Hours,Brand,WikiData
3360,first_cash,First Cash Pawn,,El Quince (San Jos√© El Quince),Jalisco,,MX,+52 33 3688 9244,,,First Cash Pawn,
,visa,,,EL SALTO,JALISCO,,MX,,,,,
,visa,,,EL SALTO,JALISCO,,MX,,,,,
,visa,,,EL SALTO,JALISCO,,MX,,,,,
,visa,,,EL SALTO,JALISCO,,MX,,,,,
,visa,,,EL SALTO,JALISCO,,MX,,,,,
,visa,,,GUADALAJARA,JALISCO,,MX,,,,,
,visa,,,EL SALTO,JALISCO,,MX,,,,,
bc5ab961293449ec347fe0b6c7efc2dd,western_union,FARM GUAD 2645 EL CASTILLO,,El Salto,JALISCO,,MX,(+52) 81-018008334700,https://location.westernunion.com/mx/jalisco/el-salto/bc5ab961293449ec347fe0b6c7efc2dd,Mo-Su 08:00-22:00,Western Union,Q861042
8da15e258e4694d684e516b795dcbee2,western_union,FARM GUAD 2645 EL CASTILLO,,El Salto,JALISCO,,MX,(+52) 81-018008334700,https://location.westernunion.com/mx/jalisco/el-salto/8da15e258e4694d684e516b795dcbee2,Mo-Su 08:00-22:00,Western Union,Q861042
aa0d491d754df94ff4eb78fbbbce899f,western_union,AURRERA EXPRESS GLORIETA CIMA SEREN 5079,,El Salto,JALISCO,,MX,+52 800 833 4700,https://location.westernunion.com/mx/jalisco/el-salto/aa0d491d754df94ff4eb78fbbbce899f,Mo-Su 08:00-22:00,Western Union,Q861042
db1c4a3a4744a102b64756667df4bcfc,western_union,AURRERA EXPRESS GLORIETA CIMA SEREN 5079,,El Salto,JALISCO,,MX,+52 800 833 4700,https://location.westernunion.com/mx/jalisco/el-salto/db1c4a3a4744a102b64756667df4bcfc,Mo-Su 08:00-22:00,Western Union,Q861042
252e17e64e6d9c8aa0c84eb07452dc4f,western_union,AURRERA EXPRESS FRACC CAMPO BELLO 2313,,El Salto,JALISCO,,MX,+52 800 833 4700,https://location.westernunion.com/mx/jalisco/el-salto/252e17e64e6d9c8aa0c84eb07452dc4f,Mo-Su 08:00-22:00,Western Union,Q861042
29f49a1ef9833aea2e4abf2ecb9c96a6,western_union,OXXO CAMPO BELLO GDL,,El Salto,JALISCO,,MX,+52 81 8389 2121,https://location.westernunion.com/mx/jalisco/el-salto/29f49a1ef9833aea2e4abf2ecb9c96a6,Mo-Su 08:00-22:00,Western Union,Q861042
6e412382872700d7892d37ee521447b4,western_union,OXXO CAMPO BELLO GDL,,El Salto,JALISCO,,MX,+52 81 8389 2121,https://location.westernunion.com/mx/jalisco/el-salto/6e412382872700d7892d37ee521447b4,Mo-Su 08:00-22:00,Western Union,Q861042
eaeb0a20d3d3ee717e4279239e65c6f0,western_union,OXXO CAMPO BELLO GDL,,El Salto,JALISCO,,MX,+52 81 8389 2121,https://location.westernunion.com/mx/jalisco/el-salto/eaeb0a20d3d3ee717e4279239e65c6f0,Mo-Su 08:00-22:00,Western Union,Q861042
9e9a2375396748310e922c6989e64a3c,western_union,AURRERA EXPRESS CIMA SERENA 4655,,El Salto,JALISCO,,MX,+52 800 833 4700,https://location.westernunion.com/mx/jalisco/el-salto/9e9a2375396748310e922c6989e64a3c,Mo-Su 08:00-22:00,Western Union,Q861042
2c2c6ac9317f3cd7ac26a30832323717,western_union,AURRERA EXPRESS CIMA SERENA 4655,,El Salto,JALISCO,,MX,+52 800 833 4700,https://location.westernunion.com/mx/jalisco/el-salto/2c2c6ac9317f3cd7ac26a30832323717,Mo-Su 08:00-22:00,Western Union,Q861042
1594ccdf53720e8136ef4c5ce98cd3fc,western_union,AURRERA EXPRESS CIMA SERENA 4655,,El Salto,JALISCO,,MX,+52 800 833 4700,https://location.westernunion.com/mx/jalisco/el-salto/1594ccdf53720e8136ef4c5ce98cd3fc,Mo-Su 08:00-22:00,Western Union,Q861042
072e093549d5647af0803772ffbeec85,western_union,OXXO FAST EL SALTO GDL,,El Salto,JALISCO,,MX,+52 81 8389 2121,https://location.westernunion.com/mx/jalisco/el-salto/072e093549d5647af0803772ffbeec85,Mo-Su 08:00-22:00,Western Union,Q861042
079e4c0a2920e4bfd2d4705349fe945b,western_union,OXXO FAST EL SALTO GDL,,El Salto,JALISCO,,MX,+52 81 8389 2121,https://location.westernunion.com/mx/jalisco/el-salto/079e4c0a2920e4bfd2d4705349fe945b,Mo-Su 08:00-22:00,Western Union,Q861042
9c3b129ae3838765ead284950708f6d1,western_union,OXXO FAST EL SALTO GDL,,El Salto,JALISCO,,MX,+52 81 8389 2121,https://location.westernunion.com/mx/jalisco/el-salto/9c3b129ae3838765ead284950708f6d1,Mo-Su 08:00-22:00,Western Union,Q861042
13b11f164d895aa4bb8d124c66ccfde0,western_union,FARM GUAD 2645 EL CASTILLO,,El Salto,JALISCO,,MX,(+52) 81-018008334700,https://location.westernunion.com/mx/jalisco/el-salto/13b11f164d895aa4bb8d124c66ccfde0,Mo-Su 08:00-22:00,Western Union,Q861042
01bfecfb740d6fe5c0fa0925914e93ea,western_union,OXXO CIMA SERENA GDL,,El Salto,JALISCO,,MX,+52 81 8389 2121,https://location.westernunion.com/mx/jalisco/el-salto/01bfecfb740d6fe5c0fa0925914e93ea,Mo-Su 08:00-22:00,Western Union,Q861042
ec35dbfd0d515d1716ac82fcc8b68c77,western_union,OXXO CIMA SERENA GDL,,El Salto,JALISCO,,MX,+52 81 8389 2121,https://location.westernunion.com/mx/jalisco/el-salto/ec35dbfd0d515d1716ac82fcc8b68c77,Mo-Su 08:00-22:00,Western Union,Q861042
a815c97076df84aad30af14580541a66,western_union,OXXO CIMA SERENA GDL,,El Salto,JALISCO,,MX,+52 81 8389 2121,https://location.westernunion.com/mx/jalisco/el-salto/a815c97076df84aad30af14580541a66,Mo-Su 08:00-22:00,Western Union,Q861042
8b3332bceedc7fb9e4005b07ec7b5330,western_union,AURRERA EXPRESS FRACC CAMPO BELLO 2313,,El Salto,JALISCO,,MX,+52 800 833 4700,https://location.westernunion.com/mx/jalisco/el-salto/8b3332bceedc7fb9e4005b07ec7b5330,Mo-Su 08:00-22:00,Western Union,Q861042
f9a363b685d8774bcdb1399b6b2a6bfb,western_union,AURRERA EXPRESS FRACC CAMPO BELLO 2313,,El Salto,JALISCO,,MX,+52 800 833 4700,https://location.westernunion.com/mx/jalisco/el-salto/f9a363b685d8774bcdb1399b6b2a6bfb,Mo-Su 08:00-22:00,Western Union,Q861042
ed3cd96f2e00be231b48de3dc718ca72,western_union,MUEBLES AMERICA 118 AP CASH,,San Jose Del Castillo,JALISCO,,MX,+52 33 1201 1000,https://location.westernunion.com/mx/jalisco/san-jose-del-castillo/ed3cd96f2e00be231b48de3dc718ca72,Mo-Su 09:30-20:30,Western Union,Q861042
f445cc2c34fc9c113bcb891c97c022ec,western_union,MUEBLES AMERICA 118 AP CASH,,San Jose Del Castillo,JALISCO,,MX,+52 33 1201 1000,https://location.westernunion.com/mx/jalisco/san-jose-del-castillo/f445cc2c34fc9c113bcb891c97c022ec,Mo-Su 09:30-20:30,Western Union,Q861042
85b3920466b03063b2567cf9234e9d15,western_union,OXXO EL CASTILLO GDL,,El Salto,JALISCO,,MX,+52 81 8389 2121,https://location.westernunion.com/mx/jalisco/el-salto/85b3920466b03063b2567cf9234e9d15,Mo-Su 08:00-22:00,Western Union,Q861042
9a588d11cdcbdd2e4cf8f40c389d5ce9,western_union,OXXO EL CASTILLO GDL,,El Salto,JALISCO,,MX,+52 81 8389 2121,https://location.westernunion.com/mx/jalisco/el-salto/9a588d11cdcbdd2e4cf8f40c389d5ce9,Mo-Su 08:00-22:00,Western Union,Q861042
57f5a47313bc0a76f9ae3d96488a1ff4,western_union,OXXO EL CASTILLO GDL,,El Salto,JALISCO,,MX,+52 81 8389 2121,https://location.westernunion.com/mx/jalisco/el-salto/57f5a47313bc0a76f9ae3d96488a1ff4,Mo-Su 08:00-22:00,Western Union,Q861042
748ca6f01b5fc7e84ac57aca00cb2ee9,western_union,OXXO PARQUES DEL CASTILLO GDL,,El Salto,JALISCO,,MX,+52 81 8389 2121,https://location.westernunion.com/mx/jalisco/el-salto/748ca6f01b5fc7e84ac57aca00cb2ee9,Mo-Su 06:00-22:00,Western Union,Q861042
24e7564feed1833b3e44d80a878c3f26,western_union,OXXO PARQUES DEL CASTILLO GDL,,El Salto,JALISCO,,MX,+52 81 8389 2121,https://location.westernunion.com/mx/jalisco/el-salto/24e7564feed1833b3e44d80a878c3f26,Mo-Su 06:00-22:00,Western Union,Q861042
551fcd42fc6aa130746b8bcf1700fd2e,western_union,OXXO PARQUES DEL CASTILLO GDL,,El Salto,JALISCO,,MX,+52 81 8389 2121,https://location.westernunion.com/mx/jalisco/el-salto/551fcd42fc6aa130746b8bcf1700fd2e,Mo-Su 06:00-22:00,Western Union,Q861042
950cb3a276ddd5a3683548edcced2819,western_union,FARM GUAD PARQUES DEL CASTILLO,,Guadalajara,JALISCO,,MX,+52 800 833 4700,https://location.westernunion.com/mx/jalisco/guadalajara/950cb3a276ddd5a3683548edcced2819,Mo-Su 08:00-20:00,Western Union,Q861042
f075ef5f1d686c64fb3ceb008a39e7bd,western_union,FARM GUAD PARQUES DEL CASTILLO,,Guadalajara,JALISCO,,MX,+52 800 833 4700,https://location.westernunion.com/mx/jalisco/guadalajara/f075ef5f1d686c64fb3ceb008a39e7bd,Mo-Su 08:00-20:00,Western Union,Q861042
70988b7ea5a218819be01106331629e7,western_union,FARM GUAD PARQUES DEL CASTILLO,,Guadalajara,JALISCO,,MX,+52 800 833 4700,https://location.westernunion.com/mx/jalisco/guadalajara/70988b7ea5a218819be01106331629e7,Mo-Su 08:00-20:00,Western Union,Q861042
e566344c2f90867a1ce34883bb51a816,western_union,AURRERA EXPRESS PARQUES CASTILLO 3948,,El Salto,JALISCO,,MX,+52 800 833 4700,https://location.westernunion.com/mx/jalisco/el-salto/e566344c2f90867a1ce34883bb51a816,Mo-Su 08:00-22:00,Western Union,Q861042
54d7846a7e104beb52c0532dbcb892e7,western_union,AURRERA EXPRESS PARQUES CASTILLO 3948,,El Salto,JALISCO,,MX,+52 800 833 4700,https://location.westernunion.com/mx/jalisco/el-salto/54d7846a7e104beb52c0532dbcb892e7,Mo-Su 08:00-22:00,Western Union,Q861042
7c4ade8f8cf0d8fef00d124c4f34ac2b,western_union,AURRERA EXPRESS PARQUES CASTILLO 3948,,El Salto,JALISCO,,MX,+52 800 833 4700,https://location.westernunion.com/mx/jalisco/el-salto/7c4ade8f8cf0d8fef00d124c4f34ac2b,Mo-Su 08:00-22:00,Western Union,Q861042
dc7d92703c8e604dec1796a3639663a8,western_union,MUEBLES AMERICA 118 AP CASH,,San Jose Del Castillo,JALISCO,,MX,+52 33 1201 1000,https://location.westernunion.com/mx/jalisco/san-jose-del-castillo/dc7d92703c8e604dec1796a3639663a8,Mo-Su 09:30-20:30,Western Union,Q861042
e40657e04115a19f7e220c8852717a04,western_union,OXXO HONDA GDL,,El Salto,JALISCO,,MX,+52 81 8389 2121,https://location.westernunion.com/mx/jalisco/el-salto/e40657e04115a19f7e220c8852717a04,Mo-Su 06:00-22:00,Western Union,Q861042
58a5cad85b8c2565a2f622b491264e6e,western_union,OXXO EL VERDE GDL,,El Salto,JALISCO,,MX,+52 81 8389 2121,https://location.westernunion.com/mx/jalisco/el-salto/58a5cad85b8c2565a2f622b491264e6e,Mo-Su 08:00-22:00,Western Union,Q861042
9cf8e082289bd687f9603488c716fecd,western_union,OXXO EL VERDE GDL,,El Salto,JALISCO,,MX,+52 81 8389 2121,https://location.westernunion.com/mx/jalisco/el-salto/9cf8e082289bd687f9603488c716fecd,Mo-Su 08:00-22:00,Western Union,Q861042
d278f70ac32408a885eeeb9acd161757,western_union,OXXO EL VERDE GDL,,El Salto,JALISCO,,MX,+52 81 8389 2121,https://location.westernunion.com/mx/jalisco/el-salto/d278f70ac32408a885eeeb9acd161757,Mo-Su 08:00-22:00,Western Union,Q861042
339fec1522a9a0d1c7bcd890ff29ec15,western_union,OXXO ZERBA GDL,,El Salto,JALISCO,,MX,+52 81 8389 2121,https://location.westernunion.com/mx/jalisco/el-salto/339fec1522a9a0d1c7bcd890ff29ec15,Mo-Su 08:00-22:00,Western Union,Q861042
35945a8c70dec5330ea2547be11ca95a,western_union,OXXO ZERBA GDL,,El Salto,JALISCO,,MX,+52 81 8389 2121,https://location.westernunion.com/mx/jalisco/el-salto/35945a8c70dec5330ea2547be11ca95a,Mo-Su 08:00-22:00,Western Union,Q861042
e89b015370583520344dd9590913fb0d,western_union,OXXO ZERBA GDL,,El Salto,JALISCO,,MX,+52 81 8389 2121,https://location.westernunion.com/mx/jalisco/el-salto/e89b015370583520344dd9590913fb0d,Mo-Su 08:00-22:00,Western Union,Q861042
