Ref,Spider,Name,Address,City,State,Zipcode,Country,Phone,Website,Hours,Brand,WikiData
https://locations.99only.com/ca/livermore/discount-store-447.html,99_cents_only_us,99 Cents Only Stores,,Livermore,CA,,US,+1 925-454-0217,https://locations.99only.com/ca/livermore/discount-store-447.html,Mo 08:00-21:00; Tu 07:00-21:00; We 08:00-21:00; Th 07:00-21:00; Fr-Su 08:00-21:00,99 Cents Only Stores,Q4646294
3438,anytime_fitness,Anytime Fitness,,Livermore,CA,,US,+1 925-292-7196,https://www.anytimefitness.com/gyms/3438/livermore-ca-94550/,,Anytime Fitness,Q4778364
3718,autozone_us,AutoZone Auto Parts Livermore,,Livermore,CA,,US,+1 925-371-8195,https://www.autozone.com/locations/ca/livermore/1511-1st-st.html,Mo-Fr 07:30-21:00; Sa 07:30-20:00; Su 08:00-20:00,AutoZone,Q4826087
https://awrestaurants.com/locations/california/livermore/6061-northfront-road/,awrestaurants,A&W Restaurant,,Livermore,CA,,US,+1 925-447-9977,https://awrestaurants.com/locations/california/livermore/6061-northfront-road/,Mo-Su 10:30-22:00,A&W Restaurants,Q277641
https://locators.bankofamerica.com/ca/livermore/financial-centers-livermore-8418.html,bankofamerica,Bank of America Financial Center & Walk-Up ATM | Livermore,,Livermore,CA,,US,+1 925-449-2930,https://locators.bankofamerica.com/ca/livermore/financial-centers-livermore-8418.html,Mo-Fr 09:00-17:00; Sa 09:00-16:00,Bank of America,Q487907
https://locations.baskinrobbins.com/ca/livermore/4323-1st-st-362160-br,baskin_robbins_us,Baskin-Robbins™,,Livermore,CA,,US,+1 925-371-7031,https://locations.baskinrobbins.com/ca/livermore/4323-1st-st-362160-br,Mo-Su 10:30-21:30,Baskin-Robbins,Q584601
181913,bluerhino,Chevron,,Livermore,CA,,US,+1 925-249-0825,,,Blue Rhino,Q65681213
59594,bluerhino,T. J. Kristi Corporation,,Livermore,CA,,US,+1 925-294-9918,,,Blue Rhino,Q65681213
205516,bluerhino,Westlake Ace Hardware #166 - Ace #17789,,Livermore,CA,,US,+1 925-290-8815,,,Blue Rhino,Q65681213
190714,bluerhino,Speedway #4257,,Livermore,CA,,US,+1 925-443-7465,,,Blue Rhino,Q65681213
57708,bluerhino,Lowe's #1150,,Livermore,CA,,US,+1 925-245-2440,,,Blue Rhino,Q65681213
29847,burgerking,Burger King,,Livermore,CA,,US,+1 925-579-3790,https://www.bk.com/store-locator/store/restaurant_239949,Mo-Th 06:00-22:00; Fr 06:00-23:00; Sa 07:00-23:00; Su 07:00-22:00,Burger King,Q177054
0874,carpet_one_floor_and_home_us,Carpet One of Livermore,,Livermore,CA,,US,+1 925-455-9210,https://www.carpetoneoflivermore.com/,,Carpet One Floor & Home,Q121335910
16611928,chase_us,First St and P St - New branch,,Livermore,CA,,US,+1 925-447-4660,https://locator.chase.com/ca/livermore/1480-1st-st,Mo-Fr 09:00-17:00; Sa 09:00-14:00,Chase,Q524629
308063,chevron,Chevron Station #308063,39 EAST VINEYARD,LIVERMORE,CA,,US,+1 925-249-0825,,,Chevron,Q319642
370465,chevron,Chevron Station #370465,1051 AIRWAY BLVD.,LIVERMORE,CA,,US,+1 925-606-0104,,,Chevron,Q319642
001.005.0712,chilis,Livermore,,Livermore,CA,,US,+1 925-371-8977,https://www.chilis.com/locations/us/california/livermore/livermore/,Mo-Th 11:00-22:00; Fr-Sa 11:00-23:00; Su 11:00-22:00,Chili's,Q1072948
77125,citi,ATM Speedway,,Livermore,CA,,US,,,,Citibank,Q857063
48029,citi,ATM CVS,,Livermore,CA,,US,,,,Citibank,Q857063
88016,citi,ATM Walgreens,,Livermore,CA,,US,,,,Citibank,Q857063
26895,citi,ATM 7ELEVEN-FCTI,,Livermore,CA,,US,,,,Citibank,Q857063
39638,citi,ATM Chevron,,Livemore,CA,,US,,,,Citibank,Q857063
46039,citi,ATM Costco,,Livermore,CA,,US,,,,Citibank,Q857063
27646,citi,ATM 7ELEVEN-FCTI,,Livermore,CA,,US,,,,Citibank,Q857063
82581,citi,ATM Target,,Livermore,CA,,US,,,,Citibank,Q857063
33566,citi,ATM 7ELEVEN-FCTI,,Livermore,CA,,US,,,,Citibank,Q857063
27514,citi,ATM 7ELEVEN-FCTI,,Livermore,CA,,US,,,,Citibank,Q857063
25555,citi,ATM 7ELEVEN-FCTI,,Livermore,CA,,US,,,,Citibank,Q857063
,credit_union_us,UNCLE CU,,Livermore,CA,,US,+1 925-447-5001,,Mo-Fr 10:00-04:00,,
9678,cvs_us,CVS Pharmacy,,Livermore,CA,,US,+1 925-455-5580,https://www.cvs.com/store-locator/livermore-ca-pharmacies/1500-1st-st-livermore-ca-94550/storeid=9678,Mo-Su 08:00-22:00,CVS Pharmacy,Q2078880
7929,dominos_pizza_us,Domino's Pizza,,Livermore,CA,,US,+1 925-443-4333,https://pizza.dominos.com/california/livermore/2566-old-first-steet,Mo-Th 10:00-24:00; Fr-Sa 10:00-01:00; Su 10:00-24:00,Domino's,Q839466
https://www.edwardjones.com/us-en/financial-advisor/richard-disho,edwardjones,Richard Disho,,Livermore,CA,,US,+1 925-455-4264,https://www.edwardjones.com/us-en/financial-advisor/richard-disho,Mo-Fr 08:00-17:00,Edward Jones,Q5343830
210465,electrify_america,"ROIC-Granada Shopping Center (Livermore, CA)",,Livermore,CA,,US,,,,Electrify America,Q59773555
3852,elpolloloco,El Pollo Loco,,Livermore,CA,,US,+1 925-449-2697,,,El Pollo Loco,Q2353849
https://www.fitness19.com/centers/livermore/,fitness19_us,Fitness 19,,Livermore,CA,,US,+1 925-263-9219,https://www.fitness19.com/centers/livermore/,,Fitness 19,Q121787953
6294,gamestop_us,Vintner Square,,Livermore,CA,,US,+1 925-373-0509,https://www.gamestop.com/search/?store=6294,Mo-Th 11:00-19:00; Fr-Sa 10:00-20:00; Su 11:00-18:00,GameStop,Q202210
5876794b-efcb-ec11-80fd-00505689ac90,goodwill,Livermore Store,,Livermore,CA,,US,,https://www.goodwill.org/locator/location/?store=NTg3Njc5NGItZWZjYi1lYzExLTgwZmQtMDA1MDU2ODlhYzkw&lat=MzcuNjgxMTE=&lng=LTEyMS43NzkzNg==,,Goodwill,Q5583655
https://salons.greatclips.com/us/ca/livermore/1416-1st-st,greatclips,Great Clips,,Livermore,CA,,US,+1 925-454-0292,https://salons.greatclips.com/us/ca/livermore/1416-1st-st,Mo-Fr 09:00-19:00; Sa 09:00-18:00; Su 09:00-17:00,Great Clips,Q5598967
https://www.habitburger.com/locations/livermore/,habit_burger,The Habit Burger Grill,,Livermore,CA,,US,+1 925-371-0833,https://www.habitburger.com/locations/livermore/,Mo-Su 10:30-21:30,The Habit Burger Grill,Q18158741
3699,h_r_block,H&R Block,,Livermore,CA,,US,+1 925-449-5172,https://www.hrblock.com/local-tax-offices/california/livermore/village-at-livermore-shop-ctr/3699/,,H&R Block,Q5627799
149,innout,Livermore,,Livermore,CA,,US,,http://locations.in-n-out.com/149,,In-N-Out Burger,Q1205312
https://locations.ironmountain.com/ca/livermore/11/,iron_mountain,"Iron Mountain in 6933 Preston Avenue, Livermore, California | Secure Shredding, Scanning, IT Asset Disposition, & Records Management",,Livermore,CA,,US,+1 800-899-4766,https://locations.ironmountain.com/ca/livermore/11/,,Iron Mountain Incorporated,Q1673079
https://locations.jackinthebox.com/us/ca/livermore/1817-1st-st,jackinthebox,Jack in the Box,,Livermore,CA,,US,+1 925-447-4325,https://locations.jackinthebox.com/us/ca/livermore/1817-1st-st,Mo-Su 04:00-04:00,Jack in the Box,Q1538507
https://locations.jamba.com/#358-Jamba,jambajuice,Jamba Portola Village,,Livermore,CA,,US,+1 925-447-2694,https://locations.jamba.com/ca/livermore/2050-portola-ave,Mo-Sa 07:00-21:00; Su 08:00-20:00,Jamba Juice,Q3088784
https://healthy.kaiserpermanente.org/northern-california/facilities/valley-memorial-hospital-328871,kaiser_permanente_us,Valley Memorial Hospital,,Livermore,CA,,US,+1 925-447-7000,https://healthy.kaiserpermanente.org/northern-california/facilities/valley-memorial-hospital-328871,,Kaiser Permanente,Q1721601
https://locations.kfc.com/#11248421,kfc,Chicken Nuggets Near Livermore,,Livermore,CA,,US,,https://locations.kfc.com/ca/livermore/6061-northfront-road/chickennugget,Mo-Su 10:30-22:00,KFC,Q524757
97616,little_free_library,Room to Grow Preschool #97616 Livermore CA,,Livermore,CA,,US,,,,Little Free Library,Q6650101
126095,little_free_library,Little Carnegie #126095 Livermore CA,,Livermore,CA,,US,,,,Little Free Library,Q6650101
6013,little_free_library,karen marshall #6013 Livermore Ca,,Livermore,CA,,US,,,,Little Free Library,Q6650101
139751,little_free_library,Little Livermore Library #139751 Livermore CA,,Livermore,CA,,US,,,,Little Free Library,Q6650101
123765,little_free_library,The Blue House #123765 Livermore CA,,Livermore,CA,,US,,,,Little Free Library,Q6650101
42253,little_free_library,Audrey Horning #42253 Livermore CA,,Livermore,CA,,US,,,,Little Free Library,Q6650101
120622,little_free_library,Lou Evans #120622 Livermore CA,,Livermore,CA,,US,,,,Little Free Library,Q6650101
172639,little_free_library,Beck Lane Little Free Library #172639 Livermore CA,,Livermore,CA,,US,,,,Little Free Library,Q6650101
47251,little_free_library,Leanne Darby #47251 Livermore CA,,Livermore,CA,,US,,,,Little Free Library,Q6650101
111227,little_free_library,Seamas Made #111227 Livermore CA,,Livermore,CA,,US,,,,Little Free Library,Q6650101
45731,little_free_library,Kellie Essary #45731 Livermore CA,,Livermore,CA,,US,,,,Little Free Library,Q6650101
122817,little_free_library,Little Free Library of Ponte Court #122817 Livermore CA,,Livermore,CA,,US,,,,Little Free Library,Q6650101
111426,little_free_library,Diamond Ct Library #111426 Livermore CA,,Livermore,CA,,US,,,,Little Free Library,Q6650101
126733,little_free_library,Pleasure Island Park's Library #126733 Livermore CA,,Livermore,CA,,US,,,,Little Free Library,Q6650101
154492,little_free_library,Mrs. M's Little Free Library #154492 Livermore CA,,Livermore,CA,,US,,,,Little Free Library,Q6650101
154592,little_free_library,Mrs. M’s Library #154592 Livermore CA,,Livermore,CA,,US,,,,Little Free Library,Q6650101
53764,little_free_library,Michelle Bond #53764 Livermore CA,,Livermore,CA,,US,,,,Little Free Library,Q6650101
33572,little_free_library,Casey Pratt #33572 Livermore CA,,Livermore,CA,,US,,,,Little Free Library,Q6650101
62377,little_free_library,Tom Marcotte #62377 Livermore CA,,Livermore,CA,,US,,,,Little Free Library,Q6650101
112209,little_free_library,Ann Furlotte #112209 Livermore CA,,Livermore,CA,,US,,,,Little Free Library,Q6650101
44973,little_free_library,Misty Rose #44973 Livermore CA,,Livermore,CA,,US,,,,Little Free Library,Q6650101
87437,little_free_library,Troop 30321 Little Library #87437 Livermore CA,,Livermore,CA,,US,,,,Little Free Library,Q6650101
161949,little_free_library,Cyndee Carvalho #161949 Livermore CA,,Livermore,CA,,US,,,,Little Free Library,Q6650101
127088,little_free_library,Tapestry Library #127088 Livermore CA,,Livermore,CA,,US,,,,Little Free Library,Q6650101
81065,little_free_library,Reynolds' Family Library #81065 Livermore CA,,Livermore,CA,,US,,,,Little Free Library,Q6650101
85616,little_free_library,Merlot Garden Library #85616 Livermore CA,,Livermore,CA,,US,,,,Little Free Library,Q6650101
162178,little_free_library,Covey Reading Cove #162178 Livermore CA,,Livermore,CA,,US,,,,Little Free Library,Q6650101
99602,little_free_library,Adrienne's Library #99602 Livermore CA,,Livermore,CA,,US,,,,Little Free Library,Q6650101
14715,little_free_library,Julia Parnell #14715 Livermore CA,,Livermore,CA,,US,,,,Little Free Library,Q6650101
66167,little_free_library,Susan Wagoner #66167 Livermore CA,,Livermore,CA,,US,,,,Little Free Library,Q6650101
158564,marathon_petroleum_us,Livermore 286 Petroleum Inc,,Livermore,CA,,US,+1 650-267-0523,,,Marathon,Q458363
158912,marathon_petroleum_us,Central Gas Livermore,,Livermore,CA,,US,+1 650-267-0523,,,Marathon,Q458363
1286,michaels,BAY-LIVERMORE,,Livermore,CA,,US,+1 925-961-5633,https://locations.michaels.com/ca/livermore/1286,Mo-Sa 09:00-21:00; Su 10:00-19:00,Michaels,Q6835667
10383178,nick_the_greek_us,Livermore,"2190 First St., Livermore, Ca, 94550, US",Livermore,CA,,US,+1 925-272-7277,,Mo-Su 11:00-22:00,Nick The Greek,Q117222612
1412-1st-st,noahsnybagels,Noah's NY Bagels Livermore,,Livermore,CA,,US,+1 925-454-9836,https://locations.noahs.com/us/ca/livermore/1412-1st-st,Mo-Fr 05:00-14:00; Sa-Su 06:00-14:00,Noah's New York Bagels,Q64517373
1174,orangetheory_fitness,Livermore,,Livermore,CA,,US,+1 925-621-0987,,,Orangetheory Fitness,Q25005163
https://locations.oreillyauto.com/ca/livermore/check-engine-light-testing-2744.html,oreilly,Your Livermore O'Reilly Auto Parts Store,,Livermore,CA,,US,+1 925-294-9470,https://locations.oreillyauto.com/ca/livermore/check-engine-light-testing-2744.html,Mo-Sa 07:30-21:00; Su 08:00-20:00,O'Reilly Auto Parts,Q7071951
https://locations.oreillyauto.com/ca/livermore/wiper-installation-2744.html,oreilly,Your Livermore O'Reilly Auto Parts Store,,Livermore,CA,,US,+1 925-294-9470,https://locations.oreillyauto.com/ca/livermore/wiper-installation-2744.html,Mo-Sa 07:30-21:00; Su 08:00-20:00,O'Reilly Auto Parts,Q7071951
https://locations.oreillyauto.com/ca/livermore/battery-testing-2744.html,oreilly,Your Livermore O'Reilly Auto Parts Store,,Livermore,CA,,US,+1 925-294-9470,https://locations.oreillyauto.com/ca/livermore/battery-testing-2744.html,Mo-Sa 07:30-21:00; Su 08:00-20:00,O'Reilly Auto Parts,Q7071951
https://locations.oreillyauto.com/ca/livermore/autopartes-2744.html,oreilly,Tu tienda O'Reilly Auto Parts en Livermore,,Livermore,CA,,US,+1 925-294-9470,https://locations.oreillyauto.com/ca/livermore/autopartes-2744.html,Mo-Sa 07:30-21:00; Su 08:00-20:00,O'Reilly Auto Parts,Q7071951
111322,pandaexpress,Livermore & Portola,,Livermore,CA,,US,+1 925-961-0168,https://www.pandaexpress.com/locations/ca/livermore/2100-a-portola-ave,Mo-Th 10:00-21:00; Fr-Sa 10:00-21:30; Su 10:00-21:00,Panda Express,Q1358690
https://locations.papajohns.com/#28203598,papa_johns,Papa John's,,Livermore,CA,,US,+1 925-449-7272,https://locations.papajohns.com/united-states/ca/94550/livermore/1682-1st-street,Mo-Th 10:00-24:00; Fr-Sa 10:00-01:00; Su 10:00-24:00,Papa John's Pizza,Q2759586
16526086,peets_coffee_us,Livermore,,Livermore,CA,,US,+1 925-579-5011,https://peets.app.link?&$fallback_url=https%3A%2F%2Forder.peets.com%2Flocation%2Flivermore%2Fmenu&$type=order&~campaign=orderaheadonline&~channel=web&~feature=menu&~tags=livermore,Mo-Fr 05:00-18:00; Sa-Su 06:00-18:00,Peet's Coffee,Q1094101
0000863798,phillips_66_conoco_76,LIVERMORE GAS,,LIVERMORE,CA,,US,+1 925-819-2340,,,U76,Q1658320
home-depot-6678-7989,ppgpaints,HOME DEPOT 6678,,"Livermore, ",CA,,US,+1 925-243-1212,https://www.ppgpaints.com/store-locator/us/california/livermore-paint-stores/home-depot-6678-7989,,PPG Paints,Q83891559
2141,round_table_pizza,Round Table Pizza E Stanley,,Livermore ,CA,,US,+1 925-455-1345,https://ordering.roundtablepizza.com/site/rtp875,,Round Table Pizza,Q7371139
2476,round_table_pizza,Livermore - East Avenue,,Livermore ,CA,,US,+1 925-443-2700,https://ordering.roundtablepizza.com/site/rt-livermore-east-ave,,Round Table Pizza,Q7371139
https://local.safeway.com/#5604763,safeway,Safeway,,Livermore,CA,,US,+1 925-455-5667,https://local.safeway.com/safeway/ca/livermore/1554-first-st.html,Mo-Su 05:00-02:00,Safeway,Q1508234
https://restaurants.subway.com/#14913171,subway,Subway Peppertree Plaza,,Livermore Alameda,CA,,US,+1 925-449-8111,https://restaurants.subway.com/united-states/ca/livermore/969-e-stanley-blvd,Mo-Sa 09:30-21:00; Su 10:00-20:30,Subway,Q244457
https://restaurants.subway.com/#14903967,subway,Subway Piazza Rubino,,Livermore Alameda,CA,,US,+1 925-484-1444,https://restaurants.subway.com/united-states/ca/livermore/101-east-vineyard-avenue,Mo-Fr 07:00-20:30; Sa-Su 08:00-20:00,Subway,Q244457
https://locations.tacobell.com/#6141568,taco_bell,Taco Bell,,Livermore,CA,,US,+1 925-373-1068,https://locations.tacobell.com/ca/livermore/985-east-stanley-blvd.html,Mo-Th 07:00-02:00; Fr-Sa 07:00-03:00; Su 07:00-02:00,Taco Bell,Q752941
227,the_exercise_coach_us,The Exercise Coach,,Livermore,CA,,US,+1 925-800-3500,https://exercisecoach.com/livermore,,The Exercise Coach,Q121502262
114D,tmobile_us,E Stanley Blvd & Fenton St,,Livermore,CA,,US,+1 925-344-6688,https://www.t-mobile.com/store-locator/ca/livermore/e-stanley-blvd-fenton-st,,T-Mobile,Q3511885
208,trader_joes_us,Trader Joe's Livermore (208),,Livermore,CA,,US,+1 925-243-1947,https://locations.traderjoes.com/ca/livermore/208/,Mo-Su 08:00-21:00,Trader Joe's,Q688825
https://www.trekbikes.com/us/en_US/retail/livermore/,trekbikes,Trek Bicycle Livermore,,Livermore,CA,,US,+1 925-455-8090,https://www.trekbikes.com/us/en_US/retail/livermore/,Mo-Fr 11:00-18:00; Sa 10:00-18:00; Su 12:00-17:00,Trek,Q1067617
100305,two_men_and_truck,San Jose East,7275 National Dr A1,Livermore,CA,,US,+1 925-456-6683,https://twomenandatruck.com/movers/ca/san-jose-east,,Two Men and a Truck,Q7859087
815048,uhaul,U-Haul Moving & Storage of Livermore,3429 Gardella Plaza,Livermore,CA,,US,+1 925-455-1100,,Mo-Th 00:00-19:00; Fr 00:00-20:00; Sa 00:00-19:00; Su 00:00-17:00,U-Haul,Q7862902
1370679,usps,LIVERMORE ANNEX,,LIVERMORE,CA,,US,+1 925-455-7173,,,United States Postal Service,Q668687
1370683,usps,LIVERMORE,,LIVERMORE,CA,,US,+1 925-447-0813,,Mo-Fr 09:00-17:00; Sa 10:00-14:00,United States Postal Service,Q668687
9455000029,usps_collection_boxes,USPS COLLECTION BOX - BLUE BOX,385 LEE AVE,LIVERMORE,CA,,US,,,,United States Postal Service,Q668687
9455000028,usps_collection_boxes,USPS COLLECTION BOX - BLUE BOX,125 JENSEN WAY,LIVERMORE,CA,,US,,,,United States Postal Service,Q668687
9455000033,usps_collection_boxes,USPS COLLECTION BOX - BLUE BOX,2160 LAS POSITAS CT,LIVERMORE,CA,,US,,,,United States Postal Service,Q668687
9455000106,usps_collection_boxes,USPS COLLECTION BOX - BLUE BOX,220 S LIVERMORE AVE,LIVERMORE,CA,,US,,,,United States Postal Service,Q668687
9455000122,usps_collection_boxes,USPS COLLECTION BOX - PO LOBBY,220 S LIVERMORE AVE,LIVERMORE,CA,,US,,,,United States Postal Service,Q668687
9455000070,usps_collection_boxes,USPS COLLECTION BOX - BLUE BOX,190 S J ST,LIVERMORE,CA,,US,,,,United States Postal Service,Q668687
9455000096,usps_collection_boxes,USPS COLLECTION BOX - BLUE BOX,2000 PORTOLA AVE,LIVERMORE,CA,,US,,,,United States Postal Service,Q668687
9455000053,usps_collection_boxes,USPS COLLECTION BOX - BLUE BOX,1558 PORTOLA AVE,LIVERMORE,CA,,US,,,,United States Postal Service,Q668687
9455000055,usps_collection_boxes,USPS COLLECTION BOX - BLUE BOX,735 ESTATES ST,LIVERMORE,CA,,US,,,,United States Postal Service,Q668687
9455000052,usps_collection_boxes,USPS COLLECTION BOX - BLUE BOX,4096 POMONA WAY,LIVERMORE,CA,,US,,,,United States Postal Service,Q668687
9455000023,usps_collection_boxes,USPS COLLECTION BOX - BLUE BOX,1915 4TH ST,LIVERMORE,CA,,US,,,,United States Postal Service,Q668687
9455000071,usps_collection_boxes,USPS COLLECTION BOX - BLUE BOX,4323 FIRST ST,LIVERMORE,CA,,US,,,,United States Postal Service,Q668687
9455000057,usps_collection_boxes,USPS COLLECTION BOX - BLUE BOX,777 RINCON AVE,LIVERMORE,CA,,US,,,,United States Postal Service,Q668687
9455000031,usps_collection_boxes,USPS COLLECTION BOX - BLUE BOX,688 S L ST,LIVERMORE,CA,,US,,,,United States Postal Service,Q668687
9455000048,usps_collection_boxes,USPS COLLECTION BOX - BLUE BOX,739 OLIVINA AVE,LIVERMORE,CA,,US,,,,United States Postal Service,Q668687
9455000019,usps_collection_boxes,USPS COLLECTION BOX - BLUE BOX,1018 FENTON ST,LIVERMORE,CA,,US,,,,United States Postal Service,Q668687
9455000005,usps_collection_boxes,USPS COLLECTION BOX - BLUE BOX,998 BLUEBELL DR,LIVERMORE,CA,,US,,,,United States Postal Service,Q668687
9455000066,usps_collection_boxes,USPS COLLECTION BOX - BLUE BOX,1712 HOLMES ST,LIVERMORE,CA,,US,,,,United States Postal Service,Q668687
9455000003,usps_collection_boxes,USPS COLLECTION BOX - BLUE BOX,5775 BRISA ST,LIVERMORE,CA,,US,,,,United States Postal Service,Q668687
9455000099,usps_collection_boxes,USPS COLLECTION BOX - BLUE BOX,1129 CATALINA DR,LIVERMORE,CA,,US,,,,United States Postal Service,Q668687
9455000109,usps_collection_boxes,USPS COLLECTION BOX - BLUE BOX,36 MURDELL LN,LIVERMORE,CA,,US,,,,United States Postal Service,Q668687
9455000060,usps_collection_boxes,USPS COLLECTION BOX - BLUE BOX,5300 SCENIC AVE,LIVERMORE,CA,,US,,,,United States Postal Service,Q668687
9455000107,usps_collection_boxes,USPS COLLECTION BOX - BLUE BOX,2950 COLLIER CANYON RD,LIVERMORE,CA,,US,,,,United States Postal Service,Q668687
9455000100,usps_collection_boxes,USPS COLLECTION BOX - BLUE BOX,6233 PRESTON AVE,LIVERMORE,CA,,US,,,,United States Postal Service,Q668687
9455000080,usps_collection_boxes,USPS COLLECTION BOX - BLUE BOX,2418 ARMSTRONG ST,LIVERMORE,CA,,US,,,,United States Postal Service,Q668687
,visa,,,LIVERMORE,CA,,US,,,,,
,visa,,,LIVERMORE,CA,,US,,,,,
,visa,,,LIVERMORE,CA,,US,,,,,
,visa,,,LIVERMORE,CA,,US,,,,,
,visa,,,LIVERMORE,CA,,US,,,,,
,visa,,,LIVERMORE,CA,,US,,,,,
,visa,,,LIVERMORE,CA,,US,,,,,
,visa,,,LIVERMORE,CA,,US,,,,,
,visa,,,LIVERMORE,CA,,US,,,,,
,visa,,,LIVERMORE,CA,,US,,,,,
,visa,,,LIVERMORE,CA,,US,,,,,
,visa,,,LIVERMORE,CA,,US,,,,,
,visa,,,LIVERMORE,CA,,US,,,,,
,visa,,,LIVERMORE,CA,,US,,,,,
,visa,,,LIVERMORE,CA,,US,,,,,
,visa,,,LIVERMORE,CA,,US,,,,,
,visa,,,LIVERMORE,CA,,US,,,,,
,visa,,,LIVERMORE,CA,,US,,,,,
,visa,,,LIVERMORE,CA,,US,,,,,
,visa,,,LIVERMORE,CA,,US,,,,,
,visa,,,LIVERMORE,CA,,US,,,,,
,visa,,,LIVERMORE,CA,,US,,,,,
,visa,,,LIVERMORE,CA,,US,,,,,
,visa,,,LIVERMORE,CA,,US,,,,,
,visa,,,LIVERMORE,CA,,US,,,,,
,visa,,,LIVERMORE,CA,,US,,,,,
,visa,,,LIVERMORE,CA,,US,,,,,
,visa,,,LIVERMORE,CA,,US,,,,,
,visa,,,LIVERMORE,CA,,US,,,,,
,visa,,,LIVERMORE,CA,,US,,,,,
,visa,,,LIVERMORE,CA,,US,,,,,
,visa,,,LIVERMORE,CA,,US,,,,,
,visa,,,LIVERMORE,CA,,US,,,,,
,visa,,,LIVERMORE,CA,,US,,,,,
,visa,,,LIVERMORE,CA,,US,,,,,
,visa,,,LIVERMORE,CA,,US,,,,,
,visa,,,LIVERMORE,CA,,US,,,,,
,visa,,,LIVERMORE,CA,,US,,,,,
,visa,,,LIVERMORE,CA,,US,,,,,
,visa,,,LIVERMORE,CA,,US,,,,,
,visa,,,LIVERMORE,CA,,US,,,,,
,visa,,,LIVERMORE,CA,,US,,,,,
,visa,,,LIVERMORE,CA,,US,,,,,
,visa,,,LIVERMORE,CA,,US,,,,,
,visa,,,LIVERMORE,CA,,US,,,,,
,visa,,,LIVERMORE,CA,,US,,,,,
,visa,,,LIVERMORE,CA,,US,,,,,
,visa,,,LIVERMORE,CA,,US,,,,,
,visa,,,LIVERMORE,CA,,US,,,,,
,visa,,,LIVERMORE,CA,,US,,,,,
,visa,,,LIVERMORE,CA,,US,,,,,
,visa,,,LIVERMORE,CA,,US,,,,,
,visa,,,LIVERMORE,CA,,US,,,,,
,visa,,,LIVERMORE,CA,,US,,,,,
,visa,,,LIVERMORE,CA,,US,,,,,
,visa,,,LIVERMORE,CA,,US,,,,,
,visa,,,LIVERMORE,CA,,US,,,,,
,visa,,,LIVERMORE,CA,,US,,,,,
,visa,,,LIVERMORE,CA,,US,,,,,
,visa,,,LIVERMORE,CA,,US,,,,,
,visa,,,LIVERMORE,CA,,US,,,,,
,visa,,,LIVERMORE,CA,,US,,,,,
,visa,,,LIVERMORE,CA,,US,,,,,
,visa,,,LIVERMORE,CA,,US,,,,,
,visa,,,LIVERMORE,CA,,US,,,,,
,visa,,,LIVERMORE,CA,,US,,,,,
,visa,,,LIVERMORE,CA,,US,,,,,
,visa,,,LIVERMORE,CA,,US,,,,,
,visa,,,LIVERMORE,CA,,US,,,,,
,visa,,,LIVERMORE,CA,,US,,,,,
,visa,,,LIVERMORE,CA,,US,,,,,
,visa,,,LIVERMORE,CA,,US,,,,,
,visa,,,LIVERMORE,CA,,US,,,,,
https://www.walgreens.com/locator/walgreens-1620+1st+st-livermore-ca-94550/id=15163,walgreens,Walgreens,,Livermore,CA,,US,+1 925-724-0131,https://www.walgreens.com/locator/walgreens-1620+1st+st-livermore-ca-94550/id=15163,Mo-Su 08:00-22:00,Walgreens,Q1591889
235__S__K__ST_LIVERMORE_CA_94550,wellsfargo,Wells Fargo,235 S K ST,LIVERMORE,CA,,US,+1 925-447-1401,https://www.wellsfargo.com/locator/bank/235__S__K__ST_LIVERMORE_CA_94550/,Mo-Fr 09:00-17:00,Wells Fargo,Q744149
1951__HOLMES__ST_LIVERMORE_CA_94550,wellsfargo,,1951 HOLMES ST,LIVERMORE,CA,,US,+1 800-869-3557,https://www.wellsfargo.com/locator/bank/1951__HOLMES__ST_LIVERMORE_CA_94550/,,Wells Fargo,Q744149
5039e04037fe291b21dd24ee2216d8a8,western_union,7-ELEVEN #32266,,Livermore,CA,,US,+1 925-606-7751,https://location.westernunion.com/us/ca/livermore/5039e04037fe291b21dd24ee2216d8a8,,Western Union,Q861042
07007e0b7899ac56315373dd5482044e,western_union,QUIK STOP #157,,Livermore,CA,,US,+1 925-245-0879,https://location.westernunion.com/us/ca/livermore/07007e0b7899ac56315373dd5482044e,Mo-We 05:00-23:00; Th-Su 07:00-23:00,Western Union,Q861042
1ce93cd6425503d7348ba0419081f1e5,western_union,7-ELEVEN #14203,,Livermore,CA,,US,+1 925-455-0611,https://location.westernunion.com/us/ca/livermore/1ce93cd6425503d7348ba0419081f1e5,,Western Union,Q861042
