Ref,Spider,Name,Address,City,State,Zipcode,Country,Phone,Website,Hours,Brand,WikiData
,visa,,,TOLUCA,ESTADO DE MEXICO,,MX,,,,,
,visa,,,TOLUCA,ESTADO DE MEXICO,,MX,,,,,
,visa,,,TOLUCA,ESTADO DE MEXICO,,MX,,,,,
,visa,,,TOLUCA,ESTADO DE MEXICO,,MX,,,,,
,visa,,,TOLUCA,ESTADO DE MEXICO,,MX,,,,,
e9be270ecac5a1fea892e54ec283cd02,western_union,OXXO GOMEZ FARIAS TLC,,Toluca,ESTADO DE MEXICO,,MX,+52 81 8389 2121,https://location.westernunion.com/mx/estado-de-mexico/toluca/e9be270ecac5a1fea892e54ec283cd02,Mo-Su 08:00-22:00,Western Union,Q861042
5ddbe7c4d77c6cf1a3d6a44803d13e4c,western_union,OXXO GOMEZ FARIAS TLC,,Toluca,ESTADO DE MEXICO,,MX,+52 81 8389 2121,https://location.westernunion.com/mx/estado-de-mexico/toluca/5ddbe7c4d77c6cf1a3d6a44803d13e4c,Mo-Su 08:00-22:00,Western Union,Q861042
2edbff14ce71689b6eaf51f2b133caab,western_union,OXXO GOMEZ FARIAS TLC,,Toluca,ESTADO DE MEXICO,,MX,+52 81 8389 2121,https://location.westernunion.com/mx/estado-de-mexico/toluca/2edbff14ce71689b6eaf51f2b133caab,Mo-Su 08:00-22:00,Western Union,Q861042
cfec9b256c54fad0704794c458f2185c,western_union,BANORTE 02537 TOLUCA VENUSTIANO CARRZANA,,Toluca,ESTADO DE MEXICO,,MX,+52 800 833 4700,https://location.westernunion.com/mx/estado-de-mexico/toluca/cfec9b256c54fad0704794c458f2185c,Mo-Fr 09:00-17:00,Western Union,Q861042
3d764a3efdcb8554ba80ec924991db2c,western_union,OXXO FRANCISCOCARBAJALTLC,,Toluca,ESTADO DE MEXICO,,MX,+52 81 8389 2121,https://location.westernunion.com/mx/estado-de-mexico/toluca/3d764a3efdcb8554ba80ec924991db2c,Mo-Su 08:00-22:00,Western Union,Q861042
60855d90b8e0a68d9408717fb3424efb,western_union,OXXO FRANCISCOCARBAJALTLC,,Toluca,ESTADO DE MEXICO,,MX,+52 81 8389 2121,https://location.westernunion.com/mx/estado-de-mexico/toluca/60855d90b8e0a68d9408717fb3424efb,Mo-Su 08:00-22:00,Western Union,Q861042
347888b8b051a86908702fab078ee0bc,western_union,OXXO FRANCISCOCARBAJALTLC,,Toluca,ESTADO DE MEXICO,,MX,+52 81 8389 2121,https://location.westernunion.com/mx/estado-de-mexico/toluca/347888b8b051a86908702fab078ee0bc,Mo-Su 08:00-22:00,Western Union,Q861042
b7a81893f1c83039f24bc8fd2cffe148,western_union,OXXO GZZ Y PICHARDO TLC,,Toluca,ESTADO DE MEXICO,,MX,+52 81 8389 2121,https://location.westernunion.com/mx/estado-de-mexico/toluca/b7a81893f1c83039f24bc8fd2cffe148,Mo-Su 08:00-22:00,Western Union,Q861042
3e7cc53a10f220b430aca4fb2425419b,western_union,OXXO GZZ Y PICHARDO TLC,,Toluca,ESTADO DE MEXICO,,MX,+52 81 8389 2121,https://location.westernunion.com/mx/estado-de-mexico/toluca/3e7cc53a10f220b430aca4fb2425419b,Mo-Su 08:00-22:00,Western Union,Q861042
a87e9a953491e305739870e070d24d12,western_union,OXXO GZZ Y PICHARDO TLC,,Toluca,ESTADO DE MEXICO,,MX,+52 81 8389 2121,https://location.westernunion.com/mx/estado-de-mexico/toluca/a87e9a953491e305739870e070d24d12,Mo-Su 08:00-22:00,Western Union,Q861042
89c632d14921aee67197398f3cb9cb91,western_union,OXXO UNIVERSIDAD TLC,,Toluca,ESTADO DE MEXICO,,MX,+52 81 8389 2121,https://location.westernunion.com/mx/estado-de-mexico/toluca/89c632d14921aee67197398f3cb9cb91,Mo-Su 08:00-22:00,Western Union,Q861042
d7c845ce5b57be8abedc13921ccd4945,western_union,BANORTE 02409 RANCHO DOLORES,,Toluca,ESTADO DE MEXICO,,MX,+52 800 833 4700,https://location.westernunion.com/mx/estado-de-mexico/toluca/d7c845ce5b57be8abedc13921ccd4945,Mo-Fr 09:00-17:00,Western Union,Q861042
c8d96ef25f26e0549a71d0259639de67,western_union,OXXO UNIVERSIDAD TLC,,Toluca,ESTADO DE MEXICO,,MX,+52 81 8389 2121,https://location.westernunion.com/mx/estado-de-mexico/toluca/c8d96ef25f26e0549a71d0259639de67,Mo-Su 08:00-22:00,Western Union,Q861042
f9ef1b4a67b5114734fd87de6e83a5dd,western_union,OXXO UNIVERSIDAD TLC,,Toluca,ESTADO DE MEXICO,,MX,+52 81 8389 2121,https://location.westernunion.com/mx/estado-de-mexico/toluca/f9ef1b4a67b5114734fd87de6e83a5dd,Mo-Su 08:00-22:00,Western Union,Q861042
5b702a0e5c459c4d2e6bb8b10e9d4240,western_union,OXXO MILITAR TLC,,Toluca,ESTADO DE MEXICO,,MX,+52 81 8389 2121,https://location.westernunion.com/mx/estado-de-mexico/toluca/5b702a0e5c459c4d2e6bb8b10e9d4240,Mo-Su 08:00-22:00,Western Union,Q861042
194c5bbdf3038580c9174a1751daaf38,western_union,OXXO MILITAR TLC,,Toluca,ESTADO DE MEXICO,,MX,+52 81 8389 2121,https://location.westernunion.com/mx/estado-de-mexico/toluca/194c5bbdf3038580c9174a1751daaf38,Mo-Su 08:00-22:00,Western Union,Q861042
8dbe15a18122fc9ccc6c7a4d891f025c,western_union,OXXO MILITAR TLC,,Toluca,ESTADO DE MEXICO,,MX,+52 81 8389 2121,https://location.westernunion.com/mx/estado-de-mexico/toluca/8dbe15a18122fc9ccc6c7a4d891f025c,Mo-Su 08:00-22:00,Western Union,Q861042
