Ref,Spider,Name,Address,City,State,Zipcode,Country,Phone,Website,Hours,Brand,WikiData
202639,bluerhino,CASEY'S GENERAL STORE #3031,,GARNER,IA,,US,+1 641-923-2183,,,Blue Rhino,Q65681213
3326,cenex,Hancock County Co-op,,Garner,IA,,US,+1 641-923-2694,,24/7,Cenex,Q62127191
72285,citi,ATM RELIANCE STATE BANK,,Garner,IA,,US,,,,Citibank,Q857063
62064,citi,ATM Kwik Star #920-1,,Garner,IA,,US,,,,Citibank,Q857063
62065,citi,ATM Kwik Star #920-2,,Garner,IA,,US,,,,Citibank,Q857063
72286,citi,ATM RELIANCE STATE BANK,,Garner,IA,,US,,,,Citibank,Q857063
https://www.edwardjones.com/us-en/financial-advisor/natalie-swartout,edwardjones,Natalie Swartout,,Garner,IA,,US,+1 641-923-3295,https://www.edwardjones.com/us-en/financial-advisor/natalie-swartout,Mo-Fr 08:30-16:30,Edward Jones,Q5343830
https://local.fedex.com/#25236049,fedex,,,Garner,IA,,US,+1 800-463-3339,https://local.fedex.com/en-us/ia/garner/mcwae,,FedEx,Q459477
16004,h_r_block,H&R Block,,Garner,IA,,US,+1 641-923-3169,https://www.hrblock.com/local-tax-offices/iowa/garner/365-state-st/16004/,,H&R Block,Q5627799
https://restaurants.subway.com/#14914683,subway,Subway,,Garner Hancock,IA,,US,+1 641-923-2287,https://restaurants.subway.com/united-states/ia/garner/135-cottonwood-dr,Mo-Sa 08:00-21:00; Su 09:00-21:00,Subway,Q244457
1364474,usps,GARNER,,GARNER,IA,,US,+1 641-923-3251,,"Mo-Fr 09:00-11:00,12:00-16:30; Sa 09:00-10:30",United States Postal Service,Q668687
5043800005,usps_collection_boxes,USPS COLLECTION BOX - BLUE BOX,190 E 3RD ST,GARNER,IA,,US,,,,United States Postal Service,Q668687
5043800006,usps_collection_boxes,USPS COLLECTION BOX - PO LOBBY,190 E 3RD ST,GARNER,IA,,US,,,,United States Postal Service,Q668687
5043800007,usps_collection_boxes,USPS COLLECTION BOX - PO LOBBY,190 E 3RD ST,GARNER,IA,,US,,,,United States Postal Service,Q668687
,visa,,,GARNER,IA,,US,,,,,
,visa,,,GARNER,IA,,US,,,,,
,visa,,,GARNER,IA,,US,,,,,
,visa,,,GARNER,IA,,US,,,,,
,visa,,,GARNER,IA,,US,,,,,
