Ref,Spider,Name,Address,City,State,Zipcode,Country,Phone,Website,Hours,Brand,WikiData
1202,anytime_fitness,Anytime Fitness,,Highland,UT,,US,+1 801-230-9119,https://www.anytimefitness.com/gyms/1202/highland-ut-84003/,,Anytime Fitness,Q4778364
https://locations.arbys.com/ut/americanfork/937-w-state-rd.html,arbys_us,"Arby's Fast-Food Drive Through Near You in American Fork, UT",,American Fork,UT,,US,+1 801-492-0560,https://locations.arbys.com/ut/americanfork/937-w-state-rd.html,Mo-Sa 10:00-24:00; Su 10:00-23:00,Arby's,Q630866
https://locations.arbys.com/ut/americanfork/450-e-state-rd.html,arbys_us,"Arby's Fast-Food Drive Through Near You in American Fork, UT",,American Fork,UT,,US,+1 801-756-6322,https://locations.arbys.com/ut/americanfork/450-e-state-rd.html,Mo-Sa 10:00-24:00; Su 10:00-23:00,Arby's,Q630866
107,arctic_circle_us,Highland,,Highland,UT,,US,+1 801-756-5392,,,Arctic Circle,Q4787501
42823,asics_us,DICK'S Sporting Goods  - American Fork,841 Pacific Dr,American Fork,UT,,US,+1 801-692-6137,,Mo-Sa 09:00-21:00; Su 10:00-19:00,asics,Q327247
861,autozone_us,AutoZone Auto Parts American Fork,,American Fork,UT,,US,+1 801-763-9870,https://www.autozone.com/locations/ut/american-fork/762-e-state-rd.html,Mo-Th 07:30-21:00; Fr-Sa 07:30-22:00; Su 09:00-20:00,AutoZone,Q4826087
https://awrestaurants.com/locations/utah/american-fork/439-e-state-st/,awrestaurants,A&W Restaurant,,American Fork,UT,,US,+1 801-756-6131,https://awrestaurants.com/locations/utah/american-fork/439-e-state-st/,Mo-Su 10:30-21:00,A&W Restaurants,Q277641
https://www.banfield.com/locations/veterinarians/ut/american-fork/amf,banfield_pet_hospital,American Fork,,American Fork,UT,,US,+1 801-756-7555,https://www.banfield.com/locations/veterinarians/ut/american-fork/amf,Mo-Sa 07:00-18:00; Su 00:00-24:00,Banfield Pet Hospital,Q2882416
https://locators.bankofamerica.com/ut/highland/financial-centers-highland-17090.html,bankofamerica,Bank of America Financial Center & Drive-Thru ATM | Highland,,Highland,UT,,US,+1 385-265-3102,https://locators.bankofamerica.com/ut/highland/financial-centers-highland-17090.html,Mo-Fr 09:00-16:00; Sa 09:00-13:00,Bank of America,Q487907
https://locators.bankofamerica.com/ut/americanfork/financial-centers-american-fork-17018.html,bankofamerica,Bank of America Financial Center & Drive-Thru ATM | American Fork,,American Fork,UT,,US,+1 801-216-3081,https://locators.bankofamerica.com/ut/americanfork/financial-centers-american-fork-17018.html,Mo-Fr 09:00-16:00; Sa 09:00-13:00,Bank of America,Q487907
https://locations.baskinrobbins.com/ut/american-fork/51-n-west-state-rd-363220-br,baskin_robbins_us,Baskin-Robbins™,,American Fork,UT,,US,+1 385-498-3182,https://locations.baskinrobbins.com/ut/american-fork/51-n-west-state-rd-363220-br,Mo-Th 11:00-22:00; Fr-Sa 11:00-23:00; Su 11:00-22:00,Baskin-Robbins,Q584601
BBW02555,bathandbodyworks_us,ALPINE VALLEY CENTER,,AMERICAN FORK,UT,,US,+1 385-331-3605,,Mo-Sa 10:00-21:00; Su 11:00-18:00,Bath & Body Works,Q810773
https://stores.bestbuy.com/ut/american-fork/763-w-grasslands-dr-1402.html,bestbuy,Best Buy American Fork,,American Fork,UT,,US,+1 801-763-8321,https://stores.bestbuy.com/ut/american-fork/763-w-grasslands-dr-1402.html,,Best Buy,Q533415
https://local.biglots.com/#13190101,biglots,Big Lots - American Fork,,American Fork,UT,,US,+1 801-492-0375,https://local.biglots.com/ut/american-fork/702-e-state-rd,Mo-Sa 09:00-21:00; Su 09:00-19:00,Big Lots,Q4905973
160243,bluerhino,Ridley's #1167,,Highland,UT,,US,+1 801-756-8383,,,Blue Rhino,Q65681213
222119,bluerhino,Ace Hardware Lone Peak #14886,,Highland,UT,,US,+1 801-763-2221,,,Blue Rhino,Q65681213
186623,bluerhino,Fast Gas - American Fork,,American Fork,UT,,US,+1 801-492-7776,,,Blue Rhino,Q65681213
186625,bluerhino,Fast Gas - American Fork,,American Fork,UT,,US,+1 801-756-8182,,,Blue Rhino,Q65681213
191926,bluerhino,Speedway #9435,,American Fork,UT,,US,+1 801-763-0721,,,Blue Rhino,Q65681213
189459,bluerhino,Lees Roundup- AF,,American Fork,UT,,US,+1 801-492-0833,,,Blue Rhino,Q65681213
SANDUTMW,builders_firstsource_us,American Fork Windows,,American Fork,UT,,US,+1 385-304-3001,https://www.bldr.com/location/american-fork-windows/SANDUTMW,Mo-Fr 08:00-16:00,Builders FirstSource,Q27686100
1118,burlington_us,Burlington,,American Fork,UT,,US,+1 385-293-1015,https://stores.burlington.com/ut/american-fork/1118,Mo-Th 09:00-22:30; Fr-Sa 09:00-23:30; Su 09:00-22:00,Burlington,Q4999220
20,cafe_zupas,American Fork,,American Fork,UT,,US,+1 801-216-8148,https://cafezupas.com/locationcopy/info/american-fork,Mo-Th 10:00-21:00; Fr-Sa 10:00-22:00,Café Zupas,Q123687995
36291,chevrolet,KEN GARFF CHEVROLET,,American Fork,UT,,US,+1 801-756-3546,https://www.kengarffchevrolet.com,Mo-Sa 09:00-20:00,Chevrolet,Q29570
001.005.1027,chilis,American Fork,,American Fork,UT,,US,+1 801-756-7581,https://www.chilis.com/locations/us/utah/american-fork/american-fork/,Mo-Th 11:00-23:00; Fr-Sa 11:00-24:00; Su 11:00-22:00,Chili's,Q1072948
65897,citi,ATM MOUNTAIN AMERICA CU,,American Fork,UT,,US,,,,Citibank,Q857063
82859,citi,ATM Target,,American Fork,UT,,US,,,,Citibank,Q857063
28579,citi,ATM 7ELEVEN-FCTI,,American Fork,UT,,US,,,,Citibank,Q857063
51685,citi,ATM CVS,,Highland,UT,,US,,,,Citibank,Q857063
24610,citi,ATM 7ELEVEN-FCTI,,American Fork,UT,,US,,,,Citibank,Q857063
39188,citi,ATM CENTRAL BANK,,American Fork,UT,,US,,,,Citibank,Q857063
30424,citi,ATM 7ELEVEN-FCTI,,American Fork,UT,,US,,,,Citibank,Q857063
51322,citi,ATM CVS,,American Fork,UT,,US,,,,Citibank,Q857063
78878,citi,ATM Speedway,,American Fork,UT,,US,,,,Citibank,Q857063
americanfork/3322,claires,Shop Ear Piercings & Jewelry at Claires Walmart American Fork,,AMERICAN FORK,UT,,US,+1 801-763-6983,https://stores.claires.com/us/ut/americanfork/3322.html,Mo-Sa 12:00-20:00; Su 11:00-20:00,Claire's,Q2974996
20145,coldstone_creamery,Cold Stone Creamery,,American Fork,UT,,US,+1 801-763-7540,https://www.coldstonecreamery.com/stores/20145,,Cold Stone Creamery,Q1094923
,credit_union_us,Security Service FCU,,American Fork,UT,,US,+1 801-484-8811,,Mo-Fr 09:00-05:30; Sa 09:00-01:00,,
,credit_union_us,Utah First CU,,American Fork,UT,,US,+1 800-234-0729,,Mo-Fr 09:00-05:30; Sa 09:00-03:00,,
70189590,cricket_wireless,Cricket Wireless Authorized Retailer,,American Fork,UT,,US,+1 801-492-2840,https://www.cricketwireless.com/stores/ll/US/UT/American-Fork/650-E-State-Rd,Mo-Fr 10:00-19:00; Sa 10:00-18:00; Su 12:00-17:00,Cricket Wireless,Q5184987
10577,cvs_us,CVS Pharmacy,,American Fork,UT,,US,+1 801-756-1501,https://www.cvs.com/store-locator/american-fork-ut-pharmacies/475-east-state-rd-american-fork-ut-84003/storeid=10577,Mo-Sa 07:00-23:00; Su 07:00-22:00,CVS Pharmacy,Q2078880
16936,cvs_us,CVS Pharmacy,,American Fork,UT,,US,+1 801-756-5997,https://www.cvs.com/store-locator/american-fork-ut-pharmacies/608-w-main-st-american-fork-ut-84003/storeid=16936,"Mo-Fr 09:00-13:30,14:00-19:00; Sa 09:00-13:30,14:00-17:00; Su 11:00-13:30,14:00-17:00",CVS Pharmacy,Q2078880
1285,dickssportinggoods,"DICK'S Sporting Goods Store in American Fork, UT | 1285",,American Fork,UT,,US,+1 801-692-6137,https://stores.dickssportinggoods.com/ut/american-fork/1285/,Mo-Sa 09:00-21:00; Su 00:00-24:00,Dick's Sporting Goods,Q5272601
8457,dollartree,DollarTree,,American Fork,UT,,US,+1 801-216-0031,,Mo-Sa 09:00-21:00; Su 10:00-20:00,Dollar Tree,Q5289230
https://www.edwardjones.com/us-en/financial-advisor/nicholas-loveless,edwardjones,Nicholas B Loveless,,American Fork,UT,,US,+1 801-772-0106,https://www.edwardjones.com/us-en/financial-advisor/nicholas-loveless,Mo-Th 08:30-16:30; Fr 08:30-15:00,Edward Jones,Q5343830
E14717,enterprise,American Fork,,American Fork,UT,,US,+1 801-763-5446,,,Enterprise Rent-A-Car,Q17085454
E14768,enterprise,American Fork-Unique A B,,American Fork,UT,,US,+1 801-216-3181,,,Enterprise Rent-A-Car,Q17085454
0292,european_wax_center_us,European Wax Center,,American Fork,UT,,US,+1 385-498-4980,https://locations.waxcenter.com/ut/americanfork/american-fork-0292.html,Mo-Th 09:00-20:30; Fr 09:00-20:00; Sa 08:30-17:00; Su 09:30-16:00,European Wax Center,Q5413426
200327223,exxonmobil,FAST GAS #8,,AMERICAN FORK,UT,,US,+1 801-756-8182,https://www.exxon.com/en/find-station/exxon-americanfork-ut-fastgas8-200327223,Mo-Su 06:00-22:00,Exxon,Q109675651
200322096,exxonmobil,FAST GAS #6,,AMERICAN FORK,UT,,US,+1 801-492-7776,https://www.exxon.com/en/find-station/exxon-americanfork-ut-fastgas6-200322096,Mo-Fr 05:00-23:00; Sa 06:00-23:00; Su 08:00-22:00,Exxon,Q109675651
200321541,exxonmobil,ROUND UP #2,,AMERICAN FORK,UT,,US,+1 801-492-0833,https://www.exxon.com/en/find-station/exxon-americanfork-ut-roundup2-200321541,Mo-Fr 04:30-22:00; Sa 06:00-22:00; Su 07:00-22:00,Exxon,Q109675651
https://local.fedex.com/#27745895,fedex,FedEx Authorized ShipCenter,,Highland,UT,,US,+1 801-756-8080,https://local.fedex.com/en-us/ut/highland/87826,,FedEx,Q459477
https://local.fedex.com/#25458688,fedex,,,American Fork,UT,,US,+1 800-463-3339,https://local.fedex.com/en-us/ut/american-fork/00jd2,,FedEx,Q459477
https://locations.fivebelow.com/ut/american-fork/205-meadow-lane,five_below,Five Below The Meadows,,American Fork,UT,,US,,https://locations.fivebelow.com/ut/american-fork/205-meadow-lane,Mo-Sa 10:00-20:00; Su 11:00-18:00,Five Below,Q5455836
https://restaurants.fiveguys.com/#15553142,five_guys_us,Five Guys Meadows Shopping Center,,American Fork,UT,,US,+1 801-763-4780,https://restaurants.fiveguys.com/209-nw-state-street,"Mo-Su 11:00-21:30,11:00-22:00",Five Guys,Q1131810
Motorcraft3147USAEnglish,ford,Ken Garff Ford,,Utah,UT,,US,+1 801-763-6800,,,Ford,Q44294
https://www.ford.com/dealerships/dealer-details/ut/american-fork/ken-garff-ford/,ford_dealers_us,Ken Garff Ford,,American Fork,UT,,US,+1 385-406-4309,https://www.ford.com/dealerships/dealer-details/ut/american-fork/ken-garff-ford/,Mo-Sa 09:00-20:00,Ford Motor Company,Q44294
2408,gamestop_us,Alpine Valley Center,,American Fork,UT,,US,+1 801-492-0762,https://www.gamestop.com/search/?store=2408,Mo-Th 12:00-20:00; Fr-Sa 10:00-21:00; Su 12:00-19:00,GameStop,Q202210
https://stores.gnc.com/#24057859,gnc,GNC The Meadows,,,UT,,US,+1 801-756-2674,https://stores.gnc.com/all-stores-utah/american-fork/368-n-meadow-lane,Mo-Sa 10:00-19:00; Su 11:00-18:00,GNC,Q4808595
https://salons.greatclips.com/us/ut/american-fork/484-n-950-w,greatclips,Great Clips,,American Fork,UT,,US,+1 801-756-6370,https://salons.greatclips.com/us/ut/american-fork/484-n-950-w,Mo-Fr 09:00-20:00; Sa 09:00-18:00; Su 00:00-24:00,Great Clips,Q5598967
https://salons.greatclips.com/us/ut/highland/5435-w-11000-n,greatclips,Great Clips,,Highland,UT,,US,+1 801-763-1273,https://salons.greatclips.com/us/ut/highland/5435-w-11000-n,Mo-Sa 08:00-20:00; Su 00:00-24:00,Great Clips,Q5598967
https://www.habitburger.com/locations/american-fork-ut/,habit_burger,The Habit Burger Grill,,American Fork,UT,,US,+1 801-756-1453,https://www.habitburger.com/locations/american-fork-ut/,Mo-Sa 10:30-21:30; Su 10:30-21:00,The Habit Burger Grill,Q18158741
48883,h_r_block,H&R Block,,American Fork,UT,,US,+1 801-756-4612,https://www.hrblock.com/local-tax-offices/utah/american-fork/the-meadows/48883/,,H&R Block,Q5627799
ut_american-fork_breakfast-925-w-state-rd-1775,ihop,IHOP Breakfast Restaurants Near You at 925 W State Rd,,American Fork,UT,,US,+1 801-492-2880,https://restaurants.ihop.com/en-us/ut/american-fork/breakfast-925-w-state-rd-1775,,IHOP,Q1185675
239,innout,American Fork,,American Fork,UT,,US,,http://locations.in-n-out.com/239,,In-N-Out Burger,Q1205312
https://office.jacksonhewitt.com/#27580472,jackson_hewitt,Jackson Hewitt,,American Fork,UT,,US,+1 385-286-4832,https://office.jacksonhewitt.com/tax-preparation-services-locations/en/ut/american-fork/949-west-grassland-drive/52511,Mo-Sa 09:30-17:30; Su 12:00-16:00,Jackson Hewitt,Q6117132
https://locations.jimmyjohns.com/ut/americanfork/sandwiches-959.html,jimmy_johns,Jimmy John's,,American Fork,UT,,US,+1 801-772-0200,https://locations.jimmyjohns.com/ut/americanfork/sandwiches-959.html,,Jimmy John's,Q1689380
2331,joann_us,JOANN Fabric and Crafts,,American Fork,UT,,US,+1 801-756-4961,https://stores.joann.com/ut/american-fork/2331/,Mo-Sa 09:00-21:00; Su 12:00-17:00,JOANN,Q6203968
https://locations.kfc.com/#11248339,kfc,Chicken Nuggets Near American Fork,,American Fork,UT,,US,,https://locations.kfc.com/ut/american-fork/439-east-state-road/chickennugget,Mo-Su 10:00-23:00,KFC,Q524757
777,kohls_us,Kohl's,,American Fork,UT,,US,+1 801-492-4113,https://www.kohls.com/stores/ut/americanfork-777.shtml,Mo-Sa 09:00-21:00; Su 09:00-20:00,Kohl's,Q967265
156415,little_free_library,Matthews Library #156415 American Fork UT,,American Fork,UT,,US,,,,Little Free Library,Q6650101
153260,little_free_library,Stonecreek Free Library #153260 American Fork UT,,American Fork,UT,,US,,,,Little Free Library,Q6650101
149047,little_free_library,Little Neighborhood Library #149047 American Fork UT,,American Fork,UT,,US,,,,Little Free Library,Q6650101
55999,little_free_library,Canterbury Tales #55999 Highland UT,,Highland,UT,,US,,,,Little Free Library,Q6650101
82810,little_free_library,Canterbury Drive Library #82810 Highland UT,,Highland,UT,,US,,,,Little Free Library,Q6650101
175396,little_free_library,Little Lambs Library #175396 American Fork UT,,American Fork,UT,,US,,,,Little Free Library,Q6650101
164478,little_free_library,Layla's Little Neighborhood Indoor Playground #164478 #164478 American Fork UT,,American Fork,UT,,US,,,,Little Free Library,Q6650101
120208,little_free_library,Bunnies & Books #120208 Highland UT,,Highland,UT,,US,,,,Little Free Library,Q6650101
12738,little_free_library,Maycie Gerber #12738 Highland UT,,Highland,UT,,US,,,,Little Free Library,Q6650101
73358,little_free_library,Stacie Cameron #73358 American Fork UT,,American Fork,UT,,US,,,,Little Free Library,Q6650101
34306,little_free_library,Marcie Alcorn #34306 Highland UT,,Highland,UT,,US,,,,Little Free Library,Q6650101
39765,little_free_library,Ilima Todd #39765 American Fork UT,,American Fork,UT,,US,,,,Little Free Library,Q6650101
127466,little_free_library,Brook’s Books #127466 Alpine UT,,Alpine,UT,,US,,,,Little Free Library,Q6650101
https://locations.massageenvy.com/#1773868,massage_envy,Massage Envy American Fork,,American Fork American Fork,UT,,US,+1 801-763-1351,https://locations.massageenvy.com/utah/american-fork/356-north-750-west.html,Mo-Tu 09:00-21:00; We 11:00-19:00; Th 09:00-21:00; Fr-Sa 09:00-22:00,Massage Envy,Q10327170
17689,mattress_firm_us,Mattress Firm American Fork,,American Fork,UT,,US,+1 801-763-9335,https://www.mattressfirm.com/en-us/stores/ut/american-fork/066023/,,Mattress Firm,Q6791878
https://locations.maurices.com/#11688850,maurices,maurices Alpine Valley Shopping Center,,American Fork,UT,,US,+1 801-492-3407,https://locations.maurices.com/us/ut/american-fork/664-w-main-street,Mo-Sa 10:00-20:00; Su 12:00-17:00,maurices,Q6793571
1091,michaels,"SLC - AMERICAN FORK, UT",,American Fork,UT,,US,+1 801-492-3534,https://locations.michaels.com/ut/american-fork/1091,Mo-Sa 09:00-21:00,Michaels,Q6835667
https://locations.modpizza.com/#23558151,modpizza,MOD Pizza Pacific Drive,,American Fork,UT,,US,+1 801-980-0741,https://locations.modpizza.com/usa/ut/american-fork/599-pacific-dr,Mo-Th 10:30-22:00; Fr-Sa 10:30-23:00; Su 10:30-22:00,MOD Pizza,Q19903469
16815,orangetheory_fitness,"American Fork, UT",,American Fork,UT,,US,+1 801-893-3900,,,Orangetheory Fitness,Q25005163
111716,pandaexpress,State & N 900th,,American Fork,UT,,US,+1 801-492-0753,https://www.pandaexpress.com/locations/ut/american-fork/959-west-state-street,Mo-Th 10:00-22:30; Fr-Sa 10:00-23:00; Su 11:00-21:00,Panda Express,Q1358690
https://locations.papamurphys.com/#15430537,papamurphys,Pizza Takeout & Delivery,,Highland,UT,,US,+1 801-756-4321,https://locations.papamurphys.com/ut/highland/5435-west-11000-north,Mo 00:00-24:00; Tu-Fr 11:00-20:00; Sa 11:00-21:00; Su 00:00-24:00,Papa Murphy's,Q7132349
https://locations.papajohns.com/#10692950,papa_johns,Papa John's,,American Fork,UT,,US,+1 801-772-7272,https://locations.papajohns.com/united-states/ut/84003/american-fork/104-w-main-st,Mo-Sa 10:00-24:00,Papa John's Pizza,Q2759586
0000884054,phillips_66_conoco_76,HARTS PIONEER CROSSING,,AMERICAN FORK,UT,,US,+1 801-763-1075,,,Phillips 66,Q1656230
ut_american-fork_76-north-100-east,pizza_hut_us,76 North 100 East,,American Fork,UT,,US,+1 801-756-9696,https://locations.pizzahut.com/ut/american-fork/76-north-100-east,,Pizza Hut,Q191615
restaurant_85215,popeyes_us_fr,Popeyes,"1027 West State Road American Fork, Utah 84003 - USA",American Fork,UT,,US,+1 801-756-7308,https://www.popeyes.com/store-locator/store/restaurant_85215,Mo-Su 10:00-00:00,Popeyes,Q1330910
jones-paint-and-glass-32903,ppgpaints,JONES PAINT & GLASS,,"American Fork, ",UT,,US,+1 801-756-5282,https://www.ppgpaints.com/store-locator/us/utah/american-fork-paint-stores/jones-paint-and-glass-32903,,PPG Paints,Q83891559
home-depot-4417-14184,ppgpaints,HOME DEPOT 4417,,"American Fork, ",UT,,US,+1 801-763-8640,https://www.ppgpaints.com/store-locator/us/utah/american-fork-paint-stores/home-depot-4417-14184,,PPG Paints,Q83891559
980,ross_dress_for_less_us,American Fork,,american Fork,UT,,US,+1 801-756-6342,,Mo-Th 10:00-22:30; Fr-Sa 09:00-23:00; Su 10:00-22:00,Ross Dress for Less,Q3442791
https://stores.saloncentric.com/#29173712,salon_centric_us,SalonCentric,,,UT,,US,+1 801-756-1570,https://stores.saloncentric.com/ut/american-fork/5610,Mo 08:00-18:30; Tu-Fr 08:00-18:00; Sa 08:30-16:00,SalonCentric,Q124339481
36765,seven_eleven_ca_us,7-Eleven Store,,American Fork,UT,,US,+1 801-763-7697,https://www.7-eleven.com/locations/ut/american-fork/109-e-main-36765,,7-Eleven,Q259340
36331,seven_eleven_ca_us,7-Eleven Store,,American Fork,UT,,US,+1 801-492-2802,https://www.7-eleven.com/locations/ut/american-fork/290-w-main-st-36331,,7-Eleven,Q259340
https://stations.sinclairoil.com/ut/american-fork/309-w-main-st,sinclair_us,Sinclair Gas Station,,American Fork,UT,,US,+1 801-973-7002,https://stations.sinclairoil.com/ut/american-fork/309-w-main-st,Mo-Th 05:00-23:00; Fr-Sa 05:00-24:00; Su 07:00-22:00,Sinclair,Q1290900
16754133408596135352,sleep_number_us,Sleep Number,,American Fork,UT,,US,,https://www.sleepnumber.com/stores/ut/american-folk/945-w-500-n,Mo 10:00-19:00; Tu 11:00-19:00; We 12:00-19:00; Th 11:00-19:00; Fr 11:00-20:00; Sa 10:00-20:00; Su 11:00-18:00,Sleep Number,Q7447640
32193,smilebrands,Monarch Dental American Fork,476 N 900 W,American Fork,UT,,US,+1 801-756-5522,https://www.monarchdental.com/dentist-near-me/american-fork-dentist/42080/,,Smile Brands Inc.,Q108286823
https://restaurants.subway.com/#14905610,subway,Subway Lone Peak Village S/C,,Highland Utah,UT,,US,+1 801-772-0747,https://restaurants.subway.com/united-states/ut/highland/5331-w-11000-n,Mo-Sa 09:00-21:00,Subway,Q244457
https://restaurants.subway.com/#14904217,subway,Subway,,American Fork Utah,UT,,US,+1 801-756-9707,https://restaurants.subway.com/united-states/ut/american-fork/537-east-state-road,Mo-Fr 07:00-21:00; Sa 09:00-21:00; Su 11:00-20:00,Subway,Q244457
https://locations.tacobell.com/#6142672,taco_bell,Taco Bell,,American Fork,UT,,US,+1 801-492-9000,https://locations.tacobell.com/ut/american-fork/633-s-500-e.html,Mo-Th 07:00-24:00; Fr 07:00-01:00; Sa 08:00-01:00; Su 08:00-24:00,Taco Bell,Q752941
081587,tjx,American Fork,219 North Meadow Lane,American Fork,UT,,US,+1 801-756-1553,,Mo-Sa 09:30-21:30; Su 10:00-20:00,TJ Maxx,Q10860683
28775,tjx,American Fork,764 W 240 North Meadow Lane,American Fork,UT,,US,+1 801-492-6211,,Mo-Sa 09:30-21:30; Su 10:00-20:00,HomeGoods,Q5887941
50131,tjx,American Fork,213 North Meadow Lane,American Fork,UT,,US,+1 801-756-1174,,Mo-Sa 09:30-21:30; Su 10:00-20:00,Sierra,Q7511598
8578,tmobile_us,Main & State Street,,American Fork,UT,,US,+1 801-763-0046,https://www.t-mobile.com/store-locator/ut/american-fork/main-state-street,,T-Mobile,Q3511885
1770,tmobile_us,SR-92 & 1200 East,,Highland,UT,,US,+1 801-763-1557,https://www.t-mobile.com/store-locator/ut/highland/sr-92-1200-east,,T-Mobile,Q3511885
https://www.trekbikes.com/us/en_US/retail/american_fork/,trekbikes,Trek Bicycle American Fork,,American Fork,UT,,US,+1 801-763-1222,https://www.trekbikes.com/us/en_US/retail/american_fork/,Mo-Sa 10:00-18:00,Trek,Q1067617
6054,upsstore,Highland,5513 W 11000 North,Highland,UT,,US,+1 801-763-2323,https://locations.theupsstore.com/ut/highland/5513-w-11000-north,,UPS Store,Q7771029
2476,upsstore,American Fork,125 E Main St,American Fork,UT,,US,+1 801-763-8111,https://locations.theupsstore.com/ut/american-fork/125-e-main-st,,UPS Store,Q7771029
1352950,usps,AMERICAN FORK,,AMERICAN FORK,UT,,US,+1 801-492-7731,,Mo-Fr 09:00-17:30; Sa 09:00-14:00,United States Postal Service,Q668687
8400300009,usps_collection_boxes,USPS COLLECTION BOX - BLUE BOX,50 N 100 W,AMERICAN FORK,UT,,US,,,,United States Postal Service,Q668687
8400300008,usps_collection_boxes,USPS COLLECTION BOX - BLUE BOX,50 N 100 W,AMERICAN FORK,UT,,US,,,,United States Postal Service,Q668687
8400300020,usps_collection_boxes,USPS COLLECTION BOX - APC,55 N MERCHANT ST,AMERICAN FORK,UT,,US,,,,United States Postal Service,Q668687
8400300013,usps_collection_boxes,USPS COLLECTION BOX - PO LOBBY,55 N MERCHANT ST,AMERICAN FORK,UT,,US,,,,United States Postal Service,Q668687
8400300021,usps_collection_boxes,USPS COLLECTION BOX - PO LOBBY,55 N MERCHANT ST,AMERICAN FORK,UT,,US,,,,United States Postal Service,Q668687
8400300028,usps_collection_boxes,USPS COLLECTION BOX - PO LOBBY,55 N MERCHANT ST,AMERICAN FORK,UT,,US,,,,United States Postal Service,Q668687
8400300022,usps_collection_boxes,USPS COLLECTION BOX - BLUE BOX,5400 W CIVIC CENTER DR,AMERICAN FORK,UT,,US,,,,United States Postal Service,Q668687
8400300019,usps_collection_boxes,USPS COLLECTION BOX - BLUE BOX,20 W MAIN ST,AMERICAN FORK,UT,,US,,,,United States Postal Service,Q668687
R00000149555,verizon_us,American Fork,,American Fork,UT,,US,+1 801-492-2837,https://www.verizon.com/stores/details/utah/american-fork/american-fork-322525/,Mo-Fr 10:00-20:00; Sa 09:00-19:00; Su 11:00-18:00,Verizon,Q919641
,visa,,,PROVO,UT,,US,,,,,
,visa,,,CEDAR HILLS,UT,,US,,,,,
,visa,,,HIGHLAND,UT,,US,,,,,
,visa,,,HIGHLAND,UT,,US,,,,,
,visa,,,HIGHLAND,UT,,US,,,,,
,visa,,,AMERICAN FORK,UT,,US,,,,,
,visa,,,AMERICAN FORK,UT,,US,,,,,
,visa,,,AMER.FORK,UT,,US,,,,,
,visa,,,AMER.FORK,UT,,US,,,,,
,visa,,,AMER.FORK,UT,,US,,,,,
,visa,,,AMERICAN FORK,UT,,US,,,,,
,visa,,,AMERICAN FORK,UT,,US,,,,,
,visa,,,AM. FORK,UT,,US,,,,,
,visa,,,AMERICAN FORK,UT,,US,,,,,
,visa,,,AM. FORK,UT,,US,,,,,
,visa,,,AMERICAN FORK,UT,,US,,,,,
,visa,,,AMERICAN FORK,UT,,US,,,,,
,visa,,,AMERICAN FORK,UT,,US,,,,,
,visa,,,AMERICAN FORK,UT,,US,,,,,
,visa,,,AMERICAN FORK,UT,,US,,,,,
,visa,,,AMERICAN FORK,UT,,US,,,,,
,visa,,,AMERICAN FORK,UT,,US,,,,,
,visa,,,AMERICAN FORK,UT,,US,,,,,
,visa,,,AMERICAN FORK,UT,,US,,,,,
,visa,,,AMERICAN FORK,UT,,US,,,,,
,visa,,,AMERICAN FORK,UT,,US,,,,,
,visa,,,AMERICAN FORK,UT,,US,,,,,
,visa,,,AMERICAN FORK,UT,,US,,,,,
,visa,,,AM. FORK,UT,,US,,,,,
,visa,,,AMERICAN FORK,UT,,US,,,,,
,visa,,,AMERICAN FORK,UT,,US,,,,,
,visa,,,AMERICAN FORK,UT,,US,,,,,
,visa,,,AMERICAN FORK,UT,,US,,,,,
,visa,,,AMERICAN FORK,UT,,US,,,,,
,visa,,,AMERICAN FORK,UT,,US,,,,,
,visa,,,AMERICAN FORK,UT,,US,,,,,
,visa,,,AMERICAN FORK,UT,,US,,,,,
,visa,,,AMERICAN FORK,UT,,US,,,,,
,visa,,,AMERICAN FORK,UT,,US,,,,,
,visa,,,LEHI,UT,,US,,,,,
386,visionworks,Visionworks The Meadows,,American Fork,UT,,US,+1 801-763-9898,https://locations.visionworks.com/ll/US/UT/American-Fork/323-NW-State-St,Mo-Fr 10:00-18:30; Sa 10:00-18:00,Visionworks,Q5422607
797__W__STATE__RD_AMERICAN__FORK_UT_84003,wellsfargo,Wells Fargo,797 W STATE RD,AMERICAN FORK,UT,,US,+1 801-763-2140,https://www.wellsfargo.com/locator/bank/797__W__STATE__RD_AMERICAN__FORK_UT_84003/,Mo-Fr 09:00-17:00,Wells Fargo,Q744149
5285__W__11000__N_HIGHLAND_UT_84003,wellsfargo,Wells Fargo,5285 W 11000 N,HIGHLAND,UT,,US,+1 801-763-5300,https://www.wellsfargo.com/locator/bank/5285__W__11000__N_HIGHLAND_UT_84003/,Mo-Fr 09:00-17:00,Wells Fargo,Q744149
135__E__MAIN__ST_AMERICAN__FORKS_UT_84003,wellsfargo,,135 E MAIN ST,AMERICAN FORKS,UT,,US,+1 800-869-3557,https://www.wellsfargo.com/locator/bank/135__E__MAIN__ST_AMERICAN__FORKS_UT_84003/,,Wells Fargo,Q744149
https://locations.wendys.com/#9252911,wendys,"Wendy's Alpine in Highland, UT",,Highland,UT,,US,+1 801-492-0303,https://locations.wendys.com/united-states/ut/highland/10989-no-town-center-blvd,"Mo-Sa 06:00-10:30,06:00-22:00",Wendy's,Q550258
https://locations.wendys.com/#9250577,wendys,"Wendy's American Fork in American Fork, UT",,American Fork,UT,,US,+1 801-763-7609,https://locations.wendys.com/united-states/ut/american-fork/368-e-state-st,"Mo-Su 06:00-10:30,06:00-22:00",Wendy's,Q550258
876888dda5eee40b1a118b88e9b5f9c8,western_union,7-ELEVEN #36765,,American Fork,UT,,US,+1 801-763-7697,https://location.westernunion.com/us/ut/american-fork/876888dda5eee40b1a118b88e9b5f9c8,,Western Union,Q861042
b4e235bbda93664b4c5a358ee2d9999e,western_union,7-ELEVEN #36331,,American Fork,UT,,US,+1 801-492-2802,https://location.westernunion.com/us/ut/american-fork/b4e235bbda93664b4c5a358ee2d9999e,,Western Union,Q861042
a165c8cfef0625439cdbccb6e833339a,western_union,WALMART #002511,,American Fork,UT,,US,+1 801-492-1102,https://location.westernunion.com/us/ut/american-fork/a165c8cfef0625439cdbccb6e833339a,Mo-Su 07:00-21:00,Western Union,Q861042
4109,xfinity,Xfinity,,American Fork,UT,,US,,https://www.xfinity.com/local/ut/american-fork/987-w-500-n.html,Mo-Sa 10:00-20:00; Su 11:00-17:00,Xfinity,Q5151002
