Ref,Spider,Name,Address,City,State,Zipcode,Country,Phone,Website,Hours,Brand,WikiData
1c3bcf5c1285ac016399ac1163c29bd7,western_union,COTEM,,Miragoane,NIPPES,,HT,+509 37 63 0090,https://location.westernunion.com/ht/nippes/miragoane/1c3bcf5c1285ac016399ac1163c29bd7,Mo-Su 07:00-22:00,Western Union,Q861042
1caa8f1d8aae55fe80aaba62794aaabd,western_union,KING COMMUNICATION 1,,Miragoane,NIPPES,,HT,+509 34 71 7597,https://location.westernunion.com/ht/nippes/miragoane/1caa8f1d8aae55fe80aaba62794aaabd,Mo-Su 07:00-22:00,Western Union,Q861042
a079ee2bf956a1c6ed0207041dae01da,western_union,FONKOZE MIRAGOANE,,Miragoane,NIPPES,,HT,+509 28 15 0627,https://location.westernunion.com/ht/nippes/miragoane/a079ee2bf956a1c6ed0207041dae01da,Mo-Fr 08:00-17:00; Sa 08:00-14:00,Western Union,Q861042
0b92280c0b1956b6dc6f80a9d20db4f1,western_union,ONLY ONE,,Miragoane,NIPPES,,HT,+509 49 49 8226,https://location.westernunion.com/ht/nippes/miragoane/0b92280c0b1956b6dc6f80a9d20db4f1,Mo-Su 07:00-22:00,Western Union,Q861042
c04a3c5e1252948c7db1db8995c7075c,western_union,LA BOUTIQUE MULTI SERVICES 3,,Miragoane,NIPPES,,HT,+509 37 00 7305,https://location.westernunion.com/ht/nippes/miragoane/c04a3c5e1252948c7db1db8995c7075c,Mo-Su 07:00-22:00,Western Union,Q861042
736ce6b6e09e80a425be5af789a47f5e,western_union,ANASTASIA MULTI SERVICES,,Miragoane,NIPPES,,HT,+509 36 53 7229,https://location.westernunion.com/ht/nippes/miragoane/736ce6b6e09e80a425be5af789a47f5e,Mo-Su 08:00-18:00,Western Union,Q861042
2fd657544c1c36b121e4eb4b573b3a17,western_union,QUEENS MULTI SERVICES 11,,Miragoane,NIPPES,,HT,+509 28 13 1537,https://location.westernunion.com/ht/nippes/miragoane/2fd657544c1c36b121e4eb4b573b3a17,Mo-Su 07:00-19:30,Western Union,Q861042
90388d1ad7854e21b1fbd90e4d484ffb,western_union,LA BOUTIQUE MULTI SERVICES 2,,Miragoane,NIPPES,,HT,+509 37 00 7305,https://location.westernunion.com/ht/nippes/miragoane/90388d1ad7854e21b1fbd90e4d484ffb,Mo-Su 07:00-22:00,Western Union,Q861042
e18a70ae926afab1287f609eeb70d624,western_union,OLIVER MULTI SERVICES 2,,Miragoane,NIPPES,,HT,+509 28 13 1512,https://location.westernunion.com/ht/nippes/miragoane/e18a70ae926afab1287f609eeb70d624,Mo-Su 08:00-17:00,Western Union,Q861042
c885d1f9e685cc0ce2220ec24c9aba9a,western_union,MACATY MULTI SERVICES 2,,Port Au Prince,NIPPES,,HT,+509 37 23 1657,https://location.westernunion.com/ht/nippes/port-au-prince/c885d1f9e685cc0ce2220ec24c9aba9a,Mo-Su 07:00-22:00,Western Union,Q861042
46ebe0def10420136e02c90051c276ca,western_union,MACATY MULTI SERVICES,,L Asile,NIPPES,,HT,+509 31 57 5152,https://location.westernunion.com/ht/nippes/l-asile/46ebe0def10420136e02c90051c276ca,Mo-Su 07:00-22:00,Western Union,Q861042
fdefde7ed4a7ba9916571ccd16b8ec50,western_union,STATION NATIONAL,,Fonds Des Negres,NIPPES,,HT,+509 22 30 4501,https://location.westernunion.com/ht/nippes/fonds-des-negres/fdefde7ed4a7ba9916571ccd16b8ec50,Mo-Su 07:00-23:00,Western Union,Q861042
71949c817815c973757b6d80d879a9f2,western_union,THE FELIX BUSINESS 6 FDN 2,,Fonds Des Negres,NIPPES,,HT,+509 36 63 7766,https://location.westernunion.com/ht/nippes/fonds-des-negres/71949c817815c973757b6d80d879a9f2,Mo-Su 07:00-22:00,Western Union,Q861042
d6efd0d1244807888a61011121080d6c,western_union,THE FELIX BUSINESS 5 FDN 1,,Fonds Des Negres,NIPPES,,HT,+509 36 63 7766,https://location.westernunion.com/ht/nippes/fonds-des-negres/d6efd0d1244807888a61011121080d6c,Mo-Su 07:00-22:00,Western Union,Q861042
7e59be6b9bf77b24b777c88f76fcacff,western_union,OLIVER MULTI SERVICES 5,,Miragoane,NIPPES,,HT,+509 28 11 5581,https://location.westernunion.com/ht/nippes/miragoane/7e59be6b9bf77b24b777c88f76fcacff,Mo-Su 08:00-17:00,Western Union,Q861042
6cbfb37e0a266b21ecca8419fbab8b0c,western_union,L ETERNEL GEN BON DO COIN IDEA,,Fonds Des Negres,NIPPES,,HT,+509 34 90 7580,https://location.westernunion.com/ht/nippes/fonds-des-negres/6cbfb37e0a266b21ecca8419fbab8b0c,Mo-Su 07:00-22:00,Western Union,Q861042
c00d91c7a035913b79c668e13abde741,western_union,LA RELANCE II FONDS DES NEGRES,,Fonds Des Negres,NIPPES,,HT,+509 38 59 6346,https://location.westernunion.com/ht/nippes/fonds-des-negres/c00d91c7a035913b79c668e13abde741,Mo-Su 07:00-22:00,Western Union,Q861042
15d7e5c26d6cfadc6da9a4668d5ee08d,western_union,EFFORT ET VOLONTE MATERIAUX DE CONST,,Petit Trou De Nippes,NIPPES,,HT,+509 48 78 2325,https://location.westernunion.com/ht/nippes/petit-trou-de-nippes/15d7e5c26d6cfadc6da9a4668d5ee08d,Mo-Su 07:00-22:00,Western Union,Q861042
bda4ceeec9878dd5a002405446312167,western_union,ONLY ONE 2 ANSE A VEAU,,Anse A Veau,NIPPES,,HT,+509 49 49 8226,https://location.westernunion.com/ht/nippes/anse-a-veau/bda4ceeec9878dd5a002405446312167,Mo-Su 07:00-22:00,Western Union,Q861042
4bd215e186560f0f03eb1080563da305,western_union,SAM DEMELE,,Arnaud,NIPPES,,HT,+509 38 75 6557,https://location.westernunion.com/ht/nippes/arnaud/4bd215e186560f0f03eb1080563da305,Mo-Su 07:00-22:00,Western Union,Q861042
5ac960a7c9e937b9688cb23d87d0efd6,western_union,CENTRO PLUS S A 5,,Miragoane,NIPPES,,HT,+509 28 13 1537,https://location.westernunion.com/ht/nippes/miragoane/5ac960a7c9e937b9688cb23d87d0efd6,Mo-Sa 07:00-17:00; Su 07:00-14:00,Western Union,Q861042
311103525305083cd93eeab6a7ded2ed,western_union,LA BOUTIQUE MULTI SERVICES,,Miragoane,NIPPES,,HT,+509 36 34 3802,https://location.westernunion.com/ht/nippes/miragoane/311103525305083cd93eeab6a7ded2ed,Mo-Su 07:00-22:00,Western Union,Q861042
151f254016f9a57c223845b412775afd,western_union,AJB PLUS ET SERVICES,,Miragoane,NIPPES,,HT,+509 28 13 1537,https://location.westernunion.com/ht/nippes/miragoane/151f254016f9a57c223845b412775afd,Mo-Sa 08:00-20:00; Su 10:00-20:00,Western Union,Q861042
c7b238da885ff5a4c8f7cf817f8cbd37,western_union,2 PARTNERS SPECIAL MULTI SERVICES2,,Miragoane,NIPPES,,HT,+509 28 13 1537,https://location.westernunion.com/ht/nippes/miragoane/c7b238da885ff5a4c8f7cf817f8cbd37,Mo-Sa 08:00-18:00; Su 08:00-14:00,Western Union,Q861042
96c1f8ccafb9b7f926d8cb9bc2d7b47d,western_union,MIDORMAX BAZAR MULTI SERVICES,,Saint Michel Du Sud,NIPPES,,HT,+509 48 30 1090,https://location.westernunion.com/ht/nippes/saint-michel-du-sud/96c1f8ccafb9b7f926d8cb9bc2d7b47d,Mo-Su 07:00-22:00,Western Union,Q861042
82e6bf273a61eabfd83c46abf3534241,western_union,MICHELIN MULTISERVICES 2,,Fonds Des Negres,NIPPES,,HT,+509 28 13 1537,https://location.westernunion.com/ht/nippes/fonds-des-negres/82e6bf273a61eabfd83c46abf3534241,Mo-Su 07:00-23:00,Western Union,Q861042
7a19c2a9f97d0a6603d87c1c0490cee8,western_union,MERSOU BOUTIQUE,,Petite Riviere De Nippes,NIPPES,,HT,+509 38 59 6346,https://location.westernunion.com/ht/nippes/petite-riviere-de-nippes/7a19c2a9f97d0a6603d87c1c0490cee8,Mo-Su 07:00-22:00,Western Union,Q861042
91247977ac93285da280b9268b80e259,western_union,SOGEXPRESS MIRAGOANE,,Miragoane,NIPPES,,HT,(+509) 2295900,https://location.westernunion.com/ht/nippes/miragoane/91247977ac93285da280b9268b80e259,Mo-Su 07:00-22:00,Western Union,Q861042
5e520b258e5cf0e004572eddcdd074d6,western_union,FONKOZE PETITE RIVIERE DE NIPP,,Petite Riviere De Nippes,NIPPES,,HT,+509 28 15 0640,https://location.westernunion.com/ht/nippes/petite-riviere-de-nippes/5e520b258e5cf0e004572eddcdd074d6,Mo-Fr 08:00-17:00; Sa 08:00-14:00,Western Union,Q861042
