Ref,Spider,Name,Address,City,State,Zipcode,Country,Phone,Website,Hours,Brand,WikiData
4465,action,Aulnoy Lez Valenciennes,,Aulnoy Lez Valenciennes,,,FR,,https://www.action.com/fr-fr/points-de-vente/valenciennes-avenue-gaston-griolet/,,Action,Q2634111
1350700178,banque_populaire_fr,VALENCIENNES TERTIALES,,VALENCIENNES,,,FR,+33 3 66 95 50 00,https://agences.banquepopulaire.fr/banque-assurance/agence-valenciennes-tertiales-id1350700178,"Tu 09:00-12:45,13:30-18:00; We 09:00-12:15,13:30-18:00; Th 09:00-12:15,14:30-18:00; Fr 09:00-12:15,13:30-18:00; Sa 09:00-12:30",Banque Populaire,Q846647
1350700079,banque_populaire_fr,VALENCIENNES JOIRE PAJOT MARTIN,,VALENCIENNES,,,FR,+33 3 66 95 03 21,https://agences.banquepopulaire.fr/banque-assurance/agence-valenciennes-joire-pajot-martin-id1350700079,"Mo-Fr 08:30-12:15,13:30-17:15",Banque Populaire,Q846647
1350700112,banque_populaire_fr,VALENCIENNES,,VALENCIENNES,,,FR,+33 3 66 95 00 00,https://agences.banquepopulaire.fr/banque-assurance/agence-valenciennes-id1350700112,"Tu 09:00-12:45,13:30-18:00; We 09:00-12:15,13:30-18:00; Th 09:00-12:15,14:30-18:00; Fr 09:00-12:15,13:30-18:00; Sa 09:00-12:30",Banque Populaire,Q846647
40935_1,bmw_group,BOXER EVASION,,VALENCIENNES,,,FR,+33 3 27 27 21 25,https://partenaire.bmw-motorrad.fr/boxerevasionvalenciennes/boxer-evas,,BMW Motorrad,Q249173
700092582,bp,BP VALENCIENNES CROIX DANZIN,,VALENCIENNES,,,FR,+33 3 27 47 62 52,,Mo-Fr 05:00-23:00; Sa-Su 06:00-24:00,BP,Q152057
2712,carrefour_fr,Carrefour Contact,,Famars,,,FR,+33 3 27 25 37 03,https://www.carrefour.fr/magasin/contact-famars,Mo-Sa 08:00-20:00; Su 09:00-13:00,Carrefour Contact,Q2940188
4759,carrefour_fr,Carrefour City,,Valenciennes,,,FR,+33 3 27 25 73 69,https://www.carrefour.fr/magasin/carrefour-city-valenciennes-denain,Mo-Sa 07:00-22:00; Su 09:00-13:00,Carrefour City,Q2940187
4812,carrefour_fr,Carrefour City,,Valenciennes,,,FR,+33 3 27 51 51 56,https://www.carrefour.fr/magasin/carrefour-city-valenciennes-albert-1er,Mo-Sa 07:00-22:00; Su 09:00-13:00,Carrefour City,Q2940187
59300001,carrefour_fr,Station Service Carrefour - Valenciennes,,Aulnoy-Lez-Valenciennes,,,FR,+33 3 27 19 09 79,https://www.carrefour.fr/magasin/valenciennes,24/7,Carrefour,Q217599
6507,carrefour_fr,Market Valenciennes Armes,,Valenciennes,,,FR,+33 3 27 36 65 43,https://www.carrefour.fr/magasin/market-valenciennes-armes,Mo-Sa 08:30-20:00,Carrefour Market,Q2689639
7358,carrefour_fr,Carrefour Valenciennes,,Aulnoy-Lez-Valenciennes,,,FR,+33 3 27 19 09 79,https://www.carrefour.fr/magasin/valenciennes,Mo 08:30-21:00; Tu 08:30-22:00; We-Th 08:30-21:00; Fr-Sa 08:30-22:00; Su 09:00-12:30,Carrefour,Q217599
8857,carrefour_fr,Carrefour City,,Valenciennes,,,FR,+33 3 27 23 08 81,https://www.carrefour.fr/magasin/city-valenciennes,Mo-Sa 07:00-22:00; Su 09:00-13:00,Carrefour City,Q2940187
PA7358,carrefour_fr,Parapharmacie - Carrefour Valenciennes,,Aulnoy-Lez-Valenciennes,,,FR,+33 3 27 19 09 79,https://www.carrefour.fr/magasin/valenciennes,Mo 08:30-21:00; Tu 08:30-22:00; We-Th 08:30-21:00; Fr-Sa 08:30-22:00; Su 09:00-12:30,Carrefour,Q217599
valenciennes/862,claires,Shoppe des piercings et des bijoux à Valenciennes,,Valenciennes,,,FR,+33 3 27 09 18 87,https://stores.claires.com/fr/fr-o/valenciennes/862.html,Mo-Sa 09:30-19:30; Su 10:00-19:00,Claire's,Q2974996
valenciennes,completude,,,VALENCIENNES ,,,FR,+33 3 27 19 29 30,https://www.completude.com/agence/valenciennes/,,Complétude,Q2990589
https://www.credit-agricole.fr/particulier/agence/nord-de-france/valenciennes-centre-3410.html,credit_agricole,Crédit Agricole,,Valenciennes,,,FR,+33 3 27 22 73 40,https://www.credit-agricole.fr/particulier/agence/nord-de-france/valenciennes-centre-3410.html,"Tu-We 08:45-12:30,13:45-18:00; Th 08:45-12:30,14:30-18:00; Fr 08:45-12:30,13:45-18:00; Sa 08:45-12:45",Credit Agricole,Q590952
https://www.credit-agricole.fr/particulier/agence/nord-de-france/valenciennes-cardon-3409.html,credit_agricole,Crédit Agricole,,VALENCIENNES,,,FR,+33 3 27 45 67 50,https://www.credit-agricole.fr/particulier/agence/nord-de-france/valenciennes-cardon-3409.html,"Tu-We 08:45-12:30,13:45-18:00; Th 08:45-12:30,14:30-18:00; Fr 08:45-12:30,13:45-18:00; Sa 08:45-12:45",Credit Agricole,Q590952
https://www.credit-agricole.fr/particulier/agence/nord-de-france/square-habitat-valenciennes-centre-7837.html,credit_agricole,Crédit Agricole,,Valenciennes,,,FR,+33 3 27 51 57 00,https://www.credit-agricole.fr/particulier/agence/nord-de-france/square-habitat-valenciennes-centre-7837.html,"Mo-Fr 09:30-12:00,14:00-19:00; Sa 09:30-12:00,14:00-17:00",Credit Agricole,Q590952
https://www.credit-agricole.fr/particulier/agence/nord-de-france/centre-d-affaires-pro-de-valenciennes-10217.html,credit_agricole,Crédit Agricole,,Valenciennes,,,FR,,https://www.credit-agricole.fr/particulier/agence/nord-de-france/centre-d-affaires-pro-de-valenciennes-10217.html,"Tu-We 08:45-12:30,13:45-18:00; Th 08:45-12:30,14:30-18:00; Fr 08:45-12:30,13:45-18:00; Sa 08:45-12:45",Credit Agricole,Q590952
731,croix_rouge_francaise_fr,UNITE LOCALE DE VALENCIENNES,,VALENCIENNES,,,FR,,https://www.croix-rouge.fr/unite-locale-de-valenciennes,Mo 09:00-12:00; Th 09:00-12:00,Croix-Rouge française,Q3003244
4531,croix_rouge_francaise_fr,POLE SOCIAL DU 59,,VALENCIENNES,,,FR,,https://www.croix-rouge.fr/accueil-de-refugies-reinstalles-du-douaisis,24/7,Croix-Rouge française,Q3003244
1422,croix_rouge_francaise_fr,CENTRE D'HEBERGEMENT ET DE REINSERTION SOCIALE DE VALENCIENNES,,VALENCIENNES,,,FR,,https://www.croix-rouge.fr/centre-d-hebergement-et-de-reinsertion-sociale-de-valenciennes,,Croix-Rouge française,Q3003244
0070015400154,decathlon_fr,Decathlon Aulnoy-Lez-Valenciennes,,AULNOY-LEZ-VALENCIENNES,,,FR,+33 3 27 20 03 33,https://www.decathlon.fr/store-view/magasin-de-sports-decathlon-aulnoy-lez-valenciennes-0070015400154,Mo-Sa 09:30-19:30,Decathlon,Q509349
https://www.dominos.fr/magasin/valenciennes_59300,dominos_pizza_fr,Domino's,,VALENCIENNES,,,FR,,https://www.dominos.fr/magasin/valenciennes_59300,,Domino's,Q839466
XVSC61,enterprise,Valenciennes,,Valenciennes,,,FR,+33 3 27 51 85 46,,,Enterprise Rent-A-Car,Q17085454
FR0075,hm,Centre Place d'Armes,,Valenciennes,,,FR,+33 805 08 88 88,,Mo-Sa 10:00-19:00,H&M,Q188326
https://bureaux.kpmg.fr/#location-386,kpmg_fr,KPMG Valenciennes,,Valenciennes,,,FR,+33 3 27 19 89 00,https://bureaux.kpmg.fr/fr/france-FR/386/kpmg-valenciennes/details,"Mo-Fr 09:00-12:30,13:30-17:00",KPMG,Q493751
4235,lidl_fr,,,Valenciennes,,,FR,,,Mo-Sa 08:30-20:00,Lidl,Q151954
FR302,longchamp,Longchamp Valenciennes,,VALENCIENNES,,,FR,+33 3 27 43 89 59,,,Longchamp,Q1869471
344,maison_de_la_literie_fr,Maison de la Literie - Valenciennes,,Valenciennes,,,FR,+33 3 59 76 01 71,https://www.maisondelaliterie.fr/magasin/,,Maison de la Literie,Q80955776
VS,micromania_fr,VALENCIENNES D'ARMES,,VALENCIENNES,,,FR,+33 3 27 49 49 20,https://www.micromania.fr/magasin?storeid=VS,Mo-Sa 09:30-19:30,Micromania,Q3312221
68271826,moneygram,LE CHAMBORD AU PETIT MARCHE - VALENCIENN,,VALENCIENNES,,,FR,+33 3 27 27 98 49,,Mo-Su 08:00-24:00,MoneyGram,Q1944412
73890470,moneygram,LA HAVANE - VALENCIENNES,,VALENCIENNES,,,FR,+33 3 27 29 96 58,,Mo-Sa 07:30-19:00; Su 00:00-24:00,MoneyGram,Q1944412
606-opticien-aulnoy-lez-valenciennes-optical-center,optical_center,Opticien AULNOY-LEZ-VALENCIENNES Optical Center,,AULNOY LEZ VALENCIENNES,,,FR,+33 3 74 01 02 01,https://opticien.optical-center.fr/606-opticien-aulnoy-lez-valenciennes-optical-center,Mo-Sa 09:00-19:00,Optical Center,Q3354448
frb7bb177b,pandora,A propos de Boutique Bijoux Pandora BIJOUTERIE ACTU OR AULNOY,,AULNAY LES VALENCIENNES,,,FR,+33 3 27 29 82 26,https://stores.pandora.net/fr-hdf/aulnaylesvalenciennes/bijoux-pandora-frb7bb177b.html,,Pandora,Q2241604
fr0417a68e,pandora,Trouvez votre boutique Pandora la plus proche !,,Valenciennes,,,FR,+33 3 27 43 00 01,https://stores.pandora.net/fr-84/valenciennes/bijoux-pandora-fr0417a68e.html,Mo-Sa 10:00-19:00,Pandora,Q2241604
26756,relay_fr,Relay Gare de Valenciennes,,Valenciennes,,,FR,+33 3 27 47 76 56,https://www.relay.com/stores/relay-gare-de-valenciennes/,Mo-Th 06:00-19:30; Fr 06:00-20:00; Sa 06:30-13:00; Su 07:45-13:00,Relay,Q3424298
00018067_001-renault,renault,SAS GARAGE RIZZO,,VALENCIENNES,,,FR,+33 3 27 46 18 85,,,Renault,Q6686
00018067_001-dacia,renault,SAS GARAGE RIZZO,,VALENCIENNES,,,FR,+33 3 27 46 18 85,,,Dacia,Q27460
00000256_001-renault,renault,RENAULT VALENCIENNES GROUPE GGP,,VALENCIENNES,,,FR,+33 3 27 14 70 70,,,Renault,Q6686
00000256_001-dacia,renault,RENAULT VALENCIENNES GROUPE GGP,,VALENCIENNES,,,FR,+33 3 27 14 70 70,,,Dacia,Q27460
spar-valenciennes,spar_fr,SPAR Valenciennes,,Valenciennes,,,FR,+33 9 73 19 50 80,https://magasins.spar.fr/fr/s/spar-valenciennes,Mo-Su 07:30-20:00,Spar,Q610492
https://restaurants.subway.com/#14927053,subway,Subway,,Valenciennes,,,FR,+33 3 27 33 80 39,https://restaurants.subway.com/france/valenciennes/5-bis-avenue-d'amsterdam,Mo-Sa 08:00-22:30; Su 10:00-22:30,Subway,Q244457
NF042344,totalenergies,RELAIS VALENCIENNES,,VALENCIENNES,,,FR,+33 3 27 20 14 73,https://store.totalenergies.fr/en_EN/NF042344,Mo-Fr 06:30-21:00; Sa 07:00-21:00; Su 08:00-21:00,Total Access,Q154037
NF064007,totalenergies,RELAIS DENTELLIERES VALENCIENNES,,VALENCIENNES,,,FR,,https://store.totalenergies.fr/en_EN/NF064007,Mo-Fr 06:00-22:00; Sa-Su 07:00-21:30,Total Access,Q154037
NF902944,totalenergies,ESSO VALENCIENNES CROIX DANZIN,,VALENCIENNES,,,FR,,https://store.totalenergies.fr/en_EN/NF902944,,Esso,Q867662
,visa,,,AULNOY LEZ VALENCIENNES,,,FR,,,,,
,visa,,,AULNOY LEZ VALENCIENNES,,,FR,,,,,
,visa,,,AULNOY LEZ VALENCIENNES,,,FR,,,,,
,visa,,,VALENCIENNES,,,FR,,,,,
,visa,,,VALENCIENNES,,,FR,,,,,
,visa,,,VALENCIENNES,,,FR,,,,,
,visa,,,VALENCIENNES,,,FR,,,,,
,visa,,,VALENCIENNES,,,FR,,,,,
,visa,,,VALENCIENNES,,,FR,,,,,
,visa,,,VALENCIENNES,,,FR,,,,,
,visa,,,VALENCIENNES,,,FR,,,,,
,visa,,,VALENCIENNES,,,FR,,,,,
,visa,,,VALENCIENNES,,,FR,,,,,
,visa,,,VALENCIENNES,,,FR,,,,,
,visa,,,VALENCIENNES,,,FR,,,,,
,visa,,,VALENCIENNES,,,FR,,,,,
,visa,,,VALENCIENNES,,,FR,,,,,
,visa,,,VALENCIENNES,,,FR,,,,,
,visa,,,VALENCIENNES,,,FR,,,,,
,visa,,,VALENCIENNES,,,FR,,,,,
,visa,,,VALENCIENNES,,,FR,,,,,
,visa,,,VALENCIENNES,,,FR,,,,,
,visa,,,VALENCIENNES,,,FR,,,,,
,visa,,,VALENCIENNES,,,FR,,,,,
,visa,,,VALENCIENNES,,,FR,,,,,
,visa,,,VALENCIENNES,,,FR,,,,,
,visa,,,VALENCIENNES,,,FR,,,,,
,visa,,,VALENCIENNES,,,FR,,,,,
,visa,,,VALENCIENNES,,,FR,,,,,
6FR167627,volvo,FIRST AUTOMOBILES,,AULNOY LEZ VALENCIENNES,,,FR,+33 3 74 95 24 00,https://volvocars-concessions.com/fr/valenciennes,,Volvo,Q215293
