Ref,Spider,Name,Address,City,State,Zipcode,Country,Phone,Website,Hours,Brand,WikiData
IN-1129,anytime_fitness,Anytime Fitness,,New Delhi,Delhi,,IN,+91 70115 33184,https://anytimefitness.co.in/gyms/in-1129/new-delhi-delhi-110045/,,Anytime Fitness,Q4778364
https://www.dominos.co.in/store-locations/new-delhi/palam-main-road-palam-colony-new-delhi,dominos_pizza_in,"Dominos Pizza PALAM MAIN ROAD, PALAM COLONY, NEW DELHI","GROUND FLOOR, PLOT NO. 3 &amp; 4, MUNICIPAL NO. RZ- 1 13EASTERN SIDE PORTION OF KHASRA NO. 69 7 MIN PALAM MAIN ROAD, PALAM COLONY, NEW DELHI, NEW DELHI, Delhi - 110045",New Delhi,Delhi,,IN,+91 22 2632 6699,https://www.dominos.co.in/store-locations/new-delhi/palam-main-road-palam-colony-new-delhi,,Domino's Pizza,Q839466
https://www.dominos.co.in/store-locations/new-delhi/palam-dabri-roadmahavir-enclavenew-delhi,dominos_pizza_in,"Dominos Pizza PALAM DABRI ROAD,MAHAVIR ENCLAVE,NEW DELHI","GROUND FLOOR, KHASRA NO. 73, PROPERTY NO. RZ-D-8 1, Palam Dabri Road, Mahavir Enclave, New Delhi, NEW DELHI, Delhi - 110045",New Delhi,Delhi,,IN,+91 22 2632 6699,https://www.dominos.co.in/store-locations/new-delhi/palam-dabri-roadmahavir-enclavenew-delhi,,Domino's Pizza,Q839466
https://www.dominos.co.in/store-locations/new-delhi/dhaula-kuan-metro-station-new-delhi,dominos_pizza_in,Dominos Pizza DHAULA KUAN METRO STATION NEW DELHI,"UNIT NO. 6, GROUND FLOOR, FOOD COURT, DHAULA KUAN METRO STATION (MRTS PACKAGE- 1), Dhaula Kuan Metro Station, New Delhi, NEW DELHI, Delhi - 110045",New Delhi,Delhi,,IN,+91 22 2632 6699,https://www.dominos.co.in/store-locations/new-delhi/dhaula-kuan-metro-station-new-delhi,,Domino's Pizza,Q839466
17f40687441799a8610880f23d9514f4,western_union,AARAV TOUR AND TRAVELS,,South West Delhi,DELHI,,IN,+91 83686 42761,https://location.westernunion.com/in/delhi/south-west-delhi/17f40687441799a8610880f23d9514f4,Mo-Su 09:00-21:00,Western Union,Q861042
a39370da7c37853622894478e5da8ef3,western_union,MUTHOOT FINANCE LTD,,Delhi,DELHI,,IN,+91 11 2505 1817,https://location.westernunion.com/in/delhi/delhi/a39370da7c37853622894478e5da8ef3,Mo-Sa 09:00-17:30,Western Union,Q861042
bd4c42e6946ac899062b49932c4a6c80,western_union,MUTHOOT FINANCE LTD,,Delhi - Dadadev Mandir,DELHI,,IN,+91 11 2536 0762,https://location.westernunion.com/in/delhi/delhi---dadadev-mandir/bd4c42e6946ac899062b49932c4a6c80,Mo-Sa 09:00-17:30,Western Union,Q861042
76d140fd8b45e47dce48c09b88173b9e,western_union,MUTHOOT FINANCE LTD,,Delhi-palam Colony,DELHI,,IN,+91 11 2536 4217,https://location.westernunion.com/in/delhi/delhi-palam-colony/76d140fd8b45e47dce48c09b88173b9e,Mo-Sa 09:00-17:30,Western Union,Q861042
318deeddf9ed07bd7102eda598cfba6e,western_union,UNIVERSAL COMPUTERS,,New Delhi,DELHI,,IN,+91 99113 32403,https://location.westernunion.com/in/delhi/new-delhi/318deeddf9ed07bd7102eda598cfba6e,Mo-Su 08:00-22:00,Western Union,Q861042
0525c790bd1658bce26326b5adb3061f,western_union,MUTHOOT FINANCE LTD,,Delhi- Vijay Nagar Enclave,DELHI,,IN,+91 11 4330 5194,https://location.westernunion.com/in/delhi/delhi--vijay-nagar-enclave/0525c790bd1658bce26326b5adb3061f,Mo-Sa 09:00-17:30,Western Union,Q861042
3bb1bfd04808ace48aafc121f4a0e00d,western_union,SHALVI INFOTECH,,Delhi,DELHI,,IN,+91 91364 09296,https://location.westernunion.com/in/delhi/delhi/3bb1bfd04808ace48aafc121f4a0e00d,Mo-Su 09:00-21:00,Western Union,Q861042
31201484c13a5bd6750d5c1db97f8376,western_union,SHEEKHA TOUR AND TRAVELS,,New Delhi,DELHI,,IN,+91 75035 53716,https://location.westernunion.com/in/delhi/new-delhi/31201484c13a5bd6750d5c1db97f8376,Mo-Su 08:00-20:00,Western Union,Q861042
1faac0c7c8242a6764696c6f434bbb43,western_union,MUTHOOT FINCORP LIMITED,,Delhi,DELHI,,IN,+91 11 2536 2189,https://location.westernunion.com/in/delhi/delhi/1faac0c7c8242a6764696c6f434bbb43,Mo-Sa 08:00-20:00; Su 09:00-18:00,Western Union,Q861042
d297e22162d5d5c63b622ef7fce0df9f,western_union,KGN RAILWAY,,New Delhi,DELHI,,IN,+91 96675 63049,https://location.westernunion.com/in/delhi/new-delhi/d297e22162d5d5c63b622ef7fce0df9f,Mo-Su 08:00-21:00,Western Union,Q861042
0adbfcad22bb1742b7c437753adcc7a5,western_union,KHAN GLOBAL TRANSFER SERVICES,,New Delhi,DELHI,,IN,+91 88022 52753,https://location.westernunion.com/in/delhi/new-delhi/0adbfcad22bb1742b7c437753adcc7a5,Mo-Su 09:00-21:00,Western Union,Q861042
36c3e4848d536c838f2e86690ae7edb6,western_union,AGGARWAL STATIONERY AND CYBER CAFE,,New Delhi,DELHI,,IN,+91 99998 57937,https://location.westernunion.com/in/delhi/new-delhi/36c3e4848d536c838f2e86690ae7edb6,Mo-Su 09:00-21:00,Western Union,Q861042
a17c314e6a646f478036a3a0a4e9e914,western_union,MUTHOOT FINCORP LIMITED,,Delhi,DELHI,,IN,+91 11 2505 2444,https://location.westernunion.com/in/delhi/delhi/a17c314e6a646f478036a3a0a4e9e914,Mo-Sa 08:00-20:00; Su 09:00-18:00,Western Union,Q861042
e425993261a576ccc6d4493307ca8bb1,western_union,MUTHOOT FINANCE LTD,,Delhi,DELHI,,IN,+91 11 2808 2769,https://location.westernunion.com/in/delhi/delhi/e425993261a576ccc6d4493307ca8bb1,Mo-Sa 09:00-17:30,Western Union,Q861042
1d7c7dafb9700d357ecf4ffc630c5d00,western_union,NET CYBER ZONE,,New Delhi,DELHI,,IN,+91 70115 80721,https://location.westernunion.com/in/delhi/new-delhi/1d7c7dafb9700d357ecf4ffc630c5d00,Mo-Su 08:00-21:00,Western Union,Q861042
bdfc4705ae56b5982a3d337282ef4094,western_union,MUTHOOT FINANCE LTD,,Delhi-dabri Chowk,DELHI,,IN,+91 11 4346 6271,https://location.westernunion.com/in/delhi/delhi-dabri-chowk/bdfc4705ae56b5982a3d337282ef4094,Mo-Sa 09:00-17:30,Western Union,Q861042
dec03c96662201ba9a510b118393a33d,western_union,DEV COMMUNICATION,,New Delhi,DELHI,,IN,+91 99106 96959,https://location.westernunion.com/in/delhi/new-delhi/dec03c96662201ba9a510b118393a33d,Mo-Su 09:00-21:00,Western Union,Q861042
249da88f75b8eead21a943461a73cb06,western_union,MANAPPURAM FINANCE LIMITED,,Delhi,DELHI,,IN,(+91) 112-7994433755,https://location.westernunion.com/in/delhi/delhi/249da88f75b8eead21a943461a73cb06,Mo-Fr 08:00-20:00; Sa 08:00-19:00; Su 09:00-18:00,Western Union,Q861042
