Ref,Spider,Name,Address,City,State,Zipcode,Country,Phone,Website,Hours,Brand,WikiData
71496892,moneygram,J P ENTERPRISES - SIWAN - SIWAN,,SIWAN,,,IN,+91 96319 10302,,Mo-Su 08:00-20:00,MoneyGram,Q1944412
71514143,moneygram,KHUSHI MOBILE CENTRE - SIWAN - SIWAN,,SIWAN,,,IN,+91 73790 45087,,Mo-Su 09:00-21:00,MoneyGram,Q1944412
72139352,moneygram,RAVI ENTERPRISES - SIWAN,,SIWAN,,,IN,+91 79799 21083,,Mo-Su 06:00-20:00,MoneyGram,Q1944412
72258246,moneygram,PINTU MOBILE & TELECOME - SIWAN,,SIWAN,,,IN,+91 94306 27782,,Mo-Su 06:00-20:00,MoneyGram,Q1944412
72308442,moneygram,AMZAD TRADERS - SIWAN,,SIWAN,,,IN,+91 82921 26094,,Mo-Su 07:00-23:00,MoneyGram,Q1944412
72489976,moneygram,AAKRITI TOUR AND TRAVELS - SIWAN - SIWAN,,SIWAN,,,IN,+91 99551 77077,,Mo-Su 09:00-21:00,MoneyGram,Q1944412
72486034,moneygram,GUNGUN ENTERPRISES - SIWAN - SIWAN,,SIWAN,,,IN,+91 98520 76243,,Mo-Su 09:00-21:00,MoneyGram,Q1944412
72489471,moneygram,MULTI TASKING CENTRE - SIWAN - SIWAN,,SIWAN,,,IN,+91 96610 17468,,Mo-Su 09:00-21:00,MoneyGram,Q1944412
72488977,moneygram,PIYUSH TRAVELS - SIWAN - SIWAN,,SIWAN,,,IN,+91 78700 08882,,Mo-Su 09:00-21:00,MoneyGram,Q1944412
72607842,moneygram,ARYA HONDA,,SIWAN,,,IN,+91 85075 11632,,Mo-Su 08:00-21:00,MoneyGram,Q1944412
72593273,moneygram,RISHI TOUR AND TRAVELS,,SIWAN,,,IN,+91 95259 33682,,Mo-Su 08:00-21:00,MoneyGram,Q1944412
72642438,moneygram,SUVIDHA I.T KENDRA & COMMON SERVICE CENT,,SIWAN,,,IN,+91 92609 17528,,Mo-Su 08:00-21:00,MoneyGram,Q1944412
72586963,moneygram,NUTAN DRESSES,,SIWAN,,,IN,+91 99551 77077,,Mo-Su 08:00-21:00,MoneyGram,Q1944412
72676200,moneygram,DELHI TRAVELS - SIWAN,,SIWAN,,,IN,+91 62074 92017,,Mo-Su 08:00-21:00,MoneyGram,Q1944412
72680568,moneygram,NANDANI ENTERPRISES TOUR & TRAVELS - SIW,,SIWAN,,,IN,+91 87892 90849,,Mo-Su 06:00-20:00,MoneyGram,Q1944412
72774063,moneygram,VINAYAK TRAVELS - SIWAN,,SIWAN,,,IN,+91 73238 32210,,Mo-Su 07:00-21:00,MoneyGram,Q1944412
72586617,moneygram,BALAJEE AUTO AGENCY,,SIWAN,,,IN,+91 97717 68209,,Mo-Su 08:00-21:00,MoneyGram,Q1944412
72601327,moneygram,M S GANGOTRI TRAVELS,,SIWAN,,,IN,+91 99398 71888,,Mo-Su 08:00-21:00,MoneyGram,Q1944412
72799161,moneygram,RIMJHIM CYBER ZONE - SIWAN,,SIWAN,,,IN,+91 88732 25949,,Mo-Su 08:00-20:00,MoneyGram,Q1944412
72832248,moneygram,VICKY AGENCIES - SIWAN,,SIWAN,,,IN,+91 91101 44507,,Mo-Su 07:00-21:00,MoneyGram,Q1944412
72833014,moneygram,KUSHWAHA MOBILE TELECOME - SIWAN - SIWAN,,SIWAN,,,IN,+91 95729 59357,,Mo-Su 09:00-21:00,MoneyGram,Q1944412
73399201,moneygram,PRAGATI TRAVELS,,MAIRWA,,,IN,+91 93348 66517,,Mo-Su 08:00-21:00,MoneyGram,Q1944412
73823887,moneygram,SRI BALA JI TRADING,,SIWAN,,,IN,+91 93040 97310,,Mo-Su 08:00-21:00,MoneyGram,Q1944412
67917880,moneygram,GANGOTRI TRAVELS - MAIRWA,,MAIRWA,,,IN,+91 93860 20351,,Mo-Su 06:00-20:00,MoneyGram,Q1944412
69021444,moneygram,AYUSH ENTERPRISES - SIWAN,,SIWAN,,,IN,+91 93041 88089,,Mo-Su 08:00-20:00,MoneyGram,Q1944412
71741424,moneygram,MAIRWA TRAVELS - SIWAN,,SIWAN,,,IN,+91 95238 66999,,Mo-Su 06:00-21:00,MoneyGram,Q1944412
