Ref,Spider,Name,Address,City,State,Zipcode,Country,Phone,Website,Hours,Brand,WikiData
834,ab_gr,AB Food Market,"3 ΧΛΜ ΕΠΑΡΧΙΑΚΗΣ ΟΔΟΥ ΑΡΓΟΣΤΟΛΙΟΥ - ΠΟΡΟΥ, 28100 ΑΡΓΟΣΤΟΛΙ, Greece",ΑΡΓΟΣΤΟΛΙ,,,GR,+30 2671 027940,https://www.ab.gr/storedetails/fm-kefalonia-argostoli,,AB,Q4721807
887,ab_gr,AB Food Market,"ΑΝΤΩΝΗ ΤΡΙΤΣΗ 99, 28100 ΑΡΓΟΣΤΟΛΙ, Greece",ΑΡΓΟΣΤΟΛΙ,,,GR,+30 2671 027001,https://www.ab.gr/storedetails/fm-kefalonia-lim-argostolioy,,AB,Q4721807
1041580,alamo,Kefalonia Airport,,Kefalonia,,,GR,+30 2671 440060,,,ALAMO,Q1429287
G810,bp,KOUNADI ANASTASIA,,ARGOSTOLI,,,GR,+30 2671 069319,,Mo-Su 07:00-21:00,BP,Q152057
G874,bp,SPIRIDON DIMOS,,ARGOSTOLI,,,GR,+30 694 432 5015,,Mo-Su 06:00-22:00,BP,Q152057
EFLT61,enterprise,Kefalonia Airport,,Kefalonia,,,GR,+30 2671 042223,,,Enterprise Rent-A-Car,Q17085454
849,lidl_gr,Lidl,,Argostoli,,,GR,,,Mo-Fr 08:00-21:00; Sa 08:00-20:00,Lidl,Q151954
72809734,moneygram,KIVOS,,ARGOSTOLI,,,GR,+30 2671 026872,,Mo-Su 08:30-21:30,MoneyGram,Q1944412
73680237,moneygram,CAFE COZI - #1 - ARGOSTOLI - CAFE COZI,,ARGOSTOLI,,,GR,+30 2671 069558,,Mo-Su 09:00-22:00,MoneyGram,Q1944412
43755228,moneygram,ACS COURIER KEFALLONIAS - ARGOSTOLI,,ARGOSTOLI,,,GR,+30 2671 028028,,Mo-Fr 08:00-20:00; Sa 08:00-15:00; Su 00:00-24:00,MoneyGram,Q1944412
74940484,moneygram,PRINCESS PALACE - ARGOSTOLI,,ARGOSTOLI,,,GR,+30 2671 028711,,Mo-Sa 09:00-21:00; Su 00:00-24:00,MoneyGram,Q1944412
71098740,moneygram,SPPEDEX COURIER - ARGOSTOLI,,ARGOSTOLI,,,GR,+30 2671 024880,,Mo-Su 08:00-22:00,MoneyGram,Q1944412
1041584,national,Kefalonia Airport,,Kefalonia,,,GR,+30 2671 440060,,,NATIONAL,Q1424142
2251,ovs,OVS Kids Karditsa Ipsilantou,,Karditsa,,,GR,+30 2441 042400,https://stores.ovsfashion.com/en/greece/ovs-karditsa-ipsilantou-kids,,OVS,Q2042514
N840107,united_colors_of_benetton,Benetton Argostoli,,ARGOSTOLI,,,GR,+30 2671 024939,,,United Colors of Benetton,Q817139
N840825,united_colors_of_benetton,Benetton Argostoli,,ARGOSTOLI,,,GR,+30 2671 028790,,,United Colors of Benetton,Q817139
,visa,,,CHANIA,,,GR,,,,,
,visa,,,LASSI,,,GR,,,,,
,visa,,,LASSI,,,GR,,,,,
,visa,,,ARGOSTOLI,,,GR,,,,,
,visa,,,KEFALONIA,,,GR,,,,,
,visa,,,ARGOSTOLI,,,GR,,,,,
,visa,,,LOURDATA,,,GR,,,,,
,visa,,,LOURDATA,,,GR,,,,,
,visa,,,ARGOSTOLI,,,GR,,,,,
,visa,,,KEFALLONIA,,,GR,,,,,
,visa,,,LOURDATA,,,GR,,,,,
,visa,,,SVORONATA,,,GR,,,,,
,visa,,,ARGOSTOLI,,,GR,,,,,
,visa,,,ARGOSTOLI,,,GR,,,,,
,visa,,,LASSI,,,GR,,,,,
