Ref,Spider,Name,Address,City,State,Zipcode,Country,Phone,Website,Hours,Brand,WikiData
https://vertretung.allianz.de/rene.kunstorff/,allianz_de,Allianz Versicherung Rene Kunstorff GENERALVERTRETUNG,,Hamburg,,,DE,+49 40 23936267,https://vertretung.allianz.de/rene.kunstorff/,Mo-Fr 09:00-16:00,Allianz SE,Q487292
13081500,bp,Vito Clemens,,Hamburg,,,DE,+49 40 7428605,http://tankstelle.aral.de/tankstelle/13081500,24/7,BP,Q152057
100150411,exxonmobil,Esso Station Hamburg Ostfrieslandstrasse,,HAMBURG,,,DE,+49 40 7426830,https://www.esso.de/de-de/find-station/esso-hamburg-essostationhamburgostfrieslandstrasse-100150411,24/7,Esso,Q867662
2760912582,gls_de,REWE Roman Krieger oHG,,Hamburg,,,DE,+49 40 74211741,,Mo-Sa 07:00-22:00,General Logistics Systems,Q46495823
5148,lidl_de,Neuenfelde,,Hamburg,,,DE,,,Mo-Sa 07:00-21:00,Lidl,Q151954
33658,sparkasse_de,Hamburger Sparkasse Geldautomat Neuenfelde,,Hamburg,,,DE,+49 40 35780,https://www.sparkasse.de/standorte/geldautomaten/hamburger-sparkasse-geldautomat-neuenfelde-33658,,Sparkasse,Q13601825
37818,sparkasse_de,Sparkasse Stade-Altes Land Geldautomat Seehof,,Hamburg,,,DE,+49 4141 4900,https://www.sparkasse.de/standorte/geldautomaten/sparkasse-stade-altes-land-geldautomat-seehof-37818,24/7,Sparkasse,Q13601825
35013,sparkasse_de,Sparkasse Stade-Altes Land SB-Filiale Seehof,,Hamburg,,,DE,+49 4141 4900,https://www.sparkasse.de/standorte/filialen/sparkasse-stade-altes-land-sb-filiale-seehof-35013,24/7,Sparkasse,Q13601825
142042,sparkasse_de,Hamburger Sparkasse Geldautomat Finkenwerder,,Hamburg,,,DE,+49 40 35780,https://www.sparkasse.de/standorte/geldautomaten/hamburger-sparkasse-geldautomat-finkenwerder-142042,24/7,Sparkasse,Q13601825
37632,sparkasse_de,Sparkasse Stade-Altes Land Geldautomat Finkenwerder,,Hamburg,,,DE,+49 4141 4900,https://www.sparkasse.de/standorte/geldautomaten/sparkasse-stade-altes-land-geldautomat-finkenwerder-37632,24/7,Sparkasse,Q13601825
33615,sparkasse_de,Hamburger Sparkasse Geldautomat Finkenwerder,,Hamburg,,,DE,+49 40 35780,https://www.sparkasse.de/standorte/geldautomaten/hamburger-sparkasse-geldautomat-finkenwerder-33615,24/7,Sparkasse,Q13601825
3241,sparkasse_de,Sparkasse Stade-Altes Land Beratungs-Center Finkenwerder,,Hamburg,,,DE,+49 4141 4900,https://www.sparkasse.de/standorte/filialen/sparkasse-stade-altes-land-beratungs-center-finkenwerder-3241,"Mo 09:30-12:30; Tu 09:30-12:30,14:30-16:30; We 09:30-12:30; Th 09:30-12:30,14:00-18:00; Fr 09:30-12:30",Sparkasse,Q13601825
141029,sparkasse_de,Hamburger Sparkasse Filiale Finkenwerder,,Hamburg,,,DE,+49 40 74385457,https://www.sparkasse.de/standorte/filialen/hamburger-sparkasse-filiale-finkenwerder-141029,Tu-We 09:30-15:30,Sparkasse,Q13601825
33422,sparkasse_de,Hamburger Sparkasse Filiale Finkenwerder,,Hamburg,,,DE,+49 40 357896431,https://www.sparkasse.de/standorte/filialen/hamburger-sparkasse-filiale-finkenwerder-33422,Mo 09:00-13:00; Tu 09:00-18:00; We 09:00-13:00; Th 09:00-18:00; Fr 09:00-13:00,Sparkasse,Q13601825
EX_BP_2520,totalenergies,"ARAL TANKSTELLE HAMBURG, OSTFR",,Hamburg,,,DE,,https://store.totalenergies.fr/en_EN/EX_BP_2520,,Aral,Q565734
ND038778,totalenergies,HAMBURG ALUMINIUMSTR. 5,,HAMBURG,,,DE,+49 40 30239835,https://store.totalenergies.fr/en_EN/ND038778,24/7,TotalEnergies,Q154037
https://www.vlh.de/bst/2583/Oeffnungszeiten.html,vhl_de,VLH-Beraterin Martina Stölting in Hamburg,,Hamburg,,,DE,+49 40 31794131,https://www.vlh.de/bst/2583/,,Vereinigte Lohnsteuerhilfe e.V.,Q15852617
,visa,,,HAMBURG,,,DE,,,,,
,visa,,,HAMBURG,,,DE,,,,,
,visa,,,HAMBURG,,,DE,,,,,
,visa,,,HAMBURG,,,DE,,,,,
,visa,,,HAMBURG,,,DE,,,,,
https://www.vr.de/standorte/N/volksbank-lueneburger-heide-eg-beratungsfiliale-neuenfelde-3314.html,vr_bank,Volksbank Lüneburger Heide eG - Beratungsfiliale Neuenfelde,,Neuenfelde,,,DE,+49 4171 8840,https://www.vblh.de,,,
