Ref,Spider,Name,Address,City,State,Zipcode,Country,Phone,Website,Hours,Brand,WikiData
186404,bluerhino,Sutherlands #5906,,Port Isabel,TX,,US,+1 956-943-4800,,,Blue Rhino,Q65681213
196652,bluerhino,H-E-B #383,,PORT ISABEL,TX,,US,+1 956-943-1171,,,Blue Rhino,Q65681213
155618,bluerhino,Walgreens #11672,,Port Isabel,TX,,US,+1 956-943-3754,,,Blue Rhino,Q65681213
201119,bluerhino,Murphy's #7590,,Port Isabel,TX,,US,+1 956-943-7701,,,Blue Rhino,Q65681213
228604,bluerhino,Walmart #0413 - Vending,,Port Isabel,TX,,US,+1 956-943-1387,,,Blue Rhino,Q65681213
88086,citi,ATM Walgreens,,Port Isabel,TX,,US,,,,Citibank,Q857063
57075,citi,ATM FNB SOUTH PADRE,,Port Isabel,TX,,US,,,,Citibank,Q857063
70225112,cricket_wireless,Cricket Wireless Authorized Retailer,,Port Isabel,TX,,US,+1 956-943-3600,https://www.cricketwireless.com/stores/ll/US/TX/Port-Isabel/1702-State-Highway-100,Mo-Sa 10:00-19:00; Su 12:00-18:00,Cricket Wireless,Q5184987
24694,dollar_general,Dollar General,,Laguna Vista,TX,,US,+1 762-233-5935,https://www.dollargeneral.com/store-directory/tx/laguna-vista/24694,Mo-Su 08:00-22:00,Dollar General,Q145168
8049,dominos_pizza_us,Domino's Pizza,,Port Isabel,TX,,US,+1 956-943-8880,https://pizza.dominos.com/texas/port-isabel/1702-highway-100-suite-d,Mo-Th 10:00-24:00; Fr-Sa 10:00-01:00; Su 10:00-24:00,Domino's,Q839466
https://local.fedex.com/#25198956,fedex,,,Port Isabel,TX,,US,+1 800-463-3339,https://local.fedex.com/en-us/tx/port-isabel/h2v9w,,FedEx,Q459477
42924,h_r_block,H&R Block,,Port Isabel,TX,,US,+1 956-943-9539,https://www.hrblock.com/local-tax-offices/texas/port-isabel/les-palmas/42924/,,H&R Block,Q5627799
https://locations.jackinthebox.com/us/tx/port-isabel/1681-state-park-rd-100,jackinthebox,Jack in the Box,,Port Isabel,TX,,US,+1 956-772-7293,https://locations.jackinthebox.com/us/tx/port-isabel/1681-state-park-rd-100,Mo-Th 06:00-01:00; Fr-Sa 04:00-04:00; Su 06:00-01:00,Jack in the Box,Q1538507
https://office.jacksonhewitt.com/#27577573,jackson_hewitt,Jackson Hewitt,,Port Isabel,TX,,US,+1 956-365-2409,https://office.jacksonhewitt.com/tax-preparation-services-locations/en/tx/port-isabel/1401-state-hwy-100/50413,Mo-Sa 11:00-19:00; Su 12:00-16:00,Jackson Hewitt,Q6117132
71456531,moneygram,WAL-MART - #413,,PORT ISABEL,TX,,US,+1 956-943-1387,,Mo-Su 07:00-21:00,MoneyGram,Q1944412
44289735,moneygram,WAL-MART - #413,,PORT ISABEL,TX,,US,+1 956-943-1387,,Mo-Su 07:00-21:00,MoneyGram,Q1944412
7590,murphy_usa_us,,,Port Isabel,TX,,US,+1 956-943-7701,,Mo-Su 05:30-00:00,Murphy USA,Q19604459
https://locations.oreillyauto.com/tx/portisabel/check-engine-light-testing-597.html,oreilly,Your Port Isabel O'Reilly Auto Parts Store,,Port Isabel,TX,,US,+1 956-943-6722,https://locations.oreillyauto.com/tx/portisabel/check-engine-light-testing-597.html,Mo-Sa 07:30-21:00; Su 08:00-20:00,O'Reilly Auto Parts,Q7071951
https://locations.oreillyauto.com/tx/portisabel/wiper-installation-597.html,oreilly,Your Port Isabel O'Reilly Auto Parts Store,,Port Isabel,TX,,US,+1 956-943-6722,https://locations.oreillyauto.com/tx/portisabel/wiper-installation-597.html,Mo-Sa 07:30-21:00; Su 08:00-20:00,O'Reilly Auto Parts,Q7071951
https://locations.oreillyauto.com/tx/portisabel/battery-testing-597.html,oreilly,Your Port Isabel O'Reilly Auto Parts Store,,Port Isabel,TX,,US,+1 956-943-6722,https://locations.oreillyauto.com/tx/portisabel/battery-testing-597.html,Mo-Sa 07:30-21:00; Su 08:00-20:00,O'Reilly Auto Parts,Q7071951
https://locations.oreillyauto.com/tx/portisabel/autopartes-597.html,oreilly,Tu tienda O'Reilly Auto Parts en Port Isabel,,Port Isabel,TX,,US,+1 956-943-6722,https://locations.oreillyauto.com/tx/portisabel/autopartes-597.html,Mo-Sa 07:30-21:00; Su 08:00-20:00,O'Reilly Auto Parts,Q7071951
tx_port-isabel_1202-hwy-100,pizza_hut_us,1202 Hwy 100,,Port Isabel,TX,,US,+1 956-943-8888,https://locations.pizzahut.com/tx/port-isabel/1202-hwy-100,,Pizza Hut,Q191615
sutherlands-5906-38915,ppgpaints,SUTHERLANDS 5906,,"Port Isabel, ",TX,,US,,https://www.ppgpaints.com/store-locator/us/texas/port-isabel-paint-stores/sutherlands-5906-38915,,PPG Paints,Q83891559
40747,seven_eleven_ca_us,Stripes,,Port Isabel,TX,,US,+1 956-943-3438,,,7-Eleven,Q259340
40750,seven_eleven_ca_us,Stripes,,Port Isabel,TX,,US,+1 956-943-5011,,,7-Eleven,Q259340
40745,seven_eleven_ca_us,Stripes,,Laguna Vista,TX,,US,+1 956-943-7933,,,7-Eleven,Q259340
40753,seven_eleven_ca_us,Stripes,,Port Isabel,TX,,US,+1 956-943-3783,,,7-Eleven,Q259340
https://restaurants.subway.com/#14899352,subway,Subway,,Port Isabel Cameron,TX,,US,+1 956-943-7571,https://restaurants.subway.com/united-states/tx/port-isabel/1401-hwy-100,Mo-Su 09:00-22:00,Subway,Q244457
0963941000,sunoco_us,Sunoco,,LAGUNA HEIGHTS,TX,,US,+1 956-943-7933,,,Sunoco,Q1423218
0321308900,sunoco_us,Sunoco,,PORT ISABEL,TX,,US,+1 956-943-3438,,,Sunoco,Q1423218
162G,tmobile_us,Las Palmas,,Port Isabel,TX,,US,+1 956-426-6107,https://www.t-mobile.com/store-locator/tx/port-isabel/las-palmas,,T-Mobile,Q3511885
1378084,usps,PORT ISABEL,,PORT ISABEL,TX,,US,+1 956-943-2212,,Mo-Fr 08:30-16:30; Sa 10:00-12:00,United States Postal Service,Q668687
7857800015,usps_collection_boxes,USPS COLLECTION BOX - BLUE BOX,33840 S GARCIA ST,PORT ISABEL,TX,,US,,,,United States Postal Service,Q668687
7857800012,usps_collection_boxes,USPS COLLECTION BOX - PO LOBBY,103 N MANAUTOU ST,PORT ISABEL,TX,,US,,,,United States Postal Service,Q668687
7857800021,usps_collection_boxes,USPS COLLECTION BOX - PO LOBBY,103 N MANAUTOU ST,PORT ISABEL,TX,,US,,,,United States Postal Service,Q668687
7857800017,usps_collection_boxes,USPS COLLECTION BOX - BLUE BOX,1401 STATE HIGHWAY 100,PORT ISABEL,TX,,US,,,,United States Postal Service,Q668687
7857800001,usps_collection_boxes,USPS COLLECTION BOX - BLUE BOX,122 FERNANDEZ ST,PORT ISABEL,TX,,US,,,,United States Postal Service,Q668687
,visa,,,PORT ISABEL,TX,,US,,,,,
,visa,,,PORT ISABEL,TX,,US,,,,,
,visa,,,PORT ISABEL,TX,,US,,,,,
,visa,,,PORT ISABEL,TX,,US,,,,,
,visa,,,PORT ISABEL,TX,,US,,,,,
,visa,,,PORT ISABEL,TX,,US,,,,,
,visa,,,PORT ISABEL,TX,,US,,,,,
,visa,,,PORT ISABEL,TX,,US,,,,,
,visa,,,LAGUNA HEIGHTS,TX,,US,,,,,
,visa,,,PORT ISABEL,TX,,US,,,,,
,visa,,,PORT ISABEL,TX,,US,,,,,
,visa,,,PORT ISABEL,TX,,US,,,,,
,visa,,,PORT ISABEL,TX,,US,,,,,
,visa,,,PT ISABEL,TX,,US,,,,,
,visa,,,PORT ISABEL,TX,,US,,,,,
,visa,,,PORT ISABEL,TX,,US,,,,,
,visa,,,PORT ISABEL,TX,,US,,,,,
,visa,,,PORT ISABEL,TX,,US,,,,,
,visa,,,PORT ISABEL,TX,,US,,,,,
,visa,,,PORT ISABEL,TX,,US,,,,,
,visa,,,PORT ISABEL,TX,,US,,,,,
,visa,,,LAGUNA VISTA,TX,,US,,,,,
,visa,,,LAGUNA VISTA,TX,,US,,,,,
,visa,,,MISSION,TX,,US,,,,,
,visa,,,RIO GRANDE,TX,,US,,,,,
https://www.walgreens.com/locator/walgreens-1673+w+state+highway+100-port+isabel-tx-78578/id=11672,walgreens,Walgreens,,Port Isabel,TX,,US,+1 956-943-3754,https://www.walgreens.com/locator/walgreens-1673+w+state+highway+100-port+isabel-tx-78578/id=11672,Mo-Su 09:00-21:00,Walgreens,Q1591889
1800__STATE__HWY__100_PORT__ISABEL_TX_78578,wellsfargo,Wells Fargo,1800 STATE HWY 100,PORT ISABEL,TX,,US,+1 956-943-0261,https://www.wellsfargo.com/locator/bank/1800__STATE__HWY__100_PORT__ISABEL_TX_78578/,Mo-Fr 09:00-17:00,Wells Fargo,Q744149
2c04d10d4405b122f5b83ae8b2ce7a3a,western_union,WALMART #000413,,Port Isabel,TX,,US,+1 956-943-1387,https://location.westernunion.com/us/tx/port-isabel/2c04d10d4405b122f5b83ae8b2ce7a3a,Mo-Su 07:00-21:00,Western Union,Q861042
2150e37a03afaba7589f52755502ba89,western_union,REYES CHECK CASHING SERVICE,,Laguna Heights,TX,,US,+1 956-943-9551,https://location.westernunion.com/us/tx/laguna-heights/2150e37a03afaba7589f52755502ba89,Mo-Sa 08:30-17:00,Western Union,Q861042
https://locations.whataburger.com/tx/port-isabel/1301-state-highway-100.html,whataburger,Hwy 100 - Port Isabel,1301 STATE HIGHWAY 100,PORT ISABEL,TX,,US,,https://locations.whataburger.com/tx/port-isabel/1301-state-highway-100.html,,Whataburger,Q376627
8990,wingstop,Wingstop Port Isabel,1401 Highway 100,Port Isabel,TX,,US,+1 956-943-9464,,,Wingstop,Q8025339
