Ref,Spider,Name,Address,City,State,Zipcode,Country,Phone,Website,Hours,Brand,WikiData
5484,lukoil,SDC Calarasi 2,"str. Victor Babes, Calarasi, Calarasi, Romania",Calarasi,Calarasi,,RO,+40 747 286 834,,24/7,Lukoil,Q329347
5408,lukoil,SDC Calarasi 1,"str. Prelungirea Bucuresti, Calarasi, Calarasi, Romania",Calarasi,Calarasi,,RO,+40 747 286 832,,24/7,Lukoil,Q329347
5399,lukoil,SDC Calarasi 3,"str. Zefirului, nr. 136, Calarasi, Calarasi, Romania",Calarasi,Calarasi,,RO,+40 747 286 831,,24/7,Lukoil,Q329347
5315,lukoil,SDC Cuza Voda,"DN3 int. DN31, Cuza Voda, Calarasi, Romania",Comuna Cuza Voda,Calarasi,,RO,+40 747 286 830,,24/7,Lukoil,Q329347
5277,lukoil,SDC Oltenita 1,"sos. Calarasi, nr. 26, Oltenita, Calarasi, Romania",Oltenita,Calarasi,,RO,+40 747 286 833,,24/7,Lukoil,Q329347
30085,pepco,Pepco,,Municipiul Oltenita,Calarasi,,RO,,,,Pepco,Q11815580
27503,pepco,Pepco,,Municipiul Calarasi,Calarasi,,RO,,,,Pepco,Q11815580
27394,pepco,Pepco,,Municipiul Oltenita,Calarasi,,RO,,,,Pepco,Q11815580
25605,pepco,Pepco,,Municipiul Calarasi,Calarasi,,RO,,,,Pepco,Q11815580
25574,pepco,Pepco,,Comuna Galbinasi,Calarasi,,RO,,,,Pepco,Q11815580
25534,pepco,Pepco,,Comuna Budesti,Calarasi,,RO,,,,Pepco,Q11815580
25524,pepco,Pepco,,Municipiul Calarasi,Calarasi,,RO,,,,Pepco,Q11815580
https://www.rompetrol.ro/routeplanner/stations?language_id=1:3904,rompetrol,Expres Radovanu,,Radovanu,Calarasi,,RO,,,,Rompetrol,Q1788862
https://www.rompetrol.ro/routeplanner/stations?language_id=1:3905,rompetrol,Expres Sarulesti,,Sarulesti,Calarasi,,RO,,,,Rompetrol,Q1788862
https://www.rompetrol.ro/routeplanner/stations?language_id=1:3909,rompetrol,Expres Jegalia,,Jegalia,Calarasi,,RO,,,,Rompetrol,Q1788862
https://www.rompetrol.ro/routeplanner/stations?language_id=1:4155,rompetrol,Rompetrol Litro Valcele - A2 Dreapta,,Litro Valcele,Calarasi,,RO,,,,Rompetrol,Q1788862
https://www.rompetrol.ro/routeplanner/stations?language_id=1:4156,rompetrol,Rompetrol Litro Valcele - A2 Stanga,,Litro Valcele,Calarasi,,RO,,,,Rompetrol,Q1788862
https://www.rompetrol.ro/routeplanner/stations?language_id=1:4185,rompetrol,Rompetrol Calarasi - Sloboziei,,Calarasi,Calarasi,,RO,,,,Rompetrol,Q1788862
https://www.rompetrol.ro/routeplanner/stations?language_id=1:4507,rompetrol,DODOEX RAM PREST,,Ogoru,Calarasi,,RO,,,,Rompetrol,Q1788862
https://www.rompetrol.ro/routeplanner/stations?language_id=1:4331,rompetrol,Rompetrol Partener,,Budesti,Calarasi,,RO,,,,Rompetrol,Q1788862
https://www.rompetrol.ro/routeplanner/stations?language_id=1:4393,rompetrol,Rompetrol,,Lehliu Gara,Calarasi,,RO,,,,Rompetrol,Q1788862
https://www.rompetrol.ro/routeplanner/stations?language_id=1:4424,rompetrol,Rompetrol Expres,,Curcani,Calarasi,,RO,,,,Rompetrol,Q1788862
,visa,,,CALARASI,CALARASI,,RO,,,,,
,visa,,,OLTENITA,CALARASI,,RO,,,,,
,visa,,,OLTENITA,CALARASI,,RO,,,,,
,visa,,,OLTENITA,CALARASI,,RO,,,,,
,visa,,,OLTENITA,CALARASI,,RO,,,,,
,visa,,,OLTENITA,CALARASI,,RO,,,,,
,visa,,,OLTENITA,CALARASI,,RO,,,,,
,visa,,,FUNDULEA,CALARASI,,RO,,,,,
,visa,,,FUNDULEA,CALARASI,,RO,,,,,
,visa,,,LEHLIU GARA,CALARASI,,RO,,,,,
,visa,,,LEHLIU,CALARASI,,RO,,,,,
,visa,,,CALARASI,CALARASI,,RO,,,,,
,visa,,,CALARASI,CALARASI,,RO,,,,,
,visa,,,CALARASI,CALARASI,,RO,,,,,
,visa,,,CALARASI,CALARASI,,RO,,,,,
,visa,,,CALARASI,CALARASI,,RO,,,,,
,visa,,,CALARASI,CALARASI,,RO,,,,,
,visa,,,CALARASI,CALARASI,,RO,,,,,
,visa,,,CALARASI,CALARASI,,RO,,,,,
,visa,,,CALARASI,CALARASI,,RO,,,,,
,visa,,,CALARASI,CALARASI,,RO,,,,,
,visa,,,OLTENITA,CALARASI,,RO,,,,,
,visa,,,CALARASI,CALARASI,,RO,,,,,
,visa,,,CALARASI,CALARASI,,RO,,,,,
,visa,,,CALARASI,CALARASI,,RO,,,,,
,visa,,,CALARASI,CALARASI,,RO,,,,,
,visa,,,OLTENITA,CALARASI,,RO,,,,,
,visa,,,CALARASI,CALARASI,,RO,,,,,
,visa,,,CALARASI,CALARASI,,RO,,,,,
,visa,,,LEHLIU,CALARASI,,RO,,,,,
,visa,,,CALARASI,CALARASI,,RO,,,,,
,visa,,,CALARASI,CALARASI,,RO,,,,,
,visa,,,CALARASI,CALARASI,,RO,,,,,
,visa,,,CALARASI,CALARASI,,RO,,,,,
,visa,,,COMUNA MODELU,CALARASI,,RO,,,,,
,visa,,,DRAGALINA,CALARASI,,RO,,,,,
,visa,,,BORCEA,CALARASI,,RO,,,,,
,visa,,,BORCEA,CALARASI,,RO,,,,,
,visa,,,CALARASI,CALARASI,,RO,,,,,
,visa,,,PERISORU,CALARASI,,RO,,,,,
492342397ad881b247ea363e11a75932,western_union,POSTA ROMANA,,Borcea,CALARASI,,RO,+40 21 314 7912,https://location.westernunion.com/ro/calarasi/borcea/492342397ad881b247ea363e11a75932,Mo-Fr 08:00-18:00,Western Union,Q861042
f632babffcd65d65609aba6bcbdaaf48,western_union,POSTA ROMANA,,Roseti,CALARASI,,RO,+40 21 314 7912,https://location.westernunion.com/ro/calarasi/roseti/f632babffcd65d65609aba6bcbdaaf48,Mo-Fr 08:00-16:00,Western Union,Q861042
3354456db77a766a051381cdabb54add,western_union,MARIN SIMONA ANDREEA INTREPRINDERE INDIV,,Calarasi,CALARASI,,RO,+40 726 445 426,https://location.westernunion.com/ro/calarasi/calarasi/3354456db77a766a051381cdabb54add,Mo-Su 08:00-20:00,Western Union,Q861042
e26ddd149040794c51fad8d8d1b6acfe,western_union,BSG AMANET AND EXCHANGE,,Calarasi,CALARASI,,RO,+40 748 262 638,https://location.westernunion.com/ro/calarasi/calarasi/e26ddd149040794c51fad8d8d1b6acfe,Mo-Fr 08:00-19:15; Sa 08:00-16:15,Western Union,Q861042
3267a7d34c6f988f58a0a4ab3e550cf8,western_union,MAGIC CALARASI,,Calarasi,CALARASI,,RO,+40 740 179 511,https://location.westernunion.com/ro/calarasi/calarasi/3267a7d34c6f988f58a0a4ab3e550cf8,Mo-Fr 08:00-00:19; Sa-Su 08:00-00:18,Western Union,Q861042
cac4796c9bb629b86b0de278239bcac4,western_union,SPEED TRANSFER FINANCIAR SRL,,Modelu,CALARASI,,RO,+40 747 017 209,https://location.westernunion.com/ro/calarasi/modelu/cac4796c9bb629b86b0de278239bcac4,Mo-Fr 09:00-16:30; Sa 09:30-12:00,Western Union,Q861042
8fdd352307cb2d286c1ff8d5c31d2afd,western_union,COMPO MOBILE S R L,,Calarasi,CALARASI,,RO,+40 730 193 745,https://location.westernunion.com/ro/calarasi/calarasi/8fdd352307cb2d286c1ff8d5c31d2afd,Mo-Fr 08:00-18:00; Sa 08:00-13:00,Western Union,Q861042
f6286e70fb0015eaab3e6b217d1baff5,western_union,POSTA ROMANA,,Independenta,CALARASI,,RO,+40 21 314 7912,https://location.westernunion.com/ro/calarasi/independenta/f6286e70fb0015eaab3e6b217d1baff5,Mo-Fr 10:00-14:00,Western Union,Q861042
51b8c22a37a1e5a5089d03fe3f767f42,western_union,ZAMFIR I T MARIANA INTREPRINDERE INDIVID,,Ciocanesti,CALARASI,,RO,+40 733 043 761,https://location.westernunion.com/ro/calarasi/ciocanesti/51b8c22a37a1e5a5089d03fe3f767f42,Mo-Su 07:00-21:00,Western Union,Q861042
1a08ddf06bed0c6ab9ab6b89f6bd289b,western_union,POSTA ROMANA,,Dragos Voda,CALARASI,,RO,+40 21 314 7912,https://location.westernunion.com/ro/calarasi/dragos-voda/1a08ddf06bed0c6ab9ab6b89f6bd289b,Mo-Fr 08:00-12:00,Western Union,Q861042
6ac1065c5a5f85f452660934a4c6e2ef,western_union,RARES AND MARINA MARKET SRL,,Dalga,CALARASI,,RO,+40 731 715 921,https://location.westernunion.com/ro/calarasi/dalga/6ac1065c5a5f85f452660934a4c6e2ef,Mo-Su 08:00-18:00,Western Union,Q861042
c113d6ff259c9458a0cf1cdb75339424,western_union,D J COSTY SRL,,Dorobantu,CALARASI,,RO,+40 726 672 594,https://location.westernunion.com/ro/calarasi/dorobantu/c113d6ff259c9458a0cf1cdb75339424,Mo-Sa 08:00-20:00; Su 08:00-13:00,Western Union,Q861042
5d6e6a722946f8b2681d8b64d611f734,western_union,POSTA ROMANA,,Chiselet,CALARASI,,RO,+40 21 314 7912,https://location.westernunion.com/ro/calarasi/chiselet/5d6e6a722946f8b2681d8b64d611f734,Mo-Fr 08:00-13:00,Western Union,Q861042
418d0c53d73d10ccaeb74d769d6a289a,western_union,DECIRY MARKET S R L,,Oltenita,CALARASI,,RO,+40 720 021 833,https://location.westernunion.com/ro/calarasi/oltenita/418d0c53d73d10ccaeb74d769d6a289a,Mo-Sa 09:00-18:00,Western Union,Q861042
c19e49a43f4c71cde2437848ea3ac44d,western_union,POSTA ROMANA,,Frasinet,CALARASI,,RO,+40 21 314 7912,https://location.westernunion.com/ro/calarasi/frasinet/c19e49a43f4c71cde2437848ea3ac44d,Mo-Fr 08:00-16:00,Western Union,Q861042
766c2876e74a494e14ea6de80b192d55,western_union,POSTA ROMANA,,Valea Argovei,CALARASI,,RO,+40 21 314 7912,https://location.westernunion.com/ro/calarasi/valea-argovei/766c2876e74a494e14ea6de80b192d55,Mo-Fr 08:00-16:00,Western Union,Q861042
82c69586206b5b10f4e938fe06c39251,western_union,DANIEL MATY KATA S.R.L.,,Curcani,CALARASI,,RO,+40 737 285 631,https://location.westernunion.com/ro/calarasi/curcani/82c69586206b5b10f4e938fe06c39251,Mo-Su 08:00-20:00,Western Union,Q861042
b42db6e9f5dc046c17e468e4965ff4ab,western_union,SPEED TRANSFER FINANCIAR SRL,,Budesti,CALARASI,,RO,+40 759 056 499,https://location.westernunion.com/ro/calarasi/budesti/b42db6e9f5dc046c17e468e4965ff4ab,Mo-Fr 09:00-16:30; Sa 09:30-13:30,Western Union,Q861042
81838e5aa47d26f4482e5550cc6bf1f5,western_union,POSTA ROMANA,,Dorobantu,CALARASI,,RO,+40 21 314 7912,https://location.westernunion.com/ro/calarasi/dorobantu/81838e5aa47d26f4482e5550cc6bf1f5,Mo-Fr 08:00-16:00,Western Union,Q861042
573c3251e17c0df6ad12a43f073e4c96,western_union,VASIDANY IMPEX SRL,,Plataresti,CALARASI,,RO,+40 722 747 320,https://location.westernunion.com/ro/calarasi/plataresti/573c3251e17c0df6ad12a43f073e4c96,Mo-Su 07:00-21:00,Western Union,Q861042
478abdfcfd95f3150846f16b89b7ff8c,western_union,POSTA ROMANA,,Frumusani,CALARASI,,RO,+40 21 314 7912,https://location.westernunion.com/ro/calarasi/frumusani/478abdfcfd95f3150846f16b89b7ff8c,Mo-Fr 08:00-16:00,Western Union,Q861042
