Ref,Spider,Name,Address,City,State,Zipcode,Country,Phone,Website,Hours,Brand,WikiData
68364733,moneygram,MANAPPURAM FINANCE - #3209 - JAGRAON,,JAGRAON,,,IN,+91 162 422 0202,,Mo-Sa 09:30-18:30; Su 00:00-24:00,MoneyGram,Q1944412
72187184,moneygram,HONEY ENTERPRISES - JAGRAON,,JAGRAON,,,IN,+91 99154 00093,,Mo-Su 08:00-22:00,MoneyGram,Q1944412
72592928,moneygram,GRAM SUVIDHA KANDER,,JAGRAON,,,IN,+91 98031 94055,,Mo-Su 08:00-21:00,MoneyGram,Q1944412
72591592,moneygram,SIDHU ENTERPRISES,,LUDHIANA,,,IN,+91 94178 70286,,Mo-Su 08:00-21:00,MoneyGram,Q1944412
72639593,moneygram,GURU NANAK JEWELLERS - LUDHIANA,,LUDHIANA,,,IN,+91 98772 31400,,Mo-Su 08:00-20:00,MoneyGram,Q1944412
72893384,moneygram,DHALIWAL ASSOCIATES,,JAGRAON,,,IN,+91 98724 88460,,Mo-Su 08:00-21:00,MoneyGram,Q1944412
72896970,moneygram,NOBLE PROPERTIES,,JAGRAON,,,IN,+91 98764 70386,,Mo-Su 08:00-21:00,MoneyGram,Q1944412
72891713,moneygram,SHERGILL ENTERPRISES,,JAGRAON,,,IN,+91 98780 58854,,Mo-Su 08:00-21:00,MoneyGram,Q1944412
73038177,moneygram,BABBU FOREX ENTERPRISES,,JAGRAON,,,IN,+91 98140 27736,,Mo-Su 08:00-21:00,MoneyGram,Q1944412
73271206,moneygram,KALRA ELECTRONICS,,JAGRAON,,,IN,+91 98147 24613,,Mo-Su 08:00-21:00,MoneyGram,Q1944412
73272933,moneygram,SHERE PUNJAB KHETI BARI SEWA CENTRE,,JAGRAON,,,IN,+91 98720 47576,,Mo-Su 08:00-21:00,MoneyGram,Q1944412
73266457,moneygram,MUTHOOT FINANCE LTD - #1954 - MOGA - JAG,,MOGA,,,IN,+91 162 454 1070,,Mo-Su 09:00-19:00,MoneyGram,Q1944412
73322799,moneygram,MUTHOOT FINCORP LIMITED - #F2351 - JAGRO,,LUDHIANA,,,IN,+91 162 422 2961,,Mo-Sa 09:00-17:30; Su 00:00-24:00,MoneyGram,Q1944412
73339614,moneygram,GUPTA COMPUTERS - LUDHIANA,,LUDHIANA,,,IN,+91 98723 50460,,Mo-Su 08:00-20:00,MoneyGram,Q1944412
73354217,moneygram,LAKHEWALE ENTERPRISES - LUDHIANA,,LUDHIANA,,,IN,+91 99881 07100,,Mo-Su 09:00-21:00,MoneyGram,Q1944412
73398587,moneygram,PAL FINANCE,,JAGRAON,,,IN,+91 90231 73174,,Mo-Su 08:00-21:00,MoneyGram,Q1944412
73433882,moneygram,A ONE MONEY CHANGER,,LUDHIANA,,,IN,+91 98883 34681,,Mo-Su 08:00-21:00,MoneyGram,Q1944412
73433905,moneygram,DILA RAM MEDICAL AGENCIES,,JAGRAON,,,IN,+91 78886 24636,,Mo-Su 08:00-21:00,MoneyGram,Q1944412
73439815,moneygram,EASY FOREX SOLUTIONS,,JAGRAON,,,IN,+91 73075 05600,,Mo-Su 08:00-21:00,MoneyGram,Q1944412
73433879,moneygram,PUNJAB MEDICAL STORE,,JAGRAON,,,IN,+91 98154 81655,,Mo-Su 08:00-21:00,MoneyGram,Q1944412
73537487,moneygram,PAUL MERCHANTS LIMITED,,JAGRAON,,,IN,+91 93177 14277,,Mo-Su 08:00-21:00,MoneyGram,Q1944412
73798365,moneygram,DURGA ENTERPRISES,,LUDHIANA,,,IN,+91 98144 33462,,Mo-Su 08:00-21:00,MoneyGram,Q1944412
73662899,moneygram,RANJODH MONEY CHANGER,,LUDHIANA,,,IN,+91 95923 00941,,Mo-Su 08:00-21:00,MoneyGram,Q1944412
73666277,moneygram,MS DHALIWAL ENTERPRISES,,JAGRAON,,,IN,+91 95926 40064,,Mo-Su 08:00-21:00,MoneyGram,Q1944412
73040165,moneygram,SHANKAR ENTERPRISES,,JAGRAON,,,IN,+91 98723 28051,,Mo-Su 08:00-21:00,MoneyGram,Q1944412
73930686,moneygram,SUNRISE GLOBAL TRAVELS,,LUDHIANA,,,IN,+91 99148 00304,,Mo-Su 08:00-21:00,MoneyGram,Q1944412
74114566,moneygram,GOYAL ENTERPRISES,,LUDHIANA,,,IN,+91 88472 38717,,Mo-Su 08:00-21:00,MoneyGram,Q1944412
69672770,moneygram,EKAS ENTERPRISES - JAGRAON,,JAGRAON,,,IN,+91 98155 19443,,Mo-Su 06:30-21:00,MoneyGram,Q1944412
74185003,moneygram,RANJIT JEWELLER,,LUDHIANA,,,IN,+91 98141 06808,,Mo-Su 08:00-21:00,MoneyGram,Q1944412
74220065,moneygram,UNIMONI FINANCIAL SERVICES LIMITED - JAG,,JAGRAON,,,IN,+91 93163 76448,,Mo-Fr 09:30-18:30; Sa 09:30-14:00; Su 00:00-24:00,MoneyGram,Q1944412
69726147,moneygram,CHIRAG ENTERPRISES - JAGRAON,,JAGRAON,,,IN,+91 98554 22675,,Mo-Su 06:30-21:00,MoneyGram,Q1944412
74270280,moneygram,BABBU FOREX ENTERPRISES,,JAGRAON,,,IN,+91 98140 27736,,Mo-Su 08:00-21:00,MoneyGram,Q1944412
69581366,moneygram,JASSAL ENTERPRISES - JAGRAON,,JAGRAON,,,IN,+91 162 425 7800,,Mo-Su 06:30-21:00,MoneyGram,Q1944412
70345850,moneygram,CAPITAL SMALL FINANCE BANK - JAGRAON,,JAGRAON,,,IN,+91 162 451 0033,,Mo-Sa 10:00-17:00; Su 10:00-14:00,MoneyGram,Q1944412
74529436,moneygram,GURBAAZ MEDICOS,,JAGRAON,,,IN,+91 90227 10007,,Mo-Su 08:00-21:00,MoneyGram,Q1944412
74768491,moneygram,RJ TRAVELS,,JAGRAON,,,IN,+91 83600 53853,,Mo-Su 10:00-22:00,MoneyGram,Q1944412
74891973,moneygram,R H ENTERPRISES,,LUDHIANA,,,IN,+91 89603 00013,,Mo-Su 08:00-21:00,MoneyGram,Q1944412
44361006,moneygram,J S ENTERPRISES - KOANKE KALAN,,KOANKE KALAN,,,IN,+91 162 423 1105,,Mo-Su 06:30-21:00,MoneyGram,Q1944412
44884143,moneygram,RAM ENTERPRISES,,JAGRAON,,,IN,+91 162 454 1592,,Mo-Su 06:30-21:00,MoneyGram,Q1944412
66420200,moneygram,DHALIWAL ENTERPRISES,,JAGRAON,,,IN,+91 98724 88460,,Mo-Su 06:30-21:00,MoneyGram,Q1944412
66985813,moneygram,JAGRAON SWASTIK TRAVEL CO,,JAGRAON,,,IN,+91 162 422 9094,,Mo-Su 06:30-21:00,MoneyGram,Q1944412
66985871,moneygram,MUNISH AND COMPANY,,JAGRAON,,,IN,+91 162 422 8207,,Mo-Su 06:30-21:00,MoneyGram,Q1944412
66986074,moneygram,SHANKER FOREX,,JAGRAON,,,IN,+91 94172 00456,,Mo-Su 06:30-21:00,MoneyGram,Q1944412
67014547,moneygram,CANADY JEWELLERS - JAGRAON,,JAGRAON,,,IN,+91 162 422 3987,,Mo-Sa 08:30-20:00; Su 09:00-20:00,MoneyGram,Q1944412
67422621,moneygram,PREET ENTERPRISES - JAGRAON,,JAGRAON,,,IN,+91 162 425 7942,,Mo-Su 06:30-21:00,MoneyGram,Q1944412
67522592,moneygram,PUNJAB ENTERPRISES - JAGRAON,,JAGRAON,,,IN,+91 162 454 1650,,Mo-Su 06:30-21:00,MoneyGram,Q1944412
67639553,moneygram,TEJINDER MONEY CHANGER - JAGRAON,,JAGRAON,,,IN,+91 162 454 2830,,Mo-Su 06:30-21:00,MoneyGram,Q1944412
71512721,moneygram,ASEEM INVESTMENTS - LUDHIANA - LUDHIANA,,LUDHIANA,,,IN,+91 97811 16872,,Mo-Su 08:00-20:00,MoneyGram,Q1944412
71672483,moneygram,PANKAJ ENTERPRISES - LUDHIANA - LUDHIANA,,LUDHIANA,,,IN,+91 97799 97927,,Mo-Su 08:00-20:00,MoneyGram,Q1944412
71760654,moneygram,GOYAL ENTERPRISES - LUDHIANA - JAGRAON,,LUDHIANA,,,IN,+91 78372 87755,,Mo-Su 08:00-20:00,MoneyGram,Q1944412
67787162,moneygram,RAJA ENTERPRISES - JAGRAON,,JAGRAON,,,IN,+91 162 454 1217,,Mo-Su 06:30-21:00,MoneyGram,Q1944412
,visa,,,JAGRAON,,,IN,,,,,
,visa,,,JAGRAON,,,IN,,,,,
