Ref,Spider,Name,Address,City,State,Zipcode,Country,Phone,Website,Hours,Brand,WikiData
CH0145,c_and_a,Liestal Center,"Buechelistrasse 10, 4410 Liestal",Liestal,,,CH,,https://www.c-and-a.com/stores/ch-de/basel-landschaft/liestal/buechelistrasse-10.html,Mo 09:00-19:00; Tu 09:00-19:00; We 09:00-19:00; Th 09:00-19:00; Fr 09:00-19:00; Sa 09:00-18:00,C&A,Q701338
ekz-rosenstrasse-3-4410-liestal,denner_ch,Denner,,Liestal,,,CH,+41 58 999 14 06,https://www.denner.ch/de/filialen/denner-filiale-und-oeffnungszeiten/store/ekz-rosenstrasse-3-4410-liestal/,Mo-Fr 08:00-19:00; Sa 08:00-18:00,Denner,Q379911
seestrasse-20-4410-liestal,denner_ch,Denner,,Liestal,,,CH,+41 61 921 21 50,https://www.denner.ch/de/filialen/denner-filiale-und-oeffnungszeiten/store/seestrasse-20-4410-liestal/,Mo-Su 08:00-22:00,Denner,Q379911
sharedmobility.ch:carvelo2go:cbe6bf28-ff3a-4731-875f-cddd17b22391,gbfs,Kantonsbibliothek Baselland,,,,,CH,,https://www.sharedmobility.ch/info,,sharedmobility.ch,
4797203_mno,migros_ch,Migrolino,,Liestal,,,CH,+41 58 563 33 55,https://filialen.migros.ch/de/migrolino-liestal,Mo-Fr 06:00-23:00; Sa-Su 07:00-23:00,Migrolino,Q56745088
0023080_super,migros_ch,Migros,,Liestal,,,CH,+41 58 575 88 00,https://filialen.migros.ch/de/migros-supermarkt-liestal,Mo-Fr 08:00-19:00; Sa 08:00-18:00,Migros,Q115661152
0023080_flori,migros_ch,Florissimo,,Liestal,,,CH,+41 58 575 88 00,https://filialen.migros.ch/de/florissimo-liestal,Mo-Fr 08:00-19:00; Sa 08:00-18:00,Florissimo,Q115659418
CHH04410,neuroth,Neuroth,"Rheinstrasse 16, 4410 Liestal, CH",Liestal,,,CH,+41 61 923 10 15,https://ch.neuroth.com/filialen/rheinstrasse-16-liestal/,"Mo-Fr 08:30-12:00,13:00-17:30",Neuroth,Q15836645
bahnhof-apotheke-liestal,rotpunkt_apotheken_ch,Bahnhof Rotpunkt Apotheke,,Liestal,,,CH,+41 61 922 09 22,https://www.apo-liestal.ch/,Mo-Fr 07:30-18:30; Sa 08:00-17:00,Rotpunkt Apotheke,Q111683777
7612555516210,valora,Avec,,Liestal,,,CH,,,,Avec,Q103863974
271,valora,k kiosk,,Liestal,,,CH,,,,k kiosk,Q60381703
270,valora,k kiosk,,Liestal,,,CH,,,,k kiosk,Q60381703
254,valora,k kiosk,,Liestal,,,CH,,,,k kiosk,Q60381703
251,valora,k kiosk,,Liestal,,,CH,,,,k kiosk,Q60381703
,visa,,,LIESTAL,,,CH,,,,,
,visa,,,LIESTAL,,,CH,,,,,
,visa,,,LIESTAL,,,CH,,,,,
,visa,,,LIESTAL,,,CH,,,,,
,visa,,,LIESTAL,,,CH,,,,,
