Ref,Spider,Name,Address,City,State,Zipcode,Country,Phone,Website,Hours,Brand,WikiData
234,aaa,Bluefield VA,,Bluefield,VA,,US,+1 276-988-6800,,,American Automobile Association,Q463436
3909,anytime_fitness,Anytime Fitness,,Bluefield,VA,,US,+1 276-322-7781,https://www.anytimefitness.com/gyms/3909/bluefield-va-24605/,,Anytime Fitness,Q4778364
https://restaurants.applebees.com/en-us/va/bluefield/516-commerce-drive-99024,applebees,Connect with this Applebee's,,Bluefield,VA,,US,+1 276-240-4361,https://restaurants.applebees.com/en-us/va/bluefield/516-commerce-drive-99024,Mo-Th 11:00-23:00; Fr-Sa 11:00-24:00; Su 11:00-23:00,Applebees,Q621532
https://stores.ashleyfurniture.com/store/us/virginia/bluefield/9000104955/,ashley_furniture,"Ashley Store Bluefield, VA",,Bluefield,VA,,US,+1 276-322-7676,https://stores.ashleyfurniture.com/store/us/virginia/bluefield/9000104955/,,Ashley Furniture,Q4805437
473,bealls_us,Bealls,,Bluefield,VA,,US,+1 276-322-1490,https://stores.bealls.com/va/bluefield/clothing-store-473.html,Mo-Th 10:00-20:00; Fr 10:00-21:00; Sa 09:00-21:30; Su 11:00-20:00,Bealls,Q4876153
5423,bluerhino,Walmart #1763,,Bluefield,VA,,US,+1 276-322-3144,,,Blue Rhino,Q65681213
77702,bluerhino,Lowe's #1959,,Bluefield,VA,,US,+1 276-326-4560,,,Blue Rhino,Q65681213
47235,bobevans_us,Bluefield,,Bluefield,VA,,US,+1 276-322-3609,https://www.bobevans.com/locations/bluefield,Mo-Su 07:00-21:00,Bob Evans,Q4932386
https://stores.catofashions.com/#26559944,cato_us,Cato,,,VA,,US,+1 276-322-3366,https://stores.catofashions.com/va/bluefield/4007-college-avenue,Mo-Sa 10:00-20:00; Su 13:00-18:00,Cato,Q16956136
57156,citi,ATM Food City,,Bluefield,VA,,US,,,,Citibank,Q857063
66226,citi,ATM NEW PEOPLES BANK INC,,Bluefield,VA,,US,,,,Citibank,Q857063
70144958,cricket_wireless,Cricket Wireless Authorized Retailer,,Bluefield,VA,,US,+1 276-326-7024,https://www.cricketwireless.com/stores/ll/US/VA/Bluefield/4031-College-Ave,Mo-Sa 10:00-20:00; Su 12:00-18:00,Cricket Wireless,Q5184987
1335,dominos_pizza_us,Domino's Pizza,,Bluefield,VA,,US,+1 276-326-7070,https://pizza.dominos.com/virginia/bluefield/2113-college-ave,Mo-Th 10:00-24:00; Fr-Sa 10:00-01:00; Su 10:00-24:00,Domino's,Q839466
https://www.edwardjones.com/us-en/financial-advisor/christopher-benson,edwardjones,Christopher Benson,,Bluefield,VA,,US,+1 276-322-3864,https://www.edwardjones.com/us-en/financial-advisor/christopher-benson,Mo-Fr 08:30-16:30,Edward Jones,Q5343830
https://local.fedex.com/#26000457,fedex,,,Bluefield,VA,,US,+1 800-463-3339,https://local.fedex.com/en-us/va/bluefield/ugiaj,,FedEx,Q459477
https://local.fedex.com/#25233330,fedex,,,Bluefield,VA,,US,+1 800-463-3339,https://local.fedex.com/en-us/va/bluefield/ugiaa,,FedEx,Q459477
6554,gamestop_us,Ridgeview Plaza,,Bluefield,VA,,US,+1 276-322-1469,https://www.gamestop.com/search/?store=6554,Mo-Th 12:00-20:00; Fr-Sa 11:00-20:00; Su 12:00-19:00,GameStop,Q202210
44365,h_r_block,H&R Block,,Bluefield,VA,,US,+1 276-326-1040,https://www.hrblock.com/local-tax-offices/virginia/bluefield/709-s-college-dr/44365/,,H&R Block,Q5627799
62GQP,medexpress,MedExpress Urgent Care,,Bluefield,VA,,US,+1 276-322-2085,https://www.medexpress.com/location/va/bluefield/blv/,Mo-Su 08:00-20:00,MedExpress,Q102183820
140,ollies_bargain_outlet,Ollie's Bargain Outlet,,Bluefield,VA,,US,+1 276-326-1140,https://www.ollies.us/locations/533-commerce-dr-bluefield-va/,Mo-Sa 09:00-21:00; Su 10:00-19:00,Ollie's Bargain Outlet,Q7088304
https://locations.papajohns.com/#10691088,papa_johns,Papa John's,,Bluefield,VA,,US,+1 276-322-5646,https://locations.papajohns.com/united-states/va/24605/bluefield/711-s-college-ave,Mo-Su 10:00-23:00,Papa John's Pizza,Q2759586
va_bluefield_1001-leatherwood-ln,pizza_hut_us,1001 Leatherwood Ln,,Bluefield,VA,,US,+1 276-322-2126,https://locations.pizzahut.com/va/bluefield/1001-leatherwood-ln,,Pizza Hut,Q191615
3795,rentacenter,Rent-A-Center,,Bluefield,VA,,US,+1 276-322-3727,https://locations.rentacenter.com/virginia/bluefield/4013-college-ave/,Mo-Sa 10:00-18:00,Rent-A-Center,Q7313497
6569,sams_club,Bluefield Sam's Club,,Bluefield,VA,,US,+1 276-326-1583,https://www.samsclub.com/club/bluefield-va-sams-club/6569,Mo 10:00-20:00; Sa 09:00-20:00; Su 10:00-18:00,Sam's Club,Q1972120
https://restaurants.subway.com/#14916066,subway,Subway College Square,,Bluefield Tazewell,VA,,US,+1 276-326-1095,https://restaurants.subway.com/united-states/va/bluefield/2113-college-ave,Mo-Th 07:00-22:00; Fr 07:00-23:00; Sa 08:00-23:00; Su 09:00-21:00,Subway,Q244457
https://restaurants.subway.com/#14902804,subway,Subway Wal-Mart #1763,,Bluefield Tazewell,VA,,US,+1 276-322-3318,https://restaurants.subway.com/united-states/va/bluefield/4001-college-ave,Mo-Su 08:00-21:00,Subway,Q244457
https://locations.tacobell.com/#6143804,taco_bell,Taco Bell,,Bluefield,VA,,US,+1 276-322-1303,https://locations.tacobell.com/va/bluefield/3951-college-ave.html,Mo-Fr 07:00-04:00; Sa 09:00-04:00; Su 07:00-04:00,Taco Bell,Q752941
1B22,tmobile_us,Sam's Club Bluefield VA,,Bluefield,VA,,US,+1 276-670-0702,https://www.t-mobile.com/store-locator/va/bluefield/sams-club-bluefield-va,,T-Mobile,Q3511885
5RSM,tmobile_us,Ridgeview Plaza,,Bluefield,VA,,US,+1 276-477-5280,https://www.t-mobile.com/store-locator/va/bluefield/ridgeview-plaza,,T-Mobile,Q3511885
4902,upsstore,Bluefield,4035 College Ave,Bluefield,VA,,US,+1 276-326-2116,https://locations.theupsstore.com/va/bluefield/4035-college-ave,,UPS Store,Q7771029
1355273,usps,BLUEFIELD,,BLUEFIELD,VA,,US,+1 276-326-1553,,"Mo-Fr 08:30-13:00,14:00-16:30; Sa 10:00-11:30",United States Postal Service,Q668687
2460500014,usps_collection_boxes,USPS COLLECTION BOX - BLUE BOX,507 VIRGINIA AVE,BLUEFIELD,VA,,US,,,,United States Postal Service,Q668687
2460500019,usps_collection_boxes,USPS COLLECTION BOX - PO LOBBY,507 VIRGINIA AVE,BLUEFIELD,VA,,US,,,,United States Postal Service,Q668687
2460500021,usps_collection_boxes,USPS COLLECTION BOX - PO LOBBY,507 VIRGINIA AVE,BLUEFIELD,VA,,US,,,,United States Postal Service,Q668687
0000031788,valero,Graham Mart,,Bluefield,VA,,US,,https://locations.valero.com/en-us/LocationDetails/Index/1302-VIRGINIA-AVE/0000031788,,Valero,Q1283291
0000031791,valero,Fast Stop,,Bluefield,VA,,US,,https://locations.valero.com/en-us/LocationDetails/Index/38179-GOV-GC-PEERY-HIGHWAY/0000031791,,Valero,Q1283291
A00000233115,verizon_us,Victra Bluefield College Ave,,BLUEFIELD,VA,,US,+1 276-322-6105,https://www.verizon.com/stores/details/virginia/bluefield/victra-bluefield-college-ave-1574322/,Mo-Fr 10:00-20:00; Sa 09:00-19:00; Su 12:00-18:00,Verizon,Q919641
10873,vestis_uniform_services_us,Vestis Bluefield,,Bluefield,VA,,US,+1 276-866-4008,https://www.vestis.com/our-locations/vestis-bluefield,,Vestis,Q122947676
,visa,,,BLUEFIELD,VA,,US,,,,,
,visa,,,BLUEFIELD,VA,,US,,,,,
,visa,,,BLUEFIELD,VA,,US,,,,,
,visa,,,BLUEFIELD,VA,,US,,,,,
,visa,,,BLUEFIELD,VA,,US,,,,,
,visa,,,BLUEFIELD,VA,,US,,,,,
,visa,,,BLUEFIELD,VA,,US,,,,,
,visa,,,BLUEFIELD,VA,,US,,,,,
,visa,,,BLUEFIELD,VA,,US,,,,,
,visa,,,BLUEFIELD,VA,,US,,,,,
,visa,,,BLUEFIELD,VA,,US,,,,,
,visa,,,BLUEFIELD,VA,,US,,,,,
,visa,,,BLUEFIELD,VA,,US,,,,,
,visa,,,BLUEFIELD,VA,,US,,,,,
,visa,,,BLUEFIELD,VA,,US,,,,,
,visa,,,BLUEFIELD,VA,,US,,,,,
,visa,,,BLUEFIELD,VA,,US,,,,,
,visa,,,BLUEFIELD,VA,,US,,,,,
,visa,,,BLUEFIELD,VA,,US,,,,,
,visa,,,BLUEFIELD,VA,,US,,,,,
https://locations.wendys.com/#9250959,wendys,"Wendy's Bluefield Ii in Bluefield, VA",,Bluefield,VA,,US,+1 276-322-3802,https://locations.wendys.com/united-states/va/bluefield/508-commerce-dr,"Mo-Su 06:00-10:30,07:00-23:00",Wendy's,Q550258
6c939eb7594608ff32b544c58d174c3f,western_union,WALMART #001763,,Bluefield,VA,,US,+1 276-322-3144,https://location.westernunion.com/us/va/bluefield/6c939eb7594608ff32b544c58d174c3f,Mo-Sa 08:00-20:00; Su 10:00-18:00,Western Union,Q861042
