Ref,Spider,Name,Address,City,State,Zipcode,Country,Phone,Website,Hours,Brand,WikiData
https://local.pharmacy.jewelosco.com/#5672918,albertsons,Jewel-Osco Pharmacy,,Chicago,IL,,US,+1 312-663-4646,https://local.pharmacy.jewelosco.com/il/chicago/1224-s-wabash-ave.html,Mo-Fr 08:00-22:00; Sa 09:00-18:00; Su 09:00-17:00,Jewel-Osco,Q3178470
https://local.jewelosco.com/#5603714,albertsons,Jewel-Osco,,Chicago,IL,,US,+1 312-663-0580,https://local.jewelosco.com/il/chicago/1224-s-wabash-ave.html,"Mo-Fr 06:00-24:00,08:00-22:00; Sa 06:00-24:00,09:00-18:00; Su 06:00-24:00,09:00-17:00",Jewel-Osco,Q3178470
23580,asics_us,Fleet Feet South Loop,150 Roosevelt Rd,Chicago,IL,,US,+1 312-788-3338,,Mo-Fr 11:00-19:00; Sa 10:00-18:00; Su 11:00-17:00,asics,Q327247
https://bananarepublic.gap.com/stores/il/chicago/banana-republic-6772.html,bananarepublic,Banana Republic,,Chicago,IL,,US,+1 312-662-1580,https://bananarepublic.gap.com/stores/il/chicago/banana-republic-6772.html,Mo-Sa 10:00-19:00; Su 11:00-18:00,Banana Republic,Q806085
https://www.barlouie.com/locations/us/il/chicago/printers-row,barlouie,Printers Row,,Chicago,IL,,US,+1 312-872-4550,https://www.barlouie.com/locations/us/il/chicago/printers-row,Mo-Fr 11:00-02:00; Sa-Su 10:00-02:00,Barlouie,Q16935493
https://locations.baskinrobbins.com/il/chicago/1231-s-wabash-ave-310285-br,baskin_robbins_us,Baskin-Robbins™,,Chicago,IL,,US,+1 312-765-9952,https://locations.baskinrobbins.com/il/chicago/1231-s-wabash-ave-310285-br,24/7,Baskin-Robbins,Q584601
https://locations.baskinrobbins.com/il/chicago/600-s.-wabash-ave-339728-br,baskin_robbins_us,Baskin-Robbins™,,Chicago,IL,,US,+1 872-873-2931,https://locations.baskinrobbins.com/il/chicago/600-s.-wabash-ave-339728-br,24/7,Baskin-Robbins,Q584601
213375,bluerhino,JC Licht Ace Hardware - South Loop #18242,,Chicago,IL,,US,+1 312-461-0900,,,Blue Rhino,Q65681213
188898,bluerhino,The PRIDE of Chicago,,Chicago,IL,,US,+1 312-566-0067,,,Blue Rhino,Q65681213
34143126382216060500100000000000,bp,BP,,Chicago,IL,,US,+1 312-566-0067,,24/7,BP,Q152057
il_chicago_1142-s-wabash-ave,chipotle, ,,Chicago,IL,,US,+1 312-635-9278,https://locations.chipotle.com/il/chicago/1142-s-wabash-ave,,Chipotle,Q465751
4061,cvs_us,CVS Pharmacy,,Chicago,IL,,US,+1 312-697-0021,https://www.cvs.com/store-locator/chicago-il-pharmacies/520-s-state-street-chicago-il-60605/storeid=4061,Mo-Su 07:00-22:00,CVS Pharmacy,Q2078880
17009,cvs_us,CVS Pharmacy,,Chicago,IL,,US,+1 312-212-6301,https://www.cvs.com/store-locator/chicago-il-pharmacies/1154-s-clark-st-chicago-il-60605/storeid=17009,"Mo-Fr 09:00-13:30,14:00-20:00; Sa-Su 09:00-13:30,14:00-18:00",CVS Pharmacy,Q2078880
346706,dunkin_us,Dunkin',,Chicago,IL,,US,+1 312-362-0523,https://locations.dunkindonuts.com/en/il/chicago/626-s-clark-street/346706,Mo-Fr 05:30-17:00; Sa 06:30-17:00; Su 07:00-17:00,Dunkin',Q847743
343845,dunkin_us,Dunkin',,Chicago,IL,,US,+1 872-873-2926,https://locations.dunkindonuts.com/en/il/chicago/406-s-michigan-ave/343845,Mo 07:00-14:00; Tu-Sa 06:00-17:00; Su 07:00-16:00,Dunkin',Q847743
310285,dunkin_us,Dunkin',,Chicago,IL,,US,+1 312-765-9952,https://locations.dunkindonuts.com/en/il/chicago/1231-s-wabash-ave/310285,24/7,Dunkin',Q847743
344397,dunkin_us,Dunkin',,Chicago,IL,,US,+1 312-447-0951,https://locations.dunkindonuts.com/en/il/chicago/1575-s-michigan-ave/344397,Mo-Fr 05:00-20:00; Sa-Su 06:00-19:00,Dunkin',Q847743
354360,dunkin_us,Dunkin',,Chicago,IL,,US,+1 872-873-2939,https://locations.dunkindonuts.com/en/il/chicago/22-e-roosevelt-rd/354360,Mo 05:00-16:00; Tu-Sa 05:00-17:00; Su 06:00-15:00,Dunkin',Q847743
https://www.edwardjones.com/us-en/financial-advisor/alonzo-hinton,edwardjones,Alonzo Hinton,,Chicago,IL,,US,+1 312-224-8388,https://www.edwardjones.com/us-en/financial-advisor/alonzo-hinton,Mo-Fr 08:00-17:00,Edward Jones,Q5343830
0306,european_wax_center_us,European Wax Center,,Chicago,IL,,US,+1 312-265-0621,https://locations.waxcenter.com/il/chicago/chicago-south-loop-0306.html,Mo-Fr 09:00-21:00; Sa 09:00-17:00; Su 09:00-16:00,European Wax Center,Q5413426
501835,extra_space_storage,Chicago Self Storage at 1255 S Wabash Ave,,Chicago,IL,,US,+1 312-986-8400,https://www.extraspace.com/storage/facilities/us/illinois/chicago/501835/,Mo-Fr 09:30-18:00; Sa 09:00-17:30,Extra Space Storage,Q5422162
7884,extra_space_storage,Chicago Self Storage at 615 S Wabash Ave,,Chicago,IL,,US,+1 312-662-1946,https://www.extraspace.com/storage/facilities/us/illinois/chicago/7884/,Mo-Fr 09:30-18:00; Sa 09:00-17:30,Extra Space Storage,Q5422162
https://local.fedex.com/#25204411,fedex,,,Chicago,IL,,US,+1 800-463-3339,https://local.fedex.com/en-us/il/chicago/rkx4v,,FedEx,Q459477
https://local.fedex.com/#492322,fedex,FedEx Office Print & Ship Center,,Chicago,IL,,US,+1 312-663-1149,https://local.fedex.com/en-us/il/chicago/office-5052,,FedEx,Q459477
https://locations.53.com/#3034610,fifththirdbank,Fifth Third Bank Printers Row,,Chicago,IL,,US,+1 312-880-0850,https://locations.53.com/il/chicago/601-south-clark.html,Mo-Th 09:00-17:30; Fr 09:00-18:00; Sa 09:00-14:00,Fifth Third Bank,Q1411810
345100,firestone_auto_care,Firestone Complete Auto Care,,Chicago,IL,,US,+1 312-462-0070,https://local.firestonecompleteautocare.com/illinois/chicago/1558-s-wabash-ave/,,Firestone,Q420837
https://restaurants.fiveguys.com/#15553439,five_guys_us,Five Guys South Loop,,Chicago,IL,,US,+1 312-431-8140,https://restaurants.fiveguys.com/1146-s-wabash,"Mo-Su 11:00-21:30,11:00-22:00",Five Guys,Q1131810
chidlgi-hilton-garden-inn-chicago-downtown-south-loop,hilton,Hilton Garden Inn Chicago Downtown South Loop,,,IL,,US,+1 312-753-5100,https://www.hilton.com/ar/hotels/chidlgi-hilton-garden-inn-chicago-downtown-south-loop/,,Hilton Garden Inn,Q1162859
US0181,hm,Roosevelt Collection,,Chicago,IL,,US,+1 855-466-7467,,Mo-Sa 11:00-19:00; Su 11:00-18:00,H&M,Q188326
29556,huntingtonbank,Roosevelt and Wabash Jewel,,Chicago,IL,,US,+1 312-431-0190,https://www.huntington.com/Community/branch-info?locationId=29556,Mo-Fr 10:00-18:00; Sa 10:00-15:00; Su 00:00-00:00,Huntington Bank,Q798819
13440,h_r_block,H&R Block,,Chicago,IL,,US,+1 312-431-8427,https://www.hrblock.com/local-tax-offices/illinois/chicago/state-place/13440/,,H&R Block,Q5627799
1-e-8th-street,indigo,1 E. 8th Street,,Chicago,IL,,US,+1 312-577-7985,,,Indigo,Q3559970
astoria-tower-8-e-9th-street,indigo,Astoria Tower - 8 E. 9th Street,,Chicago,IL,,US,+1 312-577-7985,,,Indigo,Q3559970
park-michigan,indigo,Park Michigan,,Chicago,IL,,US,+1 312-577-7985,,,Indigo,Q3559970
1101-s-state,indigo,1101 S. State,,Chicago,IL,,US,+1 312-577-7985,,,Indigo,Q3559970
burnham-pointe,indigo,Burnham Pointe,,Chicago,IL,,US,+1 312-577-7985,,,Indigo,Q3559970
401-s-wabash,indigo,401 S Wabash,,Chicago,IL,,US,+1 312-577-7985,,,Indigo,Q3559970
777-s-state-street,indigo,777 S. State Street,,Chicago,IL,,US,+1 312-577-7985,,,Indigo,Q3559970
roosevelt-collection,indigo,Roosevelt Collection,,Chicago,IL,,US,+1 312-577-7985,,,Indigo,Q3559970
printers-square-garage,indigo,Printer's Square Garage,,Chicago,IL,,US,+1 224-343-3363,,,Indigo,Q3559970
https://locations.jimmyjohns.com/il/chicago/sandwiches-675.html,jimmy_johns,Jimmy John's,,Chicago,IL,,US,+1 312-379-0090,https://locations.jimmyjohns.com/il/chicago/sandwiches-675.html,,Jimmy John's,Q1689380
https://locations.jimmyjohns.com/il/chicago/sandwiches-570.html,jimmy_johns,Jimmy John's,,Chicago,IL,,US,+1 312-896-2662,https://locations.jimmyjohns.com/il/chicago/sandwiches-570.html,,Jimmy John's,Q1689380
301584,kindercare,South Loop KinderCare,,Chicago,IL,,US,,https://www.kindercare.com/our-centers/chicago/il/301584,,KinderCare Learning Centers,Q6410551
https://local.lenscrafters.com/il/chicago/1142-s-delano-ct-west.html,lenscrafters,LensCrafters,,Chicago,IL,,US,+1 312-583-0499,https://local.lenscrafters.com/il/chicago/1142-s-delano-ct-west.html,Mo-Fr 10:00-19:30; Sa 09:00-18:00; Su 10:00-16:00,LensCrafters,Q6523209
CHILD,marriott,Le Méridien Essex Chicago,,Chicago,IL,,US,+1 312-939-2800,https://www.marriott.com/CHILD,,Le Méridien,Q261077
https://locations.massageenvy.com/#2498230,massage_envy,Massage Envy Chicago South Loop,,Chicago,IL,,US,+1 312-386-1000,https://locations.massageenvy.com/illinois/chicago/1136-s.-delano-ct-west.html,Mo-Fr 09:00-20:00; Sa-Su 09:00-19:00,Massage Envy,Q10327170
https://www.nandosperiperi.com/find/south-loop/,nandos,South Loop,,,IL,,US,+1 312-204-7151,https://www.nandosperiperi.com/find/south-loop/,,Nando's,Q3472954
2054,orangetheory_fitness,"Chicago- South Loop, IL",,Chicago,IL,,US,+1 312-734-1100,,,Orangetheory Fitness,Q25005163
112421,pandaexpress,State & Congress,,Chicago,IL,,US,+1 312-663-6617,https://www.pandaexpress.com/locations/il/chicago/515-south-state-st,Mo-Sa 10:00-21:00; Su 09:30-21:00,Panda Express,Q1358690
16526212,peets_coffee_us,Chicago - East 8th St.,,Chicago,IL,,US,+1 312-489-5097,https://peets.app.link?&$fallback_url=https%3A%2F%2Forder.peets.com%2Flocation%2Fchicago-east-8th%2Fmenu&$type=order&~campaign=orderaheadonline&~channel=web&~feature=menu&~tags=chicago-east-8th,Mo-Fr 05:30-18:30; Sa-Su 06:00-18:30,Peet's Coffee,Q1094101
136838,potbelly_sandwich,Roosevelt & WabashXX,,Chicago,IL,,US,+1 312-435-1238,,Mo-Su 10:00-21:00,Potbelly Sandwich Shop,Q7234777
136739,potbelly_sandwich,Printer's Row,,Chicago,IL,,US,+1 312-212-1605,,Mo-Fr 09:00-21:00; Sa-Su 10:00-19:00,Potbelly Sandwich Shop,Q7234777
https://www.publicstorage.com/self-storage-il-chicago/1443.html,public_storage_us,Public Storage,,Chicago,IL,,US,+1 312-429-6834,https://www.publicstorage.com/self-storage-il-chicago/1443.html,,Public Storage,Q1156045
292,pure_barre_us,Chicago | South Loop,,Chicago,IL,,US,+1 312-753-3253,https://www.purebarre.com/location/chicago-south-loop-il,,Pure Barre,Q86707084
36033,seven_eleven_ca_us,7-11 Str   801 S State St,,Chicago,IL,,US,+1 312-583-1173,https://www.7-eleven.com/locations/il/chicago/801-s-state-st-36033,,7-Eleven,Q259340
2606,snap_fitness,"Chicago-South Loop, IL",1212 S Michigan Ave,Chicago,IL,,US,+1 312-533-4646,https://www.snapfitness.com/us/gyms/chicago-south-loop-il,24/7,Snap Fitness,Q7547254
https://restaurants.subway.com/#14900328,subway,Subway Dwight Lofts,,Chicago Cook,IL,,US,+1 312-341-6000,https://restaurants.subway.com/united-states/il/chicago/630-s-clark-st,Mo-Fr 09:00-21:30; Sa-Su 09:00-21:00,Subway,Q244457
https://restaurants.subway.com/#14907283,subway,Subway,,Chicago Cook,IL,,US,+1 312-341-1401,https://restaurants.subway.com/united-states/il/chicago/604-s-wabash-ave,,Subway,Q244457
https://restaurants.subway.com/#14905735,subway,Subway,,Chicago Cook,IL,,US,+1 312-235-0181,https://restaurants.subway.com/united-states/il/chicago/400-s-financial-place,Mo-Fr 08:00-16:00,Subway,Q244457
https://restaurants.subway.com/#14912222,subway,Subway,,Chicago Cook,IL,,US,+1 312-583-1235,https://restaurants.subway.com/united-states/il/chicago/35-w-van-buren-st,Mo-Sa 09:00-21:00; Su 10:00-20:00,Subway,Q244457
https://restaurants.subway.com/#14914508,subway,Subway,,Chicago Cook,IL,,US,+1 312-526-3532,https://restaurants.subway.com/united-states/il/chicago/1212-south-michigan-ave,,Subway,Q244457
https://locations.tacobell.com/#9024590,taco_bell,Taco Bell Cantina,,Chicago,IL,,US,+1 773-904-2737,https://locations.tacobell.com/il/chicago/407-s--dearborn.html,,Taco Bell,Q111972226
701,trader_joes_us,Trader Joe's Chicago - South Loop (701),,Chicago,IL,,US,+1 312-588-0489,https://locations.traderjoes.com/il/chicago/701/,Mo-Su 08:00-21:00,Trader Joe's,Q688825
6060500003,usps_collection_boxes,USPS COLLECTION BOX - BLUE BOX,1016 S MICHIGAN AVE,CHICAGO,IL,,US,,,,United States Postal Service,Q668687
6060500095,usps_collection_boxes,USPS COLLECTION BOX - BLUE BOX,1356 S MICHIGAN AVE,CHICAGO,IL,,US,,,,United States Postal Service,Q668687
6060500131,usps_collection_boxes,USPS COLLECTION BOX - BLUE BOX,1147 S WABASH AVE,CHICAGO,IL,,US,,,,United States Postal Service,Q668687
6060500007,usps_collection_boxes,USPS COLLECTION BOX - BLUE BOX,1115 S PLYMOUTH CT,CHICAGO,IL,,US,,,,United States Postal Service,Q668687
6060500037,usps_collection_boxes,USPS COLLECTION BOX - BLUE BOX,427 S LA SALLE ST,CHICAGO,IL,,US,,,,United States Postal Service,Q668687
6060500120,usps_collection_boxes,USPS COLLECTION BOX - BLUE BOX,604 S STATE ST,CHICAGO,IL,,US,,,,United States Postal Service,Q668687
6060500074,usps_collection_boxes,USPS COLLECTION BOX - BLUE BOX,556 S DEARBORN ST,CHICAGO,IL,,US,,,,United States Postal Service,Q668687
6060500046,usps_collection_boxes,USPS COLLECTION BOX - BLUE BOX,600 S FEDERAL ST,CHICAGO,IL,,US,,,,United States Postal Service,Q668687
6060500073,usps_collection_boxes,USPS COLLECTION BOX - BLUE BOX,547 S CLARK ST,CHICAGO,IL,,US,,,,United States Postal Service,Q668687
6060500075,usps_collection_boxes,USPS COLLECTION BOX - BLUE BOX,601 S LA SALLE ST,CHICAGO,IL,,US,,,,United States Postal Service,Q668687
,visa,,,CHICAGO,IL,,US,,,,,
,visa,,,CHICAGO,IL,,US,,,,,
,visa,,,CHICAGO,IL,,US,,,,,
,visa,,,CHICAGO,IL,,US,,,,,
,visa,,,CHICAGO,IL,,US,,,,,
,visa,,,CHICAGO,IL,,US,,,,,
,visa,,,CHICAGO,IL,,US,,,,,
,visa,,,CHICAGO,IL,,US,,,,,
,visa,,,CHICAGO,IL,,US,,,,,
,visa,,,CHICAGO,IL,,US,,,,,
,visa,,,CHICAGO,IL,,US,,,,,
,visa,,,CHICAGO,IL,,US,,,,,
,visa,,,CHICAGO,IL,,US,,,,,
,visa,,,CHICAGO,IL,,US,,,,,
,visa,,,CHICAGO,IL,,US,,,,,
,visa,,,CHICAGO,IL,,US,,,,,
,visa,,,CHICAGO,IL,,US,,,,,
,visa,,,CHICAGO,IL,,US,,,,,
,visa,,,CHICAGO,IL,,US,,,,,
,visa,,,CHICAGO,IL,,US,,,,,
,visa,,,CHICAGO,IL,,US,,,,,
,visa,,,CHICAGO,IL,,US,,,,,
,visa,,,CHICAGO,IL,,US,,,,,
,visa,,,CHICAGO,IL,,US,,,,,
,visa,,,CHICAGO,IL,,US,,,,,
,visa,,,CHICAGO,IL,,US,,,,,
,visa,,,CHICAGO,IL,,US,,,,,
,visa,,,CHICAGO,IL,,US,,,,,
,visa,,,CHICAGO,IL,,US,,,,,
,visa,,,CHICAGO,IL,,US,,,,,
,visa,,,CHICAGO,IL,,US,,,,,
,visa,,,CHICAGO,IL,,US,,,,,
,visa,,,CHICAGO,IL,,US,,,,,
,visa,,,CHICAGO,IL,,US,,,,,
,visa,,,CHICAGO,IL,,US,,,,,
,visa,,,CHICAGO,IL,,US,,,,,
,visa,,,CHICAGO,IL,,US,,,,,
,visa,,,CHICAGO,IL,,US,,,,,
,visa,,,CHICAGO,IL,,US,,,,,
,visa,,,CHICAGO,IL,,US,,,,,
,visa,,,CHICAGO,IL,,US,,,,,
,visa,,,CHICAGO,IL,,US,,,,,
,visa,,,CHICAGO,IL,,US,,,,,
,visa,,,CHICAGO,IL,,US,,,,,
,visa,,,CHICAGO,IL,,US,,,,,
,visa,,,CHICAGO,IL,,US,,,,,
,visa,,,CHICAGO,IL,,US,,,,,
,visa,,,CHICAGO,IL,,US,,,,,
,visa,,,CHICAGO,IL,,US,,,,,
,visa,,,CHICAGO,IL,,US,,,,,
,visa,,,CHICAGO,IL,,US,,,,,
,visa,,,CHICAGO,IL,,US,,,,,
,visa,,,CHICAGO,IL,,US,,,,,
,visa,,,CHICAGO,IL,,US,,,,,
,visa,,,CHICAGO,IL,,US,,,,,
,visa,,,CHICAGO,IL,,US,,,,,
,visa,,,CHICAGO,IL,,US,,,,,
,visa,,,CHICAGO,IL,,US,,,,,
,visa,,,CHICAGO,IL,,US,,,,,
,visa,,,CHICAGO,IL,,US,,,,,
,visa,,,CHICAGO,IL,,US,,,,,
,visa,,,CHICAGO,IL,,US,,,,,
,visa,,,CHICAGO,IL,,US,,,,,
,visa,,,CHICAGO,IL,,US,,,,,
,visa,,,CHICAGO,IL,,US,,,,,
,visa,,,CHICAGO,IL,,US,,,,,
,visa,,,CHICAGO,IL,,US,,,,,
,visa,,,CHICAGO,IL,,US,,,,,
,visa,,,CHICAGO,IL,,US,,,,,
,visa,,,CHICAGO,IL,,US,,,,,
,visa,,,CHICAGO,IL,,US,,,,,
,visa,,,CHICAGO,IL,,US,,,,,
,visa,,,CHICAGO,IL,,US,,,,,
,visa,,,CHICAGO,IL,,US,,,,,
,visa,,,CHICAGO,IL,,US,,,,,
,visa,,,CHICAGO,IL,,US,,,,,
,visa,,,OAK PARK,IL,,US,,,,,
,visa,,,OAK PARK,IL,,US,,,,,
https://www.walgreens.com/locator/walgreens-2+e+roosevelt+rd-chicago-il-60605/id=7179,walgreens,Walgreens,,Chicago,IL,,US,+1 312-212-1583,https://www.walgreens.com/locator/walgreens-2+e+roosevelt+rd-chicago-il-60605/id=7179,Mo-Su 08:00-21:00,Walgreens,Q1591889
219a90ef76617e37f5d325a1a0554aac,western_union,7-ELEVEN #33909,,Chicago,IL,,US,+1 312-987-1041,https://location.westernunion.com/us/il/chicago/219a90ef76617e37f5d325a1a0554aac,,Western Union,Q861042
1546,whitehouseblackmarket,Roosevelt Collection,1112 S Delano CT West,Chicago,IL,,US,+1 312-470-5075,,Mo-Sa 10:00-20:00; Su 11:00-18:00,White House Black Market,Q7994858
9125,wingstop,Wingstop Chicago Harrison,12 E Harrison St,Chicago,IL,,US,+1 312-386-9464,,,Wingstop,Q8025339
www.xsportfitness.com/locations/statestreet-chicago-gym.aspx,xsport_fitness_us,XSport Fitness,,Chicago,IL,,US,+1 312-294-0500,https://www.xsportfitness.com/locations/statestreet-chicago-gym.aspx,24/7,XSport Fitness,Q122981991
