Ref,Spider,Name,Address,City,State,Zipcode,Country,Phone,Website,Hours,Brand,WikiData
https://www.ameripriseadvisors.com/george.connor/contact/,ameriprise_us,George Connor,,Chicago,IL,,US,+1 312-706-6810,https://www.ameripriseadvisors.com/george.connor/,Mo-Fr 08:00-05:00,Ameriprise Financial,Q2843129
https://www.ameripriseadvisors.com/jamie.sutherland/contact/,ameriprise_us,Jamie Sutherland,,Chicago,IL,,US,+1 312-706-6811,https://www.ameripriseadvisors.com/jamie.sutherland/,Mo-Fr 09:00-05:00,Ameriprise Financial,Q2843129
https://www.ameripriseadvisors.com/joe.chambers/contact/,ameriprise_us,Joe Chambers,,Chicago,IL,,US,+1 312-706-6840,https://www.ameripriseadvisors.com/joe.chambers/,Mo-Fr 08:00-06:00,Ameriprise Financial,Q2843129
https://www.ameripriseadvisors.com/team/the-alberts-group/contact/,ameriprise_us,THE ALBERTS GROUP,,Chicago,IL,,US,+1 312-706-3041,https://www.ameripriseadvisors.com/team/the-alberts-group/,Mo-Fr 08:00-05:00,Ameriprise Financial,Q2843129
https://www.ameripriseadvisors.com/team/vivid-financial-group/contact/,ameriprise_us,Vivid Financial Group,,Chicago,IL,,US,+1 312-762-1500,https://www.ameripriseadvisors.com/team/vivid-financial-group/,Mo-Fr 08:00-05:00,Ameriprise Financial,Q2843129
https://www.ameripriseadvisors.com/tim.moffitt/contact/,ameriprise_us,Tim Moffitt,,Chicago,IL,,US,+1 312-706-6822,https://www.ameripriseadvisors.com/tim.moffitt/,Mo-Fr 09:00-05:00,Ameriprise Financial,Q2843129
https://www.ameripriseadvisors.com/victor.taylor/contact/,ameriprise_us,Victor Taylor,,Chicago,IL,,US,+1 312-706-6804,https://www.ameripriseadvisors.com/victor.taylor/,,Ameriprise Financial,Q2843129
https://www.ameripriseadvisors.com/team/definitive-wealth/contact/,ameriprise_us,Definitive Wealth,,Chicago,IL,,US,+1 312-706-6879,https://www.ameripriseadvisors.com/team/definitive-wealth/,,Ameriprise Financial,Q2843129
https://www.ameripriseadvisors.com/robert.huddleston/contact/,ameriprise_us,Robert L Huddleston,,Chicago,IL,,US,+1 312-706-6873,https://www.ameripriseadvisors.com/robert.huddleston/,Mo-Fr 08:00-04:30,Ameriprise Financial,Q2843129
https://www.ameripriseadvisors.com/margaret.cameron/contact/,ameriprise_us,Margaret M Cameron,,Chicago,IL,,US,+1 312-706-6855,https://www.ameripriseadvisors.com/margaret.cameron/,Mo-Fr 08:00-05:00,Ameriprise Financial,Q2843129
https://www.ameripriseadvisors.com/michael.d.ruggiero/contact/,ameriprise_us,Michael D Ruggiero,,Chicago,IL,,US,+1 708-226-3436,https://www.ameripriseadvisors.com/michael.d.ruggiero/,"Mo-Fr 07:30-04:00,08:00-05:00",Ameriprise Financial,Q2843129
https://www.ameripriseadvisors.com/paige.l.kerr/contact/,ameriprise_us,Paige Kerr,,Chicago,IL,,US,+1 312-706-6805,https://www.ameripriseadvisors.com/paige.l.kerr/,Mo 08:30-05:00; Tu-We 09:00-05:00; Th 08:30-06:00; Fr 09:00-05:00,Ameriprise Financial,Q2843129
https://www.ameripriseadvisors.com/patrick.mcallister/contact/,ameriprise_us,Patrick McAllister,,Chicago,IL,,US,+1 312-706-6836,https://www.ameripriseadvisors.com/patrick.mcallister/,Mo-Fr 08:00-04:30,Ameriprise Financial,Q2843129
https://www.ameripriseadvisors.com/julie.rush/contact/,ameriprise_us,Julie Rush,,Chicago,IL,,US,+1 312-706-6890,https://www.ameripriseadvisors.com/julie.rush/,,Ameriprise Financial,Q2843129
https://www.ameripriseadvisors.com/donna.peterson/contact/,ameriprise_us,Donna Peterson,,Chicago,IL,,US,+1 312-706-6875,https://www.ameripriseadvisors.com/donna.peterson/,,Ameriprise Financial,Q2843129
https://www.ameripriseadvisors.com/david.j.winekoff/contact/,ameriprise_us,David Winekoff,,Chicago,IL,,US,+1 312-706-6878,https://www.ameripriseadvisors.com/david.j.winekoff/,Mo-Th 08:00-06:00; Fr 08:00-04:00,Ameriprise Financial,Q2843129
https://www.ameripriseadvisors.com/david.serrano/contact/,ameriprise_us,David W Serrano,,Chicago,IL,,US,+1 312-706-6843,https://www.ameripriseadvisors.com/david.serrano/,,Ameriprise Financial,Q2843129
https://www.ameripriseadvisors.com/ben.alberts/contact/,ameriprise_us,Ben Alberts,,Chicago,IL,,US,+1 312-706-3041,https://www.ameripriseadvisors.com/ben.alberts/,Mo-Fr 08:00-05:00,Ameriprise Financial,Q2843129
https://www.ameripriseadvisors.com/bonnie.schultz/contact/,ameriprise_us,Bonnie Schultz,,Chicago,IL,,US,+1 312-762-1500,https://www.ameripriseadvisors.com/bonnie.schultz/,Mo-Fr 05:30-04:00,Ameriprise Financial,Q2843129
https://www.ameripriseadvisors.com/brandon.hunt/contact/,ameriprise_us,Brandon John Hunt,,Chicago,IL,,US,+1 312-706-6831,https://www.ameripriseadvisors.com/brandon.hunt/,Mo-Fr 08:00-05:00,Ameriprise Financial,Q2843129
https://www.ameripriseadvisors.com/carolyn.thur/contact/,ameriprise_us,Carolyn Thur,,Chicago,IL,,US,+1 312-706-6850,https://www.ameripriseadvisors.com/carolyn.thur/,Mo-Fr 08:00-04:00,Ameriprise Financial,Q2843129
https://www.ameripriseadvisors.com/christopher.m.tomes/contact/,ameriprise_us,Christopher Tomes,,Chicago,IL,,US,+1 312-706-6828,https://www.ameripriseadvisors.com/christopher.m.tomes/,Mo-Fr 09:00-05:00,Ameriprise Financial,Q2843129
