Ref,Spider,Name,Address,City,State,Zipcode,Country,Phone,Website,Hours,Brand,WikiData
2304,autozone_us,AutoZone Auto Parts Canton,,Canton,MS,,US,+1 601-859-9697,https://www.autozone.com/locations/ms/canton/710-w-peace-st.html,Mo-Sa 07:00-21:00; Su 12:00-20:00,AutoZone,Q4826087
59325,bluerhino,Love's #208,,Canton,MS,,US,+1 601-859-9370,,,Blue Rhino,Q65681213
140404,bluerhino,Walmart #3059 - Supercenter,,Canton,MS,,US,+1 601-761-6000,,,Blue Rhino,Q65681213
193697,bluerhino,Canton Food Services dba Piggly Wiggly #181,,Canton,MS,,US,+1 601-509-4527,,,Blue Rhino,Q65681213
229170,bluerhino,Quick Fill #3,,Canton,MS,,US,+1 601-497-7992,,,Blue Rhino,Q65681213
180962,bluerhino,Family Dollar #03506,,Canton,MS,,US,+1 601-760-2647,,,Blue Rhino,Q65681213
236981,bluerhino,Circle K #2723435,,Canton,MS,,US,+1 601-859-5184,,,Blue Rhino,Q65681213
162091,bluerhino,Quick Fill,,Canton,MS,,US,+1 601-497-7992,,,Blue Rhino,Q65681213
27007,burgerking,Burger King,,Canton,MS,,US,+1 601-691-4070,https://www.bk.com/store-locator/store/restaurant_88688,Mo-Sa 07:00-21:00; Su 07:00-20:00,Burger King,Q177054
https://stores.catofashions.com/#26560635,cato_us,Cato,,,MS,,US,+1 601-859-3837,https://stores.catofashions.com/ms/canton/1058-east-peace-street,Mo-Sa 11:00-19:00; Su 13:00-18:00,Cato,Q16956136
308249,chevron,Texaco Station #308249,1534 W PEACE ST,CANTON,MS,,US,+1 601-829-0517,,,Chevron,Q319642
381321,chevron,Texaco Station #381321,1226 W PEACE ST,CANTON,MS,,US,,,,Chevron,Q319642
377978,chevron,Texaco Station #377978,340 CALHOUN PARKWAY,CANTON,MS,,US,+1 601-622-0399,,,Chevron,Q319642
41319,citi,ATM Circle K,,Canton,MS,,US,,,,Citibank,Q857063
om_ms_canton_189-e-peace-street,cititrends,Citi Trends,,Canton,MS,,US,+1 769-969-1250,https://locations.cititrends.com/ms/canton/189-e-peace-street.html,Mo 11:00-20:00; Tu 11:00-20:00; We 11:00-20:00; Th 11:00-20:00; Fr 10:00-20:00; Sa 10:00-20:00; Su 12:00-18:00,Citi Trends,Q5122438
,credit_union_us,Veritas FCU,,Canton,MS,,US,+1 855-663-8328,,Mo-Tu 08:00-05:00; We 07:30-03:00; Th 08:00-05:00; Fr 07:30-05:00,,
80325107,cricket_wireless,Cricket Wireless Authorized Retailer,,Canton,MS,,US,+1 601-407-6054,https://www.cricketwireless.com/stores/ll/US/MS/Canton/479-W-Peace-St,Mo-Sa 10:00-19:00; Su 12:00-17:00,Cricket Wireless,Q5184987
7103,dollartree,DollarTree,,Canton,MS,,US,+1 601-761-6030,,Mo-Su 09:00-21:00,Dollar Tree,Q5289230
5969,dominos_pizza_us,Domino's Pizza,,Canton,MS,,US,+1 601-855-2433,https://pizza.dominos.com/mississippi/canton/1150-e-peace-st,Mo-Th 10:00-24:00; Fr-Sa 10:00-01:00; Su 10:00-24:00,Domino's,Q839466
1804,eightyfour_lumber_us,CANTON,,CANTON,MS,,US,+1 601-407-1484,https://www.84lumber.com/store-locator/store-detail/?storeId=1804,Mo-Fr 07:00-17:00,84 Lumber,Q4644779
1000000549,extra_space_storage,Canton Self Storage at 122 Yandell Rd,,Canton,MS,,US,+1 601-853-9930,https://www.extraspace.com/storage/facilities/us/mississippi/canton/1000000549/,Mo-Su 06:00-22:00,Extra Space Storage,Q5422162
200329014,exxonmobil,NEIGHBORS,,CANTON,MS,,US,+1 601-407-6167,https://www.exxon.com/en/find-station/exxon-canton-ms-neighbors-200329014,Mo-Sa 05:00-23:00; Su 06:00-22:00,Exxon,Q109675651
200321281,exxonmobil,DEERFIELD EXPRESS,,CANTON,MS,,US,+1 601-427-5442,https://www.exxon.com/en/find-station/exxon-canton-ms-deerfieldexpress-200321281,Mo-Th 05:00-23:00; Fr-Sa 05:00-00:00; Su 05:00-23:00,Exxon,Q109675651
200316746,exxonmobil,SUPER SAVER #6,,CANTON,MS,,US,+1 601-855-5060,https://www.exxon.com/en/find-station/exxon-canton-ms-supersaver6-200316746,Mo-Sa 05:00-22:00; Su 07:00-22:00,Exxon,Q109675651
30265,family_dollar_us,FAMILY DOLLAR #10265,,Canton,MS,,US,+1 601-667-6279,https://www.familydollar.com/locations/ms/canton/30265/,Mo-Su 09:00-21:00,Family Dollar,Q5433101
1454,fresenius_kidney_care_us,Fresenius Kidney Care Canton,,Canton,MS,,US,+1 800-881-5101,https://www.freseniuskidneycare.com/dialysis-centers/mississippi/1454,Mo-Sa 06:00-16:30,,
ctnmshx-hampton-canton,hilton,Hampton Inn Canton,,,MS,,US,+1 601-859-8700,https://www.hilton.com/ar/hotels/ctnmshx-hampton-canton/,,Hampton by Hilton,Q5646230
23413,h_r_block,H&R Block,,Canton,MS,,US,+1 601-855-7512,https://www.hrblock.com/local-tax-offices/mississippi/canton/164-w-center-st-c1/23413/,,H&R Block,Q5627799
https://stores.itsfashions.com/#26560029,its_fashions_us,It's Fashion Peace Street Crossing,,,MS,,US,+1 601-859-4474,https://stores.itsfashions.com/ms/canton/1046-east-peace-street,Mo-Sa 10:00-19:00; Su 13:00-18:00,It's Fashion,Q122762765
https://office.jacksonhewitt.com/#27576302,jackson_hewitt,Jackson Hewitt,,Canton,MS,,US,+1 601-372-6733,https://office.jacksonhewitt.com/tax-preparation-services-locations/en/ms/canton/244-feather-lane/53059,Mo-Fr 10:00-19:00; Sa 10:00-17:00; Su 13:00-17:00,Jackson Hewitt,Q6117132
https://locations.kfc.com/#11250330,kfc,Chicken Nuggets Near Canton,,Canton,MS,,US,,https://locations.kfc.com/ms/canton/1548-peace-street/chickennugget,Mo-Su 10:30-22:00,KFC,Q524757
208,loves,Site 208,,Canton,MS,,US,+1 601-859-9370,,,Love's,Q1872496
156558,marathon_petroleum_us,CANTON MARATHON,,CANTON,MS,,US,+1 601-859-8025,,,Marathon,Q458363
2420,mightyflame,LAKESIDE FOODMART #12 SHELL,,BRANDON,MS,,US,+1 601-398-0651,,,Mighty Flame,
3771,mightyflame,PPL FOOD INC. SHELL,,CANTON,MS,,US,+1 601-291-1386,,,Mighty Flame,
1826,mightyflame,GERMANTOWN MARKET,,CANTON,MS,,US,+1 601-859-1267,,,Mighty Flame,
1546,mightyflame,SUPER SAVER EXXON,,CANTON,MS,,US,+1 601-855-5060,,,Mighty Flame,
1027,mightyflame,JASCO CANTON CITGO,,CANTON,MS,,US,+1 662-607-2445,,,Mighty Flame,
967,mightyflame,22 CHEVRON,,CANTON,MS,,US,+1 601-859-2608,,,Mighty Flame,
4388,mightyflame,STAR MART TEXACO,,CANTON,MS,,US,+1 601-855-2283,,,Mighty Flame,
1540,mightyflame,EXXON,,CANTON,MS,,US,+1 724-410-7191,,,Mighty Flame,
893,mightyflame,CANTON MART,,CANTON,MS,,US,+1 601-667-3004,,,Mighty Flame,
2247,mightyflame,K&K ONE STOP,,CANTON,MS,,US,+1 601-859-2842,,,Mighty Flame,
957,mightyflame,CHANDI FOOD MART,,CANTON,MS,,US,+1 601-559-6443,,,Mighty Flame,
4332,mightyflame,SPEEDY MINI MART,,CANTON,MS,,US,+1 601-859-6700,,,Mighty Flame,
887,mightyflame,CANTON DISCOUNT PHARMACY,,CANTON,MS,,US,+1 601-859-3827,,,Mighty Flame,
4824,mightyflame,CANTON TOBACCO,,CANTON,MS,,US,+1 601-407-1128,,,Mighty Flame,
409,mightyflame,SINGH QUICK & EASY (SHAKI #4),,CANTON,MS,,US,+1 601-407-6367,,,Mighty Flame,
415,mightyflame,51 ONE STOP,,CANTON,MS,,US,+1 601-691-5165,,,Mighty Flame,
2077,mightyflame,EXXON HWY 45,,MACON,MS,,US,+1 662-726-9031,,,Mighty Flame,
40043603,moneygram,CANTON DISCOUNT DRUGS - #0001,,CANTON,MS,,US,+1 601-859-3827,,Mo-Th 07:45-19:30; Fr-Sa 07:45-20:00; Su 12:45-17:00,MoneyGram,Q1944412
https://locations.oreillyauto.com/ms/canton/check-engine-light-testing-1189.html,oreilly,Your Canton O'Reilly Auto Parts Store,,Canton,MS,,US,+1 601-855-0820,https://locations.oreillyauto.com/ms/canton/check-engine-light-testing-1189.html,Mo-Sa 07:00-21:00; Su 12:00-20:00,O'Reilly Auto Parts,Q7071951
https://locations.oreillyauto.com/ms/canton/wiper-installation-1189.html,oreilly,Your Canton O'Reilly Auto Parts Store,,Canton,MS,,US,+1 601-855-0820,https://locations.oreillyauto.com/ms/canton/wiper-installation-1189.html,Mo-Sa 07:00-21:00; Su 12:00-20:00,O'Reilly Auto Parts,Q7071951
https://locations.oreillyauto.com/ms/canton/battery-testing-1189.html,oreilly,Your Canton O'Reilly Auto Parts Store,,Canton,MS,,US,+1 601-855-0820,https://locations.oreillyauto.com/ms/canton/battery-testing-1189.html,Mo-Sa 07:00-21:00; Su 12:00-20:00,O'Reilly Auto Parts,Q7071951
https://locations.oreillyauto.com/ms/canton/autopartes-1189.html,oreilly,Tu tienda O'Reilly Auto Parts en Canton,,Canton,MS,,US,+1 601-855-0820,https://locations.oreillyauto.com/ms/canton/autopartes-1189.html,Mo-Sa 07:00-21:00; Su 12:00-20:00,O'Reilly Auto Parts,Q7071951
034984,penske,Big River Rentals,,CANTON,MS,,US,+1 601-924-2698,https://www.pensketruckrental.com/locations/us/mississippi/canton/034984/,,Penske,Q81234570
208,piggly_wiggly_us,Piggly Wiggly,,Canton,MS,,US,+1 601-509-4527,,,Piggly Wiggly,Q3388303
ms_canton_552-w-peace-st,pizza_hut_us,552 W Peace St,,Canton,MS,,US,+1 601-859-9067,https://locations.pizzahut.com/ms/canton/552-w-peace-st,,Pizza Hut,Q191615
restaurant_82194,popeyes_us_fr,Popeyes,"1418 W Peace St Canton, Mississippi 39046 - USA",Canton,MS,,US,+1 601-859-8398,https://www.popeyes.com/store-locator/store/restaurant_82194,Mo-Su 10:00-21:00,Popeyes,Q1330910
https://restaurants.subway.com/#14903071,subway,Subway Wal-Mart #3059,,Canton Madison,MS,,US,+1 601-859-2727,https://restaurants.subway.com/united-states/ms/canton/244-feather-lane,Mo-Su 08:00-21:00,Subway,Q244457
https://restaurants.subway.com/#14899255,subway,Subway,,Canton Madison,MS,,US,+1 601-859-3200,https://restaurants.subway.com/united-states/ms/canton/3360-n-liberty-st,Mo-Su 08:00-21:00,Subway,Q244457
https://locations.tacobell.com/#9916811,taco_bell,Taco Bell,,Canton,MS,,US,+1 601-859-0440,https://locations.tacobell.com/ms/canton/118-soldier-colony-rd.html,Mo-Th 10:00-23:00; Fr-Sa 10:00-24:00; Su 10:00-23:00,Taco Bell,Q752941
1356889,usps,CANTON,,CANTON,MS,,US,+1 601-855-7245,,Mo-Fr 08:00-16:30; Sa 09:00-11:00,United States Postal Service,Q668687
3904600001,usps_collection_boxes,USPS COLLECTION BOX - PO LOBBY,150 S UNION ST,CANTON,MS,,US,,,,United States Postal Service,Q668687
3904600002,usps_collection_boxes,USPS COLLECTION BOX - PO LOBBY,150 S UNION ST,CANTON,MS,,US,,,,United States Postal Service,Q668687
3904600003,usps_collection_boxes,USPS COLLECTION BOX - BLUE BOX,150 S UNION ST,CANTON,MS,,US,,,,United States Postal Service,Q668687
3904600004,usps_collection_boxes,USPS COLLECTION BOX - BLUE BOX,150 S UNION ST,CANTON,MS,,US,,,,United States Postal Service,Q668687
3904600017,usps_collection_boxes,USPS COLLECTION BOX - BLUE BOX,150 S UNION ST,CANTON,MS,,US,,,,United States Postal Service,Q668687
3904600021,usps_collection_boxes,USPS COLLECTION BOX - PO LOBBY,150 S UNION ST,CANTON,MS,,US,,,,United States Postal Service,Q668687
3904600024,usps_collection_boxes,USPS COLLECTION BOX - PO LOBBY,150 S UNION ST,CANTON,MS,,US,,,,United States Postal Service,Q668687
canton_oil-change-il0001,valvoline_instant_oil_change,Valvoline,1100 East Peace Street ,Canton,MS,,US,+1 601-859-8433,https://store.vioc.com/ms/canton/oil-change-il0001.html,,Valvoline Instant Oil Change,Q7912852
,visa,,,CANTON,MS,,US,,,,,
,visa,,,CANTON,MS,,US,,,,,
,visa,,,CANTON,MS,,US,,,,,
,visa,,,CANTON,MS,,US,,,,,
,visa,,,CANTON,MS,,US,,,,,
,visa,,,CANTON,MS,,US,,,,,
,visa,,,CANTON,MS,,US,,,,,
,visa,,,CANTON,MS,,US,,,,,
,visa,,,CANTON,MS,,US,,,,,
,visa,,,CANTON,MS,,US,,,,,
,visa,,,CANTON,MS,,US,,,,,
,visa,,,CANTON,MS,,US,,,,,
,visa,,,CANTON,MS,,US,,,,,
,visa,,,CANTON,MS,,US,,,,,
,visa,,,CANTON,MS,,US,,,,,
,visa,,,CANTON,MS,,US,,,,,
,visa,,,CANTON,MS,,US,,,,,
,visa,,,CANTON,MS,,US,,,,,
,visa,,,CANTON,MS,,US,,,,,
,visa,,,CANTON,MS,,US,,,,,
,visa,,,CANTON,MS,,US,,,,,
,visa,,,CANTON,MS,,US,,,,,
,visa,,,CANTON,MS,,US,,,,,
,visa,,,CANTON,MS,,US,,,,,
,visa,,,CANTON,MS,,US,,,,,
,visa,,,CANTON,MS,,US,,,,,
,visa,,,CANTON,MS,,US,,,,,
,visa,,,CANTON,MS,,US,,,,,
,visa,,,CANTON,MS,,US,,,,,
,visa,,,CANTON,MS,,US,,,,,
,visa,,,CANTON,MS,,US,,,,,
,visa,,,CANTON,MS,,US,,,,,
,visa,,,CANTON,MS,,US,,,,,
,visa,,,CANTON,MS,,US,,,,,
,visa,,,CANTON,MS,,US,,,,,
,visa,,,CANTON,MS,,US,,,,,
,visa,,,CANTON,MS,,US,,,,,
,visa,,,CANTON,MS,,US,,,,,
,visa,,,CANTON,MS,,US,,,,,
,visa,,,CANTON,MS,,US,,,,,
,visa,,,CANTON,MS,,US,,,,,
,visa,,,CANTON,MS,,US,,,,,
,visa,,,CANTON,MS,,US,,,,,
,visa,,,CANTON,MS,,US,,,,,
,visa,,,CANTON,MS,,US,,,,,
,visa,,,CANTON,MS,,US,,,,,
,visa,,,CANTON,MS,,US,,,,,
,visa,,,CANTON,MS,,US,,,,,
,visa,,,CANTON,MS,,US,,,,,
,visa,,,CANTON,MS,,US,,,,,
,visa,,,CANTON,MS,,US,,,,,
,visa,,,CANTON,MS,,US,,,,,
,visa,,,CANTON,MS,,US,,,,,
,visa,,,CANTON,MS,,US,,,,,
,visa,,,CANTON,MS,,US,,,,,
,visa,,,CANTON,MS,,US,,,,,
,visa,,,CLINTON,MS,,US,,,,,
1874,waffle_house_us,Waffle House #1874,,CANTON,MS,,US,+1 601-859-2523,https://locations.wafflehouse.com/canton-ms-1874,24/7,Waffle House,Q1701206
https://locations.wendys.com/#9251250,wendys,"Wendy's Canton, Ms. in Canton, MS",,Canton,MS,,US,+1 601-859-7764,https://locations.wendys.com/united-states/ms/canton/1434-highway-22-w,"Mo-Su 06:30-10:30,09:00-22:00",Wendy's,Q550258
https://locations.wendys.com/#9251249,wendys,"Wendy's Canton in Canton, MS",,Canton,MS,,US,+1 601-859-4484,https://locations.wendys.com/united-states/ms/canton/1307-east-peace-street,"Mo-Su 06:30-10:30,09:00-22:00",Wendy's,Q550258
c105954e36f7165a61b56a70e6467825,western_union,WALMART #003059,,Canton,MS,,US,+1 601-761-6000,https://location.westernunion.com/us/ms/canton/c105954e36f7165a61b56a70e6467825,Mo-Sa 08:00-20:00; Su 10:00-18:00,Western Union,Q861042
0da4df71811eff13f8fdbb58d73c6653,western_union,ADVANCE AMERICA #02007,,Canton,MS,,US,+1 601-855-9330,https://location.westernunion.com/us/ms/canton/0da4df71811eff13f8fdbb58d73c6653,Mo-Th 10:00-18:00; Fr 09:00-18:00; Sa 09:00-14:00,Western Union,Q861042
81c7b42012f4c11f128ef299b68b58ca,western_union,TOBACCO DEPOT,,Canton,MS,,US,+1 601-859-5620,https://location.westernunion.com/us/ms/canton/81c7b42012f4c11f128ef299b68b58ca,Mo-Su 08:00-20:00,Western Union,Q861042
c7b0eeafd0f9231353d4f84b4a5970fc,western_union,TIENDA LA LIBERTAD #3,,Canton,MS,,US,+1 601-407-6226,https://location.westernunion.com/us/ms/canton/c7b0eeafd0f9231353d4f84b4a5970fc,Mo-Su 07:00-20:00,Western Union,Q861042
