Ref,Spider,Name,Address,City,State,Zipcode,Country,Phone,Website,Hours,Brand,WikiData
72521054,moneygram,CAR HUB TOURS AND TRAVELS,,JAMSHEDPUR,,,IN,+91 81026 33499,,Mo-Su 08:00-21:00,MoneyGram,Q1944412
72555334,moneygram,N CYBER,,JAMSHEDPUR,,,IN,+91 99345 20605,,Mo-Su 08:00-21:00,MoneyGram,Q1944412
72531976,moneygram,SONI ENTERPRISES,,AZADNAGAR,,,IN,+91 77799 92268,,Mo-Su 08:00-21:00,MoneyGram,Q1944412
72590603,moneygram,SHAHID TRAVEL,,JAMSHEDPUR,,,IN,+91 93045 61448,,Mo-Su 08:00-21:00,MoneyGram,Q1944412
73398118,moneygram,NISHAT AHMAD,,JAMSHEDPUR,,,IN,+91 91229 00102,,Mo-Su 08:00-21:00,MoneyGram,Q1944412
73399968,moneygram,RAJ HOLIDAYS,,JAMSHEDPUR,,,IN,+91 96611 74818,,Mo-Su 08:00-21:00,MoneyGram,Q1944412
73403676,moneygram,SKY WORLD TOURTRAVELS,,JAMSHEDPUR,,,IN,+91 91133 23382,,Mo-Su 08:00-21:00,MoneyGram,Q1944412
73403731,moneygram,SMS COMMUNICATION TOUR AND TRAVELS,,JAMSHEDPUR,,,IN,+91 99345 47334,,Mo-Su 08:00-21:00,MoneyGram,Q1944412
73735454,moneygram,ATIB NET ZONE,,JAMSHEDPUR,,,IN,+91 92346 11927,,Mo-Su 08:00-21:00,MoneyGram,Q1944412
73753656,moneygram,ONLINE KENDRA,,JAMSHEDPUR,,,IN,+91 62013 29298,,Mo-Su 08:00-21:00,MoneyGram,Q1944412
73815882,moneygram,Z ZONE,,JAMSHEDPUR,,,IN,+91 74887 11481,,Mo-Su 08:00-21:00,MoneyGram,Q1944412
73640125,moneygram,ANSARI TRAVELS,,JAMSHEDPUR,,,IN,+91 87577 97786,,Mo-Su 08:00-21:00,MoneyGram,Q1944412
74114825,moneygram,OCS ON CALL SERVICES,,JAMSHEDPUR,,,IN,+91 80847 00990,,Mo-Su 08:00-21:00,MoneyGram,Q1944412
74115646,moneygram,SOURYA COMMUNICATION AND STATIONARY,,JAMSHEDPUR,,,IN,+91 99739 67190,,Mo-Su 08:00-21:00,MoneyGram,Q1944412
74115235,moneygram,XPLORE INDIA,,JAMSHEDPUR,,,IN,+91 98353 74204,,Mo-Su 08:00-21:00,MoneyGram,Q1944412
74187755,moneygram,DIGITAL PUBLIC SERVICE,,JAMSHEDPUR,,,IN,+91 74881 28705,,Mo-Su 08:00-21:00,MoneyGram,Q1944412
74271111,moneygram,ASIAN TRAVELS,,JAMSHEDPUR,,,IN,+91 87891 10046,,Mo-Su 08:00-21:00,MoneyGram,Q1944412
71609016,moneygram,SHAHID TRAVELS - EAST SINGHBHUM - EAST S,,EAST SINGHBHUM,,,IN,+91 93045 61448,,Mo-Su 08:00-20:00,MoneyGram,Q1944412
71608334,moneygram,ATEEB NET ZONE - JAMSHEDPUR - JAMSHEDPUR,,JAMSHEDPUR,,,IN,+91 92346 11927,,Mo-Su 09:00-21:00,MoneyGram,Q1944412
