Ref,Spider,Name,Address,City,State,Zipcode,Country,Phone,Website,Hours,Brand,WikiData
159458,bluerhino,United - Big Stone Area Hardware #006836,,Ortonville,MN,,US,+1 320-487-2000,,,Blue Rhino,Q65681213
167841,bluerhino,Hartman's SuperValu Foods #140272,,Ortonville,MN,,US,+1 320-839-2583,,,Blue Rhino,Q65681213
203634,bluerhino,CASEY'S GENERAL STORE #3675,,ORTONVILLE,MN,,US,+1 320-839-4206,,,Blue Rhino,Q65681213
65573,citi,ATM MINNWEST BANK ORTONVILLE,,Ortonville,MN,,US,,,,Citibank,Q857063
22822,h_r_block,H&R Block,,Ortonville,MN,,US,+1 320-839-3295,https://www.hrblock.com/local-tax-offices/minnesota/ortonville/131-nw-2nd-st/22822/,,H&R Block,Q5627799
175491,little_free_library,JKE Little Free Library #175491 Ortonville MN,,Ortonville,MN,,US,,,,Little Free Library,Q6650101
https://restaurants.subway.com/#14893915,subway,Subway,,Ortonville Big Stone,MN,,US,+1 320-839-9996,https://restaurants.subway.com/united-states/mn/ortonville/701-2nd-s-se,Mo-Su 08:00-21:00,Subway,Q244457
1376335,usps,ORTONVILLE,,ORTONVILLE,MN,,US,+1 320-839-2883,,Mo-Fr 08:30-16:00; Sa 09:00-10:00,United States Postal Service,Q668687
5627800001,usps_collection_boxes,USPS COLLECTION BOX - BLUE BOX,104 JACKSON AVE,ORTONVILLE,MN,,US,,,,United States Postal Service,Q668687
5627800005,usps_collection_boxes,USPS COLLECTION BOX - PO LOBBY,104 JACKSON AVE,ORTONVILLE,MN,,US,,,,United States Postal Service,Q668687
5627800006,usps_collection_boxes,USPS COLLECTION BOX - PO LOBBY,104 JACKSON AVE,ORTONVILLE,MN,,US,,,,United States Postal Service,Q668687
5627800003,usps_collection_boxes,USPS COLLECTION BOX - BLUE BOX,147 2ND ST NW,ORTONVILLE,MN,,US,,,,United States Postal Service,Q668687
A00000189163,verizon_us,Wireless World Ortonville,,ORTONVILLE,MN,,US,+1 320-839-3264,https://www.verizon.com/stores/details/minnesota/ortonville/design-electronics-ortonville-1880622/,Mo-Fr 09:30-17:30,Verizon,Q919641
,visa,,,ORTONVILLE,MN,,US,,,,,
,visa,,,ORTONVILLE,MN,,US,,,,,
,visa,,,ORTONVILLE,MN,,US,,,,,
,visa,,,ORTONVILLE,MN,,US,,,,,
,visa,,,ORTONVILLE,MN,,US,,,,,
,visa,,,ORTONVILLE,MN,,US,,,,,
,visa,,,ORTONVILLE,MN,,US,,,,,
,visa,,,ORTONVILLE,MN,,US,,,,,
