Ref,Spider,Name,Address,City,State,Zipcode,Country,Phone,Website,Hours,Brand,WikiData
https://locations.atipt.com/brookline-ma,ati_physical_therapy,ATI Physical Therapy Brookline 2003,,Brookline,MA,,US,+1 617-232-6633,https://locations.atipt.com/brookline-ma,,ATI Physical Therapy,Q50039703
https://locators.bankofamerica.com/ma/brookline/financial-centers-brookline-14323.html,bankofamerica,Bank of America Financial Center & Drive-Thru ATM | Coolidge Corner,,Brookline,MA,,US,+1 617-713-6301,https://locators.bankofamerica.com/ma/brookline/financial-centers-brookline-14323.html,Mo-Fr 09:00-17:00; Sa 09:00-14:00,Bank of America,Q487907
12986989,barre3,Brookline,"1624 Beacon Street, Brookline, Massachusetts, 02446",Brookline,MA,,US,+1 617-860-6068,https://barre3.com/studio-locations/brookline,,Barre3,Q120601241
https://child-care-preschool.brighthorizons.com/MA/Brookline/brookline,brighthorizons,Bright Horizons at Brookline,,Brookline,MA,,US,+1 617-232-0395,https://child-care-preschool.brighthorizons.com/ma/brookline/brookline,Mo-Fr 07:00-18:00,Bright Horizons,Q4967421
253-harvard-st,brueggers,Bruegger's Bagels Brookline,,Brookline,MA,,US,+1 617-566-3983,https://locations.brueggers.com/us/ma/brookline/253-harvard-st,Mo-Su 06:00-14:00,Bruegger's,Q4978656
1133,buffalo_exchange_us,Boston &#8211; Brookline,312 Harvard St,"Brookline,",MA,,US,+1 617-779-7901,https://buffaloexchange.com/location/brookline-boston/,,Buffalo Exchange,Q4985721
7647,careone_us,CareOne at Brookline,,Brookline,MA,,US,+1 617-991-2774,,,CareOne,Q25108589
12878088,chase_us,Coolidge Corner - New branch,,Brookline,MA,,US,+1 617-487-6040,https://locator.chase.com/ma/brookline/1364-beacon-st,Mo-Fr 09:00-17:00; Sa 09:00-13:00,Chase,Q524629
94448,citi,ATM Webster Bank,,Brookline,MA,,US,,,,Citibank,Q857063
49921,citi,ATM CVS,,Brookline,MA,,US,,,,Citibank,Q857063
93666,citi,ATM Walgreens,,Brookline,MA,,US,,,,Citibank,Q857063
58732,citi,ATM HARBORONE BANK (MHC),,Brookline,MA,,US,,,,Citibank,Q857063
81003,citi,ATM Sunoco,,Brookline,MA,,US,,,,Citibank,Q857063
50813,citi,ATM CVS,,Brookline,MA,,US,,,,Citibank,Q857063
51439,citi,ATM CVS,,Brookline,MA,,US,,,,Citibank,Q857063
101511,citizens_us,Citizens Coolidge Corner South,,Brookline,MA,,US,+1 617-731-1900,,Mo-Fr 09:00-16:00; Sa 09:00-12:00,Citizens,Q5122694
ATM-683,citizens_us,,,Brookline,MA,,US,+1 617-731-3911,,24/7,Citizens,Q5122694
ATM-684,citizens_us,,,Brookline,MA,,US,+1 617-731-4074,,24/7,Citizens,Q5122694
ATM-1003,citizens_us,,,Brookline,MA,,US,,,,Citizens,Q5122694
1212,cvs_us,CVS Pharmacy,,Brookline,MA,,US,+1 617-731-6860,https://www.cvs.com/store-locator/brookline-ma-pharmacies/294-harvard-street-brookline-ma-02446/storeid=1212,Mo-Su 07:00-00:00,CVS Pharmacy,Q2078880
1071,cvs_us,CVS Pharmacy,,Brookline,MA,,US,+1 617-277-6626,https://www.cvs.com/store-locator/brookline-ma-pharmacies/400-washington-st-brookline-ma-02446/storeid=1071,Mo-Su 08:00-22:00,CVS Pharmacy,Q2078880
308618,dunkin_us,Dunkin',,Brookline,MA,,US,+1 617-232-9252,https://locations.dunkindonuts.com/en/ma/brookline/1316-beacon-st/308618,Mo-Su 05:00-19:00,Dunkin',Q847743
0416,european_wax_center_us,European Wax Center,,Brookline,MA,,US,+1 617-906-6111,https://locations.waxcenter.com/ma/brookline/brookline-coolidge-corner-0416.html,Mo-Fr 08:00-20:00; Sa 08:00-17:00; Su 09:00-17:00,European Wax Center,Q5413426
6963,gamestop_us,Coolidge Corners,,Brookline,MA,,US,+1 617-713-6313,https://www.gamestop.com/search/?store=6963,Mo-Th 12:00-20:00; Fr-Sa 12:00-21:00; Su 11:00-19:00,GameStop,Q202210
20061,h_r_block,H&R Block,,Brookline,MA,,US,+1 617-738-0209,https://www.hrblock.com/local-tax-offices/massachusetts/brookline/247-harvard-st/20061/,,H&R Block,Q5627799
longwood-towers,indigo,Longwood Towers,,Brookline,MA,,US,+1 617-975-2840,,,Indigo,Q3559970
BOSBL,marriott,Courtyard Boston Brookline,,Brookline,MA,,US,+1 617-734-1393,https://www.marriott.com/BOSBL,,Courtyard by Marriott,Q1053170
https://locations.massageenvy.com/#1773963,massage_envy,Massage Envy Brookline,,Brookline,MA,,US,+1 617-277-5600,https://locations.massageenvy.com/massachusetts/brookline/481-harvard-street.html,Mo-Sa 09:00-20:00; Su 10:00-18:00,Massage Envy,Q10327170
16808,mattress_firm_us,Mattress Firm Beacon Street,,Brookline,MA,,US,+1 857-364-0204,https://www.mattressfirm.com/en-us/stores/ma/brookline/154011/,,Mattress Firm,Q6791878
1080,paper_source_us,"Brookline, MA",,Brookline,MA,,US,+1 617-264-2800,https://www.papersource.com/locator/ma-brookline/,Mo-Tu 10:00-19:00; We-Fr 10:00-20:00; Sa 10:00-19:00; Su 11:00-18:00,Paper Source,Q25000269
568,pure_barre_us,Brookline,,Brookline,MA,,US,+1 617-232-1242,https://www.purebarre.com/location/brookline-ma,,Pure Barre,Q86707084
0001,stop_and_shop,Stop & Shop,155 Harvard Street,Brookline,MA,,US,,,,Stop and Shop,Q3658429
0424311903,sunoco_us,Sunoco,,BROOKLINE,MA,,US,+1 617-713-0651,,Mo-Su 06:00-23:00,Sunoco,Q1423218
80927,supercuts,Pierce Building,1336 Beacon St,Brookline,MA,,US,+1 617-277-9600,https://www.supercuts.com/checkin/80927,Mo-Fr 10:00-18:00; Sa 09:00-18:00; Su 10:00-17:00,Supercuts,Q7643239
https://locations.tacobell.com/#64348190,taco_bell,Taco Bell Cantina,,Brookline,MA,,US,+1 617-906-8595,https://locations.tacobell.com/ma/brookline/276-harvard-st.html,,Taco Bell,Q111972226
08569,tjx,Brookline,525 Harvard Street,Brookline,MA,,US,+1 617-232-5420,,Mo-Sa 09:30-21:30; Su 10:00-20:00,TJ Maxx,Q10860683
3SMN,tmobile_us,Coolidge Corner,,Brookline,MA,,US,+1 617-277-0600,https://www.t-mobile.com/store-locator/ma/brookline/coolidge-corner,,T-Mobile,Q3511885
501,trader_joes_us,Trader Joe's Brookline (501),,Brookline,MA,,US,+1 617-278-9997,https://locations.traderjoes.com/ma/brookline/501/,Mo-Su 08:00-21:00,Trader Joe's,Q688825
100364,two_men_and_truck,Downtown Boston,1309 Beacon St,Brookline,MA,,US,+1 339-227-6773,https://twomenandatruck.com/movers/ma/boston/downtown,,Two Men and a Truck,Q7859087
6397,upsstore,Brookline,258 Harvard St,Brookline,MA,,US,+1 617-730-8300,https://locations.theupsstore.com/ma/brookline/258-harvard-st,,UPS Store,Q7771029
1434243,usps,BROOKLINE,,BROOKLINE,MA,,US,+1 617-738-1649,,Mo-Fr 07:00-19:00; Sa 07:00-16:00,United States Postal Service,Q668687
0244600207,usps_collection_boxes,USPS COLLECTION BOX - BLUE BOX,387 WASHINGTON ST,BROOKLINE,MA,,US,,,,United States Postal Service,Q668687
0244600122,usps_collection_boxes,USPS COLLECTION BOX - BLUE BOX,168 ASPINWALL AVE,BROOKLINE,MA,,US,,,,United States Postal Service,Q668687
0244600118,usps_collection_boxes,USPS COLLECTION BOX - BLUE BOX,58 ALTON PL,BROOKLINE,MA,,US,,,,United States Postal Service,Q668687
0244600108,usps_collection_boxes,USPS COLLECTION BOX - BLUE BOX,82 FRANCIS ST,BROOKLINE,MA,,US,,,,United States Postal Service,Q668687
0244600141,usps_collection_boxes,USPS COLLECTION BOX - BLUE BOX,185 HARVARD ST,BROOKLINE,MA,,US,,,,United States Postal Service,Q668687
0244600180,usps_collection_boxes,USPS COLLECTION BOX - BLUE BOX,50 PARK ST,BROOKLINE,MA,,US,,,,United States Postal Service,Q668687
0244600205,usps_collection_boxes,USPS COLLECTION BOX - BLUE BOX,35 VERNON ST,BROOKLINE,MA,,US,,,,United States Postal Service,Q668687
0244600143,usps_collection_boxes,USPS COLLECTION BOX - BLUE BOX,209 HARVARD ST,BROOKLINE,MA,,US,,,,United States Postal Service,Q668687
0244600105,usps_collection_boxes,USPS COLLECTION BOX - BLUE BOX,1 FRANCIS ST,BROOKLINE,MA,,US,,,,United States Postal Service,Q668687
0244600167,usps_collection_boxes,USPS COLLECTION BOX - BLUE BOX,32 MARION ST,BROOKLINE,MA,,US,,,,United States Postal Service,Q668687
0244600193,usps_collection_boxes,USPS COLLECTION BOX - BLUE BOX,118 SAINT PAUL ST,BROOKLINE,MA,,US,,,,United States Postal Service,Q668687
0244600159,usps_collection_boxes,USPS COLLECTION BOX - BLUE BOX,90 LONGWOOD AVE,BROOKLINE,MA,,US,,,,United States Postal Service,Q668687
0244600145,usps_collection_boxes,USPS COLLECTION BOX - BLUE BOX,236 HARVARD ST,BROOKLINE,MA,,US,,,,United States Postal Service,Q668687
0244600169,usps_collection_boxes,USPS COLLECTION BOX - BLUE BOX,67 MARION ST,BROOKLINE,MA,,US,,,,United States Postal Service,Q668687
0244600051,usps_collection_boxes,USPS COLLECTION BOX - BLUE BOX,1397 BEACON ST,BROOKLINE,MA,,US,,,,United States Postal Service,Q668687
0244600041,usps_collection_boxes,USPS COLLECTION BOX - BLUE BOX,1319 BEACON ST,BROOKLINE,MA,,US,,,,United States Postal Service,Q668687
0244600056,usps_collection_boxes,USPS COLLECTION BOX - BLUE BOX,1443 BEACON ST,BROOKLINE,MA,,US,,,,United States Postal Service,Q668687
0244600035,usps_collection_boxes,USPS COLLECTION BOX - BLUE BOX,1295 BEACON ST,BROOKLINE,MA,,US,,,,United States Postal Service,Q668687
0244600036,usps_collection_boxes,USPS COLLECTION BOX - BLUE BOX,1295 BEACON ST,BROOKLINE,MA,,US,,,,United States Postal Service,Q668687
0244600233,usps_collection_boxes,USPS COLLECTION BOX - APC,1295 BEACON ST,BROOKLINE,MA,,US,,,,United States Postal Service,Q668687
0244600246,usps_collection_boxes,USPS COLLECTION BOX - BLUE BOX,1295 BEACON ST,BROOKLINE,MA,,US,,,,United States Postal Service,Q668687
0244600247,usps_collection_boxes,USPS COLLECTION BOX - BLUE BOX,1295 BEACON ST,BROOKLINE,MA,,US,,,,United States Postal Service,Q668687
0244600197,usps_collection_boxes,USPS COLLECTION BOX - BLUE BOX,145 SEWALL AVE,BROOKLINE,MA,,US,,,,United States Postal Service,Q668687
0244600091,usps_collection_boxes,USPS COLLECTION BOX - BLUE BOX,20 CHAPEL ST,BROOKLINE,MA,,US,,,,United States Postal Service,Q668687
0244600212,usps_collection_boxes,USPS COLLECTION BOX - BLUE BOX,569 WASHINGTON ST,BROOKLINE,MA,,US,,,,United States Postal Service,Q668687
0244600045,usps_collection_boxes,USPS COLLECTION BOX - BLUE BOX,1352 BEACON ST,BROOKLINE,MA,,US,,,,United States Postal Service,Q668687
0244600049,usps_collection_boxes,USPS COLLECTION BOX - BLUE BOX,1396 BEACON ST,BROOKLINE,MA,,US,,,,United States Postal Service,Q668687
0244600038,usps_collection_boxes,USPS COLLECTION BOX - BLUE BOX,1296 BEACON ST,BROOKLINE,MA,,US,,,,United States Postal Service,Q668687
0244600054,usps_collection_boxes,USPS COLLECTION BOX - BLUE BOX,1432 BEACON ST,BROOKLINE,MA,,US,,,,United States Postal Service,Q668687
0244600061,usps_collection_boxes,USPS COLLECTION BOX - BLUE BOX,1501 BEACON ST,BROOKLINE,MA,,US,,,,United States Postal Service,Q668687
0244600027,usps_collection_boxes,USPS COLLECTION BOX - BLUE BOX,1223 BEACON ST,BROOKLINE,MA,,US,,,,United States Postal Service,Q668687
0244600214,usps_collection_boxes,USPS COLLECTION BOX - BLUE BOX,619 WASHINGTON ST,BROOKLINE,MA,,US,,,,United States Postal Service,Q668687
0244600029,usps_collection_boxes,USPS COLLECTION BOX - BLUE BOX,1232 BEACON ST,BROOKLINE,MA,,US,,,,United States Postal Service,Q668687
0244600147,usps_collection_boxes,USPS COLLECTION BOX - BLUE BOX,318 HARVARD ST,BROOKLINE,MA,,US,,,,United States Postal Service,Q668687
0244600047,usps_collection_boxes,USPS COLLECTION BOX - BLUE BOX,1361 BEACON ST,BROOKLINE,MA,,US,,,,United States Postal Service,Q668687
0244600065,usps_collection_boxes,USPS COLLECTION BOX - BLUE BOX,1539 BEACON ST,BROOKLINE,MA,,US,,,,United States Postal Service,Q668687
0244600024,usps_collection_boxes,USPS COLLECTION BOX - BLUE BOX,1187 BEACON ST,BROOKLINE,MA,,US,,,,United States Postal Service,Q668687
0244600202,usps_collection_boxes,USPS COLLECTION BOX - BLUE BOX,52 SUMMIT AVE,BROOKLINE,MA,,US,,,,United States Postal Service,Q668687
0244600185,usps_collection_boxes,USPS COLLECTION BOX - BLUE BOX,50 PLEASANT ST,BROOKLINE,MA,,US,,,,United States Postal Service,Q668687
0244600063,usps_collection_boxes,USPS COLLECTION BOX - BLUE BOX,1530 BEACON ST,BROOKLINE,MA,,US,,,,United States Postal Service,Q668687
0244600132,usps_collection_boxes,USPS COLLECTION BOX - BLUE BOX,50 GREEN ST,BROOKLINE,MA,,US,,,,United States Postal Service,Q668687
0244600216,usps_collection_boxes,USPS COLLECTION BOX - BLUE BOX,637 WASHINGTON ST,BROOKLINE,MA,,US,,,,United States Postal Service,Q668687
0244600023,usps_collection_boxes,USPS COLLECTION BOX - BLUE BOX,1180 BEACON ST,BROOKLINE,MA,,US,,,,United States Postal Service,Q668687
0244600089,usps_collection_boxes,USPS COLLECTION BOX - BLUE BOX,100 CENTRE ST,BROOKLINE,MA,,US,,,,United States Postal Service,Q668687
0244600162,usps_collection_boxes,USPS COLLECTION BOX - BLUE BOX,58 LANCASTER TER,BROOKLINE,MA,,US,,,,United States Postal Service,Q668687
0244600148,usps_collection_boxes,USPS COLLECTION BOX - BLUE BOX,375 HARVARD ST,BROOKLINE,MA,,US,,,,United States Postal Service,Q668687
0244600222,usps_collection_boxes,USPS COLLECTION BOX - BLUE BOX,110 WINCHESTER ST,BROOKLINE,MA,,US,,,,United States Postal Service,Q668687
0244600203,usps_collection_boxes,USPS COLLECTION BOX - BLUE BOX,113 SUMMIT AVE,BROOKLINE,MA,,US,,,,United States Postal Service,Q668687
0244600016,usps_collection_boxes,USPS COLLECTION BOX - BLUE BOX,1093 BEACON ST,BROOKLINE,MA,,US,,,,United States Postal Service,Q668687
0244600070,usps_collection_boxes,USPS COLLECTION BOX - BLUE BOX,1600 BEACON ST,BROOKLINE,MA,,US,,,,United States Postal Service,Q668687
0244600175,usps_collection_boxes,USPS COLLECTION BOX - BLUE BOX,101 MONMOUTH ST,BROOKLINE,MA,,US,,,,United States Postal Service,Q668687
0244600006,usps_collection_boxes,USPS COLLECTION BOX - BLUE BOX,999 BEACON ST,BROOKLINE,MA,,US,,,,United States Postal Service,Q668687
0244600011,usps_collection_boxes,USPS COLLECTION BOX - BLUE BOX,1053 BEACON ST,BROOKLINE,MA,,US,,,,United States Postal Service,Q668687
0244600008,usps_collection_boxes,USPS COLLECTION BOX - BLUE BOX,1002 BEACON ST,BROOKLINE,MA,,US,,,,United States Postal Service,Q668687
0244600013,usps_collection_boxes,USPS COLLECTION BOX - BLUE BOX,1056 BEACON ST,BROOKLINE,MA,,US,,,,United States Postal Service,Q668687
0244600102,usps_collection_boxes,USPS COLLECTION BOX - BLUE BOX,2 EUSTON ST,BROOKLINE,MA,,US,,,,United States Postal Service,Q668687
0244600085,usps_collection_boxes,USPS COLLECTION BOX - BLUE BOX,95 CARLTON ST,BROOKLINE,MA,,US,,,,United States Postal Service,Q668687
0244600109,usps_collection_boxes,USPS COLLECTION BOX - BLUE BOX,115 FREEMAN ST,BROOKLINE,MA,,US,,,,United States Postal Service,Q668687
0244600096,usps_collection_boxes,USPS COLLECTION BOX - BLUE BOX,38 CROWNINSHIELD RD,BROOKLINE,MA,,US,,,,United States Postal Service,Q668687
0244600112,usps_collection_boxes,USPS COLLECTION BOX - BLUE BOX,175 FREEMAN ST,BROOKLINE,MA,,US,,,,United States Postal Service,Q668687
0244600114,usps_collection_boxes,USPS COLLECTION BOX - BLUE BOX,237 FREEMAN ST,BROOKLINE,MA,,US,,,,United States Postal Service,Q668687
0244600176,usps_collection_boxes,USPS COLLECTION BOX - BLUE BOX,102 NAPLES RD,BROOKLINE,MA,,US,,,,United States Postal Service,Q668687
0244600187,usps_collection_boxes,USPS COLLECTION BOX - BLUE BOX,125 PLEASANT ST,BROOKLINE,MA,,US,,,,United States Postal Service,Q668687
0244600204,usps_collection_boxes,USPS COLLECTION BOX - BLUE BOX,63 VERNDALE ST,BROOKLINE,MA,,US,,,,United States Postal Service,Q668687
0244600153,usps_collection_boxes,USPS COLLECTION BOX - BLUE BOX,520 HARVARD ST,BROOKLINE,MA,,US,,,,United States Postal Service,Q668687
0244600151,usps_collection_boxes,USPS COLLECTION BOX - BLUE BOX,489 HARVARD ST,BROOKLINE,MA,,US,,,,United States Postal Service,Q668687
0244600223,usps_collection_boxes,USPS COLLECTION BOX - BLUE BOX,156 WINCHESTER ST,BROOKLINE,MA,,US,,,,United States Postal Service,Q668687
0244600161,usps_collection_boxes,USPS COLLECTION BOX - BLUE BOX,185 LANCASTER TER,BROOKLINE,MA,,US,,,,United States Postal Service,Q668687
0244600174,usps_collection_boxes,USPS COLLECTION BOX - BLUE BOX,217 MASON TER,BROOKLINE,MA,,US,,,,United States Postal Service,Q668687
0244600150,usps_collection_boxes,USPS COLLECTION BOX - BLUE BOX,410 HARVARD ST,BROOKLINE,MA,,US,,,,United States Postal Service,Q668687
0244600218,usps_collection_boxes,USPS COLLECTION BOX - BLUE BOX,779 WASHINGTON ST,BROOKLINE,MA,,US,,,,United States Postal Service,Q668687
0244600072,usps_collection_boxes,USPS COLLECTION BOX - BLUE BOX,1628 BEACON ST,BROOKLINE,MA,,US,,,,United States Postal Service,Q668687
https://vcahospitals.com/metro-cat,vca,VCA Metro Cat Hospital,,Brookline,MA,,US,+1 617-566-7297,https://vcahospitals.com/metro-cat,Mo-Th 08:00-17:00; Fr 08:00-18:00; Sa 08:00-14:30,VCA,Q7906620
,visa,,,MARSHFIELD,MA,,US,,,,,
,visa,,,BROOKLINE,MA,,US,,,,,
,visa,,,BROOKLINE,MA,,US,,,,,
,visa,,,BROOKLINE,MA,,US,,,,,
,visa,,,BROOKLINE,MA,,US,,,,,
,visa,,,BROOKLINE,MA,,US,,,,,
,visa,,,BROOKLINE,MA,,US,,,,,
,visa,,,BROOKLINE,MA,,US,,,,,
,visa,,,BROOKLINE,MA,,US,,,,,
,visa,,,BROOKLINE,MA,,US,,,,,
,visa,,,BROOKLINE,MA,,US,,,,,
,visa,,,BROOKLINE,MA,,US,,,,,
,visa,,,BROOKLINE,MA,,US,,,,,
,visa,,,BROOKLINE,MA,,US,,,,,
https://www.walgreens.com/locator/walgreens-99+harvard+st-brookline-ma-02446/id=3564,walgreens,Walgreens,,Brookline,MA,,US,+1 617-731-4536,https://www.walgreens.com/locator/walgreens-99+harvard+st-brookline-ma-02446/id=3564,Mo-Fr 07:00-22:00; Sa-Su 08:00-23:00,Walgreens,Q1591889
