Ref,Spider,Name,Address,City,State,Zipcode,Country,Phone,Website,Hours,Brand,WikiData
BBW02640,bathandbodyworks_us,CLEAR LAKE MARKETPLACE,,HOUSTON,TX,,US,+1 281-709-1621,,Mo-Sa 10:00-21:00; Su 11:00-18:00,Bath & Body Works,Q810773
196826,bluerhino,H-E-B #713,,HOUSTON,TX,,US,+1 281-212-8800,,,Blue Rhino,Q65681213
8860531,chase_us,Clear Lake City and El Dorado - New branch,,Houston,TX,,US,+1 346-815-6864,https://locator.chase.com/tx/houston/3451-clear-lake-city-blvd,Mo-Fr 09:00-17:00; Sa 09:00-14:00,Chase,Q524629
59200,citi,ATM Heb,,Houston,TX,,US,,,,Citibank,Q857063
https://www.edwardjones.com/us-en/financial-advisor/jonathan-wilder,edwardjones,Jonathan S Wilder,,Houston,TX,,US,+1 832-770-9118,https://www.edwardjones.com/us-en/financial-advisor/jonathan-wilder,Mo-Th 08:30-17:00; Fr 08:30-16:00,Edward Jones,Q5343830
200320462,exxonmobil,THE EXPRESS 2,,HOUSTON,TX,,US,+1 281-991-1957,https://www.exxon.com/en/find-station/exxon-houston-tx-theexpress2-200320462,24/7,Exxon,Q109675651
000584,kindercare,Pinebrook KinderCare,,Houston,TX,,US,,https://www.kindercare.com/our-centers/houston/tx/000584,,KinderCare Learning Centers,Q6410551
98318,little_free_library,Ella's Bay Oaks Neighborhood Library #98318 Houston TX,,Houston,TX,,US,,,,Little Free Library,Q6650101
https://locations.modpizza.com/#23558363,modpizza,MOD Pizza Clear Lake,,Houston,TX,,US,+1 832-284-4290,https://locations.modpizza.com/usa/tx/houston/3351-clear-lake-city-blvd,Mo-We 10:30-22:00; Th-Sa 10:30-23:00; Su 10:30-22:00,MOD Pizza,Q19903469
2048,ross_dress_for_less_us,North Clear Lake,,Houston,TX,,US,+1 281-280-4821,,Mo-Sa 09:30-21:30; Su 10:00-20:30,Ross Dress for Less,Q3442791
https://restaurants.subway.com/#14916659,subway,Subway Clear Lake Marketplace,,Houston Harris,TX,,US,+1 832-802-8001,https://restaurants.subway.com/united-states/tx/houston/3535-clear-lake-city-blvd,Mo-Su 09:00-22:00,Subway,Q244457
081495,tjx,Houston,3355 Clear Lake City Blvd,Houston,TX,,US,+1 281-480-4276,,Mo-Sa 09:30-21:30; Su 10:00-20:00,TJ Maxx,Q10860683
1SDT,tmobile_us,Clear Lake City Blvd & Majestic Trl,,Houston,TX,,US,+1 832-239-5692,https://www.t-mobile.com/store-locator/tx/houston/clear-lake-city-blvd-majestic-trl,,T-Mobile,Q3511885
A00000254318,verizon_us,Wireless Zone Houston,,HOUSTON,TX,,US,+1 281-786-1996,https://www.verizon.com/stores/details/texas/houston/west-lake-houston-1201686/,Mo-Sa 10:00-20:00; Su 11:00-18:00,Verizon,Q919641
,visa,,,NASSAU BAY,TX,,US,,,,,
,visa,,,HOUSTON,TX,,US,,,,,
,visa,,,HOUSTON,TX,,US,,,,,
,visa,,,HOUSTON,TX,,US,,,,,
,visa,,,HOUSTON,TX,,US,,,,,
,visa,,,HOUSTON,TX,,US,,,,,
,visa,,,HOUSTON,TX,,US,,,,,
,visa,,,HOUSTON,TX,,US,,,,,
,visa,,,HOUSTON,TX,,US,,,,,
,visa,,,HOUSTON,TX,,US,,,,,
,visa,,,HOUSTON,TX,,US,,,,,
,visa,,,HOUSTON,TX,,US,,,,,
5440__EL__DORADO__BLVD__STE__300_HOUSTON_TX_77059,wellsfargo,Wells Fargo,5440 EL DORADO BLVD STE 300,HOUSTON,TX,,US,+1 281-709-9468,https://www.wellsfargo.com/locator/bank/5440__EL__DORADO__BLVD__STE__300_HOUSTON_TX_77059/,Mo-Fr 09:00-17:00,Wells Fargo,Q744149
