Ref,Spider,Name,Address,City,State,Zipcode,Country,Phone,Website,Hours,Brand,WikiData
602489,afcurgentcare,American Family Care Clear Lake,,Houston,TX,,US,+1 832-650-0604,https://www.afcurgentcare.com/clear-lake/,Mo-Sa 08:00-20:00; Su 08:00-17:00,AFC Urgent Care,Q110552174
4277,anytime_fitness,Anytime Fitness,,Houston,TX,,US,+1 281-990-0850,https://www.anytimefitness.com/gyms/4277/houston-tx-77058/,,Anytime Fitness,Q4778364
16429,asics_us,On the Run,2427 Bay Area Boulevard,Houston,TX,,US,+1 281-480-5388,,,asics,Q327247
1308,autozone_us,AutoZone Auto Parts Houston,,Houston,TX,,US,+1 281-480-0100,https://www.autozone.com/locations/tx/houston/2414-bay-area-blvd.html,Mo-Sa 07:30-21:00; Su 08:00-20:00,AutoZone,Q4826087
https://www.avis.com/en/locations/us/tx/webster/w5t,avis,Avis U S A Houston,,Houston,TX,,US,+1 281-488-4995,https://www.avis.com/en/locations/us/tx/webster/w5t,Mo-Fr 07:30-18:00; Sa-Su 09:00-13:00,Avis,Q791136
https://www.avis.com/en/locations/us/tx/houston/w5t,avis,Avis U S A Houston,,Houston,TX,,US,+1 281-488-4995,https://www.avis.com/en/locations/us/tx/houston/w5t,Mo-Fr 07:30-18:00; Sa-Su 09:00-13:00,Avis,Q791136
https://locators.bankofamerica.com/tx/houston/financial-centers-houston-12352.html,bankofamerica,Bank of America Financial Center & Drive-Thru ATM | Clear Lake,,Houston,TX,,US,+1 281-283-1600,https://locators.bankofamerica.com/tx/houston/financial-centers-houston-12352.html,Mo-Fr 10:00-16:00,Bank of America,Q487907
https://locations.baskinrobbins.com/tx/houston/1051-nasa-rd-360472-br,baskin_robbins_us,Baskin-Robbinsâ„¢,,Houston,TX,,US,+1 281-488-3137,https://locations.baskinrobbins.com/tx/houston/1051-nasa-rd-360472-br,Mo-Th 11:00-21:00; Fr-Su 11:00-22:00,Baskin-Robbins,Q584601
6261073,baylorscottwhite,NextCare Urgent Care - Houston (Clear Lake),,Houston,TX,,US,+1 281-335-0606,https://www.bswhealth.com/locations/nextcare-urgent-care-houston-clear-lake,Mo-Sa 09:00-21:00,Baylor Scott & White Health,Q41568258
186929,bluerhino,Checkpoint #7 (HTX Group LLC),,Houston,TX,,US,+1 845-754-5125,,,Blue Rhino,Q65681213
227325,bluerhino,Timewise #880857,,Webster,TX,,US,+1 281-486-9630,,,Blue Rhino,Q65681213
237881,bluerhino,Circle K #2742385,,Houston,TX,,US,+1 281-488-6626,,,Blue Rhino,Q65681213
155450,bluerhino,Walgreens #11854,,Houston,TX,,US,+1 281-990-8024,,,Blue Rhino,Q65681213
223778,bluerhino,KNS Bay Area LLC dba 1 Stop #8 - TX13122,,Houston,TX,,US,+1 281-218-9800,,,Blue Rhino,Q65681213
237884,bluerhino,Circle K #2741900,,Nassau Bay,TX,,US,+1 281-333-4313,,,Blue Rhino,Q65681213
223885,bluerhino,2330 Nasa Business LLC dba Checkpoint #22,,Nassau Bay,TX,,US,+1 832-692-6184,,,Blue Rhino,Q65681213
29142136,chase_us,Bay Area Blvd - New branch,,Houston,TX,,US,+1 281-283-8909,https://locator.chase.com/tx/houston/2475-bay-area-blvd,Mo-Fr 09:00-17:00; Sa 09:00-14:00,Chase,Q524629
30190,chevrolet,NORMAN FREDE CHEVROLET CO.,,Houston,TX,,US,+1 281-486-2200,https://www.fredechevrolet.com,Mo-Sa 08:30-20:00,Chevrolet,Q29570
1201-bay-area-boulevard,churchs_chicken,Bay Area Boulevard,,League City,TX,,US,+1 281-486-1555,https://locations.churchs.com/tx/league-city/1201-bay-area-boulevard,,Church's Chicken,Q1089932
85851,citi,ATM University Of Houston,,Houston,TX,,US,,,,Citibank,Q857063
48253,citi,ATM CVS,,Nassau Bay,TX,,US,,,,Citibank,Q857063
87311,citi,ATM Walgreens,,Houston,TX,,US,,,,Citibank,Q857063
5880,cvs_us,CVS Pharmacy,,Houston,TX,,US,+1 281-212-8040,https://www.cvs.com/store-locator/houston-tx-pharmacies/959-bay-area-blvd-houston-tx-77058/storeid=5880,Mo-Su 08:00-00:00,CVS Pharmacy,Q2078880
7286,cvs_us,CVS Pharmacy,,Houston,TX,,US,+1 281-486-0613,https://www.cvs.com/store-locator/houston-tx-pharmacies/2469-bay-area-blvd-houston-tx-77058/storeid=7286,Mo-Su 07:00-22:00,CVS Pharmacy,Q2078880
247570,dennys,Denny's,,Houston,TX,,US,+1 281-461-6733,https://locations.dennys.com/TX/HOUSTON/247570,Mo-Su 05:00-24:00,Denny's,Q1189695
273,dickeys_barbecue_pit_us,Houston - Bay Area Blvd,,Houston,TX,,US,+1 281-286-7427,https://www.dickeys.com/locations/texas/houston/clear-lake,Mo-Su 11:00-21:00,Dickey's Barbecue Pit,Q19880747
6722,dominos_pizza_us,Domino's Pizza,,Nassau Bay,TX,,US,+1 281-916-1476,https://pizza.dominos.com/texas/nassau-bay/1400-nasa-rd-1,Mo-Th 10:00-24:00; Fr-Sa 10:00-01:00; Su 10:00-24:00,Domino's,Q839466
352553,dunkin_us,Dunkin',,Houston,TX,,US,+1 832-240-4477,https://locations.dunkindonuts.com/en/tx/houston/1525-bay-area-blvd/352553,Mo-Su 05:00-21:00,Dunkin',Q847743
https://www.edwardjones.com/us-en/financial-advisor/karen-hollingsworth,edwardjones,Karen Hollingsworth,,Houston,TX,,US,+1 281-282-0681,https://www.edwardjones.com/us-en/financial-advisor/karen-hollingsworth,Mo-Th 08:30-17:00; Fr 08:30-15:00,Edward Jones,Q5343830
501359,extra_space_storage,Houston Self Storage at 2811 Bay Area Blvd,,Houston,TX,,US,+1 281-286-7867,https://www.extraspace.com/storage/facilities/us/texas/houston/501359/,Mo-Fr 09:30-18:00; Sa 09:00-17:30,Extra Space Storage,Q5422162
1972,extra_space_storage,Houston Self Storage at 555 Gemini Ave,,Houston,TX,,US,+1 281-954-3666,https://www.extraspace.com/storage/facilities/us/texas/houston/1972/,Mo-Su 06:00-22:00,Extra Space Storage,Q5422162
200321501,exxonmobil,DUDE'S STOP,,HOUSTON,TX,,US,+1 281-280-8801,https://www.exxon.com/en/find-station/exxon-houston-tx-dudesstop-200321501,24/7,Exxon,Q109675651
32654,family_dollar_us,FAMILY DOLLAR #12654,,Webster,TX,,US,+1 281-204-1181,https://www.familydollar.com/locations/tx/webster/32654/,Mo-Su 08:00-22:00,Family Dollar,Q5433101
https://local.fedex.com/#25205704,fedex,,,Houston,TX,,US,+1 800-463-3339,https://local.fedex.com/en-us/tx/houston/hj3ak,,FedEx,Q459477
https://local.fedex.com/#27766458,fedex,FedEx Authorized ShipCenter,,Houston,TX,,US,+1 281-486-5259,https://local.fedex.com/en-us/tx/houston/44981,,FedEx,Q459477
https://local.fedex.com/#25457734,fedex,,,Houston,TX,,US,+1 800-463-3339,https://local.fedex.com/en-us/tx/houston/00j8d,,FedEx,Q459477
2342,first_cash,Cash America Pawn,,Houston,TX,,US,+1 281-286-6669,,,Cash America,Q5048636
https://restaurants.fiveguys.com/#15552991,five_guys_us,Five Guys Nassau Bay Town Center,,Nassau Bay,TX,,US,+1 832-864-3495,https://restaurants.fiveguys.com/1760-nasa-parkway,"Mo-Su 11:00-21:30,11:00-22:00",Five Guys,Q1131810
499409,follett,University of Houston Bookstore Clear Lake,,Houston,TX,,US,+1 281-283-2189,https://www.bkstr.com/houstonclearlakestore/home,,,
https://stores.gnc.com/#24059834,gnc,GNC Clear Lake Shopping Center,,,TX,,US,+1 281-990-8744,https://stores.gnc.com/all-stores-texas/clear-lake/16913-el-camino-real,Mo-Fr 10:00-20:00; Sa 10:00-19:00; Su 12:00-18:00,GNC,Q4808595
fdebc5b7-8e81-e211-87d7-0050568924e6,goodwill,Store: CLEAR LAKE,,Houston,TX,,US,+1 281-738-3844,https://www.goodwill.org/locator/location/?store=ZmRlYmM1YjctOGU4MS1lMjExLTg3ZDctMDA1MDU2ODkyNGU2&lat=MjkuNTczODI=&lng=LTk1LjEwOTM0,,Goodwill,Q5583655
https://locations.jackinthebox.com/us/tx/houston/2420-bay-area-blvd,jackinthebox,Jack in the Box,,Houston,TX,,US,+1 346-553-8105,https://locations.jackinthebox.com/us/tx/houston/2420-bay-area-blvd,Mo-Su 04:00-04:00,Jack in the Box,Q1538507
https://office.jacksonhewitt.com/#27579608,jackson_hewitt,Jackson Hewitt,,Houston,TX,,US,+1 281-375-3011,https://office.jacksonhewitt.com/tax-preparation-services-locations/en/tx/houston/16805-el-camino-real/12472,Mo-Sa 11:00-19:00; Su 12:00-16:00,Jackson Hewitt,Q6117132
https://locations.jimmyjohns.com/tx/nassaubay/sandwiches-1596.html,jimmy_johns,Jimmy John's,,Nassau Bay,TX,,US,+1 281-335-1210,https://locations.jimmyjohns.com/tx/nassaubay/sandwiches-1596.html,,Jimmy John's,Q1689380
HOUCS,marriott,Courtyard Houston NASA/Clear Lake,,Nassau Bay,TX,,US,+1 281-333-0220,https://www.marriott.com/HOUCS,,Courtyard by Marriott,Q1053170
74784611,moneygram,ALAQSA MARKET - HOUSTON - AL AQSA MARKET,,HOUSTON,TX,,US,+1 832-240-4724,,Mo-Su 10:00-21:00,MoneyGram,Q1944412
74836569,moneygram,DELICIAS MARKET - HOUSTON,,HOUSTON,TX,,US,+1 281-549-7100,,Mo-Su 07:00-23:00,MoneyGram,Q1944412
https://locations.papajohns.com/#10592515,papa_johns,Papa John's,,Houston,TX,,US,+1 281-286-0770,https://locations.papajohns.com/united-states/tx/77058/houston/1002-bay-area-blvd,Mo-Th 09:30-24:00; Fr-Sa 09:30-01:00; Su 09:30-24:00,Papa John's Pizza,Q2759586
274,pinch_a_penny_us,Pinch A Penny,,Houston,TX,,US,+1 281-727-7665,https://pinchapenny.com/stores/houston-tx-274,Mo-Fr 09:00-18:00; Sa 09:00-17:00; Su 11:00-16:00,Pinch A Penny,Q121436109
restaurant_83076,popeyes_us_fr,Popeyes,"2406 Bay Area Blvd Houston, Texas 77058 - USA",Houston,TX,,US,+1 281-488-6102,https://www.popeyes.com/store-locator/store/restaurant_83076,Mo-We 10:00-23:00; Th-Sa 10:00-00:00; Su 10:00-23:00,Popeyes,Q1330910
https://www.publicstorage.com/self-storage-tx-houston/5972.html,public_storage_us,Public Storage,,Houston,TX,,US,+1 346-560-7445,https://www.publicstorage.com/self-storage-tx-houston/5972.html,,Public Storage,Q1156045
https://locations.schlotzskys.com/#2769,schlotzskys,Schlotzsky's,,Harris County,TX,,US,+1 281-204-9244,https://locations.schlotzskys.com/tx/clear-lake/1521-bay-area-blvd,Mo-Su 10:00-21:30,Schlotzsky's,Q2244796
31979,smilebrands,Castle Dental Clear Lake,2321 Bay Area Boulevard,Houston,TX,,US,+1 281-480-9870,https://www.castledental.com/dentist-near-me/houston-dentist/31040/,,Smile Brands Inc.,Q108286823
284,sola_salon_studios,Clear Lake,,Houston,TX,,US,+1 281-543-0804,https://www.solasalonstudios.com/locations/clear-lake,,Sola Salon Studios,Q64337426
https://restaurants.subway.com/#14907099,subway,Subway Village Real Shopping Center,,Houston Harris,TX,,US,+1 281-486-1821,https://restaurants.subway.com/united-states/tx/houston/963-nasa-rd-1,Mo-Sa 09:00-23:00; Su 09:00-22:00,Subway,Q244457
https://restaurants.subway.com/#14898784,subway,Subway Village Green Shopping Ctr,,Houston Harris,TX,,US,+1 281-286-2220,https://restaurants.subway.com/united-states/tx/houston/2325-bay-area-blvd,Mo-Th 08:00-23:00; Fr 08:00-22:00; Sa-Su 09:00-22:00,Subway,Q244457
https://restaurants.subway.com/#14909001,subway,Subway Nassau Bay Service Center,,Houston Harris,TX,,US,+1 281-335-7174,https://restaurants.subway.com/united-states/tx/houston/18022-upper-bay-road,Mo-Su 09:00-21:00,Subway,Q244457
81583,supercuts,Heb Clear Lake,16807 El Camino Real,Houston,TX,,US,+1 281-461-4700,https://www.supercuts.com/checkin/81583,Mo-Sa 09:00-19:00; Su 11:00-17:00,Supercuts,Q7643239
https://locations.tacobell.com/#3916650,taco_bell,Taco Bell,,Houston,TX,,US,+1 281-488-4760,https://locations.tacobell.com/tx/houston/1033-1-2-bay-area-blvd.html,Mo-Su 07:00-03:00,Taco Bell,Q752941
https://www.trekbikes.com/us/en_US/retail/clear_lake/,trekbikes,Trek Bicycle Clear Lake,,Houston,TX,,US,+1 281-480-9100,https://www.trekbikes.com/us/en_US/retail/clear_lake/,Tu-Sa 10:00-18:00; Su 12:00-17:00,Trek,Q1067617
1374440,usps,NASSAU BAY,,HOUSTON,TX,,US,+1 281-335-9357,,Mo-Fr 08:30-17:00; Sa 08:30-12:00,United States Postal Service,Q668687
7705800046,usps_collection_boxes,USPS COLLECTION BOX - BLUE BOX,2060 SPACE PARK DR,HOUSTON,TX,,US,,,,United States Postal Service,Q668687
7705800029,usps_collection_boxes,USPS COLLECTION BOX - BLUE BOX,18215 UPPER BAY RD,HOUSTON,TX,,US,,,,United States Postal Service,Q668687
7705800052,usps_collection_boxes,USPS COLLECTION BOX - PO LOBBY,18214 UPPER BAY RD,HOUSTON,TX,,US,,,,United States Postal Service,Q668687
7705800016,usps_collection_boxes,USPS COLLECTION BOX - PO LOBBY,18214 UPPER BAY RD,HOUSTON,TX,,US,,,,United States Postal Service,Q668687
7705800005,usps_collection_boxes,USPS COLLECTION BOX - BLUE BOX,18333 EGRET BAY BLVD,HOUSTON,TX,,US,,,,United States Postal Service,Q668687
7705800006,usps_collection_boxes,USPS COLLECTION BOX - BLUE BOX,17625 EL CAMINO REAL,HOUSTON,TX,,US,,,,United States Postal Service,Q668687
7705800009,usps_collection_boxes,USPS COLLECTION BOX - BLUE BOX,1290 HERCULES AVE,HOUSTON,TX,,US,,,,United States Postal Service,Q668687
7705800020,usps_collection_boxes,USPS COLLECTION BOX - BLUE BOX,901 APOLLO ST,HOUSTON,TX,,US,,,,United States Postal Service,Q668687
7705800002,usps_collection_boxes,USPS COLLECTION BOX - BLUE BOX,2130 BAY AREA BLVD,HOUSTON,TX,,US,,,,United States Postal Service,Q668687
7705800056,usps_collection_boxes,USPS COLLECTION BOX - BLUE BOX,2525 BAY AREA BLVD,HOUSTON,TX,,US,,,,United States Postal Service,Q668687
,visa,,,HITCHCOCK,TX,,US,,,,,
,visa,,,NASSAU BAY,TX,,US,,,,,
,visa,,,HOUSTON,TX,,US,,,,,
,visa,,,HOUSTON,TX,,US,,,,,
,visa,,,HOUSTON,TX,,US,,,,,
,visa,,,HOUSTON,TX,,US,,,,,
,visa,,,HOUSTON,TX,,US,,,,,
,visa,,,NASSAU BAY,TX,,US,,,,,
,visa,,,HOUSTON,TX,,US,,,,,
,visa,,,HOUSTON,TX,,US,,,,,
,visa,,,NASSAU BAY,TX,,US,,,,,
,visa,,,HOUSTON,TX,,US,,,,,
,visa,,,NASSAU BAY,TX,,US,,,,,
,visa,,,NASSAU BAY,TX,,US,,,,,
,visa,,,HOUSTON,TX,,US,,,,,
,visa,,,NASSAU BAY,TX,,US,,,,,
,visa,,,HOUSTON,TX,,US,,,,,
,visa,,,HOUSTON,TX,,US,,,,,
,visa,,,HOUSTON,TX,,US,,,,,
,visa,,,HOUSTON,TX,,US,,,,,
,visa,,,HOUSTON,TX,,US,,,,,
,visa,,,HOUSTON,TX,,US,,,,,
,visa,,,HOUSTON,TX,,US,,,,,
,visa,,,HOUSTON,TX,,US,,,,,
,visa,,,HOUSTON,TX,,US,,,,,
,visa,,,HOUSTON,TX,,US,,,,,
,visa,,,HOUSTON,TX,,US,,,,,
,visa,,,HOUSTON,TX,,US,,,,,
,visa,,,HOUSTON,TX,,US,,,,,
,visa,,,HOUSTON,TX,,US,,,,,
,visa,,,HOUSTON,TX,,US,,,,,
,visa,,,HOUSTON,TX,,US,,,,,
,visa,,,WEBSTER,TX,,US,,,,,
,visa,,,HOUSTON,TX,,US,,,,,
,visa,,,HOUSTON,TX,,US,,,,,
,visa,,,HOUSTON,TX,,US,,,,,
,visa,,,HOUSTON,TX,,US,,,,,
,visa,,,WEBSTER,TX,,US,,,,,
,visa,,,HOUSTON,TX,,US,,,,,
,visa,,,HOUSTON,TX,,US,,,,,
,visa,,,HOUSTON,TX,,US,,,,,
,visa,,,HOUSTON TX 77058,TX,,US,,,,,
,visa,,,HOUSTON,TX,,US,,,,,
,visa,,,WEBSTER,TX,,US,,,,,
,visa,,,HOUSTON,TX,,US,,,,,
,visa,,,HOUSTON,TX,,US,,,,,
,visa,,,HOUSTON,TX,,US,,,,,
,visa,,,HOUSTON,TX,,US,,,,,
,visa,,,HOUSTON,TX,,US,,,,,
,visa,,,WEBSTER,TX,,US,,,,,
,visa,,,HOUSTON,TX,,US,,,,,
,visa,,,HOUSTON,TX,,US,,,,,
,visa,,,HOUSTON,TX,,US,,,,,
,visa,,,HOUSTON,TX,,US,,,,,
,visa,,,HOUSTON,TX,,US,,,,,
,visa,,,HOUSTON,TX,,US,,,,,
,visa,,,HOUSTON,TX,,US,,,,,
,visa,,,HOUSTON,TX,,US,,,,,
,visa,,,HOUSTON,TX,,US,,,,,
,visa,,,HOUSTON,TX,,US,,,,,
,visa,,,HOUSTON,TX,,US,,,,,
,visa,,,HOUSTON,TX,,US,,,,,
,visa,,,HOUSTON,TX,,US,,,,,
,visa,,,HOUSTON,TX,,US,,,,,
,visa,,,HOUSTON,TX,,US,,,,,
,visa,,,HOUSTON,TX,,US,,,,,
,visa,,,HOUSTON,TX,,US,,,,,
,visa,,,HOUSTON,TX,,US,,,,,
,visa,,,HOUSTON,TX,,US,,,,,
,visa,,,HOUSTON,TX,,US,,,,,
,visa,,,HOUSTON,TX,,US,,,,,
,visa,,,HOUSTON,TX,,US,,,,,
,visa,,,HOUSTON,TX,,US,,,,,
,visa,,,HOUSTON,TX,,US,,,,,
,visa,,,HOUSTON,TX,,US,,,,,
,visa,,,HOUSTON,TX,,US,,,,,
,visa,,,HOUSTON,TX,,US,,,,,
,visa,,,HOUSTON,TX,,US,,,,,
,visa,,,HOUSTON,TX,,US,,,,,
,visa,,,WEBSTER,TX,,US,,,,,
,visa,,,HOUSTON,TX,,US,,,,,
https://www.walgreens.com/locator/walgreens-1301+nasa+pkwy-houston-tx-77058/id=11854,walgreens,Walgreens,,Houston,TX,,US,+1 281-990-8024,https://www.walgreens.com/locator/walgreens-1301+nasa+pkwy-houston-tx-77058/id=11854,Mo-Fr 07:00-23:00; Sa-Su 07:00-22:00,Walgreens,Q1591889
1005__BAY__AREA__BLVD_HOUSTON_TX_77058,wellsfargo,Wells Fargo,1005 BAY AREA BLVD,HOUSTON,TX,,US,+1 281-480-3651,https://www.wellsfargo.com/locator/bank/1005__BAY__AREA__BLVD_HOUSTON_TX_77058/,Mo-Fr 09:00-17:00,Wells Fargo,Q744149
https://locations.wendys.com/#9254401,wendys,"Wendy's 058 Nassau Bay in Houston, TX",,Houston,TX,,US,+1 346-251-4058,https://locations.wendys.com/united-states/tx/houston/1702-nasa-rd,"Mo-Su 06:00-10:30,09:00-22:00",Wendy's,Q550258
806530563e95a477120930e696e9435d,western_union,ADVANCE AMERICA #03017,,Houston,TX,,US,+1 281-990-6630,https://location.westernunion.com/us/tx/houston/806530563e95a477120930e696e9435d,Mo-Fr 10:00-18:00; Sa 10:00-15:00,Western Union,Q861042
8795,wingstop,Wingstop Houston Bay Area Blvd,2403 Bay Area Blvd	,Houston,TX,,US,+1 281-280-9464,,,Wingstop,Q8025339
