Ref,Spider,Name,Address,City,State,Zipcode,Country,Phone,Website,Hours,Brand,WikiData
https://stores.advanceautoparts.com/oh/bellaire/210-28th-st,advance_auto_parts_us,Advance Auto Parts,,Bellaire,OH,,US,+1 740-671-9588,https://stores.advanceautoparts.com/oh/bellaire/210-28th-st,Mo-Sa 07:30-21:00; Su 08:00-20:00,Advance Auto Parts,Q4686051
350421,asics_us,Runner's Connection,3287 Belmont St,Bellaire,OH,,US,+1 740-671-1982,,,asics,Q327247
166888,bluerhino,I.C.R Equipment Rental & Supply L.L.C,,Bellaire,OH,,US,+1 740-676-1917,,,Blue Rhino,Q65681213
21577,bluerhino,Kroger #558 - Columbus,,Bellaire,OH,,US,+1 740-671-5164,,,Blue Rhino,Q65681213
144373,bluerhino,Kroger #558 - Columbus - Fuel Site,,Bellaire,OH,,US,+1 740-671-5164,,,Blue Rhino,Q65681213
239882,bluerhino,Circle K #4705215,,Bellaire,OH,,US,+1 740-676-9019,,,Blue Rhino,Q65681213
59846,bluerhino,Speedway #9166,,Bellaire,OH,,US,+1 740-676-1707,,,Blue Rhino,Q65681213
1002406285,chase_us,Belmont and 26th - New branch,,Bellaire,OH,,US,+1 740-676-7278,https://locator.chase.com/oh/bellaire/360-28th-st,Mo-Fr 09:00-17:00,Chase,Q524629
40505,chevrolet,AUTO CHOICE CHEVROLET,,Bellaire,OH,,US,+1 740-676-6341,https://www.autochoiceoh.com,Mo-Fr 09:00-19:00; Sa 09:00-15:00,Chevrolet,Q29570
42612,citi,ATM Circle K,,Bellaire,OH,,US,,,,Citibank,Q857063
2285,dominos_pizza_us,Domino's Pizza,,Bellaire,OH,,US,+1 740-676-3900,https://pizza.dominos.com/ohio/bellaire/2405-belmont-street,Mo-Th 10:30-24:00; Fr-Sa 10:30-01:00; Su 10:30-24:00,Domino's,Q839466
3203,first_cash,Cash America Pawn,,Bellaire,OH,,US,+1 740-676-2395,,,Cash America,Q5048636
33348,h_r_block,H&R Block,,Bellaire,OH,,US,+1 740-676-8512,https://www.hrblock.com/local-tax-offices/ohio/bellaire/imperial-plaza/33348/,,H&R Block,Q5627799
157559,marathon_petroleum_us,D AND D FAST FOODS INC,,BELLAIRE,OH,,US,+1 740-676-5330,,,Marathon,Q458363
bellaire-hardware-and-rental-39267,ppgpaints,BELLAIRE HARDWARE & RENTAL,,"Bellaire, ",OH,,US,,https://www.ppgpaints.com/store-locator/us/ohio/bellaire-paint-stores/bellaire-hardware-and-rental-39267,,PPG Paints,Q83891559
https://restaurants.subway.com/#14900822,subway,Subway /D&D Fast Food,,Bellaire Belmont,OH,,US,+1 740-676-5330,https://restaurants.subway.com/united-states/oh/bellaire/2998-belmont-st,Mo-Fr 07:00-23:00; Sa 08:00-23:00; Su 08:00-22:00,Subway,Q244457
1354494,usps,BELLAIRE,,BELLAIRE,OH,,US,+1 740-676-3816,,Mo-Fr 08:30-17:00; Sa 08:30-12:00,United States Postal Service,Q668687
4390600008,usps_collection_boxes,USPS COLLECTION BOX - BLUE BOX,400 IMPERIAL PLZ,BELLAIRE,OH,,US,,,,United States Postal Service,Q668687
4390600021,usps_collection_boxes,USPS COLLECTION BOX - BLUE BOX,400 28TH ST,BELLAIRE,OH,,US,,,,United States Postal Service,Q668687
4390600009,usps_collection_boxes,USPS COLLECTION BOX - BLUE BOX,3198 BELMONT ST,BELLAIRE,OH,,US,,,,United States Postal Service,Q668687
4390600000,usps_collection_boxes,USPS COLLECTION BOX - BLUE BOX,451 33RD ST,BELLAIRE,OH,,US,,,,United States Postal Service,Q668687
4390600001,usps_collection_boxes,USPS COLLECTION BOX - BLUE BOX,451 33RD ST,BELLAIRE,OH,,US,,,,United States Postal Service,Q668687
4390600023,usps_collection_boxes,USPS COLLECTION BOX - PO LOBBY,451 33RD ST,BELLAIRE,OH,,US,,,,United States Postal Service,Q668687
4390600012,usps_collection_boxes,USPS COLLECTION BOX - BLUE BOX,3800 JEFFERSON ST,BELLAIRE,OH,,US,,,,United States Postal Service,Q668687
4390600020,usps_collection_boxes,USPS COLLECTION BOX - BLUE BOX,4595 JEFFERSON ST,BELLAIRE,OH,,US,,,,United States Postal Service,Q668687
4390600017,usps_collection_boxes,USPS COLLECTION BOX - BLUE BOX,4696 NOBLE ST,BELLAIRE,OH,,US,,,,United States Postal Service,Q668687
,visa,,,BELLAIRE,OH,,US,,,,,
,visa,,,BELLAIRE,OH,,US,,,,,
,visa,,,BELLAIRE,OH,,US,,,,,
,visa,,,BELLAIRE,OH,,US,,,,,
,visa,,,BELLAIRE,OH,,US,,,,,
,visa,,,BELLAIRE,OH,,US,,,,,
,visa,,,BELLAIRE,OH,,US,,,,,
,visa,,,BELLAIRE,OH,,US,,,,,
,visa,,,BELLAIRE,OH,,US,,,,,
,visa,,,BELLAIRE,OH,,US,,,,,
,visa,,,BELLAIRE,OH,,US,,,,,
,visa,,,BELLAIRE,OH,,US,,,,,
,visa,,,BELLAIRE,OH,,US,,,,,
,visa,,,BELLAIR,OH,,US,,,,,
,visa,,,BELLAIRE,OH,,US,,,,,
,visa,,,BELLAIRE,OH,,US,,,,,
,visa,,,BELLAIRE,OH,,US,,,,,
,visa,,,BELLAIRE,OH,,US,,,,,
,visa,,,BELLAIRE,OH,,US,,,,,
,visa,,,BELLAIRE,OH,,US,,,,,
,visa,,,BELLAIRE,OH,,US,,,,,
,visa,,,BELLAIRE,OH,,US,,,,,
,visa,,,BELLAIRE,OH,,US,,,,,
,visa,,,BELLAIRE,OH,,US,,,,,
,visa,,,BELLAIRE,OH,,US,,,,,
,visa,,,BELLAIRE,OH,,US,,,,,
https://www.walgreens.com/locator/walgreens-432+32nd+st-bellaire-oh-43906/id=17284,walgreens,Walgreens,,Bellaire,OH,,US,+1 740-340-3152,https://www.walgreens.com/locator/walgreens-432+32nd+st-bellaire-oh-43906/id=17284,Mo-Fr 09:00-21:00; Sa 09:00-18:00; Su 10:00-18:00,Walgreens,Q1591889
a7951e5bb7cd1abf77861ad10b7eb856,western_union,7-ELEVEN/SPEEDWAY #45515,,Bellaire,OH,,US,+1 740-676-1707,https://location.westernunion.com/us/oh/bellaire/a7951e5bb7cd1abf77861ad10b7eb856,,Western Union,Q861042
