Ref,Spider,Name,Address,City,State,Zipcode,Country,Phone,Website,Hours,Brand,WikiData
10021631,shell,SH MAHARLIKA TALAVERA N E,,TALAVERA,Nueva Ecija,,PH,+63 44 411 3116,https://find.shell.com/ph/fuel/10021631-sh-maharlika-talavera-n-e,24/7,Shell,Q110716465
12851810,shell,SH SAN PASCUAL TALAVERA,,TALAVERA,Nueva Ecija,,PH,4560016,https://find.shell.com/ph/fuel/12851810-sh-san-pascual-talavera,,Shell,Q110716465
,visa,,,TALAVERA,NUEVA ECIJA,,PH,,,,,
4f5e8b792e79aae1eef7be4e31261f1d,western_union,MLI SARANAY GUIMBA  NUEVA ECIJA,,Guimba,NUEVA ECIJA,,PH,+63 2 8892 3159,https://location.westernunion.com/ph/nueva-ecija/guimba/4f5e8b792e79aae1eef7be4e31261f1d,Mo-Su 08:00-17:00,Western Union,Q861042
d1161cedd862c8ded2d105993bd9eca8,western_union,WALTERMART TALAVERA,,Talavera,NUEVA ECIJA,,PH,+63 2 8631 8000,https://location.westernunion.com/ph/nueva-ecija/talavera/d1161cedd862c8ded2d105993bd9eca8,Mo-Su 10:00-20:30,Western Union,Q861042
dad80ec34b5a22ef7726a0eba6a20feb,western_union,CLH TALAVERA LA TORRE,,Talavera,NUEVA ECIJA,,PH,+63 2 7759 9800,https://location.westernunion.com/ph/nueva-ecija/talavera/dad80ec34b5a22ef7726a0eba6a20feb,Mo-Su 08:00-18:00,Western Union,Q861042
4c79f44e2a071452517f92d7468ced97,western_union,CLH TALAVERA LA TORRE,,Talavera,NUEVA ECIJA,,PH,+63 2 7759 9800,https://location.westernunion.com/ph/nueva-ecija/talavera/4c79f44e2a071452517f92d7468ced97,Mo-Su 08:00-18:00,Western Union,Q861042
d15b033a7b8d24d4007508411c642322,western_union,STA CRUZ SAVINGS & DEV T COOP TALAVERA,,Talavera,NUEVA ECIJA,,PH,(+63) 1-9178800434,https://location.westernunion.com/ph/nueva-ecija/talavera/d15b033a7b8d24d4007508411c642322,Mo-Su 08:00-18:00,Western Union,Q861042
d72053e16255563efe6c1e06ebfcb4e0,western_union,MLI TALAVERA 4  NUEVA ECIJA,,Talavera,NUEVA ECIJA,,PH,+63 2 8892 3159,https://location.westernunion.com/ph/nueva-ecija/talavera/d72053e16255563efe6c1e06ebfcb4e0,Mo-Su 08:00-17:00,Western Union,Q861042
16f35ad369f957c7f718d35cdb7fd4e0,western_union,TMABUNTING-PINAGPANAAN,,Talavera,NUEVA ECIJA,,PH,(+63) 32-9999926761,https://location.westernunion.com/ph/nueva-ecija/talavera/16f35ad369f957c7f718d35cdb7fd4e0,Mo-Su 08:30-17:30,Western Union,Q861042
fef81f597fd0e983e9110b3a012a15c0,western_union,0209 ROYAL STONES INC BULAKAN BULACAN,,Talavera,NUEVA ECIJA,,PH,+63 917 865 5602,https://location.westernunion.com/ph/nueva-ecija/talavera/fef81f597fd0e983e9110b3a012a15c0,Mo-Su 08:00-18:00,Western Union,Q861042
36ca1a79a49f774326c217c3b4da8f92,western_union,MLI TALAVERA 3 NE,,Talavera,NUEVA ECIJA,,PH,+63 32 345 6476,https://location.westernunion.com/ph/nueva-ecija/talavera/36ca1a79a49f774326c217c3b4da8f92,Mo-Su 08:00-17:00,Western Union,Q861042
0056b6bdda16231069c6b9fa2d7fb7a2,western_union,GROSPE AND DESAMITO BILLSPAYMENT AND REM,,Talavera,NUEVA ECIJA,,PH,+63 919 060 3880,https://location.westernunion.com/ph/nueva-ecija/talavera/0056b6bdda16231069c6b9fa2d7fb7a2,Mo-Su 07:00-19:00,Western Union,Q861042
8ceac4c73cd73140c45546c57314a4aa,western_union,PFSI NUEVA ECIJA -TALAVERA ESGUERRA,,Talavera,NUEVA ECIJA,,PH,+63 83 434 8596,https://location.westernunion.com/ph/nueva-ecija/talavera/8ceac4c73cd73140c45546c57314a4aa,Mo-Su 08:00-17:30,Western Union,Q861042
aff59e25ac3a87339fcaa2c311092230,western_union,7MM PAWNSHOP AND MONEY CHANGER,,Talavera,NUEVA ECIJA,,PH,+63 44 331 4742,https://location.westernunion.com/ph/nueva-ecija/talavera/aff59e25ac3a87339fcaa2c311092230,Mo-Su 08:00-17:00,Western Union,Q861042
7dc6fd4b8053cdc2803581bfb51e2b7f,western_union,LBC EXPRESS INC WALTERMART TALAVERA,,Talavera,NUEVA ECIJA,,PH,+63 943 706 5087,https://location.westernunion.com/ph/nueva-ecija/talavera/7dc6fd4b8053cdc2803581bfb51e2b7f,Mo-Su 10:00-22:00,Western Union,Q861042
c4527551406c22040470963c3d522635,western_union,MLI TALAVERA 2 NUEVA ECIJA,,Talavera,NUEVA ECIJA,,PH,+63 32 345 6476,https://location.westernunion.com/ph/nueva-ecija/talavera/c4527551406c22040470963c3d522635,Mo-Su 08:00-17:00,Western Union,Q861042
d053749121d5629f17284512b8713b7d,western_union,CLH TALAVERA,,Talavera,NUEVA ECIJA,,PH,+63 2 7759 9800,https://location.westernunion.com/ph/nueva-ecija/talavera/d053749121d5629f17284512b8713b7d,Mo-Th 07:00-19:00; Fr 19:00-19:00; Sa 07:00-19:00; Su 08:00-17:00,Western Union,Q861042
1a097b2b45f92c9e7bad61569f409114,western_union,PETNET TALAVERA,,Talavera,NUEVA ECIJA,,PH,+63 44 803 3858,https://location.westernunion.com/ph/nueva-ecija/talavera/1a097b2b45f92c9e7bad61569f409114,Mo-Sa 08:00-17:00; Su 08:00-16:00,Western Union,Q861042
c2f85d02555ab1d935568376d2afebcb,western_union,PFSI NUEVA ECIJA-TALAVERA-MARCOS,,Talavera,NUEVA ECIJA,,PH,+63 83 434 8596,https://location.westernunion.com/ph/nueva-ecija/talavera/c2f85d02555ab1d935568376d2afebcb,Mo-Su 08:00-17:30,Western Union,Q861042
e533f838ed2110c74f9ab983a361be71,western_union,LBC EXPRESS INC,,Talavera,NUEVA ECIJA,,PH,(+63) 02-8585999,https://location.westernunion.com/ph/nueva-ecija/talavera/e533f838ed2110c74f9ab983a361be71,Mo-Sa 07:00-19:00; Su 07:00-18:00,Western Union,Q861042
1c609cd29e9b7e6069cdf5bfd25ec837,western_union,CLH TALAVERA 2,,Talavera,NUEVA ECIJA,,PH,+63 2 7759 9800,https://location.westernunion.com/ph/nueva-ecija/talavera/1c609cd29e9b7e6069cdf5bfd25ec837,Mo-Th 07:00-20:00; Fr 20:00-20:00; Sa 07:00-20:00; Su 08:00-17:00,Western Union,Q861042
27a7cc2354d75f0cd116697709e7c818,western_union,USSC SERVICE STORE - TALAVERA,,Talavera,NUEVA ECIJA,,PH,(+63) 02-4492973,https://location.westernunion.com/ph/nueva-ecija/talavera/27a7cc2354d75f0cd116697709e7c818,Mo-Su 08:00-18:00,Western Union,Q861042
ece11fcd3c1c7cbb9e47b9876e3d2673,western_union,MLI TALAVERA 1 NUEVA ECIJA,,Talavera,NUEVA ECIJA,,PH,+63 32 345 6476,https://location.westernunion.com/ph/nueva-ecija/talavera/ece11fcd3c1c7cbb9e47b9876e3d2673,Mo-Su 00:01-24:00,Western Union,Q861042
1a287db1e970f6ac18bb0eb4d1058056,western_union,7MM PAWNSHOP AND MONEY CHANGER,,Talavera,NUEVA ECIJA,,PH,(+63) 9405943,https://location.westernunion.com/ph/nueva-ecija/talavera/1a287db1e970f6ac18bb0eb4d1058056,Mo-Su 08:00-17:00,Western Union,Q861042
9c9e9fd1761b3885cd8d7c319e271291,western_union,PALAWAN PAWNSHOP  TALAVERA,,Talavera,NUEVA ECIJA,,PH,+63 44 434 8596,https://location.westernunion.com/ph/nueva-ecija/talavera/9c9e9fd1761b3885cd8d7c319e271291,Mo-Su 08:00-17:30,Western Union,Q861042
715cccd8fe603d76fd4ed9ba16313f49,western_union,SAVEMORE MARKET TALAVERA,,Talavera,NUEVA ECIJA,,PH,+63 2 8631 8000,https://location.westernunion.com/ph/nueva-ecija/talavera/715cccd8fe603d76fd4ed9ba16313f49,Mo-Su 08:00-20:00,Western Union,Q861042
d48c57ad2e492586d8ea89d971b81e54,western_union,HL VILLARICA PAWNSHOP INC  TALAVERA,,Talavera,NUEVA ECIJA,,PH,(+63) 02-5556012,https://location.westernunion.com/ph/nueva-ecija/talavera/d48c57ad2e492586d8ea89d971b81e54,Mo-Fr 07:00-18:00; Sa 08:00-18:00; Su 08:00-17:00,Western Union,Q861042
590be5b7be597a92599f56cd4118ed9d,western_union,BDO WALTERMART TALAVERA,,Talavera,NUEVA ECIJA,,PH,(+63) 02-6318000,https://location.westernunion.com/ph/nueva-ecija/talavera/590be5b7be597a92599f56cd4118ed9d,Mo-Su 09:00-18:00,Western Union,Q861042
db37659f92907bbb15447d6d050309a5,western_union,PRODUCERS BANK TALAVERA,,Talavera,NUEVA ECIJA,,PH,+63 44 940 5975,https://location.westernunion.com/ph/nueva-ecija/talavera/db37659f92907bbb15447d6d050309a5,Mo-Sa 09:00-17:00,Western Union,Q861042
c7f0f1dbcc01da4205bb59426f372e0e,western_union,JANLUS PAWNSHOP & MONEY CHANGE,,Talavera,NUEVA ECIJA,,PH,+63 44 940 5917,https://location.westernunion.com/ph/nueva-ecija/talavera/c7f0f1dbcc01da4205bb59426f372e0e,Mo-Fr 08:00-17:00; Sa-Su 08:00-15:00,Western Union,Q861042
630d96f4ef8a2b388448151edf30a939,western_union,COLDCASH PAWNSHOP   TALAVERA,,Talavera,NUEVA ECIJA,,PH,(+63) 32-9985859046,https://location.westernunion.com/ph/nueva-ecija/talavera/630d96f4ef8a2b388448151edf30a939,Mo-Su 08:30-17:30,Western Union,Q861042
