Ref,Spider,Name,Address,City,State,Zipcode,Country,Phone,Website,Hours,Brand,WikiData
4661,action,Toulouse Purpan,,Toulouse,,,FR,,https://www.action.com/fr-fr/points-de-vente/toulouse-purpan/,,Action,Q2634111
1780700201,banque_populaire_fr,TOULOUSE LASCROSSES,,TOULOUSE,,,FR,+33 5 34 45 63 70,https://agences.banquepopulaire.fr/banque-assurance/agence-toulouse-lascrosses-id1780700201,"Mo-We 08:30-12:15,13:30-17:35; Th 08:30-12:15,14:30-17:35; Fr 08:30-12:30",Banque Populaire,Q846647
1780700101,banque_populaire_fr,TOULOUSE JEANNE D'ARC,,TOULOUSE,,,FR,+33 5 34 41 49 60,https://agences.banquepopulaire.fr/banque-assurance/agence-toulouse-jeanne-d-arc-id1780700101,"Tu-We 08:30-12:15,13:30-17:35; Th 08:30-12:15,14:30-17:35; Fr 08:30-12:15,13:30-17:35; Sa 08:30-12:30",Banque Populaire,Q846647
1780700013,banque_populaire_fr,TOULOUSE ESQUIROL,,TOULOUSE,,,FR,+33 5 34 31 32 70,https://agences.banquepopulaire.fr/banque-assurance/agence-toulouse-esquirol-id1780700013,"Mo-We 08:30-12:15,13:30-17:35; Th 08:30-12:15,14:30-17:35; Fr 08:30-12:30",Banque Populaire,Q846647
1780700017,banque_populaire_fr,TOULOUSE DUPUY,,TOULOUSE,,,FR,+33 5 62 73 75 75,https://agences.banquepopulaire.fr/banque-assurance/agence-toulouse-dupuy-id1780700017,"Mo-We 08:30-12:15,13:30-17:35; Th 08:30-12:15,14:30-17:35; Fr 08:30-12:30",Banque Populaire,Q846647
7o8BZd,carhartt_wip,Carhartt WIP Store Toulouse,,Toulouse,,,FR,+33 5 34 30 68 83,https://www.carhartt-wip.com/stores/4471,Mo 14:00-19:00; Tu-Sa 10:30-19:00,Carhartt Work in Progress,Q123015694
0531,carrefour_fr,Carrefour Toulouse Purpan,,Toulouse,,,FR,+33 5 34 26 58 79,https://www.carrefour.fr/magasin/toulouse-purpan,Mo-Th 08:30-21:30; Fr 08:30-22:00; Sa 08:30-21:00,Carrefour,Q217599
1383,carrefour_fr,Carrefour City,,Toulouse,,,FR,+33 9 67 06 67 65,https://www.carrefour.fr/magasin/city-toulouse-sabatier,Mo-Sa 07:00-21:00; Su 09:00-21:00,Carrefour City,Q2940187
1487,carrefour_fr,Market Toulouse Jean Rieux,,Toulouse,,,FR,+33 5 34 65 26 50,https://www.carrefour.fr/magasin/market-toulouse-jean-rieux,Mo-Sa 08:00-21:00; Su 09:00-12:45,Carrefour Market,Q2689639
31076001,carrefour_fr,Station Service Carrefour - Toulouse Purpan,,Toulouse,,,FR,+33 5 34 26 58 79,https://www.carrefour.fr/magasin/toulouse-purpan,24/7,Carrefour,Q217599
3762,carrefour_fr,Carrefour Express,,Toulouse,,,FR,+33 5 61 57 64 93,https://www.carrefour.fr/magasin/express-toulouse-minimes-49,Mo-Sa 07:00-22:00; Su 09:00-22:00,Carrefour Express,Q2940190
4224,carrefour_fr,Carrefour City,,Toulouse,,,FR,+33 5 61 46 55 80,https://www.carrefour.fr/magasin/carrefour-city-toulouse-matabiau,Mo-Sa 07:00-22:00; Su 09:00-21:00,Carrefour City,Q2940187
4298,carrefour_fr,Carrefour City,,Toulouse,,,FR,+33 5 62 84 88 96,https://www.carrefour.fr/magasin/city-toulouse-metz,Mo-Sa 07:00-22:00; Su 09:00-13:00,Carrefour City,Q2940187
4332,carrefour_fr,Carrefour City,,Toulouse,,,FR,+33 5 34 25 43 87,https://www.carrefour.fr/magasin/toulouse-vidal,Mo-Sa 07:00-22:00; Su 09:00-13:00,Carrefour City,Q2940187
4333,carrefour_fr,Carrefour City,,Toulouse,,,FR,+33 5 62 84 10 14,https://www.carrefour.fr/magasin/toulouse-remusat,Mo-Sa 07:00-22:00; Su 09:00-20:00,Carrefour City,Q2940187
4514,carrefour_fr,Carrefour Express,,Toulouse,,,FR,,,,Carrefour Express,Q2940190
4576,carrefour_fr,Carrefour Express,,Toulouse,,,FR,,https://www.carrefour.fr/magasin/express-toulouse-filatiers,Mo-Sa 08:00-22:00; Su 09:00-13:00,Carrefour Express,Q2940190
4881,carrefour_fr,Carrefour City,,Toulouse,,,FR,,https://www.carrefour.fr/magasin/carrefour-city-toulouse-metro-jean-jaures,Mo-Sa 07:00-22:00; Su 10:00-20:00,Carrefour City,Q2940187
5348,carrefour_fr,Carrefour City,,Toulouse,,,FR,+33 5 62 72 45 85,https://www.carrefour.fr/magasin/city-toulouse-bayard,Mo-Sa 07:00-22:00; Su 09:00-13:00,Carrefour City,Q2940187
5349,carrefour_fr,Carrefour City,,Toulouse,,,FR,+33 5 61 22 17 18,https://www.carrefour.fr/magasin/city-toulouse-a-bernard,Mo-Sa 08:00-22:00; Su 09:00-13:00,Carrefour City,Q2940187
5914,carrefour_fr,Carrefour Express,,Toulouse,,,FR,+33 5 61 63 03 83,https://www.carrefour.fr/magasin/express-toulouse-concorde,Mo-Su 08:00-22:00,Carrefour Express,Q2940190
5993,carrefour_fr,Carrefour Express,,Toulouse,,,FR,+33 5 34 30 40 18,https://www.carrefour.fr/magasin/express-toulouse-leduc,Mo-Sa 08:00-21:00; Su 09:00-20:00,Carrefour Express,Q2940190
6035,carrefour_fr,Carrefour Express,,Toulouse,,,FR,+33 5 32 60 95 87,https://www.carrefour.fr/magasin/express-toulouse-dupuy,Mo-Sa 08:00-22:00; Su 09:00-20:00,Carrefour Express,Q2940190
6036,carrefour_fr,Carrefour Express,,Toulouse,,,FR,+33 5 34 26 04 22,https://www.carrefour.fr/magasin/express-toulouse-jeanne-d-arc,Mo-Sa 07:00-22:00; Su 09:00-22:00,Carrefour Express,Q2940190
6231,carrefour_fr,Carrefour City,,Toulouse,,,FR,+33 5 34 44 15 81,https://www.carrefour.fr/magasin/city-toulouse-leclerc,Mo-Sa 07:00-22:00; Su 09:00-13:00,Carrefour City,Q2940187
6269,carrefour_fr,Carrefour City,,Toulouse,,,FR,+33 5 62 80 87 38,https://www.carrefour.fr/magasin/city-toulouse-bachelier,Mo-Sa 07:00-22:00; Su 09:00-13:00,Carrefour City,Q2940187
6332,carrefour_fr,Carrefour City,,Toulouse,,,FR,+33 5 61 24 71 07,https://www.carrefour.fr/magasin/city-toulouse-gloire,Mo-Sa 07:00-22:00; Su 09:00-13:00,Carrefour City,Q2940187
6715,carrefour_fr,Carrefour Express,,Toulouse,,,FR,+33 5 61 12 15 24,https://www.carrefour.fr/magasin/express-toulouse-taur,Mo-Sa 08:00-22:00; Su 09:00-20:00,Carrefour Express,Q2940190
6912,carrefour_fr,Carrefour City,,Toulouse,,,FR,+33 5 62 27 31 40,https://www.carrefour.fr/magasin/carrefour-city-toulouse-st-etienne,Mo-Sa 07:00-22:00; Su 09:00-13:00,Carrefour City,Q2940187
7524,carrefour_fr,Market Toulouse Compans,,Toulouse,,,FR,+33 5 61 22 47 60,https://www.carrefour.fr/magasin/market-toulouse-compans,Mo-Sa 08:30-21:00,Carrefour Market,Q2689639
9490,carrefour_fr,Carrefour City,,Toulouse,,,FR,,https://www.carrefour.fr/magasin/carrefour-city-toulouse-bonrepos,Mo-Sa 07:00-22:00; Su 09:00-13:00,Carrefour City,Q2940187
https://magasins.supercasino.fr/supermarche/toulouse-saint-georges/CS143,casino_fr,Toulouse Saint-georges,,TOULOUSE,,,FR,+33 5 62 27 54 00,https://magasins.supercasino.fr/supermarche/toulouse-saint-georges/CS143,Mo-Sa 07:00-22:00; Su 08:30-12:45,Casino Supermarchés,Q89029184
https://magasins.supercasino.fr/supermarche/toulouse-honore-serres/CS582,casino_fr,Toulouse Honoré Serres,,TOULOUSE,,,FR,+33 5 34 45 45 70,https://magasins.supercasino.fr/supermarche/toulouse-honore-serres/CS582,Mo-Sa 07:30-22:00; Su 08:00-12:30,Casino Supermarchés,Q89029184
toulouse/871,claires,Shoppe des piercings et des bijoux à Toulouse,,Toulouse,,,FR,+33 5 34 25 93 90,https://stores.claires.com/fr/fr-55/toulouse/871.html,Mo-Su 10:00-19:00,Claire's,Q2974996
toulouse/710,claires,Shoppe des piercings et des bijoux à Toulouse - St Rome,,Toulouse,,,FR,+33 5 34 44 17 09,https://stores.claires.com/fr/fr-55/toulouse/710.html,Mo-Su 10:00-19:00,Claire's,Q2974996
toulouse,completude,,,TOULOUSE ,,,FR,+33 5 61 10 29 29,https://www.completude.com/agence/toulouse/,,Complétude,Q2990589
https://www.credit-agricole.fr/particulier/agence/toulouse-31/toulouse-ozenne-5418.html,credit_agricole,Crédit Agricole,,Toulouse,,,FR,+33 5 61 14 72 20,https://www.credit-agricole.fr/particulier/agence/toulouse-31/toulouse-ozenne-5418.html,"Tu 09:00-12:00,14:00-18:00; We 09:00-13:00,14:00-18:00; Th 09:00-13:00,15:00-18:00; Fr 09:00-13:00,14:00-18:00; Sa 09:00-13:00",Credit Agricole,Q590952
https://www.credit-agricole.fr/particulier/agence/toulouse-31/toulouse-jeanne-d-arc-4646.html,credit_agricole,Crédit Agricole,,Toulouse,,,FR,+33 5 61 45 56 73,https://www.credit-agricole.fr/particulier/agence/toulouse-31/toulouse-jeanne-d-arc-4646.html,"Tu 09:00-12:00,14:00-18:00; We 09:00-13:00,14:00-18:00; Th 09:00-13:00,15:00-18:00; Fr 09:00-13:00,14:00-18:00; Sa 09:00-13:00",Credit Agricole,Q590952
https://www.credit-agricole.fr/particulier/agence/toulouse-31/toulouse-jean-jaures-4510.html,credit_agricole,Crédit Agricole,,Toulouse,,,FR,+33 5 34 26 16 24,https://www.credit-agricole.fr/particulier/agence/toulouse-31/toulouse-jean-jaures-4510.html,"Tu 09:00-12:00,14:00-18:00; We 09:00-13:00,14:00-18:00; Th 09:00-13:00,15:00-18:00; Fr 09:00-13:00,14:00-18:00; Sa 09:00-13:00",Credit Agricole,Q590952
https://www.credit-agricole.fr/particulier/agence/toulouse-31/toulouse-dupuy-4645.html,credit_agricole,Crédit Agricole,,Toulouse,,,FR,+33 5 61 45 56 72,https://www.credit-agricole.fr/particulier/agence/toulouse-31/toulouse-dupuy-4645.html,"Tu 09:00-12:00,14:00-18:00; We 09:00-13:00,14:00-18:00; Th 09:00-13:00,15:00-18:00; Fr 09:00-13:00,14:00-18:00; Sa 09:00-13:00",Credit Agricole,Q590952
https://www.credit-agricole.fr/particulier/agence/toulouse-31/toulouse-compans-caffarelli-4516.html,credit_agricole,Crédit Agricole,,Toulouse,,,FR,+33 5 34 45 03 10,https://www.credit-agricole.fr/particulier/agence/toulouse-31/toulouse-compans-caffarelli-4516.html,"Tu 09:00-12:00,14:00-18:00; We 09:00-13:00,14:00-18:00; Th 09:00-13:00,15:00-18:00; Fr 09:00-13:00,14:00-18:00; Sa 09:00-13:00",Credit Agricole,Q590952
https://www.credit-agricole.fr/particulier/agence/toulouse-31/toulouse-capitole-4512.html,credit_agricole,Crédit Agricole,,Toulouse,,,FR,+33 5 34 33 04 78,https://www.credit-agricole.fr/particulier/agence/toulouse-31/toulouse-capitole-4512.html,"Tu 09:00-12:00,14:00-18:00; We 09:00-13:00,14:00-18:00; Th 09:00-13:00,15:00-18:00; Fr 09:00-13:00,14:00-18:00; Sa 09:00-13:00",Credit Agricole,Q590952
https://www.credit-agricole.fr/particulier/agence/toulouse-31/habitat-conseil-5352.html,credit_agricole,Crédit Agricole,,Toulouse,,,FR,+33 5 34 26 12 71,https://www.credit-agricole.fr/particulier/agence/toulouse-31/habitat-conseil-5352.html,"Mo 09:00-12:30,13:30-17:48; Tu 09:00-12:30,14:30-17:48; We-Fr 09:00-12:30,13:30-17:48",Credit Agricole,Q590952
https://www.credit-agricole.fr/particulier/agence/toulouse-31/grandes-entreprises-investisseurs-institutionnels-5416.html,credit_agricole,Crédit Agricole,,Toulouse,,,FR,+33 5 61 14 50 51,https://www.credit-agricole.fr/particulier/agence/toulouse-31/grandes-entreprises-investisseurs-institutionnels-5416.html,"Mo 08:30-12:30,13:45-17:45; Tu-Fr 08:30-12:30,13:45-17:30",Credit Agricole,Q590952
https://www.credit-agricole.fr/particulier/agence/toulouse-31/entreprises-5415.html,credit_agricole,Crédit Agricole,,Toulouse,,,FR,+33 5 61 14 50 30,https://www.credit-agricole.fr/particulier/agence/toulouse-31/entreprises-5415.html,"Mo 08:30-12:30,13:45-17:45; Tu-Fr 08:30-12:30,13:45-17:30",Credit Agricole,Q590952
https://www.credit-agricole.fr/particulier/agence/toulouse-31/e-cat31-10252.html,credit_agricole,Crédit Agricole,,Toulouse,,,FR,+33 5 33 63 00 13,https://www.credit-agricole.fr/particulier/agence/toulouse-31/e-cat31-10252.html,"Mo-Fr 09:00-13:00,14:00-18:00",Credit Agricole,Q590952
https://www.credit-agricole.fr/particulier/agence/toulouse-31/distributeur-wilson-6594.html,credit_agricole,Crédit Agricole,,Toulouse,,,FR,,https://www.credit-agricole.fr/particulier/agence/toulouse-31/distributeur-wilson-6594.html,"Mo-Su 00:00-12:30,12:30-24:00",Credit Agricole,Q590952
https://www.credit-agricole.fr/particulier/agence/toulouse-31/distributeur-victor-hugo-6589.html,credit_agricole,Crédit Agricole,,Toulouse,,,FR,,https://www.credit-agricole.fr/particulier/agence/toulouse-31/distributeur-victor-hugo-6589.html,"Mo-Su 00:00-12:30,12:30-24:00",Credit Agricole,Q590952
https://www.credit-agricole.fr/particulier/agence/toulouse-31/distributeur-taur-6607.html,credit_agricole,Crédit Agricole,,Toulouse,,,FR,,https://www.credit-agricole.fr/particulier/agence/toulouse-31/distributeur-taur-6607.html,"Mo-Su 00:00-12:30,12:30-24:00",Credit Agricole,Q590952
https://www.credit-agricole.fr/particulier/agence/toulouse-31/distributeur-strasbourg-6584.html,credit_agricole,Crédit Agricole,,Toulouse,,,FR,,https://www.credit-agricole.fr/particulier/agence/toulouse-31/distributeur-strasbourg-6584.html,"Mo-Su 00:00-12:30,12:30-24:00",Credit Agricole,Q590952
https://www.credit-agricole.fr/particulier/agence/toulouse-31/distributeur-saint-georges-6606.html,credit_agricole,Crédit Agricole,,Toulouse,,,FR,,https://www.credit-agricole.fr/particulier/agence/toulouse-31/distributeur-saint-georges-6606.html,"Mo-Su 00:00-12:30,12:30-24:00",Credit Agricole,Q590952
https://www.credit-agricole.fr/particulier/agence/toulouse-31/distributeur-peyrou-6599.html,credit_agricole,Crédit Agricole,,Toulouse,,,FR,,https://www.credit-agricole.fr/particulier/agence/toulouse-31/distributeur-peyrou-6599.html,"Mo-Su 00:00-12:30,12:30-24:00",Credit Agricole,Q590952
https://www.credit-agricole.fr/particulier/agence/toulouse-31/distributeur-ozenne-6587.html,credit_agricole,Crédit Agricole,,Toulouse,,,FR,,https://www.credit-agricole.fr/particulier/agence/toulouse-31/distributeur-ozenne-6587.html,"Mo-Su 00:00-12:30,12:30-24:00",Credit Agricole,Q590952
https://www.credit-agricole.fr/particulier/agence/toulouse-31/distributeur-lafayette-6586.html,credit_agricole,Crédit Agricole,,Toulouse,,,FR,,https://www.credit-agricole.fr/particulier/agence/toulouse-31/distributeur-lafayette-6586.html,"Mo-Su 00:00-12:30,12:30-24:00",Credit Agricole,Q590952
https://www.credit-agricole.fr/particulier/agence/toulouse-31/distributeur-gabriel-peri-6591.html,credit_agricole,Crédit Agricole,,Toulouse,,,FR,,https://www.credit-agricole.fr/particulier/agence/toulouse-31/distributeur-gabriel-peri-6591.html,"Mo-Su 00:00-12:30,12:30-24:00",Credit Agricole,Q590952
https://www.credit-agricole.fr/particulier/agence/toulouse-31/distributeur-dupuy-6616.html,credit_agricole,Crédit Agricole,,Toulouse,,,FR,,https://www.credit-agricole.fr/particulier/agence/toulouse-31/distributeur-dupuy-6616.html,"Mo-Su 00:00-12:30,12:30-24:00",Credit Agricole,Q590952
https://www.credit-agricole.fr/particulier/agence/toulouse-31/distributeur-daurade-6604.html,credit_agricole,Crédit Agricole,,Toulouse,,,FR,,https://www.credit-agricole.fr/particulier/agence/toulouse-31/distributeur-daurade-6604.html,"Mo-Su 00:00-12:30,12:30-24:00",Credit Agricole,Q590952
https://www.credit-agricole.fr/particulier/agence/toulouse-31/distributeur-concorde-6615.html,credit_agricole,Crédit Agricole,,Toulouse,,,FR,,https://www.credit-agricole.fr/particulier/agence/toulouse-31/distributeur-concorde-6615.html,"Mo-Su 00:00-12:30,12:30-24:00",Credit Agricole,Q590952
https://www.credit-agricole.fr/particulier/agence/toulouse-31/distributeur-carmes-6610.html,credit_agricole,Crédit Agricole,,Toulouse,,,FR,,https://www.credit-agricole.fr/particulier/agence/toulouse-31/distributeur-carmes-6610.html,"Mo-Su 00:00-12:30,12:30-24:00",Credit Agricole,Q590952
https://www.credit-agricole.fr/particulier/agence/toulouse-31/distributeur-bayard-6588.html,credit_agricole,Crédit Agricole,,Toulouse,,,FR,,https://www.credit-agricole.fr/particulier/agence/toulouse-31/distributeur-bayard-6588.html,"Mo-Su 00:00-12:30,12:30-24:00",Credit Agricole,Q590952
https://www.credit-agricole.fr/particulier/agence/toulouse-31/distributeur-alsace-lorraine-6592.html,credit_agricole,Crédit Agricole,,Toulouse,,,FR,,https://www.credit-agricole.fr/particulier/agence/toulouse-31/distributeur-alsace-lorraine-6592.html,"Mo-Su 00:00-12:30,12:30-24:00",Credit Agricole,Q590952
https://www.credit-agricole.fr/particulier/agence/toulouse-31/banque-privee-7399.html,credit_agricole,Crédit Agricole,,Toulouse,,,FR,+33 5 61 14 50 80,https://www.credit-agricole.fr/particulier/agence/toulouse-31/banque-privee-7399.html,"Mo-Fr 09:00-12:30,14:00-18:15",Credit Agricole,Q590952
https://www.credit-agricole.fr/particulier/agence/toulouse-31/agence-du-developpement-immobilier-et-des-territoires-5417.html,credit_agricole,Crédit Agricole,,Toulouse,,,FR,+33 5 61 14 50 70,https://www.credit-agricole.fr/particulier/agence/toulouse-31/agence-du-developpement-immobilier-et-des-territoires-5417.html,"Mo 08:15-12:30,13:45-17:30; Tu-Fr 08:30-12:30,13:45-17:30",Credit Agricole,Q590952
https://www.credit-agricole.fr/particulier/agence/toulouse-31/agence-des-professionnels-centre-5419.html,credit_agricole,Crédit Agricole,,Toulouse,,,FR,+33 5 61 45 56 80,https://www.credit-agricole.fr/particulier/agence/toulouse-31/agence-des-professionnels-centre-5419.html,"Mo 09:00-12:00,14:30-18:00; Tu-Fr 09:00-12:30,14:00-18:00",Credit Agricole,Q590952
02220,credit_mutuel_fr,CAISSE DE CREDIT MUTUEL TOULOUSE COMPANS,,TOULOUSE,,,FR,+33 5 61 23 06 66,https://www.creditmutuel.fr/fr/caisses/10278/02220/00/000,,Crédit Mutuel,Q642627
02213,credit_mutuel_fr,CAISSE DE CREDIT MUTUEL TOULOUSE DUPUY,,TOULOUSE,,,FR,+33 5 62 89 09 40,https://www.creditmutuel.fr/fr/caisses/10278/02213/00/000,,Crédit Mutuel,Q642627
02209,credit_mutuel_fr,CAISSE DE CREDIT MUTUEL TOULOUSE CAPITOLE,,TOULOUSE,,,FR,+33 5 61 21 03 03,https://www.creditmutuel.fr/fr/caisses/10278/02209/00/000,,Crédit Mutuel,Q642627
02205,credit_mutuel_fr,CAISSE DE CREDIT MUTUEL TOULOUSE ESQUIROL,,TOULOUSE,,,FR,+33 5 61 22 08 18,https://www.creditmutuel.fr/fr/caisses/10278/02205/00/000,,Crédit Mutuel,Q642627
02200,credit_mutuel_fr,CAISSE DE CREDIT MUTUEL TOULOUSE CENTRE,,TOULOUSE,,,FR,+33 5 61 11 10 97,https://www.creditmutuel.fr/fr/caisses/10278/02200/00/000,,Crédit Mutuel,Q642627
426,croix_rouge_francaise_fr,UNITE LOCALE DE TOULOUSE,,TOULOUSE,,,FR,,https://www.croix-rouge.fr/unite-locale-de-toulouse,,Croix-Rouge française,Q3003244
FR0038,c_and_a,Toulouse Rue Saint Rome,"Rue Saint Rome 55, 31000 Toulouse",Toulouse,,,FR,,https://www.c-and-a.com/stores/fr-fr/occitanie/toulouse/rue-saint-rome-55.html,Mo 09:30-19:00; Tu 09:30-19:00; We 09:30-19:00; Th 09:30-19:00; Fr 09:30-19:00; Sa 09:30-19:00,C&A,Q701338
0070004900049,decathlon_fr,Toulouse Centre Ville,,Toulouse,,,FR,+33 5 61 62 24 49,https://www.decathlon.fr/store-view/magasin-de-sports-toulouse-centre-ville-0070004900049,Mo-Sa 09:30-19:30,Decathlon,Q509349
https://www.dominos.fr/magasin/toulouse-lascrosses_31000,dominos_pizza_fr,Domino's,,TOULOUSE,,,FR,,https://www.dominos.fr/magasin/toulouse-lascrosses_31000,,Domino's,Q839466
TLSX61,enterprise,Toulouse Matabiau Train Station,,Toulouse,,,FR,+33 5 61 62 02 96,,,Enterprise Rent-A-Car,Q17085454
france#toulouse,ernst_young,EY,"1, place de L’Europe, Toulouse",Toulouse,,,FR,+33 5 62 15 43 43,https://www.ey.com/locations/france#toulouse,,EY,Q489097
15185872,esprit,Esprit Franchise Store Toulouse,,Toulouse,,,FR,+33 9 79 72 14 32,"https://www.esprit.com/storefinder?storeid=15185872&location=43.60320000,1.44569000",Tu-Su 10:15-19:00,Esprit,Q532746
103580,geox,Geox TOULOUSE,,TOULOUSE,,,FR,+33 5 61 21 44 79,https://www.geox.com/int/storedetails?StoreID=103580,"Mo 10:00-13:00,14:00-18:30; Tu-Sa 10:00-13:00,14:00-19:00",Geox,Q588001
1526,lidl_fr,TOULOUSE Sauveur,,TOULOUSE,,,FR,,,Mo-Sa 08:30-20:00; Su 08:30-12:15,Lidl,Q151954
1533,lidl_fr,TOULOUSE Bayard,,TOULOUSE,,,FR,,,Mo-Sa 08:30-20:30; Su 08:30-12:15,Lidl,Q151954
FR293,longchamp,Longchamp Toulouse,,TOULOUSE,,,FR,+33 5 61 52 82 57,,,Longchamp,Q1869471
1363,mcdonalds_fr,Toulouse Esquirol,,Toulouse,,,FR,+33 5 62 89 54 25,https://www.mcdonalds.fr/restaurants/mcdonalds-toulouseesquirol/1363,Mo-Su 09:00-24:00,McDonald's,Q38076
1678,mcdonalds_fr,TOULOUSE SAINT MICHEL,,TOULOUSE,,,FR,+33 5 34 56 28 36,https://www.mcdonalds.fr/restaurants/mcdonalds-toulouse-saint-michel/1678,Mo-Su 11:00-23:00,McDonald's,Q38076
1717,mcdonalds_fr,TOULOUSE SAINT PIERRE,,TOULOUSE,,,FR,+33 5 61 22 18 88,https://www.mcdonalds.fr/restaurants/mcdonalds-toulouse-saint-pierre/1717,Mo-Fr 10:00-02:00; Sa 10:00-03:00; Su 10:00-02:00,McDonald's,Q38076
208,mcdonalds_fr,Toulouse Compans,,TOULOUSE,,,FR,+33 5 61 22 18 88,https://www.mcdonalds.fr/restaurants/mcdonalds-toulousecompans/208,Mo-Fr 09:30-02:00; Sa 09:30-03:00; Su 09:30-02:00,McDonald's,Q38076
22,mcdonalds_fr,TOULOUSE CAPITOLE,,TOULOUSE,,,FR,+33 5 61 21 23 77,https://www.mcdonalds.fr/restaurants/mcdonalds-toulouse-capitole/22,Mo-Tu 10:00-23:00; We 10:00-24:00; Th-Sa 10:00-01:00; Su 10:30-23:00,McDonald's,Q38076
49,mcdonalds_fr,TOULOUSE ROOSEVELT,,TOULOUSE,,,FR,+33 5 61 23 85 47,https://www.mcdonalds.fr/restaurants/mcdonalds-toulouse-roosevelt/49,Mo-Th 09:00-01:00; Fr 09:00-02:00; Sa 10:00-02:00; Su 10:00-01:00,McDonald's,Q38076
TM,micromania_fr,TOULOUSE RUE SAINT ROME,,TOULOUSE,,,FR,+33 5 34 45 08 90,https://www.micromania.fr/magasin?storeid=TM,Mo-Sa 10:00-19:30,Micromania,Q3312221
74070684,moneygram,SARA BAZAR,,TOULOUSE,,,FR,+33 6 95 33 52 32,,Mo-Su 09:00-21:00,MoneyGram,Q1944412
74358979,moneygram,BANGLA BAZAR - TOULOUSE,,TOULOUSE,,,FR,+33 5 62 80 96 36,,Mo-Su 09:00-21:30,MoneyGram,Q1944412
74451193,moneygram,DENIS JACQUES FRANCOIS GALINIER,,TOULOUSE,,,FR,+33 5 62 21 23 48,,Mo-Fr 06:30-19:00; Sa 07:30-19:00; Su 00:00-24:00,MoneyGram,Q1944412
69361065,moneygram,LE TEMPS DE VIVRE - TOULOUSE,,TOULOUSE,,,FR,+33 5 61 22 71 37,,Mo-Sa 09:00-19:00; Su 00:00-24:00,MoneyGram,Q1944412
74738227,moneygram,RMW MONEY TRANSFER & ACCESSOIRES - RMW B,,TOULOUSE,,,FR,+33 6 49 61 56 58,,Mo-Su 08:00-22:00,MoneyGram,Q1944412
74955576,moneygram,LES DELICES DE LENA,,TOULOUSE,,,FR,+33 6 95 31 22 97,,Mo-Su 09:00-21:00,MoneyGram,Q1944412
71050238,moneygram,MAMI@PHONE - TOULOUSE,,TOULOUSE,,,FR,+33 9 53 51 15 72,,Mo-Th 10:00-19:00; Fr 09:30-19:00; Sa-Su 10:00-19:00,MoneyGram,Q1944412
65288993,moneygram,AGENCE MONEYGRAM TOULOUSE - BAYARD,,TOULOUSE,,,FR,+33 5 61 13 25 46,,Mo-Sa 09:00-19:00; Su 00:00-24:00,MoneyGram,Q1944412
5dee164f8c6c0055a2571286,newyorker,NEW YORKER | EKZ Espace Saint-Georges,"51 bis rue du rempart Saint-Etienne, 31000 Toulouse",Toulouse,,,FR,+33 5 34 24 01 10,,Mo-Sa 10:00-20:00; Su 12:00-19:00,New Yorker,Q706421
109-opticien-toulouse-capitole-optical-center,optical_center,Opticien TOULOUSE -CAPITOLE Optical Center,,Toulouse,,,FR,+33 5 61 22 05 47,https://opticien.optical-center.fr/109-opticien-toulouse-capitole-optical-center,Mo-Sa 09:00-19:00,Optical Center,Q3354448
fr44d811a0,pandora,Trouvez votre boutique Pandora la plus proche !,,TOULOUSE,,,FR,+33 5 61 29 73 68,https://stores.pandora.net/fr-occ/toulouse/bijoux-pandora-fr44d811a0.html,,Pandora,Q2241604
https://stores.petit-bateau.com/#9115929,petit_bateau,PETIT BATEAU Toulouse,,Toulouse,,,FR,+33 5 61 23 53 99,https://stores.petit-bateau.com/france/toulouse/26-rue-saint-antoine-du-t,Mo-Sa 10:00-19:00,Petit Bateau,Q3377090
00000951_001-renault,renault,RENAULT TOULOUSE ETATS UNIS - EDENAUTO,,TOULOUSE,,,FR,+33 5 61 10 75 75,,,Renault,Q6686
00000951_001-dacia,renault,RENAULT TOULOUSE ETATS UNIS - EDENAUTO,,TOULOUSE,,,FR,+33 5 61 10 75 75,,,Dacia,Q27460
00000952_001-renault,renault,RENAULT ROCADE OUEST - EDENAUTO,,TOULOUSE,,,FR,+33 5 61 19 21 21,,,Renault,Q6686
00000952_001-dacia,renault,RENAULT ROCADE OUEST - EDENAUTO,,TOULOUSE,,,FR,+33 5 61 19 21 21,,,Dacia,Q27460
00017113_001-renault,renault,GARAGE GOMEZ,,TOULOUSE,,,FR,+33 5 61 21 81 15,,,Renault,Q6686
00017113_001-dacia,renault,GARAGE GOMEZ,,TOULOUSE,,,FR,+33 5 61 21 81 15,,,Dacia,Q27460
https://www.sixt.co.uk/car-hire/france/toulouse/toulouse-carnot/,sixt,Car Hire Toulouse Carnot | SIXT rent a car,,Toulouse,,,FR,,https://www.sixt.co.uk/car-hire/france/toulouse/toulouse-carnot/,Mo-Fr 07:30-19:00; Sa 08:00-16:00; Su 14:00-19:00,SIXT,Q705664
spar-toulouse-bonnefoy,spar_fr,SPAR Toulouse Bonnefoy,,Toulouse,,,FR,+33 5 34 25 76 74,https://magasins.spar.fr/fr/s/spar-toulouse-bonnefoy,"Mo-Fr 08:00-20:00; Su 08:30-13:00,16:00-20:00",Spar,Q610492
spar-toulouse-la-colombette,spar_fr,SPAR Toulouse La Colombette,,Toulouse,,,FR,+33 5 61 62 83 58,https://magasins.spar.fr/fr/s/spar-toulouse-la-colombette,Mo-Sa 08:00-22:00; Su 08:00-15:00,Spar,Q610492
https://restaurants.subway.com/#14924802,subway,Subway,,Toulouse,,,FR,+33 7 52 67 88 62,https://restaurants.subway.com/france/toulouse/13-boulevard-bonrepos,Mo-Su 11:30-22:00,Subway,Q244457
https://restaurants.subway.com/#14924875,subway,Subway,,Toulouse,,,FR,+33 5 61 45 24 05,https://restaurants.subway.com/france/toulouse/166-route-de-revel,Mo-Su 10:30-22:30,Subway,Q244457
https://restaurants.subway.com/#14924801,subway,Subway,,Toulouse,,,FR,+33 5 34 40 87 30,https://restaurants.subway.com/france/toulouse/1-place-de-la-trinite,Mo-Su 11:00-23:00,Subway,Q244457
https://restaurants.subway.com/#14925466,subway,Subway,,Toulouse,,,FR,+33 5 61 52 36 41,https://restaurants.subway.com/france/toulouse/211-route-de-narbonne,Mo-Su 08:30-22:30,Subway,Q244457
https://stores.superdry.com/#17497391,superdry,Superdry  Toulouse Lorraine,,Toulouse,,,FR,+33 5 34 33 69 06,https://stores.superdry.com/fr/toulouse/38-rue-alsace-lorraine,Mo-Sa 10:00-19:00,Superdry,Q1684445
70,thales_fr,THALES SERVICES SA,,Toulouse,,,FR,,,,Thales,Q1161666
8796401238039,thebodyshop,Toulouse,,TOULOUSE,,,FR,,https://www.thebodyshop.com/fr-fr/store-details/toulouse/3129,,The Body Shop,Q837851
TNFST-52RDTT-2,the_north_face_eu,The North Face Store Toulouse,,Toulouse,,,FR,+33 5 61 21 39 38,,,The North Face,Q152784
TBL-9278,timberland,Timberland - Toulouse,,Toulouse,,,FR,+33 9 72 53 13 72,,,Timberland,Q1539185
NF908995,totalenergies,ESSO,,TOULOUSE,,,FR,,https://store.totalenergies.fr/en_EN/NF908995,,Esso,Q867662
N810457,united_colors_of_benetton,Benetton Toulouse,,TOULOUSE,,,FR,+33 5 61 22 79 29,,Mo-Sa 10:00-19:00,United Colors of Benetton,Q817139
,visa,,,TOULOUSE,,,FR,,,,,
,visa,,,TOULOUSE,,,FR,,,,,
,visa,,,TOULOUSE,,,FR,,,,,
,visa,,,TOULOUSE,,,FR,,,,,
,visa,,,TOULOUSE,,,FR,,,,,
,visa,,,TOULOUSE,,,FR,,,,,
,visa,,,TOULOUSE,,,FR,,,,,
,visa,,,TOULOUSE,,,FR,,,,,
,visa,,,TOULOUSE,,,FR,,,,,
,visa,,,TOULOUSE,,,FR,,,,,
,visa,,,TOULOUSE,,,FR,,,,,
,visa,,,TOULOUSE,,,FR,,,,,
,visa,,,TOULOUSE,,,FR,,,,,
,visa,,,TOULOUSE,,,FR,,,,,
,visa,,,TOULOUSE,,,FR,,,,,
,visa,,,TOULOUSE,,,FR,,,,,
,visa,,,TOULOUSE,,,FR,,,,,
,visa,,,TOULOUSE,,,FR,,,,,
,visa,,,TOULOUSE,,,FR,,,,,
,visa,,,TOULOUSE,,,FR,,,,,
,visa,,,TOULOUSE,,,FR,,,,,
,visa,,,TOULOUSE,,,FR,,,,,
,visa,,,TOULOUSE,,,FR,,,,,
,visa,,,TOULOUSE,,,FR,,,,,
,visa,,,TOULOUSE,,,FR,,,,,
,visa,,,TOULOUSE,,,FR,,,,,
,visa,,,TOULOUSE,,,FR,,,,,
,visa,,,TOULOUSE,,,FR,,,,,
,visa,,,TOULOUSE,,,FR,,,,,
,visa,,,TOULOUSE,,,FR,,,,,
,visa,,,TOULOUSE,,,FR,,,,,
,visa,,,TOULOUSE,,,FR,,,,,
,visa,,,TOULOUSE,,,FR,,,,,
,visa,,,TOULOUSE,,,FR,,,,,
,visa,,,TOULOUSE,,,FR,,,,,
,visa,,,TOULOUSE,,,FR,,,,,
,visa,,,TOULOUSE,,,FR,,,,,
,visa,,,TOULOUSE,,,FR,,,,,
,visa,,,TOULOUSE,,,FR,,,,,
,visa,,,TOULOUSE,,,FR,,,,,
,visa,,,TOULOUSE,,,FR,,,,,
,visa,,,TOULOUSE,,,FR,,,,,
,visa,,,TOULOUSE,,,FR,,,,,
,visa,,,TOULOUSE,,,FR,,,,,
,visa,,,TOULOUSE,,,FR,,,,,
,visa,,,TOULOUSE,,,FR,,,,,
,visa,,,TOULOUSE,,,FR,,,,,
,visa,,,TOULOUSE,,,FR,,,,,
,visa,,,TOULOUSE,,,FR,,,,,
,visa,,,TOULOUSE,,,FR,,,,,
,visa,,,TOULOUSE,,,FR,,,,,
,visa,,,TOULOUSE,,,FR,,,,,
,visa,,,TOULOUSE,,,FR,,,,,
,visa,,,TOULOUSE,,,FR,,,,,
,visa,,,TOULOUSE,,,FR,,,,,
,visa,,,TOULOUSE,,,FR,,,,,
,visa,,,TOULOUSE,,,FR,,,,,
,visa,,,TOULOUSE,,,FR,,,,,
,visa,,,TOULOUSE,,,FR,,,,,
,visa,,,TOULOUSE,,,FR,,,,,
,visa,,,TOULOUSE,,,FR,,,,,
,visa,,,TOULOUSE,,,FR,,,,,
,visa,,,TOULOUSE,,,FR,,,,,
,visa,,,TOULOUSE,,,FR,,,,,
,visa,,,TOULOUSE,,,FR,,,,,
,visa,,,TOULOUSE,,,FR,,,,,
,visa,,,TOULOUSE,,,FR,,,,,
,visa,,,TOULOUSE,,,FR,,,,,
,visa,,,TOULOUSE,,,FR,,,,,
,visa,,,TOULOUSE,,,FR,,,,,
,visa,,,TOULOUSE,,,FR,,,,,
,visa,,,TOULOUSE,,,FR,,,,,
,visa,,,TOULOUSE,,,FR,,,,,
,visa,,,TOULOUSE,,,FR,,,,,
,visa,,,TOULOUSE,,,FR,,,,,
,visa,,,TOULOUSE,,,FR,,,,,
,visa,,,TOULOUSE,,,FR,,,,,
,visa,,,TOULOUSE,,,FR,,,,,
,visa,,,TOULOUSE,,,FR,,,,,
,visa,,,TOULOUSE,,,FR,,,,,
,visa,,,TOULOUSE,,,FR,,,,,
,visa,,,TOULOUSE,,,FR,,,,,
,visa,,,TOULOUSE,,,FR,,,,,
,visa,,,TOULOUSE,,,FR,,,,,
,visa,,,TOULOUSE,,,FR,,,,,
,visa,,,TOULOUSE,,,FR,,,,,
,visa,,,TOULOUSE,,,FR,,,,,
,visa,,,TOULOUSE,,,FR,,,,,
,visa,,,TOULOUSE,,,FR,,,,,
,visa,,,TOULOUSE,,,FR,,,,,
,visa,,,TOULOUSE,,,FR,,,,,
,visa,,,TOULOUSE,,,FR,,,,,
,visa,,,TOULOUSE,,,FR,,,,,
,visa,,,TOULOUSE,,,FR,,,,,
,visa,,,TOULOUSE,,,FR,,,,,
,visa,,,TOULOUSE,,,FR,,,,,
,visa,,,TOULOUSE,,,FR,,,,,
,visa,,,TOULOUSE,,,FR,,,,,
,visa,,,TOULOUSE,,,FR,,,,,
,visa,,,TOULOUSE,,,FR,,,,,
,visa,,,TOULOUSE,,,FR,,,,,
,visa,,,TOULOUSE,,,FR,,,,,
,visa,,,TOULOUSE,,,FR,,,,,
http://magasins.vival.fr/fr/vival-toulouse-pharaon,vival_fr,Vival Toulouse Pharaon,,Toulouse,,,FR,+33 5 62 25 65 43,http://magasins.vival.fr/fr/vival-toulouse-pharaon,Mo-Th 08:00-21:00; Fr-Sa 08:00-24:00; Su 08:00-20:00,Vival,Q7937525
http://magasins.vival.fr/fr/vival-toulouse-jolimont,vival_fr,Vival Toulouse Jolimont,,Toulouse,,,FR,+33 9 80 64 52 42,http://magasins.vival.fr/fr/vival-toulouse-jolimont,"Mo-Th 08:30-13:00,15:00-21:30; Fr-Sa 08:30-13:00,15:00-22:00; Su 08:30-21:30",Vival,Q7937525
http://magasins.vival.fr/fr/vival-toulouse-blanchers,vival_fr,Vival Toulouse Blanchers,,Toulouse,,,FR,+33 5 61 23 90 03,http://magasins.vival.fr/fr/vival-toulouse-blanchers,Mo-Su 09:00-22:00,Vival,Q7937525
e8c2ebe32c864b23e3b154465efe97d7,western_union,SARA BAZAR,,Toulouse,,,FR,+33 6 36 13 83 41,https://location.westernunion.com/fr/state/toulouse/e8c2ebe32c864b23e3b154465efe97d7,Mo-Fr 10:30-20:00; Sa-Su 11:30-20:00,Western Union,Q861042
77924f6182c639bbb091f241945423c9,western_union,AFRIKI MARCHE SERVICES,,Toulouse,,,FR,+33 6 44 70 98 59,https://location.westernunion.com/fr/state/toulouse/77924f6182c639bbb091f241945423c9,Mo-Sa 10:30-18:00,Western Union,Q861042
