Ref,Spider,Name,Address,City,State,Zipcode,Country,Phone,Website,Hours,Brand,WikiData
72522626,moneygram,AMIT PHOTOSTAT AND COMMUNICATION,,AMBALA,,,IN,+91 87087 79412,,Mo-Su 08:00-21:00,MoneyGram,Q1944412
72589397,moneygram,MEERI PEERI TOUR TRAVELS,,AMBALA,,,IN,+91 80534 72630,,Mo-Su 08:00-21:00,MoneyGram,Q1944412
72887523,moneygram,SWASTIK TRADERS - AMBALA,,AMBALA,,,IN,+91 90770 00000,,Mo-Su 08:00-21:00,MoneyGram,Q1944412
72893614,moneygram,ALPHA FOREX PVT LTD,,AMBALA,,,IN,+91 98963 03675,,Mo-Su 08:00-21:00,MoneyGram,Q1944412
72897160,moneygram,DAWAR OVERSEAS - AMBALA,,AMBALA,,,IN,+91 90779 00000,,Mo-Su 08:00-21:00,MoneyGram,Q1944412
72927726,moneygram,AMAZE FOREX AND CONSULTANTS - AMBALA,,AMBALA,,,IN,+91 98969 43890,,Mo-Su 08:00-21:00,MoneyGram,Q1944412
73272768,moneygram,DAWAR FOREX TOURS & TRAVELS,,AMBALA,,,IN,+91 94160 24759,,Mo-Su 08:00-21:00,MoneyGram,Q1944412
73259875,moneygram,MUTHOOT FINANCE LTD - #1243 - AMBALA - A,,AMBALA,,,IN,+91 171 400 7508,,Mo-Su 09:00-19:00,MoneyGram,Q1944412
73252791,moneygram,MUTHOOT FINANCE LTD - #384 - AMBALA - AM,,AMBALA,,,IN,+91 171 263 1773,,Mo-Su 09:00-19:00,MoneyGram,Q1944412
73309181,moneygram,MUTHOOT FINCORP LIMITED - #F729 - AMBALA,,AMBALA,,,IN,+91 171 263 2300,,Mo-Sa 09:00-17:30; Su 00:00-24:00,MoneyGram,Q1944412
72974481,moneygram,AVON GRPAHIC HUB,,AMBALA,,,IN,+91 97290 19980,,Mo-Su 08:00-21:00,MoneyGram,Q1944412
73363703,moneygram,SHREE SHIVANAND ENTERPRISES - AMBALA,,AMBALA,,,IN,+91 98967 43345,,Mo-Su 08:00-21:00,MoneyGram,Q1944412
73537775,moneygram,PAUL MERCHANTS LIMITED,,AMBALA CANTT,,,IN,+91 93177 14277,,Mo-Su 08:00-21:00,MoneyGram,Q1944412
73643818,moneygram,EK ONKAR FINANCIAL SERVICES,,AMBALA,,,IN,+91 99920 12544,,Mo-Su 08:00-21:00,MoneyGram,Q1944412
73739502,moneygram,VASHISHT LOGISTICS,,AMBALA,,,IN,+91 97293 14457,,Mo-Su 08:00-21:00,MoneyGram,Q1944412
73823007,moneygram,EXCELLENT CYBER CAFE,,AMBALA,,,IN,+91 72062 04629,,Mo-Su 08:00-21:00,MoneyGram,Q1944412
73828345,moneygram,SHRI BALA JI INVESTMENT SERVICES,,AMBALA,,,IN,+91 98963 45029,,Mo-Su 08:00-21:00,MoneyGram,Q1944412
73817657,moneygram,VAISHNO AGENCY,,AMBALA CANTT,,,IN,+91 98960 96402,,Mo-Su 08:00-21:00,MoneyGram,Q1944412
73430542,moneygram,DAVINDER TOUR & TRAVELS,,AMBALA,,,IN,+91 90342 75711,,Mo-Su 08:00-21:00,MoneyGram,Q1944412
73930806,moneygram,KAPIL DHUPAR AND ASSOCIATE,,AMBALA,,,IN,+91 72066 80499,,Mo-Su 08:00-21:00,MoneyGram,Q1944412
74755242,moneygram,FIRE TRAVELLER,,AMBALA,,,IN,+91 92531 61400,,Mo-Su 10:00-22:00,MoneyGram,Q1944412
74808843,moneygram,D G TECH SYSTEM,,AMBALA,,,IN,+91 87088 96691,,Mo-Su 10:00-22:00,MoneyGram,Q1944412
74814523,moneygram,FUTURE ASPIRE,,AMBALA CANTT,,,IN,+91 94160 29901,,Mo-Su 10:00-22:00,MoneyGram,Q1944412
74883185,moneygram,FORAX TRAVEL WORLD,,AMBALA,,,IN,+91 74191 76608,,Mo-Su 01:00-24:00,MoneyGram,Q1944412
74934173,moneygram,ALPHA FOREX PVT LTD,,AMBALA CANTT.,,,IN,+91 93163 38916,,Mo-Su 05:00-23:00,MoneyGram,Q1944412
65725265,moneygram,MANAPPURAM FINANCE,,AMBALA,,,IN,+91 171 320 4304,,Mo-Sa 10:00-19:00; Su 00:00-24:00,MoneyGram,Q1944412
65750010,moneygram,MANAPPURAM FINANCE,,AMBALA,,,IN,+91 171 252 1366,,Mo-Sa 09:30-18:30; Su 00:00-24:00,MoneyGram,Q1944412
67333723,moneygram,MANAPPURAM FINANCE - #2652 - AMBALA,,AMBALA,,,IN,+91 171 263 3131,,Mo-Su 09:30-18:30,MoneyGram,Q1944412
67416064,moneygram,DAWAR FOREX TOUR & TRAVELS - AMBALA,,AMBALA,,,IN,+91 98122 24759,,Mo-Sa 09:00-21:30; Su 09:00-17:00,MoneyGram,Q1944412
67697003,moneygram,SHARMA MONEY CHANGER - AMBALA,,AMBALA,,,IN,+91 80591 62590,,Mo-Su 09:00-21:00,MoneyGram,Q1944412
71723950,moneygram,CAPITAL SMALL FINANCE BANK - #106 - AMBA,,AMBALA,,,IN,260106,,Mo-Su 09:00-18:00,MoneyGram,Q1944412
N234607,united_colors_of_benetton,Benetton Ambala,,AMBALA,,,IN,+91 84470 34567,,,United Colors of Benetton,Q817139
,visa,,,AMBALA,,,IN,,,,,
,visa,,,AMBALA,,,IN,,,,,
