Ref,Spider,Name,Address,City,State,Zipcode,Country,Phone,Website,Hours,Brand,WikiData
6817,aaa,Sand Springs OK,,Sand Springs,OK,,US,+1 918-245-8884,,,American Automobile Association,Q463436
https://stores.advanceautoparts.com/ok/sand-springs/240-s-state-highway-97,advance_auto_parts_us,Advance Auto Parts,,Sand Springs,OK,,US,+1 918-246-0865,https://stores.advanceautoparts.com/ok/sand-springs/240-s-state-highway-97,Mo-Sa 07:30-21:00; Su 08:30-20:00,Advance Auto Parts,Q4686051
https://stores.aldi.us/#8907920,aldi_sud_us,ALDI  101 W. Alexander Blvd,,Sand Springs,OK,,US,+1 855-955-2534,https://stores.aldi.us/ok/sand-springs/101-w-alexander-blvd,"Mo-Su 08:30-20:00,09:00-20:00",ALDI,Q41171672
22,anytime_fitness,Anytime Fitness,,Sand Springs,OK,,US,+1 918-245-2348,https://www.anytimefitness.com/gyms/22/sand-springs-ok-74063/,,Anytime Fitness,Q4778364
https://locations.arbys.com/ok/sandsprings/3510-s.-hwy.-97.html,arbys_us,"Arby's Fast-Food Drive Through Near You in Sand Springs, OK",,Sand Springs,OK,,US,+1 918-245-3129,https://locations.arbys.com/ok/sandsprings/3510-s.-hwy.-97.html,Mo-Su 09:30-23:00,Arby's,Q630866
https://locations.arbys.com/ok/sandsprings/122-e-2nd-st.html,arbys_us,"Arby's Fast-Food Drive Through Near You in Sand Springs, OK",,Sand Springs,OK,,US,+1 918-245-4138,https://locations.arbys.com/ok/sandsprings/122-e-2nd-st.html,Mo-Su 09:30-23:00,Arby's,Q630866
549,autozone_us,AutoZone Auto Parts Sand Springs,,Sand Springs,OK,,US,+1 918-241-4205,https://www.autozone.com/locations/ok/sand-springs/11-e-38th-st.html,Mo-Sa 07:30-21:00; Su 09:00-20:00,AutoZone,Q4826087
156207,bluerhino,Walgreens #7857,,Sand Springs,OK,,US,+1 918-246-0510,,,Blue Rhino,Q65681213
156645,bluerhino,Walgreens #15809,,Sand Springs,OK,,US,+1 918-245-6661,,,Blue Rhino,Q65681213
212972,bluerhino,Brookshire #921 (Reasor's) - AWG #4476,,Sand Springs,OK,,US,+1 918-246-7200,,,Blue Rhino,Q65681213
145697,bluerhino,Ferrellgas - Sand Springs,,Sand Springs,OK,,US,+1 918-245-6616,,,Blue Rhino,Q65681213
170393,bluerhino,Kum & Go #862,,Sand Springs,OK,,US,+1 918-246-2864,,,Blue Rhino,Q65681213
226132,bluerhino,Atwoods Ranch & Home Goods #22,,Sand Springs,OK,,US,+1 918-241-1700,,,Blue Rhino,Q65681213
3067,bueno,Taco Bueno - 3067,"546 Plaza Court,  , Sand Springs, OK, 74063, US",Sand Springs,OK,,US,+1 918-245-6740,,Mo-Su 10:30-22:00,Taco Bueno,Q7673958
https://stores.catofashions.com/#26560171,cato_us,Cato,,,OK,,US,+1 918-245-9424,https://stores.catofashions.com/ok/sand-springs/3909-highway-97-south,Mo-Sa 10:00-20:00; Su 13:00-18:00,Cato,Q16956136
05137,chevrolet,"KEYSTONE CHEVROLET, INC.",,Sand Springs,OK,,US,+1 918-932-1706,https://www.keystonechevrolet.com,Mo-Sa 08:00-21:00,Chevrolet,Q29570
001.005.1668,chilis,Sand Spring,,SAND SPRINGS,OK,,US,+1 918-913-0090,https://www.chilis.com/locations/us/oklahoma/sand-springs/sand-spring/,Mo-Th 11:00-22:00; Fr-Sa 11:00-23:00; Su 11:00-22:00,Chili's,Q1072948
301-w-second-street,churchs_chicken,W. Second Street,,Sand Springs,OK,,US,+1 918-419-2170,https://locations.churchs.com/ok/sand-springs/301-w-second-street,,Church's Chicken,Q1089932
49552,citi,ATM CVS,,Sand Springs,OK,,US,,,,Citibank,Q857063
90876,citi,ATM Walgreens,,Sand Springs,OK,,US,,,,Citibank,Q857063
sandsprings/3185,claires,Shop Ear Piercings & Jewelry at Claires Walmart Sand Springs,,SAND SPRINGS,OK,,US,+1 918-245-5604,https://stores.claires.com/us/ok/sandsprings/3185.html,Mo-Sa 12:00-20:00; Su 11:00-20:00,Claire's,Q2974996
,credit_union_us,Green Country FCU,,Sand Springs,OK,,US,+1 918-245-1301,,Mo-Fr 09:00-04:30,,
,credit_union_us,Green Country FCU,,Sand Springs,OK,,US,+1 918-245-1301,,Mo-Fr 09:00-04:30,,
,credit_union_us,TTCU Federal Credit Union,,Sand Springs,OK,,US,,,Mo-Fr 09:00-06:00,,
,credit_union_us,WeStreet CU,,Sand Springs,OK,,US,+1 918-610-0200,,Mo-Th 09:00-05:30; Fr 09:00-06:00,,
80338220,cricket_wireless,Cricket Wireless Authorized Retailer,,Sand Springs,OK,,US,+1 918-514-0055,https://www.cricketwireless.com/stores/ll/US/OK/Sand-Springs/250-S-Highway-97,Mo-Sa 10:00-19:00; Su 12:00-17:00,Cricket Wireless,Q5184987
6431,dominos_pizza_us,Domino's Pizza,,Sand Springs,OK,,US,+1 918-241-4444,https://pizza.dominos.com/oklahoma/sand-springs/17-e-34th-st,Mo-Th 10:30-24:00; Fr-Sa 10:30-01:00; Su 10:30-24:00,Domino's,Q839466
DB604,dutchbros,Hwy 97,,Sand Springs,OK,,US,,https://locations.dutchbros.com/dutch-bros-coffee-86cd3cd479c3,Mo 05:00-17:30; Tu-Th 05:00-22:00; Fr-Sa 05:00-23:00; Su 05:00-22:00,Dutch Bros. Coffee,Q5317253
https://www.edwardjones.com/us-en/financial-advisor/michael-casselman,edwardjones,Michael R Casselman,,Sand Springs,OK,,US,+1 918-245-3796,https://www.edwardjones.com/us-en/financial-advisor/michael-casselman,Mo-Th 08:30-16:30; Fr 08:30-15:00,Edward Jones,Q5343830
2804,gamestop_us,Cimmeron Plaza,,Sand Springs,OK,,US,+1 918-246-0363,https://www.gamestop.com/search/?store=2804,Mo-Th 12:00-20:00; Fr-Sa 11:00-21:00; Su 12:00-20:00,GameStop,Q202210
46115e27-d9f2-e311-afbc-0050568924e6,goodwill,Sands Springs Donation Center,,Sand Springs,OK,,US,,https://www.goodwill.org/locator/location/?store=NDYxMTVlMjctZDlmMi1lMzExLWFmYmMtMDA1MDU2ODkyNGU2&lat=MzYuMTM4NjE=&lng=LTk2LjEwNDY5,,Goodwill,Q5583655
https://salons.greatclips.com/us/ok/sand-springs/152-w-alexander-blvd,greatclips,Great Clips,,Sand Springs,OK,,US,+1 539-217-1195,https://salons.greatclips.com/us/ok/sand-springs/152-w-alexander-blvd,Mo-Sa 09:00-18:00; Su 10:00-17:00,Great Clips,Q5598967
https://www.harborfreight.com/storelocator/651-e-charles-page-blvd-sand-springs-74063?number=3227,harborfreight,"Harbor Freight Tools Sand Springs, OK",,Sand Springs,OK,,US,+1 918-215-4343,https://www.harborfreight.com/storelocator/651-e-charles-page-blvd-sand-springs-74063?number=3227,Mo-Sa 08:00-20:00; Su 09:00-18:00,Harbor Freight Tools,Q5654601
35761,h_r_block,H&R Block,,Sand Springs,OK,,US,+1 918-245-2416,https://www.hrblock.com/local-tax-offices/oklahoma/sand-springs/353-e-2nd/35761/,,H&R Block,Q5627799
ok_sand-springs_breakfast-101-s-hwy-97-3325,ihop,IHOP Breakfast Restaurants Near You at 101 S Hwy 97,,Sand Springs,OK,,US,+1 918-419-2015,https://restaurants.ihop.com/en-us/ok/sand-springs/breakfast-101-s-hwy-97-3325,,IHOP,Q1185675
https://office.jacksonhewitt.com/#27578560,jackson_hewitt,Jackson Hewitt,,Sand Springs,OK,,US,+1 423-225-2692,https://office.jacksonhewitt.com/tax-preparation-services-locations/en/ok/sand-springs/424-plaza-court/16072,Mo-Th 10:00-19:00; Fr 10:00-18:00; Sa 09:00-17:00; Su 13:00-17:00,Jackson Hewitt,Q6117132
https://office.jacksonhewitt.com/#27577993,jackson_hewitt,Jackson Hewitt,,Sand Springs,OK,,US,+1 901-310-1658,https://office.jacksonhewitt.com/tax-preparation-services-locations/en/ok/sand-springs/220-south-state-highway-97/54071,Mo-Th 11:00-19:00; Fr 10:00-18:00; Sa 09:00-17:00; Su 13:00-17:00,Jackson Hewitt,Q6117132
https://locations.kfc.com/#11248094,kfc,Chicken Nuggets Near Sand Springs,,Sand Springs,OK,,US,,https://locations.kfc.com/ok/sand-springs/206-n-wilson/chickennugget,Mo-Su 10:30-22:00,KFC,Q524757
0862,kum_and_go,Kum & Go #0862,,Sand Springs,OK,,US,+1 918-246-2864,https://www.kumandgo.com/store-locator?details=0862,24/7,Kum & Go,Q6443340
17379,mattress_firm_us,Mattress Firm Sand Springs,,Tulsa,OK,,US,+1 918-770-9204,https://www.mattressfirm.com/en-us/stores/ok/tulsa/005007/,,Mattress Firm,Q6791878
2112,mightyflame,STOP N SAVE #4,,SAND SPRINGS,OK,,US,+1 918-246-0231,,,Mighty Flame,
https://locations.oreillyauto.com/ok/sandsprings/check-engine-light-testing-353.html,oreilly,Your Sand Springs O'Reilly Auto Parts Store,,Sand Springs,OK,,US,+1 918-241-3358,https://locations.oreillyauto.com/ok/sandsprings/check-engine-light-testing-353.html,Mo-Sa 07:30-21:00; Su 09:00-20:00,O'Reilly Auto Parts,Q7071951
https://locations.oreillyauto.com/ok/sandsprings/battery-testing-353.html,oreilly,Your Sand Springs O'Reilly Auto Parts Store,,Sand Springs,OK,,US,+1 918-241-3358,https://locations.oreillyauto.com/ok/sandsprings/battery-testing-353.html,Mo-Sa 07:30-21:00; Su 09:00-20:00,O'Reilly Auto Parts,Q7071951
https://locations.oreillyauto.com/ok/sandsprings/autopartes-353.html,oreilly,Tu tienda O'Reilly Auto Parts en Sand Springs,,Sand Springs,OK,,US,+1 918-241-3358,https://locations.oreillyauto.com/ok/sandsprings/autopartes-353.html,Mo-Sa 07:30-21:00; Su 09:00-20:00,O'Reilly Auto Parts,Q7071951
https://locations.oreillyauto.com/ok/sandsprings/wiper-installation-353.html,oreilly,Your Sand Springs O'Reilly Auto Parts Store,,Sand Springs,OK,,US,+1 918-241-3358,https://locations.oreillyauto.com/ok/sandsprings/wiper-installation-353.html,Mo-Sa 07:30-21:00; Su 09:00-20:00,O'Reilly Auto Parts,Q7071951
0000869944,phillips_66_conoco_76,DOWNTOWN SAV A STOP,,SAND SPRINGS,OK,,US,+1 918-245-4599,,,Phillips 66,Q1656230
0000870059,phillips_66_conoco_76,RIVERSIDE FOOD MART,,SAND SPRINGS,OK,,US,+1 918-246-8700,,,Phillips 66,Q1656230
0000870145,phillips_66_conoco_76,KEYSTONE SUPER STOP,,SAND SPRINGS,OK,,US,+1 918-241-9400,,,Conoco,Q109341187
0000870146,phillips_66_conoco_76,J&S QUICK STOP,,SAND SPRINGS,OK,,US,+1 918-245-2829,,,Phillips 66,Q1656230
0000904480,phillips_66_conoco_76,A & S FUELS,,SAND SPRINGS,OK,,US,+1 918-245-3590,,,Conoco,Q109341187
ok_sand-springs_302-w-2nd-st,pizza_hut_us,302 W. 2nd St.,,Sand Springs,OK,,US,+1 918-245-8383,https://locations.pizzahut.com/ok/sand-springs/302-w-2nd-st,,Pizza Hut,Q191615
https://locations.quiktrip.com/#16003867,quiktrip_us,QuikTrip Store #23 200 S Hwy 97,,Sand Springs,OK,,US,+1 918-245-9249,https://locations.quiktrip.com/ok/sand-springs/200-s-hwy-97,24/7,QuikTrip,Q7271953
https://locations.quiktrip.com/#16003788,quiktrip_us,QuikTrip Store #12 2 E 41st St S,,Sand Springs,OK,,US,+1 918-241-3095,https://locations.quiktrip.com/ok/sand-springs/2-e-41st-st-s,24/7,QuikTrip,Q7271953
8319,regal_nails_us,"Regal Nails, Salon &#038; Spa",220 South Hwy 97,Sand Springs,OK,,US,+1 918-245-6030,,,Regal Nails,Q108918028
2038,rentacenter,Rent-A-Center,,Sand Springs,OK,,US,+1 918-241-0280,https://locations.rentacenter.com/oklahoma/sand-springs/620-e-charles-page-blvd/,Mo-Sa 10:00-18:00,Rent-A-Center,Q7313497
1485853,ribcrib_us,Sand Springs,"450 W Wekiwa Rd, Sand Springs, OK 74063",Sand Springs,OK,,US,+1 918-241-5200,https://ribcrib.com/locations/?location=sand-springs,Mo-Th 11:00-21:00; Fr 11:00-22:00; Sa 10:00-22:00; Su 10:00-21:00,RibCrib,Q7322197
16847563,ribcrib_us,Sand Springs,"450 W Wekiwa Rd, Sand Springs, OK 74063",Sand Springs,OK,,US,+1 918-241-5200,https://ribcrib.com/locations/?location=sand-springs-sand-springs-ok,Mo-Th 11:00-21:00; Fr 11:00-22:00; Sa 10:00-22:00; Su 10:00-21:00,RibCrib,Q7322197
https://locations.schlotzskys.com/#6231228411847281328,schlotzskys,Schlotzsky's,,Tulsa County,OK,,US,+1 918-246-7255,https://locations.schlotzskys.com/ok/sand-springs/141-w-alexander-blvd,Mo-Su 10:00-22:00,Schlotzsky's,Q2244796
https://stations.sinclairoil.com/ok/sand-springs/17625-w-8th,sinclair_us,Sinclair Gas Station,,Sand Springs,OK,,US,+1 918-245-8944,https://stations.sinclairoil.com/ok/sand-springs/17625-w-8th,Mo-Su 06:00-22:30,Sinclair,Q1290900
https://restaurants.subway.com/#14900760,subway,Subway Springs Village Shopping Ctr,,Sand Springs Tulsa,OK,,US,+1 918-241-4782,https://restaurants.subway.com/united-states/ok/sand-springs/3937-s-hwy-97,Mo-Sa 08:00-22:00; Su 08:00-21:00,Subway,Q244457
80458,supercuts,Cimarron Plaza,430 W Wekiwa Rd Ste T-3,Sand Springs,OK,,US,+1 918-245-3320,https://www.supercuts.com/checkin/80458,Mo-Sa 09:00-19:00; Su 09:00-18:00,Supercuts,Q7643239
https://locations.tacobell.com/#6144370,taco_bell,Taco Bell,,Sand Springs,OK,,US,+1 918-241-4207,https://locations.tacobell.com/ok/sand-springs/305-w--2nd-street-.html,Mo-Th 08:00-03:00; Fr-Sa 08:00-04:00; Su 08:00-03:00,Taco Bell,Q752941
9861,tmobile_us,Wekiwa Rd & Hwy 97,,Sand Springs,OK,,US,+1 918-245-6086,https://www.t-mobile.com/store-locator/ok/sand-springs/wekiwa-rd-hwy-97,,T-Mobile,Q3511885
3683,upsstore,Sand Springs,3963 S Hwy 97,Sand Springs,OK,,US,+1 918-241-2224,https://locations.theupsstore.com/ok/sand-springs/3963-s-hwy-97,,UPS Store,Q7771029
1380676,usps,SAND SPRINGS,,SAND SPRINGS,OK,,US,+1 918-245-4402,,Mo-Fr 08:30-17:00,United States Postal Service,Q668687
7406300028,usps_collection_boxes,USPS COLLECTION BOX - PO LOBBY,114 W 2ND ST,SAND SPRINGS,OK,,US,,,,United States Postal Service,Q668687
7406300015,usps_collection_boxes,USPS COLLECTION BOX - BLUE BOX,114 W 2ND ST,SAND SPRINGS,OK,,US,,,,United States Postal Service,Q668687
7406300016,usps_collection_boxes,USPS COLLECTION BOX - BLUE BOX,114 W 2ND ST,SAND SPRINGS,OK,,US,,,,United States Postal Service,Q668687
7406300024,usps_collection_boxes,USPS COLLECTION BOX - PO LOBBY,114 W 2ND ST,SAND SPRINGS,OK,,US,,,,United States Postal Service,Q668687
7406300025,usps_collection_boxes,USPS COLLECTION BOX - PO LOBBY,114 W 2ND ST,SAND SPRINGS,OK,,US,,,,United States Postal Service,Q668687
7406300005,usps_collection_boxes,USPS COLLECTION BOX - BLUE BOX,700 W 41ST ST,SAND SPRINGS,OK,,US,,,,United States Postal Service,Q668687
7406300011,usps_collection_boxes,USPS COLLECTION BOX - BLUE BOX,606 W 41ST ST,SAND SPRINGS,OK,,US,,,,United States Postal Service,Q668687
7406300001,usps_collection_boxes,USPS COLLECTION BOX - BLUE BOX,7 W 41ST ST,SAND SPRINGS,OK,,US,,,,United States Postal Service,Q668687
7406300003,usps_collection_boxes,USPS COLLECTION BOX - BLUE BOX,3900 S HIGHWAY 97,SAND SPRINGS,OK,,US,,,,United States Postal Service,Q668687
7406300009,usps_collection_boxes,USPS COLLECTION BOX - BLUE BOX,105 S ADAMS RD,SAND SPRINGS,OK,,US,,,,United States Postal Service,Q668687
A00000252535,verizon_us,Russell Cellular Sand Springs,,SAND SPRINGS,OK,,US,+1 918-514-0075,https://www.verizon.com/stores/details/oklahoma/sand-springs/mobile-destination-sand-springs-1518322/,Mo-Sa 09:00-19:00; Su 11:00-17:00,Verizon,Q919641
,visa,,,SAND SPRINGS,OK,,US,,,,,
,visa,,,SAND SPRINGS,OK,,US,,,,,
,visa,,,SAND SPRINGS,OK,,US,,,,,
,visa,,,SAND SPRINGS,OK,,US,,,,,
,visa,,,SAND SPRINGS,OK,,US,,,,,
,visa,,,SAND SPRINGS,OK,,US,,,,,
,visa,,,SAND SPRINGS,OK,,US,,,,,
,visa,,,SAND SPRINGS,OK,,US,,,,,
,visa,,,SAND SPRINGS,OK,,US,,,,,
,visa,,,SAND SPRINGS,OK,,US,,,,,
,visa,,,SAND SPRINGS,OK,,US,,,,,
,visa,,,SAND SPRINGS,OK,,US,,,,,
,visa,,,SAND SPRINGS,OK,,US,,,,,
,visa,,,SAND SPRINGS,OK,,US,,,,,
,visa,,,SAND SPRINGS,OK,,US,,,,,
,visa,,,SAND SPRINGS,OK,,US,,,,,
,visa,,,SAND SPRINGS,OK,,US,,,,,
,visa,,,SAND SPRINGS,OK,,US,,,,,
,visa,,,SAPULPA,OK,,US,,,,,
,visa,,,SAN SPRINGS,OK,,US,,,,,
,visa,,,SAND SPRINGS,OK,,US,,,,,
,visa,,,SAND SPRINGS,OK,,US,,,,,
,visa,,,SAND SPRINGS,OK,,US,,,,,
,visa,,,SAND SPRINGS,OK,,US,,,,,
,visa,,,SAND SPRINGS,OK,,US,,,,,
,visa,,,SAND SPRINGS,OK,,US,,,,,
,visa,,,SAND SPRINGS,OK,,US,,,,,
,visa,,,SAND SPRINGS,OK,,US,,,,,
,visa,,,SAND SPRINGS,OK,,US,,,,,
,visa,,,SAND SPRINGS,OK,,US,,,,,
,visa,,,SAND SPRINGS,OK,,US,,,,,
,visa,,,SAND SPRINGS,OK,,US,,,,,
,visa,,,SAND SPRINGS,OK,,US,,,,,
,visa,,,SAND SPRINGS,OK,,US,,,,,
,visa,,,SAND SPRINGS,OK,,US,,,,,
,visa,,,SAND SPRINGS,OK,,US,,,,,
,visa,,,SAND SPRINGS,OK,,US,,,,,
,visa,,,SAND SPRINGS,OK,,US,,,,,
,visa,,,SAND SPRINGS,OK,,US,,,,,
,visa,,,SAND SPRINGS,OK,,US,,,,,
,visa,,,SANDS SPRINGS,OK,,US,,,,,
,visa,,,SAND SPRING,OK,,US,,,,,
,visa,,,SAND SPRINGS,OK,,US,,,,,
,visa,,,SAND SPRINGS,OK,,US,,,,,
,visa,,,SAND SPRINGS,OK,,US,,,,,
,visa,,,SAND SPRINGS,OK,,US,,,,,
,visa,,,SAND SPRINGS,OK,,US,,,,,
,visa,,,SAND SPRINGS,OK,,US,,,,,
,visa,,,SAND SPRINGS,OK,,US,,,,,
,visa,,,SAND SPRINGS,OK,,US,,,,,
,visa,,,SAND SPRING,OK,,US,,,,,
,visa,,,SAND SPRINGS,OK,,US,,,,,
,visa,,,SAND SPRING,OK,,US,,,,,
,visa,,,SAND SPRINGS,OK,,US,,,,,
https://www.walgreens.com/locator/walgreens-4016+s+state+highway+97-sand+springs-ok-74063/id=15809,walgreens,Walgreens,,Sand Springs,OK,,US,+1 918-245-6661,https://www.walgreens.com/locator/walgreens-4016+s+state+highway+97-sand+springs-ok-74063/id=15809,Mo-Fr 08:00-21:00; Sa 09:00-18:00; Su 12:00-18:00,Walgreens,Q1591889
https://www.walgreens.com/locator/walgreens-405+e+2nd+st-sand+springs-ok-74063/id=7857,walgreens,Walgreens,,Sand Springs,OK,,US,+1 918-246-0510,https://www.walgreens.com/locator/walgreens-405+e+2nd+st-sand+springs-ok-74063/id=7857,Mo-Sa 08:00-22:00; Su 09:00-21:00,Walgreens,Q1591889
https://locations.wendys.com/#9255502,wendys,"Wendy's Adams Rd in Sand Springs, OK",,Sand Springs,OK,,US,+1 918-245-3875,https://locations.wendys.com/united-states/ok/sand-springs/104-adams-rd,"Mo-Su 06:30-10:30,09:00-22:00",Wendy's,Q550258
3a4102043cc3c4fab141bc4dc868d8cc,western_union,REASORS #21,,Sand Springs,OK,,US,+1 918-246-7200,https://location.westernunion.com/us/ok/sand-springs/3a4102043cc3c4fab141bc4dc868d8cc,Mo-Su 08:00-20:00,Western Union,Q861042
667b07cd7d6f6bd625a2c8b905110f68,western_union,WALMART #000838,,Sand Springs,OK,,US,+1 918-245-0213,https://location.westernunion.com/us/ok/sand-springs/667b07cd7d6f6bd625a2c8b905110f68,Mo-Sa 08:00-20:00; Su 10:00-18:00,Western Union,Q861042
607,world_finance_us,,"3945 S. Hwy. 97, Sand Springs, OK, 74063",Sand Springs,OK,,US,+1 918-245-9575,https://www.loansbyworld.com/branches/branch-607,Mo-Fr 09:00-17:30; Sa 09:00-12:00,World Finance,Q3569971
