Ref,Spider,Name,Address,City,State,Zipcode,Country,Phone,Website,Hours,Brand,WikiData
7146,action,Villach,,Villach,,,AT,,https://www.action.com/de-at/laden/villach/,,Action,Q2634111
7032,action,Villach 1,,Villach,,,AT,,https://www.action.com/de-at/laden/villach-badstubenweg/,,Action,Q2634111
7031,action,Villach 2,,Villach,,,AT,,https://www.action.com/de-at/laden/villach-gewerbezeile/,,Action,Q2634111
05627_1,bmw_group,AutoFrey GmbH Standort Villach,,Villach,,,AT,+43 4242 35422,https://www.autofrey.at,,BMW,Q26678
679,bp,"Villach, Ossiacherzeile 50A",,Villach,,,AT,+43 4242 24589,,24/7,BP,Q152057
677,bp,"Villach, Maria Gailer Str. 29",,Villach,,,AT,+43 4242 312706,,24/7,BP,Q152057
AT0280,c_and_a,Villach Neukauf,"Bruno Kreisky-Strasse 25/ Top 3, 9500 Villach",Villach,,,AT,,https://www.c-and-a.com/stores/at-de/kaernten/villach/bruno-kreisky-strasse-25--top-3.html,Mo 09:00-18:30; Tu 09:00-18:30; We 09:00-18:30; Th 09:00-18:30; Fr 09:00-18:30; Sa 09:00-18:00,C&A,Q701338
at:483,dm,dm drogerie markt GmbH,,Villach,,,AT,+43 4242 39814,https://www.dm.at/store/a0k3/villach/badstubenweg-93,Mo-Fr 08:00-19:00; Sa 08:00-18:00,dm,Q266572
at:125,dm,dm drogerie markt GmbH,,Villach,,,AT,+43 4242 35348,https://www.dm.at/store/a055/villach/kaerntner-strasse-34,Mo-Fr 08:00-19:30; Sa 08:00-18:00,dm,Q266572
at:263,dm,dm drogerie markt GmbH,,Villach,,,AT,+43 4242 22657,https://www.dm.at/store/a0an/villach/hauptplatz-6,Mo-Fr 08:00-18:30; Sa 08:00-18:00,dm,Q266572
at:457,dm,dm drogerie markt GmbH,,Villach,,,AT,+43 4242 319706,https://www.dm.at/store/a0j1/villach/bruno-kreisky-strasse-25,Mo-Fr 08:00-19:00; Sa 08:00-18:00,dm,Q266572
15184863,esprit,Esprit Store Villach,,Villach,,,AT,+43 1 3851173,"https://www.esprit.com/storefinder?storeid=15184863&location=46.59640000,13.83590000",Tu-Sa 09:00-19:30; Su 09:00-18:00,Esprit,Q532746
31393133HndR82,eyes_and_more,"eyes + more Villach, Atrio","Kärntner Straße   34, Villach, 9500",,,,AT,+43 4242 48400,https://www.eyesandmore.at/termin-vereinbaren/?storeId=31393133HndR82,Mo-Fr 09:00-19:30; Sa 09:00-18:00,eyes + more,Q1385775
104183,geox,Geox VILLACH,,VILLACH,,,AT,+43 4242 34524,https://www.geox.com/int/storedetails?StoreID=104183,,Geox,Q588001
A577,hofer_at,WEI-56,"Tiroler Straße 51, Villach, 9500",Villach,,,AT,+43 57 0303 5056,https://www.hofer.at/,Mo-Fr 07:30-19:30,Hofer,Q15815751
A572,hofer_at,WEI-51,"Ackerweg 1, Villach, 9500",Villach,,,AT,+43 57 0303 5051,https://www.hofer.at/,Mo-Fr 07:30-19:30,Hofer,Q15815751
A536,hofer_at,WEI-15,"Maria-Gailer-Straße 30, Villach, 9500",Villach,,,AT,+43 57 0303 5015,https://www.hofer.at/,Mo-Fr 07:30-19:30,Hofer,Q15815751
A542,hofer_at,WEI-21,"Ossiacher Zeile 56b, Villach, 9500",Villach,,,AT,+43 57 0303 5021,https://www.hofer.at/,Mo-Fr 07:30-19:30,Hofer,Q15815751
A546,hofer_at,WEI-25,"Badstubenweg 80, Villach, 9500",Villach,,,AT,+43 57 0303 5025,https://www.hofer.at/,Mo-Fr 07:30-19:30,Hofer,Q15815751
A558,hofer_at,WEI-37,"Karawankenweg 38a, Villach, 9500",Villach,,,AT,+43 57 0303 5037,https://www.hofer.at/,Mo-Fr 07:30-19:30,Hofer,Q15815751
2588,jack_and_jones,Villach - Atrio,,Villach,,,AT,+43 4242 32266,,,Jack & Jones,Q6077665
5113,jysk,Villach,,Villach,,,AT,+43 4242 3180080,https://jysk.at/filialen?storeId=5113,Mo-Fr 09:00-18:00; Sa 09:00-17:00,JYSK,Q138913
3119,kik,KiK,,Villach GAV Center,,,AT,+43 4242 32184,,Mo-Fr 09:00-18:00; Sa 09:00-17:00,KiK,Q883965
23,kik,KiK,,Villach,,,AT,+43 4242 312170,,Mo-Fr 08:30-18:30; Sa 08:30-17:00,KiK,Q883965
269,lidl_at,Lidl,,Villach,,,AT,,,Mo-Fr 07:15-19:30; Sa 07:15-18:00,Lidl,Q151954
427,lidl_at,Lidl,,Villach,,,AT,,,Mo-Fr 07:15-19:30; Sa 07:15-18:00,Lidl,Q151954
490,lidl_at,Lidl,,Villach,,,AT,,,Mo-Fr 07:15-19:30; Sa 07:15-18:00,Lidl,Q151954
40781,man_truck_and_bus,Verkauf- und Serviceniederlassung Villach,,Villach,,,AT,+43 4242 31650,,,MAN Truck & Bus,Q708667
69393635,moneygram,HANDY STORE - VILLACH,,VILLACH,,,AT,+43 650 6141788,,Mo-Fr 09:00-18:00; Sa-Su 00:00-24:00,MoneyGram,Q1944412
69777701,moneygram,TAXI AUSTRIA - VILLACH,,VILLACH,,,AT,+43 664 9129450,,Mo-Sa 07:30-24:00; Su 09:00-20:00,MoneyGram,Q1944412
74270992,moneygram,EXPRESS TAXI - VILLACH,,VILLACH,,,AT,+43 664 9465303,,Mo-Fr 08:00-18:00; Sa-Su 00:00-24:00,MoneyGram,Q1944412
5683,mueller,Müller,,Villach,,,AT,+43 59 120 5683,https://www.mueller.at/meine-filiale/villach/maria-gailer-strasse-57-top-02/,,Müller,Q1958759
5635,mueller,Müller,,Villach,,,AT,+43 59 120 5635,https://www.mueller.at/meine-filiale/villach/kaerntner-str-34/,,Müller,Q1958759
ATH09500,neuroth,Neuroth,"Moritschstraße 5, 9500 Villach, AT",Villach,,,AT,+43 4242 24556,https://at.neuroth.com/filialen/moritschstrasse-5-villach/,Mo-Fr 08:00-17:00,Neuroth,Q15836645
5b3cb3fac00458481b4379ee,newyorker,NEW YORKER | Atrio Villach,"Kärntner Str. 34, 9500 Villach",Villach,,,AT,+43 242353210,,Mo-Fr 09:00-19:30; Sa 09:00-18:00,New Yorker,Q706421
5b3cb3fac00458481b437b2a,newyorker,NEW YORKER,"Gewerbezeile 10-16, 9500 Villach",Villach,,,AT,+43 4242 372620,,Mo-Fr 09:00-18:30; Sa 09:00-18:00,New Yorker,Q706421
0017S00000477zkQAA,nissan_europe,Sintschnig GmbH Villach,,Villach,,,AT,+43 4242 33112,https://sintschnig.nissan.at/de/startseite,,Nissan,Q20165
https://www.obi.at/markt/villach,obi_eu,Obi Markt Villach,,Villach,,,AT,+43 4242 32538,https://www.obi.at/markt/villach,Mo-Fr 07:30-19:00; Sa 08:00-18:00,OBI,Q300518
AT.2009.8,omv,Hofer Diskont,,Villach,,,AT,,,24/7,Hofer Diskont,Q107803455
AT.2008.8,omv,Hofer Diskont,,Villach,,,AT,,,24/7,Hofer Diskont,Q107803455
AT.2595.8,omv,Avanti,,Villach,,,AT,+43 4242 311180,,Mo-Su 05:00-22:00,OMV,Q168238
04000257_001-renault,renault,MBV KFZ Service GmbH,,Villach,,,AT,+43 4242 33220,,,Renault,Q6686
04000257_001-dacia,renault,MBV KFZ Service GmbH,,Villach,,,AT,+43 4242 33220,,,Dacia,Q27460
bcf35e6f-5d5c-4c59-8924-8b8044dfe500,scania,Wiegele Trucks GmbH & Co KG,,Villach,,,AT,+43 4242 355300,,"Mo-Fr 07:30-12:30,13:00-18:00",Scania,Q219960
439-06603,skoda,Autohaus Lindner GmbH,,,,,AT,,,,Skoda,Q29637
439-00622,skoda,Porsche Villach,,,,,AT,,,,Skoda,Q29637
https://restaurants.subway.com/#14925600,subway,Subway,,Villach,,,AT,+43 800 295135,https://restaurants.subway.com/de/osterreich/ka/villach/bruno-kreisky-str-27,Mo-Sa 09:00-24:00; Su 10:00-24:00,Subway,Q244457
AT_EXT_00223,totalenergies,"Villach, Maria Gailer Str. 29",,Villach,,,AT,,https://store.totalenergies.fr/en_EN/AT_EXT_00223,,BP,Q152057
AT_EXT_00224,totalenergies,"Villach, Ossiacherzeile 50A",,Villach,,,AT,,https://store.totalenergies.fr/en_EN/AT_EXT_00224,,BP,Q152057
N970171,united_colors_of_benetton,Benetton Villach,,VILLACH,,,AT,+43 4242 27080,,Mo-Fr 09:00-18:00; Sa 09:00-17:00,United Colors of Benetton,Q817139
,visa,,,VILLACH,,,AT,,,,,
,visa,,,VILLACH,,,AT,,,,,
,visa,,,VILLACH,,,AT,,,,,
,visa,,,VILLACH,,,AT,,,,,
,visa,,,VILLACH,,,AT,,,,,
,visa,,,VILLACH,,,AT,,,,,
