Ref,Spider,Name,Address,City,State,Zipcode,Country,Phone,Website,Hours,Brand,WikiData
Blue Ridge Community College (North Carolina),barnesnoblecollege,Blue Ridge Community College (North Carolina),,Rock,NC,,US,,https://www.bncollege.com/campus-stores/,,Barnes & Noble College,Q4861508
nc/flat-rock/700-upward-road,bojangles,"Bojangles Flat Rock, NC",,Flat Rock,NC,,US,+1 828-696-9126,https://locations.bojangles.com/nc/flat-rock/700-upward-road.html,,Bojangles',Q891163
36847,citi,ATM Blue Ridge Cc- Killian Building,,Flat Rock,NC,,US,,,,Citibank,Q857063
54508,citi,ATM Energy Mart,,Flat Rock,NC,,US,,,,Citibank,Q857063
904,dickeys_barbecue_pit_us,Flat Rock - Upward Rd,,Flat Rock,NC,,US,+1 828-290-9957,https://www.dickeys.com/locations/north carolina/flat%20rock/flat-rock,Mo-Su 11:00-21:00,Dickey's Barbecue Pit,Q19880747
349440,dunkin_us,Dunkin',,Flat Rock,NC,,US,+1 828-693-1416,https://locations.dunkindonuts.com/en/nc/flat-rock/754-upward-rd/349440,Mo-Su 04:00-21:00,Dunkin',Q847743
https://www.edwardjones.com/us-en/financial-advisor/bud-leonard,edwardjones,Bud Leonard,,Flat Rock,NC,,US,+1 828-692-2712,https://www.edwardjones.com/us-en/financial-advisor/bud-leonard,Mo-Th 09:00-16:30; Fr 09:00-16:00,Edward Jones,Q5343830
177,ingles,Flat Rock,,Flat Rock,NC,,US,+1 828-692-1335,https://www.ingles-markets.com/storelocate/storeinfo.php?storenum=177,Mo-Su 06:00-00:00,Ingles,Q6032595
155841,marathon_petroleum_us,TRIANGLE ST FD STORE 215,,FLAT ROCK,NC,,US,+1 828-698-1959,,,Marathon,Q458363
AVLHV,marriott,Fairfield Inn & Suites Hendersonville Flat Rock,,Flat Rock,NC,,US,+1 828-513-5100,https://www.marriott.com/AVLHV,,Fairfield by Marriott,Q5430314
https://restaurants.subway.com/#14916705,subway,Subway,,Flat Rock Henderson,NC,,US,+1 828-698-4909,https://restaurants.subway.com/united-states/nc/flat-rock/576-upward-rd,Mo-Su 08:30-21:30,Subway,Q244457
1363483,usps,FLAT ROCK,,FLAT ROCK,NC,,US,+1 828-692-8731,,"Mo-Fr 08:30-13:30,14:30-16:30; Sa 10:00-12:00",United States Postal Service,Q668687
2873100004,usps_collection_boxes,USPS COLLECTION BOX - PO LOBBY,2687 GREENVILLE HWY,FLAT ROCK,NC,,US,,,,United States Postal Service,Q668687
2873100005,usps_collection_boxes,USPS COLLECTION BOX - PO LOBBY,2687 GREENVILLE HWY,FLAT ROCK,NC,,US,,,,United States Postal Service,Q668687
2873100006,usps_collection_boxes,USPS COLLECTION BOX - PO LOBBY,2687 GREENVILLE HWY,FLAT ROCK,NC,,US,,,,United States Postal Service,Q668687
,visa,,,FLAT ROCK,NC,,US,,,,,
,visa,,,FLAT ROCK,NC,,US,,,,,
,visa,,,FLAT ROCK,NC,,US,,,,,
,visa,,,FLAT ROCK,NC,,US,,,,,
1639,waffle_house_us,Waffle House #1639,,FLAT ROCK,NC,,US,+1 828-698-2767,https://locations.wafflehouse.com/flatrock-nc-1639,24/7,Waffle House,Q1701206
