Ref,Spider,Name,Address,City,State,Zipcode,Country,Phone,Website,Hours,Brand,WikiData
https://stores.advanceautoparts.com/fl/orlando/16-n-parramore-ave,advance_auto_parts_us,Advance Auto Parts,,Orlando,FL,,US,+1 407-209-3267,https://stores.advanceautoparts.com/fl/orlando/16-n-parramore-ave,Mo-Fr 07:30-18:00; Sa 07:30-16:00; Su 00:00-24:00,Advance Auto Parts,Q4686051
https://www.ameripriseadvisors.com/team/krs-wealth-management/contact/,ameriprise_us,KRS Wealth Management,,Orlando,FL,,US,+1 407-425-9101,https://www.ameripriseadvisors.com/team/krs-wealth-management/,Mo-Fr 09:00-06:00,Ameriprise Financial,Q2843129
https://www.ameripriseadvisors.com/kimberly.r.stewart/contact/,ameriprise_us,Kimberly R Stewart,,Orlando,FL,,US,+1 407-425-9101,https://www.ameripriseadvisors.com/kimberly.r.stewart/,Mo-Fr 09:00-06:00,Ameriprise Financial,Q2843129
https://www.avis.com/en/locations/us/fl/orlando/or1,avis,Avis U S A Orlando,,Orlando,FL,,US,+1 407-245-8059,https://www.avis.com/en/locations/us/fl/orlando/or1,Mo-Fr 07:00-17:00; Sa 08:00-16:00; Su 09:00-13:00,Avis,Q791136
https://locators.bankofamerica.com/fl/orlando/financial-centers-orlando-16899.html,bankofamerica,Bank of America Financial Center & Walk-Up ATM | Downtown Orlando,,Orlando,FL,,US,+1 407-803-4007,https://locators.bankofamerica.com/fl/orlando/financial-centers-orlando-16899.html,Mo-Fr 10:00-16:00,Bank of America,Q487907
2039742,chase_us,E Church St and Orange Ave - New branch,,Orlando,FL,,US,+1 407-455-5812,https://locator.chase.com/fl/orlando/25-e-church-st,Mo-Fr 09:00-17:00,Chase,Q524629
28713,citi,ATM 7ELEVEN-FCTI,,Orlando,FL,,US,,,,Citibank,Q857063
67053,citi,ATM Orlando FCU,,Orlando,FL,,US,,,,Citibank,Q857063
24109,citi,ATM 7ELEVEN-FCTI,,Orlando,FL,,US,,,,Citibank,Q857063
67048,citi,ATM Orlando FCU,,Orlando,FL,,US,,,,Citibank,Q857063
33001,citi,ATM 7ELEVEN-FCTI,,Orlando,FL,,US,,,,Citibank,Q857063
55749,citi,ATM First Florida Credit Union,,Orlando,FL,,US,,,,Citibank,Q857063
30635,citi,ATM 7ELEVEN-FCTI,,Orlando,FL,,US,,,,Citibank,Q857063
67047,citi,ATM Orlando FCU,,Orlando,FL,,US,,,,Citibank,Q857063
67056,citi,ATM Orlando FCU,,Orlando,FL,,US,,,,Citibank,Q857063
25261,citi,ATM 7ELEVEN-FCTI,,Orlando,FL,,US,,,,Citibank,Q857063
92845,citi,ATM Walgreens,,Orlando,FL,,US,,,,Citibank,Q857063
,credit_union_us,Addition Financial,,Orlando,FL,,US,,,Mo-We 09:00-05:00; Th 10:00-05:00; Fr 09:00-05:00,,
354700,dunkin_us,Dunkin',,Orlando,FL,,US,+1 407-674-7385,https://locations.dunkindonuts.com/en/fl/orlando/486-n-orange-ave/354700,Mo-Su 05:00-17:00,Dunkin',Q847743
354859,dunkin_us,Dunkin',,Orlando,FL,,US,+1 407-613-5838,https://locations.dunkindonuts.com/en/fl/orlando/255-s-orange-ave/354859,Mo-Fr 06:00-16:00; Sa-Su 00:00-24:00,Dunkin',Q847743
358785,dunkin_us,Dunkin',,Orlando,FL,,US,+1 407-674-7385,https://locations.dunkindonuts.com/en/fl/orlando/410-n-terry/358785,Mo-Fr 06:00-18:00; Sa-Su 07:00-17:00,Dunkin',Q847743
E10701,enterprise,Downtown Orlando North Quarter,,Orlando,FL,,US,+1 407-843-5411,,,Enterprise Rent-A-Car,Q17085454
united-states#orlando,ernst_young,EY,"200 South Orange Avenue, Suite 2800",Orlando,FL,,US,+1 407-872-6600,https://www.ey.com/locations/united-states#orlando,,EY,Q489097
https://locations.53.com/#3033981,fifththirdbank,Fifth Third Bank Lake Eola,,Orlando,FL,,US,+1 407-999-3253,https://locations.53.com/fl/orlando/200-east-robinson-street.html,Mo-Th 09:00-17:00; Fr 09:00-18:00,Fifth Third Bank,Q1411810
mcodtes-embassy-suites-orlando-downtown,hilton,Embassy Suites by Hilton Orlando Downtown,,,FL,,US,+1 407-841-1000,https://www.hilton.com/ar/hotels/mcodtes-embassy-suites-orlando-downtown/,,Embassy Suites,Q5369524
aloft-downtown-orlando,indigo,Aloft Downtown Orlando,,Orlando,FL,,US,+1 904-380-3500,,,Indigo,Q3559970
boa-merrill-lynch-lincoln-plaza-garage,indigo,BOA - Merrill Lynch - Lincoln Plaza Garage,,Orlando,FL,,US,+1 407-839-2614,,,Indigo,Q3559970
marriott-orlando-downtown,indigo,Marriott Orlando Downtown,,Orlando,FL,,US,+1 401-283-9531,,,Indigo,Q3559970
https://locations.jimmyjohns.com/fl/orlando/sandwiches-1077.html,jimmy_johns,Jimmy John's,,Orlando,FL,,US,+1 407-423-1800,https://locations.jimmyjohns.com/fl/orlando/sandwiches-1077.html,,Jimmy John's,Q1689380
L2NvbnRlbnQvZGFtL2psbC1jb20vbW9kZWxzL2xvY2F0aW9ucy9lbi9vcmxhbmRvLS0tc291dGgtb3JhbmdlLWF2ZW51ZQ,jll,Orlando | South Orange Avenue,,Orlando,FL,,US,+1 407-982-8550,https://www.us.jll.com/en/locations/southeast/florida,,JLL,Q1703389
MCODL,marriott,Aloft Orlando Downtown,,Orlando,FL,,US,+1 407-380-3500,https://www.marriott.com/MCODL,,Aloft Hotels,Q4734166
MCOAD,marriott,AC Hotel Orlando Downtown,,Orlando,FL,,US,+1 407-635-2300,https://www.marriott.com/MCOAD,,AC Hotels,Q5653536
MCODO,marriott,Marriott Orlando Downtown,,Orlando,FL,,US,+1 407-868-8686,https://www.marriott.com/MCODO,,Marriott Hotels & Resorts,Q3918608
MCOZD,marriott,Residence Inn Orlando Downtown,,Orlando,FL,,US,+1 407-482-1500,https://www.marriott.com/MCOZD,,Residence Inn by Marriott,Q7315394
449,mightyflame,7-ELEVEN STORE #36694A,,ORLANDO,FL,,US,+1 407-718-1038,,,Mighty Flame,
19073,planet_smoothie_us,Planet Smoothie,,Orlando,FL,,US,+1 407-930-1566,https://www.planetsmoothie.com/stores/orlando/19073,,Planet Smoothie,Q7201170
https://locations.qdoba.com/us/fl/orlando/416-n-terry-ave.html,qdoba,QDOBA Creative Village,,Orlando,FL,,US,+1 407-601-0473,https://locations.qdoba.com/us/fl/orlando/416-n-terry-ave.html,,Qdoba,Q1363885
32698,seven_eleven_ca_us,7-Eleven Store,,Orlando,FL,,US,+1 407-648-1105,https://www.7-eleven.com/locations/fl/orlando/83-e-colonial-dr-32698,,7-Eleven,Q259340
38323,seven_eleven_ca_us,7-Eleven Store,,Orlando,FL,,US,+1 407-697-6521,https://www.7-eleven.com/locations/fl/orlando/486-n-orange-ave-38323,,7-Eleven,Q259340
https://restaurants.subway.com/#15297409,subway,Subway Unionwest At Creative Village,,Orlando,FL,,US,+1 407-635-8782,https://restaurants.subway.com/united-states/fl/orlando/609-w-livingston-st,Mo-Fr 07:00-23:00; Sa 09:00-23:00; Su 10:00-23:00,Subway,Q244457
https://restaurants.subway.com/#14904298,subway,Subway SkyHouse Orlando,,Orlando Orange,FL,,US,+1 321-332-0106,https://restaurants.subway.com/united-states/fl/orlando/335-n-magnolia-ave,Mo-Fr 08:00-22:00; Sa 09:00-21:00; Su 10:00-21:00,Subway,Q244457
https://locations.tacobell.com/#20466412,taco_bell,Taco Bell,,Orlando,FL,,US,+1 407-789-2800,https://locations.tacobell.com/fl/orlando/1-south-orange-avenue.html,,Taco Bell,Q752941
1361199,usps,DOWNTOWN ORLANDO,,ORLANDO,FL,,US,+1 407-425-6464,,Mo-Fr 07:00-17:00,United States Postal Service,Q668687
3280100030,usps_collection_boxes,USPS COLLECTION BOX - BLUE BOX,100 W LUCERNE CIR,ORLANDO,FL,,US,,,,United States Postal Service,Q668687
3280100101,usps_collection_boxes,USPS COLLECTION BOX - BLUE BOX,400 S ORANGE AVE,ORLANDO,FL,,US,,,,United States Postal Service,Q668687
3280100100,usps_collection_boxes,USPS COLLECTION BOX - BLUE BOX,200 S ORANGE AVE,ORLANDO,FL,,US,,,,United States Postal Service,Q668687
3280100105,usps_collection_boxes,USPS COLLECTION BOX - BLUE BOX,200 S ORANGE AVE,ORLANDO,FL,,US,,,,United States Postal Service,Q668687
3280100104,usps_collection_boxes,USPS COLLECTION BOX - BLUE BOX,155 COURT,ORLANDO,FL,,US,,,,United States Postal Service,Q668687
3280100097,usps_collection_boxes,USPS COLLECTION BOX - BLUE BOX,135 W CENTRAL BLVD,ORLANDO,FL,,US,,,,United States Postal Service,Q668687
3280100038,usps_collection_boxes,USPS COLLECTION BOX - BLUE BOX,450 E SOUTH ST,ORLANDO,FL,,US,,,,United States Postal Service,Q668687
3280100085,usps_collection_boxes,USPS COLLECTION BOX - BLUE BOX,100 E PINE ST,ORLANDO,FL,,US,,,,United States Postal Service,Q668687
3280100010,usps_collection_boxes,USPS COLLECTION BOX - BLUE BOX,20 N ORANGE AVE,ORLANDO,FL,,US,,,,United States Postal Service,Q668687
3280100044,usps_collection_boxes,USPS COLLECTION BOX - BLUE BOX,201 E PINE ST,ORLANDO,FL,,US,,,,United States Postal Service,Q668687
3280100051,usps_collection_boxes,USPS COLLECTION BOX - BLUE BOX,101 E CENTRAL BLVD,ORLANDO,FL,,US,,,,United States Postal Service,Q668687
3280100103,usps_collection_boxes,USPS COLLECTION BOX - BLUE BOX,400 W ROBINSON ST,ORLANDO,FL,,US,,,,United States Postal Service,Q668687
3280100106,usps_collection_boxes,USPS COLLECTION BOX - BLUE BOX,400 W ROBINSON ST,ORLANDO,FL,,US,,,,United States Postal Service,Q668687
3280100099,usps_collection_boxes,USPS COLLECTION BOX - BLUE BOX,111 N ORANGE AVE,ORLANDO,FL,,US,,,,United States Postal Service,Q668687
3280100108,usps_collection_boxes,USPS COLLECTION BOX - PO LOBBY,51 E JEFFERSON ST,ORLANDO,FL,,US,,,,United States Postal Service,Q668687
3280100065,usps_collection_boxes,USPS COLLECTION BOX - BLUE BOX,326 N MAGNOLIA AVE,ORLANDO,FL,,US,,,,United States Postal Service,Q668687
3280100102,usps_collection_boxes,USPS COLLECTION BOX - BLUE BOX,225 E ROBINSON ST,ORLANDO,FL,,US,,,,United States Postal Service,Q668687
3280100032,usps_collection_boxes,USPS COLLECTION BOX - BLUE BOX,445 W AMELIA ST,ORLANDO,FL,,US,,,,United States Postal Service,Q668687
3280100059,usps_collection_boxes,USPS COLLECTION BOX - BLUE BOX,611 E WASHINGTON ST,ORLANDO,FL,,US,,,,United States Postal Service,Q668687
3280100058,usps_collection_boxes,USPS COLLECTION BOX - BLUE BOX,605 E ROBINSON ST,ORLANDO,FL,,US,,,,United States Postal Service,Q668687
3280100077,usps_collection_boxes,USPS COLLECTION BOX - BLUE BOX,101 E AMELIA ST,ORLANDO,FL,,US,,,,United States Postal Service,Q668687
3280100072,usps_collection_boxes,USPS COLLECTION BOX - BLUE BOX,633 N ORANGE AVE,ORLANDO,FL,,US,,,,United States Postal Service,Q668687
3280100098,usps_collection_boxes,USPS COLLECTION BOX - BLUE BOX,1000 LEGION PL,ORLANDO,FL,,US,,,,United States Postal Service,Q668687
,visa,,,ORLANDO,FL,,US,,,,,
,visa,,,ORLANDO,FL,,US,,,,,
,visa,,,ORLANDO,FL,,US,,,,,
,visa,,,ORLANDO,FL,,US,,,,,
,visa,,,ORLANDO,FL,,US,,,,,
,visa,,,ORLANDO,FL,,US,,,,,
,visa,,,ORLANDO,FL,,US,,,,,
,visa,,,ORLANDO,FL,,US,,,,,
,visa,,,ORLANDO,FL,,US,,,,,
,visa,,,ORLANDO,FL,,US,,,,,
,visa,,,ORLANDO,FL,,US,,,,,
,visa,,,ORLANDO,FL,,US,,,,,
,visa,,,ORLANDO,FL,,US,,,,,
,visa,,,ORLANDO,FL,,US,,,,,
,visa,,,ORLANDO,FL,,US,,,,,
,visa,,,ORLANDO,FL,,US,,,,,
,visa,,,ORLANDO,FL,,US,,,,,
,visa,,,ORLANDO,FL,,US,,,,,
,visa,,,ORLANDO,FL,,US,,,,,
,visa,,,ORLANDO,FL,,US,,,,,
,visa,,,ORLANDO,FL,,US,,,,,
,visa,,,ORLANDO,FL,,US,,,,,
,visa,,,ORLANDO,FL,,US,,,,,
,visa,,,ORLANDO,FL,,US,,,,,
,visa,,,ORLANDO,FL,,US,,,,,
,visa,,,ORLANDO,FL,,US,,,,,
,visa,,,ORLANDO,FL,,US,,,,,
,visa,,,ORLANDO,FL,,US,,,,,
,visa,,,ORLANDO,FL,,US,,,,,
,visa,,,ORLANDO,FL,,US,,,,,
,visa,,,ORLANDO,FL,,US,,,,,
,visa,,,ORLANDO,FL,,US,,,,,
,visa,,,ORLANDO,FL,,US,,,,,
,visa,,,ORLANDO,FL,,US,,,,,
,visa,,,ORLANDO,FL,,US,,,,,
,visa,,,ORLANDO,FL,,US,,,,,
,visa,,,ORLANDO,FL,,US,,,,,
,visa,,,ORLANDO,FL,,US,,,,,
,visa,,,ORLANDO,FL,,US,,,,,
,visa,,,ORLANDO,FL,,US,,,,,
,visa,,,ORLANDO,FL,,US,,,,,
,visa,,,ORLANDO,FL,,US,,,,,
,visa,,,ORLANDO,FL,,US,,,,,
,visa,,,ORLANDO,FL,,US,,,,,
,visa,,,ORLANDO,FL,,US,,,,,
,visa,,,ORLANDO,FL,,US,,,,,
,visa,,,ORLANDO,FL,,US,,,,,
,visa,,,ORLANDO,FL,,US,,,,,
,visa,,,ORLANDO,FL,,US,,,,,
,visa,,,ORLANDO,FL,,US,,,,,
,visa,,,ORLANDO,FL,,US,,,,,
,visa,,,ORLANDO,FL,,US,,,,,
,visa,,,ORLANDO,FL,,US,,,,,
,visa,,,ORLANDO,FL,,US,,,,,
,visa,,,ORLANDO,FL,,US,,,,,
,visa,,,ORLANDO,FL,,US,,,,,
,visa,,,ORLANDO,FL,,US,,,,,
,visa,,,ORLANDO,FL,,US,,,,,
,visa,,,ORLANDO,FL,,US,,,,,
,visa,,,ORLANDO,FL,,US,,,,,
,visa,,,ORLANDO,FL,,US,,,,,
,visa,,,ORLANDO,FL,,US,,,,,
,visa,,,ORLANDO,FL,,US,,,,,
,visa,,,ORLANDO,FL,,US,,,,,
,visa,,,ORLANDO,FL,,US,,,,,
,visa,,,ORLANDO,FL,,US,,,,,
,visa,,,ORLANDO,FL,,US,,,,,
,visa,,,ORLANDO,FL,,US,,,,,
,visa,,,ORLANDO,FL,,US,,,,,
,visa,,,ORLANDO,FL,,US,,,,,
,visa,,,ORLANDO,FL,,US,,,,,
,visa,,,ORLANDO,FL,,US,,,,,
,visa,,,ORLANDO,FL,,US,,,,,
,visa,,,ORLANDO,FL,,US,,,,,
,visa,,,ORLANDO,FL,,US,,,,,
,visa,,,ORLANDO,FL,,US,,,,,
,visa,,,ORLANDO,FL,,US,,,,,
,visa,,,ORLANDO,FL,,US,,,,,
,visa,,,ORLANDO,FL,,US,,,,,
,visa,,,ORLANDO,FL,,US,,,,,
,visa,,,ORLANDO,FL,,US,,,,,
,visa,,,ORLANDO,FL,,US,,,,,
,visa,,,ORLANDO,FL,,US,,,,,
,visa,,,ORLANDO,FL,,US,,,,,
,visa,,,ORLANDO,FL,,US,,,,,
,visa,,,ORLANDO,FL,,US,,,,,
,visa,,,ORLANDO,FL,,US,,,,,
,visa,,,ORLANDO,FL,,US,,,,,
,visa,,,ORLANDO,FL,,US,,,,,
,visa,,,ORLANDO,FL,,US,,,,,
,visa,,,ORLANDO,FL,,US,,,,,
,visa,,,ORLANDO,FL,,US,,,,,
,visa,,,ORLANDO,FL,,US,,,,,
,visa,,,ORLANDO,FL,,US,,,,,
,visa,,,ORLANDO,FL,,US,,,,,
,visa,,,ORLANDO,FL,,US,,,,,
,visa,,,ORLANDO,FL,,US,,,,,
,visa,,,ORLANDO,FL,,US,,,,,
,visa,,,ORLANDO,FL,,US,,,,,
,visa,,,ORLANDO,FL,,US,,,,,
,visa,,,ORLANDO,FL,,US,,,,,
,visa,,,ORLANDO,FL,,US,,,,,
,visa,,,ORLANDO,FL,,US,,,,,
,visa,,,ORLANDO,FL,,US,,,,,
,visa,,,ORLANDO,FL,,US,,,,,
,visa,,,ORLANDO,FL,,US,,,,,
,visa,,,ORLANDO,FL,,US,,,,,
,visa,,,ORLANDO,FL,,US,,,,,
,visa,,,ORLANDO,FL,,US,,,,,
,visa,,,ORLANDO,FL,,US,,,,,
,visa,,,ORLANDO,FL,,US,,,,,
,visa,,,ORLANDO,FL,,US,,,,,
,visa,,,ORLANDO,FL,,US,,,,,
,visa,,,ORLANDO,FL,,US,,,,,
,visa,,,ORLANDO,FL,,US,,,,,
,visa,,,ORLANDO,FL,,US,,,,,
,visa,,,ORLANDO,FL,,US,,,,,
,visa,,,ORLANDO,FL,,US,,,,,
,visa,,,ORLANDO,FL,,US,,,,,
,visa,,,ORLANDO,FL,,US,,,,,
,visa,,,ORLANDO,FL,,US,,,,,
,visa,,,ORLANDO,FL,,US,,,,,
,visa,,,ORLANDO,FL,,US,,,,,
,visa,,,ORLANDO,FL,,US,,,,,
,visa,,,ORLANDO,FL,,US,,,,,
,visa,,,ORLANDO,FL,,US,,,,,
,visa,,,ORLANDO,FL,,US,,,,,
,visa,,,ORLANDO,FL,,US,,,,,
,visa,,,ORLANDO,FL,,US,,,,,
,visa,,,ORLANDO,FL,,US,,,,,
,visa,,,ORLANDO,FL,,US,,,,,
,visa,,,ORLANDO,FL,,US,,,,,
,visa,,,GAINESVILLE,FL,,US,,,,,
,visa,,,SARASOTA,FL,,US,,,,,
131__N__ORANGE__AVE__STE__105_ORLANDO_FL_32801,wellsfargo,Wells Fargo,131 N ORANGE AVE STE 105,ORLANDO,FL,,US,+1 321-354-6975,https://www.wellsfargo.com/locator/bank/131__N__ORANGE__AVE__STE__105_ORLANDO_FL_32801/,Mo-Th 09:00-16:00,Wells Fargo,Q744149
2226bb0a189a9b973050c70e18d5b7d4,western_union,7-ELEVEN #38323,,Orlando,FL,,US,+1 407-697-6521,https://location.westernunion.com/us/fl/orlando/2226bb0a189a9b973050c70e18d5b7d4,,Western Union,Q861042
418014576fb7156e26243f32f516de8e,western_union,7-ELEVEN #32698,,Orlando,FL,,US,+1 407-648-1105,https://location.westernunion.com/us/fl/orlando/418014576fb7156e26243f32f516de8e,,Western Union,Q861042
01b68c6aafef47f9da2825d53f594ff5,western_union,DOLLAR GENERAL #21587,,Orlando,FL,,US,+1 321-300-0722,https://location.westernunion.com/us/fl/orlando/01b68c6aafef47f9da2825d53f594ff5,Mo-Fr 07:00-24:00; Sa-Su 08:00-22:00,Western Union,Q861042
