Ref,Spider,Name,Address,City,State,Zipcode,Country,Phone,Website,Hours,Brand,WikiData
https://www.ameripriseadvisors.com/zsolt.papp/contact/,ameriprise_us,Zsolt Papp,,Minneapolis,MN,,US,+1 800-297-2012,https://www.ameripriseadvisors.com/zsolt.papp/,,Ameriprise Financial,Q2843129
https://www.ameripriseadvisors.com/jacob.nelson/contact/,ameriprise_us,Jacob Nelson,,Minneapolis,MN,,US,+1 800-297-2012,https://www.ameripriseadvisors.com/jacob.nelson/,,Ameriprise Financial,Q2843129
https://www.ameripriseadvisors.com/jackson.theisen/contact/,ameriprise_us,Jackson Theisen,,Minneapolis,MN,,US,+1 800-297-2012,https://www.ameripriseadvisors.com/jackson.theisen/,,Ameriprise Financial,Q2843129
https://www.ameripriseadvisors.com/jackson.sosnowski/contact/,ameriprise_us,Jackson Sosnowski,,Minneapolis,MN,,US,+1 800-297-2012,https://www.ameripriseadvisors.com/jackson.sosnowski/,,Ameriprise Financial,Q2843129
https://www.ameripriseadvisors.com/tyler.sherman/contact/,ameriprise_us,Tyler Sherman,,Minneapolis,MN,,US,+1 800-297-2012,https://www.ameripriseadvisors.com/tyler.sherman/,,Ameriprise Financial,Q2843129
https://www.ameripriseadvisors.com/tyler.sevlie/contact/,ameriprise_us,Tyler Sevlie,,Minneapolis,MN,,US,+1 800-297-2012,https://www.ameripriseadvisors.com/tyler.sevlie/,,Ameriprise Financial,Q2843129
https://www.ameripriseadvisors.com/tyler.marceau/contact/,ameriprise_us,Tyler Marceau,,Minneapolis,MN,,US,+1 800-297-2012,https://www.ameripriseadvisors.com/tyler.marceau/,,Ameriprise Financial,Q2843129
https://www.ameripriseadvisors.com/william.d.ferguson/contact/,ameriprise_us,William Dean Ferguson,,Minneapolis,MN,,US,+1 800-297-2012,https://www.ameripriseadvisors.com/william.d.ferguson/,,Ameriprise Financial,Q2843129
https://www.ameripriseadvisors.com/team/ameriprise-upper-midwest-team/contact/,ameriprise_us,Ameriprise Upper Midwest Team,,Minneapolis,MN,,US,+1 800-297-2012,https://www.ameripriseadvisors.com/team/ameriprise-upper-midwest-team/,,Ameriprise Financial,Q2843129
https://www.ameripriseadvisors.com/team/ameriprise-upper-east-coast-team/contact/,ameriprise_us,Ameriprise Upper East Coast Team,,Minneapolis,MN,,US,+1 800-297-2012,https://www.ameripriseadvisors.com/team/ameriprise-upper-east-coast-team/,,Ameriprise Financial,Q2843129
https://www.ameripriseadvisors.com/team/ameriprise-south-atlantic-team/contact/,ameriprise_us,Ameriprise South Atlantic Team,,Minneapolis,MN,,US,+1 800-297-2012,https://www.ameripriseadvisors.com/team/ameriprise-south-atlantic-team/,,Ameriprise Financial,Q2843129
https://www.ameripriseadvisors.com/team/ameriprise-personal-advisor-team/contact/,ameriprise_us,Ameriprise Personal Advisor Team,,Minneapolis,MN,,US,+1 800-257-8740,https://www.ameripriseadvisors.com/team/ameriprise-personal-advisor-team/,,Ameriprise Financial,Q2843129
https://www.ameripriseadvisors.com/team/ameriprise-pacwest-team/contact/,ameriprise_us,Ameriprise PacWest Team,,Minneapolis,MN,,US,+1 800-297-2012,https://www.ameripriseadvisors.com/team/ameriprise-pacwest-team/,,Ameriprise Financial,Q2843129
https://www.ameripriseadvisors.com/team/ameriprise-pacific-team/contact/,ameriprise_us,Ameriprise Pacific Team,,Minneapolis,MN,,US,+1 800-297-2012,https://www.ameripriseadvisors.com/team/ameriprise-pacific-team/,,Ameriprise Financial,Q2843129
https://www.ameripriseadvisors.com/team/ameriprise-northeast-team/contact/,ameriprise_us,Ameriprise Northeast Team,,Minneapolis,MN,,US,+1 800-297-2012,https://www.ameripriseadvisors.com/team/ameriprise-northeast-team/,,Ameriprise Financial,Q2843129
https://www.ameripriseadvisors.com/team/ameriprise-mid-america-team/contact/,ameriprise_us,Ameriprise Mid-America Team,,Minneapolis,MN,,US,+1 800-297-2012,https://www.ameripriseadvisors.com/team/ameriprise-mid-america-team/,,Ameriprise Financial,Q2843129
https://www.ameripriseadvisors.com/team/ameriprise-lower-midwest-team/contact/,ameriprise_us,Ameriprise Lower Midwest Team,,Minneapolis,MN,,US,+1 800-297-2012,https://www.ameripriseadvisors.com/team/ameriprise-lower-midwest-team/,,Ameriprise Financial,Q2843129
https://www.ameripriseadvisors.com/team/ameriprise-financial-planning-team/contact/,ameriprise_us,Ameriprise Financial Planning Team,,Minneapolis,MN,,US,+1 800-297-2012,https://www.ameripriseadvisors.com/team/ameriprise-financial-planning-team/,,Ameriprise Financial,Q2843129
https://www.ameripriseadvisors.com/team/ameriprise-east-team/contact/,ameriprise_us,Ameriprise East Team,,Minneapolis,MN,,US,+1 800-297-2012,https://www.ameripriseadvisors.com/team/ameriprise-east-team/,,Ameriprise Financial,Q2843129
https://www.ameripriseadvisors.com/team/ameriprise-atlantic-team/contact/,ameriprise_us,Ameriprise Atlantic Team,,Minneapolis,MN,,US,+1 800-297-2012,https://www.ameripriseadvisors.com/team/ameriprise-atlantic-team/,,Ameriprise Financial,Q2843129
https://www.ameripriseadvisors.com/rachel.holzem/contact/,ameriprise_us,Rachel Holzem,,Minneapolis,MN,,US,+1 800-297-2012,https://www.ameripriseadvisors.com/rachel.holzem/,,Ameriprise Financial,Q2843129
https://www.ameripriseadvisors.com/raymond.messenbrink/contact/,ameriprise_us,Raymond Messenbrink,,Minneapolis,MN,,US,+1 800-297-2012,https://www.ameripriseadvisors.com/raymond.messenbrink/,,Ameriprise Financial,Q2843129
https://www.ameripriseadvisors.com/madalyn.allison/contact/,ameriprise_us,Madalyn Allison,,Minneapolis,MN,,US,+1 800-297-2012,https://www.ameripriseadvisors.com/madalyn.allison/,,Ameriprise Financial,Q2843129
https://www.ameripriseadvisors.com/mac.lamont/contact/,ameriprise_us,Mac Lamont,,Minneapolis,MN,,US,+1 800-297-2012,https://www.ameripriseadvisors.com/mac.lamont/,,Ameriprise Financial,Q2843129
https://www.ameripriseadvisors.com/lucas.hendrickson/contact/,ameriprise_us,Lucas Hendrickson,,Minneapolis,MN,,US,+1 800-297-2012,https://www.ameripriseadvisors.com/lucas.hendrickson/,,Ameriprise Financial,Q2843129
https://www.ameripriseadvisors.com/matthew.riley/contact/,ameriprise_us,Matthew Riley,,Minneapolis,MN,,US,+1 800-297-2012,https://www.ameripriseadvisors.com/matthew.riley/,,Ameriprise Financial,Q2843129
https://www.ameripriseadvisors.com/maxwell.rottjakob/contact/,ameriprise_us,Max Rottjakob,,Minneapolis,MN,,US,+1 800-297-2012,https://www.ameripriseadvisors.com/maxwell.rottjakob/,,Ameriprise Financial,Q2843129
https://www.ameripriseadvisors.com/michael.muyale/contact/,ameriprise_us,Michael Muyale,,Minneapolis,MN,,US,+1 800-297-2012,https://www.ameripriseadvisors.com/michael.muyale/,,Ameriprise Financial,Q2843129
https://www.ameripriseadvisors.com/nicholas.welch/contact/,ameriprise_us,Nick Welch,,Minneapolis,MN,,US,+1 800-297-2012,https://www.ameripriseadvisors.com/nicholas.welch/,,Ameriprise Financial,Q2843129
https://www.ameripriseadvisors.com/john.klapperich/contact/,ameriprise_us,John Klapperich,,Minneapolis,MN,,US,+1 800-297-2012,https://www.ameripriseadvisors.com/john.klapperich/,,Ameriprise Financial,Q2843129
https://www.ameripriseadvisors.com/joshua.nelson/contact/,ameriprise_us,Josh Nelson,,Minneapolis,MN,,US,+1 800-297-2012,https://www.ameripriseadvisors.com/joshua.nelson/,,Ameriprise Financial,Q2843129
https://www.ameripriseadvisors.com/cory.s.grom/contact/,ameriprise_us,Cory Grom,,Minneapolis,MN,,US,+1 800-297-2012,https://www.ameripriseadvisors.com/cory.s.grom/,,Ameriprise Financial,Q2843129
https://www.ameripriseadvisors.com/david.matuga/contact/,ameriprise_us,David Matuga,,Minneapolis,MN,,US,+1 800-297-2012,https://www.ameripriseadvisors.com/david.matuga/,,Ameriprise Financial,Q2843129
https://www.ameripriseadvisors.com/edward.sekula/contact/,ameriprise_us,Edward Sekula,,Minneapolis,MN,,US,+1 800-297-2012,https://www.ameripriseadvisors.com/edward.sekula/,,Ameriprise Financial,Q2843129
https://www.ameripriseadvisors.com/emilie.zibble/contact/,ameriprise_us,Emilie Zibble,,Minneapolis,MN,,US,+1 800-297-2012,https://www.ameripriseadvisors.com/emilie.zibble/,,Ameriprise Financial,Q2843129
https://www.ameripriseadvisors.com/anthony.1.williams/contact/,ameriprise_us,Anthony Williams,,Minneapolis,MN,,US,+1 800-297-2012,https://www.ameripriseadvisors.com/anthony.1.williams/,,Ameriprise Financial,Q2843129
https://www.ameripriseadvisors.com/anthony.p.delisi/contact/,ameriprise_us,Anthony Delisi,,Minneapolis,MN,,US,+1 800-297-2012,https://www.ameripriseadvisors.com/anthony.p.delisi/,,Ameriprise Financial,Q2843129
https://www.ameripriseadvisors.com/ashley.peper/contact/,ameriprise_us,Ashley Peper,,Minneapolis,MN,,US,+1 800-297-2012,https://www.ameripriseadvisors.com/ashley.peper/,,Ameriprise Financial,Q2843129
https://www.ameripriseadvisors.com/bipasha.goswami/contact/,ameriprise_us,Bipasha Goswami,,Minneapolis,MN,,US,+1 800-297-2012,https://www.ameripriseadvisors.com/bipasha.goswami/,,Ameriprise Financial,Q2843129
https://www.ameripriseadvisors.com/brandon.macho/contact/,ameriprise_us,Brandon Macho,,Minneapolis,MN,,US,+1 800-297-2012,https://www.ameripriseadvisors.com/brandon.macho/,,Ameriprise Financial,Q2843129
https://www.ameripriseadvisors.com/brett.watercott/contact/,ameriprise_us,Brett Watercott,,Minneapolis,MN,,US,+1 800-297-2012,https://www.ameripriseadvisors.com/brett.watercott/,,Ameriprise Financial,Q2843129
https://www.ameripriseadvisors.com/carmen.hall/contact/,ameriprise_us,Carmen Hall,,Minneapolis,MN,,US,+1 800-297-2012,https://www.ameripriseadvisors.com/carmen.hall/,,Ameriprise Financial,Q2843129
