Ref,Spider,Name,Address,City,State,Zipcode,Country,Phone,Website,Hours,Brand,WikiData
gdps_vst-0651130,activ_fitness_ch,Activ Fitness,,Fribourg,,,CH,+41 26 655 00 11,https://www.activfitness.ch/studios/activ-fitness-fribourg/,,Activ Fitness,Q123747318
DOM-82,aldi_sud_ch,ALDI,"Avenue de la Gare 22, Fribourg, 1700",Fribourg,,,CH,+41 26 347 33 98,,Mo-Th 08:30-19:00; Fr 08:30-20:00; Sa 08:00-16:00,ALDI,Q41171672
21788,burgerking,Burger King,,Fribourg,,,CH,+41 26 321 37 97,,Mo-Su 10:30-00:00,Burger King,Q177054
fribourg/1074,claires,Shop Ear Piercings & Jewellery at Fribourg Centre,,Fribourg,,,CH,+41 26 561 10 20,https://stores.claires.com/ch-fr/fribourg/1074.html,Mo-Th 09:00-19:00; Fr 09:00-20:00; Sa 08:30-16:00,Claire's,Q2974996
CH0019,c_and_a,Fribourg Centre,"Avenue de la Gare 10, 1700 Fribourg",Fribourg,,,CH,,https://www.c-and-a.com/stores/ch-de/fribourg/fribourg/avenue-de-la-gare-10.html,Mo 09:00-19:00; Tu 09:00-19:00; We 09:00-19:00; Th 09:00-20:00; Fr 09:00-19:00; Sa 08:30-16:00,C&A,Q701338
rue-du-criblet-4-1700-fribourg,denner_ch,Denner,,Fribourg,,,CH,+41 58 999 17 69,https://www.denner.ch/de/filialen/denner-filiale-und-oeffnungszeiten/store/rue-du-criblet-4-1700-fribourg/,Mo-Th 07:00-19:00; Fr 07:00-21:00; Sa 07:00-16:00,Denner,Q379911
chemin-de-bethleem-3-7-1700-fribourg,denner_ch,Denner,,Fribourg,,,CH,+41 58 999 65 52,https://www.denner.ch/de/filialen/denner-filiale-und-oeffnungszeiten/store/chemin-de-bethleem-3-7-1700-fribourg/,Mo-Fr 07:30-19:00; Sa 08:00-16:00; Su 08:00-12:00,Denner,Q379911
bd-de-perolles-55-1700-fribourg,denner_ch,Denner,,Fribourg,,,CH,+41 58 999 07 03,https://www.denner.ch/de/filialen/denner-filiale-und-oeffnungszeiten/store/bd-de-perolles-55-1700-fribourg/,Mo-Fr 07:30-19:00; Sa 07:30-16:00,Denner,Q379911
jean-marie-musy-15a-1700-fribourg,denner_ch,Denner,,Fribourg,,,CH,+41 58 999 03 32,https://www.denner.ch/de/filialen/denner-filiale-und-oeffnungszeiten/store/jean-marie-musy-15a-1700-fribourg/,Mo-Fr 07:30-19:00; Sa 07:30-16:00,Denner,Q379911
perolle-centre-bd-de-perolles-21a-1700-fribourg,denner_ch,Denner,,Fribourg,,,CH,+41 58 999 07 13,https://www.denner.ch/de/filialen/denner-filiale-und-oeffnungszeiten/store/perolle-centre-bd-de-perolles-21a-1700-fribourg/,Mo-Th 08:00-19:00; Fr 08:00-21:00; Sa 08:00-16:00,Denner,Q379911
route-de-sainte-therese-2-1700-fribourg,denner_ch,Denner,,Fribourg,,,CH,+41 58 999 17 01,https://www.denner.ch/de/filialen/denner-filiale-und-oeffnungszeiten/store/route-de-sainte-therese-2-1700-fribourg/,Mo-Th 07:30-19:00; Fr 07:30-21:00; Sa 07:30-16:00,Denner,Q379911
route-de-la-gruyere-19-1700-fribourg,denner_ch,Denner,,Fribourg,,,CH,+41 26 422 39 91,https://www.denner.ch/de/filialen/denner-filiale-und-oeffnungszeiten/store/route-de-la-gruyere-19-1700-fribourg/,Mo-Fr 07:30-19:00; Sa 07:30-16:00; Su 08:00-13:00,Denner,Q379911
sharedmobility.ch:carvelo2go:6234aae3-4d9d-4461-b71e-2d5efd087a67,gbfs,Atout Vrac * Epicerie sans emballages / Unverpacktes Einkaufen,,,,,CH,,https://www.sharedmobility.ch/info,,sharedmobility.ch,
sharedmobility.ch:carvelo2go:14f2639f-bb29-4d9e-a9dd-07f0e89fad0c,gbfs,Bio26,,,,,CH,,https://www.sharedmobility.ch/info,,sharedmobility.ch,
sharedmobility.ch:carvelo2go:edb06700-c3a8-475f-ee9c-554833c17eb7,gbfs,Bluefactory Culture Carvelobox,,,,,CH,,https://www.sharedmobility.ch/info,,sharedmobility.ch,
sharedmobility.ch:carvelo2go:8422c5de-973e-4aff-9b41-0d2165c66248,gbfs,Boulangerie L'Ecureuil,,,,,CH,,https://www.sharedmobility.ch/info,,sharedmobility.ch,
sharedmobility.ch:carvelo2go:88146cb0-8e53-4e0a-c45b-1bebf3a9320c,gbfs,Boulangerie Saudan,,,,,CH,,https://www.sharedmobility.ch/info,,sharedmobility.ch,
sharedmobility.ch:carvelo2go:d9aed8d3-2f44-4fb5-f446-2bd1afb50d8d,gbfs,Confiserie Suard,,,,,CH,,https://www.sharedmobility.ch/info,,sharedmobility.ch,
sharedmobility.ch:carvelo2go:b5a91d79-8013-4207-fda8-ab8fd2f9c0fc,gbfs,Cyclo Café,,,,,CH,,https://www.sharedmobility.ch/info,,sharedmobility.ch,
sharedmobility.ch:carvelo2go:aa2626fd-c296-41e5-af2d-33e7135e3126,gbfs,Park & Bike St. Léonard Carvelobox,,,,,CH,,https://www.sharedmobility.ch/info,,sharedmobility.ch,
publibike:3aceb61a-dc5d-48a8-9634-8bc9eca47c99,gbfs,Gare de Fribourg,,,,,CH,,https://www.publibike.ch,,PubliBike,
publibike:299920e8-1903-4387-9ce4-362f9385654d,gbfs,Fribourg-Gottéron,,,,,CH,,https://www.publibike.ch,,PubliBike,
publibike:f992aefc-0db0-4670-bc8d-2fd24883a5cd,gbfs,Uni Pérolles,,,,,CH,,https://www.publibike.ch,,PubliBike,
publibike:c4c7eff7-794a-42b7-86eb-44649089dd06,gbfs,Schönberg,,,,,CH,,https://www.publibike.ch,,PubliBike,
publibike:e06d9cd7-ae69-4d00-9347-95c9f09a7f1e,gbfs,Bourg,,,,,CH,,https://www.publibike.ch,,PubliBike,
publibike:00e0c2a1-83d7-406e-a5b5-3cbbf498a428,gbfs,La Neuveville,,,,,CH,,https://www.publibike.ch,,PubliBike,
publibike:1c5f1926-b1fa-4a2f-8fd0-27a0061db9d0,gbfs,Auge,,,,,CH,,https://www.publibike.ch,,PubliBike,
publibike:c203cd33-01e0-4270-902c-70549519e97d,gbfs,bluefactory,,,,,CH,,https://www.publibike.ch,,PubliBike,
publibike:0b233e56-2aa0-458c-833a-14f62913e829,gbfs,Pont de Zähringen,,,,,CH,,https://www.publibike.ch,,PubliBike,
publibike:4aa167ee-28af-4134-9b61-5a0e06fe57b4,gbfs,Avenue Beauregard,,,,,CH,,https://www.publibike.ch,,PubliBike,
publibike:e362f221-f90f-4167-8965-81bd7597c3f1,gbfs,Uni Miséricorde,,,,,CH,,https://www.publibike.ch,,PubliBike,
publibike:5f1dd67d-c868-4290-a7ac-0965660bdaed,gbfs,Route Albert-Gockel,,,,,CH,,https://www.publibike.ch,,PubliBike,
publibike:062d2521-85f3-4f98-b269-029e1e105b86,gbfs,Faucigny,,,,,CH,,https://www.publibike.ch,,PubliBike,
publibike:d3575421-b480-46c0-8d98-b8ddbbbe21e6,gbfs,Arsenaux,,,,,CH,,https://www.publibike.ch,,PubliBike,
publibike:c2611e47-d15b-4007-9b3b-2867410ac8e5,gbfs,Vignettaz - Daler,,,,,CH,,https://www.publibike.ch,,PubliBike,
publibike:cc6abf9b-f5f2-48d5-9fcb-2beb98c3b8ec,gbfs,P+R La Chassotte,,,,,CH,,https://www.publibike.ch,,PubliBike,
publibike:4e4a8843-3c86-44f9-918e-a1775fd68860,gbfs,Route des Noisetiers,,,,,CH,,https://www.publibike.ch,,PubliBike,
publibike:0926163d-d5b4-4151-8a1b-660c56f43f4c,gbfs,Schönberg Chaley,,,,,CH,,https://www.publibike.ch,,PubliBike,
publibike:834dc4fe-98d3-4711-a43f-1f69a7313789,gbfs,Route des Cliniques,,,,,CH,,https://www.publibike.ch,,PubliBike,
publibike:e343fd76-c4af-45bd-a2e2-e7c7883646df,gbfs,Beaumont FR,,,,,CH,,https://www.publibike.ch,,PubliBike,
publibike:9f8fc73c-7de9-40ee-a3a3-204c9c8a9dcf,gbfs,Champriond,,,,,CH,,https://www.publibike.ch,,PubliBike,
publibike:734f833f-4024-4af3-9461-de03208f19a3,gbfs,Softcom,,,,,CH,,https://www.publibike.ch,,PubliBike,
publibike:b2ec2b0b-38fc-4a54-8dec-5f98b0000da8,gbfs,Rue du Simplon,,,,,CH,,https://www.publibike.ch,,PubliBike,
publibike:8ca8589d-9735-4419-8d3d-955bad9e3991,gbfs,Bourgknecht,,,,,CH,,https://www.publibike.ch,,PubliBike,
publibike:68033c53-ddb8-4e47-a2f1-4e08147a401d,gbfs,Fribourg Gare Nord,,,,,CH,,https://www.publibike.ch,,PubliBike,
publibike:b7190f32-bff5-4a5c-8109-00013a7a422a,gbfs,Place Georges Python,,,,,CH,,https://www.publibike.ch,,PubliBike,
publibike:3707f3cd-3f45-4c0b-ae93-99de41f148af,gbfs,La Motta,,,,,CH,,https://www.publibike.ch,,PubliBike,
publibike:c0f5b421-5913-48fe-b383-3ce9846e9955,gbfs,Quartier d'Alt,,,,,CH,,https://www.publibike.ch,,PubliBike,
348,lidl_ch,Lidl,,Fribourg,,,CH,,,Mo-Th 07:00-19:00; Fr 07:00-21:00; Sa 07:00-16:00,Lidl,Q151954
CH044,longchamp,Les Boutiques Angéloz,,FRIGBOUR,,,CH,+41 26 469 77 77,,,Longchamp,Q1869471
176,medbase_ch,Medbase,,Freiburg,,,CH,+41 26 309 28 30,https://www.medbase.ch/standorte/detail/medbase-freiburg,Mo-Fr 08:00-18:00,Medbase,Q50038690
0083670_super,migros_ch,Migros,,Fribourg,,,CH,+41 58 573 03 00,https://filialen.migros.ch/de/migros-supermarkt-beauregard,Mo-Th 07:30-19:00; Fr 07:30-21:00; Sa 07:30-16:00,Migros,Q115661152
4797232_mno,migros_ch,Migrolino,,Fribourg,,,CH,+41 61 512 17 36,https://filialen.migros.ch/de/migrolino-fribourg-jura,Mo-Sa 06:00-21:00; Su 06:00-19:00,Migrolino,Q56745088
0084240_super,migros_ch,Migros,,Fribourg,,,CH,+41 58 573 00 00,https://filialen.migros.ch/de/migros-supermarkt-marche-fr,Mo-Th 07:30-19:00; Fr 07:30-20:00; Sa 07:30-16:00,Migros,Q115661152
0083640_super,migros_ch,Migros,,Fribourg,,,CH,+41 58 573 26 00,https://filialen.migros.ch/de/migros-supermarkt-schoenberg,Mo-Th 07:30-19:00; Fr 07:30-21:00; Sa 07:30-16:00,Migros,Q115661152
0084300_1324_pickmup_smvmpmubox,migros_ch,PickMup Box,,Fribourg,,,CH,+41 58 573 10 00,https://filialen.migros.ch/de/box-m-fribourg-perolles-centre-perolles-centre,Mo-Th 08:00-19:00; Fr 08:00-21:00; Sa 08:00-16:00,PickMup Box,Q115679275
0084300_super,migros_ch,Migros,,Fribourg,,,CH,+41 58 573 10 00,https://filialen.migros.ch/de/migros-supermarkt-perolles-centre,Mo-Th 08:00-19:00; Fr 08:00-21:00; Sa 08:00-16:00,Migros,Q115661152
0084300_flori,migros_ch,Florissimo,,Fribourg,,,CH,+41 58 573 10 00,https://filialen.migros.ch/de/florissimo-perolles-centre,Mo-Th 08:00-19:00; Fr 08:00-21:00; Sa 08:00-16:00,Florissimo,Q115659418
0084300_doi,migros_ch,Do It + Garden,,Fribourg,,,CH,+41 58 573 10 00,https://filialen.migros.ch/de/do-it-garden-perolles-centre,Mo-Th 08:00-19:00; Fr 08:00-21:00; Sa 08:00-16:00,Do It + Garden,Q108866119
0083830_super,migros_ch,Migros,,Fribourg,,,CH,+41 58 573 26 50,https://filialen.migros.ch/de/migros-supermarkt-ste-therese,Mo-Th 07:30-19:00; Fr 07:30-21:00; Sa 07:30-16:00,Migros,Q115661152
70926761,moneygram,CASH XPRESS - #4 - FRIBOURG,,FRIBOURG,,,CH,+41 26 422 19 03,,Mo-Fr 09:00-19:00; Sa 09:30-18:00; Su 00:00-24:00,MoneyGram,Q1944412
CHH01700,neuroth,Neuroth,"Avenue de la Gare 11, 1700 Fribourg, CH",Fribourg,,,CH,+41 26 321 41 28,https://ch.neuroth.com/filialen/avenue-de-la-gare-11-fribourg/,"Mo-Fr 08:30-12:00,13:00-17:30",Neuroth,Q15836645
5b3cb3fac00458481b437ac4,newyorker,NEW YORKER | La Galerie,"Avenue de la Gare 22, 1700 Fribourg",Fribourg,,,CH,+41 26 322 05 73,,Mo-We 09:00-19:00; Th 09:00-20:00; Fr 09:00-19:00; Sa 08:30-16:00,New Yorker,Q706421
555-optical-center-fribourg-gare,optical_center,Optical Center FRIBOURG - GARE,,FRIBOURG,,,CH,+41 26 321 35 50,https://de.optiker.optical-center.fr/555-optical-center-fribourg-gare,Mo-We 08:30-18:30; Th 08:30-19:00; Fr 08:30-18:30; Sa 08:00-16:00,Optical Center,Q3354448
N950066,united_colors_of_benetton,Benetton Fribourg,,FRIBOURG,,,CH,+41 26 321 26 80,,"Mo-Fr 09:30-13:00,13:30-18:30; Sa 09:00-16:00",United Colors of Benetton,Q817139
N950071,united_colors_of_benetton,Benetton Fribourg,,FRIBOURG,,,CH,+41 26 341 00 77,,,United Colors of Benetton,Q817139
7612555516384,valora,k kiosk,,Fribourg,,,CH,,,,k kiosk,Q60381703
7612555515311,valora,Brezelkönig,,Fribourg,,,CH,,,,Brezelkönig,Q111728604
4022,valora,k kiosk,,Fribourg,,,CH,,,,k kiosk,Q60381703
4015,valora,k kiosk,,Fribourg,,,CH,,,,k kiosk,Q60381703
4013,valora,k kiosk,,Fribourg,,,CH,,,,k kiosk,Q60381703
4012,valora,k kiosk,,Fribourg,,,CH,,,,k kiosk,Q60381703
2823,valora,Avec,,Fribourg,,,CH,,,,Avec,Q103863974
579,valora,k kiosk,,Fribourg,,,CH,,,,k kiosk,Q60381703
,visa,,,FRIBOURG,,,CH,,,,,
,visa,,,FRIBOURG,,,CH,,,,,
,visa,,,FRIBOURG,,,CH,,,,,
,visa,,,FRIBOURG,,,CH,,,,,
,visa,,,FRIBOURG,,,CH,,,,,
,visa,,,FRIBOURG,,,CH,,,,,
