Ref,Spider,Name,Address,City,State,Zipcode,Country,Phone,Website,Hours,Brand,WikiData
4157,first_cash,Realice,,Villahermosa,Tabasco,,MX,+52 993 186 0160,,,,
1565,first_cash,First Cash Pawn,,Villahermosa,Tabasco,,MX,+52 993 351 4853,,,First Cash Pawn,
,visa,,,VILLAHERMOSA,TABASCO,,MX,,,,,
,visa,,,VILLAHERMOSA,TABASCO,,MX,,,,,
,visa,,,VILLA HERMOSA,TABASCO,,MX,,,,,
,visa,,,VILLAHERMOSA,TABASCO,,MX,,,,,
,visa,,,CENTRO,TABASCO,,MX,,,,,
,visa,,,VILLAHERMOSA,TABASCO,,MX,,,,,
,visa,,,VILLAHERMOSA,TABASCO,,MX,,,,,
,visa,,,VILLAHERMOSA,TABASCO,,MX,,,,,
,visa,,,VILLAHERMOSA,TABASCO,,MX,,,,,
,visa,,,VILLAHERMOSA,TABASCO,,MX,,,,,
a29120aedf982178af6b361af267616f,western_union,OXXO MARACANA VSA,,Villahermosa,TABASCO,,MX,+52 81 8389 2121,https://location.westernunion.com/mx/tabasco/villahermosa/a29120aedf982178af6b361af267616f,Mo-Su 08:00-22:00,Western Union,Q861042
32ac01f2fe241ed2679483f75761a04b,western_union,OXXO MARACANA VSA,,Villahermosa,TABASCO,,MX,+52 81 8389 2121,https://location.westernunion.com/mx/tabasco/villahermosa/32ac01f2fe241ed2679483f75761a04b,Mo-Su 08:00-22:00,Western Union,Q861042
68d3080ee6175d76623289ed17480608,western_union,OXXO MARACANA VSA,,Villahermosa,TABASCO,,MX,+52 81 8389 2121,https://location.westernunion.com/mx/tabasco/villahermosa/68d3080ee6175d76623289ed17480608,Mo-Su 08:00-22:00,Western Union,Q861042
8f384f2f0a5efb49dbb0b3a12771df93,western_union,OXXO RECINTO VSA,,Villahermosa,TABASCO,,MX,+52 81 8389 2121,https://location.westernunion.com/mx/tabasco/villahermosa/8f384f2f0a5efb49dbb0b3a12771df93,Mo-Su 08:00-22:00,Western Union,Q861042
71e0e6075c021b7aed837456128b7c89,western_union,OXXO RECINTO VSA,,Villahermosa,TABASCO,,MX,+52 81 8389 2121,https://location.westernunion.com/mx/tabasco/villahermosa/71e0e6075c021b7aed837456128b7c89,Mo-Su 08:00-22:00,Western Union,Q861042
b6d390b22c22421c653ca008e8dcb425,western_union,OXXO RECINTO VSA,,Villahermosa,TABASCO,,MX,+52 81 8389 2121,https://location.westernunion.com/mx/tabasco/villahermosa/b6d390b22c22421c653ca008e8dcb425,Mo-Su 08:00-22:00,Western Union,Q861042
872ccede4432da96ce822aea9e9a10b9,western_union,FUNDACION DONDE VILLAHERMOSA 4 ID70,,Villahermosa,TABASCO,,MX,+52 999 940 7550,https://location.westernunion.com/mx/tabasco/villahermosa/872ccede4432da96ce822aea9e9a10b9,Mo-Su 08:00-20:00,Western Union,Q861042
f22804adb54e5e607a3b7d617888664b,western_union,OXXO MARIACHIS VSA,,Villahermosa,TABASCO,,MX,+52 81 8389 2121,https://location.westernunion.com/mx/tabasco/villahermosa/f22804adb54e5e607a3b7d617888664b,Mo-Su 08:00-22:00,Western Union,Q861042
ef50482d2fb16ecac165d60ff2f584b9,western_union,OXXO MARIACHIS VSA,,Villahermosa,TABASCO,,MX,+52 81 8389 2121,https://location.westernunion.com/mx/tabasco/villahermosa/ef50482d2fb16ecac165d60ff2f584b9,Mo-Su 08:00-22:00,Western Union,Q861042
41145ce77256e2454dca018e707b0746,western_union,OXXO MARIACHIS VSA,,Villahermosa,TABASCO,,MX,+52 81 8389 2121,https://location.westernunion.com/mx/tabasco/villahermosa/41145ce77256e2454dca018e707b0746,Mo-Su 08:00-22:00,Western Union,Q861042
ebb2c422d94d2fe59ce4d71773b0cb38,western_union,SUPER SANCHEZ TAMULTE 2,,Centro,TABASCO,,MX,(+052) 993-3580900,https://location.westernunion.com/mx/tabasco/centro/ebb2c422d94d2fe59ce4d71773b0cb38,Mo-Su 08:00-20:00,Western Union,Q861042
673bd89fd264eeefd22b45101c31f2af,western_union,SUPER SANCHEZ TAMULTE 2,,Centro,TABASCO,,MX,(+052) 993-3580900,https://location.westernunion.com/mx/tabasco/centro/673bd89fd264eeefd22b45101c31f2af,Mo-Su 08:00-20:00,Western Union,Q861042
a3605df558473077fd2f8b914f64d68d,western_union,SUPER SANCHEZ TAMULTE 2,,Centro,TABASCO,,MX,(+052) 993-3580900,https://location.westernunion.com/mx/tabasco/centro/a3605df558473077fd2f8b914f64d68d,Mo-Su 08:00-20:00,Western Union,Q861042
e6c59a496aaa9dcee7b41782fa4caa97,western_union,TELECOMM 27006,,Villahermosa,TABASCO,,MX,+52 800 800 9889,https://location.westernunion.com/mx/tabasco/villahermosa/e6c59a496aaa9dcee7b41782fa4caa97,Mo-Fr 09:00-15:00,Western Union,Q861042
e47dab049e5d446ea7942c56c8097f7b,western_union,TELECOMM 27006,,Villahermosa,TABASCO,,MX,+52 800 800 8930,https://location.westernunion.com/mx/tabasco/villahermosa/e47dab049e5d446ea7942c56c8097f7b,Mo-Su 09:00-20:00,Western Union,Q861042
a96db74bf234fd9ec48001d0c2e38c54,western_union,FUNDACION DONDE VILLAHERMOSA 4 ID70,,Villahermosa,TABASCO,,MX,+52 999 940 7550,https://location.westernunion.com/mx/tabasco/villahermosa/a96db74bf234fd9ec48001d0c2e38c54,Mo-Su 08:00-20:00,Western Union,Q861042
225a8153bc2dc7cedca59e1712b16a77,western_union,FUNDACION DONDE VILLAHERMOSA 4 ID70,,Villahermosa,TABASCO,,MX,+52 999 940 7550,https://location.westernunion.com/mx/tabasco/villahermosa/225a8153bc2dc7cedca59e1712b16a77,Mo-Su 08:00-20:00,Western Union,Q861042
d49944e69e59df766cbebe96be87c5e0,western_union,TIENDAS NETO TAMULTE 0708,,Centro,TABASCO,,MX,+52 993 413 0006,https://location.westernunion.com/mx/tabasco/centro/d49944e69e59df766cbebe96be87c5e0,Mo-Su 07:00-22:00,Western Union,Q861042
453fd882afb731a3677ae6a9a4a2b614,western_union,TIENDAS NETO TAMULTE 0708,,Centro,TABASCO,,MX,+52 993 413 0006,https://location.westernunion.com/mx/tabasco/centro/453fd882afb731a3677ae6a9a4a2b614,Mo-Su 07:00-22:00,Western Union,Q861042
d1cca234c2dba95e16f72e877d5fd457,western_union,TIENDAS NETO TAMULTE 0708,,Centro,TABASCO,,MX,+52 993 413 0006,https://location.westernunion.com/mx/tabasco/centro/d1cca234c2dba95e16f72e877d5fd457,Mo-Su 07:00-22:00,Western Union,Q861042
5fbd642de18cab52768ebfcaed2a2c44,western_union,BANORTE 03705 VILLAHERMOSA TAMULTE,,Villahermosa,TABASCO,,MX,+52 800 833 4700,https://location.westernunion.com/mx/tabasco/villahermosa/5fbd642de18cab52768ebfcaed2a2c44,Mo-Fr 09:00-17:00,Western Union,Q861042
064830d0cbed2fb97416b0c84a187f08,western_union,BANORTE 03705 VILLAHERMOSA TAMULTE,,Villahermosa,TABASCO,,MX,+52 800 833 4700,https://location.westernunion.com/mx/tabasco/villahermosa/064830d0cbed2fb97416b0c84a187f08,Mo-Fr 09:00-17:00,Western Union,Q861042
6944293eb803a58bdc4cd684e0ee4451,western_union,OXXO MERCADO VSA,,Villahermosa,TABASCO,,MX,+52 81 8389 2121,https://location.westernunion.com/mx/tabasco/villahermosa/6944293eb803a58bdc4cd684e0ee4451,Mo-Su 08:00-22:00,Western Union,Q861042
779140013e7ad6f176d33cf647404477,western_union,ELEKTRA 9542,,Villahermosa,TABASCO,,MX,+52 55 1720 8177,https://location.westernunion.com/mx/tabasco/villahermosa/779140013e7ad6f176d33cf647404477,Mo-Su 09:00-21:00,Western Union,Q861042
e9ee707071b270d7f9cf104c10e20a02,western_union,ELEKTRA 9542,,Villahermosa,TABASCO,,MX,+52 55 1720 8177,https://location.westernunion.com/mx/tabasco/villahermosa/e9ee707071b270d7f9cf104c10e20a02,Mo-Su 09:00-20:00,Western Union,Q861042
af8ef7a94d6d6368565db9bc741280f6,western_union,ELEKTRA 9542,,Villahermosa,TABASCO,,MX,+52 55 1720 8177,https://location.westernunion.com/mx/tabasco/villahermosa/af8ef7a94d6d6368565db9bc741280f6,Mo-Su 09:00-21:00,Western Union,Q861042
13f6f2a8d2751da53e977e10beabd440,western_union,OXXO MERCADO VSA,,Villahermosa,TABASCO,,MX,+52 81 8389 2121,https://location.westernunion.com/mx/tabasco/villahermosa/13f6f2a8d2751da53e977e10beabd440,Mo-Su 08:00-22:00,Western Union,Q861042
a8a33abae0753842169ba1a8d1c016ba,western_union,OXXO TAMULTE VSA,,Villahermosa,TABASCO,,MX,+52 81 8389 2121,https://location.westernunion.com/mx/tabasco/villahermosa/a8a33abae0753842169ba1a8d1c016ba,Mo-Su 08:00-22:00,Western Union,Q861042
83ae4e12f799933e07349103b77661e1,western_union,OXXO TAMULTE VSA,,Villahermosa,TABASCO,,MX,+52 81 8389 2121,https://location.westernunion.com/mx/tabasco/villahermosa/83ae4e12f799933e07349103b77661e1,Mo-Su 08:00-22:00,Western Union,Q861042
917fac860776510e21ce98aad308296e,western_union,OXXO TAMULTE VSA,,Villahermosa,TABASCO,,MX,+52 81 8389 2121,https://location.westernunion.com/mx/tabasco/villahermosa/917fac860776510e21ce98aad308296e,Mo-Su 08:00-22:00,Western Union,Q861042
4cf9154140b576142169f164e4eb45ef,western_union,OXXO BARRANCAS VSA,,Villahermosa,TABASCO,,MX,+52 81 8389 2121,https://location.westernunion.com/mx/tabasco/villahermosa/4cf9154140b576142169f164e4eb45ef,Mo-Su 08:00-22:00,Western Union,Q861042
bc2551e7a969784539c4794fa2a7ee24,western_union,OXXO BARRANCAS VSA,,Villahermosa,TABASCO,,MX,+52 81 8389 2121,https://location.westernunion.com/mx/tabasco/villahermosa/bc2551e7a969784539c4794fa2a7ee24,Mo-Su 08:00-22:00,Western Union,Q861042
7a07e38cc015cbb5f7bc4bb517c37e7a,western_union,OXXO BARRANCAS VSA,,Villahermosa,TABASCO,,MX,+52 81 8389 2121,https://location.westernunion.com/mx/tabasco/villahermosa/7a07e38cc015cbb5f7bc4bb517c37e7a,Mo-Su 08:00-22:00,Western Union,Q861042
11d2e00284d672db95e139293047cea9,western_union,AURRERA EXPRESS REAL DEL PARQUE 2241,,Centro,TABASCO,,MX,+52 800 833 4700,https://location.westernunion.com/mx/tabasco/centro/11d2e00284d672db95e139293047cea9,Mo-Su 08:00-22:00,Western Union,Q861042
6d37d68e164ee02e043cdbdcfaa4badb,western_union,AURRERA EXPRESS REAL DEL PARQUE 2241,,Centro,TABASCO,,MX,+52 800 833 4700,https://location.westernunion.com/mx/tabasco/centro/6d37d68e164ee02e043cdbdcfaa4badb,Mo-Su 08:00-22:00,Western Union,Q861042
e5c4f375ff80b7f4c76a364f54d01d9d,western_union,AURRERA EXPRESS REAL DEL PARQUE 2241,,Centro,TABASCO,,MX,+52 800 833 4700,https://location.westernunion.com/mx/tabasco/centro/e5c4f375ff80b7f4c76a364f54d01d9d,Mo-Su 08:00-22:00,Western Union,Q861042
42828feb2879f0c842f6d78825e7be01,western_union,OXXO BARRAGAN VSA,,Villahermosa,TABASCO,,MX,+52 81 8389 2121,https://location.westernunion.com/mx/tabasco/villahermosa/42828feb2879f0c842f6d78825e7be01,Mo-Su 08:00-22:00,Western Union,Q861042
5b366c6e9c71e3f7e63c89248ac0ecab,western_union,OXXO BARRAGAN VSA,,Villahermosa,TABASCO,,MX,+52 81 8389 2121,https://location.westernunion.com/mx/tabasco/villahermosa/5b366c6e9c71e3f7e63c89248ac0ecab,Mo-Su 08:00-22:00,Western Union,Q861042
5a921ee37f5a194a80d3990d72dfc602,western_union,BANCOPPEL 277 TAMULTE,,Villahermosa,TABASCO,,MX,+52 667 789 5710,https://location.westernunion.com/mx/tabasco/villahermosa/5a921ee37f5a194a80d3990d72dfc602,Mo-Sa 09:30-20:00; Su 09:30-18:00,Western Union,Q861042
fa84a14f5187e91f4df4833b6b4b10d3,western_union,BANCOPPEL 277 TAMULTE,,Villahermosa,TABASCO,,MX,+52 667 789 5710,https://location.westernunion.com/mx/tabasco/villahermosa/fa84a14f5187e91f4df4833b6b4b10d3,Mo-Sa 09:30-20:00; Su 09:30-18:00,Western Union,Q861042
1fc6a6d3ac448658c7137cfc3eba5a5e,western_union,BANCOPPEL 277 TAMULTE,,Villahermosa,TABASCO,,MX,+52 667 789 5710,https://location.westernunion.com/mx/tabasco/villahermosa/1fc6a6d3ac448658c7137cfc3eba5a5e,Mo-Sa 09:30-20:00; Su 09:30-18:00,Western Union,Q861042
9c8455f7bd67b604b46e230ebbbe1faf,western_union,TELECOMM 27006,,Villahermosa,TABASCO,,MX,+52 800 800 8930,https://location.westernunion.com/mx/tabasco/villahermosa/9c8455f7bd67b604b46e230ebbbe1faf,Mo-Fr 09:00-15:00,Western Union,Q861042
cf3da1118c93821d157d399e5d5acaee,western_union,FARM GUAD TAMULTE,,Villahermosa,TABASCO,,MX,+52 800 833 4700,https://location.westernunion.com/mx/tabasco/villahermosa/cf3da1118c93821d157d399e5d5acaee,Mo-Su 09:00-22:00,Western Union,Q861042
5e6d459bfb298635c2ed610f9eb7f345,western_union,FARM GUAD TAMULTE,,Villahermosa,TABASCO,,MX,+52 800 833 4700,https://location.westernunion.com/mx/tabasco/villahermosa/5e6d459bfb298635c2ed610f9eb7f345,Mo-Su 09:00-22:00,Western Union,Q861042
77ddcc1935607dec8855d997ffd91af6,western_union,FARM GUAD TAMULTE,,Villahermosa,TABASCO,,MX,+52 800 833 4700,https://location.westernunion.com/mx/tabasco/villahermosa/77ddcc1935607dec8855d997ffd91af6,Mo-Su 09:00-22:00,Western Union,Q861042
a3e7ab879115785dbb52e22c150ebf64,western_union,OXXO MERCADO VSA,,Villahermosa,TABASCO,,MX,+52 81 8389 2121,https://location.westernunion.com/mx/tabasco/villahermosa/a3e7ab879115785dbb52e22c150ebf64,Mo-Su 08:00-22:00,Western Union,Q861042
ea7f9b39239c7970ef073b19f07311e3,western_union,OXXO BARRAGAN VSA,,Villahermosa,TABASCO,,MX,+52 81 8389 2121,https://location.westernunion.com/mx/tabasco/villahermosa/ea7f9b39239c7970ef073b19f07311e3,Mo-Su 08:00-22:00,Western Union,Q861042
