Ref,Spider,Name,Address,City,State,Zipcode,Country,Phone,Website,Hours,Brand,WikiData
,visa,,,YAOUNDE,CENTRE,,CM,,,,,
,visa,,,YAOUNDE,CENTRE,,CM,,,,,
,visa,,,YAOUNDE,CENTRE,,CM,,,,,
,visa,,,YAOUNDE,CENTRE,,CM,,,,,
732951774995d5980b34c4bbf47d2aa5,western_union,HOP DON BOSCO,,Yaounde,CENTRE,,CM,+237 6 83 72 48 09,https://location.westernunion.com/cm/centre/yaounde/732951774995d5980b34c4bbf47d2aa5,Mo-Sa 08:00-18:00,Western Union,Q861042
ef099960ef00b8fdc708e1b0dfc60f4e,western_union,FK INTERNATIONAL MANGUIER,,Yaounde,CENTRE,,CM,+237 6 77 38 44 77,https://location.westernunion.com/cm/centre/yaounde/ef099960ef00b8fdc708e1b0dfc60f4e,Mo-Sa 08:00-17:00,Western Union,Q861042
3a0cbacb5ab57784a75b9a0ee7ce6035,western_union,HOP ZOETELE,,Zoetele,CENTRE,,CM,+237 6 83 76 01 62,https://location.westernunion.com/cm/centre/zoetele/3a0cbacb5ab57784a75b9a0ee7ce6035,Mo-Sa 08:00-18:00,Western Union,Q861042
1059f2a4198daf8a0346b7d157101072,western_union,HOP SANTA BARBARA,,Yaounde,CENTRE,,CM,+237 6 83 75 16 33,https://location.westernunion.com/cm/centre/yaounde/1059f2a4198daf8a0346b7d157101072,Mo-Sa 08:00-18:00,Western Union,Q861042
ec5beb6a360b3c227931e46320420fb8,western_union,HOP MBANKOLO,,Yaounde,CENTRE,,CM,+237 6 83 75 21 03,https://location.westernunion.com/cm/centre/yaounde/ec5beb6a360b3c227931e46320420fb8,Mo-Sa 08:00-18:00,Western Union,Q861042
68765666f4412b24a0774d742b002974,western_union,HOP YDE NKOZOA,,Yaounde,CENTRE,,CM,+237 6 83 73 55 28,https://location.westernunion.com/cm/centre/yaounde/68765666f4412b24a0774d742b002974,Mo-Sa 08:00-18:00,Western Union,Q861042
798454ae8e109f065def53a06d9827bc,western_union,EHI SUP DECO,,Yaounde,CENTRE,,CM,+237 6 75 83 27 70,https://location.westernunion.com/cm/centre/yaounde/798454ae8e109f065def53a06d9827bc,Mo-Sa 07:30-17:30,Western Union,Q861042
1996392f88ffbdb0c52186d896a82ff8,western_union,HOP SAA,,Saa,CENTRE,,CM,+237 6 83 72 49 17,https://location.westernunion.com/cm/centre/saa/1996392f88ffbdb0c52186d896a82ff8,Mo-Sa 08:00-18:00,Western Union,Q861042
cbd24e3dc22a66501897e4601bdf7fd6,western_union,HOP LOLODORF,,Lolodorf,CENTRE,,CM,+237 6 83 75 24 69,https://location.westernunion.com/cm/centre/lolodorf/cbd24e3dc22a66501897e4601bdf7fd6,Mo-Sa 08:00-18:00,Western Union,Q861042
cb7682d2bd9dc8f98f4bf5acfe099a63,western_union,HOP OMBESSA,,Ombessa,CENTRE,,CM,+237 6 83 75 12 88,https://location.westernunion.com/cm/centre/ombessa/cb7682d2bd9dc8f98f4bf5acfe099a63,Mo-Sa 08:00-18:00,Western Union,Q861042
7525bf1d22226f6c2abdd7147e063521,western_union,CAP FINANCE BAFIA,,Bafia,CENTRE,,CM,+237 6 74 83 06 00,https://location.westernunion.com/cm/centre/bafia/7525bf1d22226f6c2abdd7147e063521,Mo-Fr 07:00-17:00; Sa 08:30-12:30,Western Union,Q861042
a65b3a3fa0ae5ac5ac7c38b81b3ae94b,western_union,HOP BAFIA 2,,Bafia,CENTRE,,CM,+237 6 83 75 10 68,https://location.westernunion.com/cm/centre/bafia/a65b3a3fa0ae5ac5ac7c38b81b3ae94b,Mo-Sa 08:00-18:00,Western Union,Q861042
6b48e56f3f3837cfffa3eb6305b4cafe,western_union,EMI MONEY BAFIA,,Bafia,CENTRE,,CM,+237 6 83 74 80 22,https://location.westernunion.com/cm/centre/bafia/6b48e56f3f3837cfffa3eb6305b4cafe,Mo-Sa 07:30-17:30,Western Union,Q861042
d37bddb83bee072ce3e97f5a1795d042,western_union,EXPRESS EXCHANGE BAFIA,,Bafia,CENTRE,,CM,+237 6 50 58 87 88,https://location.westernunion.com/cm/centre/bafia/d37bddb83bee072ce3e97f5a1795d042,Mo-Sa 08:00-17:30,Western Union,Q861042
72eac63cb33b2ee1aa76fd0d4b8273f5,western_union,HOP MONATELE,,Monatele,CENTRE,,CM,+237 6 83 75 31 00,https://location.westernunion.com/cm/centre/monatele/72eac63cb33b2ee1aa76fd0d4b8273f5,Mo-Sa 08:00-18:00,Western Union,Q861042
c12cd7d72f99e0d549f97db663bda316,western_union,EXPRESS EXCHANGE MONATELE,,Monatele,CENTRE,,CM,+237 6 50 58 93 26,https://location.westernunion.com/cm/centre/monatele/c12cd7d72f99e0d549f97db663bda316,Mo-Sa 08:00-17:30,Western Union,Q861042
46617259e3b1e30d7ff72acf02392f30,western_union,RENAPROV BOMNYEBEL,,Boumnyebel,CENTRE,,CM,+237 6 55 00 68 10,https://location.westernunion.com/cm/centre/boumnyebel/46617259e3b1e30d7ff72acf02392f30,Mo-Fr 08:00-16:00; Sa 08:00-12:00,Western Union,Q861042
c32a8aa1ec86ddd6f393cc84c2b500f7,western_union,EXPRESS EXCHANGE BOUMNYEBEL,,Boumnyebel,CENTRE,,CM,+237 6 77 86 08 38,https://location.westernunion.com/cm/centre/boumnyebel/c32a8aa1ec86ddd6f393cc84c2b500f7,Mo-Sa 08:00-17:30,Western Union,Q861042
334458a7dd933f0b3ed3cc3155a4a1c7,western_union,EU ESEKA,,Eseka,CENTRE,,CM,+237 6 91 14 11 43,https://location.westernunion.com/cm/centre/eseka/334458a7dd933f0b3ed3cc3155a4a1c7,Mo-Sa 07:30-17:30,Western Union,Q861042
36a0ba8d52d9b7bd90893ad4cb58e105,western_union,EMI MONEY ESEKA,,Eseka,CENTRE,,CM,+237 6 83 74 80 15,https://location.westernunion.com/cm/centre/eseka/36a0ba8d52d9b7bd90893ad4cb58e105,Mo-Sa 07:30-17:30,Western Union,Q861042
0f0977bc5e0135422cde019275320091,western_union,EXPRESS EXCHANGE ESEKA,,Eseka,CENTRE,,CM,+237 6 50 58 84 32,https://location.westernunion.com/cm/centre/eseka/0f0977bc5e0135422cde019275320091,Mo-Sa 08:00-17:30,Western Union,Q861042
284ebbcb69029a00c4084b9bdee6cbbf,western_union,CEPI NTUI,,Ntu I,CENTRE,,CM,+237 6 74 77 56 22,https://location.westernunion.com/cm/centre/ntu-i/284ebbcb69029a00c4084b9bdee6cbbf,Mo-Fr 08:00-16:30; Sa 09:00-12:30,Western Union,Q861042
f62d36e9d5a9bae13c3c2e60d8d2b3eb,western_union,CAP FINANCE BOKITO,,Bokito,CENTRE,,CM,+237 6 74 38 42 85,https://location.westernunion.com/cm/centre/bokito/f62d36e9d5a9bae13c3c2e60d8d2b3eb,Mo-Fr 07:00-17:00; Sa 08:30-17:00,Western Union,Q861042
c51e53380f076540bb2fced071f81e1b,western_union,EXPRESS EXCHANGE MAKENENE,,Makenene,CENTRE,,CM,+237 6 77 57 53 99,https://location.westernunion.com/cm/centre/makenene/c51e53380f076540bb2fced071f81e1b,Mo-Sa 08:00-17:30,Western Union,Q861042
1e5da7d552d2cb20ed6da7bdeb8993a6,western_union,EXPRESS EXCHANGE NDIKINIMEKI,,Ndikinimeki,CENTRE,,CM,+237 6 77 58 03 60,https://location.westernunion.com/cm/centre/ndikinimeki/1e5da7d552d2cb20ed6da7bdeb8993a6,Mo-Sa 08:00-17:30,Western Union,Q861042
72d9e2d18636018add677f0f7fa89887,western_union,HOP NDIKIMINIKI,,Ndikiminiki,CENTRE,,CM,+237 6 83 72 40 71,https://location.westernunion.com/cm/centre/ndikiminiki/72d9e2d18636018add677f0f7fa89887,Mo-Sa 08:00-18:00,Western Union,Q861042
a46832ee3663ab60706a771d949c116f,western_union,NOFIA EKOUNOU,,Yaounde,CENTRE,,CM,+237 6 99 31 37 98,https://location.westernunion.com/cm/centre/yaounde/a46832ee3663ab60706a771d949c116f,Mo-Fr 08:00-18:00; Sa 08:45-15:30,Western Union,Q861042
6c9bdac5527a231504a15ed678e67d70,western_union,AVS TELECOM YND MARCHE CENTRAL 2,,Yaounde,CENTRE,,CM,+237 6 83 75 86 04,https://location.westernunion.com/cm/centre/yaounde/6c9bdac5527a231504a15ed678e67d70,Mo-Fr 08:00-19:30; Sa 08:00-18:00,Western Union,Q861042
880aeec1e3be668535447e6568acfa05,western_union,FINASDDEE CREDIT LINE BIYEM ASSI,,Yaounde,CENTRE,,CM,+237 2 22 31 76 73,https://location.westernunion.com/cm/centre/yaounde/880aeec1e3be668535447e6568acfa05,Mo-Fr 08:00-16:30; Sa 09:00-13:00,Western Union,Q861042
89e645916ab7d819830ecba1ef175561,western_union,EXCHANGE RATE EMOMBO DEUXIEME,,Yaounde,CENTRE,,CM,+237 6 99 13 64 05,https://location.westernunion.com/cm/centre/yaounde/89e645916ab7d819830ecba1ef175561,Mo-Sa 08:00-18:00,Western Union,Q861042
156f3128b2a460e0060ecc9332c01f86,western_union,HOP MONTEE DES SOEURS,,Yaounde,CENTRE,,CM,+237 6 83 75 22 21,https://location.westernunion.com/cm/centre/yaounde/156f3128b2a460e0060ecc9332c01f86,Mo-Sa 08:00-18:00,Western Union,Q861042
62ce53b38efd97b86b7d9bc9187f1923,western_union,EHI ODZA AUBERGE BLEU,,Yaounde,CENTRE,,CM,+237 6 52 08 91 57,https://location.westernunion.com/cm/centre/yaounde/62ce53b38efd97b86b7d9bc9187f1923,Mo-Sa 07:00-18:00,Western Union,Q861042
7a7966e391d26cde956016d2ea7bf675,western_union,BANGE BANK SANGMELIMA,,Sangmelima,CENTRE,,CM,+237 6 57 10 87 22,https://location.westernunion.com/cm/centre/sangmelima/7a7966e391d26cde956016d2ea7bf675,Mo-Fr 08:30-17:30; Sa 10:00-16:00,Western Union,Q861042
dccfa1671f187de5d7b2e854c2cc319c,western_union,KYE-OSSIE,,Kye-ossie,CENTRE,,CM,+237 6 63 10 87 22,https://location.westernunion.com/cm/centre/kye-ossie/dccfa1671f187de5d7b2e854c2cc319c,Mo-Fr 08:30-17:30; Sa 10:00-16:00,Western Union,Q861042
fcd2c301378c89a80c8b8b2a978c252b,western_union,EXPRESS EXCHANGE MBALMAYO 2,,Mbalmayo,CENTRE,,CM,+237 6 50 58 88 21,https://location.westernunion.com/cm/centre/mbalmayo/fcd2c301378c89a80c8b8b2a978c252b,Mo-Sa 08:00-17:30,Western Union,Q861042
97f23edfbdbbc277ad211a7f16f71cb3,western_union,EXPRESS EXCHANGE MBALMAYO 1,,Mbalmayo,CENTRE,,CM,+237 6 50 59 00 42,https://location.westernunion.com/cm/centre/mbalmayo/97f23edfbdbbc277ad211a7f16f71cb3,Mo-Sa 08:00-17:30,Western Union,Q861042
c92756b72d67814faca1e70adc22a820,western_union,EMI MONEY MBALMAYO 1,,Mbalmayo,CENTRE,,CM,+237 6 83 74 80 03,https://location.westernunion.com/cm/centre/mbalmayo/c92756b72d67814faca1e70adc22a820,Mo-Sa 07:30-17:30,Western Union,Q861042
2d1bb766871312368b5277e8d267fcc5,western_union,B I C E C MBALMAYO,,Mbalmayo,CENTRE,,CM,(+237) 33-422909,https://location.westernunion.com/cm/centre/mbalmayo/2d1bb766871312368b5277e8d267fcc5,Mo-Sa 07:45-17:30,Western Union,Q861042
d7ad163c83190d733e9fe255d94e6a54,western_union,ACEP MBALMAYO,,Mbalmayo,CENTRE,,CM,(+237) 33-436000,https://location.westernunion.com/cm/centre/mbalmayo/d7ad163c83190d733e9fe255d94e6a54,Mo-Sa 07:30-17:30,Western Union,Q861042
cb075464e299d2dafedf51d1cd554eab,western_union,HOP MBALMAYO 4,,Mbalmayo,CENTRE,,CM,+237 6 83 75 29 52,https://location.westernunion.com/cm/centre/mbalmayo/cb075464e299d2dafedf51d1cd554eab,Mo-Sa 08:00-18:00,Western Union,Q861042
a0be9c524da5ed6b3a3e34f34cf0315f,western_union,EXPRESS EXCHANGE DAMAS,,Yaounde,CENTRE,,CM,+237 6 50 79 02 74,https://location.westernunion.com/cm/centre/yaounde/a0be9c524da5ed6b3a3e34f34cf0315f,Mo-Sa 08:00-17:30,Western Union,Q861042
0be633124abdbeafc2bd299a24501f02,western_union,CCA DAMAS,,Yaounde,CENTRE,,CM,+237 2 22 22 13 87,https://location.westernunion.com/cm/centre/yaounde/0be633124abdbeafc2bd299a24501f02,Mo-Sa 08:00-17:00,Western Union,Q861042
fc402af876e6effb0c710be1004151a5,western_union,FITEL ROND POINT DAMAS,,Yaounde,CENTRE,,CM,+237 6 75 90 27 19,https://location.westernunion.com/cm/centre/yaounde/fc402af876e6effb0c710be1004151a5,Mo-Sa 08:00-17:00,Western Union,Q861042
dc2d6b71adfa23a4ef9c5fa9f9d85d7e,western_union,CAP FINANCE NKOLBISSON,,Yaounde,CENTRE,,CM,+237 6 72 33 81 28,https://location.westernunion.com/cm/centre/yaounde/dc2d6b71adfa23a4ef9c5fa9f9d85d7e,Mo-Fr 07:00-17:00; Sa 08:30-16:30,Western Union,Q861042
225829bb5d3679eeebdd06b4c00c619a,western_union,PIERRE BERGER ROND POINT EXPRESS,,Yaounde,CENTRE,,CM,(+237) 237-695986071,https://location.westernunion.com/cm/centre/yaounde/225829bb5d3679eeebdd06b4c00c619a,Mo-Sa 08:00-18:00; Su 08:00-15:00,Western Union,Q861042
cdaf6609b8f779306fa9c4702f1037a9,western_union,EXPRESS EXCHANGE BIYEM ASSI 3,,Yaounde,CENTRE,,CM,+237 6 50 58 83 94,https://location.westernunion.com/cm/centre/yaounde/cdaf6609b8f779306fa9c4702f1037a9,Mo-Sa 08:00-17:30,Western Union,Q861042
6b4176f957edbdef60656b4e8306db17,western_union,SESAME NSIMEYONG 2,,Yaounde,CENTRE,,CM,+237 2 43 65 83 90,https://location.westernunion.com/cm/centre/yaounde/6b4176f957edbdef60656b4e8306db17,Mo-Fr 07:00-18:30; Sa 08:30-15:30,Western Union,Q861042
091eacda0e278fa7ae8ebfbfd277171f,western_union,PAYCASH NKOLBISSONG,,Yaounde,CENTRE,,CM,+237 6 72 40 11 74,https://location.westernunion.com/cm/centre/yaounde/091eacda0e278fa7ae8ebfbfd277171f,Mo-Su 07:30-18:30,Western Union,Q861042
a1209665f9867263abccf3036ce2f4b2,western_union,UCASH NKOLBISON,,Yaounde,CENTRE,,CM,+237 6 74 90 01 68,https://location.westernunion.com/cm/centre/yaounde/a1209665f9867263abccf3036ce2f4b2,Mo-Sa 08:00-18:00,Western Union,Q861042
d4119e50676689093c7eba3bceab556a,western_union,RIC MENDONG,,Yaounde,CENTRE,,CM,(+237) 10-696155397,https://location.westernunion.com/cm/centre/yaounde/d4119e50676689093c7eba3bceab556a,Mo-Fr 08:00-16:00; Sa 08:00-15:00,Western Union,Q861042
7918a231b6d8301f93c583ed908afb8e,western_union,UCASH CAMP SIC MENDONG,,Yaounde,CENTRE,,CM,+237 6 74 90 01 68,https://location.westernunion.com/cm/centre/yaounde/7918a231b6d8301f93c583ed908afb8e,Mo-Sa 08:00-18:00,Western Union,Q861042
42c02cb87e96b457523fb49350f2c00f,western_union,NTARINKON MENDONG YAOUNDE,,Yaounde,CENTRE,,CM,(+237) 237-33362590,https://location.westernunion.com/cm/centre/yaounde/42c02cb87e96b457523fb49350f2c00f,Mo-Sa 08:00-17:00,Western Union,Q861042
4d893b1fe6c97707f4e451f75ee47a0f,western_union,SESAME CAMAIR,,Yaounde,CENTRE,,CM,+237 2 43 65 83 90,https://location.westernunion.com/cm/centre/yaounde/4d893b1fe6c97707f4e451f75ee47a0f,Mo-Fr 07:30-18:30; Sa 09:00-15:30,Western Union,Q861042
059ce956e9735a1a0b92859c01ad6350,western_union,UBA CMR ABBIA,,Yaounde,CENTRE,,CM,+237 2 33 50 67 82,https://location.westernunion.com/cm/centre/yaounde/059ce956e9735a1a0b92859c01ad6350,Mo-Fr 08:30-17:30; Sa 09:30-16:30,Western Union,Q861042
e5ce5ecb5cfc1400c1549ce17bec094c,western_union,EMI MONEY MBALMAYO 2,,Mbalmayo,CENTRE,,CM,+237 6 83 74 79 99,https://location.westernunion.com/cm/centre/mbalmayo/e5ce5ecb5cfc1400c1549ce17bec094c,Mo-Sa 07:30-17:30,Western Union,Q861042
77e469089e079c276126837336ba4f3a,western_union,EU MBALMAYO 2 NEWTOWN,,Mbalmayo,CENTRE,,CM,+237 6 91 14 11 43,https://location.westernunion.com/cm/centre/mbalmayo/77e469089e079c276126837336ba4f3a,Mo-Sa 07:30-18:00,Western Union,Q861042
71cd778492b8c1ab3056b7768c04cf9b,western_union,UCASH MENDONG,,Yaounde,CENTRE,,CM,+237 6 99 52 59 35,https://location.westernunion.com/cm/centre/yaounde/71cd778492b8c1ab3056b7768c04cf9b,Mo-Fr 08:30-18:00; Sa 08:30-17:00; Su 08:30-15:00,Western Union,Q861042
09f86012a1021311718d0e072478a38e,western_union,CEPI MENDONG,,Yaounde,CENTRE,,CM,+237 6 99 80 88 93,https://location.westernunion.com/cm/centre/yaounde/09f86012a1021311718d0e072478a38e,Mo-Fr 07:45-16:15; Sa 08:45-13:15,Western Union,Q861042
5c2e9c287fd7da58042e7ac7fb883f64,western_union,ETS LUXGIENE MENDONG,,Yaounde,CENTRE,,CM,+237 6 71 63 49 64,https://location.westernunion.com/cm/centre/yaounde/5c2e9c287fd7da58042e7ac7fb883f64,Mo-Fr 08:00-18:00; Sa 09:00-17:00,Western Union,Q861042
9cb84245857713b0fb52dfd8a56b3b5b,western_union,CECPROM DAMAS,,Yaounde,CENTRE,,CM,+237 6 99 33 94 34,https://location.westernunion.com/cm/centre/yaounde/9cb84245857713b0fb52dfd8a56b3b5b,Mo-Fr 07:00-18:00; Sa 07:30-17:30; Su 08:00-17:30,Western Union,Q861042
1ea6e010f52140a800c36663637ac66a,western_union,SESAME MENDONG 2,,Yaounde,CENTRE,,CM,+237 2 43 65 83 90,https://location.westernunion.com/cm/centre/yaounde/1ea6e010f52140a800c36663637ac66a,Mo-Fr 07:00-18:30; Sa 08:30-15:30,Western Union,Q861042
26ec058f477a626845b5dce12a7a4640,western_union,UFC MENDONG,,Yaounde,CENTRE,,CM,+237 2 22 31 15 18,https://location.westernunion.com/cm/centre/yaounde/26ec058f477a626845b5dce12a7a4640,Mo-Fr 08:00-18:00; Sa 09:00-14:00,Western Union,Q861042
05fe5d2aaad2a10dc2c49098edb2fae8,western_union,EMI MONEY MENDONG,,Yaounde,CENTRE,,CM,+237 6 83 74 78 58,https://location.westernunion.com/cm/centre/yaounde/05fe5d2aaad2a10dc2c49098edb2fae8,Mo-Sa 07:30-17:30,Western Union,Q861042
9a32d39a461e303e87099543ebfe66db,western_union,EXPRESS EXCHANGE MENDONG,,Yaounde,CENTRE,,CM,+237 6 50 58 83 63,https://location.westernunion.com/cm/centre/yaounde/9a32d39a461e303e87099543ebfe66db,Mo-Sa 07:30-17:00,Western Union,Q861042
bc286c5d6173187830119d8fbc8d7762,western_union,ETS LA GAIETE NSIMBOK,,Yaounde,CENTRE,,CM,+237 6 99 95 11 76,https://location.westernunion.com/cm/centre/yaounde/bc286c5d6173187830119d8fbc8d7762,Mo-Sa 08:00-18:30,Western Union,Q861042
64832c4b6a36b542c0697134d9a567fa,western_union,FIDELITY AHALA,,Yaounde,CENTRE,,CM,+237 6 99 21 84 04,https://location.westernunion.com/cm/centre/yaounde/64832c4b6a36b542c0697134d9a567fa,Mo-Th 08:00-18:00; Fr-Sa 18:00-08:00; Su 18:00-24:00,Western Union,Q861042
aa6e76e09522d171928a70e0f9d32579,western_union,FREE CASH MENDONG,,Yaounde,CENTRE,,CM,+237 6 90 20 25 29,https://location.westernunion.com/cm/centre/yaounde/aa6e76e09522d171928a70e0f9d32579,Mo-Fr 08:00-18:00; Sa 08:00-16:00; Su 08:00-12:00,Western Union,Q861042
74469d1072f725fc5cadbbd56b3c2fda,western_union,PAYCASH MENDONG,,Yaounde,CENTRE,,CM,+237 6 72 40 11 74,https://location.westernunion.com/cm/centre/yaounde/74469d1072f725fc5cadbbd56b3c2fda,Mo-Su 07:00-18:00,Western Union,Q861042
2a526a3417468d89310f84129ad51e47,western_union,EU YDE SIMBOCK,,Yaounde,CENTRE,,CM,+237 6 91 14 11 43,https://location.westernunion.com/cm/centre/yaounde/2a526a3417468d89310f84129ad51e47,Mo-Sa 07:30-17:30,Western Union,Q861042
4a08a42e8ca62991726e08827ba0f8b7,western_union,EU YDE MENDONG,,Yaounde,CENTRE,,CM,+237 6 91 14 11 43,https://location.westernunion.com/cm/centre/yaounde/4a08a42e8ca62991726e08827ba0f8b7,Mo-Sa 07:30-18:30,Western Union,Q861042
f93bb6e0255d1f49e8c51feb6e574804,western_union,CCA BIYEM ASSI,,Yaounde,CENTRE,,CM,+237 2 22 31 54 61,https://location.westernunion.com/cm/centre/yaounde/f93bb6e0255d1f49e8c51feb6e574804,Mo-Sa 08:00-17:00,Western Union,Q861042
506fa55ec28f121c35c8531d1039e42e,western_union,SOFINA BIYEMASSI,,Yaounde,CENTRE,,CM,(+237) 99-916855,https://location.westernunion.com/cm/centre/yaounde/506fa55ec28f121c35c8531d1039e42e,Mo-Fr 08:00-16:00; Sa 08:00-13:00,Western Union,Q861042
05ddd6ac9178da4f4d54900a98e3b804,western_union,AMETHYSTE,,Yaounde,CENTRE,,CM,+237 6 94 15 50 08,https://location.westernunion.com/cm/centre/yaounde/05ddd6ac9178da4f4d54900a98e3b804,Mo-Fr 07:50-16:10; Sa 08:15-12:15,Western Union,Q861042
28311758836d4c1cb437b1752a9e32a7,western_union,BIYEM ASSI,,Yaounde,CENTRE,,CM,(+237) 22658390,https://location.westernunion.com/cm/centre/yaounde/28311758836d4c1cb437b1752a9e32a7,Mo-Fr 07:30-18:30; Sa 09:00-15:30; Su 09:30-12:30,Western Union,Q861042
5f149654a0a701e3c503e3b3d5de403b,western_union,MCD YAOUNDE,,Yaounde,CENTRE,,CM,+237 6 74 09 95 72,https://location.westernunion.com/cm/centre/yaounde/5f149654a0a701e3c503e3b3d5de403b,Mo-Sa 07:30-16:30,Western Union,Q861042
79ab868a047e71f657acf6f2bcb3ed39,western_union,MUPECI YAOUNDE ABBIA,,Yaounde,CENTRE,,CM,+237 2 43 68 47 77,https://location.westernunion.com/cm/centre/yaounde/79ab868a047e71f657acf6f2bcb3ed39,Mo-Fr 07:30-16:30; Sa 07:30-14:00,Western Union,Q861042
d9ab4e5ff7e0573c94aceec3364778dc,western_union,MUPECI YAOUNDE BIYEM ASSI,,Yaounde,CENTRE,,CM,+237 2 22 31 23 87,https://location.westernunion.com/cm/centre/yaounde/d9ab4e5ff7e0573c94aceec3364778dc,Mo-Fr 07:30-18:30; Sa 07:30-14:30,Western Union,Q861042
5501013678ba05333248627cc69b67a3,western_union,GOODWILL BIYEMASSI,,Yaounde,CENTRE,,CM,+237 6 57 62 55 99,https://location.westernunion.com/cm/centre/yaounde/5501013678ba05333248627cc69b67a3,Mo-Sa 08:00-17:30,Western Union,Q861042
03b94eac6a2b244490620d539e27a5b7,western_union,RENAPROV BIYEMASSI,,Yaounde,CENTRE,,CM,+237 6 90 20 44 60,https://location.westernunion.com/cm/centre/yaounde/03b94eac6a2b244490620d539e27a5b7,Mo-Fr 08:00-17:00; Sa 08:00-13:30,Western Union,Q861042
1b9cb96ccea7515b5df458842e1d7296,western_union,CCA NGOA EKELE,,Yaounde,CENTRE,,CM,+237 2 22 22 13 91,https://location.westernunion.com/cm/centre/yaounde/1b9cb96ccea7515b5df458842e1d7296,Mo-Sa 08:00-17:00,Western Union,Q861042
ad9b0b7546f26a88d9c5093fcb61aec3,western_union,CAMPOST MESSAMENDONGO,,Messamendongo,CENTRE,,CM,+237 6 74 83 26 55,https://location.westernunion.com/cm/centre/messamendongo/ad9b0b7546f26a88d9c5093fcb61aec3,Mo-Fr 08:00-17:00; Sa 08:00-12:00,Western Union,Q861042
63423ecba2d3c54c3a32f930e32a3bcb,western_union,MMOCKMBIE CREDIT UNION YAOUNDE,,Yaounde,CENTRE,,CM,+237 2 22 20 28 23,https://location.westernunion.com/cm/centre/yaounde/63423ecba2d3c54c3a32f930e32a3bcb,Mo-Fr 08:00-17:00; Sa 08:00-14:00,Western Union,Q861042
9bdc0563dbe7ca7c258950e3cf3cab88,western_union,MUFFA BIYEMASSI,,Yaounde,CENTRE,,CM,+237 6 91 26 44 20,https://location.westernunion.com/cm/centre/yaounde/9bdc0563dbe7ca7c258950e3cf3cab88,Mo-Sa 08:00-18:00; Su 08:00-14:00,Western Union,Q861042
98570f38b743d8b8ac2cb7fa6b323a02,western_union,CREDIT POPULAIRE NKOABANG,,Yaounde,CENTRE,,CM,+237 2 33 40 69 12,https://location.westernunion.com/cm/centre/yaounde/98570f38b743d8b8ac2cb7fa6b323a02,Mo-Fr 07:45-17:15; Sa 08:45-14:15,Western Union,Q861042
629ebe07a388214bcf65fc01add5f39c,western_union,UCASH OYOMABANG,,Yaounde,CENTRE,,CM,+237 6 74 90 01 68,https://location.westernunion.com/cm/centre/yaounde/629ebe07a388214bcf65fc01add5f39c,Mo-Sa 08:00-18:00,Western Union,Q861042
36b6a5b04140c24ad9006d07732ee49b,western_union,EXPRESS EXCHANGE BIYEM ASSI 2,,Yaounde,CENTRE,,CM,+237 6 50 58 94 72,https://location.westernunion.com/cm/centre/yaounde/36b6a5b04140c24ad9006d07732ee49b,Mo-Sa 07:30-17:00,Western Union,Q861042
d69a9e09b78e9cda8dc2b016413f529f,western_union,FIRST TRUST BIYEMASSI,,Yaounde,CENTRE,,CM,(+237) 22315963,https://location.westernunion.com/cm/centre/yaounde/d69a9e09b78e9cda8dc2b016413f529f,Mo-Su 08:00-19:00,Western Union,Q861042
92b1ee85cd8b73dede9b9202faa56b35,western_union,BAYELLE CREDIT UNION ROND POINT EXPRESS,,Yaounde,CENTRE,,CM,(+237) 22689769,https://location.westernunion.com/cm/centre/yaounde/92b1ee85cd8b73dede9b9202faa56b35,Mo-Su 08:00-19:00,Western Union,Q861042
7313a6c7328c4e2db71039076c84b457,western_union,ACTOS BIYEMASSI,,Yaounde,CENTRE,,CM,+237 6 50 10 23 89,https://location.westernunion.com/cm/centre/yaounde/7313a6c7328c4e2db71039076c84b457,Mo-Fr 07:30-18:00; Sa 07:00-18:00; Su 07:30-18:30,Western Union,Q861042
8b3f7cebb75c21dbecccd14fda637edb,western_union,ETS CHARLY TAMTAM,,Yaounde,CENTRE,,CM,+237 6 91 89 80 17,https://location.westernunion.com/cm/centre/yaounde/8b3f7cebb75c21dbecccd14fda637edb,Mo-Sa 08:00-17:00,Western Union,Q861042
a611ffa8fbb011644e121155b8bdab81,western_union,ADVANS BIYEM ASSI,,Yaounde,CENTRE,,CM,+237 6 98 71 26 06,https://location.westernunion.com/cm/centre/yaounde/a611ffa8fbb011644e121155b8bdab81,Mo-Fr 08:00-18:00; Sa 08:00-17:30,Western Union,Q861042
3a8e74d60c33d946546385fb08658bde,western_union,HOP NKOLNDA,,Yaounde,CENTRE,,CM,+237 6 83 75 21 10,https://location.westernunion.com/cm/centre/yaounde/3a8e74d60c33d946546385fb08658bde,Mo-Sa 08:00-18:00,Western Union,Q861042
0d7633fba9fa5716430b2cf4f5ad1e68,western_union,EMI MONEY ROND POINT EXPRESS,,Yaounde,CENTRE,,CM,+237 6 83 74 82 19,https://location.westernunion.com/cm/centre/yaounde/0d7633fba9fa5716430b2cf4f5ad1e68,Mo-Sa 07:30-17:30,Western Union,Q861042
b8cb5468b8577097a528ad5482061024,western_union,UCASH ONANA,,Yaounde,CENTRE,,CM,+237 6 99 52 59 35,https://location.westernunion.com/cm/centre/yaounde/b8cb5468b8577097a528ad5482061024,Mo-Sa 08:00-18:00; Su 08:00-14:00,Western Union,Q861042
d6901bbf42087214998e7f9ccd246b34,western_union,FREE CASH JOUVENCE,,Yaounde,CENTRE,,CM,+237 6 99 59 32 05,https://location.westernunion.com/cm/centre/yaounde/d6901bbf42087214998e7f9ccd246b34,Mo-Fr 08:00-18:00; Sa 08:00-16:00; Su 08:00-12:00,Western Union,Q861042
f308e391517446014c77ae0d0c7c26f4,western_union,BN&M BIYEM ASSI,,Yaounde,CENTRE,,CM,+237 6 94 97 00 31,https://location.westernunion.com/cm/centre/yaounde/f308e391517446014c77ae0d0c7c26f4,Mo-Sa 08:00-17:00,Western Union,Q861042
45061dafa544af7868c007e7317b92e9,western_union,UBA CMR BIYEM ASSI,,Yaounde,CENTRE,,CM,+237 2 33 50 67 82,https://location.westernunion.com/cm/centre/yaounde/45061dafa544af7868c007e7317b92e9,Mo-Fr 08:30-17:30; Sa 10:00-16:30,Western Union,Q861042
13c276af4df09e52884121746f55d3aa,western_union,EXPRESS EXCHANGE NKOLDA,,Yaounde,CENTRE,,CM,+237 6 51 56 77 24,https://location.westernunion.com/cm/centre/yaounde/13c276af4df09e52884121746f55d3aa,Mo-Sa 08:00-17:00,Western Union,Q861042
4cf19d5b85ed553106082f4e2c16f299,western_union,EMI MONEY NSAM,,Yaounde,CENTRE,,CM,+237 6 83 74 82 03,https://location.westernunion.com/cm/centre/yaounde/4cf19d5b85ed553106082f4e2c16f299,Mo-Sa 07:30-17:30,Western Union,Q861042
fe16f6622b8190ea572484b41275888d,western_union,ETS FEWADE NSAM,,Yaounde,CENTRE,,CM,+237 6 54 31 19 21,https://location.westernunion.com/cm/centre/yaounde/fe16f6622b8190ea572484b41275888d,Mo-Sa 07:30-19:00,Western Union,Q861042
612a59e28539426f45e461a280af5be2,western_union,CAP FINANCE ODZA 2,,Yaounde,CENTRE,,CM,+237 6 96 32 33 99,https://location.westernunion.com/cm/centre/yaounde/612a59e28539426f45e461a280af5be2,Mo-Sa 07:45-17:15,Western Union,Q861042
6ee278cf2a75bb87f94e5028f21b0d9d,western_union,EXPRESS EXCHANGE ODZA,,Yaounde,CENTRE,,CM,+237 6 78 07 37 22,https://location.westernunion.com/cm/centre/yaounde/6ee278cf2a75bb87f94e5028f21b0d9d,Mo-Sa 08:00-17:30,Western Union,Q861042
23c3b6ebeed0feaa93ecc0f24d61bf62,western_union,UNA FAMILIA BIYEM ASSI,,Yaounde,CENTRE,,CM,+237 6 71 14 53 70,https://location.westernunion.com/cm/centre/yaounde/23c3b6ebeed0feaa93ecc0f24d61bf62,Mo-Fr 07:45-17:00; Sa 10:00-14:30,Western Union,Q861042
d4f015af300808422caee5d372ed7f22,western_union,OYOMABANG,,Yaounde,CENTRE,,CM,(+237) 22658390,https://location.westernunion.com/cm/centre/yaounde/d4f015af300808422caee5d372ed7f22,Mo-Fr 07:30-18:30; Sa 09:00-15:30,Western Union,Q861042
44696eed0160dda4cf6e097414596f46,western_union,BUEA P & T BIYEMASSI YAOUNDE,,Yaounde,CENTRE,,CM,+237 2 22 20 28 23,https://location.westernunion.com/cm/centre/yaounde/44696eed0160dda4cf6e097414596f46,Mo-Sa 08:00-17:00,Western Union,Q861042
5601cad4cb63ccc268babf8b5b06d1b4,western_union,GAITE NSIMEYONG,,Yaounde,CENTRE,,CM,+237 6 99 95 11 76,https://location.westernunion.com/cm/centre/yaounde/5601cad4cb63ccc268babf8b5b06d1b4,Mo-Sa 08:00-19:00,Western Union,Q861042
8872407849a98ba39bae76a108fd5003,western_union,RENAPROV MENDONG,,Yaounde,CENTRE,,CM,+237 6 90 23 07 67,https://location.westernunion.com/cm/centre/yaounde/8872407849a98ba39bae76a108fd5003,Mo-Fr 08:00-16:30; Sa 08:00-12:30,Western Union,Q861042
cec93d73434f49b14c6ea521be45d154,western_union,UCASH CHAPELLE NSIMEYONG,,Yaounde,CENTRE,,CM,+237 6 99 52 59 35,https://location.westernunion.com/cm/centre/yaounde/cec93d73434f49b14c6ea521be45d154,Mo-Fr 08:00-17:00; Sa 08:00-13:00,Western Union,Q861042
c09cccf833d4314d85dad373cbe0cffa,western_union,CCC BIYEM ASSI,,Yaounde,CENTRE,,CM,+237 6 77 02 20 94,https://location.westernunion.com/cm/centre/yaounde/c09cccf833d4314d85dad373cbe0cffa,Mo-Su 07:00-18:00,Western Union,Q861042
281cb58b08774bca7fcc946989a57f70,western_union,UNICS YAOUNDE BIYEMASSI,,Yaounde,CENTRE,,CM,(+237) 22041663,https://location.westernunion.com/cm/centre/yaounde/281cb58b08774bca7fcc946989a57f70,Mo-Su 08:00-19:00,Western Union,Q861042
145df747b1cbc979e035ea5f2070d70e,western_union,BIYEM ASSI 4,,Yaounde,CENTRE,,CM,+237 6 50 58 96 71,https://location.westernunion.com/cm/centre/yaounde/145df747b1cbc979e035ea5f2070d70e,Mo-Sa 08:00-20:00; Su 08:00-15:00,Western Union,Q861042
1953354e5680fe02f1ade5f6c3191d0f,western_union,SESAME MVAN,,Yaounde,CENTRE,,CM,+237 2 43 65 83 90,https://location.westernunion.com/cm/centre/yaounde/1953354e5680fe02f1ade5f6c3191d0f,Mo-Fr 07:30-18:30; Sa 09:00-15:30; Su 09:30-12:30,Western Union,Q861042
add6d5a1b272edcd328f37db33ae8f66,western_union,EU YDE CITE VERTE II,,Yaounde,CENTRE,,CM,+237 6 91 14 11 43,https://location.westernunion.com/cm/centre/yaounde/add6d5a1b272edcd328f37db33ae8f66,Mo-Sa 07:30-18:30,Western Union,Q861042
b4f46aca3e8c8e21abdf73dc868465a2,western_union,EMI MONEY MELEN,,Yaounde,CENTRE,,CM,+237 6 83 74 80 31,https://location.westernunion.com/cm/centre/yaounde/b4f46aca3e8c8e21abdf73dc868465a2,Mo-Sa 07:30-17:30,Western Union,Q861042
c601c97a0780171c63c8ed5f8686d5e9,western_union,EHI GP MELEN,,Yaounde,CENTRE,,CM,+237 6 55 43 51 76,https://location.westernunion.com/cm/centre/yaounde/c601c97a0780171c63c8ed5f8686d5e9,Mo-Sa 08:00-18:00,Western Union,Q861042
0f46fab7a02015d5592b592e72e45368,western_union,LE PELERIN MELEN,,Yaounde,CENTRE,,CM,+237 2 22 31 71 37,https://location.westernunion.com/cm/centre/yaounde/0f46fab7a02015d5592b592e72e45368,Mo-Fr 08:00-17:00; Sa 08:00-15:00,Western Union,Q861042
ae937913f4a40527456bec5287729987,western_union,EU YDE ODZA AUBERGE BLEU,,Yaounde,CENTRE,,CM,+237 6 91 14 11 43,https://location.westernunion.com/cm/centre/yaounde/ae937913f4a40527456bec5287729987,Mo-Sa 07:30-18:30,Western Union,Q861042
834f3628d7043761007c93c99a850dd0,western_union,CCA MESSA,,Yaounde,CENTRE,,CM,+237 2 22 22 61 93,https://location.westernunion.com/cm/centre/yaounde/834f3628d7043761007c93c99a850dd0,Mo-Sa 08:00-17:00,Western Union,Q861042
8f212e795e811dd75797f9002f977f10,western_union,GLOBAL WEALTH VISIONARY CREDIT,,Yaounde,CENTRE,,CM,(+237) 3-222202823,https://location.westernunion.com/cm/centre/yaounde/8f212e795e811dd75797f9002f977f10,Mo-Fr 08:00-16:00; Sa 08:00-12:00,Western Union,Q861042
c41a736480030238e81c6341fbba477a,western_union,AZICCUL OBILI,,Yaounde,CENTRE,,CM,+237 2 22 20 28 23,https://location.westernunion.com/cm/centre/yaounde/c41a736480030238e81c6341fbba477a,Mo-Fr 08:00-16:00; Sa 08:00-13:00,Western Union,Q861042
e24aa177a448ba79cd56213bbf176cc9,western_union,NOFIA MESSA,,Yaounde,CENTRE,,CM,+237 6 99 31 37 92,https://location.westernunion.com/cm/centre/yaounde/e24aa177a448ba79cd56213bbf176cc9,Mo-Fr 08:00-18:00; Sa 08:45-15:30,Western Union,Q861042
5caca54de0c720e144d1eeb98f7df643,western_union,CREDIT POPULAIRE NLONGKAK,,Yaounde,CENTRE,,CM,+237 6 75 98 03 84,https://location.westernunion.com/cm/centre/yaounde/5caca54de0c720e144d1eeb98f7df643,Mo-Fr 07:45-17:15; Sa 08:45-14:15,Western Union,Q861042
e9b773c06fab5557d208fed320c7907a,western_union,BAYELLE CREDIT UNION TONGOLO YAOUNDE,,Yaounde,CENTRE,,CM,(+237) 22193986,https://location.westernunion.com/cm/centre/yaounde/e9b773c06fab5557d208fed320c7907a,Mo-Su 08:00-19:00,Western Union,Q861042
be681056e0781a1beba5d58558107101,western_union,CCA ABBIA,,Yaounde,CENTRE,,CM,+237 2 22 23 39 02,https://location.westernunion.com/cm/centre/yaounde/be681056e0781a1beba5d58558107101,Mo-Sa 08:00-17:00,Western Union,Q861042
378ce69c6ef6a4fe122d3b6feb625949,western_union,CCA MESSASSI,,Yaounde,CENTRE,,CM,+237 2 22 21 88 74,https://location.westernunion.com/cm/centre/yaounde/378ce69c6ef6a4fe122d3b6feb625949,Mo-Sa 08:00-17:00,Western Union,Q861042
a0a94c8773ce505a5b5f890f3e377a2a,western_union,HOP YDE OYOMABANG,,Yaounde,CENTRE,,CM,+237 6 83 74 99 93,https://location.westernunion.com/cm/centre/yaounde/a0a94c8773ce505a5b5f890f3e377a2a,Mo-Sa 08:00-18:00,Western Union,Q861042
c31e67710c42d1309f741c0e2e2f7fa0,western_union,EU YDE BIYEM ASSI LYCEE,,Yaounde,CENTRE,,CM,+237 6 91 14 11 43,https://location.westernunion.com/cm/centre/yaounde/c31e67710c42d1309f741c0e2e2f7fa0,Mo-Sa 07:30-18:30,Western Union,Q861042
d0bac663340f0c151074b36a054e2016,western_union,UCASH OYOMABANG CAMP SONEL,,Yaounde,CENTRE,,CM,+237 6 99 52 59 35,https://location.westernunion.com/cm/centre/yaounde/d0bac663340f0c151074b36a054e2016,Mo-Sa 08:00-18:00; Su 08:00-14:00,Western Union,Q861042
76262ad8b9878a54549d7600f42a0629,western_union,PAYCASH ACACIA,,Yaounde,CENTRE,,CM,+237 6 72 40 11 74,https://location.westernunion.com/cm/centre/yaounde/76262ad8b9878a54549d7600f42a0629,Mo-Su 07:00-18:00,Western Union,Q861042
187a70ea51ec7f418a32862f47ddbe38,western_union,HORIZON TSINGA,,Yaounde,CENTRE,,CM,+237 6 77 51 05 21,https://location.westernunion.com/cm/centre/yaounde/187a70ea51ec7f418a32862f47ddbe38,Mo-Su 07:00-18:00,Western Union,Q861042
af3bbcf875f61f07340fdd05cf1bb9eb,western_union,EMI MONEY ACACIAS,,Yaounde,CENTRE,,CM,+237 6 83 74 79 53,https://location.westernunion.com/cm/centre/yaounde/af3bbcf875f61f07340fdd05cf1bb9eb,Mo-Sa 07:30-17:30,Western Union,Q861042
c335ce8b8f61350447812d12eaa6cb4f,western_union,CAP FINANCE BIYEMASSI,,Yaounde,CENTRE,,CM,+237 6 91 10 39 43,https://location.westernunion.com/cm/centre/yaounde/c335ce8b8f61350447812d12eaa6cb4f,Mo-Sa 07:45-17:00,Western Union,Q861042
fcbdb2c64f3c45b74ba357b8350713da,western_union,UCASH ACACIAS,,Yaounde,CENTRE,,CM,+237 6 74 90 01 68,https://location.westernunion.com/cm/centre/yaounde/fcbdb2c64f3c45b74ba357b8350713da,Mo-Sa 08:00-18:00,Western Union,Q861042
f7152234b106f219d265f1f5a131d0aa,western_union,SCB YDE BIYEM ASSI,,Yaounde,CENTRE,,CM,+237 2 22 31 08 13,https://location.westernunion.com/cm/centre/yaounde/f7152234b106f219d265f1f5a131d0aa,Mo 13:30-17:00; Tu-Fr 08:30-17:00; Sa 08:30-12:00,Western Union,Q861042
9f159d87308904006652d42913d9b457,western_union,SCB YDE BIYEM ASSI,,Yaounde,CENTRE,,CM,+237 2 22 31 08 13,https://location.westernunion.com/cm/centre/yaounde/9f159d87308904006652d42913d9b457,Mo 13:30-17:00; Tu-Fr 08:30-17:00; Sa 08:30-12:00,Western Union,Q861042
2f4d996aa5976ca79e1b61fee3940d92,western_union,SCB YDE BIYEM ASSI,,Yaounde,CENTRE,,CM,+237 2 22 31 08 13,https://location.westernunion.com/cm/centre/yaounde/2f4d996aa5976ca79e1b61fee3940d92,Mo 13:30-17:00; Tu-Fr 08:30-17:00; Sa 08:30-12:00,Western Union,Q861042
4b08e55f46a4a8941b7477f01348415f,western_union,EU YDE ACCACIA,,Yaounde,CENTRE,,CM,+237 6 91 14 11 43,https://location.westernunion.com/cm/centre/yaounde/4b08e55f46a4a8941b7477f01348415f,Mo-Sa 07:30-18:30,Western Union,Q861042
582c351aa0132a7d023b9a3a96cc7263,western_union,BICEC BIYEM ASSI,,Yaounde,CENTRE,,CM,(+237) 33-436000,https://location.westernunion.com/cm/centre/yaounde/582c351aa0132a7d023b9a3a96cc7263,Mo-Sa 07:45-17:30,Western Union,Q861042
f23db64c370893cc889595a3e3a538d5,western_union,ACEP BIYEM ASSI,,Yaounde,CENTRE,,CM,(+237) 33-422909,https://location.westernunion.com/cm/centre/yaounde/f23db64c370893cc889595a3e3a538d5,Mo-Sa 08:00-18:00,Western Union,Q861042
7cfcf418f4f4178764a17c934bd2b6ca,western_union,EU YDE MELEN,,Yaounde,CENTRE,,CM,+237 6 91 14 11 43,https://location.westernunion.com/cm/centre/yaounde/7cfcf418f4f4178764a17c934bd2b6ca,Mo-Sa 07:30-18:30,Western Union,Q861042
1a99566ba79b43d5aa825ce62c4aff3d,western_union,NFC ODZA,,Yaounde,CENTRE,,CM,(+237) 2222202823,https://location.westernunion.com/cm/centre/yaounde/1a99566ba79b43d5aa825ce62c4aff3d,Mo-Fr 07:45-17:00; Sa 10:00-14:30,Western Union,Q861042
8aa02350886a91919d0dd5fe399df955,western_union,EU YDE TROPICANA,,Yaounde,CENTRE,,CM,+237 6 91 14 11 43,https://location.westernunion.com/cm/centre/yaounde/8aa02350886a91919d0dd5fe399df955,Mo-Sa 07:30-18:30,Western Union,Q861042
719162ab178d7d8fe65222aa0a7d7b76,western_union,EMSI NVAN,,Yaounde,CENTRE,,CM,+237 6 96 61 34 30,https://location.westernunion.com/cm/centre/yaounde/719162ab178d7d8fe65222aa0a7d7b76,Mo-Sa 08:00-17:30,Western Union,Q861042
54f8ab6f32bd7cc80b15f772afc55df7,western_union,IMT ODZA,,Yaounde,CENTRE,,CM,+237 6 73 16 30 59,https://location.westernunion.com/cm/centre/yaounde/54f8ab6f32bd7cc80b15f772afc55df7,Mo-Sa 08:00-17:30,Western Union,Q861042
df32fc99cc71b56cc9988e21a9b7ceff,western_union,SOCEC MELEN,,Yaounde,CENTRE,,CM,+237 2 22 20 28 23,https://location.westernunion.com/cm/centre/yaounde/df32fc99cc71b56cc9988e21a9b7ceff,Mo-Fr 08:00-16:00; Sa 08:00-12:00,Western Union,Q861042
9f4bd2034bc1f490d8fdce1ceadc065b,western_union,ETS LA GAITE ODZA,,Yaounde,CENTRE,,CM,+237 6 70 48 48 56,https://location.westernunion.com/cm/centre/yaounde/9f4bd2034bc1f490d8fdce1ceadc065b,Mo-Sa 08:00-18:00,Western Union,Q861042
5cb069922b39cf7060fbd0e8efe1ee7c,western_union,FEWADE MELEN,,Yaounde,CENTRE,,CM,+237 6 54 31 19 21,https://location.westernunion.com/cm/centre/yaounde/5cb069922b39cf7060fbd0e8efe1ee7c,Mo-Sa 07:30-18:30,Western Union,Q861042
df8cc6161c0c68cd92a2efe21d9ec6d0,western_union,U CASH MVAN,,Yaounde,CENTRE,,CM,+237 2 43 59 59 52,https://location.westernunion.com/cm/centre/yaounde/df8cc6161c0c68cd92a2efe21d9ec6d0,Mo-Sa 08:00-19:00; Su 10:00-19:00,Western Union,Q861042
e31a0dab94e30dd770bd3d61e4d0fa96,western_union,EMI MONEY MVAN,,Yaounde,CENTRE,,CM,+237 6 83 74 81 89,https://location.westernunion.com/cm/centre/yaounde/e31a0dab94e30dd770bd3d61e4d0fa96,Mo-Sa 07:30-17:30,Western Union,Q861042
04f0e93c2114dba9ae2129be6540c894,western_union,U CASH MELEN,,Yaounde,CENTRE,,CM,+237 2 43 59 59 52,https://location.westernunion.com/cm/centre/yaounde/04f0e93c2114dba9ae2129be6540c894,Mo-Su 08:00-19:00,Western Union,Q861042
790d9ba0fd7b7da7168b8fbf0b3fbe4a,western_union,EXPRESS EXCHANGE MVAN,,Yaounde,CENTRE,,CM,+237 6 50 58 88 85,https://location.westernunion.com/cm/centre/yaounde/790d9ba0fd7b7da7168b8fbf0b3fbe4a,Mo-Sa 08:00-17:30,Western Union,Q861042
ae3e00367d2025be7e276416d6f18dbb,western_union,ONYX,,Yaounde,CENTRE,,CM,+237 6 99 69 15 50,https://location.westernunion.com/cm/centre/yaounde/ae3e00367d2025be7e276416d6f18dbb,Mo-Fr 07:50-16:10; Sa 08:15-12:15,Western Union,Q861042
42f101988618a45d563e0542637623f8,western_union,IMMERS T BELLA,,Yaounde,CENTRE,,CM,+237 6 79 70 60 80,https://location.westernunion.com/cm/centre/yaounde/42f101988618a45d563e0542637623f8,Mo-Fr 07:15-18:45; Sa 08:45-15:45,Western Union,Q861042
05a2c2005e73362936bc5915dfbc0c11,western_union,EU YDE MOKOLO,,Yaounde,CENTRE,,CM,+237 6 91 14 11 43,https://location.westernunion.com/cm/centre/yaounde/05a2c2005e73362936bc5915dfbc0c11,Mo-Sa 07:30-18:30,Western Union,Q861042
ca2a4e7099d45cfe1ce5a44ac2ba8589,western_union,RENAPROV MARCHE MOKOLO,,Yaounde,CENTRE,,CM,+237 6 90 71 00 81,https://location.westernunion.com/cm/centre/yaounde/ca2a4e7099d45cfe1ce5a44ac2ba8589,Mo-Fr 07:30-17:30; Sa 07:30-17:00,Western Union,Q861042
8c3b9d66f0da85442f9d95ee153b96e1,western_union,ADVANS MADAGASCAR,,Yaounde,CENTRE,,CM,+237 6 97 85 24 07,https://location.westernunion.com/cm/centre/yaounde/8c3b9d66f0da85442f9d95ee153b96e1,Mo-Fr 08:00-18:00; Sa 10:00-16:00,Western Union,Q861042
53b6ef8cf77e2fd0a63305ed05b693df,western_union,RENAPROV MOKOLO,,Yaounde,CENTRE,,CM,+237 6 90 20 81 99,https://location.westernunion.com/cm/centre/yaounde/53b6ef8cf77e2fd0a63305ed05b693df,Mo-Fr 08:00-17:00; Sa 08:00-13:30,Western Union,Q861042
019adfc55e7b7d8cb04d382a30529106,western_union,NFC YAOUNDE 2,,Yaounde,CENTRE,,CM,(+237) 10-677269280,https://location.westernunion.com/cm/centre/yaounde/019adfc55e7b7d8cb04d382a30529106,Mo-Fr 07:45-18:00; Sa 07:45-14:00,Western Union,Q861042
336f5f921db3b7b65867a1955a9c7c27,western_union,EXPRESS EXCHANGE FLAMENCO,,Yaounde,CENTRE,,CM,+237 6 50 79 20 91,https://location.westernunion.com/cm/centre/yaounde/336f5f921db3b7b65867a1955a9c7c27,Mo-Sa 08:00-17:30,Western Union,Q861042
2e883a94b621de3286e24801f910eb6c,western_union,EU YDE NGOA EKELLE II,,Yaounde,CENTRE,,CM,+237 6 91 14 11 43,https://location.westernunion.com/cm/centre/yaounde/2e883a94b621de3286e24801f910eb6c,Mo-Sa 07:30-18:30,Western Union,Q861042
ec4ee4b578cdcd9a5b28763486d81a6a,western_union,LA MEC MELEN,,Yaounde,CENTRE,,CM,+237 6 90 32 86 63,https://location.westernunion.com/cm/centre/yaounde/ec4ee4b578cdcd9a5b28763486d81a6a,Mo-Sa 07:30-17:30,Western Union,Q861042
6ce65ed07301e5c4b932e84f4aa34894,western_union,AVS TELECOM YAOUNDE NGOA EKELE,,Yaounde,CENTRE,,CM,+237 6 83 75 24 29,https://location.westernunion.com/cm/centre/yaounde/6ce65ed07301e5c4b932e84f4aa34894,Mo-Sa 08:00-17:30,Western Union,Q861042
bc91e1e164485028255ed467929f2953,western_union,ADEC COOP CA MOKOLO,,Yaounde,CENTRE,,CM,+237 6 70 78 21 56,https://location.westernunion.com/cm/centre/yaounde/bc91e1e164485028255ed467929f2953,Mo-Fr 08:00-17:00; Sa 09:00-14:00,Western Union,Q861042
10eb8a39e72fc612df6701cea45f5b93,western_union,EXPRESS EXCHANGE NGOA EKELE 1,,Yaounde,CENTRE,,CM,+237 6 75 29 25 58,https://location.westernunion.com/cm/centre/yaounde/10eb8a39e72fc612df6701cea45f5b93,Mo-Sa 08:00-17:30,Western Union,Q861042
03581396952204aba72b6ee1f90e6cef,western_union,EMI MONEY NGOA-EKELE,,Yaounde,CENTRE,,CM,+237 6 83 74 66 22,https://location.westernunion.com/cm/centre/yaounde/03581396952204aba72b6ee1f90e6cef,Mo-Sa 07:30-17:30,Western Union,Q861042
df0b55b02aa0e9e0276f517251dacb26,western_union,EXPRESS EXCHANGE NGOA EKELE 2,,Yaounde,CENTRE,,CM,+237 6 50 58 88 24,https://location.westernunion.com/cm/centre/yaounde/df0b55b02aa0e9e0276f517251dacb26,Mo-Sa 07:30-17:00,Western Union,Q861042
a4b3c7f5a53d2b647756911e927b480f,western_union,EXPRESS EXCHANGE MELEN,,Yaounde,CENTRE,,CM,+237 6 78 07 41 10,https://location.westernunion.com/cm/centre/yaounde/a4b3c7f5a53d2b647756911e927b480f,Mo-Sa 07:30-17:00,Western Union,Q861042
07fe75d5306979c3de3a76942966d909,western_union,ZOLL TAX FOREX BIYEM-ASSI,,Yaounde,CENTRE,,CM,+237 6 51 66 82 08,https://location.westernunion.com/cm/centre/yaounde/07fe75d5306979c3de3a76942966d909,Mo-Su 07:30-18:00,Western Union,Q861042
5642f8bfbff4b4aee045dae7461c9beb,western_union,SESAME T BELLA,,Yaounde,CENTRE,,CM,+237 2 43 65 83 90,https://location.westernunion.com/cm/centre/yaounde/5642f8bfbff4b4aee045dae7461c9beb,Mo-Fr 07:30-18:30; Sa 09:00-15:30,Western Union,Q861042
b4849445aeaeb98e845b680cb8f41e1f,western_union,EMI MONEY ECOLE DES POSTE,,Yaounde,CENTRE,,CM,+237 6 83 74 79 22,https://location.westernunion.com/cm/centre/yaounde/b4849445aeaeb98e845b680cb8f41e1f,Mo-Sa 07:30-17:30,Western Union,Q861042
6b3d753c5445b14822be08888801ed68,western_union,EU YDE CRADAT EUF,,Yaounde,CENTRE,,CM,+237 6 91 14 11 43,https://location.westernunion.com/cm/centre/yaounde/6b3d753c5445b14822be08888801ed68,Mo-Sa 07:30-18:30,Western Union,Q861042
e52469060e155c96e68f1bdf3e61b0e4,western_union,CAMPOST YAOUNDE ENSPT,,Yaounde,CENTRE,,CM,(+237) 2-225322,https://location.westernunion.com/cm/centre/yaounde/e52469060e155c96e68f1bdf3e61b0e4,Mo-Fr 08:00-17:00; Sa 08:00-12:00,Western Union,Q861042
11bc90831ba2d58cf02add8d23b117dc,western_union,CCA MIMBOMAN,,Yaounde,CENTRE,,CM,+237 2 22 23 03 94,https://location.westernunion.com/cm/centre/yaounde/11bc90831ba2d58cf02add8d23b117dc,Mo-Sa 08:00-17:00,Western Union,Q861042
f1757e8fa884522820196015a58b8a3b,western_union,CAP FINANCE ECHANGEUR,,Yaounde,CENTRE,,CM,+237 2 22 22 36 07,https://location.westernunion.com/cm/centre/yaounde/f1757e8fa884522820196015a58b8a3b,Mo-Sa 07:30-17:30,Western Union,Q861042
3dba25d5603e14774012279f0ddde9ab,western_union,MVOG MBI,,Yaounde,CENTRE,,CM,(+237) 22658390,https://location.westernunion.com/cm/centre/yaounde/3dba25d5603e14774012279f0ddde9ab,Mo-Fr 07:30-18:30; Sa 09:00-17:30; Su 09:30-12:30,Western Union,Q861042
54024bd048a0ac36bbd00e0611179e04,western_union,AGYATI COOPERATIVE CREDIT  UNION LIMITED,,Yaounde,CENTRE,,CM,+237 2 22 20 28 23,https://location.westernunion.com/cm/centre/yaounde/54024bd048a0ac36bbd00e0611179e04,Mo-Sa 08:00-16:00,Western Union,Q861042
731b872725a54c368d2a8bc030365497,western_union,ETS CHARLY ROND POINT EXPRESS,,Yaounde,CENTRE,,CM,+237 6 95 45 52 24,https://location.westernunion.com/cm/centre/yaounde/731b872725a54c368d2a8bc030365497,Mo-Sa 07:30-18:30,Western Union,Q861042
cadf884c189d408fb30da523caf6e4b5,western_union,CREA INVEST OBILI,,Yaounde,CENTRE,,CM,+237 6 79 18 59 07,https://location.westernunion.com/cm/centre/yaounde/cadf884c189d408fb30da523caf6e4b5,Mo-Fr 08:00-17:00; Sa 09:00-13:00,Western Union,Q861042
d3514102da4242f80431135c7fce0179,western_union,HOP EFOULAN,,Yaounde,CENTRE,,CM,+237 6 83 73 55 99,https://location.westernunion.com/cm/centre/yaounde/d3514102da4242f80431135c7fce0179,Mo-Sa 08:00-18:00,Western Union,Q861042
af5be862112f7f92274d3772e3485934,western_union,EXPRESS EXCHANGE NSAM,,Yaounde,CENTRE,,CM,+237 6 50 58 83 77,https://location.westernunion.com/cm/centre/yaounde/af5be862112f7f92274d3772e3485934,Mo-Sa 08:00-17:30,Western Union,Q861042
adfa9ff67a02e494139b491518eb6f62,western_union,PAN AFRICAN MVOG MBI,,Yaounde,CENTRE,,CM,+237 6 79 50 88 78,https://location.westernunion.com/cm/centre/yaounde/adfa9ff67a02e494139b491518eb6f62,Mo-Su 08:00-19:00,Western Union,Q861042
9eb6448e42c0fb7bc84d2f5d07837c66,western_union,HOP YAOUNDE CARRIERE,,Yaounde,CENTRE,,CM,+237 6 83 73 72 35,https://location.westernunion.com/cm/centre/yaounde/9eb6448e42c0fb7bc84d2f5d07837c66,Mo-Sa 08:00-18:00,Western Union,Q861042
0e1dec017bc997df366ddf0434dc8706,western_union,MUFFA YOUNDE NKOMKANA,,Yaounde,CENTRE,,CM,+237 6 99 50 57 19,https://location.westernunion.com/cm/centre/yaounde/0e1dec017bc997df366ddf0434dc8706,Mo-Sa 08:00-18:00; Su 08:00-14:00,Western Union,Q861042
38bd959c8343d9f5b24ee0241660bafb,western_union,SCB YDE MOKOLO,,Yaounde,CENTRE,,CM,+237 2 22 22 89 04,https://location.westernunion.com/cm/centre/yaounde/38bd959c8343d9f5b24ee0241660bafb,Mo 13:30-17:00; Tu-Fr 08:30-17:00; Sa 08:30-12:00,Western Union,Q861042
3de6f368c5a5e78d1d3466040c552f5d,western_union,SCB YDE MOKOLO,,Yaounde,CENTRE,,CM,+237 2 22 22 89 04,https://location.westernunion.com/cm/centre/yaounde/3de6f368c5a5e78d1d3466040c552f5d,Mo 13:30-17:00; Tu-Fr 08:30-17:00; Sa 08:30-12:00,Western Union,Q861042
26d93760ceff8344bdef589301d236b4,western_union,SCB YDE MOKOLO,,Yaounde,CENTRE,,CM,+237 2 22 22 89 04,https://location.westernunion.com/cm/centre/yaounde/26d93760ceff8344bdef589301d236b4,Mo 13:30-17:00; Tu-Fr 08:30-17:00; Sa 08:30-12:00,Western Union,Q861042
5ece7756800df568a4ccb418b52aa42f,western_union,EMI MONEY MARCHE MOKOLO,,Yaounde,CENTRE,,CM,+237 6 83 74 81 75,https://location.westernunion.com/cm/centre/yaounde/5ece7756800df568a4ccb418b52aa42f,Mo-Sa 07:30-17:30; Su 08:00-15:00,Western Union,Q861042
dea1dc7856537ea0bca09b4de4544df3,western_union,MOKOLO 5,,Yaounde,CENTRE,,CM,+237 6 75 29 36 20,https://location.westernunion.com/cm/centre/yaounde/dea1dc7856537ea0bca09b4de4544df3,Mo-Sa 08:00-18:00,Western Union,Q861042
06c44f94080ca2f2cec828d86050e36f,western_union,MOKOLO 6,,Yaounde,CENTRE,,CM,+237 6 75 29 36 20,https://location.westernunion.com/cm/centre/yaounde/06c44f94080ca2f2cec828d86050e36f,Mo-Sa 08:00-18:00,Western Union,Q861042
1ba3bb6da87c00caf120c5cc19134aca,western_union,EMI MONEY CARRIERE,,Yaounde,CENTRE,,CM,+237 6 83 74 79 48,https://location.westernunion.com/cm/centre/yaounde/1ba3bb6da87c00caf120c5cc19134aca,Mo-Sa 07:30-17:30,Western Union,Q861042
49a7c258e7bb29aa4e70793c4ee1ec44,western_union,CECAW MOKOLO,,Yaounde,CENTRE,,CM,+237 2 43 06 86 77,https://location.westernunion.com/cm/centre/yaounde/49a7c258e7bb29aa4e70793c4ee1ec44,Mo-Fr 08:00-17:30; Sa 09:00-14:00,Western Union,Q861042
3c1d397fe465c8be5d95d8a74520eb1e,western_union,OPALE,,Yaounde,CENTRE,,CM,+237 6 99 69 15 50,https://location.westernunion.com/cm/centre/yaounde/3c1d397fe465c8be5d95d8a74520eb1e,Mo-Fr 08:15-16:15; Sa 08:15-12:15,Western Union,Q861042
d5a0fdd8fd3677ef93b90c11983da796,western_union,CBC MOKOLO,,Yaounde,CENTRE,,CM,(+237) 22229145,https://location.westernunion.com/cm/centre/yaounde/d5a0fdd8fd3677ef93b90c11983da796,Mo-Fr 08:00-17:30; Sa 09:00-17:00,Western Union,Q861042
10a468899a06a3d9e523d99d6c8cc570,western_union,TSINGA 2,,Yaounde,CENTRE,,CM,+237 6 50 58 81 87,https://location.westernunion.com/cm/centre/yaounde/10a468899a06a3d9e523d99d6c8cc570,Mo-Sa 08:00-18:00; Su 08:00-15:00,Western Union,Q861042
96914a11b4c0f1e35b2860dbe21f2bd6,western_union,UNIVERSAL CASH NSAM,,Yaounde,CENTRE,,CM,(+237) 2-43595952-2435,https://location.westernunion.com/cm/centre/yaounde/96914a11b4c0f1e35b2860dbe21f2bd6,Mo-Su 08:00-19:00,Western Union,Q861042
90d9bbdbe6b135ae093036ed2747423d,western_union,TRANSVAL KOMKANA,,Yaounde,CENTRE,,CM,+237 6 97 87 80 93,https://location.westernunion.com/cm/centre/yaounde/90d9bbdbe6b135ae093036ed2747423d,Mo-Sa 07:30-20:00,Western Union,Q861042
1e5fe28c6036e5061ea201cac6f31da2,western_union,ETS SIMO EKOUNDOUM,,Yaounde,CENTRE,,CM,+237 6 93 72 20 87,https://location.westernunion.com/cm/centre/yaounde/1e5fe28c6036e5061ea201cac6f31da2,Mo-Sa 07:00-18:00,Western Union,Q861042
eb089efb604c7a35b20a3988bae04314,western_union,UFC MOKOLO,,Yaounde,CENTRE,,CM,+237 6 50 10 85 25,https://location.westernunion.com/cm/centre/yaounde/eb089efb604c7a35b20a3988bae04314,Mo-Fr 08:00-18:00; Sa 09:00-14:00,Western Union,Q861042
b737f23c85b971b56b554b1972c7925e,western_union,GAJO TRADING FACE ECOLE DE POLICE,,Yaounde,CENTRE,,CM,+237 6 99 76 45 09,https://location.westernunion.com/cm/centre/yaounde/b737f23c85b971b56b554b1972c7925e,Mo-Sa 08:30-17:30,Western Union,Q861042
a45c222c6b8939038349744695c5b1f0,western_union,EXPRESS EXCHANGE MOKOLO 3,,Yaounde,CENTRE,,CM,+237 6 50 45 96 46,https://location.westernunion.com/cm/centre/yaounde/a45c222c6b8939038349744695c5b1f0,Mo-Sa 08:00-17:30,Western Union,Q861042
83c4da05c764408d1614fcc01aa6bce5,western_union,ETS CHARLY MOKOLO,,Yaounde,CENTRE,,CM,+237 6 69 14 44 49,https://location.westernunion.com/cm/centre/yaounde/83c4da05c764408d1614fcc01aa6bce5,Mo-Fr 07:30-17:30; Sa 07:30-13:00,Western Union,Q861042
245c4ece760027ed8787a7112f17b58a,western_union,EU YDE MOKOLO IV,,Yaounde,CENTRE,,CM,+237 6 91 14 11 43,https://location.westernunion.com/cm/centre/yaounde/245c4ece760027ed8787a7112f17b58a,Mo-Sa 07:30-18:30,Western Union,Q861042
617290d4b4614d7a06fc8878d62db15e,western_union,CCA SALARIE,,Yaounde,CENTRE,,CM,+237 2 22 23 77 08,https://location.westernunion.com/cm/centre/yaounde/617290d4b4614d7a06fc8878d62db15e,Mo-Sa 08:00-17:00,Western Union,Q861042
2ab1b4912f6e56cbf45faa56936fba0d,western_union,PAN AFRICAN MFOUNDI,,Yaounde,CENTRE,,CM,+237 6 79 50 55 79,https://location.westernunion.com/cm/centre/yaounde/2ab1b4912f6e56cbf45faa56936fba0d,Mo-Su 08:00-19:00,Western Union,Q861042
25ca8a61efb35507dd1c7ab9440ab27f,western_union,EXPRESS EXCHANGE TSINGA,,Yaounde,CENTRE,,CM,+237 6 50 79 02 73,https://location.westernunion.com/cm/centre/yaounde/25ca8a61efb35507dd1c7ab9440ab27f,Mo-Sa 07:30-17:00,Western Union,Q861042
a82619db9fee3445f46ba0e8d9ea4906,western_union,EXPRESS EXCHANGE EKIE,,Yaounde,CENTRE,,CM,+237 6 50 46 19 04,https://location.westernunion.com/cm/centre/yaounde/a82619db9fee3445f46ba0e8d9ea4906,Mo-Sa 08:00-17:30,Western Union,Q861042
057a860d91d897f6890213bfc029d676,western_union,WAFACASH MVOG MBI,,Yaounde,CENTRE,,CM,+237 6 83 82 57 89,https://location.westernunion.com/cm/centre/yaounde/057a860d91d897f6890213bfc029d676,Mo-Sa 08:00-19:00,Western Union,Q861042
249a4bd181da4dc38b1ad88482a1dca0,western_union,HOP EKIE,,Yaounde,CENTRE,,CM,+237 6 83 73 56 38,https://location.westernunion.com/cm/centre/yaounde/249a4bd181da4dc38b1ad88482a1dca0,Mo-Sa 08:00-18:00,Western Union,Q861042
1f2ea3bcc5646ab86dc6fccc6503c164,western_union,EU YDE MVOG MBI,,Yaounde,CENTRE,,CM,+237 6 91 14 11 43,https://location.westernunion.com/cm/centre/yaounde/1f2ea3bcc5646ab86dc6fccc6503c164,Mo-Sa 07:30-18:30,Western Union,Q861042
a46a06b2d97545a87ecb9935491935c1,western_union,C4ED YAOUNDE,,Yaounde,CENTRE,,CM,+237 6 78 17 54 65,https://location.westernunion.com/cm/centre/yaounde/a46a06b2d97545a87ecb9935491935c1,Mo-Fr 08:00-17:00; Sa 09:00-13:30,Western Union,Q861042
4040b24f5b90ab337fe4733a073d67e0,western_union,ETS CHARLY BIYEM ASSI,,Yaounde,CENTRE,,CM,+237 6 75 42 53 41,https://location.westernunion.com/cm/centre/yaounde/4040b24f5b90ab337fe4733a073d67e0,Mo-Sa 07:30-18:30,Western Union,Q861042
f7c63ddb2f573329bf8a6b1f5ded66c6,western_union,EU YDE ZONE MINISTERIELLE,,Yaounde,CENTRE,,CM,+237 6 91 14 11 43,https://location.westernunion.com/cm/centre/yaounde/f7c63ddb2f573329bf8a6b1f5ded66c6,Mo-Sa 07:30-18:30,Western Union,Q861042
e85d07098243f46e96721ae68ae7afd6,western_union,EU YDE TSINGA III,,Yaounde,CENTRE,,CM,+237 6 91 14 11 43,https://location.westernunion.com/cm/centre/yaounde/e85d07098243f46e96721ae68ae7afd6,Mo-Sa 07:30-18:30,Western Union,Q861042
dbb19f50cbb12b740cf84e5317751cff,western_union,SESAME EKOUMDOUN,,Yaounde,CENTRE,,CM,+237 2 43 65 83 90,https://location.westernunion.com/cm/centre/yaounde/dbb19f50cbb12b740cf84e5317751cff,Mo-Fr 07:00-18:30; Sa 08:30-15:30,Western Union,Q861042
e30a831448cab7df891e37703974ca8a,western_union,RIC MVOG MBI,,Yaounde,CENTRE,,CM,(+237) 33-33442851,https://location.westernunion.com/cm/centre/yaounde/e30a831448cab7df891e37703974ca8a,Mo-Fr 08:00-16:00; Sa 08:00-15:00,Western Union,Q861042
b9b2ef93e25da92b8836d2582e14724d,western_union,CCA MVOG MBI,,Yaounde,CENTRE,,CM,+237 2 22 30 20 85,https://location.westernunion.com/cm/centre/yaounde/b9b2ef93e25da92b8836d2582e14724d,Mo-Sa 08:00-17:00,Western Union,Q861042
ac32c74c21af460655b61765bb391d99,western_union,UBA CMR MVOG MBI,,Yaounde,CENTRE,,CM,+237 2 33 50 67 82,https://location.westernunion.com/cm/centre/yaounde/ac32c74c21af460655b61765bb391d99,Mo-Fr 08:30-17:30; Sa 09:30-16:30,Western Union,Q861042
accb0d9538952c32fdd2aa3cf120fa34,western_union,CBC MVOG MBI,,Yaounde,CENTRE,,CM,+237 2 33 43 38 52,https://location.westernunion.com/cm/centre/yaounde/accb0d9538952c32fdd2aa3cf120fa34,Mo-Fr 08:00-17:00; Sa 08:00-15:00,Western Union,Q861042
1057a122323dc785d5538a5af8d99c37,western_union,EU YDE MVOG MBI EUF,,Yaounde,CENTRE,,CM,+237 6 91 14 11 43,https://location.westernunion.com/cm/centre/yaounde/1057a122323dc785d5538a5af8d99c37,Mo-Sa 07:30-18:30,Western Union,Q861042
0b3a69fd2f66aaf8af4c2fbb9c41bcaa,western_union,FREE CASH EKIE,,Yaounde,CENTRE,,CM,+237 6 90 80 25 52,https://location.westernunion.com/cm/centre/yaounde/0b3a69fd2f66aaf8af4c2fbb9c41bcaa,Mo-Fr 08:00-18:00; Sa 08:00-16:00; Su 08:00-12:00,Western Union,Q861042
97547e370891a1b9f88fcedd47dda96b,western_union,EXPRESS EXCHANGE MVOG MBI 1,,Yaounde,CENTRE,,CM,+237 6 75 29 66 35,https://location.westernunion.com/cm/centre/yaounde/97547e370891a1b9f88fcedd47dda96b,Mo-Sa 07:30-17:00,Western Union,Q861042
810e01aa29ff4e1186dde00f37ee1e64,western_union,WAFACASH TSINGA,,Yaounde,CENTRE,,CM,+237 6 83 82 57 21,https://location.westernunion.com/cm/centre/yaounde/810e01aa29ff4e1186dde00f37ee1e64,Mo-Sa 08:00-19:00,Western Union,Q861042
f3633833096cb909a1dc6f02715e30d4,western_union,FREE CASH MIMBOMAN,,Yaounde,CENTRE,,CM,+237 6 96 01 81 43,https://location.westernunion.com/cm/centre/yaounde/f3633833096cb909a1dc6f02715e30d4,Mo-Fr 08:00-17:00; Sa 08:00-12:00,Western Union,Q861042
051e49cea4dae3db109f31ee9715f3fa,western_union,FREE CASH MIMBOMAN,,Yaounde,CENTRE,,CM,+237 6 96 01 81 43,https://location.westernunion.com/cm/centre/yaounde/051e49cea4dae3db109f31ee9715f3fa,Mo-Fr 08:00-17:00; Sa 08:00-12:00,Western Union,Q861042
dafe3e3cc81496e14ea056c07ff49402,western_union,EXPRESS EXCHANGE MVOG MBI 2,,Yaounde,CENTRE,,CM,+237 6 50 58 83 58,https://location.westernunion.com/cm/centre/yaounde/dafe3e3cc81496e14ea056c07ff49402,Mo-Sa 08:00-17:30,Western Union,Q861042
73cb8fe872042d7660a29089750bae75,western_union,RENAPROV MVOG MBI,,Yaounde,CENTRE,,CM,+237 6 90 21 10 71,https://location.westernunion.com/cm/centre/yaounde/73cb8fe872042d7660a29089750bae75,Mo-Fr 07:30-18:00; Sa 08:00-13:30,Western Union,Q861042
aaf395dcc04089aa91d33fc17b35e0a0,western_union,FREE CASH MARCHE CENTRALE,,Yaounde,CENTRE,,CM,+237 6 78 88 51 18,https://location.westernunion.com/cm/centre/yaounde/aaf395dcc04089aa91d33fc17b35e0a0,Mo-Fr 08:00-17:00; Sa 08:00-12:00,Western Union,Q861042
cb3ccdc13a8e68dbdaf254385db8dc0b,western_union,FREE CASH MARCHE CENTRALE,,Yaounde,CENTRE,,CM,+237 6 78 88 51 18,https://location.westernunion.com/cm/centre/yaounde/cb3ccdc13a8e68dbdaf254385db8dc0b,Mo-Fr 08:00-17:00; Sa 08:00-12:00,Western Union,Q861042
6e24775c3fb097e01f6146f5beb62e33,western_union,EU YDE BRIQUETERIE,,Yaounde,CENTRE,,CM,+237 6 83 75 07 44,https://location.westernunion.com/cm/centre/yaounde/6e24775c3fb097e01f6146f5beb62e33,Mo-Sa 07:30-18:30,Western Union,Q861042
800216c4118d6e1d14dc82e90b0d9778,western_union,EMI MONEY MARCHE HUITIEME,,Yaounde,CENTRE,,CM,+237 6 83 74 78 97,https://location.westernunion.com/cm/centre/yaounde/800216c4118d6e1d14dc82e90b0d9778,Mo-Sa 07:30-17:30; Su 08:00-15:00,Western Union,Q861042
0b47644a5506b17ed2b0fe0722a76d2b,western_union,LA MEC TSINGA,,Yaounde,CENTRE,,CM,+237 6 90 22 11 38,https://location.westernunion.com/cm/centre/yaounde/0b47644a5506b17ed2b0fe0722a76d2b,Mo-Sa 07:30-17:30,Western Union,Q861042
5746c2da74bdb074a5083fd9d5c607bc,western_union,ADVANS YND MARCHE CENTRAL,,Yaounde,CENTRE,,CM,+237 6 97 84 31 92,https://location.westernunion.com/cm/centre/yaounde/5746c2da74bdb074a5083fd9d5c607bc,Mo-Fr 08:00-18:00; Sa 10:00-16:00,Western Union,Q861042
cf8d214834de532377952e25106c938a,western_union,EU YDE POSTE CENTRALE II,,Yaounde,CENTRE,,CM,+237 6 91 14 11 43,https://location.westernunion.com/cm/centre/yaounde/cf8d214834de532377952e25106c938a,Mo-Sa 07:30-18:30,Western Union,Q861042
b85cf360ff241aed6c4e6c5a1d3391d4,western_union,BICEC LE PARC,,Yaounde,CENTRE,,CM,(+237) 33-422909,https://location.westernunion.com/cm/centre/yaounde/b85cf360ff241aed6c4e6c5a1d3391d4,Mo-Sa 07:45-17:30,Western Union,Q861042
cd901bc0166dc082db9522b7c1b01974,western_union,NFC BANK MVOG ADA,,Yaounde,CENTRE,,CM,+237 2 22 20 28 23,https://location.westernunion.com/cm/centre/yaounde/cd901bc0166dc082db9522b7c1b01974,Mo-Fr 07:45-18:00; Sa 07:45-14:00,Western Union,Q861042
16031fb70e835733785109a2ed09f806,western_union,CAMPOST YAOUNDE RP,,Yaounde,CENTRE,,CM,(+237) 2-232266,https://location.westernunion.com/cm/centre/yaounde/16031fb70e835733785109a2ed09f806,Mo-Fr 08:00-17:00; Sa 08:00-12:00,Western Union,Q861042
464553db7769ca7993997e50d122d30e,western_union,EXPRESS EXCHANGE MARCHE CENTRAL 2,,Yaounde,CENTRE,,CM,+237 6 50 58 99 75,https://location.westernunion.com/cm/centre/yaounde/464553db7769ca7993997e50d122d30e,Mo-Sa 07:30-17:00,Western Union,Q861042
8fbf7a6cef455022b3d42cd57f8791cc,western_union,CCA TSINGA,,Yaounde,CENTRE,,CM,+237 2 22 20 40 34,https://location.westernunion.com/cm/centre/yaounde/8fbf7a6cef455022b3d42cd57f8791cc,Mo-Sa 08:00-17:00,Western Union,Q861042
ddf3fb20d0c774df94b91489418b4d76,western_union,CCC YAOUNDE ACROPOLE,,Yaounde,CENTRE,,CM,(+237) 77493533,https://location.westernunion.com/cm/centre/yaounde/ddf3fb20d0c774df94b91489418b4d76,Mo-Su 08:00-19:00,Western Union,Q861042
dff976c545980958880df06ab9a15e34,western_union,ECOBANK POSTE CENTRALE,,Yaounde,CENTRE,,CM,(+237) 22232613,https://location.westernunion.com/cm/centre/yaounde/dff976c545980958880df06ab9a15e34,Mo-Su 08:00-19:00,Western Union,Q861042
8312048f6cf23ab18686f057e2b5c261,western_union,MUFFA EMOMBO,,Yaounde,CENTRE,,CM,+237 6 91 74 39 25,https://location.westernunion.com/cm/centre/yaounde/8312048f6cf23ab18686f057e2b5c261,Mo-Su 08:00-18:00,Western Union,Q861042
a9f02795667bffd2444b71ec25a40653,western_union,SESAME ESSOS 2,,Yaounde,CENTRE,,CM,+237 2 43 65 83 90,https://location.westernunion.com/cm/centre/yaounde/a9f02795667bffd2444b71ec25a40653,Mo-Fr 07:00-18:30; Sa 08:30-15:30,Western Union,Q861042
4468d6a48e56f55536377cc82250ccef,western_union,UNIVERSAL CASH SANTA BARBARA,,Yaounde,CENTRE,,CM,(+237) 2-43595952-2435,https://location.westernunion.com/cm/centre/yaounde/4468d6a48e56f55536377cc82250ccef,Mo-Su 08:00-19:00,Western Union,Q861042
650155debfc078cdd152938d82e68afd,western_union,CEPI HIPPODROME,,Yaounde,CENTRE,,CM,+237 6 96 29 83 26,https://location.westernunion.com/cm/centre/yaounde/650155debfc078cdd152938d82e68afd,Mo-Fr 08:00-16:30; Sa 09:00-12:30; Su 09:00-18:00,Western Union,Q861042
e3e51a6668d38ff7c35169a163b6790b,western_union,EU YDE AVENUE KENNEDY,,Yaounde,CENTRE,,CM,+237 6 91 14 11 43,https://location.westernunion.com/cm/centre/yaounde/e3e51a6668d38ff7c35169a163b6790b,Mo-Sa 07:30-18:30,Western Union,Q861042
99ba5d8a50bd84d9f8994724bb7fc8f5,western_union,U CASH HYPPODROME,,Yaounde,CENTRE,,CM,+237 6 99 52 59 35,https://location.westernunion.com/cm/centre/yaounde/99ba5d8a50bd84d9f8994724bb7fc8f5,Mo-Sa 08:30-17:00,Western Union,Q861042
d7c7cc004b2d72e04f4eda0d5255c090,western_union,FEF YAOUNDE KENNEDY,,Yaounde,CENTRE,,CM,+237 6 97 22 07 93,https://location.westernunion.com/cm/centre/yaounde/d7c7cc004b2d72e04f4eda0d5255c090,Mo-Fr 08:00-18:00; Sa 08:00-15:30,Western Union,Q861042
d493d1c69cfeb88ee11b5d4abceea701,western_union,EHI KOLDONGO,,Yaounde,CENTRE,,CM,+237 6 96 17 35 61,https://location.westernunion.com/cm/centre/yaounde/d493d1c69cfeb88ee11b5d4abceea701,Mo-Sa 08:00-18:00,Western Union,Q861042
5a143a6ca9a4c9547df044c14df27d56,western_union,ACEP KENNEDY YAOUNDE,,Yaounde,CENTRE,,CM,(+237) 33-436000,https://location.westernunion.com/cm/centre/yaounde/5a143a6ca9a4c9547df044c14df27d56,Mo-Sa 07:30-17:30,Western Union,Q861042
e0d96f30100ea3e63059e9bb45ac28a3,western_union,EXPRESS EXCHANGE BRIQUETERIE,,Yaounde,CENTRE,,CM,+237 6 50 58 88 12,https://location.westernunion.com/cm/centre/yaounde/e0d96f30100ea3e63059e9bb45ac28a3,Mo-Sa 08:00-17:30; Su 08:00-14:00,Western Union,Q861042
bb0c0f82661b75e19471ddb4cec6ad39,western_union,PAYCASH HIPPODROME,,Yaounde,CENTRE,,CM,+237 6 72 40 11 74,https://location.westernunion.com/cm/centre/yaounde/bb0c0f82661b75e19471ddb4cec6ad39,Mo-Su 07:00-18:00,Western Union,Q861042
5f73dd434b72af94af46482ff519d0c9,western_union,FEWADE MOKOLO,,Yaounde,CENTRE,,CM,+237 6 54 31 19 21,https://location.westernunion.com/cm/centre/yaounde/5f73dd434b72af94af46482ff519d0c9,Mo-Sa 07:30-18:30,Western Union,Q861042
fc33ae2e6716190254bb94ac80071569,western_union,CBC KENNEDY,,Yaounde,CENTRE,,CM,(+237) 2-220422,https://location.westernunion.com/cm/centre/yaounde/fc33ae2e6716190254bb94ac80071569,Mo-Fr 07:45-17:30; Sa 10:00-17:00,Western Union,Q861042
aab7f41ff067424ead0919347798bc0a,western_union,CBC NLONGKAK,,Yaounde,CENTRE,,CM,(+237) 2-220422,https://location.westernunion.com/cm/centre/yaounde/aab7f41ff067424ead0919347798bc0a,Mo-Fr 07:30-17:30; Sa 09:00-17:00,Western Union,Q861042
95507f7c6c69eb4b800094ab27f0bee9,western_union,UFC CENTRALE,,Yaounde,CENTRE,,CM,+237 2 22 22 70 36,https://location.westernunion.com/cm/centre/yaounde/95507f7c6c69eb4b800094ab27f0bee9,Mo-Fr 08:00-18:00; Sa 09:00-14:00,Western Union,Q861042
5be09d0975404d929dcdc9fc2f5f8ad2,western_union,EXPRESS EXCHANGE MARCHE CENTRAL 1,,Yaounde,CENTRE,,CM,+237 6 50 59 00 33,https://location.westernunion.com/cm/centre/yaounde/5be09d0975404d929dcdc9fc2f5f8ad2,Mo-Sa 08:00-17:30,Western Union,Q861042
95a54bfd9ad3b2f0d48d4d68c044439b,western_union,LA MEC WARDA,,Yaounde,CENTRE,,CM,+237 6 90 21 03 69,https://location.westernunion.com/cm/centre/yaounde/95a54bfd9ad3b2f0d48d4d68c044439b,Mo-Sa 07:30-17:30,Western Union,Q861042
48360b1916e86f4b6fef7d1920526fbd,western_union,EMI MONEY MARCHE CENTRAL,,Yaounde,CENTRE,,CM,+237 6 83 74 78 93,https://location.westernunion.com/cm/centre/yaounde/48360b1916e86f4b6fef7d1920526fbd,Mo-Sa 07:30-17:30,Western Union,Q861042
7bb6b340fc903327f88d13bee298492c,western_union,FCI DJEUGA HOTEL,,Yaounde,CENTRE,,CM,+237 2 22 23 99 15,https://location.westernunion.com/cm/centre/yaounde/7bb6b340fc903327f88d13bee298492c,Mo-Fr 07:30-20:30; Sa 08:30-15:00,Western Union,Q861042
b5d1c1d9d08ffd246585255c87f038e0,western_union,BANGE BANK PLAYCE,,Yaounde,CENTRE,,CM,+237 6 57 10 87 22,https://location.westernunion.com/cm/centre/yaounde/b5d1c1d9d08ffd246585255c87f038e0,Mo-Fr 08:30-17:30; Sa 10:00-16:00,Western Union,Q861042
f6bbde4a94e8240a8d3192cb2a2ccd6e,western_union,NFC YAOUNDE 1,,Yaounde,CENTRE,,CM,+237 2 22 23 56 26,https://location.westernunion.com/cm/centre/yaounde/f6bbde4a94e8240a8d3192cb2a2ccd6e,Mo-Fr 07:45-18:00; Sa 08:00-14:00,Western Union,Q861042
941213a2a5f11b037aa14c54e427ec1e,western_union,SCB YDE MARCHE CENTRAL,,Yaounde,CENTRE,,CM,+237 2 22 23 76 11,https://location.westernunion.com/cm/centre/yaounde/941213a2a5f11b037aa14c54e427ec1e,Mo 12:30-16:00; Tu-Fr 08:30-16:00; Sa 08:30-12:00,Western Union,Q861042
1ee18e83e3a744f5e590af88659fb122,western_union,SCB YDE MARCHE CENTRAL,,Yaounde,CENTRE,,CM,+237 2 22 23 76 11,https://location.westernunion.com/cm/centre/yaounde/1ee18e83e3a744f5e590af88659fb122,Mo 12:30-16:00; Tu-Fr 08:30-16:00; Sa 08:30-12:00,Western Union,Q861042
37f30286f53174f126b5685fcb7196aa,western_union,SCB YDE MARCHE CENTRAL,,Yaounde,CENTRE,,CM,+237 2 22 23 76 11,https://location.westernunion.com/cm/centre/yaounde/37f30286f53174f126b5685fcb7196aa,Mo 12:30-16:00; Tu-Fr 08:30-16:00; Sa 08:30-12:00,Western Union,Q861042
3e186ac885a7e146e19f7474b127d9f4,western_union,EU YDE WARDA,,Yaounde,CENTRE,,CM,+237 6 91 14 11 43,https://location.westernunion.com/cm/centre/yaounde/3e186ac885a7e146e19f7474b127d9f4,Mo-Sa 07:30-18:30,Western Union,Q861042
deb580651dfe7363c3bef0bfec7822f3,western_union,UNICS YAOUNDE MARCHE CENTRAL,,Yaounde,CENTRE,,CM,(+237) 22229610,https://location.westernunion.com/cm/centre/yaounde/deb580651dfe7363c3bef0bfec7822f3,Mo-Su 08:00-19:00,Western Union,Q861042
8f38b8479a01f02a800111460d309860,western_union,REG CENTRE,,Yaounde,CENTRE,,CM,(+237) 99507046,https://location.westernunion.com/cm/centre/yaounde/8f38b8479a01f02a800111460d309860,Mo-Fr 08:00-18:00; Sa 09:00-14:00,Western Union,Q861042
2140d69119465ec4c30d828f5cc59d21,western_union,ACCESS BANK YAOUNDE,,Yaounde,CENTRE,,CM,+237 2 33 50 97 00,https://location.westernunion.com/cm/centre/yaounde/2140d69119465ec4c30d828f5cc59d21,Mo-Fr 08:00-16:30; Sa 11:00-15:30,Western Union,Q861042
0c8aa8508767b73d9dbc5026a77dbebb,western_union,UBA CMR HIPPODROME,,Yaounde,CENTRE,,CM,+237 2 33 50 67 82,https://location.westernunion.com/cm/centre/yaounde/0c8aa8508767b73d9dbc5026a77dbebb,Mo-Fr 08:30-17:30; Sa 09:30-16:30,Western Union,Q861042
f0b783be3e117defada090a00a16456b,western_union,CEC YDE MARCHE CENTRAL,,Yaounde,CENTRE,,CM,(+237) 22223621,https://location.westernunion.com/cm/centre/yaounde/f0b783be3e117defada090a00a16456b,Mo-Su 08:00-19:00,Western Union,Q861042
195a9c16333bd7b9478367b8c5965255,western_union,UNICS YAOUNDE HEAD OFFICE,,Yaounde,CENTRE,,CM,(+237) 22229610,https://location.westernunion.com/cm/centre/yaounde/195a9c16333bd7b9478367b8c5965255,Mo-Su 08:00-19:00,Western Union,Q861042
d0cbdf01eac631e1f19d759f6bd553f4,western_union,EXPRESS EXCHANGE MVOG ADA,,Yaounde,CENTRE,,CM,+237 6 78 07 40 30,https://location.westernunion.com/cm/centre/yaounde/d0cbdf01eac631e1f19d759f6bd553f4,Mo-Sa 08:00-17:30,Western Union,Q861042
7a5d688f3a0452ec57158e526c5c4a99,western_union,SYLEMS DESIGN CAMER,,Yaounde,CENTRE,,CM,+237 6 96 14 90 06,https://location.westernunion.com/cm/centre/yaounde/7a5d688f3a0452ec57158e526c5c4a99,Mo-Sa 07:30-18:00,Western Union,Q861042
2850b217ab4528468f649c5395e3086e,western_union,EMSI CAMAIR,,Yaounde,CENTRE,,CM,+237 6 77 60 19 08,https://location.westernunion.com/cm/centre/yaounde/2850b217ab4528468f649c5395e3086e,Mo-Sa 08:00-17:30,Western Union,Q861042
449c45b4288af63a7560c9d4a165e059,western_union,LE PELERIN  INTENDANCE,,Yaounde,CENTRE,,CM,+237 2 22 22 92 38,https://location.westernunion.com/cm/centre/yaounde/449c45b4288af63a7560c9d4a165e059,Mo-Fr 08:00-17:00; Sa 08:00-15:00,Western Union,Q861042
858c60b82d1a943f920ee502773f0765,western_union,U CASH MESSA,,Yaounde,CENTRE,,CM,+237 2 43 59 59 55,https://location.westernunion.com/cm/centre/yaounde/858c60b82d1a943f920ee502773f0765,Mo-Su 07:00-19:59,Western Union,Q861042
953234fbe87a8bb21ec49193deed7a80,western_union,EU YDE HYPPODROME,,Yaounde,CENTRE,,CM,+237 6 91 14 11 43,https://location.westernunion.com/cm/centre/yaounde/953234fbe87a8bb21ec49193deed7a80,Mo-Sa 07:30-18:30,Western Union,Q861042
3e05f5c1c569714ca451f35eeb7755df,western_union,BICEC YAOUNDE CENTRE,,Yaounde,CENTRE,,CM,(+237) 33-422909,https://location.westernunion.com/cm/centre/yaounde/3e05f5c1c569714ca451f35eeb7755df,Mo-Sa 07:45-17:30,Western Union,Q861042
6a677674367232bc1c0acf2df3e97c5a,western_union,WAFACASH MFOUNDI,,Yaounde,CENTRE,,CM,+237 6 83 97 83 34,https://location.westernunion.com/cm/centre/yaounde/6a677674367232bc1c0acf2df3e97c5a,Mo-Fr 07:30-19:00; Sa 07:30-18:30,Western Union,Q861042
1d6346b797e2bc39b49d55118a002efd,western_union,BANGE BANK T.BELLA,,Yaounde,CENTRE,,CM,+237 6 57 10 87 22,https://location.westernunion.com/cm/centre/yaounde/1d6346b797e2bc39b49d55118a002efd,Mo-Fr 08:30-17:30; Sa 10:00-16:00,Western Union,Q861042
3ccdb57d69f92bcbca10caf8ed1f2aa6,western_union,SCE YAOUNDE,,Yaounde,CENTRE,,CM,+237 2 22 22 50 78,https://location.westernunion.com/cm/centre/yaounde/3ccdb57d69f92bcbca10caf8ed1f2aa6,Mo-Fr 08:00-18:00; Sa 09:00-14:00,Western Union,Q861042
17ad1cebf9c8bf38633cbc769ea91420,western_union,EXPRESS EXCHANGE KENNEDY,,Yaounde,CENTRE,,CM,+237 6 77 11 26 22,https://location.westernunion.com/cm/centre/yaounde/17ad1cebf9c8bf38633cbc769ea91420,Mo-Sa 08:00-17:30,Western Union,Q861042
5d2830972793e048b668919edae730a1,western_union,SESAME OLEZOA,,Yaounde,CENTRE,,CM,(+237) 22658390,https://location.westernunion.com/cm/centre/yaounde/5d2830972793e048b668919edae730a1,Mo-Fr 07:30-18:30; Sa 09:00-15:30,Western Union,Q861042
09c42ee33412d01a0f957e17c2448773,western_union,SESAME  ODZA,,Yaounde,CENTRE,,CM,(+237) 22658390,https://location.westernunion.com/cm/centre/yaounde/09c42ee33412d01a0f957e17c2448773,Mo-Fr 07:30-18:30; Sa 09:00-15:30; Su 09:30-12:30,Western Union,Q861042
6b78c03783312410c60d8f683aae4ead,western_union,CP YAOUNDE SHO,,Yaounde,CENTRE,,CM,(+237) 33057567,https://location.westernunion.com/cm/centre/yaounde/6b78c03783312410c60d8f683aae4ead,Mo-Fr 08:00-17:40; Sa 09:00-14:40,Western Union,Q861042
04bdccb7e036d9b2dc0c37a3517b836f,western_union,SESAME ODZA 2,,Yaounde,CENTRE,,CM,(+237) 22658390,https://location.westernunion.com/cm/centre/yaounde/04bdccb7e036d9b2dc0c37a3517b836f,Mo-Fr 07:30-18:30; Sa 09:00-15:30,Western Union,Q861042
5df2893fb0442d572a643bac8e3d35c5,western_union,NSAM,,Yaounde,CENTRE,,CM,(+237) 22658390,https://location.westernunion.com/cm/centre/yaounde/5df2893fb0442d572a643bac8e3d35c5,Mo-Fr 07:30-18:30; Sa 09:00-15:30,Western Union,Q861042
36d436f2e7fe2ea0d374f612a0f954de,western_union,AWAE,,Yaounde,CENTRE,,CM,(+237) 22658390,https://location.westernunion.com/cm/centre/yaounde/36d436f2e7fe2ea0d374f612a0f954de,Mo-Fr 07:30-18:30; Sa 09:00-15:30,Western Union,Q861042
605f760e4fec7cbd99f58383467ed22a,western_union,ADEC COOP CA KATIOS,,Yaounde,CENTRE,,CM,+237 2 22 22 00 99,https://location.westernunion.com/cm/centre/yaounde/605f760e4fec7cbd99f58383467ed22a,Mo-Fr 08:00-17:00; Sa 09:00-14:00,Western Union,Q861042
e2557ccfaa19009a6633cb317df586fb,western_union,UFC MVOG MBI,,Yaounde,CENTRE,,CM,+237 2 22 30 57 63,https://location.westernunion.com/cm/centre/yaounde/e2557ccfaa19009a6633cb317df586fb,Mo-Fr 08:00-18:00; Sa 09:00-14:00,Western Union,Q861042
26b75063bf76676e6b572132b0fc745f,western_union,NTARINKON POLYTECHNIQUE YDE,,Yaounde,CENTRE,,CM,+237 2 33 42 35 45,https://location.westernunion.com/cm/centre/yaounde/26b75063bf76676e6b572132b0fc745f,Mo-Fr 08:00-18:00; Sa 08:00-15:00,Western Union,Q861042
6cbaafdce3ad357f33cd781ef016b0b2,western_union,UBA CMR TSINGA,,Yaounde,CENTRE,,CM,+237 2 33 50 67 82,https://location.westernunion.com/cm/centre/yaounde/6cbaafdce3ad357f33cd781ef016b0b2,Mo-Fr 08:30-17:30; Sa 09:30-16:30,Western Union,Q861042
f96ee3813f9f3bc12d07b2f327af2ec0,western_union,ETS CHARLY TSINGA,,Yaounde,CENTRE,,CM,+237 2 43 27 10 70,https://location.westernunion.com/cm/centre/yaounde/f96ee3813f9f3bc12d07b2f327af2ec0,Mo-Sa 07:30-18:30,Western Union,Q861042
bd6fc50f1f8218d1932db9aee1c61af1,western_union,BANGE BANK HILTON,,Yaounde,CENTRE,,CM,+237 6 57 10 87 22,https://location.westernunion.com/cm/centre/yaounde/bd6fc50f1f8218d1932db9aee1c61af1,Mo-Fr 08:30-17:30; Sa 10:00-16:00,Western Union,Q861042
15058bb9efb1f2c1b27905fa69dcfddb,western_union,SESAME MENDONG 1,,Yaounde,CENTRE,,CM,+237 2 43 65 83 90,https://location.westernunion.com/cm/centre/yaounde/15058bb9efb1f2c1b27905fa69dcfddb,Mo-Fr 07:00-18:30; Sa 08:30-15:30,Western Union,Q861042
6b88b8b4e9fd298683ade4eb24070424,western_union,CECIC SA YAOUNDE,,Yaounde,CENTRE,,CM,(+237) 22109655,https://location.westernunion.com/cm/centre/yaounde/6b88b8b4e9fd298683ade4eb24070424,Mo-Fr 07:00-17:00; Sa 08:00-17:00,Western Union,Q861042
c0dcee4cb46710e06e7feb2420defda2,western_union,RENAPROV EKOUNOU,,Yaounde,CENTRE,,CM,+237 6 90 22 59 72,https://location.westernunion.com/cm/centre/yaounde/c0dcee4cb46710e06e7feb2420defda2,Mo-Fr 08:00-17:00; Sa 08:00-13:30,Western Union,Q861042
9f27049e9533ad8f439de6c06f3ec982,western_union,BICEC BASTOS,,Yaounde,CENTRE,,CM,(+237) 21-8300,https://location.westernunion.com/cm/centre/yaounde/9f27049e9533ad8f439de6c06f3ec982,Mo-Sa 08:00-18:00,Western Union,Q861042
f2469b1ce69717548ce7e044cc2b2142,western_union,SESAME ELIG -ESSONO,,Yaounde,CENTRE,,CM,+237 2 43 65 83 90,https://location.westernunion.com/cm/centre/yaounde/f2469b1ce69717548ce7e044cc2b2142,Mo-Fr 07:00-18:30; Sa 08:30-15:30,Western Union,Q861042
9ae2ff5d71be6c1cb2acd2300c38da88,western_union,SESAME ELIG ESSONO 2,,Yaounde,CENTRE,,CM,+237 6 50 78 79 87,https://location.westernunion.com/cm/centre/yaounde/9ae2ff5d71be6c1cb2acd2300c38da88,Mo-Fr 07:15-18:45; Sa 09:15-15:45,Western Union,Q861042
b2b35652170405d62126eff2ad0ec800,western_union,NFC YAOUNDE 3,,Yaounde,CENTRE,,CM,+237 2 22 22 87 81,https://location.westernunion.com/cm/centre/yaounde/b2b35652170405d62126eff2ad0ec800,Mo-Fr 07:45-18:00; Sa 07:45-14:00,Western Union,Q861042
e782498fed37d736611cbad9df7a2fd0,western_union,EXPRESS EXCHANGE BASTOS,,Yaounde,CENTRE,,CM,+237 6 50 58 84 11,https://location.westernunion.com/cm/centre/yaounde/e782498fed37d736611cbad9df7a2fd0,Mo-Sa 08:00-17:30,Western Union,Q861042
4a098cb51310d93339b80dfa4d79da65,western_union,DEKAP LAH YAOUNDE,,Yaounde,CENTRE,,CM,+237 2 43 89 21 86,https://location.westernunion.com/cm/centre/yaounde/4a098cb51310d93339b80dfa4d79da65,Mo-Sa 07:45-16:45,Western Union,Q861042
b62103975bfc67c2c46bc1b9f188ea87,western_union,EMI MONEY BASTOS,,Yaounde,CENTRE,,CM,+237 6 83 74 95 86,https://location.westernunion.com/cm/centre/yaounde/b62103975bfc67c2c46bc1b9f188ea87,Mo-Sa 07:30-17:30,Western Union,Q861042
051343ec633a420777c1063660bd9ebe,western_union,CCA EKIE,,Yaounde,CENTRE,,CM,+237 2 22 28 39 48,https://location.westernunion.com/cm/centre/yaounde/051343ec633a420777c1063660bd9ebe,Mo-Sa 08:00-17:00,Western Union,Q861042
d6546915721442141b2766810844c205,western_union,UBA CMR NKOLNDONGO,,Yaounde,CENTRE,,CM,+237 2 33 50 67 82,https://location.westernunion.com/cm/centre/yaounde/d6546915721442141b2766810844c205,Mo-Fr 08:30-17:30; Sa 09:30-16:30,Western Union,Q861042
c07c83d2b8abe0af6aef3ba5eb997605,western_union,IMT KOLDONGO,,Yaounde,CENTRE,,CM,+237 6 73 16 30 59,https://location.westernunion.com/cm/centre/yaounde/c07c83d2b8abe0af6aef3ba5eb997605,Mo-Sa 07:30-18:00,Western Union,Q861042
56c51a31760dc95f7da04b347aa82c2b,western_union,EU YDE BASTOS II,,Yaounde,CENTRE,,CM,+237 6 91 14 11 43,https://location.westernunion.com/cm/centre/yaounde/56c51a31760dc95f7da04b347aa82c2b,Mo-Sa 07:30-18:30,Western Union,Q861042
16efa56e5e05f8ba255641f9841f3473,western_union,MUFFEDYC MOKOLO,,Yaounde,CENTRE,,CM,+237 6 80 17 36 48,https://location.westernunion.com/cm/centre/yaounde/16efa56e5e05f8ba255641f9841f3473,Mo-Fr 08:00-17:30; Sa 09:00-14:30,Western Union,Q861042
b68edbe0498e8778422f5968c946be6e,western_union,CAP FINANCE JACO,,Yaounde,CENTRE,,CM,+237 6 79 24 48 89,https://location.westernunion.com/cm/centre/yaounde/b68edbe0498e8778422f5968c946be6e,Mo-Fr 07:00-17:00; Sa 08:30-16:30,Western Union,Q861042
2e36af4a80bd459cc3be62b5c78620c2,western_union,CAP FINANCE ESSOS 2,,Yaounde,CENTRE,,CM,+237 6 99 87 98 18,https://location.westernunion.com/cm/centre/yaounde/2e36af4a80bd459cc3be62b5c78620c2,Mo-Sa 07:45-17:15,Western Union,Q861042
f49184e7dc6880c876085159b508aa96,western_union,CAP FINANCE OMBESSA,,Yaounde,CENTRE,,CM,+237 6 91 10 31 03,https://location.westernunion.com/cm/centre/yaounde/f49184e7dc6880c876085159b508aa96,Mo-Fr 07:30-18:30; Sa 09:00-15:30; Su 09:30-12:30,Western Union,Q861042
69494d8e91bd192627b416a0f94a17dd,western_union,CAMPOST YAOUNDE BASTOS,,Yaounde,CENTRE,,CM,(+237) 22133390,https://location.westernunion.com/cm/centre/yaounde/69494d8e91bd192627b416a0f94a17dd,Mo-Fr 08:00-17:00; Sa 08:00-12:00,Western Union,Q861042
984d85e6cd3781fffa4b368ac989471f,western_union,EMI MONEY EKOUNOU,,Yaounde,CENTRE,,CM,+237 6 83 74 79 36,https://location.westernunion.com/cm/centre/yaounde/984d85e6cd3781fffa4b368ac989471f,Mo-Sa 07:30-17:30,Western Union,Q861042
f9ec450f1a7b5f491b5034769113c4ee,western_union,UNION BANK HYPPODROME BRANCH,,Yaounde,CENTRE,,CM,(+237) 22201320-237,https://location.westernunion.com/cm/centre/yaounde/f9ec450f1a7b5f491b5034769113c4ee,Mo-Sa 07:00-18:00,Western Union,Q861042
194ccf6f35b926385f3cf6be8ab25eb1,western_union,EHI CARREFOUR BASTOS,,Yaounde,CENTRE,,CM,+237 6 98 00 34 83,https://location.westernunion.com/cm/centre/yaounde/194ccf6f35b926385f3cf6be8ab25eb1,Mo-Sa 07:00-18:00,Western Union,Q861042
07cd6b3273cecaf5059baa4a39ff50e8,western_union,SESAME TSINGA,,Yaounde,CENTRE,,CM,+237 6 70 03 45 45,https://location.westernunion.com/cm/centre/yaounde/07cd6b3273cecaf5059baa4a39ff50e8,Mo-Fr 07:30-18:30; Sa 09:00-15:30,Western Union,Q861042
30f68e67a2cab9cce8c91eb06fcf7ee5,western_union,NSAM 3,,Yaounde,CENTRE,,CM,(+237) 22658390,https://location.westernunion.com/cm/centre/yaounde/30f68e67a2cab9cce8c91eb06fcf7ee5,Mo-Fr 07:30-18:30; Sa 09:00-15:30,Western Union,Q861042
1f8e6c9d1e08b05c3dda9674d54c1a33,western_union,ETOA MEKI,,Yaounde,CENTRE,,CM,(+237) 22658390,https://location.westernunion.com/cm/centre/yaounde/1f8e6c9d1e08b05c3dda9674d54c1a33,Mo-Fr 07:30-18:30; Sa 09:00-15:30,Western Union,Q861042
0da1e72c29b0eb583865abeb89df861e,western_union,KONDENGUI,,Yaounde,CENTRE,,CM,(+237) 22658390,https://location.westernunion.com/cm/centre/yaounde/0da1e72c29b0eb583865abeb89df861e,Mo-Fr 07:30-18:30; Sa 09:00-15:30,Western Union,Q861042
ec4efbc32f449594692fbf22e6c21885,western_union,ECOBANK YAOUNDE,,Yaounde,CENTRE,,CM,(+237) 22-233500700,https://location.westernunion.com/cm/centre/yaounde/ec4efbc32f449594692fbf22e6c21885,Mo-Su 08:00-19:00,Western Union,Q861042
5fc17120c0c89240b69eb1306082538b,western_union,ADEC COOP CA EKOUNOU,,Yaounde,CENTRE,,CM,+237 6 90 08 00 33,https://location.westernunion.com/cm/centre/yaounde/5fc17120c0c89240b69eb1306082538b,Mo-Fr 08:00-17:00; Sa 09:00-14:00,Western Union,Q861042
9a95ba3a695f257b1ce6d322009ceab8,western_union,NFC HIPPODROME,,Yaounde,CENTRE,,CM,(+237) 22203310,https://location.westernunion.com/cm/centre/yaounde/9a95ba3a695f257b1ce6d322009ceab8,Mo 07:45-18:00; Tu-We 07:45-19:00; Th-Fr 07:45-18:00; Sa 07:45-14:00,Western Union,Q861042
0ff857621a5d36c34df532b42a582cd4,western_union,EU YDE MVOG ADA,,Yaounde,CENTRE,,CM,+237 6 91 14 11 43,https://location.westernunion.com/cm/centre/yaounde/0ff857621a5d36c34df532b42a582cd4,Mo-Sa 07:30-18:30,Western Union,Q861042
7de8944d03ebf348444c25396c4d0596,western_union,SCB YDE ESSOS,,Yaounde,CENTRE,,CM,+237 2 22 22 75 02,https://location.westernunion.com/cm/centre/yaounde/7de8944d03ebf348444c25396c4d0596,Mo 13:30-17:00; Tu-Fr 08:30-17:00; Sa 08:30-12:00,Western Union,Q861042
686ed90a55940f86425441f70f8c721f,western_union,SCB YDE ESSOS,,Yaounde,CENTRE,,CM,+237 2 22 22 75 02,https://location.westernunion.com/cm/centre/yaounde/686ed90a55940f86425441f70f8c721f,Mo 13:30-17:00; Tu-Fr 08:30-17:00; Sa 08:30-12:00,Western Union,Q861042
f25a3e39ed0e508bde05242b06832e3e,western_union,SCB YDE ESSOS,,Yaounde,CENTRE,,CM,+237 2 22 22 75 02,https://location.westernunion.com/cm/centre/yaounde/f25a3e39ed0e508bde05242b06832e3e,Mo 13:30-17:00; Tu-Fr 08:30-17:00; Sa 08:30-12:00,Western Union,Q861042
f592de2893dc8d5994ee24a1f695a1bd,western_union,EHI BITENG,,Yaounde,CENTRE,,CM,+237 6 96 17 35 61,https://location.westernunion.com/cm/centre/yaounde/f592de2893dc8d5994ee24a1f695a1bd,Mo-Sa 07:00-18:30,Western Union,Q861042
2d501aa34502b25b2692c14b286ba2d8,western_union,HESEQ SARL  ELIG EDZOA,,Yaounde,CENTRE,,CM,+237 6 78 09 47 40,https://location.westernunion.com/cm/centre/yaounde/2d501aa34502b25b2692c14b286ba2d8,Mo-Sa 08:00-17:00,Western Union,Q861042
d5d0aca5ba7528ffce45abd0db5fea85,western_union,BN AND M EMOMBO,,Yaounde,CENTRE,,CM,+237 6 94 97 00 31,https://location.westernunion.com/cm/centre/yaounde/d5d0aca5ba7528ffce45abd0db5fea85,Mo-Sa 08:00-17:00,Western Union,Q861042
5e0fd367011f8bf5c3b87a5c83d27667,western_union,EU YDE NKOMO,,Yaounde,CENTRE,,CM,+237 6 91 14 11 43,https://location.westernunion.com/cm/centre/yaounde/5e0fd367011f8bf5c3b87a5c83d27667,Mo-Sa 07:30-18:30,Western Union,Q861042
b2ca161b30dac68f4baed5d3da5c2862,western_union,NGOUSSO,,Yaounde,CENTRE,,CM,(+237) 22658390,https://location.westernunion.com/cm/centre/yaounde/b2ca161b30dac68f4baed5d3da5c2862,Mo-Fr 07:30-18:30; Sa 09:00-15:30,Western Union,Q861042
68db0bbd9ec9a3cb8afecee226437a23,western_union,EXPRESS EXCHANGE MBALLA 2,,Yaounde,CENTRE,,CM,+237 6 50 59 00 29,https://location.westernunion.com/cm/centre/yaounde/68db0bbd9ec9a3cb8afecee226437a23,Mo-Sa 07:30-17:00,Western Union,Q861042
d888ffc58470055241e078b60e13b8fd,western_union,EU YDE MBALLA II,,Yaounde,CENTRE,,CM,+237 6 91 14 11 43,https://location.westernunion.com/cm/centre/yaounde/d888ffc58470055241e078b60e13b8fd,Mo-Sa 07:30-18:30,Western Union,Q861042
ac954b16cd0346f26591ea13179b958c,western_union,RENAPROV NKOLETON,,Yaounde,CENTRE,,CM,+237 6 90 22 98 56,https://location.westernunion.com/cm/centre/yaounde/ac954b16cd0346f26591ea13179b958c,Mo-Fr 08:00-17:00; Sa 08:00-13:30,Western Union,Q861042
8e15fdb8b697cfaafc9e8ca603d61ede,western_union,CREDIT POPULAIRE EKOUNOU,,Yaounde,CENTRE,,CM,+237 6 70 15 99 67,https://location.westernunion.com/cm/centre/yaounde/8e15fdb8b697cfaafc9e8ca603d61ede,Mo-Fr 07:45-17:15; Sa 08:45-14:15,Western Union,Q861042
4b690f8ab103789519c6d7b3d045232f,western_union,UBA CMR MVOG ADA,,Yaounde,CENTRE,,CM,+237 2 33 50 67 82,https://location.westernunion.com/cm/centre/yaounde/4b690f8ab103789519c6d7b3d045232f,Mo-Fr 08:30-17:30; Sa 09:30-16:30,Western Union,Q861042
411a8db7f02408294684e8cb34e154c8,western_union,EU YDE AV GERMAINE,,Yaounde,CENTRE,,CM,+237 6 91 14 11 43,https://location.westernunion.com/cm/centre/yaounde/411a8db7f02408294684e8cb34e154c8,Mo-Sa 07:30-18:30,Western Union,Q861042
fec89550997814a763db11214501f6e4,western_union,EXPRESS EXCHANGE EKOUNOU,,Yaounde,CENTRE,,CM,+237 6 50 59 00 08,https://location.westernunion.com/cm/centre/yaounde/fec89550997814a763db11214501f6e4,Mo-Sa 08:00-17:30; Su 08:00-14:00,Western Union,Q861042
51515da96f0b3f94bb6722e236349819,western_union,YELLOW SHOP NFC MVOG ADA,,Yaounde,CENTRE,,CM,+237 2 22 20 28 23,https://location.westernunion.com/cm/centre/yaounde/51515da96f0b3f94bb6722e236349819,Mo-Fr 07:45-18:00; Sa 08:00-14:00,Western Union,Q861042
23d438c1f8b56ab99d117035464d80e0,western_union,SESAME NLONGKAK,,Yaounde,CENTRE,,CM,+237 6 70 03 45 45,https://location.westernunion.com/cm/centre/yaounde/23d438c1f8b56ab99d117035464d80e0,Mo-Fr 07:30-18:30; Sa 09:00-15:30; Su 09:30-12:30,Western Union,Q861042
9902954cb8761937e1f36a86839831d9,western_union,EU YDE BASTOS,,Yaounde,CENTRE,,CM,+237 6 91 14 11 43,https://location.westernunion.com/cm/centre/yaounde/9902954cb8761937e1f36a86839831d9,Mo-Sa 07:30-18:30,Western Union,Q861042
ced63267e56ae82a5a355448142e065c,western_union,EXCHANGE RATE NLONGKAK,,Yaounde,CENTRE,,CM,+237 6 77 24 03 80,https://location.westernunion.com/cm/centre/yaounde/ced63267e56ae82a5a355448142e065c,Mo-Fr 08:00-19:00; Sa 08:00-18:00; Su 08:00-14:00,Western Union,Q861042
cbf9f2c47b8ecb403b5c63a61ee956b0,western_union,EU YDE EKOUNOU,,Yaounde,CENTRE,,CM,+237 6 91 14 11 43,https://location.westernunion.com/cm/centre/yaounde/cbf9f2c47b8ecb403b5c63a61ee956b0,Mo-Sa 07:30-18:30,Western Union,Q861042
6c6cd33da80594abdee6c99763c10650,western_union,UFC EKOUNOU,,Yaounde,CENTRE,,CM,+237 2 22 30 57 31,https://location.westernunion.com/cm/centre/yaounde/6c6cd33da80594abdee6c99763c10650,Mo-Fr 08:00-18:00; Sa 09:00-14:00,Western Union,Q861042
b79de285e77434fec1ca255c58419ab6,western_union,EXPRESS EXCHANGE ELIG ESSONO,,Yaounde,CENTRE,,CM,+237 6 50 58 99 47,https://location.westernunion.com/cm/centre/yaounde/b79de285e77434fec1ca255c58419ab6,Mo-Sa 07:30-17:00,Western Union,Q861042
bd1f574289079890f4b143787aa899cf,western_union,U CASH EKOUNOU,,Yaounde,CENTRE,,CM,+237 2 43 59 59 52,https://location.westernunion.com/cm/centre/yaounde/bd1f574289079890f4b143787aa899cf,Mo-Su 08:00-19:00,Western Union,Q861042
d99ea09ae0a13fdb43949652c25adde2,western_union,PAN AFRICAN ETOUDI,,Yaounde,CENTRE,,CM,+237 6 79 52 67 04,https://location.westernunion.com/cm/centre/yaounde/d99ea09ae0a13fdb43949652c25adde2,Mo-Su 07:30-19:00,Western Union,Q861042
3e4599cd1a781ad248037c657587909f,western_union,MIGEC ETOUDI,,Yaounde,CENTRE,,CM,+237 6 50 53 23 96,https://location.westernunion.com/cm/centre/yaounde/3e4599cd1a781ad248037c657587909f,Mo-Fr 08:15-18:00; Sa 08:30-14:00,Western Union,Q861042
716ef8720fdbf5273d738569b5b35459,western_union,ETS LUXUGIENE MIMBOMAN,,Yaounde,CENTRE,,CM,+237 6 71 63 49 64,https://location.westernunion.com/cm/centre/yaounde/716ef8720fdbf5273d738569b5b35459,Mo-Fr 08:00-18:30; Sa 09:00-17:30,Western Union,Q861042
494b802c5b90821aa38651fd8af72e73,western_union,POLYCOM EMANA,,Yaounde,CENTRE,,CM,+237 6 94 92 16 84,https://location.westernunion.com/cm/centre/yaounde/494b802c5b90821aa38651fd8af72e73,Mo-Fr 08:00-18:00; Sa 08:00-15:30,Western Union,Q861042
a822e8a04454c78f952fa0b25b4be1bd,western_union,EU YDE ELIG ESSONO,,Yaounde,CENTRE,,CM,+237 6 91 14 11 43,https://location.westernunion.com/cm/centre/yaounde/a822e8a04454c78f952fa0b25b4be1bd,Mo-Sa 07:30-18:30,Western Union,Q861042
d24575370a2d4f174915a242ff66e86b,western_union,EXPRESS EXCHANGE NGOUSSO,,Yaounde,CENTRE,,CM,+237 6 50 59 00 41,https://location.westernunion.com/cm/centre/yaounde/d24575370a2d4f174915a242ff66e86b,Mo-Sa 07:30-17:00,Western Union,Q861042
d1d48ca206e61e09722f7cb0691f69cc,western_union,EMI MONEY EMOMBO,,Yaounde,CENTRE,,CM,+237 6 83 74 97 01,https://location.westernunion.com/cm/centre/yaounde/d1d48ca206e61e09722f7cb0691f69cc,Mo-Sa 07:30-17:30,Western Union,Q861042
f7496da63c9b05fbb146c1bd4f881cd5,western_union,ACEP BASTOS,,Yaounde,CENTRE,,CM,(+237) 2-219870,https://location.westernunion.com/cm/centre/yaounde/f7496da63c9b05fbb146c1bd4f881cd5,Mo-Sa 07:30-17:30,Western Union,Q861042
b4445f7ef2514f4828e793f742b13b32,western_union,WCA YAOUNDE ESSOS,,Essos,CENTRE,,CM,+237 6 83 76 36 00,https://location.westernunion.com/cm/centre/essos/b4445f7ef2514f4828e793f742b13b32,Mo-Fr 08:00-19:30; Sa 08:00-19:00,Western Union,Q861042
2633c7c94288384e840da28767a6cd83,western_union,EXPRESS EXCHANGE EMOMBO,,Yaounde,CENTRE,,CM,+237 6 50 58 94 96,https://location.westernunion.com/cm/centre/yaounde/2633c7c94288384e840da28767a6cd83,Mo-Sa 08:00-20:00,Western Union,Q861042
3b471545b4f342e1be0647ef29bba4c5,western_union,BICEC OMNISPORT,,Yaounde,CENTRE,,CM,(+237) 33-422909-4054,https://location.westernunion.com/cm/centre/yaounde/3b471545b4f342e1be0647ef29bba4c5,Mo-Sa 07:45-17:30,Western Union,Q861042
ff137bd6c6727c4eba78fb98ab8c0d0d,western_union,FIGEC EMOMBO,,Yaounde,CENTRE,,CM,+237 2 22 23 11 53,https://location.westernunion.com/cm/centre/yaounde/ff137bd6c6727c4eba78fb98ab8c0d0d,Mo-Fr 08:00-16:30; Sa 09:30-14:30,Western Union,Q861042
b179920132de05dc4b9890172c42426c,western_union,EU YDE EMOMBO,,Yaounde,CENTRE,,CM,+237 6 91 14 11 43,https://location.westernunion.com/cm/centre/yaounde/b179920132de05dc4b9890172c42426c,Mo-Sa 07:30-18:30,Western Union,Q861042
c5a11fdd5aa594fcf3b96577f880f39d,western_union,EMSI MANGUIER,,Yaounde,CENTRE,,CM,+237 6 77 60 19 08,https://location.westernunion.com/cm/centre/yaounde/c5a11fdd5aa594fcf3b96577f880f39d,Mo-Sa 08:00-17:30,Western Union,Q861042
e09393619b88081cb1372d461a235a20,western_union,IMT BITENG,,Yaounde,CENTRE,,CM,+237 6 73 16 29 11,https://location.westernunion.com/cm/centre/yaounde/e09393619b88081cb1372d461a235a20,Mo-Sa 08:00-17:30,Western Union,Q861042
fa3cfcd6882eacdd2065a454cd2f44fd,western_union,CREDIT POPULAIRE EMANA,,Yaounde,CENTRE,,CM,+237 2 33 40 69 12,https://location.westernunion.com/cm/centre/yaounde/fa3cfcd6882eacdd2065a454cd2f44fd,Mo-Fr 07:45-17:15; Sa 08:45-14:15,Western Union,Q861042
78a51e03795499c3c64c4e8e82c82964,western_union,EHI ETOUDI GENDARMERIE,,Yaounde,CENTRE,,CM,+237 6 97 85 15 83,https://location.westernunion.com/cm/centre/yaounde/78a51e03795499c3c64c4e8e82c82964,Mo-Sa 07:00-17:30,Western Union,Q861042
c50b07c25871111205d0b780b2325ba4,western_union,GRENAT,,Yaounde,CENTRE,,CM,+237 6 99 14 21 12,https://location.westernunion.com/cm/centre/yaounde/c50b07c25871111205d0b780b2325ba4,Mo-Fr 07:50-16:10; Sa 08:15-12:15,Western Union,Q861042
b0b4f5d30e6851befc7088cc9838eacf,western_union,MUFFA EMANA,,Yaounde,CENTRE,,CM,+237 6 99 50 56 76,https://location.westernunion.com/cm/centre/yaounde/b0b4f5d30e6851befc7088cc9838eacf,Mo-Fr 08:00-18:00; Sa 08:00-17:00,Western Union,Q861042
9043a0d7d6abe070c1592571e75dbab7,western_union,CECAW YAOUNDE ETOUDI,,Yaounde,CENTRE,,CM,+237 2 33 41 10 19,https://location.westernunion.com/cm/centre/yaounde/9043a0d7d6abe070c1592571e75dbab7,Mo-Fr 07:45-16:45; Sa 08:45-13:45,Western Union,Q861042
ba30356d6a512245cf162746b9297d0c,western_union,EU YDE ETOUDI,,Yaounde,CENTRE,,CM,+237 6 91 14 11 43,https://location.westernunion.com/cm/centre/yaounde/ba30356d6a512245cf162746b9297d0c,Mo-Sa 07:30-18:30,Western Union,Q861042
67c8a77538117e83b5e057919245ed37,western_union,EMI MONEY ETOUDI,,Yaounde,CENTRE,,CM,+237 6 83 74 79 02,https://location.westernunion.com/cm/centre/yaounde/67c8a77538117e83b5e057919245ed37,Mo-Sa 07:30-17:30; Su 08:00-15:00,Western Union,Q861042
4e36839797c90fae48d25febb3dd9e3f,western_union,EXPRESS EXCHANGE ETOUDI,,Yaounde,CENTRE,,CM,+237 6 50 79 02 28,https://location.westernunion.com/cm/centre/yaounde/4e36839797c90fae48d25febb3dd9e3f,Mo-Sa 08:00-20:00; Su 08:00-15:00,Western Union,Q861042
4cd31a39594ee974bf3206c495ba4d51,western_union,EU YDE BITENG,,Yaounde,CENTRE,,CM,+237 6 91 14 11 43,https://location.westernunion.com/cm/centre/yaounde/4cd31a39594ee974bf3206c495ba4d51,Mo-Sa 07:30-18:30,Western Union,Q861042
7241a0d0cba4c3578ea6aa75059256b9,western_union,MUFID UNION  UNION ETOUDI,,Yaounde,CENTRE,,CM,+237 6 79 26 75 02,https://location.westernunion.com/cm/centre/yaounde/7241a0d0cba4c3578ea6aa75059256b9,Mo-Fr 08:00-17:00; Sa 08:00-15:00,Western Union,Q861042
886133e19b61170f550c83943bf6c694,western_union,TRANSVAL ETOUDI,,Yaounde,CENTRE,,CM,+237 2 22 21 46 10,https://location.westernunion.com/cm/centre/yaounde/886133e19b61170f550c83943bf6c694,Mo-Fr 07:30-20:00; Sa 08:30-17:30,Western Union,Q861042
c4d1c77133b0d08a11f921117a49b5b5,western_union,MUFID UNION MFOU,,Mfou,CENTRE,,CM,+237 6 77 32 26 86,https://location.westernunion.com/cm/centre/mfou/c4d1c77133b0d08a11f921117a49b5b5,Mo-We 08:00-16:30; Th 10:00-16:30; Fr 08:00-16:30; Sa 08:00-13:30,Western Union,Q861042
8381aed56f87406dd96dfe021eb6a780,western_union,EU YDE ETOUDI SA,,Yaounde,CENTRE,,CM,+237 6 91 14 11 43,https://location.westernunion.com/cm/centre/yaounde/8381aed56f87406dd96dfe021eb6a780,Mo-Sa 07:30-18:30,Western Union,Q861042
9e31e30049de486539b28b122628a7d5,western_union,EU YDE ETOA MEKI,,Yaounde,CENTRE,,CM,+237 6 91 14 11 43,https://location.westernunion.com/cm/centre/yaounde/9e31e30049de486539b28b122628a7d5,Mo-Sa 07:30-18:30,Western Union,Q861042
2abc924e21b1a123e8f15084c39af697,western_union,EMI MONEY ETOAMEKI,,Yaounde,CENTRE,,CM,+237 6 83 74 97 33,https://location.westernunion.com/cm/centre/yaounde/2abc924e21b1a123e8f15084c39af697,Mo-Sa 07:30-17:30,Western Union,Q861042
c0879bb8af0b30fe209dcea1ef5ef476,western_union,EMI MONEY SARL,,Yaounde,CENTRE,,CM,+237 6 83 74 92 63,https://location.westernunion.com/cm/centre/yaounde/c0879bb8af0b30fe209dcea1ef5ef476,Mo-Sa 07:30-17:30,Western Union,Q861042
1e7c3afe8df7356b154d80eff5428dc2,western_union,EU YDE CARREFOUR AWAE,,Yaounde,CENTRE,,CM,+237 6 91 14 11 43,https://location.westernunion.com/cm/centre/yaounde/1e7c3afe8df7356b154d80eff5428dc2,Mo-Sa 07:30-18:30,Western Union,Q861042
3cd5e9075046c096a8fb49fd220709a0,western_union,TDGM MVOG ADA,,Yaounde,CENTRE,,CM,+237 6 90 93 99 98,https://location.westernunion.com/cm/centre/yaounde/3cd5e9075046c096a8fb49fd220709a0,Mo-Sa 08:30-17:00,Western Union,Q861042
0bd05175eb59006a502218e7079eb8cf,western_union,ETS LUXGIENE AWAE,,Yaounde,CENTRE,,CM,+237 6 71 63 49 64,https://location.westernunion.com/cm/centre/yaounde/0bd05175eb59006a502218e7079eb8cf,Mo-Fr 08:00-18:00; Sa 09:00-17:00,Western Union,Q861042
8b227361c70f8a57293abbe9b7e9329d,western_union,EU YDE KONDENGUI,,Yaounde,CENTRE,,CM,+237 6 91 14 11 43,https://location.westernunion.com/cm/centre/yaounde/8b227361c70f8a57293abbe9b7e9329d,Mo-Sa 07:30-18:30,Western Union,Q861042
65737968e080df1f6a9530bfc4a854de,western_union,NTARINKON NLONKAK YAOUNDE,,Yaounde,CENTRE,,CM,+237 6 77 27 95 70,https://location.westernunion.com/cm/centre/yaounde/65737968e080df1f6a9530bfc4a854de,Mo-Sa 08:00-18:00,Western Union,Q861042
25b9dcef62c7deb84543a5359a192910,western_union,ACTOS NLONGKACK,,Yaounde,CENTRE,,CM,+237 6 50 10 24 72,https://location.westernunion.com/cm/centre/yaounde/25b9dcef62c7deb84543a5359a192910,Mo-Fr 07:30-18:00; Sa 07:00-18:00; Su 07:30-18:30,Western Union,Q861042
e1e3ca5505b1e3a5b5cf31aaca7161c6,western_union,FEWADE EKOUNOU,,Yaounde,CENTRE,,CM,+237 6 54 31 19 21,https://location.westernunion.com/cm/centre/yaounde/e1e3ca5505b1e3a5b5cf31aaca7161c6,Mo-Fr 07:30-20:00; Sa 08:00-19:00,Western Union,Q861042
3a479f7c5b4354ee1761725c02bf274f,western_union,EU YDE ROND POINT NLONGKAK,,Yaounde,CENTRE,,CM,+237 6 91 14 11 43,https://location.westernunion.com/cm/centre/yaounde/3a479f7c5b4354ee1761725c02bf274f,Mo-Sa 07:30-18:30,Western Union,Q861042
a5556bbf5e4fa96950859c0c3532a8f0,western_union,BN AND M KONDENGUI,,Yaounde,CENTRE,,CM,+237 6 99 51 79 03,https://location.westernunion.com/cm/centre/yaounde/a5556bbf5e4fa96950859c0c3532a8f0,Mo-Sa 08:00-17:00,Western Union,Q861042
8128c91b8c6bd0a9604cb986177a7e1f,western_union,RENAPROV MFOU,,Mfou,CENTRE,,CM,+237 6 90 20 77 69,https://location.westernunion.com/cm/centre/mfou/8128c91b8c6bd0a9604cb986177a7e1f,Mo-Fr 08:00-17:00; Sa 08:00-13:30,Western Union,Q861042
61dba79b26835997176a15a680dd3522,western_union,ADVANS ESSOS,,Yaounde,CENTRE,,CM,+237 6 97 95 01 41,https://location.westernunion.com/cm/centre/yaounde/61dba79b26835997176a15a680dd3522,Mo-Fr 08:00-18:00; Sa 08:00-17:30,Western Union,Q861042
3195d739cbc25dd5c82ae10e1bae8847,western_union,ETS PICHON YAOUNDE OMNISPORT,,Yaounde,CENTRE,,CM,+237 6 52 34 02 83,https://location.westernunion.com/cm/centre/yaounde/3195d739cbc25dd5c82ae10e1bae8847,Mo-Sa 08:00-18:00,Western Union,Q861042
741ef726af26ef886b9ae370a53b4d51,western_union,HESEQ SARL EMANA,,Yaounde,CENTRE,,CM,+237 6 78 09 47 40,https://location.westernunion.com/cm/centre/yaounde/741ef726af26ef886b9ae370a53b4d51,Mo-Sa 08:00-17:00,Western Union,Q861042
c9e373e451e131779c1483bd6e0a37f4,western_union,RENAPROV MIMBOMAN,,Yaounde,CENTRE,,CM,+237 6 90 20 28 93,https://location.westernunion.com/cm/centre/yaounde/c9e373e451e131779c1483bd6e0a37f4,Mo-Fr 08:00-17:00; Sa 08:00-13:30,Western Union,Q861042
874afff7ff5961bf753a9a67d7a44c8b,western_union,U CASH PKF EMANA,,Yaounde,CENTRE,,CM,+237 6 94 40 38 28,https://location.westernunion.com/cm/centre/yaounde/874afff7ff5961bf753a9a67d7a44c8b,Mo-Su 08:00-19:00,Western Union,Q861042
825ef6ff582d976afe40fa1965aeb21e,western_union,UCASH NKOLFOULOU,,Yaounde,CENTRE,,CM,+237 6 99 52 59 35,https://location.westernunion.com/cm/centre/yaounde/825ef6ff582d976afe40fa1965aeb21e,Mo-Sa 08:00-18:00; Su 08:00-14:00,Western Union,Q861042
1d7ec36e72b1cc8e5e77cb181f533c5c,western_union,SOCEC EMANA,,Yaounde,CENTRE,,CM,(+237) 1-243818210,https://location.westernunion.com/cm/centre/yaounde/1d7ec36e72b1cc8e5e77cb181f533c5c,Mo-Fr 08:00-16:00; Sa 08:00-12:30,Western Union,Q861042
92b64897c080b707c87e0c9eb46dbc41,western_union,LA MEC EMANA,,Yaounde,CENTRE,,CM,+237 6 90 22 24 62,https://location.westernunion.com/cm/centre/yaounde/92b64897c080b707c87e0c9eb46dbc41,Mo-Sa 07:30-17:30,Western Union,Q861042
f1ac3c08e00d5e2b3373d09a9b64ba4a,western_union,DJ MNS ETOUDI,,Yaounde,CENTRE,,CM,+237 6 79 15 77 54,https://location.westernunion.com/cm/centre/yaounde/f1ac3c08e00d5e2b3373d09a9b64ba4a,Mo-Sa 07:00-17:30,Western Union,Q861042
83351ff1f8378a808682d4dfbf9c22e9,western_union,REG ETOUDI,,Yaounde,CENTRE,,CM,(+237) 77674407,https://location.westernunion.com/cm/centre/yaounde/83351ff1f8378a808682d4dfbf9c22e9,Mo-Fr 08:00-18:00; Sa 09:00-14:00,Western Union,Q861042
cff0740f07763699e1f32ab18981511d,western_union,EMI MONEY MBALLA 2,,Yaounde,CENTRE,,CM,+237 6 83 74 78 70,https://location.westernunion.com/cm/centre/yaounde/cff0740f07763699e1f32ab18981511d,Mo-Sa 07:30-17:30,Western Union,Q861042
30389816eacd1775f6a6a577a66f4566,western_union,TDGM ETOI MEKI,,Yaounde,CENTRE,,CM,+237 6 99 81 94 31,https://location.westernunion.com/cm/centre/yaounde/30389816eacd1775f6a6a577a66f4566,Mo-Fr 08:30-17:30; Sa 09:00-14:30,Western Union,Q861042
99e88dce3fa29cdc5bc301039a1d4fdf,western_union,CEC PROM MATURE FOUDA,,Yaounde,CENTRE,,CM,(+237) 22233120,https://location.westernunion.com/cm/centre/yaounde/99e88dce3fa29cdc5bc301039a1d4fdf,Mo-Sa 08:00-15:30,Western Union,Q861042
0314e9084cac1dce6f34dbb8bb727f18,western_union,EU YDE FOUDA,,Yaounde,CENTRE,,CM,+237 6 91 14 11 43,https://location.westernunion.com/cm/centre/yaounde/0314e9084cac1dce6f34dbb8bb727f18,Mo-Sa 07:30-18:30,Western Union,Q861042
a570528fa29ed52d0507327c9be18ae3,western_union,ETS CHARLY NLONGKAK,,Yaounde,CENTRE,,CM,+237 6 90 44 68 79,https://location.westernunion.com/cm/centre/yaounde/a570528fa29ed52d0507327c9be18ae3,Mo-Sa 08:00-17:00,Western Union,Q861042
8c344719f7d1a757551ad737fba63583,western_union,WCA NKOMO,,Yaounde,CENTRE,,CM,+237 6 81 43 47 90,https://location.westernunion.com/cm/centre/yaounde/8c344719f7d1a757551ad737fba63583,Mo-We 08:00-18:00; Th-Fr 08:00-19:00; Sa 08:30-19:00,Western Union,Q861042
0e2d28a85794cda9700c3f2a10246194,western_union,CAP FINANCE NGOUSSO,,Yaounde,CENTRE,,CM,+237 6 74 50 09 19,https://location.westernunion.com/cm/centre/yaounde/0e2d28a85794cda9700c3f2a10246194,Mo-Fr 07:00-17:00; Sa 08:30-16:30,Western Union,Q861042
1ee4e633f4c0af8c006a4d8adfd357b7,western_union,EHI KOMO,,Yaounde,CENTRE,,CM,+237 6 96 17 35 61,https://location.westernunion.com/cm/centre/yaounde/1ee4e633f4c0af8c006a4d8adfd357b7,Mo-Sa 08:00-18:30,Western Union,Q861042
07abe32ea4707e5a649d4449a7b07668,western_union,EHI MFOU YAOUNDE,,Yaounde,CENTRE,,CM,+237 6 91 92 16 03,https://location.westernunion.com/cm/centre/yaounde/07abe32ea4707e5a649d4449a7b07668,Mo-Sa 07:30-17:30,Western Union,Q861042
7eee65803dea829a685f417848f685b8,western_union,FIRST TRUST LONGKAK,,Yaounde,CENTRE,,CM,(+237) 22233418,https://location.westernunion.com/cm/centre/yaounde/7eee65803dea829a685f417848f685b8,Mo-Su 08:00-19:00,Western Union,Q861042
5a877dd1636b4185052a4733f498ebbe,western_union,FIRST TRUST MOKOLO,,Yaounde,CENTRE,,CM,(+237) 22315963,https://location.westernunion.com/cm/centre/yaounde/5a877dd1636b4185052a4733f498ebbe,Mo-Su 08:00-19:00,Western Union,Q861042
fd56840cd15760b2bea39c74110c4430,western_union,MUFFEDYC AWAE,,Yaounde,CENTRE,,CM,+237 6 50 55 54 84,https://location.westernunion.com/cm/centre/yaounde/fd56840cd15760b2bea39c74110c4430,Mo-Fr 08:00-16:30; Sa 08:00-13:30,Western Union,Q861042
c198d8dbd78f2fb6c49c385e7a0ae212,western_union,U CASH TITI GARAGE,,Yaounde,CENTRE,,CM,+237 2 43 59 59 52,https://location.westernunion.com/cm/centre/yaounde/c198d8dbd78f2fb6c49c385e7a0ae212,Mo-Su 08:00-19:00,Western Union,Q861042
1bb96fc8850286fe3cc9e841a281715d,western_union,EHI AWAE ESCALIER,,Yaounde,CENTRE,,CM,+237 6 93 72 20 87,https://location.westernunion.com/cm/centre/yaounde/1bb96fc8850286fe3cc9e841a281715d,Mo-Sa 08:00-18:00,Western Union,Q861042
12a823519e3054322831d8af9c3fb4ee,western_union,EMI MONEY MESSASSI,,Yaounde,CENTRE,,CM,+237 6 83 74 81 59,https://location.westernunion.com/cm/centre/yaounde/12a823519e3054322831d8af9c3fb4ee,Mo-Sa 07:30-17:30,Western Union,Q861042
857aeebe56f2bd2413cfbea85fdb1934,western_union,CBC MESSASSI,,Yaounde,CENTRE,,CM,+237 2 33 43 38 52,https://location.westernunion.com/cm/centre/yaounde/857aeebe56f2bd2413cfbea85fdb1934,Mo-Fr 08:00-17:00; Sa 08:00-15:00,Western Union,Q861042
f8ff8a20cb8ee6fa95883f02a076385f,western_union,ESSOS,,Yaounde,CENTRE,,CM,(+237) 22658390,https://location.westernunion.com/cm/centre/yaounde/f8ff8a20cb8ee6fa95883f02a076385f,Mo-Fr 07:30-18:30; Sa 09:00-15:30,Western Union,Q861042
ab7935ec5c921968b671394070f7408f,western_union,PAYCASH SANTA BARBARA,,Yaounde,CENTRE,,CM,+237 6 72 40 11 74,https://location.westernunion.com/cm/centre/yaounde/ab7935ec5c921968b671394070f7408f,Mo-Su 07:00-18:00,Western Union,Q861042
84dc7ba753153a70e8e5f0a16b3560d1,western_union,ETS LUXGIENE NGOUSSO,,Yaounde,CENTRE,,CM,+237 6 71 63 49 64,https://location.westernunion.com/cm/centre/yaounde/84dc7ba753153a70e8e5f0a16b3560d1,Mo-Sa 08:00-18:30,Western Union,Q861042
4842cd317a49485edfac4bc775794021,western_union,EXPRESS EXCHANGE MESSASSI,,Yaounde,CENTRE,,CM,+237 6 50 58 88 76,https://location.westernunion.com/cm/centre/yaounde/4842cd317a49485edfac4bc775794021,Mo-Sa 07:30-17:00,Western Union,Q861042
bb15372d733bfc6ac4687d3fc21acb1d,western_union,ETS LUXGIENE MESSASSI,,Yaounde,CENTRE,,CM,+237 6 71 63 49 64,https://location.westernunion.com/cm/centre/yaounde/bb15372d733bfc6ac4687d3fc21acb1d,Mo-Fr 08:00-18:00; Sa 09:00-17:00,Western Union,Q861042
0a4c450c7cdc1592213b288241bfcd36,western_union,AZICCUL ETOUDI,,Yaounde,CENTRE,,CM,(+237) 22202823,https://location.westernunion.com/cm/centre/yaounde/0a4c450c7cdc1592213b288241bfcd36,Mo-Sa 08:00-16:00,Western Union,Q861042
726b7893b1933bc3a924d2e66b3aa546,western_union,ADVANS MESSASSI,,Yaounde,CENTRE,,CM,+237 6 98 40 30 96,https://location.westernunion.com/cm/centre/yaounde/726b7893b1933bc3a924d2e66b3aa546,Mo-Fr 08:00-17:00; Sa 10:00-15:00,Western Union,Q861042
50be9d723df62416cc03b0b82106b85d,western_union,SOFINA ETOUDI,,Yaounde,CENTRE,,CM,(+237) 33021568,https://location.westernunion.com/cm/centre/yaounde/50be9d723df62416cc03b0b82106b85d,Mo-Fr 08:00-17:00; Sa 08:00-13:00,Western Union,Q861042
aa1b86611bf0e9620f035a2ac1f476a4,western_union,U CASH ETOUDI,,Yaounde,CENTRE,,CM,+237 2 43 59 59 62,https://location.westernunion.com/cm/centre/yaounde/aa1b86611bf0e9620f035a2ac1f476a4,Mo-Su 07:00-19:59,Western Union,Q861042
61a934e91017e442eb9576bd9eb24b83,western_union,CREDIT POPULAIRE ETOUDI,,Yaounde,CENTRE,,CM,+237 6 69 80 13 22,https://location.westernunion.com/cm/centre/yaounde/61a934e91017e442eb9576bd9eb24b83,Mo-Fr 07:30-17:30; Sa 08:30-14:30,Western Union,Q861042
412a59953b5c781366adfabab5f5770c,western_union,CCA FOUGEROLLE,,Yaounde,CENTRE,,CM,+237 2 22 23 39 02,https://location.westernunion.com/cm/centre/yaounde/412a59953b5c781366adfabab5f5770c,Mo-Sa 08:00-17:00,Western Union,Q861042
70da644974fd208e17fc7bbe91eba6e1,western_union,CAP FINANCE NKOABANG,,Yaounde,CENTRE,,CM,+237 6 91 11 65 72,https://location.westernunion.com/cm/centre/yaounde/70da644974fd208e17fc7bbe91eba6e1,Mo-Fr 07:00-17:00; Sa 08:30-16:30,Western Union,Q861042
a29ad15d10993115cbfa8a1ad2b07cbd,western_union,ATLC GROUP NKOABANG,,Yaounde,CENTRE,,CM,+237 6 98 51 81 84,https://location.westernunion.com/cm/centre/yaounde/a29ad15d10993115cbfa8a1ad2b07cbd,Mo-Sa 08:00-17:00,Western Union,Q861042
398b189aff9cf463556fa3ebd2598a68,western_union,EU NKOABANG,,Yaounde,CENTRE,,CM,+237 6 91 14 11 43,https://location.westernunion.com/cm/centre/yaounde/398b189aff9cf463556fa3ebd2598a68,Mo-Sa 07:30-18:30,Western Union,Q861042
de7c289f7cb8422eed9f2ef1e94b7a6c,western_union,HORIZON OLEMBE,,Yaounde,CENTRE,,CM,+237 6 99 14 30 04,https://location.westernunion.com/cm/centre/yaounde/de7c289f7cb8422eed9f2ef1e94b7a6c,Mo-Su 07:00-18:00,Western Union,Q861042
9ede7867b896be62f15fc60d067fe8d7,western_union,EXPRESS EXCHANGE NKOABANG,,Yaounde,CENTRE,,CM,+237 6 50 58 88 60,https://location.westernunion.com/cm/centre/yaounde/9ede7867b896be62f15fc60d067fe8d7,Mo-Sa 08:00-17:30,Western Union,Q861042
8c1765cc2e51fbc9dcd4f3b2d19780f6,western_union,OPTIMUM NKOABANG,,Yaounde,CENTRE,,CM,+237 2 22 23 40 19,https://location.westernunion.com/cm/centre/yaounde/8c1765cc2e51fbc9dcd4f3b2d19780f6,Mo-Fr 08:00-17:30; Sa 09:00-17:00,Western Union,Q861042
90ee354847d1d726446a2711b39f24b6,western_union,LA GAITE NKOABANG,,Yaounde,CENTRE,,CM,+237 6 99 95 11 76,https://location.westernunion.com/cm/centre/yaounde/90ee354847d1d726446a2711b39f24b6,Mo-Sa 08:00-18:00,Western Union,Q861042
f669102b2a4fe9fa8f5fda04c8e3cc65,western_union,CCA NKOABANG,,Yaounde,CENTRE,,CM,(+237) 221387-222221387,https://location.westernunion.com/cm/centre/yaounde/f669102b2a4fe9fa8f5fda04c8e3cc65,Mo-Sa 08:00-17:00,Western Union,Q861042
c26efa21462058e4c8fa6ab2b97141b1,western_union,EU YDE ELEVEUR,,Yaounde,CENTRE,,CM,+237 6 91 14 11 43,https://location.westernunion.com/cm/centre/yaounde/c26efa21462058e4c8fa6ab2b97141b1,Mo-Sa 07:30-18:30,Western Union,Q861042
88337eb179591834a8f47703ad41fd26,western_union,MUPECI YAOUNDE KOABANG,,Yaounde,CENTRE,,CM,+237 2 43 32 92 39,https://location.westernunion.com/cm/centre/yaounde/88337eb179591834a8f47703ad41fd26,Mo-Fr 07:30-18:30; Sa 07:30-14:30,Western Union,Q861042
110b5f0bd1a40b47d1e3ff6e29c37e76,western_union,EMSI NGOUSSO,,Yaounde,CENTRE,,CM,+237 6 77 60 19 08,https://location.westernunion.com/cm/centre/yaounde/110b5f0bd1a40b47d1e3ff6e29c37e76,Mo-Sa 08:00-17:30,Western Union,Q861042
721a19bc8db73f2557e40579f1cd8359,western_union,EU YDE HOPITAL GENERAL,,Yaounde,CENTRE,,CM,+237 6 91 14 11 43,https://location.westernunion.com/cm/centre/yaounde/721a19bc8db73f2557e40579f1cd8359,Mo-Sa 07:30-18:30,Western Union,Q861042
25f62953ee052c563c0454304fe31c44,western_union,EMI MONEY NGOUSSO,,Yaounde,CENTRE,,CM,+237 6 83 74 82 11,https://location.westernunion.com/cm/centre/yaounde/25f62953ee052c563c0454304fe31c44,Mo-Sa 07:30-17:30,Western Union,Q861042
155febebc16bb9188e4c9fb457cff3ce,western_union,MUFID UNION MEYOMESSALA,,Meyomessala,CENTRE,,CM,+237 2 22 47 42 40,https://location.westernunion.com/cm/centre/meyomessala/155febebc16bb9188e4c9fb457cff3ce,Mo-Fr 08:00-16:30; Sa 08:00-12:30,Western Union,Q861042
369c8b2dc79af757281f54eac618c2ea,western_union,EU SOA 3,,Soa,CENTRE,,CM,+237 6 91 14 11 43,https://location.westernunion.com/cm/centre/soa/369c8b2dc79af757281f54eac618c2ea,Mo-Sa 07:30-18:30,Western Union,Q861042
e5bc9535f5ad12d13bc01c7ebde751b1,western_union,EMI MONEY SOA,,Soa,CENTRE,,CM,+237 6 83 74 82 35,https://location.westernunion.com/cm/centre/soa/e5bc9535f5ad12d13bc01c7ebde751b1,Mo-Sa 07:30-17:30,Western Union,Q861042
5a9f9d77ca0c9816b590ff4deb07fcdc,western_union,AVS TELECOM YND SOA,,Yaounde,CENTRE,,CM,+237 6 94 55 60 10,https://location.westernunion.com/cm/centre/yaounde/5a9f9d77ca0c9816b590ff4deb07fcdc,Mo-Sa 08:00-17:00,Western Union,Q861042
fcc34c64651b0a546d3d25080f94aa61,western_union,EU SOA 1,,Soa,CENTRE,,CM,+237 6 91 14 11 43,https://location.westernunion.com/cm/centre/soa/fcc34c64651b0a546d3d25080f94aa61,Mo-Sa 07:30-18:30,Western Union,Q861042
f9a143d414ff66b983b293fa0de7d85d,western_union,HOP NKOMETOU,,Nkometou,CENTRE,,CM,+237 6 83 75 83 94,https://location.westernunion.com/cm/centre/nkometou/f9a143d414ff66b983b293fa0de7d85d,Mo-Sa 08:00-18:00,Western Union,Q861042
a1f80ed2c8765ffed23811f541f7fef2,western_union,EXPRESS EXCHANGE SOA,,Yaounde,CENTRE,,CM,+237 6 75 29 49 21,https://location.westernunion.com/cm/centre/yaounde/a1f80ed2c8765ffed23811f541f7fef2,Mo-Sa 07:30-17:00,Western Union,Q861042
b10e359d4967c747b13631b523a5455e,western_union,U CASH SOA,,Yaounde,CENTRE,,CM,+237 2 43 59 59 52,https://location.westernunion.com/cm/centre/yaounde/b10e359d4967c747b13631b523a5455e,Mo-Su 08:00-19:00,Western Union,Q861042
d52332ec2e441df7673f2c5fd76e7a8a,western_union,PAYCASH NKOLFOULOU,,Yaounde,CENTRE,,CM,+237 6 72 40 11 74,https://location.westernunion.com/cm/centre/yaounde/d52332ec2e441df7673f2c5fd76e7a8a,Mo-Su 07:00-18:00,Western Union,Q861042
c95fed555e567c6d60366b2a9ee2506d,western_union,MUFFA ANGOUNDA,,Yaounde,CENTRE,,CM,+237 6 99 50 56 76,https://location.westernunion.com/cm/centre/yaounde/c95fed555e567c6d60366b2a9ee2506d,Mo-Fr 08:00-18:00; Sa 08:00-17:00,Western Union,Q861042
ca4154c3a7f58e93206003faf2516fe5,western_union,NTARINKON NKOABANG,,Yaounde,CENTRE,,CM,+237 6 76 52 17 32,https://location.westernunion.com/cm/centre/yaounde/ca4154c3a7f58e93206003faf2516fe5,Mo-Fr 08:00-18:00; Sa 08:00-14:00,Western Union,Q861042
e4a70ade0197227f6097edf78ab50c9b,western_union,EHI FOUGEROL,,Yaounde,CENTRE,,CM,(+237) 65388067,https://location.westernunion.com/cm/centre/yaounde/e4a70ade0197227f6097edf78ab50c9b,Mo-Sa 07:00-17:30,Western Union,Q861042
692d13473ac09e7484956b3a5da5d632,western_union,EXPRESS EXCHANGE AKONOLINGA,,Akonolinga,CENTRE,,CM,+237 6 50 58 84 35,https://location.westernunion.com/cm/centre/akonolinga/692d13473ac09e7484956b3a5da5d632,Mo-Sa 08:00-17:30,Western Union,Q861042
0f18537c5e9683f7fd7d05bfba0d0f7c,western_union,EMI MONEY AKONOLINGA,,Akonolinga,CENTRE,,CM,+237 6 83 74 86 16,https://location.westernunion.com/cm/centre/akonolinga/0f18537c5e9683f7fd7d05bfba0d0f7c,Mo-Sa 07:30-17:30,Western Union,Q861042
81bf4f1996300029ce01075aa791f962,western_union,HOP MFOU,,Mfou,CENTRE,,CM,+237 6 83 75 34 19,https://location.westernunion.com/cm/centre/mfou/81bf4f1996300029ce01075aa791f962,Mo-Sa 08:00-17:30,Western Union,Q861042
508cccb5ce2c42ebf852630bbfc2a26a,western_union,CCA BAFIA,,Bafia,CENTRE,,CM,+237 2 22 28 55 69,https://location.westernunion.com/cm/centre/bafia/508cccb5ce2c42ebf852630bbfc2a26a,Mo-Sa 08:00-17:00,Western Union,Q861042
4a37d37344a485da0d288d3914bc1e81,western_union,EMI MONEY  OBALA,,Obala,CENTRE,,CM,+237 6 83 74 79 67,https://location.westernunion.com/cm/centre/obala/4a37d37344a485da0d288d3914bc1e81,Mo-Sa 07:30-17:30,Western Union,Q861042
949ec9286404e3f9c56e4635062933de,western_union,HOP OBALA,,Obala,CENTRE,,CM,+237 6 83 72 68 21,https://location.westernunion.com/cm/centre/obala/949ec9286404e3f9c56e4635062933de,Mo-Sa 08:00-18:00,Western Union,Q861042
d0976f8049c4258a9de870e706ce7815,western_union,EXPRESS EXCHANGE OBALA,,Obala,CENTRE,,CM,+237 6 50 58 87 78,https://location.westernunion.com/cm/centre/obala/d0976f8049c4258a9de870e706ce7815,Mo-Sa 08:00-17:30,Western Union,Q861042
d8d6e44f82edbc4d4f6960929dafdce2,western_union,EXPRESS EXCHANGE NANGA EBOKO,,Nanga Eboko,CENTRE,,CM,+237 6 50 58 84 37,https://location.westernunion.com/cm/centre/nanga-eboko/d8d6e44f82edbc4d4f6960929dafdce2,Mo-Sa 08:00-17:30,Western Union,Q861042
7a6b528b63266ad9532b0c63e29fb432,western_union,RENAPROV NANGA EBOKO,,Nanga Eboko,CENTRE,,CM,+237 6 90 20 08 93,https://location.westernunion.com/cm/centre/nanga-eboko/7a6b528b63266ad9532b0c63e29fb432,Mo-Fr 07:30-17:30; Sa 07:30-14:30,Western Union,Q861042
9f971eafcba0e63fa79d3a71e5a265d9,western_union,EXPRESS EXCHANGE AYOS,,Ayos,CENTRE,,CM,+237 6 70 42 75 36,https://location.westernunion.com/cm/centre/ayos/9f971eafcba0e63fa79d3a71e5a265d9,Mo-Sa 08:00-17:30,Western Union,Q861042
f40fa85e5ebbc4c82988fe0464cd9007,western_union,EMI MONEY NKOTENG,,Nkoteng,CENTRE,,CM,+237 6 83 74 79 57,https://location.westernunion.com/cm/centre/nkoteng/f40fa85e5ebbc4c82988fe0464cd9007,Mo-Sa 07:30-17:30,Western Union,Q861042
1293daec6d4b8b123966c1d5fadc4d71,western_union,EXPRESS EXCHANGE NKOTENG,,Nkoteng,CENTRE,,CM,+237 6 50 79 02 97,https://location.westernunion.com/cm/centre/nkoteng/1293daec6d4b8b123966c1d5fadc4d71,Mo-Sa 08:00-17:30,Western Union,Q861042
07364b2e5905c332ef3e92793f9b8842,western_union,RENAPROV NKOTENG,,Nkoteng,CENTRE,,CM,+237 6 90 70 57 92,https://location.westernunion.com/cm/centre/nkoteng/07364b2e5905c332ef3e92793f9b8842,Mo-Fr 07:30-17:30; Sa 08:00-12:30,Western Union,Q861042
d18ac3903f907de9ef83960234186468,western_union,EXPRESS EXCHANGE MBANDJOCK,,Mbandjock,CENTRE,,CM,+237 6 50 79 03 04,https://location.westernunion.com/cm/centre/mbandjock/d18ac3903f907de9ef83960234186468,Mo-Sa 08:00-17:30,Western Union,Q861042
5a8a160dfb1088c9dbeb316b1b0568f9,western_union,HOP NSIMEYONG,,Yaounde,CENTRE,,CM,+237 6 83 75 16 58,https://location.westernunion.com/cm/centre/yaounde/5a8a160dfb1088c9dbeb316b1b0568f9,Mo-Sa 08:00-18:00,Western Union,Q861042
6d8b6f8766f2b84323e296e02ba20d4b,western_union,HOP ETOUGBE,,Yaounde,CENTRE,,CM,+237 6 83 75 13 05,https://location.westernunion.com/cm/centre/yaounde/6d8b6f8766f2b84323e296e02ba20d4b,Mo-Sa 08:00-18:00,Western Union,Q861042
3b6a0e0d9a17b6b050fca691196b11a4,western_union,HOP ESSOMBA,,Yaounde,CENTRE,,CM,+237 6 83 75 90 33,https://location.westernunion.com/cm/centre/yaounde/3b6a0e0d9a17b6b050fca691196b11a4,Mo-Sa 08:00-18:00,Western Union,Q861042
