Ref,Spider,Name,Address,City,State,Zipcode,Country,Phone,Website,Hours,Brand,WikiData
72162866,moneygram,COPPEL TRANSMISORES - TUXPAN - GENARO RO,,TUXPAN,VC,,MX,+52 783 835 1178,,Mo-Sa 10:00-20:00; Su 09:00-18:00,MoneyGram,Q1944412
72639962,moneygram,BANCO AZTECA MEXICO - TUXPAN - SYR TUXPA,,TUXPAN,VC,,MX,+52 55 1720 8177,,Mo-Su 09:00-21:00,MoneyGram,Q1944412
72639807,moneygram,DINERO EXPRESS - TUXPAN - SYR TUXPAN VER,,TUXPAN,VC,,MX,+52 55 1720 8177,,Mo-Su 09:00-21:00,MoneyGram,Q1944412
72667785,moneygram,BANCO AZTECA MEXICO - TUXPAM DE RODRIGUE,,TUXPAM DE RODRIGUEZ CANO,VC,,MX,+52 55 1720 8177,,Mo-Su 09:00-21:00,MoneyGram,Q1944412
72667824,moneygram,BANCO AZTECA MEXICO - TUXPAM DE RODRIGUE,,TUXPAM DE RODRIGUEZ CANO,VC,,MX,+52 55 1720 8177,,Mo-Su 09:00-21:00,MoneyGram,Q1944412
72667879,moneygram,DINERO EXPRESS - TUXPAM DE RODRIGUEZ CAN,,TUXPAM DE RODRIGUEZ CANO,VC,,MX,+52 55 1720 8177,,Mo-Su 09:00-21:00,MoneyGram,Q1944412
72667918,moneygram,DINERO EXPRESS - TUXPAM DE RODRIGUEZ CAN,,TUXPAM DE RODRIGUEZ CANO,VC,,MX,+52 55 1720 8177,,Mo-Su 09:00-21:00,MoneyGram,Q1944412
72928327,moneygram,CADENA COMERCIAL OXXO SA DE CV - #10VCZ5,,TUXPAN DE RODRIGUEZ CANO,VC,,MX,+52 81 8389 2121,,Mo-Su 03:00-24:00,MoneyGram,Q1944412
73356299,moneygram,CAJA POPULAR MEX - #2310 - TUXPAN - MANG,,TUXPAN,VC,,MX,+52 782 824 7364,,Mo-Fr 09:00-16:00; Sa 09:00-14:00; Su 00:00-24:00,MoneyGram,Q1944412
72238606,moneygram,FARMACIAS DEL AHORRO - #1434 - TUXPAN -,,TUXPAN,VC,,MX,5253224320,,Mo-Su 07:00-23:00,MoneyGram,Q1944412
72238619,moneygram,FARMACIAS DEL AHORRO - #1435 - TUXPAN -,,TUXPAN,VC,,MX,5253224320,,Mo-Su 07:00-23:00,MoneyGram,Q1944412
72240869,moneygram,FARMACIAS DEL AHORRO - #1731 - TUXPAN -,,TUXPAN,VC,,MX,5253224320,,Mo-Su 07:00-23:00,MoneyGram,Q1944412
72241509,moneygram,FARMACIAS DEL AHORRO - #1849 - TUXPAN -,,TUXPAN,VC,,MX,5253224320,,Mo-Su 07:00-23:00,MoneyGram,Q1944412
73551010,moneygram,FARMACIAS DEL AHORRO - #2584 - F A POZA,,TUXPAN DE RODRIGUEZ CANO,VC,,MX,5253224320,,Mo-Su 07:00-23:00,MoneyGram,Q1944412
73770914,moneygram,BANCO AZTECA MEXICO - TUXPAM DE RODRIGUE,,TUXPAM DE RODRIGUEZ CANO,VC,,MX,+52 55 1720 8177,,Mo-Su 09:00-21:00,MoneyGram,Q1944412
69510285,moneygram,MODATELAS - #1188 - 278 MODATELAS TUXPAN,,TUXPAN,VC,,MX,+52 783 834 4657,,Mo-Su 08:00-20:00,MoneyGram,Q1944412
68813514,moneygram,DINERO EXPRESS - #8536 - TUXPAM DE RODRI,,TUXPAM DE RODRIGUEZ CANO,VC,,MX,+52 55 1720 8141,,Mo-Su 09:00-21:00,MoneyGram,Q1944412
68827076,moneygram,DINERO EXPRESS - #9543 - TUXPAM DE RODRI,,TUXPAM DE RODRIGUEZ CANO,VC,,MX,+52 55 1720 8141,,Mo-Su 09:00-21:00,MoneyGram,Q1944412
68831318,moneygram,DINERO EXPRESS - #5209 - TUXPAM DE RODRI,,TUXPAM DE RODRIGUEZ CANO,VC,,MX,+52 55 1720 8141,,Mo-Su 09:00-21:00,MoneyGram,Q1944412
70254844,moneygram,BANORTE - #BANORTE-02609 - TUXPAN BOULEV,,TUXPAN,VC,,MX,551018008334700,,Mo-Fr 08:30-16:00; Sa-Su 00:00-24:00,MoneyGram,Q1944412
74685545,moneygram,TIENDAS CHEDRAUI - #534 - SUPER CHE TUXP,,TUXPAN,VC,,MX,+52 800 733 3300,,Mo-Su 10:00-20:00,MoneyGram,Q1944412
70607475,moneygram,BODEGA - #3227 - TUXPAN - TUXPAN CENTRO,,TUXPAN,VC,,MX,+52 55 2629 6000,,Mo-Su 08:00-21:00,MoneyGram,Q1944412
70752537,moneygram,WALDOS - #4218 - TUXPAN - TUXPAN VERACRU,,TUXPAN,VC,,MX,5263180635,,Mo-Su 07:00-23:00,MoneyGram,Q1944412
71128461,moneygram,TELECOMM - #TELECOMM 30100 - TUXPAM - TU,,TUXPAM,VC,,MX,55118008334700,,Mo-Fr 09:00-18:30; Sa-Su 00:00-24:00,MoneyGram,Q1944412
71148360,moneygram,ELEKTRA - #8536 - TUXPAN - BA SYR TUXPAN,,TUXPAN,VC,,MX,+52 55 1720 7000,,Mo-Su 09:00-21:00,MoneyGram,Q1944412
71141998,moneygram,ELEKTRA - #5209 - TUXPAN - BA MEGA TUXPA,,TUXPAN,VC,,MX,+52 55 1720 7000,,Mo-Su 09:00-21:00,MoneyGram,Q1944412
43525429,moneygram,CAJA POPULAR MEX - #2305 - TUXPAM,,TUXPAM,VC,,MX,+52 783 834 7015,,Mo-Fr 09:00-16:00; Sa 09:00-14:00; Su 00:00-24:00,MoneyGram,Q1944412
68820293,moneygram,DINERO EXPRESS - #5399 - TUXPAM DE RODRI,,TUXPAM DE RODRIGUEZ CANO,VC,,MX,+52 55 1720 8141,,Mo-Su 09:00-21:00,MoneyGram,Q1944412
71345312,moneygram,OXXO - ALLENDE PAZ,,TUXPAN DE RODRIGUEZ CANO,VC,,MX,+52 81 8389 2121,,Mo-Su 03:00-24:00,MoneyGram,Q1944412
71395786,moneygram,OXXO - CABO ROJO PAZ,,TUXPAN DE RODRIGUEZ CANO,VC,,MX,+52 81 8389 2121,,Mo-Su 03:00-24:00,MoneyGram,Q1944412
71345817,moneygram,OXXO - PIPILA PAZ,,TUXPAN DE RODRIGUEZ CANO,VC,,MX,+52 81 8389 2121,,Mo-Su 03:00-24:00,MoneyGram,Q1944412
71395553,moneygram,OXXO - PRESIDENCIA PAZ,,TUXPAN DE RODRIGUEZ CANO,VC,,MX,+52 81 8389 2121,,Mo-Su 03:00-24:00,MoneyGram,Q1944412
71345529,moneygram,OXXO - TUXPAN CENTRO PAZ,,TUXPAN DE RODRIGUEZ CANO,VC,,MX,+52 81 8389 2121,,Mo-Su 03:00-24:00,MoneyGram,Q1944412
71345147,moneygram,OXXO - ZAPATA PAZ,,TUXPAN DE RODRIGUEZ CANO,VC,,MX,+52 81 8389 2121,,Mo-Su 03:00-24:00,MoneyGram,Q1944412
71823148,moneygram,CADENA COMERCIAL OXXO SA DE CV - #10VCZ5,,TUXPAN DE RODRIGUEZ CANO,VC,,MX,+52 81 8389 2121,,Mo-Su 03:00-24:00,MoneyGram,Q1944412
