Ref,Spider,Name,Address,City,State,Zipcode,Country,Phone,Website,Hours,Brand,WikiData
6145,autozone_us,AutoZone Auto Parts Barnhart,,Barnhart,MO,,US,+1 636-547-7070,https://www.autozone.com/locations/mo/barnhart/1704-catlin-dr.html,Mo-Sa 07:30-21:00; Su 08:00-21:00,AutoZone,Q4826087
142213,bluerhino,Karsch's Village Market #2273,,Barnhart,MO,,US,+1 636-223-2300,,,Blue Rhino,Q65681213
152303,bluerhino,Walgreens #7761,,Barnhart,MO,,US,+1 636-461-1347,,,Blue Rhino,Q65681213
197295,bluerhino,Eagle Mart,,Barnhart,MO,,US,+1 636-467-6666,,,Blue Rhino,Q65681213
88173,citi,ATM Walgreens,,Barnhart,MO,,US,,,,Citibank,Q857063
27134,h_r_block,H&R Block,,Barnhart,MO,,US,+1 636-464-3585,https://www.hrblock.com/local-tax-offices/missouri/barnhart/7095-c-metropolitan-blvd/27134/,,H&R Block,Q5627799
https://www.mercy.net/content/mercy/us/en/practice/barnhart/mercy-clinic-primary-care-barnhart.html,mercy,Mercy Clinic Primary Care - Barnhart,,Barnhart,MO,,US,+1 636-741-3233,https://www.mercy.net/practice/mercy-clinic-primary-care-barnhart,Mo-Fr 07:30-16:00,Mercy,Q30289045
0000866495,phillips_66_conoco_76,EXPRESS MART BARNHART,,BARNHART,MO,,US,+1 636-467-6666,,,Phillips 66,Q1656230
0000913425,phillips_66_conoco_76,DETAIL DRIVEN CAR WASH,,WENTZILLE,MO,,US,0000000000,,,Phillips 66,Q1656230
0000913976,phillips_66_conoco_76,EM BARNHART WEST 508,,BARNHART,MO,,US,+1 636-464-2665,,,Phillips 66,Q1656230
1354073,usps,BARNHART,,BARNHART,MO,,US,+1 636-464-3606,,"Mo-Fr 09:00-13:00,14:00-17:00; Sa 08:30-12:00",United States Postal Service,Q668687
6301200004,usps_collection_boxes,USPS COLLECTION BOX - PO LOBBY,1635 MARRIOTT LN,BARNHART,MO,,US,,,,United States Postal Service,Q668687
6301200005,usps_collection_boxes,USPS COLLECTION BOX - PO LOBBY,1635 MARRIOTT LN,BARNHART,MO,,US,,,,United States Postal Service,Q668687
6301200001,usps_collection_boxes,USPS COLLECTION BOX - BLUE BOX,1635 MARRIOTT LN,BARNHART,MO,,US,,,,United States Postal Service,Q668687
6301200006,usps_collection_boxes,USPS COLLECTION BOX - PO LOBBY,1635 MARRIOTT LN,BARNHART,MO,,US,,,,United States Postal Service,Q668687
,visa,,,BARNHART,MO,,US,,,,,
,visa,,,BARNHART,MO,,US,,,,,
,visa,,,BARNHART,MO,,US,,,,,
,visa,,,BARNHART,MO,,US,,,,,
,visa,,,BARNHART,MO,,US,,,,,
,visa,,,BARNHART,MO,,US,,,,,
,visa,,,BARNHART,MO,,US,,,,,
,visa,,,BARNHART,MO,,US,,,,,
,visa,,,BARNHART,MO,,US,,,,,
,visa,,,BARNHART,MO,,US,,,,,
,visa,,,BARNHART,MO,,US,,,,,
,visa,,,BARNHART,MO,,US,,,,,
,visa,,,BARNHART,MO,,US,,,,,
,visa,,,BARNHART,MO,,US,,,,,
https://www.walgreens.com/locator/walgreens-1718+catlin+dr-barnhart-mo-63012/id=7761,walgreens,Walgreens,,Barnhart,MO,,US,+1 636-461-1347,https://www.walgreens.com/locator/walgreens-1718+catlin+dr-barnhart-mo-63012/id=7761,Mo-Su 07:00-22:00,Walgreens,Q1591889
