Ref,Spider,Name,Address,City,State,Zipcode,Country,Phone,Website,Hours,Brand,WikiData
793,first_cash,First Cash Pawn,,Guadalajara,Jalisco,,MX,+52 33 3811 9629,,,First Cash Pawn,
,visa,,,GUADALAJARA,JALISCO,,MX,,,,,
,visa,,,GUADALAJARA,JALISCO,,MX,,,,,
,visa,,,GUADALAJARA,JALISCO,,MX,,,,,
483f4c3d8e8498fec0f6c7989bddc95e,western_union,OXXO CORDERO GDL,,Guadalajara,JALISCO,,MX,+52 81 8389 2121,https://location.westernunion.com/mx/jalisco/guadalajara/483f4c3d8e8498fec0f6c7989bddc95e,Mo-Su 06:00-22:00,Western Union,Q861042
a6c12bddde035e9d8679eb7dedbf8453,western_union,OXXO CORDERO GDL,,Guadalajara,JALISCO,,MX,+52 81 8389 2121,https://location.westernunion.com/mx/jalisco/guadalajara/a6c12bddde035e9d8679eb7dedbf8453,Mo-Su 06:00-22:00,Western Union,Q861042
69a58b7848f3661ef3db6f73f45baa65,western_union,OXXO CORDERO GDL,,Guadalajara,JALISCO,,MX,+52 81 8389 2121,https://location.westernunion.com/mx/jalisco/guadalajara/69a58b7848f3661ef3db6f73f45baa65,Mo-Su 06:00-22:00,Western Union,Q861042
41b66c8642c95b04ada60e299e1e380b,western_union,Caja Cerano - Guadalajara,,Guadalajara,JALISCO,,MX,+52 81 2133 2160,https://location.westernunion.com/mx/jalisco/guadalajara/41b66c8642c95b04ada60e299e1e380b,Mo-Fr 08:00-17:00; Sa 08:00-13:00,Western Union,Q861042
ce79e26a6382629567370ad6ded4d47e,western_union,Caja Cerano - Guadalajara,,Guadalajara,JALISCO,,MX,+52 81 2133 2160,https://location.westernunion.com/mx/jalisco/guadalajara/ce79e26a6382629567370ad6ded4d47e,Mo-Fr 08:00-17:00; Sa 08:00-13:00,Western Union,Q861042
347534945520ff0a6ec40ba5dfe627a0,western_union,Caja Cerano - Guadalajara,,Guadalajara,JALISCO,,MX,+52 81 2133 2160,https://location.westernunion.com/mx/jalisco/guadalajara/347534945520ff0a6ec40ba5dfe627a0,Mo-Fr 08:00-17:00; Sa 08:00-13:00,Western Union,Q861042
69fb94c6b1be64b18a45d5d985c1dfa9,western_union,CAJA OBLATOS - POLANCO,,Guadalajara,JALISCO,,MX,+52 81 2133 2160,https://location.westernunion.com/mx/jalisco/guadalajara/69fb94c6b1be64b18a45d5d985c1dfa9,Mo-Fr 08:00-17:00; Sa 08:00-14:00,Western Union,Q861042
0ec2ad6f8d9189ed806cfe9b13b39bf1,western_union,CAJA OBLATOS - POLANCO,,Guadalajara,JALISCO,,MX,+52 81 2133 2160,https://location.westernunion.com/mx/jalisco/guadalajara/0ec2ad6f8d9189ed806cfe9b13b39bf1,Mo-Fr 08:00-17:00; Sa 08:00-14:00,Western Union,Q861042
a5e3cc3b8e7f243e78ee83e1dd1ab376,western_union,CAJA OBLATOS - POLANCO,,Guadalajara,JALISCO,,MX,+52 81 2133 2160,https://location.westernunion.com/mx/jalisco/guadalajara/a5e3cc3b8e7f243e78ee83e1dd1ab376,Mo-Fr 08:00-17:00; Sa 08:00-14:00,Western Union,Q861042
b390982d2d1ced8efd262e663a4ee6be,western_union,FARM GUAD FRANCISCO DE  ORELLANA,,Guadalajara,JALISCO,,MX,+52 800 833 4700,https://location.westernunion.com/mx/jalisco/guadalajara/b390982d2d1ced8efd262e663a4ee6be,Mo-Su 08:00-22:00,Western Union,Q861042
26590bfe16a64b23be09cf7a3853057f,western_union,FARM GUAD FRANCISCO DE  ORELLANA,,Guadalajara,JALISCO,,MX,+52 800 833 4700,https://location.westernunion.com/mx/jalisco/guadalajara/26590bfe16a64b23be09cf7a3853057f,Mo-Su 08:00-22:00,Western Union,Q861042
5f48323e70375b7f1531ba922a7d1573,western_union,FARM GUAD FRANCISCO DE  ORELLANA,,Guadalajara,JALISCO,,MX,+52 800 833 4700,https://location.westernunion.com/mx/jalisco/guadalajara/5f48323e70375b7f1531ba922a7d1573,Mo-Su 08:00-22:00,Western Union,Q861042
645be28be6bf15fedf49beedf6e4b9d0,western_union,OXXO LOMAS DE POLANCO GDL,,Guadalajara,JALISCO,,MX,+52 81 8389 2121,https://location.westernunion.com/mx/jalisco/guadalajara/645be28be6bf15fedf49beedf6e4b9d0,Mo-Su 06:00-22:00,Western Union,Q861042
788accf9f12feea114f3cbf0314df75f,western_union,OXXO LOMAS DE POLANCO GDL,,Guadalajara,JALISCO,,MX,+52 81 8389 2121,https://location.westernunion.com/mx/jalisco/guadalajara/788accf9f12feea114f3cbf0314df75f,Mo-Su 06:00-22:00,Western Union,Q861042
6131b06b31badf2e37ae4dab2d9d3a12,western_union,OXXO LOMAS DE POLANCO GDL,,Guadalajara,JALISCO,,MX,+52 81 8389 2121,https://location.westernunion.com/mx/jalisco/guadalajara/6131b06b31badf2e37ae4dab2d9d3a12,Mo-Su 06:00-22:00,Western Union,Q861042
828fedbf0b14455c171d48df1b104013,western_union,FARM GUAD LOMAS DE POLANCO,,Guadalajara,JALISCO,,MX,+52 800 833 4700,https://location.westernunion.com/mx/jalisco/guadalajara/828fedbf0b14455c171d48df1b104013,Mo-Su 08:00-20:00,Western Union,Q861042
d0acf6887c2cacbf3308f193bedec6ee,western_union,FARM GUAD LOMAS DE POLANCO,,Guadalajara,JALISCO,,MX,+52 800 833 4700,https://location.westernunion.com/mx/jalisco/guadalajara/d0acf6887c2cacbf3308f193bedec6ee,Mo-Su 08:00-20:00,Western Union,Q861042
83a9d8e997b44e18d61646c0e31a5b4a,western_union,FARM GUAD LOMAS DE POLANCO,,Guadalajara,JALISCO,,MX,+52 800 833 4700,https://location.westernunion.com/mx/jalisco/guadalajara/83a9d8e997b44e18d61646c0e31a5b4a,Mo-Su 08:00-20:00,Western Union,Q861042
225fc11befcdd99ae496a246360f4993,western_union,ELEKTRA 4569,,Guadalajara,JALISCO,,MX,+52 55 1720 8177,https://location.westernunion.com/mx/jalisco/guadalajara/225fc11befcdd99ae496a246360f4993,Mo-Su 09:00-21:00,Western Union,Q861042
7457c4ad881dfd3f5c13738d279a1b41,western_union,ELEKTRA 4569,,Guadalajara,JALISCO,,MX,+52 55 1720 8177,https://location.westernunion.com/mx/jalisco/guadalajara/7457c4ad881dfd3f5c13738d279a1b41,Mo-Su 09:00-21:00,Western Union,Q861042
d7f233b7d81546d1877d4c59b3b36530,western_union,ELEKTRA 4569,,Guadalajara,JALISCO,,MX,+52 55 1720 8177,https://location.westernunion.com/mx/jalisco/guadalajara/d7f233b7d81546d1877d4c59b3b36530,Mo-Su 09:00-20:00,Western Union,Q861042
b90c339806db013cddd4df3dd65360af,western_union,MUEBLES AMERICA 8 AP CASH,,Guadalajara,JALISCO,,MX,+52 33 1201 6983,https://location.westernunion.com/mx/jalisco/guadalajara/b90c339806db013cddd4df3dd65360af,Mo-Su 09:30-20:30,Western Union,Q861042
541ac99257316cf52cb1c0eccf2f1064,western_union,MUEBLES AMERICA 8 AP CASH,,Guadalajara,JALISCO,,MX,+52 33 1201 6983,https://location.westernunion.com/mx/jalisco/guadalajara/541ac99257316cf52cb1c0eccf2f1064,Mo-Su 09:30-20:30,Western Union,Q861042
e8c6a9fe1eeb7abcacfd03b8a34c012c,western_union,BANCOPPEL 712 LOGINOS CADENA,,Guadalajara,JALISCO,,MX,+52 55 5699 8709,https://location.westernunion.com/mx/jalisco/guadalajara/e8c6a9fe1eeb7abcacfd03b8a34c012c,Mo-Sa 09:30-20:00; Su 10:00-16:00,Western Union,Q861042
eaf4eac5a9a19b2583e01f939af39e70,western_union,MAXI LANA 21 AP CASH,,Guadalajara,JALISCO,,MX,(+52) 33-1442408,https://location.westernunion.com/mx/jalisco/guadalajara/eaf4eac5a9a19b2583e01f939af39e70,Mo-Fr 08:45-19:00; Sa 09:00-17:00; Su 09:00-15:00,Western Union,Q861042
7f89eecce5f4a581d0233bab30bed196,western_union,MAXI LANA 21 AP CASH,,Guadalajara,JALISCO,,MX,(+52) 33-1442408,https://location.westernunion.com/mx/jalisco/guadalajara/7f89eecce5f4a581d0233bab30bed196,Mo-Fr 08:45-19:00; Sa 09:00-17:00; Su 09:00-15:00,Western Union,Q861042
d27da6427f840554af923a5febd0aef8,western_union,BANCOPPEL 712 LOGINOS CADENA,,Guadalajara,JALISCO,,MX,+52 55 5699 8709,https://location.westernunion.com/mx/jalisco/guadalajara/d27da6427f840554af923a5febd0aef8,Mo-Sa 09:30-20:00; Su 10:00-16:00,Western Union,Q861042
f50ed76ff054b9c79407c6be605ba414,western_union,BANCOPPEL 712 LOGINOS CADENA,,Guadalajara,JALISCO,,MX,+52 55 5699 8709,https://location.westernunion.com/mx/jalisco/guadalajara/f50ed76ff054b9c79407c6be605ba414,Mo-Sa 09:30-20:00; Su 10:00-16:00,Western Union,Q861042
97f1c46c8cc586b933f457713ecdbf0c,western_union,AURRERA EXPRESS LONGINOS CADENA 3310,,Guadalajara,JALISCO,,MX,+52 800 833 4700,https://location.westernunion.com/mx/jalisco/guadalajara/97f1c46c8cc586b933f457713ecdbf0c,Mo-Su 08:00-22:00,Western Union,Q861042
b1e064c4f1b80ef5c3cfe71fde4ebb07,western_union,AURRERA EXPRESS LONGINOS CADENA 3310,,Guadalajara,JALISCO,,MX,+52 800 833 4700,https://location.westernunion.com/mx/jalisco/guadalajara/b1e064c4f1b80ef5c3cfe71fde4ebb07,Mo-Su 08:00-22:00,Western Union,Q861042
6e18cfb8d83400a200697e8a1b797106,western_union,AURRERA EXPRESS LONGINOS CADENA 3310,,Guadalajara,JALISCO,,MX,+52 800 833 4700,https://location.westernunion.com/mx/jalisco/guadalajara/6e18cfb8d83400a200697e8a1b797106,Mo-Su 08:00-22:00,Western Union,Q861042
abf9bf5e8e9530a6313fa45c9de5a9cd,western_union,OXXO COLON LONGINOS GDL,,Guadalajara,JALISCO,,MX,+52 81 8389 2121,https://location.westernunion.com/mx/jalisco/guadalajara/abf9bf5e8e9530a6313fa45c9de5a9cd,Mo-Su 06:00-22:00,Western Union,Q861042
40d024dfc0fe694136c72ef906bc7da1,western_union,OXXO COLON LONGINOS GDL,,Guadalajara,JALISCO,,MX,+52 81 8389 2121,https://location.westernunion.com/mx/jalisco/guadalajara/40d024dfc0fe694136c72ef906bc7da1,Mo-Su 06:00-22:00,Western Union,Q861042
d106ae83ca6a92189ff690356755374b,western_union,OXXO COLON LONGINOS GDL,,Guadalajara,JALISCO,,MX,+52 81 8389 2121,https://location.westernunion.com/mx/jalisco/guadalajara/d106ae83ca6a92189ff690356755374b,Mo-Su 06:00-22:00,Western Union,Q861042
