Ref,Spider,Name,Address,City,State,Zipcode,Country,Phone,Website,Hours,Brand,WikiData
117643,bashas_us,Bashasâ€™ Supermarket: Main St & Paper Mill,650 N. MAIN,TAYLOR,AZ,,US,+1 928-536-2050,https://www.bashas.com/stores/bashas-supermarket-main-st-paper-mill/,,Bashas',Q4866786
187103,bluerhino,Speedway #3003,,Taylor,AZ,,US,+1 928-536-7792,,,Blue Rhino,Q65681213
238671,bluerhino,Circle K #2703498,,Taylor,AZ,,US,+1 928-536-5541,,,Blue Rhino,Q65681213
77878,citi,ATM Speedway,,Taylor,AZ,,US,,,,Citibank,Q857063
3878,dollartree,DollarTree,,Taylor,AZ,,US,+1 928-498-6001,,Mo-Sa 09:00-21:00; Su 09:00-20:00,Dollar Tree,Q5289230
az_taylor_716-n-main-street,pizza_hut_us,716 N. Main Street,,Taylor,AZ,,US,+1 928-536-2500,https://locations.pizzahut.com/az/taylor/716-n-main-street,,Pizza Hut,Q191615
2955,snap_fitness,"Taylor (Snowflake), AZ",704 N Main St,Taylor,AZ,,US,+1 928-457-2800,https://www.snapfitness.com/us/gyms/taylor-az-704-n-main-st,24/7,Snap Fitness,Q7547254
https://restaurants.subway.com/#14894198,subway,Subway,,Taylor Navajo,AZ,,US,+1 928-536-4749,https://restaurants.subway.com/united-states/az/taylor/745-north-main-st,Mo-Su 09:00-21:00,Subway,Q244457
https://locations.tacobell.com/#6142367,taco_bell,Taco Bell,,Taylor,AZ,,US,+1 928-536-4475,https://locations.tacobell.com/az/taylor/716-n--main-street.html,Mo-Th 08:00-23:00; Fr-Sa 08:00-24:00; Su 08:00-23:00,Taco Bell,Q752941
018453,uhaul,Chuck And Sons Auto And Diesel,102 N Main St,Taylor,AZ,,US,+1 928-457-0153,,Mo-Fr 00:00-15:00,U-Haul,Q7862902
052640,uhaul,Muffler Masters,610 S Main St,Taylor,AZ,,US,+1 928-536-5624,,Mo-Fr 00:00-16:00; Sa 00:00-13:00,U-Haul,Q7862902
1384327,usps,TAYLOR,,TAYLOR,AZ,,US,+1 928-536-7532,,Mo-Fr 08:30-16:30,United States Postal Service,Q668687
8593900002,usps_collection_boxes,USPS COLLECTION BOX - PO LOBBY,25 S MAIN ST,TAYLOR,AZ,,US,,,,United States Postal Service,Q668687
8593900001,usps_collection_boxes,USPS COLLECTION BOX - BLUE BOX,25 S MAIN ST,TAYLOR,AZ,,US,,,,United States Postal Service,Q668687
8593900003,usps_collection_boxes,USPS COLLECTION BOX - PO LOBBY,25 S MAIN ST,TAYLOR,AZ,,US,,,,United States Postal Service,Q668687
A00000235794,verizon_us,Victra Taylor N Main St,,TAYLOR,AZ,,US,+1 928-536-2221,https://www.verizon.com/stores/details/arizona/taylor/gowireless-taylor-n-main-st-1605922/,Mo-Sa 10:00-19:00; Su 10:00-17:00,Verizon,Q919641
,visa,,,TAYLOR,AZ,,US,,,,,
,visa,,,TAYLOR,AZ,,US,,,,,
,visa,,,TAYLOR,AZ,,US,,,,,
,visa,,,TAYLOR,AZ,,US,,,,,
732bb6204d32be8fc65ff9148beecae2,western_union,BASHAS #53,,Taylor,AZ,,US,+1 928-536-2050,https://location.westernunion.com/us/az/taylor/732bb6204d32be8fc65ff9148beecae2,Mo-Su 08:00-20:00,Western Union,Q861042
a8392f30a79e66fb6787c511cf028d73,western_union,7-ELEVEN/SPEEDWAY #43046,,Taylor,AZ,,US,+1 928-536-7792,https://location.westernunion.com/us/az/taylor/a8392f30a79e66fb6787c511cf028d73,,Western Union,Q861042
6e5d6c068cb75da19688bc18b9667b17,western_union,WALMART #004355,,Taylor,AZ,,US,+1 928-536-2543,https://location.westernunion.com/us/az/taylor/6e5d6c068cb75da19688bc18b9667b17,Mo-Su 07:00-21:00,Western Union,Q861042
