Ref,Spider,Name,Address,City,State,Zipcode,Country,Phone,Website,Hours,Brand,WikiData
AU-1177,anytime_fitness,Anytime Fitness,,St Kilda,VIC,,AU,+61 3 9534 2469,https://anytimefitness.com.au/gyms/au-1177/st-kilda-vic-3182/,,Anytime Fitness,Q4778364
91430523_UPL,australia_post_au,St Kilda Parcel Lockers,,ST KILDA,VIC,,AU,,,24/7,Australia Post,Q1142936
350385_DC,australia_post_au,ST KILDA DC,,ST KILDA,VIC,,AU,+61 131318,,,Australia Post,Q1142936
RED0008568,australia_post_au,,,ST KILDA,VIC,,AU,,,,Australia Post,Q1142936
RED0008561,australia_post_au,,,ST KILDA,VIC,,AU,,,,Australia Post,Q1142936
RED0008570,australia_post_au,,,ST KILDA,VIC,,AU,,,,Australia Post,Q1142936
RED0008564,australia_post_au,,,ST KILDA,VIC,,AU,,,,Australia Post,Q1142936
343505_PO,australia_post_au,ST KILDA SOUTH POST SHOP,,ST KILDA,VIC,,AU,+61 131318,,,Australia Post,Q1142936
RED0008572,australia_post_au,,,ST KILDA,VIC,,AU,,,,Australia Post,Q1142936
RED0008573,australia_post_au,,,ST KILDA,VIC,,AU,,,,Australia Post,Q1142936
RED0008571,australia_post_au,,,ST KILDA,VIC,,AU,,,,Australia Post,Q1142936
RED0008566,australia_post_au,,,ST KILDA,VIC,,AU,,,,Australia Post,Q1142936
RED0008563,australia_post_au,,,ST KILDA,VIC,,AU,,,,Australia Post,Q1142936
331862_PO,australia_post_au,ST KILDA WEST LPO,,ST KILDA,VIC,,AU,+61 131318,,,Australia Post,Q1142936
RED0008562,australia_post_au,,,ST KILDA,VIC,,AU,,,,Australia Post,Q1142936
RED0008565,australia_post_au,,,ST KILDA,VIC,,AU,,,,Australia Post,Q1142936
RED0008560,australia_post_au,,,ST KILDA,VIC,,AU,,,,Australia Post,Q1142936
RED0008567,australia_post_au,,,ST KILDA WEST,VIC,,AU,,,,Australia Post,Q1142936
21949736,bottlemart_au,Dick Whittington Tavern,,,VIC,,AU,+61 3 9525 4250,,,Bottlemart,Q102863175
24675,cellarbrations_au,CELLARBRATIONS AT ST KILDA CELLARS,,ST KILDA,VIC,,AU,+61 3 9525 3311,,Mo-Su 10:00-23:00,Cellarbrations,Q109807592
316903,commonwealth_bank_au,St Kilda,,St Kilda,VIC,,AU,,,,Commonwealth Bank,Q285328
316901,commonwealth_bank_au,St Kilda,,St Kilda,VIC,,AU,,,,Commonwealth Bank,Q285328
316902,commonwealth_bank_au,St Kilda,,St Kilda,VIC,,AU,,,,Commonwealth Bank,Q285328
316993,commonwealth_bank_au,Balaclava,,St Kilda,VIC,,AU,,,,Commonwealth Bank,Q285328
6171326,exxonmobil,7-Eleven St. Kilda,,St. Kilda,VIC,,AU,+61 3 9525 5737,https://www.mobil.com.au/en-au/find-station/mobil-stkilda-vic-stkilda-6171326,24/7,Mobil,Q109676002
/clubs/st-kilda/,fitness_first_au,St Kilda,,St Kilda,Vic,,AU,+61 3 9526 4500,https://www.fitnessfirst.com.au/clubs/st-kilda/,,Fitness First,Q127120
435,greencross_au,St Kilda,,St Kilda,VIC,,AU,+61 3 9988 0404,https://www.petbarn.com.au/store-finder/st-kilda,Mo-Th 08:30-18:00; Fr 08:30-19:00; Sa 08:30-17:00; Su 09:00-17:00,Petbarn,Q104746468
3002,kookai_au,ACLAND ST,,St Kilda,VIC,,AU,+61 3 9534 9230,,Mo-Sa 10:00-17:00; Su 11:00-17:00,Kookai,Q1783759
9500042,mcdonalds_qstore,ST KILDA VIC,,St Kilda,VIC,,AU,+61 3 9534 4655,,24/7,McDonald's,Q38076
https://www.mcgrath.com.au/offices/191-st-kilda,mcgrath_au,McGrath St Kilda,,St Kilda,VIC,,AU,+61 3 9527 5563,https://www.mcgrath.com.au/offices/191-st-kilda,Mo-Th 09:00-17:30; Fr 09:00-17:00,McGrath,Q105290661
1203,seven_eleven_au,Acland Street,,St Kilda,VIC,,AU,+61 3 8598 9622,,24/7,7-Eleven,Q259340
1022,seven_eleven_au,St. Kilda,,St. Kilda,VIC,,AU,+61 3 9534 5192,,24/7,7-Eleven,Q259340
1131,seven_eleven_au,St Kilda,,St Kilda,VIC,,AU,+61 3 9537 2094,,24/7,7-Eleven,Q259340
1326,seven_eleven_au,St. Kilda,,St. Kilda,VIC,,AU,+61 3 9525 5737,,24/7,7-Eleven,Q259340
10111430,shell,SHELL COLES EXPRESS ST KILDA,,ST KILDA,VIC,,AU,+61 3 9075 1270,https://find.shell.com/au/fuel/10111430-shell-coles-express-st-kilda,24/7,Shell,Q110716465
efe6454e-3e74-4610-8204-e9acac2b9380,thirsty_camel_au,Grosvenor Hotel,"10 Brighton Rd, St Kilda",,VIC,,AU,+61 3 9531 1542,https://www.thirstycamel.com.au/stores/grosvenor-hotel,Mo-Th 11:00-22:00; Fr-Sa 11:00-23:00; Su 11:00-22:00,Thirsty Camel,Q113503937
,visa,,,ST KILDA,VIC,,AU,,,,,
,visa,,,ST KILDA,VIC,,AU,,,,,
,visa,,,ST KILDA,VIC,,AU,,,,,
,visa,,,ST KILDA,VIC,,AU,,,,,
,visa,,,ST KILDA,VIC,,AU,,,,,
,visa,,,ST KILDA,VIC,,AU,,,,,
,visa,,,ST KILDA,VIC,,AU,,,,,
,visa,,,ST KILDA,VIC,,AU,,,,,
,visa,,,ST KILDA,VIC,,AU,,,,,
,visa,,,ST KILDA,VIC,,AU,,,,,
,visa,,,ST KILDA,VIC,,AU,,,,,
,visa,,,ST KILDA,VIC,,AU,,,,,
,visa,,,ST. KILDA,VIC,,AU,,,,,
,visa,,,ST KILDA,VIC,,AU,,,,,
,visa,,,ST KILDA,VIC,,AU,,,,,
,visa,,,ST KILDA,VIC,,AU,,,,,
,visa,,,ST KILDA,VIC,,AU,,,,,
90645d1a44cadf1d4fd75243c238a443,western_union,LIMRA GROCERIES,,St Kilda,VIC,,AU,+61 1800 501 500,https://location.westernunion.com/au/vic/st-kilda/90645d1a44cadf1d4fd75243c238a443,Mo-Su 10:30-23:30,Western Union,Q861042
34fb4e53036d54156fe36e002b7fd691,western_union,NESMAH MILKBAR,,St Kilda,VIC,,AU,+61 1800 501 500,https://location.westernunion.com/au/vic/st-kilda/34fb4e53036d54156fe36e002b7fd691,Mo-Su 09:00-18:00,Western Union,Q861042
c3dba9c7f55aa7c3c22ff0e42fa76cff,western_union,AUSTRALIA POST,,St Kilda,VIC,,AU,+61 1800 501 500,https://location.westernunion.com/au/vic/st-kilda/c3dba9c7f55aa7c3c22ff0e42fa76cff,Mo-Fr 09:00-17:00; Sa 09:00-12:30,Western Union,Q861042
