Ref,Spider,Name,Address,City,State,Zipcode,Country,Phone,Website,Hours,Brand,WikiData
DE002069,aldi_nord_de,ALDI Nord,,Wuppertal,Nordrhein-Westfalen,,DE,+49 800 7234870,,Mo-Sa 07:00-21:00,ALDI Nord,Q41171373
55185155,deichmann,DEICHMANN Filiale Wuppertal Wall 11,,Wuppertal,Nordrhein-Westfalen,,DE,+49 202 2442280,https://stores.deichmann.com/de-de/de/nordrhein-westfalen/wuppertal/wall-11,,Deichmann,Q664543
55186967,deichmann,DEICHMANN Filiale Wuppertal Alte Freiheit 9,,Wuppertal,Nordrhein-Westfalen,,DE,+49 202 31720790,https://stores.deichmann.com/de-de/de/nordrhein-westfalen/wuppertal/alte-freiheit-9,Mo-Sa 09:30-20:00,Deichmann,Q664543
6505825,dunkin_de,"Dunkin Wuppertal, Hauptbahnhof","Döppersberg 37, 42103 Wuppertal, Duitsland",Wuppertal,Nordrhein-Westfalen,,DE,,,Mo-Su 07:00-21:00,Dunkin',Q847743
DE0206,hm,City-Arkaden,,Wuppertal/Elberfeld,Nordrhein-Westfalen,,DE,+49 800 6655900,,Mo-Sa 09:30-20:00,H&M,Q188326
6128,netto_de,Netto Marken-Discount,,Wuppertal,Nordrhein-Westfalen,,DE,,https://www.netto-online.de/filialen/wuppertal/hofkamp-16/6128,Mo-Sa 07:00-22:00,Netto Marken-Discount,Q879858
https://www.obi.de/markt/wuppertal,obi_eu,Obi Markt Wuppertal,,Wuppertal,Nordrhein-Westfalen,,DE,+49 202 37380,https://www.obi.de/markt/wuppertal,Mo-Sa 08:00-20:00,OBI,Q300518
0014,santander_de,Santander,,Wuppertal,Nordrhein-Westfalen,,DE,+49 202 493980,,"Mo-Tu 09:00-13:00,14:00-18:00; We 09:00-13:00,14:00-16:00; Th 09:00-13:00,14:00-18:00; Fr 09:00-14:00",Santander,Q875292
WES,storebox,Storebox Wuppertal Elberfeld-Mitte,"Sophienstraße 26, 42103 Wuppertal, Deutschland ",Wuppertal,Nordrhein-Westfalen,,DE,,https://www.yourstorebox.com/en/location-details/storebox-wuppertal-elberfeld-mitte,,Storebox,Q117430004
WOH,storebox,Storebox Wuppertal Ostersbaum,"Hofkamp 137, 42103 Wuppertal, Deutschland ",Wuppertal,Nordrhein-Westfalen,,DE,,https://www.yourstorebox.com/en/location-details/storebox-wuppertal-ostersbaum,,Storebox,Q117430004
6518,tedi,TEDi GmbH & Co. KG,,Wuppertal,NORDRHEIN-WESTFALEN,,DE,+49 231 555770,https://www.tedi.com/stores/6518/de/NORDRHEIN-WESTFALEN/Wuppertal/Alte-Freiheit-26Doeppersberg-43,Mo-Sa 00:00-24:00,TEDi,Q1364603
4915,tedi,TEDi GmbH & Co. KG,,Wuppertal,NORDRHEIN-WESTFALEN,,DE,+49 231 555770,https://www.tedi.com/stores/4915/de/NORDRHEIN-WESTFALEN/Wuppertal/Elberfeld/Kipdorf-26,Mo-Sa 00:00-24:00,TEDi,Q1364603
,visa,,,WUPPERTAL,NORDRHEIN-WESTFALEN,,DE,,,,,
,visa,,,WUPPERTAL,NORDRHEIN-WESTFALEN,,DE,,,,,
,visa,,,WUPPERTAL,NORDRHEIN-WESTFALEN,,DE,,,,,
,visa,,,WUPPERTAL,NORDRHEIN-WESTFALEN,,DE,,,,,
,visa,,,WUPPERTAL,NORDRHEIN-WESTFALEN,,DE,,,,,
d1fad4e0009d14b9507b1e5fb3768224,western_union,KIOSK CRYSTAL,,Wuppertal,NORDRHEIN WESTFALEN,,DE,+49 176 62977343,https://location.westernunion.com/de/nordrhein-westfalen/wuppertal/d1fad4e0009d14b9507b1e5fb3768224,Mo-Fr 08:00-22:00; Sa 10:00-23:00; Su 11:00-19:00,Western Union,Q861042
e2b901538abde60fe5dc12f2150b75fe,western_union,MO PHONE,,Wuppertal,NORDRHEIN WESTFALEN,,DE,(+49) 00800-20010001,https://location.westernunion.com/de/nordrhein-westfalen/wuppertal/e2b901538abde60fe5dc12f2150b75fe,Mo-Sa 08:00-22:00,Western Union,Q861042
12ca68caa5953139c1dd71ce36949308,western_union,PTT WUPERTAL,,Wuppertal,NORDRHEIN WESTFALEN,,DE,+49 163 9058083,https://location.westernunion.com/de/nordrhein-westfalen/wuppertal/12ca68caa5953139c1dd71ce36949308,Mo-Fr 09:00-22:00; Sa 10:00-21:00,Western Union,Q861042
56b9e11f0ae043811411ca5f3469ed8e,western_union,REISEBANK AG,,Wuppertal,NORDRHEIN WESTFALEN,,DE,+49 30 609159730,https://location.westernunion.com/de/nordrhein-westfalen/wuppertal/56b9e11f0ae043811411ca5f3469ed8e,Mo-Sa 09:00-17:00,Western Union,Q861042
0d6f1322808abe71cdf8f9d1c8480226,western_union,REISEBANK AG,,Wuppertal,NORDRHEIN WESTFALEN,,DE,(+45) 30-609159730,https://location.westernunion.com/de/nordrhein-westfalen/wuppertal/0d6f1322808abe71cdf8f9d1c8480226,Mo-Fr 09:00-17:00; Sa 10:00-15:00,Western Union,Q861042
