Ref,Spider,Name,Address,City,State,Zipcode,Country,Phone,Website,Hours,Brand,WikiData
https://stores.advanceautoparts.com/ct/east-windsor/154-bridge-st,advance_auto_parts_us,Advance Auto Parts,,East Windsor,CT,,US,+1 860-292-5300,https://stores.advanceautoparts.com/ct/east-windsor/154-bridge-st,Mo-Sa 07:30-21:00; Su 09:00-20:00,Advance Auto Parts,Q4686051
166641,bluerhino,Big Y #60 - East Windsor,,East Windsor,CT,,US,+1 860-623-4000,,,Blue Rhino,Q65681213
8378,bluerhino,Walmart #2282,,East Windsor,CT,,US,+1 860-292-1235,,,Blue Rhino,Q65681213
143669,bluerhino,American Food Mart,,East Windsor,CT,,US,+1 860-623-6178,,,Blue Rhino,Q65681213
166775,bluerhino,American Food Mart,,East Windsor,CT,,US,+1 860-370-5108,,,Blue Rhino,Q65681213
6127,burgerking,Burger King,,East Windsor,CT,,US,+1 860-623-5027,https://www.bk.com/store-locator/store/restaurant_3476,Mo-Sa 06:00-00:00; Su 07:00-00:00,Burger King,Q177054
94461,citi,ATM Webster Bank,,East Windsor,CT,,US,,,,Citibank,Q857063
94494,citi,ATM Webster Bank,,East Windsor,CT,,US,,,,Citibank,Q857063
94495,citi,ATM Webster Bank,,East Windsor,CT,,US,,,,Citibank,Q857063
26827,citi,ATM 7ELEVEN-FCTI,,East Windsor,CT,,US,,,,Citibank,Q857063
ATM-1928,citizens_us,,,East Windsor,CT,,US,,,,Citizens,Q5122694
521517,cumberland_farms_us,Cumberland Farms,,East Windsor,CT,,US,+1 860-623-0016,https://www.cumberlandfarms.com/find-us/generic-store-page/?id=004783,,Cumberland Farms,Q1143685
357764,dunkin_us,Dunkin',,East Windsor,CT,,US,+1 860-386-6613,https://locations.dunkindonuts.com/en/ct/east-windsor/76-north-rd/357764,24/7,Dunkin',Q847743
342510,dunkin_us,Dunkin',,East Windsor,CT,,US,+1 860-903-1013,https://locations.dunkindonuts.com/en/ct/east-windsor/216-south-main-st/342510,Mo-Sa 05:00-19:00; Su 06:00-18:00,Dunkin',Q847743
343310,dunkin_us,Dunkin',,East Windsor,CT,,US,+1 860-292-6754,https://locations.dunkindonuts.com/en/ct/east-windsor/17-north-rd/343310,Mo-Su 05:00-20:00,Dunkin',Q847743
331432,dunkin_us,Dunkin',,East Windsor,CT,,US,+1 860-623-2522,https://locations.dunkindonuts.com/en/ct/east-windsor/172-bridge-st/331432,Mo-Sa 04:00-18:00; Su 05:00-18:00,Dunkin',Q847743
306804,dunkin_us,Dunkin',,East Windsor,CT,,US,+1 860-783-8958,https://locations.dunkindonuts.com/en/ct/east-windsor/1-thompson-rd/306804,24/7,Dunkin',Q847743
https://www.edwardjones.com/us-en/financial-advisor/derek-lussier,edwardjones,Derek R Lussier,,East Windsor,CT,,US,+1 860-758-7793,https://www.edwardjones.com/us-en/financial-advisor/derek-lussier,Mo-Fr 08:30-17:00,Edward Jones,Q5343830
521517,eg_america_us,Cumberland Farms,,East Windsor,CT,,US,+1 860-623-0016,https://www.cumberlandfarms.com/find-us/generic-store-page/?id=004783,,Cumberland Farms,Q1143685
7667,h_r_block,H&R Block,,East Windsor,CT,,US,+1 860-623-2894,https://www.hrblock.com/local-tax-offices/connecticut/east-windsor/sophia/7667/,,H&R Block,Q5627799
Geissler's IGA - East Windsor - #2201,iga,Geissler's IGA - East Windsor - #2201,"100 Bridge Street, East Windsor, CT, 06088",East Windsor,CT,,US,+1 860-583-9177,http://www.geisslers.com,,IGA,Q3146662
https://office.jacksonhewitt.com/#27575834,jackson_hewitt,Jackson Hewitt,,East Windsor,CT,,US,+1 860-261-9016,https://office.jacksonhewitt.com/tax-preparation-services-locations/en/ct/east-windsor/44-prospect-hill-road/52282,Mo-Sa 11:00-19:00; Su 12:00-16:00,Jackson Hewitt,Q6117132
https://locations.kfc.com/#1021948298,kfc,Chicken Nuggets Near East Windsor,,East Windsor,CT,,US,,https://locations.kfc.com/ct/east-windsor/41-prospect-hill-rd-29318/chickennugget,Mo-Th 10:00-24:00; Fr-Sa 10:00-01:00; Su 10:00-24:00,KFC,Q524757
https://locations.kfc.com/#11250498,kfc,Chicken Nuggets Near East Windsor,,East Windsor,CT,,US,,https://locations.kfc.com/ct/east-windsor/41-prospect-hill-rd-029318/chickennugget,Mo-Th 10:00-23:00; Fr-Sa 10:00-24:00; Su 10:00-23:00,KFC,Q524757
https://locations.mtb.com/#15636653,mt_bank_us,M&T Bank,,,CT,,US,+1 860-291-3738,https://locations.mtb.com/ct/eastwindsor/bank-branches-and-atms-east-windsor-ct-8357.html,Mo-Th 09:00-17:00; Fr 09:00-18:00; Sa 09:00-12:00,M&T Bank,Q3272257
090110,penske,Penske Hartford,,EAST WINDSOR,CT,,US,+1 860-623-0034,https://www.pensketruckrental.com/locations/us/connecticut/east_windsor/090110/,,Penske,Q81234570
ct_east-windsor_137-prospect-hill-rd,pizza_hut_us,137 Prospect Hill Rd,,East Windsor,CT,,US,,https://locations.pizzahut.com/ct/east-windsor/137-prospect-hill-rd,,Pizza Hut,Q191615
32946,seven_eleven_ca_us,7-Eleven Store,,East Windsor,CT,,US,+1 860-292-6897,https://www.7-eleven.com/locations/ct/east-windsor/183-south-main-32946,,7-Eleven,Q259340
6881250,soapy_noble_us,Noble Fueling Station & Soapy Noble Express Car Wash,"76 N Rd, East Windsor, CT 06088, USA",East Windsor,CT,,US,,,,Soapy Noble,Q117237115
https://restaurants.subway.com/#14903367,subway,Subway Sofia's Plaza I,,East Windsor Hartford,CT,,US,+1 860-627-0777,https://restaurants.subway.com/united-states/ct/east-windsor/2-north-rd,Mo-Su 08:30-21:30,Subway,Q244457
https://restaurants.subway.com/#14903726,subway,Subway Wal-Mart #2282,,East Windsor Hartford,CT,,US,+1 860-627-3622,https://restaurants.subway.com/united-states/ct/east-windsor/44-prospect-hill-rd,Mo-Su 08:30-21:30,Subway,Q244457
0374556904,sunoco_us,Sunoco,,EAST WINDSOR,CT,,US,,,,Sunoco,Q1423218
https://locations.tacobell.com/#6143711,taco_bell,Taco Bell,,East Windsor,CT,,US,+1 860-623-0647,https://locations.tacobell.com/ct/east-windsor/41-prospect-hill-rd-.html,Mo-Th 09:00-24:00; Fr-Sa 09:00-01:00; Su 09:00-24:00,Taco Bell,Q752941
4FSI,tmobile_us,Prospect Hill Rd & Bridge St,,East Windsor,CT,,US,+1 860-903-1400,https://www.t-mobile.com/store-locator/ct/east-windsor/prospect-hill-rd-bridge-st,,T-Mobile,Q3511885
005332,uhaul,East Windsor Auto,17 S Main St,East Windsor,CT,,US,+1 860-254-7093,,Mo-Fr 00:00-17:00; Sa 00:00-14:00,U-Haul,Q7862902
1361892,usps,EAST WINDSOR,,EAST WINDSOR,CT,,US,+1 860-623-7374,,Mo-Fr 08:00-17:00; Sa 09:00-12:00,United States Postal Service,Q668687
0608800001,usps_collection_boxes,USPS COLLECTION BOX - BLUE BOX,78 BRIDGE ST,EAST  WINDSOR,CT,,US,,,,United States Postal Service,Q668687
0608800002,usps_collection_boxes,USPS COLLECTION BOX - BLUE BOX,1 THOMPSON RD,EAST  WINDSOR,CT,,US,,,,United States Postal Service,Q668687
0608800008,usps_collection_boxes,USPS COLLECTION BOX - PO LOBBY,78 BRIDGE ST,EAST  WINDSOR,CT,,US,,,,United States Postal Service,Q668687
0608800009,usps_collection_boxes,USPS COLLECTION BOX - PO LOBBY,78 BRIDGE ST,EAST  WINDSOR,CT,,US,,,,United States Postal Service,Q668687
0608800003,usps_collection_boxes,USPS COLLECTION BOX - BLUE BOX,1 HARTFIELD BLVD,EAST  WINDSOR,CT,,US,,,,United States Postal Service,Q668687
,visa,,,EAST WINDSOR,CT,,US,,,,,
,visa,,,EAST WINDSOR,CT,,US,,,,,
,visa,,,EAST WINDSOR,CT,,US,,,,,
,visa,,,EAST WINDSOR,CT,,US,,,,,
,visa,,,EAST WINDSOR,CT,,US,,,,,
https://locations.wendys.com/#9252111,wendys,"Wendy's East Windsor in East Windsor, CT",,East Windsor,CT,,US,+1 860-640-2773,https://locations.wendys.com/united-states/ct/east-windsor/45-prospect-hill-road,"Mo-Su 06:30-10:30,06:30-22:00",Wendy's,Q550258
9749616771386bf05b7942b21be7e7d0,western_union,WALMART #002282,,East Windsor,CT,,US,+1 860-292-1235,https://location.westernunion.com/us/ct/east-windsor/9749616771386bf05b7942b21be7e7d0,Mo-Su 07:00-21:00,Western Union,Q861042
