Ref,Spider,Name,Address,City,State,Zipcode,Country,Phone,Website,Hours,Brand,WikiData
https://awrestaurants.com/locations/oklahoma/tonkawa/16401-west-south-ave/,awrestaurants,A&W Restaurant,,Tonkawa,OK,,US,+1 580-308-6105,https://awrestaurants.com/locations/oklahoma/tonkawa/16401-west-south-ave/,Mo-Sa 07:00-22:00; Su 07:00-21:00,A&W Restaurants,Q277641
59330,bluerhino,Love's #213,,Tonkawa,OK,,US,+1 580-628-5335,,,Blue Rhino,Q65681213
139079,bluerhino,Moore's Venture Foods #1582,,Tonkawa,OK,,US,+1 580-628-2534,,,Blue Rhino,Q65681213
60473,citi,ATM Jiffy Trip,,Tonkawa,OK,,US,,,,Citibank,Q857063
364185,dunkin_us,Dunkin',,Tonkawa,OK,,US,+1 580-225-2561,https://locations.dunkindonuts.com/en/ok/tonkawa/16700-west-south-avenue/364185,24/7,Dunkin',Q847743
https://office.jacksonhewitt.com/#27575571,jackson_hewitt,Jackson Hewitt,,Tonkawa,OK,,US,+1 580-332-1040,https://office.jacksonhewitt.com/tax-preparation-services-locations/en/ok/tonkawa/104-n-7th-street/18014,Mo-Fr 09:00-17:00; Sa 10:00-17:00,Jackson Hewitt,Q6117132
213,loves,Site 213,,Tonkawa,OK,,US,+1 580-628-5335,,,Love's,Q1872496
https://locations.papajohns.com/#10690628,papa_johns,Papa John's,,Tonkawa,OK,,US,+1 580-308-6111,https://locations.papajohns.com/united-states/ok/74653/tonkawa/16401-west-south-ave,Mo-Sa 11:00-22:00; Su 11:00-21:00,Papa John's Pizza,Q2759586
1004,pilot_flyingj,Pilot Travel Center,,Tonkawa,OK,,US,+1 580-628-2934,https://locations.pilotflyingj.com/us/ok/tonkawa/16600-west-south-avenue,,Pilot,Q7194412
1021,roadys_us,Tonkawa Trading Post,,Tonkawa,OK,,US,+1 580-308-6102,,24/7,Roadyâ€™s Truck Stops,Q7339701
https://restaurants.subway.com/#14983926,subway,"Subway Love's Travel Stop, #213",,Tonkawa Kay,OK,,US,+1 580-628-5335,https://restaurants.subway.com/united-states/ok/tonkawa/16501-w-fountain-rd,,Subway,Q244457
https://locations.tacobell.com/#17283400,taco_bell,Taco Bell,,Tonkawa,OK,,US,+1 580-628-2937,https://locations.tacobell.com/ok/tonkawa/16600-w-south-ave.html,,Taco Bell,Q752941
0451,travelcenters_of_america_us,TA Express Tonkawa #0451,,Tonkawa,OK,,US,+1 580-225-2561,https://www.ta-petro.com/location/ok/ta-express-tonkawa/,,TA Express,Q7835892
1384811,usps,TONKAWA,,TONKAWA,OK,,US,+1 580-628-3174,,Mo-Fr 08:30-16:00,United States Postal Service,Q668687
7465300005,usps_collection_boxes,USPS COLLECTION BOX - BLUE BOX,16501 W FOUNTAIN RD,TONKAWA,OK,,US,,,,United States Postal Service,Q668687
7465300011,usps_collection_boxes,USPS COLLECTION BOX - PO LOBBY,207 E TONKAWA AVE,TONKAWA,OK,,US,,,,United States Postal Service,Q668687
7465300010,usps_collection_boxes,USPS COLLECTION BOX - PO LOBBY,207 E TONKAWA AVE,TONKAWA,OK,,US,,,,United States Postal Service,Q668687
7465300002,usps_collection_boxes,USPS COLLECTION BOX - BLUE BOX,120 N 6TH STREET,TONKAWA,OK,,US,,,,United States Postal Service,Q668687
7465300000,usps_collection_boxes,USPS COLLECTION BOX - BLUE BOX,1315 N MAIN ST,TONKAWA,OK,,US,,,,United States Postal Service,Q668687
,visa,,,TONKAWA,OK,,US,,,,,
,visa,,,TONKAWA,OK,,US,,,,,
,visa,,,TONKAWA,OK,,US,,,,,
,visa,,,TONKAWA,OK,,US,,,,,
,visa,,,TONKAWA,OK,,US,,,,,
,visa,,,TONKAWA,OK,,US,,,,,
,visa,,,TONKAWA,OK,,US,,,,,
,visa,,,TONKAWA,OK,,US,,,,,
,visa,,,TONKAWA,OK,,US,,,,,
,visa,,,TONKAWA,OK,,US,,,,,
,visa,,,TONKAWA,OK,,US,,,,,
,visa,,,PAULS VALLEY,OK,,US,,,,,
