Ref,Spider,Name,Address,City,State,Zipcode,Country,Phone,Website,Hours,Brand,WikiData
https://stores.advanceautoparts.com/nc/kinston/411-e-new-bern-rd,advance_auto_parts_us,Advance Auto Parts,,Kinston,NC,,US,+1 252-523-8080,https://stores.advanceautoparts.com/nc/kinston/411-e-new-bern-rd,Mo-Sa 07:30-21:00; Su 09:00-20:00,Advance Auto Parts,Q4686051
https://stores.aldi.us/#4420922,aldi_sud_us,ALDI  4120 W. Vernon Ave.,,Kinston,NC,,US,+1 833-480-1094,https://stores.aldi.us/nc/kinston/4120-w-vernon-ave,"Mo-Su 08:00-20:00,09:00-20:00",ALDI,Q41171672
1100 Hardee Road,allied_universal,Allied Universal,,Kinston,NC,,US,+1 252-522-2911,https://www.aus.com/kinston-security-systems-services,,Allied Universal,Q4732537
https://locations.arbys.com/nc/kinston/4173-w-vernon-ave.html,arbys_us,"Arby's Fast-Food Drive Through Near You in Kinston, NC",,Kinston,NC,,US,+1 252-527-1085,https://locations.arbys.com/nc/kinston/4173-w-vernon-ave.html,Mo-Th 10:00-23:00; Fr-Sa 10:00-24:00; Su 10:00-23:00,Arby's,Q630866
15553,asics_us,Hibbett Sports,834 Hardee Road,Kinston,NC,,US,+1 252-522-1278,,,asics,Q327247
4977,autozone_us,AutoZone Auto Parts Kinston,,Kinston,NC,,US,+1 252-208-1416,https://www.autozone.com/locations/nc/kinston/4021-w-vernon-ave.html,Mo-Sa 07:30-21:00; Su 09:00-20:00,AutoZone,Q4826087
66512,bluerhino,Lowe's #1722,,Kinston,NC,,US,+1 252-520-5100,,,Blue Rhino,Q65681213
227136,bluerhino,Royal Farms #487,,Kinston,NC,,US,+1 443-721-0020,,,Blue Rhino,Q65681213
192565,bluerhino,Murphy's #8509,,Kinston,NC,,US,+1 252-522-3561,,,Blue Rhino,Q65681213
146696,bluerhino,Speedway #8229,,Kinston,NC,,US,+1 252-523-7365,,,Blue Rhino,Q65681213
146735,bluerhino,Speedway #8298,,Kinston,NC,,US,+1 252-523-2418,,,Blue Rhino,Q65681213
171600,bluerhino,Family Dollar #07367,,Kinston,NC,,US,+1 252-522-0446,,,Blue Rhino,Q65681213
235914,bluerhino,Circle K #2723472,,Kinston,NC,,US,+1 252-527-8994,,,Blue Rhino,Q65681213
165288,bluerhino,Family Dollar #03280,,Kinston,NC,,US,+1 252-775-6408,,,Blue Rhino,Q65681213
235912,bluerhino,Circle K #2723179,,Kinston,NC,,US,+1 252-527-1855,,,Blue Rhino,Q65681213
49329,bluerhino,Food Lion #1687,,Kinston,NC,,US,+1 252-527-5232,,,Blue Rhino,Q65681213
53042_01,bmw_group,BMW of Kinston,,Kinston,NC,,US,+1 252-522-3611,https://www.deaconjonesbmw.com/,,BMW,Q26678
46091204786902850400100000000000,bp,BP,,Kinston,NC,,US,+1 252-520-4752,,24/7,BP,Q152057
128303,bp,Amoco,,Kinston,NC,,US,+1 252-208-1300,,,BP,Q152057
74785,citi,ATM Royal Farms #0487 - 2,,Kinston,NC,,US,,,,Citibank,Q857063
74784,citi,ATM Royal Farms #0487 - 1,,Kinston,NC,,US,,,,Citibank,Q857063
74997,citi,ATM Royal Farms 2,,Kinston,NC,,US,,,,Citibank,Q857063
74088,citi,ATM Royal Farms,,Kinston,NC,,US,,,,Citibank,Q857063
90803,citi,ATM Walgreens,,Kinston,NC,,US,,,,Citibank,Q857063
78137,citi,ATM Speedway,,Kinston,NC,,US,,,,Citibank,Q857063
77151,citi,ATM Speedway,,Kinston,NC,,US,,,,Citibank,Q857063
77116,citi,ATM Speedway,,Kinston,NC,,US,,,,Citibank,Q857063
43170,citi,ATM Circle K,,Kinston,NC,,US,,,,Citibank,Q857063
41410,citi,ATM Circle K,,Kinston,NC,,US,,,,Citibank,Q857063
om_nc_kinston_4141-west-vernon-ave,cititrends,Citi Trends,,Kinston,NC,,US,+1 252-923-3917,https://locations.cititrends.com/nc/kinston/4141-west-vernon-ave.html,Mo 11:00-20:00; Tu 11:00-20:00; We 11:00-20:00; Th 11:00-20:00; Fr 10:00-21:00; Sa 10:00-21:00; Su 12:00-18:00,Citi Trends,Q5122438
1923,cookout,Kinston,,Kinston,NC,,US,,,Mo-Th 10:30-03:00; Fr-Sa 10:30-04:00; Su 10:30-03:00,Cookout,Q5166992
80033131,cricket_wireless,Cricket Wireless Authorized Retailer,,Kinston,NC,,US,+1 252-624-7752,https://www.cricketwireless.com/stores/ll/US/NC/Kinston/4137-W-Vernon-Ave,Mo-Sa 10:00-20:00; Su 12:00-18:00,Cricket Wireless,Q5184987
16647,dollar_general,Dollar General,,Kinston,NC,,US,+1 252-468-0240,https://www.dollargeneral.com/store-directory/nc/kinston/16647,Mo-Su 08:00-22:00,Dollar General,Q145168
E153J9,enterprise,Kinston,,Kinston,NC,,US,+1 252-527-7300,,,Enterprise Rent-A-Car,Q17085454
200326587,exxonmobil,Mobil,,KINSTON,NC,,US,,https://www.exxon.com/en/find-station/mobil-kinston-nc-mobil-200326587,Mo-Su 06:00-00:00,Mobil,Q109676002
27367,family_dollar_us,FAMILY DOLLAR #7367,,Kinston,NC,,US,+1 252-208-9256,https://www.familydollar.com/locations/nc/kinston/27367/,Mo-Sa 09:00-22:00; Su 09:00-21:00,Family Dollar,Q5433101
17531,firestone_auto_care,Firestone Complete Auto Care,,Kinston,NC,,US,+1 252-624-0387,https://local.firestonecompleteautocare.com/north-carolina/kinston/1901-w-vernon-ave/,,Firestone,Q420837
535909,follett,Lenoir Community College Campus Store,,Kinston,NC,,US,+1 252-233-6853,https://www.bkstr.com/lenoirstore/home,Mo-Th 08:30-16:00; Fr 08:30-13:00,,
Motorcraft1809USAEnglish,ford,Sale Ford of Kinston,,North Carolina,NC,,US,+1 252-522-3673,,,Ford,Q44294
https://www.ford.com/dealerships/dealer-details/nc/kinston/deacon-jones-ford-of-kinston/,ford_dealers_us,Deacon Jones Ford of Kinston,,Kinston,NC,,US,+1 252-522-3673,https://www.ford.com/dealerships/dealer-details/nc/kinston/deacon-jones-ford-of-kinston/,,Ford Motor Company,Q44294
2147,fresenius_kidney_care_us,Fresenius Kidney Care Vernon,,Kinston,NC,,US,+1 800-881-5101,https://www.freseniuskidneycare.com/dialysis-centers/north-carolina/2147,Mo-Sa 05:30-16:00,,
1358,fresenius_kidney_care_us,Fresenius Kidney Care Kinston,,Kinston,NC,,US,+1 800-881-5101,https://www.freseniuskidneycare.com/dialysis-centers/north-carolina/1358,Mo-Sa 05:00-16:00,,
7798,gamestop_us,Kinston Pointe,,Kinston,NC,,US,+1 252-520-4625,https://www.gamestop.com/search/?store=7798,Mo-Sa 12:00-19:00; Su 12:00-18:00,GameStop,Q202210
8a6eada5-458a-e111-8dde-005056934050,goodwill,Kinston,,Kinston,NC,,US,+1 252-520-6624,https://www.goodwill.org/locator/location/?store=OGE2ZWFkYTUtNDU4YS1lMTExLThkZGUtMDA1MDU2OTM0MDUw&lat=MzUuMjYyMDc=&lng=LTc3LjY0NTA3,,Goodwill,Q5583655
https://www.harborfreight.com/storelocator/4150-west-vernon-ave-kinston-28504?number=3200,harborfreight,"Harbor Freight Tools Kinston, NC",,Kinston,NC,,US,+1 252-843-1717,https://www.harborfreight.com/storelocator/4150-west-vernon-ave-kinston-28504?number=3200,Mo-Sa 08:00-20:00; Su 09:00-18:00,Harbor Freight Tools,Q5654601
32192,h_r_block,H&R Block,,Kinston,NC,,US,+1 252-939-1040,https://www.hrblock.com/local-tax-offices/north-carolina/kinston/kinston-pointe/32192/,,H&R Block,Q5627799
https://office.jacksonhewitt.com/#27580424,jackson_hewitt,Jackson Hewitt,,Kinston,NC,,US,+1 252-521-5374,https://office.jacksonhewitt.com/tax-preparation-services-locations/en/nc/kinston/4101-w-vernon-ave/51661,Mo-Fr 10:00-19:00; Sa 10:00-17:00; Su 13:00-17:00,Jackson Hewitt,Q6117132
https://locations.kfc.com/#11246995,kfc,Chicken Nuggets Near Kinston,,Kinston,NC,,US,,https://locations.kfc.com/nc/kinston/1613-west-vernon-avenue/chickennugget,Mo-Th 10:00-22:00; Fr-Sa 10:00-23:00; Su 10:00-22:00,KFC,Q524757
157878,marathon_petroleum_us,MINUTEMAN FOOD MART 35,,KINSTON,NC,,US,+1 252-559-1360,,,Marathon,Q458363
PGVKS,marriott,Fairfield Inn & Suites Kinston,,Kinston,NC,,US,+1 252-208-7878,https://www.marriott.com/PGVKS,,Fairfield by Marriott,Q5430314
71485489,moneygram,WAL-MART - #1661,,KINSTON,NC,,US,+1 252-527-3100,,Mo-Su 07:00-21:00,MoneyGram,Q1944412
8509,murphy_usa_us,,,Kinston,NC,,US,+1 252-522-3561,,24/7,Murphy USA,Q19604459
https://locations.papajohns.com/#10690988,papa_johns,Papa John's,,Kinston,NC,,US,+1 252-527-8585,https://locations.papajohns.com/united-states/nc/28504/kinston/4131-w-vernon-ave,Mo-Th 10:30-23:00; Fr-Sa 10:30-24:00; Su 10:30-23:00,Papa John's Pizza,Q2759586
582822,penske,American Tool Rentals,,KINSTON,NC,,US,+1 252-520-7609,https://www.pensketruckrental.com/locations/us/north_carolina/kinston/582822/,,Penske,Q81234570
https://stores.petco.com/#30070558,petco,Petco Kinston,,Kinston,NC,,US,+1 252-775-6013,https://stores.petco.com/nc/kinston/pet-supplies-kinston-nc-5510.html,Mo-Sa 09:00-20:00; Su 10:00-19:00,Petco,Q7171798
258,piggly_wiggly_us,Piggly Wiggly,,Kinston,NC,,US,+1 252-522-1953,,,Piggly Wiggly,Q3388303
257,piggly_wiggly_us,Piggly Wiggly,,Kinston,NC,,US,+1 252-527-0761,https://www.idigthepig.com,,Piggly Wiggly,Q3388303
4722,ruby_tuesday_us,Ruby Tuesday,3725 WEST VERNON AVENUE KINSTON NC 28504,Kinston,NC,,US,+1 252-523-4067,,Mo-Th 11:00-22:00; Fr-Sa 11:00-23:00; Su 11:00-22:00,Ruby Tuesday,Q7376400
3572,shellrecharge,Piggly Wiggly Falling Creek,,Kinston,NC,,US,,,,Shell Recharge,Q105883058
3938,shellrecharge,dba Piggly Wiggly 61,,Kinston,NC,,US,,,,Shell Recharge,Q105883058
https://restaurants.subway.com/#14894951,subway,Subway Wal-Mart #1661,,Kinston Lenoir,NC,,US,+1 252-523-5414,https://restaurants.subway.com/united-states/nc/kinston/4101-w-vernon-ave,Mo-Su 09:00-22:00,Subway,Q244457
https://restaurants.subway.com/#14907990,subway,Subway Kinston Pointe Shop Ctr,,Kinston Lenoir,NC,,US,+1 252-523-6913,https://restaurants.subway.com/united-states/nc/kinston/4153-w-vernon-ave,Mo-Su 08:00-21:00,Subway,Q244457
https://locations.tacobell.com/#6142462,taco_bell,Taco Bell,,Kinston,NC,,US,+1 252-559-1149,https://locations.tacobell.com/nc/kinston/700-us-70-west.html,Mo-Su 08:00-01:00,Taco Bell,Q752941
2850400013,usps_collection_boxes,USPS COLLECTION BOX - BLUE BOX,401 E NEW BERN RD,KINSTON,NC,,US,,,,United States Postal Service,Q668687
2850400003,usps_collection_boxes,USPS COLLECTION BOX - BLUE BOX,1100 HARDEE RD,KINSTON,NC,,US,,,,United States Postal Service,Q668687
2850400008,usps_collection_boxes,USPS COLLECTION BOX - BLUE BOX,800 HARDEE RD,KINSTON,NC,,US,,,,United States Postal Service,Q668687
2850400005,usps_collection_boxes,USPS COLLECTION BOX - BLUE BOX,1028 W NEW BERN RD,KINSTON,NC,,US,,,,United States Postal Service,Q668687
2850400000,usps_collection_boxes,USPS COLLECTION BOX - BLUE BOX,2216 W VERNON AVE,KINSTON,NC,,US,,,,United States Postal Service,Q668687
2850400006,usps_collection_boxes,USPS COLLECTION BOX - BLUE BOX,2415 W VERNON AVE,KINSTON,NC,,US,,,,United States Postal Service,Q668687
2850400009,usps_collection_boxes,USPS COLLECTION BOX - BLUE BOX,4100 W VERNON AVE,KINSTON,NC,,US,,,,United States Postal Service,Q668687
2850400011,usps_collection_boxes,USPS COLLECTION BOX - BLUE BOX,4171 W VERNON AVE,KINSTON,NC,,US,,,,United States Postal Service,Q668687
kinston_oil-change-bd0025,valvoline_instant_oil_change,Valvoline,4179 W Vernon Ave ,Kinston,NC,,US,+1 252-506-0661,https://store.vioc.com/nc/kinston/oil-change-bd0025.html,,Valvoline Instant Oil Change,Q7912852
A00000204133,verizon_us,Cellular Sales Kinston,,KINSTON,NC,,US,+1 252-686-6178,https://www.verizon.com/stores/details/north-carolina/kinston/cellular-sales-kinston-1524522/,Mo-Sa 09:00-21:00; Su 11:00-19:00,Verizon,Q919641
,visa,,,JACKSONVILLE,NC,,US,,,,,
,visa,,,KINSTON,NC,,US,,,,,
,visa,,,KINSTON,NC,,US,,,,,
,visa,,,KINSTON,NC,,US,,,,,
,visa,,,KINSTON,NC,,US,,,,,
,visa,,,KINSTON,NC,,US,,,,,
,visa,,,KINSTON,NC,,US,,,,,
,visa,,,KINSTON,NC,,US,,,,,
,visa,,,KINSTON,NC,,US,,,,,
,visa,,,KINSTON,NC,,US,,,,,
,visa,,,KINSTON,NC,,US,,,,,
,visa,,,KINSTON,NC,,US,,,,,
,visa,,,KINSTON,NC,,US,,,,,
,visa,,,KINSTON,NC,,US,,,,,
,visa,,,KINSTON,NC,,US,,,,,
,visa,,,KINSTON,NC,,US,,,,,
,visa,,,KINSTON,NC,,US,,,,,
,visa,,,KINSTON,NC,,US,,,,,
,visa,,,KINSTON,NC,,US,,,,,
,visa,,,KINSTON,NC,,US,,,,,
,visa,,,KINSTON,NC,,US,,,,,
,visa,,,KINSTON,NC,,US,,,,,
,visa,,,KINSTON,NC,,US,,,,,
,visa,,,KINSTON,NC,,US,,,,,
,visa,,,KINSTON,NC,,US,,,,,
,visa,,,KINSTON,NC,,US,,,,,
,visa,,,KINSTON,NC,,US,,,,,
,visa,,,KINSTON,NC,,US,,,,,
,visa,,,KINSTON,NC,,US,,,,,
,visa,,,KINSTON,NC,,US,,,,,
,visa,,,KINSTON,NC,,US,,,,,
,visa,,,KINSTON,NC,,US,,,,,
,visa,,,KINSTON,NC,,US,,,,,
,visa,,,KINSTON,NC,,US,,,,,
,visa,,,KINSTON,NC,,US,,,,,
,visa,,,KINSTON,NC,,US,,,,,
,visa,,,KINSTON,NC,,US,,,,,
,visa,,,KINSTON,NC,,US,,,,,
,visa,,,KINSTON,NC,,US,,,,,
,visa,,,KINSTON,NC,,US,,,,,
,visa,,,KINSTON,NC,,US,,,,,
,visa,,,KINSTON,NC,,US,,,,,
,visa,,,KINSTON,NC,,US,,,,,
,visa,,,KINSTON,NC,,US,,,,,
,visa,,,KINSTON,NC,,US,,,,,
,visa,,,KINSTON,NC,,US,,,,,
,visa,,,KINSTON,NC,,US,,,,,
,visa,,,KINSTON,NC,,US,,,,,
,visa,,,KINSTON,NC,,US,,,,,
,visa,,,KINSTON,NC,,US,,,,,
,visa,,,KINSTON,NC,,US,,,,,
,visa,,,KINSTON,NC,,US,,,,,
,visa,,,KINSTON,NC,,US,,,,,
,visa,,,KINSTON,NC,,US,,,,,
,visa,,,KINSTON,NC,,US,,,,,
,visa,,,KINSTON,NC,,US,,,,,
,visa,,,KINSTON,NC,,US,,,,,
,visa,,,KINSTON,NC,,US,,,,,
,visa,,,GASTONIA,NC,,US,,,,,
,visa,,,KINSTON,NC,,US,,,,,
,visa,,,KINSTON,NC,,US,,,,,
,visa,,,KINSTON,NC,,US,,,,,
1919,waffle_house_us,Waffle House #1919,,KINSTON,NC,,US,+1 252-208-1920,https://locations.wafflehouse.com/kinston-nc-1919,24/7,Waffle House,Q1701206
https://www.walgreens.com/locator/walgreens-4003+w+vernon+ave-kinston-nc-28504/id=15511,walgreens,Walgreens,,Kinston,NC,,US,+1 252-559-1121,https://www.walgreens.com/locator/walgreens-4003+w+vernon+ave-kinston-nc-28504/id=15511,Mo-Su 08:00-22:00,Walgreens,Q1591889
4003__W__VERNON__AVE_KINSTON_NC_28504,wellsfargo,,4003 W VERNON AVE,KINSTON,NC,,US,+1 800-869-3557,https://www.wellsfargo.com/locator/bank/4003__W__VERNON__AVE_KINSTON_NC_28504/,,Wells Fargo,Q744149
1903__W__VERNON__AVE_KINSTON_NC_28504,wellsfargo,Wells Fargo,1903 W VERNON AVE,KINSTON,NC,,US,+1 252-527-9921,https://www.wellsfargo.com/locator/bank/1903__W__VERNON__AVE_KINSTON_NC_28504/,Mo-Fr 09:00-17:00,Wells Fargo,Q744149
https://locations.wendys.com/#9253347,wendys,"Wendy's West Kinston in Kinston, NC",,Kinston,NC,,US,+1 252-522-3050,https://locations.wendys.com/united-states/nc/kinston/4535-us-highway-70-west,"Mo-Su 06:30-10:30,06:30-22:00",Wendy's,Q550258
55a089662a2f8d9b828c71c6675b62ee,western_union,WALMART #001661,,Kinston,NC,,US,+1 252-527-3100,https://location.westernunion.com/us/nc/kinston/55a089662a2f8d9b828c71c6675b62ee,Mo-Sa 08:00-20:00; Su 10:00-18:00,Western Union,Q861042
ac08cfc00cbc43839a6cbe2d047fcbe2,western_union,LA INDIA BONITA,,Kinston,NC,,US,+1 252-520-0015,https://location.westernunion.com/us/nc/kinston/ac08cfc00cbc43839a6cbe2d047fcbe2,Mo-Su 10:00-21:00,Western Union,Q861042
