Ref,Spider,Name,Address,City,State,Zipcode,Country,Phone,Website,Hours,Brand,WikiData
86815,bluerhino,AAFES - BX Gore Hill #1068425,,Great Falls,MT,,US,+1 406-452-6712,,,Blue Rhino,Q65681213
239328,bluerhino,Circle K #2746273,,Great Falls,MT,,US,+1 406-727-3573,,,Blue Rhino,Q65681213
178117,bluerhino,Loaf N Jug #766,,Great Falls,MT,,US,+1 406-761-8723,,,Blue Rhino,Q65681213
208129,bluerhino,Everday IGA #2 - #236003,,Great Falls,MT,,US,+1 406-751-7506,,,Blue Rhino,Q65681213
178116,bluerhino,Loaf N Jug #750765,,Great Falls,MT,,US,+1 406-727-7917,,,Blue Rhino,Q65681213
6985,cenex,Cenex Zip Trip,,Great Falls,MT,,US,+1 406-761-2175,,24/7,Cenex,Q62127191
55957,citi,ATM FIRST INTERSTATE BANK 09,,Great Falls,MT,,US,,,,Citibank,Q857063
55988,citi,ATM FIRST INTERSTATE BANK 09,,Great Falls,MT,,US,,,,Citibank,Q857063
64043,citi,ATM Loaf N Jug,,Great Falls,MT,,US,,,,Citibank,Q857063
56001,citi,ATM FIRST INTERSTATE BANK 09,,Great Falls,MT,,US,,,,Citibank,Q857063
63985,citi,ATM Loaf N Jug,,Great Falls,MT,,US,,,,Citibank,Q857063
vc_0538V,department_veterans_affairs,Great Falls Vet Center,,Great Falls,MT,,US,+1 406-452-9048,https://www.va.gov/great-falls-vet-center/,,Department Veterans Affairs,Q592576
https://www.edwardjones.com/us-en/financial-advisor/greg-ferriter,edwardjones,Greg Ferriter,,Great Falls,MT,,US,+1 406-727-0311,https://www.edwardjones.com/us-en/financial-advisor/greg-ferriter,Mo-Fr 07:30-17:30,Edward Jones,Q5343830
521087,eg_america_us,Loaf 'N Jug,,Great Falls,MT,,US,+1 406-727-7917,https://www.loafnjug.com/find-us/generic-store-page/?id=750765,,Loaf 'N Jug,Q6663398
521088,eg_america_us,Loaf 'N Jug,,Great Falls,MT,,US,+1 406-761-8723,https://www.loafnjug.com/find-us/generic-store-page/?id=750766,,Loaf 'N Jug,Q6663398
26904,h_r_block,H&R Block,,Great Falls,MT,,US,+1 406-761-8224,https://www.hrblock.com/local-tax-offices/montana/great-falls/908-central-ave/26904/,,H&R Block,Q5627799
583648,taco_johns_us,Great Falls -14th St.,"1001 14th St N, Great Falls MT 59401",Great Falls,MT,,US,+1 406-727-2758,https://locations.tacojohns.com/mt/great-falls/1001-14th-st-n/,Mo-Th 06:30-23:00; Fr-Sa 06:30-00:00; Su 06:30-23:00,Taco John's,Q7673962
1365499,usps,GREAT FALLS,,GREAT FALLS,MT,,US,+1 406-771-2163,,Mo-Fr 08:30-17:30; Sa 10:00-13:00,United States Postal Service,Q668687
5940100130,usps_collection_boxes,USPS COLLECTION BOX - BLUE BOX,125 CENTRAL AVE W,GREAT FALLS,MT,,US,,,,United States Postal Service,Q668687
5940100035,usps_collection_boxes,USPS COLLECTION BOX - BLUE BOX,219 2ND AVE N,GREAT FALLS,MT,,US,,,,United States Postal Service,Q668687
5940100119,usps_collection_boxes,USPS COLLECTION BOX - PO LOBBY,215 1ST AVE N,GREAT FALLS,MT,,US,,,,United States Postal Service,Q668687
5940100121,usps_collection_boxes,USPS COLLECTION BOX - PO LOBBY,215 1ST AVE N,GREAT FALLS,MT,,US,,,,United States Postal Service,Q668687
5940100125,usps_collection_boxes,USPS COLLECTION BOX - APC,215 1ST AVE N,GREAT FALLS,MT,,US,,,,United States Postal Service,Q668687
5940100120,usps_collection_boxes,USPS COLLECTION BOX - PO LOBBY,215 1ST AVE N,GREAT FALLS,MT,,US,,,,United States Postal Service,Q668687
5940100034,usps_collection_boxes,USPS COLLECTION BOX - BLUE BOX,215 1ST AVE N,GREAT FALLS,MT,,US,,,,United States Postal Service,Q668687
5940100026,usps_collection_boxes,USPS COLLECTION BOX - BLUE BOX,21 3RD ST N,GREAT FALLS,MT,,US,,,,United States Postal Service,Q668687
5940100023,usps_collection_boxes,USPS COLLECTION BOX - BLUE BOX,8 3RD ST N,GREAT FALLS,MT,,US,,,,United States Postal Service,Q668687
5940100109,usps_collection_boxes,USPS COLLECTION BOX - BLUE BOX,300 CENTRAL AVE,GREAT FALLS,MT,,US,,,,United States Postal Service,Q668687
5940100112,usps_collection_boxes,USPS COLLECTION BOX - BLUE BOX,410 CENTRAL AVE,GREAT FALLS,MT,,US,,,,United States Postal Service,Q668687
5940100042,usps_collection_boxes,USPS COLLECTION BOX - BLUE BOX,215 1ST AVE S,GREAT FALLS,MT,,US,,,,United States Postal Service,Q668687
5940100018,usps_collection_boxes,USPS COLLECTION BOX - BLUE BOX,215 1ST AVE S,GREAT FALLS,MT,,US,,,,United States Postal Service,Q668687
5940100048,usps_collection_boxes,USPS COLLECTION BOX - BLUE BOX,600 CENTRAL AVE,GREAT FALLS,MT,,US,,,,United States Postal Service,Q668687
5940100129,usps_collection_boxes,USPS COLLECTION BOX - BLUE BOX,117 9TH ST N,GREAT FALLS,MT,,US,,,,United States Postal Service,Q668687
5940100103,usps_collection_boxes,USPS COLLECTION BOX - BLUE BOX,2505 6TH AVE N,GREAT FALLS,MT,,US,,,,United States Postal Service,Q668687
5940100126,usps_collection_boxes,USPS COLLECTION BOX - BLUE BOX,825 5TH AVE S,GREAT FALLS,MT,,US,,,,United States Postal Service,Q668687
,visa,,,GREAT FALLS,MT,,US,,,,,
,visa,,,GREAT FALLS,MT,,US,,,,,
,visa,,,GREAT FALLS,MT,,US,,,,,
,visa,,,GREAT FALLS,MT,,US,,,,,
,visa,,,GREAT FALLS,MT,,US,,,,,
,visa,,,GREAT FALLS,MT,,US,,,,,
,visa,,,GREAT FALLS,MT,,US,,,,,
,visa,,,GREAT FALLS,MT,,US,,,,,
,visa,,,GREAT FALLS,MT,,US,,,,,
,visa,,,GREAT FALLS,MT,,US,,,,,
,visa,,,GREAT FALLS,MT,,US,,,,,
,visa,,,GREAT FALLS,MT,,US,,,,,
,visa,,,GREAT FALLS,MT,,US,,,,,
,visa,,,GREAT FALLS,MT,,US,,,,,
,visa,,,GREAT FALLS,MT,,US,,,,,
,visa,,,GREAT FALLS,MT,,US,,,,,
,visa,,,GREAT FALLS,MT,,US,,,,,
,visa,,,GREAT FALLS,MT,,US,,,,,
,visa,,,GREAT FALLS,MT,,US,,,,,
,visa,,,GREAT FALLS,MT,,US,,,,,
,visa,,,GREAT FALLS,MT,,US,,,,,
,visa,,,GREAT FALLS,MT,,US,,,,,
,visa,,,GREAT FALLS,MT,,US,,,,,
,visa,,,GREAT FALLS,MT,,US,,,,,
,visa,,,GREAT FALLS,MT,,US,,,,,
,visa,,,GREAT FALLS,MT,,US,,,,,
,visa,,,GREAT FALLS,MT,,US,,,,,
,visa,,,GREAT FALLS,MT,,US,,,,,
,visa,,,GREAT FALLS,MT,,US,,,,,
,visa,,,GREAT FALLS,MT,,US,,,,,
,visa,,,GREAT FALLS,MT,,US,,,,,
,visa,,,GREAT FALLS,MT,,US,,,,,
,visa,,,GREAT FALLS,MT,,US,,,,,
,visa,,,GREAT FALLS,MT,,US,,,,,
,visa,,,GREAT FALLS,MT,,US,,,,,
,visa,,,GREAT FALLS,MT,,US,,,,,
c42f6e518946d1ec01fd7d68d91470e4,western_union,LOAF N JUG #766,,Great Falls,MT,,US,+1 406-761-8723,https://location.westernunion.com/us/mt/great-falls/c42f6e518946d1ec01fd7d68d91470e4,Mo-We 05:00-23:00; Th-Su 07:00-23:00,Western Union,Q861042
