Ref,Spider,Name,Address,City,State,Zipcode,Country,Phone,Website,Hours,Brand,WikiData
239041,bluerhino,Circle K #2709536,,Tombstone,AZ,,US,+1 520-412-3144,,,Blue Rhino,Q65681213
165072,bluerhino,Family Dollar #11192,,Tombstone,AZ,,US,+1 520-457-4001,,,Blue Rhino,Q65681213
40841,citi,ATM Circle K,,Tombstone,AZ,,US,,,,Citibank,Q857063
,credit_union_us,Vantage West CU,,Tombstone,AZ,,US,+1 520-457-3218,,Mo-Fr 09:00-04:00,,
31192,family_dollar_us,FAMILY DOLLAR #11192,,Tombstone,AZ,,US,+1 520-457-4001,https://www.familydollar.com/locations/az/tombstone/31192/,Mo-Su 08:00-22:00,Family Dollar,Q5433101
a7eb6cff-458a-e111-8dde-005056934050,goodwill,Sierra Vista Retail Store 078,,Sierra Vista,AZ,,US,+1 520-895-5986,https://www.goodwill.org/locator/location/?store=YTdlYjZjZmYtNDU4YS1lMTExLThkZGUtMDA1MDU2OTM0MDUw&lat=MzEuNTU1NDM=&lng=LTExMC4yNzY0,,Goodwill,Q5583655
1384798,usps,TOMBSTONE,,TOMBSTONE,AZ,,US,+1 520-457-3479,,Mo-Fr 08:30-16:30,United States Postal Service,Q668687
8563800003,usps_collection_boxes,USPS COLLECTION BOX - PO LOBBY,100 HASKELL ST,TOMBSTONE,AZ,,US,,,,United States Postal Service,Q668687
8563800002,usps_collection_boxes,USPS COLLECTION BOX - BLUE BOX,100 HASKELL ST,TOMBSTONE,AZ,,US,,,,United States Postal Service,Q668687
8563800004,usps_collection_boxes,USPS COLLECTION BOX - PO LOBBY,100 HASKELL ST,TOMBSTONE,AZ,,US,,,,United States Postal Service,Q668687
,visa,,,TOMBSTONE,AZ,,US,,,,,
,visa,,,TOMBSTONE,AZ,,US,,,,,
,visa,,,TOMBSTONE,AZ,,US,,,,,
,visa,,,TOMBSTONE,AZ,,US,,,,,
,visa,,,TOMBSTONE,AZ,,US,,,,,
,visa,,,TOMBSTONE,AZ,,US,,,,,
,visa,,,TOMBSTONE,AZ,,US,,,,,
,visa,,,TOMBSTONE,AZ,,US,,,,,
,visa,,,TOMBSTONE,AZ,,US,,,,,
,visa,,,TOMBSTONE,AZ,,US,,,,,
,visa,,,TOMBSTONE,AZ,,US,,,,,
,visa,,,TOMBSTONE,AZ,,US,,,,,
,visa,,,TOMBSTONE,AZ,,US,,,,,
