Ref,Spider,Name,Address,City,State,Zipcode,Country,Phone,Website,Hours,Brand,WikiData
,visa,,,CUAUTITLAN IZCALLI,ESTADO DE MEXICO,,MX,,,,,
,visa,,,CUAUTITLAN IZCALLI,ESTADO DE MEXICO,,MX,,,,,
,visa,,,CUAUTITLAN IZCALLI,ESTADO DE MEXICO,,MX,,,,,
,visa,,,CUAUTITLAN IZCALLI,ESTADO DE MEXICO,,MX,,,,,
,visa,,,CUAUTITLAN IZCALLI,ESTADO DE MEXICO,,MX,,,,,
,visa,,,CUAUT IZCALLI,ESTADO DE MEXICO,,MX,,,,,
,visa,,,CUAUTITLAN IZCALLI,ESTADO DE MEXICO,,MX,,,,,
0ac7b20cfb8de60b0a765992226194a0,western_union,FARM GUAD AV JORGE JIMENEZ CANTU,,Cuautitlan Izcalli,ESTADO DE MEXICO,,MX,+52 800 833 4700,https://location.westernunion.com/mx/estado-de-mexico/cuautitlan-izcalli/0ac7b20cfb8de60b0a765992226194a0,Mo-Su 09:00-22:00,Western Union,Q861042
3d4aac2b5375e1a323019489650aa6d6,western_union,FARM GUAD AV JORGE JIMENEZ CANTU,,Cuautitlan Izcalli,ESTADO DE MEXICO,,MX,+52 800 833 4700,https://location.westernunion.com/mx/estado-de-mexico/cuautitlan-izcalli/3d4aac2b5375e1a323019489650aa6d6,Mo-Su 09:00-22:00,Western Union,Q861042
a3d50247f16db92bd79c711feaeed535,western_union,FARM GUAD AV JORGE JIMENEZ CANTU,,Cuautitlan Izcalli,ESTADO DE MEXICO,,MX,+52 800 833 4700,https://location.westernunion.com/mx/estado-de-mexico/cuautitlan-izcalli/a3d50247f16db92bd79c711feaeed535,Mo-Su 09:00-22:00,Western Union,Q861042
81ca1d01444319cc1bfaaec6ee6d7fd7,western_union,OXXO OLIMPO MEX,,Cuautitlan Izcalli,ESTADO DE MEXICO,,MX,+52 81 8389 2121,https://location.westernunion.com/mx/estado-de-mexico/cuautitlan-izcalli/81ca1d01444319cc1bfaaec6ee6d7fd7,Mo-Su 08:00-22:00,Western Union,Q861042
86ae356ddc2f53742dc24dfa07bf4048,western_union,OXXO OLIMPO MEX,,Cuautitlan Izcalli,ESTADO DE MEXICO,,MX,+52 81 8389 2121,https://location.westernunion.com/mx/estado-de-mexico/cuautitlan-izcalli/86ae356ddc2f53742dc24dfa07bf4048,Mo-Su 08:00-22:00,Western Union,Q861042
c1372f9f4331883dbe2761507dd83394,western_union,OXXO OLIMPO MEX,,Cuautitlan Izcalli,ESTADO DE MEXICO,,MX,+52 81 8389 2121,https://location.westernunion.com/mx/estado-de-mexico/cuautitlan-izcalli/c1372f9f4331883dbe2761507dd83394,Mo-Su 08:00-22:00,Western Union,Q861042
717b77d4f7227809878bc4ecc28ee52c,western_union,OXXO CENTAURO MEX,,Cuautitlan Izcalli,ESTADO DE MEXICO,,MX,+52 81 8389 2121,https://location.westernunion.com/mx/estado-de-mexico/cuautitlan-izcalli/717b77d4f7227809878bc4ecc28ee52c,Mo-Su 08:00-22:00,Western Union,Q861042
aa74660711212aeb05ee1095ac1a0371,western_union,OXXO CENTAURO MEX,,Cuautitlan Izcalli,ESTADO DE MEXICO,,MX,+52 81 8389 2121,https://location.westernunion.com/mx/estado-de-mexico/cuautitlan-izcalli/aa74660711212aeb05ee1095ac1a0371,Mo-Su 08:00-22:00,Western Union,Q861042
ce856ba6f7a3390aca91e318455dde57,western_union,OXXO ENSUENOS MEX,,Cuautitlan Izcalli,ESTADO DE MEXICO,,MX,+52 81 8389 2121,https://location.westernunion.com/mx/estado-de-mexico/cuautitlan-izcalli/ce856ba6f7a3390aca91e318455dde57,Mo-Su 08:00-22:00,Western Union,Q861042
45da54f3d8f9d43644f8f929ae4e55b2,western_union,OXXO ENSUENOS MEX,,Cuautitlan Izcalli,ESTADO DE MEXICO,,MX,+52 81 8389 2121,https://location.westernunion.com/mx/estado-de-mexico/cuautitlan-izcalli/45da54f3d8f9d43644f8f929ae4e55b2,Mo-Su 08:00-22:00,Western Union,Q861042
cf6fc1150d3bf58cdabec1e380b6f320,western_union,OXXO CENTAURO MEX,,Cuautitlan Izcalli,ESTADO DE MEXICO,,MX,+52 81 8389 2121,https://location.westernunion.com/mx/estado-de-mexico/cuautitlan-izcalli/cf6fc1150d3bf58cdabec1e380b6f320,Mo-Su 08:00-22:00,Western Union,Q861042
7cf2efd67f00d08d020299caa8b84f6d,western_union,TELECOMM 15017,,Cuautitlan Izcalli,ESTADO DE MEXICO,,MX,+52 800 800 8930,https://location.westernunion.com/mx/estado-de-mexico/cuautitlan-izcalli/7cf2efd67f00d08d020299caa8b84f6d,Mo-Su 08:00-21:00,Western Union,Q861042
25098575725135c9844b7ddc4123b673,western_union,OXXO MUSAS MEX,,Cuautitlan Izcalli,ESTADO DE MEXICO,,MX,+52 81 8389 2121,https://location.westernunion.com/mx/estado-de-mexico/cuautitlan-izcalli/25098575725135c9844b7ddc4123b673,Mo-Su 08:00-22:00,Western Union,Q861042
68b5ce9de8be7b578d87a1dca938a697,western_union,OXXO MUSAS MEX,,Cuautitlan Izcalli,ESTADO DE MEXICO,,MX,+52 81 8389 2121,https://location.westernunion.com/mx/estado-de-mexico/cuautitlan-izcalli/68b5ce9de8be7b578d87a1dca938a697,Mo-Su 08:00-22:00,Western Union,Q861042
6b1bd6b2d971ccc18d18e3842d5e1709,western_union,TELECOMM 15017,,Cuautitlan Izcalli,ESTADO DE MEXICO,,MX,+52 800 800 8930,https://location.westernunion.com/mx/estado-de-mexico/cuautitlan-izcalli/6b1bd6b2d971ccc18d18e3842d5e1709,Mo-Su 09:00-20:00,Western Union,Q861042
470cf70bc80ddd3122a9582bdc28c71b,western_union,TELECOMM 15017,,Cuautitlan Izcalli,ESTADO DE MEXICO,,MX,+52 800 800 9889,https://location.westernunion.com/mx/estado-de-mexico/cuautitlan-izcalli/470cf70bc80ddd3122a9582bdc28c71b,Mo-Fr 09:00-15:00; Sa 09:00-13:00,Western Union,Q861042
1d0872c667fd22621305d958b2d9a136,western_union,BANCOPPEL 151 PLAZA IZCALLI,,Cuautitlan Izcalli,ESTADO DE MEXICO,,MX,+52 81 8389 3400,https://location.westernunion.com/mx/estado-de-mexico/cuautitlan-izcalli/1d0872c667fd22621305d958b2d9a136,Mo-Sa 10:00-20:00; Su 11:00-20:00,Western Union,Q861042
26131f108ec46e8cdd649bc2cffab6b2,western_union,BANCOPPEL 151 PLAZA IZCALLI,,Cuautitlan Izcalli,ESTADO DE MEXICO,,MX,+52 738 735 3143,https://location.westernunion.com/mx/estado-de-mexico/cuautitlan-izcalli/26131f108ec46e8cdd649bc2cffab6b2,Mo-Sa 10:00-20:00; Su 11:00-20:00,Western Union,Q861042
42672d5b70a990bb7d3c159599eed385,western_union,BANCOPPEL 151 PLAZA IZCALLI,,Cuautitlan Izcalli,ESTADO DE MEXICO,,MX,+52 738 735 3143,https://location.westernunion.com/mx/estado-de-mexico/cuautitlan-izcalli/42672d5b70a990bb7d3c159599eed385,Mo-Sa 10:00-20:00; Su 11:00-20:00,Western Union,Q861042
20393f75656e9463dc09a9af3ba5b2ef,western_union,OXXO CUMBRIA MEX,,Cuautitlan Izcalli,ESTADO DE MEXICO,,MX,+52 81 8389 2121,https://location.westernunion.com/mx/estado-de-mexico/cuautitlan-izcalli/20393f75656e9463dc09a9af3ba5b2ef,Mo-Su 08:00-22:00,Western Union,Q861042
0bf75542c05e1061d60246905e7a3b73,western_union,OXXO CUMBRIA MEX,,Cuautitlan Izcalli,ESTADO DE MEXICO,,MX,+52 81 8389 2121,https://location.westernunion.com/mx/estado-de-mexico/cuautitlan-izcalli/0bf75542c05e1061d60246905e7a3b73,Mo-Su 08:00-22:00,Western Union,Q861042
2e910c2cb9a947975f0a62231213c805,western_union,OXXO CUMBRIA MEX,,Cuautitlan Izcalli,ESTADO DE MEXICO,,MX,+52 81 8389 2121,https://location.westernunion.com/mx/estado-de-mexico/cuautitlan-izcalli/2e910c2cb9a947975f0a62231213c805,Mo-Su 08:00-22:00,Western Union,Q861042
44e439f5683239928a1b39d03f78b30a,western_union,OXXO AMATEPEC MEX,,Cuautitlan Izcalli,ESTADO DE MEXICO,,MX,+52 81 8389 2121,https://location.westernunion.com/mx/estado-de-mexico/cuautitlan-izcalli/44e439f5683239928a1b39d03f78b30a,Mo-Su 08:00-22:00,Western Union,Q861042
51a3efd556b5c19fffe3414ca316e4cb,western_union,OXXO AMATEPEC MEX,,Cuautitlan Izcalli,ESTADO DE MEXICO,,MX,+52 81 8389 2121,https://location.westernunion.com/mx/estado-de-mexico/cuautitlan-izcalli/51a3efd556b5c19fffe3414ca316e4cb,Mo-Su 08:00-22:00,Western Union,Q861042
c6aed6f7a285a3f9c124dcc4390ce4c4,western_union,OXXO OCEANOS MEX,,Cuautitlan Izcalli,ESTADO DE MEXICO,,MX,+52 81 8389 2121,https://location.westernunion.com/mx/estado-de-mexico/cuautitlan-izcalli/c6aed6f7a285a3f9c124dcc4390ce4c4,Mo-Su 08:00-22:00,Western Union,Q861042
b91dbfcfbfc9c3c0eb4dd2a8e5d6edcf,western_union,OXXO OCEANOS MEX,,Cuautitlan Izcalli,ESTADO DE MEXICO,,MX,+52 81 8389 2121,https://location.westernunion.com/mx/estado-de-mexico/cuautitlan-izcalli/b91dbfcfbfc9c3c0eb4dd2a8e5d6edcf,Mo-Su 08:00-22:00,Western Union,Q861042
e34f9d3ae7dd658a6c49e3260f627716,western_union,OXXO OCEANOS MEX,,Cuautitlan Izcalli,ESTADO DE MEXICO,,MX,+52 81 8389 2121,https://location.westernunion.com/mx/estado-de-mexico/cuautitlan-izcalli/e34f9d3ae7dd658a6c49e3260f627716,Mo-Su 08:00-22:00,Western Union,Q861042
3274617bdb125c16aa8b82d3fb77f86e,western_union,OXXO LOS MIRAS,,Cuautitlan Izcalli,ESTADO DE MEXICO,,MX,+52 81 8389 2121,https://location.westernunion.com/mx/estado-de-mexico/cuautitlan-izcalli/3274617bdb125c16aa8b82d3fb77f86e,Mo-Su 08:00-22:00,Western Union,Q861042
5695f06c87b792785500674cb2f5193a,western_union,OXXO LOS MIRAS,,Cuautitlan Izcalli,ESTADO DE MEXICO,,MX,+52 81 8389 2121,https://location.westernunion.com/mx/estado-de-mexico/cuautitlan-izcalli/5695f06c87b792785500674cb2f5193a,Mo-Su 08:00-22:00,Western Union,Q861042
8b52b34ac4c352543c5a27c88ecaa161,western_union,OXXO TROPICOS PAC,,Cuautitlan Izcalli,ESTADO DE MEXICO,,MX,+52 81 8389 2121,https://location.westernunion.com/mx/estado-de-mexico/cuautitlan-izcalli/8b52b34ac4c352543c5a27c88ecaa161,Mo-Su 06:00-22:00,Western Union,Q861042
399921d480c6007eb3f043c007563eff,western_union,OXXO TROPICOS PAC,,Cuautitlan Izcalli,ESTADO DE MEXICO,,MX,+52 81 8389 2121,https://location.westernunion.com/mx/estado-de-mexico/cuautitlan-izcalli/399921d480c6007eb3f043c007563eff,Mo-Su 06:00-22:00,Western Union,Q861042
66289278f950edadf0f9f118777e5286,western_union,OXXO TROPICOS PAC,,Cuautitlan Izcalli,ESTADO DE MEXICO,,MX,+52 81 8389 2121,https://location.westernunion.com/mx/estado-de-mexico/cuautitlan-izcalli/66289278f950edadf0f9f118777e5286,Mo-Su 06:00-22:00,Western Union,Q861042
2e57996f1ff9651842440efd92f3c83f,western_union,OXXO ATLANTA II MEX,,Cuautitlan Izcalli,ESTADO DE MEXICO,,MX,+52 81 8389 2121,https://location.westernunion.com/mx/estado-de-mexico/cuautitlan-izcalli/2e57996f1ff9651842440efd92f3c83f,Mo-Su 08:00-22:00,Western Union,Q861042
0b4cf4ea35f4f0c43aed5811ab20ead1,western_union,OXXO ATLANTA II MEX,,Cuautitlan Izcalli,ESTADO DE MEXICO,,MX,+52 81 8389 2121,https://location.westernunion.com/mx/estado-de-mexico/cuautitlan-izcalli/0b4cf4ea35f4f0c43aed5811ab20ead1,Mo-Su 08:00-22:00,Western Union,Q861042
9950f8fa9d8c2122be040601d799b37b,western_union,OXXO ATLANTA II MEX,,Cuautitlan Izcalli,ESTADO DE MEXICO,,MX,+52 81 8389 2121,https://location.westernunion.com/mx/estado-de-mexico/cuautitlan-izcalli/9950f8fa9d8c2122be040601d799b37b,Mo-Su 08:00-22:00,Western Union,Q861042
7f0d34caa40f1004fc86daaa7d23d0f9,western_union,OXXO ESTEPA MEX,,Cuautitlan Izcalli,ESTADO DE MEXICO,,MX,+52 81 8389 2121,https://location.westernunion.com/mx/estado-de-mexico/cuautitlan-izcalli/7f0d34caa40f1004fc86daaa7d23d0f9,Mo-Su 06:00-22:00,Western Union,Q861042
6bc3c3ce91f3a81340a3b39bbbb0f14a,western_union,OXXO ESTEPA MEX,,Cuautitlan Izcalli,ESTADO DE MEXICO,,MX,+52 81 8389 2121,https://location.westernunion.com/mx/estado-de-mexico/cuautitlan-izcalli/6bc3c3ce91f3a81340a3b39bbbb0f14a,Mo-Su 06:00-22:00,Western Union,Q861042
63cf9e179a45a1da70eaa572fbd3fd89,western_union,OXXO ESTEPA MEX,,Cuautitlan Izcalli,ESTADO DE MEXICO,,MX,+52 81 8389 2121,https://location.westernunion.com/mx/estado-de-mexico/cuautitlan-izcalli/63cf9e179a45a1da70eaa572fbd3fd89,Mo-Su 06:00-22:00,Western Union,Q861042
c9df25ccede5b860ba0ba542e08853b2,western_union,OXXO AMATEPEC MEX,,Cuautitlan Izcalli,ESTADO DE MEXICO,,MX,+52 81 8389 2121,https://location.westernunion.com/mx/estado-de-mexico/cuautitlan-izcalli/c9df25ccede5b860ba0ba542e08853b2,Mo-Su 08:00-22:00,Western Union,Q861042
