Ref,Spider,Name,Address,City,State,Zipcode,Country,Phone,Website,Hours,Brand,WikiData
155415,bluerhino,Walgreens #4459,,Dallas,TX,,US,+1 972-283-1473,,,Blue Rhino,Q65681213
4411-w-kiest-boulevard,churchs_chicken,W. Kiest Boulevard,,Dallas,TX,,US,+1 214-330-3100,https://locations.churchs.com/tx/dallas/4411-w-kiest-boulevard,,Church's Chicken,Q1089932
93063,citi,ATM Walgreens,,Dallas,TX,,US,,,,Citibank,Q857063
72031,citi,ATM Racetrac Cedar Ridge,,Dallas,TX,,US,,,,Citibank,Q857063
247713,dennys,Denny's,,Dallas,TX,,US,+1 972-296-4033,https://locations.dennys.com/TX/DALLAS/247713,24/7,Denny's,Q1189695
200321226,exxonmobil,I-20 & MT CREEK,,DALLAS,TX,,US,489-517-2011,https://www.exxon.com/en/find-station/exxon-dallas-tx-i20mtcreek-200321226,24/7,Exxon,Q109675651
32081,family_dollar_us,FAMILY DOLLAR #12081,,Dallas,TX,,US,+1 945-279-2931,https://www.familydollar.com/locations/tx/dallas/32081/,Mo-Sa 09:00-22:00; Su 09:00-21:00,Family Dollar,Q5433101
https://local.fedex.com/#25205414,fedex,,,Dallas,TX,,US,+1 800-463-3339,https://local.fedex.com/en-us/tx/dallas/bszpx,,FedEx,Q459477
3479,mightyflame,KIEST SHELL,,DALLAS,TX,,US,+1 214-330-3100,,,Mighty Flame,
718110,penske,Duncanville,,DALLAS,TX,,US,+1 469-893-4590,https://www.pensketruckrental.com/locations/us/texas/dallas/718110/,,Penske,Q81234570
1416,pilot_flyingj,ONE9 Dealer,,Dallas,TX,,US,+1 972-709-7560,https://locations.pilotflyingj.com/us/tx/dallas/4880-mountain-creek-pkwy,,ONE9 Dealer,Q1434601
https://www.publicstorage.com/self-storage-tx-dallas/806.html,public_storage_us,Public Storage,,Dallas,TX,,US,+1 972-863-0093,https://www.publicstorage.com/self-storage-tx-dallas/806.html,,Public Storage,Q1156045
7523600005,usps_collection_boxes,USPS COLLECTION BOX - BLUE BOX,4500 EXCHANGE SERVICE DR,DALLAS,TX,,US,,,,United States Postal Service,Q668687
,visa,,,DALLAS,TX,,US,,,,,
,visa,,,DALLAS,TX,,US,,,,,
,visa,,,DALLAS,TX,,US,,,,,
,visa,,,DALLAS,TX,,US,,,,,
,visa,,,DALLAS,TX,,US,,,,,
,visa,,,DALLAS,TX,,US,,,,,
,visa,,,DALLAS,TX,,US,,,,,
,visa,,,DALLAS,TX,,US,,,,,
,visa,,,DALLAS,TX,,US,,,,,
,visa,,,DALLAS,TX,,US,,,,,
,visa,,,DALLAS,TX,,US,,,,,
,visa,,,DALLAS,TX,,US,,,,,
,visa,,,DALLAS,TX,,US,,,,,
,visa,,,DALLAS,TX,,US,,,,,
,visa,,,DALLAS,TX,,US,,,,,
,visa,,,DALLAS,TX,,US,,,,,
,visa,,,DALLAS,TX,,US,,,,,
,visa,,,DALLAS,TX,,US,,,,,
,visa,,,DALLAS,TX,,US,,,,,
,visa,,,DALLAS,TX,,US,,,,,
,visa,,,DALLAS,TX,,US,,,,,
,visa,,,DALLAS,TX,,US,,,,,
https://www.walgreens.com/locator/walgreens-8120+s+cockrell+hill+rd-dallas-tx-75236/id=4459,walgreens,Walgreens,,Dallas,TX,,US,+1 972-283-1473,https://www.walgreens.com/locator/walgreens-8120+s+cockrell+hill+rd-dallas-tx-75236/id=4459,Mo-Su 07:00-22:00,Walgreens,Q1591889
