Ref,Spider,Name,Address,City,State,Zipcode,Country,Phone,Website,Hours,Brand,WikiData
3557,action,Oelde,,Oelde,,,DE,,https://www.action.com/de-de/laden/oelde/,,Action,Q2634111
https://vertretung.allianz.de/info.hoeppner/,allianz_de,Allianz Versicherung Christian Höppner HAUPTVERTRETUNG,,Oelde,,,DE,+49 2522 831784,https://vertretung.allianz.de/info.hoeppner/,"Mo-Tu 09:00-12:00,14:30-17:00; We 09:00-12:00; Th 09:00-12:30,14:30-17:00; Fr 09:00-12:00",Allianz SE,Q487292
21145600,bp,Alfons Borgschulte,,Oelde,,,DE,+49 2522 3621,http://tankstelle.aral.de/tankstelle/21145600,Mo-Th 05:30-22:00; Fr 05:30-23:00; Sa 06:30-23:00; Su 07:30-22:00,BP,Q152057
15496,burgerking,Burger King,,Oelde,,,DE,+49 2522 831173,https://www.burgerking.de/store-locator/store/restaurant_9408,Mo-Th 11:00-23:00; Fr-Sa 11:00-00:00; Su 11:00-23:00,Burger King,Q177054
Petermeier-Oelde,combi_de,Combi,"Im Vogeldreisch 2a, 59302 Oelde-Stromberg",Oelde-Stromberg,,,DE,+49 2529 3199870,https://www.combi.de/marktauswahl/Petermeier-Oelde,Mo-Sa 07:00-20:00,Combi,Q1113618
DE2180,c_and_a,Oelde Lange Strasse,"Lange Strasse 39, 59302 Oelde",Oelde,,,DE,,https://www.c-and-a.com/stores/de-de/nordrhein-westfalen/oelde/lange-strasse-39.html,Mo 09:00-19:00; Tu 09:00-19:00; We 09:00-19:00; Th 09:00-19:00; Fr 09:00-19:00; Sa 09:00-18:00,C&A,Q701338
636,deutsche_telekom_de,Telekom Shop Oelde,,Oelde,,,DE,+49 2522 8344992,https://shopseite.telekom.de/west/oelde/lange-str-29,Mo-Fr 09:30-18:00; Sa 09:30-14:00,Deutsche Telekom,Q9396
de:2797,dm,dm-drogerie markt,,Oelde,,,DE,+49 2522 9218877,https://www.dm.de/store/d4kd/oelde/rhedaer-strasse-3,Mo-Sa 08:00-20:00,dm,Q266572
51.80707178.19579,dpd_de,Paplok-Elektronik e.K.,,Oelde,,,DE,,,,DPD,Q541030
51.824158.13078,dpd_de,Rottmann Kfz- und Reifenservice,,Oelde,,,DE,,,,DPD,Q541030
2760914376,gls_de,Paplok-Elektronik e. K.,,Oelde,,,DE,+49 2529 9459885,,Mo-Fr 08:00-16:00,General Logistics Systems,Q46495823
2760917131,gls_de,TRUST Computer GmbH,,Oelde,,,DE,+49 2522 9378355,,"Mo-Fr 10:00-14:00,15:00-17:00; Sa 10:00-12:30",General Logistics Systems,Q46495823
2760915037,gls_de,Karabel Home Company GmbH,,Oelde,,,DE,+49 2522 9217369,,Mo-Fr 10:00-16:30,General Logistics Systems,Q46495823
2400,kik,KiK,,Oelde,,,DE,+49 2522 833396,,Mo-Fr 09:00-19:00; Sa 09:00-18:00,KiK,Q883965
6765,lidl_de,,,Oelde,,,DE,,,Mo-Sa 07:00-21:00,Lidl,Q151954
27617689_001-dacia,renault,Schlüter & Weinekötter GmbH,,Oelde,,,DE,+49 2522 2299,,,Dacia,Q27460
27631078_001-renault,renault,Schlüter & Weinekötter GmbH,,Oelde,,,DE,+49 2522 2299,,,Renault,Q6686
https://www.rossmann.de/de/filialen/nordrhein-westfalen/oelde/lange-str--39.html,rossmann_de,Rossmann Drogerie-Markt Lange Str. 39,,Oelde,,,DE,+49 2522 8388769,https://www.rossmann.de/de/filialen/nordrhein-westfalen/oelde/lange-str--39.html,Mo-Fr 08:30-20:00; Sa 08:30-18:00,Rossmann,Q316004
60489,sparkasse_de,Sparkasse Münsterland Ost Geldautomat Lette,,Oelde,,,DE,+49 800 40050153,https://www.sparkasse.de/standorte/geldautomaten/sparkasse-muensterland-ost-geldautomat-lette-60489,Mo-Su 06:00-23:00,Sparkasse,Q13601825
15877,sparkasse_de,Sparkasse Münsterland Ost SB-Filiale Lette,,Oelde,,,DE,+49 5245 858885,https://www.sparkasse.de/standorte/geldautomaten/sparkasse-muensterland-ost-sb-filiale-lette-15877,Mo-Su 06:00-23:00,Sparkasse,Q13601825
60487,sparkasse_de,Sparkasse Münsterland Ost Geldautomat Oelde-Zum Sundern,,Oelde,,,DE,+49 800 40050153,https://www.sparkasse.de/standorte/geldautomaten/sparkasse-muensterland-ost-geldautomat-oelde-zum-sundern-60487,Mo-Su 06:00-23:00,Sparkasse,Q13601825
60488,sparkasse_de,Sparkasse Münsterland Ost Geldautomat Oelde-Vicarieplatz,,Oelde,,,DE,+49 800 40050153,https://www.sparkasse.de/standorte/geldautomaten/sparkasse-muensterland-ost-geldautomat-oelde-vicarieplatz-60488,Mo-Su 06:00-23:00,Sparkasse,Q13601825
34792,sparkasse_de,Sparkasse Münsterland Ost SB-Filiale Oelde-Zum Sundern,,Oelde,,,DE,+49 800 40050153,https://www.sparkasse.de/standorte/filialen/sparkasse-muensterland-ost-sb-filiale-oelde-zum-sundern-34792,Mo-Su 06:00-23:00,Sparkasse,Q13601825
34790,sparkasse_de,Sparkasse Münsterland Ost SB-Filiale Oelde Vicarieplatz,,Oelde,,,DE,+49 800 40050153,https://www.sparkasse.de/standorte/filialen/sparkasse-muensterland-ost-sb-filiale-oelde-vicarieplatz-34790,Mo-Su 06:00-23:00,Sparkasse,Q13601825
122538,sparkasse_de,Sparkasse Münsterland Ost ImmobilienCenter Oelde,,Oelde,,,DE,+49 2522 8220,https://www.sparkasse.de/standorte/filialen/sparkasse-muensterland-ost-immobilien-center-oelde-122538,"Mo 09:30-12:30; Tu 09:30-12:30,14:30-16:30; We 09:30-12:30; Th 09:30-12:30,14:30-16:30; Fr 09:30-12:30",Sparkasse,Q13601825
166483,sparkasse_de,Sparkasse Münsterland Ost Private Banking Oelde,,Oelde,,,DE,+49 251 59831292,https://www.sparkasse.de/standorte/filialen/sparkasse-muensterland-ost-private-banking-oelde-166483,,Sparkasse,Q13601825
60485,sparkasse_de,Sparkasse Münsterland Ost Geldautomat Oelde,,Oelde,,,DE,+49 800 40050153,https://www.sparkasse.de/standorte/geldautomaten/sparkasse-muensterland-ost-geldautomat-oelde-60485,Mo-Su 06:00-23:00,Sparkasse,Q13601825
15873,sparkasse_de,Sparkasse Münsterland Ost BeratungsCenter Oelde,,Oelde,,,DE,+49 2522 82224000,https://www.sparkasse.de/standorte/filialen/sparkasse-muensterland-ost-beratungs-center-oelde-15873,Mo 09:00-14:00; Tu 09:00-18:00; We 09:00-14:00; Th 09:00-18:00; Fr 09:00-14:00,Sparkasse,Q13601825
60486,sparkasse_de,Sparkasse Münsterland Ost Geldautomat Stromberg,,Oelde,,,DE,+49 800 40050153,https://www.sparkasse.de/standorte/geldautomaten/sparkasse-muensterland-ost-geldautomat-stromberg-60486,Mo-Su 06:00-23:00,Sparkasse,Q13601825
15876,sparkasse_de,Sparkasse Münsterland Ost SB-Filiale Stromberg,,Oelde,,,DE,+49 800 40050153,https://www.sparkasse.de/standorte/geldautomaten/sparkasse-muensterland-ost-sb-filiale-stromberg-15876,Mo-Su 06:00-23:00,Sparkasse,Q13601825
DE_EXT_01662,totalenergies,"ARAL TANKSTELLE OELDE, BERLINE",,Oelde,,,DE,,https://store.totalenergies.fr/en_EN/DE_EXT_01662,,Aral,Q565734
WES_DE_960,totalenergies,"OELDE, IN DER GEIST 110",,Oelde,,,DE,,https://store.totalenergies.fr/en_EN/WES_DE_960,,Westfalen,Q1411209
,visa,,,OELDE,,,DE,,,,,
,visa,,,OELDE,,,DE,,,,,
,visa,,,OELDE,,,DE,,,,,
,visa,,,OELDE,,,DE,,,,,
,visa,,,OELDE,,,DE,,,,,
,visa,,,OELDE,,,DE,,,,,
,visa,,,OELDE,,,DE,,,,,
,visa,,,OELDE,,,DE,,,,,
,visa,,,OELDE,,,DE,,,,,
https://www.vr.de/standorte/O/volksbank-eg-filiale-stromberg-sb-filiale-17295.html,vr_bank,Volksbank eG - Filiale Stromberg (SB-Filiale),,Oelde-Stromberg,,,DE,+49 2581 570,https://www.volksbank-eg.de,Mo-Su 06:00-23:00,,
https://www.vr.de/standorte/O/volksbank-eg-filiale-oelde-fritz-reuter-strasse-sb-filiale-17296.html,vr_bank,"Volksbank eG - Filiale Oelde, Fritz-Reuter-Straße (SB-Filiale)",,Oelde,,,DE,+49 2581 570,https://www.volksbank-eg.de,Mo-Su 06:00-23:00,,
https://www.vr.de/standorte/O/volksbank-eg-filiale-lette-sb-filiale-18690.html,vr_bank,Volksbank eG - Filiale Lette (SB-Filiale),,Oelde-Lette,,,DE,+49 2581 570,https://www.volksbank-eg.de,Mo-Su 06:00-23:00,,
https://www.vr.de/standorte/O/volksbank-eg-filiale-oelde-warendorfer-strasse-sb-filiale-17298.html,vr_bank,"Volksbank eG - Filiale Oelde, Warendorfer Straße (SB-Filiale)",,Oelde,,,DE,+49 2581 570,https://www.volksbank-eg.de,Mo-Su 06:00-23:00,,
https://www.vr.de/standorte/O/volksbank-eg-hauptstelle-oelde-17297.html,vr_bank,Volksbank eG - Hauptstelle Oelde,,Oelde,,,DE,+49 2581 570,https://www.volksbank-eg.de,"Mo 09:00-12:30,14:00-16:30; Tu 09:00-12:30,14:00-18:00; We 09:00-12:30,14:00-16:30; Th 09:00-12:30,14:00-18:00; Fr 09:00-12:30,14:00-16:30",,
