Ref,Spider,Name,Address,City,State,Zipcode,Country,Phone,Website,Hours,Brand,WikiData
142604,bluerhino,Houseman Foods #649,,White Cloud,MI,,US,+1 231-689-1280,,,Blue Rhino,Q65681213
197003,bluerhino,Family Dollar #5814,,White Cloud,MI,,US,+1 231-689-2396,,,Blue Rhino,Q65681213
182806,bluerhino,Rosenberg True Value #0316,,White Cloud,MI,,US,+1 231-689-1001,,,Blue Rhino,Q65681213
190696,bluerhino,Hilltop EZ Mart #570,,White Cloud,MI,,US,+1 231-689-6470,,,Blue Rhino,Q65681213
15321942573984934900100000961334,bp,BP,,White Cloud,MI,,US,+1 231-689-6470,,Mo-Su 06:00-22:00,BP,Q152057
60060,citi,ATM INDEPENDENT BANK,,White Cloud,MI,,US,,,,Citibank,Q857063
200320413,exxonmobil,BOB'S PARTY STORE,,WHITE CLOUD,MI,,US,+1 231-689-1108,https://www.exxon.com/en/find-station/mobil-whitecloud-mi-bobspartystore-200320413,Mo-Th 06:00-23:00; Fr-Sa 06:00-00:00; Su 06:00-22:00,Mobil,Q109676002
25814,family_dollar_us,FAMILY DOLLAR #5814,,White Cloud,MI,,US,+1 231-787-4005,https://www.familydollar.com/locations/mi/white-cloud/25814/,Mo-Su 09:00-21:00,Family Dollar,Q5433101
https://restaurants.subway.com/#14893907,subway,Subway,,White Cloud Newaygo,MI,,US,+1 231-689-1864,https://restaurants.subway.com/united-states/mi/white-cloud/267-s-charles-st,Mo-Fr 07:00-23:00; Sa 08:00-23:00; Su 08:00-22:00,Subway,Q244457
1387482,usps,WHITE CLOUD,,WHITE CLOUD,MI,,US,+1 231-689-6522,,"Mo-Fr 08:30-12:30,13:30-17:00; Sa 09:00-12:00",United States Postal Service,Q668687
4934900001,usps_collection_boxes,USPS COLLECTION BOX - BLUE BOX,1097 E WILCOX AVE,WHITE CLOUD,MI,,US,,,,United States Postal Service,Q668687
4934900002,usps_collection_boxes,USPS COLLECTION BOX - BLUE BOX,1097 E WILCOX AVE,WHITE CLOUD,MI,,US,,,,United States Postal Service,Q668687
4934900006,usps_collection_boxes,USPS COLLECTION BOX - PO LOBBY,1097 E WILCOX AVE,WHITE CLOUD,MI,,US,,,,United States Postal Service,Q668687
4934900003,usps_collection_boxes,USPS COLLECTION BOX - PO LOBBY,1097 E WILCOX AVE,WHITE CLOUD,MI,,US,,,,United States Postal Service,Q668687
4934900005,usps_collection_boxes,USPS COLLECTION BOX - BLUE BOX,47 S CHARLES ST,WHITE CLOUD,MI,,US,,,,United States Postal Service,Q668687
,visa,,,WHITE CLOUD,MI,,US,,,,,
,visa,,,WHITE CLOUD,MI,,US,,,,,
,visa,,,WHITE CLOUD,MI,,US,,,,,
,visa,,,WHITE CLOUD,MI,,US,,,,,
,visa,,,WHITE CLOUD,MI,,US,,,,,
,visa,,,WHITECLOUD,MI,,US,,,,,
,visa,,,WHITE CLOUD,MI,,US,,,,,
,visa,,,WHITE CLOUD,MI,,US,,,,,
09c127a161e172c047442b49bdfa4f2e,western_union,DOLLAR GENERAL #21014,,White Cloud,MI,,US,+1 231-689-8138,https://location.westernunion.com/us/mi/white-cloud/09c127a161e172c047442b49bdfa4f2e,Mo-Su 08:00-22:00,Western Union,Q861042
