Ref,Spider,Name,Address,City,State,Zipcode,Country,Phone,Website,Hours,Brand,WikiData
1680700015,banque_populaire_fr,RIVE DU LAC FAVERGES,,FAVERGES,,,FR,+33 4 50 32 88 32,https://agences.banquepopulaire.fr/banque-assurance/agence-rive-du-lac-faverges-id1680700015,"Tu-We 08:30-12:30,13:45-17:45; Th 08:30-12:00,13:45-17:45; Fr 08:30-12:30,13:45-17:45; Sa 08:00-12:30",Banque Populaire,Q846647
6207,carrefour_fr,Carrefour Express,,Faverges-Seythenex,,,FR,+33 4 50 32 42 93,https://www.carrefour.fr/magasin/express-faverges,Mo-Sa 07:30-21:00; Su 08:00-21:00,Carrefour Express,Q2940190
7256,carrefour_fr,Carrefour Contact,,Doussard,,,FR,+33 4 50 44 30 00,https://www.carrefour.fr/magasin/contact-doussard,Mo-Sa 08:00-19:30; Su 09:00-12:30,Carrefour Contact,Q2940188
8237,carrefour_fr,Carrefour Market Faverges,,Faverges-Seythenex,,,FR,+33 4 50 32 41 29,https://www.carrefour.fr/magasin/market-faverges,Mo-Sa 08:30-19:30; Su 08:30-12:30,Carrefour Market,Q2689639
https://www.credit-agricole.fr/particulier/agence/des-savoie/faverges-1232.html,credit_agricole,Crédit Agricole,,FAVERGES,,,FR,+33 4 50 19 40 03,https://www.credit-agricole.fr/particulier/agence/des-savoie/faverges-1232.html,"Tu-Fr 09:00-12:00,14:00-18:00; Sa 09:00-12:00",Credit Agricole,Q590952
https://www.credit-agricole.fr/particulier/agence/des-savoie/doussard-1268.html,credit_agricole,Crédit Agricole,,DOUSSARD,,,FR,+33 4 50 19 40 41,https://www.credit-agricole.fr/particulier/agence/des-savoie/doussard-1268.html,"Tu-Fr 09:00-12:00,14:00-18:00; Sa 09:00-12:00",Credit Agricole,Q590952
02414,credit_mutuel_fr,CAISSE DE CREDIT MUTUEL DU PAYS DE FAVERGES,,FAVERGES SEYTHENEX,,,FR,+33 4 50 63 78 17,https://www.creditmutuel.fr/fr/caisses/10278/02414/00/000,,Crédit Mutuel,Q642627
FordFF50226  FRA,ford,Thierry Rosset,,FAVERGES,,,FR,+33 4 50 32 51 78,www.fordfaverges.fr,,Ford,Q44294
3033,lidl_fr,FAVERGES,,FAVERGES,,,FR,,,Mo-Sa 08:30-19:30,Lidl,Q151954
00020001_001-renault,renault,GARAGE FONTAINE,,FAVERGES,,,FR,+33 4 50 44 51 09,,,Renault,Q6686
00020001_001-dacia,renault,GARAGE FONTAINE,,FAVERGES,,,FR,+33 4 50 44 51 09,,,Dacia,Q27460
,visa,,,FAVERGES,,,FR,,,,,
,visa,,,FAVERGES,,,FR,,,,,
,visa,,,FAVERGES,,,FR,,,,,
,visa,,,FAVERGES,,,FR,,,,,
,visa,,,FAVERGES,,,FR,,,,,
,visa,,,FAVERGES SEYTHENEX,,,FR,,,,,
,visa,,,FAVERGES,,,FR,,,,,
http://magasins.vival.fr/fr/vival-doussard,vival_fr,Vival Doussard,,Doussard,,,FR,,http://magasins.vival.fr/fr/vival-doussard,"Tu-Sa 07:30-13:00,15:00-20:00; Su 07:30-13:00",Vival,Q7937525
