Ref,Spider,Name,Address,City,State,Zipcode,Country,Phone,Website,Hours,Brand,WikiData
https://stores.aldi.us/#4420305,aldi_sud_us,ALDI  1177 N. Missouri Ave,,Largo,FL,,US,+1 877-474-7059,https://stores.aldi.us/fl/largo/1177-n-missouri-ave,"Mo-Su 08:30-20:00,09:00-20:00",ALDI,Q41171672
62172,asics_us,Shoe Carnival,1511 N Missouri Avenue,Largo,FL,,US,+1 727-587-7049,,,asics,Q327247
https://www.banfield.com/locations/veterinarians/fl/largo-/lwc,banfield_pet_hospital,Largo West Bay,,Largo,FL,,US,+1 727-501-9397,https://www.banfield.com/locations/veterinarians/fl/largo-/lwc,Mo-Fr 08:00-18:00; Sa 08:00-17:00; Su 00:00-24:00,Banfield Pet Hospital,Q2882416
https://locators.bankofamerica.com/fl/belleairbluffs/financial-centers-belleair-bluffs-12003.html,bankofamerica,Bank of America Financial Center & Drive-Thru ATM | Belleair Bluffs,,Belleair Bluffs,FL,,US,+1 727-518-0618,https://locators.bankofamerica.com/fl/belleairbluffs/financial-centers-belleair-bluffs-12003.html,Mo-Fr 10:00-16:00,Bank of America,Q487907
155018,bluerhino,Walgreens #6803,,BELLEAIR BLUFFS,FL,,US,+1 727-585-2095,,,Blue Rhino,Q65681213
160170,bluerhino,Publix #1309,,Belleair Bluffs,FL,,US,+1 727-586-0213,,,Blue Rhino,Q65681213
178297,bluerhino,Sunshine Ace Hardware #16703,,Largo,FL,,US,+1 727-581-5077,,,Blue Rhino,Q65681213
152088,bluerhino,Walgreens #5326,,Largo,FL,,US,+1 727-584-2494,,,Blue Rhino,Q65681213
160169,bluerhino,Publix #705,,Largo,FL,,US,+1 727-518-7747,,,Blue Rhino,Q65681213
777,bluerhino,Walmart #1712 - Supercenter,,Largo,FL,,US,+1 727-587-7822,,,Blue Rhino,Q65681213
173745,bluerhino,Family Dollar #10661,,Largo,FL,,US,+1 727-581-3892,,,Blue Rhino,Q65681213
https://locations.bonefishgrill.com/#15502812,bonefishgrill,"Bonefish Grill Belleair Bluffs, FL",,Belleair Bluffs,FL,,US,+1 727-518-1230,https://locations.bonefishgrill.com/florida/belleair-bluffs/2939-west-bay-drive,Mo-Th 11:00-22:00; Fr-Sa 11:00-23:00; Su 11:00-21:00,Bonefish Grill,Q4941599
2502504,chase_us,Westbay - New branch,,Largo,FL,,US,+1 727-518-0449,https://locator.chase.com/fl/largo/821-w-bay-dr,Mo-Fr 09:00-17:00; Sa 09:00-14:00,Chase,Q524629
378723,chevron,Chevron Station #378723,790 EAST BAY DRIVE,LARGO,FL,,US,+1 727-584-0120,,,Chevron,Q319642
378610,chevron,Chevron Station #378610,11301 ULMERTON RD.,LARGO,FL,,US,+1 727-585-1019,,,Chevron,Q319642
377022,chevron,Chevron Station #377022,1595 SEMINOLE BLVD.,LARGO,FL,,US,+1 727-585-4868,,,Chevron,Q319642
86441,citi,ATM Walgreens,,Belleair Bluffs,FL,,US,,,,Citibank,Q857063
29925,citi,ATM 7ELEVEN-FCTI,,Largo,FL,,US,,,,Citibank,Q857063
92971,citi,ATM Walgreens,,Largo,FL,,US,,,,Citibank,Q857063
69083,citi,ATM PNC AT WAWA,,Largo,FL,,US,,,,Citibank,Q857063
51550,citi,ATM CVS,,Largo,FL,,US,,,,Citibank,Q857063
24123,citi,ATM 7ELEVEN-FCTI,,Largo,FL,,US,,,,Citibank,Q857063
101,clean_eatz_us,,,Belleair Bluffs,FL,,US,+1 727-238-3413,https://locations.cleaneatz.com/fl/belleairbluffs/meal-prep-101.html,Mo-Fr 11:00-19:00; Sa-Su 11:00-15:00,Clean Eatz,Q124412638
22043,coldstone_creamery,Cold Stone Creamery,,Belleair Bluffs,FL,,US,+1 727-270-7010,https://www.coldstonecreamery.com/stores/22043,,Cold Stone Creamery,Q1094923
4083,cvs_us,CVS Pharmacy,,Largo,FL,,US,+1 727-518-2951,https://www.cvs.com/store-locator/largo-fl-pharmacies/51-missouri-ave-north-largo-fl-33770/storeid=4083,Mo-Su 07:00-22:00,CVS Pharmacy,Q2078880
9fe1e064-5cbb-4b84-86fe-24bf5e2fbb14,dairy_queen_us,351 Missouri Ave N,,Largo,FL,,US,+1 727-387-3091,https://www.dairyqueen.com/locations/fl/largo/351-missouri-ave-n/15911,,DQ Grill & Chill,Q1141226
247942,dennys,Denny's,,Largo,FL,,US,+1 727-585-7803,https://locations.dennys.com/FL/LARGO/247942,24/7,Denny's,Q1189695
5028,dominos_pizza_us,Domino's Pizza,,Largo,FL,,US,+1 727-551-4600,https://pizza.dominos.com/florida/largo/800-east-bay-dr-unit-d,Mo-Th 10:00-24:00; Fr-Sa 10:00-01:00; Su 10:00-24:00,Domino's,Q839466
356089,dunkin_us,Dunkin',,Largo,FL,,US,+1 727-233-4488,https://locations.dunkindonuts.com/en/fl/largo/201-14th-st-sw/356089,Mo-Su 05:00-20:00,Dunkin',Q847743
349933,dunkin_us,Dunkin',,Largo,FL,,US,+1 727-586-5100,https://locations.dunkindonuts.com/en/fl/largo/600-missouri-ave-n/349933,Mo-Su 05:00-20:00,Dunkin',Q847743
https://www.edwardjones.com/us-en/financial-advisor/brenda-ehrke,edwardjones,Brenda B Ehrke,,Largo,FL,,US,+1 727-581-3583,https://www.edwardjones.com/us-en/financial-advisor/brenda-ehrke,Mo-Fr 08:30-17:00,Edward Jones,Q5343830
3054,extra_space_storage,Largo Self Storage at 404 Seminole Blvd,,Largo,FL,,US,+1 727-581-3954,https://www.extraspace.com/storage/facilities/us/florida/largo/3054/,Mo-Fr 09:30-18:00; Sa 09:00-17:30,Extra Space Storage,Q5422162
200326577,exxonmobil,ROSERY,,LARGO,FL,,US,+1 561-965-4424,https://www.exxon.com/en/find-station/mobil-largo-fl-rosery-200326577,24/7,Mobil,Q109676002
30661,family_dollar_us,FAMILY DOLLAR #10661,,Largo,FL,,US,+1 727-373-1370,https://www.familydollar.com/locations/fl/largo/30661/,Mo-Su 08:00-22:00,Family Dollar,Q5433101
https://local.fedex.com/#25199830,fedex,,,Largo,FL,,US,+1 800-463-3339,https://local.fedex.com/en-us/fl/largo/aj2kr,,FedEx,Q459477
https://local.fedex.com/#25204149,fedex,,,Belleair Bluffs,FL,,US,+1 800-463-3339,https://local.fedex.com/en-us/fl/belleair-bluffs/apf8j,,FedEx,Q459477
https://locations.53.com/#73793752,fifththirdbank,Fifth Third Bank Belleair Bluffs,,Largo,FL,,US,+1 727-260-5311,https://locations.53.com/fl/largo/2501-west-bay-drive.html,Mo-Th 09:00-17:00; Fr 09:00-18:00; Sa 09:00-12:00,Fifth Third Bank,Q1411810
de6478ed-458a-e111-8dde-005056934050,goodwill,Largo Retail Store,,Largo,FL,,US,+1 727-581-7069,https://www.goodwill.org/locator/location/?store=ZGU2NDc4ZWQtNDU4YS1lMTExLThkZGUtMDA1MDU2OTM0MDUw&lat=MjcuOTMwNjg=&lng=LTgyLjc4Njk=,,Goodwill,Q5583655
https://salons.greatclips.com/us/fl/belleair-bluffs/2838-w-bay-dr,greatclips,Great Clips,,Belleair Bluffs,FL,,US,+1 727-314-4722,https://salons.greatclips.com/us/fl/belleair-bluffs/2838-w-bay-dr,Mo-Fr 08:00-20:00; Sa 09:00-18:00; Su 09:00-17:00,Great Clips,Q5598967
https://office.jacksonhewitt.com/#27576063,jackson_hewitt,Jackson Hewitt,,Largo,FL,,US,+1 727-547-8745,https://office.jacksonhewitt.com/tax-preparation-services-locations/en/fl/largo/990-missouri-ave-n/51712,Mo-Th 10:00-19:00; Fr 09:00-17:00; Sa 10:00-17:00; Su 13:00-17:00,Jackson Hewitt,Q6117132
222,jmclaughlin_us,J. McLaughlin,,Belleair Bluffs,FL,,US,+1 727-855-4811,https://www.jmclaughlin.com/store-details?store=US/FL/Belleair-Bluffs/400-490-Indian-Rocks-Road/Belleair-Bluffs,Mo-Sa 10:00-18:00; Su 11:00-16:00,J. McLaughlin,Q111230943
https://locations.papajohns.com/#10692702,papa_johns,Papa John's,,Largo,FL,,US,+1 727-584-7272,https://locations.papajohns.com/united-states/fl/33770/largo/1886-w-bay-dr,Mo-Sa 10:00-24:00; Su 10:00-23:00,Papa John's Pizza,Q2759586
66,pinch_a_penny_us,Pinch A Penny,,Largo,FL,,US,+1 727-585-0262,https://pinchapenny.com/stores/largo-fl-66,Mo-Sa 09:00-18:00; Su 10:00-15:00,Pinch A Penny,Q121436109
fl_largo_1602-n-missouri-ave,pizza_hut_us,1602 N. Missouri Ave.,,Largo,FL,,US,+1 727-584-1111,https://locations.pizzahut.com/fl/largo/1602-n-missouri-ave,,Pizza Hut,Q191615
https://www.arden-courts.org/locations/arden-courts-promedica-memory-care-community-largo/,promedica_us,Arden Courts - ProMedica Memory Care Community (Largo),,Largo,FL,,US,+1 727-559-8411,https://www.arden-courts.org/locations/arden-courts-promedica-memory-care-community-largo/,,ProMedica,Q7246673
https://www.publicstorage.com/self-storage-fl-largo/35.html,public_storage_us,Public Storage,,Largo,FL,,US,+1 727-491-5299,https://www.publicstorage.com/self-storage-fl-largo/35.html,,Public Storage,Q1156045
1197,rentacenter,Rent-A-Center,,Largo,FL,,US,+1 727-584-3010,https://locations.rentacenter.com/florida/largo/1380-missouri-ave-n/,Mo-Sa 10:00-18:00,Rent-A-Center,Q7313497
1670,ross_dress_for_less_us,North Largo,,North Largo,FL,,US,+1 727-581-3505,,Mo-Th 09:30-21:30; Fr-Sa 09:30-22:00; Su 10:00-21:00,Ross Dress for Less,Q3442791
35070,seven_eleven_ca_us,7-11 Str   10 Missouri Ave,,Largo,FL,,US,+1 727-584-1251,https://www.7-eleven.com/locations/fl/largo/10-missouri-ave-35070,,7-Eleven,Q259340
https://restaurants.subway.com/#14917081,subway,Subway Wal-Mart #1712,,Largo Pinellas,FL,,US,+1 727-518-2815,https://restaurants.subway.com/united-states/fl/largo/990-missouri-avenue-north,Mo-Su 08:00-21:30,Subway,Q244457
https://restaurants.subway.com/#14899466,subway,Subway,,Largo Pinellas,FL,,US,+1 727-581-3295,https://restaurants.subway.com/united-states/fl/largo/1886-w-bay-dr,Mo-Su 09:00-22:00,Subway,Q244457
https://restaurants.subway.com/#14901646,subway,Subway Missouri Crossings S/C,,Largo Pinellas,FL,,US,+1 727-584-2600,https://restaurants.subway.com/united-states/fl/largo/1200-missouri-ave,Mo-Th 09:00-22:00; Fr-Sa 09:00-23:00; Su 09:00-22:00,Subway,Q244457
081332,tjx,Largo,1301 Missouri Ave N,Largo,FL,,US,+1 727-585-4854,,Mo-Sa 09:30-21:30; Su 10:00-20:00,TJ Maxx,Q10860683
10333,tjx,Largo,10500 Ulmerton Rd ,Largo,FL,,US,+1 727-586-3617,,Mo-Sa 09:30-21:30; Su 10:00-20:00,Marshalls,Q15903261
4195,tmobile_us,Missouri Ave N & Rosery Rd NW,,Largo,FL,,US,+1 727-586-5551,https://www.t-mobile.com/store-locator/fl/largo/missouri-ave-n-rosery-rd-nw,,T-Mobile,Q3511885
1875,upsstore,Belleair Bluffs,2840 W Bay Dr,Belleair Bluffs,FL,,US,+1 727-584-6144,https://locations.theupsstore.com/fl/belleair-bluffs/2840-w-bay-dr,,UPS Store,Q7771029
1369885,usps,LARGO,,LARGO,FL,,US,+1 727-584-0301,,Mo-Fr 08:30-17:30; Sa 09:00-14:00,United States Postal Service,Q668687
3377000011,usps_collection_boxes,USPS COLLECTION BOX - BLUE BOX,2770 WEST BAY DR,LARGO,FL,,US,,,,United States Postal Service,Q668687
3377000019,usps_collection_boxes,USPS COLLECTION BOX - BLUE BOX,2819 WEST BAY DR,LARGO,FL,,US,,,,United States Postal Service,Q668687
3377000022,usps_collection_boxes,USPS COLLECTION BOX - BLUE BOX,2840 WEST BAY DR,LARGO,FL,,US,,,,United States Postal Service,Q668687
3377000037,usps_collection_boxes,USPS COLLECTION BOX - BLUE BOX,1301 MISSOURI AVE N,LARGO,FL,,US,,,,United States Postal Service,Q668687
3377000042,usps_collection_boxes,USPS COLLECTION BOX - BLUE BOX,50 8TH AVE SW,LARGO,FL,,US,,,,United States Postal Service,Q668687
3377000048,usps_collection_boxes,USPS COLLECTION BOX - BLUE BOX,2401 WEST BAY DR,LARGO,FL,,US,,,,United States Postal Service,Q668687
3377000050,usps_collection_boxes,USPS COLLECTION BOX - APC,50 8TH AVE SW,LARGO,FL,,US,,,,United States Postal Service,Q668687
3377000053,usps_collection_boxes,USPS COLLECTION BOX - BLUE BOX,801 WEST BAY DR,LARGO,FL,,US,,,,United States Postal Service,Q668687
3377000060,usps_collection_boxes,USPS COLLECTION BOX - PO LOBBY,50 8TH AVE SW,LARGO,FL,,US,,,,United States Postal Service,Q668687
,visa,,,LARGO,FL,,US,,,,,
,visa,,,LARGO,FL,,US,,,,,
,visa,,,LARGO,FL,,US,,,,,
,visa,,,LARGO,FL,,US,,,,,
,visa,,,LARGO,FL,,US,,,,,
,visa,,,LARGO,FL,,US,,,,,
,visa,,,LARGO,FL,,US,,,,,
,visa,,,LARGO,FL,,US,,,,,
,visa,,,LARGO,FL,,US,,,,,
,visa,,,LARGO,FL,,US,,,,,
,visa,,,LARGO,FL,,US,,,,,
,visa,,,LARGO,FL,,US,,,,,
,visa,,,LARGO,FL,,US,,,,,
,visa,,,LARGO,FL,,US,,,,,
,visa,,,LARGO,FL,,US,,,,,
,visa,,,LARGO,FL,,US,,,,,
,visa,,,LARGO,FL,,US,,,,,
,visa,,,LARGO,FL,,US,,,,,
,visa,,,LARGO,FL,,US,,,,,
,visa,,,LARGO,FL,,US,,,,,
,visa,,,LARGO,FL,,US,,,,,
,visa,,,LARGO,FL,,US,,,,,
,visa,,,LARGO,FL,,US,,,,,
,visa,,,LARGO,FL,,US,,,,,
,visa,,,LARGO,FL,,US,,,,,
,visa,,,LARGO,FL,,US,,,,,
,visa,,,LARGO,FL,,US,,,,,
,visa,,,LARGO,FL,,US,,,,,
,visa,,,LARGO,FL,,US,,,,,
,visa,,,LARGO,FL,,US,,,,,
,visa,,,LARGO,FL,,US,,,,,
,visa,,,LARGO,FL,,US,,,,,
,visa,,,LARGO,FL,,US,,,,,
,visa,,,LARGO,FL,,US,,,,,
,visa,,,LARGO,FL,,US,,,,,
,visa,,,LARGO,FL,,US,,,,,
,visa,,,LARGO,FL,,US,,,,,
,visa,,,LARGO,FL,,US,,,,,
,visa,,,LARGO,FL,,US,,,,,
,visa,,,LARGO,FL,,US,,,,,
,visa,,,LARGO,FL,,US,,,,,
,visa,,,LARGO,FL,,US,,,,,
,visa,,,LARGO,FL,,US,,,,,
,visa,,,SEMINOLE,FL,,US,,,,,
,visa,,,BELLAIR,FL,,US,,,,,
,visa,,,BELLEAIR BLUFFS,FL,,US,,,,,
,visa,,,BELLEAIR BLUFFS,FL,,US,,,,,
,visa,,,BELLEAIR BLUFFS,FL,,US,,,,,
,visa,,,BELLEAIR BLUFFS,FL,,US,,,,,
,visa,,,BELLEAIR BLUFFS,FL,,US,,,,,
,visa,,,BELLEAIR BLUFFS,FL,,US,,,,,
https://www.walgreens.com/locator/walgreens-800+w+bay+dr-largo-fl-33770/id=5326,walgreens,Walgreens,,Largo,FL,,US,+1 727-584-2494,https://www.walgreens.com/locator/walgreens-800+w+bay+dr-largo-fl-33770/id=5326,Mo-Su 09:00-21:00,Walgreens,Q1591889
https://www.walgreens.com/locator/walgreens-1301+2nd+ave+sw-largo-fl-33770/id=13630,walgreens,Walgreens,,Largo,FL,,US,+1 727-581-9382,https://www.walgreens.com/locator/walgreens-1301+2nd+ave+sw-largo-fl-33770/id=13630,Mo-Fr 08:00-17:00; Sa-Su 00:00-24:00,Walgreens,Q1591889
https://www.walgreens.com/locator/walgreens-103+indian+rocks+rd+s-belleair+bluffs-fl-33770/id=6803,walgreens,Walgreens,,Belleair Bluffs,FL,,US,+1 727-585-2095,https://www.walgreens.com/locator/walgreens-103+indian+rocks+rd+s-belleair+bluffs-fl-33770/id=6803,Mo-Su 07:00-23:00,Walgreens,Q1591889
801__W__BAY__DR_LARGO_FL_33770,wellsfargo,,801 W BAY DR,LARGO,FL,,US,+1 800-869-3557,https://www.wellsfargo.com/locator/bank/801__W__BAY__DR_LARGO_FL_33770/,,Wells Fargo,Q744149
2515__W__BAY__DR_BELLEAIR__BLUFFS_FL_33770,wellsfargo,Wells Fargo,2515 W BAY DR,BELLEAIR BLUFFS,FL,,US,+1 727-538-4584,https://www.wellsfargo.com/locator/bank/2515__W__BAY__DR_BELLEAIR__BLUFFS_FL_33770/,Mo-Fr 09:00-17:00,Wells Fargo,Q744149
dce88549ebc27ad10b82616eabb62618,western_union,7-ELEVEN #35070,,Largo,FL,,US,+1 727-584-1251,https://location.westernunion.com/us/fl/largo/dce88549ebc27ad10b82616eabb62618,,Western Union,Q861042
e00df1d9a9bddbb1d85fb81a125f1696,western_union,7-ELEVEN #10253,,Largo,FL,,US,+1 727-581-2299,https://location.westernunion.com/us/fl/largo/e00df1d9a9bddbb1d85fb81a125f1696,,Western Union,Q861042
a044d62b9a08702efdfb7b50a63b79d2,western_union,WALMART #001712,,Largo,FL,,US,+1 727-587-7822,https://location.westernunion.com/us/fl/largo/a044d62b9a08702efdfb7b50a63b79d2,Mo-Su 07:00-21:00,Western Union,Q861042
