Ref,Spider,Name,Address,City,State,Zipcode,Country,Phone,Website,Hours,Brand,WikiData
4719,autozone_us,AutoZone Auto Parts Copiague,,Copiague,NY,,US,+1 631-789-2014,https://www.autozone.com/locations/ny/copiague/1235-sunrise-hwy.html,Mo-Sa 07:30-22:00; Su 08:00-21:00,AutoZone,Q4826087
https://locators.bankofamerica.com/ny/copiague/financial-centers-copiague-15257.html,bankofamerica,Bank of America Financial Center & Walk-Up ATM | Copiague,,Copiague,NY,,US,+1 631-842-5200,https://locators.bankofamerica.com/ny/copiague/financial-centers-copiague-15257.html,Mo-Fr 09:00-17:00; Sa 09:00-14:00,Bank of America,Q487907
https://local.biglots.com/#13189733,biglots,Big Lots - Copiague,,Copiague,NY,,US,+1 631-957-3268,https://local.biglots.com/ny/copiague/1255-sunrise-hwy,Mo-Su 09:00-21:00,Big Lots,Q4905973
2041247,chase_us,Copiague - New branch,,Copiague,NY,,US,+1 631-842-2101,https://locator.chase.com/ny/copiague/895-merrick-rd,Mo-Fr 09:00-17:00; Sa 09:00-14:00,Chase,Q524629
16510,cvs_us,CVS Pharmacy,,Copiague,NY,,US,+1 631-841-5067,https://www.cvs.com/store-locator/copiague-ny-pharmacies/1149-sunrise-hwy-copiague-ny-11726/storeid=16510,"Mo-Fr 09:00-13:30,14:00-19:00; Sa 09:00-13:30,14:00-17:00; Su 11:00-13:30,14:00-17:00",CVS Pharmacy,Q2078880
7621,cvs_us,CVS Pharmacy,,Copiague,NY,,US,+1 631-842-5381,https://www.cvs.com/store-locator/copiague-ny-pharmacies/930-montauk-hwy-copiague-ny-11726/storeid=7621,Mo-Su 08:00-22:00,CVS Pharmacy,Q2078880
357328,dunkin_us,Dunkin',,Copiague,NY,,US,+1 631-608-4483,https://locations.dunkindonuts.com/en/ny/copiague/1115-montauk-hwy/357328,24/7,Dunkin',Q847743
240273,electrify_america,Evolve NY Copiague,,Copiague,NY,,US,,,,Electrify America,Q59773555
0000910796,phillips_66_conoco_76,COPIAGUE,,COPIAGUE,NY,,US,5555555555,,,Conoco,Q109341187
ny_copiague_1201-sunrise-hwy,pizza_hut_us,1201 Sunrise Hwy,,Copiague,NY,,US,,https://locations.pizzahut.com/ny/copiague/1201-sunrise-hwy,,Pizza Hut,Q191615
home-depot-1218-14290,ppgpaints,HOME DEPOT 1218,,"Copiague, ",NY,,US,+1 631-789-9200,https://www.ppgpaints.com/store-locator/us/new-york/copiague-paint-stores/home-depot-1218-14290,,PPG Paints,Q83891559
9693171755921390240,sleep_number_us,Sleep Number,,Copiague,NY,,US,,https://www.sleepnumber.com/stores/ny/copiague/901-sunrise-hwy,Mo-Th 10:00-19:00; Fr-Sa 10:00-20:00; Su 11:00-19:00,Sleep Number,Q7447640
https://restaurants.subway.com/#14896009,subway,Subway,,Copiague Suffolk,NY,,US,+1 631-789-9344,https://restaurants.subway.com/united-states/ny/copiague/1028-montauk-hwy,Mo-Su 09:00-23:30,Subway,Q244457
8002585501,sunoco_us,Sunoco,,BOHEMIA,NY,,US,,,,Sunoco,Q1423218
1359204,usps,COPIAGUE,,COPIAGUE,NY,,US,+1 631-842-9084,,Mo-Fr 09:00-17:00; Sa 09:00-13:00,United States Postal Service,Q668687
1172600005,usps_collection_boxes,USPS COLLECTION BOX - BLUE BOX,235 S GREAT NECK RD,COPIAGUE,NY,,US,,,,United States Postal Service,Q668687
1172600017,usps_collection_boxes,USPS COLLECTION BOX - BLUE BOX,910 MERRICK RD,COPIAGUE,NY,,US,,,,United States Postal Service,Q668687
1172600007,usps_collection_boxes,USPS COLLECTION BOX - BLUE BOX,50 DEAUVILLE BLVD,COPIAGUE,NY,,US,,,,United States Postal Service,Q668687
1172600022,usps_collection_boxes,USPS COLLECTION BOX - BLUE BOX,105 CEDAR CT,COPIAGUE,NY,,US,,,,United States Postal Service,Q668687
1172600012,usps_collection_boxes,USPS COLLECTION BOX - BLUE BOX,275 GREAT NECK RD,COPIAGUE,NY,,US,,,,United States Postal Service,Q668687
1172600018,usps_collection_boxes,USPS COLLECTION BOX - BLUE BOX,148 OAK ST,COPIAGUE,NY,,US,,,,United States Postal Service,Q668687
1172600014,usps_collection_boxes,USPS COLLECTION BOX - BLUE BOX,1 MOLLOY ST,COPIAGUE,NY,,US,,,,United States Postal Service,Q668687
1172600011,usps_collection_boxes,USPS COLLECTION BOX - BLUE BOX,1550 GREAT NECK RD,COPIAGUE,NY,,US,,,,United States Postal Service,Q668687
1172600046,usps_collection_boxes,USPS COLLECTION BOX - PO LOBBY,695 MARCONI BLVD,COPIAGUE,NY,,US,,,,United States Postal Service,Q668687
1172600044,usps_collection_boxes,USPS COLLECTION BOX - PO LOBBY,695 MARCONI BLVD,COPIAGUE,NY,,US,,,,United States Postal Service,Q668687
1172600010,usps_collection_boxes,USPS COLLECTION BOX - BLUE BOX,695 MARCONI BLVD,COPIAGUE,NY,,US,,,,United States Postal Service,Q668687
1172600008,usps_collection_boxes,USPS COLLECTION BOX - BLUE BOX,695 MARCONI BLVD,COPIAGUE,NY,,US,,,,United States Postal Service,Q668687
1172600001,usps_collection_boxes,USPS COLLECTION BOX - BLUE BOX,120 CAMBRIDGE DR,COPIAGUE,NY,,US,,,,United States Postal Service,Q668687
1172600006,usps_collection_boxes,USPS COLLECTION BOX - BLUE BOX,502 HAWKINS BLVD,COPIAGUE,NY,,US,,,,United States Postal Service,Q668687
1172600013,usps_collection_boxes,USPS COLLECTION BOX - BLUE BOX,1 DI TOMAS CT,COPIAGUE,NY,,US,,,,United States Postal Service,Q668687
1172600003,usps_collection_boxes,USPS COLLECTION BOX - BLUE BOX,155 CORTLAND ST,COPIAGUE,NY,,US,,,,United States Postal Service,Q668687
1172600015,usps_collection_boxes,USPS COLLECTION BOX - BLUE BOX,33 RIETH ST,COPIAGUE,NY,,US,,,,United States Postal Service,Q668687
1172600016,usps_collection_boxes,USPS COLLECTION BOX - BLUE BOX,1200 SUNRISE HWY,COPIAGUE,NY,,US,,,,United States Postal Service,Q668687
1172600019,usps_collection_boxes,USPS COLLECTION BOX - BLUE BOX,1279 SUNRISE HWY,COPIAGUE,NY,,US,,,,United States Postal Service,Q668687
0000001276,valero,COPIAGUE,,COPIAGUE,NY,,US,+1 631-789-8826,https://locations.valero.com/en-us/LocationDetails/Index/702-OAK-ST/0000001276,24/7,Valero,Q1283291
copiague_oil-change-bv6306,valvoline_instant_oil_change,Valvoline,1702 Sunrise Highway ,Copiague,NY,,US,+1 631-225-4645,https://store.vioc.com/ny/copiague/oil-change-bv6306.html,,Valvoline Instant Oil Change,Q7912852
https://vcahospitals.com/southgate,vca,Southgate Animal Hospital,,Copiague,NY,,US,+1 631-789-1234,https://vcahospitals.com/southgate,Mo-Tu 08:00-20:00; We-Fr 08:00-18:00; Sa 08:00-15:00,VCA,Q7906620
A00000253500,verizon_us,Wireless Zone Copiague,,COPIAGUE,NY,,US,+1 631-464-4500,https://www.verizon.com/stores/details/new-york/copiague/tcc-copaigue-1747522/,Mo-Sa 10:00-20:00; Su 10:00-17:00,Verizon,Q919641
,visa,,,COPIAGUE,NY,,US,,,,,
,visa,,,COPIAGUE,NY,,US,,,,,
,visa,,,COPIAGUE,NY,,US,,,,,
,visa,,,COPIAGUE,NY,,US,,,,,
,visa,,,COPIAGUE,NY,,US,,,,,
,visa,,,COPIAGE,NY,,US,,,,,
,visa,,,COPAIGUE,NY,,US,,,,,
,visa,,,COPIAGUE,NY,,US,,,,,
,visa,,,COPIAGUE,NY,,US,,,,,
,visa,,,COPIAGUE,NY,,US,,,,,
,visa,,,COPIAGUE,NY,,US,,,,,
,visa,,,COPIAGUE,NY,,US,,,,,
,visa,,,COPIAGUE,NY,,US,,,,,
,visa,,,COPIAGUE,NY,,US,,,,,
,visa,,,COPIAGUE,NY,,US,,,,,
,visa,,,COPIAGUE,NY,,US,,,,,
,visa,,,COPIAGUE,NY,,US,,,,,
,visa,,,COPIAGUE,NY,,US,,,,,
,visa,,,COPIAGUE,NY,,US,,,,,
,visa,,,COPIAGUE,NY,,US,,,,,
,visa,,,COPLAGUE,NY,,US,,,,,
,visa,,,COPIAGUE,NY,,US,,,,,
,visa,,,COPIAGUE,NY,,US,,,,,
,visa,,,COPIQUE,NY,,US,,,,,
,visa,,,COPIAGUE,NY,,US,,,,,
,visa,,,COPIAGUE,NY,,US,,,,,
,visa,,,COPIAGUE,NY,,US,,,,,
,visa,,,COPIAGUE,NY,,US,,,,,
,visa,,,COPIAGUE,NY,,US,,,,,
,visa,,,COPLDUGE,NY,,US,,,,,
,visa,,,COPIAGUE,NY,,US,,,,,
,visa,,,COPIAGUE,NY,,US,,,,,
,visa,,,COPIAGUE,NY,,US,,,,,
,visa,,,COPIAGUE,NY,,US,,,,,
,visa,,,COPIAGUE,NY,,US,,,,,
,visa,,,COPIAGUE,NY,,US,,,,,
,visa,,,COPIAGUE,NY,,US,,,,,
,visa,,,COPIAGUE,NY,,US,,,,,
,visa,,,COPIAGUE,NY,,US,,,,,
,visa,,,COPAIGUE,NY,,US,,,,,
,visa,,,COPIAGUE,NY,,US,,,,,
,visa,,,COPIAGUE,NY,,US,,,,,
,visa,,,COPIAGUE,NY,,US,,,,,
,visa,,,COPIAGUE,NY,,US,,,,,
,visa,,,COPIAGUE,NY,,US,,,,,
,visa,,,COPIAGUE,NY,,US,,,,,
,visa,,,COPIAGUE,NY,,US,,,,,
,visa,,,COPAIGE,NY,,US,,,,,
,visa,,,COPIAGUE√E¬E√¢¬A¬O,NY,,US,,,,,
,visa,,,COPIAGUE,NY,,US,,,,,
,visa,,,COPIAGUE,NY,,US,,,,,
,visa,,,COPIAGUE,NY,,US,,,,,
,visa,,,COPIAGUE,NY,,US,,,,,
,visa,,,COPIAGUE,NY,,US,,,,,
,visa,,,COPIAGUE,NY,,US,,,,,
,visa,,,COPIAGUE,NY,,US,,,,,
,visa,,,COPIAGUE,NY,,US,,,,,
,visa,,,LONG ISLAND,NY,,US,,,,,
,visa,,,COPIAGUE,NY,,US,,,,,
,visa,,,COPIAGUE,NY,,US,,,,,
,visa,,,COPIAGUE,NY,,US,,,,,
,visa,,,COPIAGUE,NY,,US,,,,,
,visa,,,COPIAGUE,NY,,US,,,,,
https://locations.wendys.com/#9251748,wendys,"Wendy's 820 Montauk Highway in Copiague, NY",,Copiague,NY,,US,+1 631-789-0615,https://locations.wendys.com/united-states/ny/copiague/820-montauk-highway,"Mo-Su 07:00-10:30,08:00-22:00",Wendy's,Q550258
https://locations.wendys.com/#9251747,wendys,"Wendy's 1255 Sunrise Highway in Copiague, NY",,Copiague,NY,,US,+1 631-842-1763,https://locations.wendys.com/united-states/ny/copiague/1255-sunrise-highway,"Mo-Su 07:00-10:30,09:00-22:00",Wendy's,Q550258
