Ref,Spider,Name,Address,City,State,Zipcode,Country,Phone,Website,Hours,Brand,WikiData
https://stores.advanceautoparts.com/ky/mount-sterling/696-maysville-rd,advance_auto_parts_us,Advance Auto Parts,,Mount Sterling,KY,,US,+1 859-497-0814,https://stores.advanceautoparts.com/ky/mount-sterling/696-maysville-rd,Mo-Sa 07:30-21:00; Su 09:00-20:00,Advance Auto Parts,Q4686051
https://restaurants.applebees.com/en-us/ky/mount-sterling/690-n.-maysville-road-95061,applebees,Connect with this Applebee's,,Mount Sterling,KY,,US,+1 859-499-3367,https://restaurants.applebees.com/en-us/ky/mount-sterling/690-n.-maysville-road-95061,Mo-Su 11:00-24:00,Applebees,Q621532
https://locations.arbys.com/ky/mountsterling/694-maysville-rd.html,arbys_us,"Arby's Fast-Food Drive Through Near You in Mount Sterling, KY",,Mount Sterling,KY,,US,+1 859-498-9936,https://locations.arbys.com/ky/mountsterling/694-maysville-rd.html,Mo-Th 10:00-22:00; Fr-Sa 10:00-23:00; Su 10:00-22:00,Arby's,Q630866
23042,asics_us,Hibbett Sports,259 Indian Mound Dr,Mt Sterling,KY,,US,+1 859-499-4075,,,asics,Q327247
1082,autozone_us,AutoZone Auto Parts Mount Sterling,,Mount Sterling,KY,,US,+1 859-499-0366,https://www.autozone.com/locations/ky/mount-sterling/502-maysville-rd.html,Mo-Sa 07:30-21:00; Su 09:00-20:00,AutoZone,Q4826087
605,bealls_us,Bealls,,Mt Sterling,KY,,US,+1 859-497-4084,https://stores.bealls.com/ky/mtsterling/clothing-store-605.html,Mo-Th 09:00-21:00; Fr-Sa 09:00-21:30; Su 10:00-20:00,Bealls,Q4876153
https://local.biglots.com/#13191023,biglots,Big Lots - Mount Sterling,,Mount Sterling,KY,,US,+1 859-499-3312,https://local.biglots.com/ky/mount-sterling/1342-indian-mound-dr,Mo-Sa 09:00-21:00; Su 11:00-19:00,Big Lots,Q4905973
159729,bluerhino,Big Lots #1495,,Mount Sterling,KY,,US,+1 859-499-3312,,,Blue Rhino,Q65681213
239467,bluerhino,Circle K #4703259,,Mount Sterling,KY,,US,+1 859-498-4661,,,Blue Rhino,Q65681213
103638,bluerhino,Kroger #712- Louisville,,Mount Sterling,KY,,US,+1 859-497-4314,,,Blue Rhino,Q65681213
52114,bluerhino,Zip Zone Express #011,,Mount Sterling,KY,,US,+1 859-497-9968,,,Blue Rhino,Q65681213
101623,bluerhino,Lowe's #2768,,Mount Sterling,KY,,US,+1 859-499-2300,,,Blue Rhino,Q65681213
14176,bluerhino,Speedway #9650,,Mount Sterling,KY,,US,+1 859-498-6220,,,Blue Rhino,Q65681213
164419,bluerhino,Family Dollar #00646,,MOUNT STERLING,KY,,US,+1 859-498-9716,,,Blue Rhino,Q65681213
211131,bluerhino,Dollar General #23014,,Mount Sterling,KY,,US,+1 859-354-4715,,,Blue Rhino,Q65681213
106178,bluerhino,Pilot Travel #041,,Mount Sterling,KY,,US,+1 859-497-4041,,,Blue Rhino,Q65681213
35924930337114035300100000000000,bp,BP,,Mount Sterling,KY,,US,+1 859-520-9001,,Mo-Fr 09:00-19:00; Sa 10:00-19:00; Su 12:00-19:00,BP,Q152057
62998747526014035300100000526934,bp,BP,,Mount Sterling,KY,,US,+1 859-498-5013,,24/7,BP,Q152057
364294,captaind,Captain D's,,Mt Sterling,KY,,US,+1 859-498-7147,https://locations.captainds.com/ll/US/KY/Mt-Sterling/488-Indian-Mound-Dr,Mo-Su 10:30-20:00,Captain D's,Q5036616
https://stores.catofashions.com/#26559724,cato_us,Cato,,,KY,,US,+1 859-499-0155,https://stores.catofashions.com/ky/mount-sterling/840-indian-mound-drive,Mo-Sa 10:00-19:00; Su 13:00-18:00,Cato,Q16956136
47414,citi,ATM CVS,,Mount Sterling,KY,,US,,,,Citibank,Q857063
44241,citi,ATM Circle K,,Mount Sterling,KY,,US,,,,Citibank,Q857063
61614,citi,ATM Kroger,,Mount Sterling,KY,,US,,,,Citibank,Q857063
78772,citi,ATM Speedway,,Mount Sterling,KY,,US,,,,Citibank,Q857063
80422,citi,ATM SPEEDWAY #9650,,Mount Sterlin,KY,,US,,,,Citibank,Q857063
3344,cookout,"Mount Sterling, KY",,MT. STERLING,KY,,US,,,Mo-Th 10:30-03:00; Fr-Sa 10:30-04:00; Su 10:30-03:00,Cookout,Q5166992
70209109,cricket_wireless,Cricket Wireless Authorized Retailer,,Mt Sterling,KY,,US,+1 859-432-8714,https://www.cricketwireless.com/stores/ll/US/KY/Mt-Sterling/916-Indian-Mound-Dr,Mo-Fr 10:00-20:00; Sa 10:00-18:00; Su 12:00-17:00,Cricket Wireless,Q5184987
6337,cvs_us,CVS Pharmacy,,Mount Sterling,KY,,US,+1 859-498-4320,https://www.cvs.com/store-locator/mount-sterling-ky-pharmacies/1201-indian-mound-dr-mount-sterling-ky-40353/storeid=6337,Mo-Su 08:00-23:00,CVS Pharmacy,Q2078880
1441,dominos_pizza_us,Domino's Pizza,,Mt Sterling,KY,,US,+1 859-279-2700,https://pizza.dominos.com/kentucky/mt-sterling/920-indian-mount-rd,Mo-Th 10:30-24:00; Fr-Sa 10:30-01:00; Su 10:30-24:00,Domino's,Q839466
https://www.edwardjones.com/us-en/financial-advisor/emily-rice,edwardjones,Emily Rice,,Mt Sterling,KY,,US,+1 859-498-2863,https://www.edwardjones.com/us-en/financial-advisor/emily-rice,Mo-Fr 08:00-17:00,Edward Jones,Q5343830
E15833,enterprise,Mount Sterling,,Mount Sterling,KY,,US,+1 859-499-3571,,,Enterprise Rent-A-Car,Q17085454
Motorcraft2434USAEnglish,ford,Dutch's Ford,,Kentucky,KY,,US,+1 859-498-4012,,,Ford,Q44294
https://www.ford.com/dealerships/dealer-details/ky/mount-sterling/dutch%27s-ford/,ford_dealers_us,Dutch's Ford,,Mount Sterling,KY,,US,+1 877-551-7749,https://www.ford.com/dealerships/dealer-details/ky/mount-sterling/dutch's-ford/,Mo-Fr 09:00-18:00; Sa 09:00-15:00,Ford Motor Company,Q44294
2938,fresenius_kidney_care_us,Fresenius Kidney Care Mt. Sterling,,Mount Sterling,KY,,US,+1 800-881-5101,https://www.freseniuskidneycare.com/dialysis-centers/kentucky/2938,Mo-Sa 05:30-17:30,,
6621,gamestop_us,Commonwealth Dr Mount Sterling,,Mount Sterling,KY,,US,+1 859-497-4261,https://www.gamestop.com/search/?store=6621,Mo-Th 12:00-20:00; Fr-Sa 11:00-21:00; Su 11:00-19:00,GameStop,Q202210
5fbe77f3-458a-e111-8dde-005056934050,goodwill,Mt. Sterling Center #5265,,Mount Sterling,KY,,US,+1 859-497-0003,https://www.goodwill.org/locator/location/?store=NWZiZTc3ZjMtNDU4YS1lMTExLThkZGUtMDA1MDU2OTM0MDUw&lat=MzguMDY4Nw==&lng=LTgzLjk1NTM1,,Goodwill,Q5583655
https://salons.greatclips.com/us/ky/mount-sterling/868-indian-mound-dr,greatclips,Great Clips,,Mount Sterling,KY,,US,+1 859-499-0063,https://salons.greatclips.com/us/ky/mount-sterling/868-indian-mound-dr,Mo-Fr 08:30-20:00; Sa 08:30-18:00; Su 10:00-18:00,Great Clips,Q5598967
https://www.harborfreight.com/storelocator/241-indian-mound-dr-mount-sterling-40353?number=3235,harborfreight,"Harbor Freight Tools Mount Sterling, KY",,Mount Sterling,KY,,US,+1 859-681-3838,https://www.harborfreight.com/storelocator/241-indian-mound-dr-mount-sterling-40353?number=3235,Mo-Sa 08:00-20:00; Su 09:00-18:00,Harbor Freight Tools,Q5654601
17817,h_r_block,H&R Block,,Mount Sterling,KY,,US,+1 859-498-2100,https://www.hrblock.com/local-tax-offices/kentucky/mount-sterling/255-indian-mound-dr/17817/,,H&R Block,Q5627799
https://office.jacksonhewitt.com/#27575798,jackson_hewitt,Jackson Hewitt,,Mount Sterling,KY,,US,+1 270-422-1140,https://office.jacksonhewitt.com/tax-preparation-services-locations/en/ky/mount-sterling/499-indian-mound-dr/51140,Mo-Sa 10:00-18:00; Su 13:00-17:00,Jackson Hewitt,Q6117132
https://locations.kfc.com/#11250291,kfc,Chicken Nuggets Near Mount Sterling,,Mount Sterling,KY,,US,,https://locations.kfc.com/ky/mount-sterling/109-ragland-avenue/chickennugget,Mo-Su 10:00-22:00,KFC,Q524757
160030,marathon_petroleum_us,Lulu's Marathon,,MOUNT STERLING,KY,,US,+1 859-498-7262,,,Marathon,Q458363
160124,marathon_petroleum_us,Mustangs Mart #7,,Mt Sterling,KY,,US,+1 859-498-5161,,,Marathon,Q458363
157374,marathon_petroleum_us,ZIP ZONE EXPRESS INC 11,,MOUNT STERLING,KY,,US,+1 859-497-9968,,,Marathon,Q458363
160219,marathon_petroleum_us,Mount Sterling Foodmart,,MOUNT STERLING,KY,,US,+1 757-217-7491,,,Marathon,Q458363
158207,marathon_petroleum_us,Mt. Sterling Food Mart,,Mt Sterling,KY,,US,+1 859-520-3571,,,Marathon,Q458363
8675,murphy_usa_us,,,Mt. Sterling,KY,,US,+1 859-498-7116,,Mo-Sa 05:00-23:00; Su 06:00-22:30,Murphy USA,Q19604459
203,ollies_bargain_outlet,Ollie's Bargain Outlet,,Mt. Sterling,KY,,US,+1 859-498-7506,https://www.ollies.us/locations/217-indian-mound-drive-mt-sterling-ky/,Mo-Sa 09:00-21:00; Su 10:00-19:00,Ollie's Bargain Outlet,Q7088304
https://locations.oreillyauto.com/ky/mtsterling/check-engine-light-testing-1420.html,oreilly,Your Mt Sterling O'Reilly Auto Parts Store,,Mt Sterling,KY,,US,+1 859-498-1478,https://locations.oreillyauto.com/ky/mtsterling/check-engine-light-testing-1420.html,Mo-Sa 07:00-21:00; Su 09:00-20:00,O'Reilly Auto Parts,Q7071951
https://locations.oreillyauto.com/ky/mtsterling/wiper-installation-1420.html,oreilly,Your Mt Sterling O'Reilly Auto Parts Store,,Mt Sterling,KY,,US,+1 859-498-1478,https://locations.oreillyauto.com/ky/mtsterling/wiper-installation-1420.html,Mo-Sa 07:00-21:00; Su 09:00-20:00,O'Reilly Auto Parts,Q7071951
https://locations.oreillyauto.com/ky/mtsterling/battery-testing-1420.html,oreilly,Your Mt Sterling O'Reilly Auto Parts Store,,Mt Sterling,KY,,US,+1 859-498-1478,https://locations.oreillyauto.com/ky/mtsterling/battery-testing-1420.html,Mo-Sa 07:00-21:00; Su 09:00-20:00,O'Reilly Auto Parts,Q7071951
https://locations.oreillyauto.com/ky/mtsterling/autopartes-1420.html,oreilly,Tu tienda O'Reilly Auto Parts en Mt Sterling,,Mt Sterling,KY,,US,+1 859-498-1478,https://locations.oreillyauto.com/ky/mtsterling/autopartes-1420.html,Mo-Sa 07:00-21:00; Su 09:00-20:00,O'Reilly Auto Parts,Q7071951
https://locations.papajohns.com/#10693270,papa_johns,Papa John's,,Mount Sterling,KY,,US,+1 859-498-9400,https://locations.papajohns.com/united-states/ky/40353/mount-sterling/103-burley-way,Mo-Th 10:00-23:00; Fr-Sa 10:00-24:00; Su 10:00-23:00,Papa John's Pizza,Q2759586
https://stores.petco.com/#39593814,petco,Petco Mount Sterling,,Mount Sterling,KY,,US,+1 859-520-5184,https://stores.petco.com/ky/mountsterling/pet-supplies-mountsterling-ky-5511.html,Mo-Sa 09:00-20:00; Su 10:00-19:00,Petco,Q7171798
41,pilot_flyingj,Pilot Travel Center,,Mount Sterling,KY,,US,+1 859-497-4041,https://locations.pilotflyingj.com/us/ky/mount-sterling/3060-owingsville-road,,Pilot,Q7194412
ky_mount-sterling_220-young-lane-rd,pizza_hut_us,220 Young Lane Rd,,Mount Sterling,KY,,US,+1 859-498-1027,https://locations.pizzahut.com/ky/mount-sterling/220-young-lane-rd,,Pizza Hut,Q191615
colors-paint-and-wlcvgs-28753,ppgpaints,COLORS PAINT & WLCVGS,,"Mount Sterling, ",KY,,US,+1 859-498-9033,https://www.ppgpaints.com/store-locator/us/kentucky/mount-sterling-paint-stores/colors-paint-and-wlcvgs-28753,,PPG Paints,Q83891559
4860,rentacenter,Rent-A-Center,,Mount Sterling,KY,,US,+1 859-498-6801,https://locations.rentacenter.com/kentucky/mount-sterling/856-indian-mound-dr/,Mo-Sa 10:00-18:00,Rent-A-Center,Q7313497
247-indian-mound-road,rue21,Gateway Plaza Shopping Center,,Mount Sterling,KY,,US,,https://stores.rue21.com/ky/mount-sterling/247-indian-mound-road.html,Mo-Th 12:00-19:00; Fr-Sa 11:00-20:00; Su 12:00-18:00,rue21,Q7377762
https://restaurants.subway.com/#14907890,subway,Subway /Pilot Travel Center #41,,Mt. Sterling Montgomery,KY,,US,+1 859-497-8605,https://restaurants.subway.com/united-states/ky/mt-sterling/3060-owingsville-rd,Mo-Su 09:00-01:00,Subway,Q244457
https://restaurants.subway.com/#14915545,subway,Subway Applewood Market/Shell Gas,,Mount Sterling Montgomery,KY,,US,+1 859-498-6424,https://restaurants.subway.com/united-states/ky/mount-sterling/102-stone-trace-dr,Mo-Sa 08:00-22:00; Su 08:00-21:00,Subway,Q244457
https://restaurants.subway.com/#14915909,subway,Subway,,Mt. Sterling Montgomery,KY,,US,+1 859-432-1099,https://restaurants.subway.com/united-states/ky/mt-sterling/806-indian-mound-dr,Mo-Su 09:00-22:00,Subway,Q244457
8002135501,sunoco_us,Sunoco,,MOUNT STERLING,KY,,US,+1 859-744-7778,,Mo-Su 06:00-00:00,Sunoco,Q1423218
https://locations.tacobell.com/#6145208,taco_bell,Taco Bell,,Mount Sterling,KY,,US,+1 859-498-8032,https://locations.tacobell.com/ky/mount-sterling/213-indian-mound-drive.html,Mo-We 07:00-02:00; Th-Sa 07:00-03:00; Su 07:00-02:00,Taco Bell,Q752941
640F,tmobile_us,Indian Mound Dr & Reese Way,,Mount Sterling,KY,,US,+1 859-398-2152,https://www.t-mobile.com/store-locator/ky/mt-sterling/indian-mound-dr-reese-way,,T-Mobile,Q3511885
1374080,usps,MOUNT STERLING,,MOUNT STERLING,KY,,US,+1 859-498-2258,,Mo-Fr 08:30-16:30; Sa 09:00-12:00,United States Postal Service,Q668687
4035300022,usps_collection_boxes,USPS COLLECTION BOX - BLUE BOX,100 CLARENCE DR,MT STERLING,KY,,US,,,,United States Postal Service,Q668687
4035300028,usps_collection_boxes,USPS COLLECTION BOX - BLUE BOX,3060 OWINGSVILLE RD,MT STERLING,KY,,US,,,,United States Postal Service,Q668687
4035300023,usps_collection_boxes,USPS COLLECTION BOX - BLUE BOX,210 MIDLAND TRL,MT STERLING,KY,,US,,,,United States Postal Service,Q668687
4035300000,usps_collection_boxes,USPS COLLECTION BOX - BLUE BOX,4085 CAMARGO RD,MT STERLING,KY,,US,,,,United States Postal Service,Q668687
4035300010,usps_collection_boxes,USPS COLLECTION BOX - BLUE BOX,21 N MAYSVILLE ST,MT STERLING,KY,,US,,,,United States Postal Service,Q668687
4035300013,usps_collection_boxes,USPS COLLECTION BOX - BLUE BOX,624 MAYSVILLE RD,MT STERLING,KY,,US,,,,United States Postal Service,Q668687
4035300009,usps_collection_boxes,USPS COLLECTION BOX - BLUE BOX,153 EVANS AVE,MT STERLING,KY,,US,,,,United States Postal Service,Q668687
4035300014,usps_collection_boxes,USPS COLLECTION BOX - BLUE BOX,14 N BANK ST,MT STERLING,KY,,US,,,,United States Postal Service,Q668687
4035300015,usps_collection_boxes,USPS COLLECTION BOX - BLUE BOX,108 W LOCUST ST,MT STERLING,KY,,US,,,,United States Postal Service,Q668687
4035300016,usps_collection_boxes,USPS COLLECTION BOX - BLUE BOX,108 W LOCUST ST,MT STERLING,KY,,US,,,,United States Postal Service,Q668687
4035300018,usps_collection_boxes,USPS COLLECTION BOX - BLUE BOX,108 W LOCUST ST,MT STERLING,KY,,US,,,,United States Postal Service,Q668687
4035300019,usps_collection_boxes,USPS COLLECTION BOX - PO LOBBY,108 W LOCUST ST,MT STERLING,KY,,US,,,,United States Postal Service,Q668687
4035300025,usps_collection_boxes,USPS COLLECTION BOX - PO LOBBY,108 W LOCUST ST,MT STERLING,KY,,US,,,,United States Postal Service,Q668687
4035300026,usps_collection_boxes,USPS COLLECTION BOX - PO LOBBY,108 W LOCUST ST,MT STERLING,KY,,US,,,,United States Postal Service,Q668687
4035300033,usps_collection_boxes,USPS COLLECTION BOX - PO LOBBY,108 W LOCUST ST,MT STERLING,KY,,US,,,,United States Postal Service,Q668687
4035300029,usps_collection_boxes,USPS COLLECTION BOX - BLUE BOX,509 WILLIN WAY,MT STERLING,KY,,US,,,,United States Postal Service,Q668687
4035300006,usps_collection_boxes,USPS COLLECTION BOX - BLUE BOX,225 INDIAN MOUND DR,MT STERLING,KY,,US,,,,United States Postal Service,Q668687
4035300005,usps_collection_boxes,USPS COLLECTION BOX - BLUE BOX,499 INDIAN MOUND DR,MT STERLING,KY,,US,,,,United States Postal Service,Q668687
4035300024,usps_collection_boxes,USPS COLLECTION BOX - BLUE BOX,800 INDIAN MOUND DR,MT STERLING,KY,,US,,,,United States Postal Service,Q668687
4035300030,usps_collection_boxes,USPS COLLECTION BOX - BLUE BOX,900 INDIAN MOUND DR,MT STERLING,KY,,US,,,,United States Postal Service,Q668687
4035300008,usps_collection_boxes,USPS COLLECTION BOX - BLUE BOX,105 BRUCE PROFESSIONAL PLZ,MT STERLING,KY,,US,,,,United States Postal Service,Q668687
A00000234278,verizon_us,Cellular Sales Mt Sterling,,Mt Sterling,KY,,US,+1 859-499-4303,https://www.verizon.com/stores/details/kentucky/mt-sterling/cellular-sales-mt-sterling-1449522/,Mo-Sa 09:00-21:00; Su 12:00-18:00,Verizon,Q919641
,visa,,,MT STERLING,KY,,US,,,,,
,visa,,,MT. STERLING,KY,,US,,,,,
,visa,,,CAMARGO,KY,,US,,,,,
,visa,,,MT STERLING,KY,,US,,,,,
,visa,,,MOUNT STERLING,KY,,US,,,,,
,visa,,,MOUNT STERLING,KY,,US,,,,,
,visa,,,MOUNT STERLING,KY,,US,,,,,
,visa,,,MOUNT STERLING,KY,,US,,,,,
,visa,,,MOUNT STERLING,KY,,US,,,,,
,visa,,,MT STERLING,KY,,US,,,,,
,visa,,,MOUNT STERLING,KY,,US,,,,,
,visa,,,MOUNT STERLING,KY,,US,,,,,
,visa,,,MOUNT STERLING,KY,,US,,,,,
,visa,,,MT STERLING,KY,,US,,,,,
,visa,,,MT STERLING,KY,,US,,,,,
,visa,,,MT. STERLING,KY,,US,,,,,
,visa,,,MOUNT STERLING,KY,,US,,,,,
,visa,,,MT STERLING,KY,,US,,,,,
,visa,,,MT. STERLING,KY,,US,,,,,
,visa,,,MT. STERLING,KY,,US,,,,,
,visa,,,MTSTERLING,KY,,US,,,,,
,visa,,,MT STERLING,KY,,US,,,,,
,visa,,,MOUNT STERLING,KY,,US,,,,,
,visa,,,MT STERLING,KY,,US,,,,,
,visa,,,MOUNT STERLING,KY,,US,,,,,
,visa,,,MT. STERLING,KY,,US,,,,,
,visa,,,MOUNT STERLING,KY,,US,,,,,
,visa,,,MOUNT STERLING,KY,,US,,,,,
,visa,,,MOUNT STERLING,KY,,US,,,,,
,visa,,,MT STERLING,KY,,US,,,,,
,visa,,,MT STERLING,KY,,US,,,,,
,visa,,,MOUNT STERLING,KY,,US,,,,,
,visa,,,MOUNT STERLING,KY,,US,,,,,
,visa,,,MOUNT STERLING,KY,,US,,,,,
,visa,,,MOUNT STERLING,KY,,US,,,,,
,visa,,,MT. STERLING,KY,,US,,,,,
,visa,,,MT STERLING,KY,,US,,,,,
,visa,,,MT STERLING,KY,,US,,,,,
,visa,,,MT STERLING,KY,,US,,,,,
,visa,,,MT. STERLING,KY,,US,,,,,
,visa,,,MT.STERLING,KY,,US,,,,,
,visa,,,MOUNT STERLING,KY,,US,,,,,
,visa,,,MT STERLING,KY,,US,,,,,
,visa,,,MT. STERLING,KY,,US,,,,,
,visa,,,MT. STERLING,KY,,US,,,,,
,visa,,,MT STERLING,KY,,US,,,,,
1894,waffle_house_us,Waffle House #1894,,MT STERLING,KY,,US,+1 859-497-7033,https://locations.wafflehouse.com/mtsterling-ky-1894,24/7,Waffle House,Q1701206
https://locations.wendys.com/#9254286,wendys,"Wendy's #708 Mt. Sterling in Mount Sterling, KY",,Mount Sterling,KY,,US,+1 859-498-9545,https://locations.wendys.com/united-states/ky/mount-sterling/101-wing-tip-way,"Mo-Su 06:30-10:30,09:00-22:00",Wendy's,Q550258
352917774a15ac4b5b365b1a1fcb6fb1,western_union,WALMART #001140,,Mount Sterling,KY,,US,+1 859-497-9401,https://location.westernunion.com/us/ky/mount-sterling/352917774a15ac4b5b365b1a1fcb6fb1,Mo-Sa 08:00-20:00; Su 10:00-18:00,Western Union,Q861042
2771d5a2c8c5ec8452b5ce68b2fc2e1d,western_union,DRIVE TODAY AUTO SALES,,Mount Sterling,KY,,US,+1 859-520-3162,https://location.westernunion.com/us/ky/mount-sterling/2771d5a2c8c5ec8452b5ce68b2fc2e1d,,Western Union,Q861042
37465d021a6cbebcc2f87d80fd0e98b1,western_union,ADVANCE AMERICA #02246,,Mount Sterling,KY,,US,+1 859-497-0537,https://location.westernunion.com/us/ky/mount-sterling/37465d021a6cbebcc2f87d80fd0e98b1,Mo-Th 10:00-18:00; Fr 09:00-18:00; Sa 09:00-14:00,Western Union,Q861042
0db80723152d55e6ddabcf81c3e7d6f1,western_union,DOLLAR GENERAL #23014,,Mount Sterling,KY,,US,+1 859-354-4715,https://location.westernunion.com/us/ky/mount-sterling/0db80723152d55e6ddabcf81c3e7d6f1,Mo-Su 08:00-22:00,Western Union,Q861042
1473,world_finance_us,,"890 Indian Mound Dr Ste 14, Mt. Sterling, KY, 40353",Mt. Sterling,KY,,US,+1 859-497-2911,https://www.loansbyworld.com/branches/branch-1473,Mo-Fr 08:30-17:00; Sa 09:00-12:00,World Finance,Q3569971
