Ref,Spider,Name,Address,City,State,Zipcode,Country,Phone,Website,Hours,Brand,WikiData
4440,anytime_fitness,Anytime Fitness,,Cliffside Park,NJ,,US,+1 201-917-7277,https://www.anytimefitness.com/gyms/4440/cliffside-park-nj-07010/,,Anytime Fitness,Q4778364
62808178913410701000100000000000,bp,BP,,Cliffside Park,NJ,,US,+1 201-917-5505,,24/7,BP,Q152057
92713,citi,ATM Walgreens,,Cliffside Park,NJ,,US,,,,Citibank,Q857063
64485,citi,ATM MANSI BARBERSHOP,,Cliffside Park,NJ,,US,,,,Citibank,Q857063
31898,citi,ATM 7ELEVEN-FCTI,,Cliffside Park,NJ,,US,,,,Citibank,Q857063
76251,citi,ATM Snip & Sip Beauty Salon,,Cliffside Park,NJ,,US,,,,Citibank,Q857063
3956,dominos_pizza_us,Domino's Pizza,,Cliffside Park,NJ,,US,+1 201-945-3700,https://pizza.dominos.com/new-jersey/cliffside-park/352-anderson-ave,Mo-Th 10:30-01:00; Fr-Sa 10:30-02:00; Su 10:30-01:00,Domino's,Q839466
342029,dunkin_us,Dunkin',,Cliffside Park,NJ,,US,+1 201-313-0550,https://locations.dunkindonuts.com/en/nj/cliffside-park/738-anderson-ave/342029,Mo-Su 06:00-20:30,Dunkin',Q847743
5151,gulf_pr_us,CLIFFSIDE PARK GULF,,Cliffside Park,NJ,,US,+1 201-943-1511,https://www.gulfoil.com/cliffside-park-gulf,,Gulf Oil,Q5617505
28145,h_r_block,H&R Block,,Cliffside Park,NJ,,US,+1 201-941-1945,https://www.hrblock.com/local-tax-offices/new-jersey/cliffside-park/731-anderson-ave/28145/,,H&R Block,Q5627799
https://locations.mtb.com/#25082966,mt_bank_us,M&T Bank,,,NJ,,US,+1 201-945-8888,https://locations.mtb.com/nj/cliffsidepark/bank-branches-and-atms-cliffside-park-nj-3309.html,Mo-Th 09:00-16:00; Fr 09:00-17:00,M&T Bank,Q3272257
https://locations.papajohns.com/#10690774,papa_johns,Papa John's,,Cliffside Park,NJ,,US,+1 201-943-7272,https://locations.papajohns.com/united-states/nj/07010/cliffside-park/721-anderson-ave,Mo-Su 11:00-02:00,Papa John's Pizza,Q2759586
0261246302,sunoco_us,Sunoco,,CLIFFSIDE PARK,NJ,,US,+1 201-945-8790,,Mo-Su 06:00-00:00,Sunoco,Q1423218
1358351,usps,CLIFF PARK,,CLIFFSIDE PARK,NJ,,US,+1 201-945-6428,,"Mo-Fr 08:30-11:00,11:45-16:00",United States Postal Service,Q668687
0701000023,usps_collection_boxes,USPS COLLECTION BOX - BLUE BOX,201 DESOTO PL,CLIFFSIDE PARK,NJ,,US,,,,United States Postal Service,Q668687
0701000017,usps_collection_boxes,USPS COLLECTION BOX - BLUE BOX,609 GROVE AVE,CLIFFSIDE PARK,NJ,,US,,,,United States Postal Service,Q668687
0701000016,usps_collection_boxes,USPS COLLECTION BOX - BLUE BOX,409 LAWTON AVE,CLIFFSIDE PARK,NJ,,US,,,,United States Postal Service,Q668687
0701000028,usps_collection_boxes,USPS COLLECTION BOX - PO LOBBY,589 ANDERSON AVE,CLIFFSIDE PARK,NJ,,US,,,,United States Postal Service,Q668687
0701000032,usps_collection_boxes,USPS COLLECTION BOX - PO LOBBY,589 ANDERSON AVE,CLIFFSIDE PARK,NJ,,US,,,,United States Postal Service,Q668687
0701000009,usps_collection_boxes,USPS COLLECTION BOX - BLUE BOX,731 ANDERSON AVE,CLIFFSIDE PARK,NJ,,US,,,,United States Postal Service,Q668687
0701000004,usps_collection_boxes,USPS COLLECTION BOX - BLUE BOX,770 ANDERSON AVE,CLIFFSIDE PARK,NJ,,US,,,,United States Postal Service,Q668687
0701000002,usps_collection_boxes,USPS COLLECTION BOX - BLUE BOX,525 PALISADE AVE,CLIFFSIDE PARK,NJ,,US,,,,United States Postal Service,Q668687
0701000001,usps_collection_boxes,USPS COLLECTION BOX - BLUE BOX,500 GORGE RD,CLIFFSIDE PARK,NJ,,US,,,,United States Postal Service,Q668687
0701000003,usps_collection_boxes,USPS COLLECTION BOX - BLUE BOX,550 GORGE RD,CLIFFSIDE PARK,NJ,,US,,,,United States Postal Service,Q668687
0701000031,usps_collection_boxes,USPS COLLECTION BOX - BLUE BOX,354 PALISADE AVE,CLIFFSIDE PARK,NJ,,US,,,,United States Postal Service,Q668687
0701000021,usps_collection_boxes,USPS COLLECTION BOX - BLUE BOX,663 PALISADE AVE,CLIFFSIDE PARK,NJ,,US,,,,United States Postal Service,Q668687
0701000018,usps_collection_boxes,USPS COLLECTION BOX - BLUE BOX,289 GORGE RD,CLIFFSIDE PARK,NJ,,US,,,,United States Postal Service,Q668687
0701000029,usps_collection_boxes,USPS COLLECTION BOX - PO LOBBY,289 GORGE RD,CLIFFSIDE PARK,NJ,,US,,,,United States Postal Service,Q668687
0701000033,usps_collection_boxes,USPS COLLECTION BOX - PO LOBBY,289 GORGE RD,CLIFFSIDE PARK,NJ,,US,,,,United States Postal Service,Q668687
,visa,,,CLIFFSIDE PARK,NJ,,US,,,,,
,visa,,,CLIFFSIDE PARK,NJ,,US,,,,,
,visa,,,CLIFFSIDE PARK,NJ,,US,,,,,
,visa,,,CLIFFSIDE PAR,NJ,,US,,,,,
,visa,,,CLIFFSIDE PARK,NJ,,US,,,,,
,visa,,,CLIFFSIDE PARK,NJ,,US,,,,,
https://www.walgreens.com/locator/walgreens-729+anderson+ave-cliffside+park-nj-07010/id=18071,walgreens,Walgreens,,Cliffside Park,NJ,,US,+1 201-943-2225,https://www.walgreens.com/locator/walgreens-729+anderson+ave-cliffside+park-nj-07010/id=18071,Mo-Su 08:00-21:00,Walgreens,Q1591889
650__ANDERSON__AVE_CLIFFSIDE__PARK_NJ_07010,wellsfargo,Wells Fargo,650 ANDERSON AVE,CLIFFSIDE PARK,NJ,,US,+1 201-840-7919,https://www.wellsfargo.com/locator/bank/650__ANDERSON__AVE_CLIFFSIDE__PARK_NJ_07010/,Mo-Fr 09:00-17:00,Wells Fargo,Q744149
bfe7114fa7dd2a17d8d9fc0f808041cc,western_union,XTRA MART,,Cliffside Park,NJ,,US,+1 201-945-0912,https://location.westernunion.com/us/nj/cliffside-park/bfe7114fa7dd2a17d8d9fc0f808041cc,Mo-Su 06:30-23:00,Western Union,Q861042
a73cabfe75ca4bcb56049ef36c163284,western_union,M Y G MINI MARKET & DELI LLC,,Cliffside Pk,NJ,,US,+1 201-966-3315,https://location.westernunion.com/us/nj/cliffside-pk/a73cabfe75ca4bcb56049ef36c163284,Mo-Su 07:00-21:00,Western Union,Q861042
1245d5729764632ce012274857a457a4,western_union,XTRA CONVENIENCE INC,,Cliffside Park,NJ,,US,+1 201-941-7111,https://location.westernunion.com/us/nj/cliffside-park/1245d5729764632ce012274857a457a4,Mo-Fr 08:00-23:00; Sa-Su 09:00-23:00,Western Union,Q861042
2fa04b756c765dc9dd056b2299d2e9c6,western_union,7-ELEVEN #24471,,Cliffside Park,NJ,,US,+1 201-941-8193,https://location.westernunion.com/us/nj/cliffside-park/2fa04b756c765dc9dd056b2299d2e9c6,,Western Union,Q861042
4fbf9c37e6a06b1db931d7b97e11986f,western_union,BROTHERS 99 & PLUS INC,,Cliffside Park,NJ,,US,+1 201-951-3623,https://location.westernunion.com/us/nj/cliffside-park/4fbf9c37e6a06b1db931d7b97e11986f,Mo-Su 09:00-23:00,Western Union,Q861042
