Ref,Spider,Name,Address,City,State,Zipcode,Country,Phone,Website,Hours,Brand,WikiData
Ford42300THAEN,ford,Ford Hitech Buriram,,A.Muang,,,TH,044-690-111-3,,Mo-Fr 08:00-17:00,Ford,Q44294
Ford42300THATH,ford,ฟอร์ด ไฮเทค บุรีรัมย์,,อ.เมือง,,,TH,044-690-111-3,,Mo-Fr 08:00-17:00,Ford,Q44294
69204449,moneygram,GSB - MUEANG BURIRAM - TAWEEKIT,,MUEANG BURIRAM,,,TH,+66 44 601 841,,Mo-Su 10:00-19:00,MoneyGram,Q1944412
69205927,moneygram,GSB - MUEANG BURIRAM - BURIRAM,,MUEANG BURIRAM,,,TH,+66 44 611 600,,Mo-Fr 08:30-15:30; Sa-Su 00:00-24:00,MoneyGram,Q1944412
70063064,moneygram,SIAM COMMERCIAL BANK - #5435 - ROBINSON,,BURI RAM,,,TH,446007101,,Mo-Su 11:00-19:00,MoneyGram,Q1944412
70742026,moneygram,SIAM COMMERCIAL BANK - #5435 - ROBINSON,,BURI RAM,,,TH,446007101,,Mo-Su 11:00-19:00,MoneyGram,Q1944412
43986518,moneygram,SIAM COMMERCIAL BANK - #0773 - NANG RONG,,BURI RAM,,,TH,+66 44 624 395,,Mo-Fr 08:30-15:30; Sa-Su 00:00-24:00,MoneyGram,Q1944412
43804360,moneygram,SIAM COMMERCIAL BANK - #0603 - BURI RAM,,BURI RAM,,,TH,+66 44 612 909,,Mo-Fr 08:30-15:30; Sa-Su 00:00-24:00,MoneyGram,Q1944412
45179491,moneygram,SIAM COMMERCIAL BANK - #0995,,BURI RAM,,,TH,+66 44 627 727,,Mo-Fr 08:30-18:00; Sa-Su 00:00-24:00,MoneyGram,Q1944412
45180118,moneygram,SIAM COMMERCIAL BANK - #5045,,BURI RAM,,,TH,+66 44 110 225,,Mo-Sa 08:30-18:00; Su 00:00-24:00,MoneyGram,Q1944412
,visa,,,BURI RAM,,,TH,,,,,
,visa,,,BURI RAM,,,TH,,,,,
,visa,,,BURI RAM,,,TH,,,,,
,visa,,,BURI RAM,,,TH,,,,,
,visa,,,BURI RAM,,,TH,,,,,
,visa,,,BURI RAM,,,TH,,,,,
,visa,,,BURI RAM,,,TH,,,,,
,visa,,,BURI RAM,,,TH,,,,,
,visa,,,BURI RAM,,,TH,,,,,
,visa,,,BURI RAM,,,TH,,,,,
,visa,,,BURI RAM,,,TH,,,,,
,visa,,,BURI RAM,,,TH,,,,,
,visa,,,BURI RAM,,,TH,,,,,
,visa,,,BURI RAM,,,TH,,,,,
,visa,,,BURI RAM,,,TH,,,,,
,visa,,,BURI RAM,,,TH,,,,,
,visa,,,BURI RAM,,,TH,,,,,
,visa,,,BURI RAM,,,TH,,,,,
,visa,,,BURI RAM,,,TH,,,,,
,visa,,,BURI RAM,,,TH,,,,,
,visa,,,BURI RAM,,,TH,,,,,
,visa,,,BURI RAM,,,TH,,,,,
,visa,,,BURI RAM,,,TH,,,,,
,visa,,,BURI RAM,,,TH,,,,,
,visa,,,BURI RAM,,,TH,,,,,
,visa,,,BURI RAM,,,TH,,,,,
,visa,,,BURI RAM,,,TH,,,,,
,visa,,,BURI RAM,,,TH,,,,,
,visa,,,BURI RAM,,,TH,,,,,
,visa,,,BURI RAM,,,TH,,,,,
,visa,,,BURI RAM,,,TH,,,,,
,visa,,,BURI RAM,,,TH,,,,,
,visa,,,BURI RAM,,,TH,,,,,
,visa,,,BURIRAM,,,TH,,,,,
,visa,,,BURI RAM,,,TH,,,,,
,visa,,,BURI RAM,,,TH,,,,,
,visa,,,BURI RAM,,,TH,,,,,
,visa,,,BURI RAM,,,TH,,,,,
,visa,,,BURI RAM,,,TH,,,,,
,visa,,,BURI RAM,,,TH,,,,,
,visa,,,BURI RAM,,,TH,,,,,
,visa,,,BURI RAM,,,TH,,,,,
,visa,,,BURI RAM,,,TH,,,,,
,visa,,,BURIRAM,,,TH,,,,,
,visa,,,BURI RAM,,,TH,,,,,
,visa,,,BURI RAM,,,TH,,,,,
,visa,,,BURI RAM,,,TH,,,,,
,visa,,,BURI RAM,,,TH,,,,,
,visa,,,BURI RAM,,,TH,,,,,
,visa,,,BURI RAM,,,TH,,,,,
,visa,,,BURI RAM,,,TH,,,,,
,visa,,,BURI RAM,,,TH,,,,,
,visa,,,BURI RAM,,,TH,,,,,
,visa,,,BURI RAM,,,TH,,,,,
,visa,,,BURI RAM,,,TH,,,,,
,visa,,,BURI RAM,,,TH,,,,,
,visa,,,BURI RAM,,,TH,,,,,
,visa,,,BURI RAM,,,TH,,,,,
,visa,,,BURI RAM,,,TH,,,,,
,visa,,,BURI RAM,,,TH,,,,,
,visa,,,BURI RAM,,,TH,,,,,
,visa,,,BURI RAM,,,TH,,,,,
,visa,,,BURI RAM,,,TH,,,,,
,visa,,,BURI RAM,,,TH,,,,,
,visa,,,BURI RAM,,,TH,,,,,
,visa,,,BURI RAM,,,TH,,,,,
,visa,,,BURI RAM,,,TH,,,,,
,visa,,,BURI RAM,,,TH,,,,,
,visa,,,BURI RAM,,,TH,,,,,
,visa,,,BURI RAM,,,TH,,,,,
,visa,,,BURI RAM,,,TH,,,,,
,visa,,,BURI RAM,,,TH,,,,,
,visa,,,BURI RAM,,,TH,,,,,
,visa,,,BURI RAM,,,TH,,,,,
,visa,,,BURI RAM,,,TH,,,,,
,visa,,,BURI RAM,,,TH,,,,,
,visa,,,BURI RAM,,,TH,,,,,
,visa,,,BURI RAM,,,TH,,,,,
,visa,,,BURI RAM,,,TH,,,,,
,visa,,,BURI RAM,,,TH,,,,,
,visa,,,BURI RAM,,,TH,,,,,
,visa,,,BURI RAM,,,TH,,,,,
,visa,,,BURI RAM,,,TH,,,,,
,visa,,,BURI RAM,,,TH,,,,,
,visa,,,BURI RAM,,,TH,,,,,
,visa,,,BURI RAM,,,TH,,,,,
,visa,,,BURI RAM,,,TH,,,,,
,visa,,,BURI RAM,,,TH,,,,,
,visa,,,BURI RAM,,,TH,,,,,
,visa,,,BURI RAM,,,TH,,,,,
,visa,,,BURI RAM,,,TH,,,,,
,visa,,,BURI RAM,,,TH,,,,,
,visa,,,BURI RAM,,,TH,,,,,
,visa,,,BURI RAM,,,TH,,,,,
,visa,,,BURI RAM,,,TH,,,,,
,visa,,,BURI RAM,,,TH,,,,,
,visa,,,BURI RAM,,,TH,,,,,
,visa,,,BURI RAM,,,TH,,,,,
,visa,,,BURI RAM,,,TH,,,,,
,visa,,,BURI RAM,,,TH,,,,,
,visa,,,BURI RAM,,,TH,,,,,
,visa,,,BURI RAM,,,TH,,,,,
,visa,,,BURI RAM,,,TH,,,,,
,visa,,,BURI RAM,,,TH,,,,,
,visa,,,BURI RAM,,,TH,,,,,
,visa,,,BURI RAM,,,TH,,,,,
,visa,,,BURI RAM,,,TH,,,,,
,visa,,,BURI RAM,,,TH,,,,,
,visa,,,BURI RAM,,,TH,,,,,
,visa,,,BURI RAM,,,TH,,,,,
,visa,,,BURI RAM,,,TH,,,,,
,visa,,,BURI RAM,,,TH,,,,,
,visa,,,BURI RAM,,,TH,,,,,
,visa,,,BURI RAM,,,TH,,,,,
,visa,,,BURI RAM,,,TH,,,,,
,visa,,,BURI RAM,,,TH,,,,,
,visa,,,BURI RAM,,,TH,,,,,
,visa,,,BURI RAM,,,TH,,,,,
,visa,,,BURI RAM,,,TH,,,,,
,visa,,,BURIRAM,,,TH,,,,,
,visa,,,BURI RAM,,,TH,,,,,
,visa,,,BURI RAM,,,TH,,,,,
,visa,,,BURI RAM,,,TH,,,,,
,visa,,,BURIRAM,,,TH,,,,,
,visa,,,BURIRAM,,,TH,,,,,
,visa,,,BURIRAM,,,TH,,,,,
,visa,,,BURIRAM,,,TH,,,,,
,visa,,,BURIRAM,,,TH,,,,,
,visa,,,BURI RAM,,,TH,,,,,
,visa,,,BURI RAM,,,TH,,,,,
,visa,,,BURI RAM,,,TH,,,,,
,visa,,,BURI RAM,,,TH,,,,,
,visa,,,BURI RAM,,,TH,,,,,
,visa,,,BURI RAM,,,TH,,,,,
,visa,,,BURIRAM,,,TH,,,,,
,visa,,,BURI RAM,,,TH,,,,,
,visa,,,BURI RAM,,,TH,,,,,
,visa,,,BURIRAM,,,TH,,,,,
,visa,,,BURI RAM,,,TH,,,,,
,visa,,,BURI RAM,,,TH,,,,,
,visa,,,BURI RAM,,,TH,,,,,
,visa,,,BURI RAM,,,TH,,,,,
,visa,,,BURI RAM,,,TH,,,,,
,visa,,,BURI RAM,,,TH,,,,,
,visa,,,BURI RAM,,,TH,,,,,
,visa,,,BURI RAM,,,TH,,,,,
,visa,,,BURI RAM,,,TH,,,,,
,visa,,,BURI RAM,,,TH,,,,,
,visa,,,BURIRAM,,,TH,,,,,
,visa,,,BURI RAM,,,TH,,,,,
,visa,,,BURI RAM,,,TH,,,,,
,visa,,,BURI RAM,,,TH,,,,,
,visa,,,BURI RAM,,,TH,,,,,
,visa,,,BURI RAM,,,TH,,,,,
,visa,,,BURI RAM,,,TH,,,,,
,visa,,,BURI RAM,,,TH,,,,,
,visa,,,BURI RAM,,,TH,,,,,
,visa,,,BURI RAM,,,TH,,,,,
,visa,,,BURI RAM,,,TH,,,,,
,visa,,,BURI RAM,,,TH,,,,,
,visa,,,BURI RAM,,,TH,,,,,
,visa,,,BURI RAM,,,TH,,,,,
,visa,,,BURI RAM,,,TH,,,,,
,visa,,,BURI RAM,,,TH,,,,,
,visa,,,BURI RAM,,,TH,,,,,
,visa,,,BURI RAM,,,TH,,,,,
,visa,,,BURI RAM,,,TH,,,,,
,visa,,,BURI RAM,,,TH,,,,,
,visa,,,BURI RAM,,,TH,,,,,
,visa,,,BURI RAM,,,TH,,,,,
,visa,,,BURI RAM,,,TH,,,,,
