Ref,Spider,Name,Address,City,State,Zipcode,Country,Phone,Website,Hours,Brand,WikiData
72135178,moneygram,COPPEL TRANSMISORES - FRESNILLO - MADERO,,FRESNILLO,ZA,,MX,+52 493 932 8266,,Mo-Sa 10:00-20:30; Su 10:00-16:00,MoneyGram,Q1944412
72135217,moneygram,COPPEL TRANSMISORES - FRESNILLO - MORELO,,FRESNILLO,ZA,,MX,+52 493 932 0993,,Mo-Sa 10:00-20:30; Su 10:00-16:00,MoneyGram,Q1944412
72313071,moneygram,CADENA COMERCIAL OXXO SA DE CV - #10GTO5,,FRESNILLO,ZA,,MX,+52 81 8389 2121,,Mo-Su 03:00-24:00,MoneyGram,Q1944412
72667497,moneygram,BANCO AZTECA MEXICO - FRESNILLO - MEGA E,,FRESNILLO,ZA,,MX,+52 55 1720 8177,,Mo-Su 09:00-21:00,MoneyGram,Q1944412
72667552,moneygram,DINERO EXPRESS - FRESNILLO - MEGA EKT FR,,FRESNILLO,ZA,,MX,+52 55 1720 8177,,Mo-Su 09:00-21:00,MoneyGram,Q1944412
69511323,moneygram,MODATELAS - #982 - 102 MODATELAS FRESNIL,,FRESNILLO,ZA,,MX,+52 493 933 6529,,Mo-Su 08:00-20:00,MoneyGram,Q1944412
68824684,moneygram,DINERO EXPRESS - #9700 - FRESNILLO - ELE,,FRESNILLO,ZA,,MX,+52 55 1720 8141,,Mo-Su 09:00-21:00,MoneyGram,Q1944412
70387737,moneygram,FARMACIAS GUADALAJARA - FRESNILLO MORELO,,FRESNILLO,ZA,,MX,+52 713 278 5436,,Mo-Su 08:00-22:00,MoneyGram,Q1944412
70387740,moneygram,FARMACIAS GUADALAJARA - FRESNILLO HIDALG,,FRESNILLO,ZA,,MX,+52 713 278 5436,,Mo-Su 08:00-22:00,MoneyGram,Q1944412
70395101,moneygram,FARMACIAS GUADALAJARA - FRESNILLO REFORM,,FRESNILLO,ZA,,MX,+52 713 278 5436,,Mo-Su 08:00-22:00,MoneyGram,Q1944412
70395208,moneygram,FARMACIAS GUADALAJARA - FRESNILLO JUAREZ,,FRESNILLO,ZA,,MX,+52 713 278 5436,,Mo-Su 08:00-22:00,MoneyGram,Q1944412
70387805,moneygram,FARMACIAS GUADALAJARA - FRESNILLO MORELO,,FRESNILLO,ZA,,MX,+52 713 278 5436,,Mo-Su 08:00-22:00,MoneyGram,Q1944412
70752825,moneygram,ELECZION - #1130 - FRESNILLO - FRESNILLO,,FRESNILLO,ZA,,MX,5263180635,,Mo-Su 07:00-23:00,MoneyGram,Q1944412
71129169,moneygram,TELECOMM - #TELECOMM 32006 - FRESNILLO -,,FRESNILLO,ZA,,MX,55118008334700,,Mo-Fr 09:00-15:00; Sa-Su 00:00-24:00,MoneyGram,Q1944412
43521083,moneygram,CAJA POPULAR MEX - #501 - FRESNILLO,,FRESNILLO,ZA,,MX,+52 493 932 1925,,Mo-Fr 09:00-16:00; Sa 09:00-14:00; Su 00:00-24:00,MoneyGram,Q1944412
43521180,moneygram,CAJA POPULAR MEX - #507 - REAL DE MINAS,,FRESNILLO,ZA,,MX,+52 493 932 3123,,Mo-Fr 09:00-16:00; Sa 09:00-14:00; Su 00:00-24:00,MoneyGram,Q1944412
41086931,moneygram,BODEGA FRESNILLO,,FRESNILLO,ZA,,MX,+52 493 933 3512,,Mo-Su 08:00-21:00,MoneyGram,Q1944412
41288522,moneygram,BANORTE - #829 - FRESNILLO,,FRESNILLO,ZA,,MX,52493932009,,Mo-Fr 09:00-20:00; Sa 09:00-16:00; Su 00:00-24:00,MoneyGram,Q1944412
71380746,moneygram,OXXO - CEDRO ZCL,,FRESNILLO,ZA,,MX,+52 81 8389 2121,,Mo-Su 03:00-24:00,MoneyGram,Q1944412
71381130,moneygram,OXXO - DEL VALLE ZCL,,FRESNILLO,ZA,,MX,+52 81 8389 2121,,Mo-Su 03:00-24:00,MoneyGram,Q1944412
71380791,moneygram,OXXO - LAGUNA BLANCA ZCL,,FRESNILLO,ZA,,MX,+52 81 8389 2121,,Mo-Su 03:00-24:00,MoneyGram,Q1944412
71381282,moneygram,OXXO - LAS PALMAS ZCL,,FRESNILLO,ZA,,MX,+52 81 8389 2121,,Mo-Su 03:00-24:00,MoneyGram,Q1944412
71381075,moneygram,OXXO - PENOLES ZCL,,FRESNILLO,ZA,,MX,+52 81 8389 2121,,Mo-Su 03:00-24:00,MoneyGram,Q1944412
71381680,moneygram,OXXO - SAN ISIDRO ZCL,,FRESNILLO,ZA,,MX,+52 81 8389 2121,,Mo-Su 03:00-24:00,MoneyGram,Q1944412
71381716,moneygram,OXXO - SONORA ZCL,,FRESNILLO,ZA,,MX,+52 81 8389 2121,,Mo-Su 03:00-24:00,MoneyGram,Q1944412
71381651,moneygram,OXXO - VALENCIANA ZCL,,FRESNILLO,ZA,,MX,+52 81 8389 2121,,Mo-Su 03:00-24:00,MoneyGram,Q1944412
71774129,moneygram,CADENA COMERCIAL OXXO SA DE CV - #10GTO5,,FRESNILLO,ZA,,MX,+52 81 8389 2121,,Mo-Su 03:00-24:00,MoneyGram,Q1944412
71774145,moneygram,CADENA COMERCIAL OXXO SA DE CV - #10GTO5,,FRESNILLO,ZA,,MX,+52 81 8389 2121,,Mo-Su 03:00-24:00,MoneyGram,Q1944412
