Ref,Spider,Name,Address,City,State,Zipcode,Country,Phone,Website,Hours,Brand,WikiData
72621514,moneygram,RINA TOURS & TRAVELS (GULAL WADI)-IBP,,MUMBAI,,,IN,+91 93245 56485,,Mo-Su 08:00-21:00,MoneyGram,Q1944412
73290708,moneygram,MUTHOOT FINANCE LTD - #4257 - MUMBAI-CIT,,MUMBAI-CITY,,,IN,+91 22 2389 9915,,Mo-Su 09:00-19:00,MoneyGram,Q1944412
73391681,moneygram,CHAURASIA G STORE,,MUMBAI,,,IN,+91 87794 75385,,Mo-Su 08:00-21:00,MoneyGram,Q1944412
73397711,moneygram,NARESH NANDLAL JAIN,,MUMBAI,,,IN,+91 92222 25087,,Mo-Su 08:00-21:00,MoneyGram,Q1944412
73406592,moneygram,VINAY CHAURASIA,,MUMBAI,,,IN,+91 98673 93839,,Mo-Su 08:00-21:00,MoneyGram,Q1944412
73753339,moneygram,ANKIT MOBILE,,MUMBAI,,,IN,+91 96195 31110,,Mo-Su 08:00-21:00,MoneyGram,Q1944412
73730530,moneygram,JAINAM TOUR TRAVELS,,MUMBAI,,,IN,+91 98203 15441,,Mo-Su 08:00-21:00,MoneyGram,Q1944412
73737740,moneygram,SHREE BALAJI TOURS AND TRAVELS,,MUMBAI,,,IN,+91 98332 91945,,Mo-Su 08:00-21:00,MoneyGram,Q1944412
72961261,moneygram,RINA TOURS AND TRAVELS,,MUMBAI,,,IN,+91 98336 09486,,Mo-Su 08:00-21:00,MoneyGram,Q1944412
71740441,moneygram,MAHADEV FOREX PRIVATE LIMITED - MUMBAI -,,MUMBAI,,,IN,+91 98707 88574,,Mo-Su 08:00-20:00,MoneyGram,Q1944412
,visa,,,MUMBAI,,,IN,,,,,
,visa,,,MUMBAI,,,IN,,,,,
,visa,,,MUMBAI,,,IN,,,,,
,visa,,,MUMBAI,,,IN,,,,,
,visa,,,MUMBAI,,,IN,,,,,
,visa,,,MUMBAI,,,IN,,,,,
,visa,,,MUMBAI,,,IN,,,,,
,visa,,,MUMBAI,,,IN,,,,,
,visa,,,MUMBAI,,,IN,,,,,
,visa,,,MUMBAI,,,IN,,,,,
,visa,,,MUMBAI,,,IN,,,,,
,visa,,,MUMBAI,,,IN,,,,,
