Ref,Spider,Name,Address,City,State,Zipcode,Country,Phone,Website,Hours,Brand,WikiData
,visa,,,HA NOI,HA NOI,,VN,,,,,
,visa,,,HA NOI,HA NOI,,VN,,,,,
,visa,,,HA NOI,HA NOI,,VN,,,,,
,visa,,,HA NOI,HA NOI,,VN,,,,,
,visa,,,HA NOI,HA NOI,,VN,,,,,
,visa,,,HA NOI,HA NOI,,VN,,,,,
,visa,,,HA NOI,HA NOI,,VN,,,,,
,visa,,,HA NOI,HA NOI,,VN,,,,,
,visa,,,HA NOI,HA NOI,,VN,,,,,
,visa,,,HA NOI,HA NOI,,VN,,,,,
,visa,,,HA NOI,HA NOI,,VN,,,,,
,visa,,,HA NOI,HA NOI,,VN,,,,,
,visa,,,HA NOI,HA NOI,,VN,,,,,
,visa,,,HA NOI,HA NOI,,VN,,,,,
,visa,,,HA NOI,HA NOI,,VN,,,,,
,visa,,,HA NOI,HA NOI,,VN,,,,,
,visa,,,HA NOI,HA NOI,,VN,,,,,
,visa,,,HA NOI,HA NOI,,VN,,,,,
,visa,,,HA NOI,HA NOI,,VN,,,,,
,visa,,,HA NOI,HA NOI,,VN,,,,,
,visa,,,HA NOI,HA NOI,,VN,,,,,
,visa,,,HA NOI,HA NOI,,VN,,,,,
,visa,,,HA NOI,HA NOI,,VN,,,,,
,visa,,,HA NOI,HA NOI,,VN,,,,,
,visa,,,HA NOI,HA NOI,,VN,,,,,
,visa,,,HA NOI,HA NOI,,VN,,,,,
,visa,,,HA NOI,HA NOI,,VN,,,,,
,visa,,,HA NOI,HA NOI,,VN,,,,,
,visa,,,HA NOI,HA NOI,,VN,,,,,
,visa,,,HA NOI,HA NOI,,VN,,,,,
,visa,,,HA NOI,HA NOI,,VN,,,,,
,visa,,,HA NOI,HA NOI,,VN,,,,,
,visa,,,HA NOI,HA NOI,,VN,,,,,
,visa,,,HA NOI,HA NOI,,VN,,,,,
,visa,,,HA NOI,HA NOI,,VN,,,,,
,visa,,,HA NOI,HA NOI,,VN,,,,,
,visa,,,HA NOI,HA NOI,,VN,,,,,
,visa,,,HA NOI,HA NOI,,VN,,,,,
,visa,,,HA NOI,HA NOI,,VN,,,,,
,visa,,,HA NOI,HA NOI,,VN,,,,,
,visa,,,HA NOI,HA NOI,,VN,,,,,
,visa,,,HA NOI,HA NOI,,VN,,,,,
,visa,,,HA NOI,HA NOI,,VN,,,,,
,visa,,,HA NOI,HA NOI,,VN,,,,,
,visa,,,HA NOI,HA NOI,,VN,,,,,
,visa,,,HA NOI,HA NOI,,VN,,,,,
,visa,,,HA NOI,HA NOI,,VN,,,,,
,visa,,,HA NOI,HA NOI,,VN,,,,,
,visa,,,HA NOI,HA NOI,,VN,,,,,
,visa,,,HA NOI,HA NOI,,VN,,,,,
,visa,,,HA NOI,HA NOI,,VN,,,,,
,visa,,,HA NOI,HA NOI,,VN,,,,,
,visa,,,HA NOI,HA NOI,,VN,,,,,
,visa,,,HA NOI,HA NOI,,VN,,,,,
,visa,,,HA NOI,HA NOI,,VN,,,,,
,visa,,,HA NOI,HA NOI,,VN,,,,,
,visa,,,HA NOI,HA NOI,,VN,,,,,
,visa,,,HA NOI,HA NOI,,VN,,,,,
,visa,,,HA NOI,HA NOI,,VN,,,,,
,visa,,,HA NOI,HA NOI,,VN,,,,,
,visa,,,HA NOI,HA NOI,,VN,,,,,
,visa,,,HA NOI,HA NOI,,VN,,,,,
,visa,,,HA NOI,HA NOI,,VN,,,,,
,visa,,,HA NOI,HA NOI,,VN,,,,,
,visa,,,HA NOI,HA NOI,,VN,,,,,
,visa,,,HA NOI,HA NOI,,VN,,,,,
,visa,,,HA NOI,HA NOI,,VN,,,,,
,visa,,,HA NOI,HA NOI,,VN,,,,,
,visa,,,HA NOI,HA NOI,,VN,,,,,
,visa,,,HA NOI,HA NOI,,VN,,,,,
,visa,,,HA NOI,HA NOI,,VN,,,,,
,visa,,,HA NOI,HA NOI,,VN,,,,,
,visa,,,HA NOI,HA NOI,,VN,,,,,
,visa,,,HA NOI,HA NOI,,VN,,,,,
,visa,,,HA NOI,HA NOI,,VN,,,,,
,visa,,,HA NOI,HA NOI,,VN,,,,,
,visa,,,HA NOI,HA NOI,,VN,,,,,
,visa,,,HA NOI,HA NOI,,VN,,,,,
,visa,,,HA NOI,HA NOI,,VN,,,,,
,visa,,,HA NOI,HA NOI,,VN,,,,,
,visa,,,HA NOI,HA NOI,,VN,,,,,
,visa,,,HA NOI,HA NOI,,VN,,,,,
,visa,,,HA NOI,HA NOI,,VN,,,,,
,visa,,,HA NOI,HA NOI,,VN,,,,,
,visa,,,HA NOI,HA NOI,,VN,,,,,
,visa,,,HA NOI,HA NOI,,VN,,,,,
,visa,,,HA NOI,HA NOI,,VN,,,,,
,visa,,,HA NOI,HA NOI,,VN,,,,,
,visa,,,HA NOI,HA NOI,,VN,,,,,
,visa,,,HA NOI,HA NOI,,VN,,,,,
,visa,,,HA NOI,HA NOI,,VN,,,,,
,visa,,,HA NOI,HA NOI,,VN,,,,,
,visa,,,HA NOI,HA NOI,,VN,,,,,
,visa,,,HA NOI,HA NOI,,VN,,,,,
,visa,,,HA NOI,HA NOI,,VN,,,,,
,visa,,,HA NOI,HA NOI,,VN,,,,,
,visa,,,HA NOI,HA NOI,,VN,,,,,
,visa,,,HA NOI,HA NOI,,VN,,,,,
,visa,,,HA NOI,HA NOI,,VN,,,,,
,visa,,,HA NOI,HA NOI,,VN,,,,,
,visa,,,HA NOI,HA NOI,,VN,,,,,
,visa,,,HA NOI,HA NOI,,VN,,,,,
,visa,,,HA NOI,HA NOI,,VN,,,,,
,visa,,,HA NOI,HA NOI,,VN,,,,,
,visa,,,HA NOI,HA NOI,,VN,,,,,
,visa,,,HA NOI,HA NOI,,VN,,,,,
,visa,,,HA NOI,HA NOI,,VN,,,,,
,visa,,,HA NOI,HA NOI,,VN,,,,,
,visa,,,HA NOI,HA NOI,,VN,,,,,
,visa,,,HA NOI,HA NOI,,VN,,,,,
,visa,,,HA NOI,HA NOI,,VN,,,,,
,visa,,,HA NOI,HA NOI,,VN,,,,,
,visa,,,HA NOI,HA NOI,,VN,,,,,
,visa,,,HA NOI,HA NOI,,VN,,,,,
,visa,,,HA NOI,HA NOI,,VN,,,,,
,visa,,,HA NOI,HA NOI,,VN,,,,,
,visa,,,HA NOI,HA NOI,,VN,,,,,
,visa,,,HA NOI,HA NOI,,VN,,,,,
,visa,,,HA NOI,HA NOI,,VN,,,,,
,visa,,,HA NOI,HA NOI,,VN,,,,,
,visa,,,HA NOI,HA NOI,,VN,,,,,
,visa,,,HA NOI,HA NOI,,VN,,,,,
,visa,,,HA NOI,HA NOI,,VN,,,,,
,visa,,,HA NOI,HA NOI,,VN,,,,,
,visa,,,HA NOI,HA NOI,,VN,,,,,
,visa,,,HA NOI,HA NOI,,VN,,,,,
,visa,,,HA NOI,HA NOI,,VN,,,,,
,visa,,,HA NOI,HA NOI,,VN,,,,,
,visa,,,HA NOI,HA NOI,,VN,,,,,
,visa,,,HA NOI,HA NOI,,VN,,,,,
,visa,,,HA NOI,HA NOI,,VN,,,,,
,visa,,,HA NOI,HA NOI,,VN,,,,,
,visa,,,HA NOI,HA NOI,,VN,,,,,
,visa,,,HA NOI,HA NOI,,VN,,,,,
,visa,,,HA NOI,HA NOI,,VN,,,,,
,visa,,,HA NOI,HA NOI,,VN,,,,,
,visa,,,HA NOI,HA NOI,,VN,,,,,
,visa,,,HA NOI,HA NOI,,VN,,,,,
,visa,,,HA NOI,HA NOI,,VN,,,,,
,visa,,,HA NOI,HA NOI,,VN,,,,,
,visa,,,HA NOI,HA NOI,,VN,,,,,
,visa,,,HA NOI,HA NOI,,VN,,,,,
,visa,,,HA NOI,HA NOI,,VN,,,,,
,visa,,,HA NOI,HA NOI,,VN,,,,,
,visa,,,HA NOI,HA NOI,,VN,,,,,
,visa,,,HA NOI,HA NOI,,VN,,,,,
,visa,,,HA NOI,HA NOI,,VN,,,,,
,visa,,,HA NOI,HA NOI,,VN,,,,,
,visa,,,HA NOI,HA NOI,,VN,,,,,
,visa,,,HA NOI,HA NOI,,VN,,,,,
,visa,,,HA NOI,HA NOI,,VN,,,,,
,visa,,,HA NOI,HA NOI,,VN,,,,,
,visa,,,HA NOI,HA NOI,,VN,,,,,
,visa,,,HA NOI,HA NOI,,VN,,,,,
,visa,,,HA NOI,HA NOI,,VN,,,,,
,visa,,,HA NOI,HA NOI,,VN,,,,,
,visa,,,HA NOI,HA NOI,,VN,,,,,
,visa,,,HA NOI,HA NOI,,VN,,,,,
,visa,,,HA NOI,HA NOI,,VN,,,,,
,visa,,,HA NOI,HA NOI,,VN,,,,,
,visa,,,HA NOI,HA NOI,,VN,,,,,
,visa,,,HA NOI,HA NOI,,VN,,,,,
,visa,,,HA NOI,HA NOI,,VN,,,,,
,visa,,,HA NOI,HA NOI,,VN,,,,,
,visa,,,HA NOI,HA NOI,,VN,,,,,
,visa,,,HA NOI,HA NOI,,VN,,,,,
,visa,,,HA NOI,HA NOI,,VN,,,,,
,visa,,,HA NOI,HA NOI,,VN,,,,,
,visa,,,HA NOI,HA NOI,,VN,,,,,
,visa,,,HA NOI,HA NOI,,VN,,,,,
2742fcf437235ec062917cff806a8351,western_union,TECHCOMBANK THANHXUAN,,Ha Noi,HA NOI,,VN,+84 252 3722 444,https://location.westernunion.com/vn/ha-noi/ha-noi/2742fcf437235ec062917cff806a8351,Mo-Fr 08:00-17:00; Sa 08:00-12:00,Western Union,Q861042
1fac597c8ca8dd94cef538bcb7aafc4f,western_union,TECHCOMBANK TRANBINH,,Ha Noi,HA NOI,,VN,+84 28 6295 7535,https://location.westernunion.com/vn/ha-noi/ha-noi/1fac597c8ca8dd94cef538bcb7aafc4f,Mo-Fr 08:00-17:00; Sa 08:00-12:00,Western Union,Q861042
d32cb7609cd81f87d0eb0744786f41db,western_union,TECHCOMBANK BADINH,,Ha Noi,HA NOI,,VN,+84 28 3752 4853,https://location.westernunion.com/vn/ha-noi/ha-noi/d32cb7609cd81f87d0eb0744786f41db,Mo-Sa 08:00-17:00,Western Union,Q861042
9d753a33a46c3a14d081db80b0974dba,western_union,MILITARY BANK PGD DAN PHUONG,,Ha Noi,HA NOI,,VN,+84 24 3388 7666,https://location.westernunion.com/vn/ha-noi/ha-noi/9d753a33a46c3a14d081db80b0974dba,Mo-Fr 08:00-17:30; Sa 08:00-12:00,Western Union,Q861042
0efa5a6248b70cbdfb38900d0a3c8f42,western_union,TECHCOMBANK TRANTHAITONG,,Ha Noi,HA NOI,,VN,+84 24 3818 5778,https://location.westernunion.com/vn/ha-noi/ha-noi/0efa5a6248b70cbdfb38900d0a3c8f42,Mo-Fr 08:00-17:00; Sa 08:00-12:00,Western Union,Q861042
ce6d294310b961bae50d4cff1554dce1,western_union,TECHCOMBANK LACLONGQUAN,,Ha Noi,HA NOI,,VN,+84 24 3965 5346,https://location.westernunion.com/vn/ha-noi/ha-noi/ce6d294310b961bae50d4cff1554dce1,Mo-Fr 08:00-17:00; Sa 08:00-12:00,Western Union,Q861042
50ab5a0af37b8120bf3715cb8391f171,western_union,TECHCOMBANK TULIEM,,Ha Noi,HA NOI,,VN,+84 24 3775 5389,https://location.westernunion.com/vn/ha-noi/ha-noi/50ab5a0af37b8120bf3715cb8391f171,Mo-Fr 08:00-17:00; Sa 08:00-12:00,Western Union,Q861042
04df194b14096f778228d380c26249e9,western_union,TECHCOMBANK ANKHANH,,Ha Noi,HA NOI,,VN,+84 24 6251 1032,https://location.westernunion.com/vn/ha-noi/ha-noi/04df194b14096f778228d380c26249e9,Mo-Fr 08:00-17:00; Sa 08:00-12:00,Western Union,Q861042
7feeda8c7cc90fc888d4a3e293b3b75e,western_union,MILITARY BANK HOAI DUC,,Hanoi,HA NOI,,VN,+84 24 3202 9069,https://location.westernunion.com/vn/ha-noi/hanoi/7feeda8c7cc90fc888d4a3e293b3b75e,Mo-Fr 08:00-17:30; Sa 08:00-12:00,Western Union,Q861042
de79281dc9bde85662988a458f5fb643,western_union,TECHCOMBANK KIMLIEN,,Ha Noi,HA NOI,,VN,+84 24 3795 0505,https://location.westernunion.com/vn/ha-noi/ha-noi/de79281dc9bde85662988a458f5fb643,Mo-Fr 08:00-17:00; Sa 08:00-12:00,Western Union,Q861042
65db6b69e9b589750d1b718b5a739fd0,western_union,TECHCOMBANK TRANDUYHUNG,,Ha Noi,HA NOI,,VN,+84 24 3748 0412,https://location.westernunion.com/vn/ha-noi/ha-noi/65db6b69e9b589750d1b718b5a739fd0,Mo-Fr 08:00-17:00; Sa 08:00-12:00,Western Union,Q861042
796c7a684ac8e6a5db5a43d29651824e,western_union,TECHCOMBANK TRANDANGNINH,,Ha Noi,HA NOI,,VN,+84 24 6287 0061,https://location.westernunion.com/vn/ha-noi/ha-noi/796c7a684ac8e6a5db5a43d29651824e,Mo-Fr 08:00-17:00; Sa 08:00-12:00,Western Union,Q861042
2e974129693ec2091b3537992294d97a,western_union,TECHCOMBANK KEANGNAM,,Ha Noi,HA NOI,,VN,+84 299 3627 990,https://location.westernunion.com/vn/ha-noi/ha-noi/2e974129693ec2091b3537992294d97a,Mo-Fr 08:00-17:00; Sa 08:00-12:00,Western Union,Q861042
c4131fdac22983f930e7c0843065b5c6,western_union,TECHCOMBANK LANGHA,,Ha Noi,HA NOI,,VN,(+84) 24-432262765,https://location.westernunion.com/vn/ha-noi/ha-noi/c4131fdac22983f930e7c0843065b5c6,Mo-Fr 08:00-17:00; Sa 08:00-12:00,Western Union,Q861042
73c96baf1fc02e5b7781174440a552ed,western_union,SHB VIET HUNG CN HOAN KIEM,,Ha Noi,HA NOI,,VN,+84 24 3652 4611,https://location.westernunion.com/vn/ha-noi/ha-noi/73c96baf1fc02e5b7781174440a552ed,Mo-Fr 08:00-16:30; Sa 08:00-11:30; Su 00:01-24:00,Western Union,Q861042
3820fd45ee30c23a34e5566ebcc5ec98,western_union,MILITARY BANK PGD VINH PHUC I,,Ha Noi,HA NOI,,VN,+84 24 3761 1555,https://location.westernunion.com/vn/ha-noi/ha-noi/3820fd45ee30c23a34e5566ebcc5ec98,Mo-Fr 08:00-17:00,Western Union,Q861042
94deeb7cf20e63ee981f3bc5ce727c94,western_union,TECHCOMBANK LINHDAM,,Ha Noi,HA NOI,,VN,+84 24 3728 2631,https://location.westernunion.com/vn/ha-noi/ha-noi/94deeb7cf20e63ee981f3bc5ce727c94,Mo-Fr 08:00-17:00; Sa 08:00-12:00,Western Union,Q861042
3d36962fbd9dd54ac12f079d4e3bcd34,western_union,TECHCOMBANK KHAMTHIEN,,Ha Noi,HA NOI,,VN,+84 24 6258 1441,https://location.westernunion.com/vn/ha-noi/ha-noi/3d36962fbd9dd54ac12f079d4e3bcd34,Mo-Fr 08:00-17:00; Sa 08:00-12:00,Western Union,Q861042
1d66aebd4beaeb66482d5abccf0d60e3,western_union,TECHCOMBANK NGOCKHANH,,Ha Noi,HA NOI,,VN,+84 24 3787 8999,https://location.westernunion.com/vn/ha-noi/ha-noi/1d66aebd4beaeb66482d5abccf0d60e3,Mo-Fr 08:00-17:00; Sa 08:00-12:00,Western Union,Q861042
2ee0dba56d76dac3f0e6a25373670f43,western_union,MILITARYBANK SO GIAO DICH,,Ha Noi,HA NOI,,VN,+84 24 6253 5555,https://location.westernunion.com/vn/ha-noi/ha-noi/2ee0dba56d76dac3f0e6a25373670f43,Mo-Fr 08:00-17:00; Sa 08:00-11:30,Western Union,Q861042
049381cceee2fc0876d3ffdf058e9416,western_union,NHNO&PTNT HA NOI I   PGD SO 5,,Ha Noi,HA NOI,,VN,+84 24 3244 4134,https://location.westernunion.com/vn/ha-noi/ha-noi/049381cceee2fc0876d3ffdf058e9416,Mo-Fr 07:00-17:00; Sa 07:00-12:00,Western Union,Q861042
3d1e292f1add5a8ef9ad3061bd93b9f0,western_union,TECHCOMBANK THAITHINH,,Ha Noi,HA NOI,,VN,+84 24 6275 4183,https://location.westernunion.com/vn/ha-noi/ha-noi/3d1e292f1add5a8ef9ad3061bd93b9f0,Mo-Fr 08:00-17:00; Sa 08:00-12:00,Western Union,Q861042
feb96b0125d3ddaee524a7e335204bc2,western_union,TECHCOMBANK GREENBAY,,Ha Noi,HA NOI,,VN,+84 251 3880 159,https://location.westernunion.com/vn/ha-noi/ha-noi/feb96b0125d3ddaee524a7e335204bc2,Mo-Fr 08:00-17:00; Sa 08:00-12:00,Western Union,Q861042
abeb2743bfe3fb3ea75b5c4764c7421f,western_union,TECHCOMBANK LACTRUNG,,Ha Noi,HA NOI,,VN,+84 24 3542 9668,https://location.westernunion.com/vn/ha-noi/ha-noi/abeb2743bfe3fb3ea75b5c4764c7421f,Mo-Fr 08:00-17:00; Sa 08:00-12:00,Western Union,Q861042
7dc5b7d6fb5e66df3c99e33f2dcd8c52,western_union,TECHCOMBANK HANOI,,Ha Noi,HA NOI,,VN,+84 24 3200 6444,https://location.westernunion.com/vn/ha-noi/ha-noi/7dc5b7d6fb5e66df3c99e33f2dcd8c52,Mo-Fr 08:00-17:00; Sa 08:00-12:00,Western Union,Q861042
60ff1392455a6918e15fb9c390bc3343,western_union,TECHCOMBANK CHUONGDUONG,,Ha Noi,HA NOI,,VN,+84 24 3372 4954,https://location.westernunion.com/vn/ha-noi/ha-noi/60ff1392455a6918e15fb9c390bc3343,Mo-Sa 08:00-17:00,Western Union,Q861042
f211e75c9aa5132b248a37cb1d43ea3b,western_union,TECHCOMBANK NINHHIEP,,Ha Noi,HA NOI,,VN,+84 24 3923 2932,https://location.westernunion.com/vn/ha-noi/ha-noi/f211e75c9aa5132b248a37cb1d43ea3b,Mo-Fr 08:00-17:00; Sa 08:00-12:00,Western Union,Q861042
3a365a824e952edbd42447c8b308c9ee,western_union,MB SO GIAO DICH 3,,Ha Noi,HA NOI,,VN,+84 24 6253 5555,https://location.westernunion.com/vn/ha-noi/ha-noi/3a365a824e952edbd42447c8b308c9ee,Mo-Fr 08:00-17:30,Western Union,Q861042
e343fe38c30c7599c3bc9c886c1a2790,western_union,TECHCOMBANK TRANDIEN,,Ha Noi,HA NOI,,VN,+84 24 3824 3941,https://location.westernunion.com/vn/ha-noi/ha-noi/e343fe38c30c7599c3bc9c886c1a2790,Mo-Fr 08:00-17:00; Sa 08:00-12:00,Western Union,Q861042
ae234ef9c430836c42e09b5e3729f218,western_union,NAVIBANK_PGD 10,,Ha Noi,HA NOI,,VN,(+84) 4-7833180,https://location.westernunion.com/vn/ha-noi/ha-noi/ae234ef9c430836c42e09b5e3729f218,Mo-Fr 08:00-17:00; Sa 08:00-12:00,Western Union,Q861042
468a64aef6eacd1d61159d7571e2acf0,western_union,TECHCOMBANK DONGDA,,Ha Noi,HA NOI,,VN,+84 28 3742 1439,https://location.westernunion.com/vn/ha-noi/ha-noi/468a64aef6eacd1d61159d7571e2acf0,Mo-Sa 08:00-17:00,Western Union,Q861042
f46e5869f9c7b6d6379107a3f3080ccc,western_union,TECHCOMBANK LINHNAM,,Ha Noi,HA NOI,,VN,+84 24 3537 3586,https://location.westernunion.com/vn/ha-noi/ha-noi/f46e5869f9c7b6d6379107a3f3080ccc,Mo-Sa 08:00-17:00,Western Union,Q861042
489f0e94bc1cc7e047d8c139fe4f8a43,western_union,TECHCOMBANK HOANGCAU,,Ha Noi,HA NOI,,VN,+84 222 6260 167,https://location.westernunion.com/vn/ha-noi/ha-noi/489f0e94bc1cc7e047d8c139fe4f8a43,Mo-Sa 08:00-17:00,Western Union,Q861042
ce498393d25c593b28440743b5f26d86,western_union,TECHCOMBANK XUANDIEU,,Ha Noi,HA NOI,,VN,+84 24 6251 1032,https://location.westernunion.com/vn/ha-noi/ha-noi/ce498393d25c593b28440743b5f26d86,Mo-Fr 08:00-17:00; Sa 08:00-12:00,Western Union,Q861042
1a774768035813a58666051e7dddceec,western_union,TECHCOMBANK XUANMAI,,Ha Noi,HA NOI,,VN,(+84) 24-437301968,https://location.westernunion.com/vn/ha-noi/ha-noi/1a774768035813a58666051e7dddceec,Mo-Fr 08:00-17:00; Sa 08:00-12:00,Western Union,Q861042
b2429e9326210bb5322b10008a7481eb,western_union,TECHCOMBANK HANGDAU,,Ha Noi,HA NOI,,VN,+84 24 3942 6868,https://location.westernunion.com/vn/ha-noi/ha-noi/b2429e9326210bb5322b10008a7481eb,Mo-Fr 08:00-17:00; Sa 08:00-12:00,Western Union,Q861042
3e252ea90dc8c0967ad971faa1cbe477,western_union,TECHCOMBANK THANGLONG,,Ha Noi,HA NOI,,VN,+84 24 3972 8118,https://location.westernunion.com/vn/ha-noi/ha-noi/3e252ea90dc8c0967ad971faa1cbe477,Mo-Fr 08:00-17:00; Sa 08:00-12:00,Western Union,Q861042
2401e0464f86b3dd9fbcf55fb0795f6b,western_union,TECHCOMBANK VANQUAN,,Ha Noi,HA NOI,,VN,+84 24 3537 8288,https://location.westernunion.com/vn/ha-noi/ha-noi/2401e0464f86b3dd9fbcf55fb0795f6b,Mo-Fr 08:00-17:00; Sa 08:00-12:00,Western Union,Q861042
9d62d2e290ed13f7bf694d19f153d2ed,western_union,MILITARY BANK VAN PHU,,Ha Noi,HA NOI,,VN,+84 24 3355 2920,https://location.westernunion.com/vn/ha-noi/ha-noi/9d62d2e290ed13f7bf694d19f153d2ed,Mo-Sa 07:30-17:30,Western Union,Q861042
3d455ecc823a5d6d68d98636abf766ad,western_union,TECHCOMBANK NHUEGIANG,,Ha Noi,HA NOI,,VN,+84 24 2222 9966,https://location.westernunion.com/vn/ha-noi/ha-noi/3d455ecc823a5d6d68d98636abf766ad,Mo-Fr 08:00-17:00; Sa 08:00-12:00,Western Union,Q861042
52e15c979ff6edfb2efb2ab6f2d84409,western_union,TECHCOMBANK BIGC,,Ha Noi,HA NOI,,VN,+84 24 3562 6156,https://location.westernunion.com/vn/ha-noi/ha-noi/52e15c979ff6edfb2efb2ab6f2d84409,Mo-Sa 08:00-17:00,Western Union,Q861042
0c7e682c6449cf094c71feaa3eec8c2c,western_union,TECHCOMBANK SONTAY,,Ha Noi,HA NOI,,VN,+84 24 3976 0055,https://location.westernunion.com/vn/ha-noi/ha-noi/0c7e682c6449cf094c71feaa3eec8c2c,Mo-Fr 08:00-17:00; Sa 08:00-12:00,Western Union,Q861042
21641b90f6d027690ac92847928fb6bf,western_union,TECHCOMBANK HOANGMAI,,Ha Noi,HA NOI,,VN,+84 24 3868 4918,https://location.westernunion.com/vn/ha-noi/ha-noi/21641b90f6d027690ac92847928fb6bf,Mo-Fr 08:00-17:00; Sa 08:00-12:00,Western Union,Q861042
f1ac9c8a57044e3b811d1a34fa33ded8,western_union,TECHCOMBANK XALA,,Ha Noi,HA NOI,,VN,+84 24 3793 2993,https://location.westernunion.com/vn/ha-noi/ha-noi/f1ac9c8a57044e3b811d1a34fa33ded8,Mo-Fr 08:00-17:00; Sa 08:00-12:00,Western Union,Q861042
c6803f35cc6f761019b904822ab0ba1c,western_union,NHNO&PTNT HA TAY   PGD SO 1,,Ha Noi,HA NOI,,VN,+84 24 3352 8613,https://location.westernunion.com/vn/ha-noi/ha-noi/c6803f35cc6f761019b904822ab0ba1c,Mo-Fr 07:00-17:00; Sa 07:00-12:00,Western Union,Q861042
bcf03ae83245e640ba4feee1a6f132b4,western_union,TECHCOMBANK HOANGQUOCVIET,,Ha Noi,HA NOI,,VN,+84 24 3662 8812,https://location.westernunion.com/vn/ha-noi/ha-noi/bcf03ae83245e640ba4feee1a6f132b4,Mo-Fr 08:00-17:00; Sa 08:00-12:00,Western Union,Q861042
6bd2780e61fc6099b702fe209e84328b,western_union,TECHCOMBANK TRANGAN,,Ha Noi,HA NOI,,VN,+84 24 3932 9888,https://location.westernunion.com/vn/ha-noi/ha-noi/6bd2780e61fc6099b702fe209e84328b,Mo-Fr 08:00-17:00; Sa 08:00-12:00,Western Union,Q861042
a1da2ed8ff9c304fb13038b91d6c904f,western_union,MILITARY BANK LINH DAM,,Ha Noi,HA NOI,,VN,+84 24 3540 1166,https://location.westernunion.com/vn/ha-noi/ha-noi/a1da2ed8ff9c304fb13038b91d6c904f,Mo-Fr 08:00-17:00; Sa 08:00-12:00,Western Union,Q861042
