Ref,Spider,Name,Address,City,State,Zipcode,Country,Phone,Website,Hours,Brand,WikiData
R014,apple,Apple Broadway Plaza,,Walnut Creek,CA,,US,+1 925-949-5463,https://www.apple.com/retail/broadwayplaza,Mo-Sa 10:00-20:00; Su 11:00-18:00,Apple,Q421253
15250,asics_us,Nordstrom,1200 Broadway Plaza,Walnut Creek,CA,,US,+1 925-930-7959,,,asics,Q327247
21937,asics_us,Athletic Outpost,1528 Bonanza St,Walnut Creek,CA,,US,+1 925-943-6453,,Mo-Su 11:00-17:00,asics,Q327247
350397,asics_us,FORWARD MOTION,1352 Locust St,Walnut Creek,CA,,US,+1 585-248-3420,,,asics,Q327247
83123,att_us,WALNUT CREEK OLYMPIC STORE 113601,,Walnut Creek,CA,,US,+1 925-932-9640,https://www.att.com/stores/california/walnut-creek/83123,Mo-Sa 10:00-20:00; Su 10:00-18:00,AT&T,Q298594
https://bananarepublic.gap.com/stores/ca/walnutcreek/banana-republic-8290.html,bananarepublic,Banana Republic,,WALNUT CREEK,CA,,US,+1 925-256-7538,https://bananarepublic.gap.com/stores/ca/walnutcreek/banana-republic-8290.html,Mo-Sa 10:00-20:00; Su 11:00-18:00,Banana Republic,Q806085
https://locators.bankofamerica.com/ca/walnutcreek/financial-centers-walnut-creek-11599.html,bankofamerica,Bank of America Financial Center & Walk-Up ATM | Walnut Creek Main,,Walnut Creek,CA,,US,+1 925-296-5930,https://locators.bankofamerica.com/ca/walnutcreek/financial-centers-walnut-creek-11599.html,Mo-Fr 09:00-17:00; Sa 09:00-16:00,Bank of America,Q487907
https://locators.bankofamerica.com/ca/walnutcreek/atm-walnut-creek-103895.html,bankofamerica,Bank of America Walk-Up ATM | N Main St,,Walnut Creek,CA,,US,+1 844-401-8500,https://locators.bankofamerica.com/ca/walnutcreek/atm-walnut-creek-103895.html,,Bank of America,Q487907
walnut-creek,barmethod,The Bar Method Walnut Creek,,Walnut Creek,CA,,US,+1 925-933-1946,https://barmethod.com/locations/walnut-creek/,,The Bar Method,Q117599728
BBW02347,bathandbodyworks_us,BROADWAY PLAZA,,WALNUT CREEK,CA,,US,+1 925-278-5995,,Mo-Sa 10:00-20:00; Su 11:00-18:00,Bath & Body Works,Q810773
183865,bluerhino,NMSO #8235,,Walnut Creek,CA,,US,+1 925-934-4315,,,Blue Rhino,Q65681213
227127,bluerhino,Walnut Creek Hardware #14844,,Walnut Creek,CA,,US,+1 925-705-7500,,,Blue Rhino,Q65681213
183866,bluerhino,NMSO #8236,,Walnut Creek,CA,,US,+1 925-947-3440,,,Blue Rhino,Q65681213
192295,bluerhino,Beverages & More #1 - UNFI #246168,,Walnut Creek,CA,,US,+1 925-472-0130,,,Blue Rhino,Q65681213
38045,cadillac,MICHAEL STEAD CADILLAC,,Walnut Creek,CA,,US,+1 925-934-9300,https://www.steadcadillac.com,Mo-Fr 09:00-20:00; Sa 09:00-18:00; Su 10:00-18:00,Cadillac,Q27436
CA379-M1-SR4,california_closets_us,California Closets - Walnut Creek,,Walnut Creek,CA,,US,+1 510-763-2033,https://www.locations.californiaclosets.com/california-closets-walnut-creek-1d32dc9c6283,"Mo-Sa 10:00-13:30,14:00-18:00",California Closets,Q5020325
A22B,capital_one_us,Capital One Cafe - Walnut Creek,,Walnut Creek,CA,,US,,https://locations.capitalone.com/atm/CA/walnut-creek-atm-A22B,24/7,Capital One,Q1034654
65125,capital_one_us,Walnut Creek,,Walnut Creek,CA,,US,+1 925-298-8375,https://locations.capitalone.com/bank/CA/-Walnut-Creek-cafe-65125,Mo-Sa 08:00-19:00; Su 09:00-18:00,Capital One,Q1034654
2043206,chase_us,Main and Newell - New branch,,Walnut Creek,CA,,US,+1 925-935-3940,https://locator.chase.com/ca/walnut-creek/1390-s-main-st,Mo-Fr 09:00-17:00; Sa 09:00-14:00,Chase,Q524629
ca_walnut-creek_1158-locust-st,chipotle, ,,Walnut Creek,CA,,US,+1 925-935-9307,https://locations.chipotle.com/ca/walnut-creek/1158-locust-st,,Chipotle,Q465751
47181,citi,ATM CVS,,Walnut Creek,CA,,US,,,,Citibank,Q857063
81830,citi,ATM Target,,Walnut Creek,CA,,US,,,,Citibank,Q857063
494,citi,Walnut Creek,,Walnut Creek,CA,,US,+1 800-627-3999,,,Citibank,Q857063
28119,citi,ATM 7ELEVEN-FCTI,,Walnut Creek,CA,,US,,,,Citibank,Q857063
38827,citi,ATM Capital One Cafe - Walnut Creek,,Walnut Creek,CA,,US,,,,Citibank,Q857063
38825,citi,ATM Capital One Cafe - Walnut Creek,,Walnut Creek,CA,,US,,,,Citibank,Q857063
38826,citi,ATM Capital One Cafe - Walnut Creek,,Walnut Creek,CA,,US,,,,Citibank,Q857063
32122,citi,ATM 7ELEVEN-FCTI,,Walnut Creek,CA,,US,,,,Citibank,Q857063
28787,citi,ATM 7ELEVEN-FCTI,,Walnut Creek,CA,,US,,,,Citibank,Q857063
28962,citi,ATM 7ELEVEN-FCTI,,Walnut Creek,CA,,US,,,,Citibank,Q857063
24qz6rGGkkd5jkvb8KJbcN,corepower_yoga_us,Walnut Creek,,Walnut Creek,CA,,US,,https://www.corepoweryoga.com/yoga-studios/ca/east-bay/walnut-creek,,Corepower Yoga,Q21015663
29497,cpk,California Pizza Kitchen Walnut Creek,,Walnut Creek,CA,,US,+1 925-938-0720,https://www.cpk.com/locations/29497,,California Pizza Kitchen,Q15109854
16563,cvs_us,CVS Pharmacy,,Walnut Creek,CA,,US,+1 925-979-0095,https://www.cvs.com/store-locator/walnut-creek-ca-pharmacies/1871-n-main-st-walnut-creek-ca-94596/storeid=16563,"Mo-Fr 10:00-13:30,14:00-18:30; Sa 09:00-13:30,14:00-17:00; Su 11:00-13:30,14:00-17:00",CVS Pharmacy,Q2078880
9545,cvs_us,CVS Pharmacy,,Walnut Creek,CA,,US,+1 925-933-8353,https://www.cvs.com/store-locator/walnut-creek-ca-pharmacies/1123-s-california-blvd-walnut-creek-ca-94596/storeid=9545,24/7,CVS Pharmacy,Q2078880
355054,dunkin_us,Dunkin',,Walnut Creek,CA,,US,+1 925-946-1134,https://locations.dunkindonuts.com/en/ca/walnut-creek/1250-newell-ave/355054,Mo-Fr 05:00-19:00; Sa-Su 06:00-19:00,Dunkin',Q847743
0001044786,ecco,ECCO BROADWAY PLAZA,,WALNUT CREEK,CA,,US,+1 925-472-0263,,Mo-Fr 10:00-09:00; Sa 10:00-07:00; Su 11:00-06:00,Ecco,Q1280255
https://www.edwardjones.com/us-en/financial-advisor/lawrence-kolka,edwardjones,Lawrence R Kolka,,Walnut Creek,CA,,US,+1 925-472-0322,https://www.edwardjones.com/us-en/financial-advisor/lawrence-kolka,Mo-Fr 08:00-16:00,Edward Jones,Q5343830
200175,electrify_america,Broadway Plaza,,Walnut Creek,CA,,US,,,,Electrify America,Q59773555
200322669,exxonmobil,WALNUT CREEK GAS,,WALNUT CREEK,CA,,US,+1 925-934-9500,https://www.exxon.com/en/find-station/mobil-walnutcreek-ca-walnutcreekgas-200322669,Mo-Su 06:00-22:00,Mobil,Q109676002
Motorcraft2398USAEnglish,ford,Walnut Creek Ford,,California,CA,,US,+1 925-932-2900,,,Ford,Q44294
https://www.ford.com/dealerships/dealer-details/ca/walnut-creek/walnut-creek-ford/,ford_dealers_us,Walnut Creek Ford,,Walnut Creek,CA,,US,+1 925-430-1015,https://www.ford.com/dealerships/dealer-details/ca/walnut-creek/walnut-creek-ford/,Mo-Fr 08:30-20:00; Sa 08:30-18:00; Su 10:00-18:00,Ford Motor Company,Q44294
https://www.habitburger.com/locations/walnut-creek/,habit_burger,The Habit Burger Grill,,Walnut Creek,CA,,US,+1 925-279-2286,https://www.habitburger.com/locations/walnut-creek/,Mo-Th 10:30-21:30; Fr-Sa 10:30-22:00; Su 10:30-21:30,The Habit Burger Grill,Q18158741
US0522,hm,Broadway Plaza Walnut Creek,,Walnut Creek,CA,,US,+1 855-466-7467,,Mo-Sa 10:00-20:00; Su 11:00-18:00,H&M,Q188326
9925268,hugo_boss,BOSS Menswear Shop,,Walnut Creek,CA,,US,,https://www.hugoboss.com/us/storedetail?storeid=9925268,,Hugo Boss,Q491627
4591,h_r_block,H&R Block,,Walnut Creek,CA,,US,+1 925-906-9810,https://www.hrblock.com/local-tax-offices/california/walnut-creek/gateway-centre/4591/,,H&R Block,Q5627799
302,ikes,Walnut Creek,,Walnut Creek,CA,,US,+1 925-944-4755,https://locations.ikessandwich.com/ca/walnutcreek/302/,,Ike's Love & Sandwiches,Q112028897
walnut-creek-s-locust,indigo,Walnut Creek- S Locust,,Walnut Creek,CA,,US,+1 925-935-6185,,,Indigo,Q3559970
walnut-creek-n-locust,indigo,Walnut Creek- N Locust,,Walnut Creek,CA,,US,+1 925-935-6185,,,Indigo,Q3559970
walnut-creek-broadway,indigo,Walnut Creek- Broadway,,Walnut Creek,CA,,US,+1 925-935-6185,,,Indigo,Q3559970
boa-merrill-lynch-the-plaza-at-walnut-creek,indigo,BOA -  Merrill Lynch - The Plaza at Walnut Creek,,Walnut Creek,CA,,US,+1 925-945-4826,,,Indigo,Q3559970
1390-s-main,indigo,1390 S Main,,Walnut Creek,CA,,US,+1 510-250-2052,,,Indigo,Q3559970
smsjpmc-1390-s-main,indigo,SMS-JPMC 1390 S Main,,Walnut Creek,CA,,US,+1 510-250-2052,,,Indigo,Q3559970
https://locations.jackinthebox.com/us/ca/walnut-creek/2295-n-main-st,jackinthebox,Jack in the Box,,Walnut Creek,CA,,US,+1 925-476-5151,https://locations.jackinthebox.com/us/ca/walnut-creek/2295-n-main-st,Mo-Th 05:30-02:00; Fr-Sa 05:30-03:00; Su 05:30-02:00,Jack in the Box,Q1538507
L2NvbnRlbnQvZGFtL2psbC1jb20vbW9kZWxzL2xvY2F0aW9ucy9lbi93YWxudXQtY3JlZWs,jll,Walnut Creek,,Walnut Creek,CA,,US,+1 925-944-2140,https://www.us.jll.com/en/locations/west/oakland-and-east-bay,,JLL,Q1703389
https://healthy.kaiserpermanente.org/northern-california/facilities/walnut-creek-medical-center-100313,kaiser_permanente_us,Walnut Creek Medical Center,,Walnut Creek,CA,,US,+1 925-295-4000,https://healthy.kaiserpermanente.org/northern-california/facilities/walnut-creek-medical-center-100313,,Kaiser Permanente,Q1721601
https://stores.kiehls.com/ca/walnut-creek/1278-broadway-plaza.html,kiehls_us,Kiehl's walnut creek,,Walnut Creek,CA,,US,+1 925-939-3051,https://stores.kiehls.com/ca/walnut-creek/1278-broadway-plaza.html,,Kiehl's,Q3196447
070347,kindercare,Walnut Boulevard KinderCare,,Walnut Creek,CA,,US,,https://www.kindercare.com/our-centers/walnut-creek/ca/070347,,KinderCare Learning Centers,Q6410551
https://local.lenscrafters.com/ca/walnut-creek/1320-broadway-plaza.html,lenscrafters,LensCrafters,,Walnut Creek,CA,,US,+1 925-939-3591,https://local.lenscrafters.com/ca/walnut-creek/1320-broadway-plaza.html,Mo-Sa 10:00-21:00; Su 11:00-19:00,LensCrafters,Q6523209
https://local.lenscrafters.com/ca/walnut-creek/1129-south-main-street.html,lenscrafters,LensCrafters,,Walnut Creek,CA,,US,+1 925-949-2731,https://local.lenscrafters.com/ca/walnut-creek/1129-south-main-street.html,Mo-Sa 09:00-19:00; Su 11:00-17:00,LensCrafters,Q6523209
CAWNC,life_time,Walnut Creek,,Walnut Creek,CA,,US,+1 925-951-4900,https://my.lifetime.life/clubs/ca/walnut-creek.html,Mo-Th 09:00-19:00; Fr 09:00-17:00; Sa-Su 10:00-15:00,Life Time,Q6545004
52712,little_free_library,Amy Bode #52712 Walnut Creek CA,,Walnut Creek,CA,,US,,,,Little Free Library,Q6650101
110042,little_free_library,In Love of Books and Friendship #110042 Walnut Creek CA,,Walnut Creek,CA,,US,,,,Little Free Library,Q6650101
19816,little_free_library,Susan Weingarten #19816 Walnut Creek CA,,Walnut Creek,CA,,US,,,,Little Free Library,Q6650101
68107,little_free_library,Jennifer Wickboldt #68107 Walnut Creek CA,,Walnut Creek,CA,,US,,,,Little Free Library,Q6650101
132870,little_free_library,Alma DeBisschop #132870 Walnut Creek CA,,Walnut Creek,CA,,US,,,,Little Free Library,Q6650101
132590,little_free_library,Murali Sharma #132590 Walnut Creek CA,,Walnut Creek,CA,,US,,,,Little Free Library,Q6650101
38867,little_free_library,Adam and Kate Boegel #38867 Walnut Creek CA,,Walnut Creek,CA,,US,,,,Little Free Library,Q6650101
57258,little_free_library,Jane Liaw #57258 Walnut Creek CA,,Walnut Creek,CA,,US,,,,Little Free Library,Q6650101
120209,little_free_library,Mary & Sam Library #120209 Walnut Creek CA,,Walnut Creek,CA,,US,,,,Little Free Library,Q6650101
https://stores.loft.com/ca/walnut-creek/1251-south-main-street.html,loft_us,Loft,,Walnut Creek,CA,,US,+1 925-934-9923,https://stores.loft.com/ca/walnut-creek/1251-south-main-street.html,,Loft,Q62075137
US042,longchamp_us,Nordstrom (Broadway Plaza In Walnut Creek),,WALNUT CREEK,CA,,US,+1 925-930-7959,,,Longchamp,Q1869471
https://stores.madewell.com/#2776581,madewell_us,Madewell,,Walnut Creek,CA,,US,+1 925-937-1570,https://stores.madewell.com/us/ca/walnut-creek/1254-broadway-plaza,Mo-Sa 10:00-20:00; Su 11:00-18:00,Madewell,Q64026213
OAKWC,marriott,Walnut Creek Marriott,,Walnut Creek,CA,,US,+1 925-934-2000,https://www.marriott.com/OAKWC,,Marriott Hotels & Resorts,Q3918608
OAKRW,marriott,Residence Inn Walnut Creek,,Walnut Creek,CA,,US,+1 925-433-5215,https://www.marriott.com/OAKRW,,Residence Inn by Marriott,Q7315394
dealer_6012,maserati,MASERATI WALNUT CREEK,,WALNUT CREEK,CA,,US,+1 925-444-2000,https://www.maseratiwalnutcreek.com/,,Maserati,Q35962
18303,mattress_firm_us,Mattress Firm Walnut Creek South Main Street,,Walnut Creek,CA,,US,+1 925-945-8307,https://www.mattressfirm.com/en-us/stores/ca/walnut-creek/502050/,,Mattress Firm,Q6791878
10383195,nick_the_greek_us,Walnut Creek,"1140 Locust St, Walnut Creek, Ca, 94596, US",Walnut Creek,CA,,US,+1 925-951-6200,,Mo-Su 10:30-23:00,Nick The Greek,Q117222612
1930-mt-diablo-blvd,noahsnybagels,Noah's NY Bagels Mt. Diablo - Walnut Creek,,Walnut Creek,CA,,US,+1 925-357-6967,https://locations.noahs.com/us/ca/walnut-creek/1930-mt-diablo-blvd,Mo-Su 06:00-13:00,Noah's New York Bagels,Q64517373
421,nordstrom,Nordstrom Broadway Plaza in Walnut Creek,,Walnut Creek,CA,,US,+1 925-930-7959,https://www.nordstrom.com/store-details/nordstrom-broadway-plaza-in-walnut-creek,,Nordstrom,Q174310
1156,orangetheory_fitness,"Walnut Creek, CA",,Walnut Creek,CA,,US,+1 925-278-6313,,,Orangetheory Fitness,Q25005163
https://locations.oreillyauto.com/ca/walnutcreek/check-engine-light-testing-6287.html,oreilly,Your Walnut Creek O'Reilly Auto Parts Store,,Walnut Creek,CA,,US,+1 925-266-3077,https://locations.oreillyauto.com/ca/walnutcreek/check-engine-light-testing-6287.html,Mo-Sa 07:30-21:00; Su 08:00-20:00,O'Reilly Auto Parts,Q7071951
https://locations.oreillyauto.com/ca/walnutcreek/battery-testing-6287.html,oreilly,Your Walnut Creek O'Reilly Auto Parts Store,,Walnut Creek,CA,,US,+1 925-266-3077,https://locations.oreillyauto.com/ca/walnutcreek/battery-testing-6287.html,Mo-Sa 07:30-21:00; Su 08:00-20:00,O'Reilly Auto Parts,Q7071951
https://locations.oreillyauto.com/ca/walnutcreek/autopartes-6287.html,oreilly,O'Reilly Auto Parts,,Walnut Creek,CA,,US,+1 925-266-3077,https://locations.oreillyauto.com/ca/walnutcreek/autopartes-6287.html,Mo-Sa 07:30-21:00; Su 08:00-20:00,O'Reilly Auto Parts,Q7071951
https://locations.oreillyauto.com/ca/walnutcreek/wiper-installation-6287.html,oreilly,Your Walnut Creek O'Reilly Auto Parts Store,,Walnut Creek,CA,,US,+1 925-266-3077,https://locations.oreillyauto.com/ca/walnutcreek/wiper-installation-6287.html,Mo-Sa 07:30-21:00; Su 08:00-20:00,O'Reilly Auto Parts,Q7071951
https://locations.papajohns.com/#10693520,papa_johns,Papa John's,,Walnut Creek,CA,,US,+1 925-933-7272,https://locations.papajohns.com/united-states/ca/94596/walnut-creek/1280-b-newell-avenue,Mo-Su 10:00-02:00,Papa John's Pizza,Q2759586
1608,paper_source_us,"Walnut Creek, CA",,Walnut Creek,CA,,US,+1 925-357-6200,https://www.papersource.com/locator/Ca-walnut-creek/,Mo-Tu 10:00-19:00; We-Fr 10:00-20:00; Sa 10:00-19:00; Su 11:00-18:00,Paper Source,Q25000269
16526044,peets_coffee_us,Locust Street,,Walnut Creek,CA,,US,+1 925-933-9580,https://peets.app.link?&$fallback_url=https%3A%2F%2Forder.peets.com%2Flocation%2Flocust-street%2Fmenu&$type=order&~campaign=orderaheadonline&~channel=web&~feature=menu&~tags=locust-street,Mo-Th 05:00-18:00; Fr 05:00-19:00; Sa 06:00-19:00; Su 06:00-18:00,Peet's Coffee,Q1094101
ca_walnut-creek_1871-north-main,pizza_hut_us,1871 North Main,,Walnut Creek,CA,,US,,https://locations.pizzahut.com/ca/walnut-creek/1871-north-main,,Pizza Hut,Q191615
https://www.plannedparenthood.org/health-center/california/walnut-creek/94596/walnut-creek-health-center-2571-90200,planned_parenthood,Planned Parenthood,,Walnut Creek,CA,,US,,https://www.plannedparenthood.org/health-center/california/walnut-creek/94596/walnut-creek-health-center-2571-90200,,Planned Parenthood,Q2553262
https://locations.qdoba.com/us/ca/walnut-creek/1815---b-ygnacio-valley-road.html,qdoba,QDOBA Walnut Creek,,Walnut Creek,CA,,US,+1 925-317-3622,https://locations.qdoba.com/us/ca/walnut-creek/1815---b-ygnacio-valley-road.html,Mo-Su 10:30-22:00,Qdoba,Q1363885
137,ross_dress_for_less_us,Walnut Creek,,Walnut Creek,CA,,US,+1 925-934-1900,,Mo-Th 09:30-21:30; Fr-Sa 09:30-22:00; Su 09:00-21:30,Ross Dress for Less,Q3442791
2282,round_table_pizza,Walnut Creek - 1776 N Broadway,,Walnut Creek ,CA,,US,+1 925-945-7878,https://ordering.roundtablepizza.com/site/rt1087,,Round Table Pizza,Q7371139
https://local.pharmacy.safeway.com/#5673791,safeway,Safeway Pharmacy,,Walnut Creek,CA,,US,+1 925-945-3440,https://local.pharmacy.safeway.com/safeway/ca/walnut-creek/600-s-broadway.html,,Safeway,Q1508234
https://local.safeway.com/#5604766,safeway,Safeway,,Walnut Creek,CA,,US,+1 925-935-9205,https://local.safeway.com/safeway/ca/walnut-creek/600-s-broadway.html,,Safeway,Q1508234
38955,seven_eleven_ca_us,7-Eleven,,Walnut Creek,CA,,US,+1 800-255-0711,https://www.7-eleven.com/locations/ca/walnut-creek/690-ygnacio-valley-rd-38955,,7-Eleven,Q259340
5449980954214372521,sleep_number_us,Sleep Number,,Walnut Creek,CA,,US,,https://www.sleepnumber.com/stores/ca/walnut-creek/1619-mt-diablo-blvd,Mo-Su 11:00-20:00,Sleep Number,Q7447640
73,sola_salon_studios,Walnut Creek,,Walnut Creek,CA,,US,+1 408-763-8800,https://www.solasalonstudios.com/locations/walnut-creek,,Sola Salon Studios,Q64337426
Walnut Creek ,soulcycle,Walnut Creek ,"Broadway Plaza, 116 Broadway Lane (Macy's Parking Garage Entrance off of South Broadway)",Walnut Creek,CA,,US,+1 925-239-7685,https://www.soul-cycle.com/studios/ca-walnutcreek/,,Soulcycle,Q17084730
https://restaurants.subway.com/#14897143,subway,Subway,,Walnut Creek Contra Costa,CA,,US,+1 925-943-6355,https://restaurants.subway.com/united-states/ca/walnut-creek/1556-newell-avenue,Mo-Sa 09:00-22:00; Su 10:00-21:00,Subway,Q244457
https://stores.sunglasshut.com/us/ca/walnut-creek/1320-broadway-plz,sunglass_hut_1,Sunglass Hut at Macy's,,Walnut Creek,CA,,US,+1 925-295-0270,https://stores.sunglasshut.com/us/ca/walnut-creek/1320-broadway-plz,Mo-Sa 10:00-21:00; Su 11:00-19:00,Sunglass Hut,Q136311
2658,sweetgreen_us,Walnut Creek,,Walnut Creek,CA,,US,+1 925-744-7070,https://order.sweetgreen.com/walnut-creek/,Mo-Th 10:00-20:00; Fr-Sa 10:00-21:00; Su 10:00-20:00,Sweetgreen,Q18636413
https://locations.tacobell.com/#6144960,taco_bell,Taco Bell,,Walnut Creek,CA,,US,+1 925-932-9321,https://locations.tacobell.com/ca/walnut-creek/2400-n--main-st-.html,Mo-Su 06:00-02:00,Taco Bell,Q752941
146,the_cheesecake_factory,Plaza Escuela,,Walnut Creek,CA,,US,+1 925-952-8450,https://locations.thecheesecakefactory.com/ca/walnut-creek-146/,Mo-Th 11:00-22:00; Fr 11:00-23:00; Su 10:00-22:00,The Cheesecake Factory,Q1045842
TNFUS00551,the_north_face,The North Face Broadway Plaza,,Walnut Creek,CA,,US,+1 925-266-3778,,Mo-Sa 10:00-20:00; Su 11:00-18:00,The North Face,Q152784
0133,tillys,Plaza Escuela,,Walnut Creek,CA,,US,+1 925-937-1172,,Mo 11:00-07:00; Tu-Fr 10:00-09:00; Sa 10:00-07:00; Su 11:00-06:00,Tillys,Q7802889
4608,tmobile_us,Newell & Main,,Walnut Creek,CA,,US,+1 925-219-6108,https://www.t-mobile.com/store-locator/ca/walnut-creek/newell-main,,T-Mobile,Q3511885
123,trader_joes_us,Trader Joe's Walnut Creek (123),,Walnut Creek,CA,,US,+1 925-945-1674,https://locations.traderjoes.com/ca/walnut-creek/123/,Mo-Su 08:00-21:00,Trader Joe's,Q688825
1386294,usps,WALNUT CREEK,,WALNUT CREEK,CA,,US,+1 925-935-0256,,Mo-Fr 08:00-17:00; Sa 09:00-15:00,United States Postal Service,Q668687
9459600144,usps_collection_boxes,USPS COLLECTION BOX - BLUE BOX,83 MAYHEW WAY,WALNUT CREEK,CA,,US,,,,United States Postal Service,Q668687
9459600063,usps_collection_boxes,USPS COLLECTION BOX - BLUE BOX,1347 TREAT BLVD,WALNUT CREEK,CA,,US,,,,United States Postal Service,Q668687
9459600041,usps_collection_boxes,USPS COLLECTION BOX - BLUE BOX,2991 N MAIN ST,WALNUT CREEK,CA,,US,,,,United States Postal Service,Q668687
9459600175,usps_collection_boxes,USPS COLLECTION BOX - BLUE BOX,2890 N MAIN ST,WALNUT CREEK,CA,,US,,,,United States Postal Service,Q668687
9459600028,usps_collection_boxes,USPS COLLECTION BOX - BLUE BOX,470 N CIVIC DR,WALNUT CREEK,CA,,US,,,,United States Postal Service,Q668687
9459600081,usps_collection_boxes,USPS COLLECTION BOX - BLUE BOX,801 YGNACIO VALLEY RD,WALNUT CREEK,CA,,US,,,,United States Postal Service,Q668687
9459600177,usps_collection_boxes,USPS COLLECTION BOX - APC,2070 N BROADWAY,WALNUT CREEK,CA,,US,,,,United States Postal Service,Q668687
9459600185,usps_collection_boxes,USPS COLLECTION BOX - PO LOBBY,2070 N BROADWAY,WALNUT CREEK,CA,,US,,,,United States Postal Service,Q668687
9459600112,usps_collection_boxes,USPS COLLECTION BOX - BLUE BOX,1111 CIVIC DR,WALNUT CREEK,CA,,US,,,,United States Postal Service,Q668687
9459600067,usps_collection_boxes,USPS COLLECTION BOX - BLUE BOX,2355 SAN JUAN AVE,WALNUT CREEK,CA,,US,,,,United States Postal Service,Q668687
9459600120,usps_collection_boxes,USPS COLLECTION BOX - BLUE BOX,1981 N BROADWAY,WALNUT CREEK,CA,,US,,,,United States Postal Service,Q668687
9459600117,usps_collection_boxes,USPS COLLECTION BOX - BLUE BOX,1600 RIVIERA AVE,WALNUT CREEK,CA,,US,,,,United States Postal Service,Q668687
9459600010,usps_collection_boxes,USPS COLLECTION BOX - BLUE BOX,1910 N BROADWAY,WALNUT CREEK,CA,,US,,,,United States Postal Service,Q668687
9459600025,usps_collection_boxes,USPS COLLECTION BOX - BLUE BOX,1330 CIVIC DR,WALNUT CREEK,CA,,US,,,,United States Postal Service,Q668687
9459600031,usps_collection_boxes,USPS COLLECTION BOX - BLUE BOX,2210 HILLSIDE CT,WALNUT CREEK,CA,,US,,,,United States Postal Service,Q668687
9459600079,usps_collection_boxes,USPS COLLECTION BOX - BLUE BOX,100 YGNACIO VALLEY RD,WALNUT CREEK,CA,,US,,,,United States Postal Service,Q668687
9459600018,usps_collection_boxes,USPS COLLECTION BOX - BLUE BOX,1777 N CALIFORNIA BLVD,WALNUT CREEK,CA,,US,,,,United States Postal Service,Q668687
9459600095,usps_collection_boxes,USPS COLLECTION BOX - BLUE BOX,1655 N MAIN ST,WALNUT CREEK,CA,,US,,,,United States Postal Service,Q668687
9459600092,usps_collection_boxes,USPS COLLECTION BOX - BLUE BOX,1475 N BROADWAY,WALNUT CREEK,CA,,US,,,,United States Postal Service,Q668687
9459600048,usps_collection_boxes,USPS COLLECTION BOX - BLUE BOX,1300 MT DIABLO BLVD,WALNUT CREEK,CA,,US,,,,United States Postal Service,Q668687
9459600034,usps_collection_boxes,USPS COLLECTION BOX - BLUE BOX,1402 N MAIN ST,WALNUT CREEK,CA,,US,,,,United States Postal Service,Q668687
9459600099,usps_collection_boxes,USPS COLLECTION BOX - BLUE BOX,1801 OAKLAND BLVD,WALNUT CREEK,CA,,US,,,,United States Postal Service,Q668687
9459600003,usps_collection_boxes,USPS COLLECTION BOX - BLUE BOX,1507 LOCUST ST,WALNUT CREEK,CA,,US,,,,United States Postal Service,Q668687
9459600009,usps_collection_boxes,USPS COLLECTION BOX - BLUE BOX,1700 N BROADWAY,WALNUT CREEK,CA,,US,,,,United States Postal Service,Q668687
9459600113,usps_collection_boxes,USPS COLLECTION BOX - BLUE BOX,45 QUAIL CT,WALNUT CREEK,CA,,US,,,,United States Postal Service,Q668687
9459600156,usps_collection_boxes,USPS COLLECTION BOX - BLUE BOX,2070 N BROADWAY,WALNUT CREEK,CA,,US,,,,United States Postal Service,Q668687
9459600091,usps_collection_boxes,USPS COLLECTION BOX - BLUE BOX,710 S BROADWAY,WALNUT CREEK,CA,,US,,,,United States Postal Service,Q668687
9459600068,usps_collection_boxes,USPS COLLECTION BOX - BLUE BOX,1810 SAN MIGUEL DR,WALNUT CREEK,CA,,US,,,,United States Postal Service,Q668687
9459600013,usps_collection_boxes,USPS COLLECTION BOX - BLUE BOX,1200 BROADWAY PLZ,WALNUT CREEK,CA,,US,,,,United States Postal Service,Q668687
9459600004,usps_collection_boxes,USPS COLLECTION BOX - BLUE BOX,1770 BONANZA ST,WALNUT CREEK,CA,,US,,,,United States Postal Service,Q668687
9459600087,usps_collection_boxes,USPS COLLECTION BOX - BLUE BOX,1322 LOCUST ST,WALNUT CREEK,CA,,US,,,,United States Postal Service,Q668687
9459600096,usps_collection_boxes,USPS COLLECTION BOX - BLUE BOX,800 S BROADWAY,WALNUT CREEK,CA,,US,,,,United States Postal Service,Q668687
9459600069,usps_collection_boxes,USPS COLLECTION BOX - BLUE BOX,1855 SAN MIGUEL DR,WALNUT CREEK,CA,,US,,,,United States Postal Service,Q668687
9459600056,usps_collection_boxes,USPS COLLECTION BOX - BLUE BOX,1415 OAKLAND BLVD,WALNUT CREEK,CA,,US,,,,United States Postal Service,Q668687
9459600052,usps_collection_boxes,USPS COLLECTION BOX - BLUE BOX,1395 NEWELL AVE,WALNUT CREEK,CA,,US,,,,United States Postal Service,Q668687
9459600108,usps_collection_boxes,USPS COLLECTION BOX - BLUE BOX,1900 OLYMPIC BLVD,WALNUT CREEK,CA,,US,,,,United States Postal Service,Q668687
9459600050,usps_collection_boxes,USPS COLLECTION BOX - BLUE BOX,2067 MT DIABLO BLVD,WALNUT CREEK,CA,,US,,,,United States Postal Service,Q668687
9459600061,usps_collection_boxes,USPS COLLECTION BOX - BLUE BOX,1526 PALOS VERDES MALL,WALNUT CREEK,CA,,US,,,,United States Postal Service,Q668687
9459600180,usps_collection_boxes,USPS COLLECTION BOX - BLUE BOX,1600 S MAIN ST,WALNUT CREEK,CA,,US,,,,United States Postal Service,Q668687
9459600093,usps_collection_boxes,USPS COLLECTION BOX - BLUE BOX,2900 CAMINO DIABLO,WALNUT CREEK,CA,,US,,,,United States Postal Service,Q668687
9459600022,usps_collection_boxes,USPS COLLECTION BOX - BLUE BOX,2092 CAMEL LN,WALNUT CREEK,CA,,US,,,,United States Postal Service,Q668687
9459600060,usps_collection_boxes,USPS COLLECTION BOX - BLUE BOX,1171 RUDGEAR RD,WALNUT CREEK,CA,,US,,,,United States Postal Service,Q668687
USA529,vans,Vans Store - Olympic Blvd.,,Walnut Creek,CA,,US,+1 925-932-7700,https://www.vans.com/en-us/stores/ca/walnut-creek/usa529,Mo-Sa 10:00-19:00; Su 11:00-18:00,Vans,Q1135366
,visa,,,WALNUT CREEK,CA,,US,,,,,
,visa,,,WALNUT CREEK,CA,,US,,,,,
,visa,,,WALNUT CREEK,CA,,US,,,,,
,visa,,,WALNUT CREEK,CA,,US,,,,,
,visa,,,WALNUT CREEK,CA,,US,,,,,
,visa,,,WALNUT CREEK,CA,,US,,,,,
,visa,,,WALNUT CREEK,CA,,US,,,,,
,visa,,,WALNUT CREEK,CA,,US,,,,,
,visa,,,WALNUT CREEK,CA,,US,,,,,
,visa,,,WALNUT CREEK,CA,,US,,,,,
,visa,,,WALNUT CREEK,CA,,US,,,,,
,visa,,,WALNUT CREEK,CA,,US,,,,,
,visa,,,WALNUT CREEK,CA,,US,,,,,
,visa,,,WALNUT CREEK,CA,,US,,,,,
,visa,,,WALNUT CREEK,CA,,US,,,,,
,visa,,,WALNUT CREEK,CA,,US,,,,,
,visa,,,WALNUT CREEK,CA,,US,,,,,
,visa,,,WALNUT CREEK,CA,,US,,,,,
,visa,,,WALNUT CREEK,CA,,US,,,,,
,visa,,,WALNUT CREEK,CA,,US,,,,,
,visa,,,WALNUT CREEK,CA,,US,,,,,
,visa,,,WALNUT CREEK,CA,,US,,,,,
,visa,,,WALNUT CREEK,CA,,US,,,,,
,visa,,,WALNUT CREEK,CA,,US,,,,,
,visa,,,WALNUT CREEK,CA,,US,,,,,
,visa,,,WALNUT CREEK,CA,,US,,,,,
,visa,,,WALNUT CREEK,CA,,US,,,,,
,visa,,,WALNUT CREEK,CA,,US,,,,,
,visa,,,WALNUT CREEK,CA,,US,,,,,
,visa,,,WALNUT CREEK,CA,,US,,,,,
,visa,,,WALNUT CREEK,CA,,US,,,,,
,visa,,,WALNUT CREEK,CA,,US,,,,,
,visa,,,WALNUT CREEK,CA,,US,,,,,
,visa,,,WALNUT CREEK,CA,,US,,,,,
,visa,,,WALNUT CREEK,CA,,US,,,,,
,visa,,,WALNUT CREEK,CA,,US,,,,,
,visa,,,WALNUT CREEK,CA,,US,,,,,
,visa,,,WALNUT CREEK,CA,,US,,,,,
,visa,,,WALNUT CREEK,CA,,US,,,,,
,visa,,,WALNUT CREEK,CA,,US,,,,,
,visa,,,WALNUT CREEK,CA,,US,,,,,
,visa,,,WALNUT CREEK,CA,,US,,,,,
,visa,,,WALNUT CREEK,CA,,US,,,,,
,visa,,,WALNUT CREEK,CA,,US,,,,,
,visa,,,WALNUT CREEK,CA,,US,,,,,
,visa,,,WALNUT CREEK,CA,,US,,,,,
1499__N__MAIN__ST_WALNUT__CREEK_CA_94596,wellsfargo,Wells Fargo,1499 N MAIN ST,WALNUT CREEK,CA,,US,+1 925-671-1575,https://www.wellsfargo.com/locator/bank/1499__N__MAIN__ST_WALNUT__CREEK_CA_94596/,Mo-Fr 09:00-17:00,Wells Fargo,Q744149
117366,wheel_works_us,Wheel Works,,Walnut Creek,CA,,US,+1 925-289-7762,https://www.wheelworks.net/california/walnut-creek/1205-parkside-dr/,Mo-Sa 07:00-18:00; Su 09:00-17:00,Wheel Works,Q121088283
2669,whitehouseblackmarket,Broadway Plaza,78 Broadway Ln,Walnut Creek,CA,,US,+1 925-947-2615,,Mo-Sa 10:00-20:00; Su 11:00-18:00,White House Black Market,Q7994858
walnutcreek,whole_foods,Walnut Creek,1333 Newell Ave,Walnut Creek,CA,,US,+1 925-274-9700,https://www.wholefoodsmarket.com/stores/walnutcreek,Mo-Su 08:00-21:00,Whole Foods,Q1809448
