Ref,Spider,Name,Address,City,State,Zipcode,Country,Phone,Website,Hours,Brand,WikiData
2043205,chase_us,Tice Valley Blvd - New branch,,Walnut Creek,CA,,US,+1 925-932-2052,https://locator.chase.com/ca/walnut-creek/1994-tice-valley-blvd,Mo-Fr 09:00-17:00; Sa 09:00-14:00,Chase,Q524629
48666,citi,ATM CVS,,Walnut Creek,CA,,US,,,,Citibank,Q857063
71220,citi,ATM POPPY BANK,,Walnut Creek,CA,,US,,,,Citibank,Q857063
25287,citi,ATM 7ELEVEN-FCTI,,Walnut Creek,CA,,US,,,,Citibank,Q857063
9324,cvs_us,CVS Pharmacy,,Walnut Creek,CA,,US,+1 925-947-6050,https://www.cvs.com/store-locator/walnut-creek-ca-pharmacies/1960-tice-valley-blvd-walnut-creek-ca-94595/storeid=9324,Mo-Fr 07:00-22:00; Sa-Su 08:00-22:00,CVS Pharmacy,Q2078880
https://www.edwardjones.com/us-en/financial-advisor/karl-arias,edwardjones,Karl J Arias,,Walnut Creek,CA,,US,+1 925-938-3411,https://www.edwardjones.com/us-en/financial-advisor/karl-arias,Mo-Fr 09:00-17:00,Edward Jones,Q5343830
210043,electrify_america,"Citivest Rossmoor SC (Walnut Creek, CA)",,Walnut Creek,CA,,US,,,,Electrify America,Q59773555
3499,h_r_block,H&R Block,,Walnut Creek,CA,,US,+1 925-932-5863,https://www.hrblock.com/local-tax-offices/california/walnut-creek/1280-blvd-way/3499/,,H&R Block,Q5627799
https://healthy.kaiserpermanente.org/northern-california/facilities/walnut-creek-skilled-nursing-rehabilitation-center-328625,kaiser_permanente_us,Walnut Creek Skilled Nursing & Rehabilitation Center,,Walnut Creek,CA,,US,+1 925-937-7450,https://healthy.kaiserpermanente.org/northern-california/facilities/walnut-creek-skilled-nursing-rehabilitation-center-328625,,Kaiser Permanente,Q1721601
https://healthy.kaiserpermanente.org/northern-california/facilities/national-walnut-creek-339599,kaiser_permanente_us,National Walnut Creek,,Walnut Creek,CA,,US,+1 669-275-5275,https://healthy.kaiserpermanente.org/northern-california/facilities/national-walnut-creek-339599,,Kaiser Permanente,Q1721601
https://healthy.kaiserpermanente.org/northern-california/facilities/national-psychiatric-care-and-rehabilitation-services-133409,kaiser_permanente_us,National Psychiatric Care And Rehabilitation Services,,Walnut Creek,CA,,US,+1 408-568-9834,https://healthy.kaiserpermanente.org/northern-california/facilities/national-psychiatric-care-and-rehabilitation-services-133409,,Kaiser Permanente,Q1721601
https://healthy.kaiserpermanente.org/northern-california/facilities/manor-care-of-walnut-creek-133993,kaiser_permanente_us,Manor Care of Walnut Creek,,Walnut Creek,CA,,US,+1 925-975-5000,https://healthy.kaiserpermanente.org/northern-california/facilities/manor-care-of-walnut-creek-133993,,Kaiser Permanente,Q1721601
https://healthy.kaiserpermanente.org/northern-california/facilities/manor-care-health-services-tice-valley-328633,kaiser_permanente_us,Manor Care Health Services - Tice Valley,,Walnut Creek,CA,,US,+1 925-906-0200,https://healthy.kaiserpermanente.org/northern-california/facilities/manor-care-health-services-tice-valley-328633,,Kaiser Permanente,Q1721601
https://healthy.kaiserpermanente.org/northern-california/facilities/davita-walnut-creek-west-dialysis-339967,kaiser_permanente_us,DaVita Walnut Creek West Dialysis,,Walnut Creek,CA,,US,+1 866-544-6741,https://healthy.kaiserpermanente.org/northern-california/facilities/davita-walnut-creek-west-dialysis-339967,,Kaiser Permanente,Q1721601
137033,little_free_library,Katie Howard #137033 Walnut Creek CA,,Walnut Creek,CA,,US,,,,Little Free Library,Q6650101
136161,little_free_library,Nose Boop Urban Farms #136161 Walnut Creek CA,,Walnut Creek,CA,,US,,,,Little Free Library,Q6650101
58979,little_free_library,Deborah Wiley #58979 Walnut Creek CA,,Walnut Creek,CA,,US,,,,Little Free Library,Q6650101
https://www.promedicaskillednursing.org/locations/promedica-skilled-nursing-and-rehabilitation-tice-valley/,promedica_us,ProMedica Skilled Nursing and Rehabilitation (Tice Valley),,Walnut Creek,CA,,US,+1 925-906-0200,https://www.promedicaskillednursing.org/locations/promedica-skilled-nursing-and-rehabilitation-tice-valley/,,ProMedica,Q7246673
https://www.promedicaskillednursing.org/locations/promedica-skilled-nursing-and-rehabilitation-rossmoor/,promedica_us,ProMedica Skilled Nursing and Rehabilitation (Rossmoor),,Walnut Creek,CA,,US,+1 925-975-5000,https://www.promedicaskillednursing.org/locations/promedica-skilled-nursing-and-rehabilitation-rossmoor/,,ProMedica,Q7246673
https://local.safeway.com/#5604714,safeway,Safeway,,Walnut Creek,CA,,US,+1 925-939-7213,https://local.safeway.com/safeway/ca/walnut-creek/1972-tice-valley-blvd.html,Mo-Su 05:00-24:00,Safeway,Q1508234
1236,savers,Walnut Creek,,Walnut Creek,CA,,US,+1 925-278-6640,https://stores.savers.com/ca/walnutcreek/savers-thrift-store-1236.html,Mo-Su 10:00-20:00,Savers,Q7428188
1334,shellrecharge,GoldenRain_WalnutCreek02_S,,Walnut Creek,CA,,US,,,,Shell Recharge,Q105883058
1379941,usps,ROSSMOOR,,WALNUT CREEK,CA,,US,+1 925-947-0195,,Mo-Fr 09:00-17:00,United States Postal Service,Q668687
9459500001,usps_collection_boxes,USPS COLLECTION BOX - BLUE BOX,2363 BOULEVARD CIR,WALNUT CREEK,CA,,US,,,,United States Postal Service,Q668687
9459500030,usps_collection_boxes,USPS COLLECTION BOX - BLUE BOX,1280 BOULEVARD WAY,WALNUT CREEK,CA,,US,,,,United States Postal Service,Q668687
9459500027,usps_collection_boxes,USPS COLLECTION BOX - BLUE BOX,1651 TICE VALLEY BLVD,WALNUT CREEK,CA,,US,,,,United States Postal Service,Q668687
9459500015,usps_collection_boxes,USPS COLLECTION BOX - BLUE BOX,1896 TICE VALLEY BLVD,WALNUT CREEK,CA,,US,,,,United States Postal Service,Q668687
9459500028,usps_collection_boxes,USPS COLLECTION BOX - BLUE BOX,1924 TICE VALLEY BLVD,WALNUT CREEK,CA,,US,,,,United States Postal Service,Q668687
9459500035,usps_collection_boxes,USPS COLLECTION BOX - PO LOBBY,1922 TICE VALLEY BLVD,WALNUT CREEK,CA,,US,,,,United States Postal Service,Q668687
9459500010,usps_collection_boxes,USPS COLLECTION BOX - BLUE BOX,2801 GOLDEN RAIN RD,WALNUT CREEK,CA,,US,,,,United States Postal Service,Q668687
9459500009,usps_collection_boxes,USPS COLLECTION BOX - BLUE BOX,2301 GOLDEN RAIN RD,WALNUT CREEK,CA,,US,,,,United States Postal Service,Q668687
9459500012,usps_collection_boxes,USPS COLLECTION BOX - BLUE BOX,2601 PINE KNOLL DR,WALNUT CREEK,CA,,US,,,,United States Postal Service,Q668687
9459500011,usps_collection_boxes,USPS COLLECTION BOX - BLUE BOX,2301 PINE KNOLL DR,WALNUT CREEK,CA,,US,,,,United States Postal Service,Q668687
9459500007,usps_collection_boxes,USPS COLLECTION BOX - BLUE BOX,1400 GOLDEN RAIN RD,WALNUT CREEK,CA,,US,,,,United States Postal Service,Q668687
9459500029,usps_collection_boxes,USPS COLLECTION BOX - BLUE BOX,1109 GOLDEN RAIN RD,WALNUT CREEK,CA,,US,,,,United States Postal Service,Q668687
9459500008,usps_collection_boxes,USPS COLLECTION BOX - BLUE BOX,1001 GOLDEN RAIN RD,WALNUT CREEK,CA,,US,,,,United States Postal Service,Q668687
9459500005,usps_collection_boxes,USPS COLLECTION BOX - BLUE BOX,1001 GOLDEN RAIN RD,WALNUT CREEK,CA,,US,,,,United States Postal Service,Q668687
9459500014,usps_collection_boxes,USPS COLLECTION BOX - BLUE BOX,1573 ROCKLEDGE LN,WALNUT CREEK,CA,,US,,,,United States Postal Service,Q668687
9459500025,usps_collection_boxes,USPS COLLECTION BOX - BLUE BOX,2500 TICE CREEK DR,WALNUT CREEK,CA,,US,,,,United States Postal Service,Q668687
9459500023,usps_collection_boxes,USPS COLLECTION BOX - BLUE BOX,1106 STANLEY DOLLAR DR,WALNUT CREEK,CA,,US,,,,United States Postal Service,Q668687
9459500022,usps_collection_boxes,USPS COLLECTION BOX - BLUE BOX,1101 SINGINGWOOD CT,WALNUT CREEK,CA,,US,,,,United States Postal Service,Q668687
9459500020,usps_collection_boxes,USPS COLLECTION BOX - BLUE BOX,3386 ROSSMOOR PKWY,WALNUT CREEK,CA,,US,,,,United States Postal Service,Q668687
9459500013,usps_collection_boxes,USPS COLLECTION BOX - BLUE BOX,2648 PTARMIGAN DR,WALNUT CREEK,CA,,US,,,,United States Postal Service,Q668687
9459500024,usps_collection_boxes,USPS COLLECTION BOX - BLUE BOX,4301 TERRA GRANADA DR,WALNUT CREEK,CA,,US,,,,United States Postal Service,Q668687
https://vcahospitals.com/cottage,vca,VCA Cottage Animal Hospital,,Walnut Creek,CA,,US,+1 925-935-9080,https://vcahospitals.com/cottage,Mo-Th 07:30-18:00; Fr 08:00-16:00,VCA,Q7906620
,visa,,,WALNUT CREEK,CA,,US,,,,,
,visa,,,WALNUT CREEK,CA,,US,,,,,
,visa,,,WALNUT CREEK,CA,,US,,,,,
,visa,,,WALNUT CREEK,CA,,US,,,,,
,visa,,,WALNUT CREEK,CA,,US,,,,,
,visa,,,WALNUT CREEK,CA,,US,,,,,
,visa,,,WALNUT CREEK,CA,,US,,,,,
,visa,,,WALNUT CREEK,CA,,US,,,,,
,visa,,,WALNUT CREEK,CA,,US,,,,,
1920__TICE__VALLEY__BLVD_WALNUT__CREEK_CA_94595,wellsfargo,Wells Fargo,1920 TICE VALLEY BLVD,WALNUT CREEK,CA,,US,+1 925-939-3300,https://www.wellsfargo.com/locator/bank/1920__TICE__VALLEY__BLVD_WALNUT__CREEK_CA_94595/,Mo-Fr 09:00-17:00,Wells Fargo,Q744149
