Ref,Spider,Name,Address,City,State,Zipcode,Country,Phone,Website,Hours,Brand,WikiData
US470037,adidas,"adidas Outlet Store, Edinburgh, Indiana Premium Outlets",,Edinburgh,IN,,US,+1 812-526-3755,https://www.adidas.co.uk/storefront/US470037-edinburgh-11825-ne-executive-drive-adidas-outlet-store-edinburgh-indiana-premium-outlets,,Adidas,Q3895
https://storelocations.ae.com/#17776922,american_eagle_outfitters,Aerie Outlet Indiana Premium Outlets,,Edinburgh,IN,,US,+1 812-703-7159,https://storelocations.ae.com/us/in/edinburgh/02526-3005-outlet-drive.html,Sa 10:00-20:00,Aerie Outlet,Q2842931
https://storelocations.ae.com/#1725874,american_eagle_outfitters,American Eagle Outlet Indiana Premium Outlets,,Edinburgh,IN,,US,+1 812-526-2134,https://storelocations.ae.com/us/in/edinburgh/02271-3005-outlet-drive.html,Mo-Th 10:00-19:00; Fr-Sa 10:00-20:00; Su 12:00-18:00,American Eagle Outlet,Q2842931
https://stores.anntaylor.com/factory/us/in/edinburgh/11771-ne-executive-dr.html,anntaylor,Ann Taylor Factory Store,,Edinburgh,IN,,US,+1 812-526-6733,https://stores.anntaylor.com/factory/us/in/edinburgh/11771-ne-executive-dr.html,Mo-Th 10:00-19:00; Fr-Sa 10:00-20:00; Su 12:00-18:00,Ann Taylor,Q4766699
https://restaurants.applebees.com/en-us/in/edinburgh/11860-n-us-31-78027,applebees,Connect with this Applebee's,,Edinburgh,IN,,US,+1 812-526-2376,https://restaurants.applebees.com/en-us/in/edinburgh/11860-n-us-31-78027,Mo-Su 11:00-24:00,Applebees,Q621532
https://locations.arbys.com/in/edinburgh/11999-n-us-31.html,arbys_us,"Arby's Fast-Food Drive Through Near You in Edinburgh, IN",,Edinburgh,IN,,US,+1 812-526-6880,https://locations.arbys.com/in/edinburgh/11999-n-us-31.html,Mo-Su 10:00-22:00,Arby's,Q630866
https://locations.auntieannes.com/#5675,auntie_annes,Auntie Anne's Indiana Premium Outlets,,Edinburgh,IN,,US,+1 812-526-2444,https://locations.auntieannes.com/in/edinburgh/11622-ne-executive-drive,Mo-Th 10:00-19:00; Fr-Sa 10:00-20:00; Su 12:00-18:00,Auntie Anne's,Q4822010
BBW02495,bathandbodyworks_us,INDIANA PREMIUM OUTLETS,,EDINBURGH,IN,,US,+1 812-703-4075,,Mo-Th 10:00-19:00; Fr-Sa 10:00-20:00; Su 12:00-18:00,Bath & Body Works,Q810773
180530,bluerhino,Gillman Home Center #3356,,Edinburgh,IN,,US,+1 812-526-2568,,,Blue Rhino,Q65681213
81372,bluerhino,Jay C #079,,Edinburgh,IN,,US,+1 812-526-6897,,,Blue Rhino,Q65681213
203245,bluerhino,CASEY'S GENERAL STORE #2582,,EDINBURGH,IN,,US,+1 812-526-2464,,,Blue Rhino,Q65681213
239673,bluerhino,Circle K #4700066,,Edinburgh,IN,,US,+1 812-526-6623,,,Blue Rhino,Q65681213
188476,bluerhino,GetGo #7520,,Edinburgh,IN,,US,+1 812-703-2290,,,Blue Rhino,Q65681213
140516,bluerhino,Charm Petroleum Inc dba Bonkerz,,Edinburgh,IN,,US,+1 317-514-4832,,,Blue Rhino,Q65681213
09095040173404612400100000000000,bp,BP,,Edinburgh,IN,,US,+1 812-526-0314,,24/7,BP,Q152057
64,calvin_klein_ca_us,Calvin Klein,,Edinburgh,IN,,US,+1 812-526-2770,https://www.calvinklein.us/en,,Calvin Klein,Q1068628
//locations.carters.com/in/edinburgh/carters-edinburgh-in,carters_us,Carter's Edinburgh Carters,,Edinburgh,IN,,US,+1 812-526-8418,https://locations.carters.com/in/edinburgh/carters-edinburgh-in,Mo-Fr 10:00-19:00; Sa 10:00-20:00; Su 12:00-18:00,Carter's,Q5047083
61057,citi,ATM Kroger,,Edinburgh,IN,,US,,,,Citibank,Q857063
48173,citi,ATM CVS,,Edinburgh,IN,,US,,,,Citibank,Q857063
57850,citi,ATM Getgo,,Edinburgh,IN,,US,,,,Citibank,Q857063
41369,citi,ATM Circle K,,Edinburgh,IN,,US,,,,Citibank,Q857063
59707,citi,ATM HORIZON BANK,,Edinburgh,IN,,US,,,,Citibank,Q857063
59706,citi,ATM HORIZON BANK,,Edinburgh,IN,,US,,,,Citibank,Q857063
59708,citi,ATM HORIZON BANK,,Edinburgh,IN,,US,,,,Citibank,Q857063
edinburgh/6361,claires,Shop Ear Piercings & Jewelry at Edinburgh Premium Outlets,,EDINBURGH,IN,,US,+1 812-526-7824,https://stores.claires.com/us/in/edinburgh/6361.html,Mo-Tu 10:00-19:00; We-Sa 10:00-21:00; Su 10:00-19:00,Claire's,Q2974996
https://www.coach.com/stores/#17277473,coach_us,COACH Outlet,,Edinburgh,IN,,US,+1 317-676-1474,https://www.coach.com/stores/outlets/in/edinburgh/11811-n-executive-dr,Mo-Th 10:00-19:00; Fr-Sa 10:00-20:00; Su 12:00-18:00,Coach,Q727697
,credit_union_us,Centra CU,,Edinburg,IN,,US,+1 812-376-9979,,Mo-Th 08:30-05:00; Fr 08:30-06:00; Sa 08:30-12:00,,
206575,crocs_eu,Crocs at Indiana Premium Outlet,,Edinburgh,IN,,US,+1 812-526-5933,,,Crocs,Q926699
vba_326a,department_veterans_affairs,VA Regional Benefit Satellite Office at Wakeman VA Clinic,,Edinburgh,IN,,US,+1 812-526-1499 ext. 62112,https://www.benefits.va.gov/indianapolis/,,Department Veterans Affairs,Q592576
2539,dominos_pizza_us,Domino's Pizza,,Edinburgh,IN,,US,+1 812-526-4000,https://pizza.dominos.com/indiana/edinburgh/8843-us-hwy-31,Mo-Th 10:00-24:00; Fr-Sa 10:00-01:00; Su 10:00-24:00,Domino's,Q839466
11622-ne-executive-drive,express,Indiana Premium Outlets,,Edinburgh,IN,,US,+1 812-703-1001,https://stores.expressfactoryoutlet.com/us/in/edinburgh/11622-ne-executive-drive,Mo-Th 10:00-19:00; Fr-Sa 10:00-20:00; Su 12:00-18:00,Express Factory Outlet,Q1384784
2176,extra_space_storage,Edinburgh Self Storage at 14971 N US Highway 31,,Edinburgh,IN,,US,,https://www.extraspace.com/storage-express/storage/facilities/us/indiana/edinburgh/2176/,Mo-Su 06:00-22:00,Extra Space Storage,Q5422162
2175,extra_space_storage,Edinburgh Self Storage at 305 W County Line Rd,,Edinburgh,IN,,US,,https://www.extraspace.com/storage-express/storage/facilities/us/indiana/edinburgh/2175/,Mo-Su 06:00-22:00,Extra Space Storage,Q5422162
2100,extra_space_storage,Edinburgh Self Storage at 11770 N Hartman Dr,,Edinburgh,IN,,US,,https://www.extraspace.com/storage-express/storage/facilities/us/indiana/edinburgh/2100/,Mo-Su 06:00-22:00,Extra Space Storage,Q5422162
https://local.fedex.com/#25902462,fedex,,,Edinburgh,IN,,US,+1 800-463-3339,https://local.fedex.com/en-us/in/edinburgh/clubk,,FedEx,Q459477
https://stores.finishline.com/in/edinburgh/edinburgh-premium-outlets.html,finishline,Finish Line,,Edinburgh,IN,,US,+1 812-703-4009,https://stores.finishline.com/in/edinburgh/edinburgh-premium-outlets.html,Mo-Sa 11:00-19:00; Su 12:00-18:00,Finish Line,Q5450341
https://locations.fivebelow.com/in/edinburgh/11691-n-executive-drive,five_below,Five Below Indiana Premium Outlets,,Edinburgh,IN,,US,,https://locations.fivebelow.com/in/edinburgh/11691-n-executive-drive,Mo-Sa 10:00-20:00; Su 11:00-18:00,Five Below,Q5455836
7520,gianteagle,Edinburgh GetGo,,Edinburgh,IN,,US,+1 812-703-2290,,24/7,Giant Eagle,Q1522721
1501091,hardees_us,Hardee's,,EDINBURGH,IN,,US,+1 812-526-5293,https://locations.hardees.com/in/edinburgh/12000-n-hartman-dr,,Hardee's,Q1585088
14900,h_r_block,H&R Block,,Edinburgh,IN,,US,+1 812-526-6907,https://www.hrblock.com/local-tax-offices/indiana/edinburgh/15430-us-31-n/14900/,,H&R Block,Q5627799
https://stores.factory.jcrew.com/#832741,j_crew_us,J.Crew Factory,,Edinburgh,IN,,US,+1 812-526-9504,https://stores.factory.jcrew.com/us/in/edinburgh/11905-n-executive-dr,Mo-Th 10:00-19:00; Fr-Sa 10:00-20:00; Su 12:00-18:00,J. Crew,Q5370765
https://www.katespade.com/stores/#18467890,kate_spade_ca_us,Kate Spade Outlet Indiana Premium Outlets,,Edinburgh,IN,,US,+1 812-203-5560,https://www.katespade.com/stores/us/in/edinburgh/3205-outlet-dr,Mo-Th 10:00-19:00; Fr-Sa 10:00-20:00; Su 12:00-18:00,Kate Spade New York,Q6375797
https://stores.loft.com/outlet/us/in/edinburgh/11911-n-executive-drive.html,loft_us,Loft,,Edinburgh,IN,,US,+1 812-526-2274,https://stores.loft.com/outlet/us/in/edinburgh/11911-n-executive-drive.html,,Loft,Q62075137
157194,marathon_petroleum_us,EDINBURGH MARATHON,,EDINBURGH,IN,,US,+1 812-526-0368,,,Marathon,Q458363
https://locations.maurices.com/#11688232,maurices,maurices Edinburgh Premium Outlets,,Edinburgh,IN,,US,+1 812-526-4811,https://locations.maurices.com/us/in/edinburgh/11761-n-executive-drive,Mo-Th 10:00-19:00; Fr-Sa 10:00-20:00; Su 12:00-18:00,maurices,Q6793571
https://locations.michaelkors.com/us/in/edinburgh/11821-n-executive-dr.html,michaelkors,Michael Kors Outlet EDINBURGH,,Edinburgh,IN,,US,+1 812-526-9800,https://locations.michaelkors.com/us/in/edinburgh/11821-n-executive-dr.html,Mo-Th 10:00-19:00; Fr-Sa 10:00-20:00; Su 12:00-18:00,Michael Kors,Q19572998
https://locations.michaelkors.com/fr/us/in/edinburgh/11821-n-executive-dr.html,michaelkors,Michael Kors Outlet EDINBURGH,,Edinburgh,IN,,US,+1 812-526-9800,https://locations.michaelkors.com/fr/us/in/edinburgh/11821-n-executive-dr.html,Mo-Th 10:00-19:00; Fr-Sa 10:00-20:00; Su 12:00-18:00,Michael Kors,Q19572998
4657,mightyflame,THORNTONS #106,,EDINBURGH,IN,,US,+1 812-526-2084,,,Mighty Flame,
https://locations.oreillyauto.com/in/edinburgh/check-engine-light-testing-6601.html,oreilly,Your Edinburgh O'Reilly Auto Parts Store,,Edinburgh,IN,,US,+1 812-975-3990,https://locations.oreillyauto.com/in/edinburgh/check-engine-light-testing-6601.html,Mo-Sa 07:30-20:00; Su 09:00-19:00,O'Reilly Auto Parts,Q7071951
https://locations.oreillyauto.com/in/edinburgh/wiper-installation-6601.html,oreilly,Your Edinburgh O'Reilly Auto Parts Store,,Edinburgh,IN,,US,+1 812-975-3990,https://locations.oreillyauto.com/in/edinburgh/wiper-installation-6601.html,Mo-Sa 07:30-20:00; Su 09:00-19:00,O'Reilly Auto Parts,Q7071951
https://locations.oreillyauto.com/in/edinburgh/autopartes-6601.html,oreilly,O'Reilly Auto Parts,,Edinburgh,IN,,US,+1 812-975-3990,https://locations.oreillyauto.com/in/edinburgh/autopartes-6601.html,Mo-Sa 07:30-20:00; Su 09:00-19:00,O'Reilly Auto Parts,Q7071951
https://locations.oreillyauto.com/in/edinburgh/battery-testing-6601.html,oreilly,Your Edinburgh O'Reilly Auto Parts Store,,Edinburgh,IN,,US,+1 812-975-3990,https://locations.oreillyauto.com/in/edinburgh/battery-testing-6601.html,Mo-Sa 07:30-20:00; Su 09:00-19:00,O'Reilly Auto Parts,Q7071951
//locations.oshkosh.com/in/edinburgh/oshkosh-edinburgh-in,oshkosh_us,Oshkosh B'gosh Edinburgh OshKosh,,Edinburgh,IN,,US,+1 812-526-9505,https://locations.oshkosh.com/in/edinburgh/oshkosh-edinburgh-in,Mo-Fr 10:00-19:00; Sa 10:00-20:00; Su 12:00-18:00,OshKosh B'gosh,Q1417347
https://www.premiumoutlets.com/outlet/indiana/about,premium_outlets,Indiana Premium Outlets®,,Edinburgh,IN,,US,+1 812-526-9765,https://www.premiumoutlets.com/outlet/indiana,,Premium Outlets,
7670,ruby_tuesday_us,Ruby Tuesday,3715 WEST MARKET PLACE EDINBURGH IN 46124,Edinburgh,IN,,US,+1 812-526-5311,,Mo-Su 11:00-22:00,Ruby Tuesday,Q7376400
11774-ne-executive-drive,rue21,Edinburgh Premium Outlets,,Edinburgh,IN,,US,,https://stores.rue21.com/in/edinburgh/11774-ne-executive-drive.html,Mo-Th 10:00-19:00; Fr-Sa 10:00-20:00; Su 11:00-19:00,rue21,Q7377762
879,simonmalls,Indiana Premium Outlets®,,Edinburgh,IN,,US,+1 812-526-9764,https://www.simon.com/mall/indiana,Mo-Th 10:00-19:00; Fr-Sa 10:00-20:00; Su 12:00-18:00,Premium Outlets,Q2287759
https://restaurants.subway.com/#14910506,subway,Subway Camp Atterbury,,Edinburgh Johnson,IN,,US,+1 812-526-4162,https://restaurants.subway.com/united-states/in/edinburgh/gatling-street,Mo-Su 10:00-20:00,Subway,Q244457
https://restaurants.subway.com/#14893886,subway,Subway Market Place Industrial Park,,Edinburgh Johnson,IN,,US,+1 812-526-0202,https://restaurants.subway.com/united-states/in/edinburgh/12177-n-executive-drive,Mo-Su 09:00-22:00,Subway,Q244457
https://locations.tacobell.com/#6146863,taco_bell,Taco Bell,,Edinburgh,IN,,US,+1 812-526-5326,https://locations.tacobell.com/in/edinburgh/11740-n-us-31.html,Mo-Su 07:00-03:00,Taco Bell,Q752941
47,under_armour,Under Armour Factory House,,Edinburgh,IN,,US,+1 812-526-2078,https://store-locations.underarmour.com/in/edinburgh/47,,Under Armour,Q2031485
1362091,usps,EDINBURGH,,EDINBURGH,IN,,US,+1 812-526-5400,,"Mo-Fr 08:30-12:30,13:30-16:30; Sa 08:30-11:30",United States Postal Service,Q668687
4612400017,usps_collection_boxes,USPS COLLECTION BOX - BLUE BOX,11626 NE EXECUTIVE DR,EDINBURGH,IN,,US,,,,United States Postal Service,Q668687
4612400024,usps_collection_boxes,USPS COLLECTION BOX - PO LOBBY,102 S WALNUT ST,EDINBURGH,IN,,US,,,,United States Postal Service,Q668687
4612400026,usps_collection_boxes,USPS COLLECTION BOX - PO LOBBY,102 S WALNUT ST,EDINBURGH,IN,,US,,,,United States Postal Service,Q668687
4612400001,usps_collection_boxes,USPS COLLECTION BOX - BLUE BOX,102 S WALNUT ST,EDINBURGH,IN,,US,,,,United States Postal Service,Q668687
,visa,,,EDINBURGH,IN,,US,,,,,
,visa,,,EDINBURGH,IN,,US,,,,,
,visa,,,EDINBURGH,IN,,US,,,,,
,visa,,,EDINBURGH,IN,,US,,,,,
,visa,,,EDINBURGH,IN,,US,,,,,
,visa,,,EDINBURGH,IN,,US,,,,,
,visa,,,EDINBURGH,IN,,US,,,,,
,visa,,,EDINBURGH,IN,,US,,,,,
,visa,,,EDINBURGH,IN,,US,,,,,
,visa,,,EDINBURGH,IN,,US,,,,,
,visa,,,EDINBURGH,IN,,US,,,,,
,visa,,,EDINBURGH,IN,,US,,,,,
,visa,,,EDINBURGH,IN,,US,,,,,
,visa,,,EDINBURGH,IN,,US,,,,,
,visa,,,EDINBURGH,IN,,US,,,,,
,visa,,,EDINBURGH,IN,,US,,,,,
,visa,,,EDINBURGH,IN,,US,,,,,
,visa,,,EDINBURGH,IN,,US,,,,,
,visa,,,EDINBURGH,IN,,US,,,,,
,visa,,,EDINBURGH,IN,,US,,,,,
,visa,,,EDINBURGH,IN,,US,,,,,
,visa,,,EDINBURGH,IN,,US,,,,,
,visa,,,EDINBURGH,IN,,US,,,,,
,visa,,,EDINBURGH,IN,,US,,,,,
,visa,,,EDINBURGH,IN,,US,,,,,
,visa,,,EDINBURGH,IN,,US,,,,,
,visa,,,EDINBURGH,IN,,US,,,,,
,visa,,,EDINBURGH,IN,,US,,,,,
2744,whitehouseblackmarket,Indiana Premium Outlets,"11941 N Executive Drive, Suite A070",Edinburgh,IN,,US,+1 812-526-2309,,Mo-We 10:00-19:00; Th 10:00-18:00; Fr-Sa 10:00-19:00; Su 12:00-18:00,White House Black Market,Q7994858
