Ref,Spider,Name,Address,City,State,Zipcode,Country,Phone,Website,Hours,Brand,WikiData
5727,abc_pl,abc,,Piotrków Trybunalski,łódzkie,,PL,,,,abc,Q11683985
10298,abc_pl,abc,,Piotrków Trybunalski,łódzkie,,PL,,,,abc,Q11683985
4944,abc_pl,abc,,Piotrków Trybunalski,łódzkie,,PL,,,,abc,Q11683985
4943,abc_pl,abc,,Piotrków Trybunalski,łódzkie,,PL,,,,abc,Q11683985
4942,abc_pl,abc,,Piotrków Trybunalski,łódzkie,,PL,,,,abc,Q11683985
10293,abc_pl,abc,,Piotrków Trybunalski,łódzkie,,PL,,,,abc,Q11683985
5054,abc_pl,abc,,Piotrków Trybunalski,łódzkie,,PL,,,,abc,Q11683985
3104,abc_pl,abc,,Piotrków Trybunalski,łódzkie,,PL,,,,abc,Q11683985
5135,abc_pl,abc,,Piotrków Trybunalski,łódzkie,,PL,,,,abc,Q11683985
5307,abc_pl,abc,,Piotrków Trybunalski,łódzkie,,PL,,,,abc,Q11683985
4605,abc_pl,abc,,Piotrków Trybunalski,łódzkie,,PL,,,,abc,Q11683985
4604,abc_pl,abc,,Piotrków Trybunalski,łódzkie,,PL,,,,abc,Q11683985
3846,abc_pl,abc,,Piotrków Trybunalski,łódzkie,,PL,,,,abc,Q11683985
10316,abc_pl,abc,,Piotrków Trybunalski,łódzkie,,PL,,,,abc,Q11683985
3406,abc_pl,abc,,Piotrków Trybunalski,łódzkie,,PL,,,,abc,Q11683985
1851,abc_pl,abc,,Piotrków Trybunalski,łódzkie,,PL,,,,abc,Q11683985
5939,abc_pl,abc,,Piotrków Trybunalski,łódzkie,,PL,,,,abc,Q11683985
PL001015,aldi_nord_pl,ALDI,,Piotrków Trybunalski,Łódzkie,,PL,+48 800 118 118,,Mo-Sa 07:00-22:00,ALDI,Q41171373
PL001016,aldi_nord_pl,ALDI,,Piotrków Trybunalski,Łódzkie,,PL,+48 800 118 118,,Mo-Sa 07:00-22:00,ALDI,Q41171373
211,bricomarche_pl,Bricomarché Piotrków Trybunalski,,Piotrków Trybunalski,łódzkie,,PL,+48 697 373 728,https://www.bricomarche.pl/sklep/bricomarche-piotrkow-trybunalski,,Bricomarché,Q2925147
https://www.credit-agricole.pl/kontakt/oddzial/2064-piotrkow-trybunalski-slowackiego,credit_agricole_pl,"Credit Agricole Słowackiego 87/89, Piotrków Trybunalski",,Piotrków Trybunalski,łódzkie,,PL,19 019,https://www.credit-agricole.pl/kontakt/oddzial/2064-piotrkow-trybunalski-slowackiego,Mo-Fr 09:00-17:00,Credit Agricole,Q590952
102,dr_max,"Apteka Dr.Max, Wojska Polskiego 121, Piotrków Trybunalski",,Piotrków Trybunalski,Łódzkie,,PL,+48 44 649 70 38,https://www.drmax.pl/apteki/piotrkow-trybunalski-wojska-polskiego-121,,Dr. Max,Q56317371
11888,groszek_pl,Groszek,,Piotrków Trybunalski,łódzkie,,PL,,,,Groszek,Q9280965
PL0061,hm,Focus Park,,Piotrków Trybunalski,Łódzkie,,PL,+48 44 715 92 40,,Mo-Sa 09:00-21:00,H&M,Q188326
11956,itaka_pl,ITAKA PIOTRKÓW TRYBUNALSKI,,Piotrków Trybunalski,łódzkie,,PL,,https://www.itaka.pl/biura/lodzkie/piotrkow-trybunalski/kosciuszki/11956/,Mo-Fr 10:00-18:00; Sa 10:00-15:00,Itaka,Q16560452
256,mcdonalds_pl,McDonald's,,Piotrków Trybunalski,Łódzkie,,PL,+48 694 495 964,https://mcdonalds.pl/restauracje/lodzkie/piotrkow-trybunalski/piotrkow-trybunalski-ul-slowackiego-80,Mo-Su 06:00-24:00,McDonald's,Q38076
700,mcdonalds_pl,McDonald's,,Piotrków Trybunalski,Łódzkie,,PL,+48 668 085 002,https://mcdonalds.pl/restauracje/lodzkie/piotrkow-trybunalski/piotrkow-trybunalski-ul-sulejowska-49,Mo-Su 06:00-24:00,McDonald's,Q38076
POP-PTR11,paczkomat_inpost_pl,LOOMBARD - WOJSKA POLSKIEGO,,Piotrków Trybunalski,łódzkie,,PL,,https://inpost.pl/paczkomat-piotrkow-trybunalski-pop-ptr11-wojska-polskiego-paczkomaty-lodzkie,Mo-Sa 09:00-22:00,Paczkomat,Q110970254
POP-PTR12,paczkomat_inpost_pl,ALKOHOLE,,Piotrków Trybunalski,łódzkie,,PL,,https://inpost.pl/paczkomat-piotrkow-trybunalski-pop-ptr12-wojska-polskiego-paczkomaty-lodzkie,Mo-Su 06:00-23:00,Paczkomat,Q110970254
POP-PTR14,paczkomat_inpost_pl,STACJA CIRCLE K,,Piotrków Trybunalski ,łódzkie,,PL,,https://inpost.pl/paczkomat-piotrkow-trybunalski-pop-ptr14-armii-krajowej-paczkomaty-lodzkie,Mo-Fr 10:00-18:00,Paczkomat,Q110970254
POP-PTR15,paczkomat_inpost_pl,EPAKA,,Piotrków Trybunalski,łódzkie,,PL,,https://inpost.pl/paczkomat-piotrkow-trybunalski-pop-ptr15-danilowskiego-paczkomaty-lodzkie,Mo-Fr 10:00-18:00,Paczkomat,Q110970254
POP-PTR17,paczkomat_inpost_pl,DUŻY BEN,,Piotrków Trybunalski,łódzkie,,PL,,https://inpost.pl/paczkomat-piotrkow-trybunalski-pop-ptr17-kostromska-paczkomaty-lodzkie,Mo-Sa 10:00-23:00,Paczkomat,Q110970254
POP-PTR18,paczkomat_inpost_pl,DUŻY BEN,,Piotrków Trybunalski ,łódzkie,,PL,,https://inpost.pl/paczkomat-piotrkow-trybunalski-pop-ptr18-sienkiewicza-paczkomaty-lodzkie,Mo-Sa 10:00-23:00,Paczkomat,Q110970254
POP-PTR19,paczkomat_inpost_pl,PUNKT KSERO,,Piotrków Trybunalski ,łódzkie,,PL,,https://inpost.pl/paczkomat-piotrkow-trybunalski-pop-ptr19-juliusza-slowackiego-paczkomaty-lodzkie,Mo-Fr 09:00-18:00,Paczkomat,Q110970254
POP-PTR5,paczkomat_inpost_pl,SKLEP MOTORYZACYJNY MOTEX,,Piotrków Trybunalski,łódzkie,,PL,,https://inpost.pl/paczkomat-piotrkow-trybunalski-pop-ptr5-dmowskiego-paczkomaty-lodzkie,Mo-Fr 08:00-18:00; Sa 08:00-14:00,Paczkomat,Q110970254
POP-PTR9,paczkomat_inpost_pl,LOOMBARD - SŁOWACKIEGO 49,,Piotrków Trybunalski,łódzkie,,PL,,https://inpost.pl/paczkomat-piotrkow-trybunalski-pop-ptr9-slowackiego-paczkomaty-lodzkie,Mo-Sa 08:00-21:00; Su 10:00-18:00,Paczkomat,Q110970254
PTR01A,paczkomat_inpost_pl,Przy markecie POLOmarket,,Piotrków Trybunalski,łódzkie,,PL,,https://inpost.pl/paczkomat-piotrkow-trybunalski-ptr01a-slowackiego-paczkomaty-lodzkie,24/7,Paczkomat,Q110970254
PTR01APP,paczkomat_inpost_pl,Na parkingu przy sklepie Społem,,Piotrków Trybunalski,łódzkie,,PL,,https://inpost.pl/paczkomat-piotrkow-trybunalski-ptr01app-lowiecka-paczkomaty-lodzkie,24/7,Paczkomat,Q110970254
PTR01HO,paczkomat_inpost_pl,Przy wejściu do Centrum Handlowego Echo,,Piotrków Trybunalski,łódzkie,,PL,,https://inpost.pl/paczkomat-piotrkow-trybunalski-ptr01ho-generala-wladyslawa-sikorskiego-paczkomaty-lodzkie,Mo-Sa 07:00-22:00,Paczkomat,Q110970254
PTR01M,paczkomat_inpost_pl,Przy Stacji Paliw Circle K.,,Piotrków Trybunalski,łódzkie,,PL,,https://inpost.pl/paczkomat-piotrkow-trybunalski-ptr01m-armii-krajowej-paczkomaty-lodzkie,24/7,Paczkomat,Q110970254
PTR02A,paczkomat_inpost_pl,Lokalizacja przy bocznej ścianie Kauflandu,,Piotrków Trybunalski,łódzkie,,PL,,https://inpost.pl/paczkomat-piotrkow-trybunalski-ptr02a-wojska-polskiego-paczkomaty-lodzkie,24/7,Paczkomat,Q110970254
PTR02APP,paczkomat_inpost_pl,Na parkingu przy stacji MOL,,Piotrków Trybunalski,łódzkie,,PL,,https://inpost.pl/paczkomat-piotrkow-trybunalski-ptr02app-plac-litewski-paczkomaty-lodzkie,24/7,Paczkomat,Q110970254
PTR02M,paczkomat_inpost_pl,Market Dino,,Piotrków Trybunalski,łódzkie,,PL,,https://inpost.pl/paczkomat-piotrkow-trybunalski-ptr02m-franklina-roosevelta-paczkomaty-lodzkie,24/7,Paczkomat,Q110970254
PTR02N,paczkomat_inpost_pl,Stacja paliw Intermarche,,Piotrków Trybunalski,łódzkie,,PL,,https://inpost.pl/paczkomat-piotrkow-trybunalski-ptr02n-al-sikorskiego-paczkomaty-lodzkie,24/7,Paczkomat,Q110970254
PTR03A,paczkomat_inpost_pl,Przy sklepie Społem,,Piotrków Trybunalski,łódzkie,,PL,,https://inpost.pl/paczkomat-piotrkow-trybunalski-ptr03a-sulejowska-paczkomaty-lodzkie,24/7,Paczkomat,Q110970254
PTR03M,paczkomat_inpost_pl,Przy markecie Aldi.,,Piotrków Trybunalski,łódzkie,,PL,,https://inpost.pl/paczkomat-piotrkow-trybunalski-ptr03m-wolborska-paczkomaty-lodzkie,24/7,Paczkomat,Q110970254
PTR04A,paczkomat_inpost_pl,Przy DH Merkury od ul. Słowackiego,,Piotrków Trybunalski,łódzkie,,PL,,https://inpost.pl/paczkomat-piotrkow-trybunalski-ptr04a-slowackiego-paczkomaty-lodzkie,24/7,Paczkomat,Q110970254
PTR04M,paczkomat_inpost_pl,Przy stacji Lotos.,,Piotrków Trybunalski,łódzkie,,PL,,https://inpost.pl/paczkomat-piotrkow-trybunalski-ptr04m-franklina-roosevelta-paczkomaty-lodzkie,24/7,Paczkomat,Q110970254
PTR05A,paczkomat_inpost_pl,Przy myjni samochodowej,,Piotrków Trybunalski,łódzkie,,PL,,https://inpost.pl/paczkomat-piotrkow-trybunalski-ptr05a-wschodnia-paczkomaty-lodzkie,24/7,Paczkomat,Q110970254
PTR05M,paczkomat_inpost_pl,Przy stacji paliw Shell,,Piotrków Trybunalski,łódzkie,,PL,,https://inpost.pl/paczkomat-piotrkow-trybunalski-ptr05m-gorna-paczkomaty-lodzkie,24/7,Paczkomat,Q110970254
PTR05N,paczkomat_inpost_pl,Przy sklepie AGD RTV,,Piotrków Trybunalski,łódzkie,,PL,,https://inpost.pl/paczkomat-piotrkow-trybunalski-ptr05n-wojska-polskiego-paczkomaty-lodzkie,24/7,Paczkomat,Q110970254
PTR06A,paczkomat_inpost_pl,Market Dino,,Piotrków Trybunalski,łódzkie,,PL,,https://inpost.pl/paczkomat-piotrkow-trybunalski-ptr06a-slaska-paczkomaty-lodzkie,24/7,Paczkomat,Q110970254
PTR06M,paczkomat_inpost_pl,Przy sklepie Polo Market,,Piotrków Trybunalski,łódzkie,,PL,,https://inpost.pl/paczkomat-piotrkow-trybunalski-ptr06m-belzacka-paczkomaty-lodzkie,24/7,Paczkomat,Q110970254
PTR07A,paczkomat_inpost_pl,Przy wejściu na posesję,,Piotrków Trybunalski,łódzkie,,PL,,https://inpost.pl/paczkomat-piotrkow-trybunalski-ptr07a-krakowskie-przedmiescie-paczkomaty-lodzkie,24/7,Paczkomat,Q110970254
PTR07M,paczkomat_inpost_pl,Przy sklepie Lidl,,Piotrków Trybunalski,łódzkie,,PL,,https://inpost.pl/paczkomat-piotrkow-trybunalski-ptr07m-kostromska-paczkomaty-lodzkie,24/7,Paczkomat,Q110970254
PTR07N,paczkomat_inpost_pl,Przy sklepie Fachowiec,,Piotrków Trybunalski,łódzkie,,PL,,https://inpost.pl/paczkomat-piotrkow-trybunalski-ptr07n-wojska-polskiego-paczkomaty-lodzkie,24/7,Paczkomat,Q110970254
PTR08M,paczkomat_inpost_pl,Przy sklepie Lidl,,Piotrków Trybunalski,łódzkie,,PL,,https://inpost.pl/paczkomat-piotrkow-trybunalski-ptr08m-sulejowska-paczkomaty-lodzkie,24/7,Paczkomat,Q110970254
PTR09M,paczkomat_inpost_pl,Przy wjeździe do biurowca Rudecki Deweloper,,Piotrków Trybunalski,łódzkie,,PL,,https://inpost.pl/paczkomat-piotrkow-trybunalski-ptr09m-zelazna-paczkomaty-lodzkie,24/7,Paczkomat,Q110970254
PTR09N,paczkomat_inpost_pl,Przy Pasażu Handlowym,,Piotrków Trybunalski,łódzkie,,PL,,https://inpost.pl/paczkomat-piotrkow-trybunalski-ptr09n-lodzka-paczkomaty-lodzkie,24/7,Paczkomat,Q110970254
PTR10M,paczkomat_inpost_pl,Za budynkiem na ul. Targowej 2,,Piotrków Trybunalski,łódzkie,,PL,,https://inpost.pl/paczkomat-piotrkow-trybunalski-ptr10m-targowa-paczkomaty-lodzkie,24/7,Paczkomat,Q110970254
PTR10N,paczkomat_inpost_pl,Przy sklepie Nowalijki,,Piotrków Trybunalski,łódzkie,,PL,,https://inpost.pl/paczkomat-piotrkow-trybunalski-ptr10n-wojska-polskiego-paczkomaty-lodzkie,24/7,Paczkomat,Q110970254
PTR11M,paczkomat_inpost_pl,Przy wjeździe na posesję,,Piotrków Trybunalski,łódzkie,,PL,,https://inpost.pl/paczkomat-piotrkow-trybunalski-ptr11m-polna-paczkomaty-lodzkie,24/7,Paczkomat,Q110970254
PTR11N,paczkomat_inpost_pl,Plac przy bloku mieszkalnym,,Piotrków Trybunalski,łódzkie,,PL,,https://inpost.pl/paczkomat-piotrkow-trybunalski-ptr11n-zamenhofa-paczkomaty-lodzkie,24/7,Paczkomat,Q110970254
PTR12M,paczkomat_inpost_pl,parking przy Żabce,,Piotrków Trybunalski,łódzkie,,PL,,https://inpost.pl/paczkomat-piotrkow-trybunalski-ptr12m-wojska-polskiego-paczkomaty-lodzkie,24/7,Paczkomat,Q110970254
PTR13M,paczkomat_inpost_pl,Na parkingu sklepu Społem,,Piotrków Trybunalski,łódzkie,,PL,,https://inpost.pl/paczkomat-piotrkow-trybunalski-ptr13m-lodzka-paczkomaty-lodzkie,24/7,Paczkomat,Q110970254
PTR14M,paczkomat_inpost_pl,Na parkingu za marketem Społem,,Piotrków Trybunalski,łódzkie,,PL,,https://inpost.pl/paczkomat-piotrkow-trybunalski-ptr14m-hutnicza-paczkomaty-lodzkie,24/7,Paczkomat,Q110970254
PTR15M,paczkomat_inpost_pl,Na parkingu marketu ALDI,,Piotrków Trybunalski,łódzkie,,PL,,https://inpost.pl/paczkomat-piotrkow-trybunalski-ptr15m-generala-wladyslawa-sikorskiego-paczkomaty-lodzkie,24/7,Paczkomat,Q110970254
PTR16M,paczkomat_inpost_pl,Mini Market,,Piotrków Trybunalski,łódzkie,,PL,,https://inpost.pl/paczkomat-piotrkow-trybunalski-ptr16m-wlokiennicza-paczkomaty-lodzkie,24/7,Paczkomat,Q110970254
PTR17M,paczkomat_inpost_pl,Market Dino,,Piotrków Trybunalski,łódzkie,,PL,,https://inpost.pl/paczkomat-piotrkow-trybunalski-ptr17m-wojska-polskiego-paczkomaty-lodzkie,24/7,Paczkomat,Q110970254
PTR18M,paczkomat_inpost_pl,Na parkingu przy sklepie spożywczym,,Piotrków Trybunalski,łódzkie,,PL,,https://inpost.pl/paczkomat-piotrkow-trybunalski-ptr18m-leonarda-paczkomaty-lodzkie,24/7,Paczkomat,Q110970254
PTR19M,paczkomat_inpost_pl,Przy bloku mieszkalnym ul. Juliusza Słowackiego 178,,Piotrków Trybunalski,łódzkie,,PL,,https://inpost.pl/paczkomat-piotrkow-trybunalski-ptr19m-juliusza-slowackiego-paczkomaty-lodzkie,24/7,Paczkomat,Q110970254
PTR20M,paczkomat_inpost_pl,Na parkingu przy budynku ul. Wysoka 19,,Piotrków Trybunalski,łódzkie,,PL,,https://inpost.pl/paczkomat-piotrkow-trybunalski-ptr20m-wysoka-paczkomaty-lodzkie,24/7,Paczkomat,Q110970254
https://105.pl/pizzeria-piotrkow-trybunalski-wschod/#local-place,pizzeria_105_pl,Pizzeria 105,,Piotrków Trybunalski,Łódzkie,,PL,+48 502 105 052,https://105.pl/pizzeria-piotrkow-trybunalski-wschod/,Mo-Th 11:00-22:00; Fr-Sa 11:00-24:00; Su 12:00-22:00,Pizzeria 105,Q123090276
36,play_pl,Wyspa Play,Ul. Al. Generała Władysława Sikorskiego 13/17,Piotrków Trybunalski,łódzkie,,PL,+48 790 031 944,,Mo-Sa 09:00-21:00; Su 10:00-19:00,Play,Q7202998
267,play_pl,Salon Play,Ul. Słowackiego 123,Piotrków Trybunalski,łódzkie,,PL,+48 790 030 766,,Mo-Sa 09:00-21:00; Su 10:00-21:00,Play,Q7202998
582,play_pl,Salon Play,Ul. Wojska Polskiego 121,Piotrków Trybunalski,łódzkie,,PL,+48 790 031 028,,Mo-Fr 09:00-20:00; Sa 09:00-19:00; Su 10:00-19:00,Play,Q7202998
294345,poczta_polska_pl,AP Piotrków Trybunalski,,Piotrków Trybunalski,ŁÓDZKIE,,PL,+48 607 371 963,,,Poczta Polska,Q168833
259304,poczta_polska_pl,UP Piotrków Trybunalski 1,,Piotrków Trybunalski,ŁÓDZKIE,,PL,+48 44 645 19 92,,,Poczta Polska,Q168833
753370,poczta_polska_pl,AP Piotrków Trybunalski,,Piotrków Trybunalski,ŁÓDZKIE,,PL,+48 603 789 646,,,Poczta Polska,Q168833
7175,tedi,TEDi Sieć Handlowa Sp. z o.o.,,Piotrków Trybunalski,Łódzkie,,PL,+48 32 450 36 20,https://www.tedi.com/stores/7175/pl/Łódzkie/Piotrków-Trybunalski/Słowackiego-123,Mo-Sa 00:00-24:00,TEDi,Q1364603
