Ref,Spider,Name,Address,City,State,Zipcode,Country,Phone,Website,Hours,Brand,WikiData
https://locations.auntieannes.com/#5943,auntie_annes,Auntie Anne's Cleveland Walmart/Subway,,Cleveland,OH,,US,+1 216-398-9750,https://locations.auntieannes.com/oh/cleveland/3400-steelyard-drive,Mo-Sa 10:00-21:00; Su 10:00-18:00,Auntie Anne's,Q4822010
https://locations.auntieannes.com/#5861,auntie_annes,Auntie Anne's Tower City Center Food Court,,Cleveland,OH,,US,+1 216-621-2272,https://locations.auntieannes.com/oh/cleveland/230-huron-road-nw,Mo-Sa 10:00-19:00; Su 12:00-17:00,Auntie Anne's,Q4822010
https://locators.bankofamerica.com/oh/cleveland/financial-centers-cleveland-17050.html,bankofamerica,Bank of America Financial Center & Walk-Up ATM | Ohio City,,Cleveland,OH,,US,+1 216-258-0738,https://locators.bankofamerica.com/oh/cleveland/financial-centers-cleveland-17050.html,Mo-Fr 09:00-16:00; Sa 09:00-13:00,Bank of America,Q487907
2047027,chase_us,TTW WU - 106116,,CLEVELAND,OH,,US,+1 800-935-9935,https://locator.chase.com/oh/cleveland/250-w-huron-rd,,Chase,Q524629
11575077,chase_us,Ohio City - New branch,,Cleveland,OH,,US,+1 216-553-7570,https://locator.chase.com/oh/cleveland/1958-w-25th-st,Mo-Fr 09:00-17:00; Sa 09:00-14:00,Chase,Q524629
36547,citi,ATM Beerhead Bar & Eatery,,Cleveland,OH,,US,,,,Citibank,Q857063
800561,citizens_us,Citizens Ohio City,,Cleveland,OH,,US,+1 216-961-7500,,Mo-Fr 09:00-16:00; Sa 09:00-12:00,Citizens,Q5122694
ATM-113,citizens_us,,,Cleveland,OH,,US,+1 216-696-0130,,,Citizens,Q5122694
18069,dollar_general,Dollar General,,Cleveland,OH,,US,+1 440-462-1741,https://www.dollargeneral.com/store-directory/oh/cleveland/18069,Mo-Su 08:00-21:00,Dollar General,Q145168
2461,dominos_pizza_us,Domino's Pizza,,Cleveland,OH,,US,+1 216-851-8700,https://pizza.dominos.com/ohio/cleveland/4319-lorain-rd,Mo-Th 10:00-24:00; Fr-Sa 10:00-01:00; Su 10:00-24:00,Domino's,Q839466
33520,h_r_block,H&R Block,,Cleveland,OH,,US,+1 216-861-1185,https://www.hrblock.com/local-tax-offices/ohio/cleveland/4005-lorain-ave/33520/,,H&R Block,Q5627799
tower-city-center-garage,indigo,Tower City Center Garage,,Cleveland,OH,,US,+1 216-621-3340,,,Indigo,Q3559970
riverview-south-lot,indigo,Riverview South Lot,,Cleveland,OH,,US,+1 216-621-3340,,,Indigo,Q3559970
w-9th-st-lot,indigo,W. 9th St Lot,,Cleveland,OH,,US,+1 216-771-5333,,,Indigo,Q3559970
https://locations.jimmyjohns.com/oh/cleveland/sandwiches-3245.html,jimmy_johns,Jimmy John's,,Cleveland,OH,,US,+1 216-465-2592,https://locations.jimmyjohns.com/oh/cleveland/sandwiches-3245.html,,Jimmy John's,Q1689380
CLEAL,marriott,Aloft Cleveland Downtown,,Cleveland,OH,,US,+1 216-400-6469,https://www.marriott.com/CLEAL,,Aloft Hotels,Q4734166
CLEBR,marriott,Renaissance Cleveland Hotel,,Cleveland,OH,,US,+1 216-696-5600,https://www.marriott.com/CLEBR,,Renaissance Hotels,Q2143252
CLERZ,marriott,"The Ritz-Carlton, Cleveland",,Cleveland,OH,,US,+1 216-623-1300,https://www.marriott.com/CLERZ,,Ritz-Carlton,Q782200
https://locations.papajohns.com/#10690895,papa_johns,Papa John's,,Cleveland,OH,,US,+1 216-737-7000,https://locations.papajohns.com/united-states/oh/44113/cleveland/3034-w-25th-st,Mo-Th 10:00-24:00; Fr-Sa 10:00-01:00; Su 10:00-24:00,Papa John's Pizza,Q2759586
https://restaurants.subway.com/#14896913,subway,Subway Grand Arcade,,Cleveland Cuyahoga,OH,,US,+1 216-523-1865,https://restaurants.subway.com/united-states/oh/cleveland/408-west-st-clair-avenue,Mo-Fr 09:00-20:00; Sa 09:00-18:00; Su 09:00-16:00,Subway,Q244457
0924015100,sunoco_us,Sunoco,,CLEVELAND,OH,,US,+1 216-281-1090,,24/7,Sunoco,Q1423218
1384876,usps,TOWER CITY,,CLEVELAND,OH,,US,+1 216-861-7150,,Mo-Fr 11:00-17:00,United States Postal Service,Q668687
4411300004,usps_collection_boxes,USPS COLLECTION BOX - BLUE BOX,2662 W 14TH ST,CLEVELAND,OH,,US,,,,United States Postal Service,Q668687
4411300028,usps_collection_boxes,USPS COLLECTION BOX - BLUE BOX,3500 LORAIN AVE,CLEVELAND,OH,,US,,,,United States Postal Service,Q668687
4411300057,usps_collection_boxes,USPS COLLECTION BOX - BLUE BOX,1220 W 6TH ST,CLEVELAND,OH,,US,,,,United States Postal Service,Q668687
4411300096,usps_collection_boxes,USPS COLLECTION BOX - BLUE BOX,1795 W 25TH ST,CLEVELAND,OH,,US,,,,United States Postal Service,Q668687
4411300141,usps_collection_boxes,USPS COLLECTION BOX - BLUE BOX,4020 BRIDGE AVE,CLEVELAND,OH,,US,,,,United States Postal Service,Q668687
4411300142,usps_collection_boxes,USPS COLLECTION BOX - BLUE BOX,700 W SAINT CLAIR AVE,CLEVELAND,OH,,US,,,,United States Postal Service,Q668687
4411300144,usps_collection_boxes,USPS COLLECTION BOX - BLUE BOX,323 W LAKESIDE AVE,CLEVELAND,OH,,US,,,,United States Postal Service,Q668687
4411300146,usps_collection_boxes,USPS COLLECTION BOX - BLUE BOX,740 W SUPERIOR AVE,CLEVELAND,OH,,US,,,,United States Postal Service,Q668687
4411300159,usps_collection_boxes,USPS COLLECTION BOX - BLUE BOX,700 W SAINT CLAIR AVE,CLEVELAND,OH,,US,,,,United States Postal Service,Q668687
4411300006,usps_collection_boxes,USPS COLLECTION BOX - BLUE BOX,1866 W 25TH ST,CLEVELAND,OH,,US,,,,United States Postal Service,Q668687
4411300154,usps_collection_boxes,USPS COLLECTION BOX - BLUE BOX,2012 W 25TH ST,CLEVELAND,OH,,US,,,,United States Postal Service,Q668687
,visa,,,EUCLID,OH,,US,,,,,
,visa,,,CLEVELAND,OH,,US,,,,,
,visa,,,CLEVELAND,OH,,US,,,,,
,visa,,,CLEVELAND,OH,,US,,,,,
,visa,,,CLEVELAND,OH,,US,,,,,
,visa,,,CLEVELAND,OH,,US,,,,,
,visa,,,CLEVELAND,OH,,US,,,,,
,visa,,,CLEVELAND,OH,,US,,,,,
,visa,,,CLEVELAND,OH,,US,,,,,
,visa,,,CLEVELAND,OH,,US,,,,,
,visa,,,CLEVELAND,OH,,US,,,,,
,visa,,,CLEVELAND,OH,,US,,,,,
,visa,,,CLEVELAND,OH,,US,,,,,
,visa,,,CLEVELAND,OH,,US,,,,,
,visa,,,CLEVELAND,OH,,US,,,,,
,visa,,,CLEVELAND,OH,,US,,,,,
,visa,,,CLEVELAND,OH,,US,,,,,
,visa,,,CLEVELAND,OH,,US,,,,,
,visa,,,CLEVELAND,OH,,US,,,,,
,visa,,,CLEVELAND,OH,,US,,,,,
,visa,,,CLEVELAND,OH,,US,,,,,
,visa,,,CLEVELAND,OH,,US,,,,,
,visa,,,CLEVELAND,OH,,US,,,,,
,visa,,,CLEVELAND,OH,,US,,,,,
,visa,,,CLEVELAND,OH,,US,,,,,
,visa,,,CLEVELAND,OH,,US,,,,,
,visa,,,CLEVELAND,OH,,US,,,,,
,visa,,,CLEVELAND,OH,,US,,,,,
,visa,,,CLEVELAND,OH,,US,,,,,
,visa,,,CLEVELAND,OH,,US,,,,,
,visa,,,CLEVELAND,OH,,US,,,,,
,visa,,,CLEVELAND,OH,,US,,,,,
,visa,,,CLEVELAND,OH,,US,,,,,
,visa,,,CLEVELAND,OH,,US,,,,,
,visa,,,CLEVELAND,OH,,US,,,,,
,visa,,,CLEVELAND,OH,,US,,,,,
,visa,,,CLEVELAND,OH,,US,,,,,
,visa,,,CLEVELAND,OH,,US,,,,,
,visa,,,CLEVELAND,OH,,US,,,,,
,visa,,,CLEVELAND,OH,,US,,,,,
,visa,,,CLEVELAND,OH,,US,,,,,
,visa,,,CLEVELAND,OH,,US,,,,,
,visa,,,CLEVELAND,OH,,US,,,,,
,visa,,,CLEVELAND,OH,,US,,,,,
,visa,,,CLEVELAND,OH,,US,,,,,
,visa,,,CLEVELAND,OH,,US,,,,,
,visa,,,CLEVELAND,OH,,US,,,,,
,visa,,,CLEVELAND,OH,,US,,,,,
,visa,,,CLEVELAND,OH,,US,,,,,
,visa,,,CLEVELAND,OH,,US,,,,,
,visa,,,CLEVELAND,OH,,US,,,,,
,visa,,,CLEVELAND,OH,,US,,,,,
,visa,,,CLEVELAND,OH,,US,,,,,
,visa,,,CLEVELAND,OH,,US,,,,,
,visa,,,CLEVELAND,OH,,US,,,,,
,visa,,,CLEVELAND,OH,,US,,,,,
,visa,,,CLEVELAND,OH,,US,,,,,
,visa,,,CLEVELAND,OH,,US,,,,,
,visa,,,CLEVELAND,OH,,US,,,,,
,visa,,,CLEVELAND,OH,,US,,,,,
,visa,,,CLEVELAND,OH,,US,,,,,
,visa,,,CLEVELAND,OH,,US,,,,,
,visa,,,CLEVELAND,OH,,US,,,,,
,visa,,,CLEVELAND,OH,,US,,,,,
,visa,,,CLEVELAND,OH,,US,,,,,
,visa,,,CLEVELAND,OH,,US,,,,,
,visa,,,CLEVELAND,OH,,US,,,,,
,visa,,,CLEVELAND,OH,,US,,,,,
,visa,,,CLEVELAND,OH,,US,,,,,
,visa,,,CLEVELAND,OH,,US,,,,,
,visa,,,CLEVELAND,OH,,US,,,,,
,visa,,,CLEVELAND,OH,,US,,,,,
,visa,,,CLEVELAND,OH,,US,,,,,
,visa,,,CLEVELAND,OH,,US,,,,,
,visa,,,CLEVELAND,OH,,US,,,,,
,visa,,,CLEVELAND,OH,,US,,,,,
,visa,,,CLEVELAND,OH,,US,,,,,
,visa,,,CLEVELAND,OH,,US,,,,,
,visa,,,CLEVELAND,OH,,US,,,,,
,visa,,,CLEVELAND,OH,,US,,,,,
,visa,,,CLEVELAND,OH,,US,,,,,
,visa,,,CLEVELAND,OH,,US,,,,,
,visa,,,CLEVELAND,OH,,US,,,,,
,visa,,,CLEVELAND,OH,,US,,,,,
,visa,,,CLEVELAND,OH,,US,,,,,
,visa,,,CLEVELAND,OH,,US,,,,,
,visa,,,CLEVELAND,OH,,US,,,,,
,visa,,,CLEVELAND,OH,,US,,,,,
,visa,,,CLEVELAND,OH,,US,,,,,
,visa,,,CLEVELAND,OH,,US,,,,,
,visa,,,CLEVELAND,OH,,US,,,,,
,visa,,,CLEVELAND,OH,,US,,,,,
,visa,,,CLEVELAND,OH,,US,,,,,
,visa,,,CLEVELAND,OH,,US,,,,,
,visa,,,CLEVELAND,OH,,US,,,,,
,visa,,,CLEVELAND,OH,,US,,,,,
,visa,,,CLEVELAND,OH,,US,,,,,
,visa,,,CLEVELAND,OH,,US,,,,,
,visa,,,CLEVELAND,OH,,US,,,,,
,visa,,,CLEVELAND,OH,,US,,,,,
,visa,,,CLEVELAND,OH,,US,,,,,
,visa,,,CLEVELAND,OH,,US,,,,,
,visa,,,CLEVELAND,OH,,US,,,,,
,visa,,,CLEVELAND,OH,,US,,,,,
,visa,,,CLEVELAND,OH,,US,,,,,
,visa,,,CLEVELAND,OH,,US,,,,,
,visa,,,CLEVELAND,OH,,US,,,,,
,visa,,,CLEVELAND,OH,,US,,,,,
,visa,,,CLEVELAND,OH,,US,,,,,
,visa,,,CLEVELAND,OH,,US,,,,,
,visa,,,CLEVELAND,OH,,US,,,,,
,visa,,,CLEVELAND,OH,,US,,,,,
,visa,,,CLEVELAND,OH,,US,,,,,
,visa,,,CLEVELAND,OH,,US,,,,,
,visa,,,CLEVELAND,OH,,US,,,,,
,visa,,,CLEVELAND,OH,,US,,,,,
,visa,,,CLEVELAND,OH,,US,,,,,
,visa,,,CLEVELAND,OH,,US,,,,,
,visa,,,CLEVELAND,OH,,US,,,,,
,visa,,,CLEVELAND,OH,,US,,,,,
,visa,,,CLEVELAND,OH,,US,,,,,
,visa,,,CLEVELAND,OH,,US,,,,,
,visa,,,CLEVELAND,OH,,US,,,,,
,visa,,,CLEVELAND,OH,,US,,,,,
,visa,,,CLEVELAND,OH,,US,,,,,
,visa,,,CLEVELAND,OH,,US,,,,,
,visa,,,CLEVELAND,OH,,US,,,,,
,visa,,,CLEVELAND,OH,,US,,,,,
,visa,,,CLEVELAND,OH,,US,,,,,
,visa,,,CLEVELAND,OH,,US,,,,,
,visa,,,CLEVELAND,OH,,US,,,,,
,visa,,,CLEVELAND,OH,,US,,,,,
,visa,,,CLEVELAND,OH,,US,,,,,
,visa,,,CLEVELAND,OH,,US,,,,,
,visa,,,CLEVELAND,OH,,US,,,,,
,visa,,,CLEVELAND,OH,,US,,,,,
,visa,,,CLEVELAND,OH,,US,,,,,
,visa,,,CLEVELAND,OH,,US,,,,,
,visa,,,CLEVELAND,OH,,US,,,,,
,visa,,,CLEVELAND,OH,,US,,,,,
,visa,,,CLEVELAND,OH,,US,,,,,
,visa,,,CLEVELAND,OH,,US,,,,,
,visa,,,NORTH ROYALTO,OH,,US,,,,,
,visa,,,CLEVELAND,OH,,US,,,,,
,visa,,,CLEVELAND,OH,,US,,,,,
,visa,,,CLEVELAND,OH,,US,,,,,
,visa,,,CLEVELAND,OH,,US,,,,,
,visa,,,CLEVELAND,OH,,US,,,,,
,visa,,,CLEVELAND,OH,,US,,,,,
,visa,,,CLEVELAND,OH,,US,,,,,
,visa,,,CLEVELAND,OH,,US,,,,,
,visa,,,CLEVELAND,OH,,US,,,,,
,visa,,,CLEVELAND,OH,,US,,,,,
,visa,,,CLEVELAND,OH,,US,,,,,
,visa,,,CLEVELAND,OH,,US,,,,,
,visa,,,CLEVELAND,OH,,US,,,,,
,visa,,,CLEVELAND,OH,,US,,,,,
,visa,,,CLEVELAND,OH,,US,,,,,
,visa,,,CLEVELAND,OH,,US,,,,,
,visa,,,CLEVELAND,OH,,US,,,,,
,visa,,,PARMA,OH,,US,,,,,
,visa,,,CLEVELAND,OH,,US,,,,,
https://locations.wendys.com/#9251570,wendys,"Wendy's 677 W 29th in Cleveland, OH",,Cleveland,OH,,US,+1 216-651-4666,https://locations.wendys.com/united-states/oh/cleveland/2937-lorain-rd,"Mo-Sa 06:30-10:25,07:00-22:00; Su 08:00-10:25,08:00-22:00",Wendy's,Q550258
4efa8a4d42fc7aa4cbe786f6caccb21c,western_union,RITE SHOP FOOD MARKET,,Cleveland,OH,,US,+1 216-589-9098,https://location.westernunion.com/us/oh/cleveland/4efa8a4d42fc7aa4cbe786f6caccb21c,Mo-Th 07:00-21:00; Fr-Sa 07:00-22:00; Su 09:00-20:00,Western Union,Q861042
