Ref,Spider,Name,Address,City,State,Zipcode,Country,Phone,Website,Hours,Brand,WikiData
169905,bluerhino,Fireside Market & Eatery #9770,,Winter Park,CO,,US,+1 970-363-7750,,,Blue Rhino,Q65681213
180407,bluerhino,Stop 'n Save #21,,Winter Park,CO,,US,+1 970-726-5836,,,Blue Rhino,Q65681213
6336,dominos_pizza_us,Domino's Pizza,,Winter Park,CO,,US,+1 970-363-6001,https://pizza.dominos.com/colorado/winter-park/78415-us-hwy-40,Mo-Th 10:30-24:00; Fr-Sa 10:30-01:00; Su 10:30-24:00,Domino's,Q839466
122061,little_free_library,Cooper Creek's Little Free Library #122061 Winter Park CO,,Winter Park,CO,,US,,,,Little Free Library,Q6650101
https://restaurants.subway.com/#14903755,subway,Subway,,Winter Park Grand,CO,,US,+1 970-726-0202,https://restaurants.subway.com/united-states/co/winter-park/78885-us-hwy-40,Mo-Su 10:00-18:00,Subway,Q244457
1388045,usps,WINTER PARK,,WINTER PARK,CO,,US,+1 970-726-6775,,Mo-Fr 08:00-17:00; Sa 09:00-12:00,United States Postal Service,Q668687
8048200001,usps_collection_boxes,USPS COLLECTION BOX - PO LOBBY,78490 US HIGHWAY 40,WINTER PARK,CO,,US,,,,United States Postal Service,Q668687
8048200002,usps_collection_boxes,USPS COLLECTION BOX - PO LOBBY,78490 US HIGHWAY 40,WINTER PARK,CO,,US,,,,United States Postal Service,Q668687
8048200003,usps_collection_boxes,USPS COLLECTION BOX - PO LOBBY,78490 US HIGHWAY 40,WINTER PARK,CO,,US,,,,United States Postal Service,Q668687
8048200007,usps_collection_boxes,USPS COLLECTION BOX - PO LOBBY,78490 US HIGHWAY 40,WINTER PARK,CO,,US,,,,United States Postal Service,Q668687
8048200008,usps_collection_boxes,USPS COLLECTION BOX - PO LOBBY,78490 US HIGHWAY 40,WINTER PARK,CO,,US,,,,United States Postal Service,Q668687
8048200009,usps_collection_boxes,USPS COLLECTION BOX - BLUE BOX,78490 US HIGHWAY 40,WINTER PARK,CO,,US,,,,United States Postal Service,Q668687
8048200010,usps_collection_boxes,USPS COLLECTION BOX - BLUE BOX,78490 US HIGHWAY 40,WINTER PARK,CO,,US,,,,United States Postal Service,Q668687
8048200011,usps_collection_boxes,USPS COLLECTION BOX - EXPRESS,78490 US HIGHWAY 40,WINTER PARK,CO,,US,,,,United States Postal Service,Q668687
8048200000,usps_collection_boxes,USPS COLLECTION BOX - PO LOBBY,78490 US HIGHWAY 40,WINTER PARK,CO,,US,,,,United States Postal Service,Q668687
,visa,,,EMPIRE,CO,,US,,,,,
,visa,,,WINTER PARK,CO,,US,,,,,
,visa,,,WINTER PARK,CO,,US,,,,,
,visa,,,WINTER PARK,CO,,US,,,,,
,visa,,,WINTER PARK,CO,,US,,,,,
,visa,,,WINTER PARK,CO,,US,,,,,
,visa,,,WINTER PARK,CO,,US,,,,,
,visa,,,WINTER PARK,CO,,US,,,,,
,visa,,,WINTER PARK,CO,,US,,,,,
,visa,,,WINTER PARK,CO,,US,,,,,
,visa,,,WINTER PARK,CO,,US,,,,,
,visa,,,WINTER PARK,CO,,US,,,,,
,visa,,,FRASER,CO,,US,,,,,
,visa,,,WINTER PARK,CO,,US,,,,,
,visa,,,WINTER PARK,CO,,US,,,,,
,visa,,,FRASER,CO,,US,,,,,
78515__US__HWY__40_WINTER__PARK_CO_80482,wellsfargo,Wells Fargo,78515 US HWY 40,WINTER PARK,CO,,US,+1 970-726-5531,https://www.wellsfargo.com/locator/bank/78515__US__HWY__40_WINTER__PARK_CO_80482/,Mo-Fr 09:00-17:00,Wells Fargo,Q744149
