Ref,Spider,Name,Address,City,State,Zipcode,Country,Phone,Website,Hours,Brand,WikiData
1350,coffee_like,Coffee Like,"ул. Мира, 11",Лысьва,Perm,,RU,,,Mo-Su 09:00-21:00,Coffee Like,Q55662627
2264,coffee_like,Coffee Like,"ул. Смышляева, 43",Лысьва,Perm,,RU,,,Mo-Su 10:00-21:00,Coffee Like,Q55662627
2175,coffee_like,Coffee Like,"пр-т Мира, 81/1",Набережные Челны,Perm,,RU,,,,Coffee Like,Q55662627
788,coffee_like,Coffee Like,"ул. Куйбышева, 92",Пермь,Perm,,RU,,,Mo-Su 08:00-21:00,Coffee Like,Q55662627
2338,coffee_like,Coffee Like,"пр-т Комсомольский, 69",Пермь,Perm,,RU,,,,Coffee Like,Q55662627
2089,coffee_like,Coffee Like,"ул. Сибирская, 29",Пермь,Perm,,RU,,,Mo-Sa 08:00-21:00; Su 10:00-21:00,Coffee Like,Q55662627
2100,coffee_like,Coffee Like,"ул. Куйбышева, 16",Пермь,Perm,,RU,,,,Coffee Like,Q55662627
1080,coffee_like,Coffee Like,"ул. Сибирская, 2/1б",Пермь,Perm,,RU,,,Mo-Su 08:00-21:00,Coffee Like,Q55662627
2110,coffee_like,Coffee Like,"ул. Маршала Рыбалко, 23",Пермь,Perm,,RU,,,,Coffee Like,Q55662627
2119,coffee_like,Coffee Like,"ул. Мира, 41/1",Пермь,Perm,,RU,,,,Coffee Like,Q55662627
2123,coffee_like,Coffee Like,"ул. Революции, 13",Пермь,Perm,,RU,,,,Coffee Like,Q55662627
1104,coffee_like,Coffee Like,"ш. Космонавтов, 111",Пермь,Perm,,RU,,,Mo-Su 09:00-21:00,Coffee Like,Q55662627
1872,coffee_like,Coffee Like,"ул. Стахановская, 54",Пермь,Perm,,RU,,,Mo-Fr 08:00-21:00; Sa-Su 09:00-21:00,Coffee Like,Q55662627
2394,coffee_like,Coffee Like,"ул. Краснополянская, 34",Пермь,Perm,,RU,,,,Coffee Like,Q55662627
1640,coffee_like,Coffee Like,"ул. Попова, 22 ",Пермь,Perm,,RU,,,Mo-Su 09:00-22:00,Coffee Like,Q55662627
2164,coffee_like,Coffee Like,"ул. Маршала Рыбалко, 85В",Пермь,Perm,,RU,,,Mo-Fr 07:00-22:00; Sa 08:00-22:00; Su 10:00-22:00,Coffee Like,Q55662627
2167,coffee_like,Coffee Like,"ул. 2-я Казанцевская, 11",Пермь,Perm,,RU,,,,Coffee Like,Q55662627
2171,coffee_like,Coffee Like,"ул. Ленина, 60",Пермь,Perm,,RU,,,,Coffee Like,Q55662627
1662,coffee_like,Coffee Like,"ул. Петропавловская, 57а",Пермь,Perm,,RU,,,Mo-Fr 08:00-22:00; Sa-Su 10:00-22:00,Coffee Like,Q55662627
2430,coffee_like,Coffee Like,"ул. Мира, 41",Пермь,Perm,,RU,,,,Coffee Like,Q55662627
1928,coffee_like,Coffee Like,"ул. Куйбышева, 112Б",Пермь,Perm,,RU,,,Mo-Sa 07:00-20:00; Su 10:00-18:00,Coffee Like,Q55662627
1674,coffee_like,Coffee Like,"ул. Братьев Игнатовых, 13",Пермь,Perm,,RU,,,Mo-Fr 08:00-22:00; Sa-Su 09:00-22:00,Coffee Like,Q55662627
2186,coffee_like,Coffee Like,"ул. Белинского, 6Б",Пермь,Perm,,RU,,,,Coffee Like,Q55662627
2188,coffee_like,Coffee Like,"пр-т Парковый, 23",Пермь,Perm,,RU,,,,Coffee Like,Q55662627
2449,coffee_like,Coffee Like,"ул. Левченко, 6",Пермь,Perm,,RU,,,,Coffee Like,Q55662627
921,coffee_like,Coffee Like,"ул. Маршала Рыбалко, 43",Пермь,Perm,,RU,,,24/7,Coffee Like,Q55662627
2458,coffee_like,Coffee Like,"ул. Карпинского, 63А",Пермь,Perm,,RU,,,,Coffee Like,Q55662627
2212,coffee_like,Coffee Like,"ул. Героев Хасана, 9б",Пермь,Perm,,RU,,,,Coffee Like,Q55662627
936,coffee_like,Coffee Like,"ул. Краснова, 1",Пермь,Perm,,RU,,,Mo-Su 08:00-22:00,Coffee Like,Q55662627
694,coffee_like,Coffee Like,"ул. Букирева, 10 б",Пермь,Perm,,RU,,,Mo-Su 07:00-20:00,Coffee Like,Q55662627
2248,coffee_like,Coffee Like,"ул. Куйбышева, 82",Пермь,Perm,,RU,,,,Coffee Like,Q55662627
713,coffee_like,Coffee Like,"просп. Комсомольский, 15 в",Пермь,Perm,,RU,,,Mo-Fr 08:00-21:00; Sa-Su 08:00-22:00,Coffee Like,Q55662627
1485,coffee_like,Coffee Like,"ул. Сибирская, 33 а",Пермь,Perm,,RU,,,Mo-Su 08:00-21:00,Coffee Like,Q55662627
983,coffee_like,Coffee Like,"ш. Космонавтов, 113/1",Пермь,Perm,,RU,,,Mo-Su 08:00-21:00,Coffee Like,Q55662627
1499,coffee_like,Coffee Like,"ул. Ленина, 102",Пермь,Perm,,RU,,,Mo-Fr 08:00-21:00; Sa 08:00-22:00; Su 09:00-18:00,Coffee Like,Q55662627
1502,coffee_like,Coffee Like,"ул. Техническая, д. 13",Пермь,Perm,,RU,,,Mo-Fr 08:00-21:00; Sa-Su 09:00-21:00,Coffee Like,Q55662627
243,coffee_like,Coffee Like,"ул. Маршала Рыбалко, 98",Пермь,Perm,,RU,,,Mo-Su 07:00-23:00,Coffee Like,Q55662627
133575,lukoil,AZS No 91 (59091),"Russia, Perm Krai, Nytvenskij area, 442 (federalnoj road M7 Volga)km, 1",,Perm,,RU,,,24/7,Лукойл,Q329347
133298,lukoil,AZS No 47 (59047),"Russia, Perm Krai, Perm, st. Dokuchayeva, 29",Perm,Perm,,RU,,,24/7,Лукойл,Q329347
133243,lukoil,AZS No 127 (59127),"Russia, Perm Krai, g. Perm, ul. Admirala Ushakova, str.122",g. Perm,Perm,,RU,,,24/7,Лукойл,Q329347
60,wildberries,Wildberries,"Пермский край, Пермь, улица 25 Октября, 29",,Perm,,RU,,,Mo-Su 08:00-22:00,Wildberries,Q24933714
231,wildberries,Wildberries,"Пермский край, Березники, улица 30 лет Победы, 22",,Perm,,RU,,,Mo-Su 10:00-21:00,Wildberries,Q24933714
1092,wildberries,Wildberries,"г. Пермь (Пермский край), ул. Мира, 59",,Perm,,RU,,,Mo-Su 08:00-22:00,Wildberries,Q24933714
1252,wildberries,Wildberries,"Пермский край, Пермь, улица Крупской, 32",,Perm,,RU,,,Mo-Su 10:00-21:00,Wildberries,Q24933714
1613,wildberries,Wildberries,"г. Кунгур (Пермский край), улица Голованова, д. 50Г",,Perm,,RU,,,Mo-Su 08:00-22:00,Wildberries,Q24933714
2137,wildberries,Wildberries,"Пермский край, Пермь, улица Луначарского, 131",,Perm,,RU,,,Mo-Su 10:00-21:00,Wildberries,Q24933714
2196,wildberries,Wildberries,"г. Пермь (Пермский край), Уральская улица, д. 77",,Perm,,RU,,,Mo-Su 10:00-21:00,Wildberries,Q24933714
2218,wildberries,Wildberries,"г. Чайковский (Пермский край), Приморский бульвар, д. 45",,Perm,,RU,,,Mo-Su 10:00-21:00,Wildberries,Q24933714
2296,wildberries,Wildberries,"г. Чернушка (Пермский край), Юбилейная улица, д. 1",,Perm,,RU,,,Mo-Su 10:00-21:00,Wildberries,Q24933714
2349,wildberries,Wildberries,"г. Березники (Пермский край), улица Пятилетки, д. 32",,Perm,,RU,,,Mo-Su 10:00-21:00,Wildberries,Q24933714
2354,wildberries,Wildberries,"г. Лысьва (Пермский край), улица Мира, д. 43",,Perm,,RU,,,Mo-Su 10:00-21:00,Wildberries,Q24933714
2395,wildberries,Wildberries,"г. Горнозаводск (Пермский край), улица Кирова, д. 45",,Perm,,RU,,,Mo-Su 10:00-21:00,Wildberries,Q24933714
2418,wildberries,Wildberries,"г. Пермь (Пермский край), Янаульская улица, д. 18",,Perm,,RU,,,Mo-Su 10:00-21:00,Wildberries,Q24933714
2507,wildberries,Wildberries,"Пермский край, Пермь, улица Емельяна Ярославского, 48",,Perm,,RU,,,Mo-Su 08:00-22:00,Wildberries,Q24933714
2508,wildberries,Wildberries,"г.. Пермь (Пермский край), Новосибирская улица, д. 4",,Perm,,RU,,,Mo-Su 08:00-22:00,Wildberries,Q24933714
2621,wildberries,Wildberries,"г. Пермь (Пермский край), улица Академика Веденеева, д. 79",,Perm,,RU,,,Mo-Su 08:00-22:00,Wildberries,Q24933714
2683,wildberries,Wildberries,"г. Краснокамск (Пермский край), проспект Мира, д. 14",,Perm,,RU,,,Mo-Su 10:00-21:00,Wildberries,Q24933714
2788,wildberries,Wildberries,"г. Пермь (Пермский край), улица Куйбышева, д. 80",,Perm,,RU,,,Mo-Su 08:00-22:00,Wildberries,Q24933714
2871,wildberries,Wildberries,"г. Березники (Пермский край), улица Мира, д. 107",,Perm,,RU,,,Mo-Su 10:00-21:00,Wildberries,Q24933714
2974,wildberries,Wildberries,"г. Кизел (Пермский край), Советская улица, д. 8",,Perm,,RU,,,Mo-Su 10:00-21:00,Wildberries,Q24933714
2975,wildberries,Wildberries,"г. Пермь (Пермский край), шоссе Космонавтов, д. 51",,Perm,,RU,,,Mo-Su 10:00-21:00,Wildberries,Q24933714
3024,wildberries,Wildberries,"г. Пермь (Пермский край), Светлогорская улица, д. 17",,Perm,,RU,,,Mo-Su 08:00-22:00,Wildberries,Q24933714
3025,wildberries,Wildberries,"г. Пермь (Пермский край), улица Максима Горького, д. 5",,Perm,,RU,,,Mo-Su 08:00-22:00,Wildberries,Q24933714
3321,wildberries,Wildberries,"г. Александровск (Пермский край), улица Ленина, д. 7",,Perm,,RU,,,Mo-Su 10:00-21:00,Wildberries,Q24933714
3432,wildberries,Wildberries,"г. Пермь (Пермский край), Хабаровская улица, д. 54",,Perm,,RU,,,Mo-Su 08:00-22:00,Wildberries,Q24933714
3530,wildberries,Wildberries,"г. Красновишерск (Пермский край), Спортивная улица, д. 30",,Perm,,RU,,,Mo-Su 10:00-21:00,Wildberries,Q24933714
3664,wildberries,Wildberries,"г. Пермь (Пермский край), улица Карпинского, д. 17",,Perm,,RU,,,Mo-Su 10:00-21:00,Wildberries,Q24933714
3716,wildberries,Wildberries,"г. Пермь (Пермский край), улица Героев Хасана, д. 32",,Perm,,RU,,,Mo-Su 08:00-22:00,Wildberries,Q24933714
3728,wildberries,Wildberries,"г. Березники (Пермский край), улица Пятилетки, д. 100",,Perm,,RU,,,Mo-Su 10:00-21:00,Wildberries,Q24933714
3784,wildberries,Wildberries,"г. Пермь (Пермский край), улица Куфонина, д. 20",,Perm,,RU,,,Mo-Su 08:00-22:00,Wildberries,Q24933714
3817,wildberries,Wildberries,"г. Пермь (Пермский край), улица Нефтяников, д.60",,Perm,,RU,,,Mo-Su 08:00-22:00,Wildberries,Q24933714
3853,wildberries,Wildberries,"г. Пермь (Пермский край), улица Карпинского, д. 112",,Perm,,RU,,,Mo-Su 08:00-22:00,Wildberries,Q24933714
4000,wildberries,Wildberries,"г. Добрянка (Пермский край), улица Энгельса, д. 11",,Perm,,RU,,,Mo-Su 10:00-21:00,Wildberries,Q24933714
4008,wildberries,Wildberries,"г. Оса (Пермский край), улица Маяковского, д. 60",,Perm,,RU,,,Mo-Su 10:00-21:00,Wildberries,Q24933714
4063,wildberries,Wildberries,"посёлок городского типа Яйва (Пермский край), улица 6-й Пятилетки, д. 15",,Perm,,RU,,,Mo-Su 10:00-21:00,Wildberries,Q24933714
4130,wildberries,Wildberries,"г. Пермь (Пермский край), Холмогорская улица, д. 4В",,Perm,,RU,,,Mo-Su 08:00-22:00,Wildberries,Q24933714
4134,wildberries,Wildberries,"г. Пермь (Пермский край), улица Николая Островского, д. 93Б",,Perm,,RU,,,Mo-Su 08:00-22:00,Wildberries,Q24933714
4149,wildberries,Wildberries,"Пермский край, Пермь, улица Мира, 26",,Perm,,RU,,,Mo-Su 08:00-22:00,Wildberries,Q24933714
5080,wildberries,Wildberries,"г. Пермь (Пермский край), Боровая улица, д. 2",,Perm,,RU,,,Mo-Su 10:00-21:00,Wildberries,Q24933714
5140,wildberries,Wildberries,"г. Пермь (Пермский край), улица Луначарского, д. 51А",,Perm,,RU,,,Mo-Su 10:00-21:00,Wildberries,Q24933714
5141,wildberries,Wildberries,"г. Пермь (Пермский край), улица Тургенева, д. 14",,Perm,,RU,,,Mo-Su 08:00-22:00,Wildberries,Q24933714
5282,wildberries,Wildberries,г. Кунгур (Пермский край) улица Коммуны 47,,Perm,,RU,,,Mo-Su 08:00-22:00,Wildberries,Q24933714
5496,wildberries,Wildberries,"г. Березники (Пермский край), улица Парижской Коммуны, д. 15",,Perm,,RU,,,Mo-Su 10:00-21:00,Wildberries,Q24933714
5551,wildberries,Wildberries,"г. Лысьва (Пермский край), улица Шмидта, д. 39",,Perm,,RU,,,Mo-Su 10:00-21:00,Wildberries,Q24933714
5774,wildberries,Wildberries,"г. Березники (Пермский край), улица Мира, д. 79",,Perm,,RU,,,Mo-Su 10:00-21:00,Wildberries,Q24933714
5775,wildberries,Wildberries,"г. Верещагино (Пермский край), улица Энгельса, д. 119",,Perm,,RU,,,Mo-Su 10:00-21:00,Wildberries,Q24933714
5856,wildberries,Wildberries,"г. Пермь (Пермский край), улица Адмирала Ушакова, д. 55/1",,Perm,,RU,,,Mo-Su 08:00-22:00,Wildberries,Q24933714
5989,wildberries,Wildberries,"посёлок городского типа Полазна (Пермский край), улица Дружбы, д. 8/1",,Perm,,RU,,,Mo-Su 10:00-21:00,Wildberries,Q24933714
100584,wildberries,Wildberries,"г. Нытва (Пермский край), проспект Ленина, д. 40А",,Perm,,RU,,,Mo-Su 10:00-21:00,Wildberries,Q24933714
101165,wildberries,Wildberries,"г. Чусовой (Пермский край), улица Ленина, д. 26",,Perm,,RU,,,Mo-Su 10:00-21:00,Wildberries,Q24933714
101210,wildberries,Wildberries,"г. Соликамск (Пермский край), проспект Строителей, д. 10",,Perm,,RU,,,Mo-Su 08:00-22:00,Wildberries,Q24933714
101440,wildberries,Wildberries,"г. Пермь (Пермский край), Целинная улица, д. 23",,Perm,,RU,,,Mo-Su 10:00-21:00,Wildberries,Q24933714
101967,wildberries,Wildberries,г. Соликамск (Пермский край) Ленина 32,,Perm,,RU,,,Mo-Su 10:00-21:00,Wildberries,Q24933714
103651,wildberries,Wildberries,"г. Березники (Пермский край), Советский проспект, д. 55",,Perm,,RU,,,Mo-Su 10:00-21:00,Wildberries,Q24933714
104152,wildberries,Wildberries,"г. Чайковский (Пермский край), улица Ленина, д. 44",,Perm,,RU,,,Mo-Su 10:00-21:00,Wildberries,Q24933714
104784,wildberries,Wildberries,г. Пермь (Пермский край) Пушкарская  140,,Perm,,RU,,,Mo-Su 10:00-21:00,Wildberries,Q24933714
104968,wildberries,Wildberries,"г. Пермь (Пермский край), улица Хохрякова, д. 6А",,Perm,,RU,,,Mo-Su 08:00-22:00,Wildberries,Q24933714
105252,wildberries,Wildberries,"г. Губаха (Пермский край), улица Космонавтов, д. 11",,Perm,,RU,,,Mo-Su 10:00-21:00,Wildberries,Q24933714
105456,wildberries,Wildberries,"г. Чернушка (Пермский край), Красноармейская улица, д. 90",,Perm,,RU,,,Mo-Su 10:00-21:00,Wildberries,Q24933714
105809,wildberries,Wildberries,"Краснокамск, Энтузиастов 19",,Perm,,RU,,,Mo-Su 10:00-21:00,Wildberries,Q24933714
105942,wildberries,Wildberries,"г Очер (Россия, Пермский край, Очерский р-н), Октябрьская, д. 19 а",,Perm,,RU,,,Mo-Su 10:00-21:00,Wildberries,Q24933714
106726,wildberries,Wildberries,"Пермский край, посёлок городского типа Звёздный, улица Бабичева, 17",,Perm,,RU,,,Mo-Su 10:00-21:00,Wildberries,Q24933714
106888,wildberries,Wildberries,г. Пермь (Пермский край) Кронштадтская 51,,Perm,,RU,,,Mo-Su 10:00-21:00,Wildberries,Q24933714
107097,wildberries,Wildberries,Чайковский (Пермский край) Декабристов 6,,Perm,,RU,,,Mo-Su 10:00-21:00,Wildberries,Q24933714
107622,wildberries,Wildberries,г Пермь (Пермский край) Уинская 15а,,Perm,,RU,,,Mo-Su 08:00-22:00,Wildberries,Q24933714
108046,wildberries,Wildberries,с Барда (Пермский край) Ленина 46А,,Perm,,RU,,,Mo-Su 10:00-21:00,Wildberries,Q24933714
108516,wildberries,Wildberries,г Соликамск (Пермский край) 20 лет Победы 200,,Perm,,RU,,,Mo-Su 10:00-21:00,Wildberries,Q24933714
108869,wildberries,Wildberries,"г Пермь (Россия, Пермский край) Черняховского 72 а",,Perm,,RU,,,Mo-Su 08:00-22:00,Wildberries,Q24933714
109429,wildberries,Wildberries,"Пермь (Пермский край, городской округ Пермь) Лядовская улица 127",,Perm,,RU,,,Mo-Su 10:00-21:00,Wildberries,Q24933714
109531,wildberries,Wildberries,"г Соликамск (Пермский край), 20-лет победы 55",,Perm,,RU,,,Mo-Su 10:00-21:00,Wildberries,Q24933714
109541,wildberries,Wildberries,"Чайковский (Пермский край, Чайковский городской округ) Советская улица 1",,Perm,,RU,,,Mo-Su 10:00-21:00,Wildberries,Q24933714
109905,wildberries,Wildberries,"г Чусовой (Пермский край, Чусовской городской округ) улица 50 лет ВЛКСМ 14",,Perm,,RU,,,Mo-Su 10:00-21:00,Wildberries,Q24933714
110224,wildberries,Wildberries,"г Пермь, Социалистическая улица 24А",,Perm,,RU,,,Mo-Su 10:00-22:00,Wildberries,Q24933714
110463,wildberries,Wildberries,"г Пермь (Пермский край, городской округ Пермь) Транспортная улица 11А",,Perm,,RU,,,Mo-Su 08:00-22:00,Wildberries,Q24933714
110471,wildberries,Wildberries,"г Пермь, улица Зенкова 4А",,Perm,,RU,,,Mo-Su 10:00-21:00,Wildberries,Q24933714
111330,wildberries,Wildberries,"г Пермь (Пермский край), улица Карбышева 41",,Perm,,RU,,,Mo-Su 10:00-21:00,Wildberries,Q24933714
111434,wildberries,Wildberries,"Пермский край, Соликамск, улица 20-летия Победы, 146",,Perm,,RU,,,Mo-Su 10:00-21:00,Wildberries,Q24933714
111599,wildberries,Wildberries,г Лысьва (Пермский край) проспект Победы 20,,Perm,,RU,,,Mo-Su 10:00-21:00,Wildberries,Q24933714
111648,wildberries,Wildberries,"Оханск (Пермский край), улица Кирова 33",,Perm,,RU,,,Mo-Su 10:00-21:00,Wildberries,Q24933714
111658,wildberries,Wildberries,"Кудымкар Пермский край, городской округ Кудымкарский улица Строителей 3",,Perm,,RU,,,Mo-Su 10:00-21:00,Wildberries,Q24933714
111933,wildberries,Wildberries,"Кондратово (Пермский край), улица Культуры 11",,Perm,,RU,,,Mo-Su 10:00-21:00,Wildberries,Q24933714
112341,wildberries,Wildberries,"Гамово (Пермский край), улица 50 лет Октября 5",,Perm,,RU,,,Mo-Su 10:00-21:00,Wildberries,Q24933714
112368,wildberries,Wildberries,"Уральский Пермский край , Нытвенский район ул Московская 10",,Perm,,RU,,,Mo-Su 10:00-21:00,Wildberries,Q24933714
112530,wildberries,Wildberries,"Пермский край, Чайковский, проспект Победы, 22",,Perm,,RU,,,Mo-Su 10:00-21:00,Wildberries,Q24933714
112531,wildberries,Wildberries,"Удмуртская Республика, посёлок Новый, улица Строителей, 26",,Perm,,RU,,,Mo-Su 10:00-21:00,Wildberries,Q24933714
115765,wildberries,Wildberries,"г Пермь, Калинина 42",,Perm,,RU,,,Mo-Su 08:00-22:00,Wildberries,Q24933714
116074,wildberries,Wildberries,"Юго-Камский (Пермский край), Сибирская улица  5",,Perm,,RU,,,Mo-Su 10:00-21:00,Wildberries,Q24933714
116379,wildberries,Wildberries,"Пермь (Пермский край), улица Федосеева 13",,Perm,,RU,,,Mo-Su 08:00-22:00,Wildberries,Q24933714
116541,wildberries,Wildberries,"Углеуральский (Пермский край), 2-я Коммунистическая улица 78",,Perm,,RU,,,Mo-Su 10:00-21:00,Wildberries,Q24933714
117953,wildberries,Wildberries,"Пермь (Пермский край), улица Кабельщиков 93",,Perm,,RU,,,Mo-Su 08:00-22:00,Wildberries,Q24933714
120400,wildberries,Wildberries,"Березники, Юбилейная улица 49",,Perm,,RU,,,Mo-Su 10:00-21:00,Wildberries,Q24933714
120455,wildberries,Wildberries,"Пермь, Запорожская улица 1/1",,Perm,,RU,,,Mo-Su 10:00-21:00,Wildberries,Q24933714
120463,wildberries,Wildberries,"Пермь, улица Мира 41В",,Perm,,RU,,,Mo-Su 10:00-21:00,Wildberries,Q24933714
120465,wildberries,Wildberries,"Пермь, улица Вильямса 41",,Perm,,RU,,,Mo-Su 10:00-21:00,Wildberries,Q24933714
120471,wildberries,Wildberries,"Пермь, Парковый проспект 13В",,Perm,,RU,,,Mo-Su 10:00-21:00,Wildberries,Q24933714
120473,wildberries,Wildberries,"Пермь, улица Каляева 20",,Perm,,RU,,,Mo-Su 10:00-21:00,Wildberries,Q24933714
120816,wildberries,Wildberries,"Соликамск, улица Степана Разина 46",,Perm,,RU,,,Mo-Su 10:00-21:00,Wildberries,Q24933714
121294,wildberries,Wildberries,"г березники, Улица Мира 58",,Perm,,RU,,,Mo-Su 09:00-21:00,Wildberries,Q24933714
121385,wildberries,Wildberries,"г Соликамск, Проспект Ленина 17",,Perm,,RU,,,Mo-Su 10:00-21:00,Wildberries,Q24933714
121426,wildberries,Wildberries,"г Пермь, Улица Александра Щербакова 43в",,Perm,,RU,,,Mo-Su 10:00-22:00,Wildberries,Q24933714
121486,wildberries,Wildberries,"с Фролы, Центральная Улица 29",,Perm,,RU,,,Mo-Su 10:00-21:00,Wildberries,Q24933714
121776,wildberries,Wildberries,"г Соликамск, Молодёжная Улица 8а",,Perm,,RU,,,Mo-Su 10:00-21:00,Wildberries,Q24933714
121994,wildberries,Wildberries,"г Соликамск, Советская Улица 45а",,Perm,,RU,,,Mo-Su 10:00-21:00,Wildberries,Q24933714
122099,wildberries,Wildberries,"г Пермь, Пермская Улица 124",,Perm,,RU,,,Mo-Su 10:00-22:00,Wildberries,Q24933714
122221,wildberries,Wildberries,"г Пермь, Ялтинская Улица 12",,Perm,,RU,,,Mo-Su 10:00-22:00,Wildberries,Q24933714
122488,wildberries,Wildberries,"г Пермь, Целинная Улица 37",,Perm,,RU,,,Mo-Su 10:00-21:00,Wildberries,Q24933714
123070,wildberries,Wildberries,"г березники, Улица 30 Лет Победы 29",,Perm,,RU,,,Mo-Su 09:00-21:00,Wildberries,Q24933714
123746,wildberries,Wildberries,"г Пермь, Улица Крупской 18",,Perm,,RU,,,Mo-Su 10:00-21:00,Wildberries,Q24933714
123861,wildberries,Wildberries,"г Пермь, Кировоградская Улица 66",,Perm,,RU,,,Mo-Su 10:00-21:00,Wildberries,Q24933714
123929,wildberries,Wildberries,"Кудымкар Пермский край, городской округ Кудымкарский Революционная улица 21",,Perm,,RU,,,Mo-Su 10:00-21:00,Wildberries,Q24933714
123972,wildberries,Wildberries,"г Пермь, Улица Комиссара Пожарского 10",,Perm,,RU,,,Mo-Su 10:00-22:00,Wildberries,Q24933714
124106,wildberries,Wildberries,"г Пермь, Улица Подводников 29",,Perm,,RU,,,Mo-Su 10:00-21:00,Wildberries,Q24933714
124461,wildberries,Wildberries,"г Пермь, Улица 25 Октября 77",,Perm,,RU,,,Mo-Su 10:00-21:00,Wildberries,Q24933714
124880,wildberries,Wildberries,"г Пермь, Улица Комбайнёров 32",,Perm,,RU,,,Mo-Su 10:00-21:00,Wildberries,Q24933714
125052,wildberries,Wildberries,"г Кудымкар, Улица Данилова 4",,Perm,,RU,,,Mo-Su 10:00-21:00,Wildberries,Q24933714
125323,wildberries,Wildberries,"п Кукуштан, Улица Карла Маркса 9",,Perm,,RU,,,Mo-Su 10:00-21:00,Wildberries,Q24933714
125674,wildberries,Wildberries,"г Пермь, Улица Геологов 11/2",,Perm,,RU,,,Mo-Su 10:00-21:00,Wildberries,Q24933714
125714,wildberries,Wildberries,"г Добрянка, Переулок Строителей 6а/1",,Perm,,RU,,,Mo-Su 09:00-21:00,Wildberries,Q24933714
125819,wildberries,Wildberries,"г березники, Улица Парижской Коммуны 21",,Perm,,RU,,,Mo-Su 10:00-21:00,Wildberries,Q24933714
127201,wildberries,Wildberries,"г Губаха, Октябрьский Проспект 11а",,Perm,,RU,,,Mo-Su 10:00-21:00,Wildberries,Q24933714
127250,wildberries,Wildberries,"с Елово, Улица Калинина 15",,Perm,,RU,,,Mo-Su 09:00-21:00,Wildberries,Q24933714
127510,wildberries,Wildberries,"г Пермь, Улица Чернышевского 15",,Perm,,RU,,,Mo-Su 10:00-21:00,Wildberries,Q24933714
127586,wildberries,Wildberries,"г Пермь, Улица Мира 26",,Perm,,RU,,,Mo-Su 10:00-21:00,Wildberries,Q24933714
127667,wildberries,Wildberries,"г Чердынь, Юргановская Улица 62",,Perm,,RU,,,Mo-Su 09:00-21:00,Wildberries,Q24933714
127998,wildberries,Wildberries,"г Соликамск, Улица Всеобуча 78",,Perm,,RU,,,Mo-Su 09:00-21:00,Wildberries,Q24933714
128498,wildberries,Wildberries,"г Пермь, Монастырская Улица 155",,Perm,,RU,,,Mo-Su 10:00-21:00,Wildberries,Q24933714
128601,wildberries,Wildberries,"г Пермь, Улица Мира 116",,Perm,,RU,,,Mo-Su 09:00-21:00,Wildberries,Q24933714
128660,wildberries,Wildberries,"Россия, Пермский край, г Пермь, Краснополянская Улица 36",,Perm,,RU,,,Mo-Su 10:00-21:00,Wildberries,Q24933714
128727,wildberries,Wildberries,"пгт Сарс, Советская Улица 50",,Perm,,RU,,,Mo-Su 09:00-21:00,Wildberries,Q24933714
129209,wildberries,Wildberries,"снт Сылва, Заводской Переулок 27",,Perm,,RU,,,Mo-Su 09:00-21:00,Wildberries,Q24933714
129793,wildberries,Wildberries,"с Большая Соснова, Улица Ленина 28б/1",,Perm,,RU,,,Mo-Su 10:00-21:00,Wildberries,Q24933714
130020,wildberries,Wildberries,"г Пермь, Улица Кабельщиков 12",,Perm,,RU,,,Mo-Su 10:00-21:00,Wildberries,Q24933714
130049,wildberries,Wildberries,"г Нытва, Улица Карла Маркса 77",,Perm,,RU,,,Mo-Su 09:00-21:00,Wildberries,Q24933714
130308,wildberries,Wildberries,"г Пермь, Улица 5-Я Линия 1а",,Perm,,RU,,,Mo-Su 10:00-21:00,Wildberries,Q24933714
130337,wildberries,Wildberries,"г Пермь, Пермская Улица 10",,Perm,,RU,,,Mo-Su 10:00-21:00,Wildberries,Q24933714
130886,wildberries,Wildberries,"д Березова, Центральная Улица 18",,Perm,,RU,,,Mo-Su 09:00-21:00,Wildberries,Q24933714
131968,wildberries,Wildberries,"г Оса, Улица Максима Горького 85",,Perm,,RU,,,Mo-Su 09:00-21:00,Wildberries,Q24933714
132474,wildberries,Wildberries,"г березники, Улица Строителей 10",,Perm,,RU,,,Mo-Su 09:00-21:00,Wildberries,Q24933714
132587,wildberries,Wildberries,"г березники, Улица Пятилетки 42",,Perm,,RU,,,Mo-Su 09:00-21:00,Wildberries,Q24933714
132608,wildberries,Wildberries,"п Ильинский, Улица Ленина 14а",,Perm,,RU,,,Mo-Su 09:00-21:00,Wildberries,Q24933714
133482,wildberries,Wildberries,"г Пермь, Улица Генерала Панфилова 6а/1",,Perm,,RU,,,Mo-Su 10:00-21:00,Wildberries,Q24933714
133523,wildberries,Wildberries,"г Пермь, Улица Грибоедова 74",,Perm,,RU,,,Mo-Su 10:00-21:00,Wildberries,Q24933714
133573,wildberries,Wildberries,"г Пермь, Улица Сакко И Ванцетти 97",,Perm,,RU,,,Mo-Su 10:00-21:00,Wildberries,Q24933714
134113,wildberries,Wildberries,"г березники, Улица Циренщикова 7",,Perm,,RU,,,Mo-Su 10:00-21:00,Wildberries,Q24933714
135233,wildberries,Wildberries,Пермь Пермский край улица Луначарского 90,,Perm,,RU,,,Mo-Su 10:00-21:00,Wildberries,Q24933714
135443,wildberries,Wildberries,Пермь Пермский край улица Максима Горького 64,,Perm,,RU,,,Mo-Su 10:00-21:00,Wildberries,Q24933714
135732,wildberries,Wildberries,Пермь Пермский край Заречная улица 152,,Perm,,RU,,,Mo-Su 08:00-22:00,Wildberries,Q24933714
136048,wildberries,Wildberries,"Чусовой Пермский край, Чусовской городской округ Коммунистическая улица 6",,Perm,,RU,,,Mo-Su 10:00-21:00,Wildberries,Q24933714
136247,wildberries,Wildberries,"Пермь Пермский край, городской округ Пермь улица Полины Осипенко 45",,Perm,,RU,,,Mo-Su 08:00-22:00,Wildberries,Q24933714
136249,wildberries,Wildberries,"Пермь Пермский край, городской округ Пермь Монастырская улица 76",,Perm,,RU,,,Mo-Su 10:00-21:00,Wildberries,Q24933714
136251,wildberries,Wildberries,"Пермь Пермский край, Пермский район улица Строителей 5",,Perm,,RU,,,Mo-Su 10:00-21:00,Wildberries,Q24933714
136258,wildberries,Wildberries,Березники пермский край улица Карла Маркса 60,,Perm,,RU,,,Mo-Su 10:00-21:00,Wildberries,Q24933714
136397,wildberries,Wildberries,"г Пермь, Улица Лебедева 34",,Perm,,RU,,,Mo-Su 09:00-20:00,Wildberries,Q24933714
136511,wildberries,Wildberries,"Краснокамск Пермский край, Краснокамский городской округ Гознаковский переулок 4",,Perm,,RU,,,Mo-Su 10:00-21:00,Wildberries,Q24933714
136711,wildberries,Wildberries,"г Пермь, Целинная Улица 57",,Perm,,RU,,,Mo-Su 10:00-21:00,Wildberries,Q24933714
136712,wildberries,Wildberries,"г Добрянка, Улица Победы 37/35",,Perm,,RU,,,Mo-Su 10:00-22:00,Wildberries,Q24933714
137114,wildberries,Wildberries,"г Пермь, Псковская Улица 1",,Perm,,RU,,,Mo-Su 09:00-21:00,Wildberries,Q24933714
137203,wildberries,Wildberries,"г Пермь, Улица Николая Островского 76",,Perm,,RU,,,Mo-Su 10:00-21:00,Wildberries,Q24933714
137431,wildberries,Wildberries,"д Конец-Бор, Тепличная Улица 33",,Perm,,RU,,,Mo-Su 10:00-21:00,Wildberries,Q24933714
137463,wildberries,Wildberries,"с Карагай, Улица Кирова 34б",,Perm,,RU,,,Mo-Su 10:00-21:00,Wildberries,Q24933714
137500,wildberries,Wildberries,"Пермский край, Лысьва, улица Суворова, 30",,Perm,,RU,,,Mo-Su 10:00-21:00,Wildberries,Q24933714
137966,wildberries,Wildberries,"г Пермь, Улица Мира 28",,Perm,,RU,,,Mo-Su 10:00-21:00,Wildberries,Q24933714
138096,wildberries,Wildberries,"г Пермь, Улица Николая Островского 30",,Perm,,RU,,,Mo-Su 10:00-21:00,Wildberries,Q24933714
138148,wildberries,Wildberries,"г Пермь, Улица Ушинского 10",,Perm,,RU,,,Mo-Su 10:00-21:00,Wildberries,Q24933714
138413,wildberries,Wildberries,"г Пермь, Улица Советской Армии 45",,Perm,,RU,,,Mo-Su 10:00-21:00,Wildberries,Q24933714
138661,wildberries,Wildberries,"г Губаха, Улица Орджоникидзе 11",,Perm,,RU,,,Mo-Su 10:00-21:00,Wildberries,Q24933714
138885,wildberries,Wildberries,"с Сива, Комсомольская Улица 7",,Perm,,RU,,,Mo-Su 10:00-21:00,Wildberries,Q24933714
139213,wildberries,Wildberries,"г березники, Юбилейная Улица 46",,Perm,,RU,,,Mo-Su 10:00-21:00,Wildberries,Q24933714
139374,wildberries,Wildberries,"г Пермь, Улица Мира 82",,Perm,,RU,,,Mo-Su 10:00-21:00,Wildberries,Q24933714
139380,wildberries,Wildberries,"пгт Полазна, Улица 50 Лет Октября 6",,Perm,,RU,,,Mo-Su 09:00-21:00,Wildberries,Q24933714
139542,wildberries,Wildberries,"Чернушка Пермский край, Чернушинский р-н улица Нефтяников 8",,Perm,,RU,,,Mo-Su 10:00-21:00,Wildberries,Q24933714
139824,wildberries,Wildberries,"Пермский край, Чайковский, Советская улица, 22",,Perm,,RU,,,Mo-Su 10:00-21:00,Wildberries,Q24933714
140467,wildberries,Wildberries,"г Пермь, Улица Косякова 11",,Perm,,RU,,,Mo-Su 09:00-21:00,Wildberries,Q24933714
140756,wildberries,Wildberries,"г Пермь, Улица Космонавта Беляева 40д",,Perm,,RU,,,Mo-Su 10:00-21:00,Wildberries,Q24933714
140954,wildberries,Wildberries,"г Пермь, Улица Тимирязева 23",,Perm,,RU,,,Mo-Su 10:00-21:00,Wildberries,Q24933714
140955,wildberries,Wildberries,"г Пермь, Улица Луначарского 99",,Perm,,RU,,,Mo-Su 10:00-21:00,Wildberries,Q24933714
140977,wildberries,Wildberries,"г березники, Улица Черняховского 63",,Perm,,RU,,,Mo-Su 09:00-21:00,Wildberries,Q24933714
141726,wildberries,Wildberries,"с Карагай, Улица Кирова 1б",,Perm,,RU,,,Mo-Su 09:00-20:00,Wildberries,Q24933714
141784,wildberries,Wildberries,"г Пермь, Стахановская Улица 21",,Perm,,RU,,,Mo-Su 10:00-21:00,Wildberries,Q24933714
142177,wildberries,Wildberries,"Оса Пермский край, Осинский р-н улица Генерала Богомягкова 8",,Perm,,RU,,,Mo-Su 10:00-21:00,Wildberries,Q24933714
142364,wildberries,Wildberries,"г Пермь, Парковый Проспект 3/1",,Perm,,RU,,,Mo-Su 10:00-21:00,Wildberries,Q24933714
142577,wildberries,Wildberries,"г Пермь, Улица Капитана Гастелло 8",,Perm,,RU,,,Mo-Su 10:00-21:00,Wildberries,Q24933714
142671,wildberries,Wildberries,"п Гайны, Улица Дзержинского 27",,Perm,,RU,,,Mo-Su 09:00-20:00,Wildberries,Q24933714
142697,wildberries,Wildberries,"г березники, Улица Мира 28",,Perm,,RU,,,Mo-Su 10:00-21:00,Wildberries,Q24933714
143324,wildberries,Wildberries,"г Пермь, Улица Малышева 3",,Perm,,RU,,,Mo-Su 10:00-21:00,Wildberries,Q24933714
143538,wildberries,Wildberries,"Пермь Пермский край, городской округ Пермь Рабоче-Крестьянская улица 6",,Perm,,RU,,,Mo-Su 08:00-22:00,Wildberries,Q24933714
143559,wildberries,Wildberries,"г Пермь, Улица Маршала Рыбалко 43а",,Perm,,RU,,,Mo-Su 10:00-21:00,Wildberries,Q24933714
143693,wildberries,Wildberries,"г Краснокамск, Улица Энтузиастов 7",,Perm,,RU,,,Mo-Su 10:00-21:00,Wildberries,Q24933714
144467,wildberries,Wildberries,"г Губаха, Проспект Ленина 20",,Perm,,RU,,,Mo-Su 10:00-21:00,Wildberries,Q24933714
145465,wildberries,Wildberries,"г Пермь, Улица Малкова 26",,Perm,,RU,,,Mo-Su 10:00-21:00,Wildberries,Q24933714
145760,wildberries,Wildberries,"Пермский край, Пермь, Сапфирная улица, 14",,Perm,,RU,,,Mo-Su 10:00-21:00,Wildberries,Q24933714
145770,wildberries,Wildberries,"г Пермь, Улица Костычева 32",,Perm,,RU,,,Mo-Su 09:00-21:00,Wildberries,Q24933714
145934,wildberries,Wildberries,"г Пермь, Улица Писарева 29а",,Perm,,RU,,,Mo-Su 10:00-21:00,Wildberries,Q24933714
147547,wildberries,Wildberries,Гремячинск Пермский край улица Попова 7,,Perm,,RU,,,Mo-Su 10:00-21:00,Wildberries,Q24933714
148567,wildberries,Wildberries,"г Пермь, Улица Академика Веденеева 29",,Perm,,RU,,,Mo-Su 09:00-20:00,Wildberries,Q24933714
148690,wildberries,Wildberries,"г Кудымкар, Улица Герцена 57",,Perm,,RU,,,Mo-Su 09:00-21:00,Wildberries,Q24933714
148728,wildberries,Wildberries,"г Пермь, Красавинская Улица 10",,Perm,,RU,,,Mo-Su 10:00-21:00,Wildberries,Q24933714
149385,wildberries,Wildberries,"с Усть-Качка, Улица Победы 18",,Perm,,RU,,,Mo-Su 10:00-21:00,Wildberries,Q24933714
149839,wildberries,Wildberries,"с Култаево, Снежная Улица 7/1",,Perm,,RU,,,Mo-Su 10:00-21:00,Wildberries,Q24933714
150331,wildberries,Wildberries,"г Краснокамск, Большевистская Улица 12",,Perm,,RU,,,Mo-Su 10:00-21:00,Wildberries,Q24933714
150334,wildberries,Wildberries,"г Пермь, Улица Глеба Успенского 17",,Perm,,RU,,,Mo-Su 10:00-21:00,Wildberries,Q24933714
150439,wildberries,Wildberries,"г Пермь, Улица Макаренко 6",,Perm,,RU,,,Mo-Su 10:00-21:00,Wildberries,Q24933714
150700,wildberries,Wildberries,"г Пермь, Улица Лебедева 35",,Perm,,RU,,,Mo-Su 09:00-21:00,Wildberries,Q24933714
150756,wildberries,Wildberries,"пгт Углеуральский, Улица Мира 36",,Perm,,RU,,,Mo-Su 10:00-21:00,Wildberries,Q24933714
150799,wildberries,Wildberries,"г Пермь, Улица Пушкина 66",,Perm,,RU,,,Mo-Su 10:00-21:00,Wildberries,Q24933714
151822,wildberries,Wildberries,"г Пермь, 1-Я Колхозная Улица 4",,Perm,,RU,,,Mo-Su 09:00-21:00,Wildberries,Q24933714
152319,wildberries,Wildberries,"Чернушка Пермский край, Чернушинский р-н Ленина 97",,Perm,,RU,,,Mo-Su 10:00-21:00,Wildberries,Q24933714
153125,wildberries,Wildberries,"г Пермь, Шоссе Космонавтов 114",,Perm,,RU,,,Mo-Su 10:00-21:00,Wildberries,Q24933714
153231,wildberries,Wildberries,"г Александровск, Улица Ленина 32",,Perm,,RU,,,Mo-Su 10:00-21:00,Wildberries,Q24933714
153298,wildberries,Wildberries,"г Пермь, Боровая Улица 28",,Perm,,RU,,,Mo-Su 10:00-21:00,Wildberries,Q24933714
153335,wildberries,Wildberries,"г березники, Набережная Улица 41а",,Perm,,RU,,,Mo-Su 10:00-21:00,Wildberries,Q24933714
153455,wildberries,Wildberries,"г Пермь, Сапфирная Улица 12",,Perm,,RU,,,Mo-Su 10:00-21:00,Wildberries,Q24933714
153658,wildberries,Wildberries,"г Пермь, Улица Генерала Черняховского 47",,Perm,,RU,,,Mo-Su 10:00-22:00,Wildberries,Q24933714
153794,wildberries,Wildberries,"Пермский край, Пермь, Полевая улица, 5",,Perm,,RU,,,Mo-Su 10:00-21:00,Wildberries,Q24933714
153796,wildberries,Wildberries,"Пермский край, Пермь, улица Яблочкова, 17/2",,Perm,,RU,,,Mo-Su 10:00-21:00,Wildberries,Q24933714
153803,wildberries,Wildberries,"г березники, Улица Олега Кошевого 6",,Perm,,RU,,,Mo-Su 10:00-21:00,Wildberries,Q24933714
153956,wildberries,Wildberries,"Пермский край, Пермь, улица Космонавта Леонова, 68",,Perm,,RU,,,Mo-Su 10:00-21:00,Wildberries,Q24933714
153974,wildberries,Wildberries,"Пермский край, Пермь, Краснофлотская улица, 11/1",,Perm,,RU,,,Mo-Su 10:00-21:00,Wildberries,Q24933714
154359,wildberries,Wildberries,"с Култаево, Октябрьская Улица 18",,Perm,,RU,,,Mo-Su 10:00-21:00,Wildberries,Q24933714
154642,wildberries,Wildberries,"г Красновишерск, Улица Дзержинского 8",,Perm,,RU,,,Mo-Su 10:00-21:00,Wildberries,Q24933714
154729,wildberries,Wildberries,"г Пермь, Улица Космонавта Леонова 49",,Perm,,RU,,,Mo-Su 10:00-21:00,Wildberries,Q24933714
155121,wildberries,Wildberries,"г Пермь, Улица Адмирала Ушакова 18",,Perm,,RU,,,Mo-Su 10:00-21:00,Wildberries,Q24933714
155128,wildberries,Wildberries,"г Пермь, Баранчинская Улица 2",,Perm,,RU,,,Mo-Su 10:00-21:00,Wildberries,Q24933714
155231,wildberries,Wildberries,"г Пермь, Хабаровская Улица 254",,Perm,,RU,,,Mo-Su 10:00-21:00,Wildberries,Q24933714
155289,wildberries,Wildberries,"Пермский край, Пермь, Подольская улица, 33",,Perm,,RU,,,Mo-Su 10:00-21:00,Wildberries,Q24933714
155652,wildberries,Wildberries,"г Лысьва, Улица Смышляева 4",,Perm,,RU,,,Mo-Su 09:00-21:00,Wildberries,Q24933714
156673,wildberries,Wildberries,"г Добрянка, Улица Карла Маркса 82/3",,Perm,,RU,,,Mo-Su 10:00-21:00,Wildberries,Q24933714
157410,wildberries,Wildberries,"с Частые, Улица Ленина 37г",,Perm,,RU,,,Mo-Su 09:00-21:00,Wildberries,Q24933714
157453,wildberries,Wildberries,"г Нытва, Улица Завьялова 3",,Perm,,RU,,,Mo-Su 10:00-21:00,Wildberries,Q24933714
157908,wildberries,Wildberries,"г Пермь, Сестрорецкая Улица 20",,Perm,,RU,,,Mo-Su 10:00-22:00,Wildberries,Q24933714
157927,wildberries,Wildberries,"г Лысьва, Улица Смышляева 49/1",,Perm,,RU,,,Mo-Su 09:00-21:00,Wildberries,Q24933714
158032,wildberries,Wildberries,"п Куеда, Улица Ленина 17",,Perm,,RU,,,Mo-Su 09:00-21:00,Wildberries,Q24933714
158080,wildberries,Wildberries,"г Пермь, Комсомольский Проспект 65",,Perm,,RU,,,Mo-Su 10:00-21:00,Wildberries,Q24933714
158216,wildberries,Wildberries,"г Соликамск, Улица 20-Летия Победы 185",,Perm,,RU,,,Mo-Su 10:00-21:00,Wildberries,Q24933714
158536,wildberries,Wildberries,"г Гремячинск, Улица Ленина 172",,Perm,,RU,,,Mo-Su 10:00-21:00,Wildberries,Q24933714
158595,wildberries,Wildberries,"г Оса, Октябрьская Улица 21",,Perm,,RU,,,Mo-Su 09:00-21:00,Wildberries,Q24933714
158848,wildberries,Wildberries,"г березники, Улица Парижской Коммуны 54",,Perm,,RU,,,Mo-Su 09:00-21:00,Wildberries,Q24933714
159064,wildberries,Wildberries,"г Пермь, Самаркандская Улица 147",,Perm,,RU,,,Mo-Su 10:00-21:00,Wildberries,Q24933714
159166,wildberries,Wildberries,"г Губаха, Октябрьский Проспект 7а",,Perm,,RU,,,Mo-Su 10:00-21:00,Wildberries,Q24933714
159486,wildberries,Wildberries,Кизел Пермский край улица Ленина 32,,Perm,,RU,,,Mo-Su 10:00-21:00,Wildberries,Q24933714
159522,wildberries,Wildberries,"г Пермь, Цимлянская Улица 23",,Perm,,RU,,,Mo-Su 10:00-21:00,Wildberries,Q24933714
159634,wildberries,Wildberries,"г Пермь, Шоссе Космонавтов 347а",,Perm,,RU,,,Mo-Su 10:00-21:00,Wildberries,Q24933714
159674,wildberries,Wildberries,"Пермь Пермский край, городской округ Пермь улица Дружбы 19",,Perm,,RU,,,Mo-Su 10:00-21:00,Wildberries,Q24933714
159979,wildberries,Wildberries,"г Пермь, Парковый Проспект 54/1",,Perm,,RU,,,Mo-Su 10:00-21:00,Wildberries,Q24933714
160098,wildberries,Wildberries,"г Краснокамск, Комсомольский Проспект 11",,Perm,,RU,,,Mo-Su 09:00-21:00,Wildberries,Q24933714
160105,wildberries,Wildberries,"Кунгур Пермский край, Кунгурский муниципальный округ Российская улица 33",,Perm,,RU,,,Mo-Su 10:00-21:00,Wildberries,Q24933714
160130,wildberries,Wildberries,"г Чернушка, Банковский Переулок 2",,Perm,,RU,,,Mo-Su 09:00-21:00,Wildberries,Q24933714
160222,wildberries,Wildberries,"г Лысьва, Улица Репина 33",,Perm,,RU,,,Mo-Su 10:00-21:00,Wildberries,Q24933714
160609,wildberries,Wildberries,"г Пермь, Улица Космонавта Леонова 23",,Perm,,RU,,,Mo-Su 10:00-21:00,Wildberries,Q24933714
160632,wildberries,Wildberries,"Пермский край, Чайковский, Камская улица, 3/1",,Perm,,RU,,,Mo-Su 10:00-21:00,Wildberries,Q24933714
160640,wildberries,Wildberries,"г Пермь, Улица Швецова 41",,Perm,,RU,,,Mo-Su 10:00-21:00,Wildberries,Q24933714
160685,wildberries,Wildberries,"г Пермь, Улица Плеханова 65",,Perm,,RU,,,Mo-Su 10:00-21:00,Wildberries,Q24933714
161278,wildberries,Wildberries,"г Пермь, Стахановская Улица 5",,Perm,,RU,,,Mo-Su 10:00-21:00,Wildberries,Q24933714
161367,wildberries,Wildberries,"Пермский край, село Барда, улица Ленина, 78А",,Perm,,RU,,,Mo-Su 10:00-21:00,Wildberries,Q24933714
161849,wildberries,Wildberries,"Пермский край, Кунгур, улица Карла Маркса, 13",,Perm,,RU,,,Mo-Su 10:00-21:00,Wildberries,Q24933714
162069,wildberries,Wildberries,"г Пермь, Улица Решетникова 24",,Perm,,RU,,,Mo-Su 10:00-21:00,Wildberries,Q24933714
162266,wildberries,Wildberries,"г Пермь, Улица Революции 5/1",,Perm,,RU,,,Mo-Su 10:00-21:00,Wildberries,Q24933714
162329,wildberries,Wildberries,"г Чусовой, Улица 50 Лет ВЛКСМ 7",,Perm,,RU,,,Mo-Su 10:00-21:00,Wildberries,Q24933714
162340,wildberries,Wildberries,"г Верещагино, Улица Карла Маркса 66",,Perm,,RU,,,Mo-Su 10:00-21:00,Wildberries,Q24933714
162414,wildberries,Wildberries,"с Барда, Солнечная Улица 52а",,Perm,,RU,,,Mo-Su 10:00-21:00,Wildberries,Q24933714
162491,wildberries,Wildberries,"п Ферма, Улица Нефтяников 40",,Perm,,RU,,,Mo-Su 10:00-22:00,Wildberries,Q24933714
162500,wildberries,Wildberries,"г Пермь, Серебрянский Проезд 17/1",,Perm,,RU,,,Mo-Su 10:00-21:00,Wildberries,Q24933714
162547,wildberries,Wildberries,"с Юсьва, Красноармейская Улица 15",,Perm,,RU,,,Mo-Su 10:00-21:00,Wildberries,Q24933714
162869,wildberries,Wildberries,"г Пермь, Улица Солдатова 36",,Perm,,RU,,,Mo-Su 10:00-21:00,Wildberries,Q24933714
162938,wildberries,Wildberries,"г Пермь, Фонтанная Улица 1а/1",,Perm,,RU,,,Mo-Su 10:00-21:00,Wildberries,Q24933714
163054,wildberries,Wildberries,"Пермский край, Пермь, Уинская улица, 3А",,Perm,,RU,,,Mo-Su 10:00-21:00,Wildberries,Q24933714
163111,wildberries,Wildberries,"г Пермь, Улица Гашкова 19б",,Perm,,RU,,,Mo-Su 10:00-21:00,Wildberries,Q24933714
163147,wildberries,Wildberries,"г Александровск, Улица Халтурина 6",,Perm,,RU,,,Mo-Su 10:00-21:00,Wildberries,Q24933714
163400,wildberries,Wildberries,"Пермский край, Пермь, улица Карпинского, 73",,Perm,,RU,,,Mo-Su 10:00-21:00,Wildberries,Q24933714
163435,wildberries,Wildberries,"г Пермь, Петропавловская Улица 64",,Perm,,RU,,,Mo-Su 10:00-21:00,Wildberries,Q24933714
163586,wildberries,Wildberries,"г Пермь, Улица Крупской 61",,Perm,,RU,,,Mo-Su 10:00-21:00,Wildberries,Q24933714
163891,wildberries,Wildberries,"г Усолье, Красноармейская Улица 93",,Perm,,RU,,,Mo-Su 10:00-21:00,Wildberries,Q24933714
163943,wildberries,Wildberries,"г Кунгур, Ленская Улица 2а",,Perm,,RU,,,Mo-Su 10:00-21:00,Wildberries,Q24933714
164151,wildberries,Wildberries,"г Пермь, Улица Калинина 30",,Perm,,RU,,,Mo-Su 10:00-21:00,Wildberries,Q24933714
164354,wildberries,Wildberries,"с Лобаново, Центральная Улица 24",,Perm,,RU,,,Mo-Su 09:00-20:00,Wildberries,Q24933714
165575,wildberries,Wildberries,"г Кунгур, Улица Крупской 1а",,Perm,,RU,,,Mo-Su 10:00-21:00,Wildberries,Q24933714
166004,wildberries,Wildberries,"г Пермь, Социалистическая Улица 5",,Perm,,RU,,,Mo-Su 09:00-21:00,Wildberries,Q24933714
166166,wildberries,Wildberries,"г березники, Улица Свердлова 49",,Perm,,RU,,,Mo-Su 10:00-21:00,Wildberries,Q24933714
167033,wildberries,Wildberries,"г Пермь, Улица Чкалова 14",,Perm,,RU,,,Mo-Su 10:00-21:00,Wildberries,Q24933714
167156,wildberries,Wildberries,"тер Сады Краснокамского ГП, Улица 9-Й Пятилетки 8а",,Perm,,RU,,,Mo-Su 09:00-20:00,Wildberries,Q24933714
167288,wildberries,Wildberries,"г Краснокамск, Улица Карла Маркса 34",,Perm,,RU,,,Mo-Su 10:00-21:00,Wildberries,Q24933714
167311,wildberries,Wildberries,"г Кизел, Улица Ленина 47",,Perm,,RU,,,Mo-Su 10:00-21:00,Wildberries,Q24933714
167381,wildberries,Wildberries,"г Пермь, Ласьвинская Улица 51",,Perm,,RU,,,Mo-Su 09:00-21:00,Wildberries,Q24933714
167639,wildberries,Wildberries,"г Пермь, Улица Трясолобова 102",,Perm,,RU,,,Mo-Su 10:00-21:00,Wildberries,Q24933714
167686,wildberries,Wildberries,"с Гамово, Улица 50 Лет Октября 2а",,Perm,,RU,,,Mo-Su 09:00-21:00,Wildberries,Q24933714
167789,wildberries,Wildberries,"Пермский край, Кизел, улица Энгельса, 86",,Perm,,RU,,,Mo-Su 10:00-21:00,Wildberries,Q24933714
168820,wildberries,Wildberries,"г Кунгур, Центральная Улица 17",,Perm,,RU,,,Mo-Su 09:00-21:00,Wildberries,Q24933714
169048,wildberries,Wildberries,"г Нытва, Проспект Ленина 39",,Perm,,RU,,,Mo-Su 10:00-21:00,Wildberries,Q24933714
169067,wildberries,Wildberries,"Суксун Пермский край, Суксунский р-н Колхозная улица зд 35",,Perm,,RU,,,Mo-Su 10:00-21:00,Wildberries,Q24933714
169269,wildberries,Wildberries,"г Пермь, Кавказская Улица 26",,Perm,,RU,,,Mo-Su 10:00-21:00,Wildberries,Q24933714
169286,wildberries,Wildberries,"д Мартьяново, Жемчужная Улица 1",,Perm,,RU,,,Mo-Su 10:00-21:00,Wildberries,Q24933714
169948,wildberries,Wildberries,"г Пермь, Улица Восстания 12",,Perm,,RU,,,Mo-Su 09:00-21:00,Wildberries,Q24933714
170041,wildberries,Wildberries,"г Очер, Улица Ленина 157",,Perm,,RU,,,Mo-Su 10:00-21:00,Wildberries,Q24933714
170388,wildberries,Wildberries,"с Култаево, Сибирская Улица 4б",,Perm,,RU,,,Mo-Su 10:00-21:00,Wildberries,Q24933714
170399,wildberries,Wildberries,"г Кунгур, Улица Свободы 36",,Perm,,RU,,,Mo-Su 10:00-21:00,Wildberries,Q24933714
170879,wildberries,Wildberries,"г Кунгур, Пролетарская Улица 131",,Perm,,RU,,,Mo-Su 09:00-21:00,Wildberries,Q24933714
171289,wildberries,Wildberries,"г Пермь, Ивановская Улица 16",,Perm,,RU,,,Mo-Su 10:00-21:00,Wildberries,Q24933714
171990,wildberries,Wildberries,"рп Суксун, Колхозная Улица 1",,Perm,,RU,,,Mo-Su 09:00-20:00,Wildberries,Q24933714
172056,wildberries,Wildberries,"г Чайковский, Улица Кабалевского 23",,Perm,,RU,,,Mo-Su 10:00-21:00,Wildberries,Q24933714
172224,wildberries,Wildberries,"г Краснокамск, Улица Ленина 10",,Perm,,RU,,,Mo-Su 10:00-21:00,Wildberries,Q24933714
172313,wildberries,Wildberries,"г Пермь, Улица Академика Курчатова 2а",,Perm,,RU,,,Mo-Su 10:00-21:00,Wildberries,Q24933714
172633,wildberries,Wildberries,"г Пермь, Камышловская Улица 21",,Perm,,RU,,,Mo-Su 10:00-21:00,Wildberries,Q24933714
172663,wildberries,Wildberries,"г березники, Советский Проспект 24",,Perm,,RU,,,Mo-Su 10:00-21:00,Wildberries,Q24933714
172750,wildberries,Wildberries,"г Лысьва, Улица Металлистов 26",,Perm,,RU,,,Mo-Su 10:00-21:00,Wildberries,Q24933714
173067,wildberries,Wildberries,"г Пермь, Улица Лодыгина 46/1",,Perm,,RU,,,Mo-Su 10:00-21:00,Wildberries,Q24933714
200299,wildberries,Wildberries,"г Пермь, Хрустальная Улица 10а",,Perm,,RU,,,Mo-Su 10:00-21:00,Wildberries,Q24933714
200400,wildberries,Wildberries,"рабочий посёлок Уральский, Лесная Улица 23/1",,Perm,,RU,,,Mo-Su 10:00-21:00,Wildberries,Q24933714
200555,wildberries,Wildberries,"Пермь, Улица КИМ 17",,Perm,,RU,,,Mo-Su 10:00-21:00,Wildberries,Q24933714
201066,wildberries,Wildberries,"Пермь, Улица Революции 12",,Perm,,RU,,,Mo-Su 10:00-21:00,Wildberries,Q24933714
201324,wildberries,Wildberries,"деревня Кондратово, Камская Улица 1б",,Perm,,RU,,,Mo-Su 10:00-21:00,Wildberries,Q24933714
202549,wildberries,Wildberries,"Пермь, Улица Докучаева 42",,Perm,,RU,,,Mo-Su 10:00-21:00,Wildberries,Q24933714
202798,wildberries,Wildberries,"Пермский край, посёлок Марковский, 58",,Perm,,RU,,,Mo-Su 10:00-21:00,Wildberries,Q24933714
202817,wildberries,Wildberries,"Пермь, Улица Писарева 56б",,Perm,,RU,,,Mo-Su 10:00-21:00,Wildberries,Q24933714
202820,wildberries,Wildberries,"Пермский край, рабочий посёлок Павловский, Павловская улица, 36",,Perm,,RU,,,Mo-Su 10:00-21:00,Wildberries,Q24933714
202828,wildberries,Wildberries,"Пермский край, посёлок Зюкайка, улица Пугачёва, 42",,Perm,,RU,,,Mo-Su 10:00-21:00,Wildberries,Q24933714
202829,wildberries,Wildberries,"Пермский край, деревня Савино, Молодёжная улица, 11",,Perm,,RU,,,Mo-Su 10:00-21:00,Wildberries,Q24933714
203077,wildberries,Wildberries,"Лысьва, Улица Федосеева 45",,Perm,,RU,,,Mo-Su 10:00-21:00,Wildberries,Q24933714
203145,wildberries,Wildberries,"Пермский край, Усолье, улица Леонова, 19",,Perm,,RU,,,Mo-Su 10:00-21:00,Wildberries,Q24933714
203165,wildberries,Wildberries,"посёлок городского типа Полазна, Улица Дружбы 4в",,Perm,,RU,,,Mo-Su 10:00-21:00,Wildberries,Q24933714
203196,wildberries,Wildberries,"Пермь, Пушкарская Улица 100",,Perm,,RU,,,Mo-Su 10:00-22:00,Wildberries,Q24933714
203395,wildberries,Wildberries,"Лысьва, Проспект Победы 25/2",,Perm,,RU,,,Mo-Su 10:00-21:00,Wildberries,Q24933714
203723,wildberries,Wildberries,"г Горнозаводск, Улица Свердлова 63",,Perm,,RU,,,Mo-Su 10:00-21:00,Wildberries,Q24933714
204578,wildberries,Wildberries,"Пермь, Улица Малкова 26",,Perm,,RU,,,Mo-Su 09:00-21:00,Wildberries,Q24933714
204744,wildberries,Wildberries,"Березники, Юбилейная Улица 31",,Perm,,RU,,,Mo-Su 10:00-21:00,Wildberries,Q24933714
205341,wildberries,Wildberries,"Березники, Улица Ивана Дощеникова 12",,Perm,,RU,,,Mo-Su 10:00-21:00,Wildberries,Q24933714
206439,wildberries,Wildberries,"Пермский край, Чайковский, Вокзальная улица, 29",,Perm,,RU,,,Mo-Su 10:00-21:00,Wildberries,Q24933714
206620,wildberries,Wildberries,"Пермский край, Кунгур, улица Мамонтова, 31",,Perm,,RU,,,Mo-Su 10:00-21:00,Wildberries,Q24933714
207086,wildberries,Wildberries,"Пермский край, посёлок городского типа Звёздный, улица Ленина, 2/1",,Perm,,RU,,,Mo-Su 10:00-21:00,Wildberries,Q24933714
207245,wildberries,Wildberries,"Пермский край, Березники, улица Пятилетки, 146",,Perm,,RU,,,Mo-Su 10:00-21:00,Wildberries,Q24933714
207264,wildberries,Wildberries,"Пермь, Улица Советской Армии 6",,Perm,,RU,,,Mo-Su 09:00-21:00,Wildberries,Q24933714
207315,wildberries,Wildberries,"посёлок Сылва, Улица Мичурина 31б",,Perm,,RU,,,Mo-Su 09:00-21:00,Wildberries,Q24933714
207576,wildberries,Wildberries,"Пермский край, Горнозаводск, улица 30 лет Победы, 18",,Perm,,RU,,,Mo-Su 10:00-21:00,Wildberries,Q24933714
207594,wildberries,Wildberries,"Пермский край, рабочий посёлок Яйва, улица 6-й Пятилетки, 16",,Perm,,RU,,,Mo-Su 10:00-21:00,Wildberries,Q24933714
207674,wildberries,Wildberries,"Пермь, Улица Снайперов 8",,Perm,,RU,,,Mo-Su 10:00-21:00,Wildberries,Q24933714
207756,wildberries,Wildberries,"Пермский край, Верещагино, Комсомольская улица, 74А",,Perm,,RU,,,Mo-Su 10:00-21:00,Wildberries,Q24933714
207880,wildberries,Wildberries,"Пермский край, посёлок Майкор, улица Ленина, 69А",,Perm,,RU,,,Mo-Su 10:00-21:00,Wildberries,Q24933714
208141,wildberries,Wildberries,"Кудымкар, Улица Калинина 53",,Perm,,RU,,,Mo-Su 09:00-21:00,Wildberries,Q24933714
208155,wildberries,Wildberries,"Пермский край, село Фролы, Весенняя улица, 38",,Perm,,RU,,,Mo-Su 10:00-21:00,Wildberries,Q24933714
208371,wildberries,Wildberries,"Пермский край, Верещагино, улица 12 Декабря, 91",,Perm,,RU,,,Mo-Su 10:00-21:00,Wildberries,Q24933714
208891,wildberries,Wildberries,"Пермский край, посёлок Ильинский, Парковая улица, 86",,Perm,,RU,,,Mo-Su 10:00-21:00,Wildberries,Q24933714
209169,wildberries,Wildberries,"Пермский край, Чайковский, улица Ленина, 28",,Perm,,RU,,,Mo-Su 10:00-21:00,Wildberries,Q24933714
209685,wildberries,Wildberries,"Пермский край, Добрянка, улица Победы, 29",,Perm,,RU,,,Mo-Su 10:00-21:00,Wildberries,Q24933714
209742,wildberries,Wildberries,"Пермь, Улица Мильчакова 5",,Perm,,RU,,,Mo-Su 10:00-21:00,Wildberries,Q24933714
209840,wildberries,Wildberries,"село Ленск, Улица Ленина 59",,Perm,,RU,,,Mo-Su 10:00-21:00,Wildberries,Q24933714
209858,wildberries,Wildberries,"Пермь, Улица Фрезеровщиков 86",,Perm,,RU,,,Mo-Su 10:00-21:00,Wildberries,Q24933714
210034,wildberries,Wildberries,"Пермский край, посёлок городского типа Оверята, Молодёжная улица, 1",,Perm,,RU,,,Mo-Su 10:00-21:00,Wildberries,Q24933714
210063,wildberries,Wildberries,"Пермский край, Пермь, Гайвинская улица, 28",,Perm,,RU,,,Mo-Su 10:00-21:00,Wildberries,Q24933714
210116,wildberries,Wildberries,"Пермь, Улица Революции 52",,Perm,,RU,,,Mo-Su 10:00-21:00,Wildberries,Q24933714
210158,wildberries,Wildberries,"Пермь, Кировоградская Улица 12/2",,Perm,,RU,,,Mo-Su 10:00-21:00,Wildberries,Q24933714
210553,wildberries,Wildberries,"Пермь, Улица Мира 66",,Perm,,RU,,,Mo-Su 10:00-22:00,Wildberries,Q24933714
210775,wildberries,Wildberries,"село Филипповка, Село Филипповка 49",,Perm,,RU,,,Mo-Su 10:00-21:00,Wildberries,Q24933714
211090,wildberries,Wildberries,"Пермский край, посёлок Куеда, Комсомольская улица, 10А",,Perm,,RU,,,Mo-Su 10:00-21:00,Wildberries,Q24933714
211407,wildberries,Wildberries,"Пермский край, Березники, улица Мира, 39",,Perm,,RU,,,Mo-Su 10:00-21:00,Wildberries,Q24933714
211686,wildberries,Wildberries,"Пермь, Улица Маршала Толбухина 15",,Perm,,RU,,,Mo-Su 10:00-21:00,Wildberries,Q24933714
212012,wildberries,Wildberries,"Пермский край, Соликамск, улица Матросова, 20к1",,Perm,,RU,,,Mo-Su 10:00-21:00,Wildberries,Q24933714
212102,wildberries,Wildberries,"посёлок Дивья, Почтовый Переулок 2",,Perm,,RU,,,Mo-Su 09:00-21:00,Wildberries,Q24933714
212223,wildberries,Wildberries,"Пермский край, посёлок Юго-Камский, улица Энгельса, 11",,Perm,,RU,,,Mo-Su 10:00-21:00,Wildberries,Q24933714
212224,wildberries,Wildberries,"Пермский край, Чернушка, переулок Трактористов, 18",,Perm,,RU,,,Mo-Su 10:00-21:00,Wildberries,Q24933714
212581,wildberries,Wildberries,"Пермский край, Чусовой, Лысьвенская улица, 83",,Perm,,RU,,,Mo-Su 10:00-21:00,Wildberries,Q24933714
212783,wildberries,Wildberries,"село Уинское, Заречная Улица 2",,Perm,,RU,,,Mo-Su 10:00-21:00,Wildberries,Q24933714
212977,wildberries,Wildberries,"Пермский край, Пермь, улица Архитектора Свиязева, 48",,Perm,,RU,,,Mo-Su 10:00-21:00,Wildberries,Q24933714
213178,wildberries,Wildberries,"Пермь, Екатерининская Улица 163",,Perm,,RU,,,Mo-Su 10:00-21:00,Wildberries,Q24933714
213618,wildberries,Wildberries,"Пермский край, Чернушка, улица Ленина, 2",,Perm,,RU,,,Mo-Su 10:00-21:00,Wildberries,Q24933714
213738,wildberries,Wildberries,"Пермь, Улица Гашкова 24",,Perm,,RU,,,Mo-Su 10:00-21:00,Wildberries,Q24933714
213932,wildberries,Wildberries,"Пермь, Шоссе Космонавтов 110",,Perm,,RU,,,Mo-Su 10:00-21:00,Wildberries,Q24933714
213950,wildberries,Wildberries,"Пермский край, село Орда, Новая улица, 3",,Perm,,RU,,,Mo-Su 10:00-21:00,Wildberries,Q24933714
214125,wildberries,Wildberries,"село Сараши, Улица Ленина 26",,Perm,,RU,,,Mo-Su 10:00-21:00,Wildberries,Q24933714
214412,wildberries,Wildberries,"Пермь, Улица Карбышева 6",,Perm,,RU,,,Mo-Su 10:00-21:00,Wildberries,Q24933714
214651,wildberries,Wildberries,"Березники, Улица Пятилетки 90",,Perm,,RU,,,Mo-Su 10:00-21:00,Wildberries,Q24933714
214676,wildberries,Wildberries,"Березники, Юбилейная Улица 77",,Perm,,RU,,,Mo-Su 10:00-21:00,Wildberries,Q24933714
214790,wildberries,Wildberries,"Пермский край, Губаха, Октябрьский проспект, 11",,Perm,,RU,,,Mo-Su 10:00-21:00,Wildberries,Q24933714
215149,wildberries,Wildberries,"Пермский край, Пермь, улица Гусарова, 5Б",,Perm,,RU,,,Mo-Su 10:00-21:00,Wildberries,Q24933714
215190,wildberries,Wildberries,"Пермь, Улица Пушкина 6",,Perm,,RU,,,Mo-Su 10:00-21:00,Wildberries,Q24933714
215204,wildberries,Wildberries,"Пермский край, Красновишерск, улица Дзержинского, 44",,Perm,,RU,,,Mo-Su 10:00-21:00,Wildberries,Q24933714
215344,wildberries,Wildberries,"Пермь, Улица Веры Засулич 46",,Perm,,RU,,,Mo-Su 09:00-21:00,Wildberries,Q24933714
215350,wildberries,Wildberries,"село Ключи, Переулок Золина 29",,Perm,,RU,,,Mo-Su 10:00-21:00,Wildberries,Q24933714
215430,wildberries,Wildberries,"Пермский край, Чайковский, улица Ленина, 70",,Perm,,RU,,,Mo-Su 10:00-21:00,Wildberries,Q24933714
215493,wildberries,Wildberries,"село Берёзовка, Улица Свободы 25а",,Perm,,RU,,,Mo-Su 09:00-21:00,Wildberries,Q24933714
215543,wildberries,Wildberries,"Пермский край, село Усть-Кишерть, Сылвенская улица, 12А",,Perm,,RU,,,Mo-Su 10:00-21:00,Wildberries,Q24933714
215567,wildberries,Wildberries,"Пермь, Улица Пушкина 109",,Perm,,RU,,,Mo-Su 10:00-21:00,Wildberries,Q24933714
215583,wildberries,Wildberries,"Соликамск, Юбилейный Проспект 57б",,Perm,,RU,,,Mo-Su 10:00-21:00,Wildberries,Q24933714
215827,wildberries,Wildberries,"коттеджный посёлок Южный ветер, Первоцветная Улица 109",,Perm,,RU,,,Mo-Su 10:00-21:00,Wildberries,Q24933714
215907,wildberries,Wildberries,"Соликамск, Северная Улица 27",,Perm,,RU,,,Mo-Su 10:00-21:00,Wildberries,Q24933714
215988,wildberries,Wildberries,"Пермский край, Пермь, Данилихинская улица, 16",,Perm,,RU,,,Mo-Su 10:00-21:00,Wildberries,Q24933714
216106,wildberries,Wildberries,"Пермь, Улица Клары Цеткин 27а",,Perm,,RU,,,Mo-Su 10:00-21:00,Wildberries,Q24933714
216371,wildberries,Wildberries,"Пермь, Улица Татьяны Барамзиной 38",,Perm,,RU,,,Mo-Su 10:00-21:00,Wildberries,Q24933714
216473,wildberries,Wildberries,"Пермь, Улица Газеты Звезда 12а",,Perm,,RU,,,Mo-Su 10:00-21:00,Wildberries,Q24933714
216549,wildberries,Wildberries,"Соликамск, Молодёжная Улица 31",,Perm,,RU,,,Mo-Su 10:00-21:00,Wildberries,Q24933714
216829,wildberries,Wildberries,"Пермский край, село Нижние Муллы, Трактовая улица, 7",,Perm,,RU,,,Mo-Su 10:00-21:00,Wildberries,Q24933714
216831,wildberries,Wildberries,"Березники, Комсомольская Улица 2",,Perm,,RU,,,Mo-Su 10:00-21:00,Wildberries,Q24933714
217032,wildberries,Wildberries,"Пермский край, Пермь, Запорожская улица, 182",,Perm,,RU,,,Mo-Su 10:00-21:00,Wildberries,Q24933714
217051,wildberries,Wildberries,"Пермь, Нейвинская Улица 14а",,Perm,,RU,,,Mo-Su 10:00-21:00,Wildberries,Q24933714
217239,wildberries,Wildberries,"село Коса, Улица Ленина 104",,Perm,,RU,,,Mo-Su 10:00-21:00,Wildberries,Q24933714
217582,wildberries,Wildberries,"Пермь, Улица Связистов 24",,Perm,,RU,,,Mo-Su 10:00-21:00,Wildberries,Q24933714
217876,wildberries,Wildberries,"Пермь, Комсомольская Улица 1",,Perm,,RU,,,Mo-Su 10:00-21:00,Wildberries,Q24933714
218039,wildberries,Wildberries,"рабочий посёлок Ныроб, Улица Уждавиниса 9",,Perm,,RU,,,Mo-Su 10:00-21:00,Wildberries,Q24933714
218220,wildberries,Wildberries,"Пермский край, Соликамск, улица Черняховского, 12",,Perm,,RU,,,Mo-Su 10:00-21:00,Wildberries,Q24933714
218420,wildberries,Wildberries,"рабочий посёлок Ныроб, Улица Ворошилова 71",,Perm,,RU,,,Mo-Su 10:00-21:00,Wildberries,Q24933714
218426,wildberries,Wildberries,"Березники, Юбилейная Улица 72",,Perm,,RU,,,Mo-Su 10:00-21:00,Wildberries,Q24933714
218799,wildberries,Wildberries,"Пермский край, Пермь, Ласьвинская улица, 60А",,Perm,,RU,,,Mo-Su 10:00-21:00,Wildberries,Q24933714
300419,wildberries,Wildberries,"Пермский край, село Фоки, улица Кирова, 25",,Perm,,RU,,,Mo-Su 10:00-21:00,Wildberries,Q24933714
301121,wildberries,Wildberries,"рабочий посёлок Пашия, Свердловская Улица 29",,Perm,,RU,,,Mo-Su 10:00-21:00,Wildberries,Q24933714
301411,wildberries,Wildberries,"Пермский край, село Бичурино, улица Ленина, 43",,Perm,,RU,,,Mo-Su 10:00-21:00,Wildberries,Q24933714
302072,wildberries,Wildberries,"село Сива, Улица Ленина 61",,Perm,,RU,,,Mo-Su 09:00-21:00,Wildberries,Q24933714
302250,wildberries,Wildberries,"Пермский край, Пермь, улица Маршала Рыбалко, 38",,Perm,,RU,,,Mo-Su 10:00-21:00,Wildberries,Q24933714
302258,wildberries,Wildberries,"Пермский край, деревня Песьянка, улица Строителей, 8А",,Perm,,RU,,,Mo-Su 10:00-21:00,Wildberries,Q24933714
302551,wildberries,Wildberries,"село Острожка, Советская Улица 18",,Perm,,RU,,,Mo-Su 10:00-21:00,Wildberries,Q24933714
302604,wildberries,Wildberries,"Чёрмоз, Улица Матросова 12",,Perm,,RU,,,Mo-Su 10:00-21:00,Wildberries,Q24933714
302846,wildberries,Wildberries,"Пермский край, Кунгур, улица Гоголя, 15",,Perm,,RU,,,Mo-Su 10:00-21:00,Wildberries,Q24933714
302888,wildberries,Wildberries,"посёлок Северный Коммунар, Улица Нечаева 1",,Perm,,RU,,,Mo-Su 10:00-21:00,Wildberries,Q24933714
302979,wildberries,Wildberries,"село Юрла, Улица Свердлова 31а",,Perm,,RU,,,Mo-Su 10:00-21:00,Wildberries,Q24933714
303051,wildberries,Wildberries,"Пермский край, Пермь, Новосибирская улица, 17",,Perm,,RU,,,Mo-Su 10:00-21:00,Wildberries,Q24933714
303056,wildberries,Wildberries,"Пермский край, Пермь, улица Яблочкова, 38Б",,Perm,,RU,,,Mo-Su 10:00-21:00,Wildberries,Q24933714
303059,wildberries,Wildberries,"село Верх-Иньва, Улица Старцева 7",,Perm,,RU,,,Mo-Su 10:00-21:00,Wildberries,Q24933714
303167,wildberries,Wildberries,"Пермский край, Пермь, улица Маршала Рыбалко, 101",,Perm,,RU,,,Mo-Su 08:00-22:00,Wildberries,Q24933714
303220,wildberries,Wildberries,"Пермский край, Горнозаводск, улица Красных Партизан, 12",,Perm,,RU,,,Mo-Su 10:00-21:00,Wildberries,Q24933714
303270,wildberries,Wildberries,"Пермский край, рабочий посёлок Октябрьский, улица Ленина, 71",,Perm,,RU,,,Mo-Su 08:00-22:00,Wildberries,Q24933714
303334,wildberries,Wildberries,"Пермский край, Пермь, улица Репина, 71",,Perm,,RU,,,Mo-Su 10:00-21:00,Wildberries,Q24933714
303487,wildberries,Wildberries,"Пермский край, село Мысы, Пролетарская улица, 40",,Perm,,RU,,,Mo-Su 10:00-21:00,Wildberries,Q24933714
303696,wildberries,Wildberries,"Пермский край, Чусовой, улица Чайковского, 12",,Perm,,RU,,,Mo-Su 08:00-22:00,Wildberries,Q24933714
303853,wildberries,Wildberries,"Пермский край, Пермь, Химградская улица, 3",,Perm,,RU,,,Mo-Su 10:00-21:00,Wildberries,Q24933714
303889,wildberries,Wildberries,"посёлок Железнодорожный, Улица 35 Лет Победы 5",,Perm,,RU,,,Mo-Su 10:00-21:00,Wildberries,Q24933714
303902,wildberries,Wildberries,"село Платошино, Улица Владимирова 21",,Perm,,RU,,,Mo-Su 10:00-21:00,Wildberries,Q24933714
303925,wildberries,Wildberries,"посёлок Комсомольский, Спортивная Улица 1",,Perm,,RU,,,Mo-Su 10:00-21:00,Wildberries,Q24933714
304075,wildberries,Wildberries,"село Родники, Молодёжная Улица 1",,Perm,,RU,,,Mo-Su 10:00-21:00,Wildberries,Q24933714
304081,wildberries,Wildberries,"Пермь, Улица Маршала Рыбалко 12а",,Perm,,RU,,,Mo-Su 10:00-21:00,Wildberries,Q24933714
304093,wildberries,Wildberries,"Пермь, Улица Мира 115б",,Perm,,RU,,,Mo-Su 10:00-21:00,Wildberries,Q24933714
304138,wildberries,Wildberries,"село Краснояр-I, Улица Ленина 157б",,Perm,,RU,,,Mo-Su 10:00-21:00,Wildberries,Q24933714
304248,wildberries,Wildberries,"Пермь, Улица Маршала Рыбалко 2",,Perm,,RU,,,Mo-Su 09:00-21:00,Wildberries,Q24933714
304255,wildberries,Wildberries,"Пермь, Улица Маршала Рыбалко 30",,Perm,,RU,,,Mo-Su 09:00-21:00,Wildberries,Q24933714
304370,wildberries,Wildberries,"Пермский край, Добрянка, улица Победы, 47",,Perm,,RU,,,Mo-Su 10:00-21:00,Wildberries,Q24933714
304387,wildberries,Wildberries,"Пермь, Ветлужская Улица 125",,Perm,,RU,,,Mo-Su 10:00-21:00,Wildberries,Q24933714
304398,wildberries,Wildberries,"рабочий посёлок Суксун, Улица Карла Маркса 24",,Perm,,RU,,,Mo-Su 10:00-21:00,Wildberries,Q24933714
304404,wildberries,Wildberries,"Пермь, Парковый Проспект 8",,Perm,,RU,,,Mo-Su 10:00-21:00,Wildberries,Q24933714
304419,wildberries,Wildberries,"село Черновское, Улица Ленина 19",,Perm,,RU,,,Mo-Su 10:00-21:00,Wildberries,Q24933714
304500,wildberries,Wildberries,"посёлок Пожва, Торговая Улица 2/2",,Perm,,RU,,,Mo-Su 10:00-21:00,Wildberries,Q24933714
304613,wildberries,Wildberries,"Соликамск, Северная Улица 50",,Perm,,RU,,,Mo-Su 10:00-21:00,Wildberries,Q24933714
304614,wildberries,Wildberries,"село Елпачиха, Улица Ленина 36",,Perm,,RU,,,Mo-Su 10:00-21:00,Wildberries,Q24933714
304900,wildberries,Wildberries,"Березники, Строгановский Бульвар 13",,Perm,,RU,,,Mo-Su 10:00-21:00,Wildberries,Q24933714
304983,wildberries,Wildberries,"село Ольховка, Школьная Улица 6",,Perm,,RU,,,Mo-Su 10:00-21:00,Wildberries,Q24933714
305112,wildberries,Wildberries,"Пермский край, Пермь, улица Сергея Есенина, 7А",,Perm,,RU,,,Mo-Su 10:00-21:00,Wildberries,Q24933714
305142,wildberries,Wildberries,"Пермский край, село Большой Гондыр, улица Ленина, 53А",,Perm,,RU,,,Mo-Su 10:00-21:00,Wildberries,Q24933714
305187,wildberries,Wildberries,"Пермский край, посёлок Куеда, Школьная улица, 45",,Perm,,RU,,,Mo-Su 10:00-21:00,Wildberries,Q24933714
305326,wildberries,Wildberries,"село Тохтуева, Улица Мира 12",,Perm,,RU,,,Mo-Su 10:00-21:00,Wildberries,Q24933714
305468,wildberries,Wildberries,"село Буб, Бубинская Улица 14",,Perm,,RU,,,Mo-Su 10:00-21:00,Wildberries,Q24933714
305708,wildberries,Wildberries,"Пермский край, Пермь, бульвар Гагарина, 97",,Perm,,RU,,,Mo-Su 10:00-21:00,Wildberries,Q24933714
305761,wildberries,Wildberries,"Пермский край, Кунгур, улица Свободы, 63",,Perm,,RU,,,Mo-Su 10:00-21:00,Wildberries,Q24933714
305796,wildberries,Wildberries,"Пермский край, Пермь, Молдавская улица, 4А",,Perm,,RU,,,Mo-Su 10:00-21:00,Wildberries,Q24933714
305797,wildberries,Wildberries,"Пермский край, Пермь, улица Адмирала Ушакова, 32",,Perm,,RU,,,Mo-Su 10:00-21:00,Wildberries,Q24933714
305826,wildberries,Wildberries,"Лысьва, Улица Гайдара 30",,Perm,,RU,,,Mo-Su 10:00-21:00,Wildberries,Q24933714
305929,wildberries,Wildberries,"село Богородск, Советская Улица 74",,Perm,,RU,,,Mo-Su 10:00-21:00,Wildberries,Q24933714
306002,wildberries,Wildberries,"Пермь, Закамская Улица 35",,Perm,,RU,,,Mo-Su 10:00-21:00,Wildberries,Q24933714
306034,wildberries,Wildberries,"Пермский край, Краснокамск, улица Калинина, 22",,Perm,,RU,,,Mo-Su 10:00-21:00,Wildberries,Q24933714
306270,wildberries,Wildberries,"Пермь, Улица Героев Хасана 11",,Perm,,RU,,,Mo-Su 10:00-21:00,Wildberries,Q24933714
306300,wildberries,Wildberries,"Пермский край, Пермь, улица Добролюбова, 18",,Perm,,RU,,,Mo-Su 10:00-21:00,Wildberries,Q24933714
306346,wildberries,Wildberries,"Березники, Улица Пятилетки 114а",,Perm,,RU,,,Mo-Su 10:00-21:00,Wildberries,Q24933714
306352,wildberries,Wildberries,"Соликамск, Улица Цифриновича 21",,Perm,,RU,,,Mo-Su 10:00-21:00,Wildberries,Q24933714
306357,wildberries,Wildberries,"село Фролы, Весенняя Улица 8",,Perm,,RU,,,Mo-Su 10:00-21:00,Wildberries,Q24933714
306458,wildberries,Wildberries,"посёлок Шадейка, Советская Улица 3",,Perm,,RU,,,Mo-Su 10:00-21:00,Wildberries,Q24933714
306571,wildberries,Wildberries,"рабочий посёлок Новоильинский, Улица Ленина 73",,Perm,,RU,,,Mo-Su 10:00-21:00,Wildberries,Q24933714
306694,wildberries,Wildberries,"Пермь, Буксирная Улица 13а",,Perm,,RU,,,Mo-Su 10:00-21:00,Wildberries,Q24933714
306759,wildberries,Wildberries,"село Большая Уса, Улица Свердлова 12б",,Perm,,RU,,,Mo-Su 10:00-21:00,Wildberries,Q24933714
307067,wildberries,Wildberries,"Пермский край, Кунгур, улица Карла Маркса, 37",,Perm,,RU,,,Mo-Su 09:00-21:00,Wildberries,Q24933714
307074,wildberries,Wildberries,"Пермский край, Верещагино, Пролетарская улица, 49",,Perm,,RU,,,Mo-Su 10:00-21:00,Wildberries,Q24933714
307138,wildberries,Wildberries,"Пермский край, деревня Кондратово, улица Карла Маркса, 8А",,Perm,,RU,,,Mo-Su 10:00-21:00,Wildberries,Q24933714
307151,wildberries,Wildberries,"Пермский край, Пермь, улица Одоевского, 27",,Perm,,RU,,,Mo-Su 10:00-21:00,Wildberries,Q24933714
307225,wildberries,Wildberries,"Пермский край, Чусовой, улица Ленина, 7",,Perm,,RU,,,Mo-Su 10:00-21:00,Wildberries,Q24933714
307291,wildberries,Wildberries,"Пермский край, Березники, улица Пятилетки, 107",,Perm,,RU,,,Mo-Su 10:00-21:00,Wildberries,Q24933714
307445,wildberries,Wildberries,"село Верх-Язьва, Советская Улица 34б",,Perm,,RU,,,Mo-Su 10:00-21:00,Wildberries,Q24933714
307567,wildberries,Wildberries,"Чернушка, Улица Нефтяников 4",,Perm,,RU,,,Mo-Su 09:00-21:00,Wildberries,Q24933714
307593,wildberries,Wildberries,"Пермский край, Лысьва, Фестивальная улица, 6",,Perm,,RU,,,Mo-Su 10:00-21:00,Wildberries,Q24933714
307638,wildberries,Wildberries,"Краснокамск, Большевистская Улица 34",,Perm,,RU,,,Mo-Su 10:00-21:00,Wildberries,Q24933714
307715,wildberries,Wildberries,"Пермский край, Оса, улица Пугачёва, 20В",,Perm,,RU,,,Mo-Su 10:00-21:00,Wildberries,Q24933714
307848,wildberries,Wildberries,"Чердынь, Прокопьевская Улица 29",,Perm,,RU,,,Mo-Su 10:00-21:00,Wildberries,Q24933714
307905,wildberries,Wildberries,"Красновишерск, Улица Берзина 6",,Perm,,RU,,,Mo-Su 10:00-21:00,Wildberries,Q24933714
307932,wildberries,Wildberries,"Пермский край, рабочий посёлок Углеуральский, улица Мира, 27",,Perm,,RU,,,Mo-Su 10:00-21:00,Wildberries,Q24933714
308017,wildberries,Wildberries,"Пермь, Ямпольская Улица 11",,Perm,,RU,,,Mo-Su 10:00-21:00,Wildberries,Q24933714
308162,wildberries,Wildberries,"Пермь, Улица Малкова 16",,Perm,,RU,,,Mo-Su 09:00-21:00,Wildberries,Q24933714
308180,wildberries,Wildberries,"посёлок Юг, Улица Ленина 82",,Perm,,RU,,,Mo-Su 10:00-21:00,Wildberries,Q24933714
308393,wildberries,Wildberries,"Пермь, Улица Мильчакова 28а",,Perm,,RU,,,Mo-Su 09:00-21:00,Wildberries,Q24933714
308400,wildberries,Wildberries,"Оса, Улица Степана Разина 81е",,Perm,,RU,,,Mo-Su 10:00-21:00,Wildberries,Q24933714
308411,wildberries,Wildberries,"Пермский край, Пермь, улица Аркадия Гайдара, 13А",,Perm,,RU,,,Mo-Su 10:00-21:00,Wildberries,Q24933714
308567,wildberries,Wildberries,"Пермь, Улица Глеба Успенского 13",,Perm,,RU,,,Mo-Su 10:00-21:00,Wildberries,Q24933714
308591,wildberries,Wildberries,"Пермский край, Чайковский, улица Гагарина, 18",,Perm,,RU,,,Mo-Su 10:00-21:00,Wildberries,Q24933714
308656,wildberries,Wildberries,"Пермский край, Пермь, улица Крупской, 67",,Perm,,RU,,,Mo-Su 10:00-21:00,Wildberries,Q24933714
308680,wildberries,Wildberries,"Пермский край, Пермь, улица Льва Шатрова, 2",,Perm,,RU,,,Mo-Su 10:00-21:00,Wildberries,Q24933714
308718,wildberries,Wildberries,"Кудымкар, Улица Ленина 73",,Perm,,RU,,,Mo-Su 10:00-21:00,Wildberries,Q24933714
308784,wildberries,Wildberries,"Пермь, Улица Куйбышева 10",,Perm,,RU,,,Mo-Su 10:00-21:00,Wildberries,Q24933714
308787,wildberries,Wildberries,"Пермь, Улица Космонавта Леонова 47",,Perm,,RU,,,Mo-Su 10:00-21:00,Wildberries,Q24933714
308798,wildberries,Wildberries,"Пермский край, село Орда, Зелёная улица, 1В",,Perm,,RU,,,Mo-Su 10:00-21:00,Wildberries,Q24933714
309161,wildberries,Wildberries,"Березники, Улица Мира 110",,Perm,,RU,,,Mo-Su 10:00-21:00,Wildberries,Q24933714
309166,wildberries,Wildberries,"Пермский край, Пермь, проспект Декабристов, 1",,Perm,,RU,,,Mo-Su 10:00-21:00,Wildberries,Q24933714
309232,wildberries,Wildberries,"Пермский край, Лысьва, Садовая улица, 25",,Perm,,RU,,,Mo-Su 10:00-21:00,Wildberries,Q24933714
309296,wildberries,Wildberries,"Чайковский, Советская Улица 30/1",,Perm,,RU,,,Mo-Su 09:00-21:00,Wildberries,Q24933714
309406,wildberries,Wildberries,"Пермский край, Губаха, проспект Ленина, 44",,Perm,,RU,,,Mo-Su 10:00-21:00,Wildberries,Q24933714
309452,wildberries,Wildberries,"Пермский край, Пермь, улица Машинистов, 27",,Perm,,RU,,,Mo-Su 10:00-21:00,Wildberries,Q24933714
309519,wildberries,Wildberries,"Березники, Улица Мира 92",,Perm,,RU,,,Mo-Su 10:00-21:00,Wildberries,Q24933714
309672,wildberries,Wildberries,"Соликамск, Красный Бульвар 12",,Perm,,RU,,,Mo-Su 10:00-21:00,Wildberries,Q24933714
309692,wildberries,Wildberries,"Пермский край, деревня Бобки, Трудовая улица, 15А",,Perm,,RU,,,Mo-Su 10:00-21:00,Wildberries,Q24933714
309774,wildberries,Wildberries,"Пермский край, Березники, улица Ломоносова, 131",,Perm,,RU,,,Mo-Su 10:00-21:00,Wildberries,Q24933714
309836,wildberries,Wildberries,"Соликамск, Дубравная Улица 56",,Perm,,RU,,,Mo-Su 10:00-21:00,Wildberries,Q24933714
309872,wildberries,Wildberries,"Пермский край, Кунгур, улица Красногвардейцев, 44",,Perm,,RU,,,Mo-Su 10:00-21:00,Wildberries,Q24933714
309882,wildberries,Wildberries,"село Половодово, Красногвардейская Улица 23",,Perm,,RU,,,Mo-Su 10:00-21:00,Wildberries,Q24933714
309987,wildberries,Wildberries,"Пермский край, Пермь, Веслянский переулок, 2",,Perm,,RU,,,Mo-Su 10:00-21:00,Wildberries,Q24933714
309988,wildberries,Wildberries,"село Усть-Качка, Улица Победы 9а",,Perm,,RU,,,Mo-Su 09:00-21:00,Wildberries,Q24933714
310032,wildberries,Wildberries,"Пермь, Улица Куйбышева 101",,Perm,,RU,,,Mo-Su 10:00-21:00,Wildberries,Q24933714
310033,wildberries,Wildberries,"Пермский край, Пермь, Светлогорская улица, 11",,Perm,,RU,,,Mo-Su 10:00-21:00,Wildberries,Q24933714
310175,wildberries,Wildberries,"Пермский край, Пермь, улица Карпинского, 35",,Perm,,RU,,,Mo-Su 10:00-21:00,Wildberries,Q24933714
310189,wildberries,Wildberries,"Пермский край, деревня Крохово, Полевая улица, 11А",,Perm,,RU,,,Mo-Su 10:00-21:00,Wildberries,Q24933714
310238,wildberries,Wildberries,"Кудымкар, Улица Братчикова 5а",,Perm,,RU,,,Mo-Su 10:00-21:00,Wildberries,Q24933714
310296,wildberries,Wildberries,"Пермский край, Оса, улица Максима Горького, 67А",,Perm,,RU,,,Mo-Su 10:00-21:00,Wildberries,Q24933714
310323,wildberries,Wildberries,"Пермь, Сочинская Улица 6",,Perm,,RU,,,Mo-Su 10:00-21:00,Wildberries,Q24933714
310325,wildberries,Wildberries,"Лысьва, Улица Быстрых 43а",,Perm,,RU,,,Mo-Su 10:00-21:00,Wildberries,Q24933714
310517,wildberries,Wildberries,"Пермский край, Пермь, улица Костычева, 37",,Perm,,RU,,,Mo-Su 10:00-21:00,Wildberries,Q24933714
310519,wildberries,Wildberries,"Пермский край, Пермь, улица Адмирала Ушакова, 55/2",,Perm,,RU,,,Mo-Su 10:00-21:00,Wildberries,Q24933714
310521,wildberries,Wildberries,"Пермский край, Пермь, Парковый проспект, 15А",,Perm,,RU,,,Mo-Su 10:00-21:00,Wildberries,Q24933714
310525,wildberries,Wildberries,"Пермский край, Пермь, Уссурийская улица, 13/1",,Perm,,RU,,,Mo-Su 10:00-21:00,Wildberries,Q24933714
310747,wildberries,Wildberries,"Соликамск, Улица 20-Летия Победы 79",,Perm,,RU,,,Mo-Su 10:00-21:00,Wildberries,Q24933714
310869,wildberries,Wildberries,"Пермский край, Березники, улица Пятилетки, 51",,Perm,,RU,,,Mo-Su 10:00-21:00,Wildberries,Q24933714
311096,wildberries,Wildberries,"Березники, Улица Льва Толстого 33",,Perm,,RU,,,Mo-Su 10:00-21:00,Wildberries,Q24933714
311134,wildberries,Wildberries,"село Кочёво, Первомайская Улица 4",,Perm,,RU,,,Mo-Su 10:00-21:00,Wildberries,Q24933714
311188,wildberries,Wildberries,"Пермь, Улица Подводников 80к2",,Perm,,RU,,,Mo-Su 09:00-21:00,Wildberries,Q24933714
311444,wildberries,Wildberries,"рабочий посёлок Сарс, Улица Микрорайон 11",,Perm,,RU,,,Mo-Su 10:00-21:00,Wildberries,Q24933714
311557,wildberries,Wildberries,"Пермский край, Пермь, Петропавловская улица, 93",,Perm,,RU,,,Mo-Su 10:00-21:00,Wildberries,Q24933714
311562,wildberries,Wildberries,"Пермский край, Пермь, Вижайская улица, 21",,Perm,,RU,,,Mo-Su 10:00-21:00,Wildberries,Q24933714
311600,wildberries,Wildberries,"Пермский край, Пермь, Пролетарская улица, 119",,Perm,,RU,,,Mo-Su 10:00-21:00,Wildberries,Q24933714
311602,wildberries,Wildberries,"Пермский край, посёлок станции Пальники, Заводская улица, 1Б",,Perm,,RU,,,Mo-Su 10:00-21:00,Wildberries,Q24933714
311923,wildberries,Wildberries,"Пермский край, Кунгур, улица Просвещения, 13А",,Perm,,RU,,,Mo-Su 10:00-21:00,Wildberries,Q24933714
312186,wildberries,Wildberries,"село Ашап, Советский Переулок 14",,Perm,,RU,,,Mo-Su 10:00-21:00,Wildberries,Q24933714
312252,wildberries,Wildberries,"Пермский край, Пермь, улица Тургенева, 39",,Perm,,RU,,,Mo-Su 10:00-21:00,Wildberries,Q24933714
312545,wildberries,Wildberries,"Пермский край, рабочий посёлок Октябрьский, улица Куйбышева, 13А",,Perm,,RU,,,Mo-Su 10:00-21:00,Wildberries,Q24933714
312602,wildberries,Wildberries,"Пермский край, Пермь, улица Патриса Лумумбы, 11",,Perm,,RU,,,Mo-Su 10:00-21:00,Wildberries,Q24933714
312696,wildberries,Wildberries,"Пермь, Улица 40-Летия Победы 10а",,Perm,,RU,,,Mo-Su 10:00-22:00,Wildberries,Q24933714
312719,wildberries,Wildberries,"Пермь, Комсомольский Проспект 83",,Perm,,RU,,,Mo-Su 10:00-21:00,Wildberries,Q24933714
312955,wildberries,Wildberries,"Пермский край, Пермь, улица Юрша, 25/1",,Perm,,RU,,,Mo-Su 10:00-21:00,Wildberries,Q24933714
313601,wildberries,Wildberries,"Пермский край, рабочий посёлок Октябрьский, улица Карла Маркса, 13",,Perm,,RU,,,Mo-Su 10:00-21:00,Wildberries,Q24933714
314008,wildberries,Wildberries,"Пермский край, Оса, улица Нефтяников, 29",,Perm,,RU,,,Mo-Su 10:00-21:00,Wildberries,Q24933714
314034,wildberries,Wildberries,"Пермский край, Добрянка, улица Копылова, 67",,Perm,,RU,,,Mo-Su 10:00-21:00,Wildberries,Q24933714
314085,wildberries,Wildberries,"Пермский край, село Тюндюк, улица Ленина, 12А",,Perm,,RU,,,Mo-Su 10:00-21:00,Wildberries,Q24933714
314574,wildberries,Wildberries,"Пермский край, Пермь, Магистральная улица, 96",,Perm,,RU,,,Mo-Su 10:00-21:00,Wildberries,Q24933714
50000150,wildberries,Wildberries,"Пермь, Улица Ивана Франко 38",,Perm,,RU,,,Mo-Su 09:00-21:00,Wildberries,Q24933714
50000186,wildberries,Wildberries,"село Белоево, Улица Ленина 26",,Perm,,RU,,,Mo-Su 09:00-20:00,Wildberries,Q24933714
50000226,wildberries,Wildberries,"Пермь, Улица Крупской 51",,Perm,,RU,,,Mo-Su 09:00-21:00,Wildberries,Q24933714
50000567,wildberries,Wildberries,"Александровск, Улица Кирова 14",,Perm,,RU,,,Mo-Su 10:00-21:00,Wildberries,Q24933714
50000584,wildberries,Wildberries,"Пермь, Улица КИМ 69",,Perm,,RU,,,Mo-Su 10:00-22:00,Wildberries,Q24933714
50000620,wildberries,Wildberries,"Пермь, Улица Вильямса 20/2",,Perm,,RU,,,Mo-Su 10:00-22:00,Wildberries,Q24933714
50000645,wildberries,Wildberries,"село Юсьва, Советская Улица 3",,Perm,,RU,,,Mo-Su 09:00-20:00,Wildberries,Q24933714
50000651,wildberries,Wildberries,"Кунгур, Улица Кирова 34а",,Perm,,RU,,,Mo-Su 10:00-22:00,Wildberries,Q24933714
50000790,wildberries,Wildberries,"Нытва, Улица Карла Либкнехта 13",,Perm,,RU,,,Mo-Su 10:00-22:00,Wildberries,Q24933714
50000954,wildberries,Wildberries,"Соликамск, Соликамское Шоссе 9",,Perm,,RU,,,Mo-Su 10:00-22:00,Wildberries,Q24933714
50001071,wildberries,Wildberries,"Лысьва, Улица Кирова 8",,Perm,,RU,,,Mo-Su 10:00-22:00,Wildberries,Q24933714
50001223,wildberries,Wildberries,"Пермь, Улица Лукоянова 28а",,Perm,,RU,,,Mo-Su 10:00-22:00,Wildberries,Q24933714
50001361,wildberries,Wildberries,"Чернушка, Северная Улица 72",,Perm,,RU,,,Mo-Su 10:00-22:00,Wildberries,Q24933714
50001440,wildberries,Wildberries,"Лысьва, Улица Куйбышева 2",,Perm,,RU,,,Mo-Su 10:00-22:00,Wildberries,Q24933714
