Ref,Spider,Name,Address,City,State,Zipcode,Country,Phone,Website,Hours,Brand,WikiData
72070738,moneygram,CELULAR SHOP Y MAS 2,,CHIQUIMULA,,,GT,+502 3208 0200,,Mo-Sa 08:00-18:00; Su 09:00-16:00,MoneyGram,Q1944412
72258686,moneygram,MAXI DESPENSA CHIQUIMULA - #000957-0233,,CHIQUIMULA,,,GT,+502 2243 7000,,Mo-Su 06:00-21:00,MoneyGram,Q1944412
72224173,moneygram,BANCO INDUSTRIAL - #640 - MINERVA CHIQUI,,CHIQUIMULA,,,GT,+502 7942 6477,,Mo-Su 06:00-21:00,MoneyGram,Q1944412
72663459,moneygram,SUPER 24 - CHIQUIMULA - SUPER 24 CHIQUIM,,CHIQUIMULA,,,GT,+502 5975 8327,,Mo-Su 07:00-20:00,MoneyGram,Q1944412
72663462,moneygram,SUPER 24 - CHIQUIMULA - SUPER 24 CHIQUIM,,CHIQUIMULA,,,GT,+502 2366 2709,,Mo-Su 07:00-20:00,MoneyGram,Q1944412
72663475,moneygram,SUPER 24 - CHIQUIMULA - SUPER 24 CHIQUIM,,CHIQUIMULA,,,GT,+502 2366 2709,,Mo-Su 07:00-20:00,MoneyGram,Q1944412
72663488,moneygram,SUPER 24 - CHIQUIMULA - SUPER 24 CHIQUIM,,CHIQUIMULA,,,GT,+502 2366 2709,,Mo-Su 07:00-20:00,MoneyGram,Q1944412
72664403,moneygram,SUPER 24 - CHIQUIMULA - SUPER 24 MOVIL,,CHIQUIMULA,,,GT,+502 4164 6610,,Mo-Su 07:00-20:00,MoneyGram,Q1944412
72783261,moneygram,BANCO AGROMERCANTIL - CHIQUIMULA - CHIQU,,CHIQUIMULA,,,GT,+502 7942 0055,,Mo-Fr 08:30-20:00; Sa 09:00-13:00; Su 00:00-24:00,MoneyGram,Q1944412
72783724,moneygram,BANCO AGROMERCANTIL - CHIQUIMULA - PRADE,,CHIQUIMULA,,,GT,+502 7943 8360,,Mo-Su 10:00-19:00,MoneyGram,Q1944412
72831061,moneygram,BANRURAL - #1005 - CHIQUIMULA - AUTOBANC,,CHIQUIMULA,,,GT,+502 2271 9600,,Mo-Su 07:00-23:00,MoneyGram,Q1944412
72824803,moneygram,BANRURAL - #160 - CHIQUIMULA - AUTOBANCO,,CHIQUIMULA,,,GT,+502 2271 9600,,Mo-Su 07:00-23:00,MoneyGram,Q1944412
72825242,moneygram,BANRURAL - #207 - CHIQUIMULA - CHIQUIMUL,,CHIQUIMULA,,,GT,+502 2271 9600,,Mo-Su 07:00-23:00,MoneyGram,Q1944412
72831812,moneygram,BANRURAL - #2075 - CHIQUIMULA - CLARO CH,,CHIQUIMULA,,,GT,+502 2271 9600,,Mo-Su 07:00-23:00,MoneyGram,Q1944412
72827321,moneygram,BANRURAL - #437 - CHIQUIMULA - CHIQUIMUL,,CHIQUIMULA,,,GT,+502 2271 9600,,Mo-Su 07:00-23:00,MoneyGram,Q1944412
72828197,moneygram,BANRURAL - #538 - CHIQUIMULA - CHIQUIMUL,,CHIQUIMULA,,,GT,+502 2271 9600,,Mo-Su 07:00-23:00,MoneyGram,Q1944412
72828249,moneygram,BANRURAL - #545 - CHIQUIMULA - KILOMETRO,,CHIQUIMULA,,,GT,+502 2271 9600,,Mo-Su 07:00-23:00,MoneyGram,Q1944412
72828896,moneygram,BANRURAL - #626 - CHIQUIMULA - MUNICIPAL,,CHIQUIMULA,,,GT,+502 2271 9600,,Mo-Su 07:00-23:00,MoneyGram,Q1944412
72823341,moneygram,BANRURAL - #7 - CHIQUIMULA - CHIQUIMULA,,CHIQUIMULA,,,GT,+502 2271 9600,,Mo-Su 07:00-23:00,MoneyGram,Q1944412
72829578,moneygram,BANRURAL - #712 - CHIQUIMULA - UNIVERSID,,CHIQUIMULA,,,GT,+502 2271 9600,,Mo-Su 07:00-23:00,MoneyGram,Q1944412
72829882,moneygram,BANRURAL - #749 - CHIQUIMULA - PRADERA C,,CHIQUIMULA,,,GT,+502 2271 9600,,Mo-Su 07:00-23:00,MoneyGram,Q1944412
72858594,moneygram,SUPER 24 - CHIQUIMULA - SUPER 24 CHIQUIM,,CHIQUIMULA,,,GT,+502 5398 9159,,Mo-Su 07:00-20:00,MoneyGram,Q1944412
72930276,moneygram,BANCO PROMERICA,,CHIQUIMULA,,,GT,+502 2413 9400,,Mo-Su 07:00-21:00,MoneyGram,Q1944412
72990850,moneygram,CELULAR SHOP Y MAS - CHIQUIMULA - CELULA,,CHIQUIMULA,,,GT,+502 2338 6565,,Mo-Su 09:00-17:00,MoneyGram,Q1944412
73054135,moneygram,LIBRERIA EL ESTUDIANTE 3 - CHIQUIMULA -,,CHIQUIMULA,,,GT,+502 5690 1971,,Mo-Su 09:00-17:00,MoneyGram,Q1944412
73198305,moneygram,COOITZA R.L. - CHIQUIMULA - COOITZA CHIQ,,CHIQUIMULA,,,GT,+502 3758 9540,,Mo-Fr 08:30-17:00; Sa 09:00-13:00; Su 00:00-24:00,MoneyGram,Q1944412
73655987,moneygram,COOITZA R.L. - COOITZA CHIQUIMULA 2,,CHIQUIMULA,,,GT,+502 2214 2800,,Mo-Fr 08:30-17:00; Sa 09:00-13:00; Su 00:00-24:00,MoneyGram,Q1944412
73868321,moneygram,COOITZA R.L. - COOTIZA - FARMACIA ZOE,,CHIQUIMULA,,,GT,+502 2214 2800,,Mo-Fr 08:30-17:00; Sa 09:00-13:00; Su 00:00-24:00,MoneyGram,Q1944412
73892834,moneygram,TIENDA DOS DE ORO - #004122-001,,CHIQUIMULA,,,GT,+502 4037 3822,,Mo-Su 07:00-21:00,MoneyGram,Q1944412
73918747,moneygram,AGROPECURIA SAN JUAN ERMITA - #004113-00,,CHIQUIMULA,,,GT,+502 4728 2621,,Mo-Sa 07:00-16:00; Su 07:00-13:00,MoneyGram,Q1944412
73933434,moneygram,COOITZA R.L. - COOTIZA - MULTISERVICIOS,,CHIQUIMULA,,,GT,+502 2214 2800,,Mo-Fr 08:30-17:00; Sa 09:00-13:00; Su 00:00-24:00,MoneyGram,Q1944412
73939263,moneygram,CEL TEL - CEL TEL,,CHIQUIMULA,,,GT,+502 2338 6565,,Mo-Su 09:00-17:00,MoneyGram,Q1944412
74073720,moneygram,SUPER 24 - SUPER 24 CHIQUIMULA ZONA 1,,CHIQUIMULA,,,GT,+502 2421 0600,,Mo-Su 07:00-20:00,MoneyGram,Q1944412
74133644,moneygram,BANCO INMOBILIARIO - AGENCIA PRADERA CHI,,CHIQUIMULA,,,GT,+502 3103 6318,,Mo-Fr 08:30-17:00; Sa 09:00-13:00; Su 00:00-24:00,MoneyGram,Q1944412
74178955,moneygram,CAFE TAVITA - #004191-001,,CHIQUIMULA,,,GT,+502 5341 7583,,Mo-Sa 07:00-20:00; Su 00:00-24:00,MoneyGram,Q1944412
74208472,moneygram,COMERCIAL YURI - COMERCIAL YURI,,CHIQUIMULA,,,GT,+502 2338 6565,,Mo-Su 09:00-17:00,MoneyGram,Q1944412
73055600,moneygram,COMPU-CEL - CHIQUIMULA,,CHIQUIMULA,,,GT,+502 2338 6565,,Mo-Su 09:00-17:00,MoneyGram,Q1944412
70309854,moneygram,LIBRERIA Y VARIEDADES LA CENTRAL NO. 2 -,,CHIQUIMULA,,,GT,+502 4661 4294,,Mo-Su 06:00-21:00,MoneyGram,Q1944412
70438288,moneygram,FARMACIAS CRUZ VERDE,,CHIQUIMULA,,,GT,+502 7942 5866,,Mo-Fr 07:00-22:00; Sa-Su 08:00-21:00,MoneyGram,Q1944412
70438291,moneygram,FARMACIAS CRUZ VERDE,,CHIQUIMULA,,,GT,+502 7942 1221,,Mo-Fr 07:00-23:00; Sa 07:00-21:00; Su 07:00-20:00,MoneyGram,Q1944412
70438806,moneygram,FARMACIAS CRUZ VERDE,,CHIQUIMULA,,,GT,+502 7942 1261,,Mo-Fr 07:00-18:30; Sa 07:00-18:00; Su 08:00-17:00,MoneyGram,Q1944412
70439164,moneygram,FARMACIAS CRUZ VERDE,,CHIQUIMULA,,,GT,+502 7942 2937,,Mo-Su 08:00-22:00,MoneyGram,Q1944412
70439177,moneygram,FARMACIAS CRUZ VERDE,,CHIQUIMULA,,,GT,+502 7942 1250,,Mo-Su 08:00-20:00,MoneyGram,Q1944412
70439180,moneygram,FARMACIAS CRUZ VERDE,,CHIQUIMULA,,,GT,+502 7942 1133,,Mo-Su 08:00-20:00,MoneyGram,Q1944412
70433911,moneygram,SUPER TIENDA LA FAVORITA,,CHIQUIMULA,,,GT,+502 3019 9992,,Mo-Su 06:00-21:00,MoneyGram,Q1944412
70618095,moneygram,ACEITERA Y REPUESTOS MINERVA - #002576-0,,CHIQUIMULA,,,GT,+502 7942 1981,,Mo-Su 06:00-21:00,MoneyGram,Q1944412
74893308,moneygram,TIENDA SANDRITA - #006400-001,,CHIQUIMULA,,,GT,+502 2411 6626,,Mo-Fr 08:00-17:00; Sa 08:00-12:00; Su 00:00-24:00,MoneyGram,Q1944412
74932104,moneygram,LIBRERIA VALENTINA - #006127-001,,CHIQUIMULA,,,GT,+502 2411 6626,,Mo-Fr 08:00-17:00; Sa 08:00-12:00; Su 00:00-24:00,MoneyGram,Q1944412
70739097,moneygram,FARMACIAS CRUZ VERDE - CHIQUIMULA - CHIQ,,CHIQUIMULA,,,GT,+502 7942 3363,,Mo-Su 06:00-22:00,MoneyGram,Q1944412
71044422,moneygram,BANCO DE ANTIGUA - CHIQUIMULA - PRADERA,,CHIQUIMULA,,,GT,+502 2417 3923,,Mo-Su 10:00-20:00,MoneyGram,Q1944412
43608032,moneygram,MICOOPE CHIQUIMULJA,,CHIQUIMULA,,,GT,+502 7942 0318,,Mo-Fr 06:00-21:00; Sa 06:00-20:00; Su 07:00-14:00,MoneyGram,Q1944412
66978532,moneygram,MICOOPE COOSAJO - PUERTO BARRIOS,,CHIQUIMULA,,,GT,+502 7960 0514,,Mo-Su 07:00-21:00,MoneyGram,Q1944412
43608074,moneygram,MICOOPE CHIQUIMULJA,,CHIQUIMULA,,,GT,+502 7942 4536,,Mo-Fr 06:00-21:00; Sa 06:00-20:00; Su 07:00-14:00,MoneyGram,Q1944412
43607648,moneygram,MICOOPE COOSAJO,,CHIQUIMULA,,,GT,5029420744,,Mo-Fr 07:00-20:00; Sa 09:00-20:00; Su 07:00-20:00,MoneyGram,Q1944412
71854858,moneygram,CHIQUIMULJA R.L. - #16 - CHIQUIMULA - A,,CHIQUIMULA,,,GT,+502 7942 4570,,Mo-Su 07:00-21:00,MoneyGram,Q1944412
71854861,moneygram,CHIQUIMULJA R.L. - #17 - CHIQUIMULA - A,,CHIQUIMULA,,,GT,+502 4131 2590,,Mo-Su 07:00-21:00,MoneyGram,Q1944412
