Ref,Spider,Name,Address,City,State,Zipcode,Country,Phone,Website,Hours,Brand,WikiData
68167121,moneygram,JBL - SHAILAKUPA-0149,,SAILKUPA,,,BD,452656016,,24/7,MoneyGram,Q1944412
68167147,moneygram,JBL - KATLAGARI BAZAR-0678,,SAILKUPA,,,BD,173009589,,24/7,MoneyGram,Q1944412
68167134,moneygram,JBL - BHATOI BAZAR (CHARPARA BAZAR)-0604,,SAILKUPA,,,BD,+880 1730-009584,,24/7,MoneyGram,Q1944412
72812734,moneygram,BRAC BANK LTD - #215454 - JHENAIDAH - HA,,JHENAIDAH,,,BD,+880 1913-245504,,Mo-Th 10:00-18:00; Fr 00:00-24:00; Sa-Su 10:00-18:00,MoneyGram,Q1944412
72812763,moneygram,BRAC BANK LTD - #346397 - JHENAIDAH - MO,,JHENAIDAH,,,BD,+880 1713-919617,,Mo-Th 10:00-18:00; Fr 00:00-24:00; Sa-Su 10:00-18:00,MoneyGram,Q1944412
72812381,moneygram,BRAC BANK LTD - #503889 - JHENAIDAH - DI,,JHENAIDAH,,,BD,+880 1954-030550,,Mo-Th 10:00-18:00; Fr 00:00-24:00; Sa-Su 10:00-18:00,MoneyGram,Q1944412
72812446,moneygram,BRAC BANK LTD - #531159 - JHENAIDAH - NI,,JHENAIDAH,,,BD,+880 1758-107662,,Mo-Th 10:00-18:00; Fr 00:00-24:00; Sa-Su 10:00-18:00,MoneyGram,Q1944412
72812802,moneygram,BRAC BANK LTD - #569091 - JHENAIDAH - SA,,JHENAIDAH,,,BD,+880 1939-212326,,Mo-Th 10:00-18:00; Fr 00:00-24:00; Sa-Su 10:00-18:00,MoneyGram,Q1944412
72812394,moneygram,BRAC BANK LTD - #671415 - JHENAIDAH - TR,,JHENAIDAH,,,BD,+880 1961-306147,,Mo-Th 10:00-18:00; Fr 00:00-24:00; Sa-Su 10:00-18:00,MoneyGram,Q1944412
72812462,moneygram,BRAC BANK LTD - #812861 - JHENAIDAH - DH,,JHENAIDAH,,,BD,+880 1786-096192,,Mo-Th 10:00-18:00; Fr 00:00-24:00; Sa-Su 10:00-18:00,MoneyGram,Q1944412
72812404,moneygram,BRAC BANK LTD - #886901 - JHENAIDAH - MI,,JHENAIDAH,,,BD,+880 1824-000416,,Mo-Th 10:00-18:00; Fr 00:00-24:00; Sa-Su 10:00-18:00,MoneyGram,Q1944412
72812459,moneygram,BRAC BANK LTD - #989056 - JHENAIDAH - AB,,JHENAIDAH,,,BD,+880 1778-317472,,Mo-Th 10:00-18:00; Fr 00:00-24:00; Sa-Su 10:00-18:00,MoneyGram,Q1944412
72850055,moneygram,ISLAMI BANK BANGLADESH LIMITED - JHENAID,,JHENAIDAH,,,BD,+880 1729-039325,,Mo-Th 09:00-18:00; Fr 00:00-24:00; Sa 09:00-12:00; Su 09:00-18:00,MoneyGram,Q1944412
73022167,moneygram,JAMUNA BANK LTD - #508 - KUSHTIA - ALLAR,,KUSHTIA,,,BD,+880 1717-658565,,Mo-Th 10:00-16:00; Fr-Sa 00:00-24:00; Su 10:00-16:00,MoneyGram,Q1944412
73695455,moneygram,MUTUAL TRUST BANK LTD - MTB- TRIMOHONI S,,KUSHTIA,,,BD,+880 2-9346592,,Mo-Th 10:00-16:00; Fr-Sa 00:00-24:00; Su 10:00-16:00,MoneyGram,Q1944412
74000816,moneygram,IFIC BANK - #450574 - SHEIKHPARA BAZAR U,,JHINAIDAH,,,BD,+880 9666-716250,,Mo-Th 10:00-18:00; Fr-Sa 00:00-24:00; Su 10:00-17:00,MoneyGram,Q1944412
74134106,moneygram,M/S. AKSHIR ENTERPRISE - JHENAIDAH - M/S,,JHENAIDAH,,,BD,+880 1993-535919,,Mo-Su 09:30-17:00,MoneyGram,Q1944412
74180765,moneygram,M/S. RAZU BIPUNI & TELECOM - JHENAIDAH -,,JHENAIDAH,,,BD,+880 1675-765176,,Mo-Th 09:30-17:00; Fr-Sa 00:00-24:00; Su 09:30-17:00,MoneyGram,Q1944412
74470750,moneygram,M/S. INTER ACTIVE POWER - JHENAIDAH - M/,,JHENAIDAH,,,BD,+880 1915-177718,,Mo-Th 09:30-17:00; Fr-Sa 00:00-24:00; Su 09:30-17:00,MoneyGram,Q1944412
