Ref,Spider,Name,Address,City,State,Zipcode,Country,Phone,Website,Hours,Brand,WikiData
AU484143,adidas,adidas Originals Chadstone,,Melbourne,VIC,,AU,+61 3 9530 9845,https://www.adidas.co.uk/storefront/AU484143-melbourne-53-adidas-originals-chadstone,,Adidas,Q3895
AU476843,adidas,adidas Chadstone,,Melbourne,VIC,,AU,+61 3 9530 4066,https://www.adidas.co.uk/storefront/AU476843-melbourne-1341-dandenong-road-adidas-chadstone,,Adidas,Q3895
5146,aquila_au,Chadstone,,Chadstone,VIC,,AU,+61 3 9131 9013,,Mo-We 09:00-17:30; Th-Sa 09:00-21:00; Su 10:00-19:00,Aquila,Q17985574
RED0008038,australia_post_au,,,CHADSTONE,VIC,,AU,,,,Australia Post,Q1142936
RED0015692,australia_post_au,,,CHADSTONE,VIC,,AU,,,,Australia Post,Q1142936
RED0008035,australia_post_au,,,CHADSTONE,VIC,,AU,,,,Australia Post,Q1142936
RED0008031,australia_post_au,,,CHADSTONE,VIC,,AU,,,,Australia Post,Q1142936
RED0008034,australia_post_au,,,CHADSTONE,VIC,,AU,,,,Australia Post,Q1142936
RED0008032,australia_post_au,,,CHADSTONE,VIC,,AU,,,,Australia Post,Q1142936
RED0008033,australia_post_au,,,CHADSTONE,VIC,,AU,,,,Australia Post,Q1142936
306296_PO,australia_post_au,HOLMESGLEN LPO,,CHADSTONE,VIC,,AU,+61 3 9530 9683,,,Australia Post,Q1142936
153,baby_bunting,Chadstone,"Shop M002, Chadstone Shopping Centre, 1341 Dandenong Road Chadstone, VIC",Chadstone,VIC,,AU,+61 3 9563 4022,https://www.babybunting.com.au/find-a-store/chadstone,Mo-We 09:00-17:30; Th-Fr 09:00-19:00; Sa 09:00-18:00; Su 10:00-17:00,Baby Bunting,Q109626935
2497,bakers_delight,Bakers Delight Chadstone,,Chadstone,VIC,,AU,+61 3 8682 8884,https://www.bakersdelight.com.au/bakery-locator/chadstone/,Mo-We 07:00-19:30; Th-Fr 07:00-20:00; Sa-Su 07:00-19:30,Bakers Delight,Q4849261
36,barbeques_galore_au,Chadstone,,Chadstone,VIC,,AU,+61 3 9530 4700,https://www.barbequesgalore.com.au/stores/chadstone,Mo-Th 09:00-17:00; Fr 09:00-18:00; Sa 09:00-17:00; Su 10:00-17:00,Barbeques Galore,Q4859570
182,betts_au,BETTS CHADSTONE - Selected Betts Kids School Shoes,,Malvern East,VIC,,AU,+61 405 915 894,,Mo-We 09:00-17:30; Th-Sa 09:00-21:00; Su 10:00-19:00,Betts,Q118555401
0098,bp,AA CHADSTONE,,CHADSTONE,VIC,,AU,+61 3 9568 5122,,24/7,BP,Q152057
127,calvin_klein_au,Calvin Klein Lifestyle Chadstone,"Shop G85, Chadstone Shopping Centre, 1341 Dandenong Road, Chadstone, VIC, 3148",Chadstone,VIC,,AU,+61 3 9977 2227,https://www.calvinklein.com.au/store/calvin-klein-lifestyle-chadstone,Mo-Tu 09:00-17:30; We-Fr 09:00-21:00; Sa 09:00-18:00; Su 09:00-17:30,Calvin Klein,Q1068628
4220,coach_au_nz,Chadstone,,Chadstone,VIC,,AU,+61 3 9038 1020,,Mo-We 09:00-17:30; Th-Sa 09:00-21:00; Su 10:00-18:00,Coach,Q727697
346402,commonwealth_bank_au,Chadstone Centre,,Chadstone,VIC,,AU,,,,Commonwealth Bank,Q285328
346403,commonwealth_bank_au,Chadstone Centre,,Chadstone,VIC,,AU,,,,Commonwealth Bank,Q285328
346401,commonwealth_bank_au,Chadstone Centre,,Chadstone,VIC,,AU,,,,Commonwealth Bank,Q285328
19509555,dangerfield,DANGERFIELD VIC - CHADSTONE,,Chadstone,VIC,,AU,+61 3 9564 8299,,Mo-We 09:00-17:30; Th-Sa 09:00-21:00; Su 10:00-19:00,Dangerfield,Q119220880
605,dusk_au,dusk Chadstone,,Chadstone,VIC,,AU,,https://www.dusk.com.au/store-locator/dusk-chadstone/,,dusk,Q120669167
6171259,exxonmobil,7-Eleven Chadstone,,Chadstone,VIC,,AU,+61 3 9568 2823,https://www.mobil.com.au/en-au/find-station/mobil-chadstone-vic-chadstone-6171259,24/7,Mobil,Q109676002
/clubs/malvern-valley/,fitness_first_au,Malvern Valley,,Chadstone,Vic,,AU,+61 3 9935 5800,https://www.fitnessfirst.com.au/clubs/malvern-valley/,24/7,Fitness First,Q127120
014-3033,forever_new,Forever New - Chadstone,,Chadstone,VIC,,AU,+61 3 9563 1814,,Mo-We 09:00-17:30; Th-Sa 09:00-21:00; Su 10:00-19:00,Forever New,Q119221929
162,greencross_au,Chadstone,,Chadstone,VIC,,AU,+61 3 9567 8500,https://www.petbarn.com.au/store-finder/chadstone,Mo-Th 08:30-18:00; Fr 08:30-19:00; Sa 08:30-17:00; Su 09:00-17:00,Petbarn,Q104746468
143,grilld_au,Grill'd Chadstone,,CHADSTONE,VIC,,AU,+61 3 9563 1822,,,Grill'd,Q18165852
385,house_au,House Chadstone,,Chadstone,VIC,,AU,+61 3 9001 0699,https://www.house.com.au/stores/house-chadstone,Mo-We 09:00-17:30; Th-Fr 09:00-21:00; Sa 09:00-19:00; Su 10:00-18:00,House,Q117921987
304,house_au,House Bed & Bath Chadstone,,Chadstone,VIC,,AU,+61 3 9069 8267,https://www.house.com.au/stores/house-bed-bath-chadstone,Mo-We 09:00-17:30; Th-Fr 09:00-21:00; Sa 09:00-19:00; Su 10:00-18:00,House,Q117921987
9924003,hugo_boss,BOSS Store,,Chadstone,VIC,,AU,+61 3 9530 9911,https://www.hugoboss.com/us/storedetail?storeid=9924003,Mo-We 09:00-17:30; Th-Sa 09:00-21:00; Su 10:00-18:00,Hugo Boss,Q491627
9924057,hugo_boss,BOSS Menswear Shop,,Chadstone,VIC,,AU,+61 3 8531 4444,https://www.hugoboss.com/us/storedetail?storeid=9924057,Mo-We 09:30-18:00; Th-Fr 09:30-21:00; Sa 09:00-21:00; Su 10:00-19:00,Hugo Boss,Q491627
31,industrie_au,Chadstone,,Chadstone,VIC,,AU,+61 3 9112 6374,,,Industrie,Q117746099
313,jbhifi,Chadstone Shopping Centre,,Chadstone,VIC,,AU,+61 3 9516 4300,,Mo-We 09:00-18:00; Th-Sa 09:00-21:00; Su 10:00-19:00,JB Hi-Fi,Q3310113
145,jbhifi,Chadstone Home Superstore,,Chadstone,VIC,,AU,+61 3 9516 4700,,Mo-We 09:00-18:00; Th-Fr 09:00-21:00; Sa 09:00-18:00; Su 10:00-17:00,JB Hi-Fi,Q3310113
1061217,jo_mercer_au,Chadstone,,Chadstone,VIC,,AU,+61 3 9086 4974,,Mo-We 09:00-17:30; Th-Sa 09:00-21:00; Su 10:00-19:00,Jo Mercer,Q117961451
1198,just_cuts,Chadstone,,Chadstone,VIC,,AU,+61 490 236 926,https://www.justcuts.com.au/Australian-Salons/Chadstone?sid=1198,Mo-We 09:00-17:30; Th-Sa 09:00-21:00; Su 10:00-19:00,Just Cuts,Q116784479
41904,just_group,Smiggle Chadstone,"Shop 317 Chadstone S/C, 1341 Princes Highway, Chadstone, VIC, 3148, Australia",Chadstone,VIC,,AU,+61 3 9530 9000,https://justjeans.jgl.com.au/shop/stores/smiggle-chadstone,,Smiggle,Q7544536
42255,just_group,Portmans Chadstone,"Shop G104 Chadstone S/C, 1341 Princes Highway, Chadstone, VIC, 3148, Australia",Chadstone,VIC,,AU,+61 3 9569 5773,https://justjeans.jgl.com.au/shop/stores/portmans-chadstone,,Portmans,Q118383252
42359,just_group,Dotti Chadstone,"Shop G-105 Chadstone S/C, 1341 Princes Highway, Chadstone, VIC, 3148, Australia",Chadstone,VIC,,AU,+61 3 9568 5607,https://justjeans.jgl.com.au/shop/stores/dotti-chadstone,,Dotti,Q5299495
42511,just_group,Just Jeans Chadstone,"Shop G014 Chadstone S/C, 1341 Princes Highway, Chadstone, VIC, 3148, Australia",Chadstone,VIC,,AU,+61 3 9569 6624,https://justjeans.jgl.com.au/shop/stores/justjeans-chadstone,,Just Jeans,Q6316068
42762,just_group,Jacqui E Chadstone,"Shop 322 Chadstone S/C, 1341 Princes Highway, Chadstone, VIC, 3148, Australia",Chadstone,VIC,,AU,+61 3 9569 6684,https://justjeans.jgl.com.au/shop/stores/jacquie-chadstone,,Jacqui E,Q118383260
42875,just_group,Jay Jays Chadstone,"Shop G107 Chadstone S/C, 1341 Princes Highway, Chadstone, VIC, 3148, Australia",Chadstone,VIC,,AU,+61 3 9569 0099,https://justjeans.jgl.com.au/shop/stores/jayjays-chadstone,,Jay Jays,Q6166759
41825,just_group,Peter Alexander Chadstone Shopping Centre,"Shop G103 Chadstone S/C, 1341 Dandenong Road, Chadstone Shopping Centre, Chadstone, VIC, 3148, Australia",Chadstone,VIC,,AU,+61 3 9564 7272,https://justjeans.jgl.com.au/shop/stores/peteralexander-chadstone-shopping-centre,Mo-Tu 09:00-17:30; We-Fr 09:00-21:00; Sa 10:00-19:00; Su 09:00-17:30,Peter Alexander,Q118383240
35,kidstuff_au,Chadstone,,Chadstone,VIC,,AU,+61 3 9568 4311,,Mo-We 09:00-17:30; Th-Fr 09:00-21:00; Sa 09:00-17:00; Su 10:00-17:00,Kidstuff,Q117746407
3004,kookai_au,CHADSTONE,,Chadstone,VIC,,AU,+61 3 9563 4599,,Mo-We 09:00-17:30; Th-Sa 09:00-21:00; Su 10:00-18:00,Kookai,Q1783759
4207,lacoste_au,Lacoste Chadstone,,Chadstone,VIC,,AU,,,Mo-We 10:00-17:30; Th 10:00-20:00; Fr-Sa 08:00-23:00; Su 09:00-20:00,Lacoste,Q309031
11305,lovisa,Lovisa,,Chadstone,VIC,,AU,+61 3 7020 5918,,,Lovisa,Q106298409
9501026,mcdonalds_qstore,CHADSTONE SHOPPING CENTRE,,Chadstone,VIC,,AU,+61 3 9568 6031,,Mo-We 08:00-20:00; Th-Su 08:00-22:00,McDonald's,Q38076
9500591,mcdonalds_qstore,HOLMESGLEN VIC,,Holmesglen,VIC,,AU,+61 3 8290 8700,,24/7,McDonald's,Q38076
9501788,mcdonalds_qstore,Chadstone Shopping Centre,,Chadstone,VIC,,AU,+61 3 9569 8237,,Mo-Su 10:00-17:00,McDonald's,Q38076
https://locations.michaelkors.com/fr/australia/vic/chadstone/1341-dandenong-road.html,michaelkors,Michael Kors Chadstone,,Chadstone,VIC,,AU,+61 3 9564 7889,https://locations.michaelkors.com/fr/australia/vic/chadstone/1341-dandenong-road.html,Mo-We 09:00-17:30; Th-Sa 09:00-21:00; Su 10:00-19:00,Michael Kors,Q19572998
https://locations.michaelkors.com/australia/vic/chadstone/1341-dandenong-road.html,michaelkors,Michael Kors Chadstone,,Chadstone,VIC,,AU,+61 3 9564 7889,https://locations.michaelkors.com/australia/vic/chadstone/1341-dandenong-road.html,Mo-We 09:00-17:30; Th-Sa 09:00-21:00; Su 10:00-19:00,Michael Kors,Q19572998
113,m_j_bale_au,Chadstone SC VIC,,Chadstone,VIC,,AU,+61 3 9108 6807,,Mo-We 10:00-18:00; Th-Fr 10:00-20:00; Sa-Su 10:00-18:00,M.J. Bale,Q97516243
https://www.nandos.com.au/restaurants/vic/chadstone-shopping-centre,nandos,CHADSTONE SHOPPING CENTRE,,Chadstone,VIC,,AU,+61 1300 626 367,https://www.nandos.com.au/restaurants/vic/chadstone-shopping-centre,,Nando's,Q3472954
121,nutrition_warehouse_au,Chadstone,,Chadstone,VIC,,AU,+61 3 9569 9406,https://www.nutritionwarehouse.com.au/pages/Chadstone-vitamins-and-supplements,Mo-We 09:00-17:30; Th 09:00-18:00; Fr 09:00-17:30; Sa 09:00-16:00; Su 10:00-16:00,Nutrition Warehouse,Q117747424
W306,officeworks_au,Chadstone Officeworks,,Chadstone,VIC,,AU,+61 3 9567 2700,https://www.officeworks.com.au/shop/officeworks/storepage/W306/VIC/Chadstone,Mo-Fr 07:00-21:00; Sa 08:00-18:00; Su 09:00-18:00,Officeworks,Q7079486
3106,petstock_au,Petstock Chadstone,,Chadstone,VIC,,AU,+61 3 9568 8595,https://www.petstock.com.au/pages/store/petstock-chadstone,Mo-We 09:00-17:30; Th-Fr 09:00-18:00; Sa-Su 09:00-17:00,Petstock,Q106540728
11216389,pop_mart_au,POP MART Chadstone Store,,Chadstone,VIC,,AU,,,,POP MART,Q97180096
https://www.qbd.com.au/locations/chadstone/,qbd_books_au,QBD Books - Chadstone,,Chadstone,VIC,,AU,+61 3 8506 0860,https://www.qbd.com.au/locations/chadstone/,Mo-We 08:30-17:30; Th-Sa 08:30-21:00; Su 10:00-19:00,QBD Books,Q7270909
1259,seven_eleven_au,Chadstone,,Chadstone,VIC,,AU,+61 3 9568 2823,,24/7,7-Eleven,Q259340
Chadstone,shaver_shop,Chadstone,,Chadstone,VIC,,AU,+61 3 9564 7622,https://www.shavershop.com.au/stores/VIC/Chadstone,Mo-We 09:00-17:30; Th-Sa 09:00-21:00; Su 10:00-19:00,Shaver Shop,Q119443589
chadstone-lower,shaver_shop,Chadstone Lower Level,,Chadstone,VIC,,AU,+61 3 7044 3581,https://www.shavershop.com.au/stores/VIC/chadstone-lower,Mo-We 09:00-17:30; Th-Sa 09:00-21:00; Su 10:00-19:00,Shaver Shop,Q119443589
Head-Office,shaver_shop,Support Office,,Chadstone,VIC,,AU,1300 SHAVER (742837),https://www.shavershop.com.au/stores/VIC/Head-Office,Mo-Fr 09:00-17:30,Shaver Shop,Q119443589
3444,specsavers,Chadstone S/C,,Chadstone,VIC,,AU,+61 3 9563 2976,https://www.specsavers.com.au/stores/chadstone,,Specsavers,Q2000610
7444,specsavers,Chadstone S/C,,Chadstone,VIC,,AU,+61 3 9563 2976,https://www.specsavers.com.au/stores/chadstone,,Specsavers,Q2000610
13105,sportscraft,David Jones Chadstone,,Chadstone,VIC,,AU,+61 3 8531 4444,https://www.sportscraft.com.au/store-locator/store-details?id=13105,,Sportscraft,Q7579966
13104,sportscraft,David Jones Chadstone,,Chadstone,VIC,,AU,+61 3 8531 4444,https://www.sportscraft.com.au/store-locator/store-details?id=13104,,Sportscraft,Q7579966
https://stores.sunglasshut.com/au/vic/chadstone/shop-g-089-ground-chadstone-shopping-centre,sunglass_hut_1,Sunglass Hut Chadstone,,Chadstone,VIC,,AU,+61 3 7000 6513,https://stores.sunglasshut.com/au/vic/chadstone/shop-g-089-ground-chadstone-shopping-centre,Mo-We 09:00-17:30; Th-Sa 09:00-21:00; Su 10:00-19:00,Sunglass Hut,Q136311
https://stores.sunglasshut.com/au/vic/chadstone/myer-ground-level-chadstone-shopping-centre,sunglass_hut_1,Sunglass Hut Myer Chadstone,,Chadstone,VIC,,AU,+61 3 8354 6217,https://stores.sunglasshut.com/au/vic/chadstone/myer-ground-level-chadstone-shopping-centre,Mo-We 09:30-17:30; Th-Fr 09:30-21:00; Sa 09:00-21:00; Su 10:00-19:00,Sunglass Hut,Q136311
https://stores.sunglasshut.com/au/vic/chadstone/b13-lower-ground-chadstone-shopping-centre,sunglass_hut_1,Sunglass Hut Chadstone,,Chadstone,VIC,,AU,+61 3 9568 5097,https://stores.sunglasshut.com/au/vic/chadstone/b13-lower-ground-chadstone-shopping-centre,Mo-We 09:00-17:30; Th-Sa 09:00-21:00; Su 10:00-19:00,Sunglass Hut,Q136311
https://stores.superdry.com/#24979516,superdry,Superdry  Chadstone,,Chadstone,VIC,,AU,+61 3 9530 9505,https://stores.superdry.com/au/chadstone/shop-145a-chadstone-sc-1341-dandenong-rd-chadstone,Mo-We 09:00-17:30; Th-Sa 09:00-21:00; Su 10:00-19:00,Superdry,Q1684445
3312,sussan_au,Chadstone,,Chadstone,VIC,,AU,+61 3 9564 7559,/store-locator/vic/chadstone-3312,Mo-We 09:00-17:30; Th-Sa 09:00-21:00; Su 10:00-19:00,Sussan,Q28184460
6,t2,T2 - Chadstone,,Chadstone,VIC,,AU,+61 3 9530 4105,,Mo-We 09:00-19:00; Th-Sa 09:00-21:00; Su 10:00-19:00,T2,Q48802134
CTD8,telstra_au,Chadstone,,Chadstone,VIC,,AU,+61 1800 728 291,,Mo-We 09:00-17:30; Th-Fr 09:00-21:00; Sa 09:00-19:00; Su 10:00-18:00,Telstra,Q721162
https://www.thegoodguys.com.au/chadstone,the_good_guys_au,The Good Guys Chadstone,,Chadstone,VIC,,AU,+61 3 9567 0000,https://www.thegoodguys.com.au/chadstone,Mo-We 09:00-17:30; Th-Fr 09:00-21:00; Sa 09:00-17:00; Su 10:00-17:00,The Good Guys,Q7737217
4215,the_north_face_au_nz,Chadstone,,Chadstone,VIC,,AU,+61 3 8844 7008,,Mo-We 09:00-17:30; Th-Sa 09:00-21:00; Su 10:00-19:00,The North Face,Q152784
TIMBE-SBCSC1341D,timberland,Timberland Chadstone,,Chadstone,VIC,,AU,+61 3 9563 3922,,,Timberland,Q1539185
46856eae-5554-490c-8758-4a2bafeb2792,travelex,"Chadstone Shopping Centre, Chadstone","Kiosk 71, Chadstone Shopping Centre  1341 Dandenong Road, Chadstone, Chadstone, 3148",Chadstone,VIC,,AU,+61 3 9563 1702,chadstone/0325,,Travelex,Q2337964
373,ultra_tune_au,Ultra Tune Chadstone,,CHADSTONE,VIC,,AU,+61 3 9569 1119,https://www.ultratune.com.au/store/ultra-tune-chadstone,Mo-Fr 08:00-17:30; Sa 08:00-12:00,Ultra Tune,Q29025649
,visa,,,CHADSTONE,VIC,,AU,,,,,
,visa,,,CHADSTONE,VIC,,AU,,,,,
,visa,,,CHADSTONE,VIC,,AU,,,,,
,visa,,,CHADSTONE,VIC,,AU,,,,,
,visa,,,CHADSTONE,VIC,,AU,,,,,
,visa,,,CHADSTONE,VIC,,AU,,,,,
9362dda90828c1c0334e53ebb2828221,western_union,AUSTRALIA POST,,Chadstone,VIC,,AU,+61 1800 501 500,https://location.westernunion.com/au/vic/chadstone/9362dda90828c1c0334e53ebb2828221,Mo-Fr 09:00-17:15; Sa 09:00-16:00,Western Union,Q861042
