Ref,Spider,Name,Address,City,State,Zipcode,Country,Phone,Website,Hours,Brand,WikiData
,visa,,,HUANCABAMBA,PIURA,,PE,,,,,
,visa,,,PACAIPAMPA,PIURA,,PE,,,,,
,visa,,,AYABACA,PIURA,,PE,,,,,
,visa,,,AYABACA,PIURA,,PE,,,,,
,visa,,,SALITRAL,PIURA,,PE,,,,,
,visa,,,PAIMAS,PIURA,,PE,,,,,
,visa,,,MORROPÓN,PIURA,,PE,,,,,
,visa,,,CHULUCANAS,PIURA,,PE,,,,,
,visa,,,LAS LOMAS,PIURA,,PE,,,,,
,visa,,,PIURA,PIURA,,PE,,,,,
,visa,,,TAMBOGRANDE,PIURA,,PE,,,,,
,visa,,,CASTILLA,PIURA,,PE,,,,,
,visa,,,CASTILLA,PIURA,,PE,,,,,
,visa,,,PIURA,PIURA,,PE,,,,,
,visa,,,PIURA,PIURA,,PE,,,,,
,visa,,,CASTILLA,PIURA,,PE,,,,,
,visa,,,CASTILLA,PIURA,,PE,,,,,
,visa,,,CASTILLA,PIURA,,PE,,,,,
,visa,,,PIURA,PIURA,,PE,,,,,
,visa,,,CASTILLA,PIURA,,PE,,,,,
,visa,,,CASTILLA,PIURA,,PE,,,,,
,visa,,,CASTILLA,PIURA,,PE,,,,,
,visa,,,PIURA,PIURA,,PE,,,,,
,visa,,,PIURA,PIURA,,PE,,,,,
,visa,,,PIURA,PIURA,,PE,,,,,
,visa,,,PIURA,PIURA,,PE,,,,,
,visa,,,PIURA,PIURA,,PE,,,,,
,visa,,,PIURA,PIURA,,PE,,,,,
,visa,,,PIURA,PIURA,,PE,,,,,
,visa,,,PIURA,PIURA,,PE,,,,,
,visa,,,PIURA,PIURA,,PE,,,,,
,visa,,,PIURA,PIURA,,PE,,,,,
,visa,,,CASTILLA,PIURA,,PE,,,,,
,visa,,,PIURA,PIURA,,PE,,,,,
,visa,,,PIURA,PIURA,,PE,,,,,
,visa,,,PIURA,PIURA,,PE,,,,,
,visa,,,PIURA,PIURA,,PE,,,,,
,visa,,,PIURA,PIURA,,PE,,,,,
,visa,,,PIURA,PIURA,,PE,,,,,
,visa,,,PIURA,PIURA,,PE,,,,,
,visa,,,PIURA,PIURA,,PE,,,,,
,visa,,,PIURA,PIURA,,PE,,,,,
,visa,,,PIURA,PIURA,,PE,,,,,
,visa,,,PIURA,PIURA,,PE,,,,,
,visa,,,PIURA,PIURA,,PE,,,,,
,visa,,,PIURA,PIURA,,PE,,,,,
,visa,,,PIURA,PIURA,,PE,,,,,
,visa,,,PIURA,PIURA,,PE,,,,,
,visa,,,PIURA,PIURA,,PE,,,,,
,visa,,,PIURA,PIURA,,PE,,,,,
,visa,,,PIURA,PIURA,,PE,,,,,
,visa,,,PIURA,PIURA,,PE,,,,,
,visa,,,PIURA,PIURA,,PE,,,,,
,visa,,,PIURA,PIURA,,PE,,,,,
,visa,,,PIURA,PIURA,,PE,,,,,
,visa,,,PIURA,PIURA,,PE,,,,,
,visa,,,PIURA,PIURA,,PE,,,,,
,visa,,,PIURA,PIURA,,PE,,,,,
,visa,,,PIURA,PIURA,,PE,,,,,
,visa,,,PIURA,PIURA,,PE,,,,,
,visa,,,PIURA,PIURA,,PE,,,,,
,visa,,,PIURA,PIURA,,PE,,,,,
,visa,,,PIURA,PIURA,,PE,,,,,
,visa,,,PIURA,PIURA,,PE,,,,,
,visa,,,PIURA,PIURA,,PE,,,,,
,visa,,,PIURA,PIURA,,PE,,,,,
,visa,,,PIURA,PIURA,,PE,,,,,
,visa,,,PIURA,PIURA,,PE,,,,,
,visa,,,PIURA,PIURA,,PE,,,,,
,visa,,,PIURA,PIURA,,PE,,,,,
,visa,,,PIURA,PIURA,,PE,,,,,
,visa,,,PIURA,PIURA,,PE,,,,,
,visa,,,PIURA,PIURA,,PE,,,,,
,visa,,,PIURA,PIURA,,PE,,,,,
,visa,,,PIURA,PIURA,,PE,,,,,
,visa,,,PIURA,PIURA,,PE,,,,,
,visa,,,27 DE OCTUBRE,PIURA,,PE,,,,,
,visa,,,PIURA,PIURA,,PE,,,,,
,visa,,,PIURA,PIURA,,PE,,,,,
,visa,,,PIURA,PIURA,,PE,,,,,
,visa,,,PIURA,PIURA,,PE,,,,,
,visa,,,PIURA,PIURA,,PE,,,,,
,visa,,,PIURA,PIURA,,PE,,,,,
,visa,,,VEINTISÉIS DE OCTUBRE,PIURA,,PE,,,,,
,visa,,,PIURA,PIURA,,PE,,,,,
,visa,,,PIURA,PIURA,,PE,,,,,
,visa,,,PIURA,PIURA,,PE,,,,,
,visa,,,PIURA,PIURA,,PE,,,,,
,visa,,,PIURA,PIURA,,PE,,,,,
,visa,,,PIURA,PIURA,,PE,,,,,
,visa,,,PIURA,PIURA,,PE,,,,,
,visa,,,PIURA,PIURA,,PE,,,,,
,visa,,,PIURA,PIURA,,PE,,,,,
,visa,,,QUERECOTILLO,PIURA,,PE,,,,,
,visa,,,PIURA,PIURA,,PE,,,,,
,visa,,,PIURA,PIURA,,PE,,,,,
,visa,,,VEINTISÉIS DE OCTUBRE,PIURA,,PE,,,,,
,visa,,,VEINTISÉIS DE OCTUBRE,PIURA,,PE,,,,,
,visa,,,PIURA,PIURA,,PE,,,,,
,visa,,,PIURA,PIURA,,PE,,,,,
,visa,,,PIURA,PIURA,,PE,,,,,
,visa,,,PIURA,PIURA,,PE,,,,,
,visa,,,PIURA,PIURA,,PE,,,,,
,visa,,,VEINTISÉIS DE OCTUBRE,PIURA,,PE,,,,,
,visa,,,PIURA,PIURA,,PE,,,,,
,visa,,,VEINTISÉIS DE OCTUBRE,PIURA,,PE,,,,,
,visa,,,VEINTISÉIS DE OCTUBRE,PIURA,,PE,,,,,
,visa,,,CATACAOS,PIURA,,PE,,,,,
,visa,,,CATACAOS,PIURA,,PE,,,,,
,visa,,,CATACAOS,PIURA,,PE,,,,,
,visa,,,SULLANA,PIURA,,PE,,,,,
,visa,,,PIURA,PIURA,,PE,,,,,
,visa,,,VEINTISÉIS DE OCTUBRE,PIURA,,PE,,,,,
,visa,,,SULLANA,PIURA,,PE,,,,,
,visa,,,SULLANA,PIURA,,PE,,,,,
,visa,,,SULLANA,PIURA,,PE,,,,,
,visa,,,SULLANA,PIURA,,PE,,,,,
,visa,,,SULLANA,PIURA,,PE,,,,,
,visa,,,SULLANA,PIURA,,PE,,,,,
,visa,,,SULLANA,PIURA,,PE,,,,,
,visa,,,SULLANA,PIURA,,PE,,,,,
,visa,,,SULLANA,PIURA,,PE,,,,,
,visa,,,LA UNIÓN,PIURA,,PE,,,,,
,visa,,,LA UNIÓN,PIURA,,PE,,,,,
,visa,,,LA UNIÓN,PIURA,,PE,,,,,
,visa,,,VICE,PIURA,,PE,,,,,
,visa,,,SECHURA,PIURA,,PE,,,,,
,visa,,,IGNACIO ESCUDERO,PIURA,,PE,,,,,
,visa,,,IGNACIO ESCUDERO,PIURA,,PE,,,,,
,visa,,,MÁNCORA,PIURA,,PE,,,,,
,visa,,,PAITA,PIURA,,PE,,,,,
,visa,,,PAITA,PIURA,,PE,,,,,
,visa,,,PARIÑAS,PIURA,,PE,,,,,
,visa,,,PARIÑAS,PIURA,,PE,,,,,
,visa,,,PARIÑAS,PIURA,,PE,,,,,
,visa,,,PARIÑAS,PIURA,,PE,,,,,
72e01504852426049ce3073912e2c933,western_union,CAJA SULLANA  OF ESPECIAL LOS ORGANOS,,Talara,PIURA,,PE,+51 73 257348,https://location.westernunion.com/pe/piura/talara/72e01504852426049ce3073912e2c933,Mo-Fr 08:00-18:30; Sa 08:00-13:00,Western Union,Q861042
adf5cdf9ca547e27329f15e6511aa703,western_union,CMAC PAITA - TALARA,,Talara,PIURA,,PE,+51 73 387208,https://location.westernunion.com/pe/piura/talara/adf5cdf9ca547e27329f15e6511aa703,Mo-Fr 08:00-18:30; Sa 08:00-12:30,Western Union,Q861042
6e1d7babfb854d013106c2a2ca1b06bf,western_union,CAJA MUNICIPAL SULLANA  AGENCIA MANCORA,,Talara,PIURA,,PE,+51 73 258052,https://location.westernunion.com/pe/piura/talara/6e1d7babfb854d013106c2a2ca1b06bf,Mo-Fr 08:00-18:30; Sa 08:00-13:00,Western Union,Q861042
6176ec00a6b44b4612023ac81d5f99b0,western_union,CAJA TRUJILLO AG TALARA,,Talara,PIURA,,PE,+51 73 387560,https://location.westernunion.com/pe/piura/talara/6176ec00a6b44b4612023ac81d5f99b0,Mo-Fr 09:00-20:00; Sa 09:00-14:00,Western Union,Q861042
38a62bb3648919fcac4864fcf7a3637a,western_union,CAJA MUNICIPAL SULLANA  AGENCIA TALARA,,Talara,PIURA,,PE,+51 73 385717,https://location.westernunion.com/pe/piura/talara/38a62bb3648919fcac4864fcf7a3637a,Mo-Fr 08:00-18:30; Sa 08:00-13:00,Western Union,Q861042
1b0da673c745918b5a4fd234e92725f1,western_union,CASA DE CAMBIO TERRONES,,Talara,PIURA,,PE,+51 73 604222,https://location.westernunion.com/pe/piura/talara/1b0da673c745918b5a4fd234e92725f1,Mo-Fr 09:30-20:00; Sa 09:30-14:00,Western Union,Q861042
d613bf40a56e4d50d752dec1cd68169b,western_union,EMPRESA DE CREDITO ALTERNATIVA TAMBOGRAN,,Tambogrande,PIURA,,PE,+51 969 381 087,https://location.westernunion.com/pe/piura/tambogrande/d613bf40a56e4d50d752dec1cd68169b,Mo-Fr 08:30-17:00; Sa 09:00-13:00,Western Union,Q861042
8c951af26309e1ef0775f26fdc9ceb7c,western_union,EMPRESA DE CREDITO ALTERNATIVA AG CHULUC,,Morropon,PIURA,,PE,(+51) 1-979358193,https://location.westernunion.com/pe/piura/morropon/8c951af26309e1ef0775f26fdc9ceb7c,Mo-Fr 08:00-19:00; Sa 08:00-14:00,Western Union,Q861042
