Ref,Spider,Name,Address,City,State,Zipcode,Country,Phone,Website,Hours,Brand,WikiData
171017,bluerhino,Avilla Family Market,,Alexander,AR,,US,+1 501-794-1527,,,Blue Rhino,Q65681213
236949,bluerhino,Circle K #2709994,,Alexander,AR,,US,+1 501-451-7541,,,Blue Rhino,Q65681213
236961,bluerhino,Circle K #2709966,,Little Rock,AR,,US,+1 501-451-7538,,,Blue Rhino,Q65681213
40688,citi,ATM Circle K,,Alexander,AR,,US,,,,Citibank,Q857063
40963,citi,ATM Circle K,,Alexander,AR,,US,,,,Citibank,Q857063
293,dollar_general,Dollar General,,Alexander,AR,,US,+1 501-481-1284,https://www.dollargeneral.com/store-directory/ar/alexander/293,Mo-Su 07:00-23:00,Dollar General,Q145168
19419,dollar_general,Dollar General,,Alexander,AR,,US,+1 501-303-6890,https://www.dollargeneral.com/store-directory/ar/alexander/19419,Mo-Su 08:00-22:00,Dollar General,Q145168
18146,dollar_general,Dollar General,,Alexander,AR,,US,+1 501-943-5465,https://www.dollargeneral.com/store-directory/ar/alexander/18146,Mo-Su 08:00-22:00,Dollar General,Q145168
200327133,exxonmobil,FLASH MARKET #42,,BRYANT,AR,,US,,https://www.exxon.com/en/find-station/mobil-bryant-ar-flashmarket42-200327133,Mo-Su 06:00-00:00,Mobil,Q109676002
1352652,usps,ALEXANDER,,ALEXANDER,AR,,US,+1 501-455-1637,,"Mo-Fr 08:30-10:30,11:30-16:30; Sa 09:00-11:00",United States Postal Service,Q668687
7200200009,usps_collection_boxes,USPS COLLECTION BOX - PO LOBBY,15604 ALEXANDER RD,ALEXANDER,AR,,US,,,,United States Postal Service,Q668687
7200200001,usps_collection_boxes,USPS COLLECTION BOX - BLUE BOX,15604 ALEXANDER RD,ALEXANDER,AR,,US,,,,United States Postal Service,Q668687
7200200007,usps_collection_boxes,USPS COLLECTION BOX - PO LOBBY,15604 ALEXANDER RD,ALEXANDER,AR,,US,,,,United States Postal Service,Q668687
7200200008,usps_collection_boxes,USPS COLLECTION BOX - PO LOBBY,15604 ALEXANDER RD,ALEXANDER,AR,,US,,,,United States Postal Service,Q668687
,visa,,,ALEXANDER,AR,,US,,,,,
,visa,,,ALEXANDER,AR,,US,,,,,
,visa,,,ALEXANDER,AR,,US,,,,,
,visa,,,ALEXANDER,AR,,US,,,,,
,visa,,,ALEXANDER,AR,,US,,,,,
,visa,,,ALEXANDER,AR,,US,,,,,
,visa,,,ALEXANDER,AR,,US,,,,,
,visa,,,ALEXANDER,AR,,US,,,,,
,visa,,,LITTLE ROCK,AR,,US,,,,,
97e3e03f684137471970452a2b6f8ff4,western_union,FLASH MARKET #  42,,Alexander,AR,,US,+1 501-407-9400,https://location.westernunion.com/us/ar/alexander/97e3e03f684137471970452a2b6f8ff4,Mo-Su 07:00-23:00,Western Union,Q861042
