Ref,Spider,Name,Address,City,State,Zipcode,Country,Phone,Website,Hours,Brand,WikiData
/locations/propane-offices/massachusetts/great-barrington/69-van-deusenville-rd,amerigas,"AmerGas Propane | Great Barrington, Massachusetts",,Great Barrington,MA,,US,+1 413-274-6012,/locations/propane-offices/massachusetts/great-barrington/69-van-deusenville-rd,,AmeriGas,Q23130318
122691,bluerhino,Cumberland Farms #6668,,Great Barrington,MA,,US,+1 413-528-2105,,,Blue Rhino,Q65681213
191655,bluerhino,Price Chopper #155,,Great Barrington,MA,,US,+1 413-528-8415,,,Blue Rhino,Q65681213
166612,bluerhino,Big Y #22 - Great Barrington,,Great Barrington,MA,,US,+1 413-528-1314,,,Blue Rhino,Q65681213
187575,bluerhino,"Global #10025 Xtra Mart - Great Barrington, MA",,Great Barrington,MA,,US,+1 413-528-1322,,,Blue Rhino,Q65681213
205439,bluerhino,Aubuchon Hardware #033,,Great Barrington,MA,,US,+1 413-528-2900,,,Blue Rhino,Q65681213
50566,citi,ATM CVS,,Great Barrington,MA,,US,,,,Citibank,Q857063
ATM-1774,citizens_us,,,Great Barrington,MA,,US,,,,Citizens,Q5122694
,credit_union_us,Greylock FCU,,Great Barrington,MA,,US,+1 413-644-9234,,Mo-We 08:30-04:00; Th-Fr 08:30-05:00; Sa 08:30-12:30,,
520367,cumberland_farms_us,Cumberland Farms,,GREAT BARRINGTON,MA,,US,+1 413-528-2105,https://www.cumberlandfarms.com/find-us/generic-store-page/?id=006668,,Cumberland Farms,Q1143685
4349,dollartree,DollarTree,,Great Barrington,MA,,US,+1 413-429-0018,,Mo-Sa 09:00-21:00; Su 09:00-20:00,Dollar Tree,Q5289230
30624,dollar_general,Dollar General,,Great Barrington,MA,,US,+1 413-591-0114,https://www.dollargeneral.com/store-directory/ma/great-barrington/30624,Mo-Su 08:00-22:00,Dollar General,Q145168
304923,dunkin_us,Dunkin',,Great Barrington,MA,,US,+1 413-528-8154,https://locations.dunkindonuts.com/en/ma/great-barrington/494-main-st/304923,Mo-Su 05:00-19:00,Dunkin',Q847743
520367,eg_america_us,Cumberland Farms,,GREAT BARRINGTON,MA,,US,+1 413-528-2105,https://www.cumberlandfarms.com/find-us/generic-store-page/?id=006668,,Cumberland Farms,Q1143685
155,golub_corporation_us,Price Chopper Great Barrington,,Great Barrington,MA,,US,+1 413-528-8415,https://www.pricechopper.com/stores/ma/greatbarrington/price-chopper-155.html,Mo-Su 07:00-23:00,Price Chopper,Q7242574
78c91e3e-a088-e211-87d7-0050568924e6,goodwill,Great Barrington,,Great Barrington,MA,,US,+1 413-344-1920,https://www.goodwill.org/locator/location/?store=NzhjOTFlM2UtYTA4OC1lMjExLTg3ZDctMDA1MDU2ODkyNGU2&lat=NDIuMjA1Nw==&lng=LTczLjM0NjUx,,Goodwill,Q5583655
20335,h_r_block,H&R Block,,Great Barrington,MA,,US,+1 413-528-4000,https://www.hrblock.com/local-tax-offices/massachusetts/great-barrington/great-barrington/20335/,,H&R Block,Q5627799
GBRFI,marriott,Fairfield Inn & Suites Great Barrington Lenox/Berkshires,,Great Barrington,MA,,US,+1 413-644-3200,https://www.marriott.com/GBRFI,,Fairfield by Marriott,Q5430314
17577,mattress_firm_us,Mattress Firm Gt Barrington,,Great Barrington,MA,,US,+1 413-644-9094,https://www.mattressfirm.com/en-us/stores/ma/great-barrington/181006/,,Mattress Firm,Q6791878
2487,mightyflame,LIPTON MART #606,,GREAT BARRINGTON,MA,,US,+1 413-528-9898,,,Mighty Flame,
66041786,moneygram,CVS - #8970,,GREAT BARRINGTON,MA,,US,+1 413-528-2860,,Mo-Fr 08:00-20:00; Sa 08:00-18:00; Su 09:00-17:00,MoneyGram,Q1944412
700-main-st-suite-1,staples,"Staples Great Barrington, MA",,Great Barrington,MA,,US,,https://stores.staples.com/ma/great-barrington/700-main-st-suite-1,Mo-Fr 09:00-19:00; Sa 09:00-18:00; Su 11:00-18:00,Staples,Q785943
https://restaurants.subway.com/#14909867,subway,Subway Mobil,,Great Barrington Berkshire,MA,,US,+1 413-429-8454,https://restaurants.subway.com/united-states/ma/great-barrington/246-stockbridge-road,Mo-Su 07:30-20:30,Subway,Q244457
0228260600,sunoco_us,Sunoco,,GREAT BARRINGTON,MA,,US,+1 413-528-9773,,,Sunoco,Q1423218
101362,tjx,Great Barrington ,354 Stockbridge Rd ,Great Barrington ,MA,,US,+1 413-528-1903,,Mo-Sa 09:00-21:00; Su 10:00-20:00,Marshalls,Q15903261
1365493,usps,GREAT BARRINGTON,,GREAT BARRINGTON,MA,,US,+1 413-528-3670,,Mo-Fr 08:30-16:30; Sa 08:30-12:30,United States Postal Service,Q668687
0123000002,usps_collection_boxes,USPS COLLECTION BOX - BLUE BOX,700 MAIN ST,GT BARRINGTON,MA,,US,,,,United States Postal Service,Q668687
0123000007,usps_collection_boxes,USPS COLLECTION BOX - BLUE BOX,620 MAIN ST,GT BARRINGTON,MA,,US,,,,United States Postal Service,Q668687
0123000012,usps_collection_boxes,USPS COLLECTION BOX - BLUE BOX,29 LEWIS AVE,GT BARRINGTON,MA,,US,,,,United States Postal Service,Q668687
0123000011,usps_collection_boxes,USPS COLLECTION BOX - BLUE BOX,323 MAIN ST,GT BARRINGTON,MA,,US,,,,United States Postal Service,Q668687
0123000006,usps_collection_boxes,USPS COLLECTION BOX - BLUE BOX,294 MAIN ST,GT BARRINGTON,MA,,US,,,,United States Postal Service,Q668687
0123000005,usps_collection_boxes,USPS COLLECTION BOX - BLUE BOX,279 MAIN ST,GT BARRINGTON,MA,,US,,,,United States Postal Service,Q668687
0123000014,usps_collection_boxes,USPS COLLECTION BOX - PO LOBBY,222 MAIN ST LBBY DROP,GT BARRINGTON,MA,,US,,,,United States Postal Service,Q668687
0123000017,usps_collection_boxes,USPS COLLECTION BOX - PO LOBBY,222 MAIN ST,GT BARRINGTON,MA,,US,,,,United States Postal Service,Q668687
0123000008,usps_collection_boxes,USPS COLLECTION BOX - EXPRESS,222 MAIN ST,GT BARRINGTON,MA,,US,,,,United States Postal Service,Q668687
0123000009,usps_collection_boxes,USPS COLLECTION BOX - BLUE BOX,222 MAIN ST,GT BARRINGTON,MA,,US,,,,United States Postal Service,Q668687
0123000001,usps_collection_boxes,USPS COLLECTION BOX - BLUE BOX,336 STOCKBRIDGE RD,GT BARRINGTON,MA,,US,,,,United States Postal Service,Q668687
https://vcahospitals.com/all-caring,vca,VCA All Caring Animal Hospital,,Great Barrington,MA,,US,+1 413-528-8020,https://vcahospitals.com/all-caring,Mo-Fr 08:00-17:00; Sa 08:00-16:00,VCA,Q7906620
A00000018679,verizon_us,Wireless Zone Great Barrington,,Great Barrington,MA,,US,+1 413-528-8800,https://www.verizon.com/stores/details/massachusetts/great-barrington/wireless-zone-great-barrington-1802122/,Mo-Sa 10:00-18:00; Su 10:00-16:00,Verizon,Q919641
,visa,,,LEE,MA,,US,,,,,
,visa,,,GREAT BARRINGTON,MA,,US,,,,,
,visa,,,GREAT BARRINGTON,MA,,US,,,,,
,visa,,,GT. BARRINGTON,MA,,US,,,,,
,visa,,,GREAT BARRINGTON,MA,,US,,,,,
,visa,,,GREAT BARINGTON,MA,,US,,,,,
,visa,,,BARRINGTON,MA,,US,,,,,
,visa,,,GREAT BARRINGTON,MA,,US,,,,,
,visa,,,GREAT BARRINGTON,MA,,US,,,,,
,visa,,,GREAT BARRINGTON,MA,,US,,,,,
,visa,,,GT BARRINGTON,MA,,US,,,,,
,visa,,,GREAT BARRINGTON,MA,,US,,,,,
,visa,,,GREAT BARRINGTON,MA,,US,,,,,
,visa,,,GREAT BARRINGTON,MA,,US,,,,,
,visa,,,GR. BARRINGTON,MA,,US,,,,,
