Ref,Spider,Name,Address,City,State,Zipcode,Country,Phone,Website,Hours,Brand,WikiData
https://storelocations.ae.com/#1726055,american_eagle_outfitters,American Eagle Outlet Lee Premium Outlets,,Lee,MA,,US,+1 413-243-0724,https://storelocations.ae.com/us/ma/lee/150-prime-outlets-bouleva.html,Mo-Th 10:00-18:00; Fr-Sa 10:00-20:00; Su 11:00-18:00,American Eagle Outlet,Q2842931
BBW02125,bathandbodyworks_us,LEE PREMIUM OUTLETS,,LEE,MA,,US,+1 413-394-9813,,Mo-Th 10:00-18:00; Fr-Sa 10:00-20:00; Su 11:00-18:00,Bath & Body Works,Q810773
187573,bluerhino,"Global #2750 - Lee, MA",,Lee,MA,,US,+1 413-243-2399,,,Blue Rhino,Q65681213
74384,bluerhino,Lee Citgo,,Lee,MA,,US,+1 413-243-6443,,,Blue Rhino,Q65681213
167980,bluerhino,Big Y #98 - Lee - Fuel Site,,Lee,MA,,US,+1 413-642-9127,,,Blue Rhino,Q65681213
166626,bluerhino,Big Y #37 - Lee,,Lee,MA,,US,+1 413-243-3201,,,Blue Rhino,Q65681213
74,calvin_klein_ca_us,Calvin Klein,,Lee,MA,,US,+1 413-243-5791,https://www.calvinklein.us/en,,Calvin Klein,Q1068628
//locations.carters.com/ma/lee/carters-lee-ma,carters_us,Carter's Lee Carters,,Lee,MA,,US,+1 413-243-2127,https://locations.carters.com/ma/lee/carters-lee-ma,Mo-Th 10:00-18:00; Fr-Sa 10:00-20:00; Su 11:00-18:00,Carter's,Q5047083
https://stores.champion.com/ma/lee/50-water-street.html,champion_us,Champion Outlets Lee,,Lee,MA,,US,+1 413-243-4066,https://stores.champion.com/ma/lee/50-water-street.html,Mo-Th 10:00-18:00; Fr-Sa 10:00-20:00; Su 11:00-18:00,Champion,Q2948688
89373,citi,ATM Walgreens,,Lee,MA,,US,,,,Citibank,Q857063
lee/6634,claires,Shop Ear Piercings & Jewelry at Lee Premium Outlets,,LEE,MA,,US,+1 413-243-0222,https://stores.claires.com/us/ma/lee/6634.html,Mo-Su 10:00-18:00,Claire's,Q2974996
https://www.coach.com/stores/#17277356,coach_us,COACH Outlet,,Lee,MA,,US,+1 617-996-7539,https://www.coach.com/stores/outlets/ma/lee/145-premium-outlet-blvd,Mo-Th 10:00-18:00; Fr-Sa 10:00-20:00; Su 11:00-18:00,Coach,Q727697
206588,crocs_eu,Crocs at Lee Premium,,Lee,MA,,US,+1 413-243-4572,,,Crocs,Q926699
336973,dunkin_us,Dunkin',,Lee,MA,,US,+1 413-243-1676,https://locations.dunkindonuts.com/en/ma/lee/200-housatonic-st/336973,Mo-Su 05:00-19:00,Dunkin',Q847743
140021,electrify_america,"Simon Lee Premium Outlets (Lee, MA)",,Lee,MA,,US,,,,Electrify America,Q59773555
30136be2-0e7c-e211-87d7-0050568924e6,goodwill,Lee Donation Center & Store,,Lee,MA,,US,+1 413-442-0061,https://www.goodwill.org/locator/location/?store=MzAxMzZiZTItMGU3Yy1lMjExLTg3ZDctMDA1MDU2ODkyNGU2&lat=NDIuMzEwMDE=&lng=LTczLjI1MjM3,,Goodwill,Q5583655
https://stores.factory.jcrew.com/#832743,j_crew_us,J.Crew Factory,,Lee,MA,,US,+1 413-243-9095,https://stores.factory.jcrew.com/us/ma/lee/390-prime-outlets-blvd,Mo-Th 10:00-18:00; Fr-Sa 10:00-20:00; Su 11:00-18:00,J. Crew,Q5370765
https://www.katespade.com/stores/#18467822,kate_spade_ca_us,Kate Spade Outlet Lee Premium,,Lee,MA,,US,+1 413-216-4819,https://www.katespade.com/stores/us/ma/lee/490-premium-outlets-blvd,Mo 10:00-20:00; Tu-Th 10:00-18:00; Fr-Sa 10:00-20:00; Su 11:00-18:00,Kate Spade New York,Q6375797
https://stores.loft.com/outlet/us/ma/lee/17-premium-outlets-boulevard.html,loft_us,Loft,,Lee,MA,,US,+1 413-243-1487,https://stores.loft.com/outlet/us/ma/lee/17-premium-outlets-boulevard.html,,Loft,Q62075137
https://locations.michaelkors.com/us/ma/lee/100-premium-outlets-blvd.html,michaelkors,Michael Kors Outlet LEE,,Lee,MA,,US,+1 413-243-2300,https://locations.michaelkors.com/us/ma/lee/100-premium-outlets-blvd.html,Mo-Th 10:00-18:00; Fr-Sa 10:00-20:00; Su 11:00-18:00,Michael Kors,Q19572998
https://locations.michaelkors.com/fr/us/ma/lee/100-premium-outlets-blvd.html,michaelkors,Michael Kors Outlet LEE,,Lee,MA,,US,+1 413-243-2300,https://locations.michaelkors.com/fr/us/ma/lee/100-premium-outlets-blvd.html,Mo-Th 10:00-18:00; Fr-Sa 10:00-20:00; Su 11:00-18:00,Michael Kors,Q19572998
2486,mightyflame,LIPTON MART #605,,LEE,MA,,US,+1 413-243-9898,,,Mighty Flame,
//locations.oshkosh.com/ma/lee/oshkosh-lee-ma,oshkosh_us,Oshkosh B'gosh Lee OshKosh,,Lee,MA,,US,+1 413-243-4761,https://locations.oshkosh.com/ma/lee/oshkosh-lee-ma,Mo-Th 10:00-18:00; Fr-Sa 10:00-20:00; Su 11:00-18:00,OshKosh B'gosh,Q1417347
dresser-hull-26827,ppgpaints,DRESSER HULL,,"Lee, ",MA,,US,+1 413-243-1400,https://www.ppgpaints.com/store-locator/us/massachusetts/lee-paint-stores/dresser-hull-26827,,PPG Paints,Q83891559
https://www.premiumoutlets.com/outlet/lee/about,premium_outlets,Lee Premium Outlets®,,Lee,MA,,US,+1 413-243-2063,https://www.premiumoutlets.com/outlet/lee,,Premium Outlets,
1330,simonmalls,Lee Premium Outlets®,,Lee,MA,,US,+1 413-243-8186,https://www.simon.com/mall/lee,Mo-Th 10:00-18:00; Fr-Sa 10:00-20:00; Su 11:00-18:00,Premium Outlets,Q2287759
2747,snap_fitness,"Lee, MA",14 Pleasant St,Lee,MA,,US,+1 413-243-8000,https://www.snapfitness.com/us/gyms/lee-ma,24/7,Snap Fitness,Q7547254
0387862600,sunoco_us,Sunoco,,LEE,MA,,US,+1 413-243-8030,,24/7,Sunoco,Q1423218
29,under_armour,Under Armour Factory House,,Lee,MA,,US,+1 413-728-5203,https://store-locations.underarmour.com/ma/lee/29,,Under Armour,Q2031485
1370101,usps,LEE,,LEE,MA,,US,+1 413-243-1392,,Mo-Fr 08:30-16:30; Sa 09:00-12:00,United States Postal Service,Q668687
0123800017,usps_collection_boxes,USPS COLLECTION BOX - BLUE BOX,118 MAIN RD,LEE,MA,,US,,,,United States Postal Service,Q668687
0123800013,usps_collection_boxes,USPS COLLECTION BOX - BLUE BOX,50 WATER ST,LEE,MA,,US,,,,United States Postal Service,Q668687
0123800010,usps_collection_boxes,USPS COLLECTION BOX - BLUE BOX,480 PLEASANT ST,LEE,MA,,US,,,,United States Postal Service,Q668687
0123800007,usps_collection_boxes,USPS COLLECTION BOX - BLUE BOX,10 PLEASANT ST,LEE,MA,,US,,,,United States Postal Service,Q668687
0123800016,usps_collection_boxes,USPS COLLECTION BOX - BLUE BOX,155 MARBLE ST,LEE,MA,,US,,,,United States Postal Service,Q668687
0123800015,usps_collection_boxes,USPS COLLECTION BOX - BLUE BOX,32 MAIN ST,LEE,MA,,US,,,,United States Postal Service,Q668687
0123800006,usps_collection_boxes,USPS COLLECTION BOX - BLUE BOX,59 MAIN ST,LEE,MA,,US,,,,United States Postal Service,Q668687
0123800002,usps_collection_boxes,USPS COLLECTION BOX - BLUE BOX,35 FRANK P CONSOLATI WAY,LEE,MA,,US,,,,United States Postal Service,Q668687
0123800012,usps_collection_boxes,USPS COLLECTION BOX - PO LOBBY,35 FRANK P CONSOLATI WAY,LEE,MA,,US,,,,United States Postal Service,Q668687
0123800018,usps_collection_boxes,USPS COLLECTION BOX - PO LOBBY,35 FRANK P CONSOLATI WAY,LEE,MA,,US,,,,United States Postal Service,Q668687
0123800004,usps_collection_boxes,USPS COLLECTION BOX - BLUE BOX,208 MAIN ST,LEE,MA,,US,,,,United States Postal Service,Q668687
,visa,,,LEE,MA,,US,,,,,
,visa,,,LEE,MA,,US,,,,,
,visa,,,LEE,MA,,US,,,,,
,visa,,,LEE,MA,,US,,,,,
,visa,,,LEE,MA,,US,,,,,
,visa,,,LEE,MA,,US,,,,,
,visa,,,LEE,MA,,US,,,,,
https://www.walgreens.com/locator/walgreens-25+park+st-lee-ma-01238/id=19088,walgreens,Walgreens,,Lee,MA,,US,+1 413-243-2402,https://www.walgreens.com/locator/walgreens-25+park+st-lee-ma-01238/id=19088,Mo-Su 08:00-21:00,Walgreens,Q1591889
