Ref,Spider,Name,Address,City,State,Zipcode,Country,Phone,Website,Hours,Brand,WikiData
https://vertretung.allianz.de/mohamed.nahas/,allianz_de,Allianz Versicherung Mohamed Amer Nahas GENERALVERTRETUNG,,Berlin,,,DE,+49 30 88007665,https://vertretung.allianz.de/mohamed.nahas/,Mo-Fr 11:00-19:00; Sa 11:00-16:00,Allianz SE,Q487292
https://vertretung.allianz.de/christian.balke/,allianz_de,Allianz Versicherung Christian Balke GENERALVERTRETUNG,,Berlin,,,DE,+49 30 30329176,https://vertretung.allianz.de/christian.balke/,Mo-Tu 10:00-16:00; We 12:00-18:00; Th 10:00-16:00; Fr 09:00-16:00,Allianz SE,Q487292
11029500,bp,Maciej Daniluk,,Berlin,,,DE,+49 30 6811313,http://tankstelle.aral.de/tankstelle/11029500,24/7,BP,Q152057
DE_EXT_01875,totalenergies,"ARAL TANKSTELLE BERLIN, SONNEN",,Berlin,,,DE,,https://store.totalenergies.fr/en_EN/DE_EXT_01875,,Aral,Q565734
,visa,,,BERLIN,,,DE,,,,,
,visa,,,BERLIN,,,DE,,,,,
,visa,,,BERLIN,,,DE,,,,,
,visa,,,BERLIN,,,DE,,,,,
,visa,,,BERLIN,,,DE,,,,,
,visa,,,BERLIN,,,DE,,,,,
,visa,,,BERLIN,,,DE,,,,,
,visa,,,BERLIN,,,DE,,,,,
,visa,,,BERLIN,,,DE,,,,,
,visa,,,BERLIN,,,DE,,,,,
,visa,,,BERLIN,,,DE,,,,,
,visa,,,BERLIN,,,DE,,,,,
,visa,,,BERLIN,,,DE,,,,,
,visa,,,BERLIN,,,DE,,,,,
,visa,,,BERLIN,,,DE,,,,,
,visa,,,BERLIN,,,DE,,,,,
,visa,,,BERLIN,,,DE,,,,,
