Ref,Spider,Name,Address,City,State,Zipcode,Country,Phone,Website,Hours,Brand,WikiData
A348,action,Kraków,,Kraków,,,PL,,https://www.action.com/pl-pl/sklepy/krakow5/,,Action,Q2634111
2081,carrefour_pl,Carrefour Market,,Kraków,,,PL,,,Mo-Sa 08:00-22:00; Su 09:30-20:30,Carrefour Market,Q2689639
195,ccc,Kraków CCC Kraków Galeria Kazimierz 1228,,Kraków,,,PL,+48 12 422 01 06,https://ccc.eu/pl/market/krakow-ccc-krakow-galeria-kazimierz-1228,Mo-Th 10:00-21:00; Fr 10:00-23:00; Sa 10:00-21:00; Su 10:00-20:00,CCC,Q11788344
"50.054852000|19.955142000|Galeria Kazimierz|ul. Podgórska 34, Kraków, 31-536, Poland",costacoffee_pl,Galeria Kazimierz,"ul. Podgórska 34, Kraków, 31-536, Poland",Kraków,,,PL,,,,Costa Coffee,Q608845
0001046046,ecco,ECCO Galeria Kazimierz,,Kraków,,,PL,+48 668 216 730,,Mo-Sa 10:00-21:00; Su 10:00-20:00,Ecco,Q1280255
10,empik_pl,Kraków Kazimierz (SP),ul. Podgórska 34,Kraków,,,PL,,"https://www.empik.com/salony-empik/krakow/krakow-kazimierz-sp,10,e",Mo-Sa 10:00-21:00; Su 10:00-20:00,Empik,Q3045978
poland#krakow,ernst_young,EY,Podgórska 36,Kraków,,,PL,+48 12 424 32 00,https://www.ey.com/locations/poland#krakow,,EY,Q489097
RCDN0P04,millennium_bank_pl,RCDN0P04,,Kraków,,,PL,,,,Bank Millennium,Q4855947
RCDN0P05,millennium_bank_pl,RCDN0P05,,Kraków,,,PL,,,,Bank Millennium,Q4855947
RCNN0E55,millennium_bank_pl,RCNN0E55,,Kraków,,,PL,,,,Bank Millennium,Q4855947
26897,orange_pl,Orange Kraków Galeria Kazimierz,,Kraków,,,PL,+48 512 440 216,https://salony.orange.pl/pl/orange-krak%C3%B3w-galeria-kazimierz-26897,Mo-Sa 10:00-21:00,Orange,Q1431486
390915,orlen_paczka_pl,,,Kraków,,,PL,,,Mo-Fr 10:00-18:00,Orlen Paczka,Q110457879
TBL-8198,timberland,Timberland - Timberland Kazimierz,,Krakow,,,PL,+48 12 428 00 09,,,Timberland,Q1539185
671,tmobile_pl,T-Mobile,,Kraków,,,PL,+48 12 357 12 12,,Mo-Sa 10:00-21:00,T-Mobile,Q327634
N590532,united_colors_of_benetton,Benetton Kraków,,Kraków,,,PL,+48 453 054 148,,Mo-Sa 10:00-21:00; Su 10:00-20:00,United Colors of Benetton,Q817139
N591158,united_colors_of_benetton,Benetton Kraków,,Kraków,,,PL,+48 453 054 135,,Mo-Sa 10:00-21:00; Su 10:00-20:00,United Colors of Benetton,Q817139
,visa,,,KRAKOW,,,PL,,,,,
,visa,,,KRAKOW,,,PL,,,,,
,visa,,,KRAKOW,,,PL,,,,,
