Ref,Spider,Name,Address,City,State,Zipcode,Country,Phone,Website,Hours,Brand,WikiData
72555376,moneygram,PRAMOD TRAVELS,,PUNE,,,IN,+91 94220 32342,,Mo-Su 08:00-21:00,MoneyGram,Q1944412
72601518,moneygram,PANKAJ ENTERPRISES,,PUNE,,,IN,+91 98220 26904,,Mo-Su 08:00-21:00,MoneyGram,Q1944412
70744503,moneygram,RNS SERVICES - PUNE,,PUNE,,,IN,0207507009030,,Mo-Sa 10:00-19:00; Su 00:00-24:00,MoneyGram,Q1944412
73264268,moneygram,MUTHOOT FINANCE LTD - #1723 - PUNE - PUN,,PUNE,,,IN,+91 20 2448 1716,,Mo-Su 09:00-19:00,MoneyGram,Q1944412
73275590,moneygram,MUTHOOT FINANCE LTD - #2552 - PUNE - PUN,,PUNE,,,IN,+91 20 2446 6609,,Mo-Su 09:00-19:00,MoneyGram,Q1944412
72969302,moneygram,ASIM MEMON,,PUNE,,,IN,+91 80870 41195,,Mo-Su 08:00-21:00,MoneyGram,Q1944412
72954508,moneygram,SANGHVI TRAVELS,,PUNE,,,IN,+91 94223 63330,,Mo-Su 08:00-21:00,MoneyGram,Q1944412
72955316,moneygram,SHREE SAI TRADING,,PUNE,,,IN,+91 98900 77174,,Mo-Su 08:00-21:00,MoneyGram,Q1944412
73416061,moneygram,SHREE YASHRAJ ENTERPRISES,,PUNE,,,IN,+91 98814 96266,,Mo-Su 08:00-21:00,MoneyGram,Q1944412
73388283,moneygram,VISHWA AGENCIES,,PUNE,,,IN,+91 97653 91677,,Mo-Su 08:00-21:00,MoneyGram,Q1944412
73448097,moneygram,OM SAI TRAVELS,,PUNE,,,IN,+91 99703 55795,,Mo-Su 08:00-21:00,MoneyGram,Q1944412
73430416,moneygram,VISHAKHA REAL ESTATE AGENCY,,PUNE,,,IN,+91 83299 84529,,Mo-Su 08:00-21:00,MoneyGram,Q1944412
73636317,moneygram,ROHINI TOURS,,PUNE,,,IN,+91 94230 03821,,Mo-Su 08:00-21:00,MoneyGram,Q1944412
73739926,moneygram,ARHATA DISTRIBUTORS,,PUNE,,,IN,+91 99226 30126,,Mo-Su 08:00-21:00,MoneyGram,Q1944412
73732017,moneygram,JOURNEY DEALS,,PUNE,,,IN,+91 788 788 1444,,Mo-Su 08:00-21:00,MoneyGram,Q1944412
73727721,moneygram,P AND S TOURS AND TRAVELS,,PUNE,,,IN,+91 75077 71616,,Mo-Su 08:00-21:00,MoneyGram,Q1944412
73932260,moneygram,PAWAN TOURS AND TRAVELS,,PUNE,,,IN,+91 94220 34451,,Mo-Su 08:00-21:00,MoneyGram,Q1944412
,visa,,,PUNE,,,IN,,,,,
,visa,,,PUNE,,,IN,,,,,
,visa,,,MUMBAI,,,IN,,,,,
,visa,,,PUNE,,,IN,,,,,
,visa,,,PUNE,,,IN,,,,,
,visa,,,PUNE,,,IN,,,,,
,visa,,,PUNE,,,IN,,,,,
,visa,,,PUNE,,,IN,,,,,
,visa,,,PUNE,,,IN,,,,,
