Ref,Spider,Name,Address,City,State,Zipcode,Country,Phone,Website,Hours,Brand,WikiData
44966184,moneygram,BDO - #208 - AYALA AVENUE - PEOPLE SUPPO,,MAKATI,,,PH,6328897552,,Mo-Fr 09:00-18:30; Sa-Su 08:00-21:00,MoneyGram,Q1944412
68308605,moneygram,METROBANK - ROOSEVELT,,QUEZON CITY,,,PH,28700700,,Mo-Fr 09:00-16:30; Sa-Su 00:00-24:00,MoneyGram,Q1944412
43505708,moneygram,BANK OF COMMERCE,,QUEZON CITY,,,PH,6323737671,,Mo-Fr 09:00-16:00; Sa-Su 00:00-24:00,MoneyGram,Q1944412
43506189,moneygram,BANK OF COMMERCE,,MAKATI CITY,,,PH,6328170660,,Mo-Fr 09:00-16:00; Sa-Su 00:00-24:00,MoneyGram,Q1944412
43506231,moneygram,BANK OF COMMERCE,,MARIKINA,,,PH,6326461808,,Mo-Fr 09:00-16:00; Sa-Su 00:00-24:00,MoneyGram,Q1944412
43505892,moneygram,BANK OF COMMERCE,,QUEZON CITY,,,PH,6329328092,,Mo-Fr 09:00-16:00; Sa-Su 00:00-24:00,MoneyGram,Q1944412
43506066,moneygram,BANK OF COMMERCE,,CEBU CITY,,,PH,+63 32 253 9863,,Mo-Fr 09:00-16:00; Sa-Su 00:00-24:00,MoneyGram,Q1944412
43506257,moneygram,BANK OF COMMERCE,,PASIG CITY,,,PH,6326333450,,Mo-Fr 09:00-16:00; Sa-Su 00:00-24:00,MoneyGram,Q1944412
43506325,moneygram,BANK OF COMMERCE,,PARANAQUE,,,PH,6328253220,,Mo-Fr 09:00-16:00; Sa-Su 00:00-24:00,MoneyGram,Q1944412
43506338,moneygram,BANK OF COMMERCE,,MANILA,,,PH,6325242303,,Mo-Fr 09:00-16:00; Sa-Su 00:00-24:00,MoneyGram,Q1944412
43506040,moneygram,BANK OF COMMERCE,,QUEZON CITY,,,PH,6329510281,,Mo-Fr 09:00-16:00; Sa-Su 00:00-24:00,MoneyGram,Q1944412
43506134,moneygram,BANK OF COMMERCE,,SAN FERNANDO,,,PH,+63 72 241 2235,,Mo-Fr 09:00-16:00; Sa-Su 00:00-24:00,MoneyGram,Q1944412
43506273,moneygram,BANK OF COMMERCE,,QUEZON CITY,,,PH,6327122560,,Mo-Fr 09:00-16:00; Sa-Su 00:00-24:00,MoneyGram,Q1944412
43505698,moneygram,BANK OF COMMERCE,,CALOOCAN CITY,,,PH,6323664446,,Mo-Fr 09:00-16:00; Sa-Su 00:00-24:00,MoneyGram,Q1944412
43505944,moneygram,BANK OF COMMERCE,,CALOOCAN CITY,,,PH,6322874709,,Mo-Fr 09:00-16:00; Sa-Su 00:00-24:00,MoneyGram,Q1944412
43505999,moneygram,BANK OF COMMERCE,,MARIKINA,,,PH,6329411998,,Mo-Fr 09:00-16:00; Sa-Su 00:00-24:00,MoneyGram,Q1944412
43506260,moneygram,BANK OF COMMERCE,,CEBU CITY,,,PH,+63 32 261 1598,,Mo-Fr 09:00-16:00; Sa-Su 00:00-24:00,MoneyGram,Q1944412
43506367,moneygram,BANK OF COMMERCE,,VALENCIA,,,PH,+63 88 844 2265,,Mo-Fr 09:00-16:00; Sa-Su 00:00-24:00,MoneyGram,Q1944412
43506150,moneygram,BANK OF COMMERCE,,LAS PINAS,,,PH,6328723932,,Mo-Fr 09:00-16:00; Sa-Su 00:00-24:00,MoneyGram,Q1944412
43506192,moneygram,BANK OF COMMERCE,,MALABON,,,PH,6322812841,,Mo-Fr 09:00-16:00; Sa-Su 00:00-24:00,MoneyGram,Q1944412
43506286,moneygram,BANK OF COMMERCE,,QUEZON CITY,,,PH,6329112461,,Mo-Fr 09:00-16:00; Sa-Su 00:00-24:00,MoneyGram,Q1944412
43506299,moneygram,BANK OF COMMERCE,,PARANAQUE,,,PH,6328256302,,Mo-Fr 09:00-16:00; Sa-Su 00:00-24:00,MoneyGram,Q1944412
43505850,moneygram,BANK OF COMMERCE,,QUEZON CITY,,,PH,6329135203,,Mo-Fr 09:00-16:00; Sa-Su 00:00-24:00,MoneyGram,Q1944412
43505915,moneygram,BANK OF COMMERCE,,CALAMBA,,,PH,+63 49 545 1703,,Mo-Fr 09:00-16:00; Sa-Su 00:00-24:00,MoneyGram,Q1944412
43506354,moneygram,BANK OF COMMERCE,,MANILA,,,PH,6325260222,,Mo-Fr 09:00-16:00; Sa-Su 00:00-24:00,MoneyGram,Q1944412
43505973,moneygram,BANK OF COMMERCE,,CEBU CITY,,,PH,+63 32 253 4174,,Mo-Fr 09:00-16:00; Sa-Su 00:00-24:00,MoneyGram,Q1944412
43506082,moneygram,BANK OF COMMERCE,,PASAY CITY,,,PH,6328312821,,Mo-Fr 09:00-16:00; Sa-Su 00:00-24:00,MoneyGram,Q1944412
43506147,moneygram,BANK OF COMMERCE,,LAS PINAS,,,PH,6328723932,,Mo-Fr 09:00-16:00; Sa-Su 00:00-24:00,MoneyGram,Q1944412
43500693,moneygram,BDO - #336 - ILOILO - QUEZON,,PARANAQUE CITY,,,PH,6328250043,,Mo-Fr 08:30-18:00; Sa-Su 00:00-24:00,MoneyGram,Q1944412
45473252,moneygram,BDO - #277 - QUEZON AVENUE - CORDILLERA,,QUEZON CITY,,,PH,6327026652,,Mo-Fr 08:30-18:00; Sa-Su 00:00-24:00,MoneyGram,Q1944412
45482065,moneygram,BDO - #360 - AYALA TRIANGLE 1,,MAKATI,,,PH,6327026652,,Mo-Fr 08:30-17:30; Sa-Su 00:00-24:00,MoneyGram,Q1944412
45482078,moneygram,BDO - #486 - CAVITE - CARMONA,,CARMONA,,,PH,6327026652,,Mo-Fr 08:30-18:00; Sa-Su 00:00-24:00,MoneyGram,Q1944412
45482463,moneygram,BDO - #591 - CALAMBA CROSSING - NORTH,,CALAMBA,,,PH,6327026652,,Mo-Sa 08:00-18:30; Su 00:00-24:00,MoneyGram,Q1944412
45482492,moneygram,BDO - #540 - KARRIVIN PLAZA  CHINO ROCES,,MAKATI,,,PH,6327026652,,Mo-Fr 08:30-18:00; Sa-Su 00:00-24:00,MoneyGram,Q1944412
45482654,moneygram,BDO - #506 - AYALA AVENUE  SGV 1 BLDG,,MAKATI,,,PH,6327026652,,Mo-Fr 08:30-18:00; Sa-Su 00:00-24:00,MoneyGram,Q1944412
45482683,moneygram,BDO - #532 - EVANGELISTA-MAKATI,,MAKATI,,,PH,6327026652,,Mo-Fr 08:30-18:00; Sa-Su 00:00-24:00,MoneyGram,Q1944412
45482874,moneygram,BDO - #81 - ILOILO - CENTRAL,,ILOILO,,,PH,6327026652,,Mo-Sa 08:30-18:00; Su 00:00-24:00,MoneyGram,Q1944412
45483255,moneygram,BDO - #362 - MEDICAL PLAZA-LEGASPI VILLA,,MAKATI,,,PH,6327026652,,Mo-Fr 08:30-18:00; Sa-Su 00:00-24:00,MoneyGram,Q1944412
45483268,moneygram,BDO - #82 - BACOLOD - ARANETA,,BACOLOD,,,PH,6327026652,,Mo-Sa 08:30-18:00; Su 00:00-24:00,MoneyGram,Q1944412
45484254,moneygram,BDO - #490 - ROCKWELL CENTER-MAKATI,,MAKATI,,,PH,6327026652,,Mo-Fr 08:30-18:00; Sa-Su 00:00-24:00,MoneyGram,Q1944412
45486058,moneygram,BDO - #480 - PASAY - DOMESTIC ROAD,,PASAY,,,PH,6327026652,,Mo-Fr 09:00-18:30; Sa-Su 00:00-24:00,MoneyGram,Q1944412
45486061,moneygram,BDO - #375 - DAVAO - LIZADA,,DAVAO,,,PH,6327026652,,Mo-Sa 08:30-18:00; Su 00:00-24:00,MoneyGram,Q1944412
45486650,moneygram,BDO - #265 - WASHINGTON-GIL PUYAT,,MAKATI,,,PH,6327026652,,Mo-Fr 08:30-18:00; Sa-Su 00:00-24:00,MoneyGram,Q1944412
45486854,moneygram,BDO - #530 - ASIA TOWER - PASEO,,MAKATI,,,PH,6327026652,,Mo-Fr 08:00-18:30; Sa-Su 00:00-24:00,MoneyGram,Q1944412
45487057,moneygram,BDO - #466 - SHAW BLVD. - BEACON PLAZA,,MANDALUYONG,,,PH,6327026652,,Mo-Fr 08:30-18:00; Sa-Su 00:00-24:00,MoneyGram,Q1944412
45487251,moneygram,BDO - #459 - BONI - LIGAYA,,MANDALUYONG,,,PH,6327026652,,Mo-Fr 08:30-18:00; Sa-Su 00:00-24:00,MoneyGram,Q1944412
45489851,moneygram,BDO - #337 - DAVAO - STA. ANA,,DAVAO,,,PH,6327026652,,Mo-Sa 08:30-18:00; Su 00:00-24:00,MoneyGram,Q1944412
45487853,moneygram,BDO - #415 - PASIG - MERALCO AVENUE,,MANDALUYONG,,,PH,6327026652,,Mo-Fr 08:30-18:00; Sa-Su 00:00-24:00,MoneyGram,Q1944412
45473456,moneygram,BDO - #46 - PASEO TOWER - MAKATI,,MAKATI,,,PH,6327026652,,Mo-Fr 08:30-18:00; Sa-Su 00:00-24:00,MoneyGram,Q1944412
45473469,moneygram,BDO - #615 - CORINTHIAN GARDENS,,QUEZON CITY,,,PH,6327026652,,Mo-Fr 08:30-18:00; Sa-Su 00:00-24:00,MoneyGram,Q1944412
45473663,moneygram,BDO - #426 - CONGRESSIONAL - MINDANAO AV,,QUEZON CITY,,,PH,6327026652,,Mo-Fr 08:30-18:00; Sa-Su 00:00-24:00,MoneyGram,Q1944412
45473883,moneygram,BDO - #361 - DEL MONTE  ARANETA AVENUE,,QUEZON CITY,,,PH,6327026652,,Mo-Fr 08:30-18:00; Sa-Su 00:00-24:00,MoneyGram,Q1944412
45474057,moneygram,BDO - #254 - NOVALICHES - FOREST HILLS,,QUEZON CITY,,,PH,6327026652,,Mo-Fr 08:30-18:00; Sa-Su 00:00-24:00,MoneyGram,Q1944412
45474662,moneygram,BDO - #395 - STO. NINO ST. - ROOSEVELT,,QUEZON CITY,,,PH,6327026652,,Mo-Fr 08:30-18:00; Sa-Su 00:00-24:00,MoneyGram,Q1944412
45474688,moneygram,BDO - #116 - SM HYPERMARKET NOVALICHES,,QUEZON CITY,,,PH,6327026652,,Mo-Sa 09:00-18:30; Su 00:00-24:00,MoneyGram,Q1944412
45474866,moneygram,BDO - #124 - TIMOG,,QUEZON CITY,,,PH,6327026652,,Mo-Fr 08:30-18:00; Sa-Su 00:00-24:00,MoneyGram,Q1944412
45480863,moneygram,BDO - #580 - MARILAO - MACARTHUR HIGHWAY,,MARILAO,,,PH,6327026652,,Mo-Fr 08:30-17:30; Sa 09:00-18:00; Su 00:00-24:00,MoneyGram,Q1944412
45481066,moneygram,BDO - #384 - GRACE PARK - 11TH AVENUE,,CALOOCAN,,,PH,6327026652,,Mo-Fr 08:30-18:00; Sa-Su 00:00-24:00,MoneyGram,Q1944412
45481477,moneygram,BDO - #543 - ALFARO - SALCEDO VILLAGE,,MAKATI,,,PH,6327026652,,Mo-Fr 08:30-18:00; Sa-Su 00:00-24:00,MoneyGram,Q1944412
45481480,moneygram,BDO - #274 - TUGUEGARAO - BONIFACIO ST.,,TUGUEGARAO CAGAYAN,,,PH,6327026652,,Mo-Sa 08:30-18:00; Su 00:00-24:00,MoneyGram,Q1944412
45504066,moneygram,BDO - #624 - MARIKINA - GIL FERNANDO AVE,,MARIKINA,,,PH,6327026652,,Mo-Fr 09:00-18:30; Sa-Su 00:00-24:00,MoneyGram,Q1944412
45507652,moneygram,BDO - #223 - BANAWE - N. ROXAS,,QUEZON CITY,,,PH,6327026652,,Mo-Fr 09:00-18:30; Sa-Su 00:00-24:00,MoneyGram,Q1944412
45509252,moneygram,BDO - #617 - ANGONO ML QUEZON AVENUE,,RIZAL,,,PH,6327026652,,Mo-Sa 09:00-18:30; Su 00:00-24:00,MoneyGram,Q1944412
45511884,moneygram,BDO - #535 - ARNAIZ-SAN LORENZO,,MAKATI,,,PH,6327026652,,Mo-Fr 08:30-18:00; Sa-Su 00:00-24:00,MoneyGram,Q1944412
45512252,moneygram,BDO - #428 - YAKAL  CHINO ROCES AVENUE,,MAKATI,,,PH,6327026652,,Mo-Fr 08:30-18:00; Sa-Su 00:00-24:00,MoneyGram,Q1944412
45512650,moneygram,BDO - #429 - MAKATI CINEMA SQUARE,,MAKATI,,,PH,6327026652,,Mo-Fr 09:00-18:30; Sa-Su 00:00-24:00,MoneyGram,Q1944412
45513057,moneygram,BDO - #355 - SM CITY BF PARANAQUE,,PARANAQUE CITY,,,PH,6327026652,,Mo-Su 10:00-19:30,MoneyGram,Q1944412
45513060,moneygram,BDO - #431 - BETTER LIVING - BICUTAN,,PARANAQUE,,,PH,6327026652,,Mo-Fr 09:00-18:30; Sa-Su 00:00-24:00,MoneyGram,Q1944412
45513251,moneygram,BDO - #412 - PRESIDENT'S AVENUE - BF PAR,,PARANAQUE,,,PH,6327026652,,Mo-Fr 08:30-18:00; Sa-Su 00:00-24:00,MoneyGram,Q1944412
45513264,moneygram,BDO - #464 - ADB AVENUE ORTIGAS,,PASIG,,,PH,6327026652,,Mo-Fr 09:00-18:30; Sa-Su 00:00-24:00,MoneyGram,Q1944412
45513280,moneygram,BDO - #563 - ABS CBN - MOTHER IGNACIA,,QUEZON CITY,,,PH,6327026652,,Mo-Fr 09:00-18:30; Sa-Su 00:00-24:00,MoneyGram,Q1944412
45513293,moneygram,BDO - #282 - AURORA BLVD - NOTRE DAME,,QUEZON CITY,,,PH,6327026652,,Mo-Fr 08:30-18:00; Sa-Su 00:00-24:00,MoneyGram,Q1944412
45513303,moneygram,BDO - #460 - AURORA BLVD. - BROADWAY CEN,,QUEZON CITY,,,PH,6327026652,,Mo-Sa 09:00-18:30; Su 00:00-24:00,MoneyGram,Q1944412
45513484,moneygram,BDO - #399 - COMMONWEALTH - DON ANTONIO,,QUEZON CITY,,,PH,6327026652,,Mo-Fr 09:00-18:30; Sa-Su 00:00-24:00,MoneyGram,Q1944412
45513662,moneygram,BDO - #421 - KAMIAS ROAD,,QUEZON CITY,,,PH,6327026652,,Mo-Fr 09:00-18:30; Sa-Su 00:00-24:00,MoneyGram,Q1944412
45478053,moneygram,BDO - #372 - ST. IGNATIUS - KATIPUNAN,,QUEZON CITY,,,PH,6327026652,,Mo-Sa 08:30-18:00; Su 00:00-24:00,MoneyGram,Q1944412
45476466,moneygram,BDO - #289 - GREENHILLS-ROOSEVELT,,SAN JUAN,,,PH,6327026652,,Mo-Fr 08:30-17:30; Sa-Su 00:00-24:00,MoneyGram,Q1944412
45475878,moneygram,BDO - #357 - LOYOLA HEIGHTS - BERKELEY R,,QUEZON CITY,,,PH,6327026652,,Mo-Fr 08:30-18:00; Sa-Su 00:00-24:00,MoneyGram,Q1944412
45479654,moneygram,BDO - #400 - MARCOS - SUMULONG HIGHWAY,,RIZAL,,,PH,6327026652,,Mo-Fr 08:30-17:30; Sa-Su 00:00-24:00,MoneyGram,Q1944412
45477258,moneygram,BDO - #470 - SCT. LIMBAGA - T. MORATO,,QUEZON CITY,,,PH,6327026652,,Mo-Fr 08:30-18:00; Sa-Su 00:00-24:00,MoneyGram,Q1944412
45477261,moneygram,BDO - #406 - TAYTAY - NATIONAL HIGHWAY,,TAYTAY,,,PH,6327026652,,Mo-Fr 08:30-18:00; Sa-Su 00:00-24:00,MoneyGram,Q1944412
45475250,moneygram,BDO - #115 - TOMAS MORATO - KAMUNING,,QUEZON CITY,,,PH,6327026652,,Mo-Fr 08:30-18:00; Sa-Su 00:00-24:00,MoneyGram,Q1944412
45479052,moneygram,BDO - #408 - WEST AVENUE - DEL MONTE,,QUEZON CITY,,,PH,6327026652,,Mo-Fr 08:30-18:00; Sa-Su 00:00-24:00,MoneyGram,Q1944412
45476262,moneygram,BDO - #508 - RIZAL  PRIMARK CAINTA,,RIZAL,,,PH,6327026652,,Mo-Sa 09:00-18:30; Su 00:00-24:00,MoneyGram,Q1944412
45469855,moneygram,BDO - #368 - LAS PINAS - ALMANZA,,MUNTINLUPA,,,PH,6327026652,,Mo-Fr 08:30-17:30; Sa-Su 00:00-24:00,MoneyGram,Q1944412
45469868,moneygram,BDO - #32 - LAS PINAS - TALON,,LAS PINAS CITY,,,PH,6327026652,,Mo-Sa 08:30-18:00; Su 00:00-24:00,MoneyGram,Q1944412
45470051,moneygram,BDO - #166 - NAVOTAS,,NAVOTAS,,,PH,27026652,,Mo-Sa 08:30-18:00; Su 00:00-24:00,MoneyGram,Q1944412
45470064,moneygram,BDO - #471 - A. SANTOS - ST. JAMES,,PARANAQUE,,,PH,6327026652,,Mo-Fr 08:30-18:00; Sa-Su 00:00-24:00,MoneyGram,Q1944412
45471254,moneygram,BDO - #475 - BICUTAN - WEST SERVICE ROAD,,PARANAQUE,,,PH,6327026652,,Mo-Fr 08:30-18:00; Sa-Su 00:00-24:00,MoneyGram,Q1944412
45471856,moneygram,BDO - #529 - TAFT - LIBERTAD,,PASAY CITY,,,PH,6327026652,,Mo-Fr 08:30-18:00; Sa-Su 00:00-24:00,MoneyGram,Q1944412
45472059,moneygram,BDO - #537 - DELA ROSA - RADA,,MAKATI,,,PH,6327026652,,Mo-Fr 08:30-18:00; Sa-Su 00:00-24:00,MoneyGram,Q1944412
45472253,moneygram,BDO - #341 - PASIG  C. RAYMUNDO AVE.,,PASIG CITY,,,PH,6327026652,,Mo-Fr 08:30-18:00; Sa-Su 00:00-24:00,MoneyGram,Q1944412
45470459,moneygram,BDO - #474 - BACLARAN - REDEMPTORIST ROA,,PARANAQUE,,,PH,6327026652,,Mo-Sa 08:30-18:00; Su 00:00-24:00,MoneyGram,Q1944412
45472457,moneygram,BDO - #531 - MAKATI AVENUE - AYALA,,MAKATI,,,PH,6327026652,,Mo-Fr 08:30-18:00; Sa-Su 00:00-24:00,MoneyGram,Q1944412
45470653,moneygram,BDO - #217 - EDSA EAST - CALOOCAN,,CALOOCAN,,,PH,6327026652,,Mo-Fr 08:30-17:30; Sa-Su 00:00-24:00,MoneyGram,Q1944412
45471487,moneygram,BDO - #381 - GRACE PARK - 9TH AVENUE,,CALOOCAN,,,PH,6327026652,,Mo-Fr 08:30-18:00; Sa-Su 00:00-24:00,MoneyGram,Q1944412
45470860,moneygram,BDO - #240 - BETTER LIVING,,PARANAQUE,,,PH,6327026652,,Mo-Sa 08:30-18:00; Su 00:00-24:00,MoneyGram,Q1944412
45469680,moneygram,BDO - #65 - AYALA ALABANG,,MUNTINLUPA,,,PH,6327026652,,Mo-Fr 08:30-18:00; Sa-Su 00:00-24:00,MoneyGram,Q1944412
45472868,moneygram,BDO - #121 - BANAWE - AMORANTO,,QUEZON CITY,,,PH,6327026652,,Mo-Fr 08:30-18:00; Sa-Su 00:00-24:00,MoneyGram,Q1944412
45472871,moneygram,BDO - #347 - G. ARANETA - BRIXTON HILL,,QUEZON CITY,,,PH,6327026652,,Mo-Fr 08:30-18:00; Sa-Su 00:00-24:00,MoneyGram,Q1944412
44960096,moneygram,BDO - #1 - AURORA BLVD. - YALE,,QUEZON CITY,,,PH,6329122715,,Mo-Fr 09:00-18:30; Sa-Su 00:00-24:00,MoneyGram,Q1944412
44960630,moneygram,BDO - #3 - BACLARAN,,PASAY,,,PH,6328325030,,Mo-Sa 08:30-17:30; Su 00:00-24:00,MoneyGram,Q1944412
44960669,moneygram,BDO - #4 - SM MAKATI,,MAKATI,,,PH,6328126838,,Mo-Su 09:30-19:00,MoneyGram,Q1944412
44960973,moneygram,BDO - #6 - PASAY,,PASAY,,,PH,6325512513,,Mo-Fr 09:00-18:30; Sa-Su 00:00-24:00,MoneyGram,Q1944412
44960999,moneygram,BDO - #8 - STO.DOMINGO,,QUEZON CITY,,,PH,6327426448,,Mo-Fr 08:30-18:00; Sa 08:30-17:30; Su 00:00-24:00,MoneyGram,Q1944412
44961008,moneygram,BDO - #9 - MAKATI SHANGRILA HOTEL,,MAKATI,,,PH,6328135004,,Mo-Fr 09:00-18:30; Sa-Su 00:00-24:00,MoneyGram,Q1944412
44961037,moneygram,BDO - #11 - CALOOCAN,,CALOOCAN,,,PH,6323655184,,Mo-Fr 09:00-18:30; Sa-Su 00:00-24:00,MoneyGram,Q1944412
44961079,moneygram,BDO - #14 - MAKATI - J.P. RIZAL,,MAKATI,,,PH,6328998673,,Mo-Fr 09:00-18:30; Sa-Su 00:00-24:00,MoneyGram,Q1944412
44961118,moneygram,BDO - #16 - SM CUBAO,,QUEZON CITY,,,PH,6329110558,,Mo-Su 09:30-19:00,MoneyGram,Q1944412
44961260,moneygram,BDO - #18 - PASIG - KAPASIGAN,,PASIG,,,PH,6326410557,,Mo-Sa 09:00-18:30; Su 00:00-24:00,MoneyGram,Q1944412
44961286,moneygram,BDO - #19 - MALABON,,MALABON,,,PH,6322815603,,Mo-Fr 08:30-17:30; Sa-Su 00:00-24:00,MoneyGram,Q1944412
44961338,moneygram,BDO - #21 - KALENTONG,,MANDALUYONG,,,PH,6325316984,,Mo-Sa 09:00-18:30; Su 00:00-24:00,MoneyGram,Q1944412
44961367,moneygram,BDO - #22 - E. RODRIGUEZ,,QUEZON CITY,,,PH,6327243977,,Mo-Fr 08:30-18:00; Sa-Su 00:00-24:00,MoneyGram,Q1944412
44961422,moneygram,BDO - #24 - GREENHILLS - O SQUARE,,SAN JUAN,,,PH,6327214211,,Mo-Fr 08:30-17:30; Sa-Su 00:00-24:00,MoneyGram,Q1944412
44961451,moneygram,BDO - #25 - SM CITY NORTH EDSA A,,QUEZON CITY,,,PH,6329292173,,Mo-Su 10:00-19:30,MoneyGram,Q1944412
44961545,moneygram,BDO - #27 - QUEZON AVE.-WEST TRIANGLE,,QUEZON CITY,,,PH,6323714689,,Mo-Fr 09:00-18:30; Sa-Su 00:00-24:00,MoneyGram,Q1944412
44961561,moneygram,BDO - #28 - SM MEGAMALL B,,MANDALUYONG,,,PH,6326327425,,Mo-Su 10:00-19:30,MoneyGram,Q1944412
44961590,moneygram,BDO - #29 - SAN JUAN - N. DOMINGO,,SAN JUAN,,,PH,6327248036,,Mo-Fr 09:00-18:30; Sa-Su 00:00-24:00,MoneyGram,Q1944412
44961613,moneygram,BDO - #30 - SM CITY STA MESA,,QUEZON CITY,,,PH,6327150537,,Mo-Sa 09:30-19:00; Su 00:00-24:00,MoneyGram,Q1944412
44961736,moneygram,BDO - #33 - MARIKINA - CONCEPCION,,MARIKINA,,,PH,6329415851,,Mo-Sa 08:30-17:30; Su 00:00-24:00,MoneyGram,Q1944412
44961794,moneygram,BDO - #34 - VALENZUELA,,MALABON,,,PH,6322921959,,Mo-Fr 08:30-18:00; Sa-Su 00:00-24:00,MoneyGram,Q1944412
44961804,moneygram,BDO - #35 - SHAW BLVD. - WACK WACK,,MANDALUYONG,,,PH,6327226677,,Mo-Fr 08:30-18:00; Sa-Su 00:00-24:00,MoneyGram,Q1944412
44961888,moneygram,BDO - #38 - MAKATI - PASAY ROAD,,MAKATI,,,PH,6328176113,,Mo-Fr 08:30-18:00; Sa-Su 00:00-24:00,MoneyGram,Q1944412
44961891,moneygram,BDO - #39 - FAIRVIEW,,QUEZON CITY,,,PH,6324278289,,Mo-Fr 08:30-18:00; Sa-Su 00:00-24:00,MoneyGram,Q1944412
44962531,moneygram,BDO - #52 - NOVALICHES,,QUEZON CITY,,,PH,6329380225,,Mo-Fr 08:30-18:00; Sa 08:30-17:30; Su 00:00-24:00,MoneyGram,Q1944412
44962573,moneygram,BDO - #54 - SUCAT,,PARANANQUE SUCAT,,,PH,6328291630,,Mo-Fr 09:00-18:30; Sa-Su 00:00-24:00,MoneyGram,Q1944412
44962612,moneygram,BDO - #55 - BONI - MAYSILO,,MANDALUYONG,,,PH,6325313694,,Mo-Fr 08:30-17:30; Sa-Su 00:00-24:00,MoneyGram,Q1944412
44962803,moneygram,BDO - #59 - POTRERO,,MALABON,,,PH,6324474554,,Mo-Fr 08:30-17:30; Sa-Su 00:00-24:00,MoneyGram,Q1944412
44962845,moneygram,BDO - #60 - MONUMENTO,,CALOOCAN,,,PH,6323305683,,Mo-Fr 08:30-18:00; Sa-Su 00:00-24:00,MoneyGram,Q1944412
44962353,moneygram,BDO - #43 - MAKATI - METROPOLITAN AVENUE,,MAKATI,,,PH,6328996618,,Mo-Fr 08:30-18:00; Sa-Su 00:00-24:00,MoneyGram,Q1944412
44962379,moneygram,BDO - #44 - SM MEGAMALL A,,MANDALUYONG,,,PH,6326331785,,Mo-Su 10:00-19:30,MoneyGram,Q1944412
44962489,moneygram,BDO - #49 - AIRPORT ROAD,,PARANAQUE,,,PH,6328313617,,Mo-Fr 08:30-18:00; Sa-Su 00:00-24:00,MoneyGram,Q1944412
44964254,moneygram,BDO - #160 - CALOOCAN 7TH AVENUE,,CALOOCAN,,,PH,6323611074,,Mo-Fr 08:30-18:00; Sa-Su 00:00-24:00,MoneyGram,Q1944412
44964377,moneygram,BDO - #97 - LA UNION SAN FERNANDO - RIZA,,SAN FERNANDO,,,PH,+63 72 888 3316,,Mo-Sa 08:30-18:00; Su 00:00-24:00,MoneyGram,Q1944412
44964416,moneygram,BDO - #131 - SM CITY CLARK A,,SAN FERNANDO,,,PH,+63 45 625 5621,,Mo-Su 10:00-19:30,MoneyGram,Q1944412
44964432,moneygram,BDO - #132 - CONGRESSIONAL AVE.,,QUEZON CITY,,,PH,6324549560,,Mo-Fr 08:30-18:00; Sa-Su 00:00-24:00,MoneyGram,Q1944412
44964461,moneygram,BDO - #134 - EMERALD AVENUE,,PASIG,,,PH,6329143544,,Mo-Fr 09:00-18:30; Sa-Su 00:00-24:00,MoneyGram,Q1944412
44964490,moneygram,BDO - #136 - DEL MONTE AVENUE,,QUEZON CITY,,,PH,6327491711,,Mo-Fr 08:30-18:00; Sa-Su 00:00-24:00,MoneyGram,Q1944412
44964526,moneygram,BDO - #137 - BANAWE - KITANLAD,,QUEZON CITY,,,PH,6327403285,,Mo-Fr 09:00-18:30; Sa-Su 00:00-24:00,MoneyGram,Q1944412
44964571,moneygram,BDO - #138 - VALERO - SALCEDO VILLAGE,,MAKATI,,,PH,6328179586,,Mo-Fr 08:30-18:00; Sa-Su 00:00-24:00,MoneyGram,Q1944412
44964623,moneygram,BDO - #161 - QUEZON AVENUE - ARANETA,,QUEZON CITY,,,PH,6327123411,,Mo-Fr 09:00-18:30; Sa-Su 00:00-24:00,MoneyGram,Q1944412
44965114,moneygram,BDO - #193 - SM CITY SAN PABLO,,SAN PABLO,,,PH,+63 49562 1026,,Mo-Su 10:00-19:30,MoneyGram,Q1944412
44965198,moneygram,BDO - #198 - SM CITY SAN FERNANDO,,SAN FERNANDO,,,PH,+63 45 961 5196,,Mo-Su 08:00-19:30,MoneyGram,Q1944412
44965279,moneygram,BDO - #202 - MAGALLANES VILLAGE,,MAKATI,,,PH,6328529640,,Mo-Fr 08:30-18:00; Sa-Su 00:00-24:00,MoneyGram,Q1944412
44965305,moneygram,BDO - #203 - MARCOS HIGHWAY,,MARIKINA,,,PH,6326681197,,Mo-Sa 08:30-18:00; Su 00:00-24:00,MoneyGram,Q1944412
44965321,moneygram,BDO - #204 - SALCEDO - DELA ROSA,,MAKATI,,,PH,6328161467,,Mo-Fr 08:30-18:00; Sa-Su 00:00-24:00,MoneyGram,Q1944412
44964652,moneygram,BDO - #162 - TIMOG - ROTONDA,,QUEZON CITY,,,PH,6329283109,,Mo-Fr 08:30-18:00; Sa-Su 00:00-24:00,MoneyGram,Q1944412
44964665,moneygram,BANCO DE ORO - #103,,PASAY,,,PH,6328795195,,Mo-Su 08:00-24:00,MoneyGram,Q1944412
44964717,moneygram,BDO - #105 - MAYON,,QUEZON CITY,,,PH,6324143606,,Mo-Fr 08:30-18:00; Sa-Su 00:00-24:00,MoneyGram,Q1944412
44964720,moneygram,BDO - #107 - VISAYAS AVENUE,,QUEZON CITY,,,PH,6329276151,,Mo-Fr 08:30-18:00; Sa-Su 00:00-24:00,MoneyGram,Q1944412
44964733,moneygram,BDO - #163 - WEST AVE. - EAST MAYA,,QUEZON CITY,,,PH,6324107611,,Mo-Fr 08:30-18:00; Sa-Su 00:00-24:00,MoneyGram,Q1944412
44964762,moneygram,BDO - #109 - MUNOZ - ROOSEVELT,,QUEZON CITY,,,PH,6323739691,,Mo-Fr 08:30-18:00; Sa-Su 00:00-24:00,MoneyGram,Q1944412
44964775,moneygram,BDO - #110 - ANTIPOLO PLAZA,,MARIKINA,,,PH,6326442348,,Mo-Su 08:30-18:00,MoneyGram,Q1944412
44964791,moneygram,BDO - #111 - PASIG - MANGGAHAN,,PASIG,,,PH,6326463177,,Mo-Fr 08:30-18:00; Sa-Su 00:00-24:00,MoneyGram,Q1944412
44964801,moneygram,BDO - #112 - SM SOUTHMALL B,,MUNTINLUPA,,,PH,6328006798,,Mo-Sa 10:00-20:00; Su 00:00-24:00,MoneyGram,Q1944412
44964827,moneygram,BDO - #167 - MARIKINA - SUMULONG HIGHWAY,,MARIKINA,,,PH,6329484200,,Mo-Sa 08:30-17:30; Su 00:00-24:00,MoneyGram,Q1944412
44964885,moneygram,BDO - #169 - DR. A. SANTOS AVENUE,,PARANAQUE,,,PH,6328251381,,Mo-Fr 08:30-18:00; Sa-Su 00:00-24:00,MoneyGram,Q1944412
44964908,moneygram,BDO - #186 - CEBU TABUNOK,,TALISAY,,,PH,+63 32 273 6643,,Mo-Sa 08:30-18:00; Su 00:00-24:00,MoneyGram,Q1944412
44964911,moneygram,BDO - #170 - PASEO DE ROXAS 2,,MAKATI,,,PH,6328183587,,Mo-Fr 09:00-18:30; Sa-Su 00:00-24:00,MoneyGram,Q1944412
44964979,moneygram,BDO - #189 - NAGA - SAN FRANCISCO,,NAGA,,,PH,+63 54 472 6602,,Mo-Sa 08:30-18:00; Su 00:00-24:00,MoneyGram,Q1944412
44965473,moneygram,BDO - #233 - SM HYPERMARKET CUBAO,,QUEZON CITY,,,PH,6329126173,,Mo-Fr 09:00-18:30; Sa-Su 09:00-18:00,MoneyGram,Q1944412
44965486,moneygram,BDO - #234 - ROCKWELL - POWER PLANT,,MAKATI,,,PH,6328991488,,Mo-Sa 09:00-18:30; Su 00:00-24:00,MoneyGram,Q1944412
44965509,moneygram,BDO - #235 - V-MALL,,SAN JUAN,,,PH,6327259085,,Mo-Su 10:00-19:30,MoneyGram,Q1944412
44965512,moneygram,BDO - #236 - SM CITY STA. ROSA,,SANTA ROSA,,,PH,+63 49 534 9823,,Mo-Su 10:00-19:30,MoneyGram,Q1944412
44965525,moneygram,BDO - #237 - SM MALL OF ASIA A,,PASAY,,,PH,6325560012,,Mo-Su 09:30-19:30,MoneyGram,Q1944412
44965541,moneygram,BDO - #238 - SM MALL OF ASIA B,,PASAY,,,PH,6325560017,,Mo-Su 11:00-20:30,MoneyGram,Q1944412
44965570,moneygram,BDO - #239 - CALOOCAN - A. MABINI,,CALOOCAN,,,PH,6322854364,,Mo-Fr 08:30-18:00; Sa-Su 00:00-24:00,MoneyGram,Q1944412
44966029,moneygram,BDO - #206 - BONIFACIO GLOBAL CITY - MAR,,TAGUIG,,,PH,6328866476,,Mo-Su 09:30-19:00,MoneyGram,Q1944412
44966207,moneygram,BDO - #209 - SM CENTER VALENZUELA,,MALABON,,,PH,6322924354,,Mo-Su 10:00-19:30,MoneyGram,Q1944412
44966236,moneygram,BDO - #210 - SM CITY SUCAT B,,PARANAQUE,,,PH,6328206737,,Mo-Su 10:00-20:00,MoneyGram,Q1944412
44966249,moneygram,BDO - #211 - JULIA VARGAS,,PASIG,,,PH,6326387770,,Mo-Fr 08:30-18:00; Sa-Su 00:00-24:00,MoneyGram,Q1944412
44966265,moneygram,BDO - #212 - GIL PUYAT - METRO HOUSE,,MAKATI,,,PH,6328906546,,Mo-Fr 09:00-18:30; Sa-Su 00:00-24:00,MoneyGram,Q1944412
44962900,moneygram,BDO - #61 - GRACE PARK,,CALOOCAN,,,PH,6323655805,,Mo-Fr 08:30-18:00; Sa-Su 00:00-24:00,MoneyGram,Q1944412
44962971,moneygram,BDO - #72 - BACOLOD - GONZAGA,,BACOLOD,,,PH,+63 34 434 4964,,Mo-Fr 08:30-18:00; Sa-Su 00:00-24:00,MoneyGram,Q1944412
44962997,moneygram,BDO - #73 - NAGA - GENERAL LUNA,,NAGA,,,PH,+63 54 473 6731,,Mo-Sa 08:30-17:30; Su 00:00-24:00,MoneyGram,Q1944412
44963093,moneygram,BDO - #62 - LAS PINAS - PAMPLONA,,MUNTINLUPA,,,PH,6328722563,,Mo-Fr 09:00-18:30; Sa-Su 00:00-24:00,MoneyGram,Q1944412
44963158,moneygram,BDO - #63 - SM CITY MASINAG,,MARIKINA,,,PH,6326456041,,Mo-Su 10:00-19:30,MoneyGram,Q1944412
44963307,moneygram,BDO - #68 - SM SOUTHMALL A,,MUNTINLUPA,,,PH,6328000471,,Mo-Su 09:30-19:30,MoneyGram,Q1944412
44966692,moneygram,BDO - #213 - SALCEDO GAMBOA,,MAKATI,,,PH,6328192984,,Mo-Fr 09:00-18:30; Sa-Su 00:00-24:00,MoneyGram,Q1944412
44966715,moneygram,BDO - #214 - STA LUCIA EAST - CAINTA,,MARIKINA,,,PH,6326817328,,Mo-Sa 09:00-18:30; Su 00:00-24:00,MoneyGram,Q1944412
44966731,moneygram,BDO - #216 - EDSA CUBAO,,QUEZON CITY,,,PH,6329111235,,Mo-Fr 08:30-18:00; Sa-Su 00:00-24:00,MoneyGram,Q1944412
44966799,moneygram,BDO - #218 - WEST AVENUE - BALER,,QUEZON CITY,,,PH,29287286,,Mo-Fr 08:30-18:00; Sa-Su 00:00-24:00,MoneyGram,Q1944412
44966812,moneygram,BDO - #219 - GREENHILLS - WEST,,SAN JUAN,,,PH,6327214414,,Mo-Fr 08:30-18:00; Sa-Su 00:00-24:00,MoneyGram,Q1944412
44966854,moneygram,BDO - #221 - COMMONWEALTH,,QUEZON CITY,,,PH,6329328764,,Mo-Sa 08:30-18:00; Su 00:00-24:00,MoneyGram,Q1944412
44966919,moneygram,BDO - #225 - ZURBARAN,,MANILA,,,PH,6327341544,,Mo-Fr 08:30-18:00; Sa-Su 00:00-24:00,MoneyGram,Q1944412
44963365,moneygram,BDO - #118 - CEBU - A.S. FORTUNA,,MANDAUE,,,PH,+63 32 343 3497,,Mo-Fr 08:30-18:00; Sa 09:00-16:00; Su 00:00-24:00,MoneyGram,Q1944412
44963381,moneygram,BDO - #120 - V.A. RUFINO - SOTTO,,MAKATI,,,PH,6328127054,,Mo-Fr 08:30-18:00; Sa-Su 00:00-24:00,MoneyGram,Q1944412
44963433,moneygram,BDO - #125 - GEN. LUIS,,CALOOCAN,,,PH,6329373355,,Mo-Fr 08:30-17:30; Sa-Su 00:00-24:00,MoneyGram,Q1944412
44963446,moneygram,BDO - #126 - SAMSON ROAD,,CALOOCAN,,,PH,6323610602,,Mo-Fr 08:30-18:00; Sa-Su 00:00-24:00,MoneyGram,Q1944412
44963459,moneygram,BDO - #127 - SM CITY FAIRVIEW A,,QUEZON CITY,,,PH,6329350042,,Mo-Su 10:00-19:30,MoneyGram,Q1944412
44963886,moneygram,BDO - #85 - CEBU MANDAUE,,MANDAUE,,,PH,+63 32 343 6531,,Mo-Fr 08:30-18:00; Sa-Su 00:00-24:00,MoneyGram,Q1944412
44963925,moneygram,BDO - #89 - CALAMBA - PASEO UNO,,CALAMBA,,,PH,+63 49 545 2171,,Mo-Sa 08:00-18:30; Su 00:00-24:00,MoneyGram,Q1944412
44963983,moneygram,BDO - #143 - SM HYPERMARKET PASIG,,PASIG,,,PH,6326377326,,Mo-Sa 10:00-19:30; Su 00:00-24:00,MoneyGram,Q1944412
44963996,moneygram,BDO - #144 - RADA - LEGASPI VILLAGE,,MAKATI,,,PH,6329092011,,Mo-Fr 09:00-18:30; Sa-Su 00:00-24:00,MoneyGram,Q1944412
44964005,moneygram,BDO - #145 - PASONG TAMO EXT.,,MAKATI,,,PH,6328175456,,Mo-Fr 09:00-18:30; Sa-Su 00:00-24:00,MoneyGram,Q1944412
44964063,moneygram,BDO - #147 - BF HOMES  PUREGOLD SOUTHPAR,,PARANAQUE,,,PH,6328099385,,Mo-Sa 09:00-18:30; Su 00:00-24:00,MoneyGram,Q1944412
44964076,moneygram,BDO - #148 - SM CITY SUCAT A,,PARANAQUE,,,PH,6328252404,,Mo-Sa 09:00-19:30; Su 00:00-24:00,MoneyGram,Q1944412
44964089,moneygram,BDO - #149 - AURORA BLVD. - ANONAS,,QUEZON CITY,,,PH,6324213814,,Mo-Fr 08:30-18:00; Sa-Su 00:00-24:00,MoneyGram,Q1944412
44964092,moneygram,BDO - #150 - SM CORPORATE OFFICES,,PASAY,,,PH,6328337378,,Mo-Fr 09:00-18:30; Sa 09:00-18:00; Su 00:00-24:00,MoneyGram,Q1944412
44964128,moneygram,BDO - #152 - SM CITY BICUTAN,,PARANAQUE,,,PH,6327779262,,Mo-Su 10:00-19:30,MoneyGram,Q1944412
44964131,moneygram,BDO - #153 - PASIG - ORANBO DRIVE,,PASIG,,,PH,6326382130,,Mo-Fr 09:00-18:30; Sa-Su 00:00-24:00,MoneyGram,Q1944412
44964173,moneygram,BDO - #154 - PASAY  TWO SHOPPING CENTER,,PASAY,,,PH,6328331505,,Mo-Fr 09:00-18:30; Sa-Su 00:00-24:00,MoneyGram,Q1944412
44964186,moneygram,BDO - #155 - ORTIGAS AVENUE,,SAN JUAN,,,PH,6327247114,,Mo-Fr 09:00-18:30; Sa-Su 00:00-24:00,MoneyGram,Q1944412
44964209,moneygram,BDO - #156 - SHAW BLVD. - YULO,,MANDALUYONG,,,PH,6325335424,,Mo-Fr 08:30-18:00; Sa-Su 00:00-24:00,MoneyGram,Q1944412
45467462,moneygram,BDO - #418 - SILVER CITY - PASIG,,PASIG,,,PH,6327026652,,Mo-Fr 09:00-18:30; Sa-Su 00:00-24:00,MoneyGram,Q1944412
45468063,moneygram,BDO - #623 - GENERAL SANTOS - SANTIAGO S,,GEN SANTOS CITY COT,,,PH,6327026652,,Mo-Sa 08:30-17:30; Su 00:00-24:00,MoneyGram,Q1944412
45468270,moneygram,BDO - #404 - PASIG - SIXTO ANTONIO AVE.,,PASIG,,,PH,6327026652,,Mo-Fr 08:30-18:00; Sa-Su 00:00-24:00,MoneyGram,Q1944412
45468652,moneygram,BDO - #382 - BANAWE - AGNO,,QUEZON CITY,,,PH,6327026652,,Mo-Fr 08:30-18:00; Sa-Su 00:00-24:00,MoneyGram,Q1944412
45468872,moneygram,BDO - #398 - ANONAS - KAMIAS,,QUEZON CITY,,,PH,6327026652,,Mo-Sa 08:30-18:00; Su 00:00-24:00,MoneyGram,Q1944412
45479887,moneygram,BDO - #465 - GREENHILLS NORTH,,SAN JUAN,,,PH,6327026652,,Mo-Fr 08:30-18:00; Sa-Su 00:00-24:00,MoneyGram,Q1944412
45480452,moneygram,BDO - #385 - KARUHATAN - MCARTHUR HIGHWA,,VALENZUELA,,,PH,6327026652,,Mo-Fr 08:30-18:00; Sa-Su 00:00-24:00,MoneyGram,Q1944412
45461484,moneygram,BDO - #133 - SM CITY PAMPANGA A,,SAN FERNANDO,,,PH,6327026652,,Mo-Su 10:00-19:30,MoneyGram,Q1944412
45461853,moneygram,BDO - #248 - SM CITY PAMPANGA B,,SAN FERNANDO,,,PH,6327026652,,Mo-Su 10:00-19:30,MoneyGram,Q1944412
45462470,moneygram,BDO - #245 - SM CITY CEBU B,,CEBU,,,PH,6327026652,,Mo-Su 10:00-19:30,MoneyGram,Q1944412
45463686,moneygram,BDO - #196 - SM CITY BACOLOD,,BACOLOD,,,PH,6327026652,,Mo-Su 10:00-19:30,MoneyGram,Q1944412
45521654,moneygram,BANCO DE ORO - #355,,STA ROSA LAGUNA,,,PH,6327026652,,Mo-Fr 09:00-18:00; Sa-Su 00:00-24:00,MoneyGram,Q1944412
45522459,moneygram,BDO - #247 - CASH & CARRY,,MAKATI,,,PH,6327026652,,Mo-Sa 09:30-19:00; Su 00:00-24:00,MoneyGram,Q1944412
45523458,moneygram,BDO - #352 - EASTWOOD CITY  OLYMPIC HEIG,,QUEZON CITY,,,PH,6327026652,,Mo-Sa 09:30-19:00; Su 00:00-24:00,MoneyGram,Q1944412
45464672,moneygram,BDO - #251 - CEBU - INSULAR LIFE BUSINES,,CEBU,,,PH,6327026652,,Mo-Sa 09:30-19:00; Su 00:00-24:00,MoneyGram,Q1944412
45464261,moneygram,BDO - #249 - SM CITY TAYTAY,,RIZAL,,,PH,6327026652,,Mo-Su 10:00-19:30,MoneyGram,Q1944412
45466052,moneygram,BDO - #527 - EDSA - PASAY,,PASAY,,,PH,6327026652,,Mo-Fr 08:30-18:00; Sa-Su 00:00-24:00,MoneyGram,Q1944412
45466256,moneygram,BDO - #463 - MERALCO - ORTIGAS,,PASIG,,,PH,6327026652,,Mo-Fr 08:30-18:00; Sa-Su 00:00-24:00,MoneyGram,Q1944412
45466450,moneygram,BDO - #343 - ORTIGAS - EXCHANGE ROAD,,PASIG CITY,,,PH,6327026652,,Mo-Fr 08:30-18:00; Sa-Su 00:00-24:00,MoneyGram,Q1944412
65099467,moneygram,BDO - #41 - BEL-AIR SM CYBERZONE 1,,MAKATI,,,PH,6327026652,,Mo-Fr 08:30-18:00; Sa-Su 00:00-24:00,MoneyGram,Q1944412
65099470,moneygram,BDO - #626 - TAGUIG - GRACE RESIDENCES,,TAGUIG,,,PH,6327026652,,Mo-Fr 08:30-17:30; Sa-Su 00:00-24:00,MoneyGram,Q1944412
65099483,moneygram,BDO - #641 - CONNECTICUT,,SAN JUAN,,,PH,6327026652,,Mo-Fr 08:30-18:00; Sa-Su 00:00-24:00,MoneyGram,Q1944412
65099506,moneygram,BDO - #397 - CUBAO - GENERAL ARANETA,,QUEZON CITY,,,PH,6327026652,,Mo-Sa 09:30-19:00; Su 00:00-24:00,MoneyGram,Q1944412
65099519,moneygram,BDO - #620 - EDSA - NEW FARMERS PLAZA,,QUEZON CITY,,,PH,6327026652,,Mo-Sa 10:00-19:30; Su 00:00-24:00,MoneyGram,Q1944412
65099522,moneygram,BDO - #634 - FILINVEST - ALABANG,,MUNTINLUPA,,,PH,6327026652,,Mo-Fr 08:30-18:00; Sa 08:30-17:30; Su 00:00-24:00,MoneyGram,Q1944412
65099535,moneygram,BDO - #553 - BONIFACIO GLOBAL CITY - MC,,TAGUIG,,,PH,6327026652,,Mo-Fr 09:00-18:30; Sa-Su 00:00-24:00,MoneyGram,Q1944412
65099577,moneygram,BDO - #640 - GREENBELT - LEGASPI ST.,,MAKATI,,,PH,6327026652,,Mo-Fr 09:00-18:30; Sa-Su 00:00-24:00,MoneyGram,Q1944412
65099616,moneygram,BDO - #151 - EASTWOOD CITY - E. RODRIGUE,,QUEZON CITY,,,PH,6327026652,,Mo-Sa 09:00-18:30; Su 00:00-24:00,MoneyGram,Q1944412
65099629,moneygram,BDO - #628 - ONEE-COMCENTER,,PASAY,,,PH,27026652,,Mo-Fr 08:30-18:00; Sa 09:00-16:00; Su 00:00-24:00,MoneyGram,Q1944412
65099632,moneygram,BDO - #625 - ORTIGAS AVENUE EXT. - ST. J,,PASIG,,,PH,6327026652,,Mo-Sa 08:30-18:00; Su 00:00-24:00,MoneyGram,Q1944412
65099674,moneygram,BDO - #633 - PARANAQUE - PASCOR DRIVE,,PARANAQUE,,,PH,6327026652,,Mo-Fr 08:30-17:30; Sa-Su 00:00-24:00,MoneyGram,Q1944412
65099690,moneygram,BDO - #632 - WALTER MART - NORTH EDSA,,QUEZON CITY,,,PH,6327026652,,Mo-Sa 09:00-19:00; Su 00:00-24:00,MoneyGram,Q1944412
65099836,moneygram,BDO - #631 - STA. LUCIA EAST - FELIX AVE,,RIZAL,,,PH,6327026652,,Mo-Su 10:00-19:30,MoneyGram,Q1944412
65123427,moneygram,BDO - #250 - SM CENTER MUNTINLUPA,,MUNTINLUPA,,,PH,6327026652,,Mo-Su 10:00-19:30,MoneyGram,Q1944412
65266245,moneygram,BDO - #387 - MALANDAY - MCARTHUR HIGHWAY,,VALENZUELA,,,PH,6324437541,,Mo-Fr 08:30-17:30; Sa-Su 00:00-24:00,MoneyGram,Q1944412
65266478,moneygram,BDO - #472 - TIERRA NUEVA - ALABANG,,MUNTINLUPA,,,PH,6328421406,,Mo-Fr 08:30-18:00; Sa-Su 00:00-24:00,MoneyGram,Q1944412
65264959,moneygram,BDO - #453 - PORT AREA - SOUTH HARBOR,,MANILA,,,PH,6325270717,,Mo-Fr 08:30-18:00; Sa-Su 00:00-24:00,MoneyGram,Q1944412
65265039,moneygram,BDO - #388 - MAYON - N. ROXAS,,QUEZON CITY,,,PH,6327438936,,Mo-Fr 08:30-17:30; Sa-Su 00:00-24:00,MoneyGram,Q1944412
65265071,moneygram,BDO - #462 - AURORA BLVD. - HEMADY,,QUEZON CITY,,,PH,6327246185,,Mo-Sa 08:30-18:00; Su 00:00-24:00,MoneyGram,Q1944412
65265084,moneygram,BDO - #467 - SALES ST. - RAON,,MANILA,,,PH,6327167331,,Mo-Fr 08:30-18:00; Sa 08:30-17:30; Su 00:00-24:00,MoneyGram,Q1944412
65266504,moneygram,BDO - #345 - EDSA - BALINTAWAK,,QUEZON CITY,,,PH,6324555805,,Mo-Fr 08:30-18:00; Sa-Su 00:00-24:00,MoneyGram,Q1944412
65266533,moneygram,BDO - #445 - SM CITY FAIRVIEW B,,QUEZON CITY,,,PH,6329350687,,Mo-Su 10:00-19:30,MoneyGram,Q1944412
65263992,moneygram,BDO - #528 - SUCAT - VILLA MENDOZA,,PARANAQUE,,,PH,6328275871,,Mo-Fr 08:30-17:30; Sa-Su 00:00-24:00,MoneyGram,Q1944412
65265576,moneygram,BDO - #422 - ISABELA SANTIAGO - MAHARLIK,,ISABELA,,,PH,63766828593,,Mo-Sa 08:30-18:00; Su 00:00-24:00,MoneyGram,Q1944412
65265589,moneygram,BDO - #199 - NUEVA ECIJA - SAN JOSE,,SAN JOSE,,,PH,+63 44 947 1376,,Mo-Sa 08:30-18:00; Su 00:00-24:00,MoneyGram,Q1944412
45475865,moneygram,BDO - #393 - SCOUT ALBANO-QUEZON AVENUE,,QUEZON CITY,,,PH,6327026652,,Mo-Fr 08:30-18:00; Sa-Su 00:00-24:00,MoneyGram,Q1944412
45511305,moneygram,BDO - #290 - MARULAS - MCARTHUR HIGHWAY,,VALENZUELA,,,PH,6327026652,,Mo-Fr 08:30-18:00; Sa-Su 00:00-24:00,MoneyGram,Q1944412
45514069,moneygram,BDO - #407 - VISAYAS AVENUE - PROJECT 6,,QUEZON CITY,,,PH,6327026652,,Mo-Fr 09:00-18:30; Sa-Su 00:00-24:00,MoneyGram,Q1944412
