Ref,Spider,Name,Address,City,State,Zipcode,Country,Phone,Website,Hours,Brand,WikiData
1504,first_cash,First Cash Pawn,,Arandas,Jalisco,,MX,+52 348 783 3764,,,First Cash Pawn,
,visa,,,ARANDAS,JALISCO,,MX,,,,,
,visa,,,ARANDAS,JALISCO,,MX,,,,,
,visa,,,ARANDAS,JALISCO,,MX,,,,,
,visa,,,ARANDAS,JALISCO,,MX,,,,,
,visa,,,ARANDAS,JALISCO,,MX,,,,,
,visa,,,ARANDAS,JALISCO,,MX,,,,,
,visa,,,ARANDAS,JALISCO,,MX,,,,,
,visa,,,ARANDAS,JALISCO,,MX,,,,,
,visa,,,ARANDAS,JALISCO,,MX,,,,,
,visa,,,ARANDAS,JALISCO,,MX,,,,,
,visa,,,ARANDAS,JALISCO,,MX,,,,,
,visa,,,ARANDAS,JALISCO,,MX,,,,,
,visa,,,ARANDAS,JALISCO,,MX,,,,,
877dab0c5fff042d46884e5da7e2d510,western_union,OXXO ARANDAS AGAVES GDL,,Arandas,JALISCO,,MX,+52 81 8389 2121,https://location.westernunion.com/mx/jalisco/arandas/877dab0c5fff042d46884e5da7e2d510,Mo-Su 06:00-22:00,Western Union,Q861042
17dfbb906d5a875e5ffe84567a394e1f,western_union,OXXO ARANDAS AGAVES GDL,,Arandas,JALISCO,,MX,+52 81 8389 2121,https://location.westernunion.com/mx/jalisco/arandas/17dfbb906d5a875e5ffe84567a394e1f,Mo-Su 06:00-22:00,Western Union,Q861042
93065d461a097da9f3697e73728a1b05,western_union,OXXO ARANDAS LIBRAMIENTO GDL,,Arandas,JALISCO,,MX,+52 81 8389 2121,https://location.westernunion.com/mx/jalisco/arandas/93065d461a097da9f3697e73728a1b05,Mo-Su 08:00-22:00,Western Union,Q861042
8a13c818ca32d25a094b91562794ff17,western_union,OXXO ARANDAS LIBRAMIENTO GDL,,Arandas,JALISCO,,MX,+52 81 8389 2121,https://location.westernunion.com/mx/jalisco/arandas/8a13c818ca32d25a094b91562794ff17,Mo-Su 08:00-22:00,Western Union,Q861042
83b7c28990d4a5f027f2c695df312156,western_union,OXXO ARANDAS LIBRAMIENTO GDL,,Arandas,JALISCO,,MX,+52 81 8389 2121,https://location.westernunion.com/mx/jalisco/arandas/83b7c28990d4a5f027f2c695df312156,Mo-Su 08:00-22:00,Western Union,Q861042
a78330ccadd3c711c48be1a4c2b655d2,western_union,AURRERA ARANDAS 1154,,Arandas,JALISCO,,MX,+52 800 833 4700,https://location.westernunion.com/mx/jalisco/arandas/a78330ccadd3c711c48be1a4c2b655d2,Mo-Su 07:00-23:00,Western Union,Q861042
fd0dd2b04327ff59a8943651bcf903a1,western_union,AURRERA ARANDAS 1154,,Arandas,JALISCO,,MX,+52 800 833 4700,https://location.westernunion.com/mx/jalisco/arandas/fd0dd2b04327ff59a8943651bcf903a1,Mo-Su 07:00-23:00,Western Union,Q861042
7123a4dada2bc07eab09eea6883d630e,western_union,AURRERA ARANDAS 1154,,Arandas,JALISCO,,MX,+52 800 833 4700,https://location.westernunion.com/mx/jalisco/arandas/7123a4dada2bc07eab09eea6883d630e,Mo-Su 07:00-23:00,Western Union,Q861042
4c76138a205850469261e441a4b289b8,western_union,OXXO GUADALUPE ARANDAS GDL,,Arandas,JALISCO,,MX,+52 81 8389 2121,https://location.westernunion.com/mx/jalisco/arandas/4c76138a205850469261e441a4b289b8,Mo-Su 08:00-22:00,Western Union,Q861042
729a8523f46d1177de71c3bf520cf5a5,western_union,OXXO GUADALUPE ARANDAS GDL,,Arandas,JALISCO,,MX,+52 81 8389 2121,https://location.westernunion.com/mx/jalisco/arandas/729a8523f46d1177de71c3bf520cf5a5,Mo-Su 08:00-22:00,Western Union,Q861042
ef3f17a0b4286479f0f48cf8ddc357ce,western_union,OXXO GUADALUPE ARANDAS GDL,,Arandas,JALISCO,,MX,+52 81 8389 2121,https://location.westernunion.com/mx/jalisco/arandas/ef3f17a0b4286479f0f48cf8ddc357ce,Mo-Su 08:00-22:00,Western Union,Q861042
a7376d74fba4148341e72ce9fed4a402,western_union,MONEY COOP CAJA MORELIA ARANDAS,,Arandas,JALISCO,,MX,+52 81 2133 2160,https://location.westernunion.com/mx/jalisco/arandas/a7376d74fba4148341e72ce9fed4a402,Mo-Sa 08:00-17:30,Western Union,Q861042
87656cd4ade1897d7b79e9204de3a5db,western_union,CAJA MORELIA SUC ARANDAS,,Arandas,JALISCO,,MX,+52 81 2133 2160,https://location.westernunion.com/mx/jalisco/arandas/87656cd4ade1897d7b79e9204de3a5db,Mo-Sa 08:00-17:30,Western Union,Q861042
9e27ee3d90c204cf2d343966f13f9a58,western_union,ELEKTRA 783,,Arandas,JALISCO,,MX,+52 55 1720 8177,https://location.westernunion.com/mx/jalisco/arandas/9e27ee3d90c204cf2d343966f13f9a58,Mo-Su 09:00-21:00,Western Union,Q861042
1049295b4d38df7f1a5607e54e09f84d,western_union,ELEKTRA 783,,Arandas,JALISCO,,MX,+52 55 1720 8177,https://location.westernunion.com/mx/jalisco/arandas/1049295b4d38df7f1a5607e54e09f84d,Mo-Su 09:00-21:00,Western Union,Q861042
bac48e053356fe160b87a159938729b1,western_union,ELEKTRA 783,,Arandas,JALISCO,,MX,+52 55 1720 8177,https://location.westernunion.com/mx/jalisco/arandas/bac48e053356fe160b87a159938729b1,Mo-Su 09:00-20:00,Western Union,Q861042
40240b5a84624a5965501ac2a2e252d1,western_union,FARM GUAD ARANDAS,,Arandas,JALISCO,,MX,+52 800 833 4700,https://location.westernunion.com/mx/jalisco/arandas/40240b5a84624a5965501ac2a2e252d1,Mo-Su 08:00-20:00,Western Union,Q861042
ab856b2a1d6b62907a7fe64cd297f795,western_union,FARM GUAD ARANDAS,,Arandas,JALISCO,,MX,+52 800 833 4700,https://location.westernunion.com/mx/jalisco/arandas/ab856b2a1d6b62907a7fe64cd297f795,Mo-Su 08:00-20:00,Western Union,Q861042
98e127290122f9b5b3a29dbaa9382733,western_union,FARM GUAD ARANDAS,,Arandas,JALISCO,,MX,+52 800 833 4700,https://location.westernunion.com/mx/jalisco/arandas/98e127290122f9b5b3a29dbaa9382733,Mo-Su 08:00-20:00,Western Union,Q861042
ee045d27f461d555de71afec2c41a085,western_union,ELECZION ARANDAS 1152,,Arandas,JALISCO,,MX,+52 55 5246 0700,https://location.westernunion.com/mx/jalisco/arandas/ee045d27f461d555de71afec2c41a085,Mo-Su 06:30-23:30,Western Union,Q861042
38a9c48bd0024fe2f142a4fe11342e8d,western_union,WALDOS ARANDAS JAL 6630,,Arandas,JALISCO,,MX,+52 55 5246 0700,https://location.westernunion.com/mx/jalisco/arandas/38a9c48bd0024fe2f142a4fe11342e8d,Mo-Su 06:30-23:30,Western Union,Q861042
8dd662534cd68adfaa3b4b85f73cce21,western_union,MONEY COOP CAJA MORELIA ARANDAS,,Arandas,JALISCO,,MX,+52 81 2133 2160,https://location.westernunion.com/mx/jalisco/arandas/8dd662534cd68adfaa3b4b85f73cce21,Mo-Sa 08:00-17:30,Western Union,Q861042
b479cca7a1ef07a76168f2865445611c,western_union,BANCOPPEL 333 OBREGON,,Arandas,JALISCO,,MX,+52 473 732 7851,https://location.westernunion.com/mx/jalisco/arandas/b479cca7a1ef07a76168f2865445611c,Mo-Sa 09:30-20:00; Su 10:00-15:00,Western Union,Q861042
20445e626831960c1ae0747a4ffc8d32,western_union,BANCOPPEL 333 OBREGON,,Arandas,JALISCO,,MX,+52 473 732 7851,https://location.westernunion.com/mx/jalisco/arandas/20445e626831960c1ae0747a4ffc8d32,Mo-Sa 09:30-20:00; Su 10:00-15:00,Western Union,Q861042
31e77ca59557c484df7455332f094401,western_union,BANCOPPEL 333 OBREGON,,Arandas,JALISCO,,MX,+52 473 732 7851,https://location.westernunion.com/mx/jalisco/arandas/31e77ca59557c484df7455332f094401,Mo-Sa 09:30-20:00; Su 10:00-15:00,Western Union,Q861042
9ebc9c739c17bebcc3b2af4454323dc1,western_union,CAJA OBLATOS - LOS ALTOS,,Arandas,JALISCO,,MX,+52 81 2133 2160,https://location.westernunion.com/mx/jalisco/arandas/9ebc9c739c17bebcc3b2af4454323dc1,Mo-Fr 08:00-17:00; Sa 08:00-14:00,Western Union,Q861042
cc7f42dd23b1a1906f18b0d55090622b,western_union,CAJA OBLATOS - LOS ALTOS,,Arandas,JALISCO,,MX,+52 81 2133 2160,https://location.westernunion.com/mx/jalisco/arandas/cc7f42dd23b1a1906f18b0d55090622b,Mo-Fr 08:00-17:00; Sa 08:00-14:00,Western Union,Q861042
3a990508cbf1df3765282cfa78c1b347,western_union,CAJA OBLATOS - LOS ALTOS,,Arandas,JALISCO,,MX,+52 81 2133 2160,https://location.westernunion.com/mx/jalisco/arandas/3a990508cbf1df3765282cfa78c1b347,Mo-Fr 08:00-17:00; Sa 08:00-14:00,Western Union,Q861042
95dcaf1f803fc8cab8127687a47c71a3,western_union,OXXO ARANDAS CENTRO GDL,,Arandas,JALISCO,,MX,+52 81 8389 2121,https://location.westernunion.com/mx/jalisco/arandas/95dcaf1f803fc8cab8127687a47c71a3,Mo-Su 08:00-22:00,Western Union,Q861042
82d614e94cf9f0bd3a8cc46d316c3fae,western_union,OXXO ARANDAS CENTRO GDL,,Arandas,JALISCO,,MX,+52 81 8389 2121,https://location.westernunion.com/mx/jalisco/arandas/82d614e94cf9f0bd3a8cc46d316c3fae,Mo-Su 08:00-22:00,Western Union,Q861042
387b3d2abb2dad4b8ac7166975f4bdf8,western_union,OXXO ARANDAS CENTRO GDL,,Arandas,JALISCO,,MX,+52 81 8389 2121,https://location.westernunion.com/mx/jalisco/arandas/387b3d2abb2dad4b8ac7166975f4bdf8,Mo-Su 08:00-22:00,Western Union,Q861042
28c064752d015559c4109a531bcb6829,western_union,TIENDA MUEBLERIA EL BODEGON ARANDAS,,Arandas,JALISCO,,MX,+52 348 784 7364,https://location.westernunion.com/mx/jalisco/arandas/28c064752d015559c4109a531bcb6829,Mo-Sa 10:00-20:30; Su 10:00-14:00,Western Union,Q861042
43995b15853f947624dbf3454abc8238,western_union,TIENDA MUEBLERIA EL BODEGON ARANDAS,,Arandas,JALISCO,,MX,+52 348 784 7364,https://location.westernunion.com/mx/jalisco/arandas/43995b15853f947624dbf3454abc8238,Mo-Sa 10:00-20:30; Su 10:00-14:00,Western Union,Q861042
67a234cd331165d09c0f5d69dfc7d263,western_union,TIENDA MUEBLERIA EL BODEGON ARANDAS,,Arandas,JALISCO,,MX,+52 348 784 7364,https://location.westernunion.com/mx/jalisco/arandas/67a234cd331165d09c0f5d69dfc7d263,Mo-Sa 10:00-20:30; Su 10:00-14:00,Western Union,Q861042
cbe4ef5dc57e2378f6574441d3ec4fa4,western_union,BANORTE 02993 ARANDAS JARDINES,,Arandas,JALISCO,,MX,+52 800 833 4700,https://location.westernunion.com/mx/jalisco/arandas/cbe4ef5dc57e2378f6574441d3ec4fa4,Mo-Su 08:30-16:00,Western Union,Q861042
19155e311f02b3f8d81340bdd614103d,western_union,BANORTE 02993 ARANDAS JARDINES,,Arandas,JALISCO,,MX,+52 800 833 4700,https://location.westernunion.com/mx/jalisco/arandas/19155e311f02b3f8d81340bdd614103d,Mo-Su 08:30-16:00,Western Union,Q861042
73f0c88a3636c3e1643fbcd4619d1e82,western_union,BANORTE 02993 ARANDAS JARDINES,,Arandas,JALISCO,,MX,+52 800 833 4700,https://location.westernunion.com/mx/jalisco/arandas/73f0c88a3636c3e1643fbcd4619d1e82,Mo-Su 08:30-16:00,Western Union,Q861042
82a659dcf990cfe7ede101e6e55e81b2,western_union,FARM GUAD MEDINA ASCENCIO II,,Arandas,JALISCO,,MX,+52 800 833 4700,https://location.westernunion.com/mx/jalisco/arandas/82a659dcf990cfe7ede101e6e55e81b2,Mo-Su 08:00-20:00,Western Union,Q861042
63c7aef08cf658e54bb38ab5d9c0aa85,western_union,FARM GUAD MEDINA ASCENCIO II,,Arandas,JALISCO,,MX,+52 800 833 4700,https://location.westernunion.com/mx/jalisco/arandas/63c7aef08cf658e54bb38ab5d9c0aa85,Mo-Su 08:00-20:00,Western Union,Q861042
73b209d42f4318c3831580fc0f84ef56,western_union,FARM GUAD MEDINA ASCENCIO II,,Arandas,JALISCO,,MX,+52 800 833 4700,https://location.westernunion.com/mx/jalisco/arandas/73b209d42f4318c3831580fc0f84ef56,Mo-Su 08:00-20:00,Western Union,Q861042
9cd1e8a2f52136282625480c500eef7d,western_union,OXXO ARANDAS ARTEAGA GDL,,Arandas,JALISCO,,MX,+52 81 8389 2121,https://location.westernunion.com/mx/jalisco/arandas/9cd1e8a2f52136282625480c500eef7d,Mo-Su 08:00-22:00,Western Union,Q861042
e624897c653131eb700b78fffabea672,western_union,OXXO ARANDAS ARTEAGA GDL,,Arandas,JALISCO,,MX,+52 81 8389 2121,https://location.westernunion.com/mx/jalisco/arandas/e624897c653131eb700b78fffabea672,Mo-Su 08:00-22:00,Western Union,Q861042
1c6ff040743967a13afde4fc53f69a7a,western_union,OXXO ARANDAS ARTEAGA GDL,,Arandas,JALISCO,,MX,+52 81 8389 2121,https://location.westernunion.com/mx/jalisco/arandas/1c6ff040743967a13afde4fc53f69a7a,Mo-Su 08:00-22:00,Western Union,Q861042
c0cffda9c534fb49186f8c9b94e96430,western_union,ELECZION ARANDAS 1152,,Arandas,JALISCO,,MX,+52 55 5246 0700,https://location.westernunion.com/mx/jalisco/arandas/c0cffda9c534fb49186f8c9b94e96430,Mo-Su 06:30-23:30,Western Union,Q861042
9c9981a0922f9f88b818b764e3ade002,western_union,ELECZION ARANDAS 1152,,Arandas,JALISCO,,MX,+52 55 5246 0700,https://location.westernunion.com/mx/jalisco/arandas/9c9981a0922f9f88b818b764e3ade002,Mo-Su 06:30-23:30,Western Union,Q861042
3d4a744cdf82ca0c6342e275694875b1,western_union,FARM GUAD HIDALGO ARANDAS,,Arandas,JALISCO,,MX,+52 800 833 4700,https://location.westernunion.com/mx/jalisco/arandas/3d4a744cdf82ca0c6342e275694875b1,Mo-Su 08:00-20:00,Western Union,Q861042
46138d968d27d65179f7e138907a552a,western_union,FARM GUAD HIDALGO ARANDAS,,Arandas,JALISCO,,MX,+52 800 833 4700,https://location.westernunion.com/mx/jalisco/arandas/46138d968d27d65179f7e138907a552a,Mo-Su 08:00-20:00,Western Union,Q861042
5731ca8c4b3bda059290abd64ad35284,western_union,FARM GUAD HIDALGO ARANDAS,,Arandas,JALISCO,,MX,+52 800 833 4700,https://location.westernunion.com/mx/jalisco/arandas/5731ca8c4b3bda059290abd64ad35284,Mo-Su 08:00-20:00,Western Union,Q861042
5dd22bc8bcc199311c75ac606b315d6d,western_union,OXXO ARANDAS AGAVES GDL,,Arandas,JALISCO,,MX,+52 81 8389 2121,https://location.westernunion.com/mx/jalisco/arandas/5dd22bc8bcc199311c75ac606b315d6d,Mo-Su 06:00-22:00,Western Union,Q861042
3dae158558d4232a1c8b2a70c986c3ac,western_union,OXXO GLORIETA ARANDAS GDL,,Arandas,JALISCO,,MX,+52 81 8389 2121,https://location.westernunion.com/mx/jalisco/arandas/3dae158558d4232a1c8b2a70c986c3ac,Mo-Su 08:00-22:00,Western Union,Q861042
0b55e885efbf6ee73f1330ea2752a4a8,western_union,OXXO GLORIETA ARANDAS GDL,,Arandas,JALISCO,,MX,+52 81 8389 2121,https://location.westernunion.com/mx/jalisco/arandas/0b55e885efbf6ee73f1330ea2752a4a8,Mo-Su 08:00-22:00,Western Union,Q861042
8a230dcf73f53c68838b7224f28faf3a,western_union,OXXO GLORIETA ARANDAS GDL,,Arandas,JALISCO,,MX,+52 81 8389 2121,https://location.westernunion.com/mx/jalisco/arandas/8a230dcf73f53c68838b7224f28faf3a,Mo-Su 08:00-22:00,Western Union,Q861042
