Ref,Spider,Name,Address,City,State,Zipcode,Country,Phone,Website,Hours,Brand,WikiData
157507,bluerhino,Fred Meyer #00377 - Fuel Site,,Tillamook,OR,,US,+1 503-815-1423,,,Blue Rhino,Q65681213
65541,bluerhino,Fred Meyer #00377,,Tillamook,OR,,US,+1 503-815-1423,,,Blue Rhino,Q65681213
24018,citi,ATM 1ST SECURITY BANK OF WASHINGTON,,Tillamook,OR,,US,,,,Citibank,Q857063
248113,dennys,Denny's,,TILLAMOOK,OR,,US,+1 503-815-8061,https://locations.dennys.com/OR/TILLAMOOK/248113,24/7,Denny's,Q1189695
DB313,dutchbros,"Tillamook, OR (Tillamook)",,Tillamook,OR,,US,,https://locations.dutchbros.com/dutch-bros-coffee-d98a24d40961,Mo-Th 05:00-22:00; Fr-Sa 05:00-23:00; Su 05:00-22:00,Dutch Bros. Coffee,Q5317253
https://www.edwardjones.com/us-en/financial-advisor/ashley-king,edwardjones,Ashley E King,,Tillamook,OR,,US,+1 503-842-3695,https://www.edwardjones.com/us-en/financial-advisor/ashley-king,Mo-Th 08:00-16:00; Fr 08:00-13:00,Edward Jones,Q5343830
Motorcraft5085USAEnglish,ford,Tillamook Motor Company,,Oregon,OR,,US,+1 503-842-4475,,,Ford,Q44294
https://www.ford.com/dealerships/dealer-details/or/tillamook/tillamook-motor-company/,ford_dealers_us,Tillamook Motor Company,,Tillamook,OR,,US,+1 503-457-4758,https://www.ford.com/dealerships/dealer-details/or/tillamook/tillamook-motor-company/,Mo-Fr 08:00-18:00,Ford Motor Company,Q44294
aa452582-5661-e211-90b0-0050568924e6,goodwill,TILLAMOOK Store,,Tillamook,OR,,US,+1 503-354-2470,https://www.goodwill.org/locator/location/?store=YWE0NTI1ODItNTY2MS1lMjExLTkwYjAtMDA1MDU2ODkyNGU2&lat=NDUuNDc1Njg=&lng=LTEyMy44NDQyNw==,,Goodwill,Q5583655
36452,h_r_block,H&R Block,,Tillamook,OR,,US,+1 503-374-0049,https://www.hrblock.com/local-tax-offices/oregon/tillamook/2203-main-st-n/36452/,,H&R Block,Q5627799
https://healthy.kaiserpermanente.org/oregon-washington/facilities/us-renal-care-inc-tillamook-dialysis-center-llc-134103,kaiser_permanente_us,"US Renal Care, Inc - Tillamook Dialysis Center, LLC",,Tillamook,OR,,US,+1 503-842-0444,https://healthy.kaiserpermanente.org/oregon-washington/facilities/us-renal-care-inc-tillamook-dialysis-center-llc-134103,,Kaiser Permanente,Q1721601
147474,little_free_library,Jaimie Rhodes #147474 Tillamook OR,,Tillamook,OR,,US,,,,Little Free Library,Q6650101
https://locations.oreillyauto.com/or/tillamook/check-engine-light-testing-3805.html,oreilly,Your Tillamook O'Reilly Auto Parts Store,,Tillamook,OR,,US,+1 503-815-3840,https://locations.oreillyauto.com/or/tillamook/check-engine-light-testing-3805.html,Mo-Sa 07:30-21:00; Su 08:00-20:00,O'Reilly Auto Parts,Q7071951
https://locations.oreillyauto.com/or/tillamook/wiper-installation-3805.html,oreilly,Your Tillamook O'Reilly Auto Parts Store,,Tillamook,OR,,US,+1 503-815-3840,https://locations.oreillyauto.com/or/tillamook/wiper-installation-3805.html,Mo-Sa 07:30-21:00; Su 08:00-20:00,O'Reilly Auto Parts,Q7071951
https://locations.oreillyauto.com/or/tillamook/autopartes-3805.html,oreilly,Tu tienda O'Reilly Auto Parts en Tillamook,,Tillamook,OR,,US,+1 503-815-3840,https://locations.oreillyauto.com/or/tillamook/autopartes-3805.html,Mo-Sa 07:30-21:00; Su 08:00-20:00,O'Reilly Auto Parts,Q7071951
https://locations.oreillyauto.com/or/tillamook/battery-testing-3805.html,oreilly,Your Tillamook O'Reilly Auto Parts Store,,Tillamook,OR,,US,+1 503-815-3840,https://locations.oreillyauto.com/or/tillamook/battery-testing-3805.html,Mo-Sa 07:30-21:00; Su 08:00-20:00,O'Reilly Auto Parts,Q7071951
https://locations.papamurphys.com/#15430248,papamurphys,Pizza Takeout & Delivery,,Tillamook,OR,,US,+1 503-842-4112,https://locations.papamurphys.com/or/tillamook/2140-hadley-road-north,Mo 10:00-21:00; Tu-Sa 10:00-20:00; Su 10:00-21:00,Papa Murphy's,Q7132349
059234,penske,Turtleheart,,TILLAMOOK,OR,,US,+1 503-457-9943,https://www.pensketruckrental.com/locations/us/oregon/tillamook/059234/,,Penske,Q81234570
rosenberg-builders-supply-63358,ppgpaints,ROSENBERG BUILDERS SUPPLY,,"Tillamook, ",OR,,US,,https://www.ppgpaints.com/store-locator/us/oregon/tillamook-paint-stores/rosenberg-builders-supply-63358,,PPG Paints,Q83891559
rosenberg-builders-supply-23510,ppgpaints,ROSENBERG BUILDERS SUPPLY,,"Tillamook, ",OR,,US,+1 503-842-4434,https://www.ppgpaints.com/store-locator/us/oregon/tillamook-paint-stores/rosenberg-builders-supply-23510,,PPG Paints,Q83891559
https://local.pharmacy.safeway.com/#5673544,safeway,Safeway Pharmacy,,Tillamook,OR,,US,+1 503-842-5934,https://local.pharmacy.safeway.com/safeway/or/tillamook/1815-4th-st.html,,Safeway,Q1508234
https://local.safeway.com/#5604454,safeway,Safeway,,Tillamook,OR,,US,+1 503-842-4608,https://local.safeway.com/safeway/or/tillamook/1815-4th-st.html,,Safeway,Q1508234
1069,shellrecharge,Tillamook,,Tillamook,OR,,US,,,,Shell Recharge,Q105883058
https://stations.sinclairoil.com/or/tillamook/1920-main-ave-n,sinclair_us,Sinclair Gas Station,,Tillamook,OR,,US,+1 503-842-4457,https://stations.sinclairoil.com/or/tillamook/1920-main-ave-n,Mo-Fr 05:00-18:00; Sa 06:00-18:00; Su 08:00-20:00,Sinclair,Q1290900
https://restaurants.subway.com/#14912338,subway,Subway,,Tillamook Tillamook,OR,,US,+1 503-354-2046,https://restaurants.subway.com/united-states/or/tillamook/1863-n-main,Mo-Su 09:00-22:00,Subway,Q244457
235E,tmobile_us,1st St & Ivy Ave,,Tillamook,OR,,US,+1 503-716-1864,https://www.t-mobile.com/store-locator/or/tillamook/1st-st-ivy-ave,,T-Mobile,Q3511885
1439942,usps,NETARTS,,TILLAMOOK,OR,,US,+1 503-815-3700,,Mo-Fr 10:00-14:00; Sa 09:00-10:00,United States Postal Service,Q668687
1384664,usps,TILLAMOOK,,TILLAMOOK,OR,,US,+1 503-842-2517,,Mo-Fr 09:00-17:00,United States Postal Service,Q668687
9714100019,usps_collection_boxes,USPS COLLECTION BOX - BLUE BOX,4945 NETARTS HWY W,TILLAMOOK,OR,,US,,,,United States Postal Service,Q668687
9714100018,usps_collection_boxes,USPS COLLECTION BOX - BLUE BOX,9220 5TH ST,TILLAMOOK,OR,,US,,,,United States Postal Service,Q668687
9714100013,usps_collection_boxes,USPS COLLECTION BOX - BLUE BOX,1005 5TH ST,TILLAMOOK,OR,,US,,,,United States Postal Service,Q668687
9714100021,usps_collection_boxes,USPS COLLECTION BOX - BLUE BOX,2500 MAIN AVE N,TILLAMOOK,OR,,US,,,,United States Postal Service,Q668687
9714100001,usps_collection_boxes,USPS COLLECTION BOX - BLUE BOX,804 CHESTNUT DR,TILLAMOOK,OR,,US,,,,United States Postal Service,Q668687
9714100011,usps_collection_boxes,USPS COLLECTION BOX - BLUE BOX,2200 1ST ST,TILLAMOOK,OR,,US,,,,United States Postal Service,Q668687
9714100012,usps_collection_boxes,USPS COLLECTION BOX - BLUE BOX,2200 1ST ST,TILLAMOOK,OR,,US,,,,United States Postal Service,Q668687
9714100024,usps_collection_boxes,USPS COLLECTION BOX - PO LOBBY,2200 1ST ST,TILLAMOOK,OR,,US,,,,United States Postal Service,Q668687
9714100005,usps_collection_boxes,USPS COLLECTION BOX - BLUE BOX,1124 MAIN AVE,TILLAMOOK,OR,,US,,,,United States Postal Service,Q668687
tillamook_oil-change-ic0026,valvoline_instant_oil_change,Valvoline,1845 Main Ave North ,Tillamook,OR,,US,+1 503-842-7555,https://store.vioc.com/or/tillamook/oil-change-ic0026.html,,Valvoline Instant Oil Change,Q7912852
,visa,,,TILLAMOOK,OR,,US,,,,,
,visa,,,TILLAMOOK,OR,,US,,,,,
,visa,,,TILLAMOOK,OR,,US,,,,,
,visa,,,TILLAMOOK,OR,,US,,,,,
,visa,,,TILLAMOOK,OR,,US,,,,,
,visa,,,TILLAMOOR,OR,,US,,,,,
,visa,,,TILLAMOOK,OR,,US,,,,,
,visa,,,TILLAMOOK,OR,,US,,,,,
,visa,,,TILLAMOOK,OR,,US,,,,,
,visa,,,TILLAMOOK,OR,,US,,,,,
,visa,,,TILLAMOOK,OR,,US,,,,,
,visa,,,TILLAMOOK,OR,,US,,,,,
,visa,,,TILLAMOOK,OR,,US,,,,,
,visa,,,TILLAMOOK,OR,,US,,,,,
,visa,,,TILLAMOOK,OR,,US,,,,,
,visa,,,TILLAMOOK,OR,,US,,,,,
,visa,,,TILLAMOOK,OR,,US,,,,,
,visa,,,TILLAMOOK,OR,,US,,,,,
,visa,,,TILLAMOOK,OR,,US,,,,,
,visa,,,TILLAMOOK,OR,,US,,,,,
,visa,,,TILLAMOOK,OR,,US,,,,,
,visa,,,TILLAMOOK,OR,,US,,,,,
,visa,,,TILLAMOOK,OR,,US,,,,,
,visa,,,TILLAMOOK,OR,,US,,,,,
,visa,,,TILLAMOOK,OR,,US,,,,,
,visa,,,TILLAMOOK,OR,,US,,,,,
,visa,,,TILLAMOOK,OR,,US,,,,,
,visa,,,TILLAMOOK JUNCTION,OR,,US,,,,,
,visa,,,TILLAMOOK,OR,,US,,,,,
,visa,,,TILLAMOOK,OR,,US,,,,,
,visa,,,TILLAMOOK,OR,,US,,,,,
,visa,,,TILLAMOOK,OR,,US,,,,,
,visa,,,TILLAMOOK JUNCTION,OR,,US,,,,,
,visa,,,TILLAMOOK,OR,,US,,,,,
,visa,,,TILLAMOOK,OR,,US,,,,,
,visa,,,TILLAMOOK,OR,,US,,,,,
,visa,,,TILLAMOOK,OR,,US,,,,,
2006__4TH__ST_TILLAMOOK_OR_97141,wellsfargo,Wells Fargo,2006 4TH ST,TILLAMOOK,OR,,US,+1 503-842-2512,https://www.wellsfargo.com/locator/bank/2006__4TH__ST_TILLAMOOK_OR_97141/,Mo-Fr 09:00-17:00,Wells Fargo,Q744149
