Ref,Spider,Name,Address,City,State,Zipcode,Country,Phone,Website,Hours,Brand,WikiData
https://stores.advanceautoparts.com/al/huntsville/3111-bob-wallace-ave-sw,advance_auto_parts_us,Advance Auto Parts,,Huntsville,AL,,US,+1 256-518-6112,https://stores.advanceautoparts.com/al/huntsville/3111-bob-wallace-ave-sw,Mo-Sa 07:00-21:00; Su 08:00-20:00,Advance Auto Parts,Q4686051
53,autozone_us,AutoZone Auto Parts Huntsville,,Huntsville,AL,,US,+1 256-533-3727,https://www.autozone.com/locations/al/huntsville/3601-governors-dr-sw.html,Mo-Sa 07:00-21:00; Su 08:00-20:00,AutoZone,Q4826087
47,bluerhino,Walmart #0332 - Supercenter,,Huntsville,AL,,US,+1 256-837-7272,,,Blue Rhino,Q65681213
237074,bluerhino,Circle K #2723684,,Huntsville,AL,,US,+1 256-536-8556,,,Blue Rhino,Q65681213
151239,bluerhino,Walgreens #6464,,Huntsville,AL,,US,+1 256-533-3155,,,Blue Rhino,Q65681213
76693221951003580500100000000000,bp,BP,,Huntsville,AL,,US,+1 256-518-2345,,24/7,BP,Q152057
25227,cadillac,BENTLEY CADILLAC,,Huntsville,AL,,US,+1 256-382-3310,https://www.bentleycadillac.com,Mo-Fr 08:30-19:00; Sa 08:30-18:00,Cadillac,Q27436
90068,citi,ATM Walgreens,,Huntsville,AL,,US,,,,Citibank,Q857063
37464,citi,ATM Calhoun,,Huntsville,AL,,US,,,,Citibank,Q857063
43278,citi,ATM Circle K,,Huntsville,AL,,US,,,,Citibank,Q857063
,credit_union_us,Rocket City FCU,,Huntsville,AL,,US,+1 256-533-0541,,Mo-Tu 08:00-05:00; We 08:00-12:00; Th-Fr 08:00-05:00,,
alabama-huntsville,deloitte,Deloitte - Huntsville,,Huntsville,AL,,US,+1 256-665-9640,https://www2.deloitte.com/us/en/footerlinks/office-locator/alabama/huntsville.html,,Deloitte,Q491748
5870,dominos_pizza_us,Domino's Pizza,,Huntsville,AL,,US,+1 256-536-4433,https://pizza.dominos.com/alabama/huntsville/3319-triana-blvd,Mo-Th 10:00-24:00; Fr-Sa 10:00-01:00; Su 10:00-24:00,Domino's,Q839466
350746,dunkin_us,Dunkin',,Huntsville,AL,,US,+1 256-824-4587,https://locations.dunkindonuts.com/en/al/huntsville/301-sparkman-dr-nw/350746,Mo-Th 07:00-17:00; Fr 07:00-16:00; Sa-Su 09:00-16:00,Dunkin',Q847743
E15562,enterprise,Huntsville Bob Wallace Ave. SW,,Huntsville,AL,,US,+1 256-534-9700,,,Enterprise Rent-A-Car,Q17085454
18929,firestone_auto_care,Firestone Complete Auto Care,,Huntsville,AL,,US,+1 256-217-5897,https://local.firestonecompleteautocare.com/alabama/huntsville/2010-bob-wallace-ave-sw/,,Firestone,Q420837
501405,follett,Calhoun Community College - Huntsville Bookstore,,Huntsville,AL,,US,+1 256-890-4748,https://www.bkstr.com/calhounhuntsvillestore/home,Mo-Th 09:00-17:00; Fr 09:00-12:00,,
Motorcraft1667USAEnglish,ford,"Ray Pearman Lincoln, Inc",,Alabama,AL,,US,+1 256-536-7451,,,Ford,Q44294
https://office.jacksonhewitt.com/#27580274,jackson_hewitt,Jackson Hewitt,,Huntsville,AL,,US,+1 256-207-5170,https://office.jacksonhewitt.com/tax-preparation-services-locations/en/al/huntsville/410-jordan-ln-nw/18432,Mo-Sa 10:00-18:00; Su 13:00-17:00,Jackson Hewitt,Q6117132
HSVAL,marriott,Huntsville Marriott at the Space & Rocket Center,,Huntsville,AL,,US,+1 256-830-2222,https://www.marriott.com/HSVAL,,Marriott Hotels & Resorts,Q3918608
https://locations.oreillyauto.com/al/huntsville/check-engine-light-testing-948.html,oreilly,Your Huntsville O'Reilly Auto Parts Store,,Huntsville,AL,,US,+1 256-534-3525,https://locations.oreillyauto.com/al/huntsville/check-engine-light-testing-948.html,Mo-Sa 07:00-21:00; Su 08:00-20:00,O'Reilly Auto Parts,Q7071951
https://locations.oreillyauto.com/al/huntsville/wiper-installation-948.html,oreilly,Your Huntsville O'Reilly Auto Parts Store,,Huntsville,AL,,US,+1 256-534-3525,https://locations.oreillyauto.com/al/huntsville/wiper-installation-948.html,Mo-Sa 07:00-21:00; Su 08:00-20:00,O'Reilly Auto Parts,Q7071951
https://locations.oreillyauto.com/al/huntsville/battery-testing-948.html,oreilly,Your Huntsville O'Reilly Auto Parts Store,,Huntsville,AL,,US,+1 256-534-3525,https://locations.oreillyauto.com/al/huntsville/battery-testing-948.html,Mo-Sa 07:00-21:00; Su 08:00-20:00,O'Reilly Auto Parts,Q7071951
https://locations.oreillyauto.com/al/huntsville/autopartes-948.html,oreilly,Tu tienda O'Reilly Auto Parts en Huntsville,,Huntsville,AL,,US,+1 256-534-3525,https://locations.oreillyauto.com/al/huntsville/autopartes-948.html,Mo-Sa 07:00-21:00; Su 08:00-20:00,O'Reilly Auto Parts,Q7071951
ppg-paints-9228-21771,ppgpaints,PPG Paints 9228,,"Huntsville, ",AL,,US,+1 256-539-9371,https://www.ppgpaints.com/store-locator/us/alabama/huntsville-paint-stores/ppg-paints-9228-21771,,PPG Paints,Q83891559
https://www.publicstorage.com/self-storage-al-huntsville/353.html,public_storage_us,Public Storage,,Huntsville,AL,,US,+1 256-715-9870,https://www.publicstorage.com/self-storage-al-huntsville/353.html,,Public Storage,Q1156045
1014,rentacenter,Rent-A-Center,,Huntsville,AL,,US,+1 256-539-3777,https://locations.rentacenter.com/alabama/huntsville/2900-triana-blvd-sw/,Mo-Sa 10:00-18:00,Rent-A-Center,Q7313497
https://restaurants.subway.com/#14903023,subway,Subway,,Huntsville Madison,AL,,US,+1 256-536-5353,https://restaurants.subway.com/united-states/al/huntsville/414-jordan-lane,Mo-Su 09:00-21:00,Subway,Q244457
https://restaurants.subway.com/#14904441,subway,Subway Crossroads Shopping Center,,Huntsville Madison,AL,,US,+1 256-533-9799,https://restaurants.subway.com/united-states/al/huntsville/2850-triana-boulevard,Mo-Su 08:00-21:00,Subway,Q244457
0876673500,sunoco_us,Sunoco,,HUNTSVILLE,AL,,US,+1 256-533-6677,,Mo-Su 05:00-00:00,Sunoco,Q1423218
0708616800,sunoco_us,Sunoco,,HUNTSVILLE,AL,,US,+1 423-702-1803,,,Sunoco,Q1423218
0307722900,sunoco_us,Sunoco,,HUNTSVILLE,AL,,US,+1 256-881-1117,,,Sunoco,Q1423218
011149,uhaul,Safe Mini Storage #7,2770 Bob Wallace Ave SW,Huntsville,AL,,US,+1 256-721-3581,,Mo-Fr 30:00-17:00; Sa 30:00-16:00,U-Haul,Q7862902
762059,uhaul,U-Haul at Governors Dr,3713 Governors Dr,Huntsville,AL,,US,+1 256-533-6370,,Mo-Th 00:00-19:00; Fr 00:00-20:00; Sa 00:00-19:00; Su 00:00-17:00,U-Haul,Q7862902
1387203,usps,WEST,,HUNTSVILLE,AL,,US,+1 256-534-6459,,Mo-Fr 08:30-17:00; Sa 09:00-12:00,United States Postal Service,Q668687
3580500001,usps_collection_boxes,USPS COLLECTION BOX - BLUE BOX,1 TRANQUILITY BASE,HUNTSVILLE,AL,,US,,,,United States Postal Service,Q668687
3580500006,usps_collection_boxes,USPS COLLECTION BOX - BLUE BOX,4955 CORPORATE DR NW,HUNTSVILLE,AL,,US,,,,United States Postal Service,Q668687
3580500052,usps_collection_boxes,USPS COLLECTION BOX - PO LOBBY,3605 GOVERNORS DR SW,HUNTSVILLE,AL,,US,,,,United States Postal Service,Q668687
3580500038,usps_collection_boxes,USPS COLLECTION BOX - BLUE BOX,3605 GOVERNORS DR SW,HUNTSVILLE,AL,,US,,,,United States Postal Service,Q668687
3580500039,usps_collection_boxes,USPS COLLECTION BOX - BLUE BOX,3605 GOVERNORS DR SW,HUNTSVILLE,AL,,US,,,,United States Postal Service,Q668687
3580500041,usps_collection_boxes,USPS COLLECTION BOX - BLUE BOX,3605 GOVERNORS DR SW,HUNTSVILLE,AL,,US,,,,United States Postal Service,Q668687
3580500046,usps_collection_boxes,USPS COLLECTION BOX - PO LOBBY,3605 GOVERNORS DR SW,HUNTSVILLE,AL,,US,,,,United States Postal Service,Q668687
3580500033,usps_collection_boxes,USPS COLLECTION BOX - BLUE BOX,2905 WESTCORP BLVD SW,HUNTSVILLE,AL,,US,,,,United States Postal Service,Q668687
3580500008,usps_collection_boxes,USPS COLLECTION BOX - BLUE BOX,2227 DRAKE AVE SW,HUNTSVILLE,AL,,US,,,,United States Postal Service,Q668687
3580500002,usps_collection_boxes,USPS COLLECTION BOX - BLUE BOX,2603 ARTIE ST SW,HUNTSVILLE,AL,,US,,,,United States Postal Service,Q668687
,visa,,,HUNTSVILLE,AL,,US,,,,,
,visa,,,HUNTSVILLE,AL,,US,,,,,
,visa,,,HUNTSVILLE,AL,,US,,,,,
,visa,,,HUNTSVILLE,AL,,US,,,,,
,visa,,,HUNTSVILLE,AL,,US,,,,,
,visa,,,HUNTSVILLE,AL,,US,,,,,
,visa,,,HUNTSVILLE,AL,,US,,,,,
,visa,,,HUNTSVILLE,AL,,US,,,,,
,visa,,,HUNTSVILLE,AL,,US,,,,,
,visa,,,HUNTSVILLE,AL,,US,,,,,
,visa,,,HUNTSVILLE,AL,,US,,,,,
,visa,,,HUNTSVILLE,AL,,US,,,,,
,visa,,,HUNTSVILLE,AL,,US,,,,,
,visa,,,HUNTSVILLE,AL,,US,,,,,
,visa,,,HUNTSVILLE,AL,,US,,,,,
,visa,,,HUNTSVILLE,AL,,US,,,,,
,visa,,,HUNTSVILLE,AL,,US,,,,,
,visa,,,HUNTSVILLE,AL,,US,,,,,
,visa,,,HUNTSVILLE,AL,,US,,,,,
,visa,,,HUNTSVILLE,AL,,US,,,,,
,visa,,,HUNTSVILLE,AL,,US,,,,,
,visa,,,HUNTSVILLE,AL,,US,,,,,
,visa,,,HUNSTVILLE,AL,,US,,,,,
,visa,,,HUNTSVILLE,AL,,US,,,,,
,visa,,,HUNTSVILLE,AL,,US,,,,,
,visa,,,HUNTSVILLE,AL,,US,,,,,
,visa,,,HUNTSVILLE,AL,,US,,,,,
,visa,,,HUNTSVILLE,AL,,US,,,,,
,visa,,,HUNTSVILLE,AL,,US,,,,,
,visa,,,HUNTSVILLE,AL,,US,,,,,
,visa,,,HUNTSVILLE,AL,,US,,,,,
,visa,,,HUNTSVILLE,AL,,US,,,,,
,visa,,,HUNTSVILLE,AL,,US,,,,,
https://www.walgreens.com/locator/walgreens-3120+bob+wallace+ave+sw-huntsville-al-35805/id=6464,walgreens,Walgreens,,Huntsville,AL,,US,+1 256-533-5058,https://www.walgreens.com/locator/walgreens-3120+bob+wallace+ave+sw-huntsville-al-35805/id=6464,Mo-Su 09:00-21:00,Walgreens,Q1591889
3d7d07418d619da71ff5e2b95187e4c0,western_union,WALMART #005925,,Huntsville,AL,,US,+1 256-755-3080,https://location.westernunion.com/us/al/huntsville/3d7d07418d619da71ff5e2b95187e4c0,Mo-Su 07:00-21:00,Western Union,Q861042
