Ref,Spider,Name,Address,City,State,Zipcode,Country,Phone,Website,Hours,Brand,WikiData
f2aeca0847272df40c2445678c0d1d01,western_union,FIRST SECURITY ISLAMI BANK LTD,,Joypurhat,RAJSHAHI,,BD,+880 1992-044264,https://location.westernunion.com/bd/rajshahi/joypurhat/f2aeca0847272df40c2445678c0d1d01,Mo-Th 10:00-17:00; Sa-Su 10:00-17:00,Western Union,Q861042
685e1aa95c1b24e235053d386648238a,western_union,IFIC BANK LIMITED,,Joypurhat,RAJSHAHI,,BD,+880 1521-440513,https://location.westernunion.com/bd/rajshahi/joypurhat/685e1aa95c1b24e235053d386648238a,Mo-Th 10:00-17:00; Su 10:00-17:00,Western Union,Q861042
7fa2252dfdc727a47c0c548c791e312d,western_union,ASA,,Chapai Nawabgonj,RAJSHAHI,,BD,+880 1730-065194,https://location.westernunion.com/bd/rajshahi/chapai-nawabgonj/7fa2252dfdc727a47c0c548c791e312d,Mo-Th 08:00-19:00; Sa-Su 08:00-19:00,Western Union,Q861042
a0af1de67098783abb8509090fc22800,western_union,ASA,,Bogra,RAJSHAHI,,BD,+880 1730-065116,https://location.westernunion.com/bd/rajshahi/bogra/a0af1de67098783abb8509090fc22800,Mo-Th 08:00-19:00; Sa-Su 08:00-19:00,Western Union,Q861042
0cf5147f36c5d74f6e41692841f270fd,western_union,MERCANTILE BANK LIMITED,,Joypurhat,RAJSHAHI,,BD,+880 1913-950252,https://location.westernunion.com/bd/rajshahi/joypurhat/0cf5147f36c5d74f6e41692841f270fd,Mo-Th 10:00-18:00; Sa 10:00-14:00; Su 10:00-18:00,Western Union,Q861042
a423b92ab3419d02052d86393245d392,western_union,ASA,,Naogaon,RAJSHAHI,,BD,+880 1730-065551,https://location.westernunion.com/bd/rajshahi/naogaon/a423b92ab3419d02052d86393245d392,Mo-Th 08:00-19:00; Sa-Su 08:00-19:00,Western Union,Q861042
dfdace8706ab8154c98773e746cc54f4,western_union,IFIC BANK LIMITED,,Rajshahi,RAJSHAHI,,BD,+880 1719-863970,https://location.westernunion.com/bd/rajshahi/rajshahi/dfdace8706ab8154c98773e746cc54f4,Mo-Th 10:00-17:00; Su 10:00-17:00,Western Union,Q861042
a07669fe580925fdbe90884a5d4f57cf,western_union,ISLAMI BANK BANGLADESHN LIMITED,,Chapai Nawabganj,RAJSHAHI,,BD,+880 1711-438346,https://location.westernunion.com/bd/rajshahi/chapai-nawabganj/a07669fe580925fdbe90884a5d4f57cf,Mo-Th 10:00-18:00; Sa-Su 10:00-18:00,Western Union,Q861042
510130f5525293f539adc8270fbd37ee,western_union,ISLAMI BANK BANGLADESHN LIMITED,,Naogaon,RAJSHAHI,,BD,+880 1730-328870,https://location.westernunion.com/bd/rajshahi/naogaon/510130f5525293f539adc8270fbd37ee,Mo-Th 10:00-18:00; Sa-Su 10:00-18:00,Western Union,Q861042
cd02ac6c8856ef165c1338e9025e639d,western_union,STANDARD BANK LIMITED,,Naogaon,RAJSHAHI,,BD,+880 1742-675010,https://location.westernunion.com/bd/rajshahi/naogaon/cd02ac6c8856ef165c1338e9025e639d,Mo-Th 10:00-18:00; Sa 10:00-14:00; Su 10:00-18:00,Western Union,Q861042
7b0167ad49ad90c84d0d5b685525507d,western_union,M S ROCKY TELECOM,,Naogaon,RAJSHAHI,,BD,+880 1711-412240,https://location.westernunion.com/bd/rajshahi/naogaon/7b0167ad49ad90c84d0d5b685525507d,Mo-Th 09:30-17:30; Fr-Sa 09:30-14:30; Su 09:30-17:30,Western Union,Q861042
fc23dc5e1cd73961828788100963ca33,western_union,ASA,,Bogra,RAJSHAHI,,BD,+880 1730-065121,https://location.westernunion.com/bd/rajshahi/bogra/fc23dc5e1cd73961828788100963ca33,Mo-Th 08:00-19:00; Sa-Su 08:00-19:00,Western Union,Q861042
20bbf65d44e5b97cec2984e3b2bb4876,western_union,IFIC BANK LIMITED,,Naogaon,RAJSHAHI,,BD,+880 1778-600276,https://location.westernunion.com/bd/rajshahi/naogaon/20bbf65d44e5b97cec2984e3b2bb4876,Mo-Th 10:00-17:00; Su 10:00-17:00,Western Union,Q861042
514848485184f725e7ae0847a5a631ea,western_union,IFIC BANK LIMITED,,Joypurhat,RAJSHAHI,,BD,+880 1761-173483,https://location.westernunion.com/bd/rajshahi/joypurhat/514848485184f725e7ae0847a5a631ea,Mo-Th 10:00-17:00; Su 10:00-17:00,Western Union,Q861042
489465323d44cf7fa7bbb92aca8ecc42,western_union,NRB COMMERCIAL BANK LIMITED,,Bogra,RAJSHAHI,,BD,+880 1716-433078,https://location.westernunion.com/bd/rajshahi/bogra/489465323d44cf7fa7bbb92aca8ecc42,Mo-Th 10:00-16:00; Su 10:00-16:00,Western Union,Q861042
cec8a75296c88009bdb59e7a1d62e8ae,western_union,ASA,,Naogaon,RAJSHAHI,,BD,+880 1730-065717,https://location.westernunion.com/bd/rajshahi/naogaon/cec8a75296c88009bdb59e7a1d62e8ae,Mo-Th 08:00-19:00; Sa-Su 08:00-19:00,Western Union,Q861042
372a45011aa500dceb1e9fefb4e72d88,western_union,BRAC BANK LIMITED,,Naogaon,RAJSHAHI,,BD,+880 1728-244085,https://location.westernunion.com/bd/rajshahi/naogaon/372a45011aa500dceb1e9fefb4e72d88,Mo-Th 10:00-17:00; Sa-Su 10:00-17:00,Western Union,Q861042
a6bc23b9d167ce0344400075bd9a2041,western_union,ASA,,Naogaon,RAJSHAHI,,BD,+880 1730-065706,https://location.westernunion.com/bd/rajshahi/naogaon/a6bc23b9d167ce0344400075bd9a2041,Mo-Th 08:00-19:00; Sa-Su 08:00-19:00,Western Union,Q861042
85b35e995fdce45ae73b176ef0a74dcb,western_union,A K M S ENTERPRISE,,Naogaon,RAJSHAHI,,BD,+880 1723-272928,https://location.westernunion.com/bd/rajshahi/naogaon/85b35e995fdce45ae73b176ef0a74dcb,Mo-Su 08:00-21:00,Western Union,Q861042
569c17c1ca833cb83c6bd350edaaad47,western_union,BRAC BANK LTD,,Chapinawabganj,RAJSHAHI,,BD,+880 1746-233993,https://location.westernunion.com/bd/rajshahi/chapinawabganj/569c17c1ca833cb83c6bd350edaaad47,Mo-Su 08:00-21:00,Western Union,Q861042
1f6bc062f956cb864da167b630b4c317,western_union,IFIC BANK LIMITED,,Joypurhat,RAJSHAHI,,BD,+880 1791-975497,https://location.westernunion.com/bd/rajshahi/joypurhat/1f6bc062f956cb864da167b630b4c317,Mo-Th 10:00-17:00; Su 10:00-17:00,Western Union,Q861042
0de751fb0d90be0b9c71f98d888537a5,western_union,ASA,,Bogra,RAJSHAHI,,BD,+880 1730-065115,https://location.westernunion.com/bd/rajshahi/bogra/0de751fb0d90be0b9c71f98d888537a5,Mo-Th 08:00-19:00; Sa-Su 08:00-19:00,Western Union,Q861042
95adc8e37fdcf1bd6174d9a3ddffedde,western_union,HASAN MEDICAL STORE,,Bogura,RAJSHAHI,,BD,+880 1309-119817,https://location.westernunion.com/bd/rajshahi/bogura/95adc8e37fdcf1bd6174d9a3ddffedde,Mo-Su 08:00-21:00,Western Union,Q861042
38ee57ca1fd518019af6fc88ac555b34,western_union,ASA,,Bogra,RAJSHAHI,,BD,+880 1730-065125,https://location.westernunion.com/bd/rajshahi/bogra/38ee57ca1fd518019af6fc88ac555b34,Mo-Th 08:00-19:00; Sa-Su 08:00-19:00,Western Union,Q861042
c22e3155622f7a07514aceb18348b2d4,western_union,SOCIAL ISLAMI BANK LIMITED,,Bogura,RAJSHAHI,,BD,(+880) 1-1717426865,https://location.westernunion.com/bd/rajshahi/bogura/c22e3155622f7a07514aceb18348b2d4,Mo-Th 10:00-17:00; Su 10:00-17:00,Western Union,Q861042
73ce5c9f5f19c11eb6f7a6ad5eb718ff,western_union,IFIC BANK LIMITED,,Chapai Nawabganj,RAJSHAHI,,BD,+880 1686-886340,https://location.westernunion.com/bd/rajshahi/chapai-nawabganj/73ce5c9f5f19c11eb6f7a6ad5eb718ff,Mo-Th 10:00-17:00; Su 10:00-17:00,Western Union,Q861042
acc62bee0d9bd248fb1234193fbdbc6f,western_union,ASA,,Bogra,RAJSHAHI,,BD,+880 1730-065117,https://location.westernunion.com/bd/rajshahi/bogra/acc62bee0d9bd248fb1234193fbdbc6f,Mo-Th 08:00-19:00; Sa-Su 08:00-19:00,Western Union,Q861042
0620ff1822d2d5f13b7206e404e4fd85,western_union,M/S ALIF TRADERS,,Bogura,RAJSHAHI,,BD,+880 1713-739131,https://location.westernunion.com/bd/rajshahi/bogura/0620ff1822d2d5f13b7206e404e4fd85,Mo-Su 08:00-21:00,Western Union,Q861042
26cc53051e9a68bb207f847c666fe85a,western_union,IFIC BANK LIMITED,,Bogura,Rajshahi,,BD,+880 1701-007657,https://location.westernunion.com/bd/rajshahi/bogura/26cc53051e9a68bb207f847c666fe85a,Mo-Th 10:00-17:00; Su 10:00-17:00,Western Union,Q861042
eef56c87a4f82730b09c36a9d8ca3530,western_union,ISLAMI BANK BANGLADESHN LIMITED,,Bogra,RAJSHAHI,,BD,+880 1998-707055,https://location.westernunion.com/bd/rajshahi/bogra/eef56c87a4f82730b09c36a9d8ca3530,Mo-Th 10:00-18:00; Sa-Su 10:00-18:00,Western Union,Q861042
be37ca33d5a79e3b4d0c1b41b3e0c138,western_union,IFIC BANK LIMITED,,Bogura,RAJSHAHI,,BD,+880 1735-130476,https://location.westernunion.com/bd/rajshahi/bogura/be37ca33d5a79e3b4d0c1b41b3e0c138,Mo-Su 10:00-17:00,Western Union,Q861042
baa328f83f24c55af6e01d715c3b98ae,western_union,DHAKA BANK LIMITED,,Chapainawabgonj,RAJSHAHI,,BD,+880 1758-437006,https://location.westernunion.com/bd/rajshahi/chapainawabgonj/baa328f83f24c55af6e01d715c3b98ae,Mo-Th 10:00-18:00; Fr 09:30-15:00; Sa 09:30-17:00; Su 10:00-18:00,Western Union,Q861042
5314f6ada65333c5f69073561ae3d59f,western_union,BRAC BANK LTD,,Rajshahi,RAJSHAHI,,BD,+880 1711-020970,https://location.westernunion.com/bd/rajshahi/rajshahi/5314f6ada65333c5f69073561ae3d59f,Mo-Su 08:00-21:00,Western Union,Q861042
85924bb9bebcfc161a60f33230c96470,western_union,DUTCH BANGLA BANK LIMITED,,Chapai Nawabgonj,RAJSHAHI,,BD,(+880) 193880162,https://location.westernunion.com/bd/rajshahi/chapai-nawabgonj/85924bb9bebcfc161a60f33230c96470,Mo-Th 09:00-16:00; Fr 09:30-15:00; Sa 09:30-17:00; Su 09:00-16:00,Western Union,Q861042
a193bd59b61987f54d04b8a1755c2361,western_union,AB BANK LIMITED,,Chapai Nawabganj,RAJSHAHI,,BD,+880 781-52726,https://location.westernunion.com/bd/rajshahi/chapai-nawabganj/a193bd59b61987f54d04b8a1755c2361,Mo-Th 09:30-17:00; Su 09:30-17:00,Western Union,Q861042
bf8820104252a0552712fbfe687b64a7,western_union,IFIC BANK LIMITED,,Chapai Nawabganj,RAJSHAHI,,BD,+880 781-52081,https://location.westernunion.com/bd/rajshahi/chapai-nawabganj/bf8820104252a0552712fbfe687b64a7,Mo-Th 10:00-17:00; Su 10:00-17:00,Western Union,Q861042
2a9a2f85ce78c9fe6c34264da6c381ce,western_union,CHOWMASHIA UPOSHAKHA,,Naogaon,RAJSHAHI,,BD,+880 1738-779553,https://location.westernunion.com/bd/rajshahi/naogaon/2a9a2f85ce78c9fe6c34264da6c381ce,Mo-Th 10:00-17:00; Su 10:00-17:00,Western Union,Q861042
4ff766cf079d85e8ff4c07445e6c8e48,western_union,BISMILLAH EMTERPRISE,,Chapai Nawabganj,RAJSHAHI,,BD,+880 1741-072677,https://location.westernunion.com/bd/rajshahi/chapai-nawabganj/4ff766cf079d85e8ff4c07445e6c8e48,Mo-Th 09:30-17:30; Fr-Sa 09:30-14:30; Su 09:30-17:30,Western Union,Q861042
dbc4d8eab41cf5d2bd9af079a3bbc753,western_union,M/S MESKAT TRADERS,,Bogura,RAJSHAHI,,BD,+880 1719-944906,https://location.westernunion.com/bd/rajshahi/bogura/dbc4d8eab41cf5d2bd9af079a3bbc753,Mo-Su 08:00-21:00,Western Union,Q861042
7563b22e4cedaedf709d7f95d9abebdb,western_union,ASA,,Rajshahi,RAJSHAHI,,BD,+880 1730-099154,https://location.westernunion.com/bd/rajshahi/rajshahi/7563b22e4cedaedf709d7f95d9abebdb,Mo-Th 08:00-19:00; Sa-Su 08:00-19:00,Western Union,Q861042
57414f61e286542a58e7d1cdd18331e0,western_union,ASA,,Bogra,RAJSHAHI,,BD,+880 1730-065123,https://location.westernunion.com/bd/rajshahi/bogra/57414f61e286542a58e7d1cdd18331e0,Mo-Th 08:00-19:00; Sa-Su 08:00-19:00,Western Union,Q861042
11e1f30f54312ce9cb240d805cb082c6,western_union,ISLAMI BANK BANGLADESHN LIMITED,,Bogra,RAJSHAHI,,BD,+880 1730-097286,https://location.westernunion.com/bd/rajshahi/bogra/11e1f30f54312ce9cb240d805cb082c6,Mo-Th 10:00-18:00; Sa-Su 10:00-18:00,Western Union,Q861042
083d07df25d2490eea5d9930f02001b0,western_union,ISLAMI BANK BANGLADESHN LIMITED,,Chapai Nawabganj,RAJSHAHI,,BD,+880 1713-141503,https://location.westernunion.com/bd/rajshahi/chapai-nawabganj/083d07df25d2490eea5d9930f02001b0,Mo-Th 10:00-18:00; Sa-Su 10:00-18:00,Western Union,Q861042
f7dfe697c9cc6b32ee25ca2bcabd1069,western_union,FIRST SECURITY ISLAMI BANK LTD,,Chapainwabganj,RAJSHAHI,,BD,+880 1992-044288,https://location.westernunion.com/bd/rajshahi/chapainwabganj/f7dfe697c9cc6b32ee25ca2bcabd1069,Mo-Th 10:00-17:00; Su 10:00-17:00,Western Union,Q861042
c03a5cde7df02fdb8fe60e269573f703,western_union,ASA,,Bogra,RAJSHAHI,,BD,+880 1730-065178,https://location.westernunion.com/bd/rajshahi/bogra/c03a5cde7df02fdb8fe60e269573f703,Mo-Th 08:00-19:00; Sa-Su 08:00-19:00,Western Union,Q861042
2e264afb93ad42489cf65ec21725f55a,western_union,RUBEL ELECTRONICS,,Chapainawabganj,RAJSHAHI,,BD,+880 1714-764531,https://location.westernunion.com/bd/rajshahi/chapainawabganj/2e264afb93ad42489cf65ec21725f55a,Mo-Th 09:30-17:30; Fr-Sa 09:30-14:30; Su 09:30-17:30,Western Union,Q861042
f9d876b039029f998c439d60fd924c9c,western_union,RAIFA TELECOM,,Bogura,RAJSHAHI,,BD,+880 1846-986969,https://location.westernunion.com/bd/rajshahi/bogura/f9d876b039029f998c439d60fd924c9c,Mo-Th 09:30-17:30; Fr-Sa 09:30-14:30; Su 09:30-17:30,Western Union,Q861042
a7b6ee1b7a24fb807b5ee840833dbaf7,western_union,BRAC BANK LTD,,Rajshahi,RAJSHAHI,,BD,+880 1701-959293,https://location.westernunion.com/bd/rajshahi/rajshahi/a7b6ee1b7a24fb807b5ee840833dbaf7,Mo-Su 08:00-21:00,Western Union,Q861042
7ec9ab32c59b16dc9d5d7ad6799357db,western_union,BRAC BANK LIMITED,,Naogaon,RAJSHAHI,,BD,(+880) 2-9884292-2642,https://location.westernunion.com/bd/rajshahi/naogaon/7ec9ab32c59b16dc9d5d7ad6799357db,Mo-Th 10:00-17:00; Sa-Su 10:00-17:00,Western Union,Q861042
5d0335d2625942c7b2ce7fc0cf510f0b,western_union,ASA,,Naogaon,RAJSHAHI,,BD,+880 1730-065570,https://location.westernunion.com/bd/rajshahi/naogaon/5d0335d2625942c7b2ce7fc0cf510f0b,Mo-Th 08:00-19:00; Sa-Su 08:00-19:00,Western Union,Q861042
fd08bf3d9f40e9e5f39fae45499714bf,western_union,ASA,,Naogaon,RAJSHAHI,,BD,+880 1730-065556,https://location.westernunion.com/bd/rajshahi/naogaon/fd08bf3d9f40e9e5f39fae45499714bf,Mo-Th 08:00-19:00; Sa-Su 08:00-19:00,Western Union,Q861042
5fc3235df17691e7a74ef75b3c74f2a7,western_union,ISLAMI BANK BANGLADESHN LIMITED,,Naogaon,RAJSHAHI,,BD,+880 1713-141510,https://location.westernunion.com/bd/rajshahi/naogaon/5fc3235df17691e7a74ef75b3c74f2a7,Mo-Th 10:00-18:00; Sa-Su 10:00-18:00,Western Union,Q861042
f1b597b77ffdfb3362ec397d287816ac,western_union,IFIC BANK LIMITED,,Naogaon,RAJSHAHI,,BD,+880 1738-307753,https://location.westernunion.com/bd/rajshahi/naogaon/f1b597b77ffdfb3362ec397d287816ac,Mo-Th 10:00-17:00; Su 10:00-17:00,Western Union,Q861042
aa8f87f53ae9d70765c40ce783f62b15,western_union,ASA,,Naogaon,RAJSHAHI,,BD,+880 1730-065563,https://location.westernunion.com/bd/rajshahi/naogaon/aa8f87f53ae9d70765c40ce783f62b15,Mo-Th 08:00-19:00; Sa-Su 08:00-19:00,Western Union,Q861042
c5769c4f016cd9b87524961b9a5070b6,western_union,BRAC BANK LTD,,Bogura,RAJSHAHI,,BD,+880 1713-733848,https://location.westernunion.com/bd/rajshahi/bogura/c5769c4f016cd9b87524961b9a5070b6,Mo-Su 08:00-21:00,Western Union,Q861042
2339947a36dcd8ad36f0b527e1e63014,western_union,ISLAMI BANK BANGLADESHN LIMITED,,Bogra,RAJSHAHI,,BD,+880 1714-025932,https://location.westernunion.com/bd/rajshahi/bogra/2339947a36dcd8ad36f0b527e1e63014,Mo-Th 10:00-18:00; Sa-Su 10:00-18:00,Western Union,Q861042
8fca620ea3b4decb1039c6b6a0a5b998,western_union,ASA,,Naogaon,RAJSHAHI,,BD,+880 1730-065554,https://location.westernunion.com/bd/rajshahi/naogaon/8fca620ea3b4decb1039c6b6a0a5b998,Mo-Th 08:00-19:00; Sa-Su 08:00-19:00,Western Union,Q861042
4ccdae8a2efd7743ba9255676934e211,western_union,IFIC BANK LIMITED,,Bogura,RAJSHAHI,,BD,+880 1713-229850,https://location.westernunion.com/bd/rajshahi/bogura/4ccdae8a2efd7743ba9255676934e211,Mo-Th 10:00-17:00; Su 10:00-17:00,Western Union,Q861042
3a8ce02a312d49cec9887725d80d5e0d,western_union,RAFI MEDICAL STORE,,Bogura,RAJSHAHI,,BD,+880 1718-337757,https://location.westernunion.com/bd/rajshahi/bogura/3a8ce02a312d49cec9887725d80d5e0d,Mo-Su 07:00-23:00,Western Union,Q861042
506669adc545decb78cce273d39dda93,western_union,ICB ISLAMIC BANK LIMITED,,Naogoan,RAJSHAHI,,BD,+880 1711-628996,https://location.westernunion.com/bd/rajshahi/naogoan/506669adc545decb78cce273d39dda93,Mo-Th 10:00-18:00; Fr 09:30-15:00; Sa 09:30-17:00; Su 10:00-18:00,Western Union,Q861042
99108d1751add6e3ef427205242eeffa,western_union,IFIC BANK LIMITED,,Naogaon,RAJSHAHI,,BD,+880 741-62769,https://location.westernunion.com/bd/rajshahi/naogaon/99108d1751add6e3ef427205242eeffa,Mo-Th 10:00-17:00; Su 10:00-17:00,Western Union,Q861042
d35f3dfb13c0fbe635099225754d02c5,western_union,M S AL IHSAN ENTERPRISE,,Naogaon,RAJSHAHI,,BD,+880 1715-651259,https://location.westernunion.com/bd/rajshahi/naogaon/d35f3dfb13c0fbe635099225754d02c5,Mo-Su 08:00-21:00,Western Union,Q861042
61a0ee733f846ebf7ea873d108234e38,western_union,ASA,,Bogra,RAJSHAHI,,BD,+880 1730-065175,https://location.westernunion.com/bd/rajshahi/bogra/61a0ee733f846ebf7ea873d108234e38,Mo-Th 08:00-19:00; Sa-Su 08:00-19:00,Western Union,Q861042
85486677024cee5d5404e78a2879a1f9,western_union,IFIC BANK LIMITED,,Naogaon,RAJSHAHI,,BD,+880 1677-024364,https://location.westernunion.com/bd/rajshahi/naogaon/85486677024cee5d5404e78a2879a1f9,Mo-Th 10:00-17:00; Su 10:00-17:00,Western Union,Q861042
40ccdcd58d9800e7e4551c0556935e81,western_union,ISLAMI BANK BANGLADESHN LIMITED,,Naogaon,RAJSHAHI,,BD,+880 1708-457115,https://location.westernunion.com/bd/rajshahi/naogaon/40ccdcd58d9800e7e4551c0556935e81,Mo-Th 10:00-18:00; Sa-Su 10:00-18:00,Western Union,Q861042
c16fa5bb6d21bd60202d3addb543d796,western_union,ASA,,Naogaon,RAJSHAHI,,BD,+880 1730-065589,https://location.westernunion.com/bd/rajshahi/naogaon/c16fa5bb6d21bd60202d3addb543d796,Mo-Th 08:00-19:00; Sa-Su 08:00-19:00,Western Union,Q861042
9a804b373cbc0b46442ac5eddb077c86,western_union,IFIC BANK LIMITED,,Bogura,RAJSHAHI,,BD,+880 1713-040112,https://location.westernunion.com/bd/rajshahi/bogura/9a804b373cbc0b46442ac5eddb077c86,Mo-Th 10:00-17:00; Su 10:00-17:00,Western Union,Q861042
a39e5f343bacd6ed27d5ef7cd6c0b984,western_union,IFIC BANK LIMITED,,Rajshahi,RAJSHAHI,,BD,+880 1521-300272,https://location.westernunion.com/bd/rajshahi/rajshahi/a39e5f343bacd6ed27d5ef7cd6c0b984,Mo-Th 10:00-17:00; Su 10:00-17:00,Western Union,Q861042
8ccd3ef02c6c44332b4f28f5aecf4bf4,western_union,ASA,,Bogra,RAJSHAHI,,BD,+880 1730-065152,https://location.westernunion.com/bd/rajshahi/bogra/8ccd3ef02c6c44332b4f28f5aecf4bf4,Mo-Th 08:00-19:00; Sa-Su 08:00-19:00,Western Union,Q861042
4b8714c1fd898b0c71d61ff3509cbdc6,western_union,R  S TRADERS,,Naogaon,RAJSHAHI,,BD,+880 1774-782436,https://location.westernunion.com/bd/rajshahi/naogaon/4b8714c1fd898b0c71d61ff3509cbdc6,Mo-Th 09:30-17:30; Fr-Sa 09:30-14:30; Su 09:30-17:30,Western Union,Q861042
b712b497863bc7b493cd0a0990065bf5,western_union,NASARATPUR AGENT BANKING OUTLET,,Bogura,RAJSHAHI,,BD,+880 1793-130057,https://location.westernunion.com/bd/rajshahi/bogura/b712b497863bc7b493cd0a0990065bf5,Mo-Su 08:00-21:00,Western Union,Q861042
4fb3ea2a319de30e10ca8467e1bfe301,western_union,ISLAMI BANK BANGLADESHN LIMITED,,Bogra,RAJSHAHI,,BD,+880 1730-338559,https://location.westernunion.com/bd/rajshahi/bogra/4fb3ea2a319de30e10ca8467e1bfe301,Mo-Th 10:00-18:00; Sa-Su 10:00-18:00,Western Union,Q861042
85c1609d7b0f661b41c6be43844b04af,western_union,TALORA UPOSHAKHA,,Bogura,RAJSHAHI,,BD,+880 1774-661350,https://location.westernunion.com/bd/rajshahi/bogura/85c1609d7b0f661b41c6be43844b04af,Mo-Th 10:00-17:00; Su 10:00-17:00,Western Union,Q861042
0975793645e9179f65d8ed540c908607,western_union,IFIC BANK LIMITED,,Bogura,RAJSHAHI,,BD,+880 1710-059238,https://location.westernunion.com/bd/rajshahi/bogura/0975793645e9179f65d8ed540c908607,Mo-Th 10:00-17:00; Su 10:00-17:00,Western Union,Q861042
da5e41c05bd82e38c6347d749c838e41,western_union,M/S FATEMA TRADERS,,Naogaon,RAJSHAHI,,BD,+880 1757-969449,https://location.westernunion.com/bd/rajshahi/naogaon/da5e41c05bd82e38c6347d749c838e41,Mo-Su 08:00-21:00,Western Union,Q861042
67ebfc3b757c3db900f39e947ac272ba,western_union,BRAC BANK LTD,,Bogura,RAJSHAHI,,BD,+880 1711-869728,https://location.westernunion.com/bd/rajshahi/bogura/67ebfc3b757c3db900f39e947ac272ba,Mo-Su 08:00-21:00,Western Union,Q861042
8167149df24a2579bc326f486bfbde75,western_union,ISLAMI BANK BANGLADESHN LIMITED,,Bogura,RAJSHAHI,,BD,+880 1730-326101,https://location.westernunion.com/bd/rajshahi/bogura/8167149df24a2579bc326f486bfbde75,Mo-Th 10:00-18:00; Sa-Su 10:00-18:00,Western Union,Q861042
785f487d63404f5bb24ad35a79c15574,western_union,IFIC BANK LIMITED,,Bogura,RAJSHAHI,,BD,+880 1719-134806,https://location.westernunion.com/bd/rajshahi/bogura/785f487d63404f5bb24ad35a79c15574,Mo-Th 10:00-17:00; Su 10:00-17:00,Western Union,Q861042
20709a6e4ccc32ab6c44c5254109f488,western_union,ASA,,Bogra,RAJSHAHI,,BD,+880 1730-065145,https://location.westernunion.com/bd/rajshahi/bogra/20709a6e4ccc32ab6c44c5254109f488,Mo-Th 08:00-19:00; Sa-Su 08:00-19:00,Western Union,Q861042
09d7d6d2bbc69bf57f2b2e0f5827abfb,western_union,ASA,,Bogra,RAJSHAHI,,BD,+880 1730-065141,https://location.westernunion.com/bd/rajshahi/bogra/09d7d6d2bbc69bf57f2b2e0f5827abfb,Mo-Th 08:00-19:00; Sa-Su 08:00-19:00,Western Union,Q861042
0bb16b327683aafece812092f87db7e9,western_union,IFIC BANK LIMITED,,Bogura,RAJSHAHI,,BD,+880 1515-646484,https://location.westernunion.com/bd/rajshahi/bogura/0bb16b327683aafece812092f87db7e9,Mo-Th 10:00-17:00; Su 10:00-17:00,Western Union,Q861042
694b8e38052c3cc6356745e67bbd5ba9,western_union,ASA,,Bogra,RAJSHAHI,,BD,+880 1730-065108,https://location.westernunion.com/bd/rajshahi/bogra/694b8e38052c3cc6356745e67bbd5ba9,Mo-Th 08:00-19:00; Sa-Su 08:00-19:00,Western Union,Q861042
fe41116a5238e8b1bda8e4195b63f8b0,western_union,IFIC BANK LIMITED,,Bogra,RAJSHAHI,,BD,+880 51-66080,https://location.westernunion.com/bd/rajshahi/bogra/fe41116a5238e8b1bda8e4195b63f8b0,Mo-Th 10:00-17:00; Su 10:00-17:00,Western Union,Q861042
570b983d6e2e20b80e7e54093020a747,western_union,KUSHAL ENTERPRISE,,Bogura,RAJSHAHI,,BD,+880 1922-284348,https://location.westernunion.com/bd/rajshahi/bogura/570b983d6e2e20b80e7e54093020a747,Mo-Su 08:00-21:00,Western Union,Q861042
4aaa05bf8857f04847cdd94c0e85aa41,western_union,ASA,,Bogra,RAJSHAHI,,BD,+880 1730-065169,https://location.westernunion.com/bd/rajshahi/bogra/4aaa05bf8857f04847cdd94c0e85aa41,Mo-Th 08:00-19:00; Sa-Su 08:00-19:00,Western Union,Q861042
9aa629d55150194d751ba65906fe72d0,western_union,ASA,,Bogra,RAJSHAHI,,BD,+880 1730-065172,https://location.westernunion.com/bd/rajshahi/bogra/9aa629d55150194d751ba65906fe72d0,Mo-Th 08:00-19:00; Sa-Su 08:00-19:00,Western Union,Q861042
724cbb95d1808ae663b3d003d873b18a,western_union,ASA,,Naogaon,RAJSHAHI,,BD,+880 1730-065562,https://location.westernunion.com/bd/rajshahi/naogaon/724cbb95d1808ae663b3d003d873b18a,Mo-Th 08:00-19:00; Sa-Su 08:00-19:00,Western Union,Q861042
fb8ec33f5da00debb37efdb6dbee11ce,western_union,IFIC BANK LIMITED,,Rajshahi,RAJSHAHI,,BD,+880 1521-473361,https://location.westernunion.com/bd/rajshahi/rajshahi/fb8ec33f5da00debb37efdb6dbee11ce,Mo-Th 10:00-17:00; Su 10:00-17:00,Western Union,Q861042
5041bd7497339e21d29d77e224f9c501,western_union,IFIC BANK LIMITED,,Bogura,RAJSHAHI,,BD,+880 1741-638542,https://location.westernunion.com/bd/rajshahi/bogura/5041bd7497339e21d29d77e224f9c501,Mo-Th 10:00-17:00; Su 10:00-17:00,Western Union,Q861042
15e9ae7ad03f0cc995943b8561991232,western_union,ISLAMI BANK BANGLADESHN LIMITED,,Bogra,RAJSHAHI,,BD,+880 1713-439067,https://location.westernunion.com/bd/rajshahi/bogra/15e9ae7ad03f0cc995943b8561991232,Mo-Th 10:00-18:00; Sa-Su 10:00-18:00,Western Union,Q861042
ef918537c52aab4ce3949a5fc09e5fbe,western_union,BANK ASIA AGENT BANKING,,Bogra,RAJSHAHI,,BD,+880 1711-365011,https://location.westernunion.com/bd/rajshahi/bogra/ef918537c52aab4ce3949a5fc09e5fbe,Mo-Su 09:00-18:00,Western Union,Q861042
ed67f6d464f5532da527789eef22cd47,western_union,GLOBAL ISLAMI BANK LTD,,Bogura,RAJSHAHI,,BD,+880 1761-317225,https://location.westernunion.com/bd/rajshahi/bogura/ed67f6d464f5532da527789eef22cd47,Mo-Th 10:00-17:00; Su 10:00-17:00,Western Union,Q861042
092b6980486111fdd1642bb2b7523a68,western_union,BANK ASIA AGENT BANKING,,Bogura,RAJSHAHI,,BD,+880 1755-445720,https://location.westernunion.com/bd/rajshahi/bogura/092b6980486111fdd1642bb2b7523a68,Mo-Su 09:00-18:00,Western Union,Q861042
ba71106838218b8462db79c62daf563d,western_union,SBAC BANK LIMITED,,Bogra,RAJSHAHI,,BD,+880 51-69727,https://location.westernunion.com/bd/rajshahi/bogra/ba71106838218b8462db79c62daf563d,Mo-Th 10:00-16:30; Fr 09:30-15:00; Sa 09:30-17:00; Su 10:00-16:30,Western Union,Q861042
e684d9a910357d9d30e1d7d4f1cd0552,western_union,ASA,,Bogra,RAJSHAHI,,BD,+880 1730-065147,https://location.westernunion.com/bd/rajshahi/bogra/e684d9a910357d9d30e1d7d4f1cd0552,Mo-Th 08:00-19:00; Sa-Su 08:00-19:00,Western Union,Q861042
287de2ff8ce69eb93356d5113d564344,western_union,ISLAMI BANK BANGLADESHN LIMITED,,Bogura,RAJSHAHI,,BD,+880 1713-438502,https://location.westernunion.com/bd/rajshahi/bogura/287de2ff8ce69eb93356d5113d564344,Mo-Th 10:00-18:00; Sa-Su 10:00-18:00,Western Union,Q861042
30fa8b07360929f51eaacccbbb6cb468,western_union,MEGHNA BANK LIMITED,,Bogra,RAJSHAHI,,BD,+880 1716-895332,https://location.westernunion.com/bd/rajshahi/bogra/30fa8b07360929f51eaacccbbb6cb468,Mo-Th 09:00-17:00; Sa-Su 09:00-17:00,Western Union,Q861042
8a6b725644fc8f0ca9cbd25d0d05aeb3,western_union,ASA,,Bogra,RAJSHAHI,,BD,+880 1730-065166,https://location.westernunion.com/bd/rajshahi/bogra/8a6b725644fc8f0ca9cbd25d0d05aeb3,Mo-Th 08:00-19:00; Sa-Su 08:00-19:00,Western Union,Q861042
667dbac15472b467653bf177f7afcf20,western_union,IFIC BANK LIMITED,,Rajshahi,RAJSHAHI,,BD,+880 1729-832380,https://location.westernunion.com/bd/rajshahi/rajshahi/667dbac15472b467653bf177f7afcf20,Mo-Th 10:00-17:00; Su 10:00-17:00,Western Union,Q861042
ce2b0c226d38f9ab68307c2966497106,western_union,EASTERN BANK LIMITED,,Bogra,RAJSHAHI,,BD,+880 51-78373,https://location.westernunion.com/bd/rajshahi/bogra/ce2b0c226d38f9ab68307c2966497106,Mo-Th 09:00-17:00; Fr 09:30-15:00; Sa 09:30-17:00; Su 09:00-17:00,Western Union,Q861042
1d94f4f33539af31a3263f3e72c58e62,western_union,IFIC BANK LIMITED,,Bogura,RAJSHAHI,,BD,+880 1920-509761,https://location.westernunion.com/bd/rajshahi/bogura/1d94f4f33539af31a3263f3e72c58e62,Mo-Th 10:00-17:00; Su 10:00-17:00,Western Union,Q861042
fa52330c906b0b08a1312cdf16ce0890,western_union,IFIC BANK LIMITED,,Rajshahi,RAJSHAHI,,BD,+880 1737-644361,https://location.westernunion.com/bd/rajshahi/rajshahi/fa52330c906b0b08a1312cdf16ce0890,Mo-Th 10:00-17:00; Su 10:00-17:00,Western Union,Q861042
fd72f7eb97b554c4d073a07be47e5e01,western_union,M S AL AMIN TRADERS,,Naogaon,RAJSHAHI,,BD,+880 1766-293525,https://location.westernunion.com/bd/rajshahi/naogaon/fd72f7eb97b554c4d073a07be47e5e01,Mo-Th 09:30-17:30; Fr-Sa 09:30-14:30; Su 09:30-17:30,Western Union,Q861042
9e06ee8358fa5238c047c26a46fe3f67,western_union,BANK ASIA AGENT BANKING,,Naogaon,RAJSHAHI,,BD,+880 1720-275656,https://location.westernunion.com/bd/rajshahi/naogaon/9e06ee8358fa5238c047c26a46fe3f67,Mo-Su 09:00-18:00,Western Union,Q861042
9a53fadfd93fd9f7277b11162f85f4d2,western_union,GLOBAL ISLAMI BANK LTD,,Rajshahi,RAJSHAHI,,BD,+880 1761-646963,https://location.westernunion.com/bd/rajshahi/rajshahi/9a53fadfd93fd9f7277b11162f85f4d2,Mo-Th 10:00-17:00; Su 10:00-17:00,Western Union,Q861042
4b99d18a00975e601d4f9e9679532e5e,western_union,ASA,,Naogaon,RAJSHAHI,,BD,+880 1730-065565,https://location.westernunion.com/bd/rajshahi/naogaon/4b99d18a00975e601d4f9e9679532e5e,Mo-Th 08:00-19:00; Sa-Su 08:00-19:00,Western Union,Q861042
94e8a62a705e2c95e2dbf38a3e089257,western_union,ASA,,Bogra,RAJSHAHI,,BD,+880 1730-065165,https://location.westernunion.com/bd/rajshahi/bogra/94e8a62a705e2c95e2dbf38a3e089257,Mo-Th 08:00-19:00; Sa-Su 08:00-19:00,Western Union,Q861042
244660533256d0307e8858134214c13f,western_union,IFIC BANK LIMITED,,Bogura,RAJSHAHI,,BD,+880 1717-100794,https://location.westernunion.com/bd/rajshahi/bogura/244660533256d0307e8858134214c13f,Mo-Th 10:00-17:00; Su 10:00-17:00,Western Union,Q861042
a51d7ad102edc3e8105b110db234c1fc,western_union,IFIC BANK LIMITED,,Naogaon,RAJSHAHI,,BD,+880 1521-440513,https://location.westernunion.com/bd/rajshahi/naogaon/a51d7ad102edc3e8105b110db234c1fc,Mo-Th 10:00-17:00; Su 10:00-17:00,Western Union,Q861042
0f3e6a303679391d60da06a2371bef70,western_union,ASA,,Naogaon,RAJSHAHI,,BD,+880 1730-065561,https://location.westernunion.com/bd/rajshahi/naogaon/0f3e6a303679391d60da06a2371bef70,Mo-Th 08:00-19:00; Sa-Su 08:00-19:00,Western Union,Q861042
610ee16ed438b1272d0377bdfcaffe0a,western_union,IFIC BANK LIMITED,,Bogura,Rajshahi,,BD,+880 1722-080292,https://location.westernunion.com/bd/rajshahi/bogura/610ee16ed438b1272d0377bdfcaffe0a,Mo-Th 10:00-17:00; Su 10:00-17:00,Western Union,Q861042
37ccd66547979ca7cf3c0fdbc927f661,western_union,GLOBAL ISLAMI BANK LTD,,Bogra,RAJSHAHI,,BD,+880 1923-271564,https://location.westernunion.com/bd/rajshahi/bogra/37ccd66547979ca7cf3c0fdbc927f661,Mo-Th 10:00-16:30; Fr 09:30-15:00; Sa 09:30-17:00; Su 10:00-16:30,Western Union,Q861042
0b5554f68c8eda5b40349aecd0ece89d,western_union,ASA,,Bogra,RAJSHAHI,,BD,+880 1730-065144,https://location.westernunion.com/bd/rajshahi/bogra/0b5554f68c8eda5b40349aecd0ece89d,Mo-Th 08:00-19:00; Sa-Su 08:00-19:00,Western Union,Q861042
a7f174be1c4850bcee2aec26307fe9a4,western_union,M S TISHA ENTERPRISE,,Bogura,RAJSHAHI,,BD,+880 1740-960660,https://location.westernunion.com/bd/rajshahi/bogura/a7f174be1c4850bcee2aec26307fe9a4,Mo-Su 08:00-21:00,Western Union,Q861042
a51e1417f15f50dbb1a500b7f1e3bffb,western_union,MADLA AGENT BANKING OUTLET,,Bogura,RAJSHAHI,,BD,+880 1745-333973,https://location.westernunion.com/bd/rajshahi/bogura/a51e1417f15f50dbb1a500b7f1e3bffb,Mo-Su 08:00-21:00,Western Union,Q861042
32e7a63282af35b67ba1c20d92284b93,western_union,ASA,,Bogra,RAJSHAHI,,BD,+880 1730-065140,https://location.westernunion.com/bd/rajshahi/bogra/32e7a63282af35b67ba1c20d92284b93,Mo-Th 08:00-19:00; Sa-Su 08:00-19:00,Western Union,Q861042
fea0c6a239d1fd04d9c5f799c7323e88,western_union,BRAC BANK CHAPAPUR AGENT BANKING OUTLET,,Bogura,RAJSHAHI,,BD,+880 1713-748847,https://location.westernunion.com/bd/rajshahi/bogura/fea0c6a239d1fd04d9c5f799c7323e88,Mo-Su 08:00-21:00,Western Union,Q861042
8da60dc64d8d9b8aa48537b08e37b0dc,western_union,ASA,,Rajshahi,RAJSHAHI,,BD,+880 1730-099160,https://location.westernunion.com/bd/rajshahi/rajshahi/8da60dc64d8d9b8aa48537b08e37b0dc,Mo-Th 08:00-19:00; Sa-Su 08:00-19:00,Western Union,Q861042
dc90bfbb4dd1af26e0ebf4b42e4d3ed7,western_union,ASA,,Bogra,RAJSHAHI,,BD,+880 1730-065148,https://location.westernunion.com/bd/rajshahi/bogra/dc90bfbb4dd1af26e0ebf4b42e4d3ed7,Mo-Th 08:00-19:00; Sa-Su 08:00-19:00,Western Union,Q861042
cafb6bf81b8f17517d21c2ebac66f4d4,western_union,DURGAHATA AGENT BANKING OUTLET,,Bogura,RAJSHAHI,,BD,+880 1715-304998,https://location.westernunion.com/bd/rajshahi/bogura/cafb6bf81b8f17517d21c2ebac66f4d4,Mo-Su 08:00-21:00,Western Union,Q861042
2e4cd13f672148f438289fb9fff6cb45,western_union,M S SHAHIN HEARDWARE,,Naogaon,RAJSHAHI,,BD,+880 1718-118058,https://location.westernunion.com/bd/rajshahi/naogaon/2e4cd13f672148f438289fb9fff6cb45,Mo-Su 08:00-21:00,Western Union,Q861042
269358098c5514327741dc4dfe2949f0,western_union,ASA,,Bogra,RAJSHAHI,,BD,+880 1730-065142,https://location.westernunion.com/bd/rajshahi/bogra/269358098c5514327741dc4dfe2949f0,Mo-Th 08:00-19:00; Sa-Su 08:00-19:00,Western Union,Q861042
55a50da6fa734a2dcc82ef5f01bb66d6,western_union,PUBALI BANK LIMITED,,Rajshahi,RAJSHAHI,,BD,(+880) 192699637,https://location.westernunion.com/bd/rajshahi/rajshahi/55a50da6fa734a2dcc82ef5f01bb66d6,Mo-Th 10:00-16:00; Fr 09:30-15:00; Sa 09:30-17:00; Su 10:00-16:00,Western Union,Q861042
f50b08f37f80e11480971abea5e8ce7e,western_union,EXIM BANK LTD,,Bogura,RAJSHAHI,,BD,+880 1724-626068,https://location.westernunion.com/bd/rajshahi/bogura/f50b08f37f80e11480971abea5e8ce7e,Mo-Th 10:00-17:00; Su 10:00-17:00,Western Union,Q861042
bf2bcdb9eae2f95c551b43b65237dcd2,western_union,IFIC BANK LIMITED,,Bogura,RAJSHAHI,,BD,+880 1770-945339,https://location.westernunion.com/bd/rajshahi/bogura/bf2bcdb9eae2f95c551b43b65237dcd2,Mo-Th 10:00-17:00; Su 10:00-17:00,Western Union,Q861042
7e5641f50292ea1a01a07aed604736ef,western_union,ASA,,Bogra,RAJSHAHI,,BD,+880 1730-065149,https://location.westernunion.com/bd/rajshahi/bogra/7e5641f50292ea1a01a07aed604736ef,Mo-Th 08:00-19:00; Sa-Su 08:00-19:00,Western Union,Q861042
4d1ee6b092b9ec10884de3d6bb1edeea,western_union,ASA,,Bogra,RAJSHAHI,,BD,+880 1730-065132,https://location.westernunion.com/bd/rajshahi/bogra/4d1ee6b092b9ec10884de3d6bb1edeea,Mo-Th 08:00-19:00; Sa-Su 08:00-19:00,Western Union,Q861042
f0ddb42b45b4af439bd3f8890b6128f2,western_union,ISLAMI BANK BANGLADESHN LIMITED,,Rajshahi,RAJSHAHI,,BD,+880 1713-481354,https://location.westernunion.com/bd/rajshahi/rajshahi/f0ddb42b45b4af439bd3f8890b6128f2,Mo-Th 10:00-18:00; Sa-Su 10:00-18:00,Western Union,Q861042
338f40698da934722aaf64484a2c502f,western_union,M/S LAMIA BOSTRO BITAN,,Bogura,RAJSHAHI,,BD,+880 1735-993156,https://location.westernunion.com/bd/rajshahi/bogura/338f40698da934722aaf64484a2c502f,Mo-Su 08:00-21:00,Western Union,Q861042
cf50e5282c6b9253be08046ef5cb86b6,western_union,ASA,,Naogaon,RAJSHAHI,,BD,+880 1730-065573,https://location.westernunion.com/bd/rajshahi/naogaon/cf50e5282c6b9253be08046ef5cb86b6,Mo-Th 08:00-19:00; Sa-Su 08:00-19:00,Western Union,Q861042
3f8d4d8d6d48367263b62deb840da912,western_union,ASA,,Bogra,RAJSHAHI,,BD,+880 1730-065098,https://location.westernunion.com/bd/rajshahi/bogra/3f8d4d8d6d48367263b62deb840da912,Mo-Th 08:00-19:00; Sa-Su 08:00-19:00,Western Union,Q861042
56a8d9dce9da0830b18ef5153fa0607c,western_union,IFIC BANK LIMITED,,Rajshahi,RAJSHAHI,,BD,+880 1706-649412,https://location.westernunion.com/bd/rajshahi/rajshahi/56a8d9dce9da0830b18ef5153fa0607c,Mo-Th 10:00-17:00; Su 10:00-17:00,Western Union,Q861042
dedff20dbaa50598ad375e7886f00b3b,western_union,ASA,,Sirajgonj,RAJSHAHI,,BD,+880 1730-092958,https://location.westernunion.com/bd/rajshahi/sirajgonj/dedff20dbaa50598ad375e7886f00b3b,Mo-Th 08:00-19:00; Sa-Su 08:00-19:00,Western Union,Q861042
a8ec7ec173cfcdb10a4490cd24392abb,western_union,ISLAMI BANK BANGLADESHN LIMITED,,Bogra,RAJSHAHI,,BD,+880 1730-703855,https://location.westernunion.com/bd/rajshahi/bogra/a8ec7ec173cfcdb10a4490cd24392abb,Mo-Th 10:00-18:00; Sa-Su 10:00-18:00,Western Union,Q861042
a909a5b0a5026952f2e573f48bc2d7ac,western_union,IFIC BANK LIMITED,,Bogura,RAJSHAHI,,BD,+880 1873-664988,https://location.westernunion.com/bd/rajshahi/bogura/a909a5b0a5026952f2e573f48bc2d7ac,Mo-Th 10:00-17:00; Su 10:00-17:00,Western Union,Q861042
64bfae5b14d57439fc3ded10b16c385f,western_union,STANDARD BANK LIMITED,,Naogaon,RAJSHAHI,,BD,+880 1768-294777,https://location.westernunion.com/bd/rajshahi/naogaon/64bfae5b14d57439fc3ded10b16c385f,Mo-Th 10:00-18:00; Fr 09:30-15:00; Sa 09:30-17:00; Su 10:00-18:00,Western Union,Q861042
da8ecca65a75cb6a3d2ac747865f412b,western_union,M S MONDAL MEDICAL STORE,,Naogaon,RAJSHAHI,,BD,+880 1733-242933,https://location.westernunion.com/bd/rajshahi/naogaon/da8ecca65a75cb6a3d2ac747865f412b,Mo-Th 09:30-17:30; Fr-Sa 09:30-14:30; Su 09:30-17:30,Western Union,Q861042
41e58b9b3953629328cd9da0b6db373d,western_union,M S MISU VARITY STORE,,Naogaon,RAJSHAHI,,BD,+880 1718-811717,https://location.westernunion.com/bd/rajshahi/naogaon/41e58b9b3953629328cd9da0b6db373d,Mo-Th 09:30-17:30; Fr-Sa 09:30-14:30; Su 09:30-17:30,Western Union,Q861042
9c6535d991695d096047bd76f69dc914,western_union,ISLAMI BANK BANGLADESHN LIMITED,,Bogura,RAJSHAHI,,BD,+880 1711-889935,https://location.westernunion.com/bd/rajshahi/bogura/9c6535d991695d096047bd76f69dc914,Mo-Th 10:00-18:00; Sa-Su 10:00-18:00,Western Union,Q861042
40108f2f6af67b0f1eced62879720fe4,western_union,IFIC BANK LIMITED,,Rajshahi,RAJSHAHI,,BD,+880 1766-667607,https://location.westernunion.com/bd/rajshahi/rajshahi/40108f2f6af67b0f1eced62879720fe4,Mo-Th 10:00-17:00; Su 10:00-17:00,Western Union,Q861042
d95352ce5fd40c48f56a96c02f92bcba,western_union,ISLAMI BANK BANGLADESHN LIMITED,,Rajshahi,RAJSHAHI,,BD,+880 1713-349217,https://location.westernunion.com/bd/rajshahi/rajshahi/d95352ce5fd40c48f56a96c02f92bcba,Mo-Th 10:00-18:00; Sa-Su 10:00-18:00,Western Union,Q861042
603f381d3f3171d147e61eda1f3f8750,western_union,AGRANI BANK LIMITED,,Rajshahi,RAJSHAHI,,BD,(+880) 02-1727214222,https://location.westernunion.com/bd/rajshahi/rajshahi/603f381d3f3171d147e61eda1f3f8750,Mo-Th 09:00-17:00; Fr 09:30-15:00; Sa 09:30-17:00; Su 09:00-17:00,Western Union,Q861042
86c441011388853e4970d88d49e08959,western_union,PUBALI BANK LIMITED,,Rajshahi,RAJSHAHI,,BD,(+880) 170122553,https://location.westernunion.com/bd/rajshahi/rajshahi/86c441011388853e4970d88d49e08959,Mo-Th 10:00-16:00; Su 10:00-16:00,Western Union,Q861042
ba7e891b97d82d3157f8f4a5555e9d28,western_union,JAMUNA BANK LIMITED,,Bogra,RAJSHAHI,,BD,(+880) 02-1799997201,https://location.westernunion.com/bd/rajshahi/bogra/ba7e891b97d82d3157f8f4a5555e9d28,Mo-Th 09:00-17:00; Sa-Su 09:00-17:00,Western Union,Q861042
abaee457ed58659bd8de13c95e1ebcf8,western_union,IFIC BANK LIMITED,,Bogura,RAJSHAHI,,BD,+880 1761-173483,https://location.westernunion.com/bd/rajshahi/bogura/abaee457ed58659bd8de13c95e1ebcf8,Mo-Th 10:00-17:00; Su 10:00-17:00,Western Union,Q861042
e52b106ee1968f11522494f3b1ea7fb5,western_union,IFIC BANK LIMITED,,Rajshahi,RAJSHAHI,,BD,+880 1739-566753,https://location.westernunion.com/bd/rajshahi/rajshahi/e52b106ee1968f11522494f3b1ea7fb5,Mo-Th 10:00-17:00; Su 10:00-17:00,Western Union,Q861042
af6717e24029d9d48b5d38250c328887,western_union,IFIC BANK LIMITED,,Rajshahi,RAJSHAHI,,BD,+880 1521-482793,https://location.westernunion.com/bd/rajshahi/rajshahi/af6717e24029d9d48b5d38250c328887,Mo-Th 10:00-17:00; Su 10:00-17:00,Western Union,Q861042
c5eee1c983d97229c6f8288bbd7aa52e,western_union,IFIC BANK LIMITED,,Rajshahi,RAJSHAHI,,BD,+880 1644-092721,https://location.westernunion.com/bd/rajshahi/rajshahi/c5eee1c983d97229c6f8288bbd7aa52e,Mo-Su 10:00-17:00,Western Union,Q861042
27c389b7222af16e20234497edfbab6a,western_union,ISLAMI BANK BANGLADESH LIMITED,,Bogura,RAJSHAHI,,BD,+880 1324-412911,https://location.westernunion.com/bd/rajshahi/bogura/27c389b7222af16e20234497edfbab6a,Mo-Th 10:00-18:00; Sa-Su 10:00-18:00,Western Union,Q861042
53f35a1ee4680ec503b1347dae373714,western_union,ISLAMI BANK BANGLADESHN LIMITED,,Rajshahi,RAJSHAHI,,BD,+880 1711-889926,https://location.westernunion.com/bd/rajshahi/rajshahi/53f35a1ee4680ec503b1347dae373714,Mo-Th 10:00-18:00; Sa-Su 10:00-18:00,Western Union,Q861042
29039bf177a29b054eb6f38f0855801c,western_union,ISLAMI BANK BANGLADESHN LIMITED,,Rajshahi,RAJSHAHI,,BD,+880 1730-097287,https://location.westernunion.com/bd/rajshahi/rajshahi/29039bf177a29b054eb6f38f0855801c,Mo-Th 10:00-18:00; Sa-Su 10:00-18:00,Western Union,Q861042
e699f117713a042f5a456397454984f6,western_union,ISLAMI BANK BANGLADESHN LIMITED,,Rajshahi,RAJSHAHI,,BD,+880 1713-378938,https://location.westernunion.com/bd/rajshahi/rajshahi/e699f117713a042f5a456397454984f6,Mo-Th 10:00-18:00; Sa-Su 10:00-18:00,Western Union,Q861042
6b96c5de8e65d5b55f4a4a99720478db,western_union,BRAC BANK LTD,,Rajshahi,RAJSHAHI,,BD,+880 1709-658110,https://location.westernunion.com/bd/rajshahi/rajshahi/6b96c5de8e65d5b55f4a4a99720478db,Mo-Th 10:00-17:00; Su 10:00-17:00,Western Union,Q861042
f17cd1ad428f334b4a92525fbcb8c9af,western_union,M S JIBON ENTERPRISE,,Bogura,RAJSHAHI,,BD,+880 1716-611718,https://location.westernunion.com/bd/rajshahi/bogura/f17cd1ad428f334b4a92525fbcb8c9af,Mo-Th 09:30-17:30; Fr-Sa 09:30-14:30; Su 09:30-17:30,Western Union,Q861042
a182ee2eff735ef1f76f3e1d9cb5ce09,western_union,NRB COMMERCIAL BANK LIMITED,,Rajshahi,RAJSHAHI,,BD,(+880) 02-1971436666,https://location.westernunion.com/bd/rajshahi/rajshahi/a182ee2eff735ef1f76f3e1d9cb5ce09,Mo-Th 10:00-17:00; Fr 09:30-15:00; Sa 09:30-17:00; Su 10:00-17:00,Western Union,Q861042
cd407275a8e8359b43eb99ba469bab52,western_union,AB BANK LIMITED,,Rajshahi,RAJSHAHI,,BD,+880 721-773261,https://location.westernunion.com/bd/rajshahi/rajshahi/cd407275a8e8359b43eb99ba469bab52,Mo-Th 09:30-17:00; Su 09:30-17:00,Western Union,Q861042
69507cf8f4a8d468ef17aab0871ea9f9,western_union,ASA,,Bogra,RAJSHAHI,,BD,+880 1730-065105,https://location.westernunion.com/bd/rajshahi/bogra/69507cf8f4a8d468ef17aab0871ea9f9,Mo-Th 08:00-19:00; Sa-Su 08:00-19:00,Western Union,Q861042
e8da22cfd271b27f1d63133f450f271a,western_union,MIDLAND BANK LIMITED,,Rajshahi,RAJSHAHI,,BD,+880 9666-410929,https://location.westernunion.com/bd/rajshahi/rajshahi/e8da22cfd271b27f1d63133f450f271a,Mo-Th 10:00-17:00; Sa-Su 10:00-17:00,Western Union,Q861042
a17e4f341ba20c8ce04e82561900982a,western_union,SBAC BANK LIMITED,,Rajshahi,RAJSHAHI,,BD,+880 1916-747174,https://location.westernunion.com/bd/rajshahi/rajshahi/a17e4f341ba20c8ce04e82561900982a,Mo-Th 10:00-16:30; Fr 09:30-15:00; Sa 09:30-17:00; Su 10:00-16:30,Western Union,Q861042
fdc66c98783f1fc4aa948d8562572a61,western_union,GLOBAL ISLAMI BANK LTD,,Rajshahi,RAJSHAHI,,BD,+880 1955-500780,https://location.westernunion.com/bd/rajshahi/rajshahi/fdc66c98783f1fc4aa948d8562572a61,Mo-Th 10:00-17:00; Sa-Su 10:00-17:00,Western Union,Q861042
a4e0d182e3c39be83ef26a64539c6bcc,western_union,EASTERN BANK LIMITED,,Rajshahi,RAJSHAHI,,BD,+880 721-772372,https://location.westernunion.com/bd/rajshahi/rajshahi/a4e0d182e3c39be83ef26a64539c6bcc,Mo-Th 09:00-17:00; Fr 09:30-15:00; Sa 09:30-17:00; Su 09:00-17:00,Western Union,Q861042
e3f82b61dc33270a2499f86e11753e9a,western_union,UNITED COMMERCIAL BANK LIMITED,,Serajgonj,RAJSHAHI,,BD,+880 1787-670979,https://location.westernunion.com/bd/rajshahi/serajgonj/e3f82b61dc33270a2499f86e11753e9a,Mo-Th 09:30-17:00; Fr 09:30-15:00; Sa-Su 09:30-17:00,Western Union,Q861042
e72279caf73e82ce542185f244e983f3,western_union,IFIC BANK LIMITED,,Rajshahi,RAJSHAHI,,BD,+880 721-774586,https://location.westernunion.com/bd/rajshahi/rajshahi/e72279caf73e82ce542185f244e983f3,Mo-Th 10:00-17:00; Su 10:00-17:00,Western Union,Q861042
4eb73b5d6dc172079e5b00abd63ed16b,western_union,ASA,,Bogra,RAJSHAHI,,BD,+880 1730-065099,https://location.westernunion.com/bd/rajshahi/bogra/4eb73b5d6dc172079e5b00abd63ed16b,Mo-Th 08:00-19:00; Sa-Su 08:00-19:00,Western Union,Q861042
21cd523a02108c85fbd3332a0eacaab8,western_union,IFIC BANK LIMITED,,Rajshahi,RAJSHAHI,,BD,+880 1713-201692,https://location.westernunion.com/bd/rajshahi/rajshahi/21cd523a02108c85fbd3332a0eacaab8,Mo-Th 10:00-17:00; Su 10:00-17:00,Western Union,Q861042
613bea212e1d21e613d6c64b3496be9a,western_union,ISLAMI BANK BANGLADESHN LIMITED,,Rajshahi,RAJSHAHI,,BD,+880 1730-700064,https://location.westernunion.com/bd/rajshahi/rajshahi/613bea212e1d21e613d6c64b3496be9a,Mo-Th 10:00-18:00; Sa-Su 10:00-18:00,Western Union,Q861042
1365831b0da593a22694cf03984dd520,western_union,PUBALI BANK LIMITED,,Naogaon,RAJSHAHI,,BD,+880 1917-704719,https://location.westernunion.com/bd/rajshahi/naogaon/1365831b0da593a22694cf03984dd520,Mo-Th 10:00-16:00; Fr 09:30-15:00; Sa 09:30-17:00; Su 10:00-16:00,Western Union,Q861042
eb360e9579bbe68173bcf0da6da882e2,western_union,ISLAMI BANK BANGLADESHN LIMITED,,Natore,RAJSHAHI,,BD,+880 1998-707089,https://location.westernunion.com/bd/rajshahi/natore/eb360e9579bbe68173bcf0da6da882e2,Mo-Th 10:00-18:00; Sa-Su 10:00-18:00,Western Union,Q861042
1f9251e71073581ce57075bd4ce5e4af,western_union,ISLAMI BANK BANGLADESHN LIMITED,,Natore,RAJSHAHI,,BD,+880 1711-889932,https://location.westernunion.com/bd/rajshahi/natore/1f9251e71073581ce57075bd4ce5e4af,Mo-Th 10:00-18:00; Sa-Su 10:00-18:00,Western Union,Q861042
fa581849de02508cf2d41f000033cc50,western_union,IFIC BANK LIMITED,,Sirajganj,RAJSHAHI,,BD,+880 1521-467687,https://location.westernunion.com/bd/rajshahi/sirajganj/fa581849de02508cf2d41f000033cc50,Mo-Th 10:00-17:00; Su 10:00-17:00,Western Union,Q861042
d67aa10a7be5ca6f3c72dcaf4d7d1258,western_union,ASA,,Rajshahi,RAJSHAHI,,BD,+880 1730-099122,https://location.westernunion.com/bd/rajshahi/rajshahi/d67aa10a7be5ca6f3c72dcaf4d7d1258,Mo-Th 08:00-19:00; Sa-Su 08:00-19:00,Western Union,Q861042
35b86a6be8d7d028988b3b21c274e8ff,western_union,ASA,,Natore,RAJSHAHI,,BD,+880 1730-065805,https://location.westernunion.com/bd/rajshahi/natore/35b86a6be8d7d028988b3b21c274e8ff,Mo-Th 08:00-19:00; Sa-Su 08:00-19:00,Western Union,Q861042
2d79dc69acfbe9d0e4d9f588f4c22520,western_union,GLOBAL ISLAMI BANK LTD,,Natore,RAJSHAHI,,BD,+880 1759-047767,https://location.westernunion.com/bd/rajshahi/natore/2d79dc69acfbe9d0e4d9f588f4c22520,Mo-Th 10:00-17:00; Su 10:00-17:00,Western Union,Q861042
f0e8280add42fa91f41b46c0b358ff8a,western_union,MERCANTILE BANK LIMITED,,Natore,RAJSHAHI,,BD,+880 1708-454398,https://location.westernunion.com/bd/rajshahi/natore/f0e8280add42fa91f41b46c0b358ff8a,Mo-Th 10:00-17:00; Fr 09:30-15:00; Sa 09:30-17:00; Su 10:00-17:00,Western Union,Q861042
7524774cc07e23585b4e6aacc8e6a492,western_union,BRAC BANK LTD,,Sirajganj,RAJSHAHI,,BD,+880 1303-409762,https://location.westernunion.com/bd/rajshahi/sirajganj/7524774cc07e23585b4e6aacc8e6a492,Mo-Su 09:00-18:00,Western Union,Q861042
c5880d8b7745600b615014960fafc3a7,western_union,SBAC BANK LIMITED,,Natore,RAJSHAHI,,BD,+880 1787-693830,https://location.westernunion.com/bd/rajshahi/natore/c5880d8b7745600b615014960fafc3a7,Mo-Th 10:00-17:00; Fr 09:30-15:00; Sa 09:30-17:00; Su 10:00-17:00,Western Union,Q861042
cfd65d15988b579707ba35a069e720a3,western_union,ASA,,Natore,RAJSHAHI,,BD,+880 1730-065798,https://location.westernunion.com/bd/rajshahi/natore/cfd65d15988b579707ba35a069e720a3,Mo-Th 08:00-19:00; Sa-Su 08:00-19:00,Western Union,Q861042
5ddc6ba997b1a8b22c235114b3a80816,western_union,ASA,,Natore,RAJSHAHI,,BD,+880 1730-065795,https://location.westernunion.com/bd/rajshahi/natore/5ddc6ba997b1a8b22c235114b3a80816,Mo-Th 08:00-19:00; Sa-Su 08:00-19:00,Western Union,Q861042
e9d9212d93481e722100c5e9ed94c04a,western_union,DUTCH BANGLA BANK LTD,,Natore,RAJSHAHI,,BD,+880 1847-278102,https://location.westernunion.com/bd/rajshahi/natore/e9d9212d93481e722100c5e9ed94c04a,Mo-Th 09:30-17:00; Su 09:30-17:00,Western Union,Q861042
d53915f628c584a476f8430f3e7ae50a,western_union,BRAC BANK LIMITED,,Natore,RAJSHAHI,,BD,+880 1713-368743,https://location.westernunion.com/bd/rajshahi/natore/d53915f628c584a476f8430f3e7ae50a,Mo-Th 10:00-18:00; Su 10:00-18:00,Western Union,Q861042
825d9e4b3bf7b54f406a38eb164aa0e4,western_union,NATORE SADAR UPOSHAKHA,,Natore,RAJSHAHI,,BD,+880 1515-646484,https://location.westernunion.com/bd/rajshahi/natore/825d9e4b3bf7b54f406a38eb164aa0e4,Mo-Th 10:00-17:00; Su 10:00-17:00,Western Union,Q861042
0dc2b0935313a86599006331b416d404,western_union,SOUTHEAST BANK LIMITED,,Natore,RAJSHAHI,,BD,+880 1712-803701,https://location.westernunion.com/bd/rajshahi/natore/0dc2b0935313a86599006331b416d404,Mo-Th 09:00-17:00; Sa-Su 09:00-17:00,Western Union,Q861042
729453db86b1073ce42b147ed5ca2065,western_union,IFIC BANK LIMITED,,Natore,RAJSHAHI,,BD,+880 1798-337725,https://location.westernunion.com/bd/rajshahi/natore/729453db86b1073ce42b147ed5ca2065,Mo-Th 10:00-17:00; Su 10:00-17:00,Western Union,Q861042
bcc850a13499cf9f827976b9d9225b12,western_union,IFIC BANK LIMITED,,Sirajganj,Rajshahi,,BD,+880 1303-573984,https://location.westernunion.com/bd/rajshahi/sirajganj/bcc850a13499cf9f827976b9d9225b12,Mo-Th 10:00-17:00; Su 10:00-17:00,Western Union,Q861042
ebf300da9c22c36161514258e91aa9b6,western_union,IFIC BANK LIMITED,,Sirajganj,Rajshahi,,BD,+880 1771-377892,https://location.westernunion.com/bd/rajshahi/sirajganj/ebf300da9c22c36161514258e91aa9b6,Mo-Th 10:00-17:00; Su 10:00-17:00,Western Union,Q861042
ab4822766ccb7c42d45475b2efd1d98f,western_union,BRAC BANK LTD,,Sirajganj,RAJSHAHI,,BD,+880 1714-446753,https://location.westernunion.com/bd/rajshahi/sirajganj/ab4822766ccb7c42d45475b2efd1d98f,Mo-Su 08:00-21:00,Western Union,Q861042
a2abcdb6737148fca194ec1443bd93a5,western_union,IFIC BANK LIMITED,,Sirajganj,RAJSHAHI,,BD,+880 1710-798420,https://location.westernunion.com/bd/rajshahi/sirajganj/a2abcdb6737148fca194ec1443bd93a5,Mo-Th 10:00-17:00; Su 10:00-17:00,Western Union,Q861042
9d02e900b3c44c0f54a60e6abff82aea,western_union,AB BANK LIMITED,,Sirajganj,RAJSHAHI,,BD,+880 751-64749,https://location.westernunion.com/bd/rajshahi/sirajganj/9d02e900b3c44c0f54a60e6abff82aea,Mo-Th 09:30-17:00; Su 09:30-17:00,Western Union,Q861042
b1687a980e7c10fc0c85e0b3c80f713d,western_union,ASA,,Natore,RAJSHAHI,,BD,+880 1730-065824,https://location.westernunion.com/bd/rajshahi/natore/b1687a980e7c10fc0c85e0b3c80f713d,Mo-Th 08:00-19:00; Sa-Su 08:00-19:00,Western Union,Q861042
5d2ab0ecbbd263e4d55bb8d5e9d7dfc2,western_union,MERCANTILE BANK LIMITED,,Sirajgonj,RAJSHAHI,,BD,+880 1719-400488,https://location.westernunion.com/bd/rajshahi/sirajgonj/5d2ab0ecbbd263e4d55bb8d5e9d7dfc2,Mo-Th 10:00-18:00; Sa 10:00-14:00; Su 10:00-18:00,Western Union,Q861042
aecde94099140d4d7da85bafee11b7b9,western_union,IFIC BANK LIMITED,,Natore,RAJSHAHI,,BD,+880 1518-951080,https://location.westernunion.com/bd/rajshahi/natore/aecde94099140d4d7da85bafee11b7b9,Mo-Th 10:00-17:00; Su 10:00-17:00,Western Union,Q861042
5436d26ee263813b1a3bc54314c3774c,western_union,ASA,,Sirajgonj,RAJSHAHI,,BD,+880 1730-092962,https://location.westernunion.com/bd/rajshahi/sirajgonj/5436d26ee263813b1a3bc54314c3774c,Mo-Th 08:00-19:00; Sa-Su 08:00-19:00,Western Union,Q861042
f09c174353558084dfe5db8d67bef8a2,western_union,MEGHNA BANK LIMITED,,Sirajgonj,RAJSHAHI,,BD,+880 2-9857251,https://location.westernunion.com/bd/rajshahi/sirajgonj/f09c174353558084dfe5db8d67bef8a2,Mo-Th 09:00-17:00; Sa-Su 09:00-17:00,Western Union,Q861042
89dd30b8fee63f266d8fbcce8970dde7,western_union,GLOBAL ISLAMI BANK LTD,,Sirajganj,Rajshahi,,BD,+880 1716-274252,https://location.westernunion.com/bd/rajshahi/sirajganj/89dd30b8fee63f266d8fbcce8970dde7,Mo-Th 10:00-17:00; Su 10:00-17:00,Western Union,Q861042
748a599ba22da19a53e5d185f6eabd29,western_union,IFIC BANK LIMITED,,Natore,RAJSHAHI,,BD,+880 1751-389861,https://location.westernunion.com/bd/rajshahi/natore/748a599ba22da19a53e5d185f6eabd29,Mo-Th 10:00-17:00; Su 10:00-17:00,Western Union,Q861042
5c4266156aed515f6a374908e44087e4,western_union,BANGLADESH COMMERCE BANK LIMIT,,Natore,RAJSHAHI,,BD,+880 1712-685211,https://location.westernunion.com/bd/rajshahi/natore/5c4266156aed515f6a374908e44087e4,Mo-Th 10:00-18:00; Sa 10:00-14:00; Su 10:00-18:00,Western Union,Q861042
92d72c5a91faf21700bfcdba75f09d3d,western_union,ISLAMI BANK BANGLADESHN LIMITED,,Natore,RAJSHAHI,,BD,+880 1713-425935,https://location.westernunion.com/bd/rajshahi/natore/92d72c5a91faf21700bfcdba75f09d3d,Mo-Th 10:00-18:00; Sa-Su 10:00-18:00,Western Union,Q861042
677fa927a290de28ef7992bb8480e7c4,western_union,DUTCH BANGLA BANK LIMITED,,Sirazgonj,RAJSHAHI,,BD,(+880) 193880170,https://location.westernunion.com/bd/rajshahi/sirazgonj/677fa927a290de28ef7992bb8480e7c4,Mo-Th 09:00-16:00; Fr 09:30-15:00; Sa 09:30-17:00; Su 09:00-16:00,Western Union,Q861042
e5ad8228ade2448325ee713bb41aa263,western_union,IFIC BANK LIMITED,,Natore,RAJSHAHI,,BD,+880 1521-475398,https://location.westernunion.com/bd/rajshahi/natore/e5ad8228ade2448325ee713bb41aa263,Mo-Th 10:00-17:00; Su 10:00-17:00,Western Union,Q861042
63cc3d4ac2be80584558b8ee368d68a1,western_union,IFIC BANK LIMITED,,Natore,RAJSHAHI,,BD,+880 1717-609640,https://location.westernunion.com/bd/rajshahi/natore/63cc3d4ac2be80584558b8ee368d68a1,Mo-Th 10:00-17:00; Su 10:00-17:00,Western Union,Q861042
3d3433bbb5cd9f4978ae9a023b16d2a9,western_union,ISLAMI BANK BANGLADESH LIMITED,,Sirajganj,RAJSHAHI,,BD,+880 1313-484314,https://location.westernunion.com/bd/rajshahi/sirajganj/3d3433bbb5cd9f4978ae9a023b16d2a9,Mo-Th 09:30-18:00; Sa 09:30-14:00; Su 09:30-18:00,Western Union,Q861042
39ec5f7d132d487348ebf3fc6d53b2b3,western_union,IFIC BANK LIMITED,,Rajshahi,RAJSHAHI,,BD,+880 1773-310993,https://location.westernunion.com/bd/rajshahi/rajshahi/39ec5f7d132d487348ebf3fc6d53b2b3,Mo-Th 10:00-17:00; Su 10:00-17:00,Western Union,Q861042
cfa742f345e2b503a5afa44ca01c619b,western_union,ISLAMI BANK BANGLADESH LIMITED,,Natore,RAJSHAHI,,BD,+880 1324-412913,https://location.westernunion.com/bd/rajshahi/natore/cfa742f345e2b503a5afa44ca01c619b,Mo-Th 10:00-18:00; Sa-Su 10:00-18:00,Western Union,Q861042
656b17ef5b861d0e6c4171ad94ecf655,western_union,RAHAT TRADERS,,Sirajganj,RAJSHAHI,,BD,+880 1965-133913,https://location.westernunion.com/bd/rajshahi/sirajganj/656b17ef5b861d0e6c4171ad94ecf655,Mo-Th 09:30-17:30; Fr-Sa 09:30-14:30; Su 09:30-17:30,Western Union,Q861042
08d6353d595494a9e5b6dfe912580f63,western_union,GLOBAL ISLAMI BANK LTD,,Natore,RAJSHAHI,,BD,+880 1725-514555,https://location.westernunion.com/bd/rajshahi/natore/08d6353d595494a9e5b6dfe912580f63,Mo-Th 10:00-17:00; Su 10:00-17:00,Western Union,Q861042
a9417822a7616505b462002e71c889bc,western_union,M/S BISMILLAH ELECTRIC,,Natore,RAJSHAHI,,BD,+880 1711-240383,https://location.westernunion.com/bd/rajshahi/natore/a9417822a7616505b462002e71c889bc,Mo-Su 08:00-21:00,Western Union,Q861042
e0b837e885923d1078c195553f36eb30,western_union,IFIC BANK LIMITED,,Natore,RAJSHAHI,,BD,+880 1521-475347,https://location.westernunion.com/bd/rajshahi/natore/e0b837e885923d1078c195553f36eb30,Mo-Th 10:00-17:00; Su 10:00-17:00,Western Union,Q861042
86a771a5f75b81625b8aad28e72b88f6,western_union,GLOBAL ISLAMI BANK LTD,,Natore,RAJSHAHI,,BD,+880 1716-498771,https://location.westernunion.com/bd/rajshahi/natore/86a771a5f75b81625b8aad28e72b88f6,Mo-Th 10:00-17:00; Su 10:00-17:00,Western Union,Q861042
7d520be91d7a5ad8d538b2669a28e060,western_union,BASIC BANK LIMITED,,Natore Sadar,RAJSHAHI,,BD,+880 7716-6374,https://location.westernunion.com/bd/rajshahi/natore-sadar/7d520be91d7a5ad8d538b2669a28e060,Mo-Th 09:00-17:00; Fr 09:30-15:00; Sa 09:30-17:00; Su 09:00-17:00,Western Union,Q861042
7040cd500e3191532ea2447cba8014c6,western_union,ASA,,Pabna,RAJSHAHI,,BD,+880 1730-099117,https://location.westernunion.com/bd/rajshahi/pabna/7040cd500e3191532ea2447cba8014c6,Mo-Th 08:00-19:00; Sa-Su 08:00-19:00,Western Union,Q861042
15c31d7a56571b18aabbdace845a9739,western_union,IFIC BANK LIMITED,,Sirajganj,RAJSHAHI,,BD,+880 1733-170593,https://location.westernunion.com/bd/rajshahi/sirajganj/15c31d7a56571b18aabbdace845a9739,Mo-Th 10:00-17:00; Su 10:00-17:00,Western Union,Q861042
f744b31bd55f5019014b5ccbcfbdfa5a,western_union,UNITED COMMERCIAL BANK LIMITED,,Sirajgonj,RAJSHAHI,,BD,+880 1708-126234,https://location.westernunion.com/bd/rajshahi/sirajgonj/f744b31bd55f5019014b5ccbcfbdfa5a,Mo-Su 10:00-17:00,Western Union,Q861042
1db3bd818832586d8345c97c138cd9dd,western_union,ISLAMI BANK BANGLADESHN LIMITED,,Sirajganj,RAJSHAHI,,BD,+880 1711-889931,https://location.westernunion.com/bd/rajshahi/sirajganj/1db3bd818832586d8345c97c138cd9dd,Mo-Th 10:00-18:00; Sa-Su 10:00-18:00,Western Union,Q861042
90060a24d1348c082d06fd93da080af2,western_union,JANANI TELECOM CENTER,,Sirajganj,RAJSHAHI,,BD,+880 1717-764188,https://location.westernunion.com/bd/rajshahi/sirajganj/90060a24d1348c082d06fd93da080af2,Mo-Th 09:30-17:30; Fr-Sa 09:30-14:30; Su 09:30-17:30,Western Union,Q861042
a6f2d05599a53c97b14fe5a46f48b92f,western_union,M S FAWZIYA ENTERPRISE,,Sirajganj,RAJSHAHI,,BD,+880 1713-717138,https://location.westernunion.com/bd/rajshahi/sirajganj/a6f2d05599a53c97b14fe5a46f48b92f,Mo-Th 09:30-17:30; Fr-Sa 09:30-14:30; Su 09:30-17:30,Western Union,Q861042
5f6e3fb328d5128e7fc8a94dbbd603eb,western_union,BISMILLAH VARIETY STORE,,Natore,RAJSHAHI,,BD,+880 1723-584868,https://location.westernunion.com/bd/rajshahi/natore/5f6e3fb328d5128e7fc8a94dbbd603eb,Mo-Su 08:00-21:00,Western Union,Q861042
2a67243b5d50a19fe3889eeece69766d,western_union,IFIC BANK LIMITED,,Natore,RAJSHAHI,,BD,+880 1728-926774,https://location.westernunion.com/bd/rajshahi/natore/2a67243b5d50a19fe3889eeece69766d,Mo-Th 10:00-17:00; Su 10:00-17:00,Western Union,Q861042
8d14be1557e07b58fad41bcb016965ca,western_union,ISLAMI BANK BANGLADESHN LIMITED,,Sirajganj,RAJSHAHI,,BD,+880 1730-341040,https://location.westernunion.com/bd/rajshahi/sirajganj/8d14be1557e07b58fad41bcb016965ca,Mo-Th 10:00-18:00; Sa-Su 10:00-18:00,Western Union,Q861042
574b6080e46a5f429f1b39490045ae64,western_union,ASA,,Sirajgonj,RAJSHAHI,,BD,+880 1730-092956,https://location.westernunion.com/bd/rajshahi/sirajgonj/574b6080e46a5f429f1b39490045ae64,Mo-Th 08:00-19:00; Sa-Su 08:00-19:00,Western Union,Q861042
3af06ebe050fb3db2685af2b6e7c4a2b,western_union,PUBALI BANK LIMITED,,Sirajgonj,RAJSHAHI,,BD,(+880) 171307286,https://location.westernunion.com/bd/rajshahi/sirajgonj/3af06ebe050fb3db2685af2b6e7c4a2b,Mo-Th 10:00-16:00; Su 10:00-16:00,Western Union,Q861042
aacc7677eafd9f08a4800827686ad1d0,western_union,ASA,,Sirajgonj,RAJSHAHI,,BD,+880 1730-092930,https://location.westernunion.com/bd/rajshahi/sirajgonj/aacc7677eafd9f08a4800827686ad1d0,Mo-Th 08:00-19:00; Sa-Su 08:00-19:00,Western Union,Q861042
410f16e3ee7c734db39685de6910d931,western_union,ISLAMI BANK BANGLADESHN LIMITED,,Sirajganj,RAJSHAHI,,BD,+880 1713-141982,https://location.westernunion.com/bd/rajshahi/sirajganj/410f16e3ee7c734db39685de6910d931,Mo-Th 10:00-18:00; Sa-Su 10:00-18:00,Western Union,Q861042
262ee09d4e687711a94b41a638d18298,western_union,IFIC BANK LIMITED,,Sirajgong,RAJSHAHI,,BD,+880 1730-019787,https://location.westernunion.com/bd/rajshahi/sirajgong/262ee09d4e687711a94b41a638d18298,Mo-Th 10:00-17:00; Su 10:00-17:00,Western Union,Q861042
b854b1d8e67b7c6f7163b86a0e5fe2eb,western_union,ISLAMI BANK BANGLADESHN LIMITED,,Pabna,RAJSHAHI,,BD,+880 1998-707056,https://location.westernunion.com/bd/rajshahi/pabna/b854b1d8e67b7c6f7163b86a0e5fe2eb,Mo-Th 10:00-18:00; Sa-Su 10:00-18:00,Western Union,Q861042
4962dd65a3ffaf609db080526876f1f1,western_union,ISHWARDI UPOSHAKHA,,Pabna,RAJSHAHI,,BD,+880 1671-580440,https://location.westernunion.com/bd/rajshahi/pabna/4962dd65a3ffaf609db080526876f1f1,Mo-Th 10:00-17:00; Su 10:00-17:00,Western Union,Q861042
83ebfffab38c252cb7f969b35b96284e,western_union,SOUTHEAST BANK LIMITED,,Pabna,RAJSHAHI,,BD,+880 1787-678778,https://location.westernunion.com/bd/rajshahi/pabna/83ebfffab38c252cb7f969b35b96284e,Mo-Th 09:00-17:00; Sa-Su 09:00-17:00,Western Union,Q861042
104fa2a4be6e0a64279372d3017c124c,western_union,ASA,,Pabna,RAJSHAHI,,BD,+880 1730-065997,https://location.westernunion.com/bd/rajshahi/pabna/104fa2a4be6e0a64279372d3017c124c,Mo-Th 08:00-19:00; Sa-Su 08:00-19:00,Western Union,Q861042
8806ad6dd5a75ad9a4979505a7bbea2a,western_union,IFIC BANK LIMITED,,Pabna,RAJSHAHI,,BD,+880 1717-609640,https://location.westernunion.com/bd/rajshahi/pabna/8806ad6dd5a75ad9a4979505a7bbea2a,Mo-Th 10:00-17:00; Su 10:00-17:00,Western Union,Q861042
09faa122865d2ee738bc825e8283aff1,western_union,BRAC BANK LTD,,Pabna,RAJSHAHI,,BD,+880 1724-339034,https://location.westernunion.com/bd/rajshahi/pabna/09faa122865d2ee738bc825e8283aff1,Mo-Su 08:00-21:00,Western Union,Q861042
1db4a9ad0fc8abb07fda07cba3368da3,western_union,JANATA BANK LIMITED,,Pabna,RAJSHAHI,,BD,+880 1716-578152,https://location.westernunion.com/bd/rajshahi/pabna/1db4a9ad0fc8abb07fda07cba3368da3,Mo-Th 10:00-17:00; Fr 09:30-15:00; Sa 09:30-17:00; Su 10:00-17:00,Western Union,Q861042
6f8b70270fd7a6b3a136e726f475468c,western_union,MERCANTILE BANK LIMITED,,Pabna,RAJSHAHI,,BD,+880 1724-112737,https://location.westernunion.com/bd/rajshahi/pabna/6f8b70270fd7a6b3a136e726f475468c,Mo-Th 10:00-18:00; Sa 10:00-14:00; Su 10:00-18:00,Western Union,Q861042
8dd24c1dbf80b7faba6df9e9b8417f29,western_union,ASA,,Pabna,RAJSHAHI,,BD,+880 1730-099108,https://location.westernunion.com/bd/rajshahi/pabna/8dd24c1dbf80b7faba6df9e9b8417f29,Mo-Th 08:00-19:00; Sa-Su 08:00-19:00,Western Union,Q861042
16cf63bf7fb46c87f3498e8d5ccf1673,western_union,ASA,,Sirajgonj,RAJSHAHI,,BD,+880 1730-092932,https://location.westernunion.com/bd/rajshahi/sirajgonj/16cf63bf7fb46c87f3498e8d5ccf1673,Mo-Th 08:00-19:00; Sa-Su 08:00-19:00,Western Union,Q861042
b906fbfdaae1c70b9f0e5a80c67dec9b,western_union,ASA,,Pabna,RAJSHAHI,,BD,+880 1730-065982,https://location.westernunion.com/bd/rajshahi/pabna/b906fbfdaae1c70b9f0e5a80c67dec9b,Mo-Th 08:00-19:00; Sa-Su 08:00-19:00,Western Union,Q861042
7fe550411bcbb1dd51116127d08d07bc,western_union,SAIDI ELECTRONICS,,Sirajganj,RAJSHAHI,,BD,+880 1709-139643,https://location.westernunion.com/bd/rajshahi/sirajganj/7fe550411bcbb1dd51116127d08d07bc,Mo-Su 08:00-21:00,Western Union,Q861042
1dfe08ca12f94bdf0fb68724e40c6f56,western_union,IFIC BANK LIMITED,,Sirajganj,RAJSHAHI,,BD,+880 1681-260341,https://location.westernunion.com/bd/rajshahi/sirajganj/1dfe08ca12f94bdf0fb68724e40c6f56,Mo-Su 10:00-17:00,Western Union,Q861042
9bac077225d68a584217c83b47ac1a2a,western_union,ISLAMI BANK BANGLADESHN LIMITED,,Sirajganj,RAJSHAHI,,BD,+880 1711-889933,https://location.westernunion.com/bd/rajshahi/sirajganj/9bac077225d68a584217c83b47ac1a2a,Mo-Th 10:00-18:00; Sa-Su 10:00-18:00,Western Union,Q861042
67c1e255f724a49a01d3ea8270b48b2e,western_union,RABBY TRADERS,,Sirajganj,RAJSHAHI,,BD,+880 1711-945476,https://location.westernunion.com/bd/rajshahi/sirajganj/67c1e255f724a49a01d3ea8270b48b2e,Mo-Th 09:30-17:30; Fr-Sa 09:30-14:30; Su 09:30-17:30,Western Union,Q861042
35d17ffd31725e73a46b498420812fb0,western_union,GLOBAL ISLAMI BANK LTD,,Pabna,RAJSHAHI,,BD,+880 1751-523226,https://location.westernunion.com/bd/rajshahi/pabna/35d17ffd31725e73a46b498420812fb0,Mo-Th 10:00-17:00; Su 10:00-17:00,Western Union,Q861042
d246b5ab826c08025b8e27d66d41987c,western_union,ASA,,Pabna,RAJSHAHI,,BD,+880 1730-099118,https://location.westernunion.com/bd/rajshahi/pabna/d246b5ab826c08025b8e27d66d41987c,Mo-Th 08:00-19:00; Sa-Su 08:00-19:00,Western Union,Q861042
f1fbe49310a25e0e03330811ca78df71,western_union,MAHODI GARMENTS,,Pabna,RAJSHAHI,,BD,+880 1774-290060,https://location.westernunion.com/bd/rajshahi/pabna/f1fbe49310a25e0e03330811ca78df71,Mo-Su 08:00-21:00,Western Union,Q861042
bffcfc21ed9331079fdabbca7b08b9cf,western_union,ASA,,Sirajgonj,RAJSHAHI,,BD,+880 1730-092959,https://location.westernunion.com/bd/rajshahi/sirajgonj/bffcfc21ed9331079fdabbca7b08b9cf,Mo-Th 08:00-19:00; Sa-Su 08:00-19:00,Western Union,Q861042
e21a8535225b7dc3b031080c66a3ce67,western_union,IFIC BANK LIMITED,,Pabna,RAJSHAHI,,BD,+880 1764-236200,https://location.westernunion.com/bd/rajshahi/pabna/e21a8535225b7dc3b031080c66a3ce67,Mo-Th 10:00-17:00; Su 10:00-17:00,Western Union,Q861042
3d7ec30badc7c2e7f9f10489489cc573,western_union,IFIC BANK LIMITED,,Bogura,RAJSHAHI,,BD,+880 1521-106856,https://location.westernunion.com/bd/rajshahi/bogura/3d7ec30badc7c2e7f9f10489489cc573,Mo-Th 10:00-17:00; Su 10:00-17:00,Western Union,Q861042
5e9867a77c8e8145589ccc93370070e9,western_union,ISLAMI BANK BANGLADESHN LIMITED,,Pabna,RAJSHAHI,,BD,+880 1711-438348,https://location.westernunion.com/bd/rajshahi/pabna/5e9867a77c8e8145589ccc93370070e9,Mo-Th 10:00-18:00; Sa-Su 10:00-18:00,Western Union,Q861042
36b663109307cb065ae91be38a9dffec,western_union,ISLAMI BANK BANGLADESHN LIMITED,,Pabna,RAJSHAHI,,BD,+880 1730-303582,https://location.westernunion.com/bd/rajshahi/pabna/36b663109307cb065ae91be38a9dffec,Mo-Th 10:00-18:00; Sa-Su 10:00-18:00,Western Union,Q861042
d5c1986e291cc099c2dfff15d3ea0bb7,western_union,ISLAMI BANK BANGLADESHN LIMITED,,Pabna,RAJSHAHI,,BD,+880 1714-035554,https://location.westernunion.com/bd/rajshahi/pabna/d5c1986e291cc099c2dfff15d3ea0bb7,Mo-Th 10:00-18:00; Sa-Su 10:00-18:00,Western Union,Q861042
886cd3cc5877fae2f30f259626524a56,western_union,NRB COMMERCIAL BANK LIMITED,,Pabna,RAJSHAHI,,BD,+880 1716-037822,https://location.westernunion.com/bd/rajshahi/pabna/886cd3cc5877fae2f30f259626524a56,Mo-Th 10:00-16:00; Su 10:00-16:00,Western Union,Q861042
6c9ff93ed460d0906f350afba9fa6bfe,western_union,SOUTHEAST BANK LIMITED,,Pabna,RAJSHAHI,,BD,+880 1934-448902,https://location.westernunion.com/bd/rajshahi/pabna/6c9ff93ed460d0906f350afba9fa6bfe,Mo-Th 09:00-17:00; Sa-Su 09:00-17:00,Western Union,Q861042
dab83e0ccb667fff18815e9300e8326c,western_union,SHAHJALAL ISLAMI BANK LIMITED,,Pabna,RAJSHAHI,,BD,+880 1755-556198,https://location.westernunion.com/bd/rajshahi/pabna/dab83e0ccb667fff18815e9300e8326c,Mo-Th 09:00-17:00; Sa-Su 09:00-17:00,Western Union,Q861042
4d0eca3650a14115ebbc528f4db0ccb2,western_union,MERCANTILE BANK LIMITED,,Pabna,RAJSHAHI,,BD,+880 731-63356,https://location.westernunion.com/bd/rajshahi/pabna/4d0eca3650a14115ebbc528f4db0ccb2,Mo-Th 09:00-17:00; Fr 09:30-15:00; Sa 09:30-17:00; Su 09:00-17:00,Western Union,Q861042
31b777ffdbb5de3f62c0d5ccee834ad9,western_union,IFIC BANK LIMITED,,Pabna,RAJSHAHI,,BD,+880 1950-923242,https://location.westernunion.com/bd/rajshahi/pabna/31b777ffdbb5de3f62c0d5ccee834ad9,Mo-Th 10:00-17:00; Su 10:00-17:00,Western Union,Q861042
8ebf9bfb4cb343d06c3af8227e203b4f,western_union,BRAC BANK LTD,,Pabna,RAJSHAHI,,BD,+880 1711-413393,https://location.westernunion.com/bd/rajshahi/pabna/8ebf9bfb4cb343d06c3af8227e203b4f,Mo-Su 08:00-21:00,Western Union,Q861042
497f6f46e417ef7d716a3d50b4bf8f6d,western_union,IFIC BANK LIMITED,,Pabna,RAJSHAHI,,BD,+880 1787-990813,https://location.westernunion.com/bd/rajshahi/pabna/497f6f46e417ef7d716a3d50b4bf8f6d,Mo-Th 10:00-17:00; Su 10:00-17:00,Western Union,Q861042
485ba6170840aabfb61613f2fa3c5cb5,western_union,IFIC BANK LIMITED,,Pabna,RAJSHAHI,,BD,+880 1718-458435,https://location.westernunion.com/bd/rajshahi/pabna/485ba6170840aabfb61613f2fa3c5cb5,Mo-Th 10:00-17:00; Su 10:00-17:00,Western Union,Q861042
005d29bd866b94528a93a045b6947aaa,western_union,ASA,,Pabna,RAJSHAHI,,BD,+880 1730-065990,https://location.westernunion.com/bd/rajshahi/pabna/005d29bd866b94528a93a045b6947aaa,Mo-Th 08:00-19:00; Sa-Su 08:00-19:00,Western Union,Q861042
593a8c74441429e78b918d7a341f5f50,western_union,ISLAMI BANK BANGLADESHN LIMITED,,Pabna,RAJSHAHI,,BD,+880 1713-015450,https://location.westernunion.com/bd/rajshahi/pabna/593a8c74441429e78b918d7a341f5f50,Mo-Th 10:00-18:00; Sa-Su 10:00-18:00,Western Union,Q861042
c9ec6c4b899fa596067a58d428adffe7,western_union,IFIC BANK LIMITED,,Pabna,RAJSHAHI,,BD,+880 1710-614152,https://location.westernunion.com/bd/rajshahi/pabna/c9ec6c4b899fa596067a58d428adffe7,Mo-Th 10:00-17:00; Su 10:00-17:00,Western Union,Q861042
2733c5645351d31b70ed57dc32b47cb1,western_union,ISLAMI BANK BANGLADESHN LIMITED,,Pabna,RAJSHAHI,,BD,+880 1714-093295,https://location.westernunion.com/bd/rajshahi/pabna/2733c5645351d31b70ed57dc32b47cb1,Mo-Th 10:00-18:00; Sa-Su 10:00-18:00,Western Union,Q861042
88c7d23977f07e540b63834099fc2ca4,western_union,DUTCH BANGLA BANK LIMITED,,Pabna,RAJSHAHI,,BD,(+880) 193880170,https://location.westernunion.com/bd/rajshahi/pabna/88c7d23977f07e540b63834099fc2ca4,Mo-Th 09:00-16:00; Fr 09:30-15:00; Sa 09:30-17:00; Su 09:00-16:00,Western Union,Q861042
4f21c2f6c4457d52d437cdc0e901fd5c,western_union,IFIC BANK LIMITED,,Pabna,RAJSHAHI,,BD,+880 1730-705100,https://location.westernunion.com/bd/rajshahi/pabna/4f21c2f6c4457d52d437cdc0e901fd5c,Mo-Th 10:00-17:00; Su 10:00-17:00,Western Union,Q861042
180d815dae7db826498f98f29dd1a427,western_union,REFAT TELECOM,,Sirajganj,RAJSHAHI,,BD,+880 1715-636508,https://location.westernunion.com/bd/rajshahi/sirajganj/180d815dae7db826498f98f29dd1a427,Mo-Th 09:30-17:30; Fr-Sa 09:30-14:30; Su 09:30-17:30,Western Union,Q861042
628a45fd0058156df7b440a098b87b0f,western_union,SONALI BANK LIMITED,,Natore,RAJSHAHI,,BD,+880 1777-792483,https://location.westernunion.com/bd/rajshahi/natore/628a45fd0058156df7b440a098b87b0f,Mo-Th 10:00-16:00; Fr-Sa 09:00-16:00; Su 10:00-16:00,Western Union,Q861042
1a02a11b4e8e7a278c4905cdf55dc369,western_union,IFIC BANK LIMITED,,Sirajganj,RAJSHAHI,,BD,+880 1833-951398,https://location.westernunion.com/bd/rajshahi/sirajganj/1a02a11b4e8e7a278c4905cdf55dc369,Mo-Th 10:00-17:00; Su 10:00-17:00,Western Union,Q861042
52b13662ec4b6725bb551deb6b8693a9,western_union,ASA,,Rajshahi,RAJSHAHI,,BD,+880 1730-099180,https://location.westernunion.com/bd/rajshahi/rajshahi/52b13662ec4b6725bb551deb6b8693a9,Mo-Th 08:00-19:00; Sa-Su 08:00-19:00,Western Union,Q861042
c331c8217b70d1c785315c84f690ad37,western_union,DUTCH BANGLA BANK LTD,,Rajshahi,RAJSHAHI,,BD,+880 1713-344826,https://location.westernunion.com/bd/rajshahi/rajshahi/c331c8217b70d1c785315c84f690ad37,Mo-Th 09:30-17:30; Fr-Sa 09:30-14:30; Su 09:30-17:30,Western Union,Q861042
22aec4e4c3d42223738490c7ba8e964c,western_union,IFIC BANK LIMITED,,Khulna,RAJSHAHI,,BD,+880 41-720396,https://location.westernunion.com/bd/rajshahi/khulna/22aec4e4c3d42223738490c7ba8e964c,Mo-Th 10:00-17:00; Su 10:00-17:00,Western Union,Q861042
633105a672c8828a3b3e6c26c606f441,western_union,UNITED COMMERCIAL BANK LIMITED,,Joypurhat,RAJSHAHI,,BD,(+880) 02-1718281858,https://location.westernunion.com/bd/rajshahi/joypurhat/633105a672c8828a3b3e6c26c606f441,Mo-Th 09:30-17:00; Fr 09:30-15:00; Sa-Su 09:30-17:00,Western Union,Q861042
c2ed0e45e2330c3b3d059dbf274e065c,western_union,ISLAMI BANK BANGLADESHN LIMITED,,Joypurhat,RAJSHAHI,,BD,+880 1713-299213,https://location.westernunion.com/bd/rajshahi/joypurhat/c2ed0e45e2330c3b3d059dbf274e065c,Mo-Th 10:00-18:00; Sa-Su 10:00-18:00,Western Union,Q861042
419f581fc4a2c017562957696c7920f9,western_union,IFIC BANK LIMITED,,Joypurhat,RAJSHAHI,,BD,+880 1994-194309,https://location.westernunion.com/bd/rajshahi/joypurhat/419f581fc4a2c017562957696c7920f9,Mo-Su 10:00-17:00,Western Union,Q861042
44aa42bbdf55e2e5e76780e4a984b34c,western_union,SHAHJALAL ISLAMI BANK LIMITED,,Joypurhat,RAJSHAHI,,BD,+880 1755-556407,https://location.westernunion.com/bd/rajshahi/joypurhat/44aa42bbdf55e2e5e76780e4a984b34c,Mo-Th 09:00-17:00; Sa-Su 09:00-17:00,Western Union,Q861042
addd1f815bd9b37b0fb27522e79e40dd,western_union,IFIC BANK LIMITED,,Joypurhat,RAJSHAHI,,BD,+880 1730-709796,https://location.westernunion.com/bd/rajshahi/joypurhat/addd1f815bd9b37b0fb27522e79e40dd,Mo-Th 10:00-17:00; Su 10:00-17:00,Western Union,Q861042
279a4e9f85191d565c18d54bbfc6efbe,western_union,M S RABEYA AND MEHEJABIN ENTERPRISE,,Joypurhat,RAJSHAHI,,BD,+880 1741-527960,https://location.westernunion.com/bd/rajshahi/joypurhat/279a4e9f85191d565c18d54bbfc6efbe,Mo-Th 09:30-17:30; Fr-Sa 09:30-14:30; Su 09:30-17:30,Western Union,Q861042
63983bfa2feef128fb50825ced5ada45,western_union,BRAC BANK LTD,,Bogura,RAJSHAHI,,BD,+880 1719-023805,https://location.westernunion.com/bd/rajshahi/bogura/63983bfa2feef128fb50825ced5ada45,Mo-Su 08:00-21:00,Western Union,Q861042
dbe25444b24cd92eae14706e71f082b9,western_union,DUTCH BANGLA BANK LTD,,Joypurhat,RAJSHAHI,,BD,+880 1938-803285,https://location.westernunion.com/bd/rajshahi/joypurhat/dbe25444b24cd92eae14706e71f082b9,Mo-Th 09:30-17:00; Su 09:30-17:00,Western Union,Q861042
93114bbd5fb876b361ba1168dea45bbc,western_union,ISLAMI BANK BANGLADESHN LIMITED,,Joypurhat,RAJSHAHI,,BD,+880 1711-889952,https://location.westernunion.com/bd/rajshahi/joypurhat/93114bbd5fb876b361ba1168dea45bbc,Mo-Th 10:00-18:00; Sa-Su 10:00-18:00,Western Union,Q861042
bc13a39f11a8527db818ef5d368d84a8,western_union,ISLAMI BANK BANGLADESHN LIMITED,,Bogra,RAJSHAHI,,BD,+880 1787-676750,https://location.westernunion.com/bd/rajshahi/bogra/bc13a39f11a8527db818ef5d368d84a8,Mo-Th 10:00-18:00; Sa-Su 10:00-18:00,Western Union,Q861042
a3ec886ba1ab4f86b35a57207874d5bf,western_union,IFIC BANK LIMITED,,Joypurhat,RAJSHAHI,,BD,+880 1719-737581,https://location.westernunion.com/bd/rajshahi/joypurhat/a3ec886ba1ab4f86b35a57207874d5bf,Mo-Th 10:00-17:00; Su 10:00-17:00,Western Union,Q861042
8a6079459260cd12acbb88b2fac51757,western_union,BRAC BANK LTD,,Joypurhat,RAJSHAHI,,BD,+880 1759-788269,https://location.westernunion.com/bd/rajshahi/joypurhat/8a6079459260cd12acbb88b2fac51757,Mo-Su 08:00-21:00,Western Union,Q861042
3ae8e1d807b0dc99665dc5fb21fd4b05,western_union,GLOBAL ISLAMI BANK LTD,,Natore,RAJSHAHI,,BD,+880 1719-624400,https://location.westernunion.com/bd/rajshahi/natore/3ae8e1d807b0dc99665dc5fb21fd4b05,Mo-Th 10:00-17:00; Su 10:00-17:00,Western Union,Q861042
