Ref,Spider,Name,Address,City,State,Zipcode,Country,Phone,Website,Hours,Brand,WikiData
7342,aaa,Montford Branch,,Charlotte,NC,,US,+1 704-319-0280,,,American Automobile Association,Q463436
c720ae73-e11d-e611-80c5-005056aa8521,amf_bowling,Bowlero South Boulevard,,Charlotte,NC,,US,+1 704-527-0333,https://www.bowlero.com/location/bowlero-south-boulevard,,Bowlero,Q17102967
2d4c9be3-c215-ec11-b813-00505682f25e,amf_bowling,Bowlero 10 Park,,Charlotte,NC,,US,+1 980-985-3683,https://www.bowlero.com/location/bowlero-10-park,,Bowlero,Q17102967
4408,anytime_fitness,Anytime Fitness,,Charlotte,NC,,US,+1 704-777-1971,https://www.anytimefitness.com/gyms/4408/charlotte-nc-28209/,,Anytime Fitness,Q4778364
11874,asics_us,DICK'S Sporting Goods  - Charlotte,4325 Barclay Downs Dr,Charlotte,NC,,US,+1 704-972-9400,,Mo-Sa 09:00-21:00; Su 10:00-19:00,asics,Q327247
16072,asics_us,Omega Sports Park Road,4201 Park Rd,Charlotte,NC,,US,+1 704-521-8504,,Mo-Fr 10:00-19:00; Sa 09:00-19:00; Su 11:00-18:00,asics,Q327247
9cb0b8ae847c4f78a7b94e9262a96417,atrium_health,Atrium Health Primary Care South End Family Medicine,,Charlotte,NC,,US,+1 704-304-8120,https://atriumhealth.org/locations/detail/atrium-health-primary-care-south-end-family-medicine,,Atrium Health,Q5044932
8ef49e1c7a984a8aaaa2016c3b960343,atrium_health,Atrium Health At Home Infusion and Equipment,,Charlotte,NC,,US,+1 704-512-5333,https://atriumhealth.org/locations/detail/atrium-health-at-home-infusion-and-equipment,,Atrium Health,Q5044932
018924f62bff418a8ef3a9e254c02353,atrium_health,"Atrium Health Infusion Center, a facility of Carolinas Medical Center",,Charlotte,NC,,US,+1 704-512-5370,https://atriumhealth.org/locations/detail/atrium-health-infusion-center,,Atrium Health,Q5044932
0ba4383293694d12b78b390cace24a86,atrium_health,"Atrium Health Wound Care, a facility of Carolinas Medical Center",,Charlotte,NC,,US,+1 704-512-5360,https://atriumhealth.org/locations/detail/atrium-health-wound-care,,Atrium Health,Q5044932
c732f2150ddb4a4f8a83f8b54a348097,atrium_health,Atrium Health Sleep Medicine,,Charlotte,NC,,US,+1 704-512-2980,https://atriumhealth.org/locations/detail/atrium-health-sleep-medicine-charlotte,,Atrium Health,Q5044932
29ee7d1fe12b41e3acf5c2246f326b2c,atrium_health,Atrium Health Oral Medicine & Maxillofacial Surgery,,Charlotte,NC,,US,+1 704-512-2110,https://atriumhealth.org/locations/detail/atrium-health-oral-medicine-and-maxillofacial-surgery,,Atrium Health,Q5044932
8a47ebb9244046efa57359e58b7fcceb,atrium_health,Atrium Health At Home Charlotte,,Charlotte,NC,,US,+1 704-512-2300,https://atriumhealth.org/locations/detail/atrium-health-at-home-charlotte,,Atrium Health,Q5044932
f250af89f0974a6aa327138602f3db55,atrium_health,"Atrium Health Pineville Wound Care, a facility of Atrium Health Pineville",,Charlotte,NC,,US,+1 704-667-6920,https://atriumhealth.org/locations/detail/atrium-health-pineville-wound-care-a-facility-of-atrium-health-pineville,,Atrium Health,Q5044932
2407,autozone_us,AutoZone Auto Parts Charlotte,,Charlotte,NC,,US,+1 704-522-0966,https://www.autozone.com/locations/nc/charlotte/3701-south-blvd.html,Mo-Sa 07:30-21:00; Su 08:00-20:00,AutoZone,Q4826087
https://www.avis.com/en/locations/us/nc/charlotte/b9p,avis,Avis U S A Charlotte,,Charlotte,NC,,US,+1 704-529-7567,https://www.avis.com/en/locations/us/nc/charlotte/b9p,Mo-Fr 08:00-18:00; Sa 08:00-11:00; Su 11:00-14:00,Avis,Q791136
https://locators.bankofamerica.com/nc/charlotte/financial-centers-charlotte-11026.html,bankofamerica,Bank of America Financial Center & Drive-Thru ATM | Park Road,,Charlotte,NC,,US,+1 704-386-5351,https://locators.bankofamerica.com/nc/charlotte/financial-centers-charlotte-11026.html,Mo-Fr 10:00-16:00,Bank of America,Q487907
https://locators.bankofamerica.com/nc/charlotte/atm-charlotte-108962.html,bankofamerica,Bank of America Walk-Up ATM | Park Road Shopping Center,,Charlotte,NC,,US,+1 844-401-8500,https://locators.bankofamerica.com/nc/charlotte/atm-charlotte-108962.html,,Bank of America,Q487907
https://locators.bankofamerica.com/nc/charlotte/atm-charlotte-110022.html,bankofamerica,Bank of America Walk-Up ATM | Greystone South Blvd,,Charlotte,NC,,US,+1 844-401-8500,https://locators.bankofamerica.com/nc/charlotte/atm-charlotte-110022.html,,Bank of America,Q487907
210142,bluerhino,Harris Teeter #305,,Charlotte,NC,,US,+1 704-527-1018,,,Blue Rhino,Q65681213
210055,bluerhino,Harris Teeter #218,,Charlotte,NC,,US,+1 704-523-8106,,,Blue Rhino,Q65681213
2950,bluerhino,Ace - Blackhawk Hardware #12233,,Charlotte,NC,,US,+1 704-525-2682,,,Blue Rhino,Q65681213
210086,bluerhino,Harris Teeter #035,,Charlotte,NC,,US,+1 704-521-8394,,,Blue Rhino,Q65681213
236193,bluerhino,Circle K #2704747,,Charlotte,NC,,US,+1 704-376-9410,,,Blue Rhino,Q65681213
10956,brookdale_us,Brookdale South Park,,Charlotte,NC,,US,+1 704-553-8700,https://www.brookdale.com/en/communities/brookdale-south-park.html,,Brookdale,Q4974387
4327-park-road,brueggers,Bruegger's Bagels Park Road,,Charlotte,NC,,US,+1 704-525-5295,https://locations.brueggers.com/us/nc/charlotte/4327-park-road,Mo-Su 06:00-14:00,Bruegger's,Q4978656
7778,burgerking,Burger King,,Charlotte,NC,,US,+1 704-525-0665,https://www.bk.com/store-locator/store/restaurant_4440,Mo-Sa 06:00-20:00; Su 07:00-20:00,Burger King,Q177054
19495964,chase_us,Park Rd Charlotte - New branch,,Charlotte,NC,,US,+1 704-972-0660,https://locator.chase.com/nc/charlotte/4345-park-rd,Mo-Fr 09:00-17:00; Sa 09:00-13:00,Chase,Q524629
https://schools.childcarenetwork.com/nc/charlotte/651-woodlawn-road,childcare_network_us,Childcare Network,,Charlotte,NC,,US,+1 704-523-9294,https://schools.childcarenetwork.com/nc/charlotte/651-woodlawn-road,,Childcare Network,Q121356406
58942,citi,ATM Harris Teeter,,Charlotte,NC,,US,,,,Citibank,Q857063
30280,citi,ATM 7ELEVEN-FCTI,,Charlotte,NC,,US,,,,Citibank,Q857063
58920,citi,ATM Harris Teeter,,Charlotte,NC,,US,,,,Citibank,Q857063
90945,citi,ATM Walgreens,,Charlotte,NC,,US,,,,Citibank,Q857063
42062,citi,ATM Circle K,,Charlotte,NC,,US,,,,Citibank,Q857063
28208,citi,ATM 7ELEVEN-FCTI,,Charlotte,NC,,US,,,,Citibank,Q857063
4g2px1DYCmF8GGDKJnmeIO,corepower_yoga_us,Park Road,,Charlotte,NC,,US,,https://www.corepoweryoga.com/yoga-studios/nc/charlotte/park-road,,Corepower Yoga,Q21015663
471,dickssportinggoods,"DICK'S Sporting Goods Store in Charlotte, NC | 471",,Charlotte,NC,,US,+1 704-972-9400,https://stores.dickssportinggoods.com/nc/charlotte/471/,Mo-Sa 09:00-21:00; Su 10:00-19:00,Dick's Sporting Goods,Q5272601
https://www.edwardjones.com/us-en/financial-advisor/john-oconnor,edwardjones,John V O'Connor,,Charlotte,NC,,US,+1 704-565-5161,https://www.edwardjones.com/us-en/financial-advisor/john-oconnor,Mo-Fr 08:00-17:00,Edward Jones,Q5343830
E1534T,enterprise,Charlotte Truck Rental on South Blvd.,,Charlotte,NC,,US,+1 980-237-1374,,,Enterprise Rent-A-Car,Q17085454
E153C4,enterprise,Charlotte South & Woodlawn,,Charlotte,NC,,US,+1 704-525-2104,,,Enterprise Rent-A-Car,Q17085454
1000000404,extra_space_storage,Charlotte Self Storage at 3308 South Blvd,,Charlotte,NC,,US,+1 980-201-7969,https://www.extraspace.com/storage/facilities/us/north_carolina/charlotte/1000000404/,Mo-Fr 09:30-18:00; Sa 09:00-17:30,Extra Space Storage,Q5422162
200320846,exxonmobil,7-ELEVEN 35556,,CHARLOTTE,NC,,US,+1 704-523-8304,https://www.exxon.com/en/find-station/exxon-charlotte-nc-7eleven35556-200320846,24/7,Exxon,Q109675651
https://locations.53.com/#18174937,fifththirdbank,Fifth Third Bank New Bern Station,,Charlotte,NC,,US,+1 704-496-4076,https://locations.53.com/nc/charlotte/2822-south-blvd.html,Mo-Th 09:00-17:00; Fr 09:00-18:00; Sa 09:00-13:00,Fifth Third Bank,Q1411810
https://locations.53.com/#3034025,fifththirdbank,Fifth Third Bank Park Road,,Charlotte,NC,,US,+1 704-688-1580,https://locations.53.com/nc/charlotte/1625-east-woodlawn-road.html,Mo-Th 09:00-17:00; Fr 09:00-18:00; Sa 09:00-13:00,Fifth Third Bank,Q1411810
267403,firestone_auto_care,Firestone Complete Auto Care,,Charlotte,NC,,US,+1 704-612-5827,https://local.firestonecompleteautocare.com/north-carolina/charlotte/4305-park-rd/,,Firestone,Q420837
3771,first_cash,Smart Pawn & Jewelry,,Charlotte,NC,,US,+1 704-525-9655,,,,
https://restaurants.fiveguys.com/#17626637,five_guys_us,Five Guys Sedgefield,,Charlotte,NC,,US,+1 980-819-5341,https://restaurants.fiveguys.com/2810-south-blvd,"Mo-Su 11:00-21:30,11:00-22:00",Five Guys,Q1131810
Motorcraft1776USAEnglish,ford,FJE,,North Carolina,NC,,US,+1 405-272-9261,,,Ford,Q44294
https://salons.greatclips.com/us/nc/charlotte/5110-park-rd,greatclips,Great Clips,,Charlotte,NC,,US,+1 704-525-2300,https://salons.greatclips.com/us/nc/charlotte/5110-park-rd,Mo-Fr 10:00-19:00; Sa 09:00-18:00; Su 11:00-17:00,Great Clips,Q5598967
https://salons.greatclips.com/us/nc/charlotte/2822-south-blvd,greatclips,Great Clips,,Charlotte,NC,,US,+1 980-224-8659,https://salons.greatclips.com/us/nc/charlotte/2822-south-blvd,Mo-Fr 10:00-19:00; Sa 09:00-18:00; Su 11:00-17:00,Great Clips,Q5598967
https://www.blockadvisors.com/local-tax-offices/north-carolina/charlotte/5110-park-rd/32553/,h_r_block,H&R Block,,Charlotte,NC,,US,+1 704-522-9600,https://www.blockadvisors.com/local-tax-offices/north-carolina/charlotte/5110-park-rd/32553/,,H&R Block,Q5627799
https://locations.jamba.com/#904810130477228645,jambajuice,Jamba Park Selwyn Terrace,,Charlotte,NC,,US,+1 980-299-0094,https://locations.jamba.com/nc/charlotte/5110-park-road,Mo-Su 09:00-18:00,Jamba Juice,Q3088784
woodlawn-deli,jasonsdeli,Woodlawn Deli,"1600 E Woodlawn Rd, Charlotte, North Carolina 28209",Charlotte,NC,,US,+1 704-676-5858,https://www.jasonsdeli.com/restaurants/woodlawn-deli,Mo-Su 10:00-22:00,Jason's Deli,Q16997641
3855,jiffy_lube_us,South Blvd.,,CHARLOTTE,NC,,US,+1 704-979-4411,https://www.jiffylube.com/locations/nc/charlotte/3855,Mo-Sa 08:00-18:00; Su 09:00-17:00,Jiffy Lube,Q6192247
https://locations.jimmyjohns.com/nc/charlotte/sandwiches-1904.html,jimmy_johns,Jimmy John's,,Charlotte,NC,,US,+1 980-819-5511,https://locations.jimmyjohns.com/nc/charlotte/sandwiches-1904.html,,Jimmy John's,Q1689380
https://stores.factory.jcrew.com/#2900571,j_crew_us,J.Crew Factory,,Charlotte,NC,,US,+1 704-561-7017,https://stores.factory.jcrew.com/us/nc/charlotte/4217-park-rd,Mo-Sa 10:00-19:00; Su 11:00-18:00,J. Crew,Q5370765
300434,kindercare,Park Road KinderCare,,Charlotte,NC,,US,,https://www.kindercare.com/our-centers/charlotte/nc/300434,,KinderCare Learning Centers,Q6410551
CLTRP,marriott,Renaissance Charlotte SouthPark Hotel,,Charlotte,NC,,US,+1 704-501-2510,https://www.marriott.com/CLTRP,,Renaissance Hotels,Q2143252
https://locations.massageenvy.com/#1773599,massage_envy,Massage Envy South Park NC BMBT Establishment #197,,Charlotte Charlotte,NC,,US,+1 704-525-4800,https://locations.massageenvy.com/north-carolina/charlotte/1730-east-woodlawn-road.html,Mo-Sa 09:00-21:00; Su 09:00-19:00,Massage Envy,Q10327170
4805-park-road,mcalisters_deli,McAlister's Deli Seneca Commons ,,Charlotte,NC,,US,+1 704-295-9090,https://locations.mcalistersdeli.com/nc/charlotte/4805-park-road,Mo-Th 10:00-21:00; Fr-Sa 10:00-22:00; Su 10:00-21:00,McAlister's Deli,Q17020829
44270,orangetheory_fitness,"Charlotte-Park Road, NC",,Charlotte,NC,,US,+1 704-885-2540,,,Orangetheory Fitness,Q25005163
nc_charlotte_3909-south-blvd,pizza_hut_us,3909 South Blvd,,Charlotte,NC,,US,+1 704-522-7000,https://locations.pizzahut.com/nc/charlotte/3909-south-blvd,,Pizza Hut,Q191615
https://www.publicstorage.com/self-storage-nc-charlotte/1024.html,public_storage_us,Public Storage,,Charlotte,NC,,US,+1 704-200-9542,https://www.publicstorage.com/self-storage-nc-charlotte/1024.html,,Public Storage,Q1156045
https://www.publicstorage.com/self-storage-nc-charlotte/2120.html,public_storage_us,Public Storage,,Charlotte,NC,,US,+1 704-200-9534,https://www.publicstorage.com/self-storage-nc-charlotte/2120.html,,Public Storage,Q1156045
https://www.publicstorage.com/self-storage-nc-charlotte/2072.html,public_storage_us,Public Storage,,Charlotte,NC,,US,+1 704-200-9533,https://www.publicstorage.com/self-storage-nc-charlotte/2072.html,,Public Storage,Q1156045
https://locations.qdoba.com/us/nc/charlotte/1600-e-woodlawn-rd.html,qdoba,QDOBA Woodlawn,,Charlotte,NC,,US,+1 704-295-9007,https://locations.qdoba.com/us/nc/charlotte/1600-e-woodlawn-rd.html,Mo-Su 10:30-22:00,Qdoba,Q1363885
35585,seven_eleven_ca_us,7-11 Str   4401 Park Rd,,Charlotte,NC,,US,+1 704-790-5556,https://www.7-eleven.com/locations/nc/charlotte/4401-park-rd-35585,,7-Eleven,Q259340
35556,seven_eleven_ca_us,7-11 Str   2601 South Blvd,,Charlotte,NC,,US,+1 704-523-8304,https://www.7-eleven.com/locations/nc/charlotte/2601-south-blvd-35556,,7-Eleven,Q259340
2973,shellrecharge,Link Apartments Montford I,,Charlotte,NC,,US,,,,Shell Recharge,Q105883058
3728,shellrecharge,Link Apartments Montford II,,Charlotte,NC,,US,,,,Shell Recharge,Q105883058
2242,snap_fitness,"Charlotte, NC",4805 Park Rd,Charlotte,NC,,US,+1 704-523-4015,https://www.snapfitness.com/us/gyms/charlotte-park-nc,24/7,Snap Fitness,Q7547254
291,sola_salon_studios,Park Road,,Charlotte,NC,,US,+1 704-237-6646,https://www.solasalonstudios.com/locations/park-abbey,,Sola Salon Studios,Q64337426
https://restaurants.subway.com/#14907293,subway,Subway Park Road Shopping Center,,Charlotte Mecklenburg,NC,,US,+1 704-522-0011,https://restaurants.subway.com/united-states/nc/charlotte/4323-park-road,Mo-Sa 11:00-19:00,Subway,Q244457
https://restaurants.subway.com/#14900669,subway,Subway,,Charlotte Mecklenburg,NC,,US,+1 704-817-8692,https://restaurants.subway.com/united-states/nc/charlotte/3039-south-blvd,Mo-Sa 08:00-21:30; Su 09:00-19:00,Subway,Q244457
89068,supercuts,Park Road,4736 Park Rd,Charlotte,NC,,US,+1 704-522-9559,https://www.supercuts.com/checkin/89068,Mo-Fr 10:00-18:00; Sa 09:00-15:00; Su 11:00-17:00,Supercuts,Q7643239
https://locations.tacobell.com/#3916814,taco_bell,Taco Bell,,Charlotte,NC,,US,+1 704-522-7604,https://locations.tacobell.com/nc/charlotte/1800-e-woodlawn-rd.html,Mo-Th 09:00-02:00; Fr-Sa 09:00-04:00; Su 09:00-02:00,Taco Bell,Q752941
145,tmobile_us,South & Woodlawn,,Charlotte,NC,,US,+1 704-527-2413,https://www.t-mobile.com/store-locator/nc/charlotte/south-woodlawn,,T-Mobile,Q3511885
605,total_wine_and_more_us,Charlotte (Myers Park),,Charlotte,NC,,US,+1 704-295-9292,https://www.totalwine.com/store-info/605,Mo-Th 10:00-21:00; Fr-Sa 09:00-22:00; Su 10:00-19:00,Total Wine & More,Q7828084
1376819,usps,PARK ROAD,,CHARLOTTE,NC,,US,+1 704-522-3842,,Mo-Fr 09:00-17:00; Sa 09:00-13:00,United States Postal Service,Q668687
2820900014,usps_collection_boxes,USPS COLLECTION BOX - BLUE BOX,6101 CARNEGIE BLVD,CHARLOTTE,NC,,US,,,,United States Postal Service,Q668687
2820900018,usps_collection_boxes,USPS COLLECTION BOX - BLUE BOX,5821 FAIRVIEW RD,CHARLOTTE,NC,,US,,,,United States Postal Service,Q668687
2820900013,usps_collection_boxes,USPS COLLECTION BOX - BLUE BOX,2909 SELWYN AVE,CHARLOTTE,NC,,US,,,,United States Postal Service,Q668687
2820900029,usps_collection_boxes,USPS COLLECTION BOX - BLUE BOX,4600 PARK RD,CHARLOTTE,NC,,US,,,,United States Postal Service,Q668687
2820900043,usps_collection_boxes,USPS COLLECTION BOX - BLUE BOX,101 SCALEYBARK RD,CHARLOTTE,NC,,US,,,,United States Postal Service,Q668687
2820900061,usps_collection_boxes,USPS COLLECTION BOX - PO LOBBY,4117 PARK RD,CHARLOTTE,NC,,US,,,,United States Postal Service,Q668687
2820900062,usps_collection_boxes,USPS COLLECTION BOX - PO LOBBY,4117 PARK RD,CHARLOTTE,NC,,US,,,,United States Postal Service,Q668687
2820900063,usps_collection_boxes,USPS COLLECTION BOX - APC,4117 PARK RD,CHARLOTTE,NC,,US,,,,United States Postal Service,Q668687
2820900067,usps_collection_boxes,USPS COLLECTION BOX - PO LOBBY,4117 PARK RD,CHARLOTTE,NC,,US,,,,United States Postal Service,Q668687
2820900055,usps_collection_boxes,USPS COLLECTION BOX - BLUE BOX,4117 PARK RD,CHARLOTTE,NC,,US,,,,United States Postal Service,Q668687
2820900064,usps_collection_boxes,USPS COLLECTION BOX - BLUE BOX,4530 PARK RD,CHARLOTTE,NC,,US,,,,United States Postal Service,Q668687
2820900008,usps_collection_boxes,USPS COLLECTION BOX - BLUE BOX,4117 PARK RD,CHARLOTTE,NC,,US,,,,United States Postal Service,Q668687
2820900009,usps_collection_boxes,USPS COLLECTION BOX - BLUE BOX,4117 PARK RD,CHARLOTTE,NC,,US,,,,United States Postal Service,Q668687
2820900026,usps_collection_boxes,USPS COLLECTION BOX - BLUE BOX,1515 MOCKINGBIRD LN,CHARLOTTE,NC,,US,,,,United States Postal Service,Q668687
2820900059,usps_collection_boxes,USPS COLLECTION BOX - BLUE BOX,5200 PARK RD,CHARLOTTE,NC,,US,,,,United States Postal Service,Q668687
charlotte_oil-change-go0013,valvoline_instant_oil_change,Valvoline,1821 Montford Drive ,Charlotte,NC,,US,+1 704-523-7404,https://store.vioc.com/nc/charlotte/oil-change-go0013.html,,Valvoline Instant Oil Change,Q7912852
R00000101387,verizon_us,Park Towne Village,,Charlotte,NC,,US,+1 704-523-6744,https://www.verizon.com/stores/details/north-carolina/charlotte/parktowne-village-204176/,Mo-Sa 10:00-19:00; Su 11:00-18:00,Verizon,Q919641
,visa,,,CHARLOTTE,NC,,US,,,,,
,visa,,,CHARLOTTE,NC,,US,,,,,
,visa,,,CHARLOTTE,NC,,US,,,,,
,visa,,,CHARLOTTE,NC,,US,,,,,
,visa,,,CHARLOTTE,NC,,US,,,,,
,visa,,,CHARLOTTE,NC,,US,,,,,
,visa,,,CHARLOTTE,NC,,US,,,,,
,visa,,,CHARLOTTE,NC,,US,,,,,
,visa,,,CHARLOTTE,NC,,US,,,,,
,visa,,,CHARLOTTE,NC,,US,,,,,
,visa,,,CHARLOTTE,NC,,US,,,,,
,visa,,,CHARLOTTE,NC,,US,,,,,
,visa,,,CHARLOTTE,NC,,US,,,,,
,visa,,,CHARLOTTE,NC,,US,,,,,
,visa,,,CHARLOTTE,NC,,US,,,,,
,visa,,,CHARLOTTE,NC,,US,,,,,
,visa,,,CHARLOTTE,NC,,US,,,,,
,visa,,,CHARLOTTE,NC,,US,,,,,
,visa,,,CHARLOTTE,NC,,US,,,,,
,visa,,,CHARLOTTE,NC,,US,,,,,
,visa,,,CHARLOTTE,NC,,US,,,,,
,visa,,,CHARLOTTE,NC,,US,,,,,
,visa,,,CHARLOTTE,NC,,US,,,,,
,visa,,,CHARLOTTE,NC,,US,,,,,
,visa,,,CHARLOTTE,NC,,US,,,,,
,visa,,,CHARLOTTE,NC,,US,,,,,
,visa,,,CHARLOTTE,NC,,US,,,,,
,visa,,,CHARLOTTE,NC,,US,,,,,
,visa,,,CHARLOTTE,NC,,US,,,,,
,visa,,,CHARLOTTE,NC,,US,,,,,
,visa,,,CHARLOTTE,NC,,US,,,,,
,visa,,,CHARLOTTE,NC,,US,,,,,
,visa,,,CHARLOTTE,NC,,US,,,,,
,visa,,,CHARLOTTE,NC,,US,,,,,
,visa,,,CHARLOTTE,NC,,US,,,,,
,visa,,,CHARLOTTE,NC,,US,,,,,
,visa,,,CHARLOTTE,NC,,US,,,,,
,visa,,,CHARLOTTE,NC,,US,,,,,
,visa,,,CHARLOTTE,NC,,US,,,,,
,visa,,,CHARLOTTE,NC,,US,,,,,
,visa,,,CHARLOTTE,NC,,US,,,,,
https://www.walgreens.com/locator/walgreens-4133+park+rd-charlotte-nc-28209/id=17073,walgreens,Walgreens,,Charlotte,NC,,US,+1 704-523-3031,https://www.walgreens.com/locator/walgreens-4133+park+rd-charlotte-nc-28209/id=17073,Mo-Sa 07:00-22:00; Su 09:00-21:00,Walgreens,Q1591889
4501__PARK__RD_CHARLOTTE_NC_28209,wellsfargo,Wells Fargo,4501 PARK RD,CHARLOTTE,NC,,US,+1 704-522-1022,https://www.wellsfargo.com/locator/bank/4501__PARK__RD_CHARLOTTE_NC_28209/,Mo-Fr 09:00-17:00,Wells Fargo,Q744149
4323__PARK__RD_CHARLOTTE_NC_28209,wellsfargo,,4323 PARK RD,CHARLOTTE,NC,,US,+1 800-869-3557,https://www.wellsfargo.com/locator/bank/4323__PARK__RD_CHARLOTTE_NC_28209/,,Wells Fargo,Q744149
2910__SOUTH__BLVD_CHARLOTTE_NC_28209,wellsfargo,Wells Fargo,2910 SOUTH BLVD,CHARLOTTE,NC,,US,+1 704-523-3113,https://www.wellsfargo.com/locator/bank/2910__SOUTH__BLVD_CHARLOTTE_NC_28209/,Mo-Fr 09:00-17:00,Wells Fargo,Q744149
https://locations.wendys.com/#9251387,wendys,"Wendy's Park & Woodlawn in Charlotte, NC",,Charlotte,NC,,US,+1 704-522-0780,https://locations.wendys.com/united-states/nc/charlotte/4335-park-road,"Mo-We 06:30-10:30,09:00-22:00; Sa-Su 06:30-10:30,09:00-22:00",Wendy's,Q550258
b01a3c61667b8409e240673af683bd16,western_union,WALGREENS #17073,,Charlotte,NC,,US,+1 704-523-3031,https://location.westernunion.com/us/nc/charlotte/b01a3c61667b8409e240673af683bd16,Mo-Sa 08:00-21:00; Su 08:00-19:00,Western Union,Q861042
918c11352a668a1b5413a50422571337,western_union,7-ELEVEN #35585,,Charlotte,NC,,US,+1 704-525-1610,https://location.westernunion.com/us/nc/charlotte/918c11352a668a1b5413a50422571337,,Western Union,Q861042
17dd555291769e5c14d53b60b72d46a5,western_union,7-ELEVEN #35556,,Charlotte,NC,,US,+1 704-523-8304,https://location.westernunion.com/us/nc/charlotte/17dd555291769e5c14d53b60b72d46a5,,Western Union,Q861042
