Ref,Spider,Name,Address,City,State,Zipcode,Country,Phone,Website,Hours,Brand,WikiData
/locations/propane-offices/wyoming/pine-bluffs/611-west-hwy-30,amerigas,"AmerGas Propane | Pine Bluffs, Wyoming",,Pine Bluffs,WY,,US,+1 307-245-9232,/locations/propane-offices/wyoming/pine-bluffs/611-west-hwy-30,,AmeriGas,Q23130318
20856,dollar_general,Dollar General,,Pine Bluffs,WY,,US,+1 307-459-5477,https://www.dollargeneral.com/store-directory/wy/pine-bluffs/20856,Mo-Su 08:00-22:00,Dollar General,Q145168
200319100,exxonmobil,PINE BLUFFS,,PINE BLUFFS,WY,,US,+1 307-245-3007,https://www.exxon.com/en/find-station/exxon-pinebluffs-wy-pinebluffs-200319100,Mo-Th 05:00-22:00; Fr-Sa 05:00-23:00; Su 06:00-22:00,Exxon,Q109675651
110268,little_free_library,Snoopy's Bookhouse #110268 Pine Bluffs WY,,Pine Bluffs,WY,,US,,,,Little Free Library,Q6650101
https://stations.sinclairoil.com/wy/pine-bluffs/706-parson-st,sinclair_us,Sinclair Gas Station,,Pine Bluffs,WY,,US,+1 307-245-3593,https://stations.sinclairoil.com/wy/pine-bluffs/706-parson-st,Mo-Su 05:00-24:00,Sinclair,Q1290900
https://restaurants.subway.com/#14893669,subway,Subway Farmland Gas Station,,Pine Bluffs Laramie,WY,,US,+1 307-245-3405,https://restaurants.subway.com/united-states/wy/pine-bluffs/715-parsons-street,Mo 07:00-20:30; Tu 07:00-09:00; We-Fr 07:00-20:30; Sa-Su 09:00-20:30,Subway,Q244457
042512,uhaul,Double K Motors,205 Butler Ave,Pine Bluffs,WY,,US,+1 307-245-3074,,Mo-Fr 00:00-16:00,U-Haul,Q7862902
1377519,usps,PINE BLUFFS,,PINE BLUFFS,WY,,US,+1 307-245-3568,,Mo-Fr 08:00-17:00; Sa 09:00-12:00,United States Postal Service,Q668687
8208200002,usps_collection_boxes,USPS COLLECTION BOX - BLUE BOX,706 PARSONS ST,PINE BLUFFS,WY,,US,,,,United States Postal Service,Q668687
8208200000,usps_collection_boxes,USPS COLLECTION BOX - BLUE BOX,115 W 4TH ST,PINE BLUFFS,WY,,US,,,,United States Postal Service,Q668687
8208200001,usps_collection_boxes,USPS COLLECTION BOX - PO LOBBY,115 W 4TH ST,PINE BLUFFS,WY,,US,,,,United States Postal Service,Q668687
8208200003,usps_collection_boxes,USPS COLLECTION BOX - PO LOBBY,115 W 4TH ST,PINE BLUFFS,WY,,US,,,,United States Postal Service,Q668687
,visa,,,PINE BLUFF,WY,,US,,,,,
,visa,,,PINE BLUFFS,WY,,US,,,,,
,visa,,,PINE BLUFFS,WY,,US,,,,,
,visa,,,PINE BLUFFS,WY,,US,,,,,
,visa,,,PINE BLUFFS,WY,,US,,,,,
,visa,,,PINE BLUFFS,WY,,US,,,,,
,visa,,,PINE BLUFFS,WY,,US,,,,,
,visa,,,PINE BLUFFS,WY,,US,,,,,
