Ref,Spider,Name,Address,City,State,Zipcode,Country,Phone,Website,Hours,Brand,WikiData
84386,bluerhino,AAFES - Sheridan Road Shoppette,,Fort Sill,OK,,US,+1 580-355-7601,,,Blue Rhino,Q65681213
84387,bluerhino,AAFES - Fort Sill Blvd. Shoppette,,Fort Sill,OK,,US,+1 580-357-0786,,,Blue Rhino,Q65681213
37574,bluerhino,AAFES - Fort Sill PXtra 1011901,,Fort Sill,OK,,US,+1 580-351-0504,,,Blue Rhino,Q65681213
132947,bluerhino,AAFES - Sill North Express,,Fort Sill,OK,,US,+1 580-250-1204,,,Blue Rhino,Q65681213
,credit_union_us,Fort Sill FCU,,Fort Sill,OK,,US,+1 580-353-2124,,Mo-Fr 09:00-05:00,,
vba_351a,department_veterans_affairs,Pre-Discharge Site at Fort Sill Army Post,,Fort Sill,OK,,US,+1 580-442-2482,,,Department Veterans Affairs,Q592576
https://stores.gnc.com/#24058325,gnc,GNC Fort Sill Exchange,,,OK,,US,+1 580-248-6576,https://stores.gnc.com/all-stores-oklahoma/fort-sill/1718-macomb-rd,Mo-Sa 10:00-19:00; Su 10:00-17:00,GNC,Q4808595
35943,h_r_block,H&R Block,,Fort Sill,OK,,US,+1 580-695-4887,https://www.hrblock.com/local-tax-offices/oklahoma/fort-sill/1718-macomb-rd/35943/,,H&R Block,Q5627799
restaurant_85495,popeyes_us_fr,Popeyes,"(Military Post Access Required) 2990 Sheridan Road Fort Sill, Oklahoma 73503 - USA",Fort Sill,OK,,US,+1 580-248-1056,https://www.popeyes.com/store-locator/store/restaurant_85495,Mo-Fr 10:00-19:00; Sa-Su 11:00-19:00,Popeyes,Q1330910
https://locations.qdoba.com/us/ok/ft-sill/1718-gruber-road.html,qdoba,QDOBA Fort Sill,,Ft Sill,OK,,US,+1 580-250-1759,https://locations.qdoba.com/us/ok/ft-sill/1718-gruber-road.html,Mo-Sa 10:00-18:00; Su 11:00-19:00,Qdoba,Q1363885
https://restaurants.subway.com/#14900329,subway,Subway Fort Sill Exchange Food Court,,Fort Sill Comanche,OK,,US,+1 580-250-1759,https://restaurants.subway.com/united-states/ok/fort-sill/bldg-1718-macomb-rd,Mo-Fr 09:30-18:00; Sa 09:30-17:00; Su 09:30-16:00,Subway,Q244457
https://locations.tacobell.com/#23557906,taco_bell,Taco Bell,,Fort Sill,OK,,US,+1 580-250-1759,https://locations.tacobell.com/ok/fort-sill/macomb-road---craig-road.html,,Taco Bell,Q752941
1A22,tmobile_us,AAFES Ft Sill Lawton OK,,Lawton,OK,,US,,https://www.t-mobile.com/store-locator/ok/lawton/aafes-ft-sill-lawton-ok,,T-Mobile,Q3511885
6206,upsstore,Fort Sill,1718 Macomb Rd Ste 300,Fort Sill,OK,,US,+1 580-248-7800,https://locations.theupsstore.com/ok/fort-sill/1718-macomb-rd,,UPS Store,Q7771029
1435671,usps,FORT SILL,,FORT SILL,OK,,US,+1 580-355-7738,,Mo-Fr 08:30-16:30; Sa 09:30-11:30,United States Postal Service,Q668687
7350300045,usps_collection_boxes,USPS COLLECTION BOX - PO LOBBY,930 FORT SILL BLVD STE 100,LAWTON,OK,,US,,,,United States Postal Service,Q668687
,visa,,,FT. SILL,OK,,US,,,,,
,visa,,,FT. SILL,OK,,US,,,,,
,visa,,,FT. SILL,OK,,US,,,,,
,visa,,,FT. SILL,OK,,US,,,,,
,visa,,,FT.SILL,OK,,US,,,,,
,visa,,,FT. SILL,OK,,US,,,,,
,visa,,,FT. SILL,OK,,US,,,,,
b68ca6ac9fd3eb57d43d4cda5ed6ef6b,western_union,CER-FT SILL MX,,Fort Sill,OK,,US,+1 580-351-0504,https://location.westernunion.com/us/ok/fort-sill/b68ca6ac9fd3eb57d43d4cda5ed6ef6b,,Western Union,Q861042
