Ref,Spider,Name,Address,City,State,Zipcode,Country,Phone,Website,Hours,Brand,WikiData
WOLO000175,audi_be,Auto Natie Antwerpen,,Antwerpen 3,,,BE,+32 3 231 59 30,https://www.autonatie.be,,Audi,Q23317
570,carrefour_be,Carrefour express Oranje LUCHTBAL,,ANTWERPEN LUCHTBAL,,,BE,,https://winkels.carrefour.be/nl/s/carrefour/carrefour-express-oranje-luchtbal/570,Mo-Fr 07:30-20:00; Su 07:30-20:00,Carrefour Express,Q2940190
5724,dats24_be,DATS 24 ANVERS CNG,42 VOSSESCHIJNSTRAAT ANTWERPEN 3 2030,ANTWERPEN 3,,,BE,,,,DATS 24,Q15725576
0070017300173,decathlon_be,Antwerpen,,Antwerpen,,,BE,+32 3 544 31 00,https://www.decathlon.be/nl/store-view/sportwinkel-antwerpen-0070017300173,Mo-Sa 09:00-20:00,Decathlon,Q509349
http://stores.delhaize.be/fr/proxy-delhaize-zandvliet,delhaize_be,Proxy Delhaize Zandvliet,,Zandvliet,,,BE,+32 3 568 63 40,http://stores.delhaize.be/fr/proxy-delhaize-zandvliet,Mo 13:00-19:00; Tu-Fr 08:30-19:00; Sa 08:30-18:00; Su 08:30-12:00,Delhaize,Q1184173
100361630,exxonmobil,Esso,,ANTWERPEN,,,BE,,https://www.esso.be/nl-be/find-station/esso-antwerpen--100361630,24/7,Esso,Q867662
100360773,exxonmobil,Esso Antwerpen Noorderlaan,,Antwerpen,,,BE,+32 3 542 64 30,https://www.esso.be/nl-be/find-station/esso-antwerpen-essoantwerpennoorderlaan-100360773,Mo-Fr 00:05-19:00,Esso,Q867662
100358670,exxonmobil,Esso,,ANTWERPEN,,,BE,,https://www.esso.be/nl-be/find-station/esso-antwerpen--100358670,24/7,Esso,Q867662
100175599,exxonmobil,Esso Noorderlaan,,ANTWERPEN,,,BE,+32 3 541 03 20,https://www.esso.be/nl-be/find-station/esso-antwerpen-essonoorderlaan-100175599,Mo-Fr 05:00-22:00; Sa 08:00-17:00; Su 08:00-18:00,Esso,Q867662
100175012,exxonmobil,EXPRESS ANTW GROENENDAALLAAN,,ANTWERPEN,,,BE,+32 3 889 89 89,https://www.esso.be/nl-be/find-station/esso-antwerpen-expressantwgroenendaallaan-100175012,24/7,Esso,Q867662
100175009,exxonmobil,Esso Vogelzang,,ANTWERPEN,,,BE,+32 3 238 03 71,https://www.esso.be/nl-be/find-station/esso-antwerpen-essovogelzang-100175009,24/7,Esso,Q867662
cc_smartbike_antwerp:201,gbfs,201- P&R Luchtbal,,,,,BE,,https://www.velo-antwerpen.be/nl,,Velo Antwerpen,
cc_smartbike_antwerp:202,gbfs,202- Squarepark,,,,,BE,,https://www.velo-antwerpen.be/nl,,Velo Antwerpen,
cc_smartbike_antwerp:203,gbfs,203- Venezuelastraat,,,,,BE,,https://www.velo-antwerpen.be/nl,,Velo Antwerpen,
cc_smartbike_antwerp:204,gbfs,204- Luchtbal winkelcentrum,,,,,BE,,https://www.velo-antwerpen.be/nl,,Velo Antwerpen,
cc_smartbike_antwerp:205,gbfs,205- Kinepolis,,,,,BE,,https://www.velo-antwerpen.be/nl,,Velo Antwerpen,
cc_smartbike_antwerp:206,gbfs,206- Station Luchtbal,,,,,BE,,https://www.velo-antwerpen.be/nl,,Velo Antwerpen,
cc_smartbike_antwerp:221,gbfs,221-Havenhuis,,,,,BE,,https://www.velo-antwerpen.be/nl,,Velo Antwerpen,
71156,man_truck_and_bus,MAN TopUsed Center Antwerpen,,Antwerpen,,,BE,+32 2 454 19 00,,,MAN Truck & Bus,Q708667
69982431,moneygram,BEST BUY - ANTWERPEN,,ANTWERPEN,,,BE,+32 487 63 34 50,,Mo-Su 08:00-22:00,MoneyGram,Q1944412
62093920,nissan_be,BEERENS HAVEN,,ANTWERPEN,,,BE,+32 3 544 00 00,https://www.beerens.be/nl/home,,Nissan,Q20165
05600594_001-renault,renault,KENIS ANTWERPEN,,ANTWERPEN,,,BE,+32 3 205 99 00,,,Renault,Q6686
05600594_001-dacia,renault,KENIS ANTWERPEN,,ANTWERPEN,,,BE,+32 3 205 99 00,,,Dacia,Q27460
5639c368-30c0-4a9b-aaaf-268631c545ef,scania,Scania BelgiÃ« nv / Werkplaats Antwerpen (Haven),,Antwerpen,,,BE,+32 3 545 31 11,,Mo-Fr 08:00-18:00; Sa 07:00-12:00,Scania,Q219960
https://www.sixt.co.uk/car-hire/belgium/antwerp/antwerp-city-centre/,sixt,Car Hire Antwerp | SIXT rent a car,,Anvers,,,BE,,https://www.sixt.co.uk/car-hire/belgium/antwerp/antwerp-city-centre/,Mo-Fr 08:00-18:00; Sa 08:00-13:00,SIXT,Q705664
202-35073,skoda,Auto Natie Antwerpen,,,,,BE,,,,Skoda,Q29637
NB002100,totalenergies,ANTWERPEN TRA,,ANTWERPEN,,,BE,+32 3 545 50 11,https://store.totalenergies.fr/en_EN/NB002100,,,
NB002493,totalenergies,LUCHTBAL,,ANTWERPEN,,,BE,+32 3 541 35 00,https://store.totalenergies.fr/en_EN/NB002493,Mo-Fr 05:30-18:30; Sa 09:00-16:00,TotalEnergies,Q154037
NB010572,totalenergies,SHELL ANTWERPEN NOORD,,ANTWERPEN,,,BE,,https://store.totalenergies.fr/en_EN/NB010572,,Shell,Q110716465
NB010574,totalenergies,ESSO ANTWERPEN NOORDERLAAN,,ANTWERPEN,,,BE,,https://store.totalenergies.fr/en_EN/NB010574,,Esso,Q867662
NB010577,totalenergies,ESSO ANTWERPEN NOORDERLAAN,,ANTWERPEN,,,BE,,https://store.totalenergies.fr/en_EN/NB010577,,Esso,Q867662
NB014941,totalenergies,SHELL ANTWERPEN ROMEYNSWEEL,,ANTWERPEN,,,BE,,https://store.totalenergies.fr/en_EN/NB014941,,Shell,Q110716465
