Ref,Spider,Name,Address,City,State,Zipcode,Country,Phone,Website,Hours,Brand,WikiData
https://restaurants.applebees.com/en-us/mo/maryville/2919-s.-main-street-98030,applebees,Connect with this Applebee's,,Maryville,MO,,US,+1 660-562-3161,https://restaurants.applebees.com/en-us/mo/maryville/2919-s.-main-street-98030,Mo-Su 11:00-24:00,Applebees,Q621532
15843,asics_us,Hibbett Sports,1810 S Main St,Maryville,MO,,US,+1 660-582-2062,,,asics,Q327247
203840,bluerhino,CASEY'S GENERAL STORE #2469,,MARYVILLE,MO,,US,+1 660-582-2120,,,Blue Rhino,Q65681213
186425,bluerhino,Sutherlands #5604,,Maryville,MO,,US,+1 660-562-0031,,,Blue Rhino,Q65681213
149860,bluerhino,Hy Vee #1406 - Maryville,,Maryville,MO,,US,+1 660-582-2026,,,Blue Rhino,Q65681213
146812,bluerhino,Westlake Ace Hardware #104 - Ace #16241,,Maryville,MO,,US,+1 660-582-3562,,,Blue Rhino,Q65681213
203964,bluerhino,CASEY'S GENERAL STORE #3786,,MARYVILLE,MO,,US,+1 660-562-2032,,,Blue Rhino,Q65681213
225149,bluerhino,Tractor Supply #2803,,Maryville,MO,,US,+1 660-582-2232,,,Blue Rhino,Q65681213
203943,bluerhino,CASEY'S GENERAL STORE #3430,,MARYVILLE,MO,,US,+1 660-562-2021,,,Blue Rhino,Q65681213
13087,burgerking,Burger King,,Maryville,MO,,US,+1 660-562-0062,https://www.bk.com/store-locator/store/restaurant_7625,Mo-Su 06:00-22:00,Burger King,Q177054
9028,cenex,Consumers Oil Company,,Maryville,MO,,US,+1 660-582-2106,,24/7,Cenex,Q62127191
10935,cenex,St Joe Petroleum Co,,Maryville,MO,,US,+1 816-752-2104,,24/7,Cenex,Q62127191
36977,citi,ATM Break Time,,Maryville,MO,,US,,,,Citibank,Q857063
1508,dominos_pizza_us,Domino's Pizza,,Maryville,MO,,US,+1 660-562-2800,https://pizza.dominos.com/missouri/maryville/1006-south-main-street,Mo-Th 10:30-24:00; Fr-Sa 10:30-01:00; Su 10:30-24:00,Domino's,Q839466
https://www.edwardjones.com/us-en/financial-advisor/scott-nielson,edwardjones,Scott N Nielson,,Maryville,MO,,US,+1 660-562-2267,https://www.edwardjones.com/us-en/financial-advisor/scott-nielson,Mo-Th 08:00-17:00; Fr 08:00-15:00,Edward Jones,Q5343830
800-university-dr,einsteinbros,Northwest Missouri State University Einstein Bros. Bagels,,Maryville,MO,,US,+1 660-562-1212,https://locations.einsteinbros.com/us/mo/maryville/800-university-dr,,Einstein Bros. Bagels,Q5349788
E10582,enterprise,Maryville,,Maryville,MO,,US,+1 660-582-0329,,,Enterprise Rent-A-Car,Q17085454
https://www.efaststop.com/store-locator/pv/3000/id/368,fast_stop_us,Maryville FAST STOP Express (Agriland FS),,Maryville,MO,,US,+1 515-462-5353,https://www.efaststop.com/store-locator/pv/3000/id/368,,FAST STOP,Q116734101
Motorcraft3140USAEnglish,ford,Tri-State Ford Lincoln,,Missouri,MO,,US,+1 660-582-3677,,,Ford,Q44294
https://www.ford.com/dealerships/dealer-details/mo/maryville/tri_state-ford/,ford_dealers_us,Tri-State Ford,,Maryville,MO,,US,+1 660-224-0628,https://www.ford.com/dealerships/dealer-details/mo/maryville/tri_state-ford/,Mo-Fr 08:30-18:00; Sa 08:30-16:00,Ford Motor Company,Q44294
26662,h_r_block,H&R Block,,Maryville,MO,,US,+1 660-771-6009,https://www.hrblock.com/local-tax-offices/missouri/maryville/1314-s-main/26662/,,H&R Block,Q5627799
https://locations.jimmyjohns.com/mo/maryville/sandwiches-1698.html,jimmy_johns,Jimmy John's,,Maryville,MO,,US,+1 660-582-7777,https://locations.jimmyjohns.com/mo/maryville/sandwiches-1698.html,,Jimmy John's,Q1689380
https://locations.kfc.com/#11249839,kfc,Chicken Nuggets Near Maryville,,Maryville,MO,,US,,https://locations.kfc.com/mo/maryville/1622-south-main/chickennugget,Mo-Su 10:30-22:00,KFC,Q524757
https://locations.maurices.com/#11688605,maurices,maurices Maryville S. C.,,Maryville,MO,,US,+1 660-582-4648,https://locations.maurices.com/us/mo/maryville/1816-s-main-street,Mo-Sa 10:00-19:00; Su 12:00-17:00,maurices,Q6793571
800-university-drive,mcalisters_deli,McAlister's Deli Maryville ,,Maryville,MO,,US,+1 660-207-5433,https://locations.mcalistersdeli.com/mo/maryville/800-university-drive,,McAlister's Deli,Q17020829
6539,murphy_usa_us,,,Maryville,MO,,US,+1 660-562-2489,,Mo-Sa 05:30-22:30; Su 06:00-22:30,Murphy USA,Q19604459
mo_maryville_732-s-main-st,pizza_hut_us,732 S Main St,,Maryville,MO,,US,+1 660-562-2468,https://locations.pizzahut.com/mo/maryville/732-s-main-st,,Pizza Hut,Q191615
https://locations.qdoba.com/us/mo/maryville/800-university-dr.html,qdoba,QDOBA NW Missouri State,,Maryville,MO,,US,,https://locations.qdoba.com/us/mo/maryville/800-university-dr.html,Mo-Su 07:00-08:00,Qdoba,Q1363885
170,scooters_coffee_us,S Main St & W South Ave,,Maryville,MO,,US,+1 660-224-2207,,Mo-Sa 05:30-20:00; Su 06:00-20:00,Scooter's Coffee,Q117280308
https://stations.sinclairoil.com/mo/maryville/22979-us-highway-71,sinclair_us,Sinclair Gas Station,,Maryville,MO,,US,+1 660-582-2412,https://stations.sinclairoil.com/mo/maryville/22979-us-highway-71,Mo-Su 05:00-23:00,Sinclair,Q1290900
https://restaurants.subway.com/#14913138,subway,Subway,,Maryville Nodaway,MO,,US,+1 660-582-5544,https://restaurants.subway.com/united-states/mo/maryville/524-n-main,Mo-Su 08:00-22:00,Subway,Q244457
https://locations.tacobell.com/#6147000,taco_bell,Taco Bell,,Maryville,MO,,US,+1 660-562-3900,https://locations.tacobell.com/mo/maryville/1117-s-main-st.html,Mo-Th 07:00-01:00; Fr 07:00-02:00; Sa 08:00-02:00; Su 08:00-01:00,Taco Bell,Q752941
583715,taco_johns_us,Maryville,"1015 S Main St, Maryville MO 64468",Maryville,MO,,US,+1 660-582-8056,https://locations.tacojohns.com/mo/maryville/1015-s-main-st/,Mo-Fr 07:00-00:00; Sa-Su 07:00-02:00,Taco John's,Q7673962
101577,tjx,Maryville,1826 South Main St,Maryville,MO,,US,+1 660-562-0110,,Mo-Sa 10:00-21:00; Su 10:00-19:00,Marshalls,Q15903261
4ASF,tmobile_us,S Main St & E South Ave,,Maryville,MO,,US,+1 660-224-4610,https://www.t-mobile.com/store-locator/mo/maryville/s-main-st-e-south-ave,,T-Mobile,Q3511885
1372074,usps,MARYVILLE,,MARYVILLE,MO,,US,+1 660-582-2751,,Mo-Fr 08:30-17:00; Sa 08:30-12:00,United States Postal Service,Q668687
6446800021,usps_collection_boxes,USPS COLLECTION BOX - BLUE BOX,1605 S MAIN ST,MARYVILLE,MO,,US,,,,United States Postal Service,Q668687
6446800010,usps_collection_boxes,USPS COLLECTION BOX - BLUE BOX,1308 S MAIN ST,MARYVILLE,MO,,US,,,,United States Postal Service,Q668687
6446800004,usps_collection_boxes,USPS COLLECTION BOX - BLUE BOX,1719 E 1ST ST,MARYVILLE,MO,,US,,,,United States Postal Service,Q668687
6446800015,usps_collection_boxes,USPS COLLECTION BOX - BLUE BOX,116 E 3RD ST,MARYVILLE,MO,,US,,,,United States Postal Service,Q668687
6446800008,usps_collection_boxes,USPS COLLECTION BOX - BLUE BOX,115 E 4TH ST,MARYVILLE,MO,,US,,,,United States Postal Service,Q668687
6446800019,usps_collection_boxes,USPS COLLECTION BOX - PO LOBBY,507 N FILLMORE ST,MARYVILLE,MO,,US,,,,United States Postal Service,Q668687
6446800020,usps_collection_boxes,USPS COLLECTION BOX - PO LOBBY,507 N FILLMORE ST,MARYVILLE,MO,,US,,,,United States Postal Service,Q668687
6446800002,usps_collection_boxes,USPS COLLECTION BOX - BLUE BOX,507 N FILLMORE ST,MARYVILLE,MO,,US,,,,United States Postal Service,Q668687
6446800001,usps_collection_boxes,USPS COLLECTION BOX - BLUE BOX,507 N FILLMORE ST,MARYVILLE,MO,,US,,,,United States Postal Service,Q668687
6446800025,usps_collection_boxes,USPS COLLECTION BOX - PO LOBBY,507 N FILLMORE ST,MARYVILLE,MO,,US,,,,United States Postal Service,Q668687
,visa,,,MARYVILLE,MO,,US,,,,,
,visa,,,MARYVILLE,MO,,US,,,,,
,visa,,,MARYVILLE,MO,,US,,,,,
,visa,,,MARYVILLE,MO,,US,,,,,
,visa,,,MARYVILLE,MO,,US,,,,,
,visa,,,MARYVILLE,MO,,US,,,,,
,visa,,,MARYVILL,MO,,US,,,,,
,visa,,,MARYVILL,MO,,US,,,,,
,visa,,,MARYVILLE,MO,,US,,,,,
,visa,,,MARYVILLE,MO,,US,,,,,
,visa,,,MARYVILLE,MO,,US,,,,,
,visa,,,MARYVILLE,MO,,US,,,,,
,visa,,,MARYVILLE,MO,,US,,,,,
,visa,,,MARYVILLE,MO,,US,,,,,
,visa,,,MARYVILLE,MO,,US,,,,,
,visa,,,MARYVILLE,MO,,US,,,,,
,visa,,,MARYVILLE,MO,,US,,,,,
,visa,,,MARYVILLE,MO,,US,,,,,
,visa,,,MARRYVILLE,MO,,US,,,,,
,visa,,,MARYVILLE,MO,,US,,,,,
,visa,,,MARYVILLE,MO,,US,,,,,
,visa,,,MARYVILLE,MO,,US,,,,,
,visa,,,MARYVILLE,MO,,US,,,,,
,visa,,,MARYVILLE,MO,,US,,,,,
,visa,,,MARYVILLE,MO,,US,,,,,
,visa,,,MARYVILLE,MO,,US,,,,,
,visa,,,MARYVILLE,MO,,US,,,,,
,visa,,,MARYVILLE,MO,,US,,,,,
,visa,,,MARYVILLE,MO,,US,,,,,
,visa,,,MARYVILLE,MO,,US,,,,,
,visa,,,MARYVILLE,MO,,US,,,,,
,visa,,,MARYVILLE,MO,,US,,,,,
,visa,,,MARYVILLE,MO,,US,,,,,
e4522dcbae59fef14cea6b68aa3cf78e,western_union,WALMART #000801,,Maryville,MO,,US,+1 660-562-2994,https://location.westernunion.com/us/mo/maryville/e4522dcbae59fef14cea6b68aa3cf78e,Mo-Su 07:00-21:00,Western Union,Q861042
8ba14e3eddc7ad305c6ff6402dfee183,western_union,ADVANCE AMERICA #04801,,Maryville,MO,,US,+1 660-582-2360,https://location.westernunion.com/us/mo/maryville/8ba14e3eddc7ad305c6ff6402dfee183,Mo-Fr 10:00-18:00; Sa 10:00-14:00,Western Union,Q861042
1141,world_finance_us,,"1404 South Main Street, Maryville, MO, 64468",Maryville,MO,,US,+1 660-582-3243,https://www.loansbyworld.com/branches/branch-1141,Mo-Fr 09:00-17:30; Sa 09:00-12:00,World Finance,Q3569971
