Ref,Spider,Name,Address,City,State,Zipcode,Country,Phone,Website,Hours,Brand,WikiData
3618,abc_pl,abc,,Polkowice,dolnośląskie,,PL,,,,abc,Q11683985
4154,abc_pl,abc,,Polkowice,dolnośląskie,,PL,,,,abc,Q11683985
14411,abc_pl,abc,,Polkowice,dolnośląskie,,PL,,,,abc,Q11683985
PL001258,aldi_nord_pl,ALDI,,Polkowice,Dolnośląskie,,PL,+48 800 118 118,,Mo-Sa 07:00-22:00,ALDI,Q41171373
81,bricomarche_pl,Bricomarché Polkowice,,Polkowice,dolnośląskie,,PL,+48 76 845 61 10,https://www.bricomarche.pl/sklep/bricomarche-polkowice,,Bricomarché,Q2925147
https://www.credit-agricole.pl/kontakt/oddzial/1602-polkowice-kilinskiego,credit_agricole_pl,"Credit Agricole Kilińskiego 3, Polkowice",,Polkowice,dolnośląskie,,PL,19 019,https://www.credit-agricole.pl/kontakt/oddzial/1602-polkowice-kilinskiego,Mo-Fr 09:00-16:00,Credit Agricole,Q590952
204,mcdonalds_pl,McDonald's,,Polkowice,Dolnośląskie,,PL,+48 660 515 393,https://mcdonalds.pl/restauracje/dolnoslaskie/polkowice/polkowice-ul-mlynska-12,Mo-Su 06:00-24:00,McDonald's,Q38076
POL01A,paczkomat_inpost_pl,"Naprzeciwko wejścia do Pasażu, przy parkingu",,Polkowice,dolnośląskie,,PL,,https://inpost.pl/paczkomat-polkowice-pol01a-kopalniana-paczkomaty-dolnoslaskie,24/7,Paczkomat,Q110970254
POL01APP,paczkomat_inpost_pl,Market Dino,,Polkowice,dolnośląskie,,PL,,https://inpost.pl/paczkomat-polkowice-pol01app-chocianowska-paczkomaty-dolnoslaskie,24/7,Paczkomat,Q110970254
POL01L,paczkomat_inpost_pl,Stacja paliw Shell,,Polkowice,dolnośląskie,,PL,,https://inpost.pl/paczkomat-polkowice-pol01l-babisza-paczkomaty-dolnoslaskie,24/7,Paczkomat,Q110970254
POL01M,paczkomat_inpost_pl,"Po prawej stronie Parku, przy parkingu.",,Polkowice,dolnośląskie,,PL,,https://inpost.pl/paczkomat-polkowice-pol01m-mlynska-paczkomaty-dolnoslaskie,24/7,Paczkomat,Q110970254
POL01N,paczkomat_inpost_pl,Przy markecie Intermarche,,Polkowice,dolnośląskie,,PL,,https://inpost.pl/paczkomat-polkowice-pol01n-kolejowa-paczkomaty-dolnoslaskie,24/7,Paczkomat,Q110970254
POL02L,paczkomat_inpost_pl,Market Dino,,Polkowice,dolnośląskie,,PL,,https://inpost.pl/paczkomat-polkowice-pol02l-kolejowa-paczkomaty-dolnoslaskie,24/7,Paczkomat,Q110970254
POL02M,paczkomat_inpost_pl,Przy parkingu Lidla.,,Polkowice,dolnośląskie,,PL,,https://inpost.pl/paczkomat-polkowice-pol02m-kopalniana-paczkomaty-dolnoslaskie,24/7,Paczkomat,Q110970254
POL02N,paczkomat_inpost_pl,Przy sklepie spożywczo-przemysłowym,,Polkowice,dolnośląskie,,PL,,https://inpost.pl/paczkomat-polkowice-pol02n-wierzbowa-paczkomaty-dolnoslaskie,24/7,Paczkomat,Q110970254
POL03M,paczkomat_inpost_pl,Po prawej stronie od wejścia do sklepu.,,Polkowice,dolnośląskie,,PL,,https://inpost.pl/paczkomat-polkowice-pol03m-wolodyjowskiego-paczkomaty-dolnoslaskie,24/7,Paczkomat,Q110970254
POL04M,paczkomat_inpost_pl,Przy parkingu,,Polkowice,dolnośląskie,,PL,,https://inpost.pl/paczkomat-polkowice-pol04m-glogowska-paczkomaty-dolnoslaskie,24/7,Paczkomat,Q110970254
POL05M,paczkomat_inpost_pl,Po prawej stronie od wejścia.,,Polkowice,dolnośląskie,,PL,,https://inpost.pl/paczkomat-polkowice-pol05m-mlynska-paczkomaty-dolnoslaskie,24/7,Paczkomat,Q110970254
POL06M,paczkomat_inpost_pl,Po lewej stronie od wejścia.,,Polkowice,dolnośląskie,,PL,,https://inpost.pl/paczkomat-polkowice-pol06m-majora-hubala-paczkomaty-dolnoslaskie,24/7,Paczkomat,Q110970254
POL08M,paczkomat_inpost_pl,Obok wejścia do budynku,,Polkowice,dolnośląskie,,PL,,https://inpost.pl/paczkomat-polkowice-pol08m-gornikow-paczkomaty-dolnoslaskie,24/7,Paczkomat,Q110970254
POL09M,paczkomat_inpost_pl,Boczna ściana budynku,,Polkowice,dolnośląskie,,PL,,https://inpost.pl/paczkomat-polkowice-pol09m-chocianowska-paczkomaty-dolnoslaskie,24/7,Paczkomat,Q110970254
POL10M,paczkomat_inpost_pl,Przy markecie Aldi,,Polkowice,dolnośląskie,,PL,,https://inpost.pl/paczkomat-polkowice-pol10m-mlynska-paczkomaty-dolnoslaskie,24/7,Paczkomat,Q110970254
POP-POL7,paczkomat_inpost_pl,DUŻY BEN,,Polkowice,dolnośląskie,,PL,,https://inpost.pl/paczkomat-polkowice-pop-pol7-hubala-paczkomaty-dolnoslaskie,Mo-Sa 10:00-23:00,Paczkomat,Q110970254
592,play_pl,Salon Play,Ul. Browarna 22,Polkowice,dolnośląskie,,PL,+48 790 031 267,,Mo-Fr 09:00-17:00; Sa 09:00-13:00,Play,Q7202998
976263,poczta_polska_pl,FUP Polkowice 3,,Polkowice,DOLNOŚLĄSKIE,,PL,+48 76 841 25 16,,,Poczta Polska,Q168833
7091,tedi,TEDi Sieć Handlowa Sp. z o.o.,,Polkowice,Dolnośląskie,,PL,+48 32 450 36 20,https://www.tedi.com/stores/7091/pl/Dolnośląskie/Polkowice/Młyńska-2A,Mo-Sa 10:00-18:00,TEDi,Q1364603
,visa,,,POLKOWICE,DOLNOŚLĄSKIE,,PL,,,,,
,visa,,,POLKOWICE,DOLNOŚLĄSKIE,,PL,,,,,
,visa,,,POLKOWICE,DOLNOŚLĄSKIE,,PL,,,,,
,visa,,,POLKOWICE,DOLNOŚLĄSKIE,,PL,,,,,
,visa,,,POLKOWICE,DOLNOŚLĄSKIE,,PL,,,,,
