Ref,Spider,Name,Address,City,State,Zipcode,Country,Phone,Website,Hours,Brand,WikiData
746,biggby_coffee_us,Biggby Coffee,12850 Super Dr Sawyer MI 49125,Sawyer,MI,,US,+1 269-405-1037,,Mo-Su 06:00-19:00,Biggby Coffee,Q4906876
172649,bluerhino,Family Dollar #11285,,Sawyer,MI,,US,+1 269-462-7115,,,Blue Rhino,Q65681213
113556,bluerhino,TruServ #11934-2- Sawyer Garden Center,,Sawyer,MI,,US,+1 269-426-8810,,,Blue Rhino,Q65681213
13780026661004912500100000000000,bp,BP,,Sawyer,MI,,US,+1 269-426-4884,,24/7,BP,Q152057
,credit_union_us,Everwise CU,,Sawyer,MI,,US,+1 800-552-4745,,Mo-Th 09:00-04:30; Fr 09:00-05:00,,
31285,family_dollar_us,FAMILY DOLLAR #11285,,Sawyer,MI,,US,+1 269-462-7115,https://www.familydollar.com/locations/mi/sawyer/31285/,Mo-Su 08:00-22:00,Family Dollar,Q5433101
https://locations.53.com/#3033770,fifththirdbank,Fifth Third Bank Sawyer,,Sawyer,MI,,US,+1 269-426-4401,https://locations.53.com/mi/sawyer/12912-three-oaks-road.html,Mo-Fr 09:00-17:00; Sa 09:00-12:00,Fifth Third Bank,Q1411810
159973,marathon_petroleum_us,DUNES TRAVEL PLAZA,,SAWYER,MI,,US,+1 269-426-3246,,,Marathon,Q458363
4068,mightyflame,IGA SAWYER MARKET,,SAWYER,MI,,US,+1 269-426-4646,,,Mighty Flame,
mi_sawyer_6100-sawyer-road-80044495,pizza_hut_us,6100 Sawyer Road,,Sawyer,MI,,US,,https://locations.pizzahut.com/mi/sawyer/6100-sawyer-road-80044495,,Pizza Hut,Q191615
mi_sawyer_6100-sawyer-road-14043240,pizza_hut_us,6100 Sawyer Road,,Sawyer,MI,,US,,https://locations.pizzahut.com/mi/sawyer/6100-sawyer-road-14043240,,Pizza Hut,Q191615
restaurant_82821,popeyes_us_fr,Popeyes,"6100 Sawyer Rd Sawyer, Michigan 49125 - USA",Sawyer,MI,,US,+1 269-426-4884,https://www.popeyes.com/store-locator/store/restaurant_82821,Mo-Su 09:00-22:00,Popeyes,Q1330910
https://locations.tacobell.com/#17283417,taco_bell,Taco Bell,,Sawyer,MI,,US,+1 269-426-7704,https://locations.tacobell.com/mi/sawyer/6100-sawyer-road.html,,Taco Bell,Q752941
0116,travelcenters_of_america_us,TA Sawyer #0116,,Sawyer,MI,,US,+1 269-426-4884,https://www.ta-petro.com/location/mi/ta-sawyer/,,TA,Q7835892
1380888,usps,SAWYER,,SAWYER,MI,,US,+1 269-426-4333,,"Mo-Fr 09:30-11:30,12:30-17:00; Sa 09:00-11:00",United States Postal Service,Q668687
4912500004,usps_collection_boxes,USPS COLLECTION BOX - BLUE BOX,12684 OAK PARK AVE,SAWYER,MI,,US,,,,United States Postal Service,Q668687
4912500003,usps_collection_boxes,USPS COLLECTION BOX - BLUE BOX,12370 TOWER HILL RD,SAWYER,MI,,US,,,,United States Postal Service,Q668687
4912500002,usps_collection_boxes,USPS COLLECTION BOX - BLUE BOX,6100 SAWYER RD,SAWYER,MI,,US,,,,United States Postal Service,Q668687
4912500007,usps_collection_boxes,USPS COLLECTION BOX - PO LOBBY,5835 SAWYER RD,SAWYER,MI,,US,,,,United States Postal Service,Q668687
4912500001,usps_collection_boxes,USPS COLLECTION BOX - BLUE BOX,5835 SAWYER RD,SAWYER,MI,,US,,,,United States Postal Service,Q668687
4912500006,usps_collection_boxes,USPS COLLECTION BOX - PO LOBBY,5835 SAWYER RD,SAWYER,MI,,US,,,,United States Postal Service,Q668687
,visa,,,SAWYER,MI,,US,,,,,
,visa,,,SAWYER,MI,,US,,,,,
,visa,,,SAWYER,MI,,US,,,,,
,visa,,,SAWYER,MI,,US,,,,,
,visa,,,SAWYER,MI,,US,,,,,
,visa,,,SAWYER,MI,,US,,,,,
,visa,,,SAWYER,MI,,US,,,,,
