Ref,Spider,Name,Address,City,State,Zipcode,Country,Phone,Website,Hours,Brand,WikiData
https://www.sixt.co.uk/car-hire/egypt/cairo/cairo-new-cairo-downtown-mall/,sixt,Car Hire Cairo-New Cairo/Downtown Mall | SIXT rent a car,,Cairo,,,EG,,https://www.sixt.co.uk/car-hire/egypt/cairo/cairo-new-cairo-downtown-mall/,Mo-Th 09:00-17:30; Sa-Su 09:00-17:30,SIXT,Q705664
,visa,,,PORT SAIED,,,EG,,,,,
,visa,,,PORT SAIED,,,EG,,,,,
,visa,,,PORT SAIED,,,EG,,,,,
,visa,,,PORT SAIED,,,EG,,,,,
,visa,,,EL GHARBIA,,,EG,,,,,
,visa,,,GHRABIA,,,EG,,,,,
,visa,,,AL GHARBIYAH,,,EG,,,,,
,visa,,,EL GHARBIA,,,EG,,,,,
,visa,,,EL GHARBIA,,,EG,,,,,
,visa,,,EL GHARBIA,,,EG,,,,,
,visa,,,AL GHARBIYAH,,,EG,,,,,
,visa,,,AL GHARBIYAH,,,EG,,,,,
,visa,,,ASWAN,,,EG,,,,,
,visa,,,ASWAN,,,EG,,,,,
,visa,,,ASWAN,,,EG,,,,,
,visa,,,ASWAN,,,EG,,,,,
,visa,,,ASWAN,,,EG,,,,,
,visa,,,ASWAN,,,EG,,,,,
,visa,,,ASWAN,,,EG,,,,,
,visa,,,ASWAN,,,EG,,,,,
,visa,,,EL BEHIRA,,,EG,,,,,
,visa,,,EL BEHIRA,,,EG,,,,,
,visa,,,EL BEHIRA,,,EG,,,,,
,visa,,,EL BEHIRA,,,EG,,,,,
,visa,,,EL BEHIRA,,,EG,,,,,
,visa,,,SOHAG,,,EG,,,,,
,visa,,,SOHAG,,,EG,,,,,
,visa,,,SOHAG,,,EG,,,,,
,visa,,,SOHAG,,,EG,,,,,
,visa,,,SOHAG,,,EG,,,,,
,visa,,,SOHAG,,,EG,,,,,
,visa,,,SOHAG,,,EG,,,,,
,visa,,,SOHAG,,,EG,,,,,
,visa,,,SOHAG,,,EG,,,,,
,visa,,,SOHAG,,,EG,,,,,
,visa,,,ASSIOUT,,,EG,,,,,
,visa,,,ASUTE,,,EG,,,,,
,visa,,,ASSIOUT,,,EG,,,,,
,visa,,,ASYUT,,,EG,,,,,
,visa,,,MARSA MATRUH,,,EG,,,,,
,visa,,,MARSA MATRUH,,,EG,,,,,
,visa,,,LUXOR,,,EG,,,,,
,visa,,,LUXOR,,,EG,,,,,
,visa,,,LUXOR,,,EG,,,,,
,visa,,,LUXOR,,,EG,,,,,
,visa,,,EL LUXOR,,,EG,,,,,
,visa,,,LUXOR,,,EG,,,,,
,visa,,,LUXOR,,,EG,,,,,
,visa,,,RED SEA,,,EG,,,,,
,visa,,,EL MONOFYA,,,EG,,,,,
,visa,,,EL MONOFIA,,,EG,,,,,
,visa,,,SAMALUT,,,EG,,,,,
,visa,,,BANI MAZAR,,,EG,,,,,
,visa,,,QENA,,,EG,,,,,
,visa,,,QINA,,,EG,,,,,
,visa,,,QINA,,,EG,,,,,
,visa,,,QUNA,,,EG,,,,,
,visa,,,SINAI,,,EG,,,,,
,visa,,,SINAI,,,EG,,,,,
,visa,,,SINAI,,,EG,,,,,
,visa,,,SINAI,,,EG,,,,,
,visa,,,SINAI,,,EG,,,,,
,visa,,,SINAI,,,EG,,,,,
,visa,,,SINAI,,,EG,,,,,
,visa,,,FAYOUM,,,EG,,,,,
,visa,,,AL FAYYUM,,,EG,,,,,
,visa,,,FAYOUM,,,EG,,,,,
,visa,,,FAUOM,,,EG,,,,,
,visa,,,EL FAYOM,,,EG,,,,,
,visa,,,BANI SWIF,,,EG,,,,,
,visa,,,BANI SWIF,,,EG,,,,,
,visa,,,AL MANSURA,,,EG,,,,,
,visa,,,AL MANSURAH,,,EG,,,,,
,visa,,,AL MANSURAH,,,EG,,,,,
,visa,,,EL WADI EL GDID,,,EG,,,,,
,visa,,,AL WADI EL GDID,,,EG,,,,,
,visa,,,SADAT CITY,,,EG,,,,,
,visa,,,CAIRO,,,EG,,,,,
,visa,,,CAIRO,,,EG,,,,,
,visa,,,ALEXANDRIA,,,EG,,,,,
,visa,,,BANI SUWAYF,,,EG,,,,,
,visa,,,BANI SUWAYF,,,EG,,,,,
,visa,,,BANI SUWAYF,,,EG,,,,,
,visa,,,CAIRO,,,EG,,,,,
,visa,,,CAIRO,,,EG,,,,,
,visa,,,CAIRO,,,EG,,,,,
,visa,,,CAIRO,,,EG,,,,,
,visa,,,SAFAGA,,,EG,,,,,
,visa,,,GIZA,,,EG,,,,,
,visa,,,CAIRO,,,EG,,,,,
,visa,,,CAIRO,,,EG,,,,,
,visa,,,CAIRO,,,EG,,,,,
,visa,,,CAIRO,,,EG,,,,,
,visa,,,CAIRO,,,EG,,,,,
,visa,,,CAIRO,,,EG,,,,,
,visa,,,CAIRO,,,EG,,,,,
,visa,,,CAIRO,,,EG,,,,,
,visa,,,CAIRO,,,EG,,,,,
,visa,,,CAIRO,,,EG,,,,,
,visa,,,CAIRO,,,EG,,,,,
,visa,,,CAIRO,,,EG,,,,,
,visa,,,CAIRO,,,EG,,,,,
,visa,,,KAFR ALDWAR,,,EG,,,,,
,visa,,,CAIRO,,,EG,,,,,
,visa,,,CAIRO,,,EG,,,,,
,visa,,,CAIRO,,,EG,,,,,
,visa,,,CAIRO,,,EG,,,,,
,visa,,,CAIRO,,,EG,,,,,
,visa,,,CAIRO,,,EG,,,,,
,visa,,,CAIRO,,,EG,,,,,
,visa,,,CAIRO,,,EG,,,,,
,visa,,,CAIRO,,,EG,,,,,
,visa,,,CAIRO,,,EG,,,,,
,visa,,,CAIRO,,,EG,,,,,
,visa,,,CAIRO,,,EG,,,,,
,visa,,,CAIRO,,,EG,,,,,
,visa,,,CAIRO,,,EG,,,,,
,visa,,,CAIRO,,,EG,,,,,
,visa,,,CAIRO,,,EG,,,,,
,visa,,,CAIRO,,,EG,,,,,
,visa,,,CAIRO,,,EG,,,,,
,visa,,,CAIRO,,,EG,,,,,
,visa,,,CAIRO,,,EG,,,,,
,visa,,,CAIRO,,,EG,,,,,
,visa,,,41918,,,EG,,,,,
,visa,,,PORTO SOKHNA,,,EG,,,,,
,visa,,,CAIRO,,,EG,,,,,
,visa,,,CAIRO,,,EG,,,,,
,visa,,,CAIRO,,,EG,,,,,
,visa,,,CAIRO,,,EG,,,,,
,visa,,,CAIRO,,,EG,,,,,
,visa,,,CAIRO,,,EG,,,,,
,visa,,,CAIRO,,,EG,,,,,
,visa,,,CAIRO,,,EG,,,,,
,visa,,,CAIRO,,,EG,,,,,
,visa,,,CAIRO,,,EG,,,,,
,visa,,,CAIRO,,,EG,,,,,
,visa,,,CAIRO,,,EG,,,,,
,visa,,,CAIRO,,,EG,,,,,
,visa,,,CAIRO,,,EG,,,,,
,visa,,,CAIRO,,,EG,,,,,
,visa,,,CAIRO,,,EG,,,,,
,visa,,,CAIRO,,,EG,,,,,
,visa,,,CAIRO,,,EG,,,,,
,visa,,,CAIRO,,,EG,,,,,
,visa,,,CAIRO,,,EG,,,,,
,visa,,,CAIRO,,,EG,,,,,
,visa,,,CAIRO,,,EG,,,,,
,visa,,,CAIRO,,,EG,,,,,
,visa,,,ALEX,,,EG,,,,,
,visa,,,ALEX,,,EG,,,,,
,visa,,,ALEX,,,EG,,,,,
,visa,,,ALEX,,,EG,,,,,
,visa,,,ALEX,,,EG,,,,,
,visa,,,ALEX,,,EG,,,,,
,visa,,,ALEX,,,EG,,,,,
,visa,,,ALEX,,,EG,,,,,
,visa,,,ALEX,,,EG,,,,,
,visa,,,ALEX,,,EG,,,,,
,visa,,,ALEX,,,EG,,,,,
,visa,,,ALEX,,,EG,,,,,
,visa,,,ALEX,,,EG,,,,,
,visa,,,ALEX,,,EG,,,,,
,visa,,,ALEX,,,EG,,,,,
,visa,,,ALEX,,,EG,,,,,
,visa,,,ALEX,,,EG,,,,,
,visa,,,ALEX,,,EG,,,,,
,visa,,,ALEX,,,EG,,,,,
,visa,,,ALEX,,,EG,,,,,
,visa,,,ALEX,,,EG,,,,,
,visa,,,ALEX,,,EG,,,,,
,visa,,,ALEX,,,EG,,,,,
,visa,,,ALEX,,,EG,,,,,
,visa,,,ALEX,,,EG,,,,,
,visa,,,ALEX,,,EG,,,,,
,visa,,,ALEX,,,EG,,,,,
,visa,,,ALEX,,,EG,,,,,
,visa,,,ALEX,,,EG,,,,,
,visa,,,ALEX,,,EG,,,,,
,visa,,,ALEX,,,EG,,,,,
,visa,,,ALEX,,,EG,,,,,
,visa,,,ALEX,,,EG,,,,,
,visa,,,ALEX,,,EG,,,,,
,visa,,,ALEX,,,EG,,,,,
,visa,,,ALEX,,,EG,,,,,
,visa,,,ALEX,,,EG,,,,,
,visa,,,ALEX,,,EG,,,,,
,visa,,,ALEX,,,EG,,,,,
,visa,,,ALEX,,,EG,,,,,
,visa,,,ALEX,,,EG,,,,,
,visa,,,ALEX,,,EG,,,,,
,visa,,,ALEX,,,EG,,,,,
,visa,,,ALEX,,,EG,,,,,
,visa,,,ALEX,,,EG,,,,,
,visa,,,ALEX,,,EG,,,,,
,visa,,,ALEX,,,EG,,,,,
,visa,,,ALEX,,,EG,,,,,
,visa,,,ALEX,,,EG,,,,,
,visa,,,ALEX,,,EG,,,,,
,visa,,,ALEX,,,EG,,,,,
,visa,,,ALEX,,,EG,,,,,
,visa,,,ALEX,,,EG,,,,,
,visa,,,ALEX,,,EG,,,,,
,visa,,,ALEX,,,EG,,,,,
,visa,,,CAIRO,,,EG,,,,,
,visa,,,CAIRO,,,EG,,,,,
,visa,,,CAIRO,,,EG,,,,,
,visa,,,CAIRO,,,EG,,,,,
,visa,,,CAIRO,,,EG,,,,,
,visa,,,CAIRO,,,EG,,,,,
,visa,,,CAIRO,,,EG,,,,,
,visa,,,CAIRO,,,EG,,,,,
,visa,,,CAIRO,,,EG,,,,,
,visa,,,CAIRO,,,EG,,,,,
,visa,,,CAIRO,,,EG,,,,,
,visa,,,CAIRO,,,EG,,,,,
,visa,,,CAIRO,,,EG,,,,,
,visa,,,CAIRO,,,EG,,,,,
,visa,,,CAIRO,,,EG,,,,,
,visa,,,CAIRO,,,EG,,,,,
,visa,,,CAIRO,,,EG,,,,,
,visa,,,CAIRO,,,EG,,,,,
,visa,,,CAIRO,,,EG,,,,,
,visa,,,CAIRO,,,EG,,,,,
,visa,,,CAIRO,,,EG,,,,,
,visa,,,CAIRO,,,EG,,,,,
,visa,,,CAIRO,,,EG,,,,,
,visa,,,CAIRO,,,EG,,,,,
,visa,,,CAIRO,,,EG,,,,,
,visa,,,CAIRO,,,EG,,,,,
,visa,,,CAIRO,,,EG,,,,,
,visa,,,CAIRO,,,EG,,,,,
,visa,,,CAIRO,,,EG,,,,,
,visa,,,CAIRO,,,EG,,,,,
,visa,,,CAIRO,,,EG,,,,,
,visa,,,CAIRO,,,EG,,,,,
,visa,,,CAIRO,,,EG,,,,,
,visa,,,CAIRO,,,EG,,,,,
,visa,,,CAIRO,,,EG,,,,,
,visa,,,CAIRO,,,EG,,,,,
,visa,,,CAIRO,,,EG,,,,,
,visa,,,CAIRO,,,EG,,,,,
,visa,,,CAIRO,,,EG,,,,,
,visa,,,CAIRO,,,EG,,,,,
,visa,,,CAIRO,,,EG,,,,,
,visa,,,CAIRO,,,EG,,,,,
,visa,,,CAIRO,,,EG,,,,,
,visa,,,CAIRO,,,EG,,,,,
,visa,,,CAIRO,,,EG,,,,,
,visa,,,CAIRO,,,EG,,,,,
,visa,,,CAIRO,,,EG,,,,,
,visa,,,CAIRO,,,EG,,,,,
,visa,,,CAIRO,,,EG,,,,,
,visa,,,CAIRO,,,EG,,,,,
,visa,,,CAIRO,,,EG,,,,,
,visa,,,CAIRO,,,EG,,,,,
,visa,,,CAIRO,,,EG,,,,,
,visa,,,CAIRO,,,EG,,,,,
,visa,,,CAIRO,,,EG,,,,,
,visa,,,CAIRO,,,EG,,,,,
,visa,,,CAIRO,,,EG,,,,,
,visa,,,CAIRO,,,EG,,,,,
,visa,,,CAIRO,,,EG,,,,,
,visa,,,CAIRO,,,EG,,,,,
,visa,,,CAIRO,,,EG,,,,,
,visa,,,CAIRO,,,EG,,,,,
,visa,,,CAIRO,,,EG,,,,,
,visa,,,CAIRO,,,EG,,,,,
,visa,,,CAIRO,,,EG,,,,,
,visa,,,CAIRO,,,EG,,,,,
,visa,,,CAIRO,,,EG,,,,,
,visa,,,CAIRO,,,EG,,,,,
,visa,,,CAIRO,,,EG,,,,,
,visa,,,CAIRO,,,EG,,,,,
,visa,,,CAIRO,,,EG,,,,,
,visa,,,CAIRO,,,EG,,,,,
,visa,,,CAIRO,,,EG,,,,,
,visa,,,CAIRO,,,EG,,,,,
,visa,,,CAIRO,,,EG,,,,,
,visa,,,CAIRO,,,EG,,,,,
,visa,,,CAIRO,,,EG,,,,,
,visa,,,CAIRO,,,EG,,,,,
,visa,,,CAIRO,,,EG,,,,,
,visa,,,CAIRO,,,EG,,,,,
,visa,,,CAIRO,,,EG,,,,,
,visa,,,CAIRO,,,EG,,,,,
,visa,,,CAIRO,,,EG,,,,,
,visa,,,CAIRO,,,EG,,,,,
,visa,,,CAIRO,,,EG,,,,,
,visa,,,CAIRO,,,EG,,,,,
,visa,,,CAIRO,,,EG,,,,,
,visa,,,MONOFYA,,,EG,,,,,
,visa,,,MONOFIA,,,EG,,,,,
,visa,,,MONOFYA,,,EG,,,,,
,visa,,,MONOFYA,,,EG,,,,,
,visa,,,MONOFIA,,,EG,,,,,
,visa,,,MONOFYA,,,EG,,,,,
,visa,,,MONOFYA,,,EG,,,,,
,visa,,,MONOFYA,,,EG,,,,,
,visa,,,MONOFYA,,,EG,,,,,
,visa,,,MONOFIA,,,EG,,,,,
,visa,,,CAIRO,,,EG,,,,,
,visa,,,CAIRO,,,EG,,,,,
,visa,,,ABU HUMMUS,,,EG,,,,,
,visa,,,CAIRO,,,EG,,,,,
,visa,,,CAIRO,,,EG,,,,,
,visa,,,CAIRO,,,EG,,,,,
,visa,,,CAIRO,,,EG,,,,,
,visa,,,CAIRO,,,EG,,,,,
,visa,,,CAIRO,,,EG,,,,,
,visa,,,CAIRO,,,EG,,,,,
,visa,,,CAIRO,,,EG,,,,,
,visa,,,CAIRO,,,EG,,,,,
,visa,,,CAIRO,,,EG,,,,,
,visa,,,CAIRO,,,EG,,,,,
,visa,,,CAIRO,,,EG,,,,,
,visa,,,CAIRO,,,EG,,,,,
,visa,,,CAIRO,,,EG,,,,,
,visa,,,CAIRO,,,EG,,,,,
,visa,,,CAIRO,,,EG,,,,,
,visa,,,CAIRO,,,EG,,,,,
,visa,,,CAIRO,,,EG,,,,,
,visa,,,CAIRO,,,EG,,,,,
,visa,,,CAIRO,,,EG,,,,,
,visa,,,CAIRO,,,EG,,,,,
,visa,,,CAIRO,,,EG,,,,,
,visa,,,CAIRO,,,EG,,,,,
,visa,,,CAIRO,,,EG,,,,,
,visa,,,CAIRO,,,EG,,,,,
,visa,,,CAIRO,,,EG,,,,,
,visa,,,CAIRO,,,EG,,,,,
,visa,,,CAIRO,,,EG,,,,,
,visa,,,CAIRO,,,EG,,,,,
,visa,,,CAIRO,,,EG,,,,,
,visa,,,CAIRO,,,EG,,,,,
,visa,,,CAIRO,,,EG,,,,,
,visa,,,CAIRO,,,EG,,,,,
,visa,,,CAIRO,,,EG,,,,,
,visa,,,CAIRO,,,EG,,,,,
,visa,,,CAIRO,,,EG,,,,,
,visa,,,BEHIRAA,,,EG,,,,,
,visa,,,CAIRO,,,EG,,,,,
,visa,,,HURGHADA,,,EG,,,,,
,visa,,,HURGHADA,,,EG,,,,,
,visa,,,HURGHADA,,,EG,,,,,
,visa,,,HURGHADA,,,EG,,,,,
,visa,,,HURGHADA,,,EG,,,,,
,visa,,,HURGHADA,,,EG,,,,,
,visa,,,HURGHADA,,,EG,,,,,
,visa,,,HURGHADA,,,EG,,,,,
,visa,,,HURGHADA,,,EG,,,,,
,visa,,,HURGHADA,,,EG,,,,,
,visa,,,HURGHADA,,,EG,,,,,
,visa,,,HURGHADA,,,EG,,,,,
,visa,,,HURGHADA,,,EG,,,,,
,visa,,,BEHIRA,,,EG,,,,,
,visa,,,BEHIRA,,,EG,,,,,
,visa,,,CAIRO,,,EG,,,,,
,visa,,,CAIRO,,,EG,,,,,
,visa,,,CAIRO,,,EG,,,,,
,visa,,,AL MINYAH,,,EG,,,,,
,visa,,,AL MINYAH,,,EG,,,,,
,visa,,,AL MINYAH,,,EG,,,,,
,visa,,,AL MINYAH,,,EG,,,,,
,visa,,,AL MINYAH,,,EG,,,,,
,visa,,,DAMANHOUR,,,EG,,,,,
,visa,,,CAIRO,,,EG,,,,,
,visa,,,ITAY AL BARUD,,,EG,,,,,
,visa,,,CAIRO,,,EG,,,,,
,visa,,,CAIRO,,,EG,,,,,
,visa,,,CAIRO,,,EG,,,,,
,visa,,,CAIRO,,,EG,,,,,
,visa,,,CAIRO,,,EG,,,,,
,visa,,,CAIRO,,,EG,,,,,
,visa,,,CAIRO,,,EG,,,,,
,visa,,,CAIRO,,,EG,,,,,
,visa,,,CAIRO,,,EG,,,,,
,visa,,,CAIRO,,,EG,,,,,
,visa,,,CAIRO,,,EG,,,,,
,visa,,,CAIRO,,,EG,,,,,
,visa,,,CAIRO,,,EG,,,,,
,visa,,,RA''S GHARIB,,,EG,,,,,
,visa,,,BASYUN,,,EG,,,,,
,visa,,,DISUK,,,EG,,,,,
,visa,,,TANTA,,,EG,,,,,
,visa,,,TANTA,,,EG,,,,,
,visa,,,RASHID,,,EG,,,,,
,visa,,,QUNA,,,EG,,,,,
,visa,,,QUNA,,,EG,,,,,
,visa,,,KAFR EL SHEIKH,,,EG,,,,,
,visa,,,QUTUR,,,EG,,,,,
,visa,,,ZIFTA,,,EG,,,,,
,visa,,,NUBAH,,,EG,,,,,
,visa,,,KAFR EL SHEIKH,,,EG,,,,,
,visa,,,KAFR EL SHIEKH,,,EG,,,,,
,visa,,,SHARQIA,,,EG,,,,,
,visa,,,SHARQIA,,,EG,,,,,
,visa,,,SHARQIA,,,EG,,,,,
,visa,,,SHRQIA,,,EG,,,,,
,visa,,,SHRQIA,,,EG,,,,,
,visa,,,RAS SEDR,,,EG,,,,,
,visa,,,MANSOURA,,,EG,,,,,
,visa,,,KAFR SAQR,,,EG,,,,,
,visa,,,EL DAKAHLIA,,,EG,,,,,
,visa,,,DAKHLIA,,,EG,,,,,
,visa,,,EL DAKAHLIA,,,EG,,,,,
,visa,,,EL DAKAHLIA,,,EG,,,,,
,visa,,,EL DAKAHLIA,,,EG,,,,,
,visa,,,EL DAKAHLIA,,,EG,,,,,
,visa,,,ABU KABIR,,,EG,,,,,
,visa,,,GARBIA,,,EG,,,,,
,visa,,,EL MANIA,,,EG,,,,,
,visa,,,EL MANIA,,,EG,,,,,
,visa,,,EL MANIA,,,EG,,,,,
,visa,,,SUEZ,,,EG,,,,,
,visa,,,SHARM EL SHEIKH,,,EG,,,,,
,visa,,,SHARM EL SHEIKH,,,EG,,,,,
,visa,,,SHARM EL SHEIKH,,,EG,,,,,
,visa,,,SHARM EL SHEIKH,,,EG,,,,,
,visa,,,SHARM EL SHEIKH,,,EG,,,,,
,visa,,,SHARM EL SHEIKH,,,EG,,,,,
,visa,,,SHARM EL SHEIKH,,,EG,,,,,
,visa,,,SHARM EL SHEIKH,,,EG,,,,,
,visa,,,SHARM EL SHEIKH,,,EG,,,,,
,visa,,,SHARM EL SHEIKH,,,EG,,,,,
,visa,,,SHARM EL SHEIKH,,,EG,,,,,
,visa,,,SHARM EL SHEIKH,,,EG,,,,,
,visa,,,SHARM EL SHEIKH,,,EG,,,,,
,visa,,,SHARM EL SHEIKH,,,EG,,,,,
,visa,,,SHARM EL SHEIKH,,,EG,,,,,
,visa,,,SHARM EL SHEIKH,,,EG,,,,,
,visa,,,SHARM EL SHEIKH,,,EG,,,,,
,visa,,,SHARM EL SHEIKH,,,EG,,,,,
,visa,,,SHARM EL SHEIKH,,,EG,,,,,
,visa,,,SHARM EL SHEIKH,,,EG,,,,,
,visa,,,SHARM EL SHEIKH,,,EG,,,,,
,visa,,,SHARM EL SHEIKH,,,EG,,,,,
,visa,,,SHARM EL SHEIKH,,,EG,,,,,
,visa,,,SUEZ,,,EG,,,,,
,visa,,,SUEZ,,,EG,,,,,
,visa,,,BALTIM,,,EG,,,,,
,visa,,,FAYID,,,EG,,,,,
,visa,,,DIKIRNIS,,,EG,,,,,
,visa,,,EL QALIOBIA,,,EG,,,,,
,visa,,,MINYAT AN NASR,,,EG,,,,,
,visa,,,EL ISMILIA,,,EG,,,,,
,visa,,,JAMASAH,,,EG,,,,,
,visa,,,ISMAILIA,,,EG,,,,,
,visa,,,ISMAILIA,,,EG,,,,,
,visa,,,ISMAILIA,,,EG,,,,,
,visa,,,ISMAILIA,,,EG,,,,,
,visa,,,AL MANZALAH,,,EG,,,,,
,visa,,,AL MANZALAH,,,EG,,,,,
,visa,,,DOMIAAT,,,EG,,,,,
,visa,,,DUMYAT,,,EG,,,,,
,visa,,,DUMYAT,,,EG,,,,,
,visa,,,DUMYAT,,,EG,,,,,
,visa,,,DOMIAT,,,EG,,,,,
,visa,,,DOMIAT,,,EG,,,,,
,visa,,,DOMIAT,,,EG,,,,,
,visa,,,DAHAB,,,EG,,,,,
,visa,,,PORT FOUAD,,,EG,,,,,
,visa,,,SHARQIA,,,EG,,,,,
,visa,,,EL SHRQIA,,,EG,,,,,
,visa,,,PORT SAID,,,EG,,,,,
,visa,,,TABA,,,EG,,,,,
,visa,,,TABA,,,EG,,,,,
,visa,,,TABA,,,EG,,,,,
,visa,,,AL ARISH,,,EG,,,,,
