Ref,Spider,Name,Address,City,State,Zipcode,Country,Phone,Website,Hours,Brand,WikiData
1660700048,banque_populaire_fr,LEUCATE,,LEUCATE,,,FR,+33 4 68 27 12 22,https://agences.banquepopulaire.fr/banque-assurance/agence-leucate-id1660700048,"Mo-We 09:00-12:30,13:30-17:30; Th 09:00-12:30,15:00-17:30; Fr 09:00-12:30,13:30-17:30",Banque Populaire,Q846647
7279,carrefour_fr,Carrefour Contact,,Leucate,,,FR,+33 4 68 40 50 50,https://www.carrefour.fr/magasin/contact-leucate,Mo-Sa 08:00-20:00; Su 08:00-12:30,Carrefour Contact,Q2940188
1976585791,century_21_fr,CENTURY 21 Zénith,,LEUCATE,,,FR,+33 4 68 41 18 77,https://www.century21.fr/trouver_agence/agence/1976585791/,,Century 21,Q1054480
https://www.credit-agricole.fr/particulier/agence/languedoc/leucate-4088.html,credit_agricole,Crédit Agricole,,LEUCATE,,,FR,+33 4 68 10 72 61,https://www.credit-agricole.fr/particulier/agence/languedoc/leucate-4088.html,"Mo-We 08:30-12:15,13:45-17:30; Th 09:15-12:15,13:45-17:30; Fr 08:30-12:15,13:45-17:30",Credit Agricole,Q590952
3731,lidl_fr,LEUCATE Roseaux,,LEUCATE,,,FR,,,Mo-Sa 08:30-20:00; Su 08:30-12:30,Lidl,Q151954
1649,mcdonalds_fr,PORT LEUCATE,,LEUCATE,,,FR,+33 4 68 57 74 87,https://www.mcdonalds.fr/restaurants/mcdonalds-port-leucate/1649,Mo-Th 10:00-22:00; Fr-Sa 10:00-23:00; Su 10:00-22:00,McDonald's,Q38076
spar-leucate-sagne,spar_fr,SPAR Leucate Sagne,,Leucate,,,FR,+33 4 68 40 94 95,https://magasins.spar.fr/fr/s/spar-leucate-sagne,Mo-Su 08:00-20:00,Spar,Q610492
spar-leucate-port-pavillon,spar_fr,SPAR Leucate Port Pavillon,,Leucate,,,FR,+33 4 68 45 78 00,https://magasins.spar.fr/fr/s/spar-leucate-port-pavillon,Mo-Su 08:00-20:00,Spar,Q610492
NF982236,totalenergies,ESSO,,PORT LEUCATE,,,FR,,https://store.totalenergies.fr/en_EN/NF982236,,Esso,Q867662
,visa,,,PORT LEUCATE,,,FR,,,,,
,visa,,,LEUCATE,,,FR,,,,,
,visa,,,LEUCATE,,,FR,,,,,
,visa,,,LA FRANQUI LEUCATE,,,FR,,,,,
,visa,,,PORT LEUCATE,,,FR,,,,,
,visa,,,LEUCATE,,,FR,,,,,
,visa,,,LEUCATE,,,FR,,,,,
,visa,,,LEUCATE,,,FR,,,,,
,visa,,,LEUCATE,,,FR,,,,,
,visa,,,LA FRANQUI LEUCATE,,,FR,,,,,
