Ref,Spider,Name,Address,City,State,Zipcode,Country,Phone,Website,Hours,Brand,WikiData
8dc67495f412e5799be82d5a76bad565,western_union,RUPALI BANK LIMITED,,Munshigonj,DHAKA,,BD,(+880) 0691-65161289,https://location.westernunion.com/bd/dhaka/munshigonj/8dc67495f412e5799be82d5a76bad565,Mo-Th 09:00-17:00; Fr 09:30-15:00; Sa 09:30-17:00; Su 09:00-17:00,Western Union,Q861042
761f77a15f570fa5d57241d84c2f05d4,western_union,PUBALI BANK LIMITED,,Munshigonj,DHAKA,,BD,+880 1711-426133,https://location.westernunion.com/bd/dhaka/munshigonj/761f77a15f570fa5d57241d84c2f05d4,Mo-Th 09:00-17:00; Fr 09:30-15:00; Sa 09:30-17:00; Su 09:00-17:00,Western Union,Q861042
e424c26a23fa9f19df3bb96dfcc88936,western_union,PUBALI BANK LIMITED,,Munshigonj,DHAKA,,BD,+880 691-63159,https://location.westernunion.com/bd/dhaka/munshigonj/e424c26a23fa9f19df3bb96dfcc88936,Mo-Th 09:00-17:00; Fr 09:30-15:00; Sa 09:30-17:00; Su 09:00-17:00,Western Union,Q861042
84fe048aa73047ddd44019a3ee7193aa,western_union,BANGLADESH KRISHI BANK,,Munshigonj,DHAKA,,BD,+880 1730-708671,https://location.westernunion.com/bd/dhaka/munshigonj/84fe048aa73047ddd44019a3ee7193aa,Mo-Su 09:00-17:00,Western Union,Q861042
2b235470b496470e23886cea4efb3fba,western_union,ASA,,Narayangonj,DHAKA,,BD,+880 1730-065541,https://location.westernunion.com/bd/dhaka/narayangonj/2b235470b496470e23886cea4efb3fba,Mo-Th 08:00-19:00; Sa-Su 08:00-19:00,Western Union,Q861042
e0a30d3b415b2d4bc187dfc457a8be66,western_union,BANK ASIA AGENT BANKING,,Munshigonj,DHAKA,,BD,+880 1729-900574,https://location.westernunion.com/bd/dhaka/munshigonj/e0a30d3b415b2d4bc187dfc457a8be66,Mo-Th 09:00-18:00; Fr 09:30-15:00; Sa 09:30-17:00; Su 09:00-18:00,Western Union,Q861042
87d62f4185626f8aad87d82902969473,western_union,ASA,,Munshigonj,DHAKA,,BD,+880 1730-065548,https://location.westernunion.com/bd/dhaka/munshigonj/87d62f4185626f8aad87d82902969473,Mo-Th 08:00-19:00; Sa-Su 08:00-19:00,Western Union,Q861042
429a23b6e939aad125234712bb5d3876,western_union,UTTARA BANK LIMITED,,Munshigonj,DHAKA,,BD,(+880) 0691-1991144228,https://location.westernunion.com/bd/dhaka/munshigonj/429a23b6e939aad125234712bb5d3876,Mo-Th 09:00-17:00; Fr 09:30-15:00; Sa 09:30-17:00; Su 09:00-17:00,Western Union,Q861042
ed8360f50f648a2cad54ad6d2871e189,western_union,SONALI BANK LIMITED,,Munshigonj,DHAKA,,BD,+880 1917-489958,https://location.westernunion.com/bd/dhaka/munshigonj/ed8360f50f648a2cad54ad6d2871e189,Mo-Th 10:00-16:00; Fr-Sa 09:00-16:00; Su 10:00-16:00,Western Union,Q861042
9f30423fa9e5372d4ae634d83ed1282a,western_union,SONALI BANK LIMITED,,Munshigonj,DHAKA,,BD,+880 1710-014474,https://location.westernunion.com/bd/dhaka/munshigonj/9f30423fa9e5372d4ae634d83ed1282a,Mo-Th 10:00-16:00; Fr-Sa 09:00-16:00; Su 10:00-16:00,Western Union,Q861042
8d5e7ca5ffe446ca17ffc087804d2f82,western_union,ASA,,Munshigonj,DHAKA,,BD,+880 1730-065523,https://location.westernunion.com/bd/dhaka/munshigonj/8d5e7ca5ffe446ca17ffc087804d2f82,Mo-Th 08:00-19:00; Sa-Su 08:00-19:00,Western Union,Q861042
eae6a7d50c9bfb3312742fca504064e5,western_union,ISLAMI BANK BANGLADESH LIMITED,,Munshigonj,DHAKA,,BD,+880 1958-579542,https://location.westernunion.com/bd/dhaka/munshigonj/eae6a7d50c9bfb3312742fca504064e5,Mo-Th 10:00-18:00; Sa-Su 10:00-18:00,Western Union,Q861042
de3e9f6e88b8b23a5ab15bcba4c0f4d6,western_union,SONALI BANK LIMITED,,Munshigonj,DHAKA,,BD,+880 691-62119,https://location.westernunion.com/bd/dhaka/munshigonj/de3e9f6e88b8b23a5ab15bcba4c0f4d6,Mo-Th 10:00-16:00; Fr-Sa 09:00-16:00; Su 10:00-16:00,Western Union,Q861042
1a29c1286cac15b313a289eba095532f,western_union,EXIM BANK LTD,,Munshigonj,DHAKA,,BD,+880 1792-795376,https://location.westernunion.com/bd/dhaka/munshigonj/1a29c1286cac15b313a289eba095532f,Mo-Th 10:00-17:00; Su 10:00-17:00,Western Union,Q861042
97452000a4b932c2df9104283326b2e6,western_union,THE PREMIER BANK LIMITED,,"1st Floor, Sadar Road, Munshi",DHAKA,,BD,+880 1755-608394,"https://location.westernunion.com/bd/dhaka/1st-floor,-sadar-road,-munshi/97452000a4b932c2df9104283326b2e6",Mo-Th 09:00-17:00; Sa-Su 09:00-17:00,Western Union,Q861042
c7efe704aaa9fa3546fe8d850d7759e9,western_union,JAMUNA BANK LIMITED,,Munshigonj,DHAKA,,BD,+880 691-61236,https://location.westernunion.com/bd/dhaka/munshigonj/c7efe704aaa9fa3546fe8d850d7759e9,Mo-Th 09:00-17:00; Sa-Su 09:00-17:00,Western Union,Q861042
3000dc8f9c1dd9fec8c412a7988fa16d,western_union,AGRANI BANK LIMITED,,Munshigonj,DHAKA,,BD,+880 1748-205755,https://location.westernunion.com/bd/dhaka/munshigonj/3000dc8f9c1dd9fec8c412a7988fa16d,Mo-Th 09:00-17:00; Fr-Sa 10:00-16:00; Su 09:00-17:00,Western Union,Q861042
4026bf65e9fe0665555f6dd41ece981f,western_union,ASA,,Munshigonj,DHAKA,,BD,+880 1730-065537,https://location.westernunion.com/bd/dhaka/munshigonj/4026bf65e9fe0665555f6dd41ece981f,Mo-Th 08:00-19:00; Sa-Su 08:00-19:00,Western Union,Q861042
f36f2d7d8091a1341fc667ea03cb10ef,western_union,JAMUNA BANK LTD,,Munshigonj,DHAKA,,BD,+880 1536-170204,https://location.westernunion.com/bd/dhaka/munshigonj/f36f2d7d8091a1341fc667ea03cb10ef,Mo-Th 10:00-17:00; Sa-Su 10:00-17:00,Western Union,Q861042
e84c11e00c0089b260ff474b7a0265a7,western_union,JAMUNA BANK LTD,,Munshigonj,DHAKA,,BD,+880 1536-170204,https://location.westernunion.com/bd/dhaka/munshigonj/e84c11e00c0089b260ff474b7a0265a7,Mo-Th 10:00-17:00; Sa-Su 10:00-17:00,Western Union,Q861042
38090cd41b127a275dca2b9072561c76,western_union,UNITED COMMERCIAL BANK LIMITED,,Munshigonj,DHAKA,,BD,(+880) 02-27620597,https://location.westernunion.com/bd/dhaka/munshigonj/38090cd41b127a275dca2b9072561c76,Mo-Th 09:30-17:00; Fr 09:30-15:00; Sa-Su 09:30-17:00,Western Union,Q861042
72c2f946f48b3c809bef52f3a8002b05,western_union,SONALI BANK LIMITED,,Munshigonj,DHAKA,,BD,+880 1713-509631,https://location.westernunion.com/bd/dhaka/munshigonj/72c2f946f48b3c809bef52f3a8002b05,Mo-Th 10:00-16:00; Fr-Sa 09:00-16:00; Su 10:00-16:00,Western Union,Q861042
240a11f88ef5f87888f23059bc20fa1c,western_union,JAMUNA BANK LIMITED,,Munshigonj,DHAKA,,BD,+880 1924-909689,https://location.westernunion.com/bd/dhaka/munshigonj/240a11f88ef5f87888f23059bc20fa1c,Mo-Th 10:00-16:00; Sa-Su 10:00-16:00,Western Union,Q861042
6576907f6f37b26f66ffb190917a5f9f,western_union,ASA,,Munshigonj,DHAKA,,BD,+880 1730-065528,https://location.westernunion.com/bd/dhaka/munshigonj/6576907f6f37b26f66ffb190917a5f9f,Mo-Th 08:00-19:00; Sa-Su 08:00-19:00,Western Union,Q861042
75c4f22a8dc4bf4573b5ed2eca9981f9,western_union,SOUTHEAST BANK LIMITED,,Munshigonj,DHAKA,,BD,+880 1755-594192,https://location.westernunion.com/bd/dhaka/munshigonj/75c4f22a8dc4bf4573b5ed2eca9981f9,Mo-Th 09:00-17:00; Sa-Su 09:00-17:00,Western Union,Q861042
fbdc908513413fe369e105beb6191436,western_union,BRAC BANK LIMITED,,Munshigonj,DHAKA,,BD,(+880) 2-8818536-5514,https://location.westernunion.com/bd/dhaka/munshigonj/fbdc908513413fe369e105beb6191436,Mo-Th 09:00-17:00; Fr 09:30-15:00; Sa 09:30-17:00; Su 09:00-17:00,Western Union,Q861042
59b569cb996c78c34a5d388618af8675,western_union,AGRANI BANK LIMITED,,Munshigonj,DHAKA,,BD,+880 1190-331396,https://location.westernunion.com/bd/dhaka/munshigonj/59b569cb996c78c34a5d388618af8675,Mo-Th 09:00-17:00; Fr 09:30-15:00; Sa 09:30-17:00; Su 09:00-17:00,Western Union,Q861042
1fe78146343a2bad022fc83f2788a546,western_union,DUTCH BANGLA BANK LIMITED,,Munshigonj,DHAKA,,BD,+880 1730-703431,https://location.westernunion.com/bd/dhaka/munshigonj/1fe78146343a2bad022fc83f2788a546,Mo-Th 09:00-17:00; Fr 09:30-15:00; Sa 09:30-17:00; Su 09:00-17:00,Western Union,Q861042
6a55b13c9a934ce9608a0189864adde5,western_union,NATIONAL BANK LIMITED,,Munshigonj,DHAKA,,BD,+880 1730-339944,https://location.westernunion.com/bd/dhaka/munshigonj/6a55b13c9a934ce9608a0189864adde5,Mo-Th 10:00-18:00; Fr 09:30-15:00; Sa 09:30-17:00; Su 10:00-18:00,Western Union,Q861042
4ae5297468e4225853e9c21f958cdb73,western_union,AGRANI BANK LIMITED,,Munshigonj,DHAKA,,BD,+880 1912-916962,https://location.westernunion.com/bd/dhaka/munshigonj/4ae5297468e4225853e9c21f958cdb73,Mo-Th 09:00-17:00; Fr 09:30-15:00; Sa 09:30-17:00; Su 09:00-17:00,Western Union,Q861042
5a251f0847683cf9f23dc3abda6900ce,western_union,ASA,,Munshigonj,DHAKA,,BD,(+880) 02-29557045,https://location.westernunion.com/bd/dhaka/munshigonj/5a251f0847683cf9f23dc3abda6900ce,Mo-Th 08:00-19:00; Sa-Su 08:00-19:00,Western Union,Q861042
172026c3acc858bd1be48d5388feda85,western_union,ASA,,Munshigonj,DHAKA,,BD,+880 1730-065527,https://location.westernunion.com/bd/dhaka/munshigonj/172026c3acc858bd1be48d5388feda85,Mo-Th 08:00-19:00; Sa-Su 08:00-19:00,Western Union,Q861042
29e79e12255e347c9cce4ec249e84bd9,western_union,JANATA BANK LIMITED,,Munshigonj,DHAKA,,BD,+880 1917-862909,https://location.westernunion.com/bd/dhaka/munshigonj/29e79e12255e347c9cce4ec249e84bd9,Mo-Th 09:00-17:00; Fr 09:30-15:00; Sa 09:30-17:00; Su 09:00-17:00,Western Union,Q861042
7e8c83195c572394bb8b3ccbdeff1ab0,western_union,JAMUNA BANK LIMITED,,Munshigonj,DHAKA,,BD,+880 1974-444338,https://location.westernunion.com/bd/dhaka/munshigonj/7e8c83195c572394bb8b3ccbdeff1ab0,Mo-Th 10:00-16:00; Sa-Su 10:00-16:00,Western Union,Q861042
f7eff8403acda5d2cdad8f44c8188f76,western_union,MUTUAL TRUST BANK LIMITED,,Munshigonj,DHAKA,,BD,+880 389-4288222,https://location.westernunion.com/bd/dhaka/munshigonj/f7eff8403acda5d2cdad8f44c8188f76,Mo-Th 09:00-17:00; Sa-Su 09:00-17:00,Western Union,Q861042
fbf65f7815a566f12c610b4b8c81002a,western_union,NATIONAL CREDIT & COMMERCE BANK LIMITED,,Munshigonj,DHAKA,,BD,+880 1914-058646,https://location.westernunion.com/bd/dhaka/munshigonj/fbf65f7815a566f12c610b4b8c81002a,Mo-Th 09:00-18:00; Fr 09:30-15:00; Sa 09:30-17:00; Su 09:00-18:00,Western Union,Q861042
46f27055390c04cc8da073fa95efad70,western_union,BANGLADESH KRISHI BANK,,Munshigonj,DHAKA,,BD,(+880) 02-29565848,https://location.westernunion.com/bd/dhaka/munshigonj/46f27055390c04cc8da073fa95efad70,Mo-Su 09:00-17:00,Western Union,Q861042
0dc31191fc6496540fab4b340fc0562b,western_union,ASA,,Munshigonj,DHAKA,,BD,+880 1730-065535,https://location.westernunion.com/bd/dhaka/munshigonj/0dc31191fc6496540fab4b340fc0562b,Mo-Th 08:00-19:00; Sa-Su 08:00-19:00,Western Union,Q861042
