Ref,Spider,Name,Address,City,State,Zipcode,Country,Phone,Website,Hours,Brand,WikiData
,visa,,,TEOLOYUCAN,ESTADO DE MEXICO,,MX,,,,,
,visa,,,TEOLOYUCAN,ESTADO DE MEXICO,,MX,,,,,
,visa,,,TEOLOYUCAN,ESTADO DE MEXICO,,MX,,,,,
,visa,,,TEOLOYUCAN,ESTADO DE MEXICO,,MX,,,,,
,visa,,,TEOLOYUCAN,ESTADO DE MEXICO,,MX,,,,,
a67854363a43320dbda231ffe1023704,western_union,OXXO CALIACAC MEX,,Teoloyucan,ESTADO DE MEXICO,,MX,+52 81 8389 2121,https://location.westernunion.com/mx/estado-de-mexico/teoloyucan/a67854363a43320dbda231ffe1023704,Mo-Su 08:00-22:00,Western Union,Q861042
68bd005ce9e8544e08364f99fc638185,western_union,OXXO CALIACAC MEX,,Teoloyucan,ESTADO DE MEXICO,,MX,+52 81 8389 2121,https://location.westernunion.com/mx/estado-de-mexico/teoloyucan/68bd005ce9e8544e08364f99fc638185,Mo-Su 08:00-22:00,Western Union,Q861042
7bc3f68b0305bb1b4b7ea325ca023658,western_union,OXXO CALIACAC MEX,,Teoloyucan,ESTADO DE MEXICO,,MX,+52 81 8389 2121,https://location.westernunion.com/mx/estado-de-mexico/teoloyucan/7bc3f68b0305bb1b4b7ea325ca023658,Mo-Su 08:00-22:00,Western Union,Q861042
dfeaa1ee4bd745919e97a38c0b90cb41,western_union,OXXO ARTESANOS MEX,,Teoloyucan,ESTADO DE MEXICO,,MX,+52 81 8389 2121,https://location.westernunion.com/mx/estado-de-mexico/teoloyucan/dfeaa1ee4bd745919e97a38c0b90cb41,Mo-Su 08:00-22:00,Western Union,Q861042
90fc1af5361ef5f6652ba3e8cf28f5be,western_union,OXXO ARTESANOS MEX,,Teoloyucan,ESTADO DE MEXICO,,MX,+52 81 8389 2121,https://location.westernunion.com/mx/estado-de-mexico/teoloyucan/90fc1af5361ef5f6652ba3e8cf28f5be,Mo-Su 08:00-22:00,Western Union,Q861042
997d0c12a04834aef6eb567687a5eae0,western_union,OXXO ARTESANOS MEX,,Teoloyucan,ESTADO DE MEXICO,,MX,+52 81 8389 2121,https://location.westernunion.com/mx/estado-de-mexico/teoloyucan/997d0c12a04834aef6eb567687a5eae0,Mo-Su 08:00-22:00,Western Union,Q861042
6c9d6c19befb7a93f3bda33956998e89,western_union,OXXO Tlatenco MEX,,Teoloyucan,ESTADO DE MEXICO,,MX,+52 81 8389 2121,https://location.westernunion.com/mx/estado-de-mexico/teoloyucan/6c9d6c19befb7a93f3bda33956998e89,Mo-Su 08:00-22:00,Western Union,Q861042
1a71464dff9a36dd0e4f163404e16d33,western_union,ELEKTRA 6131,,Teoloyucan,ESTADO DE MEXICO,,MX,+52 55 1720 8177,https://location.westernunion.com/mx/estado-de-mexico/teoloyucan/1a71464dff9a36dd0e4f163404e16d33,Mo-Su 09:00-21:00,Western Union,Q861042
8f72034a895bf3ae81c369626c1d5215,western_union,ELEKTRA 6131,,Teoloyucan,ESTADO DE MEXICO,,MX,+52 55 1720 8177,https://location.westernunion.com/mx/estado-de-mexico/teoloyucan/8f72034a895bf3ae81c369626c1d5215,Mo-Su 09:00-20:00,Western Union,Q861042
8a12b02a0540b8954e0e966762b86a35,western_union,ELEKTRA 6131,,Teoloyucan,ESTADO DE MEXICO,,MX,+52 55 1720 8177,https://location.westernunion.com/mx/estado-de-mexico/teoloyucan/8a12b02a0540b8954e0e966762b86a35,Mo-Su 09:00-21:00,Western Union,Q861042
2c8e327dcde03d6daf818d34feb3c80b,western_union,OXXO TLATENCO MEX,,Teoloyucan,ESTADO DE MEXICO,,MX,+52 81 8389 2121,https://location.westernunion.com/mx/estado-de-mexico/teoloyucan/2c8e327dcde03d6daf818d34feb3c80b,Mo-Su 08:00-22:00,Western Union,Q861042
67cbf42638464d690010e17a2dda302c,western_union,BANCOPPEL 813 5 DE MAYO,,Teoloyucan,ESTADO DE MEXICO,,MX,+52 779 796 6663,https://location.westernunion.com/mx/estado-de-mexico/teoloyucan/67cbf42638464d690010e17a2dda302c,Mo-Sa 10:00-20:00; Su 10:00-19:00,Western Union,Q861042
8a50db56629207dad2be518cb295b249,western_union,BANCOPPEL 813 5 DE MAYO,,Teoloyucan,ESTADO DE MEXICO,,MX,+52 779 796 6663,https://location.westernunion.com/mx/estado-de-mexico/teoloyucan/8a50db56629207dad2be518cb295b249,Mo-Sa 10:00-20:00; Su 10:00-19:00,Western Union,Q861042
370090613e7d69c8745917202e116edb,western_union,BANCOPPEL 813 5 DE MAYO,,Teoloyucan,ESTADO DE MEXICO,,MX,+52 81 8389 3400,https://location.westernunion.com/mx/estado-de-mexico/teoloyucan/370090613e7d69c8745917202e116edb,Mo-Sa 10:00-20:00; Su 10:00-19:00,Western Union,Q861042
195161b6d568c29fb87b1dd10258b578,western_union,TIENDAS NETO TEOLOYUCAN CENTRO 3554,,Teoloyucan,ESTADO DE MEXICO,,MX,+52 593 107 4938,https://location.westernunion.com/mx/estado-de-mexico/teoloyucan/195161b6d568c29fb87b1dd10258b578,Mo-Su 07:00-22:00,Western Union,Q861042
d8601815437b9506c0d266632cee019b,western_union,TIENDAS NETO TEOLOYUCAN CENTRO 3554,,Teoloyucan,ESTADO DE MEXICO,,MX,+52 593 107 4938,https://location.westernunion.com/mx/estado-de-mexico/teoloyucan/d8601815437b9506c0d266632cee019b,Mo-Su 07:00-22:00,Western Union,Q861042
2ef7f8ac99bb08f3e3018a2ed5f4fdf3,western_union,OXXO TLATENCO MEX,,Teoloyucan,ESTADO DE MEXICO,,MX,+52 81 8389 2121,https://location.westernunion.com/mx/estado-de-mexico/teoloyucan/2ef7f8ac99bb08f3e3018a2ed5f4fdf3,Mo-Su 08:00-22:00,Western Union,Q861042
e6893c43fb9ec719c718369c4073e087,western_union,OXXO TEOLOYUCAN II MEX,,Teoloyucan,ESTADO DE MEXICO,,MX,+52 81 8389 2121,https://location.westernunion.com/mx/estado-de-mexico/teoloyucan/e6893c43fb9ec719c718369c4073e087,Mo-Su 08:00-22:00,Western Union,Q861042
6a0167534d4d85480ad014c7453bb58b,western_union,OXXO TEOLOYUCAN II MEX,,Teoloyucan,ESTADO DE MEXICO,,MX,+52 81 8389 2121,https://location.westernunion.com/mx/estado-de-mexico/teoloyucan/6a0167534d4d85480ad014c7453bb58b,Mo-Su 08:00-22:00,Western Union,Q861042
312bf2378de0cb4dec8fdfc1219ab65a,western_union,OXXO TEOLOYUCAN II MEX,,Teoloyucan,ESTADO DE MEXICO,,MX,+52 81 8389 2121,https://location.westernunion.com/mx/estado-de-mexico/teoloyucan/312bf2378de0cb4dec8fdfc1219ab65a,Mo-Su 08:00-22:00,Western Union,Q861042
48b17de121e1dd6d2bd382a0f96688fe,western_union,AURRERA EXPRESS TEOLOYUCAN CENTRO 5071,,Teoloyucan,ESTADO DE MEXICO,,MX,+52 800 833 4700,https://location.westernunion.com/mx/estado-de-mexico/teoloyucan/48b17de121e1dd6d2bd382a0f96688fe,Mo-Su 08:00-22:00,Western Union,Q861042
c63e61f1d6894c056479f2a5573849aa,western_union,AURRERA EXPRESS TEOLOYUCAN CENTRO 5071,,Teoloyucan,ESTADO DE MEXICO,,MX,+52 800 833 4700,https://location.westernunion.com/mx/estado-de-mexico/teoloyucan/c63e61f1d6894c056479f2a5573849aa,Mo-Su 08:00-22:00,Western Union,Q861042
d48225aba364a15cafaa39a6cc92ac59,western_union,AURRERA EXPRESS TEOLOYUCAN CENTRO 5071,,Teoloyucan,ESTADO DE MEXICO,,MX,+52 800 833 4700,https://location.westernunion.com/mx/estado-de-mexico/teoloyucan/d48225aba364a15cafaa39a6cc92ac59,Mo-Su 08:00-22:00,Western Union,Q861042
de8c28f781341b4821bed082ee7c4fe6,western_union,TELECOMM 15102,,Teoloyucan,ESTADO DE MEXICO,,MX,+52 722 212 4619,https://location.westernunion.com/mx/estado-de-mexico/teoloyucan/de8c28f781341b4821bed082ee7c4fe6,Mo-Fr 09:00-17:00,Western Union,Q861042
47d2be3912051ddebdcfc2f04aec31f7,western_union,TELECOMM 15102,,Teoloyucan,ESTADO DE MEXICO,,MX,+52 722 212 4619,https://location.westernunion.com/mx/estado-de-mexico/teoloyucan/47d2be3912051ddebdcfc2f04aec31f7,Mo-Fr 09:00-17:00,Western Union,Q861042
66937b654370bba13a20844622826178,western_union,TELECOMM 15102,,Teoloyucan,ESTADO DE MEXICO,,MX,+52 722 212 4619,https://location.westernunion.com/mx/estado-de-mexico/teoloyucan/66937b654370bba13a20844622826178,Mo-Fr 09:00-17:00,Western Union,Q861042
03ef7fa767a88faa6c88809507eb3146,western_union,OXXO 5 DE MAYO II MEX,,Teoloyucan,ESTADO DE MEXICO,,MX,+52 81 8389 2121,https://location.westernunion.com/mx/estado-de-mexico/teoloyucan/03ef7fa767a88faa6c88809507eb3146,Mo-Su 08:00-22:00,Western Union,Q861042
d2836a0ecd69773d575eb10d595f5d19,western_union,OXXO 5 DE MAYO II MEX,,Teoloyucan,ESTADO DE MEXICO,,MX,+52 81 8389 2121,https://location.westernunion.com/mx/estado-de-mexico/teoloyucan/d2836a0ecd69773d575eb10d595f5d19,Mo-Su 08:00-22:00,Western Union,Q861042
1f25245adc41708a5ea3380ead1bdab9,western_union,OXXO 5 DE MAYO II MEX,,Teoloyucan,ESTADO DE MEXICO,,MX,+52 81 8389 2121,https://location.westernunion.com/mx/estado-de-mexico/teoloyucan/1f25245adc41708a5ea3380ead1bdab9,Mo-Su 08:00-22:00,Western Union,Q861042
3eda8414f180911833b2ac3c6109e728,western_union,OXXO ANIMAS MEX,,Teoloyucan,ESTADO DE MEXICO,,MX,+52 81 8389 2121,https://location.westernunion.com/mx/estado-de-mexico/teoloyucan/3eda8414f180911833b2ac3c6109e728,Mo-Su 08:00-22:00,Western Union,Q861042
090e2d85f04d69330cfc42a72e768e75,western_union,OXXO ANIMAS MEX,,Teoloyucan,ESTADO DE MEXICO,,MX,+52 81 8389 2121,https://location.westernunion.com/mx/estado-de-mexico/teoloyucan/090e2d85f04d69330cfc42a72e768e75,Mo-Su 08:00-22:00,Western Union,Q861042
1a0cd4a60bb9d58dbbd778dd1dd61910,western_union,OXXO ANIMAS MEX,,Teoloyucan,ESTADO DE MEXICO,,MX,+52 81 8389 2121,https://location.westernunion.com/mx/estado-de-mexico/teoloyucan/1a0cd4a60bb9d58dbbd778dd1dd61910,Mo-Su 08:00-22:00,Western Union,Q861042
