Ref,Spider,Name,Address,City,State,Zipcode,Country,Phone,Website,Hours,Brand,WikiData
162424,bluerhino,Bears Den #103,,Hogansburg,NY,,US,+1 518-358-9205,,,Blue Rhino,Q65681213
162422,bluerhino,Bears Den #101,,Hogansburg,NY,,US,+1 518-358-4229,,,Blue Rhino,Q65681213
350029,dunkin_us,Dunkin',,Akwesasne,NY,,US,+1 518-358-9480,https://locations.dunkindonuts.com/en/ny/akwesasne/935-state-route-37/350029,Mo-Su 05:00-20:00,Dunkin',Q847743
https://locations.papajohns.com/#10690610,papa_johns,Papa John's,,Hogansburg,NY,,US,+1 518-358-9205,https://locations.papajohns.com/united-states/ny/13655/hogansburg/148-state-route-37,Mo-Su 11:00-21:00,Papa John's Pizza,Q2759586
https://restaurants.subway.com/#14983857,subway,Subway Speedway Plaza,,Hogansburg Franklin,NY,,US,+1 518-358-2620,https://restaurants.subway.com/united-states/ny/hogansburg/935-state-route-37,Mo-Su 09:30-22:30,Subway,Q244457
914113,tim_hortons,Tim Hortons,,"Akwesasne, NY",NY,,US,+1 518-358-9205,,Mo-We 05:00-19:00; Fr-Su 05:00-19:00,Tim Hortons,Q175106
1367148,usps,HOGANSBURG,,HOGANSBURG,NY,,US,+1 518-358-2277,,"Mo-Fr 08:15-12:30,13:45-16:45; Sa 09:00-11:30",United States Postal Service,Q668687
1365500003,usps_collection_boxes,USPS COLLECTION BOX - BLUE BOX,908 STATE ROUTE 37,HOGANSBURG,NY,,US,,,,United States Postal Service,Q668687
1365500002,usps_collection_boxes,USPS COLLECTION BOX - PO LOBBY,11 SAINT REGIS ST,HOGANSBURG,NY,,US,,,,United States Postal Service,Q668687
1365500001,usps_collection_boxes,USPS COLLECTION BOX - BLUE BOX,11 SAINT REGIS ST,HOGANSBURG,NY,,US,,,,United States Postal Service,Q668687
1365500005,usps_collection_boxes,USPS COLLECTION BOX - PO LOBBY,11 SAINT REGIS ST,HOGANSBURG,NY,,US,,,,United States Postal Service,Q668687
A00000235378,verizon_us,Your Wireless Hogansburg,,Hogansburg,NY,,US,+1 518-358-2620,https://www.verizon.com/stores/details/new-york/hogansburg/speedway-convenience-hogansburg-1592522/,Mo-Sa 09:00-19:00; Su 11:00-17:00,Verizon,Q919641
,visa,,,HOGANSBURG,NY,,US,,,,,
,visa,,,HOGANSBURG,NY,,US,,,,,
,visa,,,HOGANSBURG,NY,,US,,,,,
,visa,,,HOGANSBURG,NY,,US,,,,,
,visa,,,HOGANSBURG,NY,,US,,,,,
,visa,,,HOGANSBURG,NY,,US,,,,,
,visa,,,HOGANSBURG,NY,,US,,,,,
,visa,,,HOGANSBURG,NY,,US,,,,,
,visa,,,HOGANSBURG,NY,,US,,,,,
,visa,,,HOGANSBURG,NY,,US,,,,,
,visa,,,HOGANSBURG,NY,,US,,,,,
,visa,,,HOGANSBURG,NY,,US,,,,,
,visa,,,HOGANSBURG,NY,,US,,,,,
,visa,,,AKWESASNE,NY,,US,,,,,
,visa,,,AKWESASNE,NY,,US,,,,,
,visa,,,HOGANSBURG,NY,,US,,,,,
,visa,,,HOGANSBURG,NY,,US,,,,,
,visa,,,AKWESASNE,NY,,US,,,,,
,visa,,,AKWESASNE,NY,,US,,,,,
,visa,,,HOGANSBURG,NY,,US,,,,,
,visa,,,AKWESASNE,NY,,US,,,,,
,visa,,,AKWESASNE,NY,,US,,,,,
,visa,,,AKWESASNE,NY,,US,,,,,
,visa,,,AKWESASNE,NY,,US,,,,,
,visa,,,HOGANSBURG,NY,,US,,,,,
,visa,,,AKWESASNE,NY,,US,,,,,
,visa,,,AKWESASNE,NY,,US,,,,,
,visa,,,HOGANSBURG,NY,,US,,,,,
,visa,,,HOGANSBURG,NY,,US,,,,,
,visa,,,HOGANSBURG,NY,,US,,,,,
,visa,,,AKWESASNE,NY,,US,,,,,
,visa,,,HOGANSBURG,NY,,US,,,,,
,visa,,,HOGANSBURG,NY,,US,,,,,
,visa,,,AKWESASNE,NY,,US,,,,,
,visa,,,HOGANSBURG,NY,,US,,,,,
,visa,,,HOGANSBURG,NY,,US,,,,,
