Ref,Spider,Name,Address,City,State,Zipcode,Country,Phone,Website,Hours,Brand,WikiData
https://stores.advanceautoparts.com/fl/gainesville/1035-e-university-ave,advance_auto_parts_us,Advance Auto Parts,,Gainesville,FL,,US,+1 352-371-7515,https://stores.advanceautoparts.com/fl/gainesville/1035-e-university-ave,Mo-Sa 07:30-21:00; Su 08:00-20:00,Advance Auto Parts,Q4686051
https://restaurants.applebees.com/en-us/fl/gainesville/1005-n-w-13th-street-89000,applebees,Connect with this Applebee's,,Gainesville,FL,,US,+1 352-335-0150,https://restaurants.applebees.com/en-us/fl/gainesville/1005-n-w-13th-street-89000,Mo-Th 11:00-24:00; Fr 11:00-02:00; Sa 11:00-01:00; Su 11:00-24:00,Applebees,Q621532
10905,asics_us,Lloyd Clarke Sports,1504 NW 13th St,Gainesville,FL,,US,+1 352-372-7836,,Mo-Sa 09:30-19:00; Su 11:00-18:00,asics,Q327247
https://locators.bankofamerica.com/fl/gainesville/financial-centers-gainesville-10340.html,bankofamerica,Bank of America Financial Center & Drive-Thru ATM | University Avenue,,Gainesville,FL,,US,+1 352-335-0411,https://locators.bankofamerica.com/fl/gainesville/financial-centers-gainesville-10340.html,Mo-Fr 10:00-16:00,Bank of America,Q487907
29480,bluerhino,Gate Food Post #1445,,Gainesville,FL,,US,+1 352-376-5444,,,Blue Rhino,Q65681213
238456,bluerhino,Circle K #2721416,,Gainesville,FL,,US,+1 352-375-8340,,,Blue Rhino,Q65681213
176015,bluerhino,Winn Dixie #0197-Jacksonville,,Gainesville,FL,,US,+1 352-336-9700,,,Blue Rhino,Q65681213
202181,bluerhino,Sun Store (SHREYA),,Gainesville,FL,,US,+1 352-672-6733,,,Blue Rhino,Q65681213
17624173107203260100100000000000,bp,Amoco,,Gainesville,FL,,US,+1 352-554-4437,,24/7,BP,Q152057
20099000263343260100100000000000,bp,BP,,Gainesville,FL,,US,+1 352-491-2910,,Mo-Fr 06:00-23:00; Sa 07:00-22:00; Su 08:00-22:00,BP,Q152057
202337,chevron,Chevron Station #202337,12210 SW ARCHER RD,GAINESVILLE,FL,,US,,,,Chevron,Q319642
304500,chevron,Texaco Station #304500,4114 SW 13TH STREET,GAINESVILLE,FL,,US,,,,Chevron,Q319642
304494,chevron,Texaco Station #304494,4909 34TH STREET,GAINESVILLE,FL,,US,,,,Chevron,Q319642
48082,citi,ATM CVS,,Gainesville,FL,,US,,,,Citibank,Q857063
50168,citi,ATM CVS,,Gainesville,FL,,US,,,,Citibank,Q857063
40886,citi,ATM Circle K,,Gainesville,FL,,US,,,,Citibank,Q857063
37535,citi,ATM CAPITAL CITY BANK,,Gainesville,FL,,US,,,,Citibank,Q857063
95540,citi,ATM Winn Dixie,,Gainesville,FL,,US,,,,Citibank,Q857063
68931,citi,ATM PNC AT WAWA,,Gainesville,FL,,US,,,,Citibank,Q857063
om_fl_gainesville_1018-n--main-st,cititrends,Citi Trends,,Gainesville,FL,,US,+1 352-421-3933,https://locations.cititrends.com/fl/gainesville/1018-n--main-st.html,Mo 11:00-21:00; Tu 11:00-21:00; We 11:00-21:00; Th 11:00-21:00; Fr 10:00-21:00; Sa 10:00-21:00; Su 12:00-18:00,Citi Trends,Q5122438
,credit_union_us,Alliance CU of Florida,,Gainsville,FL,,US,+1 352-372-8225,,Mo-Th 09:00-05:00; Fr 09:00-06:00; Sa 09:00-12:00,,
,credit_union_us,Alliance CU of Florida,,Gainsville,FL,,US,+1 352-372-8225,,Mo-Fr 09:00-06:00; Sa 10:00-01:00,,
,credit_union_us,Campus USA CU,,Gainesville,FL,,US,+1 800-367-6440,,Mo-Th 09:00-05:00; Fr 09:00-06:00,,
80416198,cricket_wireless,Cricket Wireless Authorized Retailer,,Gainesville,FL,,US,+1 844-800-0377,https://www.cricketwireless.com/stores/ll/US/FL/Gainesville/405-NW-13th-St,Mo-Sa 09:00-20:00; Su 11:00-18:00,Cricket Wireless,Q5184987
3213,dominos_pizza_us,Domino's Pizza,,Gainesville,FL,,US,+1 352-373-5555,https://pizza.dominos.com/florida/gainesville/25-nw-16th-ave,Mo-Th 10:00-24:00; Fr-Sa 10:00-01:00; Su 10:00-24:00,Domino's,Q839466
359007,dunkin_us,Dunkin',,Gainesville,FL,,US,+1 352-371-0125,https://locations.dunkindonuts.com/en/fl/gainesville/491-w-university-ave/359007,Mo-Su 06:00-17:00,Dunkin',Q847743
E14361,enterprise,Gainesville University Center,,Gainesville,FL,,US,+1 352-336-3390,,,Enterprise Rent-A-Car,Q17085454
https://local.fedex.com/#25458377,fedex,,,Gainesville,FL,,US,+1 800-463-3339,https://local.fedex.com/en-us/fl/gainesville/00hu0,,FedEx,Q459477
14133,firestone_auto_care,Firestone Complete Auto Care,,Gainesville,FL,,US,+1 352-505-4664,https://local.firestonecompleteautocare.com/florida/gainesville/725-n-main-st/,,Firestone,Q420837
https://www.goodyearautoservice.com/en_US/location/Gainesville-FL-32601-US-000902440,goodyear_us,"Goodyear Auto Service - Downtown Gainesville, Gainesville, FL | Oil, Brakes & Repairs | #000902440",,Gainesville,FL,,US,+1 352-372-3537,https://www.goodyearautoservice.com/en_US/location/Gainesville-FL-32601-US-000902440,Mo-Sa 08:00-18:00,Goodyear,Q620875
8569,h_r_block,H&R Block,,Gainesville,FL,,US,+1 352-379-3790,https://www.hrblock.com/local-tax-offices/florida/gainesville/1212-n-main-st-ste-1218/8569/,,H&R Block,Q5627799
https://locations.ironmountain.com/fl/gainesville/im102/,iron_mountain,"Iron Mountain in 5905 N Waldo Rd, Gainesville, Florida | Secure Shredding, Scanning, IT Asset Disposition, & Records Management",,Gainesville,FL,,US,+1 800-899-4766,https://locations.ironmountain.com/fl/gainesville/im102/,,Iron Mountain Incorporated,Q1673079
https://www.plannedparenthood.org/health-center/florida/gainesville/32601/gainesville-health-center-2155-90320,planned_parenthood,Planned Parenthood,,Gainesville,FL,,US,,https://www.plannedparenthood.org/health-center/florida/gainesville/32601/gainesville-health-center-2155-90320,,Planned Parenthood,Q2553262
restaurant_82018,popeyes_us_fr,Popeyes,"1412 N Main St Gainesville, Florida 32601 - USA",Gainesville,FL,,US,+1 352-377-1733,https://www.popeyes.com/store-locator/store/restaurant_82018,Mo-Su 10:00-22:00,Popeyes,Q1330910
ppg-paints-9178-21721,ppgpaints,PPG Paints 9178,,"Gainesville, ",FL,,US,+1 352-377-3186,https://www.ppgpaints.com/store-locator/us/florida/gainesville-paint-stores/ppg-paints-9178-21721,,PPG Paints,Q83891559
7287,rentacenter,Rent-A-Center,,Gainesville,FL,,US,+1 352-372-5555,https://locations.rentacenter.com/florida/gainesville/1200-n-main-st/,Mo-Fr 10:00-18:00; Sa 09:00-17:00,Rent-A-Center,Q7313497
https://restaurants.subway.com/#14906109,subway,Subway,,Gainesville Alachua,FL,,US,+1 352-376-1161,https://restaurants.subway.com/united-states/fl/gainesville/1005-w-university-avenue,Mo-Fr 08:00-24:00; Sa-Su 09:00-24:00,Subway,Q244457
0740627500,sunoco_us,Sunoco,,GAINESVILLE,FL,,US,+1 352-378-6953,,Mo-Su 06:00-23:00,Sunoco,Q1423218
https://locations.tacobell.com/#40834302,taco_bell,Taco Bell,,Gainesville,FL,,US,+1 352-415-4545,https://locations.tacobell.com/fl/gainesville/1515-sw-13th-street.html,Mo-Th 09:00-03:00; Fr 09:00-04:00; Sa 10:30-04:00; Su 09:00-03:00,Taco Bell,Q752941
1371499,usps,MAIN STREET,,GAINESVILLE,FL,,US,+1 352-271-6392,,Mo-Fr 08:30-17:00; Sa 08:30-10:30,United States Postal Service,Q668687
3260100056,usps_collection_boxes,USPS COLLECTION BOX - BLUE BOX,1116 W UNIVERSITY AVE,GAINESVILLE,FL,,US,,,,United States Postal Service,Q668687
3260100046,usps_collection_boxes,USPS COLLECTION BOX - BLUE BOX,610 W UNIVERSITY AVE,GAINESVILLE,FL,,US,,,,United States Postal Service,Q668687
3260100078,usps_collection_boxes,USPS COLLECTION BOX - BLUE BOX,225 SW 2ND ST,GAINESVILLE,FL,,US,,,,United States Postal Service,Q668687
3260100057,usps_collection_boxes,USPS COLLECTION BOX - BLUE BOX,100 NW 1ST AVE,GAINESVILLE,FL,,US,,,,United States Postal Service,Q668687
3260100006,usps_collection_boxes,USPS COLLECTION BOX - BLUE BOX,15 NW 2ND AVE,GAINESVILLE,FL,,US,,,,United States Postal Service,Q668687
3260100002,usps_collection_boxes,USPS COLLECTION BOX - BLUE BOX,16 SE 1ST AVE,GAINESVILLE,FL,,US,,,,United States Postal Service,Q668687
3260100005,usps_collection_boxes,USPS COLLECTION BOX - BLUE BOX,200 SE 1ST ST,GAINESVILLE,FL,,US,,,,United States Postal Service,Q668687
3260100004,usps_collection_boxes,USPS COLLECTION BOX - BLUE BOX,305 NE 1ST ST,GAINESVILLE,FL,,US,,,,United States Postal Service,Q668687
3260100059,usps_collection_boxes,USPS COLLECTION BOX - BLUE BOX,515 N MAIN ST,GAINESVILLE,FL,,US,,,,United States Postal Service,Q668687
3260100082,usps_collection_boxes,USPS COLLECTION BOX - PO LOBBY,1401 N MAIN ST,GAINESVILLE,FL,,US,,,,United States Postal Service,Q668687
3260100088,usps_collection_boxes,USPS COLLECTION BOX - PO LOBBY,1401 N MAIN ST,GAINESVILLE,FL,,US,,,,United States Postal Service,Q668687
3260100037,usps_collection_boxes,USPS COLLECTION BOX - BLUE BOX,401 SE 1ST AVE,GAINESVILLE,FL,,US,,,,United States Postal Service,Q668687
3260100081,usps_collection_boxes,USPS COLLECTION BOX - BLUE BOX,1401 N MAIN ST,GAINESVILLE,FL,,US,,,,United States Postal Service,Q668687
3260100062,usps_collection_boxes,USPS COLLECTION BOX - BLUE BOX,1200 N MAIN ST,GAINESVILLE,FL,,US,,,,United States Postal Service,Q668687
3260100079,usps_collection_boxes,USPS COLLECTION BOX - BLUE BOX,620 E UNIVERSITY AVE,GAINESVILLE,FL,,US,,,,United States Postal Service,Q668687
3260100011,usps_collection_boxes,USPS COLLECTION BOX - BLUE BOX,544 NE 10TH AVE,GAINESVILLE,FL,,US,,,,United States Postal Service,Q668687
,visa,,,GAINESVILLE,FL,,US,,,,,
,visa,,,GAINESVILLE,FL,,US,,,,,
,visa,,,GAINESVILLE,FL,,US,,,,,
,visa,,,GAINSVILLE,FL,,US,,,,,
,visa,,,GAINESVILLE,FL,,US,,,,,
,visa,,,GAINESVILLE,FL,,US,,,,,
,visa,,,GAINESVILLE,FL,,US,,,,,
,visa,,,GAINESVILLE,FL,,US,,,,,
,visa,,,GAINESVILLE,FL,,US,,,,,
,visa,,,GAINESVILLE,FL,,US,,,,,
,visa,,,GAINESVILLE,FL,,US,,,,,
,visa,,,GAINESVILLE,FL,,US,,,,,
,visa,,,GAINESVILLE,FL,,US,,,,,
,visa,,,GAINESVILLE,FL,,US,,,,,
,visa,,,GAINESVILLE,FL,,US,,,,,
,visa,,,GAINESVILLE,FL,,US,,,,,
,visa,,,GAINESVILLE,FL,,US,,,,,
,visa,,,GAINESVILLE,FL,,US,,,,,
,visa,,,GAINESVILLE,FL,,US,,,,,
,visa,,,GAINESVILLE,FL,,US,,,,,
,visa,,,GAINESVILLE,FL,,US,,,,,
,visa,,,GAINESVILLE,FL,,US,,,,,
,visa,,,GAINSVILLE,FL,,US,,,,,
,visa,,,GAINESVILLE,FL,,US,,,,,
,visa,,,GAINSVILLE,FL,,US,,,,,
,visa,,,GAINSVILLE,FL,,US,,,,,
,visa,,,GAINESVILLE,FL,,US,,,,,
,visa,,,GAINESVILLE,FL,,US,,,,,
,visa,,,GAINESVILLE,FL,,US,,,,,
,visa,,,GAINSVILLE,FL,,US,,,,,
,visa,,,GAINESVILLE,FL,,US,,,,,
,visa,,,GAINESVILLE,FL,,US,,,,,
,visa,,,GAINESVILLE,FL,,US,,,,,
,visa,,,GAINESVILLE,FL,,US,,,,,
,visa,,,GAINESVILLE,FL,,US,,,,,
,visa,,,GAINESVILLE,FL,,US,,,,,
,visa,,,GAINESVILLE,FL,,US,,,,,
,visa,,,GAINESVILLE,FL,,US,,,,,
,visa,,,GAINESVILLE,FL,,US,,,,,
,visa,,,GAINESVILLE,FL,,US,,,,,
,visa,,,GAINESVILLE,FL,,US,,,,,
,visa,,,GAINESVILLE,FL,,US,,,,,
,visa,,,GAINESVILLE,FL,,US,,,,,
,visa,,,GAINESVILLE,FL,,US,,,,,
,visa,,,GAINESVILLE,FL,,US,,,,,
,visa,,,GAINESVILLE,FL,,US,,,,,
,visa,,,GAINSVILLE,FL,,US,,,,,
,visa,,,GAINESVILLE,FL,,US,,,,,
,visa,,,GAINESVILLE,FL,,US,,,,,
,visa,,,GAINESVILLE,FL,,US,,,,,
,visa,,,GAINESVILLE,FL,,US,,,,,
,visa,,,GAINESVILLE,FL,,US,,,,,
,visa,,,GAINESVILLE,FL,,US,,,,,
,visa,,,GAINESVILLE,FL,,US,,,,,
,visa,,,GAINESVILLE,FL,,US,,,,,
,visa,,,GAINESVILLE,FL,,US,,,,,
,visa,,,GAINESVILLE,FL,,US,,,,,
,visa,,,GAINESVILLE,FL,,US,,,,,
,visa,,,GAINESVILLE,FL,,US,,,,,
,visa,,,GAINESVILLE,FL,,US,,,,,
,visa,,,GAINESVILLE,FL,,US,,,,,
,visa,,,GAINESVILLE,FL,,US,,,,,
,visa,,,GAINESVILLE,FL,,US,,,,,
,visa,,,GAINESVILLE,FL,,US,,,,,
,visa,,,GAINESVILLE,FL,,US,,,,,
,visa,,,GAINESVILLE,FL,,US,,,,,
,visa,,,GAINESVILLE,FL,,US,,,,,
,visa,,,GAINESVILLE,FL,,US,,,,,
,visa,,,GAINESVILLE,FL,,US,,,,,
,visa,,,GAINESVILLE,FL,,US,,,,,
,visa,,,GAINESVILLE,FL,,US,,,,,
,visa,,,GAINESVILLE,FL,,US,,,,,
,visa,,,GAINESVILLE,FL,,US,,,,,
,visa,,,GAINESVILLE,FL,,US,,,,,
,visa,,,GAINESVILLE,FL,,US,,,,,
,visa,,,GAINESVILLE,FL,,US,,,,,
,visa,,,GAINESVILLE,FL,,US,,,,,
,visa,,,GAINESVILLE,FL,,US,,,,,
,visa,,,GAINESVILLE,FL,,US,,,,,
,visa,,,GAINESVILLE,FL,,US,,,,,
,visa,,,GAINESVILLE,FL,,US,,,,,
2387,waffle_house_us,Waffle House #2387,,GAINESVILLE,FL,,US,+1 352-213-6399,https://locations.wafflehouse.com/gainesville-fl-2387,24/7,Waffle House,Q1701206
506__NW__13TH__ST_GAINESVILLE_FL_32601,wellsfargo,,506 NW 13TH ST,GAINESVILLE,FL,,US,+1 800-869-3557,https://www.wellsfargo.com/locator/bank/506__NW__13TH__ST_GAINESVILLE_FL_32601/,,Wells Fargo,Q744149
132__HUB__STADIUM__RD_GAINESVILLE_FL_32601,wellsfargo,,132 HUB STADIUM RD,GAINESVILLE,FL,,US,+1 800-869-3557,https://www.wellsfargo.com/locator/bank/132__HUB__STADIUM__RD_GAINESVILLE_FL_32601/,,Wells Fargo,Q744149
104__N__MAIN__ST_GAINESVILLE_FL_32601,wellsfargo,Wells Fargo,104 N MAIN ST,GAINESVILLE,FL,,US,+1 352-335-3300,https://www.wellsfargo.com/locator/bank/104__N__MAIN__ST_GAINESVILLE_FL_32601/,Mo-Th 09:00-16:00,Wells Fargo,Q744149
17263,wingstop,Wingstop NW 16th & Main Gainesville,25 NW 16TH Ave,Gainesville,FL,,US,+1 352-745-7077,,,Wingstop,Q8025339
197,winndixie,,300 S.W. 16TH AVENUE,GAINESVILLE,FL,,US,+1 352-336-9700,https://www.winndixie.com/storedetails/gainesville/fl?search=197,,Winn Dixie,Q1264366
150,winndixie,,300 SW 16th Ave - Suite A,GAINESVILLE,FL,,US,+1 352-379-0023,https://www.winndixie.com/storedetails/gainesville/fl?search=150,,Winn Dixie,Q1264366
