Ref,Spider,Name,Address,City,State,Zipcode,Country,Phone,Website,Hours,Brand,WikiData
https://locators.bankofamerica.com/ny/oakdale/atm-oakdale-111067.html,bankofamerica,Bank of America Drive-Thru ATM | Oakdale,,Oakdale,NY,,US,+1 844-401-8500,https://locators.bankofamerica.com/ny/oakdale/atm-oakdale-111067.html,,Bank of America,Q487907
https://locations.baskinrobbins.com/ny/oakdale/1243-montauk-hwy-342188-br,baskin_robbins_us,Baskin-Robbinsâ„¢,,Oakdale,NY,,US,+1 631-567-3010,https://locations.baskinrobbins.com/ny/oakdale/1243-montauk-hwy-342188-br,Mo-Sa 05:00-22:00; Su 06:00-22:00,Baskin-Robbins,Q584601
138399,bluerhino,Citgo,,Oakdale,NY,,US,+1 631-567-2389,,,Blue Rhino,Q65681213
2041220,chase_us,Oakdale - New branch,,Oakdale,NY,,US,+1 631-589-0171,https://locator.chase.com/ny/oakdale/861-montauk-hwy,Mo-Fr 09:00-17:00; Sa 09:00-14:00,Chase,Q524629
,credit_union_us,Teachers FCU,,Oakdale,NY,,US,+1 631-698-7000,,Mo-Th 08:30-04:30; Fr 08:30-06:00; Sa 08:30-04:30,,
342188,dunkin_us,Dunkin',,Oakdale,NY,,US,+1 631-567-3010,https://locations.dunkindonuts.com/en/ny/oakdale/1243-montauk-hwy/342188,Mo-Sa 05:00-22:00; Su 06:00-22:00,Dunkin',Q847743
8012,lidl_us,Oakdale NY - Sunrise Hwy,,Oakdale,NY,,US,+1 844-747-5435,,,Lidl,Q151954
1375749,usps,OAKDALE,,OAKDALE,NY,,US,+1 631-589-2683,,Mo-Fr 09:00-17:00; Sa 09:00-13:00,United States Postal Service,Q668687
1176900004,usps_collection_boxes,USPS COLLECTION BOX - BLUE BOX,927 MONTAUK HWY,OAKDALE,NY,,US,,,,United States Postal Service,Q668687
1176900019,usps_collection_boxes,USPS COLLECTION BOX - PO LOBBY,927 MONTAUK HWY,OAKDALE,NY,,US,,,,United States Postal Service,Q668687
1176900001,usps_collection_boxes,USPS COLLECTION BOX - BLUE BOX,927 MONTAUK HWY,OAKDALE,NY,,US,,,,United States Postal Service,Q668687
1176900018,usps_collection_boxes,USPS COLLECTION BOX - PO LOBBY,927 MONTAUK HWY,OAKDALE,NY,,US,,,,United States Postal Service,Q668687
1176900007,usps_collection_boxes,USPS COLLECTION BOX - BLUE BOX,702 OCKERS DR,OAKDALE,NY,,US,,,,United States Postal Service,Q668687
1176900005,usps_collection_boxes,USPS COLLECTION BOX - BLUE BOX,1500 MONTAUK HWY,OAKDALE,NY,,US,,,,United States Postal Service,Q668687
1176900006,usps_collection_boxes,USPS COLLECTION BOX - BLUE BOX,23 WILSHIRE LN,OAKDALE,NY,,US,,,,United States Postal Service,Q668687
,visa,,,OAKDALE,NY,,US,,,,,
,visa,,,OAKDALE,NY,,US,,,,,
,visa,,,OAKDALE,NY,,US,,,,,
,visa,,,OAKDALE,NY,,US,,,,,
,visa,,,OAKDALE,NY,,US,,,,,
,visa,,,OAKDALE,NY,,US,,,,,
,visa,,,OAKDALE,NY,,US,,,,,
,visa,,,OAKDALE,NY,,US,,,,,
,visa,,,OAKDALE,NY,,US,,,,,
,visa,,,OAKDALE,NY,,US,,,,,
,visa,,,OAKDALE,NY,,US,,,,,
,visa,,,OAKDALE,NY,,US,,,,,
,visa,,,OAKDALE,NY,,US,,,,,
,visa,,,OAKDALE,NY,,US,,,,,
,visa,,,OAKDALE,NY,,US,,,,,
,visa,,,OAKDALE,NY,,US,,,,,
,visa,,,OAKDALE,NY,,US,,,,,
,visa,,,OAKDALE,NY,,US,,,,,
,visa,,,OAKDALE,NY,,US,,,,,
,visa,,,OAKDALE,NY,,US,,,,,
,visa,,,OAKDALE,NY,,US,,,,,
,visa,,,OAKDALE,NY,,US,,,,,
,visa,,,OAKDALE,NY,,US,,,,,
,visa,,,OAKDALE,NY,,US,,,,,
,visa,,,OAKDALE,NY,,US,,,,,
,visa,,,OAKDALE,NY,,US,,,,,
https://www.walgreens.com/locator/walgreens-4500+sunrise+hwy-oakdale-ny-11769/id=18339,walgreens,Walgreens,,Oakdale,NY,,US,+1 631-567-3184,https://www.walgreens.com/locator/walgreens-4500+sunrise+hwy-oakdale-ny-11769/id=18339,Mo-Sa 08:00-21:00; Su 09:00-21:00,Walgreens,Q1591889
https://locations.wendys.com/#9254577,wendys,"Wendy's 885 Montauk Highway in Oakdale, NY",,Oakdale,NY,,US,+1 631-472-1368,https://locations.wendys.com/united-states/ny/oakdale/885-montauk-highway,"Mo-Su 07:00-10:30,08:00-22:00",Wendy's,Q550258
531cce535e6fe59ac50c277c7b8076ca,western_union,WALGREENS #18339,,Oakdale,NY,,US,+1 631-567-3184,https://location.westernunion.com/us/ny/oakdale/531cce535e6fe59ac50c277c7b8076ca,Mo-Sa 08:00-21:00; Su 08:00-18:00,Western Union,Q861042
76bfbc8485107d33719be0e42ed08800,western_union,7-ELEVEN #11200,,Oakdale,NY,,US,+1 631-589-8447,https://location.westernunion.com/us/ny/oakdale/76bfbc8485107d33719be0e42ed08800,Mo-Su 00:00-23:00,Western Union,Q861042
