Ref,Spider,Name,Address,City,State,Zipcode,Country,Phone,Website,Hours,Brand,WikiData
72028955,moneygram,STANDARD BANK LIMITED - BRAHMANBARIA - S,,BRAHMANBARIA,,,BD,+880 1789-237971,,Mo-Th 10:00-16:00; Fr-Sa 00:00-24:00; Su 10:00-16:00,MoneyGram,Q1944412
72418196,moneygram,EXIM BANK LTD - #63130 - BRAHMANBARIA -,,BRAHMANBARIA,,,BD,+880 1911-938080,,Mo-Th 10:00-18:00; Fr 00:00-24:00; Sa 10:00-15:00; Su 10:00-18:00,MoneyGram,Q1944412
68161059,moneygram,JBL - CHINAIR BAZAR-0927,,BRAHMANBARIA SADAR,,,BD,+880 1716-681501,,24/7,MoneyGram,Q1944412
68161075,moneygram,JBL - SHUHILPUR-0555,,BRAHMANBARIA SADAR,,,BD,+880 851-57525,,24/7,MoneyGram,Q1944412
68161020,moneygram,JBL - TAN BAZAR-0804,,BRAHMANBARIA,,,BD,+880 851-58494,,24/7,MoneyGram,Q1944412
68161046,moneygram,JBL - B.BARIA CO-OPERATIVE-0120,,BRAHMANBARIA SADAR,,,BD,+880 851-58319,,24/7,MoneyGram,Q1944412
68161033,moneygram,JBL - NIAZ PARK-0894,,BRAHMANBARIA SADAR,,,BD,+880 851-59012,,24/7,MoneyGram,Q1944412
68161062,moneygram,JBL - BRAHMANBARIA CORP.-0084,,BRAHMANBARIA SADAR,,,BD,8515842558138,,24/7,MoneyGram,Q1944412
72880931,moneygram,BANK ASIA LIMITED - #604 - BRAHMANBARIA,,BRAHMANBARIA,,,BD,+880 1752-227415,,Mo-Th 09:30-17:00; Fr-Sa 00:00-24:00; Su 09:30-17:00,MoneyGram,Q1944412
73270430,moneygram,BRAC BANK LTD - #548414 - BRAHMANBARIA -,,BRAHMANBARIA,,,BD,+880 1849-349293,,24/7,MoneyGram,Q1944412
73613628,moneygram,03 NO. DURGAPUR UNION DIGITAL CENTRE - B,,BRAHMANBARIA,,,BD,+880 1913-485695,,Mo-Th 09:30-17:00; Fr-Sa 00:00-24:00; Su 09:30-17:00,MoneyGram,Q1944412
73622266,moneygram,RAMRAIL UNION DIGITAL CENTRE - BRAHMANBA,,BRAHMANBARIA,,,BD,+880 1817-607106,,Mo-Th 09:30-17:00; Fr-Sa 00:00-24:00; Su 09:30-17:00,MoneyGram,Q1944412
73623922,moneygram,TALSHOHOR UNION DIGITAL CENTRE - BRAHMAN,,BRAHMANBARIA,,,BD,+880 1757-312111,,Mo-Th 09:30-17:00; Fr-Sa 00:00-24:00; Su 09:30-17:00,MoneyGram,Q1944412
73632311,moneygram,KRISHNANAGAR UNION DIGITAL CENTRE AND BA,,BRAHMANBARIA,,,BD,+880 1724-491598,,Mo-Su 09:30-17:00,MoneyGram,Q1944412
73694951,moneygram,MUTUAL TRUST BANK LTD - MTB-BRAHMANBARIA,,BRAHMONBARIA,,,BD,008808561911,,Mo-Th 10:00-16:00; Fr-Sa 00:00-24:00; Su 10:00-16:00,MoneyGram,Q1944412
73807489,moneygram,SIBL - #5815648 - BRAHMANBARIA - BIRASHE,,BRAHMANBARIA,,,BD,+880 1670-186087,,Mo-Th 10:00-16:00; Fr-Sa 00:00-24:00; Su 10:00-16:00,MoneyGram,Q1944412
73863889,moneygram,SADEKPUR UDC - BRAHMANBARIA - SADEKPUR U,,BRAHMANBARIA,,,BD,+880 1749-128617,,Mo-Th 09:30-17:00; Fr-Sa 00:00-24:00; Su 09:30-17:00,MoneyGram,Q1944412
73880859,moneygram,M/S BEYEJIT TELECOM - BRAHMANBARIA - M/S,,BRAHMANBARIA,,,BD,+880 1792-269158,,Mo-Th 09:30-17:00; Fr-Sa 00:00-24:00; Su 09:30-17:00,MoneyGram,Q1944412
65016411,moneygram,IBBL -  BANCHARAMPUR   BRANCH,,BRAMHAN BARIA,,,BD,+880 1714-098018,,24/7,MoneyGram,Q1944412
65018066,moneygram,IBBL -  NABINAGAR   BRANCH,,BRAMHAN BARIA,,,BD,+880 1713-141981,,24/7,MoneyGram,Q1944412
69514317,moneygram,FIRST SECURITY ISLAMI BANK LTD - BRAHMAN,,BRAHMANBARIA,,,BD,+880 2-9888446,,24/7,MoneyGram,Q1944412
73998644,moneygram,IFIC BANK - #450003 - SARAK BAZAR UPOSHA,,BRAHMANBARIA,,,BD,+880 9666-716250,,Mo-Th 10:00-18:00; Fr-Sa 00:00-24:00; Su 10:00-17:00,MoneyGram,Q1944412
73999669,moneygram,IFIC BANK - #450004 - NANDANPUR UPOSHAKH,,BRAHMANBARIA,,,BD,+880 9666-716250,,Mo-Th 10:00-18:00; Fr-Sa 00:00-24:00; Su 10:00-17:00,MoneyGram,Q1944412
74000968,moneygram,IFIC BANK - #450007 - BISWAROAD POINT UP,,BRAHMANBARIA,,,BD,+880 9666-716250,,Mo-Th 10:00-18:00; Fr-Sa 00:00-24:00; Su 10:00-17:00,MoneyGram,Q1944412
73998495,moneygram,IFIC BANK - #450127 - CHAMPAKNAGAR UPOSH,,BRAHMANBARIA,,,BD,+880 9666-716250,,Mo-Th 10:00-18:00; Fr-Sa 00:00-24:00; Su 10:00-17:00,MoneyGram,Q1944412
73994839,moneygram,IFIC BANK - #452034 - BRAHMANBARIA BRANC,,BRAHMANBARIA,,,BD,+880 9666-716250,,Mo-Th 10:00-18:00; Fr-Sa 00:00-24:00; Su 10:00-17:00,MoneyGram,Q1944412
74272194,moneygram,PREMIER BANK - #66105 - ASHUGANJ-PBL,,BRAHMANBARIA,,,BD,8800852874448,,Mo-Th 10:00-18:00; Fr 00:00-24:00; Sa 10:00-13:00; Su 10:00-18:00,MoneyGram,Q1944412
74273216,moneygram,PREMIER BANK - #66507 - BRAHMANBARIA SME,,BRAHMANBARIA,,,BD,+880 851-61510,,Mo-Th 10:00-18:00; Fr 00:00-24:00; Sa 10:00-13:00; Su 10:00-18:00,MoneyGram,Q1944412
74326561,moneygram,13 NO. MACHIHATA U.D.C BANK ASIA - BRAHM,,BRAHMANBARIA,,,BD,48406480,,Mo-Th 09:30-17:00; Fr-Sa 00:00-24:00; Su 09:30-17:00,MoneyGram,Q1944412
70139972,moneygram,DUTCH-BANGLA BANK LIMITED - BRAHMANBARIA,,BRAHMANBARIA,,,BD,+880 851-63284,,24/7,MoneyGram,Q1944412
74392003,moneygram,RATAN TELECOM - BRAHMANBARIA - DAMCHAIL,,BRAHMANBARIA,,,BD,+880 1700-766735,,Mo-Su 08:00-20:00,MoneyGram,Q1944412
74419892,moneygram,BRAC BANK AGENT BANKING RADHIKA BAZAR OU,,BRAHMANBARIA,,,BD,+880 1913-217835,,Mo-Su 08:00-20:00,MoneyGram,Q1944412
74429374,moneygram,JUGAJOG CLINIC - BRAHMANBARIA - BIDDAYAK,,BRAHMANBARIA,,,BD,+880 1714-414466,,Mo-Su 08:00-20:00,MoneyGram,Q1944412
74345500,moneygram,BANK ASIA - BRAHMANBARIA - BANK ASIA,,BRAHMANBARIA,,,BD,+880 1714-385476,,Mo-Th 09:30-17:00; Fr-Sa 00:00-24:00; Su 09:30-17:00,MoneyGram,Q1944412
74440146,moneygram,M/S. ANOWAR STORE - BRAHMANBARIA - M/S.,,BRAHMANBARIA,,,BD,+880 1738-502565,,Mo-Th 09:30-17:00; Fr-Sa 00:00-24:00; Su 09:30-17:00,MoneyGram,Q1944412
74428281,moneygram,M/S. TAIMUR ENTERPRISE - BRAHMANBARIA -,,BRAHMANBARIA,,,BD,+880 1772-277735,,Mo-Th 09:30-17:00; Fr-Sa 00:00-24:00; Su 09:30-17:00,MoneyGram,Q1944412
74436532,moneygram,SHUILPUR UNION DIGITAL CENTRE - BRAHMANB,,BRAHMANBARIA,,,BD,+880 1772-410055,,Mo-Th 09:30-17:00; Fr-Sa 00:00-24:00; Su 09:30-17:00,MoneyGram,Q1944412
70370029,moneygram,STANDARD BANK LIMITED - BRAHMANBARIA - B,,BRAHMANBARIA,,,BD,+880 851-61788,,24/7,MoneyGram,Q1944412
70407345,moneygram,EBL - BRAHMANBARIA - BRAHMANBARIA  BRANC,,BRAHMANBARIA,,,BD,+880 851-61649,,24/7,MoneyGram,Q1944412
74550395,moneygram,M/S HAZARI TRADERS - #5949 - BRAHMANBARI,,BRAHMANBARIA,,,BD,776475970,,Mo-Su 08:00-20:00,MoneyGram,Q1944412
74659092,moneygram,1 NO. BARAIL UDC - BRAHMANBARIA - 1 NO.,,BRAHMANBARIA,,,BD,+880 1833-772735,,Mo-Su 09:30-17:00,MoneyGram,Q1944412
74673353,moneygram,BRAC BANK BUDHAL BAZAR OUTLET - BRAHMANB,,BRAHMANBARIA,,,BD,+880 1714-284134,,Mo-Su 08:00-20:00,MoneyGram,Q1944412
74680142,moneygram,BRAC BANK KRISHNANAGAR AGENT BANKING OUT,,BRAHMANBARIA,,,BD,+880 1768-349007,,Mo-Su 08:00-20:00,MoneyGram,Q1944412
74822159,moneygram,BRAC BANK MERKOTA AGENT BANKING OUTLET -,,BRAHMANBARIA,,,BD,+880 1711-205299,,Mo-Su 08:00-20:00,MoneyGram,Q1944412
66153700,moneygram,AIBL - #64,,BRAHMANBARIA,,,BD,+880 851-59330,,24/7,MoneyGram,Q1944412
74991666,moneygram,MA DIGITAL STUDIO - #1726 - BRAHMANBARIA,,BRAHMANBARIA,,,BD,+880 1820-569052,,Mo-Su 08:00-20:00,MoneyGram,Q1944412
75004688,moneygram,M/S KHAN TRADING - #7802 - BRAHMANBARIA,,BRAHMANBARIA,,,BD,+880 1717-602738,,Mo-Su 08:00-20:00,MoneyGram,Q1944412
75020060,moneygram,SAMIR ENTERPRISE - #7575 - BRAHMANBARIA,,BRAHMANBARIA,,,BD,777627777,,Mo-Su 08:00-20:00,MoneyGram,Q1944412
75059633,moneygram,NEW SIEAM TELECOM - #1023 - BRAHMANBARIA,,BRAHMANBARIA,,,BD,+880 1711-369600,,Mo-Su 08:00-20:00,MoneyGram,Q1944412
65016385,moneygram,IBBL -  ASHUGONJ   BRANCH,,BRAMHAN BARIA,,,BD,+880 1711-889948,,24/7,MoneyGram,Q1944412
65016398,moneygram,IBBL -  B. BARIA   BRANCH,,BRAMHAN BARIA,,,BD,+880 1711-889942,,24/7,MoneyGram,Q1944412
65233032,moneygram,AGRANI BANK,,BRAMHAN BARIA,,,BD,+880 1819-413009,,Mo-Th 09:00-16:00; Fr 00:00-24:00; Sa-Su 09:00-16:00,MoneyGram,Q1944412
65231283,moneygram,AGRANI BANK,,BRAMHAN BARIA,,,BD,+880 851-58505,,Mo-Th 09:00-16:00; Fr 00:00-24:00; Sa-Su 09:00-16:00,MoneyGram,Q1944412
65231296,moneygram,AGRANI BANK,,BRAMHAN BARIA,,,BD,+880 1819-412985,,Mo-Th 09:00-16:00; Fr 00:00-24:00; Sa-Su 09:00-16:00,MoneyGram,Q1944412
65231322,moneygram,AGRANI BANK,,BRAMHAN BARIA,,,BD,2356203,,Mo-Th 09:00-16:00; Fr 00:00-24:00; Sa-Su 09:00-16:00,MoneyGram,Q1944412
65231335,moneygram,AGRANI BANK,,BRAMHAN BARIA,,,BD,2575218,,Mo-Th 09:00-16:00; Fr 00:00-24:00; Sa-Su 09:00-16:00,MoneyGram,Q1944412
65231348,moneygram,AGRANI BANK,,BRAMHAN BARIA,,,BD,+880 1819-412987,,Mo-Th 09:00-16:00; Fr 00:00-24:00; Sa-Su 09:00-16:00,MoneyGram,Q1944412
65231351,moneygram,AGRANI BANK,,BRAMHAN BARIA,,,BD,9412990,,Mo-Th 09:00-16:00; Fr 00:00-24:00; Sa-Su 09:00-16:00,MoneyGram,Q1944412
65231364,moneygram,AGRANI BANK,,BRAMHAN BARIA,,,BD,+880 851-58385,,Mo-Th 09:00-16:00; Fr 00:00-24:00; Sa-Su 09:00-16:00,MoneyGram,Q1944412
65231377,moneygram,AGRANI BANK,,BRAMHAN BARIA,,,BD,+880 851-58139,,Mo-Th 09:00-16:00; Fr 00:00-24:00; Sa-Su 09:00-16:00,MoneyGram,Q1944412
65231380,moneygram,AGRANI BANK,,BRAMHAN BARIA,,,BD,2256076,,Mo-Th 09:00-16:00; Fr 00:00-24:00; Sa-Su 09:00-16:00,MoneyGram,Q1944412
65231393,moneygram,AGRANI BANK,,BRAMHAN BARIA,,,BD,2473083,,Mo-Th 09:00-16:00; Fr 00:00-24:00; Sa-Su 09:00-16:00,MoneyGram,Q1944412
65231403,moneygram,AGRANI BANK,,BRAMHAN BARIA,,,BD,+880 1819-412988,,Mo-Th 09:00-16:00; Fr 00:00-24:00; Sa-Su 09:00-16:00,MoneyGram,Q1944412
65231429,moneygram,AGRANI BANK,,BRAMHAN BARIA,,,BD,+880 1819-412986,,Mo-Th 09:00-16:00; Fr 00:00-24:00; Sa-Su 09:00-16:00,MoneyGram,Q1944412
65231445,moneygram,AGRANI BANK,,BRAMHAN BARIA,,,BD,+880 1819-412991,,Mo-Th 09:00-16:00; Fr 00:00-24:00; Sa-Su 09:00-16:00,MoneyGram,Q1944412
65231458,moneygram,AGRANI BANK,,BRAMHAN BARIA,,,BD,+880 851-58200,,Mo-Th 09:00-16:00; Fr 00:00-24:00; Sa-Su 09:00-16:00,MoneyGram,Q1944412
65891432,moneygram,IBBL -  AKHAURA SME     BRANCH,,BRAMHAN BARIA,,,BD,+880 1730-326104,,24/7,MoneyGram,Q1944412
66892016,moneygram,EXIM - BRAHMANBARIA - ASHUGONJ BR,,BRAHMANBARIA,,,BD,+880 8528-456,,24/7,MoneyGram,Q1944412
66934592,moneygram,NCC - Akhaura Branch,,BRAMHAN BARIA,,,BD,0852256250,,24/7,MoneyGram,Q1944412
67108165,moneygram,IBBL - KOSBA      BRANCH,,BRAMHAN BARIA,,,BD,+880 1755-554481,,Mo-Th 09:00-17:00; Fr 00:00-24:00; Sa 10:00-16:00; Su 09:00-17:00,MoneyGram,Q1944412
67108712,moneygram,AIBL - KUTI BAZAR BRANCH,,BRAMHAN BARIA,,,BD,+880 1730-970400,,24/7,MoneyGram,Q1944412
67218246,moneygram,NBL - Brahman Baria Branch,,BRAMHAN BARIA,,,BD,+880 1713-388910,,24/7,MoneyGram,Q1944412
