Ref,Spider,Name,Address,City,State,Zipcode,Country,Phone,Website,Hours,Brand,WikiData
8731864,anatomie,Franklin Hills Country Club,,Franklin,MI,,US,+1 248-851-2200,https://www.franklinhills.com/,,Anatomie,Q115608133
Detroit Country Day School,barnesnoblecollege,Detroit Country Day School,,Hills,MI,,US,,https://www.bncollege.com/campus-stores/,,Barnes & Noble College,Q4861508
117376,bluerhino,Beverly Hills Ace Hardware #14831,,Beverly Hills,MI,,US,+1 248-644-0500,,,Blue Rhino,Q65681213
33696880840154802500100000000000,bp,BP,,Beverly Hills,MI,,US,+1 248-540-3870,,24/7,BP,Q152057
60094,citi,ATM INDEPENDENT BANK,,Beverly Hills,MI,,US,,,,Citibank,Q857063
https://www.edwardjones.com/us-en/financial-advisor/angie-card,edwardjones,Angelina D Card,,Bingham Farms,MI,,US,+1 734-282-4543,https://www.edwardjones.com/us-en/financial-advisor/angie-card,Mo-Fr 08:00-17:00,Edward Jones,Q5343830
https://salons.greatclips.com/us/mi/beverly-hills/17650-w-13-mile-rd,greatclips,Great Clips,,Beverly Hills,MI,,US,+1 248-593-9020,https://salons.greatclips.com/us/mi/beverly-hills/17650-w-13-mile-rd,Mo-Sa 09:00-19:00; Su 10:00-18:00,Great Clips,Q5598967
4107,honey_baked,HoneyBaked of Birmingham,,Birmingham,MI,,US,+1 248-540-0404,https://www.honeybaked.com/stores/4107,,Honey Baked Ham,Q5893363
https://locations.jimmyjohns.com/mi/binghamfarms/sandwiches-1953.html,jimmy_johns,Jimmy John's,,Bingham Farms,MI,,US,+1 248-712-4485,https://locations.jimmyjohns.com/mi/binghamfarms/sandwiches-1953.html,,Jimmy John's,Q1689380
https://locations.kfc.com/#11249946,kfc,Chicken Nuggets Near Beverly Hills,,Beverly Hills,MI,,US,,https://locations.kfc.com/mi/beverly-hills/15616-thirteen-mile-road/chickennugget,Mo-Fr 10:30-22:00; Sa 11:00-22:00; Su 11:00-21:00,KFC,Q524757
157514,marathon_petroleum_us,FRANKLIN SERVICE,,FRANKLIN,MI,,US,+1 248-626-2080,,,Marathon,Q458363
https://www.arden-courts.org/locations/arden-courts-promedica-memory-care-community-bingham-farms/,promedica_us,Arden Courts - ProMedica Memory Care Community (Bingham Farms),,Bingham Farms,MI,,US,+1 248-644-8100,https://www.arden-courts.org/locations/arden-courts-promedica-memory-care-community-bingham-farms/,,ProMedica,Q7246673
https://locations.qdoba.com/us/mi/bingham-farms/30758-telegraph-rd.html,qdoba,QDOBA Telegraph and 13 mile,,Bingham Farms,MI,,US,+1 248-594-3349,https://locations.qdoba.com/us/mi/bingham-farms/30758-telegraph-rd.html,Mo-Su 10:30-22:00,Qdoba,Q1363885
https://locations.tacobell.com/#3916987,taco_bell,Taco Bell,,Beverly Hills,MI,,US,+1 248-642-5727,https://locations.tacobell.com/mi/beverly-hills/31305-southfield-road.html,Mo-Su 09:00-02:00,Taco Bell,Q752941
08285,tjx,Beverly Hills,17740 W.13 Mile Rd,Beverly Hills,MI,,US,+1 248-258-6111,,Mo-Sa 09:30-21:30; Su 10:00-20:00,TJ Maxx,Q10860683
1437846,usps,FRANKLIN,,FRANKLIN,MI,,US,+1 248-368-2977,,Mo-Fr 08:30-17:00; Sa 09:00-13:00,United States Postal Service,Q668687
4802500029,usps_collection_boxes,USPS COLLECTION BOX - BLUE BOX,26111 W 14 MILE RD,BINGHAM FARMS,MI,,US,,,,United States Postal Service,Q668687
4802500070,usps_collection_boxes,USPS COLLECTION BOX - PO LOBBY,32406 FRANKLIN RD,BINGHAM FARMS,MI,,US,,,,United States Postal Service,Q668687
4802500022,usps_collection_boxes,USPS COLLECTION BOX - BLUE BOX,32406 FRANKLIN RD,BINGHAM FARMS,MI,,US,,,,United States Postal Service,Q668687
4802500021,usps_collection_boxes,USPS COLLECTION BOX - PO LOBBY,32406 FRANKLIN RD,BINGHAM FARMS,MI,,US,,,,United States Postal Service,Q668687
4802500038,usps_collection_boxes,USPS COLLECTION BOX - BLUE BOX,32500 TELEGRAPH RD,BINGHAM FARMS,MI,,US,,,,United States Postal Service,Q668687
4802500037,usps_collection_boxes,USPS COLLECTION BOX - BLUE BOX,32400 TELEGRAPH RD,BINGHAM FARMS,MI,,US,,,,United States Postal Service,Q668687
4802500063,usps_collection_boxes,USPS COLLECTION BOX - BLUE BOX,30850 TELEGRAPH RD,BINGHAM FARMS,MI,,US,,,,United States Postal Service,Q668687
4802500002,usps_collection_boxes,USPS COLLECTION BOX - BLUE BOX,31100 TELEGRAPH RD,BINGHAM FARMS,MI,,US,,,,United States Postal Service,Q668687
4802500043,usps_collection_boxes,USPS COLLECTION BOX - BLUE BOX,31500 TELEGRAPH RD,BINGHAM FARMS,MI,,US,,,,United States Postal Service,Q668687
4802500064,usps_collection_boxes,USPS COLLECTION BOX - BLUE BOX,24255 W 13 MILE RD,BINGHAM FARMS,MI,,US,,,,United States Postal Service,Q668687
4802500054,usps_collection_boxes,USPS COLLECTION BOX - BLUE BOX,31780 TELEGRAPH RD,BINGHAM FARMS,MI,,US,,,,United States Postal Service,Q668687
4802500045,usps_collection_boxes,USPS COLLECTION BOX - BLUE BOX,31600 TELEGRAPH RD,BINGHAM FARMS,MI,,US,,,,United States Postal Service,Q668687
4802500067,usps_collection_boxes,USPS COLLECTION BOX - BLUE BOX,30100 TELEGRAPH RD,BINGHAM FARMS,MI,,US,,,,United States Postal Service,Q668687
4802500066,usps_collection_boxes,USPS COLLECTION BOX - BLUE BOX,30100 TELEGRAPH RD,BINGHAM FARMS,MI,,US,,,,United States Postal Service,Q668687
4802500035,usps_collection_boxes,USPS COLLECTION BOX - BLUE BOX,32100 TELEGRAPH RD,BINGHAM FARMS,MI,,US,,,,United States Postal Service,Q668687
4802500036,usps_collection_boxes,USPS COLLECTION BOX - BLUE BOX,32270 TELEGRAPH RD,BINGHAM FARMS,MI,,US,,,,United States Postal Service,Q668687
4802500001,usps_collection_boxes,USPS COLLECTION BOX - BLUE BOX,18157 BEVERLY,BINGHAM FARMS,MI,,US,,,,United States Postal Service,Q668687
4802500003,usps_collection_boxes,USPS COLLECTION BOX - BLUE BOX,16904 KINROSS,BINGHAM FARMS,MI,,US,,,,United States Postal Service,Q668687
4802500062,usps_collection_boxes,USPS COLLECTION BOX - BLUE BOX,16904 KINROSS,BINGHAM FARMS,MI,,US,,,,United States Postal Service,Q668687
beverlyhills_oil-change-030023,valvoline_instant_oil_change,Valvoline,31005 Green Field Road ,Beverly Hills,MI,,US,+1 248-540-8910,https://store.vioc.com/mi/beverlyhills/oil-change-030023.html,,Valvoline Instant Oil Change,Q7912852
,visa,,,ST. CLAIR,MI,,US,,,,,
,visa,,,DETROIT,MI,,US,,,,,
,visa,,,DETROIT,MI,,US,,,,,
,visa,,,BEVERLY HILLS,MI,,US,,,,,
,visa,,,BEVERLY HILLS,MI,,US,,,,,
,visa,,,SOUTHFIELD TOWNSHIP,MI,,US,,,,,
,visa,,,BINGHAM FARM,MI,,US,,,,,
,visa,,,BINGHAM FARMS,MI,,US,,,,,
,visa,,,BINGHAM FARMS,MI,,US,,,,,
,visa,,,BINGHAM FARMS,MI,,US,,,,,
,visa,,,BINGHAM FARM,MI,,US,,,,,
,visa,,,FRANKLIN,MI,,US,,,,,
,visa,,,FRANKLIN,MI,,US,,,,,
,visa,,,BINGHAM FARM,MI,,US,,,,,
,visa,,,FRANKLIN,MI,,US,,,,,
,visa,,,FRANKLIN,MI,,US,,,,,
,visa,,,WAYNE,MI,,US,,,,,
,visa,,,WAYNE,MI,,US,,,,,
