Ref,Spider,Name,Address,City,State,Zipcode,Country,Phone,Website,Hours,Brand,WikiData
71986344,moneygram,HANISHA AIR TRAVELS AND NET - SIVAGANGA,,SIVAGANGA,,,IN,+91 97897 35016,,Mo-Su 09:00-21:00,MoneyGram,Q1944412
72049989,moneygram,MOOVAR GENERAL STORE - SIVAGANGAI - SIVA,,SIVAGANGAI,,,IN,+91 70101 66566,,Mo-Su 09:00-21:00,MoneyGram,Q1944412
72326356,moneygram,NATHAN STORES - SIVAGANGA,,SIVAGANGA,,,IN,+91 99425 70305,,Mo-Su 06:00-23:00,MoneyGram,Q1944412
72767957,moneygram,RAYAN TRAVELS & TOURISM - SIVAGANGA,,SIVAGANGA,,,IN,+91 91765 47562,,Mo-Sa 09:00-13:00; Su 02:30-19:30,MoneyGram,Q1944412
73044718,moneygram,AIR MOON TRAVELS,,SIVAGANGAI,,,IN,+91 94425 41448,,Mo-Su 08:00-21:00,MoneyGram,Q1944412
73044873,moneygram,GURU JEWELLERY,,SIVAGANGA,,,IN,+91 98234 56718,,Mo-Su 08:00-21:00,MoneyGram,Q1944412
73278267,moneygram,MUTHOOT FINANCE LTD - #2854 - SIVAGANGAI,,SIVAGANGAI,,,IN,+91 4575 243 390,,Mo-Su 09:00-19:00,MoneyGram,Q1944412
73252526,moneygram,MUTHOOT FINANCE LTD - #354 - SIVAGANGAI,,SIVAGANGAI,,,IN,+91 4575 245 472,,Mo-Su 09:00-19:00,MoneyGram,Q1944412
73312974,moneygram,MUTHOOT FINCORP LIMITED - #F1003 - KARAI,,SIVAGANGA,,,IN,+91 4565 232 375,,Mo-Sa 09:00-17:30; Su 00:00-24:00,MoneyGram,Q1944412
73313355,moneygram,MUTHOOT FINCORP LIMITED - #F1148 - MANAM,,SIVAGANGA,,,IN,+91 4574 258 112,,Mo-Sa 09:00-17:30; Su 00:00-24:00,MoneyGram,Q1944412
73315890,moneygram,MUTHOOT FINCORP LIMITED - #F1466 - THIRU,,SIVAGANGA,,,IN,+91 4574 265 250,,Mo-Sa 09:00-17:30; Su 00:00-24:00,MoneyGram,Q1944412
73316297,moneygram,MUTHOOT FINCORP LIMITED - #F1477 - SIVAG,,SIVAGANGA,,,IN,+91 4575 243 811,,Mo-Sa 09:00-17:30; Su 00:00-24:00,MoneyGram,Q1944412
73322003,moneygram,MUTHOOT FINCORP LIMITED - #F1706 - DEVAK,,SIVAGANGA,,,IN,+91 4561 260 747,,Mo-Sa 09:00-17:30; Su 00:00-24:00,MoneyGram,Q1944412
73321075,moneygram,MUTHOOT FINCORP LIMITED - #F2044 - MANAM,,SIVAGANGA,,,IN,+91 4574 268 028,,Mo-Sa 09:00-17:30; Su 00:00-24:00,MoneyGram,Q1944412
73322346,moneygram,MUTHOOT FINCORP LIMITED - #F2397 - THIRU,,SIVAGANGA,,,IN,+91 4561 244 094,,Mo-Sa 09:00-17:30; Su 00:00-24:00,MoneyGram,Q1944412
73331353,moneygram,MUTHOOT FINCORP LIMITED - #F3445 - SINGA,,SIVAGANGA,,,IN,+91 4577 242 229,,Mo-Sa 09:00-17:30; Su 00:00-24:00,MoneyGram,Q1944412
73332695,moneygram,MUTHOOT FINCORP LIMITED - #F3647 - C K M,,SIVAGANGA,,,IN,+91 4561 254 267,,Mo-Sa 09:00-17:30; Su 00:00-24:00,MoneyGram,Q1944412
73332970,moneygram,MUTHOOT FINCORP LIMITED - #F3721 - TIRUP,,SIVAGANGA,,,IN,+91 4577 266 006,,Mo-Sa 09:00-17:30; Su 00:00-24:00,MoneyGram,Q1944412
73385545,moneygram,BISMI COMPUTERS,,SIVAGANGA,,,IN,+91 85085 02131,,Mo-Su 08:00-21:00,MoneyGram,Q1944412
73387035,moneygram,MASS MOBILES,,SIVAGANGA,,,IN,+91 96291 22147,,Mo-Su 08:00-21:00,MoneyGram,Q1944412
73410999,moneygram,ST MONEY CENTRE,,SIVAGANGAI,,,IN,+91 98944 69025,,Mo-Su 08:00-21:00,MoneyGram,Q1944412
73385671,moneygram,YOGESWARI ALAGAMMAL URAKKADAI,,SIVAGANGA,,,IN,+91 96555 81800,,Mo-Su 08:00-21:00,MoneyGram,Q1944412
73423384,moneygram,SIKARAM A TO Z SERV,,SIVAGANGA,,,IN,+91 94435 44344,,Mo-Su 08:00-21:00,MoneyGram,Q1944412
73533805,moneygram,AMP COMPUTER CENTRE,,SIVAGANGA,,,IN,+91 84281 25287,,Mo-Su 08:00-21:00,MoneyGram,Q1944412
73534943,moneygram,CYBER WORLD,,SIVAGANGA,,,IN,+91 98949 93029,,Mo-Su 08:00-21:00,MoneyGram,Q1944412
73642576,moneygram,FLY AIR TRAVELS,,SIVAGANGAI,,,IN,+91 80567 20476,,Mo-Su 08:00-21:00,MoneyGram,Q1944412
73746472,moneygram,ALMAASTOURTRAVELS,,SIVAGANGAI,,,IN,+91 76039 58997,,Mo-Su 08:00-21:00,MoneyGram,Q1944412
73728856,moneygram,EASYCOMPUTERSSVGA,,SIVAGANGAI,,,IN,+91 90478 39727,,Mo-Su 08:00-21:00,MoneyGram,Q1944412
73755719,moneygram,MAYA INAIYAM,,SIVAGANGA,,,IN,+91 84896 31212,,Mo-Su 08:00-21:00,MoneyGram,Q1944412
73734769,moneygram,PREETHA XEROXVIDEOS & CSC,,SIVAGANGA,,,IN,+91 99445 18283,,Mo-Su 08:00-21:00,MoneyGram,Q1944412
73749314,moneygram,SRI AMMAN STUDIO,,SIVAGANGA,,,IN,+91 98420 81422,,Mo-Su 08:00-21:00,MoneyGram,Q1944412
69406467,moneygram,TAMIL AIR TRAVELS,,SIVAGANGA,,,IN,+91 4575 240 063,,Mo-Su 06:00-23:00,MoneyGram,Q1944412
73823696,moneygram,DD PUGAL ALL IN 1 JUNCTION,,SIVAGANGA,,,IN,+91 93604 81505,,Mo-Su 08:00-21:00,MoneyGram,Q1944412
74053753,moneygram,MUTHOOTTU MINI FINANCIERS LTD - SIVAGANG,,SIVAGANGAI 1,,,IN,+91 4575 240 127,,Mo-Sa 09:00-17:30; Su 00:00-24:00,MoneyGram,Q1944412
74220557,moneygram,UNIMONI FINANCIAL SERVICES LIMITED - SIV,,SIVAGANGAI,,,IN,+91 94433 34640,,Mo-Fr 09:30-18:30; Sa 09:30-14:00; Su 00:00-24:00,MoneyGram,Q1944412
66940489,moneygram,MANAPPURAM FINANCE - #2488 - SHIVAGANGA,,SHIVAGANGA,,,IN,+91 4575 243 958,,Mo-Sa 09:30-18:30; Su 09:30-15:30,MoneyGram,Q1944412
71203166,moneygram,CHELLADURAI AGENCY - SIVAGANGA - SIVAGAN,,SIVAGANGA,,,IN,+91 97878 93397,,Mo-Su 09:00-21:00,MoneyGram,Q1944412
71205009,moneygram,ATHEN COMMUNICATION - SIVAGANGA - SIVAGA,,SIVAGANGA,,,IN,+91 99437 07377,,Mo-Su 09:00-21:00,MoneyGram,Q1944412
71204534,moneygram,KS SMART TRAVELS - SIVAGANGA - SIVAGANGA,,SIVAGANGA,,,IN,+91 80568 61214,,Mo-Su 09:00-21:00,MoneyGram,Q1944412
71203632,moneygram,MSK AIR TRAVELS - SIVAGANGA - SIVAGANGA,,SIVAGANGA,,,IN,+91 88832 79227,,Mo-Su 09:00-21:00,MoneyGram,Q1944412
71453660,moneygram,SNMS TRAVELS - SIVAGANGA - SIVAGANGA,,SIVAGANGA,,,IN,+91 99441 09971,,Mo-Su 08:00-20:00,MoneyGram,Q1944412
71496591,moneygram,GAYATHRI ASSOCIATES - SIVAGANGA - SIVAGA,,SIVAGANGA,,,IN,+91 94426 75998,,Mo-Su 08:00-20:00,MoneyGram,Q1944412
71548038,moneygram,VIJI COMMUNICATION - SIVAGANGA - SIVAGAN,,SIVAGANGA,,,IN,+91 99653 17137,,Mo-Su 08:00-20:00,MoneyGram,Q1944412
71760599,moneygram,SS TRAVELS - SIVAGANGA - SIVAGANGA,,SIVAGANGA,,,IN,+91 99947 82547,,Mo-Fr 08:00-20:00; Sa-Su 09:00-13:00,MoneyGram,Q1944412
71866066,moneygram,GANDHIMATHI GOLD HOUSE - SIVAGANGA,,SIVAGANGA,,,IN,+91 80566 61555,,Mo-Su 08:00-20:00,MoneyGram,Q1944412
71866079,moneygram,MAHARAJA TRAVELS - SIVAGANGA - SIVAGANGA,,SIVAGANGA,,,IN,+91 98658 90163,,Mo-Su 09:00-21:00,MoneyGram,Q1944412
71498560,moneygram,SARAVANA TRAVELS - SIVAGANGA - SIVAGANGA,,SIVAGANGA,,,IN,+91 98428 70143,,Mo-Su 08:00-20:00,MoneyGram,Q1944412
,visa,,,MUMBAI,,,IN,,,,,
