Ref,Spider,Name,Address,City,State,Zipcode,Country,Phone,Website,Hours,Brand,WikiData
130068,bluerhino,Megadeli,,East Pittsburgh,PA,,US,+1 412-271-3354,,,Blue Rhino,Q65681213
31002,citi,ATM 7ELEVEN-FCTI,,East Pittsburgh,PA,,US,,,,Citibank,Q857063
0779369800,sunoco_us,Sunoco,,EAST PITTSBURGH,PA,,US,+1 412-829-8170,,,Sunoco,Q1423218
1361813,usps,EAST PITTSBURGH,,EAST PITTSBURGH,PA,,US,+1 412-823-3625,,"Mo-Fr 09:45-13:00,14:00-16:45; Sa 09:00-12:00",United States Postal Service,Q668687
1511200006,usps_collection_boxes,USPS COLLECTION BOX - BLUE BOX,201 ELIZABETH AVE,EAST PITTSBURGH,PA,,US,,,,United States Postal Service,Q668687
1511200002,usps_collection_boxes,USPS COLLECTION BOX - BLUE BOX,700 BRADDOCK AVE,EAST PITTSBURGH,PA,,US,,,,United States Postal Service,Q668687
1511200023,usps_collection_boxes,USPS COLLECTION BOX - BLUE BOX,146 HIGHLAND AVE,EAST PITTSBURGH,PA,,US,,,,United States Postal Service,Q668687
1511200025,usps_collection_boxes,USPS COLLECTION BOX - PO LOBBY,701 LINDEN AVE,EAST PITTSBURGH,PA,,US,,,,United States Postal Service,Q668687
1511200027,usps_collection_boxes,USPS COLLECTION BOX - PO LOBBY,701 LINDEN AVE,EAST PITTSBURGH,PA,,US,,,,United States Postal Service,Q668687
1511200029,usps_collection_boxes,USPS COLLECTION BOX - PO LOBBY,701 LINDEN AVE,EAST PITTSBURGH,PA,,US,,,,United States Postal Service,Q668687
1511200001,usps_collection_boxes,USPS COLLECTION BOX - BLUE BOX,701 LINDEN AVE,EAST PITTSBURGH,PA,,US,,,,United States Postal Service,Q668687
1511200024,usps_collection_boxes,USPS COLLECTION BOX - PO LOBBY,701 LINDEN AVE LBBY,EAST PITTSBURGH,PA,,US,,,,United States Postal Service,Q668687
1511200026,usps_collection_boxes,USPS COLLECTION BOX - PO LOBBY,701 LINDEN AVE LBBY,EAST PITTSBURGH,PA,,US,,,,United States Postal Service,Q668687
1511200008,usps_collection_boxes,USPS COLLECTION BOX - BLUE BOX,995 GREENSBURG PIKE,EAST PITTSBURGH,PA,,US,,,,United States Postal Service,Q668687
1511200017,usps_collection_boxes,USPS COLLECTION BOX - BLUE BOX,500 HOWARD ST,EAST PITTSBURGH,PA,,US,,,,United States Postal Service,Q668687
1511200021,usps_collection_boxes,USPS COLLECTION BOX - BLUE BOX,601 GRANDVIEW AVE,EAST PITTSBURGH,PA,,US,,,,United States Postal Service,Q668687
,visa,,,EAST PITTSBURGH,PA,,US,,,,,
,visa,,,EAST PITTSBURGH,PA,,US,,,,,
,visa,,,EAST PITTSBURGH,PA,,US,,,,,
,visa,,,EAST PITTSBURGH,PA,,US,,,,,
,visa,,,EAST PITTSBURG,PA,,US,,,,,
,visa,,,EAST PITTSBURGH,PA,,US,,,,,
,visa,,,E PITTSBURGH,PA,,US,,,,,
,visa,,,EAST PITTSBURGH,PA,,US,,,,,
,visa,,,E PITTSBURGH,PA,,US,,,,,
,visa,,,PITTSBURGH,PA,,US,,,,,
,visa,,,PITTSBURGH,PA,,US,,,,,
,visa,,,PITTSBURGH,PA,,US,,,,,
,visa,,,E PITTSBURGH,PA,,US,,,,,
,visa,,,PITTSBURGH,PA,,US,,,,,
,visa,,,EAST PITTSBURGH,PA,,US,,,,,
