Ref,Spider,Name,Address,City,State,Zipcode,Country,Phone,Website,Hours,Brand,WikiData
https://local.fedex.com/#27764736,fedex,FedEx Station,,Cochabamba,Cochabamba,,BO,+591 4 4111194,https://local.fedex.com/es-bo/cochabamba/cbba,,FedEx,Q459477
location-9231,sbarro,Huper Mall,Av Pando 1386,Cochabamba,Cochabamba,,BO,,https://sbarro.com/locations/cochabamba/cochabamba/huper-mall/,,Sbarro,Q2589409
,visa,,,ENTRE RIOS,COCHABAMBA,,BO,,,,,
,visa,,,ENTRE RIOS,COCHABAMBA,,BO,,,,,
,visa,,,IVIRGARZAMA,COCHABAMBA,,BO,,,,,
,visa,,,CHIMORE,COCHABAMBA,,BO,,,,,
,visa,,,SHINAHOTA,COCHABAMBA,,BO,,,,,
,visa,,,AIQUILE,COCHABAMBA,,BO,,,,,
,visa,,,VILLA TUNARI,COCHABAMBA,,BO,,,,,
,visa,,,MIZQUE,COCHABAMBA,,BO,,,,,
,visa,,,PUNATA,COCHABAMBA,,BO,,,,,
,visa,,,CLIZA,COCHABAMBA,,BO,,,,,
,visa,,,SACABA,COCHABAMBA,,BO,,,,,
,visa,,,SACABA,COCHABAMBA,,BO,,,,,
,visa,,,SACABA,COCHABAMBA,,BO,,,,,
,visa,,,COCHABAMBA,COCHABAMBA,,BO,,,,,
,visa,,,COCHABAMBA,COCHABAMBA,,BO,,,,,
,visa,,,COCHABAMBA,COCHABAMBA,,BO,,,,,
,visa,,,COCHABAMBA,COCHABAMBA,,BO,,,,,
,visa,,,COCHABAMBA,COCHABAMBA,,BO,,,,,
,visa,,,COCHABAMBA,COCHABAMBA,,BO,,,,,
,visa,,,COCHABAMBA,COCHABAMBA,,BO,,,,,
,visa,,,COCHABAMBA,COCHABAMBA,,BO,,,,,
,visa,,,COCHABAMBA,COCHABAMBA,,BO,,,,,
,visa,,,COCHABAMBA,COCHABAMBA,,BO,,,,,
,visa,,,COCHABAMBA,COCHABAMBA,,BO,,,,,
,visa,,,COCHABAMBA,COCHABAMBA,,BO,,,,,
,visa,,,COCHABAMBA,COCHABAMBA,,BO,,,,,
,visa,,,COCHABAMBA,COCHABAMBA,,BO,,,,,
,visa,,,COCHABAMBA,COCHABAMBA,,BO,,,,,
,visa,,,COCHABAMBA,COCHABAMBA,,BO,,,,,
,visa,,,COCHABAMBA,COCHABAMBA,,BO,,,,,
,visa,,,COCHABAMBA,COCHABAMBA,,BO,,,,,
,visa,,,COCHABAMBA,COCHABAMBA,,BO,,,,,
,visa,,,COCHABAMBA,COCHABAMBA,,BO,,,,,
,visa,,,COCHABAMBA,COCHABAMBA,,BO,,,,,
,visa,,,COCHABAMBA,COCHABAMBA,,BO,,,,,
,visa,,,COCHABAMBA,COCHABAMBA,,BO,,,,,
,visa,,,COCHABAMBA,COCHABAMBA,,BO,,,,,
,visa,,,COCHABAMBA,COCHABAMBA,,BO,,,,,
,visa,,,COCHABAMBA,COCHABAMBA,,BO,,,,,
,visa,,,COCHABAMBA,COCHABAMBA,,BO,,,,,
,visa,,,COCHABAMBA,COCHABAMBA,,BO,,,,,
,visa,,,COCHABAMBA,COCHABAMBA,,BO,,,,,
,visa,,,COCHABAMBA,COCHABAMBA,,BO,,,,,
,visa,,,COCHABAMBA,COCHABAMBA,,BO,,,,,
,visa,,,COCHABAMBA,COCHABAMBA,,BO,,,,,
,visa,,,COCHABAMBA,COCHABAMBA,,BO,,,,,
,visa,,,COCHABAMBA,COCHABAMBA,,BO,,,,,
,visa,,,COCHABAMBA,COCHABAMBA,,BO,,,,,
,visa,,,COCHABAMBA,COCHABAMBA,,BO,,,,,
,visa,,,COCHABAMBA,COCHABAMBA,,BO,,,,,
,visa,,,COCHABAMBA,COCHABAMBA,,BO,,,,,
,visa,,,COCHABAMBA,COCHABAMBA,,BO,,,,,
,visa,,,COCHABAMBA,COCHABAMBA,,BO,,,,,
,visa,,,COCHABAMBA,COCHABAMBA,,BO,,,,,
,visa,,,COCHABAMBA,COCHABAMBA,,BO,,,,,
,visa,,,COCHABAMBA,COCHABAMBA,,BO,,,,,
,visa,,,COCHABAMBA,COCHABAMBA,,BO,,,,,
,visa,,,COCHABAMBA,COCHABAMBA,,BO,,,,,
,visa,,,COCHABAMBA,COCHABAMBA,,BO,,,,,
,visa,,,IVIRGARZAMA,COCHABAMBA,,BO,,,,,
,visa,,,COCHABAMBA,COCHABAMBA,,BO,,,,,
,visa,,,COCHABAMBA,COCHABAMBA,,BO,,,,,
,visa,,,COCHABAMBA,COCHABAMBA,,BO,,,,,
,visa,,,COCHABAMBA,COCHABAMBA,,BO,,,,,
,visa,,,COCHABAMBA,COCHABAMBA,,BO,,,,,
,visa,,,COCHABAMBA,COCHABAMBA,,BO,,,,,
,visa,,,COCHABAMBA,COCHABAMBA,,BO,,,,,
,visa,,,COCHABAMBA,COCHABAMBA,,BO,,,,,
,visa,,,COCHABAMBA,COCHABAMBA,,BO,,,,,
,visa,,,COCHABAMBA,COCHABAMBA,,BO,,,,,
,visa,,,COCHABAMBA,COCHABAMBA,,BO,,,,,
,visa,,,COCHABAMBA,COCHABAMBA,,BO,,,,,
,visa,,,COCHABAMBA,COCHABAMBA,,BO,,,,,
,visa,,,COCHABAMBA,COCHABAMBA,,BO,,,,,
,visa,,,COCHABAMBA,COCHABAMBA,,BO,,,,,
,visa,,,COCHABAMBA,COCHABAMBA,,BO,,,,,
,visa,,,COCHABAMBA,COCHABAMBA,,BO,,,,,
,visa,,,COCHABAMBA,COCHABAMBA,,BO,,,,,
,visa,,,COCHABAMBA,COCHABAMBA,,BO,,,,,
,visa,,,COCHABAMBA,COCHABAMBA,,BO,,,,,
,visa,,,COCHABAMBA,COCHABAMBA,,BO,,,,,
,visa,,,COCHABAMBA,COCHABAMBA,,BO,,,,,
,visa,,,COCHABAMBA,COCHABAMBA,,BO,,,,,
,visa,,,COCHABAMBA,COCHABAMBA,,BO,,,,,
,visa,,,COCHABAMBA,COCHABAMBA,,BO,,,,,
,visa,,,COCHABAMBA,COCHABAMBA,,BO,,,,,
,visa,,,COCHABAMBA,COCHABAMBA,,BO,,,,,
,visa,,,COCHABAMBA,COCHABAMBA,,BO,,,,,
,visa,,,COCHABAMBA,COCHABAMBA,,BO,,,,,
,visa,,,COCHABAMBA,COCHABAMBA,,BO,,,,,
,visa,,,COCHABAMBA,COCHABAMBA,,BO,,,,,
,visa,,,COCHABAMBA,COCHABAMBA,,BO,,,,,
,visa,,,TIQUIPAYA,COCHABAMBA,,BO,,,,,
,visa,,,COLCAPIRHUA,COCHABAMBA,,BO,,,,,
,visa,,,QUILLACOLLO,COCHABAMBA,,BO,,,,,
,visa,,,QUILLACOLLO,COCHABAMBA,,BO,,,,,
,visa,,,QUILLACOLLO,COCHABAMBA,,BO,,,,,
,visa,,,QUILLACOLLO,COCHABAMBA,,BO,,,,,
,visa,,,QUILLACOLLO,COCHABAMBA,,BO,,,,,
,visa,,,COCHABAMBA,COCHABAMBA,,BO,,,,,
,visa,,,CAPINOTA,COCHABAMBA,,BO,,,,,
,visa,,,VINTO,COCHABAMBA,,BO,,,,,
,visa,,,COCHABAMBA,COCHABAMBA,,BO,,,,,
c6aceeb1011f64723b126cbf059350db,western_union,CIS COOP S PEDRO DE AIQUILE   MIZQUE,,Mizque,COCHABAMBA,,BO,(+591) 4-67536640,https://location.westernunion.com/bo/cochabamba/mizque/c6aceeb1011f64723b126cbf059350db,Mo-Tu 08:00-15:30,Western Union,Q861042
6c68c381b8089446c54f27d7c4be568b,western_union,BANCO UNION SA,,Mizque,COCHABAMBA,,BO,+591 4 4171717,https://location.westernunion.com/bo/cochabamba/mizque/6c68c381b8089446c54f27d7c4be568b,Mo-Fr 09:00-16:30; Sa 09:00-13:00,Western Union,Q861042
ce6bcb5115172b3f5c4cc58df2c1bafe,western_union,BANCO UNION SA,,Entre Rios,COCHABAMBA,,BO,+591 4 4136632,https://location.westernunion.com/bo/cochabamba/entre-rios/ce6bcb5115172b3f5c4cc58df2c1bafe,Mo-Fr 07:00-16:30; Sa 08:00-13:00,Western Union,Q861042
07b19095e403dfe6697da20a54e3a12e,western_union,CRECER IFD,,Cochabamba,COCHABAMBA,,BO,(+591) 4-25580096,https://location.westernunion.com/bo/cochabamba/cochabamba/07b19095e403dfe6697da20a54e3a12e,Mo-Fr 08:30-16:00,Western Union,Q861042
18ecd6aee30042bcf8a37e1cf3988d68,western_union,COOPERATIVA CRISTO REY,,Cochabamba,COCHABAMBA,,BO,(+591) 4341225,https://location.westernunion.com/bo/cochabamba/cochabamba/18ecd6aee30042bcf8a37e1cf3988d68,Mo 07:00-16:00; Tu-We 08:30-16:30; Th 08:30-12:00; Su 07:00-14:00,Western Union,Q861042
27084cc176b12cd74a622a4b7f2b9ef8,western_union,CIDRE MIZQUE,,Mizque,COCHABAMBA,,BO,+591 4 4136628,https://location.westernunion.com/bo/cochabamba/mizque/27084cc176b12cd74a622a4b7f2b9ef8,Mo-Fr 08:00-18:00; Sa 09:00-13:00,Western Union,Q861042
86fe04b5017b992c0e1fc93cdb1bb56e,western_union,CRECER IFD,,Cochabamba,COCHABAMBA,,BO,(+591) 4-28392395,https://location.westernunion.com/bo/cochabamba/cochabamba/86fe04b5017b992c0e1fc93cdb1bb56e,Mo-Fr 08:30-16:00,Western Union,Q861042
fde6a9d0d6ce3680c8ce597a384b7fc3,western_union,AGENCIA IVIRGARZAMA,,Ivirgarzama,COCHABAMBA,,BO,+591 4 4773131,https://location.westernunion.com/bo/cochabamba/ivirgarzama/fde6a9d0d6ce3680c8ce597a384b7fc3,Mo-Fr 08:00-19:00; Sa 09:00-19:00,Western Union,Q861042
cf1283876c14eff8eb1f399a7c6f5fb9,western_union,CIDRE IVIRGAZAMA,,Ivirgarzama,COCHABAMBA,,BO,+591 4 4136282,https://location.westernunion.com/bo/cochabamba/ivirgarzama/cf1283876c14eff8eb1f399a7c6f5fb9,Mo-Fr 08:00-18:00; Sa 09:00-13:00,Western Union,Q861042
7e77db4cf89d69eef8b9e1706d708688,western_union,ECO AGENCIA IVIRGARZAMA,,Carrasco,COCHABAMBA,,BO,+591 4 4179900,https://location.westernunion.com/bo/cochabamba/carrasco/7e77db4cf89d69eef8b9e1706d708688,Mo-Fr 08:30-16:00; Sa 09:00-12:30,Western Union,Q861042
745617f5409da33b6222ecbfa8b20595,western_union,BANCO UNION SA,,Ivirgarzama,COCHABAMBA,,BO,+591 4 4136329,https://location.westernunion.com/bo/cochabamba/ivirgarzama/745617f5409da33b6222ecbfa8b20595,Mo-Fr 09:00-17:30; Sa 09:00-13:30,Western Union,Q861042
99dbd716cd4178898a9622a09d3fdeda,western_union,BANCO FORTALEZA S A,,Tacachi,COCHABAMBA,,BO,+591 4 4570721,https://location.westernunion.com/bo/cochabamba/tacachi/99dbd716cd4178898a9622a09d3fdeda,Mo-Fr 08:30-16:00,Western Union,Q861042
0d4a5ce58d692f294064c2d0c093787e,western_union,CIDRE CHIMORE,,Chimore,COCHABAMBA,,BO,+591 4 4136246,https://location.westernunion.com/bo/cochabamba/chimore/0d4a5ce58d692f294064c2d0c093787e,Mo-Fr 08:00-18:00; Sa 09:00-13:00,Western Union,Q861042
987160b150f6d373c5744d4840094df0,western_union,AGENCIA CHIMORE,,Chimore,COCHABAMBA,,BO,+591 4 4773131,https://location.westernunion.com/bo/cochabamba/chimore/987160b150f6d373c5744d4840094df0,Mo-Fr 08:00-19:00; Sa 09:00-19:00,Western Union,Q861042
4f8e167ea79512bb596bac4887d0a079,western_union,BANCO UNION SA,,Chimore,COCHABAMBA,,BO,+591 4 4136633,https://location.westernunion.com/bo/cochabamba/chimore/4f8e167ea79512bb596bac4887d0a079,Mo-Fr 09:00-16:30; Sa 09:00-13:00,Western Union,Q861042
47ef0b34d68f80155f234dbad23f81a6,western_union,BANCO ECONOMICO SA OF EXTERNA SACABAMBA,,Sacabamba,COCHABAMBA,,BO,+591 4 4155500,https://location.westernunion.com/bo/cochabamba/sacabamba/47ef0b34d68f80155f234dbad23f81a6,Mo-Fr 08:00-17:00; Sa 08:00-13:00,Western Union,Q861042
28438e422d2646a5350ab3ed49b7a5a3,western_union,ECO AGENCIA CLIZA,,German Jordan,COCHABAMBA,,BO,+591 4 4179900,https://location.westernunion.com/bo/cochabamba/german-jordan/28438e422d2646a5350ab3ed49b7a5a3,Mo-Fr 08:30-16:00; Sa 09:00-12:30,Western Union,Q861042
23a55e41ee6104403ca3568151048169,western_union,BANCO UNION SA,,Cliza,COCHABAMBA,,BO,+591 4 4171717,https://location.westernunion.com/bo/cochabamba/cliza/23a55e41ee6104403ca3568151048169,Mo-Fr 09:00-16:30; Sa 09:00-13:00,Western Union,Q861042
3f555cc4002a73d51d2d45a4a05bc237,western_union,CIS CAFE INTERNET ESCOBAR,,Cliza,COCHABAMBA,,BO,(+591) 4574263,https://location.westernunion.com/bo/cochabamba/cliza/3f555cc4002a73d51d2d45a4a05bc237,Mo-Fr 07:00-19:00; Sa 07:30-15:00; Su 08:00-15:00,Western Union,Q861042
0d7217ccbb7c6c4541629d78900cc2d3,western_union,FUBODE,,Punata,COCHABAMBA,,BO,(+591) 4572335,https://location.westernunion.com/bo/cochabamba/punata/0d7217ccbb7c6c4541629d78900cc2d3,Mo-Fr 08:00-15:00,Western Union,Q861042
7fe18f14413dcf97c308408c52ad7583,western_union,AGENCIA PUNATA,,Punata,COCHABAMBA,,BO,+591 4 4787234,https://location.westernunion.com/bo/cochabamba/punata/7fe18f14413dcf97c308408c52ad7583,Mo-Fr 08:00-19:00; Sa 09:00-19:00,Western Union,Q861042
00afc9b254a7e102f9c89fad1601abea,western_union,LOS ANDES BANCA PYME BMSC,,Punata,COCHABAMBA,,BO,(+591) 4-457728,https://location.westernunion.com/bo/cochabamba/punata/00afc9b254a7e102f9c89fad1601abea,Mo-Fr 08:00-15:00; Sa 09:00-13:00,Western Union,Q861042
aa2dcf1e33df3c67b0b485771942f152,western_union,CRECER IFD,,Cochabamba,COCHABAMBA,,BO,(+591) 4-22178163,https://location.westernunion.com/bo/cochabamba/cochabamba/aa2dcf1e33df3c67b0b485771942f152,Mo-Fr 08:30-16:00,Western Union,Q861042
fcbe7547f78fbeef2454a316835f4aa8,western_union,SEMBRAR SARTAWI,,Cochabamba,COCHABAMBA,,BO,+591 76284379,https://location.westernunion.com/bo/cochabamba/cochabamba/fcbe7547f78fbeef2454a316835f4aa8,Mo-Fr 08:00-18:30; Sa 08:30-13:00,Western Union,Q861042
164255fab6d3344ce4269a727232ecdc,western_union,BANCO UNION SA,,Punata,COCHABAMBA,,BO,+591 4 4787431,https://location.westernunion.com/bo/cochabamba/punata/164255fab6d3344ce4269a727232ecdc,Mo-Fr 07:00-16:30; Sa 08:00-13:00,Western Union,Q861042
481e08cd43cb4c513ae73711cfdbfb06,western_union,BANCO ECONOMICO SA OF EXTERNA TOLATA,,Tolata,COCHABAMBA,,BO,+591 4 4155500,https://location.westernunion.com/bo/cochabamba/tolata/481e08cd43cb4c513ae73711cfdbfb06,Mo-Fr 08:00-17:00; Sa 08:00-13:00,Western Union,Q861042
bf7802d5f2ab4f7e4daf7b373ce23a59,western_union,BANCO UNION S A,,Cochabamba,COCHABAMBA,,BO,+591 4 4171717,https://location.westernunion.com/bo/cochabamba/cochabamba/bf7802d5f2ab4f7e4daf7b373ce23a59,Mo-Fr 09:00-16:30; Sa 08:00-13:00,Western Union,Q861042
b717b4435c8cd7ede136d016ba95c50b,western_union,BANCO ECONOMICO SA OF EXTERNA TOCO,,Toco,COCHABAMBA,,BO,+591 4 4155500,https://location.westernunion.com/bo/cochabamba/toco/b717b4435c8cd7ede136d016ba95c50b,Mo-Fr 08:00-17:00; Sa 08:00-13:00,Western Union,Q861042
5fd2c57a9a0cdf3ee8351b1adc22cecb,western_union,CIS JUNIA SOTO PILLCO,,Cochabamba,COCHABAMBA,,BO,(+591) 2-68473770,https://location.westernunion.com/bo/cochabamba/cochabamba/5fd2c57a9a0cdf3ee8351b1adc22cecb,Mo-Fr 08:00-18:00; Sa-Su 08:00-13:00,Western Union,Q861042
a8ce179802abdaec046dd8485623db46,western_union,CIS JUNIA SOTO PILLCO,,Cochabamba,COCHABAMBA,,BO,(+591) 2-68473770,https://location.westernunion.com/bo/cochabamba/cochabamba/a8ce179802abdaec046dd8485623db46,Mo-Fr 08:00-18:00; Sa-Su 08:00-13:00,Western Union,Q861042
4bc371f3b2af51b208f30f85202aaf15,western_union,FARM SACABA,,Cochabamba,COCHABAMBA,,BO,(+591) 4-69000969,https://location.westernunion.com/bo/cochabamba/cochabamba/4bc371f3b2af51b208f30f85202aaf15,Mo-Fr 07:00-23:00; Sa-Su 09:00-21:00,Western Union,Q861042
416ab17d6ca1d69045ee4e441db97565,western_union,CIS CARLA IVANA SUAREZ CHOQUE,,Sacaba,COCHABAMBA,,BO,(+591) 4-69440532,https://location.westernunion.com/bo/cochabamba/sacaba/416ab17d6ca1d69045ee4e441db97565,Mo-Fr 08:30-18:30; Sa 08:30-14:00,Western Union,Q861042
1c6cc495050736e78f30213e2b4616f1,western_union,BANCO UNION SA,,Sacaba,COCHABAMBA,,BO,+591 4 4174170,https://location.westernunion.com/bo/cochabamba/sacaba/1c6cc495050736e78f30213e2b4616f1,Mo-Fr 09:00-16:30; Sa 09:00-13:00,Western Union,Q861042
b90821ec817075d5f6b50730878b3a89,western_union,AGENCIA SACABA,,Sacaba,COCHABAMBA,,BO,+591 4 4701670,https://location.westernunion.com/bo/cochabamba/sacaba/b90821ec817075d5f6b50730878b3a89,Mo-Fr 08:00-19:00; Sa 09:00-19:00,Western Union,Q861042
955aa921c4047656f792d643efd42cbe,western_union,CRECER IFD,,Cochabamba,COCHABAMBA,,BO,(+591) 4-25113689,https://location.westernunion.com/bo/cochabamba/cochabamba/955aa921c4047656f792d643efd42cbe,Mo-Fr 08:30-16:00,Western Union,Q861042
4e771745eb1acf41a491d19371848f79,western_union,FUBODE,,Sacaba,COCHABAMBA,,BO,(+591) 4702722,https://location.westernunion.com/bo/cochabamba/sacaba/4e771745eb1acf41a491d19371848f79,Mo-Fr 08:00-15:00,Western Union,Q861042
d9cf616559b19ed9fdb91df02d298dc2,western_union,BANCO ECONOMICO SA AG MI SOCIO SACABA,,Sacaba,COCHABAMBA,,BO,+591 4 4155500,https://location.westernunion.com/bo/cochabamba/sacaba/d9cf616559b19ed9fdb91df02d298dc2,Mo-Fr 08:00-17:00; Sa 08:00-13:00,Western Union,Q861042
d0ff04d89bbb76e1e023801d8260be36,western_union,LOS ANDES BANCA PYME BMSC,,Sacaba,COCHABAMBA,,BO,+591 4 4700002,https://location.westernunion.com/bo/cochabamba/sacaba/d0ff04d89bbb76e1e023801d8260be36,Mo-Fr 08:00-15:00; Sa 09:00-13:00,Western Union,Q861042
0fb229c3e19b712e22865ff4ab751150,western_union,BANCO FORTALEZA S A,,Cochabamba,COCHABAMBA,,BO,+591 4 4703590,https://location.westernunion.com/bo/cochabamba/cochabamba/0fb229c3e19b712e22865ff4ab751150,Mo-Fr 08:30-16:00; Sa 09:00-13:00,Western Union,Q861042
1f09340f2fff394e6e9495405a50cc79,western_union,COOPERATIVA QUILLACOLLO R.L.,,Chapare,COCHABAMBA,,BO,+591 4 4700808,https://location.westernunion.com/bo/cochabamba/chapare/1f09340f2fff394e6e9495405a50cc79,Mo-Fr 08:00-15:00; Sa 08:00-12:30,Western Union,Q861042
b65f0fd6f6d4e9c039ac9827d396300b,western_union,BANCO UNION SA,,Sacaba,COCHABAMBA,,BO,+591 4 4701476,https://location.westernunion.com/bo/cochabamba/sacaba/b65f0fd6f6d4e9c039ac9827d396300b,Mo-Fr 09:00-16:00,Western Union,Q861042
9b897f7a395f0d7764c39b563937e3ca,western_union,BANCO UNION S A,,Cochabamba,COCHABAMBA,,BO,+591 4 4171717,https://location.westernunion.com/bo/cochabamba/cochabamba/9b897f7a395f0d7764c39b563937e3ca,Mo-Fr 08:00-16:00; Sa 08:00-13:00,Western Union,Q861042
c492c9b91b42094d3193a270a8b40e09,western_union,CIDRE COLOMI,,Colomi,COCHABAMBA,,BO,+591 4 4136625,https://location.westernunion.com/bo/cochabamba/colomi/c492c9b91b42094d3193a270a8b40e09,Mo-Fr 08:00-18:00; Sa 09:00-13:00,Western Union,Q861042
2b2f68218155d402d4a325f9506b5f26,western_union,BANCO MERCANTIL SANTA CRUZ S A,,Tarata,COCHABAMBA,,BO,+591 4 4152500,https://location.westernunion.com/bo/cochabamba/tarata/2b2f68218155d402d4a325f9506b5f26,Mo-Fr 08:00-13:00,Western Union,Q861042
ab95fa01f1485f2e067753b39d0eb06e,western_union,CRECER IFD,,Cochabamba,COCHABAMBA,,BO,(+591) 4-25822000,https://location.westernunion.com/bo/cochabamba/cochabamba/ab95fa01f1485f2e067753b39d0eb06e,Mo-Fr 08:30-16:00,Western Union,Q861042
51aa469a8516946c1e2ca33360da260f,western_union,BANCO UNION SA,,Villa Tunari,COCHABAMBA,,BO,+591 4 4252657,https://location.westernunion.com/bo/cochabamba/villa-tunari/51aa469a8516946c1e2ca33360da260f,Mo-Fr 09:00-16:00; Sa 09:00-13:30,Western Union,Q861042
8b1f9a23b8083a073c6dd6b2494884f2,western_union,BANCO MERCANTIL SANTA CRUZ S A,,Cochabamba,COCHABAMBA,,BO,+591 4 4152500,https://location.westernunion.com/bo/cochabamba/cochabamba/8b1f9a23b8083a073c6dd6b2494884f2,Mo-Fr 08:00-15:00; Sa 09:00-13:00,Western Union,Q861042
cd241a5fe1baa129aca25418c1d95844,western_union,BANCO MERCANTIL SANTA CRUZ S A,,Totora,COCHABAMBA,,BO,+591 4 4152500,https://location.westernunion.com/bo/cochabamba/totora/cd241a5fe1baa129aca25418c1d95844,Mo-Fr 08:00-13:00,Western Union,Q861042
4c7980f1558db5ae0249c59f01f5e9aa,western_union,BANCO FORTALEZA S A,,Cochabamba,COCHABAMBA,,BO,+591 4 4557022,https://location.westernunion.com/bo/cochabamba/cochabamba/4c7980f1558db5ae0249c59f01f5e9aa,Mo-Fr 08:30-16:00; Sa 09:00-13:00,Western Union,Q861042
996bd0cd655e5d6045d51fe3b2d727e4,western_union,BANCO UNION SA,,Cochabamba,COCHABAMBA,,BO,(+591) 4-4171717-0,https://location.westernunion.com/bo/cochabamba/cochabamba/996bd0cd655e5d6045d51fe3b2d727e4,Mo-Fr 09:00-16:30; Sa 09:00-13:00,Western Union,Q861042
720f0578a817f5c3fbc5a59b6190b60f,western_union,AGENCIA LA CANCHA,,Cochabamba,COCHABAMBA,,BO,+591 4 4552802,https://location.westernunion.com/bo/cochabamba/cochabamba/720f0578a817f5c3fbc5a59b6190b60f,Mo-Fr 08:00-19:00; Sa 09:00-19:00,Western Union,Q861042
36e7d951e4317db6b9acd308ad56189e,western_union,BANCO ECONOMICO SA HIPERMAXI VILLAZON,,Sacaba,COCHABAMBA,,BO,+591 4 4155500,https://location.westernunion.com/bo/cochabamba/sacaba/36e7d951e4317db6b9acd308ad56189e,Mo-Fr 08:00-17:00; Sa 08:00-13:00,Western Union,Q861042
08a96caee447d8fb10807dacaba7e2b5,western_union,COOP  SAN CARLOS BORROMEO,,Cochabamba,COCHABAMBA,,BO,+591 4 4226809,https://location.westernunion.com/bo/cochabamba/cochabamba/08a96caee447d8fb10807dacaba7e2b5,Mo-Fr 08:00-18:00; Sa 08:30-12:00,Western Union,Q861042
ddc39d69dc4f35375b5d2e58a1e569db,western_union,DIACONIA FRIF   IFD,,Cochabamba,COCHABAMBA,,BO,+591 4 4553687,https://location.westernunion.com/bo/cochabamba/cochabamba/ddc39d69dc4f35375b5d2e58a1e569db,Mo-Fr 08:00-16:00; Sa 08:30-12:00,Western Union,Q861042
9aafecf0f44f1c359d06eeaad3d92ef6,western_union,BANCO UNION SA,,Cochabamba,COCHABAMBA,,BO,(+591) 4-174022,https://location.westernunion.com/bo/cochabamba/cochabamba/9aafecf0f44f1c359d06eeaad3d92ef6,Mo-Fr 07:00-16:30; Sa 09:00-13:00,Western Union,Q861042
4fc31711310b6bbd572e973aa2926a3f,western_union,CIS COOP S PEDRO DE AIQUILE   COCHABAMBA,,Cochabamba,COCHABAMBA,,BO,+591 4 4661118,https://location.westernunion.com/bo/cochabamba/cochabamba/4fc31711310b6bbd572e973aa2926a3f,Mo-Fr 08:00-15:30; Sa 08:00-12:00,Western Union,Q861042
4c2efaea46c54481bc607d13cb1db3f1,western_union,AGENCIA KANATA,,Cochabamba,COCHABAMBA,,BO,+591 4 4330588,https://location.westernunion.com/bo/cochabamba/cochabamba/4c2efaea46c54481bc607d13cb1db3f1,Mo-Fr 08:00-19:00; Sa 09:00-19:00,Western Union,Q861042
f6afd7ee4ba5640430b3a7510259bb2f,western_union,FARM VILLAZ�N ZONA AROCAGUA,,Cochabamba,COCHABAMBA,,BO,(+591) 4-69007983,https://location.westernunion.com/bo/cochabamba/cochabamba/f6afd7ee4ba5640430b3a7510259bb2f,Mo-Fr 07:00-23:00; Sa-Su 09:00-21:00,Western Union,Q861042
c6c0c59f2e30bee7982ea7a6d3a28137,western_union,LA PROMOTORA EFV,,Cochabamba,COCHABAMBA,,BO,+591 4 4660593,https://location.westernunion.com/bo/cochabamba/cochabamba/c6c0c59f2e30bee7982ea7a6d3a28137,Mo-Fr 08:30-15:30; Sa 09:00-12:30,Western Union,Q861042
116c7313aa878c01e2cb8b184722d778,western_union,AGENCIA TAMBORADA,,Cochabamba,COCHABAMBA,,BO,+591 4 4734222,https://location.westernunion.com/bo/cochabamba/cochabamba/116c7313aa878c01e2cb8b184722d778,Mo-Fr 08:00-19:00; Sa 09:00-19:00,Western Union,Q861042
35392da1a488b76babb5ed62f65efd5e,western_union,CRECER IFD,,Cochabamba,COCHABAMBA,,BO,(+591) 4-25284929,https://location.westernunion.com/bo/cochabamba/cochabamba/35392da1a488b76babb5ed62f65efd5e,Mo-Fr 08:30-16:00,Western Union,Q861042
bcf36af71fb10895a22d6fe10fe67242,western_union,BANCO UNION SA,,Capinota,COCHABAMBA,,BO,+591 4 4389324,https://location.westernunion.com/bo/cochabamba/capinota/bcf36af71fb10895a22d6fe10fe67242,Mo-Fr 07:00-16:30; Sa 08:00-13:00; Su 00:00-00:01,Western Union,Q861042
b3e2aa01d08a0bb09a9f6dfb58b35dd5,western_union,FARM SUECIA ZONA ALALAY,,Cochabamba,COCHABAMBA,,BO,(+591) 4-61396545,https://location.westernunion.com/bo/cochabamba/cochabamba/b3e2aa01d08a0bb09a9f6dfb58b35dd5,Mo-Fr 07:00-23:00; Sa-Su 09:00-21:00,Western Union,Q861042
cdb1a2d34a730a51d23d36cf564e0b81,western_union,FARM PANAMERICANA,,Cochabamba,COCHABAMBA,,BO,(+591) 4-61554894,https://location.westernunion.com/bo/cochabamba/cochabamba/cdb1a2d34a730a51d23d36cf564e0b81,Mo-Fr 07:00-23:00; Sa-Su 09:00-21:00,Western Union,Q861042
38dc0cdcf58e43ea4b60a667d087cef4,western_union,CJN AGENCIA PANAMERICANA,,Cochabamba,COCHABAMBA,,BO,(+591) 4-3638000,https://location.westernunion.com/bo/cochabamba/cochabamba/38dc0cdcf58e43ea4b60a667d087cef4,Mo-Fr 08:30-15:30; Sa 08:30-12:30,Western Union,Q861042
52b37fb443fd5c0f38d086f927e8546f,western_union,BANCO UNION SA,,Cochabamba,COCHABAMBA,,BO,(+591) 3-2419252,https://location.westernunion.com/bo/cochabamba/cochabamba/52b37fb443fd5c0f38d086f927e8546f,Mo-Fr 09:00-16:30; Sa 09:00-13:00,Western Union,Q861042
1c48c3907d486962549ae5f9df21e291,western_union,BANCO UNION SA,,Cochabamba,COCHABAMBA,,BO,+591 4 4171717,https://location.westernunion.com/bo/cochabamba/cochabamba/1c48c3907d486962549ae5f9df21e291,Mo-Fr 09:00-16:30; Sa 09:00-13:00; Su 09:00-16:30,Western Union,Q861042
301c80227a205e595f7ddd61f1ea033d,western_union,FARM SIGLO XX ZONA ALALAY,,Cochabamba,COCHABAMBA,,BO,(+591) 4-61584163,https://location.westernunion.com/bo/cochabamba/cochabamba/301c80227a205e595f7ddd61f1ea033d,Mo-Fr 07:00-23:00; Sa-Su 09:00-21:00,Western Union,Q861042
7477ddac589aaedd475ea26f9fbaca25,western_union,CIS LINETH ANDREA CAMACHO CASTELLON,,Cochabamba,COCHABAMBA,,BO,+591 60360322,https://location.westernunion.com/bo/cochabamba/cochabamba/7477ddac589aaedd475ea26f9fbaca25,Mo-Sa 09:00-18:00,Western Union,Q861042
c96cb61a91c12d3c2ad0d17947d6903a,western_union,AGENCIA SIGLO XX,,Cochabamba,COCHABAMBA,,BO,+591 4 4155500,https://location.westernunion.com/bo/cochabamba/cochabamba/c96cb61a91c12d3c2ad0d17947d6903a,Mo-Fr 08:00-18:00; Sa 08:00-15:00,Western Union,Q861042
1300a09f6695bca561b0b30ef6b19a39,western_union,AGENCIA PETROLERA,,Cochabamba,COCHABAMBA,,BO,(+591) 4-7888541,https://location.westernunion.com/bo/cochabamba/cochabamba/1300a09f6695bca561b0b30ef6b19a39,Mo-Fr 08:00-17:00; Sa 09:00-13:00,Western Union,Q861042
17752577c18d0422238b8c01dc7a98c5,western_union,AGENCIA ALALAY,,Cochabamba,COCHABAMBA,,BO,+591 4 4753756,https://location.westernunion.com/bo/cochabamba/cochabamba/17752577c18d0422238b8c01dc7a98c5,Mo-Fr 08:00-19:00; Sa 09:00-19:00,Western Union,Q861042
c1f6751ab38c63b198f83576fd8790b6,western_union,COOPERATIVA CRISTO REY,,Cochabamba,COCHABAMBA,,BO,(+591) 4540890,https://location.westernunion.com/bo/cochabamba/cochabamba/c1f6751ab38c63b198f83576fd8790b6,Mo-Fr 08:30-16:30; Sa 08:30-12:00,Western Union,Q861042
13b99e866946aa6498a3e435fe3fbcba,western_union,CIS MARLENE GARCIA GARCIA,,Cochabamba,COCHABAMBA,,BO,+591 67568734,https://location.westernunion.com/bo/cochabamba/cochabamba/13b99e866946aa6498a3e435fe3fbcba,Mo-Fr 08:00-18:00; Sa 08:00-14:00,Western Union,Q861042
04d60180d64144a0d585bf6713f2c41f,western_union,CIS BEATRIZ LEON AIZA,,Cochabamba,COCHABAMBA,,BO,+591 73342885,https://location.westernunion.com/bo/cochabamba/cochabamba/04d60180d64144a0d585bf6713f2c41f,Mo-Fr 08:30-18:30; Sa 09:00-13:00,Western Union,Q861042
7501fab1c6bc9f7ee862edc396386a6c,western_union,CRECER IFD,,Cochabamba,COCHABAMBA,,BO,(+591) 2-44662440,https://location.westernunion.com/bo/cochabamba/cochabamba/7501fab1c6bc9f7ee862edc396386a6c,Mo-Fr 08:30-16:00,Western Union,Q861042
851fe06a3c32679b7e1475e125cfe7b4,western_union,ECO AGENCIA CAPINOTA,,Capinota,COCHABAMBA,,BO,+591 4 4179900,https://location.westernunion.com/bo/cochabamba/capinota/851fe06a3c32679b7e1475e125cfe7b4,Mo-Fr 08:30-16:00; Sa 09:00-12:30,Western Union,Q861042
1a9ec8dd72304dea97544b77c48b03ac,western_union,ECO AGENCIA CENTRO,,Cercado,COCHABAMBA,,BO,+591 4 4179900,https://location.westernunion.com/bo/cochabamba/cercado/1a9ec8dd72304dea97544b77c48b03ac,Mo-Fr 08:30-16:00; Sa 09:00-12:30,Western Union,Q861042
5b742b78e691d542941df34827d8b5a0,western_union,BANCO MERCANTIL SANTA CRUZ S A,,Cochabamba,COCHABAMBA,,BO,+591 4 4152500,https://location.westernunion.com/bo/cochabamba/cochabamba/5b742b78e691d542941df34827d8b5a0,Mo-Fr 09:00-18:00; Sa 09:00-13:00,Western Union,Q861042
5b8c99809f908acf350a74cf1c61e5ca,western_union,AGENCIA PACATA,,Sacaba,COCHABAMBA,,BO,+591 4 4173765,https://location.westernunion.com/bo/cochabamba/sacaba/5b8c99809f908acf350a74cf1c61e5ca,Mo-Fr 08:00-19:00; Sa 09:00-19:00,Western Union,Q861042
c9297a60a516c72488a5d09e940397f5,western_union,FARM VILLAZ�N ZONA MESADILLO,,Cochabamba,COCHABAMBA,,BO,(+591) 4-74169626,https://location.westernunion.com/bo/cochabamba/cochabamba/c9297a60a516c72488a5d09e940397f5,Mo-Fr 07:00-23:00; Sa-Su 09:00-21:00,Western Union,Q861042
86e3d2829ee979e1343cadb901f10aff,western_union,CIS COOP LOYOLA R L,,Cochabamba,COCHABAMBA,,BO,+591 4 4229094,https://location.westernunion.com/bo/cochabamba/cochabamba/86e3d2829ee979e1343cadb901f10aff,Mo-Fr 08:30-16:00; Sa 09:00-12:00,Western Union,Q861042
bd495a29cacdaa8504c45a35d84e546d,western_union,BANCO UNION SA,,Cochabamba,COCHABAMBA,,BO,(+591) 4-4171717-0,https://location.westernunion.com/bo/cochabamba/cochabamba/bd495a29cacdaa8504c45a35d84e546d,Mo-Fr 09:00-16:30; Sa 09:00-13:00,Western Union,Q861042
1576a2e4b26405fc29c64d5990cb4e6f,western_union,FUBODE,,Capinota,COCHABAMBA,,BO,(+591) 4369048,https://location.westernunion.com/bo/cochabamba/capinota/1576a2e4b26405fc29c64d5990cb4e6f,Mo-Fr 08:00-15:00,Western Union,Q861042
0b0357b4922dc68095c351000735b21c,western_union,BANCO UNION SA,,Cochabamba,COCHABAMBA,,BO,(+591) 4-259180,https://location.westernunion.com/bo/cochabamba/cochabamba/0b0357b4922dc68095c351000735b21c,Mo-Fr 09:00-16:00; Sa 09:00-13:30,Western Union,Q861042
b42353d2e9397a8ab197428785dfd76b,western_union,LOS ANDES BANCA PYME BMSC,,Cochabamba,COCHABAMBA,,BO,+591 4 4257572,https://location.westernunion.com/bo/cochabamba/cochabamba/b42353d2e9397a8ab197428785dfd76b,Mo-Fr 08:00-15:00; Sa 09:00-13:00,Western Union,Q861042
2c0fea931efaba7d6af09068b795f892,western_union,ECO AGENCIA LA CANCHA,,Cercado,COCHABAMBA,,BO,+591 4 4179900,https://location.westernunion.com/bo/cochabamba/cercado/2c0fea931efaba7d6af09068b795f892,Mo-Fr 08:30-16:00; Sa 09:00-12:30,Western Union,Q861042
d98a51a267905ec7167856f6afa5cf7e,western_union,BANCO ECONOMICO SA MI SOCIO LA CANCHA,,Cochabamba,COCHABAMBA,,BO,+591 4 4155500,https://location.westernunion.com/bo/cochabamba/cochabamba/d98a51a267905ec7167856f6afa5cf7e,Mo-Fr 08:00-17:00; Sa 08:00-13:00,Western Union,Q861042
07daa76f2707da00ae0bd52d41316bfe,western_union,CJN AGENCIA LA CANCHA,,Cochabamba,COCHABAMBA,,BO,(+591) 4-3638000,https://location.westernunion.com/bo/cochabamba/cochabamba/07daa76f2707da00ae0bd52d41316bfe,Mo-Fr 08:30-15:30; Sa 08:30-12:30,Western Union,Q861042
884e0c3c5d12109ad20c05018719026b,western_union,BANCO MERCANTIL SANTA CRUZ S A,,Cochabamba,COCHABAMBA,,BO,+591 4 4152500,https://location.westernunion.com/bo/cochabamba/cochabamba/884e0c3c5d12109ad20c05018719026b,Mo-Fr 09:00-18:00; Sa 09:00-13:00,Western Union,Q861042
32e3bd33d4b2358a469ceb140f23a936,western_union,BANCO GANADERO AGENCIA LA CANCHA,,Cochabamba,COCHABAMBA,,BO,(+591) 1-4173000,https://location.westernunion.com/bo/cochabamba/cochabamba/32e3bd33d4b2358a469ceb140f23a936,Mo-Fr 08:00-15:00; Sa 09:00-13:00,Western Union,Q861042
407e346285a36feb470e6ecc8e0721b8,western_union,BANCO UNION SA,,Cochabamba,COCHABAMBA,,BO,+591 4 4171717,https://location.westernunion.com/bo/cochabamba/cochabamba/407e346285a36feb470e6ecc8e0721b8,Mo-Fr 09:00-16:30; Sa 09:00-13:00,Western Union,Q861042
1dec1b9e4cbdcc275cb1aa00a1438c7a,western_union,AGENCIA SAN MARTIN,,Cochabamba,COCHABAMBA,,BO,+591 4 4559874,https://location.westernunion.com/bo/cochabamba/cochabamba/1dec1b9e4cbdcc275cb1aa00a1438c7a,Mo-Fr 08:00-19:00; Sa 09:00-19:00,Western Union,Q861042
0f9ec387e4cec2807cc15cc5971866e1,western_union,BANCO MERCANTIL SANTA CRUZ S A,,Cochabamba,COCHABAMBA,,BO,+591 4 4152500,https://location.westernunion.com/bo/cochabamba/cochabamba/0f9ec387e4cec2807cc15cc5971866e1,Mo-Fr 08:00-15:00; Sa 09:00-13:00,Western Union,Q861042
cce147c8849292e859ffee337c647e8e,western_union,CJN SUCURSAL COCHABAMBA,,Cochabamba,COCHABAMBA,,BO,(+591) 4-3638000,https://location.westernunion.com/bo/cochabamba/cochabamba/cce147c8849292e859ffee337c647e8e,Mo-Fr 08:30-15:30; Sa 08:30-12:30,Western Union,Q861042
11b1a728a9f16339b28bac48dc711ae9,western_union,AGENCIA JORDAN,,Cochabamba,COCHABAMBA,,BO,+591 4 4503319,https://location.westernunion.com/bo/cochabamba/cochabamba/11b1a728a9f16339b28bac48dc711ae9,Mo-Fr 08:00-19:00; Sa 09:00-19:00,Western Union,Q861042
a4b52bc285132973e455a1bc0e9299a1,western_union,BANCO UNION SA,,Cochabamba,COCHABAMBA,,BO,(+591) 4171717,https://location.westernunion.com/bo/cochabamba/cochabamba/a4b52bc285132973e455a1bc0e9299a1,Mo-Fr 09:00-16:30; Sa 09:00-13:00,Western Union,Q861042
7989513c5a5d1ce063ccd1933eb4ebc8,western_union,TRANSFER ANDINA,,Cochabamba,COCHABAMBA,,BO,+591 4 4661323,https://location.westernunion.com/bo/cochabamba/cochabamba/7989513c5a5d1ce063ccd1933eb4ebc8,Mo-Sa 08:00-19:00,Western Union,Q861042
99deefa0a6cefde88548835b4379a1e5,western_union,CIS EUROSHOPPING AG COCHABAMBA,,Cochabamba,COCHABAMBA,,BO,(+591) 3-4227618,https://location.westernunion.com/bo/cochabamba/cochabamba/99deefa0a6cefde88548835b4379a1e5,Mo-Fr 08:30-18:00; Sa 08:30-13:00,Western Union,Q861042
6605e14a3033ff3a12c8bcbc1649ad4f,western_union,CIS EUROSHOPPING AG COCHABAMBA,,Cochabamba,COCHABAMBA,,BO,(+591) 3-4227618,https://location.westernunion.com/bo/cochabamba/cochabamba/6605e14a3033ff3a12c8bcbc1649ad4f,Mo-Fr 08:30-18:00; Sa 08:30-13:00,Western Union,Q861042
3bb485c369d007e8b3338a74df78bf5e,western_union,TRANSFER ANDINA OQUENDO,,Cochabamba,COCHABAMBA,,BO,+591 4 4793863,https://location.westernunion.com/bo/cochabamba/cochabamba/3bb485c369d007e8b3338a74df78bf5e,Mo-Fr 09:00-17:00; Sa 08:30-12:30,Western Union,Q861042
fe0927f86d28f1343bbb28a06ca104e5,western_union,BANCO UNION SA,,Cochabamba,COCHABAMBA,,BO,+591 4 4252649,https://location.westernunion.com/bo/cochabamba/cochabamba/fe0927f86d28f1343bbb28a06ca104e5,Mo-Fr 09:00-17:30; Sa 09:00-13:00,Western Union,Q861042
bd5d256378ec7e2470faa93a59e8c470,western_union,FARM SAN MARTIN,,Cochabamba,COCHABAMBA,,BO,(+591) 4-75465179,https://location.westernunion.com/bo/cochabamba/cochabamba/bd5d256378ec7e2470faa93a59e8c470,Mo-Su 14:00-22:00,Western Union,Q861042
290ed13accc346284e678f6f4816b8b8,western_union,COOPERATIVA QUILLACOLLO R.L.,,Cercado,COCHABAMBA,,BO,+591 4 4505585,https://location.westernunion.com/bo/cochabamba/cercado/290ed13accc346284e678f6f4816b8b8,Mo-Fr 08:00-15:00; Sa 08:00-12:30,Western Union,Q861042
458280218e107bfcfa5ed8cbf7f67565,western_union,CIS COOP LOYOLA R L,,Cochabamba,COCHABAMBA,,BO,+591 4 4229094,https://location.westernunion.com/bo/cochabamba/cochabamba/458280218e107bfcfa5ed8cbf7f67565,Mo-Fr 08:30-16:00; Sa 09:00-12:00,Western Union,Q861042
2694b6f1659e99eaa935cc96dcb9da24,western_union,OFICINA CENTRAL COCHABAMBA,,Cochabamba,COCHABAMBA,,BO,(+591) 2175216,https://location.westernunion.com/bo/cochabamba/cochabamba/2694b6f1659e99eaa935cc96dcb9da24,Mo-Fr 09:00-16:00; Sa 09:00-13:00,Western Union,Q861042
c670210410c16131babf1d628bc4eb70,western_union,BANCO MERCANTIL SANTA CRUZ S A,,Cochabamba,COCHABAMBA,,BO,+591 4 4152500,https://location.westernunion.com/bo/cochabamba/cochabamba/c670210410c16131babf1d628bc4eb70,Mo-Fr 08:00-15:00; Sa 09:00-13:00,Western Union,Q861042
08922167ff9e8eee4cea631cf9c9582d,western_union,AGENCIA NATANIEL AGUIRRE,,Cochabamba,COCHABAMBA,,BO,+591 4 4220084,https://location.westernunion.com/bo/cochabamba/cochabamba/08922167ff9e8eee4cea631cf9c9582d,Mo-Fr 08:00-19:00; Sa 09:00-19:00,Western Union,Q861042
032295ecd8bfa7163b1ae013c201e6a1,western_union,BANCO FORTALEZA S A,,Cochabamba,COCHABAMBA,,BO,+591 4 4506060,https://location.westernunion.com/bo/cochabamba/cochabamba/032295ecd8bfa7163b1ae013c201e6a1,Mo-Fr 08:30-16:00; Sa 09:00-13:00,Western Union,Q861042
ad06cd904cd0509b9fc029854b320c3e,western_union,BANCO UNION SA,,Cochabamba,COCHABAMBA,,BO,+591 4 4171717,https://location.westernunion.com/bo/cochabamba/cochabamba/ad06cd904cd0509b9fc029854b320c3e,Mo-Fr 09:00-16:00,Western Union,Q861042
c62ad7b38da805ac69230ad1418d36aa,western_union,BANCO UNION SA,,Cochabamba,COCHABAMBA,,BO,(+591) 2456326,https://location.westernunion.com/bo/cochabamba/cochabamba/c62ad7b38da805ac69230ad1418d36aa,Mo-Fr 07:00-17:00; Sa 08:00-13:30; Su 09:00-13:30,Western Union,Q861042
4262e154c27909e626b8e8300533d23f,western_union,CIS ROSA MOLINA DE PINO,,Cochabamba,COCHABAMBA,,BO,(+591) 3-72751212,https://location.westernunion.com/bo/cochabamba/cochabamba/4262e154c27909e626b8e8300533d23f,Mo-Fr 08:30-16:30; Sa 08:30-13:00,Western Union,Q861042
98f49791b6d5bb33c491624ebbeb3f9f,western_union,EXCELENT TOURS II,,Cochabamba,COCHABAMBA,,BO,+591 4 4365263,https://location.westernunion.com/bo/cochabamba/cochabamba/98f49791b6d5bb33c491624ebbeb3f9f,Mo-Fr 09:00-19:00,Western Union,Q861042
45eaee4ce08969ad0242fa9293a85da4,western_union,AGENCIA HEROINAS,,Cochabamba,COCHABAMBA,,BO,+591 4 4584316,https://location.westernunion.com/bo/cochabamba/cochabamba/45eaee4ce08969ad0242fa9293a85da4,Mo-Fr 08:00-19:00; Sa 09:00-19:00,Western Union,Q861042
6579f6f2a923782283a5b388d8767f32,western_union,BANCO MERCANTIL SANTA CRUZ S A,,Cochabamba,COCHABAMBA,,BO,+591 4 4152500,https://location.westernunion.com/bo/cochabamba/cochabamba/6579f6f2a923782283a5b388d8767f32,Mo-Fr 09:00-18:00; Sa 09:00-13:00,Western Union,Q861042
05d48fb7431aa2f3135dd0e90596304a,western_union,BANCO MERCANTIL SANTA CRUZ S A,,Cochabamba,COCHABAMBA,,BO,+591 4 4152500,https://location.westernunion.com/bo/cochabamba/cochabamba/05d48fb7431aa2f3135dd0e90596304a,Mo-Sa 09:00-20:00,Western Union,Q861042
245d256128be21abbccfa6f3734a7bee,western_union,OFICINA DE NEGOCIOS EL PRADO,,Cochabamba,COCHABAMBA,,BO,(+591) 2175216,https://location.westernunion.com/bo/cochabamba/cochabamba/245d256128be21abbccfa6f3734a7bee,Mo-Fr 09:00-16:00; Sa 09:00-13:00,Western Union,Q861042
943e4fc4a08aeedb4284e6f68c57c99a,western_union,FARM EL PRADO I,,Cochabamba,COCHABAMBA,,BO,(+591) 4-75977546,https://location.westernunion.com/bo/cochabamba/cochabamba/943e4fc4a08aeedb4284e6f68c57c99a,Mo-Fr 07:00-23:00; Sa-Su 09:00-21:00,Western Union,Q861042
cd63e0fb5a6c8d1daf8df15fcf53f450,western_union,BANCO MERCANTIL SANTA CRUZ S A,,Cochabamba,COCHABAMBA,,BO,+591 4 4152500,https://location.westernunion.com/bo/cochabamba/cochabamba/cd63e0fb5a6c8d1daf8df15fcf53f450,Mo-Fr 09:00-18:00; Sa 09:00-13:00,Western Union,Q861042
305860eadb45904dc5d954408b2dea0e,western_union,BANCO ECONOMICO SA AG BLANCO GALINDO,,Cochabamba,COCHABAMBA,,BO,+591 4 4155500,https://location.westernunion.com/bo/cochabamba/cochabamba/305860eadb45904dc5d954408b2dea0e,Mo-Fr 08:00-17:00; Sa 08:00-13:00,Western Union,Q861042
55db724c562a5f0fcda1967544d3bb85,western_union,BANCO UNION SA,,Cochabamba,COCHABAMBA,,BO,+591 4 4409097,https://location.westernunion.com/bo/cochabamba/cochabamba/55db724c562a5f0fcda1967544d3bb85,Mo-Fr 09:00-17:30; Sa 09:00-13:30,Western Union,Q861042
1ed13c7ff997f84150cf4ba1156ffe20,western_union,FARM QUINTANILLA,,Cochabamba,COCHABAMBA,,BO,(+591) 4-77346231,https://location.westernunion.com/bo/cochabamba/cochabamba/1ed13c7ff997f84150cf4ba1156ffe20,Mo-Fr 07:00-23:00; Sa-Su 09:00-21:00,Western Union,Q861042
133863acbbffbd7c2c84925d0130a722,western_union,CIS MILENKA PASTOR SANCHEZ,,Cochabamba,COCHABAMBA,,BO,+591 70737248,https://location.westernunion.com/bo/cochabamba/cochabamba/133863acbbffbd7c2c84925d0130a722,Mo-Fr 09:00-18:30; Sa 09:00-13:00,Western Union,Q861042
5e734612c1b33c2572d83fe3a131cc53,western_union,BANCO UNION S A,,Cochabamba,COCHABAMBA,,BO,+591 4 4171717,https://location.westernunion.com/bo/cochabamba/cochabamba/5e734612c1b33c2572d83fe3a131cc53,Mo-Fr 07:00-15:00,Western Union,Q861042
a558a847709a7513787fd4f354ce99db,western_union,BANCO UNION S A,,Cochabamba,COCHABAMBA,,BO,+591 4 4171717,https://location.westernunion.com/bo/cochabamba/cochabamba/a558a847709a7513787fd4f354ce99db,Mo-Fr 07:00-15:00,Western Union,Q861042
f862fd137a7250f370acdeebea661dfb,western_union,CRECER IFD,,Cochabamba,COCHABAMBA,,BO,(+591) 4-28392395,https://location.westernunion.com/bo/cochabamba/cochabamba/f862fd137a7250f370acdeebea661dfb,Mo-Fr 08:30-16:00,Western Union,Q861042
e7c33574dd543ed3a55705f740f80f83,western_union,CIDRE MUYURINA,,Muyurina,COCHABAMBA,,BO,+591 4 4411110,https://location.westernunion.com/bo/cochabamba/muyurina/e7c33574dd543ed3a55705f740f80f83,Mo-Fr 08:30-18:30; Sa 09:00-13:00,Western Union,Q861042
772a5a1f6c7b5e212c62c9ef312d19c0,western_union,CIS ROGER AGUILAR VARGAS,,Cercado,COCHABAMBA,,BO,+591 4 4583875,https://location.westernunion.com/bo/cochabamba/cercado/772a5a1f6c7b5e212c62c9ef312d19c0,Mo-Fr 09:00-16:00; Sa 09:00-12:00,Western Union,Q861042
b6a531abb84d0013e4677cc305e96540,western_union,BANCO GANADERO SUCURSAL COCHABAMBA,,Cochabamba,COCHABAMBA,,BO,(+591) 1-3173000,https://location.westernunion.com/bo/cochabamba/cochabamba/b6a531abb84d0013e4677cc305e96540,Mo-Fr 08:00-15:00; Sa 09:00-13:00,Western Union,Q861042
66c7905345c162586873bb0e01cf0be6,western_union,CIS COINSE CB AYACUCHO,,Cochabamba,COCHABAMBA,,BO,+591 800 17 5052,https://location.westernunion.com/bo/cochabamba/cochabamba/66c7905345c162586873bb0e01cf0be6,Mo-Fr 08:00-19:30; Sa 09:00-15:00,Western Union,Q861042
db51bec3fe3a828ed7c3130b5a46b074,western_union,LA PROMOTORA EFV,,Cochabamba,COCHABAMBA,,BO,+591 4 4222741,https://location.westernunion.com/bo/cochabamba/cochabamba/db51bec3fe3a828ed7c3130b5a46b074,Mo-Fr 08:30-15:30; Sa 09:00-12:30,Western Union,Q861042
231d97306e0de7afc87e056b76c9f590,western_union,BANCO FORTALEZA S A,,Cochabamba,COCHABAMBA,,BO,+591 4 4500577,https://location.westernunion.com/bo/cochabamba/cochabamba/231d97306e0de7afc87e056b76c9f590,Mo-Fr 08:30-16:00; Sa 09:00-13:00,Western Union,Q861042
05f6b04f7101b58a0f6943910c50ad03,western_union,TRANSFER ANDINA CENTRO II,,Cochabamba,COCHABAMBA,,BO,+591 4 4661323,https://location.westernunion.com/bo/cochabamba/cochabamba/05f6b04f7101b58a0f6943910c50ad03,Mo-Fr 08:30-18:00; Sa 09:00-01:00,Western Union,Q861042
d1cd3eaac30e4f5edfdd697910af1f2b,western_union,TRANSFER ANDINA AMERICA,,Cochabamba,COCHABAMBA,,BO,+591 79961033,https://location.westernunion.com/bo/cochabamba/cochabamba/d1cd3eaac30e4f5edfdd697910af1f2b,Mo-Fr 09:00-17:00; Sa 09:00-13:00,Western Union,Q861042
8dc6ae7b4af562a357f09e8f179d10d5,western_union,TRANSFER ANDINA,,Cochabamba,COCHABAMBA,,BO,+591 4 4661323,https://location.westernunion.com/bo/cochabamba/cochabamba/8dc6ae7b4af562a357f09e8f179d10d5,Mo-Sa 08:00-19:00,Western Union,Q861042
188f3c0399c1e24c0080587dbb46b635,western_union,CIS MABOV,,Cochabamba,COCHABAMBA,,BO,+591 4 4129256,https://location.westernunion.com/bo/cochabamba/cochabamba/188f3c0399c1e24c0080587dbb46b635,Mo-Fr 08:00-15:00; Sa 09:00-13:00,Western Union,Q861042
5e142c603d61a577f939e8be1f365145,western_union,COOPROLE LTDA,,Cochabamba,COCHABAMBA,,BO,+591 4 4259120,https://location.westernunion.com/bo/cochabamba/cochabamba/5e142c603d61a577f939e8be1f365145,Mo-Fr 08:30-16:00; Sa 09:00-12:00,Western Union,Q861042
3e597f8c08ec7621e90083bf32da7798,western_union,FARM BLANCO GALINDO,,Cochabamba,COCHABAMBA,,BO,(+591) 4-75465178,https://location.westernunion.com/bo/cochabamba/cochabamba/3e597f8c08ec7621e90083bf32da7798,Mo-Fr 07:00-23:00; Sa-Su 09:00-21:00,Western Union,Q861042
174a2db490fb7a1535936eb111d050b5,western_union,FARM SIMON LOPEZ,,Cochabamba,COCHABAMBA,,BO,(+591) 4-69005515,https://location.westernunion.com/bo/cochabamba/cochabamba/174a2db490fb7a1535936eb111d050b5,Mo-Fr 07:00-23:00; Sa-Su 09:00-21:00,Western Union,Q861042
e602a6137d529b900245ee9399496a5a,western_union,FARM BEIJIN,,Cochabamba,COCHABAMBA,,BO,+591 61553845,https://location.westernunion.com/bo/cochabamba/cochabamba/e602a6137d529b900245ee9399496a5a,Mo-Sa 07:00-23:30; Su 07:00-23:00,Western Union,Q861042
c81097c4078241273d95f0a5ebdcc8a6,western_union,BANCO ECONOMICO HIPERMAXI CIRCUNVALACION,,Cochabamba,COCHABAMBA,,BO,+591 4 4155500,https://location.westernunion.com/bo/cochabamba/cochabamba/c81097c4078241273d95f0a5ebdcc8a6,Mo-Fr 08:00-17:00; Sa 08:00-13:00,Western Union,Q861042
ca2e6efdf9decb1498033026809e0ff8,western_union,FARM MELCHOR PEREZ,,Cochabamba,COCHABAMBA,,BO,(+591) 4-75977523,https://location.westernunion.com/bo/cochabamba/cochabamba/ca2e6efdf9decb1498033026809e0ff8,Mo-Fr 07:00-23:00; Sa-Su 09:00-21:00,Western Union,Q861042
6f06b1b72f1b802acec75f0f3dd907a4,western_union,FARM MELCHOR PEREZ II,,Cochabamba,COCHABAMBA,,BO,(+591) 4-61584357,https://location.westernunion.com/bo/cochabamba/cochabamba/6f06b1b72f1b802acec75f0f3dd907a4,Mo-Fr 07:00-23:00; Sa-Su 09:00-21:00,Western Union,Q861042
36c485cbef2d705d55cf9167054902f5,western_union,FARM BLANCO GALINDO Y ESQ. AV CUARTA,,Cochabamba,COCHABAMBA,,BO,(+591) 4-77627971,https://location.westernunion.com/bo/cochabamba/cochabamba/36c485cbef2d705d55cf9167054902f5,Mo-Fr 07:00-23:00; Sa-Su 09:00-21:00,Western Union,Q861042
753f0d4ef8d6a3beecabd30177084a98,western_union,AGENCIA CALA CALA,,Cochabamba,COCHABAMBA,,BO,+591 4 4408482,https://location.westernunion.com/bo/cochabamba/cochabamba/753f0d4ef8d6a3beecabd30177084a98,Mo-Fr 08:00-19:00; Sa 09:00-19:00,Western Union,Q861042
fea713ad3628d6ac474d7ad7ce248ed7,western_union,BANCO MERCANTIL SANTA CRUZ,,Cochabamba,COCHABAMBA,,BO,+591 4 4112500,https://location.westernunion.com/bo/cochabamba/cochabamba/fea713ad3628d6ac474d7ad7ce248ed7,Mo-Fr 09:00-18:00; Sa 09:00-13:00,Western Union,Q861042
3db8cb2fc6a608bd52fdfa3da2233068,western_union,LA PROMOTORA EFV,,Cochabamba,COCHABAMBA,,BO,+591 4 4799391,https://location.westernunion.com/bo/cochabamba/cochabamba/3db8cb2fc6a608bd52fdfa3da2233068,Mo-Fr 08:30-15:30; Sa 09:00-12:30,Western Union,Q861042
4840528e96487b761bebdb36af9eca1d,western_union,AGENCIA HIPERMAXI JUAN DE LA ROSA,,Cochabamba,COCHABAMBA,,BO,+591 4 4155500,https://location.westernunion.com/bo/cochabamba/cochabamba/4840528e96487b761bebdb36af9eca1d,Mo-Fr 08:00-17:00; Sa 08:00-13:00,Western Union,Q861042
914c4704494fe86a4f4652f6d72facdb,western_union,FARM ADELA ZAMUDIO,,Cochabamba,COCHABAMBA,,BO,(+591) 4-75465188,https://location.westernunion.com/bo/cochabamba/cochabamba/914c4704494fe86a4f4652f6d72facdb,Mo-Fr 07:00-23:00; Sa-Su 09:00-21:00,Western Union,Q861042
ac6edb64080d4dca3b879d94578bff72,western_union,CIDRE CHIMBA CENTRAL,,Cochabamba,COCHABAMBA,,BO,+591 4 4411110,https://location.westernunion.com/bo/cochabamba/cochabamba/ac6edb64080d4dca3b879d94578bff72,Mo-Fr 08:00-18:00; Sa 09:00-13:00,Western Union,Q861042
5d68a940054b0a6bc892c3cf837bcff8,western_union,BANCO GANADERO AGENCIA AMERICA,,Cochabamba,COCHABAMBA,,BO,(+591) 1-4174000,https://location.westernunion.com/bo/cochabamba/cochabamba/5d68a940054b0a6bc892c3cf837bcff8,Mo-Fr 08:00-15:00; Sa 09:00-13:00,Western Union,Q861042
ebbdc63f4508f2dbb64f632a8927954d,western_union,BANCO MERCANTIL SANTA CRUZ S A,,Cochabamba,COCHABAMBA,,BO,+591 4 4152500,https://location.westernunion.com/bo/cochabamba/cochabamba/ebbdc63f4508f2dbb64f632a8927954d,Mo-Fr 08:00-15:00; Sa 09:00-13:00,Western Union,Q861042
15e11dc3869ebc47970ef2515bdbf950,western_union,CIS COOP LOYOLA R L,,Quillacollo,COCHABAMBA,,BO,+591 4 4229094,https://location.westernunion.com/bo/cochabamba/quillacollo/15e11dc3869ebc47970ef2515bdbf950,Mo-Fr 08:30-16:00; Sa 09:00-12:00,Western Union,Q861042
e1a5e8b74ed5ad2ba91b46d7919ac24b,western_union,OFICINA DE NEGOCIOS QUILLACOLLO,,Cochabamba,COCHABAMBA,,BO,(+591) 2175216,https://location.westernunion.com/bo/cochabamba/cochabamba/e1a5e8b74ed5ad2ba91b46d7919ac24b,Mo-Fr 09:00-16:00; Sa 09:00-13:00,Western Union,Q861042
e7ba954dda3a0337f4f6c00d39f3e407,western_union,BANCO MERCANTIL SANTA CRUZ S A,,Cochabamba,COCHABAMBA,,BO,+591 4 4152500,https://location.westernunion.com/bo/cochabamba/cochabamba/e7ba954dda3a0337f4f6c00d39f3e407,Mo-Fr 08:00-15:00; Sa 09:00-13:00,Western Union,Q861042
d7edd279a87a2d7d00202f03cf3063c5,western_union,BANCO UNION SA,,Colcapirhua,COCHABAMBA,,BO,+591 4 4172751,https://location.westernunion.com/bo/cochabamba/colcapirhua/d7edd279a87a2d7d00202f03cf3063c5,Mo-Fr 09:00-16:30; Sa 09:00-13:00,Western Union,Q861042
d04ca6b2cd5678aec2f83854a4114b97,western_union,FARM ECOLOGICA,,Cochabamba,COCHABAMBA,,BO,(+591) 4-75328193,https://location.westernunion.com/bo/cochabamba/cochabamba/d04ca6b2cd5678aec2f83854a4114b97,Mo-Fr 07:00-23:00; Sa-Su 09:00-21:00,Western Union,Q861042
020a2f99ac154259fb2744068c901166,western_union,AGENCIA COLCAPIRHUA,,Cochabamba,COCHABAMBA,,BO,+591 4 4376937,https://location.westernunion.com/bo/cochabamba/cochabamba/020a2f99ac154259fb2744068c901166,Mo-Fr 08:00-19:00; Sa 09:00-19:00,Western Union,Q861042
6880e951df1528c90ad8c5dccf00e8a3,western_union,ECO AGENCIA CRUCE TAQUINA,,Cercado,COCHABAMBA,,BO,+591 4 4179900,https://location.westernunion.com/bo/cochabamba/cercado/6880e951df1528c90ad8c5dccf00e8a3,Mo-Fr 08:30-16:00; Sa 09:00-12:30,Western Union,Q861042
23e4d0415a1205337605a9b984c172c4,western_union,CIS COINSE CB COLCAPIRHUA,,Colcapirhua,COCHABAMBA,,BO,+591 800 17 5052,https://location.westernunion.com/bo/cochabamba/colcapirhua/23e4d0415a1205337605a9b984c172c4,Mo-Fr 08:00-18:30; Sa 09:00-13:00,Western Union,Q861042
575a6f2f5e57665ede89c073fab80798,western_union,AGENCIA CRUCE TAQUINA,,Cochabamba,COCHABAMBA,,BO,+591 4 4306617,https://location.westernunion.com/bo/cochabamba/cochabamba/575a6f2f5e57665ede89c073fab80798,Mo-Fr 08:00-19:00; Sa 09:00-19:00,Western Union,Q861042
e8b51f817c039c1f780e349484f0d583,western_union,COOPERATIVA QUILLACOLLO R.L.,,Quillacollo,COCHABAMBA,,BO,+591 4 4376768,https://location.westernunion.com/bo/cochabamba/quillacollo/e8b51f817c039c1f780e349484f0d583,Mo-Fr 08:00-15:00; Sa 08:00-12:30,Western Union,Q861042
16afbab422be310311ba2c66ed4bb7cd,western_union,COOPERATIVA CRISTO REY,,Cochabamba,COCHABAMBA,,BO,(+591) 4307930,https://location.westernunion.com/bo/cochabamba/cochabamba/16afbab422be310311ba2c66ed4bb7cd,Mo-Fr 06:30-16:30; Sa 06:30-12:00,Western Union,Q861042
d36e219d9da163ae459b5fd8ce7d790d,western_union,BANCO MERCANTIL SANTA CRUZ S A,,Cochabamba,COCHABAMBA,,BO,+591 4 4152500,https://location.westernunion.com/bo/cochabamba/cochabamba/d36e219d9da163ae459b5fd8ce7d790d,Mo-Fr 08:00-15:00; Sa 09:00-13:00,Western Union,Q861042
c646d63dc510f2e69c7b640158b4926a,western_union,BANCO UNION SA,,Cochabamba,COCHABAMBA,,BO,(+591) 4-174131,https://location.westernunion.com/bo/cochabamba/cochabamba/c646d63dc510f2e69c7b640158b4926a,Mo-Fr 09:00-16:30; Sa 09:00-13:00,Western Union,Q861042
036f8ec1b1d67cbaec4142ae64e0096f,western_union,CIS COINSE CB SIMON LOPEZ,,Cochabamba,COCHABAMBA,,BO,+591 800 17 5052,https://location.westernunion.com/bo/cochabamba/cochabamba/036f8ec1b1d67cbaec4142ae64e0096f,Mo-Fr 08:00-18:30; Sa 09:00-16:00,Western Union,Q861042
d792b78117f1f9bb005c1be9a3db31f2,western_union,BANCO UNION SA,,Cochabamba,COCHABAMBA,,BO,+591 4 4286306,https://location.westernunion.com/bo/cochabamba/cochabamba/d792b78117f1f9bb005c1be9a3db31f2,Mo-Fr 09:00-17:30; Sa 09:00-13:30,Western Union,Q861042
7fabd2aa425cf470d1b941ebc39e2b45,western_union,LOS ANDES BANCA PYME BMSC,,Cochabamba,COCHABAMBA,,BO,+591 4 4487070,https://location.westernunion.com/bo/cochabamba/cochabamba/7fabd2aa425cf470d1b941ebc39e2b45,Mo-Fr 08:00-15:00; Sa 09:00-13:00,Western Union,Q861042
432e9296cfad7a87c1bbfbe2fabe1b8e,western_union,FARM DORBIGNY,,Cochabamba,COCHABAMBA,,BO,(+591) 4-75465186,https://location.westernunion.com/bo/cochabamba/cochabamba/432e9296cfad7a87c1bbfbe2fabe1b8e,Mo-Su 14:00-22:00,Western Union,Q861042
d5b14a5efd99f455bd5bf975d36f35af,western_union,OFICINA DE NEGOCIOS AMERICA,,Cochabamba,COCHABAMBA,,BO,(+591) 2175216,https://location.westernunion.com/bo/cochabamba/cochabamba/d5b14a5efd99f455bd5bf975d36f35af,Mo-Fr 09:00-16:00; Sa 09:00-13:00,Western Union,Q861042
c553249fd061d3aae81fd2a24f330d9b,western_union,FARM LIBERTADOR BOLIVAR,,Cochabamba,COCHABAMBA,,BO,(+591) 4-61584160,https://location.westernunion.com/bo/cochabamba/cochabamba/c553249fd061d3aae81fd2a24f330d9b,Mo-Fr 07:00-23:00; Sa-Su 09:00-21:00,Western Union,Q861042
92f070246620c82346ef378b8f47b1d1,western_union,BANCO UNION SA,,Cochabamba,COCHABAMBA,,BO,+591 4 4477941,https://location.westernunion.com/bo/cochabamba/cochabamba/92f070246620c82346ef378b8f47b1d1,Mo-Fr 09:00-16:30; Sa 09:00-13:00,Western Union,Q861042
63ccb567d1efe2e99a45efed9cc82343,western_union,FARM MELCHOR PEREZ CHIMBA,,Cochabamba,COCHABAMBA,,BO,(+591) 4-78500208,https://location.westernunion.com/bo/cochabamba/cochabamba/63ccb567d1efe2e99a45efed9cc82343,Mo-Fr 07:00-23:00; Sa-Su 09:00-21:00,Western Union,Q861042
666f7ffa2e8bf723136672b824d67b33,western_union,BANCO FORTALEZA S A,,Cochabamba,COCHABAMBA,,BO,+591 4 4254689,https://location.westernunion.com/bo/cochabamba/cochabamba/666f7ffa2e8bf723136672b824d67b33,Mo-Fr 08:30-16:00; Sa 09:00-13:00,Western Union,Q861042
084882ed842b9653973e0471b5ab3e94,western_union,COOPERATIVA CRISTO REY,,Cochabamba,COCHABAMBA,,BO,(+591) 4280211,https://location.westernunion.com/bo/cochabamba/cochabamba/084882ed842b9653973e0471b5ab3e94,Mo-Fr 08:30-18:00; Sa 08:30-12:00,Western Union,Q861042
15c145ff04b383f2f50fc050c3775fe8,western_union,FARM PACATA ALTA,,Cochabamba,COCHABAMBA,,BO,(+591) 4-61396546,https://location.westernunion.com/bo/cochabamba/cochabamba/15c145ff04b383f2f50fc050c3775fe8,Mo-Fr 07:00-23:00; Sa-Su 09:00-21:00,Western Union,Q861042
7ddbdd55df0c009fcf51e9c3502e9e98,western_union,CIS COINSE CB EL PRADO,,Cochabamba,COCHABAMBA,,BO,+591 800 17 5052,https://location.westernunion.com/bo/cochabamba/cochabamba/7ddbdd55df0c009fcf51e9c3502e9e98,Mo-Fr 08:00-19:30; Sa 09:00-15:00; Su 09:00-13:00,Western Union,Q861042
1be25acc93a9bc588344d8cd3c32d201,western_union,BANCO ECONOMICO SA AG HIPERMAXI PRADO,,Cochabamba,COCHABAMBA,,BO,+591 4 4155500,https://location.westernunion.com/bo/cochabamba/cochabamba/1be25acc93a9bc588344d8cd3c32d201,Mo-Fr 08:00-17:00; Sa 08:00-13:00,Western Union,Q861042
560d35f14352bc246fe1b3f7b5361b8a,western_union,EXCELENT TOURS,,Cochabamba,COCHABAMBA,,BO,+591 4 4522080,https://location.westernunion.com/bo/cochabamba/cochabamba/560d35f14352bc246fe1b3f7b5361b8a,Mo-Fr 09:00-17:00; Sa 09:00-13:00,Western Union,Q861042
12a111bf56d914233b283047f54e0934,western_union,OFICINA BLANCO GALINDO,,Cochabamba,COCHABAMBA,,BO,(+591) 2175216,https://location.westernunion.com/bo/cochabamba/cochabamba/12a111bf56d914233b283047f54e0934,Mo-Fr 09:00-16:00; Sa 09:00-13:00,Western Union,Q861042
add087666bb829ab8df12145c856c305,western_union,COOPROLE LTDA,,Quillacollo,COCHABAMBA,,BO,+591 4 4589754,https://location.westernunion.com/bo/cochabamba/quillacollo/add087666bb829ab8df12145c856c305,Mo-Fr 08:30-16:00; Sa 09:00-12:00,Western Union,Q861042
d2f75e8b5f669f0c0f735ed5174565c0,western_union,CRECER IFD,,Cochabamba,COCHABAMBA,,BO,(+591) 4-22178170,https://location.westernunion.com/bo/cochabamba/cochabamba/d2f75e8b5f669f0c0f735ed5174565c0,Mo-Fr 08:30-16:00,Western Union,Q861042
007a5ae70470492e00d5146190adae22,western_union,DIACONIA FRIF   IFD,,Quillacollo,COCHABAMBA,,BO,+591 4 4543490,https://location.westernunion.com/bo/cochabamba/quillacollo/007a5ae70470492e00d5146190adae22,Mo-Fr 08:00-16:00; Sa 08:30-12:00,Western Union,Q861042
547d6c2d268fc1b2f0d9d252ffd76750,western_union,SEMBRAR SARTAWI,,Cochabamba,COCHABAMBA,,BO,+591 76284379,https://location.westernunion.com/bo/cochabamba/cochabamba/547d6c2d268fc1b2f0d9d252ffd76750,Mo-Fr 08:00-17:00; Sa 08:30-13:00,Western Union,Q861042
040e18d94f026c167c47fca13ade403a,western_union,CIS JUVENAL AGUILAR SEGARRA,,Cochabamba,COCHABAMBA,,BO,(+591) 4-63827003,https://location.westernunion.com/bo/cochabamba/cochabamba/040e18d94f026c167c47fca13ade403a,Mo-Fr 07:00-20:00; Sa-Su 08:00-17:00,Western Union,Q861042
e0a703779fb96b3f16a603035d6a3dae,western_union,FUBODE,,Quillacollo,COCHABAMBA,,BO,(+591) 4389495,https://location.westernunion.com/bo/cochabamba/quillacollo/e0a703779fb96b3f16a603035d6a3dae,Mo-Fr 08:00-15:00,Western Union,Q861042
96a1de5639eee7004a66e5c5c58a988e,western_union,AGENCIA QUILLACOLLO,,Quillacollo,COCHABAMBA,,BO,+591 4 4263335,https://location.westernunion.com/bo/cochabamba/quillacollo/96a1de5639eee7004a66e5c5c58a988e,Mo-Fr 08:00-19:00; Sa 09:00-19:00,Western Union,Q861042
15ee633f7cc23f9d193c62c52f4ddd6d,western_union,BANCO ECONOMICO SA MI SOCIO QUILLACOLLO,,Quillacollo,COCHABAMBA,,BO,+591 4 4155500,https://location.westernunion.com/bo/cochabamba/quillacollo/15ee633f7cc23f9d193c62c52f4ddd6d,Mo-Fr 08:00-17:00; Sa 08:00-13:00,Western Union,Q861042
0abd4532b653750a9b98e8d6072f7dda,western_union,BANCO GANADERO AGENCIA QUILLACOLLO,,Cochabamba,COCHABAMBA,,BO,(+591) 1-4173000,https://location.westernunion.com/bo/cochabamba/cochabamba/0abd4532b653750a9b98e8d6072f7dda,Mo-Fr 08:00-15:00; Sa 09:00-13:00,Western Union,Q861042
85b7c0204a5d9dd24a79c7eb07a4e56d,western_union,CJN AGENCIA QUILLACOLLO,,Quillacollo,COCHABAMBA,,BO,(+591) 4-3638000,https://location.westernunion.com/bo/cochabamba/quillacollo/85b7c0204a5d9dd24a79c7eb07a4e56d,Mo-Fr 08:30-15:30; Sa 08:30-12:30,Western Union,Q861042
2e83c436f3200dfd43f0e0fcc61ce195,western_union,BANCO MERCANTIL SANTA CRUZ S A,,Quillacollo,COCHABAMBA,,BO,+591 4 4152500,https://location.westernunion.com/bo/cochabamba/quillacollo/2e83c436f3200dfd43f0e0fcc61ce195,Mo-Fr 08:00-15:00; Sa 09:00-13:00,Western Union,Q861042
9cc8833bec317b44b270a695f9032c39,western_union,BANCO UNION SA,,Cochabamba,COCHABAMBA,,BO,+591 4 4420535,https://location.westernunion.com/bo/cochabamba/cochabamba/9cc8833bec317b44b270a695f9032c39,Mo-Fr 07:00-16:30; Sa 08:00-13:00,Western Union,Q861042
efddaadd6625bfea0b4aae5e73987727,western_union,BANCO UNION SA,,Vinto,COCHABAMBA,,BO,(+591) 4-174091,https://location.westernunion.com/bo/cochabamba/vinto/efddaadd6625bfea0b4aae5e73987727,Mo-Fr 09:00-16:30; Sa 09:00-13:00,Western Union,Q861042
30efb2b902e1411370878ce6e43fe0d9,western_union,COOPERATIVA QUILLACOLLO R.L.,,Quillacollo,COCHABAMBA,,BO,+591 4 4355111,https://location.westernunion.com/bo/cochabamba/quillacollo/30efb2b902e1411370878ce6e43fe0d9,Mo-Fr 08:00-15:00; Sa 08:00-12:30,Western Union,Q861042
01f0e8b1a5befe7888985159c560c710,western_union,TIQUIPAYA,,Tiquipaya,COCHABAMBA,,BO,+591 4 4773131,https://location.westernunion.com/bo/cochabamba/tiquipaya/01f0e8b1a5befe7888985159c560c710,Mo-Fr 08:00-19:00; Sa 09:00-19:00,Western Union,Q861042
960e1443e2c37e527071f666a2adb181,western_union,BANCO MERCANTIL SANTA CRUZ S A,,Tiquipaya,COCHABAMBA,,BO,+591 4 4152500,https://location.westernunion.com/bo/cochabamba/tiquipaya/960e1443e2c37e527071f666a2adb181,Mo-Fr 08:00-15:00; Sa 09:00-13:00,Western Union,Q861042
b6d0ce4db8adc1dfa22e196519d21452,western_union,BANCO UNION SA,,Tiquipaya,COCHABAMBA,,BO,+591 4 4666226,https://location.westernunion.com/bo/cochabamba/tiquipaya/b6d0ce4db8adc1dfa22e196519d21452,Mo-Fr 09:00-16:30; Sa 09:00-13:00,Western Union,Q861042
5213d56b12b8b7b50ee9340c3a7181ba,western_union,CIS COOP LOYOLA R L,,Tiquipaya,COCHABAMBA,,BO,+591 4 4229094,https://location.westernunion.com/bo/cochabamba/tiquipaya/5213d56b12b8b7b50ee9340c3a7181ba,Mo-Fr 08:30-16:00; Sa 09:00-12:00,Western Union,Q861042
4c462acc03d3b71d1210731014c9fde8,western_union,TRANSFER ANDINA QUILLACOLLO CB,,Cochabamba,COCHABAMBA,,BO,(+591) 4-68582812,https://location.westernunion.com/bo/cochabamba/cochabamba/4c462acc03d3b71d1210731014c9fde8,Mo-Fr 08:30-14:30; Sa 09:00-13:00,Western Union,Q861042
a65f0bdef1bf8ace10aaf9884ba8f3af,western_union,ECO OFICINA EXTERNA MALLCO CHAPI,,Quillacollo,COCHABAMBA,,BO,+591 4 4179900,https://location.westernunion.com/bo/cochabamba/quillacollo/a65f0bdef1bf8ace10aaf9884ba8f3af,Mo-Fr 08:30-16:00; Sa 09:00-12:30,Western Union,Q861042
f5b9c24b3f267687e1e45f34f0814c7b,western_union,BANCO ECONOMICO SAAGENCIA ORUR,,Oruro,COCHABAMBA,,BO,+591 2 5280540,https://location.westernunion.com/bo/cochabamba/oruro/f5b9c24b3f267687e1e45f34f0814c7b,Mo-Fr 08:00-17:00; Sa 08:00-13:00,Western Union,Q861042
70766dd3e84ebd13ea4d64a17b4cd3b6,western_union,BANCO ECONOMICO SA SUCURSAL COCHABAMABA,,Cochabamba,COCHABAMBA,,BO,+591 4 4155500,https://location.westernunion.com/bo/cochabamba/cochabamba/70766dd3e84ebd13ea4d64a17b4cd3b6,Mo-Fr 08:00-17:00; Sa 08:00-13:00,Western Union,Q861042
b29e08d33fbd79e87bd38edad08621c0,western_union,FARM QUILLACOLLO,,Cochabamba,COCHABAMBA,,BO,(+591) 4-78463706,https://location.westernunion.com/bo/cochabamba/cochabamba/b29e08d33fbd79e87bd38edad08621c0,Mo-Fr 07:00-23:00; Sa-Su 09:00-21:00,Western Union,Q861042
172e027bbc55d0447d747a0cbc697a96,western_union,COOPERATIVA QUILLACOLLO R.L.,,Quillacollo,COCHABAMBA,,BO,+591 4 4260504,https://location.westernunion.com/bo/cochabamba/quillacollo/172e027bbc55d0447d747a0cbc697a96,Mo-Fr 08:00-15:00; Sa 08:00-12:30,Western Union,Q861042
aee60cf457f3bc2fb0102548ff1e6166,western_union,CIS PATRICIA RUTH GUZMAN DIAZ,,Cochabamba,COCHABAMBA,,BO,+591 65397007,https://location.westernunion.com/bo/cochabamba/cochabamba/aee60cf457f3bc2fb0102548ff1e6166,Mo-Fr 08:30-16:00; Sa 09:00-13:00,Western Union,Q861042
6843d3c74982e5d4c006b2e314bc102e,western_union,LA PROMOTORA EFV,,Cochabamba,COCHABAMBA,,BO,+591 4 4363179,https://location.westernunion.com/bo/cochabamba/cochabamba/6843d3c74982e5d4c006b2e314bc102e,Mo-Fr 08:30-15:30; Sa 09:00-12:30,Western Union,Q861042
8f2f978f2a0510b7fb29a5afd76fdd1b,western_union,BANCO UNION SA,,Quillacollo,COCHABAMBA,,BO,+591 4 4171717,https://location.westernunion.com/bo/cochabamba/quillacollo/8f2f978f2a0510b7fb29a5afd76fdd1b,Mo-Fr 09:00-17:00; Sa 08:00-13:30; Su 09:00-13:30,Western Union,Q861042
2f63388e5956582945245bc68aecf80b,western_union,BANCO FORTALEZA S A,,Cochabamba,COCHABAMBA,,BO,+591 4 4391197,https://location.westernunion.com/bo/cochabamba/cochabamba/2f63388e5956582945245bc68aecf80b,Mo-Fr 08:30-16:00; Sa 09:00-13:00,Western Union,Q861042
1ee9053644ec7292ea9c815f1735010c,western_union,CIS EUROSHOPPING AG QUILLACOLLO,,Quillacollo,COCHABAMBA,,BO,(+591) 3-4393508,https://location.westernunion.com/bo/cochabamba/quillacollo/1ee9053644ec7292ea9c815f1735010c,Mo-Fr 08:30-16:30; Sa 08:30-13:00,Western Union,Q861042
cedac81de5436bc2cd8298bb14fc45e2,western_union,CIS EUROSHOPPING AG QUILLACOLLO,,Quillacollo,COCHABAMBA,,BO,(+591) 3-4393508,https://location.westernunion.com/bo/cochabamba/quillacollo/cedac81de5436bc2cd8298bb14fc45e2,Mo-Fr 08:30-16:30; Sa 08:30-13:00,Western Union,Q861042
3d6af438f6cc2924353a7c9552d1d1df,western_union,CIDRE QUILLACOLLO,,Quillacollo,COCHABAMBA,,BO,+591 4 4263106,https://location.westernunion.com/bo/cochabamba/quillacollo/3d6af438f6cc2924353a7c9552d1d1df,Mo-Fr 08:00-18:00; Sa 09:00-13:00,Western Union,Q861042
7e3792c6c1f295cea6f201299d15d99f,western_union,FARM PLAZA 15 DE AGOSTO,,Quillacollo,COCHABAMBA,,BO,(+591) 4-61396547,https://location.westernunion.com/bo/cochabamba/quillacollo/7e3792c6c1f295cea6f201299d15d99f,Mo-Fr 07:00-23:00; Sa-Su 09:00-21:00,Western Union,Q861042
01fcab75f9792d22addc83981dfcf410,western_union,CIS COOP LA SAGRADA FAMILIA,,Cochabamba,COCHABAMBA,,BO,(+591) 4-2414320,https://location.westernunion.com/bo/cochabamba/cochabamba/01fcab75f9792d22addc83981dfcf410,Mo-Fr 08:30-16:00; Sa 08:30-12:30,Western Union,Q861042
d65ec67f2fa78f72a00446119f5319bc,western_union,ECO AGENCIA QUILLACOLLO,,Quillacollo,COCHABAMBA,,BO,+591 4 4179900,https://location.westernunion.com/bo/cochabamba/quillacollo/d65ec67f2fa78f72a00446119f5319bc,Mo-Fr 08:30-16:00; Sa 09:00-12:30,Western Union,Q861042
11d4e8d8055d919619787b6f4d3567b9,western_union,BANCO UNION SA,,Quillacollo,COCHABAMBA,,BO,(+591) 4-360882,https://location.westernunion.com/bo/cochabamba/quillacollo/11d4e8d8055d919619787b6f4d3567b9,Mo-Fr 09:00-16:00; Sa 09:00-13:30,Western Union,Q861042
ba2063a8dc65c6fec51de126269d5f2f,western_union,AGENCIA URKUPINA,,Quillacollo,COCHABAMBA,,BO,+591 4 4363978,https://location.westernunion.com/bo/cochabamba/quillacollo/ba2063a8dc65c6fec51de126269d5f2f,Mo-Fr 08:00-19:00; Sa 09:00-19:00,Western Union,Q861042
94c3319b727508f5a180dfea99b78ecb,western_union,CIS COOP LOYOLA R L,,Chapare,COCHABAMBA,,BO,+591 4 4229094,https://location.westernunion.com/bo/cochabamba/chapare/94c3319b727508f5a180dfea99b78ecb,Mo-Fr 08:30-16:00; Sa 09:00-12:00,Western Union,Q861042
2b769eae5ea3a1dfb82e800aa0dc9bb7,western_union,FARM COBIJA 2,,Pando,COCHABAMBA,,BO,(+591) 3-75550049,https://location.westernunion.com/bo/cochabamba/pando/2b769eae5ea3a1dfb82e800aa0dc9bb7,Mo-Sa 07:00-23:30; Su 07:00-21:30,Western Union,Q861042
3deafd5701e4f85cbcbd158d56544946,western_union,CIS COOP S PEDRO DE AIQUILE   OMEREQUE,,Omereque,COCHABAMBA,,BO,+591 4 4136227,https://location.westernunion.com/bo/cochabamba/omereque/3deafd5701e4f85cbcbd158d56544946,Mo-Fr 08:00-15:30; Sa 08:00-12:00,Western Union,Q861042
870282263799896b7abb524e55b1b470,western_union,BANCO ECONOMICO SA AGENCIA NORTE,,Cochabamba,COCHABAMBA,,BO,+591 4 4155500,https://location.westernunion.com/bo/cochabamba/cochabamba/870282263799896b7abb524e55b1b470,Mo-Fr 08:00-17:00; Sa 08:00-13:00,Western Union,Q861042
eea6b0d8bf010fcdfbd80294876ac9c3,western_union,LA PRIMERA CB COCHABAMBA,,Cochabamba,COCHABAMBA,,BO,+591 4 4296548,https://location.westernunion.com/bo/cochabamba/cochabamba/eea6b0d8bf010fcdfbd80294876ac9c3,Mo-Fr 09:00-17:00; Sa 09:00-13:00,Western Union,Q861042
6e712fdf68dbabaea8a99d2db3caf224,western_union,BANCO ECONOMICO SAAGENCIA CENTRAL TARIJA,,Tarija,COCHABAMBA,,BO,+591 4 6111100,https://location.westernunion.com/bo/cochabamba/tarija/6e712fdf68dbabaea8a99d2db3caf224,Mo-Fr 08:00-17:00; Sa 08:00-13:00,Western Union,Q861042
e682bbadeb87560a9486fc097377da3b,western_union,CJN AGENCIA FIJA TARIJA,,Tarija,COCHABAMBA,,BO,(+591) 4-3638000,https://location.westernunion.com/bo/cochabamba/tarija/e682bbadeb87560a9486fc097377da3b,Mo-Fr 08:30-15:30; Sa 08:30-12:30,Western Union,Q861042
