Ref,Spider,Name,Address,City,State,Zipcode,Country,Phone,Website,Hours,Brand,WikiData
,visa,,,IBA,ZAMBALES,,PH,,,,,
9b4e5788edd0327c030a24267f431385,western_union,CLH STA  CRUZ 2,,Sta  Cruz,ZAMBALES,,PH,+63 2 7759 9800,https://location.westernunion.com/ph/zambales/sta--cruz/9b4e5788edd0327c030a24267f431385,Mo-Sa 08:00-18:00; Su 08:00-17:00,Western Union,Q861042
4ac164956ee12500c6061dda15319e66,western_union,PETNET IBA ZAMBALES,,Iba,ZAMBALES,,PH,+63 47 811 1057,https://location.westernunion.com/ph/zambales/iba/4ac164956ee12500c6061dda15319e66,Mo-Sa 08:00-17:00; Su 08:00-16:00,Western Union,Q861042
f9ca4186aeec4b83e6ca7ddb107a8acc,western_union,CLH IBA AMUNGAN,,Iba,ZAMBALES,,PH,+63 2 7759 9800,https://location.westernunion.com/ph/zambales/iba/f9ca4186aeec4b83e6ca7ddb107a8acc,Mo-Sa 08:00-17:00,Western Union,Q861042
1eaa6fc1f2317ab52cf53eab03ea6453,western_union,CLH IBA PALANGINAN,,Iba,ZAMBALES,,PH,+63 2 7759 9800,https://location.westernunion.com/ph/zambales/iba/1eaa6fc1f2317ab52cf53eab03ea6453,Mo-Sa 08:00-17:00,Western Union,Q861042
9bab991f8ea7977bca42eea6957b770d,western_union,PALAWAN PAWNSHOP-PALANGINAN,,Iba,ZAMBALES,,PH,(+63) 4348596,https://location.westernunion.com/ph/zambales/iba/9bab991f8ea7977bca42eea6957b770d,Mo-Su 08:00-17:30,Western Union,Q861042
91dd0f3e3bed34fc21bbcb513b229a4b,western_union,HRV VILLARICA PAWNSHOP INC IBA ZAMBALES,,Iba,ZAMBALES,,PH,(+63) 02-5556012,https://location.westernunion.com/ph/zambales/iba/91dd0f3e3bed34fc21bbcb513b229a4b,Mo-Fr 08:00-18:00; Sa-Su 08:00-17:00,Western Union,Q861042
6e0c619b6798e69f147ff178195f13e6,western_union,MLI PALANGINAN ZAMBALES,,Iba,ZAMBALES,,PH,+63 32 345 6476,https://location.westernunion.com/ph/zambales/iba/6e0c619b6798e69f147ff178195f13e6,Mo-Sa 07:00-18:00; Su 08:00-17:00,Western Union,Q861042
7d0b3a9d65be358a58ea63a65aa236e2,western_union,CLH IBA 2,,Iba,ZAMBALES,,PH,+63 2 7759 9800,https://location.westernunion.com/ph/zambales/iba/7d0b3a9d65be358a58ea63a65aa236e2,Mo-Sa 08:00-18:00; Su 08:00-17:00,Western Union,Q861042
9e59dd5af76f8b8ba6f646799de6508e,western_union,SAVEMORE MARKET IBA,,Iba,ZAMBALES,,PH,+63 2 8631 8000,https://location.westernunion.com/ph/zambales/iba/9e59dd5af76f8b8ba6f646799de6508e,Mo-Su 08:00-19:00,Western Union,Q861042
5ec72fd4a19994febdd2515c7f269414,western_union,ML IBA 2 ZAMBALES,,Iba,ZAMBALES,,PH,+63 32 345 6476,https://location.westernunion.com/ph/zambales/iba/5ec72fd4a19994febdd2515c7f269414,Mo-Su 07:00-18:00,Western Union,Q861042
b8d184ba73b9cb786983d27d857a27a6,western_union,MLI IBA TOWN CENTER ZAMBALES,,Iba,ZAMBALES,,PH,+63 32 345 6476,https://location.westernunion.com/ph/zambales/iba/b8d184ba73b9cb786983d27d857a27a6,Mo-Su 09:30-20:00,Western Union,Q861042
468a4dedaddc61f9b3335f734cd56a3b,western_union,USSC SERVICE STORE IBA PUREGOLD,,Iba,ZAMBALES,,PH,(+63) 02-4492973,https://location.westernunion.com/ph/zambales/iba/468a4dedaddc61f9b3335f734cd56a3b,Mo-Su 08:00-18:00,Western Union,Q861042
9c819354c5e07882ca0a8fe4cf69143e,western_union,CLH IBA 3,,Iba,ZAMBALES,,PH,+63 2 7759 9800,https://location.westernunion.com/ph/zambales/iba/9c819354c5e07882ca0a8fe4cf69143e,Mo-Sa 08:00-18:00; Su 08:00-17:00,Western Union,Q861042
e9d5f7fc7b418dac9256d3daa65e0392,western_union,USSC SERVICE STORE - IBA,,Iba,ZAMBALES,,PH,(+63) 02-4492973,https://location.westernunion.com/ph/zambales/iba/e9d5f7fc7b418dac9256d3daa65e0392,Mo-Su 08:00-18:00,Western Union,Q861042
1fd92fba50b66d63dc78c37b1166b473,western_union,AUROTAM PAWNSHOPS  INC,,Iba,ZAMBALES,,PH,+63 917 802 5281,https://location.westernunion.com/ph/zambales/iba/1fd92fba50b66d63dc78c37b1166b473,Mo-Su 08:00-19:30,Western Union,Q861042
de774a10775e8cd54abc5500221ca92a,western_union,PRODUCERS BANK IBA,,Iba,ZAMBALES,,PH,+63 47 811 3005,https://location.westernunion.com/ph/zambales/iba/de774a10775e8cd54abc5500221ca92a,Mo-Sa 09:00-17:00,Western Union,Q861042
d6467c11a21d7eb1e69f0f05223c96a8,western_union,PFSI ZAMBALES-IBA-ZONE 1,,Iba,ZAMBALES,,PH,+63 83 434 8596,https://location.westernunion.com/ph/zambales/iba/d6467c11a21d7eb1e69f0f05223c96a8,Mo-Su 08:00-17:30,Western Union,Q861042
78ce973b2878fe8db4b7a3e1753fb203,western_union,MLI IBA ZAMBALES,,Iba,ZAMBALES,,PH,+63 32 345 6476,https://location.westernunion.com/ph/zambales/iba/78ce973b2878fe8db4b7a3e1753fb203,Mo-Sa 07:00-18:00; Su 08:00-17:00,Western Union,Q861042
c2b9bd1fa0ccbc8ef8f7b73d38fb38df,western_union,LBC EXPRESS INC,,Iba,ZAMBALES,,PH,(+63) 02-8585999,https://location.westernunion.com/ph/zambales/iba/c2b9bd1fa0ccbc8ef8f7b73d38fb38df,Mo-Sa 07:00-19:00; Su 08:00-17:00,Western Union,Q861042
3577e51b8e2313ecfafa61f24b9ca263,western_union,CLH IBA MARKET SITE,,Iba,ZAMBALES,,PH,+63 2 7759 9800,https://location.westernunion.com/ph/zambales/iba/3577e51b8e2313ecfafa61f24b9ca263,Mo-Sa 08:00-18:00,Western Union,Q861042
