Ref,Spider,Name,Address,City,State,Zipcode,Country,Phone,Website,Hours,Brand,WikiData
https://stores.advanceautoparts.com/ga/chamblee/5475-peachtree-industrial-boulevard,advance_auto_parts_us,Advance Auto Parts,,Chamblee,GA,,US,+1 770-457-9100,https://stores.advanceautoparts.com/ga/chamblee/5475-peachtree-industrial-boulevard,Mo-Sa 07:30-21:00; Su 08:30-20:30,Advance Auto Parts,Q4686051
https://stores.advanceautoparts.com/ga/chamblee/3611-chamblee-tucker-rd,advance_auto_parts_us,Advance Auto Parts,,Chamblee,GA,,US,+1 770-621-0163,https://stores.advanceautoparts.com/ga/chamblee/3611-chamblee-tucker-rd,Mo-Sa 07:30-21:00; Su 08:30-20:30,Advance Auto Parts,Q4686051
498477,afcurgentcare,American Family Care Chamblee-Brookhaven,,Chamblee,GA,,US,+1 770-458-8929,https://www.afcurgentcare.com/chamblee-brookhaven/,Mo-Fr 08:00-20:00; Sa-Su 08:00-17:00,AFC Urgent Care,Q110552174
c41eae73-e11d-e611-80c5-005056aa8521,amf_bowling,Bowlero Chamblee,,Atlanta,GA,,US,+1 770-451-8605,https://www.bowlero.com/location/bowlero-chamblee,,Bowlero,Q17102967
https://locations.arbys.com/ga/chamblee/5410-peachtree-industrial-blvd.html,arbys_us,"Arby's Fast-Food Drive Through Near You in Chamblee, GA",,Chamblee,GA,,US,+1 770-458-9070,https://locations.arbys.com/ga/chamblee/5410-peachtree-industrial-blvd.html,Mo-Sa 09:30-24:00; Su 09:30-23:00,Arby's,Q630866
USAA07A09,audi,Audi Atlanta,"5805 Peachtree Blvd., Atlanta, GA 30341",Atlanta,GA,,US,+1 770-454-8200,,,Audi,Q23317
913,autozone_us,AutoZone Auto Parts Chamblee,,Chamblee,GA,,US,+1 770-455-9883,https://www.autozone.com/locations/ga/chamblee/4863-buford-hwy-ne.html,Mo-Su 07:30-22:00,AutoZone,Q4826087
https://www.banfield.com/locations/veterinarians/ga/chamblee/chb,banfield_pet_hospital,Chamblee,,Chamblee,GA,,US,+1 770-986-7823,https://www.banfield.com/locations/veterinarians/ga/chamblee/chb,Mo-Sa 08:00-19:00; Su 09:00-17:00,Banfield Pet Hospital,Q2882416
https://locators.bankofamerica.com/ga/atlanta/financial-centers-atlanta-1631.html,bankofamerica,Bank of America Financial Center & Drive-Thru ATM | Chamblee Plaza,,Atlanta,GA,,US,+1 770-452-2270,https://locators.bankofamerica.com/ga/atlanta/financial-centers-atlanta-1631.html,Mo-Fr 10:00-16:00,Bank of America,Q487907
https://locators.bankofamerica.com/ga/atlanta/financial-centers-atlanta-1319.html,bankofamerica,Bank of America Financial Center & Drive-Thru ATM | Buford Highway,,Atlanta,GA,,US,+1 770-452-2145,https://locators.bankofamerica.com/ga/atlanta/financial-centers-atlanta-1319.html,Mo-Fr 09:00-17:00; Sa 09:00-14:00,Bank of America,Q487907
https://locators.bankofamerica.com/ga/chamblee/atm-chamblee-100900.html,bankofamerica,Bank of America Drive-Thru ATM | Buford Clairmont Mall,,Chamblee,GA,,US,+1 844-401-8500,https://locators.bankofamerica.com/ga/chamblee/atm-chamblee-100900.html,,Bank of America,Q487907
https://locators.bankofamerica.com/ga/atlanta/sales-office-atm-atlanta-110991.html,bankofamerica,Bank of America Bank of America Advanced Center™Virtual Banking & Separate ATM | Chamblee Embry Hills,,Atlanta,GA,,US,+1 770-325-1000,https://locators.bankofamerica.com/ga/atlanta/sales-office-atm-atlanta-110991.html,Mo-Fr 09:00-17:00; Sa 09:00-15:00,Bank of America,Q487907
https://locations.baskinrobbins.com/ga/chamblee/5558-peachtree-industrial-blvd-330524-br,baskin_robbins_us,Baskin-Robbins™,,Chamblee,GA,,US,+1 770-454-1574,https://locations.baskinrobbins.com/ga/chamblee/5558-peachtree-industrial-blvd-330524-br,Mo-Fr 05:00-22:00; Sa-Su 06:00-22:00,Baskin-Robbins,Q584601
https://local.biglots.com/#13189698,biglots,Big Lots - Chamblee,,Atlanta,GA,,US,+1 770-457-5176,https://local.biglots.com/ga/atlanta/3358-chamblee-tucker-rd,Mo-Sa 09:00-21:00; Su 09:00-19:00,Big Lots,Q4905973
129813,bluerhino,Chamblee Texaco,,Chamblee,GA,,US,+1 678-522-6395,,,Blue Rhino,Q65681213
61702,bluerhino,Lowe's #1119,,Chamblee,GA,,US,+1 770-220-0153,,,Blue Rhino,Q65681213
149997,bluerhino,BP Gas Station #3184,,Atlanta,GA,,US,+1 678-547-3502,,,Blue Rhino,Q65681213
95909,bluerhino,Walmart #3621,,Chamblee,GA,,US,+1 770-455-0422,,,Blue Rhino,Q65681213
153879,bluerhino,Walgreens #02359,,Chamblee,GA,,US,+1 678-547-1672,,,Blue Rhino,Q65681213
197224,bluerhino,Chamblee Ace Hardware #16956,,Chamblee,GA,,US,+1 770-881-7922,,,Blue Rhino,Q65681213
39816,bluerhino,Chamblee Food Mart,,Chamblee,GA,,US,+1 678-530-0303,,,Blue Rhino,Q65681213
174799,bluerhino,MDI #5655-City Farmers Market #1,,Chamblee,GA,,US,+1 770-936-8858,,,Blue Rhino,Q65681213
210317,bluerhino,BP Gas Station,,Chamblee,GA,,US,+1 770-936-9106,,,Blue Rhino,Q65681213
222978,bluerhino,2889 Alam LLC,,Chamblee,GA,,US,+1 770-454-0553,,,Blue Rhino,Q65681213
199119,bluerhino,Kroger #685 - Atlanta,,Atlanta,GA,,US,+1 770-243-6211,,,Blue Rhino,Q65681213
26715_2,bmw_group,"Nalley BMW of Decatur, Certified Collision Repair Center",,Atlanta,GA,,US,+1 770-454-5999,,,BMW,Q26678
21850_02,bmw_group,Global Imports MINI,,Chamblee,GA,,US,+1 678-569-7550,https://www.atlantamini.com,,Mini,Q116232
42599693052913034100100000000000,bp,Amoco,,Chamblee,GA,,US,+1 770-458-5728,,24/7,BP,Q152057
42080425360483034100100000000000,bp,BP,,Chamblee,GA,,US,+1 770-936-9106,,Mo-Su 06:00-23:00,BP,Q152057
36280578720183034100100000000000,bp,BP,,Chamblee,GA,,US,+1 678-547-3502,,24/7,BP,Q152057
30521,cadillac,JIM ELLIS CADILLAC,,Atlanta,GA,,US,+1 770-284-5569,https://WWW.JIMELLISCADILLAC.COM,Mo-Sa 07:30-19:00,Cadillac,Q27436
5824945,chase_us,Peachtree Blvd and Johnson Ferry Rd - New branch,,Chamblee,GA,,US,+1 770-457-1182,https://locator.chase.com/ga/chamblee/5000-peachtree-blvd,Mo-Fr 09:00-17:00,Chase,Q524629
08804,chevrolet,JIM ELLIS CHEVROLET,,Chamblee,GA,,US,+1 678-585-2314,https://www.jimellischevrolet.com,Mo-Sa 07:30-19:00,Chevrolet,Q29570
ga_chamblee_5001-peachtree-blvd,chipotle, ,,Chamblee,GA,,US,+1 770-936-8103,https://locations.chipotle.com/ga/chamblee/5001-peachtree-blvd,,Chipotle,Q465751
4995-buford-highway,churchs_chicken,Buford Highway,,Chamblee,GA,,US,+1 770-454-9404,https://locations.churchs.com/ga/chamblee/4995-buford-highway,,Church's Chicken,Q1089932
91742,citi,ATM Walgreens,,Chamblee,GA,,US,,,,Citibank,Q857063
51867,citi,ATM CVS,,Chamblee,GA,,US,,,,Citibank,Q857063
54288,citi,ATM EAST WEST BANK,,Atlanta,GA,,US,,,,Citibank,Q857063
207,crunch_fitness,Crunch Fitness,,Chamblee,GA,,US,+1 470-359-4499,https://www.crunch.com/locations/chamblee,,Crunch Fitness,Q5190093
4505,cvs_us,CVS Pharmacy,,Chamblee,GA,,US,+1 770-457-4401,https://www.cvs.com/store-locator/chamblee-ga-pharmacies/5764-peachtree-industrial-blvd-chamblee-ga-30341/storeid=4505,24/7,CVS Pharmacy,Q2078880
https://dekalash.com/find-a-studio/georgia/chamblee/,deka_lash,Deka Lash,,Atlanta,GA,,US,+1 470-443-3363,https://dekalash.com/find-a-studio/georgia/chamblee/,Mo-Fr 09:00-09:00; Sa-Su 09:00-19:00,Deka Lash,Q120505973
5700,dominos_pizza_us,Domino's Pizza,,Atlanta,GA,,US,+1 770-458-2604,https://pizza.dominos.com/georgia/atlanta/4763-buford-hwy,Mo-Th 10:00-24:00; Fr-Sa 10:00-01:00; Su 10:00-24:00,Domino's,Q839466
355916,dunkin_us,Dunkin',,Atlanta,GA,,US,+1 770-496-0436,https://locations.dunkindonuts.com/en/ga/atlanta/3530-chamblee-tucker-rd/355916,Mo-Su 05:00-21:00,Dunkin',Q847743
330524,dunkin_us,Dunkin',,Chamblee,GA,,US,+1 770-454-1574,https://locations.dunkindonuts.com/en/ga/chamblee/5558-peachtree-industrial-blvd/330524,Mo-Fr 05:00-22:00; Sa-Su 06:00-22:00,Dunkin',Q847743
https://www.edwardjones.com/us-en/financial-advisor/steven-shumpert,edwardjones,Steven Shumpert,,Atlanta,GA,,US,+1 770-220-0229,https://www.edwardjones.com/us-en/financial-advisor/steven-shumpert,,Edward Jones,Q5343830
5564-peachtree-blvd,einsteinbros,Chamblee Einstein Bros. Bagels,,Chamblee,GA,,US,+1 770-343-7711,https://locations.einsteinbros.com/us/ga/chamblee/5564-peachtree-blvd,Mo-Su 06:00-14:00,Einstein Bros. Bagels,Q5349788
E10334,enterprise,Chamblee Peachtree Industrial Blvd.,,Chamblee,GA,,US,+1 770-451-9410,,,Enterprise Rent-A-Car,Q17085454
E10352,enterprise,Brookhaven,,Chamblee,GA,,US,+1 770-452-9098,,,Enterprise Rent-A-Car,Q17085454
E10307,enterprise,Chamblee Buford Hwy.,,Chamblee,GA,,US,+1 770-458-9551,,,Enterprise Rent-A-Car,Q17085454
E103PB,enterprise,Chamblee Longview & Peachtree,,Chamblee,GA,,US,+1 678-688-4074,,,Enterprise Rent-A-Car,Q17085454
1991,extra_space_storage,Chamblee Self Storage at 3693 Clairmont Rd,,Chamblee,GA,,US,+1 770-797-5046,https://www.extraspace.com/storage/facilities/us/georgia/chamblee/1991/,Mo-Fr 09:30-18:00; Sa 09:00-17:30,Extra Space Storage,Q5422162
200326827,exxonmobil,Chamblee Tucker Food Mart,,CHAMBLEE,GA,,US,+1 770-986-0085,https://www.exxon.com/en/find-station/exxon-chamblee-ga-chambleetuckerfoodmart-200326827,24/7,Exxon,Q109675651
https://local.fedex.com/#25204417,fedex,,,Chamblee,GA,,US,+1 800-463-3339,https://local.fedex.com/en-us/ga/chamblee/p2c3n,,FedEx,Q459477
https://local.fedex.com/#27748854,fedex,FedEx Authorized ShipCenter,,Atlanta,GA,,US,+1 470-461-8764,https://local.fedex.com/en-us/ga/atlanta/00u2h,,FedEx,Q459477
594121,firestone_auto_care,Firestone Complete Auto Care,,Chamblee,GA,,US,+1 770-325-9712,https://local.firestonecompleteautocare.com/georgia/chamblee/5578-peachtree-industrial-blvd/,,Firestone,Q420837
https://locations.fivebelow.com/ga/chamblee/5480-peachtree-blvd,five_below,Five Below Chamblee Plaza,,Chamblee,GA,,US,,https://locations.fivebelow.com/ga/chamblee/5480-peachtree-blvd,Mo-Sa 10:00-20:00; Su 11:00-18:00,Five Below,Q5455836
https://restaurants.fiveguys.com/#17795203,five_guys_us,Five Guys 5126 Peachtree Industrial Blvd.,,Chamblee,GA,,US,+1 470-385-6720,https://restaurants.fiveguys.com/5126-peachtree-industrial-blvd,"Mo-Su 11:00-21:30,11:00-22:00",Five Guys,Q1131810
Motorcraft1465USAEnglish,ford,"Peachtree Ford Lincoln Mercury, Inc.",,Georgia,GA,,US,+1 770-621-0200,,,Ford,Q44294
Motorcraft1466USAEnglish,ford,Hennessy Ford Lincoln Atlanta,,Georgia,GA,,US,+1 770-621-0200,,,Ford,Q44294
https://www.ford.com/dealerships/dealer-details/ga/atlanta/hennessy-ford-atlanta/,ford_dealers_us,Hennessy Ford Atlanta,,Atlanta,GA,,US,+1 470-706-0310,https://www.ford.com/dealerships/dealer-details/ga/atlanta/hennessy-ford-atlanta/,Mo-Fr 09:00-20:00; Sa 09:00-18:00,Ford Motor Company,Q44294
5856,gamestop_us,Chamblee Village,,ATLANTA,GA,,US,+1 770-220-9903,https://www.gamestop.com/search/?store=5856,Mo-Th 12:00-20:00; Fr-Sa 12:00-21:00; Su 12:00-20:00,GameStop,Q202210
https://www.goodyearautoservice.com/en_US/location/Atlanta-GA-30341-US-000902125,goodyear_us,"Goodyear Auto Service - Chamblee Tucker, Atlanta, GA | Oil, Brakes & Repairs | #000902125",,Atlanta,GA,,US,+1 770-452-1036,https://www.goodyearautoservice.com/en_US/location/Atlanta-GA-30341-US-000902125,Mo-Sa 08:00-19:00,Goodyear,Q620875
https://salons.greatclips.com/us/ga/chamblee/5001-peachtree-blvd,greatclips,Great Clips,,Chamblee,GA,,US,+1 678-691-4176,https://salons.greatclips.com/us/ga/chamblee/5001-peachtree-blvd,Mo-Fr 08:30-19:00; Sa 08:30-18:00; Su 09:30-17:00,Great Clips,Q5598967
ga_chamblee_breakfast-5516-peachtree-industrial-blvd-3374,ihop,IHOP Breakfast Restaurants Near You at 5516 Peachtree Industrial Blvd,,Chamblee,GA,,US,+1 770-452-8335,https://restaurants.ihop.com/en-us/ga/chamblee/breakfast-5516-peachtree-industrial-blvd-3374,,IHOP,Q1185675
https://office.jacksonhewitt.com/#27580483,jackson_hewitt,Jackson Hewitt,,Chamblee,GA,,US,+1 470-385-3476,https://office.jacksonhewitt.com/tax-preparation-services-locations/en/ga/chamblee/1871-chamblee-tucker-road/53621,Mo-Sa 11:00-19:00; Su 12:00-16:00,Jackson Hewitt,Q6117132
https://healthy.kaiserpermanente.org/georgia/facilities/health-choice-urgent-care-chamblee-135453,kaiser_permanente_us,Health Choice Urgent Care - Chamblee,,Atlanta,GA,,US,+1 605-789-6582,https://healthy.kaiserpermanente.org/georgia/facilities/health-choice-urgent-care-chamblee-135453,,Kaiser Permanente,Q1721601
300412,kindercare,Dresden Drive KinderCare,,Chamblee,GA,,US,,https://www.kindercare.com/our-centers/chamblee/ga/300412,,KinderCare Learning Centers,Q6410551
dealer_6076,maserati,JIM ELLIS MASERATI,,ATLANTA,GA,,US,+1 404-476-7987,https://www.jimellismaserati.com,,Maserati,Q35962
16664,mattress_firm_us,Mattress Firm Chamblee,,Chamblee,GA,,US,+1 678-996-1436,https://www.mattressfirm.com/en-us/stores/ga/chamblee/007136/,,Mattress Firm,Q6791878
https://locations.modpizza.com/#23558189,modpizza,MOD Pizza Peachtree Station,,Chamblee,GA,,US,+1 470-268-4244,https://locations.modpizza.com/usa/ga/chamblee/5001-peachtree-blvd,Mo-Th 10:30-22:00; Fr-Sa 10:30-23:00; Su 10:30-22:00,MOD Pizza,Q19903469
https://locations.moes.com/#57,moes,Moe's Southwest Grill,,Atlanta,GA,,US,+1 770-457-6678,https://locations.moes.com/ga/atlanta/3515-b-chamblee-tucker-rd,Mo-Su 10:30-21:00,Moe's Southwest Grill,Q6889938
66698045,moneygram,LA SURTIDORA,,CHAMBLEE,GA,,US,+1 470-268-5423,,Mo-Su 06:00-24:00,MoneyGram,Q1944412
73380252,moneygram,TIENDA LATINA,,CHAMBLEE,GA,,US,+1 678-336-9831,,Mo-Su 08:00-23:30,MoneyGram,Q1944412
71473611,moneygram,WAL-MART - #3621,,CHAMBLEE,GA,,US,+1 770-455-0422,,Mo-Sa 08:00-20:00; Su 10:00-18:00,MoneyGram,Q1944412
74644191,moneygram,CHEQUE EXPRESS FIESTA FOOD MART - CHAMBL,,CHAMBLEE,GA,,US,+1 770-638-4060,,Mo-Su 09:00-21:00,MoneyGram,Q1944412
74644188,moneygram,ZONA LATINA CHAMBLEE - CHAMBLEE - CHEQUE,,CHAMBLEE,GA,,US,+1 770-638-4060,,Mo-Su 09:00-21:00,MoneyGram,Q1944412
74880971,moneygram,GUATEMALA EXPRESS INTERNATIONAL MULTISER,,CHAMBLEE,GA,,US,+1 678-887-4705,,Mo-Su 08:00-22:00,MoneyGram,Q1944412
67323610,moneygram,CHEQUE PRONTO - CHAMBLEE,,CHAMBLEE,GA,,US,+1 770-674-1979,,Mo-Su 09:00-21:00,MoneyGram,Q1944412
44313012,moneygram,WAL-MART - #3621,,CHAMBLEE,GA,,US,+1 770-455-0422,,Mo-Sa 08:00-20:00; Su 10:00-18:00,MoneyGram,Q1944412
1050,national_seating_mobility,Atlanta,,Chamblee,GA,,US,+1 770-452-1450,,,National Seating & Mobility,Q116770969
e37608b9-be57-48af-843a-4f69b22562dd,northside_hospital_us,Health Choice Urgent Care - Chamblee,,Chamblee,GA,,US,+1 770-542-0752,https://www.northside.com/locations/health-choice-urgent-care-chamblee,,Northside Hospital,Q7059745
1373,orangetheory_fitness,"Northlake, GA",,Atlanta,GA,,US,+1 678-679-3400,,,Orangetheory Fitness,Q25005163
34116,orangetheory_fitness,Chamblee,,Chamblee,GA,,US,+1 404-994-5054,,,Orangetheory Fitness,Q25005163
https://www.orkin.com/locations/georgia-ga/chamblee-pest-control/branch-681,orkin_us,Orkin,,Chamblee,GA,,US,+1 470-786-7433,https://www.orkin.com/locations/georgia-ga/chamblee-pest-control/branch-681,,Orkin,Q7102943
https://locations.papajohns.com/#10692890,papa_johns,Papa John's,,Chamblee,GA,,US,+1 770-986-8772,https://locations.papajohns.com/united-states/ga/30341/chamblee/2151-savoy-dr,Mo-Th 10:00-24:00; Fr-Sa 10:00-01:00; Su 10:00-24:00,Papa John's Pizza,Q2759586
ga_chamblee_5485-peachtree-industrial-blvd,pizza_hut_us,5485 Peachtree Industrial Blvd,,Chamblee,GA,,US,+1 770-458-7271,https://locations.pizzahut.com/ga/chamblee/5485-peachtree-industrial-blvd,,Pizza Hut,Q191615
painters-supply-and-equipment-co-65178,ppgpaints,PAINTERS SUPPLY & EQUIPMENT CO,,"Chamblee, ",GA,,US,+1 770-455-5128,https://www.ppgpaints.com/store-locator/us/georgia/chamblee-paint-stores/painters-supply-and-equipment-co-65178,,PPG Paints,Q83891559
https://www.publicstorage.com/self-storage-ga-chamblee/5575.html,public_storage_us,Public Storage,,Chamblee,GA,,US,+1 470-203-6391,https://www.publicstorage.com/self-storage-ga-chamblee/5575.html,,Public Storage,Q1156045
https://www.publicstorage.com/self-storage-ga-atlanta/1726.html,public_storage_us,Public Storage,,Atlanta,GA,,US,+1 678-942-6386,https://www.publicstorage.com/self-storage-ga-atlanta/1726.html,,Public Storage,Q1156045
https://www.publicstorage.com/self-storage-ga-chamblee/1728.html,public_storage_us,Public Storage,,Chamblee,GA,,US,+1 678-942-6376,https://www.publicstorage.com/self-storage-ga-chamblee/1728.html,,Public Storage,Q1156045
https://locations.quiktrip.com/#16004056,quiktrip_us,QuikTrip Store #773 5347 Peachtree Industrial Blvd,,Chamblee,GA,,US,+1 770-452-7158,https://locations.quiktrip.com/ga/chamblee/5347-peachtree-industrial-blvd,24/7,QuikTrip,Q7271953
https://locations.quiktrip.com/#16003952,quiktrip_us,QuikTrip Store #709 2805 Chamblee-Tucker Rd,,Atlanta,GA,,US,+1 770-455-1868,https://locations.quiktrip.com/ga/atlanta/2805-chamblee-tucker-rd,24/7,QuikTrip,Q7271953
https://www.racetrac.com/locations/georgia/brookhaven/brookhaven,racetrac_us,RaceTrac,,Brookhaven,GA,,US,+1 770-458-8575,https://www.racetrac.com/locations/georgia/brookhaven/brookhaven,,RaceTrac,Q735942
702067,sherwin_williams,ATLANTA-CHAMBLEE,5517 Peachtree Industrial Blvd,Chamblee,GA,,US,+1 770-451-0301,https://www.sherwin-williams.com/webapp/wcs/stores/servlet/store-locator/paint-store/chamblee/ga/702067?storeNumber=23174&from=,,Sherwin-Williams Paint Store,Q48881
https://restaurants.subway.com/#14910306,subway,Subway Wal-Mart #3621,,Chamblee Dekalb,GA,,US,+1 770-458-5918,https://restaurants.subway.com/united-states/ga/chamblee/1871-chamblee-tucker-rd,Mo-Su 09:00-23:00,Subway,Q244457
https://restaurants.subway.com/#14912772,subway,Subway Chevron Gas Station/C-Store,,Atlanta Dekalb,GA,,US,+1 770-559-5091,https://restaurants.subway.com/united-states/ga/atlanta/2889-chamblee-tucker-road,Mo-Su 09:00-22:00,Subway,Q244457
https://locations.tacobell.com/#6145281,taco_bell,Taco Bell,,Chamblee,GA,,US,+1 770-458-4536,https://locations.tacobell.com/ga/chamblee/2081-savoy-drive.html,Mo-Su 08:00-24:00,Taco Bell,Q752941
081553,tjx,Chamblee,5488 Peachtree Ind Blvd,Chamblee,GA,,US,+1 770-451-1275,,Mo-Sa 09:30-21:30; Su 10:00-20:00,TJ Maxx,Q10860683
281031,tjx,Atlanta,5468 Peachtree Industrial Blvd,Atlanta,GA,,US,+1 770-458-8714,,Mo-Sa 09:30-21:30; Su 10:00-20:00,HomeGoods,Q5887941
5274,tmobile_us,Peachtree Blvd & Johnson Ferry Rd,,Chamblee,GA,,US,+1 678-497-0825,https://www.t-mobile.com/store-locator/ga/chamblee/peachtree-blvd-johnson-ferry-rd,,T-Mobile,Q3511885
2287,tmobile_us,Chamblee Tucker Rd & Northcrest Rd,,Atlanta,GA,,US,+1 678-691-2666,https://www.t-mobile.com/store-locator/ga/atlanta/chamblee-tucker-rd-northcrest-rd,,T-Mobile,Q3511885
https://www.ubreakifix.com/locations/chamblee,ubreakifix,uBreakiFix Chamblee,,Atlanta,GA,,US,+1 470-857-4400,https://www.ubreakifix.com/locations/chamblee,Mo-Sa 10:00-19:00,uBreakiFix,Q53685733
1436080,usps,CHAMBLEE,,ATLANTA,GA,,US,+1 770-216-1968,,Mo-Fr 09:00-17:00; Sa 09:00-13:00,United States Postal Service,Q668687
1530475,usps,EMBRY HILLS,,ATLANTA,GA,,US,+1 770-216-1968,,,United States Postal Service,Q668687
3034100131,usps_collection_boxes,USPS COLLECTION BOX - BLUE BOX,3001 MERCER UNIVERSITY DR,CHAMBLEE,GA,,US,,,,United States Postal Service,Q668687
3034100125,usps_collection_boxes,USPS COLLECTION BOX - BLUE BOX,2900 CHAMBLEE TUCKER RD,CHAMBLEE,GA,,US,,,,United States Postal Service,Q668687
3034100042,usps_collection_boxes,USPS COLLECTION BOX - BLUE BOX,2951 FLOWERS RD S,CHAMBLEE,GA,,US,,,,United States Postal Service,Q668687
3034100116,usps_collection_boxes,USPS COLLECTION BOX - BLUE BOX,2951 FLOWERS RD S,CHAMBLEE,GA,,US,,,,United States Postal Service,Q668687
3034100043,usps_collection_boxes,USPS COLLECTION BOX - BLUE BOX,2951 FLOWERS RD S,CHAMBLEE,GA,,US,,,,United States Postal Service,Q668687
3034100071,usps_collection_boxes,USPS COLLECTION BOX - BLUE BOX,3375 NORTHEAST EXPY NE,CHAMBLEE,GA,,US,,,,United States Postal Service,Q668687
3034100014,usps_collection_boxes,USPS COLLECTION BOX - BLUE BOX,4800 BUFORD HWY,CHAMBLEE,GA,,US,,,,United States Postal Service,Q668687
3034100114,usps_collection_boxes,USPS COLLECTION BOX - BLUE BOX,1954 AIRPORT RD,CHAMBLEE,GA,,US,,,,United States Postal Service,Q668687
3034100123,usps_collection_boxes,USPS COLLECTION BOX - BLUE BOX,2872 WOODCOCK BLVD,CHAMBLEE,GA,,US,,,,United States Postal Service,Q668687
3034100136,usps_collection_boxes,USPS COLLECTION BOX - PO LOBBY,3631 CHAMBLEE TUCKER RD STE C,CHAMBLEE,GA,,US,,,,United States Postal Service,Q668687
3034100135,usps_collection_boxes,USPS COLLECTION BOX - PO LOBBY,3545 BROAD ST,CHAMBLEE,GA,,US,,,,United States Postal Service,Q668687
3034100110,usps_collection_boxes,USPS COLLECTION BOX - PO LOBBY,3545 BROAD ST,CHAMBLEE,GA,,US,,,,United States Postal Service,Q668687
3034100112,usps_collection_boxes,USPS COLLECTION BOX - PO LOBBY,3545 BROAD ST,CHAMBLEE,GA,,US,,,,United States Postal Service,Q668687
3034100113,usps_collection_boxes,USPS COLLECTION BOX - PO LOBBY,3545 BROAD ST,CHAMBLEE,GA,,US,,,,United States Postal Service,Q668687
3034100129,usps_collection_boxes,USPS COLLECTION BOX - APC,3545 BROAD ST,CHAMBLEE,GA,,US,,,,United States Postal Service,Q668687
3034100083,usps_collection_boxes,USPS COLLECTION BOX - BLUE BOX,2215 PERIMETER PARK DR,CHAMBLEE,GA,,US,,,,United States Postal Service,Q668687
3034100101,usps_collection_boxes,USPS COLLECTION BOX - BLUE BOX,4360 CHAMBLEE DUNWOODY RD,CHAMBLEE,GA,,US,,,,United States Postal Service,Q668687
https://vcahospitals.com/peachtree,vca,VCA Peachtree Animal Hospital,,Chamblee,GA,,US,+1 770-457-2591,https://vcahospitals.com/peachtree,Mo-Fr 07:30-18:00; Sa 08:00-16:00,VCA,Q7906620
,visa,,,ATLANTA,GA,,US,,,,,
,visa,,,ATLANTA,GA,,US,,,,,
,visa,,,CHAMBLEE,GA,,US,,,,,
,visa,,,CHAMBLEE,GA,,US,,,,,
,visa,,,ATLANTA,GA,,US,,,,,
,visa,,,CHAMBLEE,GA,,US,,,,,
,visa,,,ATLANTA,GA,,US,,,,,
,visa,,,ATLANTA,GA,,US,,,,,
,visa,,,ATLANTA,GA,,US,,,,,
,visa,,,CHAMBLEE,GA,,US,,,,,
,visa,,,CHAMBLEE,GA,,US,,,,,
,visa,,,CHAMBLEE,GA,,US,,,,,
,visa,,,ATLANTA,GA,,US,,,,,
,visa,,,ATLANTA,GA,,US,,,,,
,visa,,,ATLANTA,GA,,US,,,,,
,visa,,,ATLANTA,GA,,US,,,,,
,visa,,,CHAMBLEE,GA,,US,,,,,
,visa,,,ATLANTA,GA,,US,,,,,
,visa,,,ATLANTA,GA,,US,,,,,
,visa,,,CHAMBLEE,GA,,US,,,,,
,visa,,,CHAMBLEE,GA,,US,,,,,
,visa,,,ATLANTA,GA,,US,,,,,
,visa,,,ATLANTA,GA,,US,,,,,
,visa,,,ATLANTA,GA,,US,,,,,
,visa,,,CHAMBLEE,GA,,US,,,,,
,visa,,,ATLANTA,GA,,US,,,,,
,visa,,,ATLANTA,GA,,US,,,,,
,visa,,,CHAMBLEE,GA,,US,,,,,
,visa,,,CHAMBLEE,GA,,US,,,,,
,visa,,,DORAVILLE,GA,,US,,,,,
,visa,,,CHAMBLEE,GA,,US,,,,,
,visa,,,CHAMBLEE,GA,,US,,,,,
,visa,,,CHAMBLEE,GA,,US,,,,,
,visa,,,CHAMBLEE,GA,,US,,,,,
,visa,,,CHAMBLEE,GA,,US,,,,,
,visa,,,CHAMBLEE,GA,,US,,,,,
,visa,,,CHAMBLEE,GA,,US,,,,,
,visa,,,CHAMBLEE,GA,,US,,,,,
,visa,,,CHAMBLE,GA,,US,,,,,
,visa,,,CHAMBLEE,GA,,US,,,,,
,visa,,,ATLANTA,GA,,US,,,,,
,visa,,,ATLANTA,GA,,US,,,,,
,visa,,,CHAMBLEE,GA,,US,,,,,
,visa,,,ATLANTA,GA,,US,,,,,
,visa,,,CHAMBLEE,GA,,US,,,,,
,visa,,,CHAMBLEE,GA,,US,,,,,
,visa,,,CHAMBLEE,GA,,US,,,,,
,visa,,,CHAMBLEE,GA,,US,,,,,
,visa,,,ATLANTA,GA,,US,,,,,
,visa,,,ATLANTA,GA,,US,,,,,
,visa,,,CHAMBLEE,GA,,US,,,,,
,visa,,,CHAMBLEE,GA,,US,,,,,
,visa,,,ATLANTA,GA,,US,,,,,
,visa,,,ATLANTA,GA,,US,,,,,
,visa,,,ATLANTA,GA,,US,,,,,
,visa,,,CHAMBLEE,GA,,US,,,,,
,visa,,,CHAMBLEE,GA,,US,,,,,
,visa,,,CHAMBLEE,GA,,US,,,,,
,visa,,,CHAMBLEE,GA,,US,,,,,
,visa,,,CHAMBLEE,GA,,US,,,,,
,visa,,,CHAMBLEE,GA,,US,,,,,
,visa,,,ATLANTA,GA,,US,,,,,
,visa,,,ATLANTA,GA,,US,,,,,
,visa,,,ATLANTA,GA,,US,,,,,
,visa,,,ATLANTA,GA,,US,,,,,
,visa,,,ATLANTA,GA,,US,,,,,
,visa,,,CHAMBLEE,GA,,US,,,,,
,visa,,,CHAMBLEE,GA,,US,,,,,
,visa,,,CHAMPLE,GA,,US,,,,,
,visa,,,CHAMBLEE,GA,,US,,,,,
,visa,,,CHAMBLEE,GA,,US,,,,,
,visa,,,CHAMBLEE,GA,,US,,,,,
,visa,,,ATLANTA,GA,,US,,,,,
,visa,,,ATLANTA,GA,,US,,,,,
,visa,,,CHAMBLEE,GA,,US,,,,,
,visa,,,ATLANTA,GA,,US,,,,,
,visa,,,CHAMBLEE,GA,,US,,,,,
,visa,,,CHAMBLEE,GA,,US,,,,,
,visa,,,CHAMBLEE,GA,,US,,,,,
,visa,,,CHAMBLEE,GA,,US,,,,,
,visa,,,CHAMBLEE,GA,,US,,,,,
,visa,,,CHAMBLEE,GA,,US,,,,,
,visa,,,CHAMBLEE,GA,,US,,,,,
,visa,,,ATLANTA,GA,,US,,,,,
,visa,,,CHAMBLEE,GA,,US,,,,,
,visa,,,CHAMBLEE,GA,,US,,,,,
,visa,,,CHAMBLEE,GA,,US,,,,,
,visa,,,CHAMBLEE,GA,,US,,,,,
,visa,,,CHAMBLEE,GA,,US,,,,,
,visa,,,ATLANTA,GA,,US,,,,,
,visa,,,CHAMBLEE,GA,,US,,,,,
,visa,,,CHAMBLEE,GA,,US,,,,,
,visa,,,ATLANTA,GA,,US,,,,,
,visa,,,CHAMBLEE,GA,,US,,,,,
,visa,,,CHAMBLEE,GA,,US,,,,,
,visa,,,CHAMBLEE,GA,,US,,,,,
,visa,,,ATLANTA,GA,,US,,,,,
,visa,,,CHAMBLEE,GA,,US,,,,,
,visa,,,CHAMBLEE,GA,,US,,,,,
,visa,,,ATLANTA,GA,,US,,,,,
,visa,,,ATLANTA,GA,,US,,,,,
,visa,,,ATLANTA,GA,,US,,,,,
,visa,,,CHAMBLEE,GA,,US,,,,,
,visa,,,CHAMBLEE,GA,,US,,,,,
,visa,,,CHAMBLEE,GA,,US,,,,,
,visa,,,CHAMBLEE,GA,,US,,,,,
,visa,,,CHAMBLEE,GA,,US,,,,,
,visa,,,CHAMBLEE,GA,,US,,,,,
,visa,,,CHAMBLEE,GA,,US,,,,,
,visa,,,ATLANTA,GA,,US,,,,,
,visa,,,GAY,GA,,US,,,,,
,visa,,,ATLANTA,GA,,US,,,,,
2182,waffle_house_us,Waffle House #2182,,ATLANTA,GA,,US,+1 770-451-4183,https://locations.wafflehouse.com/atlanta-ga-2182,24/7,Waffle House,Q1701206
786,waffle_house_us,Waffle House #786,,CHAMBLEE,GA,,US,+1 770-452-9881,https://locations.wafflehouse.com/chamblee-ga-786,24/7,Waffle House,Q1701206
https://www.walgreens.com/locator/walgreens-5373+peachtree+blvd-chamblee-ga-30341/id=2359,walgreens,Walgreens,,Chamblee,GA,,US,+1 678-547-1672,https://www.walgreens.com/locator/walgreens-5373+peachtree+blvd-chamblee-ga-30341/id=2359,Mo-Fr 07:00-23:00; Sa-Su 07:00-22:00,Walgreens,Q1591889
5425__PEACHTREE__BLVD_CHAMBLEE_GA_30341,wellsfargo,Wells Fargo,5425 PEACHTREE BLVD,CHAMBLEE,GA,,US,+1 770-986-1860,https://www.wellsfargo.com/locator/bank/5425__PEACHTREE__BLVD_CHAMBLEE_GA_30341/,Mo-Fr 09:00-17:00,Wells Fargo,Q744149
5347__PEACHTREE__INDUSTRIAL_CHAMBLEE_GA_30341,wellsfargo,,5347 PEACHTREE INDUSTRIAL,CHAMBLEE,GA,,US,+1 800-869-3557,https://www.wellsfargo.com/locator/bank/5347__PEACHTREE__INDUSTRIAL_CHAMBLEE_GA_30341/,,Wells Fargo,Q744149
5001__PEACHTREE__BLVD_CHAMBLEE_GA_30341,wellsfargo,,5001 PEACHTREE BLVD,CHAMBLEE,GA,,US,+1 800-869-3557,https://www.wellsfargo.com/locator/bank/5001__PEACHTREE__BLVD_CHAMBLEE_GA_30341/,,Wells Fargo,Q744149
3601__CHAMBLEE__TUCKER__RD_CHAMBLEE_GA_30341,wellsfargo,Wells Fargo,3601 CHAMBLEE TUCKER RD,CHAMBLEE,GA,,US,+1 404-865-5400,https://www.wellsfargo.com/locator/bank/3601__CHAMBLEE__TUCKER__RD_CHAMBLEE_GA_30341/,Mo-Fr 09:00-17:00,Wells Fargo,Q744149
2805__CHAMBLEE-TUCKER__RD_DORAVILLE_GA_30341,wellsfargo,,2805 CHAMBLEE-TUCKER RD,DORAVILLE,GA,,US,+1 800-869-3557,https://www.wellsfargo.com/locator/bank/2805__CHAMBLEE-TUCKER__RD_DORAVILLE_GA_30341/,,Wells Fargo,Q744149
https://locations.wendys.com/#9251348,wendys,"Wendy's Peachtree in Chamblee, GA",,Chamblee,GA,,US,+1 770-451-2640,https://locations.wendys.com/united-states/ga/chamblee/5621-peachtree-ind-blvd,"Mo-Su 06:30-10:30,06:30-22:00",Wendy's,Q550258
https://locations.wendys.com/#9251347,wendys,"Wendy's Chamblee-Tucker in Chamblee, GA",,Chamblee,GA,,US,+1 770-451-2922,https://locations.wendys.com/united-states/ga/chamblee/3504-chamblee-tucker-road,"Mo-Sa 06:30-10:30,09:00-20:00; Su 07:00-10:30,09:00-20:00",Wendy's,Q550258
https://locations.wendys.com/#9251346,wendys,"Wendy's Savoy Drive in Chamblee, GA",,Chamblee,GA,,US,+1 770-455-7752,https://locations.wendys.com/united-states/ga/chamblee/2159-savoy-drive,"Mo-Su 06:30-10:30,09:00-22:00",Wendy's,Q550258
02aee3ccb321ba89d1b8edaade2d9021,western_union,A&E CHECK CASHING CHAMBLEE,,Chamblee,GA,,US,+1 404-855-5985,https://location.westernunion.com/us/ga/chamblee/02aee3ccb321ba89d1b8edaade2d9021,Mo-Su 10:00-22:00,Western Union,Q861042
7920c7c9e4cc4cf7fabde4a458e1a127,western_union,CHAMBLEE BOUTIQUE SHOP,,Chamblee,GA,,US,+1 404-437-3590,https://location.westernunion.com/us/ga/chamblee/7920c7c9e4cc4cf7fabde4a458e1a127,Mo-Su 10:00-24:00,Western Union,Q861042
4c24ec5186b4f112fee0fa2742843789,western_union,WALMART #003621,,Chamblee,GA,,US,+1 770-455-0422,https://location.westernunion.com/us/ga/chamblee/4c24ec5186b4f112fee0fa2742843789,Mo-Sa 08:00-20:00; Su 10:00-18:00,Western Union,Q861042
173a7a5b8bb1db400adf7a84cc946dd9,western_union,TIPICOS EL MANNA GUATEMALA MUL,,Atlanta,GA,,US,+1 678-580-2936,https://location.westernunion.com/us/ga/atlanta/173a7a5b8bb1db400adf7a84cc946dd9,Mo-Su 09:00-21:00,Western Union,Q861042
bb3ac601745ac5b816fc94fb277fcfa2,western_union,ATLANTA CHECK CASHERS #03,,Chamblee,GA,,US,+1 770-458-5750,https://location.westernunion.com/us/ga/chamblee/bb3ac601745ac5b816fc94fb277fcfa2,Mo-Sa 08:00-20:00; Su 09:00-18:00,Western Union,Q861042
31a146f7f19e39a5a7dfd86054a4bd6d,western_union,PUBLIX #1777,,Chamblee,GA,,US,+1 770-457-9835,https://location.westernunion.com/us/ga/chamblee/31a146f7f19e39a5a7dfd86054a4bd6d,Mo-Su 07:00-22:00,Western Union,Q861042
3818329437e283b1fb16ab6b8a61b054,western_union,KROGER #685,,Atlanta,GA,,US,+1 770-243-6211,https://location.westernunion.com/us/ga/atlanta/3818329437e283b1fb16ab6b8a61b054,Mo-Su 08:00-22:00,Western Union,Q861042
chamblee,whole_foods,Chamblee,5001 Peachtree Blvd,Atlanta,GA,,US,+1 470-552-0750,https://www.wholefoodsmarket.com/stores/chamblee,Mo-Su 07:00-22:00,Whole Foods,Q1809448
