Ref,Spider,Name,Address,City,State,Zipcode,Country,Phone,Website,Hours,Brand,WikiData
102098,allsups_yesway_us,Allsup's,,Eastland,TX,,US,+1 254-629-1396,,24/7,Allsup's,Q4733292
3113,autozone_us,AutoZone Auto Parts Eastland,,Eastland,TX,,US,+1 254-629-8240,https://www.autozone.com/locations/tx/eastland/1301-e-main-st.html,Mo-Sa 08:00-19:00; Su 09:00-18:00,AutoZone,Q4826087
413,bealls_us,Bealls,,Eastland,TX,,US,+1 254-334-6003,https://stores.bealls.com/tx/eastland/clothing-store-413.html,Mo-Th 10:00-20:00; Fr 10:00-21:30; Sa 09:00-21:30; Su 10:00-20:00,Bealls,Q4876153
84627,bluerhino,7-Eleven #4058,,Eastland,TX,,US,+1 254-629-1427,,,Blue Rhino,Q65681213
240952,bluerhino,Brookshire Grocery #098,,Eastland,TX,,US,+1 254-629-1667,,,Blue Rhino,Q65681213
6851,bluerhino,Orgill #050450 - Higginbotham Hardware #53,,Eastland,TX,,US,+1 254-629-1311,,,Blue Rhino,Q65681213
219052,bluerhino,Dollar General #1577,,EASTLAND,TX,,US,+1 254-271-4550,,,Blue Rhino,Q65681213
8022,bluerhino,Walmart #0561,,Eastland,TX,,US,+1 254-629-3371,,,Blue Rhino,Q65681213
166910,bluerhino,Tiger Mart #54 (SANJOG MART),,Eastland,TX,,US,+1 254-629-1280,,,Blue Rhino,Q65681213
28663,burgerking,Burger King,,Eastland,TX,,US,+1 254-488-7041,https://www.bk.com/store-locator/store/restaurant_88227,Mo-Th 06:00-22:00; Fr-Sa 06:00-23:00; Su 07:00-22:00,Burger King,Q177054
07237,chevrolet,BLAKE FULENWIDER CHEVROLET GMC,,Eastland,TX,,US,+1 866-233-8549,https://www.blakefulenwiderchevygmc.com,Mo-Fr 08:00-18:00; Sa 09:00-16:00,Chevrolet,Q29570
377969,chevron,Texaco Station #377969,11619 E. IH20,EASTLAND,TX,,US,+1 325-690-9050,,,Chevron,Q319642
37172,citi,ATM Brookshires,,Eastland,TX,,US,,,,Citibank,Q857063
34260,citi,"ATM Alon 7ELEVEN, INC.",,Eastland,TX,,US,,,,Citibank,Q857063
70235260,cricket_wireless,Cricket Wireless Authorized Retailer,,Eastland,TX,,US,+1 254-629-5065,https://www.cricketwireless.com/stores/ll/US/TX/Eastland/1405-E-Main-St,Mo-Fr 10:00-19:00; Sa 10:00-18:00; Su 11:00-16:00,Cricket Wireless,Q5184987
9298,dominos_pizza_us,Domino's Pizza,,Eastland,TX,,US,+1 254-629-3399,https://pizza.dominos.com/texas/eastland/9972-interstate-20,Mo-Th 10:30-24:00; Fr-Sa 10:30-01:00; Su 10:30-24:00,Domino's,Q839466
100148,electrify_america,Walmart 561 Eastland,,Eastland,TX,,US,,,,Electrify America,Q59773555
200329480,exxonmobil,Eastland Truck Stop,,EASTLAND,TX,,US,+1 254-433-1894,https://www.exxon.com/en/find-station/exxon-eastland-tx-eastlandtruckstop-200329480,24/7,Exxon,Q109675651
200317115,exxonmobil,TIGER MART #54,,EASTLAND,TX,,US,+1 254-629-1280,https://www.exxon.com/en/find-station/exxon-eastland-tx-tigermart54-200317115,Mo-Su 06:00-23:00,Exxon,Q109675651
https://local.fedex.com/#25236732,fedex,,,Eastland,TX,,US,+1 800-463-3339,https://local.fedex.com/en-us/tx/eastland/abiaj,,FedEx,Q459477
Motorcraft1136USAEnglish,ford,Stanley Ford - Eastland,,Texas,TX,,US,+1 254-629-1786,,,Ford,Q44294
Motorcraft1137USAEnglish,ford,Hood King Motor Company,,Texas,TX,,US,+1 254-629-1786,,,Ford,Q44294
https://www.ford.com/dealerships/dealer-details/tx/eastland/stanley-ford-_-eastland/,ford_dealers_us,Stanley Ford - Eastland,,Eastland,TX,,US,+1 254-428-3108,https://www.ford.com/dealerships/dealer-details/tx/eastland/stanley-ford-_-eastland/,Mo-Fr 08:00-18:00; Sa 09:00-16:00,Ford Motor Company,Q44294
e9b574f9-458a-e111-8dde-005056934050,goodwill,Eastland Store,,Eastland,TX,,US,+1 254-629-8611,https://www.goodwill.org/locator/location/?store=ZTliNTc0ZjktNDU4YS1lMTExLThkZGUtMDA1MDU2OTM0MDUw&lat=MzIuNDMzMDg=&lng=LTk4LjcxMTMz,,Goodwill,Q5583655
66460,h_r_block,H&R Block,,Eastland,TX,,US,+1 254-629-8121,https://www.hrblock.com/local-tax-offices/texas/eastland/3600-w-ih-20/66460/,,H&R Block,Q5627799
https://office.jacksonhewitt.com/#27580441,jackson_hewitt,Jackson Hewitt,,Eastland,TX,,US,+1 254-488-4169,https://office.jacksonhewitt.com/tax-preparation-services-locations/en/tx/eastland/1410-e-main-street/50561,Mo-Sa 10:00-18:00; Su 12:00-16:00,Jackson Hewitt,Q6117132
62754,little_free_library,Little Free Library #62754 Eastland TX,,Eastland,TX,,US,,,,Little Free Library,Q6650101
72040205,moneygram,7-11 - #64058,,EASTLAND,TX,,US,+1 254-629-1427,,Mo-Su 09:00-20:00,MoneyGram,Q1944412
7254,murphy_usa_us,,,Eastland,TX,,US,+1 254-629-8423,,Mo-Sa 05:00-00:00; Su 06:00-23:00,Murphy USA,Q19604459
https://locations.oreillyauto.com/tx/eastland/check-engine-light-testing-1732.html,oreilly,Your Eastland O'Reilly Auto Parts Store,,Eastland,TX,,US,+1 254-629-2248,https://locations.oreillyauto.com/tx/eastland/check-engine-light-testing-1732.html,Mo-Sa 07:30-20:00; Su 09:00-20:00,O'Reilly Auto Parts,Q7071951
https://locations.oreillyauto.com/tx/eastland/wiper-installation-1732.html,oreilly,Your Eastland O'Reilly Auto Parts Store,,Eastland,TX,,US,+1 254-629-2248,https://locations.oreillyauto.com/tx/eastland/wiper-installation-1732.html,Mo-Sa 07:30-20:00; Su 09:00-20:00,O'Reilly Auto Parts,Q7071951
https://locations.oreillyauto.com/tx/eastland/battery-testing-1732.html,oreilly,Your Eastland O'Reilly Auto Parts Store,,Eastland,TX,,US,+1 254-629-2248,https://locations.oreillyauto.com/tx/eastland/battery-testing-1732.html,Mo-Sa 07:30-20:00; Su 09:00-20:00,O'Reilly Auto Parts,Q7071951
https://locations.oreillyauto.com/tx/eastland/autopartes-1732.html,oreilly,Tu tienda O'Reilly Auto Parts en Eastland,,Eastland,TX,,US,+1 254-629-2248,https://locations.oreillyauto.com/tx/eastland/autopartes-1732.html,Mo-Sa 07:30-20:00; Su 09:00-20:00,O'Reilly Auto Parts,Q7071951
https://restaurants.subway.com/#14899704,subway,Subway Skinny's Inc,,Eastland Eastland,TX,,US,+1 254-629-3262,https://restaurants.subway.com/united-states/tx/eastland/1488-e-main-st,Mo-Fr 07:00-22:00; Sa 08:00-22:00; Su 09:00-22:00,Subway,Q244457
https://locations.tacobell.com/#6146288,taco_bell,Taco Bell,,Eastland,TX,,US,+1 254-631-0807,https://locations.tacobell.com/tx/eastland/1430-east-main.html,Mo-Su 09:00-22:00,Taco Bell,Q752941
1361919,usps,EASTLAND,,EASTLAND,TX,,US,+1 254-629-2383,,Mo-Fr 08:30-16:30,United States Postal Service,Q668687
7644800023,usps_collection_boxes,USPS COLLECTION BOX - PO LOBBY,411 W MAIN ST,EASTLAND,TX,,US,,,,United States Postal Service,Q668687
7644800012,usps_collection_boxes,USPS COLLECTION BOX - PO LOBBY,411 W MAIN ST,EASTLAND,TX,,US,,,,United States Postal Service,Q668687
7644800018,usps_collection_boxes,USPS COLLECTION BOX - BLUE BOX,100 W MAIN ST STE 101,EASTLAND,TX,,US,,,,United States Postal Service,Q668687
7644800001,usps_collection_boxes,USPS COLLECTION BOX - BLUE BOX,410 W WHITE STREET,EASTLAND,TX,,US,,,,United States Postal Service,Q668687
,visa,,,EASTLAND,TX,,US,,,,,
,visa,,,EASTLAND,TX,,US,,,,,
,visa,,,EASTLAND,TX,,US,,,,,
,visa,,,EASTLAND,TX,,US,,,,,
,visa,,,EASTLAND,TX,,US,,,,,
,visa,,,EASTLAND,TX,,US,,,,,
,visa,,,EASTLAND,TX,,US,,,,,
,visa,,,EASTLAND,TX,,US,,,,,
,visa,,,EASTLAND,TX,,US,,,,,
,visa,,,EASTLAND,TX,,US,,,,,
,visa,,,EASTLAND,TX,,US,,,,,
,visa,,,EASTLAND,TX,,US,,,,,
9efa2f568b1e2b00e28c84448e94619e,western_union,WALMART #000561,,Eastland,TX,,US,+1 254-629-3371,https://location.westernunion.com/us/tx/eastland/9efa2f568b1e2b00e28c84448e94619e,Mo-Su 07:00-21:00,Western Union,Q861042
