Ref,Spider,Name,Address,City,State,Zipcode,Country,Phone,Website,Hours,Brand,WikiData
1486,first_cash,First Cash Pawn,,Mapastepec,Chiapas,,MX,+52 918 643 2363,,,First Cash Pawn,
,visa,,,MAPASTEPEC,CHIAPAS,,MX,,,,,
,visa,,,MAPASTEPEC,CHIAPAS,,MX,,,,,
30e1de7f911bf2c985c6bd5d4e32c567,western_union,144 SUPER WILLYS MAPASTEPEC 3,,Mapastepec,CHIAPAS,,MX,(+052) 999-6118100,https://location.westernunion.com/mx/chiapas/mapastepec/30e1de7f911bf2c985c6bd5d4e32c567,Mo-Su 08:00-20:00,Western Union,Q861042
bb75805f407d13b9031a5b6564528eef,western_union,144 SUPER WILLYS MAPASTEPEC 3,,Mapastepec,CHIAPAS,,MX,(+052) 999-6118100,https://location.westernunion.com/mx/chiapas/mapastepec/bb75805f407d13b9031a5b6564528eef,Mo-Su 08:00-20:00,Western Union,Q861042
3c17ffe781512f3af433f58b46b0204c,western_union,ELECZION MAPASTEPEC 1208,,Mapastepec,CHIAPAS,,MX,+52 55 5246 0700,https://location.westernunion.com/mx/chiapas/mapastepec/3c17ffe781512f3af433f58b46b0204c,Mo-Su 06:30-23:30,Western Union,Q861042
d860cb562db2ba60835db01f6d67a3a1,western_union,ELECZION MAPASTEPEC 1208,,Mapastepec,CHIAPAS,,MX,+52 55 5246 0700,https://location.westernunion.com/mx/chiapas/mapastepec/d860cb562db2ba60835db01f6d67a3a1,Mo-Su 06:30-23:30,Western Union,Q861042
9e706dce803a88f17d4b80ca846b7ba4,western_union,ELECZION MAPASTEPEC 1208,,Mapastepec,CHIAPAS,,MX,+52 55 5246 0700,https://location.westernunion.com/mx/chiapas/mapastepec/9e706dce803a88f17d4b80ca846b7ba4,Mo-Su 06:30-23:30,Western Union,Q861042
52ab939fd857b132e3d9806c47fb7842,western_union,FUNDACION DONDE MAPASTEPEC ID299,,Mapastepec,CHIAPAS,,MX,+52 999 940 7550,https://location.westernunion.com/mx/chiapas/mapastepec/52ab939fd857b132e3d9806c47fb7842,Mo-Su 08:00-20:00,Western Union,Q861042
f7ce0b7c0359e6a95fc4dc2a2a127bdd,western_union,FUNDACION DONDE MAPASTEPEC ID299,,Mapastepec,CHIAPAS,,MX,+52 999 940 7550,https://location.westernunion.com/mx/chiapas/mapastepec/f7ce0b7c0359e6a95fc4dc2a2a127bdd,Mo-Su 08:00-20:00,Western Union,Q861042
fa972248bebd65527764fed87cfd423c,western_union,APA 4601 MAPASTEPEC,,Mapastepec,CHIAPAS,,MX,+52 55 1720 8177,https://location.westernunion.com/mx/chiapas/mapastepec/fa972248bebd65527764fed87cfd423c,Mo-Su 09:00-21:00,Western Union,Q861042
6db6f3f6770c16b7cf76688289cbe86f,western_union,APA 4601 MAPASTEPEC,,Mapastepec,CHIAPAS,,MX,+52 55 1720 8177,https://location.westernunion.com/mx/chiapas/mapastepec/6db6f3f6770c16b7cf76688289cbe86f,Mo-Sa 09:00-21:00; Su 09:00-15:00,Western Union,Q861042
9f71b33785f00a445932ec55bb2560f9,western_union,APA 4601 MAPASTEPEC,,Mapastepec,CHIAPAS,,MX,+52 55 1720 8177,https://location.westernunion.com/mx/chiapas/mapastepec/9f71b33785f00a445932ec55bb2560f9,Mo-Su 09:00-20:00,Western Union,Q861042
b5c40d109f6ce6cfd39e66caab525be0,western_union,ELEKTRA 4174,,Mapastepec,CHIAPAS,,MX,+52 55 1720 8177,https://location.westernunion.com/mx/chiapas/mapastepec/b5c40d109f6ce6cfd39e66caab525be0,Mo-Su 09:00-21:00,Western Union,Q861042
4d7d89911ef3ee00309d67aa50d1e572,western_union,ELEKTRA 4174,,Mapastepec,CHIAPAS,,MX,+52 55 1720 8177,https://location.westernunion.com/mx/chiapas/mapastepec/4d7d89911ef3ee00309d67aa50d1e572,Mo-Su 09:00-20:00,Western Union,Q861042
d822c5badb9cfd2632da07e791496df3,western_union,ELEKTRA 4174,,Mapastepec,CHIAPAS,,MX,+52 55 1720 8177,https://location.westernunion.com/mx/chiapas/mapastepec/d822c5badb9cfd2632da07e791496df3,Mo-Su 09:00-21:00,Western Union,Q861042
a2b4973b5afc36fc2b39d6677b271687,western_union,SUPER WILLYS 157 AP CASH,,Mapastepec,CHIAPAS,,MX,+52 961 643 0578,https://location.westernunion.com/mx/chiapas/mapastepec/a2b4973b5afc36fc2b39d6677b271687,Mo-Su 08:00-21:00,Western Union,Q861042
e61dceac068077bac4e932912db26cde,western_union,SUPER WILLYS 157 AP CASH,,Mapastepec,CHIAPAS,,MX,+52 961 643 0578,https://location.westernunion.com/mx/chiapas/mapastepec/e61dceac068077bac4e932912db26cde,Mo-Su 08:00-21:00,Western Union,Q861042
fea4d50b0d5d6377d8d1aa8f6c3d021f,western_union,BANCOPPEL 6596 FRANCISCO SARABIA,,Mapastepec,CHIAPAS,,MX,(+52) 667-589999,https://location.westernunion.com/mx/chiapas/mapastepec/fea4d50b0d5d6377d8d1aa8f6c3d021f,Mo-Sa 10:00-20:00; Su 11:00-19:00,Western Union,Q861042
ce1254bdb0d273ee881034dd4903f5ab,western_union,BANCOPPEL 6596 FRANCISCO SARABIA,,Mapastepec,CHIAPAS,,MX,(+52) 667-589999,https://location.westernunion.com/mx/chiapas/mapastepec/ce1254bdb0d273ee881034dd4903f5ab,Mo-Sa 10:00-20:00; Su 11:00-19:00,Western Union,Q861042
80b3c605f3f8f535407e0678f6fa3685,western_union,BANCOPPEL 6596 FRANCISCO SARABIA,,Mapastepec,CHIAPAS,,MX,(+52) 667-589999,https://location.westernunion.com/mx/chiapas/mapastepec/80b3c605f3f8f535407e0678f6fa3685,Mo-Sa 10:00-20:00; Su 11:00-19:00,Western Union,Q861042
f05f6ccfa725676d5ef4760cb5299fc5,western_union,SUPER WILLYS 189 AP CASH,,Mapastepec,CHIAPAS,,MX,+52 961 643 0379,https://location.westernunion.com/mx/chiapas/mapastepec/f05f6ccfa725676d5ef4760cb5299fc5,Mo-Su 08:00-21:00,Western Union,Q861042
0530fa7c18ad4de9228e6a0e25c161a3,western_union,SUPER WILLYS 189 AP CASH,,Mapastepec,CHIAPAS,,MX,+52 961 643 0379,https://location.westernunion.com/mx/chiapas/mapastepec/0530fa7c18ad4de9228e6a0e25c161a3,Mo-Su 08:00-21:00,Western Union,Q861042
895c4e69f9c8f6ff5c769765a626e1c6,western_union,SUPER WILLYS 189 AP CASH,,Mapastepec,CHIAPAS,,MX,+52 961 643 0379,https://location.westernunion.com/mx/chiapas/mapastepec/895c4e69f9c8f6ff5c769765a626e1c6,Mo-Su 08:00-21:00,Western Union,Q861042
04bdc42aa9c5940051fe9b987d3f8c57,western_union,BANORTE 03015 MAPASTEPEC,,Mapastepec,CHIAPAS,,MX,+52 800 833 4700,https://location.westernunion.com/mx/chiapas/mapastepec/04bdc42aa9c5940051fe9b987d3f8c57,Mo-Fr 09:00-17:00,Western Union,Q861042
c21dbf54b7c198815f5480006fd9edc1,western_union,BANORTE 03015 MAPASTEPEC,,Mapastepec,CHIAPAS,,MX,+52 800 833 4700,https://location.westernunion.com/mx/chiapas/mapastepec/c21dbf54b7c198815f5480006fd9edc1,Mo-Fr 09:00-17:00,Western Union,Q861042
2a779e0e873ffd29178af8ed7f24ee36,western_union,FUNDACION DONDE MAPASTEPEC ID299,,Mapastepec,CHIAPAS,,MX,+52 999 940 7550,https://location.westernunion.com/mx/chiapas/mapastepec/2a779e0e873ffd29178af8ed7f24ee36,Mo-Su 08:00-20:00,Western Union,Q861042
26d537d0a8138fc040b0995d00cea0a6,western_union,TIENDAS NETO MAPASTEPEC 0499,,Mapastepec,CHIAPAS,,MX,+52 918 643 2340,https://location.westernunion.com/mx/chiapas/mapastepec/26d537d0a8138fc040b0995d00cea0a6,Mo-Su 07:00-22:00,Western Union,Q861042
a5f240431bc8e622a99e090fa4a95219,western_union,TIENDAS NETO MAPASTEPEC 0499,,Mapastepec,CHIAPAS,,MX,+52 918 643 2340,https://location.westernunion.com/mx/chiapas/mapastepec/a5f240431bc8e622a99e090fa4a95219,Mo-Su 07:00-22:00,Western Union,Q861042
74233db27ad7ab1ee60cbad51f6d9f1f,western_union,TIENDAS NETO MAPASTEPEC 0499,,Mapastepec,CHIAPAS,,MX,+52 918 643 2340,https://location.westernunion.com/mx/chiapas/mapastepec/74233db27ad7ab1ee60cbad51f6d9f1f,Mo-Su 07:00-22:00,Western Union,Q861042
9cb4d0438987dc98d0a3103f0280fd98,western_union,OXXO MAPA CENTRO TGZ,,Mapastepec,CHIAPAS,,MX,+52 81 8389 2121,https://location.westernunion.com/mx/chiapas/mapastepec/9cb4d0438987dc98d0a3103f0280fd98,Mo-Su 08:00-22:00,Western Union,Q861042
64e068e22d203cfacb4542a2f9d45ee0,western_union,OXXO MAPA CENTRO TGZ,,Mapastepec,CHIAPAS,,MX,+52 81 8389 2121,https://location.westernunion.com/mx/chiapas/mapastepec/64e068e22d203cfacb4542a2f9d45ee0,Mo-Su 08:00-22:00,Western Union,Q861042
b83ee5fc27041c22cc83d2403fef27f2,western_union,OXXO MAPA CENTRO TGZ,,Mapastepec,CHIAPAS,,MX,+52 81 8389 2121,https://location.westernunion.com/mx/chiapas/mapastepec/b83ee5fc27041c22cc83d2403fef27f2,Mo-Su 08:00-22:00,Western Union,Q861042
1128db05dd4152fa75197708ef625592,western_union,TIENDAS NETO MAPASTEPEC SARABIA 0683,,Mapastepec,CHIAPAS,,MX,+52 918 688 0397,https://location.westernunion.com/mx/chiapas/mapastepec/1128db05dd4152fa75197708ef625592,Mo-Su 07:00-22:00,Western Union,Q861042
fcfee536125b1e0893980b4a7369192d,western_union,SORIANA MAPASTEPEC 563,,Mapastepec,CHIAPAS,,MX,(+52) 81-1112009,https://location.westernunion.com/mx/chiapas/mapastepec/fcfee536125b1e0893980b4a7369192d,Mo-Su 08:00-23:00,Western Union,Q861042
6413bda61c7f35e471e54ddd2c55b4c1,western_union,SORIANA MAPASTEPEC 563,,Mapastepec,CHIAPAS,,MX,(+52) 81-1112009,https://location.westernunion.com/mx/chiapas/mapastepec/6413bda61c7f35e471e54ddd2c55b4c1,Mo-Su 08:00-23:00,Western Union,Q861042
ce13df1873343b5297e85ac2c25bf644,western_union,SORIANA MAPASTEPEC 563,,Mapastepec,CHIAPAS,,MX,(+52) 81-1112009,https://location.westernunion.com/mx/chiapas/mapastepec/ce13df1873343b5297e85ac2c25bf644,Mo-Su 08:00-23:00,Western Union,Q861042
ff8d07575e0a5f74e063a90dc2c0d5a2,western_union,TELECOMM 07026,,Mapastepec,CHIAPAS,,MX,+52 800 800 8930,https://location.westernunion.com/mx/chiapas/mapastepec/ff8d07575e0a5f74e063a90dc2c0d5a2,Mo-Su 09:00-20:00,Western Union,Q861042
dabf497b24eb2a8bea69361b54705c7d,western_union,TELECOMM 07026,,Mapastepec,CHIAPAS,,MX,+52 800 800 9889,https://location.westernunion.com/mx/chiapas/mapastepec/dabf497b24eb2a8bea69361b54705c7d,Mo-Fr 08:00-19:30; Sa-Su 09:00-16:30,Western Union,Q861042
414e52ed0f5660a431db9a8d70b004a3,western_union,TELECOMM 07026,,Mapastepec,CHIAPAS,,MX,+52 800 800 8930,https://location.westernunion.com/mx/chiapas/mapastepec/414e52ed0f5660a431db9a8d70b004a3,Mo-Fr 09:00-21:00,Western Union,Q861042
ba8c301b2cd2c382556622b7c45d9693,western_union,TIENDAS NETO MAPASTEPEC SARABIA 0683,,Mapastepec,CHIAPAS,,MX,+52 918 688 0397,https://location.westernunion.com/mx/chiapas/mapastepec/ba8c301b2cd2c382556622b7c45d9693,Mo-Su 07:00-22:00,Western Union,Q861042
525949c1d8e3f2ca28c0c80ff6aba1b5,western_union,TIENDAS NETO MAPASTEPEC SARABIA 0683,,Mapastepec,CHIAPAS,,MX,+52 918 688 0397,https://location.westernunion.com/mx/chiapas/mapastepec/525949c1d8e3f2ca28c0c80ff6aba1b5,Mo-Su 07:00-22:00,Western Union,Q861042
cc1834ac2f786d0fd3b69082b9a69c38,western_union,OXXO MAPASTEPEC TGZ,,Mapastepec,CHIAPAS,,MX,+52 81 8389 2121,https://location.westernunion.com/mx/chiapas/mapastepec/cc1834ac2f786d0fd3b69082b9a69c38,Mo-Su 08:00-22:00,Western Union,Q861042
f8dec9038daa90cee26ad0b58f05b191,western_union,OXXO MAPASTEPEC TGZ,,Mapastepec,CHIAPAS,,MX,+52 81 8389 2121,https://location.westernunion.com/mx/chiapas/mapastepec/f8dec9038daa90cee26ad0b58f05b191,Mo-Su 08:00-22:00,Western Union,Q861042
96cd91e63aab105a8e43e0e821ff012b,western_union,OXXO MAPASTEPEC TGZ,,Mapastepec,CHIAPAS,,MX,+52 81 8389 2121,https://location.westernunion.com/mx/chiapas/mapastepec/96cd91e63aab105a8e43e0e821ff012b,Mo-Su 08:00-22:00,Western Union,Q861042
6618e4dff94cf3f01d5df92d0696da7d,western_union,SUPER WILLYS 157 AP CASH,,Mapastepec,CHIAPAS,,MX,+52 961 643 0578,https://location.westernunion.com/mx/chiapas/mapastepec/6618e4dff94cf3f01d5df92d0696da7d,Mo-Su 08:00-21:00,Western Union,Q861042
