Ref,Spider,Name,Address,City,State,Zipcode,Country,Phone,Website,Hours,Brand,WikiData
,visa,,,GUATEMALA,GUATEMALA,,GT,,,,,
,visa,,,PALENCIA,GUATEMALA,,GT,,,,,
,visa,,,PALENCIA,GUATEMALA,,GT,,,,,
,visa,,,PALENCIA,GUATEMALA,,GT,,,,,
,visa,,,PALENCIA,GUATEMALA,,GT,,,,,
,visa,,,GUATEMALA,GUATEMALA,,GT,,,,,
,visa,,,SAN JOSE DEL GOLFO,GUATEMALA,,GT,,,,,
,visa,,,SAN JOSE DEL GOLFO,GUATEMALA,,GT,,,,,
,visa,,,PALENCIA,GUATEMALA,,GT,,,,,
,visa,,,SAN JOSE PINULA,GUATEMALA,,GT,,,,,
,visa,,,GUATEMALA,GUATEMALA,,GT,,,,,
,visa,,,SAN JOSE PINULA,GUATEMALA,,GT,,,,,
,visa,,,SAN JOSE PINULA,GUATEMALA,,GT,,,,,
,visa,,,GUATEMALA,GUATEMALA,,GT,,,,,
,visa,,,GUATEMALA,GUATEMALA,,GT,,,,,
,visa,,,SAN JOSE PINULA,GUATEMALA,,GT,,,,,
,visa,,,SAN JOSE PINULA,GUATEMALA,,GT,,,,,
,visa,,,GUATEMALA,GUATEMALA,,GT,,,,,
,visa,,,SAN JOSE PINULA,GUATEMALA,,GT,,,,,
,visa,,,GUATEMALA,GUATEMALA,,GT,,,,,
,visa,,,SAN JOSE PINULA,GUATEMALA,,GT,,,,,
,visa,,,SAN JOSE PINULA,GUATEMALA,,GT,,,,,
,visa,,,SAN JOSE PINULA,GUATEMALA,,GT,,,,,
,visa,,,SAN JOSE PINULA,GUATEMALA,,GT,,,,,
,visa,,,SAN JOSE PINULA,GUATEMALA,,GT,,,,,
,visa,,,SAN JOSE PINULA,GUATEMALA,,GT,,,,,
,visa,,,GUATEMALA,GUATEMALA,,GT,,,,,
,visa,,,SAN JOSE PINULA,GUATEMALA,,GT,,,,,
,visa,,,GUATEMALA,GUATEMALA,,GT,,,,,
,visa,,,GUATEMALA,GUATEMALA,,GT,,,,,
,visa,,,SAN JOSE PINULA,GUATEMALA,,GT,,,,,
,visa,,,SAN JOSE PINULA,GUATEMALA,,GT,,,,,
,visa,,,SAN JOSE PINULA,GUATEMALA,,GT,,,,,
,visa,,,SAN JOSE PINULA,GUATEMALA,,GT,,,,,
,visa,,,SAN JOSE PINULA,GUATEMALA,,GT,,,,,
,visa,,,SAN JOSE PINULA,GUATEMALA,,GT,,,,,
,visa,,,SAN JOSE PINULA,GUATEMALA,,GT,,,,,
,visa,,,SAN JOSE PINULA,GUATEMALA,,GT,,,,,
,visa,,,GUATEMALA,GUATEMALA,,GT,,,,,
,visa,,,GUATEMALA,GUATEMALA,,GT,,,,,
,visa,,,SAN JOSE PINULA,GUATEMALA,,GT,,,,,
,visa,,,GUATEMALA,GUATEMALA,,GT,,,,,
,visa,,,GUATEMALA,GUATEMALA,,GT,,,,,
,visa,,,FRAIJANES,GUATEMALA,,GT,,,,,
,visa,,,FRAIJANES,GUATEMALA,,GT,,,,,
,visa,,,FRAIJANES,GUATEMALA,,GT,,,,,
,visa,,,SAN PEDRO AYAMPUC,GUATEMALA,,GT,,,,,
,visa,,,GUATEMALA,GUATEMALA,,GT,,,,,
,visa,,,GUATEMALA,GUATEMALA,,GT,,,,,
,visa,,,SAN PEDRO AYAMPUC,GUATEMALA,,GT,,,,,
,visa,,,SAN PEDRO AYAMPUC,GUATEMALA,,GT,,,,,
,visa,,,SAN PEDRO AYAMPUC,GUATEMALA,,GT,,,,,
,visa,,,GUATEMALA,GUATEMALA,,GT,,,,,
,visa,,,SAN JOSE PINULA,GUATEMALA,,GT,,,,,
,visa,,,SAN JOSE PINULA,GUATEMALA,,GT,,,,,
,visa,,,GUATEMALA,GUATEMALA,,GT,,,,,
,visa,,,FRAIJANES,GUATEMALA,,GT,,,,,
,visa,,,GUATEMALA,GUATEMALA,,GT,,,,,
,visa,,,GUATEMALA,GUATEMALA,,GT,,,,,
,visa,,,GUATEMALA,GUATEMALA,,GT,,,,,
,visa,,,GUATEMALA,GUATEMALA,,GT,,,,,
,visa,,,GUATEMALA,GUATEMALA,,GT,,,,,
,visa,,,FRAIJANES,GUATEMALA,,GT,,,,,
,visa,,,GUATEMALA,GUATEMALA,,GT,,,,,
,visa,,,GUATEMALA,GUATEMALA,,GT,,,,,
,visa,,,SAN JOSE PINULA,GUATEMALA,,GT,,,,,
,visa,,,GUATEMALA,GUATEMALA,,GT,,,,,
,visa,,,GUATEMALA,GUATEMALA,,GT,,,,,
,visa,,,GUATEMALA,GUATEMALA,,GT,,,,,
,visa,,,GUATEMALA,GUATEMALA,,GT,,,,,
,visa,,,GUATEMALA,GUATEMALA,,GT,,,,,
,visa,,,GUATEMALA,GUATEMALA,,GT,,,,,
,visa,,,GUATEMALA,GUATEMALA,,GT,,,,,
,visa,,,GUATEMALA,GUATEMALA,,GT,,,,,
,visa,,,SAN PEDRO AYAMPUC,GUATEMALA,,GT,,,,,
,visa,,,SANTA CATARINA PINULA,GUATEMALA,,GT,,,,,
,visa,,,FRAIJANES,GUATEMALA,,GT,,,,,
,visa,,,SANTA CATARINA PINULA,GUATEMALA,,GT,,,,,
,visa,,,FRAIJANES,GUATEMALA,,GT,,,,,
,visa,,,SANTA CATARINA PINULA,GUATEMALA,,GT,,,,,
,visa,,,SANTA CATARINA PINULA,GUATEMALA,,GT,,,,,
,visa,,,GUATEMALA,GUATEMALA,,GT,,,,,
,visa,,,SANTA CATARINA PINULA,GUATEMALA,,GT,,,,,
,visa,,,SANTA CATARINA PINULA,GUATEMALA,,GT,,,,,
,visa,,,SANTA CATARINA PINULA,GUATEMALA,,GT,,,,,
,visa,,,GUATEMALA,GUATEMALA,,GT,,,,,
,visa,,,GUATEMALA,GUATEMALA,,GT,,,,,
,visa,,,SANTA CATARINA PINULA,GUATEMALA,,GT,,,,,
,visa,,,GUATEMALA,GUATEMALA,,GT,,,,,
,visa,,,GUATEMALA,GUATEMALA,,GT,,,,,
,visa,,,GUATEMALA,GUATEMALA,,GT,,,,,
,visa,,,SANTA CATARINA PINULA,GUATEMALA,,GT,,,,,
,visa,,,FRAIJANES,GUATEMALA,,GT,,,,,
,visa,,,FRAIJANES,GUATEMALA,,GT,,,,,
,visa,,,GUATEMALA,GUATEMALA,,GT,,,,,
,visa,,,FRAIJANES,GUATEMALA,,GT,,,,,
,visa,,,GUATEMALA,GUATEMALA,,GT,,,,,
,visa,,,GUATEMALA,GUATEMALA,,GT,,,,,
,visa,,,GUATEMALA,GUATEMALA,,GT,,,,,
,visa,,,GUATEMALA,GUATEMALA,,GT,,,,,
,visa,,,GUATEMALA,GUATEMALA,,GT,,,,,
,visa,,,GUATEMALA,GUATEMALA,,GT,,,,,
,visa,,,GUATEMALA,GUATEMALA,,GT,,,,,
,visa,,,GUATEMALA,GUATEMALA,,GT,,,,,
,visa,,,FRAIJANES,GUATEMALA,,GT,,,,,
,visa,,,GUATEMALA,GUATEMALA,,GT,,,,,
,visa,,,SANTA CATARINA PINULA,GUATEMALA,,GT,,,,,
,visa,,,GUATEMALA,GUATEMALA,,GT,,,,,
,visa,,,GUATEMALA,GUATEMALA,,GT,,,,,
,visa,,,SANTA CATARINA PINULA,GUATEMALA,,GT,,,,,
,visa,,,SANTA CATARINA PINULA,GUATEMALA,,GT,,,,,
,visa,,,SANTA CATARINA PINULA,GUATEMALA,,GT,,,,,
,visa,,,GUATEMALA,GUATEMALA,,GT,,,,,
,visa,,,GUATEMALA,GUATEMALA,,GT,,,,,
,visa,,,GUATEMALA,GUATEMALA,,GT,,,,,
,visa,,,GUATEMALA,GUATEMALA,,GT,,,,,
,visa,,,SANTA CATARINA PINULA,GUATEMALA,,GT,,,,,
,visa,,,GUATEMALA,GUATEMALA,,GT,,,,,
,visa,,,GUATEMALA,GUATEMALA,,GT,,,,,
,visa,,,FRAIJANES,GUATEMALA,,GT,,,,,
,visa,,,GUATEMALA,GUATEMALA,,GT,,,,,
,visa,,,GUATEMALA,GUATEMALA,,GT,,,,,
,visa,,,GUATEMALA,GUATEMALA,,GT,,,,,
,visa,,,GUATEMALA,GUATEMALA,,GT,,,,,
,visa,,,GUATEMALA,GUATEMALA,,GT,,,,,
,visa,,,SANTA CATARINA PINULA,GUATEMALA,,GT,,,,,
,visa,,,GUATEMALA,GUATEMALA,,GT,,,,,
,visa,,,SANTA CATARINA PINULA,GUATEMALA,,GT,,,,,
,visa,,,FRAIJANES,GUATEMALA,,GT,,,,,
,visa,,,GUATEMALA,GUATEMALA,,GT,,,,,
,visa,,,SANTA CATARINA PINULA,GUATEMALA,,GT,,,,,
,visa,,,GUATEMALA,GUATEMALA,,GT,,,,,
,visa,,,GUATEMALA,GUATEMALA,,GT,,,,,
,visa,,,FRAIJANES,GUATEMALA,,GT,,,,,
,visa,,,FRAIJANES,GUATEMALA,,GT,,,,,
,visa,,,GUATEMALA,GUATEMALA,,GT,,,,,
,visa,,,GUATEMALA,GUATEMALA,,GT,,,,,
,visa,,,GUATEMALA,GUATEMALA,,GT,,,,,
,visa,,,GUATEMALA,GUATEMALA,,GT,,,,,
,visa,,,SANTA CATARINA PINULA,GUATEMALA,,GT,,,,,
,visa,,,GUATEMALA,GUATEMALA,,GT,,,,,
,visa,,,GUATEMALA,GUATEMALA,,GT,,,,,
,visa,,,GUATEMALA,GUATEMALA,,GT,,,,,
,visa,,,GUATEMALA,GUATEMALA,,GT,,,,,
,visa,,,GUATEMALA,GUATEMALA,,GT,,,,,
,visa,,,GUATEMALA,GUATEMALA,,GT,,,,,
,visa,,,GUATEMALA,GUATEMALA,,GT,,,,,
,visa,,,GUATEMALA,GUATEMALA,,GT,,,,,
,visa,,,GUATEMALA,GUATEMALA,,GT,,,,,
,visa,,,GUATEMALA,GUATEMALA,,GT,,,,,
,visa,,,GUATEMALA,GUATEMALA,,GT,,,,,
,visa,,,GUATEMALA,GUATEMALA,,GT,,,,,
,visa,,,GUATEMALA,GUATEMALA,,GT,,,,,
,visa,,,GUATEMALA,GUATEMALA,,GT,,,,,
,visa,,,GUATEMALA,GUATEMALA,,GT,,,,,
,visa,,,GUATEMALA,GUATEMALA,,GT,,,,,
,visa,,,FRAIJANES,GUATEMALA,,GT,,,,,
,visa,,,GUATEMALA,GUATEMALA,,GT,,,,,
,visa,,,FRAIJANES,GUATEMALA,,GT,,,,,
,visa,,,GUATEMALA,GUATEMALA,,GT,,,,,
,visa,,,GUATEMALA,GUATEMALA,,GT,,,,,
,visa,,,FRAIJANES,GUATEMALA,,GT,,,,,
,visa,,,SANTA CATARINA PINULA,GUATEMALA,,GT,,,,,
,visa,,,GUATEMALA,GUATEMALA,,GT,,,,,
,visa,,,GUATEMALA,GUATEMALA,,GT,,,,,
,visa,,,GUATEMALA,GUATEMALA,,GT,,,,,
,visa,,,GUATEMALA,GUATEMALA,,GT,,,,,
,visa,,,GUATEMALA,GUATEMALA,,GT,,,,,
,visa,,,GUATEMALA,GUATEMALA,,GT,,,,,
,visa,,,GUATEMALA,GUATEMALA,,GT,,,,,
,visa,,,GUATEMALA,GUATEMALA,,GT,,,,,
,visa,,,GUATEMALA,GUATEMALA,,GT,,,,,
,visa,,,GUATEMALA,GUATEMALA,,GT,,,,,
,visa,,,CHINAUTLA,GUATEMALA,,GT,,,,,
,visa,,,GUATEMALA,GUATEMALA,,GT,,,,,
,visa,,,GUATEMALA,GUATEMALA,,GT,,,,,
,visa,,,GUATEMALA,GUATEMALA,,GT,,,,,
,visa,,,GUATEMALA,GUATEMALA,,GT,,,,,
,visa,,,GUATEMALA,GUATEMALA,,GT,,,,,
,visa,,,GUATEMALA,GUATEMALA,,GT,,,,,
,visa,,,SANTA CATARINA PINULA,GUATEMALA,,GT,,,,,
,visa,,,GUATEMALA,GUATEMALA,,GT,,,,,
,visa,,,GUATEMALA,GUATEMALA,,GT,,,,,
,visa,,,GUATEMALA,GUATEMALA,,GT,,,,,
,visa,,,GUATEMALA,GUATEMALA,,GT,,,,,
,visa,,,GUATEMALA,GUATEMALA,,GT,,,,,
,visa,,,GUATEMALA,GUATEMALA,,GT,,,,,
,visa,,,CHINAUTLA,GUATEMALA,,GT,,,,,
,visa,,,GUATEMALA,GUATEMALA,,GT,,,,,
,visa,,,CHINAUTLA,GUATEMALA,,GT,,,,,
,visa,,,CHINAUTLA,GUATEMALA,,GT,,,,,
,visa,,,CHINAUTLA,GUATEMALA,,GT,,,,,
,visa,,,GUATEMALA,GUATEMALA,,GT,,,,,
,visa,,,GUATEMALA,GUATEMALA,,GT,,,,,
,visa,,,GUATEMALA,GUATEMALA,,GT,,,,,
,visa,,,GUATEMALA,GUATEMALA,,GT,,,,,
,visa,,,GUATEMALA,GUATEMALA,,GT,,,,,
,visa,,,GUATEMALA,GUATEMALA,,GT,,,,,
,visa,,,GUATEMALA,GUATEMALA,,GT,,,,,
,visa,,,SANTA CATARINA PINULA,GUATEMALA,,GT,,,,,
,visa,,,GUATEMALA,GUATEMALA,,GT,,,,,
,visa,,,GUATEMALA,GUATEMALA,,GT,,,,,
,visa,,,GUATEMALA,GUATEMALA,,GT,,,,,
,visa,,,GUATEMALA,GUATEMALA,,GT,,,,,
,visa,,,GUATEMALA,GUATEMALA,,GT,,,,,
,visa,,,GUATEMALA,GUATEMALA,,GT,,,,,
,visa,,,GUATEMALA,GUATEMALA,,GT,,,,,
,visa,,,GUATEMALA,GUATEMALA,,GT,,,,,
,visa,,,GUATEMALA,GUATEMALA,,GT,,,,,
,visa,,,GUATEMALA,GUATEMALA,,GT,,,,,
,visa,,,GUATEMALA,GUATEMALA,,GT,,,,,
,visa,,,GUATEMALA,GUATEMALA,,GT,,,,,
,visa,,,GUATEMALA,GUATEMALA,,GT,,,,,
,visa,,,GUATEMALA,GUATEMALA,,GT,,,,,
,visa,,,GUATEMALA,GUATEMALA,,GT,,,,,
,visa,,,SANTA CATARINA PINULA,GUATEMALA,,GT,,,,,
,visa,,,GUATEMALA,GUATEMALA,,GT,,,,,
,visa,,,GUATEMALA,GUATEMALA,,GT,,,,,
,visa,,,GUATEMALA,GUATEMALA,,GT,,,,,
,visa,,,GUATEMALA,GUATEMALA,,GT,,,,,
,visa,,,GUATEMALA,GUATEMALA,,GT,,,,,
,visa,,,GUATEMALA,GUATEMALA,,GT,,,,,
,visa,,,GUATEMALA,GUATEMALA,,GT,,,,,
,visa,,,GUATEMALA,GUATEMALA,,GT,,,,,
,visa,,,GUATEMALA,GUATEMALA,,GT,,,,,
,visa,,,GUATEMALA,GUATEMALA,,GT,,,,,
,visa,,,GUATEMALA,GUATEMALA,,GT,,,,,
,visa,,,GUATEMALA,GUATEMALA,,GT,,,,,
,visa,,,GUATEMALA,GUATEMALA,,GT,,,,,
,visa,,,GUATEMALA,GUATEMALA,,GT,,,,,
,visa,,,GUATEMALA,GUATEMALA,,GT,,,,,
,visa,,,GUATEMALA,GUATEMALA,,GT,,,,,
,visa,,,GUATEMALA,GUATEMALA,,GT,,,,,
,visa,,,GUATEMALA,GUATEMALA,,GT,,,,,
,visa,,,GUATEMALA,GUATEMALA,,GT,,,,,
,visa,,,SANTA CATARINA PINULA,GUATEMALA,,GT,,,,,
,visa,,,GUATEMALA,GUATEMALA,,GT,,,,,
,visa,,,GUATEMALA,GUATEMALA,,GT,,,,,
,visa,,,GUATEMALA,GUATEMALA,,GT,,,,,
,visa,,,GUATEMALA,GUATEMALA,,GT,,,,,
,visa,,,GUATEMALA,GUATEMALA,,GT,,,,,
,visa,,,GUATEMALA,GUATEMALA,,GT,,,,,
,visa,,,GUATEMALA,GUATEMALA,,GT,,,,,
,visa,,,GUATEMALA,GUATEMALA,,GT,,,,,
,visa,,,GUATEMALA,GUATEMALA,,GT,,,,,
,visa,,,GUATEMALA,GUATEMALA,,GT,,,,,
,visa,,,GUATEMALA,GUATEMALA,,GT,,,,,
,visa,,,GUATEMALA,GUATEMALA,,GT,,,,,
,visa,,,GUATEMALA,GUATEMALA,,GT,,,,,
,visa,,,SANTA CATARINA PINULA,GUATEMALA,,GT,,,,,
,visa,,,SANTA CATARINA PINULA,GUATEMALA,,GT,,,,,
,visa,,,GUATEMALA,GUATEMALA,,GT,,,,,
,visa,,,GUATEMALA,GUATEMALA,,GT,,,,,
,visa,,,GUATEMALA,GUATEMALA,,GT,,,,,
,visa,,,GUATEMALA,GUATEMALA,,GT,,,,,
,visa,,,SANTA CATARINA PINULA,GUATEMALA,,GT,,,,,
,visa,,,GUATEMALA,GUATEMALA,,GT,,,,,
,visa,,,CHINAUTLA,GUATEMALA,,GT,,,,,
,visa,,,GUATEMALA,GUATEMALA,,GT,,,,,
,visa,,,GUATEMALA,GUATEMALA,,GT,,,,,
,visa,,,GUATEMALA,GUATEMALA,,GT,,,,,
,visa,,,GUATEMALA,GUATEMALA,,GT,,,,,
,visa,,,GUATEMALA,GUATEMALA,,GT,,,,,
,visa,,,GUATEMALA,GUATEMALA,,GT,,,,,
,visa,,,GUATEMALA,GUATEMALA,,GT,,,,,
,visa,,,GUATEMALA,GUATEMALA,,GT,,,,,
,visa,,,SANTA CATARINA PINULA,GUATEMALA,,GT,,,,,
,visa,,,GUATEMALA,GUATEMALA,,GT,,,,,
,visa,,,GUATEMALA,GUATEMALA,,GT,,,,,
,visa,,,GUATEMALA,GUATEMALA,,GT,,,,,
,visa,,,GUATEMALA,GUATEMALA,,GT,,,,,
,visa,,,GUATEMALA,GUATEMALA,,GT,,,,,
,visa,,,GUATEMALA,GUATEMALA,,GT,,,,,
,visa,,,GUATEMALA,GUATEMALA,,GT,,,,,
,visa,,,GUATEMALA,GUATEMALA,,GT,,,,,
,visa,,,GUATEMALA,GUATEMALA,,GT,,,,,
,visa,,,GUATEMALA,GUATEMALA,,GT,,,,,
,visa,,,GUATEMALA,GUATEMALA,,GT,,,,,
,visa,,,GUATEMALA,GUATEMALA,,GT,,,,,
,visa,,,GUATEMALA,GUATEMALA,,GT,,,,,
,visa,,,GUATEMALA,GUATEMALA,,GT,,,,,
,visa,,,GUATEMALA,GUATEMALA,,GT,,,,,
,visa,,,GUATEMALA,GUATEMALA,,GT,,,,,
,visa,,,GUATEMALA,GUATEMALA,,GT,,,,,
,visa,,,GUATEMALA,GUATEMALA,,GT,,,,,
,visa,,,GUATEMALA,GUATEMALA,,GT,,,,,
,visa,,,GUATEMALA,GUATEMALA,,GT,,,,,
,visa,,,GUATEMALA,GUATEMALA,,GT,,,,,
,visa,,,GUATEMALA,GUATEMALA,,GT,,,,,
,visa,,,GUATEMALA,GUATEMALA,,GT,,,,,
,visa,,,GUATEMALA,GUATEMALA,,GT,,,,,
,visa,,,GUATEMALA,GUATEMALA,,GT,,,,,
,visa,,,SANTA CATARINA PINULA,GUATEMALA,,GT,,,,,
,visa,,,GUATEMALA,GUATEMALA,,GT,,,,,
,visa,,,GUATEMALA,GUATEMALA,,GT,,,,,
,visa,,,GUATEMALA,GUATEMALA,,GT,,,,,
,visa,,,GUATEMALA,GUATEMALA,,GT,,,,,
,visa,,,GUATEMALA,GUATEMALA,,GT,,,,,
,visa,,,GUATEMALA,GUATEMALA,,GT,,,,,
,visa,,,GUATEMALA,GUATEMALA,,GT,,,,,
,visa,,,GUATEMALA,GUATEMALA,,GT,,,,,
,visa,,,GUATEMALA,GUATEMALA,,GT,,,,,
,visa,,,GUATEMALA,GUATEMALA,,GT,,,,,
,visa,,,GUATEMALA,GUATEMALA,,GT,,,,,
,visa,,,GUATEMALA,GUATEMALA,,GT,,,,,
,visa,,,GUATEMALA,GUATEMALA,,GT,,,,,
,visa,,,GUATEMALA,GUATEMALA,,GT,,,,,
,visa,,,GUATEMALA,GUATEMALA,,GT,,,,,
,visa,,,GUATEMALA,GUATEMALA,,GT,,,,,
,visa,,,VILLA CANALES,GUATEMALA,,GT,,,,,
,visa,,,VILLA CANALES,GUATEMALA,,GT,,,,,
,visa,,,GUATEMALA,GUATEMALA,,GT,,,,,
,visa,,,GUATEMALA,GUATEMALA,,GT,,,,,
,visa,,,VILLA CANALES,GUATEMALA,,GT,,,,,
,visa,,,GUATEMALA,GUATEMALA,,GT,,,,,
,visa,,,GUATEMALA,GUATEMALA,,GT,,,,,
,visa,,,GUATEMALA,GUATEMALA,,GT,,,,,
,visa,,,GUATEMALA,GUATEMALA,,GT,,,,,
,visa,,,GUATEMALA,GUATEMALA,,GT,,,,,
,visa,,,GUATEMALA,GUATEMALA,,GT,,,,,
,visa,,,GUATEMALA,GUATEMALA,,GT,,,,,
,visa,,,GUATEMALA,GUATEMALA,,GT,,,,,
,visa,,,GUATEMALA,GUATEMALA,,GT,,,,,
,visa,,,GUATEMALA,GUATEMALA,,GT,,,,,
,visa,,,GUATEMALA,GUATEMALA,,GT,,,,,
,visa,,,GUATEMALA,GUATEMALA,,GT,,,,,
,visa,,,GUATEMALA,GUATEMALA,,GT,,,,,
,visa,,,GUATEMALA,GUATEMALA,,GT,,,,,
,visa,,,GUATEMALA,GUATEMALA,,GT,,,,,
,visa,,,GUATEMALA,GUATEMALA,,GT,,,,,
,visa,,,GUATEMALA,GUATEMALA,,GT,,,,,
,visa,,,GUATEMALA,GUATEMALA,,GT,,,,,
,visa,,,SANTA CATARINA PINULA,GUATEMALA,,GT,,,,,
,visa,,,GUATEMALA,GUATEMALA,,GT,,,,,
,visa,,,GUATEMALA,GUATEMALA,,GT,,,,,
,visa,,,GUATEMALA,GUATEMALA,,GT,,,,,
,visa,,,GUATEMALA,GUATEMALA,,GT,,,,,
,visa,,,GUATEMALA,GUATEMALA,,GT,,,,,
,visa,,,SANTA CATARINA PINULA,GUATEMALA,,GT,,,,,
,visa,,,GUATEMALA,GUATEMALA,,GT,,,,,
,visa,,,GUATEMALA,GUATEMALA,,GT,,,,,
,visa,,,GUATEMALA,GUATEMALA,,GT,,,,,
,visa,,,GUATEMALA,GUATEMALA,,GT,,,,,
,visa,,,GUATEMALA,GUATEMALA,,GT,,,,,
,visa,,,GUATEMALA,GUATEMALA,,GT,,,,,
,visa,,,GUATEMALA,GUATEMALA,,GT,,,,,
,visa,,,GUATEMALA,GUATEMALA,,GT,,,,,
,visa,,,GUATEMALA,GUATEMALA,,GT,,,,,
,visa,,,GUATEMALA,GUATEMALA,,GT,,,,,
,visa,,,GUATEMALA,GUATEMALA,,GT,,,,,
,visa,,,GUATEMALA,GUATEMALA,,GT,,,,,
,visa,,,GUATEMALA,GUATEMALA,,GT,,,,,
,visa,,,GUATEMALA,GUATEMALA,,GT,,,,,
,visa,,,GUATEMALA,GUATEMALA,,GT,,,,,
,visa,,,GUATEMALA,GUATEMALA,,GT,,,,,
,visa,,,GUATEMALA,GUATEMALA,,GT,,,,,
,visa,,,GUATEMALA,GUATEMALA,,GT,,,,,
,visa,,,GUATEMALA,GUATEMALA,,GT,,,,,
,visa,,,GUATEMALA,GUATEMALA,,GT,,,,,
,visa,,,CHUARANCHO,GUATEMALA,,GT,,,,,
,visa,,,GUATEMALA,GUATEMALA,,GT,,,,,
,visa,,,GUATEMALA,GUATEMALA,,GT,,,,,
,visa,,,GUATEMALA,GUATEMALA,,GT,,,,,
,visa,,,GUATEMALA,GUATEMALA,,GT,,,,,
,visa,,,GUATEMALA,GUATEMALA,,GT,,,,,
,visa,,,GUATEMALA,GUATEMALA,,GT,,,,,
,visa,,,GUATEMALA,GUATEMALA,,GT,,,,,
,visa,,,GUATEMALA,GUATEMALA,,GT,,,,,
,visa,,,GUATEMALA,GUATEMALA,,GT,,,,,
,visa,,,GUATEMALA,GUATEMALA,,GT,,,,,
,visa,,,GUATEMALA,GUATEMALA,,GT,,,,,
,visa,,,GUATEMALA,GUATEMALA,,GT,,,,,
,visa,,,GUATEMALA,GUATEMALA,,GT,,,,,
,visa,,,GUATEMALA,GUATEMALA,,GT,,,,,
,visa,,,GUATEMALA,GUATEMALA,,GT,,,,,
,visa,,,GUATEMALA,GUATEMALA,,GT,,,,,
,visa,,,GUATEMALA,GUATEMALA,,GT,,,,,
,visa,,,GUATEMALA,GUATEMALA,,GT,,,,,
,visa,,,GUATEMALA,GUATEMALA,,GT,,,,,
,visa,,,GUATEMALA,GUATEMALA,,GT,,,,,
,visa,,,GUATEMALA,GUATEMALA,,GT,,,,,
,visa,,,GUATEMALA,GUATEMALA,,GT,,,,,
,visa,,,GUATEMALA,GUATEMALA,,GT,,,,,
,visa,,,GUATEMALA,GUATEMALA,,GT,,,,,
,visa,,,GUATEMALA,GUATEMALA,,GT,,,,,
,visa,,,GUATEMALA,GUATEMALA,,GT,,,,,
,visa,,,GUATEMALA,GUATEMALA,,GT,,,,,
,visa,,,GUATEMALA,GUATEMALA,,GT,,,,,
,visa,,,GUATEMALA,GUATEMALA,,GT,,,,,
,visa,,,GUATEMALA,GUATEMALA,,GT,,,,,
,visa,,,GUATEMALA,GUATEMALA,,GT,,,,,
,visa,,,GUATEMALA,GUATEMALA,,GT,,,,,
,visa,,,GUATEMALA,GUATEMALA,,GT,,,,,
,visa,,,GUATEMALA,GUATEMALA,,GT,,,,,
,visa,,,GUATEMALA,GUATEMALA,,GT,,,,,
,visa,,,GUATEMALA,GUATEMALA,,GT,,,,,
,visa,,,GUATEMALA,GUATEMALA,,GT,,,,,
,visa,,,GUATEMALA,GUATEMALA,,GT,,,,,
,visa,,,GUATEMALA,GUATEMALA,,GT,,,,,
,visa,,,GUATEMALA,GUATEMALA,,GT,,,,,
,visa,,,GUATEMALA,GUATEMALA,,GT,,,,,
,visa,,,GUATEMALA,GUATEMALA,,GT,,,,,
,visa,,,GUATEMALA,GUATEMALA,,GT,,,,,
,visa,,,GUATEMALA,GUATEMALA,,GT,,,,,
,visa,,,GUATEMALA,GUATEMALA,,GT,,,,,
,visa,,,GUATEMALA,GUATEMALA,,GT,,,,,
,visa,,,GUATEMALA,GUATEMALA,,GT,,,,,
,visa,,,GUATEMALA,GUATEMALA,,GT,,,,,
,visa,,,GUATEMALA,GUATEMALA,,GT,,,,,
,visa,,,GUATEMALA,GUATEMALA,,GT,,,,,
,visa,,,GUATEMALA,GUATEMALA,,GT,,,,,
,visa,,,GUATEMALA,GUATEMALA,,GT,,,,,
,visa,,,GUATEMALA,GUATEMALA,,GT,,,,,
,visa,,,GUATEMALA,GUATEMALA,,GT,,,,,
,visa,,,GUATEMALA,GUATEMALA,,GT,,,,,
,visa,,,GUATEMALA,GUATEMALA,,GT,,,,,
,visa,,,GUATEMALA,GUATEMALA,,GT,,,,,
,visa,,,GUATEMALA,GUATEMALA,,GT,,,,,
,visa,,,GUATEMALA,GUATEMALA,,GT,,,,,
,visa,,,GUATEMALA,GUATEMALA,,GT,,,,,
,visa,,,GUATEMALA,GUATEMALA,,GT,,,,,
,visa,,,GUATEMALA,GUATEMALA,,GT,,,,,
,visa,,,GUATEMALA,GUATEMALA,,GT,,,,,
,visa,,,GUATEMALA,GUATEMALA,,GT,,,,,
,visa,,,GUATEMALA,GUATEMALA,,GT,,,,,
,visa,,,GUATEMALA,GUATEMALA,,GT,,,,,
,visa,,,GUATEMALA,GUATEMALA,,GT,,,,,
,visa,,,GUATEMALA,GUATEMALA,,GT,,,,,
,visa,,,GUATEMALA,GUATEMALA,,GT,,,,,
,visa,,,GUATEMALA,GUATEMALA,,GT,,,,,
,visa,,,GUATEMALA,GUATEMALA,,GT,,,,,
,visa,,,GUATEMALA,GUATEMALA,,GT,,,,,
,visa,,,GUATEMALA,GUATEMALA,,GT,,,,,
,visa,,,GUATEMALA,GUATEMALA,,GT,,,,,
,visa,,,GUATEMALA,GUATEMALA,,GT,,,,,
,visa,,,GUATEMALA,GUATEMALA,,GT,,,,,
,visa,,,GUATEMALA,GUATEMALA,,GT,,,,,
,visa,,,GUATEMALA,GUATEMALA,,GT,,,,,
,visa,,,GUATEMALA,GUATEMALA,,GT,,,,,
,visa,,,GUATEMALA,GUATEMALA,,GT,,,,,
,visa,,,GUATEMALA,GUATEMALA,,GT,,,,,
,visa,,,GUATEMALA,GUATEMALA,,GT,,,,,
,visa,,,GUATEMALA,GUATEMALA,,GT,,,,,
,visa,,,GUATEMALA,GUATEMALA,,GT,,,,,
,visa,,,GUATEMALA,GUATEMALA,,GT,,,,,
,visa,,,GUATEMALA,GUATEMALA,,GT,,,,,
,visa,,,GUATEMALA,GUATEMALA,,GT,,,,,
,visa,,,GUATEMALA,GUATEMALA,,GT,,,,,
,visa,,,GUATEMALA,GUATEMALA,,GT,,,,,
,visa,,,GUATEMALA,GUATEMALA,,GT,,,,,
,visa,,,GUATEMALA,GUATEMALA,,GT,,,,,
,visa,,,GUATEMALA,GUATEMALA,,GT,,,,,
,visa,,,GUATEMALA,GUATEMALA,,GT,,,,,
,visa,,,GUATEMALA,GUATEMALA,,GT,,,,,
,visa,,,GUATEMALA,GUATEMALA,,GT,,,,,
,visa,,,GUATEMALA,GUATEMALA,,GT,,,,,
,visa,,,GUATEMALA,GUATEMALA,,GT,,,,,
,visa,,,GUATEMALA,GUATEMALA,,GT,,,,,
,visa,,,GUATEMALA,GUATEMALA,,GT,,,,,
,visa,,,GUATEMALA,GUATEMALA,,GT,,,,,
,visa,,,GUATEMALA,GUATEMALA,,GT,,,,,
,visa,,,GUATEMALA,GUATEMALA,,GT,,,,,
,visa,,,GUATEMALA,GUATEMALA,,GT,,,,,
,visa,,,GUATEMALA,GUATEMALA,,GT,,,,,
,visa,,,GUATEMALA,GUATEMALA,,GT,,,,,
,visa,,,GUATEMALA,GUATEMALA,,GT,,,,,
,visa,,,GUATEMALA,GUATEMALA,,GT,,,,,
,visa,,,GUATEMALA,GUATEMALA,,GT,,,,,
,visa,,,GUATEMALA,GUATEMALA,,GT,,,,,
,visa,,,GUATEMALA,GUATEMALA,,GT,,,,,
,visa,,,GUATEMALA,GUATEMALA,,GT,,,,,
,visa,,,GUATEMALA,GUATEMALA,,GT,,,,,
,visa,,,GUATEMALA,GUATEMALA,,GT,,,,,
,visa,,,GUATEMALA,GUATEMALA,,GT,,,,,
,visa,,,GUATEMALA,GUATEMALA,,GT,,,,,
,visa,,,GUATEMALA,GUATEMALA,,GT,,,,,
,visa,,,GUATEMALA,GUATEMALA,,GT,,,,,
,visa,,,GUATEMALA,GUATEMALA,,GT,,,,,
,visa,,,GUATEMALA,GUATEMALA,,GT,,,,,
,visa,,,GUATEMALA,GUATEMALA,,GT,,,,,
,visa,,,GUATEMALA,GUATEMALA,,GT,,,,,
,visa,,,GUATEMALA,GUATEMALA,,GT,,,,,
,visa,,,GUATEMALA,GUATEMALA,,GT,,,,,
,visa,,,GUATEMALA,GUATEMALA,,GT,,,,,
,visa,,,GUATEMALA,GUATEMALA,,GT,,,,,
,visa,,,GUATEMALA,GUATEMALA,,GT,,,,,
,visa,,,GUATEMALA,GUATEMALA,,GT,,,,,
,visa,,,GUATEMALA,GUATEMALA,,GT,,,,,
,visa,,,GUATEMALA,GUATEMALA,,GT,,,,,
,visa,,,GUATEMALA,GUATEMALA,,GT,,,,,
,visa,,,GUATEMALA,GUATEMALA,,GT,,,,,
,visa,,,GUATEMALA,GUATEMALA,,GT,,,,,
,visa,,,GUATEMALA,GUATEMALA,,GT,,,,,
,visa,,,GUATEMALA,GUATEMALA,,GT,,,,,
,visa,,,GUATEMALA,GUATEMALA,,GT,,,,,
,visa,,,GUATEMALA,GUATEMALA,,GT,,,,,
,visa,,,GUATEMALA,GUATEMALA,,GT,,,,,
,visa,,,GUATEMALA,GUATEMALA,,GT,,,,,
,visa,,,GUATEMALA,GUATEMALA,,GT,,,,,
,visa,,,GUATEMALA,GUATEMALA,,GT,,,,,
,visa,,,GUATEMALA,GUATEMALA,,GT,,,,,
,visa,,,GUATEMALA,GUATEMALA,,GT,,,,,
,visa,,,GUATEMALA,GUATEMALA,,GT,,,,,
,visa,,,GUATEMALA,GUATEMALA,,GT,,,,,
,visa,,,GUATEMALA,GUATEMALA,,GT,,,,,
,visa,,,GUATEMALA,GUATEMALA,,GT,,,,,
,visa,,,GUATEMALA,GUATEMALA,,GT,,,,,
,visa,,,GUATEMALA,GUATEMALA,,GT,,,,,
,visa,,,GUATEMALA,GUATEMALA,,GT,,,,,
,visa,,,GUATEMALA,GUATEMALA,,GT,,,,,
,visa,,,GUATEMALA,GUATEMALA,,GT,,,,,
,visa,,,GUATEMALA,GUATEMALA,,GT,,,,,
,visa,,,GUATEMALA,GUATEMALA,,GT,,,,,
,visa,,,GUATEMALA,GUATEMALA,,GT,,,,,
,visa,,,GUATEMALA,GUATEMALA,,GT,,,,,
,visa,,,GUATEMALA,GUATEMALA,,GT,,,,,
,visa,,,GUATEMALA,GUATEMALA,,GT,,,,,
,visa,,,GUATEMALA,GUATEMALA,,GT,,,,,
,visa,,,GUATEMALA,GUATEMALA,,GT,,,,,
,visa,,,GUATEMALA,GUATEMALA,,GT,,,,,
,visa,,,GUATEMALA,GUATEMALA,,GT,,,,,
,visa,,,GUATEMALA,GUATEMALA,,GT,,,,,
,visa,,,GUATEMALA,GUATEMALA,,GT,,,,,
,visa,,,GUATEMALA,GUATEMALA,,GT,,,,,
,visa,,,GUATEMALA,GUATEMALA,,GT,,,,,
,visa,,,GUATEMALA,GUATEMALA,,GT,,,,,
,visa,,,GUATEMALA,GUATEMALA,,GT,,,,,
,visa,,,GUATEMALA,GUATEMALA,,GT,,,,,
,visa,,,GUATEMALA,GUATEMALA,,GT,,,,,
,visa,,,GUATEMALA,GUATEMALA,,GT,,,,,
,visa,,,GUATEMALA,GUATEMALA,,GT,,,,,
,visa,,,GUATEMALA,GUATEMALA,,GT,,,,,
,visa,,,GUATEMALA,GUATEMALA,,GT,,,,,
,visa,,,GUATEMALA,GUATEMALA,,GT,,,,,
,visa,,,GUATEMALA,GUATEMALA,,GT,,,,,
,visa,,,GUATEMALA,GUATEMALA,,GT,,,,,
,visa,,,GUATEMALA,GUATEMALA,,GT,,,,,
,visa,,,GUATEMALA,GUATEMALA,,GT,,,,,
,visa,,,GUATEMALA,GUATEMALA,,GT,,,,,
,visa,,,GUATEMALA,GUATEMALA,,GT,,,,,
,visa,,,GUATEMALA,GUATEMALA,,GT,,,,,
,visa,,,GUATEMALA,GUATEMALA,,GT,,,,,
,visa,,,GUATEMALA,GUATEMALA,,GT,,,,,
,visa,,,GUATEMALA,GUATEMALA,,GT,,,,,
,visa,,,GUATEMALA,GUATEMALA,,GT,,,,,
,visa,,,GUATEMALA,GUATEMALA,,GT,,,,,
,visa,,,GUATEMALA,GUATEMALA,,GT,,,,,
,visa,,,GUATEMALA,GUATEMALA,,GT,,,,,
,visa,,,BOCA DEL MONTE,GUATEMALA,,GT,,,,,
,visa,,,VILLA CANALES,GUATEMALA,,GT,,,,,
,visa,,,GUATEMALA,GUATEMALA,,GT,,,,,
,visa,,,GUATEMALA,GUATEMALA,,GT,,,,,
,visa,,,GUATEMALA,GUATEMALA,,GT,,,,,
,visa,,,GUATEMALA,GUATEMALA,,GT,,,,,
,visa,,,GUATEMALA,GUATEMALA,,GT,,,,,
,visa,,,GUATEMALA,GUATEMALA,,GT,,,,,
,visa,,,GUATEMALA,GUATEMALA,,GT,,,,,
,visa,,,GUATEMALA,GUATEMALA,,GT,,,,,
,visa,,,GUATEMALA,GUATEMALA,,GT,,,,,
,visa,,,VILLA CANALES,GUATEMALA,,GT,,,,,
,visa,,,GUATEMALA,GUATEMALA,,GT,,,,,
,visa,,,GUATEMALA,GUATEMALA,,GT,,,,,
,visa,,,GUATEMALA,GUATEMALA,,GT,,,,,
,visa,,,GUATEMALA,GUATEMALA,,GT,,,,,
,visa,,,GUATEMALA,GUATEMALA,,GT,,,,,
,visa,,,VILLA CANALES,GUATEMALA,,GT,,,,,
,visa,,,GUATEMALA,GUATEMALA,,GT,,,,,
,visa,,,GUATEMALA,GUATEMALA,,GT,,,,,
,visa,,,GUATEMALA,GUATEMALA,,GT,,,,,
,visa,,,CHINAUTLA,GUATEMALA,,GT,,,,,
,visa,,,GUATEMALA,GUATEMALA,,GT,,,,,
,visa,,,GUATEMALA,GUATEMALA,,GT,,,,,
,visa,,,CHINAUTLA,GUATEMALA,,GT,,,,,
,visa,,,GUATEMALA,GUATEMALA,,GT,,,,,
,visa,,,BOCA DEL MONTE,GUATEMALA,,GT,,,,,
,visa,,,GUATEMALA,GUATEMALA,,GT,,,,,
,visa,,,GUATEMALA,GUATEMALA,,GT,,,,,
,visa,,,GUATEMALA,GUATEMALA,,GT,,,,,
,visa,,,GUATEMALA,GUATEMALA,,GT,,,,,
,visa,,,BOCA DEL MONTE,GUATEMALA,,GT,,,,,
,visa,,,GUATEMALA,GUATEMALA,,GT,,,,,
,visa,,,GUATEMALA,GUATEMALA,,GT,,,,,
,visa,,,GUATEMALA,GUATEMALA,,GT,,,,,
,visa,,,GUATEMALA,GUATEMALA,,GT,,,,,
,visa,,,CHINAUTLA,GUATEMALA,,GT,,,,,
,visa,,,VILLA CANALES,GUATEMALA,,GT,,,,,
,visa,,,GUATEMALA,GUATEMALA,,GT,,,,,
,visa,,,GUATEMALA,GUATEMALA,,GT,,,,,
,visa,,,GUATEMALA,GUATEMALA,,GT,,,,,
,visa,,,GUATEMALA,GUATEMALA,,GT,,,,,
,visa,,,GUATEMALA,GUATEMALA,,GT,,,,,
,visa,,,GUATEMALA,GUATEMALA,,GT,,,,,
,visa,,,GUATEMALA,GUATEMALA,,GT,,,,,
,visa,,,GUATEMALA,GUATEMALA,,GT,,,,,
,visa,,,GUATEMALA,GUATEMALA,,GT,,,,,
,visa,,,GUATEMALA,GUATEMALA,,GT,,,,,
,visa,,,VILLA CANALES,GUATEMALA,,GT,,,,,
,visa,,,GUATEMALA,GUATEMALA,,GT,,,,,
,visa,,,BOCA DEL MONTE,GUATEMALA,,GT,,,,,
,visa,,,GUATEMALA,GUATEMALA,,GT,,,,,
,visa,,,BOCA DEL MONTE,GUATEMALA,,GT,,,,,
,visa,,,VILLA CANALES,GUATEMALA,,GT,,,,,
,visa,,,VILLA CANALES,GUATEMALA,,GT,,,,,
,visa,,,GUATEMALA,GUATEMALA,,GT,,,,,
,visa,,,GUATEMALA,GUATEMALA,,GT,,,,,
,visa,,,GUATEMALA,GUATEMALA,,GT,,,,,
,visa,,,GUATEMALA,GUATEMALA,,GT,,,,,
,visa,,,GUATEMALA,GUATEMALA,,GT,,,,,
,visa,,,BOCA DEL MONTE,GUATEMALA,,GT,,,,,
,visa,,,GUATEMALA,GUATEMALA,,GT,,,,,
,visa,,,GUATEMALA,GUATEMALA,,GT,,,,,
,visa,,,GUATEMALA,GUATEMALA,,GT,,,,,
,visa,,,GUATEMALA,GUATEMALA,,GT,,,,,
,visa,,,GUATEMALA,GUATEMALA,,GT,,,,,
,visa,,,GUATEMALA,GUATEMALA,,GT,,,,,
,visa,,,GUATEMALA,GUATEMALA,,GT,,,,,
,visa,,,GUATEMALA,GUATEMALA,,GT,,,,,
,visa,,,VILLA CANALES,GUATEMALA,,GT,,,,,
,visa,,,GUATEMALA,GUATEMALA,,GT,,,,,
,visa,,,GUATEMALA,GUATEMALA,,GT,,,,,
,visa,,,GUATEMALA,GUATEMALA,,GT,,,,,
,visa,,,GUATEMALA,GUATEMALA,,GT,,,,,
,visa,,,SAN PEDRO SACATEPEQUEZ,GUATEMALA,,GT,,,,,
,visa,,,GUATEMALA,GUATEMALA,,GT,,,,,
,visa,,,GUATEMALA,GUATEMALA,,GT,,,,,
,visa,,,GUATEMALA,GUATEMALA,,GT,,,,,
,visa,,,GUATEMALA,GUATEMALA,,GT,,,,,
,visa,,,GUATEMALA,GUATEMALA,,GT,,,,,
,visa,,,GUATEMALA,GUATEMALA,,GT,,,,,
,visa,,,GUATEMALA,GUATEMALA,,GT,,,,,
,visa,,,VILLA CANALES,GUATEMALA,,GT,,,,,
,visa,,,GUATEMALA,GUATEMALA,,GT,,,,,
,visa,,,VILLA CANALES,GUATEMALA,,GT,,,,,
,visa,,,GUATEMALA,GUATEMALA,,GT,,,,,
,visa,,,VILLA CANALES,GUATEMALA,,GT,,,,,
,visa,,,GUATEMALA,GUATEMALA,,GT,,,,,
,visa,,,GUATEMALA,GUATEMALA,,GT,,,,,
,visa,,,GUATEMALA,GUATEMALA,,GT,,,,,
,visa,,,VILLA CANALES,GUATEMALA,,GT,,,,,
,visa,,,GUATEMALA,GUATEMALA,,GT,,,,,
,visa,,,GUATEMALA,GUATEMALA,,GT,,,,,
,visa,,,GUATEMALA,GUATEMALA,,GT,,,,,
,visa,,,GUATEMALA,GUATEMALA,,GT,,,,,
,visa,,,VILLA CANALES,GUATEMALA,,GT,,,,,
,visa,,,SAN MIGUEL PETAPA,GUATEMALA,,GT,,,,,
,visa,,,GUATEMALA,GUATEMALA,,GT,,,,,
,visa,,,VILLA CANALES,GUATEMALA,,GT,,,,,
,visa,,,GUATEMALA,GUATEMALA,,GT,,,,,
,visa,,,GUATEMALA,GUATEMALA,,GT,,,,,
,visa,,,VILLA CANALES,GUATEMALA,,GT,,,,,
,visa,,,GUATEMALA,GUATEMALA,,GT,,,,,
,visa,,,VILLA CANALES,GUATEMALA,,GT,,,,,
,visa,,,VILLA CANALES,GUATEMALA,,GT,,,,,
,visa,,,VILLA CANALES,GUATEMALA,,GT,,,,,
,visa,,,VILLA CANALES,GUATEMALA,,GT,,,,,
,visa,,,VILLA CANALES,GUATEMALA,,GT,,,,,
,visa,,,SAN MIGUEL PETAPA,GUATEMALA,,GT,,,,,
,visa,,,SAN MIGUEL PETAPA,GUATEMALA,,GT,,,,,
,visa,,,GUATEMALA,GUATEMALA,,GT,,,,,
,visa,,,GUATEMALA,GUATEMALA,,GT,,,,,
,visa,,,GUATEMALA,GUATEMALA,,GT,,,,,
,visa,,,GUATEMALA,GUATEMALA,,GT,,,,,
,visa,,,GUATEMALA,GUATEMALA,,GT,,,,,
,visa,,,GUATEMALA,GUATEMALA,,GT,,,,,
,visa,,,GUATEMALA,GUATEMALA,,GT,,,,,
,visa,,,MIXCO,GUATEMALA,,GT,,,,,
,visa,,,GUATEMALA,GUATEMALA,,GT,,,,,
,visa,,,GUATEMALA,GUATEMALA,,GT,,,,,
,visa,,,GUATEMALA,GUATEMALA,,GT,,,,,
,visa,,,GUATEMALA,GUATEMALA,,GT,,,,,
,visa,,,GUATEMALA,GUATEMALA,,GT,,,,,
,visa,,,GUATEMALA,GUATEMALA,,GT,,,,,
,visa,,,GUATEMALA,GUATEMALA,,GT,,,,,
,visa,,,GUATEMALA,GUATEMALA,,GT,,,,,
,visa,,,MIXCO,GUATEMALA,,GT,,,,,
,visa,,,GUATEMALA,GUATEMALA,,GT,,,,,
,visa,,,GUATEMALA,GUATEMALA,,GT,,,,,
,visa,,,GUATEMALA,GUATEMALA,,GT,,,,,
,visa,,,GUATEMALA,GUATEMALA,,GT,,,,,
,visa,,,MIXCO,GUATEMALA,,GT,,,,,
,visa,,,MIXCO,GUATEMALA,,GT,,,,,
,visa,,,MIXCO,GUATEMALA,,GT,,,,,
,visa,,,MIXCO,GUATEMALA,,GT,,,,,
,visa,,,MIXCO,GUATEMALA,,GT,,,,,
,visa,,,GUATEMALA,GUATEMALA,,GT,,,,,
,visa,,,MIXCO,GUATEMALA,,GT,,,,,
,visa,,,SAN MIGUEL PETAPA,GUATEMALA,,GT,,,,,
,visa,,,MIXCO,GUATEMALA,,GT,,,,,
,visa,,,MIXCO,GUATEMALA,,GT,,,,,
,visa,,,GUATEMALA,GUATEMALA,,GT,,,,,
,visa,,,MIXCO,GUATEMALA,,GT,,,,,
,visa,,,MIXCO,GUATEMALA,,GT,,,,,
,visa,,,MIXCO,GUATEMALA,,GT,,,,,
,visa,,,GUATEMALA,GUATEMALA,,GT,,,,,
,visa,,,GUATEMALA,GUATEMALA,,GT,,,,,
,visa,,,MIXCO,GUATEMALA,,GT,,,,,
,visa,,,GUATEMALA,GUATEMALA,,GT,,,,,
,visa,,,GUATEMALA,GUATEMALA,,GT,,,,,
,visa,,,GUATEMALA,GUATEMALA,,GT,,,,,
,visa,,,GUATEMALA,GUATEMALA,,GT,,,,,
,visa,,,GUATEMALA,GUATEMALA,,GT,,,,,
,visa,,,MIXCO,GUATEMALA,,GT,,,,,
,visa,,,GUATEMALA,GUATEMALA,,GT,,,,,
,visa,,,GUATEMALA,GUATEMALA,,GT,,,,,
,visa,,,GUATEMALA,GUATEMALA,,GT,,,,,
,visa,,,MIXCO,GUATEMALA,,GT,,,,,
,visa,,,VILLA NUEVA,GUATEMALA,,GT,,,,,
,visa,,,SAN MIGUEL PETAPA,GUATEMALA,,GT,,,,,
,visa,,,GUATEMALA,GUATEMALA,,GT,,,,,
,visa,,,GUATEMALA,GUATEMALA,,GT,,,,,
,visa,,,MIXCO,GUATEMALA,,GT,,,,,
,visa,,,GUATEMALA,GUATEMALA,,GT,,,,,
,visa,,,GUATEMALA,GUATEMALA,,GT,,,,,
,visa,,,GUATEMALA,GUATEMALA,,GT,,,,,
,visa,,,GUATEMALA,GUATEMALA,,GT,,,,,
,visa,,,GUATEMALA,GUATEMALA,,GT,,,,,
,visa,,,VILLA CANALES,GUATEMALA,,GT,,,,,
,visa,,,GUATEMALA,GUATEMALA,,GT,,,,,
,visa,,,SAN MIGUEL PETAPA,GUATEMALA,,GT,,,,,
,visa,,,VILLA CANALES,GUATEMALA,,GT,,,,,
,visa,,,GUATEMALA,GUATEMALA,,GT,,,,,
,visa,,,MIXCO,GUATEMALA,,GT,,,,,
,visa,,,GUATEMALA,GUATEMALA,,GT,,,,,
,visa,,,GUATEMALA,GUATEMALA,,GT,,,,,
,visa,,,SAN MIGUEL PETAPA,GUATEMALA,,GT,,,,,
,visa,,,SAN MIGUEL PETAPA,GUATEMALA,,GT,,,,,
,visa,,,SAN MIGUEL PETAPA,GUATEMALA,,GT,,,,,
,visa,,,GUATEMALA,GUATEMALA,,GT,,,,,
,visa,,,GUATEMALA,GUATEMALA,,GT,,,,,
,visa,,,GUATEMALA,GUATEMALA,,GT,,,,,
,visa,,,GUATEMALA,GUATEMALA,,GT,,,,,
,visa,,,GUATEMALA,GUATEMALA,,GT,,,,,
,visa,,,GUATEMALA,GUATEMALA,,GT,,,,,
,visa,,,VILLA CANALES,GUATEMALA,,GT,,,,,
,visa,,,GUATEMALA,GUATEMALA,,GT,,,,,
,visa,,,VILLA CANALES,GUATEMALA,,GT,,,,,
,visa,,,SAN MIGUEL PETAPA,GUATEMALA,,GT,,,,,
,visa,,,MIXCO,GUATEMALA,,GT,,,,,
,visa,,,MIXCO,GUATEMALA,,GT,,,,,
,visa,,,GUATEMALA,GUATEMALA,,GT,,,,,
,visa,,,GUATEMALA,GUATEMALA,,GT,,,,,
,visa,,,GUATEMALA,GUATEMALA,,GT,,,,,
,visa,,,GUATEMALA,GUATEMALA,,GT,,,,,
,visa,,,MIXCO,GUATEMALA,,GT,,,,,
,visa,,,GUATEMALA,GUATEMALA,,GT,,,,,
,visa,,,GUATEMALA,GUATEMALA,,GT,,,,,
,visa,,,GUATEMALA,GUATEMALA,,GT,,,,,
,visa,,,GUATEMALA,GUATEMALA,,GT,,,,,
,visa,,,GUATEMALA,GUATEMALA,,GT,,,,,
,visa,,,GUATEMALA,GUATEMALA,,GT,,,,,
,visa,,,GUATEMALA,GUATEMALA,,GT,,,,,
,visa,,,GUATEMALA,GUATEMALA,,GT,,,,,
,visa,,,GUATEMALA,GUATEMALA,,GT,,,,,
,visa,,,SAN MIGUEL PETAPA,GUATEMALA,,GT,,,,,
,visa,,,MIXCO,GUATEMALA,,GT,,,,,
,visa,,,MIXCO,GUATEMALA,,GT,,,,,
,visa,,,MIXCO,GUATEMALA,,GT,,,,,
,visa,,,GUATEMALA,GUATEMALA,,GT,,,,,
,visa,,,GUATEMALA,GUATEMALA,,GT,,,,,
,visa,,,SAN MIGUEL PETAPA,GUATEMALA,,GT,,,,,
,visa,,,GUATEMALA,GUATEMALA,,GT,,,,,
,visa,,,GUATEMALA,GUATEMALA,,GT,,,,,
,visa,,,GUATEMALA,GUATEMALA,,GT,,,,,
,visa,,,GUATEMALA,GUATEMALA,,GT,,,,,
,visa,,,GUATEMALA,GUATEMALA,,GT,,,,,
,visa,,,GUATEMALA,GUATEMALA,,GT,,,,,
,visa,,,GUATEMALA,GUATEMALA,,GT,,,,,
,visa,,,GUATEMALA,GUATEMALA,,GT,,,,,
,visa,,,GUATEMALA,GUATEMALA,,GT,,,,,
,visa,,,GUATEMALA,GUATEMALA,,GT,,,,,
,visa,,,GUATEMALA,GUATEMALA,,GT,,,,,
,visa,,,GUATEMALA,GUATEMALA,,GT,,,,,
,visa,,,GUATEMALA,GUATEMALA,,GT,,,,,
,visa,,,GUATEMALA,GUATEMALA,,GT,,,,,
,visa,,,GUATEMALA,GUATEMALA,,GT,,,,,
,visa,,,SAN JUAN SACATEPEQUEZ,GUATEMALA,,GT,,,,,
,visa,,,GUATEMALA,GUATEMALA,,GT,,,,,
,visa,,,GUATEMALA,GUATEMALA,,GT,,,,,
,visa,,,GUATEMALA,GUATEMALA,,GT,,,,,
,visa,,,GUATEMALA,GUATEMALA,,GT,,,,,
,visa,,,GUATEMALA,GUATEMALA,,GT,,,,,
,visa,,,GUATEMALA,GUATEMALA,,GT,,,,,
,visa,,,GUATEMALA,GUATEMALA,,GT,,,,,
,visa,,,GUATEMALA,GUATEMALA,,GT,,,,,
,visa,,,GUATEMALA,GUATEMALA,,GT,,,,,
,visa,,,GUATEMALA,GUATEMALA,,GT,,,,,
,visa,,,GUATEMALA,GUATEMALA,,GT,,,,,
,visa,,,GUATEMALA,GUATEMALA,,GT,,,,,
,visa,,,GUATEMALA,GUATEMALA,,GT,,,,,
,visa,,,GUATEMALA,GUATEMALA,,GT,,,,,
,visa,,,GUATEMALA,GUATEMALA,,GT,,,,,
,visa,,,SAN MIGUEL PETAPA,GUATEMALA,,GT,,,,,
,visa,,,GUATEMALA,GUATEMALA,,GT,,,,,
,visa,,,GUATEMALA,GUATEMALA,,GT,,,,,
,visa,,,GUATEMALA,GUATEMALA,,GT,,,,,
,visa,,,GUATEMALA,GUATEMALA,,GT,,,,,
,visa,,,GUATEMALA,GUATEMALA,,GT,,,,,
,visa,,,GUATEMALA,GUATEMALA,,GT,,,,,
,visa,,,GUATEMALA,GUATEMALA,,GT,,,,,
,visa,,,GUATEMALA,GUATEMALA,,GT,,,,,
,visa,,,GUATEMALA,GUATEMALA,,GT,,,,,
,visa,,,MIXCO,GUATEMALA,,GT,,,,,
,visa,,,GUATEMALA,GUATEMALA,,GT,,,,,
,visa,,,GUATEMALA,GUATEMALA,,GT,,,,,
,visa,,,GUATEMALA,GUATEMALA,,GT,,,,,
,visa,,,SAN JUAN SACATEPEQUEZ,GUATEMALA,,GT,,,,,
,visa,,,GUATEMALA,GUATEMALA,,GT,,,,,
,visa,,,SAN MIGUEL PETAPA,GUATEMALA,,GT,,,,,
,visa,,,GUATEMALA,GUATEMALA,,GT,,,,,
,visa,,,GUATEMALA,GUATEMALA,,GT,,,,,
,visa,,,GUATEMALA,GUATEMALA,,GT,,,,,
,visa,,,GUATEMALA,GUATEMALA,,GT,,,,,
,visa,,,GUATEMALA,GUATEMALA,,GT,,,,,
,visa,,,GUATEMALA,GUATEMALA,,GT,,,,,
,visa,,,GUATEMALA,GUATEMALA,,GT,,,,,
,visa,,,GUATEMALA,GUATEMALA,,GT,,,,,
,visa,,,SAN MIGUEL PETAPA,GUATEMALA,,GT,,,,,
,visa,,,GUATEMALA,GUATEMALA,,GT,,,,,
,visa,,,SAN MIGUEL PETAPA,GUATEMALA,,GT,,,,,
,visa,,,GUATEMALA,GUATEMALA,,GT,,,,,
,visa,,,GUATEMALA,GUATEMALA,,GT,,,,,
,visa,,,GUATEMALA,GUATEMALA,,GT,,,,,
,visa,,,GUATEMALA,GUATEMALA,,GT,,,,,
,visa,,,GUATEMALA,GUATEMALA,,GT,,,,,
,visa,,,GUATEMALA,GUATEMALA,,GT,,,,,
,visa,,,SAN MIGUEL PETAPA,GUATEMALA,,GT,,,,,
,visa,,,GUATEMALA,GUATEMALA,,GT,,,,,
,visa,,,GUATEMALA,GUATEMALA,,GT,,,,,
,visa,,,SAN MIGUEL PETAPA,GUATEMALA,,GT,,,,,
,visa,,,GUATEMALA,GUATEMALA,,GT,,,,,
,visa,,,SAN MIGUEL PETAPA,GUATEMALA,,GT,,,,,
,visa,,,GUATEMALA,GUATEMALA,,GT,,,,,
,visa,,,SAN MIGUEL PETAPA,GUATEMALA,,GT,,,,,
,visa,,,GUATEMALA,GUATEMALA,,GT,,,,,
,visa,,,SAN MIGUEL PETAPA,GUATEMALA,,GT,,,,,
,visa,,,SAN MIGUEL PETAPA,GUATEMALA,,GT,,,,,
,visa,,,MIXCO,GUATEMALA,,GT,,,,,
,visa,,,GUATEMALA,GUATEMALA,,GT,,,,,
,visa,,,GUATEMALA,GUATEMALA,,GT,,,,,
,visa,,,GUATEMALA,GUATEMALA,,GT,,,,,
,visa,,,SAN MIGUEL PETAPA,GUATEMALA,,GT,,,,,
,visa,,,GUATEMALA,GUATEMALA,,GT,,,,,
,visa,,,GUATEMALA,GUATEMALA,,GT,,,,,
,visa,,,GUATEMALA,GUATEMALA,,GT,,,,,
,visa,,,GUATEMALA,GUATEMALA,,GT,,,,,
,visa,,,GUATEMALA,GUATEMALA,,GT,,,,,
,visa,,,GUATEMALA,GUATEMALA,,GT,,,,,
,visa,,,GUATEMALA,GUATEMALA,,GT,,,,,
,visa,,,GUATEMALA,GUATEMALA,,GT,,,,,
,visa,,,MIXCO,GUATEMALA,,GT,,,,,
,visa,,,MIXCO,GUATEMALA,,GT,,,,,
,visa,,,GUATEMALA,GUATEMALA,,GT,,,,,
,visa,,,VILLA NUEVA,GUATEMALA,,GT,,,,,
,visa,,,VILLA NUEVA,GUATEMALA,,GT,,,,,
,visa,,,GUATEMALA,GUATEMALA,,GT,,,,,
,visa,,,GUATEMALA,GUATEMALA,,GT,,,,,
,visa,,,GUATEMALA,GUATEMALA,,GT,,,,,
,visa,,,GUATEMALA,GUATEMALA,,GT,,,,,
,visa,,,GUATEMALA,GUATEMALA,,GT,,,,,
,visa,,,GUATEMALA,GUATEMALA,,GT,,,,,
,visa,,,GUATEMALA,GUATEMALA,,GT,,,,,
,visa,,,GUATEMALA,GUATEMALA,,GT,,,,,
,visa,,,GUATEMALA,GUATEMALA,,GT,,,,,
,visa,,,SAN MIGUEL PETAPA,GUATEMALA,,GT,,,,,
,visa,,,VILLA NUEVA,GUATEMALA,,GT,,,,,
,visa,,,GUATEMALA,GUATEMALA,,GT,,,,,
,visa,,,GUATEMALA,GUATEMALA,,GT,,,,,
,visa,,,GUATEMALA,GUATEMALA,,GT,,,,,
,visa,,,GUATEMALA,GUATEMALA,,GT,,,,,
,visa,,,GUATEMALA,GUATEMALA,,GT,,,,,
,visa,,,MIXCO,GUATEMALA,,GT,,,,,
,visa,,,GUATEMALA,GUATEMALA,,GT,,,,,
,visa,,,GUATEMALA,GUATEMALA,,GT,,,,,
,visa,,,GUATEMALA,GUATEMALA,,GT,,,,,
,visa,,,GUATEMALA,GUATEMALA,,GT,,,,,
,visa,,,SAN MIGUEL PETAPA,GUATEMALA,,GT,,,,,
,visa,,,GUATEMALA,GUATEMALA,,GT,,,,,
,visa,,,GUATEMALA,GUATEMALA,,GT,,,,,
,visa,,,GUATEMALA,GUATEMALA,,GT,,,,,
,visa,,,SAN JUAN SACATEPEQUEZ,GUATEMALA,,GT,,,,,
,visa,,,GUATEMALA,GUATEMALA,,GT,,,,,
,visa,,,GUATEMALA,GUATEMALA,,GT,,,,,
,visa,,,GUATEMALA,GUATEMALA,,GT,,,,,
,visa,,,GUATEMALA,GUATEMALA,,GT,,,,,
,visa,,,MIXCO,GUATEMALA,,GT,,,,,
,visa,,,MIXCO,GUATEMALA,,GT,,,,,
,visa,,,GUATEMALA,GUATEMALA,,GT,,,,,
,visa,,,SAN MIGUEL PETAPA,GUATEMALA,,GT,,,,,
,visa,,,GUATEMALA,GUATEMALA,,GT,,,,,
,visa,,,SAN MIGUEL PETAPA,GUATEMALA,,GT,,,,,
,visa,,,SAN MIGUEL PETAPA,GUATEMALA,,GT,,,,,
,visa,,,GUATEMALA,GUATEMALA,,GT,,,,,
,visa,,,GUATEMALA,GUATEMALA,,GT,,,,,
,visa,,,MIXCO,GUATEMALA,,GT,,,,,
,visa,,,GUATEMALA,GUATEMALA,,GT,,,,,
,visa,,,GUATEMALA,GUATEMALA,,GT,,,,,
,visa,,,MIXCO,GUATEMALA,,GT,,,,,
,visa,,,GUATEMALA,GUATEMALA,,GT,,,,,
,visa,,,VILLA NUEVA,GUATEMALA,,GT,,,,,
,visa,,,VILLA NUEVA,GUATEMALA,,GT,,,,,
,visa,,,VILLA NUEVA,GUATEMALA,,GT,,,,,
,visa,,,GUATEMALA,GUATEMALA,,GT,,,,,
,visa,,,VILLA NUEVA,GUATEMALA,,GT,,,,,
,visa,,,VILLA NUEVA,GUATEMALA,,GT,,,,,
,visa,,,MIXCO,GUATEMALA,,GT,,,,,
,visa,,,VILLA NUEVA,GUATEMALA,,GT,,,,,
,visa,,,VILLA NUEVA,GUATEMALA,,GT,,,,,
,visa,,,VILLA NUEVA,GUATEMALA,,GT,,,,,
,visa,,,GUATEMALA,GUATEMALA,,GT,,,,,
,visa,,,VILLA NUEVA,GUATEMALA,,GT,,,,,
,visa,,,VILLA NUEVA,GUATEMALA,,GT,,,,,
,visa,,,VILLA NUEVA,GUATEMALA,,GT,,,,,
,visa,,,VILLA NUEVA,GUATEMALA,,GT,,,,,
,visa,,,VILLA NUEVA,GUATEMALA,,GT,,,,,
,visa,,,VILLA NUEVA,GUATEMALA,,GT,,,,,
,visa,,,SAN MIGUEL PETAPA,GUATEMALA,,GT,,,,,
,visa,,,VILLA NUEVA,GUATEMALA,,GT,,,,,
,visa,,,VILLA NUEVA,GUATEMALA,,GT,,,,,
,visa,,,MIXCO,GUATEMALA,,GT,,,,,
,visa,,,SAN MIGUEL PETAPA,GUATEMALA,,GT,,,,,
,visa,,,GUATEMALA,GUATEMALA,,GT,,,,,
,visa,,,GUATEMALA,GUATEMALA,,GT,,,,,
,visa,,,GUATEMALA,GUATEMALA,,GT,,,,,
,visa,,,VILLA NUEVA,GUATEMALA,,GT,,,,,
,visa,,,GUATEMALA,GUATEMALA,,GT,,,,,
,visa,,,GUATEMALA,GUATEMALA,,GT,,,,,
,visa,,,MIXCO,GUATEMALA,,GT,,,,,
,visa,,,GUATEMALA,GUATEMALA,,GT,,,,,
,visa,,,VILLA NUEVA,GUATEMALA,,GT,,,,,
,visa,,,MIXCO,GUATEMALA,,GT,,,,,
,visa,,,VILLA NUEVA,GUATEMALA,,GT,,,,,
,visa,,,VILLA NUEVA,GUATEMALA,,GT,,,,,
,visa,,,SAN MIGUEL PETAPA,GUATEMALA,,GT,,,,,
,visa,,,MIXCO,GUATEMALA,,GT,,,,,
,visa,,,MIXCO,GUATEMALA,,GT,,,,,
,visa,,,MIXCO,GUATEMALA,,GT,,,,,
,visa,,,MIXCO,GUATEMALA,,GT,,,,,
,visa,,,MIXCO,GUATEMALA,,GT,,,,,
,visa,,,MIXCO,GUATEMALA,,GT,,,,,
,visa,,,MIXCO,GUATEMALA,,GT,,,,,
,visa,,,MIXCO,GUATEMALA,,GT,,,,,
,visa,,,VILLA NUEVA,GUATEMALA,,GT,,,,,
,visa,,,MIXCO,GUATEMALA,,GT,,,,,
,visa,,,VILLA NUEVA,GUATEMALA,,GT,,,,,
,visa,,,MIXCO,GUATEMALA,,GT,,,,,
,visa,,,MIXCO,GUATEMALA,,GT,,,,,
,visa,,,MIXCO,GUATEMALA,,GT,,,,,
,visa,,,MIXCO,GUATEMALA,,GT,,,,,
,visa,,,MIXCO,GUATEMALA,,GT,,,,,
,visa,,,MIXCO,GUATEMALA,,GT,,,,,
,visa,,,MIXCO,GUATEMALA,,GT,,,,,
,visa,,,MIXCO,GUATEMALA,,GT,,,,,
,visa,,,MIXCO,GUATEMALA,,GT,,,,,
,visa,,,GUATEMALA,GUATEMALA,,GT,,,,,
,visa,,,GUATEMALA,GUATEMALA,,GT,,,,,
,visa,,,MIXCO,GUATEMALA,,GT,,,,,
,visa,,,GUATEMALA,GUATEMALA,,GT,,,,,
,visa,,,GUATEMALA,GUATEMALA,,GT,,,,,
,visa,,,MIXCO,GUATEMALA,,GT,,,,,
,visa,,,MIXCO,GUATEMALA,,GT,,,,,
,visa,,,GUATEMALA,GUATEMALA,,GT,,,,,
,visa,,,VILLA NUEVA,GUATEMALA,,GT,,,,,
,visa,,,VILLA NUEVA,GUATEMALA,,GT,,,,,
,visa,,,VILLA NUEVA,GUATEMALA,,GT,,,,,
,visa,,,SAN MIGUEL PETAPA,GUATEMALA,,GT,,,,,
,visa,,,VILLA NUEVA,GUATEMALA,,GT,,,,,
,visa,,,GUATEMALA,GUATEMALA,,GT,,,,,
,visa,,,MIXCO,GUATEMALA,,GT,,,,,
,visa,,,GUATEMALA,GUATEMALA,,GT,,,,,
,visa,,,MIXCO,GUATEMALA,,GT,,,,,
,visa,,,SAN JUAN SACATEPEQUEZ,GUATEMALA,,GT,,,,,
,visa,,,VILLA CANALES,GUATEMALA,,GT,,,,,
,visa,,,MIXCO,GUATEMALA,,GT,,,,,
,visa,,,VILLA NUEVA,GUATEMALA,,GT,,,,,
,visa,,,VILLA NUEVA,GUATEMALA,,GT,,,,,
,visa,,,GUATEMALA,GUATEMALA,,GT,,,,,
,visa,,,VILLA NUEVA,GUATEMALA,,GT,,,,,
,visa,,,MIXCO,GUATEMALA,,GT,,,,,
,visa,,,MIXCO,GUATEMALA,,GT,,,,,
,visa,,,MIXCO,GUATEMALA,,GT,,,,,
,visa,,,MIXCO,GUATEMALA,,GT,,,,,
,visa,,,MIXCO,GUATEMALA,,GT,,,,,
,visa,,,MIXCO,GUATEMALA,,GT,,,,,
,visa,,,MIXCO,GUATEMALA,,GT,,,,,
,visa,,,MIXCO,GUATEMALA,,GT,,,,,
,visa,,,VILLA NUEVA,GUATEMALA,,GT,,,,,
,visa,,,MIXCO,GUATEMALA,,GT,,,,,
,visa,,,MIXCO,GUATEMALA,,GT,,,,,
,visa,,,MIXCO,GUATEMALA,,GT,,,,,
,visa,,,VILLA NUEVA,GUATEMALA,,GT,,,,,
,visa,,,MIXCO,GUATEMALA,,GT,,,,,
,visa,,,SAN JUAN SACATEPEQUEZ,GUATEMALA,,GT,,,,,
,visa,,,SAN JUAN SACATEPEQUEZ,GUATEMALA,,GT,,,,,
,visa,,,GUATEMALA,GUATEMALA,,GT,,,,,
,visa,,,SAN JUAN SACATEPEQUEZ,GUATEMALA,,GT,,,,,
,visa,,,SAN JUAN SACATEPEQUEZ,GUATEMALA,,GT,,,,,
,visa,,,SAN JUAN SACATEPEQUEZ,GUATEMALA,,GT,,,,,
,visa,,,MIXCO,GUATEMALA,,GT,,,,,
,visa,,,MIXCO,GUATEMALA,,GT,,,,,
,visa,,,VILLA NUEVA,GUATEMALA,,GT,,,,,
,visa,,,SAN JUAN SACATEPEQUEZ,GUATEMALA,,GT,,,,,
,visa,,,SAN JUAN SACATEPEQUEZ,GUATEMALA,,GT,,,,,
,visa,,,VILLA NUEVA,GUATEMALA,,GT,,,,,
,visa,,,MIXCO,GUATEMALA,,GT,,,,,
,visa,,,SAN JUAN SACATEPEQUEZ,GUATEMALA,,GT,,,,,
,visa,,,GUATEMALA,GUATEMALA,,GT,,,,,
,visa,,,SAN JUAN SACATEPEQUEZ,GUATEMALA,,GT,,,,,
,visa,,,VILLA NUEVA,GUATEMALA,,GT,,,,,
,visa,,,GUATEMALA,GUATEMALA,,GT,,,,,
,visa,,,GUATEMALA,GUATEMALA,,GT,,,,,
,visa,,,MIXCO,GUATEMALA,,GT,,,,,
,visa,,,MIXCO,GUATEMALA,,GT,,,,,
,visa,,,VILLA NUEVA,GUATEMALA,,GT,,,,,
,visa,,,SAN JUAN SACATEPEQUEZ,GUATEMALA,,GT,,,,,
,visa,,,GUATEMALA,GUATEMALA,,GT,,,,,
,visa,,,GUATEMALA,GUATEMALA,,GT,,,,,
,visa,,,VILLA NUEVA,GUATEMALA,,GT,,,,,
,visa,,,VILLA NUEVA,GUATEMALA,,GT,,,,,
,visa,,,MIXCO,GUATEMALA,,GT,,,,,
,visa,,,MIXCO,GUATEMALA,,GT,,,,,
,visa,,,GUATEMALA,GUATEMALA,,GT,,,,,
,visa,,,MIXCO,GUATEMALA,,GT,,,,,
,visa,,,MIXCO,GUATEMALA,,GT,,,,,
,visa,,,MIXCO,GUATEMALA,,GT,,,,,
,visa,,,GUATEMALA,GUATEMALA,,GT,,,,,
,visa,,,VILLA NUEVA,GUATEMALA,,GT,,,,,
,visa,,,VILLA NUEVA,GUATEMALA,,GT,,,,,
,visa,,,VILLA NUEVA,GUATEMALA,,GT,,,,,
,visa,,,MIXCO,GUATEMALA,,GT,,,,,
,visa,,,MIXCO,GUATEMALA,,GT,,,,,
,visa,,,MIXCO,GUATEMALA,,GT,,,,,
,visa,,,MIXCO,GUATEMALA,,GT,,,,,
,visa,,,MIXCO,GUATEMALA,,GT,,,,,
,visa,,,MIXCO,GUATEMALA,,GT,,,,,
,visa,,,VILLA NUEVA,GUATEMALA,,GT,,,,,
,visa,,,MIXCO,GUATEMALA,,GT,,,,,
,visa,,,MIXCO,GUATEMALA,,GT,,,,,
,visa,,,MIXCO,GUATEMALA,,GT,,,,,
,visa,,,MIXCO,GUATEMALA,,GT,,,,,
,visa,,,MIXCO,GUATEMALA,,GT,,,,,
,visa,,,MIXCO,GUATEMALA,,GT,,,,,
,visa,,,MIXCO,GUATEMALA,,GT,,,,,
,visa,,,MIXCO,GUATEMALA,,GT,,,,,
,visa,,,MIXCO,GUATEMALA,,GT,,,,,
,visa,,,MIXCO,GUATEMALA,,GT,,,,,
,visa,,,MIXCO,GUATEMALA,,GT,,,,,
,visa,,,MIXCO,GUATEMALA,,GT,,,,,
,visa,,,MIXCO,GUATEMALA,,GT,,,,,
,visa,,,MIXCO,GUATEMALA,,GT,,,,,
,visa,,,MIXCO,GUATEMALA,,GT,,,,,
,visa,,,VILLA NUEVA,GUATEMALA,,GT,,,,,
,visa,,,MIXCO,GUATEMALA,,GT,,,,,
,visa,,,VILLA NUEVA,GUATEMALA,,GT,,,,,
,visa,,,MIXCO,GUATEMALA,,GT,,,,,
,visa,,,SANTA CATARINA PINULA,GUATEMALA,,GT,,,,,
,visa,,,MIXCO,GUATEMALA,,GT,,,,,
,visa,,,MIXCO,GUATEMALA,,GT,,,,,
,visa,,,VILLA NUEVA,GUATEMALA,,GT,,,,,
,visa,,,GUATEMALA,GUATEMALA,,GT,,,,,
,visa,,,MIXCO,GUATEMALA,,GT,,,,,
,visa,,,MIXCO,GUATEMALA,,GT,,,,,
,visa,,,VILLA NUEVA,GUATEMALA,,GT,,,,,
,visa,,,MIXCO,GUATEMALA,,GT,,,,,
,visa,,,MIXCO,GUATEMALA,,GT,,,,,
,visa,,,MIXCO,GUATEMALA,,GT,,,,,
,visa,,,MIXCO,GUATEMALA,,GT,,,,,
,visa,,,VILLA NUEVA,GUATEMALA,,GT,,,,,
,visa,,,VILLA NUEVA,GUATEMALA,,GT,,,,,
,visa,,,SAN JUAN SACATEPEQUEZ,GUATEMALA,,GT,,,,,
,visa,,,MIXCO,GUATEMALA,,GT,,,,,
,visa,,,VILLA NUEVA,GUATEMALA,,GT,,,,,
,visa,,,MIXCO,GUATEMALA,,GT,,,,,
,visa,,,GUATEMALA,GUATEMALA,,GT,,,,,
,visa,,,VILLA NUEVA,GUATEMALA,,GT,,,,,
,visa,,,VILLA NUEVA,GUATEMALA,,GT,,,,,
,visa,,,VILLA NUEVA,GUATEMALA,,GT,,,,,
,visa,,,VILLA NUEVA,GUATEMALA,,GT,,,,,
,visa,,,VILLA NUEVA,GUATEMALA,,GT,,,,,
,visa,,,MIXCO,GUATEMALA,,GT,,,,,
,visa,,,MIXCO,GUATEMALA,,GT,,,,,
,visa,,,MIXCO,GUATEMALA,,GT,,,,,
,visa,,,MIXCO,GUATEMALA,,GT,,,,,
,visa,,,MIXCO,GUATEMALA,,GT,,,,,
,visa,,,MIXCO,GUATEMALA,,GT,,,,,
,visa,,,MIXCO,GUATEMALA,,GT,,,,,
,visa,,,VILLA NUEVA,GUATEMALA,,GT,,,,,
,visa,,,MIXCO,GUATEMALA,,GT,,,,,
,visa,,,MIXCO,GUATEMALA,,GT,,,,,
,visa,,,MIXCO,GUATEMALA,,GT,,,,,
,visa,,,MIXCO,GUATEMALA,,GT,,,,,
,visa,,,VILLA NUEVA,GUATEMALA,,GT,,,,,
,visa,,,VILLA NUEVA,GUATEMALA,,GT,,,,,
,visa,,,MIXCO,GUATEMALA,,GT,,,,,
,visa,,,GUATEMALA,GUATEMALA,,GT,,,,,
,visa,,,VILLA NUEVA,GUATEMALA,,GT,,,,,
,visa,,,MIXCO,GUATEMALA,,GT,,,,,
,visa,,,VILLA NUEVA,GUATEMALA,,GT,,,,,
,visa,,,VILLA NUEVA,GUATEMALA,,GT,,,,,
,visa,,,VILLA NUEVA,GUATEMALA,,GT,,,,,
,visa,,,VILLA NUEVA,GUATEMALA,,GT,,,,,
,visa,,,VILLA NUEVA,GUATEMALA,,GT,,,,,
,visa,,,VILLA NUEVA,GUATEMALA,,GT,,,,,
,visa,,,MIXCO,GUATEMALA,,GT,,,,,
,visa,,,VILLA NUEVA,GUATEMALA,,GT,,,,,
,visa,,,MIXCO,GUATEMALA,,GT,,,,,
,visa,,,VILLA NUEVA,GUATEMALA,,GT,,,,,
,visa,,,GUATEMALA,GUATEMALA,,GT,,,,,
,visa,,,VILLA NUEVA,GUATEMALA,,GT,,,,,
,visa,,,MIXCO,GUATEMALA,,GT,,,,,
,visa,,,MIXCO,GUATEMALA,,GT,,,,,
,visa,,,VILLA NUEVA,GUATEMALA,,GT,,,,,
,visa,,,VILLA NUEVA,GUATEMALA,,GT,,,,,
,visa,,,MIXCO,GUATEMALA,,GT,,,,,
,visa,,,VILLA NUEVA,GUATEMALA,,GT,,,,,
,visa,,,MIXCO,GUATEMALA,,GT,,,,,
,visa,,,MIXCO,GUATEMALA,,GT,,,,,
,visa,,,VILLA NUEVA,GUATEMALA,,GT,,,,,
,visa,,,MIXCO,GUATEMALA,,GT,,,,,
,visa,,,MIXCO,GUATEMALA,,GT,,,,,
,visa,,,SAN RAYMUNDO,GUATEMALA,,GT,,,,,
,visa,,,SAN RAYMUNDO,GUATEMALA,,GT,,,,,
,visa,,,MIXCO,GUATEMALA,,GT,,,,,
,visa,,,MIXCO,GUATEMALA,,GT,,,,,
,visa,,,SAN RAYMUNDO,GUATEMALA,,GT,,,,,
,visa,,,MIXCO,GUATEMALA,,GT,,,,,
,visa,,,MIXCO,GUATEMALA,,GT,,,,,
,visa,,,VILLA NUEVA,GUATEMALA,,GT,,,,,
,visa,,,MIXCO,GUATEMALA,,GT,,,,,
,visa,,,MIXCO,GUATEMALA,,GT,,,,,
,visa,,,VILLA NUEVA,GUATEMALA,,GT,,,,,
,visa,,,VILLA NUEVA,GUATEMALA,,GT,,,,,
,visa,,,VILLA NUEVA,GUATEMALA,,GT,,,,,
,visa,,,VILLA NUEVA,GUATEMALA,,GT,,,,,
,visa,,,MIXCO,GUATEMALA,,GT,,,,,
,visa,,,VILLA NUEVA,GUATEMALA,,GT,,,,,
,visa,,,MIXCO,GUATEMALA,,GT,,,,,
,visa,,,VILLA NUEVA,GUATEMALA,,GT,,,,,
,visa,,,VILLA NUEVA,GUATEMALA,,GT,,,,,
,visa,,,MIXCO,GUATEMALA,,GT,,,,,
,visa,,,VILLA NUEVA,GUATEMALA,,GT,,,,,
,visa,,,VILLA NUEVA,GUATEMALA,,GT,,,,,
,visa,,,VILLA NUEVA,GUATEMALA,,GT,,,,,
,visa,,,SAN JUAN SACATEPEQUEZ,GUATEMALA,,GT,,,,,
,visa,,,VILLA NUEVA,GUATEMALA,,GT,,,,,
,visa,,,VILLA NUEVA,GUATEMALA,,GT,,,,,
,visa,,,MIXCO,GUATEMALA,,GT,,,,,
,visa,,,MIXCO,GUATEMALA,,GT,,,,,
,visa,,,MIXCO,GUATEMALA,,GT,,,,,
,visa,,,SAN JUAN SACATEPEQUEZ,GUATEMALA,,GT,,,,,
,visa,,,VILLA NUEVA,GUATEMALA,,GT,,,,,
,visa,,,VILLA NUEVA,GUATEMALA,,GT,,,,,
,visa,,,VILLA NUEVA,GUATEMALA,,GT,,,,,
,visa,,,VILLA NUEVA,GUATEMALA,,GT,,,,,
,visa,,,VILLA NUEVA,GUATEMALA,,GT,,,,,
,visa,,,VILLA NUEVA,GUATEMALA,,GT,,,,,
,visa,,,VILLA NUEVA,GUATEMALA,,GT,,,,,
,visa,,,VILLA NUEVA,GUATEMALA,,GT,,,,,
,visa,,,VILLA NUEVA,GUATEMALA,,GT,,,,,
,visa,,,MIXCO,GUATEMALA,,GT,,,,,
,visa,,,MIXCO,GUATEMALA,,GT,,,,,
,visa,,,MIXCO,GUATEMALA,,GT,,,,,
,visa,,,MIXCO,GUATEMALA,,GT,,,,,
,visa,,,VILLA NUEVA,GUATEMALA,,GT,,,,,
,visa,,,VILLA NUEVA,GUATEMALA,,GT,,,,,
,visa,,,MIXCO,GUATEMALA,,GT,,,,,
,visa,,,VILLA NUEVA,GUATEMALA,,GT,,,,,
,visa,,,MIXCO,GUATEMALA,,GT,,,,,
,visa,,,VILLA NUEVA,GUATEMALA,,GT,,,,,
,visa,,,MIXCO,GUATEMALA,,GT,,,,,
,visa,,,VILLA NUEVA,GUATEMALA,,GT,,,,,
,visa,,,MIXCO,GUATEMALA,,GT,,,,,
,visa,,,VILLA NUEVA,GUATEMALA,,GT,,,,,
,visa,,,MIXCO,GUATEMALA,,GT,,,,,
,visa,,,MIXCO,GUATEMALA,,GT,,,,,
,visa,,,MIXCO,GUATEMALA,,GT,,,,,
,visa,,,MIXCO,GUATEMALA,,GT,,,,,
,visa,,,VILLA NUEVA,GUATEMALA,,GT,,,,,
,visa,,,VILLA NUEVA,GUATEMALA,,GT,,,,,
,visa,,,MIXCO,GUATEMALA,,GT,,,,,
,visa,,,MIXCO,GUATEMALA,,GT,,,,,
,visa,,,MIXCO,GUATEMALA,,GT,,,,,
,visa,,,VILLA NUEVA,GUATEMALA,,GT,,,,,
,visa,,,MIXCO,GUATEMALA,,GT,,,,,
,visa,,,VILLA NUEVA,GUATEMALA,,GT,,,,,
,visa,,,MIXCO,GUATEMALA,,GT,,,,,
,visa,,,VILLA NUEVA,GUATEMALA,,GT,,,,,
,visa,,,VILLA NUEVA,GUATEMALA,,GT,,,,,
,visa,,,VILLA NUEVA,GUATEMALA,,GT,,,,,
,visa,,,AMATITLAN,GUATEMALA,,GT,,,,,
,visa,,,VILLA NUEVA,GUATEMALA,,GT,,,,,
,visa,,,AMATITLAN,GUATEMALA,,GT,,,,,
,visa,,,AMATITLAN,GUATEMALA,,GT,,,,,
,visa,,,AMATITLAN,GUATEMALA,,GT,,,,,
,visa,,,AMATITLAN,GUATEMALA,,GT,,,,,
,visa,,,VILLA NUEVA,GUATEMALA,,GT,,,,,
,visa,,,AMATITLAN,GUATEMALA,,GT,,,,,
,visa,,,AMATITLAN,GUATEMALA,,GT,,,,,
,visa,,,AMATITLAN,GUATEMALA,,GT,,,,,
,visa,,,AMATITLAN,GUATEMALA,,GT,,,,,
,visa,,,AMATITLAN,GUATEMALA,,GT,,,,,
,visa,,,AMATITLAN,GUATEMALA,,GT,,,,,
,visa,,,AMATITLAN,GUATEMALA,,GT,,,,,
,visa,,,AMATITLAN,GUATEMALA,,GT,,,,,
,visa,,,AMATITLAN,GUATEMALA,,GT,,,,,
,visa,,,AMATITLAN,GUATEMALA,,GT,,,,,
,visa,,,VILLA NUEVA,GUATEMALA,,GT,,,,,
,visa,,,AMATITLAN,GUATEMALA,,GT,,,,,
,visa,,,VILLA NUEVA,GUATEMALA,,GT,,,,,
,visa,,,AMATITLAN,GUATEMALA,,GT,,,,,
,visa,,,AMATITLAN,GUATEMALA,,GT,,,,,
,visa,,,VILLA NUEVA,GUATEMALA,,GT,,,,,
,visa,,,AMATITLAN,GUATEMALA,,GT,,,,,
,visa,,,AMATITLAN,GUATEMALA,,GT,,,,,
,visa,,,AMATITLAN,GUATEMALA,,GT,,,,,
,visa,,,AMATITLAN,GUATEMALA,,GT,,,,,
,visa,,,AMATITLAN,GUATEMALA,,GT,,,,,
,visa,,,AMATITLAN,GUATEMALA,,GT,,,,,
,visa,,,AMATITLAN,GUATEMALA,,GT,,,,,
,visa,,,AMATITLAN,GUATEMALA,,GT,,,,,
,visa,,,AMATITLAN,GUATEMALA,,GT,,,,,
,visa,,,AMATITLAN,GUATEMALA,,GT,,,,,
,visa,,,AMATITLAN,GUATEMALA,,GT,,,,,
,visa,,,SAN PEDRO SACATEPEQUEZ,GUATEMALA,,GT,,,,,
,visa,,,AMATITLAN,GUATEMALA,,GT,,,,,
,visa,,,SAN JUAN SACATEPEQUEZ,GUATEMALA,,GT,,,,,
,visa,,,SAN JUAN SACATEPEQUEZ,GUATEMALA,,GT,,,,,
,visa,,,AMATITLAN,GUATEMALA,,GT,,,,,
,visa,,,SAN PEDRO SACATEPEQUEZ,GUATEMALA,,GT,,,,,
,visa,,,SAN PEDRO SACATEPEQUEZ,GUATEMALA,,GT,,,,,
,visa,,,AMATITLAN,GUATEMALA,,GT,,,,,
,visa,,,SAN JUAN SACATEPEQUEZ,GUATEMALA,,GT,,,,,
,visa,,,SAN JUAN SACATEPEQUEZ,GUATEMALA,,GT,,,,,
,visa,,,AMATITLAN,GUATEMALA,,GT,,,,,
,visa,,,SAN JUAN SACATEPEQUEZ,GUATEMALA,,GT,,,,,
,visa,,,SAN JUAN SACATEPEQUEZ,GUATEMALA,,GT,,,,,
,visa,,,SAN JUAN SACATEPEQUEZ,GUATEMALA,,GT,,,,,
,visa,,,SAN JUAN SACATEPEQUEZ,GUATEMALA,,GT,,,,,
,visa,,,SAN JUAN SACATEPEQUEZ,GUATEMALA,,GT,,,,,
,visa,,,SAN JUAN SACATEPEQUEZ,GUATEMALA,,GT,,,,,
,visa,,,SAN JUAN SACATEPEQUEZ,GUATEMALA,,GT,,,,,
,visa,,,SAN JUAN SACATEPEQUEZ,GUATEMALA,,GT,,,,,
,visa,,,SAN PEDRO SACATEPEQUEZ,GUATEMALA,,GT,,,,,
,visa,,,GUATEMALA,GUATEMALA,,GT,,,,,
,visa,,,GUATEMALA,GUATEMALA,,GT,,,,,
,visa,,,GUATEMALA,GUATEMALA,,GT,,,,,
