Ref,Spider,Name,Address,City,State,Zipcode,Country,Phone,Website,Hours,Brand,WikiData
/locations/propane-offices/new-mexico/saulk-rapids/931-lincoln-ave,amerigas,"AmerGas Propane | Sauk Rapids, Minnesota",,Sauk Rapids,MN,,US,+1 320-251-0373,/locations/propane-offices/new-mexico/saulk-rapids/931-lincoln-ave,,AmeriGas,Q23130318
1534,anytime_fitness,Anytime Fitness,,Sauk Rapids,MN,,US,+1 320-230-8484,https://www.anytimefitness.com/gyms/1534/sauk-rapids-mn-56379/,,Anytime Fitness,Q4778364
794,batteriesplus,Shop our Sauk Rapids location,,Sauk Rapids,MN,,US,+1 320-230-2332,https://www.batteriesplus.com/store-locator/mn/saukrapids/batteries-plus-794,Mo-Fr 07:45-19:00; Sa 09:00-18:00; Su 10:00-17:00,Batteries Plus Bulbs,Q17005157
203625,bluerhino,CASEY'S GENERAL STORE #3643,,SAUK RAPIDS,MN,,US,+1 320-534-5362,,,Blue Rhino,Q65681213
182682,bluerhino,Speedway #4371,,Sauk Rapids,MN,,US,+1 320-251-3399,,,Blue Rhino,Q65681213
156506,bluerhino,Walgreens #13880,,Sauk Rapids,MN,,US,+1 320-253-6601,,,Blue Rhino,Q65681213
241547,bluerhino,Circle K #2746543 (Holiday),,Sauk Rapids,MN,,US,+1 320-255-7062,,,Blue Rhino,Q65681213
241545,bluerhino,Circle K #2746541 (Holiday),,Sauk Rapids,MN,,US,+1 320-252-1971,,,Blue Rhino,Q65681213
175582,bluerhino,Coborns #2001,,Sauk Rapids,MN,,US,+1 320-252-2141,,,Blue Rhino,Q65681213
241554,bluerhino,Circle K #2746550 (Holiday),,Sauk Rapids,MN,,US,+1 320-252-0678,,,Blue Rhino,Q65681213
203623,bluerhino,CASEY'S GENERAL STORE #3632,,SAUK RAPIDS,MN,,US,+1 320-251-4302,,,Blue Rhino,Q65681213
85554,bluerhino,Ace - Mimbach Fleet Supply #8680W,,Sauk Rapids,MN,,US,+1 320-252-1682,,,Blue Rhino,Q65681213
62472,citi,ATM Kwik Trip #154-1,,Sauk Rapids,MN,,US,,,,Citibank,Q857063
62473,citi,ATM Kwik Trip #154-2,,Sauk Rapids,MN,,US,,,,Citibank,Q857063
78487,citi,ATM Speedway,,Sauk Rapids,MN,,US,,,,Citibank,Q857063
58412,citi,ATM GREAT RIVER FCU,,Sauk Rapids,MN,,US,,,,Citibank,Q857063
54812,citi,ATM Farmers & Merchants State Bank of Pierz,,Sauk Rapids,MN,,US,,,,Citibank,Q857063
80637,citi,ATM ST CLOUD FCU,,Sauk Rapids,MN,,US,,,,Citibank,Q857063
58411,citi,ATM GREAT RIVER FCU,,Sauk Rapids,MN,,US,,,,Citibank,Q857063
57628,citi,ATM GATE CITY BANK,,Sauk Rapids,MN,,US,,,,Citibank,Q857063
57629,citi,ATM GATE CITY BANK,,Sauk Rapids,MN,,US,,,,Citibank,Q857063
1961,dominos_pizza_us,Domino's Pizza,,Sauk Rapids,MN,,US,+1 320-251-4885,https://pizza.dominos.com/minnesota/sauk-rapids/202-2nd-ave-north,Mo-Th 10:00-24:00; Fr-Sa 10:00-01:00; Su 10:00-24:00,Domino's,Q839466
https://www.edwardjones.com/us-en/financial-advisor/tommy-carney,edwardjones,Tommy Carney,,Sauk Rapids,MN,,US,+1 320-253-1384,https://www.edwardjones.com/us-en/financial-advisor/tommy-carney,Mo-Fr 08:00-17:00,Edward Jones,Q5343830
Motorcraft5140USAEnglish,ford,"Chamberlain Oil Co., Inc.",,Minnesota,MN,,US,,,,Ford,Q44294
20780,h_r_block,H&R Block,,Sauk Rapids,MN,,US,+1 320-229-8988,https://www.hrblock.com/local-tax-offices/minnesota/sauk-rapids/mississippi-crossing-shpg-ctr/20780/,,H&R Block,Q5627799
https://locations.papamurphys.com/#15429810,papamurphys,Pizza Takeout & Delivery,,Sauk Rapids,MN,,US,+1 320-258-7272,https://locations.papamurphys.com/mn/sauk-rapids/300-north-benton-drive,Mo-Th 10:00-20:00; Fr-Sa 10:00-21:00; Su 10:00-20:00,Papa Murphy's,Q7132349
https://www.publicstorage.com/self-storage-mn-sauk-rapids/1548.html,public_storage_us,Public Storage,,Sauk Rapids,MN,,US,+1 320-200-9809,https://www.publicstorage.com/self-storage-mn-sauk-rapids/1548.html,,Public Storage,Q1156045
https://restaurants.subway.com/#14909900,subway,Subway,,Sauk Rapids Benton,MN,,US,+1 320-252-7002,https://restaurants.subway.com/united-states/mn/sauk-rapids/401-n-benton-drive,Mo-Su 08:30-21:30,Subway,Q244457
1439064,usps,SAUK RAPIDS,,SAUK RAPIDS,MN,,US,+1 320-251-4865,,Mo-Fr 08:30-17:00; Sa 09:00-11:00,United States Postal Service,Q668687
5637900000,usps_collection_boxes,USPS COLLECTION BOX - BLUE BOX,110 1ST STREET S - SAUK RPDS,SAINT CLOUD,MN,,US,,,,United States Postal Service,Q668687
5637900010,usps_collection_boxes,USPS COLLECTION BOX - BLUE BOX,110 1ST ST S - SAUK RPDS,SAINT CLOUD,MN,,US,,,,United States Postal Service,Q668687
5637900004,usps_collection_boxes,USPS COLLECTION BOX - BLUE BOX,806 S BENTON DR - SAUK RPDS,SAINT CLOUD,MN,,US,,,,United States Postal Service,Q668687
5637900005,usps_collection_boxes,USPS COLLECTION BOX - BLUE BOX,1239 2ND ST N,SAINT CLOUD,MN,,US,,,,United States Postal Service,Q668687
5637900006,usps_collection_boxes,USPS COLLECTION BOX - BLUE BOX,1239 2ND ST N,SAINT CLOUD,MN,,US,,,,United States Postal Service,Q668687
5637900007,usps_collection_boxes,USPS COLLECTION BOX - BLUE BOX,1239 2ND ST N,SAINT CLOUD,MN,,US,,,,United States Postal Service,Q668687
5637900008,usps_collection_boxes,USPS COLLECTION BOX - PO LOBBY,1239 2ND ST N,SAINT CLOUD,MN,,US,,,,United States Postal Service,Q668687
5637900009,usps_collection_boxes,USPS COLLECTION BOX - PO LOBBY,1239 2ND ST N,SAINT CLOUD,MN,,US,,,,United States Postal Service,Q668687
5637900011,usps_collection_boxes,USPS COLLECTION BOX - BLUE BOX,1239 2ND ST N,SAINT CLOUD,MN,,US,,,,United States Postal Service,Q668687
5637900013,usps_collection_boxes,USPS COLLECTION BOX - PO LOBBY,1239 2ND ST N,SAINT CLOUD,MN,,US,,,,United States Postal Service,Q668687
,visa,,,SAUK RAPIDS,MN,,US,,,,,
,visa,,,SAUK RAPIDS,MN,,US,,,,,
,visa,,,SAUK RAPIDS,MN,,US,,,,,
,visa,,,SAUK RAPIDS,MN,,US,,,,,
,visa,,,SAUK RAPIDS,MN,,US,,,,,
,visa,,,SAUK RAPIDS,MN,,US,,,,,
,visa,,,SAUK RAPIDS,MN,,US,,,,,
,visa,,,SAUK RAPIDS,MN,,US,,,,,
,visa,,,SAUK RAPIDS,MN,,US,,,,,
,visa,,,SAUK RAPIDS,MN,,US,,,,,
,visa,,,SAUK RAPIDS,MN,,US,,,,,
,visa,,,SAUK RAPIDS,MN,,US,,,,,
,visa,,,SAUK RAPIDS,MN,,US,,,,,
,visa,,,SAUK RAPIDS,MN,,US,,,,,
,visa,,,SAUK RAPIDS,MN,,US,,,,,
,visa,,,SAUK RAPIDS,MN,,US,,,,,
,visa,,,SAUK RAPIDS,MN,,US,,,,,
,visa,,,SAUK RAPIDS,MN,,US,,,,,
,visa,,,SAUK RAPIDS,MN,,US,,,,,
,visa,,,SAUK RAPIDS,MN,,US,,,,,
,visa,,,SAUK RAPIDS,MN,,US,,,,,
,visa,,,SAUK RAPIDS,MN,,US,,,,,
,visa,,,SAUK RAPIDS,MN,,US,,,,,
,visa,,,SAUK RAPIDS,MN,,US,,,,,
https://www.walgreens.com/locator/walgreens-115+2nd+ave+n-sauk+rapids-mn-56379/id=13880,walgreens,Walgreens,,Sauk Rapids,MN,,US,+1 320-253-6601,https://www.walgreens.com/locator/walgreens-115+2nd+ave+n-sauk+rapids-mn-56379/id=13880,Mo-Su 07:00-22:00,Walgreens,Q1591889
502__N__BENTON__DR_SAUK__RAPIDS_MN_56379,wellsfargo,,502 N BENTON DR,SAUK RAPIDS,MN,,US,+1 800-869-3557,https://www.wellsfargo.com/locator/bank/502__N__BENTON__DR_SAUK__RAPIDS_MN_56379/,,Wells Fargo,Q744149
4725__QUAIL__RD__NE_SAUK__RAPIDS_MN_56379,wellsfargo,,4725 QUAIL RD NE,SAUK RAPIDS,MN,,US,+1 800-869-3557,https://www.wellsfargo.com/locator/bank/4725__QUAIL__RD__NE_SAUK__RAPIDS_MN_56379/,,Wells Fargo,Q744149
115__1ST__ST__S_SAUK__RAPIDS_MN_56379,wellsfargo,Wells Fargo,115 1ST ST S,SAUK RAPIDS,MN,,US,+1 320-202-5250,https://www.wellsfargo.com/locator/bank/115__1ST__ST__S_SAUK__RAPIDS_MN_56379/,Mo-Fr 09:00-17:00,Wells Fargo,Q744149
