Ref,Spider,Name,Address,City,State,Zipcode,Country,Phone,Website,Hours,Brand,WikiData
https://stores.advanceautoparts.com/tx/pflugerville/1313-fm-685,advance_auto_parts_us,Advance Auto Parts,,Pflugerville,TX,,US,+1 512-642-5384,https://stores.advanceautoparts.com/tx/pflugerville/1313-fm-685,Mo-Sa 07:30-21:00; Su 08:30-20:00,Advance Auto Parts,Q4686051
https://stores.advanceautoparts.com/tx/pflugerville/2400-w-pecan-st,advance_auto_parts_us,Advance Auto Parts,,Pflugerville,TX,,US,+1 512-989-0321,https://stores.advanceautoparts.com/tx/pflugerville/2400-w-pecan-st,Mo-Sa 07:30-21:00; Su 08:30-20:00,Advance Auto Parts,Q4686051
https://stores.aldi.us/#8540430,aldi_sud_us,ALDI  1415 FM 685 Rd,,Pflugerville,TX,,US,+1 833-478-1097,https://stores.aldi.us/tx/pflugerville/1415-fm-685-rd,Mo-Su 09:00-20:00,ALDI,Q41171672
https://locations.arbys.com/tx/pflugerville/1313-fm-685.html,arbys_us,"Arby's Fast-Food Drive Through Near You in Pflugerville, TX",,Pflugerville,TX,,US,+1 737-204-7844,https://locations.arbys.com/tx/pflugerville/1313-fm-685.html,Mo-Su 10:00-22:00,Arby's,Q630866
https://stores.ashleyfurniture.com/store/us/texas/pflugerville/7710000434/,ashley_furniture,"Ashley Store Pflugerville, TX",,Pflugerville,TX,,US,+1 512-990-5111,https://stores.ashleyfurniture.com/store/us/texas/pflugerville/7710000434/,,Ashley Furniture,Q4805437
12129,asics_us,DICK'S Sporting Goods  - Pflugerville ,19000 Limestone Commercial Dr,Pflugerville,TX,,US,+1 512-252-2800,,Mo-Sa 09:00-21:00; Su 10:00-19:00,asics,Q327247
https://locations.atipt.com/pflugerville-tx,ati_physical_therapy,ATI Physical Therapy (7654),,Pflugerville,TX,,US,+1 512-527-6298,https://locations.atipt.com/pflugerville-tx,,ATI Physical Therapy,Q50039703
6457,autozone_us,AutoZone Auto Parts Pflugerville,,Pflugerville,TX,,US,+1 737-236-7685,https://www.autozone.com/locations/tx/pflugerville/21315-n-hwy-130.html,Mo-Sa 07:30-21:00; Su 08:00-20:00,AutoZone,Q4826087
5881,autozone_us,AutoZone Auto Parts Pflugerville,,Pflugerville,TX,,US,+1 512-252-3233,https://www.autozone.com/locations/tx/pflugerville/2112-pecan-st-w.html,Mo-Sa 07:30-21:00; Su 08:00-21:00,AutoZone,Q4826087
3421,autozone_us,AutoZone Auto Parts Pflugerville,,Pflugerville,TX,,US,+1 512-990-3556,https://www.autozone.com/locations/tx/pflugerville/1005-fm-685.html,Mo-Fr 07:30-21:00; Sa 07:30-20:00; Su 08:00-20:00,AutoZone,Q4826087
https://locators.bankofamerica.com/tx/pflugerville/financial-centers-pflugerville-15996.html,bankofamerica,Bank of America Financial Center & Drive-Thru ATM | Pfluger Crossing,,Pflugerville,TX,,US,+1 512-251-5052,https://locators.bankofamerica.com/tx/pflugerville/financial-centers-pflugerville-15996.html,Mo-Fr 10:00-16:00,Bank of America,Q487907
https://locators.bankofamerica.com/tx/pflugerville/atm-pflugerville-110256.html,bankofamerica,Bank of America Drive-Thru ATM | Pecan And Central Commerce,,Pflugerville,TX,,US,+1 844-401-8500,https://locators.bankofamerica.com/tx/pflugerville/atm-pflugerville-110256.html,,Bank of America,Q487907
https://locations.baskinrobbins.com/tx/pflugerville/1552-fm-685-345544-br,baskin_robbins_us,Baskin-Robbinsâ„¢,,Pflugerville,TX,,US,+1 512-551-9466,https://locations.baskinrobbins.com/tx/pflugerville/1552-fm-685-345544-br,Mo-Th 11:00-21:00; Fr-Sa 11:00-22:00; Su 11:00-21:00,Baskin-Robbins,Q584601
BBW02525,bathandbodyworks_us,STONE HILL TOWN CENTER,,PFLUGERVILLE,TX,,US,+1 512-726-0003,,Mo-Sa 10:00-21:00; Su 11:00-18:00,Bath & Body Works,Q810773
10533,baylorscottwhite,Baylor Scott & White Medical Center - Pflugerville,,Pflugerville,TX,,US,+1 512-654-6100,https://www.bswhealth.com/locations/pflugerville-hospital,,Baylor Scott & White Health,Q41568258
9927,baylorscottwhite,Baylor Scott & White Institute for Rehabilitation - Pflugerville,,Pflugerville,TX,,US,+1 737-237-0001,https://www.bswphysicaltherapy.com/contact/find-a-location/tx/pflugerville/pflugerville/,,Baylor Scott & White Health,Q41568258
9640,baylorscottwhite,Baylor Scott & White Clinic - Pflugerville Central,,Pflugerville,TX,,US,+1 512-259-6000,https://www.bswhealth.com/locations/pflugerville-clinic,"Mo-Fr 07:00-16:00,07:00-17:00; Sa-Su 09:00-12:00",Baylor Scott & White Health,Q41568258
10522,baylorscottwhite,Baylor Scott & White Clinic - Pflugerville Medical Center,,Pflugerville,TX,,US,+1 512-654-6500,https://www.bswhealth.com/locations/pflugerville-medical-center-clinic,"Mo-Fr 07:30-16:00,08:00-17:00",Baylor Scott & White Health,Q41568258
128153,baylorscottwhite,Baylor Scott & White Pharmacy #203,,Pflugerville,TX,,US,+1 512-654-6150,https://www.bswhealth.com/locations/pflugerville-pharmacy-203,Mo-Sa 08:00-18:00,Baylor Scott & White Health,Q41568258
6449931,baylorscottwhite,Baylor Scott & White Urgent Care - Pflugerville Central,,Pflugerville,TX,,US,+1 512-259-6000,https://www.bswhealth.com/locations/urgent-care-pflugerville-central,Mo-Fr 08:00-19:30; Sa-Su 09:00-17:00,Baylor Scott & White Health,Q41568258
https://stores.bestbuy.com/tx/pflugerville/19000-limestone-commercial-dr-1762.html,bestbuy,Best Buy Pflugerville,,Pflugerville,TX,,US,+1 512-990-4699,https://stores.bestbuy.com/tx/pflugerville/19000-limestone-commercial-dr-1762.html,,Best Buy,Q533415
212242,bluerhino,Timewise #164,,Pflugerville,TX,,US,+1 512-989-6366,,,Blue Rhino,Q65681213
196618,bluerhino,H-E-B #236,,AUSTIN,TX,,US,+1 512-251-2584,,,Blue Rhino,Q65681213
220479,bluerhino,Dollar General #22706,,PFLUGERVILLE,TX,,US,+1 737-301-1590,,,Blue Rhino,Q65681213
155854,bluerhino,Walgreens #3159,,Pflugerville,TX,,US,+1 512-251-4554,,,Blue Rhino,Q65681213
155253,bluerhino,Walgreens #13446,,Pflugerville,TX,,US,+1 512-687-0552,,,Blue Rhino,Q65681213
196704,bluerhino,H-E-B #479,,PFLUGERVILLE,TX,,US,+1 512-251-0002,,,Blue Rhino,Q65681213
96221,bluerhino,Walmart #5479,,Pflugerville,TX,,US,+1 512-252-0112,,,Blue Rhino,Q65681213
155227,bluerhino,Walgreens #11568,,Pflugerville,TX,,US,+1 512-687-7291,,,Blue Rhino,Q65681213
212248,bluerhino,Timewise #184,,Pflugerville,TX,,US,+1 512-251-2515,,,Blue Rhino,Q65681213
21221,burgerking,Burger King,,Pflugerville,TX,,US,+1 512-252-8276,https://www.bk.com/store-locator/store/restaurant_25807,Mo-Sa 06:00-22:00; Su 07:00-22:00,Burger King,Q177054
https://stores.catofashions.com/#26559691,cato_us,Cato,,,TX,,US,+1 512-251-9772,https://stores.catofashions.com/tx/pflugerville/900-east-pecan-street,Mo-Sa 10:00-19:00; Su 13:00-18:00,Cato,Q16956136
2040337,chase_us,Pfennig and 685 - New branch,,Pflugerville,TX,,US,+1 512-251-3362,https://locator.chase.com/tx/pflugerville/1714-e-pfennig-ln,Mo-Fr 09:00-17:00; Sa 09:00-14:00,Chase,Q524629
370858,chevron,Texaco Station #370858,18801 WEISS LANE,PFLUGERVILLE,TX,,US,+1 512-251-5961,,,Chevron,Q319642
210307,chevron,Chevron Station #210307,20205 FM 685,PFLUGERVILLE,TX,,US,,,,Chevron,Q319642
001.005.1540,chilis,Stone Hill,,Pflugerville,TX,,US,+1 512-989-2040,https://www.chilis.com/locations/us/texas/pflugerville/stone-hill/,Mo-Th 10:45-22:30; Fr-Sa 10:45-23:30; Su 10:45-22:30,Chili's,Q1072948
tx_pflugerville_2424-fm-685,chipotle, ,,Pflugerville,TX,,US,+1 512-989-5717,https://locations.chipotle.com/tx/pflugerville/2424-fm-685,,Chipotle,Q465751
tx-pflugerville/cinemark-pflugerville-20-and-xd,cinemark,Cinemark Pflugerville 20 and XD,,Pflugerville,TX,,US,+1 512-989-8535,https://www.cinemark.com/theatres/tx-pflugerville/cinemark-pflugerville-20-and-xd,,Cinemark,Q707530
tx-pflugerville/cinemark-stone-hill-town-center,cinemark,Cinemark Stone Hill Town Center,,Pflugerville,TX,,US,+1 512-251-1673,https://www.cinemark.com/theatres/tx-pflugerville/cinemark-stone-hill-town-center,,Cinemark,Q707530
87770,citi,ATM Walgreens,,Pflugerville,TX,,US,,,,Citibank,Q857063
84443,citi,ATM TRANSFUND,,Pflugerville,TX,,US,,,,Citibank,Q857063
84442,citi,ATM TRANSFUND,,Pflugerville,TX,,US,,,,Citibank,Q857063
84561,citi,ATM TRANSFUND,,Austin,TX,,US,,,,Citibank,Q857063
84562,citi,ATM TRANSFUND,,Ausitn,TX,,US,,,,Citibank,Q857063
26026,citi,ATM 7ELEVEN-FCTI,,Pflugerville,TX,,US,,,,Citibank,Q857063
88741,citi,ATM Walgreens,,Pflugerville,TX,,US,,,,Citibank,Q857063
26218,citi,ATM 7ELEVEN-FCTI,,Pflugerville,TX,,US,,,,Citibank,Q857063
84293,citi,ATM TRANSFUND,,Austin,TX,,US,,,,Citibank,Q857063
88353,citi,ATM Walgreens,,Pflugerville,TX,,US,,,,Citibank,Q857063
26602,citi,ATM 7ELEVEN-FCTI,,Pflugerville,TX,,US,,,,Citibank,Q857063
81829,citi,ATM Target,,Pflugerville,TX,,US,,,,Citibank,Q857063
47687,citi,ATM CVS,,Pflugerville,TX,,US,,,,Citibank,Q857063
48871,citi,ATM CVS,,Pflugerville,TX,,US,,,,Citibank,Q857063
45932,citi,ATM Costco,,Pflugerville,TX,,US,,,,Citibank,Q857063
26655,citi,ATM 7ELEVEN-FCTI,,Pflugerville,TX,,US,,,,Citibank,Q857063
pflugerville/684,claires,Shop Ear Piercings & Jewelry at Claires Walmart Pflugerville,,PFLUGERVILLE,TX,,US,+1 512-251-3340,https://stores.claires.com/us/tx/pflugerville/684.html,Mo-Th 11:00-20:00; Fr 10:00-20:00; Sa 11:00-20:00; Su 10:00-20:00,Claire's,Q2974996
70189535,cricket_wireless,Cricket Wireless Authorized Retailer,,Pflugerville,TX,,US,+1 512-990-3330,https://www.cricketwireless.com/stores/ll/US/TX/Pflugerville/1912-W-Pecan-St,Mo-Sa 10:00-20:00; Su 12:00-17:00,Cricket Wireless,Q5184987
80467100,cricket_wireless,Cricket Wireless Authorized Retailer,,Pflugerville,TX,,US,+1 737-717-3014,https://www.cricketwireless.com/stores/ll/US/TX/Pflugerville/428-Grand-Avenue-Pkwy,Mo-Fr 10:00-19:00; Sa 10:00-17:00; Su 12:00-16:00,Cricket Wireless,Q5184987
10106,cvs_us,CVS Pharmacy,,Pflugerville,TX,,US,+1 512-990-0814,https://www.cvs.com/store-locator/pflugerville-tx-pharmacies/2013-kelly-ln-pflugerville-tx-78660/storeid=10106,Mo-Fr 07:00-23:00; Sa-Su 08:00-23:00,CVS Pharmacy,Q2078880
17541,cvs_us,CVS Pharmacy,,Pflugerville,TX,,US,+1 512-687-2065,https://www.cvs.com/store-locator/pflugerville-tx-pharmacies/18700-limestone-commercial-dr-pflugerville-tx-78660/storeid=17541,"Mo-Fr 10:00-13:30,14:00-20:00; Sa 10:00-13:30,14:00-18:00; Su 11:00-13:30,14:00-17:00",CVS Pharmacy,Q2078880
7735,cvs_us,CVS Pharmacy,,Pflugerville,TX,,US,+1 512-990-8010,https://www.cvs.com/store-locator/pflugerville-tx-pharmacies/1301-w-pflugerville-parkway-pflugerville-tx-78660/storeid=7735,Mo-Su 08:00-23:00,CVS Pharmacy,Q2078880
764,dickssportinggoods,"DICK'S Sporting Goods Store in Pflugerville, TX | 764",,Pflugerville,TX,,US,+1 512-252-2800,https://stores.dickssportinggoods.com/tx/pflugerville/764/,Mo-Sa 09:00-21:00; Su 10:00-19:00,Dick's Sporting Goods,Q5272601
9426,dollartree,DollarTree,,Pflugerville,TX,,US,+1 601-746-4189,,Mo-Sa 09:00-21:00; Su 10:00-20:00,Dollar Tree,Q5289230
22706,dollar_general,Dollar General,,Pflugerville,TX,,US,+1 737-301-1590,https://www.dollargeneral.com/store-directory/tx/pflugerville/22706,Mo-Su 08:00-22:00,Dollar General,Q145168
6847,dominos_pizza_us,Domino's Pizza,,Pflugerville,TX,,US,+1 512-251-0996,https://pizza.dominos.com/texas/pflugerville/1420-wells-branch-parkway-105,Mo-Th 10:30-24:00; Fr-Sa 10:30-01:00; Su 10:30-24:00,Domino's,Q839466
9267,dominos_pizza_us,Domino's Pizza,,Pflugerville,TX,,US,+1 512-990-7991,https://pizza.dominos.com/texas/pflugerville/18701-limestone-commercial-dr-suite-400,Mo-Th 10:30-24:00; Fr-Sa 10:30-01:00; Su 10:30-24:00,Domino's,Q839466
DB830,dutchbros,Bald Eagle,,Pflugerville,TX,,US,,https://locations.dutchbros.com/dutch-bros-coffee-8fb75e1c1f40,Mo-Th 05:00-22:00; Fr-Sa 05:00-23:00; Su 05:00-22:00,Dutch Bros. Coffee,Q5317253
https://www.edwardjones.com/us-en/financial-advisor/robert-daggett,edwardjones,Robert M Daggett,,Pflugerville,TX,,US,+1 512-989-1531,https://www.edwardjones.com/us-en/financial-advisor/robert-daggett,Mo-Fr 08:00-17:00,Edward Jones,Q5343830
2424-fm-685,einsteinbros,FM 685 & Pflugerville Pkwy Einstein Bros. Bagels,,Pflugerville,TX,,US,+1 512-358-4752,https://locations.einsteinbros.com/us/tx/pflugerville/2424-fm-685,Mo-Su 06:00-14:00,Einstein Bros. Bagels,Q5349788
240138,electrify_america,"BOA Pflugerville TX9-102 (Pflugerville, TX)",,Pflugerville,TX,,US,,,,Electrify America,Q59773555
E16582,enterprise,Pflugerville Pecan St.,,Pflugerville,TX,,US,+1 512-670-0847,,,Enterprise Rent-A-Car,Q17085454
E165H4,enterprise,Pflugerville FM 685,,Pflugerville,TX,,US,+1 512-362-5152,,,Enterprise Rent-A-Car,Q17085454
1026,european_wax_center_us,European Wax Center,,Pflugerville,TX,,US,+1 512-355-7355,https://locations.waxcenter.com/tx/pflugerville/pflugerville-1026.html,,European Wax Center,Q5413426
200321271,exxonmobil,JD'S MARKET 3,,PFLUGERVILLE,TX,,US,+1 512-670-0990,https://www.exxon.com/en/find-station/exxon-pflugerville-tx-jdsmarket3-200321271,Mo-Su 06:00-00:00,Exxon,Q109675651
200320925,exxonmobil,7-ELEVEN 34253,,PFLUGERVILLE,TX,,US,+1 512-989-0393,https://www.exxon.com/en/find-station/exxon-pflugerville-tx-7eleven34253-200320925,24/7,Exxon,Q109675651
https://local.fedex.com/#10047372,fedex,FedEx Office Print & Ship Center,,Pflugerville,TX,,US,+1 512-501-5646,https://local.fedex.com/en-us/tx/pflugerville/office-0297,,FedEx,Q459477
https://local.fedex.com/#25206823,fedex,,,Pflugerville,TX,,US,+1 800-463-3339,https://local.fedex.com/en-us/tx/pflugerville/byzyy,,FedEx,Q459477
https://local.fedex.com/#25202539,fedex,,,Pflugerville,TX,,US,+1 800-463-3339,https://local.fedex.com/en-us/tx/pflugerville/byehd,,FedEx,Q459477
https://local.fedex.com/#25199455,fedex,,,Pflugerville,TX,,US,+1 800-463-3339,https://local.fedex.com/en-us/tx/pflugerville/bsact,,FedEx,Q459477
https://local.fedex.com/#25458492,fedex,,,Pflugerville,TX,,US,+1 800-463-3339,https://local.fedex.com/en-us/tx/pflugerville/00jg1,,FedEx,Q459477
325545,firestone_auto_care,Firestone Complete Auto Care,,Pflugerville,TX,,US,+1 512-831-5157,https://local.firestonecompleteautocare.com/texas/pflugerville/19009-limestone-commercial-dr/,,Firestone,Q420837
29548,firestone_auto_care,Firestone Complete Auto Care,,Pflugerville,TX,,US,+1 512-777-4238,https://local.firestonecompleteautocare.com/texas/pflugerville/15101-n-interstate-35-frontage-rd/,,Firestone,Q420837
75,first_cash,First Cash Pawn,,Pflugerville,TX,,US,+1 512-989-2105,,,First Cash Pawn,
https://locations.fivebelow.com/tx/pflugerville/19000-limestone-commercial-dr,five_below,Five Below Stone Hill Town Center,,Pflugerville,TX,,US,,https://locations.fivebelow.com/tx/pflugerville/19000-limestone-commercial-dr,Mo-Sa 10:00-20:00; Su 11:00-18:00,Five Below,Q5455836
https://restaurants.fiveguys.com/#15553518,five_guys_us,Five Guys Pflugerville,,Pflugerville,TX,,US,+1 737-209-0154,https://restaurants.fiveguys.com/2424-fm-685,"Mo-Su 11:00-21:30,11:00-22:00",Five Guys,Q1131810
100617,fresenius_kidney_care_us,Fresenius Kidney Care Pflugerville,,Pflugerville,TX,,US,+1 800-881-5101,https://www.freseniuskidneycare.com/dialysis-centers/texas/100617,Mo-Sa 05:30-16:30,,
3874,gamestop_us,Pfluger Crossing,,Pflugerville,TX,,US,+1 512-251-3745,https://www.gamestop.com/search/?store=3874,Mo-Th 12:00-20:00; Fr-Sa 10:00-21:00; Su 12:00-19:00,GameStop,Q202210
https://stores.gnc.com/#24058741,gnc,GNC Stone Hill Town Center,,,TX,,US,+1 512-252-7994,https://stores.gnc.com/all-stores-texas/pflugerville/1512-town-center-dr,Mo-Sa 09:00-20:00; Su 11:00-18:00,GNC,Q4808595
https://www.goldsgym.com/pflugerville-tx/,goldsgym,Gold's Gym Pflugerville,,Pflugerville,TX,,US,+1 512-222-6113,https://www.goldsgym.com/pflugerville-tx/,Mo-Fr 05:00-23:00; Sa-Su 07:00-21:00,Gold's Gym,Q1536234
83a207c5-3f48-ea11-80e3-00505689ac90,goodwill,Star Ranch,,Pfugerville,TX,,US,+1 512-637-7150,https://www.goodwill.org/locator/location/?store=ODNhMjA3YzUtM2Y0OC1lYTExLTgwZTMtMDA1MDU2ODlhYzkw&lat=MzAuNDkzODc=&lng=LTk3LjU4NTc3,,Goodwill,Q5583655
537a8492-1c07-e311-8d5d-0050568924e6,goodwill,Pflugerville Store,,Pflugerville,TX,,US,+1 512-252-8827,https://www.goodwill.org/locator/location/?store=NTM3YTg0OTItMWMwNy1lMzExLThkNWQtMDA1MDU2ODkyNGU2&lat=MzAuNDUzODY=&lng=LTk3LjYwMzE3,,Goodwill,Q5583655
6ed43ba2-8eb0-e111-a5e4-005056934050,goodwill,New Wells Branch Store,,Pflugerville,TX,,US,+1 512-251-2777,https://www.goodwill.org/locator/location/?store=NmVkNDNiYTItOGViMC1lMTExLWE1ZTQtMDA1MDU2OTM0MDUw&lat=MzAuNDQxMDk=&lng=LTk3LjY2Mzg4,,Goodwill,Q5583655
https://salons.greatclips.com/us/tx/pflugerville/1552-fm-685,greatclips,Great Clips,,Pflugerville,TX,,US,+1 512-251-3447,https://salons.greatclips.com/us/tx/pflugerville/1552-fm-685,Mo-Fr 09:00-19:00; Sa 09:00-18:00; Su 10:00-18:00,Great Clips,Q5598967
42974,h_r_block,H&R Block,,Pflugerville,TX,,US,+1 512-251-6588,https://www.hrblock.com/local-tax-offices/texas/pflugerville/1434-wells-branch-pkwy/42974/,,H&R Block,Q5627799
tx_pflugerville_breakfast-18709-limestone-commercial-dr-3415,ihop,IHOP Breakfast Restaurants Near You at 18709 Limestone Commercial Dr,,Pflugerville,TX,,US,+1 512-990-3470,https://restaurants.ihop.com/en-us/tx/pflugerville/breakfast-18709-limestone-commercial-dr-3415,,IHOP,Q1185675
316,innout,Pflugerville,,Pflugerville,TX,,US,,http://locations.in-n-out.com/316,,In-N-Out Burger,Q1205312
https://locations.ironmountain.com/tx/pflugerville/758/,iron_mountain,"Iron Mountain in 15300 FM 1825, Pflugerville, Texas | Secure Shredding, Scanning, IT Asset Disposition, & Records Management",,Pflugerville,TX,,US,+1 800-899-4766,https://locations.ironmountain.com/tx/pflugerville/758/,,Iron Mountain Incorporated,Q1673079
https://locations.jackinthebox.com/us/tx/pflugerville/14910-fm-1825,jackinthebox,Jack in the Box,,Pflugerville,TX,,US,+1 512-251-2576,https://locations.jackinthebox.com/us/tx/pflugerville/14910-fm-1825,Mo-Su 04:00-04:00,Jack in the Box,Q1538507
https://locations.jackinthebox.com/us/tx/pflugerville/1700-fm-685,jackinthebox,Jack in the Box,,Pflugerville,TX,,US,+1 512-252-7834,https://locations.jackinthebox.com/us/tx/pflugerville/1700-fm-685,Mo-Su 04:00-04:00,Jack in the Box,Q1538507
https://office.jacksonhewitt.com/#27579703,jackson_hewitt,Jackson Hewitt,,Pflugerville,TX,,US,+1 512-926-3278,https://office.jacksonhewitt.com/tax-preparation-services-locations/en/tx/pflugerville/1548-fm-685/55479,Mo-Fr 10:00-19:00; Sa 10:00-16:00; Su 12:00-17:00,Jackson Hewitt,Q6117132
https://locations.jimmyjohns.com/tx/pflugerville/sandwiches-4050.html,jimmy_johns,Jimmy John's,,Pflugerville,TX,,US,+1 512-284-9668,https://locations.jimmyjohns.com/tx/pflugerville/sandwiches-4050.html,,Jimmy John's,Q1689380
1572,kohls_us,Kohl's,,Pflugerville,TX,,US,+1 512-813-1969,https://www.kohls.com/stores/tx/pflugerville-1572.shtml,Mo-Sa 09:00-21:00; Su 09:00-20:00,Kohl's,Q967265
142850,little_free_library,Kelly Lane Middle School #142850 Pflugerville TX,,Pflugerville,TX,,US,,,,Little Free Library,Q6650101
81808,little_free_library,Falcon Pointe Little Free Library #81808 Pflugerville TX,,Pflugerville,TX,,US,,,,Little Free Library,Q6650101
88572,little_free_library,Troop 45615 Library #88572 Pflugerville TX,,Pflugerville,TX,,US,,,,Little Free Library,Q6650101
40310,little_free_library,Carmel Little Free Library #40310 Pflugerville TX,,Pflugerville,TX,,US,,,,Little Free Library,Q6650101
62350,little_free_library,Vivian Morgan #62350 Pflugerville TX,,Pflugerville,TX,,US,,,,Little Free Library,Q6650101
109256,little_free_library,Bianca Davenport #109256 Pflugerville TX,,Pflugerville,TX,,US,,,,Little Free Library,Q6650101
118194,little_free_library,The Unabridged Book Lover Free Library #118194 Pflugerville TX,,Pflugerville,TX,,US,,,,Little Free Library,Q6650101
148271,little_free_library,Little Pfree Library-Pflugerville #148271 Pflugerville TX,,Pflugerville,TX,,US,,,,Little Free Library,Q6650101
76056,little_free_library,Letti Lane Library #76056 Pflugerville TX,,Pflugerville,TX,,US,,,,Little Free Library,Q6650101
65078,little_free_library,Lala's Little Library #65078 Pflugerville TX,,Pflugerville,TX,,US,,,,Little Free Library,Q6650101
107718,little_free_library,Brookfield Owners Pool Park Library #107718 Pflugerville TX,,Pflugerville,TX,,US,,,,Little Free Library,Q6650101
64839,little_free_library,Michael Carlson #64839 Pflugerville TX,,Pflugerville,TX,,US,,,,Little Free Library,Q6650101
142453,little_free_library,Little Free Library #142453 Pflugerville TX,,Pflugerville,TX,,US,,,,Little Free Library,Q6650101
138909,little_free_library,Custer's Creek LFL #138909 Pflugerville TX,,Pflugerville,TX,,US,,,,Little Free Library,Q6650101
154549,little_free_library,The Winnie Mae Murchison Little Free Library #154549 PFLUGERVILLE TX,,PFLUGERVILLE,TX,,US,,,,Little Free Library,Q6650101
1460,little_free_library,Mark & Christa Gibson #1460 Pflugerville TX,,Pflugerville,TX,,US,,,,Little Free Library,Q6650101
125564,little_free_library,Hurtuk House Little Library #125564 Pflugerville Texas,,Pflugerville,TX,,US,,,,Little Free Library,Q6650101
176101,little_free_library,Brookhollow Books #176101 Pflugerville TX,,Pflugerville,TX,,US,,,,Little Free Library,Q6650101
93202,little_free_library,Svoboda Mysleni #93202 Pflugerville TX,,Pflugerville,TX,,US,,,,Little Free Library,Q6650101
169366,little_free_library,Elena Saez #169366 Pflugerville TX,,Pflugerville,TX,,US,,,,Little Free Library,Q6650101
68381,little_free_library,Portchester Castle Little Free Library #68381 Pflugerville TX,,Pflugerville,TX,,US,,,,Little Free Library,Q6650101
AUSPF,marriott,Courtyard Austin Pflugerville and Pflugerville Conference Center,,Pflugerville,TX,,US,+1 512-220-2525,https://www.marriott.com/AUSPF,,Courtyard by Marriott,Q1053170
16926,mattress_firm_us,Mattress Firm Stone Hill Town Center,,Pflugerville,TX,,US,+1 512-670-5096,https://www.mattressfirm.com/en-us/stores/tx/pflugerville/004028/,,Mattress Firm,Q6791878
https://locations.maurices.com/#11688788,maurices,maurices Stone Hill Town Ctr.,,Pflugerville,TX,,US,+1 512-990-9934,https://locations.maurices.com/us/tx/pflugerville/18700-limestone-commercial-dr,Mo-Sa 10:00-20:00; Su 11:00-18:00,maurices,Q6793571
https://locations.modpizza.com/#23558351,modpizza,MOD Pizza Stone Hill Town Center,,Pflugerville,TX,,US,+1 512-668-1278,https://locations.modpizza.com/usa/tx/pflugerville/18817-limestone-commercial-dr,Mo-We 10:30-22:00; Th-Sa 10:30-23:00; Su 10:30-22:00,MOD Pizza,Q19903469
69520767,moneygram,BUTTERCUP CHEVRON,,PFLUGERVILLE,TX,,US,+1 512-670-7643,,Mo-Su 07:00-23:00,MoneyGram,Q1944412
74664391,moneygram,MAYA GROCERY - PFLUGERVILLE - MAYA GROCE,,PFLUGERVILLE,TX,,US,+1 512-369-3940,,Mo-Su 09:00-21:00,MoneyGram,Q1944412
74991734,moneygram,AMAZONAS LATIN MARKET LLC - PFLUGERVILLE,,PFLUGERVILLE,TX,,US,+1 737-900-9089,,Mo-Sa 10:00-20:00; Su 10:00-19:00,MoneyGram,Q1944412
7436,murphy_usa_us,,,Pflugerville,TX,,US,+1 512-989-8573,,Mo-Sa 05:00-23:30; Su 05:30-23:30,Murphy USA,Q19604459
https://locations.oreillyauto.com/tx/pflugerville/check-engine-light-testing-5571.html,oreilly,Your Pflugerville O'Reilly Auto Parts Store,,Pflugerville,TX,,US,+1 512-342-8424,https://locations.oreillyauto.com/tx/pflugerville/check-engine-light-testing-5571.html,Mo-Sa 07:30-21:00; Su 08:00-21:00,O'Reilly Auto Parts,Q7071951
https://locations.oreillyauto.com/tx/pflugerville/wiper-installation-5571.html,oreilly,Your Pflugerville O'Reilly Auto Parts Store,,Pflugerville,TX,,US,+1 512-342-8424,https://locations.oreillyauto.com/tx/pflugerville/wiper-installation-5571.html,Mo-Sa 07:30-21:00; Su 08:00-21:00,O'Reilly Auto Parts,Q7071951
https://locations.oreillyauto.com/tx/pflugerville/battery-testing-5571.html,oreilly,Your Pflugerville O'Reilly Auto Parts Store,,Pflugerville,TX,,US,+1 512-342-8424,https://locations.oreillyauto.com/tx/pflugerville/battery-testing-5571.html,Mo-Sa 07:30-21:00; Su 08:00-21:00,O'Reilly Auto Parts,Q7071951
https://locations.oreillyauto.com/tx/pflugerville/autopartes-5571.html,oreilly,Tu tienda O'Reilly Auto Parts en Pflugerville,,Pflugerville,TX,,US,+1 512-342-8424,https://locations.oreillyauto.com/tx/pflugerville/autopartes-5571.html,Mo-Sa 07:30-21:00; Su 08:00-21:00,O'Reilly Auto Parts,Q7071951
https://locations.oreillyauto.com/tx/austin/check-engine-light-testing-1285.html,oreilly,Your Austin O'Reilly Auto Parts Store,,Austin,TX,,US,+1 512-251-8032,https://locations.oreillyauto.com/tx/austin/check-engine-light-testing-1285.html,Mo-Sa 07:30-22:00; Su 08:00-21:00,O'Reilly Auto Parts,Q7071951
https://locations.oreillyauto.com/tx/austin/wiper-installation-1285.html,oreilly,Your Austin O'Reilly Auto Parts Store,,Austin,TX,,US,+1 512-251-8032,https://locations.oreillyauto.com/tx/austin/wiper-installation-1285.html,Mo-Sa 07:30-22:00; Su 08:00-21:00,O'Reilly Auto Parts,Q7071951
https://locations.oreillyauto.com/tx/austin/autopartes-1285.html,oreilly,Tu tienda O'Reilly Auto Parts en Austin,,Austin,TX,,US,+1 512-251-8032,https://locations.oreillyauto.com/tx/austin/autopartes-1285.html,Mo-Sa 07:30-22:00; Su 08:00-21:00,O'Reilly Auto Parts,Q7071951
https://locations.oreillyauto.com/tx/austin/battery-testing-1285.html,oreilly,Your Austin O'Reilly Auto Parts Store,,Austin,TX,,US,+1 512-251-8032,https://locations.oreillyauto.com/tx/austin/battery-testing-1285.html,Mo-Sa 07:30-22:00; Su 08:00-21:00,O'Reilly Auto Parts,Q7071951
112304,pandaexpress,Hwy 130 & Hwy 45,,Pflugerville,TX,,US,+1 512-990-7621,https://www.pandaexpress.com/locations/tx/pflugerville/18600-limestone-commercial-dr,Mo-Th 10:00-22:30; Fr-Sa 10:00-23:00; Su 10:00-22:30,Panda Express,Q1358690
https://locations.papajohns.com/#10691962,papa_johns,Papa John's,,Pflugerville,TX,,US,+1 512-252-7272,https://locations.papajohns.com/united-states/tx/78660/pflugerville/900-east-pecan,Mo-Th 10:00-24:00; Fr-Sa 10:00-01:00; Su 10:00-24:00,Papa John's Pizza,Q2759586
091064,penske,Home Depot #6808,,PFLUGERVILLE,TX,,US,+1 512-670-5180,https://www.pensketruckrental.com/locations/us/texas/pflugerville/091064/,,Penske,Q81234570
tx_pflugerville_18700-limestone-commerical-drive,pizza_hut_us,18700 Limestone Commerical Drive,,Pflugerville,TX,,US,,https://locations.pizzahut.com/tx/pflugerville/18700-limestone-commerical-drive,,Pizza Hut,Q191615
tx_pflugerville_1713-fm-685,pizza_hut_us,1713 FM 685,,Pflugerville,TX,,US,+1 512-291-7886,https://locations.pizzahut.com/tx/pflugerville/1713-fm-685,,Pizza Hut,Q191615
tx_pflugerville_15436-fm-1825,pizza_hut_us,15436 FM 1825,,Pflugerville,TX,,US,,https://locations.pizzahut.com/tx/pflugerville/15436-fm-1825,,Pizza Hut,Q191615
tx_pflugerville_100-12th-st,pizza_hut_us,100 12th St,,Pflugerville,TX,,US,+1 512-990-8444,https://locations.pizzahut.com/tx/pflugerville/100-12th-st,,Pizza Hut,Q191615
restaurant_82639,popeyes_us_fr,Popeyes,"1702 Pecan St W Pflugerville, Texas 78660 - USA",Pflugerville,TX,,US,+1 512-989-9090,https://www.popeyes.com/store-locator/store/restaurant_82639,Mo-Su 10:00-00:00,Popeyes,Q1330910
restaurant_84811,popeyes_us_fr,Popeyes,"1547 FM 685 Pflugerville, Texas 78660 - USA",Pflugerville,TX,,US,+1 512-251-1831,https://www.popeyes.com/store-locator/store/restaurant_84811,Mo-Su 10:00-00:00,Popeyes,Q1330910
home-depot-6808-7719,ppgpaints,HOME DEPOT 6808,,"Pflugerville, ",TX,,US,+1 512-990-5413,https://www.ppgpaints.com/store-locator/us/texas/pflugerville-paint-stores/home-depot-6808-7719,,PPG Paints,Q83891559
321,primrose_schools,Primrose School of Pflugerville at Falcon Pointe,,Pflugerville,TX,,US,+1 512-573-7636,https://www.primroseschools.com/schools/pflugerville-falcon-pointe/,,Primrose Schools,Q7243677
https://www.publicstorage.com/self-storage-tx-pflugerville/2509.html,public_storage_us,Public Storage,,Pflugerville,TX,,US,+1 512-592-3173,https://www.publicstorage.com/self-storage-tx-pflugerville/2509.html,,Public Storage,Q1156045
https://locations.quiktrip.com/#34933730,quiktrip_us,QuikTrip Store #4147 3101 E Pecan St,,Pflugerville,TX,,US,+1 512-872-8956,https://locations.quiktrip.com/tx/pflugerville/3101-e-pecan-st,24/7,QuikTrip,Q7271953
https://locations.quiktrip.com/#1017237387,quiktrip_us,QuikTrip Store #4148 1727 Grand Avenue Pkwy,,Pflugerville,TX,,US,+1 512-691-3294,https://locations.quiktrip.com/tx/pflugerville/1727-grand-avenue-pkwy,24/7,QuikTrip,Q7271953
https://locations.quiktrip.com/#23758949,quiktrip_us,QuikTrip Store #4127 501 W Wells Branch Pkwy,,Austin,TX,,US,+1 737-220-8782,https://locations.quiktrip.com/tx/austin/501-w-wells-branch-pkwy,24/7,QuikTrip,Q7271953
1326,ross_dress_for_less_us,Pflugerville,,Pflugerville,TX,,US,+1 512-670-3355,,Mo-Th 09:00-22:00; Fr-Sa 08:30-22:30; Su 09:00-22:00,Ross Dress for Less,Q3442791
35624,seven_eleven_ca_us,7-Eleven Store,,Pflugerville,TX,,US,+1 512-990-7291,https://www.7-eleven.com/locations/tx/pflugerville/1717-pflugerville-pkwy-35624,,7-Eleven,Q259340
35623,seven_eleven_ca_us,7-Eleven Store,,Pflugerville,TX,,US,+1 512-989-5716,https://www.7-eleven.com/locations/tx/pflugerville/17511-shultz-ln-35623,,7-Eleven,Q259340
36575,seven_eleven_ca_us,7-Eleven Store,,Pflugerville,TX,,US,+1 512-252-7904,https://www.7-eleven.com/locations/tx/pflugerville/15829-ih-35-36575,,7-Eleven,Q259340
34253,seven_eleven_ca_us,7-Eleven Store,,Pflugerville,TX,,US,+1 512-989-0393,https://www.7-eleven.com/locations/tx/pflugerville/15010-fm-1825-34253,,7-Eleven,Q259340
16645656429192316187,sleep_number_us,Sleep Number,,Pflugerville,TX,,US,,https://www.sleepnumber.com/stores/tx/pflugerville/18841-fm-685,Mo-Th 10:00-19:00; Fr-Sa 10:00-20:00; Su 11:00-19:00,Sleep Number,Q7447640
32016,smilebrands,Castle Dental Pflugerville,18801 Limestone Commercial Drive,Pflugerville,TX,,US,+1 512-501-3500,https://www.castledental.com/dentist-near-me/pflugerville-dentist/35220/,,Smile Brands Inc.,Q108286823
https://restaurants.subway.com/#14916459,subway,Subway,,Pflugerville Travis,TX,,US,+1 512-251-0804,https://restaurants.subway.com/united-states/tx/pflugerville/1552-fm-685-suite108,Mo-Su 09:00-22:00,Subway,Q244457
https://restaurants.subway.com/#14913029,subway,Subway Countryside Place S/C,,Pflugerville Travis,TX,,US,+1 512-670-0606,https://restaurants.subway.com/united-states/tx/pflugerville/1420-wells-branch-pkwy,Mo-Su 09:00-22:00,Subway,Q244457
0273270900,sunoco_us,Sunoco,,PFLUGERVILLE,TX,,US,+1 512-584-8666,,Mo-Sa 06:00-00:00; Su 07:00-00:00,Sunoco,Q1423218
81235,supercuts,Stone Hill Town Center,1608 Town Center Dr Ste 400,Pflugerville,TX,,US,+1 512-428-4947,https://www.supercuts.com/checkin/81235,Mo-Fr 09:00-18:00; Sa 09:00-17:00; Su 11:00-16:00,Supercuts,Q7643239
https://locations.tacobell.com/#6145819,taco_bell,Taco Bell,,Pflugerville,TX,,US,+1 512-252-8855,https://locations.tacobell.com/tx/pflugerville/1712-fm-685.html,Mo-Su 09:00-01:00,Taco Bell,Q752941
https://locations.tacobell.com/#6145998,taco_bell,Taco Bell,,Pflugerville,TX,,US,+1 512-989-2562,https://locations.tacobell.com/tx/pflugerville/1605-west-pecan-street.html,Mo-Su 09:00-02:00,Taco Bell,Q752941
20159,taco_cabana_us,Wells Branch FM 1825,"15002 Wells Branch FM 1825, Pflugerville, TX, USA",Pflugerville,TX,,US,+1 512-251-5667,,,Taco Cabana,Q12070488
1SGP,tmobile_us,Fm 685 & E Pflugerville Pkwy,,Pflugerville,TX,,US,+1 512-990-0529,https://www.t-mobile.com/store-locator/tx/pflugerville/fm-685-e-pflugerville-pkwy,,T-Mobile,Q3511885
Stonehill (Pflugerville),torchys_tacos,Torchy's Tacos,18817 Limestone Commercial Drive Suite #100,Austin,TX,,US,+1 512-687-7442,https://torchystacos.com/location/stonehill-pflugerville/,Mo-Th 09:00-22:00; Fr-Sa 09:00-23:00; Su 09:00-22:00,Torchy's Tacos,Q106769573
1377348,usps,PFLUGERVILLE,,PFLUGERVILLE,TX,,US,+1 512-251-1184,,Mo-Fr 08:00-17:00; Sa 09:00-13:00,United States Postal Service,Q668687
7866000001,usps_collection_boxes,USPS COLLECTION BOX - BLUE BOX,1701 GRAND AVENUE PKWY,PFLUGERVILLE,TX,,US,,,,United States Postal Service,Q668687
7866000007,usps_collection_boxes,USPS COLLECTION BOX - BLUE BOX,2700 W PECAN ST,PFLUGERVILLE,TX,,US,,,,United States Postal Service,Q668687
7866000000,usps_collection_boxes,USPS COLLECTION BOX - BLUE BOX,1434 W WELLS BRANCH PKWY,PFLUGERVILLE,TX,,US,,,,United States Postal Service,Q668687
7866000008,usps_collection_boxes,USPS COLLECTION BOX - PO LOBBY,301 S HEATHERWILDE BLVD,PFLUGERVILLE,TX,,US,,,,United States Postal Service,Q668687
7866000009,usps_collection_boxes,USPS COLLECTION BOX - PO LOBBY,301 S HEATHERWILDE BLVD,PFLUGERVILLE,TX,,US,,,,United States Postal Service,Q668687
7866000010,usps_collection_boxes,USPS COLLECTION BOX - PO LOBBY,301 S HEATHERWILDE BLVD,PFLUGERVILLE,TX,,US,,,,United States Postal Service,Q668687
7866000013,usps_collection_boxes,USPS COLLECTION BOX - APC,301 S HEATHERWILDE BLVD,PFLUGERVILLE,TX,,US,,,,United States Postal Service,Q668687
7866000021,usps_collection_boxes,USPS COLLECTION BOX - PO LOBBY,301 S HEATHERWILDE BLVD,PFLUGERVILLE,TX,,US,,,,United States Postal Service,Q668687
7866000023,usps_collection_boxes,USPS COLLECTION BOX - BLUE BOX,301 S HEATHERWILDE BLVD,PFLUGERVILLE,TX,,US,,,,United States Postal Service,Q668687
7866000024,usps_collection_boxes,USPS COLLECTION BOX - BLUE BOX,301 S HEATHERWILDE BLVD,PFLUGERVILLE,TX,,US,,,,United States Postal Service,Q668687
7866000011,usps_collection_boxes,USPS COLLECTION BOX - BLUE BOX,900 E PECAN ST,PFLUGERVILLE,TX,,US,,,,United States Postal Service,Q668687
0000027721,valero,G Mart,,PFLUGERVILLE,TX,,US,512-000-0000,https://locations.valero.com/en-us/LocationDetails/Index/1300-W-PFLUGERVILLE-PKWY/0000027721,,Valero,Q1283291
0000028958,valero,SM 29,,PFLUGERVILLE,TX,,US,,https://locations.valero.com/en-us/LocationDetails/Index/2925-FM-1825/0000028958,24/7,Valero,Q1283291
0000029661,valero,Food Box 7,,Pflugerville,TX,,US,,https://locations.valero.com/en-us/LocationDetails/Index/16212-IMPACT-WAY/0000029661,,Valero,Q1283291
0000030450,valero,Food Box 13,,Pflugerville,TX,,US,,https://locations.valero.com/en-us/LocationDetails/Index/208-E-WELL-BRANCH-PARKWAY/0000030450,,Valero,Q1283291
https://vcahospitals.com/hometown,vca,VCA Hometown Animal Hospital,,Pflugerville,TX,,US,+1 512-251-2242,https://vcahospitals.com/hometown,Mo-Fr 07:00-18:00; Sa 08:00-14:00,VCA,Q7906620
https://vcahospitals.com/urgent-care-pflugerville,vca,VCA Animal Hospitals Urgent Care - Pflugerville,,Pflugerville,TX,,US,+1 737-284-2458,https://vcahospitals.com/urgent-care-pflugerville,Mo-Su 10:00-20:00,VCA,Q7906620
R00000131075,verizon_us,Pflugerville,,Pflugerville,TX,,US,+1 512-990-7831,https://www.verizon.com/stores/details/texas/pflugerville/pflugerville-329378/,Mo-Fr 10:00-20:00; Sa 09:00-19:00; Su 10:00-17:00,Verizon,Q919641
,visa,,,PFLUGERVILLE,TX,,US,,,,,
,visa,,,PFLUGERVILLE,TX,,US,,,,,
,visa,,,PFLUGERVILLE,TX,,US,,,,,
,visa,,,PFLUGERVILLE,TX,,US,,,,,
,visa,,,PFLUGERVILLE,TX,,US,,,,,
,visa,,,PFUGERVILLE,TX,,US,,,,,
,visa,,,PFLUGERVILLE,TX,,US,,,,,
,visa,,,PFLUGERVILLE,TX,,US,,,,,
,visa,,,PFLUGERVILLE,TX,,US,,,,,
,visa,,,PFLUGERVILLE,TX,,US,,,,,
,visa,,,PFLUGERVILLE,TX,,US,,,,,
,visa,,,PFLUGERVILLE,TX,,US,,,,,
,visa,,,PFLUGERVILLE,TX,,US,,,,,
,visa,,,PFLUGERVILLE,TX,,US,,,,,
,visa,,,PFLUGERVILLE,TX,,US,,,,,
,visa,,,PFLUGERVILLE,TX,,US,,,,,
,visa,,,PFLUGERVILLE,TX,,US,,,,,
,visa,,,PFLUGERVILLE,TX,,US,,,,,
,visa,,,PFLUGERVILLE,TX,,US,,,,,
,visa,,,PFLUGERVILLE,TX,,US,,,,,
,visa,,,PFLUGERVILLE,TX,,US,,,,,
,visa,,,PFLUGERVILLE,TX,,US,,,,,
,visa,,,PFLUGERVILLE,TX,,US,,,,,
,visa,,,PFLUGERVILLE,TX,,US,,,,,
,visa,,,PLUGARVILLE,TX,,US,,,,,
,visa,,,PFLUGERVILLE,TX,,US,,,,,
,visa,,,PFLUGERVILLE,TX,,US,,,,,
,visa,,,PFLUGERVILLE,TX,,US,,,,,
,visa,,,PFLUGERVILLE,TX,,US,,,,,
,visa,,,PFLUGERVILLE,TX,,US,,,,,
,visa,,,PFLUGERVILLE,TX,,US,,,,,
,visa,,,PFTUGERVILLE,TX,,US,,,,,
,visa,,,PFTUGERVILLE,TX,,US,,,,,
,visa,,,PFLUGERVILLE,TX,,US,,,,,
,visa,,,PFLUGERVILLE,TX,,US,,,,,
,visa,,,PFLUGERVILLE,TX,,US,,,,,
,visa,,,PFLUGERVILLE,TX,,US,,,,,
,visa,,,PFLUGERVILLE,TX,,US,,,,,
,visa,,,PFLUGERVILLE,TX,,US,,,,,
,visa,,,PFLUGERVILLE,TX,,US,,,,,
,visa,,,AUSTIN,TX,,US,,,,,
,visa,,,PFLUGERVILLE,TX,,US,,,,,
,visa,,,PFLUGERVILLE,TX,,US,,,,,
,visa,,,PFLUGERVILLE,TX,,US,,,,,
,visa,,,PFLUGERVILLE,TX,,US,,,,,
,visa,,,PFLUGERVILLE,TX,,US,,,,,
,visa,,,PFLUGERVILLE,TX,,US,,,,,
,visa,,,PFLUGERVILLE,TX,,US,,,,,
,visa,,,PFLUGERVILLE,TX,,US,,,,,
,visa,,,PFLUGERVILLE,TX,,US,,,,,
,visa,,,PFLUGERVILLE,TX,,US,,,,,
,visa,,,PFLUGERVILLE,TX,,US,,,,,
,visa,,,PFLUGERVILLE,TX,,US,,,,,
,visa,,,PFLUGERVILLE,TX,,US,,,,,
,visa,,,PFLUGERVILLE,TX,,US,,,,,
,visa,,,PFLUGERVILLE,TX,,US,,,,,
,visa,,,PFLUGERVILLE,TX,,US,,,,,
,visa,,,PFLUGERVILLE,TX,,US,,,,,
,visa,,,PFLUGERVILLE,TX,,US,,,,,
,visa,,,PFLUGERVILLE,TX,,US,,,,,
,visa,,,PFLUGERVILLE,TX,,US,,,,,
,visa,,,PFLUGERVILLE,TX,,US,,,,,
,visa,,,PFLUGERVILLE,TX,,US,,,,,
,visa,,,SAN MARCOS,TX,,US,,,,,
1382,visionworks,Visionworks,,Pflugerville,TX,,US,+1 737-910-0104,https://locations.visionworks.com/ll/US/TX/Pflugerville/18841-Farm-to-Market-685,Mo-Sa 10:00-18:30,Visionworks,Q5422607
https://www.walgreens.com/locator/walgreens-1821+fm+685-pflugerville-tx-78660/id=11568,walgreens,Walgreens,,Pflugerville,TX,,US,+1 512-687-7291,https://www.walgreens.com/locator/walgreens-1821+fm+685-pflugerville-tx-78660/id=11568,Mo-Su 08:00-22:00,Walgreens,Q1591889
https://www.walgreens.com/locator/walgreens-1509+e+wells+branch+pkwy-pflugerville-tx-78660/id=13446,walgreens,Walgreens,,Pflugerville,TX,,US,+1 512-687-0552,https://www.walgreens.com/locator/walgreens-1509+e+wells+branch+pkwy-pflugerville-tx-78660/id=13446,Mo-Su 07:00-23:00,Walgreens,Q1591889
https://www.walgreens.com/locator/walgreens-2021+w+pecan+st-pflugerville-tx-78660/id=3159,walgreens,Walgreens,,Pflugerville,TX,,US,+1 512-251-4554,https://www.walgreens.com/locator/walgreens-2021+w+pecan+st-pflugerville-tx-78660/id=3159,Mo-Su 07:00-22:00,Walgreens,Q1591889
w242,waxing_the_city_us,Pflugerville,,Pflugerville,TX,,US,+1 512-525-8425,https://www.waxingthecity.com/locations/w242/us/tx/pflugerville/,Mo-Fr 09:00-20:00; Sa 09:00-18:00; Su 09:00-17:00,Waxing the City,Q120599883
1615__GRAND__AVE__PKWY_PFLUGERVILLE_TX_78660,wellsfargo,,1615 GRAND AVE PKWY,PFLUGERVILLE,TX,,US,+1 800-869-3557,https://www.wellsfargo.com/locator/bank/1615__GRAND__AVE__PKWY_PFLUGERVILLE_TX_78660/,,Wells Fargo,Q744149
1608__TOWN__CENTER__DR__STE__650_PFLUGERVILLE_TX_78660,wellsfargo,Wells Fargo,1608 TOWN CENTER DR STE 650,PFLUGERVILLE,TX,,US,+1 512-354-3417,https://www.wellsfargo.com/locator/bank/1608__TOWN__CENTER__DR__STE__650_PFLUGERVILLE_TX_78660/,Mo-Fr 09:00-17:00,Wells Fargo,Q744149
https://locations.wendys.com/#9254884,wendys,"Wendy's 120 Pflugerville in Pflugerville, TX",,Pflugerville,TX,,US,+1 737-733-4435,https://locations.wendys.com/united-states/tx/pflugerville/1425-wells-branch-pkwy,Mo-Su 04:00-10:30,Wendy's,Q550258
b609b1bc0f45b208030f0286f6a4a95c,western_union,WALMART #005479,,Pflugerville,TX,,US,+1 512-252-0112,https://location.westernunion.com/us/tx/pflugerville/b609b1bc0f45b208030f0286f6a4a95c,Mo-Su 07:00-21:00,Western Union,Q861042
ca8a342eab356f7799e135c165bb32ff,western_union,CAMBIO PLUS # 1,,Pflugerville,TX,,US,+1 512-800-8094,https://location.westernunion.com/us/tx/pflugerville/ca8a342eab356f7799e135c165bb32ff,Mo-Su 09:00-21:00,Western Union,Q861042
40c9709c1f1bedf69dc41d57c45207b2,western_union,CAMBIO PLUS # 1,,Pflugerville,TX,,US,+1 512-800-8094,https://location.westernunion.com/us/tx/pflugerville/40c9709c1f1bedf69dc41d57c45207b2,Mo-Su 09:00-21:00,Western Union,Q861042
217b8a4dd5f859bd67072874cc312a6a,western_union,7-ELEVEN #35624,,Pflugerville,TX,,US,+1 512-990-7291,https://location.westernunion.com/us/tx/pflugerville/217b8a4dd5f859bd67072874cc312a6a,,Western Union,Q861042
d96bb1b6aa85ca4e6f59a2985a19158d,western_union,QUIKTRIP #4147,,Pflugerville,TX,,US,+1 512-872-8956,https://location.westernunion.com/us/tx/pflugerville/d96bb1b6aa85ca4e6f59a2985a19158d,,Western Union,Q861042
107ce950fe2b5dc8ac3adc3c8f0d6c3e,western_union,7-ELEVEN #35623,,Pflugerville,TX,,US,+1 512-989-5716,https://location.westernunion.com/us/tx/pflugerville/107ce950fe2b5dc8ac3adc3c8f0d6c3e,,Western Union,Q861042
e49f46623413a1b109eb75d805a4e44c,western_union,ADVANCE AMERICA #04853,,Pflugerville,TX,,US,+1 512-989-9912,https://location.westernunion.com/us/tx/pflugerville/e49f46623413a1b109eb75d805a4e44c,Mo-Fr 10:00-18:00; Sa 10:00-15:00,Western Union,Q861042
d9a099c4cdd9bc87bbb8685416bc2b7c,western_union,LATINO EXPRESS # 2,,Pflugerville,TX,,US,+1 512-383-5739,https://location.westernunion.com/us/tx/pflugerville/d9a099c4cdd9bc87bbb8685416bc2b7c,Mo-Su 09:00-21:00,Western Union,Q861042
2343174912754b024bd2a6dde7b54d4c,western_union,7-ELEVEN #34253,,Pflugerville,TX,,US,+1 512-989-0393,https://location.westernunion.com/us/tx/pflugerville/2343174912754b024bd2a6dde7b54d4c,,Western Union,Q861042
aadb714443d4a739d7a463339af31b64,western_union,TEXACO FOOD MART,,Pflugerville,TX,,US,+1 512-252-8747,https://location.westernunion.com/us/tx/pflugerville/aadb714443d4a739d7a463339af31b64,Mo-Su 07:00-22:00,Western Union,Q861042
e7e1c96c4c4b3f55d908ec04c0ec1eda,western_union,ASHA FOOD INC,,Pflugerville,TX,,US,+1 512-252-8747,https://location.westernunion.com/us/tx/pflugerville/e7e1c96c4c4b3f55d908ec04c0ec1eda,Mo-Su 07:00-22:00,Western Union,Q861042
https://locations.whataburger.com/tx/pflugerville/18609-limestone-commercial-dr.html,whataburger,Limestone & Town Center,18609 LIMESTONE COMMERCIAL DR,PFLUGERVILLE,TX,,US,,https://locations.whataburger.com/tx/pflugerville/18609-limestone-commercial-dr.html,,Whataburger,Q376627
https://www.willscot.com/locations/austin,willscot,WillScot,,Pflugerville,TX,,US,+1 512-930-0566,https://www.willscot.com/locations/austin,,WillScot,Q123415387
24172,wingstop,Wingstop Pflugerville Limestone Commercial Dr.,"18816 Limestone Commercial Dr, Ste. 400",Pflugerville,TX,,US,+1 512-251-9464,,,Wingstop,Q8025339
192625,wingstop,Wingstop Pflugerville Wells Branch Pkwy,1420 Wells Branch Pkwy. Ste 100,Pflugerville,TX,,US,+1 737-301-9064,,,Wingstop,Q8025339
546,world_finance_us,,"1912 W Pecan St Ste 207, Pflugerville, TX, 78660",Pflugerville,TX,,US,+1 512-670-3101,https://www.loansbyworld.com/branches/branch-546,Mo-Fr 09:00-17:30; Sa 09:00-12:00,World Finance,Q3569971
