Ref,Spider,Name,Address,City,State,Zipcode,Country,Phone,Website,Hours,Brand,WikiData
344,anthonys_restaurants,Anthony’s Hearthfire Grill – Bellingham,,Bellingham,WA,,US,+1 360-527-3473,https://www.anthonys.com/restaurant/anthonys-hearthfire-grill-squalicum-harbor/,,Anthony's,
335,anthonys_restaurants,Anthony’s at Squalicum Harbor,,Bellingham,WA,,US,+1 360-647-5588,https://www.anthonys.com/restaurant/anthonys-at-squalicum-harbor/,,Anthony's,
4949,anytime_fitness,Anytime Fitness,,Bellingham,WA,,US,+1 360-788-5900,https://www.anytimefitness.com/gyms/4949/bellingham-wa-98225/,,Anytime Fitness,Q4778364
13385,asics_us,Fairhaven Runners & Walkers,1209 11th St,Bellingham,WA,,US,+1 360-676-4955,,Mo-Sa 10:00-17:00; Su 11:00-17:00,asics,Q327247
19210,asics_us,BBay Running,1431 N State St,Bellingham,WA,,US,+1 360-738-6900,,Mo-Fr 10:00-18:00; Sa 10:00-17:00; Su 11:00-16:00,asics,Q327247
11033,asics_us,REI - Bellingham,400 36th St,Bellingham,WA,,US,+1 360-647-8955,,Mo-Sa 10:00-20:00; Su 11:00-16:00,asics,Q327247
30087,asics_us,Prostock Athletic Supply,110 N Samish Way,Bellingham,WA,,US,+1 360-647-0410,,,asics,Q327247
4130,autozone_us,AutoZone Auto Parts Bellingham,,Bellingham,WA,,US,+1 360-733-3065,https://www.autozone.com/locations/wa/bellingham/1926-james-st.html,Mo-Sa 07:30-21:00; Su 08:30-19:00,AutoZone,Q4826087
https://awrestaurants.com/locations/washington/bellingham/1120-barkley-blvd/,awrestaurants,A&W Restaurant,,Bellingham,WA,,US,+1 360-734-4550,https://awrestaurants.com/locations/washington/bellingham/1120-barkley-blvd/,Mo-Su 10:30-21:00,A&W Restaurants,Q277641
https://locators.bankofamerica.com/wa/bellingham/financial-centers-bellingham-969.html,bankofamerica,Bank of America Financial Center & Walk-Up ATM | Bellingham,,Bellingham,WA,,US,+1 360-676-2816,https://locators.bankofamerica.com/wa/bellingham/financial-centers-bellingham-969.html,Mo-Fr 10:00-16:00,Bank of America,Q487907
https://locators.bankofamerica.com/wa/bellingham/atm-bellingham-109806.html,bankofamerica,Bank of America Walk-Up ATM | Sehome,,Bellingham,WA,,US,+1 844-401-8500,https://locators.bankofamerica.com/wa/bellingham/atm-bellingham-109806.html,,Bank of America,Q487907
https://local.biglots.com/#13718616,biglots,Big Lots - Bellingham,,Bellingham,WA,,US,+1 360-543-8152,https://local.biglots.com/wa/bellingham/1650-birchwood-ave,Mo-Sa 09:00-21:00; Su 09:00-19:00,Big Lots,Q4905973
59009-24,birkenstock,Beck's Shoes Inc,,Bellingham,WA,,US,+1 360-734-3090,https://www.birkenstock.com/us/search?cgid=store-59009-24,,Birkenstock,Q648458
156916,bluerhino,Walgreens #16095,,Bellingham,WA,,US,+1 360-392-2936,,,Blue Rhino,Q65681213
206785,bluerhino,Rite Aid #05238,,Bellingham,WA,,US,+1 360-734-8254,,,Blue Rhino,Q65681213
243849,bluerhino,"Thanvi, Inc - Ace Hardware #19079",,Bellingham,WA,,US,+1 360-933-4686,,,Blue Rhino,Q65681213
10364,brookdale_us,Brookdale Fairhaven,,Bellingham,WA,,US,+1 360-647-1254,https://www.brookdale.com/en/communities/brookdale-fairhaven.html,,Brookdale,Q4974387
1153,buffalo_exchange_us,Bellingham &#8211; Downtown,1209 N State St,"Bellingham,",WA,,US,+1 360-676-1375,https://buffaloexchange.com/location/downtown-bellingham/,,Buffalo Exchange,Q4985721
2039650,chase_us,Bellingham - New branch,,Bellingham,WA,,US,+1 360-676-8900,https://locator.chase.com/wa/bellingham/1336-cornwall-ave,Mo-Fr 09:00-17:00,Chase,Q524629
359406,chevron,Chevron Station #359406,1008 W HOLLY ST,BELLINGHAM,WA,,US,+1 360-734-1472,,,Chevron,Q319642
374324,chevron,Chevron Station #374324,505 32ND STREET,BELLINGHAM,WA,,US,+1 360-312-1100,,,Chevron,Q319642
87187,citi,ATM Walgreens,,Bellingham,WA,,US,,,,Citibank,Q857063
73071,citi,ATM Rite Aid,,Bellingham,WA,,US,,,,Citibank,Q857063
95233,citi,ATM WHATCOM EDUCATIONAL CU,,Bellingham,WA,,US,,,,Citibank,Q857063
93821,citi,ATM WASHINGTON FEDERAL BANK,,Bellingham,WA,,US,,,,Citibank,Q857063
67485,citi,ATM PEOPLES BANK,,Bellingham,WA,,US,,,,Citibank,Q857063
95190,citi,ATM Western Washington University,,Bellingham,WA,,US,,,,Citibank,Q857063
75453,citi,ATM SAVIBANK,,Bellingham,WA,,US,,,,Citibank,Q857063
95232,citi,ATM WHATCOM EDUCATIONAL CU,,Bellingham,WA,,US,,,,Citibank,Q857063
95218,citi,ATM WHATCOM EDUCATIONAL CREDIT UNION,,Bellingham,WA,,US,,,,Citibank,Q857063
55606,citi,ATM FIRST FED BANK,,Bellingham,WA,,US,,,,Citibank,Q857063
95226,citi,ATM WHATCOM EDUCATIONAL CU,,Bellingham,WA,,US,,,,Citibank,Q857063
29079,citi,ATM 7ELEVEN-FCTI,,Bellingham,WA,,US,,,,Citibank,Q857063
73232,citi,ATM Rite Aid,,Bellingham,WA,,US,,,,Citibank,Q857063
95230,citi,ATM WHATCOM EDUCATIONAL CU,,Bellingham,WA,,US,,,,Citibank,Q857063
67501,citi,ATM PEOPLES BANK,,Bellingham,WA,,US,,,,Citibank,Q857063
55589,citi,ATM FIRST FED BANK,,Bellingham,WA,,US,,,,Citibank,Q857063
36632,citi,ATM Bellingham Tech College - Building G Cafeteri,,Bellingham,WA,,US,,,,Citibank,Q857063
,credit_union_us,Industrial Credit Union,,Bellingham,WA,,US,+1 360-734-2043,,Mo-Fr 09:00-05:30,,
,credit_union_us,Industrial Credit Union,,Bellingham,WA,,US,+1 360-734-2043,,Mo-Fr 09:30-05:30,,
7087,dominos_pizza_us,Domino's Pizza,,Bellingham,WA,,US,+1 360-671-8282,https://pizza.dominos.com/washington/bellingham/402-36th-street,Mo-Th 10:30-24:00; Fr-Sa 10:30-01:00; Su 10:30-24:00,Domino's,Q839466
https://www.edwardjones.com/us-en/financial-advisor/jenson-ellars,edwardjones,Jenson S Ellars,,Bellingham,WA,,US,+1 360-527-1414,https://www.edwardjones.com/us-en/financial-advisor/jenson-ellars,Mo-Th 08:30-17:00; Fr 08:30-16:00,Edward Jones,Q5343830
E14533,enterprise,Bellingham,,Bellingham,WA,,US,+1 360-733-4363,,,Enterprise Rent-A-Car,Q17085454
200325427,exxonmobil,LAKEWAY STATION,,BELLINGHAM,WA,,US,+1 360-734-8690,https://www.exxon.com/en/find-station/mobil-bellingham-wa-lakewaystation-200325427,Mo-Su 05:00-22:00,Mobil,Q109676002
200322952,exxonmobil,MERIDIAN FOOD AND GAS,,BELLINGHAM,WA,,US,+1 360-778-3219,https://www.exxon.com/en/find-station/mobil-bellingham-wa-meridianfoodandgas-200322952,Mo-Sa 08:00-21:00; Su 08:00-20:00,Mobil,Q109676002
https://local.fedex.com/#25198916,fedex,,,Bellingham,WA,,US,+1 800-463-3339,https://local.fedex.com/en-us/wa/bellingham/kxv7j,,FedEx,Q459477
https://local.fedex.com/#27761506,fedex,FedEx Authorized ShipCenter,,Bellingham,WA,,US,+1 360-738-9210,https://local.fedex.com/en-us/wa/bellingham/96230,,FedEx,Q459477
https://local.fedex.com/#27766413,fedex,FedEx Authorized ShipCenter,,Bellingham,WA,,US,+1 360-647-8556,https://local.fedex.com/en-us/wa/bellingham/002lc,,FedEx,Q459477
655643,firestone_auto_care,Firestone Complete Auto Care,,Bellingham,WA,,US,+1 360-325-7465,https://local.firestonecompleteautocare.com/washington/bellingham/1530-n-state-st/,,Firestone,Q420837
Motorcraft5560USAEnglish,ford,Diehl Ford,,Washington,WA,,US,+1 360-392-7000,,,Ford,Q44294
https://www.ford.com/dealerships/dealer-details/wa/bellingham/bellingham-ford/,ford_dealers_us,Bellingham Ford,,Bellingham,WA,,US,+1 360-383-5855,https://www.ford.com/dealerships/dealer-details/wa/bellingham/bellingham-ford/,Mo-Fr 09:00-19:00; Sa 09:00-18:00; Su 11:00-17:00,Ford Motor Company,Q44294
https://local.haggen.com/#5603612,haggen,Haggen,,Bellingham,WA,,US,+1 360-671-3300,https://local.haggen.com/wa/bellingham/2814-meridian-st.html,Mo-Su 06:00-24:00,Haggen,Q5638683
https://local.haggen.com/#5603617,haggen,Haggen,,Bellingham,WA,,US,+1 360-676-1996,https://local.haggen.com/wa/bellingham/210-36th-st.html,Mo-Su 06:00-24:00,Haggen,Q5638683
https://local.haggen.com/#5603615,haggen,Haggen,,Bellingham,WA,,US,+1 360-733-4370,https://local.haggen.com/wa/bellingham/1401-12th-st.html,Mo-Su 06:00-24:00,Haggen,Q5638683
63784,h_r_block,H&R Block,,Bellingham,WA,,US,+1 360-733-2327,https://www.hrblock.com/local-tax-offices/washington/bellingham/2700-b-meridian-st/63784/,,H&R Block,Q5627799
https://locations.jimmyjohns.com/wa/bellingham/sandwiches-1602.html,jimmy_johns,Jimmy John's,,Bellingham,WA,,US,+1 360-738-7550,https://locations.jimmyjohns.com/wa/bellingham/sandwiches-1602.html,,Jimmy John's,Q1689380
https://locations.kfc.com/#11247424,kfc,Chicken Nuggets Near Bellingham,,Bellingham,WA,,US,,https://locations.kfc.com/wa/bellingham/1120-barkley-boulevard/chickennugget,Mo-Su 10:00-24:00,KFC,Q524757
52197,little_free_library,Linda Luke #52197 Ferndale WA,,Ferndale,WA,,US,,,,Little Free Library,Q6650101
100368,little_free_library,Sally Baird #100368 Bellingham WA,,Bellingham,WA,,US,,,,Little Free Library,Q6650101
16857,little_free_library,Our Saviour's Lutheran Church #16857 Bellingham WA,,Bellingham,WA,,US,,,,Little Free Library,Q6650101
7798,little_free_library,Chris Owings #7798 Bellingham WA,,Bellingham,WA,,US,,,,Little Free Library,Q6650101
23677,little_free_library,Holly Buskirk #23677 Bellingham WA,,Bellingham,WA,,US,,,,Little Free Library,Q6650101
11126,little_free_library,Myra Harmer #11126 Bellingham WA,,Bellingham,WA,,US,,,,Little Free Library,Q6650101
65997,little_free_library,Neil McCrea #65997 Bellingham WA,,Bellingham,WA,,US,,,,Little Free Library,Q6650101
14109,little_free_library,Janice Keller #14109 Bellingham WA,,Bellingham,WA,,US,,,,Little Free Library,Q6650101
105931,little_free_library,Big Blue Free Little Library #105931 Bellingham WA,,Bellingham,WA,,US,,,,Little Free Library,Q6650101
145488,little_free_library,Flip Breskin #145488 #145488 BELLINGHAM WA,,BELLINGHAM,WA,,US,,,,Little Free Library,Q6650101
7898,little_free_library,Lisa Christensen #7898 Bellingham WA,,Bellingham,WA,,US,,,,Little Free Library,Q6650101
130495,little_free_library,Elizabeth Library #130495 Bellingham WA,,Bellingham,WA,,US,,,,Little Free Library,Q6650101
45467,little_free_library,Caitlin Jans #45467 Bellingham WA,,Bellingham,WA,,US,,,,Little Free Library,Q6650101
7148,little_free_library,Phillip Bowefield #7148 Bellingham WA,,Bellingham,WA,,US,,,,Little Free Library,Q6650101
90806,little_free_library,Northwest Yarns Little Free Library #90806 Bellingham WA,,Bellingham,WA,,US,,,,Little Free Library,Q6650101
145390,little_free_library,Jason Benhaim #145390 Bellingham WA,,Bellingham,WA,,US,,,,Little Free Library,Q6650101
58042,little_free_library,Travis Lindquist #58042 Bellingham WA,,Bellingham,WA,,US,,,,Little Free Library,Q6650101
84433,little_free_library,Joy of Pilates & Fitness #84433 Bellingham WA,,Bellingham,WA,,US,,,,Little Free Library,Q6650101
35987,little_free_library,Drew Betz #35987 Bellingham WA,,Bellingham,WA,,US,,,,Little Free Library,Q6650101
165109,little_free_library,Little Pink & Purple Library #165109 Bellingham WA,,Bellingham,WA,,US,,,,Little Free Library,Q6650101
6691,little_free_library,Suzy Thompson #6691 Bellingham WA,,Bellingham,WA,,US,,,,Little Free Library,Q6650101
169350,little_free_library,Ranger Station at the Purple House #169350 Bellingham WA,,Bellingham,WA,,US,,,,Little Free Library,Q6650101
11105,little_free_library,James Street Library #11105 Bellingham WA,,Bellingham,WA,,US,,,,Little Free Library,Q6650101
28990,little_free_library,Dr. Project's Little Free Library #28990 Bellingham WA,,Bellingham,WA,,US,,,,Little Free Library,Q6650101
100996,little_free_library,Kimberly Cowan #100996 Bellingham WA,,Bellingham,WA,,US,,,,Little Free Library,Q6650101
Fairhaven Towers Pop Up,lululemon,Lululemon,"1215 12th Street, Unit 101 & 102 (Fairhaven Towers), Bellingham, WA, US, 98225",Bellingham,WA,,US,+1 360-733-3552,https://shop.lululemon.com/stores/us/bellingham/fairhaven-towers-pop-up,Mo-Th 10:00-18:00; Fr-Sa 10:00-19:00; Su 10:00-18:00,Lululemon,Q6702957
https://locations.massageenvy.com/#1773835,massage_envy,Massage Envy Bellingham (TEMPORARILY CLOSED),,Bellingham,WA,,US,+1 360-756-1100,https://locations.massageenvy.com/washington/bellingham/330-36th-street.html,,Massage Envy,Q10327170
https://locations.modpizza.com/#80484446,modpizza,MOD Pizza Sehome Village - Coming Soon,,Bellingham,WA,,US,+1 360-526-0616,https://locations.modpizza.com/usa/wa/bellingham/330-36th-st.,,MOD Pizza,Q19903469
37257,orangetheory_fitness,"Bellingham, WA",,Bellingham,WA,,US,+1 564-888-2420,,,Orangetheory Fitness,Q25005163
https://locations.oreillyauto.com/wa/bellingham/check-engine-light-testing-2515.html,oreilly,Your Bellingham O'Reilly Auto Parts Store,,Bellingham,WA,,US,+1 360-676-8380,https://locations.oreillyauto.com/wa/bellingham/check-engine-light-testing-2515.html,Mo-Sa 07:30-21:00; Su 08:00-20:00,O'Reilly Auto Parts,Q7071951
https://locations.oreillyauto.com/wa/bellingham/wiper-installation-2515.html,oreilly,Your Bellingham O'Reilly Auto Parts Store,,Bellingham,WA,,US,+1 360-676-8380,https://locations.oreillyauto.com/wa/bellingham/wiper-installation-2515.html,Mo-Sa 07:30-21:00; Su 08:00-20:00,O'Reilly Auto Parts,Q7071951
https://locations.oreillyauto.com/wa/bellingham/autopartes-2515.html,oreilly,Tu tienda O'Reilly Auto Parts en Bellingham,,Bellingham,WA,,US,+1 360-676-8380,https://locations.oreillyauto.com/wa/bellingham/autopartes-2515.html,Mo-Sa 07:30-21:00; Su 08:00-20:00,O'Reilly Auto Parts,Q7071951
https://locations.oreillyauto.com/wa/bellingham/battery-testing-2515.html,oreilly,Your Bellingham O'Reilly Auto Parts Store,,Bellingham,WA,,US,+1 360-676-8380,https://locations.oreillyauto.com/wa/bellingham/battery-testing-2515.html,Mo-Sa 07:30-21:00; Su 08:00-20:00,O'Reilly Auto Parts,Q7071951
https://www.orkin.com/locations/washington-wa/bellingham-pest-control/branch-244,orkin_us,Orkin,,Bellingham,WA,,US,+1 360-483-0300,https://www.orkin.com/locations/washington-wa/bellingham-pest-control/branch-244,,Orkin,Q7102943
https://locations.papamurphys.com/#15429840,papamurphys,Pizza Takeout & Delivery,,Bellingham,WA,,US,+1 360-671-6393,https://locations.papamurphys.com/wa/bellingham/2400-james-street,Mo-Su 11:00-20:00,Papa Murphy's,Q7132349
https://www.plannedparenthood.org/health-center/washington/bellingham/98225/bellingham-health-center-2454-91780,planned_parenthood,Planned Parenthood,,Bellingham,WA,,US,,https://www.plannedparenthood.org/health-center/washington/bellingham/98225/bellingham-health-center-2454-91780,,Planned Parenthood,Q2553262
stocktons-paint-24851,ppgpaints,STOCKTONS PAINT,,"Bellingham, ",WA,,US,+1 360-733-5630,https://www.ppgpaints.com/store-locator/us/washington/bellingham-paint-stores/stocktons-paint-24851,,PPG Paints,Q83891559
05237,rite_aid_us,Rite Aid #05237 Bellingham,,Bellingham,WA,,US,+1 360-647-2175,https://locations2.riteaid.com.yext-cdn.com/wa/bellingham/3227-northwest-avenue.html,Mo-Fr 08:00-21:00; Sa-Su 09:00-21:00,Rite Aid,Q3433273
05238,rite_aid_us,Rite Aid #05238 Bellingham,,Bellingham,WA,,US,+1 360-734-8254,https://locations2.riteaid.com.yext-cdn.com/wa/bellingham/220-36th-street.html,Mo-Fr 08:00-22:00; Sa-Su 09:00-21:00,Rite Aid,Q3433273
3346,shellrecharge,Chuckanut Builders,,Bellingham,WA,,US,,,,Shell Recharge,Q105883058
3459,shellrecharge,Interdisc Science Lot 9G,,Bellingham,WA,,US,,,,Shell Recharge,Q105883058
https://stations.sinclairoil.com/wa/bellingham/108-s-samish-way,sinclair_us,Sinclair,,Bellingham,WA,,US,+1 360-988-0818,https://stations.sinclairoil.com/wa/bellingham/108-s-samish-way,Mo-Su 05:00-24:00,Sinclair,Q1290900
https://restaurants.subway.com/#1014561669,subway,Subway Western Washington Univ.,,Bellingham,WA,,US,+1 800-888-4848,https://restaurants.subway.com/united-states/wa/bellingham/504-high-street,,Subway,Q244457
https://restaurants.subway.com/#14903708,subway,Subway Park Manor Shopping Center,,Bellingham Whatcom,WA,,US,+1 360-647-5494,https://restaurants.subway.com/united-states/wa/bellingham/3212-nw-ave,Mo-Su 09:00-22:00,Subway,Q244457
https://restaurants.subway.com/#14908160,subway,Subway Western Washington University,,Bellingham Whatcom,WA,,US,+1 360-650-2340,https://restaurants.subway.com/united-states/wa/bellingham/516-high-st-viking-union,Mo-Fr 07:30-19:00; Sa-Su 11:00-19:00,Subway,Q244457
https://restaurants.subway.com/#14905210,subway,Subway,,Bellingham Whatcom,WA,,US,+1 360-389-5233,https://restaurants.subway.com/united-states/wa/bellingham/3123-old-fairhaven-pkwy,Mo-Th 07:00-20:00; Fr 07:00-21:00; Sa-Su 07:00-20:00,Subway,Q244457
https://restaurants.subway.com/#14895025,subway,Subway,,Bellingham Whatcom,WA,,US,+1 360-715-1661,https://restaurants.subway.com/united-states/wa/bellingham/1920-king-street,Mo-Fr 07:00-21:00; Sa 08:00-20:00; Su 09:00-20:00,Subway,Q244457
https://restaurants.subway.com/#14903600,subway,Subway,,Bellingham Whatcom,WA,,US,+1 360-671-2861,https://restaurants.subway.com/united-states/wa/bellingham/105-samish-way,Mo-Fr 08:00-22:00; Sa-Su 09:00-21:00,Subway,Q244457
658E,tmobile_us,36th & S Samish Way,,Bellingham,WA,,US,+1 360-778-3131,https://www.t-mobile.com/store-locator/wa/bellingham/36th-s-samish-way,,T-Mobile,Q3511885
151,trader_joes_us,Trader Joe's Bellingham (151),,Bellingham,WA,,US,+1 360-734-5166,https://locations.traderjoes.com/wa/bellingham/151/,Mo-Su 08:00-21:00,Trader Joe's,Q688825
https://www.trekbikes.com/us/en_US/retail/bellingham/,trekbikes,Trek Bicycle Bellingham,,Bellingham,WA,,US,+1 360-733-6440,https://www.trekbikes.com/us/en_US/retail/bellingham/,Tu-Sa 10:00-18:00,Trek,Q1067617
002165,uhaul,Bellingham Heated Mini Storage,1910 James St,Bellingham,WA,,US,+1 360-746-0670,,Mo-Sa 00:00-18:00,U-Haul,Q7862902
055701,uhaul,Urban Storage on Bennett,3254 Bennett Dr,Bellingham,WA,,US,+1 360-312-4033,,Mo-Sa 30:00-18:00,U-Haul,Q7862902
017047,uhaul,Bellingham Coin Shop,1806 Cornwall Ave,Bellingham,WA,,US,+1 360-255-7188,,Mo-Fr 00:00-18:00; Sa 00:00-17:00,U-Haul,Q7862902
1354547,usps,BELLINGHAM,,BELLINGHAM,WA,,US,+1 360-752-9822,,Mo-Fr 08:30-17:00; Sa 09:00-13:00,United States Postal Service,Q668687
1358092,usps,CITY CENTER,,BELLINGHAM,WA,,US,+1 360-752-9822,,Mo-Fr 11:00-17:00,United States Postal Service,Q668687
9822500006,usps_collection_boxes,USPS COLLECTION BOX - BLUE BOX,3149 ELLIS ST,BELLINGHAM,WA,,US,,,,United States Postal Service,Q668687
9822500066,usps_collection_boxes,USPS COLLECTION BOX - BLUE BOX,801 W ORCHARD DR,BELLINGHAM,WA,,US,,,,United States Postal Service,Q668687
9822500079,usps_collection_boxes,USPS COLLECTION BOX - BLUE BOX,1720 ELLIS ST,BELLINGHAM,WA,,US,,,,United States Postal Service,Q668687
9822500003,usps_collection_boxes,USPS COLLECTION BOX - BLUE BOX,1815 CORNWALL AVE,BELLINGHAM,WA,,US,,,,United States Postal Service,Q668687
9822500072,usps_collection_boxes,USPS COLLECTION BOX - BLUE BOX,1500 CORNWALL AVE,BELLINGHAM,WA,,US,,,,United States Postal Service,Q668687
9822500019,usps_collection_boxes,USPS COLLECTION BOX - BLUE BOX,322 N COMMERCIAL ST,BELLINGHAM,WA,,US,,,,United States Postal Service,Q668687
9822500074,usps_collection_boxes,USPS COLLECTION BOX - BLUE BOX,2800 MERIDIAN ST,BELLINGHAM,WA,,US,,,,United States Postal Service,Q668687
9822500016,usps_collection_boxes,USPS COLLECTION BOX - BLUE BOX,124 N COMMERCIAL ST,BELLINGHAM,WA,,US,,,,United States Postal Service,Q668687
9822500084,usps_collection_boxes,USPS COLLECTION BOX - PO LOBBY,104 W MAGNOLIA ST,BELLINGHAM,WA,,US,,,,United States Postal Service,Q668687
9822500004,usps_collection_boxes,USPS COLLECTION BOX - BLUE BOX,809 E CHESTNUT ST,BELLINGHAM,WA,,US,,,,United States Postal Service,Q668687
9822500013,usps_collection_boxes,USPS COLLECTION BOX - BLUE BOX,104 W MAGNOLIA ST,BELLINGHAM,WA,,US,,,,United States Postal Service,Q668687
9822500085,usps_collection_boxes,USPS COLLECTION BOX - PO LOBBY,104 W MAGNOLIA ST STE 100,BELLINGHAM,WA,,US,,,,United States Postal Service,Q668687
9822500056,usps_collection_boxes,USPS COLLECTION BOX - BLUE BOX,315 LOTTIE ST,BELLINGHAM,WA,,US,,,,United States Postal Service,Q668687
9822500036,usps_collection_boxes,USPS COLLECTION BOX - PO LOBBY,315 PROSPECT ST,BELLINGHAM,WA,,US,,,,United States Postal Service,Q668687
9822500082,usps_collection_boxes,USPS COLLECTION BOX - APC,315 PROSPECT ST,BELLINGHAM,WA,,US,,,,United States Postal Service,Q668687
9822500076,usps_collection_boxes,USPS COLLECTION BOX - BLUE BOX,315 PROSPECT ST,BELLINGHAM,WA,,US,,,,United States Postal Service,Q668687
9822500086,usps_collection_boxes,USPS COLLECTION BOX - PO LOBBY,315 PROSPECT ST,BELLINGHAM,WA,,US,,,,United States Postal Service,Q668687
9822500027,usps_collection_boxes,USPS COLLECTION BOX - BLUE BOX,3300 NORTHWEST AVE,BELLINGHAM,WA,,US,,,,United States Postal Service,Q668687
9822500051,usps_collection_boxes,USPS COLLECTION BOX - BLUE BOX,101 E HOLLY ST,BELLINGHAM,WA,,US,,,,United States Postal Service,Q668687
9822500042,usps_collection_boxes,USPS COLLECTION BOX - BLUE BOX,805 DUPONT ST,BELLINGHAM,WA,,US,,,,United States Postal Service,Q668687
9822500053,usps_collection_boxes,USPS COLLECTION BOX - BLUE BOX,121 PROSPECT ST,BELLINGHAM,WA,,US,,,,United States Postal Service,Q668687
9822500011,usps_collection_boxes,USPS COLLECTION BOX - BLUE BOX,1155 N STATE ST,BELLINGHAM,WA,,US,,,,United States Postal Service,Q668687
9822500038,usps_collection_boxes,USPS COLLECTION BOX - BLUE BOX,100 E CHESTNUT ST,BELLINGHAM,WA,,US,,,,United States Postal Service,Q668687
9822500080,usps_collection_boxes,USPS COLLECTION BOX - BLUE BOX,222 36TH ST,BELLINGHAM,WA,,US,,,,United States Postal Service,Q668687
9822500081,usps_collection_boxes,USPS COLLECTION BOX - BLUE BOX,11 BELLWETHER WAY,BELLINGHAM,WA,,US,,,,United States Postal Service,Q668687
9822500048,usps_collection_boxes,USPS COLLECTION BOX - BLUE BOX,501 HIGH ST,BELLINGHAM,WA,,US,,,,United States Postal Service,Q668687
9822500061,usps_collection_boxes,USPS COLLECTION BOX - BLUE BOX,851 COHO WAY,BELLINGHAM,WA,,US,,,,United States Postal Service,Q668687
9822500055,usps_collection_boxes,USPS COLLECTION BOX - BLUE BOX,3025 LINDBERGH AVE,BELLINGHAM,WA,,US,,,,United States Postal Service,Q668687
9822500008,usps_collection_boxes,USPS COLLECTION BOX - BLUE BOX,1115 HARRIS AVE,BELLINGHAM,WA,,US,,,,United States Postal Service,Q668687
,visa,,,SEDRO WOOLLEY,WA,,US,,,,,
,visa,,,SEDRO WOOLLEY,WA,,US,,,,,
,visa,,,BELLINGHAM,WA,,US,,,,,
,visa,,,BELLINGHAM,WA,,US,,,,,
,visa,,,BELLINGHAM,WA,,US,,,,,
,visa,,,BELLINGHAM,WA,,US,,,,,
,visa,,,BELLINGHAM,WA,,US,,,,,
,visa,,,BELLINGHAM,WA,,US,,,,,
,visa,,,BELLINGHAM,WA,,US,,,,,
,visa,,,BELLINGHAM,WA,,US,,,,,
,visa,,,BELLINGHAM,WA,,US,,,,,
,visa,,,BELLINGHAM,WA,,US,,,,,
,visa,,,BELLINGHAM,WA,,US,,,,,
,visa,,,BELLINGHAM,WA,,US,,,,,
,visa,,,BELLINGHAM,WA,,US,,,,,
,visa,,,BELLINGHAM,WA,,US,,,,,
,visa,,,BELLINGHAM,WA,,US,,,,,
,visa,,,BELLINGHAM,WA,,US,,,,,
,visa,,,BELLINGHAM,WA,,US,,,,,
,visa,,,BELLINGHAM,WA,,US,,,,,
,visa,,,BELLINGHAM,WA,,US,,,,,
,visa,,,BELLINGHAM,WA,,US,,,,,
,visa,,,BELLINGHAM,WA,,US,,,,,
,visa,,,BELLINGHAM,WA,,US,,,,,
,visa,,,BELLINGHAM,WA,,US,,,,,
,visa,,,BELLINGHAM,WA,,US,,,,,
,visa,,,BELLINGHAM,WA,,US,,,,,
,visa,,,BELLINGHAM,WA,,US,,,,,
,visa,,,BELLINGHAM,WA,,US,,,,,
,visa,,,BELLINGHAM,WA,,US,,,,,
,visa,,,BELLINGHAM,WA,,US,,,,,
,visa,,,BELLINGHAM,WA,,US,,,,,
,visa,,,BELLINGHAM,WA,,US,,,,,
,visa,,,BELLINGHAM,WA,,US,,,,,
,visa,,,BELLINGHAM,WA,,US,,,,,
,visa,,,BELLINGHAM,WA,,US,,,,,
,visa,,,BELLINGHAM,WA,,US,,,,,
,visa,,,BELLINGHAM,WA,,US,,,,,
,visa,,,BELLINGHAM,WA,,US,,,,,
,visa,,,BELLINGHAM,WA,,US,,,,,
,visa,,,BELLINGHAM,WA,,US,,,,,
,visa,,,BELLINGHAM,WA,,US,,,,,
,visa,,,BELLINGHAM,WA,,US,,,,,
,visa,,,BELLINGHAM,WA,,US,,,,,
,visa,,,BELLINGHAM,WA,,US,,,,,
,visa,,,BELLINGHAM,WA,,US,,,,,
,visa,,,BELLINGHAM,WA,,US,,,,,
,visa,,,BELLINGHAM,WA,,US,,,,,
,visa,,,BELLINGHAM,WA,,US,,,,,
,visa,,,BELLINGHAM,WA,,US,,,,,
,visa,,,BELLINGHAM,WA,,US,,,,,
,visa,,,BELLINGHAM,WA,,US,,,,,
,visa,,,BELLINGHAM,WA,,US,,,,,
,visa,,,BELLINGHAM,WA,,US,,,,,
,visa,,,BELLINGHAM,WA,,US,,,,,
,visa,,,BELLINGHAM,WA,,US,,,,,
,visa,,,BELLINGHAM,WA,,US,,,,,
,visa,,,BELLINGHAM,WA,,US,,,,,
,visa,,,BELLINGHAM,WA,,US,,,,,
,visa,,,BELLINGHAM,WA,,US,,,,,
,visa,,,BELLINGHAM,WA,,US,,,,,
,visa,,,BELLINGHAM,WA,,US,,,,,
,visa,,,BELLINGHAM,WA,,US,,,,,
,visa,,,BELLINGHAM,WA,,US,,,,,
,visa,,,BELLINGHAM,WA,,US,,,,,
,visa,,,BELLINGHAM,WA,,US,,,,,
,visa,,,BELLINGHAM,WA,,US,,,,,
,visa,,,BELLINGHAM,WA,,US,,,,,
,visa,,,BELLINHAM,WA,,US,,,,,
,visa,,,BELLINGHAM,WA,,US,,,,,
,visa,,,BELLINGHAM,WA,,US,,,,,
,visa,,,BELLINGHAM,WA,,US,,,,,
,visa,,,BELLINGHAM,WA,,US,,,,,
,visa,,,BELLINGHAM,WA,,US,,,,,
,visa,,,BELLINGHAM,WA,,US,,,,,
,visa,,,BELLINGHAM,WA,,US,,,,,
,visa,,,BELLINGHAM,WA,,US,,,,,
,visa,,,BELLINGHAM,WA,,US,,,,,
,visa,,,BELLINGHAM,WA,,US,,,,,
,visa,,,BELLINGHAM,WA,,US,,,,,
,visa,,,BELLINGHAM,WA,,US,,,,,
,visa,,,BELLINGHAM,WA,,US,,,,,
https://locations.vitaminshoppe.com/wa/bellingham/vitamins-supplements-bellingham-wa-1006.html,vitamin_shoppe,Super Supplements Bellingham ,1300 Ellis Street ,Bellingham,WA,,US,+1 360-676-9922,https://locations.vitaminshoppe.com/wa/bellingham/vitamins-supplements-bellingham-wa-1006.html,Su 12:00-19:00; Mo 10:00-19:00; Tu 10:00-19:00; We 10:00-19:00; Th 10:00-19:00; Fr 10:00-19:00; Sa 10:00-19:00,The Vitamin Shoppe,Q7772938
https://www.walgreens.com/locator/walgreens-125+samish+way-bellingham-wa-98225/id=16095,walgreens,Walgreens,,Bellingham,WA,,US,+1 360-392-2936,https://www.walgreens.com/locator/walgreens-125+samish+way-bellingham-wa-98225/id=16095,Mo-Su 08:00-22:00,Walgreens,Q1591889
https://locations.wendys.com/#9250881,wendys,"Wendy's 140 S Samish Way in Bellingham, WA",,Bellingham,WA,,US,+1 360-752-0055,https://locations.wendys.com/united-states/wa/bellingham/140-s-samish-way,"Mo-Su 06:30-10:30,09:00-21:00",Wendy's,Q550258
2f9be9c6222bb81bc67eddd278db5c4c,western_union,7-ELEVEN #19648,,Bellingham,WA,,US,+1 360-676-2711,https://location.westernunion.com/us/wa/bellingham/2f9be9c6222bb81bc67eddd278db5c4c,,Western Union,Q861042
8827023,woods_coffee_us,Boulevard Park - Woods Coffee,,Bellingham,WA,,US,+1 360-738-4771,,Mo-Su 07:00-18:00,Woods Coffee,Q8033255
8827025,woods_coffee_us,King St. - Woods Coffee,,Bellingham,WA,,US,+1 360-738-3260,,Mo-Fr 05:00-17:00; Sa-Su 06:00-17:00,Woods Coffee,Q8033255
8827022,woods_coffee_us,Railroad - Woods Coffee,,Bellingham,WA,,US,+1 360-306-8291,,Mo-Su 06:30-17:00,Woods Coffee,Q8033255
whatcom-family-ymca,ymca,Whatcom Family YMCA,1256 N State St,Bellingham,WA,,US,+1 360-733-8630,https://www.ymca.org/locations/whatcom-family-ymca,Mo-Fr 05:30-21:00; Sa 07:00-16:00,YMCA,Q157169
