Ref,Spider,Name,Address,City,State,Zipcode,Country,Phone,Website,Hours,Brand,WikiData
252,ag_warehouse_au,Bega,,Bega,NSW,,AU,+61 2 6492 1711,,Mo-Fr 08:30-17:00; Sa 09:00-12:00,AG Warehouse,Q119261591
28081718,ally_fashion_au,Bega,,Bega,NSW ,,AU,+61 2 6441 6833,,,Ally Fashion,Q19870623
249332_PO,australia_post_au,WYNDHAM LPO,,WYNDHAM,NSW,,AU,+61 2 6494 2151,,,Australia Post,Q1142936
RED0005030,australia_post_au,,,WYNDHAM,NSW,,AU,,,,Australia Post,Q1142936
RED0005029,australia_post_au,,,WOLUMLA,NSW,,AU,,,,Australia Post,Q1142936
248911_PO,australia_post_au,WOLUMLA LPO,,WOLUMLA,NSW,,AU,+61 2 6494 9263,,,Australia Post,Q1142936
229227_PO,australia_post_au,CANDELO LPO,,CANDELO,NSW,,AU,+61 131318,,,Australia Post,Q1142936
RED0005025,australia_post_au,,,CANDELO,NSW,,AU,,,,Australia Post,Q1142936
271978_PO,australia_post_au,KALARU CPA,,KALARU,NSW,,AU,+61 2 6494 1287,,,Australia Post,Q1142936
RED0005031,australia_post_au,,,TATHRA,NSW,,AU,,,,Australia Post,Q1142936
RED0005028,australia_post_au,,,TATHRA,NSW,,AU,,,,Australia Post,Q1142936
245809_PO,australia_post_au,TATHRA LPO,,TATHRA,NSW,,AU,+61 2 6494 1207,,,Australia Post,Q1142936
RED0005032,australia_post_au,,,TATHRA,NSW,,AU,,,,Australia Post,Q1142936
RED0005024,australia_post_au,,,BEMBOKA,NSW,,AU,,,,Australia Post,Q1142936
226640_PO,australia_post_au,BEMBOKA LPO,,BEMBOKA,NSW,,AU,+61 2 6493 0240,,,Australia Post,Q1142936
RED0005021,australia_post_au,,,BEGA,NSW,,AU,,,,Australia Post,Q1142936
226368_PO,australia_post_au,BEGA POST SHOP,,BEGA,NSW,,AU,+61 131318,,,Australia Post,Q1142936
35762372_UPL,australia_post_au,Bega Parcel Locker,,BEGA,NSW,,AU,,,24/7,Australia Post,Q1142936
RED0005022,australia_post_au,,,BEGA,NSW,,AU,,,,Australia Post,Q1142936
RED0005023,australia_post_au,,,BEGA,NSW,,AU,,,,Australia Post,Q1142936
243109_PO,australia_post_au,QUAAMA LPO,,QUAAMA,NSW,,AU,+61 2 6493 8240,,,Australia Post,Q1142936
RED0005027,australia_post_au,,,QUAAMA,NSW,,AU,,,,Australia Post,Q1142936
230252_PO,australia_post_au,COBARGO LPO,,COBARGO,NSW,,AU,+61 131318,,,Australia Post,Q1142936
RED0005026,australia_post_au,,,COBARGO,NSW,,AU,,,,Australia Post,Q1142936
2422,bakers_delight,Bakers Delight Bega,,Bega,NSW,,AU,+61 2 6492 6266,https://www.bakersdelight.com.au/bakery-locator/bega/,Mo-Fr 06:00-17:00; Sa 06:30-14:00,Bakers Delight,Q4849261
L-BEGA1,barbeques_galore_au,Bega,,Bega,NSW,,AU,+61 2 6492 4054,https://www.barbequesgalore.com.au/stores/bega,Mo-Fr 09:00-17:30; Sa 09:00-12:00,Barbeques Galore,Q4859570
21950081,bottlemart_au,Cobargo Hotel,,,NSW,,AU,+61 2 6493 6423,,,Bottlemart,Q102863175
4230,cellarbrations_au,CELLARBRATIONS AT BEGA HOTEL,,BEGA,NSW,,AU,+61 2 6492 1011,,Mo-We 09:00-20:00; Th-Sa 09:00-21:00; Su 10:00-20:00,Cellarbrations,Q109807592
7004,coles_au,Coles Express Bega,,Bega,NSW,,AU,+61 2 7904 9318,,,Coles Express,Q5144653
739,coles_au,Coles Bega,,Bega,NSW,,AU,+61 2 6492 2233,,,Coles Supermarkets,Q1108172
3488,coles_au,Bega,,Bega,NSW,,AU,+61 2 9883 0539,,,Liquorland,Q2283837
250501,commonwealth_bank_au,Bega,,Bega,NSW,,AU,,,,Commonwealth Bank,Q285328
250502,commonwealth_bank_au,Bega,,Bega,NSW,,AU,,,,Commonwealth Bank,Q285328
bega,lj_hooker_au_nz,LJ Hooker Bega,,BEGA,NSW,,AU,+61 2 6492 4300,https://bega.ljhooker.com.au,Mo-Fr 08:30-17:00; Sa 09:00-12:00,LJ Hooker,Q6456509
9501333,mcdonalds_qstore,BEGA NSW,,Bega,NSW,,AU,+61 2 6492 1880,,Mo-Su 06:00-23:00,McDonald's,Q38076
NMA30560,nissan_europe,Bega Valley Nissan,,BEGA,NSW,,AU,+61 2 6494 8900,http://www.begavalleymotors.com.au,,Nissan,Q20165
https://www.nationalparks.nsw.gov.au/camping-and-accommodation/accommodation/myer-house,nsw_national_parks_and_wildlife_service_au,Myer House,,Tanja,NSW,,AU,+61 2 4476 0800,https://www.nationalparks.nsw.gov.au/camping-and-accommodation/accommodation/myer-house,24/7,,
https://www.nationalparks.nsw.gov.au/camping-and-accommodation/campgrounds/six-mile-creek-campground,nsw_national_parks_and_wildlife_service_au,Six Mile Creek campground,,Tantawangalo,NSW,,AU,+61 2 6458 5900,https://www.nationalparks.nsw.gov.au/camping-and-accommodation/campgrounds/six-mile-creek-campground,24/7,,
https://www.nationalparks.nsw.gov.au/camping-and-accommodation/campgrounds/postmans-campground,nsw_national_parks_and_wildlife_service_au,Postmans campground,,Tantawangalo,NSW,,AU,+61 2 6458 5900,https://www.nationalparks.nsw.gov.au/camping-and-accommodation/campgrounds/postmans-campground,24/7,,
https://www.nationalparks.nsw.gov.au/camping-and-accommodation/campgrounds/picnic-point-campground,nsw_national_parks_and_wildlife_service_au,Picnic Point campground,,Wapengo,NSW,,AU,+61 2 4476 0800,https://www.nationalparks.nsw.gov.au/camping-and-accommodation/campgrounds/picnic-point-campground,24/7,,
https://www.nationalparks.nsw.gov.au/camping-and-accommodation/campgrounds/middle-beach-campground,nsw_national_parks_and_wildlife_service_au,Middle Beach campground,,Tanja,NSW,,AU,+61 2 4476 0800,https://www.nationalparks.nsw.gov.au/camping-and-accommodation/campgrounds/middle-beach-campground,24/7,,
https://www.nationalparks.nsw.gov.au/camping-and-accommodation/campgrounds/gillards-campground,nsw_national_parks_and_wildlife_service_au,Gillards campground,,Nelson,NSW,,AU,+61 2 4476 0800,https://www.nationalparks.nsw.gov.au/camping-and-accommodation/campgrounds/gillards-campground,24/7,,
https://www.nationalparks.nsw.gov.au/camping-and-accommodation/campgrounds/aragunnu-campground,nsw_national_parks_and_wildlife_service_au,Aragunnu campground,,Wapengo,NSW,,AU,+61 2 4476 0800,https://www.nationalparks.nsw.gov.au/camping-and-accommodation/campgrounds/aragunnu-campground,24/7,,
10110719,shell,SHELL COLES EXPRESS BEGA,,BEGA,NSW,,AU,+61 2 7904 9318,https://find.shell.com/au/fuel/10110719-shell-coles-express-bega,,Shell,Q110716465
3589,specsavers,Bega,,Bega,NSW,,AU,+61 2 6492 5000,https://www.specsavers.com.au/stores/bega,,Specsavers,Q2000610
7589,specsavers,Bega,,Bega,NSW,,AU,+61 2 6492 5000,https://www.specsavers.com.au/stores/bega,,Specsavers,Q2000610
3801,sportspower_au,Bega,,Bega,NSW,,AU,+61 2 6492 2383,https://www.sportspower.com.au/pages/sportspower-bega,Mo-Fr 09:00-17:00; Sa 09:00-13:00,SportsPower,Q117747652
GENK,telstra_au,Bega,,Bega,NSW,,AU,+61 1800 344 081,,Mo-We 09:00-17:30; Th 09:00-18:00; Fr 09:00-17:30; Sa 09:00-17:00; Su 10:00-15:00,Telstra,Q721162
2218,tradelink_au,Bega,"82 Auckland Street, Bega NSW 2550",Bega,NSW,,AU,+61 2 4276 7240,,Mo-Fr 07:00-16:30; Sa 08:00-11:30,Tradelink,Q120648432
,tyrepower_au,Bega Tyrepower,,Bega,NSW,,AU,+61 2 6492 1933,https://www.begatyrepower.com.au/,,Tyrepower,Q108855867
,visa,,,CANDELO,NSW,,AU,,,,,
,visa,,,BEMBOKA,NSW,,AU,,,,,
,visa,,,BEGA,NSW,,AU,,,,,
,visa,,,BEGA,NSW,,AU,,,,,
,visa,,,BEGA,NSW,,AU,,,,,
,visa,,,BEGA,NSW,,AU,,,,,
,visa,,,BEGA,NSW,,AU,,,,,
,visa,,,BEGA,NSW,,AU,,,,,
,visa,,,TATHRA,NSW,,AU,,,,,
9c553d494af40030479939e88c97f084,western_union,AUSTRALIA POST,,Bega,NSW,,AU,+61 1800 501 500,https://location.westernunion.com/au/nsw/bega/9c553d494af40030479939e88c97f084,Mo-Fr 09:00-17:00; Sa 09:00-12:30,Western Union,Q861042
e3f6a59d1fc895c588b09a738894bfea,western_union,AUSTRALIA POST,,Cobargo,NSW,,AU,+61 1800 501 500,https://location.westernunion.com/au/nsw/cobargo/e3f6a59d1fc895c588b09a738894bfea,Mo-Fr 09:00-17:00,Western Union,Q861042
802880b095f717268df558f57c8580da,western_union,AUSTRALIA POST,,Wyndham,NSW,,AU,+61 1800 501 500,https://location.westernunion.com/au/nsw/wyndham/802880b095f717268df558f57c8580da,Mo-Fr 08:00-17:00; Sa 08:00-14:00,Western Union,Q861042
