Ref,Spider,Name,Address,City,State,Zipcode,Country,Phone,Website,Hours,Brand,WikiData
2991,autozone_us,AutoZone Auto Parts Beacon,,Beacon,NY,,US,+1 845-838-0263,https://www.autozone.com/locations/ny/beacon/455-fishkill-ave.html,Mo-Fr 07:30-21:00; Sa 07:30-20:00; Su 08:00-19:00,AutoZone,Q4826087
174551,bluerhino,Bretts True Value #20285,,Beacon,NY,,US,+1 845-765-2631,,,Blue Rhino,Q65681213
2042718,chase_us,Beacon - New branch,,Beacon,NY,,US,+1 845-831-4285,https://locator.chase.com/ny/beacon/404-main-st,Mo-Fr 09:00-17:00,Chase,Q524629
880041,citizens_us,Citizens Beacon,,Beacon,NY,,US,+1 845-831-8100,,Mo-Th 09:00-16:00; Fr 09:00-17:00; Sa 09:00-12:00,Citizens,Q5122694
ATM-1138,citizens_us,,,Beacon,NY,,US,,,24/7,Citizens,Q5122694
https://www.edwardjones.com/us-en/financial-advisor/thomas-geoghegan,edwardjones,Thomas J Geoghegan,,Beacon,NY,,US,+1 845-831-0507,https://www.edwardjones.com/us-en/financial-advisor/thomas-geoghegan,Mo-Fr 08:30-17:00,Edward Jones,Q5343830
E124HY,enterprise,Beacon,,Beacon,NY,,US,+1 845-838-9332,,,Enterprise Rent-A-Car,Q17085454
200310602,exxonmobil,BEACON QUICK MART,,BEACON,NY,,US,+1 845-831-7400,https://www.exxon.com/en/find-station/mobil-beacon-ny-beaconquickmart-200310602,Mo-Su 06:00-00:00,Mobil,Q109676002
200309802,exxonmobil,BEACON GAS/ I-84,,BEACON,NY,,US,+1 845-831-9040,https://www.exxon.com/en/find-station/mobil-beacon-ny-beacongasi84-200309802,24/7,Mobil,Q109676002
Motorcraft3677USAEnglish,ford,Freedom Ford Inc,,New York,NY,,US,+1 845-831-1400,,,Ford,Q44294
4861,gulf_pr_us,GLENHAM GULF,,Beacon,NY,,US,+1 845-202-7303,https://www.gulfoil.com/glenham-gulf,,Gulf Oil,Q5617505
17945,h_r_block,H&R Block,,Beacon,NY,,US,+1 845-831-0800,https://www.hrblock.com/local-tax-offices/new-york/beacon/1020-wolcott-ave/17945/,,H&R Block,Q5627799
mta-beacon,indigo,MTA Beacon,,Beacon,NY,,US,+1 888-682-7275,,,Indigo,Q3559970
https://locations.mtb.com/#25082983,mt_bank_us,M&T Bank,,,NY,,US,+1 845-838-1611,https://locations.mtb.com/ny/beacon/bank-branches-and-atms-beacon-ny-3801.html,Mo-Th 09:00-16:00; Fr 09:00-17:00,M&T Bank,Q3272257
01868,rite_aid_us,Rite Aid #01868 Beacon,,Beacon,NY,,US,+1 845-831-5699,https://locations2.riteaid.com.yext-cdn.com/ny/beacon/320-main-street.html,Mo-Su 08:00-22:00,Rite Aid,Q3433273
https://restaurants.subway.com/#14897212,subway,Subway,,Beacon Dutchess,NY,,US,+1 845-765-8787,https://restaurants.subway.com/united-states/ny/beacon/294-main-street,Mo-Fr 08:30-20:30; Sa-Su 08:30-19:30,Subway,Q244457
0362041600,sunoco_us,Sunoco,,BEACON,NY,,US,+1 845-838-3779,,Mo-Sa 06:00-22:00; Su 00:00-00:00,Sunoco,Q1423218
20285,true_value_us,Brett's True Value,,Beacon,NY,,US,+1 845-765-2631,https://stores.truevalue.com/ny/new-windsor/18926/,,True Value,Q7847545
1354301,usps,BEACON,,BEACON,NY,,US,+1 845-831-4372,,Mo-Fr 09:00-17:00; Sa 09:00-13:00,United States Postal Service,Q668687
1250800033,usps_collection_boxes,USPS COLLECTION BOX - BLUE BOX,2 FORRESTAL HTS,BEACON,NY,,US,,,,United States Postal Service,Q668687
1250800020,usps_collection_boxes,USPS COLLECTION BOX - BLUE BOX,369 MAIN ST,BEACON,NY,,US,,,,United States Postal Service,Q668687
1250800035,usps_collection_boxes,USPS COLLECTION BOX - PO LOBBY,369 MAIN ST ( LOBBY DROP SLOT ),BEACON,NY,,US,,,,United States Postal Service,Q668687
1250800027,usps_collection_boxes,USPS COLLECTION BOX - BLUE BOX,427 MAIN ST,BEACON,NY,,US,,,,United States Postal Service,Q668687
1250800036,usps_collection_boxes,USPS COLLECTION BOX - PO LOBBY,369 MAIN ST,BEACON,NY,,US,,,,United States Postal Service,Q668687
1250800005,usps_collection_boxes,USPS COLLECTION BOX - BLUE BOX,1 BEEKMAN ST,BEACON,NY,,US,,,,United States Postal Service,Q668687
1250800018,usps_collection_boxes,USPS COLLECTION BOX - BLUE BOX,276 MAIN ST,BEACON,NY,,US,,,,United States Postal Service,Q668687
1250800032,usps_collection_boxes,USPS COLLECTION BOX - BLUE BOX,240 MAIN ST,BEACON,NY,,US,,,,United States Postal Service,Q668687
1250800029,usps_collection_boxes,USPS COLLECTION BOX - BLUE BOX,31 ELIZA ST,BEACON,NY,,US,,,,United States Postal Service,Q668687
1250800019,usps_collection_boxes,USPS COLLECTION BOX - BLUE BOX,200 MAIN ST,BEACON,NY,,US,,,,United States Postal Service,Q668687
1250800023,usps_collection_boxes,USPS COLLECTION BOX - BLUE BOX,5 LINCOLN AVE,BEACON,NY,,US,,,,United States Postal Service,Q668687
1250800009,usps_collection_boxes,USPS COLLECTION BOX - BLUE BOX,50 VERPLANCK AVE,BEACON,NY,,US,,,,United States Postal Service,Q668687
1250800006,usps_collection_boxes,USPS COLLECTION BOX - BLUE BOX,43 NORTH AVE,BEACON,NY,,US,,,,United States Postal Service,Q668687
1250800034,usps_collection_boxes,USPS COLLECTION BOX - BLUE BOX,124 N WALNUT ST,BEACON,NY,,US,,,,United States Postal Service,Q668687
1250800008,usps_collection_boxes,USPS COLLECTION BOX - BLUE BOX,1 LAMPLIGHT ST,BEACON,NY,,US,,,,United States Postal Service,Q668687
,visa,,,BEACON,NY,,US,,,,,
,visa,,,BEACON,NY,,US,,,,,
,visa,,,BEACON,NY,,US,,,,,
,visa,,,BEACON,NY,,US,,,,,
,visa,,,BEACON,NY,,US,,,,,
,visa,,,BEACON,NY,,US,,,,,
,visa,,,BEACON,NY,,US,,,,,
,visa,,,BEACON,NY,,US,,,,,
,visa,,,BEACON,NY,,US,,,,,
,visa,,,BEACON,NY,,US,,,,,
,visa,,,BEACON,NY,,US,,,,,
,visa,,,BEECAN,NY,,US,,,,,
,visa,,,BEACON,NY,,US,,,,,
,visa,,,BEACON,NY,,US,,,,,
,visa,,,BEACON,NY,,US,,,,,
,visa,,,BEACON,NY,,US,,,,,
,visa,,,BEACON,NY,,US,,,,,
,visa,,,BEACON,NY,,US,,,,,
,visa,,,BEACON,NY,,US,,,,,
,visa,,,BEACON,NY,,US,,,,,
,visa,,,BEACON,NY,,US,,,,,
,visa,,,BEACON,NY,,US,,,,,
,visa,,,BEACON,NY,,US,,,,,
,visa,,,BEACON,NY,,US,,,,,
,visa,,,BEACON,NY,,US,,,,,
,visa,,,BEACON,NY,,US,,,,,
,visa,,,BEACON,NY,,US,,,,,
,visa,,,BEACON,NY,,US,,,,,
