Ref,Spider,Name,Address,City,State,Zipcode,Country,Phone,Website,Hours,Brand,WikiData
225188,bluerhino,Pollock Pines Shell,,Pollock Pines,CA,,US,+1 530-644-3490,,,Blue Rhino,Q65681213
302555,chevron,Chevron Station #302555,7720 HIGHWAY 50,POLLOCK PINES,CA,,US,,,,Chevron,Q319642
52243,citi,ATM CVS,,Pollock Pines,CA,,US,,,,Citibank,Q857063
9490,cvs_us,CVS Pharmacy,,Pollock Pines,CA,,US,+1 530-647-8013,https://www.cvs.com/store-locator/pollock-pines-ca-pharmacies/6450-pony-express-trl-pollock-pines-ca-95726/storeid=9490,Mo-Sa 08:00-22:00; Su 08:00-20:00,CVS Pharmacy,Q2078880
https://www.edwardjones.com/us-en/financial-advisor/mike-steinbach,edwardjones,Mike Steinbach,,Pollock Pines,CA,,US,+1 530-644-4510,https://www.edwardjones.com/us-en/financial-advisor/mike-steinbach,Mo-Fr 08:30-17:00,Edward Jones,Q5343830
36727,little_free_library,Jody Givens #36727 Pollock Pines CA,,Pollock Pines,CA,,US,,,,Little Free Library,Q6650101
https://locations.oreillyauto.com/ca/pollockpines/check-engine-light-testing-3608.html,oreilly,Your Pollock Pines O'Reilly Auto Parts Store,,Pollock Pines,CA,,US,+1 530-647-2144,https://locations.oreillyauto.com/ca/pollockpines/check-engine-light-testing-3608.html,Mo-Sa 07:30-20:00; Su 08:00-20:00,O'Reilly Auto Parts,Q7071951
https://locations.oreillyauto.com/ca/pollockpines/wiper-installation-3608.html,oreilly,Your Pollock Pines O'Reilly Auto Parts Store,,Pollock Pines,CA,,US,+1 530-647-2144,https://locations.oreillyauto.com/ca/pollockpines/wiper-installation-3608.html,Mo-Sa 07:30-20:00; Su 08:00-20:00,O'Reilly Auto Parts,Q7071951
https://locations.oreillyauto.com/ca/pollockpines/battery-testing-3608.html,oreilly,Your Pollock Pines O'Reilly Auto Parts Store,,Pollock Pines,CA,,US,+1 530-647-2144,https://locations.oreillyauto.com/ca/pollockpines/battery-testing-3608.html,Mo-Sa 07:30-20:00; Su 08:00-20:00,O'Reilly Auto Parts,Q7071951
https://locations.oreillyauto.com/ca/pollockpines/autopartes-3608.html,oreilly,Tu tienda O'Reilly Auto Parts en Pollock Pines,,Pollock Pines,CA,,US,+1 530-647-2144,https://locations.oreillyauto.com/ca/pollockpines/autopartes-3608.html,Mo-Sa 07:30-20:00; Su 08:00-20:00,O'Reilly Auto Parts,Q7071951
https://locations.papamurphys.com/#15430158,papamurphys,Pizza Takeout & Delivery,,Pollock Pines,CA,,US,+1 530-748-3343,https://locations.papamurphys.com/ca/pollock-pines/6454-pony-express-trail,Mo-Th 11:00-20:00; Fr-Sa 11:00-21:00; Su 11:00-20:00,Papa Murphy's,Q7132349
https://local.pharmacy.safeway.com/#5673394,safeway,Safeway Pharmacy,,Pollock Pines,CA,,US,+1 530-647-7449,https://local.pharmacy.safeway.com/safeway/ca/pollock-pines/6498-pony-express-trail.html,,Safeway,Q1508234
https://local.safeway.com/#5604262,safeway,Safeway,,Pollock Pines,CA,,US,+1 530-647-7440,https://local.safeway.com/safeway/ca/pollock-pines/6498-pony-express-trail.html,,Safeway,Q1508234
2497,snap_fitness,"Pollock Pines, CA",6454 Pony Express Trl,Pollock Pines,CA,,US,+1 530-344-7027,https://www.snapfitness.com/us/gyms/pollock-pines-ca,24/7,Snap Fitness,Q7547254
https://restaurants.subway.com/#14907809,subway,Subway Crystal View C-Store,,Pollock Pines El Dorado,CA,,US,+1 530-644-3354,https://restaurants.subway.com/united-states/ca/pollock-pines/6529-pony-express-trail,Mo-Su 07:00-21:00,Subway,Q244457
017070,uhaul,13 Smokes & Vape,6454 Pony Express Trl Ste 33,Pollock Pines,CA,,US,+1 530-621-9547,,Mo 00:00-13:00; Tu-Th 00:00-17:00; Fr 00:00-13:00; Sa 00:00-14:00; Su 00:00-13:00,U-Haul,Q7862902
010567,uhaul,Chevron 13 Mile Post,6306 Pony Express Trail,Pollock Pines,CA,,US,+1 530-303-9189,,Mo-We 00:00-17:00; Th 00:00-16:00; Fr 00:00-18:00; Sa 00:00-17:00,U-Haul,Q7862902
1377962,usps,POLLOCK PINES,,POLLOCK PINES,CA,,US,+1 530-644-6320,,Mo-Fr 09:00-17:00,United States Postal Service,Q668687
9572600002,usps_collection_boxes,USPS COLLECTION BOX - BLUE BOX,2669 SANDERS DR,POLLOCK PINES,CA,,US,,,,United States Postal Service,Q668687
9572600003,usps_collection_boxes,USPS COLLECTION BOX - PO LOBBY,2669 SANDERS DR,POLLOCK PINES,CA,,US,,,,United States Postal Service,Q668687
9572600006,usps_collection_boxes,USPS COLLECTION BOX - PO LOBBY,2669 SANDERS DR,POLLOCK PINES,CA,,US,,,,United States Postal Service,Q668687
9572600000,usps_collection_boxes,USPS COLLECTION BOX - BLUE BOX,6450 PONY EXPRESS TRL,POLLOCK PINES,CA,,US,,,,United States Postal Service,Q668687
,visa,,,POLLOCK PINES,CA,,US,,,,,
,visa,,,POLLOCK PINES,CA,,US,,,,,
,visa,,,POLLOCK PINES,CA,,US,,,,,
,visa,,,POLLOCK PINES,CA,,US,,,,,
,visa,,,POLLOCK PINES,CA,,US,,,,,
,visa,,,POLLOCK PINES,CA,,US,,,,,
,visa,,,POLLOCK PINES,CA,,US,,,,,
,visa,,,POLLOCK PINES,CA,,US,,,,,
,visa,,,POLLOCK PINES,CA,,US,,,,,
,visa,,,POLLOCKPINES,CA,,US,,,,,
,visa,,,POLLOCK PINES,CA,,US,,,,,
,visa,,,POLLOCK PINES,CA,,US,,,,,
,visa,,,POLLOCK PINE,CA,,US,,,,,
,visa,,,POLLOCK PINES,CA,,US,,,,,
