Ref,Spider,Name,Address,City,State,Zipcode,Country,Phone,Website,Hours,Brand,WikiData
DOM-19,aldi_sud_ch,ALDI,"BÃ¼renstrasse 9, Lyss, 3250",Lyss,,,CH,+41 32 386 76 17,,Mo-Fr 07:30-20:00; Sa 07:30-17:00,ALDI,Q41171672
3a8899115d434cdb3f883714da188b608ce6d379,bern_ch,Mr. Feelgood,,Lyss,,,CH,+41 32 385 21 20,https://mr-feelgood.ch/ueber-uns/lyss/,,,
16f8466d7552beba44884617618a09dc5bb24e56,bern_ch,Pro Bike,,Lyss,,,CH,,,,,
2be9fd25099a1ce321287d8ee06f55d1c8fc50bf,bern_ch,Danis Bike & Adventure,,Lyss,,,CH,+41 79 817 82 43,https://www.danisbike.ch/,,,
2032934282,bp,BP Tankstelle Lyss,,Lyss,,,CH,,,,BP,Q152057
833832565,bp,BP Service Lyss,,Lyss,,,CH,,,,BP,Q152057
7601001379794,coop_vitality_ch,Coop Vitality,,Lyss,,,CH,+41 58 878 83 30,https://www.coopvitality.ch/de/coop-vitality-lyss,,Coop Vitality,Q111725297
seeland-center-bielstrasse-9-3250-lyss,denner_ch,Denner,,Lyss,,,CH,+41 58 999 05 35,https://www.denner.ch/de/filialen/denner-filiale-und-oeffnungszeiten/store/seeland-center-bielstrasse-9-3250-lyss/,Mo-Th 08:00-19:00; Fr 08:00-20:00; Sa 08:00-17:00,Denner,Q379911
ekz-lyssbachpark-steinweg-28-3250-lyss,denner_ch,Denner,,Lyss,,,CH,+41 58 999 03 59,https://www.denner.ch/de/filialen/denner-filiale-und-oeffnungszeiten/store/ekz-lyssbachpark-steinweg-28-3250-lyss/,Mo-We 08:00-19:00; Th 08:00-20:00; Fr 08:00-21:00; Sa 07:30-17:00,Denner,Q379911
45,fust_ch,Fust,,Lyss,,,CH,+41 32 344 36 00,https://www.fust.ch/de/service-navigation/filialen/dipl-ing-fust-2000040.html,Mo-Fr 09:00-12:15; Sa 09:00-17:00,Fust,Q1227164
sharedmobility.ch:carvelo2go:804c29d5-2315-4b7f-fd39-2c8102cc1ce6,gbfs,Dropa Drogerie Lyss,,,,,CH,,https://www.sharedmobility.ch/info,,sharedmobility.ch,
6148,jysk,Lyss,,Lyss,,,CH,+41 32 387 09 00,https://jysk.ch/de/filialen?storeId=6148,Mo-Fr 09:00-19:00; Sa 09:00-17:00,JYSK,Q138913
291,lidl_ch,Lidl,,Lyss,,,CH,,,Mo-Th 06:30-20:00; Fr 06:30-21:00; Sa 06:30-17:00,Lidl,Q151954
0034420_1198_pickmup_smvmpmubox,migros_ch,PickMup Box,,Lyss,,,CH,+41 58 567 91 30,https://filialen.migros.ch/de/box-m-lyss-lyssbachpark-lyss-lyssbachpark,Mo-We 08:00-19:00; Th 08:00-20:00; Fr 08:00-21:00; Sa 07:30-17:00,PickMup Box,Q115679275
0035615_res,migros_ch,Migros Restaurant,,Lyss,,,CH,+41 58 567 92 00,https://filialen.migros.ch/de/migros-restaurant-lyss-lyssbachpark,Mo-We 08:00-19:00; Th 08:00-20:00; Fr 08:00-21:00; Sa 07:30-17:00,Migros Restaurant,Q111803848
0034420_super,migros_ch,Migros,,Lyss,,,CH,+41 58 567 91 30,https://filialen.migros.ch/de/migros-supermarkt-lyss-lyssbachpark,Mo-We 08:00-19:00; Th 08:00-20:00; Fr 08:00-21:00; Sa 07:30-17:00,Migros,Q115661152
0034420_flori,migros_ch,Florissimo,,Lyss,,,CH,+41 58 567 91 30,https://filialen.migros.ch/de/florissimo-lyss-lyssbachpark,Mo-We 08:00-19:00; Th 08:00-20:00; Fr 08:00-21:00; Sa 07:30-17:00,Florissimo,Q115659418
4797451_mno,migros_ch,Migrolino,,Lyss,,,CH,+41 32 544 22 04,https://filialen.migros.ch/de/migrolino-migrol-lyss,Mo-Sa 06:00-22:00; Su 07:00-22:00,Migrolino,Q56745088
CHH03250,neuroth,Neuroth,"Hauptstrasse 2, 3250 Lyss, CH",Lyss,,,CH,+41 32 384 75 91,https://ch.neuroth.com/filialen/hauptstrasse-2-lyss/,"Mo-Fr 08:30-12:00,13:00-17:30",Neuroth,Q15836645
7612555516333,valora,Avec,,Lyss,,,CH,,,,Avec,Q103863974
779,valora,k kiosk,,Lyss,,,CH,,,,k kiosk,Q60381703
760,valora,k kiosk,,Lyss,,,CH,,,,k kiosk,Q60381703
,visa,,,LYSS,,,CH,,,,,
