Ref,Spider,Name,Address,City,State,Zipcode,Country,Phone,Website,Hours,Brand,WikiData
00-1007,billa,BILLA PLUS FIL. 1007,,Wien,Wien,,AT,+43 59 9150 1007,,Mo-Fr 07:40-20:00; Sa 07:40-18:00,BILLA,Q537781
00-2241,billa,BILLA AG FIL. 2241,,Wien,Wien,,AT,+43 59 9150 2241,,Mo-Fr 07:15-19:30; Sa 07:15-18:00,BILLA,Q537781
00-285,billa,BILLA PLUS FIL. 285,,Wien,Wien,,AT,+43 59 9150 0285,,Mo-Fr 07:40-20:00; Sa 07:40-18:00,BILLA,Q537781
00-2017,billa,BILLA AG FIL. 2017,,Wien,Wien,,AT,+43 59 9150 2017,,Mo-Fr 07:15-19:30; Sa 07:15-18:00,BILLA,Q537781
00-1023,billa,BILLA PLUS FIL. 1023,,Wien,Wien,,AT,+43 59 9150 1023,,Mo-Fr 07:40-20:00; Sa 07:40-18:00,BILLA,Q537781
00-2015,billa,BILLA AG FIL. 2015,,Wien,Wien,,AT,+43 59 9150 2015,,Mo-Fr 07:40-20:00; Sa 07:40-18:00,BILLA,Q537781
00-2063,billa,BILLA AG FIL. 2063,,Wien,Wien,,AT,+43 59 9150 2063,,Mo-Fr 07:40-20:00; Sa 07:40-18:00,BILLA,Q537781
00-2011,billa,BILLA AG FIL. 2011,,Wien,Wien,,AT,+43 59 9150 2011,,Mo-Fr 07:40-20:00; Sa 07:40-18:00,BILLA,Q537781
00-2045,billa,BILLA AG FIL. 2045,,Wien,Wien,,AT,+43 59 9150 2045,,Mo-Fr 07:15-19:30; Sa 07:15-18:00,BILLA,Q537781
00-2013,billa,BILLA AG FIL. 2013,,Wien,Wien,,AT,+43 59 9150 2013,,Mo-Fr 07:40-20:00; Sa 07:40-18:00,BILLA,Q537781
00-2071,billa,BILLA AG FIL. 2071,,Wien,Wien,,AT,+43 59 9150 2071,,Mo-Fr 07:15-19:30; Sa 07:15-18:00,BILLA,Q537781
2075,bipa_at,BIPA Filiale 2075,,Wien,Wien,,AT,+43 59 9130 2075,,Mo-Fr 08:00-19:30; Sa 08:00-18:00,Bipa,Q864933
2071,bipa_at,BIPA Filiale 2071,,Wien,Wien,,AT,+43 59 9130 2071,,Mo-Fr 08:00-19:30; Sa 08:00-18:00,Bipa,Q864933
2048,bipa_at,BIPA Filiale 2048,,Wien,Wien,,AT,+43 59 9130 2048,,Mo-Fr 08:00-19:30; Sa 08:00-18:00,Bipa,Q864933
2063,bipa_at,BIPA Filiale 2063,,Wien,Wien,,AT,+43 1 9613063,,Mo-Fr 08:00-19:30; Sa 08:00-18:00,Bipa,Q864933
2049,bipa_at,BIPA Filiale 2049,,Wien,Wien,,AT,+43 59 9130 2049,,Mo-Fr 08:00-20:00; Sa 08:00-18:00,Bipa,Q864933
2084,bipa_at,BIPA Filiale 2084,,Wien,Wien,,AT,+43 59 9130 2084,,Mo-Fr 08:00-19:00; Sa 08:00-18:00,Bipa,Q864933
2089,bipa_at,BIPA Filiale 2089,,Wien,Wien,,AT,+43 1 9613089,,Mo-Fr 09:00-19:00; Sa 09:00-18:00,Bipa,Q864933
2064,bipa_at,BIPA Filiale 2064,,Wien,Wien,,AT,+43 59 9130 2064,,Mo-Fr 08:00-19:30; Sa 08:00-18:00,Bipa,Q864933
2030,bipa_at,BIPA Filiale 2030,,Wien,Wien,,AT,+43 59 9130 2030,,Mo-Fr 08:00-20:00; Sa 08:00-18:00,Bipa,Q864933
55187595,deichmann,DEICHMANN Filiale Wien Leithastraße 17-23,,Wien,Wien,,AT,+43 1 3341953,https://stores.deichmann.com/at-de/at/wien/wien/leithastrasse-17-23,Mo-Fr 09:00-19:00; Sa 09:00-18:00,Deichmann,Q664543
55187536,deichmann,DEICHMANN Filiale Wien Handelskai 94-96,,Wien,Wien,,AT,+43 1 3324817,https://stores.deichmann.com/at-de/at/wien/wien/handelskai-94-96,Mo-Fr 09:00-20:00; Sa 09:00-18:00,Deichmann,Q664543
AT0130,hm,Millennium City,,Wien,Wien,,AT,+43 800 6655900,,Mo-Fr 09:00-19:00; Sa 09:00-18:00,H&M,Q188326
GS00111866,mercedes_benz,Petra Dietrich e.U. ,,Wien,Wien,,AT,+43 1 3308474,https://www.mercedes-dietrich.at,,Mercedes-Benz,Q36008
78-2036,penny,PENNY,,Wien,Wien,,AT,,,,Penny,Q284688
78-2065,penny,PENNY,,Wien,Wien,,AT,,,,Penny,Q284688
78-2066,penny,PENNY,,Wien,Wien,,AT,,,,Penny,Q284688
78-2095,penny,PENNY,,Wien,Wien,,AT,,,,Penny,Q284688
BRG,storebox,Storebox Augarten,"Brigittagasse 5, 1200 Wien, Österreich ",Wien,Wien,,AT,,https://www.yourstorebox.com/en/location-details/storebox-augarten,,Storebox,Q117430004
DBS,storebox,Storebox Döblinger Steg,"Brigittenauer Lände 156, 1200 Wien, Österreich ",Wien,Wien,,AT,,https://www.yourstorebox.com/en/location-details/storebox-doeblinger-steg,,Storebox,Q117430004
HDK,storebox,Storebox Handelskai,"Leystraße 37, 1200 Wien, Österreich ",Wien,Wien,,AT,,https://www.yourstorebox.com/en/location-details/storebox-handelskai,,Storebox,Q117430004
WBD,storebox,Storebox Wien Traisengasse,"Donaueschingenstraße 20, 1200 Wien, Österreich ",Wien,Wien,,AT,,https://www.yourstorebox.com/en/location-details/storebox-wien-traisengasse,,Storebox,Q117430004
WBG,storebox,Storebox Wien Brigittaplatz,"Greiseneckergasse 3, 1200 Wien, Österreich ",Wien,Wien,,AT,,https://www.yourstorebox.com/en/location-details/storebox-wien-brigittaplatz,,Storebox,Q117430004
WSP,storebox,Storebox Wallensteinplatz,"Jägerstraße 19, 1200 Wien, Österreich ",Wien,Wien,,AT,,https://www.yourstorebox.com/en/location-details/storebox-wallensteinplatz,,Storebox,Q117430004
1115,tedi,TEDi Warenhandels GmbH,,Wien,Wien,,AT,+43 1 3301317,https://www.tedi.com/stores/1115/at/Wien/Wien/Stromstrasse-5,Mo-Sa 00:00-24:00,TEDi,Q1364603
1160,tedi,TEDi Warenhandels GmbH,,Wien,Wien,,AT,+43 1 3304290,https://www.tedi.com/stores/1160/at/Wien/Wien/Marchfeldstrasse-25,Mo-Sa 00:00-24:00,TEDi,Q1364603
,visa,,,WIEN,WIEN,,AT,,,,,
,visa,,,WIEN,WIEN,,AT,,,,,
,visa,,,WIEN,WIEN,,AT,,,,,
,visa,,,WIEN,WIEN,,AT,,,,,
,visa,,,WIEN,WIEN,,AT,,,,,
,visa,,,WIEN,WIEN,,AT,,,,,
,visa,,,WIEN,WIEN,,AT,,,,,
,visa,,,WIEN,WIEN,,AT,,,,,
,visa,,,WIEN,WIEN,,AT,,,,,
,visa,,,WIEN,WIEN,,AT,,,,,
,visa,,,WIEN,WIEN,,AT,,,,,
,visa,,,WIEN,WIEN,,AT,,,,,
,visa,,,WIEN,WIEN,,AT,,,,,
2887da64f72d91568e8df186b04dd8c2,western_union,CALLSHOP,,Wien,WIEN,,AT,+43 660 6362258,https://location.westernunion.com/at/wien/wien/2887da64f72d91568e8df186b04dd8c2,Mo-Su 09:00-21:00,Western Union,Q861042
13eeb55d3e85a2cc4ce2c2588ae2de8a,western_union,ADAM SAT,,Wien,WIEN,,AT,+43 660 4022555,https://location.westernunion.com/at/wien/wien/13eeb55d3e85a2cc4ce2c2588ae2de8a,Mo-Sa 09:00-20:00,Western Union,Q861042
eecef240ae80d0201b5c9a54389df2b4,western_union,SINGH EXOTIC MINI MARKET,,Wien,WIEN,,AT,+43 664 5275196,https://location.westernunion.com/at/wien/wien/eecef240ae80d0201b5c9a54389df2b4,Mo-Sa 10:00-21:00,Western Union,Q861042
15555820ecdcb6eaa1553d97068799c1,western_union,ZADRAN MARKT,,Vienna,WIEN,,AT,+43 688 64220970,https://location.westernunion.com/at/wien/vienna/15555820ecdcb6eaa1553d97068799c1,Mo-Sa 09:00-19:00,Western Union,Q861042
716e4504ebcddb6a87dce6a89f946677,western_union,HANDY SARAY,,Wien,WIEN,,AT,+43 699 11588593,https://location.westernunion.com/at/wien/wien/716e4504ebcddb6a87dce6a89f946677,Mo-Fr 09:00-20:00; Sa 09:00-18:00; Su 10:30-20:00,Western Union,Q861042
3ea42890fe70696e64b2bf9f4e491eae,western_union,MOBILE REP,,Vienna,WIEN,,AT,+43 660 1500069,https://location.westernunion.com/at/wien/vienna/3ea42890fe70696e64b2bf9f4e491eae,Mo-Sa 09:30-19:00,Western Union,Q861042
54e06fd2bc152525930bdedb3296ed14,western_union,AR HANDYSHOP,,Wien,WIEN,,AT,+43 676 4220299,https://location.westernunion.com/at/wien/wien/54e06fd2bc152525930bdedb3296ed14,Mo-Fr 08:00-19:00; Sa 09:00-13:00,Western Union,Q861042
d3a1cd93e0edc712d4c24dad9c74c749,western_union,MY MOBILE,,Wien,WIEN,,AT,+43 699 10770808,https://location.westernunion.com/at/wien/wien/d3a1cd93e0edc712d4c24dad9c74c749,Mo-Su 09:00-20:00,Western Union,Q861042
27894ec46f0b4d3db88c425e6701f309,western_union,ER UND MUS,,Wien,WIEN,,AT,+43 699 19181966,https://location.westernunion.com/at/wien/wien/27894ec46f0b4d3db88c425e6701f309,Mo-Su 09:00-21:00,Western Union,Q861042
22506c2a5ad6218cb5d7feed812502f3,western_union,TECHNOCELL,,Vienna,WIEN,,AT,+43 665 65633622,https://location.westernunion.com/at/wien/vienna/22506c2a5ad6218cb5d7feed812502f3,Mo-Fr 09:00-19:00; Sa 10:00-16:00,Western Union,Q861042
b8752c41cf21127c89d390335b1fe47c,western_union,HANDY RIX,,Wien,WIEN,,AT,+43 1 3320033,https://location.westernunion.com/at/wien/wien/b8752c41cf21127c89d390335b1fe47c,Mo-Fr 11:00-18:00,Western Union,Q861042
dbde691b49c84e949233fdcf4f3d083e,western_union,AFRITEX MOBILE,,Wien,WIEN,,AT,+43 1 9220107,https://location.westernunion.com/at/wien/wien/dbde691b49c84e949233fdcf4f3d083e,Mo-Fr 09:00-19:30; Sa 10:00-19:00,Western Union,Q861042
92c0812436b3cffd0fc4196594e389f1,western_union,CAFE OTTOMAN,,Wien,WIEN,,AT,+43 676 6219705,https://location.westernunion.com/at/wien/wien/92c0812436b3cffd0fc4196594e389f1,Mo-Su 08:00-21:00,Western Union,Q861042
033f836c0fc52d65cfbb63bae812a696,western_union,HASRET MOBILE,,Wien,WIEN,,AT,+43 676 4422020,https://location.westernunion.com/at/wien/wien/033f836c0fc52d65cfbb63bae812a696,Mo-Sa 09:00-21:00; Su 10:00-21:00,Western Union,Q861042
09d3205d6266e72497124b6475a36a2e,western_union,INTERCHANGE,,Vienna,WIEN,,AT,+43 1 3322224,https://location.westernunion.com/at/wien/vienna/09d3205d6266e72497124b6475a36a2e,Mo-Fr 08:00-19:00; Sa 10:00-15:00,Western Union,Q861042
e1292bbdc8298172a2b7652c4bae0e11,western_union,XTREME MOBILE,,Wien,WIEN,,AT,+43 1 2300062,https://location.westernunion.com/at/wien/wien/e1292bbdc8298172a2b7652c4bae0e11,Mo-Fr 08:00-20:00; Sa 09:00-17:00; Su 12:00-17:00,Western Union,Q861042
