Ref,Spider,Name,Address,City,State,Zipcode,Country,Phone,Website,Hours,Brand,WikiData
https://locations.99only.com/az/goodyear/discount-store-231.html,99_cents_only_us,99 Cents Only Stores,,Goodyear,AZ,,US,+1 623-882-3399,https://locations.99only.com/az/goodyear/discount-store-231.html,Mo-Su 07:00-22:00,99 Cents Only Stores,Q4646294
https://stores.advanceautoparts.com/az/goodyear/660-n-dysart-rd,advance_auto_parts_us,Advance Auto Parts,,Goodyear,AZ,,US,+1 480-333-4057,https://stores.advanceautoparts.com/az/goodyear/660-n-dysart-rd,Mo-Sa 07:30-21:00; Su 09:00-20:00,Advance Auto Parts,Q4686051
https://stores.aldi.us/#18238332,aldi_sud_us,ALDI  845 N Estrella Prkwy,,Goodyear,AZ,,US,+1 833-479-7161,https://stores.aldi.us/az/goodyear/845-n-estrella-prkwy,"Mo-Su 09:00-20:00,09:00-21:00",ALDI,Q41171672
https://restaurants.applebees.com/en-us/az/goodyear/13832-w.-mcdowell-road-95071,applebees,Connect with this Applebee's,,Goodyear,AZ,,US,+1 623-536-8440,https://restaurants.applebees.com/en-us/az/goodyear/13832-w.-mcdowell-road-95071,Mo-Th 11:00-24:00; Fr-Sa 11:00-01:00; Su 11:00-24:00,Applebees,Q621532
https://locations.atipt.com/goodyear-az-estrella-pkwy,ati_physical_therapy,ATI Physical Therapy Goodyear 7597,,Goodyear,AZ,,US,+1 623-322-0654,https://locations.atipt.com/goodyear-az-estrella-pkwy,,ATI Physical Therapy,Q50039703
2784,autozone_us,AutoZone Auto Parts Goodyear,,Goodyear,AZ,,US,+1 623-932-4360,https://www.autozone.com/locations/az/goodyear/435-n-litchfield-rd.html,Mo-Sa 07:00-22:00; Su 08:00-21:00,AutoZone,Q4826087
6241,autozone_us,AutoZone Auto Parts Goodyear,,Goodyear,AZ,,US,+1 623-925-1037,https://www.autozone.com/locations/az/goodyear/16490-w-yuma-rd.html,Mo-Th 07:30-21:00; Fr-Sa 07:30-22:00; Su 07:30-21:00,AutoZone,Q4826087
https://locators.bankofamerica.com/az/goodyear/financial-centers-goodyear-13030.html,bankofamerica,Bank of America Financial Center & Drive-Thru ATM | Estrella Parkway & Van Buren,,Goodyear,AZ,,US,+1 623-925-4700,https://locators.bankofamerica.com/az/goodyear/financial-centers-goodyear-13030.html,Mo-Fr 09:00-17:00; Sa 09:00-14:00,Bank of America,Q487907
https://locators.bankofamerica.com/az/goodyear/financial-centers-goodyear-16522.html,bankofamerica,Bank of America Financial Center & Drive-Thru ATM | Yuma and Cotton,,Goodyear,AZ,,US,+1 623-925-5551,https://locators.bankofamerica.com/az/goodyear/financial-centers-goodyear-16522.html,Mo-Fr 10:00-16:00,Bank of America,Q487907
https://www.bannerhealth.com/locations/goodyear/banner-health-center-estrella,bannerhealth,Banner Health Center,,Goodyear,AZ,,US,+1 623-474-8101,,Mo-Fr 07:00-17:00; Sa 08:00-13:00,Banner Health,Q4856918
https://locations.baskinrobbins.com/az/goodyear/211-n-estrella-pkwy-356735-br,baskin_robbins_us,Baskin-Robbins™,,Goodyear,AZ,,US,+1 623-455-5004,https://locations.baskinrobbins.com/az/goodyear/211-n-estrella-pkwy-356735-br,Mo-Fr 04:00-21:00; Sa-Su 05:00-21:00,Baskin-Robbins,Q584601
https://locations.baskinrobbins.com/az/goodyear/13220-w-van-buren-st-360209-br,baskin_robbins_us,Baskin-Robbins™,,Goodyear,AZ,,US,+1 623-932-4420,https://locations.baskinrobbins.com/az/goodyear/13220-w-van-buren-st-360209-br,Mo-Su 11:00-22:00,Baskin-Robbins,Q584601
https://local.biglots.com/#13191084,biglots,Big Lots - Goodyear,,Goodyear,AZ,,US,+1 623-882-3282,https://local.biglots.com/az/goodyear/409-n-litchfield-rd,Mo-Sa 09:00-21:00; Su 10:00-19:00,Big Lots,Q4905973
143615,bluerhino,Fry's #676 - Fuel Site,,Goodyear,AZ,,US,+1 623-925-4440,,,Blue Rhino,Q65681213
128922,bluerhino,Fry's #676,,GoodYear,AZ,,US,+1 623-925-4440,,,Blue Rhino,Q65681213
151866,bluerhino,Walgreens #2243,,Goodyear,AZ,,US,+1 623-215-1046,,,Blue Rhino,Q65681213
156638,bluerhino,Walgreens #12386,,Goodyear,AZ,,US,+1 623-255-3649,,,Blue Rhino,Q65681213
152266,bluerhino,Walgreens #3657,,Goodyear,AZ,,US,+1 623-935-1314,,,Blue Rhino,Q65681213
238578,bluerhino,Circle K #2709180,,Goodyear,AZ,,US,+1 623-882-1494,,,Blue Rhino,Q65681213
59600,bluerhino,Lowe's #1553,,Goodyear,AZ,,US,+1 623-935-9157,,,Blue Rhino,Q65681213
2041038,chase_us,Estrella Mountain - New branch,,Goodyear,AZ,,US,+1 623-327-3078,https://locator.chase.com/az/goodyear/9846-s-estrella-pkwy,Mo-Fr 09:00-17:00; Sa 09:00-14:00,Chase,Q524629
2041061,chase_us,Yuma and Cotton - New branch,,Goodyear,AZ,,US,+1 623-925-8845,https://locator.chase.com/az/goodyear/767-s-cotton-ln,Mo-Fr 09:00-17:00,Chase,Q524629
001.005.0608,chilis,Palm Valley,,Goodyear,AZ,,US,+1 623-535-4222,https://www.chilis.com/locations/us/arizona/goodyear/palm-valley/,Mo-Th 11:00-22:00; Fr-Sa 11:00-23:00; Su 11:00-22:00,Chili's,Q1072948
az_goodyear_655-s-cotton-ln,chipotle, ,,Goodyear,AZ,,US,+1 602-601-2987,https://locations.chipotle.com/az/goodyear/655-s-cotton-ln,,Chipotle,Q465751
83243,citi,ATM Target,,Goodyear,AZ,,US,,,,Citibank,Q857063
65812,citi,ATM MOUNTAIN AMERICA CU,,Good Year,AZ,,US,,,,Citibank,Q857063
84598,citi,ATM TRANSFUND,,Goodyear,AZ,,US,,,,Citibank,Q857063
90674,citi,ATM Walgreens,,Goodyear,AZ,,US,,,,Citibank,Q857063
93642,citi,ATM Walgreens,,Goodyear,AZ,,US,,,,Citibank,Q857063
81668,citi,ATM Target,,Goodyear,AZ,,US,,,,Citibank,Q857063
40559,citi,ATM Circle K,,Goodyear,AZ,,US,,,,Citibank,Q857063
42244,citi,ATM Circle K,,Goodyear,AZ,,US,,,,Citibank,Q857063
40108,citi,ATM Circle K,,Goodyear,AZ,,US,,,,Citibank,Q857063
84582,citi,ATM TRANSFUND,,Goodyear,AZ,,US,,,,Citibank,Q857063
goodyear/3391,claires,Shop Ear Piercings & Jewelry at Claires Walmart Goodyear,,GOODYEAR,AZ,,US,+1 623-925-1411,https://stores.claires.com/us/az/goodyear/3391.html,Mo-Sa 11:00-20:00; Su 10:00-20:00,Claire's,Q2974996
20044,coldstone_creamery,Cold Stone Creamery,,Goodyear,AZ,,US,+1 623-935-7878,https://www.coldstonecreamery.com/stores/20044,,Cold Stone Creamery,Q1094923
80193616,cricket_wireless,Cricket Wireless Authorized Retailer,,Goodyear,AZ,,US,+1 623-322-5016,https://www.cricketwireless.com/stores/ll/US/AZ/Goodyear/960-S-Sarival-Ave,Mo-Sa 10:00-19:00; Su 12:00-18:00,Cricket Wireless,Q5184987
768,culvers_us,"Culver's of Goodyear, AZ - Estrella Pkwy",,Goodyear,AZ,,US,+1 623-322-3544,http://www.culvers.com/restaurants/goodyear-az-estrella-pkwy,Mo-Fr 10:00-22:00; Su 10:00-22:00,Culver's,Q1143589
17463,cvs_us,CVS Pharmacy,,Goodyear,AZ,,US,+1 480-627-3276,https://www.cvs.com/store-locator/goodyear-az-pharmacies/995-s-cotton-ln-goodyear-az-85338/storeid=17463,"Mo-Fr 09:00-13:30,14:00-20:00; Sa-Su 09:00-13:30,14:00-18:00",CVS Pharmacy,Q2078880
249660,dennys,Denny's,,Goodyear,AZ,,US,+1 623-289-7433,https://locations.dennys.com/AZ/GOODYEAR/249660,24/7,Denny's,Q1189695
246758,dennys,Denny's,,Goodyear,AZ,,US,+1 623-935-7388,https://locations.dennys.com/AZ/GOODYEAR/246758,24/7,Denny's,Q1189695
1415,dickeys_barbecue_pit_us,Goodyear - Roosevelt St,,Goodyear,AZ,,US,+1 623-233-6136,https://www.dickeys.com/locations/arizona/goodyear/roosevelt-st,Mo-Su 11:00-21:00,Dickey's Barbecue Pit,Q19880747
8427,dollartree,DollarTree,,Goodyear,AZ,,US,+1 480-333-5587,,Mo-Su 09:00-21:00,Dollar Tree,Q5289230
7669,dominos_pizza_us,Domino's Pizza,,Goodyear,AZ,,US,+1 623-935-5000,https://pizza.dominos.com/arizona/goodyear/14175-w-indian-school-rd-ste-a3,Mo-Th 10:00-24:00; Fr-Sa 10:00-01:00; Su 10:00-24:00,Domino's,Q839466
9208,dominos_pizza_us,Domino's Pizza,,Goodyear,AZ,,US,+1 480-462-0300,https://pizza.dominos.com/arizona/goodyear/833-s-cotton-lane-ste-e100,Mo-Th 10:00-24:00; Fr-Sa 10:00-01:00; Su 10:00-24:00,Domino's,Q839466
356735,dunkin_us,Dunkin',,Goodyear,AZ,,US,+1 623-455-5004,https://locations.dunkindonuts.com/en/az/goodyear/211-n-estrella-pkwy/356735,Mo-Fr 04:00-21:00; Sa-Su 05:00-21:00,Dunkin',Q847743
DB304,dutchbros,"Goodyear, AZ",,Goodyear,AZ,,US,,https://locations.dutchbros.com/dutch-bros-coffee-9b7d1a5e85e4,24/7,Dutch Bros. Coffee,Q5317253
https://www.edwardjones.com/us-en/financial-advisor/josh-hoag,edwardjones,Joshua D Hoag,,Goodyear,AZ,,US,+1 623-925-8243,https://www.edwardjones.com/us-en/financial-advisor/josh-hoag,Mo-Fr 08:00-17:00,Edward Jones,Q5343830
E15043,enterprise,Goodyear,,Goodyear,AZ,,US,+1 623-932-2501,,,Enterprise Rent-A-Car,Q17085454
7830,extra_space_storage,Goodyear Self Storage at 14050 W Van Buren St,,Goodyear,AZ,,US,+1 623-299-7160,https://www.extraspace.com/storage/facilities/us/arizona/goodyear/7830/,Mo-Fr 09:30-18:00; Sa 09:00-17:30,Extra Space Storage,Q5422162
6311,extra_space_storage,Goodyear Self Storage at 16205 W Yuma Rd,,Goodyear,AZ,,US,+1 623-273-2626,https://www.extraspace.com/storage/facilities/us/arizona/goodyear/6311/,Mo-Fr 09:30-18:00; Sa 09:00-17:30,Extra Space Storage,Q5422162
784294,firestone_auto_care,Firestone Complete Auto Care,,Goodyear,AZ,,US,+1 623-208-5836,https://local.firestonecompleteautocare.com/arizona/goodyear/15420-w-van-buren-st/,,Firestone,Q420837
3716,first_cash,Pawn 1St,,Goodyear,AZ,,US,+1 623-544-8000,,,,
https://locations.fivebelow.com/az/goodyear/775-s-cotton-lane,five_below,Five Below Canyon Trails Towne Center,,GOODYEAR,AZ,,US,,https://locations.fivebelow.com/az/goodyear/775-s-cotton-lane,Mo-Sa 10:00-20:00; Su 11:00-18:00,Five Below,Q5455836
Motorcraft1339USAEnglish,ford,"Rodeo Ford, Inc.",,Arizona,AZ,,US,+1 623-298-3900,,,Ford,Q44294
Motorcraft1340USAEnglish,ford,Pioneer Ford,,Arizona,AZ,,US,+1 623-298-3900,,,Ford,Q44294
https://www.ford.com/dealerships/dealer-details/az/goodyear/rodeo-ford-inc/,ford_dealers_us,"Rodeo Ford, Inc.",,Goodyear,AZ,,US,+1 602-969-6016,https://www.ford.com/dealerships/dealer-details/az/goodyear/rodeo-ford-inc/,Mo-Fr 08:00-21:00; Sa 08:00-20:00; Su 10:00-18:00,Ford Motor Company,Q44294
6280,fresenius_kidney_care_us,Fresenius Kidney Care Goodyear AZ,,Goodyear,AZ,,US,+1 800-881-5101,https://www.freseniuskidneycare.com/dialysis-centers/arizona/6280,Mo 05:00-12:55; Tu 05:00-21:00; We 05:00-12:55; Th 05:00-21:00; Fr 05:00-12:55; Sa 05:00-21:00,,
3378,gamestop_us,Estrella Marketplace,,Goodyear,AZ,,US,+1 623-932-3830,https://www.gamestop.com/search/?store=3378,Mo-Th 11:00-20:00; Fr-Sa 10:00-21:00; Su 12:00-20:00,GameStop,Q202210
https://www.goldencorral.com/locations/location-detail/2533/golden-corral-north-dysart-road/,golden_corral,"Golden Corral 2533, Goodyear, AZ",,Goodyear,AZ,,US,+1 623-932-5406,https://www.goldencorral.com/locations/location-detail/2533/golden-corral-north-dysart-road/,,Golden Corral,Q4039560
0a517d19-2bbd-e811-80dd-00505689ac90,goodwill,16480 W. Yuma Rd.,,Goodyear,AZ,,US,+1 602-698-1926,https://www.goodwill.org/locator/location/?store=MGE1MTdkMTktMmJiZC1lODExLTgwZGQtMDA1MDU2ODlhYzkw&lat=MzMuNDM1NzQ=&lng=LTExMi40MTk5OA==,,Goodwill,Q5583655
184d68b5-4659-e811-80dc-00505689ac90,goodwill,"390 N. Litchfield Rd., Suite 124",,Goodyear,AZ,,US,+1 602-216-3919,https://www.goodwill.org/locator/location/?store=MTg0ZDY4YjUtNDY1OS1lODExLTgwZGMtMDA1MDU2ODlhYzkw&lat=MzMuNDUwODY=&lng=LTExMi4zNTk5NA==,,Goodwill,Q5583655
https://www.goodyearautoservice.com/en_US/location/Goodyear-AZ-85338-US-000908232,goodyear_us,"Goodyear Auto Service - Goodyear Airport, Goodyear, AZ | Oil, Brakes & Repairs | #000908232",,Goodyear,AZ,,US,+1 623-932-1100,https://www.goodyearautoservice.com/en_US/location/Goodyear-AZ-85338-US-000908232,Mo-Sa 08:00-19:00,Goodyear,Q620875
https://salons.greatclips.com/us/az/goodyear/831-s-cotton-ln,greatclips,Great Clips,,Goodyear,AZ,,US,+1 623-925-8110,https://salons.greatclips.com/us/az/goodyear/831-s-cotton-ln,Mo-Fr 08:00-20:00; Sa 08:00-18:00; Su 10:00-18:00,Great Clips,Q5598967
https://salons.greatclips.com/us/az/goodyear/500-n-estrella-pkwy,greatclips,Great Clips,,Goodyear,AZ,,US,+1 623-932-5129,https://salons.greatclips.com/us/az/goodyear/500-n-estrella-pkwy,Mo-Fr 08:00-20:00; Sa 09:00-18:00; Su 09:00-17:00,Great Clips,Q5598967
https://salons.greatclips.com/us/az/goodyear/17650-w-elliot-rd,greatclips,Great Clips,,Goodyear,AZ,,US,+1 623-386-5823,https://salons.greatclips.com/us/az/goodyear/17650-w-elliot-rd,Mo-Fr 08:00-20:00; Sa 08:00-17:00; Su 09:00-17:00,Great Clips,Q5598967
2396,h_r_block,H&R Block,,Goodyear,AZ,,US,+1 623-882-3730,https://www.hrblock.com/local-tax-offices/arizona/goodyear/500-n-estrella-pkwy/2396/,,H&R Block,Q5627799
https://locations.jackinthebox.com/us/az/goodyear/520-n-estrella-pkwy,jackinthebox,Jack in the Box,,Goodyear,AZ,,US,+1 623-925-5521,https://locations.jackinthebox.com/us/az/goodyear/520-n-estrella-pkwy,Mo-Su 04:00-04:00,Jack in the Box,Q1538507
https://locations.jackinthebox.com/us/az/goodyear/16900-w-yuma-rd,jackinthebox,Jack in the Box,,Goodyear,AZ,,US,+1 623-925-8263,https://locations.jackinthebox.com/us/az/goodyear/16900-w-yuma-rd,Mo-Su 04:00-04:00,Jack in the Box,Q1538507
https://office.jacksonhewitt.com/#27577484,jackson_hewitt,Jackson Hewitt,,Goodyear,AZ,,US,+1 623-745-3837,https://office.jacksonhewitt.com/tax-preparation-services-locations/en/az/goodyear/960-s-sarival-ave/14330,Mo-Sa 11:00-19:00; Su 12:00-16:00,Jackson Hewitt,Q6117132
https://office.jacksonhewitt.com/#27579099,jackson_hewitt,Jackson Hewitt,,Goodyear,AZ,,US,+1 623-745-3845,https://office.jacksonhewitt.com/tax-preparation-services-locations/en/az/goodyear/1100-north-estrella-parkway/55369,Mo-Sa 11:00-19:00; Su 12:00-16:00,Jackson Hewitt,Q6117132
https://locations.jamba.com/#1555-Jamba,jambajuice,Jamba Goodyear Centerpointe,,Goodyear,AZ,,US,+1 623-536-8446,https://locations.jamba.com/az/goodyear/15479-w-mcdowell-rd,Mo-Su 07:00-20:00,Jamba Juice,Q3088784
https://locations.jimmyjohns.com/az/goodyear/sandwiches-2884.html,jimmy_johns,Jimmy John's,,Goodyear,AZ,,US,+1 623-932-5760,https://locations.jimmyjohns.com/az/goodyear/sandwiches-2884.html,,Jimmy John's,Q1689380
https://locations.kfc.com/#20695510,kfc,Chicken Nuggets Near Goodyear,,Goodyear,AZ,,US,,https://locations.kfc.com/az/goodyear/16980-w-yuma-road/chickennugget,Mo-Su 10:00-22:00,KFC,Q524757
301822,kindercare,Estrella KinderCare,,Goodyear,AZ,,US,,https://www.kindercare.com/our-centers/goodyear/az/301822,,KinderCare Learning Centers,Q6410551
70378,little_free_library,G.S. Troop 6010 Bougainvillea Park #70378 Goodyear AZ,,Goodyear,AZ,,US,,,,Little Free Library,Q6650101
62921,little_free_library,crystallinebloom.com #62921 Goodyear AZ,,Goodyear,AZ,,US,,,,Little Free Library,Q6650101
42502,little_free_library,Deer Run Little Free Library #42502 Goodyear AZ,,Goodyear,AZ,,US,,,,Little Free Library,Q6650101
156489,little_free_library,Amanda's library #156489 Goodyear AZ,,Goodyear,AZ,,US,,,,Little Free Library,Q6650101
180428,little_free_library,67 Dogs Little Free Library #180428 Goodyear AZ,,Goodyear,AZ,,US,,,,Little Free Library,Q6650101
PHXSG,marriott,SpringHill Suites Phoenix Goodyear,,Goodyear,AZ,,US,+1 602-354-9540,https://www.marriott.com/PHXSG,,SpringHill Suites,Q7580351
PHXYR,marriott,TownePlace Suites Phoenix Goodyear,,Goodyear,AZ,,US,+1 623-535-5009,https://www.marriott.com/PHXYR,,Townplace Suites by Marriott,Q7830092
16753,mattress_firm_us,Mattress Firm GoodYear,,Goodyear,AZ,,US,+1 623-535-7012,https://www.mattressfirm.com/en-us/stores/az/goodyear/029057/,,Mattress Firm,Q6791878
5575,michaels,"PHX-Goodyear-West, AZ",,Goodyear,AZ,,US,+1 602-691-3323,https://locations.michaels.com/az/goodyear/5575,,Michaels,Q6835667
1397,orangetheory_fitness,"Goodyear, AZ",,Goodyear,AZ,,US,+1 623-935-2222,,,Orangetheory Fitness,Q25005163
https://locations.oreillyauto.com/az/goodyear/check-engine-light-testing-2759.html,oreilly,Your Goodyear O'Reilly Auto Parts Store,,Goodyear,AZ,,US,+1 623-932-0224,https://locations.oreillyauto.com/az/goodyear/check-engine-light-testing-2759.html,Mo-Sa 07:00-22:00; Su 08:00-21:00,O'Reilly Auto Parts,Q7071951
https://locations.oreillyauto.com/az/goodyear/wiper-installation-2759.html,oreilly,Your Goodyear O'Reilly Auto Parts Store,,Goodyear,AZ,,US,+1 623-932-0224,https://locations.oreillyauto.com/az/goodyear/wiper-installation-2759.html,Mo-Sa 07:00-22:00; Su 08:00-21:00,O'Reilly Auto Parts,Q7071951
https://locations.oreillyauto.com/az/goodyear/battery-testing-2759.html,oreilly,Your Goodyear O'Reilly Auto Parts Store,,Goodyear,AZ,,US,+1 623-932-0224,https://locations.oreillyauto.com/az/goodyear/battery-testing-2759.html,Mo-Sa 07:00-22:00; Su 08:00-21:00,O'Reilly Auto Parts,Q7071951
https://locations.oreillyauto.com/az/goodyear/autopartes-2759.html,oreilly,Tu tienda O'Reilly Auto Parts en Goodyear,,Goodyear,AZ,,US,+1 623-932-0224,https://locations.oreillyauto.com/az/goodyear/autopartes-2759.html,Mo-Sa 07:00-22:00; Su 08:00-21:00,O'Reilly Auto Parts,Q7071951
112061,pandaexpress,Estrella & Van Buren,,Goodyear,AZ,,US,+1 623-932-9417,https://www.pandaexpress.com/locations/az/goodyear/690-north-estrella-parkway,Mo-Su 08:30-22:00,Panda Express,Q1358690
111542,pandaexpress,McDowell & Dysart,,Goodyear,AZ,,US,+1 623-547-1919,https://www.pandaexpress.com/locations/az/goodyear/1550-n-dysart-rd-a11,Mo-Th 09:00-21:30; Fr-Sa 09:00-22:00; Su 09:30-22:00,Panda Express,Q1358690
https://locations.papamurphys.com/#15430007,papamurphys,Pizza Takeout & Delivery,,Goodyear,AZ,,US,+1 623-536-7198,https://locations.papamurphys.com/az/goodyear/15570-west-van-buren-street,Mo-Th 10:00-20:00; Fr-Sa 10:00-21:00; Su 10:00-20:00,Papa Murphy's,Q7132349
https://locations.papajohns.com/#10692342,papa_johns,Papa John's,,Goodyear,AZ,,US,+1 623-572-7272,https://locations.papajohns.com/united-states/az/85338/goodyear/17650-w-elliot-rd,Mo-Su 10:00-23:00,Papa John's Pizza,Q2759586
https://locations.papajohns.com/#10692347,papa_johns,Papa John's,,Goodyear,AZ,,US,+1 623-925-1600,https://locations.papajohns.com/united-states/az/85338/goodyear/13370-west-van-buren,Mo-Th 09:30-23:00; Fr-Sa 09:30-24:00; Su 09:30-23:00,Papa John's Pizza,Q2759586
az_goodyear_995-s-cotton-lane,pizza_hut_us,995 S. Cotton Lane,,Goodyear,AZ,,US,,https://locations.pizzahut.com/az/goodyear/995-s-cotton-lane,,Pizza Hut,Q191615
az_goodyear_15557-w-roosevelt,pizza_hut_us,15557 W. Roosevelt,,Goodyear,AZ,,US,+1 623-925-0595,https://locations.pizzahut.com/az/goodyear/15557-w-roosevelt,,Pizza Hut,Q191615
ppg-paints-8095-21422,ppgpaints,PPG Paints 8095,,"Goodyear, ",AZ,,US,+1 623-882-0044,https://www.ppgpaints.com/store-locator/us/arizona/goodyear-paint-stores/ppg-paints-8095-21422,,PPG Paints,Q83891559
2409,pure_barre_us,Goodyear,,Goodyear,AZ,,US,+1 623-932-6964,https://www.purebarre.com/location/goodyear-az,,Pure Barre,Q86707084
https://locations.quiktrip.com/#16003837,quiktrip_us,QuikTrip Store #1401 575 N Estrella Pkwy,,Goodyear,AZ,,US,+1 623-932-2462,https://locations.quiktrip.com/az/goodyear/575-n-estrella-pkwy,24/7,QuikTrip,Q7271953
https://locations.quiktrip.com/#16004461,quiktrip_us,QuikTrip Store #446 550 N Dysart Rd,,Goodyear,AZ,,US,+1 623-882-0431,https://locations.quiktrip.com/az/goodyear/550-n-dysart-rd,24/7,QuikTrip,Q7271953
687,rentacenter,Rent-A-Center,,Goodyear,AZ,,US,+1 623-932-3373,https://locations.rentacenter.com/arizona/goodyear/319-n-litchfield-rd/,Mo-Fr 10:00-18:00; Sa 09:00-18:00,Rent-A-Center,Q7313497
592,ross_dress_for_less_us,Goodyear,,Goodyear,AZ,,US,+1 623-535-7242,,Mo-Sa 09:00-23:00; Su 09:00-22:00,Ross Dress for Less,Q3442791
1231,ross_dress_for_less_us,S Goodyear,,Goodyear,AZ,,US,+1 623-925-0792,,Mo-Th 08:00-22:00; Fr-Sa 08:00-23:00; Su 09:00-22:00,Ross Dress for Less,Q3442791
https://local.safeway.com/#5604548,safeway,Safeway,,Goodyear,AZ,,US,+1 623-691-6417,https://local.safeway.com/safeway/az/goodyear/9890-s-estrella-pkwy.html,,Safeway,Q1508234
https://local.safeway.com/#5604407,safeway,Safeway,,Goodyear,AZ,,US,+1 623-476-1708,https://local.safeway.com/safeway/az/goodyear/440-n-estrella-pkwy.html,,Safeway,Q1508234
https://local.pharmacy.safeway.com/#5673622,safeway,Safeway Pharmacy,,Goodyear,AZ,,US,+1 623-691-6421,https://local.pharmacy.safeway.com/safeway/az/goodyear/9890-s-estrella-pkwy.html,,Safeway,Q1508234
https://local.pharmacy.safeway.com/#5673500,safeway,Safeway Pharmacy,,Goodyear,AZ,,US,+1 623-476-1720,https://local.pharmacy.safeway.com/safeway/az/goodyear/440-n-estrella-pkwy.html,,Safeway,Q1508234
https://local.fuel.safeway.com/#9073542,safeway,Safeway Fuel Station,,Goodyear,AZ,,US,+1 623-476-1708,https://local.fuel.safeway.com/safeway/az/goodyear/480-n-estrella-pkwy.html,Mo-Su 06:00-22:00,Safeway,Q1508234
https://locations.schlotzskys.com/#2201,schlotzskys,Schlotzsky's,,Maricopa County,AZ,,US,+1 623-925-2009,https://locations.schlotzskys.com/az/goodyear/395-n-litchfield-rd,Mo-Su 09:00-21:00,Schlotzsky's,Q2244796
https://restaurants.subway.com/#14898023,subway,Subway Estrella Crossroads Shops A,,Goodyear Maricopa,AZ,,US,+1 623-882-8181,https://restaurants.subway.com/united-states/az/goodyear/525-n-estrella-pkwy,Mo-Fr 07:00-21:00; Sa 08:00-21:00; Su 09:00-21:00,Subway,Q244457
https://restaurants.subway.com/#14908254,subway,Subway Sarival Marketplace,,Goodyear Maricopa,AZ,,US,+1 623-932-2113,https://restaurants.subway.com/united-states/az/goodyear/960-south-sarival-avenue,Mo-Fr 07:00-21:00; Sa 08:00-21:00; Su 09:00-21:00,Subway,Q244457
https://restaurants.subway.com/#14915472,subway,Subway Mtn Ranch Mktplc at Estrella,,Goodyear Maricopa,AZ,,US,+1 623-327-3758,https://restaurants.subway.com/united-states/az/goodyear/17650-w-elliot-road,Mo-We 08:00-21:00; Th-Sa 08:00-21:30; Su 08:00-21:00,Subway,Q244457
https://restaurants.subway.com/#14899089,subway,Subway Palm Valley Marketplace,,Goodyear Maricopa,AZ,,US,+1 623-535-3965,https://restaurants.subway.com/united-states/az/goodyear/14175-w-indian-school-rd,Mo-Fr 08:00-22:00; Sa 09:00-22:00; Su 10:00-22:00,Subway,Q244457
https://locations.tacobell.com/#6144822,taco_bell,Taco Bell,,Goodyear,AZ,,US,+1 623-925-9799,https://locations.tacobell.com/az/goodyear/251-north-litchfield-road.html,Mo-Su 07:00-01:00,Taco Bell,Q752941
https://locations.tacobell.com/#6145736,taco_bell,Taco Bell,,Goodyear,AZ,,US,+1 623-915-8828,https://locations.tacobell.com/az/goodyear/17676-w-elliot-rd-.html,Mo-Sa 07:00-24:00; Su 08:00-24:00,Taco Bell,Q752941
https://locations.tacobell.com/#6145878,taco_bell,Taco Bell,,Goodyear,AZ,,US,+1 623-932-0895,https://locations.tacobell.com/az/goodyear/16950-yuma-road.html,Mo-Th 07:00-01:00; Fr-Sa 07:00-03:00; Su 07:00-01:00,Taco Bell,Q752941
1658,tmobile_us,S Cotton Ln & Canyon Trails Blvd,,Goodyear,AZ,,US,+1 623-932-0800,https://www.t-mobile.com/store-locator/az/goodyear/s-cotton-ln-canyon-trails-blvd,,T-Mobile,Q3511885
9086,tmobile_us,Pebble Creek Pkwy & I-10,,Goodyear,AZ,,US,+1 623-535-3013,https://www.t-mobile.com/store-locator/az/goodyear/pebble-creek-pkwy-i-10,,T-Mobile,Q3511885
031461,uhaul,Budget Mini Storage #7,3970 S Estrella Pkwy,Goodyear,AZ,,US,+1 623-925-5836,,Mo-Sa 00:00-17:00,U-Haul,Q7862902
721041,uhaul,U-Haul Moving & Storage at Estrella Mountain,1126 N Citrus Rd,Goodyear,AZ,,US,+1 623-455-6280,,Mo-Th 00:00-19:00; Fr 00:00-20:00; Sa 00:00-19:00; Su 00:00-17:00,U-Haul,Q7862902
"Phoenix Spine Goodyear ASC, Goodyear, Arizona",united_surgical_partners_international,Phoenix Spine Goodyear ASC,140 N Litchfield Road Suite 110,Goodyear,AZ,,US,+1 602-256-2525,na,,United Surgical Partners International,Q7893575
1365160,usps,AVONDALE GOODYEAR,,GOODYEAR,AZ,,US,+1 623-882-9148,,Mo-Fr 08:30-16:30; Sa 09:00-12:00,United States Postal Service,Q668687
8533800010,usps_collection_boxes,USPS COLLECTION BOX - BLUE BOX,875 S ESTRELLA PKWY,GOODYEAR,AZ,,US,,,,United States Postal Service,Q668687
8533800011,usps_collection_boxes,USPS COLLECTION BOX - PO LOBBY,875 S ESTRELLA PKWY,GOODYEAR,AZ,,US,,,,United States Postal Service,Q668687
8533800009,usps_collection_boxes,USPS COLLECTION BOX - BLUE BOX,875 S ESTRELLA PKWY,GOODYEAR,AZ,,US,,,,United States Postal Service,Q668687
8533800001,usps_collection_boxes,USPS COLLECTION BOX - BLUE BOX,251 N LITCHFIELD RD,GOODYEAR,AZ,,US,,,,United States Postal Service,Q668687
8533800002,usps_collection_boxes,USPS COLLECTION BOX - BLUE BOX,390 N LITCHFIELD RD,GOODYEAR,AZ,,US,,,,United States Postal Service,Q668687
A00000012227,verizon_us,Victra Goodyear N Estrella Pkwy,,GOODYEAR,AZ,,US,+1 623-925-8880,https://www.verizon.com/stores/details/arizona/goodyear/gowireless-goodyear-n-estrella-pkwy-1585622/,Mo-Fr 09:00-20:00; Sa 09:00-19:00; Su 10:00-19:00,Verizon,Q919641
,visa,,,GOODYEAR,AZ,,US,,,,,
,visa,,,GOODYEAR,AZ,,US,,,,,
,visa,,,GOODYEAR,AZ,,US,,,,,
,visa,,,GOODYEAR,AZ,,US,,,,,
,visa,,,GOODYEAR,AZ,,US,,,,,
,visa,,,GOODYEAR,AZ,,US,,,,,
,visa,,,GOODYEAR,AZ,,US,,,,,
,visa,,,GOODYEAR,AZ,,US,,,,,
,visa,,,GOODYEAR,AZ,,US,,,,,
,visa,,,GOODYEAR,AZ,,US,,,,,
,visa,,,GOODYEAR,AZ,,US,,,,,
,visa,,,GOODYEAR,AZ,,US,,,,,
,visa,,,GOODYEAR,AZ,,US,,,,,
,visa,,,GOODYEAR,AZ,,US,,,,,
,visa,,,GOODYEAR,AZ,,US,,,,,
,visa,,,GOODYEAR,AZ,,US,,,,,
,visa,,,GOODYEAR,AZ,,US,,,,,
,visa,,,GOODYEAR,AZ,,US,,,,,
,visa,,,GOODYEAR,AZ,,US,,,,,
,visa,,,GOODYEAR,AZ,,US,,,,,
,visa,,,GOODYEAR,AZ,,US,,,,,
,visa,,,GOODYEAR,AZ,,US,,,,,
,visa,,,GOODYEAR,AZ,,US,,,,,
,visa,,,GOODYEAR,AZ,,US,,,,,
,visa,,,GOODYEAR,AZ,,US,,,,,
,visa,,,SURPRISE,AZ,,US,,,,,
,visa,,,GOODYEAR,AZ,,US,,,,,
,visa,,,GOODYEAR,AZ,,US,,,,,
,visa,,,GOODYEAR,AZ,,US,,,,,
,visa,,,GOODYEAR,AZ,,US,,,,,
,visa,,,GOODYEAR,AZ,,US,,,,,
,visa,,,GOODYEAR,AZ,,US,,,,,
,visa,,,GOODYEAR,AZ,,US,,,,,
,visa,,,GOODYEAR,AZ,,US,,,,,
,visa,,,GOODYEAR,AZ,,US,,,,,
,visa,,,GOODYEAR,AZ,,US,,,,,
,visa,,,GOODYEAR,AZ,,US,,,,,
,visa,,,GOODYEAR,AZ,,US,,,,,
,visa,,,GOODYEAR,AZ,,US,,,,,
,visa,,,GOODYEAR,AZ,,US,,,,,
,visa,,,GOODYEAR,AZ,,US,,,,,
,visa,,,GOODYEAR,AZ,,US,,,,,
,visa,,,GOODYEAR,AZ,,US,,,,,
,visa,,,GOODYEAR,AZ,,US,,,,,
,visa,,,GOODYEAR,AZ,,US,,,,,
,visa,,,GOODYEAR,AZ,,US,,,,,
,visa,,,GOODYEAR,AZ,,US,,,,,
,visa,,,GOODYEAR,AZ,,US,,,,,
,visa,,,GOODYEAR,AZ,,US,,,,,
,visa,,,GOODYEAR,AZ,,US,,,,,
,visa,,,GOODYEAR,AZ,,US,,,,,
,visa,,,GOODYEAR,AZ,,US,,,,,
,visa,,,GOODYEAR,AZ,,US,,,,,
,visa,,,GOODYEAR,AZ,,US,,,,,
52,visionworks,Visionworks Palm Valley Pavilions West,,Goodyear,AZ,,US,+1 623-935-9784,https://locations.visionworks.com/ll/US/AZ/Goodyear/14009-W-McDowell-Rd,Mo-Sa 09:00-19:00,Visionworks,Q5422607
481,waffle_house_us,Waffle House #481,,GOODYEAR,AZ,,US,+1 623-932-9058,https://locations.wafflehouse.com/goodyear-az-481,24/7,Waffle House,Q1701206
https://www.walgreens.com/locator/walgreens-387+n+estrella+pkwy-goodyear-az-85338/id=2243,walgreens,Walgreens,,Goodyear,AZ,,US,+1 623-215-1046,https://www.walgreens.com/locator/walgreens-387+n+estrella+pkwy-goodyear-az-85338/id=2243,Mo-Su 07:00-22:00,Walgreens,Q1591889
https://www.walgreens.com/locator/walgreens-9800+s+estrella+pkwy-goodyear-az-85338/id=12386,walgreens,Walgreens,,Goodyear,AZ,,US,+1 623-255-3649,https://www.walgreens.com/locator/walgreens-9800+s+estrella+pkwy-goodyear-az-85338/id=12386,Mo-Su 07:00-22:00,Walgreens,Q1591889
13470__W__VAN__BUREN__ST_GOODYEAR_AZ_85338,wellsfargo,Wells Fargo,13470 W VAN BUREN ST,GOODYEAR,AZ,,US,+1 623-932-1410,https://www.wellsfargo.com/locator/bank/13470__W__VAN__BUREN__ST_GOODYEAR_AZ_85338/,Mo-Fr 09:00-17:00,Wells Fargo,Q744149
1050__N__ESTRELLA__PKWY_GOODYEAR_AZ_85338,wellsfargo,Wells Fargo,1050 N ESTRELLA PKWY,GOODYEAR,AZ,,US,+1 623-882-3400,https://www.wellsfargo.com/locator/bank/1050__N__ESTRELLA__PKWY_GOODYEAR_AZ_85338/,Mo-Fr 09:00-17:00,Wells Fargo,Q744149
a101297ab1884aa39d61613b42f61cc9,western_union,WALMART #005369,,Goodyear,AZ,,US,+1 623-925-9575,https://location.westernunion.com/us/az/goodyear/a101297ab1884aa39d61613b42f61cc9,Mo-Su 07:00-21:00,Western Union,Q861042
