Ref,Spider,Name,Address,City,State,Zipcode,Country,Phone,Website,Hours,Brand,WikiData
https://locators.bankofamerica.com/mi/grandrapids/atm-grand-rapids-110522.html,bankofamerica,Bank of America Walk-Up ATM | Fuller And Leonard,,Grand Rapids,MI,,US,+1 844-401-8500,https://locators.bankofamerica.com/mi/grandrapids/atm-grand-rapids-110522.html,,Bank of America,Q487907
432,biggby_coffee_us,Biggby Coffee,1215 Fuller Ave NE Grand Rapids MI 49505,Grand Rapids,MI,,US,+1 616-459-7855,,Mo-Fr 05:30-20:00; Sa 06:00-20:00; Su 07:00-20:00,Biggby Coffee,Q4906876
183338,bluerhino,Quick N EZ Party Store,,Grand Rapids,MI,,US,+1 616-361-7803,,,Blue Rhino,Q65681213
198789,bluerhino,Plainfield Marathon #106,,Grand Rapids,MI,,US,+1 616-364-6414,,,Blue Rhino,Q65681213
113184,bluerhino,Eli's Northeast Shell,,Grand Rapids,MI,,US,+1 616-364-6003,,,Blue Rhino,Q65681213
152502,bluerhino,Walgreens #5095,,Grand Rapids,MI,,US,+1 616-364-7071,,,Blue Rhino,Q65681213
65990,bluerhino,Family Fare #254,,Grand Rapids,MI,,US,+1 616-454-8368,,,Blue Rhino,Q65681213
94063,bluerhino,Family Fare #855 - Quick Stop,,Grand Rapids,MI,,US,+1 616-458-1157,,,Blue Rhino,Q65681213
73247,bluerhino,Speedway #7535,,Grand Rapids,MI,,US,+1 616-451-9516,,,Blue Rhino,Q65681213
67852840571104950500100000000000,bp,BP,,Grand Rapids,MI,,US,+1 616-363-4102,,24/7,BP,Q152057
77938,citi,ATM Speedway,,Grand Rapids,MI,,US,,,,Citibank,Q857063
79631,citi,ATM SPEEDWAY #8765,,Grand Rapids,MI,,US,,,,Citibank,Q857063
60089,citi,ATM INDEPENDENT BANK,,Grand Rapids,MI,,US,,,,Citibank,Q857063
88552,citi,ATM Walgreens,,Grand Rapids,MI,,US,,,,Citibank,Q857063
77062,citi,ATM Speedway,,Grand Rapids,MI,,US,,,,Citibank,Q857063
79573,citi,ATM SPEEDWAY #7535,,Grand Rapids,MI,,US,,,,Citibank,Q857063
248737,dennys,Denny's,,Grand Rapids,MI,,US,+1 616-363-5116,https://locations.dennys.com/MI/GRAND-RAPIDS/248737,24/7,Denny's,Q1189695
nca_s1072,department_veterans_affairs,Grand Rapids Home for Veterans Cemetery,,Grand Rapids,MI,,US,+1 616-364-5322,https://www.michigan.gov/mvh/locations/grand-rapids,,Department Veterans Affairs,Q592576
https://www.edwardjones.com/us-en/financial-advisor/craig-vaness,edwardjones,Craig K Van Ess,,Grand Rapids,MI,,US,+1 616-447-9184,https://www.edwardjones.com/us-en/financial-advisor/craig-vaness,Mo-Fr 09:00-17:00,Edward Jones,Q5343830
200330195,exxonmobil,Mobil,,GRAND RAPIDS,MI,,US,,https://www.exxon.com/en/find-station/mobil-grandrapids-mi-mobil-200330195,Mo-Th 06:00-23:00; Fr 06:00-00:00; Sa 07:00-00:00; Su 07:00-22:00,Mobil,Q109676002
254,family_fare_us,Family Fare - Leonard St.,,Grand Rapids,MI,,US,+1 616-454-8368,https://www.shopfamilyfare.com/stores/family-fare-leonard-st,"Mo-Fr 06:00-23:00,09:00-19:00; Sa 06:00-23:00,09:00-17:00; Su 06:00-23:00,10:00-16:00",Family Fare,Q19868045
https://www.fitness19.com/centers/grand-rapids/,fitness19_us,Fitness 19,,Grand Rapids,MI,,US,+1 616-454-1919,https://www.fitness19.com/centers/grand-rapids/,,Fitness 19,Q121787953
https://salons.greatclips.com/us/mi/grand-rapids/1235-leonard-st-ne,greatclips,Great Clips,,Grand Rapids,MI,,US,+1 616-258-8664,https://salons.greatclips.com/us/mi/grand-rapids/1235-leonard-st-ne,Mo-Fr 10:00-19:00; Sa 09:00-18:00; Su 11:00-17:00,Great Clips,Q5598967
https://locations.jimmyjohns.com/mi/grandrapids/sandwiches-811.html,jimmy_johns,Jimmy John's,,Grand Rapids,MI,,US,+1 616-458-7704,https://locations.jimmyjohns.com/mi/grandrapids/sandwiches-811.html,,Jimmy John's,Q1689380
161259,marathon_petroleum_us,PLAINFIELD MARATHON,,GRAND RAPIDS,MI,,US,+1 616-364-6414,,,Marathon,Q458363
https://locations.papamurphys.com/#15429951,papamurphys,Pizza Takeout & Delivery,,Grand Rapids,MI,,US,+1 616-459-7272,https://locations.papamurphys.com/mi/grand-rapids/1239-leonard-street-ne,Mo-Su 11:00-20:00,Papa Murphy's,Q7132349
https://locations.papajohns.com/#10692306,papa_johns,Papa John's,,Grand Rapids,MI,,US,+1 616-365-9988,https://locations.papajohns.com/united-states/mi/49505/grand-rapids/2153-plainfield-ave-ne,Mo-Su 10:00-23:00,Papa John's Pizza,Q2759586
8002138001,sunoco_us,Sunoco,,GRAND RAPIDS,MI,,US,+1 616-608-6871,,Mo-Su 06:00-00:00,Sunoco,Q1423218
1375511,usps,NORTHEAST,,GRAND RAPIDS,MI,,US,+1 616-364-4304,,Mo-Fr 08:30-17:30; Sa 09:00-12:00,United States Postal Service,Q668687
4950500031,usps_collection_boxes,USPS COLLECTION BOX - BLUE BOX,1702 MONROE AVE NW,GRAND RAPIDS,MI,,US,,,,United States Postal Service,Q668687
4950500032,usps_collection_boxes,USPS COLLECTION BOX - BLUE BOX,1345 MONROE AVE NW,GRAND RAPIDS,MI,,US,,,,United States Postal Service,Q668687
4950500084,usps_collection_boxes,USPS COLLECTION BOX - BLUE BOX,2201 COIT AVE NE,GRAND RAPIDS,MI,,US,,,,United States Postal Service,Q668687
4950500036,usps_collection_boxes,USPS COLLECTION BOX - BLUE BOX,2950  MONROE AVE NE,GRAND RAPIDS,MI,,US,,,,United States Postal Service,Q668687
4950500000,usps_collection_boxes,USPS COLLECTION BOX - BLUE BOX,3260 EAGLE PARK DR NE,GRAND RAPIDS,MI,,US,,,,United States Postal Service,Q668687
4950500076,usps_collection_boxes,USPS COLLECTION BOX - BLUE BOX,702 3 MILE RD NE,GRAND RAPIDS,MI,,US,,,,United States Postal Service,Q668687
4950500077,usps_collection_boxes,USPS COLLECTION BOX - BLUE BOX,3350 COIT AVE NE,GRAND RAPIDS,MI,,US,,,,United States Postal Service,Q668687
4950500078,usps_collection_boxes,USPS COLLECTION BOX - BLUE BOX,2493 COIT AVE NE,GRAND RAPIDS,MI,,US,,,,United States Postal Service,Q668687
4950500079,usps_collection_boxes,USPS COLLECTION BOX - BLUE BOX,1425 COIT AVE NE,GRAND RAPIDS,MI,,US,,,,United States Postal Service,Q668687
4950500022,usps_collection_boxes,USPS COLLECTION BOX - BLUE BOX,357 KNAPP ST NE,GRAND RAPIDS,MI,,US,,,,United States Postal Service,Q668687
4950500041,usps_collection_boxes,USPS COLLECTION BOX - BLUE BOX,5265 NORTHLAND DR NE,GRAND RAPIDS,MI,,US,,,,United States Postal Service,Q668687
4950500005,usps_collection_boxes,USPS COLLECTION BOX - BLUE BOX,3417 DEVONWOOD HLS NE,GRAND RAPIDS,MI,,US,,,,United States Postal Service,Q668687
4950500107,usps_collection_boxes,USPS COLLECTION BOX - BLUE BOX,1700 E BELTLINE AVE NE,GRAND RAPIDS,MI,,US,,,,United States Postal Service,Q668687
4950500001,usps_collection_boxes,USPS COLLECTION BOX - BLUE BOX,3260 EAGLE PARK DR NE,GRAND RAPIDS,MI,,US,,,,United States Postal Service,Q668687
4950500094,usps_collection_boxes,USPS COLLECTION BOX - BLUE BOX,2650 5 MILE RD NE,GRAND RAPIDS,MI,,US,,,,United States Postal Service,Q668687
4950500070,usps_collection_boxes,USPS COLLECTION BOX - BLUE BOX,4223 PLAINFIELD AVE NE,GRAND RAPIDS,MI,,US,,,,United States Postal Service,Q668687
4950500118,usps_collection_boxes,USPS COLLECTION BOX - APC,1765 3 MILE RD NE,GRAND RAPIDS,MI,,US,,,,United States Postal Service,Q668687
4950500120,usps_collection_boxes,USPS COLLECTION BOX - PO LOBBY,1765 3 MILE RD NE,GRAND RAPIDS,MI,,US,,,,United States Postal Service,Q668687
4950500112,usps_collection_boxes,USPS COLLECTION BOX - PO LOBBY,1765 3 MILE RD NE,GRAND RAPIDS,MI,,US,,,,United States Postal Service,Q668687
4950500057,usps_collection_boxes,USPS COLLECTION BOX - BLUE BOX,3757 PLAINFIELD AVE NE,GRAND RAPIDS,MI,,US,,,,United States Postal Service,Q668687
4950500091,usps_collection_boxes,USPS COLLECTION BOX - BLUE BOX,1765 3 MILE RD NE,GRAND RAPIDS,MI,,US,,,,United States Postal Service,Q668687
4950500058,usps_collection_boxes,USPS COLLECTION BOX - BLUE BOX,3391 PLAINFIELD AVE NE,GRAND RAPIDS,MI,,US,,,,United States Postal Service,Q668687
4950500056,usps_collection_boxes,USPS COLLECTION BOX - BLUE BOX,3148 PLAINFIELD AVE NE,GRAND RAPIDS,MI,,US,,,,United States Postal Service,Q668687
4950500048,usps_collection_boxes,USPS COLLECTION BOX - BLUE BOX,1805 OAK INDUSTRIAL DR NE,GRAND RAPIDS,MI,,US,,,,United States Postal Service,Q668687
4950500047,usps_collection_boxes,USPS COLLECTION BOX - BLUE BOX,1805 OAK INDUSTRIAL DR NE,GRAND RAPIDS,MI,,US,,,,United States Postal Service,Q668687
4950500015,usps_collection_boxes,USPS COLLECTION BOX - BLUE BOX,2920 FULLER AVE NE,GRAND RAPIDS,MI,,US,,,,United States Postal Service,Q668687
4950500119,usps_collection_boxes,USPS COLLECTION BOX - BLUE BOX,1225 LEONARD ST NE,GRAND RAPIDS,MI,,US,,,,United States Postal Service,Q668687
4950500055,usps_collection_boxes,USPS COLLECTION BOX - BLUE BOX,2444 PLAINFIELD AVE NE,GRAND RAPIDS,MI,,US,,,,United States Postal Service,Q668687
4950500020,usps_collection_boxes,USPS COLLECTION BOX - BLUE BOX,804 KNAPP ST NE,GRAND RAPIDS,MI,,US,,,,United States Postal Service,Q668687
4950500104,usps_collection_boxes,USPS COLLECTION BOX - BLUE BOX,2178 PLAINFIELD AVE NE,GRAND RAPIDS,MI,,US,,,,United States Postal Service,Q668687
grandrapids_oil-change-030048,valvoline_instant_oil_change,Valvoline,1200 Plainfield NE ,Grand Rapids,MI,,US,+1 616-774-9300,https://store.vioc.com/mi/grandrapids/oil-change-030048.html,,Valvoline Instant Oil Change,Q7912852
,visa,,,WARREN,MI,,US,,,,,
,visa,,,BIG RAPIDS,MI,,US,,,,,
,visa,,,GRAND RAPIDS,MI,,US,,,,,
,visa,,,GRAND RAPIDS,MI,,US,,,,,
,visa,,,GRAND RAPIDS,MI,,US,,,,,
,visa,,,GRAND RAPIDS,MI,,US,,,,,
,visa,,,GRAND RAPIDS,MI,,US,,,,,
,visa,,,GRAND RAPIDS,MI,,US,,,,,
,visa,,,GRAND RAPIDS,MI,,US,,,,,
,visa,,,GRAND RAPIDS,MI,,US,,,,,
,visa,,,GRAND RAPIDS,MI,,US,,,,,
,visa,,,GRAND RAPIDS,MI,,US,,,,,
,visa,,,GRAND RAPIDS,MI,,US,,,,,
,visa,,,GRAND RAPIDS,MI,,US,,,,,
,visa,,,GRAND RAPIDS,MI,,US,,,,,
,visa,,,GRAND RAPIDS,MI,,US,,,,,
,visa,,,GRAND RAPIDS,MI,,US,,,,,
,visa,,,GRAND RAPIDS,MI,,US,,,,,
,visa,,,GRAND RAPIDS,MI,,US,,,,,
,visa,,,GRAND RAPIDS,MI,,US,,,,,
,visa,,,GRAND RAPIDS,MI,,US,,,,,
,visa,,,GRAND RAPIDS,MI,,US,,,,,
,visa,,,GRAND RAPIDS,MI,,US,,,,,
,visa,,,GRAND RAPIDS,MI,,US,,,,,
,visa,,,GRAND RAPIDS,MI,,US,,,,,
,visa,,,GRAND RAPIDS,MI,,US,,,,,
,visa,,,GRAND RAPIDS,MI,,US,,,,,
,visa,,,GRAND RAPIDS,MI,,US,,,,,
,visa,,,GRAND RAPIDS,MI,,US,,,,,
,visa,,,GRAND RAPIDS,MI,,US,,,,,
,visa,,,GRAND RAPIDS,MI,,US,,,,,
,visa,,,GRAND RAPIDS,MI,,US,,,,,
,visa,,,GRAND RAPIDS,MI,,US,,,,,
,visa,,,GRAND RAPIDS,MI,,US,,,,,
,visa,,,GRAND RAPIDS,MI,,US,,,,,
,visa,,,GRAND RAPIDS,MI,,US,,,,,
,visa,,,GRAND RAPIDS,MI,,US,,,,,
,visa,,,GRAND RAPIDS,MI,,US,,,,,
,visa,,,GRAND RAPIDS,MI,,US,,,,,
,visa,,,GRAND RAPIDS,MI,,US,,,,,
,visa,,,GRAND RAPIDS,MI,,US,,,,,
,visa,,,GRAND RAPIDS,MI,,US,,,,,
,visa,,,GRAND RAPIDS,MI,,US,,,,,
,visa,,,GRAND RAPIDS,MI,,US,,,,,
,visa,,,GRAND RAPIDS,MI,,US,,,,,
,visa,,,GRAND RAPIDS,MI,,US,,,,,
,visa,,,GRAND RAPIDS,MI,,US,,,,,
,visa,,,GRAND RAPIDS,MI,,US,,,,,
,visa,,,GRAND RAPIDS,MI,,US,,,,,
,visa,,,GRAND RAPIDS,MI,,US,,,,,
,visa,,,GRAND RAPIDS,MI,,US,,,,,
,visa,,,GRAND RAPIDS,MI,,US,,,,,
,visa,,,GRAND RAPIDS,MI,,US,,,,,
,visa,,,GRAND RAPIDS,MI,,US,,,,,
,visa,,,GRAND RAPIDS,MI,,US,,,,,
,visa,,,GRAND RAPIDS,MI,,US,,,,,
,visa,,,GRAND RAPIDS,MI,,US,,,,,
,visa,,,GRAND RAPIDS,MI,,US,,,,,
,visa,,,GRAND RAPIDS,MI,,US,,,,,
,visa,,,GRAND RAPIDS,MI,,US,,,,,
,visa,,,GRAND RAPIDS,MI,,US,,,,,
,visa,,,GRAND RAPID,MI,,US,,,,,
,visa,,,GRAND RAPIDS,MI,,US,,,,,
,visa,,,GRAND RAPIDS,MI,,US,,,,,
,visa,,,GRAND RAPIDS,MI,,US,,,,,
,visa,,,GRAND RAPIDS,MI,,US,,,,,
,visa,,,GRAND RAPIDS,MI,,US,,,,,
,visa,,,GRAND RAPIDS,MI,,US,,,,,
,visa,,,GRAND RAPIDS,MI,,US,,,,,
,visa,,,GRAND RAPIDS,MI,,US,,,,,
,visa,,,GRAND RAPIDS,MI,,US,,,,,
,visa,,,GRAND RAPIDS,MI,,US,,,,,
,visa,,,GRAND RAPIDS,MI,,US,,,,,
,visa,,,GRAND RAPIDS,MI,,US,,,,,
,visa,,,GRAND RAPIDS,MI,,US,,,,,
,visa,,,GRAND RAPIDS,MI,,US,,,,,
https://www.walgreens.com/locator/walgreens-1964+fuller+ave+ne-grand+rapids-mi-49505/id=5095,walgreens,Walgreens,,Grand Rapids,MI,,US,+1 616-364-7071,https://www.walgreens.com/locator/walgreens-1964+fuller+ave+ne-grand+rapids-mi-49505/id=5095,Mo-Sa 08:00-21:00; Su 09:00-21:00,Walgreens,Q1591889
