Ref,Spider,Name,Address,City,State,Zipcode,Country,Phone,Website,Hours,Brand,WikiData
119857,bluerhino,D&W #1591,,Grand Rapids,MI,,US,+1 616-361-7033,,,Blue Rhino,Q65681213
90429,bluerhino,D&W #1576,,Grand Rapids,MI,,US,+1 616-456-8683,,,Blue Rhino,Q65681213
96899,bluerhino,D&W Quick Stop #857,,Grand Rapids,MI,,US,+1 616-942-0596,,,Blue Rhino,Q65681213
90426,bluerhino,D&W #1571,,Grand Rapids,MI,,US,+1 616-957-0733,,,Blue Rhino,Q65681213
2040965,chase_us,East Grand Rapids - New branch,,East Grand Rapids,MI,,US,+1 616-454-9774,https://locator.chase.com/mi/east-grand-rapids/2263-wealthy-st-se,Mo-Fr 09:00-17:00; Sa 09:00-14:00,Chase,Q524629
48149,citi,ATM CVS,,Grand Rapids,MI,,US,,,,Citibank,Q857063
72960,citi,ATM Rite Aid,,Grand Rapids,MI,,US,,,,Citibank,Q857063
8293,cvs_us,CVS Pharmacy,,Grand Rapids,MI,,US,+1 616-235-0747,https://www.cvs.com/store-locator/grand-rapids-mi-pharmacies/1550-lake-dr-se-grand-rapids-mi-49506/storeid=8293,Mo-Su 08:00-23:00,CVS Pharmacy,Q2078880
1261,dominos_pizza_us,Domino's Pizza,,Grand Rapids,MI,,US,+1 616-774-2293,https://pizza.dominos.com/michigan/grand-rapids/1335-lake-dr-se,"Mo-Th 10:00-24:00; Fr 10:00-01:00; Sa 10:00-24:00; Su 00:00-01:00,10:00-24:00",Domino's,Q839466
https://www.edwardjones.com/us-en/financial-advisor/rachel-kieras,edwardjones,Rachel Kieras,,Grand Rapids,MI,,US,+1 616-649-3774,https://www.edwardjones.com/us-en/financial-advisor/rachel-kieras,,Edward Jones,Q5343830
https://locations.53.com/#3033737,fifththirdbank,Fifth Third Bank Breton Village,,Grand Rapids,MI,,US,+1 616-771-5788,https://locations.53.com/mi/grand-rapids/2465-burton-street.html,Mo-Th 09:00-17:00; Fr 09:00-17:30; Sa 09:00-12:00,Fifth Third Bank,Q1411810
https://locations.53.com/#3034894,fifththirdbank,Fifth Third Bank East Grand Rapids,,Grand Rapids,MI,,US,+1 616-771-5766,https://locations.53.com/mi/grand-rapids/2201-wealthy-street-se.html,Mo-Th 09:00-17:00; Fr 09:00-17:30; Sa 09:00-12:00,Fifth Third Bank,Q1411810
387905,follett,Aquinas College Bookstore,,Grand Rapids,MI,,US,+1 616-632-2962,https://www.bkstr.com/aquinascollegestore/home,,,
https://stores.gnc.com/#24059955,gnc,GNC Cascade East,,,MI,,US,+1 616-977-5752,https://stores.gnc.com/all-stores-michigan/grand-rapids/6467-28th-street-se,Mo-Sa 10:00-19:00; Su 11:00-18:00,GNC,Q4808595
https://salons.greatclips.com/us/mi/grand-rapids/2165-wealthy-st-se,greatclips,Great Clips,,Grand Rapids,MI,,US,+1 616-202-7086,https://salons.greatclips.com/us/mi/grand-rapids/2165-wealthy-st-se,Mo-Sa 10:00-18:00; Su 11:00-17:00,Great Clips,Q5598967
242,huntingtonbank,Breton Village ,,Grand Rapids,MI,,US,+1 616-771-6333,https://www.huntington.com/Community/branch-info?locationId=242,Mo-Fr 09:00-17:00; Sa 09:00-12:00; Su 00:00-00:00,Huntington Bank,Q798819
746,huntingtonbank,Wealthy ,,Grand Rapids,MI,,US,+1 616-632-2265,https://www.huntington.com/Community/branch-info?locationId=746,Mo-Fr 09:00-17:00; Sa 09:00-12:00; Su 00:00-00:00,Huntington Bank,Q798819
22527,h_r_block,H&R Block,,East Grand Rapids,MI,,US,+1 616-454-1029,https://www.hrblock.com/local-tax-offices/michigan/east-grand-rapids/gaslight-village/22527/,,H&R Block,Q5627799
https://locations.jimmyjohns.com/mi/grandrapids/sandwiches-1157.html,jimmy_johns,Jimmy John's,,Grand Rapids,MI,,US,+1 616-459-4330,https://locations.jimmyjohns.com/mi/grandrapids/sandwiches-1157.html,,Jimmy John's,Q1689380
https://stores.loft.com/mi/grand-rapids/1840-breton-road-southeast.html,loft_us,Loft,,Grand Rapids,MI,,US,+1 616-949-9814,https://stores.loft.com/mi/grand-rapids/1840-breton-road-southeast.html,,Loft,Q62075137
Breton Village,lululemon,Lululemon,"1830 Breton, Suite 1880, Grand Rapids, MI, US, 49506",Grand Rapids,MI,,US,+1 616-557-7647,https://shop.lululemon.com/stores/us/bretonvillage/bretonvillage,Mo-Sa 10:00-20:00; Su 11:00-18:00,Lululemon,Q6702957
1858-breton-road-se,my_eye_dr,,,Grand Rapids,MI,,US,+1 616-949-9660,https://locations.myeyedr.com/mi/grand-rapids/1858-breton-road-se,,MyEyeDr.,Q117864710
mi_grand-rapids_1433-wealthy-street,pizza_hut_us,1433 Wealthy Street,,Grand Rapids,MI,,US,+1 616-454-4080,https://locations.pizzahut.com/mi/grand-rapids/1433-wealthy-street,,Pizza Hut,Q191615
1285,regis,"Panopoulos – PANOPOULOS | Grand Rapids, MI – 49506 | Salon #22001",,Grand Rapids,MI,,US,+1 616-245-2287,https://www.regissalons.com/locations/mi/grand-rapids/panopoulos-panopoulos-haircuts-22001.html,,Regis,Q7309325
01521,rite_aid_us,Rite Aid #01521 Grand Rapids,,Grand Rapids,MI,,US,+1 616-451-0711,https://locations2.riteaid.com.yext-cdn.com/mi/grand-rapids/2130-wealthy-st-se.html,Mo-Su 08:00-22:00,Rite Aid,Q3433273
1608,upsstore,East Grand Rapids,2153 Wealthy St SE,East Grand Rapids,MI,,US,+1 616-454-3335,https://locations.theupsstore.com/mi/east-grand-rapids/2153-wealthy-st-se,,UPS Store,Q7771029
1361876,usps,EASTOWN,,GRAND RAPIDS,MI,,US,+1 616-451-4008,,Mo-Fr 09:00-17:00; Sa 09:00-14:00,United States Postal Service,Q668687
4950600023,usps_collection_boxes,USPS COLLECTION BOX - BLUE BOX,1500 E BELTLINE AVE SE,GRAND RAPIDS,MI,,US,,,,United States Postal Service,Q668687
4950600052,usps_collection_boxes,USPS COLLECTION BOX - BLUE BOX,2181 WEALTHY ST SE,GRAND RAPIDS,MI,,US,,,,United States Postal Service,Q668687
4950600036,usps_collection_boxes,USPS COLLECTION BOX - PO LOBBY,1451 LAKE DR SE,GRAND RAPIDS,MI,,US,,,,United States Postal Service,Q668687
4950600035,usps_collection_boxes,USPS COLLECTION BOX - BLUE BOX,1451 LAKE DR SE,GRAND RAPIDS,MI,,US,,,,United States Postal Service,Q668687
4950600010,usps_collection_boxes,USPS COLLECTION BOX - BLUE BOX,1818 BRETON RD SE,GRAND RAPIDS,MI,,US,,,,United States Postal Service,Q668687
4950600008,usps_collection_boxes,USPS COLLECTION BOX - BLUE BOX,2026 BOSTON ST SE,GRAND RAPIDS,MI,,US,,,,United States Postal Service,Q668687
4950600009,usps_collection_boxes,USPS COLLECTION BOX - BLUE BOX,1818 BRETON RD SE,GRAND RAPIDS,MI,,US,,,,United States Postal Service,Q668687
4950600032,usps_collection_boxes,USPS COLLECTION BOX - BLUE BOX,1800 WOODWARD AVE SE,GRAND RAPIDS,MI,,US,,,,United States Postal Service,Q668687
4950600041,usps_collection_boxes,USPS COLLECTION BOX - BLUE BOX,746 LAKESIDE DR SE,GRAND RAPIDS,MI,,US,,,,United States Postal Service,Q668687
4950600029,usps_collection_boxes,USPS COLLECTION BOX - BLUE BOX,1425 PONTIAC RD SE,GRAND RAPIDS,MI,,US,,,,United States Postal Service,Q668687
4950600005,usps_collection_boxes,USPS COLLECTION BOX - BLUE BOX,2781 BIRCHCREST DR SE,GRAND RAPIDS,MI,,US,,,,United States Postal Service,Q668687
grandrapids_oil-change-030051,valvoline_instant_oil_change,Valvoline,1951 Burton SE ,Grand Rapids,MI,,US,+1 616-241-6297,https://store.vioc.com/mi/grandrapids/oil-change-030051.html,,Valvoline Instant Oil Change,Q7912852
,visa,,,SAULT ST MARIE,MI,,US,,,,,
,visa,,,GRAND RAPIDS,MI,,US,,,,,
,visa,,,GRAND RAPIDS,MI,,US,,,,,
,visa,,,GRAND RAPIDS,MI,,US,,,,,
,visa,,,GRAND RAPIDS,MI,,US,,,,,
,visa,,,GRAND RAPIDS,MI,,US,,,,,
,visa,,,GRAND RAPIDS,MI,,US,,,,,
,visa,,,GRAND RAPIDS,MI,,US,,,,,
,visa,,,GRAND RAPIDS,MI,,US,,,,,
,visa,,,GRAND RAPIDS,MI,,US,,,,,
,visa,,,GRAND RAPIDS,MI,,US,,,,,
,visa,,,GRAND RAPIDS,MI,,US,,,,,
,visa,,,GRAND RAPIDS,MI,,US,,,,,
,visa,,,GRAND RAPIDS,MI,,US,,,,,
,visa,,,GRAND RAPIDS,MI,,US,,,,,
,visa,,,GRAND RAPIDS,MI,,US,,,,,
,visa,,,GRAND RAPIDS,MI,,US,,,,,
,visa,,,GRAND RAPIDS,MI,,US,,,,,
,visa,,,GRAND RAPIDS,MI,,US,,,,,
,visa,,,GRAND RAPIDS,MI,,US,,,,,
,visa,,,GRAND RAPIDS,MI,,US,,,,,
,visa,,,GRAND RAPIDS,MI,,US,,,,,
,visa,,,GRAND RAPIDS,MI,,US,,,,,
,visa,,,GRAND RAPIDS,MI,,US,,,,,
,visa,,,GRAND RAPIDS,MI,,US,,,,,
,visa,,,GRAND RAPIDS,MI,,US,,,,,
,visa,,,GRAND RAPIDS,MI,,US,,,,,
,visa,,,EAST GRAND RAPIDS,MI,,US,,,,,
,visa,,,EAST GRAND RAPIDS,MI,,US,,,,,
,visa,,,GRAND RAPIDS,MI,,US,,,,,
,visa,,,GRAND RAPIDS,MI,,US,,,,,
,visa,,,GRAND RAPIDS,MI,,US,,,,,
,visa,,,EAST GRAND RAPIDS,MI,,US,,,,,
,visa,,,GRAND RAPIDS,MI,,US,,,,,
,visa,,,GRAND RAPIDS,MI,,US,,,,,
,visa,,,GRAND RAPIDS,MI,,US,,,,,
,visa,,,GRAND RAPIDS,MI,,US,,,,,
,visa,,,GRAND RAPIDS,MI,,US,,,,,
,visa,,,GRAND RAPIDS,MI,,US,,,,,
,visa,,,GRAND RAPIDS,MI,,US,,,,,
,visa,,,GRAND RAPIDS,MI,,US,,,,,
,visa,,,GRAND RAPIDS,MI,,US,,,,,
,visa,,,GRAND RAPIDS,MI,,US,,,,,
,visa,,,GRAND RAPIDS,MI,,US,,,,,
,visa,,,GRAND RAPIDS,MI,,US,,,,,
,visa,,,GRAND RAPIDS,MI,,US,,,,,
,visa,,,GRAND RAPIDS,MI,,US,,,,,
,visa,,,GRAND RAPIDS,MI,,US,,,,,
,visa,,,GRAND RAPIDS,MI,,US,,,,,
,visa,,,GRAND RAPIDS,MI,,US,,,,,
,visa,,,GRAND RAPIDS,MI,,US,,,,,
,visa,,,GRAND RAPIDS,MI,,US,,,,,
,visa,,,GRAND RAPIDS,MI,,US,,,,,
,visa,,,GRAND RAPIDS,MI,,US,,,,,
,visa,,,GRAND RAPIDS,MI,,US,,,,,
,visa,,,GRAND RAPIDS,MI,,US,,,,,
,visa,,,GRAND RAPIDS,MI,,US,,,,,
,visa,,,GRAND RAPIDS,MI,,US,,,,,
,visa,,,GRAND RAPIDS,MI,,US,,,,,
,visa,,,GRAND RAPIDS,MI,,US,,,,,
,visa,,,GRAND RAPIDS,MI,,US,,,,,
,visa,,,GRAND RAPIDS,MI,,US,,,,,
