Ref,Spider,Name,Address,City,State,Zipcode,Country,Phone,Website,Hours,Brand,WikiData
,visa,,,SAN JUAN DEL RIO,QUERETARO,,MX,,,,,
,visa,,,SAN JUAN DEL RIO,QUERETARO,,MX,,,,,
,visa,,,QUERETARO,QUERETARO,,MX,,,,,
,visa,,,SAN JUAN DEL RIO,QUERETARO,,MX,,,,,
,visa,,,SAN JUAN DEL RIO,QUERETARO,,MX,,,,,
,visa,,,SAN JUAN DEL RIO,QUERETARO,,MX,,,,,
,visa,,,SAN JUAN DEL RIO,QUERETARO,,MX,,,,,
,visa,,,SAN JUAN DEL RIO,QUERETARO,,MX,,,,,
,visa,,,SAN JUAN DEL RIO,QUERETARO,,MX,,,,,
,visa,,,SAN JUAN DEL RIO,QUERETARO,,MX,,,,,
,visa,,,SAN JUAN DEL RIO,QUERETARO,,MX,,,,,
,visa,,,SAN JUAN DEL RIO,QUERETARO,,MX,,,,,
,visa,,,SAN JUAN DEL RIO,QUERETARO,,MX,,,,,
,visa,,,SAN JUAN DEL RIO,QUERETARO,,MX,,,,,
584d77f4b3e11a0d1e568cd0be9510c5,western_union,OXXO KAMERUN QRF,,San Juan Del Rio,QUERETARO,,MX,+52 81 8389 2121,https://location.westernunion.com/mx/queretaro/san-juan-del-rio/584d77f4b3e11a0d1e568cd0be9510c5,Mo-Su 08:00-22:00,Western Union,Q861042
520835ace30dd63a29bbaf1e5ad47be7,western_union,OXXO KAMERUN QRF,,San Juan Del Rio,QUERETARO,,MX,+52 81 8389 2121,https://location.westernunion.com/mx/queretaro/san-juan-del-rio/520835ace30dd63a29bbaf1e5ad47be7,Mo-Su 08:00-22:00,Western Union,Q861042
ae3fbe28e2219839a9f5ab2b4bc87412,western_union,OXXO KAMERUN QRF,,San Juan Del Rio,QUERETARO,,MX,+52 81 8389 2121,https://location.westernunion.com/mx/queretaro/san-juan-del-rio/ae3fbe28e2219839a9f5ab2b4bc87412,Mo-Su 08:00-22:00,Western Union,Q861042
302d33fa6d32bc22b28022ae741fc32c,western_union,MODATELAS 333 AP CASH,,San Juan Del Rio,QUERETARO,,MX,+52 55 5081 6120,https://location.westernunion.com/mx/queretaro/san-juan-del-rio/302d33fa6d32bc22b28022ae741fc32c,Mo-Su 08:00-20:00,Western Union,Q861042
350aface9b42a03f54025578cdaa42d1,western_union,SUPER Q UNIVERSIDAD  SJR,,San Juan Del Rio,QUERETARO,,MX,+52 427 274 0788,https://location.westernunion.com/mx/queretaro/san-juan-del-rio/350aface9b42a03f54025578cdaa42d1,Mo-Su 08:00-24:00,Western Union,Q861042
d7f74be54a59c2602fb29fad2bbd2881,western_union,SUPER Q UNIVERSIDAD  SJR,,San Juan Del Rio,QUERETARO,,MX,+52 427 274 0788,https://location.westernunion.com/mx/queretaro/san-juan-del-rio/d7f74be54a59c2602fb29fad2bbd2881,Mo-Su 08:00-24:00,Western Union,Q861042
c6959034cc15c0608c2f2cfbbbce6e59,western_union,MODATELAS 333 AP CASH,,San Juan Del Rio,QUERETARO,,MX,+52 55 5081 6120,https://location.westernunion.com/mx/queretaro/san-juan-del-rio/c6959034cc15c0608c2f2cfbbbce6e59,Mo-Su 08:00-20:00,Western Union,Q861042
0cc0cc064297ae9e954cd791296e5575,western_union,MODATELAS 333 AP CASH,,San Juan Del Rio,QUERETARO,,MX,+52 55 5081 6120,https://location.westernunion.com/mx/queretaro/san-juan-del-rio/0cc0cc064297ae9e954cd791296e5575,Mo-Su 08:00-20:00,Western Union,Q861042
56ca1f131c10f30cf0c0da9985752561,western_union,CAJA POPULARES ALIANZA   SAN JUAN DEL RI,,San Juan Del Rio,QUERETARO,,MX,+52 81 2133 2160,https://location.westernunion.com/mx/queretaro/san-juan-del-rio/56ca1f131c10f30cf0c0da9985752561,Mo-Fr 08:00-17:00; Sa 08:00-13:00,Western Union,Q861042
d50a8a2b42d680d612efae6f1b0892fb,western_union,CAJA POPULARES ALIANZA   SAN JUAN DEL RI,,San Juan Del Rio,QUERETARO,,MX,+52 81 2133 2160,https://location.westernunion.com/mx/queretaro/san-juan-del-rio/d50a8a2b42d680d612efae6f1b0892fb,Mo-Fr 08:00-17:00; Sa 08:00-13:00,Western Union,Q861042
71c3237164b1af6829f3ba020b92ddf4,western_union,CAJA POPULARES ALIANZA   SAN JUAN DEL RI,,San Juan Del Rio,QUERETARO,,MX,+52 81 2133 2160,https://location.westernunion.com/mx/queretaro/san-juan-del-rio/71c3237164b1af6829f3ba020b92ddf4,Mo-Fr 08:00-17:00; Sa 08:00-13:00,Western Union,Q861042
d29814466f7b36a4d0e75fac09362c4b,western_union,SUPER Q RIO MOCTEZUMA,,San Juan Del Rio,QUERETARO,,MX,+52 427 274 2243,https://location.westernunion.com/mx/queretaro/san-juan-del-rio/d29814466f7b36a4d0e75fac09362c4b,Mo-Su 08:00-24:00,Western Union,Q861042
75a6d0f9d5a19c262fa719b23545ef30,western_union,SUPER Q RIO MOCTEZUMA,,San Juan Del Rio,QUERETARO,,MX,+52 427 274 2243,https://location.westernunion.com/mx/queretaro/san-juan-del-rio/75a6d0f9d5a19c262fa719b23545ef30,Mo-Su 08:00-24:00,Western Union,Q861042
d1e892b3975e34916cc2fd8c31b66a85,western_union,OXXO MOCTEZUMA QRF,,San Juan Del Rio,QUERETARO,,MX,+52 81 8389 2121,https://location.westernunion.com/mx/queretaro/san-juan-del-rio/d1e892b3975e34916cc2fd8c31b66a85,Mo-Su 08:00-22:00,Western Union,Q861042
4f9533404cd918f9ce09aa4e3f96fb48,western_union,OXXO MOCTEZUMA QRF,,San Juan Del Rio,QUERETARO,,MX,+52 81 8389 2121,https://location.westernunion.com/mx/queretaro/san-juan-del-rio/4f9533404cd918f9ce09aa4e3f96fb48,Mo-Su 08:00-22:00,Western Union,Q861042
23105818e8a40a3ffcf6ad5b2b7e636e,western_union,OXXO MOCTEZUMA QRF,,San Juan Del Rio,QUERETARO,,MX,+52 81 8389 2121,https://location.westernunion.com/mx/queretaro/san-juan-del-rio/23105818e8a40a3ffcf6ad5b2b7e636e,Mo-Su 08:00-22:00,Western Union,Q861042
ec72ca4c622c8870cc03b0cc197edca6,western_union,OXXO FERNANDO DIAZ QRO,,San Juan Del Rio,QUERETARO,,MX,+52 81 8389 2121,https://location.westernunion.com/mx/queretaro/san-juan-del-rio/ec72ca4c622c8870cc03b0cc197edca6,Mo-Su 08:00-22:00,Western Union,Q861042
759a55e336a88988979bb5672e99642a,western_union,OXXO FERNANDO DIAZ QRO,,San Juan Del Rio,QUERETARO,,MX,+52 81 8389 2121,https://location.westernunion.com/mx/queretaro/san-juan-del-rio/759a55e336a88988979bb5672e99642a,Mo-Su 08:00-22:00,Western Union,Q861042
a27525173af677e1143e5b089c9634ec,western_union,OXXO CARLOTA QRF,,San Juan Del Rio,QUERETARO,,MX,+52 81 8389 2121,https://location.westernunion.com/mx/queretaro/san-juan-del-rio/a27525173af677e1143e5b089c9634ec,Mo-Su 08:00-22:00,Western Union,Q861042
df8accef7bfa0066a2352375f30bc19c,western_union,OXXO CARLOTA QRF,,San Juan Del Rio,QUERETARO,,MX,+52 81 8389 2121,https://location.westernunion.com/mx/queretaro/san-juan-del-rio/df8accef7bfa0066a2352375f30bc19c,Mo-Su 08:00-22:00,Western Union,Q861042
a24e004694114ca83be6718fd77376eb,western_union,OXXO CARLOTA QRF,,San Juan Del Rio,QUERETARO,,MX,+52 81 8389 2121,https://location.westernunion.com/mx/queretaro/san-juan-del-rio/a24e004694114ca83be6718fd77376eb,Mo-Su 08:00-22:00,Western Union,Q861042
c1b0042c74a72672c6f664afc92bb503,western_union,BANCOPPEL 6636 SAN JUAN DEL RIO,,San Juan Del Rio,QUERETARO,,MX,+52 667 758 9999,https://location.westernunion.com/mx/queretaro/san-juan-del-rio/c1b0042c74a72672c6f664afc92bb503,Mo-Sa 10:00-20:00; Su 10:00-19:00,Western Union,Q861042
d2276b7150fef3fd5e260f193cf2faea,western_union,BANCOPPEL 6636 SAN JUAN DEL RIO,,San Juan Del Rio,QUERETARO,,MX,+52 667 758 9999,https://location.westernunion.com/mx/queretaro/san-juan-del-rio/d2276b7150fef3fd5e260f193cf2faea,Mo-Sa 10:00-20:00; Su 10:00-19:00,Western Union,Q861042
28d748eba6776ead0dc79202237c7c9f,western_union,BANCOPPEL 6636 SAN JUAN DEL RIO,,San Juan Del Rio,QUERETARO,,MX,+52 667 758 9999,https://location.westernunion.com/mx/queretaro/san-juan-del-rio/28d748eba6776ead0dc79202237c7c9f,Mo-Sa 10:00-20:00; Su 10:00-19:00,Western Union,Q861042
01d6b35dc4e8bd9e70c92efff2ab3128,western_union,BANCOPPEL 279 MOCTEZUMA,,San Juan Del Rio,QUERETARO,,MX,+52 238 384 7154,https://location.westernunion.com/mx/queretaro/san-juan-del-rio/01d6b35dc4e8bd9e70c92efff2ab3128,Mo-Sa 10:00-20:30; Su 11:00-18:00,Western Union,Q861042
82202e145b07b9d63d5abbaf794ea0a3,western_union,BANCOPPEL 279 MOCTEZUMA,,San Juan Del Rio,QUERETARO,,MX,+52 238 384 7154,https://location.westernunion.com/mx/queretaro/san-juan-del-rio/82202e145b07b9d63d5abbaf794ea0a3,Mo-Sa 10:00-20:30; Su 11:00-18:00,Western Union,Q861042
45a44ac378e0bd76bf4033534cb0434f,western_union,OXXO ARAMIL QRF,,San Juan Del Rio,QUERETARO,,MX,+52 81 8389 2121,https://location.westernunion.com/mx/queretaro/san-juan-del-rio/45a44ac378e0bd76bf4033534cb0434f,Mo-Su 08:00-22:00,Western Union,Q861042
ad8b1ffebd1c192bc187a79fc381a49d,western_union,OXXO ARAMIL QRF,,San Juan Del Rio,QUERETARO,,MX,+52 81 8389 2121,https://location.westernunion.com/mx/queretaro/san-juan-del-rio/ad8b1ffebd1c192bc187a79fc381a49d,Mo-Su 08:00-22:00,Western Union,Q861042
17844217dff7c6e4e7a728b851a1333c,western_union,OXXO ARAMIL QRF,,San Juan Del Rio,QUERETARO,,MX,+52 81 8389 2121,https://location.westernunion.com/mx/queretaro/san-juan-del-rio/17844217dff7c6e4e7a728b851a1333c,Mo-Su 08:00-22:00,Western Union,Q861042
a75d334b318b385e2ed4f2cacc763fca,western_union,SUPER Q  JUAREZ  SJR,,San Juan Del Rio,QUERETARO,,MX,+52 427 272 9362,https://location.westernunion.com/mx/queretaro/san-juan-del-rio/a75d334b318b385e2ed4f2cacc763fca,Mo-Su 08:00-24:00,Western Union,Q861042
980a4fc588998a3241517590a41aeef7,western_union,SUPER Q  JUAREZ  SJR,,San Juan Del Rio,QUERETARO,,MX,+52 427 272 9362,https://location.westernunion.com/mx/queretaro/san-juan-del-rio/980a4fc588998a3241517590a41aeef7,Mo-Su 08:00-24:00,Western Union,Q861042
ad80ac29e94b934d1f4aef0e65f35bc4,western_union,OXXO MAGISTERIAL QRF,,San Juan Del Rio,QUERETARO,,MX,+52 81 8389 2121,https://location.westernunion.com/mx/queretaro/san-juan-del-rio/ad80ac29e94b934d1f4aef0e65f35bc4,Mo-Su 08:00-22:00,Western Union,Q861042
540be9bda9168babb52947a7035e5280,western_union,AURRERA EXPRESS SIERRA MADRE 2620,,San Juan Del Rio,QUERETARO,,MX,+52 800 833 4700,https://location.westernunion.com/mx/queretaro/san-juan-del-rio/540be9bda9168babb52947a7035e5280,Mo-Su 08:00-22:00,Western Union,Q861042
31adecb8aca031be486539b1c9d53dd9,western_union,AURRERA EXPRESS SIERRA MADRE 2620,,San Juan Del Rio,QUERETARO,,MX,+52 800 833 4700,https://location.westernunion.com/mx/queretaro/san-juan-del-rio/31adecb8aca031be486539b1c9d53dd9,Mo-Su 08:00-22:00,Western Union,Q861042
4b1c7b446f25cd70fb89f6d7e839e1c3,western_union,AURRERA EXPRESS SIERRA MADRE 2620,,San Juan Del Rio,QUERETARO,,MX,+52 800 833 4700,https://location.westernunion.com/mx/queretaro/san-juan-del-rio/4b1c7b446f25cd70fb89f6d7e839e1c3,Mo-Su 08:00-22:00,Western Union,Q861042
f00fa39bb573fe606062e1de5aea5044,western_union,OXXO JACARANDAS QRF,,San Juan Del Rio,QUERETARO,,MX,+52 81 8389 2121,https://location.westernunion.com/mx/queretaro/san-juan-del-rio/f00fa39bb573fe606062e1de5aea5044,Mo-Su 08:00-22:00,Western Union,Q861042
5294818d3165db5c159c0bf91c051780,western_union,OXXO JACARANDAS QRF,,San Juan Del Rio,QUERETARO,,MX,+52 81 8389 2121,https://location.westernunion.com/mx/queretaro/san-juan-del-rio/5294818d3165db5c159c0bf91c051780,Mo-Su 08:00-22:00,Western Union,Q861042
899a0a90adf2350b5257829cfcb748f1,western_union,OXXO JACARANDAS QRF,,San Juan Del Rio,QUERETARO,,MX,+52 81 8389 2121,https://location.westernunion.com/mx/queretaro/san-juan-del-rio/899a0a90adf2350b5257829cfcb748f1,Mo-Su 08:00-22:00,Western Union,Q861042
08d7f7df589f46ea3ee75eee16dae5d5,western_union,OXXO CANTERA QRF,,San Juan Del Rio,QUERETARO,,MX,+52 81 8389 2121,https://location.westernunion.com/mx/queretaro/san-juan-del-rio/08d7f7df589f46ea3ee75eee16dae5d5,Mo-Su 08:00-22:00,Western Union,Q861042
2e9119ce421dc33f6e45a478cc625002,western_union,OXXO CANTERA QRF,,San Juan Del Rio,QUERETARO,,MX,+52 81 8389 2121,https://location.westernunion.com/mx/queretaro/san-juan-del-rio/2e9119ce421dc33f6e45a478cc625002,Mo-Su 08:00-22:00,Western Union,Q861042
f04b5aedf0dc7110a8cd9f5f6860918a,western_union,OXXO CANTERA QRF,,San Juan Del Rio,QUERETARO,,MX,+52 81 8389 2121,https://location.westernunion.com/mx/queretaro/san-juan-del-rio/f04b5aedf0dc7110a8cd9f5f6860918a,Mo-Su 08:00-22:00,Western Union,Q861042
d70e621ba8a04eaca0fecf31889df146,western_union,OXXO SAN JUAN QRF,,San Juan Del Rio,QUERETARO,,MX,+52 81 8389 2121,https://location.westernunion.com/mx/queretaro/san-juan-del-rio/d70e621ba8a04eaca0fecf31889df146,Mo-Su 08:00-22:00,Western Union,Q861042
92b3d49fe06ea036b1537add6d541f3d,western_union,OXXO SAN JUAN QRF,,San Juan Del Rio,QUERETARO,,MX,+52 81 8389 2121,https://location.westernunion.com/mx/queretaro/san-juan-del-rio/92b3d49fe06ea036b1537add6d541f3d,Mo-Su 08:00-22:00,Western Union,Q861042
3c6b209383c5d5010d9551b3dde40152,western_union,OXXO SAN JUAN QRF,,San Juan Del Rio,QUERETARO,,MX,+52 81 8389 2121,https://location.westernunion.com/mx/queretaro/san-juan-del-rio/3c6b209383c5d5010d9551b3dde40152,Mo-Su 08:00-22:00,Western Union,Q861042
7f880b9e2bca4882d5e5faaa498d7609,western_union,OXXO YUNUE QRF,,San Juan Del Rio,QUERETARO,,MX,+52 81 8389 2121,https://location.westernunion.com/mx/queretaro/san-juan-del-rio/7f880b9e2bca4882d5e5faaa498d7609,Mo-Su 06:00-22:00,Western Union,Q861042
068f551b51b715c307bfda4166848644,western_union,OXXO YUNUE QRF,,San Juan Del Rio,QUERETARO,,MX,+52 81 8389 2121,https://location.westernunion.com/mx/queretaro/san-juan-del-rio/068f551b51b715c307bfda4166848644,Mo-Su 06:00-22:00,Western Union,Q861042
9f74bb42c1e0e561204b054efa6d013a,western_union,OXXO MAT PEDREGOSO QRF,,San Juan Del Rio,QUERETARO,,MX,+52 81 8389 2121,https://location.westernunion.com/mx/queretaro/san-juan-del-rio/9f74bb42c1e0e561204b054efa6d013a,Mo-Su 08:00-22:00,Western Union,Q861042
0841617b01e1de1e9a3ba0532496a2ab,western_union,OXXO FATIMA QRF,,San Juan Del Rio,QUERETARO,,MX,+52 81 8389 2121,https://location.westernunion.com/mx/queretaro/san-juan-del-rio/0841617b01e1de1e9a3ba0532496a2ab,Mo-Su 08:00-22:00,Western Union,Q861042
7fcc09cbabba77cedd15e7888ad44c99,western_union,OXXO FATIMA QRF,,San Juan Del Rio,QUERETARO,,MX,+52 81 8389 2121,https://location.westernunion.com/mx/queretaro/san-juan-del-rio/7fcc09cbabba77cedd15e7888ad44c99,Mo-Su 08:00-22:00,Western Union,Q861042
931f6cd5c2a5d0cf7df921208a84c12e,western_union,OXXO MAT PEDREGOSO QRF,,San Juan Del Rio,QUERETARO,,MX,+52 81 8389 2121,https://location.westernunion.com/mx/queretaro/san-juan-del-rio/931f6cd5c2a5d0cf7df921208a84c12e,Mo-Su 08:00-22:00,Western Union,Q861042
0df4a6d907a30ba989895418deb59471,western_union,OXXO MAT PEDREGOSO QRF,,San Juan Del Rio,QUERETARO,,MX,+52 81 8389 2121,https://location.westernunion.com/mx/queretaro/san-juan-del-rio/0df4a6d907a30ba989895418deb59471,Mo-Su 08:00-22:00,Western Union,Q861042
a9bd2c5afd0f0ddbad2f9c61843df364,western_union,OXXO FATIMA BJX,,San Juan Del Rio,QUERETARO,,MX,+52 81 8389 2121,https://location.westernunion.com/mx/queretaro/san-juan-del-rio/a9bd2c5afd0f0ddbad2f9c61843df364,Mo-Su 06:00-22:00,Western Union,Q861042
dfdc214c925fddbb1d977b8642c6ace9,western_union,OXXO FATIMA BJX,,San Juan Del Rio,QUERETARO,,MX,+52 81 8389 2121,https://location.westernunion.com/mx/queretaro/san-juan-del-rio/dfdc214c925fddbb1d977b8642c6ace9,Mo-Su 06:00-22:00,Western Union,Q861042
2eac057fb2f3a499eb53f25a0e7e010b,western_union,SUPER Q  TECNOLOGICO  SJR,,San Juan Del Rio,QUERETARO,,MX,+52 427 272 2165,https://location.westernunion.com/mx/queretaro/san-juan-del-rio/2eac057fb2f3a499eb53f25a0e7e010b,Mo-Su 08:00-24:00,Western Union,Q861042
38273d09a446544072e82fa340a2574d,western_union,SUPER Q  TECNOLOGICO  SJR,,San Juan Del Rio,QUERETARO,,MX,+52 427 272 2165,https://location.westernunion.com/mx/queretaro/san-juan-del-rio/38273d09a446544072e82fa340a2574d,Mo-Su 08:00-24:00,Western Union,Q861042
32b07313fff84095d71bd52a23b81cd9,western_union,OXXO PALOMAS QRF,,San Juan Del Rio,QUERETARO,,MX,+52 81 8389 2121,https://location.westernunion.com/mx/queretaro/san-juan-del-rio/32b07313fff84095d71bd52a23b81cd9,Mo-Su 08:00-22:00,Western Union,Q861042
e4157d5dd258120ec87c000684e04857,western_union,OXXO PALOMAS QRF,,San Juan Del Rio,QUERETARO,,MX,+52 81 8389 2121,https://location.westernunion.com/mx/queretaro/san-juan-del-rio/e4157d5dd258120ec87c000684e04857,Mo-Su 08:00-22:00,Western Union,Q861042
b1b081dfd70918ead6846708b0c2cde3,western_union,OXXO PALOMAS QRF,,San Juan Del Rio,QUERETARO,,MX,+52 81 8389 2121,https://location.westernunion.com/mx/queretaro/san-juan-del-rio/b1b081dfd70918ead6846708b0c2cde3,Mo-Su 08:00-22:00,Western Union,Q861042
a819d5f5d5d7cad56dc749ba31320a0f,western_union,OXXO MAGISTERIAL QRF,,San Juan Del Rio,QUERETARO,,MX,+52 81 8389 2121,https://location.westernunion.com/mx/queretaro/san-juan-del-rio/a819d5f5d5d7cad56dc749ba31320a0f,Mo-Su 08:00-22:00,Western Union,Q861042
f2bb98fe2cbf8cbc94e3a0ccd02027d4,western_union,BANCOPPEL 279 MOCTEZUMA,,San Juan Del Rio,QUERETARO,,MX,+52 238 384 7154,https://location.westernunion.com/mx/queretaro/san-juan-del-rio/f2bb98fe2cbf8cbc94e3a0ccd02027d4,Mo-Sa 10:00-20:30; Su 11:00-18:00,Western Union,Q861042
6502d4110f3153632a4f2823a5a8e83d,western_union,OXXO FERNANDO DIAZ QRO,,San Juan Del Rio,QUERETARO,,MX,+52 81 8389 2121,https://location.westernunion.com/mx/queretaro/san-juan-del-rio/6502d4110f3153632a4f2823a5a8e83d,Mo-Su 08:00-22:00,Western Union,Q861042
f4176f4868edd7b38fa96d4f968b9e8f,western_union,OXXO MAGISTERIAL QRF,,San Juan Del Rio,QUERETARO,,MX,+52 81 8389 2121,https://location.westernunion.com/mx/queretaro/san-juan-del-rio/f4176f4868edd7b38fa96d4f968b9e8f,Mo-Su 08:00-22:00,Western Union,Q861042
