Ref,Spider,Name,Address,City,State,Zipcode,Country,Phone,Website,Hours,Brand,WikiData
370066,chevron,Chevron Station #370066, 51 W MAIN,MIDWAY,UT,,US,+1 435-654-9670,,,Chevron,Q319642
58355,citi,ATM Grand Valley Bank,,Park City,UT,,US,,,,Citibank,Q857063
58360,citi,ATM Grand Valley Bank,,Midway,UT,,US,,,,Citibank,Q857063
200324741,exxonmobil,RESORT RETAILERS #53608,,MIDWAY,UT,,US,+1 435-654-5131,https://www.exxon.com/en/find-station/exxon-midway-ut-resortretailers53608-200324741,24/7,Exxon,Q109675651
17248,little_free_library,Susan Christensen #17248 Midway UT,,Midway,UT,,US,,,,Little Free Library,Q6650101
1373034,usps,MIDWAY,,MIDWAY,UT,,US,+1 435-657-0356,,"Mo-Fr 09:00-13:00,14:00-16:30; Sa 09:00-11:00",United States Postal Service,Q668687
8404900002,usps_collection_boxes,USPS COLLECTION BOX - PO LOBBY,125 W MAIN ST,MIDWAY,UT,,US,,,,United States Postal Service,Q668687
8404900001,usps_collection_boxes,USPS COLLECTION BOX - BLUE BOX,125 W MAIN ST,MIDWAY,UT,,US,,,,United States Postal Service,Q668687
8404900003,usps_collection_boxes,USPS COLLECTION BOX - PO LOBBY,125 W MAIN ST,MIDWAY,UT,,US,,,,United States Postal Service,Q668687
,visa,,,MIDWAY,UT,,US,,,,,
,visa,,,MIDWAY,UT,,US,,,,,
,visa,,,MIDWAY,UT,,US,,,,,
,visa,,,MIDWAY,UT,,US,,,,,
,visa,,,MIDWAY,UT,,US,,,,,
,visa,,,MIDWAY,UT,,US,,,,,
,visa,,,MIDWAY,UT,,US,,,,,
,visa,,,MIDWAY,UT,,US,,,,,
,visa,,,MIDWAY,UT,,US,,,,,
,visa,,,MIDWAY,UT,,US,,,,,
,visa,,,MIDWAY,UT,,US,,,,,
