Ref,Spider,Name,Address,City,State,Zipcode,Country,Phone,Website,Hours,Brand,WikiData
198638,bluerhino,Dollar General #21714,,Cameron,WI,,US,+1 920-560-5073,,,Blue Rhino,Q65681213
78929121401045482200100000000000,bp,BP,,Cameron,WI,,US,+1 715-458-4690,,Mo-Fr 05:00-22:00; Sa-Su 06:00-22:00,BP,Q152057
45295,citi,ATM COMMUNITY BANK OF CAMERON,,Cameron,WI,,US,,,,Citibank,Q857063
63400,citi,ATM Kwik Trip #922-2,,Cameron,WI,,US,,,,Citibank,Q857063
63399,citi,ATM Kwik Trip #922-1,,Cameron,WI,,US,,,,Citibank,Q857063
https://www.edwardjones.com/us-en/financial-advisor/brett-gooden,edwardjones,Brett E Gooden,,Cameron,WI,,US,+1 715-458-0022,https://www.edwardjones.com/us-en/financial-advisor/brett-gooden,Mo-Th 08:00-16:30; Fr 08:00-15:00,Edward Jones,Q5343830
E14456,enterprise,Rice Lake Regional Airport,,Cameron,WI,,US,+1 715-458-0116,,,Enterprise Rent-A-Car,Q17085454
1356755,usps,CAMERON,,CAMERON,WI,,US,+1 715-458-2200,,"Mo-Fr 08:45-13:00,14:00-16:15; Sa 09:00-10:00",United States Postal Service,Q668687
5482200000,usps_collection_boxes,USPS COLLECTION BOX - BLUE BOX,1000 W MAIN ST,CAMERON,WI,,US,,,,United States Postal Service,Q668687
5482200003,usps_collection_boxes,USPS COLLECTION BOX - PO LOBBY,1000 W MAIN ST,CAMERON,WI,,US,,,,United States Postal Service,Q668687
5482200004,usps_collection_boxes,USPS COLLECTION BOX - PO LOBBY,1000 W MAIN ST,CAMERON,WI,,US,,,,United States Postal Service,Q668687
,visa,,,CAMERON,WI,,US,,,,,
,visa,,,CAMERON,WI,,US,,,,,
,visa,,,CAMERON,WI,,US,,,,,
,visa,,,CAMERON,WI,,US,,,,,
,visa,,,CAMERON,WI,,US,,,,,
,visa,,,CAMERON,WI,,US,,,,,
,visa,,,CAMERON,WI,,US,,,,,
,visa,,,CAMERON,WI,,US,,,,,
