Ref,Spider,Name,Address,City,State,Zipcode,Country,Phone,Website,Hours,Brand,WikiData
https://stores.advanceautoparts.com/ny/utica/1035-mohawk-st,advance_auto_parts_us,Advance Auto Parts,,Utica,NY,,US,+1 315-733-2945,https://stores.advanceautoparts.com/ny/utica/1035-mohawk-st,Mo-Sa 07:30-21:00; Su 09:00-20:00,Advance Auto Parts,Q4686051
https://locations.arbys.com/ny/utica/1801-genesee-street.html,arbys_us,"Arby's Fast-Food Drive Through Near You in Utica, NY",,Utica,NY,,US,+1 315-724-0768,https://locations.arbys.com/ny/utica/1801-genesee-street.html,Mo-Su 10:00-24:00,Arby's,Q630866
5116,autozone_us,AutoZone Auto Parts Utica,,Utica,NY,,US,+1 315-738-7000,https://www.autozone.com/locations/ny/utica/1709-genesee-st.html,Mo-Fr 07:30-21:00; Sa 07:30-20:00; Su 08:00-19:00,AutoZone,Q4826087
148037,bluerhino,Speedway #7638,,Utica,NY,,US,+1 315-797-2528,,,Blue Rhino,Q65681213
191616,bluerhino,Price Chopper #026,,Uitca,NY,,US,+1 315-732-1031,,,Blue Rhino,Q65681213
196961,bluerhino,Fastrac #246,,Utica,NY,,US,+1 315-798-8668,,,Blue Rhino,Q65681213
114901,bluerhino,Hannaford #8372,,Utica,NY,,US,+1 315-734-0373,,,Blue Rhino,Q65681213
191627,bluerhino,Price Chopper #044,,Utica,NY,,US,+1 315-732-0507,,,Blue Rhino,Q65681213
67319,citi,ATM Parkway Drugs,,Utica,NY,,US,,,,Citibank,Q857063
77689,citi,ATM Speedway,,Utica,NY,,US,,,,Citibank,Q857063
om_ny_utica_1143-mohawk-st--ste-3,cititrends,Citi Trends,,Utica,NY,,US,+1 680-213-3003,https://locations.cititrends.com/ny/utica/1143-mohawk-st--ste-3.html,Mo 11:00-20:00; Tu 11:00-20:00; We 11:00-20:00; Th 11:00-20:00; Fr 10:00-21:00; Sa 10:00-21:00; Su 12:00-18:00,Citi Trends,Q5122438
70098116,cricket_wireless,Cricket Wireless Authorized Retailer,,Utica,NY,,US,+1 315-765-1640,https://www.cricketwireless.com/stores/ll/US/NY/Utica/1122-Mohawk-St,Mo-Sa 10:00-19:00,Cricket Wireless,Q5184987
247357,dennys,Denny's,,Utica,NY,,US,+1 315-732-9350,https://locations.dennys.com/NY/UTICA/247357,Mo-Su 06:00-24:00,Denny's,Q1189695
346455,dunkin_us,Dunkin',,Utica,NY,,US,+1 315-724-7402,https://locations.dunkindonuts.com/en/ny/utica/1133-mohawk-st/346455,Mo-Fr 04:00-20:00; Sa-Su 05:00-20:00,Dunkin',Q847743
520748,eg_america_us,Fastrac,,Utica,NY,,US,+1 315-798-8668,https://www.fastraccafe.com/find-us/generic-store-page/?id=500246,,Fastrac,Q117324848
520748,fastrac_cafe_us,Fastrac,,Utica,NY,,US,+1 315-798-8668,https://fastraccafe.com/find-us/generic-store-page/?id=500246,,Fastrac Cafe,Q117324848
44,golub_corporation_us,Price Chopper Utica,,Utica,NY,,US,+1 315-732-0507,https://www.pricechopper.com/stores/ny/utica/price-chopper-44.html,Mo-Su 06:00-23:00,Price Chopper,Q7242574
26,golub_corporation_us,Market 32 Utica,,Utica,NY,,US,+1 315-732-1031,https://www.pricechopper.com/stores/ny/utica/market-32-26.html,Mo-Su 06:00-23:00,Market 32,Q123370878
https://stores.hannaford.com/#8905256,hannaford,Hannaford - Utica Mohawk Drive 1122 Mohawk Street - Utica,,Oneida County,NY,,US,+1 315-734-0373,https://stores.hannaford.com/ny/utica/8372,Mo-Su 07:00-22:00,Hannaford,Q5648760
29842,h_r_block,H&R Block,,Utica,NY,,US,+1 315-797-8913,https://www.hrblock.com/local-tax-offices/new-york/utica/plaza-east/29842/,,H&R Block,Q5627799
https://office.jacksonhewitt.com/#27575030,jackson_hewitt,Jackson Hewitt,,Utica,NY,,US,+1 315-792-6965,https://office.jacksonhewitt.com/tax-preparation-services-locations/en/ny/utica/1155-mohawk-st/10281,Mo-Sa 11:00-19:00; Su 12:00-16:00,Jackson Hewitt,Q6117132
https://locations.jimmyjohns.com/ny/utica/sandwiches-3967.html,jimmy_johns,Jimmy John's,,Utica,NY,,US,+1 315-624-0110,https://locations.jimmyjohns.com/ny/utica/sandwiches-3967.html,,Jimmy John's,Q1689380
4263,mightyflame,BYRNE DAIRY  #36,,UTICA,NY,,US,+1 315-797-6051,,,Mighty Flame,
3925,mightyflame,RF PETROLEUM INC,,UTICA,NY,,US,+1 315-733-4862,,,Mighty Flame,
372,mightyflame,STEWARTS SHOPS #450,,UTICA,NY,,US,+1 315-724-2515,,,Mighty Flame,
https://locations.mtb.com/#25081347,mt_bank_us,M&T Bank,,,NY,,US,+1 315-738-4818,https://locations.mtb.com/ny/utica/bank-branches-and-atms-utica-ny-1428.html,Mo-Th 09:00-16:00; Fr 09:00-17:00,M&T Bank,Q3272257
https://locations.oreillyauto.com/ny/utica/check-engine-light-testing-6279.html,oreilly,Your Utica O'Reilly Auto Parts Store,,Utica,NY,,US,+1 680-217-0535,https://locations.oreillyauto.com/ny/utica/check-engine-light-testing-6279.html,Mo-Sa 07:30-21:00; Su 08:00-19:00,O'Reilly Auto Parts,Q7071951
https://locations.oreillyauto.com/ny/utica/wiper-installation-6279.html,oreilly,Your Utica O'Reilly Auto Parts Store,,Utica,NY,,US,+1 680-217-0535,https://locations.oreillyauto.com/ny/utica/wiper-installation-6279.html,Mo-Sa 07:30-21:00; Su 08:00-19:00,O'Reilly Auto Parts,Q7071951
https://locations.oreillyauto.com/ny/utica/battery-testing-6279.html,oreilly,Your Utica O'Reilly Auto Parts Store,,Utica,NY,,US,+1 680-217-0535,https://locations.oreillyauto.com/ny/utica/battery-testing-6279.html,Mo-Sa 07:30-21:00; Su 08:00-19:00,O'Reilly Auto Parts,Q7071951
https://locations.oreillyauto.com/ny/utica/autopartes-6279.html,oreilly,O'Reilly Auto Parts,,Utica,NY,,US,+1 680-217-0535,https://locations.oreillyauto.com/ny/utica/autopartes-6279.html,Mo-Sa 07:30-21:00; Su 08:00-19:00,O'Reilly Auto Parts,Q7071951
genesee-paint-and-glass-inc-28218,ppgpaints,GENESEE PAINT & GLASS INC,,"Utica, ",NY,,US,+1 315-732-1141,https://www.ppgpaints.com/store-locator/us/new-york/utica-paint-stores/genesee-paint-and-glass-inc-28218,,PPG Paints,Q83891559
1946,rentacenter,Rent-A-Center,,Utica,NY,,US,+1 315-724-1102,https://locations.rentacenter.com/new-york/utica/1100-mohawk-st/,Mo-Sa 10:00-18:00,Rent-A-Center,Q7313497
450,stewartsshops,Stewart's Shops,,Utica,NY,,US,+1 315-724-2515,https://locations.stewartsshops.com/ll/US/NY/Utica/1210-Culver-Avenue,Mo-Su 04:00-23:30,Stewart's Shops,Q7615690
https://restaurants.subway.com/#14898098,subway,Subway Cliffs Gas Station/C-Store,,Utica Oneida,NY,,US,+1 315-797-6979,https://restaurants.subway.com/united-states/ny/utica/1262-culver-ave,Mo-Fr 07:00-24:00; Sa 08:00-24:00; Su 09:00-24:00,Subway,Q244457
https://restaurants.subway.com/#14910924,subway,Subway Hannaford Plaza,,Utica Oneida,NY,,US,+1 315-316-0863,https://restaurants.subway.com/united-states/ny/utica/1154-mohawk-street,Mo-Su 09:00-22:00,Subway,Q244457
8002080101,sunoco_us,Sunoco,,UTICA,NY,,US,+1 315-733-4862,,,Sunoco,Q1423218
0803601400,sunoco_us,Sunoco,,UTICA,NY,,US,+1 315-724-4093,,,Sunoco,Q1423218
0535114300,sunoco_us,Sunoco,,UTICA,NY,,US,+1 315-724-1110,,,Sunoco,Q1423218
1368935,usps,KERNAN,,UTICA,NY,,US,+1 315-733-6480,,"Mo-Fr 09:00-13:00,13:30-17:30; Sa 09:00-14:30",United States Postal Service,Q668687
1350100071,usps_collection_boxes,USPS COLLECTION BOX - BLUE BOX,2713 GENESEE ST,UTICA,NY,,US,,,,United States Postal Service,Q668687
1350100097,usps_collection_boxes,USPS COLLECTION BOX - BLUE BOX,2518 ONEIDA ST,UTICA,NY,,US,,,,United States Postal Service,Q668687
1350100070,usps_collection_boxes,USPS COLLECTION BOX - BLUE BOX,2223 GENESEE ST,UTICA,NY,,US,,,,United States Postal Service,Q668687
1350100095,usps_collection_boxes,USPS COLLECTION BOX - BLUE BOX,2303 ONEIDA ST,UTICA,NY,,US,,,,United States Postal Service,Q668687
1350100103,usps_collection_boxes,USPS COLLECTION BOX - BLUE BOX,3 PARKSIDE CT,UTICA,NY,,US,,,,United States Postal Service,Q668687
1350100161,usps_collection_boxes,USPS COLLECTION BOX - BLUE BOX,1709 GENESEE ST,UTICA,NY,,US,,,,United States Postal Service,Q668687
1350100149,usps_collection_boxes,USPS COLLECTION BOX - BLUE BOX,1709 GENESEE ST,UTICA,NY,,US,,,,United States Postal Service,Q668687
1350100151,usps_collection_boxes,USPS COLLECTION BOX - PO LOBBY,1709 GENESEE ST,UTICA,NY,,US,,,,United States Postal Service,Q668687
1350100162,usps_collection_boxes,USPS COLLECTION BOX - PO LOBBY,1709 GENESEE ST STE 1,UTICA,NY,,US,,,,United States Postal Service,Q668687
1350100062,usps_collection_boxes,USPS COLLECTION BOX - BLUE BOX,1411 GENESEE ST,UTICA,NY,,US,,,,United States Postal Service,Q668687
1350100145,usps_collection_boxes,USPS COLLECTION BOX - BLUE BOX,1445 KEMBLE ST,UTICA,NY,,US,,,,United States Postal Service,Q668687
1350100089,usps_collection_boxes,USPS COLLECTION BOX - BLUE BOX,1556 MOHAWK ST,UTICA,NY,,US,,,,United States Postal Service,Q668687
1350100058,usps_collection_boxes,USPS COLLECTION BOX - BLUE BOX,255 GENESEE ST,UTICA,NY,,US,,,,United States Postal Service,Q668687
1350100108,usps_collection_boxes,USPS COLLECTION BOX - BLUE BOX,100 RUTGER ST,UTICA,NY,,US,,,,United States Postal Service,Q668687
1350100133,usps_collection_boxes,USPS COLLECTION BOX - BLUE BOX,100 PITCHER ST,UTICA,NY,,US,,,,United States Postal Service,Q668687
1350100160,usps_collection_boxes,USPS COLLECTION BOX - BLUE BOX,100 PITCHER ST,UTICA,NY,,US,,,,United States Postal Service,Q668687
1350100143,usps_collection_boxes,USPS COLLECTION BOX - PO LOBBY,100 PITCHER ST,UTICA,NY,,US,,,,United States Postal Service,Q668687
1350100132,usps_collection_boxes,USPS COLLECTION BOX - PO LOBBY,100 PITCHER ST,UTICA,NY,,US,,,,United States Postal Service,Q668687
1350100004,usps_collection_boxes,USPS COLLECTION BOX - BLUE BOX,1256 ALBANY ST,UTICA,NY,,US,,,,United States Postal Service,Q668687
1350100020,usps_collection_boxes,USPS COLLECTION BOX - BLUE BOX,1501 BLEECKER ST,UTICA,NY,,US,,,,United States Postal Service,Q668687
1350100005,usps_collection_boxes,USPS COLLECTION BOX - BLUE BOX,1742 ARMORY DR,UTICA,NY,,US,,,,United States Postal Service,Q668687
1350100003,usps_collection_boxes,USPS COLLECTION BOX - BLUE BOX,1172 ALBANY ST,UTICA,NY,,US,,,,United States Postal Service,Q668687
1350100073,usps_collection_boxes,USPS COLLECTION BOX - BLUE BOX,1156 HILTON AVE,UTICA,NY,,US,,,,United States Postal Service,Q668687
1350100154,usps_collection_boxes,USPS COLLECTION BOX - BLUE BOX,1101 SHERMAN DR,UTICA,NY,,US,,,,United States Postal Service,Q668687
1350100116,usps_collection_boxes,USPS COLLECTION BOX - BLUE BOX,901 SOUTH ST,UTICA,NY,,US,,,,United States Postal Service,Q668687
1350100016,usps_collection_boxes,USPS COLLECTION BOX - BLUE BOX,717 BLEECKER ST,UTICA,NY,,US,,,,United States Postal Service,Q668687
1350100079,usps_collection_boxes,USPS COLLECTION BOX - BLUE BOX,609 JAY ST,UTICA,NY,,US,,,,United States Postal Service,Q668687
1350100014,usps_collection_boxes,USPS COLLECTION BOX - BLUE BOX,506 BLEECKER ST,UTICA,NY,,US,,,,United States Postal Service,Q668687
1350100031,usps_collection_boxes,USPS COLLECTION BOX - BLUE BOX,421 BROAD ST,UTICA,NY,,US,,,,United States Postal Service,Q668687
1350100101,usps_collection_boxes,USPS COLLECTION BOX - BLUE BOX,1116 PARK AVE,UTICA,NY,,US,,,,United States Postal Service,Q668687
1350100148,usps_collection_boxes,USPS COLLECTION BOX - BLUE BOX,321 MAIN ST,UTICA,NY,,US,,,,United States Postal Service,Q668687
1350100084,usps_collection_boxes,USPS COLLECTION BOX - BLUE BOX,310 MAIN ST,UTICA,NY,,US,,,,United States Postal Service,Q668687
1350100159,usps_collection_boxes,USPS COLLECTION BOX - BLUE BOX,181 GENESEE ST,UTICA,NY,,US,,,,United States Postal Service,Q668687
1350100042,usps_collection_boxes,USPS COLLECTION BOX - BLUE BOX,209 ELIZABETH ST,UTICA,NY,,US,,,,United States Postal Service,Q668687
1350100056,usps_collection_boxes,USPS COLLECTION BOX - BLUE BOX,233 GENESEE ST,UTICA,NY,,US,,,,United States Postal Service,Q668687
1350100158,usps_collection_boxes,USPS COLLECTION BOX - BLUE BOX,200 ELIZABETH ST,UTICA,NY,,US,,,,United States Postal Service,Q668687
1350100142,usps_collection_boxes,USPS COLLECTION BOX - BLUE BOX,2 STEUBEN PARK,UTICA,NY,,US,,,,United States Postal Service,Q668687
,visa,,,ILION,NY,,US,,,,,
,visa,,,UTICA,NY,,US,,,,,
,visa,,,UTICA,NY,,US,,,,,
,visa,,,UTICA,NY,,US,,,,,
,visa,,,UTICA,NY,,US,,,,,
,visa,,,UTICA,NY,,US,,,,,
,visa,,,UTICA,NY,,US,,,,,
,visa,,,UTICA,NY,,US,,,,,
,visa,,,UTICA,NY,,US,,,,,
,visa,,,UTICA,NY,,US,,,,,
,visa,,,UTICA,NY,,US,,,,,
,visa,,,UTICA,NY,,US,,,,,
,visa,,,UTICA,NY,,US,,,,,
,visa,,,UTICA,NY,,US,,,,,
,visa,,,UTICA,NY,,US,,,,,
,visa,,,UTICA,NY,,US,,,,,
,visa,,,UTICA,NY,,US,,,,,
,visa,,,UTICA,NY,,US,,,,,
,visa,,,UTICA,NY,,US,,,,,
,visa,,,UTICA,NY,,US,,,,,
,visa,,,UTICA,NY,,US,,,,,
,visa,,,UTICA,NY,,US,,,,,
,visa,,,UTICA,NY,,US,,,,,
,visa,,,UTICA,NY,,US,,,,,
,visa,,,UTICA,NY,,US,,,,,
,visa,,,UTICA,NY,,US,,,,,
,visa,,,UTICA,NY,,US,,,,,
,visa,,,UTICA,NY,,US,,,,,
,visa,,,UTICA,NY,,US,,,,,
,visa,,,UTICA,NY,,US,,,,,
,visa,,,UTICA,NY,,US,,,,,
,visa,,,UTICA,NY,,US,,,,,
,visa,,,UTICA,NY,,US,,,,,
,visa,,,UTICA,NY,,US,,,,,
,visa,,,UTICA,NY,,US,,,,,
,visa,,,UTICA,NY,,US,,,,,
,visa,,,UTICA,NY,,US,,,,,
,visa,,,UTICA,NY,,US,,,,,
,visa,,,UTICA,NY,,US,,,,,
,visa,,,UTICA,NY,,US,,,,,
,visa,,,UTICA,NY,,US,,,,,
,visa,,,UTICA,NY,,US,,,,,
,visa,,,UTICA,NY,,US,,,,,
,visa,,,UTICA,NY,,US,,,,,
,visa,,,UTICA,NY,,US,,,,,
,visa,,,UTICA,NY,,US,,,,,
,visa,,,UTICA,NY,,US,,,,,
,visa,,,UTICA,NY,,US,,,,,
,visa,,,UTICA,NY,,US,,,,,
,visa,,,UTICA,NY,,US,,,,,
,visa,,,UTICA,NY,,US,,,,,
,visa,,,UTICA,NY,,US,,,,,
,visa,,,UTICA,NY,,US,,,,,
,visa,,,UTICA,NY,,US,,,,,
,visa,,,UTICA,NY,,US,,,,,
,visa,,,UTICA,NY,,US,,,,,
,visa,,,UTICA,NY,,US,,,,,
,visa,,,UTICA,NY,,US,,,,,
,visa,,,UTICA,NY,,US,,,,,
,visa,,,UTICA,NY,,US,,,,,
,visa,,,UTICA,NY,,US,,,,,
,visa,,,UTICA,NY,,US,,,,,
,visa,,,UTICA,NY,,US,,,,,
,visa,,,UTICA,NY,,US,,,,,
,visa,,,UTICA,NY,,US,,,,,
,visa,,,UTICA,NY,,US,,,,,
,visa,,,UTICA,NY,,US,,,,,
,visa,,,UTICA,NY,,US,,,,,
,visa,,,UTICA,NY,,US,,,,,
,visa,,,UTICA,NY,,US,,,,,
,visa,,,UTICA,NY,,US,,,,,
,visa,,,UTICA,NY,,US,,,,,
,visa,,,UTICA,NY,,US,,,,,
,visa,,,UTICA,NY,,US,,,,,
,visa,,,UTICA,NY,,US,,,,,
,visa,,,UTICA,NY,,US,,,,,
,visa,,,UTICA,NY,,US,,,,,
,visa,,,UTICA,NY,,US,,,,,
,visa,,,UTICA,NY,,US,,,,,
,visa,,,UTICA,NY,,US,,,,,
,visa,,,UTICA,NY,,US,,,,,
,visa,,,UTICA,NY,,US,,,,,
,visa,,,UTICA,NY,,US,,,,,
,visa,,,UTICA,NY,,US,,,,,
,visa,,,UTICA,NY,,US,,,,,
,visa,,,UTICA,NY,,US,,,,,
,visa,,,UTICA,NY,,US,,,,,
,visa,,,UTICA,NY,,US,,,,,
,visa,,,UTICA,NY,,US,,,,,
,visa,,,UTICA,NY,,US,,,,,
,visa,,,UTICA,NY,,US,,,,,
,visa,,,UTICA,NY,,US,,,,,
,visa,,,UTICA,NY,,US,,,,,
,visa,,,UTICA,NY,,US,,,,,
,visa,,,UTICA,NY,,US,,,,,
,visa,,,UTICA,NY,,US,,,,,
,visa,,,UTICA,NY,,US,,,,,
,visa,,,UTICA,NY,,US,,,,,
,visa,,,UTICA,NY,,US,,,,,
,visa,,,UTICA,NY,,US,,,,,
,visa,,,UTICA,NY,,US,,,,,
,visa,,,UTICA,NY,,US,,,,,
,visa,,,UTICA,NY,,US,,,,,
,visa,,,UTICA,NY,,US,,,,,
,visa,,,UTICA,NY,,US,,,,,
,visa,,,UTICA,NY,,US,,,,,
,visa,,,UTICA,NY,,US,,,,,
,visa,,,UTICA,NY,,US,,,,,
,visa,,,UTICA,NY,,US,,,,,
,visa,,,UTICA,NY,,US,,,,,
,visa,,,SYRACUSE,NY,,US,,,,,
,visa,,,UTICA,NY,,US,,,,,
,visa,,,UTICA,NY,,US,,,,,
,visa,,,UTICA,NY,,US,,,,,
,visa,,,UTICA,NY,,US,,,,,
,visa,,,UTICA,NY,,US,,,,,
,visa,,,UTICA,NY,,US,,,,,
,visa,,,UTICA,NY,,US,,,,,
,visa,,,UTICA,NY,,US,,,,,
,visa,,,UTICA,NY,,US,,,,,
,visa,,,UTICA,NY,,US,,,,,
,visa,,,UTICA,NY,,US,,,,,
,visa,,,UTICA,NY,,US,,,,,
,visa,,,HOLLANDPATENT,NY,,US,,,,,
,visa,,,UTICA,NY,,US,,,,,
1da71b91ec62a569490d1e565db601c0,western_union,DOS AMIGOS GROCERY STORE LLC,,Utica,NY,,US,+1 315-731-7922,https://location.westernunion.com/us/ny/utica/1da71b91ec62a569490d1e565db601c0,Mo-Su 08:00-21:00,Western Union,Q861042
3b0662b2e305ec5c7bec278406f6d584,western_union,ROWIDA MINI MART,,Utica,NY,,US,+1 315-724-1110,https://location.westernunion.com/us/ny/utica/3b0662b2e305ec5c7bec278406f6d584,Mo-Su 06:00-23:00,Western Union,Q861042
abf38ba8cabc229ae9cedf65d290607f,western_union,DOS AMIGOS GROCERY STORE LLC,,Utica,NY,,US,+1 315-731-7922,https://location.westernunion.com/us/ny/utica/abf38ba8cabc229ae9cedf65d290607f,Mo-Su 08:00-21:00,Western Union,Q861042
