Ref,Spider,Name,Address,City,State,Zipcode,Country,Phone,Website,Hours,Brand,WikiData
https://local.vons.com/#5605086,albertsons,Vons,,Moorpark,CA,,US,+1 805-530-3770,https://local.vons.com/ca/moorpark/4241-tierra-rejada-rd.html,Mo-Su 06:00-22:00,Vons,Q7941609
a9d9c91c-0a75-ee11-b84c-005056826b26,amf_bowling,Lucky Strike Moorpark,,Moorpark,CA,,US,+1 805-222-3757,https://luckystrikeent.com/location/lucky-strike-moorpark,,,
3741,anytime_fitness,Anytime Fitness,,Moorpark,CA,,US,+1 805-552-0050,https://www.anytimefitness.com/gyms/3741/moorpark-ca-93021/,,Anytime Fitness,Q4778364
12111,asics_us,DICK'S Sporting Goods  - Moorpark,706 Los Angeles Ave,Moorpark,CA,,US,+1 805-978-4091,,Mo-Sa 09:00-21:00; Su 10:00-19:00,asics,Q327247
5713,autozone_us,AutoZone Auto Parts Moorpark,,Moorpark,CA,,US,+1 805-529-1080,https://www.autozone.com/locations/ca/moorpark/455-los-angeles-ave.html,Mo-Sa 07:30-21:00; Su 08:00-21:00,AutoZone,Q4826087
https://locators.bankofamerica.com/ca/moorpark/financial-centers-moorpark-16473.html,bankofamerica,Bank of America Financial Center & Walk-Up ATM | Moorpark,,Moorpark,CA,,US,+1 805-531-1155,https://locators.bankofamerica.com/ca/moorpark/financial-centers-moorpark-16473.html,Mo-Fr 09:00-17:00; Sa 09:00-16:00,Bank of America,Q487907
https://locations.baskinrobbins.com/ca/moorpark/557-w-los-angeles-ave-330669-br,baskin_robbins_us,Baskin-Robbinsâ„¢,,Moorpark,CA,,US,+1 805-529-5360,https://locations.baskinrobbins.com/ca/moorpark/557-w-los-angeles-ave-330669-br,Mo-Su 11:00-22:00,Baskin-Robbins,Q584601
175632,bluerhino,The G 4 Consortium LLC,,Moorpark,CA,,US,+1 805-532-0071,,,Blue Rhino,Q65681213
216560,bluerhino,7-Eleven Stores #46169,,Moorpark,CA,,US,+1 805-529-3510,,,Blue Rhino,Q65681213
2042335,chase_us,Moorpark Town Center - New branch,,Moorpark,CA,,US,+1 805-529-2909,https://locator.chase.com/ca/moorpark/165-w-los-angeles-ave,Mo-Fr 09:00-17:00; Sa 09:00-14:00,Chase,Q524629
ca_moorpark_806-e-los-angeles-ave,chipotle, ,,Moorpark,CA,,US,+1 805-222-4284,https://locations.chipotle.com/ca/moorpark/806-e-los-angeles-ave,,Chipotle,Q465751
73303,citi,ATM Rite Aid,,Moorpark,CA,,US,,,,Citibank,Q857063
65707,citi,ATM Moorpark College,,Moorpark,CA,,US,,,,Citibank,Q857063
48146,citi,ATM CVS,,Moorpark,CA,,US,,,,Citibank,Q857063
87523,citi,ATM Walgreens,,Moorpark,CA,,US,,,,Citibank,Q857063
72116,citi,ATM Ralphs,,Moorpark,CA,,US,,,,Citibank,Q857063
31058,citi,ATM 7ELEVEN-FCTI,,Moorpark,CA,,US,,,,Citibank,Q857063
9530,cvs_us,CVS Pharmacy,,Moorpark,CA,,US,+1 805-530-0996,https://www.cvs.com/store-locator/moorpark-ca-pharmacies/155-w-los-angeles-ave-moorpark-ca-93021/storeid=9530,Mo-Su 08:00-21:00,CVS Pharmacy,Q2078880
16875,cvs_us,CVS Pharmacy,,Moorpark,CA,,US,+1 805-530-0338,https://www.cvs.com/store-locator/moorpark-ca-pharmacies/800-new-los-angeles-ave-moorpark-ca-93021/storeid=16875,"Mo-Fr 10:00-13:30,14:00-20:00; Sa 10:00-13:30,14:00-18:00; Su 11:00-13:30,14:00-17:00",CVS Pharmacy,Q2078880
247800,dennys,Denny's,,Moorpark,CA,,US,+1 805-530-0999,https://locations.dennys.com/CA/MOORPARK/247800,24/7,Denny's,Q1189695
8330,dominos_pizza_us,Domino's Pizza,,Moorpark,CA,,US,+1 805-523-3030,https://pizza.dominos.com/california/moorpark/393-w-los-angeles-ave,Mo-Th 10:00-24:00; Fr-Sa 10:00-01:00; Su 10:00-24:00,Domino's,Q839466
https://www.edwardjones.com/us-en/financial-advisor/clark-neel,edwardjones,Clark P Neel,,Moorpark,CA,,US,+1 805-529-2545,https://www.edwardjones.com/us-en/financial-advisor/clark-neel,,Edward Jones,Q5343830
3658,elpolloloco,El Pollo Loco,,Moorpark,CA,,US,+1 805-531-9789,,,El Pollo Loco,Q2353849
https://www.fitness19.com/centers/moorpark/,fitness19_us,Fitness 19,,Moorpark,CA,,US,+1 805-529-9800,https://www.fitness19.com/centers/moorpark/,,Fitness 19,Q121787953
93aac1b3-d49a-e511-8981-005056890337,goodwill,205 W. Los Angeles Ave Store,,Moorpark,CA,,US,+1 805-552-4204,https://www.goodwill.org/locator/location/?store=OTNhYWMxYjMtZDQ5YS1lNTExLTg5ODEtMDA1MDU2ODkwMzM3&lat=MzQuMjgwMjU=&lng=LTExOC44ODQ3OQ==,,Goodwill,Q5583655
4788,h_r_block,H&R Block,,Moorpark,CA,,US,+1 805-531-0353,https://www.hrblock.com/local-tax-offices/california/moorpark/l-a-spring-shopping-center/4788/,,H&R Block,Q5627799
179,innout,Moorpark,,Moorpark,CA,,US,,http://locations.in-n-out.com/179,,In-N-Out Burger,Q1205312
https://locations.jackinthebox.com/us/ca/moorpark/538-w-new-los-angeles-ave,jackinthebox,Jack in the Box,,Moorpark,CA,,US,+1 805-553-9283,https://locations.jackinthebox.com/us/ca/moorpark/538-w-new-los-angeles-ave,Mo-Su 06:00-22:00,Jack in the Box,Q1538507
https://locations.jamba.com/#552-Jamba,jambajuice,Jamba Moorpark Marketplace,,Moorpark,CA,,US,+1 805-552-4110,https://locations.jamba.com/ca/moorpark/888-new-los-angeles-ave,Mo-Su 08:00-18:00,Jamba Juice,Q3088784
https://locations.jimmyjohns.com/ca/moorpark/sandwiches-3387.html,jimmy_johns,Jimmy John's,,Moorpark,CA,,US,+1 805-517-2919,https://locations.jimmyjohns.com/ca/moorpark/sandwiches-3387.html,,Jimmy John's,Q1689380
https://healthy.kaiserpermanente.org/southern-california/facilities/target-clinic-care-provided-by-kaiser-permanente-moorpark-134303,kaiser_permanente_us,"Target Clinic, care provided by Kaiser Permanente - Moorpark",,Moorpark,CA,,US,+1 805-530-0085,https://healthy.kaiserpermanente.org/southern-california/facilities/target-clinic-care-provided-by-kaiser-permanente-moorpark-134303,,Kaiser Permanente,Q1721601
https://healthy.kaiserpermanente.org/southern-california/facilities/moorpark-dialysis-429575,kaiser_permanente_us,Moorpark Dialysis,,Moorpark,CA,,US,+1 805-517-1442,https://healthy.kaiserpermanente.org/southern-california/facilities/moorpark-dialysis-429575,,Kaiser Permanente,Q1721601
https://healthy.kaiserpermanente.org/southern-california/facilities/access-tlc-hospice-429144,kaiser_permanente_us,Access TLC Hospice,,Moorpark,CA,,US,+1 805-517-1620,https://healthy.kaiserpermanente.org/southern-california/facilities/access-tlc-hospice-429144,,Kaiser Permanente,Q1721601
301551,kindercare,Moorpark KinderCare,,Moorpark,CA,,US,,https://www.kindercare.com/our-centers/moorpark/ca/301551,,KinderCare Learning Centers,Q6410551
600,kohls_us,Kohl's,,Moorpark,CA,,US,+1 805-531-0151,https://www.kohls.com/stores/ca/moorpark-600.shtml,Mo-Sa 09:00-21:00; Su 09:00-20:00,Kohl's,Q967265
116274,little_free_library,Greding Family #116274 Moorpark CA,,Moorpark,CA,,US,,,,Little Free Library,Q6650101
97847,little_free_library,Flory's Little Free Library #97847 Moorpark CA,,Moorpark,CA,,US,,,,Little Free Library,Q6650101
157080,little_free_library,Susan Gobble #157080 #157080 Moorpark CA,,Moorpark,CA,,US,,,,Little Free Library,Q6650101
96793,little_free_library,Varsity Park HOA #96793 Moorpark CA,,Moorpark,CA,,US,,,,Little Free Library,Q6650101
105231,little_free_library,Jaime Luna #105231 Moorpark CA,,Moorpark,CA,,US,,,,Little Free Library,Q6650101
96792,little_free_library,Campus Canyon Elementary #96792 Moorpark CA,,Moorpark,CA,,US,,,,Little Free Library,Q6650101
101571,little_free_library,Nothin' But Healthy #101571 Moorpark CA,,Moorpark,CA,,US,,,,Little Free Library,Q6650101
285745,marathon_petroleum_us,ARCO #42886 AMPM,,Moorpark,CA,,US,+1 805-532-0071,,,Arco,Q304769
OXRVM,marriott,Fairfield Inn & Suites Moorpark Ventura County,,Moorpark,CA,,US,+1 805-327-2000,https://www.marriott.com/OXRVM,,Fairfield by Marriott,Q5430314
111775,pandaexpress,White Sage & Los Angeles,,Moorpark,CA,,US,+1 805-517-1869,https://www.pandaexpress.com/locations/ca/moorpark/840-east-los-angeles-ave,Mo-Su 10:00-22:00,Panda Express,Q1358690
0000877694,phillips_66_conoco_76,MOORPARK GASOLINE CORPORATION,,MOORPARK,CA,,US,+1 805-532-9232,,24/7,U76,Q1658320
0000801061,phillips_66_conoco_76,MOORPARK SERVICE INC,,MOORPARK,CA,,US,+1 805-529-1442,,,U76,Q1658320
restaurant_84450,popeyes_us_fr,Popeyes,"520 New Los Angeles Ave Moorpark, California 93021 - USA",Moorpark,CA,,US,+1 805-552-0097,https://www.popeyes.com/store-locator/store/restaurant_84450,Mo-Su 10:00-22:00,Popeyes,Q1330910
https://www.publicstorage.com/self-storage-ca-moorpark/2257.html,public_storage_us,Public Storage,,Moorpark,CA,,US,+1 805-222-0415,https://www.publicstorage.com/self-storage-ca-moorpark/2257.html,,Public Storage,Q1156045
05778,rite_aid_us,Rite Aid #05778 Moorpark,,Moorpark,CA,,US,+1 805-529-5726,https://locations2.riteaid.com.yext-cdn.com/ca/moorpark/3941-spring-road.html,Mo-Su 08:00-22:00,Rite Aid,Q3433273
46169,seven_eleven_ca_us,7-Eleven,,Moorpark,CA,,US,+1 805-529-3510,https://www.7-eleven.com/locations/ca/moorpark/301-w-new-los-angeles-ave-46169,,7-Eleven,Q259340
https://restaurants.subway.com/#14912770,subway,Subway Campus Plaza C-Store/Car Wash,,Moorpark Ventura,CA,,US,+1 805-529-3959,https://restaurants.subway.com/united-states/ca/moorpark/6599-collins-dr,Mo-Fr 06:00-21:00; Sa 07:00-18:00; Su 10:00-17:30,Subway,Q244457
https://restaurants.subway.com/#14915855,subway,Subway,,Moorpark Ventura,CA,,US,+1 805-523-1782,https://restaurants.subway.com/united-states/ca/moorpark/530-e-new-los-angeles-ave,Mo-Su 08:00-21:00,Subway,Q244457
https://locations.tacobell.com/#6146667,taco_bell,Taco Bell,,Moorpark,CA,,US,+1 805-529-7480,https://locations.tacobell.com/ca/moorpark/125-w-los-angeles-ave.html,Mo-Th 07:00-01:00; Fr 07:00-02:00; Sa 08:00-02:00; Su 08:00-01:00,Taco Bell,Q752941
08370,tjx,Moorpark,808 New Los Angeles Ave.,Moorpark,CA,,US,+1 805-529-9582,,Mo-Sa 09:30-21:30; Su 10:00-20:00,TJ Maxx,Q10860683
692E,tmobile_us,New LA Ave & Miller Pkwy,,Moorpark,CA,,US,+1 805-531-5098,https://www.t-mobile.com/store-locator/ca/moorpark/new-la-ave-miller-pkwy,,T-Mobile,Q3511885
010766,uhaul,Old Town Market & Liquor,411 E High St,Moorpark,CA,,US,+1 805-222-4075,,Mo-Sa 00:00-18:00,U-Haul,Q7862902
2530,upsstore,Moorpark,530 E Los Angeles Ave Suite 115,Moorpark,CA,,US,+1 805-531-9232,https://locations.theupsstore.com/ca/moorpark/530-e-los-angeles-ave,,UPS Store,Q7771029
1373739,usps,MOORPARK,,MOORPARK,CA,,US,+1 805-552-0340,,Mo-Fr 09:00-17:00; Sa 09:00-14:00,United States Postal Service,Q668687
9302100032,usps_collection_boxes,USPS COLLECTION BOX - PO LOBBY,110 W HIGH ST,MOORPARK,CA,,US,,,,United States Postal Service,Q668687
9302100026,usps_collection_boxes,USPS COLLECTION BOX - BLUE BOX,100 W HIGH ST,MOORPARK,CA,,US,,,,United States Postal Service,Q668687
9302100028,usps_collection_boxes,USPS COLLECTION BOX - PO LOBBY,100 W HIGH ST,MOORPARK,CA,,US,,,,United States Postal Service,Q668687
9302100025,usps_collection_boxes,USPS COLLECTION BOX - BLUE BOX,100 W HIGH ST,MOORPARK,CA,,US,,,,United States Postal Service,Q668687
9302100027,usps_collection_boxes,USPS COLLECTION BOX - PO LOBBY,100 W HIGH ST,MOORPARK,CA,,US,,,,United States Postal Service,Q668687
9302100014,usps_collection_boxes,USPS COLLECTION BOX - BLUE BOX,530 NEW LOS ANGELES AVE,MOORPARK,CA,,US,,,,United States Postal Service,Q668687
9302100020,usps_collection_boxes,USPS COLLECTION BOX - BLUE BOX,4243 TIERRA REJADA RD,MOORPARK,CA,,US,,,,United States Postal Service,Q668687
A00000252198,verizon_us,Wireless Plus Moorpark,,Moorpark,CA,,US,+1 805-529-5555,https://www.verizon.com/stores/details/california/moorpark/wireless-plus-moorpark-1635122/,Mo-Sa 10:00-19:00; Su 11:00-18:00,Verizon,Q919641
,visa,,,MOORPARK,CA,,US,,,,,
,visa,,,MOORPARK,CA,,US,,,,,
,visa,,,MOORPARK,CA,,US,,,,,
,visa,,,MOORPARK,CA,,US,,,,,
,visa,,,MOORPARK,CA,,US,,,,,
,visa,,,MOORPARK,CA,,US,,,,,
,visa,,,MOORPARK,CA,,US,,,,,
,visa,,,MOORPARK,CA,,US,,,,,
,visa,,,MOORPARK,CA,,US,,,,,
,visa,,,MOORPARK,CA,,US,,,,,
,visa,,,MOORPARK,CA,,US,,,,,
,visa,,,MOORPARK,CA,,US,,,,,
,visa,,,MOORPARK,CA,,US,,,,,
,visa,,,MOORPARK,CA,,US,,,,,
,visa,,,MOORPARK,CA,,US,,,,,
,visa,,,MOORPARK,CA,,US,,,,,
,visa,,,MOORPARK,CA,,US,,,,,
,visa,,,MOORPARK,CA,,US,,,,,
,visa,,,MOORPARK,CA,,US,,,,,
,visa,,,MOORPARK,CA,,US,,,,,
,visa,,,MOORPARK,CA,,US,,,,,
,visa,,,MOORPARK,CA,,US,,,,,
,visa,,,MOORPARK,CA,,US,,,,,
,visa,,,MOORPARK,CA,,US,,,,,
,visa,,,MOORPARK,CA,,US,,,,,
,visa,,,MOORPARK,CA,,US,,,,,
,visa,,,MOORPARK,CA,,US,,,,,
,visa,,,MOORPARK,CA,,US,,,,,
,visa,,,MOORPARK,CA,,US,,,,,
,visa,,,MOORPARK,CA,,US,,,,,
,visa,,,MOORPARK,CA,,US,,,,,
,visa,,,MOORPARK,CA,,US,,,,,
,visa,,,MOORPARK,CA,,US,,,,,
,visa,,,MOORPARK,CA,,US,,,,,
https://www.walgreens.com/locator/walgreens-140+w+los+angeles+ave-moorpark-ca-93021/id=10738,walgreens,Walgreens,,Moorpark,CA,,US,+1 805-529-9601,https://www.walgreens.com/locator/walgreens-140+w+los+angeles+ave-moorpark-ca-93021/id=10738,Mo-Su 08:00-21:00,Walgreens,Q1591889
515__W__LOS__ANGELES__AVE_MOORPARK_CA_93021,wellsfargo,Wells Fargo,515 W LOS ANGELES AVE,MOORPARK,CA,,US,+1 805-530-3660,https://www.wellsfargo.com/locator/bank/515__W__LOS__ANGELES__AVE_MOORPARK_CA_93021/,Mo-Fr 09:00-17:00,Wells Fargo,Q744149
e2f63140d284e5fd75be0b4be9239031,western_union,ANYPOSTAL LLC,,Moorpark,CA,,US,+1 805-744-9217,https://location.westernunion.com/us/ca/moorpark/e2f63140d284e5fd75be0b4be9239031,Mo-Fr 09:00-18:00; Sa 09:00-14:00,Western Union,Q861042
9410aac535293e3daf1a3a08493f1471,western_union,ANYPOSTAL LLC,,Moorpark,CA,,US,+1 805-744-9217,https://location.westernunion.com/us/ca/moorpark/9410aac535293e3daf1a3a08493f1471,Mo-Fr 09:00-18:00; Sa 09:00-14:00,Western Union,Q861042
29eda4bbea2908781cfaa11b39d85cc2,western_union,7-ELEVEN/SUNOCO #46169,,Moorpark,CA,,US,+1 805-529-3510,https://location.westernunion.com/us/ca/moorpark/29eda4bbea2908781cfaa11b39d85cc2,,Western Union,Q861042
704eb3952fa153efef965d121237d4fb,western_union,MAIL N MORE,,Moorpark,CA,,US,+1 805-523-8822,https://location.westernunion.com/us/ca/moorpark/704eb3952fa153efef965d121237d4fb,Mo-Fr 08:00-18:00; Sa 08:00-16:00,Western Union,Q861042
160658,wingstop,Wingstop New Los Angeles Ave,888 New Los Angeles Ave Suite A,Moorpark,CA,,US,+1 805-552-4099,,,Wingstop,Q8025339
