Ref,Spider,Name,Address,City,State,Zipcode,Country,Phone,Website,Hours,Brand,WikiData
https://locations.99only.com/ca/santaana/discount-store-77.html,99_cents_only_us,99 Cents Only Stores,,Santa Ana,CA,,US,+1 714-966-1919,https://locations.99only.com/ca/santaana/discount-store-77.html,Mo 08:00-22:00; Tu 07:00-22:00; We 08:00-22:00; Th 07:00-22:00; Fr-Su 08:00-22:00,99 Cents Only Stores,Q4646294
https://local.pharmacy.vons.com/#5673943,albertsons,Vons Pharmacy,,Santa Ana,CA,,US,+1 714-540-0393,https://local.pharmacy.vons.com/ca/santa-ana/3650-s-bristol-st.html,,Vons,Q7941609
https://local.vons.com/#5605078,albertsons,Vons,,Santa Ana,CA,,US,+1 714-540-0510,https://local.vons.com/ca/santa-ana/3650-s-bristol-st.html,,Vons,Q7941609
https://stores.aldi.us/#8683267,aldi_sud_us,ALDI  2830 S Bristol St,,Santa Ana,CA,,US,+1 833-479-7034,https://stores.aldi.us/ca/santa-ana/2830-s-bristol-st,Mo-Su 09:00-21:00,ALDI,Q41171672
1076,att_us,SOUTHCOAST STORE 389,,Santa Ana,CA,,US,+1 714-327-0292,https://www.att.com/stores/california/santa-ana/1076,Mo-Sa 10:00-21:00; Su 11:00-20:00,AT&T,Q298594
5540,autozone_us,AutoZone Auto Parts Santa Ana,,Santa Ana,CA,,US,+1 714-418-0766,https://www.autozone.com/locations/ca/santa-ana/810-s-harbor-blvd.html,Mo-Sa 07:00-22:00; Su 07:30-21:00,AutoZone,Q4826087
3370,autozone_us,AutoZone Auto Parts Santa Ana,,Santa Ana,CA,,US,+1 714-957-0061,https://www.autozone.com/locations/ca/santa-ana/2603-s-bristol-st.html,Mo-Sa 07:30-22:00; Su 08:00-21:00,AutoZone,Q4826087
5538,autozone_us,AutoZone Auto Parts Santa Ana,,Santa Ana,CA,,US,+1 714-241-0335,https://www.autozone.com/locations/ca/santa-ana/1101-s-bristol-st.html,Mo-Su 07:30-21:00,AutoZone,Q4826087
https://locators.bankofamerica.com/ca/santaana/financial-centers-santa-ana-9540.html,bankofamerica,Bank of America Financial Center & Drive-Thru ATM | South Coast Center,,Santa Ana,CA,,US,+1 714-708-6919,https://locators.bankofamerica.com/ca/santaana/financial-centers-santa-ana-9540.html,Mo-Fr 09:00-17:00; Sa 09:00-16:00,Bank of America,Q487907
https://locators.bankofamerica.com/ca/santaana/sales-office-atm-santa-ana-110898.html,bankofamerica,Bank of America Bank of America Advanced Center™Virtual Banking & Separate ATM | MacArthur and Fairview,,Santa Ana,CA,,US,,https://locators.bankofamerica.com/ca/santaana/sales-office-atm-santa-ana-110898.html,Mo-Fr 09:00-17:00; Sa 09:00-15:00,Bank of America,Q487907
https://locations.baskinrobbins.com/ca/santa-ana/3605-s-bristol-st-361270-br,baskin_robbins_us,Baskin-Robbins™,,Santa Ana,CA,,US,+1 714-979-9990,https://locations.baskinrobbins.com/ca/santa-ana/3605-s-bristol-st-361270-br,Mo-Su 11:00-22:00,Baskin-Robbins,Q584601
1094,batteriesplus,Batteries Plus,,Santa Ana,CA,,US,+1 657-655-7587,https://www.batteriesplus.com/store-locator/ca/santaana/batteries-plus-1094,Mo-Fr 08:00-19:00; Sa 09:00-19:00; Su 10:00-17:00,Batteries Plus Bulbs,Q17005157
71198,blaze_pizza,Blaze Pizza Santa Ana - MacArthur Blvd,,Santa Ana,CA,,US,+1 714-880-7860,https://blazepizza.olo.com/menu/blaze-pizza-santa-ana-2/,,Blaze Pizza,Q23016666
187665,bluerhino,United Pacific #225,,Santa Ana,CA,,US,+1 657-212-7311,,,Blue Rhino,Q65681213
169239,bluerhino,United Pacific  #5669,,Santa Ana,CA,,US,+1 714-444-1061,,,Blue Rhino,Q65681213
199369,bluerhino,Bonakdar Chevron,,Santa Ana,CA,,US,+1 714-545-4080,,,Blue Rhino,Q65681213
214332,bluerhino,El Super #23,,Santa Ana,CA,,US,+1 714-338-5023,,,Blue Rhino,Q65681213
206601,bluerhino,Rite Aid #05761,,Santa Ana,CA,,US,+1 714-979-4060,,,Blue Rhino,Q65681213
2841-west-macarthur-blvd,brueggers,Bruegger's Bagels Macarthur & Fairview,,Santa Ana,CA,,US,+1 714-557-3855,https://locations.brueggers.com/us/ca/santa-ana/2841-west-macarthur-blvd,Mo-Fr 05:30-14:30; Sa 06:00-15:00; Su 07:00-15:00,Bruegger's,Q4978656
596,burlington_us,Burlington,,Santa Ana,CA,,US,+1 714-545-2331,https://stores.burlington.com/ca/santa-ana/596,Mo-Th 09:00-23:00; Fr-Sa 09:00-24:00; Su 09:00-23:00,Burlington,Q4999220
2041607,chase_us,South Coast - New branch,,Santa Ana,CA,,US,+1 714-556-6841,https://locator.chase.com/ca/santa-ana/3600-s-bristol-st,Mo-Fr 09:00-17:00; Sa 09:00-14:00,Chase,Q524629
ca_santa-ana_629-s-harbor-blvd,chipotle, ,,Santa Ana,CA,,US,+1 714-775-8531,https://locations.chipotle.com/ca/santa-ana/629-s-harbor-blvd,,Chipotle,Q465751
ca_santa-ana_3705-s-bristol-st,chipotle, ,,Santa Ana,CA,,US,+1 714-754-7380,https://locations.chipotle.com/ca/santa-ana/3705-s-bristol-st,,Chipotle,Q465751
south-coast-village,corner_bakery_cafe,South Coast Village,,Santa Ana,CA,,US,+1 714-546-1555,https://cornerbakerycafe.com/location/south-coast-village,Mo-Su 07:00-21:00,Corner Bakery Cafe,Q5171598
ca_santa-ana_1313-w-sunflower-avenue,costplus_worldmarket,World Market South Coast,,Santa Ana,CA,,US,+1 714-957-6553,https://stores.worldmarket.com/ca/santa-ana/1313-w-sunflower-avenue.html,Mo-Sa 10:00-20:00; Su 11:00-18:00,Cost Plus World Market,Q5174750
80221230,cricket_wireless,Cricket Wireless Authorized Retailer,,Santa Ana,CA,,US,+1 657-212-5248,https://www.cricketwireless.com/stores/ll/US/CA/Santa-Ana/2430-S-Bristol-St,Mo-Sa 10:00-20:00; Su 10:00-19:00,Cricket Wireless,Q5184987
80193585,cricket_wireless,Cricket Wireless Authorized Retailer,,Santa Ana,CA,,US,+1 714-979-0700,https://www.cricketwireless.com/stores/ll/US/CA/Santa-Ana/1110-S-Bristol-St,Mo-Sa 10:00-19:00; Su 11:00-18:00,Cricket Wireless,Q5184987
80221361,cricket_wireless,Cricket Wireless Authorized Retailer,,Santa Ana,CA,,US,+1 714-271-9771,https://www.cricketwireless.com/stores/ll/US/CA/Santa-Ana/2413-S-Fairview-St,Mo-Sa 10:00-19:00; Su 11:00-18:00,Cricket Wireless,Q5184987
8883,cvs_us,CVS Pharmacy,,Santa Ana,CA,,US,+1 714-556-7183,https://www.cvs.com/store-locator/santa-ana-ca-pharmacies/3911-south-bristol-street-santa-ana-ca-92704/storeid=8883,24/7,CVS Pharmacy,Q2078880
16072,cvs_us,CVS Pharmacy,,Santa Ana,CA,,US,+1 714-641-6604,https://www.cvs.com/store-locator/santa-ana-ca-pharmacies/3300-s-bristol-st-santa-ana-ca-92704/storeid=16072,"Mo-Fr 09:00-13:30,14:00-19:00; Sa 10:00-13:30,14:00-18:00; Su 11:00-13:30,14:00-17:00",CVS Pharmacy,Q2078880
248500,dennys,Denny's,,Santa Ana,CA,,US,+1 714-662-5715,https://locations.dennys.com/CA/SANTA-ANA/248500,24/7,Denny's,Q1189695
https://locations.us.express.dhl.com/#8427356,dhl_express_us_ca,PUNTO DE VENTA DE DHL EXPRESS South of Railroad Tracks,,,CA,,US,+1 800-225-5345,https://locations.us.express.dhl.com/es/ca/santa-ana/3232-south-fairview-street,Mo-Fr 09:00-17:00,DHL,Q489815
8683,dominos_pizza_us,Domino's Pizza,,Santa Ana,CA,,US,+1 657-335-4500,https://pizza.dominos.com/california/santa-ana/934-s-harbor-blvd,Mo-Th 10:00-24:00; Fr-Sa 10:00-01:00; Su 10:00-24:00,Domino's,Q839466
8354,dominos_pizza_us,Domino's Pizza,,Santa Ana,CA,,US,+1 714-979-3030,https://pizza.dominos.com/california/santa-ana/1315-w-warner-ave,Mo-Th 10:00-24:00; Fr-Sa 10:00-01:00; Su 10:00-24:00,Domino's,Q839466
353543,dunkin_us,Dunkin',,Santa Ana,CA,,US,+1 714-839-8608,https://locations.dunkindonuts.com/en/ca/santa-ana/100-s-harbor-blvd/353543,Mo-Su 05:00-21:00,Dunkin',Q847743
https://www.edwardjones.com/us-en/financial-advisor/trisha-braunstein,edwardjones,Trisha M Braunstein,,Santa Ana,CA,,US,+1 949-631-7491,https://www.edwardjones.com/us-en/financial-advisor/trisha-braunstein,Mo-Fr 08:30-16:00,Edward Jones,Q5343830
200056,electrify_america,"Walmart 2517 - Santa Ana, CA",,Santa Ana,CA,,US,,,,Electrify America,Q59773555
200040,electrify_america,"Target T0250 - Santa Ana, CA",,Santa Ana,CA,,US,,,,Electrify America,Q59773555
5327,elpolloloco,El Pollo Loco,,Santa Ana,CA,,US,+1 714-641-3843,,,El Pollo Loco,Q2353849
5374,elpolloloco,El Pollo Loco,,Santa Ana,CA,,US,+1 714-839-3498,,,El Pollo Loco,Q2353849
E132QS,enterprise,Santa Ana Truck Rental,,Santa Ana,CA,,US,+1 714-435-2822,,,Enterprise Rent-A-Car,Q17085454
18716,firestone_auto_care,Firestone Complete Auto Care,,Santa Ana,CA,,US,+1 714-760-9797,https://local.firestonecompleteautocare.com/california/santa-ana/3733-s-bristol-st/,,Firestone,Q420837
7308,fresenius_kidney_care_us,Fresenius Kidney Care Santa Ana,,Santa Ana,CA,,US,+1 800-881-5101,https://www.freseniuskidneycare.com/dialysis-centers/california/7308,Mo-Sa 04:30-18:30,,
https://stores.gnc.com/#24059158,gnc,GNC Bristol Center,,,CA,,US,+1 714-966-6619,https://stores.gnc.com/all-stores-california/santa-ana/3729-s-bristol-street,Mo-Fr 10:00-20:00; Sa 10:00-19:00; Su 11:00-18:00,GNC,Q4808595
https://salons.greatclips.com/us/ca/santa-ana/2841-w-macarthur-blvd,greatclips,Great Clips,,Santa Ana,CA,,US,+1 714-850-1840,https://salons.greatclips.com/us/ca/santa-ana/2841-w-macarthur-blvd,Mo-Fr 09:00-19:00; Sa 09:00-18:00; Su 10:00-18:00,Great Clips,Q5598967
https://salons.greatclips.com/us/ca/santa-ana/3341-s-bristol-st,greatclips,Great Clips,,Santa Ana,CA,,US,+1 714-434-8121,https://salons.greatclips.com/us/ca/santa-ana/3341-s-bristol-st,Mo-Fr 09:00-20:00; Sa-Su 09:00-17:00,Great Clips,Q5598967
https://www.habitburger.com/locations/santa-ana-bristol-dt/,habit_burger,The Habit Burger Grill,,Santa Ana,CA,,US,+1 657-228-0010,https://www.habitburger.com/locations/santa-ana-bristol-dt/,Mo-Su 10:30-21:00,The Habit Burger Grill,Q18158741
3656,h_r_block,H&R Block,,Santa Ana,CA,,US,+1 714-557-8171,https://www.hrblock.com/local-tax-offices/california/santa-ana/bristol-place-shopping-center/3656/,,H&R Block,Q5627799
ca_santa-ana_breakfast-2407-s.-bristol-st-3628,ihop,IHOP Breakfast Restaurants Near You at 2407 S. Bristol St,,Santa Ana,CA,,US,+1 714-617-5337,https://restaurants.ihop.com/en-us/ca/santa-ana/breakfast-2407-s.-bristol-st-3628,,IHOP,Q1185675
133,innout,Santa Ana (Macarthur),,Santa Ana,CA,,US,,http://locations.in-n-out.com/133,,In-N-Out Burger,Q1205312
https://locations.jackinthebox.com/us/ca/santa-ana/3710-s-bristol-st,jackinthebox,Jack in the Box,,Santa Ana,CA,,US,+1 714-241-1185,https://locations.jackinthebox.com/us/ca/santa-ana/3710-s-bristol-st,Mo-Su 04:00-04:00,Jack in the Box,Q1538507
https://locations.jackinthebox.com/us/ca/santa-ana/1300-w-edinger-ave,jackinthebox,Jack in the Box,,Santa Ana,CA,,US,+1 714-754-7290,https://locations.jackinthebox.com/us/ca/santa-ana/1300-w-edinger-ave,Mo-Su 04:00-04:00,Jack in the Box,Q1538507
https://locations.jackinthebox.com/us/ca/santa-ana/2502-s-harbor-blvd,jackinthebox,Jack in the Box,,Santa Ana,CA,,US,+1 714-662-3563,https://locations.jackinthebox.com/us/ca/santa-ana/2502-s-harbor-blvd,Mo-Th 06:00-01:00; Fr-Sa 06:00-02:00; Su 06:00-01:00,Jack in the Box,Q1538507
https://office.jacksonhewitt.com/#27580156,jackson_hewitt,Jackson Hewitt,,Santa Ana,CA,,US,+1 714-545-5251,https://office.jacksonhewitt.com/tax-preparation-services-locations/en/ca/santa-ana/2222-s-bristol-st/16717,Mo-Fr 10:00-18:00; Sa 10:00-17:00,Jackson Hewitt,Q6117132
https://locations.jamba.com/#1616-Jamba,jambajuice,Jamba South Coast Marketplace,,Santa Ana,CA,,US,+1 714-760-4222,https://locations.jamba.com/ca/santa-ana/2841-w-macarthur-blvd,Mo-Su 08:00-19:00,Jamba Juice,Q3088784
https://healthy.kaiserpermanente.org/southern-california/facilities/harbor-macarthur-medical-offices-100122,kaiser_permanente_us,Harbor-MacArthur Medical Offices,,Santa Ana,CA,,US,+1 833-574-2273,https://healthy.kaiserpermanente.org/southern-california/facilities/harbor-macarthur-medical-offices-100122,,Kaiser Permanente,Q1721601
https://healthy.kaiserpermanente.org/southern-california/facilities/harbor-corporate-park-100625,kaiser_permanente_us,Harbor Corporate Park,,Santa Ana,CA,,US,+1 714-223-2606,https://healthy.kaiserpermanente.org/southern-california/facilities/harbor-corporate-park-100625,,Kaiser Permanente,Q1721601
https://healthy.kaiserpermanente.org/southern-california/facilities/fmc-santa-ana-dialysis-429332,kaiser_permanente_us,FMC Santa Ana Dialysis,,Santa Ana,CA,,US,+1 714-754-1670,https://healthy.kaiserpermanente.org/southern-california/facilities/fmc-santa-ana-dialysis-429332,,Kaiser Permanente,Q1721601
https://locations.kfc.com/#11247105,kfc,Chicken Nuggets Near Santa Ana,,Santa Ana,CA,,US,,https://locations.kfc.com/ca/santa-ana/762-south-harbor-blvd/chickennugget,Mo-Su 10:00-22:00,KFC,Q524757
https://locations.kfc.com/#11246676,kfc,Chicken Nuggets Near Santa Ana,,Santa Ana,CA,,US,,https://locations.kfc.com/ca/santa-ana/2600-s-bristol-st/chickennugget,Mo-Su 10:00-22:00,KFC,Q524757
300579,kindercare,South Coast KinderCare,,Santa Ana,CA,,US,,https://www.kindercare.com/our-centers/santa-ana/ca/300579,,KinderCare Learning Centers,Q6410551
113112,little_free_library,"Dynamite Book Club, Bristol Food Court #113112 Santa Ana CA",,Santa Ana,CA,,US,,,,Little Free Library,Q6650101
113111,little_free_library,"Dynamite Book Club, Bristol Swap Mall #113111 Santa Ana CA",,Santa Ana,CA,,US,,,,Little Free Library,Q6650101
70629,little_free_library,OC United Way #70629 Santa Ana CA,,Santa Ana,CA,,US,,,,Little Free Library,Q6650101
158714,little_free_library,Adventureland Little Free Library #158714 Santa Ana CA,,Santa Ana,CA,,US,,,,Little Free Library,Q6650101
175097,little_free_library,Heather’s LFL on Hemlock #175097 Santa Ana CA,,Santa Ana,CA,,US,,,,Little Free Library,Q6650101
286360,marathon_petroleum_us,ARCO #42161,,Santa Ana,CA,,US,+1 714-545-0650,,,Arco,Q304769
SNASA,marriott,Courtyard Costa Mesa South Coast Metro,,Santa Ana,CA,,US,+1 714-545-1001,https://www.marriott.com/SNASA,,Courtyard by Marriott,Q1053170
5141,michaels,LA - SANTA ANA,,Santa Ana,CA,,US,+1 714-352-0499,https://locations.michaels.com/ca/santa-ana/5141,Mo-Sa 09:00-21:00; Su 10:00-19:00,Michaels,Q6835667
71477057,moneygram,WAL-MART - #2517,,SANTA ANA,CA,,US,+1 714-775-1804,,Mo-Su 07:00-21:00,MoneyGram,Q1944412
https://locations.oreillyauto.com/ca/santaana/check-engine-light-testing-4666.html,oreilly,Your Santa Ana O'Reilly Auto Parts Store,,Santa Ana,CA,,US,+1 714-545-2197,https://locations.oreillyauto.com/ca/santaana/check-engine-light-testing-4666.html,Mo-Sa 07:30-22:00; Su 07:30-21:00,O'Reilly Auto Parts,Q7071951
https://locations.oreillyauto.com/ca/santaana/wiper-installation-4666.html,oreilly,Your Santa Ana O'Reilly Auto Parts Store,,Santa Ana,CA,,US,+1 714-545-2197,https://locations.oreillyauto.com/ca/santaana/wiper-installation-4666.html,Mo-Sa 07:30-22:00; Su 07:30-21:00,O'Reilly Auto Parts,Q7071951
https://locations.oreillyauto.com/ca/santaana/battery-testing-4666.html,oreilly,Your Santa Ana O'Reilly Auto Parts Store,,Santa Ana,CA,,US,+1 714-545-2197,https://locations.oreillyauto.com/ca/santaana/battery-testing-4666.html,Mo-Sa 07:30-22:00; Su 07:30-21:00,O'Reilly Auto Parts,Q7071951
https://locations.oreillyauto.com/ca/santaana/autopartes-4666.html,oreilly,Tu tienda O'Reilly Auto Parts en Santa Ana,,Santa Ana,CA,,US,+1 714-545-2197,https://locations.oreillyauto.com/ca/santaana/autopartes-4666.html,Mo-Sa 07:30-22:00; Su 07:30-21:00,O'Reilly Auto Parts,Q7071951
https://locations.oreillyauto.com/ca/santaana/check-engine-light-testing-2839.html,oreilly,Your Santa Ana O'Reilly Auto Parts Store,,Santa Ana,CA,,US,+1 714-754-1432,https://locations.oreillyauto.com/ca/santaana/check-engine-light-testing-2839.html,Mo-Su 07:30-22:00,O'Reilly Auto Parts,Q7071951
https://locations.oreillyauto.com/ca/santaana/wiper-installation-2839.html,oreilly,Your Santa Ana O'Reilly Auto Parts Store,,Santa Ana,CA,,US,+1 714-754-1432,https://locations.oreillyauto.com/ca/santaana/wiper-installation-2839.html,Mo-Su 07:30-22:00,O'Reilly Auto Parts,Q7071951
https://locations.oreillyauto.com/ca/santaana/battery-testing-2839.html,oreilly,Your Santa Ana O'Reilly Auto Parts Store,,Santa Ana,CA,,US,+1 714-754-1432,https://locations.oreillyauto.com/ca/santaana/battery-testing-2839.html,Mo-Su 07:30-22:00,O'Reilly Auto Parts,Q7071951
https://locations.oreillyauto.com/ca/santaana/autopartes-2839.html,oreilly,Tu tienda O'Reilly Auto Parts en Santa Ana,,Santa Ana,CA,,US,+1 714-754-1432,https://locations.oreillyauto.com/ca/santaana/autopartes-2839.html,Mo-Su 07:30-22:00,O'Reilly Auto Parts,Q7071951
111441,pandaexpress,Bristol & Warner,,Santa Ana,CA,,US,+1 714-540-4283,https://www.pandaexpress.com/locations/ca/santa-ana/2130-s-bristol-st-space-#b,Mo-Su 09:30-22:30,Panda Express,Q1358690
https://locations.papajohns.com/#10692597,papa_johns,Papa John's,,Santa Ana,CA,,US,+1 714-432-7272,https://locations.papajohns.com/united-states/ca/92704/santa-ana/3316-south-bristol-street,Mo-Su 10:00-02:00,Papa John's Pizza,Q2759586
76,party_city,Bristol Center,,Santa Ana,CA,,US,+1 657-232-7849,https://stores.partycity.com/us/ca/santaana/party-store-pc76.html,,Party City,Q7140896
0000880534,phillips_66_conoco_76,CF UNITED APRO LLC 2704669,,SANTA ANA,CA,,US,+1 714-444-1061,,,U76,Q1658320
0000847198,phillips_66_conoco_76,RABB ENTERPRISES INC,,SANTA ANA,CA,,US,+1 714-444-0376,,,U76,Q1658320
ca_santa-ana_3317-s-bristol-st,pizza_hut_us,3317 S Bristol St,,Santa Ana,CA,,US,+1 714-540-6201,https://locations.pizzahut.com/ca/santa-ana/3317-s-bristol-st,,Pizza Hut,Q191615
ca_santa-ana_3300-south-bristol-street,pizza_hut_us,3300 South Bristol Street,,Santa Ana,CA,,US,,https://locations.pizzahut.com/ca/santa-ana/3300-south-bristol-street,,Pizza Hut,Q191615
ca_santa-ana_2541-s-fairview-st,pizza_hut_us,2541 S Fairview St,,Santa Ana,CA,,US,+1 714-549-2288,https://locations.pizzahut.com/ca/santa-ana/2541-s-fairview-st,,Pizza Hut,Q191615
home-depot-0606-9119,ppgpaints,HOME DEPOT 0606,,"Santa Ana, ",CA,,US,+1 714-966-8551,https://www.ppgpaints.com/store-locator/us/california/santa-ana-paint-stores/home-depot-0606-9119,,PPG Paints,Q83891559
https://www.publicstorage.com/self-storage-ca-santa-ana/20.html,public_storage_us,Public Storage,,Santa Ana,CA,,US,+1 657-622-0732,https://www.publicstorage.com/self-storage-ca-santa-ana/20.html,,Public Storage,Q1156045
05761,rite_aid_us,Rite Aid #05761 Santa Ana,,Santa Ana,CA,,US,+1 714-979-4060,https://locations2.riteaid.com.yext-cdn.com/ca/santa-ana/3325-south-bristol-street.html,Mo-Sa 07:00-22:00; Su 09:00-21:00,Rite Aid,Q3433273
993579,rocket_us,Rocket,,Santa Ana,CA,,US,+1 714-444-1061,,,Rocket,Q121513516
993353,rocket_us,Rocket,,Santa Ana,CA,,US,+1 657-212-7311,,,Rocket,Q121513516
37,ross_dress_for_less_us,South Coast Plaza,,Santa Ana,CA,,US,+1 714-546-2600,,Mo-Th 08:00-23:00; Fr-Sa 08:00-24:00; Su 09:00-23:00,Ross Dress for Less,Q3442791
410,ross_dress_for_less_us,W. Santa Ana,,Santa Ana,CA,,US,+1 714-418-0930,,Mo-Th 08:30-23:00; Fr-Sa 08:30-24:00; Su 09:00-23:00,Ross Dress for Less,Q3442791
2388,ross_dress_for_less_us,South Santa Ana,,Santa Ana,CA,,US,+1 714-979-0000,,Mo-Sa 09:00-22:00; Su 09:00-21:00,Ross Dress for Less,Q3442791
2352,round_table_pizza,Santa Ana - S Bristol St,,Santa Ana ,CA,,US,+1 714-751-1600,https://ordering.roundtablepizza.com/site/rtp476,,Round Table Pizza,Q7371139
https://stores.saloncentric.com/#29173441,salon_centric_us,SalonCentric,,,CA,,US,+1 714-641-7151,https://stores.saloncentric.com/ca/santa-ana/6036,Mo 08:00-18:30; Tu-Fr 08:00-18:00; Sa 08:30-16:00,SalonCentric,Q124339481
35633,seven_eleven_ca_us,7-Eleven Store,,Santa Ana,CA,,US,+1 714-540-1875,https://www.7-eleven.com/locations/ca/santa-ana/1441-w-macarthur-35633,,7-Eleven,Q259340
39725,seven_eleven_ca_us,Bcp Store,,Santa Ana,CA,,US,+1 714-531-1889,https://www.7-eleven.com/locations/ca/santa-ana/950-s-harbor-39725,,7-Eleven,Q259340
8104359992897679125,sleep_number_us,Sleep Number,,Santa Ana,CA,,US,,https://www.sleepnumber.com/stores/ca/santa-ana/3638-s-bristol-st,Mo 11:00-20:00; Tu-Th 11:00-19:00; Fr-Su 11:00-20:00,Sleep Number,Q7447640
32149,smilebrands,Bright Now! Dental Bristol and Alton,3358 S Bristol Street,Santa Ana,CA,,US,+1 714-361-2141,https://www.brightnow.com/dentist-near-me/santa-ana-dentist/10630/,,Smile Brands Inc.,Q108286823
3861-s-bristol-street,staples,"Staples Santa Ana, CA",,Santa Ana,CA,,US,,https://stores.staples.com/ca/santa-ana/3861-s-bristol-street,Mo-Fr 08:00-20:00; Sa 09:00-18:00; Su 10:00-18:00,Staples,Q785943
29,stater_bros_us,Stater Bros. Markets Edinger,"2630 West Edinger Avenue, Santa Ana, CA 92704, USA",Santa Ana,CA,,US,+1 714-437-0750,https://www.staterbros.com/stores/29,Mo-Su 06:00-23:00,Stater Bros.,Q7604016
https://restaurants.subway.com/#14906749,subway,Subway Bristol Segerstrom S/C,,Santa Ana Orange,CA,,US,+1 714-435-1335,https://restaurants.subway.com/united-states/ca/santa-ana/2860-s-bristol-street,Mo-Su 09:00-21:00,Subway,Q244457
https://restaurants.subway.com/#14897558,subway,Subway,,Santa Ana Orange,CA,,US,+1 714-966-3050,https://restaurants.subway.com/united-states/ca/santa-ana/2633-w-edinger-ave,Mo-Su 08:30-22:00,Subway,Q244457
https://restaurants.subway.com/#14900478,subway,Subway South Coast Marketplace,,Santa Ana Orange,CA,,US,+1 714-957-8060,https://restaurants.subway.com/united-states/ca/santa-ana/2801-w-macarthur-blvd,Mo-Su 08:00-21:00,Subway,Q244457
https://restaurants.subway.com/#14904968,subway,Subway Bristol Shopping Center,,Santa Ana Orange,CA,,US,+1 714-850-0782,https://restaurants.subway.com/united-states/ca/santa-ana/3725-bristol-street,Mo-Fr 07:00-23:00; Sa-Su 09:00-23:00,Subway,Q244457
https://restaurants.subway.com/#14908329,subway,Subway,,Santa Ana Orange,CA,,US,+1 714-437-1301,https://restaurants.subway.com/united-states/ca/santa-ana/1442-s-bristol-st,Mo-Su 09:00-22:00,Subway,Q244457
https://locations.tacobell.com/#6144508,taco_bell,Taco Bell,,Santa Ana,CA,,US,+1 714-754-7565,https://locations.tacobell.com/ca/santa-ana/2910-s--bristol-st-.html,Mo-Th 07:00-02:00; Fr-Sa 07:00-03:30; Su 07:00-02:00,Taco Bell,Q752941
https://locations.tacobell.com/#6144647,taco_bell,Taco Bell,,Santa Ana,CA,,US,+1 714-957-3103,https://locations.tacobell.com/ca/santa-ana/2720-w-edinger.html,Mo-Th 07:00-01:00; Fr-Sa 07:00-02:00; Su 07:00-01:00,Taco Bell,Q752941
https://locations.tacobell.com/#6145955,taco_bell,Taco Bell,,Santa Ana,CA,,US,+1 714-531-6878,https://locations.tacobell.com/ca/santa-ana/16252-harbor-blvd-.html,Mo-Th 07:00-01:00; Fr-Sa 07:00-02:00; Su 07:00-01:00,Taco Bell,Q752941
081048,tjx,Santa Ana,3900 S Bristol Street ,Santa Ana,CA,,US,+1 714-641-1362,,Mo-Sa 09:30-21:30; Su 10:00-20:00,TJ Maxx,Q10860683
2939,tmobile_us,Harbor & Mcfadden,,Santa Ana,CA,,US,+1 714-873-2092,https://www.t-mobile.com/store-locator/ca/santa-ana/harbor-mcfadden,,T-Mobile,Q3511885
8925,tmobile_us,Bristol & Warner,,Santa Ana,CA,,US,+1 714-754-7460,https://www.t-mobile.com/store-locator/ca/santa-ana/bristol-warner,,T-Mobile,Q3511885
113,trader_joes_us,Trader Joe's Santa Ana (113),,Santa Ana,CA,,US,+1 714-424-9304,https://locations.traderjoes.com/ca/santa-ana/113/,Mo-Su 08:00-21:00,Trader Joe's,Q688825
00876,twenty_four_hour_fitness_us,Santa Ana Edinger,,Santa Ana,CA,,US,+1 657-273-5919,https://www.24hourfitness.com/Website/Club/00876,,24 Hour Fitness Super Sport,Q4631849
https://www.asurion.com/repairs/tech/locations/santaana,ubreakifix,uBreakiFix by Asurion - South Coast,,Santa Ana,CA,,US,+1 714-662-2022,https://www.asurion.com/repairs/tech/locations/santaana,Mo-Sa 10:00-18:00,Asurion Tech Repair & Solutions,Q4811938
715050,uhaul,U-Haul Moving & Storage at Harbor Blvd,822 S Harbor Bl,Santa Ana,CA,,US,+1 714-839-3220,,Mo-Th 00:00-19:00; Fr 00:00-20:00; Sa 00:00-19:00; Su 00:00-17:00,U-Haul,Q7862902
1360822,usps,DIAMOND,,SANTA ANA,CA,,US,+1 714-545-1716,,Mo-Fr 09:00-16:00,United States Postal Service,Q668687
9270400080,usps_collection_boxes,USPS COLLECTION BOX - BLUE BOX,2701 S BRISTOL ST,SANTA ANA,CA,,US,,,,United States Postal Service,Q668687
9270400014,usps_collection_boxes,USPS COLLECTION BOX - BLUE BOX,2701 S BRISTOL ST,SANTA ANA,CA,,US,,,,United States Postal Service,Q668687
9270400102,usps_collection_boxes,USPS COLLECTION BOX - PO LOBBY,1517 S GREENVILLE ST,SANTA ANA,CA,,US,,,,United States Postal Service,Q668687
9270400118,usps_collection_boxes,USPS COLLECTION BOX - PO LOBBY,1517 S GREENVILLE ST,SANTA ANA,CA,,US,,,,United States Postal Service,Q668687
10824,vestis_uniform_services_us,Vestis Santa Ana,,Santa Ana,CA,,US,+1 714-881-4379,https://www.vestis.com/our-locations/vestis-santa-ana,,Vestis,Q122947676
,visa,,,SANTA ANA,CA,,US,,,,,
,visa,,,SANTA ANA,CA,,US,,,,,
,visa,,,SANTA ANA,CA,,US,,,,,
,visa,,,SANTA ANA,CA,,US,,,,,
,visa,,,SANTA ANA,CA,,US,,,,,
,visa,,,SANTA ANA,CA,,US,,,,,
,visa,,,SANTA ANA,CA,,US,,,,,
,visa,,,SANTA ANA,CA,,US,,,,,
,visa,,,SANTA ANA,CA,,US,,,,,
,visa,,,SANTA ANA,CA,,US,,,,,
,visa,,,SANTA ANA,CA,,US,,,,,
,visa,,,SANTA ANA,CA,,US,,,,,
,visa,,,SANTA ANA,CA,,US,,,,,
,visa,,,SANTA ANA,CA,,US,,,,,
,visa,,,SANTA ANA,CA,,US,,,,,
,visa,,,SANTA ANA,CA,,US,,,,,
,visa,,,SANTA ANA,CA,,US,,,,,
,visa,,,SANTA ANA,CA,,US,,,,,
,visa,,,SANTA ANA,CA,,US,,,,,
,visa,,,SANTA ANA,CA,,US,,,,,
,visa,,,SANTA ANA,CA,,US,,,,,
,visa,,,SANTA ANA,CA,,US,,,,,
,visa,,,SANTA ANA,CA,,US,,,,,
,visa,,,SANTA ANA,CA,,US,,,,,
,visa,,,SANTA ANA,CA,,US,,,,,
,visa,,,SANTA ANA,CA,,US,,,,,
,visa,,,SANTA ANA,CA,,US,,,,,
,visa,,,SANTA ANA,CA,,US,,,,,
,visa,,,SANTA ANA,CA,,US,,,,,
,visa,,,SANTA ANA,CA,,US,,,,,
,visa,,,SANTA ANA,CA,,US,,,,,
,visa,,,SANTA ANA,CA,,US,,,,,
,visa,,,SANTA ANA,CA,,US,,,,,
,visa,,,SANTA ANA,CA,,US,,,,,
,visa,,,SANTA ANA,CA,,US,,,,,
,visa,,,SANTA ANA,CA,,US,,,,,
,visa,,,SANTA ANA,CA,,US,,,,,
,visa,,,SANTA ANA,CA,,US,,,,,
,visa,,,SANTA ANA,CA,,US,,,,,
,visa,,,SANTA ANA,CA,,US,,,,,
,visa,,,SANTA ANA,CA,,US,,,,,
,visa,,,SANTA ANA,CA,,US,,,,,
,visa,,,SANTA ANA,CA,,US,,,,,
,visa,,,SANTA ANA,CA,,US,,,,,
,visa,,,SANTA ANA,CA,,US,,,,,
,visa,,,SANTA ANA,CA,,US,,,,,
,visa,,,SANTA ANA,CA,,US,,,,,
,visa,,,SANTA ANA,CA,,US,,,,,
,visa,,,SANTA ANA,CA,,US,,,,,
,visa,,,SANTA ANA,CA,,US,,,,,
,visa,,,SANTA ANA,CA,,US,,,,,
,visa,,,SANTA ANA,CA,,US,,,,,
,visa,,,SANTA ANA,CA,,US,,,,,
,visa,,,SANTA ANA,CA,,US,,,,,
,visa,,,SANTA ANA,CA,,US,,,,,
,visa,,,SANTA ANA,CA,,US,,,,,
,visa,,,SANTA ANA,CA,,US,,,,,
,visa,,,SANTA ANA,CA,,US,,,,,
,visa,,,SANTA ANA,CA,,US,,,,,
,visa,,,SANTA ANA,CA,,US,,,,,
,visa,,,SANTA ANA,CA,,US,,,,,
,visa,,,SANTA ANA,CA,,US,,,,,
,visa,,,SANTA ANA,CA,,US,,,,,
,visa,,,SANTA ANA,CA,,US,,,,,
,visa,,,SANTA ANA,CA,,US,,,,,
,visa,,,SANTA ANA,CA,,US,,,,,
,visa,,,SANTA ANA,CA,,US,,,,,
,visa,,,SANTA ANA,CA,,US,,,,,
,visa,,,SANTA ANA,CA,,US,,,,,
,visa,,,SANTA ANA,CA,,US,,,,,
,visa,,,SANTA ANA,CA,,US,,,,,
,visa,,,SANTA ANA,CA,,US,,,,,
,visa,,,SANTA ANA,CA,,US,,,,,
,visa,,,SANTA ANA,CA,,US,,,,,
,visa,,,SANTA ANA,CA,,US,,,,,
,visa,,,SANTA ANA,CA,,US,,,,,
,visa,,,SANTA ANA,CA,,US,,,,,
,visa,,,SANTA ANA,CA,,US,,,,,
,visa,,,SANTA ANA,CA,,US,,,,,
,visa,,,SANTA ANA,CA,,US,,,,,
,visa,,,SANTA ANA,CA,,US,,,,,
,visa,,,SANTA ANA,CA,,US,,,,,
,visa,,,SANTA ANA,CA,,US,,,,,
,visa,,,SANTA ANA,CA,,US,,,,,
,visa,,,SANTA ANA,CA,,US,,,,,
,visa,,,SANTA ANA,CA,,US,,,,,
,visa,,,SANTA ANA,CA,,US,,,,,
,visa,,,SANTA ANA,CA,,US,,,,,
,visa,,,SANTA ANA,CA,,US,,,,,
,visa,,,SANTA ANA,CA,,US,,,,,
,visa,,,SANTA ANA,CA,,US,,,,,
,visa,,,SANTA ANA,CA,,US,,,,,
,visa,,,SANTA ANA,CA,,US,,,,,
,visa,,,SANTA ANA,CA,,US,,,,,
,visa,,,SANTA ANA,CA,,US,,,,,
,visa,,,SANTA ANA,CA,,US,,,,,
,visa,,,SANTA ANA,CA,,US,,,,,
,visa,,,SANTA ANA,CA,,US,,,,,
,visa,,,SANTA ANA,CA,,US,,,,,
,visa,,,SANTA ANA,CA,,US,,,,,
,visa,,,SANTA ANA,CA,,US,,,,,
,visa,,,SANTA ANA,CA,,US,,,,,
,visa,,,SANTA ANA,CA,,US,,,,,
,visa,,,SANTA ANA,CA,,US,,,,,
,visa,,,SANTA ANA,CA,,US,,,,,
,visa,,,SANTA ANA,CA,,US,,,,,
,visa,,,SANTA ANA,CA,,US,,,,,
https://locations.vitaminshoppe.com/ca/santaana/vitamins-supplements-santa-ana-ca-132.html,vitamin_shoppe,The Vitamin Shoppe® Costa Mesa ,3929 S. Bristol St Bldg C,Santa Ana,CA,,US,+1 714-424-9515,https://locations.vitaminshoppe.com/ca/santaana/vitamins-supplements-santa-ana-ca-132.html,Su 10:00-19:00; Mo 09:30-21:00; Tu 09:30-21:00; We 09:30-21:00; Th 09:30-21:00; Fr 09:30-21:00; Sa 09:30-21:00,The Vitamin Shoppe,Q7772938
3925__S__BRISTOL__ST_SANTA__ANA_CA_92704,wellsfargo,Wells Fargo,3925 S BRISTOL ST,SANTA ANA,CA,,US,+1 714-435-3840,https://www.wellsfargo.com/locator/bank/3925__S__BRISTOL__ST_SANTA__ANA_CA_92704/,Mo-Fr 09:00-17:00,Wells Fargo,Q744149
3764__W__MCFADDEN__AVE_SANTA__ANA_CA_92704,wellsfargo,Wells Fargo,3764 W MCFADDEN AVE,SANTA ANA,CA,,US,+1 714-839-9854,https://www.wellsfargo.com/locator/bank/3764__W__MCFADDEN__AVE_SANTA__ANA_CA_92704/,Mo-Fr 09:00-17:00,Wells Fargo,Q744149
3650__S__BRISTOL__ST_SANTA__ANA_CA_92704,wellsfargo,,3650 S BRISTOL ST,SANTA ANA,CA,,US,+1 800-869-3557,https://www.wellsfargo.com/locator/bank/3650__S__BRISTOL__ST_SANTA__ANA_CA_92704/,,Wells Fargo,Q744149
2841__W__MACARTHUR__BLVD_SANTA__ANA_CA_92704,wellsfargo,,2841 W MACARTHUR BLVD,SANTA ANA,CA,,US,+1 800-869-3557,https://www.wellsfargo.com/locator/bank/2841__W__MACARTHUR__BLVD_SANTA__ANA_CA_92704/,,Wells Fargo,Q744149
2140__S__BRISTOL__ST_SANTA__ANA_CA_92704,wellsfargo,,2140 S BRISTOL ST,SANTA ANA,CA,,US,+1 800-869-3557,https://www.wellsfargo.com/locator/bank/2140__S__BRISTOL__ST_SANTA__ANA_CA_92704/,,Wells Fargo,Q744149
7f0f59e34c2b5c391a282e9f75b189db,western_union,PENALOZA INSURANCE SERVICES,,Santa Ana,CA,,US,+1 714-839-3616,https://location.westernunion.com/us/ca/santa-ana/7f0f59e34c2b5c391a282e9f75b189db,Mo-Sa 09:00-19:30; Su 09:00-17:30,Western Union,Q861042
c3eaa3e062b0ed3f55b65fa6bd454dc0,western_union,DISVEL CENTER CORPORATION,,Santa Ana,CA,,US,+1 949-234-0582,https://location.westernunion.com/us/ca/santa-ana/c3eaa3e062b0ed3f55b65fa6bd454dc0,Mo-Su 08:00-20:00,Western Union,Q861042
c8100ab549f616901b81c177f909afd2,western_union,WALMART #002517,,Santa Ana,CA,,US,+1 714-775-1804,https://location.westernunion.com/us/ca/santa-ana/c8100ab549f616901b81c177f909afd2,Mo-Su 07:00-21:00,Western Union,Q861042
162fb7b52661768247753bb09e86cacc,western_union,JANET INSURANCE SERVICES,,Santa Ana,CA,,US,+1 714-417-0177,https://location.westernunion.com/us/ca/santa-ana/162fb7b52661768247753bb09e86cacc,Mo-Fr 09:00-19:00; Sa 09:00-18:00,Western Union,Q861042
9179821d5334a787892b8cba926799e7,western_union,CLAU'S CUTS & FADES,,Santa Ana,CA,,US,+1 714-866-9516,https://location.westernunion.com/us/ca/santa-ana/9179821d5334a787892b8cba926799e7,Mo-Su 08:00-20:00,Western Union,Q861042
b95eb8a94cd79736f75354d34f6f6002,western_union,ADVANTAGE AUTO INS BROKERAGE,,Santa Ana,CA,,US,+1 714-564-1060,https://location.westernunion.com/us/ca/santa-ana/b95eb8a94cd79736f75354d34f6f6002,Mo-Fr 10:00-19:00; Sa 10:00-16:00,Western Union,Q861042
5a2a67513e0aac778e90cb33be28281b,western_union,R & D EL MERCADITO,,Santa Ana,CA,,US,+1 714-545-4482,https://location.westernunion.com/us/ca/santa-ana/5a2a67513e0aac778e90cb33be28281b,Mo-Su 09:30-21:00,Western Union,Q861042
24fca819e5c7937ece6ff0b9c3a25de0,western_union,7-ELEVEN #35633,,Santa Ana,CA,,US,+1 714-540-1875,https://location.westernunion.com/us/ca/santa-ana/24fca819e5c7937ece6ff0b9c3a25de0,,Western Union,Q861042
9165,wingstop,Wingstop Santa Ana MacArthur Blvd and Fairview Blvd,2801 W Macarthur Blvd Ste C,Santa Ana,CA,,US,+1 657-439-5706,,,Wingstop,Q8025339
70391,wingstop,Wingstop Santa Ana Mcfadden and S. Harbor Blvd,701 S. Harbor Blvd Ste C,Santa Ana,CA,,US,+1 657-231-1410,,,Wingstop,Q8025339
223399,wingstop,Wingstop Santa Ana W. Warner Ave,1311 W. Warner Ave,Santa Ana,CA,,US,+1 657-363-4640,,,Wingstop,Q8025339
santa-ana-family-ymca,ymca,Santa Ana Family YMCA,2100 W. Alton,Santa Ana,CA,,US,+1 714-444-4004,https://www.ymca.org/locations/santa-ana-family-ymca,Mo-Fr 10:00-20:00,YMCA,Q157169
