Ref,Spider,Name,Address,City,State,Zipcode,Country,Phone,Website,Hours,Brand,WikiData
8400 Belleview Drive,allied_universal,Allied Universal,,Plano,TX,,US,,https://www.aus.com/dallas-security-services-systems,,Allied Universal,Q4732537
14368714,anatomie,Joni' Boutique,,Plano,TX,,US,+1 972-398-0559,,,Anatomie,Q115608133
29940,asics_us,PGA TOUR Superstore,8700 Preston Rd #100,Plano,TX,,US,+1 214-778-3850,,,asics,Q327247
129503,asics_us,Dallas Running Company,7200 Bishop Rd D-12,Plano,TX,,US,+1 972-905-5148,,,asics,Q327247
3992,autozone_us,AutoZone Auto Parts Plano,,Plano,TX,,US,+1 972-985-7951,https://www.autozone.com/locations/tx/plano/4140-w-spring-creek-pkwy.html,Mo-Sa 07:30-22:00; Su 08:30-21:00,AutoZone,Q4826087
https://locators.bankofamerica.com/tx/plano/financial-centers-plano-15862.html,bankofamerica,Bank of America Financial Center with Drive-Thru ATM & Teller Services | Legacy Town Center,,Plano,TX,,US,+1 972-673-4180,https://locators.bankofamerica.com/tx/plano/financial-centers-plano-15862.html,Mo-Fr 10:00-16:00,Bank of America,Q487907
266,batteriesplus,Stop by our Frisco store today,,Plano,TX,,US,+1 972-335-0900,https://www.batteriesplus.com/store-locator/tx/plano/batteries-plus-266,Mo-Fr 08:00-19:00; Sa 09:00-19:00; Su 10:00-18:00,Batteries Plus Bulbs,Q17005157
9785,baylorscottwhite,Baylor Scott & White Legacy Heart Center - Plano Preston Road,,Plano,TX,,US,+1 469-800-6300,https://www.bswhealth.com/locations/legacy-heart-center,Mo-Fr 08:00-17:00,Baylor Scott & White Health,Q41568258
9786,baylorscottwhite,Baylor Scott & White Legacy Heart Center - Plano Spring Creek Parkway,,Plano,TX,,US,+1 469-800-6300,https://www.bswhealth.com/locations/legacy-heart-center,Mo-Fr 08:00-17:00,Baylor Scott & White Health,Q41568258
9687,baylorscottwhite,Baylor Scott & White Cardiovascular Consultants - Plano,,Plano,TX,,US,+1 469-800-4400,https://www.bswhealth.com/locations/cardiovascular-consultants,Mo-Fr 08:30-17:00,Baylor Scott & White Health,Q41568258
5753570,baylorscottwhite,The Nicholson Clinic,,Plano,TX,,US,+1 972-494-3100,,,Baylor Scott & White Health,Q41568258
https://www.benihana.com/locations/plano-tx/,benihana,"PLANO, TX",, Plano,TX,,US,+1 469-467-2242,https://www.benihana.com/locations/plano-tx/,,Benihana,Q4887996
237599,bluerhino,Circle K #2741565,,Plano,TX,,US,+1 972-370-9549,,,Blue Rhino,Q65681213
45099,bluerhino,Walmart #2883 - Supercenter,,Plano (N),TX,,US,+1 972-731-9576,,,Blue Rhino,Q65681213
155411,bluerhino,Walgreens #4315,,Plano,TX,,US,+1 972-491-5677,,,Blue Rhino,Q65681213
50923_01,bmw_group,BMW of Plano,,Plano,TX,,US,+1 214-778-2600,,,BMW,Q26678
https://child-care-preschool.brighthorizons.com/TX/Plano/legacy,brighthorizons,Bright Horizons at Legacy,,Plano,TX,,US,+1 972-427-4905,https://child-care-preschool.brighthorizons.com/tx/plano/legacy,Mo-Fr 07:00-18:00,Bright Horizons,Q4967421
13192,burgerking,Burger King,,Plano,TX,,US,+1 972-377-7772,https://www.bk.com/store-locator/store/restaurant_7693,Mo-Sa 06:00-00:00; Su 07:00-00:00,Burger King,Q177054
5824899,chase_us,WALK-UP BUILDING - 654015,,PLANO,TX,,US,+1 800-935-9935,https://locator.chase.com/tx/plano/7300-windrose-ave,,Chase,Q524629
8759106,chase_us,Legacy West - New branch,,Plano,TX,,US,+1 469-366-4087,https://locator.chase.com/tx/plano/6101-legacy-dr,Mo-Fr 09:00-17:00,Chase,Q524629
2043472,chase_us,Legacy and Coit - New branch,,Plano,TX,,US,+1 972-208-1101,https://locator.chase.com/tx/plano/4004-legacy-dr,Mo-Fr 09:00-17:00; Sa 09:00-14:00,Chase,Q524629
tx_plano_5717-legacy-dr,chipotle, ,,Plano,TX,,US,+1 972-398-8800,https://locations.chipotle.com/tx/plano/5717-legacy-dr,,Chipotle,Q465751
84745,citi,ATM TRANSFUND,,Plano,TX,,US,,,,Citibank,Q857063
84746,citi,ATM TRANSFUND,,Plano,TX,,US,,,,Citibank,Q857063
33187,citi,ATM 7ELEVEN-FCTI,,Plano,TX,,US,,,,Citibank,Q857063
71990,citi,ATM Racetrac,,Plano,TX,,US,,,,Citibank,Q857063
30485,citi,ATM 7ELEVEN-FCTI,,Plano,TX,,US,,,,Citibank,Q857063
90944,citi,ATM Walgreens,,Plano,TX,,US,,,,Citibank,Q857063
39036,citi,ATM Cathay Bank,,Plano,TX,,US,,,,Citibank,Q857063
52081,citi,ATM CVS,,Plano,TX,,US,,,,Citibank,Q857063
52359,citi,ATM CVS,,Plano,TX,,US,,,,Citibank,Q857063
31773,citi,ATM 7ELEVEN-FCTI,,Plano,TX,,US,,,,Citibank,Q857063
29879,citi,ATM 7ELEVEN-FCTI,,Plano,TX,,US,,,,Citibank,Q857063
84619,citi,ATM TRANSFUND,,Plano,TX,,US,,,,Citibank,Q857063
84620,citi,ATM TRANSFUND,,Plano,TX,,US,,,,Citibank,Q857063
31903,citi,ATM 7ELEVEN-FCTI,,Plano,TX,,US,,,,Citibank,Q857063
337930898,clinical_pathology_laboratories,West Plano Medical Village,,Plano,TX,,US,,,,Clinical Pathology Laboratories,Q91911320
https://www.coach.com/stores/#17277312,coach_us,COACH,,Plano,TX,,US,+1 972-694-1436,https://www.coach.com/stores/tx/plano/7601-windrose-avenue,Mo-Sa 11:00-20:00; Su 12:00-17:00,Coach,Q727697
tx_plano_8700-preston-road,costplus_worldmarket,World Market North Plano,,Plano,TX,,US,+1 972-377-6638,https://stores.worldmarket.com/tx/plano/8700-preston-road.html,Mo-Sa 10:00-20:00; Su 11:00-18:00,Cost Plus World Market,Q5174750
5965,cvs_us,CVS Pharmacy,,Plano,TX,,US,+1 972-403-7357,https://www.cvs.com/store-locator/plano-tx-pharmacies/6761-preston-rd-plano-tx-75024/storeid=5965,Mo-Fr 07:00-23:00; Sa-Su 08:00-23:00,CVS Pharmacy,Q2078880
10479,cvs_us,CVS Pharmacy,,Plano,TX,,US,+1 469-606-7586,https://www.cvs.com/store-locator/plano-tx-pharmacies/4000-w-spring-creek-pkwy-plano-tx-75024/storeid=10479,Mo-Su 08:00-22:00,CVS Pharmacy,Q2078880
11297,cvs_us,CVS Pharmacy,,Plano,TX,,US,+1 972-378-9633,https://www.cvs.com/store-locator/plano-tx-pharmacies/6125-legacy-drive-plano-tx-75024/storeid=11297,Mo-Su 07:00-23:00,CVS Pharmacy,Q2078880
21,dickeys_barbecue_pit_us,Plano - Preston Rd,,Plano,TX,,US,+1 972-398-3030,https://www.dickeys.com/locations/texas/plano/dickeys-preston,Mo-Su 11:00-21:00,Dickey's Barbecue Pit,Q19880747
346310,dunkin_us,Dunkin',,Plano,TX,,US,+1 972-673-0031,https://locations.dunkindonuts.com/en/tx/plano/7317-parkwood-blvd/346310,Mo 06:00-16:30; Tu-Su 04:30-20:00,Dunkin',Q847743
https://www.edwardjones.com/us-en/financial-advisor/tenisha-blair,edwardjones,Tenisha Blair,,Plano,TX,,US,+1 972-208-5688,https://www.edwardjones.com/us-en/financial-advisor/tenisha-blair,Mo-We 08:30-17:00; Th 08:00-17:00; Fr 08:30-16:00,Edward Jones,Q5343830
E10968,enterprise,Plano Dallas Pkwy. & Hwy. 121,,Plano,TX,,US,+1 972-335-1590,,,Enterprise Rent-A-Car,Q17085454
E10994,enterprise,Plano Ewing Buick GMC,,Plano,TX,,US,+1 972-985-0739,,,Enterprise Rent-A-Car,Q17085454
E109EQ,enterprise,Plano Classic BMW,,Plano,TX,,US,+1 972-378-3505,,,Enterprise Rent-A-Car,Q17085454
200324993,exxonmobil,7-ELEVEN 38244,,PLANO,TX,,US,,https://www.exxon.com/en/find-station/exxon-plano-tx-7eleven38244-200324993,24/7,Exxon,Q109675651
https://local.fedex.com/#25205552,fedex,,,Plano,TX,,US,+1 800-463-3339,https://local.fedex.com/en-us/tx/plano/bswke,,FedEx,Q459477
https://restaurants.fiveguys.com/#15553277,five_guys_us,Five Guys Headquarters Village,,Plano,TX,,US,+1 469-362-7070,https://restaurants.fiveguys.com/8240-preston-road,"Mo-Su 11:00-21:30,11:00-22:00",Five Guys,Q1131810
100787,fresenius_kidney_care_us,Fresenius Kidney Care Willow Bend,,Plano,TX,,US,+1 800-881-5101,https://www.freseniuskidneycare.com/dialysis-centers/texas/100787,Mo-Sa 05:00-18:00,,
https://salons.greatclips.com/us/tx/plano/8604-preston-rd,greatclips,Great Clips,,Plano,TX,,US,+1 972-668-2547,https://salons.greatclips.com/us/tx/plano/8604-preston-rd,Mo-Fr 09:00-19:00; Sa 09:00-18:00; Su 09:30-17:30,Great Clips,Q5598967
https://salons.greatclips.com/us/tx/plano/6905-coit-rd,greatclips,Great Clips,,Plano,TX,,US,+1 972-208-9018,https://salons.greatclips.com/us/tx/plano/6905-coit-rd,Mo-Fr 09:00-19:00; Sa-Su 09:00-18:00,Great Clips,Q5598967
https://www.grimaldispizzeria.com/location/the-shops-at-legacy/,grimaldis_pizzeria,Grimaldi&#039;s Pizzeria,,Plano,TX,,US,+1 972-782-4212,https://www.grimaldispizzeria.com/location/the-shops-at-legacy/,Mo-Th 11:00-21:30; Fr-Sa 11:00-22:30; Su 11:00-21:30,Grimaldi's Pizzeria,Q564256
dallght-home2-suites-plano-legacy-west,hilton,Home2 Suites by Hilton Plano Legacy West,,,TX,,US,+1 469-661-3100,https://www.hilton.com/ar/hotels/dallght-home2-suites-plano-legacy-west/,,Home2 Suites by Hilton,Q5887912
182154,hopdoddy_burger_bar,Plano,,Plano,TX,,US,+1 972-535-5157,,,HopDoddy Burger Bar,Q123689179
41711,h_r_block,H&R Block,,Plano,TX,,US,+1 972-668-5140,https://www.hrblock.com/local-tax-offices/texas/plano/8608-preston-rd/41711/,,H&R Block,Q5627799
https://office.jacksonhewitt.com/#27575882,jackson_hewitt,Jackson Hewitt,,Plano,TX,,US,+1 469-537-7103,https://office.jacksonhewitt.com/tax-preparation-services-locations/en/tx/plano/8801-ohio-drive/52883,Mo-Sa 11:00-19:00; Su 12:00-16:00,Jackson Hewitt,Q6117132
https://locations.jimmyjohns.com/tx/plano/sandwiches-3482.html,jimmy_johns,Jimmy John's,,Plano,TX,,US,+1 972-519-9292,https://locations.jimmyjohns.com/tx/plano/sandwiches-3482.html,,Jimmy John's,Q1689380
https://stores.jcrew.com/#8322959,j_crew_us,J.Crew,,Plano,TX,,US,+1 469-642-2785,https://stores.jcrew.com/us/tx/plano/7600-windrose,Mo-Sa 11:00-19:00; Su 12:00-18:00,J. Crew,Q5370765
https://locations.kfc.com/#11249934,kfc,Chicken Nuggets Near Plano,,Plano,TX,,US,,https://locations.kfc.com/tx/plano/8609-ohio-drive/chickennugget,Mo-Su 09:00-23:30,KFC,Q524757
https://locations.kfc.com/#18563557,kfc,Chicken Nuggets Near Plano,,Plano,TX,,US,,https://locations.kfc.com/tx/plano/7100-corporate-drive/chickennugget,,KFC,Q524757
https://locations.kfc.com/#11247375,kfc,Chicken Nuggets Near Plano,,Plano,TX,,US,,https://locations.kfc.com/tx/plano/6301-coit-road/chickennugget,Mo-Su 10:00-23:00,KFC,Q524757
301921,kindercare,Legacy KinderCare,,Plano,TX,,US,,https://www.kindercare.com/our-centers/plano/tx/301921,,KinderCare Learning Centers,Q6410551
TXPLA,life_time,Plano,,Plano,TX,,US,+1 214-227-0700,https://my.lifetime.life/clubs/tx/plano.html,Mo-Fr 04:00-24:00; Sa-Su 05:00-23:00,Life Time,Q6545004
TXXPL,life_time,Plano Tennis,,Plano,TX,,US,+1 469-353-6000,https://my.lifetime.life/clubs/tx/plano-tennis.html,Mo-Fr 06:00-22:00; Sa-Su 07:00-20:00,Life Time,Q6545004
126757,little_free_library,Lilâ€™ BEE-blioteca #126757 Plano TX,,Plano,TX,,US,,,,Little Free Library,Q6650101
74963,little_free_library,Little Red #74963 Plano TX,,Plano,TX,,US,,,,Little Free Library,Q6650101
145453,little_free_library,Little V's Little Library #145453 Plano TX,,Plano,TX,,US,,,,Little Free Library,Q6650101
Legacy West,lululemon,Lululemon,"7600 Windrose Ave, Block G Suite 120, Plano, TX, US, 75024",Plano,TX,,US,+1 972-782-5986,https://shop.lululemon.com/stores/us/plano/plano,Mo-Sa 10:00-20:00; Su 11:00-18:00,Lululemon,Q6702957
https://stores.madewell.com/#8322960,madewell_us,Madewell,,Plano,TX,,US,+1 469-642-2793,https://stores.madewell.com/us/tx/plano/7601-windrose,Mo-Sa 11:00-19:00; Su 12:00-18:00,Madewell,Q64026213
DALNL,marriott,Aloft Plano,,Plano,TX,,US,+1 214-474-2520,https://www.marriott.com/DALNL,,Aloft Hotels,Q4734166
DALBP,marriott,Renaissance Dallas at Plano Legacy West Hotel,,Plano,TX,,US,+1 469-925-1800,https://www.marriott.com/DALBP,,Renaissance Hotels,Q2143252
DALLP,marriott,Courtyard Dallas Plano in Legacy Park,,Plano,TX,,US,+1 972-403-0802,https://www.marriott.com/DALLP,,Courtyard by Marriott,Q1053170
DALPF,marriott,Fairfield Inn & Suites Dallas Plano/Frisco,,Plano,TX,,US,+1 972-377-5534,https://www.marriott.com/DALPF,,Fairfield by Marriott,Q5430314
DALPU,marriott,Four Points by Sheraton Plano,,Plano,TX,,US,+1 214-265-8900,https://www.marriott.com/DALPU,,Four Points by Sheraton,Q1439966
DALPT,marriott,Dallas/Plano Marriott at Legacy Town Center,,Plano,TX,,US,+1 972-473-6444,https://www.marriott.com/DALPT,,Marriott Hotels & Resorts,Q3918608
DALPL,marriott,Residence Inn Dallas Plano/Legacy,,Plano,TX,,US,+1 972-473-6761,https://www.marriott.com/DALPL,,Residence Inn by Marriott,Q7315394
DALPS,marriott,SpringHill Suites Dallas Plano/Frisco,,Plano,TX,,US,+1 469-362-7773,https://www.marriott.com/DALPS,,SpringHill Suites,Q7580351
DALTP,marriott,TownePlace Suites Dallas Plano/Legacy,,Plano,TX,,US,+1 469-969-0953,https://www.marriott.com/DALTP,,Townplace Suites by Marriott,Q7830092
8245-preston-road,mcalisters_deli,McAlister's Deli North Plano ,,Plano,TX,,US,+1 214-494-4500,https://locations.mcalistersdeli.com/tx/plano/8245-preston-road,Mo-Su 10:00-21:00,McAlister's Deli,Q17020829
13684,mooyah,"Corporate Headquarters in Plano, Texas","6865 Windcrest Drive, Suite 400, Plano, TX, 75024, US",Plano,TX,,US,+1 214-310-0768,www.mooyah.com/locations/corporate-headquarters,Mo-Fr 08:30-17:30,MOOYAH,Q6908759
1018957,national,Plano Dallas Pkwy. & Hwy. 121,,Plano,TX,,US,+1 877-589-5142,,,NATIONAL,Q1424142
2203,orangetheory_fitness,"North Plano, TX",,Plano,TX,,US,+1 469-708-2090,,,Orangetheory Fitness,Q25005163
https://locations.papajohns.com/#10693675,papa_johns,Papa John's,,Plano,TX,,US,+1 972-618-7272,https://locations.papajohns.com/united-states/tx/75024/plano/6909-coit-rd,Mo-Th 10:00-23:00; Fr-Sa 10:00-24:00; Su 10:00-23:00,Papa John's Pizza,Q2759586
627323,penske,Home Depot #527,,PLANO,TX,,US,+1 214-705-8037,https://www.pensketruckrental.com/locations/us/texas/plano/627323/,,Penske,Q81234570
https://stores.petco.com/#27959119,petco,Petco North Plano,,Plano,TX,,US,+1 972-377-6723,https://stores.petco.com/tx/plano/pet-supplies-plano-tx-445.html,Mo-Sa 09:00-20:00; Su 10:00-19:00,Petco,Q7171798
tx_plano_8605-ohio-dr,pizza_hut_us,8605 Ohio Dr,,Plano,TX,,US,+1 972-731-8000,https://locations.pizzahut.com/tx/plano/8605-ohio-dr,,Pizza Hut,Q191615
tx_plano_7100-corporate-drive-80044572,pizza_hut_us,7100 Corporate Drive,,Plano,TX,,US,,https://locations.pizzahut.com/tx/plano/7100-corporate-drive-80044572,,Pizza Hut,Q191615
tx_plano_7100-corporate-drive-14050663,pizza_hut_us,7100 Corporate Drive,,Plano,TX,,US,,https://locations.pizzahut.com/tx/plano/7100-corporate-drive-14050663,,Pizza Hut,Q191615
136794,potbelly_sandwich,Shops at Legacy,,Plano,TX,,US,+1 469-467-7712,,Mo-Fr 09:00-22:00; Sa-Su 10:00-22:00,Potbelly Sandwich Shop,Q7234777
home-depot-0527-12422,ppgpaints,HOME DEPOT 0527,,"Plano, ",TX,,US,+1 972-377-3613,https://www.ppgpaints.com/store-locator/us/texas/plano-paint-stores/home-depot-0527-12422,,PPG Paints,Q83891559
18,primrose_schools,Primrose School of Plano at Deerfield,,Plano,TX,,US,+1 972-208-1754,https://www.primroseschools.com/schools/plano-deerfield/,,Primrose Schools,Q7243677
379,primrose_schools,Primrose School of Plano at Headquarters,,Plano,TX,,US,+1 972-682-3315,https://www.primroseschools.com/schools/plano-at-headquarters/,,Primrose Schools,Q7243677
https://www.publicstorage.com/self-storage-tx-plano/5218.html,public_storage_us,Public Storage,,Plano,TX,,US,+1 469-640-0230,https://www.publicstorage.com/self-storage-tx-plano/5218.html,,Public Storage,Q1156045
https://www.publicstorage.com/self-storage-tx-plano/2650.html,public_storage_us,Public Storage,,Plano,TX,,US,+1 469-573-0050,https://www.publicstorage.com/self-storage-tx-plano/2650.html,,Public Storage,Q1156045
https://locations.quiktrip.com/#16004015,quiktrip_us,QuikTrip Store #910 9635 Coit Rd,,Plano,TX,,US,+1 214-872-2322,https://locations.quiktrip.com/tx/plano/9635-coit-rd,24/7,QuikTrip,Q7271953
https://locations.quiktrip.com/#16003921,quiktrip_us,QuikTrip Store #934 6400 Preston Rd,,Plano,TX,,US,+1 972-618-8752,https://locations.quiktrip.com/tx/plano/6400-preston-rd,24/7,QuikTrip,Q7271953
https://www.racetrac.com/locations/texas/plano/parkwood,racetrac_us,RaceTrac,,Plano,TX,,US,+1 469-362-8474,https://www.racetrac.com/locations/texas/plano/parkwood,,RaceTrac,Q735942
6255,sams_club,Plano Sam's Club,,Plano,TX,,US,+1 469-633-0026,https://www.samsclub.com/club/plano-tx-sams-club/6255,Mo 10:00-20:00; Sa 09:00-20:00; Su 10:00-18:00,Sam's Club,Q1972120
37930,seven_eleven_ca_us,7-11 Str   8601 Ohio Dr,,Plano,TX,,US,+1 469-362-8613,https://www.7-eleven.com/locations/tx/plano/8601-ohio-dr-37930,,7-Eleven,Q259340
32912,seven_eleven_ca_us,7-11 Str   6465 Preston Rd,,Plano,TX,,US,+1 972-781-0752,https://www.7-eleven.com/locations/tx/plano/6465-preston-rd-32912,,7-Eleven,Q259340
36801,seven_eleven_ca_us,7-11 Str   4645 Hedgcoxe Road,,Plano,TX,,US,+1 214-494-4207,https://www.7-eleven.com/locations/tx/plano/4645-hedgcoxe-road-36801,,7-Eleven,Q259340
38244,seven_eleven_ca_us,7-11 Str   6240 Tennyson Pkwy,,Plano,TX,,US,+1 972-806-1045,https://www.7-eleven.com/locations/tx/plano/6240-tennyson-pkwy-38244,,7-Eleven,Q259340
https://www.sprouts.com/store/tx/plano/plano/,sprouts_farmer_market,Sprouts Farmers Market 101-Plano,,Plano,TX,,US,+1 972-618-8902,https://www.sprouts.com/store/tx/plano/plano/,Mo-Su 07:00-22:00,Sprouts Farmer Market,Q7581369
https://restaurants.subway.com/#14897240,subway,Subway Preston Village Shop Ctr,,Plano Collin,TX,,US,+1 972-668-6900,https://restaurants.subway.com/united-states/tx/plano/8600-preston-road,Mo-Su 09:00-22:00,Subway,Q244457
https://restaurants.subway.com/#14896797,subway,Subway Circle K Store #2741565,,Plano Denton,TX,,US,+1 972-370-9425,https://restaurants.subway.com/united-states/tx/plano/7040-w-spring-creek-pkwy,Mo-Fr 06:00-22:00; Sa-Su 07:00-22:00,Subway,Q244457
https://restaurants.subway.com/#14906932,subway,Subway Tennyson Plaza,,Plano Collin,TX,,US,+1 972-378-9040,https://restaurants.subway.com/united-states/tx/plano/5024-tennyson-parkway,Mo-Su 09:00-20:00,Subway,Q244457
https://locations.tacobell.com/#6141889,taco_bell,Taco Bell,,Plano,TX,,US,+1 972-731-0548,https://locations.tacobell.com/tx/plano/8613-ohio-drive.html,Mo-Th 08:00-02:00; Fr-Sa 08:00-03:00; Su 08:00-02:00,Taco Bell,Q752941
https://locations.tacobell.com/#23560435,taco_bell,Taco Bell,,Plano,TX,,US,+1 806-239-7009,https://locations.tacobell.com/tx/plano/7100-corporate-drive.html,,Taco Bell,Q752941
28742,tjx,Plano,"8700 Preston Road, Suite 111",Plano,TX,,US,+1 469-362-6713,,Mo-Sa 09:30-21:30; Su 10:00-20:00,HomeGoods,Q5887941
387F,tmobile_us,The Shops at Legacy,,Plano,TX,,US,+1 469-991-7695,https://www.t-mobile.com/store-locator/tx/plano/the-shops-at-legacy,,T-Mobile,Q3511885
506,total_wine_and_more_us,Plano North (Preston Village),,Plano,TX,,US,+1 214-436-5518,https://www.totalwine.com/store-info/506,Mo-Sa 10:00-21:00,Total Wine & More,Q7828084
https://www.asurion.com/repairs/tech/locations/westplano,ubreakifix,uBreakiFix by Asurion - West Plano,,Plano,TX,,US,+1 972-519-9990,https://www.asurion.com/repairs/tech/locations/westplano,Mo-Sa 10:00-19:00; Su 12:00-17:00,Asurion Tech Repair & Solutions,Q4811938
7502400001,usps_collection_boxes,USPS COLLECTION BOX - BLUE BOX,5700 TENNYSON PKWY,PLANO,TX,,US,,,,United States Postal Service,Q668687
,visa,,,PLANO,TX,,US,,,,,
,visa,,,PLANO,TX,,US,,,,,
,visa,,,PLANO,TX,,US,,,,,
,visa,,,PLANO,TX,,US,,,,,
,visa,,,PLANO,TX,,US,,,,,
,visa,,,PLANO,TX,,US,,,,,
,visa,,,PLANO,TX,,US,,,,,
,visa,,,PLANO,TX,,US,,,,,
,visa,,,PLANO,TX,,US,,,,,
,visa,,,PLANO,TX,,US,,,,,
,visa,,,PLANO,TX,,US,,,,,
,visa,,,PLANO,TX,,US,,,,,
,visa,,,PLANO,TX,,US,,,,,
,visa,,,PLANO,TX,,US,,,,,
,visa,,,PLANO,TX,,US,,,,,
,visa,,,PLANO,TX,,US,,,,,
,visa,,,PLANO,TX,,US,,,,,
,visa,,,PLANO,TX,,US,,,,,
,visa,,,PLANO,TX,,US,,,,,
,visa,,,PLANO,TX,,US,,,,,
,visa,,,PLANO,TX,,US,,,,,
,visa,,,PLANO,TX,,US,,,,,
,visa,,,PLANO,TX,,US,,,,,
,visa,,,PLANO,TX,,US,,,,,
,visa,,,PLANO,TX,,US,,,,,
,visa,,,PLANO,TX,,US,,,,,
,visa,,,PLANO,TX,,US,,,,,
,visa,,,PLANO,TX,,US,,,,,
,visa,,,PLANO,TX,,US,,,,,
,visa,,,PLANO,TX,,US,,,,,
,visa,,,PLANO,TX,,US,,,,,
,visa,,,PLANO,TX,,US,,,,,
,visa,,,PLANO,TX,,US,,,,,
,visa,,,PLANO,TX,,US,,,,,
,visa,,,PLANO,TX,,US,,,,,
,visa,,,PLANO,TX,,US,,,,,
,visa,,,PLANO,TX,,US,,,,,
,visa,,,PLANO,TX,,US,,,,,
,visa,,,PLANO,TX,,US,,,,,
,visa,,,PLANO,TX,,US,,,,,
,visa,,,PLANO,TX,,US,,,,,
,visa,,,PLANO,TX,,US,,,,,
,visa,,,PLANO,TX,,US,,,,,
,visa,,,PLANO,TX,,US,,,,,
,visa,,,PLANO,TX,,US,,,,,
,visa,,,PLANO,TX,,US,,,,,
,visa,,,PLANO,TX,,US,,,,,
,visa,,,PLANO,TX,,US,,,,,
,visa,,,PLANO,TX,,US,,,,,
,visa,,,PLANO,TX,,US,,,,,
,visa,,,PLANO,TX,,US,,,,,
,visa,,,PLANO,TX,,US,,,,,
,visa,,,PLANO,TX,,US,,,,,
,visa,,,PLAN,TX,,US,,,,,
,visa,,,PLANO,TX,,US,,,,,
,visa,,,PLANO,TX,,US,,,,,
,visa,,,PLANO,TX,,US,,,,,
,visa,,,PLANO,TX,,US,,,,,
,visa,,,DALLAS,TX,,US,,,,,
,visa,,,PLANO,TX,,US,,,,,
,visa,,,PLANO,TX,,US,,,,,
,visa,,,PLANO,TX,,US,,,,,
,visa,,,PLANO,TX,,US,,,,,
,visa,,,PLANO,TX,,US,,,,,
,visa,,,PLANO,TX,,US,,,,,
,visa,,,PLANO,TX,,US,,,,,
,visa,,,PLANO,TX,,US,,,,,
,visa,,,PLANO,TX,,US,,,,,
,visa,,,PLANO,TX,,US,,,,,
,visa,,,PLANO,TX,,US,,,,,
,visa,,,PLANO,TX,,US,,,,,
,visa,,,PLANO,TX,,US,,,,,
,visa,,,PLANO,TX,,US,,,,,
,visa,,,PLANO,TX,,US,,,,,
,visa,,,PLANO,TX,,US,,,,,
https://www.walgreens.com/locator/walgreens-4130+legacy+dr-plano-tx-75024/id=4315,walgreens,Walgreens,,Plano,TX,,US,+1 972-491-5677,https://www.walgreens.com/locator/walgreens-4130+legacy+dr-plano-tx-75024/id=4315,Mo-Su 08:00-21:00,Walgreens,Q1591889
4000__LEGACY__DR_PLANO_TX_75024,wellsfargo,Wells Fargo,4000 LEGACY DR,PLANO,TX,,US,+1 972-341-8815,https://www.wellsfargo.com/locator/bank/4000__LEGACY__DR_PLANO_TX_75024/,Mo-Fr 09:00-17:00,Wells Fargo,Q744149
4f9190d047a9356aa411f4a29f6b16e2,western_union,7-ELEVEN #38244,,Plano,TX,,US,+1 972-806-1045,https://location.westernunion.com/us/tx/plano/4f9190d047a9356aa411f4a29f6b16e2,,Western Union,Q861042
8681838dd984afa1d7c952493f1cc94a,western_union,WALMART #002883,,Plano,TX,,US,+1 972-731-9576,https://location.westernunion.com/us/tx/plano/8681838dd984afa1d7c952493f1cc94a,Mo-Su 07:00-21:00,Western Union,Q861042
https://locations.whataburger.com/tx/plano/6401-coit-rd.html,whataburger,Coit & Stonewood,6401 COIT RD,PLANO,TX,,US,,https://locations.whataburger.com/tx/plano/6401-coit-rd.html,,Whataburger,Q376627
