Ref,Spider,Name,Address,City,State,Zipcode,Country,Phone,Website,Hours,Brand,WikiData
/locations/propane-offices/washington/oak-harbor/668-west-oak-st,amerigas,"AmerGas Propane | Oak Harbor, Washington",,Oak Harbor,WA,,US,+1 360-675-5939,/locations/propane-offices/washington/oak-harbor/668-west-oak-st,,AmeriGas,Q23130318
https://restaurants.applebees.com/en-us/wa/oak-harbor/31810-state-route-20-99048,applebees,Connect with this Applebee's,,Oak Harbor,WA,,US,+1 360-679-6100,https://restaurants.applebees.com/en-us/wa/oak-harbor/31810-state-route-20-99048,Mo-Th 11:00-24:00; Fr-Sa 11:00-01:00; Su 11:00-24:00,Applebees,Q621532
https://locations.arbys.com/wa/oakharbor/32825-state-rd-20.html,arbys_us,"Arby's Fast-Food Drive Through Near You in Oak Harbor, WA",,Oak Harbor,WA,,US,+1 360-675-2245,https://locations.arbys.com/wa/oakharbor/32825-state-rd-20.html,Mo-Su 10:00-22:00,Arby's,Q630866
3385,autozone_us,AutoZone Auto Parts Oak Harbor,,Oak Harbor,WA,,US,+1 360-240-0258,https://www.autozone.com/locations/wa/oak-harbor/31820-hwy-20.html,Mo-Fr 07:30-21:00; Sa 08:00-21:00; Su 08:00-19:00,AutoZone,Q4826087
228342,bluerhino,Global Food Mart,,Oak Harbor,WA,,US,+1 425-293-6498,,,Blue Rhino,Q65681213
174539,bluerhino,BP West Coast Products LLC ARCO AMPM #7057,,Oak Harbor,WA,,US,+1 360-675-0159,,,Blue Rhino,Q65681213
206789,bluerhino,Rite Aid #05247,,Oak Harbor,WA,,US,+1 360-679-3522,,,Blue Rhino,Q65681213
155964,bluerhino,Walgreens #11214,,Oak Harbor,WA,,US,+1 360-675-3497,,,Blue Rhino,Q65681213
0703,carpet_one_floor_and_home_us,Floors Plus Carpet One,,Oak Harbor,WA,,US,+1 360-679-5570,https://www.floorspluscarpetoneoakharbor.com/,,Carpet One Floor & Home,Q121335910
378647,chevron,Chevron Station #378647,960 NE MIDWAY BLVD,OAK HARBOR,WA,,US,+1 360-675-6969,,,Chevron,Q319642
76136,citi,ATM Skagit Valley,,Oak Harbor,WA,,US,,,,Citibank,Q857063
67632,citi,ATM PEOPLES BANK,,Oak Harbor,WA,,US,,,,Citibank,Q857063
75457,citi,ATM SAVIBANK,,Oak Harbor,WA,,US,,,,Citibank,Q857063
29148,citi,ATM 7ELEVEN-FCTI,,Oak Harbor,WA,,US,,,,Citibank,Q857063
73223,citi,ATM Rite Aid,,Oak Harbor,WA,,US,,,,Citibank,Q857063
90091,citi,ATM Walgreens,,Oak Harbor,WA,,US,,,,Citibank,Q857063
28980,citi,ATM 7ELEVEN-FCTI,,Oak Harbor,WA,,US,,,,Citibank,Q857063
59311,citi,ATM HERITAGE BANK,,Oak Harbor,WA,,US,,,,Citibank,Q857063
,credit_union_us,Global FCU,,Oak Harbor,WA,,US,+1 800-525-9094,,Mo-Fr 10:00-06:00,,
7124,dominos_pizza_us,Domino's Pizza,,Oak Harbor,WA,,US,+1 360-679-4141,https://pizza.dominos.com/washington/oak-harbor/270-se-cabot-dr-1,Mo-Th 10:00-24:00; Fr-Sa 10:00-01:00; Su 10:00-24:00,Domino's,Q839466
https://www.edwardjones.com/us-en/financial-advisor/aaron-tabor,edwardjones,Aaron M Tabor,,Oak Harbor,WA,,US,+1 360-679-2304,https://www.edwardjones.com/us-en/financial-advisor/aaron-tabor,Mo-Th 08:30-16:30; Fr 08:30-13:00,Edward Jones,Q5343830
E14534,enterprise,Oak Harbor,,Oak Harbor,WA,,US,+1 360-675-6052,,,Enterprise Rent-A-Car,Q17085454
https://local.fedex.com/#25477319,fedex,,,Oak Harbor,WA,,US,+1 800-463-3339,https://local.fedex.com/en-us/wa/oak-harbor/odwob,,FedEx,Q459477
https://local.fedex.com/#25202150,fedex,,,Oak Harbor,WA,,US,+1 800-463-3339,https://local.fedex.com/en-us/wa/oak-harbor/kwcza,,FedEx,Q459477
https://local.fedex.com/#27764881,fedex,FedEx Authorized ShipCenter,,Oak Harbor,WA,,US,+1 360-679-5519,https://local.fedex.com/en-us/wa/oak-harbor/86679,,FedEx,Q459477
6784,gamestop_us,Island Plaza Shopping Center,,Oak Harbor,WA,,US,+1 360-240-1457,https://www.gamestop.com/search/?store=6784,Mo-Th 11:00-19:00; Fr-Sa 10:00-21:00; Su 11:00-19:00,GameStop,Q202210
https://salons.greatclips.com/us/wa/oak-harbor/31595-state-route-20,greatclips,Great Clips,,Oak Harbor,WA,,US,+1 360-675-8900,https://salons.greatclips.com/us/wa/oak-harbor/31595-state-route-20,Mo-Fr 08:30-18:30; Sa 08:30-17:30; Su 09:00-16:00,Great Clips,Q5598967
https://local.haggen.com/#5603611,haggen,Haggen,,Oak Harbor,WA,,US,+1 360-679-8058,https://local.haggen.com/wa/oak-harbor/31565-state-route-20.html,Mo-Su 06:00-22:00,Haggen,Q5638683
https://www.harborfreight.com/storelocator/775-ne-koetje-street-oak-harbor-98277?number=3285,harborfreight,"Harbor Freight Tools Oak Harbor, WA",,Oak Harbor,WA,,US,+1 360-682-1212,https://www.harborfreight.com/storelocator/775-ne-koetje-street-oak-harbor-98277?number=3285,Mo-Sa 08:00-20:00; Su 09:00-18:00,Harbor Freight Tools,Q5654601
14422,h_r_block,H&R Block,,Oak Harbor,WA,,US,+1 360-675-9588,https://www.hrblock.com/local-tax-offices/washington/oak-harbor/1331-sw-barlow-st/14422/,,H&R Block,Q5627799
wa_oak-harbor_breakfast-31270-state-route-20-3851,ihop,IHOP Breakfast Restaurants Near You at 31270 State Route 20,,Oak Harbor,WA,,US,,https://restaurants.ihop.com/en-us/wa/oak-harbor/breakfast-31270-state-route-20-3851,Mo-Th 06:00-22:00; Fr-Sa 06:00-00:00; Su 06:00-22:00,IHOP,Q1185675
https://locations.jackinthebox.com/us/wa/oak-harbor/32205-state-route-20,jackinthebox,Jack in the Box,,Oak Harbor,WA,,US,+1 360-675-1768,https://locations.jackinthebox.com/us/wa/oak-harbor/32205-state-route-20,Mo-Su 04:00-04:00,Jack in the Box,Q1538507
https://office.jacksonhewitt.com/#27575499,jackson_hewitt,Jackson Hewitt,,Oak Harbor,WA,,US,+1 360-639-4436,https://office.jacksonhewitt.com/tax-preparation-services-locations/en/wa/oak-harbor/1250-sw-erie-street/52319,Mo-Sa 11:00-19:00; Su 12:00-16:00,Jackson Hewitt,Q6117132
134825,little_free_library,Crescent Harbor Elementary Library East #134825 Oak Harbor WA,,Oak Harbor,WA,,US,,,,Little Free Library,Q6650101
134824,little_free_library,Crescent Harbor Elementary Library West #134824 Oak Harbor WA,,Oak Harbor,WA,,US,,,,Little Free Library,Q6650101
171055,little_free_library,Camper van Bookmobile #171055 Oak Harbor WA,,Oak Harbor,WA,,US,,,,Little Free Library,Q6650101
170120,little_free_library,Leslie’s Little Library #170120 Oak Harbor WA,,Oak Harbor,WA,,US,,,,Little Free Library,Q6650101
94418,little_free_library,Douglas Street Little Free Library #94418 Oak Harbor WA,,Oak Harbor,WA,,US,,,,Little Free Library,Q6650101
177972,little_free_library,Leslie Stoner #177972 #177972 Oak Harbor WA,,Oak Harbor,WA,,US,,,,Little Free Library,Q6650101
16520,little_free_library,Molly Peterson #16520 Oak Harbor WA,,Oak Harbor,WA,,US,,,,Little Free Library,Q6650101
145089,little_free_library,Angela Prosser #145089 #145089 Oak Harbor WA,,Oak Harbor,WA,,US,,,,Little Free Library,Q6650101
34073,little_free_library,Virginia’s little Library #34073 Oak Harbor WA,,Oak Harbor,WA,,US,,,,Little Free Library,Q6650101
117411,little_free_library,Fireside Neighbors #117411 Oak Harbor WA,,Oak Harbor,WA,,US,,,,Little Free Library,Q6650101
149491,little_free_library,Magical Little Free Library #149491 Oak Harbor WA,,Oak Harbor,WA,,US,,,,Little Free Library,Q6650101
22672,little_free_library,Melissa Bader #22672 Oak Harbor #22672 Oak Harbor WA,,Oak Harbor,WA,,US,,,,Little Free Library,Q6650101
159825,little_free_library,Little Free Library #159825 Oak Harbor WA,,Oak Harbor,WA,,US,,,,Little Free Library,Q6650101
154699,little_free_library,The Little Free Library of Solitude #154699 Oak Harbor WA,,Oak Harbor,WA,,US,,,,Little Free Library,Q6650101
https://locations.maurices.com/#11688984,maurices,maurices Island Plaza Ste 8,,Oak Harbor,WA,,US,+1 360-679-2312,https://locations.maurices.com/us/wa/oak-harbor/31595-wa-20,Mo-Sa 10:00-19:00; Su 11:00-18:00,maurices,Q6793571
https://locations.modpizza.com/#23558118,modpizza,MOD Pizza Whidbey Island Place,,Oak Harbor,WA,,US,+1 360-968-6255,https://locations.modpizza.com/usa/wa/oak-harbor/31270-sr-20,Mo-We 10:30-22:00; Th-Sa 10:30-23:00; Su 10:30-22:00,MOD Pizza,Q19903469
https://locations.oreillyauto.com/wa/oakharbor/check-engine-light-testing-2532.html,oreilly,Your Oak Harbor O'Reilly Auto Parts Store,,Oak Harbor,WA,,US,+1 360-679-6610,https://locations.oreillyauto.com/wa/oakharbor/check-engine-light-testing-2532.html,Mo-Sa 07:30-21:00; Su 08:00-20:00,O'Reilly Auto Parts,Q7071951
https://locations.oreillyauto.com/wa/oakharbor/wiper-installation-2532.html,oreilly,Your Oak Harbor O'Reilly Auto Parts Store,,Oak Harbor,WA,,US,+1 360-679-6610,https://locations.oreillyauto.com/wa/oakharbor/wiper-installation-2532.html,Mo-Sa 07:30-21:00; Su 08:00-20:00,O'Reilly Auto Parts,Q7071951
https://locations.oreillyauto.com/wa/oakharbor/battery-testing-2532.html,oreilly,Your Oak Harbor O'Reilly Auto Parts Store,,Oak Harbor,WA,,US,+1 360-679-6610,https://locations.oreillyauto.com/wa/oakharbor/battery-testing-2532.html,Mo-Sa 07:30-21:00; Su 08:00-20:00,O'Reilly Auto Parts,Q7071951
https://locations.oreillyauto.com/wa/oakharbor/autopartes-2532.html,oreilly,Tu tienda O'Reilly Auto Parts en Oak Harbor,,Oak Harbor,WA,,US,+1 360-679-6610,https://locations.oreillyauto.com/wa/oakharbor/autopartes-2532.html,Mo-Sa 07:30-21:00; Su 08:00-20:00,O'Reilly Auto Parts,Q7071951
https://locations.papamurphys.com/#15429777,papamurphys,Pizza Takeout & Delivery,,Oak Harbor,WA,,US,+1 360-675-5505,https://locations.papamurphys.com/wa/oak-harbor/1100-sw-bowmer-street-b101,Mo-Th 11:00-20:00; Fr-Sa 11:00-20:30; Su 11:00-20:00,Papa Murphy's,Q7132349
https://locations.papajohns.com/#10691520,papa_johns,Papa John's,,Oak Harbor,WA,,US,+1 360-679-0909,https://locations.papajohns.com/united-states/wa/98277/oak-harbor/31239-state-route-20,Mo-Th 09:45-23:00; Fr-Sa 09:45-24:00; Su 09:45-23:00,Papa John's Pizza,Q2759586
623123,penske,Mariner Self Storage,,OAK HARBOR,WA,,US,+1 360-679-9607,https://www.pensketruckrental.com/locations/us/washington/oak_harbor/623123/,,Penske,Q81234570
0000895745,phillips_66_conoco_76,CROSSROADS,,OAK HARBOR,WA,,US,+1 360-679-0407,,,U76,Q1658320
wa_oak-harbor_32185-state-route-20,pizza_hut_us,32185 State Route 20,,Oak Harbor,WA,,US,+1 360-675-3800,https://locations.pizzahut.com/wa/oak-harbor/32185-state-route-20,,Pizza Hut,Q191615
home-depot-8563-9714,ppgpaints,HOME DEPOT 8563,,"Oak Harbor, ",WA,,US,+1 360-675-0105,https://www.ppgpaints.com/store-locator/us/washington/oak-harbor-paint-stores/home-depot-8563-9714,,PPG Paints,Q83891559
frontier-building-supply-26204,ppgpaints,FRONTIER BUILDING SUPPLY,,"Oak Harbor, ",WA,,US,+1 360-675-7790,https://www.ppgpaints.com/store-locator/us/washington/oak-harbor-paint-stores/frontier-building-supply-26204,,PPG Paints,Q83891559
05247,rite_aid_us,Rite Aid #05247 Oak Harbor,,Oak Harbor,WA,,US,+1 360-679-3522,https://locations2.riteaid.com.yext-cdn.com/wa/oak-harbor/31645-state-route-20.html,Mo-Su 08:00-22:00,Rite Aid,Q3433273
https://local.pharmacy.safeway.com/#5673678,safeway,Safeway Pharmacy,,Oak Harbor,WA,,US,+1 360-240-1063,https://local.pharmacy.safeway.com/safeway/wa/oak-harbor/1450-sw-erie-st.html,,Safeway,Q1508234
https://local.safeway.com/#5604616,safeway,Safeway,,Oak Harbor,WA,,US,+1 360-279-8828,https://local.safeway.com/safeway/wa/oak-harbor/1450-sw-erie-st.html,,Safeway,Q1508234
https://local.fuel.safeway.com/#9073387,safeway,Safeway Fuel Station,,Oak Harbor,WA,,US,+1 360-279-8828,https://local.fuel.safeway.com/safeway/wa/oak-harbor/31525-state-route-20.html,Mo-Su 07:00-23:00,Safeway,Q1508234
https://restaurants.subway.com/#14900028,subway,Subway Wal-Mart #2319,,Oak Harbor Island,WA,,US,+1 360-682-5831,https://restaurants.subway.com/united-states/wa/oak-harbor/1250-sw-erie-street,Mo-Su 08:00-21:00,Subway,Q244457
https://restaurants.subway.com/#14904852,subway,Subway Harbor Towne Center,,Oak Harbor Island County,WA,,US,+1 360-675-5304,https://restaurants.subway.com/united-states/wa/oak-harbor/32209-n-state-hwy-20,Mo-Su 08:00-22:00,Subway,Q244457
82408,supercuts,Bayview Plaza,31239 State Route 20 Ste 104,Oak Harbor,WA,,US,+1 360-720-2060,https://www.supercuts.com/checkin/82408,Mo 10:00-18:00; Tu-Sa 09:00-18:00; Su 10:00-18:00,Supercuts,Q7643239
https://locations.tacobell.com/#6144185,taco_bell,Taco Bell,,Oak Harbor,WA,,US,+1 360-675-6868,https://locations.tacobell.com/wa/oak-harbor/32780-state-highway-20.html,Mo-Th 07:00-01:00; Fr-Sa 07:00-02:00; Su 07:00-01:00,Taco Bell,Q752941
4822,tmobile_us,Sr 20 & Pioneer Way,,Oak Harbor,WA,,US,+1 360-682-5922,https://www.t-mobile.com/store-locator/wa/oak-harbor/sr-20-pioneer-way,,T-Mobile,Q3511885
050068,uhaul,Global Food Mart,40928 State Rte 20,Oak Harbor,WA,,US,+1 360-639-4851,,Mo-Fr 00:00-16:00; Sa 00:00-14:00,U-Haul,Q7862902
047603,uhaul,Veracity Motors LLC,1009 Ault Field Rd,Oak Harbor,WA,,US,+1 360-679-0607,,Mo-Fr 00:00-17:00; Sa 00:00-24:00,U-Haul,Q7862902
801072,uhaul,U-Haul Storage of Oak Harbor,3000 NE Whitney Dr,Oak Harbor,WA,,US,+1 360-675-7992,,Mo-Th 00:00-19:00; Fr 00:00-20:00; Sa 00:00-19:00; Su 00:00-17:00,U-Haul,Q7862902
025617,uhaul,JA Tran Auto Glass,3004 NE Goldie St,Oak Harbor,WA,,US,+1 360-679-5084,,Mo-Fr 00:00-17:00; Sa 30:00-22:00,U-Haul,Q7862902
6604,upsstore,Harbor Station,32650 Sr 20 Ste B-102,Oak Harbor,WA,,US,+1 360-720-2220,https://locations.theupsstore.com/wa/oak-harbor/32650-sr-20,,UPS Store,Q7771029
1375713,usps,OAK HARBOR,,OAK HARBOR,WA,,US,+1 360-240-1499,,Mo-Fr 09:00-17:00,United States Postal Service,Q668687
9827700013,usps_collection_boxes,USPS COLLECTION BOX - BLUE BOX,17 NAVY SEAPLANE BASE,OAK HARBOR,WA,,US,,,,United States Postal Service,Q668687
9827700008,usps_collection_boxes,USPS COLLECTION BOX - BLUE BOX,551 NE MIDWAY BLVD,OAK HARBOR,WA,,US,,,,United States Postal Service,Q668687
9827700010,usps_collection_boxes,USPS COLLECTION BOX - BLUE BOX,865 SE BARRINGTON DR,OAK HARBOR,WA,,US,,,,United States Postal Service,Q668687
9827700000,usps_collection_boxes,USPS COLLECTION BOX - BLUE BOX,32199 SR 20,OAK HARBOR,WA,,US,,,,United States Postal Service,Q668687
9827700020,usps_collection_boxes,USPS COLLECTION BOX - BLUE BOX,275 SE CABOT DR STE A1,OAK HARBOR,WA,,US,,,,United States Postal Service,Q668687
9827700015,usps_collection_boxes,USPS COLLECTION BOX - PO LOBBY,1155 SE CITY BEACH ST,OAK HARBOR,WA,,US,,,,United States Postal Service,Q668687
9827700017,usps_collection_boxes,USPS COLLECTION BOX - BLUE BOX,1155 SE CITY BEACH ST,OAK HARBOR,WA,,US,,,,United States Postal Service,Q668687
9827700021,usps_collection_boxes,USPS COLLECTION BOX - APC,1155 SE CITY BEACH ST,OAK HARBOR,WA,,US,,,,United States Postal Service,Q668687
9827700022,usps_collection_boxes,USPS COLLECTION BOX - PO LOBBY,1155 SE CITY BEACH ST,OAK HARBOR,WA,,US,,,,United States Postal Service,Q668687
9827700003,usps_collection_boxes,USPS COLLECTION BOX - BLUE BOX,361 SE PIONEER WAY,OAK HARBOR,WA,,US,,,,United States Postal Service,Q668687
9827700001,usps_collection_boxes,USPS COLLECTION BOX - BLUE BOX,31565 STATE ROUTE 20,OAK HARBOR,WA,,US,,,,United States Postal Service,Q668687
9827700019,usps_collection_boxes,USPS COLLECTION BOX - BLUE BOX,1250 SW ERIE ST,OAK HARBOR,WA,,US,,,,United States Postal Service,Q668687
A00000015166,verizon_us,Victra Oak Harbor SR 20,,OAK HARBOR,WA,,US,+1 360-679-8610,https://www.verizon.com/stores/details/washington/oak-harbor/gowireless-oak-harbor-sr-20-1741022/,Mo-Sa 10:00-19:00,Verizon,Q919641
,visa,,,OAK HARBOR,WA,,US,,,,,
,visa,,,OAK HARBOR,WA,,US,,,,,
,visa,,,OAK HARBOR,WA,,US,,,,,
,visa,,,OAK HARBOR,WA,,US,,,,,
,visa,,,OAK HARBOR,WA,,US,,,,,
,visa,,,OAK HARBOR,WA,,US,,,,,
,visa,,,OAK HARBOR,WA,,US,,,,,
,visa,,,OAK HARBOR,WA,,US,,,,,
,visa,,,OAK HARBOR,WA,,US,,,,,
,visa,,,OAK HARBOR,WA,,US,,,,,
,visa,,,OAK HARBOR,WA,,US,,,,,
,visa,,,OAK HARBOR,WA,,US,,,,,
,visa,,,OAK HARBOR,WA,,US,,,,,
,visa,,,OAK HARBOR,WA,,US,,,,,
,visa,,,OAK HARBOR,WA,,US,,,,,
,visa,,,OAK HARBOR,WA,,US,,,,,
,visa,,,OAK HARBOR,WA,,US,,,,,
,visa,,,OAK HARBOR,WA,,US,,,,,
,visa,,,OAK HARBOR,WA,,US,,,,,
,visa,,,OAK HARBOR,WA,,US,,,,,
,visa,,,OAK HARBOR,WA,,US,,,,,
,visa,,,OAKHARBOR,WA,,US,,,,,
,visa,,,OAK HARBOR,WA,,US,,,,,
,visa,,,OAK HARBOR,WA,,US,,,,,
,visa,,,OAK HARBOR,WA,,US,,,,,
,visa,,,OAK HARBOR,WA,,US,,,,,
,visa,,,OAK HARBOR,WA,,US,,,,,
,visa,,,OAK HARBOR,WA,,US,,,,,
,visa,,,OAK HARBOR,WA,,US,,,,,
,visa,,,OAK HARBOR,WA,,US,,,,,
,visa,,,OAK HARBOR,WA,,US,,,,,
,visa,,,OAK HARBOR,WA,,US,,,,,
,visa,,,OAK HARBOR,WA,,US,,,,,
,visa,,,OAK HARBOR,WA,,US,,,,,
,visa,,,OAK HARBOR,WA,,US,,,,,
,visa,,,OAK HARBOR,WA,,US,,,,,
,visa,,,OAK HARBOR,WA,,US,,,,,
,visa,,,OAK HARBOR,WA,,US,,,,,
,visa,,,OAK HARBOR,WA,,US,,,,,
,visa,,,OAK HARBOR,WA,,US,,,,,
,visa,,,OAK HARBOR,WA,,US,,,,,
,visa,,,OAK HARBOR,WA,,US,,,,,
,visa,,,OAK HARBOR,WA,,US,,,,,
https://www.walgreens.com/locator/walgreens-31490+state+route+20-oak+harbor-wa-98277/id=11214,walgreens,Walgreens,,Oak Harbor,WA,,US,+1 360-675-3497,https://www.walgreens.com/locator/walgreens-31490+state+route+20-oak+harbor-wa-98277/id=11214,Mo-Su 07:00-22:00,Walgreens,Q1591889
361__SE__PIONEER__WAY_OAK__HARBOR_WA_98277,wellsfargo,Wells Fargo,361 SE PIONEER WAY,OAK HARBOR,WA,,US,+1 360-675-2252,https://www.wellsfargo.com/locator/bank/361__SE__PIONEER__WAY_OAK__HARBOR_WA_98277/,Mo-Fr 09:00-17:00,Wells Fargo,Q744149
https://locations.wendys.com/#9254569,wendys,"Wendy's Oak Harbor in Oak Harbor, WA",,Oak Harbor,WA,,US,+1 360-675-1333,https://locations.wendys.com/united-states/wa/oak-harbor/31255-s-r-20,"Mo-Su 06:30-10:30,09:00-22:00",Wendy's,Q550258
51eef9340d6349242841d9f7de36df17,western_union,WALMART #002319,,Oak Harbor,WA,,US,+1 360-279-0665,https://location.westernunion.com/us/wa/oak-harbor/51eef9340d6349242841d9f7de36df17,Mo-Su 07:00-21:00,Western Union,Q861042
oak-harbor-sr20,whidbeycoffee,Oak Harbor - SR20 Coffee Shop,31275 SR 20,Oak Harbor,WA,,US,+1 360-279-8165,https://www.whidbeycoffee.com/pages/oak-harbor-sr20,Mo-Sa 05:30-20:00; Su 06:30-19:00,Whidbey Coffee,
oak-harbor-pioneer-way,whidbeycoffee,Oak Harbor - Pioneer Way Coffee Shop,980 SE Pioneer Way,Oak Harbor,WA,,US,+1 360-679-1162,https://www.whidbeycoffee.com/pages/oak-harbor-pioneer-way,Mo-Fr 05:30-19:00; Sa 06:00-19:00; Su 06:30-18:00,Whidbey Coffee,
135353,wingstop,Wingstop Oak Harbor W Pioneer Way,31270 WA-20,Oak Harbor,WA,,US,+1 360-682-0700,,,Wingstop,Q8025339
