Ref,Spider,Name,Address,City,State,Zipcode,Country,Phone,Website,Hours,Brand,WikiData
1663,first_cash,First Cash Pawn,,Matías Romero Avendaño,Oaxaca,,MX,+52 972 722 3394,,,First Cash Pawn,
,visa,,,OAXACA,OAXACA,,MX,,,,,
,visa,,,MATIAS ROMERO AVENDANO,OAXACA,,MX,,,,,
,visa,,,MATIAS ROMERO,OAXACA,,MX,,,,,
,visa,,,MATIAS ROMERO,OAXACA,,MX,,,,,
,visa,,,MATIAS ROMERO AVENDANO,OAXACA,,MX,,,,,
,visa,,,MATÍAS ROMERO,OAXACA,,MX,,,,,
,visa,,,MATIAS ROMERO AVENDANO,OAXACA,,MX,,,,,
,visa,,,MATIAS ROMERO,OAXACA,,MX,,,,,
f20648ee0a7abe4271a474707a9ddd01,western_union,EXPRESS STORE,,Matias Romero,OAXACA,,MX,+52 81 2133 2160,https://location.westernunion.com/mx/oaxaca/matias-romero/f20648ee0a7abe4271a474707a9ddd01,Mo-Sa 10:00-21:00,Western Union,Q861042
0445219c2023857d44986c6fe60a19f4,western_union,EXPRESS STORE,,Matias Romero,OAXACA,,MX,+52 81 2133 2160,https://location.westernunion.com/mx/oaxaca/matias-romero/0445219c2023857d44986c6fe60a19f4,Mo-Sa 10:00-21:00,Western Union,Q861042
2047bbe09aa6e667c7df6739351189cc,western_union,OXXO HOMBRES ILUSTRES OAX,,Matias Romero,OAXACA,,MX,+52 81 8389 2121,https://location.westernunion.com/mx/oaxaca/matias-romero/2047bbe09aa6e667c7df6739351189cc,Mo-Su 08:00-22:00,Western Union,Q861042
411778fd22a93a285bc78bee7a5e52c2,western_union,OXXO HOMBRES ILUSTRES OAX,,Matias Romero,OAXACA,,MX,+52 81 8389 2121,https://location.westernunion.com/mx/oaxaca/matias-romero/411778fd22a93a285bc78bee7a5e52c2,Mo-Su 08:00-22:00,Western Union,Q861042
d5732bcf15338c50f83230f6222de60f,western_union,OXXO HOMBRES ILUSTRES OAX,,Matias Romero,OAXACA,,MX,+52 81 8389 2121,https://location.westernunion.com/mx/oaxaca/matias-romero/d5732bcf15338c50f83230f6222de60f,Mo-Su 08:00-22:00,Western Union,Q861042
615206167b4635c79dd8af6e7bbdab95,western_union,FINAGAM MATIAS ROMERO,,Matias Romero,OAXACA,,MX,+52 972 722 3334,https://location.westernunion.com/mx/oaxaca/matias-romero/615206167b4635c79dd8af6e7bbdab95,Mo-Fr 09:00-18:00; Sa 09:00-13:00,Western Union,Q861042
8044aa6314f038fb98e120ac6671fdde,western_union,FINAGAM MATIAS ROMERO,,Matias Romero,OAXACA,,MX,+52 972 722 3334,https://location.westernunion.com/mx/oaxaca/matias-romero/8044aa6314f038fb98e120ac6671fdde,Mo-Fr 09:00-18:00; Sa 09:00-13:00,Western Union,Q861042
ac80d8597faa52ac614e2dcfe6516fe5,western_union,FINAGAM MATIAS ROMERO,,Matias Romero,OAXACA,,MX,+52 972 722 3334,https://location.westernunion.com/mx/oaxaca/matias-romero/ac80d8597faa52ac614e2dcfe6516fe5,Mo-Fr 09:00-18:00; Sa 09:00-13:00,Western Union,Q861042
6c74145f8bcd0babbe92aac4693ae9de,western_union,ELEKTRA PPR 5147,,Matias Romero,OAXACA,,MX,+52 55 1720 8177,https://location.westernunion.com/mx/oaxaca/matias-romero/6c74145f8bcd0babbe92aac4693ae9de,Mo-Su 09:00-21:00,Western Union,Q861042
9e36ca481a6657bed041d0d06a6b922d,western_union,ELEKTRA PPR 5147,,Matias Romero,OAXACA,,MX,+52 55 1720 8177,https://location.westernunion.com/mx/oaxaca/matias-romero/9e36ca481a6657bed041d0d06a6b922d,Mo-Su 09:00-21:00,Western Union,Q861042
84d30b2c7929707cb0f802c45a01d46b,western_union,ELEKTRA PPR 5147,,Matias Romero,OAXACA,,MX,+52 55 1720 8177,https://location.westernunion.com/mx/oaxaca/matias-romero/84d30b2c7929707cb0f802c45a01d46b,Mo-Su 09:00-21:00,Western Union,Q861042
2c1529a2bd381a6ad7591e936044ea8a,western_union,FARM GUAD MATIAS ROMERO CENTRO,,Matias Romero,OAXACA,,MX,+52 800 833 4700,https://location.westernunion.com/mx/oaxaca/matias-romero/2c1529a2bd381a6ad7591e936044ea8a,Mo-Su 08:00-22:00,Western Union,Q861042
24c3c4bd08c56532b32de397989e6733,western_union,FARM GUAD MATIAS ROMERO CENTRO,,Matias Romero,OAXACA,,MX,+52 800 833 4700,https://location.westernunion.com/mx/oaxaca/matias-romero/24c3c4bd08c56532b32de397989e6733,Mo-Su 08:00-22:00,Western Union,Q861042
0503b70e96584e4685cadefbb99882e9,western_union,BANCOPPEL 1079 HOMBRES ILUSTRE,,Matias Romero,OAXACA,,MX,+52 972 722 0621,https://location.westernunion.com/mx/oaxaca/matias-romero/0503b70e96584e4685cadefbb99882e9,Mo-Su 08:30-21:00,Western Union,Q861042
fefe121cdb34fa694e4da657fdfc153e,western_union,BANCOPPEL 1079 HOMBRES ILUSTRE,,Matias Romero,OAXACA,,MX,+52 972 722 0621,https://location.westernunion.com/mx/oaxaca/matias-romero/fefe121cdb34fa694e4da657fdfc153e,Mo-Su 08:30-21:00,Western Union,Q861042
060e44868324548038a01153a44f4a56,western_union,BANCOPPEL 1079 HOMBRES ILUSTRE,,Matias Romero,OAXACA,,MX,+52 972 722 0621,https://location.westernunion.com/mx/oaxaca/matias-romero/060e44868324548038a01153a44f4a56,Mo-Su 08:30-21:00,Western Union,Q861042
5e80b4d5eebe635d24478cfcf3d1c653,western_union,OXXO AYUNTAMIENTO OAX,,Matias Romero,OAXACA,,MX,+52 81 8389 2121,https://location.westernunion.com/mx/oaxaca/matias-romero/5e80b4d5eebe635d24478cfcf3d1c653,Mo-Su 08:00-22:00,Western Union,Q861042
046d4f730fa2ec1de318d733d573383b,western_union,OXXO AYUNTAMIENTO OAX,,Matias Romero,OAXACA,,MX,+52 81 8389 2121,https://location.westernunion.com/mx/oaxaca/matias-romero/046d4f730fa2ec1de318d733d573383b,Mo-Su 08:00-22:00,Western Union,Q861042
83953522dead5f76c8956d90f5d68a67,western_union,OXXO AYUNTAMIENTO OAX,,Matias Romero,OAXACA,,MX,+52 81 8389 2121,https://location.westernunion.com/mx/oaxaca/matias-romero/83953522dead5f76c8956d90f5d68a67,Mo-Su 08:00-22:00,Western Union,Q861042
5a38d1e6835269615007fa5e912deeea,western_union,BANORTE 03565 MATIAS ROMERO,,Matias Romero,OAXACA,,MX,+52 800 833 4700,https://location.westernunion.com/mx/oaxaca/matias-romero/5a38d1e6835269615007fa5e912deeea,Mo-Sa 09:00-17:00,Western Union,Q861042
966c3e4d8b8bba0d30a280f49414f48b,western_union,FUNDACION DONDE MATIAS ROMERO ID325,,Matias Romero,OAXACA,,MX,+52 999 940 7550,https://location.westernunion.com/mx/oaxaca/matias-romero/966c3e4d8b8bba0d30a280f49414f48b,Mo-Su 08:00-20:00,Western Union,Q861042
f8db8db1f321a943bf588a64136022bf,western_union,FUNDACION DONDE MATIAS ROMERO ID325,,Matias Romero,OAXACA,,MX,+52 999 940 7550,https://location.westernunion.com/mx/oaxaca/matias-romero/f8db8db1f321a943bf588a64136022bf,Mo-Su 08:00-20:00,Western Union,Q861042
1374eacf74175daf6c36b3fdf962544a,western_union,FUNDACION DONDE MATIAS ROMERO ID325,,Matias Romero,OAXACA,,MX,+52 999 940 7550,https://location.westernunion.com/mx/oaxaca/matias-romero/1374eacf74175daf6c36b3fdf962544a,Mo-Su 08:00-20:00,Western Union,Q861042
262278db0d8cee83fc30ce8f602737e4,western_union,FARM GUAD MATIAS ROMERO CENTRO,,Matias Romero,OAXACA,,MX,+52 800 833 4700,https://location.westernunion.com/mx/oaxaca/matias-romero/262278db0d8cee83fc30ce8f602737e4,Mo-Su 08:00-22:00,Western Union,Q861042
bf90f391c11f52be5f6001dbec2adbb2,western_union,ELEKTRA 4239,,Matias Romero,OAXACA,,MX,+52 55 1720 8177,https://location.westernunion.com/mx/oaxaca/matias-romero/bf90f391c11f52be5f6001dbec2adbb2,Mo-Su 09:00-21:00,Western Union,Q861042
d6eb4f67ca48d3137193386a8a050dd5,western_union,ELEKTRA 4239,,Matias Romero,OAXACA,,MX,+52 55 1720 8177,https://location.westernunion.com/mx/oaxaca/matias-romero/d6eb4f67ca48d3137193386a8a050dd5,Mo-Su 09:00-21:00,Western Union,Q861042
a6bb8f59fefa3731de3a6914f8e4a532,western_union,ELEKTRA 4239,,Matias Romero,OAXACA,,MX,+52 55 1720 8177,https://location.westernunion.com/mx/oaxaca/matias-romero/a6bb8f59fefa3731de3a6914f8e4a532,Mo-Su 09:00-20:00,Western Union,Q861042
fa96ad1e5c23717a241176afbabab8ca,western_union,OXXO FERROCARRIL OAX,,Matias Romero,OAXACA,,MX,+52 81 8389 2121,https://location.westernunion.com/mx/oaxaca/matias-romero/fa96ad1e5c23717a241176afbabab8ca,Mo-Su 08:00-22:00,Western Union,Q861042
6a4683441c668edad28c31108252625e,western_union,OXXO FERROCARRIL OAX,,Matias Romero,OAXACA,,MX,+52 81 8389 2121,https://location.westernunion.com/mx/oaxaca/matias-romero/6a4683441c668edad28c31108252625e,Mo-Su 08:00-22:00,Western Union,Q861042
db71f399083d893bbe962fb607bb2c58,western_union,OXXO FERROCARRIL OAX,,Matias Romero,OAXACA,,MX,+52 81 8389 2121,https://location.westernunion.com/mx/oaxaca/matias-romero/db71f399083d893bbe962fb607bb2c58,Mo-Su 08:00-22:00,Western Union,Q861042
f5d9da9b3af10ef63998a9f61b330325,western_union,AURRERA MATIAS ROMERO 5427,,Matias Romero,OAXACA,,MX,+52 800 833 4700,https://location.westernunion.com/mx/oaxaca/matias-romero/f5d9da9b3af10ef63998a9f61b330325,Mo-Su 07:00-23:00,Western Union,Q861042
558ce72657e5f1770d012d977b4f7256,western_union,AURRERA MATIAS ROMERO 5427,,Matias Romero,OAXACA,,MX,+52 800 833 4700,https://location.westernunion.com/mx/oaxaca/matias-romero/558ce72657e5f1770d012d977b4f7256,Mo-Su 07:00-23:00,Western Union,Q861042
05fc17e75cc2368aafaacd90cae72184,western_union,AURRERA MATIAS ROMERO 5427,,Matias Romero,OAXACA,,MX,+52 800 833 4700,https://location.westernunion.com/mx/oaxaca/matias-romero/05fc17e75cc2368aafaacd90cae72184,Mo-Su 07:00-23:00,Western Union,Q861042
a163cd0b1105ec7c61f26cb61f16a148,western_union,BANORTE 03565 MATIAS ROMERO,,Matias Romero,OAXACA,,MX,+52 800 833 4700,https://location.westernunion.com/mx/oaxaca/matias-romero/a163cd0b1105ec7c61f26cb61f16a148,Mo-Sa 09:00-17:00,Western Union,Q861042
d95654b5f5648f3f6357a8804397dd26,western_union,TELECOMM 20009,,Matias Romero,OAXACA,,MX,+52 800 800 8930,https://location.westernunion.com/mx/oaxaca/matias-romero/d95654b5f5648f3f6357a8804397dd26,Mo-Su 09:00-20:00,Western Union,Q861042
ecf3202499cae434256cef1697432a0c,western_union,TELECOMM 20009,,Matias Romero,OAXACA,,MX,+52 800 800 9889,https://location.westernunion.com/mx/oaxaca/matias-romero/ecf3202499cae434256cef1697432a0c,Mo-Fr 09:00-15:00,Western Union,Q861042
2d94d3f890ab2dc5ff5932965a998b35,western_union,TELECOMM 20009,,Matias Romero,OAXACA,,MX,+52 800 800 8930,https://location.westernunion.com/mx/oaxaca/matias-romero/2d94d3f890ab2dc5ff5932965a998b35,Mo-Sa 09:00-21:00,Western Union,Q861042
