Ref,Spider,Name,Address,City,State,Zipcode,Country,Phone,Website,Hours,Brand,WikiData
https://365discount.coop.dk/find-butik/365discount-roskilde-hyrdehoej/24430/,365_discount_dk,365discount Roskilde Hyrdehøj,,Roskilde,,,DK,+45 46 31 01 03,https://365discount.coop.dk/find-butik/365discount-roskilde-hyrdehoej/24430/,,365discount,Q104671354
https://365discount.coop.dk/find-butik/365discount-roskilde-trekronercent/24451/,365_discount_dk,"365discount Roskilde, Trekronercent",,Roskilde,,,DK,+45 46 76 76 01,https://365discount.coop.dk/find-butik/365discount-roskilde-trekronercent/24451/,,365discount,Q104671354
https://365discount.coop.dk/find-butik/365discount-roskilde-sct-joergensbjerg/24387/,365_discount_dk,365discount Roskilde Sct. Jørgensbjerg,,Roskilde,,,DK,+45 46 31 00 33,https://365discount.coop.dk/find-butik/365discount-roskilde-sct-joergensbjerg/24387/,,365discount,Q104671354
https://365discount.coop.dk/find-butik/365discount-roskilde-astersvej/24397/,365_discount_dk,"365discount Roskilde, Astersvej",,Roskilde,,,DK,+45 46 36 65 06,https://365discount.coop.dk/find-butik/365discount-roskilde-astersvej/24397/,,365discount,Q104671354
https://365discount.coop.dk/find-butik/365discount-aagerup/24573/,365_discount_dk,365discount Ågerup,,Roskilde,,,DK,+45 46 76 89 75,https://365discount.coop.dk/find-butik/365discount-aagerup/24573/,,365discount,Q104671354
https://365discount.coop.dk/find-butik/365discount-roskildeskomagergade/24588/,365_discount_dk,"365discount Roskilde,Skomagergade",,Roskilde,,,DK,+45 28 49 78 25,https://365discount.coop.dk/find-butik/365discount-roskildeskomagergade/24588/,,365discount,Q104671354
07935_1,bmw_group,Jens Winther Automobiler APS,,Roskilde,,,DK,+45 46 30 52 00,https://www.jenswinther.dk,,BMW,Q26678
https://www.circlek.dk/station/circle-k-rundkorslen-roskilde,circle_k_dk,CIRCLE K RUNDKØRSLEN  ROSKILDE,,Roskilde,,,DK,+45 46 35 28 86,https://www.circlek.dk/station/circle-k-rundkorslen-roskilde,Mo-Fr 06:00-22:00; Sa-Su 07:00-22:00,Circle K,Q3268010
https://www.circlek.dk/station/circle-k-sondre-ringvej-roskilde,circle_k_dk,"CIRCLE K SØNDRE RINGVEJ, ROSKILDE",,Roskilde,,,DK,+45 46 35 15 37,https://www.circlek.dk/station/circle-k-sondre-ringvej-roskilde,Mo-Fr 06:00-22:00; Sa-Su 07:00-22:00,Circle K,Q3268010
https://www.circlek.dk/station/circle-k-kobenhavnsvej-roskilde,circle_k_dk,"CIRCLE K KØBENHAVNSVEJ, ROSKILDE",,Roskilde,,,DK,+45 46 36 69 00,https://www.circlek.dk/station/circle-k-kobenhavnsvej-roskilde,,Circle K,Q3268010
7145,espresso_house,Espresso House,,Roskilde,,,DK,+45 51 63 69 56,https://espressohouse.com/en/find-us/ros-torv,Mo-Fr 09:30-19:00; Sa-Su 09:30-17:00,Espresso House,Q10489162
FordDB17200  DNK,ford,Gunner Due Biler Roskilde A/S,,Roskilde,,,DK,+45 46 75 69 00,http://ford.gunnerdue.dk,Mo-Fr 07:30-17:30; Su 11:00-15:00,Ford,Q44294
DK0803,hm,"Ro´s Torv 1, Store 10",,Roskilde,,,DK,+45 70 21 22 00,,Mo-Fr 10:00-19:00; Sa-Su 10:00-17:00,H&M,Q188326
DK0826,hm,Skomagergade 15-17,,Roskilde,,,DK,+45 70 21 22 00,,Mo-Fr 10:00-18:00; Sa 10:00-15:00,H&M,Q188326
D022,jysk,Roskilde,,Roskilde,,,DK,+45 72 18 42 20,https://jysk.dk/butikker-og-abningstider?storeId=D022,Mo-Fr 10:00-19:00; Sa-Su 10:00-17:00,JYSK,Q138913
244,lidl_dk,Lidl,,Roskilde,,,DK,,,Mo-Sa 07:00-21:30,Lidl,Q151954
252,lidl_dk,Lidl,,Roskilde,,,DK,,,Mo-Sa 07:00-21:30,Lidl,Q151954
74421741,moneygram,KIOSKEN I PEBERRENDEN - #25 - ROSKILDE -,,ROSKILDE,,,DK,+45 51 96 58 23,,Mo-Su 07:00-23:00,MoneyGram,Q1944412
20822002_001-renault,renault,Arne Stubbe Automobiler A/S Roskilde,,Roskilde,,,DK,+45 46 33 04 00,,,Renault,Q6686
20822002_001-dacia,renault,Arne Stubbe Automobiler A/S Roskilde,,Roskilde,,,DK,+45 46 33 04 00,,,Dacia,Q27460
434,sats,SATS Roskilde,,Roskilde,,,DK,,,,Sats,Q4411496
26,seven_eleven_dk,7-Eleven,,Roskilde,,,DK,+45 46 35 77 11,,24/7,7-Eleven,Q259340
669,seven_eleven_dk,7-Eleven,,Roskilde,,,DK,+45 70 13 14 15,,24/7,7-Eleven,Q259340
469,seven_eleven_dk,7-Eleven,,Roskilde,,,DK,+45 46 35 31 28,,24/7,7-Eleven,Q259340
DK_11333529,shell,SHELL/7-ELEVEN ROSKILDE,,ROSKILDE,,,DK,+45 46 35 31 28,https://find.shell.com/dk/fuel/DK_11333529-shell-7-eleven-roskilde,24/7,Shell,Q110716465
DK_12509303,shell,EXPRESS ROSKILDE,,ROSKILDE,,,DK,+45 70 10 28 00,https://find.shell.com/dk/fuel/DK_12509303-express-roskilde,24/7,Shell,Q110716465
https://www.sixt.co.uk/car-hire/denmark/roskilde/roskilde-airport/,sixt,Car Hire Roskilde Airport | SIXT rent a car,,Roskilde,,,DK,,https://www.sixt.co.uk/car-hire/denmark/roskilde/roskilde-airport/,Mo-Fr 07:00-18:00,SIXT,Q705664
,visa,,,ROSKILDE,,,DK,,,,,
,visa,,,ROSKILDE,,,DK,,,,,
,visa,,,ROSKILDE,,,DK,,,,,
,visa,,,ROSKILDE,,,DK,,,,,
,visa,,,ROSKILDE,,,DK,,,,,
,visa,,,ROSKILDE,,,DK,,,,,
,visa,,,ROSKILDE,,,DK,,,,,
,visa,,,ROSKILDE,,,DK,,,,,
,visa,,,ROSKILDE,,,DK,,,,,
,visa,,,ROSKILDE,,,DK,,,,,
,visa,,,ROSKILDE,,,DK,,,,,
,visa,,,ROSKILDE,,,DK,,,,,
,visa,,,ROSKILDE,,,DK,,,,,
,visa,,,ROSKILDE,,,DK,,,,,
,visa,,,ROSKILDE,,,DK,,,,,
,visa,,,ROSKILDE,,,DK,,,,,
,visa,,,ROSKILDE,,,DK,,,,,
,visa,,,ROSKILDE,,,DK,,,,,
,visa,,,ROSKILDE,,,DK,,,,,
,visa,,,ROSKILDE,,,DK,,,,,
,visa,,,ROSKILDE,,,DK,,,,,
,visa,,,ROSKILDE,,,DK,,,,,
,visa,,,ROSKILDE,,,DK,,,,,
,visa,,,ROSKILDE,,,DK,,,,,
