Ref,Spider,Name,Address,City,State,Zipcode,Country,Phone,Website,Hours,Brand,WikiData
206315,bluerhino,Rite Aid #02331,,Toledo,OH,,US,+1 419-726-8449,,,Blue Rhino,Q65681213
86239,bluerhino,Kroger #617 - Columbus,,Toledo,OH,,US,+1 419-727-2640,,,Blue Rhino,Q65681213
144371,bluerhino,Kroger #617 - Columbus - Fuel Site,,Toledo,OH,,US,+1 419-727-2640,,,Blue Rhino,Q65681213
ATM-362,citizens_us,,,Toledo,OH,,US,+1 419-726-7349,,24/7,Citizens,Q5122694
,credit_union_us,Parish FCU,,Toledo,OH,,US,+1 419-729-9650,,,,
2162,dominos_pizza_us,Domino's Pizza,,Toledo,OH,,US,+1 419-776-1111,https://pizza.dominos.com/ohio/toledo/5406-north-summit-street,Mo-Th 10:30-24:00; Fr-Sa 10:30-01:00; Su 10:30-24:00,Domino's,Q839466
32724,family_dollar_us,FAMILY DOLLAR #12724,,Toledo,OH,,US,+1 419-574-0314,https://www.familydollar.com/locations/oh/toledo/32724/,Mo-Su 09:00-21:00,Family Dollar,Q5433101
https://locations.53.com/#3034717,fifththirdbank,Fifth Third Bank Point Place,,Toledo,OH,,US,+1 419-729-4657,https://locations.53.com/oh/toledo/4706-summit-street.html,Mo-Th 09:00-17:00; Fr 09:00-18:00; Sa 09:00-12:00,Fifth Third Bank,Q1411810
https://salons.greatclips.com/us/oh/toledo/4747-suder-ave,greatclips,Great Clips,,Toledo,OH,,US,+1 419-727-0393,https://salons.greatclips.com/us/oh/toledo/4747-suder-ave,Mo-Fr 10:00-19:00; Sa 09:00-18:00; Su 10:00-17:00,Great Clips,Q5598967
10140,huntingtonbank,Point Place ,,Toledo,OH,,US,+1 419-254-7085,https://www.huntington.com/Community/branch-info?locationId=10140,Mo-Fr 09:00-17:00; Sa 09:00-12:00; Su 00:00-00:00,Huntington Bank,Q798819
33427,h_r_block,H&R Block,,Toledo,OH,,US,+1 419-729-4117,https://www.hrblock.com/local-tax-offices/ohio/toledo/5236-summit-st/33427/,,H&R Block,Q5627799
https://office.jacksonhewitt.com/#27579796,jackson_hewitt,Jackson Hewitt,,Toledo,OH,,US,+1 419-269-1040,https://office.jacksonhewitt.com/tax-preparation-services-locations/en/oh/toledo/5005-summit-st/19714,Mo-Fr 10:00-18:00,Jackson Hewitt,Q6117132
159326,marathon_petroleum_us,Gas and Express Marts Suder,,Toledo,OH,,US,+1 617-901-9935,,,Marathon,Q458363
282264,marathon_petroleum_us,Gas and Express Mart Ottawa,,Toledo,OH,,US,+1 617-901-9935,,,Marathon,Q458363
https://www.mercy.com/#595636ff-e695-4a68-85dc-7d2dfed4e817,mercy_health_us,Mercy Health — Point Shoreland Imaging Services,,Toledo,OH,,US,+1 419-696-8138,https://www.mercy.com/locations/specialty-locations/lab-and-imaging-centers/mercy-health-point-shoreland-imaging,Tu 08:45-12:15; Fr 08:45-12:15,Mercy Health,Q5053169
https://www.mercy.com/#0b8a8625-9fc4-43b2-b7da-e392613206f1,mercy_health_us,Mercy Health — Point Shoreland Family Medicine,,Toledo,OH,,US,+1 419-479-7000,https://www.mercy.com/locations/primary-care-family-medicine/toledo/mercy-health-point-shoreland-family-medicine,Mo-Fr 08:00-16:30,Mercy Health,Q5053169
https://locations.oreillyauto.com/oh/toledo/check-engine-light-testing-6130.html,oreilly,Your Toledo O'Reilly Auto Parts Store,,Toledo,OH,,US,+1 567-202-2707,https://locations.oreillyauto.com/oh/toledo/check-engine-light-testing-6130.html,Mo-Sa 07:30-21:00; Su 09:00-21:00,O'Reilly Auto Parts,Q7071951
https://locations.oreillyauto.com/oh/toledo/wiper-installation-6130.html,oreilly,Your Toledo O'Reilly Auto Parts Store,,Toledo,OH,,US,+1 567-202-2707,https://locations.oreillyauto.com/oh/toledo/wiper-installation-6130.html,Mo-Sa 07:30-21:00; Su 09:00-21:00,O'Reilly Auto Parts,Q7071951
https://locations.oreillyauto.com/oh/toledo/battery-testing-6130.html,oreilly,Your Toledo O'Reilly Auto Parts Store,,Toledo,OH,,US,+1 567-202-2707,https://locations.oreillyauto.com/oh/toledo/battery-testing-6130.html,Mo-Sa 07:30-21:00; Su 09:00-21:00,O'Reilly Auto Parts,Q7071951
https://locations.oreillyauto.com/oh/toledo/autopartes-6130.html,oreilly,O'Reilly Auto Parts,,Toledo,OH,,US,+1 567-202-2707,https://locations.oreillyauto.com/oh/toledo/autopartes-6130.html,Mo-Sa 07:30-21:00; Su 09:00-21:00,O'Reilly Auto Parts,Q7071951
oh_toledo_5235-n-summit-st,pizza_hut_us,5235 N Summit St,,Toledo,OH,,US,+1 419-726-8776,https://locations.pizzahut.com/oh/toledo/5235-n-summit-st,,Pizza Hut,Q191615
02331,rite_aid_us,Rite Aid #02331 Toledo,,Toledo,OH,,US,+1 419-726-8449,https://locations2.riteaid.com.yext-cdn.com/oh/toledo/4869-north-summit-street.html,Mo-Fr 09:00-21:00; Sa-Su 09:00-19:00,Rite Aid,Q3433273
https://restaurants.subway.com/#14906855,subway,Subway,,Toledo Lucas,OH,,US,+1 419-726-3767,https://restaurants.subway.com/united-states/oh/toledo/4870-n-summit-st,Mo-Su 08:30-21:30,Subway,Q244457
0728399700,sunoco_us,Sunoco,,TOLEDO,OH,,US,+1 419-936-2271,,Mo-Su 06:00-00:00,Sunoco,Q1423218
0586329500,sunoco_us,Sunoco,,TOLEDO,OH,,US,+1 419-729-4144,,Mo-Su 06:00-22:00,Sunoco,Q1423218
0199773300,sunoco_us,Sunoco,,TOLEDO,OH,,US,+1 419-727-0195,,Mo-Su 06:00-00:00,Sunoco,Q1423218
1377929,usps,POINT PLACE STATION,,TOLEDO,OH,,US,+1 419-726-3631,,Mo-Fr 09:00-17:00; Sa 09:00-12:00,United States Postal Service,Q668687
4361100012,usps_collection_boxes,USPS COLLECTION BOX - BLUE BOX,6200 N SUMMIT ST,TOLEDO,OH,,US,,,,United States Postal Service,Q668687
4361100008,usps_collection_boxes,USPS COLLECTION BOX - BLUE BOX,3002 131ST ST,TOLEDO,OH,,US,,,,United States Postal Service,Q668687
4361100031,usps_collection_boxes,USPS COLLECTION BOX - BLUE BOX,5417 N SUMMIT ST,TOLEDO,OH,,US,,,,United States Postal Service,Q668687
4361100025,usps_collection_boxes,USPS COLLECTION BOX - BLUE BOX,4445 N SUMMIT ST,TOLEDO,OH,,US,,,,United States Postal Service,Q668687
4361100036,usps_collection_boxes,USPS COLLECTION BOX - EXPRESS,4445 N SUMMIT ST,TOLEDO,OH,,US,,,,United States Postal Service,Q668687
4361100039,usps_collection_boxes,USPS COLLECTION BOX - PO LOBBY,4445 N SUMMIT ST,TOLEDO,OH,,US,,,,United States Postal Service,Q668687
4361100042,usps_collection_boxes,USPS COLLECTION BOX - PO LOBBY,4445 N SUMMIT ST,TOLEDO,OH,,US,,,,United States Postal Service,Q668687
4361100030,usps_collection_boxes,USPS COLLECTION BOX - BLUE BOX,5198 N SUMMIT ST,TOLEDO,OH,,US,,,,United States Postal Service,Q668687
4361100029,usps_collection_boxes,USPS COLLECTION BOX - BLUE BOX,5105 N SUMMIT ST,TOLEDO,OH,,US,,,,United States Postal Service,Q668687
4361100027,usps_collection_boxes,USPS COLLECTION BOX - BLUE BOX,4730 N SUMMIT ST,TOLEDO,OH,,US,,,,United States Postal Service,Q668687
4361100002,usps_collection_boxes,USPS COLLECTION BOX - BLUE BOX,2755 104TH ST,TOLEDO,OH,,US,,,,United States Postal Service,Q668687
4361100033,usps_collection_boxes,USPS COLLECTION BOX - BLUE BOX,2755 104TH ST,TOLEDO,OH,,US,,,,United States Postal Service,Q668687
4361100004,usps_collection_boxes,USPS COLLECTION BOX - BLUE BOX,4801 287TH ST,TOLEDO,OH,,US,,,,United States Postal Service,Q668687
4361100001,usps_collection_boxes,USPS COLLECTION BOX - BLUE BOX,4503 286TH ST,TOLEDO,OH,,US,,,,United States Postal Service,Q668687
4361100037,usps_collection_boxes,USPS COLLECTION BOX - BLUE BOX,5201 SUDER AVE,TOLEDO,OH,,US,,,,United States Postal Service,Q668687
4361100038,usps_collection_boxes,USPS COLLECTION BOX - BLUE BOX,4633 SUDER AVE,TOLEDO,OH,,US,,,,United States Postal Service,Q668687
4361100022,usps_collection_boxes,USPS COLLECTION BOX - BLUE BOX,732 GALENA ST,TOLEDO,OH,,US,,,,United States Postal Service,Q668687
A00000199215,verizon_us,Victra Toledo Ottawa River Rd,,TOLEDO,OH,,US,+1 419-725-5557,https://www.verizon.com/stores/details/ohio/toledo/gowireless-toledo-ottawa-river-rd-1647122/,Mo-Fr 09:00-19:00; Sa 10:00-18:00,Verizon,Q919641
,visa,,,TOLEDO,OH,,US,,,,,
,visa,,,TOLEDO,OH,,US,,,,,
,visa,,,TOLEDO,OH,,US,,,,,
,visa,,,TOLEDO,OH,,US,,,,,
,visa,,,TOLEDO,OH,,US,,,,,
,visa,,,TOLEDO,OH,,US,,,,,
,visa,,,TOLEDO,OH,,US,,,,,
,visa,,,TOLEDO,OH,,US,,,,,
,visa,,,TOLEDO,OH,,US,,,,,
,visa,,,TOLEDO,OH,,US,,,,,
,visa,,,TOLEDO,OH,,US,,,,,
,visa,,,TOLEDO,OH,,US,,,,,
,visa,,,TOLEDO,OH,,US,,,,,
,visa,,,TOLEDO,OH,,US,,,,,
,visa,,,TOLEDO,OH,,US,,,,,
,visa,,,TOLEDO,OH,,US,,,,,
,visa,,,TOLEDO,OH,,US,,,,,
,visa,,,TOLEDO,OH,,US,,,,,
,visa,,,TOLEDO,OH,,US,,,,,
,visa,,,TOLEDO,OH,,US,,,,,
,visa,,,TOLEDO,OH,,US,,,,,
,visa,,,TOLEDO,OH,,US,,,,,
,visa,,,TOLEDO,OH,,US,,,,,
,visa,,,TOLEDO,OH,,US,,,,,
,visa,,,TOLEDO,OH,,US,,,,,
,visa,,,TOLEDO,OH,,US,,,,,
,visa,,,TOLEDO,OH,,US,,,,,
,visa,,,TOLEDO,OH,,US,,,,,
,visa,,,TOLEDO,OH,,US,,,,,
,visa,,,TOLEDO,OH,,US,,,,,
