Ref,Spider,Name,Address,City,State,Zipcode,Country,Phone,Website,Hours,Brand,WikiData
https://awrestaurants.com/locations/colorado/walsenburg/455-us-highway-85/,awrestaurants,A&W Restaurant,,Walsenburg,CO,,US,+1 719-738-3960,https://awrestaurants.com/locations/colorado/walsenburg/455-us-highway-85/,Mo-Su 10:30-21:00,A&W Restaurants,Q277641
205369,bluerhino,Alta Convenience #6117,,Walsenburg,CO,,US,+1 719-738-2276,,,Blue Rhino,Q65681213
180394,bluerhino,Colorado Food Stores Inc. dba First Choice Market #777,,Walsenburg,CO,,US,+1 719-469-1465,,,Blue Rhino,Q65681213
164271,bluerhino,Family Dollar #04711,,WALSENBURG,CO,,US,+1 719-738-1465,,,Blue Rhino,Q65681213
178065,bluerhino,Loaf N Jug #3,,Walsenburg,CO,,US,+1 719-738-3515,,,Blue Rhino,Q65681213
200166,bluerhino,Love's #660,,Walsenburg,CO,,US,+1 719-738-2141,,,Blue Rhino,Q65681213
KR002517,bmo,Loaf N Jug,,Walsenburg,CO,,US,,,,BMO,Q4835981
27852,citi,ATM 7ELEVEN-FCTI,,Walsenburg,CO,,US,,,,Citibank,Q857063
63945,citi,ATM Loaf N Jug,,Walsenburg,CO,,US,,,,Citibank,Q857063
520955,eg_america_us,Loaf 'N Jug,,Walsenburg,CO,,US,+1 719-738-3515,https://www.loafnjug.com/find-us/generic-store-page/?id=750003,,Loaf 'N Jug,Q6663398
2110,fresenius_kidney_care_us,Fresenius Kidney Care Qci Walsenburg,,Walsenburg,CO,,US,+1 800-881-5101,https://www.freseniuskidneycare.com/dialysis-centers/colorado/2110,Mo 06:30-17:30; We 06:30-17:30; Fr 06:30-17:30,,
https://locations.kfc.com/#11247631,kfc,Chicken Nuggets Near Walsenburg,,Walsenburg,CO,,US,,https://locations.kfc.com/co/walsenburg/457-a-us-highway-85-87/chickennugget,Mo-Su 10:00-24:00,KFC,Q524757
1081,loves,Site 660,,Walsenburg,CO,,US,+1 719-738-2141,,,Love's,Q1872496
https://locations.oreillyauto.com/co/walsenburg/check-engine-light-testing-5880.html,oreilly,Your Walsenburg O'Reilly Auto Parts Store,,Walsenburg,CO,,US,+1 719-793-9049,https://locations.oreillyauto.com/co/walsenburg/check-engine-light-testing-5880.html,Mo-Sa 07:30-21:00; Su 08:00-20:00,O'Reilly Auto Parts,Q7071951
https://locations.oreillyauto.com/co/walsenburg/wiper-installation-5880.html,oreilly,Your Walsenburg O'Reilly Auto Parts Store,,Walsenburg,CO,,US,+1 719-793-9049,https://locations.oreillyauto.com/co/walsenburg/wiper-installation-5880.html,Mo-Sa 07:30-21:00; Su 08:00-20:00,O'Reilly Auto Parts,Q7071951
https://locations.oreillyauto.com/co/walsenburg/autopartes-5880.html,oreilly,Tu tienda O'Reilly Auto Parts en Walsenburg,,Walsenburg,CO,,US,+1 719-793-9049,https://locations.oreillyauto.com/co/walsenburg/autopartes-5880.html,Mo-Sa 07:30-21:00; Su 08:00-20:00,O'Reilly Auto Parts,Q7071951
https://locations.oreillyauto.com/co/walsenburg/battery-testing-5880.html,oreilly,Your Walsenburg O'Reilly Auto Parts Store,,Walsenburg,CO,,US,+1 719-793-9049,https://locations.oreillyauto.com/co/walsenburg/battery-testing-5880.html,Mo-Sa 07:30-21:00; Su 08:00-20:00,O'Reilly Auto Parts,Q7071951
0000884594,phillips_66_conoco_76,SEI 19585,,WALSENBURG,CO,,US,+1 719-738-1156,,,Conoco,Q109341187
https://local.safeway.com/#5604601,safeway,Safeway,,Walsenburg,CO,,US,+1 719-738-3300,https://local.safeway.com/safeway/co/walsenburg/222-w-7th-st.html,Mo-Su 07:00-21:00,Safeway,Q1508234
https://restaurants.subway.com/#24277489,subway,"Subway Love's Travel Stop, #660",,Walsenburg,CO,,US,+1 719-738-2124,https://restaurants.subway.com/united-states/co/walsenburg/99800-interstate-25,,Subway,Q244457
https://restaurants.subway.com/#14915642,subway,Subway,,Walsenburg Huerfano,CO,,US,+1 719-738-1332,https://restaurants.subway.com/united-states/co/walsenburg/228-n-main-st,Mo-Su 08:00-22:00,Subway,Q244457
https://locations.tacobell.com/#6143427,taco_bell,Taco Bell,,Walsenburg,CO,,US,+1 719-738-2480,https://locations.tacobell.com/co/walsenburg/457-a-us-highway-85-87.html,,Taco Bell,Q752941
0649,travelcenters_of_america_us,TA Express Walsenburg #0649,,Walsenburg,CO,,US,+1 719-738-5733,https://www.ta-petro.com/location/co/ta-express-walsenburg/,,TA Express,Q7835892
011346,uhaul,First Choice Market,801 Walsen Ave,Walsenburg,CO,,US,+1 719-738-3559,,Mo-Sa 00:00-17:00,U-Haul,Q7862902
1386317,usps,WALSENBURG,,WALSENBURG,CO,,US,+1 719-738-6093,,Mo-Fr 09:00-17:00; Sa 10:30-13:00,United States Postal Service,Q668687
8108900006,usps_collection_boxes,USPS COLLECTION BOX - PO LOBBY,204 E 6TH ST,WALSENBURG,CO,,US,,,,United States Postal Service,Q668687
8108900007,usps_collection_boxes,USPS COLLECTION BOX - BLUE BOX,204 E 6TH ST,WALSENBURG,CO,,US,,,,United States Postal Service,Q668687
,visa,,,WALSENBURG,CO,,US,,,,,
,visa,,,WALSENBURG,CO,,US,,,,,
,visa,,,WALSENBURG,CO,,US,,,,,
,visa,,,WALSENBURG,CO,,US,,,,,
,visa,,,WALSENBURG,CO,,US,,,,,
,visa,,,WALSENBERG,CO,,US,,,,,
,visa,,,WALSENBURG,CO,,US,,,,,
,visa,,,WALSENBURG,CO,,US,,,,,
,visa,,,WALSENBERG,CO,,US,,,,,
,visa,,,WALSENBURG,CO,,US,,,,,
,visa,,,WALSENBURG,CO,,US,,,,,
,visa,,,WALSENBURG,CO,,US,,,,,
,visa,,,WALSENBURG,CO,,US,,,,,
,visa,,,WALSENBURG,CO,,US,,,,,
,visa,,,WALSENBURG,CO,,US,,,,,
25b7198ccb2fcdc63520e8467260ffb2,western_union,7-ELEVEN #19585,,Walsenburg,CO,,US,+1 719-738-1156,https://location.westernunion.com/us/co/walsenburg/25b7198ccb2fcdc63520e8467260ffb2,,Western Union,Q861042
92b6ef3d196313f4ce268c3b53f529dc,western_union,LOAF N JUG #3,,Walsenburg,CO,,US,+1 719-738-3515,https://location.westernunion.com/us/co/walsenburg/92b6ef3d196313f4ce268c3b53f529dc,Mo-We 05:00-23:00; Th-Su 07:00-23:00,Western Union,Q861042
