Ref,Spider,Name,Address,City,State,Zipcode,Country,Phone,Website,Hours,Brand,WikiData
04670_1,bmw_group,Albert Bauer GmbH,,Flensburg,,,DE,+49 461 99900,https://www.bauergruppe.de/marken/mini/,,BMW,Q26678
28104900,bp,Nicole Hilgenberg,,Flensburg,,,DE,+49 461 97312,http://tankstelle.aral.de/tankstelle/28104900,24/7,BP,Q152057
10981,burgerking,Burger King,,Flensburg,,,DE,0461,https://www.burgerking.de/store-locator/store/restaurant_6246,Mo-Su 10:00-00:00,Burger King,Q177054
401,deutsche_telekom_de,Telekom Shop Flensburg,,Flensburg,,,DE,+49 461 4807468,https://shopseite.telekom.de/nord-ost/flensburg/schleswiger-str-130/2081005,Mo-Sa 10:00-20:00,Deutsche Telekom,Q9396
de:2158,dm,dm-drogerie markt,,Flensburg,,,DE,+49 461 49433809,https://www.dm.de/store/d3hm/flensburg/langberger-weg-4,Mo-Sa 08:30-20:00,dm,Q266572
34157,dominos_pizza_de,Domino's Pizza Flensburg,,Flensburg,,,DE,,https://www.dominos.de/filiale/de-flensburg-34157,,Domino's,Q839466
FLFC61,enterprise,Flensburg,,Flensburg,,,DE,+49 461 4943950,,,Enterprise Rent-A-Car,Q17085454
3135313737HndR82,eyes_and_more,"eyes + more Flensburg, Förde Park","Schleswiger Straße   130, Flensburg, 24941",,,,DE,+49 461 90019197,https://www.eyesandmore.de/termin-vereinbaren/?storeId=3135313737HndR82,Mo-Sa 10:00-20:00,eyes + more,Q1385775
FordGK1A520  DEU,ford,Heinrich Nehrkorn GmbH & Co. KG,,Flensburg,,,DE,+49 461 99800,ford-nehrkorn-flensburg.de,,Ford,Q44294
2760917918,gls_de,DF Automotive GmbH,,Flensburg,,,DE,+49 461 40684535,,Mo-Fr 09:00-18:00,General Logistics Systems,Q46495823
5799,jack_and_jones,Flensburg - CITTI Park Flensburg,,Flensburg,,,DE,,,,Jack & Jones,Q6077665
1095,jysk,Flensburg,,Flensburg,,,DE,+49 461 141210,https://jysk.de/filialen?storeId=1095,Mo-Th 10:00-19:00; Sa 09:30-18:00,JYSK,Q138913
1410,jysk,Flensburg,,Flensburg,,,DE,+49 461 15018690,https://jysk.de/filialen?storeId=1410,Mo-Th 09:00-20:00; Sa 09:00-20:00,JYSK,Q138913
1305,jysk,Flensburg,,Flensburg,,,DE,+49 461 903510,https://jysk.de/filialen?storeId=1305,Mo-Th 10:00-19:00; Sa 09:30-18:00,JYSK,Q138913
DE5083,kaufland,Kaufland Flensburg,,Flensburg-Südstadt,,,DE,+49 461 9987380,https://filiale.kaufland.de/service/filiale/frankfurt-oder-spitzkrug-multi-center-flensburg-foerde-park-5083.html,Mo-Sa 08:00-21:30,Kaufland,Q685967
6445,lidl_de,,,Flensburg-Rude,,,DE,,,Mo-Sa 07:00-21:00,Lidl,Q151954
41229,man_truck_and_bus,MAN Truck & Bus Service Flensburg,,Flensburg,,,DE,+49 461 903260,,,MAN Truck & Bus,Q708667
42696,man_truck_and_bus,MAN Truck & Bus Marinemotoren,,Flensburg,,,DE,+49 461 9032647,,,MAN Truck & Bus,Q708667
5b3cb3fac00458481b4375d9,newyorker,NEW YORKER | Förde-Park,"Schleswigerstr. 130, 24941 Flensburg",Flensburg,,,DE,+49 461 98953,,Mo-Sa 10:00-20:00,New Yorker,Q706421
27681011_001-dacia,renault,Autohaus Süverkrüp GmbH & Co. KG,,Flensburg,,,DE,+49 461 903080,,,Dacia,Q27460
27612030_001-renault,renault,Autohaus Süverkrüp GmbH & Co. KG,,Flensburg,,,DE,+49 461 903080,,,Renault,Q6686
https://www.rossmann.de/de/filialen/schleswig-holstein/flensburg/schleswiger-str--130.html,rossmann_de,Rossmann Drogerie-Markt Schleswiger Str. 130,,Flensburg,,,DE,+49 461 1687716,https://www.rossmann.de/de/filialen/schleswig-holstein/flensburg/schleswiger-str--130.html,Mo-Sa 08:00-21:00,Rossmann,Q316004
https://www.rossmann.de/de/filialen/schleswig-holstein/flensburg/holzkrugweg-8.html,rossmann_de,Rossmann Drogerie-Markt Holzkrugweg 8,,Flensburg,,,DE,+49 461 97878353,https://www.rossmann.de/de/filialen/schleswig-holstein/flensburg/holzkrugweg-8.html,Mo-Sa 07:30-20:00,Rossmann,Q316004
40675,seat_de,Autozentrum Nord GmbH,,Flensburg,,,DE,+49 461 902050,https://flensburg.seat.de,,SEAT,Q188217
https://www.sixt.co.uk/car-hire/germany/flensburg/flensburg/,sixt,Car Hire Flensburg | SIXT rent a car,,Flensburg,,,DE,,https://www.sixt.co.uk/car-hire/germany/flensburg/flensburg/,Mo-Fr 06:00-20:00; Sa 06:00-14:00; Su 08:00-12:00,SIXT,Q705664
168603,sparkasse_de,Nord-Ostsee Sparkasse  Immobilienvermittlung Immobilienvermittlung Flensburg-Weiche,,Flensburg,,,DE,+49 461 15008741,https://www.sparkasse.de/standorte/filialen/nord-ostsee-sparkasse-immobilienvermittlung-immobilienvermittlung-flensburg-weiche-168603,"Mo 09:00-12:00; Tu 09:00-12:00,14:00-16:00; We 09:00-12:00; Th 09:00-12:00,14:00-16:00; Fr 09:00-12:00",Sparkasse,Q13601825
168589,sparkasse_de,Nord-Ostsee Sparkasse  Immobilienvermittlung Immobilienvermittlung Flensburg,,Flensburg,,,DE,+49 461 15008756,https://www.sparkasse.de/standorte/filialen/nord-ostsee-sparkasse-immobilienvermittlung-immobilienvermittlung-flensburg-168589,"Mo-We 09:00-12:00,14:30-16:30; Th 09:00-12:00,14:00-18:00; Fr 09:00-12:00,14:30-16:30",Sparkasse,Q13601825
171606,sparkasse_de,Nord-Ostsee Sparkasse  Immobilienvermittlung Makler Flensburg-Weiche,,Flensburg,,,DE,+49 461 15008741,https://www.sparkasse.de/standorte/filialen/nord-ostsee-sparkasse-immobilienvermittlung-makler-flensburg-weiche-171606,"Mo 09:00-12:00; Tu 09:00-12:00,14:00-16:00; We 09:00-12:00; Th 09:00-12:00,14:00-16:00; Fr 09:00-12:00",Sparkasse,Q13601825
171602,sparkasse_de,Nord-Ostsee Sparkasse  Immobilienvermittlung Makler Flensburg,,Flensburg,,,DE,+49 461 15008756,https://www.sparkasse.de/standorte/filialen/nord-ostsee-sparkasse-immobilienvermittlung-makler-flensburg-171602,"Mo-We 09:00-12:00,14:30-16:30; Th 09:00-12:00,14:00-18:00; Fr 09:00-12:00,14:30-16:30",Sparkasse,Q13601825
19174,sparkasse_de,Nord-Ostsee Sparkasse  Geldautomat mit Einzahlfunktion Flensburg-Weiche,,Flensburg,,,DE,+49 461 15005555,https://www.sparkasse.de/standorte/geldautomaten/nord-ostsee-sparkasse-geldautomat-mit-einzahlfunktion-flensburg-weiche-19174,24/7,Sparkasse,Q13601825
103341,sparkasse_de,Nord-Ostsee Sparkasse  SB-Filiale Flensburg-Weiche,,Flensburg,,,DE,+49 461 15005555,https://www.sparkasse.de/standorte/filialen/nord-ostsee-sparkasse-sb-filiale-flensburg-weiche-103341,Mo-Su 06:00-22:00,Sparkasse,Q13601825
10055,sparkasse_de,Nord-Ostsee Sparkasse  Regionaldirektion Flensburg-Weiche,,Flensburg,,,DE,+49 461 15005555,https://www.sparkasse.de/standorte/filialen/nord-ostsee-sparkasse-regionaldirektion-flensburg-weiche-10055,"Mo 09:00-12:00; Tu 09:00-12:00,14:00-16:00; We 09:00-12:00; Th 09:00-12:00,14:00-16:00; Fr 09:00-12:00",Sparkasse,Q13601825
10057,sparkasse_de,Nord-Ostsee Sparkasse  Filiale Flensburg-Schleswiger Straße / VideoBanking,,Flensburg,,,DE,+49 461 15005555,https://www.sparkasse.de/standorte/filialen/nord-ostsee-sparkasse-filiale-flensburg-schleswiger-strasse-video-banking-10057,Mo-Fr 08:30-16:30,Sparkasse,Q13601825
40491,sparkasse_de,Nord-Ostsee Sparkasse  Geldautomat mit Einzahlfunktion Flensburg-Schleswiger Straße,,Flensburg,,,DE,+49 461 15005555,https://www.sparkasse.de/standorte/geldautomaten/nord-ostsee-sparkasse-geldautomat-mit-einzahlfunktion-flensburg-schleswiger-strasse-40491,Mo-Fr 06:00-22:00; Sa-Su 05:00-24:00,Sparkasse,Q13601825
103345,sparkasse_de,Nord-Ostsee Sparkasse  SB-Filiale Flensburg-Schleswiger Straße,,Flensburg,,,DE,+49 461 15005555,https://www.sparkasse.de/standorte/filialen/nord-ostsee-sparkasse-sb-filiale-flensburg-schleswiger-strasse-103345,Mo-Su 06:00-22:00,Sparkasse,Q13601825
40493,sparkasse_de,Nord-Ostsee Sparkasse  Geldautomat Flensburg-Förde Park,,Flensburg,,,DE,+49 461 15005555,https://www.sparkasse.de/standorte/geldautomaten/nord-ostsee-sparkasse-geldautomat-flensburg-foerde-park-40493,Mo-Su 08:00-22:00,Sparkasse,Q13601825
103453,sparkasse_de,Nord-Ostsee Sparkasse  SB-Filiale Flensburg-Förde Park,,Flensburg,,,DE,+49 461 15005555,https://www.sparkasse.de/standorte/filialen/nord-ostsee-sparkasse-sb-filiale-flensburg-foerde-park-103453,Mo-Su 08:00-22:00,Sparkasse,Q13601825
40486,sparkasse_de,Nord-Ostsee Sparkasse  Geldautomat mit Einzahlfunktion Flensburg-Citti Park,,Flensburg,,,DE,+49 461 15005555,https://www.sparkasse.de/standorte/geldautomaten/nord-ostsee-sparkasse-geldautomat-mit-einzahlfunktion-flensburg-citti-park-40486,Mo-Su 08:00-20:00,Sparkasse,Q13601825
103446,sparkasse_de,Nord-Ostsee Sparkasse  SB-Filiale Flensburg-Citti Park,,Flensburg,,,DE,+49 461 15005555,https://www.sparkasse.de/standorte/filialen/nord-ostsee-sparkasse-sb-filiale-flensburg-citti-park-103446,Mo-Su 08:00-20:00,Sparkasse,Q13601825
151532,sparkasse_de,Nord-Ostsee Sparkasse  Bargeld-Service Flensburg REWE-Markt,,Flensburg,,,DE,+49 461 15005555,https://www.sparkasse.de/standorte/filialen/nord-ostsee-sparkasse-bargeld-service-flensburg-rewe-markt-151532,Mo-Th 07:00-20:00; Fr-Sa 07:00-21:00,Sparkasse,Q13601825
161177,sparkasse_de,Nord-Ostsee Sparkasse  Bargeld-Service Flensburg Otto Immler GmbH,,Flensburg,,,DE,+49 461 98076,https://www.sparkasse.de/standorte/filialen/nord-ostsee-sparkasse-bargeld-service-flensburg-otto-immler-gmb-h-161177,Mo-Fr 09:00-18:00; Sa 09:00-13:00,Sparkasse,Q13601825
143100,sparkasse_de,Nord-Ostsee Sparkasse  Geldautomat Flensburg Netto-Markt,,Flensburg,,,DE,+49 461 15005555,https://www.sparkasse.de/standorte/geldautomaten/nord-ostsee-sparkasse-geldautomat-flensburg-netto-markt-143100,24/7,Sparkasse,Q13601825
https://www.tedox.de/shoplist/index/detail/?id=111,tedox_de,tedo x,,Flensburg,,,DE,+49 461 9787310,https://www.tedox.de/shoplist/index/detail/?id=111,Mo-Fr 09:00-20:00; Sa 09:00-19:00,tedox,Q2399946
THDE0091,tommy_hilfiger,Tommy Jeans,,Flensburg,,,DE,+49 461 94029888,,,Tommy Hilfiger,Q634881
EX_BP_1741,totalenergies,"ARAL TANKSTELLE FLENSBURG, HUS",,Flensburg,,,DE,,https://store.totalenergies.fr/en_EN/EX_BP_1741,,Aral,Q565734
,visa,,,FLENSBURG,,,DE,,,,,
,visa,,,FLENSBURG,,,DE,,,,,
,visa,,,FLENSBURG,,,DE,,,,,
,visa,,,FLENSBURG,,,DE,,,,,
,visa,,,FLENSBURG,,,DE,,,,,
https://shops.vodafone.de/flensburg/schleswiger-str.-130,vodafone_de,Vodafone-Shop,,Flensburg,,,DE,+49 172 5100877,https://shops.vodafone.de/flensburg/schleswiger-str.-130,Mo-Sa 09:00-20:00,Vodafone,Q122141
6DE09614,volvo,K. + T. Nehrkorn GmbH & Co. KG,,Flensburg,,,DE,+49 461 957900,http://www.volvocars-haendler.de/nehrkorn/,,Volvo,Q215293
