Ref,Spider,Name,Address,City,State,Zipcode,Country,Phone,Website,Hours,Brand,WikiData
https://stores.advanceautoparts.com/tn/memphis/2631-frayser-blvd,advance_auto_parts_us,Advance Auto Parts,,Memphis,TN,,US,+1 901-354-8686,https://stores.advanceautoparts.com/tn/memphis/2631-frayser-blvd,Mo-Sa 07:30-21:00; Su 08:00-20:00,Advance Auto Parts,Q4686051
598,autozone_us,AutoZone Auto Parts Memphis,,Memphis,TN,,US,+1 901-354-6151,https://www.autozone.com/locations/tn/memphis/3166-n-thomas.html,Mo-Sa 07:30-21:00; Su 08:00-20:00,AutoZone,Q4826087
30,autozone_us,AutoZone Auto Parts Memphis,,Memphis,TN,,US,+1 901-357-0395,https://www.autozone.com/locations/tn/memphis/2076-frayser-blvd.html,Mo-Sa 07:30-21:00; Su 07:30-20:00,AutoZone,Q4826087
https://locators.bankofamerica.com/tn/memphis/atm-memphis-111120.html,bankofamerica,Bank of America Drive-Thru ATM | Frayser And Watkins,,Memphis,TN,,US,+1 844-401-8500,https://locators.bankofamerica.com/tn/memphis/atm-memphis-111120.html,,Bank of America,Q487907
154889,bluerhino,Walgreens #09719,,Memphis,TN,,US,+1 901-357-5364,,,Blue Rhino,Q65681213
147518,bluerhino,Express Gas,,Memphis,TN,,US,+1 901-357-1811,,,Blue Rhino,Q65681213
147517,bluerhino,Fill-N-Go #2,,Memphis,TN,,US,+1 901-353-4915,,,Blue Rhino,Q65681213
185650,bluerhino,Kroger #425- Delta- Fuel Site,,Memphis,TN,,US,+1 901-353-8281,,,Blue Rhino,Q65681213
155144,bluerhino,Walgreens #13108,,Memphis,TN,,US,+1 901-353-0355,,,Blue Rhino,Q65681213
28990188576263812700100000000000,bp,BP,,Memphis,TN,,US,+1 901-353-3945,,24/7,BP,Q152057
12189461057273812700100000000000,bp,BP,,Memphis,TN,,US,+1 404-388-0987,,,BP,Q152057
354867,captaind,Captain D's,,Memphis,TN,,US,+1 901-358-8776,https://locations.captainds.com/ll/US/TN/Memphis/2238-Frayser-Blvd,Mo-Th 10:00-22:00; Fr-Sa 10:00-23:00; Su 10:00-22:00,Captain D's,Q5036616
3077-thomas-street,churchs_chicken,Thomas Street,,Memphis,TN,,US,+1 901-358-9728,https://locations.churchs.com/tn/memphis/3077-thomas-street,,Church's Chicken,Q1089932
2237-frayser-boulevard,churchs_chicken,Frayser Boulevard,,Memphis,TN,,US,+1 901-358-9353,https://locations.churchs.com/tn/memphis/2237-frayser-boulevard,,Church's Chicken,Q1089932
59692,citi,ATM HOPE Federal Credit Union,,Memphis,TN,,US,,,,Citibank,Q857063
90043,citi,ATM Walgreens,,Memphis,TN,,US,,,,Citibank,Q857063
42364,citi,ATM Circle K,,Memphis,TN,,US,,,,Citibank,Q857063
64551,citi,ATM Mapco,,Memphis,TN,,US,,,,Citibank,Q857063
89561,citi,ATM Walgreens,,Memphis,TN,,US,,,,Citibank,Q857063
om_tn_memphis_3194-n--thomas,cititrends,Citi Trends,,Memphis,TN,,US,+1 901-303-0602,https://locations.cititrends.com/tn/memphis/3194-n--thomas.html,Mo 10:00-20:00; Tu 10:00-20:00; We 10:00-20:00; Th 10:00-20:00; Fr 10:00-21:00; Sa 10:00-21:00; Su 12:00-18:00,Citi Trends,Q5122438
,credit_union_us,Hope FCU,,Memphis,TN,,US,+1 901-358-4496,,,,
70164423,cricket_wireless,Cricket Wireless Authorized Retailer,,Memphis,TN,,US,+1 901-207-7816,https://www.cricketwireless.com/stores/ll/US/TN/Memphis/3386-N-Watkins-St,Mo-Sa 09:00-19:00; Su 12:00-18:00,Cricket Wireless,Q5184987
70003115,cricket_wireless,Cricket Wireless Authorized Retailer,,Memphis,TN,,US,+1 901-358-2013,https://www.cricketwireless.com/stores/ll/US/TN/Memphis/3363-Thomas-St,Mo-Sa 09:00-19:00; Su 12:00-17:00,Cricket Wireless,Q5184987
80427107,cricket_wireless,Cricket Wireless Authorized Retailer,,Memphis,TN,,US,+1 901-353-3303,https://www.cricketwireless.com/stores/ll/US/TN/Memphis/2636-Frayser-Blvd,Mo-Th 09:00-19:30; Fr-Sa 09:00-20:00; Su 12:00-18:00,Cricket Wireless,Q5184987
1000000585,extra_space_storage,Memphis Self Storage at 2555 N Hollywood St,,Memphis,TN,,US,+1 901-353-6300,https://www.extraspace.com/storage/facilities/us/tennessee/memphis/1000000585/,Mo-Fr 09:30-18:00; Sa 09:00-17:30,Extra Space Storage,Q5422162
https://local.fedex.com/#25201184,fedex,,,Memphis,TN,,US,+1 800-463-3339,https://local.fedex.com/en-us/tn/memphis/bbcwy,,FedEx,Q459477
https://local.fedex.com/#25206087,fedex,,,Memphis,TN,,US,+1 800-463-3339,https://local.fedex.com/en-us/tn/memphis/aszui,,FedEx,Q459477
2720,first_cash,Cash America Pawn,,Memphis,TN,,US,+1 901-357-4642,,,Cash America,Q5048636
39838,h_r_block,H&R Block,,Memphis,TN,,US,+1 901-358-0740,https://www.hrblock.com/local-tax-offices/tennessee/memphis/frayser-plaza-shopping-center/39838/,,H&R Block,Q5627799
39839,h_r_block,H&R Block,,Memphis,TN,,US,+1 901-358-3340,https://www.hrblock.com/local-tax-offices/tennessee/memphis/2720-rangeline-rd/39839/,,H&R Block,Q5627799
https://office.jacksonhewitt.com/#27577236,jackson_hewitt,Jackson Hewitt,,Memphis,TN,,US,+1 901-881-9231,https://office.jacksonhewitt.com/tax-preparation-services-locations/en/tn/memphis/3706-n-watkins-st/13540,Mo-Sa 10:00-18:00; Su 12:00-16:00,Jackson Hewitt,Q6117132
https://locations.kfc.com/#11250377,kfc,Chicken Nuggets Near Memphis,,Memphis,TN,,US,,https://locations.kfc.com/tn/memphis/2055-frayser-blvd/chickennugget,Mo-Su 10:00-24:00,KFC,Q524757
156572,marathon_petroleum_us,EXPRESS GAS,,MEMPHIS,TN,,US,+1 901-357-1811,,,Marathon,Q458363
156573,marathon_petroleum_us,FILL N GO 2,,MEMPHIS,TN,,US,+1 901-353-4915,,,Marathon,Q458363
158120,marathon_petroleum_us,COASTA MART,,MEMPHIS,TN,,US,+1 901-357-9150,,,Marathon,Q458363
158651,marathon_petroleum_us,H&D Food & Fuel,,MEMPHIS,TN,,US,+1 501-779-4228,,,Marathon,Q458363
3629,mightyflame,PENNY PANTRY,,MEMPHIS,TN,,US,+1 901-353-2440,,,Mighty Flame,
2481,mightyflame,LIMU TRADE INC,,MEMPHIS,TN,,US,+1 323-688-8804,,,Mighty Flame,
2637,mightyflame,MAPCO EXPRESS #3245,,Memphis,TN,,US,+1 901-353-7837,,,Mighty Flame,
5324,mightyflame,WOODSTOCK MART,,MEMPHIS,TN,,US,+1 901-358-0042,,,Mighty Flame,
3957,mightyflame,R&M PETRO,,MEMPHIS,TN,,US,+1 901-357-9150,,,Mighty Flame,
5247,mightyflame,WATKINS FOOD MART,,MEMPHIS,TN,,US,+1 347-324-4780,,,Mighty Flame,
2239,mightyflame,JUBILEE EXPRESS,,MEMPHIS,TN,,US,+1 901-357-3737,,,Mighty Flame,
2638,mightyflame,MAPCO EXPRESS #3246,,Memphis,TN,,US,+1 901-358-5374,,,Mighty Flame,
3254,mightyflame,NANA MARKET,,Memphis,TN,,US,+1 631-204-7155,,,Mighty Flame,
3870,mightyflame,RAAS (BP) FOOD MART,,MEMPHIS,TN,,US,+1 901-384-6877,,,Mighty Flame,
https://locations.oreillyauto.com/tn/memphis/check-engine-light-testing-1744.html,oreilly,Your Memphis O'Reilly Auto Parts Store,,Memphis,TN,,US,+1 901-358-7074,https://locations.oreillyauto.com/tn/memphis/check-engine-light-testing-1744.html,Mo-Sa 07:00-21:00; Su 08:00-20:00,O'Reilly Auto Parts,Q7071951
https://locations.oreillyauto.com/tn/memphis/wiper-installation-1744.html,oreilly,Your Memphis O'Reilly Auto Parts Store,,Memphis,TN,,US,+1 901-358-7074,https://locations.oreillyauto.com/tn/memphis/wiper-installation-1744.html,Mo-Sa 07:00-21:00; Su 08:00-20:00,O'Reilly Auto Parts,Q7071951
https://locations.oreillyauto.com/tn/memphis/battery-testing-1744.html,oreilly,Your Memphis O'Reilly Auto Parts Store,,Memphis,TN,,US,+1 901-358-7074,https://locations.oreillyauto.com/tn/memphis/battery-testing-1744.html,Mo-Sa 07:00-21:00; Su 08:00-20:00,O'Reilly Auto Parts,Q7071951
https://locations.oreillyauto.com/tn/memphis/autopartes-1744.html,oreilly,Tu tienda O'Reilly Auto Parts en Memphis,,Memphis,TN,,US,+1 901-358-7074,https://locations.oreillyauto.com/tn/memphis/autopartes-1744.html,Mo-Sa 07:00-21:00; Su 08:00-20:00,O'Reilly Auto Parts,Q7071951
https://locations.oreillyauto.com/tn/memphis/check-engine-light-testing-894.html,oreilly,Your Memphis O'Reilly Auto Parts Store,,Memphis,TN,,US,+1 901-354-3870,https://locations.oreillyauto.com/tn/memphis/check-engine-light-testing-894.html,Mo-Sa 07:00-21:00; Su 08:00-20:00,O'Reilly Auto Parts,Q7071951
https://locations.oreillyauto.com/tn/memphis/wiper-installation-894.html,oreilly,Your Memphis O'Reilly Auto Parts Store,,Memphis,TN,,US,+1 901-354-3870,https://locations.oreillyauto.com/tn/memphis/wiper-installation-894.html,Mo-Sa 07:00-21:00; Su 08:00-20:00,O'Reilly Auto Parts,Q7071951
https://locations.oreillyauto.com/tn/memphis/battery-testing-894.html,oreilly,Your Memphis O'Reilly Auto Parts Store,,Memphis,TN,,US,+1 901-354-3870,https://locations.oreillyauto.com/tn/memphis/battery-testing-894.html,Mo-Sa 07:00-21:00; Su 08:00-20:00,O'Reilly Auto Parts,Q7071951
https://locations.oreillyauto.com/tn/memphis/autopartes-894.html,oreilly,Tu tienda O'Reilly Auto Parts en Memphis,,Memphis,TN,,US,+1 901-354-3870,https://locations.oreillyauto.com/tn/memphis/autopartes-894.html,Mo-Sa 07:00-21:00; Su 08:00-20:00,O'Reilly Auto Parts,Q7071951
tn_memphis_2342-frayser-blvd,pizza_hut_us,2342 Frayser Blvd,,Memphis,TN,,US,+1 901-353-6040,https://locations.pizzahut.com/tn/memphis/2342-frayser-blvd,,Pizza Hut,Q191615
restaurant_237855,popeyes_us_fr,Popeyes,"2153 Frayser Blvd Memphis, Tennessee 38127 - USA",Memphis,TN,,US,+1 901-355-0432,https://www.popeyes.com/store-locator/store/restaurant_237855,Mo-Su 10:00-20:00,Popeyes,Q1330910
restaurant_84517,popeyes_us_fr,Popeyes,"2629 N Hollywood St Memphis, Tennessee 38127 - USA",Memphis,TN,,US,+1 901-358-4200,https://www.popeyes.com/store-locator/store/restaurant_84517,Mo-Su 10:00-20:00,Popeyes,Q1330910
https://www.publicstorage.com/self-storage-tn-memphis/5947.html,public_storage_us,Public Storage,,Memphis,TN,,US,+1 901-686-6491,https://www.publicstorage.com/self-storage-tn-memphis/5947.html,,Public Storage,Q1156045
https://www.publicstorage.com/self-storage-tn-memphis/5951.html,public_storage_us,Public Storage,,Memphis,TN,,US,+1 901-686-6824,https://www.publicstorage.com/self-storage-tn-memphis/5951.html,,Public Storage,Q1156045
836,rentacenter,Rent-A-Center,,Memphis,TN,,US,+1 901-353-5300,https://locations.rentacenter.com/tennessee/memphis/2570-frayser-blvd/,Mo-Sa 10:00-18:00,Rent-A-Center,Q7313497
https://restaurants.subway.com/#14898633,subway,Subway Northgate Shopping Center,,Memphis Shelby,TN,,US,+1 901-358-8377,https://restaurants.subway.com/united-states/tn/memphis/3168-thomas-street,Mo-Su 08:00-21:00,Subway,Q244457
https://restaurants.subway.com/#14912637,subway,Subway Frayser Village Shopping Ctr,,Memphis Shelby,TN,,US,+1 901-353-6603,https://restaurants.subway.com/united-states/tn/memphis/2580-frayser-village,Mo-Su 08:00-21:00,Subway,Q244457
https://locations.tacobell.com/#6144209,taco_bell,Taco Bell,,Memphis,TN,,US,+1 901-353-0346,https://locations.tacobell.com/tn/memphis/3233-thomas-st.html,Mo-Th 09:00-02:00; Fr-Sa 09:00-03:00; Su 09:00-02:00,Taco Bell,Q752941
https://locations.tacobell.com/#6145160,taco_bell,Taco Bell,,Memphis,TN,,US,+1 901-357-9832,https://locations.tacobell.com/tn/memphis/2183-frayser-blvd-.html,Mo 07:00-01:30; Tu-Th 07:00-02:00; Fr-Sa 07:00-03:00; Su 07:00-02:00,Taco Bell,Q752941
1364048,usps,FRAYSER,,MEMPHIS,TN,,US,+1 901-357-6497,,Mo-Fr 09:00-16:30; Sa 10:00-14:00,United States Postal Service,Q668687
3812700022,usps_collection_boxes,USPS COLLECTION BOX - PO LOBBY,3057 BASKIN ST,MEMPHIS,TN,,US,,,,United States Postal Service,Q668687
3812700024,usps_collection_boxes,USPS COLLECTION BOX - PO LOBBY,3057 BASKIN ST,MEMPHIS,TN,,US,,,,United States Postal Service,Q668687
3812700023,usps_collection_boxes,USPS COLLECTION BOX - PO LOBBY,3057 BASKIN ST,MEMPHIS,TN,,US,,,,United States Postal Service,Q668687
3812700025,usps_collection_boxes,USPS COLLECTION BOX - PO LOBBY,3057 BASKIN ST,MEMPHIS,TN,,US,,,,United States Postal Service,Q668687
3812700009,usps_collection_boxes,USPS COLLECTION BOX - BLUE BOX,2602 FRAYSER BLVD,MEMPHIS,TN,,US,,,,United States Postal Service,Q668687
3812700013,usps_collection_boxes,USPS COLLECTION BOX - BLUE BOX,3057 BASKIN ST,MEMPHIS,TN,,US,,,,United States Postal Service,Q668687
3812700010,usps_collection_boxes,USPS COLLECTION BOX - BLUE BOX,2140 FRAYSER BLVD,MEMPHIS,TN,,US,,,,United States Postal Service,Q668687
,visa,,,MEMPHIS,TN,,US,,,,,
,visa,,,MEMPHIS,TN,,US,,,,,
,visa,,,MEMPHIS,TN,,US,,,,,
,visa,,,MEMPHIS,TN,,US,,,,,
,visa,,,MEMPHIS,TN,,US,,,,,
,visa,,,MEMPHIS,TN,,US,,,,,
,visa,,,MEMPHIS,TN,,US,,,,,
,visa,,,MEMPHIS,TN,,US,,,,,
,visa,,,MEMPHIS,TN,,US,,,,,
,visa,,,MEMPHIS,TN,,US,,,,,
,visa,,,MEMPHIS,TN,,US,,,,,
,visa,,,MEMPHIS,TN,,US,,,,,
,visa,,,MEMPHIS,TN,,US,,,,,
,visa,,,MEMPHIS,TN,,US,,,,,
,visa,,,MEMPHIS,TN,,US,,,,,
,visa,,,MEMPHIS,TN,,US,,,,,
,visa,,,MEMPHIS,TN,,US,,,,,
,visa,,,MEMPHIS,TN,,US,,,,,
,visa,,,MEMPHIS,TN,,US,,,,,
,visa,,,MEMPHIS,TN,,US,,,,,
,visa,,,MEMPHIS,TN,,US,,,,,
,visa,,,MEMPHIS,TN,,US,,,,,
,visa,,,MEMPHIS,TN,,US,,,,,
,visa,,,MEMPHIS,TN,,US,,,,,
,visa,,,MEMPHIS,TN,,US,,,,,
,visa,,,MEMPHIS,TN,,US,,,,,
,visa,,,MEMPHIS,TN,,US,,,,,
,visa,,,MEMPHIS,TN,,US,,,,,
,visa,,,MEMPHIS,TN,,US,,,,,
,visa,,,MEMPHIS,TN,,US,,,,,
,visa,,,MEMPHIS,TN,,US,,,,,
,visa,,,MEMPHIS,TN,,US,,,,,
,visa,,,MEMPHIS,TN,,US,,,,,
,visa,,,MEMPHIS,TN,,US,,,,,
,visa,,,MEMPHIS,TN,,US,,,,,
,visa,,,MEMPHIS,TN,,US,,,,,
,visa,,,MEMPHIS,TN,,US,,,,,
,visa,,,MEMPHIS,TN,,US,,,,,
,visa,,,MEM,TN,,US,,,,,
,visa,,,MEMPHIS,TN,,US,,,,,
,visa,,,MEMPHIS,TN,,US,,,,,
,visa,,,MEMPHIS,TN,,US,,,,,
,visa,,,MEMPHIS,TN,,US,,,,,
,visa,,,MEMPHIS,TN,,US,,,,,
,visa,,,MEMPHIS,TN,,US,,,,,
,visa,,,MEMPHIS,TN,,US,,,,,
,visa,,,MEMPHIS,TN,,US,,,,,
,visa,,,MEMPHIS,TN,,US,,,,,
,visa,,,MEMPHIS,TN,,US,,,,,
,visa,,,MEMPHIS,TN,,US,,,,,
,visa,,,MEMPHIS,TN,,US,,,,,
,visa,,,MEMPHIS,TN,,US,,,,,
,visa,,,MEMPHIS,TN,,US,,,,,
,visa,,,MEMPHIS,TN,,US,,,,,
,visa,,,MEMPHIS,TN,,US,,,,,
,visa,,,MEMPHIS,TN,,US,,,,,
,visa,,,MEMPHIS,TN,,US,,,,,
,visa,,,MEMPHIS,TN,,US,,,,,
,visa,,,MEMPHIS,TN,,US,,,,,
,visa,,,MEMPHIS,TN,,US,,,,,
,visa,,,MEMPHIS,TN,,US,,,,,
,visa,,,MEMPHIS,TN,,US,,,,,
,visa,,,MEMPHIS,TN,,US,,,,,
,visa,,,MEMPHIS,TN,,US,,,,,
,visa,,,MEMPHIS,TN,,US,,,,,
,visa,,,MEMPHIS,TN,,US,,,,,
,visa,,,MEMPHIS,TN,,US,,,,,
,visa,,,MEMPHIS,TN,,US,,,,,
,visa,,,MEMPHIS,TN,,US,,,,,
,visa,,,MEMPHIS,TN,,US,,,,,
,visa,,,MEMPHIS,TN,,US,,,,,
,visa,,,MEMPHIS,TN,,US,,,,,
,visa,,,MEMPHIS,TN,,US,,,,,
,visa,,,MEMPHIS,TN,,US,,,,,
,visa,,,MEMPHIS,TN,,US,,,,,
,visa,,,MEMPHIS,TN,,US,,,,,
,visa,,,MEMPHIS,TN,,US,,,,,
,visa,,,MEMPHIS,TN,,US,,,,,
,visa,,,MEMPHIS,TN,,US,,,,,
,visa,,,MEMPHIS,TN,,US,,,,,
,visa,,,MEMPHIS,TN,,US,,,,,
,visa,,,MEMPHIS,TN,,US,,,,,
,visa,,,MEMPHIS,TN,,US,,,,,
,visa,,,MEMPHIS,TN,,US,,,,,
,visa,,,MEMPHIS,TN,,US,,,,,
,visa,,,MEMPHIS,TN,,US,,,,,
,visa,,,MEMPHIS,TN,,US,,,,,
,visa,,,MEMPHIS,TN,,US,,,,,
,visa,,,MEMPHIS,TN,,US,,,,,
,visa,,,MEMPHIS,TN,,US,,,,,
https://www.walgreens.com/locator/walgreens-2655+frayser+blvd-memphis-tn-38127/id=13108,walgreens,Walgreens,,Memphis,TN,,US,+1 901-353-0639,https://www.walgreens.com/locator/walgreens-2655+frayser+blvd-memphis-tn-38127/id=13108,Mo-Sa 08:00-22:00; Su 09:00-21:00,Walgreens,Q1591889
https://www.walgreens.com/locator/walgreens-3100+thomas+st-memphis-tn-38127/id=9719,walgreens,Walgreens,,Memphis,TN,,US,+1 901-357-5364,https://www.walgreens.com/locator/walgreens-3100+thomas+st-memphis-tn-38127/id=9719,Mo-Sa 08:00-21:00; Su 09:00-21:00,Walgreens,Q1591889
https://locations.wendys.com/#9253984,wendys,"Wendy's Frayser Blvd 21 in Memphis, TN",,Memphis,TN,,US,+1 901-358-3150,https://locations.wendys.com/united-states/tn/memphis/2221-frayser-blvd,Mo-Su 06:30-10:30,Wendy's,Q550258
e2bdc7299b0a2024424c0c5ca18002a9,western_union,GORDIN'S FOOD & BUTCHER SHOPPE,,Memphis,TN,,US,+1 901-353-8100,https://location.westernunion.com/us/tn/memphis/e2bdc7299b0a2024424c0c5ca18002a9,Mo-Su 07:00-21:00,Western Union,Q861042
