Ref,Spider,Name,Address,City,State,Zipcode,Country,Phone,Website,Hours,Brand,WikiData
7159,aaa,"The Ron Steffens Agency, Inc",,Macomb,MI,,US,+1 586-954-2461,,,American Automobile Association,Q463436
7526,aaa,"The Barker Agency, LLC",,Macomb,MI,,US,+1 586-333-5933,,,American Automobile Association,Q463436
480,aaa,Macomb Township,,Macomb,MI,,US,+1 586-469-4050,,,American Automobile Association,Q463436
2873,anytime_fitness,Anytime Fitness,,Macomb,MI,,US,+1 586-690-8125,https://www.anytimefitness.com/gyms/2873/macomb-mi-48044/,,Anytime Fitness,Q4778364
https://locations.arbys.com/mi/macomb/20749-hall-rd.html,arbys_us,"Arby's Fast-Food Drive Through Near You in Macomb, MI",,Macomb,MI,,US,+1 586-954-3000,https://locations.arbys.com/mi/macomb/20749-hall-rd.html,Mo-Su 10:00-22:00,Arby's,Q630866
4321,autozone_us,AutoZone Auto Parts Macomb,,Macomb,MI,,US,+1 586-226-2730,https://www.autozone.com/locations/mi/macomb/46922-romeo-plank.html,Mo-Sa 08:00-21:00; Su 09:00-20:00,AutoZone,Q4826087
https://www.avis.com/en/locations/us/mi/macomb/c9b,avis,Avis U S A Macomb,,Macomb,MI,,US,+1 586-532-1395,https://www.avis.com/en/locations/us/mi/macomb/c9b,Mo-Fr 07:00-18:00; Sa-Su 09:00-12:00,Avis,Q791136
https://locators.bankofamerica.com/mi/macomb/financial-centers-macomb-16254.html,bankofamerica,Bank of America Financial Center & Drive-Thru ATM | Romeo Plank,,Macomb,MI,,US,+1 586-286-8828,https://locators.bankofamerica.com/mi/macomb/financial-centers-macomb-16254.html,Mo-Fr 10:00-16:00,Bank of America,Q487907
615,biggby_coffee_us,Biggby Coffee,18309 Hall Rd Macomb MI 48044,Macomb,MI,,US,+1 586-263-3005,,Mo-Sa 06:00-20:00; Su 07:00-20:00,Biggby Coffee,Q4906876
100415,bluerhino,Great Lakes Ace #18137,,Macomb,MI,,US,+1 586-286-8191,,,Blue Rhino,Q65681213
185814,bluerhino,Kroger #684- Michigan-Fuel Site,,Macomb,MI,,US,+1 586-421-0768,,,Blue Rhino,Q65681213
https://www.bubbas33.com/locations/michigan/macomb,bubbas33_us,Macomb,,Macomb,MI,,US,+1 586-286-2933,https://www.bubbas33.com/locations/michigan/macomb,Mo-Th 11:00-22:00; Fr-Sa 11:00-23:00; Su 11:00-22:00,Bubba's 33,Q119359352
2040804,chase_us,Card and 21 Mile - New branch,,Macomb,MI,,US,+1 586-468-9584,https://locator.chase.com/mi/macomb/21700-21-mile-rd,Mo-Fr 09:00-17:00; Sa 09:00-14:00,Chase,Q524629
88967,citi,ATM Walgreens,,Macomb,MI,,US,,,,Citibank,Q857063
49124,citi,ATM CVS,,Macomb,MI,,US,,,,Citibank,Q857063
81953,citi,ATM Target,,Macomb,MI,,US,,,,Citibank,Q857063
51274,citi,ATM CVS,,Macomb,MI,,US,,,,Citibank,Q857063
30652,citi,ATM 7ELEVEN-FCTI,,Macomb Township,MI,,US,,,,Citibank,Q857063
26459,citi,ATM 7ELEVEN-FCTI,,Macomb Township,MI,,US,,,,Citibank,Q857063
91322,citi,ATM Walgreens,,Macomb,MI,,US,,,,Citibank,Q857063
800763,citizens_us,Citizens Supermarket Branch 21 Mile - Card Rd - Kroger,,Macomb Township,MI,,US,+1 586-949-2790,,Mo-Fr 10:00-17:00; Sa 10:00-15:00,Citizens,Q5122694
ATM-511,citizens_us,,,Macomb Township,MI,,US,+1 586-949-2790,,,Citizens,Q5122694
ATM-2510,citizens_us,,,Macomb,MI,,US,,,,Citizens,Q5122694
,credit_union_us,Credit Union ONE,,Macomb,MI,,US,+1 586-566-1300,,Mo-Th 10:00-05:00; Fr 09:00-06:00; Sa 10:00-12:30,,
8287,cvs_us,CVS Pharmacy,,Macomb,MI,,US,+1 586-949-2082,https://www.cvs.com/store-locator/macomb-mi-pharmacies/21777-21-mile-rd-macomb-mi-48044/storeid=8287,Mo-Su 07:00-00:00,CVS Pharmacy,Q2078880
8158,cvs_us,CVS Pharmacy,,Macomb,MI,,US,+1 586-412-1113,https://www.cvs.com/store-locator/macomb-mi-pharmacies/46850-romeo-plank-macomb-mi-48044/storeid=8158,Mo-Su 08:00-22:00,CVS Pharmacy,Q2078880
17198,cvs_us,CVS Pharmacy,,Macomb,MI,,US,+1 586-464-1129,https://www.cvs.com/store-locator/macomb-mi-pharmacies/20877-hall-rd-macomb-mi-48044/storeid=17198,"Mo-Fr 09:00-13:30,14:00-19:00; Sa 09:00-13:30,14:00-17:00; Su 11:00-13:30,14:00-17:00",CVS Pharmacy,Q2078880
1136,dominos_pizza_us,Domino's Pizza,,Macomb Twp.,MI,,US,+1 586-598-6300,https://pizza.dominos.com/michigan/macomb-twp./21697-21-mile-rd,Mo-Th 10:30-24:00; Fr-Sa 10:30-01:00; Su 10:30-24:00,Domino's,Q839466
020,duluthtrading,"Macomb, MI",,Macomb,MI,,US,+1 586-690-6808,,Mo-Sa 10:00-19:00; Su 10:00-18:00,Duluth Trading,Q48977107
https://www.edwardjones.com/us-en/financial-advisor/kevin-ott,edwardjones,Kevin Ott,,Macomb,MI,,US,+1 586-693-3602,https://www.edwardjones.com/us-en/financial-advisor/kevin-ott,Tu-Th 09:00-17:00; Fr 09:00-16:00,Edward Jones,Q5343830
200321230,exxonmobil,7-ELEVEN 32721,,MACOMB,MI,,US,+1 586-228-3777,https://www.exxon.com/en/find-station/exxon-macomb-mi-7eleven32721-200321230,24/7,Exxon,Q109675651
200313875,exxonmobil,M-59 ENTERPRISES MOBIL,,MACOMB,MI,,US,+1 586-465-5429,https://www.exxon.com/en/find-station/mobil-macomb-mi-m59enterprisesmobil-200313875,Mo-Th 06:00-00:30; Fr-Sa 06:00-01:00; Su 07:00-00:30,Mobil,Q109676002
https://restaurants.fiveguys.com/#15553611,five_guys_us,Five Guys Mill River Marketplace,,Macomb,MI,,US,+1 586-416-3483,https://restaurants.fiveguys.com/17661-hall-street,"Mo-Su 11:00-21:30,11:00-22:00",Five Guys,Q1131810
2590,fresenius_kidney_care_us,Fresenius Kidney Care Romeo Plank,,Macomb,MI,,US,+1 800-881-5101,https://www.freseniuskidneycare.com/dialysis-centers/michigan/2590,Mo-Sa 04:30-15:30,,
https://salons.greatclips.com/us/mi/macomb/20807-hall-rd,greatclips,Great Clips,,Macomb,MI,,US,+1 248-825-4110,https://salons.greatclips.com/us/mi/macomb/20807-hall-rd,Mo-Fr 09:00-20:00; Sa 09:00-19:00; Su 10:00-18:00,Great Clips,Q5598967
https://salons.greatclips.com/us/mi/macomb/50918-romeo-plank-rd,greatclips,Great Clips,,Macomb,MI,,US,+1 586-263-8100,https://salons.greatclips.com/us/mi/macomb/50918-romeo-plank-rd,Mo-Fr 09:00-20:00; Sa 09:00-19:00; Su 10:00-18:00,Great Clips,Q5598967
442,huntingtonbank,Macomb ,,Macomb,MI,,US,+1 586-226-7640,https://www.huntington.com/Community/branch-info?locationId=442,Mo-Fr 09:00-17:00; Sa 09:00-12:00; Su 00:00-00:00,Huntington Bank,Q798819
22045,h_r_block,H&R Block,,Macomb,MI,,US,+1 586-421-1146,https://www.hrblock.com/local-tax-offices/michigan/macomb/card21-center/22045/,,H&R Block,Q5627799
16479,h_r_block,H&R Block,,Macomb,MI,,US,+1 586-263-7000,https://www.hrblock.com/local-tax-offices/michigan/macomb/16808-21-mile-rd/16479/,,H&R Block,Q5627799
21897,h_r_block,H&R Block,,Macomb,MI,,US,+1 586-566-5805,https://www.hrblock.com/local-tax-offices/michigan/macomb/crosswind-corners-shopping-cen/21897/,,H&R Block,Q5627799
https://locations.jimmyjohns.com/mi/macomb/sandwiches-309.html,jimmy_johns,Jimmy John's,,Macomb,MI,,US,+1 586-416-3333,https://locations.jimmyjohns.com/mi/macomb/sandwiches-309.html,,Jimmy John's,Q1689380
301977,kindercare,Cornerstone Village KinderCare,,Macomb,MI,,US,,https://www.kindercare.com/our-centers/macomb/mi/301977,,KinderCare Learning Centers,Q6410551
156057,marathon_petroleum_us,HALL AND HAYES MARATHON,,MACOMB,MI,,US,+1 586-566-1344,,,Marathon,Q458363
161177,marathon_petroleum_us,Rebel  891,,Macomb,MI,,US,+1 586-221-3257,,,Marathon,Q458363
66007869,moneygram,CVS - #445,,MACOMB,MI,,US,+1 586-992-8570,,Mo-Su 08:00-22:00,MoneyGram,Q1944412
21780-21-mile-road,my_eye_dr,,,Macomb,MI,,US,+1 586-421-2020,https://locations.myeyedr.com/mi/macomb/21780-21-mile-road,,MyEyeDr.,Q117864710
https://locations.noodles.com/mi/macomb/15575-hall-road.html,noodles_and_company_us,Noodles & Company Macomb,,Macomb,MI,,US,+1 586-884-8970,https://locations.noodles.com/mi/macomb/15575-hall-road.html,Mo-Sa 10:30-22:00; Su 10:30-21:00,Noodles and Company,Q7049673
48194,orangetheory_fitness,"Macomb, MI",,Macomb,MI,,US,+1 586-533-5934,,,Orangetheory Fitness,Q25005163
mi_macomb_20877-hall-road,pizza_hut_us,20877 Hall Road,,Macomb,MI,,US,,https://locations.pizzahut.com/mi/macomb/20877-hall-road,,Pizza Hut,Q191615
home-depot-2776-14376,ppgpaints,HOME DEPOT 2776,,"Macomb Township, ",MI,,US,+1 586-463-3551,https://www.ppgpaints.com/store-locator/us/michigan/macomb-township-paint-stores/home-depot-2776-14376,,PPG Paints,Q83891559
https://www.publicstorage.com/self-storage-mi-macomb/5450.html,public_storage_us,Public Storage,,Macomb,MI,,US,+1 586-519-6723,https://www.publicstorage.com/self-storage-mi-macomb/5450.html,,Public Storage,Q1156045
01025,rite_aid_us,Rite Aid #01025 Macomb,,Macomb,MI,,US,+1 586-286-4285,https://locations2.riteaid.com.yext-cdn.com/mi/macomb/46977-romeo-plank-road.html,Mo-Su 08:00-22:00,Rite Aid,Q3433273
32193,seven_eleven_ca_us,7-Eleven Store,,Macomb Township,MI,,US,+1 586-263-0776,https://www.7-eleven.com/locations/mi/macomb-township/16761-21-mile-rd-32193,,7-Eleven,Q259340
https://restaurants.subway.com/#14897045,subway,Subway,,Macomb Macomb,MI,,US,+1 586-226-8508,https://restaurants.subway.com/united-states/mi/macomb/16824-21-mile-rd,Mo-Su 09:00-21:00,Subway,Q244457
https://restaurants.subway.com/#14899778,subway,Subway,,Macomb Township Macomb,MI,,US,+1 586-598-7100,https://restaurants.subway.com/united-states/mi/macomb-township/21713-21-mile-rd,Mo-Fr 08:00-22:00; Sa 09:00-22:00; Su 09:00-21:00,Subway,Q244457
0058753500,sunoco_us,Sunoco,,MACOMB,MI,,US,+1 248-474-0900,,,Sunoco,Q1423218
82655,supercuts,Card/21 Shoppes,21729 21 Mile Rd,Macomb,MI,,US,+1 586-421-9986,https://www.supercuts.com/checkin/82655,Mo-Fr 09:00-20:00; Sa 09:00-18:00; Su 11:00-16:00,Supercuts,Q7643239
https://locations.tacobell.com/#3916828,taco_bell,Taco Bell,,Macomb,MI,,US,+1 586-263-3260,https://locations.tacobell.com/mi/macomb/18767-hall-rd-.html,Mo-Fr 06:30-03:00; Sa-Su 07:00-03:00,Taco Bell,Q752941
9014,tmobile_us,Hall Rd & Romeo Plank Rd,,Macomb,MI,,US,+1 586-412-1733,https://www.t-mobile.com/store-locator/mi/macomb/hall-rd-romeo-plank-rd,,T-Mobile,Q3511885
https://www.trekbikes.com/us/en_US/retail/macomb/,trekbikes,Trek Bicycle Macomb Township,,Macomb Township,MI,,US,+1 586-416-1000,https://www.trekbikes.com/us/en_US/retail/macomb/,Tu-Sa 10:00-18:00; Su 12:00-17:00,Trek,Q1067617
1450674,usps,CLINTON MACOMB ANNEX,,MACOMB,MI,,US,+1 586-226-4023,,,United States Postal Service,Q668687
4804400011,usps_collection_boxes,USPS COLLECTION BOX - PO LOBBY,15285 SAMOHIN DR,MACOMB,MI,,US,,,,United States Postal Service,Q668687
4804400010,usps_collection_boxes,USPS COLLECTION BOX - BLUE BOX,15285 SAMOHIN DR,MACOMB,MI,,US,,,,United States Postal Service,Q668687
4804400006,usps_collection_boxes,USPS COLLECTION BOX - BLUE BOX,45300 HAYES RD,MACOMB,MI,,US,,,,United States Postal Service,Q668687
4804400000,usps_collection_boxes,USPS COLLECTION BOX - BLUE BOX,17111 HALL RD,MACOMB,MI,,US,,,,United States Postal Service,Q668687
4804400003,usps_collection_boxes,USPS COLLECTION BOX - BLUE BOX,16828 21 MILE RD,MACOMB,MI,,US,,,,United States Postal Service,Q668687
4804400008,usps_collection_boxes,USPS COLLECTION BOX - BLUE BOX,46850 ROMEO PLANK RD,MACOMB,MI,,US,,,,United States Postal Service,Q668687
,visa,,,MACOMB,MI,,US,,,,,
,visa,,,MACOMB,MI,,US,,,,,
,visa,,,MACOMB,MI,,US,,,,,
,visa,,,MACOMB,MI,,US,,,,,
,visa,,,MACOMB,MI,,US,,,,,
,visa,,,MACOMB,MI,,US,,,,,
,visa,,,MACOMB TWP,MI,,US,,,,,
,visa,,,MACOMB TOWNSHIP,MI,,US,,,,,
,visa,,,MACOMB,MI,,US,,,,,
,visa,,,MACOMB,MI,,US,,,,,
,visa,,,MACOMB,MI,,US,,,,,
,visa,,,MACOMB TWP,MI,,US,,,,,
,visa,,,MACOMB TOWNSHIP,MI,,US,,,,,
,visa,,,MACOMB,MI,,US,,,,,
,visa,,,MACOMB,MI,,US,,,,,
,visa,,,MACOMB TOWNSHIP,MI,,US,,,,,
,visa,,,MACOMB TWP,MI,,US,,,,,
,visa,,,MACOMB,MI,,US,,,,,
,visa,,,MACOMB,MI,,US,,,,,
,visa,,,MACOMB TWP,MI,,US,,,,,
,visa,,,MACOMB,MI,,US,,,,,
,visa,,,MACOMB,MI,,US,,,,,
,visa,,,MACOMB,MI,,US,,,,,
,visa,,,MACOMB,MI,,US,,,,,
,visa,,,MACOMB,MI,,US,,,,,
,visa,,,CLINTON TOWNSHIP,MI,,US,,,,,
,visa,,,MACOMB,MI,,US,,,,,
,visa,,,MACOMB TOWNSHIP,MI,,US,,,,,
,visa,,,MACOMB TWP,MI,,US,,,,,
,visa,,,MACOMB TOWNSHIP,MI,,US,,,,,
,visa,,,MT CLEMENS,MI,,US,,,,,
,visa,,,MOUNT CLEMENS,MI,,US,,,,,
,visa,,,MACOMB TWP,MI,,US,,,,,
,visa,,,MT CLEMENS,MI,,US,,,,,
,visa,,,MACOMB TWP,MI,,US,,,,,
,visa,,,MACOMB,MI,,US,,,,,
,visa,,,MACOMB TWP,MI,,US,,,,,
,visa,,,MACOMB,MI,,US,,,,,
,visa,,,MACOMB,MI,,US,,,,,
,visa,,,MACOMB TOWNSHIP,MI,,US,,,,,
,visa,,,MACOMB TWP,MI,,US,,,,,
,visa,,,MT CLEMENS,MI,,US,,,,,
,visa,,,MACOMB TWP,MI,,US,,,,,
,visa,,,MACOMB TWP,MI,,US,,,,,
,visa,,,MT CLEMENS,MI,,US,,,,,
,visa,,,MACOMB,MI,,US,,,,,
,visa,,,MACOMB TOWNSHIP,MI,,US,,,,,
,visa,,,AUBURN HILLS,MI,,US,,,,,
https://www.walgreens.com/locator/walgreens-21790+21+mile+rd-macomb-mi-48044/id=11264,walgreens,Walgreens,,Macomb,MI,,US,+1 586-469-0254,https://www.walgreens.com/locator/walgreens-21790+21+mile+rd-macomb-mi-48044/id=11264,Mo-Su 08:00-23:00,Walgreens,Q1591889
https://www.walgreens.com/locator/walgreens-47100+hayes+rd-macomb-mi-48044/id=4453,walgreens,Walgreens,,Macomb,MI,,US,+1 586-532-8161,https://www.walgreens.com/locator/walgreens-47100+hayes+rd-macomb-mi-48044/id=4453,Mo-Su 07:00-22:00,Walgreens,Q1591889
933a105cf445e8e9d9c78da29981a973,western_union,7-ELEVEN #32193,,Macomb,MI,,US,+1 586-263-0776,https://location.westernunion.com/us/mi/macomb/933a105cf445e8e9d9c78da29981a973,,Western Union,Q861042
7d8e9e406d140ca070db55bfce3bb309,western_union,7-ELEVEN #32721,,Macomb Township,MI,,US,+1 586-495-2870,https://location.westernunion.com/us/mi/macomb-township/7d8e9e406d140ca070db55bfce3bb309,,Western Union,Q861042
146786,wingstop,Wingstop Macomb Township Hall Rd,18427 Hall Road,Macomb Township,MI,,US,+1 586-300-9464,,,Wingstop,Q8025339
