Ref,Spider,Name,Address,City,State,Zipcode,Country,Phone,Website,Hours,Brand,WikiData
205981,bluerhino,Rite Aid #04022,,New Haven,MI,,US,+1 586-749-0009,,,Blue Rhino,Q65681213
221164,bluerhino,Dollar General #18167,,NEW HAVEN,MI,,US,+1 586-315-1825,,,Blue Rhino,Q65681213
90147304388954804800100000000000,bp,BP,,New Haven,MI,,US,+1 586-749-9070,,24/7,BP,Q152057
29482,citi,ATM 7ELEVEN-FCTI,,Lenox Twp,MI,,US,,,,Citibank,Q857063
358253,dunkin_us,Dunkin',,New Haven,MI,,US,+1 586-646-5563,https://locations.dunkindonuts.com/en/mi/new-haven/57777-gratiot-ave/358253,Mo-Sa 05:00-19:00; Su 06:00-18:00,Dunkin',Q847743
200321191,exxonmobil,7-ELEVEN 32933,,NEW HAVEN,MI,,US,+1 586-725-6331,https://www.exxon.com/en/find-station/mobil-newhaven-mi-7eleven32933-200321191,24/7,Mobil,Q109676002
200320273,exxonmobil,NEW HAVEN PIT STOP,,NEW HAVEN,MI,,US,+1 586-646-5563,https://www.exxon.com/en/find-station/mobil-newhaven-mi-newhavenpitstop-200320273,24/7,Mobil,Q109676002
https://salons.greatclips.com/us/mi/lenox-township/36375-26-mile-rd,greatclips,Great Clips,,Lenox Township,MI,,US,+1 586-273-7771,https://salons.greatclips.com/us/mi/lenox-township/36375-26-mile-rd,Mo-Fr 09:00-19:00; Sa 09:00-18:00; Su 10:00-17:00,Great Clips,Q5598967
3905,jiffy_lube_us,26 Mile Rd,,LENOX,MI,,US,+1 586-701-2986,https://www.jiffylube.com/locations/mi/lenox/3905,Mo-Fr 08:00-18:00; Sa 08:00-17:00; Su 10:00-16:00,Jiffy Lube,Q6192247
156626,marathon_petroleum_us,26 AND GRATIOT MARATHON,,NEW HAVEN,MI,,US,+1 586-749-0190,,,Marathon,Q458363
04022,rite_aid_us,Rite Aid #04022 New Haven,,New Haven,MI,,US,+1 586-749-0009,https://locations2.riteaid.com.yext-cdn.com/mi/new-haven/59010-gratiot-avenue.html,Mo-Su 08:00-22:00,Rite Aid,Q3433273
https://restaurants.subway.com/#14897873,subway,Subway,,New Haven Macomb,MI,,US,+1 586-749-3672,https://restaurants.subway.com/united-states/mi/new-haven/58814-gratiot-ave,Mo-Sa 09:00-21:00; Su 10:00-20:00,Subway,Q244457
https://restaurants.subway.com/#14909196,subway,Subway Bay River Marketplace,,New Haven Macomb,MI,,US,+1 586-716-3090,https://restaurants.subway.com/united-states/mi/new-haven/36367-26-mile-road,Mo-Su 09:00-21:00,Subway,Q244457
https://locations.tacobell.com/#57450588,taco_bell,Taco Bell,,Lenox,MI,,US,+1 586-315-5945,https://locations.tacobell.com/mi/lenox/36505-26-mile-road.html,Mo-Su 07:00-03:00,Taco Bell,Q752941
1374741,usps,NEW HAVEN,,NEW HAVEN,MI,,US,+1 586-749-8472,,Mo-Fr 09:00-17:00; Sa 09:00-12:00,United States Postal Service,Q668687
4804800010,usps_collection_boxes,USPS COLLECTION BOX - PO LOBBY,58480 MAIN ST,NEW HAVEN,MI,,US,,,,United States Postal Service,Q668687
4804800006,usps_collection_boxes,USPS COLLECTION BOX - PO LOBBY,58480 MAIN ST,NEW HAVEN,MI,,US,,,,United States Postal Service,Q668687
4804800007,usps_collection_boxes,USPS COLLECTION BOX - PO LOBBY,58480 MAIN ST,NEW HAVEN,MI,,US,,,,United States Postal Service,Q668687
4804800002,usps_collection_boxes,USPS COLLECTION BOX - BLUE BOX,58480 MAIN ST,NEW HAVEN,MI,,US,,,,United States Postal Service,Q668687
4804800008,usps_collection_boxes,USPS COLLECTION BOX - BLUE BOX,58480 MAIN ST,NEW HAVEN,MI,,US,,,,United States Postal Service,Q668687
,visa,,,NEW HAVEN,MI,,US,,,,,
,visa,,,LENOX TWP,MI,,US,,,,,
,visa,,,NEW HAVEN,MI,,US,,,,,
,visa,,,NEW HAVEN,MI,,US,,,,,
,visa,,,NEW HAVEN,MI,,US,,,,,
,visa,,,NEW HAVEN,MI,,US,,,,,
,visa,,,NEW HAVEN,MI,,US,,,,,
,visa,,,NEW HAVEN,MI,,US,,,,,
,visa,,,NEW HAVEN,MI,,US,,,,,
,visa,,,NEW HAVEN,MI,,US,,,,,
,visa,,,NEW HAVEN,MI,,US,,,,,
,visa,,,NEW HAVEN,MI,,US,,,,,
,visa,,,NEW HAVEN,MI,,US,,,,,
,visa,,,MT CLEMONS,MI,,US,,,,,
,visa,,,MONROE,MI,,US,,,,,
https://locations.wendys.com/#30618976,wendys,"Wendy's 36125 26 Mile in New Haven, MI",,New Haven,MI,,US,+1 586-210-5149,https://locations.wendys.com/united-states/mi/new-haven/36125-26-mile-rd,"Mo-Th 06:00-10:30,07:00-22:00; Fr-Sa 06:00-10:30,07:00-23:00; Su 06:00-10:30,07:00-22:00",Wendy's,Q550258
334ebeccc8b6dd4f873d681bdb8d4232,western_union,7-ELEVEN #32933,,Lenox,MI,,US,+1 586-725-6331,https://location.westernunion.com/us/mi/lenox/334ebeccc8b6dd4f873d681bdb8d4232,,Western Union,Q861042
