Ref,Spider,Name,Address,City,State,Zipcode,Country,Phone,Website,Hours,Brand,WikiData
229194,bluerhino,Freshway Market,,Chicago,IL,,US,+1 312-972-5600,,,Blue Rhino,Q65681213
57690358908036062400100000000000,bp,BP,,Chicago,IL,,US,+1 773-522-1083,,Mo-Su 07:00-22:00,BP,Q152057
90081385376036062400100000000000,bp,BP,,Chicago,IL,,US,+1 773-265-0767,,24/7,BP,Q152057
71745526554026062400100000000000,bp,Amoco,,Chicago,IL,,US,+1 773-823-7160,,24/7,BP,Q152057
82244578284146062400100000000000,bp,BP,,Chicago,IL,,US,+1 773-533-1886,,24/7,BP,Q152057
om_il_chicago_3250-west-roosevelt-rd,cititrends,Citi Trends,,Chicago,IL,,US,+1 708-400-8825,https://locations.cititrends.com/il/chicago/3250-west-roosevelt-rd.html,Mo 11:00-20:00; Tu 11:00-20:00; We 11:00-20:00; Th 11:00-20:00; Fr 10:00-21:00; Sa 10:00-21:00; Su 12:00-18:00,Citi Trends,Q5122438
80335101,cricket_wireless,Cricket Wireless Authorized Retailer,,Chicago,IL,,US,+1 773-522-5519,https://www.cricketwireless.com/stores/ll/US/IL/Chicago/3845-W-Roosevelt-Rd,Mo-Sa 09:30-19:30; Su 11:00-18:00,Cricket Wireless,Q5184987
925,culvers_us,"Culver's of Chicago, IL - W Chicago Ave JPSTC",,Chicago,IL,,US,+1 773-799-8166,http://www.culvers.com/restaurants/chicago-jpstc-w-chicago-ave,Mo-Fr 10:00-22:00; Su 10:00-22:00,Culver's,Q1143589
359414,dunkin_us,Dunkin',,Chicago,IL,,US,+1 773-405-6262,https://locations.dunkindonuts.com/en/il/chicago/3501-roosevelt-road/359414,24/7,Dunkin',Q847743
200329801,exxonmobil,KILBOURN MART,,CHICAGO,IL,,US,+1 773-378-2144,https://www.exxon.com/en/find-station/exxon-chicago-il-kilbournmart-200329801,Mo-Fr 06:00-22:00; Sa 07:00-22:00; Su 06:00-22:00,Exxon,Q109675651
200312291,exxonmobil,Mobil,,CHICAGO,IL,,US,,https://www.exxon.com/en/find-station/mobil-chicago-il-mobil-200312291,24/7,Mobil,Q109676002
https://local.fedex.com/#25203790,fedex,,,Chicago,IL,,US,+1 800-463-3339,https://local.fedex.com/en-us/il/chicago/rp3ne,,FedEx,Q459477
https://stores.footlocker.com/il/chicago/4055-west-madison-street-25148.html,footlocker,"Foot Locker in Madison and Karlov: Chicago, Illinois | Approved | Own It",,Chicago,IL,,US,+1 773-722-1055,https://stores.footlocker.com/il/chicago/4055-west-madison-street-25148.html,Mo-Sa 10:00-19:00; Su 12:00-18:00,Foot Locker,Q63335
https://stores.footlocker.com/il/chicago/3900-west-madison-boulevard-7029.html,footlocker,"Foot Locker in Madison and Pulaski: Chicago, Illinois | Approved | Own It",,Chicago,IL,,US,+1 773-722-7116,https://stores.footlocker.com/il/chicago/3900-west-madison-boulevard-7029.html,Mo-Sa 10:00-19:00; Su 12:00-18:00,Foot Locker,Q63335
3032,fresenius_kidney_care_us,Fresenius Kidney Care Congress Parkway,,Chicago,IL,,US,+1 800-881-5101,https://www.freseniuskidneycare.com/dialysis-centers/illinois/3032,Mo 04:00-21:30; Tu 04:00-15:30; We 04:00-21:30; Th 04:00-15:30; Fr 04:00-21:30; Sa 04:00-15:30; Su 04:00-21:30,,
https://office.jacksonhewitt.com/#27576667,jackson_hewitt,Jackson Hewitt,,Chicago,IL,,US,+1 773-309-4813,https://office.jacksonhewitt.com/tax-preparation-services-locations/en/il/chicago/3950-w-monroe-st/12517,Mo-Fr 10:00-19:00; Sa 11:00-19:00,Jackson Hewitt,Q6117132
https://locations.oreillyauto.com/il/chicago/wiper-installation-3384.html,oreilly,Your Chicago O'Reilly Auto Parts Store,,Chicago,IL,,US,+1 773-265-1960,https://locations.oreillyauto.com/il/chicago/wiper-installation-3384.html,Mo-Sa 07:30-21:00; Su 09:00-21:00,O'Reilly Auto Parts,Q7071951
https://locations.oreillyauto.com/il/chicago/check-engine-light-testing-3384.html,oreilly,Your Chicago O'Reilly Auto Parts Store,,Chicago,IL,,US,+1 773-265-1960,https://locations.oreillyauto.com/il/chicago/check-engine-light-testing-3384.html,Mo-Sa 07:30-21:00; Su 09:00-21:00,O'Reilly Auto Parts,Q7071951
https://locations.oreillyauto.com/il/chicago/battery-testing-3384.html,oreilly,Your Chicago O'Reilly Auto Parts Store,,Chicago,IL,,US,+1 773-265-1960,https://locations.oreillyauto.com/il/chicago/battery-testing-3384.html,Mo-Sa 07:30-21:00; Su 09:00-21:00,O'Reilly Auto Parts,Q7071951
https://locations.oreillyauto.com/il/chicago/autopartes-3384.html,oreilly,Tu tienda O'Reilly Auto Parts en Chicago,,Chicago,IL,,US,+1 773-265-1960,https://locations.oreillyauto.com/il/chicago/autopartes-3384.html,Mo-Sa 07:30-21:00; Su 09:00-21:00,O'Reilly Auto Parts,Q7071951
restaurant_82439,popeyes_us_fr,Popeyes,"3451 W Roosevelt Rd Chicago, Illinois 60624 - USA",Chicago,IL,,US,+1 773-521-1144,https://www.popeyes.com/store-locator/store/restaurant_82439,Mo-Su 10:00-00:00,Popeyes,Q1330910
https://restaurants.subway.com/#14914454,subway,Subway,,Chicago Cook,IL,,US,+1 773-722-6902,https://restaurants.subway.com/united-states/il/chicago/4030-w-roosevelt-rd,,Subway,Q244457
https://locations.tacobell.com/#6144132,taco_bell,Taco Bell,,Chicago,IL,,US,+1 773-826-9324,https://locations.tacobell.com/il/chicago/3350-w--roosevelt-rd.html,Mo-Th 07:00-01:00; Fr-Sa 07:00-02:00; Su 07:00-01:00,Taco Bell,Q752941
1372047,usps,MARY ALICE HENRY,,CHICAGO,IL,,US,+1 773-722-3740,,Mo-Fr 08:30-17:00; Sa 08:00-13:00,United States Postal Service,Q668687
6062400024,usps_collection_boxes,USPS COLLECTION BOX - BLUE BOX,3360 W LAKE ST NE,CHICAGO,IL,,US,,,,United States Postal Service,Q668687
6062400025,usps_collection_boxes,USPS COLLECTION BOX - BLUE BOX,3361 W WARREN BLVD,CHICAGO,IL,,US,,,,United States Postal Service,Q668687
6062400000,usps_collection_boxes,USPS COLLECTION BOX - BLUE BOX,3240 W FRANKLIN BLVD,CHICAGO,IL,,US,,,,United States Postal Service,Q668687
6062400023,usps_collection_boxes,USPS COLLECTION BOX - BLUE BOX,301 S HOMAN AVE,CHICAGO,IL,,US,,,,United States Postal Service,Q668687
6062400015,usps_collection_boxes,USPS COLLECTION BOX - BLUE BOX,3558 W MADISON ST,CHICAGO,IL,,US,,,,United States Postal Service,Q668687
6062400002,usps_collection_boxes,USPS COLLECTION BOX - BLUE BOX,3435 W VAN BUREN ST,CHICAGO,IL,,US,,,,United States Postal Service,Q668687
6062400021,usps_collection_boxes,USPS COLLECTION BOX - BLUE BOX,1125 S HOMAN AVE,CHICAGO,IL,,US,,,,United States Postal Service,Q668687
6062400054,usps_collection_boxes,USPS COLLECTION BOX - BLUE BOX,600 S HOMAN AVE,CHICAGO,IL,,US,,,,United States Postal Service,Q668687
6062400014,usps_collection_boxes,USPS COLLECTION BOX - BLUE BOX,3601 W 5TH AVE,CHICAGO,IL,,US,,,,United States Postal Service,Q668687
6062400003,usps_collection_boxes,USPS COLLECTION BOX - BLUE BOX,3700 W CONGRESS PKWY,CHICAGO,IL,,US,,,,United States Postal Service,Q668687
,visa,,,CHICAGO,IL,,US,,,,,
,visa,,,CHICAGO,IL,,US,,,,,
,visa,,,CHICAGO,IL,,US,,,,,
,visa,,,CHICAGO,IL,,US,,,,,
,visa,,,CHICAGO,IL,,US,,,,,
,visa,,,CHICAGO,IL,,US,,,,,
,visa,,,CHICAGO,IL,,US,,,,,
,visa,,,CHICAGO,IL,,US,,,,,
,visa,,,CHICAGO,IL,,US,,,,,
,visa,,,CHICAGO,IL,,US,,,,,
,visa,,,CHICAGO,IL,,US,,,,,
,visa,,,CHICAGO,IL,,US,,,,,
,visa,,,CHICAGO,IL,,US,,,,,
,visa,,,CHICAGO,IL,,US,,,,,
,visa,,,CHICAGO,IL,,US,,,,,
,visa,,,CHICAGO,IL,,US,,,,,
,visa,,,CHICAGO,IL,,US,,,,,
,visa,,,CHICAGO,IL,,US,,,,,
,visa,,,CHICAGO,IL,,US,,,,,
,visa,,,CHICAGO,IL,,US,,,,,
,visa,,,CHICAGO,IL,,US,,,,,
,visa,,,CHICAGO,IL,,US,,,,,
,visa,,,CHICAGO,IL,,US,,,,,
,visa,,,CHICAGO,IL,,US,,,,,
,visa,,,CHICAGO,IL,,US,,,,,
,visa,,,CHICAGO,IL,,US,,,,,
,visa,,,CHICAGO,IL,,US,,,,,
,visa,,,CHICAGO,IL,,US,,,,,
,visa,,,NORTH BROOK,IL,,US,,,,,
,visa,,,CHICAGO,IL,,US,,,,,
,visa,,,CHICAGO,IL,,US,,,,,
,visa,,,CHICAGO,IL,,US,,,,,
,visa,,,CHICAGO,IL,,US,,,,,
,visa,,,CHICAGO,IL,,US,,,,,
,visa,,,CHICAGO,IL,,US,,,,,
,visa,,,CHICAGO,IL,,US,,,,,
,visa,,,CHICAGO,IL,,US,,,,,
,visa,,,CHICAGO,IL,,US,,,,,
,visa,,,CHICAGO,IL,,US,,,,,
,visa,,,CHICAGO,IL,,US,,,,,
,visa,,,CHICAGO,IL,,US,,,,,
,visa,,,CHICAGO,IL,,US,,,,,
,visa,,,CHICAGO,IL,,US,,,,,
,visa,,,CHICAGO,IL,,US,,,,,
,visa,,,CHICAGO,IL,,US,,,,,
,visa,,,CHICAGO,IL,,US,,,,,
,visa,,,CHICAGO,IL,,US,,,,,
,visa,,,CHICAGO,IL,,US,,,,,
,visa,,,CHICAGO,IL,,US,,,,,
,visa,,,CHICAGO,IL,,US,,,,,
,visa,,,CHICAGO,IL,,US,,,,,
,visa,,,CHICAGO,IL,,US,,,,,
,visa,,,CHICAGO,IL,,US,,,,,
,visa,,,CHICAGO,IL,,US,,,,,
,visa,,,CHICAGO,IL,,US,,,,,
,visa,,,CHICAGO,IL,,US,,,,,
,visa,,,CHICAGO,IL,,US,,,,,
,visa,,,CHICAGO,IL,,US,,,,,
,visa,,,CHICAGO,IL,,US,,,,,
,visa,,,CHICAGO,IL,,US,,,,,
,visa,,,CHICAGO,IL,,US,,,,,
,visa,,,CHICAGO,IL,,US,,,,,
,visa,,,CHICAGO,IL,,US,,,,,
,visa,,,CHICAGO,IL,,US,,,,,
,visa,,,CHICAGO,IL,,US,,,,,
,visa,,,CHICAGO,IL,,US,,,,,
,visa,,,CHICAGO,IL,,US,,,,,
,visa,,,CHICAGO,IL,,US,,,,,
,visa,,,CHICAGO,IL,,US,,,,,
,visa,,,CHICAGO,IL,,US,,,,,
,visa,,,CHICAGO,IL,,US,,,,,
,visa,,,CHICAGO,IL,,US,,,,,
,visa,,,CHICAGO,IL,,US,,,,,
,visa,,,CHICAGO,IL,,US,,,,,
,visa,,,CHICAGO,IL,,US,,,,,
,visa,,,CHICAGO,IL,,US,,,,,
,visa,,,CHICAGO,IL,,US,,,,,
,visa,,,CHICAGO,IL,,US,,,,,
,visa,,,CHICAGO,IL,,US,,,,,
,visa,,,CHICAGO,IL,,US,,,,,
,visa,,,CHICAGO,IL,,US,,,,,
,visa,,,CHICAGO,IL,,US,,,,,
https://www.walgreens.com/locator/walgreens-3401+w+roosevelt+rd-chicago-il-60624/id=3395,walgreens,Walgreens,,Chicago,IL,,US,+1 773-542-1232,https://www.walgreens.com/locator/walgreens-3401+w+roosevelt+rd-chicago-il-60624/id=3395,Mo-Fr 07:00-22:00; Sa-Su 08:00-22:00,Walgreens,Q1591889
https://www.walgreens.com/locator/walgreens-3800+w+madison+st-chicago-il-60624/id=15507,walgreens,Walgreens,,Chicago,IL,,US,+1 773-826-1817,https://www.walgreens.com/locator/walgreens-3800+w+madison+st-chicago-il-60624/id=15507,Mo-Fr 09:00-18:00; Sa-Su 00:00-24:00,Walgreens,Q1591889
