Ref,Spider,Name,Address,City,State,Zipcode,Country,Phone,Website,Hours,Brand,WikiData
https://local.pharmacy.jewelosco.com/#5672972,albertsons,Jewel-Osco Pharmacy,,Chicago,IL,,US,+1 773-274-1293,https://local.pharmacy.jewelosco.com/il/chicago/1763-w-howard-st.html,Mo-Fr 08:00-20:00; Sa-Su 09:00-17:00,Jewel-Osco,Q3178470
https://local.jewelosco.com/#5603771,albertsons,Jewel-Osco,,Chicago,IL,,US,+1 773-274-1287,https://local.jewelosco.com/il/chicago/1763-w-howard-st.html,"Mo-Fr 06:00-22:00,08:00-20:00; Sa-Su 06:00-22:00,09:00-17:00",Jewel-Osco,Q3178470
https://locators.bankofamerica.com/il/chicago/financial-centers-chicago-16423.html,bankofamerica,Bank of America Financial Center & Drive-Thru ATM | Gateway Plaza,,Chicago,IL,,US,+1 773-508-1480,https://locators.bankofamerica.com/il/chicago/financial-centers-chicago-16423.html,Mo-Fr 09:00-17:00; Sa 09:00-14:00,Bank of America,Q487907
https://locations.baskinrobbins.com/il/chicago/7553-n-paulina-st-351268-br,baskin_robbins_us,Baskin-Robbinsâ„¢,,Chicago,IL,,US,+1 773-274-0204,https://locations.baskinrobbins.com/il/chicago/7553-n-paulina-st-351268-br,Mo-Su 05:00-20:00,Baskin-Robbins,Q584601
156061,bluerhino,Walgreens #1308,,Chicago,IL,,US,+1 773-743-6784,,,Blue Rhino,Q65681213
21863889722016062600100000000000,bp,Amoco,,Chicago,IL,,US,+1 773-338-1820,,24/7,BP,Q152057
128341,bp,BP,,Chicago,IL,,US,1111111111,,,BP,Q152057
2042218,chase_us,Loyola - New branch,,Chicago,IL,,US,+1 773-508-6417,https://locator.chase.com/il/chicago/6415-n-sheridan-rd,Mo-Fr 09:00-17:00; Sa 09:00-14:00,Chase,Q524629
2042208,chase_us,Howard and Clark - New branch,,Chicago,IL,,US,+1 773-465-7402,https://locator.chase.com/il/chicago/1791-w-howard-st,Mo-Fr 09:00-17:00; Sa 09:00-14:00,Chase,Q524629
3006769,chase_us,OFF PREMISE WU ATM - 568364,,CHICAGO,IL,,US,+1 800-935-9935,https://locator.chase.com/il/chicago/1425-w-morse-ave,,Chase,Q524629
il_chicago_6600-n-sheridan-rd,chipotle, ,,Chicago,IL,,US,+1 773-465-9281,https://locations.chipotle.com/il/chicago/6600-n-sheridan-rd,,Chipotle,Q465751
35464,citi,ATM ASSOCIATED BANK,,Chicago,IL,,US,,,,Citibank,Q857063
92759,citi,ATM Walgreens,,Chicago,IL,,US,,,,Citibank,Q857063
25749,citi,ATM 7ELEVEN-FCTI,,Chicago,IL,,US,,,,Citibank,Q857063
32077,citi,ATM 7ELEVEN-FCTI,,Chicago,IL,,US,,,,Citibank,Q857063
35592,citi,ATM ASSOCIATED BANK,,Chicago,IL,,US,,,,Citibank,Q857063
52277,citi,ATM CVS,,Chicago,IL,,US,,,,Citibank,Q857063
82901,citi,ATM Target,,Chicago,IL,,US,,,,Citibank,Q857063
31866,citi,ATM 7ELEVEN-FCTI,,Chicago,IL,,US,,,,Citibank,Q857063
om_il_chicago_7503-n-clark-street,cititrends,Citi Trends,,Chicago,IL,,US,+1 708-400-8144,https://locations.cititrends.com/il/chicago/7503-n-clark-street.html,Mo 11:00-20:00; Tu 11:00-20:00; We 11:00-20:00; Th 11:00-20:00; Fr 10:00-21:00; Sa 10:00-21:00; Su 12:00-18:00,Citi Trends,Q5122438
70232273,cricket_wireless,Cricket Wireless Authorized Retailer,,Chicago,IL,,US,+1 773-942-7773,https://www.cricketwireless.com/stores/ll/US/IL/Chicago/7012-N-Clark-St,Mo-Sa 10:00-19:00; Su 12:00-17:00,Cricket Wireless,Q5184987
8980,cvs_us,CVS Pharmacy,,Chicago,IL,,US,+1 773-338-4384,https://www.cvs.com/store-locator/chicago-il-pharmacies/6510-north-sheridan-rd-chicago-il-60626/storeid=8980,Mo-Su 07:00-23:00,CVS Pharmacy,Q2078880
9188,dominos_pizza_us,Domino's Pizza,,Chicago,IL,,US,+1 773-346-3535,https://pizza.dominos.com/illinois/chicago/6607-n-clark-st,Mo-Th 10:30-24:00; Fr-Sa 10:30-01:00; Su 10:30-24:00,Domino's,Q839466
351268,dunkin_us,Dunkin',,Chicago,IL,,US,+1 773-274-0204,https://locations.dunkindonuts.com/en/il/chicago/7553-n-paulina-st/351268,Mo-Su 05:00-20:00,Dunkin',Q847743
307249,dunkin_us,Dunkin',,Chicago,IL,,US,+1 773-508-0433,https://locations.dunkindonuts.com/en/il/chicago/6970-n-clark-st/307249,Mo-Su 04:00-21:00,Dunkin',Q847743
336090,dunkin_us,Dunkin',,Chicago,IL,,US,+1 773-381-7478,https://locations.dunkindonuts.com/en/il/chicago/1200-w-loyola-ave/336090,Mo-Su 06:00-18:00,Dunkin',Q847743
354259,dunkin_us,Dunkin',,Chicago,IL,,US,+1 773-274-7300,https://locations.dunkindonuts.com/en/il/chicago/1357-w-morse-ave/354259,Mo-Sa 05:00-19:00; Su 06:00-17:00,Dunkin',Q847743
https://local.fedex.com/#25203618,fedex,,,Chicago,IL,,US,+1 800-463-3339,https://local.fedex.com/en-us/il/chicago/nk8wu,,FedEx,Q459477
2398,first_cash,Cash America Pawn,,Chicago,IL,,US,+1 773-274-7296,,,Cash America,Q5048636
539,first_cash,Cash America Pawn,,Chicago,IL,,US,+1 773-942-6556,,,Cash America,Q5048636
1568,gamestop_us,Gateway Center,,Chicago,IL,,US,+1 773-743-8128,https://www.gamestop.com/search/?store=1568,Mo-Sa 12:00-20:00; Su 11:00-19:00,GameStop,Q202210
12817,h_r_block,H&R Block,,Chicago,IL,,US,+1 773-465-0960,https://www.hrblock.com/local-tax-offices/illinois/chicago/nortown-plaza-shopping-center/12817/,,H&R Block,Q5627799
7331-n-sheridan-selfpark,indigo,7331 N. Sheridan Self-Park,,Chicago,IL,,US,+1 312-577-7985,,,Indigo,Q3559970
1313-morse-ave-garage,indigo,1313 Morse Ave Garage,,Chicago,IL,,US,+1 312-577-7985,,,Indigo,Q3559970
70486515,moneygram,MORSE EL CURRENCY EXCHANGE INC,,CHICAGO,IL,,US,+1 872-241-9354,,Mo-Su 07:00-21:30,MoneyGram,Q1944412
521035,penske,Clark Devon Hardware,,CHICAGO,IL,,US,+1 773-250-0155,https://www.pensketruckrental.com/locations/us/illinois/chicago/521035/,,Penske,Q81234570
restaurant_81663,popeyes_us_fr,Popeyes,"1959 W Howard St Chicago, Illinois 60626 - USA",Chicago,IL,,US,+1 773-764-9870,https://www.popeyes.com/store-locator/store/restaurant_81663,Mo-Su 10:00-00:00,Popeyes,Q1330910
136983,potbelly_sandwich,Loyola,,Chicago,IL,,US,+1 773-596-5335,,Mo-Sa 09:00-23:00; Su 10:00-22:00,Potbelly Sandwich Shop,Q7234777
https://www.publicstorage.com/self-storage-il-chicago/1197.html,public_storage_us,Public Storage,,Chicago,IL,,US,+1 872-216-2930,https://www.publicstorage.com/self-storage-il-chicago/1197.html,,Public Storage,Q1156045
https://restaurants.subway.com/#14912819,subway,Subway Gateway Centre,,Chicago Cook,IL,,US,+1 773-274-0074,https://restaurants.subway.com/united-states/il/chicago/7549-&-7551-n-paulina,Mo-Fr 06:30-20:30; Sa-Su 09:00-20:00,Subway,Q244457
https://restaurants.subway.com/#14905972,subway,Subway Rogers Park Citgo,,Chicago Cook,IL,,US,+1 773-274-5111,https://restaurants.subway.com/united-states/il/chicago/7138-n-sheridan,Tu-Fr 12:00-19:00,Subway,Q244457
https://restaurants.subway.com/#14900321,subway,Subway,,Chicago Cook,IL,,US,+1 773-338-6640,https://restaurants.subway.com/united-states/il/chicago/6555-n-clark-st,Mo-Su 09:00-22:00,Subway,Q244457
https://restaurants.subway.com/#14893941,subway,Subway Granada Ctr,,Chicago Cook,IL,,US,+1 773-274-6800,https://restaurants.subway.com/united-states/il/chicago/6449-n-sheridan-rd,Mo-Su 09:00-22:00,Subway,Q244457
https://locations.tacobell.com/#6142632,taco_bell,Taco Bell,,Chicago,IL,,US,+1 773-892-2032,https://locations.tacobell.com/il/chicago/6460-n-sheridan-road.html,,Taco Bell,Q752941
10847,tjx,Chicago,7507 North Clark Street,Chicago,IL,,US,+1 773-274-9660,,,Marshalls,Q15903261
7602,tmobile_us,W Howard & N Clark,,Chicago,IL,,US,+1 773-274-0059,https://www.t-mobile.com/store-locator/il/chicago/w-howard-n-clark,,T-Mobile,Q3511885
9693,tmobile_us,Sheridan Rd & Arthur Ave,,Chicago,IL,,US,+1 773-262-4966,https://www.t-mobile.com/store-locator/il/chicago/sheridan-rd-arthur-ave,,T-Mobile,Q3511885
https://www.ubreakifix.com/locations/rogerspark,ubreakifix,uBreakiFix Rogers Park,,Chicago,IL,,US,+1 773-564-4387,https://www.ubreakifix.com/locations/rogerspark,Mo-Sa 10:00-19:00; Su 12:00-17:00,uBreakiFix,Q53685733
1383461,usps,FINANCE STATION M,,CHICAGO,IL,,US,+1 773-943-6105,,Mo-Fr 11:00-17:00,United States Postal Service,Q668687
6062600065,usps_collection_boxes,USPS COLLECTION BOX - BLUE BOX,7641 N SHERIDAN RD,CHICAGO,IL,,US,,,,United States Postal Service,Q668687
6062600045,usps_collection_boxes,USPS COLLECTION BOX - BLUE BOX,7600 N SHERIDAN RD,CHICAGO,IL,,US,,,,United States Postal Service,Q668687
6062600044,usps_collection_boxes,USPS COLLECTION BOX - BLUE BOX,1524 W HOWARD ST,CHICAGO,IL,,US,,,,United States Postal Service,Q668687
6062600090,usps_collection_boxes,USPS COLLECTION BOX - PO LOBBY,7615 N PAULINA ST,CHICAGO,IL,,US,,,,United States Postal Service,Q668687
6062600047,usps_collection_boxes,USPS COLLECTION BOX - BLUE BOX,7400 N SHERIDAN RD,CHICAGO,IL,,US,,,,United States Postal Service,Q668687
6062600030,usps_collection_boxes,USPS COLLECTION BOX - BLUE BOX,1467 W FARGO AVE,CHICAGO,IL,,US,,,,United States Postal Service,Q668687
6062600039,usps_collection_boxes,USPS COLLECTION BOX - BLUE BOX,1501 W JARVIS AVE,CHICAGO,IL,,US,,,,United States Postal Service,Q668687
6062600017,usps_collection_boxes,USPS COLLECTION BOX - BLUE BOX,7300 N SHERIDAN RD,CHICAGO,IL,,US,,,,United States Postal Service,Q668687
6062600046,usps_collection_boxes,USPS COLLECTION BOX - BLUE BOX,7367 N ASHLAND BLVD,CHICAGO,IL,,US,,,,United States Postal Service,Q668687
6062600004,usps_collection_boxes,USPS COLLECTION BOX - BLUE BOX,1763 W HOWARD ST,CHICAGO,IL,,US,,,,United States Postal Service,Q668687
6062600066,usps_collection_boxes,USPS COLLECTION BOX - BLUE BOX,7200 N SHERIDAN RD,CHICAGO,IL,,US,,,,United States Postal Service,Q668687
6062600068,usps_collection_boxes,USPS COLLECTION BOX - BLUE BOX,7547 N WINCHESTER AVE,CHICAGO,IL,,US,,,,United States Postal Service,Q668687
6062600028,usps_collection_boxes,USPS COLLECTION BOX - BLUE BOX,7100 N SHERIDAN RD,CHICAGO,IL,,US,,,,United States Postal Service,Q668687
6062600026,usps_collection_boxes,USPS COLLECTION BOX - BLUE BOX,7407 N CLARK ST,CHICAGO,IL,,US,,,,United States Postal Service,Q668687
6062600041,usps_collection_boxes,USPS COLLECTION BOX - BLUE BOX,1447 W TOUHY AVE,CHICAGO,IL,,US,,,,United States Postal Service,Q668687
6062600037,usps_collection_boxes,USPS COLLECTION BOX - BLUE BOX,1376 W GREENLEAF AVE,CHICAGO,IL,,US,,,,United States Postal Service,Q668687
6062600054,usps_collection_boxes,USPS COLLECTION BOX - BLUE BOX,1648 W TOUHY AVE,CHICAGO,IL,,US,,,,United States Postal Service,Q668687
6062600038,usps_collection_boxes,USPS COLLECTION BOX - BLUE BOX,7053 N GREENVIEW AVE,CHICAGO,IL,,US,,,,United States Postal Service,Q668687
6062600027,usps_collection_boxes,USPS COLLECTION BOX - BLUE BOX,7137 N CLARK ST,CHICAGO,IL,,US,,,,United States Postal Service,Q668687
6062600035,usps_collection_boxes,USPS COLLECTION BOX - BLUE BOX,1409 W LUNT AVE,CHICAGO,IL,,US,,,,United States Postal Service,Q668687
6062600059,usps_collection_boxes,USPS COLLECTION BOX - BLUE BOX,6900 N SHERIDAN RD,CHICAGO,IL,,US,,,,United States Postal Service,Q668687
6062600072,usps_collection_boxes,USPS COLLECTION BOX - BLUE BOX,7056 N CLARK ST,CHICAGO,IL,,US,,,,United States Postal Service,Q668687
6062600036,usps_collection_boxes,USPS COLLECTION BOX - BLUE BOX,1407 W MORSE AVE,CHICAGO,IL,,US,,,,United States Postal Service,Q668687
6062600064,usps_collection_boxes,USPS COLLECTION BOX - BLUE BOX,6800 N SHERIDAN RD,CHICAGO,IL,,US,,,,United States Postal Service,Q668687
6062600034,usps_collection_boxes,USPS COLLECTION BOX - BLUE BOX,6900 N GLENWOOD AVE,CHICAGO,IL,,US,,,,United States Postal Service,Q668687
6062600013,usps_collection_boxes,USPS COLLECTION BOX - BLUE BOX,1554 W MORSE AVE,CHICAGO,IL,,US,,,,United States Postal Service,Q668687
6062600029,usps_collection_boxes,USPS COLLECTION BOX - BLUE BOX,1853 W ESTES AVE,CHICAGO,IL,,US,,,,United States Postal Service,Q668687
6062600058,usps_collection_boxes,USPS COLLECTION BOX - BLUE BOX,6736 N SHERIDAN RD,CHICAGO,IL,,US,,,,United States Postal Service,Q668687
6062600022,usps_collection_boxes,USPS COLLECTION BOX - BLUE BOX,6983 N CLARK ST,CHICAGO,IL,,US,,,,United States Postal Service,Q668687
6062600010,usps_collection_boxes,USPS COLLECTION BOX - BLUE BOX,7617 N PAULINA ST,CHICAGO,IL,,US,,,,United States Postal Service,Q668687
6062600055,usps_collection_boxes,USPS COLLECTION BOX - BLUE BOX,6500 N RIDGE BLVD SE,CHICAGO,IL,,US,,,,United States Postal Service,Q668687
6062600071,usps_collection_boxes,USPS COLLECTION BOX - BLUE BOX,1858 W TOUHY AVE,CHICAGO,IL,,US,,,,United States Postal Service,Q668687
6062600042,usps_collection_boxes,USPS COLLECTION BOX - BLUE BOX,1500 W PRATT BLVD,CHICAGO,IL,,US,,,,United States Postal Service,Q668687
6062600063,usps_collection_boxes,USPS COLLECTION BOX - BLUE BOX,6628 N SHERIDAN RD,CHICAGO,IL,,US,,,,United States Postal Service,Q668687
6062600056,usps_collection_boxes,USPS COLLECTION BOX - BLUE BOX,6590 N SHERIDAN RD,CHICAGO,IL,,US,,,,United States Postal Service,Q668687
6062600020,usps_collection_boxes,USPS COLLECTION BOX - BLUE BOX,6901 N CLARK ST,CHICAGO,IL,,US,,,,United States Postal Service,Q668687
6062600014,usps_collection_boxes,USPS COLLECTION BOX - BLUE BOX,1622 W PRATT BLVD,CHICAGO,IL,,US,,,,United States Postal Service,Q668687
6062600060,usps_collection_boxes,USPS COLLECTION BOX - BLUE BOX,6525 N SHERIDAN RD,CHICAGO,IL,,US,,,,United States Postal Service,Q668687
6062600033,usps_collection_boxes,USPS COLLECTION BOX - BLUE BOX,6579 N GLENWOOD AVE,CHICAGO,IL,,US,,,,United States Postal Service,Q668687
6062600051,usps_collection_boxes,USPS COLLECTION BOX - BLUE BOX,1263 W LOYOLA AVE,CHICAGO,IL,,US,,,,United States Postal Service,Q668687
6062600070,usps_collection_boxes,USPS COLLECTION BOX - BLUE BOX,1900 W PRATT BLVD,CHICAGO,IL,,US,,,,United States Postal Service,Q668687
6062600018,usps_collection_boxes,USPS COLLECTION BOX - BLUE BOX,6600 N CLARK ST,CHICAGO,IL,,US,,,,United States Postal Service,Q668687
6062600012,usps_collection_boxes,USPS COLLECTION BOX - BLUE BOX,6501 N BOSWORTH AVE,CHICAGO,IL,,US,,,,United States Postal Service,Q668687
6062600019,usps_collection_boxes,USPS COLLECTION BOX - BLUE BOX,6526 N CLARK ST,CHICAGO,IL,,US,,,,United States Postal Service,Q668687
6062600075,usps_collection_boxes,USPS COLLECTION BOX - APC,1723 W DEVON AVE,CHICAGO,IL,,US,,,,United States Postal Service,Q668687
6062600089,usps_collection_boxes,USPS COLLECTION BOX - PO LOBBY,1723 W DEVON AVE,CHICAGO,IL,,US,,,,United States Postal Service,Q668687
,visa,,,CHICAGO,IL,,US,,,,,
,visa,,,CHICAGO,IL,,US,,,,,
,visa,,,CHICAGO,IL,,US,,,,,
,visa,,,CHICAGO,IL,,US,,,,,
,visa,,,CHICAGO,IL,,US,,,,,
,visa,,,CHICAGO,IL,,US,,,,,
,visa,,,CHICAGO,IL,,US,,,,,
,visa,,,CHICAGO,IL,,US,,,,,
,visa,,,CHICAGO,IL,,US,,,,,
,visa,,,CHICAGO,IL,,US,,,,,
,visa,,,CHICAGO,IL,,US,,,,,
,visa,,,CHICAGO,IL,,US,,,,,
,visa,,,CHICAGO,IL,,US,,,,,
,visa,,,CHICAGO,IL,,US,,,,,
,visa,,,CHICAGO,IL,,US,,,,,
,visa,,,CHICAGO,IL,,US,,,,,
,visa,,,CHICAGO,IL,,US,,,,,
,visa,,,CHICAGO,IL,,US,,,,,
,visa,,,CHICAGO,IL,,US,,,,,
,visa,,,CHICAGO,IL,,US,,,,,
,visa,,,CHICAGO,IL,,US,,,,,
,visa,,,CHICAGO,IL,,US,,,,,
,visa,,,CHICAGO,IL,,US,,,,,
,visa,,,CHICAGO,IL,,US,,,,,
,visa,,,CHICAGO,IL,,US,,,,,
,visa,,,CHICAGO,IL,,US,,,,,
,visa,,,CHICAGO,IL,,US,,,,,
,visa,,,CHICAGO,IL,,US,,,,,
,visa,,,CHICAGO,IL,,US,,,,,
,visa,,,CHICAGO,IL,,US,,,,,
,visa,,,CHICAGO,IL,,US,,,,,
,visa,,,CHICAGO,IL,,US,,,,,
,visa,,,CHICAGO,IL,,US,,,,,
,visa,,,CHICAGO,IL,,US,,,,,
,visa,,,CHICAGO,IL,,US,,,,,
,visa,,,CHICAGO,IL,,US,,,,,
,visa,,,CHICAGO,IL,,US,,,,,
,visa,,,CHICAGO,IL,,US,,,,,
,visa,,,CHICAGO,IL,,US,,,,,
,visa,,,CHICAGO,IL,,US,,,,,
,visa,,,CHICAGO,IL,,US,,,,,
,visa,,,CHICAGO,IL,,US,,,,,
,visa,,,CHICAGO,IL,,US,,,,,
,visa,,,CHICAGO,IL,,US,,,,,
,visa,,,CHICAGO,IL,,US,,,,,
,visa,,,CHICAGO,IL,,US,,,,,
,visa,,,CHICAGO,IL,,US,,,,,
,visa,,,CHICAGO,IL,,US,,,,,
,visa,,,CHICAGO,IL,,US,,,,,
,visa,,,CHICAGO,IL,,US,,,,,
,visa,,,CHICAGO,IL,,US,,,,,
,visa,,,CHICAGO,IL,,US,,,,,
,visa,,,CHICAGO,IL,,US,,,,,
,visa,,,CHICAGO,IL,,US,,,,,
,visa,,,CHICAGO,IL,,US,,,,,
,visa,,,CHICAGO,IL,,US,,,,,
,visa,,,CHICAGO,IL,,US,,,,,
,visa,,,CHICAGO,IL,,US,,,,,
,visa,,,CHICAGO,IL,,US,,,,,
,visa,,,CHICAGO,IL,,US,,,,,
,visa,,,CHICAGO,IL,,US,,,,,
,visa,,,CHICAGO,IL,,US,,,,,
,visa,,,CHICAGO,IL,,US,,,,,
,visa,,,CHICAGO,IL,,US,,,,,
,visa,,,CHICAGO,IL,,US,,,,,
,visa,,,CHICAGO,IL,,US,,,,,
,visa,,,CHICAGO,IL,,US,,,,,
,visa,,,CHICAGO,IL,,US,,,,,
,visa,,,CHICAGO,IL,,US,,,,,
,visa,,,CHICAGO,IL,,US,,,,,
,visa,,,CHICAGO,IL,,US,,,,,
,visa,,,CHICAGO,IL,,US,,,,,
,visa,,,CHICAGO,IL,,US,,,,,
,visa,,,CHICAGO,IL,,US,,,,,
,visa,,,CHICAGO,IL,,US,,,,,
,visa,,,CHICAGO,IL,,US,,,,,
,visa,,,CHICAGO,IL,,US,,,,,
,visa,,,CHICAGO,IL,,US,,,,,
,visa,,,CHICAGO,IL,,US,,,,,
,visa,,,CHICAGO,IL,,US,,,,,
,visa,,,CHICAGO,IL,,US,,,,,
,visa,,,CHICAGO,IL,,US,,,,,
,visa,,,CHICAGO,IL,,US,,,,,
,visa,,,CHICAGO,IL,,US,,,,,
,visa,,,CHICAGO,IL,,US,,,,,
,visa,,,CHICAGO,IL,,US,,,,,
,visa,,,CHICAGO,IL,,US,,,,,
,visa,,,CHICAGO,IL,,US,,,,,
,visa,,,CHICAGO,IL,,US,,,,,
,visa,,,CHICAGO,IL,,US,,,,,
,visa,,,CHICAGO,IL,,US,,,,,
,visa,,,CHICAGO,IL,,US,,,,,
,visa,,,CHICAGO,IL,,US,,,,,
,visa,,,CHICAGO,IL,,US,,,,,
,visa,,,CHICAGO,IL,,US,,,,,
,visa,,,CHICAGO,IL,,US,,,,,
,visa,,,CHICAGO,IL,,US,,,,,
,visa,,,CHICAGO,IL,,US,,,,,
,visa,,,CHICAGO,IL,,US,,,,,
,visa,,,CHICAGO,IL,,US,,,,,
,visa,,,CHICAGO,IL,,US,,,,,
,visa,,,CHICAGO,IL,,US,,,,,
,visa,,,CHICAGO,IL,,US,,,,,
,visa,,,CHICAGO,IL,,US,,,,,
,visa,,,CHICAGO,IL,,US,,,,,
,visa,,,CHICAGO,IL,,US,,,,,
,visa,,,CHICAGO,IL,,US,,,,,
,visa,,,CHICAGO,IL,,US,,,,,
,visa,,,CHICAGO,IL,,US,,,,,
,visa,,,CHICAGO,IL,,US,,,,,
,visa,,,CHICAGO,IL,,US,,,,,
,visa,,,CHICAGO,IL,,US,,,,,
,visa,,,CHICAGO,IL,,US,,,,,
,visa,,,CHICAGO,IL,,US,,,,,
https://www.walgreens.com/locator/walgreens-7410+n+clark+st-chicago-il-60626/id=1308,walgreens,Walgreens,,Chicago,IL,,US,+1 773-743-6784,https://www.walgreens.com/locator/walgreens-7410+n+clark+st-chicago-il-60626/id=1308,Mo-Su 07:00-23:00,Walgreens,Q1591889
"https://www.walgreens.com/locator/community,+a+walgreens+pharmacy-6500+n+clark+st-chicago-il-60626/id=16501",walgreens,,,Chicago,IL,,US,+1 773-681-5033,"https://www.walgreens.com/locator/community,+a+walgreens+pharmacy-6500+n+clark+st-chicago-il-60626/id=16501",Mo-Fr 09:00-20:00; Sa 09:00-15:00; Su 00:00-24:00,,
cb0998646626e223ea782bceb322fbdd,western_union,MOYONY FRESH,,Chicago,IL,,US,+1 773-739-9261,https://location.westernunion.com/us/il/chicago/cb0998646626e223ea782bceb322fbdd,Mo-Su 09:00-20:00,Western Union,Q861042
1d35a5eb6c79fc3e6a700e6fd34edadf,western_union,ECUAMEX TRAVEL AGENCY INC,,Chicago,IL,,US,+1 773-754-7461,https://location.westernunion.com/us/il/chicago/1d35a5eb6c79fc3e6a700e6fd34edadf,Mo-Sa 08:00-21:00; Su 09:00-19:00,Western Union,Q861042
460cd28564cff33c00f617d1cb4ecff8,western_union,J & P CASA DE CAMBIO- JP010,,Chicago,IL,,US,+1 773-764-9872,https://location.westernunion.com/us/il/chicago/460cd28564cff33c00f617d1cb4ecff8,Mo-Su 09:00-20:00,Western Union,Q861042
001649e27a85306b5422f8ffd1b20842,western_union,LA AZTECA PRODUCE,,Chicago,IL,,US,+1 773-274-2587,https://location.westernunion.com/us/il/chicago/001649e27a85306b5422f8ffd1b20842,Mo-Su 08:00-20:30,Western Union,Q861042
cd1c4c793df2c26bcfb4353b4786bf8c,western_union,LIBERTY LEASE & RENTAL LLC,,Chicago,IL,,US,+1 773-381-5669,https://location.westernunion.com/us/il/chicago/cd1c4c793df2c26bcfb4353b4786bf8c,Mo-Su 07:00-24:00,Western Union,Q861042
f2c91e92a3cc1b8c9ae53d724a9d3f0c,western_union,7-ELEVEN #33809,,Chicago,IL,,US,+1 773-262-0718,https://location.westernunion.com/us/il/chicago/f2c91e92a3cc1b8c9ae53d724a9d3f0c,,Western Union,Q861042
760edc733463e346cbb4618ace487604,western_union,INTERNET SUPERSTAR,,Chicago,IL,,US,+1 773-465-4616,https://location.westernunion.com/us/il/chicago/760edc733463e346cbb4618ace487604,Mo-Sa 10:00-17:00,Western Union,Q861042
416e876bfc1e8b3ca7031773ffd0e407,western_union,J & P CASA DE CAMBIO- JP014,,Chicago,IL,,US,+1 773-465-4498,https://location.westernunion.com/us/il/chicago/416e876bfc1e8b3ca7031773ffd0e407,Mo-Su 09:00-20:30,Western Union,Q861042
132536,wingstop,Wingstop Chicago Rogers Park,7003 N. Clark Street,Chicago,IL,,US,+1 224-269-4400,,,Wingstop,Q8025339
