Ref,Spider,Name,Address,City,State,Zipcode,Country,Phone,Website,Hours,Brand,WikiData
https://stores.advanceautoparts.com/pa/mount-joy/402-e-main-st,advance_auto_parts_us,Advance Auto Parts,,Mount Joy,PA,,US,+1 717-653-2111,https://stores.advanceautoparts.com/pa/mount-joy/402-e-main-st,Mo-Sa 07:30-21:00; Su 09:00-20:00,Advance Auto Parts,Q4686051
230045,bluerhino,Aubuchon Hdw (J.B Hostetter & Sons) #209,,Mount Joy,PA,,US,+1 717-653-1841,,,Blue Rhino,Q65681213
185323,bluerhino,Weis #063,,Mount Joy,PA,,US,+1 717-653-1762,,,Blue Rhino,Q65681213
177620,bluerhino,Turkey Hill #017,,Mt. Joy,PA,,US,+1 717-653-9453,,,Blue Rhino,Q65681213
177717,bluerhino,Turkey Hill #278,,Mount Joy,PA,,US,+1 717-653-1004,,,Blue Rhino,Q65681213
125981,bluerhino,Giant Food #6485 - GC,,Mt. Joy,PA,,US,+1 717-653-0396,,,Blue Rhino,Q65681213
157821,bluerhino,Giant Food #6485 - Fuel Site - GC,,Mt. Joy,PA,,US,+1 717-653-0396,,,Blue Rhino,Q65681213
https://child-care-preschool.brighthorizons.com/PA/MountJoy/mountjoy,brighthorizons,Bright Horizons at Mount Joy,,Mount Joy,PA,,US,+1 717-653-1733,https://child-care-preschool.brighthorizons.com/pa/mountjoy/mountjoy,Mo-Fr 07:00-18:00,Bright Horizons,Q4967421
15723,chevrolet,"WHITMOYER CHEVROLET, INC.",,Mount Joy,PA,,US,+1 717-653-8183,https://www.whitmoyerchevy.com,Mo-Th 09:00-20:00; Fr 09:00-19:00; Sa 09:00-17:00,Chevrolet,Q29570
44825,citi,ATM CLEARVIEW LANES,,Mount Joy,PA,,US,,,,Citibank,Q857063
51651,citi,ATM CVS,,Mount Joy,PA,,US,,,,Citibank,Q857063
68176,citi,ATM PNC AT SHEETZ,,Mount Joy,PA,,US,,,,Citibank,Q857063
80078147,cricket_wireless,Cricket Wireless Authorized Retailer,,Mount Joy,PA,,US,+1 717-781-6435,https://www.cricketwireless.com/stores/ll/US/PA/Mount-Joy/773-E-Main-St,Mo-Sa 10:00-19:00; Su 12:00-17:00,Cricket Wireless,Q5184987
2494,cvs_us,CVS Pharmacy,,Mount Joy,PA,,US,+1 717-653-4747,https://www.cvs.com/store-locator/mount-joy-pa-pharmacies/525-west-main-street-mount-joy-pa-17552/storeid=2494,Mo-Sa 08:00-22:00; Su 08:00-21:00,CVS Pharmacy,Q2078880
343939,dunkin_us,Dunkin',,Mount Joy,PA,,US,+1 717-653-5605,https://locations.dunkindonuts.com/en/pa/mount-joy/807-e-main-st/343939,Mo-Su 05:00-21:00,Dunkin',Q847743
https://www.edwardjones.com/us-en/financial-advisor/nathaniel-miller,edwardjones,Nathaniel L Miller,,Mount Joy,PA,,US,+1 717-653-1874,https://www.edwardjones.com/us-en/financial-advisor/nathaniel-miller,Mo-Th 08:30-16:30; Fr 08:30-16:00,Edward Jones,Q5343830
521240,eg_america_us,Turkey Hill,,Mount Joy,PA,,US,+1 717-653-9453,https://www.turkeyhillcstores.com/find-us/generic-store-page/?id=950017,,Turkey Hill,Q42376970
521410,eg_america_us,Turkey Hill,,Mount Joy,PA,,US,+1 717-653-1004,https://www.turkeyhillcstores.com/find-us/generic-store-page/?id=950278,,Turkey Hill,Q42376970
Motorcraft3046USAEnglish,ford,"Whitmoyer Ford, Inc.",,Pennsylvania,PA,,US,+1 717-653-7080,,,Ford,Q44294
https://www.ford.com/dealerships/dealer-details/pa/mount-joy/whitmoyer-ford-inc/,ford_dealers_us,"Whitmoyer Ford, Inc.",,Mount Joy,PA,,US,+1 223-244-2805,https://www.ford.com/dealerships/dealer-details/pa/mount-joy/whitmoyer-ford-inc/,Mo-Th 09:00-20:00; Fr 09:00-19:00; Sa 09:00-17:00,Ford Motor Company,Q44294
#6485,giantfoodstores,GIANT Mount Joy,,Mount Joy,PA,,US,+1 717-653-0396,https://stores.giantfoodstores.com/pa/mount-joy/789-e-main-st,"Mo-Fr 07:00-22:00,09:00-20:00; Sa 07:00-22:00,09:00-17:00; Su 07:00-22:00,10:00-17:00",Giant,Q5558332
https://salons.greatclips.com/us/pa/mount-joy/781-e-main-st,greatclips,Great Clips,,Mount Joy,PA,,US,+1 717-653-1145,https://salons.greatclips.com/us/pa/mount-joy/781-e-main-st,Mo-Fr 09:00-19:00; Sa 09:00-18:00; Su 09:00-17:00,Great Clips,Q5598967
37935,h_r_block,H&R Block,,Mount Joy,PA,,US,+1 717-653-5115,https://www.hrblock.com/local-tax-offices/pennsylvania/mount-joy/91-e-main-st/37935/,,H&R Block,Q5627799
160185,marathon_petroleum_us,High's of Baltimore LLC. #150,,Mount Joy,PA,,US,+1 717-653-9526,,,Marathon,Q458363
https://locations.northwest.bank/#35177080,northwest_bank,101 E Main St Mount Joy,,Mt Joy,PA,,US,+1 717-653-0637,https://locations.northwest.bank/pa/mt-joy/101-e-main-st,Mo-Th 09:00-16:00; Fr 09:00-18:00; Sa 09:00-12:00,Northwest Bank,Q7060191
pa_mount-joy_2040-west-main-street,pizza_hut_us,2040 West Main Street,,Mount Joy,PA,,US,,https://locations.pizzahut.com/pa/mount-joy/2040-west-main-street,,Pizza Hut,Q191615
81424,ritasitalianice,Ritaâ€™s of Mount Joy PA,,Mount Joy,PA,,US,+1 717-653-0567,https://www.ritasice.com/location/ritas-of-mount-joy-pa/,,Rita's Italian Ice,Q7336456
2250,shellrecharge,2044 W Main St,,Mt Joy,PA,,US,,,,Shell Recharge,Q105883058
2251,shellrecharge,2050 W Main St,,Mt Joy,PA,,US,,,,Shell Recharge,Q105883058
https://restaurants.subway.com/#14912380,subway,Subway Main Street Center,,Mount Joy Lancaster,PA,,US,+1 717-653-0300,https://restaurants.subway.com/united-states/pa/mount-joy/757-e-main-street,Mo-Su 10:00-21:00,Subway,Q244457
0687241002,sunoco_us,Sunoco,,MOUNT JOY,PA,,US,+1 717-945-6068,,Mo-Su 05:00-23:00,Sunoco,Q1423218
https://locations.tacobell.com/#46195038,taco_bell,Taco Bell,,Mount Joy,PA,,US,+1 717-476-8377,https://locations.tacobell.com/pa/mount-joy/1580-strickler-rd.html,Mo-Th 08:00-24:00; Fr-Sa 08:00-01:00; Su 08:00-24:00,Taco Bell,Q752941
3853,upsstore,Mount Joy,929 E Main St,Mount Joy,PA,,US,+1 717-492-0223,https://locations.theupsstore.com/pa/mount-joy/929-e-main-st,,UPS Store,Q7771029
1374017,usps,MOUNT JOY,,MOUNT JOY,PA,,US,+1 717-653-4231,,Mo-Fr 08:00-16:30; Sa 08:30-12:00,United States Postal Service,Q668687
1755200034,usps_collection_boxes,USPS COLLECTION BOX - BLUE BOX,101 E MAIN ST,MOUNT JOY,PA,,US,,,,United States Postal Service,Q668687
1755200056,usps_collection_boxes,USPS COLLECTION BOX - PO LOBBY,1 E MAIN ST,MOUNT JOY,PA,,US,,,,United States Postal Service,Q668687
1755200052,usps_collection_boxes,USPS COLLECTION BOX - PO LOBBY,1 E MAIN ST,MOUNT JOY,PA,,US,,,,United States Postal Service,Q668687
1755200032,usps_collection_boxes,USPS COLLECTION BOX - BLUE BOX,1 E MAIN ST,MOUNT JOY,PA,,US,,,,United States Postal Service,Q668687
1755200022,usps_collection_boxes,USPS COLLECTION BOX - BLUE BOX,441 W MAIN ST,MOUNT JOY,PA,,US,,,,United States Postal Service,Q668687
,visa,,,EPHRATA,PA,,US,,,,,
,visa,,,MOUNT JOY,PA,,US,,,,,
,visa,,,MT JOY,PA,,US,,,,,
,visa,,,MOUNT JOY,PA,,US,,,,,
,visa,,,MOUNT JOY,PA,,US,,,,,
,visa,,,MT JOY,PA,,US,,,,,
,visa,,,MOUNT JOY,PA,,US,,,,,
,visa,,,MOUNT JOY,PA,,US,,,,,
,visa,,,MOUNT JOY,PA,,US,,,,,
,visa,,,MOUNT JOE,PA,,US,,,,,
,visa,,,MOUNT JOE,PA,,US,,,,,
,visa,,,MOUNT JOY,PA,,US,,,,,
,visa,,,MOUNT JOY,PA,,US,,,,,
,visa,,,MOUNT JOY,PA,,US,,,,,
,visa,,,MT JOY,PA,,US,,,,,
,visa,,,MT JOY,PA,,US,,,,,
,visa,,,MOUNT JOY,PA,,US,,,,,
,visa,,,MOUNT JOY,PA,,US,,,,,
,visa,,,MOUNT JOY,PA,,US,,,,,
,visa,,,MOUNT JOY,PA,,US,,,,,
,visa,,,MOUNT JOY,PA,,US,,,,,
,visa,,,MOUNT JOY,PA,,US,,,,,
,visa,,,MOUNT JOY,PA,,US,,,,,
,visa,,,MOUNT JOY,PA,,US,,,,,
,visa,,,MOUNT JOY,PA,,US,,,,,
,visa,,,MOUNT JOY,PA,,US,,,,,
4aa9175cf66a14e8655ebb8233c90727,western_union,TURKEY HILL #278,,Mount Joy,PA,,US,+1 717-653-1004,https://location.westernunion.com/us/pa/mount-joy/4aa9175cf66a14e8655ebb8233c90727,Mo-Su 06:00-21:00,Western Union,Q861042
6a590b8e48674eb7274ea4fb7340d448,western_union,TURKEY HILL #17,,Mount Joy,PA,,US,+1 717-653-9453,https://location.westernunion.com/us/pa/mount-joy/6a590b8e48674eb7274ea4fb7340d448,Mo-We 05:00-23:00; Th-Su 07:00-23:00,Western Union,Q861042
