Ref,Spider,Name,Address,City,State,Zipcode,Country,Phone,Website,Hours,Brand,WikiData
nc/connelly-springs/130-malcolm-blvd,bojangles,"Bojangles Connelly Springs, NC",,Connelly Springs,NC,,US,+1 828-874-1020,https://locations.bojangles.com/nc/connelly-springs/130-malcolm-blvd.html,,Bojangles',Q891163
20019,dollar_general,Dollar General,,Connelly Springs,NC,,US,+1 980-533-4790,https://www.dollargeneral.com/store-directory/nc/connelly-springs/20019,Mo-Su 08:00-23:00,Dollar General,Q145168
8975,dominos_pizza_us,Domino's Pizza,,Connelly Springs,NC,,US,+1 828-397-6790,https://pizza.dominos.com/north-carolina/connelly-springs/2935-highway-70,Mo-Th 10:30-23:00; Fr-Sa 10:30-24:00; Su 10:30-23:00,Domino's,Q839466
160010,marathon_petroleum_us,Cubbard Express 14,,Connelly Springs,NC,,US,+1 828-879-4533,,,Marathon,Q458363
0140157900,sunoco_us,Sunoco,,CONNELLY SPRINGS,NC,,US,+1 828-879-9330,,Mo-Sa 05:00-23:00; Su 05:00-22:00,Sunoco,Q1423218
https://locations.tacobell.com/#3917028,taco_bell,Taco Bell,,Connelly Spg,NC,,US,+1 828-435-2862,https://locations.tacobell.com/nc/connelly-spg/3456-miller-bridge-road.html,Mo-Fr 07:00-02:00; Sa-Su 08:00-02:00,Taco Bell,Q752941
1358945,usps,CONNELLY SPRINGS,,CONNELLY SPRINGS,NC,,US,+1 828-874-0784,,"Mo-Fr 09:00-12:00,13:00-16:30; Sa 08:30-10:30",United States Postal Service,Q668687
2861200001,usps_collection_boxes,USPS COLLECTION BOX - BLUE BOX,1015 US HIGHWAY 70,CONNELLYS SPG,NC,,US,,,,United States Postal Service,Q668687
2861200002,usps_collection_boxes,USPS COLLECTION BOX - PO LOBBY,1015 US HIGHWAY 70,CONNELLYS SPG,NC,,US,,,,United States Postal Service,Q668687
2861200006,usps_collection_boxes,USPS COLLECTION BOX - PO LOBBY,1015 US HIGHWAY 70,CONNELLYS SPG,NC,,US,,,,United States Postal Service,Q668687
2861200003,usps_collection_boxes,USPS COLLECTION BOX - BLUE BOX,8456 WARDS GAP RD,CONNELLYS SPG,NC,,US,,,,United States Postal Service,Q668687
,visa,,,CONNELLY SPRINGS,NC,,US,,,,,
,visa,,,CONNELLY SPRINGS,NC,,US,,,,,
,visa,,,CONOVER,NC,,US,,,,,
,visa,,,RHODHISS,NC,,US,,,,,
,visa,,,CONNELLY SPGS,NC,,US,,,,,
,visa,,,CONNELLY SPRINGS,NC,,US,,,,,
,visa,,,RUTHERFORD COLLEGE,NC,,US,,,,,
,visa,,,CONNELLY SPRINGS,NC,,US,,,,,
