Ref,Spider,Name,Address,City,State,Zipcode,Country,Phone,Website,Hours,Brand,WikiData
https://www.academy.com/storelocator/#8745647,academy_us,Academy Sports + Outdoors,,Clarksville,TN,,US,+1 931-645-7300,https://www.academy.com/storelocator/tennessee/clarksville/store-0208,Mo-Th 09:00-21:00; Fr 09:00-22:00; Sa 08:00-22:00; Su 09:00-21:00,Academy Sports + Outdoors,Q4671380
https://stores.advanceautoparts.com/tn/clarksville/2160-wilma-rudolph-blvd,advance_auto_parts_us,Advance Auto Parts,,Clarksville,TN,,US,+1 931-503-0512,https://stores.advanceautoparts.com/tn/clarksville/2160-wilma-rudolph-blvd,Mo-Sa 07:30-21:00; Su 08:00-20:00,Advance Auto Parts,Q4686051
https://stores.advanceautoparts.com/tn/clarksville/301-s-riverside-dr,advance_auto_parts_us,Advance Auto Parts,,Clarksville,TN,,US,+1 931-538-1433,https://stores.advanceautoparts.com/tn/clarksville/301-s-riverside-dr,Mo-Sa 07:30-21:00; Su 09:00-20:00,Advance Auto Parts,Q4686051
https://storelocations.ae.com/#1727600,american_eagle_outfitters,American Eagle & Aerie Store Governors Square Mall,,Clarksville,TN,,US,+1 931-647-3681,https://storelocations.ae.com/us/tn/clarksville/2801-wilma-rudolph-blvd.html,Mo-Sa 10:00-21:00; Su 11:00-18:00,American Eagle & Aerie Store,Q2842931
/locations/propane-offices/tennessee/clarksville/350-kraft-st,amerigas,"AmerGas Propane | Clarksville, Tennessee",,Clarksville,TN,,US,+1 931-645-9071,/locations/propane-offices/tennessee/clarksville/350-kraft-st,,AmeriGas,Q23130318
https://locations.arbys.com/tn/clarksville/3920-trenton-road.html,arbys_us,"Arby's Fast-Food Near You in Clarksville, TN",,Clarksville,TN,,US,+1 931-278-6976,https://locations.arbys.com/tn/clarksville/3920-trenton-road.html,Mo-Su 09:30-23:00,Arby's,Q630866
https://locations.arbys.com/tn/clarksville/965-n-riverside-dr.html,arbys_us,"Arby's Fast-Food Drive Through Near You in Clarksville, TN",,Clarksville,TN,,US,+1 931-645-1100,https://locations.arbys.com/tn/clarksville/965-n-riverside-dr.html,Mo-We 09:30-23:00; Th-Sa 09:30-24:00; Su 09:30-23:00,Arby's,Q630866
https://stores.ashleyfurniture.com/store/us/tennessee/clarksville/7710000389/,ashley_furniture,"Ashley Store Clarksville, TN",,Clarksville,TN,,US,+1 931-919-2400,https://stores.ashleyfurniture.com/store/us/tennessee/clarksville/7710000389/,,Ashley Furniture,Q4805437
12343,asics_us,Academy Sports + Outdoors,130 S Hampton Pl,Clarksville,TN,,US,+1 931-645-7300,,,asics,Q327247
19551,asics_us,Fleet Feet Clarksville,2141  Wilma Rudolph Blvd,Clarksville,TN,,US,+1 931-542-5788,,Mo-Fr 10:00-19:00; Sa 10:00-18:00; Su 12:00-17:00,asics,Q327247
11803,asics_us,DICK'S Sporting Goods  - Clarksville,2801 Wilma Rudolph Blvd #195,Clarksville,TN,,US,+1 931-645-2255,,Mo-Sa 09:00-21:00; Su 10:00-19:00,asics,Q327247
211569,asics_us,Tradehome Shoes,"2801 Wilma Rudolph Blvd, Ste 560, Governor's Square Mall",Clarksville,TN,,US,+1 931-572-3288,,,asics,Q327247
62273,asics_us,Shoe Carnival,2776 Wilma Rudolph Blvd,Clarksville,TN,,US,+1 931-648-2100,,,asics,Q327247
23219,asics_us,Finish Line,2801 Wilma Rudolph Blvd,Clarksville,TN,,US,+1 931-647-5801,,,asics,Q327247
14835,asics_us,Hibbett Sports,2801 Wilma Rudolph Blvd,Clarksville,TN,,US,+1 931-906-2514,,,asics,Q327247
80423,att_us,WILMA RUDOLPH STORE 112667,,Clarksville,TN,,US,+1 931-552-0006,https://www.att.com/stores/tennessee/clarksville/80423,Mo-Fr 08:30-20:30; Sa 09:00-21:00; Su 10:00-18:00,AT&T,Q298594
https://locations.auntieannes.com/#6977,auntie_annes,Auntie Anne's Governor's Square,,Clarksville,TN,,US,+1 931-503-9029,https://locations.auntieannes.com/tn/clarksville/2801-wilma-rudolph-blvd,Mo-Sa 10:00-21:00; Su 11:00-18:00,Auntie Anne's,Q4822010
64,autozone_us,AutoZone Auto Parts Clarksville,,Clarksville,TN,,US,+1 931-552-4444,https://www.autozone.com/locations/tn/clarksville/1105-riverwood-pl.html,Mo-Sa 07:00-21:00; Su 08:00-20:00,AutoZone,Q4826087
6301,autozone_us,AutoZone Auto Parts Clarksville,,Clarksville,TN,,US,+1 931-221-1167,https://www.autozone.com/locations/tn/clarksville/101-merchants-blvd.html,Mo-Sa 07:00-21:00; Su 08:00-20:00,AutoZone,Q4826087
https://www.banfield.com/locations/veterinarians/tn/clarksville/cla,banfield_pet_hospital,"Clarksville North, TN",,Clarksville,TN,,US,+1 931-906-8664,https://www.banfield.com/locations/veterinarians/tn/clarksville/cla,Mo-Sa 08:00-18:00; Su 09:00-17:00,Banfield Pet Hospital,Q2882416
https://www.banfield.com/locations/veterinarians/tn/clarksville/adv,banfield_pet_hospital,Clarksville,,Clarksville,TN,,US,+1 931-295-6319,https://www.banfield.com/locations/veterinarians/tn/clarksville/adv,Mo-Fr 08:00-15:00; Sa-Su 00:00-24:00,Banfield Pet Hospital,Q2882416
https://locators.bankofamerica.com/tn/clarksville/financial-centers-clarksville-11721.html,bankofamerica,Bank of America Financial Center & Drive-Thru ATM | St. Bethlehem,,Clarksville,TN,,US,+1 931-553-2270,https://locators.bankofamerica.com/tn/clarksville/financial-centers-clarksville-11721.html,Mo-Fr 09:00-17:00; Sa 09:00-14:00,Bank of America,Q487907
https://locators.bankofamerica.com/tn/clarksville/atm-clarksville-104533.html,bankofamerica,Bank of America Drive-Thru ATM | Riverside - Clarksville,,Clarksville,TN,,US,+1 844-401-8500,https://locators.bankofamerica.com/tn/clarksville/atm-clarksville-104533.html,,Bank of America,Q487907
https://locations.baskinrobbins.com/tn/clarksville/2531-wilma-rudolph-boulevard-362261-br,baskin_robbins_us,Baskin-Robbins™,,Clarksville,TN,,US,,https://locations.baskinrobbins.com/tn/clarksville/2531-wilma-rudolph-boulevard-362261-br,Mo-Su 05:00-21:00,Baskin-Robbins,Q584601
BBW00705,bathandbodyworks_us,GOVERNORS SQUARE MALL,,CLARKSVILLE,TN,,US,+1 931-645-1713,,Mo-Sa 10:00-21:00; Su 11:00-18:00,Bath & Body Works,Q810773
363,batteriesplus,Shop our Clarksville store today!,,Clarksville,TN,,US,+1 931-647-5200,https://www.batteriesplus.com/store-locator/tn/clarksville/batteries-plus-363,Mo-Sa 08:00-19:00; Su 10:00-17:00,Batteries Plus Bulbs,Q17005157
https://stores.bestbuy.com/tn/clarksville/2805-wilma-rudolph-blvd-663.html,bestbuy,Best Buy Clarksville,,Clarksville,TN,,US,+1 931-552-5239,https://stores.bestbuy.com/tn/clarksville/2805-wilma-rudolph-blvd-663.html,,Best Buy,Q533415
https://local.biglots.com/#13190063,biglots,Big Lots - Clarksville,,Clarksville,TN,,US,+1 931-645-5495,https://local.biglots.com/tn/clarksville/1041-s-riverside-dr,Mo-Sa 09:00-21:00; Su 09:00-19:00,Big Lots,Q4905973
179228,bluerhino,Hilltop Supermarket - AWG #5145,,Clarksville,TN,,US,+1 931-552-9668,,,Blue Rhino,Q65681213
199823,bluerhino,Dollar General #22373,,Clarksville,TN,,US,+1 931-444-5821,,,Blue Rhino,Q65681213
182958,bluerhino,Montgomery Farmers Co-Op #568824,,Clarksville,TN,,US,+1 931-920-5735,,,Blue Rhino,Q65681213
40847,bluerhino,Food Lion #1473,,Clarksville,TN,,US,+1 931-920-5953,,,Blue Rhino,Q65681213
176573,bluerhino,Hardware City #282855,,Clarksville,TN,,US,+1 931-551-3424,,,Blue Rhino,Q65681213
185890,bluerhino,Kroger #544 - Nashville- Fuel Site,,Clarksville,TN,,US,+1 931-553-2923,,,Blue Rhino,Q65681213
41857,bluerhino,Kroger #544 - Nashville,,Clarksville,TN,,US,+1 931-553-0250,,,Blue Rhino,Q65681213
239550,bluerhino,Circle K #4703707,,Clarksville,TN,,US,+1 931-647-9738,,,Blue Rhino,Q65681213
151758,bluerhino,Walgreens #9340,,Clarksville,TN,,US,+1 931-551-8157,,,Blue Rhino,Q65681213
229808,bluerhino,Casey's General Store #4469,,Clarksville,TN,,US,+1 931-552-0810,,,Blue Rhino,Q65681213
192238,bluerhino,Tony Discount Tobacco,,Clarksville,TN,,US,+1 615-584-0153,,,Blue Rhino,Q65681213
38647,bluerhino,Kroger #540 - Nashville,,Clarksville,TN,,US,+1 931-906-3510,,,Blue Rhino,Q65681213
185889,bluerhino,Kroger #540 - Nashville- Fuel Site,,Clarksville,TN,,US,+1 931-906-3510,,,Blue Rhino,Q65681213
4723,bluerhino,Lowe's #498,,Clarksville,TN,,US,+1 931-920-4102,,,Blue Rhino,Q65681213
4739,bluerhino,Walmart #0673 - Supercenter,,Clarksville,TN,,US,+1 931-553-8127,,,Blue Rhino,Q65681213
201005,bluerhino,Murphy's #5596,,Clarksville,TN,,US,+1 931-906-1723,,,Blue Rhino,Q65681213
178754,bluerhino,Montgomery Farmers Co-Op #568824,,Clarksville,TN,,US,+1 931-645-1168,,,Blue Rhino,Q65681213
0315,bootbarn,Goodlettsville,,"Clarksville,",TN,,US,+1 931-291-6191,https://www.bootbarn.com/stores?StoreID=0315,Mo-Sa 09:00-21:00; Su 11:00-18:00,Boot Barn,Q109825187
https://local.buckle.com/tn/clarksville/clothing-447.html,buckle_us,Clarksville Men’s & Women’s Clothing,,Clarksville,TN,,US,+1 931-645-6925,https://local.buckle.com/tn/clarksville/clothing-447.html,Mo-Sa 10:00-21:00; Su 11:00-18:00,Buckle,Q4983306
19097,burgerking,Burger King,,Clarksville,TN,,US,+1 931-645-5802,https://www.bk.com/store-locator/store/restaurant_12687,Mo-Su 06:00-22:00,Burger King,Q177054
1305,burlington_us,Burlington,,Clarksville,TN,,US,+1 931-999-1269,https://stores.burlington.com/tn/clarksville/1305,Mo-Th 09:00-22:00; Fr-Sa 09:00-23:00; Su 09:00-22:00,Burlington,Q4999220
25100,cadillac,SERRA CADILLAC CLARKSVILLE,,Clarksville,TN,,US,+1 931-245-3297,https://www.serracadillacclarksville.com,Mo-Tu 08:30-19:00; We 08:30-18:00; Th-Fr 08:30-19:00; Sa 08:30-18:00,Cadillac,Q27436
3526,captaind,Captain D's,,Clarksville,TN,,US,+1 931-648-9559,https://locations.captainds.com/ll/US/TN/Clarksville/889-Kraft-St,Mo-Th 10:30-22:00; Fr-Sa 10:30-23:00; Su 10:30-22:00,Captain D's,Q5036616
3760,captaind,Captain D's,,Clarksville,TN,,US,+1 931-206-9507,https://locations.captainds.com/ll/US/TN/Clarksville/3061-Wilma-Rudolph-Blvd,Mo-Th 10:30-22:00; Fr-Sa 10:30-23:00; Su 10:30-22:00,Captain D's,Q5036616
//locations.carters.com/tn/clarksville/carters-clarksville-tn,carters_us,Carter's Clarksville,,Clarksville,TN,,US,+1 931-553-2178,https://locations.carters.com/tn/clarksville/carters-clarksville-tn,Mo-Sa 10:00-21:00; Su 11:00-18:00,Carter's,Q5047083
17980,chevrolet,SERRA CHEVROLET CLARKSVILLE,,Clarksville,TN,,US,+1 888-332-5601,https://www.serraclarksville.com/,Mo-Tu 08:30-19:00; We 08:30-18:00; Th-Fr 08:30-19:00; Sa 08:30-18:00,Chevrolet,Q29570
001.005.0631,chilis,Clarksville,,Clarksville,TN,,US,+1 931-552-5529,https://www.chilis.com/locations/us/tennessee/clarksville/clarksville/,Mo-Th 10:45-22:00; Fr-Sa 10:45-23:00; Su 10:45-22:00,Chili's,Q1072948
tn_clarksville_625-kennedy-ln,chipotle, ,,Clarksville,TN,,US,+1 931-906-2110,https://locations.chipotle.com/tn/clarksville/625-kennedy-ln,,Chipotle,Q465751
https://locations.chuckecheese.com/us/tn/clarksville/2821-b.-wilma-rudolph-blvd.,chuckecheese,Chuck E. Cheese,,Clarksville,TN,,US,+1 931-906-1011,https://locations.chuckecheese.com/us/tn/clarksville/2821-b.-wilma-rudolph-blvd.,Mo-Th 11:00-21:00; Fr 11:00-22:00; Sa 10:00-22:00; Su 11:00-21:00,Chuck E. Cheese,Q2438391
64563,citi,ATM Mapco,,Clarksville,TN,,US,,,,Citibank,Q857063
53953,citi,ATM Dodges-Clarksville TN #2,,Clarksville,TN,,US,,,,Citibank,Q857063
53952,citi,ATM Dodges-Clarksville TN,,Clarksville,TN,,US,,,,Citibank,Q857063
43229,citi,ATM Circle K,,Clarksville,TN,,US,,,,Citibank,Q857063
85485,citi,ATM UNITED COMMUNITY BANK 06,,Clarksville,TN,,US,,,,Citibank,Q857063
85488,citi,ATM UNITED COMMUNITY BANK 06,,Clarksville,TN,,US,,,,Citibank,Q857063
61037,citi,ATM Kroger,,Clarksville,TN,,US,,,,Citibank,Q857063
88539,citi,ATM Walgreens,,Clarksville,TN,,US,,,,Citibank,Q857063
41149,citi,ATM Circle K,,Clarksville,TN,,US,,,,Citibank,Q857063
85494,citi,ATM UNITED COMMUNITY BANK 06,,Clarksville,TN,,US,,,,Citibank,Q857063
64547,citi,ATM Mapco,,Clarksville,TN,,US,,,,Citibank,Q857063
88881,citi,ATM Walgreens,,Clarksville,TN,,US,,,,Citibank,Q857063
61161,citi,ATM Kroger,,Clarksville,TN,,US,,,,Citibank,Q857063
82216,citi,ATM Target,,Clarksville,TN,,US,,,,Citibank,Q857063
om_tn_clarksville_700-n-riverside-dr,cititrends,Citi Trends,,Clarksville,TN,,US,+1 931-346-1124,https://locations.cititrends.com/tn/clarksville/700-n-riverside-dr.html,Mo 11:00-21:00; Tu 11:00-21:00; We 11:00-21:00; Th 11:00-21:00; Fr 10:00-21:00; Sa 10:00-21:00; Su 12:00-18:00,Citi Trends,Q5122438
clarksville/5571,claires,Shop Ear Piercings & Jewelry at Governor'S Sq Clarksville,,CLARKSVILLE,TN,,US,+1 931-645-0374,https://stores.claires.com/us/tn/clarksville/5571.html,Mo-Sa 10:00-21:00; Su 11:00-18:00,Claire's,Q2974996
112,clean_eatz_us,,,Clarksville,TN,,US,,https://locations.cleaneatz.com/tn/clarksville/meal-prep-112.html,,Clean Eatz,Q124412638
1778,cookout,Wilma Rudolph,,Clarksville,TN,,US,,,Mo-Th 10:30-03:00; Fr-Sa 10:30-04:00; Su 10:30-03:00,Cookout,Q5166992
1929,cookout,Clarksville,,Clarksville,TN,,US,,https://www.facebook.com/Cook-Out-Clarksville-TN-439263162898051/,Mo-Th 10:30-03:00; Fr-Sa 10:30-04:00; Su 10:30-03:00,Cookout,Q5166992
70175110,cricket_wireless,Cricket Wireless Authorized Retailer,,Clarksville,TN,,US,+1 931-809-8699,https://www.cricketwireless.com/stores/ll/US/TN/Clarksville/2250-Wilma-Rudolph-Blvd,Mo-Fr 09:00-19:00; Sa 10:00-18:00; Su 12:00-17:00,Cricket Wireless,Q5184987
575,culvers_us,"Culver's of Clarksville, TN - S Hampton Pl",,Clarksville,TN,,US,+1 931-919-2573,http://www.culvers.com/restaurants/clarksville-tn-hampton-pl,Mo-Fr 10:30-22:00; Su 10:30-22:00,Culver's,Q1143589
vc_7241OS,department_veterans_affairs,Clarksville Vet Center Outstation,,Clarksville,TN,,US,+1 615-883-2333,https://www.va.gov/nashville-vet-center/,,Department Veterans Affairs,Q592576
683,dickssportinggoods,"DICK'S Sporting Goods Store in Clarksville, TN | 683",,Clarksville,TN,,US,+1 931-645-2255,https://stores.dickssportinggoods.com/tn/clarksville/683/,Mo-Fr 09:00-21:00; Sa 08:00-21:00; Su 10:00-20:00,Dick's Sporting Goods,Q5272601
0426,dillards,"Dillard's Governor's Square Mall in Clarksville, Tennessee",,Clarksville,TN,,US,+1 931-648-3511,https://www.dillards.com/stores/tennessee/governors-square-mall-clarksville/0426,Mo-Sa 11:00-20:00; Su 12:00-18:00,Dillard's,Q844805
6804,dollartree,DollarTree,,Clarksville,TN,,US,+1 931-436-9101,,Mo-Sa 09:00-21:00; Su 09:00-20:00,Dollar Tree,Q5289230
25474,dollar_general,Dollar General,,Clarksville,TN,,US,+1 931-367-5441,https://www.dollargeneral.com/store-directory/tn/clarksville/25474,Mo-Su 08:00-22:00,Dollar General,Q145168
15643,dollar_general,Dollar General,,Clarksville,TN,,US,+1 931-444-1104,https://www.dollargeneral.com/store-directory/tn/clarksville/15643,Mo-Su 08:00-22:00,Dollar General,Q145168
6166,dominos_pizza_us,Domino's Pizza,,Clarksville,TN,,US,+1 931-552-3355,https://pizza.dominos.com/tennessee/clarksville/2166-wilma-rudolph-blvd,Mo-Th 10:00-24:00; Fr-Sa 10:00-01:00; Su 10:00-24:00,Domino's,Q839466
8718,dominos_pizza_us,Domino's Pizza,,Clarksville,TN,,US,+1 931-542-4220,https://pizza.dominos.com/tennessee/clarksville/1206-state-hwy-48,Mo-Th 10:00-24:00; Fr-Sa 10:00-01:00; Su 10:00-24:00,Domino's,Q839466
8714,dominos_pizza_us,Domino's Pizza,,Clarksville,TN,,US,+1 931-553-1919,https://pizza.dominos.com/tennessee/clarksville/3836-trenton-rd,Mo-Th 10:00-24:00; Fr-Sa 10:00-01:00; Su 10:00-24:00,Domino's,Q839466
362261,dunkin_us,Dunkin',,Clarksville,TN,,US,+1 931-378-5614,https://locations.dunkindonuts.com/en/tn/clarksville/2531-wilma-rudolph-boulevard/362261,Mo-Su 05:00-21:00,Dunkin',Q847743
DB624,dutchbros,North 2nd,,Clarksville,TN,,US,,https://locations.dutchbros.com/dutch-bros-coffee-1a50f140a175,Mo-Th 05:00-22:00; Fr-Sa 05:00-23:00; Su 05:00-22:00,Dutch Bros. Coffee,Q5317253
DB795,dutchbros,Trenton,,Clarksville,TN,,US,,https://locations.dutchbros.com/dutch-bros-coffee-516efa2fa8eb,Mo-Th 05:00-22:00; Fr-Sa 05:00-23:00; Su 05:00-22:00,Dutch Bros. Coffee,Q5317253
https://www.edwardjones.com/us-en/financial-advisor/trina-desoto,edwardjones,Trina K DeSoto,,Clarksville,TN,,US,+1 931-552-4023,https://www.edwardjones.com/us-en/financial-advisor/trina-desoto,Mo-Fr 08:00-17:00,Edward Jones,Q5343830
1217,eightyfour_lumber_us,CLARKSVILLE,,CLARKSVILLE,TN,,US,+1 931-648-2884,https://www.84lumber.com/store-locator/store-detail/?storeId=1217,Mo-Fr 07:00-18:00; Sa 08:00-12:00,84 Lumber,Q4644779
100607,electrify_america,Walmart 673 Clarksville,,Clarksville,TN,,US,,,,Electrify America,Q59773555
E15603,enterprise,Clarksville Wilma Rudolph Blvd.,,Clarksville,TN,,US,+1 931-648-0990,,,Enterprise Rent-A-Car,Q17085454
E156W4,enterprise,Clarksville Truck Rental,,Clarksville,TN,,US,+1 931-648-0990,,,Enterprise Rent-A-Car,Q17085454
E1567A,enterprise,Clarksville N. 2nd St.,,Clarksville,TN,,US,+1 931-645-9982,,,Enterprise Rent-A-Car,Q17085454
200319350,exxonmobil,STORE #15,,CLARKSVILLE,TN,,US,+1 931-920-8540,https://www.exxon.com/en/find-station/exxon-clarksville-tn-store15-200319350,24/7,Exxon,Q109675651
200319336,exxonmobil,STORE #17,,CLARKSVILLE,TN,,US,+1 931-221-0064,https://www.exxon.com/en/find-station/exxon-clarksville-tn-store17-200319336,24/7,Exxon,Q109675651
200319328,exxonmobil,STORE #21,,CLARKSVILLE,TN,,US,+1 931-648-0589,https://www.exxon.com/en/find-station/exxon-clarksville-tn-store21-200319328,Mo-Su 06:00-23:00,Exxon,Q109675651
200309799,exxonmobil,BEACH OIL #24,,CLARKSVILLE,TN,,US,+1 931-358-4273,https://www.exxon.com/en/find-station/exxon-clarksville-tn-beachoil24-200309799,24/7,Exxon,Q109675651
200309796,exxonmobil,BEACH OIL # 23,,CLARKSVILLE,TN,,US,+1 931-552-8154,https://www.exxon.com/en/find-station/exxon-clarksville-tn-beachoil23-200309796,24/7,Exxon,Q109675651
https://local.fedex.com/#25234059,fedex,,,Clarksville,TN,,US,+1 800-463-3339,https://local.fedex.com/en-us/tn/clarksville/ckvhc,,FedEx,Q459477
https://local.fedex.com/#25230285,fedex,,,Clarksville,TN,,US,+1 800-463-3339,https://local.fedex.com/en-us/tn/clarksville/ckvca,,FedEx,Q459477
https://local.fedex.com/#25230555,fedex,,,Clarksville,TN,,US,+1 800-463-3339,https://local.fedex.com/en-us/tn/clarksville/ckvbc,,FedEx,Q459477
https://local.fedex.com/#25230933,fedex,,,Clarksville,TN,,US,+1 800-463-3339,https://local.fedex.com/en-us/tn/clarksville/ckvaa,,FedEx,Q459477
https://local.fedex.com/#491852,fedex,FedEx Ship Center,,Clarksville,TN,,US,+1 800-463-3339,https://local.fedex.com/en-us/tn/clarksville/ckva,,FedEx,Q459477
https://local.fedex.com/#25204503,fedex,,,Clarksville,TN,,US,+1 800-463-3339,https://local.fedex.com/en-us/tn/clarksville/armwv,,FedEx,Q459477
https://local.fedex.com/#1006120231,fedex,FedEx Authorized ShipCenter,,Clarksville,TN,,US,+1 931-919-4881,https://local.fedex.com/en-us/tn/clarksville/00vw0,,FedEx,Q459477
https://local.fedex.com/#25458398,fedex,,,Clarksville,TN,,US,+1 800-463-3339,https://local.fedex.com/en-us/tn/clarksville/00hn1,,FedEx,Q459477
303599,firestone_auto_care,Firestone Complete Auto Care,,Clarksville,TN,,US,+1 931-538-3682,https://local.firestonecompleteautocare.com/tennessee/clarksville/2817-wilma-rudolph-blvd/,,Firestone,Q420837
14648,firestone_auto_care,Firestone Complete Auto Care,,Clarksville,TN,,US,+1 931-542-4180,https://local.firestonecompleteautocare.com/tennessee/clarksville/611-n-riverside-dr/,,Firestone,Q420837
2774,first_cash,Cash America Pawn,,Clarksville,TN,,US,+1 931-647-7535,,,Cash America,Q5048636
https://locations.fivebelow.com/tn/clarksville/2710-wilma-rudolph-boulevard,five_below,Five Below The Shoppes at Austin,,Clarksville,TN,,US,,https://locations.fivebelow.com/tn/clarksville/2710-wilma-rudolph-boulevard,Mo-Sa 10:00-20:00; Su 11:00-18:00,Five Below,Q5455836
https://www.fleetfeet.com/s/clarksville,fleet_feet_us,Fleet Feet,,Clarksville,TN,,US,,https://www.fleetfeet.com/s/clarksville,,Fleet Feet,Q117062761
https://stores.footlocker.com/tn/clarksville/2801-wilma-rudolph-blvd-7831.html,footlocker,"Foot Locker in Governors Square Mall: Clarksville, Tennessee | Approved | Own It",,Clarksville,TN,,US,+1 931-645-1003,https://stores.footlocker.com/tn/clarksville/2801-wilma-rudolph-blvd-7831.html,Mo-Sa 10:00-21:00; Su 11:00-18:00,Foot Locker,Q63335
Motorcraft2110USAEnglish,ford,Jenkins & Wynne Ford Lincoln,,Tennessee,TN,,US,+1 931-647-3353,,,Ford,Q44294
https://www.ford.com/dealerships/dealer-details/tn/clarksville/jenkins-&-wynne-ford/,ford_dealers_us,Jenkins & Wynne Ford,,Clarksville,TN,,US,+1 270-560-4292,https://www.ford.com/dealerships/dealer-details/tn/clarksville/jenkins-&-wynne-ford/,Mo-Tu 08:00-19:00; We 08:00-18:00; Th-Fr 08:00-19:00; Sa 08:30-18:00,Ford Motor Company,Q44294
4592,gamestop_us,Governors Square Clarksville,,CLARKSVILLE,TN,,US,+1 931-920-4533,https://www.gamestop.com/search/?store=4592,Mo-Sa 10:00-21:00; Su 11:00-18:00,GameStop,Q202210
nashville_daniel-ingram,geico,Daniel Ingram,,Clarksville,TN,,US,+1 931-263-5390,https://www.geico.com/insurance-agents/tennessee/nashville/daniel-ingram/,,GEICO,Q1498689
https://stores.gnc.com/#24058321,gnc,GNC Governors Square In Clarksville,,,TN,,US,+1 931-552-1017,https://stores.gnc.com/all-stores-tennessee/clarksville/2801-wilma-rudolph-blvd,Mo-Sa 10:00-21:00; Su 11:00-18:00,GNC,Q4808595
https://www.goldencorral.com/locations/location-detail/2493/golden-corral-wilma-rudolph-blvd/,golden_corral,"Golden Corral 2493, Clarksville, TN",,Clarksville,TN,,US,+1 931-906-9101,https://www.goldencorral.com/locations/location-detail/2493/golden-corral-wilma-rudolph-blvd/,,Golden Corral,Q4039560
https://www.goldsgym.com/clarksville/,goldsgym,Gold's Gym Clarksville,,Clarksville,TN,,US,+1 615-956-6016 ext. 7,https://www.goldsgym.com/clarksville/,Mo-Th 00:00-24:00; Fr 00:00-22:00; Sa-Su 07:00-19:00,Gold's Gym,Q1536234
https://salons.greatclips.com/us/tn/clarksville/110-needmore-rd,greatclips,Great Clips,,Clarksville,TN,,US,+1 931-802-8838,https://salons.greatclips.com/us/tn/clarksville/110-needmore-rd,Mo-Fr 08:00-19:00; Sa 09:00-18:00; Su 11:00-18:00,Great Clips,Q5598967
bnarmru-tru-clarksville,hilton,Tru by Hilton Clarksville,,,TN,,US,+1 931-820-5300,https://www.hilton.com/ar/hotels/bnarmru-tru-clarksville/,,Tru by Hilton,Q24907770
39819,h_r_block,H&R Block,,Clarksville,TN,,US,+1 931-647-6787,https://www.hrblock.com/local-tax-offices/tennessee/clarksville/shoppes-at-center-pointe/39819/,,H&R Block,Q5627799
tn_clarksville_breakfast-2819-b-wilma-rudolph-boulevard-4420,ihop,IHOP Breakfast Restaurants Near You at 2819 B Wilma Rudolph Boulevard,,CLARKSVILLE,TN,,US,+1 931-503-0911,https://restaurants.ihop.com/en-us/tn/clarksville/breakfast-2819-b-wilma-rudolph-boulevard-4420,,IHOP,Q1185675
https://office.jacksonhewitt.com/#27575272,jackson_hewitt,Jackson Hewitt,,Clarksville,TN,,US,+1 931-906-3005,https://office.jacksonhewitt.com/tax-preparation-services-locations/en/tn/clarksville/3050-wilma-rudolph-blvd/50673,Mo-Fr 09:00-19:00; Sa 09:00-18:00; Su 13:00-18:00,Jackson Hewitt,Q6117132
https://office.jacksonhewitt.com/#27575454,jackson_hewitt,Jackson Hewitt,,Clarksville,TN,,US,+1 931-906-3005,https://office.jacksonhewitt.com/tax-preparation-services-locations/en/tn/clarksville/1034-south-riverside-dr/11742,Mo-Fr 09:00-19:00; Sa 09:00-18:00; Su 13:00-18:00,Jackson Hewitt,Q6117132
https://locations.jimmyjohns.com/tn/clarksville/sandwiches-2088.html,jimmy_johns,Jimmy John's,,Clarksville,TN,,US,+1 931-645-1994,https://locations.jimmyjohns.com/tn/clarksville/sandwiches-2088.html,,Jimmy John's,Q1689380
2479,joann_us,JOANN Fabric and Crafts,,Clarksville,TN,,US,+1 931-648-7415,https://stores.joann.com/tn/clarksville/2479/,Mo-Sa 09:00-21:00; Su 10:00-18:00,JOANN,Q6203968
https://locations.kfc.com/#11246884,kfc,Chicken Nuggets Near Clarksville,,Clarksville,TN,,US,,https://locations.kfc.com/tn/clarksville/781-north-2nd-street/chickennugget,,KFC,Q524757
https://locations.kfc.com/#11248214,kfc,Chicken Nuggets Near Clarksville,,Clarksville,TN,,US,,https://locations.kfc.com/tn/clarksville/3051-guthrie-highway/chickennugget,Mo-Su 10:30-22:00,KFC,Q524757
1019,kohls_us,Kohl's,,Clarksville,TN,,US,+1 931-551-8343,https://www.kohls.com/stores/tn/clarksville-1019.shtml,Mo-Sa 09:00-21:00; Su 09:00-20:00,Kohl's,Q967265
156479,marathon_petroleum_us,HI ROAD 8,,CLARKSVILLE,TN,,US,+1 931-553-0373,,,Marathon,Q458363
156480,marathon_petroleum_us,HI ROAD 11,,CLARKSVILLE,TN,,US,+1 931-553-8321,,,Marathon,Q458363
156482,marathon_petroleum_us,HI ROAD 9,,CLARKSVILLE,TN,,US,+1 931-647-0923,,,Marathon,Q458363
160721,marathon_petroleum_us,C AND G FOOD MART,,Clarksville,TN,,US,+1 931-542-6777,,,Marathon,Q458363
BNAVL,marriott,Courtyard Clarksville,,Clarksville,TN,,US,+1 931-551-4480,https://www.marriott.com/BNAVL,,Courtyard by Marriott,Q1053170
BNACV,marriott,Fairfield Inn & Suites Clarksville,,Clarksville,TN,,US,+1 931-551-3200,https://www.marriott.com/BNACV,,Fairfield by Marriott,Q5430314
BNAWH,marriott,TownePlace Suites Clarksville,,Clarksville,TN,,US,+1 931-896-2005,https://www.marriott.com/BNAWH,,Townplace Suites by Marriott,Q7830092
17240,mattress_firm_us,Mattress Firm Clearance Center Clarksville,,Clarksville,TN,,US,+1 931-906-1224,https://www.mattressfirm.com/en-us/stores/tn/clarksville/006007/,,Mattress Firm Clearance,Q6791878
18168,mattress_firm_us,Mattress Firm Austin Square,,Clarksville,TN,,US,+1 931-648-7891,https://www.mattressfirm.com/en-us/stores/tn/clarksville/006025/,,Mattress Firm,Q6791878
https://locations.maurices.com/#11688124,maurices,maurices Govenor'S Square Mall Ste 255,,Clarksville,TN,,US,+1 931-542-9844,https://locations.maurices.com/us/tn/clarksville/2801-wilma-rudolph-blvd,Mo-Sa 10:00-21:00; Su 11:00-18:00,maurices,Q6793571
1273,michaels,"CLARKSVILLE, TN",,Clarksville,TN,,US,+1 931-218-2822,https://locations.michaels.com/tn/clarksville/1273,Mo-Sa 09:00-21:00; Su 10:00-19:00,Michaels,Q6835667
2860,mightyflame,MAPCO EXPRESS #7502,,Clarksville,TN,,US,+1 931-542-5695,,,Mighty Flame,
https://locations.moes.com/#773,moes,Moe's Southwest Grill,,Clarksville,TN,,US,+1 931-444-5171,https://locations.moes.com/tn/clarksville/108-morris-road,Mo-Su 10:45-21:00,Moe's Southwest Grill,Q6889938
5596,murphy_usa_us,,,Clarksville,TN,,US,+1 931-906-1723,,Mo-Sa 05:00-00:00; Su 05:30-00:00,Murphy USA,Q19604459
https://locations.noodles.com/tn/clarksville/2702-wilma-rudolph-blvd.html,noodles_and_company_us,Noodles & Company Clarksville,,Clarksville,TN,,US,+1 931-551-9556,https://locations.noodles.com/tn/clarksville/2702-wilma-rudolph-blvd.html,Mo-Th 10:30-21:00; Fr-Sa 10:30-22:00; Su 10:30-21:00,Noodles and Company,Q7049673
205,ocharleys_us,O'Charley's,,Clarksville,TN,,US,+1 931-552-7800,https://ocharleys.olo.com/menu/riverside-drive-tn/,,O'Charley's,Q7071703
96,old_chicago_us,Clarksville,"2815 WILMA RUDOLPH BLVD, CLARKSVILLE, TN 37040",CLARKSVILLE,TN,,US,,https://oldchicago.com/locations/clarksville,Mo-Su 11:00-00:00,Old Chicago,Q64411347
https://locations.oreillyauto.com/tn/clarksville/check-engine-light-testing-1034.html,oreilly,Your Clarksville O'Reilly Auto Parts Store,,Clarksville,TN,,US,+1 931-503-2296,https://locations.oreillyauto.com/tn/clarksville/check-engine-light-testing-1034.html,Mo-Sa 07:00-21:00; Su 08:00-20:00,O'Reilly Auto Parts,Q7071951
https://locations.oreillyauto.com/tn/clarksville/wiper-installation-1034.html,oreilly,Your Clarksville O'Reilly Auto Parts Store,,Clarksville,TN,,US,+1 931-503-2296,https://locations.oreillyauto.com/tn/clarksville/wiper-installation-1034.html,Mo-Sa 07:00-21:00; Su 08:00-20:00,O'Reilly Auto Parts,Q7071951
https://locations.oreillyauto.com/tn/clarksville/battery-testing-1034.html,oreilly,Your Clarksville O'Reilly Auto Parts Store,,Clarksville,TN,,US,+1 931-503-2296,https://locations.oreillyauto.com/tn/clarksville/battery-testing-1034.html,Mo-Sa 07:00-21:00; Su 08:00-20:00,O'Reilly Auto Parts,Q7071951
https://locations.oreillyauto.com/tn/clarksville/autopartes-1034.html,oreilly,Tu tienda O'Reilly Auto Parts en Clarksville,,Clarksville,TN,,US,+1 931-503-2296,https://locations.oreillyauto.com/tn/clarksville/autopartes-1034.html,Mo-Sa 07:00-21:00; Su 08:00-20:00,O'Reilly Auto Parts,Q7071951
https://locations.oreillyauto.com/tn/clarksville/wiper-installation-901.html,oreilly,Your Clarksville O'Reilly Auto Parts Store,,Clarksville,TN,,US,+1 931-645-4519,https://locations.oreillyauto.com/tn/clarksville/wiper-installation-901.html,Mo-Sa 07:00-21:00; Su 08:00-20:00,O'Reilly Auto Parts,Q7071951
https://locations.oreillyauto.com/tn/clarksville/battery-testing-901.html,oreilly,Your Clarksville O'Reilly Auto Parts Store,,Clarksville,TN,,US,+1 931-645-4519,https://locations.oreillyauto.com/tn/clarksville/battery-testing-901.html,Mo-Sa 07:00-21:00; Su 08:00-20:00,O'Reilly Auto Parts,Q7071951
https://locations.oreillyauto.com/tn/clarksville/check-engine-light-testing-901.html,oreilly,Your Clarksville O'Reilly Auto Parts Store,,Clarksville,TN,,US,+1 931-645-4519,https://locations.oreillyauto.com/tn/clarksville/check-engine-light-testing-901.html,Mo-Sa 07:00-21:00; Su 08:00-20:00,O'Reilly Auto Parts,Q7071951
https://locations.oreillyauto.com/tn/clarksville/autopartes-901.html,oreilly,Tu tienda O'Reilly Auto Parts en Clarksville,,Clarksville,TN,,US,+1 931-645-4519,https://locations.oreillyauto.com/tn/clarksville/autopartes-901.html,Mo-Sa 07:00-21:00; Su 08:00-20:00,O'Reilly Auto Parts,Q7071951
//locations.oshkosh.com/tn/clarksville/oshkosh-clarksville-tn,oshkosh_us,Oshkosh B'gosh Clarksville,,Clarksville,TN,,US,+1 931-553-2178,https://locations.oshkosh.com/tn/clarksville/oshkosh-clarksville-tn,Mo-Sa 10:00-21:00; Su 11:00-18:00,OshKosh B'gosh,Q1417347
https://locations.outback.com/#15502062,outbacksteakhouse,Outback Steakhouse,,Clarksville,TN,,US,+1 931-552-2900,https://locations.outback.com/tennessee/clarksville/2790-wilma-rudolph-boulevard,Mo-Th 11:00-22:00; Fr-Sa 11:00-23:00; Su 11:00-21:00,Outback Steakhouse,Q1064893
112944,pandaexpress,Wilma Rudolph & Mr. C,,Clarksville,TN,,US,+1 931-542-9121,https://www.pandaexpress.com/locations/tn/clarksville/3073-wilma-rudolph-blvd,Mo-Su 09:30-22:00,Panda Express,Q1358690
usa1d4e2cc,pandora,About Pandora Jewelry Authorized Retailer - McKenzie and Smiley Jewelers / Wilma Blvd,,Clarksville,TN,,US,+1 931-553-0555,https://stores.pandora.net/tn/clarksville/pandora-jewelry-usa1d4e2cc.html,Mo-Fr 09:00-18:00,Pandora,Q2241604
https://locations.papajohns.com/#10693537,papa_johns,Papa John's,,Clarksville,TN,,US,+1 931-647-8022,https://locations.papajohns.com/united-states/tn/37040/clarksville/2257-g-wilma-rudolph-blvd,Mo-Th 10:00-24:00; Fr-Sa 10:00-01:00; Su 10:00-23:00,Papa John's Pizza,Q2759586
https://locations.papajohns.com/#10693536,papa_johns,Papa John's,,Clarksville,TN,,US,+1 931-551-3000,https://locations.papajohns.com/united-states/tn/37040/clarksville/1485-madison-st,Mo-Th 10:00-24:00; Fr-Sa 10:00-01:00; Su 10:00-23:00,Papa John's Pizza,Q2759586
989,party_city,Governor's Square,,Clarksville,TN,,US,+1 931-266-0218,https://stores.partycity.com/us/tn/clarksville/party-store-pc989.html,,Party City,Q7140896
033610,penske,Penske Clarksville,,CLARKSVILLE,TN,,US,+1 931-553-5403,https://www.pensketruckrental.com/locations/us/tennessee/clarksville/033610/,,Penske,Q81234570
033624,penske,Wickham Self Storage,,CLARKSVILLE,TN,,US,+1 931-551-4070,https://www.pensketruckrental.com/locations/us/tennessee/clarksville/033624/,,Penske,Q81234570
033623,penske,Home Depot #726,,CLARKSVILLE,TN,,US,+1 931-647-0401,https://www.pensketruckrental.com/locations/us/tennessee/clarksville/033623/,,Penske,Q81234570
https://stores.petco.com/#27959381,petco,Petco Clarksville,,Clarksville,TN,,US,+1 931-221-0361,https://stores.petco.com/tn/clarksville/pet-supplies-clarksville-tn-1578.html,Mo-Sa 09:00-20:00; Su 10:00-19:00,Petco,Q7171798
tn_clarksville_703-south-riverside-dr,pizza_hut_us,703 South Riverside Dr.,,Clarksville,TN,,US,+1 931-552-4111,https://locations.pizzahut.com/tn/clarksville/703-south-riverside-dr,,Pizza Hut,Q191615
tn_clarksville_1901-wilma-rudolph-blvd,pizza_hut_us,1901 Wilma Rudolph Blvd,,Clarksville,TN,,US,+1 931-645-1111,https://locations.pizzahut.com/tn/clarksville/1901-wilma-rudolph-blvd,,Pizza Hut,Q191615
ppg-paints-9147-21690,ppgpaints,PPG Paints 9147,,"Clarksville, ",TN,,US,+1 931-647-2211,https://www.ppgpaints.com/store-locator/us/tennessee/clarksville-paint-stores/ppg-paints-9147-21690,,PPG Paints,Q83891559
home-depot-0726-13988,ppgpaints,HOME DEPOT 0726,,"Clarksville, ",TN,,US,+1 931-906-2655,https://www.ppgpaints.com/store-locator/us/tennessee/clarksville-paint-stores/home-depot-0726-13988,,PPG Paints,Q83891559
https://www.racetrac.com/locations/tennessee/clarksville/wilma-rudolph,racetrac_us,RaceTrac,,Clarksville,TN,,US,+1 931-648-7558,https://www.racetrac.com/locations/tennessee/clarksville/wilma-rudolph,,RaceTrac,Q735942
2801-wilma-rudolph-blvd,rue21,Governor's Square Mall,,Clarksville,TN,,US,,https://stores.rue21.com/tn/clarksville/2801-wilma-rudolph-blvd.html,Mo-Sa 10:00-21:00; Su 11:00-18:00,rue21,Q7377762
6512,sams_club,Clarksville Sam's Club,,Clarksville,TN,,US,+1 931-552-0733,https://www.samsclub.com/club/clarksville-tn-sams-club/6512,Mo 10:00-20:00; Sa 09:00-20:00; Su 10:00-18:00,Sam's Club,Q1972120
41817,seven_eleven_ca_us,7-Eleven,,Clarksville,TN,,US,+1 931-272-4969,https://www.7-eleven.com/locations/tn/clarksville/3928-trenton-rd-41817,,7-Eleven,Q259340
124,shoe_carnival_us,Shoe Carnival,,Clarksville,TN,,US,+1 931-648-2100,https://stores.shoecarnival.com/tn/clarksville/shoe-store-clarksville-tn-124.html,Mo-Sa 10:00-21:00; Su 11:00-19:00,Shoe Carnival,Q7500007
16383796492804465945,sleep_number_us,Sleep Number,,Clarksville,TN,,US,,https://www.sleepnumber.com/stores/tn/clarksville/3031-wilma-rudolph-blvd,Mo-Th 10:00-19:00; Fr-Sa 10:00-20:00; Su 11:00-19:00,Sleep Number,Q7447640
83,sleep_outfitters_us,Sleep Outfitters,,Clarksville,TN,,US,+1 931-648-7049,,,Sleep Outfitters,Q120509459
312,steak_n_shake,Steak n Shake,,Clarksville,TN,,US,+1 931-906-7450,https://www.steaknshake.com/locations/tn-clarksville-2819c-wilma-rudolph/,,Steak N Shake,Q7605233
https://restaurants.subway.com/#15294812,subway,Subway Austin Peay State Univ,,Clarksville,TN,,US,+1 931-221-6515,https://restaurants.subway.com/united-states/tn/clarksville/henry-st-harvill-bookstore,,Subway,Q244457
https://restaurants.subway.com/#14901312,subway,Subway,,Clarksville Montgomery,TN,,US,+1 931-552-9297,https://restaurants.subway.com/united-states/tn/clarksville/651-n-riverside-drive,Mo-Su 09:00-21:00,Subway,Q244457
https://restaurants.subway.com/#14904072,subway,Subway,,Clarksville Montgomery,TN,,US,+1 931-221-0055,https://restaurants.subway.com/united-states/tn/clarksville/2512b-wilma-rudolph-blvd,Mo-Sa 08:00-21:00; Su 08:30-21:00,Subway,Q244457
https://restaurants.subway.com/#14912466,subway,Subway Westfield Court,,Clarksville Montgomery,TN,,US,+1 931-919-0727,https://restaurants.subway.com/united-states/tn/clarksville/3092-wilma-rudolph-blvd,Mo-Su 10:00-21:00,Subway,Q244457
https://restaurants.subway.com/#14898957,subway,Subway Governor's Square Mall,,Clarksville Montgomery,TN,,US,+1 931-905-2345,https://restaurants.subway.com/united-states/tn/clarksville/2801-wilma-rudolph-blvd,Mo-Sa 10:00-21:00; Su 11:00-18:00,Subway,Q244457
https://restaurants.subway.com/#14909593,subway,Subway Beach Oil C-Store,,Clarksville Montgomery,TN,,US,+1 931-648-0384,https://restaurants.subway.com/united-states/tn/clarksville/1200-hwy-48,Mo 08:00-09:00; Tu-Su 08:00-21:00,Subway,Q244457
https://locations.tacobell.com/#3917238,taco_bell,Taco Bell,,Clarksville,TN,,US,+1 931-645-8714,https://locations.tacobell.com/tn/clarksville/788-riverside-drive.html,Mo-Th 07:00-02:00; Fr-Sa 07:00-04:00; Su 07:00-02:00,Taco Bell,Q752941
https://locations.tacobell.com/#3916977,taco_bell,Taco Bell,,Clarksville,TN,,US,+1 931-647-2981,https://locations.tacobell.com/tn/clarksville/3055-wilma-rudolph-blvd.html,Mo-Sa 07:00-03:00; Su 07:00-02:00,Taco Bell,Q752941
281107,tjx,Clarksville,2801 Wilma Rudolph Boulevard,Clarksville,TN,,US,+1 931-920-9770,,Mo-Sa 09:30-21:30; Su 10:00-20:00,HomeGoods,Q5887941
951C,tmobile_us,Wilma Rudolph Blvd & Needmore Rd,,Clarksville,TN,,US,+1 931-266-4680,https://www.t-mobile.com/store-locator/tn/clarksville/wilma-rudolph-blvd-needmore-rd,,T-Mobile,Q3511885
1B10,tmobile_us,Sam's Club Clarksville TN,,Clarksville,TN,,US,+1 931-339-9309,https://www.t-mobile.com/store-locator/tn/clarksville/sams-club-clarksville-tn,,T-Mobile,Q3511885
1361148,usps,DOWNTOWN CLARKSVILLE,,CLARKSVILLE,TN,,US,+1 931-647-9957,,Mo-Fr 10:00-16:30,United States Postal Service,Q668687
1358212,usps,CLARKSVILLE,,CLARKSVILLE,TN,,US,+1 931-905-0927,,Mo-Fr 08:30-17:00; Sa 08:30-12:00,United States Postal Service,Q668687
3704000057,usps_collection_boxes,USPS COLLECTION BOX - BLUE BOX,3050 WILMA RUDOLPH BLVD,CLARKSVILLE,TN,,US,,,,United States Postal Service,Q668687
3704000045,usps_collection_boxes,USPS COLLECTION BOX - BLUE BOX,1031 PROGRESS DR,CLARKSVILLE,TN,,US,,,,United States Postal Service,Q668687
3704000067,usps_collection_boxes,USPS COLLECTION BOX - BLUE BOX,651 DUNLOP LN,CLARKSVILLE,TN,,US,,,,United States Postal Service,Q668687
3704000061,usps_collection_boxes,USPS COLLECTION BOX - BLUE BOX,2031 WILMA RUDOLPH BLVD,CLARKSVILLE,TN,,US,,,,United States Postal Service,Q668687
3704000062,usps_collection_boxes,USPS COLLECTION BOX - BLUE BOX,2031 WILMA RUDOLPH BLVD,CLARKSVILLE,TN,,US,,,,United States Postal Service,Q668687
3704000064,usps_collection_boxes,USPS COLLECTION BOX - PO LOBBY,2031 WILMA RUDOLPH BLVD,CLARKSVILLE,TN,,US,,,,United States Postal Service,Q668687
3704000069,usps_collection_boxes,USPS COLLECTION BOX - APC,2031 WILMA RUDOLPH BLVD,CLARKSVILLE,TN,,US,,,,United States Postal Service,Q668687
3704000066,usps_collection_boxes,USPS COLLECTION BOX - BLUE BOX,310 FRANKLIN ST,CLARKSVILLE,TN,,US,,,,United States Postal Service,Q668687
3704000006,usps_collection_boxes,USPS COLLECTION BOX - BLUE BOX,1 PUBLIC SQ,CLARKSVILLE,TN,,US,,,,United States Postal Service,Q668687
3704000028,usps_collection_boxes,USPS COLLECTION BOX - BLUE BOX,100 PUBLIC SQ,CLARKSVILLE,TN,,US,,,,United States Postal Service,Q668687
3704000017,usps_collection_boxes,USPS COLLECTION BOX - BLUE BOX,350 PAGEANT LN,CLARKSVILLE,TN,,US,,,,United States Postal Service,Q668687
3704000034,usps_collection_boxes,USPS COLLECTION BOX - BLUE BOX,400 HIGHWAY 149,CLARKSVILLE,TN,,US,,,,United States Postal Service,Q668687
3704000012,usps_collection_boxes,USPS COLLECTION BOX - BLUE BOX,1051 S RIVERSIDE DR,CLARKSVILLE,TN,,US,,,,United States Postal Service,Q668687
clarksville_oil-change-fg0014,valvoline_instant_oil_change,Valvoline,3867 Trenton Road ,Clarksville,TN,,US,+1 931-906-9480,https://store.vioc.com/tn/clarksville/oil-change-fg0014.html,,Valvoline Instant Oil Change,Q7912852
R00000169630,verizon_us,Clarksville TN,,Clarksville,TN,,US,+1 931-648-2355,https://www.verizon.com/stores/details/tennessee/clarksville/clarksville-331146/,Mo-Sa 09:00-20:00; Su 11:00-18:00,Verizon,Q919641
A00000175259,verizon_us,Cellular Sales Clarksville Wilma Rudolph Blvd,,CLARKSVILLE,TN,,US,+1 931-920-0346,https://www.verizon.com/stores/details/tennessee/clarksville/cellular-sales-clarksville-wilma-rudolph-blvd-1538922/,Mo-Sa 10:00-21:00; Su 11:00-18:00,Verizon,Q919641
,visa,,,CLARKSVILLE,TN,,US,,,,,
,visa,,,CLARKSVILLE,TN,,US,,,,,
,visa,,,CLARKSVILLE,TN,,US,,,,,
,visa,,,CLARKSVILLE,TN,,US,,,,,
,visa,,,CLARKSVILLE,TN,,US,,,,,
,visa,,,CLARKSVILLE,TN,,US,,,,,
,visa,,,CLARKSVILLE,TN,,US,,,,,
,visa,,,CLARKSVILLE,TN,,US,,,,,
,visa,,,CLARKSVILLE,TN,,US,,,,,
,visa,,,CLARKSVILLE,TN,,US,,,,,
,visa,,,CLARKSVILLE,TN,,US,,,,,
,visa,,,CLARKSVILLE,TN,,US,,,,,
,visa,,,CLARKSVILLE,TN,,US,,,,,
,visa,,,CLARKSVILLE,TN,,US,,,,,
,visa,,,CLARKSVILLE,TN,,US,,,,,
,visa,,,CLARKSVILLE,TN,,US,,,,,
,visa,,,CLARKSVILLE,TN,,US,,,,,
,visa,,,CLARKSVILLE,TN,,US,,,,,
,visa,,,CLARKSVILLE,TN,,US,,,,,
,visa,,,CLARKSVILLE,TN,,US,,,,,
,visa,,,CLARKSVILLE,TN,,US,,,,,
,visa,,,CLARKSVILLE,TN,,US,,,,,
,visa,,,CLARKSVILLE,TN,,US,,,,,
,visa,,,CLARKSVILLE,TN,,US,,,,,
,visa,,,CLARKSVILLE,TN,,US,,,,,
,visa,,,CLARKSVILLE,TN,,US,,,,,
,visa,,,CLARKSVILLE,TN,,US,,,,,
,visa,,,CLARKSVILLE,TN,,US,,,,,
,visa,,,CLARKSVILLE,TN,,US,,,,,
,visa,,,CLARKSVILLE,TN,,US,,,,,
,visa,,,CLARKSVILLE,TN,,US,,,,,
,visa,,,CLARKSVILLE,TN,,US,,,,,
,visa,,,CLARKSVILLE,TN,,US,,,,,
,visa,,,CLARKSVILLE,TN,,US,,,,,
,visa,,,CLARKSVILLE,TN,,US,,,,,
,visa,,,CLARKSVILLE,TN,,US,,,,,
,visa,,,CLARKSVILLE,TN,,US,,,,,
,visa,,,CLAKSVILLE,TN,,US,,,,,
,visa,,,CLARKSVILLE,TN,,US,,,,,
,visa,,,CLARKSVILLE,TN,,US,,,,,
,visa,,,CLARKSVILLE,TN,,US,,,,,
,visa,,,CLARKSVILLE,TN,,US,,,,,
,visa,,,CLARKSVILLE,TN,,US,,,,,
,visa,,,CLARKSVILLE,TN,,US,,,,,
,visa,,,CLARKSVILLE,TN,,US,,,,,
,visa,,,CLARKSVILLE,TN,,US,,,,,
,visa,,,CLARKSVILLE,TN,,US,,,,,
,visa,,,CLARKSVILLE,TN,,US,,,,,
,visa,,,CLARKSVILLE,TN,,US,,,,,
,visa,,,CLARKSVILLE,TN,,US,,,,,
,visa,,,CLARKSVILLE,TN,,US,,,,,
,visa,,,CLARKSVILLE,TN,,US,,,,,
,visa,,,CLARKSVILLE,TN,,US,,,,,
,visa,,,CLARKSVILLE,TN,,US,,,,,
,visa,,,CLARKSVILLE,TN,,US,,,,,
,visa,,,CLARKSVILLE,TN,,US,,,,,
,visa,,,CLARKSVILLE,TN,,US,,,,,
,visa,,,CLARKSVILLE,TN,,US,,,,,
,visa,,,CLARKSVILLE,TN,,US,,,,,
,visa,,,CLARKSVILLE,TN,,US,,,,,
,visa,,,CLARKSVILLE,TN,,US,,,,,
,visa,,,CLARKSVILLE,TN,,US,,,,,
,visa,,,CLARKSVILLE,TN,,US,,,,,
,visa,,,CLARKSVILLE,TN,,US,,,,,
,visa,,,CLARKSVILLE,TN,,US,,,,,
,visa,,,CLARKSVILLE,TN,,US,,,,,
,visa,,,CLARKSVILLE,TN,,US,,,,,
,visa,,,CLARKSVILLE,TN,,US,,,,,
,visa,,,CLARKSVILLE,TN,,US,,,,,
,visa,,,CLARKSVILLE,TN,,US,,,,,
,visa,,,CLARKSVILLE,TN,,US,,,,,
,visa,,,CLARKSVILLE,TN,,US,,,,,
,visa,,,CLARKSVILLE,TN,,US,,,,,
,visa,,,CLARKSVILLE,TN,,US,,,,,
,visa,,,CLARKSVILLE,TN,,US,,,,,
,visa,,,CLARKSVILLE,TN,,US,,,,,
,visa,,,CLARKSVILLE,TN,,US,,,,,
,visa,,,CLARKSVILLE,TN,,US,,,,,
,visa,,,CLARKSVILLE,TN,,US,,,,,
,visa,,,CLARKSVILLE,TN,,US,,,,,
,visa,,,CLARKSVILLE,TN,,US,,,,,
,visa,,,CLARKSVILLE,TN,,US,,,,,
,visa,,,CLARKSVILLE,TN,,US,,,,,
,visa,,,CLARKSVILLE,TN,,US,,,,,
,visa,,,CLARKSVILLE,TN,,US,,,,,
,visa,,,CLARKSVILLE,TN,,US,,,,,
,visa,,,CLARKSVILLE,TN,,US,,,,,
,visa,,,CLARKSVILLE,TN,,US,,,,,
,visa,,,CLARKSVILLE,TN,,US,,,,,
,visa,,,CLARKSVILLE,TN,,US,,,,,
,visa,,,CLARKSVILLE,TN,,US,,,,,
,visa,,,CLARKSVILLE,TN,,US,,,,,
,visa,,,CLARKSVILLE,TN,,US,,,,,
,visa,,,CLARKSVILLE,TN,,US,,,,,
,visa,,,CLARKSVILLE,TN,,US,,,,,
,visa,,,CLARKSVILLE,TN,,US,,,,,
,visa,,,CLARKSVILLE,TN,,US,,,,,
,visa,,,CLARKSVILLE,TN,,US,,,,,
,visa,,,CLARKSVILLE,TN,,US,,,,,
,visa,,,CLARKSVILLE,TN,,US,,,,,
,visa,,,CLARKSVILLE,TN,,US,,,,,
,visa,,,CLARKSVILLE,TN,,US,,,,,
,visa,,,CLARKSVILLE,TN,,US,,,,,
,visa,,,CLARKSVILLE,TN,,US,,,,,
,visa,,,CLARKSVILLE,TN,,US,,,,,
,visa,,,CLARKSVILLE,TN,,US,,,,,
,visa,,,CLARKSVILLE,TN,,US,,,,,
,visa,,,CLARKSVILLE,TN,,US,,,,,
,visa,,,CLARKSVILLE,TN,,US,,,,,
,visa,,,CLARKSVILLE,TN,,US,,,,,
,visa,,,CLARKSVILLE,TN,,US,,,,,
,visa,,,CLARKSVILLE,TN,,US,,,,,
,visa,,,CLARKSVILLE,TN,,US,,,,,
,visa,,,CLARKSVILLE,TN,,US,,,,,
,visa,,,CLARKSVILLE,TN,,US,,,,,
,visa,,,CLARKSVILLE,TN,,US,,,,,
,visa,,,CLARKSVILLE,TN,,US,,,,,
,visa,,,CLARKSVILLE,TN,,US,,,,,
,visa,,,CLARKSVILLE,TN,,US,,,,,
,visa,,,CLARKSVILLE,TN,,US,,,,,
,visa,,,CLARKSVILLE,TN,,US,,,,,
,visa,,,CLARKSVILLE,TN,,US,,,,,
,visa,,,CLARKESVILLE,TN,,US,,,,,
,visa,,,CLARKSVILLE,TN,,US,,,,,
,visa,,,CLARKSVILLE,TN,,US,,,,,
,visa,,,CLARKSVILLE,TN,,US,,,,,
,visa,,,CLARKSVILLE,TN,,US,,,,,
,visa,,,CLARKSVILLE,TN,,US,,,,,
,visa,,,CLARKSVILLE,TN,,US,,,,,
,visa,,,CLARKSVILLE,TN,,US,,,,,
,visa,,,CLARKSVILLE,TN,,US,,,,,
,visa,,,CLARKSVILLE,TN,,US,,,,,
,visa,,,CLARKSVILLE,TN,,US,,,,,
,visa,,,CLARKSVILLE,TN,,US,,,,,
,visa,,,CLARKSVILLE,TN,,US,,,,,
,visa,,,CLARKSVILLE,TN,,US,,,,,
,visa,,,CLARKSVILLE,TN,,US,,,,,
,visa,,,CLARKSVILLE,TN,,US,,,,,
,visa,,,CLARKSVILLE,TN,,US,,,,,
,visa,,,CLARKSVILLE,TN,,US,,,,,
,visa,,,CLARKSVILLE,TN,,US,,,,,
,visa,,,CLARKSVILLE,TN,,US,,,,,
,visa,,,CLARKSVILLE,TN,,US,,,,,
,visa,,,CLARKSVILLE,TN,,US,,,,,
,visa,,,CLARKSVILLE,TN,,US,,,,,
,visa,,,NASHVILLE,TN,,US,,,,,
,visa,,,CLARKSVILLE,TN,,US,,,,,
,visa,,,CLARKSVILLE,TN,,US,,,,,
,visa,,,CLARKSVILLE,TN,,US,,,,,
,visa,,,CLARKSVILLE,TN,,US,,,,,
,visa,,,CLARKSVILLE,TN,,US,,,,,
,visa,,,CLARKSVILLE,TN,,US,,,,,
,visa,,,CLARKSVILLE,TN,,US,,,,,
,visa,,,CLARKSVILLE,TN,,US,,,,,
,visa,,,CLARKSVILLE,TN,,US,,,,,
,visa,,,CLARKSVILLE,TN,,US,,,,,
,visa,,,CLARKSVILLE,TN,,US,,,,,
,visa,,,CLARKSVILLE,TN,,US,,,,,
,visa,,,CLARKSVILLE,TN,,US,,,,,
,visa,,,CLARKSVILLE,TN,,US,,,,,
,visa,,,CLARKSVILLE,TN,,US,,,,,
,visa,,,CLARKSVILLE,TN,,US,,,,,
,visa,,,CLARKSVILLE,TN,,US,,,,,
,visa,,,CLARKSVILLE,TN,,US,,,,,
,visa,,,CLARKSVILLE,TN,,US,,,,,
,visa,,,CLARKSVILLE,TN,,US,,,,,
,visa,,,CLARKSVILLE,TN,,US,,,,,
,visa,,,CLARKSVILLE,TN,,US,,,,,
,visa,,,CLARKSVILLE,TN,,US,,,,,
,visa,,,CLARKSVILLE,TN,,US,,,,,
,visa,,,CLARKSVILLE,TN,,US,,,,,
,visa,,,CLARKSVILLE,TN,,US,,,,,
,visa,,,CLARKSVILLE,TN,,US,,,,,
,visa,,,CLARKSVILLE,TN,,US,,,,,
,visa,,,CLARKSVILLE,TN,,US,,,,,
,visa,,,CLARKSVILLE,TN,,US,,,,,
,visa,,,CLARKSVILLE,TN,,US,,,,,
,visa,,,CLARKSVILLE,TN,,US,,,,,
,visa,,,CLARKSVILLE,TN,,US,,,,,
,visa,,,CLARKSVILLE,TN,,US,,,,,
,visa,,,CLARKSVILLE,TN,,US,,,,,
,visa,,,CLARKSVILLE,TN,,US,,,,,
,visa,,,CLARKSVILLE,TN,,US,,,,,
,visa,,,CLARKSVILLE,TN,,US,,,,,
,visa,,,CLARKSVILLE,TN,,US,,,,,
,visa,,,CLARKSVILLE,TN,,US,,,,,
,visa,,,CLARKSVILLE,TN,,US,,,,,
,visa,,,CLARKSVILLE,TN,,US,,,,,
,visa,,,CLARKSVILLE,TN,,US,,,,,
,visa,,,CLARKSVILLE,TN,,US,,,,,
,visa,,,CLARKSVILLE,TN,,US,,,,,
,visa,,,CLARKSVILLE,TN,,US,,,,,
,visa,,,CLARKSVILLE,TN,,US,,,,,
,visa,,,CLARKSVILLE,TN,,US,,,,,
,visa,,,CLARKSVILLE,TN,,US,,,,,
,visa,,,CLARKSVILLE,TN,,US,,,,,
,visa,,,CLARKSVILLE,TN,,US,,,,,
,visa,,,CLARKSVILLE,TN,,US,,,,,
https://locations.vitaminshoppe.com/tn/clarksville/vitamins-supplements-clarksville-tn-669.html,vitamin_shoppe,The Vitamin Shoppe® Clarksville ,2807 Wilma Rudolph Blvd Unit 15,Clarksville,TN,,US,+1 931-551-3885,https://locations.vitaminshoppe.com/tn/clarksville/vitamins-supplements-clarksville-tn-669.html,Su 10:00-19:00; Mo 09:00-20:30; Tu 09:00-20:30; We 09:00-20:30; Th 09:00-20:30; Fr 09:00-20:30; Sa 09:00-20:30,The Vitamin Shoppe,Q7772938
1713,waffle_house_us,Waffle House #1713,,CLARKSVILLE,TN,,US,+1 931-552-0720,https://locations.wafflehouse.com/clarksville-tn-1713,24/7,Waffle House,Q1701206
794,waffle_house_us,Waffle House #794,,CLARKSVILLE,TN,,US,+1 931-551-3598,https://locations.wafflehouse.com/clarksville-tn-794,24/7,Waffle House,Q1701206
https://www.walgreens.com/locator/walgreens-2109+wilma+rudolph+blvd-clarksville-tn-37040/id=9340,walgreens,Walgreens,,Clarksville,TN,,US,+1 931-551-8157,https://www.walgreens.com/locator/walgreens-2109+wilma+rudolph+blvd-clarksville-tn-37040/id=9340,Mo-Sa 08:00-22:00; Su 09:00-21:00,Walgreens,Q1591889
https://locations.wendys.com/#9251537,wendys,"Wendy's #203 Wilma Rudolph in Clarksville, TN",,Clarksville,TN,,US,+1 931-647-0455,https://locations.wendys.com/united-states/tn/clarksville/2800-wilma-rudolph-blvd,"Mo-Sa 06:00-10:30,09:00-22:00; Su 06:00-10:30,09:00-20:00",Wendy's,Q550258
937b2a9b55167359b1ae7da0a468ec62,western_union,WALMART #000673,,Clarksville,TN,,US,+1 931-553-8127,https://location.westernunion.com/us/tn/clarksville/937b2a9b55167359b1ae7da0a468ec62,Mo-Sa 08:00-20:00; Su 10:00-18:00,Western Union,Q861042
361001c31e227a870c829fdc9fa41213,western_union,WALMART #004469,,Clarksville,TN,,US,+1 931-436-9565,https://location.westernunion.com/us/tn/clarksville/361001c31e227a870c829fdc9fa41213,Mo-Su 07:00-21:00,Western Union,Q861042
c059fa3d01bc4e46aef36c75e0c5a0fd,western_union,CASH 1 #1000,,Clarksville,TN,,US,+1 931-905-9999,https://location.westernunion.com/us/tn/clarksville/c059fa3d01bc4e46aef36c75e0c5a0fd,Mo-Fr 09:00-18:00; Sa 09:00-17:00,Western Union,Q861042
498834eb74ab941933f01b447ce7a2c8,western_union,ADVANCE FINANCIAL #30,,Clarksville,TN,,US,+1 931-802-6110,https://location.westernunion.com/us/tn/clarksville/498834eb74ab941933f01b447ce7a2c8,Mo-Fr 08:00-20:00; Sa-Su 10:00-16:00,Western Union,Q861042
38502b937d84b5a60143dcf443773225,western_union,PUBLIX #1802,,Clarksville,TN,,US,+1 931-553-5067,https://location.westernunion.com/us/tn/clarksville/38502b937d84b5a60143dcf443773225,Mo-Su 07:00-22:00,Western Union,Q861042
14578a49d725fab2fc454433cf5a0060,western_union,ADVANCED FINANCIAL #22,,Clarksville,TN,,US,+1 931-552-8140,https://location.westernunion.com/us/tn/clarksville/14578a49d725fab2fc454433cf5a0060,Mo-Fr 08:00-18:00; Sa-Su 10:00-16:00,Western Union,Q861042
e4bca6d95c060a1f6a11f4cba7f45b63,western_union,DOLLAR GENERAL #22373,,Clarksville,TN,,US,+1 931-444-5821,https://location.westernunion.com/us/tn/clarksville/e4bca6d95c060a1f6a11f4cba7f45b63,Mo-Su 08:00-22:00,Western Union,Q861042
338ee0e95cd9522ea1a96beba96fdaea,western_union,FOOD LION #1473,,Clarksville,TN,,US,+1 931-920-5953,https://location.westernunion.com/us/tn/clarksville/338ee0e95cd9522ea1a96beba96fdaea,Mo-Su 06:00-22:00,Western Union,Q861042
https://locations.whataburger.com/tn/clarksville/791-n-2nd-st.html,whataburger,Riverside,791 N 2nd St,Clarksville,TN,,US,,https://locations.whataburger.com/tn/clarksville/791-n-2nd-st.html,,Whataburger,Q376627
1066,whitecastle,NASH 09,,Clarksville,TN,,US,+1 931-648-9911,https://www.whitecastle.com/locations/1066,Mo-Su 08:00-04:00,White Castle,Q1244034
20653,wingstop,Wingstop Clarksville Needmore Rd.,110 Needmore Rd,Clarksville,TN,,US,+1 931-553-1414,,,Wingstop,Q8025339
34260,wingstop,Wingstop Clarksville Quin Lane,100 Quin Lane,Clarksville,TN,,US,+1 931-919-4884,,,Wingstop,Q8025339
807,world_finance_us,,"569 S Riverside Dr, Clarksville, TN, 37040",Clarksville,TN,,US,+1 931-553-0880,https://www.loansbyworld.com/branches/branch-807,Mo-Fr 09:00-17:30; Sa 09:00-12:00,World Finance,Q3569971
827,world_finance_us,,"2277 Wilma Rudolph Blvd Suite A1, Clarksville, TN, 37040",Clarksville,TN,,US,+1 931-647-9595,https://www.loansbyworld.com/branches/branch-827,Mo-Fr 09:00-17:30; Sa 09:00-12:00,World Finance,Q3569971
