Ref,Spider,Name,Address,City,State,Zipcode,Country,Phone,Website,Hours,Brand,WikiData
https://locations.atipt.com/jamison-pa,ati_physical_therapy,ATI Physical Therapy Jamison 525,,Jamison,PA,,US,+1 215-343-2141,https://locations.atipt.com/jamison-pa,,ATI Physical Therapy,Q50039703
060381,citizens_us,Citizens Jamison,,Jamison,PA,,US,+1 215-491-8001,,Mo-Fr 09:00-16:00; Sa 09:00-12:00,Citizens,Q5122694
ATM-2542,citizens_us,,,Jamison,PA,,US,,,,Citizens,Q5122694
ATM-64,citizens_us,,,Jamison,PA,,US,+1 215-491-8001,,24/7,Citizens,Q5122694
2040,cvs_us,CVS Pharmacy,,Jamison,PA,,US,+1 215-491-7176,https://www.cvs.com/store-locator/jamison-pa-pharmacies/2193-york-rd-jamison-pa-18929/storeid=2040,Mo-Su 08:00-22:00,CVS Pharmacy,Q2078880
338278,dunkin_us,Dunkin',,Jamison,PA,,US,+1 215-343-4922,https://locations.dunkindonuts.com/en/pa/jamison/1625-kendarbren-dr/338278,Mo-Su 05:00-19:00,Dunkin',Q847743
https://locations.outback.com/#15502031,outbacksteakhouse,Outback Steakhouse,,Jamison,PA,,US,+1 215-918-2633,https://locations.outback.com/pennsylvania/jamison/2520-york-road,Mo-Th 16:00-21:30; Fr 16:00-22:30; Sa 11:00-22:30; Su 11:00-21:00,Outback Steakhouse,Q1064893
0322260100,sunoco_us,Sunoco,,JAMISON,PA,,US,,,Mo-Su 06:00-00:00,Sunoco,Q1423218
80056,supercuts,Warwick Square,2395 York Rd Ste 17,Jamison,PA,,US,+1 215-491-7550,https://www.supercuts.com/checkin/80056,Mo-Fr 09:00-20:00; Sa 09:00-19:00; Su 10:00-17:00,Supercuts,Q7643239
1368276,usps,JAMISON,,JAMISON,PA,,US,+1 215-343-3916,,Mo-Fr 08:00-16:30; Sa 09:00-11:30,United States Postal Service,Q668687
1892900008,usps_collection_boxes,USPS COLLECTION BOX - PO LOBBY,2370 YORK RD STE G1,JAMISON,PA,,US,,,,United States Postal Service,Q668687
1892900002,usps_collection_boxes,USPS COLLECTION BOX - BLUE BOX,2370 YORK RD STE G1,JAMISON,PA,,US,,,,United States Postal Service,Q668687
1892900003,usps_collection_boxes,USPS COLLECTION BOX - PO LOBBY,2370 YORK RD,JAMISON,PA,,US,,,,United States Postal Service,Q668687
1892900004,usps_collection_boxes,USPS COLLECTION BOX - PO LOBBY,2370 YORK RD,JAMISON,PA,,US,,,,United States Postal Service,Q668687
,visa,,,JAMISON,PA,,US,,,,,
,visa,,,JAMISON,PA,,US,,,,,
,visa,,,JAMISON,PA,,US,,,,,
,visa,,,JAMISON,PA,,US,,,,,
,visa,,,JAMISON,PA,,US,,,,,
,visa,,,JAMISON,PA,,US,,,,,
,visa,,,JAMISON,PA,,US,,,,,
,visa,,,JAMISON,PA,,US,,,,,
,visa,,,JAMISON,PA,,US,,,,,
,visa,,,JAMISON,PA,,US,,,,,
,visa,,,JAMISON,PA,,US,,,,,
https://www.walgreens.com/locator/walgreens-2319+york+rd-jamison-pa-18929/id=9078,walgreens,Walgreens,,Jamison,PA,,US,+1 215-343-1488,https://www.walgreens.com/locator/walgreens-2319+york+rd-jamison-pa-18929/id=9078,Mo-Fr 07:00-22:00; Sa-Su 08:00-22:00,Walgreens,Q1591889
