Ref,Spider,Name,Address,City,State,Zipcode,Country,Phone,Website,Hours,Brand,WikiData
10540,abc_pl,abc,,Częstochowa,śląskie,,PL,,,,abc,Q11683985
85,abc_pl,abc,,Częstochowa,śląskie,,PL,,,,abc,Q11683985
12152,abc_pl,abc,,Częstochowa,śląskie,,PL,,,,abc,Q11683985
6534,abc_pl,abc,,Częstochowa,śląskie,,PL,,,,abc,Q11683985
28,mcdonalds_pl,McDonald's,,Częstochowa,Śląskie,,PL,+48 533 351 673,https://mcdonalds.pl/restauracje/slaskie/czestochowa/czestochowa-al-wolnosci-4-6,Mo-Su 07:00-23:00,McDonald's,Q38076
CZE02HO,paczkomat_inpost_pl,Galeria 49 przy sklepie SPAR,,Częstochowa,śląskie,,PL,,https://inpost.pl/paczkomat-czestochowa-cze02ho-al-nmp-paczkomaty-slaskie,Mo-Su 06:00-22:00,Paczkomat,Q110970254
CZE03M,paczkomat_inpost_pl,Od ulicy Polskiej Organizacji Wojskowej 20,,Częstochowa,śląskie,,PL,,https://inpost.pl/paczkomat-czestochowa-cze03m-kopernika-paczkomaty-slaskie,24/7,Paczkomat,Q110970254
CZE05M,paczkomat_inpost_pl,Przy sklepie Aldi,,Częstochowa,śląskie,,PL,,https://inpost.pl/paczkomat-czestochowa-cze05m-korczaka-paczkomaty-slaskie,24/7,Paczkomat,Q110970254
CZE09M,paczkomat_inpost_pl,Przy sklepie Lidl,,Częstochowa,śląskie,,PL,,https://inpost.pl/paczkomat-czestochowa-cze09m-ambulatoryjna-paczkomaty-slaskie,24/7,Paczkomat,Q110970254
CZE13N,paczkomat_inpost_pl,Przy markecie Auchan,,Częstochowa,śląskie,,PL,,https://inpost.pl/paczkomat-czestochowa-cze13n-focha-paczkomaty-slaskie,24/7,Paczkomat,Q110970254
CZE41M,paczkomat_inpost_pl,Przy wejściu do sklepu Netto,,Częstochowa,śląskie,,PL,,https://inpost.pl/paczkomat-czestochowa-cze41m-pulaskiego-paczkomaty-slaskie,24/7,Paczkomat,Q110970254
CZE42M,paczkomat_inpost_pl,prywatna posesja obok Urzędu Miasta,,Częstochowa,śląskie,,PL,,https://inpost.pl/paczkomat-czestochowa-cze42m-waszyngtona-paczkomaty-slaskie,24/7,Paczkomat,Q110970254
POP-CZE18,paczkomat_inpost_pl,VAPIN,,Częstochowa,śląskie,,PL,,https://inpost.pl/paczkomat-czestochowa-pop-cze18-al-wolnosci-paczkomaty-slaskie,Mo-Fr 10:00-18:00; Sa 10:00-14:00,Paczkomat,Q110970254
POP-CZE26,paczkomat_inpost_pl,IMPULS 24H,,Częstochowa,śląskie,,PL,,https://inpost.pl/paczkomat-czestochowa-pop-cze26-wolnosci-paczkomaty-slaskie,Mo-Sa 05:00-22:00; Su 09:00-21:00,Paczkomat,Q110970254
POP-CZS1,paczkomat_inpost_pl,LEWIATAN,,Częstochowa,śląskie,,PL,,https://inpost.pl/paczkomat-czestochowa-pop-czs1-oginskiego-paczkomaty-slaskie,Mo-Sa 06:00-22:00; Su 09:00-21:00,Paczkomat,Q110970254
201,play_pl,Salon Play,Al. Wolności 4,Częstochowa,śląskie,,PL,+48 790 818 317,,Mo-Fr 10:00-18:00; Sa 10:00-14:00,Play,Q7202998
281649,poczta_polska_pl,AP Częstochowa,,Częstochowa,ŚLĄSKIE,,PL,+48 602 491 423,,,Poczta Polska,Q168833
236868,poczta_polska_pl,UP Częstochowa 17,,Częstochowa,ŚLĄSKIE,,PL,+48 34 366 80 08;+48 34 360 61 23;+48 34 360 56 05,,,Poczta Polska,Q168833
,visa,,,CZĘSTOCHOWA,ŚLĄSKIE,,PL,,,,,
,visa,,,CZĘSTOCHOWA,ŚLĄSKIE,,PL,,,,,
,visa,,,CZĘSTOCHOWA,ŚLĄSKIE,,PL,,,,,
