Ref,Spider,Name,Address,City,State,Zipcode,Country,Phone,Website,Hours,Brand,WikiData
462,anytime_fitness,Anytime Fitness,,Reno,NV,,US,+1 775-746-8400,https://www.anytimefitness.com/gyms/462/reno-nv-89523/,,Anytime Fitness,Q4778364
https://www.banfield.com/locations/veterinarians/nv/reno/rew,banfield_pet_hospital,Reno W.,,Reno,NV,,US,+1 775-746-0672,https://www.banfield.com/locations/veterinarians/nv/reno/rew,Mo-Fr 08:00-19:00; Sa 07:00-19:00; Su 08:00-17:00,Banfield Pet Hospital,Q2882416
https://locations.baskinrobbins.com/nv/reno/5150-mae-anne-ave-361216-br,baskin_robbins_us,Baskin-Robbins™,,Reno,NV,,US,+1 775-746-9344,https://locations.baskinrobbins.com/nv/reno/5150-mae-anne-ave-361216-br,Mo-Su 11:00-22:00,Baskin-Robbins,Q584601
183341,bluerhino,RADC dba Aisle 1 #155,,Reno,NV,,US,+1 775-746-0103,,,Blue Rhino,Q65681213
225678,bluerhino,Subhash Joshi LLC dba Mata Hardware - Orgill #436113,,Reno,NV,,US,+1 775-384-1080,,,Blue Rhino,Q65681213
305354,chevron,Chevron Station #305354,910 ROBB DRIVE,RENO,NV,,US,,,,Chevron,Q319642
nv_reno_5144-mae-anne-ave,chipotle, ,,Reno,NV,,US,+1 775-624-6203,https://locations.chipotle.com/nv/reno/5144-mae-anne-ave,,Chipotle,Q465751
30915,citi,ATM 7ELEVEN-FCTI,,Reno,NV,,US,,,,Citibank,Q857063
48339,citi,ATM CVS,,Reno,NV,,US,,,,Citibank,Q857063
,credit_union_us,Great Basin FCU,,Reno,NV,,US,+1 775-333-4228,,Mo-Fr 09:00-05:30,,
,credit_union_us,Greater Nevada CU,,Reno,NV,,US,+1 775-326-6760,,Mo-Fr 10:00-05:30,,
9841,cvs_us,CVS Pharmacy,,Reno,NV,,US,+1 775-746-5600,https://www.cvs.com/store-locator/reno-nv-pharmacies/1695-robb-dr-reno-nv-89523/storeid=9841,Mo-Sa 07:00-22:00; Su 08:00-22:00,CVS Pharmacy,Q2078880
7402,dominos_pizza_us,Domino's Pizza,,Reno,NV,,US,+1 775-746-2929,https://pizza.dominos.com/nevada/reno/1675-robb-dr,Mo-Th 10:30-24:00; Fr-Sa 10:30-01:00; Su 10:30-24:00,Domino's,Q839466
359630,dunkin_us,Dunkin',,Reno,NV,,US,+1 775-787-1732,https://locations.dunkindonuts.com/en/nv/reno/5260-w-7th-st/359630,Mo-Su 06:00-19:00,Dunkin',Q847743
https://www.edwardjones.com/us-en/financial-advisor/brian-gold,edwardjones,Brian Gold,,Reno,NV,,US,+1 775-747-3076,https://www.edwardjones.com/us-en/financial-advisor/brian-gold,Mo-Fr 08:30-16:30,Edward Jones,Q5343830
0299,european_wax_center_us,European Wax Center,,Reno,NV,,US,+1 775-746-0567,https://locations.waxcenter.com/nv/reno/reno-0299.html,Mo-Fr 08:30-20:00; Sa 08:30-18:00; Su 09:00-17:00,European Wax Center,Q5413426
7410,fresenius_kidney_care_us,Fresenius Kidney Care Northwest Reno,,Reno,NV,,US,+1 800-881-5101,https://www.freseniuskidneycare.com/dialysis-centers/nevada/7410,Mo 04:00-21:00; Tu 06:00-17:00; We 04:00-21:00; Th 06:00-17:00; Fr 04:00-21:00; Sa 06:00-17:00,,
2603,gamestop_us,Ridgeview Plaza,,Reno,NV,,US,+1 775-746-0830,https://www.gamestop.com/search/?store=2603,Mo-Th 11:00-20:00; Fr-Sa 11:00-21:00; Su 11:00-20:00,GameStop,Q202210
https://stores.gnc.com/#24058810,gnc,GNC Ridgeview Plaza,,,NV,,US,+1 775-624-6135,https://stores.gnc.com/all-stores-nevada/reno/5150-mae-anne-ave,Mo-Sa 10:00-19:00; Su 11:00-18:00,GNC,Q4808595
27799,h_r_block,H&R Block,,Reno,NV,,US,+1 775-284-4982,https://www.hrblock.com/local-tax-offices/nevada/reno/mcqueen-crossing/27799/,,H&R Block,Q5627799
https://office.jacksonhewitt.com/#27578763,jackson_hewitt,Jackson Hewitt,,Reno,NV,,US,+1 775-856-8328,https://office.jacksonhewitt.com/tax-preparation-services-locations/en/nv/reno/5260-west-7th-street/53254,Mo-Sa 11:00-19:00; Su 12:00-16:00,Jackson Hewitt,Q6117132
https://locations.jimmyjohns.com/nv/reno/sandwiches-595.html,jimmy_johns,Jimmy John's,,Reno,NV,,US,+1 775-787-5669,https://locations.jimmyjohns.com/nv/reno/sandwiches-595.html,,Jimmy John's,Q1689380
https://locations.kfc.com/#11248388,kfc,Chicken Nuggets Near Reno,,Reno,NV,,US,,https://locations.kfc.com/nv/reno/5175-mae-anne-ave/chickennugget,Mo-Su 10:30-22:00,KFC,Q524757
1172,kohls_us,Kohl's,,Reno,NV,,US,+1 775-787-8100,https://www.kohls.com/stores/nv/reno-1172.shtml,Mo-Sa 09:00-21:00; Su 09:00-20:00,Kohl's,Q967265
121384,little_free_library,Amy Nygren #121384 Reno NV #121384 Reno NV,,Reno,NV,,US,,,,Little Free Library,Q6650101
124953,little_free_library,Bee A Reader! #124953 Reno NV,,Reno,NV,,US,,,,Little Free Library,Q6650101
72591,little_free_library,Junior League Of Reno Library #72591 #72591 Reno NV,,Reno,NV,,US,,,,Little Free Library,Q6650101
30669,little_free_library,Stephanie Vega #30669 Reno NV,,Reno,NV,,US,,,,Little Free Library,Q6650101
16728,little_free_library,Little Kid Readers #16728 Reno NV,,Reno,NV,,US,,,,Little Free Library,Q6650101
86372,little_free_library,Dorothy Currie #86372 Mogul NV,,Mogul,NV,,US,,,,Little Free Library,Q6650101
23044,little_free_library,Rachel Ringenbach #23044 Reno NV,,Reno,NV,,US,,,,Little Free Library,Q6650101
156154,little_free_library,Little Free Library #156154 Reno NV,,Reno,NV,,US,,,,Little Free Library,Q6650101
286575,marathon_petroleum_us,ARCO #42360,,Reno,NV,,US,+1 775-747-4844,,,Arco,Q304769
https://locations.massageenvy.com/#1773985,massage_envy,Massage Envy NW Reno - Ridgeview Plaza,,Reno Reno,NV,,US,+1 775-825-3689,https://locations.massageenvy.com/nevada/reno/5110-maeanne-avenue.html,Mo 08:45-21:00; Tu 08:45-19:00; We 08:45-18:00; Th 08:45-20:00; Fr 08:45-19:00; Sa-Su 09:00-21:00,Massage Envy,Q10327170
1372,orangetheory_fitness,"Northwest Reno, NV",,Reno,NV,,US,+1 775-800-5515,,,Orangetheory Fitness,Q25005163
https://locations.oreillyauto.com/nv/reno/check-engine-light-testing-2864.html,oreilly,Your Reno O'Reilly Auto Parts Store,,Reno,NV,,US,+1 775-787-3634,https://locations.oreillyauto.com/nv/reno/check-engine-light-testing-2864.html,Mo-Sa 07:30-22:00; Su 08:00-21:00,O'Reilly Auto Parts,Q7071951
https://locations.oreillyauto.com/nv/reno/autopartes-2864.html,oreilly,Tu tienda O'Reilly Auto Parts en Reno,,Reno,NV,,US,+1 775-787-3634,https://locations.oreillyauto.com/nv/reno/autopartes-2864.html,Mo-Sa 07:30-22:00; Su 08:00-21:00,O'Reilly Auto Parts,Q7071951
https://locations.oreillyauto.com/nv/reno/wiper-installation-2864.html,oreilly,Your Reno O'Reilly Auto Parts Store,,Reno,NV,,US,+1 775-787-3634,https://locations.oreillyauto.com/nv/reno/wiper-installation-2864.html,Mo-Sa 07:30-22:00; Su 08:00-21:00,O'Reilly Auto Parts,Q7071951
https://locations.oreillyauto.com/nv/reno/battery-testing-2864.html,oreilly,Your Reno O'Reilly Auto Parts Store,,Reno,NV,,US,+1 775-787-3634,https://locations.oreillyauto.com/nv/reno/battery-testing-2864.html,Mo-Sa 07:30-22:00; Su 08:00-21:00,O'Reilly Auto Parts,Q7071951
113150,pandaexpress,Mae Anne Ave & N McCarran Blvd Reno,,Reno,NV,,US,+1 775-432-6622,https://www.pandaexpress.com/locations/nv/reno/5115-mae-anne-ave,Mo-We 09:00-22:00; Th-Fr 09:00-22:30; Sa 09:30-22:30; Su 09:30-22:00,Panda Express,Q1358690
home-depot-3311-7941,ppgpaints,HOME DEPOT 3311,,"Reno, ",NV,,US,+1 775-787-9690,https://www.ppgpaints.com/store-locator/us/nevada/reno-paint-stores/home-depot-3311-7941,,PPG Paints,Q83891559
470,pure_barre_us,North Reno,,Reno,NV,,US,+1 775-527-6484,https://www.purebarre.com/location/north-reno-nv,,Pure Barre,Q86707084
https://locations.qdoba.com/us/nv/reno/10310-n-mccarran-blvd.html,qdoba,QDOBA McCarran,,Reno,NV,,US,+1 775-824-0305,https://locations.qdoba.com/us/nv/reno/10310-n-mccarran-blvd.html,Mo-Su 08:00-22:00,Qdoba,Q1363885
81093,ritasitalianice,Rita’s of Reno NV,,Reno,NV,,US,+1 775-453-2973,https://www.ritasice.com/location/ritas-of-reno-nv/,,Rita's Italian Ice,Q7336456
855,ross_dress_for_less_us,West Reno,,Reno,NV,,US,+1 775-787-3500,,Mo-Th 09:00-21:30; Fr-Su 09:00-22:00,Ross Dress for Less,Q3442791
2494,round_table_pizza,Round Table Pizza 5150 Mae Ave,,Reno ,NV,,US,+1 775-747-6400,https://ordering.roundtablepizza.com/site/rt-reno-maeanne,,Round Table Pizza,Q7371139
https://local.pharmacy.safeway.com/#5673127,safeway,Safeway Pharmacy,,Reno,NV,,US,+1 775-746-9010,https://local.pharmacy.safeway.com/safeway/nv/reno/5150-mae-anne-ave.html,,Safeway,Q1508234
https://local.fuel.safeway.com/#9073578,safeway,Safeway Fuel Station,,Reno,NV,,US,+1 775-746-9014,https://local.fuel.safeway.com/safeway/nv/reno/5150f-mae-anne-ave.html,Mo-Su 05:00-23:00,Safeway,Q1508234
https://local.safeway.com/#5603962,safeway,Safeway,,Reno,NV,,US,+1 775-746-9000,https://local.safeway.com/safeway/nv/reno/5150-mae-anne-ave.html,,Safeway,Q1508234
https://locations.tacobell.com/#6143152,taco_bell,Taco Bell,,Reno,NV,,US,+1 775-747-2228,https://locations.tacobell.com/nv/reno/5165-mae-anne-avenue.html,Mo-Su 07:00-04:00,Taco Bell,Q752941
127,tmobile_us,Mae Anne & McCarran,,Reno,NV,,US,+1 775-787-5698,https://www.t-mobile.com/store-locator/nv/reno/mae-anne-mccarran,,T-Mobile,Q3511885
1377060,usps,PEAVINE,,RENO,NV,,US,+1 775-746-8235,,Mo-Fr 08:30-17:00; Sa 09:00-15:00,United States Postal Service,Q668687
8952300002,usps_collection_boxes,USPS COLLECTION BOX - BLUE BOX,2005 SIERRA HIGHLANDS DR,RENO,NV,,US,,,,United States Postal Service,Q668687
8952300001,usps_collection_boxes,USPS COLLECTION BOX - BLUE BOX,5150 MAE ANNE AVE,RENO,NV,,US,,,,United States Postal Service,Q668687
8952300011,usps_collection_boxes,USPS COLLECTION BOX - EXPRESS,1580 GRAND POINT WAY,RENO,NV,,US,,,,United States Postal Service,Q668687
8952300007,usps_collection_boxes,USPS COLLECTION BOX - BLUE BOX,1580 GRAND POINT WAY,RENO,NV,,US,,,,United States Postal Service,Q668687
8952300010,usps_collection_boxes,USPS COLLECTION BOX - BLUE BOX,1580 GRAND POINT WAY,RENO,NV,,US,,,,United States Postal Service,Q668687
8952300009,usps_collection_boxes,USPS COLLECTION BOX - PO LOBBY,1580 GRAND POINT WAY,RENO,NV,,US,,,,United States Postal Service,Q668687
8952300016,usps_collection_boxes,USPS COLLECTION BOX - BLUE BOX,1580 GRAND POINT WAY,RENO,NV,,US,,,,United States Postal Service,Q668687
8952300020,usps_collection_boxes,USPS COLLECTION BOX - PO LOBBY,1580 GRAND POINT WAY,RENO,NV,,US,,,,United States Postal Service,Q668687
8952300012,usps_collection_boxes,USPS COLLECTION BOX - BLUE BOX,0 GARSON RD,RENO,NV,,US,,,,United States Postal Service,Q668687
8952300015,usps_collection_boxes,USPS COLLECTION BOX - BLUE BOX,120 WOODLAND AVE,RENO,NV,,US,,,,United States Postal Service,Q668687
https://vcahospitals.com/lakeside-nv,vca,VCA Lakeside Animal Hospital,,Reno,NV,,US,+1 775-827-8866,https://vcahospitals.com/lakeside-nv,Mo-Fr 08:00-18:00,VCA,Q7906620
,visa,,,RENO,NV,,US,,,,,
,visa,,,RENO,NV,,US,,,,,
,visa,,,RENO,NV,,US,,,,,
,visa,,,RENO,NV,,US,,,,,
,visa,,,RENO,NV,,US,,,,,
,visa,,,RENO,NV,,US,,,,,
,visa,,,RENO,NV,,US,,,,,
,visa,,,RENO,NV,,US,,,,,
,visa,,,RENO,NV,,US,,,,,
,visa,,,RENO,NV,,US,,,,,
,visa,,,RENO,NV,,US,,,,,
,visa,,,RENO,NV,,US,,,,,
,visa,,,RENO,NV,,US,,,,,
,visa,,,RENO,NV,,US,,,,,
,visa,,,RENO,NV,,US,,,,,
,visa,,,RENO,NV,,US,,,,,
,visa,,,RENO,NV,,US,,,,,
,visa,,,RENO,NV,,US,,,,,
,visa,,,RENO,NV,,US,,,,,
,visa,,,RENO,NV,,US,,,,,
,visa,,,RENO,NV,,US,,,,,
,visa,,,RENO,NV,,US,,,,,
,visa,,,RENO,NV,,US,,,,,
,visa,,,RENO,NV,,US,,,,,
5125__MAE__ANNE__AVE_RENO_NV_89523,wellsfargo,Wells Fargo,5125 MAE ANNE AVE,RENO,NV,,US,+1 775-829-5808,https://www.wellsfargo.com/locator/bank/5125__MAE__ANNE__AVE_RENO_NV_89523/,Mo-Fr 09:00-17:00,Wells Fargo,Q744149
1650__ROBB__DR__STE__B3_RENO_NV_89523,wellsfargo,Wells Fargo,1650 ROBB DR STE B3,RENO,NV,,US,+1 775-470-7070,https://www.wellsfargo.com/locator/bank/1650__ROBB__DR__STE__B3_RENO_NV_89523/,Mo-Fr 09:00-17:00,Wells Fargo,Q744149
bca41522d680ce82d68f53cadb8664fe,western_union,WALMART #003254,,Reno,NV,,US,+1 775-624-2000,https://location.westernunion.com/us/nv/reno/bca41522d680ce82d68f53cadb8664fe,Mo-Su 07:00-21:00,Western Union,Q861042
9247,wingstop,Wingstop Reno Mae Anne Ave,5100 Mae Anne Ave Ste 4,Reno,NV,,US,+1 775-746-9464,,,Wingstop,Q8025339
