Ref,Spider,Name,Address,City,State,Zipcode,Country,Phone,Website,Hours,Brand,WikiData
IN-1043,anytime_fitness,Anytime Fitness,,New Delhi,Delhi,,IN,+91 96411 11188,https://anytimefitness.co.in/gyms/in-1043/new-delhi-delhi-110001/,,Anytime Fitness,Q4778364
7167375,chaayos_in,Chaayos - Connaught Place F Block,"F-14/15, Mezzanine F1, CONNAUGHT PLACE, Rajiv Chowk, Block F, Connaught Place, New Delhi, Delhi 110001, India",New Delhi,Delhi,,IN,,,,Chaayos,Q117235235
7167348,chaayos_in,Chaayos - Connaught Place M Block,"Connaught place 2 -M block Plot no 3, First Floor, M66, Block M, Connaught Place, New Delhi, Delhi 110001, India",New Delhi,Delhi,,IN,,,,Chaayos,Q117235235
https://www.dominos.co.in/store-locations/new-delhi/connaught-place,dominos_pizza_in,Dominos Pizza CONNAUGHT PLACE,"GROUND &amp; MEZZANINE FLOOR, SHOP NO. M- 40, PROPERTY NO. 40, PLOT NO. 4, C.P., NEW DELHI, Delhi - 110001",New Delhi,Delhi,,IN,+91 22 2632 6699,https://www.dominos.co.in/store-locations/new-delhi/connaught-place,,Domino's Pizza,Q839466
092c25cd-de50-4021-8744-e4d5ae304fb3,nike,Nike Counnaught Place,,Delhi,Delhi,,IN,+91 1800 344 6453,https://www.nike.com/retail/s/nike-cp,Mo-Su 10:00-21:30,Nike,Q483915
65a91962df7b524c1ec0124c681a6ea9,western_union,BONAIR MONEY SERVICES,,Delhi,DELHI,,IN,(+91) 297-222646,https://location.westernunion.com/in/delhi/delhi/65a91962df7b524c1ec0124c681a6ea9,Mo-Su 09:00-20:00,Western Union,Q861042
5c46b39ce9269e65329b1dec4cbaa2c2,western_union,HAPPY TRAVELS,,Delhi,DELHI,,IN,+91 98100 55715,https://location.westernunion.com/in/delhi/delhi/5c46b39ce9269e65329b1dec4cbaa2c2,Mo-Su 08:00-20:00,Western Union,Q861042
c7a74bf8b588a9c74f3e95cba1c8bf7e,western_union,A K JAIN COMPANY,,Delhi,DELHI,,IN,(+91) 11-9855031194,https://location.westernunion.com/in/delhi/delhi/c7a74bf8b588a9c74f3e95cba1c8bf7e,Mo-Su 09:00-20:00,Western Union,Q861042
441da8c8d3f2825b7de4ef826fec4ce4,western_union,BIZMAX INDIA,,Central Delhi,DELHI,,IN,+91 95556 33300,https://location.westernunion.com/in/delhi/central-delhi/441da8c8d3f2825b7de4ef826fec4ce4,Mo-Su 08:00-20:00,Western Union,Q861042
c64f9968a114892edeb58792eab9fb9d,western_union,MUTHOOT FINANCE LTD,,Delhi Connaught Place,DELHI,,IN,+91 11 4372 0281,https://location.westernunion.com/in/delhi/delhi-connaught-place/c64f9968a114892edeb58792eab9fb9d,Mo-Sa 09:00-17:30,Western Union,Q861042
b12a119e2aa16f384ffaca660b763cb8,western_union,CAPITAL INDIA FINANCE LTD DELHI CP,,New Delhi,DELHI,,IN,+91 11 4951 6000,https://location.westernunion.com/in/delhi/new-delhi/b12a119e2aa16f384ffaca660b763cb8,Mo-Su 09:00-19:00,Western Union,Q861042
254af2e6a48b037b81f4511d8128193c,western_union,ROBIN INTERNATIONAL LIMITED,,Delhi,DELHI,,IN,(+91) 873-228744,https://location.westernunion.com/in/delhi/delhi/254af2e6a48b037b81f4511d8128193c,Mo-Su 09:00-20:00,Western Union,Q861042
b6da56dc9594b942f78bf7de0b3d1224,western_union,LAKHWARA ENTERPRISES,,Delhi,DELHI,,IN,+91 11 4354 2882,https://location.westernunion.com/in/delhi/delhi/b6da56dc9594b942f78bf7de0b3d1224,Mo-Su 08:00-22:00,Western Union,Q861042
d70f1f196226594a0890b7c68025ada2,western_union,MALHOTRA TRAVELS,,Delhi,DELHI,,IN,+91 79 3052 3707,https://location.westernunion.com/in/delhi/delhi/d70f1f196226594a0890b7c68025ada2,Mo-Su 09:00-20:00,Western Union,Q861042
ac01355c0eaf1d83d7d6126a0dfbab66,western_union,GUPTA TRAVELS,,Central Delhi,DELHI,,IN,+91 98100 45307,https://location.westernunion.com/in/delhi/central-delhi/ac01355c0eaf1d83d7d6126a0dfbab66,Mo-Su 09:00-22:00,Western Union,Q861042
4a312a1f6eab4563cb067e70debbc836,western_union,MAHARANI FOREX PRIVATE LIMITED,,Delhi,DELHI,,IN,+91 98109 61616,https://location.westernunion.com/in/delhi/delhi/4a312a1f6eab4563cb067e70debbc836,Mo-Su 09:00-21:00,Western Union,Q861042
0a1cb5f487147a925b80fa7a602d60b4,western_union,FLYFOX FOREX PRIVATE LIMITED,,New Delhi,DELHI,,IN,+91 96542 48936,https://location.westernunion.com/in/delhi/new-delhi/0a1cb5f487147a925b80fa7a602d60b4,Mo-Su 08:00-20:00,Western Union,Q861042
83ca371171d93ea38fbd343c99ba04ce,western_union,S P SECURITIES LTD,,Delhi,DELHI,,IN,+91 11 2341 5600,https://location.westernunion.com/in/delhi/delhi/83ca371171d93ea38fbd343c99ba04ce,Mo-Su 09:30-20:30,Western Union,Q861042
7451ce1876105cfa8c6ebb246636ad85,western_union,BAKSHI & CO.,,New Delhi,DELHI,,IN,+91 78380 29453,https://location.westernunion.com/in/delhi/new-delhi/7451ce1876105cfa8c6ebb246636ad85,Mo-Su 08:00-21:00,Western Union,Q861042
fe1f0fa34ec3e142c6f63f971b880de0,western_union,UNIK TRAVELS,,Delhi,DELHI,,IN,(+91) 881-263239,https://location.westernunion.com/in/delhi/delhi/fe1f0fa34ec3e142c6f63f971b880de0,Mo-Su 09:00-20:00,Western Union,Q861042
ea51b3bda4f82cd92a9f998c7f55e59e,western_union,FAIR FOREX DEALERS PVT LTD.,,Delhi,DELHI,,IN,+91 11 5152 1261,https://location.westernunion.com/in/delhi/delhi/ea51b3bda4f82cd92a9f998c7f55e59e,Mo-Su 09:00-21:00,Western Union,Q861042
fbdedc69872d186b5432421d660979cb,western_union,PANKHURI FOREX,,Delhi,DELHI,,IN,+91 98710 85249,https://location.westernunion.com/in/delhi/delhi/fbdedc69872d186b5432421d660979cb,Mo-Su 09:00-20:00,Western Union,Q861042
8b5982eafb2d0028fcca80cf92766cf7,western_union,SUPREME SECURITIES LTD,,Delhi,DELHI,,IN,+91 11 4152 1100,https://location.westernunion.com/in/delhi/delhi/8b5982eafb2d0028fcca80cf92766cf7,Mo-Su 09:30-18:30,Western Union,Q861042
