Ref,Spider,Name,Address,City,State,Zipcode,Country,Phone,Website,Hours,Brand,WikiData
https://stores.advanceautoparts.com/md/capitol-heights/8900-walker-mill-rd,advance_auto_parts_us,Advance Auto Parts,,Capitol Heights,MD,,US,+1 240-767-4650,https://stores.advanceautoparts.com/md/capitol-heights/8900-walker-mill-rd,Mo-Sa 07:30-21:00; Su 09:00-20:00,Advance Auto Parts,Q4686051
https://stores.aldi.us/#29174651,aldi_sud_us,ALDI  1741 Ritchie Station Ct,,Capitol Heights,MD,,US,+1 833-471-7057,https://stores.aldi.us/md/capitol-heights/1741-ritchie-station-ct,"Mo-Su 08:30-20:30,09:00-20:30",ALDI,Q41171672
https://stores.ashleyfurniture.com/store/us/maryland/capitol-heights/7710000156/,ashley_furniture,"Ashley Store Capitol Heights, MD",,Capitol Heights,MD,,US,+1 240-455-0748,https://stores.ashleyfurniture.com/store/us/maryland/capitol-heights/7710000156/,,Ashley Furniture,Q4805437
5257,autozone_us,AutoZone Auto Parts Seat Pleasant,,Seat Pleasant,MD,,US,+1 301-883-0186,https://www.autozone.com/locations/md/seat-pleasant/6001-martin-luther-king-jr-hwy.html,Mo-Sa 07:30-21:00; Su 08:00-20:00,AutoZone,Q4826087
1043,autozone_us,AutoZone Auto Parts Capitol Heights,,Capitol Heights,MD,,US,+1 301-420-4193,https://www.autozone.com/locations/md/capitol-heights/4829-marlboro-pike.html,Mo-Sa 07:30-21:00; Su 09:00-20:00,AutoZone,Q4826087
https://locators.bankofamerica.com/md/seatpleasant/atm-seat-pleasant-9596.html,bankofamerica,Bank of America Drive-Thru ATM | Seat Pleasant,,Seat Pleasant,MD,,US,+1 844-401-8500,https://locators.bankofamerica.com/md/seatpleasant/atm-seat-pleasant-9596.html,,Bank of America,Q487907
https://locations.baskinrobbins.com/md/capitol-heights/8909-central-ave-358833-br,baskin_robbins_us,Baskin-Robbins™,,Capitol Heights,MD,,US,+1 301-324-3078,https://locations.baskinrobbins.com/md/capitol-heights/8909-central-ave-358833-br,Mo-Sa 04:00-22:00; Su 05:00-22:00,Baskin-Robbins,Q584601
https://local.biglots.com/#13190011,biglots,Big Lots - Capitol Heights,,Capitol Heights,MD,,US,+1 301-499-1509,https://local.biglots.com/md/capitol-heights/1731-ritchie-station-ct,Mo-Sa 09:00-21:00; Su 10:00-19:00,Big Lots,Q4905973
0207,bjswholesale,Capitol Heights,,Capitol Heights,MD,,US,+1 301-278-4050,https://www.bjs.com/mapDetail;city=0207,Mo-Sa 08:00-22:00,BJ's Wholesale,Q4835754
229193,bluerhino,A&M Warraich - Shell,,Capital Heights,MD,,US,+1 443-629-5427,,,Blue Rhino,Q65681213
207617,bluerhino,"Wheeler's Ace Hardware, Home & Bikes #17795",,Capitol Heights,MD,,US,+1 301-390-2882,,,Blue Rhino,Q65681213
58586721928012074300100000000000,bp,BP,,Capitol Heights,MD,,US,+1 301-350-3426,,24/7,BP,Q152057
06637519108182074300100000000000,bp,BP,,Seat Pleasant,MD,,US,+1 301-925-4751,,24/7,BP,Q152057
83305001359092074300100000961334,bp,BP,,Capitol Heights,MD,,US,+1 301-735-2091,,24/7,BP,Q152057
715,buffalo_wild_wings_us,"Capitol Heights, MD",,Capitol Heights,MD,,US,+1 301-324-4870,https://www.buffalowildwings.com/locations/us/md/capitol-heights/1630-ritchie-station-ct/sports-bar-1538,Mo-Su 11:00-24:00,Buffalo Wild Wings,Q509255
md_capitol-heights_9141-alaking-ct,chipotle, ,,Capitol Heights,MD,,US,+1 240-765-6553,https://locations.chipotle.com/md/capitol-heights/9141-alaking-ct,,Chipotle,Q465751
1506,cvs_us,CVS Pharmacy,,Seat Pleasant,MD,,US,+1 301-350-8008,https://www.cvs.com/store-locator/seat-pleasant-md-pharmacies/6200-central-avenue-seat-pleasant-md-20743/storeid=1506,Mo-Su 08:00-21:00,CVS Pharmacy,Q2078880
3789,cvs_us,CVS Pharmacy,,Capitol Heights,MD,,US,+1 301-669-0465,https://www.cvs.com/store-locator/capitol-heights-md-pharmacies/4840-marlboro-pike-capitol-heights-md-20743/storeid=3789,Mo-Sa 08:00-21:00; Su 09:00-21:00,CVS Pharmacy,Q2078880
9184,dollartree,DollarTree,,Seat Pleasant,MD,,US,+1 240-392-1950,,Mo-Sa 08:00-21:00; Su 09:00-20:00,Dollar Tree,Q5289230
6017,dominos_pizza_us,Domino's Pizza,,Capitol Heights,MD,,US,+1 301-333-5900,https://pizza.dominos.com/maryland/capitol-heights/6254-central-ave,Mo-Th 10:00-24:00; Fr-Sa 10:00-01:00; Su 10:00-24:00,Domino's,Q839466
Ritchie Station Marketplace,dsw,DSW,,Capitol Heights,MD,,US,+1 240-716-7103,https://stores.dsw.com/usa/md/capitolheights/dsw-designer-shoe-warehouse-ritchie-station-marketplace.html,Mo-Sa 10:00-20:00; Su 12:00-18:00,Designer Shoe Warehouse,Q5206207
358833,dunkin_us,Dunkin',,Capitol Heights,MD,,US,+1 301-324-3078,https://locations.dunkindonuts.com/en/md/capitol-heights/8909-central-ave/358833,Mo-Sa 04:00-22:00; Su 05:00-22:00,Dunkin',Q847743
349766,dunkin_us,Dunkin',,Capitol Heights,MD,,US,+1 301-456-1559,https://locations.dunkindonuts.com/en/md/capitol-heights/6412-central-ave/349766,Mo-Fr 05:00-20:00; Sa-Su 06:00-20:00,Dunkin',Q847743
E1163K,enterprise,Capitol Heights Hampton Mall Dr.,,Capitol Heights,MD,,US,+1 301-324-0900,,,Enterprise Rent-A-Car,Q17085454
E11640,enterprise,Capitol Heights Central Ave.,,Capitol Heights,MD,,US,+1 301-336-4200,,,Enterprise Rent-A-Car,Q17085454
1000000074,extra_space_storage,Capitol Heights Self Storage at 1423 Eastern Ave NE,,Capitol Heights,MD,,US,+1 240-770-6592,https://www.extraspace.com/storage/facilities/us/maryland/capitol_heights/1000000074/,Mo-Fr 09:30-18:00; Sa 09:00-17:30; Su 10:00-14:00,Extra Space Storage,Q5422162
900316,extra_space_storage,Capitol Heights Self Storage at 6300 Walker Mill Rd,,Capitol Heights,MD,,US,+1 301-736-3770,https://www.extraspace.com/storage/facilities/us/maryland/capitol_heights/900316/,Mo-Fr 09:30-18:00; Sa 09:00-17:30,Extra Space Storage,Q5422162
200312575,exxonmobil,HAMPTON SERVICES EXXON,,CAPITOL HEIGHTS,MD,,US,+1 301-336-3773,https://www.exxon.com/en/find-station/exxon-capitolheights-md-hamptonservicesexxon-200312575,24/7,Exxon,Q109675651
https://restaurants.fiveguys.com/#15553332,five_guys_us,Five Guys Steeplechase,,Capitol Heights,MD,,US,+1 240-532-6543,https://restaurants.fiveguys.com/9101-alaking-court,"Mo-Su 11:00-21:30,11:00-22:00",Five Guys,Q1131810
535414,follett,Massasoit Community College,,Capital Heights,MD,,US,+1 800-381-5151,https://www.bkstr.com/massasoitstore/home,Mo-Fr 07:00-18:00,,
410405,follett,Purchase College Campus Store,,Capitol Heights,MD,,US,+1 800-381-5151,https://www.bkstr.com/purchasecollegestore/home,Mo-Fr 07:00-18:00,,
511424,follett,The Governors Academy Virtual Store,,Capitol Heights,MD,,US,+1 800-381-5151,https://www.bkstr.com/governorsacademystore/home,Mo-Fr 07:00-18:00,,
517906,follett,Lexington Christian Academy Virtual Store,,Capitol Heights,MD,,US,+1 800-381-5151,https://www.bkstr.com/lexingtonchristianstore/home,Mo-Fr 07:00-18:00,,
508907,follett,Tower Hill School,,Capitol Heights,MD,,US,+1 800-381-5151,https://www.bkstr.com/towerhillstore/home,Mo-Fr 07:00-18:00,,
509414,follett,Bishop Eustace Preparatory School Virtual Store,,Capitol Heights,MD,,US,+1 800-381-5151,https://www.bkstr.com/bishopeustaceprepstore/home,Mo-Fr 07:00-18:00,,
508906,follett,Wilmington Friends School Virtual Bookstore,,Capitol Heights,MD,,US,+1 800-381-5151,https://www.bkstr.com/wilmingtonfriendsstore/home,Mo-Fr 07:00-18:00,,
511406,follett,The Derryfield School Virtual Store,,Capitol Heights,MD,,US,+1 800-381-5151,https://www.bkstr.com/derryfieldstore/home,Mo-Fr 07:00-18:00,,
508913,follett,Brooks School,,Capitol Heights,MD,,US,+1 800-381-5151,https://www.bkstr.com/brooksschoolstore/home,Mo-Fr 07:00-18:00,,
520407,follett,Albert Einstein College of Medicine Virtual Store,,Capitol Heights,MD,,US,+1 800-381-5151,https://www.bkstr.com/einsteinmedstore/home,Mo-Fr 07:00-18:00,,
510417,follett,Winsor School Virtual Store,,Capitol Heights,MD,,US,+1 800-381-5151,https://www.bkstr.com/winsorstore/home,Mo-Fr 07:00-18:00,,
478910,follett,Maine College of Health Professions Virtual Store,,Capitol Heights,MD,,US,+1 800-381-5151,https://www.bkstr.com/mchpstore/home,Mo-Fr 07:00-18:00,,
509410,follett,Bishop Guertin High School Virtual Store,,Capitol Heights,MD,,US,+1 800-381-5151,https://www.bkstr.com/bishopguertinstore/home,,,
474411,follett,Capitol Technology University Virtual Bookstore,,Capitol Heights,MD,,US,+1 800-381-5151,https://www.bkstr.com/capitoltechstore/home,Mo-Fr 07:00-18:00,,
515914,follett,Rutgers Preparatory School Virtual Store,,Capitol Heights,MD,,US,+1 800-381-5151,https://www.bkstr.com/rutgerspreparatorystore/home,Mo-Fr 07:00-18:00,,
511421,follett,Pingree School Virtual Bookstore,,Capitol Heights,MD,,US,+1 800-381-5151,https://www.bkstr.com/pingreestore/home,Mo-Fr 07:00-18:00,,
514912,follett,Canterbury School Virtual Store,,Capitol Heights,MD,,US,+1 800-381-5151,https://www.bkstr.com/canterburyschoolstore/home,,,
37405,follett,Worcester Preparatory School,,Capitol Heights,MD,,US,+1 800-381-5151,https://www.bkstr.com/worcesterpreparatorystore/home,Mo-Fr 07:00-18:00,,
509415,follett,Academy of Our Lady of Mercy LH Virtual Store,,Capitol Heights,MD,,US,+1 800-381-5151,https://www.bkstr.com/lauraltonhallstore/home,Mo-Fr 07:00-18:00,,
508914,follett,Noble & Greenough School,,Capitol Heights,MD,,US,+1 800-381-5151,https://www.bkstr.com/noblesstore/home,Mo-Fr 07:00-18:00,,
514919,follett,Roanoke - Chowan Community College Virtual Store,,Capitol Heights,MD,,US,+1 800-381-5151,https://www.bkstr.com/rcccstore/home,Mo-Fr 07:00-18:00,,
493405,follett,Mitchell College Online Bookstore,,Capitol Heights,MD,,US,+1 800-381-5151,https://www.bkstr.com/mitchellcollegestore/home,Mo-Fr 07:00-21:00; Sa 08:00-17:00,,
516407,follett,SUNY Sullivan County Community College Virtual Store,,Capitol Heights,MD,,US,+1 800-381-5151,https://www.bkstr.com/sullivancountyccstore/home,Mo-Fr 07:00-18:00,,
518905,follett,Centenary University Virtual Store,,Capitol Heights,MD,,US,+1 800-381-5151,https://www.bkstr.com/centenarystore/home,Mo-Fr 07:00-18:00,,
518405,follett,Camden Catholic School Virtual Bookstore,,Capitol Heights,MD,,US,+1 800-381-5151,https://www.bkstr.com/camdencatholicstore/home,Mo-Fr 07:00-18:00,,
512908,follett,Kingswood Oxford Virtual Store,,Capitol Heights,MD,,US,+1 800-381-5151,https://www.bkstr.com/kingswoodoxfordstore/home,Mo-Fr 07:00-18:00,,
511408,follett,Newark Academy Virtual Bookstore,,Capitol Heights,MD,,US,+1 800-381-5151,https://www.bkstr.com/newarkacademystore/home,Mo-Fr 07:00-18:00,,
470405,follett,Five Towns College Virtual Bookstore,,Capitol Heights,MD,,US,+1 800-381-5151,https://www.bkstr.com/fivetownsstore/home,Mo-Fr 07:00-18:00,,
516906,follett,Norfolk Collegiate School Virtual Store,,Capitol Heights,MD,,US,+1 800-381-5151,https://www.bkstr.com/norfolkcollegiatestore/home,,,
509406,follett,The Madeira School Virtual Bookstore,,Capitol Heights,MD,,US,+1 800-381-5151,https://www.bkstr.com/madeirastore/home,Mo-Fr 07:00-18:00,,
509409,follett,Bishop Stang High School Virtual Bookstore,,Capitol Heights,MD,,US,+1 800-381-5151,https://www.bkstr.com/bishopstanghsstore/home,Mo-Fr 07:00-18:00,,
509418,follett,Padua Academy Virtual Store,,Capitol Heights,MD,,US,+1 800-381-5151,https://www.bkstr.com/paduastore/home,Mo-Fr 07:00-18:00,,
499908,follett,Molloy University Virtual Store,,Capitol Heights,MD,,US,+1 800-381-5151,https://www.bkstr.com/molloystore/home,Mo-Fr 07:00-18:00,,
520408,follett,Northeast College of Health Sciences Virtual Store,,Capitol Heights,MD,,US,+1 800-381-5151,https://www.bkstr.com/northeastcollegestore/home,,,
515918,follett,The Shipley School Virtual Store,,Capitol Heights,MD,,US,+1 800-381-5151,https://www.bkstr.com/shipleyschoolstore/home,Mo-Fr 07:00-18:00,,
284405,follett,Saint Peter's University Bookstore,,Capitol Heights,MD,,US,+1 800-381-5151,https://www.bkstr.com/saintpetersstore/home,Mo-Tu 09:00-17:00,,
10649,follett,St. Thomas Aquinas College Bookstore,,Capitol Heights,MD,,US,+1 800-381-5151,https://www.bkstr.com/stthomasaquinasstore/home,,,
530905,follett,Pierpont Community and Technical College Virtual Store,,Capital Heights,MD,,US,+1 800-381-5151,https://www.bkstr.com/pierpontstore/home,Mo-Fr 07:00-18:00,,
511405,follett,Sandy Spring Friends School Virtual Store,,Capitol Heights,MD,,US,+1 800-381-5151,https://www.bkstr.com/sandyspringfriendsstore/home,Mo-Fr 07:00-18:00,,
518409,follett,Saint Bernard School Virtual Store,,Capitol Heights,MD,,US,+1 800-381-5151,https://www.bkstr.com/saintbernardstore/home,Mo-Fr 07:00-18:00,,
404905,follett,Davis And Elkins College Virtual Store,,Capital Heights,MD,,US,+1 801-499-3037,https://www.bkstr.com/decstore/home,Mo-Fr 10:00-14:00,,
509405,follett,The Rivers School Virtual Bookstore,,Capitol Heights,MD,,US,+1 800-381-5151,https://www.bkstr.com/riversstore/home,Mo-Fr 07:00-18:00,,
521905,follett,The Masters School,,Capitol Heights,MD,,US,+1 800-381-5151,https://www.bkstr.com/themastersschoolstore/home,Mo-Fr 07:00-18:00,,
520906,follett,Bishop Ireton High School Virtual Store,,Capitol Heights,MD,,US,+1 800-381-5151,https://www.bkstr.com/bishopiretonhsstore/home,,,
433405,follett,Dominican University New York Virtual Store,,Capital Heights,MD,,US,+1 800-381-5151,https://www.bkstr.com/dominicanunivstore/home,Mo-Fr 07:00-18:00,,
Motorcraft2643USAEnglish,ford,"Capitol Fleet Service, LLC",,Maryland,MD,,US,+1 301-455-1800,,,Ford,Q44294
100486,fresenius_kidney_care_us,Fresenius Kidney Care Fairmount Heights,,Capitol Heights,MD,,US,+1 800-881-5101,https://www.freseniuskidneycare.com/dialysis-centers/maryland/100486,Mo-Sa 05:00-18:00,,
https://www.goldsgym.com/largo-cap-centre/,goldsgym,Gold's Gym Capitol Heights,,Capitol Heights,MD,,US,+1 301-333-4653,https://www.goldsgym.com/largo-cap-centre/,24/7,Gold's Gym,Q1536234
https://www.goodyearautoservice.com/en_US/location/Capitol-Heights-MD-20743-US-000900262,goodyear_us,"Goodyear Auto Service - Capitol Heights, Capitol Heights, MD | Oil, Brakes & Repairs | #000900262",,Capitol Heights,MD,,US,+1 301-336-3330,https://www.goodyearautoservice.com/en_US/location/Capitol-Heights-MD-20743-US-000900262,Mo-Sa 08:00-18:00,Goodyear,Q620875
19288,h_r_block,H&R Block,,Capitol Heights,MD,,US,+1 301-350-1766,https://www.hrblock.com/local-tax-offices/maryland/capitol-heights/addison-plaza/19288/,,H&R Block,Q5627799
md_capitol-heights_breakfast-9003-central-ave-2020,ihop,IHOP Breakfast Restaurants Near You at 9003 Central Ave,,Capitol Heights,MD,,US,+1 301-324-9003,https://restaurants.ihop.com/en-us/md/capitol-heights/breakfast-9003-central-ave-2020,,IHOP,Q1185675
wmata-addison-road-reserved-parking,indigo,WMATA - Addison Road - Reserved Parking,,Capitol Heights,MD,,US,+1 202-667-3030,,,Indigo,Q3559970
https://locations.kfc.com/#11247599,kfc,Chicken Nuggets Near Capitol Heights,,Capitol Heights,MD,,US,,https://locations.kfc.com/md/capitol-heights/8251-central-ave/chickennugget,Mo-Su 10:30-23:00,KFC,Q524757
WASRH,marriott,Residence Inn Upper Marlboro Joint Base Andrews,,Capitol Heights,MD,,US,+1 301-333-0050,https://www.marriott.com/WASRH,,Residence Inn by Marriott,Q7315394
74354054,moneygram,SHOPPERS FOOD AND PHARMACY - #2278 - COR,,CAPITOL HEIGHTS,MD,,US,+1 301-276-3254,,Mo-Su 09:00-19:00,MoneyGram,Q1944412
https://locations.mtb.com/#25082425,mt_bank_us,,,,MD,,US,+1 800-724-2440,https://locations.mtb.com/md/capitolheights/bank-branches-and-atms-capitol-heights-md-pm2222.html,24/7,M&T Bank,Q3272257
111976,pandaexpress,Central & Hampton,,Capitol Heights,MD,,US,+1 301-333-1791,https://www.pandaexpress.com/locations/md/capitol-heights/8800-n-hampton-mall-drive,Mo-Sa 10:00-22:00; Su 10:30-21:30,Panda Express,Q1358690
113056,pandaexpress,Ritchie Station Court & Chesapeake Beach Rail Way,,Capitol Heights,MD,,US,+1 301-808-0278,https://www.pandaexpress.com/locations/md/capitol-heights/1620-ritchie-station-ct,Mo-Sa 10:00-22:30; Su 10:30-21:30,Panda Express,Q1358690
https://locations.papajohns.com/#10691145,papa_johns,Papa John's,,Capital Heights,MD,,US,+1 301-324-7900,https://locations.papajohns.com/united-states/md/20743/capital-heights/1460-addison-road-south,Mo-Th 10:30-23:00; Fr-Sa 10:30-24:00; Su 10:30-23:00,Papa John's Pizza,Q2759586
042810,penske,Penske Landover,,CAPITOL HEIGHTS,MD,,US,+1 301-333-9334,https://www.pensketruckrental.com/locations/us/maryland/capitol_heights/042810/,,Penske,Q81234570
restaurant_81994,popeyes_us_fr,Popeyes,"6214 Central Ave Seat Pleasant, Maryland 20743 - USA",Seat Pleasant,MD,,US,+1 301-350-4004,https://www.popeyes.com/store-locator/store/restaurant_81994,Mo-Th 10:00-23:00; Fr-Sa 10:00-00:00; Su 10:00-23:00,Popeyes,Q1330910
restaurant_85211,popeyes_us_fr,Popeyes,"1701 Ritchie Station Court Capitol Heights, Maryland 20743 - USA",Capitol Heights,MD,,US,+1 240-830-2339,https://www.popeyes.com/store-locator/store/restaurant_85211,Mo-Su 10:00-21:00,Popeyes,Q1330910
trippe-supply-dib-1578-37643,ppgpaints,TRIPPE SUPPLY DIB 1578,,"Capitol Heights, ",MD,,US,+1 301-350-6550,https://www.ppgpaints.com/store-locator/us/maryland/capitol-heights-paint-stores/trippe-supply-dib-1578-37643,,PPG Paints,Q83891559
home-depot-2555-12981,ppgpaints,HOME DEPOT 2555,,"Capitol Heights, ",MD,,US,+1 301-324-0180,https://www.ppgpaints.com/store-locator/us/maryland/capitol-heights-paint-stores/home-depot-2555-12981,,PPG Paints,Q83891559
https://www.publicstorage.com/self-storage-md-capitol-heights/5511.html,public_storage_us,Public Storage,,Capitol Heights,MD,,US,+1 301-755-9698,https://www.publicstorage.com/self-storage-md-capitol-heights/5511.html,,Public Storage,Q1156045
https://www.publicstorage.com/self-storage-md-capitol-heights/1352.html,public_storage_us,Public Storage,,Capitol Heights,MD,,US,+1 301-965-0491,https://www.publicstorage.com/self-storage-md-capitol-heights/1352.html,,Public Storage,Q1156045
38540,seven_eleven_ca_us,7-11 Str   6620 Walker Mill Rd,,Capitol Heights,MD,,US,+1 240-521-8280,,,7-Eleven,Q259340
37128,seven_eleven_ca_us,7-11 Str   4857 Marlboro Pike,,Capitol Heights,MD,,US,+1 301-735-0431,https://www.7-eleven.com/locations/md/capitol-heights/4857-marlboro-pike-37128,,7-Eleven,Q259340
3514,shellrecharge,Pepco - Fairmount Heights,,Capitol Heights,MD,,US,,,,Shell Recharge,Q105883058
3107,shellrecharge,Pepco - Capitol Heights Municipal Parking,,Capitol Heights,MD,,US,,,,Shell Recharge,Q105883058
4006,shellrecharge,Pepco - Oakcrest Community Center,,Capital Heights,MD,,US,,,,Shell Recharge,Q105883058
3621,shellrecharge,Pepco - Seat Pleasant Town Hall,,Capitol Heights,MD,,US,,,,Shell Recharge,Q105883058
https://restaurants.subway.com/#14910049,subway,Subway Addison Plaza,,Seat Pleasant Prince Georges,MD,,US,+1 301-499-7289,https://restaurants.subway.com/united-states/md/seat-pleasant/6262-central-ave,Mo-We 09:00-22:00; Th-Fr 09:00-22:30; Sa 09:00-22:00; Su 09:00-21:00,Subway,Q244457
https://restaurants.subway.com/#14901421,subway,Subway Steeplechase 95,,Capitol Heights Prince Georges,MD,,US,+1 301-333-0188,https://restaurants.subway.com/united-states/md/capitol-heights/9141-alaking-ct,Mo-Fr 08:00-22:00; Sa 09:00-21:00; Su 10:00-21:00,Subway,Q244457
https://restaurants.subway.com/#14894538,subway,Subway Coral Hills Shopping Center,,Capitol Heights Prince Georges,MD,,US,+1 240-392-2553,https://restaurants.subway.com/united-states/md/capitol-heights/4825-marlboro-pike,Mo-Su 09:00-22:00,Subway,Q244457
https://restaurants.subway.com/#14917016,subway,Subway Walker Mill Center,,Capitol Heights Prince Georges,MD,,US,+1 240-788-7843,https://restaurants.subway.com/united-states/md/capitol-heights/1448-addison-rd,Mo-Sa 08:30-22:30; Su 08:30-22:00,Subway,Q244457
8002303101,sunoco_us,Sunoco,,CAPTIOL HEIGHTS,MD,,US,+1 301-395-2121,,,Sunoco,Q1423218
https://locations.tacobell.com/#6142720,taco_bell,Taco Bell,,Capitol Heights,MD,,US,+1 301-336-8548,https://locations.tacobell.com/md/capitol-heights/6250-central-ave.html,Mo-Sa 08:00-02:00; Su 08:00-22:00,Taco Bell,Q752941
081363,tjx,Capitol Heights,1751 Ritchie Station Ct,Capitol Heights,MD,,US,+1 301-333-1602,,Mo-Sa 09:30-21:30; Su 10:00-20:00,TJ Maxx,Q10860683
5223,tmobile_us,Ritchie Station,,Capitol Heights,MD,,US,+1 240-392-4251,https://www.t-mobile.com/store-locator/md/capitol-heights/ritchie-station,,T-Mobile,Q3511885
110D,tmobile_us,Addison Shopping Center,,Seat Pleasant,MD,,US,+1 301-388-5538,https://www.t-mobile.com/store-locator/md/seat-pleasant/addison-shopping-center,,T-Mobile,Q3511885
7529,upsstore,Capitol Heights,9100 Alaking Ct Ste 130,Capitol Heights,MD,,US,+1 240-455-7868,https://locations.theupsstore.com/md/capitol-heights/9100-alaking-ct,,UPS Store,Q7771029
1434660,usps,CAPITOL HEIGHTS,,CAPITOL HEIGHTS,MD,,US,+1 301-333-5497,,Mo-Fr 09:00-17:00; Sa 09:00-12:00,United States Postal Service,Q668687
2074300027,usps_collection_boxes,USPS COLLECTION BOX - BLUE BOX,1611 FERNWOOD DR,FAIRMOUNT HGT,MD,,US,,,,United States Postal Service,Q668687
2074300035,usps_collection_boxes,USPS COLLECTION BOX - BLUE BOX,310 YORKNOLLS DR,FAIRMOUNT HGT,MD,,US,,,,United States Postal Service,Q668687
2074300025,usps_collection_boxes,USPS COLLECTION BOX - BLUE BOX,6912 VALLEY PARK RD,FAIRMOUNT HGT,MD,,US,,,,United States Postal Service,Q668687
2074300060,usps_collection_boxes,USPS COLLECTION BOX - BLUE BOX,7429 WALKER MILL DR,FAIRMOUNT HGT,MD,,US,,,,United States Postal Service,Q668687
2074300042,usps_collection_boxes,USPS COLLECTION BOX - BLUE BOX,801 BOOKER PL,FAIRMOUNT HGT,MD,,US,,,,United States Postal Service,Q668687
2074300010,usps_collection_boxes,USPS COLLECTION BOX - BLUE BOX,9123 CENTRAL AVE,FAIRMOUNT HGT,MD,,US,,,,United States Postal Service,Q668687
2074300049,usps_collection_boxes,USPS COLLECTION BOX - BLUE BOX,100 PEPPER MILL DR,FAIRMOUNT HGT,MD,,US,,,,United States Postal Service,Q668687
2074300015,usps_collection_boxes,USPS COLLECTION BOX - BLUE BOX,6711 ARLENE DR,FAIRMOUNT HGT,MD,,US,,,,United States Postal Service,Q668687
2074300044,usps_collection_boxes,USPS COLLECTION BOX - BLUE BOX,1021 BOOKER DR,FAIRMOUNT HGT,MD,,US,,,,United States Postal Service,Q668687
2074300001,usps_collection_boxes,USPS COLLECTION BOX - BLUE BOX,601 DUNMORE PL,FAIRMOUNT HGT,MD,,US,,,,United States Postal Service,Q668687
2074300051,usps_collection_boxes,USPS COLLECTION BOX - BLUE BOX,901 GLEN WILLOW DR,FAIRMOUNT HGT,MD,,US,,,,United States Postal Service,Q668687
2074300033,usps_collection_boxes,USPS COLLECTION BOX - BLUE BOX,401 71ST ST,FAIRMOUNT HGT,MD,,US,,,,United States Postal Service,Q668687
2074300036,usps_collection_boxes,USPS COLLECTION BOX - BLUE BOX,6017 SEAT PLEASANT DR,FAIRMOUNT HGT,MD,,US,,,,United States Postal Service,Q668687
2074300020,usps_collection_boxes,USPS COLLECTION BOX - BLUE BOX,303 CABIN BRANCH RD,FAIRMOUNT HGT,MD,,US,,,,United States Postal Service,Q668687
2074300029,usps_collection_boxes,USPS COLLECTION BOX - BLUE BOX,6301 ADDISON RD,FAIRMOUNT HGT,MD,,US,,,,United States Postal Service,Q668687
2074300031,usps_collection_boxes,USPS COLLECTION BOX - BLUE BOX,5922 MARTIN LUTHER KING JR HWY,FAIRMOUNT HGT,MD,,US,,,,United States Postal Service,Q668687
2074300019,usps_collection_boxes,USPS COLLECTION BOX - BLUE BOX,6400 ROLLING RIDGE DR,FAIRMOUNT HGT,MD,,US,,,,United States Postal Service,Q668687
2074300004,usps_collection_boxes,USPS COLLECTION BOX - BLUE BOX,6614 WILBURN DR,FAIRMOUNT HGT,MD,,US,,,,United States Postal Service,Q668687
2074300038,usps_collection_boxes,USPS COLLECTION BOX - BLUE BOX,6404 GREIG ST,FAIRMOUNT HGT,MD,,US,,,,United States Postal Service,Q668687
2074300013,usps_collection_boxes,USPS COLLECTION BOX - BLUE BOX,5706 JEFFERSON HEIGHTS DR,FAIRMOUNT HGT,MD,,US,,,,United States Postal Service,Q668687
2074300026,usps_collection_boxes,USPS COLLECTION BOX - BLUE BOX,5800 MARTIN LUTHER KING JR HWY,FAIRMOUNT HGT,MD,,US,,,,United States Postal Service,Q668687
2074300012,usps_collection_boxes,USPS COLLECTION BOX - BLUE BOX,5701 MARTIN LUTHER KING JR HWY,FAIRMOUNT HGT,MD,,US,,,,United States Postal Service,Q668687
2074300014,usps_collection_boxes,USPS COLLECTION BOX - BLUE BOX,5500 ADDISON RD,FAIRMOUNT HGT,MD,,US,,,,United States Postal Service,Q668687
2074300003,usps_collection_boxes,USPS COLLECTION BOX - BLUE BOX,100 W HAMPTON AVE,FAIRMOUNT HGT,MD,,US,,,,United States Postal Service,Q668687
2074300009,usps_collection_boxes,USPS COLLECTION BOX - BLUE BOX,1301 KAREN BLVD,FAIRMOUNT HGT,MD,,US,,,,United States Postal Service,Q668687
2074300023,usps_collection_boxes,USPS COLLECTION BOX - BLUE BOX,6606 RONALD RD,FAIRMOUNT HGT,MD,,US,,,,United States Postal Service,Q668687
2074300030,usps_collection_boxes,USPS COLLECTION BOX - BLUE BOX,900 59TH AVE,FAIRMOUNT HGT,MD,,US,,,,United States Postal Service,Q668687
2074300021,usps_collection_boxes,USPS COLLECTION BOX - BLUE BOX,5252 ADDISON RD,FAIRMOUNT HGT,MD,,US,,,,United States Postal Service,Q668687
2074300046,usps_collection_boxes,USPS COLLECTION BOX - BLUE BOX,6089 CENTRAL AVE,FAIRMOUNT HGT,MD,,US,,,,United States Postal Service,Q668687
2074300056,usps_collection_boxes,USPS COLLECTION BOX - PO LOBBY,6089 CENTRAL AVE,FAIRMOUNT HGT,MD,,US,,,,United States Postal Service,Q668687
2074300064,usps_collection_boxes,USPS COLLECTION BOX - PO LOBBY,6089 CENTRAL AVE,FAIRMOUNT HGT,MD,,US,,,,United States Postal Service,Q668687
2074300047,usps_collection_boxes,USPS COLLECTION BOX - BLUE BOX,5100 LEROY GORHAM DR,FAIRMOUNT HGT,MD,,US,,,,United States Postal Service,Q668687
2074300053,usps_collection_boxes,USPS COLLECTION BOX - BLUE BOX,1935 BROOKS DR,FAIRMOUNT HGT,MD,,US,,,,United States Postal Service,Q668687
2074300048,usps_collection_boxes,USPS COLLECTION BOX - BLUE BOX,5233 MARLBORO PIKE,FAIRMOUNT HGT,MD,,US,,,,United States Postal Service,Q668687
2074300040,usps_collection_boxes,USPS COLLECTION BOX - BLUE BOX,901 QUIETVIEW DR,FAIRMOUNT HGT,MD,,US,,,,United States Postal Service,Q668687
2074300018,usps_collection_boxes,USPS COLLECTION BOX - BLUE BOX,1531 NOVA AVE,FAIRMOUNT HGT,MD,,US,,,,United States Postal Service,Q668687
2074300041,usps_collection_boxes,USPS COLLECTION BOX - BLUE BOX,4906 EMO ST,FAIRMOUNT HGT,MD,,US,,,,United States Postal Service,Q668687
2074300043,usps_collection_boxes,USPS COLLECTION BOX - BLUE BOX,4609 HEATH ST,FAIRMOUNT HGT,MD,,US,,,,United States Postal Service,Q668687
2074300016,usps_collection_boxes,USPS COLLECTION BOX - BLUE BOX,4813 MARLBORO PIKE,FAIRMOUNT HGT,MD,,US,,,,United States Postal Service,Q668687
2074300006,usps_collection_boxes,USPS COLLECTION BOX - BLUE BOX,4018 ALTON ST,FAIRMOUNT HGT,MD,,US,,,,United States Postal Service,Q668687
2074300011,usps_collection_boxes,USPS COLLECTION BOX - BLUE BOX,1815 NOVA AVE,FAIRMOUNT HGT,MD,,US,,,,United States Postal Service,Q668687
2074300032,usps_collection_boxes,USPS COLLECTION BOX - BLUE BOX,4801 ADDISON RD,FAIRMOUNT HGT,MD,,US,,,,United States Postal Service,Q668687
A00000234025,verizon_us,Victra Capitol Heights,,Capitol Heights,MD,,US,+1 301-909-6903,https://www.verizon.com/stores/details/maryland/capitol-heights/victra-capitol-heights-1558722/,Mo-Sa 10:00-20:00; Su 11:00-18:00,Verizon,Q919641
,visa,,,CAPITOL HEIGHTS,MD,,US,,,,,
,visa,,,CAPITOL HEIGHTS,MD,,US,,,,,
,visa,,,CAPITOL HEIGHTS,MD,,US,,,,,
,visa,,,CAPITAL HEIGHTS,MD,,US,,,,,
,visa,,,CAPITOL HEIGHTS,MD,,US,,,,,
,visa,,,CAPITOL HEIGHTS,MD,,US,,,,,
,visa,,,CAPITOL HEIGHTS,MD,,US,,,,,
,visa,,,LANDOVER,MD,,US,,,,,
,visa,,,CAPITAL HEIGHTS,MD,,US,,,,,
,visa,,,CAPITOL HEIGHTS,MD,,US,,,,,
,visa,,,CAPITOL HEIGHTS,MD,,US,,,,,
,visa,,,CAPITOL HEIGHTS,MD,,US,,,,,
,visa,,,CAPITOL HEIGHTS,MD,,US,,,,,
,visa,,,CAPITAL HEIGHTS,MD,,US,,,,,
,visa,,,CAPITOL HEIGHTS,MD,,US,,,,,
,visa,,,CAPITOL HEIGHTS,MD,,US,,,,,
,visa,,,CAPITOL HEIGHTS,MD,,US,,,,,
,visa,,,CAPITOL HEIGHTS,MD,,US,,,,,
,visa,,,CAPITAL HEIGHTS,MD,,US,,,,,
,visa,,,CAPITOL HEIGHTS,MD,,US,,,,,
,visa,,,CAPITAL HEIGH,MD,,US,,,,,
,visa,,,CAPITOL HEIGHTS,MD,,US,,,,,
,visa,,,CAPITOL HEIGHTS,MD,,US,,,,,
,visa,,,CAPITAL HEIGHTS,MD,,US,,,,,
,visa,,,CAPITOL HEIGHTS,MD,,US,,,,,
,visa,,,CAPITOL HEIGHTS,MD,,US,,,,,
,visa,,,SEAT PLEASANT,MD,,US,,,,,
,visa,,,CAPITOL HEIGHTS,MD,,US,,,,,
,visa,,,CAPITOL HEIGHTS,MD,,US,,,,,
,visa,,,CAPITOL HEIGHTS,MD,,US,,,,,
,visa,,,CAPITOL HEIGHTS,MD,,US,,,,,
,visa,,,CAPITAL HEIGHTS,MD,,US,,,,,
,visa,,,CAPITAL HEIGHTS,MD,,US,,,,,
,visa,,,CAPITOL HEIGHTS,MD,,US,,,,,
,visa,,,CAPITOL HEIGHTS,MD,,US,,,,,
,visa,,,CAPITAL HEIGHTS,MD,,US,,,,,
,visa,,,CAPITOL HEIGHTS,MD,,US,,,,,
,visa,,,CAPITOL HEIGHTS,MD,,US,,,,,
,visa,,,SEAT PLEASANT,MD,,US,,,,,
,visa,,,SEAT PLEASANT,MD,,US,,,,,
,visa,,,SEAT PLEASANT,MD,,US,,,,,
,visa,,,SEAT PLEASANT,MD,,US,,,,,
,visa,,,SEAT PLEASANT,MD,,US,,,,,
,visa,,,SEAT PLEASANT,MD,,US,,,,,
,visa,,,CAPITOL HEIGHTS,MD,,US,,,,,
,visa,,,CAPITOL HEIGHTS,MD,,US,,,,,
,visa,,,CAPITOL HEIGHTS,MD,,US,,,,,
,visa,,,SEAT PLEASANT,MD,,US,,,,,
,visa,,,SEAT PLEASANT,MD,,US,,,,,
,visa,,,SEAT PLEASANT,MD,,US,,,,,
,visa,,,CAPITOL HEIGHTS,MD,,US,,,,,
,visa,,,SEAT PLEASANT,MD,,US,,,,,
,visa,,,CAPITOL HEIGHTS,MD,,US,,,,,
,visa,,,SEAT PLEASANT,MD,,US,,,,,
,visa,,,CAPITOL HEIGHTS,MD,,US,,,,,
,visa,,,CAPITOL HEIGHTS,MD,,US,,,,,
,visa,,,SEAT PLEASANT,MD,,US,,,,,
,visa,,,SEAT PLEASANT,MD,,US,,,,,
,visa,,,CAPITOL HEIGHTS,MD,,US,,,,,
,visa,,,CAPITAL HEIGHTS,MD,,US,,,,,
,visa,,,SEAT PLEASANT,MD,,US,,,,,
,visa,,,SEAT PLEASANT,MD,,US,,,,,
,visa,,,CAPITAL HEIGHTS,MD,,US,,,,,
,visa,,,CAPITOL HEIGHTS,MD,,US,,,,,
,visa,,,CAPITOL HEIGHTS,MD,,US,,,,,
,visa,,,CAPITOL HEIGHTS,MD,,US,,,,,
,visa,,,CAPITOL HEIGHTS,MD,,US,,,,,
,visa,,,CAPITOL HEIGHTS,MD,,US,,,,,
,visa,,,SEAT PLEASANT,MD,,US,,,,,
,visa,,,SEAT PLEASANT,MD,,US,,,,,
,visa,,,CAPITOL HEIGHTS,MD,,US,,,,,
,visa,,,CAPITAL HEIGHTS,MD,,US,,,,,
,visa,,,CAPITOL HEIGHTS,MD,,US,,,,,
,visa,,,FAIRMOUNT HEIGHTS,MD,,US,,,,,
,visa,,,CAPITOL HEIGHTS,MD,,US,,,,,
,visa,,,CAPITOL HEIGHTS,MD,,US,,,,,
,visa,,,CAPITOL HEIGHS,MD,,US,,,,,
,visa,,,CAPITOL HEIGHTS,MD,,US,,,,,
,visa,,,CAPITOL HEIGHTS,MD,,US,,,,,
,visa,,,CAPITOL HEIGHTS,MD,,US,,,,,
,visa,,,CAPITAL HEIGHTS,MD,,US,,,,,
,visa,,,CAPITOL HEIGHTS,MD,,US,,,,,
,visa,,,CAPITAL HEIGHTS,MD,,US,,,,,
,visa,,,CAPITOL HEIGHTS,MD,,US,,,,,
,visa,,,CAPITOL HEIGHTS,MD,,US,,,,,
,visa,,,CAPITOL HEIGHTS,MD,,US,,,,,
,visa,,,CAPITAL HEIGHTS,MD,,US,,,,,
,visa,,,CAPITOL HEIGHTS,MD,,US,,,,,
,visa,,,CAPITAL HIGHTS,MD,,US,,,,,
,visa,,,CAPITOL HEIGHTS,MD,,US,,,,,
,visa,,,CAPITOL HEIGHTS,MD,,US,,,,,
,visa,,,CAPITOL HEIGHTS,MD,,US,,,,,
,visa,,,CAPITOL HEIGHTS,MD,,US,,,,,
,visa,,,FAIRMONT HEIGHTS,MD,,US,,,,,
,visa,,,CAPITOL HEIGHTS,MD,,US,,,,,
,visa,,,CAPITOL HEIGHTS,MD,,US,,,,,
,visa,,,CAPITOL HEIGHTS,MD,,US,,,,,
,visa,,,CAPITOL HEIGHTS,MD,,US,,,,,
,visa,,,CAPITOL HEIGHTS,MD,,US,,,,,
,visa,,,CAPITOL HEIGHTS,MD,,US,,,,,
,visa,,,CAPITOL HEIGHTS,MD,,US,,,,,
,visa,,,CAPITOL HEIGHTS,MD,,US,,,,,
,visa,,,CAPITOL HEIGHTS,MD,,US,,,,,
,visa,,,CAPITOL HEIGHTS,MD,,US,,,,,
https://locations.vitaminshoppe.com/md/capitolheights/vitamins-supplements-capitol-heights-md-769.html,vitamin_shoppe,The Vitamin Shoppe® Capitol Heights ,9101 Alaking Court Suite 100,Capitol Heights,MD,,US,+1 301-336-1450,https://locations.vitaminshoppe.com/md/capitolheights/vitamins-supplements-capitol-heights-md-769.html,Su 10:00-18:00; Mo 09:30-20:00; Tu 09:30-20:00; We 09:30-20:00; Th 09:30-20:00; Fr 09:30-20:00; Sa 10:00-20:00,The Vitamin Shoppe,Q7772938
6300__CENTRAL__AVE_SEAT__PLEASANT_MD_20743,wellsfargo,,6300 CENTRAL AVE,SEAT PLEASANT,MD,,US,+1 800-869-3557,https://www.wellsfargo.com/locator/bank/6300__CENTRAL__AVE_SEAT__PLEASANT_MD_20743/,,Wells Fargo,Q744149
https://locations.wendys.com/#9251269,wendys,"Wendy's Central Avenue in Capitol Heights, MD",,Capitol Heights,MD,,US,+1 301-499-2986,https://locations.wendys.com/united-states/md/capitol-heights/8715-central-avenue,"Mo-Su 06:30-10:30,07:00-22:00",Wendy's,Q550258
8c34d5e535755dc0cf074b11e1439a33,western_union,A&K MODI,,Capitol Heights,MD,,US,+1 301-967-3781,https://location.westernunion.com/us/md/capitol-heights/8c34d5e535755dc0cf074b11e1439a33,Mo-Su 09:00-22:00,Western Union,Q861042
f670fdb259b8d91f0d1493b324a2c73e,western_union,7-ELEVEN #37128,,Capitol Heights,MD,,US,+1 301-735-0431,https://location.westernunion.com/us/md/capitol-heights/f670fdb259b8d91f0d1493b324a2c73e,,Western Union,Q861042
