Ref,Spider,Name,Address,City,State,Zipcode,Country,Phone,Website,Hours,Brand,WikiData
https://vertretung.allianz.de/angelo.hahn/,allianz_de,Allianz Versicherung Angelo Hahn GENERALVERTRETUNG,,Herne,,,DE,+49 2325 583008,https://vertretung.allianz.de/angelo.hahn/,"Mo-Tu 09:00-13:00,15:00-17:00; We 09:00-13:00; Th 09:00-13:00,15:00-17:00; Fr 09:00-13:00",Allianz SE,Q487292
https://www.fressnapf.de/stores/fressnapf-herne-wanne/,fressnapf_de,Fressnapf Herne-Wanne,,Herne,,,DE,+49 2325 9088310,https://www.fressnapf.de/stores/fressnapf-herne-wanne/,Mo-Fr 09:00-19:00; Sa 09:00-18:00,Fressnapf,Q875796
2760918503,gls_de,Damu Markt,,Herne,,,DE,+49 160 5005577,,Mo-Su 08:00-20:00,General Logistics Systems,Q46495823
2760917504,gls_de,Handy Haus,,Herne,,,DE,+49 1516 6556631,,Mo-Sa 10:00-20:00,General Logistics Systems,Q46495823
2760915216,gls_de,Özcanlar Export-Import UG,,Herne,,,DE,+49 173 8058000,,Mo-Sa 09:00-18:30,General Logistics Systems,Q46495823
DE8310,kaufland,Kaufland Herne,,Herne,,,DE,+49 2325 6379690,https://filiale.kaufland.de/service/filiale/frankfurt-oder-spitzkrug-multi-center-herne-8310.html,Mo-Sa 07:00-22:00,Kaufland,Q685967
6720,kik,KiK,,Herne Wanne,,,DE,+49 2325 569268,,Mo-Fr 09:00-19:00; Sa 09:00-17:00,KiK,Q883965
3848,lidl_de,Wanne,,Herne,,,DE,,,Mo-Sa 07:00-21:00,Lidl,Q151954
1845,lidl_de,Wanne,,Herne,,,DE,,,Mo-Sa 07:00-21:00,Lidl,Q151954
74372861,moneygram,HAPPY KIOSK - HERNE,,HERNE,,,DE,+49 178 5054102,,Mo-Sa 09:00-20:00; Su 11:00-18:00,MoneyGram,Q1944412
74971385,moneygram,CT REISEN - HERNE,,HERNE,,,DE,+49 172 9670917,,Mo-Fr 09:30-18:30; Sa 09:30-17:00; Su 00:00-24:00,MoneyGram,Q1944412
https://www.rossmann.de/de/filialen/nordrhein-westfalen/herne/am-stoeckmannshof-4a.html,rossmann_de,Rossmann Drogerie-Markt Am Stöckmannshof 4a,,Herne,,,DE,+49 2325 9079993,https://www.rossmann.de/de/filialen/nordrhein-westfalen/herne/am-stoeckmannshof-4a.html,Mo-Sa 08:00-20:00,Rossmann,Q316004
104122,sparkasse_de,Herner Sparkasse Geldautomat Niederlassung Wanne,,Herne,,,DE,+49 2323 590740,https://www.sparkasse.de/standorte/geldautomaten/herner-sparkasse-geldautomat-niederlassung-wanne-104122,Mo-Su 05:00-23:00,Sparkasse,Q13601825
174469,sparkasse_de,Herner Sparkasse Geldautomat SB-Filiale Wanne Nord,,Herne,,,DE,+49 2323 590766,https://www.sparkasse.de/standorte/geldautomaten/herner-sparkasse-geldautomat-sb-filiale-wanne-nord-174469,Mo-Su 05:00-23:00,Sparkasse,Q13601825
16211,sparkasse_de,Herner Sparkasse SB-Geschäftsstelle Wanne Nord,,Herne,,,DE,+49 2323 590766,https://www.sparkasse.de/standorte/filialen/herner-sparkasse-sb-geschaeftsstelle-wanne-nord-16211,Mo-Su 05:00-23:00,Sparkasse,Q13601825
16198,sparkasse_de,Herner Sparkasse Niederlassung Wanne,,Herne,,,DE,+49 2323 590740,https://www.sparkasse.de/standorte/filialen/herner-sparkasse-niederlassung-wanne-16198,Mo 08:00-18:00; Tu-We 08:00-16:00; Th 08:00-18:00; Fr 08:00-16:00,Sparkasse,Q13601825
ND122070,totalenergies,HERNE KARLSTR. 44,,HERNE,,,DE,+49 2325 977166,https://store.totalenergies.fr/en_EN/ND122070,24/7,TotalEnergies,Q154037
3099,valora,Press & Books,,Herne,,,DE,,,,Press & Books,Q100407277
https://www.vlh.de/bst/5600/Oeffnungszeiten.html,vhl_de,VLH-Beraterin Ursula Ostgathe in Herne,,Herne,,,DE,+49 2325 977982,https://www.vlh.de/bst/5600/,Fr 17:00-18:00,Vereinigte Lohnsteuerhilfe e.V.,Q15852617
,visa,,,HERNE,,,DE,,,,,
,visa,,,HERNE,,,DE,,,,,
,visa,,,HERNE,,,DE,,,,,
,visa,,,HERNE,,,DE,,,,,
,visa,,,HERNE,,,DE,,,,,
,visa,,,HERNE,,,DE,,,,,
,visa,,,HERNE,,,DE,,,,,
,visa,,,HERNE WANNE EICKEL,,,DE,,,,,
,visa,,,HERNE (WANNE-EICKEL),,,DE,,,,,
,visa,,,HERNE,,,DE,,,,,
https://www.vr.de/standorte/H/Ha-Hm/volksbank-bochum-witten-eg-sb-center-wanne-12221.html,vr_bank,Volksbank Bochum Witten eG SB-Center Wanne,,Herne,,,DE,,https://www.vb-bochumwitten.de,Mo-Su 06:00-22:00,,
