Ref,Spider,Name,Address,City,State,Zipcode,Country,Phone,Website,Hours,Brand,WikiData
3719,anytime_fitness,Anytime Fitness,,Wales,WI,,US,+1 262-201-4240,https://www.anytimefitness.com/gyms/3719/wales-wi-53183/,,Anytime Fitness,Q4778364
https://locations.baskinrobbins.com/wi/wales/511-north-wales-road-362692-br,baskin_robbins_us,Baskin-Robbinsâ„¢,,Wales,WI,,US,+1 262-623-9895,https://locations.baskinrobbins.com/wi/wales/511-north-wales-road-362692-br,Mo-Su 04:00-23:00,Baskin-Robbins,Q584601
156148,bluerhino,Walgreens #12021,,Wales,WI,,US,+1 262-968-6900,,,Blue Rhino,Q65681213
169693,bluerhino,Pick N' Save #6386,,Wales,WI,,US,+1 262-968-9460,,,Blue Rhino,Q65681213
454,culvers_us,"Culver's of Wales, WI - E Summit Ave",,Wales,WI,,US,+1 262-968-1830,http://www.culvers.com/restaurants/wales,Mo-Fr 10:00-22:00; Su 10:00-22:00,Culver's,Q1143589
362692,dunkin_us,Dunkin',,Wales,WI,,US,+1 262-623-9895,https://locations.dunkindonuts.com/en/wi/wales/511-north-wales-road/362692,Mo-Su 04:00-23:00,Dunkin',Q847743
https://www.edwardjones.com/us-en/financial-advisor/stephanie-besenhofer,edwardjones,Stephanie C Besenhofer,,Wales,WI,,US,+1 262-968-3040,https://www.edwardjones.com/us-en/financial-advisor/stephanie-besenhofer,Mo-Th 08:00-16:00; Fr 08:00-15:00,Edward Jones,Q5343830
https://local.fedex.com/#25203219,fedex,,,Wales,WI,,US,+1 800-463-3339,https://local.fedex.com/en-us/wi/wales/tt6cw,,FedEx,Q459477
https://restaurants.subway.com/#14894570,subway,Subway,,Wales Waukesha,WI,,US,+1 262-201-4586,https://restaurants.subway.com/united-states/wi/wales/323-n-wales-rd,Mo-Su 08:00-20:00,Subway,Q244457
1386221,usps,WALES,,WALES,WI,,US,+1 262-968-3367,,"Mo-Fr 08:30-12:30,13:30-16:30; Sa 08:30-11:00",United States Postal Service,Q668687
5318300003,usps_collection_boxes,USPS COLLECTION BOX - BLUE BOX,405 N WALES RD,WALES,WI,,US,,,,United States Postal Service,Q668687
5318300005,usps_collection_boxes,USPS COLLECTION BOX - PO LOBBY,110 JAMES ST,WALES,WI,,US,,,,United States Postal Service,Q668687
5318300001,usps_collection_boxes,USPS COLLECTION BOX - BLUE BOX,110 JAMES ST,WALES,WI,,US,,,,United States Postal Service,Q668687
5318300004,usps_collection_boxes,USPS COLLECTION BOX - PO LOBBY,110 JAMES ST,WALES,WI,,US,,,,United States Postal Service,Q668687
,visa,,,UNION GROVE,WI,,US,,,,,
,visa,,,WALES,WI,,US,,,,,
,visa,,,WALES,WI,,US,,,,,
,visa,,,WALES,WI,,US,,,,,
,visa,,,WALES,WI,,US,,,,,
,visa,,,WALES,WI,,US,,,,,
,visa,,,WALES,WI,,US,,,,,
,visa,,,WALES,WI,,US,,,,,
,visa,,,WALES,WI,,US,,,,,
,visa,,,WALES,WI,,US,,,,,
https://www.walgreens.com/locator/walgreens-320+w+summit+ave-wales-wi-53183/id=12021,walgreens,Walgreens,,Wales,WI,,US,+1 262-968-6900,https://www.walgreens.com/locator/walgreens-320+w+summit+ave-wales-wi-53183/id=12021,Mo-Fr 07:00-22:00; Sa-Su 08:00-21:00,Walgreens,Q1591889
7851c90cdfd0c4821f1deb0d159b3b78,western_union,PICK 'N SAVE #386,,Wales,WI,,US,+1 262-968-9460,https://location.westernunion.com/us/wi/wales/7851c90cdfd0c4821f1deb0d159b3b78,Mo-Su 08:00-22:00,Western Union,Q861042
