Ref,Spider,Name,Address,City,State,Zipcode,Country,Phone,Website,Hours,Brand,WikiData
,visa,,,TLALNEPANTLA,ESTADO DE MEXICO,,MX,,,,,
,visa,,,TLALNEPANTLA,ESTADO DE MEXICO,,MX,,,,,
,visa,,,TLALNEPANTLA,ESTADO DE MEXICO,,MX,,,,,
,visa,,,TLALNEPANTLA DE BAZ,ESTADO DE MEXICO,,MX,,,,,
,visa,,,TLALNEPANTLA,ESTADO DE MEXICO,,MX,,,,,
,visa,,,TLALNEPANTLA DE BAZ,ESTADO DE MEXICO,,MX,,,,,
,visa,,,TLALNEPANTLA,ESTADO DE MEXICO,,MX,,,,,
,visa,,,TLALNEPANTLA DE BAZ,ESTADO DE MEXICO,,MX,,,,,
,visa,,,TLALNEPANTLA,ESTADO DE MEXICO,,MX,,,,,
,visa,,,TLALNEPANTLA DE BAZ,ESTADO DE MEXICO,,MX,,,,,
,visa,,,TLALNEPANTLA,ESTADO DE MEXICO,,MX,,,,,
,visa,,,TLALNEPANTLA,ESTADO DE MEXICO,,MX,,,,,
,visa,,,TLALNEPANTLA DE BAZ,ESTADO DE MEXICO,,MX,,,,,
,visa,,,TLALNEPANTLA DE BAZ,ESTADO DE MEXICO,,MX,,,,,
,visa,,,TLALNEPANTLA,ESTADO DE MEXICO,,MX,,,,,
,visa,,,TLALNEPANTLA,ESTADO DE MEXICO,,MX,,,,,
,visa,,,TLALNEPANTLA DE BAZ,ESTADO DE MEXICO,,MX,,,,,
,visa,,,TLALNEPANTLA,ESTADO DE MEXICO,,MX,,,,,
,visa,,,TLALNEPANTLA,ESTADO DE MEXICO,,MX,,,,,
,visa,,,TLALNEPANTLA,ESTADO DE MEXICO,,MX,,,,,
,visa,,,TLALNEPANTLA,ESTADO DE MEXICO,,MX,,,,,
,visa,,,TLALNEPANTLA,ESTADO DE MEXICO,,MX,,,,,
,visa,,,TLALNEPANTLA,ESTADO DE MEXICO,,MX,,,,,
,visa,,,TLALNEPANTLA DE BAZ,ESTADO DE MEXICO,,MX,,,,,
,visa,,,TLALNEPANTLA,ESTADO DE MEXICO,,MX,,,,,
,visa,,,TLALNEPANTLA,ESTADO DE MEXICO,,MX,,,,,
,visa,,,TLALNEPANTLA DE BAZ,ESTADO DE MEXICO,,MX,,,,,
,visa,,,TLALNEPANTLA,ESTADO DE MEXICO,,MX,,,,,
,visa,,,TLALNEPANTLA,ESTADO DE MEXICO,,MX,,,,,
,visa,,,TLALNEPANTLA,ESTADO DE MEXICO,,MX,,,,,
,visa,,,TLALNEPANTLA DE BAZ,ESTADO DE MEXICO,,MX,,,,,
,visa,,,TLALNEPANTLA,ESTADO DE MEXICO,,MX,,,,,
,visa,,,TLALNEPANTLA,ESTADO DE MEXICO,,MX,,,,,
,visa,,,TLALNEPANTLA,ESTADO DE MEXICO,,MX,,,,,
,visa,,,TLALNEPANTLA DE BAZ,ESTADO DE MEXICO,,MX,,,,,
,visa,,,TLALNEPANTLA,ESTADO DE MEXICO,,MX,,,,,
,visa,,,TLALNEPANTLA,ESTADO DE MEXICO,,MX,,,,,
,visa,,,TLALNEPANTLA,ESTADO DE MEXICO,,MX,,,,,
,visa,,,TLALNEPANTLA,ESTADO DE MEXICO,,MX,,,,,
,visa,,,HUEHUETOCA,ESTADO DE MEXICO,,MX,,,,,
,visa,,,TLALNEPANTLA DE BAZ,ESTADO DE MEXICO,,MX,,,,,
66b8e4582665d0a594a97c505f183087,western_union,FARM GUAD BERRIOZABAL EDOMEX,,Tlalnepantla,ESTADO DE MEXICO,,MX,+52 800 833 4700,https://location.westernunion.com/mx/estado-de-mexico/tlalnepantla/66b8e4582665d0a594a97c505f183087,Mo-Su 08:00-20:00,Western Union,Q861042
6ede939ba8fb46d342097e0e3e3e7036,western_union,FARM GUAD BERRIOZABAL EDOMEX,,Tlalnepantla,ESTADO DE MEXICO,,MX,+52 800 833 4700,https://location.westernunion.com/mx/estado-de-mexico/tlalnepantla/6ede939ba8fb46d342097e0e3e3e7036,Mo-Su 08:00-20:00,Western Union,Q861042
264f8f76f5155bcd91c1ff367faa9fd0,western_union,FARM GUAD BERRIOZABAL EDOMEX,,Tlalnepantla,ESTADO DE MEXICO,,MX,+52 800 833 4700,https://location.westernunion.com/mx/estado-de-mexico/tlalnepantla/264f8f76f5155bcd91c1ff367faa9fd0,Mo-Su 08:00-20:00,Western Union,Q861042
fd9054bca90780bc9a0a51abf2d41cdd,western_union,CAJA INMACULADA SUC ARBOLEDAS,,Tlalnepantla,ESTADO DE MEXICO,,MX,(+052) 551-5520504,https://location.westernunion.com/mx/estado-de-mexico/tlalnepantla/fd9054bca90780bc9a0a51abf2d41cdd,Mo-Fr 09:00-17:30; Sa 09:00-13:30,Western Union,Q861042
798cd915f0aaf149a8212e4ae542bb31,western_union,OXXO FULTON MEX,,Tlalnepantla,ESTADO DE MEXICO,,MX,+52 81 8389 2121,https://location.westernunion.com/mx/estado-de-mexico/tlalnepantla/798cd915f0aaf149a8212e4ae542bb31,Mo-Su 08:00-22:00,Western Union,Q861042
f96738073ee50af0bc1e65aeae10f91a,western_union,OXXO TOLTECAS II MEX,,Tlalnepantla,ESTADO DE MEXICO,,MX,+52 81 8389 2121,https://location.westernunion.com/mx/estado-de-mexico/tlalnepantla/f96738073ee50af0bc1e65aeae10f91a,Mo-Su 08:00-22:00,Western Union,Q861042
480969c2b67d4a1f9ea10ef85d4711fc,western_union,OXXO TOLTECAS II MEX,,Tlalnepantla,ESTADO DE MEXICO,,MX,+52 81 8389 2121,https://location.westernunion.com/mx/estado-de-mexico/tlalnepantla/480969c2b67d4a1f9ea10ef85d4711fc,Mo-Su 08:00-22:00,Western Union,Q861042
36ded7677cdae7a31f6f02c6b1049343,western_union,OXXO OXXO VALLE II MEX,,Tlalnepantla,ESTADO DE MEXICO,,MX,+52 81 8389 2121,https://location.westernunion.com/mx/estado-de-mexico/tlalnepantla/36ded7677cdae7a31f6f02c6b1049343,Mo-Su 08:00-22:00,Western Union,Q861042
d906c3e53b7d45be6b0cb0cc4814f445,western_union,OXXO OXXO VALLE II MEX,,Tlalnepantla,ESTADO DE MEXICO,,MX,+52 81 8389 2121,https://location.westernunion.com/mx/estado-de-mexico/tlalnepantla/d906c3e53b7d45be6b0cb0cc4814f445,Mo-Su 08:00-22:00,Western Union,Q861042
531400fee6dbb97f365fae68715ceb42,western_union,ELECZION TLANEPANTLA CINE HIDALGO 1246,,Tlalnepantla,ESTADO DE MEXICO,,MX,+52 55 5246 0700,https://location.westernunion.com/mx/estado-de-mexico/tlalnepantla/531400fee6dbb97f365fae68715ceb42,Mo-Su 06:30-23:30,Western Union,Q861042
7a4aa3a2bea0235fccf6b3118901a036,western_union,ELECZION TLANEPANTLA CINE HIDALGO 1246,,Tlalnepantla,ESTADO DE MEXICO,,MX,+52 55 5246 0700,https://location.westernunion.com/mx/estado-de-mexico/tlalnepantla/7a4aa3a2bea0235fccf6b3118901a036,Mo-Su 06:30-23:30,Western Union,Q861042
da180808665f5e2ef982876c5d2c8a41,western_union,SUBURBIA 650 RIO DE LOS REMEDIOS,,Tlalnepantla,ESTADO DE MEXICO,,MX,+52 800 733 3300,https://location.westernunion.com/mx/estado-de-mexico/tlalnepantla/da180808665f5e2ef982876c5d2c8a41,Mo-Su 11:00-21:00,Western Union,Q861042
e5d66400bcd058626e2aadc8fbfdf7b8,western_union,SUBURBIA 650 RIO DE LOS REMEDIOS,,Tlalnepantla,ESTADO DE MEXICO,,MX,+52 800 733 3300,https://location.westernunion.com/mx/estado-de-mexico/tlalnepantla/e5d66400bcd058626e2aadc8fbfdf7b8,Mo-Su 11:00-21:00,Western Union,Q861042
b8e252611589b5d6ace9be906327b1fb,western_union,SUBURBIA 650 RIO DE LOS REMEDIOS,,Tlalnepantla,ESTADO DE MEXICO,,MX,+52 800 733 3300,https://location.westernunion.com/mx/estado-de-mexico/tlalnepantla/b8e252611589b5d6ace9be906327b1fb,Mo-Su 11:00-21:00,Western Union,Q861042
fa9cb19dc1d73f1a6368a21bd86aad7f,western_union,WALMART TOLTECAS 2041,,Tlalnepantla,ESTADO DE MEXICO,,MX,+52 800 833 4700,https://location.westernunion.com/mx/estado-de-mexico/tlalnepantla/fa9cb19dc1d73f1a6368a21bd86aad7f,Mo-Su 07:00-23:00,Western Union,Q861042
0aa0ef7c6f67658e2822488e82fb0932,western_union,WALMART TOLTECAS 2041,,Tlalnepantla,ESTADO DE MEXICO,,MX,+52 800 833 4700,https://location.westernunion.com/mx/estado-de-mexico/tlalnepantla/0aa0ef7c6f67658e2822488e82fb0932,Mo-Su 07:00-23:00,Western Union,Q861042
214de8ef61f7000aaf0e0bc2fe7d5af7,western_union,WALMART TOLTECAS 2041,,Tlalnepantla,ESTADO DE MEXICO,,MX,+52 800 833 4700,https://location.westernunion.com/mx/estado-de-mexico/tlalnepantla/214de8ef61f7000aaf0e0bc2fe7d5af7,Mo-Su 07:00-23:00,Western Union,Q861042
30b025e3d3dced8dc2f438b85dbafa9b,western_union,ELEKTRA EKT 9793,,Tlalnepantla,ESTADO DE MEXICO,,MX,+52 55 1720 8177,https://location.westernunion.com/mx/estado-de-mexico/tlalnepantla/30b025e3d3dced8dc2f438b85dbafa9b,Mo-Su 09:00-21:00,Western Union,Q861042
24183b2e818835437150cd618991d438,western_union,ELEKTRA EKT 9793,,Tlalnepantla,ESTADO DE MEXICO,,MX,+52 55 1720 8177,https://location.westernunion.com/mx/estado-de-mexico/tlalnepantla/24183b2e818835437150cd618991d438,Mo-Su 09:00-21:00,Western Union,Q861042
45c6f82f9f43236c48158d6df919e153,western_union,ELEKTRA EKT 9793,,Tlalnepantla,ESTADO DE MEXICO,,MX,+52 55 1720 8177,https://location.westernunion.com/mx/estado-de-mexico/tlalnepantla/45c6f82f9f43236c48158d6df919e153,Mo-Su 09:00-21:00,Western Union,Q861042
812eba6090e4c7412fd8bdb526bd487e,western_union,TELECOMM 15020,,Tlalnepantla,ESTADO DE MEXICO,,MX,+52 55 5565 0073,https://location.westernunion.com/mx/estado-de-mexico/tlalnepantla/812eba6090e4c7412fd8bdb526bd487e,Mo-Su 09:00-20:00,Western Union,Q861042
c11d474f3b331ab9ec48fec58a1ec4c8,western_union,TELECOMM 15020,,Tlalnepantla,ESTADO DE MEXICO,,MX,+52 55 5565 0073,https://location.westernunion.com/mx/estado-de-mexico/tlalnepantla/c11d474f3b331ab9ec48fec58a1ec4c8,Mo-Fr 09:00-15:00; Sa 09:00-12:30,Western Union,Q861042
01427c0b91c49f76192655c80f394707,western_union,TELECOMM 15020,,Tlalnepantla,ESTADO DE MEXICO,,MX,+52 55 5565 0073,https://location.westernunion.com/mx/estado-de-mexico/tlalnepantla/01427c0b91c49f76192655c80f394707,Mo-Fr 09:00-15:00,Western Union,Q861042
37a35f7f5c8926613f943b44f5eec4f2,western_union,OXXO KELVIN MEX,,Tlalnepantla,ESTADO DE MEXICO,,MX,+52 81 8389 2121,https://location.westernunion.com/mx/estado-de-mexico/tlalnepantla/37a35f7f5c8926613f943b44f5eec4f2,Mo-Su 06:00-22:00,Western Union,Q861042
7a06d3e376efe37d8c37a5668cd63223,western_union,OXXO KELVIN MEX,,Tlalnepantla,ESTADO DE MEXICO,,MX,+52 81 8389 2121,https://location.westernunion.com/mx/estado-de-mexico/tlalnepantla/7a06d3e376efe37d8c37a5668cd63223,Mo-Su 06:00-22:00,Western Union,Q861042
24a6269e048c123e1cd3bd601d95b6bb,western_union,OXXO KELVIN MEX,,Tlalnepantla,ESTADO DE MEXICO,,MX,+52 81 8389 2121,https://location.westernunion.com/mx/estado-de-mexico/tlalnepantla/24a6269e048c123e1cd3bd601d95b6bb,Mo-Su 06:00-22:00,Western Union,Q861042
1511e8ef3def7a4d187feefe0dd8773b,western_union,OXXO ATENCO MEX,,Tlalnepantla,ESTADO DE MEXICO,,MX,+52 81 8389 2121,https://location.westernunion.com/mx/estado-de-mexico/tlalnepantla/1511e8ef3def7a4d187feefe0dd8773b,Mo-Su 08:00-22:00,Western Union,Q861042
a2f8a54c3ce1cd471f5008bf895c9897,western_union,OXXO ATENCO MEX,,Tlalnepantla,ESTADO DE MEXICO,,MX,+52 81 8389 2121,https://location.westernunion.com/mx/estado-de-mexico/tlalnepantla/a2f8a54c3ce1cd471f5008bf895c9897,Mo-Su 08:00-22:00,Western Union,Q861042
ff2b4c84d6c06b386f44f8a7f3ee6b74,western_union,OXXO ATENCO MEX,,Tlalnepantla,ESTADO DE MEXICO,,MX,+52 81 8389 2121,https://location.westernunion.com/mx/estado-de-mexico/tlalnepantla/ff2b4c84d6c06b386f44f8a7f3ee6b74,Mo-Su 08:00-22:00,Western Union,Q861042
23d83cdfe489cf559ca4eb1f19959c44,western_union,OXXO OXXO Valle II MEX,,Tlalnepantla,ESTADO DE MEXICO,,MX,+52 81 8389 2121,https://location.westernunion.com/mx/estado-de-mexico/tlalnepantla/23d83cdfe489cf559ca4eb1f19959c44,Mo-Su 08:00-22:00,Western Union,Q861042
efb5b31246d2f1192fef236022a9b98b,western_union,OXXO VALLE DE BRAVO MEX,,Tlalnepantla,ESTADO DE MEXICO,,MX,+52 81 8389 2121,https://location.westernunion.com/mx/estado-de-mexico/tlalnepantla/efb5b31246d2f1192fef236022a9b98b,Mo-Su 08:00-22:00,Western Union,Q861042
e06244b70c42d13fa96fd9d0ca7adb83,western_union,OXXO VALLE DE BRAVO MEX,,Tlalnepantla,ESTADO DE MEXICO,,MX,+52 81 8389 2121,https://location.westernunion.com/mx/estado-de-mexico/tlalnepantla/e06244b70c42d13fa96fd9d0ca7adb83,Mo-Su 08:00-22:00,Western Union,Q861042
b1a17cdbd470146a1845573e6dc7966f,western_union,OXXO Valle de Bravo MEX,,Tlalnepantla,ESTADO DE MEXICO,,MX,+52 81 8389 2121,https://location.westernunion.com/mx/estado-de-mexico/tlalnepantla/b1a17cdbd470146a1845573e6dc7966f,Mo-Su 08:00-22:00,Western Union,Q861042
1e888e30783bc4cb190a067ad6143b7b,western_union,OXXO ACULCO MEX,,Tlalnepantla,ESTADO DE MEXICO,,MX,+52 81 8389 2121,https://location.westernunion.com/mx/estado-de-mexico/tlalnepantla/1e888e30783bc4cb190a067ad6143b7b,Mo-Su 08:00-22:00,Western Union,Q861042
1b5f3f10885aa36e55f725f2e94575c5,western_union,OXXO Aculco MEX,,Tlalnepantla,ESTADO DE MEXICO,,MX,+52 81 8389 2121,https://location.westernunion.com/mx/estado-de-mexico/tlalnepantla/1b5f3f10885aa36e55f725f2e94575c5,Mo-Su 08:00-22:00,Western Union,Q861042
1541cd58e8052252f982791cad6f83f0,western_union,WALDOS SAN NICOLAS TLALNEPAN EDOMEX 6002,,Tlalnepantla,ESTADO DE MEXICO,,MX,+52 55 5246 0700,https://location.westernunion.com/mx/estado-de-mexico/tlalnepantla/1541cd58e8052252f982791cad6f83f0,Mo-Su 06:30-23:30,Western Union,Q861042
1f4431d3416671ba103900db4c961680,western_union,OXXO ZAHUATLAN MEX,,Tlalnepantla,ESTADO DE MEXICO,,MX,+52 81 8389 2121,https://location.westernunion.com/mx/estado-de-mexico/tlalnepantla/1f4431d3416671ba103900db4c961680,Mo-Su 08:00-22:00,Western Union,Q861042
bb55ab7e0ea87df58b0306f13904cdfe,western_union,OXXO ZAHUATLAN MEX,,Tlalnepantla,ESTADO DE MEXICO,,MX,+52 81 8389 2121,https://location.westernunion.com/mx/estado-de-mexico/tlalnepantla/bb55ab7e0ea87df58b0306f13904cdfe,Mo-Su 08:00-22:00,Western Union,Q861042
34ac68082c13c034a0e3181fe853f7b8,western_union,FARM GUAD GUSTAVO BAZ,,Tlalnepantla,ESTADO DE MEXICO,,MX,+52 800 833 4700,https://location.westernunion.com/mx/estado-de-mexico/tlalnepantla/34ac68082c13c034a0e3181fe853f7b8,Mo-Su 08:00-20:00,Western Union,Q861042
8df1e93d668b2aca32ff988615a15405,western_union,OXXO RADIAL MEX,,Tlalnepantla,ESTADO DE MEXICO,,MX,+52 81 8389 2121,https://location.westernunion.com/mx/estado-de-mexico/tlalnepantla/8df1e93d668b2aca32ff988615a15405,Mo-Su 08:00-22:00,Western Union,Q861042
9e715509ef1d722bf25237b7b27df2ee,western_union,OXXO RADIAL MEX,,Tlalnepantla,ESTADO DE MEXICO,,MX,+52 81 8389 2121,https://location.westernunion.com/mx/estado-de-mexico/tlalnepantla/9e715509ef1d722bf25237b7b27df2ee,Mo-Su 08:00-22:00,Western Union,Q861042
0e27f04b0777ec2ea47beccfd9f1d215,western_union,OXXO RADIAL MEX,,Tlalnepantla,ESTADO DE MEXICO,,MX,+52 81 8389 2121,https://location.westernunion.com/mx/estado-de-mexico/tlalnepantla/0e27f04b0777ec2ea47beccfd9f1d215,Mo-Su 08:00-22:00,Western Union,Q861042
4d846d1536e61a899778197feae57269,western_union,TIENDAS NETO LA ROMANA 1123,,Tlalnepantla,ESTADO DE MEXICO,,MX,+52 55 7577 4760,https://location.westernunion.com/mx/estado-de-mexico/tlalnepantla/4d846d1536e61a899778197feae57269,Mo-Su 07:00-22:00,Western Union,Q861042
48d62dd737bd00636b7b2c59b8bd68ec,western_union,TIENDAS NETO LA ROMANA 1123,,Tlalnepantla,ESTADO DE MEXICO,,MX,+52 55 7577 4760,https://location.westernunion.com/mx/estado-de-mexico/tlalnepantla/48d62dd737bd00636b7b2c59b8bd68ec,Mo-Su 07:00-22:00,Western Union,Q861042
ede61b823ebb69e09de6ddcdf4a444fb,western_union,TIENDAS NETO LA ROMANA 1123,,Tlalnepantla,ESTADO DE MEXICO,,MX,+52 55 7577 4760,https://location.westernunion.com/mx/estado-de-mexico/tlalnepantla/ede61b823ebb69e09de6ddcdf4a444fb,Mo-Su 07:00-22:00,Western Union,Q861042
a55a4b099de731e5dc9ec9891a01ff1d,western_union,AURRERA TLALNEPANTLA 3756,,Tlalnepantla,ESTADO DE MEXICO,,MX,+52 800 833 4700,https://location.westernunion.com/mx/estado-de-mexico/tlalnepantla/a55a4b099de731e5dc9ec9891a01ff1d,Mo-Su 07:00-23:00,Western Union,Q861042
373101eaa3d3563695874c133e586e96,western_union,AURRERA TLALNEPANTLA 3756,,Tlalnepantla,ESTADO DE MEXICO,,MX,+52 800 833 4700,https://location.westernunion.com/mx/estado-de-mexico/tlalnepantla/373101eaa3d3563695874c133e586e96,Mo-Su 07:00-23:00,Western Union,Q861042
f05f8ec052f3d4900d3a625a34b68c72,western_union,AURRERA TLALNEPANTLA 3756,,Tlalnepantla,ESTADO DE MEXICO,,MX,+52 800 833 4700,https://location.westernunion.com/mx/estado-de-mexico/tlalnepantla/f05f8ec052f3d4900d3a625a34b68c72,Mo-Su 07:00-23:00,Western Union,Q861042
ab89a6490249c2e7a9018fb218daab59,western_union,FARM GUAD GUSTAVO BAZ,,Tlalnepantla,ESTADO DE MEXICO,,MX,+52 800 833 4700,https://location.westernunion.com/mx/estado-de-mexico/tlalnepantla/ab89a6490249c2e7a9018fb218daab59,Mo-Su 08:00-20:00,Western Union,Q861042
922623cc7adfb571f0a91ec9d84517c7,western_union,OXXO SARABIA MEX,,Tlalnepantla,ESTADO DE MEXICO,,MX,+52 81 8389 2121,https://location.westernunion.com/mx/estado-de-mexico/tlalnepantla/922623cc7adfb571f0a91ec9d84517c7,Mo-Su 08:00-22:00,Western Union,Q861042
a0c5313a5c3ace63fee53eaebcb1a833,western_union,OXXO SARABIA MEX,,Tlalnepantla,ESTADO DE MEXICO,,MX,+52 81 8389 2121,https://location.westernunion.com/mx/estado-de-mexico/tlalnepantla/a0c5313a5c3ace63fee53eaebcb1a833,Mo-Su 08:00-22:00,Western Union,Q861042
8e0becc21eee9b9e6a5a0ebc89864553,western_union,OXXO SARABIA MEX,,Tlalnepantla,ESTADO DE MEXICO,,MX,+52 81 8389 2121,https://location.westernunion.com/mx/estado-de-mexico/tlalnepantla/8e0becc21eee9b9e6a5a0ebc89864553,Mo-Su 08:00-22:00,Western Union,Q861042
c0218d7c634adc7eaf7fc57d12dd4e4f,western_union,SORIANA ARBOLEDAS 959,,Tlalnepantla,ESTADO DE MEXICO,,MX,+52 800 555 6555,https://location.westernunion.com/mx/estado-de-mexico/tlalnepantla/c0218d7c634adc7eaf7fc57d12dd4e4f,Mo-Su 08:00-22:00,Western Union,Q861042
d760ee93e88ee7afdbe7478e6d143e2b,western_union,BANCOPPEL 0977 ARBOLEDAS,,Tlalnepantla,ESTADO DE MEXICO,,MX,+52 667 758 9999,https://location.westernunion.com/mx/estado-de-mexico/tlalnepantla/d760ee93e88ee7afdbe7478e6d143e2b,Mo-Sa 10:00-20:00; Su 10:00-19:00,Western Union,Q861042
33081f32041f7e7a488b5f61e3f567a4,western_union,BANCOPPEL 0977 ARBOLEDAS,,Tlalnepantla,ESTADO DE MEXICO,,MX,+52 667 758 9999,https://location.westernunion.com/mx/estado-de-mexico/tlalnepantla/33081f32041f7e7a488b5f61e3f567a4,Mo-Sa 10:00-20:00; Su 10:00-19:00,Western Union,Q861042
c02fb32e1bff0d2b4e90061b1971c6fe,western_union,MODATELAS 450 TLALNEPANTLA IVAP CASH,,Tlalnepantla,ESTADO DE MEXICO,,MX,(+52) 50816120,https://location.westernunion.com/mx/estado-de-mexico/tlalnepantla/c02fb32e1bff0d2b4e90061b1971c6fe,Mo-Su 07:00-21:00,Western Union,Q861042
f66143010cc1f0b6c923bb266f16b8a6,western_union,MODATELAS 450 TLALNEPANTLA IVAP CASH,,Tlalnepantla,ESTADO DE MEXICO,,MX,(+52) 54030,https://location.westernunion.com/mx/estado-de-mexico/tlalnepantla/f66143010cc1f0b6c923bb266f16b8a6,Mo-Su 07:00-21:00,Western Union,Q861042
f31f26765c9d8145f021aec2e40249f0,western_union,MODATELAS 450 TLALNEPANTLA IVAP CASH,,Tlalnepantla,ESTADO DE MEXICO,,MX,(+52) 50816120,https://location.westernunion.com/mx/estado-de-mexico/tlalnepantla/f31f26765c9d8145f021aec2e40249f0,Mo-Su 07:00-21:00,Western Union,Q861042
d00ad3cecb803762f72d3e9d4142b0a2,western_union,SORIANA ARBOLEDAS 959,,Tlalnepantla,ESTADO DE MEXICO,,MX,+52 800 555 6555,https://location.westernunion.com/mx/estado-de-mexico/tlalnepantla/d00ad3cecb803762f72d3e9d4142b0a2,Mo-Su 08:00-22:00,Western Union,Q861042
a0df147e08dfc31137e520b2fd35bc9c,western_union,SORIANA ARBOLEDAS 959,,Tlalnepantla,ESTADO DE MEXICO,,MX,+52 800 555 6555,https://location.westernunion.com/mx/estado-de-mexico/tlalnepantla/a0df147e08dfc31137e520b2fd35bc9c,Mo-Su 08:00-22:00,Western Union,Q861042
0bc1effa7522d63311befba65cd52807,western_union,OXXO Toltecas II MEX,,Tlalnepantla,ESTADO DE MEXICO,,MX,+52 81 8389 2121,https://location.westernunion.com/mx/estado-de-mexico/tlalnepantla/0bc1effa7522d63311befba65cd52807,Mo-Su 08:00-22:00,Western Union,Q861042
5c167c3c829df42d95e602c94252d138,western_union,EKT 9788 GUSTAVO BAZ TLALNEPANTLA,,Tlalnepantla,ESTADO DE MEXICO,,MX,+52 55 1720 8177,https://location.westernunion.com/mx/estado-de-mexico/tlalnepantla/5c167c3c829df42d95e602c94252d138,Mo-Su 09:00-21:00,Western Union,Q861042
dbc42d9ff6741eeded8a79b8ee4ea677,western_union,EKT 9788 GUSTAVO BAZ TLALNEPANTLA,,Tlalnepantla,ESTADO DE MEXICO,,MX,+52 55 1720 8177,https://location.westernunion.com/mx/estado-de-mexico/tlalnepantla/dbc42d9ff6741eeded8a79b8ee4ea677,Mo-Su 09:00-21:00,Western Union,Q861042
6cc6562be30ce648c9e3c78b77c75de3,western_union,EKT 9788 GUSTAVO BAZ TLALNEPANTLA,,Tlalnepantla,ESTADO DE MEXICO,,MX,+52 55 1720 8177,https://location.westernunion.com/mx/estado-de-mexico/tlalnepantla/6cc6562be30ce648c9e3c78b77c75de3,Mo-Su 09:00-21:00,Western Union,Q861042
86ec01f75777949dc4c258f553500675,western_union,FARM GUAD ALDAMA TLALNEPANTLA,,Tlalnepantla,ESTADO DE MEXICO,,MX,+52 800 833 4700,https://location.westernunion.com/mx/estado-de-mexico/tlalnepantla/86ec01f75777949dc4c258f553500675,Mo-Su 08:00-20:00,Western Union,Q861042
f56c7d9ad8ad610d0c0cd923dc0d1afd,western_union,FARM GUAD ALDAMA TLALNEPANTLA,,Tlalnepantla,ESTADO DE MEXICO,,MX,+52 800 833 4700,https://location.westernunion.com/mx/estado-de-mexico/tlalnepantla/f56c7d9ad8ad610d0c0cd923dc0d1afd,Mo-Su 08:00-20:00,Western Union,Q861042
472c72ba9ee5bf0f9ea638a1e661d2c7,western_union,FARM GUAD ALDAMA TLALNEPANTLA,,Tlalnepantla,ESTADO DE MEXICO,,MX,+52 800 833 4700,https://location.westernunion.com/mx/estado-de-mexico/tlalnepantla/472c72ba9ee5bf0f9ea638a1e661d2c7,Mo-Su 08:00-20:00,Western Union,Q861042
8a8711d2c69ddadbf3f7a4b73af2d8fb,western_union,OXXO SAN JAVIER MEX,,Tlalnepantla,ESTADO DE MEXICO,,MX,+52 81 8389 2121,https://location.westernunion.com/mx/estado-de-mexico/tlalnepantla/8a8711d2c69ddadbf3f7a4b73af2d8fb,Mo-Su 08:00-22:00,Western Union,Q861042
6232be9c5676627b87d73a032cf85ec9,western_union,OXXO SAN JAVIER MEX,,Tlalnepantla,ESTADO DE MEXICO,,MX,+52 81 8389 2121,https://location.westernunion.com/mx/estado-de-mexico/tlalnepantla/6232be9c5676627b87d73a032cf85ec9,Mo-Su 08:00-22:00,Western Union,Q861042
75f9c4f19bf29ad3c1a92815c5f534f2,western_union,OXXO BERRIOZABAL MEX,,Tlalnepantla,ESTADO DE MEXICO,,MX,+52 81 8389 2121,https://location.westernunion.com/mx/estado-de-mexico/tlalnepantla/75f9c4f19bf29ad3c1a92815c5f534f2,Mo-Su 08:00-22:00,Western Union,Q861042
b9a3fdfb0aba91927ffc0c0b179728d6,western_union,SUBURBIA 576 ARBOLEDAS,,Tlalnepantla,ESTADO DE MEXICO,,MX,+52 800 733 3300,https://location.westernunion.com/mx/estado-de-mexico/tlalnepantla/b9a3fdfb0aba91927ffc0c0b179728d6,Mo-Su 11:00-21:00,Western Union,Q861042
80f723bb3cf19c4dc34eff72bdc95ea1,western_union,SUBURBIA 576 ARBOLEDAS,,Tlalnepantla,ESTADO DE MEXICO,,MX,+52 800 733 3300,https://location.westernunion.com/mx/estado-de-mexico/tlalnepantla/80f723bb3cf19c4dc34eff72bdc95ea1,Mo-Su 11:00-21:00,Western Union,Q861042
50c55f6f2c0a095f54655f099f31a113,western_union,SUBURBIA 576 ARBOLEDAS,,Tlalnepantla,ESTADO DE MEXICO,,MX,+52 800 733 3300,https://location.westernunion.com/mx/estado-de-mexico/tlalnepantla/50c55f6f2c0a095f54655f099f31a113,Mo-Su 11:00-21:00,Western Union,Q861042
043958c84a86366addbdc4f8c6084d47,western_union,FARM GUAD BLVD DE MORELOS,,Tlalnepantla,ESTADO DE MEXICO,,MX,+52 800 833 4700,https://location.westernunion.com/mx/estado-de-mexico/tlalnepantla/043958c84a86366addbdc4f8c6084d47,Mo-Su 08:00-20:00,Western Union,Q861042
2800b392a3bbd234e77370383191cd33,western_union,FARM GUAD BLVD DE MORELOS,,Tlalnepantla,ESTADO DE MEXICO,,MX,+52 800 833 4700,https://location.westernunion.com/mx/estado-de-mexico/tlalnepantla/2800b392a3bbd234e77370383191cd33,Mo-Su 08:00-20:00,Western Union,Q861042
d26d3e3ebdaa11c6c57ad06cc46d7391,western_union,FARM GUAD BLVD DE MORELOS,,Tlalnepantla,ESTADO DE MEXICO,,MX,+52 800 833 4700,https://location.westernunion.com/mx/estado-de-mexico/tlalnepantla/d26d3e3ebdaa11c6c57ad06cc46d7391,Mo-Su 08:00-20:00,Western Union,Q861042
9989b6e4d366d0de1b2923d2c00fcf3e,western_union,WALMART MULTIPLAZA ARBOLEDAS 1169,,Tlalnepantla,ESTADO DE MEXICO,,MX,+52 800 833 4700,https://location.westernunion.com/mx/estado-de-mexico/tlalnepantla/9989b6e4d366d0de1b2923d2c00fcf3e,Mo-Su 07:00-23:00,Western Union,Q861042
8a407842618ac781bd1b7acdf4f1a94c,western_union,WALMART MULTIPLAZA ARBOLEDAS 1169,,Tlalnepantla,ESTADO DE MEXICO,,MX,+52 800 833 4700,https://location.westernunion.com/mx/estado-de-mexico/tlalnepantla/8a407842618ac781bd1b7acdf4f1a94c,Mo-Su 07:00-23:00,Western Union,Q861042
06bbe77d170a7dcf439e121e59d7bcd6,western_union,WALMART MULTIPLAZA ARBOLEDAS 1169,,Tlalnepantla,ESTADO DE MEXICO,,MX,+52 800 833 4700,https://location.westernunion.com/mx/estado-de-mexico/tlalnepantla/06bbe77d170a7dcf439e121e59d7bcd6,Mo-Su 07:00-23:00,Western Union,Q861042
d9279481cf660073d3f26c9321d429c2,western_union,OXXO HIDALGO MEX,,Tlalnepantla,ESTADO DE MEXICO,,MX,+52 81 8389 2121,https://location.westernunion.com/mx/estado-de-mexico/tlalnepantla/d9279481cf660073d3f26c9321d429c2,Mo-Su 08:00-22:00,Western Union,Q861042
6741bf006d323c14fe00963a671288ae,western_union,OXXO HIDALGO MEX,,Tlalnepantla,ESTADO DE MEXICO,,MX,+52 81 8389 2121,https://location.westernunion.com/mx/estado-de-mexico/tlalnepantla/6741bf006d323c14fe00963a671288ae,Mo-Su 08:00-22:00,Western Union,Q861042
5b4272a5bee8f7642c8af98b02a81404,western_union,OXXO HIDALGO MEX,,Tlalnepantla,ESTADO DE MEXICO,,MX,+52 81 8389 2121,https://location.westernunion.com/mx/estado-de-mexico/tlalnepantla/5b4272a5bee8f7642c8af98b02a81404,Mo-Su 08:00-22:00,Western Union,Q861042
e4757c51ed6c3cb5a61f8312ad93b952,western_union,OXXO BERRIOZABAL MEX,,Tlalnepantla,ESTADO DE MEXICO,,MX,+52 81 8389 2121,https://location.westernunion.com/mx/estado-de-mexico/tlalnepantla/e4757c51ed6c3cb5a61f8312ad93b952,Mo-Su 08:00-22:00,Western Union,Q861042
3833535b1737e73b34cdb701414ec24e,western_union,OXXO FULTON MEX,,Tlalnepantla,ESTADO DE MEXICO,,MX,+52 81 8389 2121,https://location.westernunion.com/mx/estado-de-mexico/tlalnepantla/3833535b1737e73b34cdb701414ec24e,Mo-Su 08:00-22:00,Western Union,Q861042
6754c33d4c6d10d17726c4c18d6390e6,western_union,OXXO FULTON MEX,,Tlalnepantla,ESTADO DE MEXICO,,MX,+52 81 8389 2121,https://location.westernunion.com/mx/estado-de-mexico/tlalnepantla/6754c33d4c6d10d17726c4c18d6390e6,Mo-Su 08:00-22:00,Western Union,Q861042
2ee1ec59fd6f51997948d9c0c3281f48,western_union,7ELEVEN GUSTAVO BAS ESQ FILIBERTO 1254,,Tlalnepantla,ESTADO DE MEXICO,,MX,+52 800 833 4700,https://location.westernunion.com/mx/estado-de-mexico/tlalnepantla/2ee1ec59fd6f51997948d9c0c3281f48,Mo-Su 06:00-22:00,Western Union,Q861042
f9d614515d38d338cfa6ab1a1d863b5c,western_union,7ELEVEN GUSTAVO BAS ESQ FILIBERTO 1254,,Tlalnepantla,ESTADO DE MEXICO,,MX,+52 800 833 4700,https://location.westernunion.com/mx/estado-de-mexico/tlalnepantla/f9d614515d38d338cfa6ab1a1d863b5c,Mo-Su 06:00-22:00,Western Union,Q861042
aff31b2890a646f3b24489f0f708216a,western_union,7ELEVEN GUSTAVO BAS ESQ FILIBERTO 1254,,Tlalnepantla,ESTADO DE MEXICO,,MX,+52 800 833 4700,https://location.westernunion.com/mx/estado-de-mexico/tlalnepantla/aff31b2890a646f3b24489f0f708216a,Mo-Su 06:00-22:00,Western Union,Q861042
81b4cc913ad7bd6a8e27bdb28ff47409,western_union,TELECOMM 15050,,Tlalnepantla,ESTADO DE MEXICO,,MX,+52 800 800 9889,https://location.westernunion.com/mx/estado-de-mexico/tlalnepantla/81b4cc913ad7bd6a8e27bdb28ff47409,Mo-Fr 09:00-15:00,Western Union,Q861042
a23e666223d19d9fe95243771b8e9f94,western_union,TELECOMM 15050,,Tlalnepantla,ESTADO DE MEXICO,,MX,+52 800 800 8930,https://location.westernunion.com/mx/estado-de-mexico/tlalnepantla/a23e666223d19d9fe95243771b8e9f94,Mo-Su 09:00-20:00,Western Union,Q861042
62a2572b91c88ebe66b280e34ebcf7ae,western_union,TELECOMM 15050,,Tlalnepantla,ESTADO DE MEXICO,,MX,+52 800 800 8930,https://location.westernunion.com/mx/estado-de-mexico/tlalnepantla/62a2572b91c88ebe66b280e34ebcf7ae,Mo-Sa 08:00-20:00,Western Union,Q861042
dd3cc9227c852b5642d416764a87a1ba,western_union,WALMART PORTAL TLALNEPANTLA 3511,,Tlalnepantla,ESTADO DE MEXICO,,MX,+52 800 833 4700,https://location.westernunion.com/mx/estado-de-mexico/tlalnepantla/dd3cc9227c852b5642d416764a87a1ba,Mo-Su 07:00-22:00,Western Union,Q861042
228e7fa7cca6a7b8d859b7836f283fc9,western_union,OXXO MARIO COLIN MEX,,Tlalnepantla,ESTADO DE MEXICO,,MX,+52 81 8389 2121,https://location.westernunion.com/mx/estado-de-mexico/tlalnepantla/228e7fa7cca6a7b8d859b7836f283fc9,Mo-Su 08:00-22:00,Western Union,Q861042
a7a096c6228dd5b8a80712bf6e884f62,western_union,OXXO Mario Colin MEX,,Tlalnepantla,ESTADO DE MEXICO,,MX,+52 81 8389 2121,https://location.westernunion.com/mx/estado-de-mexico/tlalnepantla/a7a096c6228dd5b8a80712bf6e884f62,Mo-Su 08:00-22:00,Western Union,Q861042
feb4ae890a7ef8498455c41b9e570da7,western_union,OXXO MARIO COLIN MEX,,Tlalnepantla,ESTADO DE MEXICO,,MX,+52 81 8389 2121,https://location.westernunion.com/mx/estado-de-mexico/tlalnepantla/feb4ae890a7ef8498455c41b9e570da7,Mo-Su 08:00-22:00,Western Union,Q861042
97312de17f78e371550734283d34c50d,western_union,WALMART PORTAL TLALNEPANTLA 3511,,Tlalnepantla,ESTADO DE MEXICO,,MX,+52 800 833 4700,https://location.westernunion.com/mx/estado-de-mexico/tlalnepantla/97312de17f78e371550734283d34c50d,Mo-Su 07:00-22:00,Western Union,Q861042
