Ref,Spider,Name,Address,City,State,Zipcode,Country,Phone,Website,Hours,Brand,WikiData
21446,citi,SORIANA REV 2,,Torreon,COAHUILA,,MX,+52 800 110 3990,,,Citibank,Q857063
18760,citi,CAMPESTRE ROSITA 1,,Torreon,COAHUILA,,MX,+52 800 110 3990,,,Citibank,Q857063
18869,citi,SAB LA ROSITA,,Torreon,COAHUILA,,MX,+52 800 110 3990,,,Citibank,Q857063
21445,citi,ALSUPER LA ROSITA,,Torreon,COAHUILA,,MX,+52 800 110 3990,,,Citibank,Q857063
705,first_cash,First Cash Pawn,,Torreón,Coahuila,,MX,+52 871 720 5198,,,First Cash Pawn,
,visa,,,TORREON,COAHUILA,,MX,,,,,
,visa,,,TORREON,COAHUILA,,MX,,,,,
,visa,,,TORREON,COAHUILA,,MX,,,,,
,visa,,,TORREON,COAHUILA,,MX,,,,,
,visa,,,TORREÓN,COAHUILA,,MX,,,,,
,visa,,,TORREON,COAHUILA,,MX,,,,,
,visa,,,TORREON,COAHUILA,,MX,,,,,
,visa,,,TORREÓN,COAHUILA,,MX,,,,,
,visa,,,TORREON,COAHUILA,,MX,,,,,
,visa,,,TORREON,COAHUILA,,MX,,,,,
,visa,,,TORREON,COAHUILA,,MX,,,,,
,visa,,,TORREON,COAHUILA,,MX,,,,,
,visa,,,TORREÓN,COAHUILA,,MX,,,,,
,visa,,,TORREON,COAHUILA,,MX,,,,,
,visa,,,TORREON,COAHUILA,,MX,,,,,
676d9a42cc7ba39fdad5d1784beeb716,western_union,OXXO DIAGLAS FUENTES TRC,,Torreon,COAHUILA,,MX,+52 81 8389 2121,https://location.westernunion.com/mx/coahuila/torreon/676d9a42cc7ba39fdad5d1784beeb716,Mo-Su 08:00-22:00,Western Union,Q861042
fc9ac7fe952844812c5bda68b8353c2f,western_union,OXXO DIAGLAS FUENTES TRC,,Torreon,COAHUILA,,MX,+52 81 8389 2121,https://location.westernunion.com/mx/coahuila/torreon/fc9ac7fe952844812c5bda68b8353c2f,Mo-Su 08:00-22:00,Western Union,Q861042
16262f95dd2ed0056416273ac0fa9f93,western_union,OXXO PRIMAVERA TRC,,Torreon,COAHUILA,,MX,+52 81 8389 2121,https://location.westernunion.com/mx/coahuila/torreon/16262f95dd2ed0056416273ac0fa9f93,Mo-Su 08:00-22:00,Western Union,Q861042
dfd4c56aee9b329ff9d29f42652ce03e,western_union,OXXO PRIMAVERA TRC,,Torreon,COAHUILA,,MX,+52 81 8389 2121,https://location.westernunion.com/mx/coahuila/torreon/dfd4c56aee9b329ff9d29f42652ce03e,Mo-Su 08:00-22:00,Western Union,Q861042
cd52b53be1356b9d672307c0f68bdf63,western_union,FARM GUAD DIAGONAL LAS FUENTES TORREON,,Torreon,COAHUILA,,MX,+52 800 833 4700,https://location.westernunion.com/mx/coahuila/torreon/cd52b53be1356b9d672307c0f68bdf63,Mo-Su 08:00-20:00,Western Union,Q861042
c9dd9e5f0f7afb02c79aeb7b344b86a6,western_union,FARM GUAD DIAGONAL LAS FUENTES TORREON,,Torreon,COAHUILA,,MX,+52 800 833 4700,https://location.westernunion.com/mx/coahuila/torreon/c9dd9e5f0f7afb02c79aeb7b344b86a6,Mo-Su 08:00-20:00,Western Union,Q861042
580ba91dc88b9ec6dc0380cbe884bb58,western_union,FARM GUAD PASEOS DE LA ROSITA TORREON,,Torreon,COAHUILA,,MX,+52 800 833 4700,https://location.westernunion.com/mx/coahuila/torreon/580ba91dc88b9ec6dc0380cbe884bb58,Mo-Su 08:00-20:00,Western Union,Q861042
cccc17c3793d7490b51763873dfe6a36,western_union,FARM GUAD PASEOS DE LA ROSITA TORREON,,Torreon,COAHUILA,,MX,+52 800 833 4700,https://location.westernunion.com/mx/coahuila/torreon/cccc17c3793d7490b51763873dfe6a36,Mo-Su 08:00-20:00,Western Union,Q861042
7c11ab2e78ddc1936a1bfe2fa963f9a3,western_union,FARM GUAD PASEOS DE LA ROSITA TORREON,,Torreon,COAHUILA,,MX,+52 800 833 4700,https://location.westernunion.com/mx/coahuila/torreon/7c11ab2e78ddc1936a1bfe2fa963f9a3,Mo-Su 08:00-20:00,Western Union,Q861042
0ced201bee40b8dbcbcb9243b23bcc4d,western_union,WALDOS ROSITA TORREON COAH 6305,,Torreon,COAHUILA,,MX,+52 55 5246 0700,https://location.westernunion.com/mx/coahuila/torreon/0ced201bee40b8dbcbcb9243b23bcc4d,Mo-Su 06:30-23:30,Western Union,Q861042
14e8c1cf356eedad1162baee76325b0a,western_union,OXXO SALTILLO 400 SUR TRC,,Torreon,COAHUILA,,MX,+52 81 8389 2121,https://location.westernunion.com/mx/coahuila/torreon/14e8c1cf356eedad1162baee76325b0a,Mo-Su 08:00-22:00,Western Union,Q861042
cb157aed583252181f4fe5a638f06cee,western_union,OXXO SALTILLO 400 SUR TRC,,Torreon,COAHUILA,,MX,+52 81 8389 2121,https://location.westernunion.com/mx/coahuila/torreon/cb157aed583252181f4fe5a638f06cee,Mo-Su 08:00-22:00,Western Union,Q861042
02f3a382d0f909da37b0b0f129f289a1,western_union,OXXO SALTILLO 400 SUR TRC,,Torreon,COAHUILA,,MX,+52 81 8389 2121,https://location.westernunion.com/mx/coahuila/torreon/02f3a382d0f909da37b0b0f129f289a1,Mo-Su 08:00-22:00,Western Union,Q861042
963d2a4f6d0187d38fcac3d473226fcc,western_union,OXXO CALVOS TRC,,Torreon,COAHUILA,,MX,+52 81 8389 2121,https://location.westernunion.com/mx/coahuila/torreon/963d2a4f6d0187d38fcac3d473226fcc,Mo-Su 08:00-22:00,Western Union,Q861042
229dee2bb312f99615146f02430d6006,western_union,OXXO CALVOS TRC,,Torreon,COAHUILA,,MX,+52 81 8389 2121,https://location.westernunion.com/mx/coahuila/torreon/229dee2bb312f99615146f02430d6006,Mo-Su 08:00-22:00,Western Union,Q861042
3912d8a04185e3058b07bb99406f0e92,western_union,OXXO CALVOS TRC,,Torreon,COAHUILA,,MX,+52 81 8389 2121,https://location.westernunion.com/mx/coahuila/torreon/3912d8a04185e3058b07bb99406f0e92,Mo-Su 08:00-22:00,Western Union,Q861042
67fd708dc51f2e19deeb3ade9421bd63,western_union,FARM GUAD PASEO DEL TECNOLOGICO TORREON,,Torreon,COAHUILA,,MX,+52 800 833 4700,https://location.westernunion.com/mx/coahuila/torreon/67fd708dc51f2e19deeb3ade9421bd63,Mo-Su 08:00-20:00,Western Union,Q861042
e6628552cae793d718dbe001f60c7250,western_union,FARM GUAD PASEO DEL TECNOLOGICO TORREON,,Torreon,COAHUILA,,MX,+52 800 833 4700,https://location.westernunion.com/mx/coahuila/torreon/e6628552cae793d718dbe001f60c7250,Mo-Su 08:00-20:00,Western Union,Q861042
becf3a9090c5d9073dd22c48177230bf,western_union,FARM GUAD PASEO DEL TECNOLOGICO TORREON,,Torreon,COAHUILA,,MX,+52 800 833 4700,https://location.westernunion.com/mx/coahuila/torreon/becf3a9090c5d9073dd22c48177230bf,Mo-Su 08:00-20:00,Western Union,Q861042
b8204d5a564f624b1e135aafc1fe7b37,western_union,OXXO ESTRELLA TRC,,Torreon,COAHUILA,,MX,+52 81 8389 2121,https://location.westernunion.com/mx/coahuila/torreon/b8204d5a564f624b1e135aafc1fe7b37,Mo-Su 08:00-22:00,Western Union,Q861042
74e190aa22e1c54be91700840e2b700a,western_union,OXXO ESTRELLA TRC,,Torreon,COAHUILA,,MX,+52 81 8389 2121,https://location.westernunion.com/mx/coahuila/torreon/74e190aa22e1c54be91700840e2b700a,Mo-Su 08:00-22:00,Western Union,Q861042
282050f90d0aa7f46ea90184b9ddd39a,western_union,OXXO ESTRELLA TRC,,Torreon,COAHUILA,,MX,+52 81 8389 2121,https://location.westernunion.com/mx/coahuila/torreon/282050f90d0aa7f46ea90184b9ddd39a,Mo-Su 08:00-22:00,Western Union,Q861042
856a4aa66411046557c5b1524f0464fb,western_union,FARM GUAD SALTILLO TORREON,,Torreon,COAHUILA,,MX,+52 800 833 4700,https://location.westernunion.com/mx/coahuila/torreon/856a4aa66411046557c5b1524f0464fb,Mo-Su 08:00-20:00,Western Union,Q861042
f30d2260481ac7637eca496173f9302a,western_union,FARM GUAD SALTILLO TORREON,,Torreon,COAHUILA,,MX,+52 800 833 4700,https://location.westernunion.com/mx/coahuila/torreon/f30d2260481ac7637eca496173f9302a,Mo-Su 08:00-20:00,Western Union,Q861042
7667e71daacf5fb94a78a89f307d835f,western_union,FARM GUAD SALTILLO TORREON,,Torreon,COAHUILA,,MX,+52 800 833 4700,https://location.westernunion.com/mx/coahuila/torreon/7667e71daacf5fb94a78a89f307d835f,Mo-Su 08:00-20:00,Western Union,Q861042
07f6ee4819b1b9747392c427e05e5c1a,western_union,BANORTE 00194 TORREON CAMPESTRE,,Torreon,COAHUILA,,MX,+52 800 833 4700,https://location.westernunion.com/mx/coahuila/torreon/07f6ee4819b1b9747392c427e05e5c1a,Mo-Sa 09:00-17:00,Western Union,Q861042
e674304dd4ad8739fd64532e75053258,western_union,SORIANA FUNDADORES 41,,Torreon,COAHUILA,,MX,+52 800 555 6555,https://location.westernunion.com/mx/coahuila/torreon/e674304dd4ad8739fd64532e75053258,Mo-Su 08:00-22:00,Western Union,Q861042
5dc10d1ee022fa484cb1dfde8bfc0c6a,western_union,ALSUPER LA ROSITA AP CASH,,Torreon,COAHUILA,,MX,+52 871 277 9346,https://location.westernunion.com/mx/coahuila/torreon/5dc10d1ee022fa484cb1dfde8bfc0c6a,Mo-Su 07:00-22:00,Western Union,Q861042
541b6876f0a17df4072053a6321dc0f3,western_union,ALSUPER LA ROSITA AP CASH,,Torreon,COAHUILA,,MX,+52 871 277 9346,https://location.westernunion.com/mx/coahuila/torreon/541b6876f0a17df4072053a6321dc0f3,Mo-Su 07:00-22:00,Western Union,Q861042
ca284ef881ce3f206a0f7cfd872e3cd8,western_union,ALSUPER LA ROSITA AP CASH,,Torreon,COAHUILA,,MX,+52 871 277 9346,https://location.westernunion.com/mx/coahuila/torreon/ca284ef881ce3f206a0f7cfd872e3cd8,Mo-Su 07:00-22:00,Western Union,Q861042
5fcca9c0f5e1489805bffc0b77c10bec,western_union,OXXO LA ROSITA TRC,,Torreon,COAHUILA,,MX,+52 81 8389 2121,https://location.westernunion.com/mx/coahuila/torreon/5fcca9c0f5e1489805bffc0b77c10bec,Mo-Su 08:00-22:00,Western Union,Q861042
3f30c70ac2da39bd4402234ffdcf9b4b,western_union,OXXO LA ROSITA TRC,,Torreon,COAHUILA,,MX,+52 81 8389 2121,https://location.westernunion.com/mx/coahuila/torreon/3f30c70ac2da39bd4402234ffdcf9b4b,Mo-Su 08:00-22:00,Western Union,Q861042
cac62a2acee0cb32b19710d66a5c76b8,western_union,OXXO LA ROSITA TRC,,Torreon,COAHUILA,,MX,+52 81 8389 2121,https://location.westernunion.com/mx/coahuila/torreon/cac62a2acee0cb32b19710d66a5c76b8,Mo-Su 08:00-22:00,Western Union,Q861042
a7bee0802a1f64a93f1b947190163f09,western_union,OXXO PASEO DEL LAGO LGA,,Torreon,COAHUILA,,MX,+52 81 8389 2121,https://location.westernunion.com/mx/coahuila/torreon/a7bee0802a1f64a93f1b947190163f09,Mo-Su 08:00-22:00,Western Union,Q861042
9340dc3142457a173083386b70cc3b02,western_union,OXXO PASEO DEL LAGO LGA,,Torreon,COAHUILA,,MX,+52 81 8389 2121,https://location.westernunion.com/mx/coahuila/torreon/9340dc3142457a173083386b70cc3b02,Mo-Su 08:00-22:00,Western Union,Q861042
a0f4fc74db6d28139fee5dfa9431d40d,western_union,OXXO PASEO DEL LAGO LGA,,Torreon,COAHUILA,,MX,+52 81 8389 2121,https://location.westernunion.com/mx/coahuila/torreon/a0f4fc74db6d28139fee5dfa9431d40d,Mo-Su 08:00-22:00,Western Union,Q861042
