Ref,Spider,Name,Address,City,State,Zipcode,Country,Phone,Website,Hours,Brand,WikiData
237911,bluerhino,Circle K #2740119,,San Antonio,TX,,US,+1 210-534-4101,,,Blue Rhino,Q65681213
2038328,chase_us,Highland Park San Antonio - New branch - Newly renovated,,San Antonio,TX,,US,+1 210-531-2093,https://locator.chase.com/tx/san-antonio/512-e-highland-blvd,Mo-Fr 09:00-17:00,Chase,Q524629
352455,chevron,Chevron Station #352455,2819 SOUTH NEW BRAUNFELS,SAN ANTONIO,TX,,US,,,,Chevron,Q319642
1209-steves-avenue,churchs_chicken,Steves Avenue,,San Antonio,TX,,US,+1 210-532-9112,https://locations.churchs.com/tx/san-antonio/1209-steves-avenue,,Church's Chicken,Q1089932
70096149,cricket_wireless,Cricket Wireless Authorized Retailer,,San Antonio,TX,,US,+1 210-532-7752,https://www.cricketwireless.com/stores/ll/US/TX/San-Antonio/1818-S-New-Braunfels-Ave,Mo-Sa 10:00-19:00; Su 12:00-17:00,Cricket Wireless,Q5184987
1952,eightyfour_lumber_us,SAN ANTONIO,,SAN ANTONIO,TX,,US,+1 210-534-0990,https://www.84lumber.com/store-locator/store-detail/?storeId=1952,Mo-Fr 07:00-17:00,84 Lumber,Q4644779
27077,family_dollar_us,FAMILY DOLLAR #7077,,San Antonio,TX,,US,+1 210-536-7993,https://www.familydollar.com/locations/tx/san-antonio/27077/,Mo-Sa 09:00-22:00; Su 09:00-21:00,Family Dollar,Q5433101
south-alamo-lot,indigo,South Alamo Lot,,San Antonio,TX,,US,+1 210-381-9967,,,Indigo,Q3559970
frolic-detour-lot,indigo,Frolic & Detour Lot,,San Antonio,TX,,US,+1 210-226-0114,,,Indigo,Q3559970
110449,little_free_library,DAR Blessed Sacrament Academy Library #110449 San Antonio TX,,San Antonio,TX,,US,,,,Little Free Library,Q6650101
110332,little_free_library,Blessed Sacrament Academy #110332 San Antonio TX,,San Antonio,TX,,US,,,,Little Free Library,Q6650101
108452,little_free_library,Benita Street Little Free Library #108452 San Antonio TX,,San Antonio,TX,,US,,,,Little Free Library,Q6650101
15957,little_free_library,Briones Community Biblioteca #15957 San Antonio TX,,San Antonio,TX,,US,,,,Little Free Library,Q6650101
12443,little_free_library,Heather Gayle #12443 San Antonio TX,,San Antonio,TX,,US,,,,Little Free Library,Q6650101
145397,little_free_library,Denver Heights Little Library #145397 San Antonio TX,,San Antonio,TX,,US,,,,Little Free Library,Q6650101
75270,little_free_library,wheelchair-accessible at bus stop 62813 #75270 San Antonio TX,,San Antonio,TX,,US,,,,Little Free Library,Q6650101
36347,little_free_library,San Antonio Parks and Recreation #36347 San Antonio TX,,San Antonio,TX,,US,,,,Little Free Library,Q6650101
tx_san-antonio_2035-s-hackberry,pizza_hut_us,2035 S Hackberry,,San Antonio,TX,,US,+1 210-532-8042,https://locations.pizzahut.com/tx/san-antonio/2035-s-hackberry,,Pizza Hut,Q191615
https://www.publicstorage.com/self-storage-tx-san-antonio/620.html,public_storage_us,Public Storage,,San Antonio,TX,,US,+1 210-294-5202,https://www.publicstorage.com/self-storage-tx-san-antonio/620.html,,Public Storage,Q1156045
https://restaurants.subway.com/#14903410,subway,Subway,,San Antonio Bexar,TX,,US,+1 210-236-9001,https://restaurants.subway.com/united-states/tx/san-antonio/1315-s-st-mary's-st,Mo-Th 07:30-21:00; Fr-Su 09:00-21:00,Subway,Q244457
0298055500,sunoco_us,Sunoco,,SAN ANTONIO,TX,,US,+1 240-672-0165,,Mo-Su 06:00-00:00,Sunoco,Q1423218
1365907,usps,HACKBERRY,,SAN ANTONIO,TX,,US,+1 210-534-3861,,Mo-Fr 08:30-17:00; Sa 08:30-12:00,United States Postal Service,Q668687
7821000029,usps_collection_boxes,USPS COLLECTION BOX - BLUE BOX,600 MISSION RD,SAN ANTONIO,TX,,US,,,,United States Postal Service,Q668687
7821000034,usps_collection_boxes,USPS COLLECTION BOX - BLUE BOX,141 LAVACA ST,SAN ANTONIO,TX,,US,,,,United States Postal Service,Q668687
7821000039,usps_collection_boxes,USPS COLLECTION BOX - BLUE BOX,2000 S HACKBERRY,SAN ANTONIO,TX,,US,,,,United States Postal Service,Q668687
7821000040,usps_collection_boxes,USPS COLLECTION BOX - BLUE BOX,2000 S HACKBERRY,SAN ANTONIO,TX,,US,,,,United States Postal Service,Q668687
7821000044,usps_collection_boxes,USPS COLLECTION BOX - PO LOBBY,2000 S HACKBERRY,SAN ANTONIO,TX,,US,,,,United States Postal Service,Q668687
0000027640,valero,Stop n Joy,,San Antonio,TX,,US,,https://locations.valero.com/en-us/LocationDetails/Index/1902-RIGSBY-AVE/0000027640,,Valero,Q1283291
,visa,,,SAN ANTONIO,TX,,US,,,,,
,visa,,,SAN ANTONIO,TX,,US,,,,,
,visa,,,SAN ANTONIO,TX,,US,,,,,
,visa,,,SAN ANTONIO,TX,,US,,,,,
,visa,,,SAN ANTONIO,TX,,US,,,,,
,visa,,,SAN ANTONIO,TX,,US,,,,,
,visa,,,SAN ANTONIO,TX,,US,,,,,
,visa,,,SAN ANTONIO,TX,,US,,,,,
,visa,,,SAN ANTONIO,TX,,US,,,,,
,visa,,,SAN ANTONIO,TX,,US,,,,,
,visa,,,SAN ANTONIO,TX,,US,,,,,
,visa,,,SAN ANTONIO,TX,,US,,,,,
,visa,,,SAN ANTONIO,TX,,US,,,,,
,visa,,,"SAN ANTONIO,",TX,,US,,,,,
,visa,,,SAN ANTONIO,TX,,US,,,,,
,visa,,,SAN ANTONIO,TX,,US,,,,,
,visa,,,SAN ANTANIO,TX,,US,,,,,
,visa,,,SAN ANTONIO,TX,,US,,,,,
,visa,,,SAN ANTONIO,TX,,US,,,,,
,visa,,,SAN ANTONIO,TX,,US,,,,,
,visa,,,SAN ANTONIO,TX,,US,,,,,
,visa,,,SAN ANTONIO,TX,,US,,,,,
,visa,,,SAN ANTONIO,TX,,US,,,,,
,visa,,,SAN ANTONIO,TX,,US,,,,,
,visa,,,SAN ANTONIO,TX,,US,,,,,
,visa,,,SAN ANTONIO,TX,,US,,,,,
,visa,,,SAN ANTONIO,TX,,US,,,,,
,visa,,,"SAN ANTONIO,",TX,,US,,,,,
,visa,,,SAN ANTONIO,TX,,US,,,,,
,visa,,,SAN ANTONIO,TX,,US,,,,,
,visa,,,SAN ANTONIO,TX,,US,,,,,
,visa,,,SAN ANTONIO,TX,,US,,,,,
,visa,,,SAN ANTONIO,TX,,US,,,,,
,visa,,,SAN ANTONIOÂ ,TX,,US,,,,,
,visa,,,SAN ANTONIO,TX,,US,,,,,
,visa,,,SAN ANTONIO,TX,,US,,,,,
,visa,,,SAN ANTONIO,TX,,US,,,,,
,visa,,,SAN ANTONIO,TX,,US,,,,,
,visa,,,SAN ANTONIO,TX,,US,,,,,
,visa,,,SAN ANTONIO,TX,,US,,,,,
,visa,,,SAN ANTONIO,TX,,US,,,,,
,visa,,,SAN ANTONIO,TX,,US,,,,,
,visa,,,SAN ANTONIO,TX,,US,,,,,
,visa,,,SAN ANTONIO,TX,,US,,,,,
,visa,,,SAN ANTONIO,TX,,US,,,,,
,visa,,,SAN ANTONIO,TX,,US,,,,,
,visa,,,SAN ANTONIO,TX,,US,,,,,
,visa,,,SAN ANTONIO,TX,,US,,,,,
,visa,,,SAN ANTONIO,TX,,US,,,,,
,visa,,,SAN ANTONIO,TX,,US,,,,,
,visa,,,SAN ANTONIO,TX,,US,,,,,
,visa,,,SAN ANTONIO,TX,,US,,,,,
,visa,,,SAN ANTONIO,TX,,US,,,,,
,visa,,,SAN ANTONIO,TX,,US,,,,,
,visa,,,SAN ANTONIO,TX,,US,,,,,
,visa,,,SAN ANTONIO,TX,,US,,,,,
,visa,,,SAN ANTONIO,TX,,US,,,,,
,visa,,,SAN ANTONIO,TX,,US,,,,,
,visa,,,SAN ANTONIO,TX,,US,,,,,
,visa,,,SAN ANTONIO,TX,,US,,,,,
,visa,,,SAN ANTONIO,TX,,US,,,,,
,visa,,,SAN ANTONIO,TX,,US,,,,,
,visa,,,SAN ANTONIO,TX,,US,,,,,
,visa,,,SAN ANTONIO,TX,,US,,,,,
,visa,,,SAN ANTONIO,TX,,US,,,,,
,visa,,,SAN ANTONIO,TX,,US,,,,,
,visa,,,SAN ANTONIO,TX,,US,,,,,
,visa,,,SAN ANTONIO,TX,,US,,,,,
,visa,,,SAN ANTONIO,TX,,US,,,,,
,visa,,,SAN ANTONIO,TX,,US,,,,,
,visa,,,SAN ANTONIO,TX,,US,,,,,
,visa,,,SAN ANTONIO,TX,,US,,,,,
1edc36dd5e42069f14bb83edabbfc99f,western_union,E-Z MART #4384,,San Antonio,TX,,US,+1 210-534-7001,https://location.westernunion.com/us/tx/san-antonio/1edc36dd5e42069f14bb83edabbfc99f,Mo-Su 08:00-20:00,Western Union,Q861042
https://locations.whataburger.com/tx/san-antonio/303-roland-rd.html,whataburger,Roland & I10,303 ROLAND RD,SAN ANTONIO,TX,,US,,https://locations.whataburger.com/tx/san-antonio/303-roland-rd.html,,Whataburger,Q376627
https://locations.whataburger.com/tx/san-antonio/1118-roosevelt-ave.html,whataburger,Roosevelt & Steves,1118 ROOSEVELT AVE,SAN ANTONIO,TX,,US,,https://locations.whataburger.com/tx/san-antonio/1118-roosevelt-ave.html,,Whataburger,Q376627
