Ref,Spider,Name,Address,City,State,Zipcode,Country,Phone,Website,Hours,Brand,WikiData
Ahern San Antonio,ahern,Ahern San Antonio,,San Antonio,TX,,US,+1 210-757-0320,,,Ahern Rentals,Q114487657
https://www.averitt.com/locations/texas/san-antonio,averitt,San Antonio Service Center,,San Antonio,TX,,US,+1 800-283-7488,https://www.averitt.com/locations/texas/san-antonio,,Averitt Express,Q4828320
237905,bluerhino,Circle K #2741030,,San Antonio,TX,,US,+1 210-299-1525,,,Blue Rhino,Q65681213
185081,bluerhino,Right Choice Food Mart (Forever Ent),,San Antonio,TX,,US,+1 210-337-8813,,,Blue Rhino,Q65681213
172105,bluerhino,Family Dollar #06169,,San Antonio,TX,,US,+1 210-666-1611,,,Blue Rhino,Q65681213
237919,bluerhino,Circle K #2742301,,San Antonio,TX,,US,+1 210-661-2224,,,Blue Rhino,Q65681213
90498,bluerhino,Pilot Travel #306,,San Antonio,TX,,US,+1 210-661-5353,,,Blue Rhino,Q65681213
816,buffalo_wild_wings_us,"Buffalo Wild Wings GO - San Antonio, TX - North Foster Rd.",,San Antonio,TX,,US,+1 210-942-2605,https://www.buffalowildwings.com/locations/us/tx/san-antonio/4230-north-foster-road/sports-bar-1640,Mo-Th 11:00-23:00; Fr-Sa 11:00-24:00; Su 11:00-23:00,Buffalo Wild Wings,Q509255
SANATXMF,builders_firstsource_us,Noltex San Antonio TX Truss,,San Antonio,TX,,US,+1 726-208-2285,https://www.bldr.com/location/noltex-san-antonio-tx-truss/SANATXMF,Mo-Fr 08:00-17:00,Builders FirstSource,Q27686100
108579,chevron,Chevron Station #108579,103 NW WW WHITE RD,SAN ANTONIO,TX,,US,+1 210-880-1393,,,Chevron,Q319642
24390,citi,ATM 7ELEVEN-FCTI,,San Antonio,TX,,US,,,,Citibank,Q857063
84589,citi,ATM TRANSFUND,,Kirby,TX,,US,,,,Citibank,Q857063
31274,citi,ATM 7ELEVEN-FCTI,,San Antonio,TX,,US,,,,Citibank,Q857063
4303 Profit DriveSan AntonioTX,clean_harbors,Clean Harbors,,San Antonio,TX,,US,+1 210-304-3000,,,Clean Harbors,Q5130494
2c7f6efe-f626-456c-8bda-0f40da47c68d,concentra_us,San Antonio East,,San Antonio,TX,,US,,https://www.concentra.com/urgent-care-centers/texas/san-antonio/san-antonio-east-urgent-care/,,Concentra,Q5158304
70152263,cricket_wireless,Cricket Wireless Authorized Retailer,,San Antonio,TX,,US,+1 210-233-8539,https://www.cricketwireless.com/stores/ll/US/TX/San-Antonio/155-S-Ww-White-Rd,Mo-Sa 10:00-20:00; Su 12:00-18:00,Cricket Wireless,Q5184987
6714,dominos_pizza_us,Domino's Pizza,,San Antonio,TX,,US,+1 210-657-2431,https://pizza.dominos.com/texas/san-antonio/5498-walzem-road,Mo-Th 10:00-24:00; Fr-Sa 10:00-01:00; Su 10:00-24:00,Domino's,Q839466
E15256,enterprise,San Antonio W.W. White Rd.,,San Antonio,TX,,US,+1 210-359-6524,,,Enterprise Rent-A-Car,Q17085454
E152Z8,enterprise,San Antonio Truck Rental on S WW White Road,,San Antonio,TX,,US,+1 210-359-0029,,,Enterprise Rent-A-Car,Q17085454
26169,family_dollar_us,FAMILY DOLLAR #6169,,San Antonio,TX,,US,+1 210-278-7993,https://www.familydollar.com/locations/tx/san-antonio/26169/,Mo-Sa 09:00-22:00; Su 09:00-21:00,Family Dollar,Q5433101
https://local.fedex.com/#493651,fedex,FedEx Ship Center,,San Antonio,TX,,US,+1 800-463-3339,https://local.fedex.com/en-us/tx/san-antonio/svza,,FedEx,Q459477
https://branches.fleetpride.com/tx/sanantonio/truckparts-sa.html,fleet_pride_us,FleetPride,,San Antonio,TX,,US,+1 210-333-3777,https://branches.fleetpride.com/tx/sanantonio/truckparts-sa.html,Mo-Fr 07:30-17:00; Sa 08:00-12:00,FleetPride,Q121436710
Motorcraft758USAEnglish,ford,Grande Truck Center,,Texas,TX,,US,+1 210-661-4121,,,Ford,Q44294
https://www.ford.com/dealerships/dealer-details/tx/san-antonio/cavender-grande-ford/,ford_dealers_us,Cavender Grande Ford,,San Antonio,TX,,US,+1 726-223-3819,https://www.ford.com/dealerships/dealer-details/tx/san-antonio/cavender-grande-ford/,Mo-Sa 09:00-19:00,Ford Motor Company,Q44294
8865,fresenius_kidney_care_us,Fresenius Kidney Care Kirby,,San Antonio,TX,,US,+1 800-881-5101,https://www.freseniuskidneycare.com/dialysis-centers/texas/8865,Mo 05:00-22:30; Tu 05:00-20:00; We 05:00-22:00; Th 05:00-20:00; Fr 05:00-22:00; Sa 05:00-20:00,,
att-center,indigo,AT&T Center,,San Antonio,TX,,US,+1 210-444-5011,,,Indigo,Q3559970
https://locations.ironmountain.com/tx/san-antonio/786/,iron_mountain,"Iron Mountain in 5122 Dietrich Road, San Antonio, Texas | Secure Shredding, Scanning, IT Asset Disposition, & Records Management",,San Antonio,TX,,US,+1 800-899-4766,https://locations.ironmountain.com/tx/san-antonio/786/,,Iron Mountain Incorporated,Q1673079
72679,little_free_library,Donna Dryja #72679 Kirby TX,,Kirby,TX,,US,,,,Little Free Library,Q6650101
115096,little_free_library,Hopkins Elementary Little Free Library #115096 San Antonio TX,,San Antonio,TX,,US,,,,Little Free Library,Q6650101
068410,penske,Penske San Antonio,,SAN ANTONIO,TX,,US,+1 210-224-7941,https://www.pensketruckrental.com/locations/us/texas/san_antonio/068410/,,Penske,Q81234570
306,pilot_flyingj,Pilot Travel Center,,San Antonio,TX,,US,+1 210-661-5353,https://locations.pilotflyingj.com/us/tx/san-antonio/5619-i-10-east,,Pilot,Q7194412
tx_san-antonio_one-at&t-center-14049143,pizza_hut_us,One At&t Center,,San Antonio,TX,,US,,https://locations.pizzahut.com/tx/san-antonio/one-at&t-center-14049143,,Pizza Hut,Q191615
tx_san-antonio_one-at&t-center-14048724,pizza_hut_us,One At&t Center,,San Antonio,TX,,US,,https://locations.pizzahut.com/tx/san-antonio/one-at&t-center-14048724,,Pizza Hut,Q191615
tx_san-antonio_one-at&t-center-14045932,pizza_hut_us,One At&t Center,,San Antonio,TX,,US,,https://locations.pizzahut.com/tx/san-antonio/one-at&t-center-14045932,,Pizza Hut,Q191615
tx_san-antonio_one-at&t-center-14045316,pizza_hut_us,One At&t Center,,San Antonio,TX,,US,,https://locations.pizzahut.com/tx/san-antonio/one-at&t-center-14045316,,Pizza Hut,Q191615
tx_san-antonio_110-s-ww-white,pizza_hut_us,110 S. Ww White,,San Antonio,TX,,US,+1 210-337-0047,https://locations.pizzahut.com/tx/san-antonio/110-s-ww-white,,Pizza Hut,Q191615
restaurant_82966,popeyes_us_fr,Popeyes,"6170 Interstate 10 E San Antonio, Texas 78219 - USA",San Antonio,TX,,US,+1 210-310-0145,https://www.popeyes.com/store-locator/store/restaurant_82966,Mo-Su 08:30-22:00,Popeyes,Q1330910
https://locations.quiktrip.com/#16003813,quiktrip_us,QuikTrip Store #4045 5565 FM 78,,Kirby,TX,,US,+1 210-666-2492,https://locations.quiktrip.com/tx/kirby/5565-fm-78,24/7,QuikTrip,Q7271953
36632,seven_eleven_ca_us,7-Eleven Store,,San Antonio,TX,,US,+1 210-359-0169,https://www.7-eleven.com/locations/tx/san-antonio/103-sw-w-white-rd-36632,,7-Eleven,Q259340
https://restaurants.subway.com/#14916403,subway,Subway Pilot Travel Center #306,,San Antonio Bexar,TX,,US,+1 210-661-5500,https://restaurants.subway.com/united-states/tx/san-antonio/5619-e-ih-10,Mo-Su 09:00-22:00,Subway,Q244457
https://restaurants.subway.com/#14897213,subway,Subway,,San Antonio Bexar,TX,,US,+1 210-359-9747,https://restaurants.subway.com/united-states/tx/san-antonio/314-s-ww-white-rd,Mo-Su 09:00-22:00,Subway,Q244457
https://restaurants.subway.com/#14904329,subway,Subway Circle K Store #2741030,,San Antonio Bexar,TX,,US,+1 210-444-1875,https://restaurants.subway.com/united-states/tx/san-antonio/1171-at&t-center-parkway,Mo-Fr 06:00-22:00; Sa 10:00-22:00; Su 10:00-18:00,Subway,Q244457
0305,travelcenters_of_america_us,Petro San Antonio #0305,,San Antonio,TX,,US,+1 210-661-9416,https://www.ta-petro.com/location/tx/petro-san-antonio/,,Petro,Q64051305
0147,travelcenters_of_america_us,TA San Antonio #0147,,San Antonio,TX,,US,+1 210-310-0145,https://www.ta-petro.com/location/tx/ta-san-antonio/,,TA,Q7835892
7821900032,usps_collection_boxes,USPS COLLECTION BOX - BLUE BOX,1112 ACKERMAN RD,SAN ANTONIO,TX,,US,,,,United States Postal Service,Q668687
7821900056,usps_collection_boxes,USPS COLLECTION BOX - BLUE BOX,112 BAUMAN ST,SAN ANTONIO,TX,,US,,,,United States Postal Service,Q668687
7821900024,usps_collection_boxes,USPS COLLECTION BOX - BLUE BOX,403 W W WHITE RD S,SAN ANTONIO,TX,,US,,,,United States Postal Service,Q668687
7821900016,usps_collection_boxes,USPS COLLECTION BOX - BLUE BOX,3453 N PANAM EXPY,SAN ANTONIO,TX,,US,,,,United States Postal Service,Q668687
7821900025,usps_collection_boxes,USPS COLLECTION BOX - BLUE BOX,1143 SBC CENTER PKWY,SAN ANTONIO,TX,,US,,,,United States Postal Service,Q668687
,visa,,,SAN ANTONIO,TX,,US,,,,,
,visa,,,SAN ANTONIO,TX,,US,,,,,
,visa,,,SAN ANTONIO,TX,,US,,,,,
,visa,,,SAN ANTONIO,TX,,US,,,,,
,visa,,,SAN ANTONIO,TX,,US,,,,,
,visa,,,SAN ANTONIO,TX,,US,,,,,
,visa,,,KIRBY,TX,,US,,,,,
,visa,,,KIRBY,TX,,US,,,,,
,visa,,,SAN ANTONIO,TX,,US,,,,,
,visa,,,SAN ANTONIO,TX,,US,,,,,
,visa,,,KIRBY,TX,,US,,,,,
,visa,,,SAN ANTONIO,TX,,US,,,,,
,visa,,,SAN ANTONIO,TX,,US,,,,,
,visa,,,SAN ANTONIO,TX,,US,,,,,
,visa,,,SAN ANTONIO,TX,,US,,,,,
,visa,,,KIRBY,TX,,US,,,,,
,visa,,,SAN ANTONIO,TX,,US,,,,,
,visa,,,KIRBY,TX,,US,,,,,
,visa,,,SAN ANTONIO,TX,,US,,,,,
,visa,,,SAN ANTONIO,TX,,US,,,,,
,visa,,,SAN ANTONIO,TX,,US,,,,,
,visa,,,SAN ANTONIO,TX,,US,,,,,
,visa,,,SAN ANTONIO,TX,,US,,,,,
,visa,,,SAN ANTONIO,TX,,US,,,,,
,visa,,,SAN ANTONIO,TX,,US,,,,,
,visa,,,SAN ANTONIO,TX,,US,,,,,
,visa,,,SAN ANTONIO,TX,,US,,,,,
,visa,,,SAN ANTONIO,TX,,US,,,,,
,visa,,,SAN ANTONIO,TX,,US,,,,,
,visa,,,SAN ANTONIO,TX,,US,,,,,
,visa,,,SAN ANTONIO,TX,,US,,,,,
,visa,,,SAN ANTONIO,TX,,US,,,,,
,visa,,,SAN ANTONIO,TX,,US,,,,,
,visa,,,SAN ANTONIO,TX,,US,,,,,
,visa,,,SAN ANTONIO,TX,,US,,,,,
,visa,,,SAN ANTONIO,TX,,US,,,,,
,visa,,,SAN ANTONIO,TX,,US,,,,,
,visa,,,SAN ANTONIO,TX,,US,,,,,
,visa,,,SAN ANTONIO,TX,,US,,,,,
,visa,,,SAN ANTONIO,TX,,US,,,,,
,visa,,,SAN ANTONIO,TX,,US,,,,,
,visa,,,SAN ANTONIO,TX,,US,,,,,
,visa,,,SAN ANTONIO,TX,,US,,,,,
,visa,,,SAN ANTONIO,TX,,US,,,,,
,visa,,,SAN ANTONIO,TX,,US,,,,,
,visa,,,SAN ANTONIO,TX,,US,,,,,
,visa,,,SAN ANTONIO,TX,,US,,,,,
,visa,,,SAN ANTONIO,TX,,US,,,,,
https://locations.wendys.com/#9255450,wendys,"Wendy's Nw West White in San Antonio, TX",,San Antonio,TX,,US,+1 210-428-6164,https://locations.wendys.com/united-states/tx/san-antonio/111-nw-west-white-rd,"Mo-Su 06:30-10:30,07:00-24:00",Wendy's,Q550258
6524342958d14172e9b8e0b39df50a97,western_union,LA HERRADURA,,San Antonio,TX,,US,+1 210-233-8681,https://location.westernunion.com/us/tx/san-antonio/6524342958d14172e9b8e0b39df50a97,Mo-Sa 10:00-19:00,Western Union,Q861042
df55015879e13eac252728683a6b54ae,western_union,7-ELEVEN #36632,,San Antonio,TX,,US,+1 210-359-0169,https://location.westernunion.com/us/tx/san-antonio/df55015879e13eac252728683a6b54ae,,Western Union,Q861042
509a3f1686376696f45cae9174361a15,western_union,TA #147 SAN ANTONIO,,San Antonio,TX,,US,+1 210-310-0145,https://location.westernunion.com/us/tx/san-antonio/509a3f1686376696f45cae9174361a15,Mo-Su 07:00-23:00,Western Union,Q861042
