Ref,Spider,Name,Address,City,State,Zipcode,Country,Phone,Website,Hours,Brand,WikiData
17,aaa,Greenville Branch,,Greenville,RI,,US,+1 401-232-5100,,,American Automobile Association,Q463436
https://restaurants.applebees.com/en-us/ri/greenville/446-putnam-pike-81050,applebees,Connect with this Applebee's,,Greenville,RI,,US,+1 401-949-1044,https://restaurants.applebees.com/en-us/ri/greenville/446-putnam-pike-81050,Mo-Th 11:00-24:00; Fr-Sa 11:00-01:00; Su 11:00-24:00,Applebees,Q621532
https://locators.bankofamerica.com/ri/greenville/financial-centers-greenville-13922.html,bankofamerica,Bank of America Financial Center & Drive-Thru ATM | Greenville,,Greenville,RI,,US,+1 401-949-3198,https://locators.bankofamerica.com/ri/greenville/financial-centers-greenville-13922.html,Mo-Fr 10:00-16:00,Bank of America,Q487907
https://locators.bankofamerica.com/ri/greenville/atm-greenville-100459.html,bankofamerica,Bank of America Drive-Thru ATM | Apple Valley Mall,,Greenville,RI,,US,+1 844-401-8500,https://locators.bankofamerica.com/ri/greenville/atm-greenville-100459.html,,Bank of America,Q487907
BBW01713,bathandbodyworks_us,CROSSING AT SMITHFIELD,,SMITHFIELD,RI,,US,+1 401-232-2254,,Mo-Th 10:00-20:00; Fr-Sa 10:00-21:00; Su 10:00-18:00,Bath & Body Works,Q810773
192876,bluerhino,Pick N Pay Food Mart,,Greenville,RI,,US,+1 401-699-2546,,,Blue Rhino,Q65681213
189742,bluerhino,"Global #208 - Smithfield, RI",,Greenville,RI,,US,+1 401-949-5512,,,Blue Rhino,Q65681213
56821,bluerhino,Stop & Shop #705,,Smithfield,RI,,US,+1 401-949-4800,,,Blue Rhino,Q65681213
23414990,chase_us,Smithfield - New branch,,Greenville,RI,,US,+1 401-757-6926,https://locator.chase.com/ri/greenville/438-putnam-pike,Mo-Fr 09:00-17:00; Sa 09:00-13:00,Chase,Q524629
ri_greenville_473-putnam-pike,chipotle, ,,Greenville,RI,,US,+1 401-404-5521,https://locations.chipotle.com/ri/greenville/473-putnam-pike,,Chipotle,Q465751
51149,citi,ATM CVS,,Greenville,RI,,US,,,,Citibank,Q857063
001008,citizens_us,Citizens Greenville,,Smithfield,RI,,US,+1 401-949-1700,,Mo-Fr 09:00-16:00; Sa 09:00-12:00,Citizens,Q5122694
ATM-279,citizens_us,,,Smithfield,RI,,US,+1 401-949-0229,,,Citizens,Q5122694
ATM-280,citizens_us,,,Smithfield,RI,,US,+1 401-949-1700,,24/7,Citizens,Q5122694
330,cvs_us,CVS Pharmacy,,Greenville,RI,,US,+1 401-231-5320,https://www.cvs.com/store-locator/greenville-ri-pharmacies/445-putnam-pike-apple-valley-mall-greenville-ri-02828/storeid=330,Mo-Th 07:00-22:00; Fr-Sa 07:00-23:00; Su 07:00-22:00,CVS Pharmacy,Q2078880
358689,dunkin_us,Dunkin',,Smithfield,RI,,US,+1 401-949-3861,https://locations.dunkindonuts.com/en/ri/smithfield/639b-putnam-pike/358689,Mo-Su 05:00-20:00,Dunkin',Q847743
https://www.edwardjones.com/us-en/financial-advisor/paolo-catucci,edwardjones,Paolo F Catucci,,Greenville,RI,,US,+1 401-949-3959,https://www.edwardjones.com/us-en/financial-advisor/paolo-catucci,Mo-Fr 08:30-16:30,Edward Jones,Q5343830
1294,european_wax_center_us,European Wax Center,,Smithfield,RI,,US,+1 401-214-5400,https://locations.waxcenter.com/ri/smithfield/smithfield-shops-on-44-1294.html,Mo-Fr 08:00-20:00; Sa 08:00-18:00; Su 08:00-16:00,European Wax Center,Q5413426
https://locations.kfc.com/#11246433,kfc,Chicken Nuggets Near Greenville,,Greenville,RI,,US,,https://locations.kfc.com/ri/greenville/421-putnam-pike/chickennugget,Mo-Su 10:00-24:00,KFC,Q524757
17390,mattress_firm_us,Mattress Firm Smithfield,,Greenville,RI,,US,+1 401-231-6131,https://www.mattressfirm.com/en-us/stores/ri/greenville/170005/,,Mattress Firm,Q6791878
0705,stop_and_shop,Super Stop & Shop,446 Putnam Pike,Greenville,RI,,US,,,,Stop and Shop,Q3658429
https://restaurants.subway.com/#14914193,subway,Subway Apple Valley Mall,,Greenville Providence,RI,,US,+1 401-231-6600,https://restaurants.subway.com/united-states/ri/greenville/445-putnam-pike,Mo-Su 09:00-21:00,Subway,Q244457
83051,supercuts,Apple Valley Mall,445 Putnam Pike,Smithfield,RI,,US,+1 401-231-3628,https://www.supercuts.com/checkin/83051,Mo 09:00-18:00; Tu 10:00-18:00; We-Fr 09:00-18:00; Sa-Su 09:00-17:00,Supercuts,Q7643239
https://locations.tacobell.com/#6143624,taco_bell,Taco Bell,,Greenville,RI,,US,+1 401-231-6710,https://locations.tacobell.com/ri/greenville/421-putnam-pike.html,Mo-Su 10:00-24:00,Taco Bell,Q752941
1365654,usps,GREENVILLE,,GREENVILLE,RI,,US,+1 401-949-1345,,Mo-Fr 08:30-17:00; Sa 09:00-13:00,United States Postal Service,Q668687
0282800007,usps_collection_boxes,USPS COLLECTION BOX - BLUE BOX,637 PUTNAM PIKE,GREENVILLE,RI,,US,,,,United States Postal Service,Q668687
0282800012,usps_collection_boxes,USPS COLLECTION BOX - BLUE BOX,3 AUSTIN AVE,GREENVILLE,RI,,US,,,,United States Postal Service,Q668687
0282800001,usps_collection_boxes,USPS COLLECTION BOX - BLUE BOX,3 AUSTIN AVE,GREENVILLE,RI,,US,,,,United States Postal Service,Q668687
0282800017,usps_collection_boxes,USPS COLLECTION BOX - PO LOBBY,1 AUSTIN AVE,GREENVILLE,RI,,US,,,,United States Postal Service,Q668687
0282800003,usps_collection_boxes,USPS COLLECTION BOX - BLUE BOX,1 AUSTIN AVE,GREENVILLE,RI,,US,,,,United States Postal Service,Q668687
0282800011,usps_collection_boxes,USPS COLLECTION BOX - BLUE BOX,446 PUTNAM PIKE,GREENVILLE,RI,,US,,,,United States Postal Service,Q668687
0282800005,usps_collection_boxes,USPS COLLECTION BOX - BLUE BOX,445 PUTNAM PIKE,GREENVILLE,RI,,US,,,,United States Postal Service,Q668687
,visa,,,GREENVILLE,RI,,US,,,,,
,visa,,,GREENVILLE,RI,,US,,,,,
,visa,,,GREENVILLE,RI,,US,,,,,
,visa,,,GREENVILLE,RI,,US,,,,,
,visa,,,GREENVILLE,RI,,US,,,,,
,visa,,,GREENVILLE,RI,,US,,,,,
,visa,,,GREENVILLE,RI,,US,,,,,
,visa,,,GREENVILLE,RI,,US,,,,,
,visa,,,GREENVILLE,RI,,US,,,,,
