Ref,Spider,Name,Address,City,State,Zipcode,Country,Phone,Website,Hours,Brand,WikiData
2053,amcal_au,Amcal+ Pharmacy Beerwah ,"Shop 17,  Beerwah Marketplace, Peachester Road, Beerwah QLD 4519",Beerwah,QLD,,AU,+61 7 5494 0333,https://amcal.com.au/store/2053/QLD/beerwah-amcal-pharmacy/,Mo-Fr 08:00-18:00; Sa 08:00-17:00; Su 09:00-17:00,Amcal,Q63367373
RED0012527,australia_post_au,,,BEERWAH,QLD,,AU,,,,Australia Post,Q1142936
RED0018197,australia_post_au,,,BEERWAH,QLD,,AU,,,,Australia Post,Q1142936
432399_PO,australia_post_au,BEERWAH LPO,,BEERWAH,QLD,,AU,+61 131318,,,Australia Post,Q1142936
RED0018217,australia_post_au,,,BEERWAH,QLD,,AU,,,,Australia Post,Q1142936
21949733,bottlemart_au,Glasshouse Cellars,,,QLD,,AU,+61 7 5493 0188,,,Bottlemart,Q102863175
21949732,bottlemart_au,Beerwah Cellars,,,QLD,,AU,+61 7 5494 0477,,,Bottlemart,Q102863175
21949730,bottlemart_au,Beerwah Hotel,,,QLD,,AU,+61 7 5494 0555,,,Bottlemart,Q102863175
714,burson_auto_parts_au,BEERWAH,"2/20 FREE STREET, BEERWAH QLD 4519, Australia",BEERWAH,QLD,,AU,+61 7 5494 0240,,Mo-Fr 08:00-17:00; Sa 08:00-12:00,Burson Auto Parts,Q117075930
1986,coles_au,Coles Express Glasshouse Mountain Inbound,,Glass House Mountains,QLD,,AU,+61 7 3734 1104,,,Coles Express,Q5144653
3581,hungry_jacks,Glasshouse Southbound,,Coochin Creek,QLD,,AU,+61 7 5329 4518,,,Hungry Jack's,Q3036373
3582,hungry_jacks,Glasshouse Northbound,,Glass House Mountains,QLD,,AU,+61 7 5329 4519,,,Hungry Jack's,Q3036373
9501498,mcdonalds_qstore,GLASS HOUSE MOUNTAINS QLD,,Coochin Creek,QLD,,AU,+61 7 5493 0779,,24/7,McDonald's,Q38076
https://www.mcgrath.com.au/offices/335-beerwah,mcgrath_au,McGrath Beerwah,,Beerwah,QLD,,AU,+61 7 5405 3628,https://www.mcgrath.com.au/offices/335-beerwah,Mo-Fr 09:00-17:00,McGrath,Q105290661
10111105,shell,SHELL BEERWAH,,BEERWAH,QLD,,AU,+61 7 5494 6219,https://find.shell.com/au/fuel/10111105-shell-beerwah,24/7,Shell,Q110716465
TCCAUS0327,the_coffee_club_au,TCC - Beerwah,"Tenancy 23, Beerwah Shopping Village, 44 Simpson Street, Beerwah, QLD, Australia, 4519",Beerwah,QLD,,AU,+61 7 5439 2300,https://coffeeclub.com.au/pages/store-details?country=Australia&name=beerwah,Mo-Su 07:00-16:00,The Coffee Club,Q7726599
,visa,,,BEERWAH,QLD,,AU,,,,,
,visa,,,BEERWAH,QLD,,AU,,,,,
,visa,,,BEERWAH,QLD,,AU,,,,,
,visa,,,BEERWAH,QLD,,AU,,,,,
,visa,,,COOCHIN CREEK,QLD,,AU,,,,,
11fdf6ff0b209d93eb945a90b3de5d14,western_union,AUSTRALIA POST,,Beerwah,QLD,,AU,+61 1800 501 500,https://location.westernunion.com/au/qld/beerwah/11fdf6ff0b209d93eb945a90b3de5d14,Mo-Fr 09:00-17:00,Western Union,Q861042
