Ref,Spider,Name,Address,City,State,Zipcode,Country,Phone,Website,Hours,Brand,WikiData
https://stores.advanceautoparts.com/al/birmingham/821-3rd-ave-w,advance_auto_parts_us,Advance Auto Parts,,Birmingham,AL,,US,+1 205-781-0922,https://stores.advanceautoparts.com/al/birmingham/821-3rd-ave-w,Mo-Sa 07:00-21:00; Su 09:00-20:00,Advance Auto Parts,Q4686051
60,autozone_us,AutoZone Auto Parts Birmingham,,Birmingham,AL,,US,+1 205-788-8310,https://www.autozone.com/locations/al/birmingham/724-3rd-ave-w.html,Mo-Sa 07:30-21:00; Su 08:00-21:00,AutoZone,Q4826087
237059,bluerhino,Circle K #2723680,,Birmingham,AL,,US,+1 205-323-4775,,,Blue Rhino,Q65681213
173376,bluerhino,Family Dollar #08791,,Birmingham,AL,,US,+1 205-581-9576,,,Blue Rhino,Q65681213
3736,captaind,Captain D's,,Birmingham,AL,,US,+1 205-323-6402,https://locations.captainds.com/ll/US/AL/Birmingham/1725-Finley-Blvd,Mo-Su 10:30-20:00,Captain D's,Q5036616
1145-third-avenue-west,churchs_chicken,Third Avenue West,,Birmingham,AL,,US,+1 205-780-4740,https://locations.churchs.com/al/birmingham/1145-third-avenue-west,,Church's Chicken,Q1089932
28791,family_dollar_us,FAMILY DOLLAR #8791,,Birmingham,AL,,US,+1 205-421-4671,https://www.familydollar.com/locations/al/birmingham/28791/,Mo-Su 08:00-22:00,Family Dollar,Q5433101
257956,marathon_petroleum_us,MARATHON AL0031,,Birmingham,AL,,US,+1 205-542-5077,,,Marathon,Q458363
https://locations.oreillyauto.com/al/birmingham/check-engine-light-testing-1132.html,oreilly,Your Birmingham O'Reilly Auto Parts Store,,Birmingham,AL,,US,+1 205-788-8735,https://locations.oreillyauto.com/al/birmingham/check-engine-light-testing-1132.html,Mo-Sa 07:00-20:00; Su 08:00-20:00,O'Reilly Auto Parts,Q7071951
https://locations.oreillyauto.com/al/birmingham/battery-testing-1132.html,oreilly,Your Birmingham O'Reilly Auto Parts Store,,Birmingham,AL,,US,+1 205-788-8735,https://locations.oreillyauto.com/al/birmingham/battery-testing-1132.html,Mo-Sa 07:00-20:00; Su 08:00-20:00,O'Reilly Auto Parts,Q7071951
https://locations.oreillyauto.com/al/birmingham/wiper-installation-1132.html,oreilly,Your Birmingham O'Reilly Auto Parts Store,,Birmingham,AL,,US,+1 205-788-8735,https://locations.oreillyauto.com/al/birmingham/wiper-installation-1132.html,Mo-Sa 07:00-20:00; Su 08:00-20:00,O'Reilly Auto Parts,Q7071951
https://locations.oreillyauto.com/al/birmingham/autopartes-1132.html,oreilly,Tu tienda O'Reilly Auto Parts en Birmingham,,Birmingham,AL,,US,+1 205-788-8735,https://locations.oreillyauto.com/al/birmingham/autopartes-1132.html,Mo-Sa 07:00-20:00; Su 08:00-20:00,O'Reilly Auto Parts,Q7071951
restaurant_82858,popeyes_us_fr,Popeyes,"1717 Finley Blvd Birmingham, Alabama 35204 - USA",Birmingham,AL,,US,+1 205-714-8066,https://www.popeyes.com/store-locator/store/restaurant_82858,Mo-Th 10:00-22:00; Fr-Sa 10:00-23:00; Su 10:00-22:00,Popeyes,Q1330910
0278176300,sunoco_us,Sunoco,,BIRMINGHAM,AL,,US,+1 205-983-7836,,,Sunoco,Q1423218
042535,uhaul,Graymont Groceries,734 Graymont Ave W,Birmingham,AL,,US,+1 205-836-0451,,Mo-Sa 00:00-18:00,U-Haul,Q7862902
3520400011,usps_collection_boxes,USPS COLLECTION BOX - BLUE BOX,1 BANKHEAD HWY W,BIRMINGHAM,AL,,US,,,,United States Postal Service,Q668687
3520400016,usps_collection_boxes,USPS COLLECTION BOX - BLUE BOX,901 BANKHEAD HWY W,BIRMINGHAM,AL,,US,,,,United States Postal Service,Q668687
3520400014,usps_collection_boxes,USPS COLLECTION BOX - BLUE BOX,2 11TH CT N,BIRMINGHAM,AL,,US,,,,United States Postal Service,Q668687
3520400004,usps_collection_boxes,USPS COLLECTION BOX - BLUE BOX,171 9TH CT N,BIRMINGHAM,AL,,US,,,,United States Postal Service,Q668687
3520400001,usps_collection_boxes,USPS COLLECTION BOX - BLUE BOX,150 REVEREND ABRAHAM WOODS JR BLVD,BIRMINGHAM,AL,,US,,,,United States Postal Service,Q668687
3520400007,usps_collection_boxes,USPS COLLECTION BOX - BLUE BOX,237 GRAYMONT AVE N,BIRMINGHAM,AL,,US,,,,United States Postal Service,Q668687
3520400006,usps_collection_boxes,USPS COLLECTION BOX - BLUE BOX,232 FINLEY AVE W,BIRMINGHAM,AL,,US,,,,United States Postal Service,Q668687
,visa,,,HOOVER,AL,,US,,,,,
,visa,,,BIRMINGHAM,AL,,US,,,,,
,visa,,,BIRMINGHAM,AL,,US,,,,,
,visa,,,BIRMINGHAM,AL,,US,,,,,
,visa,,,BIRMINGHAM,AL,,US,,,,,
,visa,,,BIRMINGHAM,AL,,US,,,,,
,visa,,,BIRMINGHAM,AL,,US,,,,,
,visa,,,BIRMINGHAM,AL,,US,,,,,
,visa,,,BIRMINGHAM,AL,,US,,,,,
,visa,,,BIRMINGHAM,AL,,US,,,,,
,visa,,,BIRMINGHAM,AL,,US,,,,,
,visa,,,BIRMINGHAM,AL,,US,,,,,
,visa,,,BIRMINGHAM,AL,,US,,,,,
,visa,,,BIRMINGHAM,AL,,US,,,,,
,visa,,,BIRMINGHAM,AL,,US,,,,,
,visa,,,BIRMINGHAM,AL,,US,,,,,
,visa,,,BIRMINGHAM,AL,,US,,,,,
,visa,,,BIRMINGHAM,AL,,US,,,,,
,visa,,,BIRMINGHAM,AL,,US,,,,,
,visa,,,BIRMINGHAM,AL,,US,,,,,
,visa,,,BIRMINGHAM,AL,,US,,,,,
,visa,,,BIRMINGHAM,AL,,US,,,,,
,visa,,,BIRMINGHAM,AL,,US,,,,,
,visa,,,BIRMINGHAM,AL,,US,,,,,
,visa,,,BIRMINGHAM,AL,,US,,,,,
,visa,,,BIRMINGHAM,AL,,US,,,,,
,visa,,,BIRMINGHAM,AL,,US,,,,,
,visa,,,BIRMINGHAM,AL,,US,,,,,
,visa,,,BIRMINGHAM,AL,,US,,,,,
,visa,,,BIRMINGHAM,AL,,US,,,,,
,visa,,,BIRMINGHAM,AL,,US,,,,,
,visa,,,BIRMINGHAM,AL,,US,,,,,
,visa,,,BIRMINGHAM,AL,,US,,,,,
,visa,,,BIRMINGHAM,AL,,US,,,,,
,visa,,,BIRMINGHAM,AL,,US,,,,,
,visa,,,BIRMINGHAM,AL,,US,,,,,
,visa,,,BIRMINGHAM,AL,,US,,,,,
,visa,,,BIRMINGHAM,AL,,US,,,,,
,visa,,,BIRMINGHAM,AL,,US,,,,,
,visa,,,BIRMINGHAM,AL,,US,,,,,
,visa,,,BIRMINGHAM,AL,,US,,,,,
,visa,,,BIRMINGHAM,AL,,US,,,,,
,visa,,,BIRMINGHAM,AL,,US,,,,,
,visa,,,BIRMINGHAM,AL,,US,,,,,
d0987a6941979678e1844c0ae94453a6,western_union,PILOT,,Birmingham,AL,,US,+1 205-324-4532,https://location.westernunion.com/us/al/birmingham/d0987a6941979678e1844c0ae94453a6,,Western Union,Q861042
