Ref,Spider,Name,Address,City,State,Zipcode,Country,Phone,Website,Hours,Brand,WikiData
US214157,adidas,"adidas Outlet Store, Wrentham, Wrentham Village Premium",,Wrentham,MA,,US,+1 508-384-6265,https://www.adidas.co.uk/storefront/US214157-wrentham-1-premium-outlet-boulevard-adidas-outlet-store-wrentham-wrentham-village-premium,,Adidas,Q3895
https://storelocations.ae.com/#1726498,american_eagle_outfitters,American Eagle Outlet Wrentham Village Premium Outlets,,Wrentham,MA,,US,+1 508-384-8928,https://storelocations.ae.com/us/ma/wrentham/1048-south-street.html,Mo-Th 10:00-18:00; Fr-Sa 10:00-20:00; Su 11:00-18:00,American Eagle Outlet,Q2842931
https://storelocations.ae.com/#15209899,american_eagle_outfitters,Aerie Outlet Wrentham Village Premium Outlets,,Wrentham,MA,,US,+1 774-378-6027,https://storelocations.ae.com/us/ma/wrentham/1-outlet-blvd.html,Mo-Th 10:00-18:00; Fr-Sa 10:00-20:00; Su 11:00-18:00,Aerie Outlet,Q2842931
https://stores.anntaylor.com/factory/us/ma/wrentham/1-premium-outlet-blvd.html,anntaylor,Ann Taylor Factory Store,,Wrentham,MA,,US,+1 508-384-2087,https://stores.anntaylor.com/factory/us/ma/wrentham/1-premium-outlet-blvd.html,Mo-Th 10:00-18:00; Fr-Sa 10:00-20:00; Su 11:00-18:00,Ann Taylor,Q4766699
62197,asics_us,ASICS Outlet Wrentham,1 Outlet Blvd,Wrentham,MA,,US,+1 508-384-5124,,Mo-Th 10:00-18:00; Fr-Sa 10:00-20:00; Su 11:00-18:00,asics,Q327247
https://locations.auntieannes.com/#6067,auntie_annes,Auntie Anne's Wrentham Village Premium Outlets,,Wrentham,MA,,US,+1 508-384-2834,https://locations.auntieannes.com/ma/wrentham/1-premium-outlet-blvd,Mo-Th 10:00-18:00; Fr-Sa 10:00-20:00; Su 11:00-18:00,Auntie Anne's,Q4822010
https://locators.bankofamerica.com/ma/wrentham/atm-wrentham-107057.html,bankofamerica,Bank of America Walk-Up ATM | Wrentham Remote,,Wrentham,MA,,US,+1 844-401-8500,https://locators.bankofamerica.com/ma/wrentham/atm-wrentham-107057.html,,Bank of America,Q487907
BBW02459,bathandbodyworks_us,WRENTHAM VILLAGE PREMIUM OUTLETS,,WRENTHAM,MA,,US,+1 774-847-3428,,Mo-Th 10:00-18:00; Fr-Sa 10:00-20:00; Su 11:00-18:00,Bath & Body Works,Q810773
43401,bluerhino,"Cataldo's Paint & Hardware, Inc.",,Wrentham,MA,,US,+1 508-384-2431,,,Blue Rhino,Q65681213
187614,bluerhino,"Global #2706 - Wrentham, MA",,Wrentham,MA,,US,+1 508-384-5390,,,Blue Rhino,Q65681213
8,calvin_klein_ca_us,Calvin Klein,,Wrentham,MA,,US,+1 508-384-1940,https://www.calvinklein.us/en,,Calvin Klein,Q1068628
//locations.carters.com/ma/wrentham/carters-wrentham-ma,carters_us,Carter's Wrentham Carters,,Wrentham,MA,,US,+1 508-384-0700,https://locations.carters.com/ma/wrentham/carters-wrentham-ma,Mo-Th 10:00-18:00; Fr-Sa 10:00-20:00; Su 11:00-18:00,Carter's,Q5047083
70088,casper_us,Casper Outlet,,Wrentham,MA,,US,+1 508-266-5918,https://stores.casper.com/casper-outlet-811625a59b35,,Casper,Q20539294
https://stores.champion.com/ma/wrentham/1-premium-outlet-boulevard.html,champion_us,Champion Outlets Wrentham,,Wrentham,MA,,US,+1 508-384-4154,https://stores.champion.com/ma/wrentham/1-premium-outlet-boulevard.html,Mo-Sa 10:00-21:00; Su 10:00-18:00,Champion,Q2948688
52284,citi,ATM CVS,,Wrentham,MA,,US,,,,Citibank,Q857063
ATM-1897,citizens_us,,,Wrentham,MA,,US,,,,Citizens,Q5122694
wrentham/6631,claires,Shop Ear Piercings & Jewelry at Wrentham Village P.O.,,WRENTHAM,MA,,US,+1 508-384-2066,https://stores.claires.com/us/ma/wrentham/6631.html,Mo-Th 10:00-18:00; Fr-Sa 10:00-20:00; Su 10:00-18:00,Claire's,Q2974996
https://www.coach.com/stores/#17277357,coach_us,COACH Outlet,,Wrentham,MA,,US,+1 508-406-9958,https://www.coach.com/stores/outlets/ma/wrentham/1-premium-outlets-blvd,Mo-Th 10:00-18:00; Fr-Sa 10:00-20:00; Su 10:00-18:00,Coach,Q727697
206689,crocs_eu,Crocs at Wrentham,,Wrentham,MA,,US,+1 508-384-0444,,,Crocs,Q926699
520545,cumberland_farms_us,Cumberland Farms,,WRENTHAM,MA,,US,+1 508-384-5907,https://www.cumberlandfarms.com/find-us/generic-store-page/?id=006770,,Cumberland Farms,Q1143685
11173,cvs_us,CVS Pharmacy,,Wrentham,MA,,US,+1 774-378-6000,https://www.cvs.com/store-locator/wrentham-ma-pharmacies/652-south-street-wrentham-ma-02093/storeid=11173,Mo-Su 07:00-22:00,CVS Pharmacy,Q2078880
336927,dunkin_us,Dunkin',,Wrentham,MA,,US,+1 508-384-9617,https://locations.dunkindonuts.com/en/ma/wrentham/1048-south-st/336927,Mo-Su 05:00-19:00,Dunkin',Q847743
350004,dunkin_us,Dunkin',,Wrentham,MA,,US,+1 508-384-0908,https://locations.dunkindonuts.com/en/ma/wrentham/1001-south-st/350004,Mo-Su 06:00-19:00,Dunkin',Q847743
306081,dunkin_us,Dunkin',,Wrentham,MA,,US,+1 508-384-9801,https://locations.dunkindonuts.com/en/ma/wrentham/29-franklin-st/306081,Mo-Su 04:00-21:00,Dunkin',Q847743
0001002980,ecco,ECCO OUTLET WRENTHAM,,WRENTHAM,MA,,US,+1 508-384-5770,,Mo-Th 10:00-09:00; Fr-Sa 09:00-09:00; Su 10:00-08:00,Ecco,Q1280255
520545,eg_america_us,Cumberland Farms,,WRENTHAM,MA,,US,+1 508-384-5907,https://www.cumberlandfarms.com/find-us/generic-store-page/?id=006770,,Cumberland Farms,Q1143685
210309,electrify_america,"Wrentham Village Premium Outlets (Wrentham, MA)",,Wrentham,MA,,US,,,,Electrify America,Q59773555
200330127,exxonmobil,Racing Mart Store Corporation,,WRENTHAM,MA,,US,,https://www.exxon.com/en/find-station/mobil-wrentham-ma-racingmartstorecorporation-200330127,24/7,Mobil,Q109676002
200304272,exxonmobil,WRENTHAM MOBIL,,WRENTHAM,MA,,US,+1 508-384-5390,https://www.exxon.com/en/find-station/mobil-wrentham-ma-wrenthammobil-200304272,24/7,Mobil,Q109676002
9923111,hugo_boss,BOSS Menswear Outlet,,Wrentham,MA,,US,+1 508-384-0358,https://www.hugoboss.com/us/storedetail?storeid=9923111,Mo-Th 11:00-19:00; Fr-Sa 11:00-20:00; Su 11:00-18:00,Hugo Boss,Q491627
https://stores.factory.jcrew.com/#832745,j_crew_us,J.Crew Factory,,Wrentham,MA,,US,+1 508-384-4480,https://stores.factory.jcrew.com/us/ma/wrentham/1-premium-outlet-blvd,Mo-Th 10:00-18:00; Fr-Sa 10:00-20:00; Su 11:00-18:00,J. Crew,Q5370765
https://www.katespade.com/stores/#18467836,kate_spade_ca_us,Kate Spade Outlet Wrentham Village Premium,,Wrentham,MA,,US,+1 508-213-0650,https://www.katespade.com/stores/us/ma/wrentham/1-premium-outlets-blvd,Mo-Th 10:00-18:00; Fr-Sa 10:00-20:00; Su 10:00-18:00,Kate Spade New York,Q6375797
https://stores.loft.com/outlet/us/ma/wrentham/1-premium-outlet-blvd.html,loft_us,Loft,,Wrentham,MA,,US,+1 508-384-0246,https://stores.loft.com/outlet/us/ma/wrentham/1-premium-outlet-blvd.html,,Loft,Q62075137
52305,lovisa,Lovisa,,Wrentham,MA,,US,+1 587-442-3796,,,Lovisa,Q106298409
Wrentham Village Premium Outlet,lululemon,Lululemon,"1 Premium Outlets Blvd, Suite 195, Wrentham, MA, US, 02093",Wrentham,MA,,US,+1 413-779-3934,https://shop.lululemon.com/stores/us/Massachusetts/Wrentham,Mo-Th 10:00-18:00; Fr-Sa 10:00-20:00; Su 10:00-18:00,Lululemon,Q6702957
BOSSW,marriott,SpringHill Suites Wrentham Plainville,,Wrentham,MA,,US,+1 774-307-4640,https://www.marriott.com/BOSSW,,SpringHill Suites,Q7580351
BOSTV,marriott,TownePlace Suites Wrentham Plainville,,Wrentham,MA,,US,+1 774-307-4650,https://www.marriott.com/BOSTV,,Townplace Suites by Marriott,Q7830092
https://locations.michaelkors.com/us/ma/wrentham/1-premium-outlet-blvd.html,michaelkors,Michael Kors Outlet WRENTHAM,,Wrentham,MA,,US,+1 508-384-8081,https://locations.michaelkors.com/us/ma/wrentham/1-premium-outlet-blvd.html,Mo-Th 10:00-18:00; Fr-Sa 10:00-20:00; Su 11:00-18:00,Michael Kors,Q19572998
https://locations.michaelkors.com/fr/us/ma/wrentham/1-premium-outlet-blvd.html,michaelkors,Michael Kors Outlet WRENTHAM,,Wrentham,MA,,US,+1 508-384-8081,https://locations.michaelkors.com/fr/us/ma/wrentham/1-premium-outlet-blvd.html,Mo-Th 10:00-18:00; Fr-Sa 10:00-20:00; Su 11:00-18:00,Michael Kors,Q19572998
//locations.oshkosh.com/ma/wrentham/oshkosh-wrentham-ma,oshkosh_us,Oshkosh B'gosh Wrentham - Clearance Store,,Wrentham,MA,,US,+1 508-384-0271,https://locations.oshkosh.com/ma/wrentham/oshkosh-wrentham-ma,Mo-Th 10:00-18:00; Fr-Sa 10:00-20:00; Su 11:00-18:00,OshKosh B'gosh,Q1417347
https://www.premiumoutlets.com/outlet/wrentham-village/about,premium_outlets,Wrentham Village Premium Outlets®,,Wrentham,MA,,US,+1 508-384-2876,https://www.premiumoutlets.com/outlet/wrentham-village,,Premium Outlets,
4503,ruby_tuesday_us,Ruby Tuesday,"1 PREMIUM OUTLETS BLVD, SUITE #800 WRENTHAM MA 02093",Wrentham,MA,,US,+1 508-384-5213,,Mo-Sa 11:00-21:00; Su 11:00-19:00,Ruby Tuesday,Q7376400
882,simonmalls,Wrentham Village Premium Outlets®,,Wrentham,MA,,US,+1 508-384-0600,https://www.simon.com/mall/wrentham-village,Mo-Th 10:00-18:00; Fr-Sa 10:00-20:00; Su 11:00-18:00,Premium Outlets,Q2287759
https://stores.sunglasshut.com/us/ma/wrentham/1-premium-outlet-blvd-4346,sunglass_hut_1,Sunglass Hut,,Wrentham,MA,,US,+1 508-384-3841,https://stores.sunglasshut.com/us/ma/wrentham/1-premium-outlet-blvd-4346,Mo-Th 10:00-18:00; Fr-Sa 10:00-20:00; Su 11:00-18:00,Sunglass Hut,Q136311
0266611301,sunoco_us,Sunoco,,WRENTHAM,MA,,US,+1 508-384-3221,,Mo-Su 07:00-20:00,Sunoco,Q1423218
TNFUS00347,the_north_face,The North Face Wrentham,,Wrentham,MA,,US,+1 774-307-9282,,Mo-Th 10:00-18:00; Fr-Sa 10:00-20:00; Su 11:00-18:00,The North Face,Q152784
0285,tillys,Wrentham Village Premium Outlets,,Wrentham,MA,,US,+1 508-458-6270,,Mo-Sa 10:00-09:00; Su 10:00-06:00,Tillys,Q7802889
5,under_armour,Under Armour Factory House,,Wrentham,MA,,US,+1 508-384-1180,https://store-locations.underarmour.com/ma/wrentham/5,,Under Armour,Q2031485
1388334,usps,WRENTHAM,,WRENTHAM,MA,,US,+1 508-384-0027,,Mo-Fr 09:00-17:00; Sa 09:00-12:00,United States Postal Service,Q668687
0209300010,usps_collection_boxes,USPS COLLECTION BOX - BLUE BOX,1 PREMIUM OUTLET BLVD,WRENTHAM,MA,,US,,,,United States Postal Service,Q668687
0209300011,usps_collection_boxes,USPS COLLECTION BOX - BLUE BOX,580 WASHINGTON ST,WRENTHAM,MA,,US,,,,United States Postal Service,Q668687
0209300002,usps_collection_boxes,USPS COLLECTION BOX - BLUE BOX,100 RANDALL RD,WRENTHAM,MA,,US,,,,United States Postal Service,Q668687
0209300003,usps_collection_boxes,USPS COLLECTION BOX - BLUE BOX,100 RANDALL RD,WRENTHAM,MA,,US,,,,United States Postal Service,Q668687
0209300005,usps_collection_boxes,USPS COLLECTION BOX - PO LOBBY,100 RANDALL RD,WRENTHAM,MA,,US,,,,United States Postal Service,Q668687
0209300006,usps_collection_boxes,USPS COLLECTION BOX - PO LOBBY,100 RANDALL RD,WRENTHAM,MA,,US,,,,United States Postal Service,Q668687
0209300008,usps_collection_boxes,USPS COLLECTION BOX - BLUE BOX,79 SOUTH ST,WRENTHAM,MA,,US,,,,United States Postal Service,Q668687
0209300013,usps_collection_boxes,USPS COLLECTION BOX - BLUE BOX,100 STONEWALL BOUEVARD,WRENTHAM,MA,,US,,,,United States Postal Service,Q668687
0209300014,usps_collection_boxes,USPS COLLECTION BOX - BLUE BOX,850 FRANKLIN ST,WRENTHAM,MA,,US,,,,United States Postal Service,Q668687
0209300001,usps_collection_boxes,USPS COLLECTION BOX - BLUE BOX,844 FRANKLIN ST,WRENTHAM,MA,,US,,,,United States Postal Service,Q668687
USA552,vans,Vans Store - Wrentham Village Premium Outlets,,Wrentham,MA,,US,+1 508-384-2111,https://www.vans.com/en-us/stores/ma/wrentham/usa552,Mo-Th 10:00-18:00; Fr-Sa 10:00-20:00; Su 11:00-18:00,Vans,Q1135366
,visa,,,WRENTHAM,MA,,US,,,,,
,visa,,,WRENTHAM,MA,,US,,,,,
,visa,,,WRENTHAM,MA,,US,,,,,
,visa,,,WRENTHAM,MA,,US,,,,,
,visa,,,WRENTHAM,MA,,US,,,,,
,visa,,,WRENTHAM,MA,,US,,,,,
1291,whitehouseblackmarket,Wrentham Village Premium Outlets,"1 Premium Outlet Blvd, Ste 480",Wrentham,MA,,US,+1 508-384-0900,,Mo-Th 11:00-19:00; Fr-Sa 11:00-20:00; Su 12:00-18:00,White House Black Market,Q7994858
