Ref,Spider,Name,Address,City,State,Zipcode,Country,Phone,Website,Hours,Brand,WikiData
203559,bluerhino,CASEY'S GENERAL STORE #2993,,PRESTON,MN,,US,+1 507-765-4562,,,Blue Rhino,Q65681213
164896,bluerhino,Family Dollar #10453,,Preston,MN,,US,+1 507-481-2002,,,Blue Rhino,Q65681213
P298163,bmo,Preston Motor Mart,,Preston,MN,,US,,,,BMO,Q4835981
33077038182095596500100000000000,bp,BP,,Preston,MN,,US,+1 507-765-3330,,Mo-Sa 05:30-22:00; Su 07:00-22:00,BP,Q152057
54716,citi,ATM F&M COMMUNITY BANKNA,,Preston,MN,,US,,,,Citibank,Q857063
nca_s1075,department_veterans_affairs,Minnesota State Veterans Cemetery - Preston,,Preston,MN,,US,+1 507-765-7320,https://mn.gov/mdva/memorials/stateveteranscemeteries/minnesota-state-veterans-cemetery-preston.jsp,,Department Veterans Affairs,Q592576
30453,family_dollar_us,FAMILY DOLLAR #10453,,Preston,MN,,US,+1 507-606-4002,https://www.familydollar.com/locations/mn/preston/30453/,Mo-Sa 09:00-22:00; Su 09:00-21:00,Family Dollar,Q5433101
19144,h_r_block,H&R Block,,Preston,MN,,US,+1 507-765-3696,https://www.hrblock.com/local-tax-offices/minnesota/preston/125-saint-paul-st/19144/,,H&R Block,Q5627799
Preston IGA #8116,iga,Preston IGA #8116,"105 Fillmore ST West, Preston, MN, 55965",Preston,MN,,US,+1 502-228-0613,http://www.rushfordfoods.com,,IGA,Q3146662
1378372,usps,PRESTON,,PRESTON,MN,,US,+1 507-765-3334,,"Mo-Fr 08:00-12:00,12:30-15:15; Sa 09:00-10:00",United States Postal Service,Q668687
5596500002,usps_collection_boxes,USPS COLLECTION BOX - BLUE BOX,212 PLEASANT ST NE,PRESTON,MN,,US,,,,United States Postal Service,Q668687
5596500004,usps_collection_boxes,USPS COLLECTION BOX - PO LOBBY,212 PLEASANT ST NE,PRESTON,MN,,US,,,,United States Postal Service,Q668687
5596500005,usps_collection_boxes,USPS COLLECTION BOX - PO LOBBY,212 PLEASANT ST NE,PRESTON,MN,,US,,,,United States Postal Service,Q668687
,visa,,,PRESTON,MN,,US,,,,,
,visa,,,PRESTON,MN,,US,,,,,
,visa,,,PRESTON,MN,,US,,,,,
,visa,,,PRESTON,MN,,US,,,,,
,visa,,,PRESTON,MN,,US,,,,,
,visa,,,PRESTON,MN,,US,,,,,
,visa,,,PRESTON,MN,,US,,,,,
,visa,,,PRESTON,MN,,US,,,,,
,visa,,,MAZEPPA,MN,,US,,,,,
