Ref,Spider,Name,Address,City,State,Zipcode,Country,Phone,Website,Hours,Brand,WikiData
23463_4,bmw_group,Autohaus Becker-Tiemann GmbH & Co. KG,,Versmold,,,DE,+49 5423 95150,https://www.bmw-becker-tiemann.de,,BMW,Q26678
21074500,bp,Autohaus Hagemeier GmbH&Co. KG,,Versmold,,,DE,+49 5423 94330,http://tankstelle.aral.de/tankstelle/21074500,Mo-Sa 06:00-22:00; Su 08:00-22:00,BP,Q152057
20164100,bp,Aral Aktiengesellschaft,,Versmold,,,DE,,http://tankstelle.aral.de/tankstelle/20164100,24/7,BP,Q152057
Versmold,combi_de,Combi,"Kämpenstraße 9, 33775 Versmold",Versmold,,,DE,+49 5423 49975,https://www.combi.de/marktauswahl/Versmold,Mo-Sa 07:00-21:00,Combi,Q1113618
52.039838.15317,dpd_de,NKD Deutschland GmbH,,Versmold,,,DE,,,,DPD,Q541030
52.04153118.1546029,dpd_de,Spielwaren Knetter,,Versmold,,,DE,,,,DPD,Q541030
FordGK1D750  DEU,ford,Autohaus Hagemeier GmbH & Co. KG,,Versmold,,,DE,+49 5423 94330,ford-hagemeier-versmold.de,,Ford,Q44294
https://www.fressnapf.de/stores/fressnapf-versmold/,fressnapf_de,Fressnapf Versmold,,Versmold,,,DE,+49 5423 201820,https://www.fressnapf.de/stores/fressnapf-versmold/,Mo-Fr 09:00-19:00; Sa 09:00-18:00,Fressnapf,Q875796
2760916375,gls_de,Altmann,,Versmold,,,DE,+49 5423 2442,,Mo-Fr 09:00-18:00; Sa 09:00-13:00,General Logistics Systems,Q46495823
2760907415,gls_de,Spielwaren Knetter,,Versmold,,,DE,+49 5423 2317,,"Mo-Tu 10:00-12:30,14:30-18:00; Th-Fr 10:00-12:30,14:30-18:00; Sa 10:00-13:00",General Logistics Systems,Q46495823
1450,jysk,Versmold,,Versmold,,,DE,+49 5423 474780,https://jysk.de/filialen?storeId=1450,Mo-Th 10:00-18:30; Sa 09:30-16:00,JYSK,Q138913
2180,kik,KiK,,Versmold,,,DE,+49 5423 204234,,Mo-Fr 09:00-19:00; Sa 09:00-17:00,KiK,Q883965
5884,lidl_de,,,Versmold,,,DE,,,Mo-Sa 07:00-21:00,Lidl,Q151954
40320,man_truck_and_bus,Fritz Sieckendiek GmbH & Co. KG,,Versmold-Peckeloh,,,DE,+49 5423 941450,,,MAN Truck & Bus,Q708667
74387856,moneygram,MERIDIAN-MARKT - VERSMOLD,,VERSMOLD,,,DE,+49 173 2322546,,Mo-Sa 08:00-20:00; Su 00:00-24:00,MoneyGram,Q1944412
https://www.rossmann.de/de/filialen/nordrhein-westfalen/versmold/wiesenstr--5.html,rossmann_de,Rossmann Drogerie-Markt Wiesenstr. 5,,Versmold,,,DE,+49 5423 9533999,https://www.rossmann.de/de/filialen/nordrhein-westfalen/versmold/wiesenstr--5.html,Mo-Fr 08:30-19:30; Sa 08:30-19:00,Rossmann,Q316004
23833,seat_de,PS Zentrum GmbH & Co. KG,,Versmold,,,DE,+49 5423 204000,https://ps-zentrum.seat.de,,SEAT,Q188217
176259,sparkasse_de,Sparkasse Gütersloh-Rietberg-Versmold Geldautomat Versmold,,Versmold,,,DE,+49 5244 1012450,https://www.sparkasse.de/standorte/geldautomaten/sparkasse-guetersloh-rietberg-versmold-geldautomat-versmold-176259,Mo-Su 05:00-24:00,Sparkasse,Q13601825
176256,sparkasse_de,Sparkasse Gütersloh-Rietberg-Versmold Geschäftsstelle Versmold,,Versmold,,,DE,+49 5241 1012450,https://www.sparkasse.de/standorte/filialen/sparkasse-guetersloh-rietberg-versmold-geschaeftsstelle-versmold-176256,"Mo 09:00-12:00,14:00-17:00; Tu-We 09:00-12:00; Th 09:00-12:00,14:00-18:00; Fr 09:00-12:00",Sparkasse,Q13601825
EX_BP_1425,totalenergies,"ARAL TANKSTELLE VERSMOLD, MÜNS",,Versmold,,,DE,,https://store.totalenergies.fr/en_EN/EX_BP_1425,,Aral,Q565734
WES_DE_777,totalenergies,"VERSMOLD, WESTHEIDER WEG 46-48",,Versmold,,,DE,,https://store.totalenergies.fr/en_EN/WES_DE_777,,Westfalen,Q1411209
https://www.vlh.de/bst/3600/Oeffnungszeiten.html,vhl_de,VLH-Beraterin Britta Böving in Versmold,,Versmold,,,DE,+49 5423 9321748,https://www.vlh.de/bst/3600/,Mo-We 08:00-12:00; Th 16:00-18:00; Fr 08:00-12:00,Vereinigte Lohnsteuerhilfe e.V.,Q15852617
https://www.vlh.de/bst/3111/Oeffnungszeiten.html,vhl_de,VLH-Berater Hans-Joachim Richter in Versmold,,Versmold,,,DE,+49 5423 204878,https://www.vlh.de/bst/3111/,"Mo-Fr 09:00-12:00,14:00-18:00",Vereinigte Lohnsteuerhilfe e.V.,Q15852617
,visa,,,VERSMOLD-PECKELOH,,,DE,,,,,
,visa,,,VERSMOLD,,,DE,,,,,
,visa,,,VERSMOLD,,,DE,,,,,
,visa,,,VERSMOLD,,,DE,,,,,
,visa,,,VERSMOLD,,,DE,,,,,
,visa,,,VERSMOLD,,,DE,,,,,
https://shops.vodafone.de/versmold/berliner-str.-2,vodafone_de,Vodafone-Shop,,Versmold,,,DE,+49 5423 474979,https://shops.vodafone.de/versmold/berliner-str.-2,Mo-Fr 10:00-13:00; Sa 10:00-14:00,Vodafone,Q122141
https://www.vr.de/standorte/V/vb-versmold-eg-zweigstelle-oesterweg-8983.html,vr_bank,VB Versmold eG Zweigstelle Oesterweg,,Versmold,,,DE,+49 5423 943113,https://www.volksbank-versmold.de,"Mo 08:30-12:30,14:00-18:00; Tu 08:30-12:30,14:00-17:00; We 08:30-12:30; Th 08:30-12:30,14:00-18:00; Fr 08:30-13:00",,
https://www.vr.de/standorte/V/vb-versmold-eg-sb-stelle-loxten-8982.html,vr_bank,VB Versmold eG SB-Stelle Loxten,,Versmold,,,DE,+49 5423 94310,https://www.volksbank-versmold.de,Mo-Su 05:00-23:00,,
https://www.vr.de/standorte/V/geschaeftsstelle-peckeloh-10860.html,vr_bank,Geschäftsstelle Peckeloh,,Versmold,,,DE,+49 5423 94800,https://www.volksbank-bi-gt.de,"Mo-Tu 09:00-12:30; Th 09:00-12:30,14:00-18:00; Fr 09:00-12:30",,
https://www.vr.de/standorte/V/volksbank-versmold-eg-8981.html,vr_bank,Volksbank Versmold eG,,Versmold,,,DE,+49 5423 94310,https://www.volksbank-versmold.de,"Mo 08:30-12:30,14:00-18:00; Tu 08:30-12:30,14:00-17:00; We 08:30-12:30; Th 08:30-12:30,14:00-18:00; Fr 08:30-13:00",,
