Ref,Spider,Name,Address,City,State,Zipcode,Country,Phone,Website,Hours,Brand,WikiData
https://stores.advanceautoparts.com/ny/glen-cove/64-forest-ave,advance_auto_parts_us,Advance Auto Parts,,Glen Cove,NY,,US,+1 516-686-9935,https://stores.advanceautoparts.com/ny/glen-cove/64-forest-ave,Mo-Sa 07:30-21:00; Su 09:00-20:00,Advance Auto Parts,Q4686051
https://locators.bankofamerica.com/ny/glencove/financial-centers-glen-cove-13748.html,bankofamerica,Bank of America Financial Center & Drive-Thru ATM | Glen Cove - Forest Avenue,,Glen Cove,NY,,US,+1 516-671-6465,https://locators.bankofamerica.com/ny/glencove/financial-centers-glen-cove-13748.html,Mo-Fr 09:00-17:00; Sa 09:00-14:00,Bank of America,Q487907
https://locators.bankofamerica.com/ny/glencove/atm-glen-cove-102737.html,bankofamerica,Bank of America Drive-Thru ATM | Glen Cove,,Glen Cove,NY,,US,+1 844-401-8500,https://locators.bankofamerica.com/ny/glencove/atm-glen-cove-102737.html,,Bank of America,Q487907
https://locations.baskinrobbins.com/ny/glen-cove/5-brewster-st-302049-br,baskin_robbins_us,Baskin-Robbins™,,Glen Cove,NY,,US,+1 516-759-0858,https://locations.baskinrobbins.com/ny/glen-cove/5-brewster-st-302049-br,Mo-Su 04:00-23:00,Baskin-Robbins,Q584601
https://locations.baskinrobbins.com/ny/glen-cove/285-291-glen-street-340587-br,baskin_robbins_us,Baskin-Robbins™,,Glen Cove,NY,,US,+1 516-674-6756,https://locations.baskinrobbins.com/ny/glen-cove/285-291-glen-street-340587-br,Mo-Su 05:00-22:00,Baskin-Robbins,Q584601
130729,bluerhino,Costantino Nursery,,Glen Cove,NY,,US,+1 516-671-6064,,,Blue Rhino,Q65681213
13948,burgerking,Burger King,,Glen Cove ,NY,,US,+1 516-609-0813,https://www.bk.com/store-locator/store/restaurant_8228,Mo-Th 07:00-21:00; Fr-Sa 07:00-22:00; Su 07:00-21:00,Burger King,Q177054
A388,capital_one_us,Glen Cove,,GLEN COVE,NY,,US,,https://locations.capitalone.com/atm/NY/glen-cove-atm-A388,,Capital One,Q1034654
46348,capital_one_us,Glen Cove,,Glen Cove,NY,,US,+1 516-671-9700,https://locations.capitalone.com/bank/NY/Nassau-County-Glen-Cove-branch-46348,Mo-Fr 09:00-17:00; Sa 09:00-12:00,Capital One,Q1034654
29142113,chase_us,Glen Cove - New branch,,Glen Cove,NY,,US,+1 516-676-6605,https://locator.chase.com/ny/glen-cove/100-village-square,Mo-Fr 09:00-17:00; Sa 09:00-14:00,Chase,Q524629
ATM-2281,citizens_us,,,Glen Cove,NY,,US,,,,Citizens,Q5122694
,credit_union_us,Bethpage FCU,,Glen Cove,NY,,US,+1 800-628-7070,,Mo-Th 09:00-05:00; Fr 09:00-06:00; Sa 09:00-02:00,,
3247,cvs_us,CVS Pharmacy,,Glen Cove,NY,,US,+1 516-676-2298,https://www.cvs.com/store-locator/glen-cove-ny-pharmacies/65-forest-ave-glen-cove-ny-11542/storeid=3247,Mo-Th 07:00-22:00; Fr-Su 08:00-22:00,CVS Pharmacy,Q2078880
984,cvs_us,CVS Pharmacy,,Glen Cove,NY,,US,+1 516-671-1520,https://www.cvs.com/store-locator/glen-cove-ny-pharmacies/201-glen-st-glen-cove-ny-11542/storeid=984,24/7,CVS Pharmacy,Q2078880
997,cvs_us,CVS Pharmacy,,Glen Cove,NY,,US,+1 516-676-1334,https://www.cvs.com/store-locator/glen-cove-ny-pharmacies/206-glen-cove-avenue-glen-cove-ny-11542/storeid=997,Mo-Su 07:00-23:00,CVS Pharmacy,Q2078880
3584,dominos_pizza_us,Domino's Pizza,,Glen Cove,NY,,US,+1 516-671-6040,https://pizza.dominos.com/new-york/glen-cove/104-school-st,Mo-Th 10:30-01:00; Fr-Sa 10:30-02:00; Su 10:30-01:00,Domino's,Q839466
302049,dunkin_us,Dunkin',,Glen Cove,NY,,US,+1 516-759-0858,https://locations.dunkindonuts.com/en/ny/glen-cove/5-brewster-st/302049,Mo-Su 04:00-23:00,Dunkin',Q847743
340587,dunkin_us,Dunkin',,Glen Cove,NY,,US,+1 516-674-6756,https://locations.dunkindonuts.com/en/ny/glen-cove/285-291-glen-street/340587,Mo-Su 05:00-22:00,Dunkin',Q847743
E12418,enterprise,Glen Cove,,Glen Cove,NY,,US,+1 516-674-4300,,,Enterprise Rent-A-Car,Q17085454
2074,extra_space_storage,Glen Cove Self Storage at 88 Hazel St,,Glen Cove,NY,,US,+1 516-299-8590,https://www.extraspace.com/storage/facilities/us/new_york/glen_cove/2074/,Mo-Fr 09:30-18:00; Sa 09:00-17:30,Extra Space Storage,Q5422162
200313005,exxonmobil,43 GLEN COVE INC,,GLEN COVE,NY,,US,+1 516-759-4680,https://www.exxon.com/en/find-station/mobil-glencove-ny-43glencoveinc-200313005,Mo-Su 06:00-23:00,Mobil,Q109676002
https://stores.gnc.com/#24059690,gnc,GNC Cvs Plaza Shopping Center,,,NY,,US,+1 516-674-8029,https://stores.gnc.com/all-stores-new-york/glen-cove/214e-glen-cove-ave,Mo-Sa 10:00-20:00; Su 10:00-18:00,GNC,Q4808595
3966,gulf_pr_us,NICK'S AUTO REPAIR,,Glen Cove,NY,,US,+1 516-671-2140,https://www.gulfoil.com/nicks-auto-repair,,Gulf Oil,Q5617505
29696,h_r_block,H&R Block,,Glen Cove,NY,,US,+1 516-759-0033,https://www.hrblock.com/local-tax-offices/new-york/glen-cove/219-forest-ave/29696/,,H&R Block,Q5627799
65986606,moneygram,CVS - #997,,GLEN COVE,NY,,US,+1 516-676-1334,,Mo-Su 08:00-22:00,MoneyGram,Q1944412
https://locations.mtb.com/#25082174,mt_bank_us,,,,NY,,US,+1 800-724-2440,https://locations.mtb.com/ny/glencove/bank-branches-and-atms-glen-cove-ny-ah170145.html,24/7,M&T Bank,Q3272257
https://stores.petco.com/#27960110,petco,Petco Glen Cove,,Glen Cove,NY,,US,+1 516-676-8030,https://stores.petco.com/ny/glencove/pet-supplies-glencove-ny-280.html,Mo-Sa 09:00-21:00; Su 10:00-19:00,Petco,Q7171798
36481,seven_eleven_ca_us,7-Eleven Store,,Glen Cove,NY,,US,+1 516-676-4850,https://www.7-eleven.com/locations/ny/glen-cove/69-forest-ave-36481,,7-Eleven,Q259340
71-school-street,staples,"Staples Glen Cove, NY",,Glen Cove,NY,,US,,https://stores.staples.com/ny/glen-cove/71-school-street,Mo-Fr 08:00-21:00; Sa 09:00-21:00; Su 10:00-18:00,Staples,Q785943
0542,stop_and_shop,Super Stop & Shop,177 Forest Avenue,Glen Cove,NY,,US,,,,Stop and Shop,Q3658429
https://restaurants.subway.com/#14894371,subway,Subway,,Glen Cove Nassau,NY,,US,+1 516-629-6846,https://restaurants.subway.com/united-states/ny/glen-cove/217-forest-avenue,Mo-Su 08:30-21:30,Subway,Q244457
0376235800,sunoco_us,Sunoco,,GLEN COVE,NY,,US,+1 516-676-1515,,24/7,Sunoco,Q1423218
https://locations.tacobell.com/#6141584,taco_bell,Taco Bell,,Glen Cove,NY,,US,+1 516-726-3252,https://locations.tacobell.com/ny/glen-cove/98-forest-ave-.html,Mo-Th 08:00-01:00; Fr-Sa 08:00-02:00; Su 08:00-01:00,Taco Bell,Q752941
4SJD,tmobile_us,Glen St & Town Path,,Glen Cove,NY,,US,+1 516-200-2208,https://www.t-mobile.com/store-locator/ny/glen-cove/glen-st-town-path,,T-Mobile,Q3511885
1364880,usps,GLEN COVE,,GLEN COVE,NY,,US,+1 516-671-7847,,Mo-Fr 09:00-18:00; Sa 09:00-15:00,United States Postal Service,Q668687
1154200019,usps_collection_boxes,USPS COLLECTION BOX - BLUE BOX,38 CLEMENT ST,GLEN COVE,NY,,US,,,,United States Postal Service,Q668687
1154200023,usps_collection_boxes,USPS COLLECTION BOX - BLUE BOX,4 MEDICAL PLZ,GLEN COVE,NY,,US,,,,United States Postal Service,Q668687
1154200002,usps_collection_boxes,USPS COLLECTION BOX - BLUE BOX,48 FOREST AVE,GLEN COVE,NY,,US,,,,United States Postal Service,Q668687
1154200003,usps_collection_boxes,USPS COLLECTION BOX - BLUE BOX,101 SAINT ANDREWS LN,GLEN COVE,NY,,US,,,,United States Postal Service,Q668687
1154200027,usps_collection_boxes,USPS COLLECTION BOX - BLUE BOX,1 SCHOOL ST UNIT 3,GLEN COVE,NY,,US,,,,United States Postal Service,Q668687
1154200021,usps_collection_boxes,USPS COLLECTION BOX - BLUE BOX,225 FOREST AVE,GLEN COVE,NY,,US,,,,United States Postal Service,Q668687
1154200026,usps_collection_boxes,USPS COLLECTION BOX - BLUE BOX,9 GLEN ST # 13,GLEN COVE,NY,,US,,,,United States Postal Service,Q668687
1154200057,usps_collection_boxes,USPS COLLECTION BOX - PO LOBBY,2 GLEN COVE AVE,GLEN COVE,NY,,US,,,,United States Postal Service,Q668687
1154200043,usps_collection_boxes,USPS COLLECTION BOX - BLUE BOX,2 GLEN COVE AVE,GLEN COVE,NY,,US,,,,United States Postal Service,Q668687
1154200025,usps_collection_boxes,USPS COLLECTION BOX - BLUE BOX,51 GLEN ST # 53,GLEN COVE,NY,,US,,,,United States Postal Service,Q668687
1154200062,usps_collection_boxes,USPS COLLECTION BOX - PO LOBBY,2 GLEN COVE AVE,GLEN COVE,NY,,US,,,,United States Postal Service,Q668687
1154200017,usps_collection_boxes,USPS COLLECTION BOX - BLUE BOX,51 WOOLSEY AVE,GLEN COVE,NY,,US,,,,United States Postal Service,Q668687
1154200031,usps_collection_boxes,USPS COLLECTION BOX - BLUE BOX,130 GLEN ST,GLEN COVE,NY,,US,,,,United States Postal Service,Q668687
1154200030,usps_collection_boxes,USPS COLLECTION BOX - BLUE BOX,20 ST ANDREWS LANE,GLEN COVE,NY,,US,,,,United States Postal Service,Q668687
1154200013,usps_collection_boxes,USPS COLLECTION BOX - BLUE BOX,2A PORTER PL,GLEN COVE,NY,,US,,,,United States Postal Service,Q668687
1154200005,usps_collection_boxes,USPS COLLECTION BOX - BLUE BOX,217 GLEN ST,GLEN COVE,NY,,US,,,,United States Postal Service,Q668687
1154200034,usps_collection_boxes,USPS COLLECTION BOX - BLUE BOX,306 GLEN ST,GLEN COVE,NY,,US,,,,United States Postal Service,Q668687
1154200006,usps_collection_boxes,USPS COLLECTION BOX - BLUE BOX,200 GLEN COVE AVE,GLEN COVE,NY,,US,,,,United States Postal Service,Q668687
1154200035,usps_collection_boxes,USPS COLLECTION BOX - BLUE BOX,7 RIDGE DR,GLEN COVE,NY,,US,,,,United States Postal Service,Q668687
1154200009,usps_collection_boxes,USPS COLLECTION BOX - BLUE BOX,63 WOLFLE ST,GLEN COVE,NY,,US,,,,United States Postal Service,Q668687
1154200016,usps_collection_boxes,USPS COLLECTION BOX - BLUE BOX,17 RONAN RD,GLEN COVE,NY,,US,,,,United States Postal Service,Q668687
A00000252825,verizon_us,Wireless Zone Glen Cove,,Glen Cove,NY,,US,+1 516-399-2424,https://www.verizon.com/stores/details/new-york/glen-cove/star-wireless-glen-cove-1745022/,Mo-Sa 10:00-20:00; Su 10:00-19:00,Verizon,Q919641
,visa,,,EAST MEADOW,NY,,US,,,,,
,visa,,,GREENVALE,NY,,US,,,,,
,visa,,,GLEN COVE,NY,,US,,,,,
,visa,,,GLEN COVE,NY,,US,,,,,
,visa,,,GLEN COVE,NY,,US,,,,,
,visa,,,GLEN COVE,NY,,US,,,,,
,visa,,,GLEN COVE,NY,,US,,,,,
,visa,,,GLEN COVE,NY,,US,,,,,
,visa,,,GLEN COVE,NY,,US,,,,,
,visa,,,GLEN COVE,NY,,US,,,,,
,visa,,,GLEN COVE,NY,,US,,,,,
,visa,,,GLEN COVE,NY,,US,,,,,
,visa,,,GLEN COVE,NY,,US,,,,,
,visa,,,GLEN COVE,NY,,US,,,,,
,visa,,,GLEN COVE,NY,,US,,,,,
,visa,,,GLEN COVE,NY,,US,,,,,
,visa,,,GLEN COVE,NY,,US,,,,,
,visa,,,GLEN COVE,NY,,US,,,,,
,visa,,,GLENCOVE,NY,,US,,,,,
,visa,,,GLEN COVE,NY,,US,,,,,
,visa,,,GLEN COVE,NY,,US,,,,,
,visa,,,GLEN COVE,NY,,US,,,,,
,visa,,,GLEN COVE,NY,,US,,,,,
,visa,,,GLEN COVE,NY,,US,,,,,
,visa,,,GLEN COVE,NY,,US,,,,,
,visa,,,GLEN COVE,NY,,US,,,,,
,visa,,,GLEN COVE,NY,,US,,,,,
,visa,,,GLEN COVE,NY,,US,,,,,
,visa,,,GLEN COVE,NY,,US,,,,,
,visa,,,GLEN COVE,NY,,US,,,,,
,visa,,,GLEN COVE,NY,,US,,,,,
,visa,,,GLEN COVE,NY,,US,,,,,
,visa,,,GLEN COVE,NY,,US,,,,,
,visa,,,GLEN COVE,NY,,US,,,,,
,visa,,,GLEN COVE,NY,,US,,,,,
,visa,,,GLEN COVE,NY,,US,,,,,
,visa,,,GLEN COVE,NY,,US,,,,,
,visa,,,GLEN COVE,NY,,US,,,,,
,visa,,,GLEN COVE,NY,,US,,,,,
,visa,,,GLEN COVE,NY,,US,,,,,
,visa,,,SEA CLIFF,NY,,US,,,,,
,visa,,,GLEN COVE,NY,,US,,,,,
,visa,,,GLEN COVE,NY,,US,,,,,
,visa,,,GLEN COVE,NY,,US,,,,,
,visa,,,GLEN COVE,NY,,US,,,,,
,visa,,,GLEN COVE,NY,,US,,,,,
,visa,,,GLEN COVE,NY,,US,,,,,
,visa,,,GLEN COVE,NY,,US,,,,,
,visa,,,GLEN COVE,NY,,US,,,,,
,visa,,,GLEN COVE,NY,,US,,,,,
,visa,,,GLEN COVE,NY,,US,,,,,
,visa,,,GLEN COVE,NY,,US,,,,,
,visa,,,GLEN COVE,NY,,US,,,,,
,visa,,,GLEN COVE,NY,,US,,,,,
,visa,,,GLEN CLOVE,NY,,US,,,,,
,visa,,,GLEN COVE,NY,,US,,,,,
https://www.walgreens.com/locator/walgreens-93+forest+ave-glen+cove-ny-11542/id=2626,walgreens,Walgreens,,Glen Cove,NY,,US,+1 516-671-4908,https://www.walgreens.com/locator/walgreens-93+forest+ave-glen+cove-ny-11542/id=2626,Mo-Su 07:00-23:00,Walgreens,Q1591889
https://locations.wendys.com/#9252601,wendys,"Wendy's Glen Cove #13 in Glen Cove, NY",,Glen Cove,NY,,US,+1 516-676-7023,https://locations.wendys.com/united-states/ny/glen-cove/210-glen-street,"Mo-Su 07:00-10:30,08:00-22:00",Wendy's,Q550258
c469afcc683a54dd32033474b883c5cd,western_union,RANVEER WIRELESS INC.,,Glen Cove,NY,,US,+1 516-723-9559,https://location.westernunion.com/us/ny/glen-cove/c469afcc683a54dd32033474b883c5cd,Mo-Sa 11:00-19:00,Western Union,Q861042
9a2aa8a6c8ec1b1a1a3c78a91e9f7dfe,western_union,7-ELEVEN #36481,,Glen Cove,NY,,US,+1 516-676-4850,https://location.westernunion.com/us/ny/glen-cove/9a2aa8a6c8ec1b1a1a3c78a91e9f7dfe,,Western Union,Q861042
ymca-glen-cove,ymca,YMCA at Glen Cove,125 Dosoris Lane,Glen Cove,NY,,US,+1 516-671-8270,https://www.ymca.org/locations/ymca-glen-cove,Mo-Fr 06:00-21:00; Sa 07:00-16:00,YMCA,Q157169
