Ref,Spider,Name,Address,City,State,Zipcode,Country,Phone,Website,Hours,Brand,WikiData
209170,alior_bank_pl,Oddział w Warszawie,,Warszawa,,,PL,,,Mo-Fr 09:00-17:00,Alior Bank,Q9148395
1638,carrefour_pl,Carrefour Express Convenience,,Warszawa,,,PL,,,Mo-Su 06:00-22:00,Carrefour Express,Q2940190
3085,carrefour_pl,Carrefour Express Zielony,,Warszawa ,,,PL,,,Mo-Sa 06:00-22:00; Su 09:00-21:00,Carrefour Express,Q2940190
2479,carrefour_pl,Supermarket Franczyzowy,,Warszawa,,,PL,,,Mo-Sa 08:00-22:00; Su 09:00-21:00,Carrefour Market,Q2689639
"52.159992000|21.073299000|Wilanów|ul. Klimczaka 17, Warszawa, 02-797, Poland",costacoffee_pl,Wilanów,"ul. Klimczaka 17, Warszawa, 02-797, Poland",Warszawa,,,PL,,,,Costa Coffee,Q608845
46165407,empik_pl,Warszawa KEN EX (SP),ul. Aleja Komisji Edukacji Narodowej 55,Warszawa,,,PL,+48 532 547 025,"https://www.empik.com/salony-empik/warszawa/warszawa-ken-ex-sp,46165407,e",Mo-Fr 09:00-21:00; Sa 09:00-19:00; Su 10:00-18:00,Empik,Q3045978
35931,empik_pl,Warszawa Klimczaka (SP),ul. Klimczaka 22,Warszawa,,,PL,+48 605 496 493,"https://www.empik.com/salony-empik/warszawa/warszawa-klimczaka-sp,35931,e",Mo-Sa 09:00-20:30; Su 10:00-18:00,Empik,Q3045978
12595,empik_pl,Warszawa Klimczaka Papiernik by empik,ul. Franciszka Klimczaka 17 lok 204,Warszawa,,,PL,+48 22 462 72 50,"https://www.empik.com/salony-empik/warszawa/warszawa-klimczaka-papiernik-by-empik,12595,e",Mo-Fr 10:00-20:00; Sa 10:00-18:00; Su 10:00-16:00,Empik,Q3045978
ARWNGCN7,millennium_bank_pl,ARWNGCN7,,Warszawa,,,PL,,,,Bank Millennium,Q4855947
RCNN0D14,millennium_bank_pl,RCNN0D14,,Warszawa,,,PL,,,,Bank Millennium,Q4855947
RCNN0E80,millennium_bank_pl,RCNN0E80,,Warszawa,,,PL,,,,Bank Millennium,Q4855947
RCNN0I02,millennium_bank_pl,RCNN0I02,,Warszawa,,,PL,,,,Bank Millennium,Q4855947
RCWN0010,millennium_bank_pl,RCWN0010,,Warszawa,,,PL,,,,Bank Millennium,Q4855947
SRWN0E6R,millennium_bank_pl,SRWN0E6R,,Warszawa,,,PL,,,,Bank Millennium,Q4855947
RNETA186,millennium_bank_pl,RNETA186,,Warszawa,,,PL,,,,Bank Millennium,Q4855947
RNETA365,millennium_bank_pl,RNETA365,,Warszawa,,,PL,,,,Bank Millennium,Q4855947
70990865,moneygram,FUP WARSZAWA 78 - POCZTA POLSKA,,WARSZAWA,,,PL,+48 22 656 51 19,,Mo-Fr 06:00-22:00; Sa 08:00-20:00; Su 00:00-24:00,MoneyGram,Q1944412
751164,orlen_paczka_pl,,,Warszawa,,,PL,,,Mo-Fr 07:00-20:00; Sa 08:00-16:00,Orlen Paczka,Q110457879
452360,orlen_paczka_pl,,,Warszawa,,,PL,,,,Orlen Paczka,Q110457879
204,putka_pl,Putka,,Warszawa,,,PL,+48 607 043 612,https://www.putka.pl/sklepy-firmowe/1/0/204,Mo-Fr 06:30-20:00; Sa 07:00-16:00,Putka,Q113093586
258,putka_pl,Putka,,Warszawa,,,PL,+48 607 442 762,https://www.putka.pl/sklepy-firmowe/1/0/258,Mo-Fr 06:30-20:00; Sa 07:00-16:00,Putka,Q113093586
245,putka_pl,Putka,,Warszawa,,,PL,+48 607 442 873,https://www.putka.pl/sklepy-firmowe/1/0/245,Mo-Fr 07:00-20:00; Sa 07:00-15:00,Putka,Q113093586
111,putka_pl,Putka,,Warszawa,,,PL,+48 607 046 258,https://www.putka.pl/sklepy-firmowe/1/0/111,Mo-Fr 07:00-20:00; Sa 07:00-15:30,Putka,Q113093586
1522497,santander_pl,69 Oddział w Warszawie,,Warszawa,,,PL,+48 61 811 99 99,,Mo-Fr 09:30-16:30,Santander,Q806653
https://restaurants.subway.com/#14929690,subway,Subway Natolin,,Warszawa,,,PL,+48 602 552 847,https://restaurants.subway.com/poland/mz/warszawa/komisji-edukacji-narodowej-36a,Mo-Sa 09:00-21:00; Su 10:00-20:00,Subway,Q244457
707,tmobile_pl,T-Mobile,,Warszawa,,,PL,+48 22 243 50 76,,Mo-Sa 09:00-21:00,T-Mobile,Q327634
,visa,,,WARSZAWA,,,PL,,,,,
,visa,,,WARSZAWA,,,PL,,,,,
,visa,,,WARSZAWA,,,PL,,,,,
,visa,,,WARSZAWA,,,PL,,,,,
,visa,,,WARSZAWA,,,PL,,,,,
,visa,,,WARSZAWA,,,PL,,,,,
,visa,,,WARSZAWA,,,PL,,,,,
,visa,,,WARSZAWA,,,PL,,,,,
,visa,,,WARSZAWA,,,PL,,,,,
,visa,,,WARSZAWA,,,PL,,,,,
,visa,,,WARSZAWA,,,PL,,,,,
,visa,,,WARSZAWA,,,PL,,,,,
,visa,,,WARSZAWA,,,PL,,,,,
,visa,,,WARSZAWA,,,PL,,,,,
,visa,,,WARSZAWA,,,PL,,,,,
,visa,,,WARSZAWA,,,PL,,,,,
,visa,,,WARSZAWA,,,PL,,,,,
,visa,,,WARSZAWA,,,PL,,,,,
,visa,,,WARSZAWA,,,PL,,,,,
,visa,,,WARSZAWA,,,PL,,,,,
ID03005,zabka_pl,Żabka,,Warszawa,,,PL,,,Mo-Sa 06:00-23:00; Su 10:00-21:00,Żabka,Q2589061
ID05048,zabka_pl,Żabka,,Warszawa,,,PL,,,Mo-Sa 06:00-23:00; Su 09:00-21:00,Żabka,Q2589061
ID08459,zabka_pl,Żabka,,Warszawa,,,PL,,,Mo-Sa 06:00-23:00; Su 11:00-21:00,Żabka,Q2589061
ID08285,zabka_pl,Żabka,,Warszawa,,,PL,,,Mo-Sa 06:00-23:00,Żabka,Q2589061
ID06202,zabka_pl,Żabka,,Warszawa,,,PL,,,Mo-Sa 06:00-23:00; Su 10:00-22:00,Żabka,Q2589061
ID06276,zabka_pl,Żabka,,Warszawa,,,PL,,,Mo-Sa 06:00-23:00; Su 09:00-21:00,Żabka,Q2589061
ID06774,zabka_pl,Żabka,,Warszawa,,,PL,,,Mo-Sa 06:00-23:00; Su 11:00-20:00,Żabka,Q2589061
ID07269,zabka_pl,Żabka,,Warszawa,,,PL,,,Mo-Sa 00:00-24:00,Żabka,Q2589061
ID07427,zabka_pl,Żabka,,Warszawa,,,PL,,,Mo-Sa 06:00-23:00; Su 09:00-21:00,Żabka,Q2589061
ID08339,zabka_pl,Żabka,,Warszawa,,,PL,,,Mo-Sa 06:00-23:00; Su 09:00-21:00,Żabka,Q2589061
ID08057,zabka_pl,Żabka,,Warszawa,,,PL,,,Mo-Sa 06:00-23:00,Żabka,Q2589061
ID08408,zabka_pl,Żabka,,Warszawa,,,PL,,,Mo-Sa 06:00-23:00; Su 11:00-20:00,Żabka,Q2589061
ID09058,zabka_pl,Żabka,,Warszawa,,,PL,,,Mo-Sa 06:00-23:00; Su 10:00-22:00,Żabka,Q2589061
