Ref,Spider,Name,Address,City,State,Zipcode,Country,Phone,Website,Hours,Brand,WikiData
/locations/propane-offices/illinois/peoria/3916-sw-adams-st,amerigas,"AmerGas Propane | Peoria, Illinois",,Peoria,IL,,US,+1 309-637-3518,/locations/propane-offices/illinois/peoria/3916-sw-adams-st,,AmeriGas,Q23130318
623,autozone_us,AutoZone Auto Parts Peoria,,Peoria,IL,,US,+1 309-676-3161,https://www.autozone.com/locations/il/peoria/908-s-western.html,Mo-Sa 08:00-20:00; Su 09:00-20:00,AutoZone,Q4826087
180325,bluerhino,Peoria HyVee #1520 C-Store,,Peoria,IL,,US,+1 309-692-2549,,,Blue Rhino,Q65681213
04171163542036160500100000961334,bp,BP,,Peoria,IL,,US,1111111111,,24/7,BP,Q152057
vba_328c,department_veterans_affairs,Veteran Readiness and Employment Office at Peoria Vet Center,,Peoria,IL,,US,+1 312-286-5708,,,Department Veterans Affairs,Q592576
15326,dollar_general,Dollar General,,Peoria,IL,,US,+1 309-324-0010,https://www.dollargeneral.com/store-directory/il/peoria/15326,Mo-Su 08:00-21:00,Dollar General,Q145168
https://branches.fleetpride.com/il/peoria/truckparts-peo.html,fleet_pride_us,FleetPride,,Peoria,IL,,US,+1 309-674-1621,https://branches.fleetpride.com/il/peoria/truckparts-peo.html,Mo-Fr 08:00-17:00,FleetPride,Q121436710
4317,fresenius_kidney_care_us,Fresenius Kidney Care Peoria Downtown,,Peoria,IL,,US,+1 800-881-5101,https://www.freseniuskidneycare.com/dialysis-centers/illinois/4317,Mo-Sa 05:30-18:00,,
0000889401,phillips_66_conoco_76,PEORIA ONE STOP LLC,,PEORIA,IL,,US,+1 309-673-6691,,,Phillips 66,Q1656230
6160500005,usps_collection_boxes,USPS COLLECTION BOX - BLUE BOX,1823 W LINCOLN AVE,PEORIA,IL,,US,,,,United States Postal Service,Q668687
6160500011,usps_collection_boxes,USPS COLLECTION BOX - BLUE BOX,1833 S GRISWOLD ST,PEORIA,IL,,US,,,,United States Postal Service,Q668687
,visa,,,PEORIA,IL,,US,,,,,
,visa,,,PEORIA,IL,,US,,,,,
,visa,,,PEORIA,IL,,US,,,,,
,visa,,,PEORIA,IL,,US,,,,,
,visa,,,PEORIA,IL,,US,,,,,
,visa,,,PEORIA,IL,,US,,,,,
,visa,,,PEORIA,IL,,US,,,,,
,visa,,,PEORIA,IL,,US,,,,,
,visa,,,PEORIA,IL,,US,,,,,
,visa,,,PEORIA,IL,,US,,,,,
,visa,,,PEORIA,IL,,US,,,,,
,visa,,,PEORIA,IL,,US,,,,,
,visa,,,PEORIA,IL,,US,,,,,
,visa,,,PEORIA,IL,,US,,,,,
,visa,,,PEORIA,IL,,US,,,,,
,visa,,,PEORIA,IL,,US,,,,,
,visa,,,PEORIA,IL,,US,,,,,
,visa,,,PEORIA,IL,,US,,,,,
,visa,,,PEORIA,IL,,US,,,,,
,visa,,,PEORIA,IL,,US,,,,,
,visa,,,PEORIA,IL,,US,,,,,
,visa,,,PEORIA,IL,,US,,,,,
,visa,,,PEORIA,IL,,US,,,,,
,visa,,,PEORIA,IL,,US,,,,,
,visa,,,PEORIA,IL,,US,,,,,
