Ref,Spider,Name,Address,City,State,Zipcode,Country,Phone,Website,Hours,Brand,WikiData
https://local.fedex.com/#27944565,fedex,FedEx World Service Center,,,Thua Thien-Hue,,VN,,https://local.fedex.com/en-vn/thua-thien-hue/dadg,,FedEx,Q459477
,visa,,,HUE,THUA THIEN HUE,,VN,,,,,
,visa,,,HUE,THUA THIEN HUE,,VN,,,,,
ee0436af1a9ba46635e3750138552108,western_union,CTY TNHH TV HAI DUONG,,Hue,THUA THIEN HUE,,VN,+84 915 187 598,https://location.westernunion.com/vn/thua-thien-hue/hue/ee0436af1a9ba46635e3750138552108,Mo-Su 06:00-21:00,Western Union,Q861042
5c9e9c97a30b3fe343e493d0a8e697c1,western_union,BIDV PGD THUAN AN CN PHU XUAN,,Thua Thien Hue,THUA THIENHUE,,VN,(+84) 543-984775,https://location.westernunion.com/vn/thua-thienhue/thua-thien-hue/5c9e9c97a30b3fe343e493d0a8e697c1,Mo-Fr 07:30-17:00,Western Union,Q861042
8869186b8aca77b616792858564c6c91,western_union,DNTN HANG VANG TRONG QUANG,,Hue,THUA THIENHUE,,VN,+84 234 3866 251,https://location.westernunion.com/vn/thua-thienhue/hue/8869186b8aca77b616792858564c6c91,Mo-Su 06:00-21:00,Western Union,Q861042
31c37e9297e7d059de87d6f1afaf679c,western_union,LIENVIETPOSTBANK PGD PHONG DIEN,,Thua Thien Hue,THUA THIENHUE,,VN,(+84) 54-3684466,https://location.westernunion.com/vn/thua-thienhue/thua-thien-hue/31c37e9297e7d059de87d6f1afaf679c,Mo-Fr 07:30-17:30; Sa 07:30-11:30,Western Union,Q861042
a1532992d368484d9164255b380f1217,western_union,BIDV PGD SONG BO CN HUE,,Thua Thien Hue,THUA THIENHUE,,VN,(+84) 546-262005,https://location.westernunion.com/vn/thua-thienhue/thua-thien-hue/a1532992d368484d9164255b380f1217,Mo-Fr 07:30-17:00; Sa 07:00-20:00; Su 07:30-11:00,Western Union,Q861042
442100e30e4fbcb0581659b35040250e,western_union,MILITARY BANK NAM VI DA,,Thua Thien Hue,THUA THIENHUE,,VN,(+84) 24-6250333,https://location.westernunion.com/vn/thua-thienhue/thua-thien-hue/442100e30e4fbcb0581659b35040250e,Mo-Fr 08:00-17:00; Sa 08:00-11:30,Western Union,Q861042
89e15879367421713d3723f699835b00,western_union,DNTN LAM PHUOC,,Thua Thien Hue,THUA THIENHUE,,VN,+84 914 002 423,https://location.westernunion.com/vn/thua-thienhue/thua-thien-hue/89e15879367421713d3723f699835b00,Mo-Su 06:00-21:00,Western Union,Q861042
0aec35fdd61b16676366a4e3588cb459,western_union,VIETINBANK CN HUE PGD HUONG TRA,,Thua Thien Hue,THUA THIENHUE,,VN,(+84) 54-3768879,https://location.westernunion.com/vn/thua-thienhue/thua-thien-hue/0aec35fdd61b16676366a4e3588cb459,Mo-Fr 07:30-18:00,Western Union,Q861042
ea167efcde290e3b8edf870b1e2b95d5,western_union,CTY TNHH XNK NONG SAN PHUOC LOC,,Hue,THUA THIENHUE,,VN,+84 913 414 889,https://location.westernunion.com/vn/thua-thienhue/hue/ea167efcde290e3b8edf870b1e2b95d5,Mo-Su 07:30-24:00,Western Union,Q861042
6bd57b13f38ea45ce22d9c0b65376ea2,western_union,VP BANK_PGD MAI THUC LOAN,,Thua Thien Hue,THUA THIENHUE,,VN,(+84) 54-3545556,https://location.westernunion.com/vn/thua-thienhue/thua-thien-hue/6bd57b13f38ea45ce22d9c0b65376ea2,Mo-Fr 07:00-18:00; Sa 08:00-12:00,Western Union,Q861042
d22eba36ed0eac217ac25af7f678673b,western_union,ABBANK PGD DONG BA,,Thua Thien Hue,THUA THIENHUE,,VN,(+84) 54-3599333,https://location.westernunion.com/vn/thua-thienhue/thua-thien-hue/d22eba36ed0eac217ac25af7f678673b,Mo-Fr 07:00-17:30; Sa 08:00-11:30,Western Union,Q861042
8c66912b16f986d7c1bf81b54f1425ab,western_union,CS3 THUOC CN DNTN HV PHU CUONG   CS2,,Thanh Pho Hue,THUA THIENHUE,,VN,+84 234 3524 091,https://location.westernunion.com/vn/thua-thienhue/thanh-pho-hue/8c66912b16f986d7c1bf81b54f1425ab,Mo-Su 06:00-21:00,Western Union,Q861042
8b7ff8439f6058c7049258980847b477,western_union,PVCOMBANK TAY LOC,,Thua Thien Hue,THUA THIENHUE,,VN,(+84) 54-3599955,https://location.westernunion.com/vn/thua-thienhue/thua-thien-hue/8b7ff8439f6058c7049258980847b477,Mo-Fr 08:00-16:00; Sa 07:00-20:00,Western Union,Q861042
be75ead39b6225904b654758d14f526e,western_union,DNTN MAI LY,,Thua Thien Hue,THUA THIENHUE,,VN,+84 234 3871 232,https://location.westernunion.com/vn/thua-thienhue/thua-thien-hue/be75ead39b6225904b654758d14f526e,Mo-Su 06:00-21:00,Western Union,Q861042
58571dcad85b543f4632b20d80e41477,western_union,VP BANK_CN HUE,,Thua Thien Hue,THUA THIENHUE,,VN,(+84) 54-3814646,https://location.westernunion.com/vn/thua-thienhue/thua-thien-hue/58571dcad85b543f4632b20d80e41477,Mo-Fr 08:00-17:30; Sa 08:00-12:00,Western Union,Q861042
1d82112694dec754afc870e3cad84a03,western_union,ABBANK CN THUA THIEN HUE,,Thua Thien Hue,THUA THIENHUE,,VN,(+84) 54-2220999,https://location.westernunion.com/vn/thua-thienhue/thua-thien-hue/1d82112694dec754afc870e3cad84a03,Mo-Fr 07:00-18:00; Sa 07:00-12:00,Western Union,Q861042
17b475422f9485bb735007af0fcea613,western_union,MSB XUAN PHU,,Thua Thien Hue,THUA THIENHUE,,VN,+84 234 7306 688,https://location.westernunion.com/vn/thua-thienhue/thua-thien-hue/17b475422f9485bb735007af0fcea613,Mo-Fr 07:30-17:30; Sa 07:30-11:30,Western Union,Q861042
6e7428b62305cd33e809b8ccb41f3b0d,western_union,TIEN PHONG BANK HUE,,Hue,THUA THIENHUE,,VN,+84 28 7309 1111,https://location.westernunion.com/vn/thua-thienhue/hue/6e7428b62305cd33e809b8ccb41f3b0d,Mo-Fr 07:30-17:00; Sa 07:30-12:00,Western Union,Q861042
ec785e93f1ea11cc3e9414a3eee55b07,western_union,NAM A BANK CN THUA THIEN HUE,,Hue,THUA THIENHUE,,VN,+84 234 3699 699,https://location.westernunion.com/vn/thua-thienhue/hue/ec785e93f1ea11cc3e9414a3eee55b07,Mo-Fr 07:30-17:00; Sa 07:30-11:30,Western Union,Q861042
da325f7bc393271319951ef87fbd40f8,western_union,BIDV DGD NGUYEN TRAI  TT HUE,,Thua Thien Hue,THUA THIENHUE,,VN,(+84) 54-3599188,https://location.westernunion.com/vn/thua-thienhue/thua-thien-hue/da325f7bc393271319951ef87fbd40f8,Mo-Su 07:00-20:00,Western Union,Q861042
280125454b0a8a9d8292e6d22c48133c,western_union,ACB CN HUE,,Hue,THUA THIENHUE,,VN,+84 234 3571 175,https://location.westernunion.com/vn/thua-thienhue/hue/280125454b0a8a9d8292e6d22c48133c,Mo-Fr 07:30-19:00; Sa 07:30-12:00,Western Union,Q861042
795f9c71ba21a8337a8f4f8375eb6c6a,western_union,BIDV TRU SO CN TT HUE,,Thua Thien Hue,THUA THIENHUE,,VN,(+84) 54-3848707,https://location.westernunion.com/vn/thua-thienhue/thua-thien-hue/795f9c71ba21a8337a8f4f8375eb6c6a,Mo-Su 07:00-20:00,Western Union,Q861042
c551e8eaf7199d92f13b9cca2cfa80a9,western_union,VIETINBANK HUE PGD DUY TAN,,Thua Thien Hue,THUA THIENHUE,,VN,(+84) 54-3830212,https://location.westernunion.com/vn/thua-thienhue/thua-thien-hue/c551e8eaf7199d92f13b9cca2cfa80a9,Mo-Fr 07:30-18:00,Western Union,Q861042
355433a79a93307b8e13e21460294562,western_union,VIETINBANK HUE PKT,,Thua Thien Hue,THUA THIENHUE,,VN,(+84) 54-3823275,https://location.westernunion.com/vn/thua-thienhue/thua-thien-hue/355433a79a93307b8e13e21460294562,Mo-Fr 07:30-16:30,Western Union,Q861042
f56228fd7b168b3aae2f2f35ed7fa548,western_union,MILITARYBANK HUE,,Thua Thien Hue,THUA THIENHUE,,VN,(+84) 24-6250999,https://location.westernunion.com/vn/thua-thienhue/thua-thien-hue/f56228fd7b168b3aae2f2f35ed7fa548,Mo-Fr 08:00-17:00; Sa 08:00-11:30,Western Union,Q861042
0812fbd5768d8bffc1ac38cd22974282,western_union,VIETINBANK HUE PGD TAY LOC,,Thua Thien Hue,THUA THIENHUE,,VN,(+84) 54-3539965,https://location.westernunion.com/vn/thua-thienhue/thua-thien-hue/0812fbd5768d8bffc1ac38cd22974282,Mo-Fr 07:30-18:00,Western Union,Q861042
d467154fa151cfe294ff618acc857972,western_union,VIETINBANK NAM THUATHIENHUE PGD CAUHAI,,Thua Thien Hue,THUA THIENHUE,,VN,(+84) 54-3676766,https://location.westernunion.com/vn/thua-thienhue/thua-thien-hue/d467154fa151cfe294ff618acc857972,Mo-Fr 07:30-18:00,Western Union,Q861042
b3f77d8a99144c7671155a57d844ded9,western_union,SEABANK TO HUU CN HUE,,Thanh Pho Hue,THUA THIENHUE,,VN,+84 234 3948 688,https://location.westernunion.com/vn/thua-thienhue/thanh-pho-hue/b3f77d8a99144c7671155a57d844ded9,Mo-Fr 07:30-17:30,Western Union,Q861042
b8cefd391cbcd9f5994a0fdd4dafa313,western_union,MILITARY BANK BAC TRUONG TIEN,,Thua Thien Hue,THUA THIENHUE,,VN,(+84) 24-6282366,https://location.westernunion.com/vn/thua-thienhue/thua-thien-hue/b8cefd391cbcd9f5994a0fdd4dafa313,Mo-Fr 08:00-17:00; Sa 08:00-11:30,Western Union,Q861042
470e90a35feccdcfdf6a1e9517da2c8f,western_union,VIETINBANK HUE PGD THUAN THANH,,Thua Thien Hue,THUA THIENHUE,,VN,(+84) 54-3535712,https://location.westernunion.com/vn/thua-thienhue/thua-thien-hue/470e90a35feccdcfdf6a1e9517da2c8f,Mo-Fr 07:30-18:00,Western Union,Q861042
db715384638ce49311294b43aa270bd2,western_union,BIDV QUAY GD THANH NOI,,Thua Thien Hue,THUA THIENHUE,,VN,(+84) 54-3535803,https://location.westernunion.com/vn/thua-thienhue/thua-thien-hue/db715384638ce49311294b43aa270bd2,Mo-Su 07:00-20:00,Western Union,Q861042
c1579b54c9d7f01eabbab49952841052,western_union,VIETINBANK HUE PGD GIA HOI,,Thua Thien Hue,THUA THIENHUE,,VN,(+84) 54-3535713,https://location.westernunion.com/vn/thua-thienhue/thua-thien-hue/c1579b54c9d7f01eabbab49952841052,Mo-Fr 07:30-18:00,Western Union,Q861042
72cb19d3f87bbcbf70ecb9011cbb0681,western_union,SHB CN HUE PGD PHU HOI,,Thua Thien Hue,THUA THIENHUE,,VN,(+84) 54-3986999,https://location.westernunion.com/vn/thua-thienhue/thua-thien-hue/72cb19d3f87bbcbf70ecb9011cbb0681,Mo-Fr 07:30-16:30; Sa 08:00-11:30,Western Union,Q861042
f33ad16d3dab402328357b5bf2bf7bb2,western_union,LIENVIETPOSTBANK CN HUE PGD QU,,Thua Thien Hue,THUA THIENHUE,,VN,+84 234 3909 999,https://location.westernunion.com/vn/thua-thienhue/thua-thien-hue/f33ad16d3dab402328357b5bf2bf7bb2,Mo-Fr 07:30-17:30; Sa 07:30-11:30,Western Union,Q861042
db1d11748ae55f8c9621665f47aa85f3,western_union,MSB HUE,,Thua Thien Hue,THUA THIENHUE,,VN,(+84) 54-3981111,https://location.westernunion.com/vn/thua-thienhue/thua-thien-hue/db1d11748ae55f8c9621665f47aa85f3,Mo-Fr 07:30-17:30; Sa 07:30-11:30,Western Union,Q861042
035463cd71ba8f168b251187033c974e,western_union,PVCOMBANK HUE,,Thua Thien Hue,THUA THIENHUE,,VN,(+84) 54-3883888,https://location.westernunion.com/vn/thua-thienhue/thua-thien-hue/035463cd71ba8f168b251187033c974e,Mo-Fr 08:00-16:00; Sa 07:00-20:00,Western Union,Q861042
f37b7b9e455dfaf3e65e2668775200af,western_union,LIEN VIET BANK-CN HUE,,Thua Thien Hue,THUA THIENHUE,,VN,(+84) 54-6268668,https://location.westernunion.com/vn/thua-thienhue/thua-thien-hue/f37b7b9e455dfaf3e65e2668775200af,Mo-Su 07:00-20:00,Western Union,Q861042
308e6f9cbef520494935835baf617db4,western_union,SHB PHU XUAN CN HUE,,Hue,THUA THIENHUE,,VN,+84 234 3772 377,https://location.westernunion.com/vn/thua-thienhue/hue/308e6f9cbef520494935835baf617db4,Mo-Fr 07:30-17:00; Sa 08:00-11:30,Western Union,Q861042
15dd8945891b471cdc9543c1ebf2006f,western_union,VIETINBANK HUE PGD NGUYEN HUE,,Thua Thien Hue,THUA THIENHUE,,VN,(+84) 54-3837947,https://location.westernunion.com/vn/thua-thienhue/thua-thien-hue/15dd8945891b471cdc9543c1ebf2006f,Mo-Fr 07:30-18:00,Western Union,Q861042
22a12a9136afde6ff6f092a2cbf02174,western_union,ABBANK PGD NGUYEN HUE,,Thua Thien Hue,THUA THIENHUE,,VN,(+84) 54-2227999,https://location.westernunion.com/vn/thua-thienhue/thua-thien-hue/22a12a9136afde6ff6f092a2cbf02174,Mo-Fr 07:00-17:30; Sa 08:00-11:30,Western Union,Q861042
32c32bd8e875b052528ce672febf1192,western_union,BIDV PGD AN CUU,,Thua Thien Hue,THUA THIENHUE,,VN,(+84) 54-3826983,https://location.westernunion.com/vn/thua-thienhue/thua-thien-hue/32c32bd8e875b052528ce672febf1192,Mo-Su 07:00-20:00,Western Union,Q861042
19571c76b8d3706bf6982f06bf5fd5d8,western_union,BIDV DGD BEN NGU TT HUE,,Thua Thien Hue,THUA THIENHUE,,VN,(+84) 54-3834950,https://location.westernunion.com/vn/thua-thienhue/thua-thien-hue/19571c76b8d3706bf6982f06bf5fd5d8,Mo-Su 07:00-20:00,Western Union,Q861042
cb3fd0e5238dbc30be0b45bb76e583da,western_union,VPBANK_PGD BEN NGU,,Thua Thien Hue,THUA THIENHUE,,VN,(+84) 54-3959666,https://location.westernunion.com/vn/thua-thienhue/thua-thien-hue/cb3fd0e5238dbc30be0b45bb76e583da,Mo-Fr 08:00-17:00; Sa 08:00-12:00,Western Union,Q861042
2dc8fdcbe678e1d9398f389f934e6106,western_union,BIDV PHU XUAN HUE TTH,,Thua Thien Hue,THUA THIENHUE,,VN,(+84) 54-3935371,https://location.westernunion.com/vn/thua-thienhue/thua-thien-hue/2dc8fdcbe678e1d9398f389f934e6106,Mo-Fr 07:30-17:00; Sa 07:30-11:30,Western Union,Q861042
dbdb74bb8b236abfa683669ef93f68d2,western_union,SEABANK HUE,,Thua Thien Hue,THUA THIENHUE,,VN,+84 234 3948 688,https://location.westernunion.com/vn/thua-thienhue/thua-thien-hue/dbdb74bb8b236abfa683669ef93f68d2,Mo-Fr 08:00-16:30; Sa 07:30-17:00,Western Union,Q861042
7bb21294b97eb6a4b5efee65fd705e9e,western_union,DNTN HV THUAN THANH,,Thua Thien Hue,THUA THIENHUE,,VN,+84 902 044 999,https://location.westernunion.com/vn/thua-thienhue/thua-thien-hue/7bb21294b97eb6a4b5efee65fd705e9e,Mo-Su 06:00-21:00,Western Union,Q861042
6d66b35e431f01adb611123d50c2e0ce,western_union,CTY CPDT VA PT HIEU MAI CN HUONG THUY,,Thua Thien Hue,THUA THIENHUE,,VN,+84 973 415 115,https://location.westernunion.com/vn/thua-thienhue/thua-thien-hue/6d66b35e431f01adb611123d50c2e0ce,Mo-Su 06:00-21:00,Western Union,Q861042
70a5ff1c198d6acc0aff964c8766799c,western_union,BIDV PGD PHU BAI CN PHU XUAN,,Thua Thien Hue,THUA THIENHUE,,VN,(+84) 54-3962267,https://location.westernunion.com/vn/thua-thienhue/thua-thien-hue/70a5ff1c198d6acc0aff964c8766799c,Mo-Fr 07:00-20:00; Sa 07:00-11:00,Western Union,Q861042
efbe11308cfb312ab5dae23ee2ab4679,western_union,VIETINBANK NAM THUA THIEN HUE PKT,,Thua Thien Hue,THUA THIENHUE,,VN,(+84) 54-3863319,https://location.westernunion.com/vn/thua-thienhue/thua-thien-hue/efbe11308cfb312ab5dae23ee2ab4679,Mo-Fr 07:30-16:30,Western Union,Q861042
97911fe783ba2ec652b5cd3a8a3a0928,western_union,ACB PGD PHU BAI,,Thua Thien Hue,THUA THIENHUE,,VN,+84 259 3951 777,https://location.westernunion.com/vn/thua-thienhue/thua-thien-hue/97911fe783ba2ec652b5cd3a8a3a0928,Mo-Fr 07:30-17:00; Sa 07:30-12:00,Western Union,Q861042
c53a0f2ae7585a4a87bee170fad947fb,western_union,BIDV PHU XUAN PGD PHU LOC,,Thua Thien Hue,THUA THIENHUE,,VN,+84 234 3797 988,https://location.westernunion.com/vn/thua-thienhue/thua-thien-hue/c53a0f2ae7585a4a87bee170fad947fb,Mo-Fr 07:30-16:30,Western Union,Q861042
b0168738ccc5dd43992d8cd4ddc12f14,western_union,SHB CHI NHANH HUE,,Thua Thien Hue,THUA THIENHUE,,VN,(+84) 54-3966688,https://location.westernunion.com/vn/thua-thienhue/thua-thien-hue/b0168738ccc5dd43992d8cd4ddc12f14,Mo-Fr 08:00-16:30; Sa 08:00-11:30,Western Union,Q861042
50eaf2603df8927fe077844b7396fcb0,western_union,DNTN HANG VANG MINH TAM,,Thua Thien Hue,THUA THIEN HUE,,VN,+84 914 091 440,https://location.westernunion.com/vn/thua-thien-hue/thua-thien-hue/50eaf2603df8927fe077844b7396fcb0,Mo-Su 06:00-21:00,Western Union,Q861042
7d0e2b4b85f5be4c89ff0596d38cd328,western_union,"THAI STACY CO.,LTD",,Thua Thien Hue,THUA THIENHUE,,VN,+84 906 928 269,https://location.westernunion.com/vn/thua-thienhue/thua-thien-hue/7d0e2b4b85f5be4c89ff0596d38cd328,Mo-Su 07:00-22:30,Western Union,Q861042
b1025d2741eb82563da55fa9349f945f,western_union,DNTN HANG VANG NGOC QUYEN,,Thua Thien Hue,THUA THIENHUE,,VN,+84 966 013 024,https://location.westernunion.com/vn/thua-thienhue/thua-thien-hue/b1025d2741eb82563da55fa9349f945f,Mo-Su 06:00-21:00,Western Union,Q861042
573cf8c8a4ab9260db9608188f7583e1,western_union,DNTN TMDV THU THUY-CN HUE,,Thua Thien Hue,THUA THIENHUE,,VN,(+84) 54-6276829,https://location.westernunion.com/vn/thua-thienhue/thua-thien-hue/573cf8c8a4ab9260db9608188f7583e1,Mo-Su 06:30-17:30,Western Union,Q861042
03c6ef190775305719040fec82dfbeb7,western_union,DNTN KIM PHUONG,,Thua Thien Hue,THUA THIENHUE,,VN,+84 234 3554 540,https://location.westernunion.com/vn/thua-thienhue/thua-thien-hue/03c6ef190775305719040fec82dfbeb7,Mo-Su 06:00-21:00,Western Union,Q861042
c70fa92e1b4d24dcb4b111da234b8a6f,western_union,CTY CPDT VA PT HIEU MAI CN TT HUE,,Thua Thien Hue,THUA THIENHUE,,VN,+84 961 111 724,https://location.westernunion.com/vn/thua-thienhue/thua-thien-hue/c70fa92e1b4d24dcb4b111da234b8a6f,Mo-Su 06:00-21:00,Western Union,Q861042
