Ref,Spider,Name,Address,City,State,Zipcode,Country,Phone,Website,Hours,Brand,WikiData
c9850f3de1a6a0e3b55de52063bfe8dc,western_union,BANGLADESH KRISHI BANK,,Gazipur,DHAKA,,BD,+880 1730-708393,https://location.westernunion.com/bd/dhaka/gazipur/c9850f3de1a6a0e3b55de52063bfe8dc,Mo-Su 09:00-17:00,Western Union,Q861042
2e03d4d6484bb92df9e1435f287a79a9,western_union,BANGLADESH KRISHI BANK,,Gazipur,DHAKA,,BD,+880 1730-708383,https://location.westernunion.com/bd/dhaka/gazipur/2e03d4d6484bb92df9e1435f287a79a9,Mo-Su 09:00-17:00,Western Union,Q861042
d1edbd79425330dc8fa2cd1e36098870,western_union,SONALI BANK LIMITED,,Gazipur,DHAKA,,BD,+880 1726-676436,https://location.westernunion.com/bd/dhaka/gazipur/d1edbd79425330dc8fa2cd1e36098870,Mo-Th 10:00-16:00; Fr-Sa 09:00-16:00; Su 10:00-16:00,Western Union,Q861042
ed8eab138dca64e23a788f06b5c9706b,western_union,AGRANI BANK LIMITED,,Gazipur,DHAKA,,BD,+880 1843-503200,https://location.westernunion.com/bd/dhaka/gazipur/ed8eab138dca64e23a788f06b5c9706b,Mo-Th 10:00-16:00; Fr 09:30-15:00; Sa 09:30-17:00; Su 10:00-16:00,Western Union,Q861042
baa06fb51b1460838d8298ccc9cb7ba4,western_union,UNITED COMMERCIAL BANK LIMITED,,Narsingd,DHAKA,,BD,(+880) 02-1847275242,https://location.westernunion.com/bd/dhaka/narsingd/baa06fb51b1460838d8298ccc9cb7ba4,Mo-Th 10:00-17:00; Su 10:00-17:00,Western Union,Q861042
536d56de0b0651b8a2dc4bf0864807eb,western_union,RUPALI BANK LIMITED,,Gazipur,DHAKA,,BD,+880 1711-156359,https://location.westernunion.com/bd/dhaka/gazipur/536d56de0b0651b8a2dc4bf0864807eb,Mo-Th 10:00-18:00; Fr 09:30-15:00; Sa 09:30-17:00; Su 10:00-18:00,Western Union,Q861042
5f48e5a1b139d764bce6dfa75854d960,western_union,SONALI BANK LIMITED,,Gazipur,DHAKA,,BD,+880 1721-245543,https://location.westernunion.com/bd/dhaka/gazipur/5f48e5a1b139d764bce6dfa75854d960,Mo-Th 10:00-16:00; Fr-Sa 09:00-16:00; Su 10:00-16:00,Western Union,Q861042
731c90e57600e21ed7c072943ce7eeab,western_union,GLOBAL ISLAMI BANK LTD,,Gazipur,DHAKA,,BD,+880 1837-132581,https://location.westernunion.com/bd/dhaka/gazipur/731c90e57600e21ed7c072943ce7eeab,Mo-Th 10:00-17:00; Su 10:00-17:00,Western Union,Q861042
f57747ef963dd56a9b1c08c72dcff1cb,western_union,SONALI BANK LIMITED,,Gazipur,DHAKA,,BD,+880 1917-067632,https://location.westernunion.com/bd/dhaka/gazipur/f57747ef963dd56a9b1c08c72dcff1cb,Mo-Th 10:00-16:00; Fr-Sa 09:00-16:00; Su 10:00-16:00,Western Union,Q861042
f65b950467b7b5a4c896cfa0427c6f87,western_union,ASA,,Gazipur,DHAKA,,BD,+880 1190-400146,https://location.westernunion.com/bd/dhaka/gazipur/f65b950467b7b5a4c896cfa0427c6f87,Mo-Th 08:00-19:00; Sa-Su 08:00-19:00,Western Union,Q861042
206b81294474ed142412f0704101e9ba,western_union,UNITED COMMERCIAL BANK LIMITED,,Gazipur,DHAKA,,BD,+880 1833-147914,https://location.westernunion.com/bd/dhaka/gazipur/206b81294474ed142412f0704101e9ba,Mo-Th 09:30-17:00; Fr 09:30-15:00; Sa-Su 09:30-17:00,Western Union,Q861042
9cc50c6684cc4f4a101b0298aea8ef40,western_union,SONALI BANK LIMITED,,Gazipur,DHAKA,,BD,+880 6823-51006,https://location.westernunion.com/bd/dhaka/gazipur/9cc50c6684cc4f4a101b0298aea8ef40,Mo-Th 10:00-16:00; Fr-Sa 09:00-16:00; Su 10:00-16:00,Western Union,Q861042
2155969c70b3539c7f6abb66cb2b2128,western_union,EXIM BANK LTD,,Kaliganj,DHAKA,,BD,+880 1712-518728,https://location.westernunion.com/bd/dhaka/kaliganj/2155969c70b3539c7f6abb66cb2b2128,Mo-Th 10:00-17:00; Su 10:00-17:00,Western Union,Q861042
30ee1dac7fb9ad6553096857a7674bc7,western_union,PUBALI BANK LIMITED,,Gazipur,DHAKA,,BD,+880 1713-254812,https://location.westernunion.com/bd/dhaka/gazipur/30ee1dac7fb9ad6553096857a7674bc7,Mo-Th 09:00-17:00; Fr 09:30-15:00; Sa 09:30-17:00; Su 09:00-17:00,Western Union,Q861042
49bf5d67104d592ca781c07ea1543c69,western_union,ASA,,Gazipur,DHAKA,,BD,+880 1190-400146,https://location.westernunion.com/bd/dhaka/gazipur/49bf5d67104d592ca781c07ea1543c69,Mo-Th 08:00-19:00; Sa-Su 08:00-19:00,Western Union,Q861042
2084ef6babf432cac47947fd944ba2fd,western_union,BANGLADESH KRISHI BANK,,Gazipur,DHAKA,,BD,+880 1730-708388,https://location.westernunion.com/bd/dhaka/gazipur/2084ef6babf432cac47947fd944ba2fd,Mo-Su 09:00-17:00,Western Union,Q861042
9f1321db52b007e0e6f4c37ad3d2e0f2,western_union,THE PREMIER BANK LIMITED,,Narsingdi,DHAKA,,BD,(+880) 02-1730000353,https://location.westernunion.com/bd/dhaka/narsingdi/9f1321db52b007e0e6f4c37ad3d2e0f2,Mo-Th 09:00-17:00; Sa-Su 09:00-17:00,Western Union,Q861042
e4c12174569de79334b69acc1ecb5cfa,western_union,THE PREMIER BANK LTD,,Narayanganj,DHAKA,,BD,+880 1719-410153,https://location.westernunion.com/bd/dhaka/narayanganj/e4c12174569de79334b69acc1ecb5cfa,Mo-Th 10:00-17:00; Sa-Su 10:00-17:00,Western Union,Q861042
fad7dbc61d60c93ff1b77d6d1c73eb31,western_union,SONALI BANK LIMITED,,Gazipur,DHAKA,,BD,+880 1817-593357,https://location.westernunion.com/bd/dhaka/gazipur/fad7dbc61d60c93ff1b77d6d1c73eb31,Mo-Th 10:00-16:00; Fr-Sa 09:00-16:00; Su 10:00-16:00,Western Union,Q861042
19261d8e17017d4308e2b24dac0bc2e2,western_union,JAMUNA BANK LIMITED,,Narayangonj,DHAKA,,BD,(+880) 02-1713329351,https://location.westernunion.com/bd/dhaka/narayangonj/19261d8e17017d4308e2b24dac0bc2e2,Mo-Th 09:00-17:00; Sa-Su 09:00-17:00,Western Union,Q861042
