Ref,Spider,Name,Address,City,State,Zipcode,Country,Phone,Website,Hours,Brand,WikiData
425,aaa,Forest Park OH,,Cincinnati,OH,,US,+1 513-671-1886,,,American Automobile Association,Q463436
1773,autozone_us,AutoZone Auto Parts Cincinnati,,Cincinnati,OH,,US,+1 513-851-7777,https://www.autozone.com/locations/oh/cincinnati/11540-winton-rd.html,Mo-Sa 08:00-22:00; Su 09:00-21:00,AutoZone,Q4826087
https://locators.bankofamerica.com/oh/cincinnati/financial-centers-cincinnati-17036.html,bankofamerica,Bank of America Financial Center & Walk-Up ATM | Cobblewood,,Cincinnati,OH,,US,+1 513-699-0282,https://locators.bankofamerica.com/oh/cincinnati/financial-centers-cincinnati-17036.html,Mo-Fr 10:00-16:00,Bank of America,Q487907
https://stores.basspro.com/us/oh/cincinnati/300-cincinnati-mills-dr.html,bassproshops,"Bass Pro Shops Cincinnati, OH",,Cincinnati,OH,,US,+1 513-826-5200,https://stores.basspro.com/us/oh/cincinnati/300-cincinnati-mills-dr.html,,Bass Pro Shops,Q4867953
172812,bluerhino,Family Dollar #08843,,Cincinnati,OH,,US,+1 513-648-0176,,,Blue Rhino,Q65681213
4004,bluerhino,Kroger #943 - Cincinnati,,Forest Park,OH,,US,+1 513-742-9500,,,Blue Rhino,Q65681213
185517,bluerhino,Kroger #943 - Cincinnati- Fuel Site,,Cincinnati,OH,,US,+1 513-674-5800,,,Blue Rhino,Q65681213
243760,bluerhino,CAPL #230,,Cincinnati,OH,,US,,,,Blue Rhino,Q65681213
181995,bluerhino,Speedway #9176,,Forest Park,OH,,US,+1 513-648-9381,,,Blue Rhino,Q65681213
193469,bluerhino,"Hamro Grocery, LLC",,Cincinnati,OH,,US,+1 513-429-2867,,,Blue Rhino,Q65681213
210874,bluerhino,Dollar General #22356,,Cincinnati,OH,,US,+1 513-214-0920,,,Blue Rhino,Q65681213
32208,bluerhino,Speedway #5211,,Forest Park,OH,,US,+1 513-825-0862,,,Blue Rhino,Q65681213
190305,bluerhino,Forest Park Sunoco,,Cincinnati,OH,,US,+1 513-742-8281,,,Blue Rhino,Q65681213
84774088212014524000100000000000,bp,BP,,Cincinnati,OH,,US,+1 513-671-4107,,24/7,BP,Q152057
oh_cincinnati_350-cincinnati-mills-dr,chipotle, ,,Cincinnati,OH,,US,+1 513-671-3000,https://locations.chipotle.com/oh/cincinnati/350-cincinnati-mills-dr,,Chipotle,Q465751
60767,citi,ATM KEMBACIN -Ameritas,,Cincinnati,OH,,US,,,,Citibank,Q857063
76739,citi,ATM Speedway,,Cincinnati,OH,,US,,,,Citibank,Q857063
68756,citi,ATM PNC AT UDF,,Cincinnati,OH,,US,,,,Citibank,Q857063
85586,citi,ATM United Dairy Farmers,,Cincinnati,OH,,US,,,,Citibank,Q857063
80357,citi,ATM SPEEDWAY #9176,,Cincinnati,OH,,US,,,,Citibank,Q857063
71276,citi,ATM Postal Family -Forest Park Pos,,Parkdale,OH,,US,,,,Citibank,Q857063
78811,citi,ATM Speedway,,Forest Park,OH,,US,,,,Citibank,Q857063
80082,citi,ATM SPEEDWAY # 5211,,Forest Park,OH,,US,,,,Citibank,Q857063
70068105,cricket_wireless,Cricket Wireless Authorized Retailer,,Cincinnati,OH,,US,+1 513-674-1600,https://www.cricketwireless.com/stores/ll/US/OH/Cincinnati/1232-W-Kemper-Rd,Mo-Sa 10:00-19:00; Su 12:00-17:00,Cricket Wireless,Q5184987
28843,family_dollar_us,FAMILY DOLLAR #8843,,Cincinnati,OH,,US,+1 513-975-3161,https://www.familydollar.com/locations/oh/cincinnati/28843/,Mo-Su 09:00-21:00,Family Dollar,Q5433101
23699,family_dollar_us,FAMILY DOLLAR #3699,,Forest Park,OH,,US,+1 513-930-4258,https://www.familydollar.com/locations/oh/forest-park/23699/,Mo-Su 09:00-21:00,Family Dollar,Q5433101
https://locations.53.com/#3034512,fifththirdbank,Fifth Third Bank Forest Park Bank Mart,,Cincinnati,OH,,US,+1 513-825-5550,https://locations.53.com/oh/cincinnati/1212-west-kemper-road.html,Mo-Fr 10:00-19:00; Sa 10:00-17:00,Fifth Third Bank,Q1411810
5037,firestone_auto_care,Firestone Complete Auto Care,,Cincinnati,OH,,US,+1 513-370-2318,https://local.firestonecompleteautocare.com/ohio/cincinnati/661-northland-blvd/,,Firestone,Q420837
100045,fresenius_kidney_care_us,Fresenius Kidney Care Forest Fair,,Cincinnati,OH,,US,+1 800-881-5101,https://www.freseniuskidneycare.com/dialysis-centers/ohio/100045,Mo 07:00-17:30; Tu 07:00-17:00; We 07:00-17:30; Th 07:00-17:00; Fr 07:00-17:30; Sa 07:00-17:00,,
oh_cincinnati_breakfast-1217-omniplex-dr-5516,ihop,IHOP Breakfast Restaurants Near You at 1217 Omniplex Dr,,Cincinnati,OH,,US,+1 513-671-5042,https://restaurants.ihop.com/en-us/oh/cincinnati/breakfast-1217-omniplex-dr-5516,,IHOP,Q1185675
https://office.jacksonhewitt.com/#27579272,jackson_hewitt,Jackson Hewitt,,Cincinnati,OH,,US,+1 513-845-0202,https://office.jacksonhewitt.com/tax-preparation-services-locations/en/oh/cincinnati/641-northland-blvd/16915,Mo-Sa 11:00-19:00; Su 12:00-16:00,Jackson Hewitt,Q6117132
https://locations.kfc.com/#11249147,kfc,Chicken Nuggets Near Forest Park,,Forest Park,OH,,US,,https://locations.kfc.com/oh/forest-park/11992-chase-plaza-drive/chickennugget,Mo-Su 10:30-23:30,KFC,Q524757
000271,kindercare,Forest Park West KinderCare,,Cincinnati,OH,,US,,https://www.kindercare.com/our-centers/cincinnati/oh/000271,,KinderCare Learning Centers,Q6410551
210,kohls_us,Kohl's,,Cincinnati,OH,,US,+1 513-671-1432,https://www.kohls.com/stores/oh/cincinnati-210.shtml,Mo-Sa 09:00-21:00; Su 09:00-20:00,Kohl's,Q967265
CVGFP,marriott,SpringHill Suites Cincinnati North/Forest Park,,Cincinnati,OH,,US,+1 513-825-9035,https://www.marriott.com/CVGFP,,SpringHill Suites,Q7580351
https://www.mercy.com/#d538a48a-22e5-4537-be8b-2fdebfd45f09,mercy_health_us,Mercy Health — Forest Park Internal Medicine and Pediatrics,,Cincinnati,OH,,US,+1 513-924-8200,https://www.mercy.com/locations/primary-care-family-medicine/cincinnati/mercy-health-forest-park-internal-medicine-and-pediatrics,Mo-Tu 08:00-18:45; We-Th 08:00-17:45; Fr 08:00-16:45,Mercy Health,Q5053169
https://www.mercy.com/#458bc09e-1e3a-435c-935e-f5f8d6caf0b1,mercy_health_us,Mercy Health — Forest Park Infectious Disease,,Cincinnati,OH,,US,+1 513-735-1529,https://www.mercy.com/locations/specialty-locations/infectious-disease-specialists/mercy-health-forest-park-infectious-disease,,Mercy Health,Q5053169
773,mightyflame,AM/PM BP,,CINCINNATI,OH,,US,+1 513-671-4107,,,Mighty Flame,
2999,mightyflame,MB GAS INC,,CINCINATTI,OH,,US,+1 513-631-6525,,,Mighty Flame,
80,ollies_bargain_outlet,Ollie's Bargain Outlet,,Cincinnati,OH,,US,+1 513-825-2500,https://www.ollies.us/locations/2220-waycross-road-cincinnati-oh/,Mo-Sa 09:00-21:00; Su 10:00-19:00,Ollie's Bargain Outlet,Q7088304
https://locations.oreillyauto.com/oh/forestpark/check-engine-light-testing-1800.html,oreilly,Your Forest Park O'Reilly Auto Parts Store,,Forest Park,OH,,US,+1 513-674-0800,https://locations.oreillyauto.com/oh/forestpark/check-engine-light-testing-1800.html,Mo-Sa 07:30-22:00; Su 08:00-21:00,O'Reilly Auto Parts,Q7071951
https://locations.oreillyauto.com/oh/forestpark/wiper-installation-1800.html,oreilly,Your Forest Park O'Reilly Auto Parts Store,,Forest Park,OH,,US,+1 513-674-0800,https://locations.oreillyauto.com/oh/forestpark/wiper-installation-1800.html,Mo-Sa 07:30-22:00; Su 08:00-21:00,O'Reilly Auto Parts,Q7071951
https://locations.oreillyauto.com/oh/forestpark/battery-testing-1800.html,oreilly,Your Forest Park O'Reilly Auto Parts Store,,Forest Park,OH,,US,+1 513-674-0800,https://locations.oreillyauto.com/oh/forestpark/battery-testing-1800.html,Mo-Sa 07:30-22:00; Su 08:00-21:00,O'Reilly Auto Parts,Q7071951
https://locations.oreillyauto.com/oh/forestpark/autopartes-1800.html,oreilly,Tu tienda O'Reilly Auto Parts en Forest Park,,Forest Park,OH,,US,+1 513-674-0800,https://locations.oreillyauto.com/oh/forestpark/autopartes-1800.html,Mo-Sa 07:30-22:00; Su 08:00-21:00,O'Reilly Auto Parts,Q7071951
https://www.orkin.com/locations/ohio-oh/cincinnati-pest-control/branch-670,orkin_us,Orkin,,Cincinnati,OH,,US,+1 513-893-7104,https://www.orkin.com/locations/ohio-oh/fairfield-pest-control/branch-670,,Orkin,Q7102943
https://www.orkin.com/locations/ohio-oh/cincinnati-pest-control/branch-564,orkin_us,Orkin,,Cincinnati,OH,,US,+1 513-832-6286,https://www.orkin.com/locations/ohio-oh/cincinnati-pest-control/branch-564,,Orkin,Q7102943
https://locations.papajohns.com/#10692003,papa_johns,Papa John's,,Cincinnati,OH,,US,+1 513-825-3838,https://locations.papajohns.com/united-states/oh/45240/cincinnati/1248-w-kemper-rd,Mo-Th 10:15-23:30; Fr-Sa 10:15-00:30; Su 10:15-23:30,Papa John's Pizza,Q2759586
007821,penske,Advanced Refreshments,,GREENHILLS,OH,,US,+1 513-733-3354,https://www.pensketruckrental.com/locations/us/ohio/greenhills/007821/,,Penske,Q81234570
restaurant_83468,popeyes_us_fr,Popeyes,"1165 Kemper Meadow Dr Cincinnati, Ohio 45240 - USA",Cincinnati,OH,,US,+1 513-742-4888,https://www.popeyes.com/store-locator/store/restaurant_83468,Mo-We 10:00-23:00; Th-Sa 10:00-00:00; Su 10:00-23:00,Popeyes,Q1330910
home-depot-3821-13692,ppgpaints,HOME DEPOT 3821,,"Forest Park, ",OH,,US,+1 513-671-6012,https://www.ppgpaints.com/store-locator/us/ohio/forest-park-paint-stores/home-depot-3821-13692,,PPG Paints,Q83891559
272,skyline_chili,Skyline Chili,1180 Kemper Meadow Drive,Cincinnati,OH,,US,+1 513-851-3929,https://locations.skylinechili.com/skyline-chili-b03491e4f897,,Skyline Chili,Q151224
https://restaurants.subway.com/#14894887,subway,Subway,,Cincinnati Hamilton,OH,,US,+1 513-825-6704,https://restaurants.subway.com/united-states/oh/cincinnati/1150-w-kemper-rd,Mo-Su 08:00-21:00,Subway,Q244457
0837331800,sunoco_us,Sunoco,,CINCINNATI,OH,,US,+1 513-947-9292,,,Sunoco,Q1423218
0661570200,sunoco_us,Sunoco,,FOREST PARK,OH,,US,+1 513-742-8281,,Mo-Su 06:00-00:00,Sunoco,Q1423218
https://locations.tacobell.com/#6146822,taco_bell,Taco Bell,,Cincinnati,OH,,US,+1 513-991-7526,https://locations.tacobell.com/oh/cincinnati/11992-chase-plaza.html,Mo-Su 09:00-01:00,Taco Bell,Q752941
2024,united_dairy_farmers_us,United Dairy Farmers,1170 Kemper Meadows Dr,Cincinnati,OH,,US,+1 513-742-3185,,,United Dairy Farmers,Q7887677
forest-park,usavingsbank,Forest Park,,Cincinnati,OH,,US,+1 513-589-8500,https://usavingsbank.com/contact/find-a-branch-atm/forest-park/,Mo-Th 09:00-17:00; Fr 09:00-18:00; Sa 09:00-13:00,Union Savings Bank,Q69206498
1437039,usps,PARKDALE,,CINCINNATI,OH,,US,+1 513-825-6475,,Mo-Fr 07:30-18:00; Sa 09:00-15:00,United States Postal Service,Q668687
4524000037,usps_collection_boxes,USPS COLLECTION BOX - BLUE BOX,11605 PASSAGE WAY,CINCINNATI,OH,,US,,,,United States Postal Service,Q668687
4524000041,usps_collection_boxes,USPS COLLECTION BOX - BLUE BOX,2085 WAYCROSS RD,CINCINNATI,OH,,US,,,,United States Postal Service,Q668687
4524000012,usps_collection_boxes,USPS COLLECTION BOX - BLUE BOX,1360 KEMPER MEADOW DR,CINCINNATI,OH,,US,,,,United States Postal Service,Q668687
4524000027,usps_collection_boxes,USPS COLLECTION BOX - BLUE BOX,1085 SMILEY AVE,CINCINNATI,OH,,US,,,,United States Postal Service,Q668687
4524000032,usps_collection_boxes,USPS COLLECTION BOX - BLUE BOX,1230 W KEMPER RD,CINCINNATI,OH,,US,,,,United States Postal Service,Q668687
4524000038,usps_collection_boxes,USPS COLLECTION BOX - BLUE BOX,1230 W KEMPER RD,CINCINNATI,OH,,US,,,,United States Postal Service,Q668687
4524000009,usps_collection_boxes,USPS COLLECTION BOX - BLUE BOX,1118 W KEMPER RD,CINCINNATI,OH,,US,,,,United States Postal Service,Q668687
4524000001,usps_collection_boxes,USPS COLLECTION BOX - BLUE BOX,670 NORTHLAND BLVD,CINCINNATI,OH,,US,,,,United States Postal Service,Q668687
4524000003,usps_collection_boxes,USPS COLLECTION BOX - BLUE BOX,670 NORTHLAND BLVD,CINCINNATI,OH,,US,,,,United States Postal Service,Q668687
4524000036,usps_collection_boxes,USPS COLLECTION BOX - PO LOBBY,670 NORTHLAND BLVD,CINCINNATI,OH,,US,,,,United States Postal Service,Q668687
4524000039,usps_collection_boxes,USPS COLLECTION BOX - PO LOBBY,670 NORTHLAND BLVD,CINCINNATI,OH,,US,,,,United States Postal Service,Q668687
4524000040,usps_collection_boxes,USPS COLLECTION BOX - APC,670 NORTHLAND BLVD,CINCINNATI,OH,,US,,,,United States Postal Service,Q668687
4524000046,usps_collection_boxes,USPS COLLECTION BOX - PO LOBBY,670 NORTHLAND BLVD,CINCINNATI,OH,,US,,,,United States Postal Service,Q668687
4524000023,usps_collection_boxes,USPS COLLECTION BOX - BLUE BOX,1047 FOREST FAIR DR,CINCINNATI,OH,,US,,,,United States Postal Service,Q668687
4524000020,usps_collection_boxes,USPS COLLECTION BOX - BLUE BOX,100 FOREST FAIR DR,CINCINNATI,OH,,US,,,,United States Postal Service,Q668687
,visa,,,DAYTON,OH,,US,,,,,
,visa,,,DAYTON,OH,,US,,,,,
,visa,,,CINCINNATI,OH,,US,,,,,
,visa,,,CINCINNATI,OH,,US,,,,,
,visa,,,CINCINNATI,OH,,US,,,,,
,visa,,,CINCINNATI,OH,,US,,,,,
,visa,,,CINCINNATI,OH,,US,,,,,
,visa,,,CINCINNATI,OH,,US,,,,,
,visa,,,FOREST PARK,OH,,US,,,,,
,visa,,,FOREST PARK,OH,,US,,,,,
,visa,,,CINCINNATI,OH,,US,,,,,
,visa,,,PARKDALE,OH,,US,,,,,
,visa,,,CINCINNATI,OH,,US,,,,,
,visa,,,CINCINNATI,OH,,US,,,,,
,visa,,,CINCINNATI,OH,,US,,,,,
,visa,,,CINCINNATI,OH,,US,,,,,
,visa,,,CINCINNATI,OH,,US,,,,,
,visa,,,CINCINNATI,OH,,US,,,,,
,visa,,,CINCINNATI,OH,,US,,,,,
,visa,,,CINCINNATI,OH,,US,,,,,
,visa,,,FOREST PARK,OH,,US,,,,,
,visa,,,CINCINNATI,OH,,US,,,,,
,visa,,,CINCINNATI,OH,,US,,,,,
,visa,,,CINCINNATI,OH,,US,,,,,
,visa,,,CINCINNATI,OH,,US,,,,,
,visa,,,CINCINNATI,OH,,US,,,,,
,visa,,,CINCINNATI,OH,,US,,,,,
,visa,,,CINCINNATI,OH,,US,,,,,
,visa,,,CINCINNATI,OH,,US,,,,,
,visa,,,CINCINNATI,OH,,US,,,,,
,visa,,,CINCINNATI,OH,,US,,,,,
,visa,,,CINCINNATI,OH,,US,,,,,
,visa,,,CINCINNATI,OH,,US,,,,,
,visa,,,CINCINNATI,OH,,US,,,,,
,visa,,,CINCINNATI,OH,,US,,,,,
https://www.walgreens.com/locator/walgreens-385+northland+blvd-cincinnati-oh-45240/id=2694,walgreens,Walgreens,,Cincinnati,OH,,US,+1 513-825-6446,https://www.walgreens.com/locator/walgreens-385+northland+blvd-cincinnati-oh-45240/id=2694,Mo-Su 07:00-23:00,Walgreens,Q1591889
https://locations.wendys.com/#9251504,wendys,"Wendy's 609 Northland in Cincinnati, OH",,Cincinnati,OH,,US,+1 513-537-6241,https://locations.wendys.com/united-states/oh/cincinnati/2230-northland-blvd,"Mo-Su 06:30-10:30,07:00-22:00",Wendy's,Q550258
https://locations.wendys.com/#9251501,wendys,"Wendy's 621 Winton in Cincinnati, OH",,Cincinnati,OH,,US,+1 513-208-9009,https://locations.wendys.com/united-states/oh/cincinnati/11898-chase-plz,"Mo-Sa 06:30-10:30,07:00-22:00; Su 07:00-10:30,07:00-22:00",Wendy's,Q550258
7a05d6d89a8b1cb64cf06996134da505,western_union,ASIAN FOOD MART,,Cincinnati,OH,,US,+1 513-996-0019,https://location.westernunion.com/us/oh/cincinnati/7a05d6d89a8b1cb64cf06996134da505,Mo-Su 08:00-22:00,Western Union,Q861042
