Ref,Spider,Name,Address,City,State,Zipcode,Country,Phone,Website,Hours,Brand,WikiData
DOR-66,aldi_sud_de,,"Aachener Straße 76, 50674, Köln, Deutschland",Köln,,,DE,,,Mo-Sa 08:00-21:00,ALDI Süd,Q41171672
de:3000,dm,dm-drogerie markt,,Köln,,,DE,+49 221 29205190,https://www.dm.de/store/d550/koeln/hohenstaufenring-30,Mo-Sa 08:00-21:00,dm,Q266572
33888,dominos_pizza_de,Domino's Pizza Köln Innenstadt,,KÖLN,,,DE,,https://www.dominos.de/filiale/de-klninnenstadt-33888,,Domino's,Q839466
2760917056,gls_de,WestLotto Annahmestelle,,Köln,,,DE,+49 176 36371377,,Mo-Fr 12:00-18:30; Sa 12:00-16:00,General Logistics Systems,Q46495823
2760915124,gls_de,Bicici Kiosk,,Köln,,,DE,+49 173 5996418,,Mo-Sa 13:00-24:00; Su 13:00-23:00,General Logistics Systems,Q46495823
https://kamps.de/standort/kamps-baeckerei-koeln-habsburger-ring-1,kamps_de,Kamps,,Köln,,,DE,+49 221 212764,https://kamps.de/standort/kamps-baeckerei-koeln-habsburger-ring-1,Mo-Fr 06:30-19:00; Sa 06:30-16:00; Su 08:00-13:00,Kamps,Q1723381
5786,lidl_de,Neustadt-Süd,,Köln,,,DE,,,Mo-Sa 07:00-22:00,Lidl,Q151954
https://www.rossmann.de/de/filialen/nordrhein-westfalen/koeln/hohenstaufenring-29-37.html,rossmann_de,Rossmann Drogerie-Markt Hohenstaufenring 29-37,,Köln,,,DE,+49 221 2019356,https://www.rossmann.de/de/filialen/nordrhein-westfalen/koeln/hohenstaufenring-29-37.html,Mo-Sa 08:00-22:00,Rossmann,Q316004
146542,sparkasse_de,Sparkasse KölnBonn Geldautomat Brüsseler Platz,,Köln,,,DE,+49 221 2260,https://www.sparkasse.de/standorte/geldautomaten/sparkasse-koeln-bonn-geldautomat-bruesseler-platz-146542,24/7,Sparkasse,Q13601825
146541,sparkasse_de,Sparkasse KölnBonn SB-Standort Brüsseler Platz,,Köln,,,DE,+49 221 2260,https://www.sparkasse.de/standorte/filialen/sparkasse-koeln-bonn-sb-standort-bruesseler-platz-146541,24/7,Sparkasse,Q13601825
178171,sparkasse_de,Sparkasse KölnBonn Service Filiale Habsburgerring,,Köln,,,DE,+49 221 22620000,https://www.sparkasse.de/standorte/filialen/sparkasse-koeln-bonn-service-filiale-habsburgerring-178171,"Mo-Tu 09:30-12:30,14:00-16:00; We 09:30-12:30; Th 09:00-14:00; Fr 09:30-12:30,14:00-18:00",Sparkasse,Q13601825
https://www.vlh.de/bst/5712/Oeffnungszeiten.html,vhl_de,VLH-Beraterin Anja Winkler in Köln,,Köln,,,DE,+49 221 78962477,https://www.vlh.de/bst/5712/,Tu 16:00-19:00; We 15:00-18:00; Th 09:00-12:00,Vereinigte Lohnsteuerhilfe e.V.,Q15852617
,visa,,,KOLN,,,DE,,,,,
,visa,,,KÖLN,,,DE,,,,,
,visa,,,KOELN,,,DE,,,,,
,visa,,,KÖLN,,,DE,,,,,
,visa,,,KÖLN,,,DE,,,,,
,visa,,,KÖLN,,,DE,,,,,
,visa,,,KÖLN,,,DE,,,,,
,visa,,,KÖLN,,,DE,,,,,
,visa,,,KOLN,,,DE,,,,,
,visa,,,KOELN,,,DE,,,,,
,visa,,,KOELN,,,DE,,,,,
,visa,,,KOELN,,,DE,,,,,
,visa,,,KÖLN,,,DE,,,,,
,visa,,,KOELN,,,DE,,,,,
,visa,,,KÖLN,,,DE,,,,,
