Ref,Spider,Name,Address,City,State,Zipcode,Country,Phone,Website,Hours,Brand,WikiData
55185136,deichmann,DEICHMANN filijalu Živinice Prva Ulica 121,,Živinice,,,BA,+387 35 773-080,https://stores.deichmann.com/ba-hr/ba/federacija-bosne-i-hercegovine/zivinice/prva-ulica-121,Mo-Sa 08:00-21:00; Su 09:00-20:00,Deichmann,Q664543
ba:81,dm,dm-drogerie markt,,Živinice,,,BA,+387 35 368-270,https://www.dm-drogeriemarkt.ba/store/h039/zivinice/i-ulica-bb,Mo-Sa 09:00-21:00; Su 09:00-20:00,dm,Q266572
X725,jysk,Živinice,,Živinice,,,BA,+387 33 546-963,https://jysk.ba/stores-locator?storeId=X725,Mo-Sa 10:00-20:00; Su 10:00-18:00,JYSK,Q138913
73453626,moneygram,YUTRANSFER D.O.O. - RAIFFEISEN BANK DD B,,ZIVINICE,,,BA,+387 33 755-025,,Mo-Fr 08:00-16:30; Sa-Su 00:00-24:00,MoneyGram,Q1944412
69340303,moneygram,SPARKASSE BANK BIH DD - ZIVINICE - ZIVIN,,ZIVINICE,,,BA,+387 35 740-901,,Mo-Fr 08:00-16:00; Sa-Su 00:00-24:00,MoneyGram,Q1944412
70495412,moneygram,ASA BANKA BIH - ZIVINICE - ZIVINICE - ZI,,ZIVINICE,,,BA,+387 35 740-990,,Mo-Fr 08:00-17:00; Sa-Su 00:00-24:00,MoneyGram,Q1944412
70823518,moneygram,JP BH POSTA D.O.O. SARAJEVO - #75270 - Z,,ZIVINICE,,,BA,+387 35 772-983,,Mo-Fr 07:30-16:00; Sa 08:00-14:00; Su 00:00-24:00,MoneyGram,Q1944412
70823110,moneygram,JP BH POSTA D.O.O. SARAJEVO - #75272 - Z,,ZIVINICE,,,BA,+387 35 762-682,,Mo-Fr 08:00-15:00; Sa 08:00-13:00; Su 00:00-24:00,MoneyGram,Q1944412
70823123,moneygram,JP BH POSTA D.O.O. SARAJEVO - #75273 - Z,,ZIVINICE,,,BA,+387 35 745-682,,Mo-Fr 08:00-15:00; Sa 08:00-13:00; Su 00:00-24:00,MoneyGram,Q1944412
70822373,moneygram,JP BH POSTA D.O.O. SARAJEVO - #75274 - Z,,ZIVINICE,,,BA,+387 35 813-118,,Mo-Fr 08:00-15:00; Sa 08:00-13:00; Su 00:00-24:00,MoneyGram,Q1944412
74975792,moneygram,BOSNA BANK INTERNATIONAL D.D. SARAJEVO -,,ZIVINICE,,,BA,+387 33 743-241,,Mo-Fr 08:00-16:00; Sa-Su 00:00-24:00,MoneyGram,Q1944412
74981702,moneygram,NOVA BANKA AD - ZIVINICE - FILIJALA ZIVI,,ZIVINICE,,,BA,+387 35 774-304,,Mo-Fr 08:00-15:30; Sa-Su 00:00-24:00,MoneyGram,Q1944412
0b335a42-911e-48a2-8575-597f2da88bee,petrol,BS DUBRAVE,,DONJE DUBRAVE,,,BA,,,Mo-Su 06:00-22:00,Petrol,Q174824
,visa,,,ZIVINICE,,,BA,,,,,
,visa,,,ZIVINICE,,,BA,,,,,
,visa,,,ŽIVINICE,,,BA,,,,,
,visa,,,ZIVINICE,,,BA,,,,,
,visa,,,ŽIVINICE,,,BA,,,,,
,visa,,,ŽIVINICE,,,BA,,,,,
,visa,,,ZIVINICE,,,BA,,,,,
,visa,,,ZIVINICE,,,BA,,,,,
a4b8ffdcddee47204b5e8599fec804ba,western_union,SPARKASSE BANK,,Zivinice,,,BA,+387 33 268-000,https://location.westernunion.com/ba/state/zivinice/a4b8ffdcddee47204b5e8599fec804ba,Mo-Fr 07:30-15:30,Western Union,Q861042
b7638bca40fee89c57715aa5573166fc,western_union,MF BANKA AD BANJA LUKA,,Zivinice,,,BA,+387 51 220-800,https://location.westernunion.com/ba/state/zivinice/b7638bca40fee89c57715aa5573166fc,Mo-Fr 08:00-16:00,Western Union,Q861042
ec2ae7fdf2fa13ddab3584f4e5a3fb1a,western_union,JP BH POSTA 75270 ZIVINICE,,Zivinice,,,BA,+387 35 774-996,https://location.westernunion.com/ba/state/zivinice/ec2ae7fdf2fa13ddab3584f4e5a3fb1a,Mo-Fr 07:00-17:00; Sa 08:00-15:00,Western Union,Q861042
e7ac32a4d3cb333e78606638c4147aa0,western_union,ADDIKO BANK DD SARAJEVO,,Zivinice,,,BA,+387 33 268-000,https://location.westernunion.com/ba/state/zivinice/e7ac32a4d3cb333e78606638c4147aa0,Mo-Fr 08:00-16:00,Western Union,Q861042
d5b8598a1ef127719200cbafce86e00f,western_union,RBBH 250240 ZIVINICE,,Zivinice,,,BA,+387 35 772-244,https://location.westernunion.com/ba/state/zivinice/d5b8598a1ef127719200cbafce86e00f,Mo-Fr 08:00-16:00,Western Union,Q861042
