Ref,Spider,Name,Address,City,State,Zipcode,Country,Phone,Website,Hours,Brand,WikiData
106315,geox,Geox BEIRUT KASLIK,,BEIRUT KASLIK,,,LB,,https://www.geox.com/int/storedetails?StoreID=106315,,Geox,Q588001
42160,man_truck_and_bus,Terramar Middle East S.A.L.,,Jdeid El Metn - Beirut,,,LB,+961 1 885 657,,,MAN Truck & Bus,Q708667
ABBOUD_ELIAS,totalenergies,TotalEnergies Fekha,,Jdeydet Fakiha,,,LB,+961 3 942 918,https://store.totalenergies.fr/en_EN/ABBOUD_ELIAS,Mo-Su 06:00-22:00,TotalEnergies,Q154037
ABDEL_MAJID_BAZZI,totalenergies,TotalEnergies Bent Jbeil,,Bent jbeil,,,LB,+961 7 450 117,https://store.totalenergies.fr/en_EN/ABDEL_MAJID_BAZZI,Mo-Su 06:00-23:00,TotalEnergies,Q154037
ABDELNOUR_PETROLEUM,totalenergies,TotalEnergies Bhamdoun,,Bhamdoun,,,LB,+961 5 262 202,https://store.totalenergies.fr/en_EN/ABDELNOUR_PETROLEUM,Mo-Su 06:00-24:00,TotalEnergies,Q154037
ABI_KHATTAR_NASSIF,totalenergies,TotalEnergies Mejdlaya,,Zghorta,,,LB,+961 3 926 472,https://store.totalenergies.fr/en_EN/ABI_KHATTAR_NASSIF,Mo-Su 06:00-23:00,TotalEnergies,Q154037
ABOU_KHATER_YOUSSEF,totalenergies,TotalEnergies Turbol,,Terbol,,,LB,+961 8 955 014,https://store.totalenergies.fr/en_EN/ABOU_KHATER_YOUSSEF,Mo-Su 06:00-23:00,TotalEnergies,Q154037
ABOU_NADER,totalenergies,TotalEnergies Baskinta,,Baskinta,,,LB,+961 4 281 271,https://store.totalenergies.fr/en_EN/ABOU_NADER,Mo-Su 06:00-22:00,TotalEnergies,Q154037
ABOU_WADI_PR_CARB,totalenergies,TotalEnergies Kefraya,,Kefraya,,,LB,+961 8 645 184,https://store.totalenergies.fr/en_EN/ABOU_WADI_PR_CARB,Mo-Su 06:00-23:00,TotalEnergies,Q154037
ADNAN_RACHID_HAMDAN,totalenergies,TotalEnergies Ainab,,Ainab,,,LB,+961 5 410 811,https://store.totalenergies.fr/en_EN/ADNAN_RACHID_HAMDAN,Mo-Su 06:00-24:00,TotalEnergies,Q154037
AL_ASSAAD_ZAHY,totalenergies,Al Assaad Zahy Station,,Zrariyeh,,,LB,+961 3 243 955,https://store.totalenergies.fr/en_EN/AL_ASSAAD_ZAHY,Mo-Su 06:00-21:00,TotalEnergies,Q154037
ALEY_ABIFARRAJ,totalenergies,TotalEnergies Aley Autoroute,,Aley,,,LB,+961 3 240 744,https://store.totalenergies.fr/en_EN/ALEY_ABIFARRAJ,Mo-Su 06:00-24:00,TotalEnergies,Q154037
AL_SABIINI,totalenergies,TotalEnergies Borj El Chemali,,Bourj al Chemali,,,LB,+961 7 740 890,https://store.totalenergies.fr/en_EN/AL_SABIINI,Mo-Su 06:00-22:00,TotalEnergies,Q154037
ANDRAOS_AND_KILANI,totalenergies,TotalEnergies Saida Ouest,,Saida,,,LB,+961 7 724 558,https://store.totalenergies.fr/en_EN/ANDRAOS_AND_KILANI,24/7,TotalEnergies,Q154037
ASMAR_PETROLEUM,totalenergies,TotalEnergies Jdeideh 1,,Jdeideh,,,LB,+961 1 879 266,https://store.totalenergies.fr/en_EN/ASMAR_PETROLEUM,Mo-Su 06:00-23:00,TotalEnergies,Q154037
ASSWAD_MAKHOUL,totalenergies,TotalEnergies Broummana,,Broumana,,,LB,+961 4 960 391,https://store.totalenergies.fr/en_EN/ASSWAD_MAKHOUL,Mo-Su 06:00-24:00,TotalEnergies,Q154037
AWAD_HAJJ_ALY,totalenergies,TotalEnergies Qaraoun Est,,Qaraoun,,,LB,+961 8 630 250,https://store.totalenergies.fr/en_EN/AWAD_HAJJ_ALY,Mo-Su 06:00-22:00,TotalEnergies,Q154037
BCHEMOUN_STATION,totalenergies,TotalEnergies Bchemoun,,Bchemoun,,,LB,+961 5 813 850,https://store.totalenergies.fr/en_EN/BCHEMOUN_STATION,Mo-Su 06:00-23:00,TotalEnergies,Q154037
BECHARA_AL_KHOURY,totalenergies,TotalEnergies Bachoura,,Bachoura,,,LB,+961 1 662 010,https://store.totalenergies.fr/en_EN/BECHARA_AL_KHOURY,24/7,TotalEnergies,Q154037
BE_RANJ_GROUP,totalenergies,TotalEnergies Quartaboun,,Quartaboun,,,LB,+961 9 796 777,https://store.totalenergies.fr/en_EN/BE_RANJ_GROUP,24/7,TotalEnergies,Q154037
BOULEVARD_HADATH,totalenergies,TotalEnergies Boulevard Hadath,,Hadath,,,LB,+961 5 953 900,https://store.totalenergies.fr/en_EN/BOULEVARD_HADATH,24/7,TotalEnergies,Q154037
BOUNEMR_LAURICE,totalenergies,TotalEnergies Furn el Chebbak 2,,Ain el Remaneh,,,LB,+961 1 284 762,https://store.totalenergies.fr/en_EN/BOUNEMR_LAURICE,Mo-Su 06:00-22:00,TotalEnergies,Q154037
BYBLOSADVANCEDENERGY,totalenergies,TotalEnergies Amchit Autoroute,,Amchit,,,LB,+961 70 497 999,https://store.totalenergies.fr/en_EN/BYBLOSADVANCEDENERGY,24/7,TotalEnergies,Q154037
CALIBER2,totalenergies,TotalEnergies Horch Tabet,,Sin El Fil,,,LB,+961 76 184 187,https://store.totalenergies.fr/en_EN/CALIBER2,Mo-Su 06:00-22:00,TotalEnergies,Q154037
CARLOS_ELIAS,totalenergies,TotalEnergies Halba,,Halba,,,LB,+961 6 693 840,https://store.totalenergies.fr/en_EN/CARLOS_ELIAS,Mo-Su 06:00-22:00,TotalEnergies,Q154037
CAR_SERVICES_TRADE,totalenergies,TotalEnergies Jounieh,,Jounieh,,,LB,+961 9 831 999,https://store.totalenergies.fr/en_EN/CAR_SERVICES_TRADE,24/7,TotalEnergies,Q154037
CHAFIC_SAAB,totalenergies,TotalEnergies Naccache 2,,Naccache,,,LB,+961 4 444 990,https://store.totalenergies.fr/en_EN/CHAFIC_SAAB,Mo-Su 06:00-24:00,TotalEnergies,Q154037
CHAHINE,totalenergies,TotalEnergies Borj Abi Haidar,,Mazraa,,,LB,+961 1 306 344,https://store.totalenergies.fr/en_EN/CHAHINE,Mo-Su 06:00-22:00,TotalEnergies,Q154037
CHARABATY_RAIF,totalenergies,TotalEnergies Baabdat,,Baabdat,,,LB,+961 4 825 184,https://store.totalenergies.fr/en_EN/CHARABATY_RAIF,Mo-Su 06:00-24:00,TotalEnergies,Q154037
CHEHAYEB,totalenergies,TotalEnergies Aley,,Aley,,,LB,+961 5 555 807,https://store.totalenergies.fr/en_EN/CHEHAYEB,Mo-Su 06:00-23:00,TotalEnergies,Q154037
CORNICHE_AEROPORT,totalenergies,TotalEnergies Hadat Sud,,Hadat,,,LB,+961 3 827 595,https://store.totalenergies.fr/en_EN/CORNICHE_AEROPORT,Mo-Su 06:00-23:00,TotalEnergies,Q154037
CORNICHE_AL_NAHR,totalenergies,TotalEnergies Corniche du Fleuve,,Corniche al Nahr,,,LB,+961 1 425 514,https://store.totalenergies.fr/en_EN/CORNICHE_AL_NAHR,24/7,TotalEnergies,Q154037
CORNICHE_MAZRAA,totalenergies,TotalEnergies Corniche Mazraa,,Mazraa,,,LB,+961 1 301 744,https://store.totalenergies.fr/en_EN/CORNICHE_MAZRAA,Mo-Su 06:00-24:00,TotalEnergies,Q154037
DDP_FANAR,totalenergies,TotalEnergies Fanar,,Fanar,,,LB,+961 1 686 601,https://store.totalenergies.fr/en_EN/DDP_FANAR,Mo-Su 06:00-23:00,TotalEnergies,Q154037
DEIR_AL_KAMAR,totalenergies,TotalEnergies Deir al Qamar,,Deir al Kamar,,,LB,+961 5 505 043,https://store.totalenergies.fr/en_EN/DEIR_AL_KAMAR,Mo-Su 06:00-21:00,TotalEnergies,Q154037
ELIAS_BADR,totalenergies,TotalEnergies Ain Dara,,Ain dara,,,LB,+961 5 220 157,https://store.totalenergies.fr/en_EN/ELIAS_BADR,Mo-Su 06:00-24:00,TotalEnergies,Q154037
ELIE_FUHAYLE,totalenergies,TotalEnergies Marjeyoun,,Klayaa,,,LB,+961 7 835 051,https://store.totalenergies.fr/en_EN/ELIE_FUHAYLE,Mo-Su 06:00-21:00,TotalEnergies,Q154037
FADDOUL,totalenergies,TotalEnergies Hammana,,Hammana,,,LB,+961 5 530 332,https://store.totalenergies.fr/en_EN/FADDOUL,Mo-Su 06:00-23:00,TotalEnergies,Q154037
FARROUKH_GROUP,totalenergies,TotalEnergies Khalde,,Khalde,,,LB,+961 5 805 205,https://store.totalenergies.fr/en_EN/FARROUKH_GROUP,Mo-Su 06:00-23:00,TotalEnergies,Q154037
FAYAD_RACHID,totalenergies,TotalEnergies Baabda,,Baabda,,,LB,+961 5 920 443,https://store.totalenergies.fr/en_EN/FAYAD_RACHID,Mo-Su 06:00-22:00,TotalEnergies,Q154037
FILS_DE_SALIM_DIRANI,totalenergies,TotalEnergies Zahle,,Zahle,,,LB,+961 8 931 329,https://store.totalenergies.fr/en_EN/FILS_DE_SALIM_DIRANI,Mo-Su 06:00-22:00,TotalEnergies,Q154037
FILS_SASSINE_SFEIR,totalenergies,TotalEnergies Ballouneh,,Ballouneh,,,LB,+961 9 234 111,https://store.totalenergies.fr/en_EN/FILS_SASSINE_SFEIR,24/7,TotalEnergies,Q154037
FOUDICO_PETROLEUM1,totalenergies,TotalEnergies Antelias 2,,Antelias,,,LB,+961 4 412 785,https://store.totalenergies.fr/en_EN/FOUDICO_PETROLEUM1,24/7,TotalEnergies,Q154037
FULL_STOP,totalenergies,TotalEnergies Sahel Alma,,Sahel Alma,,,LB,+961 3 704 131,https://store.totalenergies.fr/en_EN/FULL_STOP,Mo-Su 06:00-22:00,TotalEnergies,Q154037
GEORGES_MEMA,totalenergies,TotalEnergies Faraya,,Faraya,,,LB,+961 9 321 020,https://store.totalenergies.fr/en_EN/GEORGES_MEMA,24/7,TotalEnergies,Q154037
GERIOUS_NAGIB,totalenergies,TotalEnergies Rechdebbine,,Rechdebbine,,,LB,+961 6 511 224,https://store.totalenergies.fr/en_EN/GERIOUS_NAGIB,Mo-Su 06:00-23:00,TotalEnergies,Q154037
GHOUL_ELIAS,totalenergies,TotalEnergies Roumieh 1,,Roumieh,,,LB,+961 4 870 528,https://store.totalenergies.fr/en_EN/GHOUL_ELIAS,Mo-Su 06:00-24:00,TotalEnergies,Q154037
HABIB_KAMAL,totalenergies,TotalEnergies Hadat Ouest,,Hadat,,,LB,+961 5 466 108,https://store.totalenergies.fr/en_EN/HABIB_KAMAL,24/7,TotalEnergies,Q154037
HABOUCHE,totalenergies,TotalEnergies Habbouche,,Habouche,,,LB,+961 7 530 596,https://store.totalenergies.fr/en_EN/HABOUCHE,Mo-Su 06:00-24:00,TotalEnergies,Q154037
HAFEZ_ABOU_KHATER,totalenergies,TotalEnergies Kfarzabad,,Kfarzabad,,,LB,+961 3 723 215,https://store.totalenergies.fr/en_EN/HAFEZ_ABOU_KHATER,Mo-Su 06:00-22:00,TotalEnergies,Q154037
HAIDAR_CHARBEL,totalenergies,TotalEnergies Aabrine,,Aabrine,,,LB,+961 6 725 053,https://store.totalenergies.fr/en_EN/HAIDAR_CHARBEL,Mo-Su 06:00-20:00,TotalEnergies,Q154037
HAIFA_KHATIB,totalenergies,TotalEnergies Jadra,,Jadra,,,LB,+961 3 786 173,https://store.totalenergies.fr/en_EN/HAIFA_KHATIB,Mo-Su 06:00-22:00,TotalEnergies,Q154037
HALATE_GHASSAN_DAOU,totalenergies,TotalEnergies Halat,,Halat,,,LB,+961 9 478 198,https://store.totalenergies.fr/en_EN/HALATE_GHASSAN_DAOU,Mo-Su 06:00-22:00,TotalEnergies,Q154037
HASSAN_ATWE,totalenergies,TotalEnergies Khiam,,Khiam,,,LB,+961 7 840 450,https://store.totalenergies.fr/en_EN/HASSAN_ATWE,Mo-Su 06:00-22:00,TotalEnergies,Q154037
HASSAN_ZEIN,totalenergies,TotalEnergies Debaal,,Debaal,,,LB,+961 7 411 692,https://store.totalenergies.fr/en_EN/HASSAN_ZEIN,24/7,TotalEnergies,Q154037
HAYEK_FRERES,totalenergies,TotalEnergies Kweikhat,,Kweikhat,,,LB,+961 6 691 458,https://store.totalenergies.fr/en_EN/HAYEK_FRERES,Mo-Su 06:00-23:00,TotalEnergies,Q154037
HAYEK_IMAD,totalenergies,TotalEnergies Maghdouche,,Maghdouche,,,LB,+961 7 200 315,https://store.totalenergies.fr/en_EN/HAYEK_IMAD,Mo-Su 06:00-22:00,TotalEnergies,Q154037
HLEIHEL,totalenergies,TotalEnergies Qraiye,,El Qraiyeh,,,LB,+961 3 329 691,https://store.totalenergies.fr/en_EN/HLEIHEL,Mo-Su 06:00-22:00,TotalEnergies,Q154037
IBRAHIM_SADER,totalenergies,TotalEnergies Darb El Sim,,Darb El Sim,,,LB,+961 76 734 764,https://store.totalenergies.fr/en_EN/IBRAHIM_SADER,24/7,TotalEnergies,Q154037
J_AND_M_INVESTMENT,totalenergies,TotalEnergies Colline Ain Saade,,Roumieh,,,LB,+961 1 878 178,https://store.totalenergies.fr/en_EN/J_AND_M_INVESTMENT,Mo-Su 06:00-24:00,TotalEnergies,Q154037
JAZCO,totalenergies,TotalEnergies Batroun,,Batroun,,,LB,+961 6 642 521,https://store.totalenergies.fr/en_EN/JAZCO,Mo-Su 06:00-23:00,TotalEnergies,Q154037
KARAM_BOU_KARAM,totalenergies,TotalEnergies Zouk Mikael,,Zouk Mikael,,,LB,+961 9 211 540,https://store.totalenergies.fr/en_EN/KARAM_BOU_KARAM,24/7,TotalEnergies,Q154037
KARAM_CAR_CENTER,totalenergies,TotalEnergies Ain Saade,,Ain saade,,,LB,+961 4 870 781,https://store.totalenergies.fr/en_EN/KARAM_CAR_CENTER,Mo-Su 06:00-20:00,TotalEnergies,Q154037
KARAOUNI_ALY,totalenergies,TotalEnergies Abbasiyyeh,,Abbasiyyeh,,,LB,+961 7 741 293,https://store.totalenergies.fr/en_EN/KARAOUNI_ALY,Mo-Su 06:00-21:00,TotalEnergies,Q154037
KARM_ZEITOUN,totalenergies,TotalEnergies Karm Zeitoun,,Ashrafieh,,,LB,+961 1 327 437,https://store.totalenergies.fr/en_EN/KARM_ZEITOUN,Mo-Su 06:00-24:00,TotalEnergies,Q154037
KH_PETROLEUM,totalenergies,TotalEnergies Amioun,,Amioun,,,LB,+961 6 950 848,https://store.totalenergies.fr/en_EN/KH_PETROLEUM,Mo-Su 06:00-21:00,TotalEnergies,Q154037
KOBEISSI_HASSAN,totalenergies,TotalEnergies Zebdine,,Zebdine,,,LB,+961 7 761 371,https://store.totalenergies.fr/en_EN/KOBEISSI_HASSAN,Mo-Su 06:00-22:00,TotalEnergies,Q154037
LAYOUN_AL_MANARA,totalenergies,TotalEnergies Al Manara,,Al manara,,,LB,+961 8 800 009,https://store.totalenergies.fr/en_EN/LAYOUN_AL_MANARA,Mo-Su 06:00-23:00,TotalEnergies,Q154037
LAYOUN_SAMI,totalenergies,TotalEnergies Chtaurama,,Chtaura,,,LB,+961 8 854 824,https://store.totalenergies.fr/en_EN/LAYOUN_SAMI,24/7,TotalEnergies,Q154037
LEBANESE_GAZ_STATION,totalenergies,TotalEnergies Amchit,,Amchit,,,LB,+961 9 622 086,https://store.totalenergies.fr/en_EN/LEBANESE_GAZ_STATION,Mo-Su 06:00-24:00,TotalEnergies,Q154037
MAJDALAYA_NORD,totalenergies,TotalEnergies Dannieh,,Majdlaya,,,LB,+961 70 205 000,https://store.totalenergies.fr/en_EN/MAJDALAYA_NORD,24/7,TotalEnergies,Q154037
MANSOUR_SAID,totalenergies,TotalEnergies Karm Sadde,,Karem Saddeh,,,LB,+961 3 325 335,https://store.totalenergies.fr/en_EN/MANSOUR_SAID,Mo-Su 06:00-23:00,TotalEnergies,Q154037
MERHEJ_AND_CO,totalenergies,TotalEnergies Hazmieh,,Jisr El Bacha,,,LB,+961 5 452 579,https://store.totalenergies.fr/en_EN/MERHEJ_AND_CO,Mo-Su 06:00-24:00,TotalEnergies,Q154037
MHD_DOGHMAN,totalenergies,TotalEnergies Der El Zahrani,,Deir Al Zahrani,,,LB,+961 3 241 454,https://store.totalenergies.fr/en_EN/MHD_DOGHMAN,Mo-Su 06:00-22:00,TotalEnergies,Q154037
MICHEL_KALLAS,totalenergies,TotalEnergies Saraain,,Seriine,,,LB,+961 8 335 537,https://store.totalenergies.fr/en_EN/MICHEL_KALLAS,Mo-Su 06:00-22:00,TotalEnergies,Q154037
MICHEL_SAAB,totalenergies,TotalEnergies Antelias,,Antelias,,,LB,+961 4 444 990,https://store.totalenergies.fr/en_EN/MICHEL_SAAB,Mo-Su 06:00-23:00,TotalEnergies,Q154037
MIMARO_PR_LE_COMM,totalenergies,TotalEnergies Jeita,,Jeita,,,LB,+961 9 233 245,https://store.totalenergies.fr/en_EN/MIMARO_PR_LE_COMM,Mo-Su 06:00-23:00,TotalEnergies,Q154037
MINA_GROUP,totalenergies,TotalEnergies Hoch El Omara 2,,Hoch el Omara,,,LB,+961 8 807 161,https://store.totalenergies.fr/en_EN/MINA_GROUP,Mo-Su 06:00-23:00,TotalEnergies,Q154037
MOHAMAD_NASSEREDDINE,totalenergies,TotalEnergies Chehabiyeh,,Chehabiyeh,,,LB,+961 3 848 043,https://store.totalenergies.fr/en_EN/MOHAMAD_NASSEREDDINE,Mo-Su 06:00-23:00,TotalEnergies,Q154037
NAHR_AL_MOTT,totalenergies,TotalEnergies Nahr Al Mott,,Nahr Al Mott,,,LB,+961 1 877 935,https://store.totalenergies.fr/en_EN/NAHR_AL_MOTT,Mo-Su 06:00-24:00,TotalEnergies,Q154037
NASR_DAMOUR,totalenergies,TotalEnergies Damour Est,,Damour,,,LB,+961 5 600 661,https://store.totalenergies.fr/en_EN/NASR_DAMOUR,Mo-Su 06:00-24:00,TotalEnergies,Q154037
NASR_PR_LE_COMMERCE,totalenergies,TotalEnergies Damour Sud,,Damour,,,LB,+961 5 601 777,https://store.totalenergies.fr/en_EN/NASR_PR_LE_COMMERCE,Mo-Su 06:00-24:00,TotalEnergies,Q154037
NASSAR_FRERES,totalenergies,TotalEnergies Jdita,,Jdita,,,LB,+961 8 540 700,https://store.totalenergies.fr/en_EN/NASSAR_FRERES,Mo-Su 06:00-24:00,TotalEnergies,Q154037
NASSIF_MIKHAEL_NASR,totalenergies,TotalEnergies Chekka Ouest,,Chekka,,,LB,+961 6 545 036,https://store.totalenergies.fr/en_EN/NASSIF_MIKHAEL_NASR,Mo-Su 06:00-23:00,TotalEnergies,Q154037
NAZIH_ANNAN,totalenergies,TotalEnergies Tahwitat Al Ghadir,,Dahieh,,,LB,+961 3 379 418,https://store.totalenergies.fr/en_EN/NAZIH_ANNAN,Mo-Su 06:00-22:00,TotalEnergies,Q154037
NICOLAS_SALAME,totalenergies,TotalEnergies Naccache,,Naccache,,,LB,+961 4 522 651,https://store.totalenergies.fr/en_EN/NICOLAS_SALAME,Mo-Su 06:00-23:00,TotalEnergies,Q154037
RAAD_BOTROS,totalenergies,TotalEnergies Chbeniyeh,,Chbenyeh,,,LB,+961 5 370 401,https://store.totalenergies.fr/en_EN/RAAD_BOTROS,Mo-Su 06:00-24:00,TotalEnergies,Q154037
RAHME_HANNA,totalenergies,TotalEnergies Bcharri,,Becharre,,,LB,+961 6 672 278,https://store.totalenergies.fr/en_EN/RAHME_HANNA,Mo-Su 06:00-23:00,TotalEnergies,Q154037
RAS_AL_AIN,totalenergies,TotalEnergies Ras al Ain,,Ras Al Ain,,,LB,+961 7 395 222,https://store.totalenergies.fr/en_EN/RAS_AL_AIN,Mo-Su 06:00-22:00,TotalEnergies,Q154037
RAS_GAS_2_SAL,totalenergies,TotalEnergies Ras Gas,,Baabda,,,LB,+961 5 450 040,https://store.totalenergies.fr/en_EN/RAS_GAS_2_SAL,24/7,TotalEnergies,Q154037
RSM_ABOU_ANTOUN,totalenergies,TotalEnergies Kfarfalous,,Kfarfalous,,,LB,+961 81 637 616,https://store.totalenergies.fr/en_EN/RSM_ABOU_ANTOUN,Mo-Su 06:00-21:00,TotalEnergies,Q154037
SAHYOUNI_JOSEPH,totalenergies,Sahyouni Joseph Station,,Sidon,,,LB,+961 7 722 973,https://store.totalenergies.fr/en_EN/SAHYOUNI_JOSEPH,Mo-Su 06:00-24:00,TotalEnergies,Q154037
SAIFI,totalenergies,TotalEnergies Machkiti,,Machkite,,,LB,+961 3 855 421,https://store.totalenergies.fr/en_EN/SAIFI,Mo-Su 06:00-22:00,TotalEnergies,Q154037
SALLOUM_RAJA,totalenergies,TotalEnergies Baakline,,Baakline,,,LB,+961 5 305 769,https://store.totalenergies.fr/en_EN/SALLOUM_RAJA,Mo-Su 06:00-22:00,TotalEnergies,Q154037
SAMIR_NEMR,totalenergies,TotalEnergies Roum,,Roum,,,LB,+961 70 384 050,https://store.totalenergies.fr/en_EN/SAMIR_NEMR,Mo-Su 06:00-22:00,TotalEnergies,Q154037
SFEIR_RIZKALLAH,totalenergies,TotalEnergies Chekka,,Chekka,,,LB,+961 6 542 377,https://store.totalenergies.fr/en_EN/SFEIR_RIZKALLAH,Mo-Su 06:00-22:00,TotalEnergies,Q154037
SIMON_GEORGES_HAWAT,totalenergies,TotalEnergies Jbeil,,Jbeil,,,LB,+961 9 942 484,https://store.totalenergies.fr/en_EN/SIMON_GEORGES_HAWAT,Mo-Su 06:00-22:00,TotalEnergies,Q154037
SNP,totalenergies,TotalEnergies Rmeil,,Bourj Hammoud,,,LB,+961 1 443 512,https://store.totalenergies.fr/en_EN/SNP,Mo-Su 06:00-24:00,TotalEnergies,Q154037
SOCIETE_CEDARS_FUEL,totalenergies,TotalEnergies Tabaris,,Ashrafieh,,,LB,+961 1 202 997,https://store.totalenergies.fr/en_EN/SOCIETE_CEDARS_FUEL,Mo-Su 06:00-23:00,TotalEnergies,Q154037
SOCIETE_DEBBANEH,totalenergies,TotalEnergies Zahrani,,Zahrani,,,LB,+961 7 260 256,https://store.totalenergies.fr/en_EN/SOCIETE_DEBBANEH,Mo-Su 06:00-20:00,TotalEnergies,Q154037
SS_BEIT_MERRY,totalenergies,TotalEnergies Beit Merry,,Beit merry,,,LB,+961 4 400 165,https://store.totalenergies.fr/en_EN/SS_BEIT_MERRY,24/7,TotalEnergies,Q154037
STARS_STATION,totalenergies,TotalEnergies Kayfoun,,Bayssour,,,LB,+961 5 570 666,https://store.totalenergies.fr/en_EN/STARS_STATION,Mo-Su 06:00-23:00,TotalEnergies,Q154037
STE_ALAMEH_FRS,totalenergies,TotalEnergies Haret Hreik,,Haret Hreik,,,LB,+961 1 557 788,https://store.totalenergies.fr/en_EN/STE_ALAMEH_FRS,Mo-Su 06:00-23:00,TotalEnergies,Q154037
STE_AL_RACHID,totalenergies,TotalEnergies Dohat Aramoun,,Aramoun,,,LB,+961 5 805 205,https://store.totalenergies.fr/en_EN/STE_AL_RACHID,24/7,TotalEnergies,Q154037
STE_GROUPE_KILANI,totalenergies,TotalEnergies Saida Est,,Saida,,,LB,+961 7 722 646,https://store.totalenergies.fr/en_EN/STE_GROUPE_KILANI,24/7,TotalEnergies,Q154037
ST_GEORGES_STATION,totalenergies,TotalEnergies Mtayleb,,Mtayleb,,,LB,+961 4 911 118,https://store.totalenergies.fr/en_EN/ST_GEORGES_STATION,24/7,TotalEnergies,Q154037
TAWIL_GERGIS,totalenergies,TotalEnergies Chouayfat,,Choueifat,,,LB,+961 5 802 884,https://store.totalenergies.fr/en_EN/TAWIL_GERGIS,Mo-Su 06:00-20:00,TotalEnergies,Q154037
TE_AIN_REMMANEH,totalenergies,TotalEnergies Ain al Remaneh,,Ain al Remmaneh,,,LB,+961 1 280 767,https://store.totalenergies.fr/en_EN/TE_AIN_REMMANEH,Mo-Su 06:00-22:00,TotalEnergies,Q154037
TE_ALMAZA_DDP,totalenergies,TotalEnergies Bouchrieh,,Bouchrieh,,,LB,+961 3 624 602,https://store.totalenergies.fr/en_EN/TE_ALMAZA_DDP,24/7,TotalEnergies,Q154037
TE_ASHRAFIEH,totalenergies,TotalEnergies Ashrafieh,,Ashrafieh,,,LB,+961 1 204 392,https://store.totalenergies.fr/en_EN/TE_ASHRAFIEH,Mo-Su 04:00-23:00,TotalEnergies,Q154037
TE_BAUCHRIEH,totalenergies,TotalEnergies Baouchrieh 2,,Bauchrieh,,,LB,+961 3 658 888,https://store.totalenergies.fr/en_EN/TE_BAUCHRIEH,Mo-Su 06:00-24:00,TotalEnergies,Q154037
TE_BEITCHABEB,totalenergies,TotalEnergies Beit Chabeb,,Beit chabeb,,,LB,+961 3 588 222,https://store.totalenergies.fr/en_EN/TE_BEITCHABEB,Mo-Su 06:00-20:00,TotalEnergies,Q154037
TE_BEITEDDINE,totalenergies,TotalEnergies Beit el Din,,Beiteddine,,,LB,+961 5 502 811,https://store.totalenergies.fr/en_EN/TE_BEITEDDINE,Mo-Su 06:00-22:00,TotalEnergies,Q154037
TE_BIKFAYA,totalenergies,TotalEnergies Bikfaya,,Bikfaya,,,LB,+961 3 602 069,https://store.totalenergies.fr/en_EN/TE_BIKFAYA,Mo-Su 06:00-22:00,TotalEnergies,Q154037
TE_BORJDELBANI,totalenergies,TotalEnergies Borj Al Brajne,,Borj Al Brajne,,,LB,+961 3 557 235,https://store.totalenergies.fr/en_EN/TE_BORJDELBANI,Mo-Su 06:00-23:00,TotalEnergies,Q154037
TE_CAMELIA,totalenergies,TotalEnergies Camelia,,Hazmieh,,,LB,+961 5 453 410,https://store.totalenergies.fr/en_EN/TE_CAMELIA,24/7,TotalEnergies,Q154037
TE_CASINO_KHAZEN,totalenergies,TotalEnergies Ghazir,,Ghazir,,,LB,+961 9 852 516,https://store.totalenergies.fr/en_EN/TE_CASINO_KHAZEN,24/7,TotalEnergies,Q154037
TE_CORNICHE_SAIDA,totalenergies,TotalEnergies Corniche Saida,,Saida,,,LB,+961 7 727 959,https://store.totalenergies.fr/en_EN/TE_CORNICHE_SAIDA,24/7,TotalEnergies,Q154037
TE_DAMOUR,totalenergies,TotalEnergies Damour Nord,,Damour,,,LB,+961 5 601 395,https://store.totalenergies.fr/en_EN/TE_DAMOUR,Mo-Su 06:00-23:00,TotalEnergies,Q154037
TE_DAMOUR_OUEST,totalenergies,TotalEnergies Damour Ouest,,Damour,,,LB,+961 5 600 610,https://store.totalenergies.fr/en_EN/TE_DAMOUR_OUEST,24/7,TotalEnergies,Q154037
TE_DEKWANEH,totalenergies,TotalEnergies Dekwaneh,,Dekwaneh,,,LB,+961 1 687 428,https://store.totalenergies.fr/en_EN/TE_DEKWANEH,Mo-Su 06:00-22:00,TotalEnergies,Q154037
TE_DORA_SEA_SIDE,totalenergies,TotalEnergies Dora Sea Side,,Dora,,,LB,+961 1 884 168,https://store.totalenergies.fr/en_EN/TE_DORA_SEA_SIDE,24/7,TotalEnergies,Q154037
TE_GARDENIA,totalenergies,TotalEnergies Gardenia,,Hazmieh,,,LB,+961 5 457 975,https://store.totalenergies.fr/en_EN/TE_GARDENIA,Mo-Su 06:00-22:00,TotalEnergies,Q154037
TE_JAMHOUR,totalenergies,TotalEnergies Jamhour,,Jamhour,,,LB,+961 5 769 656,https://store.totalenergies.fr/en_EN/TE_JAMHOUR,24/7,TotalEnergies,Q154037
TE_KETERMAYA,totalenergies,TotalEnergies Ketermaya,,Ketermaya,,,LB,+961 7 971 918,https://store.totalenergies.fr/en_EN/TE_KETERMAYA,Mo-Su 06:00-22:00,TotalEnergies,Q154037
TE_KFARHOUNA,totalenergies,TotalEnergies Kfarhoune,,Kfarhouna,,,LB,+961 7 820 207,https://store.totalenergies.fr/en_EN/TE_KFARHOUNA,Mo-Su 06:00-20:00,TotalEnergies,Q154037
TE_LOUEIZEH,totalenergies,TotalEnergies Louaizeh,,Louaizeh,,,LB,+961 5 769 922,https://store.totalenergies.fr/en_EN/TE_LOUEIZEH,24/7,TotalEnergies,Q154037
TE_MANSOURI,totalenergies,TotalEnergies Mansouri,,Mansouri,,,LB,+961 7 320 110,https://store.totalenergies.fr/en_EN/TE_MANSOURI,Mo-Su 06:00-20:00,TotalEnergies,Q154037
TE_MEDAWAR,totalenergies,TotalEnergies Medawar,,Medawar,,,LB,+961 1 561 471,https://store.totalenergies.fr/en_EN/TE_MEDAWAR,24/7,TotalEnergies,Q154037
TE_MERHIJEZZINE,totalenergies,TotalEnergies Jezzine,,Jezzine,,,LB,+961 70 384 050,https://store.totalenergies.fr/en_EN/TE_MERHIJEZZINE,Mo-Su 06:00-22:00,TotalEnergies,Q154037
TE_MOUSSEITBEH,totalenergies,TotalEnergies Mousaitbe,,Mousaitbe,,,LB,+961 1 319 923,https://store.totalenergies.fr/en_EN/TE_MOUSSEITBEH,Mo-Su 06:00-24:00,TotalEnergies,Q154037
TE_MREIJAT,totalenergies,TotalEnergies Mreijat,,Mreijat,,,LB,+961 3 698 402,https://store.totalenergies.fr/en_EN/TE_MREIJAT,Mo-Su 06:00-22:00,TotalEnergies,Q154037
TE_MREIJEH,totalenergies,TotalEnergies Mreijeh,,Mreijeh,,,LB,+961 1 474 517,https://store.totalenergies.fr/en_EN/TE_MREIJEH,Mo-Su 06:00-22:00,TotalEnergies,Q154037
TE_NAHRIBRAHIM,totalenergies,TotalEnergies Nahr Ibrahim,,Nahr Ibrahim,,,LB,+961 9 447 606,https://store.totalenergies.fr/en_EN/TE_NAHRIBRAHIM,24/7,TotalEnergies,Q154037
TE_NAJJARIEH,totalenergies,TotalEnergies Najjarieh,,Najjarieh,,,LB,+961 70 175 105,https://store.totalenergies.fr/en_EN/TE_NAJJARIEH,24/7,TotalEnergies,Q154037
TE_QOUBAIYAT,totalenergies,TotalEnergies Qoubaiyat,,Qoubaiyat,,,LB,+961 3 350 686,https://store.totalenergies.fr/en_EN/TE_QOUBAIYAT,Mo-Su 06:00-22:00,TotalEnergies,Q154037
TE_RASAMNY,totalenergies,TotalEnergies Amaret Chalhoub,,Jal el dib,,,LB,+961 1 889 150,https://store.totalenergies.fr/en_EN/TE_RASAMNY,Mo-Su 06:00-24:00,TotalEnergies,Q154037
TE_SNP_GRDBEY,totalenergies,TotalEnergies Grand Beyrouth,,Corniche al Nahr,,,LB,+961 3 418 802,https://store.totalenergies.fr/en_EN/TE_SNP_GRDBEY,Mo-Su 06:00-24:00,TotalEnergies,Q154037
TE_SPINNEYS,totalenergies,TotalEnergies Jnah,,Jnah,,,LB,+961 1 853 130,https://store.totalenergies.fr/en_EN/TE_SPINNEYS,24/7,TotalEnergies,Q154037
TE_ST_JOSEPH,totalenergies,TotalEnergies St Joseph,,Dora,,,LB,+961 1 252 977,https://store.totalenergies.fr/en_EN/TE_ST_JOSEPH,24/7,TotalEnergies,Q154037
TE_TRIPOLI,totalenergies,TotalEnergies Tripoli,,Tripoli,,,LB,+961 6 628 400,https://store.totalenergies.fr/en_EN/TE_TRIPOLI,Mo-Su 06:00-22:00,TotalEnergies,Q154037
TE_TRIPOLI_BEHSAS,totalenergies,TotalEnergies Behssas,,Behssas,,,LB,+961 6 410 715,https://store.totalenergies.fr/en_EN/TE_TRIPOLI_BEHSAS,24/7,TotalEnergies,Q154037
TE_VERDUN,totalenergies,TotalEnergies Verdun,,Verdun,,,LB,+961 1 353 233,https://store.totalenergies.fr/en_EN/TE_VERDUN,24/7,TotalEnergies,Q154037
TOTAL_AIN_REMMANEH,totalenergies,TOTAL Ain al Remaneh,,Ain al Remmaneh,,,LB,+961 1 280 767,https://store.totalenergies.fr/en_EN/TOTAL_AIN_REMMANEH,Mo-Su 06:00-22:00,TotalEnergies,Q154037
TOTAL_ALMAZA_DDP,totalenergies,TOTAL Bouchrieh,,Bouchrieh,,,LB,+961 3 624 602,https://store.totalenergies.fr/en_EN/TOTAL_ALMAZA_DDP,24/7,TotalEnergies,Q154037
TOTAL_ARCADI,totalenergies,TOTAL Arcadia,,Kfardajjal,,,LB,+961 70 759 752,https://store.totalenergies.fr/en_EN/TOTAL_ARCADI,24/7,TotalEnergies,Q154037
TOTAL_ARGES,totalenergies,TOTAL Arges,,Arges,,,LB,+961 6 550 650,https://store.totalenergies.fr/en_EN/TOTAL_ARGES,Mo-Su 06:00-23:00,TotalEnergies,Q154037
TOTAL_ASHRAFIEH,totalenergies,TOTAL Ashrafieh,,Ashrafieh,,,LB,+961 1 204 392,https://store.totalenergies.fr/en_EN/TOTAL_ASHRAFIEH,Mo-Su 04:00-23:00,TotalEnergies,Q154037
TOTAL_AWAD2,totalenergies,TOTAL Qaraoun Ouest,,Qaraoun,,,LB,+961 8 631 320,https://store.totalenergies.fr/en_EN/TOTAL_AWAD2,Mo-Su 06:00-22:00,TotalEnergies,Q154037
TOTAL_BAUCHRIEH,totalenergies,TOTAL Baouchrieh 2,,Bauchrieh,,,LB,+961 3 658 888,https://store.totalenergies.fr/en_EN/TOTAL_BAUCHRIEH,Mo-Su 06:00-24:00,TotalEnergies,Q154037
TOTAL_BEITCHABEB,totalenergies,TOTAL Beit Chabeb,,Beit chabeb,,,LB,+961 3 588 222,https://store.totalenergies.fr/en_EN/TOTAL_BEITCHABEB,Mo-Su 06:00-20:00,TotalEnergies,Q154037
TOTAL_BEITEDDINE,totalenergies,TOTAL Beit el Din,,Beiteddine,,,LB,+961 5 502 811,https://store.totalenergies.fr/en_EN/TOTAL_BEITEDDINE,Mo-Su 06:00-22:00,TotalEnergies,Q154037
TOTAL_BIKFAYA,totalenergies,TOTAL Bikfaya,,Bikfaya,,,LB,+961 3 602 069,https://store.totalenergies.fr/en_EN/TOTAL_BIKFAYA,Mo-Su 06:00-22:00,TotalEnergies,Q154037
TOTAL_BORJDELBANI,totalenergies,TOTAL Borj Al Brajne,,Borj Al Brajne,,,LB,+961 3 557 235,https://store.totalenergies.fr/en_EN/TOTAL_BORJDELBANI,Mo-Su 06:00-23:00,TotalEnergies,Q154037
TOTAL_BRN,totalenergies,TOTAL B.R.N.,,Tripoli,,,LB,+961 3 341 201,https://store.totalenergies.fr/en_EN/TOTAL_BRN,Mo-Su 06:00-22:00,TotalEnergies,Q154037
TOTAL_CAMELIA,totalenergies,TOTAL Camelia,,Hazmieh,,,LB,+961 5 453 410,https://store.totalenergies.fr/en_EN/TOTAL_CAMELIA,24/7,TotalEnergies,Q154037
TOTAL_CARBEL,totalenergies,TOTAL Baabda Nord,,Baabda,,,LB,+961 5 472 472,https://store.totalenergies.fr/en_EN/TOTAL_CARBEL,24/7,TotalEnergies,Q154037
TOTAL_CASINO_KHAZEN,totalenergies,TOTAL Ghazir,,Ghazir,,,LB,+961 9 852 516,https://store.totalenergies.fr/en_EN/TOTAL_CASINO_KHAZEN,24/7,TotalEnergies,Q154037
TOTAL_CHYAH,totalenergies,TOTAL Ghobeiry,,Chyah,,,LB,+961 1 545 223,https://store.totalenergies.fr/en_EN/TOTAL_CHYAH,24/7,TotalEnergies,Q154037
TOTAL_CORNICHE_SAIDA,totalenergies,TOTAL Corniche Saida,,Saida,,,LB,+961 7 727 959,https://store.totalenergies.fr/en_EN/TOTAL_CORNICHE_SAIDA,24/7,TotalEnergies,Q154037
TOTAL_DAMOUR,totalenergies,TOTAL Damour Nord,,Damour,,,LB,+961 5 601 395,https://store.totalenergies.fr/en_EN/TOTAL_DAMOUR,Mo-Su 06:00-23:00,TotalEnergies,Q154037
TOTAL_DAMOUR_OUEST,totalenergies,TOTAL Damour Ouest,,Damour,,,LB,+961 5 600 610,https://store.totalenergies.fr/en_EN/TOTAL_DAMOUR_OUEST,24/7,TotalEnergies,Q154037
TOTAL_DBAYE,totalenergies,TOTAL Dbayeh,,Dbayeh,,,LB,+961 4 541 521,https://store.totalenergies.fr/en_EN/TOTAL_DBAYE,Mo-Su 06:00-22:00,TotalEnergies,Q154037
TOTAL_DEKWANEH,totalenergies,TOTAL Dekwaneh,,Dekwaneh,,,LB,+961 1 687 428,https://store.totalenergies.fr/en_EN/TOTAL_DEKWANEH,Mo-Su 06:00-22:00,TotalEnergies,Q154037
TOTAL_DORA_SEA_SIDE,totalenergies,TOTAL Dora Sea Side,,Dora,,,LB,+961 1 884 168,https://store.totalenergies.fr/en_EN/TOTAL_DORA_SEA_SIDE,24/7,TotalEnergies,Q154037
TotalEnergies_ARCADI,totalenergies,TotalEnergies Arcadia,,Kfardajjal,,,LB,+961 70 759 752,https://store.totalenergies.fr/en_EN/TotalEnergies_ARCADI,24/7,TotalEnergies,Q154037
TotalEnergies_ARGES,totalenergies,TotalEnergies Arges,,Arges,,,LB,+961 6 550 650,https://store.totalenergies.fr/en_EN/TotalEnergies_ARGES,Mo-Su 06:00-23:00,TotalEnergies,Q154037
TotalEnergies_AWAD2,totalenergies,TotalEnergies Qaraoun Ouest,,Qaraoun,,,LB,+961 8 631 320,https://store.totalenergies.fr/en_EN/TotalEnergies_AWAD2,Mo-Su 06:00-22:00,TotalEnergies,Q154037
TotalEnergies_BRN,totalenergies,TotalEnergies B.R.N.,,Tripoli,,,LB,+961 3 341 201,https://store.totalenergies.fr/en_EN/TotalEnergies_BRN,Mo-Su 06:00-22:00,TotalEnergies,Q154037
TotalEnergies_CARBEL,totalenergies,TotalEnergies Baabda Nord,,Baabda,,,LB,+961 5 472 472,https://store.totalenergies.fr/en_EN/TotalEnergies_CARBEL,24/7,TotalEnergies,Q154037
TotalEnergies_CHYAH,totalenergies,TotalEnergies Ghobeiry,,Chyah,,,LB,+961 1 545 223,https://store.totalenergies.fr/en_EN/TotalEnergies_CHYAH,24/7,TotalEnergies,Q154037
TotalEnergies_DAMOUR,totalenergies,TotalEnergies Damour Nord,,Damour,,,LB,+961 5 601 395,https://store.totalenergies.fr/en_EN/TotalEnergies_DAMOUR,Mo-Su 06:00-23:00,TotalEnergies,Q154037
TotalEnergies_DBAYE,totalenergies,TotalEnergies Dbayeh,,Dbayeh,,,LB,+961 4 541 521,https://store.totalenergies.fr/en_EN/TotalEnergies_DBAYE,Mo-Su 06:00-22:00,TotalEnergies,Q154037
TotalEnergies_FARAYA,totalenergies,TotalEnergies Mzaar Kfardebiane,,Kfardebiane,,,LB,+961 3 907 777,https://store.totalenergies.fr/en_EN/TotalEnergies_FARAYA,Mo-Su 06:00-22:00,TotalEnergies,Q154037
TotalEnergies_GOLF,totalenergies,TotalEnergies Golf,,Ghobayreh,,,LB,+961 1 842 776,https://store.totalenergies.fr/en_EN/TotalEnergies_GOLF,Mo-Su 06:00-23:00,TotalEnergies,Q154037
TotalEnergies_HADAT,totalenergies,TotalEnergies Hadat,,Hadat,,,LB,+961 5 460 615,https://store.totalenergies.fr/en_EN/TotalEnergies_HADAT,Mo-Su 06:00-22:00,TotalEnergies,Q154037
TotalEnergies_HORSH,totalenergies,TotalEnergies Horch,,Horsh Beirut,,,LB,+961 1 660 630,https://store.totalenergies.fr/en_EN/TotalEnergies_HORSH,Mo-Su 06:00-23:00,TotalEnergies,Q154037
TotalEnergies_MARINA,totalenergies,TotalEnergies Marina,,Dbayeh,,,LB,+961 4 523 683,https://store.totalenergies.fr/en_EN/TotalEnergies_MARINA,24/7,TotalEnergies,Q154037
TotalEnergies_MAZRAA,totalenergies,TotalEnergies Mazraa,,Mazraa,,,LB,+961 1 302 522,https://store.totalenergies.fr/en_EN/TotalEnergies_MAZRAA,Mo-Su 06:00-24:00,TotalEnergies,Q154037
TotalEnergies_MURR,totalenergies,TotalEnergies Dora,,Dora,,,LB,+961 1 240 731,https://store.totalenergies.fr/en_EN/TotalEnergies_MURR,Mo-Su 06:00-23:00,TotalEnergies,Q154037
TotalEnergies_NABAA,totalenergies,TotalEnergies Nabaa,,Nabaa,,,LB,+961 1 241 077,https://store.totalenergies.fr/en_EN/TotalEnergies_NABAA,Mo-Su 06:00-22:00,TotalEnergies,Q154037
TotalEnergies_NOHRA,totalenergies,TotalEnergies Furn el Chebbak,,Furn al Chebbak,,,LB,+961 1 280 558,https://store.totalenergies.fr/en_EN/TotalEnergies_NOHRA,Mo-Su 06:00-22:00,TotalEnergies,Q154037
TotalEnergies_RAMMAL,totalenergies,TotalEnergies Mreijeh Nord,,Dahieh,,,LB,+961 1 468 346,https://store.totalenergies.fr/en_EN/TotalEnergies_RAMMAL,Mo-Su 06:00-22:00,TotalEnergies,Q154037
TotalEnergiesTEBNINE,totalenergies,TotalEnergies Tebnine,,Tebnine,,,LB,+961 3 671 738,https://store.totalenergies.fr/en_EN/TotalEnergiesTEBNINE,Mo-Su 06:00-23:00,TotalEnergies,Q154037
TotalEnergies_VERDUN,totalenergies,TotalEnergies Verdun,,Verdun,,,LB,+961 1 353 233,https://store.totalenergies.fr/en_EN/TotalEnergies_VERDUN,24/7,TotalEnergies,Q154037
TOTAL_FARAYA,totalenergies,TOTAL Mzaar Kfardebiane,,Kfardebiane,,,LB,+961 3 907 777,https://store.totalenergies.fr/en_EN/TOTAL_FARAYA,Mo-Su 06:00-22:00,TotalEnergies,Q154037
TOTAL_GARDENIA,totalenergies,TOTAL Gardenia,,Hazmieh,,,LB,+961 5 457 975,https://store.totalenergies.fr/en_EN/TOTAL_GARDENIA,Mo-Su 06:00-22:00,TotalEnergies,Q154037
TOTAL_GOLF,totalenergies,TOTAL Golf,,Ghobayreh,,,LB,+961 1 842 776,https://store.totalenergies.fr/en_EN/TOTAL_GOLF,Mo-Su 06:00-23:00,TotalEnergies,Q154037
TOTAL_HADAT,totalenergies,TOTAL Hadat,,Hadat,,,LB,+961 5 460 615,https://store.totalenergies.fr/en_EN/TOTAL_HADAT,Mo-Su 06:00-22:00,TotalEnergies,Q154037
TOTAL_HORSH,totalenergies,TOTAL Horch,,Horsh Beirut,,,LB,+961 1 660 630,https://store.totalenergies.fr/en_EN/TOTAL_HORSH,Mo-Su 06:00-23:00,TotalEnergies,Q154037
TOTAL_JAMHOUR,totalenergies,TOTAL Jamhour,,Jamhour,,,LB,+961 5 769 656,https://store.totalenergies.fr/en_EN/TOTAL_JAMHOUR,24/7,TotalEnergies,Q154037
TOTAL_KETERMAYA,totalenergies,TOTAL Ketermaya,,Ketermaya,,,LB,+961 7 971 918,https://store.totalenergies.fr/en_EN/TOTAL_KETERMAYA,Mo-Su 06:00-22:00,TotalEnergies,Q154037
TOTAL_KFARHOUNA,totalenergies,TOTAL Kfarhoune,,Kfarhouna,,,LB,+961 7 820 207,https://store.totalenergies.fr/en_EN/TOTAL_KFARHOUNA,Mo-Su 06:00-20:00,TotalEnergies,Q154037
TOTAL_LOUEIZEH,totalenergies,TOTAL Louaizeh,,Louaizeh,,,LB,+961 5 769 922,https://store.totalenergies.fr/en_EN/TOTAL_LOUEIZEH,24/7,TotalEnergies,Q154037
TOTAL_MANSOURI,totalenergies,Total Mansouri,,Mansouri,,,LB,+961 7 320 110,https://store.totalenergies.fr/en_EN/TOTAL_MANSOURI,Mo-Su 06:00-20:00,TotalEnergies,Q154037
TOTAL_MARINA,totalenergies,TOTAL Marina,,Dbayeh,,,LB,+961 4 523 683,https://store.totalenergies.fr/en_EN/TOTAL_MARINA,24/7,TotalEnergies,Q154037
TOTAL_MAZRAA,totalenergies,TOTAL Mazraa,,Mazraa,,,LB,+961 1 302 522,https://store.totalenergies.fr/en_EN/TOTAL_MAZRAA,Mo-Su 06:00-24:00,TotalEnergies,Q154037
TOTAL_MEDAWAR,totalenergies,TOTAL Medawar,,Medawar,,,LB,+961 1 561 471,https://store.totalenergies.fr/en_EN/TOTAL_MEDAWAR,24/7,TotalEnergies,Q154037
TOTAL_MERHIJEZZINE,totalenergies,TOTAL Jezzine,,Jezzine,,,LB,+961 70 384 050,https://store.totalenergies.fr/en_EN/TOTAL_MERHIJEZZINE,Mo-Su 06:00-22:00,TotalEnergies,Q154037
TOTAL_MOUSSEITBEH,totalenergies,TOTAL Mousaitbe,,Mousaitbe,,,LB,+961 1 319 923,https://store.totalenergies.fr/en_EN/TOTAL_MOUSSEITBEH,Mo-Su 06:00-24:00,TotalEnergies,Q154037
TOTAL_MREIJAT,totalenergies,TOTAL Mreijat,,Mreijat,,,LB,+961 3 698 402,https://store.totalenergies.fr/en_EN/TOTAL_MREIJAT,Mo-Su 06:00-22:00,TotalEnergies,Q154037
TOTAL_MREIJEH,totalenergies,TOTAL Mreijeh,,Mreijeh,,,LB,+961 1 474 517,https://store.totalenergies.fr/en_EN/TOTAL_MREIJEH,Mo-Su 06:00-22:00,TotalEnergies,Q154037
TOTAL_MURR,totalenergies,TOTAL Dora,,Dora,,,LB,+961 1 240 731,https://store.totalenergies.fr/en_EN/TOTAL_MURR,Mo-Su 06:00-23:00,TotalEnergies,Q154037
TOTAL_NABAA,totalenergies,TOTAL Nabaa,,Nabaa,,,LB,+961 1 241 077,https://store.totalenergies.fr/en_EN/TOTAL_NABAA,Mo-Su 06:00-22:00,TotalEnergies,Q154037
TOTAL_NAHRIBRAHIM,totalenergies,TOTAL Nahr Ibrahim,,Nahr Ibrahim,,,LB,+961 9 447 606,https://store.totalenergies.fr/en_EN/TOTAL_NAHRIBRAHIM,24/7,TotalEnergies,Q154037
TOTAL_NAJJARIEH,totalenergies,TOTAL Najjarieh,,Najjarieh,,,LB,+961 70 175 105,https://store.totalenergies.fr/en_EN/TOTAL_NAJJARIEH,24/7,TotalEnergies,Q154037
TOTAL_NOHRA,totalenergies,TOTAL Furn el Chebbak,,Furn al Chebbak,,,LB,+961 1 280 558,https://store.totalenergies.fr/en_EN/TOTAL_NOHRA,Mo-Su 06:00-22:00,TotalEnergies,Q154037
TOTAL_QOUBAIYAT,totalenergies,TOTAL Qoubaiyat,,Qoubaiyat,,,LB,+961 3 350 686,https://store.totalenergies.fr/en_EN/TOTAL_QOUBAIYAT,Mo-Su 06:00-22:00,TotalEnergies,Q154037
TOTAL_RAMMAL,totalenergies,TOTAL Mreijeh Nord,,Dahieh,,,LB,+961 1 468 346,https://store.totalenergies.fr/en_EN/TOTAL_RAMMAL,Mo-Su 06:00-22:00,TotalEnergies,Q154037
TOTAL_RASAMNY,totalenergies,TOTAL Amaret Chalhoub,,Jal el dib,,,LB,+961 1 889 150,https://store.totalenergies.fr/en_EN/TOTAL_RASAMNY,Mo-Su 06:00-24:00,TotalEnergies,Q154037
TOTAL_SNP_GRDBEY,totalenergies,TOTAL Grand Beyrouth,,Corniche al Nahr,,,LB,+961 3 418 802,https://store.totalenergies.fr/en_EN/TOTAL_SNP_GRDBEY,Mo-Su 06:00-24:00,TotalEnergies,Q154037
TOTAL_SPINNEYS,totalenergies,TOTAL Jnah,,Jnah,,,LB,+961 1 853 130,https://store.totalenergies.fr/en_EN/TOTAL_SPINNEYS,24/7,TotalEnergies,Q154037
TOTAL_ST_JOSEPH,totalenergies,TOTAL St Joseph,,Dora,,,LB,+961 1 252 977,https://store.totalenergies.fr/en_EN/TOTAL_ST_JOSEPH,24/7,TotalEnergies,Q154037
TOTALTEBNINE,totalenergies,TOTAL Tebnine,,Tebnine,,,LB,+961 3 671 738,https://store.totalenergies.fr/en_EN/TOTALTEBNINE,Mo-Su 06:00-23:00,TotalEnergies,Q154037
TOTAL_TRIPOLI,totalenergies,TOTAL Tripoli,,Tripoli,,,LB,+961 6 628 400,https://store.totalenergies.fr/en_EN/TOTAL_TRIPOLI,Mo-Su 06:00-22:00,TotalEnergies,Q154037
TOTAL_TRIPOLI_BEHSAS,totalenergies,TOTAL Behssas,,Behssas,,,LB,+961 6 410 715,https://store.totalenergies.fr/en_EN/TOTAL_TRIPOLI_BEHSAS,24/7,TotalEnergies,Q154037
TOTAL_VERDUN,totalenergies,TOTAL Verdun,,Verdun,,,LB,+961 1 353 233,https://store.totalenergies.fr/en_EN/TOTAL_VERDUN,24/7,TotalEnergies,Q154037
WAFA_PR_LE_COMM_1,totalenergies,TotalEnergies Zouk Mosbeh,,Zouk Mosbeh,,,LB,+961 3 734 446,https://store.totalenergies.fr/en_EN/WAFA_PR_LE_COMM_1,Mo-Su 06:00-22:00,TotalEnergies,Q154037
WAFA_PR_LE_COMM_2,totalenergies,TotalEnergies Adonis,,Adonis,,,LB,+961 3 734 415,https://store.totalenergies.fr/en_EN/WAFA_PR_LE_COMM_2,Mo-Su 06:00-24:00,TotalEnergies,Q154037
WISSAM_GHOSEN,totalenergies,TotalEnergies Remhala,,Kabrechmoun,,,LB,+961 5 410 097,https://store.totalenergies.fr/en_EN/WISSAM_GHOSEN,24/7,TotalEnergies,Q154037
WOOKOODPETROLEUM,totalenergies,TotalEnergies Harissa Autoroute,,Haret Sakher,,,LB,+961 9 933 803,https://store.totalenergies.fr/en_EN/WOOKOODPETROLEUM,Mo-Su 06:00-22:00,TotalEnergies,Q154037
YOUNES_WALID_YOUSSEF,totalenergies,TotalEnergies Machghara,,Machghara,,,LB,+961 8 651 215,https://store.totalenergies.fr/en_EN/YOUNES_WALID_YOUSSEF,Mo-Su 06:00-22:00,TotalEnergies,Q154037
YOUSSEF_BASSILE,totalenergies,TotalEnergies Smar Jbeil,,Smar Jbeil,,,LB,+961 6 720 026,https://store.totalenergies.fr/en_EN/YOUSSEF_BASSILE,Mo-Su 06:00-21:00,TotalEnergies,Q154037
ZIAD_WALID_JABBOUR,totalenergies,TotalEnergies Autoroute Batroun,,Kfarabida,,,LB,+961 6 741 429,https://store.totalenergies.fr/en_EN/ZIAD_WALID_JABBOUR,24/7,TotalEnergies,Q154037
ZOGHEIB_STATION,totalenergies,TotalEnergies Byblos,,Jbeil,,,LB,+961 9 796 555,https://store.totalenergies.fr/en_EN/ZOGHEIB_STATION,24/7,TotalEnergies,Q154037
