Ref,Spider,Name,Address,City,State,Zipcode,Country,Phone,Website,Hours,Brand,WikiData
68163112,moneygram,JBL - RAJSHAHI CORP.-0014,,GHORAMARA,,,BD,+880 721-775637,,24/7,MoneyGram,Q1944412
68163109,moneygram,JBL - LADIES-0676,,GHORAMARA,,,BD,+880 721-774228,,24/7,MoneyGram,Q1944412
68163099,moneygram,JBL - RANIBAZAR-0248,,GHORAMARA,,,BD,+880 721-774156,,24/7,MoneyGram,Q1944412
73632162,moneygram,MEGHNA - #3103 - MEGHNA-RAJSHAHI BRANCH,,RAJSHAHI,,,BD,+880 1756-994499,,Mo-Th 10:00-18:00; Fr 00:00-24:00; Sa 10:00-17:00; Su 10:00-18:00,MoneyGram,Q1944412
73630944,moneygram,UNION BANK - #265811939 - UBL-RAJSHAHI,,RAJSHAHI,,,BD,+880 1718-613235,,Mo-Su 10:00-16:00,MoneyGram,Q1944412
73634898,moneygram,MODHUMOTI BANK LIMITED - #851113 - RAJSH,,RAJSHAHI,,,BD,+880 1911-545945,,Mo-Th 10:00-16:00; Fr-Sa 00:00-24:00; Su 10:00-16:00,MoneyGram,Q1944412
73685627,moneygram,NRB BANK LIMITED - RAJSHAHI - RAJSHAHI B,,RAJSHAHI,,,BD,+880 9666-456369,,Mo-Th 10:00-16:00; Fr-Sa 00:00-24:00; Su 10:00-16:00,MoneyGram,Q1944412
73694647,moneygram,MUTUAL TRUST BANK LTD - MTB-RAJSHAHI BRA,,RAJSHAHI,,,BD,+880 721-776203,,Mo-Th 10:00-16:00; Fr-Sa 00:00-24:00; Su 10:00-16:00,MoneyGram,Q1944412
73782122,moneygram,AB BANK LIMITED - PROGOTI SHARANI BRANCH,,RAJSHAHI,,,BD,+880 2-8836329,,Mo-Th 10:00-16:00; Fr-Sa 00:00-24:00; Su 10:00-16:00,MoneyGram,Q1944412
73783147,moneygram,BASIC BANK LIMITED - #55811936 - RAJSHAH,,RAJSHAHI,,,BD,+880 721-776278,,Mo-Th 10:00-16:00; Fr-Sa 00:00-24:00; Su 10:00-16:00,MoneyGram,Q1944412
73995812,moneygram,IFIC BANK - #456080 - RAJSHAHI BRANCH-IF,,RAJSHAHI,,,BD,+880 9666-716250,,Mo-Th 10:00-18:00; Fr-Sa 00:00-24:00; Su 10:00-17:00,MoneyGram,Q1944412
74272424,moneygram,PREMIER BANK - #66128 - RAJSHAHI-PBL,,RAJSHAHI,,,BD,+880 721-773408,,Mo-Th 10:00-18:00; Fr 00:00-24:00; Sa 10:00-13:00; Su 10:00-18:00,MoneyGram,Q1944412
70369991,moneygram,STANDARD BANK LIMITED - RAJSHAHI - RAJSH,,RAJSHAHI,,,BD,+880 721-811981,,24/7,MoneyGram,Q1944412
44797706,moneygram,TCBL,,RAJSHAHI,,,BD,1776311,,24/7,MoneyGram,Q1944412
65242861,moneygram,AGRANI BANK,,GHORAMARA,,,BD,+880 721-775216,,Mo-Th 09:00-16:00; Fr 00:00-24:00; Sa-Su 09:00-16:00,MoneyGram,Q1944412
65242874,moneygram,AGRANI BANK,,GHORAMARA,,,BD,+880 721-774028,,Mo-Th 09:00-16:00; Fr 00:00-24:00; Sa-Su 09:00-16:00,MoneyGram,Q1944412
65242971,moneygram,AGRANI BANK,,GHORAMARA,,,BD,+880 721-772393,,Mo-Th 09:00-16:00; Fr 00:00-24:00; Sa-Su 09:00-16:00,MoneyGram,Q1944412
65243006,moneygram,AGRANI BANK,,GHORAMARA,,,BD,+880 721-773374,,Mo-Th 09:00-16:00; Fr 00:00-24:00; Sa-Su 09:00-16:00,MoneyGram,Q1944412
65243022,moneygram,AGRANI BANK,,GHORAMARA,,,BD,+880 721-774231,,Mo-Th 09:00-16:00; Fr 00:00-24:00; Sa-Su 09:00-16:00,MoneyGram,Q1944412
65407923,moneygram,AIBL - #07,,RAJSHAHI,,,BD,+880 721-775171,,24/7,MoneyGram,Q1944412
66644303,moneygram,BRAC BANK LTD - #5501 - RAJSHAHI - RAJSH,,RAJSHAHI,,,BD,+880 721-812580,,24/7,MoneyGram,Q1944412
67218165,moneygram,NBL - Rajshahi Branch,,RAJSHAHI,,,BD,+880 1713-201051,,24/7,MoneyGram,Q1944412
