Ref,Spider,Name,Address,City,State,Zipcode,Country,Phone,Website,Hours,Brand,WikiData
4462,action,Fougères,,Fougères,,,FR,,https://www.action.com/fr-fr/points-de-vente/fougeres-34-forum-de-la-gare/,,Action,Q2634111
1380700585,banque_populaire_fr,FOUGERES,,FOUGERES,,,FR,+33 2 57 31 00 00,https://agences.banquepopulaire.fr/banque-assurance/agence-fougeres-id1380700585,"Tu-We 09:00-12:30,14:00-18:00; Th 09:00-12:30,15:00-18:00; Fr 09:00-12:30,14:00-18:00; Sa 09:00-12:30",Banque Populaire,Q846647
https://laboratoires.biogroup.fr/#25701548,biogroup_fr,BIOGROUP LABORIZON BRETAGNE Laboratoire Fougères,,,,,FR,+33 2 99 94 65 55,https://laboratoires.biogroup.fr/ille-et-vilaine/fougeres/5-rue-de-la-landronniere,,Biogroup,Q101559741
35301001,carrefour_fr,Station Service Carrefour - Fougères,,Fougères,,,FR,+33 2 99 17 18 79,https://www.carrefour.fr/magasin/fougeres,24/7,Carrefour,Q217599
5079,carrefour_fr,Carrefour City,,Fougeres,,,FR,+33 2 99 94 01 32,https://www.carrefour.fr/magasin/city-fougeres,Mo-Sa 07:00-22:00; Su 09:00-13:00,Carrefour City,Q2940187
7411,carrefour_fr,Carrefour Fougères,,Fougeres,,,FR,+33 2 99 17 18 79,https://www.carrefour.fr/magasin/fougeres,Mo-Sa 08:30-20:00,Carrefour,Q217599
7521,carrefour_fr,Carrefour Market Fougères,,Fougeres,,,FR,+33 2 99 99 16 62,https://www.carrefour.fr/magasin/market-fougeres,Mo-Sa 08:30-19:30; Su 09:00-12:30,Carrefour Market,Q2689639
567877045,century_21_fr,CENTURY 21 Gambetta,,FOUGERES,,,FR,+33 2 99 99 30 30,https://www.century21.fr/trouver_agence/agence/567877045/,,Century 21,Q1054480
https://www.credit-agricole.fr/particulier/agence/ille-et-vilaine/fougeres-5861.html,credit_agricole,Crédit Agricole,,FOUGERES,,,FR,+33 2 99 99 44 01,https://www.credit-agricole.fr/particulier/agence/ille-et-vilaine/fougeres-5861.html,"Tu-We 09:30-13:00,14:30-18:30; Th 09:30-13:00,15:30-18:30; Fr 09:30-13:00,14:30-19:00; Sa 09:00-13:00",Credit Agricole,Q590952
https://www.credit-agricole.fr/particulier/agence/ille-et-vilaine/coccimarket-9111.html,credit_agricole,Crédit Agricole,,FOUGERES,,,FR,,https://www.credit-agricole.fr/particulier/agence/ille-et-vilaine/coccimarket-9111.html,Mo-Sa 08:00-21:00; Su 09:00-20:00,Credit Agricole,Q590952
https://www.dominos.fr/magasin/fougeres_35300,dominos_pizza_fr,Domino's,,FOUGERES,,,FR,,https://www.dominos.fr/magasin/fougeres_35300,,Domino's,Q839466
FordFF61323  FRA,ford,JOUQUAND AUTOMOBILES,,FOUGERES,,,FR,+33 2 99 99 65 95,,,Ford,Q44294
https://bureaux.kpmg.fr/#location-268,kpmg_fr,KPMG Fougères,,Fougères,,,FR,+33 2 99 17 20 00,https://bureaux.kpmg.fr/fr/france-FR/268/kpmg-fougeres/details,Mo-Fr 08:30-18:00,KPMG,Q493751
2903,lidl_fr,FOUGERES,,Fougères,,,FR,,,Mo-Sa 08:30-20:00,Lidl,Q151954
FR060,longchamp,L Escarcelle,,FOUGERES,,,FR,+33 2 99 99 06 59,,,Longchamp,Q1869471
802,mcdonalds_fr,FOUGERES,,FOUGERES,,,FR,+33 2 99 99 08 76,https://www.mcdonalds.fr/restaurants/mcdonalds-fougeres/802,Mo-Su 00:01-24:00,McDonald's,Q38076
73057815,moneygram,LA ROCADE - FOUGERES,,FOUGERES,,,FR,+33 7 57 42 90 50,,Mo-Fr 07:00-19:30; Sa 08:00-19:30; Su 08:30-12:30,MoneyGram,Q1944412
71071932,moneygram,CAFE DES HALLES - FOUGERES,,FOUGERES,,,FR,+33 2 23 51 04 54,,Mo 09:30-19:00; Tu-Fr 07:00-20:00; Sa 06:30-19:00; Su 00:00-24:00,MoneyGram,Q1944412
147-opticien-fougeres-optical-center,optical_center,Opticien FOUGÈRES Optical Center,,Fougeres,,,FR,+33 2 99 99 90 91,https://opticien.optical-center.fr/147-opticien-fougeres-optical-center,Mo-Sa 10:00-19:00,Optical Center,Q3354448
710-optical-center-oc-mobile-fougeres,optical_center,Optical Center OC MOBILE FOUGÈRES,,FOUGERES,,,FR,+33 6 51 07 95 89,https://opticien.optical-center.fr/710-optical-center-oc-mobile-fougeres,Mo-Sa 09:00-18:00,Optical Center,Q3354448
00000010_001-renault,renault,RENAULT FOUGERES - GROUPE GUILMAULT,,FOUGERES,,,FR,+33 2 99 94 40 20,,,Renault,Q6686
00000010_001-dacia,renault,RENAULT FOUGERES - GROUPE GUILMAULT,,FOUGERES,,,FR,+33 2 99 94 40 20,,,Dacia,Q27460
NF080067,totalenergies,SAS SOLUTION ENERGY,,FOUGERES,,,FR,+33 2 99 99 05 10,https://store.totalenergies.fr/en_EN/NF080067,"Mo-Fr 07:30-19:30; Sa 09:00-12:15,13:15-18:00; Su 00:01-24:00",TotalEnergies,Q154037
NF980787,totalenergies,PETROLIER SANS-MARQUE,,FOUGÈRES,,,FR,,https://store.totalenergies.fr/en_EN/NF980787,,,
,visa,,,FOUGERES,,,FR,,,,,
,visa,,,FOUGERES,,,FR,,,,,
,visa,,,FOUGERES,,,FR,,,,,
,visa,,,FOUGERES,,,FR,,,,,
,visa,,,FOUGERES,,,FR,,,,,
,visa,,,FOUGERES,,,FR,,,,,
,visa,,,FOUGERES,,,FR,,,,,
,visa,,,FOUGERES,,,FR,,,,,
,visa,,,FOUGERES,,,FR,,,,,
,visa,,,FOUGERES,,,FR,,,,,
,visa,,,FOUGERES,,,FR,,,,,
,visa,,,FOUGERES,,,FR,,,,,
,visa,,,FOUGERES,,,FR,,,,,
,visa,,,FOUGERE,,,FR,,,,,
,visa,,,FOUGERES,,,FR,,,,,
,visa,,,FOUGERES,,,FR,,,,,
