Ref,Spider,Name,Address,City,State,Zipcode,Country,Phone,Website,Hours,Brand,WikiData
,visa,,,MOTUL,YUCATAN,,MX,,,,,
,visa,,,MERIDA,YUCATAN,,MX,,,,,
,visa,,,MOTUL,YUCATAN,,MX,,,,,
,visa,,,MOTUL DE CARRILLO PUERTO,YUCATAN,,MX,,,,,
,visa,,,MOTUL,YUCATAN,,MX,,,,,
,visa,,,MOTUL,YUCATAN,,MX,,,,,
199236fa0f199a689bdc998007600edf,western_union,DUNOSUSA 339 AP CASH,,Motul,YUCATAN,,MX,+52 999 994 0606,https://location.westernunion.com/mx/yucatan/motul/199236fa0f199a689bdc998007600edf,Mo-Su 09:00-21:00,Western Union,Q861042
9dd3bd7360b98fd79c534aedc8ebaef0,western_union,DUNOSUSA 339 AP CASH,,Motul,YUCATAN,,MX,+52 999 994 0606,https://location.westernunion.com/mx/yucatan/motul/9dd3bd7360b98fd79c534aedc8ebaef0,Mo-Su 09:00-21:00,Western Union,Q861042
c00aeedfe9073bdd640d540b5af711cf,western_union,DUNOSUSA 335 AP CASH,,Motul,YUCATAN,,MX,+52 999 994 0606,https://location.westernunion.com/mx/yucatan/motul/c00aeedfe9073bdd640d540b5af711cf,Mo-Su 09:00-21:00,Western Union,Q861042
61a7345680255fb1bc79c04d63cbd89a,western_union,BANCOPPEL 0367 CALLE 28,,Motul,YUCATAN,,MX,+52 991 915 1835,https://location.westernunion.com/mx/yucatan/motul/61a7345680255fb1bc79c04d63cbd89a,Mo-Su 08:30-21:00,Western Union,Q861042
4222691e0b3538f996d5c41eb817932e,western_union,ELEKTRA 2015,,Motul,YUCATAN,,MX,+52 55 1720 8177,https://location.westernunion.com/mx/yucatan/motul/4222691e0b3538f996d5c41eb817932e,Mo-Su 09:00-20:00,Western Union,Q861042
55cbc991e7dd22dd53b8809759b1ffa3,western_union,ELEKTRA 2015,,Motul,YUCATAN,,MX,+52 55 1720 8177,https://location.westernunion.com/mx/yucatan/motul/55cbc991e7dd22dd53b8809759b1ffa3,Mo-Su 09:00-21:00,Western Union,Q861042
bedcd39fc6dd45ffde748d02fa851cab,western_union,ELEKTRA 2015,,Motul,YUCATAN,,MX,+52 55 1720 8177,https://location.westernunion.com/mx/yucatan/motul/bedcd39fc6dd45ffde748d02fa851cab,Mo-Su 09:00-21:00,Western Union,Q861042
54317e603f1892c14482a5a620f6f066,western_union,AURRERA MOTUL 4132,,Motul,YUCATAN,,MX,+52 800 833 4700,https://location.westernunion.com/mx/yucatan/motul/54317e603f1892c14482a5a620f6f066,Mo-Su 07:00-23:00,Western Union,Q861042
b51ce636b411915fd1b0054dcdc22510,western_union,AURRERA MOTUL 4132,,Motul,YUCATAN,,MX,+52 800 833 4700,https://location.westernunion.com/mx/yucatan/motul/b51ce636b411915fd1b0054dcdc22510,Mo-Su 07:00-23:00,Western Union,Q861042
8d8797805bef71c2e95013429902a8f0,western_union,AURRERA MOTUL 4132,,Motul,YUCATAN,,MX,+52 800 833 4700,https://location.westernunion.com/mx/yucatan/motul/8d8797805bef71c2e95013429902a8f0,Mo-Su 07:00-23:00,Western Union,Q861042
50a4a394ecd444caa869a28875684e24,western_union,SUPER AKI 55 MOTUL AP CASH,,Motul,YUCATAN,,MX,+52 991 915 2139,https://location.westernunion.com/mx/yucatan/motul/50a4a394ecd444caa869a28875684e24,Mo-Su 07:00-22:00,Western Union,Q861042
a8df5085d82dd23092441a1a699e8042,western_union,SUPER AKI 55 MOTUL AP CASH,,Motul,YUCATAN,,MX,+52 991 915 2139,https://location.westernunion.com/mx/yucatan/motul/a8df5085d82dd23092441a1a699e8042,Mo-Su 07:00-22:00,Western Union,Q861042
f54831eec9c008c453b28d1fc1f0db79,western_union,OXXO MOTUL CENTRO MID,,Motul,YUCATAN,,MX,+52 81 8389 2121,https://location.westernunion.com/mx/yucatan/motul/f54831eec9c008c453b28d1fc1f0db79,Mo-Su 08:00-22:00,Western Union,Q861042
5978203e7b2f85988c5d8d42751dd3c2,western_union,OXXO MOTUL CENTRO MID,,Motul,YUCATAN,,MX,+52 81 8389 2121,https://location.westernunion.com/mx/yucatan/motul/5978203e7b2f85988c5d8d42751dd3c2,Mo-Su 08:00-22:00,Western Union,Q861042
88fbd91f22ac3b751ea1aa0c9a674fa3,western_union,OXXO MOTUL CENTRO MID,,Motul,YUCATAN,,MX,+52 81 8389 2121,https://location.westernunion.com/mx/yucatan/motul/88fbd91f22ac3b751ea1aa0c9a674fa3,Mo-Su 08:00-22:00,Western Union,Q861042
7cc19b21abc7a11d16068c635e3cbe29,western_union,OXXO RESURRECCION MID,,Motul,YUCATAN,,MX,+52 81 8389 2121,https://location.westernunion.com/mx/yucatan/motul/7cc19b21abc7a11d16068c635e3cbe29,Mo-Su 08:00-22:00,Western Union,Q861042
4669ee47409bc41818587a9888cbcdb4,western_union,OXXO RESURRECCION MID,,Motul,YUCATAN,,MX,+52 81 8389 2121,https://location.westernunion.com/mx/yucatan/motul/4669ee47409bc41818587a9888cbcdb4,Mo-Su 08:00-22:00,Western Union,Q861042
f0e7b2c60d03ac9e6d302a579b14acf9,western_union,OXXO RESURRECCION MID,,Motul,YUCATAN,,MX,+52 81 8389 2121,https://location.westernunion.com/mx/yucatan/motul/f0e7b2c60d03ac9e6d302a579b14acf9,Mo-Su 08:00-22:00,Western Union,Q861042
2707af40ae78a16c420a8596b440d2ee,western_union,SUPER WILLYS 29 AP CASH,,Motul,YUCATAN,,MX,+52 999 915 0964,https://location.westernunion.com/mx/yucatan/motul/2707af40ae78a16c420a8596b440d2ee,Mo-Su 08:00-21:00,Western Union,Q861042
0732cbebbf399c5bb8e565b95f6114d6,western_union,SUPER WILLYS 29 AP CASH,,Motul,YUCATAN,,MX,+52 999 915 0964,https://location.westernunion.com/mx/yucatan/motul/0732cbebbf399c5bb8e565b95f6114d6,Mo-Su 08:00-21:00,Western Union,Q861042
6cb7a1f39bc2d78830dd2bacf82b1990,western_union,SUPER WILLYS 29 AP CASH,,Motul,YUCATAN,,MX,+52 999 915 0964,https://location.westernunion.com/mx/yucatan/motul/6cb7a1f39bc2d78830dd2bacf82b1990,Mo-Su 08:00-21:00,Western Union,Q861042
eee2eb40d82a1f99b964487d7aeb0c4f,western_union,SUPER WILLYS 30 AP CASH,,Motul,YUCATAN,,MX,+52 999 915 1878,https://location.westernunion.com/mx/yucatan/motul/eee2eb40d82a1f99b964487d7aeb0c4f,Mo-Su 08:00-21:00,Western Union,Q861042
9739f4140893d005a6f65520ffcd3d0f,western_union,SUPER WILLYS 30 AP CASH,,Motul,YUCATAN,,MX,+52 999 915 1878,https://location.westernunion.com/mx/yucatan/motul/9739f4140893d005a6f65520ffcd3d0f,Mo-Su 08:00-21:00,Western Union,Q861042
d4b6b51b5a1e34d9fb75a2b403687f6f,western_union,SUPER WILLYS 30 AP CASH,,Motul,YUCATAN,,MX,+52 999 915 1878,https://location.westernunion.com/mx/yucatan/motul/d4b6b51b5a1e34d9fb75a2b403687f6f,Mo-Su 08:00-21:00,Western Union,Q861042
e586e2f7b1580f2775cebd80b7892867,western_union,DUNOSUSA MOTUL 7 AP CASH,,Motul,YUCATAN,,MX,+52 999 940 6060,https://location.westernunion.com/mx/yucatan/motul/e586e2f7b1580f2775cebd80b7892867,Mo-Su 09:00-21:00,Western Union,Q861042
ec108138b032971d5f0ae3693a842e67,western_union,OXXO MOTUL MID,,Motul,YUCATAN,,MX,+52 81 8389 2121,https://location.westernunion.com/mx/yucatan/motul/ec108138b032971d5f0ae3693a842e67,Mo-Su 08:00-22:00,Western Union,Q861042
d866598ea99a56068d4e6000b62cb79a,western_union,OXXO MOTUL MID,,Motul,YUCATAN,,MX,+52 81 8389 2121,https://location.westernunion.com/mx/yucatan/motul/d866598ea99a56068d4e6000b62cb79a,Mo-Su 08:00-22:00,Western Union,Q861042
f4cb4c25e4dd98b6f38568c9bf3c85b7,western_union,OXXO MONTY MID,,Motul,YUCATAN,,MX,+52 81 8389 2121,https://location.westernunion.com/mx/yucatan/motul/f4cb4c25e4dd98b6f38568c9bf3c85b7,Mo-Su 08:00-22:00,Western Union,Q861042
ec8bf6751e1502d26756870e8f6f6b10,western_union,OXXO MONTY MID,,Motul,YUCATAN,,MX,+52 81 8389 2121,https://location.westernunion.com/mx/yucatan/motul/ec8bf6751e1502d26756870e8f6f6b10,Mo-Su 08:00-22:00,Western Union,Q861042
6015019f4bec051653e30e215a858a09,western_union,DUNOSUSA MOTUL 7 AP CASH,,Motul,YUCATAN,,MX,+52 999 940 6060,https://location.westernunion.com/mx/yucatan/motul/6015019f4bec051653e30e215a858a09,Mo-Su 09:00-21:00,Western Union,Q861042
3ba7167ad13e6e79303451e021705dee,western_union,OXXO MOTUL MID,,Motul,YUCATAN,,MX,+52 81 8389 2121,https://location.westernunion.com/mx/yucatan/motul/3ba7167ad13e6e79303451e021705dee,Mo-Su 08:00-22:00,Western Union,Q861042
cea290f42e86dcaf4a97ad4eab08f626,western_union,OXXO MOTULENO MID,,Motul,YUCATAN,,MX,+52 81 8389 2121,https://location.westernunion.com/mx/yucatan/motul/cea290f42e86dcaf4a97ad4eab08f626,Mo-Su 08:00-22:00,Western Union,Q861042
91610347a1669e09b2cf4b6dcad0b202,western_union,OXXO MOTULENO MID,,Motul,YUCATAN,,MX,+52 81 8389 2121,https://location.westernunion.com/mx/yucatan/motul/91610347a1669e09b2cf4b6dcad0b202,Mo-Su 08:00-22:00,Western Union,Q861042
9deac8bffd3c6b0ebf0fc3d08127e3a1,western_union,OXXO MOTULENO MID,,Motul,YUCATAN,,MX,+52 81 8389 2121,https://location.westernunion.com/mx/yucatan/motul/9deac8bffd3c6b0ebf0fc3d08127e3a1,Mo-Su 08:00-22:00,Western Union,Q861042
b1ab3e5754aaf25eb7ec368c2318fcd3,western_union,DUNOSUSA 327 AP CASH,,Motul,YUCATAN,,MX,+52 999 994 0606,https://location.westernunion.com/mx/yucatan/motul/b1ab3e5754aaf25eb7ec368c2318fcd3,Mo-Su 09:00-21:00,Western Union,Q861042
fe559dd0fe939e5a80e5301427178123,western_union,DUNOSUSA 327 AP CASH,,Motul,YUCATAN,,MX,+52 999 994 0606,https://location.westernunion.com/mx/yucatan/motul/fe559dd0fe939e5a80e5301427178123,Mo-Su 09:00-21:00,Western Union,Q861042
