Ref,Spider,Name,Address,City,State,Zipcode,Country,Phone,Website,Hours,Brand,WikiData
13622390,ally_fashion_au,Mt Ommaney ,,Mt Ommaney,QLD,,AU,+61 7 3124 0197,,,Ally Fashion,Q19870623
3708,amcal_au,Amcal+ Pharmacy Middle Park - Peter Kolb,"92 Horizon Drive, Shops 25 & 26 Park Village, Middle Park QLD 4074",Middle Park,QLD,,AU,+61 7 3376 1355,https://amcal.com.au/store/3708/QLD/amcal-plus-pharmacy-middle-park-peter-kolb/,Mo-We 08:30-19:00; Th 08:30-20:00; Fr 08:30-19:00; Sa 08:30-17:00; Su 09:00-14:00,Amcal,Q63367373
RED0011263,australia_post_au,,,RIVERHILLS,QLD,,AU,,,,Australia Post,Q1142936
RED0011635,australia_post_au,,,RIVERHILLS,QLD,,AU,,,,Australia Post,Q1142936
RED0011265,australia_post_au,,,WESTLAKE,QLD,,AU,,,,Australia Post,Q1142936
433551_PO,australia_post_au,MIDDLE PARK CPA,,MIDDLE PARK,QLD,,AU,+61 7 3376 1355,,,Australia Post,Q1142936
RED0011261,australia_post_au,,,MIDDLE PARK,QLD,,AU,,,,Australia Post,Q1142936
RED0011264,australia_post_au,,,SUMNER,QLD,,AU,,,,Australia Post,Q1142936
RED0011255,australia_post_au,,,JAMBOREE HEIGHTS,QLD,,AU,,,,Australia Post,Q1142936
RED0015489,australia_post_au,,,MOUNT OMMANEY,QLD,,AU,,,,Australia Post,Q1142936
RED0011259,australia_post_au,,,JINDALEE,QLD,,AU,,,,Australia Post,Q1142936
RED0011254,australia_post_au,,,JAMBOREE HEIGHTS,QLD,,AU,,,,Australia Post,Q1142936
441703_PO,australia_post_au,MOUNT OMMANEY POST SHOP,,MOUNT OMMANEY,QLD,,AU,+61 131318,,,Australia Post,Q1142936
93606075_UPL,australia_post_au,Mount Ommaney Parcel Locker,,MOUNT OMMANEY,QLD,,AU,,,24/7,Australia Post,Q1142936
RED0018183,australia_post_au,,,MOUNT OMMANEY,QLD,,AU,,,,Australia Post,Q1142936
RED0011260,australia_post_au,,,JINDALEE,QLD,,AU,,,,Australia Post,Q1142936
RED0011262,australia_post_au,,,MOUNT OMMANEY,QLD,,AU,,,,Australia Post,Q1142936
RED0011253,australia_post_au,,,JINDALEE,QLD,,AU,,,,Australia Post,Q1142936
RED0011256,australia_post_au,,,JINDALEE,QLD,,AU,,,,Australia Post,Q1142936
RED0011258,australia_post_au,,,JINDALEE,QLD,,AU,,,,Australia Post,Q1142936
RED0011257,australia_post_au,,,JINDALEE,QLD,,AU,,,,Australia Post,Q1142936
RED0011252,australia_post_au,,,JINDALEE,QLD,,AU,,,,Australia Post,Q1142936
44,barbeques_galore_au,Jindalee,,Jindalee,QLD,,AU,+61 7 3279 6814,https://www.barbequesgalore.com.au/stores/jindalee,Mo-We 09:00-17:00; Th 09:00-18:00; Fr-Sa 09:00-17:00; Su 10:00-16:00,Barbeques Galore,Q4859570
https://www.bedshed.com.au/find-a-store/bedshed-jindalee,bedshed_au,Bedshed Jindalee,,Brisbane,QLD,,AU,+61 7 3568 3990,https://www.bedshed.com.au/find-a-store/bedshed-jindalee,Mo-We 09:00-17:00; Th 09:00-19:00; Fr-Sa 09:00-17:00; Su 09:00-16:00,Bedshed,Q84452962
8796093448215,best_and_less_au,Mt Ommaney,"Shop 73-74 171 Dandenong Rd, Mt Ommaney, Queensland, 4074",Mt Ommaney,QLD,,AU,+61 7 3376 7034,https://www.bestandless.com.au/store/Mt%20Ommaney,Mo-We 09:00-17:30; Th 09:00-21:00; Fr 09:00-17:30; Sa 09:00-17:00; Su 10:00-16:00,Best & Less,Q4896542
7246,bp,BP RIVERHILLS,,RIVERHILLS,QLD,,AU,+61 7 3376 3022,,Mo-Fr 05:00-21:00; Sa-Su 06:00-20:00,BP,Q152057
https://www.bridgestone.com.au/stores/qld/bridgestone-select-sumner-park,bridgestone_select,Bridgestone Select Sumner Park,,Sumner Park,QLD,,AU,+61 7 3376 8577,https://www.bridgestone.com.au/stores/qld/bridgestone-select-sumner-park/,Mo-Fr 07:30-17:00; Sa 08:00-24:00,Bridgestone Select Tyre & Auto,Q122420123
747,burson_auto_parts_au,SUMNER PARK,"UNIT 3B & 3C, 42 SPINE STREET, SUMNER PARK QLD 4074, Australia",SUMNER PARK,QLD,,AU,+61 7 3716 7600,,Mo-Fr 08:00-17:00; Sa 08:00-12:00,Burson Auto Parts,Q117075930
6014,coles_au,Middle Park,,Middle Park,QLD,,AU,+61 7 3723 3880,,,Liquorland,Q2283837
4557,coles_au,Coles Middle Park,,Middle Park,QLD,,AU,+61 7 3723 3800,,,Coles Supermarkets,Q1108172
4412,coles_au,Coles Mount Ommaney,,Mount Ommaney,QLD,,AU,+61 7 3725 7200,,,Coles Supermarkets,Q1108172
8669,coles_au,Mt Ommaney Centre,,Mount Ommaney,QLD,,AU,+61 7 3725 7280,,,Liquorland,Q2283837
8714,coles_au,Coles Jindalee,,Jindalee,QLD,,AU,+61 7 3173 6600,,,Coles Supermarkets,Q1108172
8668,coles_au,Jindalee,,Jindalee,QLD,,AU,+61 7 3078 8500,,,1st Choice,Q4596269
417303,commonwealth_bank_au,Mount Ommaney,,Mount Ommaney,QLD,,AU,,,,Commonwealth Bank,Q285328
417304,commonwealth_bank_au,Mount Ommaney,,Mount Ommaney,QLD,,AU,,,,Commonwealth Bank,Q285328
491,dusk_au,dusk Mt Ommaney,,Mount Ommaney,QLD,,AU,,https://www.dusk.com.au/store-locator/dusk-mt-ommaney/,,dusk,Q120669167
6174079,exxonmobil,7-Eleven Jindalee,,Jindalee,QLD,,AU,+61 7 3376 9766,https://www.mobil.com.au/en-au/find-station/mobil-jindalee-qld-jindalee-6174079,24/7,Mobil,Q109676002
6174053,exxonmobil,7-Eleven Riverhills,,Riverhills,QLD,,AU,+61 7 3376 6488,https://www.mobil.com.au/en-au/find-station/mobil-riverhills-qld-riverhills-6174053,24/7,Mobil,Q109676002
303,greencross_au,Jindalee,,Jindalee,QLD,,AU,+61 7 3181 3279,https://www.petbarn.com.au/store-finder/jindalee,Mo-We 08:30-18:00; Th 08:30-21:00; Fr 08:30-18:00; Sa 08:30-17:00; Su 09:00-17:00,Petbarn,Q104746468
786,greencross_au,Greencross Vets Jindalee,,Mount Ommaney,QLD,,AU,+61 7 3279 2311,https://www.petbarn.com.au/store-finder/greencross-vets-jindalee,Mo-Fr 08:00-18:30; Sa 08:00-15:00,Greencross Vets,Q41179992
211,grilld_au,Grill'd Mt Ommaney,,MOUNT OMMANEY,QLD,,AU,+61 7 2105 1063,,Mo-We 10:00-22:00; Th 11:00-22:00; Fr-Sa 10:00-22:30; Su 10:00-22:00,Grill'd,Q18165852
140,jbhifi,Mt Ommaney,,Mt Ommaney,QLD,,AU,+61 7 3026 5300,,Mo-We 09:00-17:30; Th 09:00-21:00; Fr 09:00-17:30; Sa 09:00-17:00; Su 10:00-17:00,JB Hi-Fi,Q3310113
1150,just_cuts,Mt Ommaney,,Mt Ommaney,QLD,,AU,+61 7 3376 9809,https://www.justcuts.com.au/Australian-Salons/Mt-Ommaney?sid=1150,Mo-We 09:00-17:30; Th 09:00-20:00; Fr 09:00-17:30; Sa 09:00-17:00,Just Cuts,Q116784479
41917,just_group,Smiggle Jindalee Dfo,"Shop T50 Jindalee Dfo, 16 Amazons Place, Jindalee Dfo, Jindalee, QLD, 4074, Australia",Jindalee,QLD,,AU,+61 7 3186 9286,https://justjeans.jgl.com.au/shop/stores/smiggle-jindalee-dfo,,Smiggle,Q7544536
42752,just_group,Jacqui E Jindalee Dfo,"Shop T51 Jindalee Dfo, 16 Amazons Place, Jindalee Dfo, Jindalee, QLD, 4074, Australia",Jindalee,QLD,,AU,+61 7 3376 0477,https://justjeans.jgl.com.au/shop/stores/jacquie-jindalee-dfo,,Jacqui E,Q118383260
42859,just_group,Jay Jays Jindalee Dfo,"Shop T23-25 Jindalee Dfo, 16 Amazons Place, Jindalee Dfo, Jindalee, QLD, 4074, Australia",Jindalee,QLD,,AU,+61 7 3708 4511,https://justjeans.jgl.com.au/shop/stores/jayjays-jindalee-dfo,,Jay Jays,Q6166759
41955,just_group,Smiggle Mt Ommaney,"Shop Sp077 Mt Ommaney S.C, 171 Dandenong Road, Mt Ommaney, QLD, 4074, Australia",Mt Ommaney,QLD,,AU,+61 7 3376 0171,https://justjeans.jgl.com.au/shop/stores/smiggle-mt-ommaney,,Smiggle,Q7544536
42412,just_group,Dotti Mt Ommaney,"Shop Sp016 Mt Ommaney Sc, 171 Dandenong Road, Mt Ommaney, QLD, 4074, Australia",Mt Ommaney,QLD,,AU,+61 7 3376 0074,https://justjeans.jgl.com.au/shop/stores/dotti-mt-ommaney,,Dotti,Q5299495
42584,just_group,Just Jeans Mt Ommaney,"Shop Sp050 Mt Ommaney S/C, 171 Dandenong Road, Mt Ommaney, QLD, 4074, Australia",Mt Ommaney,QLD,,AU,+61 7 3279 7652,https://justjeans.jgl.com.au/shop/stores/justjeans-mt-ommaney,,Just Jeans,Q6316068
42970,just_group,Jay Jays Mt Ommaney,"Shop Sp074 Mt Ommaney S/C, 171 Dandenong Road, Mt Ommaney, QLD, 4074, Australia",Mt Ommaney,QLD,,AU,+61 7 3715 7198,https://justjeans.jgl.com.au/shop/stores/jayjays-mt-ommaney,,Jay Jays,Q6166759
412,kitchen_connection_au,Jindalee,HomeCo. Jindalee (Formerly Jindalee Home),Jindalee,QLD,,AU,+61 1800 700 777,https://kitchenconnection.com.au/showroom/jindalee-brisbane/,,Kitchen Connection,Q111081406
11421,lovisa,Lovisa,,Mt Ommaney,QLD,,AU,+61 7 2112 1726,,,Lovisa,Q106298409
9500261,mcdonalds_qstore,JINDALEE QLD,,Jindalee,QLD,,AU,+61 7 3279 1311,,24/7,McDonald's,Q38076
9501263,mcdonalds_qstore,MOUNT OMMANEY FOOD COURT QLD,,Mt Ommaney,QLD,,AU,+61 7 3279 4520,,Mo-Th 07:30-21:00; Fr-Sa 07:30-18:00; Su 08:00-16:00,McDonald's,Q38076
5,nutrition_warehouse_au,Jindalee,,Jindalee,QLD,,AU,+61 7 3279 5262,https://www.nutritionwarehouse.com.au/pages/jindalee-vitamins-and-supplements,Mo-We 09:00-17:30; Th 09:00-18:00; Fr 09:00-17:30; Sa 09:00-16:00; Su 10:00-16:00,Nutrition Warehouse,Q117747424
4019,pillow_talk_au,Jindalee,,Jindalee,QLD,,AU,+61 7 3279 7500,,,Pillow Talk,Q120648495
17,price_attack_au,Mount Ommaney,,Mount Ommaney,QLD,,AU,+61 7 3376 8018,,Mo-We 09:00-17:30; Th 09:00-21:00; Fr 09:00-17:30; Sa 09:00-16:00; Su 10:00-15:00,Price Attack,Q117747512
https://www.qbd.com.au/locations/mt-ommaney/,qbd_books_au,QBD Books - Mt Ommaney,,Mount Ommaney,QLD,,AU,+61 7 3726 1036,https://www.qbd.com.au/locations/mt-ommaney/,Mo-We 08:30-17:30; Th 08:30-21:00; Fr 08:30-17:30; Sa 08:30-17:00; Su 10:00-16:00,QBD Books,Q7270909
4868,red_rooster_au,Red Rooster Mount Ommaney,,Mt Ommaney,QLD,,AU,+61 7 3376 8298,https://redrooster.com.au/locations/mount-ommaney/,Mo-Su 10:00-22:00,Red Rooster,Q376466
4053,seven_eleven_au,Riverhills,,Riverhills,QLD,,AU,+61 7 3376 6488,,24/7,7-Eleven,Q259340
4079,seven_eleven_au,Jindalee,,Jindalee,QLD,,AU,+61 7 3376 9766,,24/7,7-Eleven,Q259340
Mt-Ommaney,shaver_shop,Mt Ommaney,,Mt Ommaney,QLD,,AU,+61 7 3733 0092,https://www.shavershop.com.au/stores/QLD/Mt-Ommaney,Mo-We 09:00-17:30; Th 09:00-19:00; Fr 09:00-17:30; Sa 09:00-17:00; Su 10:00-16:00,Shaver Shop,Q119443589
QMTO,spendless_au,Mount Ommaney,,Mount Ommaney,QLD,,AU,+61 7 3376 9517,,Mo-We 09:00-17:30; Th 09:00-21:00; Fr 09:00-17:30; Sa 09:00-17:00; Su 10:00-16:00,Spendless,Q120668938
https://stores.sunglasshut.com/au/qld/mt-ommaney/shop-k7-ground-floor-mt-ommaney-shopping-centre,sunglass_hut_1,Sunglass Hut Mt Ommaney,,Mt Ommaney,QLD,,AU,+61 7 3715 8564,https://stores.sunglasshut.com/au/qld/mt-ommaney/shop-k7-ground-floor-mt-ommaney-shopping-centre,Mo-We 09:00-17:30; Th 09:00-21:00; Fr 09:00-17:30; Sa 09:00-17:00; Su 10:00-16:00,Sunglass Hut,Q136311
4411,suzanne_grae_au,Mt Ommaney,,Mount Ommaney,QLD,,AU,+61 7 3279 5191,/store-locator/qld/mt-ommaney-4411,Mo-We 09:00-17:30; Th 09:00-21:00; Fr 09:00-17:30; Sa 09:00-16:00; Su 10:30-14:30,Suzanne Grae,Q117747672
DEBZ,telstra_au,Mt Ommaney,,Mt Ommaney,QLD,,AU,+61 1800 571 818,,Mo-We 09:00-17:30; Th 09:00-21:00; Fr 09:00-17:30; Sa 09:00-16:00; Su 10:00-14:00,Telstra,Q721162
289,the_cheesecake_shop,Mt Ommaney,"Mount Ommaney Centre, 171 Dandenong Road, Mount Ommaney, QLD, 4074",,QLD,,AU,+61 7 3279 1956,https://www.cheesecake.com.au/find-bakery/mt-ommaney/,Mo-Fr 09:00-20:00; Sa 09:00-17:00; Su 10:00-19:00,The Cheesecake Shop,Q117717103
TCCAUS0170,the_coffee_club_au,TCC - DFO Jindalee,"F208 Direct Factory Outlet Jindalee, 16 Amazons Plaza, Jindalee, QLD, Australia, 4074",Jindalee,QLD,,AU,+61 7 3033 8901,https://coffeeclub.com.au/pages/store-details?country=Australia&name=dfo-jindalee,Mo-Su 08:00-16:30,The Coffee Club,Q7726599
TCCAUS0216,the_coffee_club_au,TCC - Mt Ommaney,"43A Mt Ommaney Centre, 171 Dandenong Road, Mt Ommaney, QLD, Australia, 4074",Mt Ommaney,QLD,,AU,+61 7 3565 5401,https://coffeeclub.com.au/pages/store-details?country=Australia&name=mt-ommaney,Mo-We 07:30-17:00; Th 07:30-20:00; Fr-Sa 07:30-17:00; Su 08:30-16:00,The Coffee Club,Q7726599
3021,toyworld_au,Toyworld Mt Ommaney,,Mt Ommaney,QLD,,AU,+61 7 3279 0279,https://www.toyworld.com.au/pages/toyworld-mt-ommaney,Mo-We 09:00-17:30; Th 09:00-21:00; Fr 09:00-17:30; Sa 08:30-17:00; Su 09:30-16:30,Toyworld,Q95923071
486,ultra_tune_au,Ultra Tune Mount Ommaney,,MOUNT OMMANEY,QLD,,AU,+61 7 3376 0088,https://www.ultratune.com.au/store/ultra-tune-mount-ommaney,Mo-Fr 07:30-17:30; Sa 07:30-12:00,Ultra Tune,Q29025649
,visa,,,RIVER HILLS,QLD,,AU,,,,,
,visa,,,MIDDLE PARK,QLD,,AU,,,,,
,visa,,,SUMNER,QLD,,AU,,,,,
,visa,,,SUMNER,QLD,,AU,,,,,
,visa,,,SUMNER,QLD,,AU,,,,,
,visa,,,MOUNT OMMANEY,QLD,,AU,,,,,
,visa,,,MT OMMANEY,QLD,,AU,,,,,
,visa,,,MOUNT OMMANEY,QLD,,AU,,,,,
,visa,,,JINDALEE,QLD,,AU,,,,,
,visa,,,JINDALEE,QLD,,AU,,,,,
,visa,,,JINDALEE,QLD,,AU,,,,,
,visa,,,JINDALEE,QLD,,AU,,,,,
,visa,,,JINDALEE,QLD,,AU,,,,,
,visa,,,MT OMMANEY,QLD,,AU,,,,,
947271216c07361c05a5267aefd95288,western_union,CIGNALL MIDDLE PARK,,Middle Park,QLD,,AU,+61 1800 501 500,https://location.westernunion.com/au/qld/middle-park/947271216c07361c05a5267aefd95288,Mo-We 07:00-19:00; Th 07:00-20:00; Fr 07:00-19:00; Sa 07:00-18:00; Su 09:00-18:00,Western Union,Q861042
129400bb6a04a209f8e5594e8216b9dc,western_union,AUSTRALIA POST,,Mount Ommaney,QLD,,AU,+61 1800 501 500,https://location.westernunion.com/au/qld/mount-ommaney/129400bb6a04a209f8e5594e8216b9dc,Mo-We 09:00-17:00; Th 09:00-17:30; Fr 09:00-17:00; Sa 09:00-12:30,Western Union,Q861042
