Ref,Spider,Name,Address,City,State,Zipcode,Country,Phone,Website,Hours,Brand,WikiData
https://locations.99only.com/ca/stockton/discount-store-177.html,99_cents_only_us,99 Cents Only Stores,,Stockton,CA,,US,+1 209-956-4992,https://locations.99only.com/ca/stockton/discount-store-177.html,Mo-Su 07:00-23:00,99 Cents Only Stores,Q4646294
https://stores.advanceautoparts.com/ca/stockton/4987-west-ln,advance_auto_parts_us,Advance Auto Parts,,Stockton,CA,,US,+1 209-715-6763,https://stores.advanceautoparts.com/ca/stockton/4987-west-ln,Mo-Sa 07:30-21:00; Su 09:00-20:00,Advance Auto Parts,Q4686051
5685,autozone_us,AutoZone Auto Parts Stockton,,Stockton,CA,,US,+1 209-957-1108,https://www.autozone.com/locations/ca/stockton/8228-west-ln.html,Mo-Sa 07:30-21:00; Su 08:00-21:00,AutoZone,Q4826087
https://locators.bankofamerica.com/ca/stockton/atm-stockton-106945.html,bankofamerica,Bank of America Walk-Up ATM | West Lane Plaza,,Stockton,CA,,US,+1 844-401-8500,https://locators.bankofamerica.com/ca/stockton/atm-stockton-106945.html,,Bank of America,Q487907
https://locations.baskinrobbins.com/ca/stockton/7908-west-ln-361186-br,baskin_robbins_us,Baskin-Robbinsâ„¢,,Stockton,CA,,US,+1 209-478-7731,https://locations.baskinrobbins.com/ca/stockton/7908-west-ln-361186-br,Mo-Sa 11:00-22:00; Su 10:00-22:00,Baskin-Robbins,Q584601
199213,bluerhino,Food 4 Less #5 Hammer Lane,,Stockton,CA,,US,+1 209-235-1310,,,Blue Rhino,Q65681213
217756,bluerhino,Smart & Final #393,,STOCKTON,CA,,US,+1 209-952-1030,,,Blue Rhino,Q65681213
169183,bluerhino,United Pacific  #5447,,Stockton,CA,,US,+1 209-478-1522,,,Blue Rhino,Q65681213
177935,bluerhino,Quik Stop #550144,,Stockton,CA,,US,+1 209-952-8812,,,Blue Rhino,Q65681213
208714,bluerhino,WinCo Foods #10 (Stockton),,Stockton,CA,,US,+1 209-954-1360,,,Blue Rhino,Q65681213
180391,bluerhino,BP West Coast Products LLC ARCO AMPM #7147,,Stockton,CA,,US,+1 209-956-2032,,,Blue Rhino,Q65681213
29109,burgerking,Burger King,,Stockton,CA,,US,+1 209-475-8188,https://www.bk.com/store-locator/store/restaurant_240607,Mo-Su 06:00-22:00,Burger King,Q177054
372736,chevron,Chevron Station #372736,9484 WEST LANE,STOCKTON,CA,,US,+1 209-474-9825,,,Chevron,Q319642
ca_stockton_1205-e-hammer-ln,chipotle, ,,Stockton,CA,,US,+1 209-800-0870,https://locations.chipotle.com/ca/stockton/1205-e-hammer-ln,,Chipotle,Q465751
8023-west-lane,churchs_chicken,West Lane,,Stockton,CA,,US,+1 209-475-1547,https://locations.churchs.com/ca/stockton/8023-west-lane,,Church's Chicken,Q1089932
73396,citi,ATM Rite Aid,,Stockton,CA,,US,,,,Citibank,Q857063
92931,citi,ATM Walgreens,,Stockton,CA,,US,,,,Citibank,Q857063
71835,citi,ATM Quik Stop,,Stockton,CA,,US,,,,Citibank,Q857063
45889,citi,ATM Costco,,Stockton,CA,,US,,,,Citibank,Q857063
92901,citi,ATM Walgreens,,Stockton,CA,,US,,,,Citibank,Q857063
39846,citi,ATM Chevron,,Stockton,CA,,US,,,,Citibank,Q857063
135,crunch_fitness,Crunch Fitness,,Stockton,CA,,US,+1 209-213-3333,https://www.crunch.com/locations/stockton,,Crunch Fitness,Q5190093
8335,dominos_pizza_us,Domino's Pizza,,Stockton,CA,,US,+1 209-956-3030,https://pizza.dominos.com/california/stockton/7908-west-lane-suite-219-a,Mo-Th 10:00-24:00; Fr-Sa 10:00-01:00; Su 10:00-24:00,Domino's,Q839466
DB370,dutchbros,CA0602 Hammer Ln,,Stockton,CA,,US,,https://locations.dutchbros.com/dutch-bros-coffee-a641556fbdf7,Mo-Su 05:00-22:00,Dutch Bros. Coffee,Q5317253
DB340,dutchbros,DB LLC CA0603 Stockton March Lane,,Stockton,CA,,US,,https://locations.dutchbros.com/dutch-bros-coffee-99822310c10c,Mo-Su 05:00-21:00,Dutch Bros. Coffee,Q5317253
520841,eg_america_us,Quik Stop,,Stockton,CA,,US,+1 209-952-8812,https://www.quikstop.com/find-us/generic-store-page/?id=550144,,Quik Stop,Q105141709
710011,electrify_america,Stockton MOB,,Stockton,CA,,US,,,,Electrify America,Q59773555
3502,elpolloloco,El Pollo Loco,,Stockton,CA,,US,+1 209-951-3636,,,El Pollo Loco,Q2353849
28746,firestone_auto_care,Firestone Complete Auto Care,,Stockton,CA,,US,+1 209-645-8268,https://local.firestonecompleteautocare.com/california/stockton/720-e-hammer-ln/,,Firestone,Q420837
6267,gamestop_us,Lower Sacramento Center,,Stockton,CA,,US,+1 209-957-1697,https://www.gamestop.com/search/?store=6267,Mo-Th 12:00-20:00; Fr-Sa 10:00-20:00; Su 12:00-19:00,GameStop,Q202210
3670,h_r_block,H&R Block,,Stockton,CA,,US,+1 209-957-5538,https://www.hrblock.com/local-tax-offices/california/stockton/calaveras-square/3670/,,H&R Block,Q5627799
ca_stockton_breakfast-1674-e-hammer-lane-653,ihop,IHOP Breakfast Restaurants Near You at 1674 E Hammer Lane,,Stockton,CA,,US,+1 209-951-3137,https://restaurants.ihop.com/en-us/ca/stockton/breakfast-1674-e-hammer-lane-653,,IHOP,Q1185675
https://locations.jackinthebox.com/us/ca/stockton/1916-e-march-ln,jackinthebox,Jack in the Box,,Stockton,CA,,US,+1 209-662-8317,https://locations.jackinthebox.com/us/ca/stockton/1916-e-march-ln,Mo-Su 04:00-04:00,Jack in the Box,Q1538507
https://locations.jackinthebox.com/us/ca/stockton/920-e-hammer-ln,jackinthebox,Jack in the Box,,Stockton,CA,,US,+1 209-473-7016,https://locations.jackinthebox.com/us/ca/stockton/920-e-hammer-ln,Mo-Th 06:00-03:00; Fr-Sa 04:00-04:00; Su 06:00-03:00,Jack in the Box,Q1538507
https://healthy.kaiserpermanente.org/northern-california/facilities/walgreens-pharmacy-300409,kaiser_permanente_us,Walgreens Pharmacy,,Stockton,CA,,US,+1 209-474-0880,https://healthy.kaiserpermanente.org/northern-california/facilities/walgreens-pharmacy-300409,,Kaiser Permanente,Q1721601
https://healthy.kaiserpermanente.org/northern-california/facilities/stockton-medical-offices-100318,kaiser_permanente_us,Stockton Medical Offices,,Stockton,CA,,US,+1 209-476-2000,https://healthy.kaiserpermanente.org/northern-california/facilities/stockton-medical-offices-100318,,Kaiser Permanente,Q1721601
https://healthy.kaiserpermanente.org/northern-california/facilities/satellite-healthcare-stockton-dialysis-339821,kaiser_permanente_us,Satellite Healthcare Stockton Dialysis,,Stockton,CA,,US,+1 855-396-2212,https://healthy.kaiserpermanente.org/northern-california/facilities/satellite-healthcare-stockton-dialysis-339821,,Kaiser Permanente,Q1721601
https://healthy.kaiserpermanente.org/northern-california/facilities/riverwood-healthcare-center-434001,kaiser_permanente_us,Riverwood Healthcare Center,,Stockton,CA,,US,+1 209-473-3004,https://healthy.kaiserpermanente.org/northern-california/facilities/riverwood-healthcare-center-434001,,Kaiser Permanente,Q1721601
https://healthy.kaiserpermanente.org/northern-california/facilities/della-sierra-dialysis-center-133985,kaiser_permanente_us,Della Sierra Dialysis Center,,Stockton,CA,,US,+1 209-473-7472,https://healthy.kaiserpermanente.org/northern-california/facilities/della-sierra-dialysis-center-133985,,Kaiser Permanente,Q1721601
https://healthy.kaiserpermanente.org/northern-california/facilities/clearwater-healthcare-center-339407,kaiser_permanente_us,Clearwater Healthcare Center,,Stockton,CA,,US,+1 209-957-4539,https://healthy.kaiserpermanente.org/northern-california/facilities/clearwater-healthcare-center-339407,,Kaiser Permanente,Q1721601
https://healthy.kaiserpermanente.org/northern-california/facilities/active-life-adult-day-health-care-center-133477,kaiser_permanente_us,Active Life Adult Day Health Care Center,,Stockton,CA,,US,+1 209-260-1777,https://healthy.kaiserpermanente.org/northern-california/facilities/active-life-adult-day-health-care-center-133477,,Kaiser Permanente,Q1721601
34921,little_free_library,Selena Johnson #34921 Stockton CA,,Stockton,CA,,US,,,,Little Free Library,Q6650101
142264,little_free_library,Helen Van De Pol #142264 Stockton CA,,Stockton,CA,,US,,,,Little Free Library,Q6650101
8840,michaels,STOCKTON,,Stockton,CA,,US,+1 209-473-1701,https://locations.michaels.com/ca/stockton/8840,Mo-Sa 09:00-21:00; Su 10:00-19:00,Michaels,Q6835667
0000880471,phillips_66_conoco_76,CF UNITED APRO LLC 2704447,,STOCKTON,CA,,US,+1 209-478-1522,,,U76,Q1658320
0000913403,phillips_66_conoco_76,AB MARCH LN STOCKTON OPERATING INC,,STOCKTON,CA,,US,+1 209-954-0945,,,U76,Q1658320
restaurant_84041,popeyes_us_fr,Popeyes,"4966 West Ln Stockton, California 95210 - USA",Stockton,CA,,US,+1 209-477-4833,https://www.popeyes.com/store-locator/store/restaurant_84041,Mo-Su 10:00-22:00,Popeyes,Q1330910
https://www.publicstorage.com/self-storage-ca-stockton/44.html,public_storage_us,Public Storage,,Stockton,CA,,US,+1 209-242-8639,https://www.publicstorage.com/self-storage-ca-stockton/44.html,,Public Storage,Q1156045
741,rentacenter,Rent-A-Center,,Stockton,CA,,US,+1 209-951-0990,https://locations.rentacenter.com/california/stockton/1101-e-march-ln/,Mo-Sa 10:00-18:00,Rent-A-Center,Q7313497
06510,rite_aid_us,Rite Aid #06510 Stockton,,Stockton,CA,,US,+1 209-473-9170,https://locations2.riteaid.com.yext-cdn.com/ca/stockton/4774-west-lane.html,Mo-Sa 08:00-22:00; Su 09:00-22:00,Rite Aid,Q3433273
https://stations.sinclairoil.com/ca/stockton/7906-n-el-dorado-st,sinclair_us,Sinclair Gas Station,,Stockton,CA,,US,+1 209-957-2987,https://stations.sinclairoil.com/ca/stockton/7906-n-el-dorado-st,24/7,Sinclair,Q1290900
1055,sizzler_us,Sizzler,,Stockton,CA,,US,+1 209-477-6682,https://sizzler.com/locations/sizzler-stockton/,Mo-Su 11:00-21:00,Sizzler,Q1848822
https://restaurants.subway.com/#14913889,subway,Subway Pacific Town Shopping Center,,Stockton San Joaquin,CA,,US,+1 209-474-5959,https://restaurants.subway.com/united-states/ca/stockton/616-west-hammer-lane,Mo-Su 08:30-21:30,Subway,Q244457
https://restaurants.subway.com/#14900140,subway,Subway,,Stockton San Joaquin,CA,,US,+1 209-951-9698,https://restaurants.subway.com/united-states/ca/stockton/1540-e-march-lane,Mo-Fr 07:00-21:00; Sa-Su 08:00-21:00,Subway,Q244457
https://restaurants.subway.com/#14904032,subway,Subway Hospital Plaza,,Stockton San Joaquin,CA,,US,+1 209-473-1678,https://restaurants.subway.com/united-states/ca/stockton/1304-e-hammer-lane,Mo-Fr 08:00-21:30; Sa-Su 09:00-21:00,Subway,Q244457
https://locations.tacobell.com/#6143103,taco_bell,Taco Bell,,Stockton,CA,,US,+1 209-477-9566,https://locations.tacobell.com/ca/stockton/532-w-hammer-lane.html,Mo-We 06:00-02:00; Th-Sa 06:00-03:00; Su 06:00-02:00,Taco Bell,Q752941
https://locations.tacobell.com/#6143180,taco_bell,Taco Bell,,Stockton,CA,,US,+1 209-478-7336,https://locations.tacobell.com/ca/stockton/5115-west-lane.html,Mo-We 07:00-02:00; Th-Sa 07:00-03:00; Su 07:00-02:00,Taco Bell,Q752941
1RSO,tmobile_us,E Hammer Ln and Montauban Ave,,Stockton,CA,,US,+1 209-751-0476,https://www.t-mobile.com/store-locator/ca/stockton/e-hammer-ln-and-montauban-ave,,T-Mobile,Q3511885
1C14,tmobile_us,Costco Stockton CA,,Stockton,CA,,US,+1 209-395-5019,https://www.t-mobile.com/store-locator/ca/stockton/costco-stockton-ca,,T-Mobile,Q3511885
710023,uhaul,U-Haul Moving & Storage at Hammertown,7701 Tam O Shanter,Stockton,CA,,US,+1 209-473-0909,,Mo-Th 00:00-19:00; Fr 00:00-20:00; Sa 00:00-19:00; Su 00:00-17:00,U-Haul,Q7862902
,visa,,,STOCKTON,CA,,US,,,,,
,visa,,,STOCKTON,CA,,US,,,,,
,visa,,,STOCKTON,CA,,US,,,,,
,visa,,,STOCKTON,CA,,US,,,,,
,visa,,,STOCKTON,CA,,US,,,,,
,visa,,,STOCKTON,CA,,US,,,,,
,visa,,,STOCKTON,CA,,US,,,,,
,visa,,,STOCKTON,CA,,US,,,,,
,visa,,,STOCKTON,CA,,US,,,,,
,visa,,,STOCKTON,CA,,US,,,,,
,visa,,,STOCKTON,CA,,US,,,,,
,visa,,,STOCKTON,CA,,US,,,,,
,visa,,,STOCKTON,CA,,US,,,,,
,visa,,,STOCKTON,CA,,US,,,,,
,visa,,,STOCKTON,CA,,US,,,,,
,visa,,,STOCKTON,CA,,US,,,,,
,visa,,,STOCKTON,CA,,US,,,,,
,visa,,,STOCKTON,CA,,US,,,,,
,visa,,,STOCKTON,CA,,US,,,,,
,visa,,,STOCKTON,CA,,US,,,,,
,visa,,,STOCKTON,CA,,US,,,,,
,visa,,,STOCKTON,CA,,US,,,,,
,visa,,,STOCKTON,CA,,US,,,,,
,visa,,,STOCKTON,CA,,US,,,,,
,visa,,,STOCKTON,CA,,US,,,,,
,visa,,,STOCKTON,CA,,US,,,,,
,visa,,,STOCKTON,CA,,US,,,,,
,visa,,,STOCKTON,CA,,US,,,,,
,visa,,,STOCKTON,CA,,US,,,,,
,visa,,,STOCKTON,CA,,US,,,,,
,visa,,,STOCKTON,CA,,US,,,,,
,visa,,,STOCKTON,CA,,US,,,,,
,visa,,,STOCKTON,CA,,US,,,,,
,visa,,,STOCKTON,CA,,US,,,,,
,visa,,,STOCKTON,CA,,US,,,,,
,visa,,,STOCKTON,CA,,US,,,,,
https://www.walgreens.com/locator/walgreens-7929+lower+sacramento+rd-stockton-ca-95210/id=2770,walgreens,Walgreens,,Stockton,CA,,US,+1 209-474-0880,https://www.walgreens.com/locator/walgreens-7929+lower+sacramento+rd-stockton-ca-95210/id=2770,24/7,Walgreens,Q1591889
https://www.walgreens.com/locator/walgreens-7850+west+ln-stockton-ca-95210/id=10482,walgreens,Walgreens,,Stockton,CA,,US,+1 209-473-9515,https://www.walgreens.com/locator/walgreens-7850+west+ln-stockton-ca-95210/id=10482,Mo-Su 07:00-22:00,Walgreens,Q1591889
8004__WEST__LN_STOCKTON_CA_95210,wellsfargo,,8004 WEST LN,STOCKTON,CA,,US,+1 800-869-3557,https://www.wellsfargo.com/locator/bank/8004__WEST__LN_STOCKTON_CA_95210/,,Wells Fargo,Q744149
1163__E__MARCH__LN_STOCKTON_CA_95210,wellsfargo,,1163 E MARCH LN,STOCKTON,CA,,US,+1 800-869-3557,https://www.wellsfargo.com/locator/bank/1163__E__MARCH__LN_STOCKTON_CA_95210/,,Wells Fargo,Q744149
https://locations.wendys.com/#9255858,wendys,"Wendy's 725 West Hammer Lane in Stockton, CA",,Stockton,CA,,US,+1 209-472-0557,https://locations.wendys.com/united-states/ca/stockton/725-west-hammer-lane,"Mo-Fr 06:00-10:30,06:00-22:00; Sa-Su 06:30-10:30,06:30-22:00",Wendy's,Q550258
e3b3e206d3791fe94dedd481d89755d2,western_union,LION SUPERMARKET STORES,,Stockton,CA,,US,+1 209-957-9378,https://location.westernunion.com/us/ca/stockton/e3b3e206d3791fe94dedd481d89755d2,Mo-Su 08:00-20:00,Western Union,Q861042
374d796d42492d5bebd54b1857f371f5,western_union,WALMART #003022,,Stockton,CA,,US,+1 209-235-2047,https://location.westernunion.com/us/ca/stockton/374d796d42492d5bebd54b1857f371f5,Mo-Su 07:00-21:00,Western Union,Q861042
9a551ca38d77a8b7d6aff38342e3c674,western_union,ADVANCE AMERICA #05031,,Stockton,CA,,US,+1 209-478-1347,https://location.westernunion.com/us/ca/stockton/9a551ca38d77a8b7d6aff38342e3c674,Mo-Th 10:00-18:00; Fr 09:30-18:00; Sa 10:00-14:00,Western Union,Q861042
121390,wingstop,Wingstop Stockton N Lower Sacramento Rd,7910 N Lower Sacramento Road,Stockton,CA,,US,+1 209-242-2341,,,Wingstop,Q8025339
8802,wingstop,Wingstop Stockton West Ln,5052 West Ln,Stockton,CA,,US,+1 209-477-8207,,,Wingstop,Q8025339
