Ref,Spider,Name,Address,City,State,Zipcode,Country,Phone,Website,Hours,Brand,WikiData
389,biedronka_pl,Biedronka,,Rybnik,,,PL,,"https://www.biedronka.pl/pl/shop,id,389",Mo-Sa 06:00-23:00,Biedronka,Q857182
2344,biedronka_pl,Biedronka,,Rybnik,,,PL,,"https://www.biedronka.pl/pl/shop,id,2344",Mo-Sa 06:00-23:30,Biedronka,Q857182
4219,lewiatan_pl,Lewiatan,,Rybnik,,,PL,+48 32 421 10 79,https://www.lewiatan.pl/znajdz-sklep/lewiatan-rybnik-ul-gornoslaska-142,,Lewiatan,Q11755396
RCDN0AA3,millennium_bank_pl,RCDN0AA3,,Rybnik,,,PL,,,,Bank Millennium,Q4855947
RCNN0AA7,millennium_bank_pl,RCNN0AA7,,Rybnik,,,PL,,,,Bank Millennium,Q4855947
65079937,moneygram,UP RYBNIK 10 - POCZTA POLSKA,,RYBNIK,,,PL,+48 32 422 88 79,,Mo-Fr 06:00-22:00; Sa 08:00-20:00; Su 00:00-24:00,MoneyGram,Q1944412
70970681,moneygram,FUP RYBNIK 10 - POCZTA POLSKA,,RYBNIK,,,PL,+48 32 422 71 77,,Mo-Fr 06:00-22:00; Sa 08:00-20:00; Su 00:00-24:00,MoneyGram,Q1944412
001QC000000fKXaYAM,nissan_europe,Mad Mobil,,Rybnik,,,PL,+48 32 421 25 25,http://www.madmobil.com.pl/nissan,Mo-Fr 09:00-18:00; Sa 09:00-15:00,Nissan,Q20165
628174,orlen_paczka_pl,,,Rybnik,,,PL,,,,Orlen Paczka,Q110457879
470881,orlen_paczka_pl,,,Rybnik,,,PL,,,,Orlen Paczka,Q110457879
183652,orlen_paczka_pl,,,Rybnik,,,PL,,,Mo-Sa 09:00-17:00,Orlen Paczka,Q110457879
445642,orlen_paczka_pl,,,Rybnik,,,PL,,,Mo-Sa 07:00-21:00; Su 08:00-19:00,Orlen Paczka,Q110457879
834829,orlen_paczka_pl,,,Rybnik,,,PL,,,,Orlen Paczka,Q110457879
,visa,,,RYBNIK,,,PL,,,,,
,visa,,,RYBNIK,,,PL,,,,,
,visa,,,RYBNIK,,,PL,,,,,
,visa,,,RYBNIK,,,PL,,,,,
ID01710,zabka_pl,Żabka,,Rybnik,,,PL,,,Mo-Sa 06:00-23:00; Su 12:00-21:00,Żabka,Q2589061
ID02684,zabka_pl,Żabka,,Rybnik,,,PL,,,Mo-Sa 06:00-23:00; Su 10:00-21:00,Żabka,Q2589061
ID02785,zabka_pl,Żabka,,Rybnik,,,PL,,,Mo-Sa 06:00-23:00; Su 10:00-20:00,Żabka,Q2589061
ID0A218,zabka_pl,Żabka,,Rybnik,,,PL,,,Mo-Sa 06:00-23:00,Żabka,Q2589061
ID0B632,zabka_pl,Żabka,,Rybnik,,,PL,,,Mo-Sa 06:00-23:00,Żabka,Q2589061
