Ref,Spider,Name,Address,City,State,Zipcode,Country,Phone,Website,Hours,Brand,WikiData
Ahern Philadelphia,ahern,Ahern Philadelphia,,Eddystone,PA,,US,+1 610-497-2290,,,Ahern Rentals,Q114487657
https://locations.auntieannes.com/#5359,auntie_annes,Auntie Anne's Eddystone Wal-Mart #2830/Subway #34694,,Eddystone,PA,,US,+1 610-872-5460,https://locations.auntieannes.com/pa/eddystone/1570-chester-pike,Mo-Su 07:00-21:00,Auntie Anne's,Q4822010
1000001196,extra_space_storage,Crum Lynne Self Storage at 1240 Chester Pike,,Crum Lynne,PA,,US,+1 484-489-0642,https://www.extraspace.com/storage/facilities/us/pennsylvania/crum_lynne/1000001196/,Mo-Su 06:00-22:00,Extra Space Storage,Q5422162
https://office.jacksonhewitt.com/#27578542,jackson_hewitt,Jackson Hewitt,,Eddystone,PA,,US,+1 888-548-1040,https://office.jacksonhewitt.com/tax-preparation-services-locations/en/pa/eddystone/1570-chester-pike/52830,Mo 10:00-20:00; Tu-Th 11:00-19:00; Fr-Sa 10:00-20:00; Su 10:00-16:00,Jackson Hewitt,Q6117132
71489414,moneygram,WAL-MART - #2830,,EDDYSTONE,PA,,US,+1 610-447-1860,,Mo-Sa 08:00-20:00; Su 10:00-18:00,MoneyGram,Q1944412
0000888796,phillips_66_conoco_76,CRUM LYNNE CONOCO,,CRUM LYNNE,PA,,US,+1 610-833-1272,,,Conoco,Q109341187
restaurant_83372,popeyes_us_fr,Popeyes,"1530 Chester Pike Eddystone, Pennsylvania 19022 - USA",Eddystone,PA,,US,+1 610-876-4550,https://www.popeyes.com/store-locator/store/restaurant_83372,Mo-Su 10:30-21:00,Popeyes,Q1330910
100266,ritasitalianice,Ritaâ€™s of Eddystone PA,,Eddystone,PA,,US,+1 484-487-3191,https://www.ritasice.com/location/ritas-of-eddystone-pa-2/,,Rita's Italian Ice,Q7336456
413,shoprite,ShopRite of Eddystone,,Eddystone,PA,,US,+1 610-490-1200,https://www.shoprite.com/sm/planning/rsid/413,Mo-Su 07:00-23:00,ShopRite,Q7501097
https://restaurants.subway.com/#14901027,subway,Subway Wal-Mart #2830,,Eddystone Delaware,PA,,US,+1 610-872-5460,https://restaurants.subway.com/united-states/pa/eddystone/1570-chester-pike,Mo-Su 08:30-21:30,Subway,Q244457
1902200021,usps_collection_boxes,USPS COLLECTION BOX - BLUE BOX,1200 E 9TH ST,CHESTER,PA,,US,,,,United States Postal Service,Q668687
1902200020,usps_collection_boxes,USPS COLLECTION BOX - BLUE BOX,1300 E 12TH ST,CHESTER,PA,,US,,,,United States Postal Service,Q668687
1902200023,usps_collection_boxes,USPS COLLECTION BOX - BLUE BOX,900 SAVILLE AVE,CHESTER,PA,,US,,,,United States Postal Service,Q668687
1902200018,usps_collection_boxes,USPS COLLECTION BOX - BLUE BOX,1520 CHESTER PIKE,CHESTER,PA,,US,,,,United States Postal Service,Q668687
,visa,,,CRUM LYNNE,PA,,US,,,,,
,visa,,,EDDYSTONE,PA,,US,,,,,
,visa,,,CRUM LYNNE,PA,,US,,,,,
,visa,,,CRUM LYNNE,PA,,US,,,,,
,visa,,,CRUM LYNNE,PA,,US,,,,,
,visa,,,CRUM LYNNE,PA,,US,,,,,
,visa,,,CRUMLYNE,PA,,US,,,,,
,visa,,,EDDYSTONE,PA,,US,,,,,
,visa,,,CRUM LYNNE,PA,,US,,,,,
,visa,,,EDDYSTONE,PA,,US,,,,,
,visa,,,EDDYSTONE,PA,,US,,,,,
,visa,,,EDDYSTONE,PA,,US,,,,,
,visa,,,EDDYSTONE,PA,,US,,,,,
,visa,,,EDDYSTONE,PA,,US,,,,,
,visa,,,CRUM LYNNE,PA,,US,,,,,
,visa,,,EDDYSTONE,PA,,US,,,,,
,visa,,,EDDYSTONE,PA,,US,,,,,
,visa,,,EDDYSTONE,PA,,US,,,,,
e836b9508ab160959f25bc5b40210adc,western_union,SHOP RITE OF EDDYSTONE,,Eddystone,PA,,US,+1 610-490-1200,https://location.westernunion.com/us/pa/eddystone/e836b9508ab160959f25bc5b40210adc,Mo-Su 07:00-22:00,Western Union,Q861042
5164a43675b008200b90368351917a24,western_union,WALMART #002830,,Eddystone,PA,,US,+1 610-447-1860,https://location.westernunion.com/us/pa/eddystone/5164a43675b008200b90368351917a24,Mo-Sa 08:00-20:00; Su 10:00-18:00,Western Union,Q861042
