Ref,Spider,Name,Address,City,State,Zipcode,Country,Phone,Website,Hours,Brand,WikiData
https://vertretung.allianz.de/matthias.zirzow/,allianz_de,Allianz Versicherung Matthias Zirzow HAUPTVERTRETUNG,,Teterow,,,DE,+49 3996 187768,https://vertretung.allianz.de/matthias.zirzow/,Mo 09:00-13:00; Tu 09:00-18:00; Th 09:00-18:00; Fr 09:00-13:00,Allianz SE,Q487292
https://vertretung.allianz.de/marco1.scheel/,allianz_de,Allianz Versicherung Marco Scheel UNKNOWN,,Teterow,,,DE,+49 3996 187768,https://vertretung.allianz.de/marco1.scheel/,Mo 09:00-13:00; Tu 09:00-18:00; Th 09:00-18:00; Fr 09:00-13:00,Allianz SE,Q487292
27012200,bp,Christoph Hübner,,Teterow,,,DE,+49 3996 187931,http://tankstelle.aral.de/tankstelle/27012200,24/7,BP,Q152057
53.77733512.575655,dpd_de,NKD Deutschland GmbH,,Teterow,,,DE,,,,DPD,Q541030
53.774671600212.5747935678,dpd_de,EP: Pagel GbR,,Teterow,,,DE,,,,DPD,Q541030
2760906711,gls_de,Wolff Schmierstoffe und Berufsbekleidung,,Teterow,,,DE,+49 3996 172279,,"Mo-Tu 07:00-12:00,13:00-17:00; Th-Fr 07:00-12:00,13:00-17:00",General Logistics Systems,Q46495823
1922,jysk,Teterow,,Teterow,,,DE,+49 3996 1572080,https://jysk.de/filialen?storeId=1922,Mo-Th 10:00-18:30; Sa 09:30-16:00,JYSK,Q138913
6154,kik,KiK,,Teterow,,,DE,+49 3996 152080,,Mo-Fr 09:00-19:00; Sa 09:00-16:00,KiK,Q883965
5422,lidl_de,,,Teterow,,,DE,,,Mo-Sa 07:00-20:00,Lidl,Q151954
https://www.netto.de/geschaefte/teterow/heinrich-von-thuenen-strasse-38/fd3ffc79b0de4dffae3de4dfc4cfe8f0/,netto_salling,Netto Teterow,,Teterow,,,DE,,https://www.netto.de/geschaefte/teterow/heinrich-von-thuenen-strasse-38/fd3ffc79b0de4dffae3de4dfc4cfe8f0/,Mo-Th 07:00-20:00; Sa 07:00-20:00,Netto,Q552652
53.76898_12.5833999,norma_de,NORMA,,Teterow,,,DE,,,Mo-Sa 07:00-20:00,Norma,Q450180
27637572_001-renault,renault,Auto Schoknecht GmbH,,Teterow,,,DE,+49 3996 182485,,,Renault,Q6686
27637572_001-dacia,renault,Auto Schoknecht GmbH,,Teterow,,,DE,+49 3996 182485,,,Dacia,Q27460
https://www.rossmann.de/de/filialen/mecklenburg-vorpommern/teterow/malchiner-str--20.html,rossmann_de,Rossmann Drogerie-Markt Malchiner Str. 20,,Teterow,,,DE,+49 3996 157547,https://www.rossmann.de/de/filialen/mecklenburg-vorpommern/teterow/malchiner-str--20.html,Mo-Th 08:00-18:30; Sa 08:00-13:00,Rossmann,Q316004
18188,sparkasse_de,OstseeSparkasse Rostock Geldautomat Marktplatz,,Teterow,,,DE,+49 381 6430,https://www.sparkasse.de/standorte/geldautomaten/ostsee-sparkasse-rostock-geldautomat-marktplatz-18188,24/7,Sparkasse,Q13601825
39533,sparkasse_de,OstseeSparkasse Rostock Geldautomat Poggestraße,,Teterow,,,DE,+49 381 6430,https://www.sparkasse.de/standorte/geldautomaten/ostsee-sparkasse-rostock-geldautomat-poggestrasse-39533,24/7,Sparkasse,Q13601825
166380,sparkasse_de,OstseeSparkasse Rostock fahrbare Filiale OSPA Mobil,,Dahmen,,,DE,+49 381 6431215,https://www.sparkasse.de/standorte/filialen/ostsee-sparkasse-rostock-fahrbare-filiale-ospa-mobil-166380,We 09:30-10:30,Sparkasse,Q13601825
4632,sparkasse_de,OstseeSparkasse Rostock Filiale Teterow Poggestraße / Filialleiterin Manja Gaedeke,,Teterow,,,DE,+49 381 6430,https://www.sparkasse.de/standorte/filialen/ostsee-sparkasse-rostock-filiale-teterow-poggestrasse-filialleiterin-manja-gaedeke-4632,"Mo-Tu 09:30-12:30,14:00-18:00; We 09:30-12:30; Th 09:30-12:30,14:00-18:00; Fr 09:30-12:30",Sparkasse,Q13601825
171961,sparkasse_de,OstseeSparkasse Rostock Geldautomat Teterow Markt,,Teterow,,,DE,+49 381 6430,https://www.sparkasse.de/standorte/geldautomaten/ostsee-sparkasse-rostock-geldautomat-teterow-markt-171961,"Mo 09:30-12:30; Tu 09:30-12:30,14:00-18:00; We 09:30-12:30; Th 09:30-12:30,14:00-18:00; Fr 09:30-12:30",Sparkasse,Q13601825
4633,sparkasse_de,OstseeSparkasse Rostock SB-Geschäftsstelle Teterow Markt,,Teterow,,,DE,+49 381 6430,https://www.sparkasse.de/standorte/filialen/ostsee-sparkasse-rostock-sb-geschaeftsstelle-teterow-markt-4633,Mo-Su 05:00-23:00,Sparkasse,Q13601825
EX_BP_1297,totalenergies,"ARAL TANKSTELLE TETEROW, POGGE",,Teterow,,,DE,,https://store.totalenergies.fr/en_EN/EX_BP_1297,,Aral,Q565734
ND029827,totalenergies,TETEROW BRIKETTWEG 1,,TETEROW,,,DE,+49 3996 172306,https://store.totalenergies.fr/en_EN/ND029827,Mo-Su 05:00-22:00,TotalEnergies,Q154037
https://www.vlh.de/bst/1605/Oeffnungszeiten.html,vhl_de,VLH-Beraterin Sylvia Lüdke in Teterow,,Teterow,,,DE,+49 3996 158888,https://www.vlh.de/bst/1605/,Tu-We 08:00-14:00; Th 15:00-17:00; Fr 10:00-12:00,Vereinigte Lohnsteuerhilfe e.V.,Q15852617
https://www.vlh.de/bst/14992/Oeffnungszeiten.html,vhl_de,VLH-Beraterin Susanne Stachurski in Teterow,,Teterow,,,DE,+49 3996 120647,https://www.vlh.de/bst/14992/,,Vereinigte Lohnsteuerhilfe e.V.,Q15852617
https://www.vlh.de/bst/1326/Oeffnungszeiten.html,vhl_de,VLH-Berater Wolfgang Bockris in Teterow,,Teterow,,,DE,+49 3996 151413,https://www.vlh.de/bst/1326/,,Vereinigte Lohnsteuerhilfe e.V.,Q15852617
,visa,,,TETEROW,,,DE,,,,,
,visa,,,TETEROW,,,DE,,,,,
https://shops.vodafone.de/teterow/rostocker-str.-162,vodafone_de,Vodafone-Shop,,Teterow,,,DE,+49 3996 158723,https://shops.vodafone.de/teterow/rostocker-str.-162,Mo-Fr 09:00-18:00; Sa 09:00-13:00,Vodafone,Q122141
https://www.vr.de/standorte/T/raiffeisenbank-mecklenburger-seenplatte-eg-filiale-teterow-18706.html,vr_bank,"Raiffeisenbank Mecklenburger Seenplatte eG, Filiale Teterow",,Teterow,,,DE,+49 3991 1780,https://www.raiba-seenplatte.de,"Mo 09:00-12:30; Tu 09:00-12:30,16:00-18:00; We 09:00-12:30; Th 09:00-12:30,16:00-18:00",,
