Ref,Spider,Name,Address,City,State,Zipcode,Country,Phone,Website,Hours,Brand,WikiData
DE021074,aldi_nord_de,ALDI Nord,,Grimma,Sachsen,,DE,+49 800 7234870,,Mo-Sa 07:00-20:00,ALDI Nord,Q41171373
8001138,edeka_de,EDEKA Böhlke,,Grimma,Sachsen,,DE,+49 3437 7024858,https://www.edeka.de/eh/nordbayern-sachsen-thüringen/edeka-böhlke-gabelsberger-straße-12/index.jsp,Mo-Sa 07:00-20:00,EDEKA,Q701755
213152,edeka_de,EDEKA Döbold,,Grimma,Sachsen,,DE,+49 34384 71645,https://www.edeka.de/eh/nordbayern-sachsen-thüringen/edeka-döbold-colditzer-landstr.-1-b/index.jsp,Mo-Fr 07:00-19:00; Sa 07:00-16:00,EDEKA,Q701755
GS0000989,mercedes_benz,Gruma Automobile GmbH,,Grimma,Sachsen,,DE,+49 3437 98920,https://www.mercedes-benz-gruma.de,Mo-Fr 08:00-18:00; Sa 09:00-14:00,Mercedes-Benz,Q36008
4570,netto_de,Netto Marken-Discount,,Grimma-Nerchau,Sachsen,,DE,,https://www.netto-online.de/filialen/grimma-nerchau/grimmaische-str-59/4570,Mo-Sa 07:00-20:00,Netto Marken-Discount,Q879858
4780,netto_de,Netto Marken-Discount,,Grimma,Sachsen,,DE,,https://www.netto-online.de/filialen/grimma/malzmühlstr-14/4780,Mo-Sa 07:00-20:00,Netto Marken-Discount,Q879858
https://www.obi.de/markt/grimma,obi_eu,Obi Markt Grimma,,Grimma,Sachsen,,DE,+49 3437 925300,https://www.obi.de/markt/grimma,Mo-Fr 08:00-20:00; Sa 08:00-18:00,OBI,Q300518
074a430f-2e52-32ea-a765-9b21af24fa10,penny_de,Penny Grimma,,Grimma,Sachsen,,DE,,https://www.penny.de/markt/grimma/4030709/penny-grimma-strasse-des-friedens-20,Mo-Sa 07:00-20:00,Penny,Q284688
5e77782f-0b07-307e-88dd-510f72f40891,penny_de,Penny Nerchau,,Grimma,Sachsen,,DE,,https://www.penny.de/markt/grimma/4030032/penny-nerchau-hugo-koch-str-4,Mo-Sa 07:00-20:00,Penny,Q284688
10051370,shell,"GRIMMA, A 14 MULDENTAL-NORD.",,Grimma,Sachsen,,DE,+49 3437 707660,https://find.shell.com/de/fuel/10051370-grimma-a-14-muldental-nord,24/7,Shell,Q110716465
10051371,shell,"GRIMMA, A14 MULDENTAL-SUD.",,GRIMMA,Sachsen,,DE,+49 3437 707520,https://find.shell.com/de/fuel/10051371-grimma-a14-muldental-sud,24/7,Shell,Q110716465
6773,tedi,TEDi GmbH & Co. KG,,Grimma,SACHSEN,,DE,+49 231 555770,https://www.tedi.com/stores/6773/de/SACHSEN/Grimma/Bahnhofstr5,Mo-Sa 00:00-24:00,TEDi,Q1364603
5774,tedi,TEDi GmbH & Co. KG,,Grimma,SACHSEN,,DE,+49 231 555770,https://www.tedi.com/stores/5774/de/SACHSEN/Grimma/Bahnhofstr-8,Mo-Sa 00:00-24:00,TEDi,Q1364603
,visa,,,GRIMMA,SACHSEN,,DE,,,,,
,visa,,,GRIMMA,SACHSEN,,DE,,,,,
,visa,,,GRIMMA,SACHSEN,,DE,,,,,
,visa,,,GRIMMA,SACHSEN,,DE,,,,,
,visa,,,GRIMMA,SACHSEN,,DE,,,,,
,visa,,,GRIMMA,SACHSEN,,DE,,,,,
