Ref,Spider,Name,Address,City,State,Zipcode,Country,Phone,Website,Hours,Brand,WikiData
68424055,moneygram,BODEGA CHINAMPA - #3214 - TECAMAC - CHIN,,TECAMAC,MX,,MX,+52 55 2629 6000,,Mo-Su 08:00-21:00,MoneyGram,Q1944412
72105852,moneygram,DINERO EXPRESS - TECAMAC - ELEKTRA SIERR,,TECAMAC,MX,,MX,+52 55 1720 8177,,Mo-Su 09:00-21:00,MoneyGram,Q1944412
72154382,moneygram,COPPEL TRANSMISORES - TECAMAC - SIERRA H,,TECAMAC,MX,,MX,+52 55 2221 7199,,Mo-Su 11:00-21:00,MoneyGram,Q1944412
72172212,moneygram,DINERO EXPRESS - TECAMAC - 9791 ELEKTRA,,TECAMAC,MX,,MX,+52 55 1720 8177,,Mo-Su 09:00-21:00,MoneyGram,Q1944412
72395015,moneygram,BANCO AZTECA MEXICO - TECAMAC DE FELIPE,,TECAMAC DE FELIPE VILLANUEVA,MX,,MX,+52 55 1720 8177,,Mo-Su 09:00-21:00,MoneyGram,Q1944412
72422810,moneygram,CADENA COMERCIAL OXXO SA DE CV - #10PCK5,,TECAMAC DE FELIPE VILLANUEVA,MX,,MX,+52 81 8389 2121,,Mo-Su 03:00-24:00,MoneyGram,Q1944412
69511611,moneygram,MODATELAS - #1214 - 245 MODATELAS TECAMA,,TECAMAC,MX,,MX,+52 55 5934 3067,,Mo-Su 08:00-20:00,MoneyGram,Q1944412
73956398,moneygram,CADENA COMERCIAL OXXO SA DE CV - #10PCK5,,TECAMAC DE FELIPE VILLANUEVA,MX,,MX,+52 81 8389 2121,,Mo-Su 03:00-24:00,MoneyGram,Q1944412
70392117,moneygram,FARMACIAS GUADALAJARA - TEMAC EDO. DE M,,TECAMAC,MX,,MX,+52 713 278 5436,,Mo-Su 08:00-22:00,MoneyGram,Q1944412
74714063,moneygram,CADENA COMERCIAL OXXO SA DE CV - #10PCK5,,TECAMAC DE FELIPE VILLANUEVA,MX,,MX,+52 81 8389 2121,,Mo-Su 03:00-24:00,MoneyGram,Q1944412
71150633,moneygram,ELEKTRA - #9791 - TECAMAC - BA MEGA SIER,,TECAMAC,MX,,MX,+52 55 1720 7000,,Mo-Su 09:00-21:00,MoneyGram,Q1944412
45016952,moneygram,WAL-MART SAN JOSE TECAMAC - #1171,,TECAMAC,MX,,MX,+52 55 1383 9725,,Mo-Su 08:00-21:00,MoneyGram,Q1944412
41172117,moneygram,BODEGA TECAMAC,,TECAMAC,MX,,MX,+52 55 5932 4235,,Mo-Su 08:00-21:00,MoneyGram,Q1944412
71311650,moneygram,OXXO - ACOZAC MEX,,TECAMAC DE FELIPE VILLANUEVA,MX,,MX,+52 81 8389 2121,,Mo-Su 03:00-24:00,MoneyGram,Q1944412
71293930,moneygram,OXXO - ALONDRAS MEX,,TECAMAC DE FELIPE VILLANUEVA,MX,,MX,+52 81 8389 2121,,Mo-Su 03:00-24:00,MoneyGram,Q1944412
71311456,moneygram,OXXO - LA ESMERALDA MEX,,TECAMAC DE FELIPE VILLANUEVA,MX,,MX,+52 81 8389 2121,,Mo-Su 03:00-24:00,MoneyGram,Q1944412
71304641,moneygram,OXXO - PREMIER MEX,,TECAMAC DE FELIPE VILLANUEVA,MX,,MX,+52 81 8389 2121,,Mo-Su 03:00-24:00,MoneyGram,Q1944412
71306131,moneygram,OXXO - SAN JOSE TECAMAC MEX,,TECAMAC DE FELIPE VILLANUEVA,MX,,MX,+52 81 8389 2121,,Mo-Su 03:00-24:00,MoneyGram,Q1944412
71301589,moneygram,OXXO - VALLE LAUREL MEX,,TECAMAC DE FELIPE VILLANUEVA,MX,,MX,+52 81 8389 2121,,Mo-Su 03:00-24:00,MoneyGram,Q1944412
71768931,moneygram,CADENA COMERCIAL OXXO SA DE CV - #10PCK5,,TECAMAC DE FELIPE VILLANUEVA,MX,,MX,+52 81 8389 2121,,Mo-Su 03:00-24:00,MoneyGram,Q1944412
