Ref,Spider,Name,Address,City,State,Zipcode,Country,Phone,Website,Hours,Brand,WikiData
,visa,,,EAST ORANGE,NJ,,US,,,,,
,visa,,,RAHWAY,NJ,,US,,,,,
,visa,,,RAHWAY,NJ,,US,,,,,
,visa,,,RAHWAY,NJ,,US,,,,,
,visa,,,RAHWAY,NJ,,US,,,,,
,visa,,,RAHWAY,NJ,,US,,,,,
,visa,,,RAHWAY,NJ,,US,,,,,
,visa,,,RAHWAY,NJ,,US,,,,,
,visa,,,RAHWAY,NJ,,US,,,,,
,visa,,,RAHWAY,NJ,,US,,,,,
,visa,,,RAHWAY,NJ,,US,,,,,
,visa,,,RAHWAY,NJ,,US,,,,,
,visa,,,RAHWAY,NJ,,US,,,,,
,visa,,,RAHWAY,NJ,,US,,,,,
,visa,,,RAHWAY,NJ,,US,,,,,
,visa,,,RAHWAY,NJ,,US,,,,,
,visa,,,RAHWAY,NJ,,US,,,,,
,visa,,,RAHWAY,NJ,,US,,,,,
,visa,,,RAHWAY,NJ,,US,,,,,
,visa,,,RAHWAY,NJ,,US,,,,,
,visa,,,RAHWAY,NJ,,US,,,,,
,visa,,,RAHWAY,NJ,,US,,,,,
,visa,,,RAHWAY,NJ,,US,,,,,
,visa,,,RAHWAY,NJ,,US,,,,,
,visa,,,RAHWAY,NJ,,US,,,,,
,visa,,,RAHWAY,NJ,,US,,,,,
,visa,,,RAHWAY,NJ,,US,,,,,
,visa,,,RAHWAY,NJ,,US,,,,,
,visa,,,RAHWAY,NJ,,US,,,,,
,visa,,,RAHWAY,NJ,,US,,,,,
,visa,,,RAHWAY,NJ,,US,,,,,
,visa,,,RAHWAY,NJ,,US,,,,,
,visa,,,RAHWAY,NJ,,US,,,,,
,visa,,,RAHWAY,NJ,,US,,,,,
,visa,,,RAHWAY,NJ,,US,,,,,
,visa,,,RAHWAY,NJ,,US,,,,,
,visa,,,RAHWAY,NJ,,US,,,,,
,visa,,,RAHWAY,NJ,,US,,,,,
,visa,,,RAHWAY,NJ,,US,,,,,
,visa,,,RAHWAY,NJ,,US,,,,,
,visa,,,RAHWAY,NJ,,US,,,,,
,visa,,,RAHWAY,NJ,,US,,,,,
,visa,,,RAHWAY,NJ,,US,,,,,
,visa,,,RAHWAY,NJ,,US,,,,,
,visa,,,RAHWAY,NJ,,US,,,,,
,visa,,,RAHWAY,NJ,,US,,,,,
,visa,,,RAHWAY,NJ,,US,,,,,
,visa,,,RAWHWAY,NJ,,US,,,,,
,visa,,,RAHWAY,NJ,,US,,,,,
,visa,,,RAHWAY,NJ,,US,,,,,
,visa,,,RAHWAY,NJ,,US,,,,,
,visa,,,RAHWAY,NJ,,US,,,,,
,visa,,,RAHWAY,NJ,,US,,,,,
