Ref,Spider,Name,Address,City,State,Zipcode,Country,Phone,Website,Hours,Brand,WikiData
1792,gulf_pr_us,GOODFIELD CONV. II,,Jessup,PA,,US,+1 570-383-3822,https://www.gulfoil.com/goodfield-conv-ii,,Gulf Oil,Q5617505
044810,penske,Penske Scranton,,JESSUP,PA,,US,+1 570-487-4442,https://www.pensketruckrental.com/locations/us/pennsylvania/jessup/044810/,,Penske,Q81234570
1368428,usps,JESSUP,,JESSUP,PA,,US,+1 570-489-5911,,"Mo-Fr 09:30-12:30,13:30-16:30",United States Postal Service,Q668687
1843400003,usps_collection_boxes,USPS COLLECTION BOX - BLUE BOX,10 HILL ST,JESSUP,PA,,US,,,,United States Postal Service,Q668687
1843400019,usps_collection_boxes,USPS COLLECTION BOX - BLUE BOX,801 CHURCH ST,JESSUP,PA,,US,,,,United States Postal Service,Q668687
1843400011,usps_collection_boxes,USPS COLLECTION BOX - BLUE BOX,305 CHURCH ST,JESSUP,PA,,US,,,,United States Postal Service,Q668687
1843400021,usps_collection_boxes,USPS COLLECTION BOX - PO LOBBY,95 CHURCH ST,JESSUP,PA,,US,,,,United States Postal Service,Q668687
1843400001,usps_collection_boxes,USPS COLLECTION BOX - BLUE BOX,95 CHURCH ST,JESSUP,PA,,US,,,,United States Postal Service,Q668687
1843400018,usps_collection_boxes,USPS COLLECTION BOX - PO LOBBY,95 CHURCH ST,JESSUP,PA,,US,,,,United States Postal Service,Q668687
,visa,,,JESSUP,PA,,US,,,,,
,visa,,,JESSUP,PA,,US,,,,,
,visa,,,JESSUP,PA,,US,,,,,
,visa,,,JESSUP,PA,,US,,,,,
,visa,,,JESSUP,PA,,US,,,,,
,visa,,,JESSUP,PA,,US,,,,,
,visa,,,JESSUP,PA,,US,,,,,
,visa,,,JESSUP,PA,,US,,,,,
,visa,,,JESSUP,PA,,US,,,,,
,visa,,,JESSUP,PA,,US,,,,,
