Ref,Spider,Name,Address,City,State,Zipcode,Country,Phone,Website,Hours,Brand,WikiData
271589,asics_us,NATIONAL SPORTING GOODS EXCHAN,1588 Heart Lake Rd,Jermyn,PA,,US,+1 570-586-1620,,,asics,Q327247
16293,dollar_general,Dollar General,,Jermyn,PA,,US,+1 570-230-4473,https://www.dollargeneral.com/store-directory/pa/jermyn/16293,Mo-Su 08:00-22:00,Dollar General,Q145168
382,gulf_pr_us,RUSHBROOK QUICK STOP,,Jermyn,PA,,US,+1 570-230-7092,https://www.gulfoil.com/rushbrook-quick-stop,,Gulf Oil,Q5617505
148,mightyflame,CFM #3009,,JERMYN,PA,,US,+1 570-876-5354,,,Mighty Flame,
0256955600,sunoco_us,Sunoco,,JERMYN,PA,,US,+1 570-876-5354,,,Sunoco,Q1423218
1368401,usps,JERMYN,,JERMYN,PA,,US,+1 570-876-1530,,"Mo-Fr 09:00-13:30,14:00-17:00; Sa 09:30-11:30",United States Postal Service,Q668687
1843300001,usps_collection_boxes,USPS COLLECTION BOX - BLUE BOX,700 POPLAR ST,JERMYN,PA,,US,,,,United States Postal Service,Q668687
1843300006,usps_collection_boxes,USPS COLLECTION BOX - BLUE BOX,551 WASHINGTON AVE,JERMYN,PA,,US,,,,United States Postal Service,Q668687
1843300014,usps_collection_boxes,USPS COLLECTION BOX - PO LOBBY,551 WASHINGTON AVE,JERMYN,PA,,US,,,,United States Postal Service,Q668687
1843300016,usps_collection_boxes,USPS COLLECTION BOX - PO LOBBY,551 WASHINGTON AVE,JERMYN,PA,,US,,,,United States Postal Service,Q668687
,visa,,,MAYFIELD,PA,,US,,,,,
,visa,,,MAYFIELD,PA,,US,,,,,
,visa,,,MAYFIELD,PA,,US,,,,,
,visa,,,MAYFIELD,PA,,US,,,,,
,visa,,,MAYFIELD,PA,,US,,,,,
,visa,,,MAYFIELD,PA,,US,,,,,
,visa,,,MAYFIELD,PA,,US,,,,,
,visa,,,MAYFIELD,PA,,US,,,,,
,visa,,,MAYFIELD,PA,,US,,,,,
,visa,,,JERMYN,PA,,US,,,,,
,visa,,,JERMYN,PA,,US,,,,,
,visa,,,JERMYN,PA,,US,,,,,
,visa,,,JERMYN,PA,,US,,,,,
,visa,,,JERMYN,PA,,US,,,,,
,visa,,,JERMYN,PA,,US,,,,,
,visa,,,JERMYN,PA,,US,,,,,
,visa,,,JERMYN,PA,,US,,,,,
,visa,,,JERMYN,PA,,US,,,,,
,visa,,,JERMYN,PA,,US,,,,,
,visa,,,SCOTT,PA,,US,,,,,
,visa,,,JERMYN,PA,,US,,,,,
