Ref,Spider,Name,Address,City,State,Zipcode,Country,Phone,Website,Hours,Brand,WikiData
5310,pizza_hut_th,Praksa,"483 / 1-2 Village No. 3, Phraeksa Sub-district, Mueang Samut Prakan District Samut Prakan Province 10280",,Samut Prakan,,TH,+66 91 119 0462,https://www.pizzahut.co.th/,,Pizza Hut,Q191615
12676192,shell,CO OIL NAWAWONG B2 PREAKASA SPK,,T.PREAKASA MAI A.MUEANG,Samut Prakan,,TH,+66 94 989 4656,https://find.shell.com/th/fuel/12676192-co-oil-nawawong-b2-preakasa-spk,24/7,Shell,Q110716465
10041799,shell,CO WATANACHAI HO CROCODILE FARM SPK,,T.TAIBARN A.MUANG.,Samut Prakan,,TH,+66 87 591 3370,https://find.shell.com/th/fuel/10041799-co-watanachai-ho-crocodile-farm-spk,,Shell,Q110716465
,visa,,,SAMUT PRAKAN,SAMUT PRAKAN,,TH,,,,,
,visa,,,SAMUT PRAKAN,SAMUT PRAKAN,,TH,,,,,
,visa,,,MUEANG,SAMUT PRAKAN,,TH,,,,,
,visa,,,MUEANG,SAMUT PRAKAN,,TH,,,,,
,visa,,,MUEANG,SAMUT PRAKAN,,TH,,,,,
,visa,,,MUEANG,SAMUT PRAKAN,,TH,,,,,
,visa,,,MUEANG,SAMUT PRAKAN,,TH,,,,,
,visa,,,MUEANG,SAMUT PRAKAN,,TH,,,,,
,visa,,,MUEANG SAMUT PRAKAN,SAMUT PRAKAN,,TH,,,,,
,visa,,,MUEANG SAMUT PRAKAN,SAMUT PRAKAN,,TH,,,,,
,visa,,,MUEANG,SAMUT PRAKAN,,TH,,,,,
,visa,,,MUEANG,SAMUT PRAKAN,,TH,,,,,
,visa,,,MUEANG,SAMUT PRAKAN,,TH,,,,,
,visa,,,MUEANG,SAMUT PRAKAN,,TH,,,,,
,visa,,,MEUANG SAMUT PRAKHAN,SAMUT PRAKAN,,TH,,,,,
,visa,,,MUEANG,SAMUT PRAKAN,,TH,,,,,
,visa,,,MUEANG,SAMUT PRAKAN,,TH,,,,,
,visa,,,MUEANG,SAMUT PRAKAN,,TH,,,,,
,visa,,,MUEANG,SAMUT PRAKAN,,TH,,,,,
,visa,,,MUEANG,SAMUT PRAKAN,,TH,,,,,
,visa,,,MUEANG,SAMUT PRAKAN,,TH,,,,,
,visa,,,MUEANG,SAMUT PRAKAN,,TH,,,,,
fdabcad3a31e0957bfb683d744a1caca,western_union,PAKNUM TEXTILE,,Samut Prakan,SAMUT PRAKAN,,TH,(+66) 1572,https://location.westernunion.com/th/samut-prakan/samut-prakan/fdabcad3a31e0957bfb683d744a1caca,Mo-Su 00:01-24:00,Western Union,Q861042
3c98cc11b39ffbb202c810728370bdbf,western_union,BBL TESCO LOTUS BANGPOO BRANCH,,Mueang,SAMUT PRAKAN,,TH,+66 2 710 9059,https://location.westernunion.com/th/samut-prakan/mueang/3c98cc11b39ffbb202c810728370bdbf,Mo-Su 10:30-19:30,Western Union,Q861042
dd975183a07716b44315e36a3a3d27f0,western_union,TESCO LOTUS BANG PU BRANCH,,Mueang,SAMUT PRAKAN,,TH,+66 2 296 2345,https://location.westernunion.com/th/samut-prakan/mueang/dd975183a07716b44315e36a3a3d27f0,Mo-Su 11:00-18:00,Western Union,Q861042
790eb013b0859d5c688c71c63490dd5a,western_union,KTB TESCO LOTUS BANGPOO,,Mueang,SAMUT PRAKAN,,TH,+66 2 710 9067,https://location.westernunion.com/th/samut-prakan/mueang/790eb013b0859d5c688c71c63490dd5a,Mo-Su 10:00-20:00,Western Union,Q861042
bed3315918496006288ad2f8afa63cde,western_union,KTB TESCO LOTUS BANGPOO,,Mueang,SAMUT PRAKAN,,TH,+66 2 111 1111,https://location.westernunion.com/th/samut-prakan/mueang/bed3315918496006288ad2f8afa63cde,Mo-Su 06:00-22:00,Western Union,Q861042
df38827d98031ac5d8f35cb31c659a2e,western_union,7-11TETSABANBANGPUSOI69,,Mueang,SAMUT PRAKAN,,TH,+66 2 826 7788,https://location.westernunion.com/th/samut-prakan/mueang/df38827d98031ac5d8f35cb31c659a2e,Mo-Su 00:01-24:00,Western Union,Q861042
dd92f7e143e94c19b6d8aa0e54c652eb,western_union,MULLIKA MARKET BANG PU 69,,Samut Prakan,SAMUT PRAKAN,,TH,(+66) 1572,https://location.westernunion.com/th/samut-prakan/samut-prakan/dd92f7e143e94c19b6d8aa0e54c652eb,Mo-Su 00:01-24:00,Western Union,Q861042
a56b40fd528302df2f3f4366f2d8685f,western_union,THAILAND POST BANG PU,,Mueang,SAMUT PRAKAN,,TH,+66 2 831 3271,https://location.westernunion.com/th/samut-prakan/mueang/a56b40fd528302df2f3f4366f2d8685f,Mo-Fr 08:30-16:30,Western Union,Q861042
1b9ee40822bedc30eec6febf70793a42,western_union,MINI BIG C BANGCHAK BANGPHU 77,,Samut Prakan,SAMUT PRAKAN,,TH,(+66) 1572,https://location.westernunion.com/th/samut-prakan/samut-prakan/1b9ee40822bedc30eec6febf70793a42,Mo-Su 00:01-24:00,Western Union,Q861042
6934fcd01d6719cdc93da3b825496c16,western_union,MIAMI BANGPU,,Samut Prakan,SAMUT PRAKAN,,TH,(+66) 1572,https://location.westernunion.com/th/samut-prakan/samut-prakan/6934fcd01d6719cdc93da3b825496c16,Mo-Su 00:01-24:00,Western Union,Q861042
6ebe7e887f8b191f55bd828908479932,western_union,7-11 THETSABAN BANGPU SOI 59,,Mueang,SAMUT PRAKAN,,TH,+66 2 826 7788,https://location.westernunion.com/th/samut-prakan/mueang/6ebe7e887f8b191f55bd828908479932,Mo-Su 00:01-24:00,Western Union,Q861042
0378ef2e93b99d62ffd066ce2ef0b270,western_union,MINI BIG C TESSABAN BANGPOO 59,,Samut Prakan,SAMUT PRAKAN,,TH,(+66) 1572,https://location.westernunion.com/th/samut-prakan/samut-prakan/0378ef2e93b99d62ffd066ce2ef0b270,Mo-Su 00:01-24:00,Western Union,Q861042
cec6e15c327c928b2a767888dc3ab244,western_union,BANGPU PLACE KM.33,,Samut Prakan,SAMUT PRAKAN,,TH,(+66) 1572,https://location.westernunion.com/th/samut-prakan/samut-prakan/cec6e15c327c928b2a767888dc3ab244,Mo-Su 00:01-24:00,Western Union,Q861042
43471fc125c36515988df2a26aa4db28,western_union,SCHNEIDER  THAILAND  CO  LTD,,Samut Prakan,SAMUT PRAKAN,,TH,(+66) 1572,https://location.westernunion.com/th/samut-prakan/samut-prakan/43471fc125c36515988df2a26aa4db28,Mo-Su 00:01-24:00,Western Union,Q861042
64fd23d2bad0d40f66687d53de053461,western_union,BBL BANGPU INDUSTRIAL ESTATE BRANCH,,Mueang,SAMUT PRAKAN,,TH,+66 2 324 0517,https://location.westernunion.com/th/samut-prakan/mueang/64fd23d2bad0d40f66687d53de053461,Mo-Fr 08:30-15:30,Western Union,Q861042
087655756bdde562ddfcbbce0c26c3f1,western_union,KTB BANG POO,,Mueang,SAMUT PRAKAN,,TH,+66 2 111 1111,https://location.westernunion.com/th/samut-prakan/mueang/087655756bdde562ddfcbbce0c26c3f1,Mo-Su 06:00-22:00,Western Union,Q861042
4d6bda0710734de78c76e10b0ca13ac7,western_union,KTB BANG POO,,Mueang,SAMUT PRAKAN,,TH,+66 2 395 3049,https://location.westernunion.com/th/samut-prakan/mueang/4d6bda0710734de78c76e10b0ca13ac7,Mo-Fr 08:30-16:30,Western Union,Q861042
46f624e1146bd794019438f3db883863,western_union,WHITEHOUSE CLEANING PRODUCTS,,Samut Prakan,SAMUT PRAKAN,,TH,(+66) 1572,https://location.westernunion.com/th/samut-prakan/samut-prakan/46f624e1146bd794019438f3db883863,Mo-Su 00:01-24:00,Western Union,Q861042
66860172a6fec410906c4210e607d79e,western_union,7-ELEVEN SINSOMBOON,,Samut Prakan,SAMUT PRAKAN,,TH,(+66) 1572,https://location.westernunion.com/th/samut-prakan/samut-prakan/66860172a6fec410906c4210e607d79e,Mo-Su 00:01-24:00,Western Union,Q861042
9d2b33ba5fc207dcdba607e0f568865e,western_union,LOTUS EXPRESS KEHA SAMUTPRAKAN,,Samut Prakan,SAMUT PRAKAN,,TH,(+66) 1572,https://location.westernunion.com/th/samut-prakan/samut-prakan/9d2b33ba5fc207dcdba607e0f568865e,Mo-Su 00:01-24:00,Western Union,Q861042
aa20bde4fb7d9e2da183b26677648e39,western_union,BAY BANG PU,,Mueang,SAMUT PRAKAN,,TH,+66 2 324 3581,https://location.westernunion.com/th/samut-prakan/mueang/aa20bde4fb7d9e2da183b26677648e39,Mo-Fr 08:00-18:00,Western Union,Q861042
2af25648551f030a55176e117bc2bad9,western_union,BBL SAI LUAT ROAD SAMUT PRAKAN,,Mueang,SAMUT PRAKAN,,TH,+66 2 387 0133,https://location.westernunion.com/th/samut-prakan/mueang/2af25648551f030a55176e117bc2bad9,Mo-Fr 08:30-15:30,Western Union,Q861042
75398957fed4e82232e17f0bf49b3e32,western_union,7-ELEVEN TESABAN BANGPOO 43,,Samut Prakan,SAMUT PRAKAN,,TH,(+66) 1572,https://location.westernunion.com/th/samut-prakan/samut-prakan/75398957fed4e82232e17f0bf49b3e32,Mo-Su 00:01-24:00,Western Union,Q861042
f1314921959395e1f400e83cd97f6737,western_union,YAOWARAT  PHTHONG 5  GOLD SHOP,,Samut Prakan,SAMUT PRAKAN,,TH,(+66) 1572,https://location.westernunion.com/th/samut-prakan/samut-prakan/f1314921959395e1f400e83cd97f6737,Mo-Su 00:01-24:00,Western Union,Q861042
16af8e0d33dbe5bb500f1e1cac9e8107,western_union,BANGPU PLACE,,Samut Prakan,SAMUT PRAKAN,,TH,(+66) 1572,https://location.westernunion.com/th/samut-prakan/samut-prakan/16af8e0d33dbe5bb500f1e1cac9e8107,Mo-Su 00:01-24:00,Western Union,Q861042
61aa3a4f2e40efeb4905470b9e986fb0,western_union,BBL PRAKSA SUBDISTRICT MUNICIPALITY,,Mueang,SAMUT PRAKAN,,TH,+66 2 136 4521,https://location.westernunion.com/th/samut-prakan/mueang/61aa3a4f2e40efeb4905470b9e986fb0,Mo-Fr 08:30-16:00,Western Union,Q861042
dda84b153c3f24c1970964340dc1607e,western_union,7-11 SAMUTPRAKAN HOSPITAL,,Mueang,SAMUT PRAKAN,,TH,+66 2 826 7788,https://location.westernunion.com/th/samut-prakan/mueang/dda84b153c3f24c1970964340dc1607e,Mo-Su 00:01-24:00,Western Union,Q861042
df6b342dc45c6f1b3c949aa25d574480,western_union,KTB THANON PHRAEKSA,,Mueang,SAMUT PRAKAN,,TH,+66 2 111 1111,https://location.westernunion.com/th/samut-prakan/mueang/df6b342dc45c6f1b3c949aa25d574480,Mo-Su 06:00-22:00,Western Union,Q861042
fef5f57892fe200aaa899cbdd1167c23,western_union,KTB THANON PHRAEKSA,,Mueang,SAMUT PRAKAN,,TH,+66 2 388 2835,https://location.westernunion.com/th/samut-prakan/mueang/fef5f57892fe200aaa899cbdd1167c23,Mo-Fr 08:30-16:30,Western Union,Q861042
92c56cedeb5365f8fa32927300c9c8d5,western_union,LOTUS EXPRESS PRAKSA KLONG 9,,Samut Prakan,SAMUT PRAKAN,,TH,(+66) 1572,https://location.westernunion.com/th/samut-prakan/samut-prakan/92c56cedeb5365f8fa32927300c9c8d5,Mo-Su 00:01-24:00,Western Union,Q861042
797394dfaab8aca766a41307a8092f18,western_union,TESCO LOTUS TALAD PRAKSA,,Samut Prakan,SAMUT PRAKAN,,TH,(+66) 1572,https://location.westernunion.com/th/samut-prakan/samut-prakan/797394dfaab8aca766a41307a8092f18,Mo-Su 00:01-24:00,Western Union,Q861042
30e66d8684d15dbb0cc2cba93cb63228,western_union,TOOKTA PHANICH PREAKSA 10,,Samut Prakan,SAMUT PRAKAN,,TH,(+66) 1572,https://location.westernunion.com/th/samut-prakan/samut-prakan/30e66d8684d15dbb0cc2cba93cb63228,Mo-Su 00:01-24:00,Western Union,Q861042
dc3815be26185880ed8f25c62b60a11b,western_union,FRONT LOTUS EXPRESS PRAKASA,,Samut Prakan,SAMUT PRAKAN,,TH,(+66) 1572,https://location.westernunion.com/th/samut-prakan/samut-prakan/dc3815be26185880ed8f25c62b60a11b,Mo-Su 00:01-24:00,Western Union,Q861042
8d49557866ad3de51ffe3c2174d92c9b,western_union,7-ELEVEN PTT.THANON PHRAEKSA,,Samut Prakan,SAMUT PRAKAN,,TH,(+66) 1572,https://location.westernunion.com/th/samut-prakan/samut-prakan/8d49557866ad3de51ffe3c2174d92c9b,Mo-Su 00:01-24:00,Western Union,Q861042
54cfc9d5ed9ecffac45add3259ae413d,western_union,ROBINSON SAMUT PRAKAN BRANCH,,Mueang,SAMUT PRAKAN,,TH,+66 2 296 2345,https://location.westernunion.com/th/samut-prakan/mueang/54cfc9d5ed9ecffac45add3259ae413d,Mo-Su 10:30-19:00,Western Union,Q861042
2f1d6764c4a2e524986fbbf9664a27d7,western_union,TIENG NHON PUN DAI,,Samut Prakan,SAMUT PRAKAN,,TH,(+66) 1572,https://location.westernunion.com/th/samut-prakan/samut-prakan/2f1d6764c4a2e524986fbbf9664a27d7,Mo-Su 00:01-24:00,Western Union,Q861042
9c6bcff98fd4158205fdfff48448028a,western_union,ROBINSON SAMUTPRAKAN # 2,,Samut Prakan,SAMUT PRAKAN,,TH,(+66) 1572,https://location.westernunion.com/th/samut-prakan/samut-prakan/9c6bcff98fd4158205fdfff48448028a,Mo-Su 00:01-24:00,Western Union,Q861042
23c7cb13ac9637fffed6ac05eeb76f3c,western_union,ROBINSON SAMUT PRAKAN,,Mueang,SAMUT PRAKAN,,TH,+66 2 174 2911,https://location.westernunion.com/th/samut-prakan/mueang/23c7cb13ac9637fffed6ac05eeb76f3c,Mo-Su 11:00-20:00,Western Union,Q861042
a2bae45cd2c4b8366e40fd3d4210d001,western_union,ROBINSON SAMUTPRAKAN # 1,,Samut Prakan,SAMUT PRAKAN,,TH,(+66) 1572,https://location.westernunion.com/th/samut-prakan/samut-prakan/a2bae45cd2c4b8366e40fd3d4210d001,Mo-Su 00:01-24:00,Western Union,Q861042
62c1d7c6db8da8a5f6097efda9583aa5,western_union,KTB PAK NAM,,Mueang,SAMUT PRAKAN,,TH,+66 2 111 1111,https://location.westernunion.com/th/samut-prakan/mueang/62c1d7c6db8da8a5f6097efda9583aa5,Mo-Su 06:00-22:00,Western Union,Q861042
133c2f0d823b9861bffdfb4e7947aa48,western_union,KTB PAK NAM,,Mueang,SAMUT PRAKAN,,TH,+66 2 389 0993,https://location.westernunion.com/th/samut-prakan/mueang/133c2f0d823b9861bffdfb4e7947aa48,Mo-Fr 08:30-16:30,Western Union,Q861042
74dc451f1f2afe0221c66d2d82869c7e,western_union,MOOBAN SAENGPANYA,,Samut Prakan,SAMUT PRAKAN,,TH,(+66) 1572,https://location.westernunion.com/th/samut-prakan/samut-prakan/74dc451f1f2afe0221c66d2d82869c7e,Mo-Su 00:01-24:00,Western Union,Q861042
a876ca9378bce7392f55a93fe08cb0b3,western_union,AWAJI MATTERIA  THAILAND  CO  LTD,,Samut Prakan,SAMUT PRAKAN,,TH,(+66) 1572,https://location.westernunion.com/th/samut-prakan/samut-prakan/a876ca9378bce7392f55a93fe08cb0b3,Mo-Su 00:01-24:00,Western Union,Q861042
d09777d732307a264af4d80d6321bbb0,western_union,R-ATM THANON-PHRAEKSA BR.,,Samut Prakan,SAMUT PRAKAN,,TH,(+66) 1572,https://location.westernunion.com/th/samut-prakan/samut-prakan/d09777d732307a264af4d80d6321bbb0,Mo-Su 00:01-24:00,Western Union,Q861042
3275cbc98293e7894c76ef57ec771c7e,western_union,T PRAKASA BR   2,,Samut Prakan,SAMUT PRAKAN,,TH,(+66) 1572,https://location.westernunion.com/th/samut-prakan/samut-prakan/3275cbc98293e7894c76ef57ec771c7e,Mo-Su 00:01-24:00,Western Union,Q861042
21dbd5098eb1f36efa2924dc31e68e40,western_union,7-ELEVEN SAMYAEK NAKORNTHONG,,Samut Prakan,SAMUT PRAKAN,,TH,(+66) 1572,https://location.westernunion.com/th/samut-prakan/samut-prakan/21dbd5098eb1f36efa2924dc31e68e40,Mo-Su 00:01-24:00,Western Union,Q861042
099ee30fc927e449447cbc14b9bb6ebd,western_union,7-11 FUEANGFA 11 PHASE8,,Mueang,SAMUT PRAKAN,,TH,+66 2 826 7788,https://location.westernunion.com/th/samut-prakan/mueang/099ee30fc927e449447cbc14b9bb6ebd,Mo-Su 00:01-24:00,Western Union,Q861042
216390b2945e1a8b1bfe83eb1aa1a592,western_union,7-ELEVEN FUENGFAR VILLA,,Samut Prakan,SAMUT PRAKAN,,TH,(+66) 1572,https://location.westernunion.com/th/samut-prakan/samut-prakan/216390b2945e1a8b1bfe83eb1aa1a592,Mo-Su 00:01-24:00,Western Union,Q861042
3077651b72aa693f3002d89f1302226e,western_union,KHUN KOMSUN BUILDING,,Samut Prakan,SAMUT PRAKAN,,TH,(+66) 1572,https://location.westernunion.com/th/samut-prakan/samut-prakan/3077651b72aa693f3002d89f1302226e,Mo-Su 00:01-24:00,Western Union,Q861042
4a929eaa0f9810ffeb04fb428ad6548e,western_union,7-11 MUBAN LALIN,,Mueang,SAMUT PRAKAN,,TH,+66 2 826 7788,https://location.westernunion.com/th/samut-prakan/mueang/4a929eaa0f9810ffeb04fb428ad6548e,Mo-Su 00:01-24:00,Western Union,Q861042
788d0cf526384e64601ab2c74cd9b790,western_union,LOTUS EXPRESS AUE-ARTHON KAJONWIT,,Samut Prakan,SAMUT PRAKAN,,TH,(+66) 1572,https://location.westernunion.com/th/samut-prakan/samut-prakan/788d0cf526384e64601ab2c74cd9b790,Mo-Su 00:01-24:00,Western Union,Q861042
33811ef2402596e4ae902aa0447d43a1,western_union,7-ELEVEN PTT. POOJAO SAMINGPRAY,,Samut Prakan,SAMUT PRAKAN,,TH,(+66) 1572,https://location.westernunion.com/th/samut-prakan/samut-prakan/33811ef2402596e4ae902aa0447d43a1,Mo-Su 00:01-24:00,Western Union,Q861042
ccee57e3dc9dbe995c16153460bf641d,western_union,7-ELEVEN SAMRONGTAI SOI 23,,Samut Prakan,SAMUT PRAKAN,,TH,(+66) 1572,https://location.westernunion.com/th/samut-prakan/samut-prakan/ccee57e3dc9dbe995c16153460bf641d,Mo-Su 00:01-24:00,Western Union,Q861042
24257b975736f55c11f040fe07a0057a,western_union,7-ELEVEN TESSABAN BANGPU 93,,Samut Prakan,SAMUT PRAKAN,,TH,(+66) 1572,https://location.westernunion.com/th/samut-prakan/samut-prakan/24257b975736f55c11f040fe07a0057a,Mo-Su 00:01-24:00,Western Union,Q861042
2c6df6255f9baec2b781f20f621de416,western_union,7-ELEVEN DENCHAI,,Samut Prakan,SAMUT PRAKAN,,TH,(+66) 1572,https://location.westernunion.com/th/samut-prakan/samut-prakan/2c6df6255f9baec2b781f20f621de416,Mo-Su 00:01-24:00,Western Union,Q861042
1299e80457fbb6367c3ba886ef80fe57,western_union,METALLIC PIPE MILL,,Samut Prakan,SAMUT PRAKAN,,TH,(+66) 1572,https://location.westernunion.com/th/samut-prakan/samut-prakan/1299e80457fbb6367c3ba886ef80fe57,Mo-Su 00:01-24:00,Western Union,Q861042
cac7bcdbd5650cf7ade67a0408f56d13,western_union,CHAROENSUK APARTMENT,,Samut Prakan,SAMUT PRAKAN,,TH,(+66) 1572,https://location.westernunion.com/th/samut-prakan/samut-prakan/cac7bcdbd5650cf7ade67a0408f56d13,Mo-Su 00:01-24:00,Western Union,Q861042
9b2559df6966b529dfedb9fdd3015470,western_union,KAJORNWIT BHESAT 2,,Samut Prakan,SAMUT PRAKAN,,TH,(+66) 1572,https://location.westernunion.com/th/samut-prakan/samut-prakan/9b2559df6966b529dfedb9fdd3015470,Mo-Su 00:01-24:00,Western Union,Q861042
a936e10abaf97da9522e9841b16c2013,western_union,7-ELEVEN MUEANGMAI PHRAEKSA,,Samut Prakan,SAMUT PRAKAN,,TH,(+66) 1572,https://location.westernunion.com/th/samut-prakan/samut-prakan/a936e10abaf97da9522e9841b16c2013,Mo-Su 00:01-24:00,Western Union,Q861042
