Ref,Spider,Name,Address,City,State,Zipcode,Country,Phone,Website,Hours,Brand,WikiData
68327699,moneygram,UKRGASBANK - #327-16,,KREMENCHUK,,,UA,+380 5367 40262,,Mo-Fr 09:15-17:00; Sa-Su 00:00-24:00,MoneyGram,Q1944412
72314384,moneygram,POLTAVA-BANK,,KREMENCHUK,,,UA,+380 5367 57516,,Mo-Fr 09:00-18:00; Sa 09:00-15:00; Su 00:00-24:00,MoneyGram,Q1944412
68617480,moneygram,PRIVATBANK - KREMENCHUK - LEVOBEREZHNOE,,KREMENCHUK,,,UA,3700,,Mo-Fr 09:00-18:00; Sa-Su 00:00-24:00,MoneyGram,Q1944412
68662943,moneygram,PRIVATBANK - KREMENCHUK - TSENTRALNOE VI,,KREMENCHUK,,,UA,3700,,Mo-Fr 08:30-17:30; Sa-Su 00:00-24:00,MoneyGram,Q1944412
72479326,moneygram,PRIVATBANK - KREMENCHUG - PRODUKTY VIP,,KREMENCHUG,,,UA,+380 56 716 1131,,Mo-Fr 08:30-17:30; Sa-Su 00:00-24:00,MoneyGram,Q1944412
72668713,moneygram,"""PRIVATBANK - KREMENCHUK - OTDELENIE """"MOL""",,KREMENCHUK,,,UA,+380 56 716 1131,,Mo-Fr 09:00-18:00; Sa 09:00-13:00; Su 00:00-24:00,MoneyGram,Q1944412
72680908,moneygram,"""OTDELENIE """"TSENTRALNOE-KREMENCHUG"""" - KRE""",,KREMENCHUK,,,UA,+380 56 716 1131,,Mo-Fr 09:00-17:00; Sa-Su 00:00-24:00,MoneyGram,Q1944412
72862755,moneygram,JSC A-BANK - #A409 - KREMENCHUK - 90 OF,,KREMENCHUK,,,UA,+380 56 722 0555,,Mo-Fr 09:00-18:00; Sa-Su 00:00-24:00,MoneyGram,Q1944412
72862742,moneygram,JSC A-BANK - #A507 - KREMENCHUK - 507 OF,,KREMENCHUK,,,UA,+380 56 722 0555,,Mo-Fr 09:00-18:00; Sa-Su 00:00-24:00,MoneyGram,Q1944412
72862726,moneygram,JSC A-BANK - #A508 - KREMENCHUK - 508 OF,,KREMENCHUK,,,UA,+380 56 722 0555,,Mo-Fr 09:00-18:00; Sa-Su 00:00-24:00,MoneyGram,Q1944412
69046940,moneygram,PRIVATBANK - KREMENCHUK - IND. VIP,,KREMENCHUK,,,UA,3700,,Mo-Fr 08:30-17:30; Sa-Su 00:00-24:00,MoneyGram,Q1944412
73787871,moneygram,OTDELENIE PRIVATBANKA - KREMENCHUK - OTD,,KREMENCHUK,,,UA,+380 56 716 1131,,Mo-Fr 09:00-18:00; Sa-Su 00:00-24:00,MoneyGram,Q1944412
73811420,moneygram,"""PJSC """"MTB BANK"""" - #4 - KREMENCHUK - KREM""",,KREMENCHUK,,,UA,+380 800 500 255,,Mo-Fr 09:00-16:30; Sa 09:00-17:00; Su 00:00-24:00,MoneyGram,Q1944412
69471573,moneygram,PUMB - #3 - KREMENCHUK,,KREMENCHUK,,,UA,+380 5367 47211,,Mo-Fr 09:00-17:00; Sa-Su 00:00-24:00,MoneyGram,Q1944412
74058017,moneygram,BANK CREDIT DNEPR,,KREMENCHUK,,,UA,+380 98 471 2057,,Mo-Fr 09:00-17:30; Sa-Su 00:00-24:00,MoneyGram,Q1944412
74142897,moneygram,PRIVATBANK - KREMENCHUK - OTDELENIE PRIV,,KREMENCHUK,,,UA,+380 56 716 1131,,Mo-Fr 09:00-16:00; Sa-Su 00:00-24:00,MoneyGram,Q1944412
69675201,moneygram,KRYSTALBANK - KREMENCHUTSKA BRANCH (SEPA,,KREMENCHUG,,,UA,+380 5367 40129,,Mo-Th 09:00-17:00; Fr 09:00-16:00; Sa-Su 00:00-24:00,MoneyGram,Q1944412
70107195,moneygram,OSCHADBANK - #TOBO - 10016-0204,,KREMENCHUK,,,UA,+380 5366 30074,,Mo-Sa 09:00-17:30; Su 00:00-24:00,MoneyGram,Q1944412
70861020,moneygram,PIVDENNYI BANK,,KREMENCHUK,,,UA,+380 5367 02770,,Mo-Fr 09:00-18:00; Sa-Su 00:00-24:00,MoneyGram,Q1944412
71162906,moneygram,TASCOMBANK JSC - #20 - KREMENCHUGSKOE OT,,KREMENCHUK,,,UA,+380 5367 40279,,Mo-Fr 09:00-18:00; Sa-Su 00:00-24:00,MoneyGram,Q1944412
43349922,moneygram,UKREXIMBANK,,KREMENCHUK,,,UA,+380 5367 46865,,Mo-Th 08:30-16:00; Fr 08:30-15:00; Sa-Su 00:00-24:00,MoneyGram,Q1944412
44109190,moneygram,PRIVATBANK,,KREMENCHUK,,,UA,3700,,Mo-Fr 08:30-19:00; Sa-Su 00:00-24:00,MoneyGram,Q1944412
44108816,moneygram,PRIVATBANK,,KREMENCHUK,,,UA,3700,,Mo-Fr 09:00-18:00; Sa 09:00-16:00; Su 00:00-24:00,MoneyGram,Q1944412
44490757,moneygram,PRIVATBANK,,KREMENCHUK,,,UA,3700,,Mo-Fr 08:30-16:00; Sa-Su 00:00-24:00,MoneyGram,Q1944412
44515771,moneygram,UKRGASBANK,,KREMENCHUK,,,UA,+380 5367 91958,,Mo-Fr 09:00-16:00; Sa-Su 00:00-24:00,MoneyGram,Q1944412
45137336,moneygram,MARFIN BANK,,KREMENCHUK,,,UA,+380 5367 43650,,Mo-Fr 08:30-17:30; Sa 09:00-16:00; Su 00:00-24:00,MoneyGram,Q1944412
64136855,moneygram,PRIVATBANK,,KREMENCHUK,,,UA,3700,,Mo-Fr 09:00-16:30; Sa-Su 00:00-24:00,MoneyGram,Q1944412
65379310,moneygram,PRIVATBANK,,KREMENCHUK,,,UA,3700,,Mo-Fr 09:00-18:00; Sa 09:00-16:00; Su 00:00-24:00,MoneyGram,Q1944412
66484275,moneygram,PRIVATBANK,,KREMENCHUK,,,UA,3700,,Mo-Fr 09:00-17:00; Sa-Su 00:00-24:00,MoneyGram,Q1944412
67035830,moneygram,OSCHADBANK - #100160200 - TOBO,,KREMENCHUK,,,UA,+380 5367 29938,,Mo-Fr 09:00-20:00; Sa-Su 09:00-18:00,MoneyGram,Q1944412
67041918,moneygram,OSCHADBANK - #100160205 - TOBO,,KREMENCHUK,,,UA,+380 5366 20049,,Mo-Fr 09:00-19:00; Sa-Su 09:00-15:00,MoneyGram,Q1944412
67055483,moneygram,OSCHADBANK - #100160216 - TOBO,,KREMENCHUK,,,UA,+380 5367 70746,,Mo-Fr 08:00-18:00; Sa 08:00-14:00; Su 00:00-24:00,MoneyGram,Q1944412
67046515,moneygram,OSCHADBANK - #100160207 - TOBO,,KREMENCHUK,,,UA,+380 5366 25124,,Mo 09:00-19:00; Tu 07:00-19:00; We 09:00-19:00; Th 07:00-19:00; Fr 09:00-19:00; Sa 09:00-15:00; Su 07:00-15:00,MoneyGram,Q1944412
71613109,moneygram,INDUSTRIALBANK - KREMENCHUD - BRANCH RU,,KREMENCHUD,,,UA,+380 5367 96251,,Mo-Fr 09:00-17:00; Sa-Su 00:00-24:00,MoneyGram,Q1944412
67797233,moneygram,IDEA BANK - #1 - KREMENCHUK,,KREMENCHUK,,,UA,+380 67 535 0371,,Mo-Fr 09:00-18:15; Sa 09:00-15:00; Su 00:00-24:00,MoneyGram,Q1944412
67732492,moneygram,PUMB - #2 - KREMENCHUK,,KREMENCHUK,,,UA,+380 5367 43930,,Mo-Fr 09:00-18:00; Sa-Su 00:00-24:00,MoneyGram,Q1944412
,visa,,,KREMENCHUK,,,UA,,,,,
,visa,,,KREMENCHUK,,,UA,,,,,
,visa,,,KREMENCHUK,,,UA,,,,,
,visa,,,KREMENCHUK,,,UA,,,,,
,visa,,,KREMENCHUK,,,UA,,,,,
,visa,,,KREMENCHUK,,,UA,,,,,
,visa,,,KREMENCHUK,,,UA,,,,,
,visa,,,KREMENCHUK,,,UA,,,,,
,visa,,,KREMENCHUK,,,UA,,,,,
,visa,,,KREMENCHUK,,,UA,,,,,
,visa,,,KREMENCHUK,,,UA,,,,,
,visa,,,KREMENCHUK,,,UA,,,,,
,visa,,,KREMENCHUK,,,UA,,,,,
,visa,,,KREMENCHUK,,,UA,,,,,
,visa,,,KREMENCHUK,,,UA,,,,,
,visa,,,KREMENCHUK,,,UA,,,,,
,visa,,,KREMENCHUK,,,UA,,,,,
,visa,,,KREMENCHUK,,,UA,,,,,
,visa,,,KREMENCHUK,,,UA,,,,,
,visa,,,KREMENCHUK,,,UA,,,,,
,visa,,,KREMENCHUK,,,UA,,,,,
,visa,,,KREMENCHUK,,,UA,,,,,
,visa,,,KREMENCHUG,,,UA,,,,,
,visa,,,KREMENCHUK,,,UA,,,,,
,visa,,,KREMENCHUK,,,UA,,,,,
,visa,,,KREMENCHUK,,,UA,,,,,
,visa,,,KREMENCHUK,,,UA,,,,,
,visa,,,KREMENCHUK,,,UA,,,,,
,visa,,,KREMENCHUK,,,UA,,,,,
,visa,,,KREMENCHUK,,,UA,,,,,
,visa,,,KREMENCHUK,,,UA,,,,,
,visa,,,KREMENCHUK,,,UA,,,,,
,visa,,,KREMENCHUK,,,UA,,,,,
,visa,,,KREMENCHUK,,,UA,,,,,
,visa,,,KREMENCHUK,,,UA,,,,,
,visa,,,KREMENCHUK,,,UA,,,,,
,visa,,,KREMENCHUK,,,UA,,,,,
,visa,,,KREMENCHUK,,,UA,,,,,
,visa,,,KREMENCHUK,,,UA,,,,,
,visa,,,KREMENCHUK,,,UA,,,,,
,visa,,,KREMENCHUK,,,UA,,,,,
,visa,,,KREMENCHUK,,,UA,,,,,
,visa,,,KREMENCHUK,,,UA,,,,,
,visa,,,KREMENCHUK,,,UA,,,,,
,visa,,,KREMENCHUK,,,UA,,,,,
,visa,,,KREMENCHUK,,,UA,,,,,
,visa,,,KREMENCHUK,,,UA,,,,,
,visa,,,KREMENCHUK,,,UA,,,,,
,visa,,,KREMENCHUK,,,UA,,,,,
,visa,,,KREMENCHUK,,,UA,,,,,
,visa,,,KREMENCHUK,,,UA,,,,,
,visa,,,KREMENCHUK,,,UA,,,,,
,visa,,,KREMENCHUK,,,UA,,,,,
,visa,,,KREMENCHUK,,,UA,,,,,
,visa,,,KREMENCHUK,,,UA,,,,,
,visa,,,KREMENCHUK,,,UA,,,,,
,visa,,,KREMENCHUK,,,UA,,,,,
,visa,,,KREMENCHUK,,,UA,,,,,
,visa,,,KREMENCHUK,,,UA,,,,,
,visa,,,KREMENCHUK,,,UA,,,,,
,visa,,,KREMENCHUK,,,UA,,,,,
,visa,,,KREMENCHUK,,,UA,,,,,
,visa,,,KREMENCHUK,,,UA,,,,,
,visa,,,KREMENCHUK,,,UA,,,,,
,visa,,,KREMENCHUK,,,UA,,,,,
,visa,,,KREMENCHUK,,,UA,,,,,
