Ref,Spider,Name,Address,City,State,Zipcode,Country,Phone,Website,Hours,Brand,WikiData
https://stores.aldi.us/#4420234,aldi_sud_us,ALDI  551 N Line St,,Columbia City,IN,,US,+1 844-444-1047,https://stores.aldi.us/in/columbia-city/551-n-line-st,Mo-Su 09:00-20:00,ALDI,Q41171672
1914,anytime_fitness,Anytime Fitness,,Columbia City,IN,,US,+1 260-248-4444,https://www.anytimefitness.com/gyms/1914/columbia-city-in-46725/,,Anytime Fitness,Q4778364
85782,asics_us,Dunham's Sports,496 W Plaza Dr,Columbia City,IN,,US,+1 260-248-2068,,,asics,Q327247
684,autozone_us,AutoZone Auto Parts Columbia City,,Columbia City,IN,,US,+1 260-248-2964,https://www.autozone.com/locations/in/columbia-city/485-n-main-st.html,Mo-Sa 07:30-21:00; Su 08:30-20:00,AutoZone,Q4826087
792,bealls_us,Bealls,,Columbia City,IN,,US,+1 260-248-2564,https://stores.bealls.com/in/columbiacity/clothing-store-792.html,Mo-Th 09:00-21:00; Fr-Sa 09:00-21:30; Su 10:00-20:00,Bealls,Q4876153
131898,bluerhino,Speedway #8035,,Columbia City,IN,,US,+1 260-244-4008,,,Blue Rhino,Q65681213
155294,bluerhino,Walgreens #7907,,Columbia City,IN,,US,+1 260-244-5491,,,Blue Rhino,Q65681213
221038,bluerhino,Dollar General #1136,,COLUMBIA CITY,IN,,US,+1 812-565-9121,,,Blue Rhino,Q65681213
239742,bluerhino,Circle K #4702454,,COLUMBIA CITY,IN,,US,+1 260-248-2036,,,Blue Rhino,Q65681213
143792,bluerhino,Kroger #874 - Central - Fuel Site,,Columbia City,IN,,US,+1 260-248-3810,,,Blue Rhino,Q65681213
10518,bluerhino,Kroger #874 - Central,,Columbia City,IN,,US,+1 260-244-6022,,,Blue Rhino,Q65681213
47301,bobevans_us,Columbia City,,Columbia City,IN,,US,+1 260-244-4200,https://www.bobevans.com/locations/columbia-city,Mo-Th 07:00-20:00; Fr-Sa 07:00-21:00; Su 07:00-20:00,Bob Evans,Q4932386
27482449475014672500100000000000,bp,BP,,Columbia City,IN,,US,+1 260-244-2812,,24/7,BP,Q152057
64319706235714672500100000000000,bp,BP,,Columbia City,IN,,US,+1 260-244-2615,,Mo-Su 05:00-23:00,BP,Q152057
2038785,chase_us,Columbia City - New branch,,Columbia City,IN,,US,+1 260-248-8111,https://locator.chase.com/in/columbia-city/620-countryside-dr,Mo-Fr 09:00-17:00; Sa 09:00-13:00,Chase,Q524629
11070,chevrolet,CITY CHEVROLET,,Columbia City,IN,,US,+1 260-244-5111,https://www.gocitychevy.com,Mo-Fr 08:30-19:00; Sa 08:30-17:00,Chevrolet,Q29570
46482,citi,ATM CROSSROADS BANK,,Columbia City,IN,,US,,,,Citibank,Q857063
71502,citi,ATM ProFed Columbia City Branch,,Columbia City,IN,,US,,,,Citibank,Q857063
76510,citi,ATM Speedway,,Columbia City,IN,,US,,,,Citibank,Q857063
79873,citi,ATM SPEEDWAY8035,,Columbia City,IN,,US,,,,Citibank,Q857063
91738,citi,ATM Walgreens,,Columbia City,IN,,US,,,,Citibank,Q857063
49859,citi,ATM CVS,,Columbia City,IN,,US,,,,Citibank,Q857063
83774,citi,ATM THREE RIVERS FEDERAL CREDIT UNION,,Columbia City,IN,,US,,,,Citibank,Q857063
59787,citi,ATM HORIZON BANK,,Columbia City,IN,,US,,,,Citibank,Q857063
43514,citi,ATM Circle K,,Columbia City,IN,,US,,,,Citibank,Q857063
61530,citi,ATM Kroger,,Columbia City,IN,,US,,,,Citibank,Q857063
,credit_union_us,3Rivers FCU,,Columbia City,IN,,US,+1 800-825-3641,,Mo-Fr 09:00-06:00; Sa 09:00-01:00,,
70202151,cricket_wireless,Cricket Wireless Authorized Retailer,,Columbia City,IN,,US,+1 260-212-0250,https://www.cricketwireless.com/stores/ll/US/IN/Columbia-City/438-W-Plaza-Dr,Mo-Sa 10:00-19:00; Su 12:00-17:00,Cricket Wireless,Q5184987
898,culvers_us,"Culver's of Columbia City, IN - Connexion Way",,Columbia City,IN,,US,+1 260-212-1086,http://www.culvers.com/restaurants/columbia-city-in-connexion-way,Mo-Fr 10:00-22:00; Su 10:00-22:00,Culver's,Q1143589
6502,cvs_us,CVS Pharmacy,,Columbia City,IN,,US,+1 260-244-3113,https://www.cvs.com/store-locator/columbia-city-in-pharmacies/286-w-walker-way-columbia-city-in-46725/storeid=6502,Mo-Sa 08:00-21:00; Su 09:00-20:00,CVS Pharmacy,Q2078880
6102,dollartree,DollarTree,,Columbia City,IN,,US,+1 260-212-6001,,Mo-Sa 09:00-21:00; Su 09:00-20:00,Dollar Tree,Q5289230
206,dunhams_sports_us,COLUMBIA CITY IN,,COLUMBIA CITY,IN,,US,+1 260-248-2068,https://www.dunhamssports.com/store-details?storeID=206,Mo-Sa 09:00-21:00; Su 10:00-19:00,Dunham's Sports,Q5315238
348346,dunkin_us,Dunkin',,Columbia City,IN,,US,+1 260-244-2662,https://locations.dunkindonuts.com/en/in/columbia-city/545-w-connexion-way/348346,Mo-Su 04:30-19:00,Dunkin',Q847743
https://www.edwardjones.com/us-en/financial-advisor/ashley-feighner,edwardjones,Ashley Feighner,,Columbia City,IN,,US,+1 260-212-5467,https://www.edwardjones.com/us-en/financial-advisor/ashley-feighner,Mo-Th 08:00-17:00; Fr 08:00-15:00,Edward Jones,Q5343830
E10865,enterprise,Columbia City,,Columbia City,IN,,US,+1 260-244-3284,,,Enterprise Rent-A-Car,Q17085454
https://local.fedex.com/#25199545,fedex,,,Columbia City,IN,,US,+1 800-463-3339,https://local.fedex.com/en-us/in/columbia-city/kp5h6,,FedEx,Q459477
https://local.fedex.com/#27758609,fedex,FedEx Authorized ShipCenter,,Columbia City,IN,,US,+1 260-248-8608,https://local.fedex.com/en-us/in/columbia-city/00f8n,,FedEx,Q459477
Motorcraft3510USAEnglish,ford,City Ford,,Indiana,IN,,US,+1 260-244-5171,,,Ford,Q44294
Motorcraft3515USAEnglish,ford,"Trier Ford, Inc.",,Indiana,IN,,US,+1 260-244-5171,,,Ford,Q44294
https://www.ford.com/dealerships/dealer-details/in/columbia-city/city-ford/,ford_dealers_us,City Ford,,Columbia City,IN,,US,+1 260-295-0005,https://www.ford.com/dealerships/dealer-details/in/columbia-city/city-ford/,Mo-Fr 08:30-19:00; Sa 08:30-17:00,Ford Motor Company,Q44294
https://salons.greatclips.com/us/in/columbia-city/482-a-w-plaza-dr,greatclips,Great Clips,,Columbia City,IN,,US,+1 260-248-2795,https://salons.greatclips.com/us/in/columbia-city/482-a-w-plaza-dr,Mo-Fr 09:00-19:00; Sa 09:00-18:00; Su 09:00-17:00,Great Clips,Q5598967
18875,h_r_block,H&R Block,,Columbia City,IN,,US,+1 260-244-5040,https://www.hrblock.com/local-tax-offices/indiana/columbia-city/543-a-n-line-st/18875/,,H&R Block,Q5627799
https://office.jacksonhewitt.com/#27580165,jackson_hewitt,Jackson Hewitt,,Columbia City,IN,,US,+1 260-222-6833,https://office.jacksonhewitt.com/tax-preparation-services-locations/en/in/columbia-city/402-w-plaza-dr/51425,Mo-Sa 10:00-18:00; Su 12:00-16:00,Jackson Hewitt,Q6117132
https://locations.jimmyjohns.com/in/columbiacity/sandwiches-4097.html,jimmy_johns,Jimmy John's,,Columbia City,IN,,US,+1 260-212-0917,https://locations.jimmyjohns.com/in/columbiacity/sandwiches-4097.html,,Jimmy John's,Q1689380
https://locations.kfc.com/#11248636,kfc,Chicken Nuggets Near Columbia City,,Columbia City,IN,,US,,https://locations.kfc.com/in/columbia-city/323-west-plaza-drive/chickennugget,Mo-Su 10:30-22:00,KFC,Q524757
160778,marathon_petroleum_us,GOSS GROCERY,,Columbia City,IN,,US,+1 260-691-3151,,,Marathon,Q458363
285709,marathon_petroleum_us,Pak-A-Sak #28,,Columbia City,IN,,US,+1 260-244-7231,,,Arco,Q304769
159597,marathon_petroleum_us,All American 7 Cnty Ln,,Columbia City,IN,,US,+1 260-625-9951,,,Marathon,Q458363
159893,marathon_petroleum_us,GSL Petroleum Inc,,Columbia City,IN,,US,+1 260-244-4265,,,Marathon,Q458363
157631,marathon_petroleum_us,COLUMBIA CITY MARATHON,,COLUMBIA CITY,IN,,US,+1 260-248-2473,,,Marathon,Q458363
71478496,moneygram,WAL-MART - #1425,,COLUMBIA CITY,IN,,US,+1 260-244-4060,,Mo-Su 07:00-21:00,MoneyGram,Q1944412
https://locations.oreillyauto.com/in/columbiacity/check-engine-light-testing-2050.html,oreilly,Your Columbia City O'Reilly Auto Parts Store,,Columbia City,IN,,US,+1 260-244-3117,https://locations.oreillyauto.com/in/columbiacity/check-engine-light-testing-2050.html,Mo-Sa 07:00-21:00; Su 08:00-20:00,O'Reilly Auto Parts,Q7071951
https://locations.oreillyauto.com/in/columbiacity/wiper-installation-2050.html,oreilly,Your Columbia City O'Reilly Auto Parts Store,,Columbia City,IN,,US,+1 260-244-3117,https://locations.oreillyauto.com/in/columbiacity/wiper-installation-2050.html,Mo-Sa 07:00-21:00; Su 08:00-20:00,O'Reilly Auto Parts,Q7071951
https://locations.oreillyauto.com/in/columbiacity/battery-testing-2050.html,oreilly,Your Columbia City O'Reilly Auto Parts Store,,Columbia City,IN,,US,+1 260-244-3117,https://locations.oreillyauto.com/in/columbiacity/battery-testing-2050.html,Mo-Sa 07:00-21:00; Su 08:00-20:00,O'Reilly Auto Parts,Q7071951
https://locations.oreillyauto.com/in/columbiacity/autopartes-2050.html,oreilly,Tu tienda O'Reilly Auto Parts en Columbia City,,Columbia City,IN,,US,+1 260-244-3117,https://locations.oreillyauto.com/in/columbiacity/autopartes-2050.html,Mo-Sa 07:00-21:00; Su 08:00-20:00,O'Reilly Auto Parts,Q7071951
https://locations.papajohns.com/#10691041,papa_johns,Papa John's,,Columbia City,IN,,US,+1 260-248-2688,https://locations.papajohns.com/united-states/in/46725/columbia-city/492-west-plaza-drive-b,Mo-Th 10:00-23:00; Fr-Sa 10:00-24:00; Su 10:00-23:00,Papa John's Pizza,Q2759586
022347,penske,Columbia City Goin&#39; Post,,COLUMBIA CITY,IN,,US,+1 260-905-3128,https://www.pensketruckrental.com/locations/us/indiana/columbia_city/022347/,,Penske,Q81234570
in_columbia-city_101-frontage-rd,pizza_hut_us,101 Frontage Rd,,Columbia City,IN,,US,+1 260-248-2566,https://locations.pizzahut.com/in/columbia-city/101-frontage-rd,,Pizza Hut,Q191615
3969,rentacenter,Rent-A-Center,,Columbia City,IN,,US,+1 260-248-2458,https://locations.rentacenter.com/indiana/columbia-city/643-n-countryside-dr/,Mo-Sa 10:00-18:00,Rent-A-Center,Q7313497
https://restaurants.subway.com/#14905651,subway,Subway,,Columbia City Whitley,IN,,US,+1 260-244-7899,https://restaurants.subway.com/united-states/in/columbia-city/101-hoosier-dr,Mo-Su 10:00-20:00,Subway,Q244457
https://restaurants.subway.com/#14915169,subway,Subway,,Columbia City Whitley,IN,,US,+1 260-244-1805,https://restaurants.subway.com/united-states/in/columbia-city/206-s-chicago-st,Mo-Sa 10:00-20:00; Su 10:00-14:00,Subway,Q244457
0643375900,sunoco_us,Sunoco,,COLUMBIA CITY,IN,,US,+1 260-740-1326,,Mo-Sa 06:00-19:00; Su 09:00-17:00,Sunoco,Q1423218
https://locations.tacobell.com/#6144126,taco_bell,Taco Bell,,Columbia City,IN,,US,+1 260-244-3313,https://locations.tacobell.com/in/columbia-city/337-w-plaza-dr.html,Mo-Th 07:00-02:00; Fr-Sa 07:00-03:00; Su 07:00-02:00,Taco Bell,Q752941
1358768,usps,COLUMBIA CITY,,COLUMBIA CITY,IN,,US,+1 260-244-5962,,Mo-Fr 08:30-17:00; Sa 09:00-12:00,United States Postal Service,Q668687
4672500018,usps_collection_boxes,USPS COLLECTION BOX - BLUE BOX,115 N CHAUNCEY ST,COLUMBIA CITY,IN,,US,,,,United States Postal Service,Q668687
4672500022,usps_collection_boxes,USPS COLLECTION BOX - PO LOBBY,115 N CHAUNCEY ST,COLUMBIA CITY,IN,,US,,,,United States Postal Service,Q668687
4672500026,usps_collection_boxes,USPS COLLECTION BOX - PO LOBBY,115 N CHAUNCEY ST,COLUMBIA CITY,IN,,US,,,,United States Postal Service,Q668687
4672500001,usps_collection_boxes,USPS COLLECTION BOX - BLUE BOX,402 W PLAZA DR,COLUMBIA CITY,IN,,US,,,,United States Postal Service,Q668687
4672500006,usps_collection_boxes,USPS COLLECTION BOX - BLUE BOX,535 N LINE ST,COLUMBIA CITY,IN,,US,,,,United States Postal Service,Q668687
4672500004,usps_collection_boxes,USPS COLLECTION BOX - BLUE BOX,631 COUNTRY SIDE DR,COLUMBIA CITY,IN,,US,,,,United States Postal Service,Q668687
A00000205133,verizon_us,Wireless Zone Columbia City,,COLUMBIA CITY,IN,,US,+1 260-244-2929,https://www.verizon.com/stores/details/indiana/columbia-city/wireless-zone-columbia-city-1488922/,Mo-Fr 09:00-19:00; Sa 09:00-18:00; Su 10:00-16:00,Verizon,Q919641
,visa,,,LEO,IN,,US,,,,,
,visa,,,COLUMBIA CITY,IN,,US,,,,,
,visa,,,COLUMBIA CITY,IN,,US,,,,,
,visa,,,COLUMBIA CITY,IN,,US,,,,,
,visa,,,COLUMBIA CITY,IN,,US,,,,,
,visa,,,COLUMBIA CITY,IN,,US,,,,,
,visa,,,COLUMBIA CITY,IN,,US,,,,,
,visa,,,COLUMBIA CITY,IN,,US,,,,,
,visa,,,COLUMBIA CITY,IN,,US,,,,,
,visa,,,COLUMBIA CITY,IN,,US,,,,,
,visa,,,COLUMBIA CITY,IN,,US,,,,,
,visa,,,COLUMBIA CITY,IN,,US,,,,,
,visa,,,COLUMBIA CITY,IN,,US,,,,,
,visa,,,COLUMBIA CITY,IN,,US,,,,,
,visa,,,COLUMBIA CITY,IN,,US,,,,,
,visa,,,COLUMBIA CITY,IN,,US,,,,,
,visa,,,COLUMBIA CITY,IN,,US,,,,,
,visa,,,COLUMBIA,IN,,US,,,,,
,visa,,,COLUMBIA CITY,IN,,US,,,,,
,visa,,,COLUMBIA CITY,IN,,US,,,,,
,visa,,,COLUMBIA CITY,IN,,US,,,,,
,visa,,,COLUMBIA CITY,IN,,US,,,,,
,visa,,,COLUMBIA CITY,IN,,US,,,,,
,visa,,,COLUMBIA,IN,,US,,,,,
,visa,,,COLUMBIA CITY,IN,,US,,,,,
,visa,,,COLUMBIA CITY,IN,,US,,,,,
,visa,,,COLUMBIA CITY,IN,,US,,,,,
,visa,,,COLUMBIA CITY,IN,,US,,,,,
,visa,,,COLUMBIA CITY,IN,,US,,,,,
,visa,,,COLUMBIA CITY,IN,,US,,,,,
,visa,,,COLUMBIA CITY,IN,,US,,,,,
,visa,,,COLUMBIA CITY,IN,,US,,,,,
,visa,,,COLUMBIA CITY,IN,,US,,,,,
,visa,,,COLUMBIA CITY,IN,,US,,,,,
,visa,,,COLUMBIA CITY,IN,,US,,,,,
,visa,,,COLUMBIA CITY,IN,,US,,,,,
https://www.walgreens.com/locator/walgreens-535+n+line+st-columbia+city-in-46725/id=7907,walgreens,Walgreens,,Columbia City,IN,,US,+1 260-244-5491,https://www.walgreens.com/locator/walgreens-535+n+line+st-columbia+city-in-46725/id=7907,Mo-Su 09:00-21:00,Walgreens,Q1591889
https://locations.wendys.com/#9251663,wendys,"Wendy's Columbia City, In in Columbia City, IN",,Columbia City,IN,,US,+1 260-244-3620,https://locations.wendys.com/united-states/in/columbia-city/521-n-line-street,"Mo-Su 06:00-10:30,09:00-22:00",Wendy's,Q550258
15fbbaa48ad1174a4572dc21f4173f19,western_union,WALMART #001425,,Columbia City,IN,,US,+1 260-244-4060,https://location.westernunion.com/us/in/columbia-city/15fbbaa48ad1174a4572dc21f4173f19,Mo-Su 07:00-21:00,Western Union,Q861042
