Ref,Spider,Name,Address,City,State,Zipcode,Country,Phone,Website,Hours,Brand,WikiData
72361599,moneygram,RAAZ CYBER CAFE AND GRAPHICS CENTER - MA,,MAHARAJGANJ,,,IN,+91 95652 08048,,Mo-Su 08:00-22:00,MoneyGram,Q1944412
72484340,moneygram,A K MOBILE CENTER - GORAKHPUR - GORAKHPU,,GORAKHPUR,,,IN,+91 79058 32012,,Mo-Su 08:00-22:00,MoneyGram,Q1944412
72485255,moneygram,ANSARI DIGITAL STUDIO - GORAKHPUR - GORA,,GORAKHPUR,,,IN,+91 98890 11105,,Mo-Su 08:00-22:00,MoneyGram,Q1944412
72484065,moneygram,VISHWAKARMA ENTERPRISES - MAHARAJGANJ -,,MAHARAJGANJ,,,IN,+91 95329 86857,,Mo-Su 08:00-22:00,MoneyGram,Q1944412
72610538,moneygram,BHARAT PHOTO STUDIO,,MAHARAJGANJ,,,IN,+91 98392 67020,,Mo-Su 08:00-21:00,MoneyGram,Q1944412
72586947,moneygram,ARADHAYA INTERNET CAFE AND MOBILE CARE,,MAHARAJGANJ,,,IN,+91 99356 27540,,Mo-Su 08:00-21:00,MoneyGram,Q1944412
72668179,moneygram,NIZAMI ONLINE CENTER - GORAKHAPUR,,GORAKHAPUR,,,IN,+91 99354 85710,,Mo-Su 08:00-20:00,MoneyGram,Q1944412
72682511,moneygram,SAR JEE TOUR AND TRAVELS - GORAKHPUR,,GORAKHPUR,,,IN,+91 88588 96644,,Mo-Su 08:00-20:00,MoneyGram,Q1944412
72768448,moneygram,SHINE PHOTO STUDIO - GORAKHPUR,,GORAKHPUR,,,IN,+91 83182 99225,,Mo-Su 08:00-20:00,MoneyGram,Q1944412
72767562,moneygram,MAHI TOUR AND TRAVELS - GORAKHPUR,,GORAKHPUR,,,IN,+91 99361 84632,,Mo-Su 08:00-20:00,MoneyGram,Q1944412
72767342,moneygram,NEXT ZONE MOBILE CARE & TRAVELS SERVICE,,MAHARAJGANJ,,,IN,+91 70073 83201,,Mo-Su 09:00-21:00,MoneyGram,Q1944412
73272111,moneygram,LARI STUDIO,,GORAKHPUR,,,IN,+91 98384 33055,,Mo-Su 08:00-21:00,MoneyGram,Q1944412
72974009,moneygram,NOORI TOUR TRAVELS,,GORAKHPUR,,,IN,+91 89538 95321,,Mo-Su 08:00-21:00,MoneyGram,Q1944412
72975778,moneygram,RAAZ CYBER CAFE AND GRAPHICS CENTER,,GORAKHPUR,,,IN,+91 95652 08048,,Mo-Su 08:00-21:00,MoneyGram,Q1944412
73411202,moneygram,GRAHAK SEVA KENDRA,,MAHARAJGANJ,,,IN,+91 94157 12692,,Mo-Su 08:00-21:00,MoneyGram,Q1944412
73502001,moneygram,SONU TOUR & TRAVELS - MAHARAJGANJ,,MAHARAJGANJ,,,IN,+91 98380 33144,,Mo-Su 09:00-21:00,MoneyGram,Q1944412
73616502,moneygram,FAIJAN TOUR AND TRAVELS,,MAHARAJGANJ,,,IN,+91 99847 39821,,Mo-Su 08:00-21:00,MoneyGram,Q1944412
73647526,moneygram,RAHMAT MOBILE REPAIRING,,MAHARAJGANJ,,,IN,+91 80526 47515,,Mo-Su 08:00-21:00,MoneyGram,Q1944412
74239645,moneygram,BITTU MOBILE SHOP,,MAHARAJGANJ,,,IN,+91 70547 77024,,Mo-Su 08:00-21:00,MoneyGram,Q1944412
74491098,moneygram,AAYAT TOURS AND TRAVELS,,MAHARAJGANJ,,,IN,+91 97958 09894,,Mo-Su 04:00-24:00,MoneyGram,Q1944412
74529876,moneygram,BHARAT COMPUTER TOURS AND TRAVELS,,GORAKHPUR,,,IN,+91 96530 64262,,Mo-Su 08:00-21:00,MoneyGram,Q1944412
74762442,moneygram,LADLI JAN SEWA KENDRA,,MAHARAJGANJ,,,IN,+91 78601 29095,,Mo-Su 08:00-22:00,MoneyGram,Q1944412
74884456,moneygram,SARWAR TOURS AND TRAVELS,,MAHARAJGANJ,,,IN,+91 95548 01503,,Mo-Su 01:00-24:00,MoneyGram,Q1944412
71229409,moneygram,GUPTA TRAVELS - GORAKHPUR - TAJPIPRA PIP,,GORAKHPUR,,,IN,+91 99363 26680,,Mo-Su 09:00-21:00,MoneyGram,Q1944412
