Ref,Spider,Name,Address,City,State,Zipcode,Country,Phone,Website,Hours,Brand,WikiData
89195,citi,ATM Walgreens,,Tulsa,OK,,US,,,,Citibank,Q857063
om_ok_tulsa_2329-w--edison,cititrends,Citi Trends,,Tulsa,OK,,US,+1 539-399-2311,https://locations.cititrends.com/ok/tulsa/2329-w--edison.html,Mo 10:00-21:00; Tu 10:00-21:00; We 10:00-21:00; Th 10:00-21:00; Fr 10:00-21:00; Sa 10:00-21:00; Su 12:00-18:00,Citi Trends,Q5122438
9014,fresenius_kidney_care_us,Fresenius Kidney Care - North Tulsa,,Tulsa,OK,,US,+1 800-881-5101,https://www.freseniuskidneycare.com/dialysis-centers/oklahoma/9014,Mo-Sa 05:00-23:00,,
https://office.jacksonhewitt.com/#27576832,jackson_hewitt,Jackson Hewitt,,Tulsa,OK,,US,+1 615-657-5421,https://office.jacksonhewitt.com/tax-preparation-services-locations/en/ok/tulsa/31-south-49th-west-ave/19188,Mo-Th 10:00-19:00; Fr 10:00-18:00; Sa 09:00-17:00; Su 13:00-17:00,Jackson Hewitt,Q6117132
129400,little_free_library,Wayman Tisdale Fine Arts Academy #129400 Tulsa OK,,Tulsa,OK,,US,,,,Little Free Library,Q6650101
80756,little_free_library,Big Creative Collective #80756 Tulsa OK,,Tulsa,OK,,US,,,,Little Free Library,Q6650101
51124,little_free_library,Lisa Tresch #51124 Tulsa OK,,Tulsa,OK,,US,,,,Little Free Library,Q6650101
https://locations.quiktrip.com/#16003779,quiktrip_us,QuikTrip Store #59 220 N Gilcrease Museum Rd,,Tulsa,OK,,US,+1 918-592-7700,https://locations.quiktrip.com/ok/tulsa/220-n-gilcrease-museum-rd,24/7,QuikTrip,Q7271953
https://stations.sinclairoil.com/ok/tulsa/6520-charles-page-blvd,sinclair_us,Sinclair Gas Station,,Tulsa,OK,,US,+1 918-606-3816,https://stations.sinclairoil.com/ok/tulsa/6520-charles-page-blvd,Mo-Su 07:00-23:00,Sinclair,Q1290900
https://stations.sinclairoil.com/ok/tulsa/7700-charles-page-blvd,sinclair_us,Sinclair Gas Station,,Tulsa,OK,,US,+1 918-245-0032,https://stations.sinclairoil.com/ok/tulsa/7700-charles-page-blvd,Mo-Su 05:00-22:00,Sinclair,Q1290900
https://restaurants.subway.com/#14913794,subway,Subway,,Tulsa Osage,OK,,US,+1 918-382-9000,https://restaurants.subway.com/united-states/ok/tulsa/523-n-gilcrease-museum-road,Mo-Fr 08:00-21:30; Sa-Su 08:00-21:00,Subway,Q244457
7412700005,usps_collection_boxes,USPS COLLECTION BOX - BLUE BOX,19 S 49TH WEST AVE,TULSA,OK,,US,,,,United States Postal Service,Q668687
,visa,,,TULSA,OK,,US,,,,,
,visa,,,TULSA,OK,,US,,,,,
,visa,,,TULSA,OK,,US,,,,,
,visa,,,TULSA,OK,,US,,,,,
,visa,,,CHECOTAH,OK,,US,,,,,
,visa,,,TULSA,OK,,US,,,,,
,visa,,,TULSA,OK,,US,,,,,
,visa,,,TULSA,OK,,US,,,,,
,visa,,,TULSA,OK,,US,,,,,
,visa,,,TULSA,OK,,US,,,,,
,visa,,,TULSA,OK,,US,,,,,
,visa,,,TULSA,OK,,US,,,,,
,visa,,,TULSA,OK,,US,,,,,
,visa,,,TULSA,OK,,US,,,,,
,visa,,,TULSA,OK,,US,,,,,
,visa,,,WEST TULSA,OK,,US,,,,,
,visa,,,WEST TULSA,OK,,US,,,,,
,visa,,,TULSA,OK,,US,,,,,
,visa,,,TULSA,OK,,US,,,,,
,visa,,,WEST TULSA,OK,,US,,,,,
,visa,,,TULSA,OK,,US,,,,,
,visa,,,TULSA,OK,,US,,,,,
,visa,,,TULSA,OK,,US,,,,,
,visa,,,TULSA,OK,,US,,,,,
,visa,,,TULSA,OK,,US,,,,,
,visa,,,TULSA,OK,,US,,,,,
,visa,,,WEST TULSA,OK,,US,,,,,
https://www.walgreens.com/locator/walgreens-2323+w+edison+st-tulsa-ok-74127/id=15772,walgreens,Walgreens,,Tulsa,OK,,US,+1 918-582-1375,https://www.walgreens.com/locator/walgreens-2323+w+edison+st-tulsa-ok-74127/id=15772,Mo-Fr 08:00-21:00; Sa 09:00-21:00; Su 10:00-21:00,Walgreens,Q1591889
https://www.walgreens.com/locator/walgreens-717+s+houston+ave-tulsa-ok-74127/id=16026,walgreens,Walgreens,,Tulsa,OK,,US,+1 918-585-1957,https://www.walgreens.com/locator/walgreens-717+s+houston+ave-tulsa-ok-74127/id=16026,Mo 00:00-24:00; Tu-Fr 08:00-18:00; Sa-Su 00:00-24:00,Walgreens,Q1591889
