Ref,Spider,Name,Address,City,State,Zipcode,Country,Phone,Website,Hours,Brand,WikiData
65e335c0ac304155b890f1b5,commerzbank_de,UVV19-Beratungsfiliale ohne Kasse UVV19,,Altenburg,,,DE,+49 69 580008000,https://filialsuche.commerzbank.de/de/branch-name/Altenburg,Mo-Fr 09:00-13:00,Commerzbank,Q157617
65e335c0ac304155b890f1ba,commerzbank_de,UVV19-Beratungsfiliale ohne Kasse UVV19,,Zwickau,,,DE,+49 69 580008000,https://filialsuche.commerzbank.de/de/branch-name/Zwickau,Mo-Fr 09:00-12:30,Commerzbank,Q157617
65e335c0ac304155b890f1d5,commerzbank_de,UVV19-Beratungsfiliale ohne Kasse UVV19,,Zeitz,,,DE,+49 69 580008000,https://filialsuche.commerzbank.de/de/branch-name/Zeitz,Mo-Th 10:00-13:00,Commerzbank,Q157617
65e335c0ac304155b890f1ce,commerzbank_de,UVV19-Beratungsfiliale ohne Kasse UVV19,,Lutherstadt Wittenberg,,,DE,+49 69 580008000,https://filialsuche.commerzbank.de/de/branch-name/Wittenberg,Mo-Fr 09:00-13:00,Commerzbank,Q157617
65e335c0ac304155b890f1c0,commerzbank_de,UVV19-Beratungsfiliale ohne Kasse UVV19,,Reichenbach,,,DE,+49 69 580008000,https://filialsuche.commerzbank.de/de/branch-name/Reichenbach,Mo-Fr 09:00-12:30,Commerzbank,Q157617
65e335c0ac304155b890f1bc,commerzbank_de,UVV19-Beratungsfiliale ohne Kasse UVV19,,Plauen,,,DE,+49 69 580008000,https://filialsuche.commerzbank.de/de/branch-name/Plauen,Mo-Fr 09:00-12:30,Commerzbank,Q157617
65e335c0ac304155b890f1d7,commerzbank_de,UVV19-Beratungsfiliale ohne Kasse UVV19,,Naumburg,,,DE,+49 69 580008000,https://filialsuche.commerzbank.de/de/branch-name/Naumburg,Mo-Th 10:00-13:00,Commerzbank,Q157617
65e335c0ac304155b890f1d4,commerzbank_de,UVV19-Beratungsfiliale ohne Kasse UVV19,,Merseburg,,,DE,+49 69 580008000,https://filialsuche.commerzbank.de/de/branch-name/Merseburg,Mo-Th 10:00-13:00,Commerzbank,Q157617
65e335c0ac304155b890f1c1,commerzbank_de,UVV19-Beratungsfiliale ohne Kasse UVV19,,Limbach-Oberfrohna,,,DE,+49 69 580008000,https://filialsuche.commerzbank.de/de/branch-name/Limbach%20-%20Oberfrohna,Mo-Fr 09:00-12:30,Commerzbank,Q157617
65e335c0ac304155b890f1b3,commerzbank_de,BFIL - Beratungsfiliale mit Kasse,,Leipzig,,,DE,+49 69 580008000,https://filialsuche.commerzbank.de/de/branch-name/Leipzig-Thomaskirchhof,Mo-Fr 10:00-13:00,Commerzbank,Q157617
65e335c0ac304155b890f0c0,commerzbank_de,UVV19-Beratungsfiliale ohne Kasse UVV19,,Leipzig,,,DE,+49 69 580008000,https://filialsuche.commerzbank.de/de/branch-name/Leipzig-Lindenauer%20Markt,Mo-Fr 09:00-13:00,Commerzbank,Q157617
65e335c0ac304155b890f1b4,commerzbank_de,UVV19-Beratungsfiliale ohne Kasse UVV19,,Leipzig,,,DE,+49 69 580008000,https://filialsuche.commerzbank.de/de/branch-name/Leipzig-Landsberger%20Stra%C3%9Fe,Mo-Fr 09:00-13:00,Commerzbank,Q157617
65e335c0ac304155b890f1d8,commerzbank_de,UVV19-Beratungsfiliale ohne Kasse UVV19,,KÃ¶then,,,DE,+49 69 580008000,https://filialsuche.commerzbank.de/de/branch-name/K%C3%B6then,Mo-Fr 09:00-13:00,Commerzbank,Q157617
65e335c0ac304155b890f1db,commerzbank_de,UVV19-Beratungsfiliale ohne Kasse UVV19,,Hermsdorf,,,DE,+49 69 580008000,https://filialsuche.commerzbank.de/de/branch-name/Hermsdorf,Mo 09:00-16:00; Tu 09:00-18:00; We 09:00-12:00; Th 09:00-18:00; Fr 09:00-14:00,Commerzbank,Q157617
65e335c0ac304155b890f1d3,commerzbank_de,BFIL - Beratungsfiliale mit Kasse,,Halle,,,DE,+49 69 580008000,https://filialsuche.commerzbank.de/de/branch-name/Halle-Markt,Mo-Fr 10:00-13:00,Commerzbank,Q157617
65e335c0ac304155b890f1b7,commerzbank_de,UVV19-Beratungsfiliale ohne Kasse UVV19,,Eilenburg,,,DE,+49 69 580008000,https://filialsuche.commerzbank.de/de/branch-name/Eilenburg,Mo-Fr 09:00-13:00,Commerzbank,Q157617
65e335c0ac304155b890f1cd,commerzbank_de,UVV19-Beratungsfiliale ohne Kasse UVV19,,Dessau-RoÃlau,,,DE,+49 69 580008000,https://filialsuche.commerzbank.de/de/branch-name/Dessau,Mo-Fr 09:00-13:00,Commerzbank,Q157617
65e335c0ac304155b890f1b8,commerzbank_de,UVV19-Beratungsfiliale ohne Kasse UVV19,,Delitzsch,,,DE,+49 69 580008000,https://filialsuche.commerzbank.de/de/branch-name/Delitzsch,Mo-Fr 09:00-13:00,Commerzbank,Q157617
65e335c0ac304155b890f1c2,commerzbank_de,UVV19-Beratungsfiliale ohne Kasse UVV19,,Crimmitschau,,,DE,+49 69 580008000,https://filialsuche.commerzbank.de/de/branch-name/Crimmitschau,Mo-Fr 09:00-12:30,Commerzbank,Q157617
65e335c0ac304155b890f1d6,commerzbank_de,UVV19-Beratungsfiliale ohne Kasse UVV19,,Bernburg,,,DE,+49 69 580008000,https://filialsuche.commerzbank.de/de/branch-name/Bernburg,Mo-Fr 09:00-13:00,Commerzbank,Q157617
65e335c0ac304155b890f1be,commerzbank_de,UVV19-Beratungsfiliale ohne Kasse UVV19,,Auerbach,,,DE,+49 69 580008000,https://filialsuche.commerzbank.de/de/branch-name/Auerbach%20%2F%20Vogtl.,Mo-Fr 09:00-12:30,Commerzbank,Q157617
65e335c0ac304155b890f1cf,commerzbank_de,UVV19-Beratungsfiliale ohne Kasse UVV19,,Aschersleben,,,DE,+49 69 580008000,https://filialsuche.commerzbank.de/de/branch-name/Aschersleben,Mo-Fr 09:00-13:00,Commerzbank,Q157617
