Ref,Spider,Name,Address,City,State,Zipcode,Country,Phone,Website,Hours,Brand,WikiData
1018767,alamo,Stamford Sheraton Hotel,,Stamford,CT,,US,+1 203-425-9902,,,ALAMO,Q1429287
500 Summer Street,allied_universal,Allied Universal,,Stamford,CT,,US,+1 203-348-6657,https://www.aus.com/stamford-security-systems-services,,Allied Universal,Q4732537
22557,asics_us,SIX:02,100 Greyrock Place ,Stamford,CT,,US,+1 203-325-0897,,,asics,Q327247
62113,asics_us,Foot Locker,100 Greyrock Pl,Stamford,CT,,US,+1 203-328-7519,,,asics,Q327247
80458,att_us,STAMFORD TOWN CTR MALL STORE,,Stamford,CT,,US,+1 203-324-0222,https://www.att.com/stores/connecticut/stamford/80458,Mo-Sa 10:00-20:00; Su 11:00-18:00,AT&T,Q298594
https://locators.bankofamerica.com/ct/stamford/atm-stamford-105579.html,bankofamerica,Bank of America Walk-Up ATM | Stamford Town Center,,Stamford,CT,,US,+1 844-401-8500,https://locators.bankofamerica.com/ct/stamford/atm-stamford-105579.html,,Bank of America,Q487907
https://locators.bankofamerica.com/ct/stamford/financial-centers-stamford-16908.html,bankofamerica,Bank of America Financial Center & Walk-Up ATM | Stamford Downtown,,Stamford,CT,,US,+1 203-388-0158,https://locators.bankofamerica.com/ct/stamford/financial-centers-stamford-16908.html,Mo-Fr 10:00-16:00,Bank of America,Q487907
2038210,chase_us,Stamford Prospect St - New branch - Newly renovated,,Stamford,CT,,US,+1 203-969-3235,https://locator.chase.com/ct/stamford/45-prospect-st,Mo-Fr 09:00-17:00; Sa 09:00-14:00,Chase,Q524629
022314,citizens_us,Citizens Stamford,,Stamford,CT,,US,+1 203-674-6743,,Mo-Fr 09:00-16:00; Sa 09:00-12:00,Citizens,Q5122694
ATM-1080,citizens_us,,,Stamford,CT,,US,,,24/7,Citizens,Q5122694
stamford/6060,claires,Shop Ear Piercings & Jewelry at Stamford Town Center,,STAMFORD,CT,,US,+1 203-323-4483,https://stores.claires.com/us/ct/stamford/6060.html,Mo-Sa 10:00-20:00; Su 11:00-18:00,Claire's,Q2974996
3719,cvs_us,CVS Pharmacy,,Stamford,CT,,US,+1 203-363-0627,https://www.cvs.com/store-locator/stamford-ct-pharmacies/11-forest-st-stamford-ct-06901/storeid=3719,Mo-Su 07:00-23:00,CVS Pharmacy,Q2078880
16872,cvs_us,CVS Pharmacy,,Stamford,CT,,US,+1 203-388-0038,https://www.cvs.com/store-locator/stamford-ct-pharmacies/21-broad-st-stamford-ct-06901/storeid=16872,"Mo-Fr 10:00-13:30,14:00-20:00; Sa 10:00-13:30,14:00-18:00; Su 11:00-13:30,14:00-17:00",CVS Pharmacy,Q2078880
connecticut-stamford,deloitte,Deloitte - Stamford,,Stamford,CT,,US,+1 203-708-4000,https://www2.deloitte.com/us/en/footerlinks/office-locator/connecticut/stamford.html,,Deloitte,Q491748
336890,dunkin_us,Dunkin',,Stamford,CT,,US,+1 203-967-4505,https://locations.dunkindonuts.com/en/ct/stamford/30-station-pl/336890,Mo-Su 05:00-21:00,Dunkin',Q847743
303307,dunkin_us,Dunkin',,Stamford,CT,,US,+1 203-252-2450,https://locations.dunkindonuts.com/en/ct/stamford/135-prospect-st/303307,Mo-Su 05:00-22:00,Dunkin',Q847743
336522,dunkin_us,Dunkin',,Stamford,CT,,US,+1 203-323-3335,https://locations.dunkindonuts.com/en/ct/stamford/450-main-street/336522,Mo-Su 05:00-22:00,Dunkin',Q847743
100-greyrock-place,express,Stamford Town Center,,Stamford,CT,,US,+1 203-327-5030,https://stores.express.com/us/ct/stamford/100-greyrock-place,Mo-Sa 10:00-20:00; Su 11:00-18:00,Express,Q1384784
https://stores.footlocker.com/ct/stamford/100-grayrock-place-7395.html,footlocker,"Foot Locker in Stamford: Stamford, Connecticut | Approved | Own It",,Stamford,CT,,US,+1 203-328-7519,https://stores.footlocker.com/ct/stamford/100-grayrock-place-7395.html,Mo-Sa 10:00-20:00; Su 11:00-18:00,Foot Locker,Q63335
7683,h_r_block,H&R Block,,Stamford,CT,,US,+1 203-359-1040,https://www.hrblock.com/local-tax-offices/connecticut/stamford/600-summer-st/7683/,,H&R Block,Q5627799
bedford-street-garage,indigo,Bedford Street Garage,,Stamford,CT,,US,+1 203-977-5962,,,Indigo,Q3559970
bell-street-garage,indigo,Bell Street Garage,,Stamford,CT,,US,+1 203-977-5425,,,Indigo,Q3559970
summer-street-garage,indigo,Summer Street Garage,,Stamford,CT,,US,+1 203-977-5962,,,Indigo,Q3559970
stamford-marriott,indigo,Stamford Marriott,,Stamford,CT,,US,+1 203-357-9555,,,Indigo,Q3559970
stamford-beach-operation,indigo,Stamford Beach Operation,,Stamford,CT,,US,(203) 000-0000,,,Indigo,Q3559970
boa-merrill-lynch-301-tresser-blvd,indigo,BOA - Merrill Lynch - 301 Tresser Blvd,,Stamford,CT,,US,+1 203-356-8858,,,Indigo,Q3559970
https://locations.ironmountain.com/ct/stamford/im177/,iron_mountain,"Iron Mountain in 6 Landmark Square Office 465, Stamford, Connecticut | Secure Shredding, Scanning, IT Asset Disposition, & Records Management",,Stamford,CT,,US,+1 800-899-4766,https://locations.ironmountain.com/ct/stamford/im177/,,Iron Mountain Incorporated,Q1673079
STFCY,marriott,Courtyard Stamford Downtown,,Stamford,CT,,US,+1 203-358-8822,https://www.marriott.com/STFCY,,Courtyard by Marriott,Q1053170
STFCT,marriott,Stamford Marriott Hotel & Spa,,Stamford,CT,,US,+1 203-357-9555,https://www.marriott.com/STFCT,,Marriott Hotels & Resorts,Q3918608
STFRD,marriott,Residence Inn Stamford Downtown,,Stamford,CT,,US,+1 203-564-5000,https://www.marriott.com/STFRD,,Residence Inn by Marriott,Q7315394
66287524,moneygram,CVS - #3719,,STAMFORD,CT,,US,+1 203-363-0627,,Mo-Su 07:00-22:00,MoneyGram,Q1944412
https://locations.mtb.com/#3027811,mt_bank_us,M&T Bank,,,CT,,US,+1 203-359-6013,https://locations.mtb.com/ct/stamford/bank-branches-and-atms-stamford-ct-8201.html,Mo-Th 09:00-17:00; Fr 09:00-18:00,M&T Bank,Q3272257
1019536,national,Stamford Sheraton Hotel,,Stamford,CT,,US,+1 888-826-6890,,,NATIONAL,Q1424142
https://restaurants.subway.com/#14897003,subway,Subway,,Stamford Fairfield,CT,,US,+1 203-357-1221,https://restaurants.subway.com/united-states/ct/stamford/116-broad-st,Mo-Fr 08:00-24:00; Sa 08:30-02:00; Su 09:00-22:00,Subway,Q244457
https://restaurants.subway.com/#14902886,subway,Subway,,Stamford Fairfield,CT,,US,+1 203-975-9935,https://restaurants.subway.com/united-states/ct/stamford/1996-w-main-st,Mo-Sa 08:00-22:00; Su 08:30-22:00,Subway,Q244457
https://restaurants.subway.com/#14908381,subway,Subway Stamford Town Center,,Stamford Fairfield,CT,,US,+1 203-359-3087,https://restaurants.subway.com/united-states/ct/stamford/100-grey-rock-place,Mo-Su 10:00-19:00,Subway,Q244457
https://stores.sunglasshut.com/us/ct/stamford/151-broad-st,sunglass_hut_1,Sunglass Hut at Macy's,,Stamford,CT,,US,+1 203-357-0255,https://stores.sunglasshut.com/us/ct/stamford/151-broad-st,Mo-Sa 10:00-21:00; Su 11:00-19:00,Sunglass Hut,Q136311
3810,tmobile_us,Stamford Mall,,Stamford,CT,,US,+1 203-425-9600,https://www.t-mobile.com/store-locator/ct/stamford/stamford-mall,,T-Mobile,Q3511885
1481674,usps,SUMMER ATLANTIC,,STAMFORD,CT,,US,+1 203-316-0379,,Mo-Fr 09:00-17:00; Sa 09:00-12:00,United States Postal Service,Q668687
0690100045,usps_collection_boxes,USPS COLLECTION BOX - BLUE BOX,100 PROSPECT ST,STAMFORD,CT,,US,,,,United States Postal Service,Q668687
0690100020,usps_collection_boxes,USPS COLLECTION BOX - BLUE BOX,900 BEDFORD ST,STAMFORD,CT,,US,,,,United States Postal Service,Q668687
0690100116,usps_collection_boxes,USPS COLLECTION BOX - BLUE BOX,301 TRESSER BLVD,STAMFORD,CT,,US,,,,United States Postal Service,Q668687
0690100025,usps_collection_boxes,USPS COLLECTION BOX - BLUE BOX,201 BROAD ST,STAMFORD,CT,,US,,,,United States Postal Service,Q668687
0690100084,usps_collection_boxes,USPS COLLECTION BOX - BLUE BOX,350 BEDFORD ST,STAMFORD,CT,,US,,,,United States Postal Service,Q668687
0690100013,usps_collection_boxes,USPS COLLECTION BOX - BLUE BOX,135 BEDFORD ST,STAMFORD,CT,,US,,,,United States Postal Service,Q668687
0690100120,usps_collection_boxes,USPS COLLECTION BOX - PO LOBBY,550 SUMMER ST,STAMFORD,CT,,US,,,,United States Postal Service,Q668687
0690100122,usps_collection_boxes,USPS COLLECTION BOX - PO LOBBY,550 SUMMER ST,STAMFORD,CT,,US,,,,United States Postal Service,Q668687
0690100003,usps_collection_boxes,USPS COLLECTION BOX - BLUE BOX,81 ATLANTIC ST,STAMFORD,CT,,US,,,,United States Postal Service,Q668687
0690100062,usps_collection_boxes,USPS COLLECTION BOX - BLUE BOX,550 SUMMER ST,STAMFORD,CT,,US,,,,United States Postal Service,Q668687
0690100041,usps_collection_boxes,USPS COLLECTION BOX - BLUE BOX,84 W PARK PL,STAMFORD,CT,,US,,,,United States Postal Service,Q668687
0690100075,usps_collection_boxes,USPS COLLECTION BOX - BLUE BOX,909 WASHINGTON BLVD,STAMFORD,CT,,US,,,,United States Postal Service,Q668687
0690100072,usps_collection_boxes,USPS COLLECTION BOX - BLUE BOX,750 WASHINGTON BLVD,STAMFORD,CT,,US,,,,United States Postal Service,Q668687
0690100033,usps_collection_boxes,USPS COLLECTION BOX - BLUE BOX,26 MAIN ST,STAMFORD,CT,,US,,,,United States Postal Service,Q668687
USA443,vans,Vans Store - Stamford Town Center,,Stamford,CT,,US,+1 203-323-2116,https://www.vans.com/en-us/stores/ct/stamford/usa443,Mo-Sa 11:00-19:00; Su 11:00-18:00,Vans,Q1135366
,visa,,,STAMFORD,CT,,US,,,,,
,visa,,,STAMFORD,CT,,US,,,,,
,visa,,,STAMFORD,CT,,US,,,,,
,visa,,,STAMFORD,CT,,US,,,,,
,visa,,,STAMFORD,CT,,US,,,,,
,visa,,,STAMFORD,CT,,US,,,,,
,visa,,,STAMFORD,CT,,US,,,,,
,visa,,,STAMFORD,CT,,US,,,,,
,visa,,,STAMFORD,CT,,US,,,,,
,visa,,,STAMFORD,CT,,US,,,,,
,visa,,,STAMFORD,CT,,US,,,,,
,visa,,,STAMFORD,CT,,US,,,,,
,visa,,,STAMFORD,CT,,US,,,,,
,visa,,,STAMFORD,CT,,US,,,,,
,visa,,,STAMFORD,CT,,US,,,,,
,visa,,,STAMFORD,CT,,US,,,,,
,visa,,,STAMFORD,CT,,US,,,,,
,visa,,,STAMFORD,CT,,US,,,,,
,visa,,,STAMFORD,CT,,US,,,,,
,visa,,,STAMFORD,CT,,US,,,,,
,visa,,,RIDGEFIELD,CT,,US,,,,,
330__MAIN__ST_STAMFORD_CT_06901,wellsfargo,,330 MAIN ST,STAMFORD,CT,,US,+1 800-869-3557,https://www.wellsfargo.com/locator/bank/330__MAIN__ST_STAMFORD_CT_06901/,,Wells Fargo,Q744149
ad4f10fd79775c6b40ca7edbf75ad467,western_union,SMOKE LAND VARIETY,,Stamford,CT,,US,+1 203-276-9484,https://location.westernunion.com/us/ct/stamford/ad4f10fd79775c6b40ca7edbf75ad467,Mo-Su 08:00-23:00,Western Union,Q861042
