Ref,Spider,Name,Address,City,State,Zipcode,Country,Phone,Website,Hours,Brand,WikiData
1018864,alamo,Saginaw MBS International Airport,,Freeland,MI,,US,+1 989-695-2222,,,ALAMO,Q1429287
https://www.avis.com/en/locations/us/mi/freeland/mbs,avis,Avis U S A Freeland Airport,,Freeland,MI,,US,+1 989-695-5333,https://www.avis.com/en/locations/us/mi/freeland/mbs,Mo-We 08:00-23:00; Th 09:00-23:00; Fr 09:00-18:30; Sa 10:00-18:15; Su 10:00-23:00,Avis,Q791136
790,biggby_coffee_us,Biggby Coffee,115 S. Main St. Suite 1A Freeland MI 48623,Freeland,MI,,US,+1 989-573-8380,,Mo-Sa 06:00-20:00; Su 07:00-20:00,Biggby Coffee,Q4906876
199106,bluerhino,Pats Do It Best Hardware #1777,,Freeland,MI,,US,+1 989-695-9821,,,Blue Rhino,Q65681213
44576,chevrolet,"BURT WATSON CHEVROLET, INC.",,Freeland,MI,,US,+1 989-695-5366,https://www.burtwatsonfreeland.com,Mo-Th 08:30-19:00; Fr 08:30-18:00; Sa 08:30-15:00,Chevrolet,Q29570
https://www.edwardjones.com/us-en/financial-advisor/jeff-parrish,edwardjones,Jeff Parrish,,Freeland,MI,,US,+1 989-832-2951,https://www.edwardjones.com/us-en/financial-advisor/jeff-parrish,Mo-Th 08:30-17:00; Fr 08:30-16:00,Edward Jones,Q5343830
MBST61,enterprise,Saginaw MBS International Airport,,Freeland,MI,,US,+1 989-695-8800,,,Enterprise Rent-A-Car,Q17085454
200319708,exxonmobil,7-ELEVEN 36939,,FREELAND,MI,,US,+1 989-695-5302,https://www.exxon.com/en/find-station/mobil-freeland-mi-7eleven36939-200319708,24/7,Mobil,Q109676002
Motorcraft4540USAEnglish,ford,McDonald Ford Inc,,Michigan,MI,,US,+1 989-695-5566,,,Ford,Q44294
https://www.ford.com/dealerships/dealer-details/mi/freeland/mcdonald-ford-inc/,ford_dealers_us,McDonald Ford Inc,,Freeland,MI,,US,+1 989-625-0051,https://www.ford.com/dealerships/dealer-details/mi/freeland/mcdonald-ford-inc/,Mo 08:30-20:00; Tu-We 08:30-18:00; Th 08:30-20:00; Fr 08:30-18:00; Sa 09:00-15:00,Ford Motor Company,Q44294
https://locations.jimmyjohns.com/mi/freeland/sandwiches-4374.html,jimmy_johns,Jimmy John's,,Freeland,MI,,US,+1 989-573-5030,https://locations.jimmyjohns.com/mi/freeland/sandwiches-4374.html,,Jimmy John's,Q1689380
161084,marathon_petroleum_us,FAST PAX FOOD STORES 8,,FREELAND,MI,,US,+1 989-695-9561,,,Marathon,Q458363
1019367,national,Saginaw MBS International Airport,,Freeland,MI,,US,+1 989-695-2222,,,NATIONAL,Q1424142
https://restaurants.subway.com/#14899843,subway,Subway,,Freeland Saginaw,MI,,US,+1 989-695-2105,https://restaurants.subway.com/united-states/mi/freeland/130-main-street,Mo-Su 08:00-21:00,Subway,Q244457
0404072100,sunoco_us,Sunoco,,FREELAND,MI,,US,,,Mo-Su 05:00-01:00,Sunoco,Q1423218
https://locations.tacobell.com/#6146413,taco_bell,Taco Bell,,Freeland,MI,,US,+1 989-695-2893,https://locations.tacobell.com/mi/freeland/138-s--main-st.html,Mo-Th 07:00-01:00; Fr-Sa 07:00-02:00; Su 07:00-01:00,Taco Bell,Q752941
1364107,usps,FREELAND,,FREELAND,MI,,US,+1 989-695-8140,,Mo-Fr 09:00-17:00; Sa 10:00-12:00,United States Postal Service,Q668687
4862300005,usps_collection_boxes,USPS COLLECTION BOX - BLUE BOX,7620 MIDLAND RD,FREELAND,MI,,US,,,,United States Postal Service,Q668687
4862300001,usps_collection_boxes,USPS COLLECTION BOX - BLUE BOX,7736 MIDLAND RD STE 3,FREELAND,MI,,US,,,,United States Postal Service,Q668687
4862300004,usps_collection_boxes,USPS COLLECTION BOX - PO LOBBY,7736 MIDLAND RD STE 3,FREELAND,MI,,US,,,,United States Postal Service,Q668687
4862300006,usps_collection_boxes,USPS COLLECTION BOX - PO LOBBY,7736 MIDLAND RD STE 3,FREELAND,MI,,US,,,,United States Postal Service,Q668687
,visa,,,SAGINAW,MI,,US,,,,,
,visa,,,FREELAND,MI,,US,,,,,
,visa,,,FREELAND,MI,,US,,,,,
,visa,,,FREELAND,MI,,US,,,,,
,visa,,,FREELAND,MI,,US,,,,,
,visa,,,FREELAND,MI,,US,,,,,
,visa,,,FREELAND,MI,,US,,,,,
,visa,,,FREELAND,MI,,US,,,,,
,visa,,,FREELAND,MI,,US,,,,,
,visa,,,FREELAND,MI,,US,,,,,
,visa,,,FREELAND,MI,,US,,,,,
,visa,,,FREELAND,MI,,US,,,,,
3110acfa95a957fd6f04303dba0081c6,western_union,7-ELEVEN #36939,,Freeland,MI,,US,+1 989-270-3905,https://location.westernunion.com/us/mi/freeland/3110acfa95a957fd6f04303dba0081c6,,Western Union,Q861042
