Ref,Spider,Name,Address,City,State,Zipcode,Country,Phone,Website,Hours,Brand,WikiData
IN132120,reebok,Reebok Exclusive Store - Siwan,,Siwan,Bihar,,IN,,,,Reebok,Q466183
e3a5a63ade88c31bd237847caf4b3ce3,western_union,SAHIL ENTERPRISES,,Siwan,BIHAR,,IN,+91 87890 81330,https://location.westernunion.com/in/bihar/siwan/e3a5a63ade88c31bd237847caf4b3ce3,Mo-Su 07:00-21:00,Western Union,Q861042
9977b4a5785fe44170f2f537a0cdcaaa,western_union,AAA ONLINE SERVICES,,Siwan,BIHAR,,IN,+91 79907 22144,https://location.westernunion.com/in/bihar/siwan/9977b4a5785fe44170f2f537a0cdcaaa,Mo-Su 07:00-21:00,Western Union,Q861042
716457a672d7e7d492d695586e024295,western_union,AADITY COMMUNICATION AND BANKING SERVICE,,Siwan,BIHAR,,IN,+91 79923 19828,https://location.westernunion.com/in/bihar/siwan/716457a672d7e7d492d695586e024295,Mo-Su 07:00-21:00,Western Union,Q861042
be6a49243edc63a495ed9e779b484150,western_union,GAYATRI TRAVELS,,Siwan,BIHAR,,IN,+91 99344 05146,https://location.westernunion.com/in/bihar/siwan/be6a49243edc63a495ed9e779b484150,Mo-Su 07:30-23:30,Western Union,Q861042
1b843bfedd3f152b1c8ec22d30caefd9,western_union,NEW FASHION MART,,Siwan,BIHAR,,IN,+91 98911 94253,https://location.westernunion.com/in/bihar/siwan/1b843bfedd3f152b1c8ec22d30caefd9,Mo-Su 07:00-21:00,Western Union,Q861042
66496b76ed2a07ca42ef2a5ac7f59d58,western_union,SONU FURNITURE,,Siwan,BIHAR,,IN,+91 94708 44752,https://location.westernunion.com/in/bihar/siwan/66496b76ed2a07ca42ef2a5ac7f59d58,Mo-Su 08:00-20:00,Western Union,Q861042
50628984d0ae75015521bee2774528d6,western_union,ARYAN BANKING SEWA,,Siwan,BIHAR,,IN,+91 75619 02786,https://location.westernunion.com/in/bihar/siwan/50628984d0ae75015521bee2774528d6,Mo-Su 07:00-21:00,Western Union,Q861042
2b1b5304744d68b979292557296fc924,western_union,SRI LAXMI JENERAL STORE,,Siwan,BIHAR,,IN,+91 99734 94205,https://location.westernunion.com/in/bihar/siwan/2b1b5304744d68b979292557296fc924,Mo-Su 08:00-20:00,Western Union,Q861042
4675bd521d608a366bc3ab3c66a9d3ac,western_union,PANKAJ MOBILE CENTRE,,Siwan,BIHAR,,IN,+91 88738 08625,https://location.westernunion.com/in/bihar/siwan/4675bd521d608a366bc3ab3c66a9d3ac,Mo-Su 07:00-21:00,Western Union,Q861042
94f8a1cc566bdd4ce35d1d176a8fe664,western_union,UNIMONI SIWAN SIW,,Siwan,BIHAR,,IN,+91 93088 39004,https://location.westernunion.com/in/bihar/siwan/94f8a1cc566bdd4ce35d1d176a8fe664,Mo-Fr 09:30-18:30; Sa 09:30-18:00,Western Union,Q861042
729693ec4794e69cfe87157792d870e7,western_union,A K MOBILE,,Siwan,BIHAR,,IN,+91 70040 92513,https://location.westernunion.com/in/bihar/siwan/729693ec4794e69cfe87157792d870e7,Mo-Su 07:00-21:00,Western Union,Q861042
633fa70fe0489b752274c20004471633,western_union,ZAKIR ENTERPRISES,,Siwan,BIHAR,,IN,+91 99319 39786,https://location.westernunion.com/in/bihar/siwan/633fa70fe0489b752274c20004471633,Mo-Su 07:00-21:00,Western Union,Q861042
795c7962a6de1c8b44b58df3997b29bd,western_union,GITANJALI VIDEO MIXING LAB,,Siwan,BIHAR,,IN,+91 95465 75075,https://location.westernunion.com/in/bihar/siwan/795c7962a6de1c8b44b58df3997b29bd,Mo-Su 07:00-21:00,Western Union,Q861042
2ae8a2ee12453c97008761c83da99663,western_union,M A ENTERPRISES,,Siwan,BIHAR,,IN,+91 99557 35716,https://location.westernunion.com/in/bihar/siwan/2ae8a2ee12453c97008761c83da99663,Mo-Su 08:00-20:00,Western Union,Q861042
58f33da8caa2b59212bacfbeda7ae767,western_union,DIGITE Q ZONE,,Siwan,BIHAR,,IN,+91 80837 65682,https://location.westernunion.com/in/bihar/siwan/58f33da8caa2b59212bacfbeda7ae767,Mo-Su 09:30-23:00,Western Union,Q861042
29bec593d26bd1947f92c5137247d189,western_union,SONU TOUR TRAVELS,,Siwan,BIHAR,,IN,+91 70044 06799,https://location.westernunion.com/in/bihar/siwan/29bec593d26bd1947f92c5137247d189,Mo-Su 08:00-21:00,Western Union,Q861042
f2c47c2d2189f9dbc64a0ea4d6e46ba4,western_union,MAHI TRAVELS,,Siwan,BIHAR,,IN,+91 91282 95786,https://location.westernunion.com/in/bihar/siwan/f2c47c2d2189f9dbc64a0ea4d6e46ba4,Mo-Su 07:30-23:30,Western Union,Q861042
18c05ab39c65a8fe315890d7440cd3dc,western_union,STAR MOBILE REPAIRING CENTRE,,Siwan,BIHAR,,IN,+91 85072 20375,https://location.westernunion.com/in/bihar/siwan/18c05ab39c65a8fe315890d7440cd3dc,Mo-Su 07:00-21:00,Western Union,Q861042
7fe59a4aa18e2ad950946bf31b27bd40,western_union,ANSARI TRAVELS,,Siwan,BIHAR,,IN,+91 99346 89151,https://location.westernunion.com/in/bihar/siwan/7fe59a4aa18e2ad950946bf31b27bd40,Mo-Su 06:00-23:00,Western Union,Q861042
63d5aec34b8b3ff5df9644f8367b50d2,western_union,SHREE RADHA KRISHNA ONLINE CENTRE,,Siwan,BIHAR,,IN,+91 91638 88662,https://location.westernunion.com/in/bihar/siwan/63d5aec34b8b3ff5df9644f8367b50d2,Mo-Su 07:00-21:00,Western Union,Q861042
91150ca18d6d33dfa3925d81a76709b7,western_union,LAXMI COMMUNICATION,,Siwan,BIHAR,,IN,+91 99556 65221,https://location.westernunion.com/in/bihar/siwan/91150ca18d6d33dfa3925d81a76709b7,Mo-Su 07:00-21:00,Western Union,Q861042
9f0c1ff9f44c504cf76618e12e9c5d28,western_union,SHUBHAM ONLINE SERVICES,,Siwan,BIHAR,,IN,+91 82525 35501,https://location.westernunion.com/in/bihar/siwan/9f0c1ff9f44c504cf76618e12e9c5d28,Mo-Su 07:30-23:30,Western Union,Q861042
c5db95c83dd1d89d5e1a8406aa8f56fb,western_union,NEW MAA SHARMA TRADERS,,Siwan,BIHAR,,IN,+91 97718 34122,https://location.westernunion.com/in/bihar/siwan/c5db95c83dd1d89d5e1a8406aa8f56fb,Mo-Su 07:00-21:00,Western Union,Q861042
6aa283d5cccfd6f8251a1d3c810f436c,western_union,MUTHOOT FINCORP LIMITED,,Siwan,BIHAR,,IN,+91 6154 242 309,https://location.westernunion.com/in/bihar/siwan/6aa283d5cccfd6f8251a1d3c810f436c,Mo-Sa 09:00-17:30,Western Union,Q861042
5ff4e4c056e50d040ce59315e61bfa9c,western_union,GUFRAN PARADISE,,Siwan,BIHAR,,IN,+91 99737 32765,https://location.westernunion.com/in/bihar/siwan/5ff4e4c056e50d040ce59315e61bfa9c,Mo-Su 09:30-20:30,Western Union,Q861042
bedcce0bb8c1918a662e5e0a07b6bc31,western_union,BHARAT SOCIAL SERVICES,,Siwan,BIHAR,,IN,+91 88735 36786,https://location.westernunion.com/in/bihar/siwan/bedcce0bb8c1918a662e5e0a07b6bc31,Mo-Su 08:00-20:00,Western Union,Q861042
98ed4c9579eef4ee2b833e6e646c255f,western_union,DOLPHIN MOBILE,,Siwan,BIHAR,,IN,+91 99340 75775,https://location.westernunion.com/in/bihar/siwan/98ed4c9579eef4ee2b833e6e646c255f,Mo-Su 07:00-21:00,Western Union,Q861042
78b18bc819fa4eaa28b7a66754c395e5,western_union,MAA SHARMA TRADERS,,Siwan,BIHAR,,IN,+91 97711 49731,https://location.westernunion.com/in/bihar/siwan/78b18bc819fa4eaa28b7a66754c395e5,Mo-Su 08:00-20:00,Western Union,Q861042
df4553ef22fd93392d3bed33cce79602,western_union,NEW KUSHWAHA READYMADE STORE,,Siwan,BIHAR,,IN,+91 99344 40474,https://location.westernunion.com/in/bihar/siwan/df4553ef22fd93392d3bed33cce79602,Mo-Su 07:00-21:00,Western Union,Q861042
98bd0a10b23fa8a0543344522743c4c5,western_union,MUTHOOT FINANCE LTD,,Siwan,BIHAR,,IN,+91 6154 246 021,https://location.westernunion.com/in/bihar/siwan/98bd0a10b23fa8a0543344522743c4c5,Mo-Sa 09:00-17:30,Western Union,Q861042
1260228fdb00777ccf0b6e9ad617920b,western_union,M/S S.K. TRAVELS,,Siwan,BIHAR,,IN,+91 94316 83828,https://location.westernunion.com/in/bihar/siwan/1260228fdb00777ccf0b6e9ad617920b,Mo-Su 07:00-22:00,Western Union,Q861042
49e3d7ee757864b324a2fb5f241f41f5,western_union,RAJU MOBILE,,Siwan,BIHAR,,IN,+91 70046 75779,https://location.westernunion.com/in/bihar/siwan/49e3d7ee757864b324a2fb5f241f41f5,Mo-Su 07:00-21:00,Western Union,Q861042
fc1a2f664b884900dbaa468979de51a4,western_union,SONU TRAVELS,,Siwan,BIHAR,,IN,+91 78691 83328,https://location.westernunion.com/in/bihar/siwan/fc1a2f664b884900dbaa468979de51a4,Mo-Su 07:00-21:00,Western Union,Q861042
4ade61ec7de79136294fff4e676df3f4,western_union,NEW SONALI TRAVELS,,Siwan,BIHAR,,IN,+91 95706 94101,https://location.westernunion.com/in/bihar/siwan/4ade61ec7de79136294fff4e676df3f4,Mo-Su 07:00-21:00,Western Union,Q861042
1ac60ad8af4d20038585785512cf66d5,western_union,NEW BIHAR MODERN FURNITURE HOUSE,,Siwan,BIHAR,,IN,+91 91538 83557,https://location.westernunion.com/in/bihar/siwan/1ac60ad8af4d20038585785512cf66d5,Mo-Su 07:00-21:00,Western Union,Q861042
39d5ae82c473d85dfebb448b8befe8cd,western_union,R H ENTERPRISES,,Siwan,BIHAR,,IN,+91 80839 74500,https://location.westernunion.com/in/bihar/siwan/39d5ae82c473d85dfebb448b8befe8cd,Mo-Su 07:00-21:00,Western Union,Q861042
9a42021b5a2ba632c8c2d3029caa9ec2,western_union,SIWAN FINANCE SERVICE,,Siwan,BIHAR,,IN,+91 91101 31908,https://location.westernunion.com/in/bihar/siwan/9a42021b5a2ba632c8c2d3029caa9ec2,Mo-Su 07:00-21:00,Western Union,Q861042
93d9c1e3ad4f41cc26c10f9452b6ac4d,western_union,RAJ ENTERPRISES,,Siwan,BIHAR,,IN,+91 72748 72895,https://location.westernunion.com/in/bihar/siwan/93d9c1e3ad4f41cc26c10f9452b6ac4d,Mo-Su 07:00-21:00,Western Union,Q861042
49748ef22e62dbfbca948617a964ecaa,western_union,VICKY ENTERPRISES,,Siwan,BIHAR,,IN,+91 95252 84566,https://location.westernunion.com/in/bihar/siwan/49748ef22e62dbfbca948617a964ecaa,Mo-Su 07:00-21:00,Western Union,Q861042
3488f12c056b77eaae2511dd8fe8a690,western_union,BARI COMMUNICATION,,Siwan,BIHAR,,IN,+91 95768 35960,https://location.westernunion.com/in/bihar/siwan/3488f12c056b77eaae2511dd8fe8a690,Mo-Su 07:00-21:00,Western Union,Q861042
e9aa980771151da5410403dfc50963b3,western_union,ALISHA INFOTECH TRAVELS,,Siwan,BIHAR,,IN,+91 99349 90820,https://location.westernunion.com/in/bihar/siwan/e9aa980771151da5410403dfc50963b3,Mo-Su 07:30-23:30,Western Union,Q861042
8ad0c44ad79c1ce05b017cb80ad1e2a9,western_union,ISHAN TRAVELS,,Siwan,BIHAR,,IN,+91 84093 71526,https://location.westernunion.com/in/bihar/siwan/8ad0c44ad79c1ce05b017cb80ad1e2a9,Mo-Su 08:00-22:00,Western Union,Q861042
c96a131a87906adba8933f8756b82f5b,western_union,ANJALI GARMENTS,,Siwan,BIHAR,,IN,(+91) 6154-9905244111,https://location.westernunion.com/in/bihar/siwan/c96a131a87906adba8933f8756b82f5b,Mo-Su 06:00-23:00,Western Union,Q861042
6d838e98d9a733215a6a3a08127c61e8,western_union,NITISH ENTERPRISES,,Siwan,BIHAR,,IN,+91 99344 55258,https://location.westernunion.com/in/bihar/siwan/6d838e98d9a733215a6a3a08127c61e8,Mo-Su 06:00-23:00,Western Union,Q861042
33f13ee9ba09f6e949f28b1a9326f783,western_union,BULBUL COMMUNICATION,,Siwan,BIHAR,,IN,+91 90311 20385,https://location.westernunion.com/in/bihar/siwan/33f13ee9ba09f6e949f28b1a9326f783,Mo-Su 08:00-20:00,Western Union,Q861042
466ed6358f228efe569eee7edc837d4b,western_union,INDIA POST PAYMENTS BANK LTD,,Siwan,BIHAR,,IN,+91 6154 242 925,https://location.westernunion.com/in/bihar/siwan/466ed6358f228efe569eee7edc837d4b,Mo-Fr 10:00-17:00; Sa 10:00-13:00; Su 08:00-21:00,Western Union,Q861042
0d815efb505611c180baad32630fb744,western_union,GUFRAN PARADISE,,Siwan,BIHAR,,IN,+91 77599 31865,https://location.westernunion.com/in/bihar/siwan/0d815efb505611c180baad32630fb744,Mo-Su 07:00-21:00,Western Union,Q861042
be391812ccde95d6f6e8a94583d88c2e,western_union,JAI SHRI ENTERPRISES,,Siwan,BIHAR,,IN,+91 94724 66256,https://location.westernunion.com/in/bihar/siwan/be391812ccde95d6f6e8a94583d88c2e,Mo-Su 07:00-21:00,Western Union,Q861042
1f6d6a851d322269d0dcccccb6930189,western_union,PRASAD DRUG STORE,,Siwan,BIHAR,,IN,+91 99340 58044,https://location.westernunion.com/in/bihar/siwan/1f6d6a851d322269d0dcccccb6930189,Mo-Su 07:00-21:00,Western Union,Q861042
d34c9487c807ec706e45dfb68feac326,western_union,OCEAN SERVICE POINT,,Siwan,BIHAR,,IN,+91 84048 99566,https://location.westernunion.com/in/bihar/siwan/d34c9487c807ec706e45dfb68feac326,Mo-Su 07:00-21:00,Western Union,Q861042
53298e64cb9c86bc78694ce77a03c7f2,western_union,R K STUDIO AND DIGITAL COLOUR LAB,,Siwan,BIHAR,,IN,+91 99395 21104,https://location.westernunion.com/in/bihar/siwan/53298e64cb9c86bc78694ce77a03c7f2,Mo-Su 07:00-21:00,Western Union,Q861042
40f4f4b574e0bda722c9b8802325978f,western_union,SUBH SEWA SANSTHAN,,Siwan,BIHAR,,IN,+91 91996 81541,https://location.westernunion.com/in/bihar/siwan/40f4f4b574e0bda722c9b8802325978f,Mo-Su 09:00-21:00,Western Union,Q861042
09a8ad4bc7628666261c23cbef6aa426,western_union,GUPTA DRUG STORE,,Siwan,BIHAR,,IN,+91 99552 89208,https://location.westernunion.com/in/bihar/siwan/09a8ad4bc7628666261c23cbef6aa426,Mo-Su 07:00-21:30,Western Union,Q861042
41dfcc757d07b65cbd6e998e3a36ad35,western_union,GLOBAL MOBILE ELECTRONICS,,Siwan,BIHAR,,IN,+91 90066 26415,https://location.westernunion.com/in/bihar/siwan/41dfcc757d07b65cbd6e998e3a36ad35,Mo-Su 08:00-20:00,Western Union,Q861042
b9c439d8aca67acd9dd9a91839dca26d,western_union,CUSTOMER SERVICE POINT,,Siwan,BIHAR,,IN,+91 75629 14656,https://location.westernunion.com/in/bihar/siwan/b9c439d8aca67acd9dd9a91839dca26d,Mo-Su 07:00-21:00,Western Union,Q861042
e1a55878c430884ee5ba6090751af3ce,western_union,BHARAT MACHINE DRYCLEANERS,,Siwan,BIHAR,,IN,+91 70700 93293,https://location.westernunion.com/in/bihar/siwan/e1a55878c430884ee5ba6090751af3ce,Mo-Su 08:00-20:00,Western Union,Q861042
23f18d53fa5590444ea98e973e502f1d,western_union,M S CHAND TRAVELS,,Siwan,BIHAR,,IN,+91 99349 92080,https://location.westernunion.com/in/bihar/siwan/23f18d53fa5590444ea98e973e502f1d,Mo-Su 07:00-21:00,Western Union,Q861042
