Ref,Spider,Name,Address,City,State,Zipcode,Country,Phone,Website,Hours,Brand,WikiData
/locations/propane-offices/colorado/alamosa/625-west-ave,amerigas,"AmerGas Propane | Alamosa, Colorado",,Alamosa,CO,,US,+1 719-589-2545,/locations/propane-offices/colorado/alamosa/625-west-ave,,AmeriGas,Q23130318
3462,anytime_fitness,Anytime Fitness,,Alamosa,CO,,US,+1 719-589-6520,https://www.anytimefitness.com/gyms/3462/alamosa-co-81101/,,Anytime Fitness,Q4778364
https://locations.arbys.com/co/alamosa/1705-main-st.html,arbys_us,"Arby's Fast-Food Drive Through Near You in Alamosa, CO",,Alamosa,CO,,US,+1 719-589-2747,https://locations.arbys.com/co/alamosa/1705-main-st.html,Mo-Sa 10:00-21:00; Su 10:30-16:30,Arby's,Q630866
3424,autozone_us,AutoZone Auto Parts Alamosa,,Alamosa,CO,,US,+1 719-587-0124,https://www.autozone.com/locations/co/alamosa/7-s-craft-dr.html,Mo-Sa 08:00-21:00; Su 09:00-19:00,AutoZone,Q4826087
205375,bluerhino,Alta Convenience #3501,,Alamosa,CO,,US,+1 719-589-4637,,,Blue Rhino,Q65681213
82287,bluerhino,City Mkt #422,,Alamosa,CO,,US,+1 719-589-2492,,,Blue Rhino,Q65681213
205380,bluerhino,Alta Convenience #5601,,Alamosa,CO,,US,+1 719-589-9434,,,Blue Rhino,Q65681213
156337,bluerhino,Walgreens #9912,,Alamosa,CO,,US,+1 719-589-3165,,,Blue Rhino,Q65681213
164261,bluerhino,Family Dollar #04599,,ALAMOSA,CO,,US,+1 719-589-4503,,,Blue Rhino,Q65681213
205381,bluerhino,Alta Convenience #5725,,Alamosa,CO,,US,+1 719-589-2912,,,Blue Rhino,Q65681213
205373,bluerhino,Alta Convenience #3301,,Alamosa,CO,,US,+1 719-589-9234,,,Blue Rhino,Q65681213
178023,bluerhino,Loaf N Jug #10,,Alamosa,CO,,US,+1 719-589-3214,,,Blue Rhino,Q65681213
220486,bluerhino,Dollar General #22449,,ALAMOSA,CO,,US,+1 719-496-1582,,,Blue Rhino,Q65681213
KR002080,bmo,City Market,,Alamosa,CO,,US,,,,BMO,Q4835981
KR002534,bmo,Loaf N Jug,,Alamosa,CO,,US,,,,BMO,Q4835981
0696,carpet_one_floor_and_home_us,Del Mar Carpet One Floor & Home,,Alamosa,CO,,US,+1 719-589-9051,https://www.delmarcarpetonealamosa.com/,,Carpet One Floor & Home,Q121335910
10033,chevrolet,"TOWN & COUNTRY CAR & TRUCK CENTER, INC.",,Alamosa,CO,,US,+1 719-587-1800,https://www.alamosachevrolet.com,Mo-Sa 08:00-18:00,Chevrolet,Q29570
001.005.1231,chilis,Alamosa,,Alamosa,CO,,US,+1 719-589-1991,https://www.chilis.com/locations/us/colorado/alamosa/alamosa/,Mo-Th 11:00-22:00; Fr-Sa 11:00-23:00; Su 11:00-22:00,Chili's,Q1072948
44726,citi,ATM City Market,,Alamosa,CO,,US,,,,Citibank,Q857063
87044,citi,ATM Walgreens,,Alamosa,CO,,US,,,,Citibank,Q857063
63905,citi,ATM Loaf N Jug,,Alamosa,CO,,US,,,,Citibank,Q857063
alamosa/3246,claires,Shop Ear Piercings & Jewelry at Claires Walmart Alamosa,,ALAMOSA,CO,,US,+1 719-589-3083,https://stores.claires.com/us/co/alamosa/3246.html,Mo-Th 12:00-20:00; Fr-Su 11:00-20:00,Claire's,Q2974996
,credit_union_us,Mountain River CU,,Alamosa,CO,,US,+1 719-589-2544,,Mo-Fr 08:30-05:00,,
70180435,cricket_wireless,Cricket Wireless Authorized Retailer,,Alamosa,CO,,US,+1 719-937-2202,https://www.cricketwireless.com/stores/ll/US/CO/Alamosa/3320-Clark-St,Mo-Sa 10:00-19:00; Su 12:00-17:00,Cricket Wireless,Q5184987
6291,dominos_pizza_us,Domino's Pizza,,Alamosa,CO,,US,+1 719-587-3030,https://pizza.dominos.com/colorado/alamosa/1109-6th-st,Mo-Th 10:00-24:00; Fr-Sa 10:00-01:00; Su 10:00-24:00,Domino's,Q839466
https://www.edwardjones.com/us-en/financial-advisor/codie-vantreese,edwardjones,Codie L Van Treese,,Alamosa,CO,,US,+1 719-587-0091,https://www.edwardjones.com/us-en/financial-advisor/codie-vantreese,Mo-Th 08:00-16:30; Fr 08:00-14:00,Edward Jones,Q5343830
520961,eg_america_us,Loaf 'N Jug,,Alamosa,CO,,US,+1 719-589-3214,https://www.loafnjug.com/find-us/generic-store-page/?id=750010,,Loaf 'N Jug,Q6663398
24599,family_dollar_us,FAMILY DOLLAR #4599,,Alamosa,CO,,US,+1 719-298-5044,https://www.familydollar.com/locations/co/alamosa/24599/,Mo-Su 08:00-22:00,Family Dollar,Q5433101
Motorcraft2292USAEnglish,ford,"Town & Country Car and Truck Center, Inc.",,Colorado,CO,,US,+1 719-587-1800,,,Ford,Q44294
https://www.ford.com/dealerships/dealer-details/co/alamosa/town-&-country-car-and-truck-center-inc/,ford_dealers_us,"Town & Country Car and Truck Center, Inc.",,Alamosa,CO,,US,+1 719-936-6303,https://www.ford.com/dealerships/dealer-details/co/alamosa/town-&-country-car-and-truck-center-inc/,Mo-Sa 08:00-18:00,Ford Motor Company,Q44294
https://salons.greatclips.com/us/co/alamosa/3318-clark-st,greatclips,Great Clips,,Alamosa,CO,,US,+1 719-589-6890,https://salons.greatclips.com/us/co/alamosa/3318-clark-st,Mo-Fr 09:30-18:00; Sa 08:00-17:00; Su 10:00-15:00,Great Clips,Q5598967
https://www.harborfreight.com/storelocator/177-craft-drive-suite-103-alamosa-81101?number=3179,harborfreight,"Harbor Freight Tools Alamosa, CO",,Alamosa,CO,,US,+1 719-298-9595,https://www.harborfreight.com/storelocator/177-craft-drive-suite-103-alamosa-81101?number=3179,Mo-Sa 08:00-20:00; Su 09:00-18:00,Harbor Freight Tools,Q5654601
7120,h_r_block,H&R Block,,Alamosa,CO,,US,+1 719-589-6594,https://www.hrblock.com/local-tax-offices/colorado/alamosa/409-main/7120/,,H&R Block,Q5627799
co_alamosa_breakfast-2025-main-st.-2136,ihop,IHOP Breakfast Restaurants Near You at 2025 Main St.,,Alamosa,CO,,US,+1 719-589-3750,https://restaurants.ihop.com/en-us/co/alamosa/breakfast-2025-main-st.-2136,,IHOP,Q1185675
https://locations.jimmyjohns.com/co/alamosa/sandwiches-3844.html,jimmy_johns,Jimmy John's,,Alamosa,CO,,US,+1 719-589-3418,https://locations.jimmyjohns.com/co/alamosa/sandwiches-3844.html,,Jimmy John's,Q1689380
https://locations.kfc.com/#11247719,kfc,Chicken Nuggets Near Alamosa,,Alamosa,CO,,US,,https://locations.kfc.com/co/alamosa/2007-west-main-street/chickennugget,Mo-Sa 11:00-20:00; Su 11:00-16:00,KFC,Q524757
114742,little_free_library,Sunset Park #114742 Alamosa CO,,Alamosa,CO,,US,,,,Little Free Library,Q6650101
114745,little_free_library,Montana Azul Park #114745 Alamosa CO,,Alamosa,CO,,US,,,,Little Free Library,Q6650101
99742,little_free_library,Alamosa Housing Authority #99742 Alamosa CO,,Alamosa,CO,,US,,,,Little Free Library,Q6650101
87640,little_free_library,Alamosa Housing Authority #87640 Alamosa CO,,Alamosa,CO,,US,,,,Little Free Library,Q6650101
87388,little_free_library,Alamosa Housing Authority #87388 Alamosa CO,,Alamosa,CO,,US,,,,Little Free Library,Q6650101
29359,little_free_library,Alamosa Family Recreation Center LFLs #29359 Alamosa CO,,Alamosa,CO,,US,,,,Little Free Library,Q6650101
162403,little_free_library,3rd St. Little Free Library #162403 Alamosa CO,,Alamosa,CO,,US,,,,Little Free Library,Q6650101
136587,little_free_library,Kassi Vadillo #136587 Alamosa CO,,Alamosa,CO,,US,,,,Little Free Library,Q6650101
136857,little_free_library,Kassi Vadillo little free library #136857 Alamosa CO,,Alamosa,CO,,US,,,,Little Free Library,Q6650101
160488,little_free_library,Dellett's Little Free Library #160488 Alamosa CO,,Alamosa,CO,,US,,,,Little Free Library,Q6650101
65688,little_free_library,Friends Park #65688 Alamosa CO,,Alamosa,CO,,US,,,,Little Free Library,Q6650101
29217,little_free_library,Zapata Park #29217 Alamosa CO,,Alamosa,CO,,US,,,,Little Free Library,Q6650101
26437,little_free_library,Mandy Wilner #26437 Alamosa CO,,Alamosa,CO,,US,,,,Little Free Library,Q6650101
115130,little_free_library,Alamosa Community Greenhouse #115130 Alamosa CO,,Alamosa,CO,,US,,,,Little Free Library,Q6650101
115630,little_free_library,Alamosa Community Greenhouse #115630 Alamosa CO,,Alamosa,CO,,US,,,,Little Free Library,Q6650101
25537,little_free_library,La Puente #25537 Alamosa CO,,Alamosa,CO,,US,,,,Little Free Library,Q6650101
31733,little_free_library,Food Bank Network #31733 Alamosa CO,,Alamosa,CO,,US,,,,Little Free Library,Q6650101
112140,little_free_library,Boyd Park #112140 Alamosa CO,,Alamosa,CO,,US,,,,Little Free Library,Q6650101
107528,little_free_library,Friends of the Library Book Bike LFL #107528 Alamosa CO,,Alamosa,CO,,US,,,,Little Free Library,Q6650101
23418,little_free_library,Cole Park #23418 Alamosa CO,,Alamosa,CO,,US,,,,Little Free Library,Q6650101
27280,little_free_library,Alamosa Senior Center #27280 Alamosa CO,,Alamosa,CO,,US,,,,Little Free Library,Q6650101
87379,little_free_library,Alamosa Housing Authority #87379 Alamosa CO,,Alamosa,CO,,US,,,,Little Free Library,Q6650101
46104,little_free_library,Mosca Pit Stop #46104 Alamosa CO,,Alamosa,CO,,US,,,,Little Free Library,Q6650101
100101,little_free_library,Rio Grande Farm Park #100101 Alamosa CO,,Alamosa,CO,,US,,,,Little Free Library,Q6650101
114744,little_free_library,Sunrise Family Park LFL #114744 Alamosa CO,,Alamosa,CO,,US,,,,Little Free Library,Q6650101
ALSFI,marriott,Fairfield Inn & Suites Alamosa,,Alamosa,CO,,US,+1 719-587-4000,https://www.marriott.com/ALSFI,,Fairfield by Marriott,Q5430314
https://locations.maurices.com/#11688820,maurices,maurices Cottonwood Mall,,Alamosa,CO,,US,+1 719-589-4231,https://locations.maurices.com/us/co/alamosa/3304-clark-street,Mo-Th 10:00-18:00; Fr-Sa 10:00-19:00; Su 11:00-17:00,maurices,Q6793571
71466848,moneygram,WAL-MART - #869,,ALAMOSA,CO,,US,+1 719-589-9071,,Mo-Su 07:00-21:00,MoneyGram,Q1944412
https://locations.papamurphys.com/#15430574,papamurphys,Pizza Takeout & Delivery,,Alamosa,CO,,US,+1 719-937-2933,https://locations.papamurphys.com/co/alamosa/504-west-ave,Mo-Sa 11:00-19:30,Papa Murphy's,Q7132349
0000883757,phillips_66_conoco_76,ALTA CONVENIENCE 5601,,ALAMOSA,CO,,US,+1 719-589-9434,,,Phillips 66,Q1656230
0000883774,phillips_66_conoco_76,ALTA CONVENIENCE 3301,,ALAMOSA,CO,,US,+1 719-589-9164,,,Conoco,Q109341187
0000883782,phillips_66_conoco_76,ALTA CONVENIENCE 5725,,ALAMOSA,CO,,US,+1 719-589-2912,,,Conoco,Q109341187
co_alamosa_814-main-st,pizza_hut_us,814 Main St,,Alamosa,CO,,US,+1 719-589-3693,https://locations.pizzahut.com/co/alamosa/814-main-st,,Pizza Hut,Q191615
2731,rentacenter,Rent-A-Center,,Alamosa,CO,,US,+1 719-589-6832,https://locations.rentacenter.com/colorado/alamosa/714-del-sol-drive/,Mo-Sa 10:00-18:00,Rent-A-Center,Q7313497
https://local.pharmacy.safeway.com/#5673340,safeway,Safeway Pharmacy,,Alamosa,CO,,US,+1 719-587-3076,https://local.pharmacy.safeway.com/safeway/co/alamosa/1301-main-st.html,,Safeway,Q1508234
https://local.fuel.safeway.com/#9073566,safeway,Safeway Fuel Station,,Alamosa,CO,,US,+1 719-587-3075,https://local.fuel.safeway.com/safeway/co/alamosa/1303-main-st.html,Mo-Su 07:00-22:00,Safeway,Q1508234
https://local.safeway.com/#5604202,safeway,Safeway,,Alamosa,CO,,US,+1 719-587-3075,https://local.safeway.com/safeway/co/alamosa/1301-main-st.html,,Safeway,Q1508234
https://restaurants.subway.com/#14907761,subway,Subway Wal-Mart #869,,Alamosa Alamosa,CO,,US,+1 719-589-6314,https://restaurants.subway.com/united-states/co/alamosa/3333-clark-street,Mo-Su 08:30-20:30,Subway,Q244457
https://restaurants.subway.com/#14913712,subway,Subway,,Alamosa Alamosa,CO,,US,+1 719-589-4642,https://restaurants.subway.com/united-states/co/alamosa/2207-main-st,Mo-Su 09:00-22:00,Subway,Q244457
https://locations.tacobell.com/#6144893,taco_bell,Taco Bell,,Alamosa,CO,,US,+1 719-589-2140,https://locations.tacobell.com/co/alamosa/2435-main-street.html,Mo-Su 08:00-24:00,Taco Bell,Q752941
1030588,uhaul,Adcock`s Mini Storage,3104 Adcock Cir.,Alamosa,CO,,US,+19999999999,,,U-Haul,Q7862902
088117,uhaul,J&J Rentals,2514 1st St,Alamosa,CO,,US,+1 719-589-8394,,Mo-Fr 00:00-17:00; Sa 00:00-24:00,U-Haul,Q7862902
1473580,usps,ALAMOSA,,ALAMOSA,CO,,US,+1 719-589-4909,,,United States Postal Service,Q668687
1352556,usps,ALAMOSA,,ALAMOSA,CO,,US,+1 719-589-4909,,Mo-Fr 08:00-17:00; Sa 09:00-13:00,United States Postal Service,Q668687
8110100008,usps_collection_boxes,USPS COLLECTION BOX - BLUE BOX,8955 INDEPENDENCE WAY,ALAMOSA,CO,,US,,,,United States Postal Service,Q668687
8110100010,usps_collection_boxes,USPS COLLECTION BOX - BLUE BOX,725 STATE AVE,ALAMOSA,CO,,US,,,,United States Postal Service,Q668687
8110100012,usps_collection_boxes,USPS COLLECTION BOX - BLUE BOX,610 STATE AVE,ALAMOSA,CO,,US,,,,United States Postal Service,Q668687
8110100014,usps_collection_boxes,USPS COLLECTION BOX - BLUE BOX,505 3RD ST,ALAMOSA,CO,,US,,,,United States Postal Service,Q668687
8110100015,usps_collection_boxes,USPS COLLECTION BOX - BLUE BOX,505 3RD ST,ALAMOSA,CO,,US,,,,United States Postal Service,Q668687
8110100016,usps_collection_boxes,USPS COLLECTION BOX - BLUE BOX,505 3RD ST,ALAMOSA,CO,,US,,,,United States Postal Service,Q668687
8110100017,usps_collection_boxes,USPS COLLECTION BOX - PO LOBBY,505 3RD ST,ALAMOSA,CO,,US,,,,United States Postal Service,Q668687
8110100018,usps_collection_boxes,USPS COLLECTION BOX - PO LOBBY,505 3RD ST,ALAMOSA,CO,,US,,,,United States Postal Service,Q668687
8110100013,usps_collection_boxes,USPS COLLECTION BOX - BLUE BOX,6988 STATE HIGHWAY 17,ALAMOSA,CO,,US,,,,United States Postal Service,Q668687
8110100005,usps_collection_boxes,USPS COLLECTION BOX - BLUE BOX,1301 MAIN ST,ALAMOSA,CO,,US,,,,United States Postal Service,Q668687
8110100002,usps_collection_boxes,USPS COLLECTION BOX - BLUE BOX,1601 1ST ST,ALAMOSA,CO,,US,,,,United States Postal Service,Q668687
8110100000,usps_collection_boxes,USPS COLLECTION BOX - BLUE BOX,2431 MAIN ST,ALAMOSA,CO,,US,,,,United States Postal Service,Q668687
8110100004,usps_collection_boxes,USPS COLLECTION BOX - BLUE BOX,7565 W US HIGHWAY 160,ALAMOSA,CO,,US,,,,United States Postal Service,Q668687
8110100019,usps_collection_boxes,USPS COLLECTION BOX - BLUE BOX,3333 CLARK ST,ALAMOSA,CO,,US,,,,United States Postal Service,Q668687
A00000022944,verizon_us,Russell Cellular Alamosa Del Sol,,Alamosa,CO,,US,+1 719-587-0107,https://www.verizon.com/stores/details/colorado/alamosa/russell-cellular-alamosa-del-sol-1852522/,Mo-Sa 09:00-19:00; Su 11:00-17:00,Verizon,Q919641
,visa,,,ALAMOSA,CO,,US,,,,,
,visa,,,ALAMOSA,CO,,US,,,,,
,visa,,,ALAMOSA,CO,,US,,,,,
,visa,,,ALAMOSA,CO,,US,,,,,
,visa,,,ALAMOSA,CO,,US,,,,,
,visa,,,ALAMOSA,CO,,US,,,,,
,visa,,,ALAMOSA,CO,,US,,,,,
,visa,,,ALAMOSA,CO,,US,,,,,
,visa,,,ALAMOSA,CO,,US,,,,,
,visa,,,ALAMOSA,CO,,US,,,,,
,visa,,,ALAMOSA,CO,,US,,,,,
,visa,,,ALAMOSA,CO,,US,,,,,
,visa,,,ALAMOSA,CO,,US,,,,,
,visa,,,ALAMOSA,CO,,US,,,,,
,visa,,,ALAMOSA,CO,,US,,,,,
,visa,,,ALAMOSA,CO,,US,,,,,
,visa,,,ALAMOSA,CO,,US,,,,,
,visa,,,ALAMOSA,CO,,US,,,,,
,visa,,,ALAMOSA,CO,,US,,,,,
,visa,,,ALAMOSA,CO,,US,,,,,
,visa,,,ALAMOSA,CO,,US,,,,,
,visa,,,ALAMOSA,CO,,US,,,,,
,visa,,,ALAMOSA,CO,,US,,,,,
,visa,,,ALAMOSA,CO,,US,,,,,
,visa,,,ALAMOSA,CO,,US,,,,,
,visa,,,ALAMOSA,CO,,US,,,,,
,visa,,,ALAMOSA,CO,,US,,,,,
,visa,,,ALAMOSA,CO,,US,,,,,
,visa,,,ALAMOSA,CO,,US,,,,,
,visa,,,ALAMOSA,CO,,US,,,,,
,visa,,,ALAMOSA,CO,,US,,,,,
,visa,,,ALAMOSA,CO,,US,,,,,
https://www.walgreens.com/locator/walgreens-1203+main+st-alamosa-co-81101/id=9912,walgreens,Walgreens,,Alamosa,CO,,US,+1 719-589-3165,https://www.walgreens.com/locator/walgreens-1203+main+st-alamosa-co-81101/id=9912,Mo-Su 07:00-23:00,Walgreens,Q1591889
https://locations.wendys.com/#9250504,wendys,"Wendy's Alamosa in Alamosa, CO",,Alamosa,CO,,US,+1 719-587-3333,https://locations.wendys.com/united-states/co/alamosa/3338-clark-st,"Mo-Su 06:30-10:30,07:00-22:00",Wendy's,Q550258
2e43c98d113d56fa1d9938150bb8adb1,western_union,WALMART #000869,,Alamosa,CO,,US,+1 719-589-9071,https://location.westernunion.com/us/co/alamosa/2e43c98d113d56fa1d9938150bb8adb1,Mo-Su 07:00-21:00,Western Union,Q861042
597ee3590907d83f49c80dd74c3f175c,western_union,LOAF N JUG #10,,Alamosa,CO,,US,+1 719-589-3214,https://location.westernunion.com/us/co/alamosa/597ee3590907d83f49c80dd74c3f175c,Mo-We 05:00-23:00; Th-Su 07:00-23:00,Western Union,Q861042
c874c5466c94878aa40fbae77284375b,western_union,TIENDA LATINA GUATEMEX,,Alamosa,CO,,US,+1 719-587-1513,https://location.westernunion.com/us/co/alamosa/c874c5466c94878aa40fbae77284375b,Mo-Tu 10:00-20:00; Th-Su 10:00-20:00,Western Union,Q861042
