Ref,Spider,Name,Address,City,State,Zipcode,Country,Phone,Website,Hours,Brand,WikiData
108234,bluerhino,TEG Food Store,,Greensburg,KY,,US,+1 270-932-3053,,,Blue Rhino,Q65681213
193647,bluerhino,Walgreens #19855,,Greensburg,KY,,US,+1 270-932-4518,,,Blue Rhino,Q65681213
220731,bluerhino,Dollar General #23649,,GREENSBURG,KY,,US,+1 502-373-3772,,,Blue Rhino,Q65681213
210823,bluerhino,Dollar General #22863,,Greensburg,KY,,US,+1 502-219-2971,,,Blue Rhino,Q65681213
85822828462854274300100000000000,bp,BP,,Greensburg,KY,,US,+1 270-932-3053,,,BP,Q152057
19289882512654274300100000000000,bp,BP,,Greensburg,KY,,US,+1 270-537-5702,,24/7,BP,Q152057
67535,citi,ATM PEOPLES BANK,,Greensburg,KY,,US,,,,Citibank,Q857063
57247,citi,ATM FORCHT BANK 04,,Greensburg,KY,,US,,,,Citibank,Q857063
57245,citi,ATM FORCHT BANK 04,,Greensburg,KY,,US,,,,Citibank,Q857063
57246,citi,ATM FORCHT BANK 04,,Greensburg,KY,,US,,,,Citibank,Q857063
57243,citi,ATM FORCHT BANK 04,,Greensburg,KY,,US,,,,Citibank,Q857063
67436,citi,ATM PEOPLES BANK,,Greensburg,KY,,US,,,,Citibank,Q857063
32706,family_dollar_us,FAMILY DOLLAR #12706,,Greensburg,KY,,US,+1 270-405-8021,https://www.familydollar.com/locations/ky/greensburg/32706/,Mo-Su 09:00-21:00,Family Dollar,Q5433101
155751,marathon_petroleum_us,FIVESTAR 4432,,GREENSBURG,KY,,US,+1 270-932-7338,,,Marathon,Q458363
https://locations.oreillyauto.com/ky/greensburg/check-engine-light-testing-5182.html,oreilly,Your Greensburg O'Reilly Auto Parts Store,,Greensburg,KY,,US,+1 270-405-8199,https://locations.oreillyauto.com/ky/greensburg/check-engine-light-testing-5182.html,Mo-Sa 07:30-21:00; Su 09:00-18:00,O'Reilly Auto Parts,Q7071951
https://locations.oreillyauto.com/ky/greensburg/wiper-installation-5182.html,oreilly,Your Greensburg O'Reilly Auto Parts Store,,Greensburg,KY,,US,+1 270-405-8199,https://locations.oreillyauto.com/ky/greensburg/wiper-installation-5182.html,Mo-Sa 07:30-21:00; Su 09:00-18:00,O'Reilly Auto Parts,Q7071951
https://locations.oreillyauto.com/ky/greensburg/battery-testing-5182.html,oreilly,Your Greensburg O'Reilly Auto Parts Store,,Greensburg,KY,,US,+1 270-405-8199,https://locations.oreillyauto.com/ky/greensburg/battery-testing-5182.html,Mo-Sa 07:30-21:00; Su 09:00-18:00,O'Reilly Auto Parts,Q7071951
https://locations.oreillyauto.com/ky/greensburg/autopartes-5182.html,oreilly,Tu tienda O'Reilly Auto Parts en Greensburg,,Greensburg,KY,,US,+1 270-405-8199,https://locations.oreillyauto.com/ky/greensburg/autopartes-5182.html,Mo-Sa 07:30-21:00; Su 09:00-18:00,O'Reilly Auto Parts,Q7071951
ky_greensburg_607-columbia-hwy,pizza_hut_us,607 Columbia Hwy,,Greensburg,KY,,US,+1 270-932-5521,https://locations.pizzahut.com/ky/greensburg/607-columbia-hwy,,Pizza Hut,Q191615
dons-lumber-and-pro-hardware-37736,ppgpaints,DON'S LUMBER & PRO HARDWARE,,"Greensburg, ",KY,,US,,https://www.ppgpaints.com/store-locator/us/kentucky/greensburg-paint-stores/dons-lumber-and-pro-hardware-37736,,PPG Paints,Q83891559
dons-lumber-and-pro-hardware-36972,ppgpaints,DONS LUMBER & PRO HARDWARE,,"Greensburg, ",KY,,US,+1 270-932-4817,https://www.ppgpaints.com/store-locator/us/kentucky/greensburg-paint-stores/dons-lumber-and-pro-hardware-36972,,PPG Paints,Q83891559
https://restaurants.subway.com/#14896493,subway,Subway,,Greensburg Green,KY,,US,+1 270-932-9655,https://restaurants.subway.com/united-states/ky/greensburg/861-campbellsville-road,Mo-Su 09:00-22:00,Subway,Q244457
1365628,usps,GREENSBURG,,GREENSBURG,KY,,US,+1 270-932-5371,,Mo-Fr 08:00-16:00; Sa 09:00-11:00,United States Postal Service,Q668687
4274300010,usps_collection_boxes,USPS COLLECTION BOX - BLUE BOX,200 NANCY ST,GREENSBURG,KY,,US,,,,United States Postal Service,Q668687
4274300002,usps_collection_boxes,USPS COLLECTION BOX - BLUE BOX,102 N PUBLIC SQ,GREENSBURG,KY,,US,,,,United States Postal Service,Q668687
4274300003,usps_collection_boxes,USPS COLLECTION BOX - BLUE BOX,101 N PUBLIC SQ,GREENSBURG,KY,,US,,,,United States Postal Service,Q668687
4274300004,usps_collection_boxes,USPS COLLECTION BOX - BLUE BOX,203 W COURT ST,GREENSBURG,KY,,US,,,,United States Postal Service,Q668687
4274300000,usps_collection_boxes,USPS COLLECTION BOX - BLUE BOX,110 N 1ST ST,GREENSBURG,KY,,US,,,,United States Postal Service,Q668687
4274300014,usps_collection_boxes,USPS COLLECTION BOX - PO LOBBY,45 TUNNELL LN,GREENSBURG,KY,,US,,,,United States Postal Service,Q668687
4274300015,usps_collection_boxes,USPS COLLECTION BOX - BLUE BOX,45 TUNNELL LN,GREENSBURG,KY,,US,,,,United States Postal Service,Q668687
4274300016,usps_collection_boxes,USPS COLLECTION BOX - PO LOBBY,45 TUNNELL LN,GREENSBURG,KY,,US,,,,United States Postal Service,Q668687
4274300017,usps_collection_boxes,USPS COLLECTION BOX - PO LOBBY,45 TUNNELL LN,GREENSBURG,KY,,US,,,,United States Postal Service,Q668687
4274300011,usps_collection_boxes,USPS COLLECTION BOX - BLUE BOX,863 CAMPBELLSVILLE RD,GREENSBURG,KY,,US,,,,United States Postal Service,Q668687
,visa,,,GREENSBURG,KY,,US,,,,,
,visa,,,GREENSBURG,KY,,US,,,,,
,visa,,,GREENSBURG,KY,,US,,,,,
,visa,,,GREENSBURY,KY,,US,,,,,
,visa,,,GREENSBURG,KY,,US,,,,,
,visa,,,GREENSBURG,KY,,US,,,,,
1985cbda4248c2ccbd0249dc0ea3c960,western_union,DOLLAR GENERAL #24573,,Greensburg,KY,,US,+1 502-694-3533,https://location.westernunion.com/us/ky/greensburg/1985cbda4248c2ccbd0249dc0ea3c960,Mo-Su 08:00-22:00,Western Union,Q861042
