Ref,Spider,Name,Address,City,State,Zipcode,Country,Phone,Website,Hours,Brand,WikiData
PQCSR,marriott,Sheraton Phu Quoc Long Beach Resort,,Phu Quoc,,,VN,+84 297 3619 999,https://www.marriott.com/PQCSR,,Sheraton Hotels and Resorts,Q634831
73569251,moneygram,HONG PHUOC HAU PRIVATE COMPANY - #M21 -,,KIEN GIANG,,,VN,+84 297 3810 651,,Mo-Su 07:00-23:00,MoneyGram,Q1944412
73767655,moneygram,THANH PHUOC PRIVATE COMPANY - #P52 - KIE,,KIEN GIANG,,,VN,+84 297 3837 166,,Mo-Su 07:00-23:00,MoneyGram,Q1944412
73773306,moneygram,DUC MAU K G PRIVATE COMPANY - #M58 - KIE,,KIEN GIANG,,,VN,+84 297 3654 668,,Mo-Su 07:00-23:00,MoneyGram,Q1944412
73772349,moneygram,MINH MINH AN ONE MEMBER CO. LTD - #MV5,,KIEN GIANG,,,VN,+84 297 3919 494,,Mo-Su 07:00-23:00,MoneyGram,Q1944412
73788252,moneygram,NGOC HUE PRIVATE COMPANY - #L49 - KIEN G,,KIEN GIANG,,,VN,+84 773 882 138,,Mo-Su 07:00-23:00,MoneyGram,Q1944412
73788184,moneygram,THUM KIM HAI PRIVATE COMPANY - #MJ0 - KI,,KIEN GIANG,,,VN,+84 297 3736 777,,Mo-Su 07:00-23:00,MoneyGram,Q1944412
73811653,moneygram,QUACH TUYET NHUNG PRIVATE COMPANY - #MN9,,KIEN GIANG,,,VN,+84 916 404 142,,Mo-Su 07:00-23:00,MoneyGram,Q1944412
73849667,moneygram,TAN THANH PHUOC PRIVATE COMPANY - #MD5 -,,KIEN GIANG,,,VN,+84 297 3836 453,,Mo-Su 07:00-23:00,MoneyGram,Q1944412
74138623,moneygram,LONG PHUNG AN HOA PRIVATE COMPANY - #NC1,,RACH GIA,,,VN,+84 773 811 586,,Mo-Su 07:00-23:00,MoneyGram,Q1944412
74161849,moneygram,TUAN HUNG PRIVATE COMPANY - #N22 - KIEN,,KIEN GIANG,,,VN,+84 297 3841 115,,Mo-Su 07:00-23:00,MoneyGram,Q1944412
74166433,moneygram,MINH HIEN PRIVATE COMPANY - #ND7 - KIEN,,KIEN GIANG,,,VN,+84 297 3837 022,,Mo-Su 07:00-23:00,MoneyGram,Q1944412
74168211,moneygram,NGOC HUE GOLD BUSINESS ONE MEMBER COMPAN,,KIEN GIANG,,,VN,+84 377 699 699,,Mo-Su 07:00-23:00,MoneyGram,Q1944412
74341119,moneygram,DUC LOI PRIVATE COMPANY - #D20 - KIEN GI,,KIEN GIANG,,,VN,+84 297 3836 036,,Mo-Su 07:00-23:00,MoneyGram,Q1944412
74317538,moneygram,LE HUU VINH PRIVATE COMPANY - #NH7 - KIE,,KIEN GIANG,,,VN,+84 917 464 642,,Mo-Su 07:00-23:00,MoneyGram,Q1944412
74560712,moneygram,HOANG NEN PRIVATE COMPANY - #NK6 - KIEN,,KIEN GIANG,,,VN,+84 918 864 018,,Mo-Su 07:00-23:00,MoneyGram,Q1944412
74589214,moneygram,HOANG NEN PRIVATE COMPANY BRANCH - #NL5,,KIEN GIANG,,,VN,+84 949 656 343,,Mo-Su 07:00-23:00,MoneyGram,Q1944412
66438234,moneygram,DONGA BANK - NGUYEN TRUNG TRUC TRANSACTI,,RACH GIA,,,VN,+84 773 964 994,,Mo-Fr 07:30-17:00; Sa 07:30-11:00; Su 00:00-24:00,MoneyGram,Q1944412
71522821,moneygram,HDBANK - #252 - PHU QUOC - PHU QUOC,,PHU QUOC,,,VN,+84 297 3668 686,,Mo-Fr 07:30-17:00; Sa-Su 00:00-24:00,MoneyGram,Q1944412
71753496,moneygram,HDBANK - #268 - KIEN GIANG - AN BIEN,,KIEN GIANG,,,VN,+84 297 3909 009,,Mo-Fr 07:30-17:00; Sa-Su 00:00-24:00,MoneyGram,Q1944412
71794167,moneygram,HDBANK - #261 - CHAU THANH - MINH LUONG,,CHAU THANH,,,VN,+84 297 3909 333,,Mo-Fr 07:30-17:00; Sa-Su 00:00-24:00,MoneyGram,Q1944412
,visa,,,RACH GIA,,,VN,,,,,
,visa,,,TAN HIEP,,,VN,,,,,
