Ref,Spider,Name,Address,City,State,Zipcode,Country,Phone,Website,Hours,Brand,WikiData
https://stores.advanceautoparts.com/ny/massena/351-main-st,advance_auto_parts_us,Advance Auto Parts,,Massena,NY,,US,+1 315-769-8398,https://stores.advanceautoparts.com/ny/massena/351-main-st,Mo-Sa 07:30-21:00; Su 09:00-20:00,Advance Auto Parts,Q4686051
https://stores.aldi.us/#4421168,aldi_sud_us,ALDI  2 Malby Ave,,Massena,NY,,US,+1 833-746-5029,https://stores.aldi.us/ny/massena/2-malby-ave,Mo-Su 09:00-20:00,ALDI,Q41171672
https://stores.ashleyfurniture.com/store/us/new-york/massena/7710000315/,ashley_furniture,"Ashley Store Massena, NY",,Massena,NY,,US,+1 315-769-6069,https://stores.ashleyfurniture.com/store/us/new-york/massena/7710000315/,,Ashley Furniture,Q4805437
19336,asics_us,Olympia Sports,"Route 37, Space 413",Massena,NY,,US,+1 315-769-5414,,Mo-Sa 10:00-19:00; Su 11:00-17:00,asics,Q327247
2980,autozone_us,AutoZone Auto Parts Massena,,Massena,NY,,US,+1 315-769-2158,https://www.autozone.com/locations/ny/massena/1-malby-ave.html,Mo-Sa 07:30-20:00; Su 09:00-18:00,AutoZone,Q4826087
https://local.biglots.com/#13191026,biglots,Big Lots - Massena,,Massena,NY,,US,+1 315-764-1371,https://local.biglots.com/ny/massena/138-harte-haven-plz,Mo-Sa 09:00-21:00; Su 10:00-19:00,Big Lots,Q4905973
0301,bjswholesale,Massena,,Massena,NY,,US,+1 315-764-1000,https://www.bjs.com/mapDetail;city=0301,Mo-Sa 08:00-21:00,BJ's Wholesale,Q4835754
153867,bluerhino,Walgreens #10698,,Massena,NY,,US,+1 315-764-0204,,,Blue Rhino,Q65681213
206446,bluerhino,Rite Aid #04998,,Massena,NY,,US,+1 315-769-3484,,,Blue Rhino,Q65681213
191620,bluerhino,Price Chopper #032,,Massena,NY,,US,+1 315-769-0042,,,Blue Rhino,Q65681213
3774,bluerhino,Walmart #1946,,Massena,NY,,US,+1 315-769-1072,,,Blue Rhino,Q65681213
76316,bluerhino,HWI - Triple 'A' Lumber #6087,,Massena,NY,,US,+1 315-769-2481,,,Blue Rhino,Q65681213
15035,chevrolet,"FRENCHIE'S CHEVROLET, INC.",,MASSENA,NY,,US,+1 315-764-1760,https://www.frenchieschevy.com,Mo-Fr 08:30-17:30; Sa 09:00-13:00,Chevrolet,Q29570
32944,citi,ATM 7ELEVEN-FCTI,,Massena,NY,,US,,,,Citibank,Q857063
90032,citi,ATM Walgreens,,Massena,NY,,US,,,,Citibank,Q857063
29724,citi,ATM 7ELEVEN-FCTI,,Massena,NY,,US,,,,Citibank,Q857063
,credit_union_us,SeaComm FCU,,Massena,NY,,US,+1 315-764-0566,,Mo-Th 08:00-05:00; Fr 08:00-06:00; Sa 09:00-12:00,,
200314387,exxonmobil,MOUNTAIN MART #105,,MASSENA,NY,,US,+1 315-769-8897,https://www.exxon.com/en/find-station/mobil-massena-ny-mountainmart105-200314387,Mo-Fr 05:00-00:00; Sa 05:00-01:00; Su 05:00-00:00,Mobil,Q109676002
Motorcraft4948USAEnglish,ford,C & M Ford Inc,,New York,NY,,US,+1 315-764-1771,,,Ford,Q44294
https://www.ford.com/dealerships/dealer-details/ny/massena/frenchie%27s-ford-inc/,ford_dealers_us,"Frenchie's Ford, Inc.",,Massena,NY,,US,+1 315-643-6136,https://www.ford.com/dealerships/dealer-details/ny/massena/frenchie's-ford-inc/,Mo-Fr 08:30-18:30; Sa 08:30-15:00,Ford Motor Company,Q44294
7647,gamestop_us,Harte Haven Shopping Center,,Massena,NY,,US,+1 315-769-2606,https://www.gamestop.com/search/?store=7647,Mo-Th 12:00-19:00; Fr-Sa 11:00-21:00; Su 12:00-18:00,GameStop,Q202210
32,golub_corporation_us,Price Chopper Massena,,Massena,NY,,US,+1 315-769-0042,https://www.pricechopper.com/stores/ny/massena/price-chopper-32.html,Mo-Su 06:00-23:00,Price Chopper,Q7242574
30098,h_r_block,H&R Block,,Massena,NY,,US,+1 315-764-0269,https://www.hrblock.com/local-tax-offices/new-york/massena/213-main-st/30098/,,H&R Block,Q5627799
https://locations.kfc.com/#26074210,kfc,Chicken Nuggets Near Massena,,Massena,NY,,US,,https://locations.kfc.com/ny/massena/371-s-main-st/chickennugget,Mo-Su 10:00-22:00,KFC,Q524757
https://locations.maurices.com/#11688000,maurices,maurices St. Lawrence Centre,,Massena,NY,,US,+1 315-705-0106,https://locations.maurices.com/us/ny/massena/6100-st-lawrence-centre,Mo-Sa 11:00-19:00; Su 11:00-18:00,maurices,Q6793571
326,mightyflame,STEWART'S SHOPS #383,,MASSENA,NY,,US,+1 315-769-3259,,,Mighty Flame,
358,mightyflame,STEWARTS SHOPS #430,,MASSENA,NY,,US,+1 315-764-0693,,,Mighty Flame,
2291,mightyflame,KINNEY DRUGS INC #10,,Massena,NY,,US,+1 315-764-0559,,,Mighty Flame,
207,ollies_bargain_outlet,Ollie's Bargain Outlet,,Massena,NY,,US,+1 315-769-7672,https://www.ollies.us/locations/6033-st-lawrence-center-massena-ny/,Mo-Sa 09:00-21:00; Su 10:00-19:00,Ollie's Bargain Outlet,Q7088304
ny_massena_4-malby-avenue,pizza_hut_us,4 Malby Avenue,,Massena,NY,,US,+1 315-764-1703,https://locations.pizzahut.com/ny/massena/4-malby-avenue,,Pizza Hut,Q191615
home-depot-8996-9631,ppgpaints,HOME DEPOT 8996,,"Massena, ",NY,,US,+1 315-764-9930,https://www.ppgpaints.com/store-locator/us/new-york/massena-paint-stores/home-depot-8996-9631,,PPG Paints,Q83891559
2882,rentacenter,Rent-A-Center,,Massena,NY,,US,+1 315-769-7157,https://locations.rentacenter.com/new-york/massena/144-harte-haven-plz/,Mo-Sa 10:00-18:00,Rent-A-Center,Q7313497
40219,seven_eleven_ca_us,7-Eleven Store,,Massena,NY,,US,+1 315-769-8898,https://www.7-eleven.com/locations/ny/massena/386-s-main-st-40219,,7-Eleven,Q259340
383,stewartsshops,Stewart's Shops,,Massena,NY,,US,+1 315-769-3259,https://locations.stewartsshops.com/ll/US/NY/Massena/10211-New-York-56,Mo-Su 04:30-00:00,Stewart's Shops,Q7615690
430,stewartsshops,Stewart's Shops,,Massena,NY,,US,+1 315-764-0693,https://locations.stewartsshops.com/ll/US/NY/Massena/200-N-Main-St,Mo-Su 04:30-00:00,Stewart's,Q7615690
https://restaurants.subway.com/#14895138,subway,Subway Mobil C-Store,,Massena Saint Lawrence,NY,,US,+1 315-769-8218,https://restaurants.subway.com/united-states/ny/massena/371-south-main-st,Mo-Su 08:00-21:00,Subway,Q244457
https://restaurants.subway.com/#14902604,subway,Subway Wal-Mart #1946,,Massena Saint Lawrence,NY,,US,+1 315-769-4100,https://restaurants.subway.com/united-states/ny/massena/43-stephenville-st,Mo-Su 08:00-21:00,Subway,Q244457
0363093602,sunoco_us,Sunoco,,MASSENA,NY,,US,,,,Sunoco,Q1423218
0119330900,sunoco_us,Sunoco,,MASSENA,NY,,US,+1 315-769-8898,,,Sunoco,Q1423218
0082832700,sunoco_us,Sunoco,,MASSENA,NY,,US,+1 315-769-1243,,,Sunoco,Q1423218
https://locations.tacobell.com/#6146015,taco_bell,Taco Bell,,Massena,NY,,US,+1 315-769-0949,https://locations.tacobell.com/ny/massena/1602-state-highway-37.html,Mo-Th 07:00-01:00; Fr-Sa 07:00-02:00; Su 07:00-01:00,Taco Bell,Q752941
08795,tjx,Massena,94 Grove Street,Massena,NY,,US,+1 315-769-7354,,Mo-Sa 09:30-21:30; Su 10:00-20:00,TJ Maxx,Q10860683
1372113,usps,MASSENA,,MASSENA,NY,,US,+1 315-769-5935,,Mo-Fr 09:00-17:00; Sa 09:30-12:00,United States Postal Service,Q668687
1366200045,usps_collection_boxes,USPS COLLECTION BOX - BLUE BOX,71 E HATFIELD ST,MASSENA,NY,,US,,,,United States Postal Service,Q668687
1366200036,usps_collection_boxes,USPS COLLECTION BOX - BLUE BOX,49 STEPHENVILLE ST,MASSENA,NY,,US,,,,United States Postal Service,Q668687
1366200027,usps_collection_boxes,USPS COLLECTION BOX - BLUE BOX,89 GROVE ST,MASSENA,NY,,US,,,,United States Postal Service,Q668687
1366200043,usps_collection_boxes,USPS COLLECTION BOX - BLUE BOX,55 VICTORY RD,MASSENA,NY,,US,,,,United States Postal Service,Q668687
1366200026,usps_collection_boxes,USPS COLLECTION BOX - BLUE BOX,300 MAIN ST,MASSENA,NY,,US,,,,United States Postal Service,Q668687
1366200034,usps_collection_boxes,USPS COLLECTION BOX - BLUE BOX,30 STEARNS ST,MASSENA,NY,,US,,,,United States Postal Service,Q668687
1366200025,usps_collection_boxes,USPS COLLECTION BOX - BLUE BOX,50 PARKER AVE,MASSENA,NY,,US,,,,United States Postal Service,Q668687
1366200022,usps_collection_boxes,USPS COLLECTION BOX - BLUE BOX,53 E ORVIS ST,MASSENA,NY,,US,,,,United States Postal Service,Q668687
1366200046,usps_collection_boxes,USPS COLLECTION BOX - BLUE BOX,113 MAIN ST,MASSENA,NY,,US,,,,United States Postal Service,Q668687
1366200047,usps_collection_boxes,USPS COLLECTION BOX - PO LOBBY,100 MAIN ST,MASSENA,NY,,US,,,,United States Postal Service,Q668687
1366200004,usps_collection_boxes,USPS COLLECTION BOX - BLUE BOX,96 MAIN ST,MASSENA,NY,,US,,,,United States Postal Service,Q668687
1366200005,usps_collection_boxes,USPS COLLECTION BOX - BLUE BOX,96 MAIN ST,MASSENA,NY,,US,,,,United States Postal Service,Q668687
1366200040,usps_collection_boxes,USPS COLLECTION BOX - PO LOBBY,100 MAIN ST,MASSENA,NY,,US,,,,United States Postal Service,Q668687
1366200039,usps_collection_boxes,USPS COLLECTION BOX - BLUE BOX,60 MAIN ST,MASSENA,NY,,US,,,,United States Postal Service,Q668687
1366200011,usps_collection_boxes,USPS COLLECTION BOX - BLUE BOX,31 GLENN ST,MASSENA,NY,,US,,,,United States Postal Service,Q668687
1366200042,usps_collection_boxes,USPS COLLECTION BOX - BLUE BOX,41 MAIN ST,MASSENA,NY,,US,,,,United States Postal Service,Q668687
1366200010,usps_collection_boxes,USPS COLLECTION BOX - BLUE BOX,4 CENTER ST,MASSENA,NY,,US,,,,United States Postal Service,Q668687
1366200038,usps_collection_boxes,USPS COLLECTION BOX - BLUE BOX,200 N MAIN ST,MASSENA,NY,,US,,,,United States Postal Service,Q668687
A00000244067,verizon_us,Cellular Sales Massena,,MASSENA,NY,,US,+1 315-705-4559,https://www.verizon.com/stores/details/new-york/massena/cellular-sales-massena-1609022/,Mo-Sa 09:00-20:00; Su 10:00-17:00,Verizon,Q919641
,visa,,,MASSENA,NY,,US,,,,,
,visa,,,HOGANSBURG,NY,,US,,,,,
,visa,,,MASSENA,NY,,US,,,,,
,visa,,,MASSENA,NY,,US,,,,,
,visa,,,MASSENA,NY,,US,,,,,
,visa,,,MASSENA,NY,,US,,,,,
,visa,,,MASSENA,NY,,US,,,,,
,visa,,,MASSENA,NY,,US,,,,,
,visa,,,MASSENA,NY,,US,,,,,
,visa,,,MASSENA,NY,,US,,,,,
,visa,,,MASSENA,NY,,US,,,,,
,visa,,,MASSENA,NY,,US,,,,,
,visa,,,MASSENA,NY,,US,,,,,
,visa,,,MASSENA,NY,,US,,,,,
,visa,,,MASSENA,NY,,US,,,,,
,visa,,,MASSENA,NY,,US,,,,,
,visa,,,MASSENA,NY,,US,,,,,
,visa,,,MASSENA,NY,,US,,,,,
,visa,,,MASSENA,NY,,US,,,,,
,visa,,,MASSENA,NY,,US,,,,,
,visa,,,MASSENA,NY,,US,,,,,
,visa,,,MASSENA,NY,,US,,,,,
,visa,,,MASSENA,NY,,US,,,,,
,visa,,,MASSENA,NY,,US,,,,,
,visa,,,MASSENA,NY,,US,,,,,
,visa,,,MASSENA,NY,,US,,,,,
,visa,,,MASSENA,NY,,US,,,,,
,visa,,,MASSENA,NY,,US,,,,,
,visa,,,MASSENA,NY,,US,,,,,
,visa,,,MASSENA,NY,,US,,,,,
,visa,,,MASSENA,NY,,US,,,,,
,visa,,,MASSENA,NY,,US,,,,,
,visa,,,MASSENA,NY,,US,,,,,
,visa,,,MASSENA,NY,,US,,,,,
,visa,,,MASSENA,NY,,US,,,,,
,visa,,,MASSENA,NY,,US,,,,,
,visa,,,MASSENA,NY,,US,,,,,
,visa,,,MASSENA,NY,,US,,,,,
,visa,,,MASSENA,NY,,US,,,,,
,visa,,,MASSENA,NY,,US,,,,,
,visa,,,MASSENA,NY,,US,,,,,
,visa,,,MASSENA,NY,,US,,,,,
https://www.walgreens.com/locator/walgreens-303+main+st-massena-ny-13662/id=10698,walgreens,Walgreens,,Massena,NY,,US,+1 315-764-0204,https://www.walgreens.com/locator/walgreens-303+main+st-massena-ny-13662/id=10698,Mo-Sa 09:00-21:00; Su 09:00-20:00,Walgreens,Q1591889
0adaa9b7d5b3555de446f53b4027c1da,western_union,WALMART #001946,,Massena,NY,,US,+1 315-769-1072,https://location.westernunion.com/us/ny/massena/0adaa9b7d5b3555de446f53b4027c1da,Mo-Su 07:00-21:00,Western Union,Q861042
