Ref,Spider,Name,Address,City,State,Zipcode,Country,Phone,Website,Hours,Brand,WikiData
08037,ace_hardware,Brown Lumber & Building Supply,,Columbiana,AL,,US,+1 205-669-6715,,Mo-Fr 07:00-17:00; Sa 07:00-15:00,Ace Hardware,Q4672981
49248,citi,ATM CVS,,Columbiana,AL,,US,,,,Citibank,Q857063
4866,cvs_us,CVS Pharmacy,,Columbiana,AL,,US,+1 205-669-3153,https://www.cvs.com/store-locator/columbiana-al-pharmacies/227-west-college-st-columbiana-al-35051/storeid=4866,Mo-Sa 08:00-21:00; Su 09:00-21:00,CVS Pharmacy,Q2078880
5361,dominos_pizza_us,Domino's Pizza,,Columbiana,AL,,US,+1 877-883-9643,https://pizza.dominos.com/alabama/columbiana/225-w-college-st,,Domino's,Q839466
https://www.edwardjones.com/us-en/financial-advisor/kyle-mims,edwardjones,Kyle Mims,,Columbiana,AL,,US,+1 205-669-8529,https://www.edwardjones.com/us-en/financial-advisor/kyle-mims,Mo-Th 08:00-16:30; Fr 08:00-15:30,Edward Jones,Q5343830
200328741,exxonmobil,CJ'S COUNTRY STORE,,COLUMBIANA,AL,,US,+1 205-669-5417,https://www.exxon.com/en/find-station/exxon-columbiana-al-cjscountrystore-200328741,Mo-Su 05:00-21:00,Exxon,Q109675651
200325907,exxonmobil,Columbiana Foodmart,,Columbiana,AL,,US,+1 205-671-5038,https://www.exxon.com/en/find-station/mobil-columbiana-al-columbianafoodmart-200325907,Mo-Su 06:00-22:00,Mobil,Q109676002
200324797,exxonmobil,A TO Z QUICK STOP AND GRILL,,COLUMBIANA,AL,,US,+1 205-671-5488,https://www.exxon.com/en/find-station/exxon-columbiana-al-atozquickstopandgrill-200324797,Mo-Fr 07:00-22:00; Sa-Su 08:00-21:00,Exxon,Q109675651
https://locations.oreillyauto.com/al/columbiana/autoparts-4845.html,oreilly,Your Columbiana O'Reilly Auto Parts Store,,Columbiana,AL,,US,+1 205-319-2004,https://locations.oreillyauto.com/al/columbiana/autoparts-4845.html,Mo-Sa 07:00-21:00; Su 08:00-20:00,O'Reilly Auto Parts,Q7071951
https://locations.oreillyauto.com/al/columbiana/check-engine-light-testing-4845.html,oreilly,Your Columbiana O'Reilly Auto Parts Store,,Columbiana,AL,,US,+1 205-319-2004,https://locations.oreillyauto.com/al/columbiana/check-engine-light-testing-4845.html,Mo-Sa 07:00-21:00; Su 08:00-20:00,O'Reilly Auto Parts,Q7071951
https://locations.oreillyauto.com/al/columbiana/wiper-installation-4845.html,oreilly,Your Columbiana O'Reilly Auto Parts Store,,Columbiana,AL,,US,+1 205-319-2004,https://locations.oreillyauto.com/al/columbiana/wiper-installation-4845.html,Mo-Sa 07:00-21:00; Su 08:00-20:00,O'Reilly Auto Parts,Q7071951
https://locations.oreillyauto.com/al/columbiana/autopartes-4845.html,oreilly,Tu tienda O'Reilly Auto Parts en Columbiana,,Columbiana,AL,,US,+1 205-319-2004,https://locations.oreillyauto.com/al/columbiana/autopartes-4845.html,Mo-Sa 07:00-21:00; Su 08:00-20:00,O'Reilly Auto Parts,Q7071951
https://locations.oreillyauto.com/al/columbiana/battery-testing-4845.html,oreilly,Your Columbiana O'Reilly Auto Parts Store,,Columbiana,AL,,US,+1 205-319-2004,https://locations.oreillyauto.com/al/columbiana/battery-testing-4845.html,Mo-Sa 07:00-21:00; Su 08:00-20:00,O'Reilly Auto Parts,Q7071951
23,piggly_wiggly_us,Piggly Wiggly,,Columbiana,AL,,US,+1 205-669-9916,http://www.pigglywigglycolumbianaal.com,,Piggly Wiggly,Q3388303
2464,snap_fitness,"Columbiana, AL",208-A W College St,Columbiana,AL,,US,+1 205-610-9291,https://www.snapfitness.com/us/gyms/columbiana-al,24/7,Snap Fitness,Q7547254
https://restaurants.subway.com/#1034602008,subway,Subway 305 W College St,,Columbiana,AL,,US,+1 205-671-5099,https://restaurants.subway.com/united-states/al/columbiana/305-w-college-st,Mo-Th 08:00-21:00; Fr 08:00-22:00; Sa 09:00-22:00; Su 09:00-21:00,Subway,Q244457
https://locations.tacobell.com/#15090121,taco_bell,Taco Bell,,Columbiana,AL,,US,+1 205-610-9282,https://locations.tacobell.com/al/columbiana/218-w--college-street.html,Mo-We 08:00-24:00; Th-Fr 08:00-01:00; Sa-Su 08:00-24:00,Taco Bell,Q752941
004167,uhaul,Patriot Automotive,3245 Hwy 70,Columbiana,AL,,US,+1 205-669-0741,,Mo-Fr 00:00-15:00,U-Haul,Q7862902
1358794,usps,COLUMBIANA,,COLUMBIANA,AL,,US,+1 205-669-7726,,Mo-Fr 08:00-16:30; Sa 09:00-12:00,United States Postal Service,Q668687
3505100003,usps_collection_boxes,USPS COLLECTION BOX - BLUE BOX,108 N MAIN ST,COLUMBIANA,AL,,US,,,,United States Postal Service,Q668687
3505100006,usps_collection_boxes,USPS COLLECTION BOX - PO LOBBY,210 W COLLEGE ST,COLUMBIANA,AL,,US,,,,United States Postal Service,Q668687
3505100004,usps_collection_boxes,USPS COLLECTION BOX - PO LOBBY,210 W COLLEGE ST,COLUMBIANA,AL,,US,,,,United States Postal Service,Q668687
3505100001,usps_collection_boxes,USPS COLLECTION BOX - BLUE BOX,210 W COLLEGE ST,COLUMBIANA,AL,,US,,,,United States Postal Service,Q668687
3505100000,usps_collection_boxes,USPS COLLECTION BOX - BLUE BOX,210 W COLLEGE ST,COLUMBIANA,AL,,US,,,,United States Postal Service,Q668687
,visa,,,COLUMBIANA,AL,,US,,,,,
,visa,,,COLUMBIANA,AL,,US,,,,,
,visa,,,COLUMBIANA,AL,,US,,,,,
,visa,,,COLUMBIANA,AL,,US,,,,,
,visa,,,COLUMBIANA,AL,,US,,,,,
,visa,,,COLUMBIANA,AL,,US,,,,,
,visa,,,COLUMBIANA,AL,,US,,,,,
,visa,,,COLUMBIANA,AL,,US,,,,,
,visa,,,COLUMBIANA,AL,,US,,,,,
,visa,,,COLUMBIANA,AL,,US,,,,,
,visa,,,CHELSEA,AL,,US,,,,,
