Ref,Spider,Name,Address,City,State,Zipcode,Country,Phone,Website,Hours,Brand,WikiData
2041095,chase_us,Orange Grove and Fair Oaks - New branch,,Pasadena,CA,,US,+1 626-463-0664,https://locator.chase.com/ca/pasadena/675-n-fair-oaks-ave,Mo-Fr 09:00-17:00; Sa 09:00-14:00,Chase,Q524629
48783,citi,ATM CVS,,Pasadena,CA,,US,,,,Citibank,Q857063
9848,cvs_us,CVS Pharmacy y m√°s,,Pasadena,CA,,US,+1 626-795-6609,https://www.cvs.com/store-locator/pasadena-ca-pharmacies/20-e-orange-grove-blvd-pasadena-ca-91103/storeid=9848,Mo-Su 07:00-23:00,CVS Pharmacy,Q2078880
210414,electrify_america,"Shopcore One Colorado (Pasadena, CA)",,Pasadena,CA,,US,,,,Electrify America,Q59773555
E132PN,enterprise,Pasadena Rose Bowl,,Pasadena,CA,,US,+1 626-568-8445,,,Enterprise Rent-A-Car,Q17085454
parsons-west-annex,indigo,Parsons West Annex,,Pasadena,CA,,US,+1 626-578-1705,,,Indigo,Q3559970
parsons-east-annex,indigo,Parsons East Annex,,Pasadena,CA,,US,+1 626-578-1705,,,Indigo,Q3559970
one-colorado,indigo,One Colorado,,Pasadena,CA,,US,+1 310-446-7925,,,Indigo,Q3559970
https://locations.jimmyjohns.com/ca/pasadena/sandwiches-4022.html,jimmy_johns,Jimmy John's,,Pasadena,CA,,US,+1 626-356-4441,https://locations.jimmyjohns.com/ca/pasadena/sandwiches-4022.html,,Jimmy John's,Q1689380
https://healthy.kaiserpermanente.org/southern-california/facilities/kaiser-foundation-health-plan-inc-enhanced-care-management-ecm-and-community-supports-cs-136613,kaiser_permanente_us,Kaiser Foundation Health Plan Inc - Enhanced Care Management (ECM) and Community Supports (CS),,Pasadena,CA,,US,+1 866-551-9619,https://healthy.kaiserpermanente.org/southern-california/facilities/kaiser-foundation-health-plan-inc-enhanced-care-management-ecm-and-community-supports-cs-136613,,Kaiser Permanente,Q1721601
https://healthy.kaiserpermanente.org/southern-california/facilities/impact-drug-and-alcohol-treatment-center-326595,kaiser_permanente_us,Impact Drug and Alcohol Treatment Center,,Pasadena,CA,,US,+1 626-798-0884,https://healthy.kaiserpermanente.org/southern-california/facilities/impact-drug-and-alcohol-treatment-center-326595,,Kaiser Permanente,Q1721601
https://healthy.kaiserpermanente.org/southern-california/facilities/five-acres-enhanced-care-management-ecm-173160,kaiser_permanente_us,Five Acres - Enhanced Care Management (ECM),,Pasadena,CA,,US,+1 626-993-3113,https://healthy.kaiserpermanente.org/southern-california/facilities/five-acres-enhanced-care-management-ecm-173160,,Kaiser Permanente,Q1721601
https://healthy.kaiserpermanente.org/southern-california/facilities/five-acres-community-supports-cs-171993,kaiser_permanente_us,Five Acres - Community Supports (CS),,Pasadena,CA,,US,+1 626-798-6793,https://healthy.kaiserpermanente.org/southern-california/facilities/five-acres-community-supports-cs-171993,,Kaiser Permanente,Q1721601
https://healthy.kaiserpermanente.org/southern-california/facilities/brighton-convalescent-center-340421,kaiser_permanente_us,Brighton Convalescent Center,,Pasadena,CA,,US,+1 626-798-9124,https://healthy.kaiserpermanente.org/southern-california/facilities/brighton-convalescent-center-340421,,Kaiser Permanente,Q1721601
https://locations.kfc.com/#11246621,kfc,Chicken Nuggets Near Pasadena,,Pasadena,CA,,US,,https://locations.kfc.com/ca/pasadena/2050-fair-oaks-boulevard/chickennugget,Mo-Su 10:00-22:00,KFC,Q524757
33800,little_free_library,Donna Kent #33800 Pasadena CA,,Pasadena,CA,,US,,,,Little Free Library,Q6650101
9241,little_free_library,Alyssa Bellew #9241 Pasadena CA,,Pasadena,CA,,US,,,,Little Free Library,Q6650101
112339,little_free_library,The A's Little Free Library #112339 Pasadena CA,,Pasadena,CA,,US,,,,Little Free Library,Q6650101
101595,little_free_library,Kelsey Cushing #101595 Pasadena CA,,Pasadena,CA,,US,,,,Little Free Library,Q6650101
123193,little_free_library,Villa Street Little Free Library #123193 Pasadena CA,,Pasadena,CA,,US,,,,Little Free Library,Q6650101
2179,little_free_library,Donald Petersen #2179 Pasadena CA,,Pasadena,CA,,US,,,,Little Free Library,Q6650101
6430,little_free_library,Susana Porras #6430 Pasadena CA,,Pasadena,CA,,US,,,,Little Free Library,Q6650101
44741,little_free_library,Terri Ashley-MacQuarrie #44741 pasadena CA,,pasadena,CA,,US,,,,Little Free Library,Q6650101
147532,little_free_library,Dahlia Bloom Little Free Library #147532 Pasadena CA,,Pasadena,CA,,US,,,,Little Free Library,Q6650101
148191,little_free_library,PPHD Little Free Library #148191 Pasadena CA,,Pasadena,CA,,US,,,,Little Free Library,Q6650101
49446,little_free_library,Slattery Family Little Free Library #49446 Pasadena CA,,Pasadena,CA,,US,,,,Little Free Library,Q6650101
LAXOT,marriott,Courtyard Los Angeles Pasadena/Old Town,,Pasadena,CA,,US,+1 626-403-7600,https://www.marriott.com/LAXOT,,Courtyard by Marriott,Q1053170
LAXRO,marriott,Residence Inn Los Angeles Pasadena/Old Town,,Pasadena,CA,,US,+1 626-204-9220,https://www.marriott.com/LAXRO,,Residence Inn by Marriott,Q7315394
https://www.publicstorage.com/self-storage-ca-pasadena/51.html,public_storage_us,Public Storage,,Pasadena,CA,,US,+1 626-765-4754,https://www.publicstorage.com/self-storage-ca-pasadena/51.html,,Public Storage,Q1156045
https://www.solidcore.co/ca/california/west-hollywood/,solidcore_us,[solidcore],,Pasadena,CA,,US,+1 323-433-5685,https://www.solidcore.co/ca/california/west-hollywood/,,[solidcore],Q124429271
https://restaurants.subway.com/#14897545,subway,Subway,,Pasadena Los Angeles,CA,,US,+1 626-577-8277,https://restaurants.subway.com/united-states/ca/pasadena/615-n-fair-oaks-ave,Mo-Fr 06:00-24:00; Sa-Su 07:00-23:00,Subway,Q244457
https://restaurants.subway.com/#14908624,subway,Subway,,Pasadena Los Angeles,CA,,US,+1 626-577-0050,https://restaurants.subway.com/united-states/ca/pasadena/15-east-holly-street,Mo-Fr 06:00-20:00; Sa-Su 08:00-20:00,Subway,Q244457
https://locations.tacobell.com/#6145320,taco_bell,Taco Bell,,Pasadena,CA,,US,+1 626-797-1127,https://locations.tacobell.com/ca/pasadena/2050-fair-oaks-boulevard.html,Mo-Su 11:00-22:00,Taco Bell,Q752941
9110300036,usps_collection_boxes,USPS COLLECTION BOX - BLUE BOX,1100 N FAIR OAKS AVE,PASADENA,CA,,US,,,,United States Postal Service,Q668687
9110300037,usps_collection_boxes,USPS COLLECTION BOX - BLUE BOX,1100 N FAIR OAKS AVE,PASADENA,CA,,US,,,,United States Postal Service,Q668687
9110300034,usps_collection_boxes,USPS COLLECTION BOX - BLUE BOX,1446 LINDA VISTA AVE,PASADENA,CA,,US,,,,United States Postal Service,Q668687
9110300007,usps_collection_boxes,USPS COLLECTION BOX - BLUE BOX,1270 LINCOLN AVE,PASADENA,CA,,US,,,,United States Postal Service,Q668687
9110300014,usps_collection_boxes,USPS COLLECTION BOX - BLUE BOX,74 N PASADENA AVE,PASADENA,CA,,US,,,,United States Postal Service,Q668687
9110300020,usps_collection_boxes,USPS COLLECTION BOX - BLUE BOX,91 N RAYMOND AVE,PASADENA,CA,,US,,,,United States Postal Service,Q668687
9110300033,usps_collection_boxes,USPS COLLECTION BOX - BLUE BOX,100 W WALNUT ST,PASADENA,CA,,US,,,,United States Postal Service,Q668687
pasadena-51,vallarta,Pasadena #51,655 N Fair Oaks Ave,Pasadena,CA,,US,+1 626-204-6960,https://vallartasupermarkets.com/store-locations/pasadena-51/,Mo-Su 07:00-22:00,Vallarta Supermarkets,Q7911833
,visa,,,PASADENA,CA,,US,,,,,
,visa,,,PASADENA,CA,,US,,,,,
,visa,,,PASADENA,CA,,US,,,,,
,visa,,,PASADENA,CA,,US,,,,,
,visa,,,PASADENA,CA,,US,,,,,
,visa,,,PASADENA,CA,,US,,,,,
,visa,,,PASADENA,CA,,US,,,,,
,visa,,,PASADENA,CA,,US,,,,,
,visa,,,PASADENA,CA,,US,,,,,
,visa,,,PASADENA,CA,,US,,,,,
,visa,,,PASADENA,CA,,US,,,,,
,visa,,,PASADENA,CA,,US,,,,,
,visa,,,PASADENA,CA,,US,,,,,
,visa,,,PASADENA,CA,,US,,,,,
,visa,,,PASADENA,CA,,US,,,,,
,visa,,,PASADENA,CA,,US,,,,,
,visa,,,PASADENA,CA,,US,,,,,
,visa,,,PASADENA,CA,,US,,,,,
,visa,,,PASADENA,CA,,US,,,,,
,visa,,,PASADENA,CA,,US,,,,,
,visa,,,PASADENA,CA,,US,,,,,
,visa,,,PASADENA,CA,,US,,,,,
,visa,,,PASADENA,CA,,US,,,,,
,visa,,,PASADENA,CA,,US,,,,,
,visa,,,PASADENA,CA,,US,,,,,
,visa,,,PASADENA,CA,,US,,,,,
,visa,,,PASADENA,CA,,US,,,,,
,visa,,,PASADENA,CA,,US,,,,,
,visa,,,PASADENA,CA,,US,,,,,
,visa,,,PASADENA,CA,,US,,,,,
,visa,,,PASADENA,CA,,US,,,,,
,visa,,,PASADENA,CA,,US,,,,,
,visa,,,PASADENA,CA,,US,,,,,
,visa,,,PASADENA,CA,,US,,,,,
,visa,,,PASADENA,CA,,US,,,,,
,visa,,,PASADENA,CA,,US,,,,,
,visa,,,PASADENA,CA,,US,,,,,
,visa,,,PASADENA,CA,,US,,,,,
,visa,,,PASADENA,CA,,US,,,,,
655__N__FAIR__OAKS__AVE_PASADENA_CA_91103,wellsfargo,Wells Fargo,655 N FAIR OAKS AVE,PASADENA,CA,,US,+1 626-685-9275,https://www.wellsfargo.com/locator/bank/655__N__FAIR__OAKS__AVE_PASADENA_CA_91103/,Mo-Fr 09:00-17:00,Wells Fargo,Q744149
