Ref,Spider,Name,Address,City,State,Zipcode,Country,Phone,Website,Hours,Brand,WikiData
rs:125,dm,dm drogerie markt doo,,Leskovac,,,RS,+381 64 8571363,https://www.dm.rs/store/j055/leskovac/bulevar-oslobodenja-bb,Mo-Sa 08:00-21:00; Su 09:00-15:00,dm,Q266572
Y119,jysk,Leskovac,,Leskovac,,,RS,+381 11 6555945,https://jysk.rs/prodavnice?storeId=Y119,Mo-Sa 09:00-21:00; Su 10:00-17:00,JYSK,Q138913
72019896,moneygram,MONETA - ATLANTIKO - #1 - LESKOVAC,,LESKOVAC,,,RS,+381 16 241219,,Mo-Fr 08:00-20:00; Sa-Su 08:00-18:00,MoneyGram,Q1944412
72036316,moneygram,MONETA -MALI MANCESTER - #1 - LESKOVAC,,LESKOVAC,,,RS,+381 16 213200,,Mo-Sa 08:00-20:00; Su 08:00-16:00,MoneyGram,Q1944412
72026601,moneygram,MONETA -MENJACNICA HANA EXCHANGE - #1 -,,LESKOVAC,,,RS,+381 16 241470,,Mo-Fr 08:00-18:00; Sa 08:00-15:00; Su 08:00-12:00,MoneyGram,Q1944412
71880288,moneygram,PE POST OF SERBIA BELGRADE - #16000 - L,,LESKOVAC,,,RS,+381 16 212574,,Mo-Fr 07:00-19:00; Sa 07:00-15:00; Su 00:00-24:00,MoneyGram,Q1944412
72429114,moneygram,PEPINO M,,LESKOVAC,,,RS,+381 16 223959,,Mo-Sa 07:00-21:00; Su 00:00-24:00,MoneyGram,Q1944412
72669217,moneygram,DOCUMENT EXPRESS 016,,LESKOVAC,,,RS,+381 63 565190,,Mo-Fr 08:00-16:00; Sa 09:00-14:00; Su 00:00-24:00,MoneyGram,Q1944412
73841924,moneygram,KIDS EURO,,LESKOVAC,,,RS,+381 60 4141122,,Mo-Fr 09:00-18:00; Sa 09:30-14:00; Su 00:00-24:00,MoneyGram,Q1944412
68954282,moneygram,SBERBANK - LESKOVAC,,LESKOVAC,,,RS,19909,,Mo-Fr 08:00-16:00; Sa-Su 00:00-24:00,MoneyGram,Q1944412
74910333,moneygram,MONETA  KING,,LESKOVAC,,,RS,+381 65 2844603,,Mo-Sa 07:00-20:00; Su 00:00-24:00,MoneyGram,Q1944412
71040921,moneygram,MONETA - KING - #2,,LESKOVAC,,,RS,+381 16 215655,,Mo-Sa 07:00-20:00; Su 00:00-24:00,MoneyGram,Q1944412
71040918,moneygram,MONETA - KING - #1,,LESKOVAC,,,RS,+381 16 252190,,Mo-Sa 07:00-20:00; Su 08:00-16:00,MoneyGram,Q1944412
71506559,moneygram,MONETA - KING - #5 - LESKOVAC,,LESKOVAC,,,RS,+381 16 6216500,,Mo-Sa 07:00-20:00; Su 00:00-24:00,MoneyGram,Q1944412
71444828,moneygram,MONETA - LAV B&T - LESKOVAC,,LESKOVAC,,,RS,+381 16 214013,,Mo-Fr 08:00-20:00; Sa 08:00-16:00; Su 00:00-24:00,MoneyGram,Q1944412
71405210,moneygram,MONETA - UNO SIKI - LESKOVAC,,LESKOVAC,,,RS,+381 16 245107,,Mo-Fr 08:00-18:00; Sa 08:00-15:00; Su 00:00-24:00,MoneyGram,Q1944412
5b3cb3fac00458481b4376d7,newyorker,NEW YORKER,"Boulevard Oslobodenja, 16000 Leskovac",Leskovac,,,RS,+381 16 218441,,Mo-Sa 09:00-21:00; Su 10:00-17:00,New Yorker,Q706421
RS.2309.8,omv,OMV,,Leskovac,,,RS,+381 16 260708,,24/7,OMV,Q168238
10120854,shell,CORAL SRB10 LESKOVAC,,LESKOVAC,,,RS,+381 16 3102146,,24/7,Shell,Q110716465
,visa,,,LESKOVAC,,,RS,,,,,
,visa,,,LESKOVAC,,,RS,,,,,
,visa,,,LESKOVAC,,,RS,,,,,
,visa,,,LESKOVAC,,,RS,,,,,
,visa,,,LESKOVAC,,,RS,,,,,
,visa,,,LESKOVAC,,,RS,,,,,
,visa,,,LESKOVAC,,,RS,,,,,
26,yettel_rs,Yettel,,Leskovac ,,,RS,,,Mo-Fr 08:00-20:00; Sa 08:00-16:00,Yettel,Q1780171
322,yettel_rs,Yettel,,Leskovac ,,,RS,,,Mo-Su 09:00-21:00,Yettel,Q1780171
