Ref,Spider,Name,Address,City,State,Zipcode,Country,Phone,Website,Hours,Brand,WikiData
https://stores.advanceautoparts.com/oh/woodsfield/212-eastern-ave,advance_auto_parts_us,Advance Auto Parts,,Woodsfield,OH,,US,+1 740-628-0272,https://stores.advanceautoparts.com/oh/woodsfield/212-eastern-ave,Mo-Sa 07:30-21:00; Su 09:00-20:00,Advance Auto Parts,Q4686051
213507,bluerhino,Par Mar Store #174 (Marathon),,Woodsfield,OH,,US,+1 740-472-1318,,,Blue Rhino,Q65681213
137923,bluerhino,Riesbeck's #2 - #5672,,Woodsfield,OH,,US,+1 740-472-0777,,,Blue Rhino,Q65681213
211989,bluerhino,MMNSV #640,,Woodsfield,OH,,US,+1 740-472-0209,,,Blue Rhino,Q65681213
198872,bluerhino,Modern Home & Hardware - DIB #2805,,Woodsfield,OH,,US,+1 740-472-5404,,,Blue Rhino,Q65681213
164587,bluerhino,Family Dollar #07844,,Woodsfield,OH,,US,+1 740-472-6125,,,Blue Rhino,Q65681213
205778,bluerhino,Rite Aid #02795,,Woodsfield,OH,,US,+1 740-472-5311,,,Blue Rhino,Q65681213
99074905212044379300100000000000,bp,BP,,Woodsfield,OH,,US,+1 740-472-5475,,24/7,BP,Q152057
72828,citi,ATM Rite Aid,,Woodsfield,OH,,US,,,,Citibank,Q857063
95813,citi,ATM WOODSFIELD SAVINGS BANK,,Woodsfield,OH,,US,,,,Citibank,Q857063
2281,dominos_pizza_us,Domino's Pizza,,Woodsfield,OH,,US,+1 740-472-1744,https://pizza.dominos.com/ohio/woodsfield/212b-eastern-ave,Mo-Th 10:30-23:00; Fr-Sa 10:30-24:00; Su 10:30-23:00,Domino's,Q839466
27844,family_dollar_us,FAMILY DOLLAR #7844,,Woodsfield,OH,,US,+1 740-472-6125,https://www.familydollar.com/locations/oh/woodsfield/27844/,Mo-Su 08:00-22:00,Family Dollar,Q5433101
Motorcraft2924USAEnglish,ford,Knowlton Ford Inc.,,Ohio,OH,,US,+1 740-472-0783,,,Ford,Q44294
https://www.ford.com/dealerships/dealer-details/oh/woodsfield/knowlton-ford-inc/,ford_dealers_us,Knowlton Ford Inc.,,Woodsfield,OH,,US,+1 740-472-0783,https://www.ford.com/dealerships/dealer-details/oh/woodsfield/knowlton-ford-inc/,,Ford Motor Company,Q44294
4642,gulf_pr_us,RED HEAD QUICK STOP,,Woodsfield,OH,,US,+1 740-472-0022,https://www.gulfoil.com/red-head-quick-stop,,Gulf Oil,Q5617505
26694,h_r_block,H&R Block,,Woodsfield,OH,,US,+1 740-472-1812,https://www.hrblock.com/local-tax-offices/ohio/woodsfield/212-eastern-ave/26694/,,H&R Block,Q5627799
https://locations.kfc.com/#11249810,kfc,Chicken Nuggets Near Woodsfield,,Woodsfield,OH,,US,,https://locations.kfc.com/oh/woodsfield/116-north-main-street/chickennugget,Mo-Th 10:30-21:30; Fr-Sa 10:30-22:00; Su 10:30-21:00,KFC,Q524757
160261,marathon_petroleum_us,Woodsfield Food Mart,,WOODSFIELD,OH,,US,+1 740-472-0209,,,Marathon,Q458363
160126,marathon_petroleum_us,Par Mar 174,,WOODSFIELD,OH,,US,+1 740-472-1318,,,Marathon,Q458363
2,riesbeck_food_markets_us,Woodsfield,,Woodsfield,OH,,US,+1 740-472-0777,https://www.riesbeckfoods.com/stores/woodsfield,Mo-Su 06:00-22:00,Riesbeck's,Q28226114
02795,rite_aid_us,Rite Aid #02795 Woodsfield,,Woodsfield,OH,,US,+1 740-472-5311,https://locations2.riteaid.com.yext-cdn.com/oh/woodsfield/148-north-main-street.html,Mo-Fr 09:00-21:00; Sa 09:00-19:00; Su 09:00-18:00,Rite Aid,Q3433273
https://restaurants.subway.com/#14897390,subway,Subway,,Woodsfield Monroe,OH,,US,+1 740-472-1107,https://restaurants.subway.com/united-states/oh/woodsfield/102-s-main-st,Mo-Su 09:00-22:00,Subway,Q244457
https://locations.tacobell.com/#6146894,taco_bell,Taco Bell,,Woodsfield,OH,,US,+1 740-472-9005,https://locations.tacobell.com/oh/woodsfield/116-north-main-street.html,,Taco Bell,Q752941
1388234,usps,WOODSFIELD,,WOODSFIELD,OH,,US,+1 740-472-1711,,Mo-Fr 09:00-16:15; Sa 09:00-12:00,United States Postal Service,Q668687
4379300001,usps_collection_boxes,USPS COLLECTION BOX - BLUE BOX,125 N MAIN ST,WOODSFIELD,OH,,US,,,,United States Postal Service,Q668687
4379300023,usps_collection_boxes,USPS COLLECTION BOX - PO LOBBY,125 N MAIN ST,WOODSFIELD,OH,,US,,,,United States Postal Service,Q668687
4379300030,usps_collection_boxes,USPS COLLECTION BOX - PO LOBBY,125 N MAIN ST,WOODSFIELD,OH,,US,,,,United States Postal Service,Q668687
4379300024,usps_collection_boxes,USPS COLLECTION BOX - BLUE BOX,42988 SIX POINTS RD,WOODSFIELD,OH,,US,,,,United States Postal Service,Q668687
,visa,,,WOODSFIELD,OH,,US,,,,,
,visa,,,WOODSFIELD,OH,,US,,,,,
,visa,,,WOODSFIELD,OH,,US,,,,,
,visa,,,WOODSFIELD,OH,,US,,,,,
,visa,,,WOODSFIELD,OH,,US,,,,,
,visa,,,WOODSFIELD,OH,,US,,,,,
,visa,,,WOODSFIELD,OH,,US,,,,,
,visa,,,WOODSFIELD,OH,,US,,,,,
,visa,,,WOODSFIELD,OH,,US,,,,,
,visa,,,WOODSFIELD,OH,,US,,,,,
,visa,,,WOODSFIELD,OH,,US,,,,,
,visa,,,WOODSFIELD,OH,,US,,,,,
,visa,,,WOODSFIELD,OH,,US,,,,,
,visa,,,WOODSFIELD,OH,,US,,,,,
,visa,,,WOODSFIELD,OH,,US,,,,,
,visa,,,WOODSFIELD,OH,,US,,,,,
,visa,,,WOODSFIELD,OH,,US,,,,,
2077eb50856048a8965bc96298a416e6,western_union,PAR MAR #174,,Woodsfield,OH,,US,+1 740-472-1318,https://location.westernunion.com/us/oh/woodsfield/2077eb50856048a8965bc96298a416e6,,Western Union,Q861042
