Ref,Spider,Name,Address,City,State,Zipcode,Country,Phone,Website,Hours,Brand,WikiData
2287,bluerhino,Cumberland Farms #6662,,East Pepperell,MA,,US,+1 978-433-8924,,,Blue Rhino,Q65681213
27133,citi,ATM 7ELEVEN-FCTI,,Pepperell,MA,,US,,,,Citibank,Q857063
92043,citi,ATM Walgreens,,Pepperell,MA,,US,,,,Citibank,Q857063
ATM-1560,citizens_us,,,East Pepperell,MA,,US,,,,Citizens,Q5122694
520362,cumberland_farms_us,Cumberland Farms,,PEPPERELL,MA,,US,+1 978-433-8924,https://www.cumberlandfarms.com/find-us/generic-store-page/?id=006662,,Cumberland Farms,Q1143685
3731,dominos_pizza_us,Domino's Pizza,,Pepperell,MA,,US,+1 978-743-0091,https://pizza.dominos.com/massachusetts/pepperell/116-main-st,Mo-Th 10:30-24:00; Fr-Sa 10:30-01:00; Su 10:30-24:00,Domino's,Q839466
356283,dunkin_us,Dunkin',,Pepperell,MA,,US,+1 978-433-1969,https://locations.dunkindonuts.com/en/ma/pepperell/61-63-main-st/356283,Mo-Su 05:00-20:00,Dunkin',Q847743
520362,eg_america_us,Cumberland Farms,,PEPPERELL,MA,,US,+1 978-433-8924,https://www.cumberlandfarms.com/find-us/generic-store-page/?id=006662,,Cumberland Farms,Q1143685
1400,gulf_pr_us,PEPPERELL COLLISION & AUTO,,Pepperell,MA,,US,+1 978-925-9828,https://www.gulfoil.com/pepperell-collision-auto,,Gulf Oil,Q5617505
34412,seven_eleven_ca_us,7-Eleven Store,,Pepperell,MA,,US,+1 978-433-8616,https://www.7-eleven.com/locations/ma/pepperell/2-tarbell-st-34412,,7-Eleven,Q259340
1377210,usps,PEPPERELL,,PEPPERELL,MA,,US,+1 978-433-5298,,Mo-Fr 08:00-17:00; Sa 09:00-12:00,United States Postal Service,Q668687
0146300002,usps_collection_boxes,USPS COLLECTION BOX - BLUE BOX,41 LOWELL RD,PEPPERELL,MA,,US,,,,United States Postal Service,Q668687
0146300009,usps_collection_boxes,USPS COLLECTION BOX - PO LOBBY,41 LOWELL RD,PEPPERELL,MA,,US,,,,United States Postal Service,Q668687
0146300010,usps_collection_boxes,USPS COLLECTION BOX - BLUE BOX,41 LOWELL RD,PEPPERELL,MA,,US,,,,United States Postal Service,Q668687
0146300006,usps_collection_boxes,USPS COLLECTION BOX - BLUE BOX,1 MAIN ST,PEPPERELL,MA,,US,,,,United States Postal Service,Q668687
,visa,,,PEPPERELL,MA,,US,,,,,
,visa,,,PEPPERELL,MA,,US,,,,,
,visa,,,PEPPERELL,MA,,US,,,,,
,visa,,,PEPPERELL,MA,,US,,,,,
,visa,,,PEPPERELL,MA,,US,,,,,
https://www.walgreens.com/locator/walgreens-60+groton+st-pepperell-ma-01463/id=17464,walgreens,Walgreens,,Pepperell,MA,,US,+1 978-433-2711,https://www.walgreens.com/locator/walgreens-60+groton+st-pepperell-ma-01463/id=17464,Mo-Su 07:00-22:00,Walgreens,Q1591889
c0d65fdb30a47a9f2b9b99377902715e,western_union,WALGREENS #17464,,Pepperell,MA,,US,+1 978-433-2711,https://location.westernunion.com/us/ma/pepperell/c0d65fdb30a47a9f2b9b99377902715e,Mo-Fr 08:00-21:00; Sa-Su 08:00-20:00,Western Union,Q861042
8fda9b64f16c303c882cda2c6928ff28,western_union,7-ELEVEN #34412,,Pepperell,MA,,US,+1 978-433-8616,https://location.westernunion.com/us/ma/pepperell/8fda9b64f16c303c882cda2c6928ff28,,Western Union,Q861042
