Ref,Spider,Name,Address,City,State,Zipcode,Country,Phone,Website,Hours,Brand,WikiData
3694,amcal_au,Amcal+ Pharmacy Kununurra,"64 Konkerberry Drive, Kununurra Shopping Centre, Kununurra WA 6743",Kununurra,WA,,AU,+61 8 9168 1111,https://amcal.com.au/store/3694/WA/amcal-pharmacy-kununurra/,Mo-Fr 08:30-17:30; Sa 09:00-13:00; Su 00:00-00:00,Amcal,Q63367373
634791_PO,australia_post_au,DURACK CPA,,DURACK,WA,,AU,+61 8 9167 8004,,,Australia Post,Q1142936
614993_PO,australia_post_au,WARMUN CPA,,WARMUN,WA,,AU,+61 8 9168 7882,,,Australia Post,Q1142936
RED0000215,australia_post_au,,,WARMUN,WA,,AU,,,,Australia Post,Q1142936
637159_PO,australia_post_au,KUNUNURRA POST SHOP,,KUNUNURRA,WA,,AU,+61 131318,,,Australia Post,Q1142936
78830809_UPL,australia_post_au,Kununurra Parcel Locker,,KUNUNURRA,WA,,AU,,,24/7,Australia Post,Q1142936
RED0001205,australia_post_au,,,KUNUNURRA,WA,,AU,,,,Australia Post,Q1142936
23836791,bottlemart_au,KUNUNURRA HOTEL,,kununurra,WA,,AU,+61 8 9168 0400,,,Bottlemart,Q102863175
7835,bp,BP OPT KUNUNURRA,,KUNUNURRA,WA,,AU,+61 8 9418 3206,,24/7,BP,Q152057
7817,bp,DPT KUNUNURRA BULL RUN ROAD,,KUNUNURRA,WA,,AU,+61 8 9418 3206,,24/7,BP,Q152057
https://www.bridgestone.com.au/stores/wa/bridgestone-service-centre-kununurra,bridgestone_select,Bridgestone Service Centre Kununurra,,Kununurra,WA,,AU,+61 8 9169 3777,https://www.bridgestone.com.au/stores/wa/bridgestone-service-centre-kununurra/,Mo-Fr 07:00-16:00; Sa 08:00-24:00,Bridgestone Select Tyre & Auto,Q122420123
70639,caltex,Caltex Ord River,,Kununurra,WA,,AU,+61 8 9169 1188,,,Caltex,Q277470
71024,caltex,OPT Kununurra,,Kununurra,WA,,AU,,,,Caltex,Q277470
6954,coles_au,Coles Express Kununurra Roadhouse,,Kununurra,WA,,AU,+61 8 6157 5636,,,Coles Express,Q5144653
325,coles_au,Coles Kununurra,,Kununurra,WA,,AU,+61 8 9118 6100,,,Coles Supermarkets,Q1108172
653001,commonwealth_bank_au,Kununurra,,Kununurra,WA,,AU,,,,Commonwealth Bank,Q285328
653002,commonwealth_bank_au,Kununurra,,Kununurra,WA,,AU,,,,Commonwealth Bank,Q285328
9108,donut_king_au,Donut King Kununurra,BP Ord River Roadhouse,Kununurra,WA,,AU,+61 8 9169 1188,,,Donut King,Q5296921
507,first_national_real_estate_au,First National Real Estate Kimberley ,,Kununurra,WA,,AU,+61 8 9168 2666,https://www.firstnational.com.au/pages/real-estate/office/507/first-national-real-estate-kimberley,,First National Real Estate,Q122888198
10111306,shell,SHELL COLES EXPRESS KUNUNURRA ROADHOUSE,,KUNUNURRA,WA,,AU,+61 8 6157 5636,https://find.shell.com/au/fuel/10111306-shell-coles-express-kununurra-roadhouse,,Shell,Q110716465
4164,toyworld_au,Toyworld Kununurra,,Kununurra,WA,,AU,+61 8 9169 2992,https://www.toyworld.com.au/pages/toyworld-kununurra,Mo-Fr 09:00-17:00; Sa 08:30-12:30,Toyworld,Q95923071
,visa,,,KUNUNURRA,WA,,AU,,,,,
,visa,,,KUNUNURRA,WA,,AU,,,,,
dc4a401dcceda34167661cf722b146ee,western_union,AUSTRALIA POST,,Kununurra,WA,,AU,+61 1800 501 500,https://location.westernunion.com/au/wa/kununurra/dc4a401dcceda34167661cf722b146ee,Mo-Fr 09:00-17:00; Sa 09:00-12:30,Western Union,Q861042
