Ref,Spider,Name,Address,City,State,Zipcode,Country,Phone,Website,Hours,Brand,WikiData
,visa,,,TLAQUEPAQUE,JALISCO,,MX,,,,,
,visa,,,SAN PEDRO TLAQUEPAQU,JALISCO,,MX,,,,,
,visa,,,SAN PEDRO TLAQUEPAQU,JALISCO,,MX,,,,,
c9486714924ff9d1a2d6bd5e8eee5578,western_union,BANCOPPEL 723 18 DE MARZO,,Tlaquepaque,JALISCO,,MX,+52 55 5879 4694,https://location.westernunion.com/mx/jalisco/tlaquepaque/c9486714924ff9d1a2d6bd5e8eee5578,Mo-Sa 10:00-20:00; Su 10:00-16:00,Western Union,Q861042
40a49e446260605097eaa617c54c4fe0,western_union,BANCOPPEL 723 18 DE MARZO,,Tlaquepaque,JALISCO,,MX,+52 55 5879 4694,https://location.westernunion.com/mx/jalisco/tlaquepaque/40a49e446260605097eaa617c54c4fe0,Mo-Sa 10:00-20:00; Su 10:00-16:00,Western Union,Q861042
7826032dabd4546d9b8a5c99c25efb7f,western_union,BANCOPPEL 723 18 DE MARZO,,Tlaquepaque,JALISCO,,MX,+52 55 5879 4694,https://location.westernunion.com/mx/jalisco/tlaquepaque/7826032dabd4546d9b8a5c99c25efb7f,Mo-Sa 10:00-20:00; Su 10:00-16:00,Western Union,Q861042
65fcc240b0548bd30e9e0ed468017866,western_union,MUEBLES AMERICA 16 AP CASH,,Tlaquepaque,JALISCO,,MX,+52 33 1200 6516,https://location.westernunion.com/mx/jalisco/tlaquepaque/65fcc240b0548bd30e9e0ed468017866,Mo-Su 09:30-20:30,Western Union,Q861042
d33f161907ebf432e6d91fbf2e8c6865,western_union,MUEBLES AMERICA 16 AP CASH,,Tlaquepaque,JALISCO,,MX,+52 33 1200 6516,https://location.westernunion.com/mx/jalisco/tlaquepaque/d33f161907ebf432e6d91fbf2e8c6865,Mo-Su 09:30-20:30,Western Union,Q861042
d944b14ecccaf988caa1a6569b025d98,western_union,MUEBLES AMERICA 16 AP CASH,,Tlaquepaque,JALISCO,,MX,+52 33 1200 6516,https://location.westernunion.com/mx/jalisco/tlaquepaque/d944b14ecccaf988caa1a6569b025d98,Mo-Su 09:30-20:30,Western Union,Q861042
95570d319ab6e9dda8d3797319558c90,western_union,ELEKTRA 4466,,Tlaquepaque,JALISCO,,MX,+52 55 1720 8177,https://location.westernunion.com/mx/jalisco/tlaquepaque/95570d319ab6e9dda8d3797319558c90,Mo-Su 09:00-21:00,Western Union,Q861042
ae7cd99b2b4a7b1c9ea83a633c56cd52,western_union,ELEKTRA 4466,,Tlaquepaque,JALISCO,,MX,+52 55 1720 8177,https://location.westernunion.com/mx/jalisco/tlaquepaque/ae7cd99b2b4a7b1c9ea83a633c56cd52,Mo-Su 09:00-21:00,Western Union,Q861042
eaeb7a8155deb4cae72f7d01d352e9c3,western_union,ELEKTRA 4466,,Tlaquepaque,JALISCO,,MX,+52 55 1720 8177,https://location.westernunion.com/mx/jalisco/tlaquepaque/eaeb7a8155deb4cae72f7d01d352e9c3,Mo-Su 09:00-21:00,Western Union,Q861042
e6fff96c2650ec9863811b80e7677f58,western_union,AURRERA EXPRESS 18 DE MARZO 3347,,Tlaquepaque,JALISCO,,MX,+52 800 833 4700,https://location.westernunion.com/mx/jalisco/tlaquepaque/e6fff96c2650ec9863811b80e7677f58,Mo-Su 08:00-22:00,Western Union,Q861042
c4c56b63e22a05b0e2219d1b6bf5351b,western_union,AURRERA EXPRESS 18 DE MARZO 3347,,Tlaquepaque,JALISCO,,MX,+52 800 833 4700,https://location.westernunion.com/mx/jalisco/tlaquepaque/c4c56b63e22a05b0e2219d1b6bf5351b,Mo-Su 08:00-22:00,Western Union,Q861042
b574b0149faa5e3ce0e56883b46f6615,western_union,AURRERA EXPRESS 18 DE MARZO 3347,,Tlaquepaque,JALISCO,,MX,+52 800 833 4700,https://location.westernunion.com/mx/jalisco/tlaquepaque/b574b0149faa5e3ce0e56883b46f6615,Mo-Su 08:00-22:00,Western Union,Q861042
bf616321d249c1d8b01a1fc1e52971d4,western_union,OXXO VICTORIA GDL,,Tlaquepaque,JALISCO,,MX,+52 81 8389 2121,https://location.westernunion.com/mx/jalisco/tlaquepaque/bf616321d249c1d8b01a1fc1e52971d4,Mo-Su 06:00-22:00,Western Union,Q861042
a8f95cb1bc6feddc08d04803037096ea,western_union,OXXO VICTORIA GDL,,Tlaquepaque,JALISCO,,MX,+52 81 8389 2121,https://location.westernunion.com/mx/jalisco/tlaquepaque/a8f95cb1bc6feddc08d04803037096ea,Mo-Su 06:00-22:00,Western Union,Q861042
3ea825fd1fac3e650a56e5bb6dd0dd50,western_union,OXXO VICTORIA GDL,,Tlaquepaque,JALISCO,,MX,+52 81 8389 2121,https://location.westernunion.com/mx/jalisco/tlaquepaque/3ea825fd1fac3e650a56e5bb6dd0dd50,Mo-Su 06:00-22:00,Western Union,Q861042
69c69f4a3827f9ed4f1353cd690be16c,western_union,OXXO ZAPOTLANEJO GDL,,Tlaquepaque,JALISCO,,MX,+52 81 8389 2121,https://location.westernunion.com/mx/jalisco/tlaquepaque/69c69f4a3827f9ed4f1353cd690be16c,Mo-Su 08:00-22:00,Western Union,Q861042
813058c80296fcc69b37aa0f6faed667,western_union,OXXO ZAPOTLANEJO GDL,,Tlaquepaque,JALISCO,,MX,+52 81 8389 2121,https://location.westernunion.com/mx/jalisco/tlaquepaque/813058c80296fcc69b37aa0f6faed667,Mo-Su 08:00-22:00,Western Union,Q861042
a4d659ee8004fc5824397874a3d4ef15,western_union,OXXO ZAPOTLANEJO GDL,,Tlaquepaque,JALISCO,,MX,+52 81 8389 2121,https://location.westernunion.com/mx/jalisco/tlaquepaque/a4d659ee8004fc5824397874a3d4ef15,Mo-Su 08:00-22:00,Western Union,Q861042
8eec0d4878f396180f9e848bdc0a813c,western_union,CAJA CIHUALPILLI DE TONALA - SAN PEDRITO,,San Pedro Tlaquepaque,JALISCO,,MX,+52 81 2133 2160,https://location.westernunion.com/mx/jalisco/san-pedro-tlaquepaque/8eec0d4878f396180f9e848bdc0a813c,Mo-Fr 08:00-17:00; Sa 08:00-13:00,Western Union,Q861042
880f416f1068edc7ecdffebaca13f0e6,western_union,CAJA CIHUALPILLI DE TONALA - SAN PEDRITO,,San Pedro Tlaquepaque,JALISCO,,MX,+52 81 2133 2160,https://location.westernunion.com/mx/jalisco/san-pedro-tlaquepaque/880f416f1068edc7ecdffebaca13f0e6,Mo-Fr 08:00-17:00; Sa 08:00-13:00,Western Union,Q861042
aaac5be5f7b8f199511ffa719bf8a120,western_union,CAJA CIHUALPILLI DE TONALA - SAN PEDRITO,,San Pedro Tlaquepaque,JALISCO,,MX,+52 81 2133 2160,https://location.westernunion.com/mx/jalisco/san-pedro-tlaquepaque/aaac5be5f7b8f199511ffa719bf8a120,Mo-Fr 08:00-17:00; Sa 08:00-13:00,Western Union,Q861042
617582b77c62bf4d8005d568a195d29b,western_union,OXXO CENTRAL GDL,,Tlaquepaque,JALISCO,,MX,+52 81 8389 2121,https://location.westernunion.com/mx/jalisco/tlaquepaque/617582b77c62bf4d8005d568a195d29b,Mo-Su 08:00-22:00,Western Union,Q861042
4aa086fd4e3b38c81049a443ff0c0d43,western_union,OXXO CENTRAL GDL,,Tlaquepaque,JALISCO,,MX,+52 81 8389 2121,https://location.westernunion.com/mx/jalisco/tlaquepaque/4aa086fd4e3b38c81049a443ff0c0d43,Mo-Su 08:00-22:00,Western Union,Q861042
683356b9c3cb8290762c4319a25e99d6,western_union,OXXO CENTRAL GDL,,Tlaquepaque,JALISCO,,MX,+52 81 8389 2121,https://location.westernunion.com/mx/jalisco/tlaquepaque/683356b9c3cb8290762c4319a25e99d6,Mo-Su 08:00-22:00,Western Union,Q861042
6d0e78d45c398cb70649b2243467a3a2,western_union,OXXO TAMIAHUA GDL,,Tlaquepaque,JALISCO,,MX,+52 81 8389 2121,https://location.westernunion.com/mx/jalisco/tlaquepaque/6d0e78d45c398cb70649b2243467a3a2,Mo-Su 06:00-22:00,Western Union,Q861042
3b025636cd6d490cc904650678c05c00,western_union,OXXO TAMIAHUA GDL,,Tlaquepaque,JALISCO,,MX,+52 81 8389 2121,https://location.westernunion.com/mx/jalisco/tlaquepaque/3b025636cd6d490cc904650678c05c00,Mo-Su 06:00-22:00,Western Union,Q861042
e291a2c5e7812d21b1c767990dd36fee,western_union,OXXO TAMIAHUA GDL,,Tlaquepaque,JALISCO,,MX,+52 81 8389 2121,https://location.westernunion.com/mx/jalisco/tlaquepaque/e291a2c5e7812d21b1c767990dd36fee,Mo-Su 06:00-22:00,Western Union,Q861042
c7cd1efcca679d9ce1defc2b33a96316,western_union,OXXO ANDADORINDEPENDENCIA,,Tlaquepaque,JALISCO,,MX,+52 81 8389 2121,https://location.westernunion.com/mx/jalisco/tlaquepaque/c7cd1efcca679d9ce1defc2b33a96316,Mo-Su 08:00-22:00,Western Union,Q861042
3183c58af65f190624ed47405a5cbce4,western_union,OXXO ANDADORINDEPENDENCIA,,Tlaquepaque,JALISCO,,MX,+52 81 8389 2121,https://location.westernunion.com/mx/jalisco/tlaquepaque/3183c58af65f190624ed47405a5cbce4,Mo-Su 08:00-22:00,Western Union,Q861042
c8d3b84cd71270b15eaba169bfce8b81,western_union,OXXO ANDADORINDEPENDENCIA,,Tlaquepaque,JALISCO,,MX,+52 81 8389 2121,https://location.westernunion.com/mx/jalisco/tlaquepaque/c8d3b84cd71270b15eaba169bfce8b81,Mo-Su 08:00-22:00,Western Union,Q861042
