Ref,Spider,Name,Address,City,State,Zipcode,Country,Phone,Website,Hours,Brand,WikiData
8984857,baskin_robbins_in,Baskin Robbins,"Baskin Robbins, Z Square Mall 3rd Floor Food Court, Bada Chauraha, Mg Marg Kanpur( Up) 208001",Kanpur,Uttar Pradesh,,IN,+91 73808 25526,,,Baskin Robbins,Q584601
38033_2,bmw_group,Speed Motors Private Limited Speed Motorwagen Kanpur 4S,,Kanpur,Uttar Pradesh,,IN,+91 77860 72306,https://www.bmw-speedmotorwagen.in,,BMW,Q26678
https://www.dominos.co.in/store-locations/kanpur/z-square-mall-kanpur,dominos_pizza_in,"Dominos Pizza Z Square Mall, Kanpur","FOOD COURT COUNTER NO. 01, Z SQUARE MALL Z Square Mall, Kanpur, KANPUR, Uttar Pradesh - 208001",Kanpur,Uttar Pradesh,,IN,+91 22 2632 6699,https://www.dominos.co.in/store-locations/kanpur/z-square-mall-kanpur,,Domino's Pizza,Q839466
https://www.dominos.co.in/store-locations/kanpur/rave-3-kanpur,dominos_pizza_in,Dominos Pizza RAVE - 3 KANPUR,"RAVE-3, PLOT NO.2, BLOCK NO.6, KANPUR, Uttar Pradesh - 208001",Kanpur,Uttar Pradesh,,IN,+91 22 2632 6699,https://www.dominos.co.in/store-locations/kanpur/rave-3-kanpur,,Domino's Pizza,Q839466
https://www.dominos.co.in/store-locations/kanpur/kanpur-208002-uttar-pradesh,dominos_pizza_in,Dominos Pizza Kanpur 208002 Uttar Pradesh,"Ground Floor Shop No 01, LL2 07 Near LLR Hospital, Mall Road Sarvodaya Nagar, Kanpur 208002 Uttar, Pradesh, KANPUR, UTTAR PRADESH",Kanpur,Uttar Pradesh,,IN,+91 22 2632 6699,https://www.dominos.co.in/store-locations/kanpur/kanpur-208002-uttar-pradesh,,Domino's Pizza,Q839466
7431010c-58a7-42b0-ad5a-7a9ea195a459,nike,Nike Z Square,,Kanpur,Uttar Pradesh,,IN,+91 1800 344 6453,https://www.nike.com/retail/s/nike-z-square,Mo-Su 10:00-21:00,Nike,Q483915
2169cbb1fe4672096d57e88e842b70d2,western_union,VAKRANGEE KENDRA,,Kanpur,UTTAR PRADESH,,IN,+91 79051 69684,https://location.westernunion.com/in/uttar-pradesh/kanpur/2169cbb1fe4672096d57e88e842b70d2,Mo-Su 08:00-20:00,Western Union,Q861042
7059122e8a8eafa36ab80578dc9d6ba7,western_union,MUTHOOT FINANCE LTD,,Kanpur-p Road,UTTAR PRADESH,,IN,+91 90440 02113,https://location.westernunion.com/in/uttar-pradesh/kanpur-p-road/7059122e8a8eafa36ab80578dc9d6ba7,Mo-Sa 09:00-17:30,Western Union,Q861042
3d98cf2ed6e431c05b16704a8206242f,western_union,MUTHOOT FINANCE LTD,,Kanpur-karachikhana,UTTAR PRADESH,,IN,+91 512 239 1006,https://location.westernunion.com/in/uttar-pradesh/kanpur-karachikhana/3d98cf2ed6e431c05b16704a8206242f,Mo-Sa 09:00-17:30,Western Union,Q861042
b15a0992bf35a906e34143c735c778fc,western_union,NAWAZ TOURS & TRAVELS,,Kanpur Nagar,UTTAR PRADESH,,IN,+91 82997 55413,https://location.westernunion.com/in/uttar-pradesh/kanpur-nagar/b15a0992bf35a906e34143c735c778fc,Mo-Su 08:00-20:00,Western Union,Q861042
f91625680d73a8cfc9bf6a094b182072,western_union,J K COMPUTERS PRINTERS,,Kanpur Nagar,UTTAR PRADESH,,IN,+91 94541 58805,https://location.westernunion.com/in/uttar-pradesh/kanpur-nagar/f91625680d73a8cfc9bf6a094b182072,Mo-Su 08:00-20:00,Western Union,Q861042
b99b6b10d7d9a71916b4b007c005f932,western_union,MAZ TRAVEL COMPANY,,Kanpur,UTTAR PRADESH,,IN,+91 94150 42706,https://location.westernunion.com/in/uttar-pradesh/kanpur/b99b6b10d7d9a71916b4b007c005f932,Mo-Su 08:00-22:00,Western Union,Q861042
217864b9ff2f035c9469bcbf0807a52b,western_union,ALANSAR EXCHANGE,,Kanpur,UTTAR PRADESH,,IN,+91 74991 55666,https://location.westernunion.com/in/uttar-pradesh/kanpur/217864b9ff2f035c9469bcbf0807a52b,Mo-Su 07:00-22:00,Western Union,Q861042
967f1b2ea596a9b3639de2c755fca064,western_union,RI ASSOCIATES,,Kanpur,UTTAR PRADESH,,IN,+91 93353 42294,https://location.westernunion.com/in/uttar-pradesh/kanpur/967f1b2ea596a9b3639de2c755fca064,Mo-Su 08:00-22:00,Western Union,Q861042
f57d4265d1d1c2c59305cb2982a81c79,western_union,T C I ENTERPRISES,,Kanpur Nagar,UTTAR PRADESH,,IN,+91 99366 55559,https://location.westernunion.com/in/uttar-pradesh/kanpur-nagar/f57d4265d1d1c2c59305cb2982a81c79,Mo-Su 08:00-20:00,Western Union,Q861042
e118eb83d0f7a240ccd36b2a52d64fb5,western_union,HOM ELECTRONICS,,Kanpur,UTTAR PRADESH,,IN,+91 512 230 5794,https://location.westernunion.com/in/uttar-pradesh/kanpur/e118eb83d0f7a240ccd36b2a52d64fb5,Mo-Su 09:30-20:30,Western Union,Q861042
0d81a86160be0a3c01f0d07112c270ca,western_union,MUTHOOT FINANCE LTD,,Kanpur-the Mall,UTTAR PRADESH,,IN,+91 512 306 5389,https://location.westernunion.com/in/uttar-pradesh/kanpur-the-mall/0d81a86160be0a3c01f0d07112c270ca,Mo-Sa 09:00-17:30,Western Union,Q861042
ac0a4e48633b78467881a3ed9b393db2,western_union,TRAVEL WORLD,,Kanpur,UTTAR PRADESH,,IN,+91 98382 00328,https://location.westernunion.com/in/uttar-pradesh/kanpur/ac0a4e48633b78467881a3ed9b393db2,Mo-Su 09:00-22:00,Western Union,Q861042
d42e4947eff54c4dda6c38a8a863a8a8,western_union,RAH E HARAM TOUR AND TRAVELS,,Kanpur Nagar,UTTAR PRADESH,,IN,+91 80909 91926,https://location.westernunion.com/in/uttar-pradesh/kanpur-nagar/d42e4947eff54c4dda6c38a8a863a8a8,Mo-Su 08:00-20:00,Western Union,Q861042
a126c9987826aa790d3f7423458248ff,western_union,F Y TOUR AND TRAVEL,,Kanpur Nagar,UTTAR PRADESH,,IN,+91 98893 54261,https://location.westernunion.com/in/uttar-pradesh/kanpur-nagar/a126c9987826aa790d3f7423458248ff,Mo-Su 08:00-20:00,Western Union,Q861042
f6add1d36b471b5dca18d12451cabf61,western_union,TARA MAA CYBER CAFE,,Kanpur Nagar,UTTAR PRADESH,,IN,+91 99196 74461,https://location.westernunion.com/in/uttar-pradesh/kanpur-nagar/f6add1d36b471b5dca18d12451cabf61,Mo-Su 08:00-20:00,Western Union,Q861042
b03bac38e371e7863807fb735d3b10c2,western_union,MADAN TRAVELS,,Kanpur Nagar,UTTAR PRADESH,,IN,+91 72754 29414,https://location.westernunion.com/in/uttar-pradesh/kanpur-nagar/b03bac38e371e7863807fb735d3b10c2,Mo-Su 08:00-20:00,Western Union,Q861042
33ad4ccceea7f2fb46836f86188926b1,western_union,THE ONLINE SOLUTION,,Kanpur Nagar,UTTAR PRADESH,,IN,+91 87077 12150,https://location.westernunion.com/in/uttar-pradesh/kanpur-nagar/33ad4ccceea7f2fb46836f86188926b1,Mo-Su 08:00-20:00,Western Union,Q861042
60383bcf8cf5f86aa3ee13f68fbbbd62,western_union,DADA POINT TOUR AND TRAVEL,,Kanpur Nagar,UTTAR PRADESH,,IN,+91 91515 45454,https://location.westernunion.com/in/uttar-pradesh/kanpur-nagar/60383bcf8cf5f86aa3ee13f68fbbbd62,Mo-Su 08:00-20:00,Western Union,Q861042
f7fee443cd23024d6665d3df4cdfe207,western_union,YASH FOREX PRIVATE LTD,,Agra,UTTAR PRADESH,,IN,+91 93191 02789,https://location.westernunion.com/in/uttar-pradesh/agra/f7fee443cd23024d6665d3df4cdfe207,Mo-Su 09:00-21:00,Western Union,Q861042
b9a21c54d3f25b3d1b6909d67e774885,western_union,DIAMOND CARD AND TRAVELS,,Kanpur,UTTAR PRADESH,,IN,+91 79051 69684,https://location.westernunion.com/in/uttar-pradesh/kanpur/b9a21c54d3f25b3d1b6909d67e774885,Mo-Su 08:00-23:00,Western Union,Q861042
22a7b2d003a6188ddbe91608583fa279,western_union,MAKKAH FOREX,,Kanpur Nagar,UTTAR PRADESH,,IN,+91 96281 41414,https://location.westernunion.com/in/uttar-pradesh/kanpur-nagar/22a7b2d003a6188ddbe91608583fa279,Mo-Su 08:00-20:00,Western Union,Q861042
