Ref,Spider,Name,Address,City,State,Zipcode,Country,Phone,Website,Hours,Brand,WikiData
https://storelocations.ae.com/#1725787,american_eagle_outfitters,American Eagle Store Galleria at Centerville,,Centerville,GA,,US,+1 478-333-7042,https://storelocations.ae.com/us/ga/centerville/2922-watson-boulevard.html,Mo-Th 11:00-19:00; Fr-Sa 10:00-20:00; Su 12:00-18:00,American Eagle Store,Q2842931
62343,asics_us,Finish Line,2922 Watson Blvd #240,Centerville,GA,,US,+1 478-971-1172,,,asics,Q327247
15514,asics_us,Hibbett Sports,2922 Watson Boulevard,Centerville,GA,,US,+1 478-953-9621,,,asics,Q327247
https://locations.auntieannes.com/#6801,auntie_annes,Auntie Anne's Houston County Galleria,,Centerville,GA,,US,+1 478-953-0691,https://locations.auntieannes.com/ga/centerville/2922-watson-blvd,Mo-Sa 11:00-19:00; Su 12:00-18:00,Auntie Anne's,Q4822010
https://locators.bankofamerica.com/ga/centerville/financial-centers-centerville-7777.html,bankofamerica,Bank of America Financial Center & Drive-Thru ATM | Warner Robins Centerville,,Centerville,GA,,US,+1 478-953-3500,https://locators.bankofamerica.com/ga/centerville/financial-centers-centerville-7777.html,Mo-Fr 09:00-17:00; Sa 09:00-14:00,Bank of America,Q487907
BBW01176,bathandbodyworks_us,GALLERIA AT CENTERVILLE,,CENTERVILLE,GA,,US,+1 478-953-8055,,Mo-Sa 10:00-20:00; Su 12:00-18:00,Bath & Body Works,Q810773
238218,bluerhino,Circle K #2703142,,Centerville,GA,,US,+1 478-971-8202,,,Blue Rhino,Q65681213
238219,bluerhino,Circle K #2745112,,Centerville,GA,,US,+1 478-953-3044,,,Blue Rhino,Q65681213
197598,bluerhino,Dollar General #21610,,Centerville,GA,,US,+1 229-392-6190,,,Blue Rhino,Q65681213
128705,bp,BP,,Centerville,GA,,US,+1 478-954-3396,,,BP,Q152057
41992,citi,ATM Circle K,,Centerville,GA,,US,,,,Citibank,Q857063
centerville/5883,claires,Shop Ear Piercings & Jewelry at Houston County Galleria,,CENTERVILLE,GA,,US,+1 478-953-7727,https://stores.claires.com/us/ga/centerville/5883.html,Mo-Tu 10:00-19:30; We 10:00-20:00; Th 10:00-20:30; Fr-Sa 10:00-20:00; Su 12:00-18:00,Claire's,Q2974996
70174101,cricket_wireless,Cricket Wireless Authorized Retailer,,Centerville,GA,,US,+1 478-333-3713,https://www.cricketwireless.com/stores/ll/US/GA/Centerville/2922-Watson-Blvd,Mo-Sa 10:00-20:00; Su 12:00-18:00,Cricket Wireless,Q5184987
491,crunch_fitness,Crunch Fitness,,Centerville,GA,,US,+1 478-273-0320,https://www.crunch.com/locations/warner-robins,,Crunch Fitness,Q5190093
200323985,exxonmobil,QUICK CHECK,,CENTERVILLE,GA,,US,+1 478-333-6775,https://www.exxon.com/en/find-station/mobil-centerville-ga-quickcheck-200323985,Mo-Sa 08:00-21:30; Su 10:00-21:00,Mobil,Q109676002
https://stores.finishline.com/ga/centerville/houston-county-galleria.html,finishline,Finish Line,,Centerville,GA,,US,+1 478-971-1172,https://stores.finishline.com/ga/centerville/houston-county-galleria.html,Mo-Sa 11:00-19:00; Su 12:00-18:00,Finish Line,Q5450341
https://stores.gnc.com/#24057686,gnc,GNC Galleria At Centerville,,,GA,,US,+1 478-953-9750,https://stores.gnc.com/all-stores-georgia/centerville/2922-watson-boulevard,Mo-Sa 10:00-20:00; Su 12:00-18:00,GNC,Q4808595
155556,marathon_petroleum_us,Wilson Centerville Marathon,,Centerville,GA,,US,+1 478-214-4316,,,Marathon,Q458363
278,ocharleys_us,O'Charley's,,Centerville,GA,,US,+1 478-971-1145,https://ocharleys.olo.com/menu/centerville-ga/,,O'Charley's,Q7071703
https://locations.papajohns.com/#10691821,papa_johns,Papa John's,,Centerville,GA,,US,+1 478-953-9530,https://locations.papajohns.com/united-states/ga/31028/centerville/100-north-houston-lake-boulevard,Mo-Th 10:00-23:00; Fr-Sa 10:00-24:00; Su 10:00-23:00,Papa John's Pizza,Q2759586
17461392705504244147,sleep_number_us,Sleep Number,,Centerville,GA,,US,,https://www.sleepnumber.com/stores/ga/centerville/2768-watson-blvd,Mo-Th 10:00-19:00; Fr-Sa 10:00-20:00; Su 11:00-19:00,Sleep Number,Q7447640
https://restaurants.subway.com/#14908539,subway,Subway Galleria Pointe,,Centerville Houston,GA,,US,+1 478-953-4363,https://restaurants.subway.com/united-states/ga/centerville/100-n-houston-lake-blvd,Mo-Su 08:00-21:00,Subway,Q244457
1436079,usps,CENTERVILLE,,CENTERVILLE,GA,,US,+1 478-953-4444,,"Mo-Fr 09:00-13:30,14:00-17:00",United States Postal Service,Q668687
3102800000,usps_collection_boxes,USPS COLLECTION BOX - BLUE BOX,628 N HOUSTON LAKE BLVD,CENTERVILLE,GA,,US,,,,United States Postal Service,Q668687
3102800001,usps_collection_boxes,USPS COLLECTION BOX - BLUE BOX,628 N HOUSTON LAKE BLVD,CENTERVILLE,GA,,US,,,,United States Postal Service,Q668687
R00000224214,verizon_us,Warner Robins Centerville,,Centerville,GA,,US,+1 478-971-1124,https://www.verizon.com/stores/details/georgia/centerville/warner-robins-centerville-342129/,Mo-Fr 10:00-20:00; Sa 09:00-19:00; Su 11:00-18:00,Verizon,Q919641
,visa,,,BONAIR,GA,,US,,,,,
,visa,,,CENTERSVILLE,GA,,US,,,,,
,visa,,,CENTERVILLE,GA,,US,,,,,
,visa,,,CENTERVILLE,GA,,US,,,,,
,visa,,,CENTERVILLE,GA,,US,,,,,
,visa,,,CENTREVILLE,GA,,US,,,,,
,visa,,,CENTERVILLE,GA,,US,,,,,
,visa,,,CENTERVILLE,GA,,US,,,,,
,visa,,,CENTERVILLE,GA,,US,,,,,
,visa,,,CENTERVILLE,GA,,US,,,,,
,visa,,,CENTERVILLE,GA,,US,,,,,
,visa,,,CENTERVILLE,GA,,US,,,,,
,visa,,,CENTERVILLE,GA,,US,,,,,
,visa,,,CENTERVILLE,GA,,US,,,,,
,visa,,,BYRON,GA,,US,,,,,
1076,waffle_house_us,Waffle House #1076,,CENTERVILLE,GA,,US,+1 478-953-5417,https://locations.wafflehouse.com/centerville-ga-1076,24/7,Waffle House,Q1701206
6940116f5f87b3089ed08d3d2d9eed7e,western_union,COLMEX MULTISERVICE,,Centerville,GA,,US,+1 478-662-3530,https://location.westernunion.com/us/ga/centerville/6940116f5f87b3089ed08d3d2d9eed7e,Mo-Su 08:00-22:00,Western Union,Q861042
38674,wingstop,Wingstop Centerville Watson Blvd.,2764 Watson Blvd Ste 340,Centerville,GA,,US,+1 478-333-8564,,,Wingstop,Q8025339
153,world_finance_us,,"100 N Houston Lake Blvd Ste R, Centerville, GA, 31028",Centerville,GA,,US,+1 478-953-5015,https://www.loansbyworld.com/branches/branch-153,Mo-Fr 09:00-17:30; Sa 09:00-12:00,World Finance,Q3569971
