Ref,Spider,Name,Address,City,State,Zipcode,Country,Phone,Website,Hours,Brand,WikiData
https://stores.advanceautoparts.com/ma/easthampton/112-union-st,advance_auto_parts_us,Advance Auto Parts,,Easthampton,MA,,US,+1 413-527-0800,https://stores.advanceautoparts.com/ma/easthampton/112-union-st,Mo-Sa 07:30-21:00; Su 08:00-20:00,Advance Auto Parts,Q4686051
https://locators.bankofamerica.com/ma/easthampton/atm-easthampton-110722.html,bankofamerica,Bank of America Walk-Up ATM | Easthampton,,Easthampton,MA,,US,+1 844-401-8500,https://locators.bankofamerica.com/ma/easthampton/atm-easthampton-110722.html,,Bank of America,Q487907
102129,bluerhino,Aubuchon Hardware #74,,Easthampton,MA,,US,+1 413-529-9494,,,Blue Rhino,Q65681213
182787,bluerhino,Cumberland Farms #6764,,Easthampton,MA,,US,+1 413-527-1801,,,Blue Rhino,Q65681213
138703,bluerhino,Fleury Lumber Co. - #0974,,Easthampton,MA,,US,+1 413-527-2693,,,Blue Rhino,Q65681213
47325,citi,ATM CVS,,Easthampton,MA,,US,,,,Citibank,Q857063
33711,citi,ATM 7ELEVEN-FCTI,,Easthampton,MA,,US,,,,Citibank,Q857063
ATM-1873,citizens_us,,,Easthampton,MA,,US,,,,Citizens,Q5122694
520525,cumberland_farms_us,Cumberland Farms,,EASTHAMPTON,MA,,US,+1 413-527-1801,https://www.cumberlandfarms.com/find-us/generic-store-page/?id=006764,,Cumberland Farms,Q1143685
2025,cvs_us,CVS Pharmacy,,Easthampton,MA,,US,+1 413-527-1562,https://www.cvs.com/store-locator/easthampton-ma-pharmacies/118-northampton-st-easthampton-ma-01027/storeid=2025,Mo-Su 07:00-22:00,CVS Pharmacy,Q2078880
3722,dominos_pizza_us,Domino's Pizza,,Easthampton,MA,,US,+1 413-527-0821,https://pizza.dominos.com/massachusetts/easthampton/11-union-street,Mo-Th 10:30-24:00; Fr-Sa 10:30-01:00; Su 10:30-24:00,Domino's,Q839466
338119,dunkin_us,Dunkin',,Easthampton,MA,,US,+1 413-527-2993,https://locations.dunkindonuts.com/en/ma/easthampton/60-union-st/338119,Mo-Su 05:00-21:00,Dunkin',Q847743
308337,dunkin_us,Dunkin',,Easthampton,MA,,US,+1 413-529-9288,https://locations.dunkindonuts.com/en/ma/easthampton/126-northampton-st/308337,Mo-Su 04:30-19:00,Dunkin',Q847743
https://www.edwardjones.com/us-en/financial-advisor/eric-markiewicz,edwardjones,Eric M Markiewicz,,Easthampton,MA,,US,+1 413-203-5850,https://www.edwardjones.com/us-en/financial-advisor/eric-markiewicz,Mo-Fr 08:00-17:00,Edward Jones,Q5343830
520525,eg_america_us,Cumberland Farms,,EASTHAMPTON,MA,,US,+1 413-527-1801,https://www.cumberlandfarms.com/find-us/generic-store-page/?id=006764,,Cumberland Farms,Q1143685
29219,family_dollar_us,FAMILY DOLLAR #9219,,Easthampton,MA,,US,+1 413-779-7014,https://www.familydollar.com/locations/ma/easthampton/29219/,Mo-Su 08:00-22:00,Family Dollar,Q5433101
436,gulf_pr_us,MAIN ST. SVC.,,Easthampton,MA,,US,+1 413-527-3670,https://www.gulfoil.com/main-st-svc,,Gulf Oil,Q5617505
2575,snap_fitness,"Easthampton, MA",39 Union St,Easthampton,MA,,US,+1 413-529-2200,https://www.snapfitness.com/us/gyms/easthampton-ma,24/7,Snap Fitness,Q7547254
https://restaurants.subway.com/#14915586,subway,Subway,,Easthampton Hampshire,MA,,US,+1 413-527-6110,https://restaurants.subway.com/united-states/ma/easthampton/32-union-st,Mo-Su 09:00-22:00,Subway,Q244457
1361912,usps,EASTHAMPTON,,EASTHAMPTON,MA,,US,+1 413-527-0060,,Mo-Fr 08:30-17:00; Sa 08:30-12:30,United States Postal Service,Q668687
0102700036,usps_collection_boxes,USPS COLLECTION BOX - PO LOBBY,191 NORTHAMPTON ST,EASTHAMPTON,MA,,US,,,,United States Postal Service,Q668687
0102700039,usps_collection_boxes,USPS COLLECTION BOX - EXPRESS,191 NORTHAMPTON ST,EASTHAMPTON,MA,,US,,,,United States Postal Service,Q668687
0102700042,usps_collection_boxes,USPS COLLECTION BOX - PO LOBBY,191 NORTHAMPTON ST,EASTHAMPTON,MA,,US,,,,United States Postal Service,Q668687
0102700043,usps_collection_boxes,USPS COLLECTION BOX - PO LOBBY,191 NORTHAMPTON ST,EASTHAMPTON,MA,,US,,,,United States Postal Service,Q668687
0102700054,usps_collection_boxes,USPS COLLECTION BOX - PO LOBBY,191 NORTHAMPTON ST,EASTHAMPTON,MA,,US,,,,United States Postal Service,Q668687
0102700026,usps_collection_boxes,USPS COLLECTION BOX - BLUE BOX,191 NORTHAMPTON ST,EASTHAMPTON,MA,,US,,,,United States Postal Service,Q668687
0102700031,usps_collection_boxes,USPS COLLECTION BOX - BLUE BOX,49 PARSONS ST,EASTHAMPTON,MA,,US,,,,United States Postal Service,Q668687
0102700045,usps_collection_boxes,USPS COLLECTION BOX - BLUE BOX,126 NORTHAMPTON ST,EASTHAMPTON,MA,,US,,,,United States Postal Service,Q668687
0102700051,usps_collection_boxes,USPS COLLECTION BOX - BLUE BOX,116 PLEASANT ST,EASTHAMPTON,MA,,US,,,,United States Postal Service,Q668687
0102700019,usps_collection_boxes,USPS COLLECTION BOX - BLUE BOX,40 EVERETT ST,EASTHAMPTON,MA,,US,,,,United States Postal Service,Q668687
0102700015,usps_collection_boxes,USPS COLLECTION BOX - BLUE BOX,71 CLARK ST,EASTHAMPTON,MA,,US,,,,United States Postal Service,Q668687
0102700017,usps_collection_boxes,USPS COLLECTION BOX - BLUE BOX,1 LAURA AVE,EASTHAMPTON,MA,,US,,,,United States Postal Service,Q668687
0102700050,usps_collection_boxes,USPS COLLECTION BOX - BLUE BOX,60 COTTAGE ST,EASTHAMPTON,MA,,US,,,,United States Postal Service,Q668687
0102700021,usps_collection_boxes,USPS COLLECTION BOX - BLUE BOX,50 HOLYOKE ST,EASTHAMPTON,MA,,US,,,,United States Postal Service,Q668687
0102700024,usps_collection_boxes,USPS COLLECTION BOX - BLUE BOX,52 MAIN ST,EASTHAMPTON,MA,,US,,,,United States Postal Service,Q668687
0102700047,usps_collection_boxes,USPS COLLECTION BOX - BLUE BOX,50 PAYSON AVE,EASTHAMPTON,MA,,US,,,,United States Postal Service,Q668687
0102700033,usps_collection_boxes,USPS COLLECTION BOX - BLUE BOX,28 PLEASANT ST,EASTHAMPTON,MA,,US,,,,United States Postal Service,Q668687
0102700002,usps_collection_boxes,USPS COLLECTION BOX - BLUE BOX,19 UNION ST,EASTHAMPTON,MA,,US,,,,United States Postal Service,Q668687
0102700048,usps_collection_boxes,USPS COLLECTION BOX - BLUE BOX,43 MAIN ST,EASTHAMPTON,MA,,US,,,,United States Postal Service,Q668687
0102700029,usps_collection_boxes,USPS COLLECTION BOX - BLUE BOX,114 PARK ST,EASTHAMPTON,MA,,US,,,,United States Postal Service,Q668687
0102700025,usps_collection_boxes,USPS COLLECTION BOX - BLUE BOX,330 MAIN ST,EASTHAMPTON,MA,,US,,,,United States Postal Service,Q668687
A00000207192,verizon_us,Wireless Zone Easthampton,,EASTHAMPTON,MA,,US,+1 413-203-5577,https://www.verizon.com/stores/details/massachusetts/easthampton/wireless-zone-easthampton-1792122/,Mo-Sa 09:00-19:00; Su 10:00-17:00,Verizon,Q919641
,visa,,,EASTHAMPTON,MA,,US,,,,,
,visa,,,EASTHAMPTON,MA,,US,,,,,
,visa,,,EAST HAMPTON,MA,,US,,,,,
,visa,,,EASTHAMPTON,MA,,US,,,,,
,visa,,,EASTHAMPTON,MA,,US,,,,,
,visa,,,EASTHAMPTON,MA,,US,,,,,
,visa,,,EASTHAMPTON,MA,,US,,,,,
,visa,,,EASTHAMPTON,MA,,US,,,,,
,visa,,,EASTHAMPTON,MA,,US,,,,,
,visa,,,EASTHAMPTON,MA,,US,,,,,
,visa,,,EASTHAMPTON,MA,,US,,,,,
,visa,,,EASTHAMPTON,MA,,US,,,,,
https://www.walgreens.com/locator/walgreens-32+union+st-easthampton-ma-01027/id=17980,walgreens,Walgreens,,Easthampton,MA,,US,+1 413-527-7410,https://www.walgreens.com/locator/walgreens-32+union+st-easthampton-ma-01027/id=17980,Mo-Sa 08:00-21:00; Su 08:00-18:00,Walgreens,Q1591889
