Ref,Spider,Name,Address,City,State,Zipcode,Country,Phone,Website,Hours,Brand,WikiData
34ac9205175c58fc0e65223601f1de76,western_union,AVI CONSULTANT,,Jalandhar,PUNJAB,,IN,+91 86997 31814,https://location.westernunion.com/in/punjab/jalandhar/34ac9205175c58fc0e65223601f1de76,Mo-Su 07:00-22:00,Western Union,Q861042
33f0ed02ffe9b524265ff3b82a698800,western_union,SACHDEVA FOREX,,Jalandhar,PUNJAB,,IN,(+91) 182-9815080865,https://location.westernunion.com/in/punjab/jalandhar/33f0ed02ffe9b524265ff3b82a698800,Mo-Su 09:30-20:30,Western Union,Q861042
1e0e2198e3ba1ed0a96cc5e4a5549642,western_union,BHARTI FOREX,,Nakodar,PUNJAB,,IN,(+91) 182-501002,https://location.westernunion.com/in/punjab/nakodar/1e0e2198e3ba1ed0a96cc5e4a5549642,Mo-Su 09:30-20:30,Western Union,Q861042
9f958200ee067af41ba25fc0826c4dbe,western_union,SATGURU ENTERPRISES,,Nakodar,PUNJAB,,IN,(+91) 182-9988814114,https://location.westernunion.com/in/punjab/nakodar/9f958200ee067af41ba25fc0826c4dbe,Mo-Su 09:30-20:30,Western Union,Q861042
9d77a334934b530491139361c0edf1a2,western_union,VISHAL ENTERPRISES,,Jalandhar,PUNJAB,,IN,+91 73997 78000,https://location.westernunion.com/in/punjab/jalandhar/9d77a334934b530491139361c0edf1a2,Mo-Su 08:00-21:00,Western Union,Q861042
4dc12352dc587e68054c19d8bd29d3ac,western_union,GILL ENTERPRISES,,Jalandhar,PUNJAB,,IN,+91 98723 40292,https://location.westernunion.com/in/punjab/jalandhar/4dc12352dc587e68054c19d8bd29d3ac,Mo-Su 08:00-20:00,Western Union,Q861042
0a45073e4df61d721419abbd88e0004d,western_union,GNV ENTERPRISES,,Nakodar,PUNJAB,,IN,+91 81467 93010,https://location.westernunion.com/in/punjab/nakodar/0a45073e4df61d721419abbd88e0004d,Mo-Su 09:00-19:00,Western Union,Q861042
d68391e258e59048e25ccad51f2e07dd,western_union,BHALLA ENTERPRISES,,Jalandhar,PUNJAB,,IN,+91 84273 06295,https://location.westernunion.com/in/punjab/jalandhar/d68391e258e59048e25ccad51f2e07dd,Mo-Su 08:00-20:00,Western Union,Q861042
23b2a9b895de387cc64a21fbf24c0c40,western_union,PREM ANAND ENTERPRISES,,Jalandhar,PUNJAB,,IN,+91 98153 44001,https://location.westernunion.com/in/punjab/jalandhar/23b2a9b895de387cc64a21fbf24c0c40,Mo-Su 09:00-21:00,Western Union,Q861042
f36a70dc932aad588492daaf6bcb87cb,western_union,STYLEX ELECTRONICS,,Nakodar,PUNJAB,,IN,+91 98152 63435,https://location.westernunion.com/in/punjab/nakodar/f36a70dc932aad588492daaf6bcb87cb,Mo-Su 08:00-21:00,Western Union,Q861042
2392e22daf258d525bf6b609f29d3630,western_union,JS FINANCIAL SERVICES,,Jalandhar,PUNJAB,,IN,+91 70098 59370,https://location.westernunion.com/in/punjab/jalandhar/2392e22daf258d525bf6b609f29d3630,Mo-Su 07:00-22:00,Western Union,Q861042
8264fa17362eb854a66ff3e74308190b,western_union,DHINGRA TOUR TRAVEL,,Jalandhar,PUNJAB,,IN,+91 70095 01960,https://location.westernunion.com/in/punjab/jalandhar/8264fa17362eb854a66ff3e74308190b,Mo-Su 08:00-20:00,Western Union,Q861042
078f2a2f01bdbbe65c4cf34c840e5d52,western_union,DHAND COMPUTER CARE,,Nakodar,PUNJAB,,IN,(+91) 182-225385,https://location.westernunion.com/in/punjab/nakodar/078f2a2f01bdbbe65c4cf34c840e5d52,Mo-Su 07:00-21:00,Western Union,Q861042
14e3ed03f5ef60a633613ed5763f9763,western_union,BAWA MONEY CHANGER,,Nakodar,PUNJAB,,IN,+91 98155 73677,https://location.westernunion.com/in/punjab/nakodar/14e3ed03f5ef60a633613ed5763f9763,Mo-Su 07:00-21:00,Western Union,Q861042
0dd70c8fef0af67c30c9dde5ec12dc15,western_union,DHIR FOREX,,Jalandhar,PUNJAB,,IN,+91 98886 22994,https://location.westernunion.com/in/punjab/jalandhar/0dd70c8fef0af67c30c9dde5ec12dc15,Mo-Su 09:00-21:00,Western Union,Q861042
5c0e803e7d069cbc276f2661fcc7ae66,western_union,VISHNU FOREX,,Nakodar,PUNJAB,,IN,+91 86992 24317,https://location.westernunion.com/in/punjab/nakodar/5c0e803e7d069cbc276f2661fcc7ae66,Mo-Su 08:00-22:00,Western Union,Q861042
00d8acd6b354cddc243e6be9b87f06a9,western_union,UNIMONI NAKODAR NAK,,Jalandhar,PUNJAB,,IN,+91 93163 76431,https://location.westernunion.com/in/punjab/jalandhar/00d8acd6b354cddc243e6be9b87f06a9,Mo-Fr 09:30-18:30; Sa 09:30-18:00,Western Union,Q861042
48cc81258a2427fdf1d7c218bb355621,western_union,R K ENTERPRISES,,Nakodar,PUNJAB,,IN,+91 78883 53024,https://location.westernunion.com/in/punjab/nakodar/48cc81258a2427fdf1d7c218bb355621,Mo-Su 09:00-21:00,Western Union,Q861042
b4c498b872d927e7a7cf5eed99e2ac51,western_union,SANDHU TRAVEL,,Nakodar,PUNJAB,,IN,(+91) 979933955,https://location.westernunion.com/in/punjab/nakodar/b4c498b872d927e7a7cf5eed99e2ac51,Mo-Su 08:00-20:30,Western Union,Q861042
58f47c8667e8d1e5d85176061aaff89f,western_union,STAR ENTERPRISES,,Nakodar,PUNJAB,,IN,(+91) 182-500445,https://location.westernunion.com/in/punjab/nakodar/58f47c8667e8d1e5d85176061aaff89f,Mo-Su 07:00-21:00,Western Union,Q861042
40a877b5c6760e4d2d8e041b90ab3df6,western_union,PAUL MERCHANTS LIMITED,,Nakodar,PUNJAB,,IN,+91 93177 14333,https://location.westernunion.com/in/punjab/nakodar/40a877b5c6760e4d2d8e041b90ab3df6,Mo-Sa 08:00-21:00; Su 09:00-20:30,Western Union,Q861042
6ce28c9759a635563829e3a1d059c540,western_union,KUMAR CORNER,,Nakodar,PUNJAB,,IN,+91 99144 63180,https://location.westernunion.com/in/punjab/nakodar/6ce28c9759a635563829e3a1d059c540,Mo-Su 08:00-22:00,Western Union,Q861042
7849a0b9e29c5bfe40e58128c6cc6716,western_union,LUXMI ENTERPRISES,,Nakodar,PUNJAB,,IN,+91 95308 81000,https://location.westernunion.com/in/punjab/nakodar/7849a0b9e29c5bfe40e58128c6cc6716,Mo-Su 07:30-22:30,Western Union,Q861042
e1978436fbc8cc944819f0ff422cc8c5,western_union,CAPITAL SMALL FINANCE BANK LIMITED,,Jalandhar,PUNJAB,,IN,(+91) 226322,https://location.westernunion.com/in/punjab/jalandhar/e1978436fbc8cc944819f0ff422cc8c5,Mo-Su 10:00-18:00,Western Union,Q861042
0b57d6fc1c4df0270eb958cd8cefd6b7,western_union,BADSHAH ENTERPRISES,,Nakodar,PUNJAB,,IN,+91 98149 32786,https://location.westernunion.com/in/punjab/nakodar/0b57d6fc1c4df0270eb958cd8cefd6b7,Mo-Su 09:00-21:00,Western Union,Q861042
6043dc04f2245fec6dcaa31dfb85657b,western_union,PANKAJ ENTERPRISES,,Jalandhar,PUNJAB,,IN,+91 98148 21782,https://location.westernunion.com/in/punjab/jalandhar/6043dc04f2245fec6dcaa31dfb85657b,Mo-Su 08:00-21:00,Western Union,Q861042
0648e7573df41c15faa3bcd6e19b376b,western_union,DOABA TELECOM,,Jalandhar,PUNJAB,,IN,+91 99157 50163,https://location.westernunion.com/in/punjab/jalandhar/0648e7573df41c15faa3bcd6e19b376b,Mo-Su 09:00-21:00,Western Union,Q861042
9d1e27dda5b46ccb6a87ebfd2f70ce69,western_union,NAYYAR ENTERPRISES,,Nakodar,PUNJAB,,IN,+91 98146 28205,https://location.westernunion.com/in/punjab/nakodar/9d1e27dda5b46ccb6a87ebfd2f70ce69,Mo-Su 08:00-21:00,Western Union,Q861042
3a6c817b388bab482094bdd6935cd249,western_union,BHARTI ENTERPRISES,,Jalandhar,PUNJAB,,IN,+91 85449 99815,https://location.westernunion.com/in/punjab/jalandhar/3a6c817b388bab482094bdd6935cd249,Mo-Su 09:00-21:00,Western Union,Q861042
39f167476c2a04f6c0bcb879cc27da89,western_union,GUPTA ENTERPRISES,,Jalandhar,PUNJAB,,IN,+91 182 150 0003,https://location.westernunion.com/in/punjab/jalandhar/39f167476c2a04f6c0bcb879cc27da89,Mo-Su 08:00-20:00,Western Union,Q861042
1e28d93e17f58fadc8f0f2b0f2a3c750,western_union,UPPAL ENTERPRISE,,Jalandhar,PUNJAB,,IN,(+9915) 8288889449,https://location.westernunion.com/in/punjab/jalandhar/1e28d93e17f58fadc8f0f2b0f2a3c750,Mo-Su 08:00-21:00,Western Union,Q861042
a6a82c1e5abad9e33776ecaa58b9b433,western_union,VISHAL COMPUTERS,,Nakodar,PUNJAB,,IN,(+91) 182-501221,https://location.westernunion.com/in/punjab/nakodar/a6a82c1e5abad9e33776ecaa58b9b433,Mo-Sa 08:00-21:00; Su 09:00-20:30,Western Union,Q861042
ab118c41d6fda153d382f12d5ac4cf9f,western_union,PAUL FOREX LTD,,Nakodar,PUNJAB,,IN,+91 182 150 0542,https://location.westernunion.com/in/punjab/nakodar/ab118c41d6fda153d382f12d5ac4cf9f,Mo-Su 07:00-21:00,Western Union,Q861042
3a9731ff297584d3d247ed1dbe5ceb01,western_union,ASPIRING IMMIGRATION CONSULTANCY,,Jalandhar,PUNJAB,,IN,+91 82838 27474,https://location.westernunion.com/in/punjab/jalandhar/3a9731ff297584d3d247ed1dbe5ceb01,Mo-Su 08:00-21:00,Western Union,Q861042
4e7f95ae06fbc9473a711b7693d8435e,western_union,MUTHOOT FINANCE LTD,,Nakodar,PUNJAB,,IN,+91 182 150 2023,https://location.westernunion.com/in/punjab/nakodar/4e7f95ae06fbc9473a711b7693d8435e,Mo-Sa 09:00-17:30,Western Union,Q861042
3917feacb2adeb1489a64657e60bec56,western_union,MS SUKH ENTERPRISES,,Nakodar,PUNJAB,,IN,+91 98151 52735,https://location.westernunion.com/in/punjab/nakodar/3917feacb2adeb1489a64657e60bec56,Mo-Su 07:30-22:00,Western Union,Q861042
73baace63dd62bd4e0851e1cd6822dab,western_union,CHOPRA TRADERS,,Nakodar,PUNJAB,,IN,+91 97803 52352,https://location.westernunion.com/in/punjab/nakodar/73baace63dd62bd4e0851e1cd6822dab,Mo-Su 08:00-22:00,Western Union,Q861042
669109e512a7db330c75ccef5402c11a,western_union,PREM ENTERPRISES,,Nakodar,PUNJAB,,IN,+91 98721 03007,https://location.westernunion.com/in/punjab/nakodar/669109e512a7db330c75ccef5402c11a,Mo-Su 08:00-21:00,Western Union,Q861042
48c2cdf47e049742402635fbde8d9570,western_union,LEGAL TRAVEL SERVICE,,Jalandhar,PUNJAB,,IN,+91 98554 21172,https://location.westernunion.com/in/punjab/jalandhar/48c2cdf47e049742402635fbde8d9570,Mo-Su 09:00-22:00,Western Union,Q861042
1cfeea7777c6edd9b99f73d5b9465559,western_union,CHUMBER ENTERPRISES,,Jalandhar,PUNJAB,,IN,(+91) 182-245908,https://location.westernunion.com/in/punjab/jalandhar/1cfeea7777c6edd9b99f73d5b9465559,Mo-Sa 08:00-21:00; Su 09:00-20:30,Western Union,Q861042
c34a2af3fde70f654f5400de733ad9c1,western_union,NAVEEN ENTERPRISES,,Jalandhar,PUNJAB,,IN,+91 98153 24311,https://location.westernunion.com/in/punjab/jalandhar/c34a2af3fde70f654f5400de733ad9c1,Mo-Su 09:00-21:00,Western Union,Q861042
ee894dd52bf9b2554fc89fdf1f924a60,western_union,R K ENTERPRISES,,Jalandhar,PUNJAB,,IN,+91 98145 76076,https://location.westernunion.com/in/punjab/jalandhar/ee894dd52bf9b2554fc89fdf1f924a60,Mo-Su 08:00-21:00,Western Union,Q861042
7557e420ae2036a68d6e1b911bdd335e,western_union,GOGNA TELECOM,,Jalandhar,PUNJAB,,IN,+91 81980 32162,https://location.westernunion.com/in/punjab/jalandhar/7557e420ae2036a68d6e1b911bdd335e,Mo-Su 09:00-21:00,Western Union,Q861042
18256295af20b9568f6ad43492cf51cb,western_union,BANSAL ENTERPRISES,,Nakodar,PUNJAB,,IN,+91 87270 70157,https://location.westernunion.com/in/punjab/nakodar/18256295af20b9568f6ad43492cf51cb,Mo-Su 08:00-22:00,Western Union,Q861042
5897a38fc78e57ecd2d1192fd8f373a1,western_union,DOABA COMMUNICATIONS MOBILE ACCESSORIES,,Jalandhar,PUNJAB,,IN,+91 95923 31624,https://location.westernunion.com/in/punjab/jalandhar/5897a38fc78e57ecd2d1192fd8f373a1,Mo-Su 07:00-22:00,Western Union,Q861042
2a43651e08c6e356d2d65ea5f8c4e14e,western_union,ANEJA TELECOM,,Jalandhar,PUNJAB,,IN,+91 70092 87522,https://location.westernunion.com/in/punjab/jalandhar/2a43651e08c6e356d2d65ea5f8c4e14e,Mo-Su 08:00-21:00,Western Union,Q861042
8c1e97971783dd8516665a233b4b2723,western_union,R R SEN AND BROS PVT LTD,,Nakodar,PUNJAB,,IN,+91 70099 22060,https://location.westernunion.com/in/punjab/nakodar/8c1e97971783dd8516665a233b4b2723,Mo-Su 09:30-18:00,Western Union,Q861042
