Ref,Spider,Name,Address,City,State,Zipcode,Country,Phone,Website,Hours,Brand,WikiData
https://vertretung.allianz.de/thomas.lonien/,allianz_de,Allianz Versicherung Thomas Lonien GENERALVERTRETUNG,,Stuttgart,,,DE,+49 172 7244569,https://vertretung.allianz.de/thomas.lonien/,,Allianz SE,Q487292
https://vertretung.allianz.de/edi.buzimkic/,allianz_de,Allianz Versicherung Edi Buzimkic HAUPTVERTRETUNG,,Stuttgart,,,DE,+49 711 41130100,https://vertretung.allianz.de/edi.buzimkic/,Mo-Fr 10:00-12:30,Allianz SE,Q487292
48.8314349.231611,dpd_de,Azizi markt,,Stuttgart,,,DE,,,,DPD,Q541030
https://www.fressnapf.de/stores/fressnapf-stuttgart-muehlhausen/,fressnapf_de,Fressnapf Stuttgart-Mühlhausen,,Stuttgart-Mühlhausen,,,DE,+49 711 5058370,https://www.fressnapf.de/stores/fressnapf-stuttgart-muehlhausen/,Mo-Sa 09:00-20:00,Fressnapf,Q875796
2760917117,gls_de,Drachen-Box Party Geschäft,,Stuttgart,,,DE,+49 711 94572128,,Mo 10:00-14:00; Tu 09:00-14:00; We 13:00-18:00; Th 09:00-14:00; Fr 13:00-18:00; Sa 09:00-14:00,General Logistics Systems,Q46495823
DE5860,kaufland,Kaufland Stuttgart-Mühlhausen,,Stuttgart-Mühlhausen,,,DE,+49 711 5534990,https://filiale.kaufland.de/service/filiale/frankfurt-oder-spitzkrug-multi-center-stuttgart-muehlhausen-5860.html,Mo-We 07:00-22:00; Th-Fr 07:00-24:00; Sa 07:00-23:30,Kaufland,Q685967
S0001,rsg_group,McFIT Stuttgart Mühlhausen,,Stuttgart,,,DE,+49 711 5506116,https://www.mcfit.com/de/studio/stuttgart-muehlhausen/,24/7,McFit,Q871302
34653,sparkasse_de,Baden-Württembergische Bank SB-ServiceCenter Steinhaldenfeld,,Stuttgart,,,DE,+49 711 12444005,https://www.sparkasse.de/standorte/filialen/baden-wuerttembergische-bank-sb-service-center-steinhaldenfeld-34653,24/7,Sparkasse,Q13601825
109578,sparkasse_de,Baden-Württembergische Bank Geldautomat Mönchfeld,,Stuttgart,,,DE,+49 711 12444005,https://www.sparkasse.de/standorte/geldautomaten/baden-wuerttembergische-bank-geldautomat-moenchfeld-109578,24/7,Sparkasse,Q13601825
1540,sparkasse_de,Baden-Württembergische Bank SB-ServiceCenter Mönchfeld,,Stuttgart,,,DE,+49 711 12444005,https://www.sparkasse.de/standorte/filialen/baden-wuerttembergische-bank-sb-service-center-moenchfeld-1540,24/7,Sparkasse,Q13601825
26982,sparkasse_de,Baden-Württembergische Bank Geldautomat Neugereut,,Stuttgart,,,DE,+49 711 12444548,https://www.sparkasse.de/standorte/geldautomaten/baden-wuerttembergische-bank-geldautomat-neugereut-26982,24/7,Sparkasse,Q13601825
1573,sparkasse_de,Baden-Württembergische Bank Filiale Neugereut,,Stuttgart,,,DE,+49 711 12444548,https://www.sparkasse.de/standorte/filialen/baden-wuerttembergische-bank-filiale-neugereut-1573,"Mo-Tu 09:00-13:00,14:30-16:30; We 09:00-13:00; Th-Fr 09:00-13:00,14:30-16:30",Sparkasse,Q13601825
34668,sparkasse_de,Baden-Württembergische Bank Geldautomat Mühlhausen,,Stuttgart,,,DE,+49 711 12444005,https://www.sparkasse.de/standorte/geldautomaten/baden-wuerttembergische-bank-geldautomat-muehlhausen-34668,24/7,Sparkasse,Q13601825
34640,sparkasse_de,Baden-Württembergische Bank SB-ServiceCenter Mühlhausen,,Stuttgart,,,DE,+49 711 12444005,https://www.sparkasse.de/standorte/filialen/baden-wuerttembergische-bank-sb-service-center-muehlhausen-34640,24/7,Sparkasse,Q13601825
126996,sparkasse_de,Baden-Württembergische Bank Geldautomat Steinhaldenfeld,,Stuttgart,,,DE,+49 711 12444005,https://www.sparkasse.de/standorte/geldautomaten/baden-wuerttembergische-bank-geldautomat-steinhaldenfeld-126996,24/7,Sparkasse,Q13601825
,visa,,,STUTTGART,,,DE,,,,,
,visa,,,STUTTGART,,,DE,,,,,
,visa,,,STUTTGART,,,DE,,,,,
,visa,,,MUEHLHAUSEN,,,DE,,,,,
https://www.vr.de/standorte/S/Sn-Sz/volksbank-stuttgart-eg-beratungsfiliale-neugereut-8577.html,vr_bank,Volksbank Stuttgart eG Beratungsfiliale Neugereut,,Stuttgart,,,DE,+49 711 1810,https://www.volksbank-stuttgart.de,24/7,,
https://www.vr.de/standorte/S/Sn-Sz/volksbank-stuttgart-eg-sb-filiale-kaufland-muehlhausen-17820.html,vr_bank,Volksbank Stuttgart eG SB-Filiale Kaufland Mühlhausen,,Stuttgart,,,DE,,https://www.volksbank-stuttgart.de,24/7,,
https://www.vr.de/standorte/S/Sn-Sz/volksbank-stuttgart-eg-sb-filiale-hofen-17815.html,vr_bank,Volksbank Stuttgart eG SB-Filiale Hofen,,Stuttgart,,,DE,,https://www.volksbank-stuttgart.de,24/7,,
https://www.vr.de/standorte/S/Sn-Sz/volksbank-stuttgart-eg-filiale-muehlhausen-8576.html,vr_bank,Volksbank Stuttgart eG Filiale Mühlhausen,,Stuttgart,,,DE,+49 711 1810,https://www.volksbank-stuttgart.de,"Mo 09:00-12:30,14:00-16:30; Fr 09:00-12:30,14:00-16:30",,
