Ref,Spider,Name,Address,City,State,Zipcode,Country,Phone,Website,Hours,Brand,WikiData
72487389,moneygram,WAKKAS MONEY TRANSFER - BHARUCH - BHARUC,,BHARUCH,,,IN,26429904431974,,Mo-Su 09:00-21:00,MoneyGram,Q1944412
72598058,moneygram,STAYON FOREX PVT LIMITED,,BHARUCH,,,IN,+91 96244 40004,,Mo-Su 08:00-21:00,MoneyGram,Q1944412
72770177,moneygram,SILVER MONEY TRANSFER TOUR AND TRAVELS -,,BHARUCH,,,IN,+91 83472 61156,,Mo-Su 09:00-21:00,MoneyGram,Q1944412
72597457,moneygram,A K TOURS & MONEY TRANSFER,,BHARUCH,,,IN,+91 98247 84825,,Mo-Su 08:00-21:00,MoneyGram,Q1944412
72894626,moneygram,AAZAM MONEY CHANGER PRIVATE LIMITED,,BHARUCH,,,IN,+91 81402 55157,,Mo-Su 08:00-21:00,MoneyGram,Q1944412
72894891,moneygram,KHANAT MONEY CHANGER P LTD,,BHARUCH,,,IN,+91 96011 81972,,Mo-Su 08:00-21:00,MoneyGram,Q1944412
72895625,moneygram,UNITAUGHT INTERNATIONAL,,BHARUCH,,,IN,+91 97372 98474,,Mo-Su 08:00-21:00,MoneyGram,Q1944412
68969028,moneygram,AAZAM MONEY CHANGER PVT. LTD. - #SHOP NO,,BHARUCH,,,IN,+91 2642 265 483,,Mo-Su 09:30-20:00,MoneyGram,Q1944412
73201946,moneygram,GREENTECH COMPUTERS - BHARUCH,,BHARUCH,,,IN,+91 98984 91415,,Mo-Su 08:00-20:00,MoneyGram,Q1944412
73280682,moneygram,MUTHOOT FINANCE LTD - #3117 - BHARUCH -,,BHARUCH,,,IN,+91 2642 239 930,,Mo-Su 09:00-19:00,MoneyGram,Q1944412
73312631,moneygram,MUTHOOT FINCORP LIMITED - #F1085 - BHARU,,BHARUCH,,,IN,+91 2642 245 433,,Mo-Sa 09:00-17:30; Su 00:00-24:00,MoneyGram,Q1944412
73361763,moneygram,MUNAVVAR MONEY CHANGER PRIVATE LIMITED -,,BHARUCH,,,IN,+91 76004 40003,,Mo-Su 08:00-20:00,MoneyGram,Q1944412
73411862,moneygram,GLOBAL MONEY TRANSFER,,BHARUCH,,,IN,+91 76002 05501,,Mo-Su 08:00-21:00,MoneyGram,Q1944412
73543727,moneygram,M D TOURS AND TRAVELS,,BHARUCH,,,IN,+91 83470 53600,,Mo-Su 08:00-21:00,MoneyGram,Q1944412
73645829,moneygram,AMAN TRAVEL,,BHARUCH,,,IN,+91 97242 94205,,Mo-Su 08:00-21:00,MoneyGram,Q1944412
73299660,moneygram,VRAJ HOLIDAYS - BHARUCH,,BHARUCH,,,IN,+91 97250 18175,,Mo-Su 09:00-21:00,MoneyGram,Q1944412
73828950,moneygram,TEACH COMPUTER AND ELECTRONICS,,BHARUCH,,,IN,+91 94268 82610,,Mo-Su 08:00-21:00,MoneyGram,Q1944412
73662093,moneygram,RUXAN TOURS & TRAVELS PVT LTD,,BHARUCH,,,IN,+91 94271 43264,,Mo-Su 08:00-21:00,MoneyGram,Q1944412
73665317,moneygram,GAJRA TOURS & TRAVELS,,BHARUCH,,,IN,+91 98989 89898,,Mo-Su 08:00-21:00,MoneyGram,Q1944412
73800088,moneygram,EXPRESS CURRENCY CHANGER PVT LTD,,BHARUCH,,,IN,+91 99249 35448,,Mo-Su 08:00-21:00,MoneyGram,Q1944412
66492283,moneygram,MANAPPURAM FINANCE - BHARUCH - BHARUCH S,,BHARUCH,,,IN,+91 2642 310 524,,Mo-Sa 10:00-19:00; Su 10:00-16:00,MoneyGram,Q1944412
66892702,moneygram,PANOLI TRAVELS - PANOLI,,PANOLI,,,IN,+91 2642 274 111,,Mo-Sa 09:30-18:00; Su 00:00-24:00,MoneyGram,Q1944412
71202439,moneygram,GAJRA TOURS AND TRAVELS - BHARUCH - BHAR,,BHARUCH,,,IN,+91 98985 46997,,Mo-Su 08:00-20:00,MoneyGram,Q1944412
N232031,united_colors_of_benetton,Benetton Bharuch,,BHARUCH,,,IN,+91 81408 80008,,,United Colors of Benetton,Q817139
,visa,,,BHARUCH,,,IN,,,,,
,visa,,,BHARUCH,,,IN,,,,,
,visa,,,BHARUCH,,,IN,,,,,
,visa,,,BHARUCH,,,IN,,,,,
,visa,,,BHARUCH,,,IN,,,,,
,visa,,,BHARUCH,,,IN,,,,,
