Ref,Spider,Name,Address,City,State,Zipcode,Country,Phone,Website,Hours,Brand,WikiData
72288009,moneygram,AHMEDSEVA - HYDERABAD - FALAKNUMA,,HYDERABAD,,,IN,+91 85550 70059,,Mo-Su 08:00-22:00,MoneyGram,Q1944412
72615148,moneygram,AL NASEER TRAVELS,,HYDERABAD,,,IN,+91 99484 44494,,Mo-Su 08:00-21:00,MoneyGram,Q1944412
72594861,moneygram,ABR SERVICES,,HYDERABAD,,,IN,+91 99661 39482,,Mo-Su 08:00-21:00,MoneyGram,Q1944412
68905561,moneygram,TOP SERVICES - HYDERABAD,,HYDERABAD,,,IN,+91 87125 51909,,Mo-Su 10:00-20:00,MoneyGram,Q1944412
72585919,moneygram,AL RIYAZ TOURS & TRAVELS,,HYDERABAD,,,IN,+91 91825 35378,,Mo-Su 08:00-21:00,MoneyGram,Q1944412
72599400,moneygram,EMINENCE,,HYDERABAD,,,IN,+91 93463 30053,,Mo-Su 08:00-21:00,MoneyGram,Q1944412
72894011,moneygram,KHANS COMMUNICATIONS,,HYDERABAD,,,IN,+91 85030 05674,,Mo-Su 08:00-21:00,MoneyGram,Q1944412
72896682,moneygram,SHAIKS COMMUNICATIONS,,HYDERABAD,,,IN,+91 88019 11716,,Mo-Su 08:00-21:00,MoneyGram,Q1944412
72985001,moneygram,BISMILLAH ENTERPRISES - HYDERABAD,,HYDERABAD,,,IN,+91 97001 35119,,Mo-Tu 00:00-24:00; We-Su 01:00-24:00,MoneyGram,Q1944412
72991228,moneygram,THE PROTOCOL LEGAL SERVICES - HYDERABAD,,HYDERABAD,,,IN,+91 97001 29839,,Mo-Su 06:00-23:00,MoneyGram,Q1944412
73200578,moneygram,SMART NET ONLINE SERVICES - HYDERABAD,,HYDERABAD,,,IN,+91 63018 29498,,Mo-Su 06:00-23:00,MoneyGram,Q1944412
73319812,moneygram,MUTHOOT FINCORP LIMITED - #F1965 - FALAK,,HYDERABAD,,,IN,+91 40 2438 4142,,Mo-Sa 09:00-17:30; Su 00:00-24:00,MoneyGram,Q1944412
73330862,moneygram,MUTHOOT FINCORP LIMITED - #F3412 - LAL D,,HYDERABAD,,,IN,+91 40 6000 1666,,Mo-Sa 09:00-17:30; Su 00:00-24:00,MoneyGram,Q1944412
73341754,moneygram,AHMED ONLINE SERVICES - HYDERABAD,,HYDERABAD,,,IN,+91 97039 29910,,Mo-Su 06:00-23:00,MoneyGram,Q1944412
72953486,moneygram,MIRZA MOHAMMED ALI BAIG,,HYDERABAD,,,IN,+91 85000 37860,,Mo-Su 08:00-21:00,MoneyGram,Q1944412
73513618,moneygram,AL NAHDI ENTERPRISES - HYDERABAD,,HYDERABAD,,,IN,+91 86869 86975,,Mo-Tu 00:00-24:00; We-Su 01:00-24:00,MoneyGram,Q1944412
69287770,moneygram,M. M. TOURS & TRAVELS HAJ & UMRAH GROUP,,HYDERABAD,,,IN,+91 97001 49031,,Mo-Su 06:00-23:00,MoneyGram,Q1944412
72971248,moneygram,YA RAHMAN TOURS & TRAVELS,,HYDERABAD,,,IN,+91 93911 41602,,Mo-Su 08:00-21:00,MoneyGram,Q1944412
73665139,moneygram,SYED ENTERPRISES,,HYDERABAD,,,IN,+91 97005 24234,,Mo-Su 08:00-21:00,MoneyGram,Q1944412
73664677,moneygram,AL - RIYAZ TOUR & TRAVELS,,HYDERABAD,,,IN,+91 98484 86298,,Mo-Su 08:00-21:00,MoneyGram,Q1944412
73666073,moneygram,MS AL MADINA MONEY POINT,,HYDERABAD,,,IN,+91 93466 03195,,Mo-Su 08:00-21:00,MoneyGram,Q1944412
73666044,moneygram,MS TAJ ENTERPRISES,,HYDERABAD,,,IN,+91 72075 98752,,Mo-Su 08:00-21:00,MoneyGram,Q1944412
74108543,moneygram,SHEEMA TRAVELS AGENCY,,HYDERABAD,,,IN,+91 99859 07896,,Mo-Su 08:00-21:00,MoneyGram,Q1944412
74136926,moneygram,TAHA TOURS AND TRAVELS,,HYDERABAD,,,IN,+91 89198 79033,,Mo-Su 08:00-21:00,MoneyGram,Q1944412
74167500,moneygram,ALMADEENA MONEY POINT,,HYDERABAD,,,IN,+91 93466 03195,,Mo-Su 08:00-21:00,MoneyGram,Q1944412
74393455,moneygram,SHAH TOURS AND TRAVELS,,HYDERABAD,,,IN,+91 98856 63563,,Mo-Su 08:00-21:00,MoneyGram,Q1944412
74695247,moneygram,UNIVERSAL TRAVELS,,HYDERABAD,,,IN,+91 91828 57981,,Mo-Su 01:00-24:00,MoneyGram,Q1944412
74715444,moneygram,M S A TRADERS,,HYDERABAD,,,IN,+91 97003 58014,,Mo-Su 01:00-24:00,MoneyGram,Q1944412
74758168,moneygram,HAPPY HOMES TOUR AND TRAVELS HAJ AND UMR,,HYDERABAD,,,IN,+91 91003 92892,,Mo-Su 01:00-24:00,MoneyGram,Q1944412
65724635,moneygram,MANAPPURAM FINANCE,,HYDERABAD,,,IN,+91 40 2450 0017,,Mo-Sa 10:00-19:00; Su 00:00-24:00,MoneyGram,Q1944412
71589589,moneygram,BISMILLAH MONEY TRANSFER - HYDERABAD - H,,HYDERABAD,,,IN,+91 73968 53288,,Mo-Su 08:00-20:00,MoneyGram,Q1944412
LPG_IN_34,totalenergies,Aditya Filling Station,,Hyderabad,,,IN,+91 95500 41144,https://store.totalenergies.fr/en_EN/LPG_IN_34,,TotalEnergies,Q154037
,visa,,,HYDERABAD,,,IN,,,,,
