Ref,Spider,Name,Address,City,State,Zipcode,Country,Phone,Website,Hours,Brand,WikiData
https://stores.advanceautoparts.com/il/hanover-park/1501-irving-park-rd,advance_auto_parts_us,Advance Auto Parts,,Hanover Park,IL,,US,+1 630-540-0520,https://stores.advanceautoparts.com/il/hanover-park/1501-irving-park-rd,Mo-Sa 07:30-21:00; Su 09:00-20:00,Advance Auto Parts,Q4686051
https://locators.bankofamerica.com/il/hanoverpark/financial-centers-hanover-park-16527.html,bankofamerica,Bank of America Financial Center & Drive-Thru ATM | Hanover Park,,Hanover Park,IL,,US,+1 630-289-9294,https://locators.bankofamerica.com/il/hanoverpark/financial-centers-hanover-park-16527.html,Mo-Fr 09:00-17:00; Sa 09:00-14:00,Bank of America,Q487907
https://locations.baskinrobbins.com/il/hanover-park/7450-barrington-rd-336862-br,baskin_robbins_us,Baskin-Robbinsâ„¢,,Hanover Park,IL,,US,+1 630-540-1740,https://locations.baskinrobbins.com/il/hanover-park/7450-barrington-rd-336862-br,Mo-Sa 03:30-22:00; Su 04:00-22:00,Baskin-Robbins,Q584601
155429,bluerhino,Walgreens #3729,,Hanover Park,IL,,US,+1 630-289-4143,,,Blue Rhino,Q65681213
240562,bluerhino,Circle K #4706791,,Hanover Park,IL,,US,+1 630-372-0658,,,Blue Rhino,Q65681213
155475,bluerhino,Walgreens #5366,,Hanover Park,IL,,US,+1 630-213-1809,,,Blue Rhino,Q65681213
219710,bluerhino,Hanover Park Mart - EK Noor Inc.,,Hanover Park,IL,,US,+1 718-552-7345,,,Blue Rhino,Q65681213
52024009793706013300100000000000,bp,BP,,Hanover Park,IL,,US,+1 630-830-9931,,24/7,BP,Q152057
90917694238606018800100000000000,bp,BP,,Hanover Park,IL,,US,+1 630-289-2085,,24/7,BP,Q152057
2041142,chase_us,Hanover Park - New branch,,Hanover Park,IL,,US,+1 630-736-5346,https://locator.chase.com/il/hanover-park/1640-irving-park-rd,Mo-Fr 09:00-17:00; Sa 09:00-14:00,Chase,Q524629
88764,citi,ATM Walgreens,,Hanover Park,IL,,US,,,,Citibank,Q857063
249355,dennys,Denny's,,HANOVER PARK,IL,,US,+1 630-830-0350,https://locations.dennys.com/IL/HANOVER-PARK/249355,24/7,Denny's,Q1189695
9538,dollartree,DollarTree,,Hanover Park,IL,,US,+1 870-380-5564,,Mo-Sa 09:00-21:00; Su 10:00-20:00,Dollar Tree,Q5289230
336862,dunkin_us,Dunkin',,Hanover Park,IL,,US,+1 630-540-1740,https://locations.dunkindonuts.com/en/il/hanover-park/7450-barrington-rd/336862,Mo-Sa 03:30-22:00; Su 04:00-22:00,Dunkin',Q847743
E115AH,enterprise,Hanover Park,,Hanover Park,IL,,US,+1 630-837-4410,,,Enterprise Rent-A-Car,Q17085454
200322878,exxonmobil,Exxon,,HANOVER PARK,IL,,US,,https://www.exxon.com/en/find-station/exxon-hanoverpark-il-exxon-200322878,Mo-Su 05:00-22:00,Exxon,Q109675651
https://local.fedex.com/#25206346,fedex,,,Hanover Park,IL,,US,+1 800-463-3339,https://local.fedex.com/en-us/il/hanover-park/myrj4,,FedEx,Q459477
https://local.fedex.com/#25197765,fedex,,,Hanover Park,IL,,US,+1 800-463-3339,https://local.fedex.com/en-us/il/hanover-park/mw3e1,,FedEx,Q459477
https://local.fedex.com/#25207335,fedex,,,Hanover Park,IL,,US,+1 800-463-3339,https://local.fedex.com/en-us/il/hanover-park/m4fkb,,FedEx,Q459477
286035,firestone_auto_care,Firestone Complete Auto Care,,Hanover Park,IL,,US,+1 630-504-7155,https://local.firestonecompleteautocare.com/illinois/hanover-park/1910-army-trail-rd/,,Firestone,Q420837
27812,firestone_auto_care,Firestone Complete Auto Care,,Hanover Park,IL,,US,+1 630-823-0588,https://local.firestonecompleteautocare.com/illinois/hanover-park/1960-irving-park-rd/,,Firestone,Q420837
2386,first_cash,Cash America Pawn,,Hanover Park,IL,,US,+1 630-823-0490,,,Cash America,Q5048636
https://www.goodyearautoservice.com/en_US/location/Hanover-Park-IL-60133-US-000901268,goodyear_us,"Just Tires - Hanover Park, Hanover Park, IL | Oil, Brakes & Repairs | #000901268",,Hanover Park,IL,,US,+1 630-837-7685,https://www.goodyearautoservice.com/en_US/location/Hanover-Park-IL-60133-US-000901268,Mo-Fr 08:00-19:00; Sa 08:00-18:00; Su 09:00-17:00,Goodyear,Q620875
https://www.harborfreight.com/storelocator/1559-irving-park-rd-hanover-park-60133?number=471,harborfreight,"Harbor Freight Tools Hanover Park, IL",,Hanover Park,IL,,US,+1 630-372-9098,https://www.harborfreight.com/storelocator/1559-irving-park-rd-hanover-park-60133?number=471,Mo-Sa 08:00-20:00; Su 09:00-18:00,Harbor Freight Tools,Q5654601
12537,h_r_block,H&R Block,,Hanover Park,IL,,US,+1 630-483-2649,https://www.hrblock.com/local-tax-offices/illinois/hanover-park/1808-army-trail-rd/12537/,,H&R Block,Q5627799
https://locations.ironmountain.com/il/hanover-park/180/,iron_mountain,"Iron Mountain in 1565 Hunter Road, Hanover Park, Illinois | Secure Shredding, Scanning, IT Asset Disposition, & Records Management",,Hanover Park,IL,,US,+1 800-899-4766,https://locations.ironmountain.com/il/hanover-park/180/,,Iron Mountain Incorporated,Q1673079
https://office.jacksonhewitt.com/#27575748,jackson_hewitt,Jackson Hewitt,,Hanover Park,IL,,US,+1 630-830-6800,https://office.jacksonhewitt.com/tax-preparation-services-locations/en/il/hanover-park/1784-e-lake-street/17463,Mo-Fr 09:00-19:00; Sa 09:00-17:00; Su 10:00-16:00,Jackson Hewitt,Q6117132
1835,jiffy_lube_us,Army Trail Rd,,HANOVER PARK,IL,,US,+1 630-372-5823,https://www.jiffylube.com/locations/il/hanover-park/1835,Mo-Fr 08:00-19:00; Sa 08:00-18:00,Jiffy Lube,Q6192247
157338,marathon_petroleum_us,Folgers Cafe Marathon,,HANOVER PARK,IL,,US,+1 718-552-7345,,,Marathon,Q458363
17377,mattress_firm_us,Mattress Firm Hanover Park ,,Hanover Park,IL,,US,+1 630-289-6690,https://www.mattressfirm.com/en-us/stores/il/hanover-park/119156/,,Mattress Firm,Q6791878
3253,menards,HANOVER PARK,"7435 BARRINGTON RD, HANOVER PARK, IL 60133",HANOVER PARK,IL,,US,,https://www.menards.com/main/storeDetails.html?store=3253,,Menards,Q1639897
68972552,moneygram,BRONCO SERVICE INC,,HANOVER PARK,IL,,US,+1 630-372-7366,,Mo-Su 09:00-20:00,MoneyGram,Q1944412
restaurant_83880,popeyes_us_fr,Popeyes,"1380 Irving Park Rd Hanover Park, Illinois 60133 - USA",Hanover Park,IL,,US,+1 630-837-2206,https://www.popeyes.com/store-locator/store/restaurant_83880,Mo-Su 10:00-22:00,Popeyes,Q1330910
https://www.publicstorage.com/self-storage-il-hanover-park/1108.html,public_storage_us,Public Storage,,Hanover Park,IL,,US,+1 630-283-1707,https://www.publicstorage.com/self-storage-il-hanover-park/1108.html,,Public Storage,Q1156045
https://www.publicstorage.com/self-storage-il-hanover-park/1351.html,public_storage_us,Public Storage,,Hanover Park,IL,,US,+1 630-283-1695,https://www.publicstorage.com/self-storage-il-hanover-park/1351.html,,Public Storage,Q1156045
13392,seven_eleven_ca_us,7-Eleven Store,,Hanover Park,IL,,US,+1 630-800-8653,https://www.7-eleven.com/locations/il/hanover-park/1610-e-walnut-13392,,7-Eleven,Q259340
https://locations.tacobell.com/#6142214,taco_bell,Taco Bell,,Hanover Park,IL,,US,+1 630-830-3320,https://locations.tacobell.com/il/hanover-park/7660-barrington-road.html,Mo-Th 11:00-01:00; Fr-Sa 11:00-02:00; Su 11:00-01:00,Taco Bell,Q752941
1892,tmobile_us,Irving Park & N Barrington,,Hanover Park,IL,,US,+1 708-887-9125,https://www.t-mobile.com/store-locator/il/hanover-park/irving-park-n-barrington,,T-Mobile,Q3511885
2010,tonys_fresh_market_us,Hanover,,Hanover Park,IL,,US,+1 630-246-7359,https://www.tonysfreshmarket.com/stores/hanover,Mo-Su 07:00-22:00,Tony's Fresh Market,Q118594253
1366172,usps,HANOVER PARK CARRIER ANNEX,,HANOVER PARK,IL,,US,+1 630-837-5488,,,United States Postal Service,Q668687
1578798,usps,HANOVER PARK IL S&DC,,HANOVER PARK,IL,,US,+1 630-837-4468,,,United States Postal Service,Q668687
,visa,,,HANOVER PARK,IL,,US,,,,,
,visa,,,HANOVER PARK,IL,,US,,,,,
,visa,,,HANOVER PARK,IL,,US,,,,,
,visa,,,HANOVER PARK,IL,,US,,,,,
,visa,,,HANOVER PARK,IL,,US,,,,,
,visa,,,HANOVER PARK,IL,,US,,,,,
,visa,,,HANOVER PARK,IL,,US,,,,,
,visa,,,HANOVER PARK,IL,,US,,,,,
,visa,,,HANOVER PARK,IL,,US,,,,,
,visa,,,HANOVER PARK,IL,,US,,,,,
,visa,,,HANOVER PARK,IL,,US,,,,,
,visa,,,HANOVER PARK,IL,,US,,,,,
,visa,,,HANOVER PARK,IL,,US,,,,,
,visa,,,HANOVER PARK,IL,,US,,,,,
,visa,,,HANOVER PARK,IL,,US,,,,,
,visa,,,HANOVER PARK,IL,,US,,,,,
,visa,,,HANOVER PARK,IL,,US,,,,,
,visa,,,HANOVER PARK,IL,,US,,,,,
,visa,,,HANOVER PARK,IL,,US,,,,,
,visa,,,HANOVER PARK,IL,,US,,,,,
,visa,,,HANOVER PARK,IL,,US,,,,,
,visa,,,HANOVER PARK,IL,,US,,,,,
,visa,,,HANOVER PARK,IL,,US,,,,,
,visa,,,HANOVER PARK,IL,,US,,,,,
,visa,,,HANOVER PARK,IL,,US,,,,,
,visa,,,HANOVER PARK,IL,,US,,,,,
,visa,,,HANOVER PARK,IL,,US,,,,,
,visa,,,HANOVER PARK,IL,,US,,,,,
,visa,,,HANOVER PARK,IL,,US,,,,,
,visa,,,HANOVERPARK,IL,,US,,,,,
,visa,,,HANOVER PARK,IL,,US,,,,,
,visa,,,HANOVER PARK,IL,,US,,,,,
,visa,,,HANOVER PARK,IL,,US,,,,,
,visa,,,HANOVER PARK,IL,,US,,,,,
,visa,,,HANOVER PARK,IL,,US,,,,,
https://www.walgreens.com/locator/walgreens-5500+county+farm+rd-hanover+park-il-60133/id=5366,walgreens,Walgreens,,Hanover Park,IL,,US,+1 630-213-1809,https://www.walgreens.com/locator/walgreens-5500+county+farm+rd-hanover+park-il-60133/id=5366,Mo-Su 07:00-24:00,Walgreens,Q1591889
https://www.walgreens.com/locator/walgreens-2040+army+trail+rd-hanover+park-il-60133/id=2447,walgreens,Walgreens,,Hanover Park,IL,,US,+1 630-830-6558,https://www.walgreens.com/locator/walgreens-2040+army+trail+rd-hanover+park-il-60133/id=2447,Mo-Su 07:00-22:00,Walgreens,Q1591889
https://www.walgreens.com/locator/walgreens-7350+barrington+rd-hanover+park-il-60133/id=3729,walgreens,Walgreens,,Hanover Park,IL,,US,+1 630-289-4143,https://www.walgreens.com/locator/walgreens-7350+barrington+rd-hanover+park-il-60133/id=3729,Mo-Su 06:00-24:00,Walgreens,Q1591889
https://locations.wendys.com/#9252805,wendys,"Wendy's 1065 Lake Street in Hanover Park, IL",,Hanover Park,IL,,US,+1 630-893-4272,https://locations.wendys.com/united-states/il/hanover-park/1065-lake-street,"Mo-Su 05:30-10:30,05:30-22:00",Wendy's,Q550258
fbe005f836418117a48640041ad7d0fe,western_union,TONY'S FINER FOODS HANOVER PK,,Hanover Park,IL,,US,+1 630-246-7359,https://location.westernunion.com/us/il/hanover-park/fbe005f836418117a48640041ad7d0fe,Mo-Su 07:00-22:00,Western Union,Q861042
146d43a955ac56e0725c9538d4684a5e,western_union,ENVIOS XPRESS & SERVICES,,Hanover Park,IL,,US,+1 630-540-1600,https://location.westernunion.com/us/il/hanover-park/146d43a955ac56e0725c9538d4684a5e,Mo-Su 09:00-21:00,Western Union,Q861042
ec602c1858bf8818afde0b8f6231f221,western_union,ENVIOS XPRESS & SERVICES,,Hanover Park,IL,,US,+1 630-540-1600,https://location.westernunion.com/us/il/hanover-park/ec602c1858bf8818afde0b8f6231f221,Mo-Su 09:00-21:00,Western Union,Q861042
497ea52a896c1ac55e8ee31331e40d01,western_union,TONY'S FINER FOODS HANOVER PK,,Hanover Park,IL,,US,+1 630-246-7359,https://location.westernunion.com/us/il/hanover-park/497ea52a896c1ac55e8ee31331e40d01,Mo-Su 07:00-22:00,Western Union,Q861042
6ce472c2d63681e1b051ea30358f97bd,western_union,LA MONARCA MG,,Hanover Park,IL,,US,+1 630-540-1349,https://location.westernunion.com/us/il/hanover-park/6ce472c2d63681e1b051ea30358f97bd,Mo-Sa 08:00-21:00; Su 08:00-17:00,Western Union,Q861042
65fd76eafa2a0f1a340564624a332a9d,western_union,ENVIOS BMM,,Hanover Park,IL,,US,+1 630-736-9310,https://location.westernunion.com/us/il/hanover-park/65fd76eafa2a0f1a340564624a332a9d,Mo-Sa 09:00-21:00; Su 09:00-19:00,Western Union,Q861042
e9c9f7b4a97158eb9d1e8d8855b02b30,western_union,7-ELEVEN #13392,,Hanover Park,IL,,US,+1 630-800-8653,https://location.westernunion.com/us/il/hanover-park/e9c9f7b4a97158eb9d1e8d8855b02b30,,Western Union,Q861042
