Ref,Spider,Name,Address,City,State,Zipcode,Country,Phone,Website,Hours,Brand,WikiData
4102,autozone_us,AutoZone Auto Parts Seattle,,Seattle,WA,,US,+1 206-721-0381,https://www.autozone.com/locations/wa/seattle/9471-rainier-ave-s.html,Mo-Sa 07:30-21:00; Su 08:00-20:00,AutoZone,Q4826087
https://locators.bankofamerica.com/wa/seattle/financial-centers-seattle-7730.html,bankofamerica,Bank of America Financial Center & Drive-Thru ATM | Columbia City,,Seattle,WA,,US,+1 206-358-2123,https://locators.bankofamerica.com/wa/seattle/financial-centers-seattle-7730.html,Mo-Fr 09:00-17:00; Sa 10:00-14:00,Bank of America,Q487907
https://locators.bankofamerica.com/wa/seattle/financial-centers-seattle-10877.html,bankofamerica,Bank of America Financial Center & Walk-Up ATM | Rainier Valley,,Seattle,WA,,US,+1 206-721-8206,https://locators.bankofamerica.com/wa/seattle/financial-centers-seattle-10877.html,Mo-Fr 09:00-17:00; Sa 10:00-14:00,Bank of America,Q487907
https://locators.bankofamerica.com/wa/seattle/financial-centers-seattle-8681.html,bankofamerica,Bank of America Financial Center & Drive-Thru ATM | Rainier Beach,,Seattle,WA,,US,+1 206-358-2130,https://locators.bankofamerica.com/wa/seattle/financial-centers-seattle-8681.html,Mo-Fr 10:00-16:00,Bank of America,Q487907
171064,bluerhino,BP West Coast Products LLC ARCO AMPM #7013,,Seattle,WA,,US,+1 206-725-0678,,,Blue Rhino,Q65681213
179807,bluerhino,Jim's Market,,Seattle,WA,,US,+1 206-725-7521,,,Blue Rhino,Q65681213
2038236,chase_us,Martin Luther King Jr - New branch - Newly renovated,,Seattle,WA,,US,+1 206-461-4775,https://locator.chase.com/wa/seattle/7100-martin-luther-king-jr-way-s,Mo-Fr 09:00-17:00; Sa 09:00-13:00,Chase,Q524629
2038255,chase_us,Rainier Safeway - New branch,,Seattle,WA,,US,+1 206-554-7250,https://locator.chase.com/wa/seattle/3820-rainier-ave-s,Mo-Fr 09:00-17:00; Sa 09:00-13:00,Chase,Q524629
31769,citi,ATM 7ELEVEN-FCTI,,Seattle,WA,,US,,,,Citibank,Q857063
91143,citi,ATM Walgreens,,Seattle,WA,,US,,,,Citibank,Q857063
93945,citi,ATM WASHINGTON FEDERAL BANK,,Seattle,WA,,US,,,,Citibank,Q857063
71625,citi,ATM Qfc,,Seattle,WA,,US,,,,Citibank,Q857063
94013,citi,ATM WASHINGTON FEDERAL BANK,,Seattle,WA,,US,,,,Citibank,Q857063
73701,citi,ATM Rite Aid,,Seattle,WA,,US,,,,Citibank,Q857063
31338,citi,ATM 7ELEVEN-FCTI,,Seattle,WA,,US,,,,Citibank,Q857063
7145,dominos_pizza_us,Domino's Pizza,,Seattle,WA,,US,+1 206-721-5596,https://pizza.dominos.com/washington/seattle/4436-rainier-ave-s,Mo-Th 10:00-24:00; Fr-Sa 10:00-01:00; Su 10:00-24:00,Domino's,Q839466
9427,dominos_pizza_us,Domino's Pizza,,Seattle,WA,,US,+1 206-508-0404,https://pizza.dominos.com/washington/seattle/4219-s-othello-st-suite-105e,Mo-Th 10:00-24:00; Fr-Sa 10:00-01:00; Su 10:00-24:00,Domino's,Q839466
https://www.edwardjones.com/us-en/financial-advisor/ali-zuberi,edwardjones,Ali Zuberi,,Seattle,WA,,US,+1 206-725-0448,https://www.edwardjones.com/us-en/financial-advisor/ali-zuberi,,Edward Jones,Q5343830
210225,electrify_america,"Rainier Beach WA3-155 ( Seattle, WA)",,Seattle,WA,,US,,,,Electrify America,Q59773555
https://local.fedex.com/#25204979,fedex,,,Seattle,WA,,US,+1 800-463-3339,https://local.fedex.com/en-us/wa/seattle/kpfkt,,FedEx,Q459477
https://local.fedex.com/#27748475,fedex,FedEx Authorized ShipCenter,,Seattle,WA,,US,+1 206-725-8657,https://local.fedex.com/en-us/wa/seattle/36864,,FedEx,Q459477
12424,firestone_auto_care,Firestone Complete Auto Care,,Seattle,WA,,US,+1 206-538-6080,https://local.firestonecompleteautocare.com/washington/seattle/5601-martin-luther-king-jr-way-s/,,Firestone,Q420837
63703,h_r_block,H&R Block,,Seattle,WA,,US,+1 206-721-5343,https://www.hrblock.com/local-tax-offices/washington/seattle/9305-b-rainier-ave-s/63703/,,H&R Block,Q5627799
7100-martin-luther-king-jr-way-s,indigo,7100 Martin Luther King Jr. Way S,,Seattle,WA,,US,+1 206-593-6360,,,Indigo,Q3559970
https://locations.jackinthebox.com/us/wa/seattle/9102-rainier-ave-s,jackinthebox,Jack in the Box,,Seattle,WA,,US,+1 206-725-7143,https://locations.jackinthebox.com/us/wa/seattle/9102-rainier-ave-s,Mo-Su 06:00-22:00,Jack in the Box,Q1538507
https://healthy.kaiserpermanente.org/washington/facilities/rainier-medical-center-338999,kaiser_permanente_us,Rainier Medical Center,,Seattle,WA,,US,+1 206-721-5600,https://healthy.kaiserpermanente.org/washington/facilities/rainier-medical-center-338999,,Kaiser Permanente,Q1721601
https://locations.kfc.com/#11247147,kfc,Chicken Nuggets Near Seattle,,Seattle,WA,,US,,https://locations.kfc.com/wa/seattle/9401-rainier-ave-s/chickennugget,Mo-Su 10:00-23:00,KFC,Q524757
141534,little_free_library,Karin Johansson #141534 #141534 Seattle WA,,Seattle,WA,,US,,,,Little Free Library,Q6650101
119555,little_free_library,Miller Family #119555 Seattle WA,,Seattle,WA,,US,,,,Little Free Library,Q6650101
120086,little_free_library,Book Oasis - 4604 S Austin St #120086 Seattle WA,,Seattle,WA,,US,,,,Little Free Library,Q6650101
1098696,little_free_library,Little Bird Haven Little Free Library #1098696 Seattle WA,,Seattle,WA,,US,,,,Little Free Library,Q6650101
133709,little_free_library,Paperbacks and Puppy Snacks #133709 Seattle WA,,Seattle,WA,,US,,,,Little Free Library,Q6650101
119356,little_free_library,Koren Copps #119356 Seattle WA,,Seattle,WA,,US,,,,Little Free Library,Q6650101
167712,little_free_library,Likkle Angie’s Library #167712 Seattle WA,,Seattle,WA,,US,,,,Little Free Library,Q6650101
16783,little_free_library,Funny Farm #16783 Seattle WA,,Seattle,WA,,US,,,,Little Free Library,Q6650101
154332,little_free_library,Little Free Library #154332 Seattle WA,,Seattle,WA,,US,,,,Little Free Library,Q6650101
131460,little_free_library,Letitia Alley Library #131460 Seattle WA,,Seattle,WA,,US,,,,Little Free Library,Q6650101
10522,little_free_library,Martha Crites #10522 Seattle WA,,Seattle,WA,,US,,,,Little Free Library,Q6650101
7823,little_free_library,Rachel Harrison #7823 Seattle WA,,Seattle,WA,,US,,,,Little Free Library,Q6650101
120088,little_free_library,Book Oasis - 4541 S Orcas St #120088 Seattle WA,,Seattle,WA,,US,,,,Little Free Library,Q6650101
147727,little_free_library,Baggins’ Books #147727 Seattle WA,,Seattle,WA,,US,,,,Little Free Library,Q6650101
50634,little_free_library,Cool Cats Love to Read #50634 Seattle WA,,Seattle,WA,,US,,,,Little Free Library,Q6650101
138215,little_free_library,Taylor's Little Library #138215 Seattle WA,,Seattle,WA,,US,,,,Little Free Library,Q6650101
11676,little_free_library,Martin Chavez #11676 Seattle WA,,Seattle,WA,,US,,,,Little Free Library,Q6650101
86288,little_free_library,little purple #86288 Seattle WA,,Seattle,WA,,US,,,,Little Free Library,Q6650101
2956,little_free_library,Aimee Bullock #2956 Seattle WA,,Seattle,WA,,US,,,,Little Free Library,Q6650101
12553,little_free_library,Sine Bodden #12553 Seattle WA,,Seattle,WA,,US,,,,Little Free Library,Q6650101
159538,little_free_library,Barbara's Book Swap #159538 Seattle WA,,Seattle,WA,,US,,,,Little Free Library,Q6650101
103553,little_free_library,Cottson Library #103553 Seattle WA,,Seattle,WA,,US,,,,Little Free Library,Q6650101
9820,little_free_library,Meredith Slota #9820 Seattle WA,,Seattle,WA,,US,,,,Little Free Library,Q6650101
25259,little_free_library,David Johansson #25259 Seattle WA,,Seattle,WA,,US,,,,Little Free Library,Q6650101
89201,little_free_library,49th Ave S Library #89201 Seattle WA,,Seattle,WA,,US,,,,Little Free Library,Q6650101
147976,little_free_library,Cheryl Brush #147976 #147976 Seattle WA,,Seattle,WA,,US,,,,Little Free Library,Q6650101
39301,little_free_library,Emily and Sven #39301 Seattle WA,,Seattle,WA,,US,,,,Little Free Library,Q6650101
13716,little_free_library,Sheila Capestany #13716 Seattle WA,,Seattle,WA,,US,,,,Little Free Library,Q6650101
9279,little_free_library,Julie Grove #9279 Seattle WA,,Seattle,WA,,US,,,,Little Free Library,Q6650101
5904,little_free_library,Davidj Wright #5904 Seattle WA,,Seattle,WA,,US,,,,Little Free Library,Q6650101
https://locations.papajohns.com/#61312723,papa_johns,Papa John's,,Seattle,WA,,US,+1 206-806-6760,https://locations.papajohns.com/united-states/wa/98118/seattle/6901-martin-luther-king-jr-way-s,Mo-Th 09:45-22:00; Fr-Sa 09:45-23:00; Su 09:45-22:00,Papa John's Pizza,Q2759586
https://www.providence.org/supportive-housing/find-a-place-to-live/providence-peter-claver-house,providence_us,Providence Peter Claver House,,Seattle,WA,,US,+1 206-721-6265,https://www.providence.org/supportive-housing/find-a-place-to-live/providence-peter-claver-house,,Providence,Q7252430
05217,rite_aid_us,Rite Aid #05217 Seattle,,Seattle,WA,,US,+1 206-760-1076,https://locations2.riteaid.com.yext-cdn.com/wa/seattle/9000-rainier-avenue-s.html,Mo-Fr 08:00-20:00; Sa-Su 09:00-20:00,Rite Aid,Q3433273
1319,ross_dress_for_less_us,SE Seattle,,Seattle,WA,,US,+1 206-722-3016,,Mo-Sa 09:00-22:00; Su 09:30-22:00,Ross Dress for Less,Q3442791
https://local.pharmacy.safeway.com/#5673444,safeway,Safeway Pharmacy,,Seattle,WA,,US,+1 206-494-1130,https://local.pharmacy.safeway.com/safeway/wa/seattle/9262-rainier-ave-s.html,,Safeway,Q1508234
https://local.pharmacy.safeway.com/#5673225,safeway,Safeway Pharmacy,,Seattle,WA,,US,+1 206-725-9887,https://local.pharmacy.safeway.com/safeway/wa/seattle/3820-rainier-ave-s.html,,Safeway,Q1508234
https://local.safeway.com/#5604315,safeway,Safeway,,Seattle,WA,,US,+1 206-494-1120,https://local.safeway.com/safeway/wa/seattle/9262-rainier-ave-s.html,,Safeway,Q1508234
https://local.safeway.com/#5604358,safeway,Safeway,,Seattle,WA,,US,+1 206-722-5552,https://local.safeway.com/safeway/wa/seattle/3900-s-othello-st.html,Mo-Su 06:00-23:00,Safeway,Q1508234
https://local.safeway.com/#5604076,safeway,Safeway,,Seattle,WA,,US,+1 206-725-9575,https://local.safeway.com/safeway/wa/seattle/3820-rainier-ave-s.html,,Safeway,Q1508234
https://local.fuel.safeway.com/#9073302,safeway,Safeway Fuel Station,,Seattle,WA,,US,+1 206-494-1120,https://local.fuel.safeway.com/safeway/wa/seattle/9200-rainier-ave-s.html,Mo-Su 06:30-22:00,Safeway,Q1508234
https://local.fuel.safeway.com/#9073303,safeway,Safeway Fuel Station,,Seattle,WA,,US,+1 206-725-9575,https://local.fuel.safeway.com/safeway/wa/seattle/3820-rainier-ave-s.html,Mo-Su 06:00-22:00,Safeway,Q1508234
37134,seven_eleven_ca_us,7-11 Str   5700 Mlk Jr Way South,,Seattle,WA,,US,+1 206-725-8421,https://www.7-eleven.com/locations/wa/seattle/5700-mlk-jr-way-south-37134,,7-Eleven,Q259340
https://restaurants.subway.com/#14907785,subway,Subway,,Seattle King,WA,,US,+1 206-722-0686,https://restaurants.subway.com/united-states/wa/seattle/9305a-rainier-ave-s,Mo-Sa 09:00-24:00; Su 09:00-22:00,Subway,Q244457
https://locations.tacobell.com/#6141663,taco_bell,Taco Bell,,Seattle,WA,,US,+1 206-725-7177,https://locations.tacobell.com/wa/seattle/9401-rainier-ave--s.html,Mo-Su 10:30-22:00,Taco Bell,Q752941
204,tmobile_us,Rainier Ave S & S Andover St,,Seattle,WA,,US,+1 206-722-0343,https://www.t-mobile.com/store-locator/wa/seattle/rainier-ave-s-s-andover-st,,T-Mobile,Q3511885
701026,uhaul,U-Haul Storage of Othello Station,6403 Mlk Jr Wy S,Seattle,WA,,US,+1 206-723-1685,,Mo-Th 00:00-19:00; Fr 00:00-20:00; Sa 00:00-19:00; Su 00:00-17:00,U-Haul,Q7862902
1579033,usps,COLUMBIA,,SEATTLE,WA,,US,+1 206-721-5497,,Mo-Fr 09:00-17:30; Sa 10:00-15:00,United States Postal Service,Q668687
1518415,usps,COLUMBIA CARRIER ANNEX,,SEATTLE,WA,,US,+1 206-721-2534,,,United States Postal Service,Q668687
9811800573,usps_collection_boxes,USPS COLLECTION BOX - BLUE BOX,5318 S ROXBURY ST,SEATTLE,WA,,US,,,,United States Postal Service,Q668687
9811801555,usps_collection_boxes,USPS COLLECTION BOX - BLUE BOX,3900 S OTHELLO ST,SEATTLE,WA,,US,,,,United States Postal Service,Q668687
9811801553,usps_collection_boxes,USPS COLLECTION BOX - BLUE BOX,6298 RAINIER AVE S,SEATTLE,WA,,US,,,,United States Postal Service,Q668687
9811800567,usps_collection_boxes,USPS COLLECTION BOX - BLUE BOX,5100 S DAWSON ST,SEATTLE,WA,,US,,,,United States Postal Service,Q668687
9811801559,usps_collection_boxes,USPS COLLECTION BOX - PO LOBBY,3795 S ALASKA ST,SEATTLE,WA,,US,,,,United States Postal Service,Q668687
9811801560,usps_collection_boxes,USPS COLLECTION BOX - PO LOBBY,3795 S ALASKA ST,SEATTLE,WA,,US,,,,United States Postal Service,Q668687
,visa,,,SEATTLE,WA,,US,,,,,
,visa,,,SEATTLE,WA,,US,,,,,
,visa,,,SEATTLE,WA,,US,,,,,
,visa,,,SEATTLE,WA,,US,,,,,
,visa,,,SEATTLE,WA,,US,,,,,
,visa,,,SEATTLE,WA,,US,,,,,
,visa,,,SEATTLE,WA,,US,,,,,
,visa,,,SEATTLE,WA,,US,,,,,
,visa,,,SEATTLE,WA,,US,,,,,
,visa,,,SEATTLE,WA,,US,,,,,
,visa,,,SEATTLE,WA,,US,,,,,
,visa,,,SEATTLE,WA,,US,,,,,
,visa,,,SEATTLE,WA,,US,,,,,
,visa,,,SEATTLE,WA,,US,,,,,
,visa,,,SEATTLE,WA,,US,,,,,
,visa,,,SEATTLE,WA,,US,,,,,
,visa,,,SEATTLE,WA,,US,,,,,
,visa,,,SEATTLE,WA,,US,,,,,
,visa,,,SEATTLE,WA,,US,,,,,
,visa,,,SEATTLE,WA,,US,,,,,
,visa,,,SEATTLE,WA,,US,,,,,
,visa,,,SEATTLE,WA,,US,,,,,
,visa,,,SEATTLE,WA,,US,,,,,
,visa,,,SEATTLE,WA,,US,,,,,
,visa,,,SEATTLE,WA,,US,,,,,
,visa,,,SEATTLE,WA,,US,,,,,
,visa,,,SEATTLE,WA,,US,,,,,
,visa,,,SEATTLE,WA,,US,,,,,
,visa,,,SEATTLE,WA,,US,,,,,
,visa,,,SEATTLE,WA,,US,,,,,
,visa,,,SEATTLE,WA,,US,,,,,
,visa,,,SEATTLE,WA,,US,,,,,
,visa,,,SEATTLE,WA,,US,,,,,
,visa,,,SEATTLE,WA,,US,,,,,
,visa,,,SEATTLE,WA,,US,,,,,
,visa,,,SEATTLE,WA,,US,,,,,
,visa,,,SEATTLE,WA,,US,,,,,
,visa,,,SEATTLE,WA,,US,,,,,
,visa,,,SEATTLE,WA,,US,,,,,
,visa,,,SEATTLE,WA,,US,,,,,
,visa,,,SEATTLE,WA,,US,,,,,
,visa,,,SEATTLE,WA,,US,,,,,
,visa,,,SEATTLE,WA,,US,,,,,
,visa,,,SEATTLE,WA,,US,,,,,
,visa,,,SEATTLE,WA,,US,,,,,
,visa,,,SEATTLE,WA,,US,,,,,
,visa,,,SEATTLE,WA,,US,,,,,
,visa,,,SEATTLE,WA,,US,,,,,
,visa,,,SEATTLE,WA,,US,,,,,
,visa,,,SEATTLE,WA,,US,,,,,
,visa,,,SEATTLE,WA,,US,,,,,
,visa,,,SEATTLE,WA,,US,,,,,
,visa,,,SEATTLE,WA,,US,,,,,
,visa,,,SEATTLE,WA,,US,,,,,
,visa,,,SEATTLE,WA,,US,,,,,
,visa,,,TUKWILA,WA,,US,,,,,
,visa,,,SEATTLE,WA,,US,,,,,
,visa,,,SEA TAC,WA,,US,,,,,
https://www.walgreens.com/locator/walgreens-4412+rainier+ave+s-seattle-wa-98118/id=5950,walgreens,Walgreens,,Seattle,WA,,US,+1 206-760-7880,https://www.walgreens.com/locator/walgreens-4412+rainier+ave+s-seattle-wa-98118/id=5950,Mo-Su 07:00-22:00,Walgreens,Q1591889
