Ref,Spider,Name,Address,City,State,Zipcode,Country,Phone,Website,Hours,Brand,WikiData
https://stores.advanceautoparts.com/ny/saugerties/rt-212,advance_auto_parts_us,Advance Auto Parts,,Saugerties,NY,,US,+1 845-247-5607,https://stores.advanceautoparts.com/ny/saugerties/rt-212,Mo-Sa 07:30-21:00; Su 09:00-20:00,Advance Auto Parts,Q4686051
6459,autozone_us,AutoZone Auto Parts Saugerties,,Saugerties,NY,,US,+1 845-217-8014,https://www.autozone.com/locations/ny/saugerties/298-ulster-ave.html,Mo-Fr 08:00-21:00; Sa 08:00-19:00; Su 08:00-18:00,AutoZone,Q4826087
https://local.biglots.com/#13190878,biglots,Big Lots - Saugerties,,Saugerties,NY,,US,+1 845-246-4972,https://local.biglots.com/ny/saugerties/330-route-212,Mo-Sa 09:00-21:00; Su 10:00-19:00,Big Lots,Q4905973
209184,bluerhino,Speedway #7722,,Saugerties,NY,,US,+1 845-247-0646,,,Blue Rhino,Q65681213
191687,bluerhino,Price Chopper #193,,Saugerties,NY,,US,+1 845-247-4500,,,Blue Rhino,Q65681213
195421,bluerhino,"P.C. Smith & Son, Inc. - Ace #08873",,Saugerties,NY,,US,+1 845-246-4500,,,Blue Rhino,Q65681213
174863,bluerhino,Quick Chek #134,,Saugerties,NY,,US,+1 845-246-1083,,,Blue Rhino,Q65681213
80855,citi,ATM Sudz Ur Dudz,,Saugerties,NY,,US,,,,Citibank,Q857063
46556,citi,ATM CVS,,Saugerties,NY,,US,,,,Citibank,Q857063
65369,citi,ATM Mid-Hudson Valley Federal Credit Union,,Saugerties,NY,,US,,,,Citibank,Q857063
65370,citi,ATM Mid-Hudson Valley Federal Credit Union,,Saugerties,NY,,US,,,,Citibank,Q857063
78196,citi,ATM Speedway,,Saugerties,NY,,US,,,,Citibank,Q857063
70814,citi,ATM PNC BANK,,Saugerties,NY,,US,,,,Citibank,Q857063
70813,citi,ATM PNC BANK,,Saugerties,NY,,US,,,,Citibank,Q857063
323,cvs_us,CVS Pharmacy,,Saugerties,NY,,US,+1 845-246-3441,https://www.cvs.com/store-locator/saugerties-ny-pharmacies/1-grand-union-plaza-saugerties-ny-12477/storeid=323,Mo-Sa 08:00-22:00; Su 10:00-20:00,CVS Pharmacy,Q2078880
3300,dominos_pizza_us,Domino's Pizza,,Saugerties,NY,,US,+1 845-246-3030,https://pizza.dominos.com/new-york/saugerties/3069-route-9w,Mo-Th 10:30-24:00; Fr-Sa 10:30-01:00; Su 10:30-24:00,Domino's,Q839466
338967,dunkin_us,Dunkin',,Saugerties,NY,,US,+1 845-246-6420,https://locations.dunkindonuts.com/en/ny/saugerties/138-ulster-ave/338967,Mo-Su 05:00-20:00,Dunkin',Q847743
342348,dunkin_us,Dunkin',,Saugerties,NY,,US,+1 845-247-9630,https://locations.dunkindonuts.com/en/ny/saugerties/3112-highway-9w/342348,Mo-Su 05:00-19:00,Dunkin',Q847743
501667,extra_space_storage,Saugerties Self Storage at 2820 Route 32,,Saugerties,NY,,US,+1 845-246-1442,https://www.extraspace.com/storage/facilities/us/new_york/saugerties/501667/,Mo-Su 06:00-22:00,Extra Space Storage,Q5422162
200315785,exxonmobil,SAUGERTIES MART,,SAUGERTIES,NY,,US,+1 845-247-9138,https://www.exxon.com/en/find-station/mobil-saugerties-ny-saugertiesmart-200315785,Mo-Su 05:00-23:00,Mobil,Q109676002
193,golub_corporation_us,Price Chopper Saugerties,,Saugerties,NY,,US,+1 845-247-4500,https://www.pricechopper.com/stores/ny/saugerties/price-chopper-193.html,Mo-Su 06:00-23:00,Price Chopper,Q7242574
3487,gulf_pr_us,3169 SAUGERTIES GULF,,Saugerties,NY,,US,+1 845-246-9876,https://www.gulfoil.com/3169-saugerties-gulf,,Gulf Oil,Q5617505
30380,h_r_block,H&R Block,,Saugerties,NY,,US,+1 845-246-3500,https://www.hrblock.com/local-tax-offices/new-york/saugerties/twin-maples-plaza/30380/,,H&R Block,Q5627799
https://locations.mtb.com/#25081780,mt_bank_us,,,,NY,,US,+1 800-724-2440,https://locations.mtb.com/ny/saugerties/bank-branches-and-atms-saugerties-ny-pd2000.html,24/7,M&T Bank,Q3272257
https://locations.mtb.com/#25082490,mt_bank_us,M&T Bank,,,NY,,US,+1 845-246-4961,https://locations.mtb.com/ny/saugerties/bank-branches-and-atms-saugerties-ny-437.html,Mo-Th 09:00-16:00; Fr 09:00-17:00,M&T Bank,Q3272257
albert-kemperle-inc-64621,ppgpaints,ALBERT KEMPERLE INC,,"Saugerties, ",NY,,US,+1 845-336-4442,https://www.ppgpaints.com/store-locator/us/new-york/saugerties-paint-stores/albert-kemperle-inc-64621,,PPG Paints,Q83891559
235,stewartsshops,Stewart's Shops,,Saugerties,NY,,US,+1 845-246-8165,https://locations.stewartsshops.com/ll/US/NY/Saugerties/165-Main-Street,Mo-Su 04:30-23:00,Stewart's Shops,Q7615690
273,stewartsshops,Stewart's Shops,,Saugerties,NY,,US,+1 845-246-8271,https://locations.stewartsshops.com/ll/US/NY/Saugerties/356-New-York-212,Mo-Su 05:00-23:00,Stewart's Shops,Q7615690
https://restaurants.subway.com/#14911643,subway,Subway Saugarties Plaza,,Saugerties Ulster,NY,,US,+1 845-246-5251,https://restaurants.subway.com/united-states/ny/saugerties/3139-route-9w,Mo-Su 08:00-20:00,Subway,Q244457
https://restaurants.subway.com/#14984080,subway,Subway Grand Union Plaza,,Saugerties Ulster,NY,,US,+1 845-246-2333,https://restaurants.subway.com/united-states/ny/saugerties/route-212,Mo-Su 07:30-20:30,Subway,Q244457
0572254100,sunoco_us,Sunoco,,SAUGERTIES,NY,,US,+1 845-247-8005,,24/7,Sunoco,Q1423218
0276848900,sunoco_us,Sunoco,,SAUGERTIES,NY,,US,+1 845-246-2212,,Mo-Su 06:00-00:00,Sunoco,Q1423218
15086,true_value_us,Saugerties Lumber True Value,,Saugerties,NY,,US,+1 845-246-4915,http://www.truevalue.com/saugertieslumber,,True Value,Q7847545
1380847,usps,SAUGERTIES,,SAUGERTIES,NY,,US,+1 845-246-1998,,Mo-Fr 09:00-17:00; Sa 09:00-16:00,United States Postal Service,Q668687
1247700014,usps_collection_boxes,USPS COLLECTION BOX - BLUE BOX,14 SIMMONS PLZ,SAUGERTIES,NY,,US,,,,United States Postal Service,Q668687
1247700027,usps_collection_boxes,USPS COLLECTION BOX - BLUE BOX,59 POST ST,SAUGERTIES,NY,,US,,,,United States Postal Service,Q668687
1247700003,usps_collection_boxes,USPS COLLECTION BOX - BLUE BOX,155 MAIN ST,SAUGERTIES,NY,,US,,,,United States Postal Service,Q668687
1247700008,usps_collection_boxes,USPS COLLECTION BOX - BLUE BOX,206 WASHINGTON AVE,SAUGERTIES,NY,,US,,,,United States Postal Service,Q668687
1247700011,usps_collection_boxes,USPS COLLECTION BOX - BLUE BOX,139 PARTITION ST,SAUGERTIES,NY,,US,,,,United States Postal Service,Q668687
1247700031,usps_collection_boxes,USPS COLLECTION BOX - PO LOBBY,111 MARKET ST LBBY SLOT,SAUGERTIES,NY,,US,,,,United States Postal Service,Q668687
1247700033,usps_collection_boxes,USPS COLLECTION BOX - PO LOBBY,111 MARKET ST,SAUGERTIES,NY,,US,,,,United States Postal Service,Q668687
1247700030,usps_collection_boxes,USPS COLLECTION BOX - BLUE BOX,111 MARKET ST,SAUGERTIES,NY,,US,,,,United States Postal Service,Q668687
1247700018,usps_collection_boxes,USPS COLLECTION BOX - BLUE BOX,319 MAIN ST,SAUGERTIES,NY,,US,,,,United States Postal Service,Q668687
1247700002,usps_collection_boxes,USPS COLLECTION BOX - BLUE BOX,163 ULSTER AVE,SAUGERTIES,NY,,US,,,,United States Postal Service,Q668687
A00000248642,verizon_us,Cellular Sales Saugerties,,SAUGERTIES,NY,,US,+1 845-246-8400,https://www.verizon.com/stores/details/new-york/saugerties/cellular-sales-saugerties-1600022/,Mo-Sa 10:00-19:00; Su 10:00-17:00,Verizon,Q919641
,visa,,,SAUGERTIES,NY,,US,,,,,
,visa,,,SAUGERTIES,NY,,US,,,,,
,visa,,,SAUGERTIES,NY,,US,,,,,
,visa,,,SAUGERTIES,NY,,US,,,,,
,visa,,,SAUGERTIES,NY,,US,,,,,
,visa,,,SAUGERTIES,NY,,US,,,,,
,visa,,,SAUGERTIES,NY,,US,,,,,
,visa,,,SAUGERTIES,NY,,US,,,,,
,visa,,,SAUGERTIES,NY,,US,,,,,
,visa,,,SAUGERTIES,NY,,US,,,,,
,visa,,,SAUGERTIES,NY,,US,,,,,
,visa,,,SAUGERTIES,NY,,US,,,,,
,visa,,,SAUGERTIES,NY,,US,,,,,
,visa,,,SAUGERTIES,NY,,US,,,,,
,visa,,,SAUGERTIES,NY,,US,,,,,
,visa,,,SAUGERTIES,NY,,US,,,,,
,visa,,,SAUGERTIES,NY,,US,,,,,
,visa,,,SAUGERTIES,NY,,US,,,,,
,visa,,,SAUGERTIES,NY,,US,,,,,
,visa,,,SAUGERTIES,NY,,US,,,,,
,visa,,,SAUGERTIES,NY,,US,,,,,
,visa,,,SAUGERTIES,NY,,US,,,,,
,visa,,,SAUGERTIES,NY,,US,,,,,
,visa,,,SAUGERTIES,NY,,US,,,,,
,visa,,,SAUGERTIES,NY,,US,,,,,
,visa,,,SAUGERTIES,NY,,US,,,,,
,visa,,,SAUGERTIES,NY,,US,,,,,
,visa,,,SAUGERTIES,NY,,US,,,,,
,visa,,,SAUGERTIES,NY,,US,,,,,
,visa,,,SAUGERTIES,NY,,US,,,,,
,visa,,,SAUGERTIES,NY,,US,,,,,
,visa,,,SAUGERTIES,NY,,US,,,,,
,visa,,,KINGSTON,NY,,US,,,,,
,visa,,,SAUGERTIES,NY,,US,,,,,
,visa,,,SAUGERTIES,NY,,US,,,,,
,visa,,,SAUGERTIES,NY,,US,,,,,
,visa,,,SAUGERTIES,NY,,US,,,,,
,visa,,,SAUGERTIES,NY,,US,,,,,
,visa,,,SAUGERTIES,NY,,US,,,,,
,visa,,,SAUGERITIES,NY,,US,,,,,
,visa,,,KINGSTON,NY,,US,,,,,
,visa,,,SAUGERTIES,NY,,US,,,,,
,visa,,,SAUGERTIES,NY,,US,,,,,
,visa,,,SAUGERTIES,NY,,US,,,,,
,visa,,,SAUGERTIES,NY,,US,,,,,
,visa,,,SAUGERTIES,NY,,US,,,,,
,visa,,,SAUGERTIES,NY,,US,,,,,
,visa,,,SAUGERTIES,NY,,US,,,,,
,visa,,,SAUGERTIES,NY,,US,,,,,
,visa,,,SAUGERTIES,NY,,US,,,,,
,visa,,,SAUGERTIES,NY,,US,,,,,
,visa,,,SAUGERTIES,NY,,US,,,,,
,visa,,,SAUGERTIES,NY,,US,,,,,
,visa,,,SAUGERTIES,NY,,US,,,,,
,visa,,,SAUGERITES,NY,,US,,,,,
,visa,,,SAUGERTIES,NY,,US,,,,,
,visa,,,SAUGERTIES,NY,,US,,,,,
,visa,,,SAUGERTIES,NY,,US,,,,,
https://www.walgreens.com/locator/walgreens-6+simmons+plz-saugerties-ny-12477/id=17489,walgreens,Walgreens,,Saugerties,NY,,US,+1 845-246-9538,https://www.walgreens.com/locator/walgreens-6+simmons+plz-saugerties-ny-12477/id=17489,Mo-Sa 09:00-21:00; Su 08:00-18:00,Walgreens,Q1591889
