Ref,Spider,Name,Address,City,State,Zipcode,Country,Phone,Website,Hours,Brand,WikiData
BIA-101,aldi_sud_hu,ALDI,"II. Rákóczi F. út 154-170., Budapest, 1211",Budapest,,,HU,+36 80 088 264,,Mo-Sa 07:00-21:00; Su 07:00-19:00,ALDI,Q41171672
BIA-107,aldi_sud_hu,ALDI,"Szent Imre tér 6-8., Budapest, 1211",Budapest,,,HU,+36 80 088 264,,Mo-Sa 06:00-21:00; Su 07:00-19:00,ALDI,Q41171672
997,ccc,CCC Csepel Plaza,,Budapest,,,HU,+36 30 236 8899,https://ccc.eu/hu/market/ccc-csepel-plaza,"Sa 09:00-20:00,10:00-18:00",CCC,Q11788344
hu:17,dm,dm drogerie markt Kft.,,Budapest,,,HU,+36 30 304 6908,https://www.dm.hu/store/u00h/budapest/kossuth-lajos-utca-89,Mo-Fr 08:00-20:00; Sa 08:00-17:00; Su 08:00-14:00,dm,Q266572
HU0348,hm,Csepel Pláza,,Budapest,,,HU,+36 1 205 3144,,Mo-Sa 10:00-20:00; Su 10:00-18:00,H&M,Q188326
5483,kik,KiK,,Budapest,,,HU,+36 1 265 5229,,Mo-Sa 09:00-20:00; Su 09:00-18:00,KiK,Q883965
1192665,mol,Budapest; Weiss Manfréd út 6. (XXI.),Weiss Manfréd út 6. (XXI.),Budapest,,,HU,+36 1 277 6255;+36 20 252 6932,,Mo-Sa 06:00-19:00,MOL,Q549181
1198265,mol,Budapest; Kossuth L. u. 3. (XXI.),Kossuth L. u. 3. (XXI.),Budapest,,,HU,+36 1 427 0553;+36 20 254 4859,,Mo-Sa 07:00-20:00,MOL,Q549181
34810184_001-renault,renault,BAUMGARTNER AUTOCENTRUM KFT. CSEPEL,,BUDAPEST,,,HU,+36 1 420 7777,,,Renault,Q6686
34810184_001-dacia,renault,BAUMGARTNER AUTOCENTRUM KFT. CSEPEL,,BUDAPEST,,,HU,+36 1 420 7777,,,Dacia,Q27460
HU_EXT_00068,totalenergies,Budapest 23,,Budapest,,,HU,,https://store.totalenergies.fr/en_EN/HU_EXT_00068,,MOL,Q549181
HU_EXT_00088,totalenergies,Budapest 43,,Budapest,,,HU,,https://store.totalenergies.fr/en_EN/HU_EXT_00088,,MOL,Q549181
,visa,,,BUDAPEST,,,HU,,,,,
,visa,,,BUDAPEST,,,HU,,,,,
,visa,,,BUDAPEST,,,HU,,,,,
,visa,,,BUDAPEST,,,HU,,,,,
,visa,,,BUDAPEST,,,HU,,,,,
,visa,,,BUDAPEST,,,HU,,,,,
O6523,yettel_hu,Yettel Budapest Csepel Pláza,,Budapest XXI.,,,HU,+36 20 912 1200,,Mo-Sa 09:00-20:00; Su 10:00-18:00,Yettel,Q268578
