Ref,Spider,Name,Address,City,State,Zipcode,Country,Phone,Website,Hours,Brand,WikiData
2847,autozone_us,AutoZone Auto Parts Hayward,,Hayward,CA,,US,+1 510-583-6245,https://www.autozone.com/locations/ca/hayward/771-jackson-st.html,Mo-Sa 07:30-22:00; Su 08:00-21:00,AutoZone,Q4826087
4170,autozone_us,AutoZone Auto Parts Hayward,,Hayward,CA,,US,+1 510-583-0134,https://www.autozone.com/locations/ca/hayward/28150-mission-blvd.html,Mo-Sa 07:30-21:00; Su 08:00-20:00,AutoZone,Q4826087
https://locators.bankofamerica.com/ca/hayward/atm-hayward-100287.html,bankofamerica,Bank of America Walk-Up ATM | Lucky 716 Hayward,,Hayward,CA,,US,+1 844-401-8500,https://locators.bankofamerica.com/ca/hayward/atm-hayward-100287.html,,Bank of America,Q487907
https://locations.baskinrobbins.com/ca/hayward/26953-mission-blvd-361079-br,baskin_robbins_us,Baskin-Robbins™,,Hayward,CA,,US,+1 510-733-3163,https://locations.baskinrobbins.com/ca/hayward/26953-mission-blvd-361079-br,Mo-Su 11:00-21:30,Baskin-Robbins,Q584601
https://locations.baskinrobbins.com/ca/hayward/247-w-jackson-st-331439-br,baskin_robbins_us,Baskin-Robbins™,,Hayward,CA,,US,+1 510-887-5617,https://locations.baskinrobbins.com/ca/hayward/247-w-jackson-st-331439-br,Mo-Su 11:00-21:00,Baskin-Robbins,Q584601
142085,bluerhino,Double AA #142085,,Hayward,CA,,US,+1 510-293-9392,,,Blue Rhino,Q65681213
167874,bluerhino,Double AA #167874,,Hayward,CA,,US,+1 510-732-5948,,,Blue Rhino,Q65681213
142084,bluerhino,Double AA #142084,,Hayward,CA,,US,+1 510-881-7557,,,Blue Rhino,Q65681213
159968,bluerhino,Chavez Supermarket #3 - SV #241205,,Hayward,CA,,US,+1 510-783-4052,,,Blue Rhino,Q65681213
159970,bluerhino,Chavez Supermarket #9 - SV #246062,,Hayward,CA,,US,+1 510-888-9878,,,Blue Rhino,Q65681213
190766,bluerhino,Speedway #1497,,Hayward,CA,,US,+1 510-538-1679,,,Blue Rhino,Q65681213
73383,bluerhino,Rotten Robbie #49,,Hayward,CA,,US,+1 510-783-6110,,,Blue Rhino,Q65681213
2040311,chase_us,Jackson and Amador - New branch,,Hayward,CA,,US,+1 510-690-0941,https://locator.chase.com/ca/hayward/255-w-jackson-st,Mo-Fr 09:00-17:00; Sa 09:00-14:00,Chase,Q524629
28041,citi,ATM 7ELEVEN-FCTI,,Hayward,CA,,US,,,,Citibank,Q857063
49467,citi,ATM CVS,,Hayward,CA,,US,,,,Citibank,Q857063
88042,citi,ATM Walgreens,,Hayward,CA,,US,,,,Citibank,Q857063
95684,citi,ATM Winton Valero,,Hayward,CA,,US,,,,Citibank,Q857063
29270,citi,ATM 7ELEVEN-FCTI,,Hayward,CA,,US,,,,Citibank,Q857063
86846,citi,ATM Walgreens,,Hayward,CA,,US,,,,Citibank,Q857063
25418,citi,ATM 7ELEVEN-FCTI,,Hayward,CA,,US,,,,Citibank,Q857063
28003,citi,ATM 7ELEVEN-FCTI,,Hayward,CA,,US,,,,Citibank,Q857063
65270,citi,ATM Mi Pueblo,,Hayward,CA,,US,,,,Citibank,Q857063
49646,citi,ATM CVS,,Hayward,CA,,US,,,,Citibank,Q857063
29636,citi,ATM 7ELEVEN-FCTI,,Hayward,CA,,US,,,,Citibank,Q857063
28684,citi,ATM 7ELEVEN-FCTI,,Hayward,CA,,US,,,,Citibank,Q857063
,credit_union_us,Bay Cities CU,,Hayward,CA,,US,+1 510-690-6100,,Mo-Fr 09:00-05:00,,
80417103,cricket_wireless,Cricket Wireless Authorized Retailer,,Hayward,CA,,US,+1 510-314-0616,https://www.cricketwireless.com/stores/ll/US/CA/Hayward/25125-Santa-Clara-St,Mo-Sa 09:00-20:00; Su 10:00-19:00,Cricket Wireless,Q5184987
80417105,cricket_wireless,Cricket Wireless Authorized Retailer,,Hayward,CA,,US,+1 510-586-0301,https://www.cricketwireless.com/stores/ll/US/CA/Hayward/376-W-Tennyson-Rd,Mo-Su 09:00-20:00,Cricket Wireless,Q5184987
10199,cvs_us,CVS Pharmacy,,Hayward,CA,,US,+1 510-886-2207,https://www.cvs.com/store-locator/hayward-ca-pharmacies/26059-mission-blvd-hayward-ca-94544/storeid=10199,Mo-Su 08:00-22:00,CVS Pharmacy,Q2078880
9622,cvs_us,CVS Pharmacy,,Hayward,CA,,US,+1 510-783-0330,https://www.cvs.com/store-locator/hayward-ca-pharmacies/243-w-jackson-st-hayward-ca-94544/storeid=9622,Mo-Su 08:00-21:00,CVS Pharmacy,Q2078880
16804,cvs_us,CVS Pharmacy,,Hayward,CA,,US,+1 510-471-9266,https://www.cvs.com/store-locator/hayward-ca-pharmacies/2499-whipple-rd-hayward-ca-94544/storeid=16804,"Mo-Fr 10:00-13:30,14:00-20:00; Sa 10:00-13:30,14:00-18:00; Su 11:00-13:30,14:00-17:00",CVS Pharmacy,Q2078880
209529,dennys,Denny's,,Hayward,CA,,US,+1 510-471-0311,https://locations.dennys.com/CA/HAYWARD/209529,24/7,Denny's,Q1189695
7934,dominos_pizza_us,Domino's Pizza,,Hayward,CA,,US,+1 510-886-3030,https://pizza.dominos.com/california/hayward/29619-mission-blvd,Mo-Th 10:30-24:00; Fr-Sa 10:30-01:00; Su 10:30-24:00,Domino's,Q839466
358726,dunkin_us,Dunkin',,Hayward,CA,,US,+1 510-244-7191,https://locations.dunkindonuts.com/en/ca/hayward/268-jackson-st/358726,Mo-Su 05:00-17:00,Dunkin',Q847743
210055,electrify_america,"BOA Mission-Sorenson CA4-160 (Hayward, CA)",,Hayward,CA,,US,,,,Electrify America,Q59773555
3891,elpolloloco,El Pollo Loco,,Hayward,CA,,US,+1 510-244-0837,,,El Pollo Loco,Q2353849
3514,elpolloloco,El Pollo Loco,,Hayward,CA,,US,+1 510-582-7713,,,El Pollo Loco,Q2353849
E12310,enterprise,Hayward Harder & Mission,,Hayward,CA,,US,+1 510-537-4100,,,Enterprise Rent-A-Car,Q17085454
900082,extra_space_storage,Hayward Self Storage at 24700 Mission Blvd,,Hayward,CA,,US,+1 510-581-6900,https://www.extraspace.com/storage/facilities/us/california/hayward/900082/,Mo-Fr 09:30-18:00; Sa 09:00-17:30,Extra Space Storage,Q5422162
200328935,exxonmobil,"MT NGUYEN 76, INC.",,HAYWARD,CA,,US,,https://www.exxon.com/en/find-station/mobil-hayward-ca-mtnguyen76inc-200328935,Mo-Su 05:00-23:00,Mobil,Q109676002
https://www.fitness19.com/centers/hayward/,fitness19_us,Fitness 19,,Hayward,CA,,US,+1 510-413-3919,https://www.fitness19.com/centers/hayward/,,Fitness 19,Q121787953
sfohwhx-hampton-oakland-hayward,hilton,Hampton Inn Oakland-Hayward,,,CA,,US,+1 510-247-1555,https://www.hilton.com/ar/hotels/sfohwhx-hampton-oakland-hayward/,,Hampton by Hilton,Q5646230
3609,h_r_block,H&R Block,,Hayward,CA,,US,+1 510-881-9311,https://www.hrblock.com/local-tax-offices/california/hayward/26953-mission-blvd-ste-e/3609/,,H&R Block,Q5627799
24360-amador-st,indigo,24360 Amador St.,,Hayward,CA,,US,+1 510-904-7155,,,Indigo,Q3559970
https://locations.jackinthebox.com/us/ca/hayward/24175-mission-blvd,jackinthebox,Jack in the Box,,Hayward,CA,,US,+1 510-314-0920,https://locations.jackinthebox.com/us/ca/hayward/24175-mission-blvd,Mo-We 06:00-02:00; Th-Sa 04:00-04:00; Su 06:00-02:00,Jack in the Box,Q1538507
https://locations.jackinthebox.com/us/ca/hayward/1075-w-tennyson-rd,jackinthebox,Jack in the Box,,Hayward,CA,,US,+1 510-887-0733,https://locations.jackinthebox.com/us/ca/hayward/1075-w-tennyson-rd,Mo-Su 04:00-04:00,Jack in the Box,Q1538507
https://locations.jackinthebox.com/us/ca/hayward/31005-mission-blvd,jackinthebox,Jack in the Box,,Hayward,CA,,US,+1 510-487-6838,https://locations.jackinthebox.com/us/ca/hayward/31005-mission-blvd,Mo-Su 04:00-04:00,Jack in the Box,Q1538507
https://healthy.kaiserpermanente.org/northern-california/facilities/lincoln-families-enhanced-care-management-ecm-172937,kaiser_permanente_us,Lincoln Families - Enhanced Care Management (ECM),,Hayward,CA,,US,+1 510-273-4700,https://healthy.kaiserpermanente.org/northern-california/facilities/lincoln-families-enhanced-care-management-ecm-172937,,Kaiser Permanente,Q1721601
https://healthy.kaiserpermanente.org/northern-california/facilities/emmanuel-post-acute-care-hayward-328287,kaiser_permanente_us,Emmanuel Post Acute Care - Hayward,,Hayward,CA,,US,+1 510-782-1845,https://healthy.kaiserpermanente.org/northern-california/facilities/emmanuel-post-acute-care-hayward-328287,,Kaiser Permanente,Q1721601
https://healthy.kaiserpermanente.org/northern-california/facilities/davita-south-hayward-dialysis-339785,kaiser_permanente_us,DaVita South Hayward Dialysis,,Hayward,CA,,US,+1 866-544-6741,https://healthy.kaiserpermanente.org/northern-california/facilities/davita-south-hayward-dialysis-339785,,Kaiser Permanente,Q1721601
https://locations.kfc.com/#11247039,kfc,Chicken Nuggets Near Hayward,,Hayward,CA,,US,,https://locations.kfc.com/ca/hayward/31077-mission-boulevard/chickennugget,Mo-Su 10:00-24:00,KFC,Q524757
https://locations.kfc.com/#11246519,kfc,Chicken Nuggets Near Hayward,,Hayward,CA,,US,,https://locations.kfc.com/ca/hayward/1299-west-tennyson-road/chickennugget,Mo-Su 10:00-23:00,KFC,Q524757
41648,little_free_library,Hannah Grgich #41648 Hayward CA,,Hayward,CA,,US,,,,Little Free Library,Q6650101
138622,little_free_library,Angela Corona Realtor Library #138622 Hayward CA,,Hayward,CA,,US,,,,Little Free Library,Q6650101
159489,marathon_petroleum_us,Hayward Marathon,,Hayward,CA,,US,+1 650-634-8449,,,Marathon,Q458363
74338766,moneygram,CARDENAS MARKET - #211,,HAYWARD,CA,,US,+1 510-888-9124,,Mo-Su 08:00-20:00,MoneyGram,Q1944412
74433179,moneygram,ACE CASH EXPRESS - #4605,,HAYWARD,CA,,US,+1 510-783-4630,,Mo-Sa 09:00-19:00; Su 00:00-24:00,MoneyGram,Q1944412
66044369,moneygram,LONGS/CVS - #9622,,HAYWARD,CA,,US,+1 510-783-4521,,Mo-Su 08:00-22:00,MoneyGram,Q1944412
NNA5191,nissan_europe,HAYWARD NISSAN,,HAYWARD,CA,,US,+1 510-372-2800,https://www.haywardnissan.com,Mo-Sa 09:00-20:00; Su 10:00-18:00,Nissan,Q20165
https://locations.oreillyauto.com/ca/hayward/check-engine-light-testing-3497.html,oreilly,Your Hayward O'Reilly Auto Parts Store,,Hayward,CA,,US,+1 510-887-7208,https://locations.oreillyauto.com/ca/hayward/check-engine-light-testing-3497.html,Mo-Sa 07:30-21:00; Su 08:00-20:00,O'Reilly Auto Parts,Q7071951
https://locations.oreillyauto.com/ca/hayward/wiper-installation-3497.html,oreilly,Your Hayward O'Reilly Auto Parts Store,,Hayward,CA,,US,+1 510-887-7208,https://locations.oreillyauto.com/ca/hayward/wiper-installation-3497.html,Mo-Sa 07:30-21:00; Su 08:00-20:00,O'Reilly Auto Parts,Q7071951
https://locations.oreillyauto.com/ca/hayward/battery-testing-3497.html,oreilly,Your Hayward O'Reilly Auto Parts Store,,Hayward,CA,,US,+1 510-887-7208,https://locations.oreillyauto.com/ca/hayward/battery-testing-3497.html,Mo-Sa 07:30-21:00; Su 08:00-20:00,O'Reilly Auto Parts,Q7071951
https://locations.oreillyauto.com/ca/hayward/autopartes-3497.html,oreilly,Tu tienda O'Reilly Auto Parts en Hayward,,Hayward,CA,,US,+1 510-887-7208,https://locations.oreillyauto.com/ca/hayward/autopartes-3497.html,Mo-Sa 07:30-21:00; Su 08:00-20:00,O'Reilly Auto Parts,Q7071951
https://locations.oreillyauto.com/ca/hayward/check-engine-light-testing-3482.html,oreilly,Your Hayward O'Reilly Auto Parts Store,,Hayward,CA,,US,+1 510-581-1051,https://locations.oreillyauto.com/ca/hayward/check-engine-light-testing-3482.html,Mo-Sa 07:30-21:00; Su 08:00-21:00,O'Reilly Auto Parts,Q7071951
https://locations.oreillyauto.com/ca/hayward/wiper-installation-3482.html,oreilly,Your Hayward O'Reilly Auto Parts Store,,Hayward,CA,,US,+1 510-581-1051,https://locations.oreillyauto.com/ca/hayward/wiper-installation-3482.html,Mo-Sa 07:30-21:00; Su 08:00-21:00,O'Reilly Auto Parts,Q7071951
https://locations.oreillyauto.com/ca/hayward/battery-testing-3482.html,oreilly,Your Hayward O'Reilly Auto Parts Store,,Hayward,CA,,US,+1 510-581-1051,https://locations.oreillyauto.com/ca/hayward/battery-testing-3482.html,Mo-Sa 07:30-21:00; Su 08:00-21:00,O'Reilly Auto Parts,Q7071951
https://locations.oreillyauto.com/ca/hayward/autopartes-3482.html,oreilly,Tu tienda O'Reilly Auto Parts en Hayward,,Hayward,CA,,US,+1 510-581-1051,https://locations.oreillyauto.com/ca/hayward/autopartes-3482.html,Mo-Sa 07:30-21:00; Su 08:00-21:00,O'Reilly Auto Parts,Q7071951
111766,pandaexpress,Industrial & Whipple - Target,,Hayward,CA,,US,+1 510-324-1311,https://www.pandaexpress.com/locations/ca/hayward/30158-industrial-parkway,Mo-Fr 09:00-22:00; Sa-Su 10:00-22:00,Panda Express,Q1358690
052310,penske,Penske Hayward,,HAYWARD,CA,,US,+1 510-477-9030,https://www.pensketruckrental.com/locations/us/california/hayward/052310/,,Penske,Q81234570
0000884690,phillips_66_conoco_76,DAAC HAYWARD 92,,HAYWARD,CA,,US,+1 510-293-9392,,,U76,Q1658320
0000881844,phillips_66_conoco_76,MISSION BP,,HAYWARD,CA,,US,+1 510-582-3995,,,U76,Q1658320
0000875894,phillips_66_conoco_76,GAWFCO,,HAYWARD,CA,,US,+1 510-471-5640,,,U76,Q1658320
0000853548,phillips_66_conoco_76,DLA CORP,,HAYWARD,CA,,US,+1 510-670-0692,,24/7,U76,Q1658320
ca_hayward_2499-whipple-road,pizza_hut_us,2499 Whipple Road,,Hayward,CA,,US,,https://locations.pizzahut.com/ca/hayward/2499-whipple-road,,Pizza Hut,Q191615
restaurant_83237,popeyes_us_fr,Popeyes,"24901 Santa Clara St Hayward, California 94544 - USA",Hayward,CA,,US,+1 510-732-7783,https://www.popeyes.com/store-locator/store/restaurant_83237,Mo-Su 10:00-22:00,Popeyes,Q1330910
contractors-warehouse-724-46696,ppgpaints,CONTRACTORS WAREHOUSE 724,,"Hayward, ",CA,,US,+1 510-404-0242,https://www.ppgpaints.com/store-locator/us/california/hayward-paint-stores/contractors-warehouse-724-46696,,PPG Paints,Q83891559
https://www.publicstorage.com/self-storage-ca-hayward/1863.html,public_storage_us,Public Storage,,Hayward,CA,,US,+1 510-404-8357,https://www.publicstorage.com/self-storage-ca-hayward/1863.html,,Public Storage,Q1156045
https://www.publicstorage.com/self-storage-ca-hayward/279.html,public_storage_us,Public Storage,,Hayward,CA,,US,+1 510-456-0147,https://www.publicstorage.com/self-storage-ca-hayward/279.html,,Public Storage,Q1156045
https://www.publicstorage.com/self-storage-ca-hayward/275.html,public_storage_us,Public Storage,,Hayward,CA,,US,+1 510-962-3500,https://www.publicstorage.com/self-storage-ca-hayward/275.html,,Public Storage,Q1156045
1990,round_table_pizza,Round Table Pizza Amador Sreet,,Hayward ,CA,,US,+1 510-783-5300,https://ordering.roundtablepizza.com/site/rt55,,Round Table Pizza,Q7371139
https://local.safeway.com/#5604740,safeway,Safeway,,Hayward,CA,,US,+1 510-783-8611,https://local.safeway.com/safeway/ca/hayward/231-w-jackson-st.html,Mo-Su 06:00-24:00,Safeway,Q1508234
39595,seven_eleven_ca_us,Bcp Str    29874 Mission Blvd,,Hayward,CA,,US,+1 510-886-4600,https://www.7-eleven.com/locations/ca/hayward/29874-mission-blvd-39595,,7-Eleven,Q259340
https://restaurants.subway.com/#14906295,subway,Subway Mediterranean Market Place,,Hayward Alameda,CA,,US,+1 510-782-7852,https://restaurants.subway.com/united-states/ca/hayward/520-w-tennyson-road,Mo-Su 08:30-21:30,Subway,Q244457
https://restaurants.subway.com/#14895060,subway,Subway Mission Plaza S/C,,Hayward Alameda,CA,,US,+1 510-582-2830,https://restaurants.subway.com/united-states/ca/hayward/26953-mission-blvd,Mo-Fr 08:00-21:30; Sa 08:30-21:00; Su 10:00-21:00,Subway,Q244457
https://restaurants.subway.com/#14910973,subway,Subway,,Hayward Alameda,CA,,US,+1 510-887-7040,https://restaurants.subway.com/united-states/ca/hayward/25175-santa-clara-street,Mo-Su 09:00-21:00,Subway,Q244457
https://restaurants.subway.com/#14894494,subway,Subway,,Hayward Alameda,CA,,US,+1 510-274-5774,https://restaurants.subway.com/united-states/ca/hayward/1693-industrial-parkway-west,Mo-Th 08:00-21:30; Fr 08:00-22:00; Sa 09:00-21:00; Su 09:00-20:00,Subway,Q244457
https://restaurants.subway.com/#14915010,subway,Subway Fairway Park Shopping Center,,Hayward Alameda,CA,,US,+1 510-429-1709,https://restaurants.subway.com/united-states/ca/hayward/31147-mission-blvd,Mo-Su 09:00-22:00,Subway,Q244457
https://locations.tacobell.com/#6144320,taco_bell,Taco Bell,,Hayward,CA,,US,+1 510-489-1166,https://locations.tacobell.com/ca/hayward/31077-mission-boulevard.html,Mo-Su 10:30-22:00,Taco Bell,Q752941
https://locations.tacobell.com/#6145189,taco_bell,Taco Bell,,Hayward,CA,,US,+1 510-887-7785,https://locations.tacobell.com/ca/hayward/215-west-jackson-street.html,Mo-Su 07:00-04:00,Taco Bell,Q752941
8551,tmobile_us,Whipple & I-880,,Hayward,CA,,US,+1 510-475-0883,https://www.t-mobile.com/store-locator/ca/hayward/whipple-i-880,,T-Mobile,Q3511885
00488,twenty_four_hour_fitness_us,Hayward Whipple,,Hayward,CA,,US,+1 510-404-0803,https://www.24hourfitness.com/Website/Club/00488,,24 Hour Fitness Super Sport,Q4631849
00536,twenty_four_hour_fitness_us,Hayward Amador,,Hayward,CA,,US,+1 510-264-3275,https://www.24hourfitness.com/Website/Club/00536,,24 Hour Fitness,Q4631849
046211,uhaul,Aya Auto Body Repair,29583 Ruus Rd,Hayward,CA,,US,+1 510-314-8063,,Mo-Fr 00:00-16:00,U-Haul,Q7862902
815043,uhaul,U-Haul of Hayward,529 Jackson St,Hayward,CA,,US,+1 510-886-4244,,Mo-Th 00:00-19:00; Fr 00:00-20:00; Sa 00:00-19:00; Su 00:00-17:00,U-Haul,Q7862902
044623,uhaul,A 1 Armor Self Storage Hayward,2468 Whipple Rd,Hayward,CA,,US,+1 510-471-1931,,Mo-Fr 00:00-17:00; Sa 00:00-16:00,U-Haul,Q7862902
1366566,usps,HAYWARD,,HAYWARD,CA,,US,+1 510-783-5963,,Mo-Fr 09:00-17:00; Sa 09:00-14:00,United States Postal Service,Q668687
9454400012,usps_collection_boxes,USPS COLLECTION BOX - BLUE BOX,26905 MISSION BLVD,HAYWARD,CA,,US,,,,United States Postal Service,Q668687
9454400096,usps_collection_boxes,USPS COLLECTION BOX - BLUE BOX,29001 DIXON ST,HAYWARD,CA,,US,,,,United States Postal Service,Q668687
9454400032,usps_collection_boxes,USPS COLLECTION BOX - BLUE BOX,155 HARDER RD,HAYWARD,CA,,US,,,,United States Postal Service,Q668687
9454400016,usps_collection_boxes,USPS COLLECTION BOX - BLUE BOX,30030 MISSION BLVD,HAYWARD,CA,,US,,,,United States Postal Service,Q668687
9454400021,usps_collection_boxes,USPS COLLECTION BOX - BLUE BOX,677 W TENNYSON RD,HAYWARD,CA,,US,,,,United States Postal Service,Q668687
9454400099,usps_collection_boxes,USPS COLLECTION BOX - BLUE BOX,30198 BRIDGEVIEW WAY,HAYWARD,CA,,US,,,,United States Postal Service,Q668687
9454400033,usps_collection_boxes,USPS COLLECTION BOX - BLUE BOX,788 SANDOVAL WAY,HAYWARD,CA,,US,,,,United States Postal Service,Q668687
9454400101,usps_collection_boxes,USPS COLLECTION BOX - BLUE BOX,940 NEW ENGLAND VILLAGE DR,HAYWARD,CA,,US,,,,United States Postal Service,Q668687
9454400017,usps_collection_boxes,USPS COLLECTION BOX - BLUE BOX,31117 MISSION BLVD,HAYWARD,CA,,US,,,,United States Postal Service,Q668687
9454400003,usps_collection_boxes,USPS COLLECTION BOX - BLUE BOX,1419 BUCKINGHAM WAY,HAYWARD,CA,,US,,,,United States Postal Service,Q668687
9454400051,usps_collection_boxes,USPS COLLECTION BOX - BLUE BOX,25125 SANTA CLARA ST,HAYWARD,CA,,US,,,,United States Postal Service,Q668687
9454400093,usps_collection_boxes,USPS COLLECTION BOX - BLUE BOX,28400 GRANADA CIR,HAYWARD,CA,,US,,,,United States Postal Service,Q668687
9454400091,usps_collection_boxes,USPS COLLECTION BOX - BLUE BOX,24405 AMADOR ST,HAYWARD,CA,,US,,,,United States Postal Service,Q668687
9454400094,usps_collection_boxes,USPS COLLECTION BOX - BLUE BOX,24438 SANTA CLARA ST,HAYWARD,CA,,US,,,,United States Postal Service,Q668687
9454400075,usps_collection_boxes,USPS COLLECTION BOX - BLUE BOX,224 W WINTON AVE,HAYWARD,CA,,US,,,,United States Postal Service,Q668687
9454400064,usps_collection_boxes,USPS COLLECTION BOX - BLUE BOX,24438 SANTA CLARA ST,HAYWARD,CA,,US,,,,United States Postal Service,Q668687
9454400072,usps_collection_boxes,USPS COLLECTION BOX - BLUE BOX,24438 SANTA CLARA ST,HAYWARD,CA,,US,,,,United States Postal Service,Q668687
9454400088,usps_collection_boxes,USPS COLLECTION BOX - EXPRESS,24438 SANTA CLARA ST,HAYWARD,CA,,US,,,,United States Postal Service,Q668687
9454400089,usps_collection_boxes,USPS COLLECTION BOX - BLUE BOX,24438 SANTA CLARA ST,HAYWARD,CA,,US,,,,United States Postal Service,Q668687
9454400090,usps_collection_boxes,USPS COLLECTION BOX - BLUE BOX,24438 SANTA CLARA ST,HAYWARD,CA,,US,,,,United States Postal Service,Q668687
9454400100,usps_collection_boxes,USPS COLLECTION BOX - APC,24438 SANTA CLARA ST,HAYWARD,CA,,US,,,,United States Postal Service,Q668687
9454400108,usps_collection_boxes,USPS COLLECTION BOX - PO LOBBY,24438 SANTA CLARA ST,HAYWARD,CA,,US,,,,United States Postal Service,Q668687
0000028862,valero,VALERO MISSION HAYWARD,,HAYWARD,CA,,US,+1 510-886-4600,https://locations.valero.com/en-us/LocationDetails/Index/29874-MISSION-BLVD/0000028862,,Valero,Q1283291
10901,vestis_uniform_services_us,Vestis Hayward,,Hayward,CA,,US,+1 510-400-7364,https://www.vestis.com/our-locations/vestis-hayward,,Vestis,Q122947676
,visa,,,HAYWARD,CA,,US,,,,,
,visa,,,HAYWARD,CA,,US,,,,,
,visa,,,HAYWARD,CA,,US,,,,,
,visa,,,HAYWARD,CA,,US,,,,,
,visa,,,HAYWARD,CA,,US,,,,,
,visa,,,HAYWARD,CA,,US,,,,,
,visa,,,HAYWARD,CA,,US,,,,,
,visa,,,HAYWARD,CA,,US,,,,,
,visa,,,HAYWARD,CA,,US,,,,,
,visa,,,HAYWARD,CA,,US,,,,,
,visa,,,HAYWARD,CA,,US,,,,,
,visa,,,HYAWARD,CA,,US,,,,,
,visa,,,HAYWARD,CA,,US,,,,,
,visa,,,HAYWARD,CA,,US,,,,,
,visa,,,HAYWARD,CA,,US,,,,,
,visa,,,HAYWARD,CA,,US,,,,,
,visa,,,HAYWARD,CA,,US,,,,,
,visa,,,HAYWARD,CA,,US,,,,,
,visa,,,HAYWARD,CA,,US,,,,,
,visa,,,HAYWARD,CA,,US,,,,,
,visa,,,HAYWARD,CA,,US,,,,,
,visa,,,HAYWARD,CA,,US,,,,,
,visa,,,HAYWARD,CA,,US,,,,,
,visa,,,HAYWARD,CA,,US,,,,,
,visa,,,HAYWARD,CA,,US,,,,,
,visa,,,HAYWARD,CA,,US,,,,,
,visa,,,HAYWARD,CA,,US,,,,,
,visa,,,HAYWARD,CA,,US,,,,,
,visa,,,HAYWARD,CA,,US,,,,,
,visa,,,HAYWARD,CA,,US,,,,,
,visa,,,HAYWARD,CA,,US,,,,,
,visa,,,HAYWARD,CA,,US,,,,,
,visa,,,HAYWARD,CA,,US,,,,,
,visa,,,HAYWARD,CA,,US,,,,,
,visa,,,HAYWARD,CA,,US,,,,,
,visa,,,HAYWARD,CA,,US,,,,,
,visa,,,HAYWARD,CA,,US,,,,,
,visa,,,HAYWARD,CA,,US,,,,,
,visa,,,HAYWRD,CA,,US,,,,,
,visa,,,HAYWARD,CA,,US,,,,,
,visa,,,HAYWARD,CA,,US,,,,,
,visa,,,HAYWARD,CA,,US,,,,,
,visa,,,HAYWARD,CA,,US,,,,,
,visa,,,HAYWARD,CA,,US,,,,,
,visa,,,HAYWARD,CA,,US,,,,,
,visa,,,HAYWARD,CA,,US,,,,,
,visa,,,HAYWARD,CA,,US,,,,,
,visa,,,HAYWARD,CA,,US,,,,,
,visa,,,HAYWARD,CA,,US,,,,,
,visa,,,HAYWARD,CA,,US,,,,,
,visa,,,HAYWARD,CA,,US,,,,,
,visa,,,HAYWARD,CA,,US,,,,,
,visa,,,HAYWARD,CA,,US,,,,,
,visa,,,HAYWARD,CA,,US,,,,,
,visa,,,HAYWARD,CA,,US,,,,,
,visa,,,HAYWARD,CA,,US,,,,,
,visa,,,HAYWARD,CA,,US,,,,,
,visa,,,HAYWARD,CA,,US,,,,,
,visa,,,HAYWARD,CA,,US,,,,,
,visa,,,HAYWARD,CA,,US,,,,,
,visa,,,HAYWARD,CA,,US,,,,,
,visa,,,HAYWARD,CA,,US,,,,,
,visa,,,HAYWARD,CA,,US,,,,,
,visa,,,HAYWARD,CA,,US,,,,,
,visa,,,HAYWARD,CA,,US,,,,,
,visa,,,HAYWARD,CA,,US,,,,,
,visa,,,HAYWARD,CA,,US,,,,,
,visa,,,HAYWARD,CA,,US,,,,,
,visa,,,HAYWARD,CA,,US,,,,,
,visa,,,HAYWARD,CA,,US,,,,,
,visa,,,HAYWARD,CA,,US,,,,,
,visa,,,HAYWARD,CA,,US,,,,,
,visa,,,HAYWARD,CA,,US,,,,,
,visa,,,HAYWARD,CA,,US,,,,,
,visa,,,HAYWARD,CA,,US,,,,,
,visa,,,HAYWARD,CA,,US,,,,,
,visa,,,HAYWARD,CA,,US,,,,,
,visa,,,HAYWARD,CA,,US,,,,,
,visa,,,HAYWARD,CA,,US,,,,,
,visa,,,HAYWARD,CA,,US,,,,,
,visa,,,HAYWARD,CA,,US,,,,,
,visa,,,HAYWARD,CA,,US,,,,,
,visa,,,HAYWARD,CA,,US,,,,,
,visa,,,HAYWARD,CA,,US,,,,,
,visa,,,HAYWARD,CA,,US,,,,,
,visa,,,HAYWARD,CA,,US,,,,,
,visa,,,HAYWARD,CA,,US,,,,,
,visa,,,HAYWARD,CA,,US,,,,,
,visa,,,HAYWARD,CA,,US,,,,,
,visa,,,HAYWARD,CA,,US,,,,,
https://www.walgreens.com/locator/walgreens-164+w+jackson+st-hayward-ca-94544/id=4659,walgreens,Walgreens,,Hayward,CA,,US,+1 510-781-0900,https://www.walgreens.com/locator/walgreens-164+w+jackson+st-hayward-ca-94544/id=4659,Mo-Su 08:00-22:00,Walgreens,Q1591889
https://www.walgreens.com/locator/walgreens-1138+w+tennyson+rd-hayward-ca-94544/id=2306,walgreens,Walgreens,,Hayward,CA,,US,+1 510-293-9031,https://www.walgreens.com/locator/walgreens-1138+w+tennyson+rd-hayward-ca-94544/id=2306,Mo-Su 07:00-22:00,Walgreens,Q1591889
https://locations.wendys.com/#9252855,wendys,"Wendy's Hayward in Hayward, CA",,Hayward,CA,,US,+1 510-538-6320,https://locations.wendys.com/united-states/ca/hayward/23969-mission-blvd,"Mo-Su 06:30-10:30,08:00-22:00",Wendy's,Q550258
b183f08b7b936d569e4495a27cb2a572,western_union,7-ELEVEN #18348,,Hayward,CA,,US,+1 510-881-5800,https://location.westernunion.com/us/ca/hayward/b183f08b7b936d569e4495a27cb2a572,,Western Union,Q861042
0eaafe415495cc4c70deb1a96f224e2c,western_union,EL SUPER MERCADO,,Hayward,CA,,US,+1 510-537-6909,https://location.westernunion.com/us/ca/hayward/0eaafe415495cc4c70deb1a96f224e2c,Mo-Su 08:30-22:00,Western Union,Q861042
c2a2730a7ddaf2eb225acb3b9f9e6540,western_union,CHAVEZ SUPERMARKET,,Hayward,CA,,US,+1 510-888-9878,https://location.westernunion.com/us/ca/hayward/c2a2730a7ddaf2eb225acb3b9f9e6540,Mo-Su 07:00-20:00,Western Union,Q861042
c82d57c73d41b297af6da1155ee1316c,western_union,CHAVEZ SUPERMARKET,,Hayward,CA,,US,+1 510-888-9878,https://location.westernunion.com/us/ca/hayward/c82d57c73d41b297af6da1155ee1316c,Mo-Su 07:00-20:00,Western Union,Q861042
7cd626e845f8d42cd4616a59915fd8bb,western_union,CHAVEZ SUPERMARKET,,Hayward,CA,,US,+1 510-888-9878,https://location.westernunion.com/us/ca/hayward/7cd626e845f8d42cd4616a59915fd8bb,Mo-Su 07:00-20:00,Western Union,Q861042
1395c837ad279d41862192a183bb83e6,western_union,7-ELEVEN #18177,,Hayward,CA,,US,+1 510-538-8811,https://location.westernunion.com/us/ca/hayward/1395c837ad279d41862192a183bb83e6,,Western Union,Q861042
74a3d44f15ff92272a6591432bc6c4ab,western_union,CHAVEZ SUPERMARKET,,Hayward,CA,,US,+1 510-783-4052,https://location.westernunion.com/us/ca/hayward/74a3d44f15ff92272a6591432bc6c4ab,Mo-Su 07:00-20:00,Western Union,Q861042
87422758f7f21833f4020d20fb17ae67,western_union,CHAVEZ SUPERMARKET,,Hayward,CA,,US,+1 510-783-4052,https://location.westernunion.com/us/ca/hayward/87422758f7f21833f4020d20fb17ae67,Mo-Su 07:00-20:00,Western Union,Q861042
339c88686f00ecb4279f06bb703b49e3,western_union,CHAVEZ SUPERMARKET,,Hayward,CA,,US,+1 510-783-4052,https://location.westernunion.com/us/ca/hayward/339c88686f00ecb4279f06bb703b49e3,Mo-Su 07:00-20:00,Western Union,Q861042
4261e35a01c9fadc264f5ab5f0b2f261,western_union,COSMO THRIFTY,,Hayward,CA,,US,+1 510-361-7190,https://location.westernunion.com/us/ca/hayward/4261e35a01c9fadc264f5ab5f0b2f261,Mo-Su 10:00-19:00,Western Union,Q861042
b121fd05944448907753a1095a694bd5,western_union,COSMO THRIFTY,,Hayward,CA,,US,+1 510-361-7190,https://location.westernunion.com/us/ca/hayward/b121fd05944448907753a1095a694bd5,Mo-Su 10:00-19:00,Western Union,Q861042
01a2a944b4687e551f7e3babd60a2548,western_union,ALBERTS BEST INSURANCE SERVICE,,Hayward,CA,,US,+1 510-421-9696,https://location.westernunion.com/us/ca/hayward/01a2a944b4687e551f7e3babd60a2548,Mo-Su 10:00-19:00,Western Union,Q861042
5bd14f59c8db893fe847a1aaa9d1647e,western_union,MONARCAS SUPERMERCADO,,Hayward,CA,,US,+1 510-398-8131,https://location.westernunion.com/us/ca/hayward/5bd14f59c8db893fe847a1aaa9d1647e,Mo-Su 07:00-21:00,Western Union,Q861042
7672215293e3aba053e51868d9eaa745,western_union,MONARCAS SUPERMERCADO,,Hayward,CA,,US,+1 510-398-8131,https://location.westernunion.com/us/ca/hayward/7672215293e3aba053e51868d9eaa745,Mo-Su 07:00-21:00,Western Union,Q861042
9a81b91e5f63d7dc6aef04c77ad1fb60,western_union,MONARCAS SUPERMERCADO,,Hayward,CA,,US,+1 510-398-8131,https://location.westernunion.com/us/ca/hayward/9a81b91e5f63d7dc6aef04c77ad1fb60,Mo-Su 07:00-21:00,Western Union,Q861042
8881,wingstop,Wingstop Hayward Whipple,2490 Whipple Rd,Hayward,CA,,US,+1 510-441-7867,,,Wingstop,Q8025339
