Ref,Spider,Name,Address,City,State,Zipcode,Country,Phone,Website,Hours,Brand,WikiData
193140,bluerhino,Walgreens #19038,,Adams,MA,,US,+1 413-743-4659,,,Blue Rhino,Q65681213
214519,bluerhino,Cumberland Farms #6789,,Adams,MA,,US,+1 413-743-5964,,,Blue Rhino,Q65681213
186802,bluerhino,Bozzuto's #250 - Adams Supermarket,,Adams,MA,,US,+1 413-743-1941,,,Blue Rhino,Q65681213
27661,citi,ATM 7ELEVEN-FCTI,,Adams,MA,,US,,,,Citibank,Q857063
88834,citi,ATM Walgreens,,Adams,MA,,US,,,,Citibank,Q857063
35165,citi,ATM Anee Liquors,,Adams,MA,,US,,,,Citibank,Q857063
ATM-1912,citizens_us,,,Adams,MA,,US,,,,Citizens,Q5122694
519953,cumberland_farms_us,Cumberland Farms,,Adams,MA,,US,+1 413-853-9522,https://www.cumberlandfarms.com/find-us/generic-store-page/?id=006789,,Cumberland Farms,Q1143685
3088,dominos_pizza_us,Domino's Pizza,,Adams,MA,,US,+1 413-743-7170,https://pizza.dominos.com/massachusetts/adams/clifford-&-summer,Mo-Th 10:30-24:00; Fr-Sa 10:30-01:00; Su 10:30-24:00,Domino's,Q839466
304749,dunkin_us,Dunkin',,Adams,MA,,US,+1 413-743-4973,https://locations.dunkindonuts.com/en/ma/adams/177-columbia-st/304749,Mo-Su 04:00-20:00,Dunkin',Q847743
519953,eg_america_us,Cumberland Farms,,Adams,MA,,US,+1 413-853-9522,https://www.cumberlandfarms.com/find-us/generic-store-page/?id=006789,,Cumberland Farms,Q1143685
200324681,exxonmobil,RACING MART,,ADAMS,MA,,US,+1 413-743-0700,https://www.exxon.com/en/find-station/mobil-adams-ma-racingmart-200324681,24/7,Mobil,Q109676002
Adams Hometown Market #250,iga,Adams Hometown Market #250,"1 Myrtle St, Adams, MA, 01220",Adams,MA,,US,+1 717-993-9166,https://www.adamshometownmarkets.com/,,IGA,Q3146662
https://restaurants.subway.com/#20711591,subway,Subway,,Adams,MA,,US,+1 413-743-7459,https://restaurants.subway.com/united-states/ma/adams/27b-park-street,Mo-Sa 09:00-21:30; Su 09:30-21:00,Subway,Q244457
1352357,usps,ADAMS,,ADAMS,MA,,US,+1 413-743-5177,,Mo-Fr 08:30-16:30; Sa 10:00-12:00,United States Postal Service,Q668687
0122000002,usps_collection_boxes,USPS COLLECTION BOX - BLUE BOX,119 COMMERCIAL ST,SAVOY,MA,,US,,,,United States Postal Service,Q668687
0122000030,usps_collection_boxes,USPS COLLECTION BOX - PO LOBBY,1 CENTER ST,SAVOY,MA,,US,,,,United States Postal Service,Q668687
0122000031,usps_collection_boxes,USPS COLLECTION BOX - PO LOBBY,1 CENTER ST,SAVOY,MA,,US,,,,United States Postal Service,Q668687
0122000024,usps_collection_boxes,USPS COLLECTION BOX - BLUE BOX,1 CENTER ST,SAVOY,MA,,US,,,,United States Postal Service,Q668687
0122000026,usps_collection_boxes,USPS COLLECTION BOX - BLUE BOX,1 CENTER ST,SAVOY,MA,,US,,,,United States Postal Service,Q668687
0122000019,usps_collection_boxes,USPS COLLECTION BOX - BLUE BOX,2 CENTER ST,SAVOY,MA,,US,,,,United States Postal Service,Q668687
0122000023,usps_collection_boxes,USPS COLLECTION BOX - BLUE BOX,1 MYRTLE ST,SAVOY,MA,,US,,,,United States Postal Service,Q668687
0122000012,usps_collection_boxes,USPS COLLECTION BOX - BLUE BOX,65 PARK ST,SAVOY,MA,,US,,,,United States Postal Service,Q668687
0122000007,usps_collection_boxes,USPS COLLECTION BOX - BLUE BOX,17 PLEASANT ST,SAVOY,MA,,US,,,,United States Postal Service,Q668687
0122000010,usps_collection_boxes,USPS COLLECTION BOX - BLUE BOX,39 PARK ST,SAVOY,MA,,US,,,,United States Postal Service,Q668687
0122000018,usps_collection_boxes,USPS COLLECTION BOX - BLUE BOX,95 PARK ST,SAVOY,MA,,US,,,,United States Postal Service,Q668687
0122000017,usps_collection_boxes,USPS COLLECTION BOX - BLUE BOX,89 SUMMER ST,SAVOY,MA,,US,,,,United States Postal Service,Q668687
0122000029,usps_collection_boxes,USPS COLLECTION BOX - BLUE BOX,720 MAIN RD,SAVOY,MA,,US,,,,United States Postal Service,Q668687
0122000008,usps_collection_boxes,USPS COLLECTION BOX - BLUE BOX,26 HOOSAC ST,SAVOY,MA,,US,,,,United States Postal Service,Q668687
0122000025,usps_collection_boxes,USPS COLLECTION BOX - BLUE BOX,37 UPTON ST,SAVOY,MA,,US,,,,United States Postal Service,Q668687
0122000015,usps_collection_boxes,USPS COLLECTION BOX - BLUE BOX,71 N SUMMER ST,SAVOY,MA,,US,,,,United States Postal Service,Q668687
0122000006,usps_collection_boxes,USPS COLLECTION BOX - BLUE BOX,218 COLUMBIA ST,SAVOY,MA,,US,,,,United States Postal Service,Q668687
,visa,,,ADAMS,MA,,US,,,,,
,visa,,,ADAMS,MA,,US,,,,,
,visa,,,ADAMS,MA,,US,,,,,
,visa,,,ADAMS,MA,,US,,,,,
,visa,,,ADAMS,MA,,US,,,,,
,visa,,,ADAMS,MA,,US,,,,,
,visa,,,NORTH ADAMS,MA,,US,,,,,
,visa,,,NORTH ADAMS,MA,,US,,,,,
,visa,,,CHESHIRE,MA,,US,,,,,
https://www.walgreens.com/locator/walgreens-21+columbia+st-adams-ma-01220/id=19038,walgreens,Walgreens,,Adams,MA,,US,+1 413-743-4659,https://www.walgreens.com/locator/walgreens-21+columbia+st-adams-ma-01220/id=19038,Mo-Sa 08:00-20:00; Su 09:00-17:00,Walgreens,Q1591889
007aafa1f105fe5d5fd64d688c3da35f,western_union,7-ELEVEN #32495,,Adams,MA,,US,+1 413-743-0322,https://location.westernunion.com/us/ma/adams/007aafa1f105fe5d5fd64d688c3da35f,,Western Union,Q861042
