Ref,Spider,Name,Address,City,State,Zipcode,Country,Phone,Website,Hours,Brand,WikiData
1806,first_cash,Margarita,,Heroica Puebla De Zaragoza,Puebla,,MX,+52 222 264 6337,,,,
,visa,,,PUEBLA,PUEBLA,,MX,,,,,
,visa,,,HEROICA PUEBLA DE ZA,PUEBLA,,MX,,,,,
,visa,,,PUEBLA,PUEBLA,,MX,,,,,
,visa,,,HEROICA PUEBLA DE ZARAGOZA,PUEBLA,,MX,,,,,
,visa,,,PUEBLA,PUEBLA,,MX,,,,,
,visa,,,PUEBLA,PUEBLA,,MX,,,,,
,visa,,,PUEBLA,PUEBLA,,MX,,,,,
4b40e7e29aba97c10398c0944af873bc,western_union,ELEKTRA 5542,,Puebla,PUEBLA,,MX,+52 55 1720 8177,https://location.westernunion.com/mx/puebla/puebla/4b40e7e29aba97c10398c0944af873bc,Mo-Su 09:00-21:00,Western Union,Q861042
60cac443fca4c9d3dfcc9711492c3cc1,western_union,ELEKTRA 5542,,Puebla,PUEBLA,,MX,+52 55 1720 8177,https://location.westernunion.com/mx/puebla/puebla/60cac443fca4c9d3dfcc9711492c3cc1,Mo-Su 09:00-21:00,Western Union,Q861042
624c6dac6a2d8221a4d5a575ebc721e9,western_union,ELEKTRA 5542,,Puebla,PUEBLA,,MX,+52 55 1720 8177,https://location.westernunion.com/mx/puebla/puebla/624c6dac6a2d8221a4d5a575ebc721e9,Mo-Su 09:00-20:00,Western Union,Q861042
8af2913f443ecbf8b52033c954da10af,western_union,OXXO MARGARITAS PBF,,Puebla,PUEBLA,,MX,+52 81 8389 2121,https://location.westernunion.com/mx/puebla/puebla/8af2913f443ecbf8b52033c954da10af,Mo-Su 08:00-22:00,Western Union,Q861042
c69b1d8ab9c3ecb381e8810031954f44,western_union,OXXO MARGARITAS PBF,,Puebla,PUEBLA,,MX,+52 81 8389 2121,https://location.westernunion.com/mx/puebla/puebla/c69b1d8ab9c3ecb381e8810031954f44,Mo-Su 08:00-22:00,Western Union,Q861042
a25162b423d7e606850d9d8fb541fc04,western_union,OXXO MARGARITAS PBF,,Puebla,PUEBLA,,MX,+52 81 8389 2121,https://location.westernunion.com/mx/puebla/puebla/a25162b423d7e606850d9d8fb541fc04,Mo-Su 08:00-22:00,Western Union,Q861042
a2bdea8e8078f1c8122d66e2f24ea45d,western_union,BANCOPPEL 426 MARGARITAS,,Puebla,PUEBLA,,MX,+52 951 144 8476,https://location.westernunion.com/mx/puebla/puebla/a2bdea8e8078f1c8122d66e2f24ea45d,Mo-Sa 10:00-20:00; Su 11:00-19:00,Western Union,Q861042
6928cbaa5f7f82a2fc4df43793ae94c0,western_union,BANCOPPEL 426 MARGARITAS,,Puebla,PUEBLA,,MX,+52 951 144 8476,https://location.westernunion.com/mx/puebla/puebla/6928cbaa5f7f82a2fc4df43793ae94c0,Mo-Sa 10:00-20:00; Su 11:00-19:00,Western Union,Q861042
86db7e36a11ccb0adc10947b8fd72429,western_union,BANCOPPEL 426 MARGARITAS,,Puebla,PUEBLA,,MX,+52 951 144 8476,https://location.westernunion.com/mx/puebla/puebla/86db7e36a11ccb0adc10947b8fd72429,Mo-Sa 10:00-20:00; Su 11:00-19:00,Western Union,Q861042
f2a0a06a0142479cfda72889b5eaddc1,western_union,AURRERA MARGARITAS 3788,,Puebla,PUEBLA,,MX,+52 800 833 4700,https://location.westernunion.com/mx/puebla/puebla/f2a0a06a0142479cfda72889b5eaddc1,Mo-Su 07:00-23:00,Western Union,Q861042
e6d96f83ffedad66288cb204c0836e74,western_union,AURRERA MARGARITAS 3788,,Puebla,PUEBLA,,MX,+52 800 833 4700,https://location.westernunion.com/mx/puebla/puebla/e6d96f83ffedad66288cb204c0836e74,Mo-Su 07:00-23:00,Western Union,Q861042
0b61e3335a2615406f946bdd599f3394,western_union,AURRERA MARGARITAS 3788,,Puebla,PUEBLA,,MX,+52 800 833 4700,https://location.westernunion.com/mx/puebla/puebla/0b61e3335a2615406f946bdd599f3394,Mo-Su 07:00-23:00,Western Union,Q861042
