Ref,Spider,Name,Address,City,State,Zipcode,Country,Phone,Website,Hours,Brand,WikiData
220914,baylorscottwhite,Baylor Scott & White Institute for Rehabilitation - Austin Onion Creek,,Austin,TX,,US,+1 512-292-1908,https://www.bswrehab.com/locations/outpatient/onion-creek/,,Baylor Scott & White Health,Q41568258
10276,baylorscottwhite,Baylor Scott & White Clinic - Austin Onion Creek,,Austin,TX,,US,+1 512-654-4700,https://www.bswhealth.com/locations/austin-onion-creek-clinic,"Mo-Fr 08:00-17:00,08:20-16:00",Baylor Scott & White Health,Q41568258
308222,chevron,Chevron Station #308222,9401 HWY 183,AUSTIN,TX,,US,+1 512-243-1525,,,Chevron,Q319642
80213188,cricket_wireless,Cricket Wireless Authorized Retailer,,Austin,TX,,US,+1 512-356-9027,https://www.cricketwireless.com/stores/ll/US/TX/Austin/1800-E-Slaughter-Ln,Mo-Sa 10:00-20:00; Su 12:00-17:00,Cricket Wireless,Q5184987
6725,dominos_pizza_us,Domino's Pizza,,Austin,TX,,US,+1 512-346-5900,https://pizza.dominos.com/texas/austin/10001-s-interstate-35-suite-290,Mo-Th 10:30-24:00; Fr-Sa 10:30-01:00; Su 10:30-24:00,Domino's,Q839466
https://www.edwardjones.com/us-en/financial-advisor/bobby-burris,edwardjones,Bobby Burris,,Austin,TX,,US,+1 512-535-0830,https://www.edwardjones.com/us-en/financial-advisor/bobby-burris,Mo-Th 08:00-16:30; Fr 08:00-15:30,Edward Jones,Q5343830
200327624,exxonmobil,HINDO INC,,AUSTIN,TX,,US,+1 512-280-6890,https://www.exxon.com/en/find-station/exxon-austin-tx-hindoinc-200327624,24/7,Exxon,Q109675651
167214,little_free_library,LINDA LEAL #167214 Austin TX,,Austin,TX,,US,,,,Little Free Library,Q6650101
84603,little_free_library,D.Rouin's little free library #84603 Austin TX,,Austin,TX,,US,,,,Little Free Library,Q6650101
84602,little_free_library,A. Rouin's little free library #84602 Austin TX,,Austin,TX,,US,,,,Little Free Library,Q6650101
130579,little_free_library,Bird Brook Ln #130579 Austin TX,,Austin,TX,,US,,,,Little Free Library,Q6650101
125484,little_free_library,Goodnight Ranch Little Library #125484 Austin TX,,Austin,TX,,US,,,,Little Free Library,Q6650101
126972,little_free_library,Bramble Bush Book Stop #126972 Austin TX,,Austin,TX,,US,,,,Little Free Library,Q6650101
https://locations.papajohns.com/#10690609,papa_johns,Papa John's,,Austin,TX,,US,+1 512-975-7272,https://locations.papajohns.com/united-states/tx/78747/austin/7930-thaxton-rd,Mo-Th 10:00-24:00; Fr-Sa 10:00-01:00; Su 10:00-24:00,Papa John's Pizza,Q2759586
7874700001,usps_collection_boxes,USPS COLLECTION BOX - BLUE BOX,10819 CROWN COLONY DR,AUSTIN,TX,,US,,,,United States Postal Service,Q668687
,visa,,,AUSTIN,TX,,US,,,,,
,visa,,,AUSTIN,TX,,US,,,,,
,visa,,,KYLE,TX,,US,,,,,
,visa,,,AUSTIN,TX,,US,,,,,
,visa,,,AUSTIN,TX,,US,,,,,
,visa,,,AUSTIN,TX,,US,,,,,
,visa,,,AUSTIN,TX,,US,,,,,
,visa,,,AUSTIN,TX,,US,,,,,
,visa,,,AUSTIN,TX,,US,,,,,
,visa,,,AUSTIN,TX,,US,,,,,
,visa,,,AUSTIN,TX,,US,,,,,
