Ref,Spider,Name,Address,City,State,Zipcode,Country,Phone,Website,Hours,Brand,WikiData
7813,dollar_general,Dollar General,,Noel,MO,,US,+1 417-231-9991,https://www.dollargeneral.com/store-directory/mo/noel/7813,Mo-Su 08:00-23:00,Dollar General,Q145168
24434,h_r_block,H&R Block,,Noel,MO,,US,+1 417-475-6412,https://www.hrblock.com/local-tax-offices/missouri/noel/444-n-cliffside-dr/24434/,,H&R Block,Q5627799
517,mightyflame,RIO ALCE (CONOCO),,NOEL,MO,,US,+1 417-475-3507,,,Mighty Flame,
https://locations.oreillyauto.com/mo/noel/check-engine-light-testing-4063.html,oreilly,Your Noel O'Reilly Auto Parts Store,,Noel,MO,,US,+1 417-475-3155,https://locations.oreillyauto.com/mo/noel/check-engine-light-testing-4063.html,Mo-Sa 07:30-21:00; Su 09:00-19:00,O'Reilly Auto Parts,Q7071951
https://locations.oreillyauto.com/mo/noel/wiper-installation-4063.html,oreilly,Your Noel O'Reilly Auto Parts Store,,Noel,MO,,US,+1 417-475-3155,https://locations.oreillyauto.com/mo/noel/wiper-installation-4063.html,Mo-Sa 07:30-21:00; Su 09:00-19:00,O'Reilly Auto Parts,Q7071951
https://locations.oreillyauto.com/mo/noel/battery-testing-4063.html,oreilly,Your Noel O'Reilly Auto Parts Store,,Noel,MO,,US,+1 417-475-3155,https://locations.oreillyauto.com/mo/noel/battery-testing-4063.html,Mo-Sa 07:30-21:00; Su 09:00-19:00,O'Reilly Auto Parts,Q7071951
https://locations.oreillyauto.com/mo/noel/autopartes-4063.html,oreilly,Tu tienda O'Reilly Auto Parts en Noel,,Noel,MO,,US,+1 417-475-3155,https://locations.oreillyauto.com/mo/noel/autopartes-4063.html,Mo-Sa 07:30-21:00; Su 09:00-19:00,O'Reilly Auto Parts,Q7071951
1375157,usps,NOEL,,NOEL,MO,,US,+1 417-475-3810,,"Mo-Fr 08:30-11:00,12:00-16:30; Sa 08:30-11:00",United States Postal Service,Q668687
6485400008,usps_collection_boxes,USPS COLLECTION BOX - PO LOBBY,318 MAIN ST,NOEL,MO,,US,,,,United States Postal Service,Q668687
6485400000,usps_collection_boxes,USPS COLLECTION BOX - BLUE BOX,318 MAIN ST,NOEL,MO,,US,,,,United States Postal Service,Q668687
6485400005,usps_collection_boxes,USPS COLLECTION BOX - PO LOBBY,318 MAIN ST,NOEL,MO,,US,,,,United States Postal Service,Q668687
,visa,,,NOEL,MO,,US,,,,,
,visa,,,NOEL,MO,,US,,,,,
,visa,,,NOEL,MO,,US,,,,,
,visa,,,NOEL,MO,,US,,,,,
,visa,,,NOEL,MO,,US,,,,,
,visa,,,NOEL,MO,,US,,,,,
,visa,,,NOEL,MO,,US,,,,,
,visa,,,NOEL,MO,,US,,,,,
