Ref,Spider,Name,Address,City,State,Zipcode,Country,Phone,Website,Hours,Brand,WikiData
720,first_cash,First Cash Pawn,,Monclova,Coahuila,,MX,+52 866 636 6625,,,First Cash Pawn,
,visa,,,MONCLOVA,COAHUILA,,MX,,,,,
ca3d8ab3303889bc7fe4e24d81908e01,western_union,OXXO LOMA LINDA LOV,,Monclova,COAHUILA,,MX,+52 81 8389 2121,https://location.westernunion.com/mx/coahuila/monclova/ca3d8ab3303889bc7fe4e24d81908e01,Mo-Su 08:00-22:00,Western Union,Q861042
aa02571a49e546f6e11669a08a31946f,western_union,OXXO LOMA LINDA LOV,,Monclova,COAHUILA,,MX,+52 81 8389 2121,https://location.westernunion.com/mx/coahuila/monclova/aa02571a49e546f6e11669a08a31946f,Mo-Su 08:00-22:00,Western Union,Q861042
47efb43e58b08182dbbe94b91071f8e9,western_union,OXXO PAREDES LOV,,Monclova,COAHUILA,,MX,+52 81 8389 2121,https://location.westernunion.com/mx/coahuila/monclova/47efb43e58b08182dbbe94b91071f8e9,Mo-Su 08:00-22:00,Western Union,Q861042
c20bc2ed20512ced616f7d65f9a0ab6e,western_union,OXXO PAREDES LOV,,Monclova,COAHUILA,,MX,+52 81 8389 2121,https://location.westernunion.com/mx/coahuila/monclova/c20bc2ed20512ced616f7d65f9a0ab6e,Mo-Su 08:00-22:00,Western Union,Q861042
f5dc748af595023e64cc549d964549ad,western_union,OXXO MELQUIADES LOV,,Monclova,COAHUILA,,MX,+52 81 8389 2121,https://location.westernunion.com/mx/coahuila/monclova/f5dc748af595023e64cc549d964549ad,Mo-Su 08:00-22:00,Western Union,Q861042
07e6a6dd3348a20133119663b51ca3fb,western_union,OXXO ASTURIAS LOV,,Monclova,COAHUILA,,MX,+52 81 8389 2121,https://location.westernunion.com/mx/coahuila/monclova/07e6a6dd3348a20133119663b51ca3fb,Mo-Su 08:00-22:00,Western Union,Q861042
546ea3e239d112993f70ff0bba2ab3ac,western_union,OXXO ASTURIAS LOV,,Monclova,COAHUILA,,MX,+52 81 8389 2121,https://location.westernunion.com/mx/coahuila/monclova/546ea3e239d112993f70ff0bba2ab3ac,Mo-Su 08:00-22:00,Western Union,Q861042
c0a38b8bf59b7298cd9eb8b380a433e3,western_union,OXXO CALICANTO LOV,,Monclova,COAHUILA,,MX,+52 81 8389 2121,https://location.westernunion.com/mx/coahuila/monclova/c0a38b8bf59b7298cd9eb8b380a433e3,Mo-Su 06:00-22:00,Western Union,Q861042
ef227ec5199b7109c8d4be283388b852,western_union,OXXO CALICANTO LOV,,Monclova,COAHUILA,,MX,+52 81 8389 2121,https://location.westernunion.com/mx/coahuila/monclova/ef227ec5199b7109c8d4be283388b852,Mo-Su 06:00-22:00,Western Union,Q861042
1c762e217b3924070d15d492322d235a,western_union,OXXO CALICANTO LOV,,Monclova,COAHUILA,,MX,+52 81 8389 2121,https://location.westernunion.com/mx/coahuila/monclova/1c762e217b3924070d15d492322d235a,Mo-Su 06:00-22:00,Western Union,Q861042
eac706f876947ad2d04bd9d79f206d9b,western_union,OXXO DOROTEO LOV,,Monclova,COAHUILA,,MX,+52 81 8389 2121,https://location.westernunion.com/mx/coahuila/monclova/eac706f876947ad2d04bd9d79f206d9b,Mo-Su 08:00-22:00,Western Union,Q861042
6d6ecf5a215635c805519cf6ba32dbf3,western_union,OXXO DOROTEO LOV,,Monclova,COAHUILA,,MX,+52 81 8389 2121,https://location.westernunion.com/mx/coahuila/monclova/6d6ecf5a215635c805519cf6ba32dbf3,Mo-Su 08:00-22:00,Western Union,Q861042
70a05090d23027d38043bf336ce484e7,western_union,OXXO DOROTEO LOV,,Monclova,COAHUILA,,MX,+52 81 8389 2121,https://location.westernunion.com/mx/coahuila/monclova/70a05090d23027d38043bf336ce484e7,Mo-Su 08:00-22:00,Western Union,Q861042
33b602a346215a7780deccdd439febd7,western_union,OXXO Obrero Unido LOV,,Monclova,COAHUILA,,MX,+52 81 8389 2121,https://location.westernunion.com/mx/coahuila/monclova/33b602a346215a7780deccdd439febd7,Mo-Su 08:00-22:00,Western Union,Q861042
5eaaf7504fe89874801e321ce2c56c16,western_union,OXXO OBRERO UNIDO LOV,,Monclova,COAHUILA,,MX,+52 81 8389 2121,https://location.westernunion.com/mx/coahuila/monclova/5eaaf7504fe89874801e321ce2c56c16,Mo-Su 08:00-22:00,Western Union,Q861042
78eaf2ef92c7c71bde01b29f246070df,western_union,OXXO Tecnotrim LOV,,Monclova,COAHUILA,,MX,+52 81 8389 2121,https://location.westernunion.com/mx/coahuila/monclova/78eaf2ef92c7c71bde01b29f246070df,Mo-Su 08:00-22:00,Western Union,Q861042
8666078bb1b0758df56bfa34a3305c7c,western_union,OXXO TECNOTRIM LOV,,Monclova,COAHUILA,,MX,+52 81 8389 2121,https://location.westernunion.com/mx/coahuila/monclova/8666078bb1b0758df56bfa34a3305c7c,Mo-Su 08:00-22:00,Western Union,Q861042
e25f5a2b8f070ade5c2d90b60d3e8b2f,western_union,OXXO TECNOTRIM LOV,,Monclova,COAHUILA,,MX,+52 81 8389 2121,https://location.westernunion.com/mx/coahuila/monclova/e25f5a2b8f070ade5c2d90b60d3e8b2f,Mo-Su 08:00-22:00,Western Union,Q861042
1fae654bb78621babdad52fa139008ec,western_union,OXXO Santa Marina LOV,,Monclova,COAHUILA,,MX,+52 81 8389 2121,https://location.westernunion.com/mx/coahuila/monclova/1fae654bb78621babdad52fa139008ec,Mo-Su 08:00-22:00,Western Union,Q861042
8219c329b848ad3b7a2a11c61293cb71,western_union,OXXO SANTA MARINA LOV,,Monclova,COAHUILA,,MX,+52 81 8389 2121,https://location.westernunion.com/mx/coahuila/monclova/8219c329b848ad3b7a2a11c61293cb71,Mo-Su 08:00-22:00,Western Union,Q861042
7ef1f37777ee876d603a0ce12bf58dea,western_union,OXXO OBRERA LOV,,Monclova,COAHUILA,,MX,+52 81 8389 2121,https://location.westernunion.com/mx/coahuila/monclova/7ef1f37777ee876d603a0ce12bf58dea,Mo-Su 08:00-22:00,Western Union,Q861042
42262cb80ca624f4952a7a71afb73f55,western_union,OXXO Obrera LOV,,Monclova,COAHUILA,,MX,+52 81 8389 2121,https://location.westernunion.com/mx/coahuila/monclova/42262cb80ca624f4952a7a71afb73f55,Mo-Su 08:00-22:00,Western Union,Q861042
91e10a6884e5f82983eb1a84428b9a08,western_union,OXXO OBRERA LOV,,Monclova,COAHUILA,,MX,+52 81 8389 2121,https://location.westernunion.com/mx/coahuila/monclova/91e10a6884e5f82983eb1a84428b9a08,Mo-Su 08:00-22:00,Western Union,Q861042
ce01a669bfd9b79c7b15e7ca9f662103,western_union,OXXO PAPE LOV,,Monclova,COAHUILA,,MX,+52 81 8389 2121,https://location.westernunion.com/mx/coahuila/monclova/ce01a669bfd9b79c7b15e7ca9f662103,Mo-Su 08:00-22:00,Western Union,Q861042
d84440f42da5715461988e32042c991a,western_union,OXXO PAPE LOV,,Monclova,COAHUILA,,MX,+52 81 8389 2121,https://location.westernunion.com/mx/coahuila/monclova/d84440f42da5715461988e32042c991a,Mo-Su 08:00-22:00,Western Union,Q861042
bf80e112630d81c3603d3a23bce62662,western_union,OXXO Pape LOV,,Monclova,COAHUILA,,MX,+52 81 8389 2121,https://location.westernunion.com/mx/coahuila/monclova/bf80e112630d81c3603d3a23bce62662,Mo-Su 08:00-22:00,Western Union,Q861042
63079f007d30cd601721b1e8b9924a56,western_union,OXXO OBRERO UNIDO LOV,,Monclova,COAHUILA,,MX,+52 81 8389 2121,https://location.westernunion.com/mx/coahuila/monclova/63079f007d30cd601721b1e8b9924a56,Mo-Su 08:00-22:00,Western Union,Q861042
6936e8328eafd69c77be55ece60a2bea,western_union,OXXO ASTURIAS II LOV,,Monclova,COAHUILA,,MX,+52 81 8389 2121,https://location.westernunion.com/mx/coahuila/monclova/6936e8328eafd69c77be55ece60a2bea,Mo-Su 08:00-22:00,Western Union,Q861042
569548e8f5113c8453106b790cfaf184,western_union,OXXO ASTURIAS II LOV,,Monclova,COAHUILA,,MX,+52 81 8389 2121,https://location.westernunion.com/mx/coahuila/monclova/569548e8f5113c8453106b790cfaf184,Mo-Su 08:00-22:00,Western Union,Q861042
0bd791324177adb3ee21beeb7a28c62b,western_union,OXXO Asturias II LOV,,Monclova,COAHUILA,,MX,+52 81 8389 2121,https://location.westernunion.com/mx/coahuila/monclova/0bd791324177adb3ee21beeb7a28c62b,Mo-Su 08:00-22:00,Western Union,Q861042
d31d82e7ee69fe360a8705714c8fe8b9,western_union,OXXO COLINAS DE SANTIAGO LOV,,Monclova,COAHUILA,,MX,+52 81 8389 2121,https://location.westernunion.com/mx/coahuila/monclova/d31d82e7ee69fe360a8705714c8fe8b9,Mo-Su 08:00-22:00,Western Union,Q861042
3b72e0ed9367c76fb791945480f4fb43,western_union,OXXO PRONTO AVENIDA 1 LOV,,Monclova,COAHUILA,,MX,+52 81 8389 2121,https://location.westernunion.com/mx/coahuila/monclova/3b72e0ed9367c76fb791945480f4fb43,Mo-Su 06:00-22:00,Western Union,Q861042
780dac2ff2b30fba306e19d89c823c56,western_union,OXXO PRONTO AVENIDA 1 LOV,,Monclova,COAHUILA,,MX,+52 81 8389 2121,https://location.westernunion.com/mx/coahuila/monclova/780dac2ff2b30fba306e19d89c823c56,Mo-Su 06:00-22:00,Western Union,Q861042
4602fa7ca1f0392f1793020fb7bee440,western_union,TELECOMM 05014,,Monclova,COAHUILA,,MX,+52 800 800 9889,https://location.westernunion.com/mx/coahuila/monclova/4602fa7ca1f0392f1793020fb7bee440,Mo-Fr 09:00-15:00,Western Union,Q861042
e39d5e554aa27acd58f4df9f3a9011bc,western_union,TELECOMM 05014,,Monclova,COAHUILA,,MX,+52 800 800 8930,https://location.westernunion.com/mx/coahuila/monclova/e39d5e554aa27acd58f4df9f3a9011bc,Mo-Su 09:00-20:00,Western Union,Q861042
be0f58984d2ef672edad384da55d8395,western_union,TELECOMM 05014,,Monclova,COAHUILA,,MX,+52 800 800 8930,https://location.westernunion.com/mx/coahuila/monclova/be0f58984d2ef672edad384da55d8395,Mo-Sa 09:00-21:00,Western Union,Q861042
445fc510d4a05fa3c04139cece3a8475,western_union,OXXO LOMA LINDA LOV,,Monclova,COAHUILA,,MX,+52 81 8389 2121,https://location.westernunion.com/mx/coahuila/monclova/445fc510d4a05fa3c04139cece3a8475,Mo-Su 08:00-22:00,Western Union,Q861042
