Ref,Spider,Name,Address,City,State,Zipcode,Country,Phone,Website,Hours,Brand,WikiData
https://stores.advanceautoparts.com/nc/salisbury/1921-jake-alexander-blvd-w,advance_auto_parts_us,Advance Auto Parts,,Salisbury,NC,,US,+1 704-636-8774,https://stores.advanceautoparts.com/nc/salisbury/1921-jake-alexander-blvd-w,Mo-Sa 07:30-21:00; Su 09:00-20:00,Advance Auto Parts,Q4686051
https://stores.aldi.us/#4420933,aldi_sud_us,ALDI  920 Jake Alexander Blvd. W.,,Salisbury,NC,,US,+1 855-466-1117,https://stores.aldi.us/nc/salisbury/920-jake-alexander-blvd-w,Mo-Su 09:00-20:00,ALDI,Q41171672
14931,asics_us,Hibbett Sports,1345 Klumac Rd,Salisbury,NC,,US,+1 704-647-0935,,,asics,Q327247
975790a811ed46e8b31385485d4046d6,atrium_health,Atrium Health Urgent Care Salisbury,,Salisbury,NC,,US,+1 704-403-6240,https://atriumhealth.org/locations/detail/atrium-health-urgent-care-salisbury,,Atrium Health,Q5044932
8fa749bcb54340eb813a82f9067e9532,atrium_health,Atrium Health Dermatology Salisbury,,Salisbury,NC,,US,+1 704-403-2777,https://atriumhealth.org/locations/detail/atrium-health-dermatology-salisbury,,Atrium Health,Q5044932
https://locators.bankofamerica.com/nc/salisbury/atm-salisbury-104726.html,bankofamerica,Bank of America Drive-Thru ATM | Salisbury Mall,,Salisbury,NC,,US,+1 844-401-8500,https://locators.bankofamerica.com/nc/salisbury/atm-salisbury-104726.html,,Bank of America,Q487907
BBW01231,bathandbodyworks_us,SALISBURY MALL,,SALISBURY,NC,,US,+1 704-637-0799,,Mo-Sa 10:00-19:00; Su 13:00-18:00,Bath & Body Works,Q810773
227872,bluerhino,Dollar General #24556,,Salisbury,NC,,US,+1 704-497-2465,,,Blue Rhino,Q65681213
197334,bluerhino,Dollar General #2568,,Salisbury,NC,,US,+1 980-330-6059,,,Blue Rhino,Q65681213
236180,bluerhino,Circle K #2723189,,Salisbury,NC,,US,+1 704-633-8977,,,Blue Rhino,Q65681213
181882,bluerhino,Home Run Market #12 - BP,,Salisbury,NC,,US,+1 704-636-0022,,,Blue Rhino,Q65681213
148784,bluerhino,Speedway #7973,,Salisbury,NC,,US,+1 704-630-1108,,,Blue Rhino,Q65681213
161134,bluerhino,Pilot Travel #7983,,Salisbury,NC,,US,+1 704-638-9320,,,Blue Rhino,Q65681213
152246,bluerhino,Walgreens #9661,,Salisbury,NC,,US,+1 704-630-0198,,,Blue Rhino,Q65681213
nc/salisbury/975-peeler-road,bojangles,"Bojangles Salisbury, NC",,Salisbury,NC,,US,+1 704-680-9017,https://locations.bojangles.com/nc/salisbury/975-peeler-road.html,,Bojangles',Q891163
nc/salisbury/1939-w-jake-alexander-blvd,bojangles,"Bojangles Salisbury, NC",,Salisbury,NC,,US,+1 704-633-7268,https://locations.bojangles.com/nc/salisbury/1939-w-jake-alexander-blvd.html,,Bojangles',Q891163
58567663050042814700100000000000,bp,Amoco,,Salisbury,NC,,US,+1 704-638-9801,,24/7,BP,Q152057
67762479889292814700100000000000,bp,BP,,Salisbury,NC,,US,+1 704-639-9556,,24/7,BP,Q152057
79165347636012814700100000000000,bp,BP,,Salisbury,NC,,US,+1 704-633-0601,,24/7,BP,Q152057
99496737834802814700100000000000,bp,BP,,Salisbury,NC,,US,+1 704-636-1838,,24/7,BP,Q152057
89499685194122814700100000000000,bp,Amoco,,Salisbury,NC,,US,+1 704-636-6522,,24/7,BP,Q152057
10894,brookdale_us,Brookdale Salisbury,,Salisbury,NC,,US,+1 704-636-0588,https://www.brookdale.com/en/communities/brookdale-salisbury.html,,Brookdale,Q4974387
41623,citi,ATM Circle K,,Salisbury,NC,,US,,,,Citibank,Q857063
79194,citi,ATM Speedway,,Salisbury,NC,,US,,,,Citibank,Q857063
92608,citi,ATM Walgreens,,Salisbury,NC,,US,,,,Citibank,Q857063
78009,citi,ATM Speedway,,Salisbury,NC,,US,,,,Citibank,Q857063
om_nc_salisbury_2096-statesville-blvd,cititrends,Citi Trends,,Salisbury,NC,,US,+1 980-397-0066,https://locations.cititrends.com/nc/salisbury/2096-statesville-blvd.html,Mo 11:00-20:00; Tu 11:00-20:00; We 11:00-20:00; Th 11:00-20:00; Fr 10:00-21:00; Sa 10:00-21:00; Su 12:00-18:00,Citi Trends,Q5122438
,credit_union_us,Lions Share CU,,Salisbury,NC,,US,+1 704-636-0643,,Mo-Fr 08:30-05:00,,
,credit_union_us,Skyla CU,,Salisbury,NC,,US,,,Mo-Fr 09:00-05:00,,
80293137,cricket_wireless,Cricket Wireless Authorized Retailer,,Salisbury,NC,,US,+1 980-330-3070,https://www.cricketwireless.com/stores/ll/US/NC/Salisbury/2108-Statesville-Blvd,Mo-Sa 10:00-19:00; Su 12:00-17:00,Cricket Wireless,Q5184987
734,culvers_us,"Culver's of Salisbury, NC - Jake Alexander Blvd",,Salisbury,NC,,US,+1 704-603-4492,http://www.culvers.com/restaurants/salisbury-nc-jake-alexander-blvd,Mo-Fr 10:00-22:00; Su 10:00-22:00,Culver's,Q1143589
2568,dollar_general,Dollar General,,Salisbury,NC,,US,+1 980-330-6059,https://www.dollargeneral.com/store-directory/nc/salisbury/2568,Mo-Su 08:00-21:00,Dollar General,Q145168
16429,dollar_general,Dollar General,,Salisbury,NC,,US,+1 980-330-6518,https://www.dollargeneral.com/store-directory/nc/salisbury/16429,Mo-Su 08:00-22:00,Dollar General,Q145168
342999,dunkin_us,Dunkin',,Salisbury,NC,,US,+1 704-216-2841,https://locations.dunkindonuts.com/en/nc/salisbury/715-jake-alexander-blvd-w/342999,Mo-Fr 05:00-20:00; Sa-Su 06:00-20:00,Dunkin',Q847743
347202,dunkin_us,Dunkin',,Salisbury,NC,,US,+1 704-638-0855,https://locations.dunkindonuts.com/en/nc/salisbury/985-peeler-rd/347202,24/7,Dunkin',Q847743
200326732,exxonmobil,ALLIGOOD TIRE & ALIGNMENT,,SALISBURY,NC,,US,,https://www.exxon.com/en/find-station/exxon-salisbury-nc-alligoodtirealignment-200326732,Mo-Sa 07:00-18:00,Exxon,Q109675651
20354,family_dollar_us,FAMILY DOLLAR #354,,Salisbury,NC,,US,+1 980-330-6242,https://www.familydollar.com/locations/nc/salisbury/20354/,Mo-Su 08:00-21:00,Family Dollar,Q5433101
489,first_cash,Quick Cash Pawn,,Salisbury,NC,,US,+1 704-636-0135,,,,
Motorcraft1911USAEnglish,ford,"Cloninger Ford, Inc.",,North Carolina,NC,,US,+1 704-633-9321,,,Ford,Q44294
https://www.ford.com/dealerships/dealer-details/nc/salisbury/cloninger-ford-inc/,ford_dealers_us,"Cloninger Ford, Inc.",,Salisbury,NC,,US,+1 704-828-0012,https://www.ford.com/dealerships/dealer-details/nc/salisbury/cloninger-ford-inc/,Mo-Fr 09:00-19:00; Sa 09:00-18:00,Ford Motor Company,Q44294
27de83db-458a-e111-8dde-005056934050,goodwill,Retail Store - Salisbury,,Salisbury,NC,,US,+1 704-637-6673,https://www.goodwill.org/locator/location/?store=MjdkZTgzZGItNDU4YS1lMTExLThkZGUtMDA1MDU2OTM0MDUw&lat=MzUuNjQzNzQ=&lng=LTgwLjQ4Mzc4,,Goodwill,Q5583655
https://salons.greatclips.com/us/nc/salisbury/850-jake-alexander-blvd,greatclips,Great Clips,,Salisbury,NC,,US,+1 704-630-0002,https://salons.greatclips.com/us/nc/salisbury/850-jake-alexander-blvd,Mo-Fr 09:00-19:00; Sa 09:00-18:00; Su 11:00-17:00,Great Clips,Q5598967
https://office.jacksonhewitt.com/#27579347,jackson_hewitt,Jackson Hewitt,,Salisbury,NC,,US,+1 704-257-8913,https://office.jacksonhewitt.com/tax-preparation-services-locations/en/nc/salisbury/519-a-jake-alexander-blvd/18934,Mo-Fr 10:00-18:00; Sa 10:00-17:00,Jackson Hewitt,Q6117132
3850,jiffy_lube_us,Jake Alexander Blvd. W.,,SALISBURY,NC,,US,+1 704-979-4412,https://www.jiffylube.com/locations/nc/salisbury/3850,Mo-Sa 08:00-18:00; Su 09:00-17:00,Jiffy Lube,Q6192247
https://locations.kfc.com/#11247157,kfc,Chicken Nuggets Near Salisbury,,Salisbury,NC,,US,,https://locations.kfc.com/nc/salisbury/1006-mooresville-road/chickennugget,Mo-Sa 10:30-22:00; Su 10:00-22:00,KFC,Q524757
1291,kohls_us,Kohl's,,Salisbury,NC,,US,+1 704-633-1357,https://www.kohls.com/stores/nc/salisbury-1291.shtml,Mo-Sa 09:00-21:00; Su 09:00-20:00,Kohl's,Q967265
NNA3825,nissan_europe,BEN MYNATT NISSAN,,SALISBURY,NC,,US,+1 704-633-7270,https://www.benmynattnissan.com,Mo-Fr 08:30-20:00; Sa 08:30-18:00,Nissan,Q20165
https://locations.oreillyauto.com/nc/salisbury/check-engine-light-testing-1796.html,oreilly,Your Salisbury O'Reilly Auto Parts Store,,Salisbury,NC,,US,+1 704-637-6652,https://locations.oreillyauto.com/nc/salisbury/check-engine-light-testing-1796.html,Mo-Sa 07:30-22:00; Su 08:30-21:00,O'Reilly Auto Parts,Q7071951
https://locations.oreillyauto.com/nc/salisbury/wiper-installation-1796.html,oreilly,Your Salisbury O'Reilly Auto Parts Store,,Salisbury,NC,,US,+1 704-637-6652,https://locations.oreillyauto.com/nc/salisbury/wiper-installation-1796.html,Mo-Sa 07:30-22:00; Su 08:30-21:00,O'Reilly Auto Parts,Q7071951
https://locations.oreillyauto.com/nc/salisbury/battery-testing-1796.html,oreilly,Your Salisbury O'Reilly Auto Parts Store,,Salisbury,NC,,US,+1 704-637-6652,https://locations.oreillyauto.com/nc/salisbury/battery-testing-1796.html,Mo-Sa 07:30-22:00; Su 08:30-21:00,O'Reilly Auto Parts,Q7071951
https://locations.oreillyauto.com/nc/salisbury/autopartes-1796.html,oreilly,Tu tienda O'Reilly Auto Parts en Salisbury,,Salisbury,NC,,US,+1 704-637-6652,https://locations.oreillyauto.com/nc/salisbury/autopartes-1796.html,Mo-Sa 07:30-22:00; Su 08:30-21:00,O'Reilly Auto Parts,Q7071951
7983,pilot_flyingj,Pilot Travel Center,,Salisbury,NC,,US,+1 704-255-5238,https://locations.pilotflyingj.com/us/nc/salisbury/985-peeler-road,,Pilot,Q7194412
nc_salisbury_520-jake-alexander-blvd,pizza_hut_us,520 Jake Alexander Blvd,,Salisbury,NC,,US,+1 704-633-5812,https://locations.pizzahut.com/nc/salisbury/520-jake-alexander-blvd,,Pizza Hut,Q191615
https://www.publicstorage.com/self-storage-nc-salisbury/2101.html,public_storage_us,Public Storage,,Salisbury,NC,,US,+1 980-643-0661,https://www.publicstorage.com/self-storage-nc-salisbury/2101.html,,Public Storage,Q1156045
https://www.publicstorage.com/self-storage-nc-salisbury/5751.html,public_storage_us,Public Storage,,Salisbury,NC,,US,+1 980-705-7980,https://www.publicstorage.com/self-storage-nc-salisbury/5751.html,,Public Storage,Q1156045
https://restaurants.subway.com/#14906964,subway,Subway Pilot Travel Center #7983,,Salisbury Rowan,NC,,US,+1 704-647-0100,https://restaurants.subway.com/united-states/nc/salisbury/985-peeler-rd,,Subway,Q244457
https://restaurants.subway.com/#14894850,subway,Subway,,Salisbury Rowan,NC,,US,+1 704-639-9495,https://restaurants.subway.com/united-states/nc/salisbury/475-jake-alexander-blvd-west,Mo-Su 08:00-21:00,Subway,Q244457
0686724600,sunoco_us,Sunoco,,SALISBURY,NC,,US,+1 704-636-4007,,Mo-Su 08:00-21:00,Sunoco,Q1423218
https://locations.tacobell.com/#3917134,taco_bell,Taco Bell,,Salisbury,NC,,US,+1 704-636-1761,https://locations.tacobell.com/nc/salisbury/510-jake-alexander-blvd-.html,Mo 07:00-02:00; Tu 10:00-02:00; We-Th 07:00-02:00; Fr-Sa 07:00-03:00; Su 07:00-02:00,Taco Bell,Q752941
https://locations.tacobell.com/#1019900958,taco_bell,Taco Bell,,Salisbury,NC,,US,+1 980-330-6124,https://locations.tacobell.com/nc/salisbury/2070-statesville-blvd-.html,Mo-Su 08:00-02:00,Taco Bell,Q752941
0295,upsstore,Salisbury,475 W Jake Alexander Blvd West Ste 102,Salisbury,NC,,US,+1 704-638-0661,https://locations.theupsstore.com/nc/salisbury/475-w-jake-alexander-blvd-west,,UPS Store,Q7771029
0000030880,valero,Salisbury Mini Mart,,Salisbury,NC,,US,,https://locations.valero.com/en-us/LocationDetails/Index/5710-S-MAIN-ST/0000030880,,Valero,Q1283291
,visa,,,SALISBURY,NC,,US,,,,,
,visa,,,SALISBURY,NC,,US,,,,,
,visa,,,SALISBURY,NC,,US,,,,,
,visa,,,SALISBURY,NC,,US,,,,,
,visa,,,SALISBURY,NC,,US,,,,,
,visa,,,SALISBURY,NC,,US,,,,,
,visa,,,SALISBURY,NC,,US,,,,,
,visa,,,SALISBURY,NC,,US,,,,,
,visa,,,SALISBURY,NC,,US,,,,,
,visa,,,SALISBURY,NC,,US,,,,,
,visa,,,SALISBURY,NC,,US,,,,,
,visa,,,SALISBURY,NC,,US,,,,,
,visa,,,SALISBURY,NC,,US,,,,,
,visa,,,SALISBURY,NC,,US,,,,,
,visa,,,SALISBURY,NC,,US,,,,,
,visa,,,SALISBURY,NC,,US,,,,,
,visa,,,SALISBURY,NC,,US,,,,,
,visa,,,SALISBURY,NC,,US,,,,,
,visa,,,SALISBURY,NC,,US,,,,,
,visa,,,SALISBURY,NC,,US,,,,,
,visa,,,SALISBURY,NC,,US,,,,,
,visa,,,SALISBURY,NC,,US,,,,,
,visa,,,SALISBURY,NC,,US,,,,,
,visa,,,SALISBURY,NC,,US,,,,,
,visa,,,SALILBURY,NC,,US,,,,,
,visa,,,SALISBURY,NC,,US,,,,,
,visa,,,SALISBURY,NC,,US,,,,,
,visa,,,SALISBURY,NC,,US,,,,,
,visa,,,SALISBURY,NC,,US,,,,,
,visa,,,SALISBURY,NC,,US,,,,,
,visa,,,SALISBURY,NC,,US,,,,,
,visa,,,SALISBURY,NC,,US,,,,,
,visa,,,SALISBURY,NC,,US,,,,,
,visa,,,SALISBURY,NC,,US,,,,,
,visa,,,SALIBURY,NC,,US,,,,,
,visa,,,SALISBURY,NC,,US,,,,,
,visa,,,SALISBURY,NC,,US,,,,,
,visa,,,SALISBURY,NC,,US,,,,,
,visa,,,SALISBURY,NC,,US,,,,,
,visa,,,SALISBURY,NC,,US,,,,,
,visa,,,SALISBURY,NC,,US,,,,,
,visa,,,SALISBURY,NC,,US,,,,,
,visa,,,SALISBURY,NC,,US,,,,,
,visa,,,SALISBURY,NC,,US,,,,,
,visa,,,SALISBURY,NC,,US,,,,,
,visa,,,SALISBURY,NC,,US,,,,,
,visa,,,SALISBURY,NC,,US,,,,,
,visa,,,SALISBURY,NC,,US,,,,,
,visa,,,SALISBURY,NC,,US,,,,,
,visa,,,SALISBURY,NC,,US,,,,,
,visa,,,SALISBURY,NC,,US,,,,,
,visa,,,SALISBURY,NC,,US,,,,,
,visa,,,SALISBURY,NC,,US,,,,,
,visa,,,SALISBURY,NC,,US,,,,,
720,waffle_house_us,Waffle House #720,,SALISBURY,NC,,US,+1 704-636-2634,https://locations.wafflehouse.com/salisbury-nc-720,24/7,Waffle House,Q1701206
https://www.walgreens.com/locator/walgreens-705+jake+alexander+blvd+w-salisbury-nc-28147/id=9661,walgreens,Walgreens,,Salisbury,NC,,US,+1 704-630-0738,https://www.walgreens.com/locator/walgreens-705+jake+alexander+blvd+w-salisbury-nc-28147/id=9661,Mo-Su 07:00-22:00,Walgreens,Q1591889
866__JAKE__ALEXANDER__BLVD__W_SALISBURY_NC_28147,wellsfargo,Wells Fargo,866 JAKE ALEXANDER BLVD W,SALISBURY,NC,,US,+1 704-630-1000,https://www.wellsfargo.com/locator/bank/866__JAKE__ALEXANDER__BLVD__W_SALISBURY_NC_28147/,Mo-Fr 09:00-17:00,Wells Fargo,Q744149
517__W__JAKE__ALEXANDER__BLVD_SALISBURY_NC_28147,wellsfargo,,517 W JAKE ALEXANDER BLVD,SALISBURY,NC,,US,+1 800-869-3557,https://www.wellsfargo.com/locator/bank/517__W__JAKE__ALEXANDER__BLVD_SALISBURY_NC_28147/,,Wells Fargo,Q744149
1465__KLUMAC__RD_SALISBURY_NC_28147,wellsfargo,,1465 KLUMAC RD,SALISBURY,NC,,US,+1 800-869-3557,https://www.wellsfargo.com/locator/bank/1465__KLUMAC__RD_SALISBURY_NC_28147/,,Wells Fargo,Q744149
https://locations.wendys.com/#9255433,wendys,"Wendy's Jake Alexander in Salisbury, NC",,Salisbury,NC,,US,+1 704-642-0620,https://locations.wendys.com/united-states/nc/salisbury/825-s-jake-alexander-blvd,"Mo-Su 06:30-10:30,09:00-22:00",Wendy's,Q550258
6291fb0ee98ff120e37eb4aa7cba5e9a,western_union,DOLLAR GENERAL #2568,,Salisbury,NC,,US,+1 980-330-6059,https://location.westernunion.com/us/nc/salisbury/6291fb0ee98ff120e37eb4aa7cba5e9a,Mo-Su 08:00-21:00,Western Union,Q861042
3400c12bda05d9fcfa02d6f3b7fe1a8e,western_union,DOLLAR GENERAL #24556,,Salisbury,NC,,US,+1 704-630-7223,https://location.westernunion.com/us/nc/salisbury/3400c12bda05d9fcfa02d6f3b7fe1a8e,Mo-Su 08:00-22:00,Western Union,Q861042
jf-hurley-family-ymca,ymca,J.F. Hurley Family YMCA,828 Jake Alexander Blvd W,Salisbury,NC,,US,+1 704-636-0111,https://www.ymca.org/locations/jf-hurley-family-ymca,Mo-Th 05:00-21:00; Fr 05:00-19:00; Sa 08:00-16:00; Su 13:00-17:00,YMCA,Q157169
rowan-cabarrus-ymca,ymca,Rowan-Cabarrus YMCA,215 Guffy St,Salisbury,NC,,US,+1 704-216-9622,https://www.ymca.org/locations/rowan-cabarrus-ymca,Mo-Fr 08:30-17:00,YMCA,Q157169
