Ref,Spider,Name,Address,City,State,Zipcode,Country,Phone,Website,Hours,Brand,WikiData
2183,autozone_us,AutoZone Auto Parts Detroit,,Detroit,MI,,US,+1 313-863-5871,https://www.autozone.com/locations/mi/detroit/14640-w-7-mile-rd.html,Mo-Sa 08:00-21:00; Su 09:00-20:00,AutoZone,Q4826087
https://locators.bankofamerica.com/mi/detroit/atm-detroit-110167.html,bankofamerica,Bank of America Drive-Thru ATM | 7 Mile And Hartwell,,Detroit,MI,,US,+1 844-401-8500,https://locators.bankofamerica.com/mi/detroit/atm-detroit-110167.html,,Bank of America,Q487907
112629,bluerhino,Citgo,,Detroit,MI,,US,+1 313-270-5650,,,Blue Rhino,Q65681213
121552,bp,BP,,Detroit,MI,,US,+1 313-864-0512,,,BP,Q152057
126083,bp,BP,,Detroit,MI,,US,+1 313-310-5440,,,BP,Q152057
121545,bp,BP,,Detroit,MI,,US,+1 313-342-4038,,,BP,Q152057
124022,bp,BP,,Detroit,MI,,US,+1 313-835-9335,,,BP,Q152057
128415,bp,Amoco,,Detroit,MI,,US,+1 313-270-5650,,,BP,Q152057
2039322,chase_us,Seven Mile Winthrop - New branch - Newly renovated,,Detroit,MI,,US,+1 313-838-6441,https://locator.chase.com/mi/detroit/15633-w-seven-mile-rd,Mo-Fr 09:00-17:00; Sa 09:00-14:00,Chase,Q524629
48327,citi,ATM CVS,,Detroit,MI,,US,,,,Citibank,Q857063
48162,citi,ATM CVS,,Detroit,MI,,US,,,,Citibank,Q857063
om_mi_detroit_7990-west-outer-drive,cititrends,Citi Trends,,Detroit,MI,,US,+1 313-284-1475,https://locations.cititrends.com/mi/detroit/7990-west-outer-drive.html,Mo 10:00-21:00; Tu 10:00-21:00; We 10:00-21:00; Th 10:00-21:00; Fr 10:00-21:00; Sa 10:00-21:00; Su 12:00-18:00,Citi Trends,Q5122438
ATM-2483,citizens_us,,,Detroit,MI,,US,,,,Citizens,Q5122694
ATM-2529,citizens_us,,,Detroit,MI,,US,,,,Citizens,Q5122694
70088528,cricket_wireless,Cricket Wireless Authorized Retailer,,Detroit,MI,,US,+1 313-646-9014,https://www.cricketwireless.com/stores/ll/US/MI/Detroit/13601-W-McNichols-Rd,Mo-Sa 10:00-20:00; Su 23:00-17:00,Cricket Wireless,Q5184987
8196,cvs_us,CVS Pharmacy,,Detroit,MI,,US,+1 313-864-9660,https://www.cvs.com/store-locator/detroit-mi-pharmacies/16800-schaefer-hwy-detroit-mi-48235/storeid=8196,Mo-Su 09:00-21:00,CVS Pharmacy,Q2078880
8399,cvs_us,CVS Pharmacy,,Detroit,MI,,US,+1 313-272-3296,https://www.cvs.com/store-locator/detroit-mi-pharmacies/15521-west-seven-mile-road-detroit-mi-48235/storeid=8399,Mo-Su 08:00-21:00,CVS Pharmacy,Q2078880
15556,dollar_general,Dollar General,,Detroit,MI,,US,+1 313-771-2636,https://www.dollargeneral.com/store-directory/mi/detroit/15556,Mo-Su 08:00-21:00,Dollar General,Q145168
1027,dominos_pizza_us,Domino's Pizza,,Detroit,MI,,US,+1 313-548-0880,https://pizza.dominos.com/michigan/detroit/16005-w-mcnichols-road,Mo-Th 10:00-01:00; Fr-Sa 10:00-02:00; Su 10:00-01:00,Domino's,Q839466
200323626,exxonmobil,Exxon,,DETROIT,MI,,US,,https://www.exxon.com/en/find-station/exxon-detroit-mi-exxon-200323626,24/7,Exxon,Q109675651
200322300,exxonmobil,7 MILE & FERGUSON FUELS INC,,DETROIT,MI,,US,+1 313-340-2227,https://www.exxon.com/en/find-station/exxon-detroit-mi-7milefergusonfuelsinc-200322300,24/7,Exxon,Q109675651
200316059,exxonmobil,6 MILE & LODGE MOBIL,,DETROIT,MI,,US,+1 313-861-1196,https://www.exxon.com/en/find-station/mobil-detroit-mi-6milelodgemobil-200316059,24/7,Mobil,Q109676002
31756,family_dollar_us,FAMILY DOLLAR #11756,,Detroit,MI,,US,+1 313-816-8485,https://www.familydollar.com/locations/mi/detroit/31756/,Mo-Su 08:00-21:00,Family Dollar,Q5433101
26240,family_dollar_us,FAMILY DOLLAR #6240,,Detroit,MI,,US,+1 313-864-2395,https://www.familydollar.com/locations/mi/detroit/26240/,Mo-Su 08:00-22:00,Family Dollar,Q5433101
https://locations.53.com/#3226513,fifththirdbank,Fifth Third Bank Northwest Activities Center,,Detroit,MI,,US,+1 313-736-4338,https://locations.53.com/mi/detroit/18100-meyers.html,Mo-Th 10:00-16:00,Fifth Third Bank,Q1411810
20871,h_r_block,H&R Block,,Detroit,MI,,US,+1 313-345-3885,https://www.hrblock.com/local-tax-offices/michigan/detroit/schaefer---mcnichols/20871/,,H&R Block,Q5627799
https://locations.kfc.com/#11250106,kfc,Chicken Nuggets Near Detroit,,Detroit,MI,,US,,https://locations.kfc.com/mi/detroit/14201-w-7-mile-rd/chickennugget,Mo-Sa 10:30-23:00; Su 11:00-23:00,KFC,Q524757
https://locations.kfc.com/#11250096,kfc,Chicken Nuggets Near Detroit,,Detroit,MI,,US,,https://locations.kfc.com/mi/detroit/13546-w-mcnichols-rd/chickennugget,Mo-Sa 10:30-24:00; Su 11:00-23:00,KFC,Q524757
155945,marathon_petroleum_us,San Mini Mart,,DETROIT,MI,,US,+1 313-835-7400,,,Marathon,Q458363
156260,marathon_petroleum_us,YEMEN FUEL MART INC,,DETROIT,MI,,US,+1 313-341-2388,,,Marathon,Q458363
159341,marathon_petroleum_us,SOUTHFIELD PETROLEUM INC,,Detroit,MI,,US,+1 313-247-1992,,,Marathon,Q458363
157422,marathon_petroleum_us,JAMES N SCHAEFER GAS MORE,,DETROIT,MI,,US,+1 313-864-3018,,,Marathon,Q458363
66141589,moneygram,GLORY SUPERMARKET OUTER DRIVE,,DETROIT,MI,,US,+1 313-255-8922,,Mo-Su 07:00-23:00,MoneyGram,Q1944412
66037884,moneygram,CVS - #8399,,DETROIT,MI,,US,+1 313-272-3296,,Mo-Su 08:00-22:00,MoneyGram,Q1944412
https://locations.oreillyauto.com/mi/detroit/check-engine-light-testing-3348.html,oreilly,Your Detroit O'Reilly Auto Parts Store,,Detroit,MI,,US,+1 313-864-2566,https://locations.oreillyauto.com/mi/detroit/check-engine-light-testing-3348.html,Mo-Sa 07:30-21:00; Su 08:30-20:00,O'Reilly Auto Parts,Q7071951
https://locations.oreillyauto.com/mi/detroit/wiper-installation-3348.html,oreilly,Your Detroit O'Reilly Auto Parts Store,,Detroit,MI,,US,+1 313-864-2566,https://locations.oreillyauto.com/mi/detroit/wiper-installation-3348.html,Mo-Sa 07:30-21:00; Su 08:30-20:00,O'Reilly Auto Parts,Q7071951
https://locations.oreillyauto.com/mi/detroit/battery-testing-3348.html,oreilly,Your Detroit O'Reilly Auto Parts Store,,Detroit,MI,,US,+1 313-864-2566,https://locations.oreillyauto.com/mi/detroit/battery-testing-3348.html,Mo-Sa 07:30-21:00; Su 08:30-20:00,O'Reilly Auto Parts,Q7071951
https://locations.oreillyauto.com/mi/detroit/autopartes-3348.html,oreilly,Tu tienda O'Reilly Auto Parts en Detroit,,Detroit,MI,,US,+1 313-864-2566,https://locations.oreillyauto.com/mi/detroit/autopartes-3348.html,Mo-Sa 07:30-21:00; Su 08:30-20:00,O'Reilly Auto Parts,Q7071951
home-depot-2781-14378,ppgpaints,HOME DEPOT 2781,,"Detroit, ",MI,,US,+1 313-341-7750,https://www.ppgpaints.com/store-locator/us/michigan/detroit-paint-stores/home-depot-2781-14378,,PPG Paints,Q83891559
https://restaurants.subway.com/#14898037,subway,Subway College Park Commons,,Detroit Wayne,MI,,US,+1 313-397-3558,https://restaurants.subway.com/united-states/mi/detroit/7950-outer-dr,Mo-Fr 08:00-22:00; Sa 09:00-22:00; Su 10:00-22:00,Subway,Q244457
https://restaurants.subway.com/#14896462,subway,Subway Sinai-Grace Hospital,,Detroit Wayne,MI,,US,+1 313-307-8810,https://restaurants.subway.com/united-states/mi/detroit/6071-w-outer-drive,,Subway,Q244457
https://restaurants.subway.com/#14896746,subway,Subway,,Detroit Wayne,MI,,US,+1 313-468-9959,https://restaurants.subway.com/united-states/mi/detroit/19100-james-couzens-hwy,Mo-Su 09:00-22:00,Subway,Q244457
0540475100,sunoco_us,Sunoco,,DETROIT,MI,,US,+1 313-861-4503,,Mo-Sa 07:00-23:00; Su 08:00-22:00,Sunoco,Q1423218
https://locations.tacobell.com/#6146062,taco_bell,Taco Bell,,Detroit,MI,,US,+1 313-836-8226,https://locations.tacobell.com/mi/detroit/15624-west-mc-nichols.html,Mo-Su 09:00-01:00,Taco Bell,Q752941
1381243,usps,SEVEN OAKS STA,,DETROIT,MI,,US,+1 313-532-3392,,Mo-Fr 10:00-17:00; Sa 10:00-13:30,United States Postal Service,Q668687
4823500048,usps_collection_boxes,USPS COLLECTION BOX - BLUE BOX,17221 W 8 MILE RD,DETROIT,MI,,US,,,,United States Postal Service,Q668687
4823500057,usps_collection_boxes,USPS COLLECTION BOX - BLUE BOX,20100 GREENFIELD RD,DETROIT,MI,,US,,,,United States Postal Service,Q668687
4823500105,usps_collection_boxes,USPS COLLECTION BOX - PO LOBBY,17625 W 7 MILE RD,DETROIT,MI,,US,,,,United States Postal Service,Q668687
4823500086,usps_collection_boxes,USPS COLLECTION BOX - BLUE BOX,17625 W 7 MILE RD,DETROIT,MI,,US,,,,United States Postal Service,Q668687
4823500081,usps_collection_boxes,USPS COLLECTION BOX - BLUE BOX,17625 W 7 MILE RD,DETROIT,MI,,US,,,,United States Postal Service,Q668687
4823500025,usps_collection_boxes,USPS COLLECTION BOX - BLUE BOX,16200 W 7 MILE RD,DETROIT,MI,,US,,,,United States Postal Service,Q668687
4823500015,usps_collection_boxes,USPS COLLECTION BOX - BLUE BOX,16301 W 7 MILE RD,DETROIT,MI,,US,,,,United States Postal Service,Q668687
4823500046,usps_collection_boxes,USPS COLLECTION BOX - BLUE BOX,20498 CHEYENNE ST,DETROIT,MI,,US,,,,United States Postal Service,Q668687
4823500067,usps_collection_boxes,USPS COLLECTION BOX - BLUE BOX,19901 LITTLEFIELD ST,DETROIT,MI,,US,,,,United States Postal Service,Q668687
4823500020,usps_collection_boxes,USPS COLLECTION BOX - BLUE BOX,13341 W 7 MILE RD,DETROIT,MI,,US,,,,United States Postal Service,Q668687
4823500066,usps_collection_boxes,USPS COLLECTION BOX - BLUE BOX,14250 VASSAR AVE,DETROIT,MI,,US,,,,United States Postal Service,Q668687
4823500018,usps_collection_boxes,USPS COLLECTION BOX - BLUE BOX,14651 W 7 MILE RD,DETROIT,MI,,US,,,,United States Postal Service,Q668687
4823500064,usps_collection_boxes,USPS COLLECTION BOX - BLUE BOX,18420 JAMES COUZENS FWY,DETROIT,MI,,US,,,,United States Postal Service,Q668687
4823500054,usps_collection_boxes,USPS COLLECTION BOX - BLUE BOX,18116 STEEL ST,DETROIT,MI,,US,,,,United States Postal Service,Q668687
4823500021,usps_collection_boxes,USPS COLLECTION BOX - BLUE BOX,15000 W 7 MILE RD,DETROIT,MI,,US,,,,United States Postal Service,Q668687
4823500003,usps_collection_boxes,USPS COLLECTION BOX - BLUE BOX,17555 JAMES COUZENS FWY,DETROIT,MI,,US,,,,United States Postal Service,Q668687
4823500106,usps_collection_boxes,USPS COLLECTION BOX - BLUE BOX,6071 W OUTER DR,DETROIT,MI,,US,,,,United States Postal Service,Q668687
4823500072,usps_collection_boxes,USPS COLLECTION BOX - BLUE BOX,6001 W OUTER DR,DETROIT,MI,,US,,,,United States Postal Service,Q668687
4823500030,usps_collection_boxes,USPS COLLECTION BOX - BLUE BOX,11000 W MCNICHOLS RD,DETROIT,MI,,US,,,,United States Postal Service,Q668687
4823500032,usps_collection_boxes,USPS COLLECTION BOX - BLUE BOX,13243 W MCNICHOLS RD,DETROIT,MI,,US,,,,United States Postal Service,Q668687
4823500074,usps_collection_boxes,USPS COLLECTION BOX - BLUE BOX,6700 W OUTER DR,DETROIT,MI,,US,,,,United States Postal Service,Q668687
4823500056,usps_collection_boxes,USPS COLLECTION BOX - BLUE BOX,18215 GREENFIELD AVE,DETROIT,MI,,US,,,,United States Postal Service,Q668687
4823500065,usps_collection_boxes,USPS COLLECTION BOX - BLUE BOX,16625 SCHAEFER HWY,DETROIT,MI,,US,,,,United States Postal Service,Q668687
4823500043,usps_collection_boxes,USPS COLLECTION BOX - BLUE BOX,14441 W MCNICHOLS RD,DETROIT,MI,,US,,,,United States Postal Service,Q668687
4823500060,usps_collection_boxes,USPS COLLECTION BOX - BLUE BOX,7230 W OUTER DR,DETROIT,MI,,US,,,,United States Postal Service,Q668687
4823500089,usps_collection_boxes,USPS COLLECTION BOX - BLUE BOX,17155 GREENFIELD RD,DETROIT,MI,,US,,,,United States Postal Service,Q668687
4823500098,usps_collection_boxes,USPS COLLECTION BOX - BLUE BOX,16342 W MCNICHOLS RD,DETROIT,MI,,US,,,,United States Postal Service,Q668687
4823500097,usps_collection_boxes,USPS COLLECTION BOX - BLUE BOX,7800 W OUTER DR,DETROIT,MI,,US,,,,United States Postal Service,Q668687
4823500075,usps_collection_boxes,USPS COLLECTION BOX - BLUE BOX,17300 SOUTHFIELD FWY,DETROIT,MI,,US,,,,United States Postal Service,Q668687
4823500034,usps_collection_boxes,USPS COLLECTION BOX - BLUE BOX,17701 W MCNICHOLS RD,DETROIT,MI,,US,,,,United States Postal Service,Q668687
,visa,,,DETROIT,MI,,US,,,,,
,visa,,,DETROIT,MI,,US,,,,,
,visa,,,DETROIT,MI,,US,,,,,
,visa,,,DETROIT,MI,,US,,,,,
,visa,,,DETROIT,MI,,US,,,,,
,visa,,,DETROIT,MI,,US,,,,,
,visa,,,DETROIT,MI,,US,,,,,
,visa,,,DETROIT,MI,,US,,,,,
,visa,,,DETROIT,MI,,US,,,,,
,visa,,,DETROIT,MI,,US,,,,,
,visa,,,DETROIT,MI,,US,,,,,
,visa,,,DETROIT,MI,,US,,,,,
,visa,,,DETROIT,MI,,US,,,,,
,visa,,,DETROIT,MI,,US,,,,,
,visa,,,DETROIT,MI,,US,,,,,
,visa,,,DETROIT,MI,,US,,,,,
,visa,,,DETROIT,MI,,US,,,,,
,visa,,,DETROIT,MI,,US,,,,,
,visa,,,DETROIT,MI,,US,,,,,
,visa,,,DETROIT,MI,,US,,,,,
,visa,,,DETROIT,MI,,US,,,,,
,visa,,,DETROIT,MI,,US,,,,,
,visa,,,DETROIT,MI,,US,,,,,
,visa,,,DETROIT,MI,,US,,,,,
,visa,,,DETROIT,MI,,US,,,,,
,visa,,,DETROIT,MI,,US,,,,,
,visa,,,DETROIT,MI,,US,,,,,
,visa,,,DETROIT,MI,,US,,,,,
,visa,,,DETROIT,MI,,US,,,,,
,visa,,,DETROIT,MI,,US,,,,,
,visa,,,DETROIT,MI,,US,,,,,
,visa,,,DETROIT,MI,,US,,,,,
,visa,,,DETROIT,MI,,US,,,,,
,visa,,,DETROIT,MI,,US,,,,,
,visa,,,DETROIT,MI,,US,,,,,
,visa,,,DETROIT,MI,,US,,,,,
,visa,,,DETROIT,MI,,US,,,,,
,visa,,,DETROIT,MI,,US,,,,,
,visa,,,DETROIT,MI,,US,,,,,
,visa,,,DETROIT BEACH,MI,,US,,,,,
,visa,,,DETROIT,MI,,US,,,,,
,visa,,,DETROIT BEACH,MI,,US,,,,,
,visa,,,DETROIT BEACH,MI,,US,,,,,
,visa,,,DETROIT BEACH,MI,,US,,,,,
,visa,,,DETROIT,MI,,US,,,,,
,visa,,,DETROIT,MI,,US,,,,,
,visa,,,DETROIT,MI,,US,,,,,
,visa,,,DETROIT,MI,,US,,,,,
,visa,,,DETROIT,MI,,US,,,,,
,visa,,,DETROIT,MI,,US,,,,,
,visa,,,DETROIT BEACH,MI,,US,,,,,
,visa,,,DETROIT,MI,,US,,,,,
,visa,,,DETROIT,MI,,US,,,,,
,visa,,,DETROIT,MI,,US,,,,,
,visa,,,DETROIT,MI,,US,,,,,
,visa,,,DETROIT,MI,,US,,,,,
,visa,,,DETROIT,MI,,US,,,,,
,visa,,,DETROIT,MI,,US,,,,,
,visa,,,DETROIT,MI,,US,,,,,
,visa,,,DETROIT,MI,,US,,,,,
,visa,,,DETROIT,MI,,US,,,,,
,visa,,,DETROIT,MI,,US,,,,,
,visa,,,DETROIT,MI,,US,,,,,
,visa,,,DETROIT,MI,,US,,,,,
,visa,,,DETROIT,MI,,US,,,,,
,visa,,,DETROIT,MI,,US,,,,,
,visa,,,DETROIT,MI,,US,,,,,
,visa,,,DETROIT,MI,,US,,,,,
,visa,,,DETROIT,MI,,US,,,,,
,visa,,,DETROIT,MI,,US,,,,,
,visa,,,DETROIT,MI,,US,,,,,
,visa,,,DETROIT BEACH,MI,,US,,,,,
,visa,,,DETROIT,MI,,US,,,,,
,visa,,,DETROIT,MI,,US,,,,,
,visa,,,DETROIT,MI,,US,,,,,
,visa,,,DETROIT BEACH,MI,,US,,,,,
,visa,,,DETROIT,MI,,US,,,,,
,visa,,,DETROIT,MI,,US,,,,,
,visa,,,DETROIT,MI,,US,,,,,
,visa,,,DETROIT,MI,,US,,,,,
,visa,,,DETROIT,MI,,US,,,,,
,visa,,,DETROIT,MI,,US,,,,,
,visa,,,DETROIT,MI,,US,,,,,
,visa,,,DETROIT,MI,,US,,,,,
,visa,,,DETROIT,MI,,US,,,,,
,visa,,,DETROIT,MI,,US,,,,,
,visa,,,DETROIT,MI,,US,,,,,
,visa,,,DETROIT,MI,,US,,,,,
,visa,,,DETROIT,MI,,US,,,,,
,visa,,,DETROIT,MI,,US,,,,,
,visa,,,DETROIT,MI,,US,,,,,
,visa,,,DETROIT,MI,,US,,,,,
,visa,,,DETROIT,MI,,US,,,,,
,visa,,,DETRIOT,MI,,US,,,,,
,visa,,,DETROIT,MI,,US,,,,,
https://www.walgreens.com/locator/walgreens-6001+w+outer+dr-detroit-mi-48235/id=21206,walgreens,Walgreens,,Detroit,MI,,US,+1 313-966-2979,https://www.walgreens.com/locator/walgreens-6001+w+outer+dr-detroit-mi-48235/id=21206,Mo-Fr 09:00-18:00; Sa-Su 00:00-24:00,Walgreens,Q1591889
https://locations.wendys.com/#9251999,wendys,"Wendy's 7 Mile in Detroit, MI",,Detroit,MI,,US,+1 313-864-3577,https://locations.wendys.com/united-states/mi/detroit/14401-w-7-mile,"Mo-Su 06:30-10:30,09:00-21:00",Wendy's,Q550258
2e4c83f594def16081afda5128d79941,western_union,PIED PIPER LIQUOR,,Detroit,MI,,US,+1 313-863-7676,https://location.westernunion.com/us/mi/detroit/2e4c83f594def16081afda5128d79941,Mo-Su 09:00-23:30,Western Union,Q861042
6ec43c2705568927c9f1b1a944bb8cb2,western_union,LINDSAY LIQUOR AND CHECKS,,Detroit,MI,,US,+1 313-838-9901,https://location.westernunion.com/us/mi/detroit/6ec43c2705568927c9f1b1a944bb8cb2,Mo-Sa 09:00-02:00; Su 10:00-02:00,Western Union,Q861042
4e6ad7a8f95833053774e7239bc88ff2,western_union,ADVANCE AMERICA #01385,,Detroit,MI,,US,+1 313-342-1060,https://location.westernunion.com/us/mi/detroit/4e6ad7a8f95833053774e7239bc88ff2,Mo-Th 10:00-18:00; Fr 09:00-18:00; Sa 10:00-14:00,Western Union,Q861042
