Ref,Spider,Name,Address,City,State,Zipcode,Country,Phone,Website,Hours,Brand,WikiData
2128,autozone_us,AutoZone Auto Parts Detroit,,Detroit,MI,,US,+1 313-369-1527,https://www.autozone.com/locations/mi/detroit/20550-mound-rd.html,Mo-Sa 08:00-21:00; Su 08:30-20:00,AutoZone,Q4826087
https://locators.bankofamerica.com/mi/detroit/atm-detroit-111119.html,bankofamerica,Bank of America Walk-Up ATM | Belmont Shopping Center,,Detroit,MI,,US,+1 844-401-8500,https://locators.bankofamerica.com/mi/detroit/atm-detroit-111119.html,,Bank of America,Q487907
173689,bluerhino,Family Dollar #05413,,Detroit,MI,,US,+1 313-368-1612,,,Blue Rhino,Q65681213
121560,bp,BP,,Detroit,MI,,US,+1 313-891-0032,,,BP,Q152057
126431,bp,BP,,Detroit,MI,,US,+1 313-892-3778,,,BP,Q152057
50124994130004823400100000000000,bp,BP,,Detroit,MI,,US,+1 313-526-2114,,24/7,BP,Q152057
6796,burgerking,Burger King,,Detroit,MI,,US,+1 313-209-7683,https://www.bk.com/store-locator/store/restaurant_3883,Mo-Su 07:00-21:00,Burger King,Q177054
2039307,chase_us,Van Dyke Eight Mile - New branch - Newly renovated,,Detroit,MI,,US,+1 313-368-0350,https://locator.chase.com/mi/detroit/20500-van-dyke-st,Mo-Fr 09:00-17:00; Sa 09:00-14:00,Chase,Q524629
8082,cvs_us,CVS Pharmacy,,Detroit,MI,,US,+1 313-368-3800,https://www.cvs.com/store-locator/detroit-mi-pharmacies/19900-van-dyke-detroit-mi-48234/storeid=8082,Mo-Su 09:00-21:00,CVS Pharmacy,Q2078880
6224,dollartree,DollarTree,,Detroit,MI,,US,+1 313-826-3038,,Mo-Sa 09:00-21:00; Su 09:00-20:00,Dollar Tree,Q5289230
200330644,exxonmobil,SEVEN & VAN DYKE,,DETROIT,MI,,US,+1 313-366-2660,https://www.exxon.com/en/find-station/exxon-detroit-mi-sevenvandyke-200330644,24/7,Exxon,Q109675651
200326597,exxonmobil,BEEDY ENTERPRISES INC.,,DETROIT,MI,,US,,https://www.exxon.com/en/find-station/mobil-detroit-mi-beedyenterprisesinc-200326597,Mo-Su 06:00-00:00,Mobil,Q109676002
https://stores.footlocker.com/mi/detroit/1960-e-eight-mile-road-7013.html,footlocker,"Foot Locker in Detroit: Detroit, Michigan | Approved | Own It",,Detroit,MI,,US,+1 313-891-0210,https://stores.footlocker.com/mi/detroit/1960-e-eight-mile-road-7013.html,Mo-Sa 10:00-19:00; Su 11:00-18:00,Foot Locker,Q63335
20912,h_r_block,H&R Block,,Detroit,MI,,US,+1 313-893-4984,https://www.hrblock.com/local-tax-offices/michigan/detroit/belmont-shopping-center/20912/,,H&R Block,Q5627799
https://locations.kfc.com/#11249421,kfc,Chicken Nuggets Near Detroit,,Detroit,MI,,US,,https://locations.kfc.com/mi/detroit/2600-e-8-mile-rd/chickennugget,Mo-Sa 10:30-23:00; Su 11:00-23:00,KFC,Q524757
157667,marathon_petroleum_us,Zoom Fuel Inc,,DETROIT,MI,,US,+1 313-368-5966,,,Marathon,Q458363
0805469400,sunoco_us,Sunoco,,DETROIT,MI,,US,+1 313-368-8292,,24/7,Sunoco,Q1423218
0664297900,sunoco_us,Sunoco,,DETROIT,MI,,US,,,,Sunoco,Q1423218
0208367300,sunoco_us,Sunoco,,DETROIT,MI,,US,+1 248-355-5321,,24/7,Sunoco,Q1423218
0128058500,sunoco_us,Sunoco,,DETROIT,MI,,US,+1 313-605-9240,,24/7,Sunoco,Q1423218
8718,tmobile_us,8 Mile Rd & Dequindre,,Detroit,MI,,US,+1 313-893-6897,https://www.t-mobile.com/store-locator/mi/detroit/8-mile-rd-dequindre,,T-Mobile,Q3511885
1373985,usps,MOUNT ELLIOTT,,DETROIT,MI,,US,+1 313-366-1197,,Mo-Fr 08:00-17:00; Sa 10:00-14:00,United States Postal Service,Q668687
4823400051,usps_collection_boxes,USPS COLLECTION BOX - BLUE BOX,1900 E 8 MILE RD,DETROIT,MI,,US,,,,United States Postal Service,Q668687
4823400052,usps_collection_boxes,USPS COLLECTION BOX - BLUE BOX,2300 E 8 MILE RD,DETROIT,MI,,US,,,,United States Postal Service,Q668687
4823400021,usps_collection_boxes,USPS COLLECTION BOX - BLUE BOX,4777 E OUTER DR,DETROIT,MI,,US,,,,United States Postal Service,Q668687
4823400025,usps_collection_boxes,USPS COLLECTION BOX - BLUE BOX,4420 E OUTER DR,DETROIT,MI,,US,,,,United States Postal Service,Q668687
4823400101,usps_collection_boxes,USPS COLLECTION BOX - PO LOBBY,5511 E 7 MILE RD,DETROIT,MI,,US,,,,United States Postal Service,Q668687
4823400062,usps_collection_boxes,USPS COLLECTION BOX - BLUE BOX,5511 E 7 MILE RD,DETROIT,MI,,US,,,,United States Postal Service,Q668687
4823400061,usps_collection_boxes,USPS COLLECTION BOX - BLUE BOX,5511 E 7 MILE RD,DETROIT,MI,,US,,,,United States Postal Service,Q668687
4823400028,usps_collection_boxes,USPS COLLECTION BOX - BLUE BOX,20500 VAN DYKE ST,DETROIT,MI,,US,,,,United States Postal Service,Q668687
4823400037,usps_collection_boxes,USPS COLLECTION BOX - BLUE BOX,18500 DEQUINDRE ST,DETROIT,MI,,US,,,,United States Postal Service,Q668687
4823400048,usps_collection_boxes,USPS COLLECTION BOX - BLUE BOX,1651 E OUTER DR,DETROIT,MI,,US,,,,United States Postal Service,Q668687
,visa,,,DETROIT,MI,,US,,,,,
,visa,,,DETROIT,MI,,US,,,,,
,visa,,,DETROIT,MI,,US,,,,,
,visa,,,DETROIT BEACH,MI,,US,,,,,
,visa,,,DETRIOT,MI,,US,,,,,
,visa,,,DETROIT,MI,,US,,,,,
,visa,,,DETROIT,MI,,US,,,,,
,visa,,,DETROIT,MI,,US,,,,,
,visa,,,DETROIT,MI,,US,,,,,
,visa,,,DETROIT BEACH,MI,,US,,,,,
,visa,,,DETROIT BEACH,MI,,US,,,,,
,visa,,,DETROIT,MI,,US,,,,,
,visa,,,DETROIT,MI,,US,,,,,
,visa,,,DETROIT,MI,,US,,,,,
,visa,,,DETROIT,MI,,US,,,,,
,visa,,,DETROIT,MI,,US,,,,,
,visa,,,DETROIT,MI,,US,,,,,
,visa,,,DETROIT,MI,,US,,,,,
,visa,,,DETROIT BEACH,MI,,US,,,,,
,visa,,,DETROIT,MI,,US,,,,,
,visa,,,DETROIT,MI,,US,,,,,
,visa,,,DETROIT,MI,,US,,,,,
,visa,,,DETROIT,MI,,US,,,,,
,visa,,,DETROIT,MI,,US,,,,,
,visa,,,DETROIT,MI,,US,,,,,
,visa,,,DETROIT,MI,,US,,,,,
,visa,,,DET,MI,,US,,,,,
,visa,,,DETROIT,MI,,US,,,,,
,visa,,,DETROIT,MI,,US,,,,,
,visa,,,DETROIT,MI,,US,,,,,
,visa,,,DETROIT,MI,,US,,,,,
,visa,,,DETROIT,MI,,US,,,,,
,visa,,,DETROIT,MI,,US,,,,,
,visa,,,DETROIT,MI,,US,,,,,
,visa,,,DETROIT,MI,,US,,,,,
,visa,,,DETROIT,MI,,US,,,,,
,visa,,,DETROIT BEACH,MI,,US,,,,,
,visa,,,DETROIT,MI,,US,,,,,
,visa,,,DETROIT,MI,,US,,,,,
,visa,,,DETROT,MI,,US,,,,,
,visa,,,DETROIT,MI,,US,,,,,
,visa,,,DETROIT,MI,,US,,,,,
,visa,,,DETROIT,MI,,US,,,,,
,visa,,,DETROIT,MI,,US,,,,,
,visa,,,DETROIT,MI,,US,,,,,
,visa,,,DETROIT,MI,,US,,,,,
,visa,,,DETROIT,MI,,US,,,,,
,visa,,,DETROIT BEACH,MI,,US,,,,,
,visa,,,DETROIT,MI,,US,,,,,
,visa,,,DETROIT,MI,,US,,,,,
,visa,,,DETROIT,MI,,US,,,,,
,visa,,,DETROIT BEACH,MI,,US,,,,,
,visa,,,DETROIT,MI,,US,,,,,
,visa,,,DETROIT,MI,,US,,,,,
,visa,,,DETROIT,MI,,US,,,,,
,visa,,,DETROIT,MI,,US,,,,,
,visa,,,DETROIT,MI,,US,,,,,
,visa,,,DETROIT,MI,,US,,,,,
,visa,,,DETROIT,MI,,US,,,,,
,visa,,,DETROIT,MI,,US,,,,,
,visa,,,DETROIT,MI,,US,,,,,
,visa,,,DETROIT,MI,,US,,,,,
,visa,,,DETROIT,MI,,US,,,,,
,visa,,,DETROIT,MI,,US,,,,,
,visa,,,DETROIT,MI,,US,,,,,
,visa,,,DETROIT BEACH,MI,,US,,,,,
,visa,,,DETROIT BEACH,MI,,US,,,,,
,visa,,,DETROIT BEACH,MI,,US,,,,,
,visa,,,DETROIT,MI,,US,,,,,
,visa,,,DETROIT BEACH,MI,,US,,,,,
,visa,,,DETROIT,MI,,US,,,,,
,visa,,,DETROIT,MI,,US,,,,,
,visa,,,DETROIT,MI,,US,,,,,
,visa,,,DETROIT,MI,,US,,,,,
,visa,,,DETROIT,MI,,US,,,,,
,visa,,,DETROIT,MI,,US,,,,,
,visa,,,DETROIT,MI,,US,,,,,
,visa,,,DETROIT,MI,,US,,,,,
,visa,,,DETROIT,MI,,US,,,,,
,visa,,,DETROIT BEACH,MI,,US,,,,,
,visa,,,DETROIT,MI,,US,,,,,
,visa,,,DETROIT,MI,,US,,,,,
,visa,,,DETROIT,MI,,US,,,,,
,visa,,,DETROIT,MI,,US,,,,,
,visa,,,DETROIT,MI,,US,,,,,
,visa,,,DETROIT BEACH,MI,,US,,,,,
,visa,,,DETROIT,MI,,US,,,,,
,visa,,,DETROIT,MI,,US,,,,,
,visa,,,DETROIT,MI,,US,,,,,
,visa,,,DETROIT,MI,,US,,,,,
,visa,,,DETROIT,MI,,US,,,,,
,visa,,,DETROIT,MI,,US,,,,,
,visa,,,DETROIT,MI,,US,,,,,
,visa,,,DETROIT,MI,,US,,,,,
,visa,,,DETROIT,MI,,US,,,,,
,visa,,,DETROIT,MI,,US,,,,,
,visa,,,OAK PARK,MI,,US,,,,,
,visa,,,DETROIT BEACH,MI,,US,,,,,
6ac5e4c7d91f6314ca56b0433e6b70c8,western_union,7 VAN PARTY STORE,,Detroit,MI,,US,+1 313-369-2185,https://location.westernunion.com/us/mi/detroit/6ac5e4c7d91f6314ca56b0433e6b70c8,Mo-Su 09:00-23:00,Western Union,Q861042
