Ref,Spider,Name,Address,City,State,Zipcode,Country,Phone,Website,Hours,Brand,WikiData
4596,anytime_fitness,Anytime Fitness,,Westminster,MD,,US,+1 443-241-9131,https://www.anytimefitness.com/gyms/4596/westminster-md-21158/,,Anytime Fitness,Q4778364
194741,bluerhino,Brewer's Market Inc. #52080,,Westminster,MD,,US,+1 410-346-7622,,,Blue Rhino,Q65681213
155283,bluerhino,Walgreens #13457,,Westminster,MD,,US,+1 410-848-0513,,,Blue Rhino,Q65681213
13565,burgerking,Burger King,,WESTMINSTER,MD,,US,+1 410-840-9975,https://www.bk.com/store-locator/store/restaurant_7947,Mo-Sa 06:00-22:00; Su 07:00-22:00,Burger King,Q177054
https://www.edwardjones.com/us-en/financial-advisor/dylan-vasbinder,edwardjones,Dylan J Vasbinder,,Westminster,MD,,US,+1 443-952-8001,https://www.edwardjones.com/us-en/financial-advisor/dylan-vasbinder,,Edward Jones,Q5343830
md_westminster_breakfast-490-meadow-creek-dr-3278,ihop,IHOP Breakfast Restaurants Near You at 490 Meadow Creek Dr,,Westminster,MD,,US,+1 410-857-2998,https://restaurants.ihop.com/en-us/md/westminster/breakfast-490-meadow-creek-dr-3278,,IHOP,Q1185675
81502,ritasitalianice,Ritaâ€™s of Westminster MD,,Westminster,MD,,US,+1 410-861-5233,https://www.ritasice.com/location/ritas-of-westminster-md/,,Rita's Italian Ice,Q7336456
https://local.pharmacy.safeway.com/#5673303,safeway,Safeway Pharmacy,,Westminster,MD,,US,+1 410-871-1203,https://local.pharmacy.safeway.com/safeway/md/westminster/444-wmc-dr--116.html,Mo-Fr 09:00-21:00; Sa 09:00-19:00; Su 10:00-16:00,Safeway,Q1508234
https://local.safeway.com/#5604161,safeway,Safeway,,Westminster,MD,,US,+1 410-871-1200,https://local.safeway.com/safeway/md/westminster/444-wmc-dr--116.html,"Mo-Fr 06:00-23:00,09:00-21:00; Sa 06:00-23:00,09:00-19:00; Su 06:00-23:00,10:00-16:00",Safeway,Q1508234
https://restaurants.subway.com/#14904221,subway,Subway College Square,,Westminster Carroll,MD,,US,+1 410-751-6903,https://restaurants.subway.com/united-states/md/westminster/444-wmc-dr,Mo-Sa 09:00-21:30; Su 09:00-21:00,Subway,Q244457
,visa,,,WESTMINSTER,MD,,US,,,,,
,visa,,,WESTMINSTER,MD,,US,,,,,
,visa,,,WESTMINSTER,MD,,US,,,,,
,visa,,,WESTMINSTER,MD,,US,,,,,
,visa,,,WESTMINSTER,MD,,US,,,,,
,visa,,,WESTMINSTER,MD,,US,,,,,
,visa,,,WESTMINISTER,MD,,US,,,,,
,visa,,,WESTMINSTER,MD,,US,,,,,
,visa,,,WESTMINSTER,MD,,US,,,,,
,visa,,,WESTMINISTER,MD,,US,,,,,
,visa,,,WESTMINSTER,MD,,US,,,,,
,visa,,,WESTMINSTER,MD,,US,,,,,
https://www.walgreens.com/locator/walgreens-500+meadow+creek+dr-westminster-md-21158/id=13457,walgreens,Walgreens,,Westminster,MD,,US,+1 410-848-0513,https://www.walgreens.com/locator/walgreens-500+meadow+creek+dr-westminster-md-21158/id=13457,Mo-Su 07:00-22:00,Walgreens,Q1591889
