Ref,Spider,Name,Address,City,State,Zipcode,Country,Phone,Website,Hours,Brand,WikiData
2870,anytime_fitness,Anytime Fitness,,Cornwall,NY,,US,+1 845-237-7016,https://www.anytimefitness.com/gyms/2870/cornwall-ny-12518/,,Anytime Fitness,Q4778364
52260,citi,ATM CVS,,Cornwall,NY,,US,,,,Citibank,Q857063
5053,cvs_us,CVS Pharmacy,,Cornwall,NY,,US,+1 845-534-2506,https://www.cvs.com/store-locator/cornwall-ny-pharmacies/65-quaker-ave-cornwall-ny-12518/storeid=5053,Mo-Su 07:00-22:00,CVS Pharmacy,Q2078880
30784,dollar_general,Dollar General,,Cornwall,NY,,US,+1 615-855-4000,https://www.dollargeneral.com/store-directory/ny/cornwall/30784,,Dollar General,Q145168
332132,dunkin_us,Dunkin',,Cornwall,NY,,US,+1 845-534-4300,https://locations.dunkindonuts.com/en/ny/cornwall/45-quaker-ave/332132,Mo-Su 05:00-20:00,Dunkin',Q847743
https://www.edwardjones.com/us-en/financial-advisor/bob-priore,edwardjones,Bob Priore,,Cornwall,NY,,US,+1 845-534-0181,https://www.edwardjones.com/us-en/financial-advisor/bob-priore,,Edward Jones,Q5343830
7356,fresenius_kidney_care_us,Fresenius Kidney Care St. Lukes NY,,Cornwall,NY,,US,+1 800-881-5101,https://www.freseniuskidneycare.com/dialysis-centers/new-york/7356,Mo-Sa 05:00-23:00,,
https://restaurants.subway.com/#14894522,subway,Subway,,Cornwall Orange,NY,,US,+1 845-534-4012,https://restaurants.subway.com/united-states/ny/cornwall/55-quaker-ave,Mo-Su 08:00-21:00,Subway,Q244457
1359297,usps,CORNWALL,,CORNWALL,NY,,US,+1 845-534-9801,,Mo-Fr 09:00-17:00; Sa 09:00-14:00,United States Postal Service,Q668687
1251800003,usps_collection_boxes,USPS COLLECTION BOX - BLUE BOX,21 LAUREL AVE,CORNWALL,NY,,US,,,,United States Postal Service,Q668687
1251800002,usps_collection_boxes,USPS COLLECTION BOX - BLUE BOX,33 QUAKER AVE,CORNWALL,NY,,US,,,,United States Postal Service,Q668687
1251800011,usps_collection_boxes,USPS COLLECTION BOX - PO LOBBY,33 QUAKER AVE LBBY SLOT,CORNWALL,NY,,US,,,,United States Postal Service,Q668687
1251800013,usps_collection_boxes,USPS COLLECTION BOX - PO LOBBY,33 QUAKER AVE,CORNWALL,NY,,US,,,,United States Postal Service,Q668687
1251800009,usps_collection_boxes,USPS COLLECTION BOX - BLUE BOX,1 MANOR DR,CORNWALL,NY,,US,,,,United States Postal Service,Q668687
1251800007,usps_collection_boxes,USPS COLLECTION BOX - BLUE BOX,295 MAIN ST,CORNWALL,NY,,US,,,,United States Postal Service,Q668687
1251800010,usps_collection_boxes,USPS COLLECTION BOX - BLUE BOX,183 MAIN ST,CORNWALL,NY,,US,,,,United States Postal Service,Q668687
,visa,,,BEACON,NY,,US,,,,,
,visa,,,CORNWALL,NY,,US,,,,,
,visa,,,CORNWALL,NY,,US,,,,,
,visa,,,CORNWALL,NY,,US,,,,,
,visa,,,CORNWALL,NY,,US,,,,,
,visa,,,CORNWALL,NY,,US,,,,,
,visa,,,CORNWALL,NY,,US,,,,,
,visa,,,CORNWALL,NY,,US,,,,,
,visa,,,CORNWALL,NY,,US,,,,,
,visa,,,CORNWALL,NY,,US,,,,,
