Ref,Spider,Name,Address,City,State,Zipcode,Country,Phone,Website,Hours,Brand,WikiData
216,ab_gr,ΑΒ Βασιλόπουλος,"Κ. Καραμανλή, 722 00 ΙΕΡΑΠΕΤΡΑ, Greece",ΙΕΡΑΠΕΤΡΑ,,,GR,,https://www.ab.gr/storedetails/ierapetra-k-karamanli,,AB,Q4721807
G184,bp,CHATZIMARKAKI CH.-EGGLEZAKIS M,,IERAPETRA CRETA,,,GR,+30 2842 028686,,Mo-Su 07:00-21:00,BP,Q152057
721,lidl_gr,Lidl,,Ierapetra,,,GR,,,Mo-Fr 08:00-21:00; Sa 08:00-20:00,Lidl,Q151954
69124419,moneygram,COOPERATIVE BANK OF CHANIA,,IERAPETRA,,,GR,+30 2842 090462,,Mo-Fr 08:00-14:00; Sa-Su 00:00-24:00,MoneyGram,Q1944412
72348897,moneygram,MEHMOOD ALLAX TARIQ - TRUSTLINK,,IERAPETRA,,,GR,+30 2842 023393,,Mo-Su 08:30-21:30,MoneyGram,Q1944412
72687820,moneygram,PAMZAN - IERAPETRA,,IERAPETRA,,,GR,+30 697 777 1786,,Mo-Su 08:00-24:00,MoneyGram,Q1944412
72196049,moneygram,MADDENA  RESTAURANT - IERAPETRA,,IERAPETRA,,,GR,+30 21 5505 3907,,Mo-Su 08:00-23:00,MoneyGram,Q1944412
73950996,moneygram,ISHFAQ HUSSAIN - IERAPETRA,,IERAPETRA,,,GR,+30 695 520 5558,,Mo-Su 06:30-23:30,MoneyGram,Q1944412
74069873,moneygram,HUSSAIN MAHMOOD - IERAPETRA,,IERAPETRA,,,GR,+30 2842 041429,,Mo-Su 06:30-23:30,MoneyGram,Q1944412
74110748,moneygram,MADANI - IERAPETRA,,IERAPETRA,,,GR,+30 694 165 5340,,Mo-Su 08:00-24:00,MoneyGram,Q1944412
74648401,moneygram,ACS IERAPETRA,,IERAPETRA,,,GR,+30 2842 080300,,Mo-Fr 08:00-20:00; Sa 08:00-15:00; Su 00:00-24:00,MoneyGram,Q1944412
74748741,moneygram,SAJJAD MOHAMMAD,,IERAPETRA,,,GR,+30 695 598 3535,,Mo-Su 08:00-23:00,MoneyGram,Q1944412
74681769,moneygram,ITSECTOR E.E.,,IERAPETRA,,,GR,+30 2842 089099,,Mo-Fr 08:00-21:00; Sa 08:00-16:00; Su 00:00-24:00,MoneyGram,Q1944412
,visa,,,IRAKLIO CRETE,,,GR,,,,,
,visa,,,IERAPETRA,,,GR,,,,,
,visa,,,IERAPETRA,,,GR,,,,,
,visa,,,IERAPETRA,,,GR,,,,,
,visa,,,LASITHI,,,GR,,,,,
,visa,,,LASITHI,,,GR,,,,,
,visa,,,LASITHI,,,GR,,,,,
,visa,,,IERAPETRA,,,GR,,,,,
,visa,,,IERAPETRA,,,GR,,,,,
,visa,,,IERAPETRA,,,GR,,,,,
