Ref,Spider,Name,Address,City,State,Zipcode,Country,Phone,Website,Hours,Brand,WikiData
RED0009900,australia_post_au,,,KYABRAM,VIC,,AU,,,,Australia Post,Q1142936
RED0009899,australia_post_au,,,KYABRAM,VIC,,AU,,,,Australia Post,Q1142936
RED0009901,australia_post_au,,,KYABRAM,VIC,,AU,,,,Australia Post,Q1142936
RED0009903,australia_post_au,,,KYABRAM,VIC,,AU,,,,Australia Post,Q1142936
RED0009898,australia_post_au,,,KYABRAM,VIC,,AU,,,,Australia Post,Q1142936
RED0009902,australia_post_au,,,KYABRAM,VIC,,AU,,,,Australia Post,Q1142936
336241_PO,australia_post_au,KYABRAM POST SHOP,,KYABRAM,VIC,,AU,+61 131318,,,Australia Post,Q1142936
RED0017831,australia_post_au,,,KYABRAM,VIC,,AU,,,,Australia Post,Q1142936
RED0009904,australia_post_au,,,KYABRAM,VIC,,AU,,,,Australia Post,Q1142936
2673,bakers_delight,Bakers Delight Kyabram,,Kyabram,VIC,,AU,+61 3 5852 2699,https://www.bakersdelight.com.au/bakery-locator/kyabram/,Mo-Fr 07:00-19:00; Sa-Su 07:00-16:00,Bakers Delight,Q4849261
0875,bp,BP KYABRAM,,KYABRAM,VIC,,AU,55 441 0600,,Mo-Su 06:00-21:00,BP,Q152057
241386,cellarbrations_au,CELLARBRATIONS AT KYABRAM,,KYABRAM,VIC,,AU,+61 468 577 297,,Mo-Sa 09:30-20:00; Su 10:00-19:30,Cellarbrations,Q109807592
351601,commonwealth_bank_au,Kyabram,,Kyabram,VIC,,AU,,,,Commonwealth Bank,Q285328
532,first_national_real_estate_au,First National Real Estate McConnell,,Kyabram,VIC,,AU,+61 3 5853 2588,https://www.firstnational.com.au/pages/real-estate/office/532/first-national-real-estate-mcconnell,,First National Real Estate,Q122888198
3212,petstock_au,Petstock Country Kyabram,,Kyabram,VIC,,AU,+61 3 5852 2136,https://www.petstock.com.au/pages/store/petstock-country-kyabram,Mo-Fr 09:00-17:30; Sa 09:00-16:00; Su 09:00-14:00,Petstock,Q106540728
3912,terry_white_chemmart_au,TerryWhite Chemmart Kyabram,,Kyabram,VIC,,AU,+61 3 5852 1023,https://terrywhitechemmart.com.au/stores/terrywhite-chemmart-kyabram,Mo-Fr 09:00-18:00; Sa 09:00-12:30,Terry White Chemmart,Q24089773
,visa,,,KYABRUM,VIC,,AU,,,,,
,visa,,,KYABRAM,VIC,,AU,,,,,
,visa,,,KYABRAM,VIC,,AU,,,,,
9fc34845301696ba368612cd6884fd00,western_union,AUSTRALIA POST,,Kyabram,VIC,,AU,+61 1800 501 500,https://location.westernunion.com/au/vic/kyabram/9fc34845301696ba368612cd6884fd00,Mo-Fr 09:00-17:00; Sa 09:00-12:30,Western Union,Q861042
