Ref,Spider,Name,Address,City,State,Zipcode,Country,Phone,Website,Hours,Brand,WikiData
https://locations.baskinrobbins.com/ar/dumas/701-highway-65-s-346649-br,baskin_robbins_us,Baskin-Robbinsâ„¢,,Dumas,AR,,US,+1 870-382-2165,https://locations.baskinrobbins.com/ar/dumas/701-highway-65-s-346649-br,Mo-Su 11:00-22:00,Baskin-Robbins,Q584601
165083,bluerhino,Family Dollar #11229,,Dumas,AR,,US,+1 870-619-2240,,,Blue Rhino,Q65681213
3100,h_r_block,H&R Block,,Dumas,AR,,US,+1 870-382-4098,https://www.hrblock.com/local-tax-offices/arkansas/dumas/395-hwy-65-s/3100/,,H&R Block,Q5627799
1418,mightyflame,DUMAS MART,,DUMAS,AR,,US,+1 347-901-8524,,,Mighty Flame,
1642,mightyflame,THE FILLING STATION #23,,Dumas,AR,,US,+1 870-382-2165,,,Mighty Flame,
https://locations.oreillyauto.com/ar/dumas/check-engine-light-testing-1957.html,oreilly,Your Dumas O'Reilly Auto Parts Store,,Dumas,AR,,US,+1 870-382-2010,https://locations.oreillyauto.com/ar/dumas/check-engine-light-testing-1957.html,Mo-Sa 07:30-21:00; Su 09:00-19:00,O'Reilly Auto Parts,Q7071951
https://locations.oreillyauto.com/ar/dumas/wiper-installation-1957.html,oreilly,Your Dumas O'Reilly Auto Parts Store,,Dumas,AR,,US,+1 870-382-2010,https://locations.oreillyauto.com/ar/dumas/wiper-installation-1957.html,Mo-Sa 07:30-21:00; Su 09:00-19:00,O'Reilly Auto Parts,Q7071951
https://locations.oreillyauto.com/ar/dumas/battery-testing-1957.html,oreilly,Your Dumas O'Reilly Auto Parts Store,,Dumas,AR,,US,+1 870-382-2010,https://locations.oreillyauto.com/ar/dumas/battery-testing-1957.html,Mo-Sa 07:30-21:00; Su 09:00-19:00,O'Reilly Auto Parts,Q7071951
https://locations.oreillyauto.com/ar/dumas/autopartes-1957.html,oreilly,Tu tienda O'Reilly Auto Parts en Dumas,,Dumas,AR,,US,+1 870-382-2010,https://locations.oreillyauto.com/ar/dumas/autopartes-1957.html,Mo-Sa 07:30-21:00; Su 09:00-19:00,O'Reilly Auto Parts,Q7071951
106,piggly_wiggly_us,Piggly Wiggly,,Dumas,AR,,US,+1 870-382-6339,https://www.foodgiant.com,,Piggly Wiggly,Q3388303
ar_dumas_705-hwy-65-s,pizza_hut_us,705 Hwy. 65 S.,,Dumas,AR,,US,+1 870-382-2371,https://locations.pizzahut.com/ar/dumas/705-hwy-65-s,,Pizza Hut,Q191615
2489,snap_fitness,"Dumas, AR",805 Highway 165 E,Dumas,AR,,US,+1 870-493-3343,https://www.snapfitness.com/us/gyms/dumas-ar,24/7,Snap Fitness,Q7547254
https://restaurants.subway.com/#14903347,subway,Subway,,Dumas Desha,AR,,US,+1 870-382-4782,https://restaurants.subway.com/united-states/ar/dumas/397-state-hwy-65-s,Mo-Su 08:00-21:00,Subway,Q244457
056495,uhaul,Ashleys Treasures,507 E Choctaw,Dumas,AR,,US,+1 870-382-0090,,Mo-Fr 00:00-15:00,U-Haul,Q7862902
1361418,usps,DUMAS,,DUMAS,AR,,US,+1 870-382-4773,,Mo-Fr 08:30-16:30,United States Postal Service,Q668687
7163900009,usps_collection_boxes,USPS COLLECTION BOX - BLUE BOX,358 HIGHWAY 65 S,DUMAS,AR,,US,,,,United States Postal Service,Q668687
7163900013,usps_collection_boxes,USPS COLLECTION BOX - PO LOBBY,320 N MAIN ST,DUMAS,AR,,US,,,,United States Postal Service,Q668687
7163900015,usps_collection_boxes,USPS COLLECTION BOX - BLUE BOX,320 N MAIN ST,DUMAS,AR,,US,,,,United States Postal Service,Q668687
7163900020,usps_collection_boxes,USPS COLLECTION BOX - PO LOBBY,320 N MAIN ST,DUMAS,AR,,US,,,,United States Postal Service,Q668687
7163900021,usps_collection_boxes,USPS COLLECTION BOX - PO LOBBY,320 N MAIN ST,DUMAS,AR,,US,,,,United States Postal Service,Q668687
7163900022,usps_collection_boxes,USPS COLLECTION BOX - PO LOBBY,320 N MAIN ST,DUMAS,AR,,US,,,,United States Postal Service,Q668687
,visa,,,DUMAS,AR,,US,,,,,
,visa,,,DUMAS,AR,,US,,,,,
,visa,,,DUMAS,AR,,US,,,,,
,visa,,,DUMAS,AR,,US,,,,,
,visa,,,DUMAS,AR,,US,,,,,
,visa,,,DUMAS,AR,,US,,,,,
,visa,,,DUMAS,AR,,US,,,,,
,visa,,,DUMAS,AR,,US,,,,,
,visa,,,DUMAS,AR,,US,,,,,
,visa,,,DUMAS,AR,,US,,,,,
4d1e34ec3df40bab08e442f014ce6be2,western_union,CASH'S #4470,,Dumas,AR,,US,+1 870-382-3262,https://location.westernunion.com/us/ar/dumas/4d1e34ec3df40bab08e442f014ce6be2,Mo-Su 06:00-22:00,Western Union,Q861042
599ff5cee1e5a7889580ec206bf2d07f,western_union,LOS ANTOJITOS LLC,,Dumas,AR,,US,+1 870-382-0829,https://location.westernunion.com/us/ar/dumas/599ff5cee1e5a7889580ec206bf2d07f,Mo-Su 07:00-22:00,Western Union,Q861042
01b24e02da0a4ea320220fb004c2ae6c,western_union,LOS ANTOJITOS LLC,,Dumas,AR,,US,+1 870-382-0829,https://location.westernunion.com/us/ar/dumas/01b24e02da0a4ea320220fb004c2ae6c,Mo-Su 07:00-22:00,Western Union,Q861042
