Ref,Spider,Name,Address,City,State,Zipcode,Country,Phone,Website,Hours,Brand,WikiData
4532,anytime_fitness,Anytime Fitness,,Poplar Grove,IL,,US,+1 815-765-9393,https://www.anytimefitness.com/gyms/4532/poplar-grove-il-61065/,,Anytime Fitness,Q4778364
177449,bluerhino,"Poplar Grove Pacemaker, LLC #8424",,Poplar Grove,IL,,US,+1 815-765-9108,,,Blue Rhino,Q65681213
15682,dollar_general,Dollar General,,Poplar Grove,IL,,US,+1 331-425-8765,https://www.dollargeneral.com/store-directory/il/poplar-grove/15682,Mo-Su 08:00-21:00,Dollar General,Q145168
200315147,exxonmobil,MR QUICKS,,POPLAR GROVE,IL,,US,+1 815-765-9108,https://www.exxon.com/en/find-station/mobil-poplargrove-il-mrquicks-200315147,Mo-Su 04:30-22:00,Mobil,Q109676002
https://local.fedex.com/#25228820,fedex,,,Poplar Grove,IL,,US,+1 800-463-3339,https://local.fedex.com/en-us/il/poplar-grove/rfdaf,,FedEx,Q459477
13648,h_r_block,H&R Block,,Poplar Grove,IL,,US,+1 815-765-3888,https://www.hrblock.com/local-tax-offices/illinois/poplar-grove/13506-julie-dr/13648/,,H&R Block,Q5627799
160606,marathon_petroleum_us,J AND D COUNTRYSIDE MARA,,POPLAR GROVE,IL,,US,+1 815-765-3729,,,Marathon,Q458363
poplar-grove-pro-hdwe-38370,ppgpaints,POPLAR GROVE PRO HDWE  *,,"Poplar Grove, ",IL,,US,,https://www.ppgpaints.com/store-locator/us/illinois/poplar-grove-paint-stores/poplar-grove-pro-hdwe-38370,,PPG Paints,Q83891559
https://restaurants.subway.com/#14910421,subway,Subway,,Poplar Grove Boone,IL,,US,+1 815-765-1938,https://restaurants.subway.com/united-states/il/poplar-grove/13520-julie-dr,Mo-Su 09:00-21:30,Subway,Q244457
1378036,usps,POPLAR GROVE,,POPLAR GROVE,IL,,US,+1 815-765-1572,,"Mo-Fr 10:30-13:30,14:00-17:00; Sa 09:00-13:00",United States Postal Service,Q668687
6106500003,usps_collection_boxes,USPS COLLECTION BOX - BLUE BOX,13521 IL ROUTE 76,POPLAR GROVE,IL,,US,,,,United States Postal Service,Q668687
6106500006,usps_collection_boxes,USPS COLLECTION BOX - BLUE BOX,13400 STATE ROUTE 76,POPLAR GROVE,IL,,US,,,,United States Postal Service,Q668687
6106500007,usps_collection_boxes,USPS COLLECTION BOX - PO LOBBY,105 E BRITNIE DR,POPLAR GROVE,IL,,US,,,,United States Postal Service,Q668687
6106500001,usps_collection_boxes,USPS COLLECTION BOX - BLUE BOX,105 E BRITNIE DR,POPLAR GROVE,IL,,US,,,,United States Postal Service,Q668687
6106500004,usps_collection_boxes,USPS COLLECTION BOX - PO LOBBY,105 E BRITNIE DR,POPLAR GROVE,IL,,US,,,,United States Postal Service,Q668687
6106500005,usps_collection_boxes,USPS COLLECTION BOX - PO LOBBY,105 E BRITNIE DR,POPLAR GROVE,IL,,US,,,,United States Postal Service,Q668687
,visa,,,POPLAR GROVE,IL,,US,,,,,
,visa,,,POPLAR GROVE,IL,,US,,,,,
,visa,,,POPLAR GROVE,IL,,US,,,,,
,visa,,,POPLAR GROVE,IL,,US,,,,,
,visa,,,POPLAR GROVE,IL,,US,,,,,
,visa,,,POPLAR GROVE,IL,,US,,,,,
,visa,,,POPLAR GROVE,IL,,US,,,,,
,visa,,,POPLAR GROVE,IL,,US,,,,,
,visa,,,POPLAR GROVE,IL,,US,,,,,
,visa,,,POPLAR GROVE,IL,,US,,,,,
,visa,,,POPLAR GROVE,IL,,US,,,,,
,visa,,,POPLAR GROVE,IL,,US,,,,,
,visa,,,POPLAR GROVE,IL,,US,,,,,
,visa,,,POPLAR GROVE,IL,,US,,,,,
,visa,,,POPLAR GROVE,IL,,US,,,,,
,visa,,,POPLAR GROVE,IL,,US,,,,,
,visa,,,POPLAR GROVE,IL,,US,,,,,
