Ref,Spider,Name,Address,City,State,Zipcode,Country,Phone,Website,Hours,Brand,WikiData
R414,apple,Apple 4th Street,,Berkeley,CA,,US,+1 510-898-3341,https://www.apple.com/retail/4thstreet,Mo-Sa 10:00-19:00; Su 11:00-18:00,Apple,Q421253
16446,asics_us,Road Runner Sports - Berkeley,1326 Tenth Street,Berkeley,CA,,US,+1 510-900-6272,,Mo-Fr 10:00-20:00; Sa 10:00-19:00; Su 10:00-18:00,asics,Q327247
1413,athleta,4th ST - BERKELEY,,Berkeley,CA,,US,+1 510-833-9360,https://athleta.gap.com/stores/ca/berkeley/athleta-1413.html,Mo-Sa 10:00-19:00; Su 11:00-18:00,Athleta,Q105722424
https://www.avis.com/en/locations/us/ca/berkeley/uc6,avis,Avis U S A Berkeley,,Berkeley,CA,,US,+1 510-558-0441,https://www.avis.com/en/locations/us/ca/berkeley/uc6,Mo-Fr 08:00-17:00; Sa-Su 09:00-13:00,Avis,Q791136
189275,bluerhino,Orgill #550855- Outdoor Supply Hardware Berkeley,,Berkeley,CA,,US,+1 510-495-0163,,,Blue Rhino,Q65681213
04514_03,bmw_group,MINI of Berkeley,,Berkeley,CA,,US,+1 855-571-5269,,,Mini,Q116232
04514_01,bmw_group,Weatherford BMW,,Berkeley,CA,,US,+1 510-654-8280,https://www.weatherfordbmw.com/schedule-service.html,,BMW,Q26678
04514_1,bmw_group,"Weatherford BMW, Certified Collision Repair Center",,Berkeley,CA,,US,+1 510-570-3440,,,BMW,Q26678
23828,burgerking,Burger King,,Berkeley,CA,,US,,https://www.bk.com/store-locator/store/restaurant_26120,Mo-Sa 06:00-22:00; Su 07:00-22:00,Burger King,Q177054
CA379-M1-SR5,california_closets_us,California Closets - Berkeley - Closed,,Berkeley,CA,,US,+1 510-763-2033,https://www.locations.californiaclosets.com/california-closets-berkeley-b0762026e086,,California Closets,Q5020325
ca_berkeley_1050-gilman-st,chipotle, ,,Berkeley,CA,,US,+1 510-526-6047,https://locations.chipotle.com/ca/berkeley/1050-gilman-st,,Chipotle,Q465751
81388,citi,ATM Target,,Albany,CA,,US,,,,Citibank,Q857063
5BYnqLmRNqyiTAh3ZEB6cm,corepower_yoga_us,Berkeley-West,,Berkeley,CA,,US,,https://www.corepoweryoga.com/yoga-studios/ca/east-bay/berkeley-west,,Corepower Yoga,Q21015663
17044,cvs_us,CVS Pharmacy,,Albany,CA,,US,+1 510-982-0513,https://www.cvs.com/store-locator/albany-ca-pharmacies/1057-eastshore-hwy-albany-ca-94710/storeid=17044,"Mo-Fr 10:00-13:30,14:00-19:00; Sa-Su 11:00-13:30,14:00-17:00",CVS Pharmacy,Q2078880
900079,extra_space_storage,Berkeley Self Storage at 601 Cedar St,,Berkeley,CA,,US,+1 510-525-8565,https://www.extraspace.com/storage/facilities/us/california/berkeley/900079/,Mo-Su 06:00-22:00,Extra Space Storage,Q5422162
200322685,exxonmobil,"BERKELEY ROSEVILLE, INC.",,BERKELEY,CA,,US,+1 510-548-8680,https://www.exxon.com/en/find-station/mobil-berkeley-ca-berkeleyrosevilleinc-200322685,24/7,Mobil,Q109676002
jbkcadt-doubletree-berkeley-marina,hilton,DoubleTree by Hilton Hotel Berkeley Marina,,,CA,,US,+1 510-548-7920,https://www.hilton.com/ar/hotels/jbkcadt-doubletree-berkeley-marina/,,DoubleTree by Hilton,Q2504643
https://healthy.kaiserpermanente.org/northern-california/facilities/berkeley-medical-offices-340729,kaiser_permanente_us,Berkeley Medical Offices,,Berkeley,CA,,US,+1 510-898-4200,https://healthy.kaiserpermanente.org/northern-california/facilities/berkeley-medical-offices-340729,,Kaiser Permanente,Q1721601
https://stores.kiehls.com/ca/berkeley/1848-4th-st.html,kiehls_us,Kiehl's berkeley,,Berkeley,CA,,US,+1 510-548-0130,https://stores.kiehls.com/ca/berkeley/1848-4th-st.html,Mo-Th 10:00-18:00; Fr-Sa 10:00-19:00; Su 10:00-18:00,Kiehl's,Q3196447
84121,little_free_library,Urban Adamah #84121 Berkeley CA,,Berkeley,CA,,US,,,,Little Free Library,Q6650101
151939,little_free_library,2337-2339 9th St Library #151939 Berkeley CA,,Berkeley,CA,,US,,,,Little Free Library,Q6650101
153654,little_free_library,Open Your Mind and Let the Thinking Begin! #153654 Berkeley CA,,Berkeley,CA,,US,,,,Little Free Library,Q6650101
75590,little_free_library,Sterling's Little Library #75590 Berkeley CA,,Berkeley,CA,,US,,,,Little Free Library,Q6650101
33911,little_free_library,Erin Scweng #33911 Berkeley CA,,Berkeley,CA,,US,,,,Little Free Library,Q6650101
117917,little_free_library,Jones Street Free Library #117917 Berkeley CA,,Berkeley,CA,,US,,,,Little Free Library,Q6650101
26197,little_free_library,Calvaleigh Rasmussen #26197 Berkeley CA,,Berkeley,CA,,US,,,,Little Free Library,Q6650101
44441,little_free_library,Laura Fosbender #44441 Berkeley CA,,Berkeley,CA,,US,,,,Little Free Library,Q6650101
21655,little_free_library,a book cabinet #21655 Berkeley CA,,Berkeley,CA,,US,,,,Little Free Library,Q6650101
137307,little_free_library,Jessica Librande #137307 Berkeley CA,,Berkeley,CA,,US,,,,Little Free Library,Q6650101
40014,little_free_library,jessica baird #40014 berkeley CA,,berkeley,CA,,US,,,,Little Free Library,Q6650101
Berkeley,lululemon,Lululemon,"1901 Fourth Street, Suite 102, Berkeley, CA, US, 94710",Berkeley,CA,,US,+1 510-939-9223,https://shop.lululemon.com/stores/us/berkeley/college-ave,Mo-Sa 11:00-19:00; Su 11:00-18:00,Lululemon,Q6702957
https://stores.madewell.com/#5678901,madewell_us,Madewell,,Berkeley,CA,,US,+1 510-845-1790,https://stores.madewell.com/us/ca/berkeley/1901-fourth-street,Mo-Th 10:00-18:00; Fr-Sa 10:00-19:00; Su 11:00-18:00,Madewell,Q64026213
568,outdoor_supply_hardware_us,Berkeley,,Berkeley,CA,,US,+1 510-495-0163,,Mo-Sa 07:00-19:00; Su 08:00-18:00,Outdoor Supply Hardware,Q119104427
1200,paper_source_us,"Berkeley, CA",,Berkeley,CA,,US,+1 510-665-7800,https://www.papersource.com/locator/Ca-berkeley/,Mo-Sa 10:00-19:00; Su 11:00-18:00,Paper Source,Q25000269
16525998,peets_coffee_us,4th Street,,Berkeley,CA,,US,+1 510-525-3207,https://peets.app.link?&$fallback_url=https%3A%2F%2Forder.peets.com%2Flocation%2F4th-street%2Fmenu&$type=order&~campaign=orderaheadonline&~channel=web&~tags=4th-street&~feature=menu,Mo-Fr 05:00-19:30; Sa-Su 06:00-19:30,Peet's Coffee,Q1094101
janco-chemical-alp-38443,ppgpaints,JANCO CHEMICAL ALP,,"Berkeley, ",CA,,US,,https://www.ppgpaints.com/store-locator/us/california/berkeley-paint-stores/janco-chemical-alp-38443,,PPG Paints,Q83891559
https://www.publicstorage.com/self-storage-ca-berkeley/2235.html,public_storage_us,Public Storage,,Berkeley,CA,,US,+1 510-926-6135,https://www.publicstorage.com/self-storage-ca-berkeley/2235.html,,Public Storage,Q1156045
003,sur_la_table_us,Sur La Table,,Berkeley,CA,,US,+1 510-849-2252,https://www.surlatable.com/locations/ca/berkeley/store-3.html,Mo-Sa 10:00-19:00; Su 11:00-18:00,Sur La Table,Q7645220
TNFUS00060,the_north_face,The North Face Outlet Berkeley,,Berkeley,CA,,US,+1 510-526-3530,,Mo-Sa 10:00-18:00; Su 10:00-17:00,The North Face,Q152784
003746,uhaul,Gilman Street Rentals,1241 6th St,Berkeley,CA,,US,+1 510-596-8945,,Mo 00:00-16:00; Tu-Sa 00:00-17:00; Su 00:00-24:00,U-Haul,Q7862902
1354730,usps,BERKELEY DETACHED DEL UNIT,,BERKELEY,CA,,US,+1 510-649-3143,,,United States Postal Service,Q668687
9471000051,usps_collection_boxes,USPS COLLECTION BOX - BLUE BOX,1049 GILMAN ST,BERKELEY,CA,,US,,,,United States Postal Service,Q668687
9471000049,usps_collection_boxes,USPS COLLECTION BOX - BLUE BOX,1125 JACKSON ST,BERKELEY,CA,,US,,,,United States Postal Service,Q668687
9471000007,usps_collection_boxes,USPS COLLECTION BOX - BLUE BOX,1395 9TH ST,BERKELEY,CA,,US,,,,United States Postal Service,Q668687
9471000013,usps_collection_boxes,USPS COLLECTION BOX - BLUE BOX,725 GILMAN ST,BERKELEY,CA,,US,,,,United States Postal Service,Q668687
9471000045,usps_collection_boxes,USPS COLLECTION BOX - BLUE BOX,1774 4TH ST,BERKELEY,CA,,US,,,,United States Postal Service,Q668687
9471000001,usps_collection_boxes,USPS COLLECTION BOX - BLUE BOX,726 ADDISON ST,BERKELEY,CA,,US,,,,United States Postal Service,Q668687
9471000003,usps_collection_boxes,USPS COLLECTION BOX - BLUE BOX,830 BANCROFT WAY,BERKELEY,CA,,US,,,,United States Postal Service,Q668687
9471000002,usps_collection_boxes,USPS COLLECTION BOX - BLUE BOX,747 BANCROFT WAY,BERKELEY,CA,,US,,,,United States Postal Service,Q668687
9471000009,usps_collection_boxes,USPS COLLECTION BOX - BLUE BOX,930 DWIGHT WAY,BERKELEY,CA,,US,,,,United States Postal Service,Q668687
9471000037,usps_collection_boxes,USPS COLLECTION BOX - BLUE BOX,2550 9TH ST,BERKELEY,CA,,US,,,,United States Postal Service,Q668687
9471000017,usps_collection_boxes,USPS COLLECTION BOX - BLUE BOX,901 GRAYSON ST,BERKELEY,CA,,US,,,,United States Postal Service,Q668687
9471000025,usps_collection_boxes,USPS COLLECTION BOX - BLUE BOX,2910 7TH ST,BERKELEY,CA,,US,,,,United States Postal Service,Q668687
0000028859,valero,VALERO UNIVERSITY BERKELEY,,BERKELEY,CA,,US,+1 510-356-8704,https://locations.valero.com/en-us/LocationDetails/Index/849-UNIVERSITY-AVE/0000028859,24/7,Valero,Q1283291
USA573,vans,Vans Store - Fourth St Berkeley,,Berkeley,CA,,US,+1 510-833-9505,https://www.vans.com/en-us/stores/ca/berkeley/usa573,Mo-Sa 10:00-18:00; Su 11:00-18:00,Vans,Q1135366
,visa,,,SUNNYVALE,CA,,US,,,,,
,visa,,,BERKELEY,CA,,US,,,,,
,visa,,,BERKELEY,CA,,US,,,,,
,visa,,,BERKELEY,CA,,US,,,,,
,visa,,,BERKELEY,CA,,US,,,,,
,visa,,,BERKELEY,CA,,US,,,,,
,visa,,,BERKELEY,CA,,US,,,,,
,visa,,,BERKELEY,CA,,US,,,,,
,visa,,,BERKELEY,CA,,US,,,,,
,visa,,,BERKELEY,CA,,US,,,,,
,visa,,,BERKELEY,CA,,US,,,,,
,visa,,,BERKELEY,CA,,US,,,,,
,visa,,,ALBANY,CA,,US,,,,,
,visa,,,BERKELEY,CA,,US,,,,,
,visa,,,BERKELEY,CA,,US,,,,,
,visa,,,BERKELEY,CA,,US,,,,,
,visa,,,BERKELEY,CA,,US,,,,,
,visa,,,BERKELY,CA,,US,,,,,
,visa,,,BERKELEY,CA,,US,,,,,
,visa,,,BERKELEY,CA,,US,,,,,
,visa,,,BERKELEY,CA,,US,,,,,
,visa,,,BERKELEY,CA,,US,,,,,
,visa,,,BERKELEY,CA,,US,,,,,
,visa,,,BERKELEY,CA,,US,,,,,
,visa,,,SAN FRANCISCO,CA,,US,,,,,
https://www.walgreens.com/locator/walgreens-1050+gilman+st-berkeley-ca-94710/id=2314,walgreens,Walgreens,,Berkeley,CA,,US,+1 510-528-8274,https://www.walgreens.com/locator/walgreens-1050+gilman+st-berkeley-ca-94710/id=2314,Mo-Su 07:00-22:00,Walgreens,Q1591889
1095__UNIVERSITY__AVE_BERKELEY_CA_94710,wellsfargo,,1095 UNIVERSITY AVE,BERKELEY,CA,,US,+1 800-869-3557,https://www.wellsfargo.com/locator/bank/1095__UNIVERSITY__AVE_BERKELEY_CA_94710/,,Wells Fargo,Q744149
gilman,whole_foods,Gilman,1025 Gilman St,Berkeley,CA,,US,+1 510-809-8293,https://www.wholefoodsmarket.com/stores/gilman,Mo-Su 08:00-22:00,Whole Foods,Q1809448
