Ref,Spider,Name,Address,City,State,Zipcode,Country,Phone,Website,Hours,Brand,WikiData
1812 Centre Creek Drive,allied_universal,Allied Universal,,Austin,TX,,US,+1 512-960-2610,https://www.aus.com/austin-security-services-company,,Allied Universal,Q4732537
178468,bluerhino,Mi Casa Market #1 - AWG #4493,,Austin,TX,,US,+1 512-520-1000,,,Blue Rhino,Q65681213
237688,bluerhino,Circle K #2743958,,Austin,TX,,US,+1 512-833-9541,,,Blue Rhino,Q65681213
33722,citi,ATM 7ELEVEN-FCTI,,Austin,TX,,US,,,,Citibank,Q857063
84264,citi,ATM TRANSFUND,,Austin,TX,,US,,,,Citibank,Q857063
48370,citi,ATM CVS,,Austin,TX,,US,,,,Citibank,Q857063
26367,citi,ATM 7ELEVEN-FCTI,,Austin,TX,,US,,,,Citibank,Q857063
70145678,cricket_wireless,Cricket Wireless Authorized Retailer,,Austin,TX,,US,+1 512-373-8454,https://www.cricketwireless.com/stores/ll/US/TX/Austin/9411-Dessau-Rd,Mo-Sa 10:00-20:00; Su 12:00-18:00,Cricket Wireless,Q5184987
357,cvs_us,CVS Pharmacy,,Austin,TX,,US,+1 512-973-0843,https://www.cvs.com/store-locator/austin-tx-pharmacies/1701-e-parmer-ln-austin-tx-78754/storeid=357,24/7,CVS Pharmacy,Q2078880
9241,dominos_pizza_us,Domino's Pizza,,Austin,TX,,US,+1 512-614-0031,https://pizza.dominos.com/texas/austin/9001-cameron-rd-ste-203,Mo-Th 10:00-24:00; Fr-Sa 10:00-01:00; Su 10:00-24:00,Domino's,Q839466
DB613,dutchbros,Parmer,,Austin,TX,,US,,https://locations.dutchbros.com/dutch-bros-coffee-8f94c6780793,Mo-Th 05:00-22:00; Fr-Sa 05:00-23:00; Su 05:00-22:00,Dutch Bros. Coffee,Q5317253
3627,extra_space_storage,Austin Self Storage at 1714 E Parmer Ln,,Austin,TX,,US,+1 512-284-9077,https://www.extraspace.com/storage/facilities/us/texas/austin/3627/,Mo-Fr 09:30-18:00; Sa 09:00-17:30,Extra Space Storage,Q5422162
200325725,exxonmobil,JD'S MARKET #8,,AUSTIN,TX,,US,,https://www.exxon.com/en/find-station/exxon-austin-tx-jdsmarket8-200325725,24/7,Exxon,Q109675651
200321984,exxonmobil,7-ELEVEN 35801,,AUSTIN,TX,,US,+1 512-272-4957,https://www.exxon.com/en/find-station/exxon-austin-tx-7eleven35801-200321984,24/7,Exxon,Q109675651
https://locations.jackinthebox.com/us/tx/austin/12309-dessau-rd,jackinthebox,Jack in the Box,,Austin,TX,,US,+1 512-491-8200,https://locations.jackinthebox.com/us/tx/austin/12309-dessau-rd,Mo-Su 04:00-04:00,Jack in the Box,Q1538507
153473,little_free_library,Pioneer Hill Library #153473 Austin Texas,,Austin,TX,,US,,,,Little Free Library,Q6650101
37922,little_free_library,Dee Orren #37922 Austin TX,,Austin,TX,,US,,,,Little Free Library,Q6650101
92582,little_free_library,Pioneer Farms Little Free Library #92582 Austin TX,,Austin,TX,,US,,,,Little Free Library,Q6650101
36765,little_free_library,Raquel Reyna #36765 Austin TX,,Austin,TX,,US,,,,Little Free Library,Q6650101
171827,little_free_library,PCW Neighborhood #171827 #171827 Austin TX,,Austin,TX,,US,,,,Little Free Library,Q6650101
86645,little_free_library,Walnut Creek Enclave LFL #86645 Austin TX,,Austin,TX,,US,,,,Little Free Library,Q6650101
37527,little_free_library,Alice Sheth #37527 Austin TX,,Austin,TX,,US,,,,Little Free Library,Q6650101
142966,little_free_library,Pioneer Crossing El Little Free Library #142966 Austin TX,,Austin,TX,,US,,,,Little Free Library,Q6650101
173124,little_free_library,TEXAS YES Project - Bluebonnet Trail Elementary School #173124 Austin TX,,Austin,TX,,US,,,,Little Free Library,Q6650101
122399,little_free_library,Jackâ€™s Free Little Library #122399 Austin TX,,Austin,TX,,US,,,,Little Free Library,Q6650101
74419410,moneygram,JDS 8,,AUSTIN,TX,,US,+1 512-291-7403,,Mo-Su 06:00-23:00,MoneyGram,Q1944412
74747629,moneygram,CAMBIO PLUS - AUSTIN - CAMBIO PLUS,,AUSTIN,TX,,US,+1 713-992-0397,,Mo-Su 09:00-21:00,MoneyGram,Q1944412
https://locations.oreillyauto.com/tx/austin/check-engine-light-testing-4680.html,oreilly,Your Austin O'Reilly Auto Parts Store,,Austin,TX,,US,+1 512-339-0668,https://locations.oreillyauto.com/tx/austin/check-engine-light-testing-4680.html,Mo-Sa 07:30-22:00; Su 08:00-22:00,O'Reilly Auto Parts,Q7071951
https://locations.oreillyauto.com/tx/austin/wiper-installation-4680.html,oreilly,Your Austin O'Reilly Auto Parts Store,,Austin,TX,,US,+1 512-339-0668,https://locations.oreillyauto.com/tx/austin/wiper-installation-4680.html,Mo-Sa 07:30-22:00; Su 08:00-22:00,O'Reilly Auto Parts,Q7071951
https://locations.oreillyauto.com/tx/austin/battery-testing-4680.html,oreilly,Your Austin O'Reilly Auto Parts Store,,Austin,TX,,US,+1 512-339-0668,https://locations.oreillyauto.com/tx/austin/battery-testing-4680.html,Mo-Sa 07:30-22:00; Su 08:00-22:00,O'Reilly Auto Parts,Q7071951
https://locations.oreillyauto.com/tx/austin/autopartes-4680.html,oreilly,Tu tienda O'Reilly Auto Parts en Austin,,Austin,TX,,US,+1 512-339-0668,https://locations.oreillyauto.com/tx/austin/autopartes-4680.html,Mo-Sa 07:30-22:00; Su 08:00-22:00,O'Reilly Auto Parts,Q7071951
35801,seven_eleven_ca_us,7-Eleven Store,,Austin,TX,,US,+1 512-221-7084,https://www.7-eleven.com/locations/tx/austin/9704-giles-rd-35801,,7-Eleven,Q259340
https://locations.tacobell.com/#6146095,taco_bell,Taco Bell,,Austin,TX,,US,+1 512-833-9115,https://locations.tacobell.com/tx/austin/1548-e--parmer-lane.html,Mo-Su 09:00-02:00,Taco Bell,Q752941
7875400014,usps_collection_boxes,USPS COLLECTION BOX - BLUE BOX,8407 WALL ST,AUSTIN,TX,,US,,,,United States Postal Service,Q668687
7875400006,usps_collection_boxes,USPS COLLECTION BOX - BLUE BOX,11710 RYDALWATER LN,AUSTIN,TX,,US,,,,United States Postal Service,Q668687
7875400005,usps_collection_boxes,USPS COLLECTION BOX - BLUE BOX,11412 BIRCHOVER LN,AUSTIN,TX,,US,,,,United States Postal Service,Q668687
,visa,,,AUSTIN,TX,,US,,,,,
,visa,,,AUSTIN,TX,,US,,,,,
,visa,,,AUSTIN,TX,,US,,,,,
,visa,,,AUSTIN,TX,,US,,,,,
,visa,,,AUSTIN,TX,,US,,,,,
,visa,,,AUSTIN,TX,,US,,,,,
,visa,,,AUSTIN,TX,,US,,,,,
,visa,,,AUSTIN,TX,,US,,,,,
,visa,,,AUSTIN,TX,,US,,,,,
,visa,,,AUSTIN,TX,,US,,,,,
,visa,,,AUSTIN,TX,,US,,,,,
,visa,,,AUSTIN,TX,,US,,,,,
,visa,,,AUSTIN,TX,,US,,,,,
2335,waffle_house_us,Waffle House #2335,,AUSTIN,TX,,US,+1 512-940-0903,https://locations.wafflehouse.com/austin-tx-2335,24/7,Waffle House,Q1701206
5df44305c4c6ef09b7a3fe1aba5a3c0c,western_union,JD S SUPERMARKET # 8,,Austin,TX,,US,+1 512-394-6585,https://location.westernunion.com/us/tx/austin/5df44305c4c6ef09b7a3fe1aba5a3c0c,Mo-Su 08:00-21:00,Western Union,Q861042
f125c84433b15346ab0d05f16e866cd7,western_union,JD S SUPERMARKET # 8,,Austin,TX,,US,+1 512-394-6585,https://location.westernunion.com/us/tx/austin/f125c84433b15346ab0d05f16e866cd7,Mo-Su 08:00-21:00,Western Union,Q861042
dd636fc71d22b16f9ac968311ef0234c,western_union,MI PAIS 1,,Austin,TX,,US,+1 512-800-8422,https://location.westernunion.com/us/tx/austin/dd636fc71d22b16f9ac968311ef0234c,Mo-Su 08:00-21:00,Western Union,Q861042
ff5aec33c796129b4c8cfb3dd62755eb,western_union,MI PAIS 1,,Austin,TX,,US,+1 512-800-8422,https://location.westernunion.com/us/tx/austin/ff5aec33c796129b4c8cfb3dd62755eb,Mo-Su 08:00-21:00,Western Union,Q861042
e37b91dfae512287d4dac84dcbfee248,western_union,MINIMAX FOOD MART # 3,,Austin,TX,,US,+1 512-832-4753,https://location.westernunion.com/us/tx/austin/e37b91dfae512287d4dac84dcbfee248,Mo-Su 08:00-22:00,Western Union,Q861042
https://locations.whataburger.com/tx/austin/1719-e-parmer-ln.html,whataburger,E Parmer Ln & Dessau Rd,1719 E PARMER LN,AUSTIN,TX,,US,,https://locations.whataburger.com/tx/austin/1719-e-parmer-ln.html,,Whataburger,Q376627
