Ref,Spider,Name,Address,City,State,Zipcode,Country,Phone,Website,Hours,Brand,WikiData
https://www.academy.com/storelocator/#8745467,academy_us,Academy Sports + Outdoors,,Austin,TX,,US,+1 512-407-6310,https://www.academy.com/storelocator/texas/austin/store-0026,Mo-Th 09:00-21:00; Fr 09:00-22:00; Sa 08:00-22:00; Su 09:00-21:00,Academy Sports + Outdoors,Q4671380
12316,asics_us,Academy Sports + Outdoors,7513 N Interstate Hwy 35,Austin,TX,,US,+1 512-407-6310,,,asics,Q327247
https://www.avis.com/en/locations/us/tx/austin/ad6,avis,Avis U S A Austin,,Austin,TX,,US,+1 512-380-9177,https://www.avis.com/en/locations/us/tx/austin/ad6,Mo-Fr 07:30-18:00; Sa-Su 09:00-13:00,Avis,Q791136
https://locators.bankofamerica.com/tx/austin/atm-austin-110440.html,bankofamerica,Bank of America Drive-Thru ATM | Highland Mall,,Austin,TX,,US,+1 844-401-8500,https://locators.bankofamerica.com/tx/austin/atm-austin-110440.html,,Bank of America,Q487907
155776,bluerhino,Walgreens #5160,,Austin,TX,,US,+1 512-458-4269,,,Blue Rhino,Q65681213
162107,bluerhino,Mr. Sam's Food Mart (Same),,Austin,TX,,US,+1 512-822-0409,,,Blue Rhino,Q65681213
237650,bluerhino,Circle K #2704690,,Austin,TX,,US,+1 512-339-0150,,,Blue Rhino,Q65681213
16348,burgerking,Burger King,,Austin,TX,,US,+1 512-419-0403,https://www.bk.com/store-locator/store/restaurant_10152,Mo-Sa 06:00-22:00; Su 07:00-22:00,Burger King,Q177054
255,burlington_us,Burlington,,Austin,TX,,US,+1 512-452-4252,https://stores.burlington.com/tx/austin/255,Mo-Sa 09:00-24:00; Su 09:00-23:00,Burlington,Q4999220
001.005.1386,chilis,I 35 N,,Austin,TX,,US,+1 512-454-6300,https://www.chilis.com/locations/us/texas/austin/i-35-n/,Mo-Th 11:00-22:00; Fr-Sa 11:00-23:00; Su 11:00-22:00,Chili's,Q1072948
32032,citi,ATM 7ELEVEN-FCTI,,Austin,TX,,US,,,,Citibank,Q857063
32313,citi,ATM 7ELEVEN-FCTI,,Austin,TX,,US,,,,Citibank,Q857063
92478,citi,ATM Walgreens,,Austin,TX,,US,,,,Citibank,Q857063
,credit_union_us,Greater Texas FCU,,Austin,TX,,US,+1 800-749-9732,,Mo-Fr 09:00-05:00; Sa 09:00-01:00,,
,credit_union_us,Star of Texas CU,,Austin,TX,,US,+1 512-458-8253,,Mo-Fr 09:00-04:00; Sa 09:00-01:00,,
,credit_union_us,Texas DPS CU,,Austin,TX,,US,+1 512-452-5211,,Mo-Fr 09:00-04:00,,
70145391,cricket_wireless,Cricket Wireless Authorized Retailer,,Austin,TX,,US,+1 512-995-7252,https://www.cricketwireless.com/stores/ll/US/TX/Austin/7316-Cameron-Rd-Apt-104,Mo-Sa 09:00-21:00; Su 11:00-19:00,Cricket Wireless,Q5184987
12553563,daiso_us,Austin Crescent,,Austin Crescent,TX,,US,+1 512-527-3266,,Mo-Su 10:00-21:00,Daiso Japan,Q866991
200686,dennys,Denny's,,Austin,TX,,US,+1 512-453-3617,https://locations.dennys.com/TX/AUSTIN/200686,24/7,Denny's,Q1189695
vba_349n,department_veterans_affairs,VetSuccess on Campus at Austin Community College Highland Campus,,Austin,TX,,US,+1 512-223-7041,,,Department Veterans Affairs,Q592576
9372,dominos_pizza_us,Domino's Pizza,,Austin,TX,,US,+1 512-599-4444,https://pizza.dominos.com/texas/austin/6929-airport-blvd-100,Mo-Th 10:30-24:00; Fr-Sa 10:30-01:00; Su 10:30-24:00,Domino's,Q839466
E16540,enterprise,Austin Airport & N. Lamar,,Austin,TX,,US,+1 512-453-4402,,,Enterprise Rent-A-Car,Q17085454
200328136,exxonmobil,Exxon,,AUSTIN,TX,,US,,https://www.exxon.com/en/find-station/exxon-austin-tx-exxon-200328136,Mo-Sa 06:00-00:00; Su 07:00-00:00,Exxon,Q109675651
200321274,exxonmobil,WALNUT MARKET 1,,AUSTIN,TX,,US,+1 512-339-8373,https://www.exxon.com/en/find-station/exxon-austin-tx-walnutmarket1-200321274,Mo-Sa 06:00-00:00; Su 07:00-00:00,Exxon,Q109675651
200321124,exxonmobil,AA Food Mart #1,,AUSTIN,TX,,US,+1 512-452-1992,https://www.exxon.com/en/find-station/mobil-austin-tx-aafoodmart1-200321124,Mo-Su 06:00-00:00,Mobil,Q109676002
30276,family_dollar_us,FAMILY DOLLAR #10276,,Austin,TX,,US,+1 512-541-3124,https://www.familydollar.com/locations/tx/austin/30276/,Mo-Sa 09:00-22:00; Su 09:00-21:00,Family Dollar,Q5433101
https://local.fedex.com/#25204745,fedex,,,Austin,TX,,US,+1 800-463-3339,https://local.fedex.com/en-us/tx/austin/btrck,,FedEx,Q459477
https://local.fedex.com/#25458334,fedex,,,Austin,TX,,US,+1 800-463-3339,https://local.fedex.com/en-us/tx/austin/00j91,,FedEx,Q459477
2550,first_cash,Cash America Pawn,,Austin,TX,,US,+1 512-467-2568,,,Cash America,Q5048636
https://www.goldsgym.com/austin-highland/,goldsgym,Gold's Gym Austin (Highland),,Austin,TX,,US,+1 512-467-1900,https://www.goldsgym.com/austin-highland/,Mo-Fr 05:00-23:00; Sa-Su 07:00-21:00,Gold's Gym,Q1536234
42838,h_r_block,H&R Block,,Austin,TX,,US,+1 512-454-4657,https://www.hrblock.com/local-tax-offices/texas/austin/6929-airport-blvd/42838/,,H&R Block,Q5627799
https://locations.jackinthebox.com/us/tx/austin/6419-airport-blvd,jackinthebox,Jack in the Box,,Austin,TX,,US,+1 512-452-9291,https://locations.jackinthebox.com/us/tx/austin/6419-airport-blvd,Mo-Tu 06:00-22:00; We-Sa 04:00-04:00; Su 06:00-22:00,Jack in the Box,Q1538507
36752,little_free_library,Paige Mercer #36752 Austin TX,,Austin,TX,,US,,,,Little Free Library,Q6650101
21266,little_free_library,Angelica Williamson #21266 Austin TX,,Austin,TX,,US,,,,Little Free Library,Q6650101
67534700,moneygram,UNIPAGO - #4 - AUSTIN,,AUSTIN,TX,,US,+1 512-275-9654,,Mo-Su 08:00-21:00,MoneyGram,Q1944412
111920,pandaexpress,Airport & Koenig,,Austin,TX,,US,+1 512-459-8890,https://www.pandaexpress.com/locations/tx/austin/5764-airport-blvd,Mo-Fr 10:00-22:30; Sa 09:30-23:00; Su 10:00-22:30,Panda Express,Q1358690
ppg-paints-9665-22043,ppgpaints,PPG Paints 9665,,"Austin, ",TX,,US,+1 512-467-7777,https://www.ppgpaints.com/store-locator/us/texas/austin-paint-stores/ppg-paints-9665-22043,,PPG Paints,Q83891559
https://locations.qdoba.com/us/tx/austin/1300-e-anderson-lane.html,qdoba,QDOBA AUS 28 Kitchen,,Austin,TX,,US,,https://locations.qdoba.com/us/tx/austin/1300-e-anderson-lane.html,,Qdoba,Q1363885
38104,seven_eleven_ca_us,7-Eleven Store,,Austin,TX,,US,+1 512-461-9189,https://www.7-eleven.com/locations/tx/austin/614-e-koenig-lane-38104,,7-Eleven,Q259340
36612,seven_eleven_ca_us,7-Eleven Store,,Austin,TX,,US,+1 512-419-9367,https://www.7-eleven.com/locations/tx/austin/6707-cameron-rd-36612,,7-Eleven,Q259340
36618,seven_eleven_ca_us,7-Eleven Store,,Austin,TX,,US,+1 512-420-2266,https://www.7-eleven.com/locations/tx/austin/7114-i-35-n-36618,,7-Eleven,Q259340
https://locations.tacobell.com/#6147316,taco_bell,Taco Bell,,Austin,TX,,US,+1 512-835-7269,https://locations.tacobell.com/tx/austin/1016-e-anderson-ln.html,Mo-Su 09:00-02:00,Taco Bell,Q752941
1375506,usps,NORTHEAST AUSTIN,,AUSTIN,TX,,US,+1 512-419-7504,,Mo-Fr 08:30-17:00,United States Postal Service,Q668687
7875200074,usps_collection_boxes,USPS COLLECTION BOX - BLUE BOX,7701 N LAMAR BLVD,AUSTIN,TX,,US,,,,United States Postal Service,Q668687
7875200005,usps_collection_boxes,USPS COLLECTION BOX - BLUE BOX,223 W ANDERSON LN,AUSTIN,TX,,US,,,,United States Postal Service,Q668687
7875200013,usps_collection_boxes,USPS COLLECTION BOX - BLUE BOX,1033 LA POSADA DR,AUSTIN,TX,,US,,,,United States Postal Service,Q668687
7875200048,usps_collection_boxes,USPS COLLECTION BOX - BLUE BOX,505 E HUNTLAND DR,AUSTIN,TX,,US,,,,United States Postal Service,Q668687
7875200067,usps_collection_boxes,USPS COLLECTION BOX - PO LOBBY,900 BLACKSON AVE,AUSTIN,TX,,US,,,,United States Postal Service,Q668687
7875200068,usps_collection_boxes,USPS COLLECTION BOX - PO LOBBY,900 BLACKSON AVE,AUSTIN,TX,,US,,,,United States Postal Service,Q668687
7875200076,usps_collection_boxes,USPS COLLECTION BOX - PO LOBBY,900 BLACKSON AVE,AUSTIN,TX,,US,,,,United States Postal Service,Q668687
7875200001,usps_collection_boxes,USPS COLLECTION BOX - BLUE BOX,900 BLACKSON AVE,AUSTIN,TX,,US,,,,United States Postal Service,Q668687
7875200004,usps_collection_boxes,USPS COLLECTION BOX - BLUE BOX,7690 CHEVY CHASE DR,AUSTIN,TX,,US,,,,United States Postal Service,Q668687
0000030921,valero,Valero - 720 Lamar Place,,Austin,TX,,US,,https://locations.valero.com/en-us/LocationDetails/Index/720-LAMAR-PLACE/0000030921,24/7,Valero,Q1283291
0000030923,valero,Valero - 7509 IH 35,,Austin,TX,,US,,https://locations.valero.com/en-us/LocationDetails/Index/7509-N-IH-35/0000030923,24/7,Valero,Q1283291
,visa,,,AUSTIN,TX,,US,,,,,
,visa,,,AUSTIN,TX,,US,,,,,
,visa,,,AUSTIN,TX,,US,,,,,
,visa,,,AUSTIN,TX,,US,,,,,
,visa,,,AUSTIN,TX,,US,,,,,
,visa,,,AUSTIN,TX,,US,,,,,
,visa,,,AUSTIN,TX,,US,,,,,
,visa,,,AUSTIN,TX,,US,,,,,
,visa,,,AUSTIN,TX,,US,,,,,
,visa,,,AUSTIN,TX,,US,,,,,
,visa,,,AUSTIN,TX,,US,,,,,
,visa,,,AUSTIN,TX,,US,,,,,
,visa,,,AUSTIN,TX,,US,,,,,
,visa,,,AUSTIN,TX,,US,,,,,
,visa,,,AUSTIN,TX,,US,,,,,
,visa,,,AUSTIN,TX,,US,,,,,
,visa,,,AUSTIN,TX,,US,,,,,
,visa,,,AUSTIN,TX,,US,,,,,
,visa,,,AUSTIN,TX,,US,,,,,
,visa,,,AUSTIN,TX,,US,,,,,
,visa,,,AUSTIN,TX,,US,,,,,
,visa,,,AUSTIN,TX,,US,,,,,
,visa,,,AUSTIN,TX,,US,,,,,
,visa,,,AUSTIN,TX,,US,,,,,
,visa,,,AUSTIN,TX,,US,,,,,
,visa,,,AUSTIN,TX,,US,,,,,
,visa,,,AUSTIN,TX,,US,,,,,
,visa,,,AUSTIN,TX,,US,,,,,
,visa,,,AUSTIN,TX,,US,,,,,
,visa,,,AUSTIN,TX,,US,,,,,
,visa,,,AUSTIN,TX,,US,,,,,
,visa,,,AUSTIN,TX,,US,,,,,
,visa,,,AUSTIN,TX,,US,,,,,
,visa,,,AUSTIN,TX,,US,,,,,
,visa,,,AUSTIN,TX,,US,,,,,
,visa,,,AUSTIN,TX,,US,,,,,
,visa,,,AUSTIN,TX,,US,,,,,
,visa,,,AUSTIN,TX,,US,,,,,
,visa,,,AUSTIN,TX,,US,,,,,
,visa,,,AUSTIN,TX,,US,,,,,
,visa,,,AUSTIN,TX,,US,,,,,
,visa,,,AUSTIN,TX,,US,,,,,
,visa,,,AUSTIN,TX,,US,,,,,
,visa,,,AUSTIN,TX,,US,,,,,
,visa,,,AUSTIN,TX,,US,,,,,
,visa,,,AUSTIN,TX,,US,,,,,
,visa,,,AUSTIN,TX,,US,,,,,
,visa,,,AUSTIN,TX,,US,,,,,
,visa,,,AUSTIN,TX,,US,,,,,
,visa,,,AUSTIN,TX,,US,,,,,
,visa,,,MISSION,TX,,US,,,,,
,visa,,,MISSION,TX,,US,,,,,
https://www.walgreens.com/locator/walgreens-6812+n+lamar+blvd-austin-tx-78752/id=5160,walgreens,Walgreens,,Austin,TX,,US,+1 512-458-4269,https://www.walgreens.com/locator/walgreens-6812+n+lamar+blvd-austin-tx-78752/id=5160,Mo-Fr 07:00-23:00; Sa-Su 07:00-22:00,Walgreens,Q1591889
6501__AIRPORT__BLVD__STE__200_AUSTIN_TX_78752,wellsfargo,Wells Fargo,6501 AIRPORT BLVD STE 200,AUSTIN,TX,,US,+1 512-640-6080,https://www.wellsfargo.com/locator/bank/6501__AIRPORT__BLVD__STE__200_AUSTIN_TX_78752/,Mo-Fr 09:00-17:00,Wells Fargo,Q744149
https://locations.wendys.com/#9250757,wendys,"Wendy's 125 Buttercrust in Austin, TX",,Austin,TX,,US,+1 512-596-3087,https://locations.wendys.com/united-states/tx/austin/5752-airport-blvd,"Mo-Sa 06:30-10:30,07:00-24:00; Su 07:00-10:30,07:00-24:00",Wendy's,Q550258
https://locations.wendys.com/#9250748,wendys,"Wendy's 101 Anderson in Austin, TX",,Austin,TX,,US,+1 512-596-1943,https://locations.wendys.com/united-states/tx/austin/1418-e-anderson-lane,"Mo-Sa 06:30-10:30,07:00-24:00; Su 07:00-10:30,07:00-24:00",Wendy's,Q550258
26df6769bf02c65e25ef59e62d2f0c8f,western_union,7-ELEVEN #36612,,Austin,TX,,US,+1 512-419-9367,https://location.westernunion.com/us/tx/austin/26df6769bf02c65e25ef59e62d2f0c8f,,Western Union,Q861042
bd6bec4925b95228de535fde5674cca1,western_union,EL PAISANO EXPRESS AT CAMERON,,Austin,TX,,US,+1 512-840-0688,https://location.westernunion.com/us/tx/austin/bd6bec4925b95228de535fde5674cca1,Mo-Su 09:00-21:00,Western Union,Q861042
129552b296447176228123f9c19adbd2,western_union,EL PAISANO EXPRESS AT CAMERON,,Austin,TX,,US,+1 512-840-0688,https://location.westernunion.com/us/tx/austin/129552b296447176228123f9c19adbd2,Mo-Su 09:00-21:00,Western Union,Q861042
f58c769d03ba41e335b41f6eae58b9e7,western_union,EL PAISANO EXPRESS AT CAMERON,,Austin,TX,,US,+1 512-840-0688,https://location.westernunion.com/us/tx/austin/f58c769d03ba41e335b41f6eae58b9e7,Mo-Su 09:00-21:00,Western Union,Q861042
f730e651ba613e5b22ea1923a03a35ba,western_union,7-ELEVEN #36618,,Austin,TX,,US,+1 512-420-2266,https://location.westernunion.com/us/tx/austin/f730e651ba613e5b22ea1923a03a35ba,,Western Union,Q861042
https://locations.whataburger.com/tx/austin/6205-n-lamar-blvd.html,whataburger,Lamar & Denson,6205 N LAMAR BLVD,AUSTIN,TX,,US,,https://locations.whataburger.com/tx/austin/6205-n-lamar-blvd.html,,Whataburger,Q376627
