Ref,Spider,Name,Address,City,State,Zipcode,Country,Phone,Website,Hours,Brand,WikiData
70241,caltex,คาลเท็กซ์ สาขาเต็กย้ง 9 เจริญ,,ชลบุรี,Chon Buri,,TH,,,,Caltex,Q277470
13023890,shell,CO YENDEE PANTHONG CBI,,T.BAANKAO A.PANTHONG,Chon Buri,,TH,+66 89 162 3638,https://find.shell.com/th/fuel/13023890-co-yendee-panthong-cbi,24/7,Shell,Q110716465
12651564,shell,CO NATTAWONG NONGTUMLUENG CBI,,T.NONGTAMLUENG A.PHANTHONG,Chon Buri,,TH,+66 99 055 9791,https://find.shell.com/th/fuel/12651564-co-nattawong-nongtumlueng-cbi,24/7,Shell,Q110716465
12738893,shell,CO CHAIYAPAT B1 BANGAO CBI,,T.BAN KAO  A.PHANTHONG,Chon Buri,,TH,+66 81 949 4223,https://find.shell.com/th/fuel/12738893-co-chaiyapat-b1-bangao-cbi,,Shell,Q110716465
12729051,shell,DO GOODSAYANG PHANTHONG CBI,,T.MAPPONG A.PHANTHONG,Chon Buri,,TH,+66 92 941 5262,https://find.shell.com/th/fuel/12729051-do-goodsayang-phanthong-cbi,,Shell,Q110716465
,visa,,,PHAN THONG,CHON BURI,,TH,,,,,
933ffd824f8bf32ef10624ae4bfaed44,western_union,WORLD ELECTRIC  THAILAND  CO  LTD,,Chon Buri,CHONBURI,,TH,(+66) 1572,https://location.westernunion.com/th/chonburi/chon-buri/933ffd824f8bf32ef10624ae4bfaed44,Mo-Su 00:01-24:00,Western Union,Q861042
a614c176a4f067ea6a17121da984631f,western_union,7ELEVEN SUKJAI VILLA,,Chon Buri,CHONBURI,,TH,(+66) 1572,https://location.westernunion.com/th/chonburi/chon-buri/a614c176a4f067ea6a17121da984631f,Mo-Su 00:01-24:00,Western Union,Q861042
8d56ff5c988cfacccf4b582814a01759,western_union,BAAC NONG TAMLUENG,,Phan Thong,CHONBURI,,TH,+66 38 207 117,https://location.westernunion.com/th/chonburi/phan-thong/8d56ff5c988cfacccf4b582814a01759,Mo-Fr 08:30-16:30,Western Union,Q861042
d01b045d15dc66568ebcab939679b9f1,western_union,7-ELEVEN E-TECH,,Chon Buri,CHONBURI,,TH,(+66) 1572,https://location.westernunion.com/th/chonburi/chon-buri/d01b045d15dc66568ebcab939679b9f1,Mo-Su 00:01-24:00,Western Union,Q861042
8932e24afd716dc19b452d467273ff12,western_union,TOYOTA J N D,,Chon Buri,CHONBURI,,TH,(+66) 1572,https://location.westernunion.com/th/chonburi/chon-buri/8932e24afd716dc19b452d467273ff12,Mo-Su 00:01-24:00,Western Union,Q861042
0f9959db81e30009175111ca1a59b6be,western_union,7-ELEVEN TESSABAN NHONGTAMLUNG SOI 17,,Chon Buri,CHONBURI,,TH,(+66) 1572,https://location.westernunion.com/th/chonburi/chon-buri/0f9959db81e30009175111ca1a59b6be,Mo-Su 00:01-24:00,Western Union,Q861042
5a048c668bcd02b2c9330bb21388b004,western_union,FAMILY MART NONGTUMLUNG,,Chon Buri,CHONBURI,,TH,(+66) 1572,https://location.westernunion.com/th/chonburi/chon-buri/5a048c668bcd02b2c9330bb21388b004,Mo-Su 00:01-24:00,Western Union,Q861042
aee6842ad43cc3ba60bd152e401c5b52,western_union,BT DISTRIBUTION CO  LTD,,Chon Buri,CHONBURI,,TH,(+66) 1572,https://location.westernunion.com/th/chonburi/chon-buri/aee6842ad43cc3ba60bd152e401c5b52,Mo-Su 00:01-24:00,Western Union,Q861042
8acd78dbc86fcd31b8b912aca1108100,western_union,7-ELEVEN PTT.LPG BANCHED,,Chon Buri,CHONBURI,,TH,(+66) 1572,https://location.westernunion.com/th/chonburi/chon-buri/8acd78dbc86fcd31b8b912aca1108100,Mo-Su 00:01-24:00,Western Union,Q861042
062059277c91ea58c7555e76d91eeb13,western_union,NSL FOOD  FACTORY 2  CO  LTD   2,,Chon Buri,CHONBURI,,TH,(+66) 1572,https://location.westernunion.com/th/chonburi/chon-buri/062059277c91ea58c7555e76d91eeb13,Mo-Su 00:01-24:00,Western Union,Q861042
775448d427c3aaf1da40ce8f869e45c4,western_union,LOTUS EXPRESS TALAD NUD AMATA CHONBURI,,Chon Buri,CHONBURI,,TH,(+66) 1572,https://location.westernunion.com/th/chonburi/chon-buri/775448d427c3aaf1da40ce8f869e45c4,Mo-Su 00:01-24:00,Western Union,Q861042
3243c3f216ad365c6e58526d9af6b323,western_union,7-ELEVEN SUPARAT MANSION,,Chon Buri,CHONBURI,,TH,(+66) 1572,https://location.westernunion.com/th/chonburi/chon-buri/3243c3f216ad365c6e58526d9af6b323,Mo-Su 00:01-24:00,Western Union,Q861042
9ff697ccb0973c40d0cbe3a806d55cbd,western_union,KTB NONGTUMLUENG,,Phan Thong,CHONBURI,,TH,+66 2 111 1111,https://location.westernunion.com/th/chonburi/phan-thong/9ff697ccb0973c40d0cbe3a806d55cbd,Mo-Su 06:00-22:00,Western Union,Q861042
84a75cd4436503e6d0b614d7bb080e60,western_union,7-ELEVEN BOONNAKORN CONDO,,Chon Buri,CHONBURI,,TH,(+66) 1572,https://location.westernunion.com/th/chonburi/chon-buri/84a75cd4436503e6d0b614d7bb080e60,Mo-Su 00:01-24:00,Western Union,Q861042
892de60536475b83801005cb73a57f97,western_union,7-ELEVEN TALAD AMMATA PHASE 7,,Chon Buri,CHONBURI,,TH,(+66) 1572,https://location.westernunion.com/th/chonburi/chon-buri/892de60536475b83801005cb73a57f97,Mo-Su 00:01-24:00,Western Union,Q861042
cd4abc1191e9b3da587e230d3be8f279,western_union,7-ELEVEN PTT.BANKAO PANTHONG,,Chon Buri,CHONBURI,,TH,(+66) 1572,https://location.westernunion.com/th/chonburi/chon-buri/cd4abc1191e9b3da587e230d3be8f279,Mo-Su 00:01-24:00,Western Union,Q861042
9771f1adb258ca6c8504aa1eb1e32abe,western_union,NSL FOOD  FACTORY 1  CO  LTD   1,,Chon Buri,CHONBURI,,TH,(+66) 1572,https://location.westernunion.com/th/chonburi/chon-buri/9771f1adb258ca6c8504aa1eb1e32abe,Mo-Su 00:01-24:00,Western Union,Q861042
a1d41191bb110728cb88292c7140ff52,western_union,"MITSUBISHI TUBROCHARGER ASIA CO.,LTD.",,Chon Buri,CHONBURI,,TH,(+66) 1572,https://location.westernunion.com/th/chonburi/chon-buri/a1d41191bb110728cb88292c7140ff52,Mo-Su 00:01-24:00,Western Union,Q861042
458762d649c5f2d23092124122bd4de8,western_union,"AISIN TAKAOKA FOUNDRY BANGPAKONG CO.,LTD",,Chon Buri,CHONBURI,,TH,(+66) 1572,https://location.westernunion.com/th/chonburi/chon-buri/458762d649c5f2d23092124122bd4de8,Mo-Su 00:01-24:00,Western Union,Q861042
c85b8207bebe77c2ca8bfd815fefd64c,western_union,CBC INGS CO  LTD,,Chon Buri,CHONBURI,,TH,(+66) 1572,https://location.westernunion.com/th/chonburi/chon-buri/c85b8207bebe77c2ca8bfd815fefd64c,Mo-Su 00:01-24:00,Western Union,Q861042
a86b259b3694699d5d94461370839948,western_union,7-ELEVEN SIRATCHATANI PANTONG,,Chon Buri,CHONBURI,,TH,(+66) 1572,https://location.westernunion.com/th/chonburi/chon-buri/a86b259b3694699d5d94461370839948,Mo-Su 00:01-24:00,Western Union,Q861042
f9d2e5fe09d57626b7ad52fd18951275,western_union,TESCO LOTUS TALAD : PANTONG CHONBURI,,Chon Buri,CHONBURI,,TH,(+66) 1572,https://location.westernunion.com/th/chonburi/chon-buri/f9d2e5fe09d57626b7ad52fd18951275,Mo-Su 00:01-24:00,Western Union,Q861042
0be092a43ef8d7df2076260bf346b3cc,western_union,FAMILY MART BANKAO PHANTONG,,Chon Buri,CHONBURI,,TH,(+66) 1572,https://location.westernunion.com/th/chonburi/chon-buri/0be092a43ef8d7df2076260bf346b3cc,Mo-Su 00:01-24:00,Western Union,Q861042
1201fb253b8c2a993997253068fe7050,western_union,7-ELEVEN CHAROENSINTANEE PANTHONG,,Chon Buri,CHONBURI,,TH,(+66) 1572,https://location.westernunion.com/th/chonburi/chon-buri/1201fb253b8c2a993997253068fe7050,Mo-Su 00:01-24:00,Western Union,Q861042
bb7dda6157c52fe5a3acf88f25039d21,western_union,CHAROEN NAKHORN CONDO PANTONG # 1,,Chon Buri,CHONBURI,,TH,(+66) 1572,https://location.westernunion.com/th/chonburi/chon-buri/bb7dda6157c52fe5a3acf88f25039d21,Mo-Su 00:01-24:00,Western Union,Q861042
3e3f993ce6c5a7f1f833e97a3549e344,western_union,BBL BAN KAO CHONBURI BRANCH,,Phanthong,CHONBURI,,TH,+66 38 451 900,https://location.westernunion.com/th/chonburi/phanthong/3e3f993ce6c5a7f1f833e97a3549e344,Mo-Fr 10:00-18:00,Western Union,Q861042
4b756e75b1d81d141040f69c13158ba1,western_union,FAMILY MART BANKAO SOI 12,,Chon Buri,CHONBURI,,TH,(+66) 1572,https://location.westernunion.com/th/chonburi/chon-buri/4b756e75b1d81d141040f69c13158ba1,Mo-Su 00:01-24:00,Western Union,Q861042
09d4d9ffb14ab48d3c3ff06d90690d6e,western_union,BAN BOON NAM APARTMENT BLD.3,,Chon Buri,CHONBURI,,TH,(+66) 1572,https://location.westernunion.com/th/chonburi/chon-buri/09d4d9ffb14ab48d3c3ff06d90690d6e,Mo-Su 00:01-24:00,Western Union,Q861042
8ebd15c06ed86c3c64291fa9dcc6234c,western_union,BBL PHAN THONG,,Phan Thong,CHONBURI,,TH,+66 38 451 185,https://location.westernunion.com/th/chonburi/phan-thong/8ebd15c06ed86c3c64291fa9dcc6234c,Mo-Fr 08:30-15:30,Western Union,Q861042
e5b5151f0804bfc29f4a7271618516fe,western_union,7-ELEVEN CHUMCHON PANTONG,,Chon Buri,CHONBURI,,TH,(+66) 1572,https://location.westernunion.com/th/chonburi/chon-buri/e5b5151f0804bfc29f4a7271618516fe,Mo-Su 00:01-24:00,Western Union,Q861042
a0209b09d0fe5e9491cc2db59eb6eaf9,western_union,KTB PHAN THONG,,Phan Thong,CHONBURI,,TH,+66 2 111 1111,https://location.westernunion.com/th/chonburi/phan-thong/a0209b09d0fe5e9491cc2db59eb6eaf9,Mo-Su 06:00-22:00,Western Union,Q861042
75e9ddf85c2d64b4038d079ceab47fbc,western_union,KTB PHAN THONG,,Phan Thong,CHONBURI,,TH,+66 38 452 493,https://location.westernunion.com/th/chonburi/phan-thong/75e9ddf85c2d64b4038d079ceab47fbc,Mo-Fr 08:30-16:30,Western Union,Q861042
2c48f754053e3c9c7b86dac888da1ffb,western_union,THAILAND POST PHAN THONG,,Phan Thong,CHONBURI,,TH,+66 2 831 3271,https://location.westernunion.com/th/chonburi/phan-thong/2c48f754053e3c9c7b86dac888da1ffb,Mo-Fr 08:30-16:30,Western Union,Q861042
c4b39f7af282cecabc2b207f63a336de,western_union,LOTUS EXPRESS TALAD WATSRI,,Chon Buri,CHONBURI,,TH,(+66) 1572,https://location.westernunion.com/th/chonburi/chon-buri/c4b39f7af282cecabc2b207f63a336de,Mo-Su 00:01-24:00,Western Union,Q861042
b6ad95b496a235ed685c33e2f703999e,western_union,7-ELEVEN CHAROENNAKHON CONDO,,Chon Buri,CHONBURI,,TH,(+66) 1572,https://location.westernunion.com/th/chonburi/chon-buri/b6ad95b496a235ed685c33e2f703999e,Mo-Su 00:01-24:00,Western Union,Q861042
