Ref,Spider,Name,Address,City,State,Zipcode,Country,Phone,Website,Hours,Brand,WikiData
203257,bluerhino,CASEY'S GENERAL STORE #3067,,SYRACUSE,IN,,US,+1 574-457-5710,,,Blue Rhino,Q65681213
59776,citi,ATM HORIZON BANK,,Syracuse,IN,,US,,,,Citibank,Q857063
46481,citi,ATM CROSSROADS BANK,,Syracuse,IN,,US,,,,Citibank,Q857063
50122,citi,ATM CVS,,Syracuse,IN,,US,,,,Citibank,Q857063
,credit_union_us,Interra CU,,Syracuse,IN,,US,+1 574-534-2506,,Fr 08:30-05:00; Sa 08:30-12:00,,
6499,cvs_us,CVS Pharmacy,,Syracuse,IN,,US,+1 574-457-4000,https://www.cvs.com/store-locator/syracuse-in-pharmacies/308-s-huntington-st-syracuse-in-46567/storeid=6499,Mo-Th 08:00-22:00; Fr-Sa 08:00-23:00; Su 08:00-22:00,CVS Pharmacy,Q2078880
19834,dollar_general,Dollar General,,Syracuse,IN,,US,+1 574-337-3500,https://www.dollargeneral.com/store-directory/in/syracuse/19834,Mo-Su 08:00-22:00,Dollar General,Q145168
https://www.edwardjones.com/us-en/financial-advisor/matt-schwartz,edwardjones,Matt Schwartz,,Syracuse,IN,,US,+1 574-457-0225,https://www.edwardjones.com/us-en/financial-advisor/matt-schwartz,Mo-Th 08:30-17:00; Fr 08:30-16:00,Edward Jones,Q5343830
b0deca87-458a-e111-8dde-005056934050,goodwill,Family Dollar Donation Center,,Syracuse,IN,,US,,https://www.goodwill.org/locator/location/?store=YjBkZWNhODctNDU4YS1lMTExLThkZGUtMDA1MDU2OTM0MDUw&lat=NDEuNDE2MTM=&lng=LTg1Ljc0NTY5,,Goodwill,Q5583655
3a84e06f-458a-e111-8dde-005056934050,goodwill,Pamida Donation Center,,Syracuse,IN,,US,,https://www.goodwill.org/locator/location/?store=M2E4NGUwNmYtNDU4YS1lMTExLThkZGUtMDA1MDU2OTM0MDUw&lat=NDEuNDMwODk=&lng=LTg1Ljc1Mzk3,,Goodwill,Q5583655
20756,h_r_block,H&R Block,,Syracuse,IN,,US,+1 574-457-2685,https://www.hrblock.com/local-tax-offices/indiana/syracuse/607-s-huntington-st/20756/,,H&R Block,Q5627799
159493,marathon_petroleum_us,Angel Food Mart,,Syracuse,IN,,US,+1 260-856-3813,,,Marathon,Q458363
155685,marathon_petroleum_us,Wilbys Gas and Goodies 8,,SYRACUSE,IN,,US,+1 574-457-2400,,,Marathon,Q458363
in_syracuse_1112-s-huntington-rd,pizza_hut_us,1112 S. Huntington Rd.,,Syracuse,IN,,US,+1 574-457-8300,https://locations.pizzahut.com/in/syracuse/1112-s-huntington-rd,,Pizza Hut,Q191615
https://restaurants.subway.com/#14906263,subway,Subway,,Syracuse Kosciusko,IN,,US,+1 574-457-5700,https://restaurants.subway.com/united-states/in/syracuse/804-s-huntington-rd,Mo-We 08:00-21:00; Th-Fr 08:00-22:00; Sa 09:00-22:00; Su 10:00-21:00,Subway,Q244457
0825104300,sunoco_us,Sunoco,,SYRACUSE,IN,,US,+1 574-457-8095,,Mo-Sa 06:00-00:00; Su 06:00-22:00,Sunoco,Q1423218
0740075700,sunoco_us,Sunoco,,SYRACUSE,IN,,US,+1 574-274-3662,,Mo-Sa 05:00-23:00; Su 06:00-22:00,Sunoco,Q1423218
https://locations.tacobell.com/#10697109,taco_bell,Taco Bell,,Syracuse,IN,,US,+1 574-528-6300,https://locations.tacobell.com/in/syracuse/1206-s-huntington-st-.html,Mo-Su 08:00-01:00,Taco Bell,Q752941
1384176,usps,SYRACUSE,,SYRACUSE,IN,,US,+1 574-457-3424,,Mo-Fr 09:00-16:00; Sa 09:00-11:00,United States Postal Service,Q668687
4656700002,usps_collection_boxes,USPS COLLECTION BOX - BLUE BOX,1010 N INDIANA AVE,SYRACUSE,IN,,US,,,,United States Postal Service,Q668687
4656700006,usps_collection_boxes,USPS COLLECTION BOX - PO LOBBY,1010 N INDIANA AVE,SYRACUSE,IN,,US,,,,United States Postal Service,Q668687
4656700009,usps_collection_boxes,USPS COLLECTION BOX - PO LOBBY,1010 N INDIANA AVE,SYRACUSE,IN,,US,,,,United States Postal Service,Q668687
4656700007,usps_collection_boxes,USPS COLLECTION BOX - BLUE BOX,500 S HUNTINGTON ST,SYRACUSE,IN,,US,,,,United States Postal Service,Q668687
A00000253647,verizon_us,Russell Cellular Syracuse,,Syracuse,IN,,US,+1 574-529-0968,https://www.verizon.com/stores/details/indiana/syracuse/russell-cellular-syracuse-1363022/,Mo-Sa 09:00-19:00; Su 11:00-17:00,Verizon,Q919641
,visa,,,SYRACUSE,IN,,US,,,,,
,visa,,,SYRACUSE,IN,,US,,,,,
,visa,,,SYRACUSE,IN,,US,,,,,
,visa,,,SYRACUSE,IN,,US,,,,,
,visa,,,SYRACUSE,IN,,US,,,,,
,visa,,,SYRACUSE,IN,,US,,,,,
,visa,,,SYRACUSE,IN,,US,,,,,
,visa,,,SYRACUSE,IN,,US,,,,,
,visa,,,SYRACUSE,IN,,US,,,,,
,visa,,,SYRACUSE,IN,,US,,,,,
,visa,,,SYRACUSE,IN,,US,,,,,
,visa,,,SYRACUSE,IN,,US,,,,,
,visa,,,SYRACUSE,IN,,US,,,,,
,visa,,,SYRACUSE,IN,,US,,,,,
,visa,,,SYRACUSE,IN,,US,,,,,
,visa,,,SYRACUSE,IN,,US,,,,,
,visa,,,SYRACUSE,IN,,US,,,,,
,visa,,,SYRACUSE,IN,,US,,,,,
,visa,,,SYRACUSE,IN,,US,,,,,
,visa,,,SYRACUSE,IN,,US,,,,,
