Ref,Spider,Name,Address,City,State,Zipcode,Country,Phone,Website,Hours,Brand,WikiData
https://locations.arbys.com/va/roanoke/685-brandon-ave.html,arbys_us,"Arby's Fast-Food Drive Through Near You in Roanoke, VA",,Roanoke,VA,,US,+1 540-342-3292,https://locations.arbys.com/va/roanoke/685-brandon-ave.html,Mo-Th 10:00-23:00; Fr-Sa 10:00-24:00; Su 10:00-23:00,Arby's,Q630866
271638,asics_us,RunAbout Sports Roanoke,3635 Franklin Rd SW,Roanoke,VA,,US,+1 540-989-2064,,Mo-Sa 10:00-18:00; Su 12:00-17:00,asics,Q327247
BBW01121,bathandbodyworks_us,TANGLEWOOD MALL,,ROANOKE,VA,,US,+1 540-725-9950,,Mo-Sa 10:00-21:00; Su 12:00-18:00,Bath & Body Works,Q810773
https://local.biglots.com/#13189866,biglots,Big Lots - Cave Spring,,Roanoke,VA,,US,+1 540-772-2771,https://local.biglots.com/va/roanoke/4350-franklin-rd-sw,Mo-Sa 09:00-21:00; Su 10:00-19:00,Big Lots,Q4905973
37829,bluerhino,Lowe's #664,,Roanoke,VA,,US,+1 540-725-1883,,,Blue Rhino,Q65681213
5554,bluerhino,Kroger #202 - MidAtlantic,,Roanoke,VA,,US,+1 540-989-4434,,,Blue Rhino,Q65681213
5560,bluerhino,Walmart #1301,,Roanoke,VA,,US,+1 540-772-3892,,,Blue Rhino,Q65681213
153994,bluerhino,Walgreens #07605,,Roanoke,VA,,US,+1 540-387-0099,,,Blue Rhino,Q65681213
12099,bluerhino,Food Lion #0607,,Roanoke,VA,,US,+1 540-427-3178,,,Blue Rhino,Q65681213
88419,bluerhino,Mt. Pleasant Quik Mart,,Roanoke,VA,,US,+1 540-427-0647,,,Blue Rhino,Q65681213
va/roanoke/4440-franklin-road,bojangles,"Bojangles Roanoke, VA",,Roanoke,VA,,US,+1 540-206-2711,https://locations.bojangles.com/va/roanoke/4440-franklin-road.html,,Bojangles',Q891163
86687513507262401400100000000000,bp,BP,,ROANOKE,VA,,US,+1 540-342-1533,,Mo-Fr 07:30-18:00; Sa 09:00-16:00,BP,Q152057
https://stores.catofashions.com/#26560767,cato_us,Cato,,,VA,,US,+1 540-772-4912,https://stores.catofashions.com/va/roanoke/4208-franklin-road,Mo-Sa 10:00-20:00; Su 13:00-18:00,Cato,Q16956136
https://locations.chuckecheese.com/us/va/roanoke/4059-electric-rd.,chuckecheese,Chuck E. Cheese,,Roanoke,VA,,US,+1 540-989-8193,https://locations.chuckecheese.com/us/va/roanoke/4059-electric-rd.,Mo-Th 11:00-21:00; Fr 11:00-22:00; Sa 10:00-22:00; Su 11:00-21:00,Chuck E. Cheese,Q2438391
76238,citi,ATM SMOKERS CHOICE,,Roanoke,VA,,US,,,,Citibank,Q857063
89226,citi,ATM Walgreens,,Roanoke,VA,,US,,,,Citibank,Q857063
27488,citi,ATM 7ELEVEN-FCTI,,Roanoke,VA,,US,,,,Citibank,Q857063
249,dollartree,DollarTree,,Roanoke,VA,,US,+1 540-795-6938,,Mo-Sa 09:00-21:00; Su 10:00-21:00,Dollar Tree,Q5289230
8560,dollartree,DollarTree,,Roanoke,VA,,US,+1 540-970-1622,,Mo-Sa 09:00-21:00; Su 10:00-21:00,Dollar Tree,Q5289230
8495,dominos_pizza_us,Domino's Pizza,,Roanoke,VA,,US,+1 540-595-0675,https://pizza.dominos.com/virginia/roanoke/2161-bennington-se,Mo-Th 10:00-24:00; Fr-Sa 10:00-01:00; Su 10:00-24:00,Domino's,Q839466
301797,dunkin_us,Dunkin',,Roanoke,VA,,US,+1 540-343-3170,https://locations.dunkindonuts.com/en/va/roanoke/3620-franklin-rd-sw/301797,Mo-Fr 05:30-19:00; Sa-Su 06:00-19:00,Dunkin',Q847743
https://www.edwardjones.com/us-en/financial-advisor/carl-grove2,edwardjones,Carl J Grove,,Roanoke,VA,,US,+1 540-344-9211,https://www.edwardjones.com/us-en/financial-advisor/carl-grove2,Mo-Th 08:30-17:00; Fr 08:30-16:00,Edward Jones,Q5343830
200326783,exxonmobil,BOULEVARD MART,,ROANOKE,VA,,US,,https://www.exxon.com/en/find-station/exxon-roanoke-va-boulevardmart-200326783,24/7,Exxon,Q109675651
200310850,exxonmobil,Mobil,,ROANOKE,VA,,US,,https://www.exxon.com/en/find-station/mobil-roanoke-va-mobil-200310850,Mo-Su 06:00-22:00,Mobil,Q109676002
https://local.fedex.com/#25197878,fedex,,,Roanoke,VA,,US,+1 800-463-3339,https://local.fedex.com/en-us/va/roanoke/aacjs,,FedEx,Q459477
7081,fresenius_kidney_care_us,Fresenius Kidney Care Crystal Spring,,Roanoke,VA,,US,+1 800-881-5101,https://www.freseniuskidneycare.com/dialysis-centers/virginia/7081,Mo 04:30-20:30; Tu 05:00-16:00; We 04:30-20:30; Th 05:00-16:00; Fr 04:30-20:30; Sa 05:00-16:00,,
101227,fresenius_kidney_care_us,Fresenius Kidney Care South Roanoke,,Roanoke,VA,,US,+1 800-881-5101,https://www.freseniuskidneycare.com/dialysis-centers/virginia/101227,Mo 06:30-21:00; We 06:30-21:00; Fr 06:30-21:00,,
1cb45be6-83a3-e311-9471-0050568924e6,goodwill,Roanoke Store and Donation Center - Hunting Hills,,Roanoke,VA,,US,+1 540-725-1204,https://www.goodwill.org/locator/location/?store=MWNiNDViZTYtODNhMy1lMzExLTk0NzEtMDA1MDU2ODkyNGU2&lat=MzcuMjIyMTg=&lng=LTc5Ljk2NjQz,,Goodwill,Q5583655
2232,honey_baked,HoneyBaked of Roanoke,,Roanoke,VA,,US,+1 540-857-4267,https://www.honeybaked.com/stores/2232,,Honey Baked Ham,Q5893363
va_roanoke_breakfast-3926-franklin-rd-sw-573,ihop,IHOP Breakfast Restaurants Near You at 3926 Franklin Rd SW,,Roanoke,VA,,US,+1 540-655-4654,https://restaurants.ihop.com/en-us/va/roanoke/breakfast-3926-franklin-rd-sw-573,,IHOP,Q1185675
1414,kohls_us,Kohl's,,Roanoke,VA,,US,+1 540-725-1168,https://www.kohls.com/stores/va/roanoke-1414.shtml,Mo-Sa 09:00-21:00; Su 09:00-20:00,Kohl's,Q967265
https://locations.outback.com/#15502056,outbacksteakhouse,Outback Steakhouse,,Roanoke,VA,,US,+1 540-776-3238,https://locations.outback.com/virginia/roanoke/4380-franklin-road,Mo-Th 11:00-22:00; Fr-Sa 11:00-23:00; Su 11:00-21:00,Outback Steakhouse,Q1064893
va_roanoke_4220-franklin-rd-sw,pizza_hut_us,4220 Franklin Rd SW,,Roanoke,VA,,US,,https://locations.pizzahut.com/va/roanoke/4220-franklin-rd-sw,,Pizza Hut,Q191615
spectrum-paint-north-llc-66345,ppgpaints,SPECTRUM PAINT NORTH LLC,,"Roanoke, ",VA,,US,+1 540-206-2120,https://www.ppgpaints.com/store-locator/us/virginia/roanoke-paint-stores/spectrum-paint-north-llc-66345,,PPG Paints,Q83891559
home-depot-4628-13086,ppgpaints,HOME DEPOT 4628,,"Roanoke, ",VA,,US,+1 540-772-3087,https://www.ppgpaints.com/store-locator/us/virginia/roanoke-paint-stores/home-depot-4628-13086,,PPG Paints,Q83891559
https://www.publicstorage.com/self-storage-va-roanoke/5333.html,public_storage_us,Public Storage,,Roanoke,VA,,US,+1 540-291-7665,https://www.publicstorage.com/self-storage-va-roanoke/5333.html,,Public Storage,Q1156045
8825,regal_nails_us,"Regal Nails, Salon &#038; Spa",5350 Clearbrooke Village Ln,Roanoke,VA,,US,+1 540-725-1000,,,Regal Nails,Q108918028
8759,regal_nails_us,"Regal Nails, Salon &#038; Spa",4807 Valley View Blvd NW,Roanoke,VA,,US,+1 540-563-2700,,,Regal Nails,Q108918028
https://restaurants.subway.com/#14897987,subway,Subway Wal-Mart #1301,,Roanoke Roanoke City,VA,,US,+1 540-769-2020,https://restaurants.subway.com/united-states/va/roanoke/5350-clearbook-village-ln,Mo-Su 08:00-21:00,Subway,Q244457
https://locations.tacobell.com/#6143616,taco_bell,Taco Bell,,Roanoke,VA,,US,+1 540-989-9523,https://locations.tacobell.com/va/roanoke/4220-franklin-rd-sw.html,Mo-Th 07:00-01:00; Fr-Sa 07:00-02:00; Su 07:00-01:00,Taco Bell,Q752941
5OST,tmobile_us,Franklin Rd SW & Electric Rd,,Roanoke,VA,,US,+1 540-345-3737,https://www.t-mobile.com/store-locator/va/roanoke/franklin-rd-sw-electric-rd,,T-Mobile,Q3511885
1382256,usps,SOUTH ROANOKE,,ROANOKE,VA,,US,+1 540-342-7251,,"Mo-Fr 09:00-13:15,14:30-16:30; Sa 10:00-12:00",United States Postal Service,Q668687
2401400061,usps_collection_boxes,USPS COLLECTION BOX - BLUE BOX,4419 PHEASANT RIDGE RD,ROANOKE,VA,,US,,,,United States Postal Service,Q668687
2401400023,usps_collection_boxes,USPS COLLECTION BOX - BLUE BOX,3613 FRANKLIN RD SW,ROANOKE,VA,,US,,,,United States Postal Service,Q668687
2401400073,usps_collection_boxes,USPS COLLECTION BOX - PO LOBBY,2229 CRYSTAL SPRING AVE SW,ROANOKE,VA,,US,,,,United States Postal Service,Q668687
2401400039,usps_collection_boxes,USPS COLLECTION BOX - BLUE BOX,2229 CRYSTAL SPRING AVE SW,ROANOKE,VA,,US,,,,United States Postal Service,Q668687
2401400040,usps_collection_boxes,USPS COLLECTION BOX - BLUE BOX,2229 CRYSTAL SPRING AVE SW,ROANOKE,VA,,US,,,,United States Postal Service,Q668687
2401400042,usps_collection_boxes,USPS COLLECTION BOX - BLUE BOX,2229 CRYSTAL SPRING AVE SW,ROANOKE,VA,,US,,,,United States Postal Service,Q668687
2401400060,usps_collection_boxes,USPS COLLECTION BOX - PO LOBBY,2229 CRYSTAL SPRING AVE SW,ROANOKE,VA,,US,,,,United States Postal Service,Q668687
0000031437,valero,Franklin Market,,Roanoke,VA,,US,,https://locations.valero.com/en-us/LocationDetails/Index/2131-FRANKLIN-RD/0000031437,,Valero,Q1283291
roanoke_oil-change-080033,valvoline_instant_oil_change,Valvoline,4206 Franklin Road SW ,Roanoke,VA,,US,+1 540-523-1882,https://store.vioc.com/va/roanoke/oil-change-080033.html,,Valvoline Instant Oil Change,Q7912852
,visa,,,ROANOKE,VA,,US,,,,,
,visa,,,ROANOKE,VA,,US,,,,,
,visa,,,ROANOKE,VA,,US,,,,,
,visa,,,ROANOKE,VA,,US,,,,,
,visa,,,ROANOKE,VA,,US,,,,,
,visa,,,ROANOKE,VA,,US,,,,,
,visa,,,ROANOKE,VA,,US,,,,,
,visa,,,ROANOKE,VA,,US,,,,,
,visa,,,ROANOKE,VA,,US,,,,,
,visa,,,ROANOKE,VA,,US,,,,,
,visa,,,ROANOKE,VA,,US,,,,,
,visa,,,ROANOKE,VA,,US,,,,,
,visa,,,ROANOKE,VA,,US,,,,,
,visa,,,ROANOKE,VA,,US,,,,,
,visa,,,ROANOKE,VA,,US,,,,,
,visa,,,ROANOKE,VA,,US,,,,,
,visa,,,ROANOKE,VA,,US,,,,,
,visa,,,ROANOKE,VA,,US,,,,,
,visa,,,ROANOKE,VA,,US,,,,,
,visa,,,ROANOKE,VA,,US,,,,,
,visa,,,ROANOKE,VA,,US,,,,,
,visa,,,ROANOKE,VA,,US,,,,,
,visa,,,ROANOKE,VA,,US,,,,,
,visa,,,ROANOKE,VA,,US,,,,,
,visa,,,ROANOKE,VA,,US,,,,,
,visa,,,ROANOKE,VA,,US,,,,,
,visa,,,ROANOKE,VA,,US,,,,,
,visa,,,ROANOKE,VA,,US,,,,,
,visa,,,ROANOKE,VA,,US,,,,,
,visa,,,ROANOKE,VA,,US,,,,,
,visa,,,ROANOKE,VA,,US,,,,,
,visa,,,ROANOKE,VA,,US,,,,,
,visa,,,ROANOKE,VA,,US,,,,,
,visa,,,ROANOKE,VA,,US,,,,,
,visa,,,ROANOKE,VA,,US,,,,,
,visa,,,ROANOKE,VA,,US,,,,,
,visa,,,ROANOKE,VA,,US,,,,,
,visa,,,ROANOKE,VA,,US,,,,,
,visa,,,ROANOKE,VA,,US,,,,,
,visa,,,ROANOKE,VA,,US,,,,,
,visa,,,ROANOKE,VA,,US,,,,,
,visa,,,ROANOKE,VA,,US,,,,,
,visa,,,SALEM,VA,,US,,,,,
https://www.walgreens.com/locator/walgreens-2351+franklin+rd+sw-roanoke-va-24014/id=7605,walgreens,Walgreens,,Roanoke,VA,,US,+1 540-985-6491,https://www.walgreens.com/locator/walgreens-2351+franklin+rd+sw-roanoke-va-24014/id=7605,Mo-Su 07:00-22:00,Walgreens,Q1591889
1722__BELLEVIEW__AVE__SE_ROANOKE_VA_24014,wellsfargo,,1722 BELLEVIEW AVE SE,ROANOKE,VA,,US,+1 800-869-3557,https://www.wellsfargo.com/locator/bank/1722__BELLEVIEW__AVE__SE_ROANOKE_VA_24014/,,Wells Fargo,Q744149
0bd48af8b4b3d489d3369528f1446ce6,western_union,7-ELEVEN #11961,,Roanoke,VA,,US,+1 540-982-0608,https://location.westernunion.com/us/va/roanoke/0bd48af8b4b3d489d3369528f1446ce6,,Western Union,Q861042
eeafe04951c368591649a26b69c9678d,western_union,7-ELEVEN #11961,,Roanoke,VA,,US,+1 540-982-0608,https://location.westernunion.com/us/va/roanoke/eeafe04951c368591649a26b69c9678d,,Western Union,Q861042
bd4d4ce5236be95c8e408adb9a9ca125,western_union,WALMART #001301,,Roanoke,VA,,US,+1 540-772-3892,https://location.westernunion.com/us/va/roanoke/bd4d4ce5236be95c8e408adb9a9ca125,Mo-Su 07:00-21:00,Western Union,Q861042
