Ref,Spider,Name,Address,City,State,Zipcode,Country,Phone,Website,Hours,Brand,WikiData
1098,anytime_fitness,Anytime Fitness,,Canon City,CO,,US,+1 719-657-7771,https://www.anytimefitness.com/gyms/1098/canon-city-co-81212/,,Anytime Fitness,Q4778364
848,autozone_us,AutoZone Auto Parts Canon City,,Canon City,CO,,US,+1 719-269-3570,https://www.autozone.com/locations/co/canon-city/1811-fremont-dr-un.html,Mo-Sa 07:30-21:00; Su 08:00-20:00,AutoZone,Q4826087
205349,bluerhino,Alta Convenience #6330,,Canon City,CO,,US,+1 719-275-4038,,,Blue Rhino,Q65681213
178086,bluerhino,Loaf N Jug #54,,Canon City,CO,,US,+1 719-275-6565,,,Blue Rhino,Q65681213
205344,bluerhino,Alta Convenience #6122,,Ca?on City,CO,,US,+1 719-275-6045,,,Blue Rhino,Q65681213
205346,bluerhino,Alta Convenience #6324,,Ca?on City,CO,,US,+1 719-275-2176,,,Blue Rhino,Q65681213
228765,bluerhino,City Mkt #417 - Fuel Site,,Canon City,CO,,US,+1 719-275-1595,,,Blue Rhino,Q65681213
156252,bluerhino,Walgreens #9393,,Canon City,CO,,US,+1 719-275-1267,,,Blue Rhino,Q65681213
82282,bluerhino,City Mkt #417,,Canon City,CO,,US,+1 719-275-1595,,,Blue Rhino,Q65681213
204269,bluerhino,T'z Mart Liquor Antiques,,Canon City,CO,,US,+1 719-502-6232,,,Blue Rhino,Q65681213
205348,bluerhino,Alta Convenience #6328,,Cañon City,CO,,US,+1 719-275-0444,,,Blue Rhino,Q65681213
205347,bluerhino,Alta Convenience #6326,,Canon City,CO,,US,+1 719-275-9650,,,Blue Rhino,Q65681213
218643,bluerhino,Love's #873,,Canon City,CO,,US,,,,Blue Rhino,Q65681213
KR002311,bmo,Loaf N Jug,,Canon City,CO,,US,,,,BMO,Q4835981
CR019248,bmo,Royal Gorge Bridge,,Canon City,CO,,US,,,,BMO,Q4835981
10218,chevrolet,"LINDNER CHEVROLET, INC.",,Canon CIty,CO,,US,+1 866-847-4022,https://www.lindnerauto.com,Mo-Fr 07:30-17:30; Sa 07:30-17:00,Chevrolet,Q29570
001.005.0800,chilis,Canon City,,Canon City,CO,,US,+1 719-269-1932,https://www.chilis.com/locations/us/colorado/canon-city/canon-city/,Mo-Th 11:00-22:00; Fr-Sa 11:00-23:00; Su 11:00-22:00,Chili's,Q1072948
75152,citi,ATM Royal Gorge Bridge,,Canon City,CO,,US,,,,Citibank,Q857063
55798,citi,ATM FIRST INTERSTATE BANK,,Canon City,CO,,US,,,,Citibank,Q857063
64047,citi,ATM Loaf N Jug,,Canon City,CO,,US,,,,Citibank,Q857063
60038,citi,ATM INBANK,,Canon City,CO,,US,,,,Citibank,Q857063
87987,citi,ATM Walgreens,,Canon City,CO,,US,,,,Citibank,Q857063
44729,citi,ATM City Market,,Canon City,CO,,US,,,,Citibank,Q857063
46430,citi,ATM CREDIT UNION OF COLORADO,,Canon City,CO,,US,,,,Citibank,Q857063
59370,citi,ATM HIGH COUNTRY BANK,,Canon City,CO,,US,,,,Citibank,Q857063
21263,coldstone_creamery,Cold Stone Creamery,,Canon City,CO,,US,+1 719-276-1166,https://www.coldstonecreamery.com/stores/21263,,Cold Stone Creamery,Q1094923
,credit_union_us,Power CU,,Canon City,CO,,US,+1 719-564-0710,,Mo-Fr 08:30-05:30,,
,credit_union_us,SunWest Educational CU,,Canon City,CO,,US,+1 719-275-3261,,Mo-Fr 09:00-05:00,,
70180442,cricket_wireless,Cricket Wireless Authorized Retailer,,Canon City,CO,,US,+1 719-345-3061,https://www.cricketwireless.com/stores/ll/US/CO/Canon-City/1540-Royal-Gorge-Blvd,Mo-Sa 10:00-19:00; Su 12:00-17:00,Cricket Wireless,Q5184987
6275,dominos_pizza_us,Domino's Pizza,,Canon City,CO,,US,+1 719-275-1631,https://pizza.dominos.com/colorado/canon-city/1003-royal-gorge-blvd,Mo-Th 10:00-24:00; Fr-Sa 10:00-01:00; Su 10:00-24:00,Domino's,Q839466
https://www.edwardjones.com/us-en/financial-advisor/christian-pineda,edwardjones,Christian Pineda,,Canon City,CO,,US,+1 719-276-3443,https://www.edwardjones.com/us-en/financial-advisor/christian-pineda,,Edward Jones,Q5343830
520990,eg_america_us,Loaf 'N Jug,,Canon City,CO,,US,+1 719-275-6565,https://www.loafnjug.com/find-us/generic-store-page/?id=750054,,Loaf 'N Jug,Q6663398
Motorcraft2526USAEnglish,ford,"Faricy Ford Lincoln, Inc.",,Colorado,CO,,US,+1 719-269-9911,,,Ford,Q44294
https://www.ford.com/dealerships/dealer-details/co/canon-city/the-faricy-boys-ford/,ford_dealers_us,The Faricy Boys Ford,,Canon City,CO,,US,+1 719-315-9895,https://www.ford.com/dealerships/dealer-details/co/canon-city/the-faricy-boys-ford/,Mo-Fr 08:30-18:00; Sa 09:00-18:00,Ford Motor Company,Q44294
2107,fresenius_kidney_care_us,Fresenius Kidney Care Qci Canon City,,Canon City,CO,,US,+1 800-881-5101,https://www.freseniuskidneycare.com/dialysis-centers/colorado/2107,Mo 05:00-16:30; Tu 05:00-12:00; We 05:00-16:30; Th 05:00-12:00; Fr 05:00-16:30; Sa 05:00-12:00,,
e1dd83db-458a-e111-8dde-005056934050,goodwill,Canon City Retail Center,,Canon City,CO,,US,+1 719-275-7160,https://www.goodwill.org/locator/location/?store=ZTFkZDgzZGItNDU4YS1lMTExLThkZGUtMDA1MDU2OTM0MDUw&lat=MzguNDQzMDc=&lng=LTEwNS4yMzUzNw==,,Goodwill,Q5583655
https://www.harborfreight.com/storelocator/1811-fremont-drive-suite-b-canon-city-81212?number=869,harborfreight,"Harbor Freight Tools Canon City, CO",,Canon City,CO,,US,+1 719-275-2034,https://www.harborfreight.com/storelocator/1811-fremont-drive-suite-b-canon-city-81212?number=869,Mo-Sa 08:00-20:00; Su 09:00-18:00,Harbor Freight Tools,Q5654601
pubcchx-hampton-canon-city,hilton,Hampton Inn Canon City,,,CO,,US,+1 719-269-1112,https://www.hilton.com/ar/hotels/pubcchx-hampton-canon-city/,,Hampton by Hilton,Q5646230
7082,h_r_block,H&R Block,,Canon City,CO,,US,+1 719-275-3544,https://www.hrblock.com/local-tax-offices/colorado/canon-city/304-a-16th/7082/,,H&R Block,Q5627799
co_canon-city_breakfast-108-latigo-lane-3514,ihop,IHOP Breakfast Restaurants Near You at 108 Latigo Lane,,CAÑON CITY,CO,,US,+1 719-275-2111,https://restaurants.ihop.com/en-us/co/canon-city/breakfast-108-latigo-lane-3514,,IHOP,Q1185675
https://office.jacksonhewitt.com/#64293402,jackson_hewitt,Jackson Hewitt,,Canon City,CO,,US,+1 719-404-3234,https://office.jacksonhewitt.com/tax-preparation-services-locations/en/co/canon-city/3105-e-us-hwy-50/51019,Mo-Sa 11:00-19:00; Su 13:00-17:00,Jackson Hewitt,Q6117132
https://locations.jimmyjohns.com/co/canoncity/sandwiches-2841.html,jimmy_johns,Jimmy John's,,Cañon City,CO,,US,+1 719-276-9999,https://locations.jimmyjohns.com/co/canoncity/sandwiches-2841.html,,Jimmy John's,Q1689380
https://healthy.kaiserpermanente.org/colorado/facilities/walmart-pharmacy-10-1019-339331,kaiser_permanente_us,Walmart Pharmacy 10-1019,,Canon City,CO,,US,+1 719-275-1641,https://healthy.kaiserpermanente.org/colorado/facilities/walmart-pharmacy-10-1019-339331,,Kaiser Permanente,Q1721601
https://healthy.kaiserpermanente.org/colorado/facilities/walgreens-no-9393-339319,kaiser_permanente_us,Walgreens No. 9393,,Canon City,CO,,US,+1 719-275-1267,https://healthy.kaiserpermanente.org/colorado/facilities/walgreens-no-9393-339319,,Kaiser Permanente,Q1721601
https://healthy.kaiserpermanente.org/colorado/facilities/sangre-de-cristo-hospice-and-palliative-care-305087,kaiser_permanente_us,Sangre De Cristo Hospice and Palliative Care,,Canon City,CO,,US,+1 719-275-1261,https://healthy.kaiserpermanente.org/colorado/facilities/sangre-de-cristo-hospice-and-palliative-care-305087,,Kaiser Permanente,Q1721601
https://healthy.kaiserpermanente.org/colorado/facilities/sangre-de-cristo-community-care-llc-178800,kaiser_permanente_us,Sangre de Cristo Community Care LLC,,Canon City,CO,,US,+1 719-542-0032,https://healthy.kaiserpermanente.org/colorado/facilities/sangre-de-cristo-community-care-llc-178800,,Kaiser Permanente,Q1721601
https://healthy.kaiserpermanente.org/colorado/facilities/centura-st-thomas-more-hospital-300106,kaiser_permanente_us,Centura St. Thomas More Hospital,,Canon City,CO,,US,+1 719-285-2000,https://healthy.kaiserpermanente.org/colorado/facilities/centura-st-thomas-more-hospital-300106,,Kaiser Permanente,Q1721601
https://healthy.kaiserpermanente.org/colorado/facilities/centura-health-urgent-care-canon-city-306781,kaiser_permanente_us,Centura Health Urgent Care Canon City,,Canon City,CO,,US,+1 719-285-2888,https://healthy.kaiserpermanente.org/colorado/facilities/centura-health-urgent-care-canon-city-306781,,Kaiser Permanente,Q1721601
https://healthy.kaiserpermanente.org/colorado/facilities/arkansas-valley-surgery-center-304883,kaiser_permanente_us,Arkansas Valley Surgery Center,,Canon City,CO,,US,+1 719-275-6433,https://healthy.kaiserpermanente.org/colorado/facilities/arkansas-valley-surgery-center-304883,,Kaiser Permanente,Q1721601
https://locations.kfc.com/#27241244,kfc,Chicken Nuggets Near Canon City,,Canon City,CO,,US,,https://locations.kfc.com/co/canon-city/2705-fremont-drive/chickennugget,Mo-Su 10:30-22:00,KFC,Q524757
7877,little_free_library,Jeri Fry #7877 Canon City CO,,Canon City,CO,,US,,,,Little Free Library,Q6650101
5947,little_free_library,Leonard and Mary Lou Nelson #5947 Canon City CO,,Canon City,CO,,US,,,,Little Free Library,Q6650101
159560,little_free_library,The Marian Kasmer Little Free Library #159560 Canon City CO,,Canon City,CO,,US,,,,Little Free Library,Q6650101
1202,loves,Site 873,,Canon City,CO,,US,+1 719-458-6028,,,Love's,Q1872496
71446703,moneygram,WAL-MART - #1019,,CANON CITY,CO,,US,+1 719-275-2375,,Mo-Su 07:00-21:00,MoneyGram,Q1944412
https://www.naturalgrocers.com/store/canon-city,natural_grocers_us,Canon City,,Cañon City,CO,,US,,https://www.naturalgrocers.com/store/canon-city,Mo-Sa 08:27-20:36; Su 08:57-19:36,Natural Grocers,Q17146520
https://locations.oreillyauto.com/co/canoncity/check-engine-light-testing-2929.html,oreilly,Your Canon City O'Reilly Auto Parts Store,,Canon City,CO,,US,+1 719-275-1550,https://locations.oreillyauto.com/co/canoncity/check-engine-light-testing-2929.html,Mo-Sa 07:30-21:00; Su 08:00-20:00,O'Reilly Auto Parts,Q7071951
https://locations.oreillyauto.com/co/canoncity/battery-testing-2929.html,oreilly,Your Canon City O'Reilly Auto Parts Store,,Canon City,CO,,US,+1 719-275-1550,https://locations.oreillyauto.com/co/canoncity/battery-testing-2929.html,Mo-Sa 07:30-21:00; Su 08:00-20:00,O'Reilly Auto Parts,Q7071951
https://locations.oreillyauto.com/co/canoncity/wiper-installation-2929.html,oreilly,Your Canon City O'Reilly Auto Parts Store,,Canon City,CO,,US,+1 719-275-1550,https://locations.oreillyauto.com/co/canoncity/wiper-installation-2929.html,Mo-Sa 07:30-21:00; Su 08:00-20:00,O'Reilly Auto Parts,Q7071951
https://locations.oreillyauto.com/co/canoncity/autopartes-2929.html,oreilly,Tu tienda O'Reilly Auto Parts en Canon City,,Canon City,CO,,US,+1 719-275-1550,https://locations.oreillyauto.com/co/canoncity/autopartes-2929.html,Mo-Sa 07:30-21:00; Su 08:00-20:00,O'Reilly Auto Parts,Q7071951
https://locations.papamurphys.com/#15429796,papamurphys,Pizza Takeout & Delivery,,Canon City,CO,,US,+1 719-276-0088,https://locations.papamurphys.com/co/canon-city/1516-main-street,Mo 11:00-20:00; Tu 10:00-20:30; We-Th 11:00-20:00; Fr 10:00-20:00; Sa-Su 11:00-20:00,Papa Murphy's,Q7132349
co_canon-city_310-n-16th-street,pizza_hut_us,310 N. 16th Street,,Canon City,CO,,US,+1 719-269-3000,https://locations.pizzahut.com/co/canon-city/310-n-16th-street,,Pizza Hut,Q191615
m-and-m-paint-llc-37000,ppgpaints,M&M PAINT LLC,,"Canon City, ",CO,,US,+1 719-275-4478,https://www.ppgpaints.com/store-locator/us/colorado/canon-city-paint-stores/m-and-m-paint-llc-37000,,PPG Paints,Q83891559
home-depot-1542-12795,ppgpaints,HOME DEPOT 1542,,"Canon City, ",CO,,US,+1 719-276-2452,https://www.ppgpaints.com/store-locator/us/colorado/canon-city-paint-stores/home-depot-1542-12795,,PPG Paints,Q83891559
https://local.pharmacy.safeway.com/#5673665,safeway,Safeway Pharmacy,,Canon City,CO,,US,+1 719-275-7511,https://local.pharmacy.safeway.com/safeway/co/canon-city/1414-main-st.html,,Safeway,Q1508234
https://local.safeway.com/#5604602,safeway,Safeway,,Canon City,CO,,US,+1 719-275-5221,https://local.safeway.com/safeway/co/canon-city/1414-main-st.html,,Safeway,Q1508234
https://stations.sinclairoil.com/co/canon-city/105-forge-rd,sinclair_us,Sinclair Gas Station,,Canon City,CO,,US,+1 719-275-5477,https://stations.sinclairoil.com/co/canon-city/105-forge-rd,Mo-Su 05:00-21:00,Sinclair,Q1290900
https://restaurants.subway.com/#14913175,subway,Subway /Kwik Stop C-Store,,Canon City Fremont,CO,,US,+1 719-276-8487,https://restaurants.subway.com/united-states/co/canon-city/420-royal-gorge-boulevard,Mo-Su 07:30-20:30,Subway,Q244457
https://restaurants.subway.com/#14906437,subway,Subway Wal-Mart #1019,,Canon City Fremont,CO,,US,+1 719-276-0140,https://restaurants.subway.com/united-states/co/canon-city/3105-hwy-50-e,Mo-Su 08:00-21:00,Subway,Q244457
https://restaurants.subway.com/#14903214,subway,Subway,,Canon City Fremont,CO,,US,+1 719-269-1864,https://restaurants.subway.com/united-states/co/canon-city/1901-fremont-drive,Mo-Fr 07:30-21:30; Sa 07:30-21:00; Su 08:00-21:00,Subway,Q244457
https://locations.tacobell.com/#6147020,taco_bell,Taco Bell,,Canon City,CO,,US,+1 719-275-7539,https://locations.tacobell.com/co/canon-city/1112-royal-gorge-blvd.html,Mo-Su 07:00-02:00,Taco Bell,Q752941
328E,tmobile_us,Fremont Dr & N 19th St,,Canon City,CO,,US,+1 719-394-4649,https://www.t-mobile.com/store-locator/co/canon-city/fremont-dr-n-19th-st,,T-Mobile,Q3511885
23149,true_value_us,Canon City True Value,,Canon City,CO,,US,+1 719-275-6486,https://truevalue.com,,True Value,Q7847545
024538,uhaul,Prospect Heights Mercantile,1345 S 4th St,Canon City,CO,,US,+1 719-792-0023,,Tu-Sa 00:00-17:00,U-Haul,Q7862902
033746,uhaul,Canon City True Value,1630 E Main St,Canon City,CO,,US,+1 719-275-5580,,Mo-Fr 00:00-17:00; Sa 00:00-16:00,U-Haul,Q7862902
004426,uhaul,Majestic Lube USA,220 S 9th St,Canon City,CO,,US,+1 719-269-1097,,Mo-Fr 00:00-15:00; Sa 00:00-24:00,U-Haul,Q7862902
009046,uhaul,Mile High Propane,3365 E US Hwy 50,Canon City,CO,,US,+1 719-275-1723,,Mo-Fr 00:00-15:00,U-Haul,Q7862902
1356878,usps,CANON CITY,,CANON CITY,CO,,US,+1 719-275-6877,,Mo-Fr 08:30-17:00; Sa 09:00-12:00,United States Postal Service,Q668687
8121200024,usps_collection_boxes,USPS COLLECTION BOX - PO LOBBY,1501 MAIN ST,CANON CITY,CO,,US,,,,United States Postal Service,Q668687
8121200023,usps_collection_boxes,USPS COLLECTION BOX - PO LOBBY,1501 MAIN ST,CANON CITY,CO,,US,,,,United States Postal Service,Q668687
8121200025,usps_collection_boxes,USPS COLLECTION BOX - PO LOBBY,1501 MAIN ST,CANON CITY,CO,,US,,,,United States Postal Service,Q668687
8121200030,usps_collection_boxes,USPS COLLECTION BOX - APC,1501 MAIN ST,CANON CITY,CO,,US,,,,United States Postal Service,Q668687
8121200031,usps_collection_boxes,USPS COLLECTION BOX - BLUE BOX,1501 MAIN ST,CANON CITY,CO,,US,,,,United States Postal Service,Q668687
8121200019,usps_collection_boxes,USPS COLLECTION BOX - BLUE BOX,1501 MAIN ST,CANON CITY,CO,,US,,,,United States Postal Service,Q668687
8121200000,usps_collection_boxes,USPS COLLECTION BOX - BLUE BOX,3105 E US HIGHWAY 50,CANON CITY,CO,,US,,,,United States Postal Service,Q668687
A00000244005,verizon_us,Victra Canon City,,CANON CITY,CO,,US,+1 719-269-7000,https://www.verizon.com/stores/details/colorado/canon-city/gowireless-canon-city-1816122/,Mo-Sa 09:00-19:00; Su 10:00-17:00,Verizon,Q919641
,visa,,,CANON CITY,CO,,US,,,,,
,visa,,,CANON CITY,CO,,US,,,,,
,visa,,,CANON CITY,CO,,US,,,,,
,visa,,,CANON CITY,CO,,US,,,,,
,visa,,,CANON CITY,CO,,US,,,,,
,visa,,,CANON CITY,CO,,US,,,,,
,visa,,,CANON CITY,CO,,US,,,,,
,visa,,,CANON CITY,CO,,US,,,,,
,visa,,,CANON CITY,CO,,US,,,,,
,visa,,,CANON CITY,CO,,US,,,,,
,visa,,,CANON CITY,CO,,US,,,,,
,visa,,,CANON CITY,CO,,US,,,,,
,visa,,,CANON CITY,CO,,US,,,,,
,visa,,,CANON CITY,CO,,US,,,,,
,visa,,,CANON CITY,CO,,US,,,,,
,visa,,,CANON CITY,CO,,US,,,,,
,visa,,,CANON CITY,CO,,US,,,,,
,visa,,,CANON CITY,CO,,US,,,,,
,visa,,,CANON CITY,CO,,US,,,,,
,visa,,,CANON CITY,CO,,US,,,,,
,visa,,,CANON CITY,CO,,US,,,,,
,visa,,,CANON CITY,CO,,US,,,,,
,visa,,,CANON CITY,CO,,US,,,,,
,visa,,,CANON CITY,CO,,US,,,,,
,visa,,,CANON CITY,CO,,US,,,,,
,visa,,,CANON CITY,CO,,US,,,,,
,visa,,,CANON CITY,CO,,US,,,,,
,visa,,,CANON CITY,CO,,US,,,,,
,visa,,,CANON CITY,CO,,US,,,,,
,visa,,,CANON CITY,CO,,US,,,,,
https://www.walgreens.com/locator/walgreens-1609+fremont+dr-canon+city-co-81212/id=9393,walgreens,Walgreens,,Canon City,CO,,US,+1 719-275-1267,https://www.walgreens.com/locator/walgreens-1609+fremont+dr-canon+city-co-81212/id=9393,Mo-Su 07:00-23:00,Walgreens,Q1591889
3080__E__MAIN__ST_CANON__CITY_CO_81212,wellsfargo,Wells Fargo,3080 E MAIN ST,CANON CITY,CO,,US,+1 719-275-4380,https://www.wellsfargo.com/locator/bank/3080__E__MAIN__ST_CANON__CITY_CO_81212/,Mo-Fr 09:00-17:00,Wells Fargo,Q744149
https://locations.wendys.com/#9251243,wendys,"Wendy's Canon City in Canon City, CO",,Canon City,CO,,US,+1 719-275-0471,https://locations.wendys.com/united-states/co/canon-city/1101-royal-gorge-blvd,"Mo-Su 06:30-10:30,07:00-21:00",Wendy's,Q550258
2edd61f60fb90bb9290d32beb300a489,western_union,LOAF N JUG #54,,Canon City,CO,,US,+1 719-561-4660,https://location.westernunion.com/us/co/canon-city/2edd61f60fb90bb9290d32beb300a489,Mo-We 05:00-23:00; Th-Su 07:00-23:00,Western Union,Q861042
0ffb41d54b650b9d665d35097d838dc4,western_union,WALMART #001019,,Canon City,CO,,US,+1 719-275-2375,https://location.westernunion.com/us/co/canon-city/0ffb41d54b650b9d665d35097d838dc4,Mo-Su 07:00-21:00,Western Union,Q861042
