Ref,Spider,Name,Address,City,State,Zipcode,Country,Phone,Website,Hours,Brand,WikiData
https://local.pharmacy.jewelosco.com/#5672882,albertsons,Jewel-Osco Pharmacy,,Shorewood,IL,,US,+1 815-730-3973,https://local.pharmacy.jewelosco.com/il/shorewood/199-brookforest-ave.html,Mo-Fr 08:00-21:00; Sa-Su 09:00-17:00,Jewel-Osco,Q3178470
https://local.jewelosco.com/#5603677,albertsons,Jewel-Osco,,Shorewood,IL,,US,+1 815-730-3944,https://local.jewelosco.com/il/shorewood/199-brookforest-ave.html,"Mo-Fr 06:00-24:00,08:00-21:00; Sa-Su 06:00-24:00,09:00-17:00",Jewel-Osco,Q3178470
https://stores.aldi.us/#18370224,aldi_sud_us,ALDI  665 Brook Forest Ave,,Shorewood,IL,,US,+1 833-468-7042,https://stores.aldi.us/il/shorewood/665-brook-forest-ave,"Mo-Su 08:30-20:00,09:00-20:00",ALDI,Q41171672
https://locations.atipt.com/shorewood-w-jefferson-st-il,ati_physical_therapy,ATI Physical Therapy Shorewood 1097,,Shorewood,IL,,US,+1 815-553-5654,https://locations.atipt.com/shorewood-w-jefferson-st-il,,ATI Physical Therapy,Q50039703
https://locations.atipt.com/shorewood-il,ati_physical_therapy,ATI Physical Therapy Shorewood 112,,Shorewood,IL,,US,+1 815-439-4938,https://locations.atipt.com/shorewood-il,,ATI Physical Therapy,Q50039703
https://www.avis.com/en/locations/us/il/shorewood/avsi1,avis,Avis U S A Shorewood,,Shorewood,IL,,US,+1 815-556-5956,https://www.avis.com/en/locations/us/il/shorewood/avsi1,Mo-Fr 08:00-18:00; Sa 09:00-14:00; Su 09:00-13:00,Avis,Q791136
https://locators.bankofamerica.com/il/shorewood/financial-centers-shorewood-15613.html,bankofamerica,Bank of America Financial Center & Drive-Thru ATM | Shorewood,,Shorewood,IL,,US,+1 815-439-5506,https://locators.bankofamerica.com/il/shorewood/financial-centers-shorewood-15613.html,Mo-Fr 09:00-17:00; Sa 09:00-14:00,Bank of America,Q487907
https://locations.baskinrobbins.com/il/shorewood/955-brook-forest-ave-338740-br,baskin_robbins_us,Baskin-Robbinsâ„¢,,Shorewood,IL,,US,+1 815-609-5570,https://locations.baskinrobbins.com/il/shorewood/955-brook-forest-ave-338740-br,Mo-Sa 05:00-23:00; Su 05:00-21:00,Baskin-Robbins,Q584601
828,biggby_coffee_us,Biggby Coffee,1015 Brook Forest Ave Shorewood IL 60404,Shorewood,IL,,US,+1 779-234-9592,,Mo-Fr 05:00-19:00; Sa 06:00-19:00; Su 07:00-19:00,Biggby Coffee,Q4906876
153511,bluerhino,Walgreens #10605,,Shorewood,IL,,US,+1 815-744-2439,,,Blue Rhino,Q65681213
127538,bluerhino,Speedway #1422,,Shorewood,IL,,US,+1 815-744-9990,,,Blue Rhino,Q65681213
240820,bluerhino,Circle K #4706821,,Shorewood,IL,,US,+1 815-729-3238,,,Blue Rhino,Q65681213
70364788223126040400100000000000,bp,BP,,Shorewood,IL,,US,+1 815-729-4177,,24/7,BP,Q152057
9643,burgerking,Burger King,,SHOREWOOD,IL,,US,+1 815-744-5298,https://www.bk.com/store-locator/store/restaurant_5423,Mo-Th 07:00-22:00; Fr-Sa 05:30-22:00; Su 07:00-22:00,Burger King,Q177054
2042486,chase_us,Shorewood - New branch,,Shorewood,IL,,US,+1 815-729-8000,https://locator.chase.com/il/shorewood/906-w-jefferson-st,Mo-Fr 09:00-17:00; Sa 09:00-14:00,Chase,Q524629
001.005.1795,chilis,Shorewood,,Shorewood,IL,,US,+1 815-609-1185,https://www.chilis.com/locations/us/illinois/shorewood/shorewood/,Mo-Th 11:00-22:00; Fr-Sa 11:00-23:00; Su 11:00-22:00,Chili's,Q1072948
47262,citi,ATM CVS,,Shorewood,IL,,US,,,,Citibank,Q857063
80185101,cricket_wireless,Cricket Wireless Authorized Retailer,,Shorewood,IL,,US,+1 815-267-6646,https://www.cricketwireless.com/stores/ll/US/IL/Shorewood/963-Brookforest-Ave,Mo-Fr 10:00-19:00; Sa 10:00-18:00; Su 11:00-17:00,Cricket Wireless,Q5184987
921,cvs_us,CVS Pharmacy,,Shorewood,IL,,US,+1 815-741-5023,https://www.cvs.com/store-locator/shorewood-il-pharmacies/1155-w-jefferson-st-shorewood-il-60404/storeid=921,Mo-Su 08:00-22:00,CVS Pharmacy,Q2078880
17001,cvs_us,CVS Pharmacy,,Shorewood,IL,,US,+1 815-609-6801,https://www.cvs.com/store-locator/shorewood-il-pharmacies/1111-brook-forest-ave-shorewood-il-60404/storeid=17001,"Mo-Fr 09:00-13:30,14:00-19:00; Sa 09:00-13:30,14:00-17:00; Su 11:00-13:30,14:00-17:00",CVS Pharmacy,Q2078880
2750,dominos_pizza_us,Domino's Pizza,,Crest Hill,IL,,US,+1 815-436-8000,https://pizza.dominos.com/illinois/crest-hill/2405-caton-farm,Mo-Th 10:30-24:00; Fr-Sa 10:30-01:00; Su 10:30-24:00,Domino's,Q839466
9186,dominos_pizza_us,Domino's Pizza,,Shorewood,IL,,US,+1 779-234-4200,https://pizza.dominos.com/illinois/shorewood/971-brook-forest-ave,Mo-Th 10:30-24:00; Fr-Sa 10:30-01:00; Su 10:30-24:00,Domino's,Q839466
354453,dunkin_us,Dunkin',,Shorewood,IL,,US,+1 815-280-6582,https://locations.dunkindonuts.com/en/il/shorewood/1201-w-jefferson-st/354453,Mo-Sa 04:00-19:00; Su 05:00-18:00,Dunkin',Q847743
338740,dunkin_us,Dunkin',,Shorewood,IL,,US,+1 815-609-5570,https://locations.dunkindonuts.com/en/il/shorewood/955-brook-forest-ave/338740,Mo-Sa 05:00-23:00; Su 05:00-21:00,Dunkin',Q847743
https://www.edwardjones.com/us-en/financial-advisor/francesca-vanderwall,edwardjones,Francesca Vanderwall,,Shorewood,IL,,US,+1 815-713-1050,https://www.edwardjones.com/us-en/financial-advisor/francesca-vanderwall,Mo-Fr 09:00-16:00,Edward Jones,Q5343830
0590,european_wax_center_us,European Wax Center,,Shorewood,IL,,US,+1 815-254-9400,https://locations.waxcenter.com/il/shorewood/shorewood-0590.html,Mo-Fr 08:00-20:00; Sa-Su 07:00-16:00,European Wax Center,Q5413426
https://local.fedex.com/#25199596,fedex,,,Shorewood,IL,,US,+1 800-463-3339,https://local.fedex.com/en-us/il/shorewood/spw84,,FedEx,Q459477
https://local.fedex.com/#25145800,fedex,FedEx Authorized ShipCenter,,Shorewood,IL,,US,+1 815-230-2222,https://local.fedex.com/en-us/il/shorewood/74636,,FedEx,Q459477
https://locations.53.com/#3033844,fifththirdbank,Fifth Third Bank Shorewood,,Shorewood,IL,,US,+1 815-207-5681,https://locations.53.com/il/shorewood/251-brookforest-avenue.html,Mo-Th 09:00-17:30; Fr 09:00-18:00; Sa 09:00-14:00,Fifth Third Bank,Q1411810
345508,firestone_auto_care,Firestone Complete Auto Care,,Shorewood,IL,,US,+1 815-768-3926,https://local.firestonecompleteautocare.com/illinois/shorewood/601-brook-forest-ave/,,Firestone,Q420837
Motorcraft3687USAEnglish,ford,"Ron Tirapelli Ford, Inc.",,Illinois,IL,,US,+1 815-725-3033,,,Ford,Q44294
https://www.ford.com/dealerships/dealer-details/il/shorewood/ron-tirapelli-ford-inc/,ford_dealers_us,"Ron Tirapelli Ford, Inc.",,Shorewood,IL,,US,+1 224-662-3409,https://www.ford.com/dealerships/dealer-details/il/shorewood/ron-tirapelli-ford-inc/,Mo-Fr 09:00-20:00; Sa 09:00-18:00,Ford Motor Company,Q44294
https://salons.greatclips.com/us/il/shorewood/952-brook-forest-avenue,greatclips,Great Clips,,Shorewood,IL,,US,+1 815-436-8525,https://salons.greatclips.com/us/il/shorewood/952-brook-forest-avenue,Mo-Fr 09:00-20:00; Sa 09:00-18:00; Su 10:00-17:00,Great Clips,Q5598967
29950,huntingtonbank,Shorewood Brook Forest,,Shorewood,IL,,US,+1 815-463-4010,https://www.huntington.com/Community/branch-info?locationId=29950,Mo-Fr 09:00-17:00; Sa 09:00-12:00; Su 00:00-00:00,Huntington Bank,Q798819
12573,h_r_block,H&R Block,,Shorewood,IL,,US,+1 815-254-2524,https://www.hrblock.com/local-tax-offices/illinois/shorewood/shorewood-crossing-shpg-ctr/12573/,,H&R Block,Q5627799
https://locations.jimmyjohns.com/il/shorewood/sandwiches-830.html,jimmy_johns,Jimmy John's,,Shorewood,IL,,US,+1 815-254-0932,https://locations.jimmyjohns.com/il/shorewood/sandwiches-830.html,,Jimmy John's,Q1689380
https://locations.massageenvy.com/#1774343,massage_envy,Massage Envy Shorewood,,Shorewood,IL,,US,+1 815-676-3800,https://locations.massageenvy.com/illinois/shorewood/1033-brookforest-ave.html,Mo 08:00-21:00; Tu-Th 08:00-22:00; Fr 08:00-21:00; Sa 08:00-20:00; Su 08:00-19:00,Massage Envy,Q10327170
16517,mattress_firm_us,Mattress Firm Shorewood,,Shorewood,IL,,US,+1 815-725-8671,https://www.mattressfirm.com/en-us/stores/il/shorewood/119257/,,Mattress Firm,Q6791878
4027,mightyflame,SAMJ INC BP,,SHOREWOOD,IL,,US,+1 815-729-4177,,,Mighty Flame,
2965,mightyflame,MARKS SERVICE CENTER MOBIL,,SHOREWOOD,IL,,US,+1 815-725-9098,,,Mighty Flame,
https://locations.noodles.com/il/shorewood/920-brook-forest-ave.html,noodles_and_company_us,Noodles & Company Shorewood,,Shorewood,IL,,US,+1 815-254-5566,https://locations.noodles.com/il/shorewood/920-brook-forest-ave.html,Mo-We 10:30-21:00; Th-Sa 10:30-22:00; Su 10:30-21:00,Noodles and Company,Q7049673
3034,orangetheory_fitness,"Shorewood, IL",,Shorewood,IL,,US,+1 708-573-0858,,,Orangetheory Fitness,Q25005163
https://locations.oreillyauto.com/il/shorewood/wiper-installation-4838.html,oreilly,Your Shorewood O'Reilly Auto Parts Store,,Shorewood,IL,,US,+1 815-553-0690,https://locations.oreillyauto.com/il/shorewood/wiper-installation-4838.html,Mo-Sa 07:30-21:00; Su 08:00-20:00,O'Reilly Auto Parts,Q7071951
https://locations.oreillyauto.com/il/shorewood/battery-testing-4838.html,oreilly,Your Shorewood O'Reilly Auto Parts Store,,Shorewood,IL,,US,+1 815-553-0690,https://locations.oreillyauto.com/il/shorewood/battery-testing-4838.html,Mo-Sa 07:30-21:00; Su 08:00-20:00,O'Reilly Auto Parts,Q7071951
https://locations.oreillyauto.com/il/shorewood/check-engine-light-testing-4838.html,oreilly,Your Shorewood O'Reilly Auto Parts Store,,Shorewood,IL,,US,+1 815-553-0690,https://locations.oreillyauto.com/il/shorewood/check-engine-light-testing-4838.html,Mo-Sa 07:30-21:00; Su 08:00-20:00,O'Reilly Auto Parts,Q7071951
https://locations.oreillyauto.com/il/shorewood/autopartes-4838.html,oreilly,Tu tienda O'Reilly Auto Parts en Shorewood,,Shorewood,IL,,US,+1 815-553-0690,https://locations.oreillyauto.com/il/shorewood/autopartes-4838.html,Mo-Sa 07:30-21:00; Su 08:00-20:00,O'Reilly Auto Parts,Q7071951
https://locations.papajohns.com/#10693094,papa_johns,Papa John's,,Shorewood,IL,,US,+1 815-744-7777,https://locations.papajohns.com/united-states/il/60404/shorewood/852-sharp-drive,Mo-Th 09:30-24:00; Fr-Sa 09:30-01:00; Su 09:30-24:00,Papa John's Pizza,Q2759586
5343,party_city,Shorewood Crossing,,Shorewood,IL,,US,+1 779-379-8680,https://stores.partycity.com/us/il/shorewood/party-store-pc5343.html,,Party City,Q7140896
672022,penske,Home Depot #6925,,SHOREWOOD,IL,,US,+1 815-725-3659,https://www.pensketruckrental.com/locations/us/illinois/shorewood/672022/,,Penske,Q81234570
https://stores.petco.com/#27960279,petco,Petco Shorewood,,Shorewood,IL,,US,+1 815-436-6857,https://stores.petco.com/il/shorewood/pet-supplies-shorewood-il-1954.html,Mo-Sa 09:00-21:00; Su 10:00-19:00,Petco,Q7171798
il_shorewood_659-brook-forest-ave,pizza_hut_us,659 Brook Forest Ave.,,Shorewood,IL,,US,+1 815-729-0544,https://locations.pizzahut.com/il/shorewood/659-brook-forest-ave,,Pizza Hut,Q191615
il_shorewood_1111-brook-forest-ave,pizza_hut_us,1111 Brook Forest Ave,,Shorewood,IL,,US,,https://locations.pizzahut.com/il/shorewood/1111-brook-forest-ave,,Pizza Hut,Q191615
https://pizzaranch.com/locations/il/shorewood/19735-ne-frontage-road,pizza_ranch_us,Pizza Ranch & FunZone Arcade Shorewood,,Shorewood,IL,,US,+1 815-630-2587,https://pizzaranch.com/locations/il/shorewood/19735-ne-frontage-road,Mo-Su 11:00-20:00,Pizza Ranch,Q7199978
29,portillos,"Shorewood, Illinois",,Shorewood,IL,,US,+1 815-609-1400,https://www.portillos.com/locations/shorewood/,,Portillo's,Q3399307
https://stores.saloncentric.com/#29173395,salon_centric_us,SalonCentric,,,IL,,US,+1 815-744-1501,https://stores.saloncentric.com/il/shorewood/4116,Mo 08:00-18:30; Tu-Fr 08:00-18:00; Sa 08:30-16:00,SalonCentric,Q124339481
33894,seven_eleven_ca_us,7-Eleven Store,,Shorewood,IL,,US,+1 815-202-4014,https://www.7-eleven.com/locations/il/shorewood/101-cottage-street-33894,,7-Eleven,Q259340
992-brook-forest-avenue,staples,"Staples Shorewood, IL",,Shorewood,IL,,US,,https://stores.staples.com/il/shorewood/992-brook-forest-avenue,Mo-Fr 09:00-20:00; Sa 09:00-18:00; Su 11:00-18:00,Staples,Q785943
101131,tjx,Shorewood,1008 Brook Forest Ave,Shorewood,IL,,US,+1 815-577-5195,,Mo-Sa 09:30-21:30; Su 10:00-20:00,Marshalls,Q15903261
2982,tmobile_us,Route 59 & Vertin,,Shorewood,IL,,US,+1 815-782-8787,https://www.t-mobile.com/store-locator/il/shorewood/route-59-vertin,,T-Mobile,Q3511885
https://www.asurion.com/repairs/tech/locations/shorewood,ubreakifix,uBreakiFix by Asurion - Shorewood,,Shorewood,IL,,US,+1 815-267-6215,https://www.asurion.com/repairs/tech/locations/shorewood,Mo-Sa 10:00-19:00; Su 12:00-17:00,Asurion Tech Repair & Solutions,Q4811938
6820,upsstore,Shorewood,1131 W Jefferson St,Shorewood,IL,,US,+1 815-666-1058,https://locations.theupsstore.com/il/shorewood/1131-w-jefferson-st,,UPS Store,Q7771029
6040400002,usps_collection_boxes,USPS COLLECTION BOX - BLUE BOX,700 W JEFFERSON ST,JOLIET,IL,,US,,,,United States Postal Service,Q668687
6040400003,usps_collection_boxes,USPS COLLECTION BOX - BLUE BOX,950 BROOK FOREST AVE,JOLIET,IL,,US,,,,United States Postal Service,Q668687
6040400001,usps_collection_boxes,USPS COLLECTION BOX - BLUE BOX,708 COTTAGE ST,JOLIET,IL,,US,,,,United States Postal Service,Q668687
A00000253122,verizon_us,Victra Shorewood,,SHOREWOOD,IL,,US,+1 815-730-9909,https://www.verizon.com/stores/details/illinois/shorewood/gowireless-shorewood-1358122/,Mo-Fr 10:00-19:00; Sa 09:00-18:00; Su 11:00-17:00,Verizon,Q919641
,visa,,,CHICAGO,IL,,US,,,,,
,visa,,,SHOREWOOD,IL,,US,,,,,
,visa,,,SHOREWOOD,IL,,US,,,,,
,visa,,,SHOREWOOD,IL,,US,,,,,
,visa,,,SHOREWOOD,IL,,US,,,,,
,visa,,,SHOREWOOD,IL,,US,,,,,
,visa,,,SHOREWOOD,IL,,US,,,,,
,visa,,,SHOREWOOD,IL,,US,,,,,
,visa,,,SHOREWOOD,IL,,US,,,,,
,visa,,,SHOREWOOD,IL,,US,,,,,
,visa,,,SHOREWOOD,IL,,US,,,,,
,visa,,,SHOREWOOD,IL,,US,,,,,
,visa,,,SHOREWOOD,IL,,US,,,,,
,visa,,,SHOREWOOD,IL,,US,,,,,
https://www.walgreens.com/locator/walgreens-1160+w+jefferson+st-shorewood-il-60404/id=10605,walgreens,Walgreens,,Shorewood,IL,,US,+1 815-744-2439,https://www.walgreens.com/locator/walgreens-1160+w+jefferson+st-shorewood-il-60404/id=10605,Mo-Su 07:00-23:00,Walgreens,Q1591889
https://locations.wendys.com/#9255638,wendys,"Wendy's 940 Brook Forest in Shorewood, IL",,Shorewood,IL,,US,+1 815-254-4852,https://locations.wendys.com/united-states/il/shorewood/940-brook-forest,"Mo-Su 06:00-10:30,09:00-22:00",Wendy's,Q550258
f7ea9ba75be3fa8f570bc85c6ff96be3,western_union,7-ELEVEN #33894,,Shorewood,IL,,US,+1 815-202-4014,https://location.westernunion.com/us/il/shorewood/f7ea9ba75be3fa8f570bc85c6ff96be3,,Western Union,Q861042
202345,wingstop,Wingstop Shorewood Brook Forest Ave,968 Brook Forest Ave,Shorewood,IL,,US,+1 815-655-8590,,,Wingstop,Q8025339
