Ref,Spider,Name,Address,City,State,Zipcode,Country,Phone,Website,Hours,Brand,WikiData
2679,anytime_fitness,Anytime Fitness,,Prosper,TX,,US,+1 972-347-9661,https://www.anytimefitness.com/gyms/2679/prosper-tx-75078/,,Anytime Fitness,Q4778364
157399,asics_us,Field & Stream,700 Richland Blvd Ste B,Prosper,TX,,US,+1 972-346-5902,,,asics,Q327247
https://locations.atipt.com/prosper-tx,ati_physical_therapy,ATI Physical Therapy Prosper 7630,,Prosper,TX,,US,+1 972-979-6577,https://locations.atipt.com/prosper-tx,,ATI Physical Therapy,Q50039703
158039,att_us,GATES OF PROSPER,,Prosper,TX,,US,+1 972-347-9838,https://www.att.com/stores/texas/prosper/158039,Mo-Sa 10:00-20:00; Su 11:00-18:00,AT&T,Q298594
6029,autozone_us,AutoZone Auto Parts Prosper,,Prosper,TX,,US,+1 469-296-1456,https://www.autozone.com/locations/tx/prosper/1340-n--preston-rd.html,Mo-Sa 07:30-21:00; Su 08:00-20:00,AutoZone,Q4826087
https://locators.bankofamerica.com/tx/prosper/financial-centers-prosper-16860.html,bankofamerica,Bank of America Financial Center & Drive-Thru ATM | Prosper,,Prosper,TX,,US,+1 972-346-5423,https://locators.bankofamerica.com/tx/prosper/financial-centers-prosper-16860.html,Mo-Fr 10:00-16:00; Sa 10:00-14:00,Bank of America,Q487907
BBW02439,bathandbodyworks_us,GATES OF PROSPER,,PROSPER,TX,,US,+1 972-346-5618,,Mo-Sa 10:00-21:00; Su 12:00-18:00,Bath & Body Works,Q810773
812,batteriesplus,Batteries Plus,,Prosper,TX,,US,+1 469-481-6870,https://www.batteriesplus.com/store-locator/tx/prosper/batteries-plus-812,Mo-Sa 08:00-18:00; Su 10:00-17:00,Batteries Plus Bulbs,Q17005157
220913,baylorscottwhite,Baylor Scott & White Institute for Rehabilitation - Prosper,,Prosper,TX,,US,+1 972-433-1322,https://www.bswphysicaltherapy.com/contact/find-a-location/tx/prosper/prosper,,Baylor Scott & White Health,Q41568258
9983,baylorscottwhite,Baylor Scott & White Legacy Heart Center - Prosper,,Prosper,TX,,US,+1 469-800-6300,https://www.bswhealth.com/locations/legacy-heart-center,Mo-Fr 08:00-17:00,Baylor Scott & White Health,Q41568258
237835,baylorscottwhite,Baylor Scott & White Digestive Diseases - Prosper,,Prosper,TX,,US,+1 469-800-4010,https://www.bswhealth.com/locations/digestive-diseases-frisco,Mo-Fr 08:30-16:30,Baylor Scott & White Health,Q41568258
220990,baylorscottwhite,Baylor Scott & White Arrhythmia Management - Prosper,,Prosper,TX,,US,+1 469-800-4540,https://www.bswhealth.com/locations/arrhythmia-management,Mo-Fr 08:00-17:00,Baylor Scott & White Health,Q41568258
9633,baylorscottwhite,Baylor Scott & White Primary Care - Prosper,,Prosper,TX,,US,+1 469-800-5200,https://www.bswhealth.com/locations/primary-care-prosper,Mo-Fr 07:00-17:00,Baylor Scott & White Health,Q41568258
230227,baylorscottwhite,Baylor Scott & White The Heart Group - Prosper,,Prosper,TX,,US,+1 469-800-6100,https://www.bswhealth.com/locations/the-heart-group,Fr 08:00-15:00,Baylor Scott & White Health,Q41568258
165351,bluerhino,Kroger #589 - Southwest,,Prosper,TX,,US,+1 972-346-5243,,,Blue Rhino,Q65681213
186003,bluerhino,Kroger #589 - Southwest- Fuel Site,,Prosper,TX,,US,+1 972-346-5243,,,Blue Rhino,Q65681213
226346,bluerhino,7-Eleven #39941,,Celina,TX,,US,+1 832-799-7988,,,Blue Rhino,Q65681213
170589,bluerhino,Walmart #6300 - Supercenter,,Prosper,TX,,US,+1 972-347-9467,,,Blue Rhino,Q65681213
210483,bluerhino,Murphy's #8869,,Prosper,TX,,US,+1 469-715-0940,,,Blue Rhino,Q65681213
157447,bluerhino,Kroger #573 - Southwest,,Prosper,TX,,US,+1 972-346-5209,,,Blue Rhino,Q65681213
186002,bluerhino,Kroger #573 - Southwest- Fuel Site,,Prosper,TX,,US,+1 972-346-5209,,,Blue Rhino,Q65681213
237600,bluerhino,Circle K #2741580,,Prosper,TX,,US,+1 972-347-9104,,,Blue Rhino,Q65681213
195299,bluerhino,Murphy's #8890,,Prosper,TX,,US,+1 469-296-3358,,,Blue Rhino,Q65681213
160996,bluerhino,Lowe's #3104,,Prosper,TX,,US,+1 469-296-1261,,,Blue Rhino,Q65681213
3207,bueno,Taco Bueno - 3207,"4385 E University Dr,  , Prosper, TX, 75078, US",Prosper,TX,,US,+1 972-752-7968,,Mo-Su 11:00-19:00,Taco Bueno,Q7673958
PROSTXYD,builders_firstsource_us,Prosper TX Yard,,Prosper,TX,,US,+1 972-346-3431,https://www.bldr.com/location/prosper-tx-yard/PROSTXYD,Mo-Fr 07:00-17:00,Builders FirstSource,Q27686100
1097,burlington_us,Burlington,,Prosper,TX,,US,+1 469-296-5437,https://stores.burlington.com/tx/prosper/1097,Mo-Sa 09:00-24:00; Su 09:00-23:00,Burlington,Q4999220
//locations.carters.com/tx/prosper/carters-prosper-tx,carters_us,Carter's Prosper,,Prosper,TX,,US,+1 972-347-9781,https://locations.carters.com/tx/prosper/carters-prosper-tx,Mo-Sa 10:00-19:00; Su 11:00-18:00,Carter's,Q5047083
9137167,chase_us,US 380 and FM 423 - New branch,,Prosper,TX,,US,+1 972-987-8815,https://locator.chase.com/tx/prosper/4790-w-university-dr,Mo-Fr 09:00-17:00; Sa 09:00-14:00,Chase,Q524629
71798759,chase_us,INDOOR MICRO - 880673,,PROSPER,TX,,US,+1 800-935-9935,https://locator.chase.com/tx/prosper/4100-w-university-drive,,Chase,Q524629
9286722,chase_us,Prosper - New branch,,Prosper,TX,,US,+1 469-296-1383,https://locator.chase.com/tx/prosper/1161-n-preston-rd,Mo-Fr 09:00-17:00; Sa 09:00-14:00,Chase,Q524629
303436,chevron,Texaco Station #303436,640 N PRESTON RD,PROSPER,TX,,US,+1 972-347-2021,,,Chevron,Q319642
001.005.1575,chilis,Prosper,,Prosper,TX,,US,+1 469-299-4877,https://www.chilis.com/locations/us/texas/prosper/prosper/,Mo-Th 11:00-22:00; Fr-Sa 11:00-23:00; Su 11:00-22:00,Chili's,Q1072948
27432,citi,ATM 7ELEVEN-FCTI,,Prosper,TX,,US,,,,Citibank,Q857063
60983,citi,ATM Kroger,,Prosper,TX,,US,,,,Citibank,Q857063
66168,citi,ATM Neighborhood Credit Union,,Prosper,TX,,US,,,,Citibank,Q857063
49484,citi,ATM CVS,,Prosper,TX,,US,,,,Citibank,Q857063
60216,citi,ATM Independent Financial,,Prosper,TX,,US,,,,Citibank,Q857063
26145,citi,ATM 7ELEVEN-FCTI,,Prosper,TX,,US,,,,Citibank,Q857063
71978,citi,ATM Racetrac,,Prosper,TX,,US,,,,Citibank,Q857063
47318,citi,ATM CVS,,Frisco,TX,,US,,,,Citibank,Q857063
61423,citi,ATM Kroger,,Prosper,TX,,US,,,,Citibank,Q857063
26659,citi,ATM 7ELEVEN-FCTI,,Prosper,TX,,US,,,,Citibank,Q857063
48859,citi,ATM CVS,,Prosper,TX,,US,,,,Citibank,Q857063
29739,citi,ATM 7ELEVEN-FCTI,,Prosper,TX,,US,,,,Citibank,Q857063
82515,citi,ATM Target,,Prosper,TX,,US,,,,Citibank,Q857063
prosper/740,claires,Shop Ear Piercings & Jewelry at Gates of Prosper,,PROSPER,TX,,US,+1 945-207-7652,https://stores.claires.com/us/tx/prosper/740.html,Mo-Th 11:00-19:00; Fr-Sa 11:00-20:00; Su 12:00-18:00,Claire's,Q2974996
23888,coldstone_creamery,Cold Stone Creamery,,Prosper,TX,,US,,https://www.coldstonecreamery.com/stores/23888,,Cold Stone Creamery,Q1094923
10641,cvs_us,CVS Pharmacy,,Prosper,TX,,US,+1 972-347-9043,https://www.cvs.com/store-locator/prosper-tx-pharmacies/2451-e-university-drive-prosper-tx-75078/storeid=10641,Mo-Su 08:00-22:00,CVS Pharmacy,Q2078880
2876,cvs_us,CVS Pharmacy,,Prosper,TX,,US,+1 972-347-6375,https://www.cvs.com/store-locator/prosper-tx-pharmacies/201-s-preston-rd-prosper-tx-75078/storeid=2876,Mo-Fr 07:00-23:00; Sa 08:00-23:00; Su 08:00-22:00,CVS Pharmacy,Q2078880
1031,dickeys_barbecue_pit_us,Prosper - University Dr,,Prosper,TX,,US,+1 972-656-9727,https://www.dickeys.com/locations/texas/prosper/prosper-e-university-dr-and-n-custer-blvd,Mo-Su 11:00-21:00,Dickey's Barbecue Pit,Q19880747
1591,dickssportinggoods,"DICK'S Sporting Goods Store in Prosper, TX | 1591",,Prosper,TX,,US,+1 972-346-5902,https://stores.dickssportinggoods.com/tx/prosper/1591/,Mo-Sa 09:00-21:00; Su 10:00-19:00,Dick's Sporting Goods,Q5272601
6320,dominos_pizza_us,Domino's Pizza,,Prosper,TX,,US,+1 469-481-6520,https://pizza.dominos.com/texas/prosper/1061-n-coleman-st,Mo-Th 10:30-24:00; Fr-Sa 10:30-01:00; Su 10:30-24:00,Domino's,Q839466
Prosper,dsw,DSW,,Prosper,TX,,US,+1 214-305-7000,https://stores.dsw.com/usa/tx/prosper/dsw-designer-shoe-warehouse-prosper.html,Mo-Sa 10:00-20:00; Su 11:00-19:00,Designer Shoe Warehouse,Q5206207
359961,dunkin_us,Dunkin',,Prosper,TX,,US,+1 469-481-2100,https://locations.dunkindonuts.com/en/tx/prosper/1921-n-preston-rd/359961,Mo-Su 05:00-20:00,Dunkin',Q847743
https://www.edwardjones.com/us-en/financial-advisor/joe-cruse,edwardjones,Joe Cruse,,Prosper,TX,,US,+1 972-747-7635,https://www.edwardjones.com/us-en/financial-advisor/joe-cruse,,Edward Jones,Q5343830
100-s-preston-rd,einsteinbros,Prosper Einstein Bros. Bagels,,Prosper,TX,,US,,https://locations.einsteinbros.com/us/tx/prosper/100-s-preston-rd,Mo-Su 06:00-14:00,Einstein Bros. Bagels,Q5349788
1038,european_wax_center_us,European Wax Center,,Prosper,TX,,US,+1 469-842-1400,https://locations.waxcenter.com/tx/prosper/prosper-gates-of-prosper-1038.html,Mo-Fr 08:00-20:00; Sa 08:00-18:00; Su 10:00-18:00,European Wax Center,Q5413426
200329792,exxonmobil,7/11 Light Farms,,PROSPER,TX,,US,555-555-5555,https://www.exxon.com/en/find-station/exxon-prosper-tx-711lightfarms-200329792,24/7,Exxon,Q109675651
200324924,exxonmobil,7-ELEVEN 38224,,PROSPER,TX,,US,,https://www.exxon.com/en/find-station/exxon-prosper-tx-7eleven38224-200324924,24/7,Exxon,Q109675651
200324916,exxonmobil,7-ELEVEN 38376,,PROSPER,TX,,US,,https://www.exxon.com/en/find-station/mobil-prosper-tx-7eleven38376-200324916,24/7,Mobil,Q109676002
200317109,exxonmobil,TIGER MART #45,,PROSPER,TX,,US,+1 972-347-1801,https://www.exxon.com/en/find-station/exxon-prosper-tx-tigermart45-200317109,Mo-Fr 05:30-00:00; Sa 06:00-00:00; Su 08:00-23:00,Exxon,Q109675651
https://local.fedex.com/#8940876,fedex,FedEx Office Print & Ship Center,,Prosper,TX,,US,+1 972-346-5577,https://local.fedex.com/en-us/tx/prosper/office-4011,,FedEx,Q459477
346859,firestone_auto_care,Firestone Complete Auto Care,,Prosper,TX,,US,+1 972-347-4176,https://local.firestonecompleteautocare.com/texas/prosper/4211-e-university-dr/,,Firestone,Q420837
https://locations.fivebelow.com/tx/prosper/1121-s-preston-road,five_below,Five Below Gates of Prosper,,Prosper,TX,,US,,https://locations.fivebelow.com/tx/prosper/1121-s-preston-road,Mo-Sa 10:00-20:00; Su 11:00-18:00,Five Below,Q5455836
https://www.ford.com/dealerships/dealer-details/tx/prosper/prosper-ford/,ford_dealers_us,Prosper Ford,,Prosper,TX,,US,+1 940-488-1197,https://www.ford.com/dealerships/dealer-details/tx/prosper/prosper-ford/,Mo-Sa 08:30-20:00,Ford Motor Company,Q44294
https://fuzzystacoshop.com/locations/texas/prosper/,fuzzys_taco_shop_us,Prosper,,Prosper,TX,,US,+1 469-481-6020,https://fuzzystacoshop.com/locations/texas/prosper/,Mo-Su 07:00-22:00,Fuzzy's Taco Shop,Q85762348
https://stores.gnc.com/#24059412,gnc,GNC Gates Of Prosper,,,TX,,US,+1 972-747-8038,https://stores.gnc.com/all-stores-texas/prosper/750-richland-blvd,Mo-Sa 10:00-20:00; Su 12:00-18:00,GNC,Q4808595
https://salons.greatclips.com/us/tx/prosper/4740-w-university-dr,greatclips,Great Clips,,Prosper,TX,,US,+1 469-715-6730,https://salons.greatclips.com/us/tx/prosper/4740-w-university-dr,Mo-Fr 09:00-20:00; Sa 08:00-18:00; Su 09:00-17:00,Great Clips,Q5598967
https://salons.greatclips.com/us/tx/prosper/750-richland-blvd,greatclips,Great Clips,,Prosper,TX,,US,+1 972-347-9997,https://salons.greatclips.com/us/tx/prosper/750-richland-blvd,Mo-Fr 09:00-20:00; Sa 09:00-18:00; Su 10:00-17:00,Great Clips,Q5598967
https://locations.jackinthebox.com/us/tx/prosper/4750-w-university-dr,jackinthebox,Jack in the Box,,Prosper,TX,,US,+1 469-481-2335,https://locations.jackinthebox.com/us/tx/prosper/4750-w-university-dr,Mo-Su 04:00-04:00,Jack in the Box,Q1538507
https://office.jacksonhewitt.com/#27576755,jackson_hewitt,Jackson Hewitt,,Prosper,TX,,US,+1 972-346-5271,https://office.jacksonhewitt.com/tax-preparation-services-locations/en/tx/prosper/500-richland-blvd/56300,Mo-Sa 11:00-19:00; Su 12:00-16:00,Jackson Hewitt,Q6117132
https://locations.jimmyjohns.com/tx/prosper/sandwiches-4497.html,jimmy_johns,Jimmy John's,,Prosper,TX,,US,+1 972-433-0639,https://locations.jimmyjohns.com/tx/prosper/sandwiches-4497.html,,Jimmy John's,Q1689380
301943,kindercare,Prosper KinderCare,,Prosper,TX,,US,,https://www.kindercare.com/our-centers/prosper/tx/301943,,KinderCare Learning Centers,Q6410551
1573,kohls_us,Kohl's,,Prosper,TX,,US,+1 469-296-1002,https://www.kohls.com/stores/tx/prosper-1573.shtml,Mo-Sa 09:00-21:00; Su 09:00-20:00,Kohl's,Q967265
112915,little_free_library,Lakes of Prosper with GS Troop #8415 #112915 Prosper TX,,Prosper,TX,,US,,,,Little Free Library,Q6650101
145027,little_free_library,Rucker Elementary Little Free Library #145027 Prosper TX,,Prosper,TX,,US,,,,Little Free Library,Q6650101
127536,little_free_library,Raising Readers #127536 Prosper TX,,Prosper,TX,,US,,,,Little Free Library,Q6650101
80634,little_free_library,Folsom Elementary School Little Library #80634 Prosper TX,,Prosper,TX,,US,,,,Little Free Library,Q6650101
https://locations.massageenvy.com/#8670744,massage_envy,Massage Envy Prosper,,Prosper Prosper,TX,,US,+1 469-904-6988,https://locations.massageenvy.com/texas/prosper/750-richland-blvd..html,Mo-Fr 09:00-21:00; Sa 09:00-20:00; Su 10:00-18:00,Massage Envy,Q10327170
17163,mattress_firm_us,Mattress Firm Gates of Prosper,,Prosper,TX,,US,+1 469-481-3207,https://www.mattressfirm.com/en-us/stores/tx/prosper/002159/,,Mattress Firm,Q6791878
1a542906-6bb0-457b-ad62-6a06d3ceb1d1,medical_city_healthcare,CareNow Urgent Care - Prosper,,Prosper,TX,,US,+1 972-529-4520,https://medicalcityhealthcare.com/locations/,,Medical City Healthcare,
ccdc4e28-e66f-4ed8-8a17-35da6633c876,medical_city_healthcare,CareNow Urgent Care - Prosper West,,Prosper,TX,,US,+1 469-607-7504,https://medicalcityhealthcare.com/locations/,,Medical City Healthcare,
1385,michaels,"DFW-PROSPER, TX",,PROSPER,TX,,US,+1 469-296-8400,https://locations.michaels.com/tx/prosper/1385,,Michaels,Q6835667
https://locations.modpizza.com/#23558186,modpizza,MOD Pizza University Drive,,Prosper,TX,,US,+1 214-972-1583,https://locations.modpizza.com/usa/tx/prosper/4780-w-university-dr,Mo-We 10:30-22:00; Th-Sa 10:30-23:00; Su 10:30-22:00,MOD Pizza,Q19903469
70613016,moneygram,CVS - #10641,,PROSPER,TX,,US,+1 972-347-9043,,Mo-Su 08:00-22:00,MoneyGram,Q1944412
71100939,moneygram,WALMART - #6300,,PROSPER,TX,,US,+1 972-347-9467,,Mo-Sa 08:00-20:00; Su 10:00-18:00,MoneyGram,Q1944412
13691,mooyah,Prosper TX #279 - Shops at Prosper Trail,"1350 N. Preston Rd, Prosper, TX, 75078",Prosper,TX,,US,+1 972-346-4606,https://www.mooyah.com/locations/prosper-tx-279,Mo-Su 11:00-21:00,MOOYAH,Q6908759
8890,murphy_usa_us,,,Prosper,TX,,US,+1 469-296-3358,,Mo-Sa 04:30-23:00; Su 06:00-23:00,Murphy USA,Q19604459
8869,murphy_usa_us,,,Prosper,TX,,US,+1 469-715-0940,,Mo-Sa 05:30-21:30; Su 06:00-21:30,Murphy USA,Q19604459
221-n-preston-rd,my_eye_dr,,,Prosper,TX,,US,+1 972-347-2020,https://locations.myeyedr.com/tx/prosper/221-n-preston-rd,,MyEyeDr.,Q117864710
3149,orangetheory_fitness,"Prosper, TX",,Prosper,TX,,US,+1 972-474-0422,,,Orangetheory Fitness,Q25005163
//locations.oshkosh.com/tx/prosper/oshkosh-prosper-tx,oshkosh_us,Oshkosh B'gosh Prosper,,Prosper,TX,,US,+1 972-347-9781,https://locations.oshkosh.com/tx/prosper/oshkosh-prosper-tx,Mo-Sa 10:00-19:00; Su 11:00-18:00,OshKosh B'gosh,Q1417347
118179,pandaexpress,NWQ Coit & Hwy 380,,Prosper,TX,,US,+1 972-638-7828,https://www.pandaexpress.com/locations/tx/prosper/2251-e-university-dr,Mo-Su 10:00-22:00,Panda Express,Q1358690
https://locations.papajohns.com/#10690757,papa_johns,Papa John's,,Prosper,TX,,US,+1 972-347-1400,https://locations.papajohns.com/united-states/tx/75078/prosper/4740-west-university,Mo-Th 10:00-23:00; Fr-Sa 10:00-24:00; Su 10:00-23:00,Papa John's Pizza,Q2759586
https://locations.papajohns.com/#10693661,papa_johns,Papa John's,,Prosper,TX,,US,+1 972-347-1613,https://locations.papajohns.com/united-states/tx/75078/prosper/2111-e-university-dr,Mo-Th 10:00-23:00; Fr-Sa 10:00-24:00; Su 10:00-23:00,Papa John's Pizza,Q2759586
629849,penske,Longo Toyota Of Prosper,,PROSPER,TX,,US,+1 972-347-1805,https://www.pensketruckrental.com/locations/us/texas/prosper/629849/,,Penske,Q81234570
tx_prosper_3500-east-1st-street,pizza_hut_us,3500 East 1st Street,,Prosper,TX,,US,,https://locations.pizzahut.com/tx/prosper/3500-east-1st-street,,Pizza Hut,Q191615
tx_prosper_301-eagle-drive,pizza_hut_us,301 Eagle Drive,,Prosper,TX,,US,,https://locations.pizzahut.com/tx/prosper/301-eagle-drive,,Pizza Hut,Q191615
tx_prosper_1049-preston-rd,pizza_hut_us,1049 Preston Rd.,,Prosper,TX,,US,+1 972-347-3355,https://locations.pizzahut.com/tx/prosper/1049-preston-rd,,Pizza Hut,Q191615
restaurant_84994,popeyes_us_fr,Popeyes,"4211 University Drive Prosper, Texas 75078 - USA",Prosper,TX,,US,+1 972-347-9132,https://www.popeyes.com/store-locator/store/restaurant_84994,Mo-Su 10:00-23:00,Popeyes,Q1330910
ppg-paints-8316-64877,ppgpaints,PPG Paints 8316,,"Prosper, ",TX,,US,+1 972-347-9922,https://www.ppgpaints.com/store-locator/us/texas/prosper-paint-stores/ppg-paints-8316-64877,,PPG Paints,Q83891559
237,primrose_schools,Primrose School of Prosper,,Prosper,TX,,US,+1 972-347-2767,https://www.primroseschools.com/schools/prosper/,,Primrose Schools,Q7243677
385,primrose_schools,Primrose School of Windsong Ranch,,Prosper,TX,,US,+1 972-787-9971,https://www.primroseschools.com/schools/windsong-ranch/,,Primrose Schools,Q7243677
https://www.publicstorage.com/self-storage-tx-prosper/5695.html,public_storage_us,Public Storage,,Prosper,TX,,US,+1 469-912-3023,https://www.publicstorage.com/self-storage-tx-prosper/5695.html,,Public Storage,Q1156045
https://www.publicstorage.com/self-storage-tx-prosper/5697.html,public_storage_us,Public Storage,,Prosper,TX,,US,+1 469-983-6192,https://www.publicstorage.com/self-storage-tx-prosper/5697.html,,Public Storage,Q1156045
https://www.publicstorage.com/self-storage-tx-prosper/2646.html,public_storage_us,Public Storage,,Prosper,TX,,US,+1 469-250-0836,https://www.publicstorage.com/self-storage-tx-prosper/2646.html,,Public Storage,Q1156045
2158,pure_barre_us,Prosper,,Prosper,TX,,US,+1 469-481-6311,https://www.purebarre.com/location/prosper-tx,,Pure Barre,Q86707084
https://www.racetrac.com/locations/texas/prosper/prosper,racetrac_us,RaceTrac,,Prosper,TX,,US,+1 972-347-9520,https://www.racetrac.com/locations/texas/prosper/prosper,,RaceTrac,Q735942
2006,ross_dress_for_less_us,PROSPER,,Prosper,TX,,US,+1 972-433-1101,,Mo-Th 09:30-22:00; Fr-Sa 09:00-23:00; Su 10:00-22:00,Ross Dress for Less,Q3442791
38460,seven_eleven_ca_us,7-11 Str   1225 Us Hwy 380,,Prosper,TX,,US,+1 469-389-9823,https://www.7-eleven.com/locations/tx/prosper/1225-us-hwy-380-38460,,7-Eleven,Q259340
38694,seven_eleven_ca_us,7-11 Str   2101 N Preston Rd,,Prosper,TX,,US,+1 469-370-1836,https://www.7-eleven.com/locations/tx/prosper/2101-n-preston-rd-38694,,7-Eleven,Q259340
39941,seven_eleven_ca_us,7-Eleven,,Prosper,TX,,US,+1 800-255-0711,https://www.7-eleven.com/locations/tx/prosper/3608-south-dallas-pkwy-39941,,7-Eleven,Q259340
34650,seven_eleven_ca_us,7-11 Str   1541 University Dr,,Prosper,TX,,US,+1 972-347-5901,https://www.7-eleven.com/locations/tx/prosper/1541-university-dr-34650,,7-Eleven,Q259340
38376,seven_eleven_ca_us,7-11 Str   390 S Preston Rd,,Prosper,TX,,US,+1 469-422-7448,https://www.7-eleven.com/locations/tx/prosper/390-s-preston-rd-38376,,7-Eleven,Q259340
38224,seven_eleven_ca_us,7-11 Str   17535 Fishtrap Road,,Prosper,TX,,US,+1 214-385-9505,https://www.7-eleven.com/locations/tx/prosper/17535-fishtrap-road-38224,,7-Eleven,Q259340
9462798491859691279,sleep_number_us,Sleep Number,,Prosper,TX,,US,,https://www.sleepnumber.com/stores/tx/prosper/1100-s-preston-rd,Mo-Th 10:00-19:00; Fr-Sa 10:00-20:00; Su 11:00-19:00,Sleep Number,Q7447640
https://smashburger.com/locations/#64506833,smashburger,Smashburger,,Prosper,TX,,US,+1 469-715-6062,https://smashburger.com/locations/us/tx/prosper/1111-s-preston-rd,Mo-Th 11:00-20:00; Fr-Sa 11:00-21:00; Su 11:00-20:00,Smashburger,Q17061332
https://restaurants.subway.com/#14910082,subway,Subway Tiger Mart,,Prosper Collin,TX,,US,+1 972-347-1801,https://restaurants.subway.com/united-states/tx/prosper/1099-n-preston-rd,Mo-Su 07:00-20:00,Subway,Q244457
81990,supercuts,Hwy 380 & Fm 423,16710 Fm 423 Ste 800,Frisco,TX,,US,+1 469-481-2558,https://www.supercuts.com/checkin/81990,Mo-Fr 09:00-19:00; Sa 09:00-18:00; Su 11:00-17:00,Supercuts,Q7643239
81776,supercuts,Shops At Prosper Trail,1170 N Preston Rd Ste 140,Prosper,TX,,US,+1 972-347-6288,https://www.supercuts.com/checkin/81776,Mo-Fr 09:00-20:00; Sa 09:00-18:00; Su 11:00-17:00,Supercuts,Q7643239
281094,tjx,Prosper,1030 South Preston Road,Prosper,TX,,US,+1 972-433-1039,,Mo-Sa 09:30-21:30; Su 10:00-20:00,HomeGoods,Q5887941
081492,tjx,Prosper,1061 Preston Rd,Prosper,TX,,US,+1 972-347-9659,,Mo-Sa 09:30-21:30; Su 10:00-20:00,TJ Maxx,Q10860683
227F,tmobile_us,The Gates of Prosper,,Prosper,TX,,US,+1 469-296-9982,https://www.t-mobile.com/store-locator/tx/prosper/the-gates-of-prosper,,T-Mobile,Q3511885
4200,tmobile_us,Highway 380 & N Custer Rd,,Prosper,TX,,US,+1 214-495-1955,https://www.t-mobile.com/store-locator/tx/prosper/highway-380-n-custer-rd,,T-Mobile,Q3511885
1378484,usps,PROSPER,,PROSPER,TX,,US,+1 972-347-2543,,Mo-Fr 08:30-17:00,United States Postal Service,Q668687
7507807291,usps_collection_boxes,USPS COLLECTION BOX - BLUE BOX,941 N COLEMAN ST,PROSPER,TX,,US,,,,United States Postal Service,Q668687
7507807293,usps_collection_boxes,USPS COLLECTION BOX - PO LOBBY,941 N COLEMAN ST,PROSPER,TX,,US,,,,United States Postal Service,Q668687
7507807294,usps_collection_boxes,USPS COLLECTION BOX - PO LOBBY,941 N COLEMAN ST,PROSPER,TX,,US,,,,United States Postal Service,Q668687
7507807297,usps_collection_boxes,USPS COLLECTION BOX - PO LOBBY,941 N COLEMAN ST,PROSPER,TX,,US,,,,United States Postal Service,Q668687
0000026254,valero,VALERO  2741580,,Prosper,TX,,US,,https://locations.valero.com/en-us/LocationDetails/Index/1411-E-UNIVERSITY-DR/0000026254,,Valero,Q1283291
prosper_oil-change-070062,valvoline_instant_oil_change,Valvoline,4980 W University Drive ,Prosper,TX,,US,+1 972-347-4986,https://store.vioc.com/tx/prosper/oil-change-070062.html,,Valvoline Instant Oil Change,Q7912852
R00000254857,verizon_us,Gates of Prosper,,Prosper,TX,,US,+1 972-346-5616,https://www.verizon.com/stores/details/texas/prosper/gates-of-prosper-1292822/,Mo-Sa 10:00-19:00; Su 10:00-17:00,Verizon,Q919641
,visa,,,PROSPER,TX,,US,,,,,
,visa,,,PROSPER,TX,,US,,,,,
,visa,,,PROSPER,TX,,US,,,,,
,visa,,,PROSPER,TX,,US,,,,,
,visa,,,PROSPER,TX,,US,,,,,
,visa,,,PROSPER,TX,,US,,,,,
,visa,,,PROSPER,TX,,US,,,,,
,visa,,,PROSPER,TX,,US,,,,,
,visa,,,PROSPER,TX,,US,,,,,
,visa,,,PROSPER,TX,,US,,,,,
,visa,,,PROSPER,TX,,US,,,,,
,visa,,,PROSPER,TX,,US,,,,,
,visa,,,PROSPER,TX,,US,,,,,
,visa,,,PROSPER,TX,,US,,,,,
,visa,,,PROSPER,TX,,US,,,,,
,visa,,,PROSPER,TX,,US,,,,,
,visa,,,PROSPER,TX,,US,,,,,
,visa,,,PROSPER,TX,,US,,,,,
,visa,,,PROSPER,TX,,US,,,,,
,visa,,,PROSPER,TX,,US,,,,,
,visa,,,PROSPER,TX,,US,,,,,
,visa,,,PROSPER,TX,,US,,,,,
,visa,,,PROSPER,TX,,US,,,,,
,visa,,,PROSPER,TX,,US,,,,,
,visa,,,PROSPER,TX,,US,,,,,
,visa,,,PROSPER,TX,,US,,,,,
,visa,,,PROSPER,TX,,US,,,,,
,visa,,,PROSPER,TX,,US,,,,,
1380,visionworks,Visionworks,,Prosper,TX,,US,+1 469-480-1518,https://locations.visionworks.com/ll/US/TX/Prosper/1150-S-Preston-Rd,Mo-Sa 10:00-18:30,Visionworks,Q5422607
880__S__PRESTON__RD__STE__10_PROSPER_TX_75078,wellsfargo,Wells Fargo,880 S PRESTON RD STE 10,PROSPER,TX,,US,+1 972-346-5101,https://www.wellsfargo.com/locator/bank/880__S__PRESTON__RD__STE__10_PROSPER_TX_75078/,Mo-Fr 09:00-17:00,Wells Fargo,Q744149
d73aff0ebd09cc4da9dccb256d275b15,western_union,7-ELEVEN #39942,,Prosper,TX,,US,+1 800-255-0711,https://location.westernunion.com/us/tx/prosper/d73aff0ebd09cc4da9dccb256d275b15,,Western Union,Q861042
92bee3dc2081345b62c4d323586043a9,western_union,7-ELEVEN #38224,,Prosper,TX,,US,+1 214-385-9505,https://location.westernunion.com/us/tx/prosper/92bee3dc2081345b62c4d323586043a9,,Western Union,Q861042
49b897feee46e5ab16ea7d7d80e28092,western_union,WALMART #006300,,Prosper,TX,,US,+1 972-347-9467,https://location.westernunion.com/us/tx/prosper/49b897feee46e5ab16ea7d7d80e28092,Mo-Su 07:00-21:00,Western Union,Q861042
5bd4289e6ca0f03e89e818110a18ca1c,western_union,WOODFOREST #0171,,Prosper,TX,,US,+1 972-346-5904,https://location.westernunion.com/us/tx/prosper/5bd4289e6ca0f03e89e818110a18ca1c,Mo-Fr 10:00-18:00; Sa 10:00-14:00,Western Union,Q861042
16211c0050b991fc4953ad74a5f50b74,western_union,7- ELEVEN #38694,,Prosper,TX,,US,+1 909-456-5179,https://location.westernunion.com/us/tx/prosper/16211c0050b991fc4953ad74a5f50b74,,Western Union,Q861042
5d5d378272617800dc86e0b6ecd556dc,western_union,7-ELEVEN #34650,,Prosper,TX,,US,+1 972-347-5901,https://location.westernunion.com/us/tx/prosper/5d5d378272617800dc86e0b6ecd556dc,,Western Union,Q861042
aebb36957a3488e8a894c23ee4161ba5,western_union,CIRCLE K #1580,,Prosper,TX,,US,+1 281-689-5490,https://location.westernunion.com/us/tx/prosper/aebb36957a3488e8a894c23ee4161ba5,,Western Union,Q861042
https://locations.whataburger.com/tx/prosper/1201-s-preston-rd.html,whataburger,S Preston Rd - Prosper,1201 S PRESTON RD,PROSPER,TX,,US,,https://locations.whataburger.com/tx/prosper/1201-s-preston-rd.html,,Whataburger,Q376627
47403,wingstop,Wingstop Prosper Preston Rd,1350 N. Preston Rd Ste 20,Prosper,TX,,US,+1 972-347-9315,,,Wingstop,Q8025339
88125,wingstop,Wingstop Prosper University Dr,4940 University Drive,Prosper,TX,,US,+1 469-813-9464,,,Wingstop,Q8025339
