Ref,Spider,Name,Address,City,State,Zipcode,Country,Phone,Website,Hours,Brand,WikiData
196370,bluerhino,Love's #770,,Wadsworth,IL,,US,+1 847-838-4265,,,Blue Rhino,Q65681213
168503,bluerhino,Speedway #4440,,Beach Park,IL,,US,+1 847-360-1298,,,Blue Rhino,Q65681213
82162521951056008300100000000000,bp,BP,,Wadsworth,IL,,US,+1 847-599-5609,,Mo-Su 07:00-22:00,BP,Q152057
353354,dunkin_us,Dunkin',,Wadsworth,IL,,US,+1 847-244-5200,https://locations.dunkindonuts.com/en/il/wadsworth/39090-n-us-highway-41/353354,Mo-Sa 05:00-18:00; Su 06:00-18:00,Dunkin',Q847743
351694,dunkin_us,Dunkin',,Wadsworth,IL,,US,+1 847-665-8160,https://locations.dunkindonuts.com/en/il/wadsworth/16145-w-highway-173/351694,Mo-Fr 05:00-18:00; Sa-Su 06:00-18:00,Dunkin',Q847743
1005,loves,Site 770,,Wadsworth,IL,,US,+1 847-838-4265,,,Love's,Q1872496
1412,pilot_flyingj,Pilot Dealer,,Wadsworth,IL,,US,+1 847-395-5000,https://locations.pilotflyingj.com/us/il/wadsworth/16452-w-russell-rd,,Pilot,Q7194412
1386138,usps,WADSWORTH,,WADSWORTH,IL,,US,+1 847-662-2678,,Mo-Fr 07:30-16:00; Sa 08:30-11:00,United States Postal Service,Q668687
6008300008,usps_collection_boxes,USPS COLLECTION BOX - PO LOBBY,39067 N CAROLINE AVE,WADSWORTH,IL,,US,,,,United States Postal Service,Q668687
6008300005,usps_collection_boxes,USPS COLLECTION BOX - PO LOBBY,39067 N CAROLINE AVE,WADSWORTH,IL,,US,,,,United States Postal Service,Q668687
6008300006,usps_collection_boxes,USPS COLLECTION BOX - PO LOBBY,39067 N CAROLINE AVE,WADSWORTH,IL,,US,,,,United States Postal Service,Q668687
6008300001,usps_collection_boxes,USPS COLLECTION BOX - BLUE BOX,39067 N CAROLINE AVE,WADSWORTH,IL,,US,,,,United States Postal Service,Q668687
6008300002,usps_collection_boxes,USPS COLLECTION BOX - BLUE BOX,39067 N CAROLINE AVE,WADSWORTH,IL,,US,,,,United States Postal Service,Q668687
,visa,,,WADSWORTH,IL,,US,,,,,
,visa,,,WADSWORTH,IL,,US,,,,,
,visa,,,WODSWORTH,IL,,US,,,,,
,visa,,,WADSWORTH,IL,,US,,,,,
,visa,,,WADSWORTH,IL,,US,,,,,
,visa,,,WADSWORTH,IL,,US,,,,,
,visa,,,WADSWORTH,IL,,US,,,,,
,visa,,,WADSWORTH,IL,,US,,,,,
,visa,,,WADSWORTH,IL,,US,,,,,
,visa,,,WADSWORTH,IL,,US,,,,,
,visa,,,WADSWORTH,IL,,US,,,,,
,visa,,,WADSWORTH,IL,,US,,,,,
,visa,,,WADSWORTH,IL,,US,,,,,
,visa,,,WADSWORTH,IL,,US,,,,,
,visa,,,WADSWORTH,IL,,US,,,,,
,visa,,,WADSWORTH,IL,,US,,,,,
,visa,,,WADSWORTH,IL,,US,,,,,
,visa,,,WADSWORTH,IL,,US,,,,,
,visa,,,WADSWORTH,IL,,US,,,,,
,visa,,,WADWORTH,IL,,US,,,,,
