Ref,Spider,Name,Address,City,State,Zipcode,Country,Phone,Website,Hours,Brand,WikiData
https://stores.advanceautoparts.com/nc/dallas/1030-dallas-cherryville-hwy,advance_auto_parts_us,Advance Auto Parts,,Dallas,NC,,US,+1 704-922-9818,https://stores.advanceautoparts.com/nc/dallas/1030-dallas-cherryville-hwy,Mo-Sa 07:30-21:00; Su 09:00-20:00,Advance Auto Parts,Q4686051
4871,autozone_us,AutoZone Auto Parts Dallas,,Dallas,NC,,US,+1 704-922-4109,https://www.autozone.com/locations/nc/dallas/1102-dallas-cherryville-hwy.html,Mo-Sa 07:30-21:00; Su 08:00-21:00,AutoZone,Q4826087
https://locators.bankofamerica.com/nc/dallas/atm-dallas-109880.html,bankofamerica,Bank of America Drive-Thru ATM | Dallas Nc,,Dallas,NC,,US,+1 844-401-8500,https://locators.bankofamerica.com/nc/dallas/atm-dallas-109880.html,,Bank of America,Q487907
127115,bluerhino,Country Corner,,Dallas,NC,,US,+1 704-922-9601,,,Blue Rhino,Q65681213
12509,bluerhino,Food Lion #263,,Dallas,NC,,US,+1 704-922-9832,,,Blue Rhino,Q65681213
152585,bluerhino,Walgreens #10608,,Dallas,NC,,US,+1 704-922-0297,,,Blue Rhino,Q65681213
172300,bluerhino,Family Dollar #11025,,Dallas,NC,,US,+1 704-271-9764,,,Blue Rhino,Q65681213
186461,bluerhino,Timeout C-Store,,Dallas,NC,,US,+1 704-922-1199,,,Blue Rhino,Q65681213
77413,bluerhino,Steve's Superette,,Dallas,NC,,US,+1 704-922-9104,,,Blue Rhino,Q65681213
nc/dallas/1017-dallas-cherryville-hwy,bojangles,"Bojangles Dallas, NC",,Dallas,NC,,US,+1 704-922-3526,https://locations.bojangles.com/nc/dallas/1017-dallas-cherryville-hwy.html,,Bojangles',Q891163
86250,citi,ATM Walgreens,,Dallas,NC,,US,,,,Citibank,Q857063
32276,citi,ATM 7ELEVEN-FCTI,,Dallas,NC,,US,,,,Citibank,Q857063
4470,dominos_pizza_us,Domino's Pizza,,Dallas,NC,,US,+1 704-922-7665,https://pizza.dominos.com/north-carolina/dallas/3130--dallas-high-shoals-rd,Mo-Th 10:30-24:00; Fr-Sa 10:30-01:00; Su 10:30-24:00,Domino's,Q839466
https://www.edwardjones.com/us-en/financial-advisor/james-sherrill,edwardjones,James N Sherrill IV,,Dallas,NC,,US,+1 704-922-7028,https://www.edwardjones.com/us-en/financial-advisor/james-sherrill,Mo-Fr 08:00-17:00,Edward Jones,Q5343830
100567,fresenius_kidney_care_us,Fresenius Kidney Care North Gaston,,Dallas,NC,,US,+1 800-881-5101,https://www.freseniuskidneycare.com/dialysis-centers/north-carolina/100567,Mo-Sa 05:30-16:30,,
146,ingles,Dallas,,Dallas,NC,,US,+1 704-922-6791,https://www.ingles-markets.com/storelocate/storeinfo.php?storenum=146,Mo-Su 06:00-23:00,Ingles,Q6032595
https://locations.jackinthebox.com/us/nc/dallas/102-college-view-dr,jackinthebox,Jack in the Box,,Dallas,NC,,US,+1 704-215-7163,https://locations.jackinthebox.com/us/nc/dallas/102-college-view-dr,Mo-We 07:00-23:00; Th-Sa 07:00-00:00; Su 07:00-23:00,Jack in the Box,Q1538507
https://locations.kfc.com/#11246455,kfc,Chicken Nuggets Near Dallas,,Dallas,NC,,US,,https://locations.kfc.com/nc/dallas/1003-dallas-cherryville-highway/chickennugget,Mo-Su 10:30-21:30,KFC,Q524757
155847,marathon_petroleum_us,TIMEOUT C STORE,,DALLAS,NC,,US,+1 704-922-1199,,,Marathon,Q458363
https://locations.oreillyauto.com/nc/dallas/check-engine-light-testing-6431.html,oreilly,Your Dallas O'Reilly Auto Parts Store,,Dallas,NC,,US,+1 704-349-4704,https://locations.oreillyauto.com/nc/dallas/check-engine-light-testing-6431.html,Mo-Sa 07:30-21:00; Su 09:00-20:00,O'Reilly Auto Parts,Q7071951
https://locations.oreillyauto.com/nc/dallas/wiper-installation-6431.html,oreilly,Your Dallas O'Reilly Auto Parts Store,,Dallas,NC,,US,+1 704-349-4704,https://locations.oreillyauto.com/nc/dallas/wiper-installation-6431.html,Mo-Sa 07:30-21:00; Su 09:00-20:00,O'Reilly Auto Parts,Q7071951
https://locations.oreillyauto.com/nc/dallas/battery-testing-6431.html,oreilly,Your Dallas O'Reilly Auto Parts Store,,Dallas,NC,,US,+1 704-349-4704,https://locations.oreillyauto.com/nc/dallas/battery-testing-6431.html,Mo-Sa 07:30-21:00; Su 09:00-20:00,O'Reilly Auto Parts,Q7071951
https://locations.oreillyauto.com/nc/dallas/autopartes-6431.html,oreilly,Tu tienda O'Reilly Auto Parts en Dallas,,Dallas,NC,,US,+1 704-349-4704,https://locations.oreillyauto.com/nc/dallas/autopartes-6431.html,Mo-Sa 07:30-21:00; Su 09:00-20:00,O'Reilly Auto Parts,Q7071951
41144,seven_eleven_ca_us,7-11 Str   706 W Trade St,,Dallas,NC,,US,+1 704-675-2636,,,7-Eleven,Q259340
https://restaurants.subway.com/#14897713,subway,Subway Gaston Square Shopping Ctr,,Dallas Gaston,NC,,US,+1 704-922-1001,https://restaurants.subway.com/united-states/nc/dallas/3129-dallas-high-shoals-hwy,Mo-Su 09:00-22:00,Subway,Q244457
1360206,usps,DALLAS,,DALLAS,NC,,US,+1 704-922-8438,,Mo-Fr 08:00-17:00; Sa 09:00-12:00,United States Postal Service,Q668687
2803400006,usps_collection_boxes,USPS COLLECTION BOX - BLUE BOX,210 N HOLLAND ST,DALLAS,NC,,US,,,,United States Postal Service,Q668687
2803400005,usps_collection_boxes,USPS COLLECTION BOX - BLUE BOX,3151 DALLAS HIGH SHOALS HWY,DALLAS,NC,,US,,,,United States Postal Service,Q668687
2803400010,usps_collection_boxes,USPS COLLECTION BOX - PO LOBBY,3151 DALLAS HIGH SHOALS HWY,DALLAS,NC,,US,,,,United States Postal Service,Q668687
2803400011,usps_collection_boxes,USPS COLLECTION BOX - PO LOBBY,3151 DALLAS HIGH SHOALS HWY,DALLAS,NC,,US,,,,United States Postal Service,Q668687
2803400016,usps_collection_boxes,USPS COLLECTION BOX - PO LOBBY,3151 DALLAS HIGH SHOALS HWY,DALLAS,NC,,US,,,,United States Postal Service,Q668687
,visa,,,DALLAS,NC,,US,,,,,
,visa,,,DALLAS,NC,,US,,,,,
,visa,,,DALLAS,NC,,US,,,,,
,visa,,,DALLAS,NC,,US,,,,,
,visa,,,DALLAS,NC,,US,,,,,
,visa,,,DALLAS,NC,,US,,,,,
,visa,,,DALLAS,NC,,US,,,,,
,visa,,,DALLAS,NC,,US,,,,,
,visa,,,DALLAS,NC,,US,,,,,
,visa,,,DALLAS,NC,,US,,,,,
,visa,,,DALLAS,NC,,US,,,,,
,visa,,,DALLAS,NC,,US,,,,,
,visa,,,DALLAS,NC,,US,,,,,
,visa,,,DALLAS,NC,,US,,,,,
,visa,,,DALLAS,NC,,US,,,,,
,visa,,,DALLAS,NC,,US,,,,,
,visa,,,DALLAS,NC,,US,,,,,
,visa,,,DALLAS,NC,,US,,,,,
,visa,,,DALLAS,NC,,US,,,,,
,visa,,,DALLAS,NC,,US,,,,,
,visa,,,DALLAS,NC,,US,,,,,
,visa,,,DALLAS,NC,,US,,,,,
,visa,,,DALLAS,NC,,US,,,,,
,visa,,,DALLAS,NC,,US,,,,,
,visa,,,DALLAS,NC,,US,,,,,
,visa,,,DALLAS,NC,,US,,,,,
,visa,,,DALLAS,NC,,US,,,,,
,visa,,,DALLAS,NC,,US,,,,,
,visa,,,DALLAS,NC,,US,,,,,
,visa,,,DALLAS,NC,,US,,,,,
,visa,,,DALLAS,NC,,US,,,,,
,visa,,,DALLAS,NC,,US,,,,,
1632,waffle_house_us,Waffle House #1632,,DALLAS,NC,,US,+1 704-922-9648,https://locations.wafflehouse.com/dallas-nc-1632,24/7,Waffle House,Q1701206
https://www.walgreens.com/locator/walgreens-1000+dallas+cherryville+hwy-dallas-nc-28034/id=10608,walgreens,Walgreens,,Dallas,NC,,US,+1 704-922-0297,https://www.walgreens.com/locator/walgreens-1000+dallas+cherryville+hwy-dallas-nc-28034/id=10608,Mo-Su 08:00-21:00,Walgreens,Q1591889
1018__DALLAS__CHERRYVILLE__HWY_DALLAS_NC_28034,wellsfargo,Wells Fargo,1018 DALLAS CHERRYVILLE HWY,DALLAS,NC,,US,+1 704-922-3141,https://www.wellsfargo.com/locator/bank/1018__DALLAS__CHERRYVILLE__HWY_DALLAS_NC_28034/,Mo-Fr 09:00-17:00,Wells Fargo,Q744149
b7f84616b201e64e78b91e3bb2012c24,western_union,7-ELEVEN #41144,,Dallas,NC,,US,+1 704-830-6845,https://location.westernunion.com/us/nc/dallas/b7f84616b201e64e78b91e3bb2012c24,,Western Union,Q861042
905047a9f462503db967da5c6a7ecb1b,western_union,WALMART #007004,,Dallas,NC,,US,+1 704-648-0912,https://location.westernunion.com/us/nc/dallas/905047a9f462503db967da5c6a7ecb1b,Mo-Su 07:00-21:00,Western Union,Q861042
