Ref,Spider,Name,Address,City,State,Zipcode,Country,Phone,Website,Hours,Brand,WikiData
856,abc_pl,abc,,Radlin,śląskie,,PL,,,,abc,Q11683985
5290,abc_pl,abc,,Radlin,śląskie,,PL,,,,abc,Q11683985
5291,abc_pl,abc,,Radlin,śląskie,,PL,,,,abc,Q11683985
5292,abc_pl,abc,,Radlin,śląskie,,PL,,,,abc,Q11683985
6706,abc_pl,abc,,Radlin,śląskie,,PL,,,,abc,Q11683985
14471,abc_pl,abc,,Radlin,śląskie,,PL,,,,abc,Q11683985
15211,abc_pl,abc,,Radlin,śląskie,,PL,,,,abc,Q11683985
13387,groszek_pl,Groszek,,Radlin,śląskie,,PL,,,,Groszek,Q9280965
POP-RAL7,paczkomat_inpost_pl,DUŻY BEN,,Radlin,śląskie,,PL,,https://inpost.pl/paczkomat-radlin-pop-ral7-korfantego-paczkomaty-slaskie,Mo-Sa 10:00-22:00,Paczkomat,Q110970254
RAL01HP,paczkomat_inpost_pl,w sklepie Duży Ben,,Radlin,śląskie,,PL,,https://inpost.pl/paczkomat-radlin-ral01hp-wojciecha-korfantego-paczkomaty-slaskie,Mo-Sa 09:00-23:00,Paczkomat,Q110970254
RAL01ML,paczkomat_inpost_pl,Przy Sklepie Centrum Odzieży i Obuwia,,Radlin,śląskie,,PL,,https://inpost.pl/paczkomat-radlin-ral01ml-korfantego-paczkomaty-slaskie,24/7,Paczkomat,Q110970254
RAL01N,paczkomat_inpost_pl,Parking Lewiatan Radlin Korfantego,,Radlin,śląskie,,PL,,https://inpost.pl/paczkomat-radlin-ral01n-korfantego-paczkomaty-slaskie,24/7,Paczkomat,Q110970254
RAL02N,paczkomat_inpost_pl,Przy sklepie spożywczym,,Radlin,śląskie,,PL,,https://inpost.pl/paczkomat-radlin-ral02n-rymera-paczkomaty-slaskie,24/7,Paczkomat,Q110970254
RAL03M,paczkomat_inpost_pl,Parking sklepu Lidl,,Radlin,śląskie,,PL,,https://inpost.pl/paczkomat-radlin-ral03m-rymera-paczkomaty-slaskie,24/7,Paczkomat,Q110970254
RAL04M,paczkomat_inpost_pl,obok klubu Fitness,,Radlin,śląskie,,PL,,https://inpost.pl/paczkomat-radlin-ral04m-rymera-paczkomaty-slaskie,24/7,Paczkomat,Q110970254
RAL04N,paczkomat_inpost_pl,Przy Aptece Galen,,Radlin,śląskie,,PL,,https://inpost.pl/paczkomat-radlin-ral04n-generala-hallera-paczkomaty-slaskie,24/7,Paczkomat,Q110970254
RAL05M,paczkomat_inpost_pl,obok firmy,,Radlin,śląskie,,PL,,https://inpost.pl/paczkomat-radlin-ral05m-narutowicza-paczkomaty-slaskie,24/7,Paczkomat,Q110970254
RAL06M,paczkomat_inpost_pl,Obok komisu samochodowego,,Radlin,śląskie,,PL,,https://inpost.pl/paczkomat-radlin-ral06m-rybnicka-paczkomaty-slaskie,24/7,Paczkomat,Q110970254
RAL07M,paczkomat_inpost_pl,Market Dino,,Radlin,śląskie,,PL,,https://inpost.pl/paczkomat-radlin-ral07m-kardynala-kominka-paczkomaty-slaskie,24/7,Paczkomat,Q110970254
261845,poczta_polska_pl,UP Radlin,,Radlin,ŚLĄSKIE,,PL,+48 32 455 84 59;+48 32 455 82 74,,,Poczta Polska,Q168833
,visa,,,RADLIN,ŚLĄSKIE,,PL,,,,,
,visa,,,RADLIN,ŚLĄSKIE,,PL,,,,,
