Ref,Spider,Name,Address,City,State,Zipcode,Country,Phone,Website,Hours,Brand,WikiData
785,biggby_coffee_us,Biggby Coffee,1002 Cooper St. Jackson MI 49201,Jackson,MI,,US,+1 517-315-4061,,Mo-Sa 06:00-19:00; Su 07:00-19:00,Biggby Coffee,Q4906876
660,biggby_coffee_us,Biggby Coffee,1220 W Parnall Rd. Jackson MI 49201,Jackson,MI,,US,+1 517-395-4144,,Mo-Sa 06:00-19:00; Su 07:00-19:00,Biggby Coffee,Q4906876
452,biggby_coffee_us,Biggby Coffee,405 S Cooper St Jackson MI 49201,Jackson,MI,,US,+1 517-780-9558,,Mo-Fr 05:00-20:00; Sa 06:00-20:00; Su 07:00-20:00,Biggby Coffee,Q4906876
438,biggby_coffee_us,Biggby Coffee,2900 Springport Rd Jackson MI 49201,Jackson,MI,,US,+1 517-795-2812,,Mo-Fr 06:00-20:00; Sa-Su 07:00-20:00,Biggby Coffee,Q4906876
143,biggby_coffee_us,Biggby Coffee,1025 N Wisner St Jackson MI 49201,Jackson,MI,,US,+1 517-990-0800,,Mo-Sa 06:00-20:00; Su 07:00-20:00,Biggby Coffee,Q4906876
206886,bluerhino,Rite Aid #01265,,JACKSON,MI,,US,+1 517-780-9535,,,Blue Rhino,Q65681213
73220,bluerhino,Speedway #5519,,Jackson,MI,,US,+1 517-784-4177,,,Blue Rhino,Q65681213
197409,bluerhino,Dollar General #21198,,Jackson,MI,,US,+1 616-607-2852,,,Blue Rhino,Q65681213
208888,bluerhino,Speedway #1407,,Jackson,MI,,US,+1 517-960-2098,,,Blue Rhino,Q65681213
96713433610104920100100000000000,bp,BP,,Jackson,MI,,US,+1 517-395-2287,,Mo-Su 06:00-22:00,BP,Q152057
21162,cadillac,JIM WINTER AUTOMOTIVE GROUP,,Jackson,MI,,US,+1 517-565-0214,https://www.jimwintercadillac.com,Mo 09:00-20:00; Tu 09:00-18:00; We 09:00-20:00; Th-Fr 09:00-18:00; Sa 09:00-15:00,Cadillac,Q27436
44337,chevrolet,ART MOEHN CHEVROLET OF JACKSON,,Jackson,MI,,US,+1 517-787-7700,https://www.artmoehnchevy.com,Mo 09:00-20:00; Tu 09:00-18:00; We 09:00-20:00; Th-Fr 09:00-18:00; Sa 10:00-15:00,Chevrolet,Q29570
58474,citi,ATM GROTTO CLUB,,Jackson,MI,,US,,,,Citibank,Q857063
58473,citi,ATM GROTO TEMPLE,,Jackson,MI,,US,,,,Citibank,Q857063
80198,citi,ATM SPEEDWAY #1407,,Jackson,MI,,US,,,,Citibank,Q857063
78832,citi,ATM Speedway,,Jackson,MI,,US,,,,Citibank,Q857063
22398,coldstone_creamery,Cold Stone Creamery,,Jackson,MI,,US,+1 517-795-1648,https://www.coldstonecreamery.com/stores/22398,,Cold Stone Creamery,Q1094923
,credit_union_us,TRUE Community CU,,Jackson,MI,,US,+1 517-784-7101,,Mo-Fr 07:30-04:00,,
,credit_union_us,TRUE Community CU,,Jackson,MI,,US,+1 517-784-7101,,Mo-Fr 09:30-05:30; Sa 09:00-02:00,,
21198,dollar_general,Dollar General,,Jackson,MI,,US,+1 734-627-7760,https://www.dollargeneral.com/store-directory/mi/jackson/21198,Mo-Su 08:00-22:00,Dollar General,Q145168
https://www.edwardjones.com/us-en/financial-advisor/denise-moeckel,edwardjones,Denise R Moeckel,,Jackson,MI,,US,+1 517-768-7513,https://www.edwardjones.com/us-en/financial-advisor/denise-moeckel,Mo-Th 08:30-16:30; Fr 08:30-16:00,Edward Jones,Q5343830
E120N5,enterprise,Jackson,,Jackson,MI,,US,+1 517-787-8800,,,Enterprise Rent-A-Car,Q17085454
200322768,exxonmobil,VALENTINES,,JACKSON,MI,,US,+1 517-784-8900,https://www.exxon.com/en/find-station/mobil-jackson-mi-valentines-200322768,Mo-Fr 06:00-22:00; Sa-Su 07:00-22:00,Mobil,Q109676002
6181,firestone_auto_care,Firestone Complete Auto Care,,Jackson,MI,,US,+1 517-879-5213,https://local.firestonecompleteautocare.com/michigan/jackson/302-w-michigan-ave/,,Firestone,Q420837
Motorcraft4021USAEnglish,ford,Seymour Ford Lincoln,,Michigan,MI,,US,+1 517-787-9500,,,Ford,Q44294
https://www.ford.com/dealerships/dealer-details/mi/jackson/seymour-ford/,ford_dealers_us,Seymour Ford,,Jackson,MI,,US,+1 833-811-5139,https://www.ford.com/dealerships/dealer-details/mi/jackson/seymour-ford/,Mo 09:00-20:00; Tu 09:00-18:00; We 09:00-20:00; Th-Fr 09:00-18:00; Sa 10:00-16:00,Ford Motor Company,Q44294
101048,fresenius_kidney_care_us,Fresenius Kidney Care Jackson Home,,Jackson,MI,,US,+1 800-881-5101,https://www.freseniuskidneycare.com/dialysis-centers/michigan/101048,,,
23930,huntingtonbank,Downtown Jackson Remote Drive- Thru,,Jackson,MI,,US,+1 517-782-6167,https://www.huntington.com/Community/branch-info?locationId=23930,,Huntington Bank,Q798819
22020,h_r_block,H&R Block,,Jackson,MI,,US,+1 517-787-3682,https://www.hrblock.com/local-tax-offices/michigan/jackson/gallery-place-retail-center/22020/,,H&R Block,Q5627799
159322,marathon_petroleum_us,Express Stop 4660,,JACKSON,MI,,US,+1 517-435-3388,,,Marathon,Q458363
193385,marathon_petroleum_us,Jackson Fast Lane,,Jackson,MI,,US,+1 810-229-6323,,,Marathon,Q458363
NNA5777,nissan_europe,JACKSON NISSAN,,JACKSON,MI,,US,+1 517-788-8300,https://www.jacksonnissan.us,Mo 09:00-19:00; Tu 09:00-18:00; We 09:00-19:00; Th-Fr 09:00-18:00; Sa 10:00-16:00,Nissan,Q20165
01265,rite_aid_us,Rite Aid #01265 Jackson,,Jackson,MI,,US,+1 517-780-9535,https://locations2.riteaid.com.yext-cdn.com/mi/jackson/2255-south-jackson-road.html,Mo-Su 08:00-22:00,Rite Aid,Q3433273
https://restaurants.subway.com/#14905632,subway,Subway BP Gas Station/C-Store,,Jackson Jackson,MI,,US,+1 517-764-5030,https://restaurants.subway.com/united-states/mi/jackson/6010-ann-arbor-road,Mo-Su 08:00-21:00,Subway,Q244457
https://restaurants.subway.com/#14902791,subway,Subway,,Jackson Jackson,MI,,US,+1 517-721-7316,https://restaurants.subway.com/united-states/mi/jackson/1220-parnell-rd,Mo-Su 08:30-21:30,Subway,Q244457
1437869,usps,JACKSON,,JACKSON,MI,,US,+1 517-768-0721,,Mo-Fr 08:00-17:00; Sa 08:00-12:00,United States Postal Service,Q668687
4920100162,usps_collection_boxes,USPS COLLECTION BOX - BLUE BOX,1500 N ELM ST,JACKSON,MI,,US,,,,United States Postal Service,Q668687
4920100189,usps_collection_boxes,USPS COLLECTION BOX - BLUE BOX,1850 W MICHIGAN AVE,JACKSON,MI,,US,,,,United States Postal Service,Q668687
4920100199,usps_collection_boxes,USPS COLLECTION BOX - BLUE BOX,2141 FERGUSON RD,JACKSON,MI,,US,,,,United States Postal Service,Q668687
4920100151,usps_collection_boxes,USPS COLLECTION BOX - BLUE BOX,1931 HORTON RD,JACKSON,MI,,US,,,,United States Postal Service,Q668687
4920100181,usps_collection_boxes,USPS COLLECTION BOX - BLUE BOX,3634 MCCAIN RD,JACKSON,MI,,US,,,,United States Postal Service,Q668687
4920100128,usps_collection_boxes,USPS COLLECTION BOX - BLUE BOX,2777 AIRPORT RD,JACKSON,MI,,US,,,,United States Postal Service,Q668687
4920100192,usps_collection_boxes,USPS COLLECTION BOX - BLUE BOX,3200 HAWTHORN DR,JACKSON,MI,,US,,,,United States Postal Service,Q668687
4920100104,usps_collection_boxes,USPS COLLECTION BOX - BLUE BOX,2251 SPRINGPORT RD,JACKSON,MI,,US,,,,United States Postal Service,Q668687
4920100203,usps_collection_boxes,USPS COLLECTION BOX - PO LOBBY,1104 JACKSON XING,JACKSON,MI,,US,,,,United States Postal Service,Q668687
4920100068,usps_collection_boxes,USPS COLLECTION BOX - BLUE BOX,1104 JACKSON XING,JACKSON,MI,,US,,,,United States Postal Service,Q668687
4920100160,usps_collection_boxes,USPS COLLECTION BOX - BLUE BOX,1100 W ARGYLE AVE,JACKSON,MI,,US,,,,United States Postal Service,Q668687
4920100177,usps_collection_boxes,USPS COLLECTION BOX - BLUE BOX,1200 N WEST,JACKSON,MI,,US,,,,United States Postal Service,Q668687
4920100117,usps_collection_boxes,USPS COLLECTION BOX - BLUE BOX,1821 SPRING ARBOR RD,JACKSON,MI,,US,,,,United States Postal Service,Q668687
4920100131,usps_collection_boxes,USPS COLLECTION BOX - BLUE BOX,900 S BROWN ST,JACKSON,MI,,US,,,,United States Postal Service,Q668687
4920100013,usps_collection_boxes,USPS COLLECTION BOX - BLUE BOX,1301 W FRANKLIN ST,JACKSON,MI,,US,,,,United States Postal Service,Q668687
4920100105,usps_collection_boxes,USPS COLLECTION BOX - BLUE BOX,509 SPARKS ST,JACKSON,MI,,US,,,,United States Postal Service,Q668687
4920100052,usps_collection_boxes,USPS COLLECTION BOX - BLUE BOX,1400 GALLERY PLACE DR,JACKSON,MI,,US,,,,United States Postal Service,Q668687
4920100060,usps_collection_boxes,USPS COLLECTION BOX - BLUE BOX,820 W HIGH ST,JACKSON,MI,,US,,,,United States Postal Service,Q668687
4920100032,usps_collection_boxes,USPS COLLECTION BOX - BLUE BOX,540 N JACKSON ST,JACKSON,MI,,US,,,,United States Postal Service,Q668687
4920100113,usps_collection_boxes,USPS COLLECTION BOX - BLUE BOX,301 W WASHINGTON AVE,JACKSON,MI,,US,,,,United States Postal Service,Q668687
4920100145,usps_collection_boxes,USPS COLLECTION BOX - BLUE BOX,100 S JACKSON ST,JACKSON,MI,,US,,,,United States Postal Service,Q668687
4920100023,usps_collection_boxes,USPS COLLECTION BOX - BLUE BOX,312 S JACKSON ST,JACKSON,MI,,US,,,,United States Postal Service,Q668687
4920100147,usps_collection_boxes,USPS COLLECTION BOX - BLUE BOX,801 HAGUE AVE,JACKSON,MI,,US,,,,United States Postal Service,Q668687
4920100003,usps_collection_boxes,USPS COLLECTION BOX - BLUE BOX,5511 ANN ARBOR RD,JACKSON,MI,,US,,,,United States Postal Service,Q668687
4920100072,usps_collection_boxes,USPS COLLECTION BOX - BLUE BOX,3152 E MICHIGAN AVE,JACKSON,MI,,US,,,,United States Postal Service,Q668687
4920100165,usps_collection_boxes,USPS COLLECTION BOX - BLUE BOX,3101 PAGE AVE,JACKSON,MI,,US,,,,United States Postal Service,Q668687
4920100053,usps_collection_boxes,USPS COLLECTION BOX - BLUE BOX,110 ELM ST,JACKSON,MI,,US,,,,United States Postal Service,Q668687
4920100176,usps_collection_boxes,USPS COLLECTION BOX - BLUE BOX,120 W MICHIGAN AVE,JACKSON,MI,,US,,,,United States Postal Service,Q668687
4920100204,usps_collection_boxes,USPS COLLECTION BOX - PO LOBBY,113 W MICHIGAN AVE,JACKSON,MI,,US,,,,United States Postal Service,Q668687
4920100161,usps_collection_boxes,USPS COLLECTION BOX - BLUE BOX,301 E LOUIS GLICK HWY,JACKSON,MI,,US,,,,United States Postal Service,Q668687
4920100172,usps_collection_boxes,USPS COLLECTION BOX - BLUE BOX,113 W MICHIGAN AVE,JACKSON,MI,,US,,,,United States Postal Service,Q668687
4920100106,usps_collection_boxes,USPS COLLECTION BOX - BLUE BOX,511 S JACKSON ST,JACKSON,MI,,US,,,,United States Postal Service,Q668687
4920100197,usps_collection_boxes,USPS COLLECTION BOX - BLUE BOX,915 BRIDGE ST,JACKSON,MI,,US,,,,United States Postal Service,Q668687
4920100036,usps_collection_boxes,USPS COLLECTION BOX - BLUE BOX,303 W PROSPECT ST,JACKSON,MI,,US,,,,United States Postal Service,Q668687
4920100099,usps_collection_boxes,USPS COLLECTION BOX - BLUE BOX,2000 BROOKLYN RD,JACKSON,MI,,US,,,,United States Postal Service,Q668687
https://vcahospitals.com/jackson-mi,vca,VCA Jackson Animal Hospital,,Jackson,MI,,US,+1 517-787-3512,https://vcahospitals.com/jackson-mi,Mo-Tu 08:00-18:00; Th-Fr 08:00-18:00; Sa 08:00-14:00,VCA,Q7906620
,visa,,,FERNDALE,MI,,US,,,,,
,visa,,,ONSTEAD,MI,,US,,,,,
,visa,,,JACKSON,MI,,US,,,,,
,visa,,,JACKSON,MI,,US,,,,,
,visa,,,JACKSON,MI,,US,,,,,
,visa,,,JACKSON,MI,,US,,,,,
,visa,,,JACKSON,MI,,US,,,,,
,visa,,,JACKSON,MI,,US,,,,,
,visa,,,JACKSON,MI,,US,,,,,
,visa,,,JACKSON,MI,,US,,,,,
,visa,,,JACKSON,MI,,US,,,,,
,visa,,,JACKSON,MI,,US,,,,,
,visa,,,JACKSON,MI,,US,,,,,
,visa,,,JACKSON,MI,,US,,,,,
,visa,,,JACKSON,MI,,US,,,,,
,visa,,,JACKSON,MI,,US,,,,,
,visa,,,JACKSON,MI,,US,,,,,
,visa,,,JACKSON,MI,,US,,,,,
,visa,,,JACKSON,MI,,US,,,,,
,visa,,,JACKSON,MI,,US,,,,,
,visa,,,JACKSON,MI,,US,,,,,
,visa,,,JACKSON,MI,,US,,,,,
,visa,,,JACKSON,MI,,US,,,,,
,visa,,,JACKSON,MI,,US,,,,,
,visa,,,JACKSON,MI,,US,,,,,
,visa,,,JACKSON,MI,,US,,,,,
,visa,,,JACKSON,MI,,US,,,,,
,visa,,,JACKSON,MI,,US,,,,,
,visa,,,JACKSON,MI,,US,,,,,
,visa,,,JACKSON,MI,,US,,,,,
,visa,,,JACKSON,MI,,US,,,,,
,visa,,,JACKSON,MI,,US,,,,,
,visa,,,JACKSON,MI,,US,,,,,
,visa,,,JACKSON,MI,,US,,,,,
,visa,,,JACKSON,MI,,US,,,,,
,visa,,,JACKSON,MI,,US,,,,,
,visa,,,JACKSON,MI,,US,,,,,
,visa,,,JACKSON,MI,,US,,,,,
,visa,,,JACKSON,MI,,US,,,,,
,visa,,,JACKSON,MI,,US,,,,,
,visa,,,JACKSON,MI,,US,,,,,
,visa,,,JACKSON,MI,,US,,,,,
,visa,,,JACKSON,MI,,US,,,,,
,visa,,,JACKSON,MI,,US,,,,,
,visa,,,JACKSON,MI,,US,,,,,
,visa,,,JACKSON,MI,,US,,,,,
,visa,,,JACKSON,MI,,US,,,,,
,visa,,,JACKSON,MI,,US,,,,,
,visa,,,JACKSON,MI,,US,,,,,
,visa,,,JACKSON,MI,,US,,,,,
,visa,,,JACKSON,MI,,US,,,,,
,visa,,,JACKSON,MI,,US,,,,,
,visa,,,JACKSON,MI,,US,,,,,
,visa,,,JACKSON,MI,,US,,,,,
,visa,,,JACKSON,MI,,US,,,,,
,visa,,,JACKSON,MI,,US,,,,,
,visa,,,JACKSON,MI,,US,,,,,
,visa,,,JACKSON,MI,,US,,,,,
,visa,,,JACKSON,MI,,US,,,,,
,visa,,,JACKSON,MI,,US,,,,,
,visa,,,JACKSON,MI,,US,,,,,
,visa,,,JACKSON,MI,,US,,,,,
,visa,,,JACKSON,MI,,US,,,,,
,visa,,,JACKSON,MI,,US,,,,,
,visa,,,JACKSON,MI,,US,,,,,
,visa,,,JACKSON,MI,,US,,,,,
,visa,,,JACKSON,MI,,US,,,,,
,visa,,,JACKSON,MI,,US,,,,,
,visa,,,JACKSON,MI,,US,,,,,
,visa,,,JACKSON,MI,,US,,,,,
,visa,,,JACKSON,MI,,US,,,,,
,visa,,,JACKSON,MI,,US,,,,,
,visa,,,JACKSON,MI,,US,,,,,
,visa,,,JACKSON,MI,,US,,,,,
,visa,,,JACKSON,MI,,US,,,,,
,visa,,,JACKSON,MI,,US,,,,,
,visa,,,JACKSON,MI,,US,,,,,
,visa,,,JACKSON,MI,,US,,,,,
,visa,,,JACKSON,MI,,US,,,,,
,visa,,,JACKSON,MI,,US,,,,,
,visa,,,JACKSON,MI,,US,,,,,
,visa,,,JACKSON,MI,,US,,,,,
,visa,,,JACKSON,MI,,US,,,,,
https://locations.wendys.com/#9253147,wendys,"Wendy's Sargent Road in Jackson, MI",,Jackson,MI,,US,+1 517-748-9520,https://locations.wendys.com/united-states/mi/jackson/6119-ann-arbor-road,"Mo-Su 06:30-10:30,09:00-22:00",Wendy's,Q550258
e38bc0c1273459c2efa527b301d9cfd5,western_union,EXPRESS STOP #4660,,Jackson,MI,,US,+1 517-435-3388,https://location.westernunion.com/us/mi/jackson/e38bc0c1273459c2efa527b301d9cfd5,Mo-Su 06:00-22:00,Western Union,Q861042
938fad34f35e18d8fd553f1db20cec39,western_union,EXPRESS STOP #4654,,Jackson,MI,,US,+1 517-395-2287,https://location.westernunion.com/us/mi/jackson/938fad34f35e18d8fd553f1db20cec39,Mo-Su 06:00-22:00,Western Union,Q861042
8564795cdd2bc484f6cd66ba9dd49c02,western_union,DOLLAR GENERAL #21198,,Jackson,MI,,US,+1 267-841-5329,https://location.westernunion.com/us/mi/jackson/8564795cdd2bc484f6cd66ba9dd49c02,Mo-Su 08:00-22:00,Western Union,Q861042
