Ref,Spider,Name,Address,City,State,Zipcode,Country,Phone,Website,Hours,Brand,WikiData
https://stores.advanceautoparts.com/md/lanham/9447-annapolis-rd,advance_auto_parts_us,Advance Auto Parts,,Lanham,MD,,US,+1 301-459-9252,https://stores.advanceautoparts.com/md/lanham/9447-annapolis-rd,Mo-Sa 07:30-21:00; Su 09:00-20:00,Advance Auto Parts,Q4686051
https://stores.aldi.us/#4420123,aldi_sud_us,ALDI  9343 Annapolis Road,,Lanham,MD,,US,+1 866-471-7008,https://stores.aldi.us/md/lanham/9343-annapolis-road,"Mo-Su 08:30-20:30,09:00-20:30",ALDI,Q41171672
1833,autozone_us,AutoZone Auto Parts Lanham,,Lanham,MD,,US,+1 301-731-5188,https://www.autozone.com/locations/md/lanham/9412-lanham-severn-rd.html,Mo-Sa 07:30-21:00; Su 08:00-21:00,AutoZone,Q4826087
6773,autozone_us,AutoZone Auto Parts Lanham,,Lanham,MD,,US,+1 301-458-2081,https://www.autozone.com/locations/md/lanham/7738-annapolis-rd.html,Mo-Sa 07:30-21:00; Su 08:00-20:00,AutoZone,Q4826087
https://www.avis.com/en/locations/us/md/lanham/ql7,avis,Avis U S A Lanham,,Lanham,MD,,US,+1 301-429-8716,https://www.avis.com/en/locations/us/md/lanham/ql7,Mo-Th 07:30-18:00; Fr 07:30-19:00; Sa 08:00-15:00; Su 09:00-14:00,Avis,Q791136
https://locators.bankofamerica.com/md/seabrook/financial-centers-seabrook-11630.html,bankofamerica,Bank of America Financial Center & Drive-Thru ATM | Seabrook,,Seabrook,MD,,US,+1 301-577-3400,https://locators.bankofamerica.com/md/seabrook/financial-centers-seabrook-11630.html,Mo-Fr 10:00-16:00; Sa 10:00-14:00,Bank of America,Q487907
https://locators.bankofamerica.com/md/lanham/atm-lanham-110669.html,bankofamerica,Bank of America Walk-Up ATM | Aerospace Place,,Lanham,MD,,US,+1 844-401-8500,https://locators.bankofamerica.com/md/lanham/atm-lanham-110669.html,,Bank of America,Q487907
https://locators.bankofamerica.com/md/lanham/atm-lanham-110398.html,bankofamerica,Bank of America Drive-Thru ATM | Woodmore Town Center,,Lanham,MD,,US,+1 844-401-8500,https://locators.bankofamerica.com/md/lanham/atm-lanham-110398.html,,Bank of America,Q487907
BBW02711,bathandbodyworks_us,WOODMORE TOWNE CENTRE,,LANHAM,MD,,US,+1 301-364-1833,,Mo-Th 10:00-20:00; Fr-Sa 10:00-21:00; Su 11:00-18:00,Bath & Body Works,Q810773
https://stores.bestbuy.com/md/lanham/2300-petrie-ln-1776.html,bestbuy,Best Buy Woodmore Towne Centre,,Lanham,MD,,US,+1 301-341-6739,https://stores.bestbuy.com/md/lanham/2300-petrie-ln-1776.html,,Best Buy,Q533415
199672,bluerhino,Lanham Exxon Tiger Mart,,Lanham,MD,,US,+1 301-980-2576,,,Blue Rhino,Q65681213
71030,bluerhino,Lanham BP,,Lanham,MD,,US,+1 301-459-0040,,,Blue Rhino,Q65681213
215135,bluerhino,Landover Shell,,Lanham,MD,,US,+1 301-341-3223,,,Blue Rhino,Q65681213
215134,bluerhino,Lanham Sunoco,,Lanham,MD,,US,+1 240-487-6089,,,Blue Rhino,Q65681213
143581,bluerhino,Forbes BP,,Lanham,MD,,US,+1 301-459-7726,,,Blue Rhino,Q65681213
209514,bluerhino,Dash In #1841,,Lanham,MD,,US,+1 443-883-0624,,,Blue Rhino,Q65681213
43836884787012070600100000000000,bp,BP,,Lanham,MD,,US,+1 301-459-7726,,24/7,BP,Q152057
50783491987332070600100000000000,bp,BP,,Lanham,MD,,US,+1 301-459-0040,,24/7,BP,Q152057
A66C,capital_one_us,Doctors Community Hospital,,Lanham,MD,,US,,https://locations.capitalone.com/atm/MD/lanham-atm-A66C,24/7,Capital One,Q1034654
md_lanham_9301-woodmore-center-dr,chipotle, ,,Lanham,MD,,US,+1 301-341-0897,https://locations.chipotle.com/md/lanham/9301-woodmore-center-dr,,Chipotle,Q465751
om_md_lanham_9361b-annapolis-rd,cititrends,Citi Trends,,Lanham,MD,,US,+1 240-834-7679,https://locations.cititrends.com/md/lanham/9361b-annapolis-rd.html,Mo 11:00-20:00; Tu 11:00-20:00; We 11:00-20:00; Th 11:00-20:00; Fr 10:00-21:00; Sa 10:00-21:00; Su 12:00-18:00,Citi Trends,Q5122438
23552,coldstone_creamery,Cold Stone Creamery,,Lanham,MD,,US,+1 301-324-3888,https://www.coldstonecreamery.com/stores/23552,,Cold Stone Creamery,Q1094923
3047,cvs_us,CVS Pharmacy,,Lanham,MD,,US,+1 301-322-7314,https://www.cvs.com/store-locator/lanham-md-pharmacies/8601-martin-luther-king-jr-hwy-lanham-md-20706/storeid=3047,Mo-Su 08:00-22:00,CVS Pharmacy,Q2078880
1516,cvs_us,CVS Pharmacy,,Seabrook,MD,,US,+1 301-577-5555,https://www.cvs.com/store-locator/seabrook-md-pharmacies/9420-lanham-severn-road-seabrook-md-20706/storeid=1516,Mo-Th 08:00-22:00; Fr-Sa 08:00-23:00; Su 08:00-22:00,CVS Pharmacy,Q2078880
8550,dollartree,DollarTree,,Lanham,MD,,US,+1 301-683-0071,,Mo-Sa 09:00-22:00; Su 10:00-21:00,Dollar Tree,Q5289230
4642,dominos_pizza_us,Domino's Pizza,,Lanham,MD,,US,+1 301-459-3500,https://pizza.dominos.com/maryland/lanham/9509-lanham-severn-rd,Mo-Th 10:00-24:00; Fr-Sa 10:00-01:00; Su 10:00-24:00,Domino's,Q839466
303903,dunkin_us,Dunkin',,Lanham,MD,,US,+1 301-459-8244,https://locations.dunkindonuts.com/en/md/lanham/7903-annapolis-rd/303903,Mo-Sa 05:00-21:00; Su 05:30-20:00,Dunkin',Q847743
E11653,enterprise,Seabrook,,Lanham Seabrook,MD,,US,+1 301-577-1100,,,Enterprise Rent-A-Car,Q17085454
E116Z1,enterprise,New Carrollton Comm Truc,,Lanham,MD,,US,+1 301-577-4735,,,Enterprise Rent-A-Car,Q17085454
1057,european_wax_center_us,European Wax Center,,Glenarden,MD,,US,+1 240-622-9122,https://locations.waxcenter.com/md/glenarden/glenarden-woodmore-towne-centre-1057.html,Mo-Fr 09:00-20:00; Sa 09:00-18:00; Su 09:00-16:00,European Wax Center,Q5413426
500434,extra_space_storage,Lanham Self Storage at 10101 Martin Luther King Jr Hwy,,Lanham,MD,,US,+1 301-918-9000,https://www.extraspace.com/storage/facilities/us/maryland/lanham/500434/,Mo-Fr 09:30-18:00; Sa 09:00-17:30,Extra Space Storage,Q5422162
200324869,exxonmobil,7703 ANNAPOLIS ROAD LANHAM,,LANHAM,MD,,US,+1 301-577-1122,https://www.exxon.com/en/find-station/exxon-lanham-md-7703annapolisroadlanham-200324869,24/7,Exxon,Q109675651
200313906,exxonmobil,SEABROOK EXXON,,LANHAM,MD,,US,+1 301-306-5499,https://www.exxon.com/en/find-station/exxon-lanham-md-seabrookexxon-200313906,24/7,Exxon,Q109675651
28973,family_dollar_us,FAMILY DOLLAR #8973,,Lanham,MD,,US,+1 301-683-0942,https://www.familydollar.com/locations/md/lanham/28973/,Mo-Su 08:00-22:00,Family Dollar,Q5433101
https://stores.footlocker.com/md/lanham/9201-woodmore-centre-dr-9460.html,footlocker,"Foot Locker in Lanham: Lanham, Maryland | Approved | Own It",,Lanham,MD,,US,+1 301-809-9676,https://stores.footlocker.com/md/lanham/9201-woodmore-centre-dr-9460.html,Mo 10:00-18:00; Tu-Sa 10:00-20:00; Su 11:00-18:00,Foot Locker,Q63335
Motorcraft2666USAEnglish,ford,Darcars Ford,,Maryland,MD,,US,+1 301-459-1100,,,Ford,Q44294
https://www.ford.com/dealerships/dealer-details/md/lanham/darcars-ford/,ford_dealers_us,DARCARS Ford,,Lanham,MD,,US,+1 240-825-1663,https://www.ford.com/dealerships/dealer-details/md/lanham/darcars-ford/,Mo-Sa 09:00-21:00; Su 11:00-18:00,Ford Motor Company,Q44294
100869,fresenius_kidney_care_us,Fresenius Kidney Care Nxstage Lanham,,Lanham,MD,,US,+1 800-881-5101,https://www.freseniuskidneycare.com/dialysis-centers/maryland/100869,Mo-Sa 05:00-18:00,,
0326,giantfood,Giant Food Eastgate Shopping Center,,Lanham,MD,,US,+1 301-666-1180,https://stores.giantfood.com/md/lanham/10501-greenbelt-rd,Mo-Su 06:00-22:00,Giant Food,Q5558336
https://stores.gnc.com/#24058749,gnc,GNC Enterprise Shopping Center,,,MD,,US,+1 301-731-0190,https://stores.gnc.com/all-stores-maryland/lanham/9339-annapolis-road,Mo-Sa 10:00-19:00; Su 11:00-18:00,GNC,Q4808595
https://healthy.kaiserpermanente.org/maryland-virginia-washington-dc/facilities/kaiser-permanente-lanham-rehabilitation-center-339611,kaiser_permanente_us,Kaiser Permanente Lanham Rehabilitation Center,,Lanham,MD,,US,+1 301-618-5695,https://healthy.kaiserpermanente.org/maryland-virginia-washington-dc/facilities/kaiser-permanente-lanham-rehabilitation-center-339611,,Kaiser Permanente,Q1721601
https://healthy.kaiserpermanente.org/maryland-virginia-washington-dc/facilities/doctors-community-hospital-338415,kaiser_permanente_us,Doctors Community Hospital,,Lanham,MD,,US,+1 301-324-4968,https://healthy.kaiserpermanente.org/maryland-virginia-washington-dc/facilities/doctors-community-hospital-338415,,Kaiser Permanente,Q1721601
https://locations.kfc.com/#11249461,kfc,Chicken Nuggets Near Lanham,,Lanham,MD,,US,,https://locations.kfc.com/md/lanham/10501-greenbelt-rd/chickennugget,Mo-Su 10:30-23:00,KFC,Q524757
301301,kindercare,Lanham KinderCare,,Lanham,MD,,US,,https://www.kindercare.com/our-centers/lanham/md/301301,,KinderCare Learning Centers,Q6410551
1133,lidl_us,Lanham MD - Mission Dr,,Lanham,MD,,US,+1 844-747-5435,,,Lidl,Q151954
159779,marathon_petroleum_us,Lanham Marathon,,Lanham,MD,,US,+1 240-672-6801,,,Marathon,Q458363
159343,marathon_petroleum_us,Lanham Marathon,,Lanham,MD,,US,+1 301-429-6110,,,Marathon,Q458363
https://locations.massageenvy.com/#1774209,massage_envy,Massage Envy Bowie-Woodmore Towne Centre,,Lanham Lanham,MD,,US,+1 301-364-3400,https://locations.massageenvy.com/maryland/lanham/9300-woodmore-centre-drive.html,Mo-Fr 09:00-21:00; Sa 09:00-18:00; Su 10:00-18:00,Massage Envy,Q10327170
17222,mattress_firm_us,Mattress Firm Petrie Lane,,Lanham,MD,,US,+1 301-322-4310,https://www.mattressfirm.com/en-us/stores/md/lanham/179013/,,Mattress Firm,Q6791878
3350,mightyflame,NSR PETRO SERVICES SUNOCO,,LANHAM,MD,,US,+1 240-714-6730,,,Mighty Flame,
5285,mightyflame,W EXPRESS,,LANHAM,MD,,US,+1 240-381-9910,,,Mighty Flame,
69035087,moneygram,CVS - #3047,,GLENARDEN,MD,,US,+1 301-322-7314,,Mo-Su 08:00-22:00,MoneyGram,Q1944412
https://www.nandosperiperi.com/find/woodmore/,nandos,Woodmore,,,MD,,US,+1 301-386-3946,https://www.nandosperiperi.com/find/woodmore/,,Nando's,Q3472954
https://locations.noodles.com/md/lanham/2801-campus-way-north.html,noodles_and_company_us,Noodles & Company Woodmore Town Center,,Lanham,MD,,US,+1 301-772-7402,https://locations.noodles.com/md/lanham/2801-campus-way-north.html,Mo-Su 11:00-22:00,Noodles and Company,Q7049673
https://stores.nordstromrack.com/#9398522,nordstrom_rack,Nordstrom Rack  Woodmore Towne Centre Lanham,,Lanham,MD,,US,+1 240-764-2021,https://stores.nordstromrack.com/us/md/lanham/2700-campus-way-n,Mo-Sa 10:00-21:00; Su 11:00-19:00,Nordstrom Rack,Q21463374
https://www.orkin.com/locations/maryland-md/lanham-pest-control/branch-601,orkin_us,Orkin,,Lanham,MD,,US,+1 240-716-7116,https://www.orkin.com/locations/maryland-md/forestville-pest-control/branch-601,,Orkin,Q7102943
https://www.orkin.com/locations/maryland-md/lanham-pest-control/branch-312,orkin_us,Orkin,,Lanham,MD,,US,+1 240-716-7115,https://www.orkin.com/locations/maryland-md/lanham-pest-control/branch-312,,Orkin,Q7102943
738,party_city,Woodmore Towne Center,,Lanham,MD,,US,+1 301-852-5762,https://stores.partycity.com/us/md/lanham/party-store-pc738.html,,Party City,Q7140896
md_lanham_9119-annapolis-rd,pizza_hut_us,9119 Annapolis Rd,,Lanham,MD,,US,+1 301-577-5383,https://locations.pizzahut.com/md/lanham/9119-annapolis-rd,,Pizza Hut,Q191615
restaurant_81902,popeyes_us_fr,Popeyes,"7711 Annapolis Rd Lanham, Maryland 20706 - USA",Lanham,MD,,US,+1 301-459-2228,https://www.popeyes.com/store-locator/store/restaurant_81902,Mo-Th 10:00-23:00; Fr-Sa 10:00-00:00; Su 10:00-23:00,Popeyes,Q1330910
home-depot-8548-13114,ppgpaints,HOME DEPOT 8548,,"Lanham, ",MD,,US,+1 301-805-8167,https://www.ppgpaints.com/store-locator/us/maryland/lanham-paint-stores/home-depot-8548-13114,,PPG Paints,Q83891559
https://www.publicstorage.com/self-storage-md-lanham/5525.html,public_storage_us,Public Storage,,Lanham,MD,,US,+1 301-841-8438,https://www.publicstorage.com/self-storage-md-lanham/5525.html,,Public Storage,Q1156045
29765,seven_eleven_ca_us,7-11 Str   7900 Good Luck Rd,,Lanham,MD,,US,+1 301-552-3151,https://www.7-eleven.com/locations/md/lanham/7900-good-luck-rd-29765,,7-Eleven,Q259340
34326,seven_eleven_ca_us,7-11 Str   9002-A Lanham Severn Rd,,Lanham,MD,,US,+1 301-577-7103,https://www.7-eleven.com/locations/md/lanham/9002-a-lanham-severn-rd-34326,,7-Eleven,Q259340
33255,seven_eleven_ca_us,7-Eleven Store,,Lanham,MD,,US,+1 301-731-7651,https://www.7-eleven.com/locations/md/lanham/9900-greenbelt-33255,,7-Eleven,Q259340
484,sola_salon_studios,Woodmore Towne Centre,,Lanham,MD,,US,+1 240-363-1202,https://www.solasalonstudios.com/locations/woodmore-towne-centre,,Sola Salon Studios,Q64337426
7933-annapolis-road-new-carroliton,staples,"Staples Lanham, MD",,Lanham,MD,,US,,https://stores.staples.com/md/lanham/7933-annapolis-road-new-carroliton,Mo-Fr 08:00-20:00; Sa 09:00-18:00; Su 11:00-18:00,Staples,Q785943
https://restaurants.subway.com/#14895767,subway,Subway,,Seabrook Prince Georges,MD,,US,+1 301-459-5336,https://restaurants.subway.com/united-states/md/seabrook/9358-lanham-severn-rd,Mo-Sa 08:00-22:00; Su 09:00-20:00,Subway,Q244457
https://restaurants.subway.com/#14901255,subway,Subway Irs New Carrollton,,New Carrollton Prince Georges,MD,,US,+1 301-429-0495,https://restaurants.subway.com/united-states/md/new-carrollton/5000-ellin-road,Mo-Fr 07:00-15:00,Subway,Q244457
https://restaurants.subway.com/#14910784,subway,Subway,,Lanham-Seabrook Prince Georges,MD,,US,+1 301-552-0144,https://restaurants.subway.com/united-states/md/lanham-seabrook/9900-greenbelt-rd,Mo-Fr 07:00-21:00; Sa 08:00-21:00; Su 09:00-19:00,Subway,Q244457
https://restaurants.subway.com/#14911436,subway,Subway Woodmore Towne Centre,,Lanham Prince Georges,MD,,US,+1 301-322-4066,https://restaurants.subway.com/united-states/md/lanham/9201-woodmore-centre-drive,Mo-Fr 09:00-21:00; Sa 10:00-21:00; Su 11:00-21:00,Subway,Q244457
8002179101,sunoco_us,Sunoco,,LANHAM,MD,,US,,,Mo-Su 06:00-00:00,Sunoco,Q1423218
0936236904,sunoco_us,Sunoco,,LANHAM,MD,,US,+1 240-487-6089,,24/7,Sunoco,Q1423218
0814270500,sunoco_us,Sunoco,,LANHAM,MD,,US,+1 301-459-6504,,,Sunoco,Q1423218
35034,sweetfrog_us,sweetFrog Store 35034,,Lanham,MD,,US,+1 301-772-3764,https://www.sweetfrog.com/stores/frozen-yogurt-lanham/35034,Mo-Su 13:00-21:00,sweetFrog,Q16952110
https://locations.tacobell.com/#6141660,taco_bell,Taco Bell,,Lanham,MD,,US,+1 301-577-4592,https://locations.tacobell.com/md/lanham/9409-annapolis-road.html,Mo-Su 07:00-03:00,Taco Bell,Q752941
081234,tjx,Lanham,9461 Annapolis Road,Lanham,MD,,US,+1 301-918-2680,,Mo-Sa 09:30-21:00; Su 10:00-20:00,TJ Maxx,Q10860683
9717,tmobile_us,Woodmore Towne Centre,,Lanham,MD,,US,+1 301-322-1573,https://www.t-mobile.com/store-locator/md/lanham/woodmore-towne-centre,,T-Mobile,Q3511885
"Advanced Surgical Care of Maryland, Lanham, Maryland",united_surgical_partners_international,Advanced Surgical Care of Maryland,4395 Nicole Drive ,Lanham,MD,,US,,na,,United Surgical Partners International,Q7893575
6293,upsstore,Woodmore Towne Centre,9103 Woodmore Centre Dr,Lanham,MD,,US,+1 301-583-1360,https://locations.theupsstore.com/md/lanham/9103-woodmore-centre-dr,,UPS Store,Q7771029
1369843,usps,LANHAM SEABROOK,,LANHAM,MD,,US,+1 301-429-9195,,Mo-Fr 09:00-17:00; Sa 09:00-14:00,United States Postal Service,Q668687
2070600088,usps_collection_boxes,USPS COLLECTION BOX - BLUE BOX,10210 GREENBELT RD,GLENARDEN,MD,,US,,,,United States Postal Service,Q668687
2070600100,usps_collection_boxes,USPS COLLECTION BOX - BLUE BOX,10000 AEROSPACE RD,GLENARDEN,MD,,US,,,,United States Postal Service,Q668687
2070600020,usps_collection_boxes,USPS COLLECTION BOX - BLUE BOX,10000 AEROSPACE RD,GLENARDEN,MD,,US,,,,United States Postal Service,Q668687
2070600016,usps_collection_boxes,USPS COLLECTION BOX - BLUE BOX,6813 WOODSTREAM DR,GLENARDEN,MD,,US,,,,United States Postal Service,Q668687
2070600024,usps_collection_boxes,USPS COLLECTION BOX - BLUE BOX,9801 GREENBELT RD,GLENARDEN,MD,,US,,,,United States Postal Service,Q668687
2070600014,usps_collection_boxes,USPS COLLECTION BOX - BLUE BOX,9915 GOOD LUCK RD,GLENARDEN,MD,,US,,,,United States Postal Service,Q668687
2070600114,usps_collection_boxes,USPS COLLECTION BOX - PO LOBBY,9801 LANHAM SEVERN RD,GLENARDEN,MD,,US,,,,United States Postal Service,Q668687
2070600105,usps_collection_boxes,USPS COLLECTION BOX - BLUE BOX,9801 LANHAM SEVERN RD,GLENARDEN,MD,,US,,,,United States Postal Service,Q668687
2070600111,usps_collection_boxes,USPS COLLECTION BOX - BLUE BOX,5100 FORBES BLVD,GLENARDEN,MD,,US,,,,United States Postal Service,Q668687
2070600087,usps_collection_boxes,USPS COLLECTION BOX - BLUE BOX,9733 GOOD LUCK RD,GLENARDEN,MD,,US,,,,United States Postal Service,Q668687
2070600041,usps_collection_boxes,USPS COLLECTION BOX - BLUE BOX,6800 TREXLER RD,GLENARDEN,MD,,US,,,,United States Postal Service,Q668687
2070600120,usps_collection_boxes,USPS COLLECTION BOX - BLUE BOX,6862 RIVERDALE RD,GLENARDEN,MD,,US,,,,United States Postal Service,Q668687
2070600025,usps_collection_boxes,USPS COLLECTION BOX - BLUE BOX,6942 HEIDELBURG RD,GLENARDEN,MD,,US,,,,United States Postal Service,Q668687
2070600083,usps_collection_boxes,USPS COLLECTION BOX - BLUE BOX,7216 GOOD LUCK RD,GLENARDEN,MD,,US,,,,United States Postal Service,Q668687
2070600125,usps_collection_boxes,USPS COLLECTION BOX - BLUE BOX,8118 GOOD LUCK RD,GLENARDEN,MD,,US,,,,United States Postal Service,Q668687
2070600101,usps_collection_boxes,USPS COLLECTION BOX - BLUE BOX,8720 BRAEBROOKE DR,GLENARDEN,MD,,US,,,,United States Postal Service,Q668687
2070600036,usps_collection_boxes,USPS COLLECTION BOX - BLUE BOX,8001 GREENFIELD DR,GLENARDEN,MD,,US,,,,United States Postal Service,Q668687
2070600078,usps_collection_boxes,USPS COLLECTION BOX - BLUE BOX,9501 PRESLEY RD,GLENARDEN,MD,,US,,,,United States Postal Service,Q668687
2070600003,usps_collection_boxes,USPS COLLECTION BOX - BLUE BOX,6805 94TH AVE,GLENARDEN,MD,,US,,,,United States Postal Service,Q668687
2070600045,usps_collection_boxes,USPS COLLECTION BOX - BLUE BOX,8910 1ST ST,GLENARDEN,MD,,US,,,,United States Postal Service,Q668687
2070600113,usps_collection_boxes,USPS COLLECTION BOX - BLUE BOX,2901 WHITE OAK LN,GLENARDEN,MD,,US,,,,United States Postal Service,Q668687
2070600015,usps_collection_boxes,USPS COLLECTION BOX - BLUE BOX,8600 GLENARDEN PKWY,GLENARDEN,MD,,US,,,,United States Postal Service,Q668687
2070600076,usps_collection_boxes,USPS COLLECTION BOX - BLUE BOX,3210 REED ST,GLENARDEN,MD,,US,,,,United States Postal Service,Q668687
2070600028,usps_collection_boxes,USPS COLLECTION BOX - BLUE BOX,7939 FISKE AVE,GLENARDEN,MD,,US,,,,United States Postal Service,Q668687
2070600046,usps_collection_boxes,USPS COLLECTION BOX - BLUE BOX,4707 WHITFIELD CHAPEL RD,GLENARDEN,MD,,US,,,,United States Postal Service,Q668687
2070600074,usps_collection_boxes,USPS COLLECTION BOX - BLUE BOX,9016 VARNUM ST,GLENARDEN,MD,,US,,,,United States Postal Service,Q668687
2070600106,usps_collection_boxes,USPS COLLECTION BOX - BLUE BOX,4501 FORBES BLVD,GLENARDEN,MD,,US,,,,United States Postal Service,Q668687
2070600055,usps_collection_boxes,USPS COLLECTION BOX - BLUE BOX,4501 FORBES BLVD,GLENARDEN,MD,,US,,,,United States Postal Service,Q668687
2070600099,usps_collection_boxes,USPS COLLECTION BOX - BLUE BOX,4550 FORBES BLVD,GLENARDEN,MD,,US,,,,United States Postal Service,Q668687
2070600082,usps_collection_boxes,USPS COLLECTION BOX - BLUE BOX,4550 FORBES BLVD,GLENARDEN,MD,,US,,,,United States Postal Service,Q668687
2070600053,usps_collection_boxes,USPS COLLECTION BOX - BLUE BOX,9700 MARTIN LUTHER KING JR HWY,GLENARDEN,MD,,US,,,,United States Postal Service,Q668687
2070600109,usps_collection_boxes,USPS COLLECTION BOX - BLUE BOX,9700 MARTIN LUTHER KING JR HWY,GLENARDEN,MD,,US,,,,United States Postal Service,Q668687
2070600103,usps_collection_boxes,USPS COLLECTION BOX - BLUE BOX,4748 FORBES BLVD,GLENARDEN,MD,,US,,,,United States Postal Service,Q668687
2070600102,usps_collection_boxes,USPS COLLECTION BOX - BLUE BOX,4748 FORBES BLVD,GLENARDEN,MD,,US,,,,United States Postal Service,Q668687
2070600059,usps_collection_boxes,USPS COLLECTION BOX - BLUE BOX,4748 FORBES BLVD,GLENARDEN,MD,,US,,,,United States Postal Service,Q668687
2070600043,usps_collection_boxes,USPS COLLECTION BOX - BLUE BOX,4300 KINMOUNT RD,GLENARDEN,MD,,US,,,,United States Postal Service,Q668687
2070600018,usps_collection_boxes,USPS COLLECTION BOX - BLUE BOX,9209 KIMBARK AVE,GLENARDEN,MD,,US,,,,United States Postal Service,Q668687
2070600007,usps_collection_boxes,USPS COLLECTION BOX - BLUE BOX,9500 ANNAPOLIS RD,GLENARDEN,MD,,US,,,,United States Postal Service,Q668687
2070600009,usps_collection_boxes,USPS COLLECTION BOX - BLUE BOX,9330 FONTANA DR,GLENARDEN,MD,,US,,,,United States Postal Service,Q668687
2070600073,usps_collection_boxes,USPS COLLECTION BOX - BLUE BOX,9101 FOWLER LN,GLENARDEN,MD,,US,,,,United States Postal Service,Q668687
2070600052,usps_collection_boxes,USPS COLLECTION BOX - BLUE BOX,9470 ANNAPOLIS RD,GLENARDEN,MD,,US,,,,United States Postal Service,Q668687
2070600049,usps_collection_boxes,USPS COLLECTION BOX - BLUE BOX,9441 ANNAPOLIS RD,GLENARDEN,MD,,US,,,,United States Postal Service,Q668687
2070600051,usps_collection_boxes,USPS COLLECTION BOX - BLUE BOX,9420 ANNAPOLIS RD,GLENARDEN,MD,,US,,,,United States Postal Service,Q668687
2070600011,usps_collection_boxes,USPS COLLECTION BOX - BLUE BOX,6924 100TH AVE,GLENARDEN,MD,,US,,,,United States Postal Service,Q668687
2070600057,usps_collection_boxes,USPS COLLECTION BOX - BLUE BOX,6005 96TH AVE,GLENARDEN,MD,,US,,,,United States Postal Service,Q668687
2070600005,usps_collection_boxes,USPS COLLECTION BOX - BLUE BOX,9201 SHERIDAN ST,GLENARDEN,MD,,US,,,,United States Postal Service,Q668687
2070600004,usps_collection_boxes,USPS COLLECTION BOX - BLUE BOX,6407 94TH AVE,GLENARDEN,MD,,US,,,,United States Postal Service,Q668687
2070600021,usps_collection_boxes,USPS COLLECTION BOX - BLUE BOX,8925 HILTON HILL DR,GLENARDEN,MD,,US,,,,United States Postal Service,Q668687
2070600068,usps_collection_boxes,USPS COLLECTION BOX - BLUE BOX,9420 LANHAM SEVERN RD,GLENARDEN,MD,,US,,,,United States Postal Service,Q668687
2070600002,usps_collection_boxes,USPS COLLECTION BOX - BLUE BOX,9504 FRANKLIN AVE,GLENARDEN,MD,,US,,,,United States Postal Service,Q668687
2070600124,usps_collection_boxes,USPS COLLECTION BOX - BLUE BOX,9320 ANNAPOLIS RD,GLENARDEN,MD,,US,,,,United States Postal Service,Q668687
2070600008,usps_collection_boxes,USPS COLLECTION BOX - BLUE BOX,9332 ANNAPOLIS RD,GLENARDEN,MD,,US,,,,United States Postal Service,Q668687
2070600022,usps_collection_boxes,USPS COLLECTION BOX - BLUE BOX,5900 PRINCESS GARDEN PKWY,GLENARDEN,MD,,US,,,,United States Postal Service,Q668687
2070600039,usps_collection_boxes,USPS COLLECTION BOX - BLUE BOX,8855 ANNAPOLIS RD,GLENARDEN,MD,,US,,,,United States Postal Service,Q668687
2070600023,usps_collection_boxes,USPS COLLECTION BOX - BLUE BOX,5610 WHITFIELD CHAPEL RD,GLENARDEN,MD,,US,,,,United States Postal Service,Q668687
2070600086,usps_collection_boxes,USPS COLLECTION BOX - BLUE BOX,5708 WESTGATE RD,GLENARDEN,MD,,US,,,,United States Postal Service,Q668687
2070600040,usps_collection_boxes,USPS COLLECTION BOX - BLUE BOX,7941 ANNAPOLIS RD,GLENARDEN,MD,,US,,,,United States Postal Service,Q668687
2070600075,usps_collection_boxes,USPS COLLECTION BOX - BLUE BOX,7718 FINNS LN,GLENARDEN,MD,,US,,,,United States Postal Service,Q668687
2070600058,usps_collection_boxes,USPS COLLECTION BOX - BLUE BOX,7301 LOIS LN,GLENARDEN,MD,,US,,,,United States Postal Service,Q668687
2070600110,usps_collection_boxes,USPS COLLECTION BOX - BLUE BOX,5000 ELLIN RD,GLENARDEN,MD,,US,,,,United States Postal Service,Q668687
2070600048,usps_collection_boxes,USPS COLLECTION BOX - BLUE BOX,7401 FINNS LN,GLENARDEN,MD,,US,,,,United States Postal Service,Q668687
,visa,,,LANHAM,MD,,US,,,,,
,visa,,,LANHAM,MD,,US,,,,,
,visa,,,LANHAM,MD,,US,,,,,
,visa,,,LANHAM,MD,,US,,,,,
,visa,,,LANHAM,MD,,US,,,,,
,visa,,,LANHAM,MD,,US,,,,,
,visa,,,LANHAM,MD,,US,,,,,
,visa,,,LANHAM,MD,,US,,,,,
,visa,,,LANHAM,MD,,US,,,,,
,visa,,,LANHAM,MD,,US,,,,,
,visa,,,GLENARDEN,MD,,US,,,,,
,visa,,,LANHAM,MD,,US,,,,,
,visa,,,LANHAM,MD,,US,,,,,
,visa,,,LANHAM,MD,,US,,,,,
,visa,,,LANHAM,MD,,US,,,,,
,visa,,,LANHAM,MD,,US,,,,,
,visa,,,LANHAM,MD,,US,,,,,
,visa,,,LANHAM,MD,,US,,,,,
,visa,,,LANHAM,MD,,US,,,,,
,visa,,,LANHAM,MD,,US,,,,,
,visa,,,LANHAM,MD,,US,,,,,
,visa,,,SEABROOK,MD,,US,,,,,
,visa,,,LANHAM,MD,,US,,,,,
,visa,,,GLENARDEN,MD,,US,,,,,
,visa,,,GLENARDEN,MD,,US,,,,,
,visa,,,LANHAM,MD,,US,,,,,
,visa,,,LANHAM,MD,,US,,,,,
,visa,,,LANHAM,MD,,US,,,,,
,visa,,,LANHAM,MD,,US,,,,,
,visa,,,LANHAM,MD,,US,,,,,
,visa,,,LANHAM,MD,,US,,,,,
,visa,,,LANHAM,MD,,US,,,,,
,visa,,,LANHAM,MD,,US,,,,,
,visa,,,SEABROOK,MD,,US,,,,,
,visa,,,LANHAM,MD,,US,,,,,
,visa,,,LANHAM,MD,,US,,,,,
,visa,,,LANHAM,MD,,US,,,,,
,visa,,,LANHAM,MD,,US,,,,,
,visa,,,LANHAM,MD,,US,,,,,
,visa,,,LANHAM,MD,,US,,,,,
,visa,,,LANHAM,MD,,US,,,,,
,visa,,,GLENARDEN,MD,,US,,,,,
,visa,,,GLEN ARDEN,MD,,US,,,,,
,visa,,,LANHAM,MD,,US,,,,,
,visa,,,LANHAM,MD,,US,,,,,
,visa,,,LAUREL,MD,,US,,,,,
,visa,,,LAUREL,MD,,US,,,,,
,visa,,,LANHAM,MD,,US,,,,,
,visa,,,LANHAM,MD,,US,,,,,
,visa,,,GLENARDEN,MD,,US,,,,,
,visa,,,LANHAM,MD,,US,,,,,
,visa,,,LANHAM,MD,,US,,,,,
,visa,,,LANHAM,MD,,US,,,,,
,visa,,,LANHAM,MD,,US,,,,,
,visa,,,GLENARDEN,MD,,US,,,,,
,visa,,,LANHAM,MD,,US,,,,,
,visa,,,LANHAM,MD,,US,,,,,
,visa,,,LANHAM,MD,,US,,,,,
,visa,,,LANHAM,MD,,US,,,,,
,visa,,,LANHAM,MD,,US,,,,,
,visa,,,GREEN BELT,MD,,US,,,,,
,visa,,,NEW CARROLLTON,MD,,US,,,,,
,visa,,,LANHAM,MD,,US,,,,,
,visa,,,LANHAM,MD,,US,,,,,
,visa,,,LANHAM,MD,,US,,,,,
,visa,,,LANHAM,MD,,US,,,,,
,visa,,,LANHAM,MD,,US,,,,,
,visa,,,LANHAM,MD,,US,,,,,
,visa,,,LANHAM,MD,,US,,,,,
,visa,,,LANHAM,MD,,US,,,,,
,visa,,,LAPLATA,MD,,US,,,,,
,visa,,,MT RAINER,MD,,US,,,,,
525,visionworks,Visionworks Woodmore Towne Centre,,Lanham,MD,,US,+1 301-322-1037,https://locations.visionworks.com/ll/US/MD/Lanham/2830-Campus-Way-N,Mo-Sa 09:00-19:00,Visionworks,Q5422607
https://locations.wendys.com/#9253479,wendys,"Wendy's Lanham in Lanham, MD",,Lanham,MD,,US,+1 301-731-5681,https://locations.wendys.com/united-states/md/lanham/9401-annapolis-road,"Mo-Su 06:30-10:30,07:00-22:00",Wendy's,Q550258
d53ebf0057e7952f3a03fd78cd28079d,western_union,MLK CONVENIENCE STORE,,Glenarden,MD,,US,+1 202-517-4191,https://location.westernunion.com/us/md/glenarden/d53ebf0057e7952f3a03fd78cd28079d,Mo-Su 07:30-20:30,Western Union,Q861042
cc9da3278bcb290a9fe9e14e0aa0f8e7,western_union,7-ELEVEN #11655,,Glenarden,MD,,US,+1 301-322-1648,https://location.westernunion.com/us/md/glenarden/cc9da3278bcb290a9fe9e14e0aa0f8e7,,Western Union,Q861042
9784ff20bd2716f74aba1fc206a27710,western_union,EVERPAYER XVII,,Lanham,MD,,US,+1 240-770-4497,https://location.westernunion.com/us/md/lanham/9784ff20bd2716f74aba1fc206a27710,Mo-Su 08:00-21:00,Western Union,Q861042
4ecc0aceb5762ece8f233eb20016ad06,western_union,ZORAIDA DOMINICAN SALON LLC,,Lanham,MD,,US,+1 240-667-2368,https://location.westernunion.com/us/md/lanham/4ecc0aceb5762ece8f233eb20016ad06,Mo-Fr 10:00-19:00; Sa 08:00-17:00; Su 09:00-15:00,Western Union,Q861042
bf0338c0b411b7f1e9fba3efe3a822e7,western_union,7-ELEVEN #29765,,Lanham,MD,,US,+1 301-552-3151,https://location.westernunion.com/us/md/lanham/bf0338c0b411b7f1e9fba3efe3a822e7,,Western Union,Q861042
