Ref,Spider,Name,Address,City,State,Zipcode,Country,Phone,Website,Hours,Brand,WikiData
,visa,,,SALAMANCA,GUANAJUATO,,MX,,,,,
,visa,,,SALAMANCA,GUANAJUATO,,MX,,,,,
,visa,,,SALAMANCA,GUANAJUATO,,MX,,,,,
,visa,,,SALAMANCA,GUANAJUATO,,MX,,,,,
,visa,,,SALAMANCA,GUANAJUATO,,MX,,,,,
,visa,,,SALAMANCA,GUANAJUATO,,MX,,,,,
,visa,,,SALAMANCA,GUANAJUATO,,MX,,,,,
,visa,,,SALAMANCA,GUANAJUATO,,MX,,,,,
,visa,,,SALAMANCA,GUANAJUATO,,MX,,,,,
,visa,,,SALAMANCA,GUANAJUATO,,MX,,,,,
,visa,,,SALAMANCA,GUANAJUATO,,MX,,,,,
,visa,,,SALAMANCA,GUANAJUATO,,MX,,,,,
,visa,,,SALAMANCA,GUANAJUATO,,MX,,,,,
,visa,,,SALAMANCA,GUANAJUATO,,MX,,,,,
,visa,,,SALAMANCA,GUANAJUATO,,MX,,,,,
,visa,,,SALAMANCA,GUANAJUATO,,MX,,,,,
,visa,,,SALAMANCA,GUANAJUATO,,MX,,,,,
2b28b4b8ebeb9bfbf84b8f336f21268f,western_union,OXXO EBANOS BJX,,Salamanca,GUANAJUATO,,MX,+52 81 8389 2121,https://location.westernunion.com/mx/guanajuato/salamanca/2b28b4b8ebeb9bfbf84b8f336f21268f,Mo-Su 08:00-22:00,Western Union,Q861042
23afd7dedc49d18a47ef9a9bd8533484,western_union,OXXO EBANOS BJX,,Salamanca,GUANAJUATO,,MX,+52 81 8389 2121,https://location.westernunion.com/mx/guanajuato/salamanca/23afd7dedc49d18a47ef9a9bd8533484,Mo-Su 08:00-22:00,Western Union,Q861042
af1d2026f8253edb538e39290df90d4e,western_union,OXXO EBANOS BJX,,Salamanca,GUANAJUATO,,MX,+52 81 8389 2121,https://location.westernunion.com/mx/guanajuato/salamanca/af1d2026f8253edb538e39290df90d4e,Mo-Su 08:00-22:00,Western Union,Q861042
edac9322c8c4ab9cb232892cf9942af4,western_union,BANORTE 04110 SALAMANCA,,Salamanca,GUANAJUATO,,MX,+52 800 833 4700,https://location.westernunion.com/mx/guanajuato/salamanca/edac9322c8c4ab9cb232892cf9942af4,Mo-Fr 09:00-17:00,Western Union,Q861042
909e7fef81ceec7099eb5b463c0396f6,western_union,BANORTE 04110 SALAMANCA,,Salamanca,GUANAJUATO,,MX,+52 800 833 4700,https://location.westernunion.com/mx/guanajuato/salamanca/909e7fef81ceec7099eb5b463c0396f6,Mo-Fr 09:00-17:00,Western Union,Q861042
5115caea38894690aa30782e4f54c4d3,western_union,OXXO ARBOL GRANDE BJX,,Salamanca,GUANAJUATO,,MX,+52 81 8389 2121,https://location.westernunion.com/mx/guanajuato/salamanca/5115caea38894690aa30782e4f54c4d3,Mo-Su 08:00-22:00,Western Union,Q861042
400090e88f9459aee2c4036bf4acc818,western_union,OXXO ARBOL GRANDE BJX,,Salamanca,GUANAJUATO,,MX,+52 81 8389 2121,https://location.westernunion.com/mx/guanajuato/salamanca/400090e88f9459aee2c4036bf4acc818,Mo-Su 08:00-22:00,Western Union,Q861042
b387b3a477d3995f931dc5fec3c17839,western_union,OXXO ARBOL GRANDE BJX,,Salamanca,GUANAJUATO,,MX,+52 81 8389 2121,https://location.westernunion.com/mx/guanajuato/salamanca/b387b3a477d3995f931dc5fec3c17839,Mo-Su 08:00-22:00,Western Union,Q861042
a034dfb0b98de9bde2e6059454cb2830,western_union,FARM GUAD ARBOL GRANDE,,Salamanca,GUANAJUATO,,MX,+52 800 833 4700,https://location.westernunion.com/mx/guanajuato/salamanca/a034dfb0b98de9bde2e6059454cb2830,Mo-Su 09:00-22:00,Western Union,Q861042
770e59f3e7dbd5e18cdd8663a087e4b5,western_union,FARM GUAD ARBOL GRANDE,,Salamanca,GUANAJUATO,,MX,+52 800 833 4700,https://location.westernunion.com/mx/guanajuato/salamanca/770e59f3e7dbd5e18cdd8663a087e4b5,Mo-Su 09:00-22:00,Western Union,Q861042
62f293371e36cc20f58b5c2a81066421,western_union,FARM GUAD ARBOL GRANDE,,Salamanca,GUANAJUATO,,MX,+52 800 833 4700,https://location.westernunion.com/mx/guanajuato/salamanca/62f293371e36cc20f58b5c2a81066421,Mo-Su 09:00-22:00,Western Union,Q861042
172608953547f56819fc1d1fb2eb02b6,western_union,OXXO BELLAVISTA BJX,,Salamanca,GUANAJUATO,,MX,+52 81 8389 2121,https://location.westernunion.com/mx/guanajuato/salamanca/172608953547f56819fc1d1fb2eb02b6,Mo-Su 08:00-22:00,Western Union,Q861042
666cf536bcddf441a3a049fe9f4b21f3,western_union,OXXO BELLAVISTA BJX,,Salamanca,GUANAJUATO,,MX,+52 81 8389 2121,https://location.westernunion.com/mx/guanajuato/salamanca/666cf536bcddf441a3a049fe9f4b21f3,Mo-Su 08:00-22:00,Western Union,Q861042
80cae6cf82807238d2cabfa466a6cc8c,western_union,OXXO BELLAVISTA BJX,,Salamanca,GUANAJUATO,,MX,+52 81 8389 2121,https://location.westernunion.com/mx/guanajuato/salamanca/80cae6cf82807238d2cabfa466a6cc8c,Mo-Su 08:00-22:00,Western Union,Q861042
df394afdc308d97327b87900dcb42af0,western_union,ISSEG SALAMANCA TENIXTEPEC 128,,Salamanca,GUANAJUATO,,MX,+52 800 224 7734,https://location.westernunion.com/mx/guanajuato/salamanca/df394afdc308d97327b87900dcb42af0,Mo-Su 07:00-21:00,Western Union,Q861042
3f88993efc47442685491b855307d72f,western_union,ISSEG SALAMANCA TENIXTEPEC 128,,Salamanca,GUANAJUATO,,MX,+52 800 224 7734,https://location.westernunion.com/mx/guanajuato/salamanca/3f88993efc47442685491b855307d72f,Mo-Su 07:00-21:00,Western Union,Q861042
34d08a3c6f89a73698bfceded3290bf2,western_union,ISSEG SALAMANCA TENIXTEPEC 128,,Salamanca,GUANAJUATO,,MX,+52 800 224 7734,https://location.westernunion.com/mx/guanajuato/salamanca/34d08a3c6f89a73698bfceded3290bf2,Mo-Su 07:00-21:00,Western Union,Q861042
a2504ecc899d08f98ecfdf2411c49e6f,western_union,OXXO PEMEX BJX,,Salamanca,GUANAJUATO,,MX,+52 81 8389 2121,https://location.westernunion.com/mx/guanajuato/salamanca/a2504ecc899d08f98ecfdf2411c49e6f,Mo-Su 08:00-22:00,Western Union,Q861042
cee60868cd96d78df40de021a1b3c37c,western_union,OXXO PEMEX BJX,,Salamanca,GUANAJUATO,,MX,+52 81 8389 2121,https://location.westernunion.com/mx/guanajuato/salamanca/cee60868cd96d78df40de021a1b3c37c,Mo-Su 08:00-22:00,Western Union,Q861042
4b98f20741cb8193658c27771548faec,western_union,OXXO PEMEX BJX,,Salamanca,GUANAJUATO,,MX,+52 81 8389 2121,https://location.westernunion.com/mx/guanajuato/salamanca/4b98f20741cb8193658c27771548faec,Mo-Su 08:00-22:00,Western Union,Q861042
21cb14f04f418758ac50aaed39f37956,western_union,OXXO SALMANTINA BJX,,Salamanca,GUANAJUATO,,MX,+52 81 8389 2121,https://location.westernunion.com/mx/guanajuato/salamanca/21cb14f04f418758ac50aaed39f37956,Mo-Su 08:00-22:00,Western Union,Q861042
fe44d37a8bb79175a3d9ade262bb6c58,western_union,OXXO SALMANTINA BJX,,Salamanca,GUANAJUATO,,MX,+52 81 8389 2121,https://location.westernunion.com/mx/guanajuato/salamanca/fe44d37a8bb79175a3d9ade262bb6c58,Mo-Su 08:00-22:00,Western Union,Q861042
fcab5c4048caa6af27a8424c24dcad17,western_union,ISSEG SALAMANCA DEL MONTE 197,,Salamanca,GUANAJUATO,,MX,+52 800 224 7734,https://location.westernunion.com/mx/guanajuato/salamanca/fcab5c4048caa6af27a8424c24dcad17,Mo-Su 07:00-21:00,Western Union,Q861042
163a837690f82d1671af40de55480a84,western_union,ISSEG SALAMANCA DEL MONTE 197,,Salamanca,GUANAJUATO,,MX,+52 800 224 7734,https://location.westernunion.com/mx/guanajuato/salamanca/163a837690f82d1671af40de55480a84,Mo-Su 07:00-21:00,Western Union,Q861042
a4fdd66ba7a31ee0a72259dbb4717d47,western_union,ISSEG SALAMANCA DEL MONTE 197,,Salamanca,GUANAJUATO,,MX,+52 800 224 7734,https://location.westernunion.com/mx/guanajuato/salamanca/a4fdd66ba7a31ee0a72259dbb4717d47,Mo-Su 07:00-21:00,Western Union,Q861042
5b1fd56c1455bfa3d927677ce92dba66,western_union,OXXO SAN VICENTE BJX,,Salamanca,GUANAJUATO,,MX,+52 81 8389 2121,https://location.westernunion.com/mx/guanajuato/salamanca/5b1fd56c1455bfa3d927677ce92dba66,Mo-Su 08:00-22:00,Western Union,Q861042
01534c7aee9a01566fddd832ac4b2817,western_union,OXXO SAN VICENTE BJX,,Salamanca,GUANAJUATO,,MX,+52 81 8389 2121,https://location.westernunion.com/mx/guanajuato/salamanca/01534c7aee9a01566fddd832ac4b2817,Mo-Su 08:00-22:00,Western Union,Q861042
d73bc071c16adcf69975516f8aaa0bc3,western_union,OXXO CRESPO BJX,,Salamanca,GUANAJUATO,,MX,+52 81 8389 2121,https://location.westernunion.com/mx/guanajuato/salamanca/d73bc071c16adcf69975516f8aaa0bc3,Mo-Su 08:00-22:00,Western Union,Q861042
ed2e276bb5cce8ee6076cb1e05aee897,western_union,OXXO CRESPO BJX,,Salamanca,GUANAJUATO,,MX,+52 81 8389 2121,https://location.westernunion.com/mx/guanajuato/salamanca/ed2e276bb5cce8ee6076cb1e05aee897,Mo-Su 08:00-22:00,Western Union,Q861042
