Ref,Spider,Name,Address,City,State,Zipcode,Country,Phone,Website,Hours,Brand,WikiData
https://stores.advanceautoparts.com/tn/knoxville/3514-western-ave,advance_auto_parts_us,Advance Auto Parts,,Knoxville,TN,,US,+1 865-524-5337,https://stores.advanceautoparts.com/tn/knoxville/3514-western-ave,Mo-Sa 07:30-21:00; Su 08:00-20:00,Advance Auto Parts,Q4686051
https://stores.aldi.us/#4420505,aldi_sud_us,ALDI  2801 Schaad Rd,,Knoxville,TN,,US,+1 833-470-7010,https://stores.aldi.us/tn/knoxville/2801-schaad-rd,Mo-Su 09:00-20:00,ALDI,Q41171672
/locations/propane-offices/tennessee/knoxville/3526-middlebrook-pike,amerigas,"AmerGas Propane | Knoxville, Tennessee",,Knoxville,TN,,US,+1 865-546-7282,/locations/propane-offices/tennessee/knoxville/3526-middlebrook-pike,,AmeriGas,Q23130318
https://locations.arbys.com/tn/knoxville/2750-schaad-rd.html,arbys_us,"Arby's Fast-Food Drive Through Near You in Knoxville, TN",,Knoxville,TN,,US,+1 865-947-2906,https://locations.arbys.com/tn/knoxville/2750-schaad-rd.html,Mo-Su 09:30-24:00,Arby's,Q630866
308,autozone_us,AutoZone Auto Parts Knoxville,,Knoxville,TN,,US,+1 865-558-0143,https://www.autozone.com/locations/tn/knoxville/5715-western-ave.html,Mo-Sa 07:30-21:00; Su 09:00-20:00,AutoZone,Q4826087
162275,bluerhino,Weigels #1045,,Knoxville,TN,,US,+1 865-539-9788,,,Blue Rhino,Q65681213
214667,bluerhino,Casey's General Store #4209,,Knoxville,TN,,US,+1 865-328-0978,,,Blue Rhino,Q65681213
214673,bluerhino,Casey's General Store #4215,,Knoxville,TN,,US,+1 865-328-0917,,,Blue Rhino,Q65681213
162256,bluerhino,Weigels #1012,,Knoxville,TN,,US,+1 865-588-9197,,,Blue Rhino,Q65681213
214663,bluerhino,Casey's General Store #4205,,Knoxville,TN,,US,+1 865-584-0998,,,Blue Rhino,Q65681213
162273,bluerhino,Weigels #1043,,Knoxville,TN,,US,+1 865-558-9401,,,Blue Rhino,Q65681213
154521,bluerhino,Walgreens #07374,,Knoxville,TN,,US,+1 865-971-4234,,,Blue Rhino,Q65681213
165391,bluerhino,Weigels #1088,,Knoxville,TN,,US,+1 865-621-9700,,,Blue Rhino,Q65681213
162262,bluerhino,Weigels #1022,,Knoxville,TN,,US,+1 865-524-9198,,,Blue Rhino,Q65681213
173226,bluerhino,Family Dollar #11150,,Knoxville,TN,,US,+1 865-320-0679,,,Blue Rhino,Q65681213
214647,bluerhino,Casey's General Store #4038,,Knoxville,TN,,US,+1 865-521-8336,,,Blue Rhino,Q65681213
221413,bluerhino,Dollar General #1050,,KNOXVILLE,TN,,US,+1 865-321-1666,,,Blue Rhino,Q65681213
tn/knoxville/3801-western-avenue,bojangles,"Bojangles Knoxville, TN",,Knoxville,TN,,US,+1 865-522-6741,https://locations.bojangles.com/tn/knoxville/3801-western-avenue.html,,Bojangles',Q891163
27359651655013792100100000000000,bp,BP,,Knoxville,TN,,US,+1 865-584-0578,,Mo-Su 06:00-23:00,BP,Q152057
C576,carpet_one_floor_and_home_us,Frazier's Carpet One Floor & Home,,Knoxville,TN,,US,+1 865-546-4850,https://www.frazierscarpetoneknoxville.com/,,Carpet One Floor & Home,Q121335910
38979,citi,ATM Casey's,,Knoxville,TN,,US,,,,Citibank,Q857063
57208,citi,ATM Food City,,Knoxville,TN,,US,,,,Citibank,Q857063
94860,citi,ATM Weigel's #12-2,,Knoxville,TN,,US,,,,Citibank,Q857063
94859,citi,ATM Weigel's #12-1,,Knoxville,TN,,US,,,,Citibank,Q857063
38977,citi,ATM Casey's,,Knoxville,TN,,US,,,,Citibank,Q857063
94890,citi,ATM Weigel's #43-1,,Knoxville,TN,,US,,,,Citibank,Q857063
94891,citi,ATM Weigel's #43-2,,Knoxville,TN,,US,,,,Citibank,Q857063
91151,citi,ATM Walgreens,,Knoxville,TN,,US,,,,Citibank,Q857063
94999,citi,ATM Weigels #88-1,,Knoxville,TN,,US,,,,Citibank,Q857063
38991,citi,ATM Casey's 2,,Knoxville,TN,,US,,,,Citibank,Q857063
38955,citi,ATM Casey's,,Knoxville,TN,,US,,,,Citibank,Q857063
om_tn_knoxville_4442-western-ave-,cititrends,Citi Trends,,Knoxville,TN,,US,+1 865-314-8688,https://locations.cititrends.com/tn/knoxville/4442-western-ave-.html,Mo 10:00-20:00; Tu 10:00-20:00; We 10:00-20:00; Th 10:00-20:00; Fr 10:00-20:00; Sa 10:00-20:00; Su 12:00-18:00,Citi Trends,Q5122438
,credit_union_us,City Employees Credit Union,,Knoxville,TN,,US,+1 865-824-7200,,Mo 08:00-03:30; Tu 09:00-03:30; We-Fr 08:00-03:30,,
,credit_union_us,City Employees Credit Union,,Knoxville,TN,,US,+1 865-824-7210,,Mo 08:00-03:30; Tu 09:00-03:30; We-Fr 08:00-03:30,,
80193296,cricket_wireless,Cricket Wireless Authorized Retailer,,Knoxville,TN,,US,+1 865-540-4401,https://www.cricketwireless.com/stores/ll/US/TN/Knoxville/3927-Western-Ave,Mo-Sa 10:00-19:00; Su 12:00-18:00,Cricket Wireless,Q5184987
16042,dollar_general,Dollar General,,Knoxville,TN,,US,+1 865-770-5367,https://www.dollargeneral.com/store-directory/tn/knoxville/16042,Mo-Su 08:00-21:00,Dollar General,Q145168
355282,dunkin_us,Dunkin',,Knoxville,TN,,US,+1 865-444-3917,https://locations.dunkindonuts.com/en/tn/knoxville/4466-western-ave/355282,Mo-Sa 05:00-21:30; Su 06:00-21:00,Dunkin',Q847743
1000001418,extra_space_storage,Knoxville Self Storage at 2072 Western Ave,,Knoxville,TN,,US,+1 865-770-4581,https://www.extraspace.com/storage/facilities/us/tennessee/knoxville/1000001418/,Mo-Su 06:00-22:00,Extra Space Storage,Q5422162
31150,family_dollar_us,FAMILY DOLLAR #11150,,Knoxville,TN,,US,+1 865-824-2576,https://www.familydollar.com/locations/tn/knoxville/31150/,Mo-Sa 09:00-22:00; Su 09:00-21:00,Family Dollar,Q5433101
https://local.fedex.com/#25201890,fedex,,,Knoxville,TN,,US,+1 800-463-3339,https://local.fedex.com/en-us/tn/knoxville/anind,,FedEx,Q459477
2752,first_cash,Cash America Pawn,,Knoxville,TN,,US,+1 865-522-7023,,,Cash America,Q5048636
Motorcraft1983USAEnglish,ford,Ken Smith Auto Parts II,,Tennessee,TN,,US,,,,Ford,Q44294
9000,fresenius_kidney_care_us,Fresenius Kidney Care Knoxville Home Dialysis Therapies,,Knoxville,TN,,US,+1 800-881-5101,https://www.freseniuskidneycare.com/dialysis-centers/tennessee/9000,Mo-Fr 08:00-16:30,,
1597,fresenius_kidney_care_us,Fresenius Kidney Care Fort Sanders,,Knoxville,TN,,US,+1 800-881-5101,https://www.freseniuskidneycare.com/dialysis-centers/tennessee/1597,Mo 05:00-21:00; Tu 05:00-17:00; We 05:00-21:00; Th 05:00-17:00; Fr 05:00-21:00; Sa 05:00-17:00,,
https://salons.greatclips.com/us/tn/knoxville/4421-western-ave,greatclips,Great Clips,,Knoxville,TN,,US,+1 865-521-6463,https://salons.greatclips.com/us/tn/knoxville/4421-western-ave,Mo-Fr 09:00-19:00; Sa 09:00-18:00; Su 10:00-17:00,Great Clips,Q5598967
4640,gulf_pr_us,IAN'S 40 WESTERN AVENUE,,Knoxville,TN,,US,+1 865-525-7237,https://www.gulfoil.com/ians-40-western-avenue,,Gulf Oil,Q5617505
1501837,hardees_us,Hardee's,,Knoxville,TN,,US,+1 865-546-4756,https://locations.hardees.com/tn/knoxville/3718-western-ave,,Hardee's,Q1585088
39794,h_r_block,H&R Block,,Knoxville,TN,,US,+1 865-546-7236,https://www.hrblock.com/local-tax-offices/tennessee/knoxville/640-plaza/39794/,,H&R Block,Q5627799
https://locations.ironmountain.com/tn/knoxville/1333/,iron_mountain,"Iron Mountain in 1706 Louisville Drive, Knoxville, Tennessee | Secure Shredding, Scanning, IT Asset Disposition, & Records Management",,Knoxville,TN,,US,+1 800-899-4766,https://locations.ironmountain.com/tn/knoxville/1333/,,Iron Mountain Incorporated,Q1673079
https://locations.kfc.com/#11247063,kfc,Chicken Nuggets Near Knoxville,,Knoxville,TN,,US,,https://locations.kfc.com/tn/knoxville/4415-western-avenue/chickennugget,Mo-We 10:00-24:00; Th 10:00-23:00; Fr-Su 10:00-24:00,KFC,Q524757
2758-schaad-road,mcalisters_deli,McAlister's Deli Schaad Road ,,Knoxville,TN,,US,+1 865-938-4300,https://locations.mcalistersdeli.com/tn/knoxville/2758-schaad-road,Mo-Su 10:30-21:00,McAlister's Deli,Q17020829
https://locations.oreillyauto.com/tn/knoxville/check-engine-light-testing-1016.html,oreilly,Your Knoxville O'Reilly Auto Parts Store,,Knoxville,TN,,US,+1 865-523-4189,https://locations.oreillyauto.com/tn/knoxville/check-engine-light-testing-1016.html,Mo-Sa 07:30-21:00; Su 09:00-20:00,O'Reilly Auto Parts,Q7071951
https://locations.oreillyauto.com/tn/knoxville/wiper-installation-1016.html,oreilly,Your Knoxville O'Reilly Auto Parts Store,,Knoxville,TN,,US,+1 865-523-4189,https://locations.oreillyauto.com/tn/knoxville/wiper-installation-1016.html,Mo-Sa 07:30-21:00; Su 09:00-20:00,O'Reilly Auto Parts,Q7071951
https://locations.oreillyauto.com/tn/knoxville/battery-testing-1016.html,oreilly,Your Knoxville O'Reilly Auto Parts Store,,Knoxville,TN,,US,+1 865-523-4189,https://locations.oreillyauto.com/tn/knoxville/battery-testing-1016.html,Mo-Sa 07:30-21:00; Su 09:00-20:00,O'Reilly Auto Parts,Q7071951
https://locations.oreillyauto.com/tn/knoxville/autopartes-1016.html,oreilly,Tu tienda O'Reilly Auto Parts en Knoxville,,Knoxville,TN,,US,+1 865-523-4189,https://locations.oreillyauto.com/tn/knoxville/autopartes-1016.html,Mo-Sa 07:30-21:00; Su 09:00-20:00,O'Reilly Auto Parts,Q7071951
041059,penske,Home Depot #0728,,KNOXVILLE,TN,,US,+1 865-947-5470,https://www.pensketruckrental.com/locations/us/tennessee/knoxville/041059/,,Penske,Q81234570
tn_knoxville_5701-western-ave,pizza_hut_us,5701 Western Ave,,Knoxville,TN,,US,+1 865-558-6200,https://locations.pizzahut.com/tn/knoxville/5701-western-ave,,Pizza Hut,Q191615
ppg-paints-9294-21825,ppgpaints,PPG Paints 9294,,"Knoxville, ",TN,,US,+1 865-525-2222,https://www.ppgpaints.com/store-locator/us/tennessee/knoxville-paint-stores/ppg-paints-9294-21825,,PPG Paints,Q83891559
home-depot-0728-9151,ppgpaints,HOME DEPOT 0728,,"Knoxville, ",TN,,US,+1 865-938-3574,https://www.ppgpaints.com/store-locator/us/tennessee/knoxville-paint-stores/home-depot-0728-9151,,PPG Paints,Q83891559
https://restaurants.subway.com/#14910921,subway,Subway Exxon/C-Store,,Knoxville Knox,TN,,US,+1 865-584-2218,https://restaurants.subway.com/united-states/tn/knoxville/5501-middlebrook-pike,Mo-Fr 07:00-21:00; Sa 08:00-17:00,Subway,Q244457
https://restaurants.subway.com/#14911743,subway,Subway,,Knoxville Knox,TN,,US,+1 865-938-7907,https://restaurants.subway.com/united-states/tn/knoxville/2734-schaad-rd,Mo-Sa 09:00-23:00; Su 09:00-22:00,Subway,Q244457
https://restaurants.subway.com/#14910955,subway,Subway,,Knoxville Knox,TN,,US,+1 865-637-7633,https://restaurants.subway.com/united-states/tn/knoxville/4436-western-avenue,Mo-Sa 08:30-23:00; Su 09:00-23:00,Subway,Q244457
https://locations.tacobell.com/#6143504,taco_bell,Taco Bell,,Knoxville,TN,,US,+1 865-637-7231,https://locations.tacobell.com/tn/knoxville/4413-western-ave.html,Mo-Th 07:00-02:00; Fr-Sa 07:00-03:00; Su 07:00-02:00,Taco Bell,Q752941
10856,tjx,Knoxville,2745 Schaad Rd,Knoxville,TN,,US,+1 865-947-9099,,Mo-Sa 09:30-21:30; Su 10:00-20:00,Marshalls,Q15903261
100031,two_men_and_truck,Knoxville,6136 Western Avenue,Knoxville,TN,,US,+1 865-330-0003,https://twomenandatruck.com/movers/tn/knoxville,,Two Men and a Truck,Q7859087
1437558,usps,NORTHWEST ANNEX,,KNOXVILLE,TN,,US,+1 865-558-5760,,,United States Postal Service,Q668687
3792100042,usps_collection_boxes,USPS COLLECTION BOX - BLUE BOX,1700 MIDPARK RD,KNOXVILLE,TN,,US,,,,United States Postal Service,Q668687
3792100001,usps_collection_boxes,USPS COLLECTION BOX - BLUE BOX,5705 WESTERN AVE,KNOXVILLE,TN,,US,,,,United States Postal Service,Q668687
3792100004,usps_collection_boxes,USPS COLLECTION BOX - BLUE BOX,4436 WESTERN AVE,KNOXVILLE,TN,,US,,,,United States Postal Service,Q668687
3792100018,usps_collection_boxes,USPS COLLECTION BOX - BLUE BOX,2700 MIDDLEBROOK PIKE,KNOXVILLE,TN,,US,,,,United States Postal Service,Q668687
3792100013,usps_collection_boxes,USPS COLLECTION BOX - BLUE BOX,3601 PLEASANT RIDGE RD,KNOXVILLE,TN,,US,,,,United States Postal Service,Q668687
3792100031,usps_collection_boxes,USPS COLLECTION BOX - BLUE BOX,500 ARTHUR ST,KNOXVILLE,TN,,US,,,,United States Postal Service,Q668687
3792100023,usps_collection_boxes,USPS COLLECTION BOX - BLUE BOX,1014 HEISKELL AVE,KNOXVILLE,TN,,US,,,,United States Postal Service,Q668687
10835,vestis_uniform_services_us,Vestis Knoxville,,Knoxville,TN,,US,+1 865-312-7413,https://www.vestis.com/our-locations/vestis-knoxville,,Vestis,Q122947676
,visa,,,KNOXVILLE,TN,,US,,,,,
,visa,,,KNOXVILLE,TN,,US,,,,,
,visa,,,KNOXVILLE,TN,,US,,,,,
,visa,,,KNOXVILLE,TN,,US,,,,,
,visa,,,KNOXVILLE,TN,,US,,,,,
,visa,,,KNOXVILLE,TN,,US,,,,,
,visa,,,KNOXVILLE,TN,,US,,,,,
,visa,,,KNOXVILLE,TN,,US,,,,,
,visa,,,KNOXVILLE,TN,,US,,,,,
,visa,,,KNOXVILLE,TN,,US,,,,,
,visa,,,KNOXVILLE,TN,,US,,,,,
,visa,,,KNOXVILLE,TN,,US,,,,,
,visa,,,KNOXVILLE,TN,,US,,,,,
,visa,,,KNOXVILLE,TN,,US,,,,,
,visa,,,KNOXVILLE,TN,,US,,,,,
,visa,,,KNOXVILLE,TN,,US,,,,,
,visa,,,KNOXVILLE,TN,,US,,,,,
,visa,,,KNOXVILLE,TN,,US,,,,,
,visa,,,KNOXVILLE,TN,,US,,,,,
,visa,,,KNOXVILLE,TN,,US,,,,,
,visa,,,KNOXVILLE,TN,,US,,,,,
,visa,,,KNOXVILLE,TN,,US,,,,,
,visa,,,KNOXVILLE,TN,,US,,,,,
,visa,,,KNOXVILLE,TN,,US,,,,,
,visa,,,KNOXVILLE,TN,,US,,,,,
,visa,,,KNOXVILLE,TN,,US,,,,,
,visa,,,KNOXVILLE,TN,,US,,,,,
,visa,,,KNOXVILLE,TN,,US,,,,,
,visa,,,KNOXVILLE,TN,,US,,,,,
,visa,,,KNOXVILLE,TN,,US,,,,,
,visa,,,KNOXVILLE,TN,,US,,,,,
,visa,,,KNOXVILLE,TN,,US,,,,,
https://www.walgreens.com/locator/walgreens-4423+western+ave-knoxville-tn-37921/id=7374,walgreens,Walgreens,,Knoxville,TN,,US,+1 865-971-4234,https://www.walgreens.com/locator/walgreens-4423+western+ave-knoxville-tn-37921/id=7374,Mo-Su 08:00-20:00,Walgreens,Q1591889
https://locations.wendys.com/#9253373,wendys,"Wendy's Western Ave in Knoxville, TN",,Knoxville,TN,,US,+1 865-999-4639,https://locations.wendys.com/united-states/tn/knoxville/4407-western-avenue,"Mo-Su 06:30-10:30,06:30-22:00",Wendy's,Q550258
728a6a3b42ddaeb70de0baaccfcd509b,western_union,WALMART #003959,,Knoxville,TN,,US,+1 865-340-4509,https://location.westernunion.com/us/tn/knoxville/728a6a3b42ddaeb70de0baaccfcd509b,Mo-Su 07:00-21:00,Western Union,Q861042
a2137a9cad1a662d487cbebface77e4c,western_union,ADVANCE AMERICA #00385,,Knoxville,TN,,US,+1 865-544-4139,https://location.westernunion.com/us/tn/knoxville/a2137a9cad1a662d487cbebface77e4c,Mo-Fr 10:00-18:00; Sa 10:00-14:00,Western Union,Q861042
