Ref,Spider,Name,Address,City,State,Zipcode,Country,Phone,Website,Hours,Brand,WikiData
gdps_vst-0651170,activ_fitness_ch,Activ Fitness,,Morges,,,CH,+41 21 801 20 07,https://www.activfitness.ch/studios/activ-fitness-morges/,,Activ Fitness,Q123747318
DOM-41,aldi_sud_ch,ALDI,"Rue de Lausanne 47, Morges, 1110",Morges,,,CH,+41 21 803 46 49,,Mo-Th 08:00-18:45; Fr 08:00-20:00; Sa 08:00-18:00,ALDI,Q41171672
morges/1026,claires,Shop Ear Piercings & Jewellery at Charpentier Morges,,Morges,,,CH,+41 21 560 61 13,https://stores.claires.com/ch-vd/morges/1026.html,Mo 09:30-18:45; Tu-Th 09:00-18:45; Fr 09:00-20:00; Sa 09:00-18:00,Claire's,Q2974996
7601001377554,coop_vitality_ch,Coop Vitality,,Morges,,,CH,+41 58 878 82 50,https://www.coopvitality.ch/fr/coop-vitality-morges,,Coop Vitality,Q111725297
avenue-de-lonay-17-1110-morges,denner_ch,Denner,,Morges,,,CH,+41 21 801 32 30,https://www.denner.ch/de/filialen/denner-filiale-und-oeffnungszeiten/store/avenue-de-lonay-17-1110-morges/,Mo-Fr 06:45-19:00; Sa 06:45-18:00,Denner,Q379911
centre-commercial-pont-neuf-rue-de-la-gare-19-1110-morges,denner_ch,Denner,,Morges,,,CH,+41 58 999 07 92,https://www.denner.ch/de/filialen/denner-filiale-und-oeffnungszeiten/store/centre-commercial-pont-neuf-rue-de-la-gare-19-1110-morges/,Mo-Th 07:30-18:45; Fr 07:30-20:00; Sa 07:30-18:00,Denner,Q379911
15184917,esprit,Esprit Franchise Store Morges,,Morges,,,CH,+41 21 801 80 00,"https://www.esprit.com/storefinder?storeid=15184917&location=46.50910000,6.49801000",Tu 13:30-18:30; We-Sa 09:00-12:00; Su 09:00-12:30,Esprit,Q532746
sharedmobility.ch:carvelo2go:8fa33e18-6420-4352-855d-532b5dbac6a2,gbfs,Fleur de Pains Morges,,,,,CH,,https://www.sharedmobility.ch/info,,sharedmobility.ch,
sharedmobility.ch:carvelo2go:839fc2fa-ef7d-471b-a962-bd57697b3fa9,gbfs,Maison du Vrac,,,,,CH,,https://www.sharedmobility.ch/info,,sharedmobility.ch,
sharedmobility.ch:carvelo2go:8599e782-7a4d-4f9b-f513-d9747567dc5e,gbfs,Quartier Eglantine Morges Carvelobox,,,,,CH,,https://www.sharedmobility.ch/info,,sharedmobility.ch,
sharedmobility.ch:carvelo2go:75c7036e-2bcd-4678-9ea3-b62a152ad3dc,gbfs,TCS Camping Morges,,,,,CH,,https://www.sharedmobility.ch/info,,sharedmobility.ch,
publibike:cdd7f0b3-dbcd-457a-867c-288497f89b72,gbfs,Casino,,,,,CH,,https://www.publibike.ch,,PubliBike,
publibike:5caedd37-4bbb-4367-9737-67cd63d25887,gbfs,Moulin,,,,,CH,,https://www.publibike.ch,,PubliBike,
publibike:c4e0dff3-7e95-4d5c-877f-9c41be9caec2,gbfs,Dufour,,,,,CH,,https://www.publibike.ch,,PubliBike,
publibike:0b1dee8a-a4b7-4c29-bfca-733af4ee1119,gbfs,Sablon,,,,,CH,,https://www.publibike.ch,,PubliBike,
publibike:8321de4d-7409-464d-82fa-856daebd982e,gbfs,Temple,,,,,CH,,https://www.publibike.ch,,PubliBike,
publibike:e06853f7-ca4e-44f5-bb4b-1024e5f6ba54,gbfs,Gracieuse,,,,,CH,,https://www.publibike.ch,,PubliBike,
publibike:3bfc343a-7b64-4c3a-b4ea-6a88ad2ebf88,gbfs,Eglantine,,,,,CH,,https://www.publibike.ch,,PubliBike,
publibike:20863758-2092-4ef2-902b-26f12c1fb09b,gbfs,Beausobre,,,,,CH,,https://www.publibike.ch,,PubliBike,
boffa-moto,landi_ch,Boffa Moto,,Morges,,,CH,+41 21 803 18 10,http://www.boffamoto.ch,"Mo-Fr 08:00-12:00,13:30-18:30",,
294,lidl_ch,Lidl,,Morges,,,CH,,,Mo-Sa 07:00-21:00,Lidl,Q151954
CH020,longchamp,Gandy Morges,,MORGES,,,CH,+41 21 802 20 03,,,Longchamp,Q1869471
4797107_mno,migros_ch,Migrolino,,Morges,,,CH,+41 21 801 39 95,https://filialen.migros.ch/de/migrolino-morges,Mo-Fr 06:00-22:00; Sa-Su 07:00-22:00,Migrolino,Q56745088
0064290_1192_pickmup_smvmpmubox,migros_ch,PickMup Box,,Morges,,,CH,+41 58 573 57 00,https://filialen.migros.ch/de/box-m-morges-morges,Mo-Th 07:30-18:45; Fr 07:30-20:00; Sa 07:30-18:00,PickMup Box,Q115679275
0065410_res,migros_ch,Migros Restaurant,,Morges,,,CH,+41 58 573 57 50,https://filialen.migros.ch/de/migros-restaurant-morges,Mo-Th 07:30-18:45; Fr 07:30-20:00; Sa 07:30-18:00,Migros Restaurant,Q111803848
0064290_super,migros_ch,Migros,,Morges,,,CH,+41 58 573 57 00,https://filialen.migros.ch/de/migros-supermarkt-morges,Mo-Th 07:30-18:45; Fr 07:30-20:00; Sa 07:30-18:00,Migros,Q115661152
0064290_flori,migros_ch,Florissimo,,Morges,,,CH,+41 58 573 57 00,https://filialen.migros.ch/de/florissimo-morges,Mo-Th 07:30-18:45; Fr 07:30-20:00; Sa 07:30-18:00,Florissimo,Q115659418
N950742,united_colors_of_benetton,Benetton Morges,,MORGES,,,CH,+41 21 802 59 25,,"Mo 13:30-18:30; Tu-Fr 09:00-12:00,13:30-18:30; Sa 09:30-12:30,13:00-17:00",United Colors of Benetton,Q817139
7612555516129,valora,k kiosk,,Morges,,,CH,,,,k kiosk,Q60381703
7612555515312,valora,Brezelkönig,,Morges,,,CH,,,,Brezelkönig,Q111728604
4163,valora,k kiosk,,Morges,,,CH,,,,k kiosk,Q60381703
4089,valora,k kiosk,,Morges,,,CH,,,,k kiosk,Q60381703
4074,valora,k kiosk,,Morges,,,CH,,,,k kiosk,Q60381703
2798,valora,Avec,,Morges,,,CH,,,,Avec,Q103863974
,visa,,,MORGES,,,CH,,,,,
,visa,,,MORGES,,,CH,,,,,
,visa,,,MORGES,,,CH,,,,,
