Ref,Spider,Name,Address,City,State,Zipcode,Country,Phone,Website,Hours,Brand,WikiData
https://locators.bankofamerica.com/ny/albany/financial-centers-albany-13627.html,bankofamerica,Bank of America Financial Center & Walk-Up ATM | 69 State Street,,Albany,NY,,US,+1 518-626-2346,https://locators.bankofamerica.com/ny/albany/financial-centers-albany-13627.html,Mo-Fr 10:00-16:00,Bank of America,Q487907
14433428,chase_us,Albany State St - New branch,,Albany,NY,,US,+1 518-704-2790,https://locator.chase.com/ny/albany/50-state-st,Mo-Fr 09:00-17:00,Chase,Q524629
53597,citi,ATM D&D,,Albany,NY,,US,,,,Citibank,Q857063
4.20362E+18,citizens_us,Citizens,,Albany,NY,,US,+1 518-447-0150,,Mo-Fr 09:00-16:00,Citizens,Q5122694
ATM-1145,citizens_us,,,Albany,NY,,US,,,,Citizens,Q5122694
,credit_union_us,SEFCU  a division of Broadview,,Albany,NY,,US,+1 518-431-6056,,Mo-Fr 08:00-04:00,,
,credit_union_us,SEFCU  a division of Broadview,,Albany,NY,,US,+1 518-649-4981,,Mo-Fr 08:30-05:00,,
353598,dunkin_us,Dunkin',,Albany,NY,,US,+1 518-487-2130,https://locations.dunkindonuts.com/en/ny/albany/51-s-pearl-st/353598,24/7,Dunkin',Q847743
352901,dunkin_us,Dunkin',,Albany,NY,,US,+1 518-427-2897,https://locations.dunkindonuts.com/en/ny/albany/170-state-st/352901,Mo-Fr 07:00-17:00; Sa-Su 00:00-24:00,Dunkin',Q847743
307866,dunkin_us,Dunkin',,Albany,NY,,US,+1 518-427-0897,https://locations.dunkindonuts.com/en/ny/albany/39-n-pearl-st/307866,Mo-Fr 05:00-17:30; Sa-Su 06:00-15:00,Dunkin',Q847743
701098,electrify_america,Evolve NY Quackenbush ,,Albany,NY,,US,,,,Electrify America,Q59773555
E124HX,enterprise,Albany Times Union Center,,Albany,NY,,US,+1 518-472-1111,,,Enterprise Rent-A-Car,Q17085454
ecomm-square-parking-lots,indigo,E-Comm Square Parking Lots,,Albany,NY,,US,+1 518-545-9020,,,Indigo,Q3559970
south-pearl-street-garage,indigo,South Pearl Street Garage,,Albany,NY,,US,+1 518-545-9020,,,Indigo,Q3559970
montgomery-street-lot,indigo,Montgomery Street Lot,,Albany,NY,,US,+1 855-529-4040,,,Indigo,Q3559970
hyatt-place-albany,indigo,Hyatt Place Albany,,Albany,NY,,US,+1 855-529-4040,,,Indigo,Q3559970
ALBBR,marriott,Renaissance Albany Hotel,,Albany,NY,,US,+1 518-992-2500,https://www.marriott.com/ALBBR,,Renaissance Hotels,Q2143252
ALBFD,marriott,Fairfield Inn & Suites Albany Downtown,,Albany,NY,,US,+1 518-434-7410,https://www.marriott.com/ALBFD,,Fairfield by Marriott,Q5430314
https://locations.mtb.com/#25081384,mt_bank_us,M&T Bank,,,NY,,US,+1 518-426-6363,https://locations.mtb.com/ny/albany/bank-branches-and-atms-albany-ny-2056.html,Mo-Th 09:00-16:00; Fr 09:00-17:00,M&T Bank,Q3272257
073359,penske,Don&#39;S Moving &amp; Storage,,ALBANY,NY,,US,+1 518-453-3406,https://www.pensketruckrental.com/locations/us/new_york/albany/073359/,,Penske,Q81234570
https://restaurants.subway.com/#14907421,subway,Subway Downtown Albany,,Albany Albany,NY,,US,+1 518-449-2773,https://restaurants.subway.com/united-states/ny/albany/1-north-pearl-street,Mo-Fr 08:00-21:00; Sa-Su 09:00-19:00,Subway,Q244457
0681863701,sunoco_us,Sunoco,,ALBANY,NY,,US,+1 516-621-7111,,Mo-Sa 06:00-23:00; Su 07:00-23:00,Sunoco,Q1423218
1433208,usps,HUDSON AVENUE,,ALBANY,NY,,US,+1 518-462-1359,,Mo-Fr 08:00-17:30,United States Postal Service,Q668687
1352566,usps,ALBANY ANNEX,,ALBANY,NY,,US,+1 518-426-2287,,,United States Postal Service,Q668687
1220700166,usps_collection_boxes,USPS COLLECTION BOX - PO LOBBY,45 HUDSON AVE,ALBANY,NY,,US,,,,United States Postal Service,Q668687
1220700164,usps_collection_boxes,USPS COLLECTION BOX - PO LOBBY,45 HUDSON AVE,ALBANY,NY,,US,,,,United States Postal Service,Q668687
1220700146,usps_collection_boxes,USPS COLLECTION BOX - BLUE BOX,388 BROADWAY,ALBANY,NY,,US,,,,United States Postal Service,Q668687
1220700075,usps_collection_boxes,USPS COLLECTION BOX - BLUE BOX,45 HUDSON AVE,ALBANY,NY,,US,,,,United States Postal Service,Q668687
1220700144,usps_collection_boxes,USPS COLLECTION BOX - BLUE BOX,45 HUDSON AVE,ALBANY,NY,,US,,,,United States Postal Service,Q668687
1220700004,usps_collection_boxes,USPS COLLECTION BOX - BLUE BOX,54 STATE ST,ALBANY,NY,,US,,,,United States Postal Service,Q668687
1220700121,usps_collection_boxes,USPS COLLECTION BOX - BLUE BOX,80 STATE ST,ALBANY,NY,,US,,,,United States Postal Service,Q668687
1220700083,usps_collection_boxes,USPS COLLECTION BOX - BLUE BOX,54 STATE ST,ALBANY,NY,,US,,,,United States Postal Service,Q668687
1220700110,usps_collection_boxes,USPS COLLECTION BOX - BLUE BOX,69 STATE ST,ALBANY,NY,,US,,,,United States Postal Service,Q668687
1220700112,usps_collection_boxes,USPS COLLECTION BOX - BLUE BOX,69 STATE ST,ALBANY,NY,,US,,,,United States Postal Service,Q668687
1220700021,usps_collection_boxes,USPS COLLECTION BOX - BLUE BOX,90 STATE ST,ALBANY,NY,,US,,,,United States Postal Service,Q668687
1220700163,usps_collection_boxes,USPS COLLECTION BOX - BLUE BOX,90 STATE ST,ALBANY,NY,,US,,,,United States Postal Service,Q668687
1220700094,usps_collection_boxes,USPS COLLECTION BOX - BLUE BOX,100 STATE ST,ALBANY,NY,,US,,,,United States Postal Service,Q668687
1220700157,usps_collection_boxes,USPS COLLECTION BOX - BLUE BOX,110 STATE ST,ALBANY,NY,,US,,,,United States Postal Service,Q668687
1220700065,usps_collection_boxes,USPS COLLECTION BOX - BLUE BOX,41 STATE ST,ALBANY,NY,,US,,,,United States Postal Service,Q668687
1220700084,usps_collection_boxes,USPS COLLECTION BOX - BLUE BOX,112 STATE ST,ALBANY,NY,,US,,,,United States Postal Service,Q668687
1220700048,usps_collection_boxes,USPS COLLECTION BOX - BLUE BOX,40 N PEARL ST,ALBANY,NY,,US,,,,United States Postal Service,Q668687
1220700118,usps_collection_boxes,USPS COLLECTION BOX - BLUE BOX,540 BROADWAY,ALBANY,NY,,US,,,,United States Postal Service,Q668687
1220700147,usps_collection_boxes,USPS COLLECTION BOX - BLUE BOX,99 PINE ST,ALBANY,NY,,US,,,,United States Postal Service,Q668687
1220700055,usps_collection_boxes,USPS COLLECTION BOX - BLUE BOX,540 BROADWAY,ALBANY,NY,,US,,,,United States Postal Service,Q668687
1220700044,usps_collection_boxes,USPS COLLECTION BOX - BLUE BOX,99 PINE ST,ALBANY,NY,,US,,,,United States Postal Service,Q668687
1220700054,usps_collection_boxes,USPS COLLECTION BOX - BLUE BOX,113 STATE ST,ALBANY,NY,,US,,,,United States Postal Service,Q668687
1220700082,usps_collection_boxes,USPS COLLECTION BOX - BLUE BOX,150 STATE ST,ALBANY,NY,,US,,,,United States Postal Service,Q668687
1220700160,usps_collection_boxes,USPS COLLECTION BOX - BLUE BOX,158 STATE ST,ALBANY,NY,,US,,,,United States Postal Service,Q668687
1220700033,usps_collection_boxes,USPS COLLECTION BOX - BLUE BOX,74 CHAPEL ST,ALBANY,NY,,US,,,,United States Postal Service,Q668687
1220700158,usps_collection_boxes,USPS COLLECTION BOX - BLUE BOX,79 N PEARL ST,ALBANY,NY,,US,,,,United States Postal Service,Q668687
1220700153,usps_collection_boxes,USPS COLLECTION BOX - BLUE BOX,79 N PEARL ST,ALBANY,NY,,US,,,,United States Postal Service,Q668687
1220700125,usps_collection_boxes,USPS COLLECTION BOX - BLUE BOX,1 BROADWAY,ALBANY,NY,,US,,,,United States Postal Service,Q668687
1220700097,usps_collection_boxes,USPS COLLECTION BOX - BLUE BOX,107 COLUMBIA ST,ALBANY,NY,,US,,,,United States Postal Service,Q668687
1220700096,usps_collection_boxes,USPS COLLECTION BOX - BLUE BOX,107 COLUMBIA ST,ALBANY,NY,,US,,,,United States Postal Service,Q668687
1220700037,usps_collection_boxes,USPS COLLECTION BOX - BLUE BOX,17 ELK ST,ALBANY,NY,,US,,,,United States Postal Service,Q668687
1220700036,usps_collection_boxes,USPS COLLECTION BOX - BLUE BOX,17 ELK ST,ALBANY,NY,,US,,,,United States Postal Service,Q668687
1220700100,usps_collection_boxes,USPS COLLECTION BOX - BLUE BOX,17 ELK ST,ALBANY,NY,,US,,,,United States Postal Service,Q668687
1220700165,usps_collection_boxes,USPS COLLECTION BOX - PO LOBBY,747 BROADWAY,ALBANY,NY,,US,,,,United States Postal Service,Q668687
1220700030,usps_collection_boxes,USPS COLLECTION BOX - BLUE BOX,747 BROADWAY,ALBANY,NY,,US,,,,United States Postal Service,Q668687
,visa,,,BROOKLYN,NY,,US,,,,,
,visa,,,ALBANY,NY,,US,,,,,
,visa,,,ALBANY,NY,,US,,,,,
,visa,,,ALBANY,NY,,US,,,,,
,visa,,,ALBANY,NY,,US,,,,,
,visa,,,ALBANY,NY,,US,,,,,
,visa,,,ALBANY,NY,,US,,,,,
,visa,,,ALBANY,NY,,US,,,,,
,visa,,,ALBANY,NY,,US,,,,,
,visa,,,ALBANY,NY,,US,,,,,
,visa,,,ALBANY,NY,,US,,,,,
,visa,,,ALBANY,NY,,US,,,,,
,visa,,,ALBANY,NY,,US,,,,,
,visa,,,ALBANY,NY,,US,,,,,
,visa,,,ALBANY,NY,,US,,,,,
,visa,,,ALBANY,NY,,US,,,,,
,visa,,,ALBANY,NY,,US,,,,,
,visa,,,ALBANY,NY,,US,,,,,
,visa,,,ALBANY,NY,,US,,,,,
,visa,,,ALBANY,NY,,US,,,,,
,visa,,,ALBANY,NY,,US,,,,,
,visa,,,ALBANY,NY,,US,,,,,
,visa,,,ALBANY,NY,,US,,,,,
,visa,,,ALBANY,NY,,US,,,,,
,visa,,,ALBANY,NY,,US,,,,,
,visa,,,ALBANY,NY,,US,,,,,
,visa,,,ALBANY,NY,,US,,,,,
,visa,,,ALBANY,NY,,US,,,,,
,visa,,,ALBANY,NY,,US,,,,,
,visa,,,ALBANY,NY,,US,,,,,
,visa,,,ALBANY,NY,,US,,,,,
,visa,,,ALBANY,NY,,US,,,,,
,visa,,,ALBANY,NY,,US,,,,,
,visa,,,ALBANY,NY,,US,,,,,
,visa,,,ALBANY,NY,,US,,,,,
,visa,,,ALBANY,NY,,US,,,,,
,visa,,,ALBANY,NY,,US,,,,,
,visa,,,ALBANY,NY,,US,,,,,
,visa,,,ALBANY,NY,,US,,,,,
,visa,,,ALBANY,NY,,US,,,,,
,visa,,,ALBANY,NY,,US,,,,,
,visa,,,ALBANY,NY,,US,,,,,
,visa,,,ALBANY,NY,,US,,,,,
,visa,,,ALBANY,NY,,US,,,,,
,visa,,,ALBANY,NY,,US,,,,,
,visa,,,ALBANY,NY,,US,,,,,
,visa,,,ALBANY,NY,,US,,,,,
,visa,,,ALBANY,NY,,US,,,,,
,visa,,,ALBANY,NY,,US,,,,,
,visa,,,ALBANY,NY,,US,,,,,
,visa,,,ALBANY,NY,,US,,,,,
,visa,,,ALBANY,NY,,US,,,,,
,visa,,,ALBANY,NY,,US,,,,,
,visa,,,ALBANY,NY,,US,,,,,
,visa,,,ALBANY,NY,,US,,,,,
,visa,,,ALBANY,NY,,US,,,,,
,visa,,,ALBANY,NY,,US,,,,,
,visa,,,ALBANY,NY,,US,,,,,
,visa,,,ALBANY,NY,,US,,,,,
,visa,,,ALBANY,NY,,US,,,,,
,visa,,,ALBANY,NY,,US,,,,,
,visa,,,ALBANY,NY,,US,,,,,
,visa,,,ALBANY,NY,,US,,,,,
,visa,,,ALBANY,NY,,US,,,,,
,visa,,,ALBANY,NY,,US,,,,,
,visa,,,ALBANY,NY,,US,,,,,
,visa,,,ALBANY,NY,,US,,,,,
,visa,,,ALBANY,NY,,US,,,,,
,visa,,,ALBANY,NY,,US,,,,,
,visa,,,ALBANY,NY,,US,,,,,
,visa,,,ALBANY,NY,,US,,,,,
,visa,,,ALBANY,NY,,US,,,,,
,visa,,,ALBANY,NY,,US,,,,,
,visa,,,ALBANY,NY,,US,,,,,
,visa,,,ALBANY,NY,,US,,,,,
,visa,,,ALBANY,NY,,US,,,,,
,visa,,,ALBANY,NY,,US,,,,,
,visa,,,GLENMONT,NY,,US,,,,,
,visa,,,ALBANY,NY,,US,,,,,
,visa,,,ALBANY,NY,,US,,,,,
,visa,,,ALBANY,NY,,US,,,,,
,visa,,,ALBANY,NY,,US,,,,,
