Ref,Spider,Name,Address,City,State,Zipcode,Country,Phone,Website,Hours,Brand,WikiData
https://locations.99only.com/ca/haciendaheights/discount-store-193.html,99_cents_only_us,99 Cents Only Stores,,Hacienda Heights,CA,,US,+1 626-855-1699,https://locations.99only.com/ca/haciendaheights/discount-store-193.html,Mo 08:00-22:00; Tu 07:00-22:00; We 08:00-22:00; Th 07:00-22:00; Fr-Su 08:00-22:00,99 Cents Only Stores,Q4646294
https://local.vons.com/#5605264,albertsons,Vons,,Hacienda Heights,CA,,US,+1 626-330-4216,https://local.vons.com/ca/hacienda-heights/2122-s-hacienda-blvd.html,Mo-Su 06:00-23:00,Vons,Q7941609
5393,autozone_us,AutoZone Auto Parts City Of Industry,,City Of Industry,CA,,US,+1 626-336-3781,https://www.autozone.com/locations/ca/city-of-industry/15215-e-gale-ave.html,Mo-Sa 07:30-22:00; Su 07:30-21:00,AutoZone,Q4826087
https://locators.bankofamerica.com/ca/haciendaheights/financial-centers-hacienda-heights-11353.html,bankofamerica,Bank of America Financial Center & Drive-Thru ATM | Puente Hills,,Hacienda Heights,CA,,US,+1 626-581-3534,https://locators.bankofamerica.com/ca/haciendaheights/financial-centers-hacienda-heights-11353.html,Mo-Fr 09:00-17:00; Sa 09:00-16:00,Bank of America,Q487907
https://locators.bankofamerica.com/ca/haciendaheights/financial-centers-hacienda-heights-9880.html,bankofamerica,Bank of America Financial Center & Drive-Thru ATM | Hacienda Heights,,Hacienda Heights,CA,,US,+1 626-934-1751,https://locators.bankofamerica.com/ca/haciendaheights/financial-centers-hacienda-heights-9880.html,Mo-Fr 10:00-16:00,Bank of America,Q487907
https://locations.baskinrobbins.com/ca/hacienda-heights/3127-s-hacienda-blvd-361283-br,baskin_robbins_us,Baskin-Robbinsâ„¢,,Hacienda Heights,CA,,US,+1 626-336-1738,https://locations.baskinrobbins.com/ca/hacienda-heights/3127-s-hacienda-blvd-361283-br,Mo-Su 11:00-22:00,Baskin-Robbins,Q584601
215190,bluerhino,7-Eleven Stores #43076,,Hacienda Heights,CA,,US,+1 626-330-0697,,,Blue Rhino,Q65681213
237541,bluerhino,Circle K #2709437,,Hacienda Heights,CA,,US,+1 626-968-8679,,,Blue Rhino,Q65681213
198020,bluerhino,United Pacific #647,,City Of Industry,CA,,US,+1 626-586-3568,,,Blue Rhino,Q65681213
206580,bluerhino,Rite Aid #05592,,Hacienda Heights,CA,,US,+1 626-333-5642,,,Blue Rhino,Q65681213
14175114,cricket_wireless,Cricket Wireless Authorized Retailer,,Hacienda Heights,CA,,US,+1 626-626-8670,https://www.cricketwireless.com/stores/ll/US/CA/Hacienda-Heights/17120-Colima-Rd,Mo-Su 11:00-17:00,Cricket Wireless,Q5184987
9730,cvs_us,CVS Pharmacy,,Hacienda Heights,CA,,US,+1 626-330-8775,https://www.cvs.com/store-locator/hacienda-heights-ca-pharmacies/2141-south-hacienda-boulevard-hacienda-heights-ca-91745/storeid=9730,Mo-Sa 08:00-22:00; Su 08:00-23:00,CVS Pharmacy,Q2078880
12553603,daiso_us,Hacienda Heights,,Hacienda Heights,CA,,US,+1 626-935-0143,,Mo-Sa 10:00-21:00; Su 10:00-20:00,Daiso Japan,Q866991
248519,dennys,Denny's,,Hacienda Heights,CA,,US,+1 626-330-6265,https://locations.dennys.com/CA/HACIENDA-HEIGHTS/248519,Mo-We 07:00-22:00; Th-Su 00:00-24:00,Denny's,Q1189695
7894,dominos_pizza_us,Domino's Pizza,,Hacienda Heights,CA,,US,+1 626-369-0999,https://pizza.dominos.com/california/hacienda-heights/15908-halliburton-rd,Mo-Th 10:30-24:00; Fr-Sa 10:30-01:00; Su 10:30-24:00,Domino's,Q839466
5487,elpolloloco,El Pollo Loco,,Hacienda Heights,CA,,US,+1 626-912-8111,,,El Pollo Loco,Q2353849
3709,elpolloloco,El Pollo Loco,,Hacienda Heights,CA,,US,+1 626-330-3482,,,El Pollo Loco,Q2353849
200310720,exxonmobil,CIRCLE K 09437,,hacienda heights,CA,,US,+1 626-968-8679,https://www.exxon.com/en/find-station/mobil-haciendaheights-ca-circlek09437-200310720,24/7,Mobil,Q109676002
23454,h_r_block,H&R Block,,Hacienda Heights,CA,,US,+1 626-912-2429,https://www.hrblock.com/local-tax-offices/california/hacienda-heights/bixby-hacienda-plaza/23454/,,H&R Block,Q5627799
11,innout,Hacienda Heights,,Hacienda Heights,CA,,US,,http://locations.in-n-out.com/11,,In-N-Out Burger,Q1205312
https://locations.jackinthebox.com/us/ca/hacienda-heights/1159-s-hacienda-blvd,jackinthebox,Jack in the Box,,Hacienda Heights,CA,,US,+1 626-330-3608,https://locations.jackinthebox.com/us/ca/hacienda-heights/1159-s-hacienda-blvd,Mo-Su 04:00-04:00,Jack in the Box,Q1538507
https://office.jacksonhewitt.com/#27578497,jackson_hewitt,Jackson Hewitt,,Los Angeles,CA,,US,+1 855-829-7375,https://office.jacksonhewitt.com/tax-preparation-services-locations/en/ca/los-angeles/17150-gale-ave/52251,Mo-Sa 10:00-18:00; Su 10:00-15:00,Jackson Hewitt,Q6117132
https://healthy.kaiserpermanente.org/southern-california/facilities/el-encanto-health-care-habilitation-center-340039,kaiser_permanente_us,El Encanto Health Care & Habilitation Center,,Hacienda Heights,CA,,US,+1 626-336-1274,https://healthy.kaiserpermanente.org/southern-california/facilities/el-encanto-health-care-habilitation-center-340039,,Kaiser Permanente,Q1721601
100935,little_free_library,Gnome Heights Library #100935 Hacienda Heights CA,,Hacienda Heights,CA,,US,,,,Little Free Library,Q6650101
152518,little_free_library,The Spunky 3 #152518 HACIENDA HEIGHTS CA,,HACIENDA HEIGHTS,CA,,US,,,,Little Free Library,Q6650101
113616,little_free_library,Vasquez Family Free Library #113616 La Puente CA,,La Puente,CA,,US,,,,Little Free Library,Q6650101
286406,marathon_petroleum_us,ARCO #42762 AMPM,,Hacienda Heights,CA,,US,+1 626-965-1210,,,Arco,Q304769
286415,marathon_petroleum_us,ARCO #42448 AMPM,,Hacienda Heights,CA,,US,+1 626-336-0594,,,Arco,Q304769
LAXHH,marriott,Courtyard Los Angeles Hacienda Heights/Orange County,,Hacienda Heights,CA,,US,+1 626-965-1700,https://www.marriott.com/LAXHH,,Courtyard by Marriott,Q1053170
71461940,moneygram,WAL-MART - #2251,,CITY OF INDUSTRY,CA,,US,+1 626-854-1166,,Mo-Su 07:00-21:00,MoneyGram,Q1944412
https://locations.oreillyauto.com/ca/haciendaheights/check-engine-light-testing-3076.html,oreilly,Your Hacienda Heights O'Reilly Auto Parts Store,,Hacienda Heights,CA,,US,+1 626-961-2128,https://locations.oreillyauto.com/ca/haciendaheights/check-engine-light-testing-3076.html,Mo-Sa 07:30-22:00; Su 07:30-21:00,O'Reilly Auto Parts,Q7071951
https://locations.oreillyauto.com/ca/haciendaheights/battery-testing-3076.html,oreilly,Your Hacienda Heights O'Reilly Auto Parts Store,,Hacienda Heights,CA,,US,+1 626-961-2128,https://locations.oreillyauto.com/ca/haciendaheights/battery-testing-3076.html,Mo-Sa 07:30-22:00; Su 07:30-21:00,O'Reilly Auto Parts,Q7071951
https://locations.oreillyauto.com/ca/haciendaheights/wiper-installation-3076.html,oreilly,Your Hacienda Heights O'Reilly Auto Parts Store,,Hacienda Heights,CA,,US,+1 626-961-2128,https://locations.oreillyauto.com/ca/haciendaheights/wiper-installation-3076.html,Mo-Sa 07:30-22:00; Su 07:30-21:00,O'Reilly Auto Parts,Q7071951
https://locations.oreillyauto.com/ca/haciendaheights/autopartes-3076.html,oreilly,Tu tienda O'Reilly Auto Parts en Hacienda Heights,,Hacienda Heights,CA,,US,+1 626-961-2128,https://locations.oreillyauto.com/ca/haciendaheights/autopartes-3076.html,Mo-Sa 07:30-22:00; Su 07:30-21:00,O'Reilly Auto Parts,Q7071951
112895,pandaexpress,Colima & Azusa,,Hacienda Heights,CA,,US,+1 626-581-1820,https://www.pandaexpress.com/locations/ca/hacienda-heights/17184-colima-rd,Mo-Th 09:30-22:00; Fr-Su 09:30-23:00,Panda Express,Q1358690
ca_hacienda-heights_2133-s-hacienda-blvd,pizza_hut_us,2133 S. Hacienda Blvd.,,Hacienda Heights,CA,,US,+1 626-369-4433,https://locations.pizzahut.com/ca/hacienda-heights/2133-s-hacienda-blvd,,Pizza Hut,Q191615
05592,rite_aid_us,Rite Aid #05592 Hacienda Heights,,Hacienda Heights,CA,,US,+1 626-333-5642,https://locations2.riteaid.com.yext-cdn.com/ca/hacienda-heights/2060-south-hacienda-boulevard.html,Mo-Fr 08:00-22:00; Sa-Su 09:00-21:00,Rite Aid,Q3433273
993426,rocket_us,Rocket,,City Of Industry,CA,,US,+1 626-586-3568,,,Rocket,Q121513516
43076,seven_eleven_ca_us,7-Eleven,,Hacienda Heights,CA,,US,+1 626-330-0697,https://www.7-eleven.com/locations/ca/hacienda-heights/1107-s-hacienda-blvd-43076,,7-Eleven,Q259340
https://restaurants.subway.com/#14896813,subway,Subway,,Hacienda Heights Los Angeles,CA,,US,+1 626-330-6191,https://restaurants.subway.com/united-states/ca/hacienda-heights/2110-1/2-s-hacienda-heights-blvd,Mo-Su 08:00-21:00,Subway,Q244457
https://restaurants.subway.com/#14901278,subway,Subway Hacienda Valley S/C,,City of Industry Los Angeles,CA,,US,+1 626-937-6888,https://restaurants.subway.com/united-states/ca/city-of-industry/133-s-hacienda-blvd,Mo-Fr 07:00-20:30; Sa-Su 08:00-20:30,Subway,Q244457
https://locations.tacobell.com/#6145202,taco_bell,Taco Bell,,Hacienda Heights,CA,,US,+1 626-333-7827,https://locations.tacobell.com/ca/hacienda-heights/2136-hacienda-blvd.html,Mo-Su 07:00-02:00,Taco Bell,Q752941
6603,upsstore,Hacienda Heights,17128 Colima Rd,Hacienda Heights,CA,,US,+1 626-854-3460,https://locations.theupsstore.com/ca/hacienda-heights/17128-colima-rd,,UPS Store,Q7771029
1440540,usps,HACIENDA HEIGHTS,,HACIENDA HEIGHTS,CA,,US,+1 626-369-5301,,Mo-Fr 08:30-17:00,United States Postal Service,Q668687
9174500052,usps_collection_boxes,USPS COLLECTION BOX - BLUE BOX,17088 GREEN DR,CITY INDUSTRY,CA,,US,,,,United States Postal Service,Q668687
9174500042,usps_collection_boxes,USPS COLLECTION BOX - BLUE BOX,2054 S HACIENDA BLVD,CITY INDUSTRY,CA,,US,,,,United States Postal Service,Q668687
9174500120,usps_collection_boxes,USPS COLLECTION BOX - BLUE BOX,2054 S HACIENDA BLVD,CITY INDUSTRY,CA,,US,,,,United States Postal Service,Q668687
9174500128,usps_collection_boxes,USPS COLLECTION BOX - PO LOBBY,2054 S HACIENDA BLVD,CITY INDUSTRY,CA,,US,,,,United States Postal Service,Q668687
9174500049,usps_collection_boxes,USPS COLLECTION BOX - BLUE BOX,1605 S AZUSA AVE,CITY INDUSTRY,CA,,US,,,,United States Postal Service,Q668687
9174500039,usps_collection_boxes,USPS COLLECTION BOX - BLUE BOX,16873 DAWNHAVEN,CITY INDUSTRY,CA,,US,,,,United States Postal Service,Q668687
9174500041,usps_collection_boxes,USPS COLLECTION BOX - BLUE BOX,2054 S HACIENDA BLVD,CITY INDUSTRY,CA,,US,,,,United States Postal Service,Q668687
9174500048,usps_collection_boxes,USPS COLLECTION BOX - BLUE BOX,17002 COLIMA RD,CITY INDUSTRY,CA,,US,,,,United States Postal Service,Q668687
9174500044,usps_collection_boxes,USPS COLLECTION BOX - BLUE BOX,2440 S HACIENDA BLVD,CITY INDUSTRY,CA,,US,,,,United States Postal Service,Q668687
haciendaheights_oil-change-gn0153,valvoline_instant_oil_change,Valvoline,17175 B Colima Road ,Hacienda Heights,CA,,US,+1 626-346-2279,https://store.vioc.com/ca/haciendaheights/oil-change-gn0153.html,,Valvoline Instant Oil Change,Q7912852
,visa,,,HACIENDA HEIGHTS,CA,,US,,,,,
,visa,,,HACIENDA HEIGHTS,CA,,US,,,,,
,visa,,,HACIENDA HEIGHTS,CA,,US,,,,,
,visa,,,HACIENDA HTS,CA,,US,,,,,
,visa,,,HACIENDA HGHT,CA,,US,,,,,
,visa,,,HACIENDA HEIGHTS,CA,,US,,,,,
,visa,,,CITY OF INDUSTRY,CA,,US,,,,,
,visa,,,INDUSTRY,CA,,US,,,,,
,visa,,,HACIENDA HEIGHTS,CA,,US,,,,,
,visa,,,CITY OF INDUSTR,CA,,US,,,,,
,visa,,,CITY OF INDUSTRY,CA,,US,,,,,
,visa,,,CITY OF INDUSTRY,CA,,US,,,,,
,visa,,,CITY OF INDUSTRY,CA,,US,,,,,
,visa,,,HACIENDA HEIGHTS,CA,,US,,,,,
,visa,,,HACIENDA HEIGHTS,CA,,US,,,,,
,visa,,,HACIENDA HEIGHTS,CA,,US,,,,,
,visa,,,HACIENDA HEIGHTS,CA,,US,,,,,
,visa,,,HACIENDA HEIGHTS,CA,,US,,,,,
,visa,,,HACIENDA HEIGHTS,CA,,US,,,,,
,visa,,,HACIENDA HEIGHTS,CA,,US,,,,,
,visa,,,HACIENDA HEIGHTS,CA,,US,,,,,
,visa,,,HACIENDA HEIGHTS,CA,,US,,,,,
,visa,,,HACIENDA HEIGHTS,CA,,US,,,,,
,visa,,,HACIENDA HEIGHTS,CA,,US,,,,,
,visa,,,HACIENDA HEIGHTS,CA,,US,,,,,
,visa,,,HACIENDA HEIGHTS,CA,,US,,,,,
,visa,,,HACIENDA HEIGHTS,CA,,US,,,,,
,visa,,,HACIENDA HEIGHTS,CA,,US,,,,,
,visa,,,HACIENDA HEIGHTS,CA,,US,,,,,
,visa,,,HACIENDA HEIGHTS,CA,,US,,,,,
,visa,,,HACIENDA HEIGHTS,CA,,US,,,,,
,visa,,,CITY OF INDUSTRY,CA,,US,,,,,
,visa,,,CITY OF INDUSTRY,CA,,US,,,,,
,visa,,,HACIENDA HEIGHTS,CA,,US,,,,,
,visa,,,HACIENDA HEIGHTS,CA,,US,,,,,
,visa,,,CITY OF INDUSTRY,CA,,US,,,,,
,visa,,,HACIENDA HEIGHTS,CA,,US,,,,,
,visa,,,HACIENDA HEIGHTS,CA,,US,,,,,
,visa,,,HACIENDA HEIGHTS,CA,,US,,,,,
,visa,,,HACIENDA HEIGHTS,CA,,US,,,,,
,visa,,,HACIENDA HEIGHTS,CA,,US,,,,,
,visa,,,CITY OF INDUSTRY,CA,,US,,,,,
,visa,,,HACIENDA HEIGHTS,CA,,US,,,,,
,visa,,,HACIENDA HEIGHTS,CA,,US,,,,,
,visa,,,HACIENDA HEIGHTS,CA,,US,,,,,
,visa,,,HACIENDA HEIGHTS,CA,,US,,,,,
,visa,,,HACIENDA HEIGHTS,CA,,US,,,,,
,visa,,,HACIENDA HEIGHTS,CA,,US,,,,,
,visa,,,HACIENDA HEIGHTS,CA,,US,,,,,
,visa,,,HACIENDA HEIGHTS,CA,,US,,,,,
,visa,,,HACIENDA HTS.,CA,,US,,,,,
,visa,,,HACIENDA HEIGHTS,CA,,US,,,,,
,visa,,,HACIENDA HEIG,CA,,US,,,,,
,visa,,,HACIENDA HEIGHTS,CA,,US,,,,,
,visa,,,HACIENDA,CA,,US,,,,,
,visa,,,HACIENDO HEIGHTS,CA,,US,,,,,
,visa,,,HACIENDA HEIGHTS,CA,,US,,,,,
,visa,,,HACIENDA HEIGHTS,CA,,US,,,,,
,visa,,,HACIENDA HEIGHTS,CA,,US,,,,,
,visa,,,HACIENDA HEIGHTS,CA,,US,,,,,
,visa,,,HACIENDA HEIGHTS,CA,,US,,,,,
,visa,,,HACIENDA HGTS,CA,,US,,,,,
,visa,,,HACIENDA HEIGHTS,CA,,US,,,,,
,visa,,,PICO RIVERA CA,CA,,US,,,,,
2062U__S__HACIENDA__BLVD_HACIENDA__HEIGHTS_CA_91745,wellsfargo,,2062U S HACIENDA BLVD,HACIENDA HEIGHTS,CA,,US,+1 800-869-3557,https://www.wellsfargo.com/locator/bank/2062U__S__HACIENDA__BLVD_HACIENDA__HEIGHTS_CA_91745/,,Wells Fargo,Q744149
121__S__HACIENDA__BLVD_CITY__OF__INDUSTRY_CA_91745,wellsfargo,Wells Fargo,121 S HACIENDA BLVD,CITY OF INDUSTRY,CA,,US,+1 626-923-3500,https://www.wellsfargo.com/locator/bank/121__S__HACIENDA__BLVD_CITY__OF__INDUSTRY_CA_91745/,Mo-Fr 09:00-17:00,Wells Fargo,Q744149
2664fabac03fe4b8c53ed274a0c49839,western_union,7-ELEVEN/SUNOCO #43076,,Los Angeles,CA,,US,+1 626-330-0697,https://location.westernunion.com/us/ca/los-angeles/2664fabac03fe4b8c53ed274a0c49839,,Western Union,Q861042
0b63226197fd06357d331f1e54b16df0,western_union,MOBIGO WIRELESS,,Hacienda Hts,CA,,US,+1 626-269-0888,https://location.westernunion.com/us/ca/hacienda-hts/0b63226197fd06357d331f1e54b16df0,Mo-Su 09:00-19:00,Western Union,Q861042
71477db8b225b4849d44ca4fb07253fa,western_union,WALMART #002251,,City Of Industry,CA,,US,+1 626-854-1166,https://location.westernunion.com/us/ca/city-of-industry/71477db8b225b4849d44ca4fb07253fa,Mo-Su 07:00-21:00,Western Union,Q861042
