Ref,Spider,Name,Address,City,State,Zipcode,Country,Phone,Website,Hours,Brand,WikiData
https://stores.advanceautoparts.com/ar/conway/3680-dave-ward-dr,advance_auto_parts_us,Advance Auto Parts,,Conway,AR,,US,+1 501-328-5651,https://stores.advanceautoparts.com/ar/conway/3680-dave-ward-dr,Mo-Sa 07:00-21:00; Su 08:30-20:00,Advance Auto Parts,Q4686051
https://www.baptist-health.com/location/baptist-health-family-clinic-salem-road/,bha_us,Baptist Health Family Clinic-Salem Road,,Conway,AR,,US,+1 501-585-3935,https://www.baptist-health.com/location/baptist-health-family-clinic-salem-road/,,Baptist Health Foundation,Q50379824
https://www.baptist-health.com/location/baptist-health-gastroenterology-clinic-conway/,bha_us,Baptist Health Gastroenterology Clinic-Conway,,Conway,AR,,US,+1 501-219-0721,https://www.baptist-health.com/location/baptist-health-gastroenterology-clinic-conway/,,Baptist Health Foundation,Q50379824
https://www.baptist-health.com/location/baptist-health-neurosurgery-arkansas-satellite-clinic-conway/,bha_us,Baptist Health Neurosurgery Arkansas Satellite Clinic-Conway,,Conway,AR,,US,+1 501-224-0200,https://www.baptist-health.com/location/baptist-health-neurosurgery-arkansas-satellite-clinic-conway/,,Baptist Health Foundation,Q50379824
https://www.baptist-health.com/location/baptist-health-sleep-clinic-conway/,bha_us,Baptist Health Sleep Clinic-Conway,,Conway,AR,,US,+1 501-202-1902,https://www.baptist-health.com/location/baptist-health-sleep-clinic-conway/,,Baptist Health Foundation,Q50379824
https://www.baptist-health.com/location/baptist-health-therapy-center-conway/,bha_us,Baptist Health Therapy Center-Conway,,Conway,AR,,US,+1 501-329-1888,https://www.baptist-health.com/location/baptist-health-therapy-center-conway/,,Baptist Health Foundation,Q50379824
170176,bluerhino,Kum & Go #159,,Conway,AR,,US,+1 501-932-3141,,,Blue Rhino,Q65681213
185584,bluerhino,Kroger #625 - Delta- Fuel Center,,Conway,AR,,US,+1 501-329-3628,,,Blue Rhino,Q65681213
152429,bluerhino,Walgreens #10170,,Conway,AR,,US,+1 501-328-3117,,,Blue Rhino,Q65681213
10264,brookdale_us,Brookdale Conway AL (AR),,Conway,AR,,US,+1 501-513-4300,https://www.brookdale.com/en/communities/brookdale-conway-arkansas.html,,Brookdale,Q4974387
8028,bueno,Taco Bueno - 8028,"1155 Dave Ward Drive,  , Conway, AR, 72034, US",Conway,AR,,US,+1 501-450-3999,,Mo-Su 06:00-21:00,Taco Bueno,Q7673958
22806,burgerking,Burger King,,Conway,AR,,US,+1 833-435-4736,https://www.bk.com/store-locator/store/restaurant_62952,Mo-Sa 06:00-23:00; Su 07:00-23:00,Burger King,Q177054
17017,chevrolet,SUPERIOR CHEVROLET,,conway,AR,,US,+1 501-358-4194,https://www.conwaychevrolet.com,Mo-Sa 09:00-19:00,Chevrolet,Q29570
https://schools.childcarenetwork.com/ar/conway/2611-prince-street,childcare_network_us,Childcare Network,,Conway,AR,,US,+1 501-336-8881,https://schools.childcarenetwork.com/ar/conway/2611-prince-street,,Childcare Network,Q121356406
35338,citi,ATM Arkansas FCU,,Conway,AR,,US,,,,Citibank,Q857063
35362,citi,ATM ARKANSAS FEDERAL CREDIT UNION,,Conway,AR,,US,,,,Citibank,Q857063
91557,citi,ATM Walgreens,,Conway,AR,,US,,,,Citibank,Q857063
61631,citi,ATM Kroger,,Conway,AR,,US,,,,Citibank,Q857063
10033,dollartree,DollarTree,,Conway,AR,,US,+1 501-697-9560,,Mo-Sa 09:00-21:00; Su 10:00-20:00,Dollar Tree,Q5289230
5319,dominos_pizza_us,Domino's Pizza,,Conway,AR,,US,+1 501-450-3000,https://pizza.dominos.com/arkansas/conway/740-s-salem-rd-suite-114,Mo-Th 10:00-01:00; Fr-Sa 10:00-03:00; Su 10:00-01:00,Domino's,Q839466
https://www.edwardjones.com/us-en/financial-advisor/trey-howell,edwardjones,Trey Howell,,Conway,AR,,US,+1 501-327-6158,https://www.edwardjones.com/us-en/financial-advisor/trey-howell,Mo-Th 08:00-17:00; Fr 08:00-16:00,Edward Jones,Q5343830
1069,european_wax_center_us,European Wax Center,,Conway,AR,,US,+1 501-426-8800,https://locations.waxcenter.com/ar/conway/conway-dave-ward-drive-1069.html,Mo-Fr 09:00-20:00; Sa 09:00-18:00; Su 11:00-18:00,European Wax Center,Q5413426
94ff5c03-b77d-e511-8981-005056890337,goodwill,Donation Center #5044,,Conway,AR,,US,+1 501-358-6605,https://www.goodwill.org/locator/location/?store=OTRmZjVjMDMtYjc3ZC1lNTExLTg5ODEtMDA1MDU2ODkwMzM3&lat=MzUuMDcyNDM=&lng=LTkyLjQ5NTE2,,Goodwill,Q5583655
https://salons.greatclips.com/us/ar/conway/3900-dave-ward-dr,greatclips,Great Clips,,Conway,AR,,US,+1 501-205-8214,https://salons.greatclips.com/us/ar/conway/3900-dave-ward-dr,Mo-Fr 09:00-20:00; Sa 09:00-18:00; Su 10:00-17:00,Great Clips,Q5598967
1505836,hardees_us,Hardee's,,Conway,AR,,US,+1 501-499-6462,https://locations.hardees.com/ar/conway/1055-dave-ward-dr,,Hardee's,Q1585088
26643,h_r_block,H&R Block,,Conway,AR,,US,+1 501-932-3120,https://www.hrblock.com/local-tax-offices/arkansas/conway/2915-dave-ward-dr/26643/,,H&R Block,Q5627799
https://office.jacksonhewitt.com/#27575055,jackson_hewitt,Jackson Hewitt,,Conway,AR,,US,+1 501-208-8689,https://office.jacksonhewitt.com/tax-preparation-services-locations/en/ar/conway/625-salem-road/10662,Mo-Fr 09:00-19:00; Sa 11:00-19:00; Su 13:00-17:00,Jackson Hewitt,Q6117132
https://office.jacksonhewitt.com/#27579244,jackson_hewitt,Jackson Hewitt,,Conway,AR,,US,+1 501-213-3187,https://office.jacksonhewitt.com/tax-preparation-services-locations/en/ar/conway/3900-dave-ward-drive/52575,Mo-Sa 11:00-19:00; Su 13:00-17:00,Jackson Hewitt,Q6117132
4086,jiffy_lube_us,Dave Ward Dr,,Conway,AR,,US,+1 501-327-5997,https://www.jiffylube.com/locations/ar/conway/4086,Mo-Sa 08:00-17:00,Jiffy Lube,Q6192247
4088,jiffy_lube_us,Hogan Ln,,Conway,AR,,US,+1 501-327-2202,https://www.jiffylube.com/locations/ar/conway/4088,Mo-Sa 08:00-17:00,Jiffy Lube,Q6192247
https://locations.jimmyjohns.com/ar/conway/sandwiches-2022.html,jimmy_johns,Jimmy John's,,Conway,AR,,US,+1 501-329-2200,https://locations.jimmyjohns.com/ar/conway/sandwiches-2022.html,,Jimmy John's,Q1689380
0159,kum_and_go,Kum & Go #0159,,Conway,AR,,US,+1 501-932-3141,https://www.kumandgo.com/store-locator?details=0159,24/7,Kum & Go,Q6443340
0158,kum_and_go,Kum & Go #0158,,Conway,AR,,US,+1 501-932-0114,https://www.kumandgo.com/store-locator?details=0158,24/7,Kum & Go,Q6443340
LITCO,marriott,Courtyard Conway,,Conway,AR,,US,+1 501-358-3300,https://www.marriott.com/LITCO,,Courtyard by Marriott,Q1053170
115,mightyflame,LONES CITGO #10,,CONWAY,AR,,US,+1 501-932-6562,,,Mighty Flame,
https://locations.moes.com/#513,moes,Moe's Southwest Grill,,Conway,AR,,US,+1 501-336-6500,https://locations.moes.com/ar/conway/625-salem-road,Mo-Th 10:30-21:00; Fr-Sa 10:30-22:00; Su 10:30-21:00,Moe's Southwest Grill,Q6889938
71468697,moneygram,WAL-MART - #2575,,CONWAY,AR,,US,+1 501-328-9570,,Mo-Su 07:00-21:00,MoneyGram,Q1944412
https://locations.oreillyauto.com/ar/conway/check-engine-light-testing-6330.html,oreilly,Your Conway O'Reilly Auto Parts Store,,Conway,AR,,US,+1 501-470-7227,https://locations.oreillyauto.com/ar/conway/check-engine-light-testing-6330.html,Mo-Sa 07:30-21:00; Su 09:00-19:00,O'Reilly Auto Parts,Q7071951
https://locations.oreillyauto.com/ar/conway/battery-testing-6330.html,oreilly,Your Conway O'Reilly Auto Parts Store,,Conway,AR,,US,+1 501-470-7227,https://locations.oreillyauto.com/ar/conway/battery-testing-6330.html,Mo-Sa 07:30-21:00; Su 09:00-19:00,O'Reilly Auto Parts,Q7071951
https://locations.oreillyauto.com/ar/conway/wiper-installation-6330.html,oreilly,Your Conway O'Reilly Auto Parts Store,,Conway,AR,,US,+1 501-470-7227,https://locations.oreillyauto.com/ar/conway/wiper-installation-6330.html,Mo-Sa 07:30-21:00; Su 09:00-19:00,O'Reilly Auto Parts,Q7071951
https://locations.oreillyauto.com/ar/conway/autopartes-6330.html,oreilly,Tu tienda O'Reilly Auto Parts en Conway,,Conway,AR,,US,+1 501-470-7227,https://locations.oreillyauto.com/ar/conway/autopartes-6330.html,Mo-Sa 07:30-21:00; Su 09:00-19:00,O'Reilly Auto Parts,Q7071951
https://locations.papajohns.com/#10691858,papa_johns,Papa John's,,Conway,AR,,US,+1 501-327-9111,https://locations.papajohns.com/united-states/ar/72034/conway/215-farris-rd,Mo-Th 10:00-01:00; Fr-Sa 10:00-03:00; Su 10:00-01:00,Papa John's Pizza,Q2759586
ar_conway_705-club-lane,pizza_hut_us,705 Club Lane,,Conway,AR,,US,+1 501-327-4449,https://locations.pizzahut.com/ar/conway/705-club-lane,,Pizza Hut,Q191615
5161,quiznos,Salem Place Center,,Conway,AR,,US,+1 501-329-7827,https://order.quiznos.com/menu/salem-place-center-2?handoff=delivery,Mo-Sa 10:00-21:00; Su 11:00-21:00,Quizno's,Q1936229
https://restaurants.subway.com/#14903628,subway,Subway Conway Market Place,,Conway Faulkner,AR,,US,+1 501-327-0909,https://restaurants.subway.com/united-states/ar/conway/3900-dave-ward-drive,Mo-Su 09:00-22:00,Subway,Q244457
https://restaurants.subway.com/#14911082,subway,Subway,,Conway Faulkner,AR,,US,+1 501-327-2916,https://restaurants.subway.com/united-states/ar/conway/205-farris-rd,Mo-Sa 09:00-23:00; Su 09:00-22:00,Subway,Q244457
https://locations.tacobell.com/#14965142,taco_bell,Taco Bell,,Conway,AR,,US,+1 501-764-4774,https://locations.tacobell.com/ar/conway/2195-dave-ward-drive.html,Mo-Th 08:00-03:00; Fr-Sa 08:00-04:00; Su 08:00-03:00,Taco Bell,Q752941
041553,uhaul,Conway U Storage,2850 Prince St,Conway,AR,,US,+1 501-328-5573,,Mo-Fr 00:00-18:00; Sa 00:00-16:00,U-Haul,Q7862902
044339,uhaul,Storesmart West Conway,3715 Prince St,Conway,AR,,US,+1 501-470-9467,,Mo-Sa 00:00-18:00,U-Haul,Q7862902
1359137,usps,CONWAY,,CONWAY,AR,,US,+1 501-730-0351,,Mo-Fr 09:00-16:30; Sa 10:00-12:00,United States Postal Service,Q668687
7203400007,usps_collection_boxes,USPS COLLECTION BOX - BLUE BOX,1632 DONAGHEY AVE,CONWAY,AR,,US,,,,United States Postal Service,Q668687
7203400019,usps_collection_boxes,USPS COLLECTION BOX - BLUE BOX,945 SALEM RD,CONWAY,AR,,US,,,,United States Postal Service,Q668687
7203400010,usps_collection_boxes,USPS COLLECTION BOX - BLUE BOX,1060 HOGAN LANE,CONWAY,AR,,US,,,,United States Postal Service,Q668687
7203400024,usps_collection_boxes,USPS COLLECTION BOX - PO LOBBY,1060 HOGAN LN,CONWAY,AR,,US,,,,United States Postal Service,Q668687
7203400000,usps_collection_boxes,USPS COLLECTION BOX - PO LOBBY,1060 HOGAN LN,CONWAY,AR,,US,,,,United States Postal Service,Q668687
7203400001,usps_collection_boxes,USPS COLLECTION BOX - PO LOBBY,1060 HOGAN LN,CONWAY,AR,,US,,,,United States Postal Service,Q668687
7203400002,usps_collection_boxes,USPS COLLECTION BOX - PO LOBBY,1060 HOGAN LN,CONWAY,AR,,US,,,,United States Postal Service,Q668687
7203400003,usps_collection_boxes,USPS COLLECTION BOX - PO LOBBY,1060 HOGAN LN,CONWAY,AR,,US,,,,United States Postal Service,Q668687
7203400004,usps_collection_boxes,USPS COLLECTION BOX - BLUE BOX,1060 HOGAN LN,CONWAY,AR,,US,,,,United States Postal Service,Q668687
7203400016,usps_collection_boxes,USPS COLLECTION BOX - BLUE BOX,2890 DAVE WARD DR,CONWAY,AR,,US,,,,United States Postal Service,Q668687
,visa,,,CONWAY,AR,,US,,,,,
,visa,,,CONWAY,AR,,US,,,,,
,visa,,,CONWAY,AR,,US,,,,,
,visa,,,CONWAY,AR,,US,,,,,
,visa,,,CONWAY,AR,,US,,,,,
,visa,,,CONWAY,AR,,US,,,,,
,visa,,,CONWAY,AR,,US,,,,,
,visa,,,CONWAY,AR,,US,,,,,
,visa,,,CONWAY,AR,,US,,,,,
,visa,,,CONWAY,AR,,US,,,,,
,visa,,,CONWAY,AR,,US,,,,,
,visa,,,CONWAY,AR,,US,,,,,
,visa,,,CONWAY,AR,,US,,,,,
,visa,,,CONWAY,AR,,US,,,,,
,visa,,,CONWAY,AR,,US,,,,,
,visa,,,CONWAY,AR,,US,,,,,
,visa,,,CONWAY,AR,,US,,,,,
,visa,,,CONWAY,AR,,US,,,,,
https://www.walgreens.com/locator/walgreens-505+salem+rd-conway-ar-72034/id=10170,walgreens,Walgreens,,Conway,AR,,US,+1 501-328-3117,https://www.walgreens.com/locator/walgreens-505+salem+rd-conway-ar-72034/id=10170,Mo-Su 07:00-22:00,Walgreens,Q1591889
https://locations.wendys.com/#9251737,wendys,"Wendy's Conway Ward Drive in Conway, AR",,Conway,AR,,US,+1 501-548-0143,https://locations.wendys.com/united-states/ar/conway/3750-dave-ward-drive,"Mo-Su 06:30-10:30,08:00-22:00",Wendy's,Q550258
c339489de9e94d98b70039a60783ee36,western_union,WALMART #003168,,Conway,AR,,US,+1 501-205-7262,https://location.westernunion.com/us/ar/conway/c339489de9e94d98b70039a60783ee36,Mo-Su 07:00-21:00,Western Union,Q861042
0b798d5d570e6bcf23f7843bf7c7ee0b,western_union,WALMART #002575,,Conway,AR,,US,+1 501-328-9570,https://location.westernunion.com/us/ar/conway/0b798d5d570e6bcf23f7843bf7c7ee0b,Mo-Su 07:00-21:00,Western Union,Q861042
8964,wingstop,Wingstop Conway,2730 Prince St Ste 1,Conway,AR,,US,+1 501-329-1919,,,Wingstop,Q8025339
