Ref,Spider,Name,Address,City,State,Zipcode,Country,Phone,Website,Hours,Brand,WikiData
https://www.ameripriseadvisors.com/jennifer.butturini/contact/,ameriprise_us,Jennifer Butturini,,Wallace,NC,,US,+1 910-665-1135,https://www.ameripriseadvisors.com/jennifer.butturini/,,Ameriprise Financial,Q2843129
https://www.ameripriseadvisors.com/floyd.j.johnson/contact/,ameriprise_us,Floyd J Johnson,,Wallace,NC,,US,+1 910-665-1135,https://www.ameripriseadvisors.com/floyd.j.johnson/,,Ameriprise Financial,Q2843129
1066,autozone_us,AutoZone Auto Parts Wallace,,Wallace,NC,,US,+1 910-285-2257,https://www.autozone.com/locations/nc/wallace/121-n-norwood-st.html,Mo-Sa 07:30-21:00; Su 09:00-20:00,AutoZone,Q4826087
512,bealls_us,Bealls,,Wallace,NC,,US,+1 910-552-0169,https://stores.bealls.com/nc/wallace/clothing-store-512.html,Mo-Th 09:00-21:00; Fr-Sa 09:00-21:30; Su 10:00-20:00,Bealls,Q4876153
205297,bluerhino,AC Hall Company,,Wallace,NC,,US,+1 910-285-2390,,,Blue Rhino,Q65681213
163115,bluerhino,Family Dollar #08009,,Wallace,NC,,US,+1 910-285-4043,,,Blue Rhino,Q65681213
241225,bluerhino,PMG Carolinas #3,,Wallace,NC,,US,+1 910-285-6363,,,Blue Rhino,Q65681213
153642,bluerhino,Walgreens #10088,,Wallace,NC,,US,+1 910-285-6481,,,Blue Rhino,Q65681213
146652,bluerhino,Speedway #7906,,Wallace,NC,,US,+1 910-285-4411,,,Blue Rhino,Q65681213
40876,bluerhino,Food Lion #1550,,Wallace,NC,,US,+1 910-285-2445,,,Blue Rhino,Q65681213
243293,bluerhino,Walmart #1352 - Vending,,Wallace,NC,,US,+1 910-285-2078,,,Blue Rhino,Q65681213
nc/wallace/110-vines-landing,bojangles,"Bojangles Wallace, NC",,Wallace,NC,,US,+1 910-285-0401,https://locations.bojangles.com/nc/wallace/110-vines-landing.html,,Bojangles',Q891163
https://stores.catofashions.com/#26560493,cato_us,Cato,,,NC,,US,+1 910-285-3514,https://stores.catofashions.com/nc/wallace/5620-south-nc-highway-41,Mo-Sa 10:00-19:00; Su 13:00-18:00,Cato,Q16956136
16653,chevrolet,BILL CARONE CHEVROLET GMC,,Wallace,NC,,US,+1 910-285-7151,https://www.billcaronegm.com,Mo-Fr 07:30-18:00; Sa 09:00-13:00,Chevrolet,Q29570
49126,citi,ATM CVS,,Wallace,NC,,US,,,,Citibank,Q857063
91912,citi,ATM Walgreens,,Wallace,NC,,US,,,,Citibank,Q857063
78659,citi,ATM Speedway,,Wallace,NC,,US,,,,Citibank,Q857063
80193407,cricket_wireless,Cricket Wireless Authorized Retailer,,Wallace,NC,,US,+1 910-463-2256,https://www.cricketwireless.com/stores/ll/US/NC/Wallace/5661-NC-Hwy-41,Mo-Sa 10:00-19:00; Su 13:00-18:00,Cricket Wireless,Q5184987
5577,cvs_us,CVS Pharmacy,,Wallace,NC,,US,+1 910-285-5787,https://www.cvs.com/store-locator/wallace-nc-pharmacies/218-east-main-st-wallace-nc-28466/storeid=5577,Mo-Fr 09:00-20:00; Sa 10:00-20:00; Su 10:00-17:00,CVS Pharmacy,Q2078880
8998,dollar_general,Dollar General,,Wallace,NC,,US,+1 910-463-2730,https://www.dollargeneral.com/store-directory/nc/wallace/8998,Mo-Su 08:00-21:00,Dollar General,Q145168
8966,dominos_pizza_us,Domino's Pizza,,Wallace,NC,,US,+1 910-285-9996,https://pizza.dominos.com/north-carolina/wallace/5680-south-nc-hwy-41-space-no-1,Mo-Th 10:30-24:00; Fr-Sa 10:00-01:00; Su 10:30-24:00,Domino's,Q839466
https://www.edwardjones.com/us-en/financial-advisor/megan-reeves,edwardjones,Megan D Reeves,,Wallace,NC,,US,+1 910-285-6412,https://www.edwardjones.com/us-en/financial-advisor/megan-reeves,Mo-Th 08:30-17:00; Fr 08:30-16:00,Edward Jones,Q5343830
E153H6,enterprise,Wallace,,Wallace,NC,,US,+1 910-552-0281,,,Enterprise Rent-A-Car,Q17085454
Motorcraft1674USAEnglish,ford,Friendly Ford,,North Carolina,NC,,US,+1 910-285-2139,,,Ford,Q44294
Motorcraft1681USAEnglish,ford,"Bill Carone Ford, Inc.",,North Carolina,NC,,US,+1 910-285-2139,,,Ford,Q44294
https://www.ford.com/dealerships/dealer-details/nc/wallace/bill-carone-ford-inc/,ford_dealers_us,"Bill Carone Ford, Inc.",,Wallace,NC,,US,+1 910-463-2862,https://www.ford.com/dealerships/dealer-details/nc/wallace/bill-carone-ford-inc/,Mo-Fr 08:00-18:00; Sa 09:00-13:00,Ford Motor Company,Q44294
7686,gamestop_us,Coast Carolina Wallace,,Wallace,NC,,US,+1 910-285-0212,https://www.gamestop.com/search/?store=7686,Mo-Th 12:00-19:00; Fr-Sa 11:00-20:00; Su 12:00-18:00,GameStop,Q202210
33095,h_r_block,H&R Block,,Wallace,NC,,US,+1 910-285-5561,https://www.hrblock.com/local-tax-offices/north-carolina/wallace/5615-s-hwy-41/33095/,,H&R Block,Q5627799
https://office.jacksonhewitt.com/#27579783,jackson_hewitt,Jackson Hewitt,,Wallace,NC,,US,+1 910-285-0341,https://office.jacksonhewitt.com/tax-preparation-services-locations/en/nc/wallace/312-east-southerland-street/12195,Mo-Fr 10:00-19:00; Sa 09:00-18:00,Jackson Hewitt,Q6117132
https://locations.kfc.com/#11247188,kfc,Chicken Nuggets Near Wallace,,Wallace,NC,,US,,https://locations.kfc.com/nc/wallace/705-north-norwood-street/chickennugget,Mo-Th 10:30-22:00; Fr-Sa 10:30-23:00; Su 10:00-22:00,KFC,Q524757
7472,murphy_usa_us,,,Wallace,NC,,US,+1 910-285-2296,,Mo-Sa 05:00-23:30; Su 05:30-00:00,Murphy USA,Q19604459
5615-old-nc-41-hwy,my_eye_dr,,,Wallace,NC,,US,+1 910-285-5050,https://locations.myeyedr.com/nc/wallace/5615-old-nc-41-hwy,,MyEyeDr.,Q117864710
499,ollies_bargain_outlet,Ollie's Bargain Outlet,,Wallace,NC,,US,+1 910-463-1060,https://www.ollies.us/locations/815-north-norwood-street-wallace-nc/,Mo-Sa 09:00-21:00; Su 10:00-19:00,Ollie's Bargain Outlet,Q7088304
https://locations.oreillyauto.com/nc/wallace/check-engine-light-testing-3951.html,oreilly,Your Wallace O'Reilly Auto Parts Store,,Wallace,NC,,US,+1 910-285-2121,https://locations.oreillyauto.com/nc/wallace/check-engine-light-testing-3951.html,Mo-Sa 07:30-21:00; Su 09:00-21:00,O'Reilly Auto Parts,Q7071951
https://locations.oreillyauto.com/nc/wallace/wiper-installation-3951.html,oreilly,Your Wallace O'Reilly Auto Parts Store,,Wallace,NC,,US,+1 910-285-2121,https://locations.oreillyauto.com/nc/wallace/wiper-installation-3951.html,Mo-Sa 07:30-21:00; Su 09:00-21:00,O'Reilly Auto Parts,Q7071951
https://locations.oreillyauto.com/nc/wallace/autopartes-3951.html,oreilly,Tu tienda O'Reilly Auto Parts en Wallace,,Wallace,NC,,US,+1 910-285-2121,https://locations.oreillyauto.com/nc/wallace/autopartes-3951.html,Mo-Sa 07:30-21:00; Su 09:00-21:00,O'Reilly Auto Parts,Q7071951
https://locations.oreillyauto.com/nc/wallace/battery-testing-3951.html,oreilly,Your Wallace O'Reilly Auto Parts Store,,Wallace,NC,,US,+1 910-285-2121,https://locations.oreillyauto.com/nc/wallace/battery-testing-3951.html,Mo-Sa 07:30-21:00; Su 09:00-21:00,O'Reilly Auto Parts,Q7071951
287,piggly_wiggly_us,Piggly Wiggly,,Wallace,NC,,US,+1 910-285-7504,https://www.pigglywigglystores.com,,Piggly Wiggly,Q3388303
nc_wallace_1375-n-norwood-st,pizza_hut_us,1375 N Norwood St,,Wallace,NC,,US,+1 910-285-4703,https://locations.pizzahut.com/nc/wallace/1375-n-norwood-st,,Pizza Hut,Q191615
1812,rentacenter,Rent-A-Center,,Wallace,NC,,US,+1 910-285-2489,https://locations.rentacenter.com/north-carolina/wallace/5620-s-nc-hwy-41/,Mo-Sa 10:00-18:00,Rent-A-Center,Q7313497
3687,shellrecharge,Piggly Wiggly Wallace,,Wallace,NC,,US,,,,Shell Recharge,Q105883058
https://restaurants.subway.com/#14905491,subway,Subway Wallace Pointe Shopping Center,,Wallace Duplin,NC,,US,+1 910-285-9911,https://restaurants.subway.com/united-states/nc/wallace/5680-nc-highway-41,Mo-Su 08:00-21:30,Subway,Q244457
https://locations.tacobell.com/#6142950,taco_bell,Taco Bell,,Wallace,NC,,US,+1 910-285-8677,https://locations.tacobell.com/nc/wallace/5710-s-nc-41-hwy.html,Mo-Th 08:00-24:00; Fr-Sa 08:00-01:00; Su 08:00-24:00,Taco Bell,Q752941
1386257,usps,WALLACE,,WALLACE,NC,,US,+1 910-285-2389,,Mo-Fr 08:30-16:30; Sa 09:00-12:00,United States Postal Service,Q668687
2846600008,usps_collection_boxes,USPS COLLECTION BOX - BLUE BOX,202 E SOUTHERLAND ST,WALLACE,NC,,US,,,,United States Postal Service,Q668687
2846600009,usps_collection_boxes,USPS COLLECTION BOX - BLUE BOX,202 E SOUTHERLAND ST,WALLACE,NC,,US,,,,United States Postal Service,Q668687
2846600011,usps_collection_boxes,USPS COLLECTION BOX - PO LOBBY,202 E SOUTHERLAND ST,WALLACE,NC,,US,,,,United States Postal Service,Q668687
2846600012,usps_collection_boxes,USPS COLLECTION BOX - PO LOBBY,202 E SOUTHERLAND ST,WALLACE,NC,,US,,,,United States Postal Service,Q668687
2846600014,usps_collection_boxes,USPS COLLECTION BOX - PO LOBBY,202 E SOUTHERLAND ST,WALLACE,NC,,US,,,,United States Postal Service,Q668687
A00000201355,verizon_us,Victra Wallace,,Wallace,NC,,US,+1 910-665-3043,https://www.verizon.com/stores/details/north-carolina/wallace/victra-wallace-1535322/,Mo-Sa 09:00-19:00; Su 11:00-18:00,Verizon,Q919641
,visa,,,WALLACE,NC,,US,,,,,
,visa,,,WALLACE,NC,,US,,,,,
,visa,,,WALLACE,NC,,US,,,,,
,visa,,,WALLACE,NC,,US,,,,,
,visa,,,WALLACE,NC,,US,,,,,
,visa,,,WALLACE,NC,,US,,,,,
,visa,,,WALLACE,NC,,US,,,,,
,visa,,,WALLACE,NC,,US,,,,,
,visa,,,WALLACE,NC,,US,,,,,
,visa,,,WALLACE,NC,,US,,,,,
,visa,,,WALLACE,NC,,US,,,,,
,visa,,,WALLACE,NC,,US,,,,,
,visa,,,WALLACE,NC,,US,,,,,
,visa,,,WALLACE,NC,,US,,,,,
,visa,,,WALLACE,NC,,US,,,,,
,visa,,,WALLACE,NC,,US,,,,,
,visa,,,WALLACE,NC,,US,,,,,
,visa,,,WALLACE,NC,,US,,,,,
https://www.walgreens.com/locator/walgreens-5717+s+nc+41+hwy-wallace-nc-28466/id=10088,walgreens,Walgreens,,Wallace,NC,,US,+1 910-285-6481,https://www.walgreens.com/locator/walgreens-5717+s+nc+41+hwy-wallace-nc-28466/id=10088,Mo-Su 09:00-21:00,Walgreens,Q1591889
https://locations.wendys.com/#1004642366,wendys,"Wendy's Tobacco Rd in Wallace, NC",,Wallace,NC,,US,+1 910-463-1063,https://locations.wendys.com/united-states/nc/wallace/117-tobacco-rd,"Mo-Su 06:30-10:30,06:30-22:00",Wendy's,Q550258
809210d160479d530fbe02fe8a22a219,western_union,FOOD LION #1550,,Wallace,NC,,US,+1 910-285-2445,https://location.westernunion.com/us/nc/wallace/809210d160479d530fbe02fe8a22a219,Mo-Su 07:00-23:00,Western Union,Q861042
f88a5874ee5315b69cedc29681a7b569,western_union,C & M SERVICE,,Wallace,NC,,US,+1 910-285-0887,https://location.westernunion.com/us/nc/wallace/f88a5874ee5315b69cedc29681a7b569,Mo-Su 09:00-21:00,Western Union,Q861042
43ddca535b990a009f8218b02d17f177,western_union,WALMART #001352,,Wallace,NC,,US,+1 910-285-2078,https://location.westernunion.com/us/nc/wallace/43ddca535b990a009f8218b02d17f177,Mo-Su 07:00-21:00,Western Union,Q861042
87fd59f1c79fb6d0f183fb6b288efda1,western_union,WOODFOREST #0866,,Wallace,NC,,US,+1 910-285-3579,https://location.westernunion.com/us/nc/wallace/87fd59f1c79fb6d0f183fb6b288efda1,Mo-We 10:00-18:00; Th-Fr 10:00-19:00; Sa 10:00-18:00,Western Union,Q861042
1e0e318a7454e0f7bcc8b1b1ee670c63,western_union,SCOTCHMAN #3028,,Wallace,NC,,US,+1 910-285-3052,https://location.westernunion.com/us/nc/wallace/1e0e318a7454e0f7bcc8b1b1ee670c63,Mo-Su 06:00-22:00,Western Union,Q861042
