Ref,Spider,Name,Address,City,State,Zipcode,Country,Phone,Website,Hours,Brand,WikiData
222246,bluerhino,Old Brunswick Store,,Oak Island,NC,,US,+1 910-278-5061,,,Blue Rhino,Q65681213
222245,bluerhino,Island Express Mart,,Oak Island,NC,,US,+1 910-278-7700,,,Blue Rhino,Q65681213
89182,bluerhino,Food Lion #2114,,Oak Island,NC,,US,+1 910-278-7291,,,Blue Rhino,Q65681213
236031,bluerhino,Circle K #2723135,,Oak Island,NC,,US,+1 910-278-5749,,,Blue Rhino,Q65681213
44242,citi,ATM Circle K,,Oak Island,NC,,US,,,,Citibank,Q857063
8945,dominos_pizza_us,Domino's Pizza,,Oak Island,NC,,US,+1 910-278-9111,https://pizza.dominos.com/north-carolina/oak-island/5001-east-oak-island-dr,Mo-Th 10:30-24:00; Fr-Sa 10:30-01:00; Su 10:30-24:00,Domino's,Q839466
E153H4,enterprise,Southport,,Southport,NC,,US,+1 910-454-8943,,,Enterprise Rent-A-Car,Q17085454
2846500005,usps_collection_boxes,USPS COLLECTION BOX - PO LOBBY,5703 E OAK ISLAND DR,OAK ISLAND,NC,,US,,,,United States Postal Service,Q668687
2846500003,usps_collection_boxes,USPS COLLECTION BOX - BLUE BOX,4601 E OAK ISLAND DR,OAK ISLAND,NC,,US,,,,United States Postal Service,Q668687
,visa,,,YAUPON BEACH,NC,,US,,,,,
,visa,,,LONG BEACH,NC,,US,,,,,
,visa,,,LONG BEACH,NC,,US,,,,,
,visa,,,OAK ISLAND,NC,,US,,,,,
,visa,,,OAK ISLAND,NC,,US,,,,,
,visa,,,OAK ISLAND,NC,,US,,,,,
,visa,,,OAK ISLAND,NC,,US,,,,,
,visa,,,OAK ISLAND,NC,,US,,,,,
,visa,,,OAK ISLAND,NC,,US,,,,,
,visa,,,OAK ISLAND,NC,,US,,,,,
,visa,,,OAK ISLAND,NC,,US,,,,,
,visa,,,OAK ISLAND,NC,,US,,,,,
,visa,,,OAK ISLAND,NC,,US,,,,,
,visa,,,OAK ISLAND,NC,,US,,,,,
,visa,,,OAK ISLAND,NC,,US,,,,,
,visa,,,OAK ISLAND,NC,,US,,,,,
fedbc659afd0b243d985ec5fd9014194,western_union,PUBLIX #1703,,Oak Island,NC,,US,+1 910-278-6785,https://location.westernunion.com/us/nc/oak-island/fedbc659afd0b243d985ec5fd9014194,Mo-Su 07:00-21:00,Western Union,Q861042
