Ref,Spider,Name,Address,City,State,Zipcode,Country,Phone,Website,Hours,Brand,WikiData
DE015003,aldi_nord_de,ALDI Nord,,Leer (Ostfriesland),Niedersachsen,,DE,+49 800 7234870,,Mo-Sa 07:00-20:00,ALDI Nord,Q41171373
DE015080,aldi_nord_de,ALDI Nord,,Leer (Ostfriesland),Niedersachsen,,DE,+49 800 7234870,,Mo-Sa 07:00-20:00,ALDI Nord,Q41171373
DE01530,aldi_nord_de,ALDI Nord,,Leer (Ostfriesland),Niedersachsen,,DE,+49 800 7234870,,Mo-Sa 07:00-20:00,ALDI Nord,Q41171373
DE015072,aldi_nord_de,ALDI Nord,,Leer,Niedersachsen,,DE,+49 800 7234870,,Mo-Sa 07:00-20:00,ALDI Nord,Q41171373
55186378,deichmann,DEICHMANN Filiale Leer Mühlenstraße 128,,Leer,Niedersachsen,,DE,+49 491 9250851,https://stores.deichmann.com/de-de/de/niedersachsen/leer/muehlenstrasse-128,Mo-Fr 09:00-19:00; Sa 09:00-18:00,Deichmann,Q664543
10002116,edeka_de,nah & gut Leer,,Leer,Niedersachsen,,DE,+49 491 9711650,https://www.edeka.de/eh/minden-hannover/nah-gut-leer-logaer-weg-146/index.jsp,Mo-Sa 07:00-21:00,nah und gut,Q701755
4811082,edeka_de,Nah und Gut Blank,,Leer,Niedersachsen,,DE,+49 491 3250,,Mo-Sa 07:00-20:00,nah und gut,Q701755
DE0261,hm,Mühlenstraße 125,,Leer,Niedersachsen,,DE,+49 800 6655900,,Mo-Fr 10:00-18:30; Sa 10:00-18:00,H&M,Q188326
GS0000309,mercedes_benz,Autohaus Völcker und Peters GmbH,,Leer,Niedersachsen,,DE,+49 491 977660,https://www.voelcker-peters.mercedes-benz.de,,Mercedes-Benz,Q36008
7122,netto_de,Netto Marken-Discount,,Leer,Niedersachsen,,DE,,https://www.netto-online.de/filialen/leer/papenburger-str-11/7122,Mo-Sa 07:00-21:00,Netto Marken-Discount,Q879858
LEM,storebox,Storebox Leer Mühlenstraße,"Mühlenstraße 128, 26789 Leer (Ostfriesland), Deutschland ",Leer (Ostfriesland),Niedersachsen,,DE,,https://www.yourstorebox.com/en/location-details/storebox-leer-muehlenstrasse,,Storebox,Q117430004
4024,tedi,TEDi GmbH & Co. KG,,Leer,NIEDERSACHSEN,,DE,+49 231 555770,https://www.tedi.com/stores/4024/de/NIEDERSACHSEN/Leer/Georgstrasse-11-19,Mo-Sa 00:00-24:00,TEDi,Q1364603
,visa,,,LEER,NIEDERSACHSEN,,DE,,,,,
,visa,,,LEER,NIEDERSACHSEN,,DE,,,,,
,visa,,,LEER,NIEDERSACHSEN,,DE,,,,,
,visa,,,LEER,NIEDERSACHSEN,,DE,,,,,
,visa,,,LEER - LOGA,NIEDERSACHSEN,,DE,,,,,
,visa,,,LEER,NIEDERSACHSEN,,DE,,,,,
,visa,,,LEER,NIEDERSACHSEN,,DE,,,,,
28fb5ce0351151f5edee2b743029ffed,western_union,AFRO ASIA SHOP,,Leer Ostfriesland,NIEDERSACHSEN,,DE,+49 177 3773801,https://location.westernunion.com/de/niedersachsen/leer-ostfriesland/28fb5ce0351151f5edee2b743029ffed,Mo-Su 08:00-20:00,Western Union,Q861042
