Ref,Spider,Name,Address,City,State,Zipcode,Country,Phone,Website,Hours,Brand,WikiData
1421,first_cash,First Cash Pawn,,Aguascalientes,Aguascalientes,,MX,+52 449 977 6830,,,First Cash Pawn,
4276,first_cash,First Cash Pawn,,Aguascalientes,Aguascalientes,,MX,+52 449 624 2085,,,First Cash Pawn,
,visa,,,AGUASCALIENTES,AGUASCALIENTES,,MX,,,,,
,visa,,,AGUASCALIENTES,AGUASCALIENTES,,MX,,,,,
713b41ee9b0f9c986b8554025e2d2cc3,western_union,OXXO LOS ARELLANO AGUASCALIENTES,,Aguascalientes,AGUASCALIENTES,,MX,+52 81 8389 2121,https://location.westernunion.com/mx/aguascalientes/aguascalientes/713b41ee9b0f9c986b8554025e2d2cc3,Mo-Su 08:00-22:00,Western Union,Q861042
d3444d2b5db595f75c29c7308e33fc4a,western_union,OXXO LOS ARELLANO AGUASCALIENTES,,Aguascalientes,AGUASCALIENTES,,MX,+52 81 8389 2121,https://location.westernunion.com/mx/aguascalientes/aguascalientes/d3444d2b5db595f75c29c7308e33fc4a,Mo-Su 08:00-22:00,Western Union,Q861042
b32d9fcd38d3dbf8846762f5f3840905,western_union,OXXO LOS ARELLANO AGUASCALIENTES,,Aguascalientes,AGUASCALIENTES,,MX,+52 81 8389 2121,https://location.westernunion.com/mx/aguascalientes/aguascalientes/b32d9fcd38d3dbf8846762f5f3840905,Mo-Su 08:00-22:00,Western Union,Q861042
bbcf1efc34a24b4af4a34caee61397e0,western_union,OXXO PASEOS DE SAN ANTONIO II AGU,,Aguascalientes,AGUASCALIENTES,,MX,+52 81 8389 2121,https://location.westernunion.com/mx/aguascalientes/aguascalientes/bbcf1efc34a24b4af4a34caee61397e0,Mo-Su 06:00-22:00,Western Union,Q861042
f428c810a6da6ea0bb53b69dabf193b0,western_union,OXXO PASEOS DE SAN ANTONIO II AGU,,Aguascalientes,AGUASCALIENTES,,MX,+52 81 8389 2121,https://location.westernunion.com/mx/aguascalientes/aguascalientes/f428c810a6da6ea0bb53b69dabf193b0,Mo-Su 06:00-22:00,Western Union,Q861042
153ae59821111ce507dda7f8715e504d,western_union,OXXO PASEOS DE SAN ANTONIO II AGU,,Aguascalientes,AGUASCALIENTES,,MX,+52 81 8389 2121,https://location.westernunion.com/mx/aguascalientes/aguascalientes/153ae59821111ce507dda7f8715e504d,Mo-Su 06:00-22:00,Western Union,Q861042
609dbcd12b18dd890726f7b0c3d26597,western_union,OXXO SAN SEBASTIAN AGU,,Aguascalientes,AGUASCALIENTES,,MX,+52 81 8389 2121,https://location.westernunion.com/mx/aguascalientes/aguascalientes/609dbcd12b18dd890726f7b0c3d26597,Mo-Su 08:00-22:00,Western Union,Q861042
2f2c00626c2766cdf7ea66ab3efa5ec7,western_union,OXXO SAN SEBASTIAN AGU,,Aguascalientes,AGUASCALIENTES,,MX,+52 81 8389 2121,https://location.westernunion.com/mx/aguascalientes/aguascalientes/2f2c00626c2766cdf7ea66ab3efa5ec7,Mo-Su 08:00-22:00,Western Union,Q861042
6a827c384991bdb8d02005e881adb4e8,western_union,OXXO SAN SEBASTIAN AGU,,Aguascalientes,AGUASCALIENTES,,MX,+52 81 8389 2121,https://location.westernunion.com/mx/aguascalientes/aguascalientes/6a827c384991bdb8d02005e881adb4e8,Mo-Su 08:00-22:00,Western Union,Q861042
76d712f1e26b386f34b9a1eadeaf7d25,western_union,OXXO HEROE INMORTAL AGU,,Aguascalientes,AGUASCALIENTES,,MX,+52 81 8389 2121,https://location.westernunion.com/mx/aguascalientes/aguascalientes/76d712f1e26b386f34b9a1eadeaf7d25,Mo-Su 08:00-22:00,Western Union,Q861042
47534048bd3cfd3194f32fd8d3a89353,western_union,OXXO HEROE INMORTAL AGU,,Aguascalientes,AGUASCALIENTES,,MX,+52 81 8389 2121,https://location.westernunion.com/mx/aguascalientes/aguascalientes/47534048bd3cfd3194f32fd8d3a89353,Mo-Su 08:00-22:00,Western Union,Q861042
a9c93333013c074984574fd7ca0d8aca,western_union,OXXO HEROE INMORTAL AGU,,Aguascalientes,AGUASCALIENTES,,MX,+52 81 8389 2121,https://location.westernunion.com/mx/aguascalientes/aguascalientes/a9c93333013c074984574fd7ca0d8aca,Mo-Su 08:00-22:00,Western Union,Q861042
437384fbceddef9086ed54b13f011b18,western_union,OXXO MEXICO LIBRE AGU,,Aguascalientes,AGUASCALIENTES,,MX,+52 81 8389 2121,https://location.westernunion.com/mx/aguascalientes/aguascalientes/437384fbceddef9086ed54b13f011b18,Mo-Su 08:00-22:00,Western Union,Q861042
fd38df608b9334f15f1cc2d20d420481,western_union,OXXO MEXICO LIBRE AGU,,Aguascalientes,AGUASCALIENTES,,MX,+52 81 8389 2121,https://location.westernunion.com/mx/aguascalientes/aguascalientes/fd38df608b9334f15f1cc2d20d420481,Mo-Su 08:00-22:00,Western Union,Q861042
c2ac6334f1f66784e8ab1bc4b6b17014,western_union,OXXO MEXICO LIBRE AGU,,Aguascalientes,AGUASCALIENTES,,MX,+52 81 8389 2121,https://location.westernunion.com/mx/aguascalientes/aguascalientes/c2ac6334f1f66784e8ab1bc4b6b17014,Mo-Su 08:00-22:00,Western Union,Q861042
7cc2a66a769aa534fc68808c5f7d061d,western_union,OXXO LOMASDEVISTABELLABJX,,Aguascalientes,AGUASCALIENTES,,MX,+52 81 8389 2121,https://location.westernunion.com/mx/aguascalientes/aguascalientes/7cc2a66a769aa534fc68808c5f7d061d,Mo-Su 08:00-22:00,Western Union,Q861042
769f24ac680c33e6cb12f073d85e65cb,western_union,OXXO LOMASDEVISTABELLABJX,,Aguascalientes,AGUASCALIENTES,,MX,+52 81 8389 2121,https://location.westernunion.com/mx/aguascalientes/aguascalientes/769f24ac680c33e6cb12f073d85e65cb,Mo-Su 08:00-22:00,Western Union,Q861042
a7f744e70cdab198af8a01ace88e0aab,western_union,OXXO LOMASDEVISTABELLABJX,,Aguascalientes,AGUASCALIENTES,,MX,+52 81 8389 2121,https://location.westernunion.com/mx/aguascalientes/aguascalientes/a7f744e70cdab198af8a01ace88e0aab,Mo-Su 08:00-22:00,Western Union,Q861042
50c3b5b253fd936fa003ca4a4dd3bf11,western_union,OXXO PASEOS DE SAN ANTONIO BJX,,Aguascalientes,AGUASCALIENTES,,MX,+52 81 8389 2121,https://location.westernunion.com/mx/aguascalientes/aguascalientes/50c3b5b253fd936fa003ca4a4dd3bf11,Mo-Su 08:00-22:00,Western Union,Q861042
8ec4810383af85e4410f0b0b41e4ab9f,western_union,OXXO PASEOS DE SAN ANTONIO BJX,,Aguascalientes,AGUASCALIENTES,,MX,+52 81 8389 2121,https://location.westernunion.com/mx/aguascalientes/aguascalientes/8ec4810383af85e4410f0b0b41e4ab9f,Mo-Su 08:00-22:00,Western Union,Q861042
e115ae839178f83f1448f6a1c6125729,western_union,OXXO PASEOS DE SAN ANTONIO BJX,,Aguascalientes,AGUASCALIENTES,,MX,+52 81 8389 2121,https://location.westernunion.com/mx/aguascalientes/aguascalientes/e115ae839178f83f1448f6a1c6125729,Mo-Su 08:00-22:00,Western Union,Q861042
9836fed9195030a2cd36fb879bc155fb,western_union,OXXO 30 DE JULIO AGU,,Aguascalientes,AGUASCALIENTES,,MX,+52 81 8389 2121,https://location.westernunion.com/mx/aguascalientes/aguascalientes/9836fed9195030a2cd36fb879bc155fb,Mo-Su 08:00-22:00,Western Union,Q861042
ffec3d6d3a8102238358470d9cf0dfde,western_union,OXXO 30 DE JULIO AGU,,Aguascalientes,AGUASCALIENTES,,MX,+52 81 8389 2121,https://location.westernunion.com/mx/aguascalientes/aguascalientes/ffec3d6d3a8102238358470d9cf0dfde,Mo-Su 08:00-22:00,Western Union,Q861042
d502aa73cd267048fe04214a280674eb,western_union,OXXO 30 DE JULIO AGU,,Aguascalientes,AGUASCALIENTES,,MX,+52 81 8389 2121,https://location.westernunion.com/mx/aguascalientes/aguascalientes/d502aa73cd267048fe04214a280674eb,Mo-Su 08:00-22:00,Western Union,Q861042
6dc97a30544623e6403864e42ed377d1,western_union,TELECOMM 01014,,Aguascalientes,AGUASCALIENTES,,MX,+52 800 800 8930,https://location.westernunion.com/mx/aguascalientes/aguascalientes/6dc97a30544623e6403864e42ed377d1,Mo-Su 09:00-20:00,Western Union,Q861042
594f999265fcde7a73b0e9718d8e4007,western_union,TELECOMM 01014,,Aguascalientes,AGUASCALIENTES,,MX,+52 800 800 8930,https://location.westernunion.com/mx/aguascalientes/aguascalientes/594f999265fcde7a73b0e9718d8e4007,Mo-Fr 09:00-15:00,Western Union,Q861042
d66e5be585aa89bcbbf068e28c890dbc,western_union,TELECOMM 01014,,Aguascalientes,AGUASCALIENTES,,MX,+52 800 800 9889,https://location.westernunion.com/mx/aguascalientes/aguascalientes/d66e5be585aa89bcbbf068e28c890dbc,Mo-Fr 09:00-15:00,Western Union,Q861042
a6b702dab7e126449b8968b0fe385d99,western_union,AURRERA MARIANO HIDALGO 3714,,Aguascalientes,AGUASCALIENTES,,MX,+52 800 833 4700,https://location.westernunion.com/mx/aguascalientes/aguascalientes/a6b702dab7e126449b8968b0fe385d99,Mo-Su 07:00-23:00,Western Union,Q861042
48c53309511704d6e5885f3572c265cd,western_union,AURRERA MARIANO HIDALGO 3714,,Aguascalientes,AGUASCALIENTES,,MX,+52 800 833 4700,https://location.westernunion.com/mx/aguascalientes/aguascalientes/48c53309511704d6e5885f3572c265cd,Mo-Su 07:00-23:00,Western Union,Q861042
4ac934e0f69e880f18c50093a2f4861c,western_union,OXXO MARIANO HIDALGO AGU,,Aguascalientes,AGUASCALIENTES,,MX,+52 81 8389 2121,https://location.westernunion.com/mx/aguascalientes/aguascalientes/4ac934e0f69e880f18c50093a2f4861c,Mo-Su 06:00-22:00,Western Union,Q861042
dbdbd3c5d9e3575441104782eb4b7519,western_union,OXXO MARIANO HIDALGO AGU,,Aguascalientes,AGUASCALIENTES,,MX,+52 81 8389 2121,https://location.westernunion.com/mx/aguascalientes/aguascalientes/dbdbd3c5d9e3575441104782eb4b7519,Mo-Su 06:00-22:00,Western Union,Q861042
1d20d7c17bb943d477670324d9e4fe19,western_union,OXXO MARIANO HIDALGO AGU,,Aguascalientes,AGUASCALIENTES,,MX,+52 81 8389 2121,https://location.westernunion.com/mx/aguascalientes/aguascalientes/1d20d7c17bb943d477670324d9e4fe19,Mo-Su 06:00-22:00,Western Union,Q861042
95ac9cbf9c08f8fcb93ce3e24823bd89,western_union,OXXO CORREGIDORA AGU,,Aguascalientes,AGUASCALIENTES,,MX,+52 81 8389 2121,https://location.westernunion.com/mx/aguascalientes/aguascalientes/95ac9cbf9c08f8fcb93ce3e24823bd89,Mo-Su 08:00-22:00,Western Union,Q861042
bb5f284606030787060127db9160eb54,western_union,OXXO CORREGIDORA AGU,,Aguascalientes,AGUASCALIENTES,,MX,+52 81 8389 2121,https://location.westernunion.com/mx/aguascalientes/aguascalientes/bb5f284606030787060127db9160eb54,Mo-Su 08:00-22:00,Western Union,Q861042
be24894cca95600fe052f8506b49be92,western_union,OXXO CORREGIDORA AGU,,Aguascalientes,AGUASCALIENTES,,MX,+52 81 8389 2121,https://location.westernunion.com/mx/aguascalientes/aguascalientes/be24894cca95600fe052f8506b49be92,Mo-Su 08:00-22:00,Western Union,Q861042
87e48a9e4fd723d11df4281e7fc209b8,western_union,EKT 9979 AV AGUASCALIENTES,,Aguascalientes,AGUASCALIENTES,,MX,+52 55 1720 8177,https://location.westernunion.com/mx/aguascalientes/aguascalientes/87e48a9e4fd723d11df4281e7fc209b8,Mo-Su 09:00-21:00,Western Union,Q861042
9ed515460cb4ca327aff21a385f54e82,western_union,EKT 9979 AV AGUASCALIENTES,,Aguascalientes,AGUASCALIENTES,,MX,+52 55 1720 8177,https://location.westernunion.com/mx/aguascalientes/aguascalientes/9ed515460cb4ca327aff21a385f54e82,Mo-Su 09:00-21:00,Western Union,Q861042
909b2e7e96adeeca257758ad2d2799a1,western_union,EKT 9979 AV AGUASCALIENTES,,Aguascalientes,AGUASCALIENTES,,MX,+52 55 1720 8177,https://location.westernunion.com/mx/aguascalientes/aguascalientes/909b2e7e96adeeca257758ad2d2799a1,Mo-Su 09:00-21:00,Western Union,Q861042
