Ref,Spider,Name,Address,City,State,Zipcode,Country,Phone,Website,Hours,Brand,WikiData
PY_63,shell,Shell Ypehu - KM 385,,YPEHU,CANINDEYU,,PY,+595 41 75000,,24/7,Shell,Q110716465
PY_190,shell,Shell Corpus Christi - KM 366,,CORPUS CHRISTI,CANINDEYU,,PY,+595 41 75000,,24/7,Shell,Q110716465
PY_106,shell,Shell Salto Del Guairá KM 410,,SALTO DEL GUAIRA,CANINDEYU,,PY,+595 41 75000,,24/7,Shell,Q110716465
PY_262,shell,Shell Salto Del Guairá KM 411,,SALTO DEL GUAIRA,CANINDEYU,,PY,+595 41 75000,,24/7,Shell,Q110716465
PY_201,shell,Shell Salto Del Guairá KM 425,,SALTO DEL GUAIRA,CANINDEYU,,PY,+595 41 75000,,24/7,Shell,Q110716465
PY_237,shell,Shell Salto Del Guairá - KM 410,,SALTO DEL GUAIRA,CANINDEYU,,PY,+595 41 75000,,24/7,Shell,Q110716465
PY_235,shell,Shell Salto Del Guairá - KM 415,,SALTO DEL GUAIRA,CANINDEYU,,PY,+595 41 75000,,24/7,Shell,Q110716465
PY_248,shell,Shell Calle 10,,SALTO DEL GUAIRA,CANINDEYU,,PY,+595 41 75000,,24/7,Shell,Q110716465
PY_21,shell,Shell La Paloma - Ruta N°10 KM 420,,LA PALOMA,CANINDEYU,,PY,+595 41 75000,,24/7,Shell,Q110716465
PY_9,shell,Shell Salto Del Guairá KM 346,,SALTO DEL GUAIRA,CANINDEYU,,PY,+595 41 75000,,24/7,Shell,Q110716465
PY_148,shell,Shell Nueva Esperanza - KM 475,,NUEVA ESPERANZA,CANINDEYU,,PY,+595 41 75000,,24/7,Shell,Q110716465
PY_119,shell,Shell Yby Pyta,,YBY PYTA,CANINDEYU,,PY,+595 41 75000,,24/7,Shell,Q110716465
,visa,,,SALTO DEL GUAIRA,CANINDEYU,,PY,,,,,
,visa,,,SALTO DEL GUAIRA,CANINDEYU,,PY,,,,,
,visa,,,SALTO DEL GUAIRA,CANINDEYU,,PY,,,,,
,visa,,,KATUETE,CANINDEYU,,PY,,,,,
,visa,,,KATUETE,CANINDEYU,,PY,,,,,
,visa,,,KATUETE,CANINDEYU,,PY,,,,,
,visa,,,KATUETE,CANINDEYU,,PY,,,,,
,visa,,,KATUETE,CANINDEYU,,PY,,,,,
,visa,,,KATUETE,CANINDEYU,,PY,,,,,
,visa,,,KATUETE,CANINDEYU,,PY,,,,,
,visa,,,KATUETE,CANINDEYU,,PY,,,,,
,visa,,,NUEVA ESPERANZA,CANINDEYU,,PY,,,,,
,visa,,,NUEVA ESPERANZA,CANINDEYU,,PY,,,,,
,visa,,,NUEVA ESPERANZA,CANINDEYU,,PY,,,,,
,visa,,,CURUGUATY,CANINDEYU,,PY,,,,,
,visa,,,CURUGUATY,CANINDEYU,,PY,,,,,
,visa,,,CURUGUATY,CANINDEYU,,PY,,,,,
,visa,,,CURUGUATY,CANINDEYU,,PY,,,,,
,visa,,,SALTO DEL GUAIRA,CANINDEYU,,PY,,,,,
1a6f4d38300981e215225bfc885f5921,western_union,FARMA 7,,Salto Del Guaira,CANINDEYU,,PY,+595 985 250777,https://location.westernunion.com/py/canindeyu/salto-del-guaira/1a6f4d38300981e215225bfc885f5921,Mo-Su 08:00-19:00,Western Union,Q861042
e511adb292880a48cd6c1a30c576c335,western_union,CAMBIOS ALBERDI,,Salto Del Guaira,CANINDEYU,,PY,+595 21 618 8000,https://location.westernunion.com/py/canindeyu/salto-del-guaira/e511adb292880a48cd6c1a30c576c335,Mo-Fr 08:00-18:00; Sa 08:00-12:00,Western Union,Q861042
a5482b8a82b3070f3a33462aa83281b2,western_union,FARMACIA FRANCO,,Salto Del Guaira,CANINDEYU,,PY,+595 21 618 8000,https://location.westernunion.com/py/canindeyu/salto-del-guaira/a5482b8a82b3070f3a33462aa83281b2,Mo-Sa 07:00-22:00; Su 07:00-18:00,Western Union,Q861042
8f9740a52cdd80edc7ef8bbc0b245c92,western_union,FARMA 7,,Salto Del Guaira,CANINDEYU,,PY,+595 985 250777,https://location.westernunion.com/py/canindeyu/salto-del-guaira/8f9740a52cdd80edc7ef8bbc0b245c92,Mo-Su 08:00-19:00,Western Union,Q861042
1d33166c219f542b328056a8bc605f6a,western_union,JUANI CELL,,Nueva Esperanza,CANINDEYU,,PY,+595 21 289 1000,https://location.westernunion.com/py/canindeyu/nueva-esperanza/1d33166c219f542b328056a8bc605f6a,Mo-Fr 08:00-16:00; Sa 08:00-12:00,Western Union,Q861042
0745bddbae130e94dd1125aecabd9120,western_union,FRANCISCO CABALLERO SR NOVEDADES,,"Francisco Caballero Alvarez,",CANINDEYU,,PY,(+595) 02102891000,"https://location.westernunion.com/py/canindeyu/francisco-caballero-alvarez,/0745bddbae130e94dd1125aecabd9120",Mo-Fr 08:00-17:00; Sa 08:00-12:00,Western Union,Q861042
38965dc4e1da08dcf9a1f7d103059308,western_union,MOMENTO UNICO,,Francisco Caballero Alvarez,CANINDEYU,,PY,+595 981 757518,https://location.westernunion.com/py/canindeyu/francisco-caballero-alvarez/38965dc4e1da08dcf9a1f7d103059308,Mo-Su 07:00-20:00,Western Union,Q861042
ecce483f02e64fb0e51141f17037e8d4,western_union,ESTRELLA SERVICE,,Mauricio J. Troche,CANINDEYU,,PY,+595 21 289 1000,https://location.westernunion.com/py/canindeyu/mauricio-j.-troche/ecce483f02e64fb0e51141f17037e8d4,Mo-Fr 08:00-16:00; Sa 08:00-12:00,Western Union,Q861042
ef13775335f5f08b74726d4a63323521,western_union,CASA CHINA,,Katuete,CANINDEYU,,PY,+595 981 108179,https://location.westernunion.com/py/canindeyu/katuete/ef13775335f5f08b74726d4a63323521,Mo-Su 07:00-20:00,Western Union,Q861042
bf909bc79e95d731eb5589e8bd55f93a,western_union,BANCO RIO  SAECA,,Katuete,CANINDEYU,,PY,+595 47 123 4470,https://location.westernunion.com/py/canindeyu/katuete/bf909bc79e95d731eb5589e8bd55f93a,Mo-Fr 08:00-17:00,Western Union,Q861042
ff5669e50a80fb787c5f6f68b85f0961,western_union,PUNTO MARKET,,Curuguaty,CANINDEYU,,PY,+595 994 127372,https://location.westernunion.com/py/canindeyu/curuguaty/ff5669e50a80fb787c5f6f68b85f0961,Mo-Sa 07:00-19:00,Western Union,Q861042
fed56595d1c9c93054182a0442a61e20,western_union,Abi Center,,Katuete,CanindeyU,,PY,+595 981 123139,https://location.westernunion.com/py/canindeyu/katuete/fed56595d1c9c93054182a0442a61e20,Mo-Sa 07:00-20:00,Western Union,Q861042
367c70f9036ede393283cd4616cee1dd,western_union,LIBRERIA GLOBAL,,Corpus Christi,CANINDEYU,,PY,+595 981 757518,https://location.westernunion.com/py/canindeyu/corpus-christi/367c70f9036ede393283cd4616cee1dd,Mo-Su 07:00-20:00,Western Union,Q861042
9d72c1859729304625cf4125a1a2b37f,western_union,LG Cell Variedades,,Ybyrarobana,CanindeyU,,PY,+595 981 123139,https://location.westernunion.com/py/canindeyu/ybyrarobana/9d72c1859729304625cf4125a1a2b37f,Mo-Sa 07:00-20:00,Western Union,Q861042
dfe0247f5e9b4c882f48a0d0edeac4e9,western_union,CIS JUANCHO CELULARES,,Curuguaty,CANINDEYU,,PY,(+0595) 9-91397541,https://location.westernunion.com/py/canindeyu/curuguaty/dfe0247f5e9b4c882f48a0d0edeac4e9,Mo-Sa 07:00-21:00,Western Union,Q861042
4ba853a527801e01e4bff16c337c3add,western_union,ALEXIS COMUNICACIONES,,Curuguaty,CANINDEYU,,PY,+595 981 757518,https://location.westernunion.com/py/canindeyu/curuguaty/4ba853a527801e01e4bff16c337c3add,Mo-Su 07:00-20:00,Western Union,Q861042
27177b73150a8eb2b4260e35b9f7922a,western_union,FG COMUNICACIONES,,Curuguaty,CANINDEYU,,PY,+595 21 289 1000,https://location.westernunion.com/py/canindeyu/curuguaty/27177b73150a8eb2b4260e35b9f7922a,Mo-Fr 09:00-18:00,Western Union,Q861042
9d1b5d6cb2f3ae87db439681c2a7ab2d,western_union,Candia Ayala Leisa,,Curuguaty,CANINDEYU,,PY,+595 21 289 1000,https://location.westernunion.com/py/canindeyu/curuguaty/9d1b5d6cb2f3ae87db439681c2a7ab2d,Mo-Fr 09:00-18:00,Western Union,Q861042
fc50e26230d299271949de990cdce447,western_union,BAZAR EMILY,,Yby Pyta,CANINDEYU,,PY,+595 21 289 1000,https://location.westernunion.com/py/canindeyu/yby-pyta/fc50e26230d299271949de990cdce447,Mo-Sa 07:00-18:00,Western Union,Q861042
09f3dc73d5355f81b377fb690e5771e6,western_union,LIDI CAR,,Yasy Cany,CANINDEYU,,PY,+595 981 380161,https://location.westernunion.com/py/canindeyu/yasy-cany/09f3dc73d5355f81b377fb690e5771e6,Mo-Fr 07:00-20:00; Sa 08:00-18:00; Su 08:00-14:00,Western Union,Q861042
09d4c74eeb5d2351d04adb0e35482316,western_union,PUNTO DE VENTAS ALEJANDRINA,,Yasy Ka�y,CANINDEYU,,PY,+595 981 123139,https://location.westernunion.com/py/canindeyu/yasy-ka�y/09d4c74eeb5d2351d04adb0e35482316,Mo-Su 07:00-20:00,Western Union,Q861042
2d0e07ed5c09985d9964deaa77d6ca0f,western_union,KATHERINE HOTEL,,Jasy Kany,CANINDEYU,,PY,+595 21 618 8000,https://location.westernunion.com/py/canindeyu/jasy-kany/2d0e07ed5c09985d9964deaa77d6ca0f,Mo-Fr 08:00-18:00; Sa 08:00-12:00,Western Union,Q861042
b28bd676603fc69787bd18bc416c05bb,western_union,ALCI CELL,,Ybypyta,CANINDEYU,,PY,+595 21 289 1000,https://location.westernunion.com/py/canindeyu/ybypyta/b28bd676603fc69787bd18bc416c05bb,Mo-Fr 09:00-18:00,Western Union,Q861042
041c124d066af0e0b8bd8f3754991e2a,western_union,CIS FRED CELL,,Yvy Pyta,CANINDEYU,,PY,+595 985 989182,https://location.westernunion.com/py/canindeyu/yvy-pyta/041c124d066af0e0b8bd8f3754991e2a,Mo-Sa 06:00-20:00; Su 08:00-12:00,Western Union,Q861042
69a740e4a38819a32d37d629687b42e3,western_union,MARACANA   COMERCIAL SAN CAYETANO,,Curuguaty,CANINDEYU,,PY,+595 21 289 1000,https://location.westernunion.com/py/canindeyu/curuguaty/69a740e4a38819a32d37d629687b42e3,Mo-Su 07:00-19:00,Western Union,Q861042
71a8f165abe28e381ac2d5446fffb29b,western_union,NOVEDADES DAMARIS,,Maracana,CANINDEYU,,PY,+595 973 846118,https://location.westernunion.com/py/canindeyu/maracana/71a8f165abe28e381ac2d5446fffb29b,Mo-Sa 08:00-18:00,Western Union,Q861042
c2843ba39a2a3e7c1740ba21cd63d4c5,western_union,DyM comunicaciones,,Curuguaty,CANINDEYU,,PY,+595 21 289 1000,https://location.westernunion.com/py/canindeyu/curuguaty/c2843ba39a2a3e7c1740ba21cd63d4c5,Mo-Fr 09:00-18:00,Western Union,Q861042
a6592894bbc7599ebba24a3bb7cc9485,western_union,LOPEZ JORGE LUIS,,Villa Ygatymi,CANINDEYU,,PY,+595 21 289 1000,https://location.westernunion.com/py/canindeyu/villa-ygatymi/a6592894bbc7599ebba24a3bb7cc9485,Mo-Fr 09:00-18:00,Western Union,Q861042
