Ref,Spider,Name,Address,City,State,Zipcode,Country,Phone,Website,Hours,Brand,WikiData
65336159,moneygram,BOC - BJ HENJIZHONGXIN SUB-BRANCH,,BEIJING,,,CN,+86 10 6518 6856,,Mo-Fr 09:00-17:00; Sa-Su 00:00-24:00,MoneyGram,Q1944412
65336162,moneygram,BOC - BJ CHONGWENMEN SUB-BRANCH,,BEIJING,,,CN,+86 10 6524 2514,,Mo-Fr 09:00-17:00; Sa-Su 10:00-16:00,MoneyGram,Q1944412
65336188,moneygram,BOC - BJ BEIDAKU SUB-BRANCH,,BEIJING,,,CN,+86 10 5869 4868,,Mo-Fr 09:00-17:00; Sa-Su 10:00-16:00,MoneyGram,Q1944412
65336191,moneygram,BOC - BJ SONGYULI SUB-BRANCH,,BEIJING,,,CN,+86 10 6732 1789,,Mo-Fr 09:00-17:00; Sa-Su 10:00-16:00,MoneyGram,Q1944412
65336201,moneygram,BOC - BJ PANJIAYUAN SUB-BRANCH,,BEIJING,,,CN,+86 10 8766 5492,,Mo-Fr 09:00-17:00; Sa-Su 10:00-16:00,MoneyGram,Q1944412
65336214,moneygram,BOC - BJ CHONGWAIDAJIE SUB-BRANCH,,BEIJING,,,CN,+86 10 6719 4909,,Mo-Fr 09:00-17:00; Sa-Su 10:00-16:00,MoneyGram,Q1944412
65336230,moneygram,BOC - BJ DONGHUASHI SUB-BRANCH,,BEIJING,,,CN,+86 10 6713 3151,,Mo-Fr 09:00-17:00; Sa-Su 10:00-16:00,MoneyGram,Q1944412
65336243,moneygram,BOC - BJ GUANGHUADONGLU SUB-BRANCH,,BEIJING,,,CN,+86 10 6538 8082,,Mo-Fr 09:00-17:00; Sa-Su 10:00-16:00,MoneyGram,Q1944412
65336272,moneygram,BOC - BJ XUANWU SUB-BRANCH,,BEIJING,,,CN,+86 10 6317 5970,,Mo-Fr 09:00-17:00; Sa-Su 10:00-16:00,MoneyGram,Q1944412
65336285,moneygram,BOC - BJ DACHENGDASHA SUB-BRANCH,,BEIJING,,,CN,+86 10 6642 2091,,Mo-Fr 09:00-17:00; Sa-Su 10:00-16:00,MoneyGram,Q1944412
65336308,moneygram,BOC - BJ XILUOYUAN SUB-BRANCH,,BEIJING,,,CN,+86 10 8720 2256,,Mo-Fr 09:00-17:00; Sa-Su 10:00-16:00,MoneyGram,Q1944412
65336311,moneygram,BOC - BJ LIANHUAHE SUB-BRANCH,,BEIJING,,,CN,+86 10 6326 8090,,Mo-Fr 09:00-17:00; Sa-Su 10:00-16:00,MoneyGram,Q1944412
65336324,moneygram,BOC - BJ XIZHANBEI SUB-BRANCH,,BEIJING,,,CN,+86 10 6395 4280,,Mo-Fr 09:00-17:00; Sa-Su 10:00-16:00,MoneyGram,Q1944412
65336337,moneygram,BOC - BJ TAORANTING SUB-BRANCH,,BEIJING,,,CN,+86 10 6357 1642,,Mo-Fr 09:00-17:00; Sa-Su 10:00-16:00,MoneyGram,Q1944412
65336340,moneygram,BOC - BJ GUANG'ANMEN SUB-BRANCH,,BEIJING,,,CN,+86 10 6320 3662,,Mo-Fr 09:00-17:00; Sa-Su 10:00-16:00,MoneyGram,Q1944412
65336353,moneygram,BOC - BJ ZHUANGSHENGGUANGCHANG SUB-BRANC,,BEIJING,,,CN,+86 10 6301 8972,,Mo-Fr 09:00-17:00; Sa-Su 10:00-16:00,MoneyGram,Q1944412
65336366,moneygram,BOC - BJ FUXINGMEN SUB-BRANCH,,BEIJING,,,CN,+86 10 6801 3090,,Mo-Fr 09:00-17:00; Sa-Su 10:00-16:00,MoneyGram,Q1944412
65336379,moneygram,BOC - BJ ZHINGGUANCUNNANDAJIE SUB-BRANCH,,BEIJING,,,CN,+86 10 6214 0798,,Mo-Fr 09:00-17:00; Sa-Su 10:00-16:00,MoneyGram,Q1944412
65336382,moneygram,BOC - BJ DONGJINGLU SUB-BRANCH,,BEIJING,,,CN,+86 10 6304 1912,,Mo-Fr 09:00-17:00; Sa-Su 10:00-16:00,MoneyGram,Q1944412
65336395,moneygram,BOC - BJ TIANYUANGONGYU SUB-BRANCH,,BEIJING,,,CN,+86 10 6352 3582,,Mo-Fr 09:00-17:00; Sa-Su 10:00-16:00,MoneyGram,Q1944412
65336405,moneygram,BOC - BJ HUFANGLU SUB-BRANCH,,BEIJING,,,CN,+86 10 8315 2312,,Mo-Fr 09:00-17:00; Sa-Su 10:00-16:00,MoneyGram,Q1944412
65336418,moneygram,BOC - BJ WANSHOULU SUB-BRANCH,,BEIJING,,,CN,+86 10 6817 1903,,Mo-Fr 09:00-17:00; Sa-Su 10:00-16:00,MoneyGram,Q1944412
65336421,moneygram,BOC - BJ ZHUTUCHENG SUB-BRANCH,,BEIJING,,,CN,+86 10 6879 0495,,Mo-Fr 09:00-17:00; Sa-Su 10:00-16:00,MoneyGram,Q1944412
65336450,moneygram,BOC - BJ ANLILU SUB-BRANCH,,BEIJING,,,CN,+86 10 6495 5321,,Mo-Fr 09:00-17:00; Sa-Su 10:00-16:00,MoneyGram,Q1944412
65336476,moneygram,BOC - BJ WANGJING SUB-BRANCH,,BEIJING,,,CN,+86 10 6439 2600,,Mo-Fr 09:00-17:00; Sa-Su 10:00-16:00,MoneyGram,Q1944412
65336502,moneygram,BOC - BJ WANGJINGKEJIYUAN SUB-BRANCH,,BEIJING,,,CN,+86 10 6474 1002,,Mo-Fr 09:00-17:00; Sa-Su 10:00-16:00,MoneyGram,Q1944412
65336528,moneygram,BOC - BJ BEICHENXILU SUB-BRANCH,,BEIJING,,,CN,+86 10 8227 5001,,Mo-Fr 09:00-17:00; Sa-Su 10:00-16:00,MoneyGram,Q1944412
65336531,moneygram,BOC - BJ SHIBEISANHUAN SUB-BRANCH,,BEIJING,,,CN,+86 10 8225 4951,,Mo-Fr 09:00-17:00; Sa-Su 10:00-16:00,MoneyGram,Q1944412
65336544,moneygram,BOC - BJ DAXING SUB-BRANCH,,BEIJING,,,CN,+86 10 6924 6990,,Mo-Fr 09:00-17:00; Sa-Su 10:00-16:00,MoneyGram,Q1944412
65336586,moneygram,BOC - #02171 - BJ GAODUAN CHANYE PIANQU,,BEIJING,,,CN,+86 10 6788 8361,,Mo-Fr 09:00-17:00; Sa-Su 10:00-16:00,MoneyGram,Q1944412
65337022,moneygram,BOC - BJ LANGQINYUAN SUB-BRANCH,,BEIJING,,,CN,+86 10 6338 1242,,Mo-Fr 09:00-17:00; Sa-Su 10:00-16:00,MoneyGram,Q1944412
65337035,moneygram,BOC - BJ CHANGPING SUB-BRANCH,,BEIJING,,,CN,+86 10 6974 5394,,Mo-Fr 09:00-17:00; Sa-Su 10:00-16:00,MoneyGram,Q1944412
65337093,moneygram,BOC - BJ SHAHE SUB-BRANCH,,BEIJING,,,CN,+86 10 6973 6977,,Mo-Fr 09:00-17:00; Sa-Su 10:00-16:00,MoneyGram,Q1944412
65337158,moneygram,BOC - BJ DONGHUANLU SUB-BRANCH,,BEIJING,,,CN,+86 10 6971 2445,,Mo-Fr 09:00-17:00; Sa-Su 10:00-16:00,MoneyGram,Q1944412
65337161,moneygram,BOC - BJ XISANQI SUB-BRANCH,,BEIJING,,,CN,+86 10 8292 9185,,Mo-Fr 09:00-17:00; Sa-Su 10:00-16:00,MoneyGram,Q1944412
65337187,moneygram,BOC - BJ TIANTONGYUAN SUB-BRANCH,,BEIJING,,,CN,+86 10 8481 3570,,Mo-Fr 09:00-17:00; Sa-Su 10:00-16:00,MoneyGram,Q1944412
65337190,moneygram,BOC - BJ XUEQINGLU SUB-BRANCH,,BEIJING,,,CN,+86 10 8273 7331,,Mo-Fr 09:00-17:00; Sa-Su 10:00-16:00,MoneyGram,Q1944412
65337271,moneygram,BOC - BJ SHUNYI SUB-BRANCH,,BEIJING,,,CN,+86 10 6942 0846,,Mo-Fr 09:00-17:00; Sa-Su 10:00-16:00,MoneyGram,Q1944412
65337297,moneygram,BOC - BJ MAPO SUB-BRANCH,,BEIJING,,,CN,+86 10 6940 4701,,Mo-Fr 09:00-17:00; Sa-Su 10:00-16:00,MoneyGram,Q1944412
65337307,moneygram,BOC - BJ KONGGANGWANKE SUB-BRANCH,,BEIJING,,,CN,+86 10 8049 3468,,Mo-Fr 09:00-17:00; Sa-Su 10:00-16:00,MoneyGram,Q1944412
65337323,moneygram,BOC - BJ TIANZHU SUB-BRANCH,,BEIJING,,,CN,+86 10 6458 2752,,Mo-Fr 09:00-17:00; Sa-Su 10:00-16:00,MoneyGram,Q1944412
65337349,moneygram,BOC - BJ SHUNYIDONGXING SUB-BRANCH,,BEIJING,,,CN,+86 10 6944 0511,,Mo-Fr 09:00-17:00; Sa-Su 10:00-16:00,MoneyGram,Q1944412
65337378,moneygram,BOC - BJ DONGSANHUANZHONGLU SUB-BRANCH,,BEIJING,,,CN,+86 10 8591 0321,,Mo-Fr 09:00-17:00; Sa 09:00-16:00; Su 10:00-16:00,MoneyGram,Q1944412
65337381,moneygram,BOC - BJ TIANHEXILU SUB-BRANCH,,BEIJING,,,CN,+86 10 6125 2723,,Mo-Fr 09:00-16:30; Sa-Su 00:00-24:00,MoneyGram,Q1944412
65337394,moneygram,BOC - BJ SIFANGXINQU SUB-BRANCH,,BEIJING,,,CN,+86 10 8735 6455,,Mo-Fr 09:00-17:00; Sa-Su 10:00-16:00,MoneyGram,Q1944412
65337404,moneygram,BOC - BJ LINHE DEVELOPMENT AREA SUB-BRAN,,BEIJING,,,CN,+86 10 8949 1993,,Mo-Fr 08:30-17:00; Sa-Su 00:00-24:00,MoneyGram,Q1944412
65337417,moneygram,BOC - BJ SHUNYIQICHECHENG SUB-BRANCH,,BEIJING,,,CN,+86 10 8940 1890,,Mo-Fr 09:00-16:30; Sa-Su 00:00-24:00,MoneyGram,Q1944412
65337459,moneygram,BOC - BJ YUANDALU SUB-BRANCH,,BEIJING,,,CN,+86 10 8887 3292,,Mo-Fr 09:00-17:00; Sa-Su 10:00-16:00,MoneyGram,Q1944412
65337462,moneygram,BOC - BJ YUANYANGTIANDI SUB-BRANCH,,BEIJING,,,CN,+86 10 8586 2014,,Mo-Fr 09:00-17:00; Sa-Su 10:00-16:00,MoneyGram,Q1944412
65337475,moneygram,BOC - BJ JINTAILU SUB-BRANCH,,BEIJING,,,CN,+86 10 6595 6100,,Mo-Fr 09:00-17:00; Sa-Su 10:00-16:00,MoneyGram,Q1944412
65337488,moneygram,BOC - BJ TAYUAN SUB-BRANCH,,BEIJING,,,CN,+86 10 6202 1758,,Mo-Fr 09:00-17:00; Sa-Su 10:00-16:00,MoneyGram,Q1944412
65337501,moneygram,BOC - BJ BEIDA SUB-BRANCH,,BEIJING,,,CN,+86 10 6275 6222,,Mo-Fr 09:00-17:00; Sa-Su 10:00-16:00,MoneyGram,Q1944412
65337530,moneygram,BOC - BJ SHIJICHENG SUB-BRANCH,,BEIJING,,,CN,+86 10 8846 1461,,Mo-Fr 09:00-17:00; Sa-Su 10:00-16:00,MoneyGram,Q1944412
65337543,moneygram,BOC - BJ ZHONGGUANCUNKEJIYUANQU SUB-BRAN,,BEIJING,,,CN,+86 10 8237 9144,,Mo-Fr 09:00-17:00; Sa-Su 10:00-16:00,MoneyGram,Q1944412
65337556,moneygram,BOC - BJ ZAOJUNMIAO SUB-BRANCH,,BEIJING,,,CN,+86 10 6213 6909,,Mo-Fr 09:00-17:00; Sa-Su 10:00-16:00,MoneyGram,Q1944412
65337569,moneygram,BOC - BJ KEJIHUIZHANZHONGXIN SUB-BRANCH,,BEIJING,,,CN,+86 10 8251 1395,,Mo-Fr 09:00-17:00; Sa-Su 00:00-24:00,MoneyGram,Q1944412
65337572,moneygram,BOC - BJ WANLIU SUB-BRANCH,,BEIJING,,,CN,+86 10 8256 6473,,Mo-Fr 09:00-17:00; Sa-Su 10:00-16:00,MoneyGram,Q1944412
65337585,moneygram,BOC - BJ DAYUNCUN SUB-BRANCH,,BEIJING,,,CN,+86 10 8280 0275,,Mo-Fr 09:00-17:00; Sa-Su 10:00-16:00,MoneyGram,Q1944412
65337637,moneygram,BOC - BJ DAWANGLU SUB-BRANCH,,BEIJING,,,CN,+86 10 5863 2973,,Mo-Fr 09:00-17:00; Sa-Su 10:00-16:00,MoneyGram,Q1944412
65337640,moneygram,BOC - BJ RENDA SUB-BRANCH,,BEIJING,,,CN,+86 10 8250 9573,,Mo-Fr 09:00-17:00; Sa-Su 10:00-16:00,MoneyGram,Q1944412
65337695,moneygram,BOC - BJ ZIJIN'GONGYU SUB-BRANCH,,BEIJING,,,CN,+86 10 6277 0915,,Mo-Fr 09:00-17:00; Sa-Su 10:00-16:00,MoneyGram,Q1944412
65337721,moneygram,BOC - BJ WEIGONGCUN SUB-BRANCH,,BEIJING,,,CN,+86 10 6212 0368,,Mo-Fr 09:00-17:00; Sa-Su 10:00-16:00,MoneyGram,Q1944412
65337747,moneygram,BOC - BJ TUANJIEHU SUB-BRANCH,,BEIJING,,,CN,+86 10 6591 4608,,Mo-Fr 09:00-17:00; Sa-Su 10:00-16:00,MoneyGram,Q1944412
65337763,moneygram,BOC - BJ FENGTAI SUB-BRANCH,,BEIJING,,,CN,+86 10 8351 6569,,Mo-Fr 09:00-17:00; Sa-Su 10:00-16:00,MoneyGram,Q1944412
65337776,moneygram,BOC - BJ HAIDIAN SUB-BRANCH,,BEIJING,,,CN,+86 10 8260 7378,,Mo-Fr 09:00-17:00; Sa-Su 10:00-16:00,MoneyGram,Q1944412
65337815,moneygram,BOC - BJ DONGGAODI SUB-BRANCH,,BEIJING,,,CN,+86 10 6797 5764,,Mo-Fr 09:00-17:00; Sa-Su 10:00-16:00,MoneyGram,Q1944412
65337828,moneygram,BOC - BJ ZHONGHANGKEJIDASHA SUB-BRANCH,,BEIJING,,,CN,+86 10 8212 4269,,Mo-Fr 09:00-17:00; Sa-Su 10:00-16:00,MoneyGram,Q1944412
65337857,moneygram,BOC - BJ FENGTAIDONGDAJIE SUB-BRANCH,,BEIJING,,,CN,+86 10 6383 2009,,Mo-Fr 09:00-17:00; Sa-Su 10:00-16:00,MoneyGram,Q1944412
65337873,moneygram,BOC - BJ TAIPINGQIAO SUB-BRANCH,,BEIJING,,,CN,+86 10 5221 8502,,Mo-Fr 09:00-17:00; Sa-Su 10:00-16:00,MoneyGram,Q1944412
65337886,moneygram,BOC - BJ SHUNYIYUXIANGLU SUB-BRANCH,,BEIJING,,,CN,+86 10 8046 6217,,Mo-Fr 09:00-17:00; Sa-Su 00:00-24:00,MoneyGram,Q1944412
65337909,moneygram,BOC - BJ DONGTIEYING SUB-BRANCH,,BEIJING,,,CN,+86 10 8442 6031,,Mo-Fr 09:00-17:00; Sa-Su 10:00-16:00,MoneyGram,Q1944412
65337912,moneygram,BOC - BJ PINGGU SUB-BRANCH,,BEIJING,,,CN,+86 10 6996 1798,,Mo-Su 08:30-17:00,MoneyGram,Q1944412
65337925,moneygram,BOC - BJ FENGTAILU SUB-BRANCH,,BEIJING,,,CN,+86 10 8365 3648,,Mo-Sa 09:00-17:00; Su 10:00-16:00,MoneyGram,Q1944412
65337938,moneygram,BOC - BJ MIYUN SUB-BRANCH,,BEIJING,,,CN,+86 10 6904 3791,,Mo-Fr 08:30-17:00; Sa-Su 09:00-16:00,MoneyGram,Q1944412
65337954,moneygram,BOC - BJ WANQUANHE SUB-BRANCH,,BEIJING,,,CN,+86 10 8265 9293,,Mo-Fr 09:00-17:00; Sa-Su 10:00-16:00,MoneyGram,Q1944412
65337967,moneygram,BOC - BJ MIYUNGULOUDONGDAJIE SUB-BRANCH,,BEIJING,,,CN,+86 10 6904 4815,,Mo-Fr 08:30-17:00; Sa-Su 09:00-16:00,MoneyGram,Q1944412
65337970,moneygram,BOC - BJ CHENGGUANBEIJIE SUB-BRANCH,,BEIJING,,,CN,+86 10 8932 3485,,Mo-Fr 09:00-17:00; Sa-Su 10:00-16:00,MoneyGram,Q1944412
65337996,moneygram,BOC - BJ MIYUNCHENGXI SUB-BRANCH,,BEIJING,,,CN,+86 10 6904 4857,,Mo-Fr 08:30-17:00; Sa-Su 09:00-16:00,MoneyGram,Q1944412
65338018,moneygram,BOC - BJ HUAIROU SUB-BRANCH,,BEIJING,,,CN,+86 10 6968 1704,,Mo-Fr 08:30-17:00; Sa-Su 10:00-16:00,MoneyGram,Q1944412
65338021,moneygram,BOC - BJ MUXIDI SUB-BRANCH,,BEIJING,,,CN,+86 10 6857 1706,,Mo-Fr 09:00-17:00; Sa-Su 10:00-16:00,MoneyGram,Q1944412
65338034,moneygram,BOC - BJ HUAIROUFUQIANJIE SUB-BRANCH,,BEIJING,,,CN,+86 10 6962 9984,,Mo-Fr 08:30-17:00; Sa-Su 10:00-16:00,MoneyGram,Q1944412
65338050,moneygram,BOC - BJ HUAIROUYANXI SUB-BRANCH,,BEIJING,,,CN,+86 10 6166 7742,,Mo-Fr 08:30-17:00; Sa-Su 00:00-24:00,MoneyGram,Q1944412
65338076,moneygram,BOC - BJ BEIJISI SUB-BRANCH,,BEIJING,,,CN,+86 10 8203 0635,,Mo-Fr 09:00-17:00; Sa-Su 10:00-16:00,MoneyGram,Q1944412
65338092,moneygram,BOC - BJ HAIROUFUXI SUB-BRANCH,,BEIJING,,,CN,+86 10 6964 1777,,Mo-Fr 08:30-17:00; Sa-Su 10:00-16:00,MoneyGram,Q1944412
65338131,moneygram,BOC - BJ HUAIROUBEIDAJIE SUB-BRANCH,,BEIJING,,,CN,+86 10 8968 5997,,Mo-Fr 08:30-17:00; Sa-Su 10:00-16:00,MoneyGram,Q1944412
65338144,moneygram,BOC - BJ XINSHIJIFANDIAN SUB-BRANCH,,BEIJING,,,CN,+86 10 6849 1309,,Mo-Fr 09:00-17:00; Sa-Su 10:00-16:00,MoneyGram,Q1944412
65338157,moneygram,BOC - BJ CHEDAOGOU SUB-BRANCH,,BEIJING,,,CN,+86 10 8855 2753,,Mo-Fr 09:00-17:00; Sa 09:00-16:00; Su 10:00-16:00,MoneyGram,Q1944412
65338160,moneygram,BOC - BJ YANQING SUB-BRANCH,,BEIJING,,,CN,+86 10 6918 2402,,Mo-Fr 08:30-17:00; Sa-Su 08:30-16:00,MoneyGram,Q1944412
65338186,moneygram,BOC - BJ KEXUECHENG SUB-BRANCH,,BEIJING,,,CN,+86 10 8286 1916,,Mo-Fr 09:00-17:00; Sa-Su 10:00-16:00,MoneyGram,Q1944412
65338199,moneygram,BOC - BJ YANQINGGAOTAJIE SUB-BRANCH,,BEIJING,,,CN,+86 10 6914 0547,,Mo-Fr 08:30-17:00; Sa-Su 08:30-16:00,MoneyGram,Q1944412
65338209,moneygram,BOC - BJ QINGHUAYUAN SUB-BRANCH,,BEIJING,,,CN,+86 10 6277 0950,,Mo-Fr 09:00-17:00; Sa 09:00-16:00; Su 10:00-16:00,MoneyGram,Q1944412
65338212,moneygram,BOC - BJ YIN'GUDASHA SUB-BRANCH,,BEIJING,,,CN,+86 10 6280 0270,,Mo-Fr 09:00-17:00; Sa-Su 10:00-16:00,MoneyGram,Q1944412
65334559,moneygram,BOC - BJ ZHONGSHIYOUDASHA SUB-BRANCH,,BEIJING,,,CN,+86 10 5998 2107,,Mo-Fr 09:00-17:00; Sa-Su 00:00-24:00,MoneyGram,Q1944412
65334562,moneygram,BOC - BJ WANGFUJIN SUB-BRANCH,,BEIJING,,,CN,+86 10 8519 0625,,Mo 10:00-16:00; Tu-Fr 09:00-17:00; Sa 10:00-16:00; Su 00:00-24:00,MoneyGram,Q1944412
65334588,moneygram,BOC - BJ QIANMEN SUB-BRANCH,,BEIJING,,,CN,+86 10 6606 6131,,Mo-Fr 09:00-17:00; Sa-Su 10:00-16:00,MoneyGram,Q1944412
65334591,moneygram,BOC - BJ XICHANG'ANJIE SUB-BRANCH,,BEIJING,,,CN,+86 10 6649 3618,,Mo-Fr 09:00-17:00; Sa-Su 10:00-16:00,MoneyGram,Q1944412
65334627,moneygram,BOC - BJ AOYUNCUN SUB-BRANCH,,BEIJING,,,CN,+86 10 6481 8082,,Mo-Fr 09:00-17:00; Sa-Su 00:00-24:00,MoneyGram,Q1944412
65334669,moneygram,BOC - BJ BEIYUAN SUB-BRANCH,,BEIJING,,,CN,+86 10 8495 8560,,Mo-Fr 09:00-17:00; Sa-Su 10:00-16:00,MoneyGram,Q1944412
65334711,moneygram,BOC - BJ XUEYUANLU SUB-BRANCH,,BEIJING,,,CN,+86 10 6230 8301,,Mo-Fr 09:00-17:00; Sa-Su 10:00-16:00,MoneyGram,Q1944412
65334753,moneygram,BOC - BJ ANDINGMENWAI SUB-BRANCH,,BEIJING,,,CN,+86 10 6440 0495,,Mo-Fr 09:00-17:00; Sa-Su 10:00-16:00,MoneyGram,Q1944412
65334766,moneygram,BOC - BJ DONGZHIMENWAI SUB-BRANCH,,BEIJING,,,CN,+86 10 8440 8532,,Mo-Fr 09:00-17:00; Sa-Su 10:00-16:00,MoneyGram,Q1944412
65334805,moneygram,BOC - BJ YUETAN SUB-BRANCH,,BEIJING,,,CN,+86 10 8865 3145,,Mo-Fr 09:00-17:00; Sa-Su 10:00-16:00,MoneyGram,Q1944412
65334863,moneygram,BOC - BJ JINDIZONGXIN SUB-BRANCH,,BEIJING,,,CN,+86 10 8571 2349,,Mo-Fr 09:00-17:00; Sa-Su 10:00-16:00,MoneyGram,Q1944412
65334876,moneygram,BOC - BJ ZHONGYINDASHA SUB-BRANCH,,BEIJING,,,CN,+86 10 6659 1141,,Mo-Fr 09:00-17:00; Sa-Su 10:00-16:00,MoneyGram,Q1944412
65334892,moneygram,BOC - BJ XICHENG SUB-BRANCH,,BEIJING,,,CN,+86 10 6800 1385,,Mo-Fr 09:00-17:00; Sa-Su 10:00-16:00,MoneyGram,Q1944412
65334928,moneygram,BOC - BJ GAOLIANGQIAO SUB-BRANCH,,BEIJING,,,CN,+86 10 6227 8957,,Mo-Fr 09:00-17:00; Sa-Su 10:00-16:00,MoneyGram,Q1944412
65334944,moneygram,BOC - BJ CUIWEI SUB-BRANCH,,BEIJING,,,CN,+86 10 6825 4832,,Mo-Fr 09:00-17:00; Sa-Su 10:00-16:00,MoneyGram,Q1944412
65334957,moneygram,BOC - BJ SUZHOUQIAO SUB-BRANCH,,BEIJING,,,CN,+86 10 8256 4048,,Mo-Fr 09:00-17:00; Sa-Su 10:00-16:00,MoneyGram,Q1944412
65334973,moneygram,BOC - BJ SHIJINGSHAN SUB-BRANCH,,BEIJING,,,CN,+86 10 6886 4969,,Mo-Fr 09:00-17:00; Sa-Su 10:00-16:00,MoneyGram,Q1944412
65334986,moneygram,BOC - BJ XIDAN SUB-BRANCH,,BEIJING,,,CN,+86 10 6602 4391,,Mo-Fr 09:00-17:00; Sa-Su 10:00-16:00,MoneyGram,Q1944412
65334999,moneygram,BOC - BJ WULUJU SUB-BRANCH,,BEIJING,,,CN,+86 10 6442 3425,,Mo-Fr 09:00-17:00; Sa-Su 10:00-16:00,MoneyGram,Q1944412
65335011,moneygram,BOC - BJ PING ANLI SUB-BRANCH,,BEIJING,,,CN,+86 10 6616 0529,,Mo-Fr 09:00-17:00; Sa-Su 10:00-16:00,MoneyGram,Q1944412
65335040,moneygram,BOC - BJ MENTOUGOU SUB-BRANCH,,BEIJING,,,CN,+86 10 6984 3926,,Mo-Fr 09:00-17:00; Sa-Su 10:00-16:00,MoneyGram,Q1944412
65335053,moneygram,BOC - BJ GONGHUIDALOU SUB-BRANCH,,BEIJING,,,CN,+86 10 6856 0577,,Mo-Fr 09:00-17:00; Sa-Su 10:00-16:00,MoneyGram,Q1944412
65335095,moneygram,BOC - BJ YINGHUADONGJIE SUB-BRANCH,,BEIJING,,,CN,+86 10 6444 2810,,Mo-Fr 09:00-17:00; Sa-Su 10:00-16:00,MoneyGram,Q1944412
65335134,moneygram,BOC - BJ LUGU SUB-BRANCH,,BEIJING,,,CN,+86 10 6862 7531,,Mo-Fr 09:00-17:00; Sa-Su 10:00-16:00,MoneyGram,Q1944412
65335163,moneygram,BOC - BJ GUOJIMAOYIZHONGXIN SUB-BRANCH,,BEIJING,,,CN,+86 10 6505 2608,,Mo-Fr 09:00-17:00; Sa-Su 10:00-16:00,MoneyGram,Q1944412
65335176,moneygram,BOC - BJ SHIGUANQU SUB-BRANCH,,BEIJING,,,CN,+86 10 8442 9005,,Mo-Fr 09:00-17:00; Sa-Su 10:00-16:00,MoneyGram,Q1944412
65335189,moneygram,BOC - BJ BAIWANZHUANG SUB-BRANCH,,BEIJING,,,CN,+86 10 6835 3976,,Mo-Fr 09:00-17:00; Sa-Su 10:00-16:00,MoneyGram,Q1944412
65337653,moneygram,BOC - BJ KEDA SUB-BRANCH,,BEIJING,,,CN,+86 10 6239 5267,,Mo-Fr 09:00-17:00; Sa-Su 10:00-16:00,MoneyGram,Q1944412
65335202,moneygram,BOC - BJ BEITAIPINGZHUANG SUB-BRANCH,,BEIJING,,,CN,+86 10 5160 3238,,Mo-Fr 09:00-17:00; Sa-Su 10:00-16:00,MoneyGram,Q1944412
65335215,moneygram,BOC - BJ DEWAI SUB-BRANCH,,BEIJING,,,CN,+86 10 6205 8544,,Mo-Fr 09:00-17:00; Sa-Su 10:00-16:00,MoneyGram,Q1944412
65335231,moneygram,BOC - BJ QINGHUADONGLU SUB-BRANCH,,BEIJING,,,CN,+86 10 8283 7646,,Mo-Fr 09:00-17:00; Sa-Su 10:00-16:00,MoneyGram,Q1944412
65335244,moneygram,BOC - BJ XIZHIMEN SUB-BRANCH,,BEIJING,,,CN,+86 10 5856 2082,,Mo-Fr 09:00-17:00; Sa-Su 10:00-16:00,MoneyGram,Q1944412
65335257,moneygram,BOC - BJ ZENGGUANGLU SUB-BRANCH,,BEIJING,,,CN,+86 10 5179 7661,,Mo-Fr 09:00-17:00; Sa-Su 10:00-16:00,MoneyGram,Q1944412
65335260,moneygram,BOC - BJ CHEGONGZHUANG SUB-BRANCH,,BEIJING,,,CN,+86 10 8839 5742,,Mo-Fr 09:00-17:00; Sa-Su 10:00-16:00,MoneyGram,Q1944412
65335273,moneygram,BOC - BJ DIWUGUANGCHANG SUB-BRANCH,,BEIJING,,,CN,+86 10 6408 8198,,Mo-Fr 09:00-17:00; Sa-Su 10:00-16:00,MoneyGram,Q1944412
65335299,moneygram,BOC - BJ XISANHUANBEILU SUB-BRANCH,,BEIJING,,,CN,+86 10 5179 8722,,Mo-Fr 09:00-17:00; Sa-Su 10:00-16:00,MoneyGram,Q1944412
65335309,moneygram,BOC - BJ JIAN'GUOMENWAI SUB-BRANCH,,BEIJING,,,CN,+86 10 6515 9102,,Mo-Fr 09:00-17:00; Sa-Su 10:00-16:00,MoneyGram,Q1944412
65335325,moneygram,BOC - BJ GUANYUANQIAO SUB-BRANCH,,BEIJING,,,CN,+86 10 6625 6001,,Mo-Fr 09:00-17:00; Sa-Su 10:00-16:00,MoneyGram,Q1944412
65335338,moneygram,BOC - BJ ZHICHUNLU SUB-BRANCH,,BEIJING,,,CN,+86 10 6254 3822,,Mo-Fr 09:00-17:00; Sa-Su 10:00-16:00,MoneyGram,Q1944412
65335354,moneygram,BOC - BJ HANGTIANQIAO SUB-BRANCH,,BEIJING,,,CN,+86 10 6842 3917,,Mo-Fr 09:00-17:00; Sa-Su 10:00-16:00,MoneyGram,Q1944412
65335383,moneygram,BOC - BJ SIJIQING SUB-BRANCH,,BEIJING,,,CN,+86 10 5170 9381,,Mo-Fr 09:00-17:00; Sa-Su 10:00-16:00,MoneyGram,Q1944412
65335406,moneygram,BOC - BJ LIDUFANDIAN SUB-BRANCH,,BEIJING,,,CN,+86 10 6436 7674,,Mo-Fr 09:00-17:00; Sa-Su 10:00-16:00,MoneyGram,Q1944412
65335422,moneygram,BOC - BJ JUNKE SUB-BRANCH,,BEIJING,,,CN,+86 10 6286 8636,,Mo-Fr 09:00-17:00; Sa-Su 10:00-16:00,MoneyGram,Q1944412
65335464,moneygram,BOC - BJ XIZHIMENBEIDAJIE SUB-BRANCH,,BEIJING,,,CN,+86 10 8229 4376,,Mo-Fr 09:00-17:00; Sa-Su 10:00-16:00,MoneyGram,Q1944412
65335477,moneygram,BOC - BJ JIANGTAILU SUB-BRANCH,,BEIJING,,,CN,+86 10 6437 6166,,Mo-Fr 09:00-17:00; Sa-Su 10:00-16:00,MoneyGram,Q1944412
65335493,moneygram,BOC - BJ FANGXINGYUAN SUB-BRANCH,,BEIJING,,,CN,+86 10 6761 7918,,Mo-Fr 09:00-17:00; Sa-Su 10:00-16:00,MoneyGram,Q1944412
65335503,moneygram,BOC - BJ CHONGWEN SUB-BRANCH,,BEIJING,,,CN,+86 10 6702 7078,,Mo-Fr 09:00-17:00; Sa-Su 10:00-16:00,MoneyGram,Q1944412
65335558,moneygram,BOC - BJ DONGCHENG SUB-BRANCH,,BEIJING,,,CN,+86 10 6406 5153,,Mo-Fr 09:00-17:00; Sa-Su 10:00-16:00,MoneyGram,Q1944412
65335587,moneygram,BOC - BJ SHUANGJING SUB-BRANCH,,BEIJING,,,CN,+86 10 8772 0845,,Mo-Fr 09:00-17:00; Sa-Su 10:00-16:00,MoneyGram,Q1944412
65335590,moneygram,BOC - BJ DIANSHITAI SUB-BRANCH,,BEIJING,,,CN,+86 10 8580 1266,,Mo-Fr 09:00-17:00; Sa-Su 00:00-24:00,MoneyGram,Q1944412
65335626,moneygram,BOC - BJ GANG'AOZHONGXIN SUB-BRANCH,,BEIJING,,,CN,+86 10 6552 9693,,Mo-Fr 09:00-17:00; Sa-Su 10:00-16:00,MoneyGram,Q1944412
65335639,moneygram,BOC - BJ XIAOYUNLU SUB-BRANCH,,BEIJING,,,CN,+86 10 6463 0902,,Mo-Fr 09:00-17:00; Sa-Su 10:00-16:00,MoneyGram,Q1944412
65335642,moneygram,BOC - BJ DONG'ANMEN SUB-BRANCH,,BEIJING,,,CN,+86 10 6512 2177,,Mo-Fr 09:00-17:00; Sa-Su 10:00-16:00,MoneyGram,Q1944412
65335668,moneygram,BOC - BJ WANGFUFANDIAN SUB-BRANCH,,BEIJING,,,CN,8610651288993532,,Mo-Fr 09:00-17:00; Sa-Su 10:00-16:00,MoneyGram,Q1944412
65335671,moneygram,BOC - BJ GUOHUADASHA SUB-BRANCH,,BEIJING,,,CN,+86 10 8409 8961,,Mo-Fr 09:00-17:00; Sa-Su 10:00-16:00,MoneyGram,Q1944412
65335697,moneygram,BOC - BJ HEPINGLI SUB-BRANCH,,BEIJING,,,CN,+86 10 8421 1621,,Mo-Fr 09:00-17:00; Sa-Su 10:00-16:00,MoneyGram,Q1944412
65335707,moneygram,BOC - BJ XINDONG'ANSHICHANG SUB-BRANCH,,BEIJING,,,CN,+86 10 6528 1163,,Mo-Fr 09:00-17:00; Sa-Su 10:00-16:00,MoneyGram,Q1944412
65335736,moneygram,BOC - BJ XIBAHE'NANLU SUB-BRANCH,,BEIJING,,,CN,+86 10 6440 2901,,Mo-Fr 09:00-17:00; Sa-Su 10:00-16:00,MoneyGram,Q1944412
65335749,moneygram,BOC - BJ FAZHANDASHA SUB-BRANCH,,BEIJING,,,CN,+86 10 6590 8303,,Mo-Fr 09:00-17:00; Sa-Su 10:00-16:00,MoneyGram,Q1944412
65335794,moneygram,BOC - BJ TAIPINGLU SUB-BRANCH,,BEIJING,,,CN,+86 10 8828 5027,,Mo-Fr 09:00-17:00; Sa-Su 10:00-16:00,MoneyGram,Q1944412
65335804,moneygram,BOC - BJ FANGSHAN SUB-BRANCH,,BEIJING,,,CN,+86 10 8935 6347,,Mo-Fr 09:00-17:00; Sa-Su 10:00-16:00,MoneyGram,Q1944412
65335820,moneygram,BOC - BJ XINGFUDAJIE SUB-BRANCH,,BEIJING,,,CN,+86 10 5163 6567,,Mo-Fr 09:00-17:00; Sa-Su 10:00-16:00,MoneyGram,Q1944412
65335833,moneygram,BOC - BJ CHENGSHOUSI SUB-BRANCH,,BEIJING,,,CN,+86 10 8764 7534,,Mo-Fr 09:00-17:00; Sa-Su 10:00-16:00,MoneyGram,Q1944412
65335846,moneygram,BOC - BJ DONGZHIMEN SUB-BRANCH,,BEIJING,,,CN,+86 10 8460 8509,,Mo-Fr 09:00-17:00; Sa-Su 10:00-16:00,MoneyGram,Q1944412
65335859,moneygram,BOC - BJ LIANGMAHEDASHA SUB-BRANCH,,BEIJING,,,CN,+86 10 6590 6474,,Mo-Fr 09:00-17:00; Sa-Su 10:00-16:00,MoneyGram,Q1944412
65335862,moneygram,BOC - BJ ZONGBUJIDI SUB-BRANCH,,BEIJING,,,CN,+86 10 5118 9997,,Mo-Fr 09:00-17:00; Sa-Su 00:00-24:00,MoneyGram,Q1944412
65335888,moneygram,BOC - BJ XIZHAN SUB-BRANCH,,BEIJING,,,CN,+86 10 5269 6277,,Mo-Fr 09:00-17:00; Sa-Su 10:00-16:00,MoneyGram,Q1944412
65335891,moneygram,BOC - BJ SHOUDUJICHANG SUB-BRANCH,,BEIJING,,,CN,861064563988136,,Mo-Fr 09:00-17:00; Sa-Su 10:00-16:00,MoneyGram,Q1944412
65335901,moneygram,BOC - BJ SHANGWUQU SUB-BRANCH,,BEIJING,,,CN,+86 10 6468 9551,,Mo-Fr 09:00-17:00; Sa-Su 10:00-16:00,MoneyGram,Q1944412
65335914,moneygram,BOC - BJ KONGGANG SUB-BRANCH,,BEIJING,,,CN,+86 10 8048 6468,,Mo-Fr 09:00-16:30; Sa-Su 00:00-24:00,MoneyGram,Q1944412
65335943,moneygram,BOC - BJ FENGLIANGUANGCHANGDASHA BRANCH,,BEIJING,,,CN,+86 10 6588 5300,,Mo-Fr 09:00-17:00; Sa 09:00-16:00; Su 10:00-16:00,MoneyGram,Q1944412
65335956,moneygram,BOC - BJ JICHANGNANLU SUB-BRANCH,,BEIJING,,,CN,+86 10 6456 1349,,Mo-Fr 09:00-17:00; Sa-Su 10:00-16:00,MoneyGram,Q1944412
65335969,moneygram,BOC - BJ XINCHENGGUOJI SUB-BRANCH,,BEIJING,,,CN,+86 10 6597 0092,,Mo-Fr 09:00-17:00; Sa-Su 10:00-16:00,MoneyGram,Q1944412
65335972,moneygram,BOC - BJ GUOMEN SUB-BRANCH,,BEIJING,,,CN,+86 10 6453 2783,,Mo-Fr 09:00-17:00; Sa-Su 10:00-16:00,MoneyGram,Q1944412
65335985,moneygram,BOC - BJ CHANGHONGQIAO SUB-BRANCH,,BEIJING,,,CN,+86 10 8523 6960,,Mo-Fr 09:00-17:00; Sa-Su 10:00-16:00,MoneyGram,Q1944412
65335998,moneygram,BOC - BJ TIANZHULU SUB-BRANCH,,BEIJING,,,CN,+86 10 8048 0757,,Mo-Fr 09:00-17:00; Sa-Su 10:00-16:00,MoneyGram,Q1944412
65336010,moneygram,BOC - BJ CHAOYANGGONGYUANNANLU SUB-BRANC,,BEIJING,,,CN,+86 10 6539 8152,,Mo-Fr 09:00-17:00; Sa-Su 10:00-16:00,MoneyGram,Q1944412
65336023,moneygram,BOC - BJ SHOUDUJICHANGCHANGQU SUB-BRANCH,,BEIJING,,,CN,+86 10 6457 3144,,Mo-Fr 09:00-16:30; Sa-Su 00:00-24:00,MoneyGram,Q1944412
65336036,moneygram,BOC - BJ TONGZHOU SUB-BRANCH,,BEIJING,,,CN,+86 10 8050 6514,,Mo-Fr 09:00-17:00; Sa-Su 10:00-16:00,MoneyGram,Q1944412
65336065,moneygram,BOC - BJ CHAOYANGBEILU SUB-BRANCH,,BEIJING,,,CN,+86 10 8551 9306,,Mo-Fr 09:00-17:00; Sa-Su 10:00-16:00,MoneyGram,Q1944412
65336078,moneygram,BOC - BJ TONGZHOUGUOYUAN SUB-BRANCH,,BEIJING,,,CN,+86 10 8156 2067,,Mo-Fr 09:00-17:00; Sa-Su 10:00-16:00,MoneyGram,Q1944412
65336081,moneygram,BOC - BJ GUANGJIDIAN SUB-BRANCH,,BEIJING,,,CN,+86 10 8150 1106,,Mo-Fr 09:00-17:00; Sa-Su 00:00-24:00,MoneyGram,Q1944412
65336094,moneygram,BOC - BJ GUANGQULU SUB-BRANCH,,BEIJING,,,CN,+86 10 5820 0641,,Mo-Fr 09:00-17:00; Sa-Su 10:00-16:00,MoneyGram,Q1944412
65336104,moneygram,BOC - BJ QINGNIANLU SUB-BRANCH,,BEIJING,,,CN,+86 10 5138 8550,,Mo-Fr 09:00-17:00; Sa-Su 10:00-16:00,MoneyGram,Q1944412
65336133,moneygram,BOC - BJ BAIJIAZHUANG SUB-BRANCH,,BEIJING,,,CN,+86 10 6508 6091,,Mo-Fr 09:00-17:00; Sa-Su 10:00-16:00,MoneyGram,Q1944412
65336049,moneygram,BOC - BJ TONGZHOUBINHE SUB-BRANCH,,BEIJING,,,CN,+86 10 6955 4877,,Mo-Fr 09:00-17:00; Sa-Su 10:00-16:00,MoneyGram,Q1944412
65337336,moneygram,BOC - BJ JINSONGDONGKOU SUB-BRANCH,,BEIJING,,,CN,+86 10 5190 9103,,Mo-Fr 09:00-17:00; Sa-Su 10:00-16:00,MoneyGram,Q1944412
