Ref,Spider,Name,Address,City,State,Zipcode,Country,Phone,Website,Hours,Brand,WikiData
5197,anytime_fitness,Anytime Fitness,,Lee's Summit,MO,,US,+1 816-600-0139,https://www.anytimefitness.com/gyms/5197/lee's-summit-mo-64082/,,Anytime Fitness,Q4778364
https://locations.arbys.com/mo/leessummit/200-sw-150-hwy.html,arbys_us,"Arby's Fast-Food Drive Through Near You in Lee's Summit, MO",,Lee's Summit,MO,,US,+1 816-537-5442,https://locations.arbys.com/mo/leessummit/200-sw-150-hwy.html,Mo-Su 09:30-23:00,Arby's,Q630866
https://locators.bankofamerica.com/mo/leessummit/atm-lees-summit-110507.html,bankofamerica,Bank of America Walk-Up ATM | Raintree North Shopping Center,,Lees Summit,MO,,US,+1 844-401-8500,https://locators.bankofamerica.com/mo/leessummit/atm-lees-summit-110507.html,,Bank of America,Q487907
156752,bluerhino,Walgreens #10461,,Lees Summit,MO,,US,+1 816-623-3139,,,Blue Rhino,Q65681213
226318,bluerhino,Westlake Ace Hardware #183 - Ace #18650,,Lees Summit,MO,,US,+1 816-366-5046,,,Blue Rhino,Q65681213
39164,citi,ATM Central Bank,,Lee'S Summit,MO,,US,,,,Citibank,Q857063
93363,citi,ATM Walgreens,,Lees Summit,MO,,US,,,,Citibank,Q857063
1684,dominos_pizza_us,Domino's Pizza,,Lees Summit,MO,,US,+1 816-683-7500,https://pizza.dominos.com/missouri/lees-summit/3544-sw-market-st,Mo-Th 10:30-24:00; Fr-Sa 10:30-01:00; Su 10:30-24:00,Domino's,Q839466
906983,firestone_auto_care,Firestone Complete Auto Care,,Lee's Summit,MO,,US,+1 816-226-4304,https://local.firestonecompleteautocare.com/missouri/lees-summit/3561-sw-market-st/,,Firestone,Q420837
https://salons.greatclips.com/us/mo/lees-summit/316-sw-greenwich-dr,greatclips,Great Clips,,Lees Summit,MO,,US,+1 816-537-8408,https://salons.greatclips.com/us/mo/lees-summit/316-sw-greenwich-dr,Mo-Fr 09:00-19:00; Sa 08:00-18:00; Su 09:00-17:00,Great Clips,Q5598967
https://office.jacksonhewitt.com/#64886957,jackson_hewitt,Jackson Hewitt,,Lees Summit,MO,,US,+1 816-537-1837,https://office.jacksonhewitt.com/tax-preparation-services-locations/en/mo/lees-summit/3410-sw-market-street/54590,Mo-Sa 11:00-19:00; Su 12:00-16:00,Jackson Hewitt,Q6117132
https://locations.papamurphys.com/#15430524,papamurphys,Pizza Takeout & Delivery,,Lee's Summit,MO,,US,+1 816-623-5985,https://locations.papamurphys.com/mo/lee's-summit/3751-southwest-raintree-drive,Mo-Su 10:30-20:00,Papa Murphy's,Q7132349
mo_lees-summit_3739-hollywood-blvd,pizza_hut_us,3739 Hollywood Blvd,,Lees Summit,MO,,US,+1 816-623-3580,https://locations.pizzahut.com/mo/lees-summit/3739-hollywood-blvd,,Pizza Hut,Q191615
https://locations.quiktrip.com/#16004441,quiktrip_us,QuikTrip Store #200 120 SW M-150 Hwy,,Lee's Summit,MO,,US,+1 816-537-6061,https://locations.quiktrip.com/mo/lee's-summit/120-sw-m-150-hwy,24/7,QuikTrip,Q7271953
8562,regal_nails_us,"Regal Nails, Salon &#038; Spa",3410 SW Market St,Lee's Summit (South),MO,,US,+1 816-623-3609,,,Regal Nails,Q108918028
174,scooters_coffee_us,Hwy 150 & Regatta Dr,,Lee's Summit,MO,,US,+1 913-283-8576,,Mo-Fr 05:30-21:00; Sa-Su 06:00-21:00,Scooter's Coffee,Q117280308
2204,snap_fitness,"Lees Summit, MO",881 SW Lemans Ln,Lees Summit,MO,,US,+1 816-623-9775,https://www.snapfitness.com/us/gyms/lees-summit-mo,24/7,Snap Fitness,Q7547254
https://restaurants.subway.com/#14917012,subway,Subway Summit Crest Plaza,,Lees Summit Jackson,MO,,US,+1 816-537-5168,https://restaurants.subway.com/united-states/mo/lees-summit/3532-sw-market,Mo-Su 09:00-22:00,Subway,Q244457
https://restaurants.subway.com/#14914477,subway,Subway Phillips 66/C-Store,,Lees Summit Jackson,MO,,US,+1 816-623-3303,https://restaurants.subway.com/united-states/mo/lees-summit/1299-sw-arbor-walk-blvd,Mo-Su 09:00-22:00,Subway,Q244457
https://restaurants.subway.com/#14893625,subway,Subway Wal-Mart #4590,,Lee's Summit Jackson,MO,,US,+1 417-824-6937,https://restaurants.subway.com/united-states/mo/lee's-summit/3410-sw-market-street,Mo-Su 11:00-19:00,Subway,Q244457
https://locations.tacobell.com/#6143930,taco_bell,Taco Bell,,Lees Summit,MO,,US,+1 816-623-3063,https://locations.tacobell.com/mo/lees-summit/3701-sw-hollywood-drive.html,Mo-Su 08:00-24:00,Taco Bell,Q752941
6408200000,usps_collection_boxes,USPS COLLECTION BOX - BLUE BOX,250 SW GREENWICH DR,LEES SUMMIT,MO,,US,,,,United States Postal Service,Q668687
,visa,,,LEE'S SUMMIT,MO,,US,,,,,
,visa,,,LEES SUMMIT,MO,,US,,,,,
,visa,,,LEES SUMMIT,MO,,US,,,,,
,visa,,,LEE'S SUMMIT,MO,,US,,,,,
,visa,,,LEES SUMMIT,MO,,US,,,,,
,visa,,,LEE'S SUMMIT,MO,,US,,,,,
,visa,,,LEES SUMMIT,MO,,US,,,,,
,visa,,,LEES SUMMIT,MO,,US,,,,,
https://www.walgreens.com/locator/walgreens-901+sw+state+route+150-lees+summit-mo-64082/id=10461,walgreens,Walgreens,,Lees Summit,MO,,US,+1 816-623-3139,https://www.walgreens.com/locator/walgreens-901+sw+state+route+150-lees+summit-mo-64082/id=10461,Mo-Su 08:00-22:00,Walgreens,Q1591889
f546abe029ce10127a7e376f6e6e1850,western_union,WALMART #004590,,Lees Summit,MO,,US,+1 816-623-3245,https://location.westernunion.com/us/mo/lees-summit/f546abe029ce10127a7e376f6e6e1850,Mo-Su 07:00-21:00,Western Union,Q861042
