Ref,Spider,Name,Address,City,State,Zipcode,Country,Phone,Website,Hours,Brand,WikiData
168732,bluerhino,Piggly Wiggly #270,,Markesan,WI,,US,+1 920-398-2621,,,Blue Rhino,Q65681213
05021440838945394600100000000000,bp,BP,,Markesan,WI,,US,+1 920-398-3484,,Mo-Su 05:00-21:00,BP,Q152057
64756,citi,ATM Markesan,,Markesan,WI,,US,,,,Citibank,Q857063
66029,citi,ATM NATIONAL EXCHANGE BANK,,Markesan,WI,,US,,,,Citibank,Q857063
444,piggly_wiggly_us,Piggly Wiggly,,Markesan,WI,,US,+1 920-398-2621,https://www.shopthepig.com/,,Piggly Wiggly,Q3388303
https://restaurants.subway.com/#14904971,subway,Subway Grand River CoOp,,Markesan Green Lake,WI,,US,+1 920-398-8959,https://restaurants.subway.com/united-states/wi/markesan/544-n-margaret-st,Mo-Su 08:00-20:00,Subway,Q244457
1371903,usps,MARKESAN,,MARKESAN,WI,,US,+1 920-398-2771,,Mo-Fr 09:00-16:15; Sa 09:00-11:00,United States Postal Service,Q668687
5394600005,usps_collection_boxes,USPS COLLECTION BOX - PO LOBBY,735 N MARGARET ST,MARKESAN,WI,,US,,,,United States Postal Service,Q668687
5394600000,usps_collection_boxes,USPS COLLECTION BOX - BLUE BOX,735 N MARGARET ST,MARKESAN,WI,,US,,,,United States Postal Service,Q668687
5394600003,usps_collection_boxes,USPS COLLECTION BOX - PO LOBBY,735 N MARGARET ST,MARKESAN,WI,,US,,,,United States Postal Service,Q668687
,visa,,,MARKESAN,WI,,US,,,,,
,visa,,,MARKESAN,WI,,US,,,,,
,visa,,,MARKESAN,WI,,US,,,,,
,visa,,,MARKESAN,WI,,US,,,,,
,visa,,,MARKESAN,WI,,US,,,,,
,visa,,,MARKESAN,WI,,US,,,,,
,visa,,,MARKESAN,WI,,US,,,,,
,visa,,,MANCHESTER,WI,,US,,,,,
,visa,,,MARKESAN,WI,,US,,,,,
,visa,,,MARKESAN,WI,,US,,,,,
