Ref,Spider,Name,Address,City,State,Zipcode,Country,Phone,Website,Hours,Brand,WikiData
178930,bluerhino,Lincoln Why Not Stop,,Lincoln,ME,,US,+1 207-794-3070,,,Blue Rhino,Q65681213
192217,bluerhino,Aubuchon Hardware #106,,Lincoln,ME,,US,+1 207-794-6023,,,Blue Rhino,Q65681213
11387,bluerhino,Walmart #1919,,Lincoln,ME,,US,+1 207-794-8436,,,Blue Rhino,Q65681213
240161,bluerhino,Circle K #4707048,,Lincoln,ME,,US,+1 207-794-8955,,,Blue Rhino,Q65681213
190421,bluerhino,Walgreens #17147,,Lincoln,ME,,US,+1 207-794-3344,,,Blue Rhino,Q65681213
213710,bluerhino,AG #10887 - Steaks N' Stuff Market and Deli,,Lincoln,ME,,US,+1 207-794-8912,,,Blue Rhino,Q65681213
40362,citi,ATM Circle K,,Lincoln,ME,,US,,,,Citibank,Q857063
88604,citi,ATM Walgreens,,Lincoln,ME,,US,,,,Citibank,Q857063
,credit_union_us,Lincoln Maine FCU,,Lincoln,ME,,US,+1 207-794-8623,,Mo-Th 08:30-04:00; Fr 08:30-05:00; Sa 09:00-11:30,,
5168,dollartree,DollarTree,,Lincoln,ME,,US,+1 207-559-6000,,Mo-Sa 08:00-21:00; Su 08:00-20:00,Dollar Tree,Q5289230
352416,dunkin_us,Dunkin',,Lincoln,ME,,US,+1 207-794-2154,https://locations.dunkindonuts.com/en/me/lincoln/142-w-broadway/352416,Mo-Su 04:30-21:00,Dunkin',Q847743
Motorcraft5053USAEnglish,ford,Cole-Whitney Ford Inc,,Maine,ME,,US,+1 207-794-6522,,,Ford,Q44294
https://www.ford.com/dealerships/dealer-details/me/lincoln/pelletier-ford-of-lincoln/,ford_dealers_us,Pelletier Ford of Lincoln,,Lincoln,ME,,US,+1 877-540-3081,https://www.ford.com/dealerships/dealer-details/me/lincoln/pelletier-ford-of-lincoln/,Mo-Fr 07:30-17:00; Sa 08:00-12:00,Ford Motor Company,Q44294
97,gulf_pr_us,BIG APPLE 1063,,Lincoln,ME,,US,+1 207-794-2158,https://www.gulfoil.com/big-apple-1063,,Gulf Oil,Q5617505
https://stores.hannaford.com/#8905345,hannaford,Hannaford - Lincoln 22 Goding Avenue - Lincoln,,Penobscot County,ME,,US,+1 207-794-6122,https://stores.hannaford.com/me/lincoln/8140,Mo-Sa 07:00-21:00; Su 08:00-20:00,Hannaford,Q5648760
18966,h_r_block,H&R Block,,Lincoln,ME,,US,+1 207-794-8200,https://www.hrblock.com/local-tax-offices/maine/lincoln/21-lee-rd/18966/,,H&R Block,Q5627799
https://locations.oreillyauto.com/me/lincoln/check-engine-light-testing-6145.html,oreilly,Your Lincoln O'Reilly Auto Parts Store,,Lincoln,ME,,US,+1 207-794-7001,https://locations.oreillyauto.com/me/lincoln/check-engine-light-testing-6145.html,Mo-Sa 07:00-19:00; Su 09:00-19:00,O'Reilly Auto Parts,Q7071951
https://locations.oreillyauto.com/me/lincoln/wiper-installation-6145.html,oreilly,Your Lincoln O'Reilly Auto Parts Store,,Lincoln,ME,,US,+1 207-794-7001,https://locations.oreillyauto.com/me/lincoln/wiper-installation-6145.html,Mo-Sa 07:00-19:00; Su 09:00-19:00,O'Reilly Auto Parts,Q7071951
https://locations.oreillyauto.com/me/lincoln/battery-testing-6145.html,oreilly,Your Lincoln O'Reilly Auto Parts Store,,Lincoln,ME,,US,+1 207-794-7001,https://locations.oreillyauto.com/me/lincoln/battery-testing-6145.html,Mo-Sa 07:00-19:00; Su 09:00-19:00,O'Reilly Auto Parts,Q7071951
https://locations.oreillyauto.com/me/lincoln/autopartes-6145.html,oreilly,O'Reilly Auto Parts,,Lincoln,ME,,US,+1 207-794-7001,https://locations.oreillyauto.com/me/lincoln/autopartes-6145.html,Mo-Sa 07:00-19:00; Su 09:00-19:00,O'Reilly Auto Parts,Q7071951
https://restaurants.subway.com/#14898870,subway,Subway,,Lincoln Penobscot,ME,,US,+1 207-794-2008,https://restaurants.subway.com/united-states/me/lincoln/115-w-broadway,Mo-Su 08:00-21:00,Subway,Q244457
0189671100,sunoco_us,Sunoco,,LINCOLN,ME,,US,+1 207-794-3070,,Mo-We 04:00-21:00; Th-Fr 04:00-23:00; Sa 06:00-23:00; Su 07:00-21:00,Sunoco,Q1423218
1370477,usps,LINCOLN,,LINCOLN,ME,,US,+1 207-794-6609,,Mo-Fr 08:00-17:00; Sa 08:00-12:00,United States Postal Service,Q668687
0445700009,usps_collection_boxes,USPS COLLECTION BOX - PO LOBBY,50 FLEMING ST,LINCOLN,ME,,US,,,,United States Postal Service,Q668687
0445700010,usps_collection_boxes,USPS COLLECTION BOX - PO LOBBY,50 FLEMING ST,LINCOLN,ME,,US,,,,United States Postal Service,Q668687
0445700001,usps_collection_boxes,USPS COLLECTION BOX - BLUE BOX,50 FLEMING ST,LINCOLN,ME,,US,,,,United States Postal Service,Q668687
0445700012,usps_collection_boxes,USPS COLLECTION BOX - PO LOBBY,50 FLEMING ST,LINCOLN,ME,,US,,,,United States Postal Service,Q668687
0445700004,usps_collection_boxes,USPS COLLECTION BOX - BLUE BOX,29 MAIN ST,LINCOLN,ME,,US,,,,United States Postal Service,Q668687
0445700005,usps_collection_boxes,USPS COLLECTION BOX - BLUE BOX,22 GODING AVE,LINCOLN,ME,,US,,,,United States Postal Service,Q668687
,visa,,,LINCOLN,ME,,US,,,,,
,visa,,,LINCOLN,ME,,US,,,,,
,visa,,,LINCOLN,ME,,US,,,,,
,visa,,,LINCOLN,ME,,US,,,,,
,visa,,,LINCOLN,ME,,US,,,,,
https://www.walgreens.com/locator/walgreens-2+w+broadway-lincoln-me-04457/id=17147,walgreens,Walgreens,,Lincoln,ME,,US,+1 207-794-3344,https://www.walgreens.com/locator/walgreens-2+w+broadway-lincoln-me-04457/id=17147,Mo-Su 08:00-20:00,Walgreens,Q1591889
cbf7da29c88fab896ccf2438324134d2,western_union,WALMART #001919,,Lincoln,ME,,US,+1 207-794-8436,https://location.westernunion.com/us/me/lincoln/cbf7da29c88fab896ccf2438324134d2,Mo-Su 07:00-21:00,Western Union,Q861042
