Ref,Spider,Name,Address,City,State,Zipcode,Country,Phone,Website,Hours,Brand,WikiData
https://stores.advanceautoparts.com/fl/forest-city/1155-w-state-road-436,advance_auto_parts_us,Advance Auto Parts,,Forest City,FL,,US,+1 407-774-6739,https://stores.advanceautoparts.com/fl/forest-city/1155-w-state-road-436,Mo-Sa 07:30-21:00; Su 09:00-20:00,Advance Auto Parts,Q4686051
638998,afcurgentcare,American Family Care Altamonte Springs,,Altamonte Springs,FL,,US,Coming Soon,https://www.afcurgentcare.com/altamonte-springs/,,AFC Urgent Care,Q110552174
https://stores.aldi.us/#4420265,aldi_sud_us,ALDI  924 State Road 436,,Altamonte Springs,FL,,US,+1 855-474-7005,https://stores.aldi.us/fl/altamonte-springs/924-state-road-436,Mo-Su 09:00-20:00,ALDI,Q41171672
1b1fae73-e11d-e611-80c5-005056aa8521,amf_bowling,Bowlero Altamonte,,Altamonte Springs,FL,,US,+1 407-862-2500,https://www.bowlero.com/location/bowlero-altamonte,,Bowlero,Q17102967
https://stores.ashleyfurniture.com/store/us/florida/altamonte-springs/7710000074/,ashley_furniture,"Ashley Store Altamonte Springs, FL",,Altamonte Springs,FL,,US,+1 407-389-1860,https://stores.ashleyfurniture.com/store/us/florida/altamonte-springs/7710000074/,,Ashley Furniture,Q4805437
https://www.banfield.com/locations/veterinarians/fl/altamonte-springs/asp,banfield_pet_hospital,Altamonte Springs,,Altamonte Springs,FL,,US,+1 407-786-7122,https://www.banfield.com/locations/veterinarians/fl/altamonte-springs/asp,Mo-Fr 08:00-18:00; Sa 08:00-17:00; Su 00:00-24:00,Banfield Pet Hospital,Q2882416
Seminole State College of Florida,barnesnoblecollege,Seminole State College of Florida,,Springs,FL,,US,,https://www.bncollege.com/campus-stores/,,Barnes & Noble College,Q4861508
BBW01865,bathandbodyworks_us,WEST TOWN CORNERS,,ALTAMONTE SPRINGS,FL,,US,+1 407-862-9150,,Mo-Sa 10:00-21:00; Su 11:00-18:00,Bath & Body Works,Q810773
038,batteriesplus,Shop with us in Altamonte Springs,,Altamonte Springs,FL,,US,+1 407-788-7772,https://www.batteriesplus.com/store-locator/fl/altamontesprings/batteries-plus-038,Mo-Fr 08:00-19:00; Sa 09:00-19:00; Su 10:00-17:00,Batteries Plus Bulbs,Q17005157
https://stores.bestbuy.com/fl/altamonte-springs/597-w-state-road-436-509.html,bestbuy,Best Buy Altamonte Springs,,Altamonte Springs,FL,,US,+1 407-865-9977,https://stores.bestbuy.com/fl/altamonte-springs/597-w-state-road-436-509.html,,Best Buy,Q533415
25930,bluerhino,Lowe's #604,,Altamonte Springs,FL,,US,+1 407-788-4305,,,Blue Rhino,Q65681213
235442,bluerhino,Circle K #2709759,,Altamonte Springs,FL,,US,+1 407-389-0943,,,Blue Rhino,Q65681213
152444,bluerhino,Walgreens #9016,,Altamonte Springs,FL,,US,+1 407-389-0198,,,Blue Rhino,Q65681213
75376132214953271400100000000000,bp,BP,,Altamonte Springs,FL,,US,+1 407-339-3337,,24/7,BP,Q152057
11195,brookdale_us,Brookdale Altamonte Springs,,Altamonte Springs,FL,,US,+1 407-786-5637,https://www.brookdale.com/en/communities/brookdale-altamonte-springs.html,,Brookdale,Q4974387
https://locations.carrabbas.com/#15503044,carrabbasitaliangrill,"Carrabba's Altamonte Springs, FL",,Altamonte Springs,FL,,US,+1 407-788-4222,https://locations.carrabbas.com/florida/altamonte-springs/931-n-state-road-434,Mo-Th 11:00-22:00; Fr-Sa 11:00-23:00; Su 11:00-21:00,Carrabba's Italian Grill,Q5045999
2039756,chase_us,Wekiva Springs - New branch,,Altamonte Springs,FL,,US,+1 407-774-1009,https://locator.chase.com/fl/altamonte-springs/971-n-state-road-434,Mo-Fr 09:00-17:00; Sa 09:00-14:00,Chase,Q524629
fl_altamonte-springs_400-w-state-road-436,chipotle, ,,Altamonte Springs,FL,,US,+1 407-682-2747,https://locations.chipotle.com/fl/altamonte-springs/400-w-state-road-436,,Chipotle,Q465751
https://locations.chuckecheese.com/us/fl/altamontesprings/541-w.-hwy-436,chuckecheese,Chuck E. Cheese,,Altamonte Springs,FL,,US,+1 407-788-0122,https://locations.chuckecheese.com/us/fl/altamontesprings/541-w.-hwy-436,Mo-Fr 11:00-21:00; Sa 10:00-22:00; Su 11:00-21:00,Chuck E. Cheese,Q2438391
33775,citi,ATM 7ELEVEN-FCTI,,Altamonte Sprng,FL,,US,,,,Citibank,Q857063
44310,citi,ATM Circle K,,Altamonte Springs,FL,,US,,,,Citibank,Q857063
88649,citi,ATM Walgreens,,Altamonte Springs,FL,,US,,,,Citibank,Q857063
29285,citi,ATM 7ELEVEN-FCTI,,Altamonte Sprin,FL,,US,,,,Citibank,Q857063
49783,citi,ATM CVS,,Altamonte Springs,FL,,US,,,,Citibank,Q857063
29897,citi,ATM 7ELEVEN-FCTI,,Altamonte Sprng,FL,,US,,,,Citibank,Q857063
47020,citi,ATM CVS,,Altamonte Springs,FL,,US,,,,Citibank,Q857063
46263,citi,ATM Costco,,Altamonte Springs,FL,,US,,,,Citibank,Q857063
49177,citi,ATM CVS,,Altamonte Springs,FL,,US,,,,Citibank,Q857063
83145,citi,ATM Target,,Altamonte Springs,FL,,US,,,,Citibank,Q857063
93273,citi,ATM Walgreens,,Altamonte Springs,FL,,US,,,,Citibank,Q857063
95558,citi,ATM Winn Dixie,,Altamonte Springs,FL,,US,,,,Citibank,Q857063
33410,citi,ATM 7ELEVEN-FCTI,,Altamonte Sprng,FL,,US,,,,Citibank,Q857063
70422,citi,ATM PNC AT WAWA,,Altamonte Springs,FL,,US,,,,Citibank,Q857063
33345,citi,ATM 7ELEVEN-FCTI,,Atlamonte Sprin,FL,,US,,,,Citibank,Q857063
47870,citi,ATM CVS,,Altamonte Springs,FL,,US,,,,Citibank,Q857063
,credit_union_us,MIDFLORIDA CU,,Altamonte Springs,FL,,US,+1 863-688-3733,,Mo-Th 09:00-05:00; Fr 09:00-06:00; Sa 09:00-01:00,,
80443139,cricket_wireless,Cricket Wireless Authorized Retailer,,Altamonte Springs,FL,,US,+1 407-865-5997,https://www.cricketwireless.com/stores/ll/US/FL/Altamonte-Springs/946-W-State-Road-436,Mo-Sa 10:00-19:00; Su 12:00-18:00,Cricket Wireless,Q5184987
497,crunch_fitness,Crunch Fitness,,Altamonte Springs,FL,,US,+1 407-635-1204,https://www.crunch.com/locations/altamonte-springs,,Crunch Fitness,Q5190093
3253,cvs_us,CVS Pharmacy,,Altamonte Springs,FL,,US,+1 407-869-6463,https://www.cvs.com/store-locator/altamonte-springs-fl-pharmacies/1098-montgomery-rd-altamonte-springs-fl-32714/storeid=3253,Mo-Th 08:00-22:00; Fr-Sa 08:00-23:00; Su 08:00-22:00,CVS Pharmacy,Q2078880
3757,cvs_us,CVS Pharmacy,,Altamonte Springs,FL,,US,+1 407-291-4198,https://www.cvs.com/store-locator/altamonte-springs-fl-pharmacies/1401-dutch-elm-drive-altamonte-springs-fl-32714/storeid=3757,Mo-Su 08:00-22:00,CVS Pharmacy,Q2078880
5048,dominos_pizza_us,Domino's Pizza,,Altamonte Springs,FL,,US,+1 407-682-2737,https://pizza.dominos.com/florida/altamonte-springs/532-w-sr-436,Mo-Th 10:30-24:00; Fr-Sa 10:30-01:00; Su 10:30-24:00,Domino's,Q839466
350967,dunkin_us,Dunkin',,Altamonte Springs,FL,,US,+1 407-834-3005,https://locations.dunkindonuts.com/en/fl/altamonte-springs/946-w-state-road-436/350967,Mo-Su 04:00-23:00,Dunkin',Q847743
https://www.edwardjones.com/us-en/financial-advisor/michael-dearman,edwardjones,Michael Dearman,,Altamonte Springs,FL,,US,+1 407-772-8748,https://www.edwardjones.com/us-en/financial-advisor/michael-dearman,,Edward Jones,Q5343830
340-n-state-road-434,einsteinbros,S.R. 434 North of 436 Einstein Bros. Bagels,,Altamonte Springs,FL,,US,+1 407-786-4788,https://locations.einsteinbros.com/us/fl/altamonte-springs/340-n-state-road-434,Mo-Su 06:00-14:00,Einstein Bros. Bagels,Q5349788
E10778,enterprise,Altamonte Springs - N State Rd. 434,,Altamonte Springs,FL,,US,+1 407-478-8720,,,Enterprise Rent-A-Car,Q17085454
200330486,exxonmobil,REBEL STORES,,ALTAMONTE SPRINGS,FL,,US,+1 909-394-4728,https://www.exxon.com/en/find-station/mobil-altamontesprings-fl-rebelstores-200330486,24/7,Mobil,Q109676002
https://local.fedex.com/#25204301,fedex,,,Altamonte Springs,FL,,US,+1 800-463-3339,https://local.fedex.com/en-us/fl/altamonte-springs/e2m8z,,FedEx,Q459477
https://local.fedex.com/#25205331,fedex,,,Altamonte Springs,FL,,US,+1 800-463-3339,https://local.fedex.com/en-us/fl/altamonte-springs/e2emf,,FedEx,Q459477
https://local.fedex.com/#1022694715,fedex,FedEx Authorized ShipCenter,,Altamonte Springs,FL,,US,+1 321-972-8533,https://local.fedex.com/en-us/fl/altamonte-springs/00w4v,,FedEx,Q459477
https://local.fedex.com/#25458517,fedex,,,Altamonte Springs,FL,,US,+1 800-463-3339,https://local.fedex.com/en-us/fl/altamonte-springs/00j45,,FedEx,Q459477
https://local.fedex.com/#25145873,fedex,FedEx Authorized ShipCenter,,Altamonte Springs,FL,,US,+1 407-636-3172,https://local.fedex.com/en-us/fl/altamonte-springs/00dj8,,FedEx,Q459477
https://locations.53.com/#3034627,fifththirdbank,Fifth Third Bank Altamonte Springs,,Altamonte Springs,FL,,US,+1 407-869-6607,https://locations.53.com/fl/altamonte-springs/254-west-state-road-436.html,Mo-Th 09:00-17:00; Fr 09:00-18:00; Sa 09:00-12:00,Fifth Third Bank,Q1411810
29297,firestone_auto_care,Firestone Complete Auto Care,,Altamonte Springs,FL,,US,+1 321-214-8086,https://local.firestonecompleteautocare.com/florida/altamonte-springs/369-fl-436/,,Firestone,Q420837
2850,first_cash,Cash America Pawn,,Altamonte Springs,FL,,US,+1 407-788-7296,,,Cash America,Q5048636
https://locations.fivebelow.com/fl/altamonte-springs/380-south-state-road-434,five_below,Five Below West Town Corners,,Altamonte Springs,FL,,US,,https://locations.fivebelow.com/fl/altamonte-springs/380-south-state-road-434,Mo-Sa 10:00-20:00; Su 11:00-18:00,Five Below,Q5455836
1291,fresenius_kidney_care_us,Fresenius Kidney Care Orlando,,Altamonte Springs,FL,,US,+1 800-881-5101,https://www.freseniuskidneycare.com/dialysis-centers/florida/1291,Mo-Fr 07:30-16:00,,
https://fuzzystacoshop.com/locations/florida/altamonte-springs/,fuzzys_taco_shop_us,Altamonte Springs,,Altamonte Springs,FL,,US,+1 407-790-7750,https://fuzzystacoshop.com/locations/florida/altamonte-springs/,Mo-Sa 10:00-22:00; Su 10:00-21:00,Fuzzy's Taco Shop,Q85762348
1679,gamestop_us,West Town Corners,,Altamonte Springs,FL,,US,+1 407-862-5207,https://www.gamestop.com/search/?store=1679,Mo-Th 11:00-20:00; Fr-Sa 10:00-21:00; Su 11:00-20:00,GameStop,Q202210
https://stores.gnc.com/#24058392,gnc,GNC West Town Center,,,FL,,US,+1 407-682-2226,https://stores.gnc.com/all-stores-florida/altamonte-springs/150-state-road-434,Mo-Fr 10:00-20:00; Sa 10:00-19:00; Su 11:00-18:00,GNC,Q4808595
https://www.goldencorral.com/locations/location-detail/835/golden-corral-west-town-parkway/,golden_corral,"Golden Corral 835, Altamonte springs, FL",,Altamonte springs,FL,,US,+1 407-788-2700,https://www.goldencorral.com/locations/location-detail/835/golden-corral-west-town-parkway/,,Golden Corral,Q4039560
https://salons.greatclips.com/us/fl/altamonte-springs/775-gateway-dr,greatclips,Great Clips,,Altamonte Springs,FL,,US,+1 407-292-2100,https://salons.greatclips.com/us/fl/altamonte-springs/775-gateway-dr,Mo-Fr 09:00-19:00; Sa 09:00-18:00; Su 10:00-17:00,Great Clips,Q5598967
https://salons.greatclips.com/us/fl/altamonte-springs/931-n-state-road-434,greatclips,Great Clips,,Altamonte Springs,FL,,US,+1 407-682-6945,https://salons.greatclips.com/us/fl/altamonte-springs/931-n-state-road-434,Mo-Fr 09:00-19:00; Sa 09:00-18:00; Su 09:00-17:00,Great Clips,Q5598967
mcoalhx-hampton-suites-orlando-north-altamonte-springs,hilton,Hampton Inn & Suites Orlando-North/Altamonte Springs,,,FL,,US,+1 407-331-0220,https://www.hilton.com/ar/hotels/mcoalhx-hampton-suites-orlando-north-altamonte-springs/,,Hampton by Hilton,Q5646230
9480,h_r_block,H&R Block,,Altamonte Springs,FL,,US,+1 407-295-0010,https://www.hrblock.com/local-tax-offices/florida/altamonte-springs/851-s-state-rd-434/9480/,,H&R Block,Q5627799
9472,h_r_block,H&R Block,,Altamonte Springs,FL,,US,+1 407-869-9549,https://www.hrblock.com/local-tax-offices/florida/altamonte-springs/ashby-square/9472/,,H&R Block,Q5627799
https://office.jacksonhewitt.com/#27577132,jackson_hewitt,Jackson Hewitt,,Altamonte Springs,FL,,US,+1 407-282-1040,https://office.jacksonhewitt.com/tax-preparation-services-locations/en/fl/altamonte-springs/931-n-state-road-434/13364,Mo-Fr 10:00-19:00; Sa 10:00-17:00; Su 12:00-17:00,Jackson Hewitt,Q6117132
https://locations.jimmyjohns.com/fl/altamontesprings/sandwiches-1221.html,jimmy_johns,Jimmy John's,,Altamonte Springs,FL,,US,+1 407-253-3989,https://locations.jimmyjohns.com/fl/altamontesprings/sandwiches-1221.html,,Jimmy John's,Q1689380
https://www.kekes.com/kekes-altamonte,keke,Breakfast in Altamonte with Keke’s,,Altamonte Springs,FL,,US,+1 407-951-7770,https://www.kekes.com/kekes-altamonte,Mo-Su 07:00-14:30,Keke's Breakfast Cafe,Q115930150
4354,key_food_us,Fancy Fruit & Produce,,Altamonte Springs,FL,,US,+1 407-865-9348,https://keyfoodstores.keyfood.com/store/store/4354,Mo-Sa 08:00-19:15; Su 09:00-19:00,Key Food,Q6398037
798,kohls_us,Kohl's,,Altamonte Springs,FL,,US,+1 407-788-2480,https://www.kohls.com/stores/fl/altamontesprings-798.shtml,Mo-Sa 09:00-21:00; Su 09:00-20:00,Kohl's,Q967265
MCOAT,marriott,Residence Inn Orlando Altamonte Springs/Maitland,,Altamonte Springs,FL,,US,+1 407-788-7991,https://www.marriott.com/MCOAT,,Residence Inn by Marriott,Q7315394
MCOAL,marriott,SpringHill Suites Orlando Altamonte Springs/Maitland,,Altamonte Springs,FL,,US,+1 407-865-6400,https://www.marriott.com/MCOAL,,SpringHill Suites,Q7580351
MCOSG,marriott,TownePlace Suites Orlando Altamonte Springs/Maitland,,Altamonte Springs,FL,,US,+1 321-316-3111,https://www.marriott.com/MCOSG,,Townplace Suites by Marriott,Q7830092
16983,mattress_firm_us,Mattress Firm West Altamonte,,Altamonte Springs,FL,,US,+1 407-869-4555,https://www.mattressfirm.com/en-us/stores/fl/altamonte-springs/053066/,,Mattress Firm,Q6791878
18798,mattress_firm_us,Mattress Firm Clearance Center West State Road 436,,Altamonte Springs,FL,,US,+1 407-682-0507,https://www.mattressfirm.com/en-us/stores/fl/altamonte-springs/053038/,,Mattress Firm Clearance,Q6791878
https://metrodiner.com/locations/florida/altamonte-springs/,metrodiner,Metro Diner – Altamonte Springs,,Altamonte Springs,FL,,US,+1 407-917-8997,https://metrodiner.com/locations/florida/altamonte-springs/,Mo-Su 07:00-20:00,Metro Diner,Q104870732
https://metrodiner.com/locations/florida/altamonte-springs/,metro_diner_us,Metro Diner – Altamonte Springs,,Altamonte Springs,FL,,US,+1 407-917-8997,https://metrodiner.com/locations/florida/altamonte-springs/,Mo-Su 07:00-20:00,Metro Diner,Q104870732
2382,mightyflame,KVVIK MART,,ALTAMONTE SPRINGS,FL,,US,+1 321-203-2008,,,Mighty Flame,
2447,mightyflame,LA PLACITA MARKET,,Altamonte Springs,FL,,US,+1 407-788-8814,,,Mighty Flame,
1878,mightyflame,SUN FOOD MART,,ALTAMONTE SPRINGS,FL,,US,+1 407-775-5180,,,Mighty Flame,
71473190,moneygram,WAL-MART - #1374,,ALTAMONTE SPRINGS,FL,,US,+1 407-774-9966,,Mo-Su 07:00-21:00,MoneyGram,Q1944412
https://locations.oreillyauto.com/fl/altamontesprings/check-engine-light-testing-4387.html,oreilly,Your Altamonte Springs O'Reilly Auto Parts Store,,Altamonte Springs,FL,,US,+1 407-862-0131,https://locations.oreillyauto.com/fl/altamontesprings/check-engine-light-testing-4387.html,Mo-Sa 07:30-21:00; Su 08:00-20:00,O'Reilly Auto Parts,Q7071951
https://locations.oreillyauto.com/fl/altamontesprings/battery-testing-4387.html,oreilly,Your Altamonte Springs O'Reilly Auto Parts Store,,Altamonte Springs,FL,,US,+1 407-862-0131,https://locations.oreillyauto.com/fl/altamontesprings/battery-testing-4387.html,Mo-Sa 07:30-21:00; Su 08:00-20:00,O'Reilly Auto Parts,Q7071951
https://locations.oreillyauto.com/fl/altamontesprings/wiper-installation-4387.html,oreilly,Your Altamonte Springs O'Reilly Auto Parts Store,,Altamonte Springs,FL,,US,+1 407-862-0131,https://locations.oreillyauto.com/fl/altamontesprings/wiper-installation-4387.html,Mo-Sa 07:30-21:00; Su 08:00-20:00,O'Reilly Auto Parts,Q7071951
https://locations.oreillyauto.com/fl/altamontesprings/autopartes-4387.html,oreilly,Tu tienda O'Reilly Auto Parts en Altamonte Springs,,Altamonte Springs,FL,,US,+1 407-862-0131,https://locations.oreillyauto.com/fl/altamontesprings/autopartes-4387.html,Mo-Sa 07:30-21:00; Su 08:00-20:00,O'Reilly Auto Parts,Q7071951
https://www.orkin.com/locations/florida-fl/altamonte-springs-pest-control/branch-235,orkin_us,Orkin,,Altamonte Springs,FL,,US,+1 407-792-7601,https://www.orkin.com/locations/florida-fl/altamonte-springs-pest-control/branch-235,,Orkin,Q7102943
https://locations.outback.com/#15502243,outbacksteakhouse,Outback Steakhouse,,Altamonte Springs,FL,,US,+1 407-862-1050,https://locations.outback.com/florida/altamonte-springs/140-n-state-rd-434,Mo-Th 11:00-22:00; Fr-Sa 11:00-23:00; Su 11:00-22:00,Outback Steakhouse,Q1064893
https://locations.papajohns.com/#10691633,papa_johns,Papa John's,,Altamonte Springs,FL,,US,+1 407-774-7272,https://locations.papajohns.com/united-states/fl/32714/altamonte-springs/380-s-state-road-434,Mo-Sa 10:00-24:00; Su 10:00-23:00,Papa John's Pizza,Q2759586
22,pinch_a_penny_us,Pinch A Penny,,Altamonte Springs,FL,,US,+1 407-869-6060,https://pinchapenny.com/stores/altamonte-springs-fl-22,Mo-Sa 09:00-18:00; Su 11:00-17:00,Pinch A Penny,Q121436109
fl_altamonte-springs_767-s-state-road-434,pizza_hut_us,767 S. State Road 434,,Altamonte Springs,FL,,US,+1 407-522-5577,https://locations.pizzahut.com/fl/altamonte-springs/767-s-state-road-434,,Pizza Hut,Q191615
18177,planet_smoothie_us,Planet Smoothie,,Altamonte Springs,FL,,US,+1 407-682-2044,https://www.planetsmoothie.com/stores/altamonte-springs/18177,,Planet Smoothie,Q7201170
restaurant_81878,popeyes_us_fr,Popeyes,"460 W State Road 436 Altamonte Springs, Florida 32714 - USA",Altamonte Springs,FL,,US,+1 407-862-1012,https://www.popeyes.com/store-locator/store/restaurant_81878,Mo 10:00-22:00; Tu-We 10:00-23:00; Th-Sa 10:00-00:00; Su 10:00-22:00,Popeyes,Q1330910
home-depot-0263-13787,ppgpaints,HOME DEPOT 0263,,"Altamonte Springs, ",FL,,US,+1 407-865-5410,https://www.ppgpaints.com/store-locator/us/florida/altamonte-springs-paint-stores/home-depot-0263-13787,,PPG Paints,Q83891559
https://www.publicstorage.com/self-storage-fl-altamonte-springs/1934.html,public_storage_us,Public Storage,,Altamonte Springs,FL,,US,+1 407-501-4134,https://www.publicstorage.com/self-storage-fl-altamonte-springs/1934.html,,Public Storage,Q1156045
https://www.publicstorage.com/self-storage-fl-altamonte-springs/6017.html,public_storage_us,Public Storage,,Altamonte Springs,FL,,US,+1 407-698-5015,https://www.publicstorage.com/self-storage-fl-altamonte-springs/6017.html,,Public Storage,Q1156045
https://www.publicstorage.com/self-storage-fl-altamonte-springs/2146.html,public_storage_us,Public Storage,,Altamonte Springs,FL,,US,+1 407-434-9078,https://www.publicstorage.com/self-storage-fl-altamonte-springs/2146.html,,Public Storage,Q1156045
https://locations.qdoba.com/us/fl/altamonte-springs/380-s-state-rd-434.html,qdoba,QDOBA SR 434,,Altamonte Springs,FL,,US,+1 407-628-9217,https://locations.qdoba.com/us/fl/altamonte-springs/380-s-state-rd-434.html,Mo-Sa 11:00-21:30; Su 11:00-21:00,Qdoba,Q1363885
https://www.racetrac.com/locations/florida/altamonte-springs/altamonte-springs,racetrac_us,RaceTrac,,Altamonte Springs,FL,,US,+1 407-862-0003,https://www.racetrac.com/locations/florida/altamonte-springs/altamonte-springs,,RaceTrac,Q735942
10189574,rooms_to_go_us,Rooms To Go - Altamonte Springs,,Altamonte Springs,FL,,US,+1 407-788-2031,,,Rooms To Go,Q7366329
34767,seven_eleven_ca_us,7-Eleven Store,,Altamonte Springs,FL,,US,+1 407-682-5912,https://www.7-eleven.com/locations/fl/altamonte-springs/901-w-highway-436-34767,,7-Eleven,Q259340
278,sola_salon_studios,Altamonte Springs - Wekiva Square,,Altamonte Springs,FL,,US,+1 407-449-1533,https://www.solasalonstudios.com/locations/altamonte-springs,,Sola Salon Studios,Q64337426
https://restaurants.subway.com/#14896109,subway,Subway,,Altamonte Springs Seminole,FL,,US,+1 407-907-0787,https://restaurants.subway.com/united-states/fl/altamonte-springs/1013-n-sr-434,Mo-Fr 08:00-22:00; Sa 09:00-22:00; Su 10:00-22:00,Subway,Q244457
https://restaurants.subway.com/#14907726,subway,Subway West Town Corners,,Altamonte Springs Seminole,FL,,US,+1 407-682-0989,https://restaurants.subway.com/united-states/fl/altamonte-springs/380-s-state-rd-434,Mo-Sa 08:00-23:00; Su 09:00-23:00,Subway,Q244457
https://locations.tacobell.com/#6143286,taco_bell,Taco Bell,,Altamonte Springs,FL,,US,+1 407-865-5808,https://locations.tacobell.com/fl/altamonte-springs/495-w-state-rd-436.html,Mo-We 07:00-04:00; Th-Sa 07:00-05:00; Su 07:00-04:00,Taco Bell,Q752941
1067,tjx,Altamonte Springs,995 North State 434,Altamonte Springs,FL,,US,+1 407-862-0043,,Mo-Sa 09:30-21:30; Su 10:00-20:00,Marshalls,Q15903261
28388,tjx,Altamonte Springs,965 West S.R. 436,Altamonte Springs,FL,,US,+1 407-774-1015,,Mo-Sa 09:30-21:30; Su 10:00-20:00,HomeGoods,Q5887941
081530,tjx,Altamonte Springs,380 South SR 434,Altamonte Springs,FL,,US,+1 407-786-7001,,Mo-Sa 09:30-21:30; Su 10:00-20:00,TJ Maxx,Q10860683
1102,tmobile_us,West Town Corners,,Altamonte Springs,FL,,US,+1 407-786-7344,https://www.t-mobile.com/store-locator/fl/altamonte-springs/west-town-corners,,T-Mobile,Q3511885
Altamonte Springs - NOW OPEN,torchys_tacos,Torchy's Tacos,"999 N. State Road 434, Suite 1000",Altamonte Springs,FL,,US,+1 689-207-0220,https://torchystacos.com/location/altamonte-springs/,Mo-Fr 10:00-22:00; Sa 09:00-22:00; Su 09:00-21:00,Torchy's Tacos,Q106769573
https://www.trekbikes.com/us/en_US/retail/altamonte_springs/,trekbikes,Trek Bicycle Altamonte Springs,,Altamonte Springs,FL,,US,+1 407-772-2223,https://www.trekbikes.com/us/en_US/retail/altamonte_springs/,Tu-Sa 10:00-18:00,Trek,Q1067617
1352846,usps,ALTAMONTE SPRINGS,,ALTAMONTE SPRINGS,FL,,US,+1 407-865-5494,,Mo-Fr 09:00-18:00; Sa 09:00-13:30,United States Postal Service,Q668687
3271400016,usps_collection_boxes,USPS COLLECTION BOX - BLUE BOX,1180 SPRING CENTRE SOUTH BLVD,ALTAMONTE SPG,FL,,US,,,,United States Postal Service,Q668687
3271400006,usps_collection_boxes,USPS COLLECTION BOX - BLUE BOX,841 DOUGLAS AVE,ALTAMONTE SPG,FL,,US,,,,United States Postal Service,Q668687
3271400046,usps_collection_boxes,USPS COLLECTION BOX - BLUE BOX,801 W STATE ROAD 436,ALTAMONTE SPG,FL,,US,,,,United States Postal Service,Q668687
3271400004,usps_collection_boxes,USPS COLLECTION BOX - BLUE BOX,801 DOUGLAS AVE,ALTAMONTE SPG,FL,,US,,,,United States Postal Service,Q668687
3271400020,usps_collection_boxes,USPS COLLECTION BOX - BLUE BOX,150 S STATE ROAD 434,ALTAMONTE SPG,FL,,US,,,,United States Postal Service,Q668687
3271400013,usps_collection_boxes,USPS COLLECTION BOX - BLUE BOX,321 MONTGOMERY RD,ALTAMONTE SPG,FL,,US,,,,United States Postal Service,Q668687
3271400038,usps_collection_boxes,USPS COLLECTION BOX - PO LOBBY,321 MONTGOMERY RD,ALTAMONTE SPG,FL,,US,,,,United States Postal Service,Q668687
3271400048,usps_collection_boxes,USPS COLLECTION BOX - PO LOBBY,321 MONTGOMERY RD,ALTAMONTE SPG,FL,,US,,,,United States Postal Service,Q668687
3271400049,usps_collection_boxes,USPS COLLECTION BOX - APC,321 MONTGOMERY RD,ALTAMONTE SPG,FL,,US,,,,United States Postal Service,Q668687
3271400057,usps_collection_boxes,USPS COLLECTION BOX - PO LOBBY,321 MONTGOMERY RD,ALTAMONTE SPG,FL,,US,,,,United States Postal Service,Q668687
3271400002,usps_collection_boxes,USPS COLLECTION BOX - BLUE BOX,385 DOUGLAS AVE,ALTAMONTE SPG,FL,,US,,,,United States Postal Service,Q668687
3271400025,usps_collection_boxes,USPS COLLECTION BOX - BLUE BOX,217 N WESTMONTE DR,ALTAMONTE SPG,FL,,US,,,,United States Postal Service,Q668687
3271400028,usps_collection_boxes,USPS COLLECTION BOX - BLUE BOX,222 S WESTMONTE DR,ALTAMONTE SPG,FL,,US,,,,United States Postal Service,Q668687
3271400043,usps_collection_boxes,USPS COLLECTION BOX - BLUE BOX,237 S WESTMONTE DR,ALTAMONTE SPG,FL,,US,,,,United States Postal Service,Q668687
3271400044,usps_collection_boxes,USPS COLLECTION BOX - BLUE BOX,230 WYMORE RD,ALTAMONTE SPG,FL,,US,,,,United States Postal Service,Q668687
,visa,,,DAYTONA BEACH,FL,,US,,,,,
,visa,,,ALTAMONTE SPRIN,FL,,US,,,,,
,visa,,,ALTAMONTE SPRINGS,FL,,US,,,,,
,visa,,,ALTAMONTE SPRIN,FL,,US,,,,,
,visa,,,ALTAMONTE SPRINGS,FL,,US,,,,,
,visa,,,ALTAMONTE SPRINGS,FL,,US,,,,,
,visa,,,ALTAMONTE SPRINGS,FL,,US,,,,,
,visa,,,ALTAMONTE SPRING,FL,,US,,,,,
,visa,,,ALTAMONTE SPRINGS,FL,,US,,,,,
,visa,,,ALTAMONTE SPRINGS,FL,,US,,,,,
,visa,,,ALTAMONTE SPRINGS,FL,,US,,,,,
,visa,,,ALTAMONTE SPRINGS,FL,,US,,,,,
,visa,,,ALTAMONTE SPRIN,FL,,US,,,,,
,visa,,,ALTAMONTE SPRIN,FL,,US,,,,,
,visa,,,ALTAMONTE SPRINGS,FL,,US,,,,,
,visa,,,ALTAMONTE SPRINGS,FL,,US,,,,,
,visa,,,ALTAMONTE SPRINGS,FL,,US,,,,,
,visa,,,ALTAMONTE SPRINGS,FL,,US,,,,,
,visa,,,ALTAMONTE SPNGS,FL,,US,,,,,
,visa,,,ALTAMONTE SPRINGS,FL,,US,,,,,
,visa,,,ALTAMONTE SPRIN,FL,,US,,,,,
,visa,,,ALTAMONTE SPR,FL,,US,,,,,
,visa,,,ORLANDO,FL,,US,,,,,
,visa,,,ALTAMONTE SPRNG,FL,,US,,,,,
,visa,,,ALTAMONTE,FL,,US,,,,,
,visa,,,ALTAMONTE SPRINGS,FL,,US,,,,,
,visa,,,ALTAMONTE SPRING,FL,,US,,,,,
,visa,,,ALTAMONTE SPRGS,FL,,US,,,,,
,visa,,,ALTAMONTE SPRINGS,FL,,US,,,,,
,visa,,,ALTAMONTE SPRINGS,FL,,US,,,,,
,visa,,,ALTAMONTE SPRINGS,FL,,US,,,,,
,visa,,,ALTAMONTE SPRINGS,FL,,US,,,,,
,visa,,,ALTAMONTE SPRINGS,FL,,US,,,,,
,visa,,,ALTAMONTE SPRINGS,FL,,US,,,,,
,visa,,,FOREST CITY,FL,,US,,,,,
,visa,,,ALTAMONTE SPRINGS,FL,,US,,,,,
,visa,,,ALTAMONTE SPRINGS,FL,,US,,,,,
,visa,,,ALTAMONTE SPRI,FL,,US,,,,,
,visa,,,ALTAMONTE SPRINGS,FL,,US,,,,,
,visa,,,ALTAMONTE SPRINGS,FL,,US,,,,,
,visa,,,ALTAMONTE SPRINGS,FL,,US,,,,,
,visa,,,ALTAMONTE SPRINGS,FL,,US,,,,,
,visa,,,ALTAMONTE SPRINGS,FL,,US,,,,,
,visa,,,ALTAMONTE SPRINGS,FL,,US,,,,,
,visa,,,ALTAMONTE SPRINGS,FL,,US,,,,,
,visa,,,ALTAMONTE SPRINGS,FL,,US,,,,,
,visa,,,ALTAMONTE SPRINGS,FL,,US,,,,,
,visa,,,ALTAMONTE SPRINGS,FL,,US,,,,,
,visa,,,ALTAMONTE SPRNG,FL,,US,,,,,
,visa,,,ALTAMONTE SPRINGS,FL,,US,,,,,
,visa,,,ALTAMONTE SPRINGS,FL,,US,,,,,
,visa,,,ALTAMONTE SPRINGS,FL,,US,,,,,
,visa,,,ALTAMONTE SPRINGS,FL,,US,,,,,
,visa,,,ALTAMONTE SPRINGS,FL,,US,,,,,
,visa,,,ALTAMONTE SPRINGS,FL,,US,,,,,
,visa,,,ALTAMONTE SPRINGS,FL,,US,,,,,
,visa,,,ALTAMONTE SPRINGS,FL,,US,,,,,
,visa,,,ALMONTE SPRINGS,FL,,US,,,,,
,visa,,,ALTAMONTE SPRINGS,FL,,US,,,,,
,visa,,,ALTAMONTE SPRINGS,FL,,US,,,,,
,visa,,,ALTAMONTE SPRINGS,FL,,US,,,,,
,visa,,,ALTAMONTE SPRINGS,FL,,US,,,,,
,visa,,,ALTAMONTE SPRINGS,FL,,US,,,,,
,visa,,,ORLANDO,FL,,US,,,,,
,visa,,,ALTAMONTE SPRINGS,FL,,US,,,,,
,visa,,,ALTAMONTE SPRINGS,FL,,US,,,,,
,visa,,,ORLANDO,FL,,US,,,,,
,visa,,,ALTAMONTE SPRINGS,FL,,US,,,,,
,visa,,,ALTAMONTE SPRINGS,FL,,US,,,,,
,visa,,,ALTAMONTE SPRINGS,FL,,US,,,,,
,visa,,,ALT SPRINGS,FL,,US,,,,,
,visa,,,ALTAMONTE SPRINGS,FL,,US,,,,,
,visa,,,ALTAMONTE SPRINGS,FL,,US,,,,,
414,waffle_house_us,Waffle House #414,,ALTAMONTE SPRINGS,FL,,US,+1 407-869-1999,https://locations.wafflehouse.com/altamontesprings-fl-414,24/7,Waffle House,Q1701206
https://www.walgreens.com/locator/walgreens-885+w+state+road+436-altamonte+springs-fl-32714/id=16404,walgreens,Walgreens,,Altamonte Springs,FL,,US,+1 407-389-7353,https://www.walgreens.com/locator/walgreens-885+w+state+road+436-altamonte+springs-fl-32714/id=16404,Mo-Su 07:00-22:00,Walgreens,Q1591889
https://www.walgreens.com/locator/walgreens-200+w+state+road+436-altamonte+springs-fl-32714/id=9016,walgreens,Walgreens,,Altamonte Springs,FL,,US,+1 407-389-0476,https://www.walgreens.com/locator/walgreens-200+w+state+road+436-altamonte+springs-fl-32714/id=9016,Mo-Su 07:00-22:00,Walgreens,Q1591889
w140,waxing_the_city_us,Altamonte Springs,,Altamonte Springs,FL,,US,+1 407-840-2378,https://www.waxingthecity.com/locations/w140/us/fl/altamonte-springs/,Mo-Fr 10:00-20:00; Sa 09:00-19:00; Su 11:00-18:00,Waxing the City,Q120599883
351__N__STATE__ROAD__434_ALTAMONTE__SPRINGS_FL_32714,wellsfargo,Wells Fargo,351 N STATE ROAD 434,ALTAMONTE SPRINGS,FL,,US,+1 407-774-3620,https://www.wellsfargo.com/locator/bank/351__N__STATE__ROAD__434_ALTAMONTE__SPRINGS_FL_32714/,Mo-Fr 09:00-17:00,Wells Fargo,Q744149
1030__MONTGOMERY__RD_ALTAMONTE__SPRINGS_FL_32714,wellsfargo,Wells Fargo,1030 MONTGOMERY RD,ALTAMONTE SPRINGS,FL,,US,+1 407-657-3114,https://www.wellsfargo.com/locator/bank/1030__MONTGOMERY__RD_ALTAMONTE__SPRINGS_FL_32714/,Mo-Fr 09:00-17:00,Wells Fargo,Q744149
4b3b0dab53614b6db1ec84093a7d4142,western_union,OCEAN LAND AIR EXPRESS,,Altamonte Spg,FL,,US,+1 407-960-4101,https://location.westernunion.com/us/fl/altamonte-spg/4b3b0dab53614b6db1ec84093a7d4142,Mo-Su 10:00-19:00,Western Union,Q861042
c746fa1d0d370325d75a20ace4fa7e29,western_union,WALMART #001374,,Altamonte Springs,FL,,US,+1 407-774-9966,https://location.westernunion.com/us/fl/altamonte-springs/c746fa1d0d370325d75a20ace4fa7e29,Mo-Sa 08:00-20:00; Su 10:00-18:00,Western Union,Q861042
5ba69c3c4895ff2ab6e51da6c77ce076,western_union,FANCY FRUIT & PRODUCE OF ALTAM,,Altamonte Spg,FL,,US,+1 407-865-9348,https://location.westernunion.com/us/fl/altamonte-spg/5ba69c3c4895ff2ab6e51da6c77ce076,Mo-Sa 08:00-20:00; Su 09:00-19:00,Western Union,Q861042
2389,winndixie,WEST TOWN SHOPPING CTR LIQUOR,340 SOUTH SR 434 SUITE 1036,ALTAMONTE SPRINGS,FL,,US,+1 407-788-0138,https://www.winndixie.com/storedetails/altamonte springs/fl?search=2389,,Winn Dixie,Q1264366
2388,winndixie,WEST TOWN SHOPPING CENTER,340 SOUTH SR 434 SUITE 1034,ALTAMONTE SPRINGS,FL,,US,+1 407-682-1703,https://www.winndixie.com/storedetails/altamonte springs/fl?search=2388,,Winn Dixie,Q1264366
