Ref,Spider,Name,Address,City,State,Zipcode,Country,Phone,Website,Hours,Brand,WikiData
5010203,lukoil,BADAY GLOBAL,"Derbent Mahallesi Ertugrulgazi Caddesi ( Ada: - , Pafta:10 , Parsel:3144 ), No:44 , MANISA, Turkey",MANISA,Manisa,,TR,,,24/7,Lukoil,Q329347
116406,lukoil,ADEM OZAY-OZAY PETROL,"Ilcesi Poyraz Koyu (Ada:-, Pafta:30, Parsel:781), MANISA, Turkey",MANISA,Manisa,,TR,,,24/7,Lukoil,Q329347
89001,lukoil,DOGAN AKARYAKIT,"Yesilyurt Beldesi Esme Yolu Uzeri, б/н, MANISA, Turkey",MANISA,Manisa,,TR,,,24/7,Lukoil,Q329347
88606,lukoil,KASAP PETROL,"Eski Cami Mahallesi Kula Yolu Uzeri, б/н, MANISA, Turkey",MANISA,Manisa,,TR,,,24/7,Lukoil,Q329347
75401,lukoil,GOC HISAR PETROL,"Süleymanlı Mahallesi 5 Eylül Caddesi, No:78, MANISA",MANISA,Manisa,,TR,,,24/7,Lukoil,Q329347
60201,lukoil,Akhmet Gyunay,"ANKARA ASFALTI ORENALTI MEVKII 40.KM OREN (Ada:- , Pafta:- , Parsel:-), IZMIR, Turkey",IZMIR,Manisa,,TR,,,24/7,Lukoil,Q329347
54602,lukoil,TUTAL PETROL,"ZEYTINLIOVA MAHALLESI VATAN CADDESI, 15, MANISA, Turkey",MANISA,Manisa,,TR,,,24/7,Lukoil,Q329347
9657,lukoil,TR-45-0405,"CUMHURIYET MAHALLESI BELEDIYE CADDESI, № 286, MANISA",MANISA,Manisa,,TR,+90 236 712 40 01,,24/7,Lukoil,Q329347
8987,lukoil,TR-45-0959,"ISTASYON MAHALLESI IZMIR YOLU BELEDIYE HUDUTLARI ICI  (PAFTA NO.31M-IA, ADA 546, PARSEL 195), № 35, MANISA",MANISA,Manisa,,TR,+90 236 654 07 73,,24/7,Lukoil,Q329347
8835,lukoil,TR-45-0925,"SITELER MAHALLESI BABA SOKAK ( PAFTA:50 KID PARSEL:6577, № 2, MANISA",MANISA,Manisa,,TR,0236 867 44 75;0236 867 54 03,,24/7,Lukoil,Q329347
8685,lukoil,TR-45-0215,"KAVAKLIDERE KASB. IZMIR YOLU UZERI, бн, MANISA",MANISA,Manisa,,TR,+90 236 674 87 54,,24/7,Lukoil,Q329347
8145,lukoil,TR-45-0415,"ATATURK MAHALLESI FATIH BULVARI, № 29, MANISA",MANISA,Manisa,,TR,0236 547 25 09-33 75,,24/7,Lukoil,Q329347
8132,lukoil,TR-45-0402,"COGURDERE MEVKII MERSINLI BELDESI, бн, MANISA",MANISA,Manisa,,TR,+90 236 737 21 74,,24/7,Lukoil,Q329347
8127,lukoil,TR-45-0409,"BUYUKBELEN KASABASI, бн, MANISA",MANISA,Manisa,,TR,+90 236 367 65 33,,24/7,Lukoil,Q329347
8102,lukoil,SERTTAS PETROL,"YENIKOY KOYU ARKALATI MEVKII, бн, MANISA",MANISA,Manisa,,TR,+90 236 671 10 64,,24/7,Lukoil,Q329347
8086,lukoil,SOLAK AKARYAKIT PETROL,"HUSEYINBABA MAHALLESI SALIHLI YOLU UZERI, бн, MANISA",MANISA,Manisa,,TR,+90 236 547 26 49,,24/7,Lukoil,Q329347
8081,lukoil,TR-45-0413,"AYAN MAHALLESI TIRAZLAR CADDESI, №  31/A, MANISA",MANISA,Manisa,,TR,+90 236 867 41 41,,24/7,Lukoil,Q329347
8026,lukoil,HALIT DANACI,"HURRIYET MAHALLESI KIRKAGAC YOLU UZERI NO:BILA, бн, MANISA",MANISA,Manisa,,TR,0236 613 10 14;0236 614 13 47,,24/7,Lukoil,Q329347
8017,lukoil,TR-45-0401,"NAKIPAGA MAHALLESI BODAMAZ MEVKII DEMIRCI YOLU UZERI, бн, MANISA",MANISA,Manisa,,TR,+90 236 547 30 89,,24/7,Lukoil,Q329347
7988,lukoil,TR-45-0418,"SART BELDESI, MERSINDERE VAKIF MEVKII, бн, MANISA",MANISA,Manisa,,TR,+90 236 716 14 01,,24/7,Lukoil,Q329347
7975,lukoil,TR-45-0403,"CUMHURIYET MAHALLESI MARESAL FEVZICAKMAK CADDESI POYRAZDAMLARI BELDESI, № 4, MANISA",MANISA,Manisa,,TR,+90 236 745 26 01,,24/7,Lukoil,Q329347
,visa,,,YUNUSEMRE,MANISA,,TR,,,,,
,visa,,,YUNUSEMRE,MANISA,,TR,,,,,
,visa,,,YUNUSEMRE,MANISA,,TR,,,,,
,visa,,,YUNUSEMRE,MANISA,,TR,,,,,
,visa,,,YUNUSEMRE,MANISA,,TR,,,,,
,visa,,,YUNUSEMRE,MANISA,,TR,,,,,
,visa,,,YUNUSEMRE,MANISA,,TR,,,,,
,visa,,,YUNUSEMRE,MANISA,,TR,,,,,
,visa,,,YUNUSEMRE,MANISA,,TR,,,,,
,visa,,,YUNUSEMRE,MANISA,,TR,,,,,
,visa,,,YUNUSEMRE,MANISA,,TR,,,,,
,visa,,,YUNUSEMRE,MANISA,,TR,,,,,
,visa,,,YUNUSEMRE,MANISA,,TR,,,,,
,visa,,,YUNUSEMRE,MANISA,,TR,,,,,
,visa,,,YUNUSEMRE,MANISA,,TR,,,,,
,visa,,,ŞEHZADELER,MANISA,,TR,,,,,
,visa,,,ŞEHZADELER,MANISA,,TR,,,,,
,visa,,,ŞEHZADELER,MANISA,,TR,,,,,
,visa,,,ŞEHZADELER,MANISA,,TR,,,,,
,visa,,,ŞEHZADELER,MANISA,,TR,,,,,
,visa,,,ŞEHZADELER,MANISA,,TR,,,,,
,visa,,,ŞEHZADELER,MANISA,,TR,,,,,
,visa,,,ŞEHZADELER,MANISA,,TR,,,,,
,visa,,,ŞEHZADELER,MANISA,,TR,,,,,
,visa,,,TURGUTLU,MANISA,,TR,,,,,
,visa,,,TURGUTLU,MANISA,,TR,,,,,
,visa,,,TURGUTLU,MANISA,,TR,,,,,
,visa,,,TURGUTLU,MANISA,,TR,,,,,
,visa,,,TURGUTLU,MANISA,,TR,,,,,
,visa,,,TURGUTLU,MANISA,,TR,,,,,
,visa,,,TURGUTLU,MANISA,,TR,,,,,
,visa,,,SARUHANLI,MANISA,,TR,,,,,
,visa,,,AHMETLI,MANISA,,TR,,,,,
,visa,,,SALIHLI,MANISA,,TR,,,,,
,visa,,,SALIHLI,MANISA,,TR,,,,,
,visa,,,SALIHLI,MANISA,,TR,,,,,
,visa,,,SALIHLI,MANISA,,TR,,,,,
,visa,,,SALIHLI,MANISA,,TR,,,,,
,visa,,,SALIHLI,MANISA,,TR,,,,,
,visa,,,GOLMARMARA,MANISA,,TR,,,,,
,visa,,,ALAŞEHIR,MANISA,,TR,,,,,
,visa,,,SARIGOL,MANISA,,TR,,,,,
,visa,,,ALAŞEHIR,MANISA,,TR,,,,,
,visa,,,AKHISAR,MANISA,,TR,,,,,
,visa,,,AKHISAR,MANISA,,TR,,,,,
,visa,,,AKHISAR,MANISA,,TR,,,,,
,visa,,,AKHISAR,MANISA,,TR,,,,,
,visa,,,AKHISAR,MANISA,,TR,,,,,
,visa,,,AKHISAR,MANISA,,TR,,,,,
,visa,,,KIRKAĞAC,MANISA,,TR,,,,,
,visa,,,SOMA,MANISA,,TR,,,,,
,visa,,,SOMA,MANISA,,TR,,,,,
,visa,,,SOMA,MANISA,,TR,,,,,
,visa,,,KULA,MANISA,,TR,,,,,
,visa,,,DEMIRCI,MANISA,,TR,,,,,
