Ref,Spider,Name,Address,City,State,Zipcode,Country,Phone,Website,Hours,Brand,WikiData
30530,bluerhino,AAFES - Fort Polk Home & Garden Store,,Fort Polk,LA,,US,+1 337-537-1001,,,Blue Rhino,Q65681213
94727,bluerhino,AAFES - Fort Polk 24 Hr Shoppette,,Fort Polk,LA,,US,+1 337-537-1050,,,Blue Rhino,Q65681213
30533,bluerhino,AAFES - Fort Polk North Fort Shoppette,,Fort Polk,LA,,US,+1 337-537-5234,,,Blue Rhino,Q65681213
,credit_union_us,Barksdale FCU,,Fort Johnson,LA,,US,+1 337-537-0961,,Mo-Fr 09:00-05:00,,
vba_321e,department_veterans_affairs,Integrated Disability Evaluation System (IDES) and Pre-Discharge Claims Intake Site at Fort Johnson,,Fort Johnson,LA,,US,+1 800-827-1000,,,Department Veterans Affairs,Q592576
363403,dunkin_us,Dunkin',,Fort Polk South,LA,,US,+1 337-404-6210,https://locations.dunkindonuts.com/en/la/fort-polk-south/7323-utah-avenue/363403,Mo-Fr 06:00-19:00; Sa-Su 07:00-19:00,Dunkin',Q847743
E15125,enterprise,Fort Polk,,Ft. Polk,LA,,US,+1 337-537-5568,,,Enterprise Rent-A-Car,Q17085454
344619,firestone_auto_care,Firestone Complete Auto Care,,Fort Polk,LA,,US,+1 337-423-0877,https://local.firestonecompleteautocare.com/louisiana/fort-polk/2275-louisiana-ave/,,Firestone,Q420837
https://stores.gnc.com/#24058354,gnc,GNC Fort Johnson,,,LA,,US,+1 337-535-0037,https://stores.gnc.com/all-stores-louisiana/fort-johnson/7742-colorado-ave,Mo-Sa 09:00-19:00; Su 10:00-17:00,GNC,Q4808595
18670,h_r_block,H&R Block,,Fort Polk,LA,,US,+1 337-537-6355,https://www.hrblock.com/local-tax-offices/louisiana/fort-polk/fort-polk/18670/,,H&R Block,Q5627799
18123,h_r_block,H&R Block,,Fort Polk,LA,,US,+1 337-537-9007,https://www.hrblock.com/local-tax-offices/louisiana/fort-polk/brittany-plaza/18123/,,H&R Block,Q5627799
la_fort-johnson_4535-entrance-road,pizza_hut_us,4535 Entrance Road,,Fort Johnson,LA,,US,+1 337-537-2400,https://locations.pizzahut.com/la/fort-johnson/4535-entrance-road,,Pizza Hut,Q191615
la_fort-johnson_2165-9th-street,pizza_hut_us,2165 9th Street,,Fort Johnson,LA,,US,+1 337-397-4053,https://locations.pizzahut.com/la/fort-johnson/2165-9th-street,,Pizza Hut,Q191615
https://locations.qdoba.com/us/la/fort-polk-south/7784-colorado-ave.html,qdoba,QDOBA Ft Polk,,Fort Polk South,LA,,US,+1 337-537-4089,https://locations.qdoba.com/us/la/fort-polk-south/7784-colorado-ave.html,Mo-Fr 10:30-18:00; Sa-Su 10:30-17:00,Qdoba,Q1363885
https://restaurants.subway.com/#14913291,subway,Subway Fort Johnson,,Fort Polk Vernon,LA,,US,+1 337-537-4089,https://restaurants.subway.com/united-states/la/fort-polk/7742-colorado-ave,Mo-Fr 10:30-18:00; Sa-Su 10:30-16:00,Subway,Q244457
1A19,tmobile_us,AAFES Ft Johnson LA,,Ft Johnson,LA,,US,,https://www.t-mobile.com/store-locator/la/ft-johnson/aafes-ft-johnson-la,,T-Mobile,Q3511885
1438935,usps,FORT JOHNSON,,FORT JOHNSON,LA,,US,+1 337-239-2617,,Mo-Fr 08:30-15:30; Sa 09:30-11:30,United States Postal Service,Q668687
7145900010,usps_collection_boxes,USPS COLLECTION BOX - BLUE BOX,7445 LA HIGHWAY 467,FORT POLK,LA,,US,,,,United States Postal Service,Q668687
7145900022,usps_collection_boxes,USPS COLLECTION BOX - BLUE BOX,6180 UNIVERSITY PKWY,FORT POLK,LA,,US,,,,United States Postal Service,Q668687
7145900023,usps_collection_boxes,USPS COLLECTION BOX - PO LOBBY,6180 UNIVERSITY PKWY,FORT POLK,LA,,US,,,,United States Postal Service,Q668687
7145900026,usps_collection_boxes,USPS COLLECTION BOX - PO LOBBY,6180 UNIVERSITY PKWY,FORT POLK,LA,,US,,,,United States Postal Service,Q668687
7145900029,usps_collection_boxes,USPS COLLECTION BOX - PO LOBBY,6180 UNIVERSITY PKWY,FORT POLK,LA,,US,,,,United States Postal Service,Q668687
,visa,,,FORT POLK,LA,,US,,,,,
,visa,,,FORT POLK,LA,,US,,,,,
,visa,,,FT. POLK,LA,,US,,,,,
,visa,,,FORT POLK,LA,,US,,,,,
,visa,,,FORT POLK,LA,,US,,,,,
,visa,,,FORT POLK,LA,,US,,,,,
,visa,,,N. FT. POLK,LA,,US,,,,,
,visa,,,FORT POLK,LA,,US,,,,,
,visa,,,FORT POLK,LA,,US,,,,,
,visa,,,FORT POLK,LA,,US,,,,,
,visa,,,FORT POLK,LA,,US,,,,,
,visa,,,FORT POLK,LA,,US,,,,,
,visa,,,FORT POLK,LA,,US,,,,,
,visa,,,FORT POLK,LA,,US,,,,,
,visa,,,FORT POLK,LA,,US,,,,,
,visa,,,FORT POLK,LA,,US,,,,,
,visa,,,FT. POLK,LA,,US,,,,,
,visa,,,FT. POLK,LA,,US,,,,,
,visa,,,FT. POLK,LA,,US,,,,,
,visa,,,FORT POLK,LA,,US,,,,,
,visa,,,FT. POLK,LA,,US,,,,,
,visa,,,FORT POLK,LA,,US,,,,,
,visa,,,FT. POLK,LA,,US,,,,,
,visa,,,FORT POLK,LA,,US,,,,,
,visa,,,FORT POLK,LA,,US,,,,,
,visa,,,FORT POLK,LA,,US,,,,,
,visa,,,FT. POLK,LA,,US,,,,,
,visa,,,FORT POLK,LA,,US,,,,,
,visa,,,FT. POLK,LA,,US,,,,,
