Ref,Spider,Name,Address,City,State,Zipcode,Country,Phone,Website,Hours,Brand,WikiData
https://stores.aldi.us/#4420692,aldi_sud_us,ALDI  16 Cottonwood Road,,Glen Carbon,IL,,US,+1 855-955-2534,https://stores.aldi.us/il/glen-carbon/16-cottonwood-road,"Mo-Su 08:30-20:00,09:00-20:00",ALDI,Q41171672
https://restaurants.applebees.com/en-us/il/glen-carbon/3600-s-state-route-159-81013,applebees,Connect with this Applebee's,,Glen Carbon,IL,,US,+1 618-205-8550,https://restaurants.applebees.com/en-us/il/glen-carbon/3600-s-state-route-159-81013,Mo-Su 11:00-23:00,Applebees,Q621532
https://www.banfield.com/locations/veterinarians/il/glen-carbon/edv,banfield_pet_hospital,Glen Carbon,,Glen Carbon,IL,,US,+1 618-692-9410,https://www.banfield.com/locations/veterinarians/il/glen-carbon/edv,Mo-Sa 07:00-18:00; Su 08:00-17:00,Banfield Pet Hospital,Q2882416
69228,bluerhino,Bottle Shop,,Glen Carbon,IL,,US,+1 618-288-5467,,,Blue Rhino,Q65681213
203006,bluerhino,CASEY'S GENERAL STORE #2287,,GLEN CARBON,IL,,US,+1 618-288-1279,,,Blue Rhino,Q65681213
150743,bluerhino,Walgreens #5665,,Glen Carbon,IL,,US,+1 618-288-4670,,,Blue Rhino,Q65681213
69891,bluerhino,Lowe's #1795,,Glen Carbon,IL,,US,+1 618-655-2140,,,Blue Rhino,Q65681213
87276676210036203400100000000000,bp,BP,,Glen Carbon,IL,,US,+1 618-288-5467,,Mo-Th 05:30-23:00; Fr-Sa 05:30-24:00; Su 07:00-22:00,BP,Q152057
5292,bricks_minifigs_ca_us,Illinois &#8211; Glen Carbon,4235 State Route 159,Glen Carbon,IL,,US,,https://bricksandminifigs.com/glencarbon-il/,,Bricks & Minifigs,Q109329121
https://stores.catofashions.com/#26560716,cato_us,Cato,,,IL,,US,+1 618-692-6680,https://stores.catofashions.com/il/glen-carbon/110-junction-drive,Mo-Sa 10:00-20:00; Su 13:00-18:00,Cato,Q16956136
16265947,chase_us,DRIVE UP ISLAND - 786671,,GLEN CARBON,IL,,US,+1 800-935-9935,https://locator.chase.com/il/glen-carbon/3592-s-state-route-159,,Chase,Q524629
37364,citi,ATM BUSEY BANK,,Glen Carbon,IL,,US,,,,Citibank,Q857063
35408,citi,ATM ASSOCIATED BANK,,Glen Carbon,IL,,US,,,,Citibank,Q857063
88590,citi,ATM Walgreens,,Glen Carbon,IL,,US,,,,Citibank,Q857063
55003,citi,ATM FCB BANKS 08,,Glen Carbon,IL,,US,,,,Citibank,Q857063
247220,dennys,Denny's,,Glen Carbon,IL,,US,+1 618-659-1922,https://locations.dennys.com/IL/GLEN-CARBON/247220,24/7,Denny's,Q1189695
https://www.edwardjones.com/us-en/financial-advisor/tom-cowell,edwardjones,Tom Cowell,,Glen Carbon,IL,,US,+1 618-345-2460,https://www.edwardjones.com/us-en/financial-advisor/tom-cowell,,Edward Jones,Q5343830
E10126,enterprise,Glen Carbon,,Glen Carbon,IL,,US,+1 618-288-8812,,,Enterprise Rent-A-Car,Q17085454
0436,european_wax_center_us,European Wax Center,,Glen Carbon,IL,,US,+1 618-656-9291,https://locations.waxcenter.com/il/glencarbon/glen-carbon-0436.html,Mo-Fr 09:00-20:00; Sa 09:00-18:00; Su 10:00-18:00,European Wax Center,Q5413426
https://local.fedex.com/#25206480,fedex,,,Glen Carbon,IL,,US,+1 800-463-3339,https://local.fedex.com/en-us/il/glen-carbon/y5esw,,FedEx,Q459477
https://local.fedex.com/#25235695,fedex,,,Glen Carbon,IL,,US,+1 800-463-3339,https://local.fedex.com/en-us/il/glen-carbon/blvcd,,FedEx,Q459477
https://local.fedex.com/#25457735,fedex,,,Glen Carbon,IL,,US,+1 800-463-3339,https://local.fedex.com/en-us/il/glen-carbon/82045,,FedEx,Q459477
7734,gamestop_us,North Glen Shopping Center,,Glen Carbon,IL,,US,+1 618-659-4649,https://www.gamestop.com/search/?store=7734,Mo-Th 12:00-19:00; Fr-Sa 11:00-21:00; Su 11:00-19:00,GameStop,Q202210
24b674f9-458a-e111-8dde-005056934050,goodwill,Glen Carbon Store,,Glen Carbon,IL,,US,+1 618-656-0954,https://www.goodwill.org/locator/location/?store=MjRiNjc0ZjktNDU4YS1lMTExLThkZGUtMDA1MDU2OTM0MDUw&lat=MzguNzc1Mjk=&lng=LTg5Ljk1NTAy,,Goodwill,Q5583655
https://locations.jackinthebox.com/us/il/glen-carbon/31-junction-dr,jackinthebox,Jack in the Box,,Glen Carbon,IL,,US,+1 618-655-0570,https://locations.jackinthebox.com/us/il/glen-carbon/31-junction-dr,Mo-Su 04:00-04:00,Jack in the Box,Q1538507
https://locations.jimmyjohns.com/il/glencarbon/sandwiches-2558.html,jimmy_johns,Jimmy John's,,Glen Carbon,IL,,US,+1 618-288-3600,https://locations.jimmyjohns.com/il/glencarbon/sandwiches-2558.html,,Jimmy John's,Q1689380
https://locations.kfc.com/#16741799,kfc,Chicken Nuggets Near Glen Carbon,,Glen Carbon,IL,,US,,https://locations.kfc.com/il/glen-carbon/3202-s-state-route-159/chickennugget,Mo-Su 10:30-22:00,KFC,Q524757
https://locations.massageenvy.com/#1773796,massage_envy,Massage Envy Glen Carbon,,Glen Carbon,IL,,US,+1 618-656-3689,https://locations.massageenvy.com/illinois/glen-carbon/3000-south-state-route-159.html,Mo 09:00-20:00; Tu-Fr 09:00-21:00; Sa 10:30-17:00; Su 10:00-17:00,Massage Envy,Q10327170
https://locations.papajohns.com/#10692318,papa_johns,Papa John's,,Glen Carbon,IL,,US,+1 618-659-7272,https://locations.papajohns.com/united-states/il/62034/glen-carbon/3592-s-state-route-159,Mo-Th 10:00-24:00; Fr-Sa 10:00-01:00; Su 10:00-24:00,Papa John's Pizza,Q2759586
https://www.publicstorage.com/self-storage-il-glen-carbon/6027.html,public_storage_us,Public Storage,,Glen Carbon,IL,,US,+1 618-855-0270,https://www.publicstorage.com/self-storage-il-glen-carbon/6027.html,,Public Storage,Q1156045
4878,sams_club,Glen Carbon Sam's Club,,Glen Carbon,IL,,US,+1 618-659-7336,https://www.samsclub.com/club/glen-carbon-il-sams-club/4878,Mo 10:00-20:00; Sa 09:00-20:00; Su 10:00-18:00,Sam's Club,Q1972120
930,scooters_coffee_us,Troy & Cottonwood Rd,,Glen Carbon,IL,,US,+1 618-205-3344,,Mo-Fr 05:30-20:00; Sa-Su 06:00-20:00,Scooter's Coffee,Q117280308
https://restaurants.subway.com/#14914358,subway,Subway Cottonwood Plaza,,Glen Carbon Madison,IL,,US,+1 618-659-2888,https://restaurants.subway.com/united-states/il/glen-carbon/106-junction-drive,Mo-Sa 08:30-20:30; Su 09:00-19:30,Subway,Q244457
3QSV,tmobile_us,S State Route 159 & Troy Rd,,Glen Carbon,IL,,US,+1 618-288-3030,https://www.t-mobile.com/store-locator/il/glen-carbon/s-state-route-159-troy-rd,,T-Mobile,Q3511885
5B66,tmobile_us,Sam's Club Glen Carbon IL,,Glen Carbon,IL,,US,+1 618-873-7721,https://www.t-mobile.com/store-locator/il/glen-carbon/sams-club-glen-carbon-il,,T-Mobile,Q3511885
1364879,usps,GLEN CARBON,,GLEN CARBON,IL,,US,+1 618-288-9503,,Mo-Fr 08:30-17:00; Sa 08:30-11:00,United States Postal Service,Q668687
6203400002,usps_collection_boxes,USPS COLLECTION BOX - BLUE BOX,9 KINGSLEY WAY,GLEN CARBON,IL,,US,,,,United States Postal Service,Q668687
6203400003,usps_collection_boxes,USPS COLLECTION BOX - BLUE BOX,196 S MAIN ST,GLEN CARBON,IL,,US,,,,United States Postal Service,Q668687
6203400001,usps_collection_boxes,USPS COLLECTION BOX - BLUE BOX,105 N MAIN ST,GLEN CARBON,IL,,US,,,,United States Postal Service,Q668687
6203400006,usps_collection_boxes,USPS COLLECTION BOX - PO LOBBY,105 N MAIN ST,GLEN CARBON,IL,,US,,,,United States Postal Service,Q668687
6203400014,usps_collection_boxes,USPS COLLECTION BOX - PO LOBBY,105 N MAIN ST,GLEN CARBON,IL,,US,,,,United States Postal Service,Q668687
6203400009,usps_collection_boxes,USPS COLLECTION BOX - BLUE BOX,1 HERITAGE PL,GLEN CARBON,IL,,US,,,,United States Postal Service,Q668687
6203400010,usps_collection_boxes,USPS COLLECTION BOX - BLUE BOX,400 JUNCTION DR,GLEN CARBON,IL,,US,,,,United States Postal Service,Q668687
6203400007,usps_collection_boxes,USPS COLLECTION BOX - BLUE BOX,24 KETTLE RIVER DR,GLEN CARBON,IL,,US,,,,United States Postal Service,Q668687
6203400008,usps_collection_boxes,USPS COLLECTION BOX - BLUE BOX,21 GLEN ED,GLEN CARBON,IL,,US,,,,United States Postal Service,Q668687
glencarbon_oil-change-050052,valvoline_instant_oil_change,Valvoline,3801 South State Route 159 ,Glen Carbon,IL,,US,+1 618-288-0877,https://store.vioc.com/il/glencarbon/oil-change-050052.html,,Valvoline Instant Oil Change,Q7912852
,visa,,,GLEN CARBON,IL,,US,,,,,
,visa,,,GLEN CARBON,IL,,US,,,,,
,visa,,,GLEN CARBON,IL,,US,,,,,
,visa,,,GLEN CARBON,IL,,US,,,,,
,visa,,,GLEN CARBON,IL,,US,,,,,
,visa,,,GLEN CARBON,IL,,US,,,,,
,visa,,,GLEN CARBON,IL,,US,,,,,
,visa,,,GLEN CARBON,IL,,US,,,,,
,visa,,,GLEN CARBON,IL,,US,,,,,
,visa,,,GLEN CARBON,IL,,US,,,,,
,visa,,,GLEN CARBON,IL,,US,,,,,
,visa,,,GLEN CARBON,IL,,US,,,,,
,visa,,,GLEN CARBON,IL,,US,,,,,
,visa,,,GLEN CARBON,IL,,US,,,,,
,visa,,,GLEN CARBON,IL,,US,,,,,
,visa,,,GLEN CARBON,IL,,US,,,,,
,visa,,,GLEN CARBON,IL,,US,,,,,
,visa,,,GLEN CARBON,IL,,US,,,,,
https://www.walgreens.com/locator/walgreens-2+cottonwood+rd-glen+carbon-il-62034/id=5665,walgreens,Walgreens,,Glen Carbon,IL,,US,+1 618-288-4684,https://www.walgreens.com/locator/walgreens-2+cottonwood+rd-glen+carbon-il-62034/id=5665,Mo-Su 07:00-24:00,Walgreens,Q1591889
a3e2e55a9a2f074320b8f4e76c482ce2,western_union,WALMART #000256,,Glen Carbon,IL,,US,+1 618-692-0550,https://location.westernunion.com/us/il/glen-carbon/a3e2e55a9a2f074320b8f4e76c482ce2,Mo-Su 07:00-21:00,Western Union,Q861042
