Ref,Spider,Name,Address,City,State,Zipcode,Country,Phone,Website,Hours,Brand,WikiData
https://locations.arbys.com/il/godfrey/5509-godfrey-rd.html,arbys_us,"Arby's Fast-Food Drive Through Near You in Godfrey, IL",,Godfrey,IL,,US,+1 618-466-5177,https://locations.arbys.com/il/godfrey/5509-godfrey-rd.html,Mo-Su 10:00-23:00,Arby's,Q630866
4445,autozone_us,AutoZone Auto Parts Godfrey,,Godfrey,IL,,US,+1 618-466-6787,https://www.autozone.com/locations/il/godfrey/3007-godfrey-rd.html,Mo-Fr 07:30-20:00; Sa 07:30-19:00; Su 08:00-19:00,AutoZone,Q4826087
202996,bluerhino,CASEY'S GENERAL STORE #2249,,GODFREY,IL,,US,+1 618-466-1272,,,Blue Rhino,Q65681213
202889,bluerhino,CASEY'S GENERAL STORE #1851,,GODFREY,IL,,US,+1 618-466-1419,,,Blue Rhino,Q65681213
131048,bluerhino,Ferrellgas - Godfrey,,Godfrey,IL,,US,+1 618-466-5703,,,Blue Rhino,Q65681213
221008,bluerhino,Dollar General #1987,,GODFREY,IL,,US,+1 618-693-9620,,,Blue Rhino,Q65681213
120924,bp,BP,,Godfrey,IL,,US,+1 618-466-3009,,24/7,BP,Q152057
85563,citi,ATM UNITED COMMUNITY BANK 07,,Godfrey,IL,,US,,,,Citibank,Q857063
49725,citi,ATM CVS,,Godfrey,IL,,US,,,,Citibank,Q857063
,credit_union_us,1st MidAmerica CU,,Godfrey,IL,,US,+1 618-258-7844,,Mo-Fr 08:00-06:00; Sa 08:00-01:00,,
18066,cvs_us,CVS Pharmacy,,Godfrey,IL,,US,+1 618-466-0825,https://www.cvs.com/store-locator/godfrey-il-pharmacies/2712-godfrey-rd-godfrey-il-62035/storeid=18066,"Mo-Fr 09:00-13:30,14:00-19:00; Sa 10:00-13:30,14:00-18:00; Su 11:00-13:30,14:00-17:00",CVS Pharmacy,Q2078880
6831,cvs_us,CVS Pharmacy,,Godfrey,IL,,US,+1 618-466-1211,https://www.cvs.com/store-locator/godfrey-il-pharmacies/2701-godfrey-rd-godfrey-il-62035/storeid=6831,Mo-Sa 08:00-21:00; Su 09:00-19:00,CVS Pharmacy,Q2078880
2956,dominos_pizza_us,Domino's Pizza,,Godfrey,IL,,US,+1 618-466-9595,https://pizza.dominos.com/illinois/godfrey/3310-godfrey-road,Mo-Th 10:30-24:00; Fr-Sa 10:30-01:00; Su 10:30-24:00,Domino's,Q839466
https://www.edwardjones.com/us-en/financial-advisor/dalton-gray,edwardjones,Dalton M Gray,,Godfrey,IL,,US,+1 618-433-9431,https://www.edwardjones.com/us-en/financial-advisor/dalton-gray,Mo-Fr 08:00-16:30,Edward Jones,Q5343830
https://local.fedex.com/#25944358,fedex,,,Godfrey,IL,,US,+1 800-463-3339,https://local.fedex.com/en-us/il/godfrey/blvdf,,FedEx,Q459477
https://local.fedex.com/#25235197,fedex,,,Godfrey,IL,,US,+1 800-463-3339,https://local.fedex.com/en-us/il/godfrey/blvbe,,FedEx,Q459477
402905,follett,Lewis & Clark Community College Bookstore,,Godfrey,IL,,US,+1 618-468-2268,https://www.bkstr.com/lclarkstore/home,Mo-Th 08:30-16:00; Fr 08:30-12:00,,
https://salons.greatclips.com/us/il/godfrey/2700-godfrey-rd,greatclips,Great Clips,,Godfrey,IL,,US,+1 618-466-3642,https://salons.greatclips.com/us/il/godfrey/2700-godfrey-rd,Mo-Fr 09:00-19:00; Sa 08:00-17:00; Su 09:00-16:00,Great Clips,Q5598967
4525,gulf_pr_us,MEHVILLE DAIRY,,Godfrey,IL,,US,+1 618-466-4030,https://www.gulfoil.com/mehville-dairy,,Gulf Oil,Q5617505
1500701,hardees_us,Hardee's,,Godfrey,IL,,US,+1 618-466-9161,https://locations.hardees.com/il/godfrey/2720-godfrey-rd,,Hardee's,Q1585088
https://locations.oreillyauto.com/il/godfrey/check-engine-light-testing-1020.html,oreilly,Your Godfrey O'Reilly Auto Parts Store,,Godfrey,IL,,US,+1 618-467-0016,https://locations.oreillyauto.com/il/godfrey/check-engine-light-testing-1020.html,Mo-Sa 07:30-22:00; Su 08:00-21:00,O'Reilly Auto Parts,Q7071951
https://locations.oreillyauto.com/il/godfrey/wiper-installation-1020.html,oreilly,Your Godfrey O'Reilly Auto Parts Store,,Godfrey,IL,,US,+1 618-467-0016,https://locations.oreillyauto.com/il/godfrey/wiper-installation-1020.html,Mo-Sa 07:30-22:00; Su 08:00-21:00,O'Reilly Auto Parts,Q7071951
https://locations.oreillyauto.com/il/godfrey/battery-testing-1020.html,oreilly,Your Godfrey O'Reilly Auto Parts Store,,Godfrey,IL,,US,+1 618-467-0016,https://locations.oreillyauto.com/il/godfrey/battery-testing-1020.html,Mo-Sa 07:30-22:00; Su 08:00-21:00,O'Reilly Auto Parts,Q7071951
https://locations.oreillyauto.com/il/godfrey/autopartes-1020.html,oreilly,Tu tienda O'Reilly Auto Parts en Godfrey,,Godfrey,IL,,US,+1 618-467-0016,https://locations.oreillyauto.com/il/godfrey/autopartes-1020.html,Mo-Sa 07:30-22:00; Su 08:00-21:00,O'Reilly Auto Parts,Q7071951
https://locations.quiktrip.com/#16004232,quiktrip_us,QuikTrip Store #698 2809 Godfrey Rd,,Godfrey Township,IL,,US,+1 618-466-8486,https://locations.quiktrip.com/il/godfrey-township/2809-godfrey-rd,24/7,QuikTrip,Q7271953
37,ruler_foods_us,Ruler Foods,,Godfrey,IL,,US,+1 618-466-0402,,Mo-Su 08:00-21:00,Ruler Foods,Q17125470
269,schnucks_us,Schnucks Godfrey,,Godfrey,IL,,US,+1 618-466-7060,https:/locations.schnucks.com/il-godfrey-269,Mo-Su 06:00-22:00,Schnuck's,Q7431920
https://restaurants.subway.com/#14912382,subway,Subway Monticello Center,,Godfrey Madison,IL,,US,+1 618-467-2797,https://restaurants.subway.com/united-states/il/godfrey/5755-godfrey-rd,Mo-Th 08:00-21:00; Fr 08:00-18:00; Sa-Su 08:00-21:00,Subway,Q244457
1365057,usps,GODFREY,,GODFREY,IL,,US,+1 618-466-3121,,Mo-Fr 08:30-17:00; Sa 09:00-13:00,United States Postal Service,Q668687
6203500017,usps_collection_boxes,USPS COLLECTION BOX - BLUE BOX,2712 GODFREY RD,GODFREY,IL,,US,,,,United States Postal Service,Q668687
6203500004,usps_collection_boxes,USPS COLLECTION BOX - BLUE BOX,3302 GODFREY RD,GODFREY,IL,,US,,,,United States Postal Service,Q668687
6203500019,usps_collection_boxes,USPS COLLECTION BOX - PO LOBBY,400 TOLLE LN,GODFREY,IL,,US,,,,United States Postal Service,Q668687
6203500010,usps_collection_boxes,USPS COLLECTION BOX - BLUE BOX,400 TOLLE LN,GODFREY,IL,,US,,,,United States Postal Service,Q668687
6203500007,usps_collection_boxes,USPS COLLECTION BOX - BLUE BOX,400 TOLLE LN,GODFREY,IL,,US,,,,United States Postal Service,Q668687
6203500013,usps_collection_boxes,USPS COLLECTION BOX - PO LOBBY,400 TOLLE LN,GODFREY,IL,,US,,,,United States Postal Service,Q668687
6203500015,usps_collection_boxes,USPS COLLECTION BOX - BLUE BOX,1918 W DELMAR AVE,GODFREY,IL,,US,,,,United States Postal Service,Q668687
6203500003,usps_collection_boxes,USPS COLLECTION BOX - BLUE BOX,2904 W DELMAR AVE,GODFREY,IL,,US,,,,United States Postal Service,Q668687
,visa,,,EDWARDSVILLE,IL,,US,,,,,
,visa,,,EAST ST LOUIS,IL,,US,,,,,
,visa,,,GODFREY,IL,,US,,,,,
,visa,,,GODFREY,IL,,US,,,,,
,visa,,,GODFREY,IL,,US,,,,,
,visa,,,GODFREY,IL,,US,,,,,
,visa,,,GODFREY,IL,,US,,,,,
,visa,,,GODFREY,IL,,US,,,,,
,visa,,,GODFREY,IL,,US,,,,,
,visa,,,GODFREY,IL,,US,,,,,
,visa,,,GODFREY,IL,,US,,,,,
,visa,,,GODFREY,IL,,US,,,,,
,visa,,,GODFREY,IL,,US,,,,,
,visa,,,GODFREY,IL,,US,,,,,
,visa,,,GODFREY,IL,,US,,,,,
,visa,,,GODFREY,IL,,US,,,,,
,visa,,,GODFREY,IL,,US,,,,,
,visa,,,GODFREY,IL,,US,,,,,
,visa,,,GODFREY,IL,,US,,,,,
,visa,,,GODFREY,IL,,US,,,,,
,visa,,,GODFREY,IL,,US,,,,,
,visa,,,GODFREY,IL,,US,,,,,
,visa,,,GODFREY,IL,,US,,,,,
,visa,,,GODFREY,IL,,US,,,,,
,visa,,,GODFREY,IL,,US,,,,,
,visa,,,GODFREY,IL,,US,,,,,
,visa,,,GODFREY,IL,,US,,,,,
,visa,,,GODFREY,IL,,US,,,,,
,visa,,,GODFREY,IL,,US,,,,,
,visa,,,GODFREY,IL,,US,,,,,
,visa,,,GODFREY,IL,,US,,,,,
,visa,,,GODFREY,IL,,US,,,,,
,visa,,,GODFREY,IL,,US,,,,,
,visa,,,GODFREY,IL,,US,,,,,
,visa,,,GODFREY,IL,,US,,,,,
a56543f89b42b72e0a22ac274ac6ec67,western_union,WALMART #004695,,Godfrey,IL,,US,+1 618-433-3008,https://location.westernunion.com/us/il/godfrey/a56543f89b42b72e0a22ac274ac6ec67,Mo-Su 07:00-21:00,Western Union,Q861042
