Ref,Spider,Name,Address,City,State,Zipcode,Country,Phone,Website,Hours,Brand,WikiData
168162,bluerhino,Dandy Mini Mart #012,,Canton,PA,,US,+1 570-673-8601,,,Blue Rhino,Q65681213
23423,h_r_block,H&R Block,,Canton,PA,,US,+1 570-673-8129,https://www.hrblock.com/local-tax-offices/pennsylvania/canton/157-troy-st/23423/,,H&R Block,Q5627799
4968,mightyflame,TOPS MARKET #678,,CANTON,PA,,US,+1 570-673-3838,,,Mighty Flame,
5173,mightyflame,KWIK FILL #418,,CANTON,PA,,US,+1 570-673-8404,,,Mighty Flame,
https://restaurants.subway.com/#14916168,subway,Subway,,Canton Bradford,PA,,US,+1 570-673-7827,https://restaurants.subway.com/united-states/pa/canton/117-sullivan-st,Mo-Th 10:00-20:00; Fr 10:00-21:00; Sa 11:00-21:00; Su 11:00-20:00,Subway,Q244457
678,tops,Tops,"East Main Street, RR #1",Canton,PA,,US,+1 570-673-3838,,,Tops,Q7825137
1356902,usps,CANTON,,CANTON,PA,,US,+1 570-673-5697,,Mo-Tu 09:00-16:30; We 09:00-15:30; Th-Fr 09:00-16:30; Sa 10:00-12:00,United States Postal Service,Q668687
1772400001,usps_collection_boxes,USPS COLLECTION BOX - BLUE BOX,103 TROY ST,CANTON,PA,,US,,,,United States Postal Service,Q668687
1772400015,usps_collection_boxes,USPS COLLECTION BOX - PO LOBBY,103 TROY ST,CANTON,PA,,US,,,,United States Postal Service,Q668687
1772400017,usps_collection_boxes,USPS COLLECTION BOX - PO LOBBY,103 TROY ST,CANTON,PA,,US,,,,United States Postal Service,Q668687
1772400002,usps_collection_boxes,USPS COLLECTION BOX - BLUE BOX,53 W MAIN ST,CANTON,PA,,US,,,,United States Postal Service,Q668687
1772400013,usps_collection_boxes,USPS COLLECTION BOX - BLUE BOX,1297 SPRINGBROOK DR,CANTON,PA,,US,,,,United States Postal Service,Q668687
1772400003,usps_collection_boxes,USPS COLLECTION BOX - BLUE BOX,10 E MAIN ST,CANTON,PA,,US,,,,United States Postal Service,Q668687
1772400012,usps_collection_boxes,USPS COLLECTION BOX - BLUE BOX,2758 ROUTE 414,CANTON,PA,,US,,,,United States Postal Service,Q668687
,visa,,,CANTON,PA,,US,,,,,
,visa,,,CANTON,PA,,US,,,,,
,visa,,,CANTON,PA,,US,,,,,
,visa,,,CANTON,PA,,US,,,,,
,visa,,,CANTON,PA,,US,,,,,
,visa,,,CANTON,PA,,US,,,,,
,visa,,,CANTON,PA,,US,,,,,
,visa,,,CANTON,PA,,US,,,,,
,visa,,,CANTON,PA,,US,,,,,
,visa,,,CANTON,PA,,US,,,,,
1d46c51bf529678ee1e21141ae699d2f,western_union,TOPS MARKETS #678,,Canton,PA,,US,+1 570-673-3838,https://location.westernunion.com/us/pa/canton/1d46c51bf529678ee1e21141ae699d2f,Mo-Sa 08:00-19:00; Su 08:00-18:00,Western Union,Q861042
