Ref,Spider,Name,Address,City,State,Zipcode,Country,Phone,Website,Hours,Brand,WikiData
https://local.pharmacy.albertsons.com/#5637752,albertsons,Albertsons Pharmacy,,McCall,ID,,US,+1 208-634-2433,https://local.pharmacy.albertsons.com/id/mccall/132-e-lake-st.html,Mo-Fr 08:00-20:00; Sa 09:00-18:00; Su 10:00-17:00,Albertsons,Q2831861
https://local.albertsons.com/#5637751,albertsons,Albertsons,,McCall,ID,,US,+1 208-634-8166,https://local.albertsons.com/id/mccall/132-e-lake-st.html,"Mo-Fr 06:00-22:00,08:00-20:00; Sa 06:00-22:00,09:00-18:00; Su 06:00-22:00,10:00-17:00",Albertsons,Q2831861
/locations/propane-offices/idaho/mccall/1611-north-davis-ave,amerigas,"AmerGas Propane | McCall, Idaho",,McCall,ID,,US,+1 208-634-8181,/locations/propane-offices/idaho/mccall/1611-north-davis-ave,,AmeriGas,Q23130318
15579,asics_us,Home Town Sports,300 Lenora St,McCall,ID,,US,+1 208-634-2302,,,asics,Q327247
MCCAIDYD,builders_firstsource_us,McCall ID Yard,,McCall,ID,,US,+1 208-634-2234,https://www.bldr.com/location/mccall-id-yard/MCCAIDYD,Mo-Fr 08:00-17:00,Builders FirstSource,Q27686100
1037B,carpet_one_floor_and_home_us,InHouse Carpet One Floor & Home,,McCall,ID,,US,+1 208-370-7373,https://www.inhousecarpetone.com/,,Carpet One Floor & Home,Q121335910
73375,citi,ATM Rite Aid,,Mccall,ID,,US,,,,Citibank,Q857063
73376,citi,ATM Rite Aid,,Mccall,ID,,US,,,,Citibank,Q857063
59992,citi,ATM Idaho First Bank,,Mccall,ID,,US,,,,Citibank,Q857063
93853,citi,ATM WASHINGTON FEDERAL BANK,,Mccall,ID,,US,,,,Citibank,Q857063
https://www.edwardjones.com/us-en/financial-advisor/tama-lamm,edwardjones,Tama S Lamm,,Mccall,ID,,US,+1 208-634-5855,https://www.edwardjones.com/us-en/financial-advisor/tama-lamm,Mo-Th 09:00-17:00; Fr 09:00-12:00,Edward Jones,Q5343830
https://local.fedex.com/#1004316042,fedex,FedEx Authorized ShipCenter,,McCall,ID,,US,+1 208-634-4048,https://local.fedex.com/en-us/id/mccall/00vy1,,FedEx,Q459477
12421,h_r_block,H&R Block,,Mccall,ID,,US,+1 208-634-5847,https://www.hrblock.com/local-tax-offices/idaho/mccall/307-e-park-st/12421/,,H&R Block,Q5627799
https://www.naturalgrocers.com/store/mccall,natural_grocers_us,McCall,,McCall,ID,,US,,https://www.naturalgrocers.com/store/mccall,Mo-Sa 08:27-20:36; Su 08:57-19:36,Natural Grocers,Q17146520
may-hardware-15694-37787,ppgpaints,MAY HARDWARE #15694,,"Mccall, ",ID,,US,+1 208-634-7665,https://www.ppgpaints.com/store-locator/us/idaho/mccall-paint-stores/may-hardware-15694-37787,,PPG Paints,Q83891559
8463,ridleys,McCall Grocery & Variety Store,,McCall,ID,,US,+1 208-634-8719,,,Ridley's Family Markets,Q7332999
05410,rite_aid_us,Rite Aid #05410 McCall,,McCall,ID,,US,+1 208-634-4929,https://locations2.riteaid.com.yext-cdn.com/id/mccall/451-deinhard-lane.html,Mo-Su 09:00-21:00,Rite Aid,Q3433273
https://stations.sinclairoil.com/id/mccall/147-n-3rd-st,sinclair_us,Sinclair Gas Station,,Mccall,ID,,US,+1 208-634-2340,https://stations.sinclairoil.com/id/mccall/147-n-3rd-st,Mo-Fr 06:00-22:00; Sa 07:00-22:00; Su 00:00-24:00,Sinclair,Q1290900
https://restaurants.subway.com/#14904342,subway,Subway,,McCall Valley,ID,,US,+1 208-634-2855,https://restaurants.subway.com/united-states/id/mccall/320-n-3rd-street,Mo-Su 08:30-21:30,Subway,Q244457
1372400,usps,MCCALL,,MCCALL,ID,,US,+1 208-634-3164,,Mo-Fr 08:30-17:00,United States Postal Service,Q668687
8363800009,usps_collection_boxes,USPS COLLECTION BOX - BLUE BOX,13845 HIGHWAY 55,MCCALL,ID,,US,,,,United States Postal Service,Q668687
8363800002,usps_collection_boxes,USPS COLLECTION BOX - PO LOBBY,495 DEINHARD LN,MCCALL,ID,,US,,,,United States Postal Service,Q668687
8363800006,usps_collection_boxes,USPS COLLECTION BOX - PO LOBBY,495 DEINHARD LN,MCCALL,ID,,US,,,,United States Postal Service,Q668687
8363800007,usps_collection_boxes,USPS COLLECTION BOX - PO LOBBY,495 DEINHARD LN,MCCALL,ID,,US,,,,United States Postal Service,Q668687
8363800008,usps_collection_boxes,USPS COLLECTION BOX - PO LOBBY,495 DEINHARD LN,MCCALL,ID,,US,,,,United States Postal Service,Q668687
8363800000,usps_collection_boxes,USPS COLLECTION BOX - BLUE BOX,495 DEINHARD LN,MCCALL,ID,,US,,,,United States Postal Service,Q668687
8363800011,usps_collection_boxes,USPS COLLECTION BOX - PO LOBBY,495 DEINHARD LN,MCCALL,ID,,US,,,,United States Postal Service,Q668687
8363800005,usps_collection_boxes,USPS COLLECTION BOX - BLUE BOX,132 E LAKE ST,MCCALL,ID,,US,,,,United States Postal Service,Q668687
,visa,,,MCCALL,ID,,US,,,,,
,visa,,,MCCALL,ID,,US,,,,,
,visa,,,MCCALL,ID,,US,,,,,
,visa,,,MCCALL,ID,,US,,,,,
,visa,,,MCCALL,ID,,US,,,,,
,visa,,,MCCALL,ID,,US,,,,,
,visa,,,MCCALL,ID,,US,,,,,
,visa,,,MCCALL,ID,,US,,,,,
,visa,,,MMCALL,ID,,US,,,,,
,visa,,,MCCALL,ID,,US,,,,,
,visa,,,MCCALL,ID,,US,,,,,
,visa,,,MCCALL,ID,,US,,,,,
,visa,,,MCCALL,ID,,US,,,,,
,visa,,,MCCALL,ID,,US,,,,,
,visa,,,MCCALL,ID,,US,,,,,
,visa,,,MCCALL,ID,,US,,,,,
,visa,,,MCCALL,ID,,US,,,,,
,visa,,,MCCALL,ID,,US,,,,,
,visa,,,MCCALL,ID,,US,,,,,
,visa,,,MCCALL,ID,,US,,,,,
,visa,,,MCCALL,ID,,US,,,,,
,visa,,,MCCALL,ID,,US,,,,,
,visa,,,MCCALL,ID,,US,,,,,
,visa,,,MCCALL,ID,,US,,,,,
,visa,,,MCCALL,ID,,US,,,,,
