Ref,Spider,Name,Address,City,State,Zipcode,Country,Phone,Website,Hours,Brand,WikiData
68452,citi,ATM PNC AT SHEETZ,,Kearneysville,WV,,US,,,,Citibank,Q857063
28646,citi,ATM 7ELEVEN-FCTI,,Kearneysville,WV,,US,,,,Citibank,Q857063
16066,dollar_general,Dollar General,,Kearneysville,WV,,US,+1 681-668-0490,https://www.dollargeneral.com/store-directory/wv/kearneysville/16066,Mo-Su 08:00-22:00,Dollar General,Q145168
https://www.edwardjones.com/us-en/financial-advisor/tracy-regalia,edwardjones,Tracy V Regalia,,Kearneysville,WV,,US,+1 304-707-0103,https://www.edwardjones.com/us-en/financial-advisor/tracy-regalia,Mo-Fr 08:00-16:00,Edward Jones,Q5343830
https://local.fedex.com/#25229075,fedex,,,Kearneysville,WV,,US,+1 800-463-3339,https://local.fedex.com/en-us/wv/kearneysville/hgraf,,FedEx,Q459477
https://local.fedex.com/#25230235,fedex,,,Kearneysville,WV,,US,+1 800-463-3339,https://local.fedex.com/en-us/wv/kearneysville/hgrac,,FedEx,Q459477
3836,fresenius_kidney_care_us,Fresenius Kidney Care Charles Town,,Kearneysville,WV,,US,+1 800-881-5101,https://www.freseniuskidneycare.com/dialysis-centers/west-virginia/3836,Mo-Sa 05:00-18:00,,
https://locations.papajohns.com/#61312738,papa_johns,Papa John's,,Kearneysville,WV,,US,+1 304-885-0481,https://locations.papajohns.com/united-states/wv/25430/kearneysville/60-war-admiral-blvd,Mo-Su 09:00-23:00,Papa John's Pizza,Q2759586
19324,planet_smoothie_us,Planet Smoothie,,Kearneysville,WV,,US,+1 304-885-0481,https://www.planetsmoothie.com/stores/kearneysville/19324,,Planet Smoothie,Q7201170
137,sheetz,Sheetz,,KEARNEYSVILLE,WV,,US,+1 304-267-4161,https://orders.sheetz.com/findASheetz/store/137,24/7,Sheetz,Q7492551
https://restaurants.subway.com/#14899916,subway,Subway,,Kearneysville Jefferson,WV,,US,+1 304-262-9292,https://restaurants.subway.com/united-states/wv/kearneysville/3058-charles-town-road,Mo-Th 08:00-21:00; Fr 07:00-21:00; Sa 08:00-21:00; Su 07:00-19:00,Subway,Q244457
1368742,usps,KEARNEYSVILLE,,KEARNEYSVILLE,WV,,US,+1 304-876-6348,,Mo-Fr 08:30-16:30; Sa 08:30-11:30,United States Postal Service,Q668687
2543000000,usps_collection_boxes,USPS COLLECTION BOX - BLUE BOX,250 MURALL DR,KEARNEYSVILLE,WV,,US,,,,United States Postal Service,Q668687
2543000001,usps_collection_boxes,USPS COLLECTION BOX - BLUE BOX,5512 CHARLES TOWN RD,KEARNEYSVILLE,WV,,US,,,,United States Postal Service,Q668687
2543000005,usps_collection_boxes,USPS COLLECTION BOX - PO LOBBY,5512 CHARLES TOWN RD,KEARNEYSVILLE,WV,,US,,,,United States Postal Service,Q668687
2543000002,usps_collection_boxes,USPS COLLECTION BOX - PO LOBBY,5512 CHARLESTOWN RD,KEARNEYSVILLE,WV,,US,,,,United States Postal Service,Q668687
,visa,,,KEARNEYSVILLE,WV,,US,,,,,
,visa,,,KEARNEYSVILLE,WV,,US,,,,,
,visa,,,KEARNEYSVILLE,WV,,US,,,,,
,visa,,,KEARNEYSVILLE,WV,,US,,,,,
,visa,,,KEARNEYSVILLE,WV,,US,,,,,
,visa,,,KEARNEYSVILLE,WV,,US,,,,,
,visa,,,KEARNEYSVILLE,WV,,US,,,,,
,visa,,,KEARNEYSVILLE,WV,,US,,,,,
,visa,,,KEARNEYSVILLE,WV,,US,,,,,
,visa,,,KEARNEYSVILLE,WV,,US,,,,,
,visa,,,KEARNYSVILLE,WV,,US,,,,,
,visa,,,KEARNEYSVILLE,WV,,US,,,,,
,visa,,,KEARNEYSVILLE,WV,,US,,,,,
,visa,,,KEARNEYSVILLE,WV,,US,,,,,
