Ref,Spider,Name,Address,City,State,Zipcode,Country,Phone,Website,Hours,Brand,WikiData
72486021,moneygram,RAHUL MONEY TRANSFER - PALGHAR - PALGHAR,,PALGHAR,,,IN,+91 89833 07359,,Mo-Su 09:00-21:00,MoneyGram,Q1944412
72520055,moneygram,HAMMAD MONEY TRANSFER,,BOISAR,,,IN,+91 77389 11301,,Mo-Su 08:00-21:00,MoneyGram,Q1944412
72520136,moneygram,NITYANAND MONEY TRANSFER,,THANE,,,IN,+91 77580 03858,,Mo-Su 08:00-21:00,MoneyGram,Q1944412
72521821,moneygram,OM SAI COMMUNICATION,,BOISAR,,,IN,+91 84128 12985,,Mo-Su 08:00-21:00,MoneyGram,Q1944412
72529179,moneygram,R YADAV SHOP,,BOISAR,,,IN,+91 97676 95450,,Mo-Su 08:00-21:00,MoneyGram,Q1944412
72549492,moneygram,RAHUL S PAWAR,,BOISAR,,,IN,+91 92737 34919,,Mo-Su 08:00-21:00,MoneyGram,Q1944412
72530980,moneygram,SHREE ARBUDA XEROX,,BOISAR,,,IN,+91 72186 16698,,Mo-Su 08:00-21:00,MoneyGram,Q1944412
72545027,moneygram,MUNNA G GUPTA,,THANE,,,IN,+91 97666 33149,,Mo-Su 08:00-21:00,MoneyGram,Q1944412
72524750,moneygram,RAHUL TRAVELS,,BOISAR,,,IN,+91 92259 47936,,Mo-Su 08:00-21:00,MoneyGram,Q1944412
72544879,moneygram,RAMASHANKAR R SINGH,,THANE,,,IN,+91 97657 60035,,Mo-Su 08:00-21:00,MoneyGram,Q1944412
72541131,moneygram,S G MONEY TRANSFER,,BOISAR,,,IN,+91 96654 30710,,Mo-Su 08:00-21:00,MoneyGram,Q1944412
72543647,moneygram,SHREE KUBER PEST CONTROL,,THANE,,,IN,+91 98906 19952,,Mo-Su 08:00-21:00,MoneyGram,Q1944412
72545014,moneygram,SUNIL BHUSARE,,BOISAR,,,IN,+91 98344 08074,,Mo-Su 08:00-21:00,MoneyGram,Q1944412
72621527,moneygram,REKHA SINGH,,PALGHAR,,,IN,+91 98901 88251,,Mo-Su 08:00-21:00,MoneyGram,Q1944412
72618653,moneygram,SHIVA ENTERPRISES,,BOISAR,,,IN,+91 91589 67383,,Mo-Su 08:00-21:00,MoneyGram,Q1944412
72522325,moneygram,RAHUL BHUSARE,,BOISAR,,,IN,+91 86058 95876,,Mo-Su 08:00-21:00,MoneyGram,Q1944412
72567953,moneygram,SUBEDAR YADAV,,BOISAR,,,IN,+91 98601 37212,,Mo-Su 08:00-21:00,MoneyGram,Q1944412
73289764,moneygram,MUTHOOT FINANCE LTD - #4135 - PALGHAR -,,PALGHAR,,,IN,+91 2525 267 872,,Mo-Su 09:00-19:00,MoneyGram,Q1944412
73315272,moneygram,MUTHOOT FINCORP LIMITED - #F1406 - BOISE,,THANE,,,IN,+91 2525 266 149,,Mo-Sa 09:00-17:30; Su 00:00-24:00,MoneyGram,Q1944412
72953392,moneygram,JIYA ENTERPRISES,,BOISAR,,,IN,+91 93238 60166,,Mo-Su 08:00-21:00,MoneyGram,Q1944412
72964608,moneygram,NEW KIRAN ENTERPRISES,,BOISAR,,,IN,+91 73879 83995,,Mo-Su 08:00-21:00,MoneyGram,Q1944412
72541160,moneygram,R YADAV ENTERPRISES,,BOISAR,,,IN,+91 96738 33191,,Mo-Su 08:00-21:00,MoneyGram,Q1944412
72956768,moneygram,VIKAS V SINGH,,THANE,,,IN,+91 99237 25945,,Mo-Su 08:00-21:00,MoneyGram,Q1944412
73390433,moneygram,ANMOL TRADERS,,BOISAR,,,IN,+91 98903 79854,,Mo-Su 08:00-21:00,MoneyGram,Q1944412
73393171,moneygram,GOOD LUCK FASHION,,BOISAR,,,IN,+91 96651 38408,,Mo-Su 08:00-21:00,MoneyGram,Q1944412
73416469,moneygram,SAANVI ENTERPRISES,,BOISAR,,,IN,+91 91121 77501,,Mo-Su 08:00-21:00,MoneyGram,Q1944412
73416472,moneygram,SUREKHA TRAVELS,,BOISAR,,,IN,+91 90966 32558,,Mo-Su 08:00-21:00,MoneyGram,Q1944412
73434056,moneygram,UNIQUE MONEY TRANSFER,,BOISAR,,,IN,+91 92709 00808,,Mo-Su 08:00-21:00,MoneyGram,Q1944412
73416485,moneygram,VAIBHAVI ENTERPRISES,,BOISAR,,,IN,+91 87962 37249,,Mo-Su 08:00-21:00,MoneyGram,Q1944412
73431334,moneygram,ANUSHKA PHOTO STUDIO & ONLINE SERVICES,,BOISAR,,,IN,+91 84468 91052,,Mo-Su 08:00-21:00,MoneyGram,Q1944412
73431389,moneygram,ASHAPURA ENTERPRISES,,BOISAR,,,IN,+91 96657 33678,,Mo-Su 08:00-21:00,MoneyGram,Q1944412
73431376,moneygram,SHARMA COMMUNICATION ST XEROX GEN STORES,,BOISAR,,,IN,+91 98902 63065,,Mo-Su 08:00-21:00,MoneyGram,Q1944412
73532848,moneygram,SUNIDHI ENTERPRISES,,BOISAR,,,IN,+91 86982 15504,,Mo-Su 08:00-21:00,MoneyGram,Q1944412
73753122,moneygram,NIDHI ENTERPRISE,,THANE,,,IN,+91 93231 89953,,Mo-Su 08:00-21:00,MoneyGram,Q1944412
73751014,moneygram,TEJAS ENTERPRISE,,MUMBAI,,,IN,+91 95039 88608,,Mo-Su 08:00-21:00,MoneyGram,Q1944412
73826897,moneygram,SAINATH PHOTO STUDIO,,BOISAR,,,IN,+91 86694 59841,,Mo-Su 08:00-21:00,MoneyGram,Q1944412
73816292,moneygram,SNEHA DIGITAL PHOTO STUDIO,,BOISAR,,,IN,+91 63923 44412,,Mo-Su 08:00-21:00,MoneyGram,Q1944412
72960110,moneygram,LIFE CARE MEDICAL,,BOISAR,,,IN,+91 86689 08761,,Mo-Su 08:00-21:00,MoneyGram,Q1944412
72556896,moneygram,RAHUL BHUSARE,,BOISAR,,,IN,+91 78752 98405,,Mo-Su 08:00-21:00,MoneyGram,Q1944412
73046017,moneygram,WESTERN CORNER,,PALGHAR,,,IN,+91 99609 13918,,Mo-Su 08:00-21:00,MoneyGram,Q1944412
73931960,moneygram,HAWALE RAMESH LAXMAN,,BOISAR,,,IN,+91 92709 63834,,Mo-Su 08:00-21:00,MoneyGram,Q1944412
74102756,moneygram,SAI SHRADDHA MOBILE AND MONEY TRANSFER,,BOISAR,,,IN,+91 77984 85592,,Mo-Su 08:00-21:00,MoneyGram,Q1944412
74107311,moneygram,VAIBHAVI ENTERPRISES,,PALGHAR,,,IN,+91 99703 96247,,Mo-Su 08:00-21:00,MoneyGram,Q1944412
74465202,moneygram,SOLANKI HOLIDAYS,,PALGHAR,,,IN,+91 77750 00060,,Mo-Su 08:00-21:00,MoneyGram,Q1944412
75022217,moneygram,D M COMMUNICATION & WATCH CENTRE,,PALGHAR,,,IN,+91 98902 78594,,Mo-Su 08:00-22:00,MoneyGram,Q1944412
,visa,,,THANE,,,IN,,,,,
,visa,,,THANE,,,IN,,,,,
,visa,,,THANE,,,IN,,,,,
,visa,,,THANE,,,IN,,,,,
,visa,,,THANE,,,IN,,,,,
,visa,,,BOISAR,,,IN,,,,,
