Ref,Spider,Name,Address,City,State,Zipcode,Country,Phone,Website,Hours,Brand,WikiData
1803,first_cash,First Cash Pawn,,Para√≠so,Tabasco,,MX,+52 933 333 0813,,,First Cash Pawn,
,visa,,,PARAISO,TABASCO,,MX,,,,,
,visa,,,PARAISO,TABASCO,,MX,,,,,
,visa,,,PARAISO,TABASCO,,MX,,,,,
,visa,,,PARAISO,TABASCO,,MX,,,,,
,visa,,,PARAISO,TABASCO,,MX,,,,,
,visa,,,PARAISO,TABASCO,,MX,,,,,
,visa,,,PARAISO,TABASCO,,MX,,,,,
,visa,,,PARAISO,TABASCO,,MX,,,,,
,visa,,,PARAISO,TABASCO,,MX,,,,,
,visa,,,PARAISO,TABASCO,,MX,,,,,
,visa,,,PARAISO,TABASCO,,MX,,,,,
0c75275267dafedb859c62bc07068793,western_union,WALDOS PARAISO CENTRO 6866,,Paraiso,TABASCO,,MX,+52 55 5246 0700,https://location.westernunion.com/mx/tabasco/paraiso/0c75275267dafedb859c62bc07068793,Mo-Su 06:30-23:30,Western Union,Q861042
43ade8ce35ad19fcfc8f37c886abeb74,western_union,WALDOS PARAISO CENTRO 6866,,Paraiso,TABASCO,,MX,+52 55 5246 0700,https://location.westernunion.com/mx/tabasco/paraiso/43ade8ce35ad19fcfc8f37c886abeb74,Mo-Su 06:30-23:30,Western Union,Q861042
2db37699800eea5f6f31cd664e23a226,western_union,OXXO DOS BOCAS VSA,,Paraiso,TABASCO,,MX,+52 81 8389 2121,https://location.westernunion.com/mx/tabasco/paraiso/2db37699800eea5f6f31cd664e23a226,Mo-Su 08:00-22:00,Western Union,Q861042
fe3578a78ceb7c26592f7643ae3a4ebb,western_union,OXXO LAZARO CARDENAS VSA,,Paraiso,TABASCO,,MX,+52 81 8389 2121,https://location.westernunion.com/mx/tabasco/paraiso/fe3578a78ceb7c26592f7643ae3a4ebb,Mo-Su 08:00-22:00,Western Union,Q861042
8e52acdd7a33c6239c06d35a0092bc02,western_union,OXXO LAZARO CARDENAS VSA,,Paraiso,TABASCO,,MX,+52 81 8389 2121,https://location.westernunion.com/mx/tabasco/paraiso/8e52acdd7a33c6239c06d35a0092bc02,Mo-Su 08:00-22:00,Western Union,Q861042
44d4af45281f0bbe5478a1f033537311,western_union,OXXO PARAISO VSA,,Paraiso,TABASCO,,MX,+52 81 8389 2121,https://location.westernunion.com/mx/tabasco/paraiso/44d4af45281f0bbe5478a1f033537311,Mo-Su 08:00-22:00,Western Union,Q861042
7e2068b38691c7641dbb891bf933d405,western_union,OXXO PARAISO VSA,,Paraiso,TABASCO,,MX,+52 81 8389 2121,https://location.westernunion.com/mx/tabasco/paraiso/7e2068b38691c7641dbb891bf933d405,Mo-Su 08:00-22:00,Western Union,Q861042
cf225b33192df04028bdb36818a519f7,western_union,OXXO PARAISO VSA,,Paraiso,TABASCO,,MX,+52 81 8389 2121,https://location.westernunion.com/mx/tabasco/paraiso/cf225b33192df04028bdb36818a519f7,Mo-Su 08:00-22:00,Western Union,Q861042
97e6a7b3e800d3ab150f132fde1a1a7b,western_union,SORIANA PARAISO 186,,Tabasco,TABASCO,,MX,(+52) 81-1112009,https://location.westernunion.com/mx/tabasco/tabasco/97e6a7b3e800d3ab150f132fde1a1a7b,Mo-Su 08:00-23:00,Western Union,Q861042
0f332d0ddf18c1b1edd9607d78ec6882,western_union,SORIANA PARAISO 186,,Tabasco,TABASCO,,MX,(+52) 81-1112009,https://location.westernunion.com/mx/tabasco/tabasco/0f332d0ddf18c1b1edd9607d78ec6882,Mo-Su 08:00-23:00,Western Union,Q861042
394b9e0f36a7ebc3476fbec1f7a88804,western_union,SORIANA PARAISO 186,,Tabasco,TABASCO,,MX,(+52) 81-1112009,https://location.westernunion.com/mx/tabasco/tabasco/394b9e0f36a7ebc3476fbec1f7a88804,Mo-Su 08:00-23:00,Western Union,Q861042
9690f37345f7e267e2353acf466560ff,western_union,OXXO PARQUE VSA,,Paraiso,TABASCO,,MX,+52 81 8389 2121,https://location.westernunion.com/mx/tabasco/paraiso/9690f37345f7e267e2353acf466560ff,Mo-Su 08:00-22:00,Western Union,Q861042
461a7249580dcce63eabc1f621d40d75,western_union,OXXO PARQUE VSA,,Paraiso,TABASCO,,MX,+52 81 8389 2121,https://location.westernunion.com/mx/tabasco/paraiso/461a7249580dcce63eabc1f621d40d75,Mo-Su 08:00-22:00,Western Union,Q861042
8f160c5e3f6c61d69bd5ced3edee63c9,western_union,OXXO PARQUE VSA,,Paraiso,TABASCO,,MX,+52 81 8389 2121,https://location.westernunion.com/mx/tabasco/paraiso/8f160c5e3f6c61d69bd5ced3edee63c9,Mo-Su 08:00-22:00,Western Union,Q861042
7604bbad267f2ba34fdce9d3e6cadd0d,western_union,OXXO MANUEL ROMERO VSA,,Paraiso,TABASCO,,MX,+52 81 8389 2121,https://location.westernunion.com/mx/tabasco/paraiso/7604bbad267f2ba34fdce9d3e6cadd0d,Mo-Su 08:00-22:00,Western Union,Q861042
132ab24917cf002ffb3254d5cffbb2bc,western_union,OXXO MANUEL ROMERO VSA,,Paraiso,TABASCO,,MX,+52 81 8389 2121,https://location.westernunion.com/mx/tabasco/paraiso/132ab24917cf002ffb3254d5cffbb2bc,Mo-Su 08:00-22:00,Western Union,Q861042
23229830a0f5910b70449546a8444beb,western_union,OXXO LERDO VSA,,Paraiso,TABASCO,,MX,+52 81 8389 2121,https://location.westernunion.com/mx/tabasco/paraiso/23229830a0f5910b70449546a8444beb,Mo-Su 08:00-22:00,Western Union,Q861042
d3c5f18a269f5c5207ffecdf3479ce93,western_union,OXXO LERDO VSA,,Paraiso,TABASCO,,MX,+52 81 8389 2121,https://location.westernunion.com/mx/tabasco/paraiso/d3c5f18a269f5c5207ffecdf3479ce93,Mo-Su 08:00-22:00,Western Union,Q861042
536b847049905d35bf1fa31f513c7eae,western_union,OXXO LERDO VSA,,Paraiso,TABASCO,,MX,+52 81 8389 2121,https://location.westernunion.com/mx/tabasco/paraiso/536b847049905d35bf1fa31f513c7eae,Mo-Su 08:00-22:00,Western Union,Q861042
66db643d5932542a7d8a83bf84efd30b,western_union,OXXO MANUEL ROMERO VSA,,Paraiso,TABASCO,,MX,+52 81 8389 2121,https://location.westernunion.com/mx/tabasco/paraiso/66db643d5932542a7d8a83bf84efd30b,Mo-Su 08:00-22:00,Western Union,Q861042
d2ca81a15fb56b21f74ec2a4a20f93a0,western_union,OXXO HERMENEGILDO VSA,,Paraiso,TABASCO,,MX,+52 81 8389 2121,https://location.westernunion.com/mx/tabasco/paraiso/d2ca81a15fb56b21f74ec2a4a20f93a0,Mo-Su 08:00-22:00,Western Union,Q861042
102b179d552a0544617ebf143b505a14,western_union,WALDOS PARAISO CENTRO 6866,,Paraiso,TABASCO,,MX,+52 55 5246 0700,https://location.westernunion.com/mx/tabasco/paraiso/102b179d552a0544617ebf143b505a14,Mo-Su 06:30-23:30,Western Union,Q861042
16a1e08dc963f58ad3ed962bc7f73ae4,western_union,FUNDACION DONDE PARAISO ID167,,Paraiso,TABASCO,,MX,+52 999 940 7550,https://location.westernunion.com/mx/tabasco/paraiso/16a1e08dc963f58ad3ed962bc7f73ae4,Mo-Su 08:00-20:00,Western Union,Q861042
fe6de121a353a5def6592352ca534aff,western_union,FUNDACION DONDE PARAISO ID167,,Paraiso,TABASCO,,MX,+52 999 940 7550,https://location.westernunion.com/mx/tabasco/paraiso/fe6de121a353a5def6592352ca534aff,Mo-Su 08:00-20:00,Western Union,Q861042
e255737d7f7a9a43ad41002b70b9f92a,western_union,FUNDACION DONDE PARAISO ID167,,Paraiso,TABASCO,,MX,+52 999 940 7550,https://location.westernunion.com/mx/tabasco/paraiso/e255737d7f7a9a43ad41002b70b9f92a,Mo-Su 08:00-20:00,Western Union,Q861042
457958df3baf8d87ccfb6319df764e03,western_union,OXXO ZAMORA VSA,,Paraiso,TABASCO,,MX,+52 81 8389 2121,https://location.westernunion.com/mx/tabasco/paraiso/457958df3baf8d87ccfb6319df764e03,Mo-Su 08:00-22:00,Western Union,Q861042
fdf8b0650a442f42bc3c8bfcc84fef24,western_union,OXXO ZAMORA VSA,,Paraiso,TABASCO,,MX,+52 81 8389 2121,https://location.westernunion.com/mx/tabasco/paraiso/fdf8b0650a442f42bc3c8bfcc84fef24,Mo-Su 08:00-22:00,Western Union,Q861042
977e15247b2244e7a8dfbe370cda96cf,western_union,OXXO ZAMORA VSA,,Paraiso,TABASCO,,MX,+52 81 8389 2121,https://location.westernunion.com/mx/tabasco/paraiso/977e15247b2244e7a8dfbe370cda96cf,Mo-Su 08:00-22:00,Western Union,Q861042
3faa477c90f9ec4c6445f900a22d77ed,western_union,TIENDAS NETO PARAISO TABASCO 1297,,Paraiso,TABASCO,,MX,+52 933 333 3527,https://location.westernunion.com/mx/tabasco/paraiso/3faa477c90f9ec4c6445f900a22d77ed,Mo-Su 07:00-22:00,Western Union,Q861042
7fbacb440d25ed2b5608340fe3cccf4d,western_union,TIENDAS NETO PARAISO TABASCO 1297,,Paraiso,TABASCO,,MX,+52 933 333 3527,https://location.westernunion.com/mx/tabasco/paraiso/7fbacb440d25ed2b5608340fe3cccf4d,Mo-Su 07:00-22:00,Western Union,Q861042
91cb0ae390698685e5632e501870f04a,western_union,TIENDAS NETO PARAISO TABASCO 1297,,Paraiso,TABASCO,,MX,+52 933 333 3527,https://location.westernunion.com/mx/tabasco/paraiso/91cb0ae390698685e5632e501870f04a,Mo-Su 07:00-22:00,Western Union,Q861042
2eafda688e84989eb1e0e78df18fe6a5,western_union,TELECOMM 27021,,Paraiso,TABASCO,,MX,+52 800 800 8930,https://location.westernunion.com/mx/tabasco/paraiso/2eafda688e84989eb1e0e78df18fe6a5,Mo-Fr 09:00-15:30,Western Union,Q861042
93526be6089714fee086d263ca24d345,western_union,TELECOMM 27021,,Paraiso,TABASCO,,MX,+52 800 800 9889,https://location.westernunion.com/mx/tabasco/paraiso/93526be6089714fee086d263ca24d345,Mo-Fr 09:00-15:00,Western Union,Q861042
ef9477c9422533e6f6d88c143120c9c8,western_union,TELECOMM 27021,,Paraiso,TABASCO,,MX,+52 800 800 8930,https://location.westernunion.com/mx/tabasco/paraiso/ef9477c9422533e6f6d88c143120c9c8,Mo-Su 09:00-20:00,Western Union,Q861042
33ea6a353351af2e273e917acb2462ab,western_union,OXXO HERMENEGILDO VSA,,Paraiso,TABASCO,,MX,+52 81 8389 2121,https://location.westernunion.com/mx/tabasco/paraiso/33ea6a353351af2e273e917acb2462ab,Mo-Su 08:00-22:00,Western Union,Q861042
e99e8ed1ab3d3244d9202e94a41e5ea3,western_union,OXXO HERMENEGILDO VSA,,Paraiso,TABASCO,,MX,+52 81 8389 2121,https://location.westernunion.com/mx/tabasco/paraiso/e99e8ed1ab3d3244d9202e94a41e5ea3,Mo-Su 08:00-22:00,Western Union,Q861042
e59420b4748e711a0303fd568e606cb7,western_union,OXXO OCHO DE OCTUBRE VSA,,Paraiso,TABASCO,,MX,+52 81 8389 2121,https://location.westernunion.com/mx/tabasco/paraiso/e59420b4748e711a0303fd568e606cb7,Mo-Su 08:00-22:00,Western Union,Q861042
6b755a5e090ddbf08e7926b957baed39,western_union,OXXO OCHO DE OCTUBRE VSA,,Paraiso,TABASCO,,MX,+52 81 8389 2121,https://location.westernunion.com/mx/tabasco/paraiso/6b755a5e090ddbf08e7926b957baed39,Mo-Su 08:00-22:00,Western Union,Q861042
425444ebfff22fec5635ce8d52c310d4,western_union,OXXO OCHO DE OCTUBRE VSA,,Paraiso,TABASCO,,MX,+52 81 8389 2121,https://location.westernunion.com/mx/tabasco/paraiso/425444ebfff22fec5635ce8d52c310d4,Mo-Su 08:00-22:00,Western Union,Q861042
1786ee10a073d3326e9edeed0386fa44,western_union,OXXO DOS BOCAS VSA,,Paraiso,TABASCO,,MX,+52 81 8389 2121,https://location.westernunion.com/mx/tabasco/paraiso/1786ee10a073d3326e9edeed0386fa44,Mo-Su 08:00-22:00,Western Union,Q861042
4e389b9ae3e2575c34954f64fe502f60,western_union,OXXO LAZARO CARDENAS VSA,,Paraiso,TABASCO,,MX,+52 81 8389 2121,https://location.westernunion.com/mx/tabasco/paraiso/4e389b9ae3e2575c34954f64fe502f60,Mo-Su 08:00-22:00,Western Union,Q861042
195dbe9a7f975395d39dd8dff12036e7,western_union,OXXO DOS BOCAS VSA,,Paraiso,TABASCO,,MX,+52 81 8389 2121,https://location.westernunion.com/mx/tabasco/paraiso/195dbe9a7f975395d39dd8dff12036e7,Mo-Su 08:00-22:00,Western Union,Q861042
c75a0568eee940282ff5666846b76b36,western_union,OXXO CRISTOBAL VSA,,Paraiso,TABASCO,,MX,+52 81 8389 2121,https://location.westernunion.com/mx/tabasco/paraiso/c75a0568eee940282ff5666846b76b36,Mo-Su 08:00-22:00,Western Union,Q861042
c61013ca1143e06280dd975b60f5b87e,western_union,OXXO CRISTOBAL VSA,,Paraiso,TABASCO,,MX,+52 81 8389 2121,https://location.westernunion.com/mx/tabasco/paraiso/c61013ca1143e06280dd975b60f5b87e,Mo-Su 08:00-22:00,Western Union,Q861042
5a9644202bbda48e8eeed9ce0848caef,western_union,OXXO CRISTOBAL VSA,,Paraiso,TABASCO,,MX,+52 81 8389 2121,https://location.westernunion.com/mx/tabasco/paraiso/5a9644202bbda48e8eeed9ce0848caef,Mo-Su 08:00-22:00,Western Union,Q861042
