Ref,Spider,Name,Address,City,State,Zipcode,Country,Phone,Website,Hours,Brand,WikiData
CH*ION*E115202,ich_tanke_strom,,"Autostradale Sud , 6513 Monte Carasso",Bellinzona District,Ticino,,CH,,,,,
CH*ION*E115101,ich_tanke_strom,,"A2 Direzione Chiasso , 6500 Bellinzona",Bellinzona District,Ticino,,CH,,,,,
CH*LID*E123*0018,ich_tanke_strom,,"Via Serrai , 6592 Sant Antonino",Bellinzona District,Ticino,,CH,,,,,
CH*LID*E123*0020,ich_tanke_strom,,"Viale C.Olgiati , 6929 Giubiasco",Bellinzona District,Ticino,,CH,,,,,
CH*TES*E123*0101,ich_tanke_strom,Tesla Supercharger,"Via Cantonale , 6916 Grancia",Lugano District,Ticino,,CH,,,,Tesla Supercharger,Q17089620
CH*TES*E123*0258,ich_tanke_strom,Tesla Supercharger,"Via di Mezzo , 6776 Quinto",Leventina District,Ticino,,CH,,,,Tesla Supercharger,Q17089620
CH*TES*E123*0268,ich_tanke_strom,Tesla Supercharger,"via Monte Ceneri , 6802 Rivera",Bellinzona District,Ticino,,CH,,,,Tesla Supercharger,Q17089620
CH*TES*E123*0041,ich_tanke_strom,Tesla Supercharger,"Via Stazione , 6593 Cadenazzo",Bellinzona District,Ticino,,CH,,,,Tesla Supercharger,Q17089620
CH*TES*E123*0186,ich_tanke_strom,Tesla Supercharger,"Via Cantonale , 6815 Melide",Lugano District,Ticino,,CH,,,,Tesla Supercharger,Q17089620
CH*MIG*E123*0030,ich_tanke_strom,,"Via Locarno , 6612 Ascona",Locarno District,Ticino,,CH,,,,,
CH*SWIEE117974,ich_tanke_strom,,"Viale Monte Verità , 0 Ascona",Locarno District,Ticino,,CH,,,,,
CH*SWIEE117976,ich_tanke_strom,,"Via Collegio , 0 Ascona",Locarno District,Ticino,,CH,,,,,
CH*SWIEE125302,ich_tanke_strom,,"Via alla basilica 17 , 0 Locarno",Leventina District,Ticino,,CH,,,,,
CH*SWIEE117977,ich_tanke_strom,,"Via Albarelle , 0 Ascona",Locarno District,Ticino,,CH,,,,,
CH*SWIEE141746,ich_tanke_strom,,"Via Carona 41 , 0 Paradiso",Lugano District,Ticino,,CH,,,,,
CH*SWIEE152918,ich_tanke_strom,,"Area Servizio Stalvedro, A2 , 0 Stalvedro",Leventina District,Ticino,,CH,,,,,
CH*SWIEE213752,ich_tanke_strom,,"Area Servizio, Gottardo Sud Quinto , 0 Piotta-Quinto",Leventina District,Ticino,,CH,,,,,
CH*SWIEE213574,ich_tanke_strom,,"Area Servizio Stalvedro, A2 , 0 Stalvedro",Leventina District,Ticino,,CH,,,,,
CH*SWIEE214461,ich_tanke_strom,,"Zona Industriale 3, Via Ganne 5, Zona Industriale 3, Via Ganne 5, 6572 MagadinoMagadino , 0 Magadino",Locarno District,Ticino,,CH,,,,,
CH*SWIEE216602,ich_tanke_strom,,"Area Servizio, Gottardo Sud Quinto , 0 Piotta-Quinto",Leventina District,Ticino,,CH,,,,,
CH*SWIEE234351,ich_tanke_strom,,"Piazza Caglioni , 0 Ascona",Locarno District,Ticino,,CH,,,,,
CH*SWIEE247746,ich_tanke_strom,,"Via Industrie 16 , 0 Giornico",Leventina District,Ticino,,CH,,,,,
CH*SWIEE247016,ich_tanke_strom,,"Tertianum Residenza Al Parco, Via San Gottardo 8 , 0 Muralto Locarno",Locarno District,Ticino,,CH,,,,,
CH*SWIEE26324,ich_tanke_strom,,"Area Servizio Stalvedro, A2 , 0 Stalvedro",Leventina District,Ticino,,CH,,,,,
CH*SWIEE27682,ich_tanke_strom,,"Via San Gottardo 8 , 0 Muralto Locarno",Locarno District,Ticino,,CH,,,,,
CH*SWIEE30744,ich_tanke_strom,,"Via Muraccio , 6987 Caslano",Lugano District,Ticino,,CH,,,,,
CH*SWIEE3596,ich_tanke_strom,,"McDonald's, Via la Sguancia 9 , 6912 Lugano-Pazzallo",Lugano District,Ticino,,CH,,,,,
CH*SWIEE3631,ich_tanke_strom,,"Area Servizio, Gottardo Sud Quinto , 0 Piotta-Quinto",Leventina District,Ticino,,CH,,,,,
CH*SWIEE43916,ich_tanke_strom,,"Via Lido , 0 Tenero",Locarno District,Ticino,,CH,,,,,
CH*SWIEE4752,ich_tanke_strom,,"Fela Ticino, Via Stazione 10 , 6593 Cadenazzo",Bellinzona District,Ticino,,CH,,,,,
CH*SWIEE54734,ich_tanke_strom,,"Via alle Brere 8 , 0 Tenero-Contra",Locarno District,Ticino,,CH,,,,,
CH*SWIEE6325,ich_tanke_strom,,"Centro Valle , 6670 Avegno",Locarno District,Ticino,,CH,,,,,
CH*SWIEE10766,ich_tanke_strom,,"Via Cantonale 13 , 6815 Melide",Lugano District,Ticino,,CH,,,,,
CH*SWIEE126288,ich_tanke_strom,,"via Prati Maggi 8 , 0 Rancate",Mendrisio District,Ticino,,CH,,,,,
CH*SWIEE152916,ich_tanke_strom,,"Area Servizio Coldrerio Sud-Nord, E35 , 0 Coldrerio",Mendrisio District,Ticino,,CH,,,,,
CH*SWIEE152920,ich_tanke_strom,,"Area Servizio Coldrerio Nord-Sud, E35 , 0 Coldrerio",Mendrisio District,Ticino,,CH,,,,,
CH*SWIEE1775,ich_tanke_strom,,"Via Speranza 4 , 6900 Lugano",Lugano District,Ticino,,CH,,,,,
CH*SWIEE19189,ich_tanke_strom,,"Area Servizio Coldrerio Nord-Sud, E35 , 0 Coldrerio",Mendrisio District,Ticino,,CH,,,,,
CH*SWIEE19366,ich_tanke_strom,,"Area Servizio Coldrerio Sud-Nord, E35 , 0 Coldrerio",Mendrisio District,Ticino,,CH,,,,,
CH*SWIEE213657,ich_tanke_strom,,"Area Servizio, Bellinzona Nord , 0 Bellinzona",Bellinzona District,Ticino,,CH,,,,,
CH*SWIEE213819,ich_tanke_strom,,"Area Servizio, Bellinzona Nord , 0 Bellinzona",Bellinzona District,Ticino,,CH,,,,,
CH*SWIEE213885,ich_tanke_strom,,"Area Servizio, Bellinzona Sud , 0 Monte Carasso",Bellinzona District,Ticino,,CH,,,,,
CH*SWIEE248415,ich_tanke_strom,,"Via Moderna 15 , 0 Giubiasco",Bellinzona District,Ticino,,CH,,,,,
CH*SWIEE27900,ich_tanke_strom,,"FoxTown, Via Angelo Maspoli 18 , 6850 Mendrisio",Mendrisio District,Ticino,,CH,,,,,
CH*SWIEE49804,ich_tanke_strom,,"Via Sonvico 5 , 0 Canobbio",Lugano District,Ticino,,CH,,,,,
CH*SWIEE5266,ich_tanke_strom,,"Area Servizio, Bellinzona Sud , 0 Monte Carasso",Bellinzona District,Ticino,,CH,,,,,
CH*SWIEE5650,ich_tanke_strom,,"Via San Gottardo 129 , 6517 Arbedo",Bellinzona District,Ticino,,CH,,,,,
CH*SWIEE6144,ich_tanke_strom,,"Area Servizio, Bellinzona Nord , 0 Bellinzona",Bellinzona District,Ticino,,CH,,,,,
2116,ich_tanke_strom,,"Via Basilea , 6900 Lugano",Lugano District,Ticino,,CH,,,,,
2117,ich_tanke_strom,,"Via Norello , 6928 Manno",Lugano District,Ticino,,CH,,,,,
2118,ich_tanke_strom,,"Via Monte Lema 2 , 6986 Miglieglia",Lugano District,Ticino,,CH,,,,,
2464,ich_tanke_strom,,"Corso San Gottardo , 6830 Chiasso",Mendrisio District,Ticino,,CH,,,,,
2073,ich_tanke_strom,,"Piazzál dal Comun , 6702 Claro",Riviera District,Ticino,,CH,,,,,
2074,ich_tanke_strom,,"Via Stazione , 6532 Castione",Bellinzona District,Ticino,,CH,,,,,
2270,ich_tanke_strom,,"Viale Verbano , 6600 Muralto",Locarno District,Ticino,,CH,,,,,
2271,ich_tanke_strom,,"Viale Verbano , 6600 Muralto",Locarno District,Ticino,,CH,,,,,
3377,ich_tanke_strom,,"Via Lischedi , 6592 Sant'Antonino",Bellinzona District,Ticino,,CH,,,,,
2093,ich_tanke_strom,,"Piazza Riscossa , 6906 Cassarate",Lugano District,Ticino,,CH,,,,,
1894,ich_tanke_strom,,"Via G.B. Pioda , 6900 Lugano",Lugano District,Ticino,,CH,,,,,
1907,ich_tanke_strom,,"Via S. Giorgio , 6877 Coldrerio",Mendrisio District,Ticino,,CH,,,,,
2123,ich_tanke_strom,,"Piazza Grande , 6512 Giubiasco",Bellinzona District,Ticino,,CH,,,,,
2124,ich_tanke_strom,,"Via al Maglio , 6500 Bellinzona",Bellinzona District,Ticino,,CH,,,,,
2125,ich_tanke_strom,,"Via Seghezzone , 6512 Giubiasco",Bellinzona District,Ticino,,CH,,,,,
3248,ich_tanke_strom,,"Via Val Gersa , 6900 Massagno",Lugano District,Ticino,,CH,,,,,
3268,ich_tanke_strom,,"Villa Bedretto , 6781 Bedretto",Leventina District,Ticino,,CH,,,,,
1978,ich_tanke_strom,,"Via Ufentina , 6855 Stabio",Mendrisio District,Ticino,,CH,,,,,
2183,ich_tanke_strom,,"Via Generale Guisan , 6710 Biasca",Riviera District,Ticino,,CH,,,,,
2871,ich_tanke_strom,,"Via Industria , 6807 Torricella-Taverne",Lugano District,Ticino,,CH,,,,,
2872,ich_tanke_strom,,"Via Girella , 6814 Lamone",Lugano District,Ticino,,CH,,,,,
1302,ich_tanke_strom,,"Via Daldini , 6943 Vezia",Lugano District,Ticino,,CH,,,,,
2013,ich_tanke_strom,,"Via Pree , 6992 Vernate",Lugano District,Ticino,,CH,,,,,
2014,ich_tanke_strom,,"Via alla Bola , 6815 Melide",Lugano District,Ticino,,CH,,,,,
2587,ich_tanke_strom,,"Via Onorio Longhi , 6864 Arzo",Mendrisio District,Ticino,,CH,,,,,
2588,ich_tanke_strom,,"Via Municipio , 6850 Mendrisio",Mendrisio District,Ticino,,CH,,,,,
3058,ich_tanke_strom,,"Via San Gottardo , 6742 Pollegio",Riviera District,Ticino,,CH,,,,,
1355,ich_tanke_strom,,"Residenza , 6512 Giubiasco",Bellinzona District,Ticino,,CH,,,,,
2068,ich_tanke_strom,,"Piazza Grande , 6512 Giubiasco",Bellinzona District,Ticino,,CH,,,,,
2075,ich_tanke_strom,,"Via al Guast , 6528 Camorino",Bellinzona District,Ticino,,CH,,,,,
2304,ich_tanke_strom,,"Via Mappo , 6648 Minusio",Locarno District,Ticino,,CH,,,,,
3169,ich_tanke_strom,,"Al Stradón , 6670 Avegno",Locarno District,Ticino,,CH,,,,,
2108,ich_tanke_strom,,"Piazza Stazione , 6950 Tesserete",Lugano District,Ticino,,CH,,,,,
2388,ich_tanke_strom,,"Via Soldini , 6830 Chiasso",Mendrisio District,Ticino,,CH,,,,,
2850,ich_tanke_strom,,"Autosilo Motta , 6900 Lugano",Lugano District,Ticino,,CH,,,,,
3009,ich_tanke_strom,,"Vicolo Riva dell'Angelo , 6818 Melano",Lugano District,Ticino,,CH,,,,,
3010,ich_tanke_strom,,"Via Mulini , 6934 Bioggio",Lugano District,Ticino,,CH,,,,,
2584,ich_tanke_strom,,"Via San Martino , 6850 Mendrisio",Mendrisio District,Ticino,,CH,,,,,
2585,ich_tanke_strom,,"Via San Martino , 6850 Mendrisio",Mendrisio District,Ticino,,CH,,,,,
2586,ich_tanke_strom,,"Via Campo Sportivo , 6850 Mendrisio",Mendrisio District,Ticino,,CH,,,,,
1497,ich_tanke_strom,,"Via Gerra , 6760 Faido",Leventina District,Ticino,,CH,,,,,
1948,ich_tanke_strom,,"Via Cantonale , 6949 Comano",Lugano District,Ticino,,CH,,,,,
1974,ich_tanke_strom,,"Via Cremignone , 6924 Sorengo",Lugano District,Ticino,,CH,,,,,
2272,ich_tanke_strom,,"Via Trevani , 6600 Locarno",Locarno District,Ticino,,CH,,,,,
2273,ich_tanke_strom,,"Largo Zorzi , 6600 Locarno",Locarno District,Ticino,,CH,,,,,
6717,ich_tanke_strom,,"Via Brunari , 6500 Bellinzona",Bellinzona District,Ticino,,CH,,,,,
2011,ich_tanke_strom,,"Vicolo Muggiasca , 6501 Bellinzona",Bellinzona District,Ticino,,CH,,,,,
2303,ich_tanke_strom,,"Via Centro Sportivo , 6573 Magadino",Locarno District,Ticino,,CH,,,,,
2406,ich_tanke_strom,,"Via Volta , 6830 Chiasso",Mendrisio District,Ticino,,CH,,,,,
2595,ich_tanke_strom,,"Via Campagna , 6652 Tegna",Locarno District,Ticino,,CH,,,,,
7557,ich_tanke_strom,,"Via Varesi , 6600 Locarno",Locarno District,Ticino,,CH,,,,,
6442,ich_tanke_strom,,"Via Cantonale , 6855 Stabio",Mendrisio District,Ticino,,CH,,,,,
6519,ich_tanke_strom,,"Via Orgnana , 6573 Gambarogno",Locarno District,Ticino,,CH,,,,,
8904,ich_tanke_strom,,"Via Franco Zorzi , 6850 Mendrisio",Mendrisio District,Ticino,,CH,,,,,
2113,ich_tanke_strom,,"Via Maroggia , 6816 Bissone",Lugano District,Ticino,,CH,,,,,
2114,ich_tanke_strom,,"Via Giuseppe Buffi , 6900 Lugano",Lugano District,Ticino,,CH,,,,,
2222,ich_tanke_strom,,"Hotel La Perla Via Cantonale , 6592 Sant'Antonino",Bellinzona District,Ticino,,CH,,,,,
1884,ich_tanke_strom,,"In Piazza , 6528 Camorino",Bellinzona District,Ticino,,CH,,,,,
2067,ich_tanke_strom,,"Via Stazione , 6532 Castione",Bellinzona District,Ticino,,CH,,,,,
2391,ich_tanke_strom,,"Via S. Gottardo , 6828 Balerna",Mendrisio District,Ticino,,CH,,,,,
2091,ich_tanke_strom,,"Via Cantonale , 6983 Magliaso",Lugano District,Ticino,,CH,,,,,
2092,ich_tanke_strom,,"Piazza Rezzonico , 6900 Lugano",Lugano District,Ticino,,CH,,,,,
1975,ich_tanke_strom,,"Evita Via del Tiglio , 6512 Giubiasco",Bellinzona District,Ticino,,CH,,,,,
2010,ich_tanke_strom,,"Via Stazione , 6532 Castione",Bellinzona District,Ticino,,CH,,,,,
2090,ich_tanke_strom,,"Via Serafino Balestra , 6900 Lugano",Lugano District,Ticino,,CH,,,,,
2178,ich_tanke_strom,,"Piazza Antonio Fontana , 6850 Besazio",Mendrisio District,Ticino,,CH,,,,,
2274,ich_tanke_strom,,"Lungolago Giuseppe Motta , 6600 Locarno",Locarno District,Ticino,,CH,,,,,
2337,ich_tanke_strom,,"Via alla Peschiera , 6600 Locarno",Locarno District,Ticino,,CH,,,,,
2338,ich_tanke_strom,,"Viale G. Respini , 6600 Locarno",Locarno District,Ticino,,CH,,,,,
6722,ich_tanke_strom,,"Piazza San Provino , 6982 Agno",Lugano District,Ticino,,CH,,,,,
5139,ich_tanke_strom,,"Ur Stradón , 6994 Aranno",Lugano District,Ticino,,CH,,,,,
5140,ich_tanke_strom,,"Parcheggio Comunale Viale Pietro Grassi , 6981 Bedigliora",Lugano District,Ticino,,CH,,,,,
2593,ich_tanke_strom,,"Via Brugaio , 6713 Malvaglia",Blenio District,Ticino,,CH,,,,,
2594,ich_tanke_strom,,"Via Chiesa San Martino , 6718 Olivone",Blenio District,Ticino,,CH,,,,,
2405,ich_tanke_strom,,"Via Fontana da Sagno , 6830 Chiasso",Mendrisio District,Ticino,,CH,,,,,
6480,ich_tanke_strom,,"Viale San Salvatore , 6900 Paradiso",Lugano District,Ticino,,CH,,,,,
6719,ich_tanke_strom,,"Via Bora da Besa , 6925 Gentilino",Lugano District,Ticino,,CH,,,,,
6720,ich_tanke_strom,,"Ra Stráda Cantonál , 6966 Villa Luganese",Lugano District,Ticino,,CH,,,,,
5085,ich_tanke_strom,,"Via degli Albrici , 6830 Chiasso",Mendrisio District,Ticino,,CH,,,,,
5135,ich_tanke_strom,,"Via Strecia , 6814 Cadempino",Lugano District,Ticino,,CH,,,,,
5136,ich_tanke_strom,,"Via Strecia , 6814 Cadempino",Lugano District,Ticino,,CH,,,,,
4715,ich_tanke_strom,,"Via Campagna , 6582 Pianezzo",Bellinzona District,Ticino,,CH,,,,,
2181,ich_tanke_strom,,"via Franscini , 6850 Mendrisio",Mendrisio District,Ticino,,CH,,,,,
2182,ich_tanke_strom,,"Via Ort Pruvin , 6986 Novaggio",Lugano District,Ticino,,CH,,,,,
1893,ich_tanke_strom,,"Via Cantonale , 6837 Bruzella",Mendrisio District,Ticino,,CH,,,,,
1908,ich_tanke_strom,,"Via Gelusa , 6874 Castel S. Pietro",Mendrisio District,Ticino,,CH,,,,,
1998,ich_tanke_strom,,"Via Livio , 6830 Chiasso",Mendrisio District,Ticino,,CH,,,,,
2866,ich_tanke_strom,,"Autosilo Piazza Castello , 6900 Lugano",Lugano District,Ticino,,CH,,,,,
6630,ich_tanke_strom,,"Via Francesco Catenazzi , 6850 Mendrisio",Mendrisio District,Ticino,,CH,,,,,
6718,ich_tanke_strom,,"Via Gerretta , 6500 Bellinzona",Bellinzona District,Ticino,,CH,,,,,
6721,ich_tanke_strom,,"Piazza Chiattone , 6932 Breganzona",Lugano District,Ticino,,CH,,,,,
2856,ich_tanke_strom,,"Autosilo Motta , 6900 Lugano",Lugano District,Ticino,,CH,,,,,
2857,ich_tanke_strom,,"Via Scuole , 6916 Grancia",Lugano District,Ticino,,CH,,,,,
2858,ich_tanke_strom,,"Via Cantonale , 6929 Gravesano",Lugano District,Ticino,,CH,,,,,
2115,ich_tanke_strom,,"Piaza du Buteghin , 6805 Mezzovico",Lugano District,Ticino,,CH,,,,,
2179,ich_tanke_strom,,"Via Municipio , 6850 Mendrisio",Mendrisio District,Ticino,,CH,,,,,
2180,ich_tanke_strom,,"Ala Caraa , 6850 Meride",Mendrisio District,Ticino,,CH,,,,,
2336,ich_tanke_strom,,"Piazza Respini , 6600 Locarno",Locarno District,Ticino,,CH,,,,,
4714,ich_tanke_strom,,"El Cunvént , 6513 Monte Carasso",Bellinzona District,Ticino,,CH,,,,,
1873,ich_tanke_strom,,"Via della Stazione , 6780 Airolo",Leventina District,Ticino,,CH,,,,,
1874,ich_tanke_strom,,"Parcheggio comunale in via Nocc , 6925 Gentilino",Lugano District,Ticino,,CH,,,,,
2301,ich_tanke_strom,,"Via Valmaggina , 6675 Cevio",Vallemaggia District,Ticino,,CH,,,,,
3170,ich_tanke_strom,,"Centro Paese , 6672 Gordevio",Locarno District,Ticino,,CH,,,,,
1946,ich_tanke_strom,,"Strada Regina , 6934 Bioggio",Lugano District,Ticino,,CH,,,,,
1885,ich_tanke_strom,,"Via alla Cervia , 6500 Bellinzona",Bellinzona District,Ticino,,CH,,,,,
5384,ich_tanke_strom,,"Autosilo P.za Castello , 6600 Locarno",Locarno District,Ticino,,CH,,,,,
5385,ich_tanke_strom,,"Autosilo P.za Castello , 6600 Locarno",Locarno District,Ticino,,CH,,,,,
1999,ich_tanke_strom,,"Via Pizzamiglio , 6833 Vacallo",Mendrisio District,Ticino,,CH,,,,,
2001,ich_tanke_strom,,"Via Henri Guisan , 6500 Bellinzona",Bellinzona District,Ticino,,CH,,,,,
3329,ich_tanke_strom,,"Via S. Felice , 6821 Rovio",Lugano District,Ticino,,CH,,,,,
6100,ich_tanke_strom,,"Via San Gottardo , 6596 Gordola",Locarno District,Ticino,,CH,,,,,
6592,ich_tanke_strom,,"Via Balbio , 6834 Morbio Inferiore",Mendrisio District,Ticino,,CH,,,,,
2429,ich_tanke_strom,,"Via Prati di Vizi , 6616 Losone",Locarno District,Ticino,,CH,,,,,
2076,ich_tanke_strom,,"Via Cantonale , 6515 Gudo",Bellinzona District,Ticino,,CH,,,,,
2077,ich_tanke_strom,,"Via Linoleum , 6512 Giubiasco",Bellinzona District,Ticino,,CH,,,,,
2177,ich_tanke_strom,,"Piazza Baraini , 6852 Genestrerio",Mendrisio District,Ticino,,CH,,,,,
2868,ich_tanke_strom,,"Via al Mulino , 6814 Cadempino",Lugano District,Ticino,,CH,,,,,
2223,ich_tanke_strom,,"Piazza del Sole , 6500 Bellinzona",Bellinzona District,Ticino,,CH,,,,,
2302,ich_tanke_strom,,"Via Osola , 6634 Brione Verzasca",Locarno District,Ticino,,CH,,,,,
2335,ich_tanke_strom,,"Viale al Lido , 6600 Locarno",Locarno District,Ticino,,CH,,,,,
6045,ich_tanke_strom,,"Via Stazione , 6592 Sant'Antonino",Bellinzona District,Ticino,,CH,,,,,
3327,ich_tanke_strom,,"Via Monsignor Sesti , 6826 Riva San Vitale",Mendrisio District,Ticino,,CH,,,,,
7041,ich_tanke_strom,,"via Giuseppe Cattori , 6600 Locarno",Locarno District,Ticino,,CH,,,,,
1866,ich_tanke_strom,,"Piazza Municipio , 6614 Brissago",Locarno District,Ticino,,CH,,,,,
1892,ich_tanke_strom,,"Via Ponte Capriasca , 6945 Origlio",Lugano District,Ticino,,CH,,,,,
2015,ich_tanke_strom,,"Via alla Selva 5 , 6933 Muzzano",Lugano District,Ticino,,CH,,,,,
5464,ich_tanke_strom,,"Via al Pozzo , 6979 Brè sopra Lugano",Lugano District,Ticino,,CH,,,,,
5465,ich_tanke_strom,,"Via Municipio , 6930 Bedano",Lugano District,Ticino,,CH,,,,,
6445,ich_tanke_strom,,"Via Municipio , 6648 Minusio",Locarno District,Ticino,,CH,,,,,
2063,ich_tanke_strom,,"Via dei Pioppi , 6616 Losone",Locarno District,Ticino,,CH,,,,,
3008,ich_tanke_strom,,"Via Roigo , 6965 Cadro",Lugano District,Ticino,,CH,,,,,
6726,ich_tanke_strom,,"Via Lischedo , 6802 Rivera",Bellinzona District,Ticino,,CH,,,,,
1356,ich_tanke_strom,,"Residenza , 6512 Giubiasco",Bellinzona District,Ticino,,CH,,,,,
2867,ich_tanke_strom,,"Via alla Cava , 6807 Torricella-Taverne",Lugano District,Ticino,,CH,,,,,
2873,ich_tanke_strom,,"Via Torraccia , 6883 Novazzano",Mendrisio District,Ticino,,CH,,,,,
4991,ich_tanke_strom,,"Via Paolo Torriani , 6850 Mendrisio",Mendrisio District,Ticino,,CH,,,,,
4993,ich_tanke_strom,,"Largo Mario Soldini , 6850 Mendrisio",Mendrisio District,Ticino,,CH,,,,,
6724,ich_tanke_strom,,"Via Monte Croce , 6927 Agra",Lugano District,Ticino,,CH,,,,,
5137,ich_tanke_strom,,"Via San Pietro , 6929 Gravesano",Lugano District,Ticino,,CH,,,,,
4941,ich_tanke_strom,,"Via Ceresio , 6963 Lugano",Lugano District,Ticino,,CH,,,,,
8249,ich_tanke_strom,,"Carì Croce , 6760 Campello",Leventina District,Ticino,,CH,,,,,
3563,ich_tanke_strom,,"Via Golf , 6987 Caslano",Lugano District,Ticino,,CH,,,,,
6593,ich_tanke_strom,,"Via Chiesa , 6834 Morbio Inferiore",Mendrisio District,Ticino,,CH,,,,,
6044,ich_tanke_strom,,"Via Stazione , 6592 Sant'Antonino",Bellinzona District,Ticino,,CH,,,,,
4973,ich_tanke_strom,,"Via Luigi Lavizzari , 6850 Mendrisio",Mendrisio District,Ticino,,CH,,,,,
6590,ich_tanke_strom,,"Viale Municipio , 6828 Balerna",Mendrisio District,Ticino,,CH,,,,,
6591,ich_tanke_strom,,"Via Cereghetti , 6834 Morbio Inferiore",Mendrisio District,Ticino,,CH,,,,,
11018,ich_tanke_strom,,"Nucleo Roveredo , 6957 Roveredo",Lugano District,Ticino,,CH,,,,,
11020,ich_tanke_strom,,"Via Lugano 56 , 6953 Lugaggia",Lugano District,Ticino,,CH,,,,,
11021,ich_tanke_strom,,"Via alle Pezze , 6950 Tesserete",Lugano District,Ticino,,CH,,,,,
15838,ich_tanke_strom,,"Via ai Crotti , 6830 Chiasso",Mendrisio District,Ticino,,CH,,,,,
15839,ich_tanke_strom,,"Via alla Costa , 6828 Balerna",Mendrisio District,Ticino,,CH,,,,,
16958,ich_tanke_strom,,"Via Cantonale , 6595 Riazzino",Locarno District,Ticino,,CH,,,,,
29886,ich_tanke_strom,,"Via Al Stradón , 6673 Maggia",Locarno District,Ticino,,CH,,,,,
10702,ich_tanke_strom,,"Via Industria , 6807 Taverne",Lugano District,Ticino,,CH,,,,,
16415,ich_tanke_strom,,"Via Gola di Lago , 6951 Odogno",Lugano District,Ticino,,CH,,,,,
24429,ich_tanke_strom,,"via Campo Sportivo , 6930 Bedano",Lugano District,Ticino,,CH,,,,,
24430,ich_tanke_strom,,"Via alle Scuole , 6883 Novazzano",Mendrisio District,Ticino,,CH,,,,,
24431,ich_tanke_strom,,"Via Pizzo Ferraro , 6807 Torricella-Taverne",Lugano District,Ticino,,CH,,,,,
10669,ich_tanke_strom,,"Via Monte Bar , 6958 Bidogno",Lugano District,Ticino,,CH,,,,,
10706,ich_tanke_strom,,"Via Cantonale , 6595 Riazzino",Locarno District,Ticino,,CH,,,,,
16411,ich_tanke_strom,,"-Via Cantonale , 6956 Lopagno",Lugano District,Ticino,,CH,,,,,
16412,ich_tanke_strom,,"Via alla Cava , 6947 Vaglio",Lugano District,Ticino,,CH,,,,,
16413,ich_tanke_strom,,"via gola di lago , 6950 Lelgio",Lugano District,Ticino,,CH,,,,,
11388,ich_tanke_strom,,"Piazza Brocchi , 6926 Montagnola",Lugano District,Ticino,,CH,,,,,
12530,ich_tanke_strom,,"6665 Intragna , 6655 Intragna",Locarno District,Ticino,,CH,,,,,
24515,ich_tanke_strom,,"Via San Gottardo , 6500 Bellinzona",Bellinzona District,Ticino,,CH,,,,,
16410,ich_tanke_strom,,"Via al Convento , 6954 Bigorio",Lugano District,Ticino,,CH,,,,,
29915,ich_tanke_strom,,"Viale Franscini , 6500 Bellinzona",Bellinzona District,Ticino,,CH,,,,,
30226,ich_tanke_strom,,"Via Daldini , 6943 Vezia",Lugano District,Ticino,,CH,,,,,
24339,ich_tanke_strom,,"Via Mappo , 6598 Tenero",Locarno District,Ticino,,CH,,,,,
9122,ich_tanke_strom,,"Via Giovan Pietro Poma , 6827 Brusino Arsizio",Lugano District,Ticino,,CH,,,,,
9123,ich_tanke_strom,,"Viale Cassone , 6963 Pregassona",Lugano District,Ticino,,CH,,,,,
11199,ich_tanke_strom,,"Via alla Rotonda , 6517 Arbedo",Bellinzona District,Ticino,,CH,,,,,
12582,ich_tanke_strom,,"Via Quadrelle , 6804 Bironico - Monte Ceneri",Bellinzona District,Ticino,,CH,,,,,
13102,ich_tanke_strom,,"Via Cantonale/Via Pestalozzi , 6818 Arcegno",Locarno District,Ticino,,CH,,,,,
15840,ich_tanke_strom,,"Via Carlo Cattaneo , 6830 Chiasso",Mendrisio District,Ticino,,CH,,,,,
15948,ich_tanke_strom,,"Via Grumo , 6929 Gravesano",Lugano District,Ticino,,CH,,,,,
29916,ich_tanke_strom,,"Via Lavizzari , 6500 Bellinzona",Bellinzona District,Ticino,,CH,,,,,
29917,ich_tanke_strom,,"Via Lavizzari , 6500 Bellinzona",Bellinzona District,Ticino,,CH,,,,,
19094,ich_tanke_strom,,"Via Industria , 6933 Muzzano",Lugano District,Ticino,,CH,,,,,
22667,ich_tanke_strom,,"Str. Növa , 6968 Lugano",Lugano District,Ticino,,CH,,,,,
22668,ich_tanke_strom,,"Piazza Molino Nuovo , 6900 Lugano",Lugano District,Ticino,,CH,,,,,
9362,ich_tanke_strom,,"Via Madonna della Salute , 6900 Massagno",Lugano District,Ticino,,CH,,,,,
24303,ich_tanke_strom,,"Via S. Gottardo , 6828 Balerna",Mendrisio District,Ticino,,CH,,,,,
10954,ich_tanke_strom,,"Via Pian Scairolo Ristorante Serrafiorita , 6915 Pambio-Noranco",Lugano District,Ticino,,CH,,,,,
17438,ich_tanke_strom,,"Via Pobbia , 6514 Sementina",Bellinzona District,Ticino,,CH,,,,,
22669,ich_tanke_strom,,"Via San Gottardo di Cureggia , 6963 Lugano",Lugano District,Ticino,,CH,,,,,
15947,ich_tanke_strom,,"Via Grumo , 6929 Gravesano",Lugano District,Ticino,,CH,,,,,
15829,ich_tanke_strom,,"Strèda di Scamoi , 6763 Osco",Leventina District,Ticino,,CH,,,,,
15830,ich_tanke_strom,,"Via San Gottardo , 6746 Lavorgo",Leventina District,Ticino,,CH,,,,,
22837,ich_tanke_strom,,"Via Brione , 6645 Brione sopra Minusio",Locarno District,Ticino,,CH,,,,,
17699,ich_tanke_strom,,"Via Valle Verzasca , 6632 Vogorno",Locarno District,Ticino,,CH,,,,,
22779,ich_tanke_strom,,"Via Rompada , 6987 Caslano",Lugano District,Ticino,,CH,,,,,
16957,ich_tanke_strom,,"Via Cantonale 89 , 6595 Riazzino",Locarno District,Ticino,,CH,,,,,
25431,ich_tanke_strom,,"Via San Gottardo , 6780 Airolo",Leventina District,Ticino,,CH,,,,,
25432,ich_tanke_strom,,"Via San Gottardo , 6780 Airolo",Leventina District,Ticino,,CH,,,,,
10062,ich_tanke_strom,,"Via Campo Marzio , 6900 Lugano",Lugano District,Ticino,,CH,,,,,
25966,ich_tanke_strom,,"-Via al Lido , 6817 Maroggia",Lugano District,Ticino,,CH,,,,,
25967,ich_tanke_strom,,"Via Cantonale , 6942 Savosa",Lugano District,Ticino,,CH,,,,,
26111,ich_tanke_strom,,"Via alla Piana Mappale 671 , 6933 Muzzano",Lugano District,Ticino,,CH,,,,,
22666,ich_tanke_strom,,"Piazza Bernardino Luini , 6900 Lugano",Lugano District,Ticino,,CH,,,,,
17543,ich_tanke_strom,,"Via Saresc , 6760 Faido",Leventina District,Ticino,,CH,,,,,
17544,ich_tanke_strom,,"Via Cantonale , 6760 Faido",Leventina District,Ticino,,CH,,,,,
9124,ich_tanke_strom,,"Piazzale Gilberto Quadri , 6962 Viganello",Lugano District,Ticino,,CH,,,,,
9125,ich_tanke_strom,,"Via dei Circoli , 6965 Cadro",Lugano District,Ticino,,CH,,,,,
9126,ich_tanke_strom,,"Parcheggio comunale via Cantonale , 6964 Davesco",Lugano District,Ticino,,CH,,,,,
11023,ich_tanke_strom,,"Via Sarone , 6955 Cagiallo",Lugano District,Ticino,,CH,,,,,
17105,ich_tanke_strom,,"Via alla Stazione , 6533 Lumino",Bellinzona District,Ticino,,CH,,,,,
9588,ich_tanke_strom,,"Via Riva Caccia , 6900 Lugano",Lugano District,Ticino,,CH,,,,,
30225,ich_tanke_strom,,"Via Daldini , 6943 Vezia",Lugano District,Ticino,,CH,,,,,
25964,ich_tanke_strom,,"Via Sarécc , 6807 Taverne",Lugano District,Ticino,,CH,,,,,
26338,ich_tanke_strom,,"Via Vira , 6805 Mezzovico",Lugano District,Ticino,,CH,,,,,
CH*CCI*E21612,ich_tanke_strom,,"Area di sosta - A2 , 6743 Bodio",Leventina District,Ticino,,CH,,,,,
+41*034*528*1,ich_tanke_strom,,"Via Industria , Muzzano",Lugano District,Ticino,,CH,,,,,
+41*034*2318*1,ich_tanke_strom,,"Via Cantonale 8 , Manno",Lugano District,Ticino,,CH,,,,,
CH*ECUERGCFQVWHMZYJ5DZKRUH2V2LT9Z,ich_tanke_strom,,"Via Vedeggio 12 , 6814 Lamone",Lugano District,Ticino,,CH,,,,,
CH*ECUE3X5347K5EGDZW3NP9QHZBFRH3Z,ich_tanke_strom,,"Via Giacomo Rizzi 1A , 6850 Mendrisio",Mendrisio District,Ticino,,CH,,,,,
CH*ECUEMV6R8PGYRT4SYTNNMBZUYWTU9A,ich_tanke_strom,,"Via Serta 18 , 6807 Lamone",Lugano District,Ticino,,CH,,,,,
CH*ECUELMFSSHMC9MAP72LZ3JTJN68KDX,ich_tanke_strom,,"Via ai Monti 44 , 6600 Locarno",Locarno District,Ticino,,CH,,,,,
CH*ECUEFV83E5KLXFPJW4V8Z4DK42STMA,ich_tanke_strom,,"Via Pian Scairolo 41 , 6912 Pazzallo",Lugano District,Ticino,,CH,,,,,
CH*ECUET74CSSS8U5TDFSW39KGRKZYXSX,ich_tanke_strom,,"Via Pian Scairolo 52 , 6915 Pambio-Noranco",Lugano District,Ticino,,CH,,,,,
CH*ECUELS7L8LCRC5VMT6YYUXEJRN4R7S,ich_tanke_strom,,"Via Muraccio 116 , 6612 Ascona",Locarno District,Ticino,,CH,,,,,
CH*ECUEXWBXFP9NJF8FYRPGD7A24KFXUQ,ich_tanke_strom,,"Via del Carmagnola 17 , 6500 Bellinzona",Bellinzona District,Ticino,,CH,,,,,
CH*ECUERSYXY3XTBKU36HYS5VXN86PQWS,ich_tanke_strom,,"Via dei Pioppi 2 , 6616 Losone",Locarno District,Ticino,,CH,,,,,
CH*ECUE369Q3UCVAQEQCL7WN4QCM77XQ2,ich_tanke_strom,,"Via Chiasso 16 , 6710 Biasca",Riviera District,Ticino,,CH,,,,,
CH*ECUEVFNBT9XNFL7H9SYKD8M6KDRGJQ,ich_tanke_strom,,"Via S. Mamete 98 , 6805 Mezzovico-Vira",Lugano District,Ticino,,CH,,,,,
CH*ECUEQQXDQPTL3NSWWPZ7TYHZYMCU4S,ich_tanke_strom,,"Via S. Gottardo 6 , 6828 Balerna",Mendrisio District,Ticino,,CH,,,,,
CH*ECUE4CX8NJ956HQ8MKAZVHB6QH3YDS,ich_tanke_strom,,"Corso S. Gottardo 149 , 6830 Balerna",Mendrisio District,Ticino,,CH,,,,,
CH*ECUET2YHKL93CBS9Y7VQWHEGD6EUXA,ich_tanke_strom,,"Via Vedeggio 12 , 6814 Lamone",Lugano District,Ticino,,CH,,,,,
CH*ECUEFPPMVJQ8GPSG76ZHRWL965DA2S,ich_tanke_strom,,"Via Rinaldo Simen 56 , 6648 Minusio",Locarno District,Ticino,,CH,,,,,
CH*ECUE8CFCE2DVTAMXPDKGGNP7M9Z7DW,ich_tanke_strom,,"Via dei Pioppi 2 , 6616 Losone",Locarno District,Ticino,,CH,,,,,
CH*ECUE56N56EBMQ4G5SKT9G5HG8VK3LQ,ich_tanke_strom,,"via F.A. Bustelli 18 , 6600 Locarno",Locarno District,Ticino,,CH,,,,,
CH*ECUEEKWNLX575XNVA8C6ZDRAKXR8YW,ich_tanke_strom,,"Via Gioacchino Respini 7 , 6600 Locarno",Locarno District,Ticino,,CH,,,,,
CH*ECUE5QK5GW4RUKSWQ26229C4J7W8Y2,ich_tanke_strom,,"Via ai Monti 37 , 6600 Locarno",Locarno District,Ticino,,CH,,,,,
CH*ECUEBYGU8TWFEYMALYH47WU4MKDC9Z,ich_tanke_strom,,"Via Chiasso 16 , 6710 Biasca",Riviera District,Ticino,,CH,,,,,
CH*ECUELSQTJ865QJNKVYMB8G2Y78RPQ3,ich_tanke_strom,,"Via Costa di Mezzo 35 , 6614 Brissago",Locarno District,Ticino,,CH,,,,,
CH*ECUEYZG2PJKTRXPXSURHAGHGCZX67Q,ich_tanke_strom,,"Via Pian Scairolo 56 , 6926 Lugano",Lugano District,Ticino,,CH,,,,,
CH*ECUEBYFAU79F7BMYEJDFRCA9F3C5TS,ich_tanke_strom,,"Via delle Vigne 7 , 6598 Tenero-Contra",Locarno District,Ticino,,CH,,,,,
CH*ECUEBMBAZPRXL4PNTB45KVDUEFDUD2,ich_tanke_strom,,"Via Costa di Mezzo 35 , 6614 Brissago",Locarno District,Ticino,,CH,,,,,
CH*ECUE9NVHFLXP6K8MHVQ788L4H3LJBA,ich_tanke_strom,,"Via Odescalchi 4 , 6830 Chiasso",Mendrisio District,Ticino,,CH,,,,,
CH*ECUEQZNH3FK39XVQNS5HQHQ8E3M5AA,ich_tanke_strom,,"Str. di Soragno 24 , 6964 Lugano",Lugano District,Ticino,,CH,,,,,
CH*ECUES9ADZ493A3CGWLB55EK8KUT5YA,ich_tanke_strom,,"Via Giacomo Rizzi 1A , 6850 Mendrisio",Mendrisio District,Ticino,,CH,,,,,
CH*ECUERNC54CFCTTJTFYWCLH7CZ3VQZ3,ich_tanke_strom,,"Via Rinaldo Simen 56 , 6648 Minusio",Locarno District,Ticino,,CH,,,,,
CH*ECUEWMESCZ493V6Z87DLM2P878YVAZ,ich_tanke_strom,,"Via Alle Pezze 10 , 6954 Sala Capriasca",Lugano District,Ticino,,CH,,,,,
CH*ECUEKNAR6GQLDG427Q7S2K7RGF7ZT3,ich_tanke_strom,,"Via S. Sebastiano 19 , 6612 Ascona",Locarno District,Ticino,,CH,,,,,
CH*ECUERJBAUYZNRBBY3PF5R8U4XZGKMW,ich_tanke_strom,,"Via dei Pioppi 2 , 6616 Losone",Locarno District,Ticino,,CH,,,,,
CH*ECUES9CU9UT72QX43SS7ZWLXS5TKNQ,ich_tanke_strom,,"Via Odescalchi 5 , 6830 Chiasso",Mendrisio District,Ticino,,CH,,,,,
CH*ECUEQV4UVEXMGFWLDWR26YL8X8RQAW,ich_tanke_strom,,"Via Sottomontagna 13 , 6764 Chiggiogna",Leventina District,Ticino,,CH,,,,,
CH*ECUE2H84AU6UMWC4E3DS7PLAWXDWY3,ich_tanke_strom,,"Via San Gottardo 139 , 6648 Minusio",Locarno District,Ticino,,CH,,,,,
CH*ECUETER6MJMM4XJJCATY286ATNC682,ich_tanke_strom,,"Via Pian Scairolo 41 , 6912 Pazzallo",Lugano District,Ticino,,CH,,,,,
CH*ECUE53ZXY4K29WECC2WGZLATJB37YW,ich_tanke_strom,,"Via Giuseppe Motta 65A , 6900 Massagno",Lugano District,Ticino,,CH,,,,,
CH*ECUELAMKKMK66NWLAJZGJFWB7WUAGZ,ich_tanke_strom,,"Via del Carmagnola 11 , 6500 Bellinzona",Bellinzona District,Ticino,,CH,,,,,
CH*ECUEQGCRPH8X6YFWBK3QGJST7HMYSW,ich_tanke_strom,,"Via Odescalchi 5 , 6830 Chiasso",Mendrisio District,Ticino,,CH,,,,,
CH*ECUENDUTA589646XTGEL7TUHJTA2JA,ich_tanke_strom,,"Via S. Gottardo 109 , 6500 Bellinzona",Bellinzona District,Ticino,,CH,,,,,
CH*ECUEVG26CW9XQYJBY7ZGN9GZEPDPPQ,ich_tanke_strom,,"Via Vedeggio 12 , 6814 Lamone",Lugano District,Ticino,,CH,,,,,
CH*ECUEQTPGJLT2YT5SPJFNDDXQPBVKK2,ich_tanke_strom,,"Via Mappo 10 , 6598 Tenero",Locarno District,Ticino,,CH,,,,,
CH*ECUEKW9AMUNM3AQ3FYLLQKFHWZ2EQA,ich_tanke_strom,,"Via S. Gottardo 109 , 6500 Bellinzona",Bellinzona District,Ticino,,CH,,,,,
CH*ECUEENS6DM6TBVKHWYXZQD2H6E7V2W,ich_tanke_strom,,"Via San Gottardo 139 , 6648 Minusio",Locarno District,Ticino,,CH,,,,,
CH*ECUEZDR37PZ6QB2ZDDT964YH6ZWFMW,ich_tanke_strom,,"Via S. Gottardo 131 , 6942 Savosa",Lugano District,Ticino,,CH,,,,,
CH*ECUE294V7H2XA49XYPBQDLBSHATQQ3,ich_tanke_strom,,"Via Linoleum 10 , 6512 Giubiasco",Bellinzona District,Ticino,,CH,,,,,
CH*ECUEBTZ549XNUSMXCXTEHXS8LRU4UX,ich_tanke_strom,,"Viale Al Lido 6 , 6600 Locarno",Locarno District,Ticino,,CH,,,,,
CH*ECUEL3QALL57LZ929S5VS7BP24KQGW,ich_tanke_strom,,"Via dei Pioppi 2 , 6616 Losone",Locarno District,Ticino,,CH,,,,,
CH*ECUECNJE78D8DLGENJTFHRFG82RWGS,ich_tanke_strom,,"Via Chiasso 16 , 6710 Biasca",Riviera District,Ticino,,CH,,,,,
CH*ECUEY3C79Z5QUTJSXKRJQ8RV9UKRLX,ich_tanke_strom,,"Via Rinaldo Simen 56 , 6648 Minusio",Locarno District,Ticino,,CH,,,,,
CH*ECUEU8R7JXAHTSPKJMPNB7XC99ARAW,ich_tanke_strom,,"Via Alla Peschiera 3 , 6600 Locarno",Locarno District,Ticino,,CH,,,,,
CH*ECUEEYZEDPWAVQ437TLZ8AUHBGUUKW,ich_tanke_strom,,"Via Giuseppe Motta 65A , 6900 Massagno",Lugano District,Ticino,,CH,,,,,
CH*ECUEBZ6CRFZ8N8LQVGQLKZU3LUNQK2,ich_tanke_strom,,"Via del Carmagnola 17 , 6500 Bellinzona",Bellinzona District,Ticino,,CH,,,,,
CH*ECUERJRE45KMPZ2G7C38DYG98N4HGX,ich_tanke_strom,,"Via Mappo 10 , 6598 Tenero",Locarno District,Ticino,,CH,,,,,
CH*ECUEHK28FMTUNW7FEWG523QXDX8MVS,ich_tanke_strom,,"Via Odescalchi 4 , 6830 Chiasso",Mendrisio District,Ticino,,CH,,,,,
CH*ECUEF65VVDACW5FBWNHXHUV5SPNY32,ich_tanke_strom,,"Via Vedeggio 12 , 6814 Lamone",Lugano District,Ticino,,CH,,,,,
CH*ECUEZ2W948KFNL9XWYLFK7XEDJY9PS,ich_tanke_strom,,"Via Aeroporto 14 , 6527 Riviera",Riviera District,Ticino,,CH,,,,,
CH*ECUE3E2VH8PKWUS4WFX6FYE9RE6QQ3,ich_tanke_strom,,"Via Linoleum 10 , 6512 Giubiasco",Bellinzona District,Ticino,,CH,,,,,
CH*ECUE6VJQKMVNDWYCWU4B6D7WTNRX43,ich_tanke_strom,,"Viale Al Lido , 6600 Locarno",Locarno District,Ticino,,CH,,,,,
CH*ECUE3RXW5N3X8DEWG7C63DFC6QNAEX,ich_tanke_strom,,"Via S. Gottardo 6 , 6828 Balerna",Mendrisio District,Ticino,,CH,,,,,
CH*ECUE6JMNCR7PYBPQALXX397H99ZV7Q,ich_tanke_strom,,"Corso S. Gottardo 149 , 6830 Balerna",Mendrisio District,Ticino,,CH,,,,,
CH*ECUEV5UCNCQC938FWZBRLYPMYMU2F3,ich_tanke_strom,,"Via S. Gottardo 6 , 6828 Balerna",Mendrisio District,Ticino,,CH,,,,,
CH*ECUEAHG5KGP4KRRXPUHMYSH3LMMJ9S,ich_tanke_strom,,"Via Francesco Antonio Bustelli 7 , 6600 Locarno",Locarno District,Ticino,,CH,,,,,
CH*ECUE9JE8ZURNXJD3YNNR5N6X789K6Q,ich_tanke_strom,,"Via Pian Scairolo 41 , 6912 Pazzallo",Lugano District,Ticino,,CH,,,,,
CH*ECUEYQX44ZQ4CLUTB6KC3D5PNHYD9W,ich_tanke_strom,,"Via S. Gottardo 109 , 6500 Bellinzona",Bellinzona District,Ticino,,CH,,,,,
CH*ECUEMMVRWCW2NB4E6PBWJWX7GGQVBS,ich_tanke_strom,,"Via Pian Scairolo 39 , 6926 Lugano",Lugano District,Ticino,,CH,,,,,
CH*ECUEVEVFSB5AS8SAVPF79ASV49PZV3,ich_tanke_strom,,"Via ai Monti 44 , 6600 Locarno",Locarno District,Ticino,,CH,,,,,
CH*ECUEZGJH6CURDG6RTYAU89AHBAJ3LS,ich_tanke_strom,,"Via Chiasso 16 , 6710 Biasca",Riviera District,Ticino,,CH,,,,,
CH*ECUEDUPT99LJZ9UJ7SR9U3D42TTKZS,ich_tanke_strom,,"Via Crespogno 6715 Dongio , - Svizzera",Blenio District,Ticino,,CH,,,,,
CH*ECUERUV5T75P3YBLPRGNVURENZ5Q7W,ich_tanke_strom,,"Via dei Pioppi 2 , 6616 Losone",Locarno District,Ticino,,CH,,,,,
CH*ECUEDFLKAQSFRWE4TUM46D7NGTVF52,ich_tanke_strom,,"Via Valle Maggia 80 , 6600 Locarno",Locarno District,Ticino,,CH,,,,,
CH*ECUEADUP9JYF9KPWVDYKC8KJGM9PWX,ich_tanke_strom,,"Via Gioacchino Respini 23 , 6600 Locarno",Locarno District,Ticino,,CH,,,,,
CH*ECUEM25CHFZD4BB9W9MFS65W77DDY2,ich_tanke_strom,,"Via Pian Scairolo 41 , 6912 Pazzallo",Lugano District,Ticino,,CH,,,,,
,ionity,Bellinzona Süd,,Bellinzona District,Ticino,,CH,,,24/7,Ionity,Q42717773
,ionity,Bellinzona Nord,,Bellinzona District,Ticino,,CH,,,24/7,Ionity,Q42717773
