Ref,Spider,Name,Address,City,State,Zipcode,Country,Phone,Website,Hours,Brand,WikiData
https://stores.aldi.us/#4421316,aldi_sud_us,ALDI  1200 Joe Mann Blvd.,,Midland,MI,,US,+1 855-955-2534,https://stores.aldi.us/mi/midland/1200-joe-mann-blvd,Mo-Su 09:00-20:00,ALDI,Q41171672
13455,asics_us,Runners Athletic Company - Midland,215 E Wackerly St,Midland,MI,,US,+1 989-631-2700,,Mo-Fr 11:00-19:00; Sa 10:00-17:00,asics,Q327247
59915,asics_us,Dunham's Sports,6800 Eastman Ave #130,Midland,MI,,US,+1 989-832-7877,,,asics,Q327247
https://locations.atipt.com/midland-mi,ati_physical_therapy,ATI Physical Therapy (0813),,Midland,MI,,US,+1 989-935-9012,https://locations.atipt.com/midland-mi,,ATI Physical Therapy,Q50039703
172,autozone_us,AutoZone Auto Parts Midland,,Midland,MI,,US,+1 989-898-6157,https://www.autozone.com/locations/mi/midland/1409-joe-mann-blvd.html,Mo-Fr 08:00-21:00; Sa 08:00-20:00; Su 09:00-19:00,AutoZone,Q4826087
752,biggby_coffee_us,Biggby Coffee,6615 Eastman Ave Midland MI 48642,Midland,MI,,US,+1 989-486-1186,,Mo-Sa 06:00-20:00; Su 07:00-19:00,Biggby Coffee,Q4906876
73791,bluerhino,Speedway #8807,,Midland,MI,,US,+1 989-832-5334,,,Blue Rhino,Q65681213
32770,bluerhino,Walmart #2619,,Midland,MI,,US,+1 989-835-6069,,,Blue Rhino,Q65681213
197529,bluerhino,Dollar General #19844,,Midland,MI,,US,+1 989-495-9329,,,Blue Rhino,Q65681213
47085,bobevans_us,Midland,,Midland,MI,,US,+1 989-839-8351,https://www.bobevans.com/locations/midland,Mo-Su 07:00-21:00,Bob Evans,Q4932386
https://local.buckle.com/mi/midland/clothing-108.html,buckle_us,Midland Men’s & Women’s Clothing,,Midland,MI,,US,+1 989-631-7711,https://local.buckle.com/mi/midland/clothing-108.html,Mo-Sa 10:00-20:00; Su 12:00-17:00,Buckle,Q4983306
7824,burgerking,Burger King,,Midland,MI,,US,+1 989-266-8232,https://www.bk.com/store-locator/store/restaurant_4468,Mo-Sa 06:00-22:00; Su 07:00-22:00,Burger King,Q177054
79657,citi,ATM SPEEDWAY #8807,,Midland,MI,,US,,,,Citibank,Q857063
78869,citi,ATM Speedway,,Midland,MI,,US,,,,Citibank,Q857063
46165,citi,ATM Costco,,Midland,MI,,US,,,,Citibank,Q857063
485,culvers_us,"Culver's of Midland, MI - Eastman Ave",,Midland,MI,,US,+1 989-835-7601,http://www.culvers.com/restaurants/midland-mi,Mo-We 10:30-22:00; Th-Fr 10:30-23:00; Su 10:30-22:00,Culver's,Q1143589
michigan-midland,deloitte,Deloitte - Midland,,Midland,MI,,US,+1 989-631-2370,https://www2.deloitte.com/us/en/footerlinks/office-locator/michigan/midland.html,,Deloitte,Q491748
047,dunhams_sports_us,MIDLAND MI,,MIDLAND,MI,,US,+1 989-832-7877,https://www.dunhamssports.com/store-details?storeID=047,Mo-Sa 09:00-21:00; Su 10:00-19:00,Dunham's Sports,Q5315238
https://www.edwardjones.com/us-en/financial-advisor/sherry-schock,edwardjones,Sherry A Schock,,Midland,MI,,US,+1 989-486-8335,https://www.edwardjones.com/us-en/financial-advisor/sherry-schock,,Edward Jones,Q5343830
https://locations.fivebelow.com/mi/midland/905-joe-mann-blvd,five_below,Five Below Midland Ventures,,Midland,MI,,US,,https://locations.fivebelow.com/mi/midland/905-joe-mann-blvd,Mo-Sa 10:00-20:00; Su 11:00-18:00,Five Below,Q5455836
https://www.ford.com/dealerships/dealer-details/mi/midland/midland-ford/,ford_dealers_us,Midland Ford,,Midland,MI,,US,+1 989-488-1356,https://www.ford.com/dealerships/dealer-details/mi/midland/midland-ford/,Mo 08:30-20:00; Tu-We 08:30-18:00; Th 08:30-20:00; Fr 08:30-18:00; Sa 09:30-16:00,Ford Motor Company,Q44294
4374,gamestop_us,Midland Mall,,MIDLAND,MI,,US,+1 989-832-5977,https://www.gamestop.com/search/?store=4374,Mo-Sa 10:00-20:00; Su 12:00-17:00,GameStop,Q202210
https://stores.gnc.com/#24059580,gnc,GNC Midland Mall,,,MI,,US,+1 989-631-2490,https://stores.gnc.com/all-stores-michigan/midland/6800-eastman-avenue,Mo-Sa 10:00-20:00; Su 12:00-17:00,GNC,Q4808595
https://www.harborfreight.com/storelocator/701-joe-mann-blvd-midland-48642?number=3170,harborfreight,"Harbor Freight Tools Midland, MI",,Midland,MI,,US,+1 989-898-3839,https://www.harborfreight.com/storelocator/701-joe-mann-blvd-midland-48642?number=3170,Mo-Sa 08:00-20:00; Su 09:00-18:00,Harbor Freight Tools,Q5654601
29902,huntingtonbank,Midland Larkin,,Midland,MI,,US,+1 989-839-5317,https://www.huntington.com/Community/branch-info?locationId=29902,Mo-Fr 09:00-17:00; Sa-Su 00:00-00:00,Huntington Bank,Q798819
21743,h_r_block,H&R Block,,Midland,MI,,US,+1 989-837-0301,https://www.hrblock.com/local-tax-offices/michigan/midland/fairview-plaza/21743/,,H&R Block,Q5627799
https://locations.jimmyjohns.com/mi/midland/sandwiches-494.html,jimmy_johns,Jimmy John's,,Midland,MI,,US,+1 989-837-1000,https://locations.jimmyjohns.com/mi/midland/sandwiches-494.html,,Jimmy John's,Q1689380
482,kohls_us,Kohl's,,Midland,MI,,US,+1 989-631-0922,https://www.kohls.com/stores/mi/midland-482.shtml,Mo-Sa 09:00-21:00; Su 09:00-20:00,Kohl's,Q967265
161063,marathon_petroleum_us,VILLAGE MINI MART,,MIDLAND,MI,,US,+1 989-496-3116,,,Marathon,Q458363
155946,marathon_petroleum_us,LARKINS FOOD CENTER LLC,,MIDLAND,MI,,US,+1 989-835-3119,,,Marathon,Q458363
MBSMD,marriott,Residence Inn Midland,,Midland,MI,,US,+1 989-837-9990,https://www.marriott.com/MBSMD,,Residence Inn by Marriott,Q7315394
MBSSM,marriott,SpringHill Suites Midland,,Midland,MI,,US,+1 989-837-2700,https://www.marriott.com/MBSSM,,SpringHill Suites,Q7580351
17339,mattress_firm_us,Mattress Firm Midland,,Midland,MI,,US,+1 989-835-9050,https://www.mattressfirm.com/en-us/stores/mi/midland/116004/,,Mattress Firm,Q6791878
https://locations.maurices.com/#11688301,maurices,maurices Midland Mall,,Midland,MI,,US,+1 989-835-5556,https://locations.maurices.com/us/mi/midland/6800-eastman-ave,Mo-Sa 10:00-20:00; Su 12:00-17:00,maurices,Q6793571
7152,murphy_usa_us,,,Midland,MI,,US,+1 989-832-1729,,Mo-Sa 06:00-23:30; Su 05:30-23:00,Murphy USA,Q19604459
https://locations.noodles.com/mi/midland/7007-eastman-avenue.html,noodles_and_company_us,Noodles & Company Midland,,Midland,MI,,US,+1 989-488-6205,https://locations.noodles.com/mi/midland/7007-eastman-avenue.html,Mo-Su 11:00-21:00,Noodles and Company,Q7049673
7075,old_chicago_us,Midland,"6603 EASTMAN AVE, MIDLAND, MI 48642",MIDLAND,MI,,US,,https://oldchicago.com/locations/midland,Mo-Th 11:00-21:00; Fr-Sa 11:00-22:00; Su 12:00-20:00,Old Chicago,Q64411347
113205,pandaexpress,Eastman Ave & Cinema Dr,,Midland,MI,,US,+1 989-372-8320,https://www.pandaexpress.com/locations/mi/midland/6902-eastman-ave,Mo-Sa 10:00-21:30; Su 10:30-21:30,Panda Express,Q1358690
674821,penske,Cendant Equipment Rental,,MIDALND,MI,,US,+1 989-633-3488,https://www.pensketruckrental.com/locations/us/michigan/midalnd/674821/,,Penske,Q81234570
home-depot-2747-14360,ppgpaints,HOME DEPOT 2747,,"Midland, ",MI,,US,+1 989-633-9381,https://www.ppgpaints.com/store-locator/us/michigan/midland-paint-stores/home-depot-2747-14360,,PPG Paints,Q83891559
https://locations.qdoba.com/us/mi/midland/6910-eastman-rd.html,qdoba,QDOBA Eastman,,Midland,MI,,US,+1 989-837-2600,https://locations.qdoba.com/us/mi/midland/6910-eastman-rd.html,Mo-Sa 10:30-22:00; Su 10:30-21:30,Qdoba,Q1363885
36927,seven_eleven_ca_us,7-Eleven Store,,Midland,MI,,US,+1 989-495-9283,https://www.7-eleven.com/locations/mi/midland/3217-bay-city-rd-36927,,7-Eleven,Q259340
1517-joe-mann-blvd,staples,"Staples Midland, MI",,Midland,MI,,US,,https://stores.staples.com/mi/midland/1517-joe-mann-blvd,Mo-Fr 09:00-20:00; Sa-Su 10:00-18:00,Staples,Q785943
https://restaurants.subway.com/#14914514,subway,Subway,,Midland Midland,MI,,US,+1 989-486-9219,https://restaurants.subway.com/united-states/mi/midland/2009-so-saginaw-road,Mo-Su 06:00-24:00,Subway,Q244457
8002456201,sunoco_us,Sunoco,,MIDLAND,MI,,US,+1 347-837-7877,,,Sunoco,Q1423218
82666,supercuts,Fairground Shops,7211 N Eastman Ave Ste D,Midland,MI,,US,+1 989-835-3469,https://www.supercuts.com/checkin/82666,Mo-Fr 09:00-20:00; Sa 09:00-17:00; Su 12:00-16:00,Supercuts,Q7643239
https://locations.tacobell.com/#15106393,taco_bell,Taco Bell,,Midland,MI,,US,+1 989-488-6496,https://locations.tacobell.com/mi/midland/7340-eastman-ave.html,Mo-Fr 06:30-01:00; Sa-Su 07:00-01:00,Taco Bell,Q752941
10846,tjx,Midland,917 Joe Mann Boulevard,Midland,MI,,US,+1 989-839-2817,,Mo-Sa 09:30-21:30; Su 10:00-20:00,Marshalls,Q15903261
2WSZ,tmobile_us,Eastman Ave & Joe Mann Blvd,,Midland,MI,,US,+1 989-486-8300,https://www.t-mobile.com/store-locator/mi/midland/eastman-ave-joe-mann-blvd,,T-Mobile,Q3511885
100328,two_men_and_truck,Midland,Dispatch Location Only,Midland,MI,,US,+1 989-895-5252,https://twomenandatruck.com/movers/mi/midland,,Two Men and a Truck,Q7859087
R00000238264,verizon_us,Midland MI,,Midland,MI,,US,+1 989-633-8607,https://www.verizon.com/stores/details/michigan/midland/midland-344561/,Mo-Sa 09:00-19:00; Su 10:00-17:00,Verizon,Q919641
,visa,,,MIDLAND,MI,,US,,,,,
,visa,,,MIDLAND,MI,,US,,,,,
,visa,,,MIDLAND,MI,,US,,,,,
,visa,,,MIDLAND,MI,,US,,,,,
,visa,,,MIDLAND,MI,,US,,,,,
,visa,,,MIDLAND,MI,,US,,,,,
,visa,,,MIDLAND,MI,,US,,,,,
,visa,,,MIDLAND,MI,,US,,,,,
,visa,,,MIDLAND,MI,,US,,,,,
,visa,,,MIDLAND,MI,,US,,,,,
,visa,,,MIDLAND,MI,,US,,,,,
,visa,,,MIDLAND,MI,,US,,,,,
,visa,,,MIDLAND,MI,,US,,,,,
,visa,,,MIDLAND,MI,,US,,,,,
,visa,,,MIDLAND,MI,,US,,,,,
,visa,,,MIDLAND,MI,,US,,,,,
,visa,,,MIDLAND,MI,,US,,,,,
1eea91a1cab80143b548483ac94cebb0,western_union,WALMART #002619,,Midland,MI,,US,+1 989-835-6069,https://location.westernunion.com/us/mi/midland/1eea91a1cab80143b548483ac94cebb0,Mo-Su 07:00-21:00,Western Union,Q861042
