Ref,Spider,Name,Address,City,State,Zipcode,Country,Phone,Website,Hours,Brand,WikiData
190401,bluerhino,Almich's Market - #155246,,Slayton,MN,,US,+1 507-836-6464,,,Blue Rhino,Q65681213
164900,bluerhino,Family Dollar #10464,,Slayton,MN,,US,+1 507-836-6488,,,Blue Rhino,Q65681213
203635,bluerhino,CASEY'S GENERAL STORE #3677,,SLAYTON,MN,,US,+1 507-836-6337,,,Blue Rhino,Q65681213
119359,bluerhino,Bomgaar's #047,,Slayton,MN,,US,+1 507-836-8553,,,Blue Rhino,Q65681213
12618,cenex,Ag Plus Cooperative,,Slayton,MN,,US,+1 507-836-8585,,24/7,Cenex,Q62127191
4178,cenex,Chandler Cooperative,,Slayton,MN,,US,+1 651-836-6589,,24/7,Cenex,Q62127191
9150,cenex,Chandler Coop,,Slayton,MN,,US,+1 507-836-6185,,24/7,Cenex,Q62127191
56297,citi,ATM FIRST NATIONAL BANK 09,,Slayton,MN,,US,,,,Citibank,Q857063
56269,citi,ATM FIRST NATIONAL BANK,,Slayton,MN,,US,,,,Citibank,Q857063
65583,citi,ATM MINNWEST BANK SLAYTON,,Slayton,MN,,US,,,,Citibank,Q857063
65584,citi,ATM MINNWEST BANK SLAYTON - DEACTIVATED,,Slayton,MN,,US,,,,Citibank,Q857063
34122,citi,ATM Agplus Coop Slayton,,Slayton,MN,,US,,,,Citibank,Q857063
https://www.edwardjones.com/us-en/financial-advisor/mary-arnold2,edwardjones,Mary E Arnold,,Slayton,MN,,US,+1 507-836-8128,https://www.edwardjones.com/us-en/financial-advisor/mary-arnold2,Mo-Fr 09:00-17:00,Edward Jones,Q5343830
30464,family_dollar_us,FAMILY DOLLAR #10464,,Slayton,MN,,US,+1 507-926-3476,https://www.familydollar.com/locations/mn/slayton/30464/,Mo-Su 08:00-22:00,Family Dollar,Q5433101
158296,marathon_petroleum_us,Slayton Convenience,,Slayton,MN,,US,+1 507-836-8976,,,Marathon,Q458363
https://restaurants.subway.com/#14916597,subway,Subway Amooco C-Store,,Slayton Murray,MN,,US,+1 507-836-8989,https://restaurants.subway.com/united-states/mn/slayton/2439-20th-st,Mo-Fr 08:00-22:00; Sa 08:00-21:00; Su 09:00-21:00,Subway,Q244457
1381824,usps,SLAYTON,,SLAYTON,MN,,US,+1 507-836-6890,,Mo-Fr 08:30-16:30; Sa 08:30-10:00,United States Postal Service,Q668687
5617200003,usps_collection_boxes,USPS COLLECTION BOX - PO LOBBY,2541 BROADWAY AVE,SLAYTON,MN,,US,,,,United States Postal Service,Q668687
5617200004,usps_collection_boxes,USPS COLLECTION BOX - BLUE BOX,2541 BROADWAY AVE,SLAYTON,MN,,US,,,,United States Postal Service,Q668687
5617200005,usps_collection_boxes,USPS COLLECTION BOX - PO LOBBY,2541 BROADWAY AVE,SLAYTON,MN,,US,,,,United States Postal Service,Q668687
,visa,,,SLAYTON,MN,,US,,,,,
,visa,,,SLAYTON,MN,,US,,,,,
,visa,,,SLAYTON,MN,,US,,,,,
,visa,,,SLAYTON,MN,,US,,,,,
,visa,,,SLAYTON,MN,,US,,,,,
,visa,,,SLAYTON,MN,,US,,,,,
,visa,,,SLAYTON,MN,,US,,,,,
,visa,,,SLAYTON,MN,,US,,,,,
,visa,,,SLAYTON,MN,,US,,,,,
,visa,,,SLAYTON,MN,,US,,,,,
