Ref,Spider,Name,Address,City,State,Zipcode,Country,Phone,Website,Hours,Brand,WikiData
3015,abc_pl,abc,,Sławoszowice,dolnośląskie,,PL,,,,abc,Q11683985
7862,abc_pl,abc,,Wziąchowo Wielkie,dolnośląskie,,PL,,,,abc,Q11683985
387,bricomarche_pl,Bricomarché Milicz,,Milicz,dolnośląskie,,PL,+48 507 408 149,https://www.bricomarche.pl/sklep/bricomarche-milicz,,Bricomarché,Q2925147
768,dr_max,"Apteka Dr.Max, Wojska Polskiego 9, Milicz",,Milicz,Dolnośląskie,,PL,+48 71 380 95 30,https://www.drmax.pl/apteki/milicz-wojska-polskiego-9,,Dr. Max,Q56317371
MLC01A,paczkomat_inpost_pl,Ne terenie stacji,,Milicz,dolnośląskie,,PL,,https://inpost.pl/paczkomat-milicz-mlc01a-poprzeczna-paczkomaty-dolnoslaskie,24/7,Paczkomat,Q110970254
MLC01M,paczkomat_inpost_pl,Przy stacji kontroli pojazdów,,Milicz,dolnośląskie,,PL,,https://inpost.pl/paczkomat-milicz-mlc01m-trzebnicka-paczkomaty-dolnoslaskie,24/7,Paczkomat,Q110970254
MLC01N,paczkomat_inpost_pl,Na prawej ścianie budynku Spółdzielni Mieszkaniowej BARYCZ,,Milicz,dolnośląskie,,PL,,https://inpost.pl/paczkomat-milicz-mlc01n-mikolaja-kopernika-paczkomaty-dolnoslaskie,24/7,Paczkomat,Q110970254
MLC02ML,paczkomat_inpost_pl,Przy Centrum Ogrodniczym,,Milicz,dolnośląskie,,PL,,https://inpost.pl/paczkomat-milicz-mlc02ml-krucza-paczkomaty-dolnoslaskie,24/7,Paczkomat,Q110970254
MLC04M,paczkomat_inpost_pl,Przy Pasażu,,Milicz,dolnośląskie,,PL,,https://inpost.pl/paczkomat-milicz-mlc04m-wojska-polskiego-paczkomaty-dolnoslaskie,24/7,Paczkomat,Q110970254
MLC05M,paczkomat_inpost_pl,Market Dino,,Milicz,dolnośląskie,,PL,,https://inpost.pl/paczkomat-milicz-mlc05m-trzebnicka-paczkomaty-dolnoslaskie,24/7,Paczkomat,Q110970254
MLC06M,paczkomat_inpost_pl,Przy sklepie,,Milicz,dolnośląskie,,PL,,https://inpost.pl/paczkomat-milicz-mlc06m-wojska-polskiego-paczkomaty-dolnoslaskie,24/7,Paczkomat,Q110970254
POP-MLC7,paczkomat_inpost_pl,CIG4YOU,,Milicz,dolnośląskie,,PL,,https://inpost.pl/paczkomat-milicz-pop-mlc7-1-maja-paczkomaty-dolnoslaskie,Mo-Fr 10:00-18:00; Sa 10:00-15:00,Paczkomat,Q110970254
POP-MLC8,paczkomat_inpost_pl,PAKERSI,,Milicz,dolnośląskie,,PL,,https://inpost.pl/paczkomat-milicz-pop-mlc8-trzebnicka-paczkomaty-dolnoslaskie,Mo-Fr 08:00-17:00; Sa 09:00-13:00,Paczkomat,Q110970254
SLAZ01APP,paczkomat_inpost_pl,Przy sklepie,,Słączno,dolnośląskie,,PL,,https://inpost.pl/paczkomat-slaczno-slaz01app-slaczno-paczkomaty-dolnoslaskie,24/7,Paczkomat,Q110970254
SOX01M,paczkomat_inpost_pl,Przy sklepie,,Sułów,dolnośląskie,,PL,,https://inpost.pl/paczkomat-sulow-sox01m-zamkowa-paczkomaty-dolnoslaskie,24/7,Paczkomat,Q110970254
SOX02E,paczkomat_inpost_pl,Market Dino,,Sułów,dolnośląskie,,PL,,https://inpost.pl/paczkomat-sulow-sox02e-zmigrodzka-paczkomaty-dolnoslaskie,24/7,Paczkomat,Q110970254
WSW01M,paczkomat_inpost_pl,Na terenie stacji Pieprzyk,,Wszewilki,dolnośląskie,,PL,,https://inpost.pl/paczkomat-wszewilki-wsw01m-krotoszynska-paczkomaty-dolnoslaskie,24/7,Paczkomat,Q110970254
WZIW01M,paczkomat_inpost_pl,Przy sklepie spożywczym,,Wziąchowo Wielkie,dolnośląskie,,PL,,https://inpost.pl/paczkomat-wziachowo-wielkie-wziw01m-wziachowo-wielkie-paczkomaty-dolnoslaskie,24/7,Paczkomat,Q110970254
644,play_pl,Salon Play,Ul. Polska 3,Milicz,dolnośląskie,,PL,+48 790 031 842,,Mo-Fr 09:00-17:00; Sa 09:00-13:00,Play,Q7202998
559790,poczta_polska_pl,FUP Milicz,,Cieszków,DOLNOŚLĄSKIE,,PL,+48 887 331 091,,,Poczta Polska,Q168833
559802,poczta_polska_pl,FUP Milicz,,Krośnice,DOLNOŚLĄSKIE,,PL,+48 71 384 62 20,,,Poczta Polska,Q168833
254354,poczta_polska_pl,UP Milicz,,Milicz,DOLNOŚLĄSKIE,,PL,+48 885 900 983;+48 71 384 01 65,,,Poczta Polska,Q168833
,visa,,,SUŁOW,DOLNOŚLĄSKIE,,PL,,,,,
,visa,,,MILICZ,DOLNOŚLĄSKIE,,PL,,,,,
,visa,,,MILICZ,DOLNOŚLĄSKIE,,PL,,,,,
,visa,,,MILICZ,DOLNOŚLĄSKIE,,PL,,,,,
,visa,,,GĄDKOWICE,DOLNOŚLĄSKIE,,PL,,,,,
