Ref,Spider,Name,Address,City,State,Zipcode,Country,Phone,Website,Hours,Brand,WikiData
https://stores.advanceautoparts.com/ks/kansas-city/7622-state-ave,advance_auto_parts_us,Advance Auto Parts,,Kansas City,KS,,US,+1 913-299-0140,https://stores.advanceautoparts.com/ks/kansas-city/7622-state-ave,Mo-Sa 07:30-21:00; Su 09:00-20:00,Advance Auto Parts,Q4686051
1628,autozone_us,AutoZone Auto Parts Kansas City,,Kansas City,KS,,US,+1 913-788-3272,https://www.autozone.com/locations/ks/kansas-city/7710-parallel-pkwy.html,Mo-Sa 07:30-21:00; Su 08:00-20:00,AutoZone,Q4826087
https://www.avis.com/en/locations/us/ks/kansas-city/kn7,avis,Avis U S A Kansas City,,Kansas City,KS,,US,+1 913-788-9722,https://www.avis.com/en/locations/us/ks/kansas-city/kn7,Mo-Fr 07:00-18:00; Sa 08:00-13:00; Su 10:00-14:00,Avis,Q791136
https://locators.bankofamerica.com/ks/kansascity/financial-centers-kansas-city-7526.html,bankofamerica,Bank of America Financial Center & Drive-Thru ATM | 78th & State Ave.,,Kansas City,KS,,US,+1 816-979-8215,https://locators.bankofamerica.com/ks/kansascity/financial-centers-kansas-city-7526.html,Mo-Fr 10:00-16:00,Bank of America,Q487907
https://local.biglots.com/#13191094,biglots,Big Lots - Kansas City,,Kansas City,KS,,US,+1 913-299-0416,https://local.biglots.com/ks/kansas-city/7533-state-ave,Mo-Sa 09:00-21:00; Su 10:00-19:00,Big Lots,Q4905973
150836,bluerhino,Walgreens #7550,,Kansas City,KS,,US,+1 913-788-8168,,,Blue Rhino,Q65681213
196432,bluerhino,Central Fuel,,Kansas City,KS,,US,+1 913-954-9150,,,Blue Rhino,Q65681213
77158,bluerhino,Westlake Ace Hardware #033 - Ace #8821,,Kansas City,KS,,US,+1 913-334-6336,,,Blue Rhino,Q65681213
83902588718086611200100000000000,bp,BP,,Kansas City,KS,,US,+1 913-299-3331,,24/7,BP,Q152057
3732,burgerking,Burger King,,Kansas,KS,,US,+1 816-659-5715,https://www.bk.com/store-locator/store/restaurant_2084,Mo-Tu 06:00-21:00; We-Su 06:00-00:00,Burger King,Q177054
3381,captaind,Captain D's,,Kansas City,KS,,US,+1 913-302-3284,https://locations.captainds.com/ll/US/KS/Kansas-City/7525-State-Ave,Mo-Su 10:30-22:00,Captain D's,Q5036616
12652,cenex,Legends Convenience ,,Kansas City,KS,,US,+1 773-962-1948,,24/7,Cenex,Q62127191
ks_kansas-city_7750-state-ave,chipotle, ,,Kansas City,KS,,US,+1 913-777-0048,https://locations.chipotle.com/ks/kansas-city/7750-state-ave,,Chipotle,Q465751
8234-parallel-parkway,churchs_chicken,Parallel Parkway,,Kansas City,KS,,US,+1 913-499-6771,https://locations.churchs.com/ks/kansas-city/8234-parallel-parkway,,Church's Chicken,Q1089932
52965,citi,ATM CVS,,Kansas City,KS,,US,,,,Citibank,Q857063
92859,citi,ATM Walgreens,,Kansas City,KS,,US,,,,Citibank,Q857063
32566,citi,ATM 7ELEVEN-FCTI,,Kansas City,KS,,US,,,,Citibank,Q857063
36078,citi,ATM BANK OF LABOR,,Kansas City,KS,,US,,,,Citibank,Q857063
om_ks_kansas-city_8113-state-ave,cititrends,Citi Trends,,Kansas City,KS,,US,+1 913-365-6881,https://locations.cititrends.com/ks/kansas-city/8113-state-ave.html,Mo 11:00-20:00; Tu 11:00-20:00; We 11:00-20:00; Th 11:00-20:00; Fr 10:00-21:00; Sa 10:00-21:00; Su 12:00-18:00,Citi Trends,Q5122438
,credit_union_us,Mainstreet CU,,Kansas City,KS,,US,+1 888-395-1010,,Mo-Fr 09:00-05:30; Sa 09:00-12:30,,
70088332,cricket_wireless,Cricket Wireless Authorized Retailer,,Kansas City,KS,,US,+1 913-293-9624,https://www.cricketwireless.com/stores/ll/US/KS/Kansas-City/7933-State-Ave,Mo-Sa 10:00-19:00; Su 12:00-17:00,Cricket Wireless,Q5184987
8600,cvs_us,CVS Pharmacy,,Kansas City,KS,,US,+1 913-299-1020,https://www.cvs.com/store-locator/kansas-city-ks-pharmacies/8101-state-ave-kansas-city-ks-66112/storeid=8600,24/7,CVS Pharmacy,Q2078880
9633,dominos_pizza_us,Domino's Pizza,,Kansas City,KS,,US,+1 913-766-2333,https://pizza.dominos.com/kansas/kansas-city/8055-state-ave,Mo-Th 10:30-24:00; Fr-Sa 10:30-01:00; Su 10:30-24:00,Domino's,Q839466
https://www.edwardjones.com/us-en/financial-advisor/eric-mctye,edwardjones,Eric V McTye,,Kansas City,KS,,US,+1 913-299-3600,https://www.edwardjones.com/us-en/financial-advisor/eric-mctye,Mo-Th 08:00-16:30; Fr 08:00-16:00,Edward Jones,Q5343830
E10537,enterprise,Kansas City 78th & State,,Kansas City,KS,,US,+1 913-334-2571,,,Enterprise Rent-A-Car,Q17085454
13706,firestone_auto_care,Firestone Complete Auto Care,,Kansas City,KS,,US,+1 913-396-6717,https://local.firestonecompleteautocare.com/kansas/kansas-city/7717-state-ave/,,Firestone,Q420837
https://locations.fivebelow.com/ks/kansas-city/7734-state-ave,five_below,Five Below Wyandotte Plaza,,Kansas City,KS,,US,,https://locations.fivebelow.com/ks/kansas-city/7734-state-ave,Mo-Sa 10:00-20:00; Su 11:00-18:00,Five Below,Q5455836
1500544,hardees_us,Hardee's,,Kansas City,KS,,US,+1 913-299-8523,https://locations.hardees.com/ks/kansas-city/8021-state-ave,,Hardee's,Q1585088
16561,h_r_block,H&R Block,,Kansas City,KS,,US,+1 913-788-5222,https://www.hrblock.com/local-tax-offices/kansas/kansas-city/wyandotte-plaza-shopping-ctr/16561/,,H&R Block,Q5627799
https://office.jacksonhewitt.com/#27580126,jackson_hewitt,Jackson Hewitt,,Kansas City,KS,,US,+1 888-800-1040,https://office.jacksonhewitt.com/tax-preparation-services-locations/en/ks/kansas-city/8127-state-ave/11047,Mo-Fr 11:00-18:00; Sa 11:00-17:00,Jackson Hewitt,Q6117132
https://locations.kfc.com/#11248511,kfc,Chicken Nuggets Near Kansas City,,Kansas City,KS,,US,,https://locations.kfc.com/ks/kansas-city/7517-state-ave/chickennugget,Mo-Su 10:30-22:00,KFC,Q524757
65978410,moneygram,CVS - #8600,,KANSAS CITY,KS,,US,+1 913-299-1020,,Mo-Su 08:00-22:00,MoneyGram,Q1944412
https://locations.papajohns.com/#10693444,papa_johns,Papa John's,,Kansas City,KS,,US,+1 913-299-1000,https://locations.papajohns.com/united-states/ks/66112/kansas-city/7361-state-ave,Mo-Th 10:00-24:00; Fr-Sa 10:00-01:00; Su 10:00-24:00,Papa John's Pizza,Q2759586
0000893800,phillips_66_conoco_76,SEI 38574,,KANSAS CITY,KS,,US,+1 425-772-0059,,,Phillips 66,Q1656230
0000883022,phillips_66_conoco_76,QUICK SVC GAS STATION,,KANSAS CITY,KS,,US,+1 913-544-1390,,,Phillips 66,Q1656230
ks_kansas-city_7720-state-ave,pizza_hut_us,7720 State Ave,,Kansas City,KS,,US,+1 913-788-4633,https://locations.pizzahut.com/ks/kansas-city/7720-state-ave,,Pizza Hut,Q191615
https://locations.quiktrip.com/#16003848,quiktrip_us,QuikTrip Store #172 8200 Parallel Pkwy,,Kansas City,KS,,US,+1 913-334-1542,https://locations.quiktrip.com/ks/kansas-city/8200-parallel-pkwy,24/7,QuikTrip,Q7271953
https://locations.quiktrip.com/#16004252,quiktrip_us,QuikTrip Store #239 555 N 78th St,,Kansas City,KS,,US,+1 913-334-2171,https://locations.quiktrip.com/ks/kansas-city/555-n-78th-st,24/7,QuikTrip,Q7271953
38574,seven_eleven_ca_us,7-Eleven Store,,Kansas City,KS,,US,+1 913-956-1870,https://www.7-eleven.com/locations/ks/kansas-city/7552-state-ave-38574,,7-Eleven,Q259340
https://restaurants.subway.com/#14896874,subway,Subway,,Kansas City Wyandotte,KS,,US,+1 913-334-9725,https://restaurants.subway.com/united-states/ks/kansas-city/1120-n-79th-st,Mo-Th 08:00-21:00; Fr-Su 08:00-20:00,Subway,Q244457
https://locations.tacobell.com/#6142297,taco_bell,Taco Bell,,Kansas City,KS,,US,+1 913-334-6047,https://locations.tacobell.com/ks/kansas-city/7337-state-ave.html,Mo-Th 08:00-01:00; Fr-Sa 08:00-02:00; Su 08:00-01:00,Taco Bell,Q752941
101265,tjx,Kansas City,7746 State Ave ,Kansas City,KS,,US,+1 913-299-8679,,Mo-Sa 09:30-21:30; Su 10:00-20:00,Marshalls,Q15903261
1435654,usps,WYANDOTTE WEST,,KANSAS CITY,KS,,US,+1 913-334-4182,,Mo-Fr 08:30-17:00; Sa 09:00-12:00,United States Postal Service,Q668687
6611200007,usps_collection_boxes,USPS COLLECTION BOX - BLUE BOX,8919 PARALLEL PKWY,KANSAS CITY,KS,,US,,,,United States Postal Service,Q668687
6611200033,usps_collection_boxes,USPS COLLECTION BOX - BLUE BOX,8919 PARALLEL PKWY,KANSAS CITY,KS,,US,,,,United States Postal Service,Q668687
6611200008,usps_collection_boxes,USPS COLLECTION BOX - BLUE BOX,8929 PARALLEL PKWY,KANSAS CITY,KS,,US,,,,United States Postal Service,Q668687
6611200009,usps_collection_boxes,USPS COLLECTION BOX - BLUE BOX,7706 STATE AVE,KANSAS CITY,KS,,US,,,,United States Postal Service,Q668687
6611200034,usps_collection_boxes,USPS COLLECTION BOX - BLUE BOX,8901 STATE AVE,KANSAS CITY,KS,,US,,,,United States Postal Service,Q668687
6611200030,usps_collection_boxes,USPS COLLECTION BOX - PO LOBBY,1310 N 78TH TER,KANSAS CITY,KS,,US,,,,United States Postal Service,Q668687
6611200038,usps_collection_boxes,USPS COLLECTION BOX - PO LOBBY,1310 N 78TH TER,KANSAS CITY,KS,,US,,,,United States Postal Service,Q668687
6611200027,usps_collection_boxes,USPS COLLECTION BOX - BLUE BOX,7250 STATE AVE,KANSAS CITY,KS,,US,,,,United States Postal Service,Q668687
6611200032,usps_collection_boxes,USPS COLLECTION BOX - BLUE BOX,8120 PARALLEL PKWY,KANSAS CITY,KS,,US,,,,United States Postal Service,Q668687
https://vcahospitals.com/welborn,vca,VCA Welborn Animal Hospital,,Kansas City,KS,,US,+1 913-334-6770,https://vcahospitals.com/welborn,Mo-Fr 07:00-17:30; Sa 07:00-11:30,VCA,Q7906620
,visa,,,KANSAS CITY,KS,,US,,,,,
,visa,,,KANSAS CITY,KS,,US,,,,,
,visa,,,KANSAS CITY,KS,,US,,,,,
,visa,,,KANSAS CITY,KS,,US,,,,,
,visa,,,KANSAS CITY,KS,,US,,,,,
,visa,,,KANSAS CITY,KS,,US,,,,,
,visa,,,KANSAS CITY,KS,,US,,,,,
,visa,,,KANSAS CITY,KS,,US,,,,,
,visa,,,KANSAS CITY,KS,,US,,,,,
,visa,,,KANSAS CITY,KS,,US,,,,,
,visa,,,KANSAS CITY,KS,,US,,,,,
,visa,,,KANSAS CITY,KS,,US,,,,,
,visa,,,KANSAS CITY,KS,,US,,,,,
,visa,,,KANSAS CITY,KS,,US,,,,,
,visa,,,KANSAS CITY,KS,,US,,,,,
,visa,,,KANSAS CITY,KS,,US,,,,,
,visa,,,KANSAS CITY,KS,,US,,,,,
,visa,,,KANSAS CITY,KS,,US,,,,,
,visa,,,KANSAS CITY,KS,,US,,,,,
,visa,,,KANSAS CITY,KS,,US,,,,,
https://www.walgreens.com/locator/walgreens-7739+state+ave-kansas+city-ks-66112/id=7550,walgreens,Walgreens,,Kansas City,KS,,US,+1 913-788-8168,https://www.walgreens.com/locator/walgreens-7739+state+ave-kansas+city-ks-66112/id=7550,24/7,Walgreens,Q1591889
https://locations.wendys.com/#9253269,wendys,"Wendy's 7807 Parallel Pkwy. in Kansas City, KS",,Kansas City,KS,,US,+1 913-210-8904,https://locations.wendys.com/united-states/ks/kansas-city/7807-parallel-pkwy,"Mo-Su 06:30-10:30,08:00-22:00",Wendy's,Q550258
https://locations.wendys.com/#9253268,wendys,"Wendy's 78th St. in Kansas City, KS",,Kansas City,KS,,US,+1 913-334-9100,https://locations.wendys.com/united-states/ks/kansas-city/7740-tauromee-street,"Mo-Su 06:30-10:30,09:00-22:00",Wendy's,Q550258
73af8f59ae82cf344a13a87eb743d334,western_union,7-ELEVEN #38574,,Kansas City,KS,,US,+1 913-956-1870,https://location.westernunion.com/us/ks/kansas-city/73af8f59ae82cf344a13a87eb743d334,,Western Union,Q861042
50f111e0f342caf52d8e9098dbd81f52,western_union,ADVANCE AMERICA #03373,,Kansas City,KS,,US,+1 913-788-3617,https://location.westernunion.com/us/ks/kansas-city/50f111e0f342caf52d8e9098dbd81f52,Mo 10:00-18:00; Tu 10:00-16:00; We-Fr 10:00-18:00; Sa 09:00-12:00,Western Union,Q861042
01163641f0f6e8421a96211884e6c307,western_union,SALOM ASIAN MARKET,,Kansas City,KS,,US,+1 913-313-5122,https://location.westernunion.com/us/ks/kansas-city/01163641f0f6e8421a96211884e6c307,Mo-Su 09:00-20:00,Western Union,Q861042
