Ref,Spider,Name,Address,City,State,Zipcode,Country,Phone,Website,Hours,Brand,WikiData
einkaufszentrum-regensdorferstrasse-16-8049-zuerich,denner_ch,Denner,,Zürich,,,CH,+41 58 999 13 22,https://www.denner.ch/de/filialen/denner-filiale-und-oeffnungszeiten/store/einkaufszentrum-regensdorferstrasse-16-8049-zuerich/,Mo-Sa 08:00-19:00,Denner,Q379911
limmattalstrasse-177-8049-zuerich,denner_ch,Denner,,Zürich,,,CH,+41 58 999 65 00,https://www.denner.ch/de/filialen/denner-filiale-und-oeffnungszeiten/store/limmattalstrasse-177-8049-zuerich/,Mo-Fr 07:00-19:00; Sa 07:30-17:00,Denner,Q379911
sharedmobility.ch:carvelo2go:cac4ea23-b695-47ac-8010-c063c1b45393,gbfs,Apotheke zum Meierhof,,,,,CH,,https://www.sharedmobility.ch/info,,sharedmobility.ch,
sharedmobility.ch:carvelo2go:ba7912b1-1c5a-42ee-d6b4-3550ae219c8e,gbfs,Terra Verde,,,,,CH,,https://www.sharedmobility.ch/info,,sharedmobility.ch,
publibike:d097fc6e-b4be-4d1d-be9e-17d431723c75,gbfs,Meierhofplatz,,,,,CH,,https://www.publibike.ch,,PubliBike,
publibike:59f69571-f0de-4cc7-b09e-89b3d7969436,gbfs,Am Wasser,,,,,CH,,https://www.publibike.ch,,PubliBike,
publibike:59ff5719-751f-4ebb-8c00-1450068b4aca,gbfs,Frankental,,,,,CH,,https://www.publibike.ch,,PubliBike,
0150380_alna,migros_ch,Alnatura,,Zürich,,,CH,+41 44 340 04 83,https://filialen.migros.ch/de/alnatura-bio-super-markt-alnatura-bio-super-markt-zuerich-hoengg,Mo-Sa 08:00-19:00,Alnatura,Q876811
0150077_1273_pickmup_smvmpmubox,migros_ch,PickMup Box,,Zürich,,,CH,+41 44 344 20 80,https://filialen.migros.ch/de/box-m-zuerich-hoengg-zuerich-hoengg,Mo-Sa 08:00-20:00,PickMup Box,Q115679275
0150077_super,migros_ch,Migros,,Zürich,,,CH,+41 44 344 20 80,https://filialen.migros.ch/de/migros-supermarkt-zuerich-hoengg,Mo-Sa 08:00-20:00,Migros,Q115661152
0150077_flori,migros_ch,Florissimo,,Zürich,,,CH,+41 44 344 20 80,https://filialen.migros.ch/de/florissimo-zuerich-hoengg,Mo-Sa 08:00-20:00,Florissimo,Q115659418
apotheke-zum-meierhof-zuerich,rotpunkt_apotheken_ch,Apotheke zum Meierhof Zürich Höngg,,Zürich,,,CH,+41 44 341 22 60,https://www.apotheke-zum-meierhof.ch/,Mo-Fr 08:00-18:30; Sa 08:30-17:00,Rotpunkt Apotheke,Q111683777
zuerigsund-apotheke-im-bruehl-hoengg,rotpunkt_apotheken_ch,Zürigsund Apotheke im Brühl Zürich Höngg,,Zürich,,,CH,+41 44 342 42 12,https://www.zuerigsund.ch/,Mo-Fr 08:00-19:00; Sa 08:00-17:00,Rotpunkt Apotheke,Q111683777
wartau-apotheke-hoengg,rotpunkt_apotheken_ch,Wartau Rotpunkt Apotheke Zürich Höngg,,Zürich,,,CH,+41 44 341 76 46,https://www.wartauapotheke.ch/,Mo-Fr 08:00-18:30; Sa 08:00-16:00,Rotpunkt Apotheke,Q111683777
pa11642,stadt_zuerich_ch,Park am Wasser,,Zürich,,,CH,,,,,
ki108,stadt_zuerich_ch,Geeringstrasse 2,,Zürich,,,CH,+41 44 413 76 53,https://www.stadt-zuerich.ch/schulen/de/ruetihof/ueberuns/standorte/kindergaerten.html,,,
ki408,stadt_zuerich_ch,Giblenstrasse 1,,Zürich,,,CH,+41 44 413 76 55,https://www.stadt-zuerich.ch/schulen/de/ruetihof/ueberuns/standorte/kindergaerten.html,,,
ki503,stadt_zuerich_ch,Regensdorferstrasse,,Zürich,,,CH,+41 44 413 09 46,https://www.stadt-zuerich.ch/schulen/de/vogtsrain/ueberuns/standorte/kindergaerten.html,,,
ki030,stadt_zuerich_ch,Pünten 1,,Zürich,,,CH,+41 44 413 01 92,https://www.stadt-zuerich.ch/schulen/de/riedhof/ueberuns/standorte/kindergaerten.html,,,
ki487,stadt_zuerich_ch,Pünten 2,,Zürich,,,CH,+41 413 32 93,https://www.stadt-zuerich.ch/schulen/de/riedhof/ueberuns/standorte/kindergaerten.html,,,
ki107,stadt_zuerich_ch,Wildenweg 2,,Zürich,,,CH,+41 44 413 23 79,https://www.stadt-zuerich.ch/schulen/de/riedhof/ueberuns/standorte/kindergaerten.html,,,
ki402,stadt_zuerich_ch,Wildenweg 1,,Zürich,,,CH,+41 44 413 23 77,https://www.stadt-zuerich.ch/schulen/de/riedhof/ueberuns/standorte/kindergaerten.html,,,
ki377,stadt_zuerich_ch,Winzerhalde 2,,Zürich,,,CH,+41 44 413 78 86,https://www.stadt-zuerich.ch/schulen/de/riedhof/ueberuns/standorte/kindergaerten.html,,,
ki403,stadt_zuerich_ch,Winzerhalde 1,,Zürich,,,CH,+41 44 413 75 65,https://www.stadt-zuerich.ch/schulen/de/riedhof/ueberuns/standorte/kindergaerten.html,,,
ki222,stadt_zuerich_ch,Ackersteinstrasse,,Zürich,,,CH,+41 44 342 07 02,https://www.stadt-zuerich.ch/schulen/de/amwasser/ueberuns/standorte/kindergaerten.html,,,
ki241,stadt_zuerich_ch,Bläsi 1,,Zürich,,,CH,+41 44 413 73 23,https://www.stadt-zuerich.ch/schulen/de/blaesi/ueberuns/standorte/kindergaerten.html,,,
ki032,stadt_zuerich_ch,Vogtsrain 1,,Zürich,,,CH,+41 44 413 09 44,https://www.stadt-zuerich.ch/schulen/de/vogtsrain/ueberuns/standorte/kindergaerten.html,,,
ki214,stadt_zuerich_ch,Bombach 2,,Zürich,,,CH,+41 44 413 77 19,https://www.stadt-zuerich.ch/schulen/de/riedhof/ueberuns/standorte/kindergaerten.html,,,
ki104,stadt_zuerich_ch,Bläsi 2,,Zürich,,,CH,+41 44 413 73 22,https://www.stadt-zuerich.ch/schulen/de/blaesi/ueberuns/standorte/kindergaerten.html,,,
ki224,stadt_zuerich_ch,Am Wasser,,Zürich,,,CH,+41 44 413 76 44,https://www.stadt-zuerich.ch/schulen/de/amwasser/ueberuns/standorte/kindergaerten.html,,,
ki440,stadt_zuerich_ch,Am Wettingertobel,,Zürich,,,CH,+41 44 413 20 60,https://www.stadt-zuerich.ch/schulen/de/vogtsrain/ueberuns/standorte/kindergaerten.html,,,
ki052,stadt_zuerich_ch,Vogtsrain 2,,Zürich,,,CH,+41 44 413 09 45,https://www.stadt-zuerich.ch/schulen/de/vogtsrain/ueberuns/standorte/kindergaerten.html,,,
ki451,stadt_zuerich_ch,Frankental,,Zürich,,,CH,+41 44 413 72 98,,,,
ki182,stadt_zuerich_ch,Bombach 1,,Zürich,,,CH,+41 44 413 77 18,https://www.stadt-zuerich.ch/schulen/de/riedhof/ueberuns/standorte/kindergaerten.html,,,
ki345,stadt_zuerich_ch,Meierhofplatz,,Zürich,,,CH,+41 44 413 73 19,https://www.stadt-zuerich.ch/schulen/de/amwasser/ueberuns/standorte/kindergaerten.html,,,
ki028,stadt_zuerich_ch,Limmatgut,,Zürich,,,CH,+41 44 413 76 48,https://www.stadt-zuerich.ch/schulen/de/amwasser/ueberuns/standorte/kindergaerten.html,,,
ki406,stadt_zuerich_ch,Geeringstrasse 1,,Zürich,,,CH,+41 44 413 76 54,https://www.stadt-zuerich.ch/schulen/de/ruetihof/ueberuns/standorte/kindergaerten.html,,,
ki109,stadt_zuerich_ch,Giblenstrasse 2,,Zürich,,,CH,+41 44 413 76 56,https://www.stadt-zuerich.ch/schulen/de/ruetihof/ueberuns/standorte/kindergaerten.html,,,
kh531,stadt_zuerich_ch,Vogtsrain 2,,Zürich,,,CH,+41 44 413 09 43,https://www.stadt-zuerich.ch/schulen/de/vogtsrain/betreuung/standorte.html,"Mo-Fr 11:55-14:00,15:30-18:00",,
kh544,stadt_zuerich_ch,Vogtsrain 1,,Zürich,,,CH,+41 44 413 09 42,https://www.stadt-zuerich.ch/schulen/de/vogtsrain/betreuung/standorte.html,"Mo-Fr 11:55-14:00,15:30-18:00",,
kh154,stadt_zuerich_ch,Vogtsrain,,Zürich,,,CH,+41 79 800 64 06,https://www.stadt-zuerich.ch/schulen/de/vogtsrain/betreuung/standorte.html,Mo-Fr 07:00-08:15,,
kh231,stadt_zuerich_ch,Bombach 1,,Zürich,,,CH,+41 44 413 77 20,https://www.stadt-zuerich.ch/schulen/de/riedhof/betreuung/standorte.html,"Mo-Fr 11:55-14:00,15:30-18:00",,
kh532,stadt_zuerich_ch,Frankentalerstrasse 1,,Zürich,,,CH,,,Mo-Fr 07:00-08:15,,
kh519,stadt_zuerich_ch,Frankentalerstrasse,,Zürich,,,CH,,,"Mo-Fr 11:55-14:00,15:30-18:00",,
kh486,stadt_zuerich_ch,Rütihof 4,,Zürich,,,CH,+41 44 413 29 49,https://www.stadt-zuerich.ch/schulen/de/ruetihof/betreuung/standorte.html,"Mo-Fr 11:55-14:00,15:30-18:00",,
kh485,stadt_zuerich_ch,Rütihof 1,,Zürich,,,CH,+41 44 413 29 39,https://www.stadt-zuerich.ch/schulen/de/ruetihof/betreuung/standorte.html,"Mo-Fr 11:55-14:00,15:30-18:00",,
kh150,stadt_zuerich_ch,Rütihof,,Zürich,,,CH,+41 44 413 29 39,https://www.stadt-zuerich.ch/schulen/de/ruetihof/betreuung/standorte.html,Mo-Fr 07:00-08:15,,
kh317,stadt_zuerich_ch,Limmatgut 1,,Zürich,,,CH,+41 44 413 76 47,https://www.stadt-zuerich.ch/schulen/de/amwasser/betreuung/standorte.html,"Mo-Fr 11:55-14:00,15:30-18:00",,
kh141,stadt_zuerich_ch,Am Wasser,,Zürich,,,CH,+41 44 413 76 46,https://www.stadt-zuerich.ch/schulen/de/amwasser/betreuung/standorte.html,Mo-Fr 07:00-08:15,,
kh319,stadt_zuerich_ch,Am Wasser 1,,Zürich,,,CH,+41 44 413 76 46,https://www.stadt-zuerich.ch/schulen/de/amwasser/betreuung/standorte.html,"Mo-Fr 11:55-14:00,15:30-18:00",,
kh208,stadt_zuerich_ch,Am Wasser 2,,Zürich,,,CH,+41 44 413 76 45,https://www.stadt-zuerich.ch/schulen/de/amwasser/betreuung/standorte.html,"Mo-Fr 11:55-14:00,15:30-18:00",,
kh530,stadt_zuerich_ch,Am Wettingertobel 1,,Zürich,,,CH,+41 44 413 20 66,https://www.stadt-zuerich.ch/schulen/de/vogtsrain/betreuung/standorte.html,"Mo-Fr 11:55-14:00,15:30-18:00",,
kh574,stadt_zuerich_ch,Pünten 2,,Zürich,,,CH,+41 44 413 23 53,,"Mo-Fr 11:55-14:00,15:30-18:00",,
kh143,stadt_zuerich_ch,Bläsi,,Zürich,,,CH,+41 44 413 24 91,https://www.stadt-zuerich.ch/schulen/de/blaesi/betreuung/standorte.html,Mo-Fr 07:00-08:15,,
kh335,stadt_zuerich_ch,Bläsi 1,,Zürich,,,CH,+41 44 413 24 91,https://www.stadt-zuerich.ch/schulen/de/blaesi/betreuung/standorte.html,"Mo-Fr 11:55-14:00,15:30-18:00",,
kh028,stadt_zuerich_ch,Bläsi 2,,Zürich,,,CH,+41 44 413 24 92,https://www.stadt-zuerich.ch/schulen/de/blaesi/betreuung/standorte.html,"Mo-Fr 11:55-14:00,15:30-18:00",,
kh031,stadt_zuerich_ch,Riedhof 2,,Zürich,,,CH,+41 44 413 23 67,https://www.stadt-zuerich.ch/schulen/de/riedhof/betreuung/standorte.html,"Mo-Fr 11:55-14:00,15:30-18:00",,
kh480,stadt_zuerich_ch,Riedhof 1,,Zürich,,,CH,+41 44 413 23 70,https://www.stadt-zuerich.ch/schulen/de/riedhof/betreuung/standorte.html,"Mo-Fr 11:55-14:00,15:30-18:00",,
kh149,stadt_zuerich_ch,Riedhof,,Zürich,,,CH,+41 44 413 23 67,https://www.stadt-zuerich.ch/schulen/de/riedhof/betreuung/standorte.html,Mo-Fr 07:00-08:15,,
kh596,stadt_zuerich_ch,Rütihofstrasse,,Zürich,,,CH,,,Mo-Fr 07:00-08:15,,
kh487,stadt_zuerich_ch,Rütihof 3,,Zürich,,,CH,+41 44 413 75 93,https://www.stadt-zuerich.ch/schulen/de/ruetihof/betreuung/standorte.html,"Mo-Fr 11:55-14:00,15:30-18:00",,
kh488,stadt_zuerich_ch,Rütihof 2,,Zürich,,,CH,+41 44 413 76 18,https://www.stadt-zuerich.ch/schulen/de/ruetihof/betreuung/standorte.html,"Mo-Fr 11:55-14:00,15:30-18:00",,
kh479,stadt_zuerich_ch,Pünten 1,,Zürich,,,CH,+41 44 413 32 88,https://www.stadt-zuerich.ch/schulen/de/riedhof/betreuung/standorte.html,"Mo-Fr 11:55-14:00,15:30-18:00",,
kh583,stadt_zuerich_ch,Hönggermarkt,,Zürich,,,CH,+41 44 413 76 38,https://www.stadt-zuerich.ch/schulen/de/vogtsrain/betreuung/standorte.html,"Mo-Fr 11:55-14:00,15:30-18:00",,
kh443,stadt_zuerich_ch,Oase,,Zürich,,,CH,+41 44 413 32 77,https://www.stadt-zuerich.ch/schulen/de/lachenzelg/betreuung/standorte.html,Mo-Fr 11:55-14:00,,
kh270,stadt_zuerich_ch,Riedhof 3,,Zürich,,,CH,+41 44 413 23 72,https://www.stadt-zuerich.ch/schulen/de/riedhof/betreuung/standorte.html,"Mo-Fr 11:55-14:00,15:30-18:00",,
kh597,stadt_zuerich_ch,Rütihofstrasse,,Zürich,,,CH,,,"Mo-Fr 11:55-14:00,15:30-18:00",,
kh497,stadt_zuerich_ch,Winzerhalde 1,,Zürich,,,CH,+41 44 413 75 12,https://www.stadt-zuerich.ch/schulen/de/riedhof/betreuung/standorte.html,"Mo-Fr 11:55-14:00,15:30-18:00",,
vo213,stadt_zuerich_ch,Bläsi,,Zürich,,,CH,+41 44 413 24 70,https://www.stadt-zuerich.ch/schulen/de/blaesi.html,,,
vo291,stadt_zuerich_ch,Pünten,,Zürich,,,CH,+41 44 413 01 90,https://www.stadt-zuerich.ch/schulen/de/riedhof.html,,,
vo265,stadt_zuerich_ch,Lachenzelg,,Zürich,,,CH,+41 44 413 32 70,https://www.stadt-zuerich.ch/schulen/de/lachenzelg.html,,,
vo313,stadt_zuerich_ch,Vogtsrain,,Zürich,,,CH,+41 44 413 09 40,https://www.stadt-zuerich.ch/schulen/de/vogtsrain.html,,,
vo295,stadt_zuerich_ch,Rütihof,,Zürich,,,CH,+41 44 413 29 30,https://www.stadt-zuerich.ch/schulen/de/ruetihof.html,,,
vo207,stadt_zuerich_ch,Am Wasser,,Zürich,,,CH,+41 44 413 31 95,https://www.stadt-zuerich.ch/schulen/de/amwasser.html,,,
vo290,stadt_zuerich_ch,Riedhof,,Zürich,,,CH,+41 44 413 23 60,https://www.stadt-zuerich.ch/schulen/de/riedhof.html,,,
st6107,stadt_zuerich_ch,"Kreischef 10, Roger Hunkeler",,Zürich,,,CH,+41 44 411 60 10,,Mo-Fr 07:00-18:00,,
st018,stadt_zuerich_ch,Quartierwache Höngg,,Zürich,,,CH,+41 44 411 62 50,https://www.stadt-zuerich.ch/content/pd/de/index/stadtpolizei_zuerich/ueber_uns/standorte/quartierwachen/hoengg.html,"Mo-Tu 08:00-12:00,13:00-17:00; We-Th 08:00-12:00; Fr 08:00-12:00,13:00-17:00",,
wcr079,stadt_zuerich_ch,Frankental (rollstuhlgängig ohne EuroKey),,Zürich,,,CH,+41 44 412 43 65,https://www.stadt-zuerich.ch/gud/de/index/gesundheitsschutz/zueriwc.html,,,
wcr080,stadt_zuerich_ch,Meierhofplatz (rollstuhlgängig mit EuroKey),,Zürich,,,CH,+41 44 412 43 65,https://www.stadt-zuerich.ch/gud/de/index/gesundheitsschutz/zueriwc.html,,,
wcr7399,stadt_zuerich_ch,Rütihof (rollstuhlgängig mit EuroKey),,Zürich,,,CH,+41 44 412 43 65,https://www.stadt-zuerich.ch/gud/de/index/gesundheitsschutz/zueriwc.html,,,
wcr085,stadt_zuerich_ch,Werdinsel (rollstuhlgängig ohne EuroKey),,Zürich,,,CH,+41 44 412 43 65,https://www.stadt-zuerich.ch/gud/de/index/gesundheitsschutz/zueriwc.html,,,
411,valora,k kiosk,,Zürich,,,CH,,,,k kiosk,Q60381703
404,valora,k kiosk,,Zürich,,,CH,,,,k kiosk,Q60381703
,visa,,,ZUERICH,,,CH,,,,,
,visa,,,ZUERICH,,,CH,,,,,
