Ref,Spider,Name,Address,City,State,Zipcode,Country,Phone,Website,Hours,Brand,WikiData
211257,bluerhino,Dollar General #22745,,Robbins,NC,,US,+1 910-673-0369,,,Blue Rhino,Q65681213
5596,dominos_pizza_us,Domino's Pizza,,Robbins,NC,,US,+1 910-948-2111,https://pizza.dominos.com/north-carolina/robbins/13045-nc-hwy-24-27-ste-b,Mo-Th 10:30-22:00; Fr-Sa 10:30-23:00; Su 10:30-22:00,Domino's,Q839466
Carlie C's #755,iga,Carlie C's #755,"131 North Carolina 705, Robbins, NC, 27325",Robbins,NC,,US,+1 503-368-5250,,,IGA,Q3146662
0220408900,sunoco_us,Sunoco,,ROBBINS,NC,,US,,,,Sunoco,Q1423218
1379531,usps,ROBBINS,,ROBBINS,NC,,US,+1 910-948-2230,,Mo-Fr 08:30-17:00; Sa 08:30-12:00,United States Postal Service,Q668687
2732500002,usps_collection_boxes,USPS COLLECTION BOX - PO LOBBY,181 N MIDDLETON ST,ROBBINS,NC,,US,,,,United States Postal Service,Q668687
2732500003,usps_collection_boxes,USPS COLLECTION BOX - BLUE BOX,181 N MIDDLETON ST,ROBBINS,NC,,US,,,,United States Postal Service,Q668687
2732500004,usps_collection_boxes,USPS COLLECTION BOX - PO LOBBY,181 N MIDDLETON ST,ROBBINS,NC,,US,,,,United States Postal Service,Q668687
,visa,,,ROBBINS,NC,,US,,,,,
,visa,,,ROBBINS,NC,,US,,,,,
,visa,,,ROBBINS,NC,,US,,,,,
,visa,,,ROBBINS,NC,,US,,,,,
,visa,,,ROBINS,NC,,US,,,,,
,visa,,,ROBBINS,NC,,US,,,,,
,visa,,,ROBBINS,NC,,US,,,,,
,visa,,,ROBINS,NC,,US,,,,,
,visa,,,ROBBINS,NC,,US,,,,,
,visa,,,ROBBINS,NC,,US,,,,,
,visa,,,ROBBINS,NC,,US,,,,,
,visa,,,ROBBINS,NC,,US,,,,,
,visa,,,ROBBINS,NC,,US,,,,,
,visa,,,ROBBINS,NC,,US,,,,,
,visa,,,ROBBINS,NC,,US,,,,,
43bdf55d4ca7354f04ff8e31085bf3a3,western_union,CARLIE C'S IGA #755,,Robbins,NC,,US,+1 910-948-4885,https://location.westernunion.com/us/nc/robbins/43bdf55d4ca7354f04ff8e31085bf3a3,Mo-Su 07:00-22:00,Western Union,Q861042
