Ref,Spider,Name,Address,City,State,Zipcode,Country,Phone,Website,Hours,Brand,WikiData
,visa,,,YAUTEPEC,MORELOS,,MX,,,,,
,visa,,,YAUTEPEC,MORELOS,,MX,,,,,
,visa,,,YAUTEPEC,MORELOS,,MX,,,,,
1d0915d65abcda9cf49479db9d37e519,western_union,OXXO NACIONAL CUE,,Yautepec,MORELOS,,MX,+52 81 8389 2121,https://location.westernunion.com/mx/morelos/yautepec/1d0915d65abcda9cf49479db9d37e519,Mo-Su 08:00-22:00,Western Union,Q861042
5decd33aaf89602a87a5fda1556a991c,western_union,TELECOMM 17015,,Oaxtepec,MORELOS,,MX,+52 800 800 8930,https://location.westernunion.com/mx/morelos/oaxtepec/5decd33aaf89602a87a5fda1556a991c,Mo-Su 09:00-20:00,Western Union,Q861042
83cd5204f4b3ff8ac688a5e73b104d30,western_union,TELECOMM 17015,,Yautepec,MORELOS,,MX,+52 800 800 9889,https://location.westernunion.com/mx/morelos/yautepec/83cd5204f4b3ff8ac688a5e73b104d30,Mo-Fr 09:00-15:00,Western Union,Q861042
8b702f8bef2eb42ce6b07fdbe68badc3,western_union,TELECOMM 17015,,Oaxtepec,MORELOS,,MX,+52 800 800 8930,https://location.westernunion.com/mx/morelos/oaxtepec/8b702f8bef2eb42ce6b07fdbe68badc3,Mo-Fr 09:00-15:00,Western Union,Q861042
0952bcd9f39cfd867160c1095f538671,western_union,OXXO PLAZA COCOYOC CUE,,Yautepec,MORELOS,,MX,+52 81 8389 2121,https://location.westernunion.com/mx/morelos/yautepec/0952bcd9f39cfd867160c1095f538671,Mo-Su 08:00-22:00,Western Union,Q861042
4a56154c636e8beafe176493fd9089a0,western_union,OXXO PLAZA COCOYOC CUE,,Yautepec,MORELOS,,MX,+52 81 8389 2121,https://location.westernunion.com/mx/morelos/yautepec/4a56154c636e8beafe176493fd9089a0,Mo-Su 08:00-22:00,Western Union,Q861042
2420c0b313f0ef0be71553212106aabc,western_union,OXXO CRUCERO CUE,,Yautepec,MORELOS,,MX,+52 81 8389 2121,https://location.westernunion.com/mx/morelos/yautepec/2420c0b313f0ef0be71553212106aabc,Mo-Su 08:00-22:00,Western Union,Q861042
025c7e57d83415c054c4d0d7acde3f93,western_union,OXXO CRUCERO CUE,,Yautepec,MORELOS,,MX,+52 81 8389 2121,https://location.westernunion.com/mx/morelos/yautepec/025c7e57d83415c054c4d0d7acde3f93,Mo-Su 08:00-22:00,Western Union,Q861042
cb4266724097df8ba3f985b188263997,western_union,OXXO CRUCERO CUE,,Yautepec,MORELOS,,MX,+52 81 8389 2121,https://location.westernunion.com/mx/morelos/yautepec/cb4266724097df8ba3f985b188263997,Mo-Su 08:00-22:00,Western Union,Q861042
b636e0ed0b31975c31d30c5d1f486d7d,western_union,OXXO NACIONAL CUE,,Yautepec,MORELOS,,MX,+52 81 8389 2121,https://location.westernunion.com/mx/morelos/yautepec/b636e0ed0b31975c31d30c5d1f486d7d,Mo-Su 08:00-22:00,Western Union,Q861042
067545fc5e38ceee56eb53e9c9f0d630,western_union,AURRERA OAXTEPEC 1901,,Yautepec,MORELOS,,MX,+52 800 833 4700,https://location.westernunion.com/mx/morelos/yautepec/067545fc5e38ceee56eb53e9c9f0d630,Mo-Su 07:00-23:00,Western Union,Q861042
0242c7713c64454a50a5e5526b1e89f2,western_union,AURRERA OAXTEPEC 1901,,Yautepec,MORELOS,,MX,+52 800 833 4700,https://location.westernunion.com/mx/morelos/yautepec/0242c7713c64454a50a5e5526b1e89f2,Mo-Su 07:00-23:00,Western Union,Q861042
33b910371fbdc850348b5ba7eea71d53,western_union,AURRERA OAXTEPEC 1901,,Yautepec,MORELOS,,MX,+52 800 833 4700,https://location.westernunion.com/mx/morelos/yautepec/33b910371fbdc850348b5ba7eea71d53,Mo-Su 07:00-23:00,Western Union,Q861042
836c0a3b3c71da4bebc400d1955c63e2,western_union,OXXO PLAZA COCOYOC CUE,,Yautepec,MORELOS,,MX,+52 81 8389 2121,https://location.westernunion.com/mx/morelos/yautepec/836c0a3b3c71da4bebc400d1955c63e2,Mo-Su 08:00-22:00,Western Union,Q861042
a335857b8344af2cbfa5af3e8941fdb5,western_union,OXXO ERMITA CUE,,Yautepec,MORELOS,,MX,+52 81 8389 2121,https://location.westernunion.com/mx/morelos/yautepec/a335857b8344af2cbfa5af3e8941fdb5,Mo-Su 06:00-22:00,Western Union,Q861042
30dedb23fbd857b9387d9339d7d12161,western_union,OXXO ERMITA CUE,,Yautepec,MORELOS,,MX,+52 81 8389 2121,https://location.westernunion.com/mx/morelos/yautepec/30dedb23fbd857b9387d9339d7d12161,Mo-Su 06:00-22:00,Western Union,Q861042
34f2ecaf9b47b8663d04bde2169123f1,western_union,OXXO ERMITA CUE,,Yautepec,MORELOS,,MX,+52 81 8389 2121,https://location.westernunion.com/mx/morelos/yautepec/34f2ecaf9b47b8663d04bde2169123f1,Mo-Su 06:00-22:00,Western Union,Q861042
9bc8962c71d2c10fd84e973ee54f3e3d,western_union,TIENDAS NETO OAXTEPEC SAN JUAN 0192,,Yautepec,MORELOS,,MX,+52 735 688 3664,https://location.westernunion.com/mx/morelos/yautepec/9bc8962c71d2c10fd84e973ee54f3e3d,Mo-Su 07:00-22:00,Western Union,Q861042
722dd47fb7cacfadf22b8e883d01301f,western_union,TIENDAS NETO OAXTEPEC SAN JUAN 0192,,Yautepec,MORELOS,,MX,+52 735 688 3664,https://location.westernunion.com/mx/morelos/yautepec/722dd47fb7cacfadf22b8e883d01301f,Mo-Su 07:00-22:00,Western Union,Q861042
8468a7835944233d46253e1f6f8f775a,western_union,TIENDAS NETO OAXTEPEC SAN JUAN 0192,,Yautepec,MORELOS,,MX,+52 735 688 3664,https://location.westernunion.com/mx/morelos/yautepec/8468a7835944233d46253e1f6f8f775a,Mo-Su 07:00-22:00,Western Union,Q861042
c63086f9cbad4add6213461dee182e3a,western_union,OXXO PLAZA BELLA CUE,,Yautepec,MORELOS,,MX,+52 81 8389 2121,https://location.westernunion.com/mx/morelos/yautepec/c63086f9cbad4add6213461dee182e3a,Mo-Su 08:00-22:00,Western Union,Q861042
047a6f19237a5b27aa7e1edc79e5bead,western_union,OXXO PLAZA BELLA CUE,,Yautepec,MORELOS,,MX,+52 81 8389 2121,https://location.westernunion.com/mx/morelos/yautepec/047a6f19237a5b27aa7e1edc79e5bead,Mo-Su 08:00-22:00,Western Union,Q861042
10dcbe21683661df55470140041d5a5e,western_union,OXXO PLAZA BELLA CUE,,Yautepec,MORELOS,,MX,+52 81 8389 2121,https://location.westernunion.com/mx/morelos/yautepec/10dcbe21683661df55470140041d5a5e,Mo-Su 08:00-22:00,Western Union,Q861042
d548cf899b616f105b6cda48353277b5,western_union,OXXO IMSS TEPOZ CUE,,Yautepec,MORELOS,,MX,+52 81 8389 2121,https://location.westernunion.com/mx/morelos/yautepec/d548cf899b616f105b6cda48353277b5,Mo-Su 08:00-22:00,Western Union,Q861042
3dac86549906cc9f7fe8679eb52a197e,western_union,OXXO IMSS TEPOZ CUE,,Yautepec,MORELOS,,MX,+52 81 8389 2121,https://location.westernunion.com/mx/morelos/yautepec/3dac86549906cc9f7fe8679eb52a197e,Mo-Su 08:00-22:00,Western Union,Q861042
9bd119de95dbe7cece57d7046ea6d872,western_union,OXXO PAO CUE,,Yautepec,MORELOS,,MX,+52 81 8389 2121,https://location.westernunion.com/mx/morelos/yautepec/9bd119de95dbe7cece57d7046ea6d872,Mo-Su 08:00-22:00,Western Union,Q861042
351809c7124af0305b107d8d2654aa1d,western_union,OXXO PAO CUE,,Yautepec,MORELOS,,MX,+52 81 8389 2121,https://location.westernunion.com/mx/morelos/yautepec/351809c7124af0305b107d8d2654aa1d,Mo-Su 08:00-22:00,Western Union,Q861042
1ceba73bf9731ea178720fcd55eedcf1,western_union,OXXO PAO CUE,,Yautepec,MORELOS,,MX,+52 81 8389 2121,https://location.westernunion.com/mx/morelos/yautepec/1ceba73bf9731ea178720fcd55eedcf1,Mo-Su 08:00-22:00,Western Union,Q861042
c5097f2e1c09cfab2cee99b5c5d3a931,western_union,OXXO IMSS ALBERCA CUE,,Yautepec,MORELOS,,MX,+52 81 8389 2121,https://location.westernunion.com/mx/morelos/yautepec/c5097f2e1c09cfab2cee99b5c5d3a931,Mo-Su 08:00-22:00,Western Union,Q861042
310f74b62bf03cdfeb7830ac6e4c7741,western_union,OXXO IMSS ALBERCA CUE,,Yautepec,MORELOS,,MX,+52 81 8389 2121,https://location.westernunion.com/mx/morelos/yautepec/310f74b62bf03cdfeb7830ac6e4c7741,Mo-Su 08:00-22:00,Western Union,Q861042
7528595e177462456cb4f07fab6625d2,western_union,OXXO NACIONAL CUE,,Yautepec,MORELOS,,MX,+52 81 8389 2121,https://location.westernunion.com/mx/morelos/yautepec/7528595e177462456cb4f07fab6625d2,Mo-Su 08:00-22:00,Western Union,Q861042
