Ref,Spider,Name,Address,City,State,Zipcode,Country,Phone,Website,Hours,Brand,WikiData
BPM064,bp,BP,,Coatzacoalcos,Veracruz,,MX,+52 800 668 0209,,24/7,BP,Q152057
12410,dominos_pizza_mx,Domino's,,Coatzacoalcos,Veracruz,,MX,+52 921 248 3013,,,Domino's Pizza,Q839466
12416,dominos_pizza_mx,Domino's,,Coatzacoalcos,Veracruz,,MX,+52 921 688 2655,,,Domino's Pizza,Q839466
11600,dominos_pizza_mx,Domino's,,Coatzacoalcos,Veracruz,,MX,+52 921 210 4571,,,Domino's Pizza,Q839466
3319,first_cash,First Cash Pawn,,Coatzacoalcos,Veracruz,,MX,+52 921 688 2560,,,First Cash Pawn,
1909,first_cash,First Cash Pawn,,Coatzacoalcos,Veracruz,,MX,+52 921 248 2373,,,First Cash Pawn,
1558,first_cash,First Cash Pawn,,Coatzacoalcos,Veracruz,,MX,+52 921 210 9545,,,First Cash Pawn,
7546,vertiche_mx,FORUM COATZACOALCOS,Avenida Universidad Veracruzana km 8,Coatzacoalcos,Veracruz,,MX,,,,Vertiche,Q113215945
,visa,,,COATZACOALCOS,VERACRUZ,,MX,,,,,
,visa,,,COATZACOALCOS,VERACRUZ,,MX,,,,,
,visa,,,COATZACOALCOS,VERACRUZ,,MX,,,,,
,visa,,,COATZACOALCOS,VERACRUZ,,MX,,,,,
,visa,,,COATZACOALCOS,VERACRUZ,,MX,,,,,
,visa,,,COATZACOALCOS,VERACRUZ,,MX,,,,,
,visa,,,COATZACOALCOS,VERACRUZ,,MX,,,,,
,visa,,,COSOLEACAQUE,VERACRUZ,,MX,,,,,
32b85405179003482353e8e0f193421b,western_union,OXXO TRANSPORTISTAS MTT,,Coatzacoalcos,VERACRUZ,,MX,+52 81 8389 2121,https://location.westernunion.com/mx/veracruz/coatzacoalcos/32b85405179003482353e8e0f193421b,Mo-Su 08:00-22:00,Western Union,Q861042
17835f85811338380f064b11d212176e,western_union,OXXO TRANSPORTISTAS MTT,,Coatzacoalcos,VERACRUZ,,MX,+52 81 8389 2121,https://location.westernunion.com/mx/veracruz/coatzacoalcos/17835f85811338380f064b11d212176e,Mo-Su 08:00-22:00,Western Union,Q861042
af3d03f03a6fbd240dcf76091a53416d,western_union,OXXO 24 DE OCTUBRE MTT,,Coatzacoalcos,VERACRUZ,,MX,+52 81 8389 2121,https://location.westernunion.com/mx/veracruz/coatzacoalcos/af3d03f03a6fbd240dcf76091a53416d,Mo-Su 08:00-22:00,Western Union,Q861042
54ae2fb04a6ca611bd132bb9abe5d72a,western_union,OXXO 24 DE OCTUBRE MTT,,Coatzacoalcos,VERACRUZ,,MX,+52 81 8389 2121,https://location.westernunion.com/mx/veracruz/coatzacoalcos/54ae2fb04a6ca611bd132bb9abe5d72a,Mo-Su 08:00-22:00,Western Union,Q861042
ed7ad33f99935b1863650497ec43f551,western_union,OXXO 24 DE OCTUBRE MTT,,Coatzacoalcos,VERACRUZ,,MX,+52 81 8389 2121,https://location.westernunion.com/mx/veracruz/coatzacoalcos/ed7ad33f99935b1863650497ec43f551,Mo-Su 08:00-22:00,Western Union,Q861042
0741792e9e08a9ac81b8d705e68578dc,western_union,OXXO CERRO DE LAS MESAS MTT,,Coatzacoalcos,VERACRUZ,,MX,+52 81 8389 2121,https://location.westernunion.com/mx/veracruz/coatzacoalcos/0741792e9e08a9ac81b8d705e68578dc,Mo-Su 08:00-22:00,Western Union,Q861042
9f07f33ec1d233899da275c73a911adb,western_union,OXXO CERRO DE LAS MESAS MTT,,Coatzacoalcos,VERACRUZ,,MX,+52 81 8389 2121,https://location.westernunion.com/mx/veracruz/coatzacoalcos/9f07f33ec1d233899da275c73a911adb,Mo-Su 08:00-22:00,Western Union,Q861042
cebdf7c97168b899878175f515d9e45a,western_union,OXXO CERRO DE LAS MESAS MTT,,Coatzacoalcos,VERACRUZ,,MX,+52 81 8389 2121,https://location.westernunion.com/mx/veracruz/coatzacoalcos/cebdf7c97168b899878175f515d9e45a,Mo-Su 08:00-22:00,Western Union,Q861042
ea566de81806f86ce19cdb81c615b9ae,western_union,FARM GUAD UNIV VERACRUZANA,,Coatzacoalcos,VERACRUZ,,MX,+52 800 833 4700,https://location.westernunion.com/mx/veracruz/coatzacoalcos/ea566de81806f86ce19cdb81c615b9ae,Mo-Su 08:00-22:00,Western Union,Q861042
a284b8a4b24ed3a69ed4ecb2cb810314,western_union,FARM GUAD UNIV VERACRUZANA,,Coatzacoalcos,VERACRUZ,,MX,+52 800 833 4700,https://location.westernunion.com/mx/veracruz/coatzacoalcos/a284b8a4b24ed3a69ed4ecb2cb810314,Mo-Su 08:00-22:00,Western Union,Q861042
0487c2baa3d2fa067033893681b5ed52,western_union,FARM GUAD UNIV VERACRUZANA,,Coatzacoalcos,VERACRUZ,,MX,+52 800 833 4700,https://location.westernunion.com/mx/veracruz/coatzacoalcos/0487c2baa3d2fa067033893681b5ed52,Mo-Su 08:00-22:00,Western Union,Q861042
8b590e148151a584c9b39884f92ccbb6,western_union,OXXO HUEHUETOCA MTT,,Coatzacoalcos,VERACRUZ,,MX,+52 81 8389 2121,https://location.westernunion.com/mx/veracruz/coatzacoalcos/8b590e148151a584c9b39884f92ccbb6,Mo-Su 08:00-22:00,Western Union,Q861042
80249eba77bb49baa1e1276521c38757,western_union,OXXO HUEHUETOCA MTT,,Coatzacoalcos,VERACRUZ,,MX,+52 81 8389 2121,https://location.westernunion.com/mx/veracruz/coatzacoalcos/80249eba77bb49baa1e1276521c38757,Mo-Su 08:00-22:00,Western Union,Q861042
6a7278411b71798e06c67904c3abada2,western_union,OXXO RIO PAPALOAPAN MTT,,Coatzacoalcos,VERACRUZ,,MX,+52 81 8389 2121,https://location.westernunion.com/mx/veracruz/coatzacoalcos/6a7278411b71798e06c67904c3abada2,Mo-Su 08:00-22:00,Western Union,Q861042
37870bf4bd7316504d0c772f4fc556af,western_union,OXXO RIO PAPALOAPAN MTT,,Coatzacoalcos,VERACRUZ,,MX,+52 81 8389 2121,https://location.westernunion.com/mx/veracruz/coatzacoalcos/37870bf4bd7316504d0c772f4fc556af,Mo-Su 08:00-22:00,Western Union,Q861042
f110aba36786becd7bc2e50220cbd829,western_union,OXXO RIO PAPALOAPAN MTT,,Coatzacoalcos,VERACRUZ,,MX,+52 81 8389 2121,https://location.westernunion.com/mx/veracruz/coatzacoalcos/f110aba36786becd7bc2e50220cbd829,Mo-Su 08:00-22:00,Western Union,Q861042
1b42226a2c59beed375c7743b58dadee,western_union,TIENDAS NETO BRISAS DEL GOLFO 0888,,Coatzacoalcos,VERACRUZ,,MX,+52 55 6377 4808,https://location.westernunion.com/mx/veracruz/coatzacoalcos/1b42226a2c59beed375c7743b58dadee,Mo-Su 07:00-22:00,Western Union,Q861042
8e380e6adec9a6cc4276d6e50057b46b,western_union,TIENDAS NETO BRISAS DEL GOLFO 0888,,Coatzacoalcos,VERACRUZ,,MX,+52 55 6377 4808,https://location.westernunion.com/mx/veracruz/coatzacoalcos/8e380e6adec9a6cc4276d6e50057b46b,Mo-Su 07:00-22:00,Western Union,Q861042
94eac01501221bf447cc7dcb44792670,western_union,BANCOPPEL 0916 PLAZA FORUM,,Coatzacoalcos,VERACRUZ,,MX,+52 667 758 9999,https://location.westernunion.com/mx/veracruz/coatzacoalcos/94eac01501221bf447cc7dcb44792670,Mo-Su 11:00-21:00,Western Union,Q861042
8ea4a9306e8fabf069a47fba0687239e,western_union,BANCOPPEL 0916 PLAZA FORUM,,Coatzacoalcos,VERACRUZ,,MX,+52 667 758 9999,https://location.westernunion.com/mx/veracruz/coatzacoalcos/8ea4a9306e8fabf069a47fba0687239e,Mo-Su 11:00-21:00,Western Union,Q861042
5d4817814e5882c4231c0b7851085171,western_union,BANCOPPEL 0916 PLAZA FORUM,,Coatzacoalcos,VERACRUZ,,MX,+52 667 758 9999,https://location.westernunion.com/mx/veracruz/coatzacoalcos/5d4817814e5882c4231c0b7851085171,Mo-Su 11:00-21:00,Western Union,Q861042
1d53632d78ff634e1a40463ca875ac77,western_union,FARM GUAD AV JIRAFAS VER,,Coatzacoalcos,VERACRUZ,,MX,+52 800 833 4700,https://location.westernunion.com/mx/veracruz/coatzacoalcos/1d53632d78ff634e1a40463ca875ac77,Mo-Su 08:00-22:00,Western Union,Q861042
d72e849f99ce848928befe88c485a1ef,western_union,FARM GUAD AV JIRAFAS VER,,Coatzacoalcos,VERACRUZ,,MX,+52 800 833 4700,https://location.westernunion.com/mx/veracruz/coatzacoalcos/d72e849f99ce848928befe88c485a1ef,Mo-Su 08:00-22:00,Western Union,Q861042
086e5ec185f59f089a65b27313ddd30a,western_union,FARM GUAD AV JIRAFAS VER,,Coatzacoalcos,VERACRUZ,,MX,+52 800 833 4700,https://location.westernunion.com/mx/veracruz/coatzacoalcos/086e5ec185f59f089a65b27313ddd30a,Mo-Su 08:00-22:00,Western Union,Q861042
05987fdd3ca8a9ce59d0c76e5fa9dde9,western_union,OXXO MARTIRES MTT,,Coatzacoalcos,VERACRUZ,,MX,+52 81 8389 2121,https://location.westernunion.com/mx/veracruz/coatzacoalcos/05987fdd3ca8a9ce59d0c76e5fa9dde9,Mo-Su 08:00-22:00,Western Union,Q861042
25498fbfdbca6b8a7fe3614bf7a2b9a5,western_union,OXXO MARTIRES MTT,,Coatzacoalcos,VERACRUZ,,MX,+52 81 8389 2121,https://location.westernunion.com/mx/veracruz/coatzacoalcos/25498fbfdbca6b8a7fe3614bf7a2b9a5,Mo-Su 08:00-22:00,Western Union,Q861042
36f5c0c28ca9bd5531efe73d2ce1e7db,western_union,OXXO MARTIRES MTT,,Coatzacoalcos,VERACRUZ,,MX,+52 81 8389 2121,https://location.westernunion.com/mx/veracruz/coatzacoalcos/36f5c0c28ca9bd5531efe73d2ce1e7db,Mo-Su 08:00-22:00,Western Union,Q861042
a3b3711e1b54d7b75ac177c38b43fefb,western_union,OXXO TERESA MTT,,Coatzacoalcos,VERACRUZ,,MX,+52 81 8389 2121,https://location.westernunion.com/mx/veracruz/coatzacoalcos/a3b3711e1b54d7b75ac177c38b43fefb,Mo-Su 08:00-22:00,Western Union,Q861042
b40815f9d0763102b3663740fc3407b5,western_union,OXXO TERESA MTT,,Coatzacoalcos,VERACRUZ,,MX,+52 81 8389 2121,https://location.westernunion.com/mx/veracruz/coatzacoalcos/b40815f9d0763102b3663740fc3407b5,Mo-Su 08:00-22:00,Western Union,Q861042
106d737ac8d9d64e8ca0ef859f06f455,western_union,OXXO TERESA MTT,,Coatzacoalcos,VERACRUZ,,MX,+52 81 8389 2121,https://location.westernunion.com/mx/veracruz/coatzacoalcos/106d737ac8d9d64e8ca0ef859f06f455,Mo-Su 08:00-22:00,Western Union,Q861042
3b52f1fc931c2e5e4289083930b5b087,western_union,SORIANA SENDERO COATZACOALCOS,,Coatzacoalcos,VERACRUZ,,MX,(+52) 81-1112009,https://location.westernunion.com/mx/veracruz/coatzacoalcos/3b52f1fc931c2e5e4289083930b5b087,Mo-Su 08:00-23:00,Western Union,Q861042
12798e96642afe76f3ca482b9cc6c5f7,western_union,SORIANA SENDERO COATZACOALCOS,,Coatzacoalcos,VERACRUZ,,MX,(+52) 81-1112009,https://location.westernunion.com/mx/veracruz/coatzacoalcos/12798e96642afe76f3ca482b9cc6c5f7,Mo-Su 08:00-23:00,Western Union,Q861042
2fbde679fc51d752274aab02fe51fb1d,western_union,SORIANA SENDERO COATZACOALCOS 670,,Coatzacoalcos,VERACRUZ,,MX,(+52) 81-1112009,https://location.westernunion.com/mx/veracruz/coatzacoalcos/2fbde679fc51d752274aab02fe51fb1d,Mo-Su 08:00-23:00,Western Union,Q861042
621879f2fda5bda22efb0a7afc82c6c8,western_union,SOL COATZACOALCOS,,Coatzacoalcos,VERACRUZ,,MX,+52 800 833 4700,https://location.westernunion.com/mx/veracruz/coatzacoalcos/621879f2fda5bda22efb0a7afc82c6c8,Mo-Su 09:00-21:00,Western Union,Q861042
ff4a2cac724977adb418ece0db319852,western_union,OXXO PUNTA DEL MAR MTT,,Coatzacoalcos,VERACRUZ,,MX,+52 81 8389 2121,https://location.westernunion.com/mx/veracruz/coatzacoalcos/ff4a2cac724977adb418ece0db319852,Mo-Su 08:00-22:00,Western Union,Q861042
e8167478bea5677eeaafc2c6a32892b8,western_union,OXXO PUNTA DEL MAR MTT,,Coatzacoalcos,VERACRUZ,,MX,+52 81 8389 2121,https://location.westernunion.com/mx/veracruz/coatzacoalcos/e8167478bea5677eeaafc2c6a32892b8,Mo-Su 08:00-22:00,Western Union,Q861042
94e15b3173d8e6a890abc2a78d33d879,western_union,OXXO JIRAFAS MTT,,Coatzacoalcos,VERACRUZ,,MX,+52 81 8389 2121,https://location.westernunion.com/mx/veracruz/coatzacoalcos/94e15b3173d8e6a890abc2a78d33d879,Mo-Su 08:00-22:00,Western Union,Q861042
e775bd1d709e25e21941c79d01429b18,western_union,OXXO JIRAFAS MTT,,Coatzacoalcos,VERACRUZ,,MX,+52 81 8389 2121,https://location.westernunion.com/mx/veracruz/coatzacoalcos/e775bd1d709e25e21941c79d01429b18,Mo-Su 08:00-22:00,Western Union,Q861042
900bb3b001f3ceca15336ef36913b4ca,western_union,OXXO ANAYA MTT,,Coatzacoalcos,VERACRUZ,,MX,+52 81 8389 2121,https://location.westernunion.com/mx/veracruz/coatzacoalcos/900bb3b001f3ceca15336ef36913b4ca,Mo-Su 08:00-22:00,Western Union,Q861042
74622f55440898373385f75331f3618c,western_union,OXXO ANAYA MTT,,Coatzacoalcos,VERACRUZ,,MX,+52 81 8389 2121,https://location.westernunion.com/mx/veracruz/coatzacoalcos/74622f55440898373385f75331f3618c,Mo-Su 08:00-22:00,Western Union,Q861042
40905a1caf9d1cc9174cc50082480906,western_union,OXXO ANAYA MTT,,Coatzacoalcos,VERACRUZ,,MX,+52 81 8389 2121,https://location.westernunion.com/mx/veracruz/coatzacoalcos/40905a1caf9d1cc9174cc50082480906,Mo-Su 08:00-22:00,Western Union,Q861042
ab76c7870537e49e0347a382400b971b,western_union,OXXO LOMAS MTT,,Coatzacoalcos,VERACRUZ,,MX,+52 81 8389 2121,https://location.westernunion.com/mx/veracruz/coatzacoalcos/ab76c7870537e49e0347a382400b971b,Mo-Su 08:00-22:00,Western Union,Q861042
d8cc7f1a5cc1b80b8aef1632e77a7b1f,western_union,OXXO LOMAS MTT,,Coatzacoalcos,VERACRUZ,,MX,+52 81 8389 2121,https://location.westernunion.com/mx/veracruz/coatzacoalcos/d8cc7f1a5cc1b80b8aef1632e77a7b1f,Mo-Su 08:00-22:00,Western Union,Q861042
03af7ada41557d74ccc1bba4a4112422,western_union,OXXO LOMAS MTT,,Coatzacoalcos,VERACRUZ,,MX,+52 81 8389 2121,https://location.westernunion.com/mx/veracruz/coatzacoalcos/03af7ada41557d74ccc1bba4a4112422,Mo-Su 08:00-22:00,Western Union,Q861042
c3a1ec7ff9a484434cbca07f37ad32f8,western_union,OXXO ITESCO MTT,,Coatzacoalcos,VERACRUZ,,MX,+52 81 8389 2121,https://location.westernunion.com/mx/veracruz/coatzacoalcos/c3a1ec7ff9a484434cbca07f37ad32f8,Mo-Su 08:00-22:00,Western Union,Q861042
70a332cb55230c93acb8aaf306fd7f08,western_union,OXXO ITESCO MTT,,Coatzacoalcos,VERACRUZ,,MX,+52 81 8389 2121,https://location.westernunion.com/mx/veracruz/coatzacoalcos/70a332cb55230c93acb8aaf306fd7f08,Mo-Su 08:00-22:00,Western Union,Q861042
0cee9552565b2f648583a9827b11ef80,western_union,OXXO PESCADOR MTT,,Coatzacoalcos,VERACRUZ,,MX,+52 81 8389 2121,https://location.westernunion.com/mx/veracruz/coatzacoalcos/0cee9552565b2f648583a9827b11ef80,Mo-Su 08:00-22:00,Western Union,Q861042
1b31c0b7913bc3a7c761016eb9bdae9d,western_union,OXXO PESCADOR MTT,,Coatzacoalcos,VERACRUZ,,MX,+52 81 8389 2121,https://location.westernunion.com/mx/veracruz/coatzacoalcos/1b31c0b7913bc3a7c761016eb9bdae9d,Mo-Su 08:00-22:00,Western Union,Q861042
56cc176981819a772b55e210a527ae68,western_union,OXXO PESCADOR MTT,,Coatzacoalcos,VERACRUZ,,MX,+52 81 8389 2121,https://location.westernunion.com/mx/veracruz/coatzacoalcos/56cc176981819a772b55e210a527ae68,Mo-Su 08:00-22:00,Western Union,Q861042
f9049de4449371444e3138026a1b7a88,western_union,OXXO MAR CARIBE MTT,,Coatzacoalcos,VERACRUZ,,MX,+52 81 8389 2121,https://location.westernunion.com/mx/veracruz/coatzacoalcos/f9049de4449371444e3138026a1b7a88,Mo-Su 08:00-22:00,Western Union,Q861042
b201b6e3e7f5ba0624a2bff660bee71a,western_union,OXXO MAR CARIBE MTT,,Coatzacoalcos,VERACRUZ,,MX,+52 81 8389 2121,https://location.westernunion.com/mx/veracruz/coatzacoalcos/b201b6e3e7f5ba0624a2bff660bee71a,Mo-Su 08:00-22:00,Western Union,Q861042
aa6402d708e0d8cd461648af769bc752,western_union,OXXO MAR CARIBE MTT,,Coatzacoalcos,VERACRUZ,,MX,+52 81 8389 2121,https://location.westernunion.com/mx/veracruz/coatzacoalcos/aa6402d708e0d8cd461648af769bc752,Mo-Su 08:00-22:00,Western Union,Q861042
3a7196bfd6ec113d5533627262c5498c,western_union,OXXO FRANCISCO MATA MTT,,Coatzacoalcos,VERACRUZ,,MX,+52 81 8389 2121,https://location.westernunion.com/mx/veracruz/coatzacoalcos/3a7196bfd6ec113d5533627262c5498c,Mo-Su 08:00-22:00,Western Union,Q861042
5dacf23010ea31b170217661c8ce4ac5,western_union,OXXO FRANCISCO MATA MTT,,Coatzacoalcos,VERACRUZ,,MX,+52 81 8389 2121,https://location.westernunion.com/mx/veracruz/coatzacoalcos/5dacf23010ea31b170217661c8ce4ac5,Mo-Su 08:00-22:00,Western Union,Q861042
d7a45196c15e82516c53106355f0f1e5,western_union,OXXO FRANCISCO MATA MTT,,Coatzacoalcos,VERACRUZ,,MX,+52 81 8389 2121,https://location.westernunion.com/mx/veracruz/coatzacoalcos/d7a45196c15e82516c53106355f0f1e5,Mo-Su 08:00-22:00,Western Union,Q861042
ce0a4dd39db776d7f9f6d2978559c3d7,western_union,OXXO QUETZALCOATL VER,,Coatzacoalcos,VERACRUZ,,MX,+52 81 8389 2121,https://location.westernunion.com/mx/veracruz/coatzacoalcos/ce0a4dd39db776d7f9f6d2978559c3d7,Mo-Su 06:00-22:00,Western Union,Q861042
1af03c8d19d99f787341d4f219e27f88,western_union,OXXO QUETZALCOATL VER,,Coatzacoalcos,VERACRUZ,,MX,+52 81 8389 2121,https://location.westernunion.com/mx/veracruz/coatzacoalcos/1af03c8d19d99f787341d4f219e27f88,Mo-Su 06:00-22:00,Western Union,Q861042
47fdf4bb7daf21dd829e355828f24265,western_union,OXXO QUETZALCOATL VER,,Coatzacoalcos,VERACRUZ,,MX,+52 81 8389 2121,https://location.westernunion.com/mx/veracruz/coatzacoalcos/47fdf4bb7daf21dd829e355828f24265,Mo-Su 06:00-22:00,Western Union,Q861042
9dbbc90b300287cd33e7c57bcc52dfd6,western_union,OXXO HUEHUETOCA MTT,,Coatzacoalcos,VERACRUZ,,MX,+52 81 8389 2121,https://location.westernunion.com/mx/veracruz/coatzacoalcos/9dbbc90b300287cd33e7c57bcc52dfd6,Mo-Su 08:00-22:00,Western Union,Q861042
