Ref,Spider,Name,Address,City,State,Zipcode,Country,Phone,Website,Hours,Brand,WikiData
26825_5,bmw_group,Dewan Motors (Pvt) Ltd. Service Only,,Islamabad,,,PK,+92 51 4100736,https://www.bmw-pakistan.com,,BMW,Q26678
26825_8,bmw_group,Dewan Motors (Pvt) Ltd. Product Display Centre (Showroom),,Islamabad,,,PK,+92 51 2871880,https://www.bmw-pakistan.com,,BMW,Q26678
pakistan#islamabad,ernst_young,EY,"Eagle Plaza, 75-West, Blue Area, Fazlul-Haq Road",Islamabad,,,PK,+92 51 111 113 937,https://www.ey.com/locations/pakistan#islamabad,,EY,Q489097
ISBPK,marriott,Islamabad Marriott Hotel,,Islamabad,,,PK,+92 51 2826121,https://www.marriott.com/ISBPK,,Marriott Hotels & Resorts,Q3918608
71999726,moneygram,HABIB METROPOLITAN BANK - #459 - ISLAMAB,,ISLAMABAD,,,PK,+92 51 2821341,,Mo-Fr 08:00-18:30; Sa 08:00-14:00; Su 00:00-24:00,MoneyGram,Q1944412
72069309,moneygram,PAKISTAN CURRENCY EXCHANGE CO PRIVATE LI,,ISLAMABAD.,,,PK,+92 51 2878446,,Mo-Su 08:00-23:00,MoneyGram,Q1944412
72069820,moneygram,PAKISTAN CURRENCY EXCHANGE CO PRIVATE LI,,ISLAMABAD.,,,PK,+92 51 2725654,,Mo-Su 08:00-23:00,MoneyGram,Q1944412
72069943,moneygram,PAKISTAN CURRENCY EXCHANGE CO PRIVATE LI,,RAWALPINDI,,,PK,+92 51 2809768,,Mo-Su 08:00-23:00,MoneyGram,Q1944412
72069956,moneygram,PAKISTAN CURRENCY EXCHANGE CO PRIVATE LI,,ISLAMABAD.,,,PK,+92 51 4862302,,Mo-Su 08:00-23:00,MoneyGram,Q1944412
72069969,moneygram,PAKISTAN CURRENCY EXCHANGE CO PRIVATE LI,,ISLAMABAD.,,,PK,+92 51 2363938,,Mo-Su 08:00-23:00,MoneyGram,Q1944412
72069985,moneygram,PAKISTAN CURRENCY EXCHANGE CO PRIVATE LI,,ISLAMABAD.,,,PK,+92 51 2701290,,Mo-Su 10:00-24:00,MoneyGram,Q1944412
72173156,moneygram,LINK INTERNATIONAL EXCHANGE COMPANY PVT,,RAWALPINDI,,,PK,+92 51 8316605,,Mo-Su 09:00-21:00,MoneyGram,Q1944412
72258327,moneygram,PAKISTAN CURRENCY EXCHANGE CO PRIVATE LI,,ISLAMABAD,,,PK,+92 51 5708610,,Mo-Su 08:00-23:00,MoneyGram,Q1944412
68921244,moneygram,HABIB METROPOLITAN BANK - ISLAMABAD - BA,,ISLAMABAD,,,PK,+92 51 5172692,,Mo-Sa 08:00-18:30; Su 00:00-24:00,MoneyGram,Q1944412
68973043,moneygram,HABIB METROPOLITAN BANK - ISLAMABAD - F,,ISLAMABAD,,,PK,+92 51 2287480,,Mo-Fr 08:00-18:30; Sa 08:00-13:30; Su 00:00-24:00,MoneyGram,Q1944412
69030697,moneygram,HABIB METROPOLITAN BANK - LAHORE - DHA P,,LAHORE,,,PK,+92 42 37185822,,Mo-Fr 08:00-18:30; Sa 08:00-13:30; Su 00:00-24:00,MoneyGram,Q1944412
72661985,moneygram,BANK AL HABIB - #322 - RAWALPINDI - BAHR,,RAWALPINDI,,,PK,+92 51 5703980,,Mo-Fr 08:00-18:00; Sa 08:00-14:00; Su 00:00-24:00,MoneyGram,Q1944412
73512460,moneygram,BANK AL HABIB - #360 - ISLAMABAD - F-8 M,,ISLAMABAD,,,PK,+92 51 2266119,,Mo-Fr 08:00-18:00; Sa 08:00-14:00; Su 00:00-24:00,MoneyGram,Q1944412
72858798,moneygram,BANK AL HABIB - #5563 - ISLAMABAD - ISLA,,ISLAMABAD,,,PK,+92 51 4861180,,Mo-Fr 08:00-18:00; Sa 08:00-14:00; Su 00:00-24:00,MoneyGram,Q1944412
72858837,moneygram,BANK AL HABIB - #5564 - ISLAMABAD - ISLA,,ISLAMABAD,,,PK,+92 51 2741642,,Mo-Fr 08:00-18:00; Sa 08:00-14:00; Su 00:00-24:00,MoneyGram,Q1944412
73621050,moneygram,BANK AL HABIB LIMITED - #5572 - ISLAMABA,,ISLAMABAD,,,PK,+92 51 5194536,,Mo-Fr 08:00-18:00; Sa 08:00-14:00; Su 00:00-24:00,MoneyGram,Q1944412
73893121,moneygram,BANK AL HABIB - #402 - ISLAMABAD - BRANC,,ISLAMABAD,,,PK,+92 51 2748570,,Mo-Fr 08:00-18:00; Sa 08:00-14:00; Su 00:00-24:00,MoneyGram,Q1944412
65274318,moneygram,MCB BANK LIMITED - #0822 - AIRPORT BRANC,,ISLAMABAD,,,PK,+92 51 5590138,,Mo-Th 08:00-13:45; Fr 08:00-12:30; Sa 10:00-13:00; Su 00:00-24:00,MoneyGram,Q1944412
65759176,moneygram,MCB BANK LIMITED - #1185,,ATTOCK,,,PK,+92 57 2640099,,Mo-Th 08:00-13:45; Fr 08:00-12:30; Sa 10:00-13:00; Su 00:00-24:00,MoneyGram,Q1944412
65762969,moneygram,MCB BANK LIMITED - #1248,,PINDI GHEB,,,PK,+92 57 2352762,,Mo-Th 08:00-13:45; Fr 08:00-12:30; Sa 10:00-13:00; Su 00:00-24:00,MoneyGram,Q1944412
65138700,moneygram,MCB BANK LIMITED - #613 - ISLAMABAD MAIN,,ISLAMABAD,,,PK,+92 51 2828225,,Mo-Th 08:00-13:45; Fr 08:00-12:30; Sa 10:00-13:00; Su 00:00-24:00,MoneyGram,Q1944412
74078903,moneygram,FAYSAL BANK LIMITED - #3526 - ISLAMABAD,,ISLAMABAD,,,PK,+92 321 2092828,,Mo-Sa 08:00-20:00; Su 00:00-24:00,MoneyGram,Q1944412
69710988,moneygram,HABIB METROPOLITAN BANK - #0405 - ISLAMA,,ISLAMABAD,,,PK,+92 51 2224237,,Mo-Fr 08:00-18:30; Sa 08:00-14:00; Su 00:00-24:00,MoneyGram,Q1944412
70492994,moneygram,HABIB METROPOLITAN BANK - #426 - ISLAMAB,,ISLAMABAD,,,PK,+92 51 2364192,,Mo-Fr 08:00-18:30; Sa 08:00-14:00; Su 00:00-24:00,MoneyGram,Q1944412
74948169,moneygram,LINK INTERNATIONAL EXCHANGE COMPANY(PVT.,,ISLAMABAD,,,PK,5479018,,Mo-Su 09:00-20:00,MoneyGram,Q1944412
74962475,moneygram,HBL CURRENCY EXCHANGE PVT LIMITED - #48,,ISLAMABAD,,,PK,+92 51 4718143,,Mo-Th 09:00-17:00; Fr 09:00-17:30; Sa 09:00-17:00; Su 00:00-24:00,MoneyGram,Q1944412
65518634,moneygram,DOLLAR EAST - BLUE AREA ISLAMABAD,,ISLAMABAD,,,PK,+92 51 2824851,,Mo-Sa 08:00-21:00; Su 00:00-24:00,MoneyGram,Q1944412
66372426,moneygram,BANK AL FALAH LIMITED - ISLAMABAD - COMS,,ISLAMABAD,,,PK,+92 21 34301526,,Mo-Sa 08:00-18:00; Su 00:00-24:00,MoneyGram,Q1944412
66373412,moneygram,BANK AL FALAH LIMITED - ISLAMABAD - F 11,,ISLAMABAD,,,PK,+92 21 34301526,,Mo-Sa 08:00-18:00; Su 00:00-24:00,MoneyGram,Q1944412
71775212,moneygram,HABIB METROPOLITAN BANK - #443 - ISLAMAB,,ISLAMABAD,,,PK,+92 51 4861172,,Mo-Fr 08:00-18:30; Sa 08:00-14:00; Su 00:00-24:00,MoneyGram,Q1944412
505584,totalenergies,TOTAL SERVICE CENTER - COCO,,ISLAMABAD,,,PK,+92 800 877 51,https://store.totalenergies.fr/en_EN/505584,24/7,TotalEnergies,Q154037
PK00183,totalenergies,Highway Fuel Filling Station,,Islamabad,,,PK,+92 333 5113720,https://store.totalenergies.fr/en_EN/PK00183,24/7,TotalEnergies,Q154037
PK00207,totalenergies,Capital Filling Station,,Islamabad,,,PK,+92 300 8479297,https://store.totalenergies.fr/en_EN/PK00207,24/7,TotalEnergies,Q154037
PK00211,totalenergies,Suleman Filling Station,,Islamabad,,,PK,+92 51 5203535,https://store.totalenergies.fr/en_EN/PK00211,24/7,TotalEnergies,Q154037
PK00227,totalenergies,Margalla Filling Station,,Islamabad,,,PK,+92 300 5522848,https://store.totalenergies.fr/en_EN/PK00227,24/7,TotalEnergies,Q154037
PK00228,totalenergies,Orchard Petroleum,,Islamabad,,,PK,+92 302 5353678,https://store.totalenergies.fr/en_EN/PK00228,24/7,TotalEnergies,Q154037
PK00286,totalenergies,CH. AMJAD AYUB PETROLEUM,,Islamabad,,,PK,+92 333 5185757,https://store.totalenergies.fr/en_EN/PK00286,24/7,TotalEnergies,Q154037
PK00487,totalenergies,SHAHNOOR FILLING STATION,,Islamabad,,,PK,,https://store.totalenergies.fr/en_EN/PK00487,24/7,TotalEnergies,Q154037
PK00493,totalenergies,TELECOM FOUNDATION WELFARE,,Islamabad,,,PK,+92 51 2833009,https://store.totalenergies.fr/en_EN/PK00493,24/7,TotalEnergies,Q154037
PK00503,totalenergies,POTHOHAR PATROLEUM PRODUCT,,Islamabad,,,PK,+92 300 5219056,https://store.totalenergies.fr/en_EN/PK00503,24/7,TotalEnergies,Q154037
PK00740,totalenergies,CHINAR SEHALA F/S,,Islamabad,,,PK,+92 348 7973188,https://store.totalenergies.fr/en_EN/PK00740,24/7,TotalEnergies,Q154037
PK00758,totalenergies,CH. MOHAMMAD AYUB PETROLEUM,,Islamabad,,,PK,+92 333 5185757,https://store.totalenergies.fr/en_EN/PK00758,24/7,TotalEnergies,Q154037
PK00805,totalenergies,Gold Flower Filling Station,,Islamabad,,,PK,+92 334 5184040,https://store.totalenergies.fr/en_EN/PK00805,24/7,TotalEnergies,Q154037
