Ref,Spider,Name,Address,City,State,Zipcode,Country,Phone,Website,Hours,Brand,WikiData
https://stores.advanceautoparts.com/tn/knoxville/2830-n-broadway-st,advance_auto_parts_us,Advance Auto Parts,,Knoxville,TN,,US,+1 865-329-6001,https://stores.advanceautoparts.com/tn/knoxville/2830-n-broadway-st,Mo-Sa 07:30-21:00; Su 09:00-20:00,Advance Auto Parts,Q4686051
3603,autozone_us,AutoZone Auto Parts Knoxville,,Knoxville,TN,,US,+1 865-824-0719,https://www.autozone.com/locations/tn/knoxville/4768-centerline-dr.html,Mo-Sa 07:30-20:00; Su 09:00-19:00,AutoZone,Q4826087
https://www.avis.com/en/locations/us/tn/knoxville/ty2,avis,Avis U S A Knoxville,,Knoxville,TN,,US,+1 865-544-5815,https://www.avis.com/en/locations/us/tn/knoxville/ty2,Mo-Fr 08:00-17:00; Sa 08:00-12:00; Su 10:00-13:00,Avis,Q791136
214670,bluerhino,Casey's General Store #4212,,Knoxville,TN,,US,+1 865-524-3482,,,Blue Rhino,Q65681213
185940,bluerhino,Kroger #506- Nashville- Fuel Site,,Knoxville,TN,,US,+1 865-523-1268,,,Blue Rhino,Q65681213
106952,bluerhino,Kroger #506- Nashville,,Knoxville,TN,,US,+1 865-523-1268,,,Blue Rhino,Q65681213
154510,bluerhino,Walgreens #03798,,Knoxville,TN,,US,+1 865-544-0123,,,Blue Rhino,Q65681213
tn/knoxville/3813-north-broadway,bojangles,"Bojangles Knoxville, TN",,Knoxville,TN,,US,+1 865-312-9571,https://locations.bojangles.com/tn/knoxville/3813-north-broadway.html,,Bojangles',Q891163
38961,citi,ATM Casey's,,Knoxville,TN,,US,,,,Citibank,Q857063
38960,citi,ATM Casey's,,Knoxville,TN,,US,,,,Citibank,Q857063
61184,citi,ATM Kroger,,Knoxville,TN,,US,,,,Citibank,Q857063
89266,citi,ATM Walgreens,,Knoxville,TN,,US,,,,Citibank,Q857063
94898,citi,ATM Weigel's #47-2,,Knoxville,TN,,US,,,,Citibank,Q857063
94897,citi,ATM Weigel's #47-1,,Knoxville,TN,,US,,,,Citibank,Q857063
,credit_union_us,City Employees Credit Union,,Knoxville,TN,,US,+1 865-521-2255,,Mo 08:00-03:30; Tu 09:00-03:30; We-Fr 08:00-03:30,,
70164773,cricket_wireless,Cricket Wireless Authorized Retailer,,Knoxville,TN,,US,+1 865-219-1384,https://www.cricketwireless.com/stores/ll/US/TN/Knoxville/2013-N-Broadway-St,Mo-Sa 10:00-20:00; Su 12:00-18:00,Cricket Wireless,Q5184987
5466,dominos_pizza_us,Domino's Pizza,,Knoxville,TN,,US,+1 865-525-3030,https://pizza.dominos.com/tennessee/knoxville/900-n-broadway,Mo-Th 10:30-00:14; Fr-Sa 10:30-01:00; Su 10:30-00:14,Domino's,Q839466
5458,dominos_pizza_us,Domino's Pizza,,Knoxville,TN,,US,+1 865-507-4747,https://pizza.dominos.com/tennessee/knoxville/4943-millertown-pike,Mo-Th 10:30-24:00; Fr-Sa 10:30-01:00; Su 10:30-24:00,Domino's,Q839466
200324282,exxonmobil,REGAL TRADERS,,KNOXVILLE,TN,,US,+1 865-546-0729,https://www.exxon.com/en/find-station/exxon-knoxville-tn-regaltraders-200324282,Mo-Su 05:30-00:00,Exxon,Q109675651
https://local.fedex.com/#25205367,fedex,,,Knoxville,TN,,US,+1 800-463-3339,https://local.fedex.com/en-us/tn/knoxville/aczwe,,FedEx,Q459477
https://local.fedex.com/#25458582,fedex,,,Knoxville,TN,,US,+1 800-463-3339,https://local.fedex.com/en-us/tn/knoxville/00hn6,,FedEx,Q459477
303590,firestone_auto_care,Firestone Complete Auto Care,,Knoxville,TN,,US,+1 865-622-6267,https://local.firestonecompleteautocare.com/tennessee/knoxville/2324-n-broadway/,,Firestone,Q420837
2753,first_cash,Cash America Pawn,,Knoxville,TN,,US,+1 865-546-7296,,,Cash America,Q5048636
2754,first_cash,Cash America Pawn,,Knoxville,TN,,US,+1 865-522-5320,,,Cash America,Q5048636
1978,fresenius_kidney_care_us,Fresenius Kidney Care North Knoxville,,Knoxville,TN,,US,+1 800-881-5101,https://www.freseniuskidneycare.com/dialysis-centers/tennessee/1978,Mo 04:30-16:30; We 04:30-16:30; Fr 04:30-16:30,,
f8127ce1-458a-e111-8dde-005056934050,goodwill,Broadway Retail Store,,Knoxville,TN,,US,+1 865-524-0245,https://www.goodwill.org/locator/location/?store=ZjgxMjdjZTEtNDU4YS1lMTExLThkZGUtMDA1MDU2OTM0MDUw&lat=MzUuOTkxMDY=&lng=LTgzLjkyMDA4,,Goodwill,Q5583655
https://locations.ironmountain.com/tn/knoxville/733/,iron_mountain,"Iron Mountain in 1340 Mitchell Street, Knoxville, Tennessee | Secure Shredding, Scanning, IT Asset Disposition, & Records Management",,Knoxville,TN,,US,+1 800-899-4766,https://locations.ironmountain.com/tn/knoxville/733/,,Iron Mountain Incorporated,Q1673079
https://office.jacksonhewitt.com/#27575869,jackson_hewitt,Jackson Hewitt,,Knoxville,TN,,US,+1 865-938-1040,https://office.jacksonhewitt.com/tax-preparation-services-locations/en/tn/knoxville/2115-east-magnolia-ave/10609,Mo-Fr 10:00-18:00; Sa 10:00-16:00; Su 13:00-17:00,Jackson Hewitt,Q6117132
https://locations.kfc.com/#11247032,kfc,Chicken Nuggets Near Knoxville,,Knoxville,TN,,US,,https://locations.kfc.com/tn/knoxville/2918-n-broadway-street/chickennugget,Mo-Su 10:00-24:00,KFC,Q524757
https://locations.kfc.com/#12434797,kfc,Chicken Nuggets Near Knoxville,,Knoxville,TN,,US,,https://locations.kfc.com/tn/knoxville/2456-e-magnolia-avenue/chickennugget,Mo-Su 10:00-24:00,KFC,Q524757
159810,marathon_petroleum_us,Express Stop,,KNOXVILLE,TN,,US,+1 865-637-5579,,,Marathon,Q458363
161755,marathon_petroleum_us,Woodland Market and Deli,,Knoxville,TN,,US,+1 865-544-0007,,,Marathon,Q458363
361,ocharleys_us,O'Charley's,,Knoxville,TN,,US,+1 865-524-9114,https://ocharleys.olo.com/menu/east-town-tn/,,O'Charley's,Q7071703
https://locations.oreillyauto.com/tn/knoxville/wiper-installation-927.html,oreilly,Your Knoxville O'Reilly Auto Parts Store,,Knoxville,TN,,US,+1 865-525-0421,https://locations.oreillyauto.com/tn/knoxville/wiper-installation-927.html,Mo-Sa 07:00-21:00; Su 08:00-21:00,O'Reilly Auto Parts,Q7071951
https://locations.oreillyauto.com/tn/knoxville/battery-testing-927.html,oreilly,Your Knoxville O'Reilly Auto Parts Store,,Knoxville,TN,,US,+1 865-525-0421,https://locations.oreillyauto.com/tn/knoxville/battery-testing-927.html,Mo-Sa 07:00-21:00; Su 08:00-21:00,O'Reilly Auto Parts,Q7071951
https://locations.oreillyauto.com/tn/knoxville/check-engine-light-testing-927.html,oreilly,Your Knoxville O'Reilly Auto Parts Store,,Knoxville,TN,,US,+1 865-525-0421,https://locations.oreillyauto.com/tn/knoxville/check-engine-light-testing-927.html,Mo-Sa 07:00-21:00; Su 08:00-21:00,O'Reilly Auto Parts,Q7071951
https://locations.oreillyauto.com/tn/knoxville/autopartes-927.html,oreilly,Tu tienda O'Reilly Auto Parts en Knoxville,,Knoxville,TN,,US,+1 865-525-0421,https://locations.oreillyauto.com/tn/knoxville/autopartes-927.html,Mo-Sa 07:00-21:00; Su 08:00-21:00,O'Reilly Auto Parts,Q7071951
041058,penske,Home Depot #0731,,KNOXVILLE,TN,,US,+1 865-540-3921,https://www.pensketruckrental.com/locations/us/tennessee/knoxville/041058/,,Penske,Q81234570
041010,penske,Penske Knoxville,,KNOXVILLE,TN,,US,+1 865-637-4431,https://www.pensketruckrental.com/locations/us/tennessee/knoxville/041010/,,Penske,Q81234570
home-depot-0731-9130,ppgpaints,HOME DEPOT 0731,,"Knoxville, ",TN,,US,+1 865-637-9600,https://www.ppgpaints.com/store-locator/us/tennessee/knoxville-paint-stores/home-depot-0731-9130,,PPG Paints,Q83891559
graning-paint-co-32683,ppgpaints,GRANING PAINT CO,,"Knoxville, ",TN,,US,+1 865-546-4881,https://www.ppgpaints.com/store-locator/us/tennessee/knoxville-paint-stores/graning-paint-co-32683,,PPG Paints,Q83891559
2142,rentacenter,Rent-A-Center,,Knoxville,TN,,US,+1 865-522-2313,https://locations.rentacenter.com/tennessee/knoxville/2009-n-broadway-st/,Mo-Sa 10:00-18:00,Rent-A-Center,Q7313497
https://restaurants.subway.com/#14900578,subway,Subway,,Knoxville Knox,TN,,US,+1 865-525-6685,https://restaurants.subway.com/united-states/tn/knoxville/3121-broadway,Mo-Sa 07:00-23:00; Su 09:00-23:00,Subway,Q244457
https://restaurants.subway.com/#14908749,subway,Subway Weigel Food Store,,Knoxville Knox,TN,,US,+1 865-523-9292,https://restaurants.subway.com/united-states/tn/knoxville/1325-n-cherry-street,Mo-Su 09:00-22:00,Subway,Q244457
https://locations.tacobell.com/#6145280,taco_bell,Taco Bell,,Knoxville,TN,,US,+1 865-673-5816,https://locations.tacobell.com/tn/knoxville/2085-n--broadway-st-.html,Mo-Su 08:00-03:00,Taco Bell,Q752941
5HSF,tmobile_us,Charlie Haun Dr & Washington Pike,,Knoxville,TN,,US,+1 865-633-9454,https://www.t-mobile.com/store-locator/tn/knoxville/charlie-haun-dr-washington-pike,,T-Mobile,Q3511885
1375356,usps,NORTH KNOXVILLE,,KNOXVILLE,TN,,US,+1 865-525-2039,,Mo-Fr 09:00-17:00; Sa 09:00-12:00,United States Postal Service,Q668687
3791700053,usps_collection_boxes,USPS COLLECTION BOX - BLUE BOX,1127 N BROADWAY ST,KNOXVILLE,TN,,US,,,,United States Postal Service,Q668687
3791700041,usps_collection_boxes,USPS COLLECTION BOX - BLUE BOX,2021 N BROADWAY ST,KNOXVILLE,TN,,US,,,,United States Postal Service,Q668687
3791700054,usps_collection_boxes,USPS COLLECTION BOX - PO LOBBY,2600 N BROADWAY ST,KNOXVILLE,TN,,US,,,,United States Postal Service,Q668687
3791700056,usps_collection_boxes,USPS COLLECTION BOX - PO LOBBY,2600 N BROADWAY ST,KNOXVILLE,TN,,US,,,,United States Postal Service,Q668687
3791700040,usps_collection_boxes,USPS COLLECTION BOX - BLUE BOX,2600 N BROADWAY ST,KNOXVILLE,TN,,US,,,,United States Postal Service,Q668687
3791700039,usps_collection_boxes,USPS COLLECTION BOX - BLUE BOX,2600 N BROADWAY ST,KNOXVILLE,TN,,US,,,,United States Postal Service,Q668687
3791700038,usps_collection_boxes,USPS COLLECTION BOX - BLUE BOX,2600 N BROADWAY ST,KNOXVILLE,TN,,US,,,,United States Postal Service,Q668687
3791700035,usps_collection_boxes,USPS COLLECTION BOX - BLUE BOX,4434 N BROADWAY ST,KNOXVILLE,TN,,US,,,,United States Postal Service,Q668687
3791700034,usps_collection_boxes,USPS COLLECTION BOX - BLUE BOX,4710 CENTERLINE DR,KNOXVILLE,TN,,US,,,,United States Postal Service,Q668687
,visa,,,KNOXVILLE,TN,,US,,,,,
,visa,,,KNOXVILLE,TN,,US,,,,,
,visa,,,KNOXVILLE,TN,,US,,,,,
,visa,,,KNOXVILLE,TN,,US,,,,,
,visa,,,KNOXVILLE,TN,,US,,,,,
,visa,,,KNOXVILLE,TN,,US,,,,,
,visa,,,KNOXVILLE,TN,,US,,,,,
,visa,,,KNOXVILLE,TN,,US,,,,,
,visa,,,KNOXVILLE,TN,,US,,,,,
,visa,,,KNOXVILLE,TN,,US,,,,,
,visa,,,KNOXVILLE,TN,,US,,,,,
,visa,,,KNOXVILLE,TN,,US,,,,,
,visa,,,KNOXVILLE,TN,,US,,,,,
,visa,,,KNOXVILLE,TN,,US,,,,,
,visa,,,KNOXVILLE,TN,,US,,,,,
,visa,,,KNOXVILLE,TN,,US,,,,,
,visa,,,KNOXVILLE,TN,,US,,,,,
,visa,,,KNOXVILLE,TN,,US,,,,,
,visa,,,KNOXVILLE,TN,,US,,,,,
,visa,,,KNOXVILLE,TN,,US,,,,,
,visa,,,KNOXVILLE,TN,,US,,,,,
,visa,,,KNOXVILLE,TN,,US,,,,,
,visa,,,KNOXVILLE,TN,,US,,,,,
,visa,,,KNOXVILLE,TN,,US,,,,,
,visa,,,KNOXVILLE,TN,,US,,,,,
,visa,,,KNOXVILLE,TN,,US,,,,,
,visa,,,KNOXVILLE,TN,,US,,,,,
,visa,,,KNOXVILLE,TN,,US,,,,,
,visa,,,KNOXVILLE,TN,,US,,,,,
,visa,,,KNOXVILLE,TN,,US,,,,,
,visa,,,KNOXVILLE,TN,,US,,,,,
,visa,,,KNOXVILLE,TN,,US,,,,,
,visa,,,KNOXVILLE,TN,,US,,,,,
,visa,,,KNOXVILLE,TN,,US,,,,,
,visa,,,KNOXVILLE,TN,,US,,,,,
,visa,,,KNOXVILLE,TN,,US,,,,,
,visa,,,KNOXVILLE,TN,,US,,,,,
,visa,,,KNOXVILLE,TN,,US,,,,,
,visa,,,KNOXVILLE,TN,,US,,,,,
,visa,,,KNOXVILLE,TN,,US,,,,,
,visa,,,KNOXVILLE,TN,,US,,,,,
,visa,,,KNOXVILLE,TN,,US,,,,,
,visa,,,KNOXVILLE,TN,,US,,,,,
,visa,,,KNOXVILLE,TN,,US,,,,,
,visa,,,KNOXVILLE,TN,,US,,,,,
,visa,,,KNOXVILLE,TN,,US,,,,,
,visa,,,KNOXVILLE,TN,,US,,,,,
https://www.walgreens.com/locator/walgreens-4935+millertown+pike-knoxville-tn-37917/id=21264,walgreens,Walgreens,,Knoxville,TN,,US,+1 865-867-3031,https://www.walgreens.com/locator/walgreens-4935+millertown+pike-knoxville-tn-37917/id=21264,,Walgreens,Q1591889
https://www.walgreens.com/locator/walgreens-2400+n+broadway+st-knoxville-tn-37917/id=3798,walgreens,Walgreens,,Knoxville,TN,,US,+1 865-544-0123,https://www.walgreens.com/locator/walgreens-2400+n+broadway+st-knoxville-tn-37917/id=3798,Mo-Su 07:00-22:00,Walgreens,Q1591889
https://locations.wendys.com/#25065639,wendys,"Wendy's 5011 Millertown in Knoxville, TN",,Knoxville,TN,,US,+1 865-246-6751,https://locations.wendys.com/united-states/tn/knoxville/5011-millertown-pike,"Mo-Su 06:30-10:30,06:30-22:00",Wendy's,Q550258
https://locations.wendys.com/#9253370,wendys,"Wendy's Broadway in Knoxville, TN",,Knoxville,TN,,US,+1 865-999-4633,https://locations.wendys.com/united-states/tn/knoxville/3000-broadway-ne,"Mo-Su 06:30-10:30,09:00-22:00",Wendy's,Q550258
1c2848fc3e306b356a965d1a10953e9a,western_union,ADVANCE FINANCIAL #68,,Knoxville,TN,,US,+1 865-337-8028,https://location.westernunion.com/us/tn/knoxville/1c2848fc3e306b356a965d1a10953e9a,,Western Union,Q861042
806,world_finance_us,,"2115 E Magnolia Ave Ste C, Knoxville, TN, 37917",Knoxville,TN,,US,+1 865-544-0933,https://www.loansbyworld.com/branches/branch-806,Mo-Fr 09:00-17:30; Sa 09:00-12:00,World Finance,Q3569971
charles-w-cansler-family-ymca,ymca,Charles W Cansler Family YMCA,616 Jessamine St,Knoxville,TN,,US,+1 865-637-9622,https://www.ymca.org/locations/charles-w-cansler-family-ymca,Mo-Fr 05:30-21:00; Sa 08:00-18:00; Su 13:00-17:00,YMCA,Q157169
