Ref,Spider,Name,Address,City,State,Zipcode,Country,Phone,Website,Hours,Brand,WikiData
160302,bluerhino,Ace - Diboll Ace Hdw #16169 (Seven-D Farms),,Diboll,TX,,US,+1 936-829-0330,,,Blue Rhino,Q65681213
193382,bluerhino,Brookshire Brothers #35,,Diboll,TX,,US,+1 936-829-4366,,,Blue Rhino,Q65681213
352591,chevron,Chevron Station #352591,1605 N. TEMPLE DRIVE,DIBOLL,TX,,US,+1 936-564-4801,,,Chevron,Q319642
307561,chevron,Chevron Station #307561,701 SOUTH TEMPLE DRIVE,DIBOLL,TX,,US,+1 936-829-5691,,,Chevron,Q319642
208-n-temple-drive,churchs_chicken,N. Temple Drive,,Diboll,TX,,US,+1 936-829-4464,https://locations.churchs.com/tx/diboll/208-n-temple-drive,,Church's Chicken,Q1089932
https://local.fedex.com/#25236214,fedex,,,Diboll,TX,,US,+1 800-463-3339,https://local.fedex.com/en-us/tx/diboll/lfkbe,,FedEx,Q459477
c331f951-458a-e111-8dde-005056934050,goodwill,Goodwill Diboll Store and Donation Center,,Diboll,TX,,US,+1 936-829-3353,https://www.goodwill.org/locator/location/?store=YzMzMWY5NTEtNDU4YS1lMTExLThkZGUtMDA1MDU2OTM0MDUw&lat=MzEuMjE0MQ==&lng=LTk0Ljc3NDcy,,Goodwill,Q5583655
https://locations.jackinthebox.com/us/tx/diboll/400-n-temple-dr,jackinthebox,Jack in the Box,,Diboll,TX,,US,+1 936-829-3344,https://locations.jackinthebox.com/us/tx/diboll/400-n-temple-dr,Mo-Su 06:00-01:00,Jack in the Box,Q1538507
https://locations.oreillyauto.com/tx/diboll/check-engine-light-testing-5661.html,oreilly,Your Diboll O'Reilly Auto Parts Store,,Diboll,TX,,US,+1 936-829-0416,https://locations.oreillyauto.com/tx/diboll/check-engine-light-testing-5661.html,Mo-Sa 07:30-21:00; Su 08:00-18:00,O'Reilly Auto Parts,Q7071951
https://locations.oreillyauto.com/tx/diboll/battery-testing-5661.html,oreilly,Your Diboll O'Reilly Auto Parts Store,,Diboll,TX,,US,+1 936-829-0416,https://locations.oreillyauto.com/tx/diboll/battery-testing-5661.html,Mo-Sa 07:30-21:00; Su 08:00-18:00,O'Reilly Auto Parts,Q7071951
https://locations.oreillyauto.com/tx/diboll/wiper-installation-5661.html,oreilly,Your Diboll O'Reilly Auto Parts Store,,Diboll,TX,,US,+1 936-829-0416,https://locations.oreillyauto.com/tx/diboll/wiper-installation-5661.html,Mo-Sa 07:30-21:00; Su 08:00-18:00,O'Reilly Auto Parts,Q7071951
https://locations.oreillyauto.com/tx/diboll/autopartes-5661.html,oreilly,Tu tienda O'Reilly Auto Parts en Diboll,,Diboll,TX,,US,+1 936-829-0416,https://locations.oreillyauto.com/tx/diboll/autopartes-5661.html,Mo-Sa 07:30-21:00; Su 08:00-18:00,O'Reilly Auto Parts,Q7071951
tx_diboll_190-n-temple-dr,pizza_hut_us,190 N Temple Dr,,Diboll,TX,,US,+1 936-829-9705,https://locations.pizzahut.com/tx/diboll/190-n-temple-dr,,Pizza Hut,Q191615
1241,roadys_us,Majors 660 Diboll Truck Plaza,,Diboll,TX,,US,+1 936-829-1100,,24/7,Roadyâ€™s Truck Stops,Q7339701
1360830,usps,DIBOLL,,DIBOLL,TX,,US,+1 936-829-5412,,Mo-Fr 08:00-15:45,United States Postal Service,Q668687
7594106470,usps_collection_boxes,USPS COLLECTION BOX - PO LOBBY,302 N HENDRIX AVE,DIBOLL,TX,,US,,,,United States Postal Service,Q668687
7594106467,usps_collection_boxes,USPS COLLECTION BOX - BLUE BOX,302 N HENDRIX AVE,DIBOLL,TX,,US,,,,United States Postal Service,Q668687
7594106462,usps_collection_boxes,USPS COLLECTION BOX - PO LOBBY,302 N HENDRIX AVE,DIBOLL,TX,,US,,,,United States Postal Service,Q668687
,visa,,,DIBOLL,TX,,US,,,,,
,visa,,,DIBOLL,TX,,US,,,,,
,visa,,,DIBOLL,TX,,US,,,,,
,visa,,,DIBOLL,TX,,US,,,,,
,visa,,,DIBOLL,TX,,US,,,,,
,visa,,,DIBOLL,TX,,US,,,,,
