Ref,Spider,Name,Address,City,State,Zipcode,Country,Phone,Website,Hours,Brand,WikiData
4197,abc_pl,abc,,Przedbórz,podkarpackie,,PL,,,,abc,Q11683985
3753,abc_pl,abc,,Werynia,podkarpackie,,PL,,,,abc,Q11683985
11437,abc_pl,abc,,Domatków,podkarpackie,,PL,,,,abc,Q11683985
411,bricomarche_pl,Bricomarché Kolbuszowa,,Kolbuszowa,podkarpackie,,PL,,https://www.bricomarche.pl/sklep/bricomarche-kolbuszowa,,Bricomarché,Q2925147
https://www.credit-agricole.pl/kontakt/oddzial/21065-kolbuszowa-rzeszowska,credit_agricole_pl,"Credit Agricole Rzeszowska 10 lok. 0.04, Kolbuszowa",,Kolbuszowa,podkarpackie,,PL,19 019,https://www.credit-agricole.pl/kontakt/oddzial/21065-kolbuszowa-rzeszowska,Mo-Fr 09:00-17:00,Credit Agricole,Q590952
281,dr_max,"Apteka Dr.Max, Piłsudskiego 9, Kolbuszowa",,Kolbuszowa,Podkarpackie,,PL,+48 17 227 04 90,https://www.drmax.pl/apteki/kolbuszowa-pisudskiego-9,,Dr. Max,Q56317371
13070,groszek_pl,Groszek,,Nowa Wieś,podkarpackie,,PL,,,,Groszek,Q9280965
13069,groszek_pl,Groszek,,Kolbuszowa Górna,podkarpackie,,PL,,,,Groszek,Q9280965
370,mcdonalds_pl,McDonald's,,Kolbuszowa,Podkarpackie,,PL,+48 533 217 795,https://mcdonalds.pl/restauracje/podkarpackie/kolbuszowa/kolbuszowa-ul-towarowa-1-a,Mo-Su 08:00-23:00,McDonald's,Q38076
KGL01M,paczkomat_inpost_pl,Przy wejściu,,Kolbuszowa Górna,podkarpackie,,PL,,https://inpost.pl/paczkomat-kolbuszowa-gorna-kgl01m-kolbuszowa-gorna-paczkomaty-podkarpackie,24/7,Paczkomat,Q110970254
KLB01A,paczkomat_inpost_pl,Przy markecie Intermarche,,Kolbuszowa,podkarpackie,,PL,,https://inpost.pl/paczkomat-kolbuszowa-klb01a-partyzantow-paczkomaty-podkarpackie,24/7,Paczkomat,Q110970254
KLB01N,paczkomat_inpost_pl,Przy sklepie spożywczym Orzech,,Kolbuszowa,podkarpackie,,PL,,https://inpost.pl/paczkomat-kolbuszowa-klb01n-11-listopada-paczkomaty-podkarpackie,24/7,Paczkomat,Q110970254
KLB02A,paczkomat_inpost_pl,Stacja paliw Circle K,,Kolbuszowa,podkarpackie,,PL,,https://inpost.pl/paczkomat-kolbuszowa-klb02a-rzeszowska-paczkomaty-podkarpackie,24/7,Paczkomat,Q110970254
KLB02N,paczkomat_inpost_pl,Przy sklepie Orzech,,Kolbuszowa,podkarpackie,,PL,,https://inpost.pl/paczkomat-kolbuszowa-klb02n-bora-komorowskiego-paczkomaty-podkarpackie,24/7,Paczkomat,Q110970254
KLB03M,paczkomat_inpost_pl,Z prawej strony budynku na ścianie sklepu Lidl,,Kolbuszowa,podkarpackie,,PL,,https://inpost.pl/paczkomat-kolbuszowa-klb03m-rzeszowska-paczkomaty-podkarpackie,24/7,Paczkomat,Q110970254
KLB04M,paczkomat_inpost_pl,"Po prawej stronie parkingu sklepu Groszek, przy zakładach mięsnych |Karkut|",,Kolbuszowa,podkarpackie,,PL,,https://inpost.pl/paczkomat-kolbuszowa-klb04m-pilsudskiego-paczkomaty-podkarpackie,24/7,Paczkomat,Q110970254
KLB05M,paczkomat_inpost_pl,Przy wejściu,,Kolbuszowa,podkarpackie,,PL,,https://inpost.pl/paczkomat-kolbuszowa-klb05m-jana-pawla-ii-paczkomaty-podkarpackie,24/7,Paczkomat,Q110970254
POP-KLB5,paczkomat_inpost_pl,AL.CAPONE,,Kolbuszowa,podkarpackie,,PL,,https://inpost.pl/paczkomat-kolbuszowa-pop-klb5-obroncow-pokoju-paczkomaty-podkarpackie,Mo-Sa 06:00-24:00; Su 08:00-23:00,Paczkomat,Q110970254
POP-KOU3,paczkomat_inpost_pl,AL.CAPONE,,Kolbuszowa Dolna,podkarpackie,,PL,,https://inpost.pl/paczkomat-kolbuszowa-dolna-pop-kou3-tyszkiewiczow-paczkomaty-podkarpackie,Mo-Sa 08:00-24:00; Su 08:00-23:00,Paczkomat,Q110970254
POP-KUA1,paczkomat_inpost_pl,EPAKA,,Kolbuszowa,podkarpackie,,PL,,https://inpost.pl/paczkomat-kolbuszowa-pop-kua1-jana-bytnara-paczkomaty-podkarpackie,Mo-Fr 08:00-17:00; Sa 09:00-13:00,Paczkomat,Q110970254
WYN01M,paczkomat_inpost_pl,Pracownia Florystyczna,,Werynia,podkarpackie,,PL,,https://inpost.pl/paczkomat-werynia-wyn01m-werynia-paczkomaty-podkarpackie,24/7,Paczkomat,Q110970254
ZAE01M,paczkomat_inpost_pl,Z prawej strony  sklepu,,Zarębki,podkarpackie,,PL,,https://inpost.pl/paczkomat-zarebki-zae01m-zarebki-paczkomaty-podkarpackie,24/7,Paczkomat,Q110970254
231,play_pl,Salon Play,Ul. Ruczki 10/2,Kolbuszowa,podkarpackie,,PL,+48 790 031 555,,Mo-Fr 09:00-17:00; Sa 09:00-14:00,Play,Q7202998
230822,poczta_polska_pl,UP Kolbuszowa,,Kolbuszowa,PODKARPACKIE,,PL,+48 17 227 10 23,,,Poczta Polska,Q168833
308302,poczta_polska_pl,FUP Kolbuszowa,,Kolbuszowa,PODKARPACKIE,,PL,+48 17 227 50 71,,,Poczta Polska,Q168833
295355,poczta_polska_pl,AP Przedbórz k. Kolbuszowej,,Przedbórz,PODKARPACKIE,,PL,+48 609 484 587,,,Poczta Polska,Q168833
,visa,,,KOLBUSZOWA,PODKARPACKIE,,PL,,,,,
,visa,,,KOLBUSZOWA,PODKARPACKIE,,PL,,,,,
,visa,,,KOLBUSZOWA,PODKARPACKIE,,PL,,,,,
,visa,,,KOLBUSZOWA,PODKARPACKIE,,PL,,,,,
,visa,,,KOLBUSZOWA,PODKARPACKIE,,PL,,,,,
,visa,,,KOLBUSZOWA,PODKARPACKIE,,PL,,,,,
,visa,,,KOLBUSZOWA,PODKARPACKIE,,PL,,,,,
aa2cf393dedef09b5170192848b0bf59,western_union,BANK SPOLDZIELCZY W KOLBUSZOWEJ,,Kolbuszowa,PODKARPACKIE,,PL,(+48) 25060814,https://location.westernunion.com/pl/podkarpackie/kolbuszowa/aa2cf393dedef09b5170192848b0bf59,Mo-Fr 07:00-17:00,Western Union,Q861042
72643fe1f0d7e3e1cffbfa02ee8421ee,western_union,BANK PEKAO SA,,Kolbuszowa,PODKARPACKIE,,PL,+48 801 120 224,https://location.westernunion.com/pl/podkarpackie/kolbuszowa/72643fe1f0d7e3e1cffbfa02ee8421ee,Mo-Fr 09:00-16:30,Western Union,Q861042
924892381165023bf8b991ec5c929d17,western_union,BANK SPOLDZIELCZY W KOLBUSZOWEJ,,Kolbuszowa,PODKARPACKIE,,PL,+48 22 591 22 24,https://location.westernunion.com/pl/podkarpackie/kolbuszowa/924892381165023bf8b991ec5c929d17,Mo-Fr 08:00-16:00; Sa 08:00-13:30,Western Union,Q861042
