Ref,Spider,Name,Address,City,State,Zipcode,Country,Phone,Website,Hours,Brand,WikiData
17039396,anatomie,Mustique,,Westhampton Beach,NY,,US,+1 681-288-6677,,,Anatomie,Q115608133
2041189,chase_us,Westhampton Beach - New branch,,Westhampton Beach,NY,,US,+1 631-288-2220,https://locator.chase.com/ny/westhampton-beach/154-main-st,Mo-Fr 09:00-17:00; Sa 09:00-14:00,Chase,Q524629
87990,citi,ATM Walgreens,,Whampton Beach,NY,,US,,,,Citibank,Q857063
53160,citi,ATM CVS,,Westhampton Beach,NY,,US,,,,Citibank,Q857063
31659,citi,ATM 7ELEVEN-FCTI,,Westhampton Bea,NY,,US,,,,Citibank,Q857063
10191,cvs_us,CVS Pharmacy,,Westhampton Beach,NY,,US,+1 631-288-1897,https://www.cvs.com/store-locator/westhampton-beach-ny-pharmacies/87-sunset-ave-westhampton-beach-ny-11978/storeid=10191,Mo-Su 07:00-23:00,CVS Pharmacy,Q2078880
352591,dunkin_us,Dunkin',,Westhampton Beach,NY,,US,+1 631-684-9366,https://locations.dunkindonuts.com/en/ny/westhampton-beach/223-montauk-hwy/352591,Mo-Fr 05:00-18:00; Sa-Su 06:00-18:00,Dunkin',Q847743
E124AB,enterprise,Westhampton Francis S. Gabreski Airport,,Westhampton Beach,NY,,US,+1 631-288-8630,,,Enterprise Rent-A-Car,Q17085454
8018,lidl_us,Westhampton Beach NY - Sunset Ave,,Westhampton Beach,NY,,US,+1 844-747-5435,,,Lidl,Q151954
https://locations.mtb.com/#5832563,mt_bank_us,M&T Bank,,,NY,,US,+1 631-288-4000,https://locations.mtb.com/ny/westhamptonbeach/bank-branches-and-atms-westhampton-beach-ny-8077.html,Mo-Th 09:00-16:00; Fr 09:00-17:00; Sa 09:00-12:00,M&T Bank,Q3272257
https://locations.mtb.com/#25082977,mt_bank_us,M&T Bank,,,NY,,US,+1 631-288-2809,https://locations.mtb.com/ny/westhamptonbeach/bank-branches-and-atms-westhampton-beach-ny-3401.html,Mo-Th 09:00-16:00; Fr 09:00-17:00,M&T Bank,Q3272257
19411,true_value_us,Westhampton True Value,,Westhampton Beach,NY,,US,+1 631-288-1544,http://www.westhamptontruevalue.com,,True Value,Q7847545
1387298,usps,WESTHAMPTON BEACH,,WESTHAMPTON BEACH,NY,,US,+1 631-288-4093,,Mo-Fr 09:00-17:00; Sa 09:00-13:00,United States Postal Service,Q668687
1197800004,usps_collection_boxes,USPS COLLECTION BOX - BLUE BOX,87 OAK ST,W HAMPTON BCH,NY,,US,,,,United States Postal Service,Q668687
1197800001,usps_collection_boxes,USPS COLLECTION BOX - BLUE BOX,70 SUNSET AVE,W HAMPTON BCH,NY,,US,,,,United States Postal Service,Q668687
1197800010,usps_collection_boxes,USPS COLLECTION BOX - BLUE BOX,170 MAIN ST,W HAMPTON BCH,NY,,US,,,,United States Postal Service,Q668687
1197800008,usps_collection_boxes,USPS COLLECTION BOX - BLUE BOX,170 MAIN ST,W HAMPTON BCH,NY,,US,,,,United States Postal Service,Q668687
1197800014,usps_collection_boxes,USPS COLLECTION BOX - PO LOBBY,170 MAIN ST,W HAMPTON BCH,NY,,US,,,,United States Postal Service,Q668687
1197800016,usps_collection_boxes,USPS COLLECTION BOX - PO LOBBY,170 MAIN ST,W HAMPTON BCH,NY,,US,,,,United States Postal Service,Q668687
,visa,,,WESTHAMPTON BEA,NY,,US,,,,,
,visa,,,WEST HAMPTON BEACH,NY,,US,,,,,
,visa,,,WESTHAMPTON BEACH,NY,,US,,,,,
,visa,,,WEST HAMPTON,NY,,US,,,,,
,visa,,,WESTHAMPTON BEACH,NY,,US,,,,,
,visa,,,WHAMPTON BEACH,NY,,US,,,,,
,visa,,,WESTHAMPTON BEACH,NY,,US,,,,,
,visa,,,WESTHAMPTON BEACH,NY,,US,,,,,
,visa,,,WESTHAMPTON,NY,,US,,,,,
,visa,,,WESTHAMPTON BEACH,NY,,US,,,,,
,visa,,,W HAMPTON BCH,NY,,US,,,,,
,visa,,,WESTAHMPTON,NY,,US,,,,,
,visa,,,WESTHAMPTON BEACH,NY,,US,,,,,
,visa,,,WESTHAMPTON BEACH,NY,,US,,,,,
,visa,,,WEST HAMPTON BEACH,NY,,US,,,,,
,visa,,,WESTHAMPTON BEACH,NY,,US,,,,,
,visa,,,W HAMPTON BCH,NY,,US,,,,,
,visa,,,W HAMPTON BCH,NY,,US,,,,,
,visa,,,WEST HAMPTON,NY,,US,,,,,
,visa,,,WEST HAMPTON BEACH,NY,,US,,,,,
,visa,,,WEST HAMPTON BEACH,NY,,US,,,,,
,visa,,,WESTHAMPTON BEACH,NY,,US,,,,,
,visa,,,WESTHAMPTON BEACH,NY,,US,,,,,
,visa,,,WESTHAMPTON,NY,,US,,,,,
,visa,,,WESTHAMPTON,NY,,US,,,,,
,visa,,,WESTHAMPTON BEACH,NY,,US,,,,,
,visa,,,WESTHAMPTON BEACH,NY,,US,,,,,
,visa,,,WESTHAMPTON BEACH,NY,,US,,,,,
,visa,,,WEST HAMPTON BEACH,NY,,US,,,,,
,visa,,,WESTHAMPTON BEACH,NY,,US,,,,,
,visa,,,WESTHAMPTON BEACH,NY,,US,,,,,
,visa,,,WESTHAMPTON BEACH,NY,,US,,,,,
,visa,,,NEW YORK,NY,,US,,,,,
https://www.walgreens.com/locator/walgreens-161+main+st-westhampton+beach-ny-11978/id=17575,walgreens,Walgreens,,Westhampton Beach,NY,,US,+1 631-288-5845,https://www.walgreens.com/locator/walgreens-161+main+st-westhampton+beach-ny-11978/id=17575,Mo-Su 07:00-22:00,Walgreens,Q1591889
136e001b647437f81fb96b1a86f48e91,western_union,7-ELEVEN #11230,,Westhampton Beach,NY,,US,+1 631-288-9755,https://location.westernunion.com/us/ny/westhampton-beach/136e001b647437f81fb96b1a86f48e91,,Western Union,Q861042
77ffa107fcd3d765071d104cb65b60e8,western_union,LA VICTORY LATIN GROCERY CORP,,Westhampton Beach,NY,,US,+1 631-379-4565,https://location.westernunion.com/us/ny/westhampton-beach/77ffa107fcd3d765071d104cb65b60e8,Mo-Sa 09:00-22:00; Su 09:00-21:00,Western Union,Q861042
