Ref,Spider,Name,Address,City,State,Zipcode,Country,Phone,Website,Hours,Brand,WikiData
4247,action,Brest-Kergaradec,,Brest,,,FR,,https://www.action.com/fr-fr/points-de-vente/brest-route-de-gouesnou/,,Action,Q2634111
4710,action,Brest-Iroise,,Brest,,,FR,,https://www.action.com/fr-fr/points-de-vente/brest/,,Action,Q2634111
1380710492,banque_populaire_fr,BREST ST PIERRE,,BREST,,,FR,+33 2 57 29 04 40,https://agences.banquepopulaire.fr/banque-assurance/agence-brest-st-pierre-id1380710492,"Tu-We 09:00-12:30,14:00-18:00; Th 09:00-12:30,15:30-18:00; Fr 09:00-12:30,14:00-18:00; Sa 09:00-12:30",Banque Populaire,Q846647
1380700577,banque_populaire_fr,BREST ST PIERRE,,BREST,,,FR,+33 2 57 29 04 40,https://agences.banquepopulaire.fr/banque-assurance/agence-brest-st-pierre-id1380700577,"Tu-We 09:00-12:30,14:00-18:00; Th 09:00-12:30,15:30-18:00; Fr 09:00-12:30,14:00-18:00; Sa 09:00-12:30",Banque Populaire,Q846647
1380710493,banque_populaire_fr,BREST SIAM,,BREST,,,FR,+33 2 57 29 02 70,https://agences.banquepopulaire.fr/banque-assurance/agence-brest-siam-id1380710493,"Tu-We 09:00-12:30,14:00-18:00; Th 09:00-12:30,15:00-18:00; Fr 09:00-12:30,14:00-18:00; Sa 09:00-12:30",Banque Populaire,Q846647
1380700563,banque_populaire_fr,BREST SIAM,,BREST,,,FR,+33 2 57 29 02 70,https://agences.banquepopulaire.fr/banque-assurance/agence-brest-siam-id1380700563,"Tu-We 09:00-12:30,14:00-18:00; Th 09:00-12:30,15:00-18:00; Fr 09:00-12:30,14:00-18:00; Sa 09:00-12:30",Banque Populaire,Q846647
1380700681,banque_populaire_fr,BREST PONANT BANQUE PRIVEE,,BREST,,,FR,+33 2 57 66 55 65,https://agences.banquepopulaire.fr/banque-assurance/agence-brest-ponant-banque-privee-id1380700681,"Mo-We 09:00-12:30,14:00-18:00; Th 09:00-12:30,15:30-18:00; Fr 09:00-12:30,14:00-18:00",Banque Populaire,Q846647
1380710489,banque_populaire_fr,BREST LAMBEZELLEC,,BREST,,,FR,+33 2 57 29 00 90,https://agences.banquepopulaire.fr/banque-assurance/agence-brest-lambezellec-id1380710489,"Tu-We 09:00-12:30,14:00-18:00; Th 09:00-12:30,15:00-18:00; Fr 09:00-12:30,14:00-18:00; Sa 09:00-12:30",Banque Populaire,Q846647
1380700562,banque_populaire_fr,BREST LAMBEZELLEC,,BREST,,,FR,+33 2 57 29 00 90,https://agences.banquepopulaire.fr/banque-assurance/agence-brest-lambezellec-id1380700562,"Tu-We 09:00-12:30,14:00-18:00; Th 09:00-12:30,15:00-18:00; Fr 09:00-12:30,14:00-18:00; Sa 09:00-12:30",Banque Populaire,Q846647
1380710477,banque_populaire_fr,BREST CENTRE,,BREST,,,FR,+33 2 57 29 03 00,https://agences.banquepopulaire.fr/banque-assurance/agence-brest-centre-id1380710477,"Tu-We 09:00-12:30,14:00-18:00; Th 09:00-12:30,15:00-18:00; Fr 09:00-12:30,14:00-18:00; Sa 09:00-12:30",Banque Populaire,Q846647
1380700561,banque_populaire_fr,BREST CENTRE,,BREST,,,FR,+33 2 57 29 03 00,https://agences.banquepopulaire.fr/banque-assurance/agence-brest-centre-id1380700561,"Tu-We 09:00-12:30,14:00-18:00; Th 09:00-12:30,15:00-18:00; Fr 09:00-12:30,14:00-18:00; Sa 09:00-12:30",Banque Populaire,Q846647
1380700458,banque_populaire_fr,BREST AGRI FINISTERE,,BREST,,,FR,+33 2 57 29 01 50,https://agences.banquepopulaire.fr/banque-assurance/agence-brest-agri-finistere-id1380700458,"Tu-Fr 09:00-12:30,14:00-18:00; Sa 09:00-12:30",Banque Populaire,Q846647
1380700651,banque_populaire_fr,AGENCE ENTREPRISES BREST,,BREST,,,FR,+33 2 57 29 00 00,https://agences.banquepopulaire.fr/banque-assurance/agence-agence-entreprises-brest-id1380700651,"Mo-Fr 09:00-12:30,14:00-18:00",Banque Populaire,Q846647
37934_1,bmw_group,OUEST MOTORS BREST,,BREST,,,FR,+33 2 98 02 11 15,https://partenaire.bmw.fr/ouest-motors-brest,,BMW,Q26678
48975_1,bmw_group,IROISE MOTO,,BREST,,,FR,+33 2 55 59 05 56,https://partenaire.bmw-motorrad.fr/iroisemoto,,BMW Motorrad,Q249173
0077,carrefour_fr,Carrefour Brest,,Brest,,,FR,+33 2 98 31 42 79,https://www.carrefour.fr/magasin/brest,Mo-Fr 08:30-21:00; Sa 08:30-20:00; Su 08:30-12:30,Carrefour,Q217599
1871,carrefour_fr,Carrefour Express,,Brest Vieux Bourg,,,FR,+33 9 71 30 49 12,https://www.carrefour.fr/magasin/express-brest-vieux-bourg,Mo-Sa 08:00-21:00; Su 09:00-13:00,Carrefour Express,Q2940190
2240,carrefour_fr,Carrefour City,,Brest,,,FR,+33 2 98 43 12 78,https://www.carrefour.fr/magasin/city-brest-provence,Mo-Sa 07:00-22:00; Su 09:00-13:00,Carrefour City,Q2940187
29200008,carrefour_fr,Station Service Carrefour - Brest,,Brest,,,FR,+33 2 98 31 42 79,https://www.carrefour.fr/magasin/brest,24/7,Carrefour,Q217599
4164,carrefour_fr,Carrefour City,,Brest,,,FR,+33 2 29 62 06 08,https://www.carrefour.fr/magasin/brest-victor-hugo,Mo-Sa 07:00-22:00; Su 09:00-13:00,Carrefour City,Q2940187
4214,carrefour_fr,Carrefour Express,,Brest,,,FR,+33 9 88 02 32 24,https://www.carrefour.fr/magasin/express-brest-corbiere,Mo-Sa 08:00-21:00; Su 09:00-13:00,Carrefour Express,Q2940190
4504,carrefour_fr,Carrefour City,,Brest -Victor Hugo,,,FR,,,,Carrefour City,Q2940187
4668,carrefour_fr,Carrefour Express,,Brest,,,FR,+33 2 56 31 51 44,https://www.carrefour.fr/magasin/express-brest-l-harteloire,Mo-Sa 08:00-21:00; Su 09:00-13:00,Carrefour Express,Q2940190
5067,carrefour_fr,Carrefour City,,Brest,,,FR,+33 2 98 46 00 14,https://www.carrefour.fr/magasin/city-brest-gillet,Mo-Sa 07:00-22:00; Su 09:00-13:00,Carrefour City,Q2940187
5068,carrefour_fr,Carrefour City,,Brest,,,FR,+33 2 98 47 31 89,https://www.carrefour.fr/magasin/city-brest-duval,Mo-Sa 07:00-22:00; Su 09:00-13:00,Carrefour City,Q2940187
5069,carrefour_fr,Carrefour City,,Brest,,,FR,+33 2 98 43 51 51,https://www.carrefour.fr/magasin/city-brest-pasteur,Mo-Sa 07:00-22:00; Su 09:00-13:00,Carrefour City,Q2940187
5992,carrefour_fr,Carrefour City,,Brest,,,FR,+33 2 29 61 18 00,https://www.carrefour.fr/magasin/city-brest-blum,Mo-Sa 07:00-22:00; Su 09:00-13:00,Carrefour City,Q2940187
6043,carrefour_fr,Carrefour Express,,Brest,,,FR,+33 2 29 02 16 96,https://www.carrefour.fr/magasin/express-brest-esperey,Mo-Sa 08:00-21:00; Su 09:00-13:00,Carrefour Express,Q2940190
6229,carrefour_fr,Carrefour Express,,Brest,,,FR,+33 2 98 05 98 19,https://www.carrefour.fr/magasin/express-brest-eusen,Mo-Sa 08:00-21:00; Su 09:00-13:00,Carrefour Express,Q2940190
6230,carrefour_fr,Carrefour City,,Brest,,,FR,+33 2 98 20 49 20,https://www.carrefour.fr/magasin/city-brest-jaures,Mo-Sa 07:00-22:00; Su 09:00-13:00,Carrefour City,Q2940187
7001,carrefour_fr,Carrefour Contact,,Brest,,,FR,+33 2 98 02 25 91,https://www.carrefour.fr/magasin/contact-brest-le-guelmeur,Mo-Th 08:00-20:00; Fr-Sa 08:00-21:00; Su 09:00-12:15,Carrefour Contact,Q2940188
7002,carrefour_fr,Carrefour City,,Brest,,,FR,+33 2 98 80 66 37,https://www.carrefour.fr/magasin/city-brest-siam,Mo-Sa 07:00-22:00; Su 09:00-13:00,Carrefour City,Q2940187
7843,carrefour_fr,Market Brest,,Brest,,,FR,+33 2 98 03 39 42,https://www.carrefour.fr/magasin/market-brest,Mo-Sa 08:30-19:30; Su 09:00-12:30,Carrefour Market,Q2689639
PA77,carrefour_fr,Parapharmacie - Carrefour Brest,,Brest,,,FR,+33 2 98 31 42 79,https://www.carrefour.fr/magasin/brest,Mo-Fr 08:30-21:00; Sa 08:30-20:00; Su 08:30-12:30,Carrefour,Q217599
https://magasins.supercasino.fr/supermarche/brest-pilier-rouge/CM730,casino_fr,Brest Pilier Rouge,,BREST,,,FR,+33 2 98 33 79 21,https://magasins.supercasino.fr/supermarche/brest-pilier-rouge/CM730,Mo-Sa 08:30-19:15; Su 09:00-12:30,Casino Supermarchés,Q89029184
1702273566,century_21_fr,CENTURY 21 Associés Conseils Immobilier,,BREST,,,FR,+33 2 98 00 07 07,https://www.century21.fr/trouver_agence/agence/1702273566/,,Century 21,Q1054480
1236191712,century_21_fr,CENTURY 21 Associés Conseils Immobilier,,BREST,,,FR,+33 2 98 20 20 15,https://www.century21.fr/trouver_agence/agence/1236191712/,,Century 21,Q1054480
1236191722,century_21_fr,CENTURY 21 Associés Conseils Immobilier,,BREST,,,FR,+33 2 98 45 56 67,https://www.century21.fr/trouver_agence/agence/1236191722/,,Century 21,Q1054480
82924,century_21_fr,CENTURY 21 Ouest Commerces,,BREST,,,FR,+33 2 98 46 49 00,https://www.century21.fr/trouver_agence/agence/82924/,,Century 21,Q1054480
brest/892,claires,Shoppe des piercings et des bijoux à Brest Le Phare De L'Europe,,Brest,,,FR,+33 2 98 42 31 97,https://stores.claires.com/fr/fr-e/brest/892.html,Mo-Fr 09:30-20:00; Sa 09:00-20:00,Claire's,Q2974996
brest/829,claires,Shoppe des piercings et des bijoux à Brest - Iroise,,Brest,,,FR,+33 2 98 05 35 05,https://stores.claires.com/fr/fr-e/brest/829.html,Mo-Fr 09:30-19:30; Sa 09:00-19:30,Claire's,Q2974996
brest,completude,,,BREST ,,,FR,+33 2 98 41 25 54,https://www.completude.com/agence/brest/,,Complétude,Q2990589
https://www.credit-agricole.fr/particulier/agence/finistere/brest-siam-3121.html,credit_agricole,Crédit Agricole,,BREST,,,FR,+33 2 98 28 63 05,https://www.credit-agricole.fr/particulier/agence/finistere/brest-siam-3121.html,"Tu-We 09:00-12:15,13:45-18:00; Th 09:00-12:15,15:30-18:00; Fr 09:00-12:15,13:45-18:00; Sa 09:00-12:15",Credit Agricole,Q590952
https://www.credit-agricole.fr/particulier/agence/finistere/brest-saint-pierre-3118.html,credit_agricole,Crédit Agricole,,BREST,,,FR,+33 2 98 26 72 88,https://www.credit-agricole.fr/particulier/agence/finistere/brest-saint-pierre-3118.html,"Tu-We 09:00-12:15,13:45-18:00; Th 09:00-12:15,15:30-18:00; Fr 09:00-12:15,13:45-18:00; Sa 09:00-12:15",Credit Agricole,Q590952
https://www.credit-agricole.fr/particulier/agence/finistere/brest-saint-marc-3111.html,credit_agricole,Crédit Agricole,,BREST,,,FR,+33 2 98 15 57 22,https://www.credit-agricole.fr/particulier/agence/finistere/brest-saint-marc-3111.html,"Tu-We 09:00-12:15,13:45-18:00; Th 09:00-12:15,15:30-18:00; Fr 09:00-12:15,13:45-18:00; Sa 09:00-12:15",Credit Agricole,Q590952
https://www.credit-agricole.fr/particulier/agence/finistere/brest-rive-droite-3115.html,credit_agricole,Crédit Agricole,,BREST,,,FR,+33 2 98 26 07 22,https://www.credit-agricole.fr/particulier/agence/finistere/brest-rive-droite-3115.html,"Tu-We 09:00-12:15,13:45-18:00; Th 09:00-12:15,15:30-18:00; Fr 09:00-12:15,13:45-18:00; Sa 09:00-12:15",Credit Agricole,Q590952
https://www.credit-agricole.fr/particulier/agence/finistere/brest-quatre-moulins-3116.html,credit_agricole,Crédit Agricole,,Brest,,,FR,+33 2 98 26 08 86,https://www.credit-agricole.fr/particulier/agence/finistere/brest-quatre-moulins-3116.html,"Tu-We 09:00-12:15,13:45-18:00; Th 09:00-12:15,15:30-18:00; Fr 09:00-12:15,13:45-18:00; Sa 09:00-12:15",Credit Agricole,Q590952
https://www.credit-agricole.fr/particulier/agence/finistere/brest-pont-neuf-3109.html,credit_agricole,Crédit Agricole,,Brest,,,FR,+33 2 98 10 20 45,https://www.credit-agricole.fr/particulier/agence/finistere/brest-pont-neuf-3109.html,"Tu-We 09:00-12:15,13:45-18:00; Th 09:00-12:15,15:30-18:00; Fr 09:00-12:15,13:45-18:00; Sa 09:00-12:15",Credit Agricole,Q590952
https://www.credit-agricole.fr/particulier/agence/finistere/brest-pilier-rouge-3108.html,credit_agricole,Crédit Agricole,,BREST,,,FR,+33 2 98 07 37 92,https://www.credit-agricole.fr/particulier/agence/finistere/brest-pilier-rouge-3108.html,"Tu-We 09:00-12:15,13:45-18:00; Th 09:00-12:15,15:30-18:00; Fr 09:00-12:15,13:45-18:00; Sa 09:00-12:15",Credit Agricole,Q590952
https://www.credit-agricole.fr/particulier/agence/finistere/brest-lambezellec-3143.html,credit_agricole,Crédit Agricole,,BREST,,,FR,+33 2 98 52 00 02,https://www.credit-agricole.fr/particulier/agence/finistere/brest-lambezellec-3143.html,"Tu-We 09:00-12:15,13:45-18:00; Th 09:00-12:15,15:30-18:00; Fr 09:00-12:15,13:45-18:00; Sa 09:00-12:15",Credit Agricole,Q590952
https://www.credit-agricole.fr/particulier/agence/finistere/brest-kerinou-3097.html,credit_agricole,Crédit Agricole,,BREST,,,FR,+33 2 98 04 57 88,https://www.credit-agricole.fr/particulier/agence/finistere/brest-kerinou-3097.html,"Tu-We 09:00-12:15,13:45-18:00; Th 09:00-12:15,15:30-18:00; Fr 09:00-12:15,13:45-18:00; Sa 09:00-12:15",Credit Agricole,Q590952
https://www.credit-agricole.fr/particulier/agence/finistere/brest-jaures-3119.html,credit_agricole,Crédit Agricole,,BREST,,,FR,+33 2 98 27 15 75,https://www.credit-agricole.fr/particulier/agence/finistere/brest-jaures-3119.html,"Tu-We 09:00-12:15,13:45-18:00; Th 09:00-12:15,15:30-18:00; Fr 09:00-12:15,13:45-18:00; Sa 09:00-12:15",Credit Agricole,Q590952
https://www.credit-agricole.fr/particulier/agence/finistere/brest-clemenceau-7721.html,credit_agricole,Crédit Agricole,,BREST,,,FR,+33 2 98 44 19 49,https://www.credit-agricole.fr/particulier/agence/finistere/brest-clemenceau-7721.html,"Tu-We 09:00-12:15,13:45-18:00; Th 09:00-12:15,15:30-18:00; Fr 09:00-12:15,13:45-18:00; Sa 09:00-12:15",Credit Agricole,Q590952
https://www.credit-agricole.fr/particulier/agence/finistere/brest-bellevue-3113.html,credit_agricole,Crédit Agricole,,BREST,,,FR,+33 2 98 19 51 68,https://www.credit-agricole.fr/particulier/agence/finistere/brest-bellevue-3113.html,"Tu-We 09:00-12:15,13:45-18:00; Th 09:00-12:15,15:30-18:00; Fr 09:00-12:15,13:45-18:00; Sa 09:00-12:15",Credit Agricole,Q590952
https://www.credit-agricole.fr/particulier/agence/finistere/brest-agence-professionnels-et-patrimoine-10426.html,credit_agricole,Crédit Agricole,,Brest,,,FR,+33 2 98 44 19 49,https://www.credit-agricole.fr/particulier/agence/finistere/brest-agence-professionnels-et-patrimoine-10426.html,"Mo-We 09:00-12:15,13:45-18:00; Th 10:30-12:15,13:45-18:00; Fr 09:00-12:15,13:45-17:30",Credit Agricole,Q590952
388,croix_rouge_francaise_fr,UNITE LOCALE DE BREST METROPOLE,,BREST,,,FR,,https://www.croix-rouge.fr/unite-locale-de-brest-metropole,"Mo 09:30-12:00,13:30-17:00; Tu 10:00-17:00,19:00-23:00; We 09:30-12:00,13:30-17:00; Th 10:00-17:00,19:00-23:00; Fr 09:30-12:00,13:30-17:00; Sa 10:00-17:00; Su 18:00-22:00",Croix-Rouge française,Q3003244
4709,croix_rouge_francaise_fr,HEBERGEMENT D'INSERTION LES AJONCS,,BREST,,,FR,,https://www.croix-rouge.fr/hebergement-d-insertion-les-ajoncs,"Mo-Fr 01:00-12:30,13:30-17:30",Croix-Rouge française,Q3003244
4712,croix_rouge_francaise_fr,POLE SOLIDARITES BRETAGNE,,BREST,,,FR,,https://www.croix-rouge.fr/pole-solidarites-bretagne,"Mo-Fr 01:00-12:00,14:00-17:00",Croix-Rouge française,Q3003244
4710,croix_rouge_francaise_fr,CENTRE D'HEBERGEMENT ET DE REINSERTION SOCIALE KASTELL DOUR,,BREST,,,FR,,https://www.croix-rouge.fr/centre-d-hebergement-et-de-reinsertion-sociale-kastell-dour,"Mo-Fr 09:00-12:30,13:30-17:30",Croix-Rouge française,Q3003244
34,croix_rouge_francaise_fr,DELEGATION TERRITORIALE DU FINISTERE,,BREST,,,FR,,https://www.croix-rouge.fr/delegation-territoriale-du-finistere,,Croix-Rouge française,Q3003244
FR0759,c_and_a,Brest Rue de Gouesnou,"rue de Gouesnou 1, 29200 Brest",Brest,,,FR,,https://www.c-and-a.com/stores/fr-fr/bretagne/brest/rue-de-gouesnou-1.html,Mo 07:30-20:30; Tu 07:30-20:30; We 07:30-20:30; Th 07:30-20:30; Fr 07:30-20:30; Sa 07:30-20:00; Su 09:00-20:00,C&A,Q701338
https://www.dominos.fr/magasin/brest-rive-droite_29200,dominos_pizza_fr,Domino's,,BREST,,,FR,,https://www.dominos.fr/magasin/brest-rive-droite_29200,,Domino's,Q839466
https://www.dominos.fr/magasin/brest-rive-gauche_29200,dominos_pizza_fr,Domino's,,BREST,,,FR,,https://www.dominos.fr/magasin/brest-rive-gauche_29200,,Domino's,Q839466
https://www.dominos.fr/magasin/brest-plymouth_29200,dominos_pizza_fr,Domino's,,BREST,,,FR,,https://www.dominos.fr/magasin/brest-plymouth_29200,,Domino's,Q839466
15185867,esprit,Esprit Franchise Store Brest,,Brest,,,FR,+33 2 98 05 42 83,"https://www.esprit.com/storefinder?storeid=15185867&location=48.39040000,-4.48608000",Tu-Su 09:30-20:30,Esprit,Q532746
FordFF80454  FRA,ford,FORD BREST - BRETAGNE AUTO,,BREST,,,FR,+33 2 98 02 35 62,www.fordgroupedmd.fr,Mo-Sa 09:00-19:00,Ford,Q44294
F64,gant,GANT Brest,,Brest,,,FR,+33 2 98 43 63 51,,Mo 14:00-19:00; Tu-Sa 10:00-19:00,GANT,Q1493667
FR0039,hm,C.Cial Espace Jean Jaurès,,Brest,,,FR,+33 805 08 88 88,,Mo-Sa 10:00-19:30,H&M,Q188326
FR0165,hm,C.Cial La galerie Le Phare de l'Europe,,Brest,,,FR,+33 805 08 88 88,,Mo-Fr 09:30-20:00; Sa 09:00-20:00,H&M,Q188326
17479,jack_and_jones,Brest,,Brest,,,FR,+33 2 56 31 52 10,,,Jack & Jones,Q6077665
https://bureaux.kpmg.fr/#location-231,kpmg_fr,KPMG Brest,,Brest,,,FR,+33 2 98 31 98 31,https://bureaux.kpmg.fr/fr/france-FR/231/kpmg-brest/details,"Mo-Fr 08:30-12:30,13:30-17:30",KPMG,Q493751
https://bureaux.kpmg.fr/#location-102,kpmg_fr,KPMG Avocats Brest,,Brest,,,FR,+33 2 98 03 23 76,https://bureaux.kpmg.fr/fr/france-FR/102/kpmg-avocats-brest/details,"Mo-Fr 08:30-12:30,13:30-17:30",KPMG,Q493751
776,lidl_fr,BREST Strasbourg,,BREST,,,FR,,,Mo-Sa 08:30-20:00,Lidl,Q151954
3927,lidl_fr,BREST - Plymouth,,Brest,,,FR,,,Mo-Sa 08:30-20:00; Su 08:30-12:15,Lidl,Q151954
3588,lidl_fr,BREST Paulet,,BREST,,,FR,,,Mo-Sa 08:30-20:00; Su 08:30-12:00,Lidl,Q151954
FR270,longchamp,Printemps Brest,,BREST,,,FR,+33 2 98 43 13 60,,,Longchamp,Q1869471
FR055,longchamp,Quiniou Maroquinerie,,BREST,,,FR,+33 2 98 44 21 76,,,Longchamp,Q1869471
203,mcdonalds_fr,BREST GOUESNOU,,BREST,,,FR,+33 2 98 41 78 79,https://www.mcdonalds.fr/restaurants/mcdonalds-brest-gouesnou/203,Mo-Th 11:00-01:00; Fr-Sa 11:00-02:00; Su 11:00-01:00,McDonald's,Q38076
36,mcdonalds_fr,BREST,,BREST,,,FR,+33 2 98 43 03 27,https://www.mcdonalds.fr/restaurants/mcdonalds-brest/36,Mo-Th 09:00-23:00; Fr-Sa 09:00-24:00; Su 09:00-23:00,McDonald's,Q38076
BR,micromania_fr,BREST,,BREST,,,FR,+33 2 98 44 01 31,https://www.micromania.fr/magasin?storeid=BR,Mo-Sa 10:00-19:30,Micromania,Q3312221
BX,micromania_fr,BREST KERGARADEC,,BREST,,,FR,+33 2 98 02 71 73,https://www.micromania.fr/magasin?storeid=BX,Mo-Sa 09:30-19:00,Micromania,Q3312221
73776442,moneygram,LE DJANGO - BREST,,BREST,,,FR,+33 2 98 45 02 57,,Mo-Sa 08:00-19:00; Su 00:00-24:00,MoneyGram,Q1944412
74424997,moneygram,TSARA EXOTIKA - BREST,,BREST,,,FR,+33 9 83 74 13 43,,Mo-Su 10:00-20:00,MoneyGram,Q1944412
74680003,moneygram,LE CENTRE,,BREST,,,FR,+33 2 98 80 25 10,,Mo-Sa 07:30-20:00; Su 00:00-24:00,MoneyGram,Q1944412
69312182,moneygram,TELL MI - BREST,,BREST,,,FR,+33 2 30 86 97 39,,Mo-Sa 09:30-20:00; Su 00:00-24:00,MoneyGram,Q1944412
74727254,moneygram,AZ GROUPE - BREST,,BREST,,,FR,+33 2 30 82 43 99,,Mo-Su 10:00-19:00,MoneyGram,Q1944412
72637676,moneygram,BREST MOBILE SHOP - BREST,,BREST,,,FR,+33 6 59 56 05 30,,Mo-Sa 10:00-20:00; Su 00:00-24:00,MoneyGram,Q1944412
74943436,moneygram,BREST REPARATION CENTER - BREST,,BREST,,,FR,+33 6 12 64 65 88,,Mo-Sa 09:00-19:00; Su 00:00-24:00,MoneyGram,Q1944412
https://magasin.netto.fr/96-netto-brest,netto_les_mousquetaires,Netto Brest,,Brest,,,FR,+33 2 98 47 20 08,https://magasin.netto.fr/96-netto-brest,Mo-Sa 09:00-19:15,Netto,Q2720988
5be1687e69f495a50835dd9b,newyorker,NEW YORKER | La Galerie - Le Phare de l'Europe,"29 Rue de Gouesnou, 29200 Brest",Brest,,,FR,+33 2 29 02 36 10,,Mo-Sa 09:30-20:00,New Yorker,Q706421
102-opticien-brest-optical-center,optical_center,Opticien BREST Optical Center,,Brest,,,FR,+33 2 98 33 26 80,https://opticien.optical-center.fr/102-opticien-brest-optical-center,Mo-Sa 09:00-19:00,Optical Center,Q3354448
101-opticien-brest-kergaradec-optical-center,optical_center,Opticien BREST - KERGARADEC Optical Center,,Brest,,,FR,+33 2 98 42 02 02,https://opticien.optical-center.fr/101-opticien-brest-kergaradec-optical-center,Mo-Sa 09:00-19:00,Optical Center,Q3354448
103-opticien-brest-iroise-optical-center,optical_center,Opticien BREST - IROISE Optical Center,,Brest,,,FR,+33 2 21 00 22 23,https://opticien.optical-center.fr/103-opticien-brest-iroise-optical-center,Mo-Sa 09:00-19:00,Optical Center,Q3354448
900-optical-center-oc-mobile-brest,optical_center,Optical Center OC MOBILE BREST,,BREST,,,FR,+33 7 67 73 69 48,https://opticien.optical-center.fr/900-optical-center-oc-mobile-brest,Mo-Sa 09:00-18:00,Optical Center,Q3354448
fr3f0c2669,pandora,A propos de Boutique Bijoux Pandora BIJOUTERIE PRINTEMPS BREST,,Brest,,,FR,+33 2 98 44 65 65,https://stores.pandora.net/fr-bre/brest/bijoux-pandora-fr3f0c2669.html,Mo 10:00-19:30; Tu 10:00-19:00; We-Sa 10:00-19:30,Pandora,Q2241604
https://stores.petit-bateau.com/#9115843,petit_bateau,PETIT BATEAU Brest,,Brest,,,FR,+33 2 98 43 62 75,https://stores.petit-bateau.com/france/brest/93-rue-de-siam,Tu-Sa 10:00-19:00,Petit Bateau,Q3377090
restaurant_883265,popeyes_us_fr,Popeyes,134 route de Gouesnou Brest 29200 - France,Brest,,,FR,+33 2 57 52 56 65,https://www.popeyes.com/store-locator/store/restaurant_883265,Mo-Su 11:00-23:00,Popeyes,Q1330910
26594,relay_fr,Relay Trib&rsquo;s Gare de Brest,,Brest,,,FR,+33 2 98 43 13 10,https://www.relay.com/stores/trib-s-boutique-gare-de-brest/,Mo 04:45-20:15; Tu-Th 05:15-20:15; Fr 05:15-20:30; Sa 06:45-19:30; Su 07:00-21:00,Relay,Q3424298
00027116_001-renault,renault,GARAGE DE LA PENFELD,,BREST,,,FR,+33 2 98 03 08 67,,,Renault,Q6686
00027116_001-dacia,renault,GARAGE DE LA PENFELD,,BREST,,,FR,+33 2 98 03 08 67,,,Dacia,Q27460
25000009_001-renault,renault,RENAULT BREST - BODEMERAUTO,,BREST,,,FR,+33 2 98 02 20 20,,,Renault,Q6686
25000009_001-dacia,renault,RENAULT BREST - BODEMERAUTO,,BREST,,,FR,+33 2 98 02 20 20,,,Dacia,Q27460
00027111_001-renault,renault,GARAGE HOUSSAIS,,BREST,,,FR,+33 2 98 03 33 41,,,Renault,Q6686
00027111_001-dacia,renault,GARAGE HOUSSAIS,,BREST,,,FR,+33 2 98 03 33 41,,,Dacia,Q27460
00027173_001-renault,renault,GARAGE ST PIERRE,,BREST,,,FR,+33 2 98 05 01 60,,,Renault,Q6686
00027173_001-dacia,renault,GARAGE ST PIERRE,,BREST,,,FR,+33 2 98 05 01 60,,,Dacia,Q27460
https://www.sixt.co.uk/car-hire/france/brest/brest-station-sncf/,sixt,Car Hire Brest Train Station SNCF | SIXT rent a car,,Brest,,,FR,,https://www.sixt.co.uk/car-hire/france/brest/brest-station-sncf/,Mo-Fr 08:00-19:00; Sa 10:00-17:00,SIXT,Q705664
spar-brest-anatole-france,spar_fr,SPAR Brest Anatole France,,Brest,,,FR,+33 9 73 14 06 44,https://magasins.spar.fr/fr/s/spar-brest-anatole-france,"Mo-Fr 08:30-13:00,14:00-20:00; Sa 09:00-20:00; Su 09:00-13:00",Spar,Q610492
spar-supermarche-bresttartu,spar_fr,SPAR Supermarché Brest Tartu,,Brest,,,FR,+33 2 98 45 16 73,https://magasins.spar.fr/fr/s/spar-supermarche-bresttartu,"Mo-Sa 08:45-12:30,14:00-19:45; Su 08:45-12:15",Spar,Q610492
SQLS46871,speed_queen,Laverie Libre-Service Speed Queen,,Brest,,,FR,+33 2 98 80 30 52,,Mo-Su 07:00-22:00,Speed Queen,Q7575499
https://restaurants.subway.com/#17736723,subway,Subway,,Brest,,,FR,+33 2 21 09 60 03,https://restaurants.subway.com/france/brest/59-rue-amiral-desfosses,Mo-Sa 11:00-20:30,Subway,Q244457
https://restaurants.subway.com/#15109371,subway,Subway,,Brest,,,FR,+33 2 98 46 52 02,https://restaurants.subway.com/france/brest/16-place-de-la-liberte,Mo-We 10:30-22:00; Th-Sa 10:30-22:30; Su 10:30-22:00,Subway,Q244457
https://stores.superdry.com/#17497257,superdry,Superdry  Brest,,Brest,,,FR,+33 2 29 63 89 98,https://stores.superdry.com/fr/brest/41-rue-de-siam,Mo-Sa 10:00-19:00,Superdry,Q1684445
12,thales_fr,THALES AIRBORNE SYSTEMS,,Brest,,,FR,,,,Thales,Q1161666
72,thales_fr,THALES SERVICES SA,,Brest,,,FR,,,,Thales,Q1161666
79,thales_fr,THALES UNDERWATER SYSTEMS,,Brest,,,FR,,,,Thales,Q1161666
8796402057239,thebodyshop,Brest,,BREST,,,FR,,https://www.thebodyshop.com/fr-fr/store-details/brest/4217,,The Body Shop,Q837851
THFR0004,tommy_hilfiger,Tommy Hilfiger,,Brest,,,FR,+33 2 98 44 58 49,,,Tommy Hilfiger,Q634881
NF004488,totalenergies,ATELIERS CAUGANT SA,,BREST,,,FR,+33 2 98 03 32 21,https://store.totalenergies.fr/en_EN/NF004488,Mo-Sa 07:00-20:00; Su 08:00-19:00,Total Access,Q154037
NF007494,totalenergies,RELAIS BREST EUROPE,,BREST,,,FR,+33 2 98 03 17 29,https://store.totalenergies.fr/en_EN/NF007494,Mo-Fr 06:00-22:00; Sa 07:00-22:00; Su 08:00-22:00,Total Access,Q154037
NF059934,totalenergies,RELAIS VIEUX ST MARC,,BREST,,,FR,+33 2 98 46 13 93,https://store.totalenergies.fr/en_EN/NF059934,Mo-Fr 06:00-21:00; Sa-Su 08:00-21:00,Total Access,Q154037
NF078202,totalenergies,RELAIS DE KERANROY,,BREST,,,FR,+33 2 98 83 34 86,https://store.totalenergies.fr/en_EN/NF078202,Mo-Fr 07:00-21:00; Sa-Su 08:00-21:00,Total Access,Q154037
,visa,,,BREST,,,FR,,,,,
,visa,,,BREST,,,FR,,,,,
,visa,,,BREST,,,FR,,,,,
,visa,,,BREST,,,FR,,,,,
,visa,,,BREST,,,FR,,,,,
,visa,,,BREST,,,FR,,,,,
,visa,,,BREST,,,FR,,,,,
,visa,,,BREST,,,FR,,,,,
,visa,,,BREST,,,FR,,,,,
,visa,,,BREST,,,FR,,,,,
,visa,,,BREST,,,FR,,,,,
,visa,,,BREST,,,FR,,,,,
,visa,,,BREST RECOUVRANCE,,,FR,,,,,
,visa,,,BREST,,,FR,,,,,
,visa,,,BREST,,,FR,,,,,
,visa,,,BREST,,,FR,,,,,
,visa,,,BREST,,,FR,,,,,
,visa,,,BREST,,,FR,,,,,
,visa,,,BREST,,,FR,,,,,
,visa,,,BREST,,,FR,,,,,
,visa,,,BREST,,,FR,,,,,
,visa,,,BREST,,,FR,,,,,
,visa,,,BREST,,,FR,,,,,
,visa,,,BREST,,,FR,,,,,
,visa,,,BREST,,,FR,,,,,
,visa,,,BREST,,,FR,,,,,
,visa,,,BREST,,,FR,,,,,
,visa,,,BREST,,,FR,,,,,
,visa,,,BREST,,,FR,,,,,
,visa,,,BREST,,,FR,,,,,
,visa,,,BREST,,,FR,,,,,
,visa,,,BREST,,,FR,,,,,
,visa,,,BREST,,,FR,,,,,
,visa,,,BREST,,,FR,,,,,
,visa,,,BREST,,,FR,,,,,
,visa,,,BREST,,,FR,,,,,
,visa,,,BREST,,,FR,,,,,
,visa,,,BREST,,,FR,,,,,
,visa,,,BREST,,,FR,,,,,
,visa,,,BREST,,,FR,,,,,
,visa,,,BREST,,,FR,,,,,
,visa,,,BREST,,,FR,,,,,
,visa,,,BREST,,,FR,,,,,
,visa,,,BREST,,,FR,,,,,
,visa,,,BREST,,,FR,,,,,
,visa,,,BREST,,,FR,,,,,
,visa,,,BREST,,,FR,,,,,
,visa,,,BREST,,,FR,,,,,
,visa,,,BREST,,,FR,,,,,
,visa,,,BREST,,,FR,,,,,
,visa,,,BREST,,,FR,,,,,
,visa,,,BREST,,,FR,,,,,
,visa,,,BREST,,,FR,,,,,
,visa,,,BREST,,,FR,,,,,
,visa,,,BREST,,,FR,,,,,
,visa,,,BREST,,,FR,,,,,
,visa,,,BREST,,,FR,,,,,
,visa,,,BREST,,,FR,,,,,
,visa,,,BREST,,,FR,,,,,
,visa,,,BREST,,,FR,,,,,
,visa,,,BREST,,,FR,,,,,
,visa,,,BREST,,,FR,,,,,
,visa,,,BREST,,,FR,,,,,
,visa,,,BREST,,,FR,,,,,
,visa,,,BREST,,,FR,,,,,
,visa,,,BREST,,,FR,,,,,
,visa,,,BREST,,,FR,,,,,
,visa,,,BREST,,,FR,,,,,
,visa,,,BREST,,,FR,,,,,
,visa,,,BREST,,,FR,,,,,
,visa,,,BREST,,,FR,,,,,
,visa,,,BREST,,,FR,,,,,
,visa,,,BREST,,,FR,,,,,
,visa,,,BREST,,,FR,,,,,
,visa,,,BREST,,,FR,,,,,
,visa,,,BREST,,,FR,,,,,
6FR166876,volvo,PEMZEC AUTOMOBILES 29,,BREST,,,FR,+33 2 98 41 04 00,https://volvocars-concessions.com/fr/brest,,Volvo,Q215293
