Ref,Spider,Name,Address,City,State,Zipcode,Country,Phone,Website,Hours,Brand,WikiData
https://www.cic.fr:443/fr/agences/30066/10361/00/000,cic,CIC,,NEUILLY SUR SEINE,Ile-de-France,,FR,+33 1 41 16 16 64,https://www.cic.fr:443/fr/agences/30066/10361/00/000,Mo-Fr 09:00-17:00,cic,Q746525
https://www.cic.fr:443/fr/agences/30066/10118/00/000,cic,CIC,,NEUILLY SUR SEINE,Ile-de-France,,FR,+33 1 41 16 16 73,https://www.cic.fr:443/fr/agences/30066/10118/00/000,"Tu-We 09:00-13:00,14:15-18:00; Th 09:00-13:00,14:15-17:30; Fr 09:00-13:00,14:15-18:00; Sa 09:00-13:00,14:15-16:30",cic,Q746525
https://www.cic.fr:443/fr/agences/30066/11012/02/000,cic,CIC PARIS LA POMPE IBERBANCO - CIC PARIS POMPE IBERBANCO,,NEUILLY SUR SEINE,Ile-de-France,,FR,+33 1 41 16 16 60,https://www.cic.fr:443/fr/agences/30066/11012/02/000,"Tu-We 09:00-13:00,14:00-18:00; Th 10:00-13:00,14:00-18:45; Fr 09:00-13:00,14:00-18:00; Sa 09:00-13:00",cic,Q746525
536c8f21e0bbafaa06e12a891a2f0b4c,ikks,IKKS Women NEUILLY,,NEUILLY,Ile-de-France,,FR,+33 1 47 22 54 35,,Tu-Sa 11:00-19:00,IKKS,Q3146711
869c0ce09d172a1d5aca3ffe84962384,ikks,IKKS Junior NEUILLY SUR SEINE,,NEUILLY SUR SEINE,Ile-de-France,,FR,+33 1 47 88 80 53,,"Mo-Sa 10:00-14:00,15:00-19:00",IKKS,Q3146711
,visa,,,MONTGERON,ILE-DE-FRANCE,,FR,,,,,
,visa,,,CHOISY LE ROI,ILE-DE-FRANCE,,FR,,,,,
,visa,,,NEUILLY S/SEINE,ILE-DE-FRANCE,,FR,,,,,
,visa,,,NEUILLY SUR SEINE,ILE-DE-FRANCE,,FR,,,,,
,visa,,,NEUILLY,ILE-DE-FRANCE,,FR,,,,,
,visa,,,NEUILLY S/SEINE,ILE-DE-FRANCE,,FR,,,,,
,visa,,,NEUILLY S/SEINE,ILE-DE-FRANCE,,FR,,,,,
,visa,,,NEUILLY S/SEINE,ILE-DE-FRANCE,,FR,,,,,
,visa,,,DRANCY,ILE-DE-FRANCE,,FR,,,,,
,visa,,,ST OUEN L AUMONE,ILE-DE-FRANCE,,FR,,,,,
9020a63382adfed8efad096cb94752cf,western_union,NEUILLY SABLONS BP,,Neuilly Sur Seine,ILE DE FRANCE,,FR,(+33) 3631,https://location.westernunion.com/fr/ile-de-france/neuilly-sur-seine/9020a63382adfed8efad096cb94752cf,Mo-Fr 08:30-19:00; Sa 08:30-12:30,Western Union,Q861042
1c44bae102d4309d02aa589130d3f5aa,western_union,DH PRESSE,,Neuilly Sur Seine,ILE DE FRANCE,,FR,+33 1 46 24 10 35,https://location.westernunion.com/fr/ile-de-france/neuilly-sur-seine/1c44bae102d4309d02aa589130d3f5aa,Mo-Sa 07:00-20:00,Western Union,Q861042
1aaabbe1a067b4726eb8ddd94c4c23f9,western_union,NEUILLY BINEAU BP,,Neuilly Sur Seine,ILE DE FRANCE,,FR,(+33) 3631,https://location.westernunion.com/fr/ile-de-france/neuilly-sur-seine/1aaabbe1a067b4726eb8ddd94c4c23f9,Mo-Fr 09:00-17:30; Sa 09:00-12:30,Western Union,Q861042
2388c1c1cd8b425533900732cdd90780,western_union,FDJ KIOSQUE DE L HOTEL DE VILLE,,Neuilly Sur Seine,ILE DE FRANCE,,FR,+33 6 03 55 44 80,https://location.westernunion.com/fr/ile-de-france/neuilly-sur-seine/2388c1c1cd8b425533900732cdd90780,Mo-Sa 06:30-18:30,Western Union,Q861042
