Ref,Spider,Name,Address,City,State,Zipcode,Country,Phone,Website,Hours,Brand,WikiData
567,anytime_fitness,Anytime Fitness,,Cedarburg,WI,,US,+1 262-375-9300,https://www.anytimefitness.com/gyms/567/cedarburg-wi-53012/,,Anytime Fitness,Q4778364
204206,bluerhino,CASEY'S GENERAL STORE #3791,,CEDARBURG,WI,,US,+1 262-377-2037,,,Blue Rhino,Q65681213
155067,bluerhino,Walgreens #13620,,Cedarburg,WI,,US,+1 262-375-3039,,,Blue Rhino,Q65681213
73485,bluerhino,Speedway #4203,,Cedarburg,WI,,US,+1 262-377-8480,,,Blue Rhino,Q65681213
47479,chevrolet,NEWMAN CHEVROLET,,Cedarburg,WI,,US,+1 262-421-5258,https://www.newmanchevrolet.com,Mo-Fr 09:00-18:00; Sa 08:30-16:00,Chevrolet,Q29570
62088,citi,ATM Kwik Trip #1010-2,,Cedarburg,WI,,US,,,,Citibank,Q857063
62087,citi,ATM Kwik Trip #1010-1,,Cedarburg,WI,,US,,,,Citibank,Q857063
71262,citi,ATM PORT WASHINGTON STATE BANK,,Cedarburg,WI,,US,,,,Citibank,Q857063
35879,citi,ATM BANK FIRST,,Cedarburg,WI,,US,,,,Citibank,Q857063
35878,citi,ATM BANK FIRST,,Cedarburg,WI,,US,,,,Citibank,Q857063
71263,citi,ATM PORT WASHINGTON STATE BANK,,Cedarburg,WI,,US,,,,Citibank,Q857063
93723,citi,ATM Walgreens,,Cedarburg,WI,,US,,,,Citibank,Q857063
53591,citi,ATM CVS,,Cedarburg,WI,,US,,,,Citibank,Q857063
79410,citi,ATM Speedway,,Cedarburg,WI,,US,,,,Citibank,Q857063
8775,cvs_us,CVS Pharmacy,,Cedarburg,WI,,US,+1 262-377-6090,https://www.cvs.com/store-locator/cedarburg-wi-pharmacies/w63-n152-washington-ave-cedarburg-wi-53012/storeid=8775,Mo-Sa 08:00-21:00; Su 10:00-17:00,CVS Pharmacy,Q2078880
364241,dunkin_us,Dunkin',,Cedarburg,WI,,US,+1 262-838-1917,https://locations.dunkindonuts.com/en/wi/cedarburg/w62n245-washington-avenue/364241,Mo-Su 05:00-20:00,Dunkin',Q847743
https://www.edwardjones.com/us-en/financial-advisor/sarah-fitzsimmons,edwardjones,Sarah Fitzsimmons,,Cedarburg,WI,,US,+1 262-376-5328,https://www.edwardjones.com/us-en/financial-advisor/sarah-fitzsimmons,Mo-Th 08:00-17:00; Fr 08:00-16:00,Edward Jones,Q5343830
https://local.fedex.com/#25207428,fedex,,,Cedarburg,WI,,US,+1 800-463-3339,https://local.fedex.com/en-us/wi/cedarburg/uf53e,,FedEx,Q459477
000143,kindercare,Cedarburg KinderCare,,Cedarburg,WI,,US,,https://www.kindercare.com/our-centers/cedarburg/wi/000143,,KinderCare Learning Centers,Q6410551
66031893,moneygram,CVS - #8775,,CEDARBURG,WI,,US,+1 262-377-5685,,Mo-Sa 08:00-21:00; Su 10:00-17:00,MoneyGram,Q1944412
usb5a09e7a,pandora,About Pandora Jewelry Authorized Retailer - Armbruster Jewelers,,Cedarburg,WI,,US,+1 262-377-0480,https://stores.pandora.net/wi/cedarburg/pandora-jewelry-usb5a09e7a.html,,Pandora,Q2241604
427,piggly_wiggly_us,Piggly Wiggly,,Cedarburg,WI,,US,+1 262-375-4474,https://www.shopthepig.com/,,Piggly Wiggly,Q3388303
https://restaurants.subway.com/#14898367,subway,Subway Commons at 5 Corners,,Cedarburg Ozaukee,WI,,US,+1 262-377-2955,https://restaurants.subway.com/united-states/wi/cedarburg/7837-hwy-60,Mo-Th 06:30-20:30; Fr 06:30-20:00; Sa-Su 09:00-20:00,Subway,Q244457
https://restaurants.subway.com/#14896558,subway,Subway,,Cedarburg Ozaukee,WI,,US,+1 262-377-5202,https://restaurants.subway.com/united-states/wi/cedarburg/w62n-202-washington-ave,Mo-Sa 08:00-21:30; Su 09:00-20:00,Subway,Q244457
1438305,usps,CEDARBURG,,CEDARBURG,WI,,US,+1 262-377-0388,,Mo-Fr 08:30-17:00; Sa 09:00-12:00,United States Postal Service,Q668687
5301200012,usps_collection_boxes,USPS COLLECTION BOX - BLUE BOX,W66N222 COMMERCE CT,CEDARBURG,WI,,US,,,,United States Postal Service,Q668687
5301200016,usps_collection_boxes,USPS COLLECTION BOX - BLUE BOX,W63N150 WASHINGTON AVE,CEDARBURG,WI,,US,,,,United States Postal Service,Q668687
5301200024,usps_collection_boxes,USPS COLLECTION BOX - PO LOBBY,W63N605 HANOVER AVE,CEDARBURG,WI,,US,,,,United States Postal Service,Q668687
5301200025,usps_collection_boxes,USPS COLLECTION BOX - PO LOBBY,W63N605 HANOVER AVE,CEDARBURG,WI,,US,,,,United States Postal Service,Q668687
5301200000,usps_collection_boxes,USPS COLLECTION BOX - BLUE BOX,W63N605 HANOVER AVE,CEDARBURG,WI,,US,,,,United States Postal Service,Q668687
5301200001,usps_collection_boxes,USPS COLLECTION BOX - BLUE BOX,W63N605 HANOVER AVE,CEDARBURG,WI,,US,,,,United States Postal Service,Q668687
5301200030,usps_collection_boxes,USPS COLLECTION BOX - BLUE BOX,W63N605 HANOVER AVE,CEDARBURG,WI,,US,,,,United States Postal Service,Q668687
5301200027,usps_collection_boxes,USPS COLLECTION BOX - BLUE BOX,W63N605 HANOVER AVE,CEDARBURG,WI,,US,,,,United States Postal Service,Q668687
5301200032,usps_collection_boxes,USPS COLLECTION BOX - PO LOBBY,W63N605 HANOVER AVE,CEDARBURG,WI,,US,,,,United States Postal Service,Q668687
5301200028,usps_collection_boxes,USPS COLLECTION BOX - BLUE BOX,1293 WASHINGTON AVE,CEDARBURG,WI,,US,,,,United States Postal Service,Q668687
5301200006,usps_collection_boxes,USPS COLLECTION BOX - BLUE BOX,W61N529 WASHINGTON AVE,CEDARBURG,WI,,US,,,,United States Postal Service,Q668687
5301200015,usps_collection_boxes,USPS COLLECTION BOX - BLUE BOX,W55N191 WOODMERE CT,CEDARBURG,WI,,US,,,,United States Postal Service,Q668687
5301200014,usps_collection_boxes,USPS COLLECTION BOX - BLUE BOX,N69W5269 COLUMBIA RD,CEDARBURG,WI,,US,,,,United States Postal Service,Q668687
,visa,,,CEDARBURG,WI,,US,,,,,
,visa,,,CEDARBURG,WI,,US,,,,,
,visa,,,CEDARBURG,WI,,US,,,,,
,visa,,,CEDARBURG,WI,,US,,,,,
,visa,,,CEDARBURG,WI,,US,,,,,
,visa,,,CEDARBURG,WI,,US,,,,,
,visa,,,CEDARBURG,WI,,US,,,,,
,visa,,,CEDARBURG,WI,,US,,,,,
,visa,,,CEDARBURG,WI,,US,,,,,
,visa,,,CEDARBURG,WI,,US,,,,,
,visa,,,CEDARBURG,WI,,US,,,,,
,visa,,,CEDARBURG,WI,,US,,,,,
,visa,,,CEDARBURG,WI,,US,,,,,
,visa,,,CEDARBURG,WI,,US,,,,,
,visa,,,CEDARBURG,WI,,US,,,,,
,visa,,,CEDARBURG,WI,,US,,,,,
,visa,,,CEDARBURG,WI,,US,,,,,
,visa,,,CEDARBURG,WI,,US,,,,,
,visa,,,CEDARBURG,WI,,US,,,,,
https://www.walgreens.com/locator/walgreens-w62n190+washington+ave-cedarburg-wi-53012/id=13620,walgreens,Walgreens,,Cedarburg,WI,,US,+1 262-375-3039,https://www.walgreens.com/locator/walgreens-w62n190+washington+ave-cedarburg-wi-53012/id=13620,Mo-Su 07:00-22:00,Walgreens,Q1591889
