Ref,Spider,Name,Address,City,State,Zipcode,Country,Phone,Website,Hours,Brand,WikiData
https://stores.aldi.us/#22537702,aldi_sud_us,ALDI  9970 US Hwy 64,,Lakeland,TN,,US,+1 833-470-7022,https://stores.aldi.us/tn/lakeland/9970-us-hwy-64,"Mo-Su 08:30-20:00,09:00-20:00",ALDI,Q41171672
2066,autozone_us,AutoZone Auto Parts Lakeland,,Lakeland,TN,,US,+1 901-388-8668,https://www.autozone.com/locations/tn/lakeland/9760-hwy-64.html,Mo-Sa 07:30-21:00; Su 08:00-20:00,AutoZone,Q4826087
4433,autozone_us,AutoZone Auto Parts Arlington,,Arlington,TN,,US,+1 901-805-6259,https://www.autozone.com/locations/tn/arlington/8119-us-hwy-70.html,Mo-Sa 07:30-21:00; Su 08:30-20:00,AutoZone,Q4826087
3887,autozone_us,AutoZone Auto Parts Arlington,,Arlington,TN,,US,+1 901-867-5393,https://www.autozone.com/locations/tn/arlington/11701-hwy-70.html,Mo-Sa 07:30-21:00; Su 08:00-20:00,AutoZone,Q4826087
https://www.banfield.com/locations/veterinarians/tn/lakeland/mwc,banfield_pet_hospital,"Lakeland, TN",,Lakeland,TN,,US,+1 901-266-5044,https://www.banfield.com/locations/veterinarians/tn/lakeland/mwc,Mo-Sa 09:00-18:00; Su 00:00-24:00,Banfield Pet Hospital,Q2882416
https://locations.baskinrobbins.com/tn/arlington/9915-us-highway-64-342981-br,baskin_robbins_us,Baskin-Robbinsâ„¢,,Arlington,TN,,US,+1 901-386-3331,https://locations.baskinrobbins.com/tn/arlington/9915-us-highway-64-342981-br,Mo-Su 11:00-22:00,Baskin-Robbins,Q584601
151596,bluerhino,Walgreens #6958,,Arlington,TN,,US,+1 901-377-2098,,,Blue Rhino,Q65681213
89345,bluerhino,Tugwell Exxon,,Arlington,TN,,US,+1 901-386-6143,,,Blue Rhino,Q65681213
239809,bluerhino,Circle K #4703682,,Arlington,TN,,US,+1 901-385-2223,,,Blue Rhino,Q65681213
128724,bluerhino,Kroger #440- Delta,,Lakeland,TN,,US,+1 901-381-9065,,,Blue Rhino,Q65681213
178415,bluerhino,Kroger- Delta #440- Fuel Site,,Memphis,TN,,US,+1 901-213-2993,,,Blue Rhino,Q65681213
151290,bluerhino,Walgreens #5066,,Arlington,TN,,US,+1 901-382-8998,,,Blue Rhino,Q65681213
151291,bluerhino,Walgreens #6985,,Lakeland,TN,,US,+1 901-379-2102,,,Blue Rhino,Q65681213
148448,bluerhino,Caesars Wine & Liquor,,Arlington,TN,,US,+1 901-289-1705,,,Blue Rhino,Q65681213
90911,bluerhino,Kroger #463 - Delta,,Arlington,TN,,US,+1 901-290-9260,,,Blue Rhino,Q65681213
185644,bluerhino,Kroger #463 - Delta- Fuel Site,,Arlington,TN,,US,+1 901-290-9260,,,Blue Rhino,Q65681213
36844504548613800200100000000000,bp,BP,,Arlington,TN,,US,1111111111,,,BP,Q152057
25839,burgerking,Burger King,,Arlington,TN,,US,+1 901-654-3359,https://www.bk.com/store-locator/store/restaurant_80969,Mo-Sa 06:00-22:00; Su 07:00-22:00,Burger King,Q177054
93394,citi,ATM Walgreens,,Arlington,TN,,US,,,,Citibank,Q857063
44255,citi,ATM Circle K,,Arlington,TN,,US,,,,Citibank,Q857063
61814,citi,ATM Kwik Shop,,Arlington,TN,,US,,,,Citibank,Q857063
53536,citi,ATM CVS,,Arlington,TN,,US,,,,Citibank,Q857063
89831,citi,ATM Walgreens,,Lakeland,TN,,US,,,,Citibank,Q857063
76076,citi,ATM SIMMONS BANK,,Arlington,TN,,US,,,,Citibank,Q857063
60949,citi,ATM Kroger,,Arlington,TN,,US,,,,Citibank,Q857063
93041,citi,ATM Walgreens,,Arlington,TN,,US,,,,Citibank,Q857063
5496,dominos_pizza_us,Domino's Pizza,,Arlington,TN,,US,+1 901-867-0032,https://pizza.dominos.com/tennessee/arlington/5780-airline-road,Mo-Th 10:00-24:00; Fr-Sa 10:00-01:00; Su 10:00-24:00,Domino's,Q839466
349629,dunkin_us,Dunkin',,Lakeland,TN,,US,+1 901-266-6005,https://locations.dunkindonuts.com/en/tn/lakeland/8984-us-highway-64/349629,Mo-Su 05:00-20:00,Dunkin',Q847743
https://www.edwardjones.com/us-en/financial-advisor/megan-l-roberts,edwardjones,Megan L Roberts,,Arlington,TN,,US,+1 901-592-0145,https://www.edwardjones.com/us-en/financial-advisor/megan-l-roberts,Tu-Th 08:00-16:00,Edward Jones,Q5343830
E15667,enterprise,Lakeland,,Lakeland,TN,,US,+1 901-383-2601,,,Enterprise Rent-A-Car,Q17085454
200323773,exxonmobil,SEASONS SQUARE,,ARLINGTON,TN,,US,+1 901-317-7663,https://www.exxon.com/en/find-station/exxon-arlington-tn-seasonssquare-200323773,Mo-Fr 06:00-22:00; Sa 07:00-22:00; Su 07:00-21:00,Exxon,Q109675651
200309627,exxonmobil,ARLINGTON TRAVEL CENTER,,ARLINGTON,TN,,US,+1 901-867-8025,https://www.exxon.com/en/find-station/exxon-arlington-tn-arlingtontravelcenter-200309627,24/7,Exxon,Q109675651
https://local.fedex.com/#25198570,fedex,,,Lakeland,TN,,US,+1 800-463-3339,https://local.fedex.com/en-us/tn/lakeland/amask,,FedEx,Q459477
https://local.fedex.com/#25232974,fedex,,,Arlington,TN,,US,+1 800-463-3339,https://local.fedex.com/en-us/tn/arlington/nqabk,,FedEx,Q459477
https://local.fedex.com/#25197364,fedex,,,Arlington,TN,,US,+1 800-463-3339,https://local.fedex.com/en-us/tn/arlington/akwwe,,FedEx,Q459477
https://local.fedex.com/#25203062,fedex,,,Arlington,TN,,US,+1 800-463-3339,https://local.fedex.com/en-us/tn/arlington/afiad,,FedEx,Q459477
6fb674f9-458a-e111-8dde-005056934050,goodwill,Arlington Donation Center,,Arlington,TN,,US,+1 901-323-6221,https://www.goodwill.org/locator/location/?store=NmZiNjc0ZjktNDU4YS1lMTExLThkZGUtMDA1MDU2OTM0MDUw&lat=MzUuMjkyNDg=&lng=LTg5LjY3NDQ3,,Goodwill,Q5583655
4ee6cd81-458a-e111-8dde-005056934050,goodwill,Lakeland Donation Center,,Arlington,TN,,US,+1 901-323-6221,https://www.goodwill.org/locator/location/?store=NGVlNmNkODEtNDU4YS1lMTExLThkZGUtMDA1MDU2OTM0MDUw&lat=MzUuMjA1MDQ=&lng=LTg5LjczODI3,,Goodwill,Q5583655
https://www.harborfreight.com/storelocator/9050-hwy-64-suite-b-lakeland-38002?number=3385,harborfreight,"Harbor Freight Tools Lakeland, TN",,Lakeland,TN,,US,+1 901-403-5300,https://www.harborfreight.com/storelocator/9050-hwy-64-suite-b-lakeland-38002?number=3385,Mo-Sa 08:00-20:00; Su 09:00-18:00,Harbor Freight Tools,Q5654601
40289,h_r_block,H&R Block,,Arlington,TN,,US,+1 901-382-2404,https://www.hrblock.com/local-tax-offices/tennessee/arlington/corner-shops-of-highway-64/40289/,,H&R Block,Q5627799
https://locations.kfc.com/#11247119,kfc,Chicken Nuggets Near Lakeland,,Lakeland,TN,,US,,https://locations.kfc.com/tn/lakeland/8995-highway-64-east/chickennugget,Mo-Th 10:00-22:00; Fr-Sa 10:00-23:00; Su 10:00-22:00,KFC,Q524757
301995,kindercare,Countrywood KinderCare,,Lakeland,TN,,US,,https://www.kindercare.com/our-centers/lakeland/tn/301995,,KinderCare Learning Centers,Q6410551
157710,marathon_petroleum_us,HWY 64 MARATHON,,ARLINGTON,TN,,US,+1 901-380-4371,,,Marathon,Q458363
157028,marathon_petroleum_us,64 MARKET AND DELI,,ARLINGTON,TN,,US,+1 901-867-2770,,,Marathon,Q458363
MEMFA,marriott,Fairfield Inn & Suites Memphis Arlington,,Arlington,TN,,US,+1 901-245-0640,https://www.marriott.com/MEMFA,,Fairfield by Marriott,Q5430314
MEMAH,marriott,SpringHill Suites Arlington TN,,Arlington,TN,,US,+1 901-557-8990,https://www.marriott.com/MEMAH,,SpringHill Suites,Q7580351
468,mightyflame,A&M MARKET,,ARLINGTON,TN,,US,+1 901-829-3851,,,Mighty Flame,
2412,mightyflame,LAKELAND BP,,LAKELAND,TN,,US,+1 615-403-5651,,,Mighty Flame,
1976,orangetheory_fitness,"Memphis-Lakeland, TN",,Lakeland,TN,,US,+1 901-302-6132,,,Orangetheory Fitness,Q25005163
https://locations.oreillyauto.com/tn/arlington/check-engine-light-testing-5265.html,oreilly,Your Arlington O'Reilly Auto Parts Store,,Arlington,TN,,US,+1 901-290-0065,https://locations.oreillyauto.com/tn/arlington/check-engine-light-testing-5265.html,Mo-Sa 07:00-21:00; Su 08:00-20:00,O'Reilly Auto Parts,Q7071951
https://locations.oreillyauto.com/tn/arlington/battery-testing-5265.html,oreilly,Your Arlington O'Reilly Auto Parts Store,,Arlington,TN,,US,+1 901-290-0065,https://locations.oreillyauto.com/tn/arlington/battery-testing-5265.html,Mo-Sa 07:00-21:00; Su 08:00-20:00,O'Reilly Auto Parts,Q7071951
https://locations.oreillyauto.com/tn/arlington/wiper-installation-5265.html,oreilly,Your Arlington O'Reilly Auto Parts Store,,Arlington,TN,,US,+1 901-290-0065,https://locations.oreillyauto.com/tn/arlington/wiper-installation-5265.html,Mo-Sa 07:00-21:00; Su 08:00-20:00,O'Reilly Auto Parts,Q7071951
https://locations.oreillyauto.com/tn/arlington/autopartes-5265.html,oreilly,Tu tienda O'Reilly Auto Parts en Arlington,,Arlington,TN,,US,+1 901-290-0065,https://locations.oreillyauto.com/tn/arlington/autopartes-5265.html,Mo-Sa 07:00-21:00; Su 08:00-20:00,O'Reilly Auto Parts,Q7071951
https://locations.papajohns.com/#10693334,papa_johns,Papa John's,,Arlington,TN,,US,+1 901-373-2440,https://locations.papajohns.com/united-states/tn/38002/arlington/9160-highway-64,Mo-Th 10:30-22:00; Fr-Sa 10:30-23:00; Su 10:30-22:00,Papa John's Pizza,Q2759586
tn_arlington_8979-us-hwy-64,pizza_hut_us,8979 US Hwy 64,,Arlington,TN,,US,+1 901-213-3484,https://locations.pizzahut.com/tn/arlington/8979-us-hwy-64,,Pizza Hut,Q191615
tn_arlington_11615-highway-70,pizza_hut_us,11615 Highway 70,,Arlington,TN,,US,+1 901-867-2391,https://locations.pizzahut.com/tn/arlington/11615-highway-70,,Pizza Hut,Q191615
https://www.sprouts.com/store/tn/lakeland/lakeland/,sprouts_farmer_market,Sprouts Farmers Market 578-Lakeland,,Lakeland,TN,,US,+1 901-259-3450,https://www.sprouts.com/store/tn/lakeland/lakeland/,Mo-Su 07:00-22:00,Sprouts Farmer Market,Q7581369
https://restaurants.subway.com/#14894319,subway,Subway Country Bridge Shpg Ctr,,Lakeland Shelby,TN,,US,+1 901-381-1380,https://restaurants.subway.com/united-states/tn/lakeland/9020-us-hwy-64,Mo-Su 08:00-21:00,Subway,Q244457
https://restaurants.subway.com/#14903121,subway,Subway Exxon Gas Station,,Lakeland Shelby,TN,,US,+1 901-330-4265,https://restaurants.subway.com/united-states/tn/lakeland/3548-canada-rd,Mo-Su 08:00-21:00,Subway,Q244457
https://restaurants.subway.com/#14894191,subway,Subway Arlington Kroger Center,,Arlington Shelby,TN,,US,+1 901-867-0007,https://restaurants.subway.com/united-states/tn/arlington/11615-hwy-70,Mo-Su 08:00-21:00,Subway,Q244457
81497,supercuts,The Shops Of Arlington Village,5224 Airline Rd Ste 103,Arlington,TN,,US,+1 901-616-6142,https://www.supercuts.com/checkin/81497,Mo-Fr 09:00-18:00; Sa 08:00-18:00,Supercuts,Q7643239
https://locations.tacobell.com/#6141573,taco_bell,Taco Bell,,Lakeland,TN,,US,+1 901-249-7235,https://locations.tacobell.com/tn/lakeland/9821-us-hwy-64.html,Mo 09:00-22:00; Tu-Th 09:00-02:00; Fr 09:00-03:00; Sa 09:00-20:00; Su 09:00-02:00,Taco Bell,Q752941
https://locations.tacobell.com/#29438813,taco_bell,Taco Bell,,Arlington,TN,,US,+1 901-317-4440,https://locations.tacobell.com/tn/arlington/5228-airline-road.html,Mo-Fr 09:00-01:00; Sa 09:00-22:00; Su 09:00-01:00,Taco Bell,Q752941
187,the_exercise_coach_us,The Exercise Coach,,Lakeland,TN,,US,+1 901-616-6082,https://exercisecoach.com/lakeland/,,The Exercise Coach,Q121502262
3090,upsstore,Shops Of Stonebridge Center,9160 Hwy 64 Ste 12,Lakeland,TN,,US,+1 901-385-6620,https://locations.theupsstore.com/tn/lakeland/9160-hwy-64,,UPS Store,Q7771029
7013,upsstore,Arlington,11615 US-70 Ste 108B,Arlington,TN,,US,+1 901-616-6940,https://locations.theupsstore.com/tn/arlington/11615-us-70,,UPS Store,Q7771029
1353356,usps,ARLINGTON,,ARLINGTON,TN,,US,+1 901-867-3963,,Mo-Fr 09:00-16:00,United States Postal Service,Q668687
3800200001,usps_collection_boxes,USPS COLLECTION BOX - BLUE BOX,3740 CANADA & WINDWARD SLOPES,ARLINGTON,TN,,US,,,,United States Postal Service,Q668687
3800200005,usps_collection_boxes,USPS COLLECTION BOX - PO LOBBY,5885 AIRLINE RD,ARLINGTON,TN,,US,,,,United States Postal Service,Q668687
3800200002,usps_collection_boxes,USPS COLLECTION BOX - BLUE BOX,5885 AIRLINE RD,ARLINGTON,TN,,US,,,,United States Postal Service,Q668687
3800200009,usps_collection_boxes,USPS COLLECTION BOX - PO LOBBY,5885 AIRLINE RD,ARLINGTON,TN,,US,,,,United States Postal Service,Q668687
3800200007,usps_collection_boxes,USPS COLLECTION BOX - PO LOBBY,5885 AIRLINE RD,ARLINGTON,TN,,US,,,,United States Postal Service,Q668687
lakeland_oil-change-050063,valvoline_instant_oil_change,Valvoline,8972 Hwy 64 ,Lakeland,TN,,US,+1 901-388-7289,https://store.vioc.com/tn/lakeland/oil-change-050063.html,,Valvoline Instant Oil Change,Q7912852
,visa,,,ARLINGTON,TN,,US,,,,,
,visa,,,ARLINGTON,TN,,US,,,,,
,visa,,,ARLINGTON,TN,,US,,,,,
,visa,,,ARLINGTON,TN,,US,,,,,
,visa,,,ARLINGTON,TN,,US,,,,,
,visa,,,ARLINGTON,TN,,US,,,,,
,visa,,,ARLINGTON I,TN,,US,,,,,
,visa,,,ARLINGTON,TN,,US,,,,,
,visa,,,ARLINGTON,TN,,US,,,,,
,visa,,,ARLINGTON,TN,,US,,,,,
,visa,,,ARLINGTON,TN,,US,,,,,
,visa,,,ARLINGTON,TN,,US,,,,,
,visa,,,ARLINGTON,TN,,US,,,,,
,visa,,,ARLINGTON,TN,,US,,,,,
,visa,,,ARLINGTON,TN,,US,,,,,
,visa,,,ARLINGTON,TN,,US,,,,,
,visa,,,ARLINGTON,TN,,US,,,,,
,visa,,,LAKELAND,TN,,US,,,,,
,visa,,,LAKELAND,TN,,US,,,,,
,visa,,,LAKELAND,TN,,US,,,,,
,visa,,,LAKELAND,TN,,US,,,,,
,visa,,,LAKELAND,TN,,US,,,,,
,visa,,,LAKELAND,TN,,US,,,,,
,visa,,,ARLINGTON,TN,,US,,,,,
,visa,,,ARLINGTON,TN,,US,,,,,
,visa,,,ARLINGTON,TN,,US,,,,,
,visa,,,ARLINGTON,TN,,US,,,,,
,visa,,,ARLINGTON,TN,,US,,,,,
,visa,,,MEMPHIS,TN,,US,,,,,
,visa,,,ARLINGTON,TN,,US,,,,,
,visa,,,ARLINGTON,TN,,US,,,,,
,visa,,,BARTLETT,TN,,US,,,,,
,visa,,,ARLINGTON,TN,,US,,,,,
1232,waffle_house_us,Waffle House #1232,,LAKELAND,TN,,US,+1 901-388-6009,https://locations.wafflehouse.com/lakeland-tn-1232,24/7,Waffle House,Q1701206
2213,waffle_house_us,Waffle House #2213,,LAKELAND,TN,,US,+1 901-213-0146,https://locations.wafflehouse.com/lakeland-tn-2213,24/7,Waffle House,Q1701206
2415,waffle_house_us,Waffle House #2415,,ARLINGTON,TN,,US,+1 901-290-1456,https://locations.wafflehouse.com/arlington-tn-2415,24/7,Waffle House,Q1701206
https://www.walgreens.com/locator/walgreens-9085+us+highway+64-arlington-tn-38002/id=5066,walgreens,Walgreens,,Arlington,TN,,US,+1 901-382-1533,https://www.walgreens.com/locator/walgreens-9085+us+highway+64-arlington-tn-38002/id=5066,Mo-Fr 07:00-23:00; Sa 07:00-22:00; Su 08:00-22:00,Walgreens,Q1591889
https://www.walgreens.com/locator/walgreens-2960+canada+rd-lakeland-tn-38002/id=6985,walgreens,Walgreens,,Lakeland,TN,,US,+1 901-379-2102,https://www.walgreens.com/locator/walgreens-2960+canada+rd-lakeland-tn-38002/id=6985,Mo-Fr 07:00-23:00; Sa-Su 07:00-22:00,Walgreens,Q1591889
https://www.walgreens.com/locator/walgreens-8097+highway+70-arlington-tn-38002/id=6958,walgreens,Walgreens,,Arlington,TN,,US,+1 901-377-2633,https://www.walgreens.com/locator/walgreens-8097+highway+70-arlington-tn-38002/id=6958,Mo-Fr 07:00-23:00; Sa 07:00-22:00; Su 08:00-22:00,Walgreens,Q1591889
9059__HIGHWAY__64_ARLINGTON_TN_38002,wellsfargo,Wells Fargo,9059 HIGHWAY 64,ARLINGTON,TN,,US,+1 901-381-1720,https://www.wellsfargo.com/locator/bank/9059__HIGHWAY__64_ARLINGTON_TN_38002/,Mo-Fr 09:00-17:00,Wells Fargo,Q744149
https://locations.wendys.com/#9250650,wendys,"Wendy's Houston Levee & 64 in Arlington, TN",,Arlington,TN,,US,+1 901-385-9920,https://locations.wendys.com/united-states/tn/arlington/9981-highway-64,"Mo-Su 06:30-10:30,06:30-22:00",Wendy's,Q550258
https://locations.wendys.com/#17039958,wendys,"Wendy's Arlington in Arlington, TN",,Arlington,TN,,US,+1 901-605-8168,https://locations.wendys.com/united-states/tn/arlington/5811-airline-road,Mo-Su 06:30-10:30,Wendy's,Q550258
0e915faf69dcaa0939449299b645d058,western_union,REGIONS #7401,,Arlington,TN,,US,+1 901-742-0121,https://location.westernunion.com/us/tn/arlington/0e915faf69dcaa0939449299b645d058,Mo-Th 09:00-16:30; Fr 09:00-17:00; Sa 09:00-12:00,Western Union,Q861042
abd70a7da096ef9b3852490950b71e11,western_union,REGIONS #0860,,Lakeland,TN,,US,+1 901-896-2520,https://location.westernunion.com/us/tn/lakeland/abd70a7da096ef9b3852490950b71e11,Mo-Th 09:00-16:30; Fr 09:00-17:00; Sa 09:00-12:00,Western Union,Q861042
https://locations.whataburger.com/tn/arlington/11845-milton-wilson-rd.html,whataburger,Whataburger,11845 Milton Wilson Rd,Arlington,TN,,US,,https://locations.whataburger.com/tn/arlington/11845-milton-wilson-rd.html,,Whataburger,Q376627
