Ref,Spider,Name,Address,City,State,Zipcode,Country,Phone,Website,Hours,Brand,WikiData
https://vertretung.allianz.de/juergen.brase/,allianz_de,Allianz Versicherung Jürgen Brase GENERALVERTRETUNG,,Celle,,,DE,+49 5141 9349177,https://vertretung.allianz.de/juergen.brase/,"Mo-Tu 09:00-12:00,15:00-17:30; We 09:00-12:00; Th 09:00-12:00,15:00-17:30; Fr 09:00-12:00",Allianz SE,Q487292
28202500,bp,Eugen Hildebrandt,,Celle,,,DE,+49 5141 930909,http://tankstelle.aral.de/tankstelle/28202500,24/7,BP,Q152057
14512,burgerking,Burger King,,Celle,,,DE,+49 5141 484167,https://www.burgerking.de/store-locator/store/restaurant_8634,Mo-Sa 10:00-00:00; Su 10:00-17:00,Burger King,Q177054
https://www.biomarkt.de/celle-telefunkenstr-49,denns_de,Denns BioMarkt Celle,,Celle,,,DE,+49 5141 9804514,https://www.biomarkt.de/celle-telefunkenstr-49/marktseite,,Denns BioMarkt,Q48883773
de:2100,dm,dm-drogerie markt,,Celle,,,DE,+49 5141 2082218,https://www.dm.de/store/d3fc/celle/telefunkenstrasse-49,Mo-Sa 08:00-20:00,dm,Q266572
33759,dominos_pizza_de,Domino's Pizza Celle Nord,,Celle,,,DE,,https://www.dominos.de/filiale/de-cellenord-33759,,Domino's,Q839466
FordGK1F6DA  DEU,ford,Autohaus Speckhahn - Celle,,Celle,,,DE,+49 5141 48490,ford-speckhahn-celle.de,,Ford,Q44294
67857,man_truck_and_bus,MOTORTECH GmbH,,Celle,,,DE,+49 5141 93990,,,MAN Truck & Bus,Q708667
104195,sparkasse_de,Sparkasse Celle-Gifhorn-Wolfsburg Geldautomat CE Witzlebenstraße,,Celle,,,DE,+49 5371 81499999,https://www.sparkasse.de/standorte/geldautomaten/sparkasse-celle-gifhorn-wolfsburg-geldautomat-ce-witzlebenstrasse-104195,,Sparkasse,Q13601825
104194,sparkasse_de,Sparkasse Celle-Gifhorn-Wolfsburg SB-Filiale CE Witzlebenstraße,,Celle,,,DE,+49 5371 81499999,https://www.sparkasse.de/standorte/filialen/sparkasse-celle-gifhorn-wolfsburg-sb-filiale-ce-witzlebenstrasse-104194,,Sparkasse,Q13601825
173189,sparkasse_de,Sparkasse Celle-Gifhorn-Wolfsburg Immobilien-Center CE Vorstadt,,Celle,,,DE,+49 5371 81499999,https://www.sparkasse.de/standorte/filialen/sparkasse-celle-gifhorn-wolfsburg-immobilien-center-ce-vorstadt-173189,"Mo 09:30-12:30,14:00-18:00; Tu 09:30-12:30,14:00-16:00; We 09:30-12:30; Th 09:30-12:30,14:00-18:00; Fr 09:30-12:30,14:00-16:00",Sparkasse,Q13601825
171597,sparkasse_de,Sparkasse Celle-Gifhorn-Wolfsburg Geldautomat CE Vorstadt,,Celle,,,DE,+49 5371 81499999,https://www.sparkasse.de/standorte/geldautomaten/sparkasse-celle-gifhorn-wolfsburg-geldautomat-ce-vorstadt-171597,Mo-Su 06:00-24:00,Sparkasse,Q13601825
172492,sparkasse_de,Sparkasse Celle-Gifhorn-Wolfsburg VermögenskundenCenter CE Vorstadt,,Celle,,,DE,+49 5371 81499999,https://www.sparkasse.de/standorte/filialen/sparkasse-celle-gifhorn-wolfsburg-vermoegenskunden-center-ce-vorstadt-172492,"Mo 09:30-12:30,14:00-18:00; Tu 09:30-12:30,14:00-16:00; We 09:30-12:30; Th 09:30-12:30,14:00-18:00; Fr 09:30-12:30,14:00-16:00",Sparkasse,Q13601825
176301,sparkasse_de,Sparkasse Celle-Gifhorn-Wolfsburg Voll-Service Filiale CE Vorstadt,,Celle,,,DE,+49 5371 81499999,https://www.sparkasse.de/standorte/filialen/sparkasse-celle-gifhorn-wolfsburg-voll-service-filiale-ce-vorstadt-176301,"Mo 09:30-12:30,14:00-18:00; Tu 09:30-12:30,14:00-16:00; We 09:30-12:30; Th 09:30-12:30,14:00-18:00; Fr 09:30-12:30,14:00-16:00",Sparkasse,Q13601825
103826,sparkasse_de,Sparkasse Celle-Gifhorn-Wolfsburg Geldautomat CE Klein Hehlen,,Celle,,,DE,+49 5371 81499999,https://www.sparkasse.de/standorte/geldautomaten/sparkasse-celle-gifhorn-wolfsburg-geldautomat-ce-klein-hehlen-103826,Mo-Su 06:00-24:00,Sparkasse,Q13601825
103827,sparkasse_de,Sparkasse Celle-Gifhorn-Wolfsburg SB-Filiale CE Klein Hehlen,,Celle,,,DE,+49 5371 81499999,https://www.sparkasse.de/standorte/filialen/sparkasse-celle-gifhorn-wolfsburg-sb-filiale-ce-klein-hehlen-103827,Mo-Su 06:00-24:00,Sparkasse,Q13601825
103803,sparkasse_de,Sparkasse Celle-Gifhorn-Wolfsburg Geldautomat CE Altenhäger Kirchweg,,Celle,,,DE,+49 5371 81499999,https://www.sparkasse.de/standorte/geldautomaten/sparkasse-celle-gifhorn-wolfsburg-geldautomat-ce-altenhaeger-kirchweg-103803,Mo-Su 06:00-24:00,Sparkasse,Q13601825
103802,sparkasse_de,Sparkasse Celle-Gifhorn-Wolfsburg SB-Filiale CE Altenhäger Kirchweg,,Celle,,,DE,+49 5371 81499999,https://www.sparkasse.de/standorte/filialen/sparkasse-celle-gifhorn-wolfsburg-sb-filiale-ce-altenhaeger-kirchweg-103802,Mo-Su 06:00-24:00,Sparkasse,Q13601825
EX_BP_943,totalenergies,"ARAL TANKSTELLE CELLE, HARBURG",,Celle,,,DE,,https://store.totalenergies.fr/en_EN/EX_BP_943,,Aral,Q565734
3753,valora,Cigo,,Celle,,,DE,,,,Cigo,Q113290782
,visa,,,CELLE,,,DE,,,,,
,visa,,,CELLE,,,DE,,,,,
,visa,,,CELLE,,,DE,,,,,
,visa,,,CELLE,,,DE,,,,,
,visa,,,CELLE,,,DE,,,,,
,visa,,,CELLE,,,DE,,,,,
,visa,,,CELLE,,,DE,,,,,
