Ref,Spider,Name,Address,City,State,Zipcode,Country,Phone,Website,Hours,Brand,WikiData
1033878,alamo,Youngstown-Warren Reg. Airport,,Vienna,OH,,US,+1 330-856-1692,,,ALAMO,Q1429287
https://www.avis.com/en/locations/us/oh/vienna/yng,avis,Avis U S A Vienna Airport,,Vienna,OH,,US,+1 330-856-3217,https://www.avis.com/en/locations/us/oh/vienna/yng,Mo-Fr 08:00-17:00; Sa 09:00-13:00; Su 09:00-12:00,Avis,Q791136
197149,bluerhino,Pit Stop Brew Thru,,Vienna,OH,,US,+1 234-830-0028,,,Blue Rhino,Q65681213
54909,citi,ATM FARMERS NATIONAL BANK,,Vienna,OH,,US,,,,Citibank,Q857063
96004,citi,ATM Yankee Kitchen Vienna,,Vienna,OH,,US,,,,Citibank,Q857063
39464,citi,ATM Certified Oil,,Vienna,OH,,US,,,,Citibank,Q857063
75680,citi,ATM SEVEN SEVENTEEN CREDIT UNION,,Vienna,OH,,US,,,,Citibank,Q857063
75687,citi,ATM SEVEN SEVENTEEN CREDIT UNION,,Vienna,OH,,US,,,,Citibank,Q857063
75688,citi,ATM SEVEN SEVENTEEN CREDIT UNION,,Vienna,OH,,US,,,,Citibank,Q857063
75686,citi,ATM SEVEN SEVENTEEN CREDIT UNION,,Vienna,OH,,US,,,,Citibank,Q857063
,credit_union_us,7 17 Credit Union,,Vienna,OH,,US,+1 330-372-8100,,Mo-Th 09:00-05:00; Fr 09:00-06:00,,
,credit_union_us,7 17 Credit Union,,Vienna,OH,,US,+1 330-372-8100,,Mo-Th 09:00-05:00; Fr 09:00-06:00,,
520711,eg_america_us,Certified,,VIENNA,OH,,US,+1 330-856-1436,https://www.certifiedoil.com/find-us/generic-store-page/?id=400458,,Certified Oil,Q100148356
158582,marathon_petroleum_us,CERTIFIED OIL 458,,VIENNA,OH,,US,+1 330-856-1436,,,Marathon,Q458363
https://www.mercy.com/#d1af162a-9178-4740-83bf-ee938baa384d,mercy_health_us,Mercy Health â€” Vienna Primary Care,,Vienna,OH,,US,+1 330-394-2305,https://www.mercy.com/locations/primary-care-family-medicine/youngstown/mercy-health-vienna-primary-care,Mo-Fr 08:00-16:30,Mercy Health,Q5053169
1033879,national,Youngstown-Warren Reg. Airport,,Vienna,OH,,US,+1 330-856-1692,,,NATIONAL,Q1424142
1385955,usps,VIENNA,,VIENNA,OH,,US,+1 330-394-2300,,Mo-Fr 08:00-16:30; Sa 08:30-12:00,United States Postal Service,Q668687
4447300000,usps_collection_boxes,USPS COLLECTION BOX - BLUE BOX,4411 WARREN SHARON RD,VIENNA,OH,,US,,,,United States Postal Service,Q668687
4447300001,usps_collection_boxes,USPS COLLECTION BOX - PO LOBBY,4411 WARREN SHARON RD,VIENNA,OH,,US,,,,United States Postal Service,Q668687
4447300004,usps_collection_boxes,USPS COLLECTION BOX - PO LOBBY,4411 WARREN SHARON RD,VIENNA,OH,,US,,,,United States Postal Service,Q668687
4447300002,usps_collection_boxes,USPS COLLECTION BOX - BLUE BOX,3976 KING GRAVES RD,VIENNA,OH,,US,,,,United States Postal Service,Q668687
,visa,,,VIENNA,OH,,US,,,,,
,visa,,,VIENNA,OH,,US,,,,,
,visa,,,VIENNA,OH,,US,,,,,
,visa,,,VIENNA,OH,,US,,,,,
,visa,,,VIENNA,OH,,US,,,,,
,visa,,,VIENNA,OH,,US,,,,,
