Ref,Spider,Name,Address,City,State,Zipcode,Country,Phone,Website,Hours,Brand,WikiData
,visa,,,CARDENAS,SAN LUIS POTOSI,,MX,,,,,
,visa,,,SAN LUIS POTOSI,SAN LUIS POTOSI,,MX,,,,,
119e6002a002ee9f8bce841574d81093,western_union,TELECOMM 24003,,Cardenas,SAN LUIS POTOSI,,MX,+52 800 800 8930,https://location.westernunion.com/mx/san-luis-potosi/cardenas/119e6002a002ee9f8bce841574d81093,Mo-Su 09:00-20:00,Western Union,Q861042
e76d51c0b32d33029d2f61152883f688,western_union,TELECOMM 24003,,Cardenas,SAN LUIS POTOSI,,MX,+52 800 800 8930,https://location.westernunion.com/mx/san-luis-potosi/cardenas/e76d51c0b32d33029d2f61152883f688,Mo-Sa 09:00-21:00,Western Union,Q861042
0781b0062a414d13617bd33e38545f49,western_union,BANCOPPEL 1388 AMONARIO DIAZ DE LEON,,Cardenas,SAN LUIS POTOSI,,MX,(+52) 667-589999,https://location.westernunion.com/mx/san-luis-potosi/cardenas/0781b0062a414d13617bd33e38545f49,Mo-Su 08:30-21:00,Western Union,Q861042
401083c3e1d49a46d1123890c5bb61f0,western_union,BANCOPPEL 1388 AMONARIO DIAZ DE LEON,,Cardenas,SAN LUIS POTOSI,,MX,(+52) 667-589999,https://location.westernunion.com/mx/san-luis-potosi/cardenas/401083c3e1d49a46d1123890c5bb61f0,Mo-Su 08:30-21:00,Western Union,Q861042
38070d0f2615c4605649b12c790d1baf,western_union,BANCOPPEL 1388 AMONARIO DIAZ DE LEON,,Cardenas,SAN LUIS POTOSI,,MX,(+52) 667-589999,https://location.westernunion.com/mx/san-luis-potosi/cardenas/38070d0f2615c4605649b12c790d1baf,Mo-Su 08:30-21:00,Western Union,Q861042
e169a1c9af0ab50982a0de9ef9dbfe1b,western_union,CAJA SOLIDARIA EL FUTURO 2 AP CASH,,Cardenas,SAN LUIS POTOSI,,MX,+52 487 873 0090,https://location.westernunion.com/mx/san-luis-potosi/cardenas/e169a1c9af0ab50982a0de9ef9dbfe1b,Mo-Fr 08:00-17:00; Sa 08:00-14:00,Western Union,Q861042
6f4e3c2a3c91d48a0a5b196a1245dcda,western_union,CAJA SOLIDARIA EL FUTURO 2 AP CASH,,Cardenas,SAN LUIS POTOSI,,MX,+52 487 873 0090,https://location.westernunion.com/mx/san-luis-potosi/cardenas/6f4e3c2a3c91d48a0a5b196a1245dcda,Mo-Fr 08:00-17:00; Sa 08:00-14:00,Western Union,Q861042
1a3e96b0c708305ae0d0e1298c147adf,western_union,TIENDAS NETO CARDENAS MERCADO 0600,,Cardenas,SAN LUIS POTOSI,,MX,+52 487 688 1470,https://location.westernunion.com/mx/san-luis-potosi/cardenas/1a3e96b0c708305ae0d0e1298c147adf,Mo-Su 07:00-22:00,Western Union,Q861042
a63d0051b85ba80ee14adfbfd063baef,western_union,TIENDAS NETO CARDENAS MERCADO 0600,,Cardenas,SAN LUIS POTOSI,,MX,+52 487 688 1470,https://location.westernunion.com/mx/san-luis-potosi/cardenas/a63d0051b85ba80ee14adfbfd063baef,Mo-Su 07:00-22:00,Western Union,Q861042
6e5effa9b911b13298c7c70fea530cdf,western_union,TIENDAS NETO CARDENAS MERCADO 0600,,Cardenas,SAN LUIS POTOSI,,MX,+52 487 688 1470,https://location.westernunion.com/mx/san-luis-potosi/cardenas/6e5effa9b911b13298c7c70fea530cdf,Mo-Su 07:00-22:00,Western Union,Q861042
dba3f017c9bbe9b123a2cb285bcab779,western_union,AURRERA CARDENAS 2587,,Cardenas,SAN LUIS POTOSI,,MX,+52 800 833 4700,https://location.westernunion.com/mx/san-luis-potosi/cardenas/dba3f017c9bbe9b123a2cb285bcab779,Mo-Su 07:00-23:00,Western Union,Q861042
325a38326e6ee8b08b00464074525a61,western_union,AURRERA CARDENAS 2587,,Cardenas,SAN LUIS POTOSI,,MX,+52 800 833 4700,https://location.westernunion.com/mx/san-luis-potosi/cardenas/325a38326e6ee8b08b00464074525a61,Mo-Su 07:00-23:00,Western Union,Q861042
f020528ae3404a336c5c13fe8aaaf666,western_union,AURRERA CARDENAS 2587,,Cardenas,SAN LUIS POTOSI,,MX,+52 800 833 4700,https://location.westernunion.com/mx/san-luis-potosi/cardenas/f020528ae3404a336c5c13fe8aaaf666,Mo-Su 07:00-23:00,Western Union,Q861042
1337db7a42807bcdb52ff66b56e46183,western_union,OXXO CARDENAS SLP,,Cardenas,SAN LUIS POTOSI,,MX,+52 81 8389 2121,https://location.westernunion.com/mx/san-luis-potosi/cardenas/1337db7a42807bcdb52ff66b56e46183,Mo-Su 08:00-22:00,Western Union,Q861042
a7a16e4acb06515872c6a92be68349cb,western_union,OXXO CARDENAS SLP,,Cardenas,SAN LUIS POTOSI,,MX,+52 81 8389 2121,https://location.westernunion.com/mx/san-luis-potosi/cardenas/a7a16e4acb06515872c6a92be68349cb,Mo-Su 08:00-22:00,Western Union,Q861042
e2a063228680c496b7b9d91416a5a264,western_union,OXXO Cardenas SLP,,Cardenas,SAN LUIS POTOSI,,MX,+52 81 8389 2121,https://location.westernunion.com/mx/san-luis-potosi/cardenas/e2a063228680c496b7b9d91416a5a264,Mo-Su 08:00-22:00,Western Union,Q861042
9214063d0cbf8dd2259e990aabd23a28,western_union,CAJA SOLIDARIA EL FUTURO 2 AP CASH,,Cardenas,SAN LUIS POTOSI,,MX,+52 487 873 0090,https://location.westernunion.com/mx/san-luis-potosi/cardenas/9214063d0cbf8dd2259e990aabd23a28,Mo-Fr 08:00-17:00; Sa 08:00-14:00,Western Union,Q861042
0c7fbc51d7f0293771e5841f467ca344,western_union,CAJA LEON FRANCO- CARDENAS,,Cardenas,SAN LUIS POTOSI,,MX,+52 81 2133 2160,https://location.westernunion.com/mx/san-luis-potosi/cardenas/0c7fbc51d7f0293771e5841f467ca344,Mo-Fr 08:00-17:00; Sa 08:00-14:00,Western Union,Q861042
e03f2383617eb6f70ef69ec08149ecb3,western_union,CAJA LEON FRANCO- CARDENAS,,Cardenas,SAN LUIS POTOSI,,MX,+52 81 2133 2160,https://location.westernunion.com/mx/san-luis-potosi/cardenas/e03f2383617eb6f70ef69ec08149ecb3,Mo-Fr 08:00-17:00; Sa 08:00-14:00,Western Union,Q861042
d1110af08b94aea46989e222a038af5b,western_union,CAJA LEON FRANCO- CARDENAS,,Cardenas,SAN LUIS POTOSI,,MX,+52 81 2133 2160,https://location.westernunion.com/mx/san-luis-potosi/cardenas/d1110af08b94aea46989e222a038af5b,Mo-Fr 08:00-17:00; Sa 08:00-14:00,Western Union,Q861042
b9d4704571df96175f13e995f3604f32,western_union,OXXO DR AMONARIO SLP,,Cardenas,SAN LUIS POTOSI,,MX,+52 81 8389 2121,https://location.westernunion.com/mx/san-luis-potosi/cardenas/b9d4704571df96175f13e995f3604f32,Mo-Su 08:00-22:00,Western Union,Q861042
3d8adfd7fe2acbc95fe733eb722a6c8b,western_union,OXXO DR AMONARIO SLP,,Cardenas,SAN LUIS POTOSI,,MX,+52 81 8389 2121,https://location.westernunion.com/mx/san-luis-potosi/cardenas/3d8adfd7fe2acbc95fe733eb722a6c8b,Mo-Su 08:00-22:00,Western Union,Q861042
b439be1bc76de51cd5c73b36342e3591,western_union,OXXO DR AMONARIO SLP,,Cardenas,SAN LUIS POTOSI,,MX,+52 81 8389 2121,https://location.westernunion.com/mx/san-luis-potosi/cardenas/b439be1bc76de51cd5c73b36342e3591,Mo-Su 08:00-22:00,Western Union,Q861042
5de7d6ba0f18f32abbf2f06ddb745115,western_union,TELECOMM 24003,,Cardenas,SAN LUIS POTOSI,,MX,+52 800 800 9889,https://location.westernunion.com/mx/san-luis-potosi/cardenas/5de7d6ba0f18f32abbf2f06ddb745115,Mo-Fr 09:00-15:00; Sa 09:00-12:00,Western Union,Q861042
