Ref,Spider,Name,Address,City,State,Zipcode,Country,Phone,Website,Hours,Brand,WikiData
,visa,,,CHIMALHUACAN,ESTADO DE MEXICO,,MX,,,,,
,visa,,,CHIMALHUACAN,ESTADO DE MEXICO,,MX,,,,,
,visa,,,CHIMALHUACAN,ESTADO DE MEXICO,,MX,,,,,
bf3c6f38338d9db8e9bc6a02ea3d74d2,western_union,AURRERA EXPRESS ACUITLAPILCO 1362,,Chimalhuacan,ESTADO DE MEXICO,,MX,+52 800 833 4700,https://location.westernunion.com/mx/estado-de-mexico/chimalhuacan/bf3c6f38338d9db8e9bc6a02ea3d74d2,Mo-Su 08:00-22:00,Western Union,Q861042
682e99e01e5f4be27e61fd7698ee3b6a,western_union,AURRERA EXPRESS ACUITLAPILCO 1362,,Chimalhuacan,ESTADO DE MEXICO,,MX,+52 800 833 4700,https://location.westernunion.com/mx/estado-de-mexico/chimalhuacan/682e99e01e5f4be27e61fd7698ee3b6a,Mo-Su 08:00-22:00,Western Union,Q861042
88e13b5238f87107866e4f68f54630af,western_union,AURRERA EXPRESS ACUITLAPILCO 1362,,Chimalhuacan,ESTADO DE MEXICO,,MX,+52 800 833 4700,https://location.westernunion.com/mx/estado-de-mexico/chimalhuacan/88e13b5238f87107866e4f68f54630af,Mo-Su 08:00-22:00,Western Union,Q861042
64c687e268aa18d3ffef45851a837c04,western_union,TIENDAS NETO ARENAL CHIMALHUACAN 1093,,Chimalhuacan,ESTADO DE MEXICO,,MX,+52 55 7577 4760,https://location.westernunion.com/mx/estado-de-mexico/chimalhuacan/64c687e268aa18d3ffef45851a837c04,Mo-Su 07:00-22:00,Western Union,Q861042
cb057594a42f1cb35de05338b49364e5,western_union,TIENDAS NETO ARENAL CHIMALHUACAN 1093,,Chimalhuacan,ESTADO DE MEXICO,,MX,+52 55 7577 4760,https://location.westernunion.com/mx/estado-de-mexico/chimalhuacan/cb057594a42f1cb35de05338b49364e5,Mo-Su 07:00-22:00,Western Union,Q861042
d56f23f59288c76f8a16fa8fc818b304,western_union,EKT 3361 BORDO ARENAL,,Chimalhuacan,ESTADO DE MEXICO,,MX,+52 55 1720 8177,https://location.westernunion.com/mx/estado-de-mexico/chimalhuacan/d56f23f59288c76f8a16fa8fc818b304,Mo-Su 09:00-21:00,Western Union,Q861042
4023d804249d212ea148748074011c44,western_union,EKT 3361 BORDO ARENAL,,Chimalhuacan,ESTADO DE MEXICO,,MX,+52 55 1720 8177,https://location.westernunion.com/mx/estado-de-mexico/chimalhuacan/4023d804249d212ea148748074011c44,Mo-Su 09:00-21:00,Western Union,Q861042
0f5653388e821a40e697c1d5d228b539,western_union,EKT 3361 BORDO ARENAL,,Chimalhuacan,ESTADO DE MEXICO,,MX,+52 55 1720 8177,https://location.westernunion.com/mx/estado-de-mexico/chimalhuacan/0f5653388e821a40e697c1d5d228b539,Mo-Su 09:00-21:00,Western Union,Q861042
dcea1657d6f13014dc4f414a68070b7a,western_union,AURRERA EXPRESS VIOLETA 3491,,Chimalhuacan,ESTADO DE MEXICO,,MX,+52 800 833 4700,https://location.westernunion.com/mx/estado-de-mexico/chimalhuacan/dcea1657d6f13014dc4f414a68070b7a,Mo-Su 08:00-22:00,Western Union,Q861042
e893922f7cadf2005a472181c7aeaadf,western_union,AURRERA EXPRESS VIOLETA 3491,,Chimalhuacan,ESTADO DE MEXICO,,MX,+52 800 833 4700,https://location.westernunion.com/mx/estado-de-mexico/chimalhuacan/e893922f7cadf2005a472181c7aeaadf,Mo-Su 08:00-22:00,Western Union,Q861042
5ca16348143cc83aa28649a78c607e41,western_union,AURRERA EXPRESS VIOLETA 3491,,Chimalhuacan,ESTADO DE MEXICO,,MX,+52 800 833 4700,https://location.westernunion.com/mx/estado-de-mexico/chimalhuacan/5ca16348143cc83aa28649a78c607e41,Mo-Su 08:00-22:00,Western Union,Q861042
da00bee6aa5b7008cad7d986b24b4518,western_union,OXXO ACUITLAPILCO MEX,,Chimalhuacan,ESTADO DE MEXICO,,MX,+52 81 8389 2121,https://location.westernunion.com/mx/estado-de-mexico/chimalhuacan/da00bee6aa5b7008cad7d986b24b4518,Mo-Su 08:00-22:00,Western Union,Q861042
f4b124cd70b5ad82698a67addc1e487e,western_union,OXXO ACUITLAPILCO MEX,,Chimalhuacan,ESTADO DE MEXICO,,MX,+52 81 8389 2121,https://location.westernunion.com/mx/estado-de-mexico/chimalhuacan/f4b124cd70b5ad82698a67addc1e487e,Mo-Su 08:00-22:00,Western Union,Q861042
5552a7468ee4cb622a2d87c56f5aa741,western_union,OXXO ACUITLAPILCO MEX,,Chimalhuacan,ESTADO DE MEXICO,,MX,+52 81 8389 2121,https://location.westernunion.com/mx/estado-de-mexico/chimalhuacan/5552a7468ee4cb622a2d87c56f5aa741,Mo-Su 08:00-22:00,Western Union,Q861042
abd11d68ea6ca8906600fd31150710f6,western_union,BANCOPPEL 6574 ARCA DE NOE,,Chimalhuacan,ESTADO DE MEXICO,,MX,+52 667 758 9999,https://location.westernunion.com/mx/estado-de-mexico/chimalhuacan/abd11d68ea6ca8906600fd31150710f6,Mo-Sa 10:00-20:00; Su 11:00-20:00,Western Union,Q861042
699f351826dc3da3538dbea43ae1c6fb,western_union,BANCOPPEL 6574 ARCA DE NOE,,Chimalhuacan,ESTADO DE MEXICO,,MX,+52 667 758 9999,https://location.westernunion.com/mx/estado-de-mexico/chimalhuacan/699f351826dc3da3538dbea43ae1c6fb,Mo-Sa 10:00-20:00; Su 11:00-20:00,Western Union,Q861042
452671b3ba9f144cc0515a722ea0f695,western_union,BANCOPPEL 6574 ARCA DE NOE,,Chimalhuacan,ESTADO DE MEXICO,,MX,+52 667 758 9999,https://location.westernunion.com/mx/estado-de-mexico/chimalhuacan/452671b3ba9f144cc0515a722ea0f695,Mo-Sa 10:00-20:00; Su 11:00-20:00,Western Union,Q861042
f407e2dee32c88214e80978e508e76ad,western_union,TIENDAS NETO ACUITLAPILCO II 0768,,Chimalhuacan,ESTADO DE MEXICO,,MX,+52 55 6377 4808,https://location.westernunion.com/mx/estado-de-mexico/chimalhuacan/f407e2dee32c88214e80978e508e76ad,Mo-Su 07:00-22:00,Western Union,Q861042
1b5c713551cc3dbb52ae5bf1712308c0,western_union,TIENDAS NETO ACUITLAPILCO II 0768,,Chimalhuacan,ESTADO DE MEXICO,,MX,+52 55 6377 4808,https://location.westernunion.com/mx/estado-de-mexico/chimalhuacan/1b5c713551cc3dbb52ae5bf1712308c0,Mo-Su 07:00-22:00,Western Union,Q861042
e4c8c455ee67310be96404353010471f,western_union,TIENDAS NETO ACUITLAPILCO II 0768,,Chimalhuacan,ESTADO DE MEXICO,,MX,+52 55 6377 4808,https://location.westernunion.com/mx/estado-de-mexico/chimalhuacan/e4c8c455ee67310be96404353010471f,Mo-Su 07:00-22:00,Western Union,Q861042
a4220665507a9bce10c572226e55fef3,western_union,OXXO QUETZALCOATL MEX,,Chimalhuacan,ESTADO DE MEXICO,,MX,+52 81 8389 2121,https://location.westernunion.com/mx/estado-de-mexico/chimalhuacan/a4220665507a9bce10c572226e55fef3,Mo-Su 08:00-22:00,Western Union,Q861042
eb8995be8c596c8c17d754a608dd2259,western_union,TIENDAS NETO ACUITLAPILCO 3827,,Chimalhuacan,ESTADO DE MEXICO,,MX,+52 55 8926 7657,https://location.westernunion.com/mx/estado-de-mexico/chimalhuacan/eb8995be8c596c8c17d754a608dd2259,Mo-Su 07:00-22:00,Western Union,Q861042
1ebc61a60dd9b6b0c4ee20dba2a7a9f0,western_union,TIENDAS NETO ACUITLAPILCO 3827,,Chimalhuacan,ESTADO DE MEXICO,,MX,+52 55 8926 7657,https://location.westernunion.com/mx/estado-de-mexico/chimalhuacan/1ebc61a60dd9b6b0c4ee20dba2a7a9f0,Mo-Su 07:00-22:00,Western Union,Q861042
bc55d10dadd13888c691db351d815d38,western_union,TIENDAS NETO ACUITLAPILCO 3827,,Chimalhuacan,ESTADO DE MEXICO,,MX,+52 55 8926 7657,https://location.westernunion.com/mx/estado-de-mexico/chimalhuacan/bc55d10dadd13888c691db351d815d38,Mo-Su 07:00-22:00,Western Union,Q861042
e5a07d7a324543bed15ea686367453b7,western_union,OXXO MERCADO CUAUHTEMOC MEX,,Chimalhuacan,ESTADO DE MEXICO,,MX,+52 81 8389 2121,https://location.westernunion.com/mx/estado-de-mexico/chimalhuacan/e5a07d7a324543bed15ea686367453b7,Mo-Su 08:00-22:00,Western Union,Q861042
33109497d3ea4422ddde0d2d824327f3,western_union,OXXO MERCADO CUAUHTEMOC MEX,,Chimalhuacan,ESTADO DE MEXICO,,MX,+52 81 8389 2121,https://location.westernunion.com/mx/estado-de-mexico/chimalhuacan/33109497d3ea4422ddde0d2d824327f3,Mo-Su 08:00-22:00,Western Union,Q861042
0da70869082a74d5bbd724cfdcc58b4b,western_union,OXXO MERCADO CUAUHTEMOC MEX,,Chimalhuacan,ESTADO DE MEXICO,,MX,+52 81 8389 2121,https://location.westernunion.com/mx/estado-de-mexico/chimalhuacan/0da70869082a74d5bbd724cfdcc58b4b,Mo-Su 08:00-22:00,Western Union,Q861042
caa1de7307e52a3b652cfe999c57b358,western_union,AURRERA ARCA DE NOE 4128,,Chimalhuacan,ESTADO DE MEXICO,,MX,+52 800 833 4700,https://location.westernunion.com/mx/estado-de-mexico/chimalhuacan/caa1de7307e52a3b652cfe999c57b358,Mo-Su 07:00-23:00,Western Union,Q861042
b4980bc6ed7431938fc8bf2c08d1d51c,western_union,AURRERA ARCA DE NOE 4128,,Chimalhuacan,ESTADO DE MEXICO,,MX,+52 800 833 4700,https://location.westernunion.com/mx/estado-de-mexico/chimalhuacan/b4980bc6ed7431938fc8bf2c08d1d51c,Mo-Su 07:00-23:00,Western Union,Q861042
374385a6a496212247e4a66edda80d40,western_union,AURRERA ARCA DE NOE 4128,,Chimalhuacan,ESTADO DE MEXICO,,MX,+52 800 833 4700,https://location.westernunion.com/mx/estado-de-mexico/chimalhuacan/374385a6a496212247e4a66edda80d40,Mo-Su 07:00-23:00,Western Union,Q861042
3476f6d97bff46e0c0ae854a33af4d36,western_union,OXXO PATOS MEX,,Chimalhuacan,ESTADO DE MEXICO,,MX,+52 81 8389 2121,https://location.westernunion.com/mx/estado-de-mexico/chimalhuacan/3476f6d97bff46e0c0ae854a33af4d36,Mo-Su 08:00-22:00,Western Union,Q861042
7005e38ce006b58e4b7ee9591b0666fb,western_union,OXXO PATOS MEX,,Chimalhuacan,ESTADO DE MEXICO,,MX,+52 81 8389 2121,https://location.westernunion.com/mx/estado-de-mexico/chimalhuacan/7005e38ce006b58e4b7ee9591b0666fb,Mo-Su 08:00-22:00,Western Union,Q861042
6124cb063d55a455f9a87cd759c3a66f,western_union,OXXO Patos MEX,,Chimalhuacan,ESTADO DE MEXICO,,MX,+52 81 8389 2121,https://location.westernunion.com/mx/estado-de-mexico/chimalhuacan/6124cb063d55a455f9a87cd759c3a66f,Mo-Su 08:00-22:00,Western Union,Q861042
379c18447d3bdb44e6107acf1275d58f,western_union,OXXO PRIMAVERA MEX,,Chimalhuacan,ESTADO DE MEXICO,,MX,+52 81 8389 2121,https://location.westernunion.com/mx/estado-de-mexico/chimalhuacan/379c18447d3bdb44e6107acf1275d58f,Mo-Su 08:00-22:00,Western Union,Q861042
2d96b55b7aca2980ce66f85d32ba7346,western_union,OXXO CAMELIAS MEX,,Chimalhuacan,ESTADO DE MEXICO,,MX,+52 81 8389 2121,https://location.westernunion.com/mx/estado-de-mexico/chimalhuacan/2d96b55b7aca2980ce66f85d32ba7346,Mo-Su 08:00-22:00,Western Union,Q861042
6bc043233e0780114980293f011b28cd,western_union,OXXO CAMELIAS MEX,,Chimalhuacan,ESTADO DE MEXICO,,MX,+52 81 8389 2121,https://location.westernunion.com/mx/estado-de-mexico/chimalhuacan/6bc043233e0780114980293f011b28cd,Mo-Su 08:00-22:00,Western Union,Q861042
460685131e0654413bacb5aa5c6361a1,western_union,AURRERA EXPRESS 49 CHIMALHUACAN CENTRO,,Chimalhuacan,ESTADO DE MEXICO,,MX,(+52) 81-018008334700,https://location.westernunion.com/mx/estado-de-mexico/chimalhuacan/460685131e0654413bacb5aa5c6361a1,Mo-Su 08:00-22:00,Western Union,Q861042
ff9a9e7b5e8c75ae6c3fd3debfa7e7d4,western_union,AURRERA EXPRESS 49 CHIMALHUACAN CENTRO,,Chimalhuacan,ESTADO DE MEXICO,,MX,(+52) 81-018008334700,https://location.westernunion.com/mx/estado-de-mexico/chimalhuacan/ff9a9e7b5e8c75ae6c3fd3debfa7e7d4,Mo-Su 08:00-22:00,Western Union,Q861042
dc4fc44b53a92c3a7fc432ca6d13d6af,western_union,AURRERA EXPRESS 49 CHIMALHUACAN CENTRO,,Chimalhuacan,ESTADO DE MEXICO,,MX,(+52) 81-018008334700,https://location.westernunion.com/mx/estado-de-mexico/chimalhuacan/dc4fc44b53a92c3a7fc432ca6d13d6af,Mo-Su 08:00-22:00,Western Union,Q861042
02a3e1ff1f1f2e921cb1b90e727e23e0,western_union,OXXO CIRUELOS II MEX,,Chimalhuacan,ESTADO DE MEXICO,,MX,+52 81 8389 2121,https://location.westernunion.com/mx/estado-de-mexico/chimalhuacan/02a3e1ff1f1f2e921cb1b90e727e23e0,Mo-Su 08:00-22:00,Western Union,Q861042
6b47d2a463a781b02f48e5c73f02413b,western_union,OXXO CIRUELOS II MEX,,Chimalhuacan,ESTADO DE MEXICO,,MX,+52 81 8389 2121,https://location.westernunion.com/mx/estado-de-mexico/chimalhuacan/6b47d2a463a781b02f48e5c73f02413b,Mo-Su 08:00-22:00,Western Union,Q861042
bc5750f27632307667b6e171c46c19fe,western_union,OXXO NATIVITAS II MEX,,Chimalhuacan,ESTADO DE MEXICO,,MX,+52 81 8389 2121,https://location.westernunion.com/mx/estado-de-mexico/chimalhuacan/bc5750f27632307667b6e171c46c19fe,Mo-Su 08:00-22:00,Western Union,Q861042
c308e2a2b42b1750151fef8b8f261491,western_union,OXXO NATIVITAS II MEX,,Chimalhuacan,ESTADO DE MEXICO,,MX,+52 81 8389 2121,https://location.westernunion.com/mx/estado-de-mexico/chimalhuacan/c308e2a2b42b1750151fef8b8f261491,Mo-Su 08:00-22:00,Western Union,Q861042
4fdd4485fdec772404059439042a1c20,western_union,OXXO NATIVITAS II MEX,,Chimalhuacan,ESTADO DE MEXICO,,MX,+52 81 8389 2121,https://location.westernunion.com/mx/estado-de-mexico/chimalhuacan/4fdd4485fdec772404059439042a1c20,Mo-Su 08:00-22:00,Western Union,Q861042
6b5b0fa5726bb002df02741f61e58564,western_union,TIENDAS NETO LAGO DE CHAPALA 0792,,Chimalhuacan,ESTADO DE MEXICO,,MX,+52 55 6377 4808,https://location.westernunion.com/mx/estado-de-mexico/chimalhuacan/6b5b0fa5726bb002df02741f61e58564,Mo-Su 07:00-22:00,Western Union,Q861042
c9ff1b2d095af2b1b3bd14d5442f78d1,western_union,TIENDAS NETO LAGO DE CHAPALA 0792,,Chimalhuacan,ESTADO DE MEXICO,,MX,+52 55 6377 4808,https://location.westernunion.com/mx/estado-de-mexico/chimalhuacan/c9ff1b2d095af2b1b3bd14d5442f78d1,Mo-Su 07:00-22:00,Western Union,Q861042
06f328691ca589e871a187f55985deed,western_union,TIENDAS NETO MOLINO DE FLORES 1122,,Ixtapaluca,ESTADO DE MEXICO,,MX,+52 55 7577 4760,https://location.westernunion.com/mx/estado-de-mexico/ixtapaluca/06f328691ca589e871a187f55985deed,Mo-Su 07:00-22:00,Western Union,Q861042
25f370a221d4680d43372c3a01a2fd27,western_union,TIENDAS NETO MOLINO DE FLORES 1122,,Ixtapaluca,ESTADO DE MEXICO,,MX,+52 55 7577 4760,https://location.westernunion.com/mx/estado-de-mexico/ixtapaluca/25f370a221d4680d43372c3a01a2fd27,Mo-Su 07:00-22:00,Western Union,Q861042
e005dceb9b04ac9ccd6e4f7251573d72,western_union,TIENDAS NETO MOLINO DE FLORES 1122,,Ixtapaluca,ESTADO DE MEXICO,,MX,+52 55 7577 4760,https://location.westernunion.com/mx/estado-de-mexico/ixtapaluca/e005dceb9b04ac9ccd6e4f7251573d72,Mo-Su 07:00-22:00,Western Union,Q861042
b9e5a75a424a258e750f6367dd61b66f,western_union,OXXO PRIMAVERA MEX,,Chimalhuacan,ESTADO DE MEXICO,,MX,+52 81 8389 2121,https://location.westernunion.com/mx/estado-de-mexico/chimalhuacan/b9e5a75a424a258e750f6367dd61b66f,Mo-Su 08:00-22:00,Western Union,Q861042
00a8d3a41653b7923ce6858ea032e316,western_union,OXXO PRIMAVERA MEX,,Chimalhuacan,ESTADO DE MEXICO,,MX,+52 81 8389 2121,https://location.westernunion.com/mx/estado-de-mexico/chimalhuacan/00a8d3a41653b7923ce6858ea032e316,Mo-Su 08:00-22:00,Western Union,Q861042
94fabdd336d12c3994f26d003882cc37,western_union,OXXO CIRUELOS II MEX,,Chimalhuacan,ESTADO DE MEXICO,,MX,+52 81 8389 2121,https://location.westernunion.com/mx/estado-de-mexico/chimalhuacan/94fabdd336d12c3994f26d003882cc37,Mo-Su 08:00-22:00,Western Union,Q861042
