Ref,Spider,Name,Address,City,State,Zipcode,Country,Phone,Website,Hours,Brand,WikiData
22101,asics_us,Danform Shoes Shelburne,3310 Shelburne Rd,Shelburne,VT,,US,+1 802-985-3483,,Mo-Sa 10:00-18:00; Su 11:00-17:00,asics,Q327247
180433,bluerhino,Jiffy Mart #442,,Shelburne,VT,,US,+1 802-985-5663,,,Blue Rhino,Q65681213
149013,bluerhino,AG #10824 - Shelburne Grocery,,Shelburne,VT,,US,+1 802-985-8520,,,Blue Rhino,Q65681213
207167,bluerhino,Aubuchon Hardware #173,,Shelburne,VT,,US,+1 802-985-3349,,,Blue Rhino,Q65681213
16718_01,bmw_group,The Automaster,,Shelburne,VT,,US,+1 802-985-8411,https://www.theautomasterbmw.com,,BMW,Q26678
16718_02,bmw_group,MINI of Burlington,,Shelburne,VT,,US,+1 802-985-8484,https://www.miniofburlington.com,,Mini,Q116232
355063,dunkin_us,Dunkin',,Shelburne,VT,,US,+1 802-489-5679,https://locations.dunkindonuts.com/en/vt/shelburne/4109-shelburne-rd/355063,Mo-Fr 04:30-19:00; Sa-Su 05:00-19:00,Dunkin',Q847743
https://www.edwardjones.com/us-en/financial-advisor/brady-prentice,edwardjones,Brady Prentice,,Shelburne,VT,,US,+1 802-985-9965,https://www.edwardjones.com/us-en/financial-advisor/brady-prentice,,Edward Jones,Q5343830
200304762,exxonmobil,SHELBURNE VILLAGE MART,,SHELBURNE,VT,,US,+1 802-985-2478,https://www.exxon.com/en/find-station/mobil-shelburne-vt-shelburnevillagemart-200304762,Mo-Th 06:00-22:00; Fr-Sa 06:00-23:00; Su 07:00-21:00,Mobil,Q109676002
https://local.fedex.com/#25205431,fedex,,,Shelburne,VT,,US,+1 800-463-3339,https://local.fedex.com/en-us/vt/shelburne/btvlf,,FedEx,Q459477
https://local.fedex.com/#27762368,fedex,FedEx Authorized ShipCenter,,Shelburne,VT,,US,+1 802-985-8713,https://local.fedex.com/en-us/vt/shelburne/31922,,FedEx,Q459477
2942,jiffy_mart,Jiffy Mart Shelburne,5637 Shelburne Rd.,Shelburne,VT,,US,+1 802-985-5663,https://jiffymartstores.com/locations/jiffy-mart-shelburne/,Mo-Sa 06:00-22:00; Su 07:00-21:00,Jiffy Mart,Q119592174
https://locations.mtb.com/#3027955,mt_bank_us,M&T Bank,,,VT,,US,+1 802-985-3600,https://locations.mtb.com/vt/shelburne/bank-branches-and-atms-shelburne-vt-8150.html,Mo-Th 09:00-16:00; Fr 09:00-17:00,M&T Bank,Q3272257
1381411,usps,SHELBURNE,,SHELBURNE,VT,,US,+1 802-985-3615,,Mo-Fr 08:00-17:00; Sa 09:00-13:00,United States Postal Service,Q668687
0548200006,usps_collection_boxes,USPS COLLECTION BOX - BLUE BOX,495 FALLS RD,SHELBURNE,VT,,US,,,,United States Postal Service,Q668687
0548200010,usps_collection_boxes,USPS COLLECTION BOX - PO LOBBY,495 FALLS RD,SHELBURNE,VT,,US,,,,United States Postal Service,Q668687
0548200003,usps_collection_boxes,USPS COLLECTION BOX - BLUE BOX,495 FALLS RD,SHELBURNE,VT,,US,,,,United States Postal Service,Q668687
0548200004,usps_collection_boxes,USPS COLLECTION BOX - PO LOBBY,495 FALLS RD,SHELBURNE,VT,,US,,,,United States Postal Service,Q668687
,visa,,,SHELBURNE,VT,,US,,,,,
,visa,,,SHELBURNE,VT,,US,,,,,
https://www.walgreens.com/locator/walgreens-30+shelburne+shopping+park-shelburne-vt-05482/id=18325,walgreens,Walgreens,,Shelburne,VT,,US,+1 802-985-2610,https://www.walgreens.com/locator/walgreens-30+shelburne+shopping+park-shelburne-vt-05482/id=18325,Mo-Fr 08:00-20:00; Sa 09:00-20:00; Su 09:00-17:00,Walgreens,Q1591889
8d46941fdae516d22a7489a09d3e0234,western_union,WALGREENS #18325,,Shelburne,VT,,US,+1 802-985-2610,https://location.westernunion.com/us/vt/shelburne/8d46941fdae516d22a7489a09d3e0234,Mo-Sa 08:00-18:00; Su 08:00-21:00,Western Union,Q861042
