Ref,Spider,Name,Address,City,State,Zipcode,Country,Phone,Website,Hours,Brand,WikiData
https://stores.advanceautoparts.com/co/denver/4509-tower-rd,advance_auto_parts_us,Advance Auto Parts,,Denver,CO,,US,+1 303-256-6007,https://stores.advanceautoparts.com/co/denver/4509-tower-rd,Mo-Sa 07:30-21:00; Su 09:00-20:00,Advance Auto Parts,Q4686051
1018992,alamo,Denver International Airport,,Denver,CO,,US,+1 833-828-5714,,,ALAMO,Q1429287
https://locations.arbys.com/co/denver/18408-east-47th-avenue.html,arbys_us,"Arby's Fast-Food Drive Through Near You in Denver, CO",,Denver,CO,,US,+1 303-307-1395,https://locations.arbys.com/co/denver/18408-east-47th-avenue.html,Mo-Th 09:30-22:30; Fr-Sa 09:30-23:00; Su 09:30-22:00,Arby's,Q630866
https://locations.auntieannes.com/#7887,auntie_annes,Auntie Anne's Denver Final Approach,,Denver,CO,,US,+1 303-363-4831,https://locations.auntieannes.com/co/denver/7680-n-wenatchee-street,Mo-Su 10:00-18:00,Auntie Anne's,Q4822010
3774,autozone_us,AutoZone Auto Parts Denver,,Denver,CO,,US,+1 303-307-0914,https://www.autozone.com/locations/co/denver/18643-green-valley-ranch.html,Mo-Sa 07:30-22:00; Su 08:00-21:00,AutoZone,Q4826087
https://www.avis.com/en/locations/us/co/denver/den,avis,Avis U S A Denver Airport,,Denver,CO,,US,+1 303-342-5500,https://www.avis.com/en/locations/us/co/denver/den,,Avis,Q791136
https://locators.bankofamerica.com/co/denver/financial-centers-denver-16987.html,bankofamerica,Bank of America Financial Center & Drive-Thru ATM | Green Valley Ranch,,Denver,CO,,US,+1 303-357-0314,https://locators.bankofamerica.com/co/denver/financial-centers-denver-16987.html,Mo-Fr 09:00-16:00; Sa 09:00-13:00,Bank of America,Q487907
200240,bluerhino,Murphy's #8906,,Denver,CO,,US,+1 303-373-7667,,,Blue Rhino,Q65681213
162600,bluerhino,Sandu&Yower LLC dba Nicks Food & Gas #3,,Denver,CO,,US,+1 720-531-6903,,,Blue Rhino,Q65681213
223233,bluerhino,All In One,,Denver,CO,,US,+1 720-231-8479,,,Blue Rhino,Q65681213
200633,bluerhino,Murphy's #8897,,Denver,CO,,US,+1 720-679-0570,,,Blue Rhino,Q65681213
173843,bluerhino,Family Dollar #08721,,Denver,CO,,US,+1 303-524-1959,,,Blue Rhino,Q65681213
82384,bluerhino,King Soopers #083,,Denver,CO,,US,+1 303-371-8767,,,Blue Rhino,Q65681213
143734,bluerhino,King Soopers #083 - Fuel Site,,Denver,CO,,US,+1 303-371-8767,,,Blue Rhino,Q65681213
154692,bluerhino,Walgreens #7253,,DENVER,CO,,US,+1 720-214-1030,,,Blue Rhino,Q65681213
187202,bluerhino,Kum & Go #332,,Denver,CO,,US,+1 303-373-4957,,,Blue Rhino,Q65681213
23802,burgerking,Burger King,,Denver,CO,,US,+1 720-374-9020,https://www.bk.com/store-locator/store/restaurant_64846,Mo-Sa 06:00-22:00; Su 07:00-22:00,Burger King,Q177054
2039024,chase_us,Green Valley Ranch - New branch,,Denver,CO,,US,+1 303-574-9134,https://locator.chase.com/co/denver/4791-tower-rd,Mo-Fr 09:00-17:00; Sa 09:00-14:00,Chase,Q524629
56844,citi,ATM FIRSTBANK,,Denver,CO,,US,,,,Citibank,Q857063
30540,citi,ATM 7ELEVEN-FCTI,,Denver,CO,,US,,,,Citibank,Q857063
88409,citi,ATM Walgreens,,Denver,CO,,US,,,,Citibank,Q857063
26843,citi,ATM 7ELEVEN-FCTI,,Denver,CO,,US,,,,Citibank,Q857063
32277,citi,ATM 7ELEVEN-FCTI,,Denver,CO,,US,,,,Citibank,Q857063
23609,coldstone_creamery,Cold Stone Creamery,,Denver,CO,,US,+1 720-475-1403,https://www.coldstonecreamery.com/stores/23609,,Cold Stone Creamery,Q1094923
green-valley-ranch,corner_bakery_cafe,Green Valley Ranch,,Denver,CO,,US,+1 303-825-0525,https://cornerbakerycafe.com/location/green-valley-ranch,Mo-Fr 06:30-19:00; Sa 07:00-19:00; Su 07:00-18:00,Corner Bakery Cafe,Q5171598
,credit_union_us,Canvas CU,,Denver,CO,,US,,,Mo-Fr 09:00-06:00,,
80221236,cricket_wireless,Cricket Wireless Authorized Retailer,,Denver,CO,,US,+1 303-574-0111,https://www.cricketwireless.com/stores/ll/US/CO/Denver/18601-Green-Valley-Ranch-Blvd,Mo-Sa 10:00-20:00; Su 10:00-17:00,Cricket Wireless,Q5184987
https://locations.us.express.dhl.com/#8427386,dhl_express_us_ca,PUNTO DE VENTA DE DHL EXPRESS Denver DIA,,,CO,,US,+1 800-225-5345,https://locations.us.express.dhl.com/es/co/denver/26200-east-75th-avenue,Mo-Fr 09:00-18:00,DHL,Q489815
1918,dickeys_barbecue_pit_us,Denver - Tower Rd,,Denver,CO,,US,+1 303-993-3357,https://www.dickeys.com/locations/colorado/denver/denver,Mo-Su 11:00-21:00,Dickey's Barbecue Pit,Q19880747
6299,dominos_pizza_us,Domino's Pizza,,Denver,CO,,US,+1 303-969-9999,https://pizza.dominos.com/colorado/denver/18630-green-valley-ranch-blvd,Mo-Th 10:00-24:00; Fr-Sa 10:00-01:00; Su 10:00-24:00,Domino's,Q839466
351353,dunkin_us,Dunkin',,Denver,CO,,US,+1 303-363-4833,https://locations.dunkindonuts.com/en/co/denver/denver-intl-airport/351353,Mo-Su 06:00-18:00,Dunkin',Q847743
352913,dunkin_us,Dunkin',,Denver,CO,,US,+1 303-371-9340,https://locations.dunkindonuts.com/en/co/denver/4761-north-tower-rd/352913,Mo-Su 04:30-20:00,Dunkin',Q847743
8500-pena-boulevard-terminal-c,einsteinbros,Denver International Airport- Terminal C Einstein Bros. Bagels,,Denver,CO,,US,+1 303-342-6670,https://locations.einsteinbros.com/us/co/denver/8500-pena-boulevard-terminal-c,Mo-Su 06:00-21:00,Einstein Bros. Bagels,Q5349788
8500-pena-blvd,einsteinbros,DIA Terminal A Einstein Bros. Bagels,,Denver,CO,,US,+1 303-342-6670,https://locations.einsteinbros.com/us/co/denver/8500-pena-blvd,,Einstein Bros. Bagels,Q5349788
210264,electrify_america,"Evergreen 56th and Tower (Denver, CO)",,Denver,CO,,US,,,,Electrify America,Q59773555
DENT61,enterprise,Denver International Airport,,Denver,CO,,US,+1 303-342-7350,,,Enterprise Rent-A-Car,Q17085454
DENC61,enterprise,Denver Intl. Airport Exotics,,Denver,CO,,US,+1 303-342-7350,,,Enterprise Rent-A-Car,Q17085454
E112N3,enterprise,Denver Airport Holiday Inn,,Denver,CO,,US,+1 303-371-6850,,,Enterprise Rent-A-Car,Q17085454
0813,european_wax_center_us,European Wax Center,,Denver,CO,,US,+1 720-779-3344,https://locations.waxcenter.com/co/denver/denver-green-valley-ranch-0813.html,Mo-Fr 09:00-19:00; Sa-Su 09:00-17:00,European Wax Center,Q5413426
2017,extra_space_storage,Denver Self Storage at 4170 Tower Rd,,Denver,CO,,US,+1 303-576-9038,https://www.extraspace.com/storage/facilities/us/colorado/denver/2017/,Mo-Fr 09:30-18:00; Sa 09:00-17:30,Extra Space Storage,Q5422162
200322917,exxonmobil,Mobil,,DENVER,CO,,US,,https://www.exxon.com/en/find-station/mobil-denver-co-mobil-200322917,24/7,Mobil,Q109676002
28721,family_dollar_us,FAMILY DOLLAR #8721,,Denver,CO,,US,+1 303-524-1959,https://www.familydollar.com/locations/co/denver/28721/,Mo-Su 08:00-22:00,Family Dollar,Q5433101
795271,firestone_auto_care,Firestone Complete Auto Care,,Denver,CO,,US,+1 720-465-4045,https://local.firestonecompleteautocare.com/colorado/denver/4535-tower-rd/,,Firestone,Q420837
denvagi-hilton-garden-inn-denver-airport-tower-road,hilton,Hilton Garden Inn Denver Airport Tower Road,,,CO,,US,+1 303-278-8600,https://www.hilton.com/ar/hotels/denvagi-hilton-garden-inn-denver-airport-tower-road/,,Hilton Garden Inn,Q1162859
dengwhx-hampton-denver-international-airport,hilton,Hampton Inn Denver-International Airport,,,CO,,US,+1 303-371-0200,https://www.hilton.com/ar/hotels/dengwhx-hampton-denver-international-airport/,,Hampton by Hilton,Q5646230
29472,huntingtonbank,Green Valley Ranch,,Denver,CO,,US,+1 303-839-3040,https://www.huntington.com/Community/branch-info?locationId=29472,Mo-Fr 09:00-17:00; Sa 09:00-12:00; Su 00:00-00:00,Huntington Bank,Q798819
7334,h_r_block,H&R Block,,Denver,CO,,US,+1 303-373-1930,https://www.hrblock.com/local-tax-offices/colorado/denver/4906-n-tower-rd-120/7334/,,H&R Block,Q5627799
https://locations.jamba.com/#1336-Jamba,jambajuice,Jamba DEN II - Concourse C,,Denver,CO,,US,+1 303-342-6742,https://locations.jamba.com/co/denver/9100-pena-blvd,Mo-Su 06:00-18:00,Jamba Juice,Q3088784
https://locations.jamba.com/#1170-Jamba,jambajuice,Jamba DEN I - Denver Int'l Airport,,Denver,CO,,US,+1 303-342-8398,https://locations.jamba.com/co/denver/8500-pena-blvd,Mo-Su 06:00-18:00,Jamba Juice,Q3088784
3903,jiffy_lube_us,North Tower Rd.,,DENVER,CO,,US,+1 720-399-9810,https://www.jiffylube.com/locations/co/denver/3903,Mo-Fr 08:00-19:00; Sa 08:00-18:00; Su 09:00-16:00,Jiffy Lube,Q6192247
https://locations.jimmyjohns.com/co/denver/sandwiches-2853.html,jimmy_johns,Jimmy John's,,Denver,CO,,US,+1 303-353-2300,https://locations.jimmyjohns.com/co/denver/sandwiches-2853.html,,Jimmy John's,Q1689380
https://healthy.kaiserpermanente.org/colorado/facilities/king-soopers-pharmacy-177000,kaiser_permanente_us,King Soopers Pharmacy,,Denver,CO,,US,+1 303-371-8985,https://healthy.kaiserpermanente.org/colorado/facilities/king-soopers-pharmacy-177000,,Kaiser Permanente,Q1721601
https://locations.kfc.com/#11250403,kfc,Chicken Nuggets Near Denver,,Denver,CO,,US,,https://locations.kfc.com/co/denver/8500-pena-blvd/chickennugget,Mo-Su 07:00-22:00,KFC,Q524757
https://locations.kfc.com/#11248365,kfc,Chicken Nuggets Near Denver,,Denver,CO,,US,,https://locations.kfc.com/co/denver/4880-n-tower-road/chickennugget,Mo-Su 10:00-23:00,KFC,Q524757
0332,kum_and_go,Kum & Go #0332,,Denver,CO,,US,+1 303-373-4957,https://www.kumandgo.com/store-locator?details=0332,24/7,Kum & Go,Q6443340
12775,little_free_library,Stapleton Visitor Center #12775 Denver CO,,Denver,CO,,US,,,,Little Free Library,Q6650101
160346,little_free_library,#160346 #160346 Denver CO,,Denver,CO,,US,,,,Little Free Library,Q6650101
103060,little_free_library,Birdland #103060 Denver CO,,Denver,CO,,US,,,,Little Free Library,Q6650101
DENAP,marriott,Courtyard Denver Airport,,Denver,CO,,US,+1 303-371-0300,https://www.marriott.com/DENAP,,Courtyard by Marriott,Q1053170
DENEA,marriott,Element Denver International Airport,,Denver,CO,,US,+1 303-307-8350,https://www.marriott.com/DENEA,,Element Hotels,Q91948072
DENFA,marriott,Fairfield Inn & Suites Denver Airport,,Denver,CO,,US,+1 303-576-9640,https://www.marriott.com/DENFA,,Fairfield by Marriott,Q5430314
DENRA,marriott,Residence Inn Denver Airport/Convention Center,,Denver,CO,,US,+1 303-307-9100,https://www.marriott.com/DENRA,,Residence Inn by Marriott,Q7315394
DENDA,marriott,SpringHill Suites Denver Airport,,Denver,CO,,US,+1 303-371-9400,https://www.marriott.com/DENDA,,SpringHill Suites,Q7580351
61211,modern_market_us,DIA B Concourse,,Denver,CO,,US,(111) 111-1111,,Mo-Th 05:30-21:30; Sa-Su 05:30-21:30,Modern Market,Q123370165
61212,modern_market_us,DIA C Concourse,,Denver,CO,,US,(111) 111-1111,,Mo-Th 05:30-21:30; Sa-Su 05:30-21:30,Modern Market,Q123370165
https://locations.modpizza.com/#23558064,modpizza,MOD Pizza Tower,,Denver,CO,,US,+1 303-498-0197,https://locations.modpizza.com/usa/co/denver/6651-n-tower-rd,Mo-Th 10:30-21:00; Fr-Sa 10:30-22:00; Su 10:30-21:00,MOD Pizza,Q19903469
8906,murphy_usa_us,,,Denver,CO,,US,+1 720-679-0571,,Mo-Sa 05:30-23:00; Su 06:00-00:00,Murphy USA,Q19604459
8897,murphy_usa_us,,,Denver,CO,,US,+1 720-679-0570,,Mo-Sa 05:30-23:00; Su 06:00-23:00,Murphy USA,Q19604459
1018990,national,Denver International Airport,,Denver,CO,,US,+1 833-886-0712,,,NATIONAL,Q1424142
https://www.naturalgrocers.com/store/denver-green-valley-ranch,natural_grocers_us,Denver - Green Valley Ranch,,Denver,CO,,US,,https://www.naturalgrocers.com/store/denver-green-valley-ranch,Mo-Sa 08:27-20:36; Su 08:57-19:36,Natural Grocers,Q17146520
https://locations.papamurphys.com/#15429930,papamurphys,Pizza Takeout & Delivery,,Denver,CO,,US,+1 303-307-4300,https://locations.papamurphys.com/co/denver/18613-green-valley-ranch-blvd,Mo 10:00-20:00; Tu 10:00-21:00; We 10:00-20:00; Th-Fr 10:00-21:00; Sa-Su 10:00-20:00,Papa Murphy's,Q7132349
https://locations.papajohns.com/#10691206,papa_johns,Papa John's,,Denver,CO,,US,+1 303-371-7273,https://locations.papajohns.com/united-states/co/80249/denver/18601-green-valley-ranch-boulevard,Mo-Th 10:00-01:00; Fr-Sa 10:00-02:00; Su 10:00-01:00,Papa John's Pizza,Q2759586
0000875425,phillips_66_conoco_76,SEI 34741,,DENVER,CO,,US,+1 303-371-8644,,,Conoco,Q109341187
co_denver_8500-pena-blvd-14041955,pizza_hut_us,8500 Pena Blvd.,,Denver,CO,,US,,https://locations.pizzahut.com/co/denver/8500-pena-blvd-14041955,,Pizza Hut,Q191615
co_denver_8500-pena-blvd-1005969260,pizza_hut_us,8500 Pena Blvd.,,Denver,CO,,US,,https://locations.pizzahut.com/co/denver/8500-pena-blvd-1005969260,,Pizza Hut,Q191615
co_denver_4906-n-tower-rd,pizza_hut_us,4906 N Tower Rd,,Denver,CO,,US,+1 720-543-7875,https://locations.pizzahut.com/co/denver/4906-n-tower-rd,,Pizza Hut,Q191615
restaurant_85213,popeyes_us_fr,Popeyes,"4747 North Tower Road Denver, Colorado 80249 - USA",Denver,CO,,US,+1 303-307-1066,https://www.popeyes.com/store-locator/store/restaurant_85213,Mo-We 09:30-23:00; Th-Sa 09:30-00:00; Su 09:30-23:00,Popeyes,Q1330910
https://locations.qdoba.com/us/co/denver/8500-pena-blvd---concourse-b.html,qdoba,QDOBA DEN Airport - Concourse B Mezz,,Denver,CO,,US,+1 888-736-2224,https://locations.qdoba.com/us/co/denver/8500-pena-blvd---concourse-b.html,Mo-Su 05:30-21:30,Qdoba,Q1363885
46,quiznos,DIA Concourse A,,Denver,CO,,US,+1 303-342-7396,,Mo-Sa 10:00-21:00; Su 11:00-20:00,Quizno's,Q1936229
993646,rocket_us,Rocket,,Denver,CO,,US,+1 303-342-3460,,,Rocket,Q121513516
7226,ruby_tuesday_us,Ruby Tuesday,6751 TOWER ROAD DENVER CO 80249,Denver,CO,,US,+1 303-373-5800,,Mo-Th 11:00-22:00; Fr-Sa 11:00-23:00; Su 11:00-22:00,Ruby Tuesday,Q7376400
https://locations.schlotzskys.com/#7705,schlotzskys,Schlotzsky's,,Adams County,CO,,US,+1 303-363-4830,https://locations.schlotzskys.com/co/denver/76804-n-wenatchee-st,Mo-Su 10:00-18:00,Schlotzsky's,Q2244796
34741,seven_eleven_ca_us,7-Eleven Store,,Denver,CO,,US,+1 303-371-8644,https://www.7-eleven.com/locations/co/denver/7080-tower-rd-34741,,7-Eleven,Q259340
34179,seven_eleven_ca_us,Bcp Str    4709 N Towers Rd,,Denver,CO,,US,+1 303-371-6041,https://www.7-eleven.com/locations/co/denver/4709-n-towers-rd-34179,,7-Eleven,Q259340
38361,seven_eleven_ca_us,7-Eleven Store,,Denver,CO,,US,+1 720-498-6929,https://www.7-eleven.com/locations/co/denver/18449-e-65th-ave-38361,,7-Eleven,Q259340
https://stations.sinclairoil.com/co/denver/19245-e-56th,sinclair_us,Sinclair Gas Station,,Denver,CO,,US,+1 720-657-9899,https://stations.sinclairoil.com/co/denver/19245-e-56th,Mo-Su 05:00-23:00,Sinclair,Q1290900
https://smashburger.com/locations/#64506684,smashburger,Smashburger,,Denver,CO,,US,+1 303-342-6932,https://smashburger.com/locations/us/co/denver/9100-pena-blvd,Mo-Su 04:00-23:00,Smashburger,Q17061332
https://smashburger.com/locations/#1031984721,smashburger,Smashburger,,Denver,CO,,US,+1 303-633-1503,https://smashburger.com/locations/us/co/denver/8900-pena-blvd-bc-24-concourse-b,,Smashburger,Q17061332
Denver International Airport,snarfs,Denver International Airport,,Denver,CO,,US,+1 720-912-1491,http://www.eatsnarfs.com/dia,,Snarf's Sandwiches,Q113900887
https://www.sprouts.com/store/co/denver/335-denver-tower-rd-and-e-56th/,sprouts_farmer_market,Sprouts Farmers Market 335-Denver &#8211; Green Valley Ranch,,Denver,CO,,US,+1 720-850-5026,https://www.sprouts.com/store/co/denver/335-denver-tower-rd-and-e-56th/,Mo-Su 07:00-22:00,Sprouts Farmer Market,Q7581369
https://restaurants.subway.com/#14896896,subway,Subway Denver International Airport,,Denver Denver,CO,,US,+1 303-342-6625,https://restaurants.subway.com/united-states/co/denver/8400-pena-blvd,Mo-Su 06:00-22:00,Subway,Q244457
https://restaurants.subway.com/#14905305,subway,Subway Green Valley Town Center,,Denver Colorado,CO,,US,+1 303-371-7084,https://restaurants.subway.com/united-states/co/denver/18611-green-valley-ranch-blvd,Mo-Fr 08:00-22:00; Sa-Su 09:00-22:00,Subway,Q244457
https://stores.sunglasshut.com/us/co/denver/8700-pena-blvd,sunglass_hut_1,Sunglass Hut,,Denver,CO,,US,+1 720-420-6053,https://stores.sunglasshut.com/us/co/denver/8700-pena-blvd,Mo-Su 06:00-21:00,Sunglass Hut,Q136311
https://stores.sunglasshut.com/us/co/denver/9100-pena-blvd,sunglass_hut_1,Sunglass Hut,,Denver,CO,,US,+1 303-342-5840,https://stores.sunglasshut.com/us/co/denver/9100-pena-blvd,Mo-Fr 06:00-21:00; Sa-Su 07:00-20:00,Sunglass Hut,Q136311
https://stores.sunglasshut.com/us/co/denver/8900-pena-blvd,sunglass_hut_1,Sunglass Hut,,Denver,CO,,US,+1 303-342-9063,https://stores.sunglasshut.com/us/co/denver/8900-pena-blvd,Mo-Su 07:00-20:00,Sunglass Hut,Q136311
https://locations.tacobell.com/#72863574,taco_bell,Taco Bell,,Denver,CO,,US,+1 720-689-8731,https://locations.tacobell.com/co/denver/6553-n--tower-rd-.html,Mo-Th 07:00-01:00; Fr-Sa 07:00-02:00; Su 07:00-01:00,Taco Bell,Q752941
https://locations.tacobell.com/#6145603,taco_bell,Taco Bell,,Denver,CO,,US,+1 303-574-0431,https://locations.tacobell.com/co/denver/18641-green-valley-ranch-blvd.html,,Taco Bell,Q752941
8796422242327,thebodyshop,Denver Airport Concourse C,,Denver,CO,,US,,https://www.thebodyshop.com/en-us/store-details/denver-airport-concourse-c/1239,,The Body Shop,Q837851
054390,uhaul,All In One Convenience,19245 E 56th Ave,Denver,CO,,US,+1 303-320-7617,,Mo-Sa 00:00-16:00; Su 00:00-19:00,U-Haul,Q7862902
055016,uhaul,Sleep Inn,5980 Tower Rd,Denver,CO,,US,+1 303-343-8461,,Tu-Sa 00:00-14:00,U-Haul,Q7862902
8024900005,usps_collection_boxes,USPS COLLECTION BOX - BLUE BOX,18605 GREEN VALLEY RANCH BLVD,DENVER,CO,,US,,,,United States Postal Service,Q668687
8024900004,usps_collection_boxes,USPS COLLECTION BOX - BLUE BOX,18550 E 45TH AVE,DENVER,CO,,US,,,,United States Postal Service,Q668687
,visa,,,DENVER,CO,,US,,,,,
,visa,,,DENVER,CO,,US,,,,,
,visa,,,DENVER,CO,,US,,,,,
,visa,,,DENVER,CO,,US,,,,,
,visa,,,DENVER,CO,,US,,,,,
,visa,,,DENVER,CO,,US,,,,,
,visa,,,DENVER,CO,,US,,,,,
,visa,,,DENVER,CO,,US,,,,,
,visa,,,DENVER,CO,,US,,,,,
,visa,,,DENVER,CO,,US,,,,,
,visa,,,DENVER,CO,,US,,,,,
,visa,,,DENVER,CO,,US,,,,,
,visa,,,DENVER,CO,,US,,,,,
,visa,,,DENVER,CO,,US,,,,,
,visa,,,DENVER,CO,,US,,,,,
,visa,,,DENVER,CO,,US,,,,,
,visa,,,DENVER,CO,,US,,,,,
,visa,,,DENVER,CO,,US,,,,,
,visa,,,DENVER,CO,,US,,,,,
,visa,,,DENVER,CO,,US,,,,,
,visa,,,DENVER,CO,,US,,,,,
,visa,,,DENVER,CO,,US,,,,,
,visa,,,DENVER,CO,,US,,,,,
,visa,,,DENVER,CO,,US,,,,,
,visa,,,DENVER,CO,,US,,,,,
,visa,,,DENVER,CO,,US,,,,,
,visa,,,DENVER,CO,,US,,,,,
,visa,,,DENVER,CO,,US,,,,,
,visa,,,DENVER,CO,,US,,,,,
,visa,,,DENVER,CO,,US,,,,,
,visa,,,DENVER,CO,,US,,,,,
,visa,,,DENVER,CO,,US,,,,,
,visa,,,DENVER,CO,,US,,,,,
,visa,,,DENVER,CO,,US,,,,,
,visa,,,DENVER,CO,,US,,,,,
,visa,,,DENVER,CO,,US,,,,,
,visa,,,DENVER,CO,,US,,,,,
,visa,,,DENVER,CO,,US,,,,,
,visa,,,DENVER,CO,,US,,,,,
,visa,,,DENVER,CO,,US,,,,,
,visa,,,DENVER,CO,,US,,,,,
,visa,,,DENVER,CO,,US,,,,,
,visa,,,DENVER,CO,,US,,,,,
,visa,,,DENVER,CO,,US,,,,,
,visa,,,DENVER,CO,,US,,,,,
,visa,,,DENVER,CO,,US,,,,,
,visa,,,DENVER,CO,,US,,,,,
,visa,,,DENVER,CO,,US,,,,,
https://www.walgreens.com/locator/walgreens-18550+green+valley+ranch+blvd-denver-co-80249/id=7253,walgreens,Walgreens,,Denver,CO,,US,+1 720-214-1030,https://www.walgreens.com/locator/walgreens-18550+green+valley+ranch+blvd-denver-co-80249/id=7253,Mo-Su 07:00-23:00,Walgreens,Q1591889
https://locations.wendys.com/#9251980,wendys,"Wendy's Denver Airport C-Store in Denver, CO",,Denver,CO,,US,+1 303-342-6899,https://locations.wendys.com/united-states/co/denver/7680-pena-blvd,"Mo-Su 06:30-10:30,06:30-22:00",Wendy's,Q550258
https://locations.wendys.com/#9251974,wendys,"Wendy's 4830 Tower Road in Denver, CO",,Denver,CO,,US,+1 303-576-0040,https://locations.wendys.com/united-states/co/denver/4830-tower-rd,"Mo-Th 06:00-01:00,06:00-10:30; Fr 06:00-02:00,06:00-10:30; Sa 06:00-02:00,06:00-11:00; Su 06:00-01:00,06:00-11:00",Wendy's,Q550258
7c693458ebcf9d3e6f61ce58dcf44852,western_union,7-ELEVEN #38361,,Denver,CO,,US,+1 720-498-6929,https://location.westernunion.com/us/co/denver/7c693458ebcf9d3e6f61ce58dcf44852,,Western Union,Q861042
01164bdf47620a1312e0635efbd658be,western_union,7-ELEVEN #34741,,Denver,CO,,US,+1 303-371-8644,https://location.westernunion.com/us/co/denver/01164bdf47620a1312e0635efbd658be,,Western Union,Q861042
ceba5cb071c85ae933f1362637f857db,western_union,7-ELEVEN #34179,,Denver,CO,,US,+1 303-371-6041,https://location.westernunion.com/us/co/denver/ceba5cb071c85ae933f1362637f857db,,Western Union,Q861042
