Ref,Spider,Name,Address,City,State,Zipcode,Country,Phone,Website,Hours,Brand,WikiData
707-709-pittsford-victor-road,brueggers,Bruegger's Bagels Bushnell Basin,,Pittsford,NY,,US,+1 585-264-0060,https://locations.brueggers.com/us/ny/pittsford/707-709-pittsford-victor-road,Mo-Su 06:00-14:00,Bruegger's,Q4978656
2040776,chase_us,Pittsford Village - New branch,,Pittsford,NY,,US,+1 585-248-2260,https://locator.chase.com/ny/pittsford/31-state-st,Mo-Fr 09:00-17:00; Sa 09:00-14:00,Chase,Q524629
92272,citi,ATM Walgreens,,Pittsford,NY,,US,,,,Citibank,Q857063
348402,dunkin_us,Dunkin',,Pittsford,NY,,US,+1 585-218-0860,https://locations.dunkindonuts.com/en/ny/pittsford/690-pittsford-victor-rd/348402,Mo-Sa 05:00-19:00; Su 06:00-19:00,Dunkin',Q847743
348444,dunkin_us,Dunkin',,Pittsford,NY,,US,+1 585-586-7242,https://locations.dunkindonuts.com/en/ny/pittsford/57-north-main-street/348444,Mo-Sa 06:00-19:00; Su 06:30-19:00,Dunkin',Q847743
https://www.edwardjones.com/us-en/financial-advisor/jim-sandlas,edwardjones,Jim Sandlas,,Pittsford,NY,,US,+1 315-781-1157,https://www.edwardjones.com/us-en/financial-advisor/jim-sandlas,Mo-Fr 08:30-17:00,Edward Jones,Q5343830
200320010,exxonmobil,NEWCOMB MARKET PITTSFORD,,PITTSFORD,NY,,US,+1 585-641-3023,https://www.exxon.com/en/find-station/mobil-pittsford-ny-newcombmarketpittsford-200320010,Mo-Th 05:30-23:00; Fr-Sa 05:30-00:00; Su 06:30-22:00,Mobil,Q109676002
200309123,exxonmobil,BUSHNELLS BASIN MOBIL,,PITTSFORD,NY,,US,+1 585-218-9841,https://www.exxon.com/en/find-station/mobil-pittsford-ny-bushnellsbasinmobil-200309123,24/7,Mobil,Q109676002
161592,marathon_petroleum_us,STEAMERS BASIN TRADING,,Pittsford,NY,,US,+1 585-248-2821,,,Marathon,Q458363
ROCDL,marriott,The Del Monte Lodge Renaissance Rochester Hotel & Spa,,Pittsford,NY,,US,+1 585-381-9900,https://www.marriott.com/ROCDL,,Renaissance Hotels,Q2143252
3279,mightyflame,EXPRESS MART #511,,PITTSFORD,NY,,US,+1 585-641-3023,,,Mighty Flame,
4378,mightyflame,STEAMERS HESS MART,,PITTSFORD,NY,,US,+1 585-248-2821,,,Mighty Flame,
32454,smilebrands,Mondovi Dental Pittsford,271 Marsh Rd. #1,Pittsford,NY,,US,+1 585-385-3070,https://mondovidental.com/locations/new-york-dental-centers/pittsford-ny/,,Smile Brands Inc.,Q108286823
10154,tjx,Pittsford (Rochester),3340 Monroe Avenue,Pittsford (Rochester),NY,,US,+1 585-385-1280,,Mo-Sa 09:30-21:30; Su 10:00-20:00,Marshalls,Q15903261
1377679,usps,PITTSFORD,,PITTSFORD,NY,,US,+1 585-586-1230,,Mo-Fr 08:00-17:00; Sa 08:30-13:00,United States Postal Service,Q668687
1453400026,usps_collection_boxes,USPS COLLECTION BOX - BLUE BOX,15 FISHERS RD,PITTSFORD,NY,,US,,,,United States Postal Service,Q668687
1453400037,usps_collection_boxes,USPS COLLECTION BOX - BLUE BOX,1151 PITTSFORD VICTOR RD,PITTSFORD,NY,,US,,,,United States Postal Service,Q668687
1453400054,usps_collection_boxes,USPS COLLECTION BOX - BLUE BOX,1150 PITTSFORD VICTOR RD,PITTSFORD,NY,,US,,,,United States Postal Service,Q668687
1453400002,usps_collection_boxes,USPS COLLECTION BOX - BLUE BOX,1000 PITTSFORD VICTOR RD,PITTSFORD,NY,,US,,,,United States Postal Service,Q668687
1453400049,usps_collection_boxes,USPS COLLECTION BOX - BLUE BOX,179 SULLYS TRL,PITTSFORD,NY,,US,,,,United States Postal Service,Q668687
1453400019,usps_collection_boxes,USPS COLLECTION BOX - BLUE BOX,171 SULLYS TRL,PITTSFORD,NY,,US,,,,United States Postal Service,Q668687
1453400056,usps_collection_boxes,USPS COLLECTION BOX - BLUE BOX,175 SULLYS TRL,PITTSFORD,NY,,US,,,,United States Postal Service,Q668687
1453400021,usps_collection_boxes,USPS COLLECTION BOX - BLUE BOX,101 SULLYS TRL,PITTSFORD,NY,,US,,,,United States Postal Service,Q668687
1453400005,usps_collection_boxes,USPS COLLECTION BOX - BLUE BOX,640 KREAG RD,PITTSFORD,NY,,US,,,,United States Postal Service,Q668687
1453400012,usps_collection_boxes,USPS COLLECTION BOX - BLUE BOX,649 PITTSFORD VICTOR RD,PITTSFORD,NY,,US,,,,United States Postal Service,Q668687
1453400041,usps_collection_boxes,USPS COLLECTION BOX - BLUE BOX,5607 PALMYRA RD,PITTSFORD,NY,,US,,,,United States Postal Service,Q668687
1453400057,usps_collection_boxes,USPS COLLECTION BOX - APC,5607 PALMYRA RD,PITTSFORD,NY,,US,,,,United States Postal Service,Q668687
1453400032,usps_collection_boxes,USPS COLLECTION BOX - BLUE BOX,5607 PALMYRA RD,PITTSFORD,NY,,US,,,,United States Postal Service,Q668687
1453400043,usps_collection_boxes,USPS COLLECTION BOX - BLUE BOX,5607 PALMYRA RD,PITTSFORD,NY,,US,,,,United States Postal Service,Q668687
1453400059,usps_collection_boxes,USPS COLLECTION BOX - PO LOBBY,5607 PALMYRA RD,PITTSFORD,NY,,US,,,,United States Postal Service,Q668687
1453400020,usps_collection_boxes,USPS COLLECTION BOX - BLUE BOX,5607 PALMYRA RD,PITTSFORD,NY,,US,,,,United States Postal Service,Q668687
1453400006,usps_collection_boxes,USPS COLLECTION BOX - BLUE BOX,20 N MAIN ST,PITTSFORD,NY,,US,,,,United States Postal Service,Q668687
1453400008,usps_collection_boxes,USPS COLLECTION BOX - BLUE BOX,11 S MAIN ST,PITTSFORD,NY,,US,,,,United States Postal Service,Q668687
1453400009,usps_collection_boxes,USPS COLLECTION BOX - BLUE BOX,16 S MAIN ST,PITTSFORD,NY,,US,,,,United States Postal Service,Q668687
1453400003,usps_collection_boxes,USPS COLLECTION BOX - BLUE BOX,1 GROVE ST,PITTSFORD,NY,,US,,,,United States Postal Service,Q668687
1453400022,usps_collection_boxes,USPS COLLECTION BOX - BLUE BOX,40 GROVE ST,PITTSFORD,NY,,US,,,,United States Postal Service,Q668687
1453400046,usps_collection_boxes,USPS COLLECTION BOX - BLUE BOX,10 OFFICE PARK WAY,PITTSFORD,NY,,US,,,,United States Postal Service,Q668687
1453400045,usps_collection_boxes,USPS COLLECTION BOX - BLUE BOX,10 OFFICE PARK WAY,PITTSFORD,NY,,US,,,,United States Postal Service,Q668687
1453400050,usps_collection_boxes,USPS COLLECTION BOX - BLUE BOX,2850 CLOVER ST,PITTSFORD,NY,,US,,,,United States Postal Service,Q668687
1453400030,usps_collection_boxes,USPS COLLECTION BOX - BLUE BOX,57 MONROE AVE,PITTSFORD,NY,,US,,,,United States Postal Service,Q668687
1453400011,usps_collection_boxes,USPS COLLECTION BOX - BLUE BOX,57 MONROE AVE,PITTSFORD,NY,,US,,,,United States Postal Service,Q668687
,visa,,,PITTSFORD,NY,,US,,,,,
,visa,,,PITTSFORD,NY,,US,,,,,
,visa,,,PITTSFORD,NY,,US,,,,,
,visa,,,PITTSFORD,NY,,US,,,,,
,visa,,,PITTSFORD,NY,,US,,,,,
,visa,,,PITTSFORD,NY,,US,,,,,
,visa,,,PITTSFORD,NY,,US,,,,,
,visa,,,PITTSFORD,NY,,US,,,,,
,visa,,,PITTSFORD,NY,,US,,,,,
,visa,,,PITTSFORD,NY,,US,,,,,
,visa,,,PITTSFORD,NY,,US,,,,,
,visa,,,PITTSFORD,NY,,US,,,,,
,visa,,,PITTSFORD,NY,,US,,,,,
,visa,,,PITTSFORD,NY,,US,,,,,
,visa,,,PITTSFORD,NY,,US,,,,,
,visa,,,PITTSFORD,NY,,US,,,,,
,visa,,,PITTSFORD,NY,,US,,,,,
,visa,,,PITTSFORD,NY,,US,,,,,
,visa,,,PITTSFORD,NY,,US,,,,,
,visa,,,PITTSFORD,NY,,US,,,,,
,visa,,,PITTSFORD,NY,,US,,,,,
,visa,,,PITTSFORD,NY,,US,,,,,
,visa,,,PITTSFORD,NY,,US,,,,,
,visa,,,PITTSFORD,NY,,US,,,,,
,visa,,,PITTSFORD,NY,,US,,,,,
,visa,,,PITTSFORD,NY,,US,,,,,
,visa,,,PITTSFORD,NY,,US,,,,,
,visa,,,PITTSFORD,NY,,US,,,,,
,visa,,,PITTSFORD,NY,,US,,,,,
https://www.walgreens.com/locator/walgreens-635+pittsford+victor+rd-pittsford-ny-14534/id=19495,walgreens,Walgreens,,Pittsford,NY,,US,+1 585-248-2770,https://www.walgreens.com/locator/walgreens-635+pittsford+victor+rd-pittsford-ny-14534/id=19495,Mo-Sa 09:00-21:00; Su 09:00-18:00,Walgreens,Q1591889
94c8b30fa2f77c2269fab00b43c2ed8a,western_union,WALGREENS #19495,,Pittsford,NY,,US,+1 585-248-2770,https://location.westernunion.com/us/ny/pittsford/94c8b30fa2f77c2269fab00b43c2ed8a,Mo-Sa 08:00-21:00; Su 08:00-18:00,Western Union,Q861042
schottland-family-ymca,ymca,Schottland Family YMCA,2300 W Jefferson Road,Pittsford,NY,,US,+1 585-446-2000,https://www.ymca.org/locations/schottland-family-ymca,Mo-Fr 05:00-21:00; Sa 07:00-17:00; Su 08:00-17:00,YMCA,Q157169
