Ref,Spider,Name,Address,City,State,Zipcode,Country,Phone,Website,Hours,Brand,WikiData
PER-94,aldi_sud_ch,ALDI,"St. Jakobs-Strasse 397, Basel, 4052",Basel,,,CH,,,Mo-Fr 09:00-20:00; Sa 09:00-18:00,ALDI,Q41171672
basel/1068,claires,Shop Ear Piercings & Jewellery at St Jakobspark Basel,,Basel,,,CH,+41 61 204 53 02,https://stores.claires.com/ch-bs/basel/1068.html,Mo-Fr 09:00-20:00; Sa 09:00-18:00,Claire's,Q2974996
CH0045,c_and_a,Basel St. Jakob Park,"St.Jakobs Strasse 397, 4052 Basel",Basel,,,CH,,https://www.c-and-a.com/stores/ch-de/basel-landschaft/basel/st-jakobs-strasse-397.html,Mo 09:00-20:00; Tu 09:00-20:00; We 09:00-20:00; Th 09:00-20:00; Fr 09:00-20:00; Sa 09:00-18:00,C&A,Q701338
hardstrasse-111-4052-basel,denner_ch,Denner,,Basel,,,CH,+41 58 999 04 39,https://www.denner.ch/de/filialen/denner-filiale-und-oeffnungszeiten/store/hardstrasse-111-4052-basel/,Mo-Fr 08:00-18:30; Sa 07:30-17:00,Denner,Q379911
15184948,esprit,Esprit Franchise Store Basel,,Basel,,,CH,+41 61 313 16 90,"https://www.esprit.com/storefinder?storeid=15184948&location=47.54040000,7.62066000",Tu-Sa 09:00-19:00; Su 09:00-18:00,Esprit,Q532746
176,fust_ch,Fust,,Basel,,,CH,+41 61 378 87 11,https://www.fust.ch/de/service-navigation/filialen/dipl-ing-fust-2000004.html,Mo-Fr 09:00-20:00; Sa 09:00-18:00,Fust,Q1227164
sharedmobility.ch:carvelo2go:6a03bbbb-1197-49ea-a4e4-76e35fe45e54,gbfs,Gellert-Veloteam GmbH,,,,,CH,,https://www.sharedmobility.ch/info,,sharedmobility.ch,
sharedmobility.ch:carvelo2go:6d430471-73f6-4457-b312-35009a2dd29f,gbfs,Novotel Accor Basel,,,,,CH,,https://www.sharedmobility.ch/info,,sharedmobility.ch,
3335,jack_and_jones,Basel - St. Jakob Park,,Basel,,,CH,+41 61 312 07 66,,,Jack & Jones,Q6077665
0029500_mp,migros_ch,Migros Partner,,Basel,,,CH,+41 58 575 77 60,https://filialen.migros.ch/de/migros-partner-basel-zuercherstrasse,Mo-Fr 07:00-19:00; Sa 07:30-18:00,Migros Partner,Q115661515
0023870_super,migros_ch,Migros,,Basel,,,CH,+41 58 575 80 60,https://filialen.migros.ch/de/migros-supermarkt-basel-hardstrasse,Mo-Fr 07:30-19:00; Sa 07:30-18:00,Migros,Q115661152
5d231967a358c8aab6ff1941,newyorker,NEW YORKER | St. Jacob-Park,"St. Jakobs-Strasse 397, 4052, Basel",Basel,,,CH,+41 61 311 64 53,,Mo-Fr 09:00-20:00; Sa 09:00-18:00,New Yorker,Q706421
735,valora,k kiosk,,Basel,,,CH,,,,k kiosk,Q60381703
733,valora,k kiosk,,Basel,,,CH,,,,k kiosk,Q60381703
731,valora,k kiosk,,Basel,,,CH,,,,k kiosk,Q60381703
726,valora,k kiosk,,Basel,,,CH,,,,k kiosk,Q60381703
,visa,,,BASEL,,,CH,,,,,
,visa,,,BASEL,,,CH,,,,,
,visa,,,BASEL,,,CH,,,,,
