Ref,Spider,Name,Address,City,State,Zipcode,Country,Phone,Website,Hours,Brand,WikiData
IN-1063,anytime_fitness,Anytime Fitness,,New Delhi,Delhi,,IN,+91 83830 68942,https://anytimefitness.co.in/gyms/in-1063/new-delhi-delhi-110015/,,Anytime Fitness,Q4778364
https://www.dominos.co.in/store-locations/new-delhi/mansarover-garden-new-delhi-110015,dominos_pizza_in,Dominos Pizza Mansarover Garden New Delhi 110015,"Ground Floor F 37, Parking Side, Shopping Center I, Mansarover Garden, New Delhi 110015, NEW DELHI, Delhi",New Delhi,Delhi,,IN,+91 22 2632 6699,https://www.dominos.co.in/store-locations/new-delhi/mansarover-garden-new-delhi-110015,,Domino's Pizza,Q839466
https://www.dominos.co.in/store-locations/new-delhi/kirti-nagar-tagore-market,dominos_pizza_in,Dominos Pizza KIRTI NAGAR-TAGORE MARKET,"GROUND FLOOR, SHOP NO. A-22 Kirti Nagar - Tagore Market (Delhi), NEW DELHI, Delhi - 110015",New Delhi,Delhi,,IN,+91 22 2632 6699,https://www.dominos.co.in/store-locations/new-delhi/kirti-nagar-tagore-market,,Domino's Pizza,Q839466
https://www.dominos.co.in/store-locations/new-delhi/kirti-nagar-metro-station,dominos_pizza_in,Dominos Pizza KIRTI NAGAR METRO STATION,KIRTI NAGAR METRO STATION DELHI Shop 2 and 3 Ground Floor Kirti Nagar Metro Station Delhi-110015 PH 011-5100585-87,New Delhi,Delhi,,IN,+91 22 2632 6699,https://www.dominos.co.in/store-locations/new-delhi/kirti-nagar-metro-station,,Domino's Pizza,Q839466
GS0093787,mercedes_benz,Silver Arrow Automobiles Private Limited,,New Delhi,Delhi,,IN,+91 99992 00500,https://www.silverarrows.mercedes-benz.co.in,,Mercedes-Benz,Q36008
GS0093778,mercedes_benz,Silver Arrow Automobiles Private Limited,,New Delhi,Delhi,,IN,+91 99992 00500,https://www.silverarrows.mercedes-benz.co.in,,Mercedes-Benz,Q36008
DL8B_VE_483,nissan_europe,Jubilant Nissan (WORKSHOP),,NEW DELHI,DELHI,,IN,+91 96199 82609,,,Nissan,Q20165
DL8A_VE_484,nissan_europe,Jubilant Nissan (SHOWROOM),,NEW DELHI,DELHI,,IN,+91 91679 84967,,,Nissan,Q20165
TIMBE-KGFMMKNIEP,timberland,Timberland - India,,New Delhi,Delhi,,IN,,,,Timberland,Q1539185
5a89afc3a22ffef22e24d4b4df38ea80,western_union,AGGARWAL HOLIDAYS,,Delhi,DELHI,,IN,+91 98991 59188,https://location.westernunion.com/in/delhi/delhi/5a89afc3a22ffef22e24d4b4df38ea80,Mo-Su 09:00-20:00,Western Union,Q861042
72d1e5c5147bcf9e6c06bba5bbe3f3c3,western_union,MUTHOOT FINCORP LIMITED,,Delhi,DELHI,,IN,+91 11 2545 8893,https://location.westernunion.com/in/delhi/delhi/72d1e5c5147bcf9e6c06bba5bbe3f3c3,Mo-Sa 08:00-20:00; Su 09:00-18:00,Western Union,Q861042
a07d88b2f13b8b0863323858d92900b6,western_union,RAJINDER TOUR AND TRAVELS,,New Delhi,DELHI,,IN,+91 95825 63425,https://location.westernunion.com/in/delhi/new-delhi/a07d88b2f13b8b0863323858d92900b6,Mo-Su 08:00-21:00,Western Union,Q861042
ff2bf0d5809f518fbc22ee686a573c62,western_union,OM TRAVELS AND PROPERTIES,,New Delhi,DELHI,,IN,+91 83838 13903,https://location.westernunion.com/in/delhi/new-delhi/ff2bf0d5809f518fbc22ee686a573c62,Mo-Su 09:00-21:00,Western Union,Q861042
7d7a22caf67403c264f998d9a75724c4,western_union,MUTHOOT FINCORP LIMITED,,Delhi,DELHI,,IN,+91 11 2545 8915,https://location.westernunion.com/in/delhi/delhi/7d7a22caf67403c264f998d9a75724c4,Mo-Sa 08:00-20:00; Su 09:00-18:00,Western Union,Q861042
7c9241c16713b39c391845cb9f41d392,western_union,SAI TRAVEL INDIA COM,,Delhi,DELHI,,IN,+91 93103 20330,https://location.westernunion.com/in/delhi/delhi/7c9241c16713b39c391845cb9f41d392,Mo-Su 09:00-20:00,Western Union,Q861042
b5b702431638cdf4e3ad62bc926d0da6,western_union,MUTHOOT FINANCE LTD,,Delhi-ramesh Nagar,DELHI,,IN,+91 11 4355 7438,https://location.westernunion.com/in/delhi/delhi-ramesh-nagar/b5b702431638cdf4e3ad62bc926d0da6,Mo-Sa 09:00-17:30,Western Union,Q861042
5f948afc40d5a8db2ed51acc6e67966c,western_union,AHUJA CYBER CAFE,,Delhi,DELHI,,IN,+91 92667 87786,https://location.westernunion.com/in/delhi/delhi/5f948afc40d5a8db2ed51acc6e67966c,Mo-Su 08:00-20:00,Western Union,Q861042
507e3415b4d64c17d140a7b56ec67a25,western_union,MUTHOOT FINANCE LTD,,Delhi-mansarovar Garden,DELHI,,IN,+91 11 4668 1303,https://location.westernunion.com/in/delhi/delhi-mansarovar-garden/507e3415b4d64c17d140a7b56ec67a25,Mo-Sa 09:00-17:30,Western Union,Q861042
50f6530814e5a1133a596db5360364ba,western_union,MUTHOOT FINANCE LTD,,Delhi-moti Nagar,DELHI,,IN,+91 11 4569 5974,https://location.westernunion.com/in/delhi/delhi-moti-nagar/50f6530814e5a1133a596db5360364ba,Mo-Sa 09:00-17:30,Western Union,Q861042
873c85e84bdb9e70e61f7ecd664fda83,western_union,MUTHOOT FINANCE LTD,,Delhi - Karampura,DELHI,,IN,+91 11 2545 9152,https://location.westernunion.com/in/delhi/delhi---karampura/873c85e84bdb9e70e61f7ecd664fda83,Mo-Sa 09:00-17:30,Western Union,Q861042
7deaa42aec9ac2d8fcbe174915c566fa,western_union,AKANKSHA HOLIDAYS,,Delhi,DELHI,,IN,+91 81783 17868,https://location.westernunion.com/in/delhi/delhi/7deaa42aec9ac2d8fcbe174915c566fa,Mo-Su 09:00-20:00,Western Union,Q861042
