Ref,Spider,Name,Address,City,State,Zipcode,Country,Phone,Website,Hours,Brand,WikiData
72147043,moneygram,CADENA COMERCIAL OXXO SA DE CV - #10ZAI5,,GARCIA,NL,,MX,+52 81 8389 2121,,Mo-Su 03:00-24:00,MoneyGram,Q1944412
72162060,moneygram,COPPEL TRANSMISORES - GARCIA - ARBOLEDA,,GARCIA,NL,,MX,+52 81 1422 0570,,Mo-Sa 10:00-20:00; Su 10:00-18:00,MoneyGram,Q1944412
73853349,moneygram,BODEGA AURRERA EXPRESS - #1250 - GARCIA,,GARCIA,NL,,MX,+52 55 2629 6000,,Mo-Su 08:00-21:00,MoneyGram,Q1944412
73853543,moneygram,BODEGA AURRERA EXPRESS - #1994 - GARCIA,,GARCIA,NL,,MX,+52 55 5358 1111,,Mo-Su 08:00-21:00,MoneyGram,Q1944412
73854209,moneygram,BODEGA AURRERA EXPRESS - #3992 - GARCIA,,GARCIA,NL,,MX,+52 55 5358 1111,,Mo-Su 08:00-21:00,MoneyGram,Q1944412
73956479,moneygram,CADENA COMERCIAL OXXO SA DE CV - #10NLA5,,GARCIA,NL,,MX,+52 81 8389 2121,,Mo-Su 03:00-24:00,MoneyGram,Q1944412
68832757,moneygram,DINERO EXPRESS - #6187 - GARCIA - ELEKTR,,GARCIA,NL,,MX,+52 55 1720 8141,,Mo-Su 09:00-21:00,MoneyGram,Q1944412
74634693,moneygram,BODEGA AURRERA EXPRESS - #3899 - GARCIA,,GARCIA,NL,,MX,+52 55 2629 6000,,Mo-Su 08:00-21:00,MoneyGram,Q1944412
71145376,moneygram,ELEKTRA - #6187 - GARCIA - BA EKT VILLA,,GARCIA,NL,,MX,+52 55 1720 7000,,Mo-Su 09:00-21:00,MoneyGram,Q1944412
71316053,moneygram,OXXO - AMARANTOS MTY,,GARCIA,NL,,MX,+52 81 8389 2121,,Mo-Su 03:00-24:00,MoneyGram,Q1944412
71315041,moneygram,OXXO - #10NLA50DTF - DIAMANTE MTY,,GARCIA,NL,,MX,+52 81 8389 2121,,Mo-Su 03:00-24:00,MoneyGram,Q1944412
71315274,moneygram,OXXO - #10NLA50EGX - ESTACION GARCIA MTY,,GARCIA,NL,,MX,+52 81 8389 2121,,Mo-Su 03:00-24:00,MoneyGram,Q1944412
71320311,moneygram,OXXO - #10NLA50NOQ - LOS NOGALES MTY,,GARCIA,NL,,MX,+52 81 8389 2121,,Mo-Su 03:00-24:00,MoneyGram,Q1944412
71316040,moneygram,OXXO - #10NLA50FKB - PRADO GARCIA MTY,,GARCIA,NL,,MX,+52 81 8389 2121,,Mo-Su 03:00-24:00,MoneyGram,Q1944412
71322869,moneygram,OXXO - #10NLA50SHT - SIERRA REAL II MTY,,GARCIA,NL,,MX,+52 81 8389 2121,,Mo-Su 03:00-24:00,MoneyGram,Q1944412
71316202,moneygram,OXXO - #10NLA50FUV - SIERRA REAL III MTY,,GARCIA,NL,,MX,+52 81 8389 2121,,Mo-Su 03:00-24:00,MoneyGram,Q1944412
71323059,moneygram,OXXO - #10NLA50SRK - SIERRA REAL MTY,,GARCIA,NL,,MX,+52 81 8389 2121,,Mo-Su 03:00-24:00,MoneyGram,Q1944412
71323509,moneygram,OXXO - #10NLA50TPJ - TULIPAN MTY,,GARCIA,NL,,MX,+52 81 8389 2121,,Mo-Su 03:00-24:00,MoneyGram,Q1944412
71912156,moneygram,SORIANA - #518 - GARCIA - VILLA DE GARCI,,GARCIA,NL,,MX,+52 800 555 6555,,Mo-Su 08:00-22:00,MoneyGram,Q1944412
