Ref,Spider,Name,Address,City,State,Zipcode,Country,Phone,Website,Hours,Brand,WikiData
DE032112,aldi_nord_de,ALDI Nord,,Greven,Nordrhein-Westfalen,,DE,+49 800 7234870,,Mo-Sa 07:00-21:00,ALDI Nord,Q41171373
DE032113,aldi_nord_de,ALDI Nord,,Greven,Nordrhein-Westfalen,,DE,+49 800 7234870,,Mo-Sa 07:00-20:00,ALDI Nord,Q41171373
DE032114,aldi_nord_de,ALDI Nord,,Greven,Nordrhein-Westfalen,,DE,+49 800 7234870,,Mo-Sa 07:00-21:00,ALDI Nord,Q41171373
55186303,deichmann,DEICHMANN Filiale Greven Niederort 3,,Greven,Nordrhein-Westfalen,,DE,+49 2571 8797679,https://stores.deichmann.com/de-de/de/nordrhein-westfalen/greven/niederort-3,Mo-Fr 09:30-18:30; Sa 09:30-16:00,Deichmann,Q664543
3841365,edeka_de,EDEKA Schneider,,Greven,Nordrhein-Westfalen,,DE,+49 2571 503980,https://www.edeka.de/eh/rhein-ruhr/edeka-schneider-grimmstraße-1/index.jsp,Mo-Sa 08:00-20:00,EDEKA,Q701755
10006761,edeka_de,EDEKA Harenbrock,,Greven,Nordrhein-Westfalen,,DE,+49 2575 9775022,https://www.edeka.de/eh/rhein-ruhr/edeka-harenbrock-steinfurter-straße-3/index.jsp,Mo-Sa 08:00-21:00,EDEKA,Q701755
16857,edeka_de,Edeka Kiwall und Schürmann,,Greven,Nordrhein-Westfalen,,DE,+49 2571 549021,https://www.edeka.de/eh/rhein-ruhr/edeka-kiwall-und-schürmann-schützenstraße-8-10/index.jsp,Mo-Sa 07:00-21:00,EDEKA,Q701755
10002092,edeka_de,Marktkauf Nientied,,Greven,Nordrhein-Westfalen,,DE,+49 2571 9958566,http://www.marktkauf-nientied.de/,Mo-Sa 08:00-21:00,MARKTKAUF,Q1533254
GS00105674,mercedes_benz,Beresa GmbH & Co. KG,,Greven,Nordrhein-Westfalen,,DE,,https://www.mercedes-benz-beresa.de,,Mercedes-Benz,Q36008
GS0000068,mercedes_benz,Autohaus Determann GmbH & Co. KG,,Greven,Nordrhein-Westfalen,,DE,+49 2571 80980,https://www.determann.mercedes-benz.de,,Mercedes-Benz,Q36008
5553,netto_de,Netto Marken-Discount,,Greven,Nordrhein-Westfalen,,DE,,https://www.netto-online.de/filialen/greven/grüner-weg-75/5553,Mo-Sa 07:00-22:00,Netto Marken-Discount,Q879858
10025410,shell,"GREVEN, EMSDETTENER LANDSTR",,GREVEN,Nordrhein-Westfalen,,DE,+49 2575 2240,https://find.shell.com/de/fuel/10025410-greven-emsdettener-landstr,,Shell,Q110716465
6592,tedi,TEDi GmbH & Co. KG,,Greven,NORDRHEIN-WESTFALEN,,DE,+49 231 555770,https://www.tedi.com/stores/6592/de/NORDRHEIN-WESTFALEN/Greven/Martinistr-23,Mo-Sa 00:00-24:00,TEDi,Q1364603
,visa,,,GREVEN-SUD,NORDRHEIN-WESTFALEN,,DE,,,,,
,visa,,,GREVEN,NORDRHEIN-WESTFALEN,,DE,,,,,
,visa,,,GREVEN,NORDRHEIN-WESTFALEN,,DE,,,,,
,visa,,,GREVEN-NORD,NORDRHEIN-WESTFALEN,,DE,,,,,
,visa,,,GREVEN,NORDRHEIN-WESTFALEN,,DE,,,,,
,visa,,,GREVEN,NORDRHEIN-WESTFALEN,,DE,,,,,
