Ref,Spider,Name,Address,City,State,Zipcode,Country,Phone,Website,Hours,Brand,WikiData
,visa,,,METEPEC,ESTADO DE MEXICO,,MX,,,,,
,visa,,,TOLUCA,ESTADO DE MEXICO,,MX,,,,,
,visa,,,TOLUCA,ESTADO DE MEXICO,,MX,,,,,
,visa,,,METEPEC,ESTADO DE MEXICO,,MX,,,,,
,visa,,,METEPEC,ESTADO DE MEXICO,,MX,,,,,
,visa,,,METEPEC,ESTADO DE MEXICO,,MX,,,,,
,visa,,,METEPEC,ESTADO DE MEXICO,,MX,,,,,
,visa,,,METEPEC,ESTADO DE MEXICO,,MX,,,,,
,visa,,,METEPEC,ESTADO DE MEXICO,,MX,,,,,
,visa,,,METEPEC,ESTADO DE MEXICO,,MX,,,,,
,visa,,,METEPEC,ESTADO DE MEXICO,,MX,,,,,
,visa,,,METEPEC,ESTADO DE MEXICO,,MX,,,,,
,visa,,,METEPEC,ESTADO DE MEXICO,,MX,,,,,
,visa,,,METEPEC,ESTADO DE MEXICO,,MX,,,,,
,visa,,,METEPEC,ESTADO DE MEXICO,,MX,,,,,
,visa,,,METEPEC,ESTADO DE MEXICO,,MX,,,,,
,visa,,,METEPEC,ESTADO DE MEXICO,,MX,,,,,
,visa,,,METEPEC ESTADO DE MEXICO,ESTADO DE MEXICO,,MX,,,,,
,visa,,,TOLUCA,ESTADO DE MEXICO,,MX,,,,,
,visa,,,METEPEC,ESTADO DE MEXICO,,MX,,,,,
,visa,,,TOLUCA,ESTADO DE MEXICO,,MX,,,,,
,visa,,,METEPEC,ESTADO DE MEXICO,,MX,,,,,
,visa,,,METEPEC,ESTADO DE MEXICO,,MX,,,,,
,visa,,,METEPEC,ESTADO DE MEXICO,,MX,,,,,
,visa,,,METEPEC,ESTADO DE MEXICO,,MX,,,,,
,visa,,,METEPEC,ESTADO DE MEXICO,,MX,,,,,
,visa,,,METEPEC,ESTADO DE MEXICO,,MX,,,,,
,visa,,,METEPEC,ESTADO DE MEXICO,,MX,,,,,
,visa,,,METEPEC,ESTADO DE MEXICO,,MX,,,,,
,visa,,,METEPEC,ESTADO DE MEXICO,,MX,,,,,
,visa,,,METEPEC,ESTADO DE MEXICO,,MX,,,,,
,visa,,,METEPEC,ESTADO DE MEXICO,,MX,,,,,
,visa,,,METEPEC,ESTADO DE MEXICO,,MX,,,,,
,visa,,,METEPEC,ESTADO DE MEXICO,,MX,,,,,
,visa,,,METEPEC,ESTADO DE MEXICO,,MX,,,,,
,visa,,,TOLUCA,ESTADO DE MEXICO,,MX,,,,,
a3a2893757b21c7bab6324e88486a194,western_union,OXXO ZACANGO TLC,,Metepec,ESTADO DE MEXICO,,MX,+52 81 8389 2121,https://location.westernunion.com/mx/estado-de-mexico/metepec/a3a2893757b21c7bab6324e88486a194,Mo-Su 08:00-22:00,Western Union,Q861042
dfc95ce0531fa3046ee4b3ff6e52ada9,western_union,OXXO METEPEC TLC,,Metepec,ESTADO DE MEXICO,,MX,+52 81 8389 2121,https://location.westernunion.com/mx/estado-de-mexico/metepec/dfc95ce0531fa3046ee4b3ff6e52ada9,Mo-Su 08:00-22:00,Western Union,Q861042
5c37f7237cbcae5861da0532bf7d3963,western_union,OXXO METEPEC TLC,,Metepec,ESTADO DE MEXICO,,MX,+52 81 8389 2121,https://location.westernunion.com/mx/estado-de-mexico/metepec/5c37f7237cbcae5861da0532bf7d3963,Mo-Su 08:00-22:00,Western Union,Q861042
05959da12c9011f8dbd2c00026925ece,western_union,ELEKTRA PPR 9187 INSIGNIA CLOUTHIER,,Metepec,ESTADO DE MEXICO,,MX,+52 55 1720 8177,https://location.westernunion.com/mx/estado-de-mexico/metepec/05959da12c9011f8dbd2c00026925ece,Mo-Su 09:00-21:00,Western Union,Q861042
98e0808f7f7b90b47c3f1a83abaa3f41,western_union,ELEKTRA PPR 9187 INSIGNIA CLOUTHIER,,Metepec,ESTADO DE MEXICO,,MX,+52 55 1720 8177,https://location.westernunion.com/mx/estado-de-mexico/metepec/98e0808f7f7b90b47c3f1a83abaa3f41,Mo-Su 09:00-21:00,Western Union,Q861042
e9ab07d965ed6a8218eaaf81acb8bef8,western_union,ELEKTRA PPR 9187 INSIGNIA CLOUTHIER,,Metepec,ESTADO DE MEXICO,,MX,+52 55 1720 8177,https://location.westernunion.com/mx/estado-de-mexico/metepec/e9ab07d965ed6a8218eaaf81acb8bef8,Mo-Su 09:00-21:00,Western Union,Q861042
2b458c63746a07147f16a9279172a24f,western_union,OXXO LA PURISIMA TLC,,Metepec,ESTADO DE MEXICO,,MX,+52 81 8389 2121,https://location.westernunion.com/mx/estado-de-mexico/metepec/2b458c63746a07147f16a9279172a24f,Mo-Su 08:00-22:00,Western Union,Q861042
f9b74d3d4049f45cfa8b1fa4bce40b96,western_union,OXXO LA PURISIMA TLC,,Metepec,ESTADO DE MEXICO,,MX,+52 81 8389 2121,https://location.westernunion.com/mx/estado-de-mexico/metepec/f9b74d3d4049f45cfa8b1fa4bce40b96,Mo-Su 08:00-22:00,Western Union,Q861042
f6fcd29321f79348182fbe2549e74308,western_union,OXXO LA PURISIMA TLC,,Metepec,ESTADO DE MEXICO,,MX,+52 81 8389 2121,https://location.westernunion.com/mx/estado-de-mexico/metepec/f6fcd29321f79348182fbe2549e74308,Mo-Su 08:00-22:00,Western Union,Q861042
24c62916f63c96d45343a63bb7f7c621,western_union,FARM GUAD MANUEL J CLOUTIER,,Toluca,ESTADO DE MEXICO,,MX,+52 800 833 4700,https://location.westernunion.com/mx/estado-de-mexico/toluca/24c62916f63c96d45343a63bb7f7c621,Mo-Su 08:00-20:00,Western Union,Q861042
d71644d5e425bd9a21579d10c4b13928,western_union,FARM GUAD MANUEL J CLOUTIER,,Toluca,ESTADO DE MEXICO,,MX,+52 800 833 4700,https://location.westernunion.com/mx/estado-de-mexico/toluca/d71644d5e425bd9a21579d10c4b13928,Mo-Su 08:00-20:00,Western Union,Q861042
37b88ad90c59ab5d4d979afad4a721fc,western_union,WALDOS PILARES METEPEC EDOMEX 6066,,Metepec,ESTADO DE MEXICO,,MX,+52 55 5246 0700,https://location.westernunion.com/mx/estado-de-mexico/metepec/37b88ad90c59ab5d4d979afad4a721fc,Mo-Su 06:30-23:30,Western Union,Q861042
89bfa5adcf632071c949b654aef7b180,western_union,FINAGAM METEPEC,,Metepec,ESTADO DE MEXICO,,MX,+52 722 232 7442,https://location.westernunion.com/mx/estado-de-mexico/metepec/89bfa5adcf632071c949b654aef7b180,Mo-Fr 09:00-18:00; Sa 09:00-13:00,Western Union,Q861042
7c60ca8b2d0b8f754f5ee27f7b3a3ba0,western_union,FINAGAM METEPEC,,Metepec,ESTADO DE MEXICO,,MX,+52 722 232 7442,https://location.westernunion.com/mx/estado-de-mexico/metepec/7c60ca8b2d0b8f754f5ee27f7b3a3ba0,Mo-Fr 09:00-18:00; Sa 09:00-13:00,Western Union,Q861042
8bcdfbdd575ad70b56b94c942296520e,western_union,FINAGAM METEPEC,,Metepec,ESTADO DE MEXICO,,MX,+52 722 232 7442,https://location.westernunion.com/mx/estado-de-mexico/metepec/8bcdfbdd575ad70b56b94c942296520e,Mo-Fr 09:00-18:00; Sa 09:00-13:00,Western Union,Q861042
8da3f719a9cc128194bbcaa1353768fe,western_union,7ELEVEN TECNOLOGICO 2069,,Metepec,ESTADO DE MEXICO,,MX,+52 800 833 4700,https://location.westernunion.com/mx/estado-de-mexico/metepec/8da3f719a9cc128194bbcaa1353768fe,Mo-Su 06:00-22:00,Western Union,Q861042
c12fed6b506843fcc0878ab56b0ad64e,western_union,7ELEVEN TECNOLOGICO 2069,,Metepec,ESTADO DE MEXICO,,MX,+52 800 833 4700,https://location.westernunion.com/mx/estado-de-mexico/metepec/c12fed6b506843fcc0878ab56b0ad64e,Mo-Su 06:00-22:00,Western Union,Q861042
aa6b1905ae40d870d68746c9c28ad7ce,western_union,7ELEVEN TECNOLOGICO 2069,,Metepec,ESTADO DE MEXICO,,MX,+52 800 833 4700,https://location.westernunion.com/mx/estado-de-mexico/metepec/aa6b1905ae40d870d68746c9c28ad7ce,Mo-Su 06:00-22:00,Western Union,Q861042
173b10f93f93f54c678eee436f16c4e0,western_union,OXXO MOCTEZUMA TLC,,Metepec,ESTADO DE MEXICO,,MX,+52 81 8389 2121,https://location.westernunion.com/mx/estado-de-mexico/metepec/173b10f93f93f54c678eee436f16c4e0,Mo-Su 08:00-22:00,Western Union,Q861042
5004edbd6b2e0e1142d7d3107550701c,western_union,OXXO MOCTEZUMA TLC,,Metepec,ESTADO DE MEXICO,,MX,+52 81 8389 2121,https://location.westernunion.com/mx/estado-de-mexico/metepec/5004edbd6b2e0e1142d7d3107550701c,Mo-Su 08:00-22:00,Western Union,Q861042
9458a6f11580f12b8686e871d92cc8fd,western_union,OXXO MOCTEZUMA TLC,,Metepec,ESTADO DE MEXICO,,MX,+52 81 8389 2121,https://location.westernunion.com/mx/estado-de-mexico/metepec/9458a6f11580f12b8686e871d92cc8fd,Mo-Su 08:00-22:00,Western Union,Q861042
6a3b901dca054cdc045a04007756fee6,western_union,OXXO COMONFORT TLC,,Metepec,ESTADO DE MEXICO,,MX,+52 81 8389 2121,https://location.westernunion.com/mx/estado-de-mexico/metepec/6a3b901dca054cdc045a04007756fee6,Mo-Su 08:00-22:00,Western Union,Q861042
bc61570727081a0d2d0811bf8843529f,western_union,OXXO COMONFORT TLC,,Metepec,ESTADO DE MEXICO,,MX,+52 81 8389 2121,https://location.westernunion.com/mx/estado-de-mexico/metepec/bc61570727081a0d2d0811bf8843529f,Mo-Su 08:00-22:00,Western Union,Q861042
968fc0ee9cb66bf42928f08ab1242238,western_union,OXXO COMONFORT TLC,,Metepec,ESTADO DE MEXICO,,MX,+52 81 8389 2121,https://location.westernunion.com/mx/estado-de-mexico/metepec/968fc0ee9cb66bf42928f08ab1242238,Mo-Su 08:00-22:00,Western Union,Q861042
9fd1dcb3c4cd125fb14e6e86f1c462c8,western_union,BANCOPPEL 887 PLAZA SAN FRANCI,,Metepec,ESTADO DE MEXICO,,MX,+52 81 8389 3400,https://location.westernunion.com/mx/estado-de-mexico/metepec/9fd1dcb3c4cd125fb14e6e86f1c462c8,Mo-Sa 10:00-20:00; Su 10:00-19:00,Western Union,Q861042
2fc75379599dd2ea1c3bf15073a7426c,western_union,FARM GUAD AV LEONA VICARIO,,Metepec,ESTADO DE MEXICO,,MX,+52 800 833 4700,https://location.westernunion.com/mx/estado-de-mexico/metepec/2fc75379599dd2ea1c3bf15073a7426c,Mo-Su 08:00-20:00,Western Union,Q861042
4b5f17f4d648d17f127d9954e8fedc94,western_union,SORIANA LA PILITA 478,,Metepec,ESTADO DE MEXICO,,MX,(+52) 81-1112009,https://location.westernunion.com/mx/estado-de-mexico/metepec/4b5f17f4d648d17f127d9954e8fedc94,Mo-Su 08:00-23:00,Western Union,Q861042
b35df13944a719827e948285dd66e3e6,western_union,SORIANA LA PILITA 478,,Metepec,ESTADO DE MEXICO,,MX,(+52) 81-1112009,https://location.westernunion.com/mx/estado-de-mexico/metepec/b35df13944a719827e948285dd66e3e6,Mo-Su 08:00-23:00,Western Union,Q861042
0785ef0a1715ce32ea55e7dd5f3d8777,western_union,SORIANA LA PILITA 478,,Metepec,ESTADO DE MEXICO,,MX,(+52) 81-1112009,https://location.westernunion.com/mx/estado-de-mexico/metepec/0785ef0a1715ce32ea55e7dd5f3d8777,Mo-Su 08:00-23:00,Western Union,Q861042
513d7fa1b788ca87ffdb6fe098e6fb38,western_union,ELEKTRA 9484,,Metepec,ESTADO DE MEXICO,,MX,+52 55 1720 8177,https://location.westernunion.com/mx/estado-de-mexico/metepec/513d7fa1b788ca87ffdb6fe098e6fb38,Mo-Su 09:00-21:00,Western Union,Q861042
458fd20bab2b4c32a28382c9df44b2ac,western_union,ELEKTRA 9484,,Metepec,ESTADO DE MEXICO,,MX,+52 55 1720 8177,https://location.westernunion.com/mx/estado-de-mexico/metepec/458fd20bab2b4c32a28382c9df44b2ac,Mo-Su 09:00-21:00,Western Union,Q861042
aaebac85808cdfbac2973d3722b5eebf,western_union,ELEKTRA 9484,,Metepec,ESTADO DE MEXICO,,MX,+52 55 1720 8177,https://location.westernunion.com/mx/estado-de-mexico/metepec/aaebac85808cdfbac2973d3722b5eebf,Mo-Su 09:00-21:00,Western Union,Q861042
a6b2d0eceff5514b2738d1907ca71673,western_union,BANORTE 02431 SAN CARLOS MEXICO,,Metepec,ESTADO DE MEXICO,,MX,+52 800 833 4700,https://location.westernunion.com/mx/estado-de-mexico/metepec/a6b2d0eceff5514b2738d1907ca71673,Mo-Fr 09:00-17:00,Western Union,Q861042
3966c12f1de7e4d98616286e24c94408,western_union,OXXO EZEQUIELCAPISTRANTLC,,Metepec,ESTADO DE MEXICO,,MX,+52 81 8389 2121,https://location.westernunion.com/mx/estado-de-mexico/metepec/3966c12f1de7e4d98616286e24c94408,Mo-Su 08:00-22:00,Western Union,Q861042
d92b797fc53332e3ab250c6b56718ced,western_union,OXXO EZEQUIELCAPISTRANTLC,,Metepec,ESTADO DE MEXICO,,MX,+52 81 8389 2121,https://location.westernunion.com/mx/estado-de-mexico/metepec/d92b797fc53332e3ab250c6b56718ced,Mo-Su 08:00-22:00,Western Union,Q861042
73f93ab42ce29b8825c26e1ecae1d9d0,western_union,OXXO EZEQUIELCAPISTRANTLC,,Metepec,ESTADO DE MEXICO,,MX,+52 81 8389 2121,https://location.westernunion.com/mx/estado-de-mexico/metepec/73f93ab42ce29b8825c26e1ecae1d9d0,Mo-Su 08:00-22:00,Western Union,Q861042
f75d243cbb0ff5cebbac812d9cc41f84,western_union,OXXO SAN AGUSTIN TLC,,Metepec,ESTADO DE MEXICO,,MX,+52 81 8389 2121,https://location.westernunion.com/mx/estado-de-mexico/metepec/f75d243cbb0ff5cebbac812d9cc41f84,Mo-Su 08:00-22:00,Western Union,Q861042
2cf7f489767e36bdbe327e9af0b30477,western_union,OXXO SAN AGUSTIN TLC,,Metepec,ESTADO DE MEXICO,,MX,+52 81 8389 2121,https://location.westernunion.com/mx/estado-de-mexico/metepec/2cf7f489767e36bdbe327e9af0b30477,Mo-Su 08:00-22:00,Western Union,Q861042
46b25006e5c52644836d3e9b5aac63b0,western_union,OXXO SAN AGUSTIN TLC,,Metepec,ESTADO DE MEXICO,,MX,+52 81 8389 2121,https://location.westernunion.com/mx/estado-de-mexico/metepec/46b25006e5c52644836d3e9b5aac63b0,Mo-Su 08:00-22:00,Western Union,Q861042
f8013f8aa47ef6f776afe3f6f659c452,western_union,FARM GUAD AV LIC BENITO JUAREZ,,Metepec,ESTADO DE MEXICO,,MX,+52 800 833 4700,https://location.westernunion.com/mx/estado-de-mexico/metepec/f8013f8aa47ef6f776afe3f6f659c452,Mo-Su 09:00-22:00,Western Union,Q861042
7bf75989e1714962b78c807256521bbf,western_union,FARM GUAD AV LEONA VICARIO,,Metepec,ESTADO DE MEXICO,,MX,+52 800 833 4700,https://location.westernunion.com/mx/estado-de-mexico/metepec/7bf75989e1714962b78c807256521bbf,Mo-Su 08:00-20:00,Western Union,Q861042
3dfd890ac28ab1ecc013424b76fa6c66,western_union,WALMART EXPRESS METEPEC 4170,,Metepec,ESTADO DE MEXICO,,MX,+52 800 833 4700,https://location.westernunion.com/mx/estado-de-mexico/metepec/3dfd890ac28ab1ecc013424b76fa6c66,Mo-Su 07:00-10:00,Western Union,Q861042
add83024ab0b21b40aa7e003c8d5ef54,western_union,WALMART EXPRESS METEPEC 4170,,Metepec,ESTADO DE MEXICO,,MX,+52 800 833 4700,https://location.westernunion.com/mx/estado-de-mexico/metepec/add83024ab0b21b40aa7e003c8d5ef54,Mo-Su 07:00-10:00,Western Union,Q861042
d90b61ac1b5b1a3549c4961022102a30,western_union,WALMART EXPRESS METEPEC 4170,,Metepec,ESTADO DE MEXICO,,MX,+52 800 833 4700,https://location.westernunion.com/mx/estado-de-mexico/metepec/d90b61ac1b5b1a3549c4961022102a30,Mo-Su 07:00-10:00,Western Union,Q861042
5134a8ab822b06ef0114db71579612cb,western_union,OXXO PASEO SAN ISIDRO TLC,,Metepec,ESTADO DE MEXICO,,MX,+52 81 8389 2121,https://location.westernunion.com/mx/estado-de-mexico/metepec/5134a8ab822b06ef0114db71579612cb,Mo-Su 08:00-22:00,Western Union,Q861042
1298c3391e71c169997bb5b98296dc19,western_union,OXXO PASEO SAN ISIDRO TLC,,Metepec,ESTADO DE MEXICO,,MX,+52 81 8389 2121,https://location.westernunion.com/mx/estado-de-mexico/metepec/1298c3391e71c169997bb5b98296dc19,Mo-Su 08:00-22:00,Western Union,Q861042
599d8cc02dffd1eba87891b6c5d777fb,western_union,OXXO PASEO SAN ISIDRO TLC,,Metepec,ESTADO DE MEXICO,,MX,+52 81 8389 2121,https://location.westernunion.com/mx/estado-de-mexico/metepec/599d8cc02dffd1eba87891b6c5d777fb,Mo-Su 08:00-22:00,Western Union,Q861042
b10aa3c0dc27fee3f537a5ef459d1fb4,western_union,OXXO ESTADO DE MEXICO TLC,,Metepec,ESTADO DE MEXICO,,MX,+52 81 8389 2121,https://location.westernunion.com/mx/estado-de-mexico/metepec/b10aa3c0dc27fee3f537a5ef459d1fb4,Mo-Su 08:00-22:00,Western Union,Q861042
82085c85857339ac90265073f56bf3c9,western_union,OXXO ESTADO DE MEXICO TLC,,Metepec,ESTADO DE MEXICO,,MX,+52 81 8389 2121,https://location.westernunion.com/mx/estado-de-mexico/metepec/82085c85857339ac90265073f56bf3c9,Mo-Su 08:00-22:00,Western Union,Q861042
482058aa698b0761285027eec6ac0b8a,western_union,OXXO ESTADO DE MEXICO TLC,,Metepec,ESTADO DE MEXICO,,MX,+52 81 8389 2121,https://location.westernunion.com/mx/estado-de-mexico/metepec/482058aa698b0761285027eec6ac0b8a,Mo-Su 08:00-22:00,Western Union,Q861042
79bea266ce38e71a69e3239066dc1596,western_union,SORIANA METEPEC 968,,Metepec,ESTADO DE MEXICO,,MX,+52 800 555 6555,https://location.westernunion.com/mx/estado-de-mexico/metepec/79bea266ce38e71a69e3239066dc1596,Mo-Su 08:00-22:00,Western Union,Q861042
793049e452bbd8a2cd9a3b359a53147f,western_union,SORIANA METEPEC 968,,Metepec,ESTADO DE MEXICO,,MX,+52 800 555 6555,https://location.westernunion.com/mx/estado-de-mexico/metepec/793049e452bbd8a2cd9a3b359a53147f,Mo-Su 08:00-22:00,Western Union,Q861042
0a38bbe4c36d57497dd49da4b34bd3d0,western_union,SORIANA METEPEC 968,,Metepec,ESTADO DE MEXICO,,MX,+52 800 555 6555,https://location.westernunion.com/mx/estado-de-mexico/metepec/0a38bbe4c36d57497dd49da4b34bd3d0,Mo-Su 08:00-22:00,Western Union,Q861042
9c9aebdb35c96a7820578da454211668,western_union,FARM GUAD SANTA CRUZ,,Metepec,ESTADO DE MEXICO,,MX,+52 800 833 4700,https://location.westernunion.com/mx/estado-de-mexico/metepec/9c9aebdb35c96a7820578da454211668,Mo-Su 08:00-20:00,Western Union,Q861042
ee6909a8b5eba2d4babc43383493b3f0,western_union,FARM GUAD SANTA CRUZ,,Metepec,ESTADO DE MEXICO,,MX,+52 800 833 4700,https://location.westernunion.com/mx/estado-de-mexico/metepec/ee6909a8b5eba2d4babc43383493b3f0,Mo-Su 08:00-20:00,Western Union,Q861042
97b05c583722eb285b00c59126bdcd47,western_union,FARM GUAD SANTA CRUZ,,Metepec,ESTADO DE MEXICO,,MX,+52 800 833 4700,https://location.westernunion.com/mx/estado-de-mexico/metepec/97b05c583722eb285b00c59126bdcd47,Mo-Su 08:00-20:00,Western Union,Q861042
25c5b9dd58e140a1f3b46c1889ec323d,western_union,OXXO ZACANGO TLC,,Metepec,ESTADO DE MEXICO,,MX,+52 81 8389 2121,https://location.westernunion.com/mx/estado-de-mexico/metepec/25c5b9dd58e140a1f3b46c1889ec323d,Mo-Su 08:00-22:00,Western Union,Q861042
fbd9174c744b01398dfd9edfeaa46703,western_union,SORIANA METEPEC 271,,Toluca,ESTADO DE MEXICO,,MX,(+52) 81-1112009,https://location.westernunion.com/mx/estado-de-mexico/toluca/fbd9174c744b01398dfd9edfeaa46703,Mo-Su 08:00-23:00,Western Union,Q861042
aff0a75347a86488d509d7cbae2613ad,western_union,SORIANA METEPEC 271,,Toluca,ESTADO DE MEXICO,,MX,(+52) 81-1112009,https://location.westernunion.com/mx/estado-de-mexico/toluca/aff0a75347a86488d509d7cbae2613ad,Mo-Su 08:00-23:00,Western Union,Q861042
29b8d85c867b2e086b746a8fe099b787,western_union,OXXO NINO PERDIDO TLC,,Metepec,ESTADO DE MEXICO,,MX,+52 81 8389 2121,https://location.westernunion.com/mx/estado-de-mexico/metepec/29b8d85c867b2e086b746a8fe099b787,Mo-Su 08:00-22:00,Western Union,Q861042
794d03b17bc044a198f73fde44e7e5a7,western_union,FARM GUAD GPE VICTORIA PTE,,Metepec,ESTADO DE MEXICO,,MX,+52 800 833 4700,https://location.westernunion.com/mx/estado-de-mexico/metepec/794d03b17bc044a198f73fde44e7e5a7,Mo-Su 08:00-20:00,Western Union,Q861042
486ab0b319217dc1df70a46f3ec07c36,western_union,FARM GUAD GPE VICTORIA PTE,,Metepec,ESTADO DE MEXICO,,MX,+52 800 833 4700,https://location.westernunion.com/mx/estado-de-mexico/metepec/486ab0b319217dc1df70a46f3ec07c36,Mo-Su 08:00-20:00,Western Union,Q861042
0cb1335c1c62c7707059fb9f4ffcb2f2,western_union,FARM GUAD GPE VICTORIA PTE,,Metepec,ESTADO DE MEXICO,,MX,+52 800 833 4700,https://location.westernunion.com/mx/estado-de-mexico/metepec/0cb1335c1c62c7707059fb9f4ffcb2f2,Mo-Su 08:00-20:00,Western Union,Q861042
ac355d5e1d7730131d0a3aea1ef6a3b4,western_union,AURRERA EXPRESS IGNACIO COMONFORT 1881,,Metepec,ESTADO DE MEXICO,,MX,+52 800 833 4700,https://location.westernunion.com/mx/estado-de-mexico/metepec/ac355d5e1d7730131d0a3aea1ef6a3b4,Mo-Su 08:00-22:00,Western Union,Q861042
62840c3dffc89b9b05011e95114574c4,western_union,AURRERA EXPRESS IGNACIO COMONFORT 1881,,Metepec,ESTADO DE MEXICO,,MX,+52 800 833 4700,https://location.westernunion.com/mx/estado-de-mexico/metepec/62840c3dffc89b9b05011e95114574c4,Mo-Su 08:00-22:00,Western Union,Q861042
57fb7a1aa0bb7abbc36e7f7e9ee2780b,western_union,BANORTE 02430 GALERIAS METEPEC,,Metepec,ESTADO DE MEXICO,,MX,+52 800 833 4700,https://location.westernunion.com/mx/estado-de-mexico/metepec/57fb7a1aa0bb7abbc36e7f7e9ee2780b,Mo-Sa 09:00-17:00,Western Union,Q861042
7b8c31b2346bab9cebfd1b4e4c0616d4,western_union,OXXO MATAMOROS I TLC,,Metepec,ESTADO DE MEXICO,,MX,+52 81 8389 2121,https://location.westernunion.com/mx/estado-de-mexico/metepec/7b8c31b2346bab9cebfd1b4e4c0616d4,Mo-Su 08:00-22:00,Western Union,Q861042
89670aaaf87727cd1f61460e3ee1061c,western_union,OXXO MATAMOROS I TLC,,Metepec,ESTADO DE MEXICO,,MX,+52 81 8389 2121,https://location.westernunion.com/mx/estado-de-mexico/metepec/89670aaaf87727cd1f61460e3ee1061c,Mo-Su 08:00-22:00,Western Union,Q861042
a20163d8d5f1d4ac6bd0373c91041591,western_union,OXXO MATAMOROS I TLC,,Metepec,ESTADO DE MEXICO,,MX,+52 81 8389 2121,https://location.westernunion.com/mx/estado-de-mexico/metepec/a20163d8d5f1d4ac6bd0373c91041591,Mo-Su 08:00-22:00,Western Union,Q861042
5aee4e7c090edaa390ca8b429906210f,western_union,AURRERA 6372  PLAZA ACEQUIA,,Metepec,ESTADO DE MEXICO,,MX,(+52) 81-018008334700,https://location.westernunion.com/mx/estado-de-mexico/metepec/5aee4e7c090edaa390ca8b429906210f,Mo-Su 08:00-22:00,Western Union,Q861042
dcde688551280c9fddd883aebeb068d3,western_union,AURRERA 6372  PLAZA ACEQUIA,,Metepec,ESTADO DE MEXICO,,MX,(+52) 81-018008334700,https://location.westernunion.com/mx/estado-de-mexico/metepec/dcde688551280c9fddd883aebeb068d3,Mo-Su 08:00-22:00,Western Union,Q861042
90af20abd039e8f4a665f7f8d6af142e,western_union,AURRERA 6372  PLAZA ACEQUIA,,Metepec,ESTADO DE MEXICO,,MX,(+52) 81-018008334700,https://location.westernunion.com/mx/estado-de-mexico/metepec/90af20abd039e8f4a665f7f8d6af142e,Mo-Su 08:00-22:00,Western Union,Q861042
940886e60c9c7a2775b453f0418e1fb7,western_union,SORIANA METEPEC 968,,Metepec,ESTADO DE MEXICO,,MX,+52 800 555 6555,https://location.westernunion.com/mx/estado-de-mexico/metepec/940886e60c9c7a2775b453f0418e1fb7,Mo-Su 08:00-22:00,Western Union,Q861042
4371396a45fe224cff6b0ecf1e6fa87b,western_union,SORIANA METEPEC 968,,Metepec,ESTADO DE MEXICO,,MX,+52 800 555 6555,https://location.westernunion.com/mx/estado-de-mexico/metepec/4371396a45fe224cff6b0ecf1e6fa87b,Mo-Su 08:00-22:00,Western Union,Q861042
8fcd2ddcd10fd003593cca873e091c0b,western_union,FARM GUAD PASEO SAN ISIDRO,,Metepec,ESTADO DE MEXICO,,MX,+52 800 833 4700,https://location.westernunion.com/mx/estado-de-mexico/metepec/8fcd2ddcd10fd003593cca873e091c0b,Mo-Su 08:00-20:00,Western Union,Q861042
15e070b662f57d67a9a606c687371c43,western_union,FARM GUAD PASEO SAN ISIDRO,,Metepec,ESTADO DE MEXICO,,MX,+52 800 833 4700,https://location.westernunion.com/mx/estado-de-mexico/metepec/15e070b662f57d67a9a606c687371c43,Mo-Su 08:00-20:00,Western Union,Q861042
9f77337ab8a26887a94e5b21bba06c49,western_union,FARM GUAD PASEO SAN ISIDRO,,Metepec,ESTADO DE MEXICO,,MX,+52 800 833 4700,https://location.westernunion.com/mx/estado-de-mexico/metepec/9f77337ab8a26887a94e5b21bba06c49,Mo-Su 08:00-20:00,Western Union,Q861042
aa9b7f3f8e206f2de0ca7c475d202662,western_union,OXXO CERRO DEL CALVARIO TLC,,Metepec,ESTADO DE MEXICO,,MX,+52 81 8389 2121,https://location.westernunion.com/mx/estado-de-mexico/metepec/aa9b7f3f8e206f2de0ca7c475d202662,Mo-Su 08:00-22:00,Western Union,Q861042
d09db0347def85887f60e7dbbb6aece5,western_union,OXXO CERRO DEL CALVARIO TLC,,Metepec,ESTADO DE MEXICO,,MX,+52 81 8389 2121,https://location.westernunion.com/mx/estado-de-mexico/metepec/d09db0347def85887f60e7dbbb6aece5,Mo-Su 08:00-22:00,Western Union,Q861042
b903450ff8bd8a7bf9627999b265b74c,western_union,OXXO CERRO DEL CALVARIO TLC,,Metepec,ESTADO DE MEXICO,,MX,+52 81 8389 2121,https://location.westernunion.com/mx/estado-de-mexico/metepec/b903450ff8bd8a7bf9627999b265b74c,Mo-Su 08:00-22:00,Western Union,Q861042
c8d9cb15bcb8e751f651123f3bdf7f36,western_union,OXXO VILLADA TLC,,Metepec,ESTADO DE MEXICO,,MX,+52 81 8389 2121,https://location.westernunion.com/mx/estado-de-mexico/metepec/c8d9cb15bcb8e751f651123f3bdf7f36,Mo-Su 08:00-22:00,Western Union,Q861042
23089cbc66d7c6b911227bd7948383b1,western_union,OXXO NINO PERDIDO TLC,,Metepec,ESTADO DE MEXICO,,MX,+52 81 8389 2121,https://location.westernunion.com/mx/estado-de-mexico/metepec/23089cbc66d7c6b911227bd7948383b1,Mo-Su 08:00-22:00,Western Union,Q861042
8cca7517feeb390d97eb3db6c8c80daf,western_union,OXXO NINOS HEROES TLC,,Metepec,ESTADO DE MEXICO,,MX,+52 81 8389 2121,https://location.westernunion.com/mx/estado-de-mexico/metepec/8cca7517feeb390d97eb3db6c8c80daf,Mo-Su 08:00-22:00,Western Union,Q861042
0cb5ba717a4090aa483f45085a23fe72,western_union,OXXO NINOS HEROES TLC,,Metepec,ESTADO DE MEXICO,,MX,+52 81 8389 2121,https://location.westernunion.com/mx/estado-de-mexico/metepec/0cb5ba717a4090aa483f45085a23fe72,Mo-Su 08:00-22:00,Western Union,Q861042
31e9659c05191848e2489d0057726c16,western_union,OXXO METEPEC TLC,,Metepec,ESTADO DE MEXICO,,MX,+52 81 8389 2121,https://location.westernunion.com/mx/estado-de-mexico/metepec/31e9659c05191848e2489d0057726c16,Mo-Su 08:00-22:00,Western Union,Q861042
26ddd29f35cd0f6e012672c3d3d8e846,western_union,OXXO VILLADA TLC,,Metepec,ESTADO DE MEXICO,,MX,+52 81 8389 2121,https://location.westernunion.com/mx/estado-de-mexico/metepec/26ddd29f35cd0f6e012672c3d3d8e846,Mo-Su 08:00-22:00,Western Union,Q861042
fe8fc4efca1002e2ac5d2226df9450b5,western_union,OXXO VILLADA TLC,,Metepec,ESTADO DE MEXICO,,MX,+52 81 8389 2121,https://location.westernunion.com/mx/estado-de-mexico/metepec/fe8fc4efca1002e2ac5d2226df9450b5,Mo-Su 08:00-22:00,Western Union,Q861042
0801e1184f8b330c415d7deae448fd0d,western_union,BANORTE 02374 PLAZA PARQUE METEPEC,,Metepec,ESTADO DE MEXICO,,MX,+52 800 833 4700,https://location.westernunion.com/mx/estado-de-mexico/metepec/0801e1184f8b330c415d7deae448fd0d,Mo-Fr 09:00-17:00,Western Union,Q861042
861cb00220fb2b6e42cd2444113164da,western_union,OXXO ZACANGO TLC,,Metepec,ESTADO DE MEXICO,,MX,+52 81 8389 2121,https://location.westernunion.com/mx/estado-de-mexico/metepec/861cb00220fb2b6e42cd2444113164da,Mo-Su 08:00-22:00,Western Union,Q861042
a36dd79b715134ef602588fceebeb841,western_union,OXXO BONANZA TLC,,Metepec,ESTADO DE MEXICO,,MX,+52 81 8389 2121,https://location.westernunion.com/mx/estado-de-mexico/metepec/a36dd79b715134ef602588fceebeb841,Mo-Su 08:00-22:00,Western Union,Q861042
77b7f2e6bfe89277ac64b5170d46742b,western_union,OXXO BONANZA TLC,,Metepec,ESTADO DE MEXICO,,MX,+52 81 8389 2121,https://location.westernunion.com/mx/estado-de-mexico/metepec/77b7f2e6bfe89277ac64b5170d46742b,Mo-Su 08:00-22:00,Western Union,Q861042
a4aff043cc622553bacaa5e1a815dbdf,western_union,OXXO TECNOLOGICO TLC,,Metepec,ESTADO DE MEXICO,,MX,+52 81 8389 2121,https://location.westernunion.com/mx/estado-de-mexico/metepec/a4aff043cc622553bacaa5e1a815dbdf,Mo-Su 08:00-22:00,Western Union,Q861042
8f307efe8ed18556a19989efdbc8970b,western_union,OXXO BONANZA TLC,,Metepec,ESTADO DE MEXICO,,MX,+52 81 8389 2121,https://location.westernunion.com/mx/estado-de-mexico/metepec/8f307efe8ed18556a19989efdbc8970b,Mo-Su 08:00-22:00,Western Union,Q861042
