Ref,Spider,Name,Address,City,State,Zipcode,Country,Phone,Website,Hours,Brand,WikiData
1019182,alamo,Long Beach Airport,,Long Beach,CA,,US,+1 833-740-1720,,,ALAMO,Q1429287
https://local.pharmacy.vons.com/#5673031,albertsons,Vons Pharmacy,,Long Beach,CA,,US,+1 562-496-1851,https://local.pharmacy.vons.com/ca/long-beach/5949-e-spring-st.html,,Vons,Q7941609
https://local.vons.com/#5603839,albertsons,Vons,,Long Beach,CA,,US,+1 562-496-2151,https://local.vons.com/ca/long-beach/5949-e-spring-st.html,,Vons,Q7941609
5309,anytime_fitness,Anytime Fitness,,Long Beach,CA,,US,+1 562-270-9755,https://www.anytimefitness.com/gyms/5309/long-beach-ca-90808/,,Anytime Fitness,Q4778364
https://stores.ashleyfurniture.com/store/us/california/long-beach/7710000043/,ashley_furniture,"Ashley Store Long Beach, CA",,Long Beach,CA,,US,+1 562-766-2050,https://stores.ashleyfurniture.com/store/us/california/long-beach/7710000043/,,Ashley Furniture,Q4805437
191026,asics_us,Runners High,4101 McGowen St Suite 145,Long Beach,CA,,US,+1 562-420-5499,,,asics,Q327247
https://www.avis.com/en/locations/us/ca/long-beach/lgb,avis,Avis U S A Long Beach Airport,,Long Beach,CA,,US,+1 562-988-3256,https://www.avis.com/en/locations/us/ca/long-beach/lgb,Mo-Su 07:00-22:00,Avis,Q791136
https://www.banfield.com/locations/veterinarians/ca/long-beach/lbs,banfield_pet_hospital,Long Beach Spring St,,Long Beach,CA,,US,+1 562-377-5595,https://www.banfield.com/locations/veterinarians/ca/long-beach/lbs,Mo-Sa 07:00-17:30; Su 00:00-24:00,Banfield Pet Hospital,Q2882416
https://locators.bankofamerica.com/ca/longbeach/financial-centers-long-beach-10844.html,bankofamerica,Bank of America Financial Center & Walk-Up ATM | Lakewood Plaza,,Long Beach,CA,,US,+1 562-624-4450,https://locators.bankofamerica.com/ca/longbeach/financial-centers-long-beach-10844.html,,Bank of America,Q487907
https://locators.bankofamerica.com/ca/longbeach/atm-long-beach-108955.html,bankofamerica,Bank of America Walk-Up ATM | Long Beach Towne Center,,Long Beach,CA,,US,+1 844-401-8500,https://locators.bankofamerica.com/ca/longbeach/atm-long-beach-108955.html,,Bank of America,Q487907
https://locations.baskinrobbins.com/ca/long-beach/3585-n-los-coyotes-diagonal-360060-br,baskin_robbins_us,Baskin-Robbins™,,Long Beach,CA,,US,+1 562-425-4416,https://locations.baskinrobbins.com/ca/long-beach/3585-n-los-coyotes-diagonal-360060-br,Mo-Su 11:00-22:00,Baskin-Robbins,Q584601
BBW01181,bathandbodyworks_us,LONG BEACH TOWN CENTER,,LONG BEACH,CA,,US,+1 562-421-8061,,Mo-Sa 10:00-20:00; Su 11:00-19:00,Bath & Body Works,Q810773
169042,bluerhino,United Pacific  #28,,Long Beach,CA,,US,+1 562-421-1928,,,Blue Rhino,Q65681213
237400,bluerhino,Circle K #2709436,,Long Beach,CA,,US,+1 562-425-9214,,,Blue Rhino,Q65681213
39680,bluerhino,Lowe's #773,,Long Beach,CA,,US,+1 562-421-9996,,,Blue Rhino,Q65681213
//locations.carters.com/ca/long-beach/carters-long-beach-ca,carters_us,Carter's Long Beach,,Long Beach,CA,,US,+1 562-429-5952,https://locations.carters.com/ca/long-beach/carters-long-beach-ca,Mo-Sa 10:00-19:00; Su 11:00-18:00,Carter's,Q5047083
34796,citi,ATM Ampm,,Long Beach,CA,,US,,,,Citibank,Q857063
43414,citi,ATM Circle K,,Long Beach,CA,,US,,,,Citibank,Q857063
35795,citi,ATM Bamboo Nail & Spa,,Long Beach,CA,,US,,,,Citibank,Q857063
https://dekalash.com/find-a-studio/california/lbx/,deka_lash,Deka Lash,,Long Beach,CA,,US,+1 562-321-9213,https://dekalash.com/find-a-studio/california/lbx/,Mo-Fr 09:00-20:00; Sa 09:00-18:00,Deka Lash,Q120505973
vba_344n,department_veterans_affairs,VetSuccess on Campus at Long Beach City College,,Long Beach,CA,,US,+1 562-938-4162,,,Department Veterans Affairs,Q592576
Opening April 2024 in the Long Beach Town Center,dsw,DSW,,Long Beach,CA,,US,,https://stores.dsw.com/usa/ca/longbeach/dsw-designer-shoe-warehouse-7641-carson-blvd.html,Mo-Sa 10:00-20:00; Su 11:00-19:00,Designer Shoe Warehouse,Q5206207
356694,dunkin_us,Dunkin',,Long Beach,CA,,US,+1 562-420-2288,https://locations.dunkindonuts.com/en/ca/long-beach/3861-n-lakewood-blvd/356694,Mo-Su 05:00-21:00,Dunkin',Q847743
LGBT61,enterprise,Long Beach Airport,,Long Beach,CA,,US,+1 562-496-3134,,,Enterprise Rent-A-Car,Q17085454
LGBC61,enterprise,Long Beach Airport Exotic Collection,,Long Beach,CA,,US,+1 562-496-3134,,,Enterprise Rent-A-Car,Q17085454
0551,european_wax_center_us,European Wax Center,,Long Beach,CA,,US,+1 562-758-8800,https://locations.waxcenter.com/ca/longbeach/long-beach-0551.html,Mo-Fr 09:00-21:00; Sa 08:00-18:00; Su 09:00-18:00,European Wax Center,Q5413426
0925,european_wax_center_us,European Wax Center,,Long Beach,CA,,US,+1 562-452-0500,https://locations.waxcenter.com/ca/longbeach/long-beach-exchange-0925.html,Mo-Fr 08:00-20:00; Sa-Su 09:00-18:00,European Wax Center,Q5413426
1000000499,extra_space_storage,Long Beach Self Storage at 8150 E Wardlow Rd,,Long Beach,CA,,US,+1 562-799-9900,https://www.extraspace.com/storage/facilities/us/california/long_beach/1000000499/,Mo-Su 06:00-22:00,Extra Space Storage,Q5422162
200310719,exxonmobil,CIRCLE K 09436,,long beach,CA,,US,+1 562-425-9214,https://www.exxon.com/en/find-station/mobil-longbeach-ca-circlek09436-200310719,24/7,Mobil,Q109676002
2fbe77f3-458a-e111-8dde-005056934050,goodwill,Goodwill Store - #432 Wardlow,,Long Beach,CA,,US,+1 562-719-9242,https://www.goodwill.org/locator/location/?store=MmZiZTc3ZjMtNDU4YS1lMTExLThkZGUtMDA1MDU2OTM0MDUw&lat=MzMuODE3NjY=&lng=LTExOC4wNzAzNg==,,Goodwill,Q5583655
lgbarhw-homewood-suites-long-beach-airport,hilton,Homewood Suites by Hilton Long Beach Airport,,,CA,,US,+1 562-425-0010,https://www.hilton.com/ar/hotels/lgbarhw-homewood-suites-long-beach-airport/,,Homewood Suites by Hilton,Q5890701
lgbaphx-hampton-long-beach-airport,hilton,Hampton Inn Long Beach Airport,,,CA,,US,+1 562-425-0012,https://www.hilton.com/ar/hotels/lgbaphx-hampton-long-beach-airport/,,Hampton by Hilton,Q5646230
3765,h_r_block,H&R Block,,Long Beach,CA,,US,+1 562-429-3438,https://www.hrblock.com/local-tax-offices/california/long-beach/lakewood-plaza-marketplace/3765/,,H&R Block,Q5627799
420,ikes,Long Beach (LBX),,Long Beach,CA,,US,+1 562-549-5001,https://locations.ikessandwich.com/ca/longbeach/420/,,Ike's Love & Sandwiches,Q112028897
long-beach-airport-garage-a,indigo,Long Beach Airport - Garage A,,Long Beach,CA,,US,+1 562-425-9665,,,Indigo,Q3559970
long-beach-airport-garage-b,indigo,Long Beach Airport - Garage B,,Long Beach,CA,,US,+1 562-425-9665,,,Indigo,Q3559970
135,innout,Long Beach (Carson St.),,Long Beach,CA,,US,,http://locations.in-n-out.com/135,,In-N-Out Burger,Q1205312
https://locations.jackinthebox.com/us/ca/long-beach/4170-lakewood-blvd,jackinthebox,Jack in the Box,,Long Beach,CA,,US,+1 562-496-4565,https://locations.jackinthebox.com/us/ca/long-beach/4170-lakewood-blvd,Mo-Th 05:00-01:00; Fr-Sa 04:00-04:00; Su 05:00-01:00,Jack in the Box,Q1538507
https://locations.jackinthebox.com/us/ca/long-beach/3032-palo-verde-ave,jackinthebox,Jack in the Box,,Long Beach,CA,,US,+1 562-496-0741,https://locations.jackinthebox.com/us/ca/long-beach/3032-palo-verde-ave,Mo-Sa 06:00-00:00; Su 07:00-00:00,Jack in the Box,Q1538507
https://office.jacksonhewitt.com/#27579368,jackson_hewitt,Jackson Hewitt,,Long Beach,CA,,US,+1 562-239-2487,https://office.jacksonhewitt.com/tax-preparation-services-locations/en/ca/long-beach/7250-carson-blvd/53477,Mo-Sa 11:00-19:00; Su 12:00-16:00,Jackson Hewitt,Q6117132
https://stores.factory.jcrew.com/#74619922,j_crew_us,J.Crew Factory,,Long Beach,CA,,US,+1 562-689-0007,https://stores.factory.jcrew.com/us/ca/long-beach/4101-mcgowen-street,Mo-Fr 10:00-20:00; Sa 10:00-19:00; Su 11:00-18:00,J. Crew,Q5370765
https://healthy.kaiserpermanente.org/southern-california/facilities/akua-mind-body-133799,kaiser_permanente_us,AKUA Mind & Body,,Long Beach,CA,,US,+1 949-777-2283,https://healthy.kaiserpermanente.org/southern-california/facilities/akua-mind-body-133799,,Kaiser Permanente,Q1721601
83613,little_free_library,Book Haus #83613 Long Beach CA,,Long Beach,CA,,US,,,,Little Free Library,Q6650101
105973,little_free_library,Purple Little Library #105973 Long Beach CA,,Long Beach,CA,,US,,,,Little Free Library,Q6650101
69525,little_free_library,Dina Berg #69525 Long Beach CA,,Long Beach,CA,,US,,,,Little Free Library,Q6650101
114274,little_free_library,Heather Road Little Free Library #114274 Long Beach CA,,Long Beach,CA,,US,,,,Little Free Library,Q6650101
19034,little_free_library,Betsy Morgon #19034 Long Beach Ca,,Long Beach,CA,,US,,,,Little Free Library,Q6650101
160370,little_free_library,The Kitty Cat Book Nook #160370 Long Beach CA,,Long Beach,CA,,US,,,,Little Free Library,Q6650101
155257,little_free_library,Your Friendly Neighborhood Book Nook #155257 Long Beach CA,,Long Beach,CA,,US,,,,Little Free Library,Q6650101
132285,little_free_library,Lindsay’s Library #132285 Long Beach CA,,Long Beach,CA,,US,,,,Little Free Library,Q6650101
158650,little_free_library,Casita Linford #158650 Long Beach CA,,Long Beach,CA,,US,,,,Little Free Library,Q6650101
56207,little_free_library,Kimberly Lopez #56207 Long Beach CA,,Long Beach,CA,,US,,,,Little Free Library,Q6650101
16473,little_free_library,Rob&Mona Cammarata #16473 Long Beach Ca,,Long Beach,CA,,US,,,,Little Free Library,Q6650101
158320,little_free_library,M Christa Lee #158320 Long Beach CA,,Long Beach,CA,,US,,,,Little Free Library,Q6650101
24568,little_free_library,Mark Christoffels #24568 Long Beach CA,,Long Beach,CA,,US,,,,Little Free Library,Q6650101
107626,little_free_library,Little Red Schoolhouse #107626 Long Beach CA,,Long Beach,CA,,US,,,,Little Free Library,Q6650101
101096,little_free_library,The Ranadas’ Little Free Library #101096 Long Beach CA,,Long Beach,CA,,US,,,,Little Free Library,Q6650101
104311,little_free_library,Jay and Robin #104311 Long Beach CA,,Long Beach,CA,,US,,,,Little Free Library,Q6650101
100919,little_free_library,Reynolds' Library #100919 Long Beach CA,,Long Beach,CA,,US,,,,Little Free Library,Q6650101
99122,little_free_library,Terri Acker #99122 Long Beach CA,,Long Beach,CA,,US,,,,Little Free Library,Q6650101
122433,little_free_library,Dusty Books #122433 Long Beach CA,,Long Beach,CA,,US,,,,Little Free Library,Q6650101
68468,little_free_library,Eric Larson #68468 Long Beach CA,,Long Beach,CA,,US,,,,Little Free Library,Q6650101
158807,little_free_library,Cliff May #158807 Long Beach CA,,Long Beach,CA,,US,,,,Little Free Library,Q6650101
114866,little_free_library,Shannon Baxter-Haupert #114866 Long Beach CA,,Long Beach,CA,,US,,,,Little Free Library,Q6650101
12787,little_free_library,Carol Roemer #12787 Long Beach CA,,Long Beach,CA,,US,,,,Little Free Library,Q6650101
61261,little_free_library,Julian Ave. Library #61261 Long Beach CA,,Long Beach,CA,,US,,,,Little Free Library,Q6650101
114089,little_free_library,Neal Terrell #114089 Long Beach CA,,Long Beach,CA,,US,,,,Little Free Library,Q6650101
170846,little_free_library,Marna Manor Little Library #170846 Long Beach CA,,Long Beach,CA,,US,,,,Little Free Library,Q6650101
108911,little_free_library,Imperial Estates Neighborhood Library #108911 Long Beach CA,,Long Beach,CA,,US,,,,Little Free Library,Q6650101
285702,marathon_petroleum_us,ARCO #42020 AMPM,,Long Beach,CA,,US,+1 562-452-7474,,,Arco,Q304769
286121,marathon_petroleum_us,ARCO #22737,,Long Beach,CA,,US,+1 310-926-8472,,,Arco,Q304769
LGBCL,marriott,Courtyard Long Beach Airport,,Long Beach,CA,,US,+1 562-429-5803,https://www.marriott.com/LGBCL,,Courtyard by Marriott,Q1053170
https://locations.massageenvy.com/#1774141,massage_envy,Massage Envy Long Beach Town Center,,Long Beach,CA,,US,+1 562-354-9300,https://locations.massageenvy.com/california/long-beach/7609-carson-blvd.html,Mo-Fr 08:00-22:00; Sa 08:00-20:00; Su 09:00-19:00,Massage Envy,Q10327170
1019180,national,Long Beach Airport,,Long Beach,CA,,US,+1 833-740-1719,,,NATIONAL,Q1424142
https://stores.nordstromrack.com/#9398374,nordstrom_rack,Nordstrom Rack  Long Beach Exchange Long Beach,,Long Beach,CA,,US,+1 562-249-6747,https://stores.nordstromrack.com/us/ca/long-beach/4260-e-carson-street,Mo-Sa 10:00-21:00; Su 11:00-19:00,Nordstrom Rack,Q21463374
https://locations.oreillyauto.com/ca/longbeach/check-engine-light-testing-3227.html,oreilly,Your Long Beach O'Reilly Auto Parts Store,,Long Beach,CA,,US,+1 562-420-9941,https://locations.oreillyauto.com/ca/longbeach/check-engine-light-testing-3227.html,Mo-Su 07:30-21:00,O'Reilly Auto Parts,Q7071951
https://locations.oreillyauto.com/ca/longbeach/wiper-installation-3227.html,oreilly,Your Long Beach O'Reilly Auto Parts Store,,Long Beach,CA,,US,+1 562-420-9941,https://locations.oreillyauto.com/ca/longbeach/wiper-installation-3227.html,Mo-Su 07:30-21:00,O'Reilly Auto Parts,Q7071951
https://locations.oreillyauto.com/ca/longbeach/battery-testing-3227.html,oreilly,Your Long Beach O'Reilly Auto Parts Store,,Long Beach,CA,,US,+1 562-420-9941,https://locations.oreillyauto.com/ca/longbeach/battery-testing-3227.html,Mo-Su 07:30-21:00,O'Reilly Auto Parts,Q7071951
https://locations.oreillyauto.com/ca/longbeach/autopartes-3227.html,oreilly,Tu tienda O'Reilly Auto Parts en Long Beach,,Long Beach,CA,,US,+1 562-420-9941,https://locations.oreillyauto.com/ca/longbeach/autopartes-3227.html,Mo-Su 07:30-21:00,O'Reilly Auto Parts,Q7071951
//locations.oshkosh.com/ca/long-beach/oshkosh-long-beach-ca,oshkosh_us,Oshkosh B'gosh Long Beach,,Long Beach,CA,,US,+1 562-429-5952,https://locations.oshkosh.com/ca/long-beach/oshkosh-long-beach-ca,Mo-Sa 10:00-19:00; Su 11:00-18:00,OshKosh B'gosh,Q1417347
111233,pandaexpress,Spring & Woodruff - Vons,,Long Beach,CA,,US,+1 562-421-0283,https://www.pandaexpress.com/locations/ca/long-beach/5945-e-spring-st,Mo-Sa 10:00-21:30; Su 10:30-21:30,Panda Express,Q1358690
605,party_city,Long Beach Towne Center,,Long Beach,CA,,US,+1 562-350-0306,https://stores.partycity.com/us/ca/longbeach/party-store-pc605.html,,Party City,Q7140896
https://stores.petco.com/#27959480,petco,Unleashed by Petco Spring St,,Long Beach,CA,,US,+1 562-429-4105,https://stores.petco.com/ca/longbeach/pet-supplies-longbeach-ca-5113.html,Mo-Su 10:00-19:00,Petco,Q7171798
0000877630,phillips_66_conoco_76,CF UNITED LLC 2650675,,LONG BEACH,CA,,US,+1 562-421-1928,,24/7,U76,Q1658320
0000875699,phillips_66_conoco_76,HANNA 76,,LONG BEACH,CA,,US,+1 562-420-1721,,,U76,Q1658320
0000827238,phillips_66_conoco_76,CAR CARE WEST INC,,LONG BEACH,CA,,US,+1 562-497-0460,,,U76,Q1658320
ca_long-beach_4110-n-lakewood-blvd,pizza_hut_us,4110 N Lakewood Blvd,,Long Beach,CA,,US,+1 562-425-8887,https://locations.pizzahut.com/ca/long-beach/4110-n-lakewood-blvd,,Pizza Hut,Q191615
997032,rocket_us,Rocket,,Long Beach,CA,,US,+1 562-421-1928,,,Rocket,Q121513516
432,ross_dress_for_less_us,NW Long Beach DT,,Long Beach,CA,,US,+1 562-377-1152,,Mo-Th 09:30-22:00; Fr-Sa 09:00-22:30; Su 09:30-22:00,Ross Dress for Less,Q3442791
6613,sams_club,Long Beach Sam's Club,,Long Beach,CA,,US,+1 562-425-0662,https://www.samsclub.com/club/long-beach-ca-sams-club/6613,Mo 10:00-20:00; Sa 09:00-20:00; Su 10:00-18:00,Sam's Club,Q1972120
13906792471145581083,sleep_number_us,Sleep Number,,Long Beach,CA,,US,,https://www.sleepnumber.com/stores/ca/long-beach/3851-n-lakewood-blvd,Mo-Su 11:00-20:00,Sleep Number,Q7447640
160,stater_bros_us,Stater Bros. Markets Long Beach,"6501 E Spring St, Long Beach, CA 90808, USA",Long Beach,CA,,US,+1 562-429-5611,https://www.staterbros.com/stores/160,Mo-Su 06:00-23:00,Stater Bros.,Q7604016
https://restaurants.subway.com/#14911098,subway,Subway Lakewood Plaza Shopping Center,,Long Beach Los Angeles,CA,,US,+1 562-420-9303,https://restaurants.subway.com/united-states/ca/long-beach/6345-e-spring-st,Mo-Su 08:00-21:00,Subway,Q244457
https://locations.tacobell.com/#6144113,taco_bell,Taco Bell,,Long Beach,CA,,US,+1 562-493-5851,https://locations.tacobell.com/ca/long-beach/3398-norwalk-blvd.html,Mo-Th 07:00-02:00; Fr-Sa 07:00-03:00; Su 07:00-02:00,Taco Bell,Q752941
0017,tillys,Long Beach Towne Center,,Long Beach,CA,,US,+1 562-496-0012,,Mo-Sa 11:00-07:00; Su 12:00-06:00,Tillys,Q7802889
08701,tjx,Long Beach,4150 E Carson St,Long Beach,CA,,US,+1 562-377-3447,,Mo-Sa 09:30-21:30; Su 10:00-20:00,TJ Maxx,Q10860683
516E,tmobile_us,Lakewood & Carson,,Long Beach,CA,,US,+1 562-275-3117,https://www.t-mobile.com/store-locator/ca/long-beach/lakewood-carson,,T-Mobile,Q3511885
4SGH,tmobile_us,Long Beach Town Center,,Long Beach,CA,,US,+1 562-429-6422,https://www.t-mobile.com/store-locator/ca/long-beach/long-beach-town-center,,T-Mobile,Q3511885
1113,total_wine_and_more_us,Long Beach,,Long Beach,CA,,US,+1 562-420-2018,https://www.totalwine.com/store-info/1113,Mo-Su 09:00-22:00,Total Wine & More,Q7828084
00186,twenty_four_hour_fitness_us,Long Beach,,Long Beach,CA,,US,+1 562-420-1444,https://www.24hourfitness.com/Website/Club/00186,,24 Hour Fitness Super Sport,Q4631849
1382517,usps,SPRING CARRIER ANNEX,,LONG BEACH,CA,,US,+1 562-429-1285,,,United States Postal Service,Q668687
1385963,usps,VIKING,,LONG BEACH,CA,,US,+1 562-420-6531,,Mo-Fr 09:00-17:00,United States Postal Service,Q668687
9080800047,usps_collection_boxes,USPS COLLECTION BOX - BLUE BOX,7896 E BERNER ST,LONG BEACH,CA,,US,,,,United States Postal Service,Q668687
9080800046,usps_collection_boxes,USPS COLLECTION BOX - BLUE BOX,3501 THORNLAKE AVE,LONG BEACH,CA,,US,,,,United States Postal Service,Q668687
9080800030,usps_collection_boxes,USPS COLLECTION BOX - BLUE BOX,7040 E MEZZANINE WAY,LONG BEACH,CA,,US,,,,United States Postal Service,Q668687
9080800016,usps_collection_boxes,USPS COLLECTION BOX - BLUE BOX,6816 E ROSEBAY ST,LONG BEACH,CA,,US,,,,United States Postal Service,Q668687
9080800060,usps_collection_boxes,USPS COLLECTION BOX - BLUE BOX,3390 KALLIN AVE,LONG BEACH,CA,,US,,,,United States Postal Service,Q668687
9080800033,usps_collection_boxes,USPS COLLECTION BOX - BLUE BOX,3568 ROXANNE AVE,LONG BEACH,CA,,US,,,,United States Postal Service,Q668687
9080800065,usps_collection_boxes,USPS COLLECTION BOX - PO LOBBY,5405 E VILLAGE RD LOBBY,LONG BEACH,CA,,US,,,,United States Postal Service,Q668687
9080800071,usps_collection_boxes,USPS COLLECTION BOX - PO LOBBY,5405 E VILLAGE RD LOBBY,LONG BEACH,CA,,US,,,,United States Postal Service,Q668687
9080800003,usps_collection_boxes,USPS COLLECTION BOX - BLUE BOX,5405 E VILLAGE RD,LONG BEACH,CA,,US,,,,United States Postal Service,Q668687
9080800048,usps_collection_boxes,USPS COLLECTION BOX - BLUE BOX,4251 FACULTY AVE,LONG BEACH,CA,,US,,,,United States Postal Service,Q668687
9080800020,usps_collection_boxes,USPS COLLECTION BOX - BLUE BOX,3806 SAN ANSELINE AVE,LONG BEACH,CA,,US,,,,United States Postal Service,Q668687
9080800015,usps_collection_boxes,USPS COLLECTION BOX - BLUE BOX,3759 N STUDEBAKER RD,LONG BEACH,CA,,US,,,,United States Postal Service,Q668687
9080800066,usps_collection_boxes,USPS COLLECTION BOX - BLUE BOX,4330 E DONALD DOUGLAS DR,LONG BEACH,CA,,US,,,,United States Postal Service,Q668687
9080800024,usps_collection_boxes,USPS COLLECTION BOX - BLUE BOX,5243 E MONLACO RD,LONG BEACH,CA,,US,,,,United States Postal Service,Q668687
9080800025,usps_collection_boxes,USPS COLLECTION BOX - BLUE BOX,5102 E WARDLOW RD,LONG BEACH,CA,,US,,,,United States Postal Service,Q668687
9080800026,usps_collection_boxes,USPS COLLECTION BOX - BLUE BOX,3202 CLARK AVE,LONG BEACH,CA,,US,,,,United States Postal Service,Q668687
9080800032,usps_collection_boxes,USPS COLLECTION BOX - BLUE BOX,5640 E MONLACO RD,LONG BEACH,CA,,US,,,,United States Postal Service,Q668687
9080800052,usps_collection_boxes,USPS COLLECTION BOX - BLUE BOX,6003 E WARDLOW RD,LONG BEACH,CA,,US,,,,United States Postal Service,Q668687
9080800008,usps_collection_boxes,USPS COLLECTION BOX - BLUE BOX,3019 N BELLFLOWER BLVD,LONG BEACH,CA,,US,,,,United States Postal Service,Q668687
9080800039,usps_collection_boxes,USPS COLLECTION BOX - BLUE BOX,3150 LOMINA AVE,LONG BEACH,CA,,US,,,,United States Postal Service,Q668687
9080800014,usps_collection_boxes,USPS COLLECTION BOX - BLUE BOX,3160 PALO VERDE AVE,LONG BEACH,CA,,US,,,,United States Postal Service,Q668687
longbeach_oil-change-gn0062,valvoline_instant_oil_change,Valvoline,7685 Carson Blvd. Suite B ,Long Beach,CA,,US,+1 562-249-2322,https://store.vioc.com/ca/longbeach/oil-change-gn0062.html,,Valvoline Instant Oil Change,Q7912852
https://vcahospitals.com/los-altos,vca,VCA Los Altos Animal Hospital,,Long Beach,CA,,US,+1 562-421-3749,https://vcahospitals.com/los-altos,Mo-Th 07:00-19:00; Fr 07:00-18:00; Sa 07:00-16:00,VCA,Q7906620
A00000251002,verizon_us,Victra Long Beach Carson Blvd,,LONG BEACH,CA,,US,+1 562-354-4372,https://www.verizon.com/stores/details/california/long-beach/gowireless-long-beach-blvd-1629522/,Mo-Sa 10:00-19:00; Su 11:00-19:00,Verizon,Q919641
,visa,,,LONG BEACH,CA,,US,,,,,
,visa,,,LONG BEACH,CA,,US,,,,,
,visa,,,LONG BEACH,CA,,US,,,,,
,visa,,,LONG BEACH,CA,,US,,,,,
,visa,,,LONG BEACH,CA,,US,,,,,
,visa,,,WOODDRUFF AVE.,CA,,US,,,,,
,visa,,,WOODDRUFF AVE.,CA,,US,,,,,
,visa,,,LONG BEACH,CA,,US,,,,,
,visa,,,LONG BEACH,CA,,US,,,,,
,visa,,,LONG BEACH,CA,,US,,,,,
,visa,,,LONG BEACH,CA,,US,,,,,
,visa,,,LONG BEACH,CA,,US,,,,,
,visa,,,LONG BEACH,CA,,US,,,,,
,visa,,,LONG BEACH,CA,,US,,,,,
,visa,,,LONG BEACH,CA,,US,,,,,
,visa,,,LONG BEACH,CA,,US,,,,,
,visa,,,LONG BEACH,CA,,US,,,,,
,visa,,,LONG BEACH,CA,,US,,,,,
,visa,,,LONG BEACH,CA,,US,,,,,
,visa,,,LONG BEACH,CA,,US,,,,,
,visa,,,LONG BEACH,CA,,US,,,,,
,visa,,,LONG BEACH,CA,,US,,,,,
,visa,,,LONG BEACH,CA,,US,,,,,
,visa,,,LONG BEACH,CA,,US,,,,,
,visa,,,LONG BEACH,CA,,US,,,,,
,visa,,,LONG BEACH,CA,,US,,,,,
,visa,,,LONG BEACH,CA,,US,,,,,
,visa,,,LONG BEACH,CA,,US,,,,,
,visa,,,LONG BEACH,CA,,US,,,,,
,visa,,,LONG BEACH,CA,,US,,,,,
,visa,,,LONG BEACH,CA,,US,,,,,
7b38670b2f22dfca18617a2d06008606,western_union,WALMART #003477,,Long Beach,CA,,US,+1 562-425-5113,https://location.westernunion.com/us/ca/long-beach/7b38670b2f22dfca18617a2d06008606,Mo-Su 07:00-21:00,Western Union,Q861042
longbeachlakewood,whole_foods,Long Beach Lakewood,3881 Lakewood Blvd,Long Beach,CA,,US,+1 562-548-1840,https://www.wholefoodsmarket.com/stores/longbeachlakewood,Mo-Su 07:00-21:00,Whole Foods,Q1809448
