Ref,Spider,Name,Address,City,State,Zipcode,Country,Phone,Website,Hours,Brand,WikiData
https://local.pharmacy.albertsons.com/#5672538,albertsons,Albertsons Pharmacy,,Missoula,MT,,US,+1 406-549-6163,https://local.pharmacy.albertsons.com/mt/missoula/1003-e-broadway-st.html,Mo-Fr 08:00-20:00; Sa 09:00-18:00; Su 10:00-16:00,Albertsons,Q2831861
https://local.albertsons.com/#5603246,albertsons,Albertsons,,Missoula,MT,,US,+1 406-549-2351,https://local.albertsons.com/mt/missoula/1003-e-broadway-st.html,"Mo-Fr 06:00-23:00,08:00-20:00; Sa 06:00-23:00,09:00-18:00; Su 06:00-23:00,10:00-16:00",Albertsons,Q2831861
19491,asics_us,Runner's Edge,304 N Higgins Ave,Missoula,MT,,US,+1 406-728-9297,,Mo-Th 10:00-19:00; Fr 10:00-18:00; Sa 10:00-17:00; Su 11:00-16:00,asics,Q327247
13127,cenex,Jay's 1 Stop,,Missoula,MT,,US,+1 406-880-7677,,24/7,Cenex,Q62127191
12473,cenex,PS Mini Mart,,Missoula,MT,,US,+1 406-543-7322,,24/7,Cenex,Q62127191
82086,citi,ATM Target,,Missoula,MT,,US,,,,Citibank,Q857063
83968,citi,ATM Top Hat Lounge,,Missoula,MT,,US,,,,Citibank,Q857063
55944,citi,ATM FIRST INTERSTATE BANK 09,,Missoula,MT,,US,,,,Citibank,Q857063
,credit_union_us,Clearwater,,Missoula,MT,,US,+1 406-523-3300,,Mo-Th 09:00-04:30; Fr 09:00-05:00,,
vba_436c,department_veterans_affairs,Fort Harrison VA Regional Benefit Satellite Office at David J. Thatcher VA Clinic,,Missoula,MT,,US,+1 800-827-1000,,,Department Veterans Affairs,Q592576
https://www.edwardjones.com/us-en/financial-advisor/matthew-noreus,edwardjones,Matthew G Noreus,,Missoula,MT,,US,+1 406-542-4799,https://www.edwardjones.com/us-en/financial-advisor/matthew-noreus,Mo-Th 08:00-16:30; Fr 08:00-16:00,Edward Jones,Q5343830
516,empres_us,Missoula Health and Rehabilitation Center,,Missoula,MT,,US,+1 406-549-0988,https://www.empres.com/location/missoula-health-rehab-center/,,EmpRes,Q123370276
boa-merrill-lynch-missoula,indigo,BOA - Merrill Lynch - Missoula,,Missoula,MT,,US,+1 801-535-1311,,,Indigo,Q3559970
https://locations.jimmyjohns.com/mt/missoula/sandwiches-1526.html,jimmy_johns,Jimmy John's,,Missoula,MT,,US,+1 406-542-1100,https://locations.jimmyjohns.com/mt/missoula/sandwiches-1526.html,,Jimmy John's,Q1689380
80140,little_free_library,Clover/Belle Barn #80140 Missoula MT,,Missoula,MT,,US,,,,Little Free Library,Q6650101
89941,little_free_library,The Poverello Center's LFL #89941 Missoula MT,,Missoula,MT,,US,,,,Little Free Library,Q6650101
32670,little_free_library,Draught Works #32670 Missoula MT,,Missoula,MT,,US,,,,Little Free Library,Q6650101
15291,little_free_library,Debbie Lester #15291 Missoula MT,,Missoula,MT,,US,,,,Little Free Library,Q6650101
30351,little_free_library,Michele Schahczenski #30351 Missoula MT,,Missoula,MT,,US,,,,Little Free Library,Q6650101
56344,little_free_library,Eric Legvold #56344 Missoula MT,,Missoula,MT,,US,,,,Little Free Library,Q6650101
89927,little_free_library,Jefferson St Little Free Libary #89927 Missoula MT,,Missoula,MT,,US,,,,Little Free Library,Q6650101
31315,little_free_library,Heather Labbe #31315 Missoula MT,,Missoula,MT,,US,,,,Little Free Library,Q6650101
970,little_free_library,Lela Autio #970 Missoula MT,,Missoula,MT,,US,,,,Little Free Library,Q6650101
54875,little_free_library,Bear House #54875 Missoula MT,,Missoula,MT,,US,,,,Little Free Library,Q6650101
122856,little_free_library,West Rattlesnake  Creek Dog Trail #122856 Missoula MT,,Missoula,MT,,US,,,,Little Free Library,Q6650101
117618,little_free_library,Willoa #117618 Missoula MT,,Missoula,MT,,US,,,,Little Free Library,Q6650101
14886,little_free_library,Sarah Bates #14886 Missoula MT,,Missoula,MT,,US,,,,Little Free Library,Q6650101
41804,little_free_library,Kris Litz #41804 Missoula MT,,Missoula,MT,,US,,,,Little Free Library,Q6650101
26253,little_free_library,Rachel Robinson #26253 Missoula MT,,Missoula,MT,,US,,,,Little Free Library,Q6650101
60503,little_free_library,Maggie Cook-Shimanek #60503 Missoula MT,,Missoula,MT,,US,,,,Little Free Library,Q6650101
157935,little_free_library,Timberlane Tomes LFL #157935 Missoula MT,,Missoula,MT,,US,,,,Little Free Library,Q6650101
40531,little_free_library,Stevie & Laynie Hawkins #40531 Missoula MT,,Missoula,MT,,US,,,,Little Free Library,Q6650101
31711,little_free_library,Katy Pellett #31711 Missoula MT,,Missoula,MT,,US,,,,Little Free Library,Q6650101
15693,little_free_library,The Beehive #15693 East Missoula MT,,East Missoula,MT,,US,,,,Little Free Library,Q6650101
167824,little_free_library,Elizabeth Judd #167824 #167824 Missoula MT,,Missoula,MT,,US,,,,Little Free Library,Q6650101
162911,little_free_library,Dawn Donham #162911 #162911 Bonner MT,,Bonner,MT,,US,,,,Little Free Library,Q6650101
MSOAC,marriott,AC Hotel Missoula Downtown,,Missoula,MT,,US,+1 406-549-0119,https://www.marriott.com/MSOAC,,AC Hotels,Q5653536
MSORI,marriott,Residence Inn Missoula Downtown,,Missoula,MT,,US,+1 406-542-6252,https://www.marriott.com/MSORI,,Residence Inn by Marriott,Q7315394
https://locations.oreillyauto.com/mt/missoula/check-engine-light-testing-1563.html,oreilly,Your Missoula O'Reilly Auto Parts Store,,Missoula,MT,,US,+1 406-721-1004,https://locations.oreillyauto.com/mt/missoula/check-engine-light-testing-1563.html,Mo-Sa 07:30-21:00; Su 09:00-20:00,O'Reilly Auto Parts,Q7071951
https://locations.oreillyauto.com/mt/missoula/wiper-installation-1563.html,oreilly,Your Missoula O'Reilly Auto Parts Store,,Missoula,MT,,US,+1 406-721-1004,https://locations.oreillyauto.com/mt/missoula/wiper-installation-1563.html,Mo-Sa 07:30-21:00; Su 09:00-20:00,O'Reilly Auto Parts,Q7071951
https://locations.oreillyauto.com/mt/missoula/battery-testing-1563.html,oreilly,Your Missoula O'Reilly Auto Parts Store,,Missoula,MT,,US,+1 406-721-1004,https://locations.oreillyauto.com/mt/missoula/battery-testing-1563.html,Mo-Sa 07:30-21:00; Su 09:00-20:00,O'Reilly Auto Parts,Q7071951
https://locations.oreillyauto.com/mt/missoula/autopartes-1563.html,oreilly,Tu tienda O'Reilly Auto Parts en Missoula,,Missoula,MT,,US,+1 406-721-1004,https://locations.oreillyauto.com/mt/missoula/autopartes-1563.html,Mo-Sa 07:30-21:00; Su 09:00-20:00,O'Reilly Auto Parts,Q7071951
0000879708,phillips_66_conoco_76,YOKES #22,,MISSOULA,MT,,US,+1 406-251-3311,,,Conoco,Q109341187
0000879709,phillips_66_conoco_76,YOKES #21,,MISSOULA,MT,,US,+1 406-721-6009,,,Conoco,Q109341187
0000706611,phillips_66_conoco_76,OLES CNTRY STR #12,,MISSOULA,MT,,US,+1 406-728-7500,,,Conoco,Q109341187
mt_missoula_801-e-broadway-st,pizza_hut_us,801 E Broadway St,,Missoula,MT,,US,+1 406-721-0149,https://locations.pizzahut.com/mt/missoula/801-e-broadway-st,,Pizza Hut,Q191615
https://www.plannedparenthood.org/health-center/montana/missoula/59802/planned-parenthood-missoula-2440-90790,planned_parenthood,Planned Parenthood,,Missoula,MT,,US,,https://www.plannedparenthood.org/health-center/montana/missoula/59802/planned-parenthood-missoula-2440-90790,,Planned Parenthood,Q2553262
https://www.providence.org/locations/mt/providence-neurology-specialists,providence_us,Providence Neurology Specialists,,Missoula,MT,,US,+1 406-327-3350,https://www.providence.org/locations/mt/providence-neurology-specialists,Mo-Fr 08:00-17:00,Providence,Q7252430
https://www.providence.org/locations/mt/st-patrick-hospital/diagnostic-imaging,providence_us,Diagnostic Imaging,,Missoula,MT,,US,+1 406-329-5757,https://www.providence.org/locations/mt/st-patrick-hospital/diagnostic-imaging,Mo-Fr 06:30-18:00,Providence,Q7252430
https://www.providence.org/locations/mt/st-patrick-hospital/missoula-infusion-center,providence_us,Missoula Infusion Center,,Missoula,MT,,US,+1 406-327-1673,https://www.providence.org/locations/mt/st-patrick-hospital/missoula-infusion-center,Mo-Fr 08:00-17:00; Sa-Su 08:00-12:00,Providence,Q7252430
https://www.providence.org/locations/mt/st-patrick-hospital/the-learning-center,providence_us,The Learning Center,,Missoula,MT,,US,+1 406-329-5710,https://www.providence.org/locations/mt/st-patrick-hospital/the-learning-center,Mo-Fr 08:00-16:30,Providence,Q7252430
https://www.providence.org/locations/mt/st-patrick-hospital/neurobehavioral-medicine,providence_us,Neurobehavioral Medicine Inpatient Unit,,Missoula,MT,,US,+1 406-327-3200,https://www.providence.org/locations/mt/st-patrick-hospital/neurobehavioral-medicine,,Providence,Q7252430
https://www.providence.org/locations/mt/st-patrick-hospital/adolescent-partial-hospitalization-program,providence_us,Adolescent Partial Hospitalization,,Missoula,MT,,US,+1 406-327-3182,https://www.providence.org/locations/mt/st-patrick-hospital/adolescent-partial-hospitalization-program,,Providence,Q7252430
https://www.providence.org/locations/mt/st-patrick-hospital/rehabilitation,providence_us,Outpatient Rehabilitation,,Missoula,MT,,US,+1 406-329-5895,https://www.providence.org/locations/mt/st-patrick-hospital/rehabilitation,Mo-Fr 07:00-18:00,Providence,Q7252430
https://www.providence.org/locations/mt/st-patrick-hospital/montana-cancer-center,providence_us,Montana Cancer Center,,Missoula,MT,,US,+1 406-728-2539,https://www.providence.org/locations/mt/st-patrick-hospital/montana-cancer-center,"Mo-Fr 08:00-16:30,08:00-17:00",Providence,Q7252430
https://www.providence.org/locations/mt/st-patrick-hospital/sleep-medicine-center,providence_us,Sleep Center,,Missoula,MT,,US,+1 406-327-3100,https://www.providence.org/locations/mt/st-patrick-hospital/sleep-medicine-center,Mo-Fr 08:00-16:30,Providence,Q7252430
https://www.providence.org/locations/mt/providence-psychiatry,providence_us,Providence Psychiatry,,Missoula,MT,,US,+1 406-327-3362,https://www.providence.org/locations/mt/providence-psychiatry,Mo-Fr 08:00-17:00,Providence,Q7252430
https://www.providence.org/locations/mt/endocrinology-diabetes-and-nutrition,providence_us,Endocrinology Diabetes and Nutrition Center,,Missoula,MT,,US,+1 406-329-5781,https://www.providence.org/locations/mt/endocrinology-diabetes-and-nutrition,Mo-Th 08:00-17:00; Fr 08:00-16:00,Providence,Q7252430
https://www.providence.org/locations/mt/wound-care-center,providence_us,Wound Care,,Missoula,MT,,US,+1 406-329-5736,https://www.providence.org/locations/mt/wound-care-center,Mo-Fr 08:00-17:00,Providence,Q7252430
https://www.providence.org/locations/mt/missoula-pediatrics,providence_us,PMG Missoula Pediatrics,,Missoula,MT,,US,+1 406-327-7337,https://www.providence.org/locations/mt/missoula-pediatrics,Mo-Fr 08:00-17:00,Providence,Q7252430
https://www.providence.org/locations/mt/infectious-disease,providence_us,Infectious Disease,,Missoula,MT,,US,+1 406-327-1732,https://www.providence.org/locations/mt/infectious-disease,Mo-Fr 08:00-16:30,Providence,Q7252430
https://www.providence.org/locations/mt/st-patrick-hospital/laboratory,providence_us,Laboratory,,Missoula,MT,,US,+1 406-329-5838,https://www.providence.org/locations/mt/st-patrick-hospital/laboratory,,Providence,Q7252430
https://www.providence.org/locations/mt/st-patrick-hospital/first-step-resource-center,providence_us,First Step Resource Center,,Missoula,MT,,US,+1 406-329-5776,https://www.providence.org/locations/mt/st-patrick-hospital/first-step-resource-center,,Providence,Q7252430
https://www.providence.org/locations/mt/st-patrick-hospital/family-maternity-center,providence_us,Family Maternity Center,,Missoula,MT,,US,+1 406-329-5300,https://www.providence.org/locations/mt/st-patrick-hospital/family-maternity-center,,Providence,Q7252430
https://www.providence.org/locations/mt/st-patrick-hospital/emergency-department,providence_us,Emergency Department,,Missoula,MT,,US,+1 406-543-7271,https://www.providence.org/locations/mt/st-patrick-hospital/emergency-department,,Providence,Q7252430
https://www.providence.org/locations/mt/st-patrick-hospital/digestive-health,providence_us,Digestive Health,,Missoula,MT,,US,+1 406-543-7271,https://www.providence.org/locations/mt/st-patrick-hospital/digestive-health,Mo-Fr 08:00-17:00,Providence,Q7252430
https://www.providence.org/locations/mt/heart-institute/device-clinic,providence_us,Device Clinic,,Missoula,MT,,US,+1 406-329-5615,https://www.providence.org/locations/mt/heart-institute/device-clinic,,Providence,Q7252430
https://www.providence.org/credena-health/locations/st-patrick,providence_us,Credena Health Pharmacy St Patrick,,Missoula,MT,,US,+1 406-327-1650,https://www.providence.org/credena-health/locations/st-patrick,Mo-Fr 07:00-17:30,Providence,Q7252430
https://www.providence.org/locations/mt/st-patrick-hospital/broadway-imaging-center,providence_us,Broadway Imaging Center,,Missoula,MT,,US,+1 406-329-5757,https://www.providence.org/locations/mt/st-patrick-hospital/broadway-imaging-center,,Providence,Q7252430
https://www.providence.org/locations/mt/st-patrick-hospital/breast-center,providence_us,Breast Center,,Missoula,MT,,US,+1 406-329-5757,https://www.providence.org/locations/mt/st-patrick-hospital/breast-center,,Providence,Q7252430
https://www.providence.org/locations/mt/st-patrick-hospital,providence_us,St Patrick Hospital,,Missoula,MT,,US,+1 406-543-7271,https://www.providence.org/locations/mt/st-patrick-hospital,,Providence,Q7252430
https://www.providence.org/locations/mt/montana-neurosurgical-specialists,providence_us,Montana Neurosurgical Specialists,,Missoula,MT,,US,+1 406-728-6520,https://www.providence.org/locations/mt/montana-neurosurgical-specialists,Mo-Fr 08:00-17:00,Providence,Q7252430
https://www.providence.org/locations/mt/long-term-mobility-care,providence_us,Long Term Mobility Care,,Missoula,MT,,US,+1 406-329-2954,https://www.providence.org/locations/mt/long-term-mobility-care,Mo-Fr 08:00-17:00,Providence,Q7252430
https://www.providence.org/locations/mt/heart-institute,providence_us,Providence Heart Institute,,Missoula,MT,,US,+1 406-329-5615,https://www.providence.org/locations/mt/heart-institute,Mo-Fr 08:00-17:00,Providence,Q7252430
https://www.providence.org/locations/mt/broadway-internal-medicine,providence_us,Broadway Internal Medicine,,Missoula,MT,,US,+1 406-327-1900,https://www.providence.org/locations/mt/broadway-internal-medicine,Mo-Fr 08:00-17:00,Providence,Q7252430
https://www.providence.org/locations/mt/st-patrick-hospital/orthopedics,providence_us,Orthopedics,,Missoula,MT,,US,+1 406-543-7271,https://www.providence.org/locations/mt/st-patrick-hospital/orthopedics,,Providence,Q7252430
https://www.providence.org/locations/mt/st-patrick-hospital/nicu,providence_us,NICU,,Missoula,MT,,US,+1 406-329-5300,https://www.providence.org/locations/mt/st-patrick-hospital/nicu,,Providence,Q7252430
https://www.providence.org/locations/mt/montana-spine-pain-center,providence_us,Montana Spine Pain Center,,Missoula,MT,,US,+1 406-519-0771,https://www.providence.org/locations/mt/montana-spine-pain-center,Mo-Fr 08:00-17:00,Providence,Q7252430
https://www.providence.org/locations/mt/st-patrick-hospital/montana-neuroscience-institute,providence_us,Montana Neuroscience Institute,,Missoula,MT,,US,+1 406-543-7271,https://www.providence.org/locations/mt/st-patrick-hospital/montana-neuroscience-institute,Mo-Fr 08:00-17:00,Providence,Q7252430
https://www.providence.org/locations/mt/missoula-family-medical,providence_us,Missoula Family Medical,,Missoula,MT,,US,+1 406-728-3111,https://www.providence.org/locations/mt/missoula-family-medical,Mo-Fr 07:00-17:00,Providence,Q7252430
https://www.providence.org/locations/mt/st-patrick-hospital/palliative-care,providence_us,Palliative Care,,Missoula,MT,,US,+1 406-327-1950,https://www.providence.org/locations/mt/st-patrick-hospital/palliative-care,Mo-Fr 08:00-16:30,Providence,Q7252430
https://www.providence.org/locations/mt/plastic-surgery-services,providence_us,Plastic Surgery Services,,Missoula,MT,,US,+1 406-327-3199,https://www.providence.org/locations/mt/plastic-surgery-services,Mo-Fr 08:30-16:30,Providence,Q7252430
https://www.providence.org/locations/mt/general-surgery-missoula,providence_us,General and Specialty Surgery - Missoula,,Missoula,MT,,US,+1 406-329-5866,https://www.providence.org/locations/mt/general-surgery-missoula,Mo-Fr 08:00-16:00,Providence,Q7252430
https://www.providence.org/locations/mt/st-patrick-hospital/bariatric-services,providence_us,Bariatric Services,,Missoula,MT,,US,+1 406-329-5866,https://www.providence.org/locations/mt/st-patrick-hospital/bariatric-services,Mo-Fr 08:00-16:00,Providence,Q7252430
https://www.providence.org/locations/mt/st-patrick-hospital/trauma-center,providence_us,Trauma Center,,Missoula,MT,,US,+1 406-543-7271,https://www.providence.org/locations/mt/st-patrick-hospital/trauma-center,,Providence,Q7252430
https://www.providence.org/locations/mt/st-patrick-hospital/surgery,providence_us,Surgery,,Missoula,MT,,US,+1 406-543-7271,https://www.providence.org/locations/mt/st-patrick-hospital/surgery,,Providence,Q7252430
https://www.providence.org/locations/mt/st-patrick-hospital/stroke-center,providence_us,Stroke Center,,Missoula,MT,,US,+1 406-543-7271,https://www.providence.org/locations/mt/st-patrick-hospital/stroke-center,,Providence,Q7252430
https://www.providence.org/locations/mt/st-patrick-hospital/spine-care,providence_us,Spine Care,,Missoula,MT,,US,+1 833-512-2551,https://www.providence.org/locations/mt/st-patrick-hospital/spine-care,Mo-Fr 08:00-17:00,Providence,Q7252430
https://stations.sinclairoil.com/mt/missoula/540-e-broadway-st,sinclair_us,Sinclair Gas Station,,Missoula,MT,,US,+1 406-721-5968,https://stations.sinclairoil.com/mt/missoula/540-e-broadway-st,Mo-We 06:00-23:00; Th-Sa 06:00-02:00; Su 06:00-23:00,Sinclair,Q1290900
https://stations.sinclairoil.com/mt/missoula/505-highton-st,sinclair_us,Sinclair Gas Station,,Missoula,MT,,US,+1 406-549-3286,https://stations.sinclairoil.com/mt/missoula/505-highton-st,Mo-Su 07:00-21:00,Sinclair,Q1290900
https://restaurants.subway.com/#14914790,subway,Subway,,Missoula Missoula,MT,,US,+1 406-721-5620,https://restaurants.subway.com/united-states/mt/missoula/624-e-broadway,Mo-Su 09:00-21:00,Subway,Q244457
https://locations.tacobell.com/#6142613,taco_bell,Taco Bell,,Missoula,MT,,US,+1 406-728-6667,https://locations.tacobell.com/mt/missoula/651-e-broadway.html,Mo 08:00-01:30; Tu 08:00-01:00; We-Su 08:00-01:30,Taco Bell,Q752941
100377,two_men_and_truck,Missoula,1620 Rodgers St,Missoula,MT,,US,+1 406-251-9818,https://twomenandatruck.com/movers/mt/missoula,,Two Men and a Truck,Q7859087
1366675,usps,HELLGATE,,MISSOULA,MT,,US,+1 406-728-9805,,Mo-Fr 09:00-17:30,United States Postal Service,Q668687
5980200026,usps_collection_boxes,USPS COLLECTION BOX - BLUE BOX,1001 E BROADWAY ST STOP 2,MISSOULA,MT,,US,,,,United States Postal Service,Q668687
5980200054,usps_collection_boxes,USPS COLLECTION BOX - BLUE BOX,101 E FRONT ST,MISSOULA,MT,,US,,,,United States Postal Service,Q668687
5980200050,usps_collection_boxes,USPS COLLECTION BOX - BLUE BOX,111 N HIGGINS AVE,MISSOULA,MT,,US,,,,United States Postal Service,Q668687
5980200056,usps_collection_boxes,USPS COLLECTION BOX - BLUE BOX,147 W MAIN ST,MISSOULA,MT,,US,,,,United States Postal Service,Q668687
5980200028,usps_collection_boxes,USPS COLLECTION BOX - BLUE BOX,201 N HIGGINS AVE,MISSOULA,MT,,US,,,,United States Postal Service,Q668687
5980200058,usps_collection_boxes,USPS COLLECTION BOX - BLUE BOX,301 W FRONT ST,MISSOULA,MT,,US,,,,United States Postal Service,Q668687
5980200059,usps_collection_boxes,USPS COLLECTION BOX - BLUE BOX,101 E BROADWAY ST,MISSOULA,MT,,US,,,,United States Postal Service,Q668687
5980200012,usps_collection_boxes,USPS COLLECTION BOX - BLUE BOX,200 E BROADWAY ST,MISSOULA,MT,,US,,,,United States Postal Service,Q668687
5980200023,usps_collection_boxes,USPS COLLECTION BOX - BLUE BOX,200 E BROADWAY ST,MISSOULA,MT,,US,,,,United States Postal Service,Q668687
5980200027,usps_collection_boxes,USPS COLLECTION BOX - BLUE BOX,200 E BROADWAY ST,MISSOULA,MT,,US,,,,United States Postal Service,Q668687
5980200048,usps_collection_boxes,USPS COLLECTION BOX - PO LOBBY,200 E BROADWAY ST,MISSOULA,MT,,US,,,,United States Postal Service,Q668687
5980200000,usps_collection_boxes,USPS COLLECTION BOX - BLUE BOX,340 W MAIN ST,MISSOULA,MT,,US,,,,United States Postal Service,Q668687
5980200055,usps_collection_boxes,USPS COLLECTION BOX - BLUE BOX,225 W BROADWAY ST,MISSOULA,MT,,US,,,,United States Postal Service,Q668687
5980200032,usps_collection_boxes,USPS COLLECTION BOX - BLUE BOX,199 W PINE ST STE 2,MISSOULA,MT,,US,,,,United States Postal Service,Q668687
5980200014,usps_collection_boxes,USPS COLLECTION BOX - BLUE BOX,500 N HIGGINS AVE,MISSOULA,MT,,US,,,,United States Postal Service,Q668687
5980200057,usps_collection_boxes,USPS COLLECTION BOX - BLUE BOX,1035 VAN BUREN ST,MISSOULA,MT,,US,,,,United States Postal Service,Q668687
5980200002,usps_collection_boxes,USPS COLLECTION BOX - BLUE BOX,800 W BROADWAY ST,MISSOULA,MT,,US,,,,United States Postal Service,Q668687
5980200029,usps_collection_boxes,USPS COLLECTION BOX - BLUE BOX,500 W BROADWAY ST,MISSOULA,MT,,US,,,,United States Postal Service,Q668687
5980200053,usps_collection_boxes,USPS COLLECTION BOX - BLUE BOX,902 N ORANGE ST,MISSOULA,MT,,US,,,,United States Postal Service,Q668687
missoula_oil-change-gt0013,valvoline_instant_oil_change,Valvoline,1301 West Broadway ,Missoula,MT,,US,+1 406-728-1448,https://store.vioc.com/mt/missoula/oil-change-gt0013.html,,Valvoline Instant Oil Change,Q7912852
A00000020827,verizon_us,Cellular Plus Missoula East,,MISSOULA,MT,,US,+1 406-829-1410,https://www.verizon.com/stores/details/montana/missoula/cellular-plus-missoula-1860722/,Mo-Fr 10:00-19:00; Sa 10:00-17:00; Su 11:00-16:00,Verizon,Q919641
,visa,,,BONNER,MT,,US,,,,,
,visa,,,MISSOULA,MT,,US,,,,,
,visa,,,MISSOULA,MT,,US,,,,,
,visa,,,MISSOULA,MT,,US,,,,,
,visa,,,MISSOULA,MT,,US,,,,,
,visa,,,MISSOULA,MT,,US,,,,,
,visa,,,MISSOULA,MT,,US,,,,,
,visa,,,MISSOULA,MT,,US,,,,,
,visa,,,MISSOULA,MT,,US,,,,,
,visa,,,MISSOULA,MT,,US,,,,,
,visa,,,MISSOULA,MT,,US,,,,,
,visa,,,MISSOULA,MT,,US,,,,,
,visa,,,MISSOULA,MT,,US,,,,,
,visa,,,MISSOULA,MT,,US,,,,,
,visa,,,MISSOULA,MT,,US,,,,,
,visa,,,MISSOULA,MT,,US,,,,,
,visa,,,MISSOULA,MT,,US,,,,,
,visa,,,MISSOULA,MT,,US,,,,,
,visa,,,MISSOULA,MT,,US,,,,,
,visa,,,MISSOULA,MT,,US,,,,,
,visa,,,MISSOULA,MT,,US,,,,,
,visa,,,MISSOULA,MT,,US,,,,,
,visa,,,MISSOULA,MT,,US,,,,,
,visa,,,MISSOULA,MT,,US,,,,,
,visa,,,MISSOULA,MT,,US,,,,,
,visa,,,MISSOULA,MT,,US,,,,,
,visa,,,MISSOULA,MT,,US,,,,,
,visa,,,MISSOULA,MT,,US,,,,,
,visa,,,MISSOULA,MT,,US,,,,,
,visa,,,MISSOULA,MT,,US,,,,,
,visa,,,MISSOULA,MT,,US,,,,,
,visa,,,MISSOULA,MT,,US,,,,,
,visa,,,MISSOULA,MT,,US,,,,,
,visa,,,MISSOULA,MT,,US,,,,,
,visa,,,MISSOULA,MT,,US,,,,,
,visa,,,MISSOULA,MT,,US,,,,,
,visa,,,MISSOULA,MT,,US,,,,,
,visa,,,MISSOULA,MT,,US,,,,,
,visa,,,MISSOULA,MT,,US,,,,,
,visa,,,MISSOULA,MT,,US,,,,,
,visa,,,MISSOULA,MT,,US,,,,,
,visa,,,MISSOULA,MT,,US,,,,,
,visa,,,MISSOULA,MT,,US,,,,,
,visa,,,MISSOULA,MT,,US,,,,,
,visa,,,MISSOULA,MT,,US,,,,,
,visa,,,MISSOULA,MT,,US,,,,,
,visa,,,MISSOULA,MT,,US,,,,,
,visa,,,MISSOULA,MT,,US,,,,,
,visa,,,MISSOULA,MT,,US,,,,,
,visa,,,MISSOULA,MT,,US,,,,,
,visa,,,MISSOULA,MT,,US,,,,,
,visa,,,MISSOULA,MT,,US,,,,,
,visa,,,MISSOULA,MT,,US,,,,,
,visa,,,MISSOULA,MT,,US,,,,,
,visa,,,MISSOULA,MT,,US,,,,,
,visa,,,MISSOULA,MT,,US,,,,,
,visa,,,MISSOULA,MT,,US,,,,,
,visa,,,MISSOULA,MT,,US,,,,,
,visa,,,MISSOULA,MT,,US,,,,,
,visa,,,MISSOULA,MT,,US,,,,,
,visa,,,MISSOULA,MT,,US,,,,,
,visa,,,MISSOULA,MT,,US,,,,,
,visa,,,MISSOULA,MT,,US,,,,,
,visa,,,MISSOULA,MT,,US,,,,,
,visa,,,MISSOULA,MT,,US,,,,,
,visa,,,MISSOULA,MT,,US,,,,,
,visa,,,MISSOULA,MT,,US,,,,,
,visa,,,MISSOULA,MT,,US,,,,,
,visa,,,MISSOULA,MT,,US,,,,,
,visa,,,MISSOULA,MT,,US,,,,,
,visa,,,MISSOULA,MT,,US,,,,,
,visa,,,MISSOULA,MT,,US,,,,,
,visa,,,MISSOULA,MT,,US,,,,,
,visa,,,MISSOULA,MT,,US,,,,,
,visa,,,MISSOULA,MT,,US,,,,,
,visa,,,MISSOULA,MT,,US,,,,,
,visa,,,MISSOULA,MT,,US,,,,,
,visa,,,MISSOULA,MT,,US,,,,,
,visa,,,MISSOULA,MT,,US,,,,,
,visa,,,MISSOULA,MT,,US,,,,,
,visa,,,MISSOULA,MT,,US,,,,,
,visa,,,MISSOULA,MT,,US,,,,,
,visa,,,MISSOULA,MT,,US,,,,,
,visa,,,MISSOULA,MT,,US,,,,,
,visa,,,MISSOULA,MT,,US,,,,,
,visa,,,MISSOULA,MT,,US,,,,,
,visa,,,MISSOULA,MT,,US,,,,,
,visa,,,MISSOULA,MT,,US,,,,,
,visa,,,MISSOULA,MT,,US,,,,,
,visa,,,MISSOULA,MT,,US,,,,,
,visa,,,MISSOULA,MT,,US,,,,,
1003__E__BROADWAY__ST_MISSOULA_MT_59802,wellsfargo,,1003 E BROADWAY ST,MISSOULA,MT,,US,+1 800-869-3557,https://www.wellsfargo.com/locator/bank/1003__E__BROADWAY__ST_MISSOULA_MT_59802/,,Wells Fargo,Q744149
