Ref,Spider,Name,Address,City,State,Zipcode,Country,Phone,Website,Hours,Brand,WikiData
71981611,moneygram,OROMIA INL BANK SC - AWARO,,AMBO TOWN,,,ET,112609710,,Mo-Su 08:00-19:00,MoneyGram,Q1944412
71981653,moneygram,OROMIA INL BANK SC - BEKELCHA,,ADDIS ABABA,,,ET,116676422,,Mo-Su 08:00-19:00,MoneyGram,Q1944412
71981705,moneygram,OROMIA INL BANK SC - ROBALE,,ADDIS ABABA,,,ET,+251 11 667 1849,,Mo-Su 08:00-19:00,MoneyGram,Q1944412
71987165,moneygram,ENAT BANK S.C. - DEBRE BIRHAN - DEBREBRH,,DEBRE BIRHAN,,,ET,116375553,,Mo-Sa 08:00-12:00; Su 00:00-24:00,MoneyGram,Q1944412
72015667,moneygram,BANK OF ABYSSINIA - ADDIS ABABA - BESHAL,,ADDIS ABABA,,,ET,+251 11 639 1753,,Mo-Sa 08:00-19:00; Su 00:00-24:00,MoneyGram,Q1944412
72015492,moneygram,BANK OF ABYSSINIA - ADDIS ABABA - BULBUL,,ADDIS ABABA,,,ET,114714706,,Mo-Sa 08:00-19:00; Su 00:00-24:00,MoneyGram,Q1944412
72015405,moneygram,BANK OF ABYSSINIA - ADDIS ABABA - CINIEM,,ADDIS ABABA,,,ET,112733857,,Mo-Sa 08:00-19:00; Su 00:00-24:00,MoneyGram,Q1944412
72015463,moneygram,BANK OF ABYSSINIA - ADDIS ABABA - GELAN,,ADDIS ABABA,,,ET,114551155,,Mo-Sa 08:00-19:00; Su 00:00-24:00,MoneyGram,Q1944412
72015395,moneygram,BANK OF ABYSSINIA - ADDIS ABABA - KARA B,,ADDIS ABABA,,,ET,116680117,,Mo-Sa 08:00-19:00; Su 00:00-24:00,MoneyGram,Q1944412
72015502,moneygram,BANK OF ABYSSINIA - ADDIS ABABA - KIDIST,,ADDIS ABABA,,,ET,+251 11 126 7257,,Mo-Sa 08:00-19:00; Su 00:00-24:00,MoneyGram,Q1944412
72015450,moneygram,BANK OF ABYSSINIA - ADDIS ABABA - KIDUS,,ADDIS ABABA,,,ET,112733788,,Mo-Sa 08:00-19:00; Su 00:00-24:00,MoneyGram,Q1944412
72015489,moneygram,BANK OF ABYSSINIA - ADDIS ABABA - KOLFE,,ADDIS ABABA,,,ET,112739464,,Mo-Sa 08:00-19:00; Su 00:00-24:00,MoneyGram,Q1944412
72015447,moneygram,BANK OF ABYSSINIA - ADDIS ABABA - MERI L,,ADDIS ABABA,,,ET,116680237,,Mo-Sa 08:00-19:00; Su 00:00-24:00,MoneyGram,Q1944412
72015418,moneygram,BANK OF ABYSSINIA - ADDIS ABABA - SHOLLA,,ADDIS ABABA,,,ET,116586713,,Mo-Sa 08:00-19:00; Su 00:00-24:00,MoneyGram,Q1944412
72015696,moneygram,BANK OF ABYSSINIA - ADDIS ABABA - WEJI M,,ADDIS ABABA,,,ET,116681203,,Mo-Sa 08:00-19:00; Su 00:00-24:00,MoneyGram,Q1944412
72015544,moneygram,BANK OF ABYSSINIA - ADDIS ABABA - WELDEM,,ADDIS ABABA,,,ET,116662462,,Mo-Sa 08:00-19:00; Su 00:00-24:00,MoneyGram,Q1944412
72015654,moneygram,BANK OF ABYSSINIA - AT'AYE - ATAYE BRANC,,AT'AYE,,,ET,+251 33 661 0822,,Mo-Sa 08:00-19:00; Su 00:00-24:00,MoneyGram,Q1944412
72015609,moneygram,BANK OF ABYSSINIA - WOLISO - WOLISO BRAN,,WOLISO,,,ET,113664917,,Mo-Sa 08:00-19:00; Su 00:00-24:00,MoneyGram,Q1944412
72015340,moneygram,ENAT BANK S.C. - ADDIS ABABA - EMAHOY WE,,ADDIS ABABA,,,ET,115588348,,Mo-Sa 08:00-12:00; Su 00:00-24:00,MoneyGram,Q1944412
72020966,moneygram,OROMIA INL BANK SC - ABICHU,,ADDIS ABABA,,,ET,111542974,,Mo-Su 08:00-19:00,MoneyGram,Q1944412
72020979,moneygram,OROMIA INL BANK SC - EHIL BERENDA,,ADDIS ABABA,,,ET,112735205,,Mo-Su 08:00-19:00,MoneyGram,Q1944412
72020940,moneygram,OROMIA INL BANK SC - SERITY,,ADDIS ABABA,,,ET,115585307,,Mo-Su 08:00-19:00,MoneyGram,Q1944412
72020953,moneygram,OROMIA INL BANK SC - SHEBU EJERSA,,ADDIS ABABA,,,ET,+251 11 615 3478,,Mo-Su 08:00-19:00,MoneyGram,Q1944412
72020908,moneygram,OROMIA INL BANK SC - WIRTU,,ADDIS ABABA,,,ET,114701815,,Mo-Su 08:00-19:00,MoneyGram,Q1944412
72020924,moneygram,OROMIA INL BANK SC - YESHI DEBELE,,ADDIS ABABA,,,ET,113839321,,Mo-Su 08:00-19:00,MoneyGram,Q1944412
72102855,moneygram,ABAY BANK SC - #101 - ADDIS ABABA - IBD-,,ADDIS ABABA,,,ET,+251 11 515 8961,,Mo-Sa 08:00-21:00; Su 00:00-24:00,MoneyGram,Q1944412
72102826,moneygram,ABAY BANK SC - #167 - GELAN - BOLE BULBU,,GELAN,,,ET,116320694,,Mo-Sa 08:00-21:00; Su 00:00-24:00,MoneyGram,Q1944412
72102839,moneygram,ABAY BANK SC - #168 - ADDIS ABABA - ARAT,,ADDIS ABABA,,,ET,115571248,,Mo-Sa 08:00-21:00; Su 00:00-24:00,MoneyGram,Q1944412
72102868,moneygram,ABAY BANK SC - #168 - ADDIS ABABA - AYAT,,ADDIS ABABA,,,ET,116724518,,Mo-Sa 08:00-21:00; Su 00:00-24:00,MoneyGram,Q1944412
72102842,moneygram,ABAY BANK SC - #169 - ADDIS ABABA - ADEY,,ADDIS ABABA,,,ET,115571248,,Mo-Sa 08:00-21:00; Su 00:00-24:00,MoneyGram,Q1944412
72148644,moneygram,BANK OF ABYSSINIA - ADAMA - ABAGEDA BRAN,,ADAMA,,,ET,115319003,,Mo-Sa 08:00-19:00; Su 00:00-24:00,MoneyGram,Q1944412
72148466,moneygram,BANK OF ABYSSINIA - ADDIS ABABA - AKLILU,,ADDIS ABABA,,,ET,115570458,,Mo-Sa 08:00-19:00; Su 00:00-24:00,MoneyGram,Q1944412
72148628,moneygram,BANK OF ABYSSINIA - ADDIS ABABA - AMBASS,,ADDIS ABABA,,,ET,116663723,,Mo-Sa 08:00-19:00; Su 00:00-24:00,MoneyGram,Q1944412
72148398,moneygram,BANK OF ABYSSINIA - ADDIS ABABA - ARABSA,,ADDIS ABABA,,,ET,118547898,,Mo-Sa 08:00-19:00; Su 00:00-24:00,MoneyGram,Q1944412
72148385,moneygram,BANK OF ABYSSINIA - ADDIS ABABA - GIRAR,,ADDIS ABABA,,,ET,113693825,,Mo-Sa 08:00-19:00; Su 00:00-24:00,MoneyGram,Q1944412
72148521,moneygram,BANK OF ABYSSINIA - ADDIS ABABA - KIDIST,,ADDIS ABABA,,,ET,+251 58 447 1217,,Mo-Sa 08:00-19:00; Su 00:00-24:00,MoneyGram,Q1944412
72148631,moneygram,BANK OF ABYSSINIA - ADDIS ABABA - METAHA,,ADDIS ABABA,,,ET,115319003,,Mo-Sa 08:00-19:00; Su 00:00-24:00,MoneyGram,Q1944412
72148411,moneygram,BANK OF ABYSSINIA - ADDIS ABABA - NEGELE,,ADDIS ABABA,,,ET,116586713,,Mo-Sa 08:00-19:00; Su 00:00-24:00,MoneyGram,Q1944412
72148550,moneygram,BANK OF ABYSSINIA - ADDIS ABABA - OLYMPI,,ADDIS ABABA,,,ET,+251 11 552 9576,,Mo-Sa 08:00-19:00; Su 00:00-24:00,MoneyGram,Q1944412
72148563,moneygram,BANK OF ABYSSINIA - ADDIS ABABA - TEWODR,,ADDIS ABABA,,,ET,111719110,,Mo-Sa 08:00-19:00; Su 00:00-24:00,MoneyGram,Q1944412
72148602,moneygram,BANK OF ABYSSINIA - ADDIS ABABA - TULUDI,,ADDIS ABABA,,,ET,115570458,,Mo-Sa 08:00-19:00; Su 00:00-24:00,MoneyGram,Q1944412
72148592,moneygram,BANK OF ABYSSINIA - ADDIS ABABA - WAMI B,,ADDIS ABABA,,,ET,111549526,,Mo-Sa 08:00-19:00; Su 00:00-24:00,MoneyGram,Q1944412
72148453,moneygram,BANK OF ABYSSINIA - DEBRE BIRHAN - SHEWA,,DEBRE BIRHAN,,,ET,116376587,,Mo-Sa 08:00-19:00; Su 00:00-24:00,MoneyGram,Q1944412
72148479,moneygram,BANK OF ABYSSINIA - MOLALE - MOLALE BRAN,,MOLALE,,,ET,+251 33 333 1028,,Mo-Sa 08:00-19:00; Su 00:00-24:00,MoneyGram,Q1944412
72148589,moneygram,BANK OF ABYSSINIA - SENDAFA - SENDAFA BR,,SENDAFA,,,ET,116387373,,Mo-Sa 08:00-19:00; Su 00:00-24:00,MoneyGram,Q1944412
72148615,moneygram,BANK OF ABYSSINIA - WESERBI - WESRBI BRA,,WESERBI,,,ET,118966889,,Mo-Sa 08:00-19:00; Su 00:00-24:00,MoneyGram,Q1944412
72191141,moneygram,ABAY BANK SC - #297 - DEBRE BERHAN - ATS,,DEBRE BERHAN,,,ET,+251 92 916 9643,,Mo-Sa 08:00-21:00; Su 00:00-24:00,MoneyGram,Q1944412
72261178,moneygram,BANK OF ABYSSINIA - ADDIS ABABA - ARABSA,,ADDIS ABABA,,,ET,116129012,,Mo-Sa 08:00-19:00; Su 00:00-24:00,MoneyGram,Q1944412
72261097,moneygram,BANK OF ABYSSINIA - ADDIS ABABA - LOMI M,,ADDIS ABABA,,,ET,112739419,,Mo-Sa 08:00-19:00; Su 00:00-24:00,MoneyGram,Q1944412
72261204,moneygram,BANK OF ABYSSINIA - ADDIS ABABA - TEKLEH,,ADDIS ABABA,,,ET,+251 11 126 2762,,Mo-Sa 08:00-19:00; Su 00:00-24:00,MoneyGram,Q1944412
72261123,moneygram,BANK OF ABYSSINIA - ADDIS ABABA - TERO B,,ADDIS ABABA,,,ET,112739147,,Mo-Sa 08:00-19:00; Su 00:00-24:00,MoneyGram,Q1944412
72261107,moneygram,BANK OF ABYSSINIA - ADDIS ABABA - YESHI,,ADDIS ABABA,,,ET,113839081,,Mo-Sa 08:00-19:00; Su 00:00-24:00,MoneyGram,Q1944412
72261220,moneygram,BANK OF ABYSSINIA - ENEWARY - RAS ABEBE,,ENEWARY,,,ET,+251 11 688 0525,,Mo-Sa 08:00-19:00; Su 00:00-24:00,MoneyGram,Q1944412
72311581,moneygram,BANK OF ABYSSINIA - ADDIS ABABA - HILAL,,ADDIS ABABA,,,ET,332453891,,Mo-Sa 08:00-19:00; Su 00:00-24:00,MoneyGram,Q1944412
72311565,moneygram,BANK OF ABYSSINIA - ADDIS ABABA - JEMO E,,ADDIS ABABA,,,ET,113698643,,Mo-Sa 08:00-19:00; Su 00:00-24:00,MoneyGram,Q1944412
72322567,moneygram,ENAT BANK S.C. - ADDIS ABABA - YETNEBERS,,ADDIS ABABA,,,ET,+251 91 115 7989,,Mo-Sa 08:00-12:00; Su 00:00-24:00,MoneyGram,Q1944412
72322596,moneygram,ENAT BANK S.C. - DIRE DAWA - DIRE DAWA S,,DIRE DAWA,,,ET,+251 91 007 4486,,Mo-Sa 08:00-12:00; Su 00:00-24:00,MoneyGram,Q1944412
72357118,moneygram,ABAY BANK S C - #170 - ADDIS ABABA - AFR,,ADDIS ABABA,,,ET,15571663,,Mo-Sa 08:00-21:00; Su 00:00-24:00,MoneyGram,Q1944412
72357150,moneygram,ABAY BANK S C - #172 - ADDIS ABABA - TIK,,ADDIS ABABA,,,ET,12734278,,Mo-Sa 08:00-21:00; Su 00:00-24:00,MoneyGram,Q1944412
72404896,moneygram,ABAY BANK S C - #173 - ADDIS ABABA - FIG,,ADDIS ABABA,,,ET,116661800,,Mo-Sa 08:00-21:00; Su 00:00-24:00,MoneyGram,Q1944412
72404906,moneygram,ABAY BANK S C - #174 - ADDIS ABABA - YER,,ADDIS ABABA,,,ET,116733735,,Mo-Sa 08:00-21:00; Su 00:00-24:00,MoneyGram,Q1944412
72404951,moneygram,ABAY BANK S C - #175 - ADDIS ABABA - LEM,,ADDIS ABABA,,,ET,116686529,,Mo-Sa 08:00-21:00; Su 00:00-24:00,MoneyGram,Q1944412
72404948,moneygram,ABAY BANK S C - #6 - ADDIS ABABA - BEREK,,ADDIS ABABA,,,ET,112733764,,Mo-Sa 08:00-21:00; Su 00:00-24:00,MoneyGram,Q1944412
72410343,moneygram,OROMIA INL BANK SC - ABIEBIE TUFA,,ADDIS ABABA,,,ET,+251 11 667 1678,,Mo-Su 08:00-19:00,MoneyGram,Q1944412
72410385,moneygram,OROMIA INL BANK SC - DARARA,,AMBO,,,ET,112609568,,Mo-Su 08:00-19:00,MoneyGram,Q1944412
72410398,moneygram,OROMIA INL BANK SC - LENJISO DIGA,,NEGELE,,,ET,222110337,,Mo-Su 08:00-19:00,MoneyGram,Q1944412
72410453,moneygram,OROMIA INL BANK SC - TARO,,ADDIS ABABA,,,ET,112739482,,Mo-Su 08:00-19:00,MoneyGram,Q1944412
72410479,moneygram,OROMIA INL BANK SC - TULU METI,,ADDIS ABABA,,,ET,113697881,,Mo-Su 08:00-19:00,MoneyGram,Q1944412
72429499,moneygram,BANK OF ABYSSINIA - ABABA TESFAYE SAHILU,,ADDIS ABABA,,,ET,+251 11 518 3999,,Mo-Sa 08:00-19:00; Su 00:00-24:00,MoneyGram,Q1944412
72429428,moneygram,BANK OF ABYSSINIA - ADEA,,BISHOFTU,,,ET,114304440,,Mo-Sa 08:00-19:00; Su 00:00-24:00,MoneyGram,Q1944412
72429321,moneygram,BANK OF ABYSSINIA - AMANA BRANCH,,ADDIS ABABA,,,ET,113679521,,Mo-Sa 08:00-19:00; Su 00:00-24:00,MoneyGram,Q1944412
72429318,moneygram,BANK OF ABYSSINIA - ANFO BRANCH,,ADDIS ABABA,,,ET,112734962,,Mo-Sa 08:00-19:00; Su 00:00-24:00,MoneyGram,Q1944412
72429486,moneygram,BANK OF ABYSSINIA - ARADA GIORGIS,,ADDIS ABABA,,,ET,+251 11 126 5953,,Mo-Sa 08:00-19:00; Su 00:00-24:00,MoneyGram,Q1944412
72429460,moneygram,BANK OF ABYSSINIA - AWARE,,ADDIS ABABA,,,ET,+251 11 126 1661,,Mo-Sa 08:00-19:00; Su 00:00-24:00,MoneyGram,Q1944412
72429253,moneygram,BANK OF ABYSSINIA - AWASH 40 BRANCH,,ADAMA,,,ET,342407570,,Mo-Sa 08:00-19:00; Su 00:00-24:00,MoneyGram,Q1944412
72429305,moneygram,BANK OF ABYSSINIA - BARAKA BRANCH,,ADDIS ABABA,,,ET,113696902,,Mo-Sa 08:00-19:00; Su 00:00-24:00,MoneyGram,Q1944412
72429198,moneygram,BANK OF ABYSSINIA - BOSSET BRANCH,,ADAMA,,,ET,222119174,,Mo-Sa 08:00-19:00; Su 00:00-24:00,MoneyGram,Q1944412
72429208,moneygram,BANK OF ABYSSINIA - DEMBELA BRANCH,,ADAMA,,,ET,222111809,,Mo-Sa 08:00-19:00; Su 00:00-24:00,MoneyGram,Q1944412
72429473,moneygram,BANK OF ABYSSINIA - EASTERN INDUSTRY ZON,,DUKEM,,,ET,114718167,,Mo-Sa 08:00-19:00; Su 00:00-24:00,MoneyGram,Q1944412
72429282,moneygram,BANK OF ABYSSINIA - ETEYA BRANCH,,ADDIS ABABA,,,ET,+251 11 518 3999,,Mo-Sa 08:00-19:00; Su 00:00-24:00,MoneyGram,Q1944412
72429224,moneygram,BANK OF ABYSSINIA - GENDEGARA BRANCH,,ADAMA,,,ET,222121526,,Mo-Sa 08:00-19:00; Su 00:00-24:00,MoneyGram,Q1944412
72429279,moneygram,BANK OF ABYSSINIA - GOBESSA BRANCH,,ADAMA,,,ET,+251 22 446 0658,,Mo-Sa 08:00-19:00; Su 00:00-24:00,MoneyGram,Q1944412
72429415,moneygram,BANK OF ABYSSINIA - HANAMARIYAMNO2,,ADDIS ABABA,,,ET,114711965,,Mo-Sa 08:00-19:00; Su 00:00-24:00,MoneyGram,Q1944412
72429444,moneygram,BANK OF ABYSSINIA - JANMEDA,,ADDIS ABABA,,,ET,+251 11 126 1732,,Mo-Sa 08:00-19:00; Su 00:00-24:00,MoneyGram,Q1944412
72429457,moneygram,BANK OF ABYSSINIA - JEMO MIKEAL,,ADDIS ABABA,,,ET,113699750,,Mo-Sa 08:00-19:00; Su 00:00-24:00,MoneyGram,Q1944412
72429347,moneygram,BANK OF ABYSSINIA - MILITERY TERA 2 BRAN,,ADDIS ABABA,,,ET,112733705,,Mo-Sa 08:00-19:00; Su 00:00-24:00,MoneyGram,Q1944412
72429295,moneygram,BANK OF ABYSSINIA - MOLLA MARU BRANCH,,ADDIS ABABA,,,ET,+251 11 518 3999,,Mo-Sa 08:00-19:00; Su 00:00-24:00,MoneyGram,Q1944412
72429431,moneygram,BANK OF ABYSSINIA - RAS KASA SEFER,,ADDIS ABABA,,,ET,111541079,,Mo-Sa 08:00-19:00; Su 00:00-24:00,MoneyGram,Q1944412
72429237,moneygram,BANK OF ABYSSINIA - SAGURE BRANCH,,ADAMA,,,ET,+251 22 338 1588,,Mo-Sa 08:00-19:00; Su 00:00-24:00,MoneyGram,Q1944412
72429350,moneygram,BANK OF ABYSSINIA - SIDAMO TERA NO 2 BRA,,ADDIS ABABA,,,ET,112733980,,Mo-Sa 08:00-19:00; Su 00:00-24:00,MoneyGram,Q1944412
72429211,moneygram,BANK OF ABYSSINIA - SINKE BRANCH,,ADAMA,,,ET,222115809,,Mo-Sa 08:00-19:00; Su 00:00-24:00,MoneyGram,Q1944412
72429334,moneygram,BANK OF ABYSSINIA - WECHECHA BRANCH,,'ALEM GENA,,,ET,113679521,,Mo-Sa 08:00-19:00; Su 00:00-24:00,MoneyGram,Q1944412
72667154,moneygram,ENAT BANK S.C. - ADDIS ABABA - IBD BACK,,ADDIS ABABA,,,ET,+251 91 163 7279,,Mo-Sa 08:00-20:00; Su 00:00-24:00,MoneyGram,Q1944412
72667206,moneygram,ENAT BANK S.C. - BISHOFTU - BISHOFTU BRA,,BISHOFTU,,,ET,+251 90 631 5569,,Mo-Sa 08:00-20:00; Su 00:00-24:00,MoneyGram,Q1944412
72667222,moneygram,ENAT BANK S.C. - HARAR - HARAR BRANCH,,HARAR,,,ET,+251 91 199 5588,,Mo-Sa 08:00-20:00; Su 00:00-24:00,MoneyGram,Q1944412
72673290,moneygram,BANK OF ABYSSINIA - ABEBECH GOBENA BRANC,,ADDIS ABABA,,,ET,+251 11 518 3999,,Mo-Sa 08:00-19:00; Su 00:00-24:00,MoneyGram,Q1944412
72673504,moneygram,BANK OF ABYSSINIA - ADISKIDAME BRANCH,,ADDISKIDAME,,,ET,584500653,,Mo-Sa 08:00-19:00; Su 00:00-24:00,MoneyGram,Q1944412
72673614,moneygram,BANK OF ABYSSINIA - AKAKIGEBEYA BRANCH,,ADDIS ABABA,,,ET,114715618,,Mo-Sa 08:00-19:00; Su 00:00-24:00,MoneyGram,Q1944412
72673300,moneygram,BANK OF ABYSSINIA - AYAT CONDOMINIUM BRA,,ADDIS ABABA,,,ET,+251 11 518 3999,,Mo-Sa 08:00-19:00; Su 00:00-24:00,MoneyGram,Q1944412
72673465,moneygram,BANK OF ABYSSINIA - BOLE BULBULA BRANCH,,ADDIS ABABA,,,ET,114714530,,Mo-Sa 08:00-19:00; Su 00:00-24:00,MoneyGram,Q1944412
72673313,moneygram,BANK OF ABYSSINIA - BOLE CARGO BRANCH,,ADDIS ABABA,,,ET,+251 11 639 3442,,Mo-Sa 08:00-19:00; Su 00:00-24:00,MoneyGram,Q1944412
72673326,moneygram,BANK OF ABYSSINIA - CHACHA BRANCH,,CH'ACH'A,,,ET,116320514,,Mo-Sa 08:00-19:00; Su 00:00-24:00,MoneyGram,Q1944412
72673494,moneygram,BANK OF ABYSSINIA - DANSHA BRANCH,,DANSHA,,,ET,344361490,,Mo-Sa 08:00-19:00; Su 00:00-24:00,MoneyGram,Q1944412
72673601,moneygram,BANK OF ABYSSINIA - DARUSELAM BRANCH,,ADDIS ABABA,,,ET,+251 58 225 2254,,Mo-Sa 08:00-19:00; Su 00:00-24:00,MoneyGram,Q1944412
72673478,moneygram,BANK OF ABYSSINIA - DEBRESINABRANCH,,DEBRE SINA,,,ET,+251 11 680 0497,,Mo-Sa 08:00-19:00; Su 00:00-24:00,MoneyGram,Q1944412
72673342,moneygram,BANK OF ABYSSINIA - FITAWRARI GEBRYE BRA,,ADDIS ABABA,,,ET,116686015,,Mo-Sa 08:00-19:00; Su 00:00-24:00,MoneyGram,Q1944412
72673355,moneygram,BANK OF ABYSSINIA - GARA GURI BRANCH,,ADDIS ABABA,,,ET,116681656,,Mo-Sa 08:00-19:00; Su 00:00-24:00,MoneyGram,Q1944412
72673368,moneygram,BANK OF ABYSSINIA - GEBRIEL MESALMIYA BR,,ADDIS ABABA,,,ET,+251 11 518 3999,,Mo-Sa 08:00-19:00; Su 00:00-24:00,MoneyGram,Q1944412
72673371,moneygram,BANK OF ABYSSINIA - GERJI MARIAM BRANCH,,ADDIS ABABA,,,ET,+251 11 639 4669,,Mo-Sa 08:00-19:00; Su 00:00-24:00,MoneyGram,Q1944412
72673384,moneygram,BANK OF ABYSSINIA - GERJI MEBRAT BRANCH,,ADDIS ABABA,,,ET,116732571,,Mo-Sa 08:00-19:00; Su 00:00-24:00,MoneyGram,Q1944412
72673449,moneygram,BANK OF ABYSSINIA - GORO ADEBABAY,,ADDIS ABABA,,,ET,+251 11 518 3999,,Mo-Sa 08:00-19:00; Su 00:00-24:00,MoneyGram,Q1944412
72673397,moneygram,BANK OF ABYSSINIA - GORO SEFER BRANCH,,ADDIS ABABA,,,ET,116683184,,Mo-Sa 08:00-19:00; Su 00:00-24:00,MoneyGram,Q1944412
72673591,moneygram,BANK OF ABYSSINIA - HASSASA BRANCH,,HASSASA,,,ET,+251 22 336 1057,,Mo-Sa 08:00-19:00; Su 00:00-24:00,MoneyGram,Q1944412
72673452,moneygram,BANK OF ABYSSINIA - IBB SPECIALBRANCH,,ADDIS ABABA,,,ET,115319125,,Mo-Sa 08:00-19:00; Su 00:00-24:00,MoneyGram,Q1944412
72673407,moneygram,BANK OF ABYSSINIA - KARA MAZORIA BRANCH,,ADDIS ABABA,,,ET,116683184,,Mo-Sa 08:00-19:00; Su 00:00-24:00,MoneyGram,Q1944412
72673410,moneygram,BANK OF ABYSSINIA - LAMBRET MENHARIA BRA,,ADDIS ABABA,,,ET,116733569,,Mo-Sa 08:00-19:00; Su 00:00-24:00,MoneyGram,Q1944412
72673533,moneygram,BANK OF ABYSSINIA - LEBU MEDHANIALEM BRA,,ADDIS ABABA,,,ET,114625346,,Mo-Sa 08:00-19:00; Su 00:00-24:00,MoneyGram,Q1944412
72673423,moneygram,BANK OF ABYSSINIA - LEMI BRANCH,,NORTH SHEWA,,,ET,+251 11 518 3999,,Mo-Sa 08:00-19:00; Su 00:00-24:00,MoneyGram,Q1944412
72673588,moneygram,BANK OF ABYSSINIA - SHENO BRANCH,,SHENO,,,ET,+251 11 687 0630,,Mo-Sa 08:00-19:00; Su 00:00-24:00,MoneyGram,Q1944412
72673627,moneygram,BANK OF ABYSSINIA - SUMEYA BRANCH,,ADDIS ABABA,,,ET,+251 11 518 3999,,Mo-Sa 08:00-19:00; Su 00:00-24:00,MoneyGram,Q1944412
72673517,moneygram,BANK OF ABYSSINIA - TEBASE BRANCH,,DEBRE BERHAN,,,ET,116375353,,Mo-Sa 08:00-19:00; Su 00:00-24:00,MoneyGram,Q1944412
72673436,moneygram,BANK OF ABYSSINIA - TSEHAY MEWICHA BRANC,,ADDIS ABABA,,,ET,+251 11 518 3999,,Mo-Sa 08:00-19:00; Su 00:00-24:00,MoneyGram,Q1944412
72681415,moneygram,BANK OF ABYSSINIA - AL-SADIQ BRANCH,,ADDIS ABABA,,,ET,113695948,,Mo-Sa 08:00-19:00; Su 00:00-24:00,MoneyGram,Q1944412
72681017,moneygram,BANK OF ABYSSINIA - ASKO ADDIS SEFER BR,,ADDIS ABABA,,,ET,112731154,,Mo-Sa 08:00-19:00; Su 00:00-24:00,MoneyGram,Q1944412
72681279,moneygram,BANK OF ABYSSINIA - BALCHI BRANCH,,BALCH'I,,,ET,116730038,,Mo-Sa 08:00-19:00; Su 00:00-24:00,MoneyGram,Q1944412
72681392,moneygram,BANK OF ABYSSINIA - BERBERE TERA BRANCH,,ADDIS ABABA,,,ET,112732267,,Mo-Sa 08:00-19:00; Su 00:00-24:00,MoneyGram,Q1944412
72681253,moneygram,BANK OF ABYSSINIA - DJZ TESHOME SHNKUT B,,MERABETE,,,ET,+251 11 132 1116,,Mo-Sa 08:00-19:00; Su 00:00-24:00,MoneyGram,Q1944412
72681318,moneygram,BANK OF ABYSSINIA - KALITY MASELTEGNA BR,,ADDIS ABABA,,,ET,+251 11 667 1839,,Mo-Sa 08:00-19:00; Su 00:00-24:00,MoneyGram,Q1944412
72681305,moneygram,BANK OF ABYSSINIA - MEKANISSA MAZORIA BR,,ADDIS ABABA,,,ET,113698970,,Mo-Sa 08:00-19:00; Su 00:00-24:00,MoneyGram,Q1944412
72681334,moneygram,BANK OF ABYSSINIA - NEFAS SILK BRANCH,,ADDIS ABABA,,,ET,+251 11 667 1974,,Mo-Sa 08:00-19:00; Su 00:00-24:00,MoneyGram,Q1944412
72681130,moneygram,BANK OF ABYSSINIA - SANSUSI BRANCH,,BURAYU,,,ET,+251 11 126 3248,,Mo-Sa 08:00-19:00; Su 00:00-24:00,MoneyGram,Q1944412
72681224,moneygram,BANK OF ABYSSINIA - SUMMIT CONDOMINIUM B,,ADDIS ABABA,,,ET,116660078,,Mo-Sa 08:00-19:00; Su 00:00-24:00,MoneyGram,Q1944412
72684218,moneygram,BERHAN INTERNATIONAL BANK - ALEM BANK BR,,ADDIS ABABA,,,ET,111606289,,Mo-Sa 08:00-18:00; Su 00:00-24:00,MoneyGram,Q1944412
72684085,moneygram,BERHAN INTERNATIONAL BANK - ATLAS BRANCH,,ADDIS ABABA,,,ET,111606289,,Mo-Sa 08:00-18:00; Su 00:00-24:00,MoneyGram,Q1944412
72684153,moneygram,BERHAN INTERNATIONAL BANK - AYAT 72 BRAN,,ADDIS ABABA,,,ET,111606289,,Mo-Sa 08:00-18:00; Su 00:00-24:00,MoneyGram,Q1944412
72684069,moneygram,BERHAN INTERNATIONAL BANK - AYAT ZONE 3,,ADDIS ABABA,,,ET,111606289,,Mo-Sa 08:00-18:00; Su 00:00-24:00,MoneyGram,Q1944412
72684140,moneygram,BERHAN INTERNATIONAL BANK - AYER TENA AD,,ADDIS ABABA,,,ET,111606289,,Mo-Sa 08:00-18:00; Su 00:00-24:00,MoneyGram,Q1944412
72683921,moneygram,BERHAN INTERNATIONAL BANK - BALDERAS BRA,,ADDIS ABABA,,,ET,111606289,,Mo-Sa 08:00-18:00; Su 00:00-24:00,MoneyGram,Q1944412
72684111,moneygram,BERHAN INTERNATIONAL BANK - BISRATE GEBR,,ADDIS ABABA,,,ET,111606289,,Mo-Sa 08:00-18:00; Su 00:00-24:00,MoneyGram,Q1944412
72684108,moneygram,BERHAN INTERNATIONAL BANK - BOLE ARABSA,,ADDIS ABABA,,,ET,111606289,,Mo-Sa 08:00-18:00; Su 00:00-24:00,MoneyGram,Q1944412
72684043,moneygram,BERHAN INTERNATIONAL BANK - BULBULA MARI,,ADDIS ABABA,,,ET,111606289,,Mo-Sa 08:00-18:00; Su 00:00-24:00,MoneyGram,Q1944412
72684098,moneygram,BERHAN INTERNATIONAL BANK - FERENSAY GUR,,ADDIS ABABA,,,ET,111606289,,Mo-Sa 08:00-18:00; Su 00:00-24:00,MoneyGram,Q1944412
72684027,moneygram,BERHAN INTERNATIONAL BANK - GEJA SEFER S,,ADDIS ABABA,,,ET,111606289,,Mo-Sa 08:00-18:00; Su 00:00-24:00,MoneyGram,Q1944412
72684179,moneygram,BERHAN INTERNATIONAL BANK - HAILE GARMEN,,ADDIS ABABA,,,ET,111606289,,Mo-Sa 08:00-18:00; Su 00:00-24:00,MoneyGram,Q1944412
72684221,moneygram,BERHAN INTERNATIONAL BANK - HAILE GEBRES,,ADDIS ABABA,,,ET,111606289,,Mo-Sa 08:00-18:00; Su 00:00-24:00,MoneyGram,Q1944412
72683976,moneygram,BERHAN INTERNATIONAL BANK - HIWOT BRANCH,,ADDIS ABABA,,,ET,111606289,,Mo-Sa 08:00-18:00; Su 00:00-24:00,MoneyGram,Q1944412
72684124,moneygram,BERHAN INTERNATIONAL BANK - KAZANCHIS BR,,ADDIS ABABA,,,ET,111606289,,Mo-Sa 08:00-18:00; Su 00:00-24:00,MoneyGram,Q1944412
72684195,moneygram,BERHAN INTERNATIONAL BANK - KOLFE ATENA,,ADDIS ABABA,,,ET,111606289,,Mo-Sa 08:00-18:00; Su 00:00-24:00,MoneyGram,Q1944412
72684072,moneygram,BERHAN INTERNATIONAL BANK - LAMBERET BRA,,ADDIS ABABA,,,ET,111606289,,Mo-Sa 08:00-18:00; Su 00:00-24:00,MoneyGram,Q1944412
72684182,moneygram,BERHAN INTERNATIONAL BANK - LEBU MEBRAT,,ADDIS ABABA,,,ET,111606289,,Mo-Sa 08:00-18:00; Su 00:00-24:00,MoneyGram,Q1944412
72684056,moneygram,BERHAN INTERNATIONAL BANK - MEGENAGNA AD,,ADDIS ABABA,,,ET,111606289,,Mo-Sa 08:00-18:00; Su 00:00-24:00,MoneyGram,Q1944412
72684137,moneygram,BERHAN INTERNATIONAL BANK - MEKANISA KOR,,ADDIS ABABA,,,ET,111606289,,Mo-Sa 08:00-18:00; Su 00:00-24:00,MoneyGram,Q1944412
72684166,moneygram,BERHAN INTERNATIONAL BANK - MERKATO SHER,,ADDIS ABABA,,,ET,111606289,,Mo-Sa 08:00-18:00; Su 00:00-24:00,MoneyGram,Q1944412
72684234,moneygram,BERHAN INTERNATIONAL BANK - MEXICO BRANC,,ADDIS ABABA,,,ET,111606289,,Mo-Sa 08:00-18:00; Su 00:00-24:00,MoneyGram,Q1944412
72683918,moneygram,BERHAN INTERNATIONAL BANK - SARIS GUMRUK,,ADDIS ABABA,,,ET,111606289,,Mo-Sa 08:00-18:00; Su 00:00-24:00,MoneyGram,Q1944412
72683947,moneygram,BERHAN INTERNATIONAL BANK - SEMIT CONDOM,,ADDIS ABABA,,,ET,111606289,,Mo-Sa 08:00-18:00; Su 00:00-24:00,MoneyGram,Q1944412
72690558,moneygram,BANK OF ABYSSINIA - AYAT BABUR TABIYA BR,,ADDIS ABABA,,,ET,+251 11 639 1146,,Mo-Sa 08:00-19:00; Su 00:00-24:00,MoneyGram,Q1944412
72690448,moneygram,BANK OF ABYSSINIA - AYER AMBA BRANCH,,ADDIS ABABA,,,ET,116663816,,Mo-Sa 08:00-19:00; Su 00:00-24:00,MoneyGram,Q1944412
72690545,moneygram,BANK OF ABYSSINIA - GEJA SEFER BRANCH,,ADDIS ABABA,,,ET,+251 11 126 3221,,Mo-Sa 08:00-19:00; Su 00:00-24:00,MoneyGram,Q1944412
72690503,moneygram,BANK OF ABYSSINIA - KENENISA SUB-BRANCH,,ADDIS ABABA,,,ET,+251 11 667 1741,,Mo-Sa 08:00-19:00; Su 00:00-24:00,MoneyGram,Q1944412
72690529,moneygram,BANK OF ABYSSINIA - SEBATEGNA BRANCH,,ADDIS ABABA,,,ET,+251 11 126 3383,,Mo-Sa 08:00-19:00; Su 00:00-24:00,MoneyGram,Q1944412
72704826,moneygram,OROMIA INL BANK SC - BILAL BRANCH,,ADDIS ABABA,,,ET,115585931,,Mo-Su 08:00-19:00,MoneyGram,Q1944412
72798065,moneygram,ABAY BANK S C - #179 - ADDIS ABABA - MEX,,ADDIS ABABA,,,ET,115321058,,Mo-Sa 08:00-21:00; Su 00:00-24:00,MoneyGram,Q1944412
72807969,moneygram,BANK OF ABYSSINIA - ALSELAM BRANCH,,ADDIS ABABA,,,ET,+251 11 667 1827,,Mo-Sa 08:00-19:00; Su 00:00-24:00,MoneyGram,Q1944412
72807985,moneygram,BANK OF ABYSSINIA - ATENA TERA BRANCH,,ADDIS ABABA,,,ET,+251 11 126 3248,,Mo-Sa 08:00-19:00; Su 00:00-24:00,MoneyGram,Q1944412
72807998,moneygram,BANK OF ABYSSINIA - DR CATHERIN HAMLIN B,,ADDIS ABABA,,,ET,+251 11 126 3221,,Mo-Sa 08:00-19:00; Su 00:00-24:00,MoneyGram,Q1944412
72807972,moneygram,BANK OF ABYSSINIA - ZEBIDAR BRANCH,,BUTAJIRA,,,ET,+251 11 126 3383,,Mo-Sa 08:00-19:00; Su 00:00-24:00,MoneyGram,Q1944412
72821217,moneygram,BANK OF ABYSSINIA - BULBULA MEDHANEALEM,,ADDIS ABABA,,,ET,+251 11 667 0955,,Mo-Sa 08:00-19:00; Su 00:00-24:00,MoneyGram,Q1944412
72821204,moneygram,BANK OF ABYSSINIA - DAGMAWI MENILEK BRAN,,ADDIS ABABA,,,ET,+251 11 667 0913,,Mo-Sa 08:00-19:00; Su 00:00-24:00,MoneyGram,Q1944412
72864892,moneygram,BANK OF ABYSSINIA - 18 MAZORIA BRANCH,,ADDIS ABABA,,,ET,113693964,,Mo-Sa 08:00-19:00; Su 00:00-24:00,MoneyGram,Q1944412
72865037,moneygram,BANK OF ABYSSINIA - GULLELE FINANS BRANC,,ADDIS ABABA,,,ET,+251 11 126 3221,,Mo-Sa 08:00-19:00; Su 00:00-24:00,MoneyGram,Q1944412
72864944,moneygram,BANK OF ABYSSINIA - KIRKOS BRANCH,,ADDIS ABABA,,,ET,+251 11 667 1974,,Mo-Sa 08:00-19:00; Su 00:00-24:00,MoneyGram,Q1944412
72865066,moneygram,BANK OF ABYSSINIA - MUFTISHEIKH OMAR IDR,,ADDIS ABABA,,,ET,113697660,,Mo-Sa 08:00-19:00; Su 00:00-24:00,MoneyGram,Q1944412
72864957,moneygram,BANK OF ABYSSINIA - SARIS ABO BRANCH,,ADDIS ABABA,,,ET,+251 11 667 1839,,Mo-Sa 08:00-19:00; Su 00:00-24:00,MoneyGram,Q1944412
72864999,moneygram,BANK OF ABYSSINIA - YEKA TERARA BRANCH,,ADDIS ABABA,,,ET,+251 11 667 1436,,Mo-Sa 08:00-19:00; Su 00:00-24:00,MoneyGram,Q1944412
72883776,moneygram,OROMIA INL BANK SC - HAYAT BRANCH,,ADDIS ABABA,,,ET,+251 11 639 0108,,Mo-Su 08:00-19:00,MoneyGram,Q1944412
72890183,moneygram,BANK OF ABYSSINIA - LAFTO CONDOMINIUM BR,,ADDIS ABABA,,,ET,+251 11 667 0913,,Mo-Sa 08:00-19:00; Su 00:00-24:00,MoneyGram,Q1944412
72890219,moneygram,BANK OF ABYSSINIA - NURA HERA BRANCH,,ADAMA,,,ET,222122686,,Mo-Sa 08:00-19:00; Su 00:00-24:00,MoneyGram,Q1944412
72890170,moneygram,BANK OF ABYSSINIA - WOUBSHET WORKALEMAHU,,ADDIS ABABA,,,ET,+251 11 667 0955,,Mo-Sa 08:00-19:00; Su 00:00-24:00,MoneyGram,Q1944412
69304543,moneygram,OIB - BATU,,BATU,,,ET,+251 91 382 4522,,Mo-Fr 08:00-19:00; Sa 08:00-17:00; Su 00:00-24:00,MoneyGram,Q1944412
69304022,moneygram,OIB - BETHEL,,ADDIS ABABA,,,ET,+251 11 349 3959,,Mo-Fr 08:00-19:00; Sa 08:00-17:00; Su 00:00-24:00,MoneyGram,Q1944412
69304297,moneygram,OIB - BUTAJIRA,,BUTAJIRA,,,ET,+251 91 111 3400,,Mo-Fr 08:00-19:00; Sa 08:00-17:00; Su 00:00-24:00,MoneyGram,Q1944412
67375927,moneygram,OIB - OROMIA COMMODITY MARKET,,ADDIS ABABA,,,ET,118961947,,Mo-Fr 08:00-19:00; Sa 08:00-18:00; Su 00:00-24:00,MoneyGram,Q1944412
69304035,moneygram,OIB - SARIS,,ADDIS ABABA,,,ET,114707750,,Mo-Fr 08:00-19:00; Sa 08:00-17:00; Su 00:00-24:00,MoneyGram,Q1944412
72987119,moneygram,BANK OF ABYSSINIA - DIL GEBEYA BRANCH,,ADDIS ABABA,,,ET,+251 11 126 3248,,Mo-Sa 08:00-19:00; Su 00:00-24:00,MoneyGram,Q1944412
72987151,moneygram,BANK OF ABYSSINIA - LAZARIST BRANCH,,ADDIS ABABA,,,ET,+251 11 667 0913,,Mo-Sa 08:00-19:00; Su 00:00-24:00,MoneyGram,Q1944412
72987148,moneygram,BANK OF ABYSSINIA - MEXICO BRANCH,,ADDIS ABABA,,,ET,+251 11 126 3221,,Mo-Sa 08:00-19:00; Su 00:00-24:00,MoneyGram,Q1944412
73127240,moneygram,ABAY BANK S C - #181 - MEKANISAMICHAEL,,ADDIS ABABA,,,ET,113698475,,Mo-Sa 08:00-21:00; Su 00:00-24:00,MoneyGram,Q1944412
73249050,moneygram,ABAY BANK S.C - #182 - AYERTENA,,ADDIS ABABA,,,ET,113694341,,Mo-Sa 08:00-21:00; Su 00:00-24:00,MoneyGram,Q1944412
73249063,moneygram,ABAY BANK S.C - #431 - DENEBA,,DENEBA,,,ET,116905301,,Mo-Sa 08:00-21:00; Su 00:00-24:00,MoneyGram,Q1944412
73269713,moneygram,BANK OF ABYSSINIA - KAZANCHIS TOTAL BRAN,,ADDIS ABABA,,,ET,+251 11 667 0974,,Mo-Sa 08:00-19:00; Su 00:00-24:00,MoneyGram,Q1944412
73269690,moneygram,BANK OF ABYSSINIA - MISRAK DIL BRANCH,,ADDIS ABABA,,,ET,+251 11 667 0955,,Mo-Sa 08:00-19:00; Su 00:00-24:00,MoneyGram,Q1944412
73371588,moneygram,ABAY BANK S C - #183 - MEXICOBUNANASHAY,,ADDIS ABABA,,,ET,115574939,,Mo-Sa 08:00-21:00; Su 00:00-24:00,MoneyGram,Q1944412
73371562,moneygram,ABAY BANK S C - #185 - KARA,,ADDIS ABABA,,,ET,116681138,,Mo-Sa 08:00-21:00; Su 00:00-24:00,MoneyGram,Q1944412
73371559,moneygram,ABAY BANK S C - #438 - CHACHA,,CH'ACH'A,,,ET,116320756,,Mo-Sa 08:00-21:00; Su 00:00-24:00,MoneyGram,Q1944412
73371724,moneygram,BANK OF ABYSSINIA - ABADO CONDOMINIUM S-,,ADDIS ABABA,,,ET,+251 11 667 0955,,Mo-Sa 08:00-19:00; Su 00:00-24:00,MoneyGram,Q1944412
73371737,moneygram,BANK OF ABYSSINIA - DERARTU TULU BRANCH,,ADDIS ABABA,,,ET,+251 11 667 0974,,Mo-Sa 08:00-19:00; Su 00:00-24:00,MoneyGram,Q1944412
73371672,moneygram,BANK OF ABYSSINIA - KALITY INDUSTRY SEFE,,ADDIS ABABA,,,ET,+251 11 667 0913,,Mo-Sa 08:00-19:00; Su 00:00-24:00,MoneyGram,Q1944412
73371708,moneygram,BANK OF ABYSSINIA - SEBARA BABUR BRANCH,,ADDIS ABABA,,,ET,+251 11 126 3383,,Mo-Sa 08:00-19:00; Su 00:00-24:00,MoneyGram,Q1944412
73371711,moneygram,BANK OF ABYSSINIA - ZENEBEWORK BRANCH,,ADDIS ABABA,,,ET,+251 11 126 3248,,Mo-Sa 08:00-19:00; Su 00:00-24:00,MoneyGram,Q1944412
73436122,moneygram,ABAY BANK S C - #438 - CHACHA,,CH'ACH'A,,,ET,116320756,,Mo-Sa 08:00-21:00; Su 00:00-24:00,MoneyGram,Q1944412
73507585,moneygram,COOPERATIVE BANK OF OROMIA - ABEBE-BIKIL,,ADDIS ABABA,,,ET,+251 91 371 8000,,Mo-Su 08:00-20:00,MoneyGram,Q1944412
73507608,moneygram,COOPERATIVE BANK OF OROMIA - BAKANISSA,,ADDIS ABABA,,,ET,+251 91 287 5258,,Mo-Su 08:00-20:00,MoneyGram,Q1944412
73507611,moneygram,COOPERATIVE BANK OF OROMIA - BARO-KORMA,,ADDIS ABABA,,,ET,+251 92 142 3589,,Mo-Su 08:00-20:00,MoneyGram,Q1944412
73506214,moneygram,COOPERATIVE BANK OF OROMIA - BILILE,,ADDIS ABABA,,,ET,+251 91 186 1179,,Mo-Su 08:00-20:00,MoneyGram,Q1944412
73506201,moneygram,COOPERATIVE BANK OF OROMIA - BOLE ARABSA,,ADDIS ABABA,,,ET,+251 91 132 0735,,Mo-Su 08:00-20:00,MoneyGram,Q1944412
73507653,moneygram,COOPERATIVE BANK OF OROMIA - DEBASSO,,ADDIS ABABA,,,ET,+251 94 672 8287,,Mo-Su 08:00-20:00,MoneyGram,Q1944412
73507682,moneygram,COOPERATIVE BANK OF OROMIA - HAILE-FIDA,,ADDIS ABABA,,,ET,+251 92 182 7466,,Mo-Su 08:00-20:00,MoneyGram,Q1944412
73506353,moneygram,COOPERATIVE BANK OF OROMIA - HARAMAIN,,ADDIS ABABA,,,ET,+251 91 113 7646,,Mo-Su 08:00-20:00,MoneyGram,Q1944412
73507695,moneygram,COOPERATIVE BANK OF OROMIA - HURUFA-RARE,,ADDIS ABABA,,,ET,+251 91 708 3427,,Mo-Su 08:00-20:00,MoneyGram,Q1944412
73506625,moneygram,COOPERATIVE BANK OF OROMIA - ILU GELAN,,IJAJI,,,ET,+251 91 271 9327,,Mo-Su 08:00-20:00,MoneyGram,Q1944412
73506654,moneygram,COOPERATIVE BANK OF OROMIA - JELDU,,JELDU,,,ET,+251 91 178 8452,,Mo-Su 08:00-20:00,MoneyGram,Q1944412
73507705,moneygram,COOPERATIVE BANK OF OROMIA - KARRA-TUTO,,ADDIS ABABA,,,ET,+251 92 249 4922,,Mo-Su 08:00-20:00,MoneyGram,Q1944412
73507718,moneygram,COOPERATIVE BANK OF OROMIA - KELO-MESKEL,,ADDIS ABABA,,,ET,+251 97 874 2875,,Mo-Su 08:00-20:00,MoneyGram,Q1944412
73506243,moneygram,COOPERATIVE BANK OF OROMIA - LAGA BARI,,SENDAFABAKE,,,ET,+251 91 186 4456,,Mo-Su 08:00-20:00,MoneyGram,Q1944412
73507336,moneygram,COOPERATIVE BANK OF OROMIA - LEQA,,NEK'EMTE,,,ET,+251 92 223 8226,,Mo-Su 08:00-20:00,MoneyGram,Q1944412
73506683,moneygram,COOPERATIVE BANK OF OROMIA - LIBAN JAWI,,BABICHA,,,ET,+251 92 268 4349,,Mo-Su 08:00-20:00,MoneyGram,Q1944412
73507721,moneygram,COOPERATIVE BANK OF OROMIA - MERDE,,ADDIS ABABA,,,ET,+251 91 390 4422,,Mo-Su 08:00-20:00,MoneyGram,Q1944412
73506256,moneygram,COOPERATIVE BANK OF OROMIA - SHEBU EJERS,,ADDIS ABABA,,,ET,+251 91 180 0924,,Mo-Su 08:00-20:00,MoneyGram,Q1944412
73506489,moneygram,COOPERATIVE BANK OF OROMIA - SHENO,,SHENO,,,ET,+251 98 545 6457,,Mo-Su 08:00-20:00,MoneyGram,Q1944412
73507378,moneygram,COOPERATIVE BANK OF OROMIA - SIBU SIRE,,SIRE,,,ET,+251 92 048 1243,,Mo-Su 08:00-20:00,MoneyGram,Q1944412
73507747,moneygram,COOPERATIVE BANK OF OROMIA - SORA-LUME,,ADDIS ABABA,,,ET,+251 91 273 0029,,Mo-Su 08:00-20:00,MoneyGram,Q1944412
73613893,moneygram,ABAY BANK S C - #186 - MEKANISSA BRANCH,,ADDIS ABABA,,,ET,113340527,,Mo-Sa 08:00-21:00; Su 00:00-24:00,MoneyGram,Q1944412
73613851,moneygram,ABAY BANK S C - #442 - TEBASSIE BRANCH,,DEBRE BIRHAN,,,ET,+251 11 660 6971,,Mo-Sa 08:00-21:00; Su 00:00-24:00,MoneyGram,Q1944412
73622363,moneygram,BANK OF ABYSSINIA - B/GN LEGESSE TEFERA,,ADDIS ABABA,,,ET,+251 11 667 0955,,Mo-Sa 08:00-19:00; Su 00:00-24:00,MoneyGram,Q1944412
73622334,moneygram,BANK OF ABYSSINIA - LEBU MUZIKA SEFER BR,,ADDIS ABABA,,,ET,+251 11 126 3092,,Mo-Sa 08:00-19:00; Su 00:00-24:00,MoneyGram,Q1944412
73622347,moneygram,BANK OF ABYSSINIA - LEKUANDA TERA BRANCH,,ADDIS ABABA,,,ET,+251 11 126 3383,,Mo-Sa 08:00-19:00; Su 00:00-24:00,MoneyGram,Q1944412
73671806,moneygram,ABAY BANK S C - #186 - MEGENAGAN ADEBABA,,ADDIS ABABA,,,ET,+251 11 639 4149,,Mo-Sa 08:00-21:00; Su 00:00-24:00,MoneyGram,Q1944412
73708779,moneygram,ABAY BANK S C - #188 - KERA ADEBABAY,,ADDIS ABABA,,,ET,114706387,,Mo-Sa 08:00-21:00; Su 00:00-24:00,MoneyGram,Q1944412
73721523,moneygram,BANK OF ABYSSINIA - ANKOBER BRANCH,,ANKOBER,,,ET,+251 11 667 0974,,Mo-Sa 08:00-19:00; Su 00:00-24:00,MoneyGram,Q1944412
73721688,moneygram,BANK OF ABYSSINIA - PROF ASRAT WOLDEYES,,ADDIS ABABA,,,ET,115336099,,Mo-Sa 08:00-19:00; Su 00:00-24:00,MoneyGram,Q1944412
73721552,moneygram,BANK OF ABYSSINIA - TESFAYE GESESSE BRAN,,ADDIS ABABA,,,ET,+251 11 667 1436,,Mo-Sa 08:00-19:00; Su 00:00-24:00,MoneyGram,Q1944412
73721662,moneygram,BANK OF ABYSSINIA - YILMA DERESSA BRANCH,,ADDIS ABABA,,,ET,+251 11 667 1828,,Mo-Sa 08:00-19:00; Su 00:00-24:00,MoneyGram,Q1944412
73773597,moneygram,ADDIS INTERNATIONA BANK - #85 - PIASSA B,,ADDIS ABABA,,,ET,1265474,,Mo-Sa 08:00-18:00; Su 00:00-24:00,MoneyGram,Q1944412
73773607,moneygram,ADDIS INTERNATIONA BANK - #86 - LEBU MEB,,ADDIS ABABA,,,ET,4711216,,Mo-Sa 08:00-18:00; Su 00:00-24:00,MoneyGram,Q1944412
73773458,moneygram,ADDIS INTERNATIONAL BANK - #71 - URAEL B,,ADDIS ABABA,,,ET,5577916,,Mo-Sa 08:00-18:00; Su 00:00-24:00,MoneyGram,Q1944412
73773461,moneygram,ADDIS INTERNATIONAL BANK - #72 - TEWODRO,,ADDIS ABABA,,,ET,2262083,,Mo-Sa 08:00-18:00; Su 00:00-24:00,MoneyGram,Q1944412
73773474,moneygram,ADDIS INTERNATIONAL BANK - #73 - KEBENA,,ADDIS ABABA,,,ET,5545564,,Mo-Sa 08:00-18:00; Su 00:00-24:00,MoneyGram,Q1944412
73773526,moneygram,ADDIS INTERNATIONAL BANK - #78 - FIGA BR,,ADDIS ABABA,,,ET,6683248,,Mo-Sa 08:00-18:00; Su 00:00-24:00,MoneyGram,Q1944412
73773542,moneygram,ADDIS INTERNATIONAL BANK - #80 - YEKA MI,,ADDIS ABABA,,,ET,6683275,,Mo-Sa 08:00-18:00; Su 00:00-24:00,MoneyGram,Q1944412
73773568,moneygram,ADDIS INTERNATIONAL BANK - #82 - SHIROME,,ADDIS ABABA,,,ET,1545876,,Mo-Sa 08:00-18:00; Su 00:00-24:00,MoneyGram,Q1944412
73801540,moneygram,ABAY BANK S C - #190 - KARLADEBABAY,,ADDIS ABABA,,,ET,113849220,,Mo-Sa 08:00-21:00; Su 00:00-24:00,MoneyGram,Q1944412
73837640,moneygram,BANK OF ABYSSINIA - BOLE ARABSA SUB BRAN,,ADDIS ABABA,,,ET,+251 11 667 1436,,Mo-Sa 08:00-19:00; Su 00:00-24:00,MoneyGram,Q1944412
73837666,moneygram,BANK OF ABYSSINIA - SHEGER MENAFESH BRAN,,ADDIS ABABA,,,ET,+251 11 667 0913,,Mo-Sa 08:00-19:00; Su 00:00-24:00,MoneyGram,Q1944412
73899141,moneygram,BANK OF ABYSSINIA - AL BURAQ BRANCH,,ADDIS ABABA,,,ET,+251 11 126 3383,,Mo-Sa 08:00-19:00; Su 00:00-24:00,MoneyGram,Q1944412
73899235,moneygram,BANK OF ABYSSINIA - ARTIST LEMMA GUYA BR,,BISHOFTU,,,ET,+251 11 667 0913,,Mo-Sa 08:00-19:00; Su 00:00-24:00,MoneyGram,Q1944412
73899361,moneygram,BANK OF ABYSSINIA - GERJI GEBEYA BRANCH,,ADDIS ABABA,,,ET,+251 11 667 0974,,Mo-Sa 08:00-19:00; Su 00:00-24:00,MoneyGram,Q1944412
73899303,moneygram,BANK OF ABYSSINIA - GURARA BRANCH,,ADDIS ABABA,,,ET,+251 11 667 1839,,Mo-Sa 08:00-19:00; Su 00:00-24:00,MoneyGram,Q1944412
73899332,moneygram,BANK OF ABYSSINIA - HAILE GARMENT BRANCH,,ADDIS ABABA,,,ET,+251 11 667 1672,,Mo-Sa 08:00-19:00; Su 00:00-24:00,MoneyGram,Q1944412
73899374,moneygram,BANK OF ABYSSINIA - KOTARI CONDOMINIUM B,,ADDIS ABABA,,,ET,+251 11 667 1671,,Mo-Sa 08:00-19:00; Su 00:00-24:00,MoneyGram,Q1944412
73899293,moneygram,BANK OF ABYSSINIA - KOTEBE WOLGEMO-SUB B,,ADDIS ABABA,,,ET,+251 11 667 0955,,Mo-Sa 08:00-19:00; Su 00:00-24:00,MoneyGram,Q1944412
73899345,moneygram,BANK OF ABYSSINIA - MERKATO BIRET TERA B,,ADDIS ABABA,,,ET,115576993,,Mo-Sa 08:00-19:00; Su 00:00-24:00,MoneyGram,Q1944412
73899390,moneygram,BANK OF ABYSSINIA - TULU DIMTU CONDOMIN,,ADDIS ABABA,,,ET,114716933,,Mo-Sa 08:00-19:00; Su 00:00-24:00,MoneyGram,Q1944412
73903147,moneygram,ABAY BANK S C - #191 - KECHENE,,ADDIS ABABA,,,ET,+251 11 126 7403,,Mo-Sa 08:00-21:00; Su 00:00-24:00,MoneyGram,Q1944412
73903176,moneygram,ABAY BANK S C - #192 - AYATADEBABAY,,ADDIS ABABA,,,ET,116204354,,Mo-Sa 08:00-21:00; Su 00:00-24:00,MoneyGram,Q1944412
73903163,moneygram,ABAY BANK S C - #457 - SELADINGAY,,SELA DINGAY,,,ET,116250513,,Mo-Sa 08:00-21:00; Su 00:00-24:00,MoneyGram,Q1944412
73933900,moneygram,LION INTERNATIONAL BANK S.C. - A/ HAILE,,ADDIS ABABA,,,ET,106631215,,Mo-Sa 08:00-19:00; Su 00:00-24:00,MoneyGram,Q1944412
73934653,moneygram,LION INTERNATIONAL BANK S.C. - AAYAT TAF,,ADDIS ABABA,,,ET,105665185,,Mo-Sa 08:00-19:00; Su 00:00-24:00,MoneyGram,Q1944412
73934514,moneygram,LION INTERNATIONAL BANK S.C. - ABURA,,ADDIS ABABA,,,ET,105579981,,Mo-Sa 08:00-19:00; Su 00:00-24:00,MoneyGram,Q1944412
73934679,moneygram,LION INTERNATIONAL BANK S.C. - ADEY ABEB,,ADDIS ABABA,,,ET,102589700,,Mo-Sa 08:00-19:00; Su 00:00-24:00,MoneyGram,Q1944412
73933874,moneygram,LION INTERNATIONAL BANK S.C. - ARADA,,ADDIS ABABA,,,ET,101569741,,Mo-Sa 08:00-19:00; Su 00:00-24:00,MoneyGram,Q1944412
73934349,moneygram,LION INTERNATIONAL BANK S.C. - ARADA GIO,,ADDIS ABABA,,,ET,101265317,,Mo-Sa 08:00-19:00; Su 00:00-24:00,MoneyGram,Q1944412
73934213,moneygram,LION INTERNATIONAL BANK S.C. - AU,,ADDIS ABABA,,,ET,105573259,,Mo-Sa 08:00-19:00; Su 00:00-24:00,MoneyGram,Q1944412
73934242,moneygram,LION INTERNATIONAL BANK S.C. - AYAT,,ADDIS ABABA,,,ET,108332621,,Mo-Sa 08:00-19:00; Su 00:00-24:00,MoneyGram,Q1944412
73934637,moneygram,LION INTERNATIONAL BANK S.C. - AYAT NOAH,,ADDIS ABABA,,,ET,108581924,,Mo-Sa 08:00-19:00; Su 00:00-24:00,MoneyGram,Q1944412
73934132,moneygram,LION INTERNATIONAL BANK S.C. - BERBERE T,,ADDIS ABABA,,,ET,102732349,,Mo-Sa 08:00-19:00; Su 00:00-24:00,MoneyGram,Q1944412
73934527,moneygram,LION INTERNATIONAL BANK S.C. - BISRATE G,,ADDIS ABABA,,,ET,103690942,,Mo-Sa 08:00-19:00; Su 00:00-24:00,MoneyGram,Q1944412
73934006,moneygram,LION INTERNATIONAL BANK S.C. - BOLE,,ADDIS ABABA,,,ET,105507072,,Mo-Sa 08:00-19:00; Su 00:00-24:00,MoneyGram,Q1944412
73934297,moneygram,LION INTERNATIONAL BANK S.C. - BOLE MEDH,,ADDIS ABABA,,,ET,108275829,,Mo-Sa 08:00-19:00; Su 00:00-24:00,MoneyGram,Q1944412
73934048,moneygram,LION INTERNATIONAL BANK S.C. - BOLE MICH,,ADDIS ABABA,,,ET,106392041,,Mo-Sa 08:00-19:00; Su 00:00-24:00,MoneyGram,Q1944412
73934064,moneygram,LION INTERNATIONAL BANK S.C. - CHURCHILL,,ADDIS ABABA,,,ET,101262302,,Mo-Sa 08:00-19:00; Su 00:00-24:00,MoneyGram,Q1944412
73933997,moneygram,LION INTERNATIONAL BANK S.C. - CMC,,ADDIS ABABA,,,ET,102783797,,Mo-Sa 08:00-19:00; Su 00:00-24:00,MoneyGram,Q1944412
73934446,moneygram,LION INTERNATIONAL BANK S.C. - CMC MICHA,,ADDIS ABABA,,,ET,106676399,,Mo-Sa 08:00-19:00; Su 00:00-24:00,MoneyGram,Q1944412
73934404,moneygram,LION INTERNATIONAL BANK S.C. - DARMAR,,ADDIS ABABA,,,ET,105578715,,Mo-Sa 08:00-19:00; Su 00:00-24:00,MoneyGram,Q1944412
73934682,moneygram,LION INTERNATIONAL BANK S.C. - EDNAMOL A,,ADDIS ABABA,,,ET,106358418,,Mo-Sa 08:00-19:00; Su 00:00-24:00,MoneyGram,Q1944412
73934556,moneygram,LION INTERNATIONAL BANK S.C. - FIGA MAZO,,ADDIS ABABA,,,ET,106733528,,Mo-Sa 08:00-19:00; Su 00:00-24:00,MoneyGram,Q1944412
73933971,moneygram,LION INTERNATIONAL BANK S.C. - GERJI,,ADDIS ABABA,,,ET,104671552,,Mo-Sa 08:00-19:00; Su 00:00-24:00,MoneyGram,Q1944412
73934530,moneygram,LION INTERNATIONAL BANK S.C. - GERJI MEB,,ADDIS ABABA,,,ET,106733472,,Mo-Sa 08:00-19:00; Su 00:00-24:00,MoneyGram,Q1944412
73934572,moneygram,LION INTERNATIONAL BANK S.C. - GOFA GEBR,,ADDIS ABABA,,,ET,104702272,,Mo-Sa 08:00-19:00; Su 00:00-24:00,MoneyGram,Q1944412
73934365,moneygram,LION INTERNATIONAL BANK S.C. - GOJAM BER,,ADDIS ABABA,,,ET,101263989,,Mo-Sa 08:00-19:00; Su 00:00-24:00,MoneyGram,Q1944412
73933968,moneygram,LION INTERNATIONAL BANK S.C. - GURDSHOLL,,ADDIS ABABA,,,ET,102134644,,Mo-Sa 08:00-19:00; Su 00:00-24:00,MoneyGram,Q1944412
73934569,moneygram,LION INTERNATIONAL BANK S.C. - HANA MARI,,ADDIS ABABA,,,ET,104711533,,Mo-Sa 08:00-19:00; Su 00:00-24:00,MoneyGram,Q1944412
73936648,moneygram,LION INTERNATIONAL BANK S.C. - IBD PEYME,,ADDIS ABABA,,,ET,106629702,,Mo-Sa 08:00-19:00; Su 00:00-24:00,MoneyGram,Q1944412
73934080,moneygram,LION INTERNATIONAL BANK S.C. - IMPERIAL,,ADDIS ABABA,,,ET,106394160,,Mo-Sa 08:00-19:00; Su 00:00-24:00,MoneyGram,Q1944412
73934103,moneygram,LION INTERNATIONAL BANK S.C. - JEMO,,ADDIS ABABA,,,ET,104712914,,Mo-Sa 08:00-19:00; Su 00:00-24:00,MoneyGram,Q1944412
73934145,moneygram,LION INTERNATIONAL BANK S.C. - KALITY GU,,ADDIS ABABA,,,ET,104707667,,Mo-Sa 08:00-19:00; Su 00:00-24:00,MoneyGram,Q1944412
73934394,moneygram,LION INTERNATIONAL BANK S.C. - LEBU MEDH,,ADDIS ABABA,,,ET,104713544,,Mo-Sa 08:00-19:00; Su 00:00-24:00,MoneyGram,Q1944412
73934543,moneygram,LION INTERNATIONAL BANK S.C. - MEKANISA,,ADDIS ABABA,,,ET,103691950,,Mo-Sa 08:00-19:00; Su 00:00-24:00,MoneyGram,Q1944412
73933913,moneygram,LION INTERNATIONAL BANK S.C. - RAGUE,,ADDIS ABABA,,,ET,102134644,,Mo-Sa 08:00-19:00; Su 00:00-24:00,MoneyGram,Q1944412
73934271,moneygram,LION INTERNATIONAL BANK S.C. - SEBARA BA,,ADDIS ABABA,,,ET,101266844,,Mo-Sa 08:00-19:00; Su 00:00-24:00,MoneyGram,Q1944412
73934624,moneygram,LION INTERNATIONAL BANK S.C. - SEKET,,ADDIS ABABA,,,ET,106673056,,Mo-Sa 08:00-19:00; Su 00:00-24:00,MoneyGram,Q1944412
73933955,moneygram,LION INTERNATIONAL BANK S.C. - SENGATERA,,ADDIS ABABA,,,ET,105507072,,Mo-Sa 08:00-19:00; Su 00:00-24:00,MoneyGram,Q1944412
73934268,moneygram,LION INTERNATIONAL BANK S.C. - SHALLA,,ADDIS ABABA,,,ET,108332622,,Mo-Sa 08:00-19:00; Su 00:00-24:00,MoneyGram,Q1944412
73934035,moneygram,LION INTERNATIONAL BANK S.C. - STADIUM,,ADDIS ABABA,,,ET,105580119,,Mo-Sa 08:00-19:00; Su 00:00-24:00,MoneyGram,Q1944412
73934239,moneygram,LION INTERNATIONAL BANK S.C. - SUMMIT,,ADDIS ABABA,,,ET,106678551,,Mo-Sa 08:00-19:00; Su 00:00-24:00,MoneyGram,Q1944412
73934200,moneygram,LION INTERNATIONAL BANK S.C. - URAEL,,ADDIS ABABA,,,ET,105620028,,Mo-Sa 08:00-19:00; Su 00:00-24:00,MoneyGram,Q1944412
73933861,moneygram,LION INTERNATIONAL BANK S.C. - YEKA,,ADDIS ABABA,,,ET,106627118,,Mo-Sa 08:00-19:00; Su 00:00-24:00,MoneyGram,Q1944412
73934417,moneygram,LION INTERNATIONAL BANK S.C. - YEKA ABAD,,ADDIS ABABA,,,ET,108723996,,Mo-Sa 08:00-19:00; Su 00:00-24:00,MoneyGram,Q1944412
73948694,moneygram,ABAY BANK S C - #194 - MEHAL LAFTO,,ADDIS ABABA,,,ET,114711525,,Mo-Sa 08:00-21:00; Su 00:00-24:00,MoneyGram,Q1944412
73949376,moneygram,COOPERATIVE BANK OF OROMIA - ADDIS ABABA,,ADDIS ABABA,,,ET,+251 96 189 9131,,Mo-Su 08:00-20:00,MoneyGram,Q1944412
73949428,moneygram,COOPERATIVE BANK OF OROMIA - ADDIS ABABA,,ADDIS ABABA,,,ET,+251 96 328 4003,,Mo-Su 08:00-20:00,MoneyGram,Q1944412
73949567,moneygram,COOPERATIVE BANK OF OROMIA - ADDIS ABABA,,ADDIS ABABA,,,ET,+251 91 170 2544,,Mo-Su 08:00-20:00,MoneyGram,Q1944412
73949570,moneygram,COOPERATIVE BANK OF OROMIA - ADDIS ABABA,,ADDIS ABABA,,,ET,+251 92 120 5434,,Mo-Su 08:00-20:00,MoneyGram,Q1944412
73949583,moneygram,COOPERATIVE BANK OF OROMIA - ADDIS ABABA,,ADDIS ABABA,,,ET,+251 91 028 3176,,Mo-Su 08:00-20:00,MoneyGram,Q1944412
73949509,moneygram,COOPERATIVE BANK OF OROMIA - GAMBELLA -,,GAMBELLA,,,ET,+251 92 929 6903,,Mo-Su 08:00-20:00,MoneyGram,Q1944412
73949525,moneygram,COOPERATIVE BANK OF OROMIA - HASASA - IM,,HASASA,,,ET,+251 22 336 1030,,Mo-Su 08:00-20:00,MoneyGram,Q1944412
73949800,moneygram,COOPERATIVE BANK OF OROMIA - K'OBO - KOB,,K'OBO,,,ET,+251 25 337 0592,,Mo-Su 08:00-20:00,MoneyGram,Q1944412
73949868,moneygram,COOPERATIVE BANK OF OROMIA - MEGALLA - M,,MEGALLA,,,ET,254114089,,Mo-Su 08:00-20:00,MoneyGram,Q1944412
73969783,moneygram,BANK OF ABYSSINIA - ADAMA MOENCO BRANCH,,ADAMA,,,ET,222121407,,Mo-Sa 08:00-19:00; Su 00:00-24:00,MoneyGram,Q1944412
73970073,moneygram,BANK OF ABYSSINIA - AFEWEK TEKLE BRANCH,,ADDIS ABABA,,,ET,115579383,,Mo-Sa 08:00-19:00; Su 00:00-24:00,MoneyGram,Q1944412
73970015,moneygram,BANK OF ABYSSINIA - AFRICA UNION COMP BR,,ADDIS ABABA,,,ET,114702843,,Mo-Sa 08:00-19:00; Su 00:00-24:00,MoneyGram,Q1944412
73969835,moneygram,BANK OF ABYSSINIA - AYAT GOAH BRANCH,,ADDIS ABABA,,,ET,+251 11 667 1827,,Mo-Sa 08:00-19:00; Su 00:00-24:00,MoneyGram,Q1944412
73969877,moneygram,BANK OF ABYSSINIA - BALDERAS CONDOMIN BR,,ADDIS ABABA,,,ET,+251 11 667 1436,,Mo-Sa 08:00-19:00; Su 00:00-24:00,MoneyGram,Q1944412
73970060,moneygram,BANK OF ABYSSINIA - GINCHI BRANCH,,GINCH'I,,,ET,+251 11 126 3248,,Mo-Sa 08:00-19:00; Su 00:00-24:00,MoneyGram,Q1944412
73969864,moneygram,BANK OF ABYSSINIA - JEMO 3 BRANCH,,ADDIS ABABA,,,ET,+251 11 126 3092,,Mo-Sa 08:00-19:00; Su 00:00-24:00,MoneyGram,Q1944412
73969851,moneygram,BANK OF ABYSSINIA - KOTEBE KIDANEMIHERET,,ADDIS ABABA,,,ET,+251 11 667 1465,,Mo-Sa 08:00-19:00; Su 00:00-24:00,MoneyGram,Q1944412
73969848,moneygram,BANK OF ABYSSINIA - LEMI KURA BRANCH,,ADDIS ABABA,,,ET,+251 11 667 0974,,Mo-Sa 08:00-19:00; Su 00:00-24:00,MoneyGram,Q1944412
73969770,moneygram,BANK OF ABYSSINIA - MOGLE TERARA BRANCH,,SEBETA,,,ET,+251 11 126 3383,,Mo-Sa 08:00-19:00; Su 00:00-24:00,MoneyGram,Q1944412
73969958,moneygram,BANK OF ABYSSINIA - SUMMIT MESKELEGNA BR,,ADDIS ABABA,,,ET,+251 11 667 0955,,Mo-Sa 08:00-19:00; Su 00:00-24:00,MoneyGram,Q1944412
73972709,moneygram,ABAY BANK S C - #195 - AYAT ZONE 3 BRANC,,ADDIS ABABA,,,ET,+251 11 615 1873,,Mo-Sa 08:00-21:00; Su 00:00-24:00,MoneyGram,Q1944412
73972657,moneygram,ABAY BANK S C - #199 - SIGNAL BRANCH,,ADDIS ABABA,,,ET,116686398,,Mo-Sa 08:00-21:00; Su 00:00-24:00,MoneyGram,Q1944412
73972699,moneygram,ABAY BANK S C - #901 - BULBULA MEDHANIAL,,ADDIS ABABA,,,ET,114719393,,Mo-Sa 08:00-21:00; Su 00:00-24:00,MoneyGram,Q1944412
73980429,moneygram,ADDIS INTERNATIONAL BANK - #92 - ATENATE,,ADDIS ABABA,,,ET,112739657,,Mo-Sa 08:00-18:00; Su 00:00-24:00,MoneyGram,Q1944412
74002186,moneygram,ABAY BANK S C - #903 - BULBULA 93 MAZORI,,ADDIS ABABA,,,ET,114719943,,Mo-Sa 08:00-21:00; Su 00:00-24:00,MoneyGram,Q1944412
74036958,moneygram,ENAT BANK - ABAY MADO BRANCH,,BAHIRDAR,,,ET,583201479,,Mo-Su 08:00-19:00,MoneyGram,Q1944412
74036990,moneygram,ENAT BANK - ASSELA BRANCH,,ASSELA,,,ET,222389907,,Mo-Su 08:00-19:00,MoneyGram,Q1944412
74037012,moneygram,ENAT BANK - ASTER GANNO GULELE BR,,ADDIS ABABA,,,ET,112737520,,Mo-Su 08:00-19:00,MoneyGram,Q1944412
74037054,moneygram,ENAT BANK - AYAT TAFO BRANCH,,ADDIS ABABA,,,ET,+251 11 639 0976,,Mo-Su 08:00-19:00,MoneyGram,Q1944412
74036987,moneygram,ENAT BANK - CAPTAIN AMSALE GUALU BR,,ADDIS ABABA,,,ET,115583054,,Mo-Su 08:00-19:00,MoneyGram,Q1944412
74037070,moneygram,ENAT BANK - DEBRE BERHAN TEBASSIE BR,,DEBRE BERHAN,,,ET,116375553,,Mo-Su 08:00-19:00,MoneyGram,Q1944412
74037164,moneygram,ENAT BANK - DESSIE BRANCH,,DESSIE,,,ET,333126441,,Mo-Su 08:00-19:00,MoneyGram,Q1944412
74037038,moneygram,ENAT BANK - DR MULUALEM GESSESSE BR,,ADDIS ABABA,,,ET,116663965,,Mo-Su 08:00-19:00,MoneyGram,Q1944412
74037119,moneygram,ENAT BANK - ENGIDAZER NEGA BR,,ADDIS ABABA,,,ET,115578808,,Mo-Su 08:00-19:00,MoneyGram,Q1944412
74037009,moneygram,ENAT BANK - ETEGE MINTWAB BRANCH,,ADDIS ABABA,,,ET,112735263,,Mo-Su 08:00-19:00,MoneyGram,Q1944412
74037151,moneygram,ENAT BANK - HANA MARIAM BRANCH,,ADDIS ABABA,,,ET,118723356,,Mo-Su 08:00-19:00,MoneyGram,Q1944412
74037041,moneygram,ENAT BANK - HOSSANA BRANCH,,HOSSANA,,,ET,+251 11 330 2067,,Mo-Su 08:00-19:00,MoneyGram,Q1944412
74037067,moneygram,ENAT BANK - INJIBARA BRANCH,,INJIBARA,,,ET,+251 58 227 1432,,Mo-Su 08:00-19:00,MoneyGram,Q1944412
74036932,moneygram,ENAT BANK - MARIA MUNIR BOLE MICHAEL,,ADDIS ABABA,,,ET,118722454,,Mo-Su 08:00-19:00,MoneyGram,Q1944412
74037025,moneygram,ENAT BANK - NIGEST ZEWDITU BRANCH,,ADDIS ABABA,,,ET,112739661,,Mo-Su 08:00-19:00,MoneyGram,Q1944412
74036961,moneygram,ENAT BANK - SARBET BRANCH,,ADDIS ABABA,,,ET,113809077,,Mo-Su 08:00-19:00,MoneyGram,Q1944412
74037106,moneygram,ENAT BANK - TULU DIMTU BRANCH,,ADDIS ABABA,,,ET,114716907,,Mo-Su 08:00-19:00,MoneyGram,Q1944412
74036974,moneygram,ENAT BANK - WOLKITE BRANCH,,WOLKITE,,,ET,+251 11 330 2998,,Mo-Su 08:00-19:00,MoneyGram,Q1944412
74037122,moneygram,ENAT BANK - WORETA BRANCH,,WORETA,,,ET,+251 58 446 1318,,Mo-Su 08:00-19:00,MoneyGram,Q1944412
74043064,moneygram,ABAY BANK S C - #342 - DUKEM BRANCH,,DUKEM,,,ET,115251525,,Mo-Sa 08:00-21:00; Su 00:00-24:00,MoneyGram,Q1944412
74043048,moneygram,ABAY BANK S C - #343 - MEKI BRANCH,,MEKI,,,ET,252783226,,Mo-Sa 08:00-21:00; Su 00:00-24:00,MoneyGram,Q1944412
74067396,moneygram,ABAY BANK S C - #905 - YEKA MICHAEL BRAN,,ADDIS ABABA,,,ET,113624589,,Mo-Sa 08:00-21:00; Su 00:00-24:00,MoneyGram,Q1944412
74067309,moneygram,BANK OF ABYSSINIA - BORU JAWI BRANCH,,BORU JAWI,,,ET,222121404,,Mo-Sa 08:00-19:00; Su 00:00-24:00,MoneyGram,Q1944412
74067053,moneygram,BANK OF ABYSSINIA - CMC MICHAEL BRANCH,,ADDIS ABABA,,,ET,+251 11 667 0955,,Mo-Sa 08:00-19:00; Su 00:00-24:00,MoneyGram,Q1944412
74067260,moneygram,BANK OF ABYSSINIA - KALITY GUMURUK BRANC,,ADDIS ABABA,,,ET,+251 11 667 0910,,Mo-Sa 08:00-19:00; Su 00:00-24:00,MoneyGram,Q1944412
74067118,moneygram,BANK OF ABYSSINIA - MERKATO SHERA TERA B,,ADDIS ABABA,,,ET,+251 11 126 3092,,Mo-Sa 08:00-19:00; Su 00:00-24:00,MoneyGram,Q1944412
74067341,moneygram,BANK OF ABYSSINIA - MERWA BRABCH,,ADDIS ABABA,,,ET,+251 11 126 3221,,Mo-Sa 08:00-19:00; Su 00:00-24:00,MoneyGram,Q1944412
74067231,moneygram,BANK OF ABYSSINIA - TIYO BRANCH,,ASSELA,,,ET,222384444,,Mo-Sa 08:00-19:00; Su 00:00-24:00,MoneyGram,Q1944412
74071900,moneygram,ENAT BANK - ADAMA BOSET BRANCH,,ADAMA,,,ET,222120665,,Mo-Su 08:00-19:00,MoneyGram,Q1944412
74071887,moneygram,ENAT BANK - ARERTI,,ARERTI,,,ET,+251 22 223 0370,,Mo-Su 08:00-19:00,MoneyGram,Q1944412
74071968,moneygram,ENAT BANK - DOCTOR SEGENET KELEMU LAMBER,,ADDIS ABABA,,,ET,115587520,,Mo-Su 08:00-19:00,MoneyGram,Q1944412
74071861,moneygram,ENAT BANK - JEMO,,ADDIS ABABA,,,ET,114625816,,Mo-Su 08:00-19:00,MoneyGram,Q1944412
74071890,moneygram,ENAT BANK - LAUREATE ARTIST DESTA HAGOS,,ADDIS ABABA,,,ET,113692446,,Mo-Su 08:00-19:00,MoneyGram,Q1944412
74071874,moneygram,ENAT BANK - LAUREATE SR TIBEBE MACO SUMM,,ADDIS ABABA,,,ET,116688581,,Mo-Su 08:00-19:00,MoneyGram,Q1944412
74071832,moneygram,ENAT BANK - MARTA GEBRETSADIK WOLLO SEFE,,ADDIS ABABA,,,ET,114700918,,Mo-Su 08:00-19:00,MoneyGram,Q1944412
74071845,moneygram,ENAT BANK - SISTER ZENAWIT AYELE WOSSEN,,ADDIS ABABA,,,ET,116680467,,Mo-Su 08:00-19:00,MoneyGram,Q1944412
74071913,moneygram,ENAT BANK - SULULTA,,SULULTA,,,ET,111617842,,Mo-Su 08:00-19:00,MoneyGram,Q1944412
74071955,moneygram,ENAT BANK - ZEMI YENUS FIGA,,ADDIS ABABA,,,ET,115588348,,Mo-Su 08:00-19:00,MoneyGram,Q1944412
74103218,moneygram,ENAT BANK - DR ARTIST NEGATWA KELKAY BEK,,ADDIS ABABA,,,ET,115588348,,Mo-Su 08:00-19:00,MoneyGram,Q1944412
74103205,moneygram,ENAT BANK - FATUMA ROBA FURI,,SEBETA,,,ET,112457396,,Mo-Su 08:00-19:00,MoneyGram,Q1944412
74103221,moneygram,ENAT BANK - ZEWDITU MESHESHA KARA,,ADDIS ABABA,,,ET,115587520,,Mo-Su 08:00-19:00,MoneyGram,Q1944412
74121614,moneygram,ABAY BANK S C - #350 - ADAMA BOKU BRANCH,,ADAMA,,,ET,113624584,,Mo-Sa 08:00-21:00; Su 00:00-24:00,MoneyGram,Q1944412
74121591,moneygram,ABAY BANK S C - #475 - MAJETE BRANCH,,MAJETE,,,ET,333162210,,Mo-Sa 08:00-21:00; Su 00:00-24:00,MoneyGram,Q1944412
74121588,moneygram,ABAY BANK S C - #476 - RABEL BRANCH,,RABEL,,,ET,334110063,,Mo-Sa 08:00-21:00; Su 00:00-24:00,MoneyGram,Q1944412
74121601,moneygram,ABAY BANK S C - #912 - HANA MARIYAM BRAN,,ADDIS ABABA,,,ET,114711606,,Mo-Sa 08:00-21:00; Su 00:00-24:00,MoneyGram,Q1944412
74144594,moneygram,ABAY BANK S C - #351 - REMA BRANCH,,REMA,,,ET,114642166,,Mo-Sa 08:00-21:00; Su 00:00-24:00,MoneyGram,Q1944412
74144565,moneygram,ABAY BANK S C - #352 - RASSA BRANCH,,RASSA,,,ET,114556448,,Mo-Sa 08:00-21:00; Su 00:00-24:00,MoneyGram,Q1944412
74144578,moneygram,ABAY BANK S C - #353 - WOLISO BRANCH,,WOLISO,,,ET,334554864,,Mo-Sa 08:00-21:00; Su 00:00-24:00,MoneyGram,Q1944412
74148273,moneygram,ENAT BANK - FIRMAYE ALEMU SARIS HADID GE,,ADDIS ABABA,,,ET,115588348,,Mo-Su 08:00-19:00,MoneyGram,Q1944412
74166051,moneygram,ABAY BANK S C - #357 - LEGETAFO BRANCH,,LEGE T'AFO,,,ET,116498964,,Mo-Sa 08:00-21:00; Su 00:00-24:00,MoneyGram,Q1944412
74166048,moneygram,ABAY BANK S C - #359 - SHOLLA GEBEYA BRA,,ADDIS ABABA,,,ET,115499892,,Mo-Sa 08:00-21:00; Su 00:00-24:00,MoneyGram,Q1944412
74166077,moneygram,ABAY BANK S C - #360 - SULULTA BRANCH,,SULULTA,,,ET,+251 11 465 4648,,Mo-Sa 08:00-21:00; Su 00:00-24:00,MoneyGram,Q1944412
74165984,moneygram,ABAY BANK S C - #914 - ARADA GIORGIS BRA,,ADDIS ABABA,,,ET,112401453,,Mo-Sa 08:00-21:00; Su 00:00-24:00,MoneyGram,Q1944412
74165997,moneygram,ABAY BANK S C - #916 - ASKO MENEHARIYA B,,ADDIS ABABA,,,ET,112514954,,Mo-Sa 08:00-21:00; Su 00:00-24:00,MoneyGram,Q1944412
74168460,moneygram,ADDIS INTERNATIONAL BANK - #101 - GOTERA,,ADDIS ABABA,,,ET,114709214,,Mo-Sa 08:00-18:00; Su 00:00-24:00,MoneyGram,Q1944412
74168473,moneygram,ADDIS INTERNATIONAL BANK - #102 - LEM HA,,ADDIS ABABA,,,ET,118276016,,Mo-Sa 08:00-18:00; Su 00:00-24:00,MoneyGram,Q1944412
74168486,moneygram,ADDIS INTERNATIONAL BANK - #103 - GOFA B,,ADDIS ABABA,,,ET,114702144,,Mo-Sa 08:00-18:00; Su 00:00-24:00,MoneyGram,Q1944412
74168499,moneygram,ADDIS INTERNATIONAL BANK - #104 - SEBETA,,SEBETA,,,ET,113662415,,Mo-Sa 08:00-18:00; Su 00:00-24:00,MoneyGram,Q1944412
74168509,moneygram,ADDIS INTERNATIONAL BANK - #105 - ARERTI,,ARERTI,,,ET,122230756,,Mo-Sa 08:00-18:00; Su 00:00-24:00,MoneyGram,Q1944412
74168512,moneygram,ADDIS INTERNATIONAL BANK - #106 - TEBASS,,DEBRE BIRHAN,,,ET,118722300,,Mo-Sa 08:00-18:00; Su 00:00-24:00,MoneyGram,Q1944412
74168525,moneygram,ADDIS INTERNATIONAL BANK - #107 - KALITY,,ADDIS ABABA,,,ET,114720646,,Mo-Sa 08:00-18:00; Su 00:00-24:00,MoneyGram,Q1944412
74195213,moneygram,ABAY BANK S C - #199 - SIGNAL BRANCH,,ADDIS ABABA,,,ET,335412346,,Mo-Sa 08:00-21:00; Su 00:00-24:00,MoneyGram,Q1944412
74195190,moneygram,ABAY BANK S C - #481 - KON BRANCH,,KON,,,ET,334665965,,Mo-Sa 08:00-21:00; Su 00:00-24:00,MoneyGram,Q1944412
74249680,moneygram,LION INTERNATIONAL BANK S.C. - AYER TENA,,ADDIS ABABA,,,ET,109270975,,Mo-Sa 08:00-19:00; Su 00:00-24:00,MoneyGram,Q1944412
74249020,moneygram,LION INTERNATIONAL BANK S.C. - GORO,,ADDIS ABABA,,,ET,109270975,,Mo-Sa 08:00-19:00; Su 00:00-24:00,MoneyGram,Q1944412
74317729,moneygram,ABAY BANK S C - #105 - ABAY SEDIQ KOLFE,,ADDIS ABABA,,,ET,+251 11 125 7893,,Mo-Su 08:00-21:00,MoneyGram,Q1944412
74313781,moneygram,ABAY BANK S C - #365 - HIRNA BRANCH,,HIRNA,,,ET,114545747,,Mo-Sa 08:00-21:00; Su 00:00-24:00,MoneyGram,Q1944412
74313707,moneygram,ABAY BANK S C - #918 - ZENEBEWORK BRANCH,,ADDIS ABABA,,,ET,113451244,,Mo-Sa 08:00-21:00; Su 00:00-24:00,MoneyGram,Q1944412
74313710,moneygram,ABAY BANK S C - #920 - MEHAL GERJI BRANC,,ADDIS ABABA,,,ET,117456548,,Mo-Sa 08:00-21:00; Su 00:00-24:00,MoneyGram,Q1944412
74317716,moneygram,ABAY BANK S C - #922 - SEMEN MEZEGAJA BR,,ADDIS ABABA,,,ET,+251 11 125 4875,,Mo-Su 08:00-21:00,MoneyGram,Q1944412
74317745,moneygram,ABAY BANK S C - #926 - AKAKI GEBEYA BRAN,,ADDIS ABABA,,,ET,112110114,,Mo-Su 08:00-21:00,MoneyGram,Q1944412
74326613,moneygram,ABAY BANK S.C - #931 - KAZANCHIS BRANCH,,ADDIS ABABA,,,ET,+251 11 550 1106,,Mo-Sa 08:00-21:00; Su 00:00-24:00,MoneyGram,Q1944412
74290752,moneygram,ENAT BANK - DR TEGUEST GUERMA WUHALIMAT,,ADDIS ABABA,,,ET,115588348,,Mo-Su 08:00-19:00,MoneyGram,Q1944412
74290765,moneygram,ENAT BANK - DUKEM,,DUKEM,,,ET,114719015,,Mo-Su 08:00-19:00,MoneyGram,Q1944412
74374021,moneygram,ABAY BANK S.C - #939 - GORO GEBRIEL BRAN,,ADDIS ABABA,,,ET,203333387,,Mo-Sa 08:00-21:00; Su 00:00-24:00,MoneyGram,Q1944412
74404043,moneygram,ABAY BANK S.C - #942 - MEHAL WOSSEN BRAN,,ADISS ABABA,,,ET,116681070,,Mo-Sa 08:00-21:00; Su 00:00-24:00,MoneyGram,Q1944412
74404056,moneygram,ABAY BANK S.C - #945 - WOLETE BRANCH,,SEBETA,,,ET,111914478,,Mo-Sa 08:00-21:00; Su 00:00-24:00,MoneyGram,Q1944412
74404085,moneygram,ABAY BANK S.C - #946 - TULU JEMO BRANCH,,BURAYU,,,ET,402601330,,Mo-Sa 08:00-21:00; Su 00:00-24:00,MoneyGram,Q1944412
74404072,moneygram,ABAY BANK S.C - #947 - HAILE GAREMENT BR,,ADISS ABABA,,,ET,123135459,,Mo-Sa 08:00-21:00; Su 00:00-24:00,MoneyGram,Q1944412
74423202,moneygram,ABAY BANK S.C - #382 - GIBE BRANCH,,JIMMA,,,ET,205856981,,Mo-Sa 08:00-21:00; Su 00:00-24:00,MoneyGram,Q1944412
74425129,moneygram,ABAY BANK S.C - #952 - KIDIST SELASSIE B,,ADDIS ABABA,,,ET,222465608,,Mo-Sa 08:00-21:00; Su 00:00-24:00,MoneyGram,Q1944412
74412873,moneygram,BANK OF ABYSSINIA - ADDIS ABABA SUB BRAN,,ADDIS ABABA,,,ET,+251 11 667 0913,,Mo-Sa 08:00-19:00; Su 00:00-24:00,MoneyGram,Q1944412
74413021,moneygram,BANK OF ABYSSINIA - BOLE ATLAS BRANCH,,ADDIS ABABA,,,ET,+251 11 667 0974,,Mo-Sa 08:00-19:00; Su 00:00-24:00,MoneyGram,Q1944412
74412970,moneygram,BANK OF ABYSSINIA - GERMAN ADEBABAY BR,,ADDIS ABABA,,,ET,+251 11 126 3248,,Mo-Sa 08:00-19:00; Su 00:00-24:00,MoneyGram,Q1944412
74413063,moneygram,BANK OF ABYSSINIA - LANCHA BRANCH,,ADDIS ABABA,,,ET,+251 11 667 1672,,Mo-Sa 08:00-19:00; Su 00:00-24:00,MoneyGram,Q1944412
74412886,moneygram,BANK OF ABYSSINIA - SARIS 58 BRANCH,,ADDIS ABABA,,,ET,+251 11 667 1974,,Mo-Sa 08:00-19:00; Su 00:00-24:00,MoneyGram,Q1944412
74416222,moneygram,LION INTERNATIONAL BANK S.C - ABAJIFAR,,JIMMA,,,ET,049457726,,Mo-Sa 08:00-19:00; Su 00:00-24:00,MoneyGram,Q1944412
74443907,moneygram,BANK OF ABYSSINIA - HAYA ARAT BRANCH,,ADDIS ABABA,,,ET,116667095,,Mo-Sa 08:00-19:00; Su 00:00-24:00,MoneyGram,Q1944412
74444016,moneygram,BANK OF ABYSSINIA - MEHAL GERJI BRANCH,,ADDIS ABABA,,,ET,+251 11 667 1818,,Mo-Sa 08:00-19:00; Su 00:00-24:00,MoneyGram,Q1944412
74443978,moneygram,BANK OF ABYSSINIA - MERI SUMMIT BRANCH,,ADDIS ABABA,,,ET,+251 11 667 1827,,Mo-Sa 08:00-19:00; Su 00:00-24:00,MoneyGram,Q1944412
74464627,moneygram,ABAY BANK S.C - #A06 - SUMMIT SAFARI BRA,,ADDIS ABABA,,,ET,326679864,,Mo-Sa 08:00-21:00; Su 00:00-24:00,MoneyGram,Q1944412
74468487,moneygram,ABAY BANK S.C - #A08 - KUAS MEDA BRANCH,,ADDIS ABABA,,,ET,100575620,,Mo-Sa 08:00-21:00; Su 00:00-24:00,MoneyGram,Q1944412
74468500,moneygram,ABAY BANK S.C - #A10 - GOFFA CAMP BRANCH,,ADDIS ABABA,,,ET,204703677,,Mo-Sa 08:00-21:00; Su 00:00-24:00,MoneyGram,Q1944412
74467543,moneygram,BANK OF ABYSSINIA - BOLE DILDIY BRANCH,,ADDIS ABBA,,,ET,+251 11 667 1436,,Mo-Sa 08:00-19:00; Su 00:00-24:00,MoneyGram,Q1944412
74467462,moneygram,BANK OF ABYSSINIA - BURAYU KELA BRANCH,,BURAYU,,,ET,+251 11 126 3092,,Mo-Sa 08:00-19:00; Su 00:00-24:00,MoneyGram,Q1944412
74467530,moneygram,BANK OF ABYSSINIA - HAILE MARIAM MAMO BR,,DEBRE BIRHAN,,,ET,+251 11 667 0974,,Mo-Sa 08:00-19:00; Su 00:00-24:00,MoneyGram,Q1944412
74467475,moneygram,BANK OF ABYSSINIA - ILRI BRANCH,,ADDIS ABBA,,,ET,+251 11 667 0955,,Mo-Sa 08:00-19:00; Su 00:00-24:00,MoneyGram,Q1944412
74474015,moneygram,ABAY BANK S.C - #A12 - AWARE BRANCH,,ADDIS ABABA,,,ET,341260131,,Mo-Sa 08:00-21:00; Su 00:00-24:00,MoneyGram,Q1944412
74490264,moneygram,ABAY BANK S.C - #25 - ABAY SADIK FURI,,SEBETA,,,ET,133390117,,Mo-Sa 08:00-21:00; Su 00:00-24:00,MoneyGram,Q1944412
74490248,moneygram,ABAY BANK S.C - #954 - SHIRO MEDA,,ADDIS ABABA,,,ET,300292050,,Mo-Sa 08:00-21:00; Su 00:00-24:00,MoneyGram,Q1944412
74525579,moneygram,ABAY BANK S.C - #956 - KALITY GEBRIEL,,ADDIS ABABA,,,ET,620064765,,Mo-Sa 08:00-21:00; Su 00:00-24:00,MoneyGram,Q1944412
74525566,moneygram,ABAY BANK S.C - #958 - KALITY CHERALIA,,ADDIS ABABA,,,ET,112895622,,Mo-Sa 08:00-21:00; Su 00:00-24:00,MoneyGram,Q1944412
74542031,moneygram,BANK OF ABYSSINIA - AIRPORT TERMINAL BRA,,ADDIS ABABA,,,ET,+251 11 667 1827,,Mo-Sa 08:00-19:00; Su 00:00-24:00,MoneyGram,Q1944412
74550353,moneygram,ABAY BANK S.C - #101 - IBD BRANCH,,ADDIS ABABA,,,ET,121552885,,Mo-Sa 08:00-21:00; Su 00:00-24:00,MoneyGram,Q1944412
74569962,moneygram,ENAT BANK - BAHIR DAR DEPO,,BAHIR DAR,,,ET,115588348,,Mo-Su 08:00-19:00,MoneyGram,Q1944412
74569959,moneygram,ENAT BANK - BURE,,BURE,,,ET,115588348,,Mo-Su 08:00-19:00,MoneyGram,Q1944412
74570003,moneygram,ENAT BANK - DR TEWABECH BISHAW GOFFA GEB,,ADDIS ABEBA,,,ET,115588348,,Mo-Su 08:00-19:00,MoneyGram,Q1944412
74570016,moneygram,ENAT BANK - HARAR ARATEGNA,,HARAR,,,ET,115588348,,Mo-Su 08:00-19:00,MoneyGram,Q1944412
74569975,moneygram,ENAT BANK - MIZAN TEFERI,,MIZAN TEFERI,,,ET,115588348,,Mo-Su 08:00-19:00,MoneyGram,Q1944412
74569991,moneygram,ENAT BANK - NOV TSEHAY MELAKU ADDEY ABEB,,ADDIS ABEBA,,,ET,115588348,,Mo-Su 08:00-19:00,MoneyGram,Q1944412
74569988,moneygram,ENAT BANK - TARCHA,,TARCHA,,,ET,115588348,,Mo-Su 08:00-19:00,MoneyGram,Q1944412
74576625,moneygram,ABAY BANK S.C - #A19 - SARIS ADEY ABEBA,,ADDIS ABABA,,,ET,+251 11 155 2998,,Mo-Sa 08:00-21:00; Su 00:00-24:00,MoneyGram,Q1944412
74635812,moneygram,ABAY BANK S.C - #960 - LOMI MEDA BRANCH,,ADDIS ABABA,,,ET,100689611,,Mo-Sa 08:00-21:00; Su 00:00-24:00,MoneyGram,Q1944412
74637645,moneygram,ABAY BANK S.C - #27 - ABAY SADIK JAFAR M,,ADDIS ABABA,,,ET,117855784,,Mo-Sa 08:00-21:00; Su 00:00-24:00,MoneyGram,Q1944412
74637658,moneygram,ABAY BANK S.C - #964 - SEBARA BABUR BRAN,,ADDIS ABABA,,,ET,131266228,,Mo-Sa 08:00-21:00; Su 00:00-24:00,MoneyGram,Q1944412
74637690,moneygram,ABAY BANK S.C - #A22 - KOLFE 18 MAZORIA,,ADDIS ABABA,,,ET,561169264,,Mo-Sa 08:00-21:00; Su 00:00-24:00,MoneyGram,Q1944412
74643804,moneygram,BANK OF ABYSSINIA - JAKROS BRANCH,,ADDIS ABABA,,,ET,+251 11 667 0974,,Mo-Sa 08:00-19:00; Su 00:00-24:00,MoneyGram,Q1944412
74643969,moneygram,BANK OF ABYSSINIA - MEBRAT HAYL CONDOM B,,ADDIS ABABA,,,ET,+251 11 667 1974,,Mo-Sa 08:00-19:00; Su 00:00-24:00,MoneyGram,Q1944412
74643859,moneygram,BANK OF ABYSSINIA - MEHAL ARABSA BRANCH,,ADDIS ABABA,,,ET,+251 11 667 0955,,Mo-Sa 08:00-19:00; Su 00:00-24:00,MoneyGram,Q1944412
74643888,moneygram,BANK OF ABYSSINIA - MINALESH TERA BRANCH,,ADDIS ABABA,,,ET,+251 11 126 3092,,Mo-Sa 08:00-19:00; Su 00:00-24:00,MoneyGram,Q1944412
74643956,moneygram,BANK OF ABYSSINIA - SALO GORA BRANCH,,ADDIS ABABA,,,ET,+251 11 667 0913,,Mo-Sa 08:00-19:00; Su 00:00-24:00,MoneyGram,Q1944412
74661747,moneygram,ABAY BANK S.C - #966 - W/RO ETHIOPIA TAD,,ADDIS ABABA,,,ET,120589563,,Mo-Sa 08:00-21:00; Su 00:00-24:00,MoneyGram,Q1944412
74667068,moneygram,BANK OF ABYSSINIA - ADDIS ABABA - HABESH,,ADDIS ABABA,,,ET,+251 11 662 5566,,24/7,MoneyGram,Q1944412
74650651,moneygram,BANK OF ABYSSINIA - CONTACT CENTER,,ADDIS ABABA,,,ET,+251 11 662 5566,,24/7,MoneyGram,Q1944412
74687226,moneygram,ABAY BANK S.C - #970 - HAYAT TAFO BRANCH,,ADISS ABABA,,,ET,12920534556,,Mo-Sa 08:00-21:00; Su 00:00-24:00,MoneyGram,Q1944412
74687200,moneygram,ABAY BANK S.C - #968 - BETEL MICHAEL BRA,,ADISS ABABA,,,ET,11923038758,,Mo-Sa 08:00-21:00; Su 00:00-24:00,MoneyGram,Q1944412
74698176,moneygram,ENAT BANK - ADDIS ABABA - ETENESH WONDMA,,ADDIS ABABA,,,ET,115588348,,Mo-Su 08:00-19:00,MoneyGram,Q1944412
74698202,moneygram,ENAT BANK - ADDIS ABABA - PROF FETIEN AB,,ADDIS ABABA,,,ET,115588348,,Mo-Su 08:00-19:00,MoneyGram,Q1944412
74698163,moneygram,ENAT BANK - ADDIS ABABA - DR ARTIST ASTE,,ADDIS ABABA,,,ET,115588348,,Mo-Su 08:00-19:00,MoneyGram,Q1944412
74698150,moneygram,ENAT BANK - BURAYU - BURAYU,,BURAYU,,,ET,115588348,,Mo-Su 08:00-19:00,MoneyGram,Q1944412
74698189,moneygram,ENAT BANK - ADAMA - ADAMA BOKU SHENEN,,ADAMA,,,ET,115588348,,Mo-Su 08:00-19:00,MoneyGram,Q1944412
74698215,moneygram,ENAT BANK - WOLDIA - WOLDIA,,WOLDIA,,,ET,115588348,,Mo-Su 08:00-19:00,MoneyGram,Q1944412
74698192,moneygram,ENAT BANK - JINKA - JINKA,,JINKA,,,ET,115588348,,Mo-Su 08:00-19:00,MoneyGram,Q1944412
74698228,moneygram,ENAT BANK - BATU - BATU,,BATU,,,ET,115588348,,Mo-Su 08:00-19:00,MoneyGram,Q1944412
74719712,moneygram,LION INTERNATIONAL BANK S.C - KUKUFTO,,KUKUFTO,,,ET,6629702,,Mo-Sa 08:00-19:00; Su 00:00-24:00,MoneyGram,Q1944412
74719770,moneygram,LION INTERNATIONAL BANK S.C - ABA JIFAR,,JIMMA,,,ET,6629702,,Mo-Sa 08:00-19:00; Su 00:00-24:00,MoneyGram,Q1944412
74719754,moneygram,LION INTERNATIONAL BANK S.C - WEYNI,,WEYNI,,,ET,6629702,,Mo-Sa 08:00-19:00; Su 00:00-24:00,MoneyGram,Q1944412
74719709,moneygram,LION INTERNATIONAL BANK S.C - TSIRA,,AGULAE,,,ET,6629702,,Mo-Sa 08:00-19:00; Su 00:00-24:00,MoneyGram,Q1944412
74719699,moneygram,LION INTERNATIONAL BANK S.C - MOGOSA,,WUKRO,,,ET,6629702,,Mo-Sa 08:00-19:00; Su 00:00-24:00,MoneyGram,Q1944412
74719725,moneygram,LION INTERNATIONAL BANK S.C - SUHUL SHIR,,SHIRE ENDESELASSIE,,,ET,6629702,,Mo-Sa 08:00-19:00; Su 00:00-24:00,MoneyGram,Q1944412
74719767,moneygram,LION INTERNATIONAL BANK S.C - BONGA,,BONGA,,,ET,6629702,,Mo-Sa 08:00-19:00; Su 00:00-24:00,MoneyGram,Q1944412
74719738,moneygram,LION INTERNATIONAL BANK S.C - GUYA,,GUYA,,,ET,6629702,,Mo-Sa 08:00-19:00; Su 00:00-24:00,MoneyGram,Q1944412
74719741,moneygram,LION INTERNATIONAL BANK S.C - GURORO,,GURORO,,,ET,6629702,,Mo-Sa 08:00-19:00; Su 00:00-24:00,MoneyGram,Q1944412
74719686,moneygram,LION INTERNATIONAL BANK S.C - AGARO,,AGARO,,,ET,6629702,,Mo-Sa 08:00-19:00; Su 00:00-24:00,MoneyGram,Q1944412
74743267,moneygram,ABAY BANK S.C - #972 - GARMENT 72 BRANCH,,ADDIS ABABA,,,ET,044754531,,Mo-Sa 08:00-21:00; Su 00:00-24:00,MoneyGram,Q1944412
74743241,moneygram,ABAY BANK S.C - #975 - SAINT RAPHAEL BRA,,ADDIS ABABA,,,ET,200721376,,Mo-Sa 08:00-21:00; Su 00:00-24:00,MoneyGram,Q1944412
74748440,moneygram,ABAY BANK S.C - #980 - GORRO SEFERA BRAN,,ADDIS ABABA,,,ET,290836746,,Mo-Sa 08:00-21:00; Su 00:00-24:00,MoneyGram,Q1944412
74768763,moneygram,ABAY BANK S.C - #982 - KARANIYO MEDHANIA,,ADDIS ABABA,,,ET,292192625,,Mo-Sa 08:00-21:00; Su 00:00-24:00,MoneyGram,Q1944412
74768077,moneygram,ENAT BANK - HADERO - HADERO,,HADERO,,,ET,115588348,,Mo-Su 08:00-19:00,MoneyGram,Q1944412
74768093,moneygram,ENAT BANK - DURAME - DURAME,,DURAME,,,ET,115588348,,Mo-Su 08:00-19:00,MoneyGram,Q1944412
74768080,moneygram,ENAT BANK - HOSSANA - HOSSANA GOMBORA,,HOSSANA,,,ET,115588348,,Mo-Su 08:00-19:00,MoneyGram,Q1944412
74809305,moneygram,ABAY BANK S.C - #A36 - ENTOTO KIDANE MEH,,ADDIS ABABA,,,ET,111456235,,Mo-Sa 08:00-21:00; Su 00:00-24:00,MoneyGram,Q1944412
74818040,moneygram,BANK OF ABYSSINIA - ASSELLA - ARSI BRANC,,ASSELLA,,,ET,222121407,,Mo-Sa 08:00-19:00; Su 00:00-24:00,MoneyGram,Q1944412
74818118,moneygram,BANK OF ABYSSINIA - ADDIS ABABA - WOSSEN,,ADDIS ABABA,,,ET,+251 11 667 1818,,Mo-Sa 08:00-19:00; Su 00:00-24:00,MoneyGram,Q1944412
74818095,moneygram,BANK OF ABYSSINIA - ADDIS ABABA - BULBUL,,ADDIS ABABA,,,ET,+251 11 667 1827,,Mo-Sa 08:00-19:00; Su 00:00-24:00,MoneyGram,Q1944412
74818053,moneygram,BANK OF ABYSSINIA - ADAMA - BULUKO BRANC,,ADAMA,,,ET,222123479,,Mo-Sa 08:00-19:00; Su 00:00-24:00,MoneyGram,Q1944412
74833520,moneygram,ENAT BANK - ADDIS ABABA - TSEHAY ROESCHL,,ADDIS ABABA,,,ET,115588348,,Mo-Su 08:00-19:00,MoneyGram,Q1944412
74833614,moneygram,ENAT BANK - JIMMA - JIMMA MENEHARIA,,JIMMA,,,ET,115588348,,Mo-Su 08:00-19:00,MoneyGram,Q1944412
74833591,moneygram,ENAT BANK - MEKELE - MEKELE ADI HAWSI,,MEKELE,,,ET,115588348,,Mo-Su 08:00-19:00,MoneyGram,Q1944412
74833562,moneygram,ENAT BANK - HASSASA - HASSASA,,HASSASA,,,ET,115588348,,Mo-Su 08:00-19:00,MoneyGram,Q1944412
74833601,moneygram,ENAT BANK - MEKELE - MEKELE ADIHA,,MEKELE,,,ET,115588348,,Mo-Su 08:00-19:00,MoneyGram,Q1944412
74833559,moneygram,ENAT BANK - DODOLA - DODOLA,,DODOLA,,,ET,115588348,,Mo-Su 08:00-19:00,MoneyGram,Q1944412
74833575,moneygram,ENAT BANK - SEBETA - SEBETA,,SEBETA,,,ET,115588348,,Mo-Su 08:00-19:00,MoneyGram,Q1944412
74833588,moneygram,ENAT BANK - SEBETA - WELETE,,SEBETA,,,ET,115588348,,Mo-Su 08:00-19:00,MoneyGram,Q1944412
74833533,moneygram,ENAT BANK - WOLISO - WOLISO,,WOLISO,,,ET,115588348,,Mo-Su 08:00-19:00,MoneyGram,Q1944412
74833546,moneygram,ENAT BANK - ARSI NEGELE - NEGELE ARSI,,ARSI NEGELE,,,ET,115588348,,Mo-Su 08:00-19:00,MoneyGram,Q1944412
72690590,moneygram,BANK OF ABYSSINIA - IBBSUPPORT DIVISION,,ADDIS ABABA,,,ET,115319126,,Mo-Sa 08:00-19:00; Su 00:00-24:00,MoneyGram,Q1944412
74841211,moneygram,COOPERATIVE BANK OF OROMIA - ADDIS ABABA,,ADDIS ABABA,,,ET,+251 91 985 1448,,Mo-Su 08:00-20:00,MoneyGram,Q1944412
74840681,moneygram,COOPERATIVE BANK OF OROMIA - ADDIS ABABA,,ADDIS ABABA,,,ET,+251 92 359 1694,,Mo-Su 08:00-20:00,MoneyGram,Q1944412
74840267,moneygram,COOPERATIVE BANK OF OROMIA - LAGA TAFO -,,LAGA TAFO,,,ET,+251 91 274 0539,,Mo-Su 08:00-20:00,MoneyGram,Q1944412
74840377,moneygram,COOPERATIVE BANK OF OROMIA - WABARI - WA,,WABARI,,,ET,+251 94 127 3761,,Mo-Su 08:00-20:00,MoneyGram,Q1944412
74840856,moneygram,COOPERATIVE BANK OF OROMIA - ADDIS ABABA,,ADDIS ABABA,,,ET,+251 91 109 2659,,Mo-Su 08:00-20:00,MoneyGram,Q1944412
74840241,moneygram,COOPERATIVE BANK OF OROMIA - SULULTA - T,,SULULTA,,,ET,+251 92 180 1255,,Mo-Su 08:00-20:00,MoneyGram,Q1944412
74840238,moneygram,COOPERATIVE BANK OF OROMIA - ADDIS ABABA,,ADDIS ABABA,,,ET,+251 91 170 4292,,Mo-Su 08:00-20:00,MoneyGram,Q1944412
74840678,moneygram,COOPERATIVE BANK OF OROMIA - ADDIS ABABA,,ADDIS ABABA,,,ET,+251 91 980 1119,,Mo-Su 08:00-20:00,MoneyGram,Q1944412
74840296,moneygram,COOPERATIVE BANK OF OROMIA - BURAYU - AB,,BURAYU,,,ET,+251 92 394 1458,,Mo-Su 08:00-20:00,MoneyGram,Q1944412
74840445,moneygram,COOPERATIVE BANK OF OROMIA - ADDIS ABABA,,ADDIS ABABA,,,ET,+251 91 019 7461,,Mo-Su 08:00-20:00,MoneyGram,Q1944412
74840322,moneygram,COOPERATIVE BANK OF OROMIA - BURAYU - LE,,BURAYU,,,ET,+251 91 574 6084,,Mo-Su 08:00-20:00,MoneyGram,Q1944412
74840270,moneygram,COOPERATIVE BANK OF OROMIA - ADDIS ABABA,,ADDIS ABABA,,,ET,+251 91 073 4207,,Mo-Su 08:00-20:00,MoneyGram,Q1944412
74840319,moneygram,COOPERATIVE BANK OF OROMIA - KOLOBO - KO,,KOLOBO,,,ET,+251 91 773 5294,,Mo-Su 08:00-20:00,MoneyGram,Q1944412
74840869,moneygram,COOPERATIVE BANK OF OROMIA - SHENEN TOWN,,SHENEN TOWN,,,ET,+251 92 575 3366,,Mo-Su 08:00-20:00,MoneyGram,Q1944412
74841169,moneygram,COOPERATIVE BANK OF OROMIA - ADDIS ABABA,,ADDIS ABABA,,,ET,+251 92 300 8049,,Mo-Su 08:00-20:00,MoneyGram,Q1944412
74840416,moneygram,COOPERATIVE BANK OF OROMIA - ADDIS ABABA,,ADDIS ABABA,,,ET,+251 91 058 1325,,Mo-Su 08:00-20:00,MoneyGram,Q1944412
74840254,moneygram,COOPERATIVE BANK OF OROMIA - ADDIS ABABA,,ADDIS ABABA,,,ET,+251 91 162 8286,,Mo-Su 08:00-20:00,MoneyGram,Q1944412
74840827,moneygram,COOPERATIVE BANK OF OROMIA - ADDIS ABABA,,ADDIS ABABA,,,ET,+251 92 183 9869,,Mo-Su 08:00-20:00,MoneyGram,Q1944412
74840364,moneygram,COOPERATIVE BANK OF OROMIA - ADDIS ABABA,,ADDIS ABABA,,,ET,+251 92 238 4589,,Mo-Su 08:00-20:00,MoneyGram,Q1944412
74840283,moneygram,COOPERATIVE BANK OF OROMIA - AMBO - BULU,,AMBO,,,ET,+251 91 186 4257,,Mo-Su 08:00-20:00,MoneyGram,Q1944412
74840306,moneygram,COOPERATIVE BANK OF OROMIA - BURAYU - AB,,BURAYU,,,ET,+251 91 182 8759,,Mo-Su 08:00-20:00,MoneyGram,Q1944412
74840393,moneygram,COOPERATIVE BANK OF OROMIA - ADDIS ABABA,,ADDIS ABABA,,,ET,+251 91 285 8011,,Mo-Su 08:00-20:00,MoneyGram,Q1944412
74840432,moneygram,COOPERATIVE BANK OF OROMIA - ADDIS ABABA,,ADDIS ABABA,,,ET,+251 97 553 0291,,Mo-Su 08:00-20:00,MoneyGram,Q1944412
74840348,moneygram,COOPERATIVE BANK OF OROMIA - KUYYU - GAR,,KUYYU,,,ET,+251 93 085 1079,,Mo-Su 08:00-20:00,MoneyGram,Q1944412
74840746,moneygram,COOPERATIVE BANK OF OROMIA - ADDIS ABABA,,ADDIS ABABA,,,ET,+251 92 717 6188,,Mo-Su 08:00-20:00,MoneyGram,Q1944412
74840351,moneygram,COOPERATIVE BANK OF OROMIA - SULULTA - L,,SULULTA,,,ET,+251 91 350 2372,,Mo-Su 08:00-20:00,MoneyGram,Q1944412
74840704,moneygram,COOPERATIVE BANK OF OROMIA - ADDIS ABABA,,ADDIS ABABA,,,ET,+251 91 106 4076,,Mo-Su 08:00-20:00,MoneyGram,Q1944412
74840429,moneygram,COOPERATIVE BANK OF OROMIA - ADDIS ABABA,,ADDIS ABABA,,,ET,+251 91 644 4285,,Mo-Su 08:00-20:00,MoneyGram,Q1944412
74841253,moneygram,COOPERATIVE BANK OF OROMIA - ADDIS ABABA,,ADDIS ABABA,,,ET,+251 91 308 1930,,Mo-Su 08:00-20:00,MoneyGram,Q1944412
74841208,moneygram,COOPERATIVE BANK OF OROMIA - ADDIS ABABA,,ADDIS ABABA,,,ET,+251 91 040 4566,,Mo-Su 08:00-20:00,MoneyGram,Q1944412
72673216,moneygram,BANK OF ABYSSINIA - ENTICHO BRANCH,,ENTICHO,,,ET,344491422,,Mo-Sa 08:00-19:00; Su 00:00-24:00,MoneyGram,Q1944412
72673339,moneygram,BANK OF ABYSSINIA - FITAWRARI AMEDELEMA,,ADDIS ABABA,,,ET,+251 11 667 0942,,Mo-Sa 08:00-19:00; Su 00:00-24:00,MoneyGram,Q1944412
73721484,moneygram,BANK OF ABYSSINIA - SELADINGAY BRANCH,,SELA DINGAY,,,ET,+251 11 667 0955,,Mo-Sa 08:00-19:00; Su 00:00-24:00,MoneyGram,Q1944412
72673180,moneygram,BANK OF ABYSSINIA - HAWZIENBRANCH,,HAWZIEN,,,ET,346670730,,Mo-Sa 08:00-19:00; Su 00:00-24:00,MoneyGram,Q1944412
72673193,moneygram,BANK OF ABYSSINIA - DIASPORA BRANCH,,MEKELE,,,ET,342401629,,Mo-Sa 08:00-19:00; Su 00:00-24:00,MoneyGram,Q1944412
72864960,moneygram,BANK OF ABYSSINIA - AMERICAN GEBI BRANCH,,ADDIS ABABA,,,ET,+251 11 126 3248,,Mo-Sa 08:00-19:00; Su 00:00-24:00,MoneyGram,Q1944412
72690480,moneygram,BANK OF ABYSSINIA - DIL GEBEYA-SUB BRANC,,ADDIS ABABA,,,ET,+251 11 126 3092,,Mo-Sa 08:00-19:00; Su 00:00-24:00,MoneyGram,Q1944412
72015586,moneygram,BANK OF ABYSSINIA - ADDIS ABABA - ATIKIL,,ADDIS ABABA,,,ET,+251 11 126 7308,,Mo-Sa 08:00-19:00; Su 00:00-24:00,MoneyGram,Q1944412
72261068,moneygram,BANK OF ABYSSINIA - ADDIS ABABA - MILLIT,,ADDIS ABABA,,,ET,112733705,,Mo-Sa 08:00-19:00; Su 00:00-24:00,MoneyGram,Q1944412
72673520,moneygram,BANK OF ABYSSINIA - SHIRARO BRANCH,,SHIRARO,,,ET,+251 34 550 1439,,Mo-Sa 08:00-19:00; Su 00:00-24:00,MoneyGram,Q1944412
72673229,moneygram,BANK OF ABYSSINIA - MAYKADRA BRANCH,,MAYKADRA,,,ET,343320455,,Mo-Sa 08:00-19:00; Su 00:00-24:00,MoneyGram,Q1944412
73903189,moneygram,ABAY BANK S C - #458 - LEMI,,LEMI,,,ET,116331468,,Mo-Sa 08:00-21:00; Su 00:00-24:00,MoneyGram,Q1944412
74898390,moneygram,ENAT BANK - ADDIS ABABA - ZENEBEWORK,,ADDIS ABABA,,,ET,115588348,,Mo-Su 08:00-19:00,MoneyGram,Q1944412
74898387,moneygram,ENAT BANK - TEPPI - TEPPI,,TEPPI,,,ET,115588348,,Mo-Su 08:00-19:00,MoneyGram,Q1944412
74898400,moneygram,ENAT BANK - ADDIS ABABA - BERHANE RAS WO,,ADDIS ABABA,,,ET,115588348,,Mo-Su 08:00-19:00,MoneyGram,Q1944412
72261246,moneygram,BANK OF ABYSSINIA - DEBRE BIRHAN - SHEWA,,DEBRE BIRHAN,,,ET,116376587,,Mo-Sa 08:00-19:00; Su 00:00-24:00,MoneyGram,Q1944412
72261181,moneygram,BANK OF ABYSSINIA - MEHAL MEDA - MEHAL M,,MEHAL MEDA,,,ET,115319002,,Mo-Sa 08:00-19:00; Su 00:00-24:00,MoneyGram,Q1944412
74946161,moneygram,ABAY BANK SC - #A49 - ERI BEKENTU BRANCH,,ADDIS ABABA,,,ET,103060968,,Mo-Sa 08:00-21:00; Su 00:00-24:00,MoneyGram,Q1944412
74946158,moneygram,ABAY BANK SC - #A47 - KOTEB LOKE BRANCH,,ADDIS ABABA,,,ET,110488010,,Mo-Sa 08:00-21:00; Su 00:00-24:00,MoneyGram,Q1944412
74945654,moneygram,ABAY BANK SC - #A76 - GORO BRANCH,,ADDIS ABABA,,,ET,122201292,,Mo-Sa 08:00-21:00; Su 00:00-24:00,MoneyGram,Q1944412
74955275,moneygram,BANK OF ABYSSINIA - ADDIS ABABA - ETEGE,,ADDIS ABABA,,,ET,112737948,,Mo-Sa 08:00-19:00; Su 00:00-24:00,MoneyGram,Q1944412
74958146,moneygram,ENAT BANK S.C. - ADDIS ABABA - RAHEL ZEW,,ADDIS ABABA,,,ET,115588348,,Mo-Su 08:00-19:00,MoneyGram,Q1944412
74958191,moneygram,ENAT BANK S.C. - ABI-ADI - ABI ADI,,ABI-ADI,,,ET,115588348,,Mo-Su 08:00-19:00,MoneyGram,Q1944412
74958188,moneygram,ENAT BANK S.C. - MEKELE - MEKELE ADISHEM,,MEKELE,,,ET,115588348,,Mo-Su 08:00-19:00,MoneyGram,Q1944412
74958159,moneygram,ENAT BANK S.C. - ADDIS ABABA - MEKIYA MA,,ADDIS ABABA,,,ET,115588348,,Mo-Su 08:00-19:00,MoneyGram,Q1944412
74958162,moneygram,ENAT BANK S.C. - NEK'EMTE - NEKEMTE,,NEK'EMTE,,,ET,115588348,,Mo-Su 08:00-19:00,MoneyGram,Q1944412
74958175,moneygram,ENAT BANK S.C. - NEK'EMTE - NEKEMTE JITU,,NEK'EMTE,,,ET,115588348,,Mo-Su 08:00-19:00,MoneyGram,Q1944412
74958133,moneygram,ENAT BANK S.C. - ADDIS ABABA - CHACHI TA,,ADDIS ABABA,,,ET,115588348,,Mo-Su 08:00-19:00,MoneyGram,Q1944412
72684030,moneygram,BERHAN INTERNATIONAL BANK - MERKATO HUNE,,ADDIS ABABA,,,ET,111606289,,Mo-Sa 08:00-18:00; Su 00:00-24:00,MoneyGram,Q1944412
74979963,moneygram,LION INTERNATIONAL BANK S.C. - HAYA HULE,,ADDIS ABABA,,,ET,6629702,,Mo-Sa 08:00-19:00; Su 00:00-24:00,MoneyGram,Q1944412
74979170,moneygram,LION INTERNATIONAL BANK S.C. - ADDIS ALE,,MEKELLE,,,ET,6629702,,Mo-Sa 08:00-19:00; Su 00:00-24:00,MoneyGram,Q1944412
74979947,moneygram,LION INTERNATIONAL BANK S.C. - SHASHEMEN,,SHASHEMENE,,,ET,6629702,,Mo-Sa 08:00-19:00; Su 00:00-24:00,MoneyGram,Q1944412
74979950,moneygram,LION INTERNATIONAL BANK S.C. - ADDIS ALE,,MEKELLE,,,ET,6629702,,Mo-Sa 08:00-19:00; Su 00:00-24:00,MoneyGram,Q1944412
74981621,moneygram,BANK OF ABYSSINIA - ADDIS ABABA - JOS HA,,ADDIS ABABA,,,ET,583205391,,Mo-Sa 08:00-19:00; Su 00:00-24:00,MoneyGram,Q1944412
74981692,moneygram,BANK OF ABYSSINIA - ADDIS ABABA - TEKALI,,ADDIS ABABA,,,ET,472111130,,Mo-Sa 08:00-19:00; Su 00:00-24:00,MoneyGram,Q1944412
74981650,moneygram,BANK OF ABYSSINIA - ADDIS ABABA - SKYLIG,,ADDIS ABABA,,,ET,+251 11 667 0913,,Mo-Sa 08:00-19:00; Su 00:00-24:00,MoneyGram,Q1944412
74986710,moneygram,BANK OF ABYSSINIA - ADDIS ABABA - BETHEL,,ADDIS ABABA,,,ET,114500221,,Mo-Sa 08:00-19:00; Su 00:00-24:00,MoneyGram,Q1944412
75005933,moneygram,ABAY BANK SC - #A94 - DEDECHA ARARA BRAN,,ADAMA,,,ET,133521424,,Mo-Sa 08:00-21:00; Su 00:00-24:00,MoneyGram,Q1944412
71522863,moneygram,BANK OF ABYSSINIA - ADDIS ABABA - DEJAZM,,ADDIS ABABA,,,ET,116675213,,Mo-Sa 08:00-19:00; Su 00:00-24:00,MoneyGram,Q1944412
67810673,moneygram,OIB - GULELE,,ADDIS ABABA,,,ET,122732015,,Mo-Fr 08:00-19:00; Sa 08:00-18:00; Su 00:00-24:00,MoneyGram,Q1944412
67810712,moneygram,OIB - YERER BER,,ADDIS ABABA,,,ET,+251 11 645 3323,,Mo-Fr 08:00-19:00; Sa 08:00-18:00; Su 00:00-24:00,MoneyGram,Q1944412
