Ref,Spider,Name,Address,City,State,Zipcode,Country,Phone,Website,Hours,Brand,WikiData
https://locations.arbys.com/tn/nashville/2044-rosa-l.-parks-blvd..html,arbys_us,"Arby's Fast-Food Drive Through Near You in Nashville, TN",,Nashville,TN,,US,+1 615-742-3244,https://locations.arbys.com/tn/nashville/2044-rosa-l.-parks-blvd..html,Mo-Su 09:30-23:00,Arby's,Q630866
21234_50001,bmw_group,"AW Collision Nashville, Independent Certified Collision Repair Center of BMW of Nashville",,Franklin,TN,,US,+1 629-236-6800,,,BMW,Q26678
tn_nashville_2032-rosa-l-parks-blvd,chipotle, ,,Nashville,TN,,US,+1 615-732-0387,https://locations.chipotle.com/tn/nashville/2032-rosa-l-parks-blvd,,Chipotle,Q465751
27283,citi,ATM 7ELEVEN-FCTI,,Nashville,TN,,US,,,,Citibank,Q857063
358316,dunkin_us,Dunkin',,Nashville,TN,,US,+1 615-724-2095,https://locations.dunkindonuts.com/en/tn/nashville/2036-rosa-l-parks-blvd/358316,Mo-Fr 04:00-19:00; Sa-Su 05:00-19:00,Dunkin',Q847743
https://local.fedex.com/#492882,fedex,FedEx Ship Center,,Nashville,TN,,US,+1 800-463-3339,https://local.fedex.com/en-us/tn/nashville/mqya,,FedEx,Q459477
https://locations.53.com/#3033919,fifththirdbank,Fifth Third Bank Metrocenter,,Nashville,TN,,US,+1 615-248-0729,https://locations.53.com/tn/nashville/2054-rosa-l.-parks-boulevard.html,Mo-Th 09:00-17:00; Fr 09:00-18:00; Sa 09:00-12:00,Fifth Third Bank,Q1411810
nashville_holly-geronzin,geico,Holly Geronzin,,Nashville,TN,,US,+1 629-208-0333,https://www.geico.com/insurance-agents/tennessee/nashville/holly-geronzin/,,GEICO,Q1498689
bnamcht-home2-suites-nashville-metrocenter,hilton,Home2 Suites by Hilton Nashville MetroCenter,,,TN,,US,+1 615-985-7444,https://www.hilton.com/ar/hotels/bnamcht-home2-suites-nashville-metrocenter/,,Home2 Suites by Hilton,Q5887912
https://locations.ironmountain.com/tn/nashville/740/,iron_mountain,"Iron Mountain in 730 Freeland Station Road, Nashville, Tennessee | Secure Shredding, Scanning, IT Asset Disposition, & Records Management",,Nashville,TN,,US,+1 800-899-4766,https://locations.ironmountain.com/tn/nashville/740/,,Iron Mountain Incorporated,Q1673079
BNAFM,marriott,Fairfield Inn & Suites Nashville MetroCenter,,Nashville,TN,,US,+1 615-432-4677,https://www.marriott.com/BNAFM,,Fairfield by Marriott,Q5430314
BNASM,marriott,SpringHill Suites Nashville MetroCenter,,Nashville,TN,,US,+1 615-244-5474,https://www.marriott.com/BNASM,,SpringHill Suites,Q7580351
NNA5110,nissan_europe,DOWNTOWN NASHVILLE NISSAN,,NASHVILLE,TN,,US,+1 615-248-5100,https://www.downtownnashvillenissan.com,Mo-Sa 09:00-20:00; Su 11:00-18:00,Nissan,Q20165
41045,seven_eleven_ca_us,7-Eleven,,NASHVILLE,TN,,US,+1 615-259-9741,https://www.7-eleven.com/locations/tn/nashville/2022-rosa-parks-blvd-41045,,7-Eleven,Q259340
https://restaurants.subway.com/#14900380,subway,Subway,,Nashville Davidson,TN,,US,+1 615-254-4455,https://restaurants.subway.com/united-states/tn/nashville/2120-rosa-l-parks-blvd,Mo-Su 08:00-21:00,Subway,Q244457
https://locations.tacobell.com/#3916856,taco_bell,Taco Bell,,Nashville,TN,,US,+1 615-256-3382,https://locations.tacobell.com/tn/nashville/2101-rosa-l--parks-blvd-.html,Mo 10:00-02:00; Tu-Th 07:00-02:00; Fr-Sa 07:00-03:00; Su 07:00-02:00,Taco Bell,Q752941
1372858,usps,METRO,,NASHVILLE,TN,,US,+1 615-242-7581,,Mo-Fr 08:30-17:00; Sa 09:00-12:00,United States Postal Service,Q668687
3722800008,usps_collection_boxes,USPS COLLECTION BOX - BLUE BOX,235 CUMBERLAND BND,NASHVILLE,TN,,US,,,,United States Postal Service,Q668687
3722800047,usps_collection_boxes,USPS COLLECTION BOX - BLUE BOX,200 ATHENS WAY,NASHVILLE,TN,,US,,,,United States Postal Service,Q668687
3722800055,usps_collection_boxes,USPS COLLECTION BOX - BLUE BOX,220 ATHENS WAY,NASHVILLE,TN,,US,,,,United States Postal Service,Q668687
,visa,,,NASHVILLE,TN,,US,,,,,
,visa,,,NASHVILLE,TN,,US,,,,,
,visa,,,NASHVILLE,TN,,US,,,,,
,visa,,,NASHVILLE,TN,,US,,,,,
,visa,,,NASHVILLE,TN,,US,,,,,
,visa,,,NASHVILLE,TN,,US,,,,,
,visa,,,NASHVILLE,TN,,US,,,,,
,visa,,,NASHVILLE,TN,,US,,,,,
,visa,,,NASHVILLE,TN,,US,,,,,
,visa,,,NASHVILLE,TN,,US,,,,,
,visa,,,NASHVILLE,TN,,US,,,,,
,visa,,,NASHVILLE,TN,,US,,,,,
,visa,,,WAVERLY,TN,,US,,,,,
https://locations.wendys.com/#9254398,wendys,"Wendy's #629 Metro Center in Nashville, TN",,Nashville,TN,,US,+1 615-915-3000,https://locations.wendys.com/united-states/tn/nashville/802-vantage-way-court,"Mo-Su 06:00-10:30,07:00-22:00",Wendy's,Q550258
183447,wingstop,Wingstop Nashville Rosa L. Parks Blvd,2048 Rosa L. Parks Blvd.,Nashville,TN,,US,+1 629-910-9464,,,Wingstop,Q8025339
