Ref,Spider,Name,Address,City,State,Zipcode,Country,Phone,Website,Hours,Brand,WikiData
62581,asics_us,Foot Locker,159 East 86th St,New York,NY,,US,+1 212-348-8652,,,asics,Q327247
350438,asics_us,Super Runners Shop,1438 3rd Ave,New York,NY,,US,+1 646-546-5100,,,asics,Q327247
991,att_us,200 E 86TH STREET STORE,,New York,NY,,US,+1 212-734-7550,https://www.att.com/stores/new-york/new-york/991,Mo-Sa 09:00-21:00; Su 10:00-18:00,AT&T,Q298594
https://locators.bankofamerica.com/ny/newyork/financial-centers-new-york-16597.html,bankofamerica,Bank of America Financial Center & Walk-Up ATM | 86th and Lexington Avenue,,New York,NY,,US,+1 646-264-0197,https://locators.bankofamerica.com/ny/newyork/financial-centers-new-york-16597.html,Mo-Fr 09:00-17:00; Sa 09:00-14:00,Bank of America,Q487907
The Brearley School,barnesnoblecollege,The Brearley School,,York,NY,,US,,https://www.bncollege.com/campus-stores/,,Barnes & Noble College,Q4861508
The Chapin School,barnesnoblecollege,The Chapin School,,York,NY,,US,,https://www.bncollege.com/campus-stores/,,Barnes & Noble College,Q4861508
https://stores.bestbuy.com/ny/new-york/1280-lexington-ave-835.html,bestbuy,Best Buy 86th And Lexington,,New York,NY,,US,+1 917-492-8870,https://stores.bestbuy.com/ny/new-york/1280-lexington-ave-835.html,,Best Buy,Q533415
NY146-M1-SR1,california_closets_us,"California Closets - East Side, NY",,New York,NY,,US,+1 212-517-7877,https://www.locations.californiaclosets.com/california-closets-new-york-ny-1ce606f8cd77,Mo-Fr 10:00-17:00; Sa 10:00-15:00,California Closets,Q5020325
A522,capital_one_us,86th & 2nd,,New York,NY,,US,,https://locations.capitalone.com/atm/NY/new-york-atm-A522,,Capital One,Q1034654
46738,capital_one_us,86th & 2nd,,New York,NY,,US,+1 212-534-7015,https://locations.capitalone.com/bank/NY/New-York-86th-and-2nd-branch-46738,Mo-Fr 09:00-17:00; Sa 09:00-12:00,Capital One,Q1034654
2038492,chase_us,Gracie Square - New branch,,New York,NY,,US,+1 212-996-1777,https://locator.chase.com/ny/new-york/453-e-86th-st,,Chase,Q524629
2038384,chase_us,Second Ave and 86th St - New branch,,New York,NY,,US,+1 212-369-3279,https://locator.chase.com/ny/new-york/244-e-86th-st,Mo-Fr 09:00-17:00; Sa 09:00-14:00,Chase,Q524629
15028630,chase_us,Lexington Ave and 86th St - New branch,,New York,NY,,US,+1 212-410-2310,https://locator.chase.com/ny/new-york/147-e-86th-st,Mo-Fr 09:00-17:00; Sa 09:00-14:00,Chase,Q524629
2038414,chase_us,Madison Ave and 86th St - New branch,,New York,NY,,US,+1 212-535-9755,https://locator.chase.com/ny/new-york/12-e-86th-st,Mo-Fr 09:00-17:00; Sa 09:00-14:00,Chase,Q524629
2043852,chase_us,STAND ALONE CAFETERIA - 109270,,NEW YORK,NY,,US,+1 800-935-9935,https://locator.chase.com/ny/new-york/1000-5th-ave,,Chase,Q524629
ny_new-york_1497-3rd-ave,chipotle, ,,New York,NY,,US,+1 646-998-8241,https://locations.chipotle.com/ny/new-york/1497-3rd-ave,,Chipotle,Q465751
29,citi,Yorkville,,New York,NY,,US,+1 800-627-3999,,,Citibank,Q857063
81656,citi,ATM Target,,New York,NY,,US,,,,Citibank,Q857063
54053,citi,ATM Duane Reade,,New York,NY,,US,,,,Citibank,Q857063
37693,citi,ATM Capital One Branch - 86th & 2nd,,New York,NY,,US,,,,Citibank,Q857063
37694,citi,ATM Capital One Branch - 86th & 2nd,,New York,NY,,US,,,,Citibank,Q857063
37695,citi,ATM Capital One Branch - 86th & 2nd,,New York,NY,,US,,,,Citibank,Q857063
63749,citi,ATM Lexington Ave News,,New York,NY,,US,,,,Citibank,Q857063
50085,citi,ATM CVS,,Manhattan,NY,,US,,,,Citibank,Q857063
64952,citi,ATM Mcdonalds,,New York,NY,,US,,,,Citibank,Q857063
54106,citi,ATM Duane Reade,,New York,NY,,US,,,,Citibank,Q857063
25880,citi,ATM 7ELEVEN-FCTI,,New York,NY,,US,,,,Citibank,Q857063
72539,citi,ATM RIDGEWOOD SAVINGS BANK,,New York,NY,,US,,,,Citibank,Q857063
72538,citi,ATM RIDGEWOOD SAVINGS BANK,,New York,NY,,US,,,,Citibank,Q857063
48178,citi,ATM CVS,,New York,NY,,US,,,,Citibank,Q857063
26237,citi,ATM 7ELEVEN-FCTI,,New York,NY,,US,,,,Citibank,Q857063
26238,citi,ATM 7ELEVEN-FCTI,,New York,NY,,US,,,,Citibank,Q857063
880358,citizens_us,Citizens,,New York,NY,,US,+1 212-497-1350,,Mo-Fr 09:00-17:00; Sa 09:00-13:00,Citizens,Q5122694
ATM-1203,citizens_us,,,New York,NY,,US,+1 212-497-1350,,Mo-Fr 09:00-17:00; Sa 09:00-13:00,Citizens,Q5122694
ATM-2632,citizens_us,,,New York,NY,,US,+1 212-497-1351,,24/7,Citizens,Q5122694
6Nl8bdwKQMOjNGf1ZwP3b6,corepower_yoga_us,UES - 85th and Lex,,New York,NY,,US,,https://www.corepoweryoga.com/yoga-studios/ny/new-york-city/ues-85th-and-lex,,Corepower Yoga,Q21015663
40,crunch_fitness,Crunch Fitness,,New York,NY,,US,+1 212-879-6013,https://www.crunch.com/locations/e-81st-st,,Crunch Fitness,Q5190093
3295,cvs_us,CVS Pharmacy,,New York,NY,,US,+1 212-535-3438,https://www.cvs.com/store-locator/new-york-ny-pharmacies/1241-lexington-ave-new-york-ny-10028/storeid=3295,Mo-Su 07:00-22:00,CVS Pharmacy,Q2078880
2411,cvs_us,CVS Pharmacy,,New York,NY,,US,+1 212-249-5198,https://www.cvs.com/store-locator/new-york-ny-pharmacies/1569-first-avenue-new-york-ny-10028/storeid=2411,Mo-Su 07:00-00:00,CVS Pharmacy,Q2078880
3689,dominos_pizza_us,Domino's Pizza,,New York,NY,,US,+1 212-996-7800,https://pizza.dominos.com/new-york/new-york/1841-1st-avenue,Mo-Th 10:30-24:00; Fr-Sa 10:30-01:00; Su 10:30-24:00,Domino's,Q839466
359582,dunkin_us,Dunkin',,New York,NY,,US,+1 646-381-2422,https://locations.dunkindonuts.com/en/ny/new-york/1602-2nd-ave/359582,Mo-Fr 05:30-20:00; Sa 06:30-18:00; Su 06:30-17:00,Dunkin',Q847743
350792,dunkin_us,Dunkin',,New York,NY,,US,+1 212-249-1155,https://locations.dunkindonuts.com/en/ny/new-york/1571-york-ave/350792,Mo-Su 06:00-16:00,Dunkin',Q847743
349887,dunkin_us,Dunkin',,New York,NY,,US,+1 646-755-8586,https://locations.dunkindonuts.com/en/ny/new-york/1248-lexington-ave/349887,Mo 05:00-24:00; Tu-Sa 00:00-24:00; Su 00:00-22:00,Dunkin',Q847743
139,equinox,Equinox E Madison Avenue,,New York,NY,,US,+1 212-501-1490,https://cdn.contentful.com/clubs/new-york/uptown/emadison,,Equinox Fitness,Q5384535
104,equinox,Equinox East 85th Street,,New York,NY,,US,+1 212-439-8500,https://cdn.contentful.com/clubs/new-york/uptown/east85th,,Equinox Fitness,Q5384535
0160,european_wax_center_us,European Wax Center,,New York,NY,,US,+1 212-288-8088,https://locations.waxcenter.com/ny/newyork/new-york-first-avenue-0160.html,Mo-Fr 08:00-21:00; Sa 08:00-18:00; Su 09:00-18:00,European Wax Center,Q5413426
https://stores.footlocker.com/ny/newyork/159-east-86th-street-8317.html,footlocker,"Foot Locker in 86th St.: New York, New York | Approved | Own It",,New York,NY,,US,+1 212-348-8652,https://stores.footlocker.com/ny/newyork/159-east-86th-street-8317.html,Mo-Fr 10:00-19:00; Sa 10:00-20:00; Su 11:00-19:00,Foot Locker,Q63335
https://stores.gnc.com/#24058783,gnc,GNC 1645 2nd Avenue,,,NY,,US,+1 212-734-0333,https://stores.gnc.com/all-stores-new-york/new-york/1645-second-avenue,Mo-Sa 09:00-20:00; Su 10:00-18:00,GNC,Q4808595
US0102,hm,Lexington Ave at 86th St,,New York City,NY,,US,+1 855-466-7467,,Mo-Sa 09:00-21:00; Su 10:00-20:00,H&M,Q188326
https://www.blockadvisors.com/local-tax-offices/new-york/new-york/204-e-84th-st/17884/,h_r_block,H&R Block,,New York,NY,,US,+1 212-249-2525,https://www.blockadvisors.com/local-tax-offices/new-york/new-york/204-e-84th-st/17884/,,H&R Block,Q5627799
the-met,indigo,The Met,,New York,NY,,US,+1 212-570-1437,,,Indigo,Q3559970
"86TH & 3RD, NYC",lululemon,Lululemon,"1529 3rd Avenue, New York, NY, US, 10028",New York,NY,,US,+1 212-452-1909,https://shop.lululemon.com/stores/us/new-york/86thand3rd,Mo-Th 10:00-19:00; Fr-Sa 10:00-20:00; Su 11:00-18:00,Lululemon,Q6702957
16604,mattress_firm_us,Mattress Firm Upper East Side,,New York,NY,,US,+1 646-981-1093,https://www.mattressfirm.com/en-us/stores/ny/new-york/167026/,,Mattress Firm,Q6791878
16793,mattress_firm_us,Mattress Firm Lexington Avenue,,New York,NY,,US,+1 646-849-5847,https://www.mattressfirm.com/en-us/stores/ny/new-york/167037/,,Mattress Firm,Q6791878
71595337,moneygram,CVS - #10970,,MANHATTAN,NY,,US,+1 212-722-2003,,24/7,MoneyGram,Q1944412
33819,orangetheory_fitness,"Manhattan-UES E86th St., NY",,New York,NY,,US,+1 646-979-1020,,,Orangetheory Fitness,Q25005163
1733,paper_source_us,"86th & Lexington Avenue, New York, NY",,New York,NY,,US,+1 646-709-7545,https://www.papersource.com/locator/Ny-eighty-sixth-lexington/,Mo-Sa 10:00-20:00; Su 11:00-18:00,Paper Source,Q25000269
538,primrose_schools,Primrose School of Manhattan at East 82nd Street,,New York,NY,,US,+1 212-457-1778,https://www.primroseschools.com/schools/manhattan-at-east-82nd-street/,,Primrose Schools,Q7243677
33616,seven_eleven_ca_us,7-11 Str   1594 York Ave,,New York,NY,,US,+1 212-327-3613,https://www.7-eleven.com/locations/ny/new-york/1594-york-ave-33616,,7-Eleven,Q259340
33579,seven_eleven_ca_us,7-11 Str   1453 3rd Ave,,New York,NY,,US,+1 212-288-2056,https://www.7-eleven.com/locations/ny/new-york/1453-3rd-ave-33579,,7-Eleven,Q259340
East 83rd Street,soulcycle,East 83rd Street,1470 Third Avenue,New York,NY,,US,+1 212-639-1300,https://www.soul-cycle.com/studios/ny-newyork-east83rd/,,Soulcycle,Q17084730
1280-lexington-ave-frnt-2,staples,"Staples New York, NY",,New York,NY,,US,,https://stores.staples.com/ny/new-york/1280-lexington-ave-frnt-2,Mo-Fr 07:00-21:00; Sa 09:00-21:00; Su 11:00-19:00,Staples,Q785943
https://restaurants.subway.com/#14906384,subway,Subway,,New York New York,NY,,US,+1 212-988-8108,https://restaurants.subway.com/united-states/ny/new-york/1613-second-ave,Mo-Fr 08:00-23:30; Sa-Su 09:00-23:30,Subway,Q244457
https://restaurants.subway.com/#14914315,subway,Subway,,New York New York,NY,,US,+1 212-737-6500,https://restaurants.subway.com/united-states/ny/new-york/1256-lexington-ave,,Subway,Q244457
46,sweetgreen_us,85th + 3rd,,New York,NY,,US,+1 646-666-0860,https://order.sweetgreen.com/85th-3rd/,Mo-Su 10:30-22:00,Sweetgreen,Q18636413
https://locations.tacobell.com/#12834526,taco_bell,Taco Bell,,New York,NY,,US,+1 929-219-3609,https://locations.tacobell.com/ny/new-york/1614-2nd-avenue.html,,Taco Bell,Q752941
1002800007,usps_collection_boxes,USPS COLLECTION BOX - BLUE BOX,1816 1ST AVE,NEW YORK,NY,,US,,,,United States Postal Service,Q668687
1002800237,usps_collection_boxes,USPS COLLECTION BOX - BLUE BOX,1776 1ST AVE,NEW YORK,NY,,US,,,,United States Postal Service,Q668687
1002800274,usps_collection_boxes,USPS COLLECTION BOX - BLUE BOX,1822 2ND AVE,NEW YORK,NY,,US,,,,United States Postal Service,Q668687
1002800094,usps_collection_boxes,USPS COLLECTION BOX - BLUE BOX,1698 YORK AVE,NEW YORK,NY,,US,,,,United States Postal Service,Q668687
1002800027,usps_collection_boxes,USPS COLLECTION BOX - BLUE BOX,1709 3RD AVE,NEW YORK,NY,,US,,,,United States Postal Service,Q668687
1002800036,usps_collection_boxes,USPS COLLECTION BOX - BLUE BOX,1143 5TH AVE,NEW YORK,NY,,US,,,,United States Postal Service,Q668687
1002800069,usps_collection_boxes,USPS COLLECTION BOX - BLUE BOX,1379 MADISON AVE,NEW YORK,NY,,US,,,,United States Postal Service,Q668687
1002800055,usps_collection_boxes,USPS COLLECTION BOX - BLUE BOX,1486 LEXINGTON AVE,NEW YORK,NY,,US,,,,United States Postal Service,Q668687
1002800082,usps_collection_boxes,USPS COLLECTION BOX - BLUE BOX,1239 PARK AVE,NEW YORK,NY,,US,,,,United States Postal Service,Q668687
1002800068,usps_collection_boxes,USPS COLLECTION BOX - BLUE BOX,1357 MADISON AVE,NEW YORK,NY,,US,,,,United States Postal Service,Q668687
1002800035,usps_collection_boxes,USPS COLLECTION BOX - BLUE BOX,1140 5TH AVE,NEW YORK,NY,,US,,,,United States Postal Service,Q668687
1002800042,usps_collection_boxes,USPS COLLECTION BOX - BLUE BOX,136 E END AVE,NEW YORK,NY,,US,,,,United States Postal Service,Q668687
1002800046,usps_collection_boxes,USPS COLLECTION BOX - BLUE BOX,90 E END AVE,NEW YORK,NY,,US,,,,United States Postal Service,Q668687
1002800092,usps_collection_boxes,USPS COLLECTION BOX - BLUE BOX,1678 YORK AVE,NEW YORK,NY,,US,,,,United States Postal Service,Q668687
1002800026,usps_collection_boxes,USPS COLLECTION BOX - BLUE BOX,1663 3RD AVE,NEW YORK,NY,,US,,,,United States Postal Service,Q668687
1002800053,usps_collection_boxes,USPS COLLECTION BOX - BLUE BOX,1448 LEXINGTON AVE,NEW YORK,NY,,US,,,,United States Postal Service,Q668687
1002800014,usps_collection_boxes,USPS COLLECTION BOX - BLUE BOX,1730 2ND AVE,NEW YORK,NY,,US,,,,United States Postal Service,Q668687
1002800258,usps_collection_boxes,USPS COLLECTION BOX - PO LOBBY,1617 3RD AVE,NEW YORK,NY,,US,,,,United States Postal Service,Q668687
1002800269,usps_collection_boxes,USPS COLLECTION BOX - PO LOBBY,1617 3RD AVE,NEW YORK,NY,,US,,,,United States Postal Service,Q668687
1002800243,usps_collection_boxes,USPS COLLECTION BOX - BLUE BOX,1619 3RD AVE,NEW YORK,NY,,US,,,,United States Postal Service,Q668687
1002800230,usps_collection_boxes,USPS COLLECTION BOX - BLUE BOX,1619 3RD AVE,NEW YORK,NY,,US,,,,United States Postal Service,Q668687
1002800006,usps_collection_boxes,USPS COLLECTION BOX - BLUE BOX,1716 1ST AVE,NEW YORK,NY,,US,,,,United States Postal Service,Q668687
1002800052,usps_collection_boxes,USPS COLLECTION BOX - BLUE BOX,1400 LEXINGTON AVE,NEW YORK,NY,,US,,,,United States Postal Service,Q668687
1002800024,usps_collection_boxes,USPS COLLECTION BOX - BLUE BOX,1585 3RD AVE,NEW YORK,NY,,US,,,,United States Postal Service,Q668687
1002800013,usps_collection_boxes,USPS COLLECTION BOX - BLUE BOX,1680 2ND AVE,NEW YORK,NY,,US,,,,United States Postal Service,Q668687
1002800081,usps_collection_boxes,USPS COLLECTION BOX - BLUE BOX,1197 PARK AVE,NEW YORK,NY,,US,,,,United States Postal Service,Q668687
1002800005,usps_collection_boxes,USPS COLLECTION BOX - BLUE BOX,1670 1ST AVE,NEW YORK,NY,,US,,,,United States Postal Service,Q668687
1002800265,usps_collection_boxes,USPS COLLECTION BOX - BLUE BOX,1764 2ND AVE,NEW YORK,NY,,US,,,,United States Postal Service,Q668687
1002800023,usps_collection_boxes,USPS COLLECTION BOX - BLUE BOX,1551 3RD AVE,NEW YORK,NY,,US,,,,United States Postal Service,Q668687
1002800077,usps_collection_boxes,USPS COLLECTION BOX - BLUE BOX,1119 PARK AVE,NEW YORK,NY,,US,,,,United States Postal Service,Q668687
1002800004,usps_collection_boxes,USPS COLLECTION BOX - BLUE BOX,1650 1ST AVE,NEW YORK,NY,,US,,,,United States Postal Service,Q668687
1002800012,usps_collection_boxes,USPS COLLECTION BOX - BLUE BOX,1656 2ND AVE,NEW YORK,NY,,US,,,,United States Postal Service,Q668687
1002800066,usps_collection_boxes,USPS COLLECTION BOX - BLUE BOX,1319 MADISON AVE,NEW YORK,NY,,US,,,,United States Postal Service,Q668687
1002800022,usps_collection_boxes,USPS COLLECTION BOX - BLUE BOX,1527 3RD AVE,NEW YORK,NY,,US,,,,United States Postal Service,Q668687
1002800076,usps_collection_boxes,USPS COLLECTION BOX - BLUE BOX,1094 PARK AVE,NEW YORK,NY,,US,,,,United States Postal Service,Q668687
1002800050,usps_collection_boxes,USPS COLLECTION BOX - BLUE BOX,1318 LEXINGTON AVE,NEW YORK,NY,,US,,,,United States Postal Service,Q668687
1002800065,usps_collection_boxes,USPS COLLECTION BOX - BLUE BOX,1273 MADISON AVE,NEW YORK,NY,,US,,,,United States Postal Service,Q668687
1002800257,usps_collection_boxes,USPS COLLECTION BOX - PO LOBBY,229 E 85TH ST,NEW YORK,NY,,US,,,,United States Postal Service,Q668687
1002800270,usps_collection_boxes,USPS COLLECTION BOX - PO LOBBY,229 E 85TH ST,NEW YORK,NY,,US,,,,United States Postal Service,Q668687
1002800034,usps_collection_boxes,USPS COLLECTION BOX - BLUE BOX,1120 5TH AVE,NEW YORK,NY,,US,,,,United States Postal Service,Q668687
1002800038,usps_collection_boxes,USPS COLLECTION BOX - BLUE BOX,1594 YORK AVE,NEW YORK,NY,,US,,,,United States Postal Service,Q668687
1002800073,usps_collection_boxes,USPS COLLECTION BOX - BLUE BOX,1043 PARK AVE,NEW YORK,NY,,US,,,,United States Postal Service,Q668687
1002800033,usps_collection_boxes,USPS COLLECTION BOX - BLUE BOX,1100 5TH AVE,NEW YORK,NY,,US,,,,United States Postal Service,Q668687
1002800062,usps_collection_boxes,USPS COLLECTION BOX - BLUE BOX,1221 MADISON AVE,NEW YORK,NY,,US,,,,United States Postal Service,Q668687
1002800002,usps_collection_boxes,USPS COLLECTION BOX - BLUE BOX,1600 1ST AVE,NEW YORK,NY,,US,,,,United States Postal Service,Q668687
1002800048,usps_collection_boxes,USPS COLLECTION BOX - BLUE BOX,1246 LEXINGTON AVE,NEW YORK,NY,,US,,,,United States Postal Service,Q668687
1002800020,usps_collection_boxes,USPS COLLECTION BOX - BLUE BOX,1471 3RD AVE,NEW YORK,NY,,US,,,,United States Postal Service,Q668687
1002800032,usps_collection_boxes,USPS COLLECTION BOX - BLUE BOX,1079 5TH AVE,NEW YORK,NY,,US,,,,United States Postal Service,Q668687
1002800010,usps_collection_boxes,USPS COLLECTION BOX - BLUE BOX,1580 2ND AVE,NEW YORK,NY,,US,,,,United States Postal Service,Q668687
1002800060,usps_collection_boxes,USPS COLLECTION BOX - BLUE BOX,1175 MADISON AVE,NEW YORK,NY,,US,,,,United States Postal Service,Q668687
1002800074,usps_collection_boxes,USPS COLLECTION BOX - BLUE BOX,1061 PARK AVE,NEW YORK,NY,,US,,,,United States Postal Service,Q668687
1002800031,usps_collection_boxes,USPS COLLECTION BOX - BLUE BOX,1059 5TH AVE,NEW YORK,NY,,US,,,,United States Postal Service,Q668687
1002800246,usps_collection_boxes,USPS COLLECTION BOX - BLUE BOX,1562 1ST AVE,NEW YORK,NY,,US,,,,United States Postal Service,Q668687
1002800047,usps_collection_boxes,USPS COLLECTION BOX - BLUE BOX,1210 LEXINGTON AVE,NEW YORK,NY,,US,,,,United States Postal Service,Q668687
1002800250,usps_collection_boxes,USPS COLLECTION BOX - BLUE BOX,1520 YORK AVE,NEW YORK,NY,,US,,,,United States Postal Service,Q668687
1002800019,usps_collection_boxes,USPS COLLECTION BOX - BLUE BOX,1435 3RD AVE,NEW YORK,NY,,US,,,,United States Postal Service,Q668687
1002800247,usps_collection_boxes,USPS COLLECTION BOX - BLUE BOX,1125 MADISON AVE,NEW YORK,NY,,US,,,,United States Postal Service,Q668687
1002800275,usps_collection_boxes,USPS COLLECTION BOX - BLUE BOX,1538 2ND AVE,NEW YORK,NY,,US,,,,United States Postal Service,Q668687
1002800272,usps_collection_boxes,USPS COLLECTION BOX - BLUE BOX,1411 3RD AVE,NEW YORK,NY,,US,,,,United States Postal Service,Q668687
1002800030,usps_collection_boxes,USPS COLLECTION BOX - BLUE BOX,1037 5TH AVE,NEW YORK,NY,,US,,,,United States Postal Service,Q668687
1002800086,usps_collection_boxes,USPS COLLECTION BOX - BLUE BOX,969 PARK AVE,NEW YORK,NY,,US,,,,United States Postal Service,Q668687
1002800029,usps_collection_boxes,USPS COLLECTION BOX - BLUE BOX,2 E 84TH ST,NEW YORK,NY,,US,,,,United States Postal Service,Q668687
1002800085,usps_collection_boxes,USPS COLLECTION BOX - BLUE BOX,938 PARK AVE,NEW YORK,NY,,US,,,,United States Postal Service,Q668687
1002800056,usps_collection_boxes,USPS COLLECTION BOX - BLUE BOX,1096 MADISON AVE,NEW YORK,NY,,US,,,,United States Postal Service,Q668687
1002800028,usps_collection_boxes,USPS COLLECTION BOX - BLUE BOX,1009 5TH AVE,NEW YORK,NY,,US,,,,United States Postal Service,Q668687
R00000000775,verizon_us,86th Street,,New York,NY,,US,+1 917-492-2583,https://www.verizon.com/stores/details/new-york/new-york/86th-street-203968/,Mo-Fr 10:00-19:00; Sa 10:00-18:00; Su 10:00-17:00,Verizon,Q919641
,visa,,,QUEENS,NY,,US,,,,,
,visa,,,QUEENS,NY,,US,,,,,
,visa,,,NEW YORK,NY,,US,,,,,
,visa,,,NEW YORK,NY,,US,,,,,
,visa,,,NEW YORK,NY,,US,,,,,
,visa,,,NEW YORK,NY,,US,,,,,
,visa,,,NEW YORK,NY,,US,,,,,
,visa,,,NEW YORK,NY,,US,,,,,
,visa,,,NEW YORK,NY,,US,,,,,
,visa,,,NEW YORK,NY,,US,,,,,
,visa,,,NEW YORK,NY,,US,,,,,
,visa,,,NEW YORK,NY,,US,,,,,
,visa,,,NEW YORK,NY,,US,,,,,
,visa,,,NEW YORK,NY,,US,,,,,
,visa,,,NEW YORK,NY,,US,,,,,
,visa,,,NEW YORK,NY,,US,,,,,
,visa,,,NEW YORK,NY,,US,,,,,
,visa,,,NEW YORK,NY,,US,,,,,
,visa,,,NEW YORK,NY,,US,,,,,
,visa,,,NEW YORK,NY,,US,,,,,
,visa,,,NEW YORK,NY,,US,,,,,
,visa,,,NEW YORK,NY,,US,,,,,
,visa,,,NEW YORK,NY,,US,,,,,
,visa,,,NEW YORK,NY,,US,,,,,
,visa,,,NEW YORK,NY,,US,,,,,
,visa,,,NEW YORK,NY,,US,,,,,
,visa,,,NEW YORK,NY,,US,,,,,
,visa,,,NEW YORK,NY,,US,,,,,
,visa,,,NEW YORK,NY,,US,,,,,
,visa,,,NEW YORK,NY,,US,,,,,
,visa,,,NEW YORK,NY,,US,,,,,
,visa,,,NEW YORK,NY,,US,,,,,
,visa,,,NEW YORK,NY,,US,,,,,
,visa,,,NEW YORK,NY,,US,,,,,
,visa,,,NEW YORK,NY,,US,,,,,
,visa,,,NEW YORK,NY,,US,,,,,
,visa,,,NEW YORK,NY,,US,,,,,
,visa,,,NEW YORK,NY,,US,,,,,
,visa,,,NEW YORK,NY,,US,,,,,
,visa,,,NEW YORK,NY,,US,,,,,
,visa,,,NEW YORK,NY,,US,,,,,
,visa,,,NEW YORK,NY,,US,,,,,
,visa,,,NEW YORK,NY,,US,,,,,
,visa,,,NEW YORK,NY,,US,,,,,
,visa,,,NEW YORK,NY,,US,,,,,
,visa,,,NEW YORK,NY,,US,,,,,
,visa,,,NEW YORK,NY,,US,,,,,
,visa,,,NEW YORK,NY,,US,,,,,
,visa,,,NEW YORK,NY,,US,,,,,
,visa,,,NEW YORK,NY,,US,,,,,
,visa,,,NEW YORK,NY,,US,,,,,
,visa,,,NEW YORK,NY,,US,,,,,
,visa,,,NEW YORK,NY,,US,,,,,
,visa,,,NEW YORK,NY,,US,,,,,
,visa,,,NEW YORK,NY,,US,,,,,
,visa,,,NEW YORK,NY,,US,,,,,
,visa,,,NYC,NY,,US,,,,,
,visa,,,NEW YORK,NY,,US,,,,,
,visa,,,NEW YORK,NY,,US,,,,,
,visa,,,NEW YORK,NY,,US,,,,,
,visa,,,NEW YORK,NY,,US,,,,,
,visa,,,NEW YORK,NY,,US,,,,,
,visa,,,NEW YORK,NY,,US,,,,,
,visa,,,NY,NY,,US,,,,,
,visa,,,NY,NY,,US,,,,,
,visa,,,NEW YORK,NY,,US,,,,,
,visa,,,NEW YORK,NY,,US,,,,,
,visa,,,NEW YORK,NY,,US,,,,,
,visa,,,NEW YORK,NY,,US,,,,,
,visa,,,NEW YORK,NY,,US,,,,,
,visa,,,NEW YORK,NY,,US,,,,,
,visa,,,NEW YORK,NY,,US,,,,,
,visa,,,NEW YORK,NY,,US,,,,,
,visa,,,NEW YORK,NY,,US,,,,,
,visa,,,NEW YORK,NY,,US,,,,,
,visa,,,NEW YORK,NY,,US,,,,,
,visa,,,NEW YORK,NY,,US,,,,,
,visa,,,NEW YORK,NY,,US,,,,,
,visa,,,NEW YORK,NY,,US,,,,,
,visa,,,NEW YORK,NY,,US,,,,,
,visa,,,NEW YORK,NY,,US,,,,,
,visa,,,NEW YORK,NY,,US,,,,,
,visa,,,NEW YORK,NY,,US,,,,,
,visa,,,NEW YORK,NY,,US,,,,,
,visa,,,NEW YORK,NY,,US,,,,,
,visa,,,NEW YORK,NY,,US,,,,,
,visa,,,NEW YORK,NY,,US,,,,,
,visa,,,NEW YORK,NY,,US,,,,,
,visa,,,NEW YORK,NY,,US,,,,,
,visa,,,NEW YORK,NY,,US,,,,,
,visa,,,NEW YORK,NY,,US,,,,,
,visa,,,NEW YORK,NY,,US,,,,,
,visa,,,NEW YORK,NY,,US,,,,,
,visa,,,NY,NY,,US,,,,,
,visa,,,NEW YORK,NY,,US,,,,,
,visa,,,NEW YORK,NY,,US,,,,,
,visa,,,NEW YORK,NY,,US,,,,,
,visa,,,NEW YORK,NY,,US,,,,,
,visa,,,NEW YORK,NY,,US,,,,,
,visa,,,NEW YORK,NY,,US,,,,,
,visa,,,NEW YORK,NY,,US,,,,,
,visa,,,NEW YORK,NY,,US,,,,,
,visa,,,NEW YORK,NY,,US,,,,,
,visa,,,NEW YORK,NY,,US,,,,,
,visa,,,NEW YORK,NY,,US,,,,,
,visa,,,NEW YORK,NY,,US,,,,,
,visa,,,NEW YORK,NY,,US,,,,,
,visa,,,NEW YORK,NY,,US,,,,,
,visa,,,NEW YORK,NY,,US,,,,,
,visa,,,NEW YORK,NY,,US,,,,,
,visa,,,NEW YORK,NY,,US,,,,,
,visa,,,NEW YORK,NY,,US,,,,,
,visa,,,NEW YORK,NY,,US,,,,,
,visa,,,NEW YORK,NY,,US,,,,,
,visa,,,NEW YORK,NY,,US,,,,,
,visa,,,NEW YORK,NY,,US,,,,,
,visa,,,NEW YORK,NY,,US,,,,,
,visa,,,NEW YORK,NY,,US,,,,,
,visa,,,NEW YORK,NY,,US,,,,,
,visa,,,NEW YORK,NY,,US,,,,,
,visa,,,NEW YORK,NY,,US,,,,,
https://locations.vitaminshoppe.com/ny/newyork/vitamins-supplements-new-york-ny-3.html,vitamin_shoppe,The Vitamin ShoppeÂ® East 86th St,244 E 86th Street ,New York,NY,,US,+1 212-585-3091,https://locations.vitaminshoppe.com/ny/newyork/vitamins-supplements-new-york-ny-3.html,Su 11:00-19:00; Mo 10:00-20:30; Tu 10:00-20:30; We 10:00-20:30; Th 10:00-20:30; Fr 10:00-20:30; Sa 10:00-19:30,The Vitamin Shoppe,Q7772938
https://www.walgreens.com/locator/duane+reade-1235+lexington+ave-new+york-ny-10028/id=14415,walgreens,Duane Reade,,New York,NY,,US,+1 212-570-2710,https://www.walgreens.com/locator/duane+reade-1235+lexington+ave-new+york-ny-10028/id=14415,Mo-Su 08:00-22:00,Duane Reade,Q5310380
https://www.walgreens.com/locator/duane+reade-401+e+86th+st-new+york-ny-10028/id=14242,walgreens,Duane Reade,,New York,NY,,US,+1 917-492-8801,https://www.walgreens.com/locator/duane+reade-401+e+86th+st-new+york-ny-10028/id=14242,Mo-Su 07:00-23:00,Duane Reade,Q5310380
247__E__86TH__ST_NEW__YORK_NY_10028,wellsfargo,Wells Fargo,247 E 86TH ST,NEW YORK,NY,,US,+1 646-901-5625,https://www.wellsfargo.com/locator/bank/247__E__86TH__ST_NEW__YORK_NY_10028/,Mo-Fr 09:00-17:00,Wells Fargo,Q744149
8dfa2b7516e70d55655d0938837b1102,western_union,DUANE READE #14415,,New York,NY,,US,+1 212-570-2710,https://location.westernunion.com/us/ny/new-york/8dfa2b7516e70d55655d0938837b1102,Mo-Su 08:00-21:00,Western Union,Q861042
d37194bc21789b1be26db461e0a8fb35,western_union,7-ELEVEN #33579,,New York,NY,,US,+1 212-288-2056,https://location.westernunion.com/us/ny/new-york/d37194bc21789b1be26db461e0a8fb35,,Western Union,Q861042
