Ref,Spider,Name,Address,City,State,Zipcode,Country,Phone,Website,Hours,Brand,WikiData
71,aaa,Manhattan Branch,,New York,NY,,US,+1 212-757-2000,,,American Automobile Association,Q463436
R251,apple,Apple Upper West Side,,New York,NY,,US,+1 212-209-3400,https://www.apple.com/retail/upperwestside,Mo-Sa 09:00-21:00; Su 10:00-20:00,Apple,Q421253
19914,asics_us,Fleet Feet - West Side,140 W 72nd St,New York,NY,,US,+1 917-338-4988,,Mo-Sa 10:00-19:00; Su 11:00-19:00,asics,Q327247
80429,att_us,71ST & BROADWAY STORE,,New York,NY,,US,+1 212-873-3080,https://www.att.com/stores/new-york/new-york/80429,Mo-Sa 09:00-20:00; Su 10:00-18:00,AT&T,Q298594
https://www.avis.com/en/locations/us/ny/new-york-city/n2y,avis,Avis U S A New York City,,New York City,NY,,US,+1 212-595-0358,https://www.avis.com/en/locations/us/ny/new-york-city/n2y,Mo-Su 06:30-23:00,Avis,Q791136
https://locators.bankofamerica.com/ny/newyork/financial-centers-new-york-16667.html,bankofamerica,Bank of America Financial Center & Walk-Up ATM | 72nd and Broadway,,New York,NY,,US,+1 212-595-1361,https://locators.bankofamerica.com/ny/newyork/financial-centers-new-york-16667.html,Mo-Fr 09:00-17:00; Sa 09:00-14:00,Bank of America,Q487907
https://locators.bankofamerica.com/ny/newyork/atm-new-york-101168.html,bankofamerica,Bank of America Walk-Up ATM | Columbus Ave,,New York,NY,,US,+1 844-401-8500,https://locators.bankofamerica.com/ny/newyork/atm-new-york-101168.html,,Bank of America,Q487907
https://stores.bestbuy.com/ny/new-york/1880-broadway-1448.html,bestbuy,Best Buy Upper West Side (62nd And Broadway),,New York,NY,,US,,https://stores.bestbuy.com/ny/new-york/1880-broadway-1448.html,,Best Buy,Q533415
https://child-care-preschool.brighthorizons.com/NY/NewYork/west72nd,brighthorizons,Bright Horizons at West 72nd,,New York,NY,,US,+1 646-979-9771,https://child-care-preschool.brighthorizons.com/ny/newyork/west72nd,Mo-Fr 07:30-18:00,Bright Horizons,Q4967421
https://child-care-preschool.brighthorizons.com/NY/NewYork/riverschoolwestside,brighthorizons,"River School West Side, a Bright Horizons School ",,New York,NY,,US,+1 212-707-8300,https://child-care-preschool.brighthorizons.com/ny/newyork/riverschoolwestside,Mo-Fr 07:30-18:00,Bright Horizons,Q4967421
E681,capital_one_us,72nd & Broadway,,NEW YORK,NY,,US,,https://locations.capitalone.com/atm/NY/new-york-atm-E681,,Capital One,Q1034654
46761,capital_one_us,72nd & Broadway,,New York,NY,,US,+1 212-712-2259,https://locations.capitalone.com/bank/NY/New-York-72nd-and-Broadway-branch-46761,Mo-Fr 09:00-17:00; Sa 09:00-12:00,Capital One,Q1034654
2038457,chase_us,Columbus Ave and 72nd St - New branch,,New York,NY,,US,+1 212-769-0400,https://locator.chase.com/ny/new-york/260-columbus-ave,Mo-Fr 09:00-17:00; Sa 09:00-14:00,Chase,Q524629
2038423,chase_us,Broadway and 73rd St - New branch,,New York,NY,,US,+1 212-580-5451,https://locator.chase.com/ny/new-york/2099-broadway,Mo-Fr 09:00-17:00; Sa 09:00-14:00,Chase,Q524629
2038476,chase_us,Broadway and 61st - New branch,,New York,NY,,US,+1 212-877-5667,https://locator.chase.com/ny/new-york/1860-broadway,Mo-Fr 09:00-17:00; Sa 09:00-14:00,Chase,Q524629
2038422,chase_us,Columbus Lincoln Square - New branch,,New York,NY,,US,+1 212-579-4847,https://locator.chase.com/ny/new-york/160-columbus-ave,Mo-Fr 09:00-17:00; Sa 09:00-14:00,Chase,Q524629
ny_new-york_269-amsterdam-ave,chipotle, ,,New York,NY,,US,+1 212-580-6058,https://locations.chipotle.com/ny/new-york/269-amsterdam-ave,,Chipotle,Q465751
37692,citi,ATM Capital One Branch - 72nd & Broadway,,New York,NY,,US,,,,Citibank,Q857063
37691,citi,ATM Capital One Branch - 72nd & Broadway,,New York,NY,,US,,,,Citibank,Q857063
37689,citi,ATM Capital One Branch - 72nd & Broadway,,New York,NY,,US,,,,Citibank,Q857063
37690,citi,ATM Capital One Branch - 72nd & Broadway,,New York,NY,,US,,,,Citibank,Q857063
54075,citi,ATM Duane Reade,,New York,NY,,US,,,,Citibank,Q857063
24,citi,Broadway & 72nd St,,New York,NY,,US,+1 800-627-3999,,,Citibank,Q857063
48815,citi,ATM CVS,,Manhattan,NY,,US,,,,Citibank,Q857063
64983,citi,ATM Mcdonalds,,New York,NY,,US,,,,Citibank,Q857063
24059,citi,ATM 270 Market Inc dba Andys Deli,,New York,NY,,US,,,,Citibank,Q857063
84,citi,Lincoln Square-NY,,New York,NY,,US,+1 800-627-3999,,,Citibank,Q857063
263,citi,Broadway & 63rd,,New York,NY,,US,+1 800-627-3999,,,Citibank,Q857063
54102,citi,ATM Duane Reade,,New York,NY,,US,,,,Citibank,Q857063
81826,citi,ATM Target,,New York,NY,,US,,,,Citibank,Q857063
66712,citi,ATM Nyit - Manhattan,,New York,NY,,US,,,,Citibank,Q857063
1tZa6Ui2O3BE0YfU18bsg0,corepower_yoga_us,UWS/70th and Broadway,,New York,NY,,US,,https://www.corepoweryoga.com/yoga-studios/ny/new-york-city/uws-70th-and-broadway,,Corepower Yoga,Q21015663
,credit_union_us,American Broadcast EFCU,,New York,NY,,US,+1 212-456-1064,,Mo-Fr 09:00-04:00,,
6062,cvs_us,CVS Pharmacy,,New York,NY,,US,+1 212-496-4198,https://www.cvs.com/store-locator/new-york-ny-pharmacies/200-west-end-avenue-new-york-ny-10023/storeid=6062,Mo-Su 07:00-00:00,CVS Pharmacy,Q2078880
3685,dominos_pizza_us,Domino's Pizza,,New York,NY,,US,+1 212-501-0200,https://pizza.dominos.com/new-york/new-york/148-w-72nd-st,Mo-Th 10:30-24:00; Fr-Sa 10:30-01:00; Su 10:30-24:00,Domino's,Q839466
355205,dunkin_us,Dunkin',,New York,NY,,US,+1 646-767-9048,https://locations.dunkindonuts.com/en/ny/new-york/166-w-72nd-st/355205,Mo-Fr 05:00-22:00; Sa-Su 05:00-21:30,Dunkin',Q847743
131,equinox,Equinox Sports Club New York,,New York,NY,,US,+1 212-362-6800,https://cdn.contentful.com/clubs/new-york/uptown/sportsclubnewyork,,Equinox Fitness,Q5384535
0159,european_wax_center_us,European Wax Center,,New York,NY,,US,+1 212-799-5999,https://locations.waxcenter.com/ny/newyork/new-york-75th-on-columbus-0159.html,Mo-Tu 09:00-20:00; We-Fr 08:00-21:00; Sa 08:00-18:00; Su 09:00-18:00,European Wax Center,Q5413426
29932,h_r_block,H&R Block,,New York,NY,,US,+1 212-799-2134,https://www.hrblock.com/local-tax-offices/new-york/new-york/116-w-72nd-st/29932/,,H&R Block,Q5627799
one-lincoln-plaza,indigo,One Lincoln Plaza,,New York,NY,,US,+1 855-529-4040,,,Indigo,Q3559970
2516,key_food_us,Brooklyn Fare,,New York ,NY,,US,+1 718-614-4957,https://keyfoodstores.keyfood.com/store/store/2516,Mo-Su 07:00-22:00,Key Food,Q6398037
https://stores.kiehls.com/ny/new-york/154-columbus-ave.html,kiehls_us,Kiehl's upper west side,,New York,NY,,US,+1 212-799-3438,https://stores.kiehls.com/ny/new-york/154-columbus-ave.html,Mo-Sa 10:00-19:00; Su 11:00-18:00,Kiehl's,Q3196447
The Shops at Columbus Circle,lululemon,Lululemon,"10 Columbus Circle, Unit 113, New York, NY, US, 10023",New York,NY,,US,+1 332-239-6384,https://shop.lululemon.com/stores/us/new-york/Columbus-Circle,Mo-Sa 10:00-20:00; Su 11:00-19:00,Lululemon,Q6702957
"70TH & Columbus, NYC",lululemon,Lululemon,"216 Columbus Avenue, New York, NY, US, 10023",New York,NY,,US,+1 917-441-5915,https://shop.lululemon.com/stores/us/new-york/70th---columbus--nyc,Mo-Sa 10:00-19:00; Su 11:00-19:00,Lululemon,Q6702957
https://stores.madewell.com/#14738553,madewell_us,Madewell,,New York,NY,,US,+1 332-456-4976,https://stores.madewell.com/us/ny/new-york/211-217-columbus-avenue,Mo-Sa 10:00-19:00; Su 11:00-19:00,Madewell,Q64026213
239254,mattress_firm_us,Mattress Firm Broadway,,New York,NY,,US,+1 212-769-3635,https://www.mattressfirm.com/en-us/stores/ny/new-york/167001/,,Mattress Firm,Q6791878
66046273,moneygram,CVS - #6062,,NEW YORK,NY,,US,+1 212-496-4198,,Mo-Su 08:00-23:00,MoneyGram,Q1944412
LPA,new_york_public_library,The New York Public Library for the Performing Arts,,New York,NY,,US,+1 917-275-6975,https://www.nypl.org/about/locations/,Mo 10:30-20:00; Tu-We 10:30-18:00; Th 10:30-20:00; Fr-Sa 10:30-18:00,The New York Public Library,Q219555
RS,new_york_public_library,Riverside Library,,New York,NY,,US,+1 212-870-1810,https://www.nypl.org/about/locations/,Mo-Th 10:00-19:00; Fr-Sa 10:00-17:00,The New York Public Library,Q219555
3062,orangetheory_fitness,Manhattan - UWS W 72,,New York,NY,,US,+1 646-679-6618,,,Orangetheory Fitness,Q25005163
1603,paper_source_us,"Columbus Ave, New York, NY",,New York,NY,,US,+1 646-861-2879,https://www.papersource.com/locator/Ny-columbus-ave/,Mo-Sa 10:00-20:00; Su 11:00-18:00,Paper Source,Q25000269
West 77th Street,soulcycle,West 77th Street,350 Amsterdam Avenue,New York,NY,,US,+1 212-787-1300,https://www.soul-cycle.com/studios/ny-newyork-west77th/,,Soulcycle,Q17084730
https://restaurants.subway.com/#14903362,subway,Subway,,New York New York,NY,,US,+1 212-974-6191,https://restaurants.subway.com/united-states/ny/new-york/33-west-end-avenue,Mo-Fr 07:00-21:00; Sa-Su 09:00-21:00,Subway,Q244457
2076,sweetgreen_us,67th + Columbus,,New York,NY,,US,+1 332-877-9803,https://order.sweetgreen.com/67th-columbus/,Mo-Su 10:30-22:00,Sweetgreen,Q18636413
37,sweetgreen_us,75th + Amsterdam,,New York,NY,,US,+1 212-496-4081,https://order.sweetgreen.com/75th-amsterdam/,Mo-Su 10:30-22:00,Sweetgreen,Q18636413
542,trader_joes_us,Trader Joe's 72nd & Broadway (542),,New York,NY,,US,+1 212-799-0028,https://locations.traderjoes.com/ny/new-york/542/,Mo-Su 08:00-21:00,Trader Joe's,Q688825
https://www.trekbikes.com/us/en_US/retail/upper_west_side_72nd/,trekbikes,Trek Bicycle Upper West Side 72nd St.,,New York City,NY,,US,+1 646-868-5354,https://www.trekbikes.com/us/en_US/retail/upper_west_side_72nd/,Tu-Sa 10:00-18:00,Trek,Q1067617
A00000020525,verizon_us,Victra NYC 2043b Broadway,,New York,NY,,US,+1 212-712-2300,https://www.verizon.com/stores/details/new-york/new-york/paging-zone-nyc-broadway-1744922/,Mo-Fr 09:00-19:00; Sa-Su 10:00-18:00,Verizon,Q919641
,visa,,,NEW YORK,NY,,US,,,,,
,visa,,,NEW YORK,NY,,US,,,,,
,visa,,,NEW YORK,NY,,US,,,,,
,visa,,,NEW YORK,NY,,US,,,,,
,visa,,,NEW YORK,NY,,US,,,,,
,visa,,,NEW YORK,NY,,US,,,,,
,visa,,,NEW YORK,NY,,US,,,,,
,visa,,,NEW YORK,NY,,US,,,,,
,visa,,,NEW YORK,NY,,US,,,,,
,visa,,,NEW YORK,NY,,US,,,,,
,visa,,,NEW YORK,NY,,US,,,,,
,visa,,,NEW YORK,NY,,US,,,,,
,visa,,,NEW YORK,NY,,US,,,,,
,visa,,,NEW YORK,NY,,US,,,,,
,visa,,,NEW YORK,NY,,US,,,,,
,visa,,,NEW YORK,NY,,US,,,,,
,visa,,,NEW YORK,NY,,US,,,,,
,visa,,,NEW YORK,NY,,US,,,,,
,visa,,,NEW YORK,NY,,US,,,,,
,visa,,,NEW YORK,NY,,US,,,,,
,visa,,,NEW YORK,NY,,US,,,,,
,visa,,,NEW YORK,NY,,US,,,,,
,visa,,,NEW YORK,NY,,US,,,,,
,visa,,,NEW YORK,NY,,US,,,,,
,visa,,,NEW YORK,NY,,US,,,,,
,visa,,,NEW YORK,NY,,US,,,,,
,visa,,,NEW YORK,NY,,US,,,,,
,visa,,,NEW YORK,NY,,US,,,,,
,visa,,,NEW YORK,NY,,US,,,,,
,visa,,,NEW YORK,NY,,US,,,,,
,visa,,,NY,NY,,US,,,,,
,visa,,,NEW YORK,NY,,US,,,,,
,visa,,,NEW YORK,NY,,US,,,,,
,visa,,,NEW YORK,NY,,US,,,,,
,visa,,,NEW YORK,NY,,US,,,,,
,visa,,,NEW YORK,NY,,US,,,,,
,visa,,,NEW YORK,NY,,US,,,,,
,visa,,,NEW YORK,NY,,US,,,,,
,visa,,,NEW YORK,NY,,US,,,,,
,visa,,,NEW YORK,NY,,US,,,,,
,visa,,,NEW YORK,NY,,US,,,,,
,visa,,,NEW YORK,NY,,US,,,,,
,visa,,,NEW YORK,NY,,US,,,,,
,visa,,,NEW YORK,NY,,US,,,,,
,visa,,,NEW YORK,NY,,US,,,,,
,visa,,,NEW YORK,NY,,US,,,,,
,visa,,,NEW YORK,NY,,US,,,,,
,visa,,,NEW YORK,NY,,US,,,,,
,visa,,,NEW YORK,NY,,US,,,,,
,visa,,,NEW YORK,NY,,US,,,,,
,visa,,,NEW YORK,NY,,US,,,,,
,visa,,,NEW YORK,NY,,US,,,,,
,visa,,,NEW YORK,NY,,US,,,,,
,visa,,,NEW YORK,NY,,US,,,,,
,visa,,,NEW YORK,NY,,US,,,,,
,visa,,,NEW YORK,NY,,US,,,,,
,visa,,,NEW YORK,NY,,US,,,,,
,visa,,,NEW YORK,NY,,US,,,,,
,visa,,,NEW YORK,NY,,US,,,,,
,visa,,,NEW YORK,NY,,US,,,,,
,visa,,,NEW YORK,NY,,US,,,,,
,visa,,,NEW YORK,NY,,US,,,,,
,visa,,,NEW YORK,NY,,US,,,,,
,visa,,,NEW YORK,NY,,US,,,,,
,visa,,,NEW YORK,NY,,US,,,,,
,visa,,,NEW YORK,NY,,US,,,,,
,visa,,,MANHATTAN,NY,,US,,,,,
,visa,,,NEW YORK,NY,,US,,,,,
,visa,,,NEW YORK,NY,,US,,,,,
,visa,,,NEW YORK,NY,,US,,,,,
,visa,,,NEW YORK,NY,,US,,,,,
,visa,,,NEW YORK,NY,,US,,,,,
,visa,,,NEW YORK,NY,,US,,,,,
,visa,,,NEW YORK,NY,,US,,,,,
,visa,,,NEW YORK,NY,,US,,,,,
,visa,,,NEW YORK,NY,,US,,,,,
,visa,,,NEW YORK,NY,,US,,,,,
,visa,,,NEW YORK,NY,,US,,,,,
,visa,,,NEW YORK,NY,,US,,,,,
,visa,,,NEW YORK,NY,,US,,,,,
,visa,,,MANHATTAN,NY,,US,,,,,
,visa,,,MANHATTAN,NY,,US,,,,,
,visa,,,NEW YORK,NY,,US,,,,,
,visa,,,NEW YORK,NY,,US,,,,,
,visa,,,NEW YORK,NY,,US,,,,,
,visa,,,NEW YORK,NY,,US,,,,,
,visa,,,NEW YORK,NY,,US,,,,,
,visa,,,NEW YORK,NY,,US,,,,,
,visa,,,NEW YORK,NY,,US,,,,,
,visa,,,NEW YORK,NY,,US,,,,,
,visa,,,NEW YORK,NY,,US,,,,,
,visa,,,NEW YORK,NY,,US,,,,,
,visa,,,NEW YORK,NY,,US,,,,,
,visa,,,NEW YORK,NY,,US,,,,,
,visa,,,NEW YORK,NY,,US,,,,,
,visa,,,NEW YORK,NY,,US,,,,,
,visa,,,NEW YORK,NY,,US,,,,,
,visa,,,NEW YORK,NY,,US,,,,,
,visa,,,NEW YORK,NY,,US,,,,,
,visa,,,NEW YORK,NY,,US,,,,,
https://locations.vitaminshoppe.com/ny/newyork/vitamins-supplements-new-york-ny-2.html,vitamin_shoppe,The Vitamin ShoppeÂ® 72nd St,2086-A Broadway ,New York,NY,,US,+1 212-580-7620,https://locations.vitaminshoppe.com/ny/newyork/vitamins-supplements-new-york-ny-2.html,Su 09:30-19:00; Mo 09:30-21:00; Tu 09:30-21:00; We 09:30-21:00; Th 09:30-21:00; Fr 09:30-21:00; Sa 09:30-20:00,The Vitamin Shoppe,Q7772938
https://www.walgreens.com/locator/duane+reade-4+amsterdam+ave-new+york-ny-10023/id=14181,walgreens,Duane Reade,,New York,NY,,US,+1 212-581-5527,https://www.walgreens.com/locator/duane+reade-4+amsterdam+ave-new+york-ny-10023/id=14181,Mo-Su 07:00-23:00,Duane Reade,Q5310380
https://www.walgreens.com/locator/duane+reade-2069+broadway-new+york-ny-10023/id=14486,walgreens,Duane Reade,,New York,NY,,US,+1 212-799-1067,https://www.walgreens.com/locator/duane+reade-2069+broadway-new+york-ny-10023/id=14486,24/7,Duane Reade,Q5310380
2039__BROADWAY__AT__AMSTERDAM__%26__70TH_NEW__YORK_NY_10023,wellsfargo,Wells Fargo,2039 BROADWAY AT AMSTERDAM & 70TH,NEW YORK,NY,,US,+1 646-602-4001,https://www.wellsfargo.com/locator/bank/2039__BROADWAY__AT__AMSTERDAM__%26__70TH_NEW__YORK_NY_10023/,Mo-Fr 09:00-17:00,Wells Fargo,Q744149
international-branch-ymca,ymca,International Branch YMCA,5 West 63rd Street,New York,NY,,US,+1 212-630-9600,https://www.ymca.org/locations/international-branch-ymca,Mo-Fr 09:00-17:00,YMCA,Q157169
