Ref,Spider,Name,Address,City,State,Zipcode,Country,Phone,Website,Hours,Brand,WikiData
1408,wildberries,Wildberries,"г. Грозный (Чеченская Республика), проспект Мухаммеда Али ( бывший проспект Кирова ), д 2А",,Chechnya,,RU,,,Mo-Su 10:00-21:00,Wildberries,Q24933714
6137,wildberries,Wildberries,"г. Грозный (Чеченская Республика), улица Заветы Ильича, 189А",,Chechnya,,RU,,,Mo-Su 10:00-21:00,Wildberries,Q24933714
103949,wildberries,Wildberries,г. Урус- Мартан С.Бадуева 39а,,Chechnya,,RU,,,Mo-Su 10:00-21:00,Wildberries,Q24933714
104528,wildberries,Wildberries,"Чеченская Республика, Грозный, улица У.А. Садаева, 19",,Chechnya,,RU,,,Mo-Su 10:00-21:00,Wildberries,Q24933714
105977,wildberries,Wildberries,"г Грозный (Респ Чеченская), улица Дербентская, д 9",,Chechnya,,RU,,,Mo-Su 10:00-21:00,Wildberries,Q24933714
108348,wildberries,Wildberries,"ст-ца Наурская Россия, Респ Чеченская, Наурский р-н Джона Рида 40 б",,Chechnya,,RU,,,Mo-Su 10:00-21:00,Wildberries,Q24933714
111030,wildberries,Wildberries,"село Ачхой-Мартан (Чеченская Республика, Ачхой-Мартановский район) Почтовая улица 20",,Chechnya,,RU,,,Mo-Su 10:00-21:00,Wildberries,Q24933714
112932,wildberries,Wildberries,"г Грозный (Чеченская Республика), улица Абдаллы II Бен Аль-Хусейна 16 ",,Chechnya,,RU,,,Mo-Su 10:00-21:00,Wildberries,Q24933714
114387,wildberries,Wildberries,"Аргун (Чеченская Республика), Шоссейная улица 111д",,Chechnya,,RU,,,Mo-Su 10:00-21:00,Wildberries,Q24933714
121016,wildberries,Wildberries,"г Грозный, Муслима Гайрбекова 80",,Chechnya,,RU,,,Mo-Su 10:00-21:00,Wildberries,Q24933714
121909,wildberries,Wildberries,"г Грозный, Проспект Кунта-Хаджи Кишиева 25",,Chechnya,,RU,,,Mo-Su 10:00-21:00,Wildberries,Q24933714
122190,wildberries,Wildberries,"г Шали, Ивановская Улица 4в",,Chechnya,,RU,,,Mo-Su 10:00-21:00,Wildberries,Q24933714
122423,wildberries,Wildberries,"г Гудермес, Улица Умарова 16в",,Chechnya,,RU,,,Mo-Su 10:00-21:00,Wildberries,Q24933714
128197,wildberries,Wildberries,"с Гехи, Улица Имени А.Х. Кадырова 130",,Chechnya,,RU,,,Mo-Su 09:00-20:00,Wildberries,Q24933714
131874,wildberries,Wildberries,"Грозный Чеченская Республика, городской округ Грозный улица Шейха Али Митаева 64",,Chechnya,,RU,,,Mo-Su 10:00-21:00,Wildberries,Q24933714
135785,wildberries,Wildberries,"Грозный Чеченская Республика, городской округ Грозный городок Иванова 109а",,Chechnya,,RU,,,Mo-Su 10:00-21:00,Wildberries,Q24933714
138417,wildberries,Wildberries,"г Грозный, Улица Геннадия Трошева 40",,Chechnya,,RU,,,Mo-Su 09:00-21:00,Wildberries,Q24933714
138877,wildberries,Wildberries,"г Шали, Улица А.Х. Кадырова 2",,Chechnya,,RU,,,Mo-Su 10:00-21:00,Wildberries,Q24933714
142280,wildberries,Wildberries,"с Аллерой, Улица С. Абуева 67",Shalinskiy Rayon,Chechnya,,RU,,,Mo-Su 10:00-21:00,Wildberries,Q24933714
145287,wildberries,Wildberries,"г Знаменское, Улица Ш. Хасанова 26",,Chechnya,,RU,,,Mo-Su 10:00-21:00,Wildberries,Q24933714
151849,wildberries,Wildberries,"Чеченская Республика, Аргун, улица А.А. Кадырова, 112",,Chechnya,,RU,,,Mo-Su 10:00-21:00,Wildberries,Q24933714
153091,wildberries,Wildberries,"с Шатой, Пионерская Улица 2",,Chechnya,,RU,,,Mo-Su 10:00-21:00,Wildberries,Q24933714
154412,wildberries,Wildberries,"ст-ца Шелковская, Косая Улица 176",,Chechnya,,RU,,,Mo-Su 10:00-21:00,Wildberries,Q24933714
157762,wildberries,Wildberries,"Грозный Чеченская Республика, городской округ Грозный Ашхабадская улица 2",,Chechnya,,RU,,,Mo-Su 10:00-21:00,Wildberries,Q24933714
158096,wildberries,Wildberries,"г Грозный, Улица У.А. Садаева 33",,Chechnya,,RU,,,Mo-Su 10:00-21:00,Wildberries,Q24933714
158557,wildberries,Wildberries,"с Знаменское, Улица Кадырова 44",,Chechnya,,RU,,,Mo-Su 09:00-21:00,Wildberries,Q24933714
159340,wildberries,Wildberries,"г Грозный, Улица Ивана Белова 14",,Chechnya,,RU,,,Mo-Su 10:00-21:00,Wildberries,Q24933714
162408,wildberries,Wildberries,"г Грозный, Улица Магомеда Яхъяевича Узуева 58",,Chechnya,,RU,,,Mo-Su 10:00-21:00,Wildberries,Q24933714
162592,wildberries,Wildberries,"г Грозный, Улица А.А. Айдамирова 134а",,Chechnya,,RU,,,Mo-Su 09:00-21:00,Wildberries,Q24933714
163101,wildberries,Wildberries,"г Грозный, Улица Жуковского 12",,Chechnya,,RU,,,Mo-Su 10:00-21:00,Wildberries,Q24933714
163432,wildberries,Wildberries,"Чеченская Республика, Грозный, улица имени А-К.Б. Арсаханова, 5А",,Chechnya,,RU,,,Mo-Su 10:00-21:00,Wildberries,Q24933714
164031,wildberries,Wildberries,"г Грозный, Улица Имени А-К.Б. Арсаханова 6б",,Chechnya,,RU,,,Mo-Su 10:00-21:00,Wildberries,Q24933714
164327,wildberries,Wildberries,"г Грозный, Улица Дьякова 23",,Chechnya,,RU,,,Mo-Su 10:00-21:00,Wildberries,Q24933714
164371,wildberries,Wildberries,"г Грозный, Улица А.А. Айдамирова 133",,Chechnya,,RU,,,Mo-Su 10:00-21:00,Wildberries,Q24933714
164732,wildberries,Wildberries,"Чеченская Республика, Грозный, проспект Ахмат-Хаджи Абдулхамидовича Кадырова, 201",,Chechnya,,RU,,,Mo-Su 10:00-21:00,Wildberries,Q24933714
168948,wildberries,Wildberries,"ст-ца Червленная, Улица Кулебякина 9",,Chechnya,,RU,,,Mo-Su 09:00-21:00,Wildberries,Q24933714
170911,wildberries,Wildberries,"с Старые-Атаги, Улица Джандарова Кюри Абазьевича 1а",,Chechnya,,RU,,,Mo-Su 09:00-21:00,Wildberries,Q24933714
171847,wildberries,Wildberries,"г Гудермес, Проспект Победы 36",,Chechnya,,RU,,,Mo-Su 10:00-22:00,Wildberries,Q24933714
200390,wildberries,Wildberries,"село Алхан-Кала, Элеваторная Улица 46",,Chechnya,,RU,,,Mo-Su 10:00-21:00,Wildberries,Q24933714
200394,wildberries,Wildberries,"посёлок Чири-Юрт, Шоссейная Улица 78",,Chechnya,,RU,,,Mo-Su 10:00-21:00,Wildberries,Q24933714
201288,wildberries,Wildberries,"Грозный, Улица Сайханова 106",,Chechnya,,RU,,,Mo-Su 10:00-21:00,Wildberries,Q24933714
202793,wildberries,Wildberries,"село Ножай-Юрт, Улица А.А. Кадырова 167",,Chechnya,,RU,,,Mo-Su 10:00-21:00,Wildberries,Q24933714
203267,wildberries,Wildberries,"Грозный, Улица Тучина 13",,Chechnya,,RU,,,Mo-Su 10:00-21:00,Wildberries,Q24933714
204394,wildberries,Wildberries,"Грозный, Улица Мовлида Алероевича Висаитова 21",,Chechnya,,RU,,,Mo-Su 09:00-21:00,Wildberries,Q24933714
204514,wildberries,Wildberries,"Грозный, Улица Дьякова 7",,Chechnya,,RU,,,Mo-Su 10:00-21:00,Wildberries,Q24933714
204902,wildberries,Wildberries,"Чеченская Республика, Грозный, улица Муслима Г. Гайрбекова, 64",,Chechnya,,RU,,,Mo-Su 10:00-21:00,Wildberries,Q24933714
206631,wildberries,Wildberries,"Грозный, Улица Нурсултана Абишевича Назарбаева 9а",,Chechnya,,RU,,,Mo-Su 10:00-21:00,Wildberries,Q24933714
207127,wildberries,Wildberries,"Грозный, Переулок Асланбека Шерипова 5а",,Chechnya,,RU,,,Mo-Su 10:00-21:00,Wildberries,Q24933714
207655,wildberries,Wildberries,"село Ачхой-Мартан, Школьная Улица 1",,Chechnya,,RU,,,Mo-Su 10:00-21:00,Wildberries,Q24933714
207783,wildberries,Wildberries,"Грозный, Улица Х.Д. Ошаева 14",,Chechnya,,RU,,,Mo-Su 10:00-21:00,Wildberries,Q24933714
208053,wildberries,Wildberries,"село Виноградное, Улица Ленина 120",,Chechnya,,RU,,,Mo-Su 10:00-21:00,Wildberries,Q24933714
208145,wildberries,Wildberries,"село Толстой-Юрт, Улица Кадырова 10",,Chechnya,,RU,,,Mo-Su 10:00-21:00,Wildberries,Q24933714
209088,wildberries,Wildberries,"посёлок Ойсхара, Улица Жукова 63",,Chechnya,,RU,,,Mo-Su 10:00-21:00,Wildberries,Q24933714
209294,wildberries,Wildberries,"село Гойты, Улица А. Кадырова 72",,Chechnya,,RU,,,Mo-Su 09:00-21:00,Wildberries,Q24933714
210609,wildberries,Wildberries,"Грозный, Социалистическая Улица 2",,Chechnya,,RU,,,Mo-Su 10:00-21:00,Wildberries,Q24933714
211425,wildberries,Wildberries,"село Алхазурово, Улица Асланбека Шерипова 61б",,Chechnya,,RU,,,Mo-Su 10:00-21:00,Wildberries,Q24933714
211671,wildberries,Wildberries,"Гудермес, Улица Кирова 237",,Chechnya,,RU,,,Mo-Su 10:00-21:00,Wildberries,Q24933714
211708,wildberries,Wildberries,"село Надтеречное, Улица Ленина 2а",,Chechnya,,RU,,,Mo-Su 10:00-21:00,Wildberries,Q24933714
211759,wildberries,Wildberries,"село Надтеречное, Улица Имени Мохади Тасуева 2",,Chechnya,,RU,,,Mo-Su 10:00-21:00,Wildberries,Q24933714
211879,wildberries,Wildberries,"Чеченская Республика, Урус-Мартан, улица Нурди Усамова, 89А",,Chechnya,,RU,,,Mo-Su 10:00-21:00,Wildberries,Q24933714
212008,wildberries,Wildberries,"Грозный, Старопромысловское Шоссе 24к3",,Chechnya,,RU,,,Mo-Su 10:00-21:00,Wildberries,Q24933714
212094,wildberries,Wildberries,"Урус-Мартан, Улица Имени Ахмат-Хаджи Кадырова 101а",,Chechnya,,RU,,,Mo-Su 10:00-21:00,Wildberries,Q24933714
212360,wildberries,Wildberries,"Гудермес, Проспект А. Кадырова 44",,Chechnya,,RU,,,Mo-Su 10:00-22:00,Wildberries,Q24933714
212509,wildberries,Wildberries,"село Самашки, Улица Орджоникидзе 28",,Chechnya,,RU,,,Mo-Su 10:00-21:00,Wildberries,Q24933714
212906,wildberries,Wildberries,"Грозный, Посёлок Имени Дадин Айбики 116",,Chechnya,,RU,,,Mo-Su 09:00-21:00,Wildberries,Q24933714
212953,wildberries,Wildberries,"Грозный, Улица Б.У. Коксулова 1",,Chechnya,,RU,,,Mo-Su 10:00-21:00,Wildberries,Q24933714
213553,wildberries,Wildberries,"село Ведено, Улица Кадырова 10",,Chechnya,,RU,,,Mo-Su 10:00-21:00,Wildberries,Q24933714
213671,wildberries,Wildberries,"Грозный, Улица Вахи Алиева 136",,Chechnya,,RU,,,Mo-Su 10:00-21:00,Wildberries,Q24933714
213741,wildberries,Wildberries,"село Автуры, Улица Бамат-Гирей-Хаджи 263",Shalinskiy Rayon,Chechnya,,RU,,,Mo-Su 10:00-21:00,Wildberries,Q24933714
213907,wildberries,Wildberries,"село Герменчук, Улица А. Кадырова 99б",,Chechnya,,RU,,,Mo-Su 10:00-21:00,Wildberries,Q24933714
213908,wildberries,Wildberries,"село Бачи-Юрт, Улица Р.А. Кадырова 23",Shalinskiy Rayon,Chechnya,,RU,,,Mo-Su 10:00-22:00,Wildberries,Q24933714
214033,wildberries,Wildberries,"Чеченская Республика, Грозный, улица Хеди Кишиевой, 34",,Chechnya,,RU,,,Mo-Su 10:00-21:00,Wildberries,Q24933714
214213,wildberries,Wildberries,"село Радужное, Шоссейная Улица 15а",,Chechnya,,RU,,,Mo-Su 10:00-21:00,Wildberries,Q24933714
214512,wildberries,Wildberries,"Гудермес, Улица Рябова 19",,Chechnya,,RU,,,Mo-Su 10:00-21:00,Wildberries,Q24933714
214543,wildberries,Wildberries,"Грозный, Уральская Улица 12",,Chechnya,,RU,,,Mo-Su 10:00-21:00,Wildberries,Q24933714
214569,wildberries,Wildberries,"Чеченская Республика, село Беркат-Юрт, улица Захарова, 28",,Chechnya,,RU,,,Mo-Su 10:00-21:00,Wildberries,Q24933714
215244,wildberries,Wildberries,"станица Калиновская, Улица Гагарина 15",,Chechnya,,RU,,,Mo-Su 10:00-21:00,Wildberries,Q24933714
215254,wildberries,Wildberries,"Грозный, Улица Коммуны 9а",,Chechnya,,RU,,,Mo-Su 10:00-21:00,Wildberries,Q24933714
215348,wildberries,Wildberries,"Грозный, Улица 2-Я Линия 1",,Chechnya,,RU,,,Mo-Su 10:00-21:00,Wildberries,Q24933714
215512,wildberries,Wildberries,"село Новотерское, Улица Кадырова 8",,Chechnya,,RU,,,Mo-Su 10:00-21:00,Wildberries,Q24933714
215919,wildberries,Wildberries,"село Сержень-Юрт, Улица А.Х. Кадырова 16",,Chechnya,,RU,,,Mo-Su 10:00-21:00,Wildberries,Q24933714
216292,wildberries,Wildberries,"Грозный, Восточная Объездная Улица 1",,Chechnya,,RU,,,Mo-Su 10:00-21:00,Wildberries,Q24933714
216307,wildberries,Wildberries,"Грозный, Улица Космонавтов 17/а",,Chechnya,,RU,,,Mo-Su 10:00-22:00,Wildberries,Q24933714
217349,wildberries,Wildberries,"село Новые-Атаги, Улица Орджоникидзе 105",,Chechnya,,RU,,,Mo-Su 10:00-21:00,Wildberries,Q24933714
217431,wildberries,Wildberries,"село Бердыкель, Улица А.Х. Кадырова 146",,Chechnya,,RU,,,Mo-Su 10:00-21:00,Wildberries,Q24933714
217826,wildberries,Wildberries,"Грозный, Моздокская Улица 23",,Chechnya,,RU,,,Mo-Su 10:00-21:00,Wildberries,Q24933714
217996,wildberries,Wildberries,"станица Калиновская, Красная Улица 31а",,Chechnya,,RU,,,Mo-Su 10:00-21:00,Wildberries,Q24933714
218059,wildberries,Wildberries,"Грозный, Улица Умара Димаева 14",,Chechnya,,RU,,,Mo-Su 10:00-21:00,Wildberries,Q24933714
218204,wildberries,Wildberries,"Грозный, Улица А.А. Айдамирова 198",,Chechnya,,RU,,,Mo-Su 10:00-21:00,Wildberries,Q24933714
218267,wildberries,Wildberries,"село Гелдаган, Улица А.Х. Кадырова 94",,Chechnya,,RU,,,Mo-Su 10:00-21:00,Wildberries,Q24933714
218294,wildberries,Wildberries,"Грозный, Улица Мовлида Алероевича Висаитова 58",,Chechnya,,RU,,,Mo-Su 10:00-21:00,Wildberries,Q24933714
218850,wildberries,Wildberries,"станица Каргалинская, Первомайская Улица 41а",,Chechnya,,RU,,,Mo-Su 10:00-21:00,Wildberries,Q24933714
218900,wildberries,Wildberries,"село Гвардейское, Улица Дружбы 29а",,Chechnya,,RU,,,Mo-Su 10:00-21:00,Wildberries,Q24933714
218909,wildberries,Wildberries,"Урус-Мартан, Улица Имени Шейха Солса-Хаджи Яндарова 108",,Chechnya,,RU,,,Mo-Su 10:00-22:00,Wildberries,Q24933714
219013,wildberries,Wildberries,"село Алхан-Юрт, Улица Вахитова 19",,Chechnya,,RU,,,Mo-Su 10:00-21:00,Wildberries,Q24933714
300182,wildberries,Wildberries,"станица Гребенская, Улица Айдамирова 2а",,Chechnya,,RU,,,Mo-Su 10:00-21:00,Wildberries,Q24933714
300268,wildberries,Wildberries,"село Мескер-Юрт, Улица А-Х. Кадырова 75",,Chechnya,,RU,,,Mo-Su 10:00-21:00,Wildberries,Q24933714
300664,wildberries,Wildberries,"село Кулары, Улица Имени Джамолы Берсанова 1",,Chechnya,,RU,,,Mo-Su 10:00-21:00,Wildberries,Q24933714
300673,wildberries,Wildberries,"село Дуба-Юрт, Улица А-Х. Кадырова 125",,Chechnya,,RU,,,Mo-Su 10:00-21:00,Wildberries,Q24933714
302014,wildberries,Wildberries,"село Правобережное, Северная Улица 37",,Chechnya,,RU,,,Mo-Su 10:00-21:00,Wildberries,Q24933714
302472,wildberries,Wildberries,"Курчалой, Улица А. Шерипова 3а",,Chechnya,,RU,,,Mo-Su 10:00-21:00,Wildberries,Q24933714
302575,wildberries,Wildberries,"Чеченская Республика, село Чечен-Аул, улица Шейха Али Митаева, 35",,Chechnya,,RU,,,Mo-Su 10:00-21:00,Wildberries,Q24933714
302761,wildberries,Wildberries,"станица Первомайская, Переулок Грибоедова 1",,Chechnya,,RU,,,Mo-Su 10:00-21:00,Wildberries,Q24933714
303032,wildberries,Wildberries,"село Джалка, Улица Магомедхаджиева 2",,Chechnya,,RU,,,Mo-Su 10:00-21:00,Wildberries,Q24933714
303448,wildberries,Wildberries,"Чеченская Республика, Грозный, улица Вахи Алиева, 10А",,Chechnya,,RU,,,Mo-Su 10:00-21:00,Wildberries,Q24933714
303534,wildberries,Wildberries,"Республика Дагестан, село Хамавюрт, Центральная улица, 55",,Chechnya,,RU,,,Mo-Su 10:00-21:00,Wildberries,Q24933714
303637,wildberries,Wildberries,"Чеченская Республика, село Гехи, улица Гагарина, 65/2",,Chechnya,,RU,,,Mo-Su 10:00-21:00,Wildberries,Q24933714
303732,wildberries,Wildberries,"Чеченская Республика, Грозный, улица Вахи Алиева, 97",,Chechnya,,RU,,,Mo-Su 10:00-21:00,Wildberries,Q24933714
303960,wildberries,Wildberries,"Аргун, Улица С. Аксактемирова 25а",,Chechnya,,RU,,,Mo-Su 10:00-21:00,Wildberries,Q24933714
303985,wildberries,Wildberries,"посёлок Ойсхара, Р-217 Кавказ, 705-Й Километр 38",,Chechnya,,RU,,,Mo-Su 10:00-21:00,Wildberries,Q24933714
304233,wildberries,Wildberries,"станица Наурская, Октябрьская Улица 32",,Chechnya,,RU,,,Mo-Su 10:00-21:00,Wildberries,Q24933714
304410,wildberries,Wildberries,"станица Горячеисточненская, Улица А.А. Шаптукаева 22",,Chechnya,,RU,,,Mo-Su 10:00-21:00,Wildberries,Q24933714
304484,wildberries,Wildberries,"село Кади-Юрт, Улица Мичурина 1а",,Chechnya,,RU,,,Mo-Su 10:00-21:00,Wildberries,Q24933714
304647,wildberries,Wildberries,"станица Шелковская, Советская Улица 27",,Chechnya,,RU,,,Mo-Su 10:00-21:00,Wildberries,Q24933714
304719,wildberries,Wildberries,"село Ведено, Улица А.Х. Кадырова 25",,Chechnya,,RU,,,Mo-Su 10:00-21:00,Wildberries,Q24933714
304973,wildberries,Wildberries,"Чеченская Республика, село Белгатой, улица А.А. Кадырова, 137",,Chechnya,,RU,,,Mo-Su 10:00-21:00,Wildberries,Q24933714
304985,wildberries,Wildberries,"станица Ищерская, Выездная Улица 1",,Chechnya,,RU,,,Mo-Su 09:00-21:00,Wildberries,Q24933714
305306,wildberries,Wildberries,"Грозный, Бульвар Султана Дудаева 9",,Chechnya,,RU,,,Mo-Su 10:00-21:00,Wildberries,Q24933714
305688,wildberries,Wildberries,"село Нижний-Нойбер, Улица Кадырова 17",,Chechnya,,RU,,,Mo-Su 10:00-21:00,Wildberries,Q24933714
305730,wildberries,Wildberries,"село Самашки, Рабочая Улица 65/14",,Chechnya,,RU,,,Mo-Su 10:00-21:00,Wildberries,Q24933714
305862,wildberries,Wildberries,"Чеченская Республика, Урус-Мартан, улица имени Ахмат-Хаджи Кадырова, 31",,Chechnya,,RU,,,Mo-Su 10:00-21:00,Wildberries,Q24933714
305953,wildberries,Wildberries,"село Рошни-Чу, Улица Д.Н. Денисултанова 66",,Chechnya,,RU,,,Mo-Su 10:00-21:00,Wildberries,Q24933714
306075,wildberries,Wildberries,"село Зандак, Улица А.П. Ханбетирова 16",,Chechnya,,RU,,,Mo-Su 10:00-21:00,Wildberries,Q24933714
306079,wildberries,Wildberries,"Чеченская Республика, село Гехи, улица имени А.Х. Кадырова, 159",,Chechnya,,RU,,,Mo-Su 10:00-21:00,Wildberries,Q24933714
306147,wildberries,Wildberries,"Грозный, Бульвар Султана Дудаева 14",,Chechnya,,RU,,,Mo-Su 10:00-21:00,Wildberries,Q24933714
306179,wildberries,Wildberries,"село Цоци-Юрт, Улица Али Митаева 64",,Chechnya,,RU,,,Mo-Su 10:00-21:00,Wildberries,Q24933714
306299,wildberries,Wildberries,"село Гехи, Улица Имени А.Х. Кадырова 145",,Chechnya,,RU,,,Mo-Su 10:00-21:00,Wildberries,Q24933714
306375,wildberries,Wildberries,"Аргун, Мельничная Улица 19а",,Chechnya,,RU,,,Mo-Su 10:00-21:00,Wildberries,Q24933714
306425,wildberries,Wildberries,"Гудермес, Улица Имени Х. Нурадилова 7",,Chechnya,,RU,,,Mo-Su 10:00-21:00,Wildberries,Q24933714
306486,wildberries,Wildberries,"село Мескеты, Центральная Улица 11",,Chechnya,,RU,,,Mo-Su 10:00-21:00,Wildberries,Q24933714
306698,wildberries,Wildberries,"Курчалой, Улица М. Шатаева 58",,Chechnya,,RU,,,Mo-Su 10:00-21:00,Wildberries,Q24933714
306862,wildberries,Wildberries,"станица Петропавловская, Осенняя Улица 71а",,Chechnya,,RU,,,Mo-Su 10:00-21:00,Wildberries,Q24933714
307044,wildberries,Wildberries,"село Брагуны, Дагестанская Улица 42",,Chechnya,,RU,,,Mo-Su 10:00-21:00,Wildberries,Q24933714
307177,wildberries,Wildberries,"станица Мекенская, Улица Имени А.-Х. Кадырова 48",,Chechnya,,RU,,,Mo-Su 09:00-21:00,Wildberries,Q24933714
307366,wildberries,Wildberries,"Грозный, Улица Сайханова 242а",,Chechnya,,RU,,,Mo-Su 10:00-21:00,Wildberries,Q24933714
307407,wildberries,Wildberries,"село Юбилейное, Школьная Улица 10",,Chechnya,,RU,,,Mo-Su 10:00-21:00,Wildberries,Q24933714
307477,wildberries,Wildberries,"станица Ново-Щедринская, Улица Ленина 42",,Chechnya,,RU,,,Mo-Su 10:00-21:00,Wildberries,Q24933714
307495,wildberries,Wildberries,"Чеченская Республика, Гудермес, проспект А. Кадырова, 9",,Chechnya,,RU,,,Mo-Su 10:00-21:00,Wildberries,Q24933714
307568,wildberries,Wildberries,"село Махкеты, Улица А.Х. Кадырова 100",,Chechnya,,RU,,,Mo-Su 10:00-21:00,Wildberries,Q24933714
307709,wildberries,Wildberries,"село Гвардейское, Улица А.А. Кадырова 36",,Chechnya,,RU,,,Mo-Su 10:00-21:00,Wildberries,Q24933714
307850,wildberries,Wildberries,"село Итум-Кали, Улица М.Я. Узуева 81",,Chechnya,,RU,,,Mo-Su 10:00-21:00,Wildberries,Q24933714
307854,wildberries,Wildberries,"село Бачи-Юрт, Улица Ахмат-Хаджи Кадырова 44",Shalinskiy Rayon,Chechnya,,RU,,,Mo-Su 10:00-21:00,Wildberries,Q24933714
307931,wildberries,Wildberries,"Чеченская Республика, село Новое-Солкушино, улица Ахмат-Хаджи Кадырова, 28Б",,Chechnya,,RU,,,Mo-Su 10:00-21:00,Wildberries,Q24933714
308387,wildberries,Wildberries,"село Бачи-Юрт, Улица А.Р. Кадырова 82",Shalinskiy Rayon,Chechnya,,RU,,,Mo-Su 10:00-21:00,Wildberries,Q24933714
308405,wildberries,Wildberries,"село Илсхан-Юрт, Шоссейная Улица 10а",,Chechnya,,RU,,,Mo-Su 10:00-22:00,Wildberries,Q24933714
308791,wildberries,Wildberries,"Шали, Улица Сугаип-Муллы Гайсумова 64",,Chechnya,,RU,,,Mo-Su 10:00-21:00,Wildberries,Q24933714
309017,wildberries,Wildberries,"село Толстой-Юрт, Улица Кадырова 34",,Chechnya,,RU,,,Mo-Su 10:00-21:00,Wildberries,Q24933714
309083,wildberries,Wildberries,"село Нижний-Нойбер, Тракторная Улица 1",,Chechnya,,RU,,,Mo-Su 10:00-21:00,Wildberries,Q24933714
309604,wildberries,Wildberries,"Грозный, Улица Л.З. Шахгиреева 25",,Chechnya,,RU,,,Mo-Su 10:00-21:00,Wildberries,Q24933714
309609,wildberries,Wildberries,"Грозный, Улица Хасана Шарпудиновича Кааева 12",,Chechnya,,RU,,,Mo-Su 10:00-21:00,Wildberries,Q24933714
309726,wildberries,Wildberries,"Грозный, Улица М.Д. Миллионщикова 32",,Chechnya,,RU,,,Mo-Su 10:00-21:00,Wildberries,Q24933714
309826,wildberries,Wildberries,"Шали, Учительская Улица 21",,Chechnya,,RU,,,Mo-Su 10:00-21:00,Wildberries,Q24933714
309848,wildberries,Wildberries,"посёлок Катар-Юрт, Шоссейная Улица 23а",,Chechnya,,RU,,,Mo-Su 10:00-22:00,Wildberries,Q24933714
310257,wildberries,Wildberries,"станица Савельевская, Улица Никитина 1/1",,Chechnya,,RU,,,Mo-Su 10:00-21:00,Wildberries,Q24933714
310479,wildberries,Wildberries,"Курчалой, Улица А-Х. Кадырова 24с1",,Chechnya,,RU,,,Mo-Su 10:00-21:00,Wildberries,Q24933714
310569,wildberries,Wildberries,"село Верхний Наур, Улица 40 Лет Победы 58",,Chechnya,,RU,,,Mo-Su 10:00-21:00,Wildberries,Q24933714
310677,wildberries,Wildberries,"Чеченская Республика, Аргун, Московская улица, 8",,Chechnya,,RU,,,Mo-Su 10:00-21:00,Wildberries,Q24933714
310813,wildberries,Wildberries,"Грозный, Ясеневая Улица 39",,Chechnya,,RU,,,Mo-Su 10:00-22:00,Wildberries,Q24933714
310855,wildberries,Wildberries,"Грозный, Улица С. Садаева 17",,Chechnya,,RU,,,Mo-Su 10:00-21:00,Wildberries,Q24933714
310954,wildberries,Wildberries,"село Беной, Улица А.А. Кадырова 34",,Chechnya,,RU,,,Mo-Su 09:00-21:00,Wildberries,Q24933714
310981,wildberries,Wildberries,"село Дарбанхи, Молодёжная Улица 11",,Chechnya,,RU,,,Mo-Su 10:00-21:00,Wildberries,Q24933714
311036,wildberries,Wildberries,"село Нижний-Нойбер, Нефтяная-А Улица 52",,Chechnya,,RU,,,Mo-Su 10:00-21:00,Wildberries,Q24933714
311164,wildberries,Wildberries,"село Садовое, Черкасская Улица 30",,Chechnya,,RU,,,Mo-Su 10:00-21:00,Wildberries,Q24933714
311189,wildberries,Wildberries,"Грозный, Ханкальский Проезд 11ак1",,Chechnya,,RU,,,Mo-Su 10:00-22:00,Wildberries,Q24933714
311206,wildberries,Wildberries,"село Старые-Атаги, Улица Нурадилова 143",,Chechnya,,RU,,,Mo-Su 10:00-21:00,Wildberries,Q24933714
311212,wildberries,Wildberries,"Грозный, Изоляторная Улица 3а",,Chechnya,,RU,,,Mo-Su 10:00-21:00,Wildberries,Q24933714
311224,wildberries,Wildberries,"Грозный, Улица Николаева 73",,Chechnya,,RU,,,Mo-Su 10:00-21:00,Wildberries,Q24933714
311289,wildberries,Wildberries,"село Побединское, Улица Победы 56е",,Chechnya,,RU,,,Mo-Su 10:00-21:00,Wildberries,Q24933714
311321,wildberries,Wildberries,"село Мелчхи, Улица М.Х. Вайсерт 42",,Chechnya,,RU,,,Mo-Su 10:00-21:00,Wildberries,Q24933714
311343,wildberries,Wildberries,"Ачхой-Мартан, Улица А. Кадырова 93",,Chechnya,,RU,,,Mo-Su 10:00-21:00,Wildberries,Q24933714
311365,wildberries,Wildberries,"Грозный, Улица С.Б. Бациева 23",,Chechnya,,RU,,,Mo-Su 09:00-20:00,Wildberries,Q24933714
311397,wildberries,Wildberries,"Грозный, Проспект Ахмат-Хаджи Абдулхамидовича Кадырова 154",,Chechnya,,RU,,,Mo-Su 10:00-21:00,Wildberries,Q24933714
311426,wildberries,Wildberries,"село Шовхал-Берды, Молодёжная Улица 13",,Chechnya,,RU,,,Mo-Su 09:00-21:00,Wildberries,Q24933714
311487,wildberries,Wildberries,"Чеченская Республика, Грозный, улица Тимирязева, 74/1",,Chechnya,,RU,,,Mo-Su 10:00-21:00,Wildberries,Q24933714
311648,wildberries,Wildberries,"село Надтеречное, Улица Ленина 36",,Chechnya,,RU,,,Mo-Su 10:00-21:00,Wildberries,Q24933714
311769,wildberries,Wildberries,"Чеченская Республика, село Гой-Чу, Малгобекская улица, 26",,Chechnya,,RU,,,Mo-Su 10:00-21:00,Wildberries,Q24933714
311770,wildberries,Wildberries,"Грозный, Пятигорская Улица 8",,Chechnya,,RU,,,Mo-Su 10:00-21:00,Wildberries,Q24933714
311852,wildberries,Wildberries,"село Ишхой-Юрт, Улица А.-Х. Кадырова 14",,Chechnya,,RU,,,Mo-Su 10:00-21:00,Wildberries,Q24933714
312029,wildberries,Wildberries,"Грозный, Улица Мичурина 104",,Chechnya,,RU,,,Mo-Su 10:00-21:00,Wildberries,Q24933714
312067,wildberries,Wildberries,"Гудермес, Улица Исаева 5",,Chechnya,,RU,,,Mo-Su 10:00-22:00,Wildberries,Q24933714
312122,wildberries,Wildberries,"село Знаменское, Центральная Улица 44",,Chechnya,,RU,,,Mo-Su 10:00-21:00,Wildberries,Q24933714
312146,wildberries,Wildberries,"Чеченская Республика, станица Наурская, Пролетарская улица, 16",,Chechnya,,RU,,,Mo-Su 10:00-21:00,Wildberries,Q24933714
312227,wildberries,Wildberries,"село Новый Беной, Улица Ахмат-Хаджи Абдулхамидовича Кадырова 52",,Chechnya,,RU,,,Mo-Su 10:00-21:00,Wildberries,Q24933714
312287,wildberries,Wildberries,"Грозный, Улица Дружбы Народов 7",,Chechnya,,RU,,,Mo-Su 10:00-22:00,Wildberries,Q24933714
312302,wildberries,Wildberries,"село Майртуп, Улица Кирова 6",,Chechnya,,RU,,,Mo-Su 10:00-21:00,Wildberries,Q24933714
312450,wildberries,Wildberries,"село Братское, Улица Лаудаева 10",,Chechnya,,RU,,,Mo-Su 10:00-21:00,Wildberries,Q24933714
312478,wildberries,Wildberries,"Гудермес, Проспект Терешковой 12б",,Chechnya,,RU,,,Mo-Su 09:00-21:00,Wildberries,Q24933714
312537,wildberries,Wildberries,"село Бено-Юрт, 4-Я Шоссейная Линия 2а",,Chechnya,,RU,,,Mo-Su 10:00-21:00,Wildberries,Q24933714
312633,wildberries,Wildberries,"Грозный, Шатойская Улица 36",,Chechnya,,RU,,,Mo-Su 10:00-22:00,Wildberries,Q24933714
312783,wildberries,Wildberries,"Чеченская Республика, Грозный, проспект Кунта-Хаджи Кишиева, 90/2",,Chechnya,,RU,,,Mo-Su 10:00-21:00,Wildberries,Q24933714
312996,wildberries,Wildberries,"Чеченская Республика, село Валерик, улица Гайрбекова, 5",,Chechnya,,RU,,,Mo-Su 10:00-21:00,Wildberries,Q24933714
313614,wildberries,Wildberries,"Чеченская Республика, Аргун, улица Карла Маркса, 1",,Chechnya,,RU,,,Mo-Su 10:00-21:00,Wildberries,Q24933714
50000047,wildberries,Wildberries,"станица Николаевская, Улица Мира 21",,Chechnya,,RU,,,Mo-Su 09:00-20:00,Wildberries,Q24933714
50000097,wildberries,Wildberries,"село Шуани, Улица Дружбы 21",,Chechnya,,RU,,,Mo-Su 10:00-21:00,Wildberries,Q24933714
50000188,wildberries,Wildberries,"село Мартан-Чу, Улица А. Кадырова 41",,Chechnya,,RU,,,Mo-Su 09:00-21:00,Wildberries,Q24933714
50000234,wildberries,Wildberries,"Гудермес, Беной-Веденская Улица 36",,Chechnya,,RU,,,Mo-Su 10:00-22:00,Wildberries,Q24933714
50000246,wildberries,Wildberries,"село Комсомольское, Улица А.А. Кадырова 32",,Chechnya,,RU,,,Mo-Su 10:00-22:00,Wildberries,Q24933714
50000250,wildberries,Wildberries,"село Новые-Атаги, Улица А.Х. Кадырова 340",,Chechnya,,RU,,,Mo-Su 09:00-21:00,Wildberries,Q24933714
50000263,wildberries,Wildberries,"село Аллерой, Улица А. Хуцуруева 38",Shalinskiy Rayon,Chechnya,,RU,,,Mo-Su 10:00-22:00,Wildberries,Q24933714
50000264,wildberries,Wildberries,"посёлок Катар-Юрт, Улица Орджоникидзе 84",,Chechnya,,RU,,,Mo-Su 10:00-22:00,Wildberries,Q24933714
50000300,wildberries,Wildberries,"село Герзель-Аул, Улица Кадырова 8",,Chechnya,,RU,,,Mo-Su 10:00-22:00,Wildberries,Q24933714
50000421,wildberries,Wildberries,"село Алхан-Кала, Улица Кирова 88",,Chechnya,,RU,,,Mo-Su 10:00-21:00,Wildberries,Q24933714
50000554,wildberries,Wildberries,"село Фрунзенское, Школьная Улица 18",,Chechnya,,RU,,,Mo-Su 10:00-22:00,Wildberries,Q24933714
50000596,wildberries,Wildberries,"село Кошкельды, Улица Х. Нурадилова 68",,Chechnya,,RU,,,Mo-Su 10:00-22:00,Wildberries,Q24933714
50000678,wildberries,Wildberries,"село Мекен-Юрт, Октябрьская Улица 17",,Chechnya,,RU,,,Mo-Su 10:00-22:00,Wildberries,Q24933714
50000746,wildberries,Wildberries,"село Закан-Юрт, Северная Улица 1",,Chechnya,,RU,,,Mo-Su 10:00-22:00,Wildberries,Q24933714
50000782,wildberries,Wildberries,"село Алхан-Юрт, Улица Р.Хажбикарова 196",,Chechnya,,RU,,,Mo-Su 10:00-22:00,Wildberries,Q24933714
50000798,wildberries,Wildberries,"село Лаха-Варанды, Аргунская Улица 6в",,Chechnya,,RU,,,Mo-Su 10:00-22:00,Wildberries,Q24933714
50000880,wildberries,Wildberries,"Грозный, Сенная Улица 1",,Chechnya,,RU,,,Mo-Su 10:00-22:00,Wildberries,Q24933714
50000883,wildberries,Wildberries,"Аргун, Южная Улица 22",,Chechnya,,RU,,,Mo-Su 10:00-22:00,Wildberries,Q24933714
50000944,wildberries,Wildberries,"Ойсхара, Шоссейная Улица 17",,Chechnya,,RU,,,Mo-Su 10:00-22:00,Wildberries,Q24933714
50001002,wildberries,Wildberries,"Курчалой, Улица А-Х. Кадырова 195",,Chechnya,,RU,,,Mo-Su 10:00-22:00,Wildberries,Q24933714
50001027,wildberries,Wildberries,"посёлок Горагорский, Улица Новый Городок 8",,Chechnya,,RU,,,Mo-Su 10:00-22:00,Wildberries,Q24933714
50001180,wildberries,Wildberries,"село Рубежное, Улица Ленина 16а",,Chechnya,,RU,,,Mo-Su 10:00-22:00,Wildberries,Q24933714
50001337,wildberries,Wildberries,"Шали, Луговая Улица 24",,Chechnya,,RU,,,Mo-Su 10:00-22:00,Wildberries,Q24933714
