Ref,Spider,Name,Address,City,State,Zipcode,Country,Phone,Website,Hours,Brand,WikiData
,credit_union_us,Canvas CU,,Aurora,CO,,US,+1 303-691-2345,,Mo-Fr 09:00-06:00,,
,credit_union_us,Fitzsimons CU,,Aurora,CO,,US,+1 303-340-3343,,Mo-Fr 08:30-05:30; Sa 09:00-01:00,,
fitzsimons-surface-lot,indigo,Fitzsimons Surface Lot,,Aurora,CO,,US,+1 303-291-1111,,,Indigo,Q3559970
fitzsimons-garage,indigo,Fitzsimons Garage,,Aurora,CO,,US,+1 303-291-1111,,,Indigo,Q3559970
https://locations.jimmyjohns.com/co/aurora/sandwiches-596.html,jimmy_johns,Jimmy John's,,Aurora,CO,,US,+1 303-366-9000,https://locations.jimmyjohns.com/co/aurora/sandwiches-596.html,,Jimmy John's,Q1689380
https://healthy.kaiserpermanente.org/colorado/facilities/walgreens-no-11448-339157,kaiser_permanente_us,Walgreens No. 11448,,Aurora,CO,,US,+1 720-262-4524,https://healthy.kaiserpermanente.org/colorado/facilities/walgreens-no-11448-339157,,Kaiser Permanente,Q1721601
https://healthy.kaiserpermanente.org/colorado/facilities/university-of-colorado-hospital-pharmacy-340573,kaiser_permanente_us,University of Colorado Hospital Pharmacy,,Aurora,CO,,US,+1 720-848-8368,https://healthy.kaiserpermanente.org/colorado/facilities/university-of-colorado-hospital-pharmacy-340573,,Kaiser Permanente,Q1721601
https://healthy.kaiserpermanente.org/colorado/facilities/university-of-colorado-hospital-op-pavilion-340567,kaiser_permanente_us,University of Colorado Hospital OP Pavilion,,Aurora,CO,,US,+1 720-848-1020,https://healthy.kaiserpermanente.org/colorado/facilities/university-of-colorado-hospital-op-pavilion-340567,,Kaiser Permanente,Q1721601
https://healthy.kaiserpermanente.org/colorado/facilities/university-of-colorado-hospital-atrium-pharmacy-340569,kaiser_permanente_us,University of Colorado Hospital Atrium Pharmacy,,Aurora,CO,,US,+1 720-848-4083,https://healthy.kaiserpermanente.org/colorado/facilities/university-of-colorado-hospital-atrium-pharmacy-340569,,Kaiser Permanente,Q1721601
https://healthy.kaiserpermanente.org/colorado/facilities/university-of-colorado-anschutz-medical-campus-hemophilia-and-thrombosis-center-425173,kaiser_permanente_us,University of Colorado Anschutz Medical Campus Hemophilia and Thrombosis Center,,Aurora,CO,,US,+1 303-724-0168,https://healthy.kaiserpermanente.org/colorado/facilities/university-of-colorado-anschutz-medical-campus-hemophilia-and-thrombosis-center-425173,,Kaiser Permanente,Q1721601
https://healthy.kaiserpermanente.org/colorado/facilities/university-hospital-rehabilitation-425171,kaiser_permanente_us,University Hospital - Rehabilitation,,Aurora,CO,,US,+1 866-429-6045,https://healthy.kaiserpermanente.org/colorado/facilities/university-hospital-rehabilitation-425171,,Kaiser Permanente,Q1721601
https://healthy.kaiserpermanente.org/colorado/facilities/university-hospital-425169,kaiser_permanente_us,University Hospital,,Aurora,CO,,US,+1 720-848-0000,https://healthy.kaiserpermanente.org/colorado/facilities/university-hospital-425169,,Kaiser Permanente,Q1721601
https://healthy.kaiserpermanente.org/colorado/facilities/uchealth-laboratory-services-university-of-colorado-hospital-340433,kaiser_permanente_us,UCHealth Laboratory Services - University of Colorado Hospital,,Aurora,CO,,US,+1 720-848-4401,https://healthy.kaiserpermanente.org/colorado/facilities/uchealth-laboratory-services-university-of-colorado-hospital-340433,,Kaiser Permanente,Q1721601
https://healthy.kaiserpermanente.org/colorado/facilities/prosthetic-and-orthotic-group-pediatric-specialists-colorado-llc-324381,kaiser_permanente_us,"Prosthetic and Orthotic Group Pediatric Specialists - Colorado, LLC",,Aurora,CO,,US,+1 303-400-8866,https://healthy.kaiserpermanente.org/colorado/facilities/prosthetic-and-orthotic-group-pediatric-specialists-colorado-llc-324381,,Kaiser Permanente,Q1721601
https://healthy.kaiserpermanente.org/colorado/facilities/childrens-hospital-colorado-kidney-center-424955,kaiser_permanente_us,"Children's Hospital Colorado, Kidney Center",,Aurora,CO,,US,+1 303-777-1234,https://healthy.kaiserpermanente.org/colorado/facilities/childrens-hospital-colorado-kidney-center-424955,,Kaiser Permanente,Q1721601
https://healthy.kaiserpermanente.org/colorado/facilities/childrens-hospital-colorado-anschutz-members-21-younger-100533,kaiser_permanente_us,Children's Hospital Colorado - Anschutz (members 21 & younger),,Aurora,CO,,US,+1 720-777-1234,https://healthy.kaiserpermanente.org/colorado/facilities/childrens-hospital-colorado-anschutz-members-21-younger-100533,,Kaiser Permanente,Q1721601
https://healthy.kaiserpermanente.org/colorado/facilities/aviva-at-fitzsimons-340727,kaiser_permanente_us,Aviva at Fitzsimons,,Aurora,CO,,US,+1 303-344-8282,https://healthy.kaiserpermanente.org/colorado/facilities/aviva-at-fitzsimons-340727,,Kaiser Permanente,Q1721601
https://restaurants.subway.com/#14910718,subway,Subway Fitzsimons Medical Center,,Aurora Adams,CO,,US,+1 303-360-7120,https://restaurants.subway.com/united-states/co/aurora/12501-e-17th-ave,Mo-Fr 07:00-19:30; Sa 09:00-15:00,Subway,Q244457
8004500005,usps_collection_boxes,USPS COLLECTION BOX - BLUE BOX,1635 AURORA CT,AURORA,CO,,US,,,,United States Postal Service,Q668687
,visa,,,AURORA,CO,,US,,,,,
,visa,,,AURORA,CO,,US,,,,,
,visa,,,AURORA,CO,,US,,,,,
,visa,,,AURORA,CO,,US,,,,,
,visa,,,AURORA,CO,,US,,,,,
