Ref,Spider,Name,Address,City,State,Zipcode,Country,Phone,Website,Hours,Brand,WikiData
,visa,,,JOCOTEPEC,JALISCO,,MX,,,,,
,visa,,,JOCOTEPEC,JALISCO,,MX,,,,,
,visa,,,JOCOTEPEC,JALISCO,,MX,,,,,
,visa,,,JOCOTEPEC,JALISCO,,MX,,,,,
,visa,,,JOCOTEPEC,JALISCO,,MX,,,,,
423190549f2d057ab2bfb051c91a266c,western_union,CAJA ATEMAJAC 8171 JOCOTEPEC IMX,,Jocotepec,JALISCO,,MX,+52 800 733 3300,https://location.westernunion.com/mx/jalisco/jocotepec/423190549f2d057ab2bfb051c91a266c,Mo-Fr 09:00-18:00; Sa 09:00-14:00,Western Union,Q861042
f37b4182861f1d65f55e4f655b1e6c0d,western_union,CAJA ATEMAJAC 8171 JOCOTEPEC IMX,,Jocotepec,JALISCO,,MX,+52 800 733 3300,https://location.westernunion.com/mx/jalisco/jocotepec/f37b4182861f1d65f55e4f655b1e6c0d,Mo-Fr 09:00-18:00; Sa 09:00-14:00,Western Union,Q861042
b53d4d0872b06fd2db391df9b9b9312e,western_union,OXXO SENDEROS DEL LAGOGDL,,Jocotepec,JALISCO,,MX,+52 81 8389 2121,https://location.westernunion.com/mx/jalisco/jocotepec/b53d4d0872b06fd2db391df9b9b9312e,Mo-Su 08:00-22:00,Western Union,Q861042
e3b473d4532fe887a43c4c5800fc8a94,western_union,OXXO SENDEROS DEL LAGOGDL,,Jocotepec,JALISCO,,MX,+52 81 8389 2121,https://location.westernunion.com/mx/jalisco/jocotepec/e3b473d4532fe887a43c4c5800fc8a94,Mo-Su 08:00-22:00,Western Union,Q861042
576273fc5d670113709f1c8e5668e7d8,western_union,OXXO EL CHANTE GDL,,Jocotepec,JALISCO,,MX,+52 81 8389 2121,https://location.westernunion.com/mx/jalisco/jocotepec/576273fc5d670113709f1c8e5668e7d8,Mo-Su 08:00-22:00,Western Union,Q861042
4f176799f9282246e593c692bf3da28f,western_union,OXXO EL CHANTE GDL,,Jocotepec,JALISCO,,MX,+52 81 8389 2121,https://location.westernunion.com/mx/jalisco/jocotepec/4f176799f9282246e593c692bf3da28f,Mo-Su 08:00-22:00,Western Union,Q861042
e1638c11fcb6d72260a2ce3d0a04ec08,western_union,OXXO EL CHANTE GDL,,Jocotepec,JALISCO,,MX,+52 81 8389 2121,https://location.westernunion.com/mx/jalisco/jocotepec/e1638c11fcb6d72260a2ce3d0a04ec08,Mo-Su 08:00-22:00,Western Union,Q861042
c914086af7b963fc9a694bbc14ee8871,western_union,AURRERA JOCOTEPEC 4093,,Jocotepec,JALISCO,,MX,+52 800 833 4700,https://location.westernunion.com/mx/jalisco/jocotepec/c914086af7b963fc9a694bbc14ee8871,Mo-Su 07:00-23:00,Western Union,Q861042
325a049af4df4f28f0730199b8621eb0,western_union,AURRERA JOCOTEPEC 4093,,Jocotepec,JALISCO,,MX,+52 800 833 4700,https://location.westernunion.com/mx/jalisco/jocotepec/325a049af4df4f28f0730199b8621eb0,Mo-Su 07:00-23:00,Western Union,Q861042
f8013ca009fc96e5b2ef173eb1df4d2b,western_union,AURRERA JOCOTEPEC 4093,,Jocotepec,JALISCO,,MX,+52 800 833 4700,https://location.westernunion.com/mx/jalisco/jocotepec/f8013ca009fc96e5b2ef173eb1df4d2b,Mo-Su 07:00-23:00,Western Union,Q861042
140a2085a9b3a0e2f475c8593c81391e,western_union,FARM GUAD MIGUEL ARANA,,Jocotepec,JALISCO,,MX,+52 800 833 4700,https://location.westernunion.com/mx/jalisco/jocotepec/140a2085a9b3a0e2f475c8593c81391e,Mo-Su 08:00-20:00,Western Union,Q861042
545deefdabb83adb7dc5f751a094e655,western_union,FARM GUAD MIGUEL ARANA,,Jocotepec,JALISCO,,MX,+52 800 833 4700,https://location.westernunion.com/mx/jalisco/jocotepec/545deefdabb83adb7dc5f751a094e655,Mo-Su 08:00-20:00,Western Union,Q861042
af0f5a46c94f18025643aad271a7cc7d,western_union,FARM GUAD MIGUEL ARANA,,Jocotepec,JALISCO,,MX,+52 800 833 4700,https://location.westernunion.com/mx/jalisco/jocotepec/af0f5a46c94f18025643aad271a7cc7d,Mo-Su 08:00-20:00,Western Union,Q861042
4a091879d13cafe73652b21b26eae8a3,western_union,TELECOMM 14052,,Jocotepec,JALISCO,,MX,+52 800 800 9889,https://location.westernunion.com/mx/jalisco/jocotepec/4a091879d13cafe73652b21b26eae8a3,Mo-Fr 09:00-15:00,Western Union,Q861042
b74e4b7dc57234e827f48c59189b571e,western_union,TELECOMM 14052,,Jocotepec,JALISCO,,MX,+52 800 800 8930,https://location.westernunion.com/mx/jalisco/jocotepec/b74e4b7dc57234e827f48c59189b571e,Mo-Su 09:00-20:00,Western Union,Q861042
6ac13571c3ae9529a1e02950683404b6,western_union,TELECOMM 14052,,Jocotepec,JALISCO,,MX,+52 800 800 8930,https://location.westernunion.com/mx/jalisco/jocotepec/6ac13571c3ae9529a1e02950683404b6,Mo-Su 09:00-21:00,Western Union,Q861042
14fe1eccdd0691a26adafa04aea34b69,western_union,CAJA ATEMAJAC 8171 JOCOTEPEC IMX,,Jocotepec,JALISCO,,MX,+52 800 733 3300,https://location.westernunion.com/mx/jalisco/jocotepec/14fe1eccdd0691a26adafa04aea34b69,Mo-Fr 09:00-18:00; Sa 09:00-14:00,Western Union,Q861042
5906558d1120195d96099e176186fa25,western_union,ELEKTRA 6132,,Jocotepec,JALISCO,,MX,+52 55 1720 8177,https://location.westernunion.com/mx/jalisco/jocotepec/5906558d1120195d96099e176186fa25,Mo-Su 09:00-20:00,Western Union,Q861042
f02a68a3827900ee04c2c73a02679444,western_union,ELEKTRA 6132,,Jocotepec,JALISCO,,MX,+52 55 1720 8177,https://location.westernunion.com/mx/jalisco/jocotepec/f02a68a3827900ee04c2c73a02679444,Mo-Su 09:00-21:00,Western Union,Q861042
6021503ef97cedf3329aa9a548fa8ac1,western_union,ELEKTRA 6132,,Jocotepec,JALISCO,,MX,+52 55 1720 8177,https://location.westernunion.com/mx/jalisco/jocotepec/6021503ef97cedf3329aa9a548fa8ac1,Mo-Su 09:00-21:00,Western Union,Q861042
f21047a323c7a885af7209ed99b5f266,western_union,TIENDA MUEBLERIA BODEGON JOCOTEPEC,,Jocotepec,JALISCO,,MX,+52 387 763 0214,https://location.westernunion.com/mx/jalisco/jocotepec/f21047a323c7a885af7209ed99b5f266,Mo-Sa 10:00-20:30; Su 10:00-14:00,Western Union,Q861042
82f4a8917af892f0b992e9dc03ea7749,western_union,CAJA SOLIDARIA SUR DE JALISCO JOCOTEPEC,,Jocotepec,JALISCO,,MX,+52 387 688 0004,https://location.westernunion.com/mx/jalisco/jocotepec/82f4a8917af892f0b992e9dc03ea7749,Mo-Fr 09:00-17:00; Sa 09:00-13:00,Western Union,Q861042
768eb272b55e1c6591ddbd18be82d4d0,western_union,CAJA SOLIDARIA SUR DE JALISCO JOCOTEPEC,,Jocotepec,JALISCO,,MX,+52 387 688 0004,https://location.westernunion.com/mx/jalisco/jocotepec/768eb272b55e1c6591ddbd18be82d4d0,Mo-Fr 09:00-17:00; Sa 09:00-13:00,Western Union,Q861042
a19b33308f6bd52f042de3fc3d358692,western_union,CAJA SOLIDARIA SUR DE JALISCO JOCOTEPEC,,Jocotepec,JALISCO,,MX,+52 387 688 0004,https://location.westernunion.com/mx/jalisco/jocotepec/a19b33308f6bd52f042de3fc3d358692,Mo-Fr 09:00-17:00; Sa 09:00-13:00,Western Union,Q861042
f23aca201ecf054c72d410d67efb4d89,western_union,OXXO NEVERIA GUD,,Jocotepec,JALISCO,,MX,+52 81 8389 2121,https://location.westernunion.com/mx/jalisco/jocotepec/f23aca201ecf054c72d410d67efb4d89,Mo-Su 08:00-22:00,Western Union,Q861042
de642c46810a24f6ad1838b747b5dbb9,western_union,OXXO NEVERIA GUD,,Jocotepec,JALISCO,,MX,+52 81 8389 2121,https://location.westernunion.com/mx/jalisco/jocotepec/de642c46810a24f6ad1838b747b5dbb9,Mo-Su 08:00-22:00,Western Union,Q861042
4deb66c975013a37c789a43a622448b9,western_union,OXXO NEVERIA GUD,,Jocotepec,JALISCO,,MX,+52 81 8389 2121,https://location.westernunion.com/mx/jalisco/jocotepec/4deb66c975013a37c789a43a622448b9,Mo-Su 08:00-22:00,Western Union,Q861042
82dc87daf6e2e4289dbc7dab7798fe03,western_union,OXXO JOCOTEPEC CENTRO GDL,,Jocotepec,JALISCO,,MX,+52 81 8389 2121,https://location.westernunion.com/mx/jalisco/jocotepec/82dc87daf6e2e4289dbc7dab7798fe03,Mo-Su 08:00-22:00,Western Union,Q861042
a1fe2bb0b73454e6de88dd7d0a667f75,western_union,OXXO JOCOTEPEC CENTRO GDL,,Jocotepec,JALISCO,,MX,+52 81 8389 2121,https://location.westernunion.com/mx/jalisco/jocotepec/a1fe2bb0b73454e6de88dd7d0a667f75,Mo-Su 08:00-22:00,Western Union,Q861042
40b09406497ee2af00aba8ed4b8467ea,western_union,OXXO JOCOTEPEC CENTRO GDL,,Jocotepec,JALISCO,,MX,+52 81 8389 2121,https://location.westernunion.com/mx/jalisco/jocotepec/40b09406497ee2af00aba8ed4b8467ea,Mo-Su 08:00-22:00,Western Union,Q861042
ae3813218f35cd697860d2e2ad05b54a,western_union,MUEBLES AMERICA 36 AP CASH,,Jocotepec,JALISCO,,MX,+52 387 763 2911,https://location.westernunion.com/mx/jalisco/jocotepec/ae3813218f35cd697860d2e2ad05b54a,Mo-Su 09:30-20:30,Western Union,Q861042
09cc65b002085150577e67fd42386285,western_union,MUEBLES AMERICA 36 AP CASH,,Jocotepec,JALISCO,,MX,+52 387 763 2911,https://location.westernunion.com/mx/jalisco/jocotepec/09cc65b002085150577e67fd42386285,Mo-Su 09:30-20:30,Western Union,Q861042
e8de1bdff496a42f0d7bb5bf5a5d56ae,western_union,MUEBLES AMERICA 36 AP CASH,,Jocotepec,JALISCO,,MX,+52 387 763 2911,https://location.westernunion.com/mx/jalisco/jocotepec/e8de1bdff496a42f0d7bb5bf5a5d56ae,Mo-Su 09:30-20:30,Western Union,Q861042
91781fc4f58f5e197aa5e33deafb5b1f,western_union,TIENDA MUEBLERIA BODEGON JOCOTEPEC,,Jocotepec,JALISCO,,MX,+52 387 763 0214,https://location.westernunion.com/mx/jalisco/jocotepec/91781fc4f58f5e197aa5e33deafb5b1f,Mo-Sa 10:00-20:30; Su 10:00-14:00,Western Union,Q861042
df8417632421d7ed6730f3ce97ce6c10,western_union,TIENDA MUEBLERIA BODEGON JOCOTEPEC,,Jocotepec,JALISCO,,MX,+52 387 763 0214,https://location.westernunion.com/mx/jalisco/jocotepec/df8417632421d7ed6730f3ce97ce6c10,Mo-Sa 10:00-20:30; Su 10:00-14:00,Western Union,Q861042
2d72c0678995afb14a925728ff9adb4b,western_union,OXXO GUERRERO GDL,,Jocotepec,JALISCO,,MX,+52 81 8389 2121,https://location.westernunion.com/mx/jalisco/jocotepec/2d72c0678995afb14a925728ff9adb4b,Mo-Su 08:00-22:00,Western Union,Q861042
34461ecbf9800e7e84caf621389645c9,western_union,OXXO GUERRERO GDL,,Jocotepec,JALISCO,,MX,+52 81 8389 2121,https://location.westernunion.com/mx/jalisco/jocotepec/34461ecbf9800e7e84caf621389645c9,Mo-Su 08:00-22:00,Western Union,Q861042
738d06bf52d0b1535cb6a08b7fc06a04,western_union,OXXO GUERRERO GDL,,Jocotepec,JALISCO,,MX,+52 81 8389 2121,https://location.westernunion.com/mx/jalisco/jocotepec/738d06bf52d0b1535cb6a08b7fc06a04,Mo-Su 08:00-22:00,Western Union,Q861042
990463743f15b33f101fcb071465f900,western_union,OXXO LA FRESA GDL,,Jocotepec,JALISCO,,MX,+52 81 8389 2121,https://location.westernunion.com/mx/jalisco/jocotepec/990463743f15b33f101fcb071465f900,Mo-Su 08:00-22:00,Western Union,Q861042
31f565211d0f9176d3f1bfc16ba4aa84,western_union,OXXO LA FRESA GDL,,Jocotepec,JALISCO,,MX,+52 81 8389 2121,https://location.westernunion.com/mx/jalisco/jocotepec/31f565211d0f9176d3f1bfc16ba4aa84,Mo-Su 08:00-22:00,Western Union,Q861042
18c30c9d99c76b95bbc62ea2695b9a6b,western_union,OXXO LA FRESA GDL,,Jocotepec,JALISCO,,MX,+52 81 8389 2121,https://location.westernunion.com/mx/jalisco/jocotepec/18c30c9d99c76b95bbc62ea2695b9a6b,Mo-Su 08:00-22:00,Western Union,Q861042
c1d300127feb80cdf19ef2ff59b2a513,western_union,OXXO BIENVENIDOS AJOCOGDL,,Jocotepec,JALISCO,,MX,+52 81 8389 2121,https://location.westernunion.com/mx/jalisco/jocotepec/c1d300127feb80cdf19ef2ff59b2a513,Mo-Su 08:00-22:00,Western Union,Q861042
1e9a351c0287fde3e28912b7dedd855f,western_union,OXXO BIENVENIDOS AJOCOGDL,,Jocotepec,JALISCO,,MX,+52 81 8389 2121,https://location.westernunion.com/mx/jalisco/jocotepec/1e9a351c0287fde3e28912b7dedd855f,Mo-Su 08:00-22:00,Western Union,Q861042
42654f7f5833a79d2f3c0c03e7ea7219,western_union,OXXO BIENVENIDOS AJOCOGDL,,Jocotepec,JALISCO,,MX,+52 81 8389 2121,https://location.westernunion.com/mx/jalisco/jocotepec/42654f7f5833a79d2f3c0c03e7ea7219,Mo-Su 08:00-22:00,Western Union,Q861042
