Ref,Spider,Name,Address,City,State,Zipcode,Country,Phone,Website,Hours,Brand,WikiData
,visa,,,CALLAO,CALLAO,,PE,,,,,
,visa,,,CARMEN DE LA LEGUA REYNOSO,CALLAO,,PE,,,,,
,visa,,,CALLAO,CALLAO,,PE,,,,,
,visa,,,CALLAO,CALLAO,,PE,,,,,
,visa,,,CALLAO,CALLAO,,PE,,,,,
,visa,,,CALLAO,CALLAO,,PE,,,,,
,visa,,,CALLAO,CALLAO,,PE,,,,,
,visa,,,CALLAO,CALLAO,,PE,,,,,
,visa,,,CALLAO,CALLAO,,PE,,,,,
,visa,,,CALLAO,CALLAO,,PE,,,,,
,visa,,,CALLAO,CALLAO,,PE,,,,,
,visa,,,CALLAO,CALLAO,,PE,,,,,
,visa,,,CALLAO,CALLAO,,PE,,,,,
,visa,,,CALLAO,CALLAO,,PE,,,,,
,visa,,,CALLAO,CALLAO,,PE,,,,,
,visa,,,CALLAO,CALLAO,,PE,,,,,
,visa,,,BELLAVISTA,CALLAO,,PE,,,,,
,visa,,,CALLAO,CALLAO,,PE,,,,,
,visa,,,CALLAO,CALLAO,,PE,,,,,
,visa,,,CALLAO,CALLAO,,PE,,,,,
,visa,,,CALLAO,CALLAO,,PE,,,,,
,visa,,,CALLAO,CALLAO,,PE,,,,,
,visa,,,CALLAO,CALLAO,,PE,,,,,
,visa,,,CALLAO,CALLAO,,PE,,,,,
,visa,,,CALLAO,CALLAO,,PE,,,,,
,visa,,,BELLAVISTA,CALLAO,,PE,,,,,
,visa,,,CALLAO,CALLAO,,PE,,,,,
,visa,,,CALLAO,CALLAO,,PE,,,,,
,visa,,,CALLAO,CALLAO,,PE,,,,,
,visa,,,CALLAO,CALLAO,,PE,,,,,
,visa,,,BELLAVISTA,CALLAO,,PE,,,,,
,visa,,,CALLAO,CALLAO,,PE,,,,,
,visa,,,CALLAO,CALLAO,,PE,,,,,
,visa,,,CALLAO,CALLAO,,PE,,,,,
,visa,,,CALLAO,CALLAO,,PE,,,,,
,visa,,,CALLAO,CALLAO,,PE,,,,,
,visa,,,CALLAO,CALLAO,,PE,,,,,
,visa,,,CALLAO,CALLAO,,PE,,,,,
,visa,,,CALLAO,CALLAO,,PE,,,,,
,visa,,,CALLAO,CALLAO,,PE,,,,,
,visa,,,CALLAO,CALLAO,,PE,,,,,
,visa,,,CALLAO,CALLAO,,PE,,,,,
,visa,,,CALLAO,CALLAO,,PE,,,,,
,visa,,,CALLAO,CALLAO,,PE,,,,,
,visa,,,CALLAO,CALLAO,,PE,,,,,
,visa,,,CALLAO,CALLAO,,PE,,,,,
,visa,,,CALLAO,CALLAO,,PE,,,,,
,visa,,,CALLAO,CALLAO,,PE,,,,,
,visa,,,CALLAO,CALLAO,,PE,,,,,
,visa,,,CALLAO,CALLAO,,PE,,,,,
,visa,,,CALLAO,CALLAO,,PE,,,,,
,visa,,,LA PERLA,CALLAO,,PE,,,,,
,visa,,,CALLAO,CALLAO,,PE,,,,,
,visa,,,CALLAO,CALLAO,,PE,,,,,
,visa,,,VENTANILLA,CALLAO,,PE,,,,,
,visa,,,CALLAO,CALLAO,,PE,,,,,
,visa,,,CALLAO,CALLAO,,PE,,,,,
,visa,,,VENTANILLA,CALLAO,,PE,,,,,
,visa,,,VENTANILLA,CALLAO,,PE,,,,,
,visa,,,CALLAO,CALLAO,,PE,,,,,
,visa,,,CALLAO,CALLAO,,PE,,,,,
,visa,,,CALLAO,CALLAO,,PE,,,,,
,visa,,,CALLAO,CALLAO,,PE,,,,,
,visa,,,LA PERLA,CALLAO,,PE,,,,,
,visa,,,CALLAO,CALLAO,,PE,,,,,
,visa,,,CALLAO,CALLAO,,PE,,,,,
,visa,,,CALLAO,CALLAO,,PE,,,,,
,visa,,,CALLAO,CALLAO,,PE,,,,,
,visa,,,CALLAO,CALLAO,,PE,,,,,
,visa,,,CALLAO,CALLAO,,PE,,,,,
,visa,,,CALLAO,CALLAO,,PE,,,,,
,visa,,,CALLAO,CALLAO,,PE,,,,,
,visa,,,CALLAO,CALLAO,,PE,,,,,
,visa,,,CALLAO,CALLAO,,PE,,,,,
,visa,,,CALLAO,CALLAO,,PE,,,,,
,visa,,,CALLAO,CALLAO,,PE,,,,,
,visa,,,CALLAO,CALLAO,,PE,,,,,
,visa,,,CALLAO,CALLAO,,PE,,,,,
,visa,,,CALLAO,CALLAO,,PE,,,,,
,visa,,,CALLAO,CALLAO,,PE,,,,,
,visa,,,CALLAO,CALLAO,,PE,,,,,
,visa,,,CALLAO,CALLAO,,PE,,,,,
,visa,,,CALLAO,CALLAO,,PE,,,,,
,visa,,,CALLAO,CALLAO,,PE,,,,,
,visa,,,CALLAO,CALLAO,,PE,,,,,
,visa,,,CALLAO,CALLAO,,PE,,,,,
,visa,,,CALLAO,CALLAO,,PE,,,,,
,visa,,,CALLAO,CALLAO,,PE,,,,,
,visa,,,LA PUNTA,CALLAO,,PE,,,,,
,visa,,,CALLAO,CALLAO,,PE,,,,,
,visa,,,LA PUNTA,CALLAO,,PE,,,,,
33f0ea53ee40a5f3a7457ab63ba38d0a,western_union,PREPAGO   CATALOGOS UNIDOS BAZAR,,Callao,CALLAO,,PE,(+51) 1-997268669,https://location.westernunion.com/pe/callao/callao/33f0ea53ee40a5f3a7457ab63ba38d0a,Mo-Su 08:00-23:00,Western Union,Q861042
