Ref,Spider,Name,Address,City,State,Zipcode,Country,Phone,Website,Hours,Brand,WikiData
https://locations.auntieannes.com/#8840,auntie_annes,Auntie Anne's Greenville KY Food Truck,,Greenville,KY,,US,+1 270-543-7968,https://locations.auntieannes.com/ky/greenville/greenville-ky-food-truck,,Auntie Anne's,Q4822010
229797,bluerhino,Casey's General Store #4435,,Greenville,KY,,US,+1 270-600-4647,,,Blue Rhino,Q65681213
210770,bluerhino,Dollar General #22361,,Greenville,KY,,US,+1 502-208-2645,,,Blue Rhino,Q65681213
192070,bluerhino,Walgreens #17956,,Greenville,KY,,US,+1 270-338-4241,,,Blue Rhino,Q65681213
16010724990404234500100000000000,bp,BP,,Greenville,KY,,US,+1 270-338-0890,,24/7,BP,Q152057
88703,citi,ATM Walgreens,,Greenville,KY,,US,,,,Citibank,Q857063
22361,dollar_general,Dollar General,,Greenville,KY,,US,+1 502-208-2645,https://www.dollargeneral.com/store-directory/ky/greenville/22361,Mo-Su 08:00-22:00,Dollar General,Q145168
https://www.edwardjones.com/us-en/financial-advisor/alan-grewe,edwardjones,Alan Grewe,,Greenville,KY,,US,+1 270-338-4141,https://www.edwardjones.com/us-en/financial-advisor/alan-grewe,,Edward Jones,Q5343830
27167,h_r_block,H&R Block,,Greenville,KY,,US,+1 270-338-4570,https://www.hrblock.com/local-tax-offices/kentucky/greenville/140-n-main-st/27167/,,H&R Block,Q5627799
https://office.jacksonhewitt.com/#27579462,jackson_hewitt,Jackson Hewitt,,Greenville,KY,,US,+1 270-338-2218,https://office.jacksonhewitt.com/tax-preparation-services-locations/en/ky/greenville/700-north-main-street/19284,Mo-Fr 09:00-18:00; Sa 09:00-17:00,Jackson Hewitt,Q6117132
158034,marathon_petroleum_us,IDEAL MARKET 10,,GREENVILLE,KY,,US,+1 270-338-2454,,,Marathon,Q458363
ky_greenville_910-n-main,pizza_hut_us,910 N Main,,Greenville,KY,,US,+1 270-338-6467,https://locations.pizzahut.com/ky/greenville/910-n-main,,Pizza Hut,Q191615
malone-lumber-co-26732,ppgpaints,MALONE LUMBER CO,,"Greenville, ",KY,,US,+1 270-338-3252,https://www.ppgpaints.com/store-locator/us/kentucky/greenville-paint-stores/malone-lumber-co-26732,,PPG Paints,Q83891559
1365666,usps,GREENVILLE,,GREENVILLE,KY,,US,+1 270-338-4900,,Mo-Fr 09:00-16:00; Sa 09:00-11:00,United States Postal Service,Q668687
4234500028,usps_collection_boxes,USPS COLLECTION BOX - BLUE BOX,158 S MAIN ST,GREENVILLE,KY,,US,,,,United States Postal Service,Q668687
4234500024,usps_collection_boxes,USPS COLLECTION BOX - PO LOBBY,102 COURT ST,GREENVILLE,KY,,US,,,,United States Postal Service,Q668687
4234500030,usps_collection_boxes,USPS COLLECTION BOX - PO LOBBY,102 COURT ST,GREENVILLE,KY,,US,,,,United States Postal Service,Q668687
,visa,,,GREENVILLE,KY,,US,,,,,
,visa,,,GREENVILLE,KY,,US,,,,,
,visa,,,GREENVILLE,KY,,US,,,,,
,visa,,,GREENVILLE,KY,,US,,,,,
,visa,,,GREENVILLE,KY,,US,,,,,
,visa,,,GREENVILLE,KY,,US,,,,,
,visa,,,GREENVILLE,KY,,US,,,,,
,visa,,,GREENVILLE,KY,,US,,,,,
,visa,,,GREENVILLE,KY,,US,,,,,
,visa,,,GREENVILLE,KY,,US,,,,,
,visa,,,GREEVILLE,KY,,US,,,,,
,visa,,,GREENVILLE,KY,,US,,,,,
,visa,,,GREENVILLE,KY,,US,,,,,
,visa,,,GREENVILLE,KY,,US,,,,,
https://www.walgreens.com/locator/walgreens-201+s+main+st-greenville-ky-42345/id=17956,walgreens,Walgreens,,Greenville,KY,,US,+1 270-338-4241,https://www.walgreens.com/locator/walgreens-201+s+main+st-greenville-ky-42345/id=17956,Mo-Su 09:00-21:00,Walgreens,Q1591889
1e835b046d8d8c85247d757524da798f,western_union,WALGREENS #17956,,Greenville,KY,,US,+1 270-338-4241,https://location.westernunion.com/us/ky/greenville/1e835b046d8d8c85247d757524da798f,Mo-Fr 08:00-21:00; Sa 08:00-20:00; Su 08:00-19:00,Western Union,Q861042
