Ref,Spider,Name,Address,City,State,Zipcode,Country,Phone,Website,Hours,Brand,WikiData
Motorcraft2284USAEnglish,ford,Moore Ford,,Kentucky,KY,,US,+1 270-298-4800,,,Ford,Q44294
https://www.ford.com/dealerships/dealer-details/ky/hartford/moore-ford/,ford_dealers_us,Moore Ford,,Hartford,KY,,US,+1 270-289-7873,https://www.ford.com/dealerships/dealer-details/ky/hartford/moore-ford/,Mo-Fr 09:00-17:00; Sa 09:00-18:00,Ford Motor Company,Q44294
Hometown IGA #47,iga,Hometown IGA #47,"1137 HWY 231 South, Hartford, KY, 42347",Hartford,KY,,US,+1 270-295-3881,http://www.myiga.com,,IGA,Q3146662
160437,marathon_petroleum_us,Get Go Express,,HARTFORD,KY,,US,+1 270-298-4325,,,Marathon,Q458363
155342,marathon_petroleum_us,MARATHON HARTFORD,,HARTFORD,KY,,US,+1 270-298-4813,,,Marathon,Q458363
646223,penske,The Pool Medic,,HARTFORD,KY,,US,+1 270-297-3053,https://www.pensketruckrental.com/locations/us/kentucky/hartford/646223/,,Penske,Q81234570
1366368,usps,HARTFORD,,HARTFORD,KY,,US,+1 270-298-3550,,Mo-Fr 08:00-16:00; Sa 09:00-11:00,United States Postal Service,Q668687
4234700005,usps_collection_boxes,USPS COLLECTION BOX - BLUE BOX,230 S MAIN ST,HARTFORD,KY,,US,,,,United States Postal Service,Q668687
4234700004,usps_collection_boxes,USPS COLLECTION BOX - BLUE BOX,130 E WASHINGTON ST,HARTFORD,KY,,US,,,,United States Postal Service,Q668687
4234700000,usps_collection_boxes,USPS COLLECTION BOX - BLUE BOX,1101 S MAIN ST,HARTFORD,KY,,US,,,,United States Postal Service,Q668687
4234700009,usps_collection_boxes,USPS COLLECTION BOX - PO LOBBY,1101 S MAIN ST,HARTFORD,KY,,US,,,,United States Postal Service,Q668687
4234700011,usps_collection_boxes,USPS COLLECTION BOX - BLUE BOX,1101 S MAIN ST,HARTFORD,KY,,US,,,,United States Postal Service,Q668687
4234700013,usps_collection_boxes,USPS COLLECTION BOX - PO LOBBY,1101 S MAIN ST,HARTFORD,KY,,US,,,,United States Postal Service,Q668687
,visa,,,HARTFORD,KY,,US,,,,,
,visa,,,HARTFORD,KY,,US,,,,,
,visa,,,HARTFORD,KY,,US,,,,,
,visa,,,HARTFORD,KY,,US,,,,,
,visa,,,HARTFORD,KY,,US,,,,,
,visa,,,HARTFORD,KY,,US,,,,,
,visa,,,HARTFORD,KY,,US,,,,,
,visa,,,HARTFORD,KY,,US,,,,,
,visa,,,HARTFORD,KY,,US,,,,,
,visa,,,HARTFORD,KY,,US,,,,,
aacf687390e761e05fa4fcae56c26ece,western_union,HOMETOWN IGA #47,,Hartford,KY,,US,+1 270-298-3709,https://location.westernunion.com/us/ky/hartford/aacf687390e761e05fa4fcae56c26ece,Mo-Su 07:00-23:00,Western Union,Q861042
