Ref,Spider,Name,Address,City,State,Zipcode,Country,Phone,Website,Hours,Brand,WikiData
4439,action,Poitiers-Sud,,Poitiers,,,FR,,https://www.action.com/fr-fr/points-de-vente/poitiers-197-rue-du-huit-mai-1945/,,Action,Q2634111
4525,action,Poitiers-Lafayette,,Poitiers,,,FR,,https://www.action.com/fr-fr/points-de-vente/poitiers-2-avenue-de-lafayette/,,Action,Q2634111
4840,action,Poitiers-La Blaiserie,,Poitiers,,,FR,,https://www.action.com/fr-fr/points-de-vente/poitiers/,,Action,Q2634111
1870700722,banque_populaire_fr,POITIERS NANTES,,POITIERS,,,FR,+33 9 88 98 91 98,https://agences.banquepopulaire.fr/banque-assurance/agence-poitiers-nantes-id1870700722,"Tu 08:45-12:30,14:30-18:00; We 08:45-12:30,13:45-18:00; Th 08:45-12:30,14:30-18:00; Fr 08:45-12:30,13:45-18:00; Sa 08:45-12:15",Banque Populaire,Q846647
1870700725,banque_populaire_fr,POITIERS LAFAYETTE,,POITIERS,,,FR,+33 9 88 98 90 15,https://agences.banquepopulaire.fr/banque-assurance/agence-poitiers-lafayette-id1870700725,"Tu 09:00-12:45,14:30-18:00; We 09:00-12:45,13:45-18:00; Th 09:00-12:45,14:30-18:00; Fr 09:00-12:45,13:45-18:00; Sa 09:00-12:30",Banque Populaire,Q846647
1870700710,banque_populaire_fr,POITIERS HOTEL DE VILLE,,POITIERS,,,FR,+33 9 88 98 93 25,https://agences.banquepopulaire.fr/banque-assurance/agence-poitiers-hotel-de-ville-id1870700710,"Mo 09:00-12:30,13:45-18:00; Tu 09:00-12:30,14:30-18:00; We 09:00-12:30,13:45-18:00; Th 09:00-12:30,14:30-18:00; Fr 09:00-12:30,13:45-17:00",Banque Populaire,Q846647
1870700711,banque_populaire_fr,POITIERS GRAND SUD,,POITIERS,,,FR,+33 9 88 98 92 61,https://agences.banquepopulaire.fr/banque-assurance/agence-poitiers-grand-sud-id1870700711,"Tu 08:45-12:30,14:30-18:00; We 08:45-12:30,13:45-18:00; Th 08:45-12:30,14:30-18:00; Fr 08:45-12:30,13:45-18:00; Sa 08:45-12:15",Banque Populaire,Q846647
1870700721,banque_populaire_fr,POITIERS GRAND LARGE,,POITIERS,,,FR,+33 9 88 98 92 62,https://agences.banquepopulaire.fr/banque-assurance/agence-poitiers-grand-large-id1870700721,"Tu 08:45-12:30,14:30-18:00; We 08:45-12:30,13:45-18:00; Th 08:45-12:30,14:30-18:00; Fr 08:45-12:30,13:45-18:00; Sa 08:45-12:15",Banque Populaire,Q846647
1870700720,banque_populaire_fr,POITIERS COURONNERIES,,POITIERS,,,FR,+33 9 88 98 92 59,https://agences.banquepopulaire.fr/banque-assurance/agence-poitiers-couronneries-id1870700720,"Mo 09:00-12:30,13:45-18:00; Tu 09:00-12:30,14:30-18:00; We 09:00-12:30,13:45-18:00; Th 09:00-12:30,14:30-18:00; Fr 09:00-12:30,13:45-17:00",Banque Populaire,Q846647
https://laboratoires.biogroup.fr/#62272504,biogroup_fr,BIO86 Laboratoire de Gençay - Poitiers,,,,,FR,+33 5 17 84 22 82,https://laboratoires.biogroup.fr/vienne/poitiers/74-route-de-gencay,Mo-Fr 07:30-12:30; Sa 07:30-12:00,Biogroup,Q101559741
https://laboratoires.biogroup.fr/#62272502,biogroup_fr,BIO86 Laboratoire de la Marne - Poitiers,,,,,FR,+33 5 17 84 22 82,https://laboratoires.biogroup.fr/vienne/poitiers/40-rue-de-la-marne,Mo-Fr 07:30-12:30; Sa 08:00-12:00,Biogroup,Q101559741
https://laboratoires.biogroup.fr/#62272503,biogroup_fr,BIO86 Laboratoire du Parc - Poitiers,,,,,FR,+33 5 17 84 22 82,https://laboratoires.biogroup.fr/vienne/poitiers/4-place-de-provence,Mo-Fr 07:30-12:30; Sa 07:30-12:00,Biogroup,Q101559741
https://laboratoires.biogroup.fr/#62272500,biogroup_fr,BIO86 Laboratoiree de Chaumont - Poitiers,,,,,FR,+33 5 17 84 22 82,https://laboratoires.biogroup.fr/vienne/poitiers/2-rue-du-pont-maria-pia,Mo-Fr 07:30-18:00; Sa 07:30-12:00,Biogroup,Q101559741
https://laboratoires.biogroup.fr/#62272513,biogroup_fr,BIO86 Laboratoire de la Polyclinique - Poitiers,,,,,FR,+33 5 17 84 22 82,https://laboratoires.biogroup.fr/vienne/poitiers/1-rue-de-la-providence,,Biogroup,Q101559741
2204,carrefour_fr,Carrefour City,,Poitiers,,,FR,+33 5 49 38 76 39,https://www.carrefour.fr/magasin/city-poitiers-charles-de-gaulle,Mo-Sa 07:00-22:00; Su 09:00-13:00,Carrefour City,Q2940187
2986,carrefour_fr,Carrefour Contact,,Poitiers,,,FR,+33 5 49 00 08 98,https://www.carrefour.fr/magasin/contact-poitiers-patis,Mo-Sa 08:00-20:00; Su 09:00-13:00,Carrefour Contact,Q2940188
4725,carrefour_fr,Carrefour Express,,Poitiers,,,FR,+33 5 49 13 15 42,https://www.carrefour.fr/magasin/express-poitiers-cordeliers,Mo-Sa 08:00-21:00; Su 09:00-13:00,Carrefour Express,Q2940190
4985,carrefour_fr,Carrefour Express,,Poitiers,,,FR,+33 5 49 61 94 28,https://www.carrefour.fr/magasin/carrefour-express-poitiers-pont-neuf,Mo-Sa 08:00-20:00; Su 09:00-13:00,Carrefour Express,Q2940190
5608,carrefour_fr,Carrefour Express,,Poitiers,,,FR,+33 5 49 58 26 41,https://www.carrefour.fr/magasin/express-poitiers,Mo-Sa 08:00-21:00; Su 08:00-20:00,Carrefour Express,Q2940190
6278,carrefour_fr,Carrefour City,,Poitiers,,,FR,+33 5 49 11 73 09,https://www.carrefour.fr/magasin/city-poitiers,Mo-Sa 07:00-22:00; Su 09:00-13:00,Carrefour City,Q2940187
poitiers/713,claires,Shoppe des piercings et des bijoux à Poitiers - Beaulieu,,Poitiers,,,FR,+33 5 49 37 37 67,https://stores.claires.com/fr/fr-t/poitiers/713.html,Mo-Sa 09:30-19:30,Claire's,Q2974996
poitiers,completude,,,POITIERS ,,,FR,+33 5 49 49 91 40,https://www.completude.com/agence/poitiers/,,Complétude,Q2990589
https://www.credit-agricole.fr/particulier/agence/touraine-poitou/poitiers-touffenet-5056.html,credit_agricole,Crédit Agricole,,POITIERS,,,FR,+33 5 49 31 19 04,https://www.credit-agricole.fr/particulier/agence/touraine-poitou/poitiers-touffenet-5056.html,"Mo-We 08:45-12:30,13:45-18:00; Th 08:45-12:15,15:00-18:00; Fr 08:45-12:30,13:45-18:00; Sa 08:45-12:45",Credit Agricole,Q590952
https://www.credit-agricole.fr/particulier/agence/touraine-poitou/poitiers-t4-6825.html,credit_agricole,Crédit Agricole,,Poitiers,,,FR,,https://www.credit-agricole.fr/particulier/agence/touraine-poitou/poitiers-t4-6825.html,"Mo-Fr 09:00-12:00,14:00-18:00",Credit Agricole,Q590952
https://www.credit-agricole.fr/particulier/agence/touraine-poitou/poitiers-notre-dame-5055.html,credit_agricole,Crédit Agricole,,POITIERS,,,FR,+33 5 49 45 67 00,https://www.credit-agricole.fr/particulier/agence/touraine-poitou/poitiers-notre-dame-5055.html,"Tu-We 09:00-12:45,14:00-18:15; Th 09:00-12:30,15:00-18:15; Fr 09:00-12:45,14:00-18:15; Sa 08:45-13:00",Credit Agricole,Q590952
https://www.credit-agricole.fr/particulier/agence/touraine-poitou/poitiers-miletrie-6785.html,credit_agricole,Crédit Agricole,,Poitiers,,,FR,,https://www.credit-agricole.fr/particulier/agence/touraine-poitou/poitiers-miletrie-6785.html,"Mo-Su 00:00-12:30,12:30-24:00",Credit Agricole,Q590952
https://www.credit-agricole.fr/particulier/agence/touraine-poitou/poitiers-liberation-5054.html,credit_agricole,Crédit Agricole,,POITIERS,,,FR,+33 5 49 41 50 98,https://www.credit-agricole.fr/particulier/agence/touraine-poitou/poitiers-liberation-5054.html,"Tu-We 09:00-12:45,14:00-18:15; Th 09:00-12:45,15:00-18:15; Fr 09:00-12:45,14:00-18:15; Sa 09:00-13:00",Credit Agricole,Q590952
https://www.credit-agricole.fr/particulier/agence/touraine-poitou/poitiers-leclerc-5053.html,credit_agricole,Crédit Agricole,,POITIERS,,,FR,+33 5 49 13 04 14,https://www.credit-agricole.fr/particulier/agence/touraine-poitou/poitiers-leclerc-5053.html,"Tu-We 09:00-12:35,14:00-18:30; Th 09:00-12:15,15:15-18:30; Fr 09:00-12:35,14:00-18:30; Sa 09:00-13:00",Credit Agricole,Q590952
https://www.credit-agricole.fr/particulier/agence/touraine-poitou/poitiers-hotel-de-ville-722.html,credit_agricole,Crédit Agricole,,POITIERS,,,FR,+33 5 16 39 20 40,https://www.credit-agricole.fr/particulier/agence/touraine-poitou/poitiers-hotel-de-ville-722.html,"Mo 09:30-13:30,14:30-18:30; Tu-We 09:30-18:30; Th 09:30-12:30,15:00-19:30; Fr 09:30-19:30; Sa 09:00-13:00",Credit Agricole,Q590952
https://www.credit-agricole.fr/particulier/agence/touraine-poitou/poitiers-gibauderie-5052.html,credit_agricole,Crédit Agricole,,Poitiers,,,FR,+33 5 49 38 45 41,https://www.credit-agricole.fr/particulier/agence/touraine-poitou/poitiers-gibauderie-5052.html,"Tu-We 09:00-12:30,14:00-18:15; Th 09:00-12:30,15:15-18:15; Fr 09:00-12:30,14:00-18:15; Sa 09:00-13:00",Credit Agricole,Q590952
https://www.credit-agricole.fr/particulier/agence/touraine-poitou/poitiers-gare-6799.html,credit_agricole,Crédit Agricole,,Poitiers,,,FR,,https://www.credit-agricole.fr/particulier/agence/touraine-poitou/poitiers-gare-6799.html,"Mo-Su 00:00-12:30,12:30-24:00",Credit Agricole,Q590952
https://www.credit-agricole.fr/particulier/agence/touraine-poitou/poitiers-gambetta-1-6798.html,credit_agricole,Crédit Agricole,,Poitiers,,,FR,,https://www.credit-agricole.fr/particulier/agence/touraine-poitou/poitiers-gambetta-1-6798.html,"Mo-Su 00:00-12:30,12:30-24:00",Credit Agricole,Q590952
https://www.credit-agricole.fr/particulier/agence/touraine-poitou/poitiers-demi-lune-5051.html,credit_agricole,Crédit Agricole,,POITIERS,,,FR,+33 5 49 11 90 86,https://www.credit-agricole.fr/particulier/agence/touraine-poitou/poitiers-demi-lune-5051.html,"Tu-We 09:00-12:45,14:00-18:15; Th 09:00-12:45,15:00-18:15; Fr 09:00-12:45,14:00-18:15; Sa 09:00-13:00",Credit Agricole,Q590952
https://www.credit-agricole.fr/particulier/agence/touraine-poitou/poitiers-couronneries-4848.html,credit_agricole,Crédit Agricole,,POITIERS,,,FR,+33 5 49 44 18 28,https://www.credit-agricole.fr/particulier/agence/touraine-poitou/poitiers-couronneries-4848.html,"Tu-We 09:00-12:45,14:00-18:00; Th 09:00-12:45,15:00-18:00; Fr 09:00-12:45,14:00-18:00; Sa 08:45-13:00",Credit Agricole,Q590952
https://www.credit-agricole.fr/particulier/agence/touraine-poitou/poitiers-clos-gaultier-5050.html,credit_agricole,Crédit Agricole,,POITIERS,,,FR,+33 5 49 50 90 73,https://www.credit-agricole.fr/particulier/agence/touraine-poitou/poitiers-clos-gaultier-5050.html,"Tu-We 08:45-12:30,14:00-18:15; Th 08:45-12:30,15:00-18:15; Fr 08:45-12:30,14:00-18:15; Sa 09:00-13:00",Credit Agricole,Q590952
https://www.credit-agricole.fr/particulier/agence/touraine-poitou/poitiers-carnot-5049.html,credit_agricole,Crédit Agricole,,POITIERS,,,FR,+33 5 49 01 01 08,https://www.credit-agricole.fr/particulier/agence/touraine-poitou/poitiers-carnot-5049.html,"Tu-We 08:45-12:45,14:00-18:00; Th 08:45-12:45,15:00-18:00; Fr 08:45-12:45,14:00-18:00; Sa 08:45-13:00",Credit Agricole,Q590952
https://www.credit-agricole.fr/particulier/agence/touraine-poitou/poitiers-cap-sud-7723.html,credit_agricole,Crédit Agricole,,Poitiers,,,FR,+33 5 49 11 07 31,https://www.credit-agricole.fr/particulier/agence/touraine-poitou/poitiers-cap-sud-7723.html,"Mo-We 10:00-12:30,14:00-19:00; Th 10:00-12:30,15:00-19:00; Fr 10:30-12:30,14:30-19:00",Credit Agricole,Q590952
https://www.credit-agricole.fr/particulier/agence/touraine-poitou/poitiers-biard-montmidi-5518.html,credit_agricole,Crédit Agricole,,POITIERS,,,FR,+33 5 49 00 13 19,https://www.credit-agricole.fr/particulier/agence/touraine-poitou/poitiers-biard-montmidi-5518.html,"Tu-We 09:00-12:45,14:00-18:15; Th 09:00-12:30,15:15-18:15; Fr 09:00-12:45,14:00-18:15; Sa 09:00-13:00",Credit Agricole,Q590952
https://www.credit-agricole.fr/particulier/agence/touraine-poitou/poitiers-bel-air-6790.html,credit_agricole,Crédit Agricole,,Poitiers,,,FR,,https://www.credit-agricole.fr/particulier/agence/touraine-poitou/poitiers-bel-air-6790.html,"Mo-Su 00:00-12:30,12:30-24:00",Credit Agricole,Q590952
https://www.credit-agricole.fr/particulier/agence/touraine-poitou/poitiers-6826.html,credit_agricole,Crédit Agricole,,Poitiers,,,FR,,https://www.credit-agricole.fr/particulier/agence/touraine-poitou/poitiers-6826.html,"Mo-Sa 09:00-12:00,14:00-18:00",Credit Agricole,Q590952
https://www.credit-agricole.fr/particulier/agence/touraine-poitou/banque-privee-86-411.html,credit_agricole,Crédit Agricole,,POITIERS,,,FR,,https://www.credit-agricole.fr/particulier/agence/touraine-poitou/banque-privee-86-411.html,"Tu-Fr 08:30-12:30,14:00-18:30; Sa 08:30-12:30",Credit Agricole,Q590952
https://www.credit-agricole.fr/particulier/agence/touraine-poitou/agence-directe-10253.html,credit_agricole,Crédit Agricole,,Point Passerelle Poitiers,,,FR,+33 9 69 39 09 49,https://www.credit-agricole.fr/particulier/agence/touraine-poitou/agence-directe-10253.html,Mo-Fr 08:30-18:30; Sa 08:30-16:30,Credit Agricole,Q590952
36415,credit_mutuel_fr,CAISSE DE CREDIT MUTUEL POITIERS OUEST,,POITIERS,,,FR,+33 5 49 03 61 78,https://www.creditmutuel.fr/fr/caisses/10278/36415/00/000,,Crédit Mutuel,Q642627
3712,croix_rouge_francaise_fr,POLE LUTTE CONTRE LES EXCLUSIONS DE LA VIENNE,,POITIERS,,,FR,,https://www.croix-rouge.fr/pole-lutte-contre-les-exclusions-de-la-vienne,"Mo-Fr 09:00-12:30,14:00-17:30",Croix-Rouge française,Q3003244
1060,croix_rouge_francaise_fr,UNITE LOCALE DU GRAND POITIERS,,POITIERS,,,FR,,https://www.croix-rouge.fr/unite-locale-du-grand-poitiers,"Mo-Fr 09:00-12:00,14:00-17:00",Croix-Rouge française,Q3003244
4372,croix_rouge_francaise_fr,CADA DE POITIERS,,POITIERS,,,FR,,https://www.croix-rouge.fr/cada-de-poitiers,,Croix-Rouge française,Q3003244
https://www.dominos.fr/magasin/poitiers-sud_86000,dominos_pizza_fr,Domino's,,POITIERS,,,FR,,https://www.dominos.fr/magasin/poitiers-sud_86000,,Domino's,Q839466
https://www.dominos.fr/magasin/poitiers-av-de-nantes_86000,dominos_pizza_fr,Domino's,,POITIERS,,,FR,,https://www.dominos.fr/magasin/poitiers-av-de-nantes_86000,,Domino's,Q839466
https://www.dominos.fr/magasin/poitiers-pont-neuf_86000,dominos_pizza_fr,Domino's,,POITIERS,,,FR,,https://www.dominos.fr/magasin/poitiers-pont-neuf_86000,,Domino's,Q839466
PIST61,enterprise,Poitiers Biard Airport,,Biard,,,FR,+33 5 49 31 36 16,,,Enterprise Rent-A-Car,Q17085454
PISX61,enterprise,Poitiers Train Station,,Poitiers,,,FR,+33 5 49 31 36 16,,,Enterprise Rent-A-Car,Q17085454
FR0097,hm,Galerie Beaulieu,,Poitiers,,,FR,+33 805 08 88 88,,Mo-Sa 10:00-19:30,H&M,Q188326
FR0197,hm,H&M Poitiers Général Leclerc,,Poitiers,,,FR,+33 805 08 88 88,,Mo-Fr 10:00-19:00; Sa 10:00-19:30,H&M,Q188326
116,jardiland_fr,Poitiers,,Poitiers,,,FR,+33 5 49 38 03 00,https://www.jardiland.com/magasins/poitiers-grand-large,"Mo-Sa 09:30-19:00; Su 10:00-13:00,14:30-18:30",Jardiland,Q3162276
https://bureaux.kpmg.fr/#location-339,kpmg_fr,KPMG Poitiers,,Poitiers,,,FR,+33 5 49 38 45 50,https://bureaux.kpmg.fr/fr/france-FR/339/kpmg-poitiers/details,Mo-Fr 08:30-18:00,KPMG,Q493751
3382,lidl_fr,POITIERS Bignoux,,POITIERS,,,FR,,,Mo-Sa 08:30-20:00; Su 08:30-12:15,Lidl,Q151954
2448,lidl_fr,POITIERS Parthenay,,POITIERS,,,FR,,,Mo-Sa 08:30-20:00; Su 08:30-12:15,Lidl,Q151954
FR392,longchamp,Le Tilbury,,POITIERS,,,FR,+33 5 49 88 69 83,,,Longchamp,Q1869471
67817,man_truck_and_bus,TECHNO VI,,Poitiers,,,FR,+33 5 49 88 97 21,,,MAN Truck & Bus,Q708667
1537,mcdonalds_fr,POITIERS OUEST,,POITIERS,,,FR,+33 5 49 13 79 70,https://www.mcdonalds.fr/restaurants/mcdonalds-poitiers-ouest/1537,Mo-Th 10:30-23:00; Fr-Sa 10:30-24:00; Su 10:30-23:00,McDonald's,Q38076
1698,mcdonalds_fr,POITIERS EST,,POITIERS,,,FR,+33 5 49 41 78 36,https://www.mcdonalds.fr/restaurants/mcdonalds-poitiers-est/1698,Mo-Th 11:00-23:00; Fr-Sa 11:00-24:00; Su 11:00-23:00,McDonald's,Q38076
216,mcdonalds_fr,POITIERS,,POITIERS,,,FR,+33 5 49 45 24 80,https://www.mcdonalds.fr/restaurants/mcdonalds-poitiers/216,Mo-We 09:00-02:00; Th-Sa 09:00-08:59; Su 09:00-03:00,McDonald's,Q38076
PT,micromania_fr,POITIERS SUD,,POITIERS,,,FR,+33 5 49 46 06 00,https://www.micromania.fr/magasin?storeid=PT,Mo-Sa 09:30-20:00,Micromania,Q3312221
69186570,moneygram,SARL LES ROSES SUCREES - POITIERS,,POITIERS,,,FR,+33 5 49 54 58 32,,Mo-Sa 08:00-20:00; Su 00:00-24:00,MoneyGram,Q1944412
70646782,moneygram,EKITRADE - POITIERS,,POITIERS,,,FR,+33 5 49 46 64 25,,Mo-Su 08:00-20:00,MoneyGram,Q1944412
73693664,moneygram,BEL'IVOIRE - POITIERS,,POITIERS,,,FR,+33 5 49 61 26 37,,Mo-Sa 09:30-19:30; Su 10:00-19:30,MoneyGram,Q1944412
https://magasin.netto.fr/288-netto-poitiers,netto_les_mousquetaires,Netto Poitiers,,Poitiers,,,FR,+33 5 49 56 12 67,https://magasin.netto.fr/288-netto-poitiers,Mo-Sa 08:30-19:45; Su 08:30-12:45,Netto,Q2720988
5b3cb3fac00458481b437838,newyorker,NEW YORKER | La Galerie Géant Beaulieu,"2 Avenue de Lafayette, 86000 Poitiers",Poitiers,,,FR,+33 5 49 00 18 02,,Mo-Sa 09:30-19:30,New Yorker,Q706421
459-opticien-poitiers-sud-optical-center,optical_center,Opticien POITIERS - SUD Optical Center,,Poitiers,,,FR,+33 5 49 11 00 00,https://opticien.optical-center.fr/459-opticien-poitiers-sud-optical-center,Mo-Sa 10:00-19:00,Optical Center,Q3354448
460-opticien-poitiers-grand-large-optical-center,optical_center,Opticien POITIERS - GRAND-LARGE Optical Center,,Poitiers,,,FR,+33 5 49 41 00 00,https://opticien.optical-center.fr/460-opticien-poitiers-grand-large-optical-center,Mo-Sa 10:00-19:00,Optical Center,Q3354448
frd469a6f2,pandora,A propos de Boutique Bijoux Pandora BIJOUTERIE FRANCOIS LASSORT,,POITIERS,,,FR,+33 5 49 45 08 47,https://stores.pandora.net/fr-naq/poitiers/bijoux-pandora-frd469a6f2.html,Mo 14:00-19:00; Tu 09:30-19:30; We-Fr 09:30-19:00; Sa 09:30-12:30,Pandora,Q2241604
fr291617d5,pandora,Trouvez votre boutique Pandora la plus proche !,,POITIERS,,,FR,+33 5 49 11 23 45,https://stores.pandora.net/fr-naq/poitiers/bijoux-pandora-fr291617d5.html,Mo-Sa 09:30-19:30,Pandora,Q2241604
https://stores.petit-bateau.com/#9115909,petit_bateau,PETIT BATEAU Poitiers,,Poitiers,,,FR,+33 5 49 88 09 27,"https://stores.petit-bateau.com/france/poitiers/65,-rue-gambetta",,Petit Bateau,Q3377090
26724,relay_fr,Relay Gare de Poitiers,,Poitiers,,,FR,+33 5 49 58 67 67,https://www.relay.com/stores/relay-gare-de-poitiers/,Mo-Th 06:00-19:15; Fr 06:00-20:15; Sa 06:45-18:00; Su 08:00-20:15,Relay,Q3424298
00015267_001-renault,renault,BEAULIEU GARAGE,,POITIERS,,,FR,+33 5 49 61 11 77,,,Renault,Q6686
00015267_001-dacia,renault,BEAULIEU GARAGE,,POITIERS,,,FR,+33 5 49 61 11 77,,,Dacia,Q27460
00001739_001-renault,renault,RENAULT POITIERS GARE - GROUPE SOFIBRIE,,POITIERS,,,FR,+33 5 49 37 63 63,,,Renault,Q6686
25002487_001-renault,renault,RENAULT POITIERS SAPA - GROUPE SOFIBRIE,,POITIERS,,,FR,+33 5 49 56 11 11,,,Renault,Q6686
https://www.sixt.co.uk/car-hire/france/poitiers/poitiers-train-station/,sixt,Car Hire Poitiers Train Station | SIXT rent a car,,Poitiers,,,FR,,https://www.sixt.co.uk/car-hire/france/poitiers/poitiers-train-station/,Mo 07:00-19:00; Tu-Sa 08:00-19:00,SIXT,Q705664
spar-poitiers,spar_fr,SPAR Poitiers,,Poitiers,,,FR,+33 5 49 61 49 82,https://magasins.spar.fr/fr/s/spar-poitiers,Mo-Sa 08:00-19:30,Spar,Q610492
https://restaurants.subway.com/#14925013,subway,Subway,,Poitiers,,,FR,+33 9 67 65 12 08,https://restaurants.subway.com/france/poitiers/12-route-de-parthenay,Mo-Su 11:00-21:00,Subway,Q244457
https://stores.superdry.com/#92837604,superdry,Superdry  Poitiers,,Poitiers,,,FR,,https://stores.superdry.com/fr/poitiers/56-rue-de-la-marne,,Superdry,Q1684445
11627027398679,thebodyshop,POITIERS,,Poitiers,,,FR,,https://www.thebodyshop.com/fr-fr/store-details/poitiers/9578,,The Body Shop,Q837851
THFR0080,tommy_hilfiger,Tommy Hilfiger,,Poitiers,,,FR,+33 5 49 41 54 20,,,Tommy Hilfiger,Q634881
7909,totalenergies,POITIERS NORD,,POITIERS,,,FR,,https://store.totalenergies.fr/en_EN/7909,24/7,AS 24,Q2819394
NF078003,totalenergies,RELAIS DE LA BUGELLERIE,,POITIERS,,,FR,+33 5 49 47 92 40,https://store.totalenergies.fr/en_EN/NF078003,Mo-Fr 06:00-21:00; Sa-Su 08:00-20:00,Total Access,Q154037
NF900580,totalenergies,AVIA,,POITIERS,,,FR,,https://store.totalenergies.fr/en_EN/NF900580,,Avia,Q300147
NF903819,totalenergies,AVIA,,POITIERS,,,FR,,https://store.totalenergies.fr/en_EN/NF903819,,Avia,Q300147
NF913639,totalenergies,AVIA,,POITIERS,,,FR,,https://store.totalenergies.fr/en_EN/NF913639,,Avia,Q300147
NF913641,totalenergies,AVIA,,POITIERS,,,FR,,https://store.totalenergies.fr/en_EN/NF913641,,Avia,Q300147
,visa,,,POITIERS,,,FR,,,,,
,visa,,,POITIERS,,,FR,,,,,
,visa,,,POITIERS,,,FR,,,,,
,visa,,,POITIERS,,,FR,,,,,
,visa,,,POITIERS,,,FR,,,,,
,visa,,,POITIERS,,,FR,,,,,
,visa,,,POITIERS,,,FR,,,,,
,visa,,,POITIERS,,,FR,,,,,
,visa,,,POITIERS,,,FR,,,,,
,visa,,,POITIERS,,,FR,,,,,
,visa,,,POITIERS,,,FR,,,,,
,visa,,,POITIERS,,,FR,,,,,
,visa,,,POITIERS,,,FR,,,,,
,visa,,,POITIERS,,,FR,,,,,
,visa,,,POITIERS,,,FR,,,,,
,visa,,,POITIERS,,,FR,,,,,
,visa,,,POITIERS,,,FR,,,,,
,visa,,,POITIERS,,,FR,,,,,
,visa,,,POITIERS,,,FR,,,,,
,visa,,,POITIERS,,,FR,,,,,
,visa,,,POITIERS,,,FR,,,,,
,visa,,,POITIERS,,,FR,,,,,
,visa,,,POITIERS,,,FR,,,,,
,visa,,,POITIERS,,,FR,,,,,
,visa,,,POITIERS,,,FR,,,,,
,visa,,,POITIERS,,,FR,,,,,
,visa,,,POITIERS,,,FR,,,,,
,visa,,,POITIERS,,,FR,,,,,
,visa,,,POITIERS,,,FR,,,,,
,visa,,,POITIERS LAFAYETTE,,,FR,,,,,
,visa,,,POITIERS,,,FR,,,,,
,visa,,,POITIERS,,,FR,,,,,
,visa,,,POITIERS,,,FR,,,,,
,visa,,,POITIERS,,,FR,,,,,
,visa,,,POITIERS,,,FR,,,,,
,visa,,,POITIERS,,,FR,,,,,
,visa,,,POITIERS,,,FR,,,,,
,visa,,,POITIERS,,,FR,,,,,
,visa,,,POITIERS,,,FR,,,,,
,visa,,,POITIERS,,,FR,,,,,
,visa,,,POITIERS,,,FR,,,,,
,visa,,,POITIERS NOTRE DAME,,,FR,,,,,
,visa,,,POITIERS,,,FR,,,,,
,visa,,,POITIERS,,,FR,,,,,
,visa,,,POITIERS,,,FR,,,,,
,visa,,,POITIERS,,,FR,,,,,
,visa,,,POITIERS,,,FR,,,,,
,visa,,,POITIERS,,,FR,,,,,
,visa,,,POITIERS,,,FR,,,,,
,visa,,,POITIERS,,,FR,,,,,
,visa,,,POITIERS,,,FR,,,,,
,visa,,,POITIERS,,,FR,,,,,
,visa,,,POITIERS,,,FR,,,,,
,visa,,,POITIERS,,,FR,,,,,
,visa,,,POITIERS,,,FR,,,,,
,visa,,,POITIERS,,,FR,,,,,
,visa,,,POITIERS,,,FR,,,,,
,visa,,,POITIERS,,,FR,,,,,
,visa,,,POITIERS,,,FR,,,,,
,visa,,,POITIERS,,,FR,,,,,
http://magasins.vival.fr/fr/vival-poitiers,vival_fr,Vival Poitiers,,Poitiers,,,FR,+33 9 67 47 51 23,http://magasins.vival.fr/fr/vival-poitiers,"Mo-Su 08:00-13:00,16:00-21:00",Vival,Q7937525
c6d29b35d3c3ad3aeb9a4dbcc7e0df13,western_union,MAZAR MARKET,,Poitiers,,,FR,+33 5 49 39 28 10,https://location.westernunion.com/fr/state/poitiers/c6d29b35d3c3ad3aeb9a4dbcc7e0df13,Mo-Su 10:00-20:00,Western Union,Q861042
