Ref,Spider,Name,Address,City,State,Zipcode,Country,Phone,Website,Hours,Brand,WikiData
,visa,,,CD MADERO,TAMAULIPAS,,MX,,,,,
,visa,,,CIUDAD MADERO,TAMAULIPAS,,MX,,,,,
,visa,,,CD. MADERO,TAMAULIPAS,,MX,,,,,
,visa,,,CD. MADERO,TAMAULIPAS,,MX,,,,,
,visa,,,CD. MADERO,TAMAULIPAS,,MX,,,,,
,visa,,,CIUDAD MADERO,TAMAULIPAS,,MX,,,,,
,visa,,,CIUDAD MADERO,TAMAULIPAS,,MX,,,,,
3d9efabdc6a3a4957e2e5cd1c82340da,western_union,MODATELAS 38 AP CASH,,Ciudad Madero,TAMAULIPAS,,MX,+52 833 215 7529,https://location.westernunion.com/mx/tamaulipas/ciudad-madero/3d9efabdc6a3a4957e2e5cd1c82340da,Mo-Su 08:00-20:00,Western Union,Q861042
79053762e8109a11b3fca2d0117979a4,western_union,MODATELAS 38 AP CASH,,Ciudad Madero,TAMAULIPAS,,MX,+52 833 215 7529,https://location.westernunion.com/mx/tamaulipas/ciudad-madero/79053762e8109a11b3fca2d0117979a4,Mo-Su 08:00-20:00,Western Union,Q861042
610ac59379463a489a0f6e09c4f94675,western_union,OXXO NAYARIT TAM,,Ciudad Madero,TAMAULIPAS,,MX,+52 81 8389 2121,https://location.westernunion.com/mx/tamaulipas/ciudad-madero/610ac59379463a489a0f6e09c4f94675,Mo-Su 08:00-22:00,Western Union,Q861042
4e91d8e1fee0080946d434f0402e3740,western_union,OXXO NAYARIT TAM,,Ciudad Madero,TAMAULIPAS,,MX,+52 81 8389 2121,https://location.westernunion.com/mx/tamaulipas/ciudad-madero/4e91d8e1fee0080946d434f0402e3740,Mo-Su 08:00-22:00,Western Union,Q861042
5ac2f4e3add8a869216e2eb2a40068f0,western_union,OXXO NAYARIT TAM,,Ciudad Madero,TAMAULIPAS,,MX,+52 81 8389 2121,https://location.westernunion.com/mx/tamaulipas/ciudad-madero/5ac2f4e3add8a869216e2eb2a40068f0,Mo-Su 08:00-22:00,Western Union,Q861042
d1fe354531290c2db47279aabe8096b3,western_union,FARM GUAD MODERNA,,Ciudad Madero,TAMAULIPAS,,MX,+52 800 833 4700,https://location.westernunion.com/mx/tamaulipas/ciudad-madero/d1fe354531290c2db47279aabe8096b3,Mo-Su 08:00-20:00,Western Union,Q861042
20a822f177abb22ed3996247f03b14b9,western_union,FARM GUAD MODERNA,,Ciudad Madero,TAMAULIPAS,,MX,+52 800 833 4700,https://location.westernunion.com/mx/tamaulipas/ciudad-madero/20a822f177abb22ed3996247f03b14b9,Mo-Su 08:00-20:00,Western Union,Q861042
2ed068ab900056d77802be448af17e8f,western_union,FARM GUAD MODERNA,,Ciudad Madero,TAMAULIPAS,,MX,+52 800 833 4700,https://location.westernunion.com/mx/tamaulipas/ciudad-madero/2ed068ab900056d77802be448af17e8f,Mo-Su 08:00-20:00,Western Union,Q861042
5c1b22915586b97292b6a430362a30ca,western_union,OXXO UNIDAD NACIONAL TAM,,Ciudad Madero,TAMAULIPAS,,MX,+52 81 8389 2121,https://location.westernunion.com/mx/tamaulipas/ciudad-madero/5c1b22915586b97292b6a430362a30ca,Mo-Su 08:00-22:00,Western Union,Q861042
a327e68fbf05e28bfb3adcc46af108f6,western_union,OXXO UNIDAD NACIONAL TAM,,Ciudad Madero,TAMAULIPAS,,MX,+52 81 8389 2121,https://location.westernunion.com/mx/tamaulipas/ciudad-madero/a327e68fbf05e28bfb3adcc46af108f6,Mo-Su 08:00-22:00,Western Union,Q861042
d83c1cd1646271ab507b7c320f35ec5f,western_union,OXXO UNIDAD NACIONAL TAM,,Ciudad Madero,TAMAULIPAS,,MX,+52 81 8389 2121,https://location.westernunion.com/mx/tamaulipas/ciudad-madero/d83c1cd1646271ab507b7c320f35ec5f,Mo-Su 08:00-22:00,Western Union,Q861042
5308bc50f42b03d530ba8ad11d57f2a5,western_union,OXXO SAN LUIS TAM,,Ciudad Madero,TAMAULIPAS,,MX,+52 81 8389 2121,https://location.westernunion.com/mx/tamaulipas/ciudad-madero/5308bc50f42b03d530ba8ad11d57f2a5,Mo-Su 08:00-22:00,Western Union,Q861042
247ddd39b1199f6b9462f0c4e661e55c,western_union,OXXO SAN LUIS TAM,,Ciudad Madero,TAMAULIPAS,,MX,+52 81 8389 2121,https://location.westernunion.com/mx/tamaulipas/ciudad-madero/247ddd39b1199f6b9462f0c4e661e55c,Mo-Su 08:00-22:00,Western Union,Q861042
5c6c1a9c617c7c26eac12ba2263c5b43,western_union,OXXO SAN LUIS TAM,,Ciudad Madero,TAMAULIPAS,,MX,+52 81 8389 2121,https://location.westernunion.com/mx/tamaulipas/ciudad-madero/5c6c1a9c617c7c26eac12ba2263c5b43,Mo-Su 08:00-22:00,Western Union,Q861042
1823996d1eff7c0722a022a48b74e93b,western_union,HEB TAM MADERO 2936,,Ciudad Madero,TAMAULIPAS,,MX,+52 81 2133 2160,https://location.westernunion.com/mx/tamaulipas/ciudad-madero/1823996d1eff7c0722a022a48b74e93b,Mo-Su 10:00-21:00,Western Union,Q861042
3bfc5c5f8b3b0a10174c523928a9692e,western_union,HEB TAM MADERO 2936,,Ciudad Madero,TAMAULIPAS,,MX,+52 81 2133 2160,https://location.westernunion.com/mx/tamaulipas/ciudad-madero/3bfc5c5f8b3b0a10174c523928a9692e,Mo-Su 10:00-21:00,Western Union,Q861042
fa27ee27564918a6f76c984da0569c3a,western_union,HEB TAM MADERO 2936,,Ciudad Madero,TAMAULIPAS,,MX,+52 81 2133 2160,https://location.westernunion.com/mx/tamaulipas/ciudad-madero/fa27ee27564918a6f76c984da0569c3a,Mo-Su 10:00-21:00,Western Union,Q861042
2245649ab2efe6bcbf7313b5b59d4f7f,western_union,BANORTE 01404 MADERO UNIDAD NACIONAL,,Tampico,TAMAULIPAS,,MX,+52 800 833 4700,https://location.westernunion.com/mx/tamaulipas/tampico/2245649ab2efe6bcbf7313b5b59d4f7f,Mo-Sa 09:00-17:00,Western Union,Q861042
4b0271ccdd6a540a411aaff60483cd53,western_union,OXXO MADERO TAM,,Ciudad Madero,TAMAULIPAS,,MX,+52 81 8389 2121,https://location.westernunion.com/mx/tamaulipas/ciudad-madero/4b0271ccdd6a540a411aaff60483cd53,Mo-Su 08:00-22:00,Western Union,Q861042
6734be1829d3370fe35c3796f813454d,western_union,OXXO MADERO TAM,,Ciudad Madero,TAMAULIPAS,,MX,+52 81 8389 2121,https://location.westernunion.com/mx/tamaulipas/ciudad-madero/6734be1829d3370fe35c3796f813454d,Mo-Su 08:00-22:00,Western Union,Q861042
6b9a4f1a64d128e4970f7c6c3703739a,western_union,OXXO MADERO TAM,,Ciudad Madero,TAMAULIPAS,,MX,+52 81 8389 2121,https://location.westernunion.com/mx/tamaulipas/ciudad-madero/6b9a4f1a64d128e4970f7c6c3703739a,Mo-Su 08:00-22:00,Western Union,Q861042
a59674e01f2b8bf5b9292e854213d6ce,western_union,FARM GUAD CALLE 10 CD MADERO,,Ciudad Madero,TAMAULIPAS,,MX,+52 800 833 4700,https://location.westernunion.com/mx/tamaulipas/ciudad-madero/a59674e01f2b8bf5b9292e854213d6ce,Mo-Su 09:00-22:00,Western Union,Q861042
0499c070809f9b4888d81bd06080ced4,western_union,FARM GUAD CALLE 10 CD MADERO,,Ciudad Madero,TAMAULIPAS,,MX,+52 800 833 4700,https://location.westernunion.com/mx/tamaulipas/ciudad-madero/0499c070809f9b4888d81bd06080ced4,Mo-Su 09:00-22:00,Western Union,Q861042
0ea15408fd03161bbd31d8b05fcb954c,western_union,FARM GUAD CALLE 10 CD MADERO,,Ciudad Madero,TAMAULIPAS,,MX,+52 800 833 4700,https://location.westernunion.com/mx/tamaulipas/ciudad-madero/0ea15408fd03161bbd31d8b05fcb954c,Mo-Su 09:00-22:00,Western Union,Q861042
866510b624adfad1e5ec3f8f2c77cf29,western_union,OXXO SINALOA TAM,,Ciudad Madero,TAMAULIPAS,,MX,+52 81 8389 2121,https://location.westernunion.com/mx/tamaulipas/ciudad-madero/866510b624adfad1e5ec3f8f2c77cf29,Mo-Su 08:00-22:00,Western Union,Q861042
652bd565e10e94a35be9e2cfb65c6c4b,western_union,OXXO SINALOA TAM,,Ciudad Madero,TAMAULIPAS,,MX,+52 81 8389 2121,https://location.westernunion.com/mx/tamaulipas/ciudad-madero/652bd565e10e94a35be9e2cfb65c6c4b,Mo-Su 08:00-22:00,Western Union,Q861042
ea44378c70b1bbf205575fa4754c081a,western_union,OXXO SINALOA TAM,,Ciudad Madero,TAMAULIPAS,,MX,+52 81 8389 2121,https://location.westernunion.com/mx/tamaulipas/ciudad-madero/ea44378c70b1bbf205575fa4754c081a,Mo-Su 08:00-22:00,Western Union,Q861042
74c85f5a5190a1c3447e7b4606ea14e7,western_union,OXXO ESTADIO TAM,,Ciudad Madero,TAMAULIPAS,,MX,+52 81 8389 2121,https://location.westernunion.com/mx/tamaulipas/ciudad-madero/74c85f5a5190a1c3447e7b4606ea14e7,Mo-Su 08:00-22:00,Western Union,Q861042
4876d288ccfc6d96f8ac6b94ddeac2d3,western_union,OXXO SONORA TAM,,Ciudad Madero,TAMAULIPAS,,MX,+52 81 8389 2121,https://location.westernunion.com/mx/tamaulipas/ciudad-madero/4876d288ccfc6d96f8ac6b94ddeac2d3,Mo-Su 08:00-22:00,Western Union,Q861042
207c1d9e873a80c39d3afda685c43fb0,western_union,OXXO ESTADIO TAM,,Ciudad Madero,TAMAULIPAS,,MX,+52 81 8389 2121,https://location.westernunion.com/mx/tamaulipas/ciudad-madero/207c1d9e873a80c39d3afda685c43fb0,Mo-Su 08:00-22:00,Western Union,Q861042
4f930c84fbeb672b0031cfa143c456bd,western_union,FARM GUAD AV JALISCO CD MADERO,,Ciudad Madero,TAMAULIPAS,,MX,+52 800 833 4700,https://location.westernunion.com/mx/tamaulipas/ciudad-madero/4f930c84fbeb672b0031cfa143c456bd,Mo-Su 08:00-20:00,Western Union,Q861042
579a3b51aa6426deeabbe474886eeaf6,western_union,FARM GUAD AV JALISCO CD MADERO,,Ciudad Madero,TAMAULIPAS,,MX,+52 800 833 4700,https://location.westernunion.com/mx/tamaulipas/ciudad-madero/579a3b51aa6426deeabbe474886eeaf6,Mo-Su 08:00-20:00,Western Union,Q861042
b2259f096439cb164bc098747cdb7c99,western_union,FARM GUAD AV JALISCO CD MADERO,,Ciudad Madero,TAMAULIPAS,,MX,+52 800 833 4700,https://location.westernunion.com/mx/tamaulipas/ciudad-madero/b2259f096439cb164bc098747cdb7c99,Mo-Su 08:00-20:00,Western Union,Q861042
9e2fb00b3643f29aaf379df73ce78865,western_union,OXXO JALISCO TAM,,Ciudad Madero,TAMAULIPAS,,MX,+52 81 8389 2121,https://location.westernunion.com/mx/tamaulipas/ciudad-madero/9e2fb00b3643f29aaf379df73ce78865,Mo-Su 08:00-22:00,Western Union,Q861042
c3ce24f7207497a8399f4ee0a50dda9d,western_union,OXXO JALISCO TAM,,Ciudad Madero,TAMAULIPAS,,MX,+52 81 8389 2121,https://location.westernunion.com/mx/tamaulipas/ciudad-madero/c3ce24f7207497a8399f4ee0a50dda9d,Mo-Su 08:00-22:00,Western Union,Q861042
97cf2c8cff39b6d0c643cbca5e48bae4,western_union,OXXO JALISCO TAM,,Ciudad Madero,TAMAULIPAS,,MX,+52 81 8389 2121,https://location.westernunion.com/mx/tamaulipas/ciudad-madero/97cf2c8cff39b6d0c643cbca5e48bae4,Mo-Su 08:00-22:00,Western Union,Q861042
