Ref,Spider,Name,Address,City,State,Zipcode,Country,Phone,Website,Hours,Brand,WikiData
760,autozone_us,AutoZone Auto Parts Carleton,,Carleton,MI,,US,+1 734-506-9161,https://www.autozone.com/locations/mi/carleton/12553-grafton-rd.html,Mo-Sa 08:00-20:00; Su 09:00-20:00,AutoZone,Q4826087
240049,bluerhino,Circle K #4706213,,Carleton,MI,,US,+1 734-654-6460,,,Blue Rhino,Q65681213
73288,bluerhino,Speedway #8725,,Carleton,MI,,US,+1 734-654-2491,,,Blue Rhino,Q65681213
38879,citi,ATM Carleton Glen Golf Course,,Carleton,MI,,US,,,,Citibank,Q857063
76834,citi,ATM Speedway,,Carleton,MI,,US,,,,Citibank,Q857063
79614,citi,ATM SPEEDWAY #8725,,Carleton,MI,,US,,,,Citibank,Q857063
40653,citi,ATM Circle K,,Carleton,MI,,US,,,,Citibank,Q857063
7080,dollartree,DollarTree,,Carleton,MI,,US,+1 734-506-9041,,Mo-Sa 09:00-21:00; Su 09:00-20:00,Dollar Tree,Q5289230
14643,dollar_general,Dollar General,,Carleton,MI,,US,+1 734-506-0242,https://www.dollargeneral.com/store-directory/mi/carleton/14643,Mo-Su 08:00-22:00,Dollar General,Q145168
200329779,exxonmobil,CARLTON FOOD MART,,CARLETON,MI,,US,+1 248-550-9153,https://www.exxon.com/en/find-station/mobil-carleton-mi-carltonfoodmart-200329779,Mo-Su 05:00-23:00,Mobil,Q109676002
200327171,exxonmobil,SIMONZ MANAGEMENT,,ASH TOWNSHIP,MI,,US,+1 734-299-3666,https://www.exxon.com/en/find-station/mobil-ashtownship-mi-simonzmanagement-200327171,Mo-Su 07:00-23:00,Mobil,Q109676002
https://restaurants.subway.com/#14916204,subway,Subway Lisa's Fuel Stop,,Carleton Monroe,MI,,US,+1 734-654-7994,https://restaurants.subway.com/united-states/mi/carleton/12710-grafton-rd,Mo-Sa 08:00-22:00; Su 09:00-19:00,Subway,Q244457
1357018,usps,CARLETON,,CARLETON,MI,,US,+1 734-654-3656,,Mo-Fr 09:00-16:30; Sa 10:00-13:00,United States Postal Service,Q668687
4811700001,usps_collection_boxes,USPS COLLECTION BOX - BLUE BOX,12840 GRAFTON RD,CARLETON,MI,,US,,,,United States Postal Service,Q668687
4811700002,usps_collection_boxes,USPS COLLECTION BOX - BLUE BOX,12840 GRAFTON RD,CARLETON,MI,,US,,,,United States Postal Service,Q668687
4811700007,usps_collection_boxes,USPS COLLECTION BOX - PO LOBBY,12840 GRAFTON RD,CARLETON,MI,,US,,,,United States Postal Service,Q668687
,visa,,,CARLETON,MI,,US,,,,,
,visa,,,CARELTON,MI,,US,,,,,
,visa,,,CARLETON,MI,,US,,,,,
,visa,,,CARLTON,MI,,US,,,,,
,visa,,,CARLETON,MI,,US,,,,,
,visa,,,CARLETON,MI,,US,,,,,
,visa,,,CARLETON,MI,,US,,,,,
,visa,,,CARLETON,MI,,US,,,,,
,visa,,,CARLETON,MI,,US,,,,,
,visa,,,CARLETON,MI,,US,,,,,
,visa,,,CARLETON,MI,,US,,,,,
,visa,,,CARLETON,MI,,US,,,,,
,visa,,,CARLETON,MI,,US,,,,,
,visa,,,LANSING,MI,,US,,,,,
