Ref,Spider,Name,Address,City,State,Zipcode,Country,Phone,Website,Hours,Brand,WikiData
72136562,moneygram,COPPEL TRANSMISORES - TARIMBARO - PLAZA,,TARIMBARO,MC,,MX,+52 443 341 2651,,Mo-Su 10:00-20:00,MoneyGram,Q1944412
72144334,moneygram,CADENA COMERCIAL OXXO SA DE CV - #10TLC5,,TARIMBARO,MC,,MX,+52 81 8389 2121,,Mo-Su 03:00-24:00,MoneyGram,Q1944412
72172225,moneygram,DINERO EXPRESS - MORELIA - PLAZA EL PRAD,,MORELIA,MC,,MX,+52 55 1720 8177,,Mo-Su 09:00-21:00,MoneyGram,Q1944412
72312807,moneygram,CADENA COMERCIAL OXXO SA DE CV - #10TLC5,,TARIMBARO,MC,,MX,+52 81 8389 2121,,Mo-Su 03:00-24:00,MoneyGram,Q1944412
73939014,moneygram,CADENA COMERCIAL OXXO SA DE CV - #10TLC5,,TARIMBARO,MC,,MX,5283892121,,Mo-Su 03:00-24:00,MoneyGram,Q1944412
73939001,moneygram,CADENA COMERCIAL OXXO SA DE CV - #10TLC5,,TARIMBARO,MC,,MX,5283892121,,Mo-Su 03:00-24:00,MoneyGram,Q1944412
74142473,moneygram,MONEYCOOP - SUC. TARIMBARO,,TARIMBARO,MC,,MX,+52 81 2133 2160,,Mo-Fr 08:00-17:30; Sa 08:00-14:00; Su 00:00-24:00,MoneyGram,Q1944412
70399288,moneygram,FARMACIAS GUADALAJARA - TARIMBARO MICHO,,TARIMBARO,MC,,MX,+52 713 278 5436,,Mo-Su 08:00-22:00,MoneyGram,Q1944412
74641330,moneygram,CAJA LAGUNILLAS - TARIMBARO,,TARIMBARO,MC,,MX,+52 81 2133 2160,,Mo-Fr 09:00-16:30; Sa 09:00-13:00; Su 00:00-24:00,MoneyGram,Q1944412
70646517,moneygram,352 MODATELAS MORELIA III TARIMBARO - #2,,TARIMBARO,MC,,MX,52816120,,Mo-Su 08:00-20:00,MoneyGram,Q1944412
70722389,moneygram,BODEGA AURRERA EXPRESS - #3696 - MORELIA,,MORELIA,MC,,MX,5226296000,,Mo-Su 08:00-21:00,MoneyGram,Q1944412
74931338,moneygram,CADENA COMERCIAL OXXO - #10TLC504RH - TA,,TARIMBARO,MC,,MX,83892121,,Mo-Su 03:00-24:00,MoneyGram,Q1944412
71404952,moneygram,ELEKTRA - #9683 - TARIMBARO - BA EKT MIC,,TARIMBARO,MC,,MX,+52 55 1720 7000,,Mo-Su 09:00-21:00,MoneyGram,Q1944412
71327521,moneygram,OXXO - #10TLC50KLY - CELAYA MLM,,TARIMBARO,MC,,MX,+52 81 8389 2121,,Mo-Su 03:00-24:00,MoneyGram,Q1944412
71327738,moneygram,OXXO - #10TLC50MEP - EL PORVENIR MLM,,TARIMBARO,MC,,MX,+52 81 8389 2121,,Mo-Su 03:00-24:00,MoneyGram,Q1944412
71328685,moneygram,OXXO - #10TLC50XCO - MESON NUEVO MLM,,TARIMBARO,MC,,MX,+52 81 8389 2121,,Mo-Su 03:00-24:00,MoneyGram,Q1944412
71326991,moneygram,OXXO - #10TLC50FMT - METROPOLI MLM,,TARIMBARO,MC,,MX,+52 81 8389 2121,,Mo-Su 03:00-24:00,MoneyGram,Q1944412
71327589,moneygram,OXXO - #10TLC50KVO - TARIMBARO MLM,,TARIMBARO,MC,,MX,+52 81 8389 2121,,Mo-Su 03:00-24:00,MoneyGram,Q1944412
71328559,moneygram,OXXO - #10TLC50VRK - VALLE REAL MLM,,TARIMBARO,MC,,MX,+52 81 8389 2121,,Mo-Su 03:00-24:00,MoneyGram,Q1944412
