Ref,Spider,Name,Address,City,State,Zipcode,Country,Phone,Website,Hours,Brand,WikiData
08517,ace_hardware,Hometown Hardware,,Waller,TX,,US,+1 936-372-9183,,Mo-Fr 07:30-18:00; Sa 08:00-16:00,Ace Hardware,Q4672981
175264,bluerhino,Country Mart (JRZ),,Waller,TX,,US,+1 936-931-2812,,,Blue Rhino,Q65681213
174613,bluerhino,Hometown Hardware #8517,,Waller,TX,,US,+1 936-372-9183,,,Blue Rhino,Q65681213
175667,bluerhino,2920 Food Mart (ARNAV),,Waller,TX,,US,+1 936-931-0011,,,Blue Rhino,Q65681213
187842,bluerhino,Family Dollar #02075,,Waller,TX,,US,+1 936-372-2198,,,Blue Rhino,Q65681213
176638,bluerhino,Town & Country Exxon   (FM 2920 FOOD SHOP INC),,Waller,TX,,US,+1 936-372-9299,,,Blue Rhino,Q65681213
96415,bluerhino,Love's #233,,Waller,TX,,US,+1 936-372-3449,,,Blue Rhino,Q65681213
226238,bluerhino,Hamner's Country Store,,Waller,TX,,US,+1 936-372-3337,,,Blue Rhino,Q65681213
193245,bluerhino,Fuel Maxx 37 / Element Business Inc,,Waller,TX,,US,+1 936-372-8019,,,Blue Rhino,Q65681213
379062,chevron,Chevron Station #379062,35515 Highway 290,Waller,TX,,US,+1 936-372-8019,,,Chevron,Q319642
50157,citi,ATM CVS,,Waller,TX,,US,,,,Citibank,Q857063
70180407,cricket_wireless,Cricket Wireless Authorized Retailer,,Waller,TX,,US,+1 936-372-8108,https://www.cricketwireless.com/stores/ll/US/TX/Waller/31303-FM-2920-Rd,Mo-Fr 10:00-20:00; Sa 10:00-19:00,Cricket Wireless,Q5184987
1497,dickeys_barbecue_pit_us,Waller - Hwy 290 Bypass,,Waller,TX,,US,+1 936-372-8029,https://www.dickeys.com/locations/texas/waller/waller,Mo-Su 11:00-21:00,Dickey's Barbecue Pit,Q19880747
23620,dollar_general,Dollar General,,Waller,TX,,US,+1 936-463-2465,https://www.dollargeneral.com/store-directory/tx/waller/23620,Mo-Su 08:00-22:00,Dollar General,Q145168
20160,dollar_general,Dollar General,,Waller,TX,,US,+1 936-310-0532,https://www.dollargeneral.com/store-directory/tx/waller/20160,Mo-Su 08:00-22:00,Dollar General,Q145168
6554,dominos_pizza_us,Domino's Pizza,,Waller,TX,,US,+1 936-372-9800,https://pizza.dominos.com/texas/waller/31100-fm-2920-rd--b,Mo-Th 10:00-24:00; Fr-Sa 10:00-01:00; Su 10:00-24:00,Domino's,Q839466
200330273,exxonmobil,TIME MARTÂ #17,,WALLER,TX,,US,+1 832-387-3647,https://www.exxon.com/en/find-station/exxon-waller-tx-timemart17-200330273,Mo-Su 05:00-00:00,Exxon,Q109675651
22075,family_dollar_us,FAMILY DOLLAR #2075,,Waller,TX,,US,+1 936-372-7199,https://www.familydollar.com/locations/tx/waller/22075/,Mo-Su 09:00-21:00,Family Dollar,Q5433101
https://local.fedex.com/#25229020,fedex,,,Waller,TX,,US,+1 800-463-3339,https://local.fedex.com/en-us/tx/waller/lksea,,FedEx,Q459477
https://local.fedex.com/#25234600,fedex,,,Waller,TX,,US,+1 800-463-3339,https://local.fedex.com/en-us/tx/waller/lksaf,,FedEx,Q459477
https://locations.jackinthebox.com/us/tx/waller/31014-fm-2920-rd,jackinthebox,Jack in the Box,,Waller,TX,,US,+1 936-931-3519,https://locations.jackinthebox.com/us/tx/waller/31014-fm-2920-rd,Mo-Su 04:00-04:00,Jack in the Box,Q1538507
233,loves,Site 233,,Waller,TX,,US,+1 936-372-3449,,,Love's,Q1872496
IAHFW,marriott,Fairfield Inn & Suites Waller,,Waller,TX,,US,+1 936-310-0501,https://www.marriott.com/IAHFW,,Fairfield by Marriott,Q5430314
4994,mightyflame,TOWN AND COUNTRY EXXON,,WALLER,TX,,US,+1 979-826-8334,,,Mighty Flame,
https://locations.oreillyauto.com/tx/waller/wiper-installation-5986.html,oreilly,Your Waller O'Reilly Auto Parts Store,,Waller,TX,,US,+1 936-463-1052,https://locations.oreillyauto.com/tx/waller/wiper-installation-5986.html,Mo-Sa 07:30-21:00; Su 08:00-20:00,O'Reilly Auto Parts,Q7071951
https://locations.oreillyauto.com/tx/waller/check-engine-light-testing-5986.html,oreilly,Your Waller O'Reilly Auto Parts Store,,Waller,TX,,US,+1 936-463-1052,https://locations.oreillyauto.com/tx/waller/check-engine-light-testing-5986.html,Mo-Sa 07:30-21:00; Su 08:00-20:00,O'Reilly Auto Parts,Q7071951
https://locations.oreillyauto.com/tx/waller/battery-testing-5986.html,oreilly,Your Waller O'Reilly Auto Parts Store,,Waller,TX,,US,+1 936-463-1052,https://locations.oreillyauto.com/tx/waller/battery-testing-5986.html,Mo-Sa 07:30-21:00; Su 08:00-20:00,O'Reilly Auto Parts,Q7071951
https://locations.oreillyauto.com/tx/waller/autopartes-5986.html,oreilly,Tu tienda O'Reilly Auto Parts en Waller,,Waller,TX,,US,+1 936-463-1052,https://locations.oreillyauto.com/tx/waller/autopartes-5986.html,Mo-Sa 07:30-21:00; Su 08:00-20:00,O'Reilly Auto Parts,Q7071951
tx_waller_31315-fm-2920,pizza_hut_us,31315 FM 2920,,Waller,TX,,US,+1 936-372-1500,https://locations.pizzahut.com/tx/waller/31315-fm-2920,,Pizza Hut,Q191615
restaurant_83067,popeyes_us_fr,Popeyes,"31100 FM 2920 Rd Waller, Texas 77484 - USA",Waller,TX,,US,+1 936-372-3574,https://www.popeyes.com/store-locator/store/restaurant_83067,Mo-Fr 10:00-00:00; Sa-Su 10:00-22:00,Popeyes,Q1330910
https://restaurants.subway.com/#14899683,subway,Subway Shell Gas/C-Store,,Waller Harris,TX,,US,+1 936-372-5664,https://restaurants.subway.com/united-states/tx/waller/31100-fm-2920,Mo-Sa 08:00-22:00; Su 10:00-20:00,Subway,Q244457
1386271,usps,WALLER,,WALLER,TX,,US,+1 936-372-9232,,Mo-Fr 08:30-16:30; Sa 09:00-12:00,United States Postal Service,Q668687
7748400000,usps_collection_boxes,USPS COLLECTION BOX - BLUE BOX,40090 HIGHWAY 290 BUSINESS,WALLER,TX,,US,,,,United States Postal Service,Q668687
7748400002,usps_collection_boxes,USPS COLLECTION BOX - PO LOBBY,40090 HIGHWAY 290 BUSINESS,WALLER,TX,,US,,,,United States Postal Service,Q668687
7748400006,usps_collection_boxes,USPS COLLECTION BOX - PO LOBBY,40090 HIGHWAY 290 BUSINESS,WALLER,TX,,US,,,,United States Postal Service,Q668687
,visa,,,WALLER,TX,,US,,,,,
,visa,,,WALLER,TX,,US,,,,,
,visa,,,WALLER,TX,,US,,,,,
,visa,,,WALLER,TX,,US,,,,,
,visa,,,WALLER,TX,,US,,,,,
,visa,,,WALLER,TX,,US,,,,,
,visa,,,WALLER,TX,,US,,,,,
,visa,,,WALLER,TX,,US,,,,,
,visa,,,WALLER,TX,,US,,,,,
,visa,,,WALLER,TX,,US,,,,,
,visa,,,WALLER,TX,,US,,,,,
,visa,,,WALLER,TX,,US,,,,,
,visa,,,WALLER,TX,,US,,,,,
,visa,,,WALLER,TX,,US,,,,,
,visa,,,WALLER,TX,,US,,,,,
,visa,,,WALLER,TX,,US,,,,,
,visa,,,WALLER,TX,,US,,,,,
,visa,,,WALLER,TX,,US,,,,,
,visa,,,WALLER,TX,,US,,,,,
,visa,,,WALLER,TX,,US,,,,,
,visa,,,WALLER,TX,,US,,,,,
,visa,,,WALLER,TX,,US,,,,,
,visa,,,WALLER,TX,,US,,,,,
31317__FM__2920_WALLER_TX_77484,wellsfargo,,31317 FM 2920,WALLER,TX,,US,+1 800-869-3557,https://www.wellsfargo.com/locator/bank/31317__FM__2920_WALLER_TX_77484/,,Wells Fargo,Q744149
