Ref,Spider,Name,Address,City,State,Zipcode,Country,Phone,Website,Hours,Brand,WikiData
https://stores.advanceautoparts.com/mo/grain-valley/708-s-main-st,advance_auto_parts_us,Advance Auto Parts,,Grain Valley,MO,,US,+1 816-867-8098,https://stores.advanceautoparts.com/mo/grain-valley/708-s-main-st,Mo-Sa 07:30-21:00; Su 09:00-20:00,Advance Auto Parts,Q4686051
203812,bluerhino,CASEY'S GENERAL STORE #2209,,GRAIN VALLEY,MO,,US,+1 816-443-2184,,,Blue Rhino,Q65681213
203932,bluerhino,CASEY'S GENERAL STORE #3325,,GRAIN VALLEY,MO,,US,+1 816-443-2720,,,Blue Rhino,Q65681213
203878,bluerhino,CASEY'S GENERAL STORE #2808,,GRAIN VALLEY,MO,,US,+1 816-443-3206,,,Blue Rhino,Q65681213
24540695737236402900100000000000,bp,Amoco,,Grain Valley,MO,,US,+1 816-355-0584,,24/7,BP,Q152057
29101,burgerking,Burger King,,Grain Valley,MO,,US,+1 913-423-0802,https://www.bk.com/store-locator/store/restaurant_238185,Mo-Su 07:00-22:00,Burger King,Q177054
KMO,camping_world_us,Camping World of Kansas City,"3001 NE Jefferson Rd Grain Valley, MO 64029",Grain Valley,MO,,US,+1 888-504-5167,https://rv.campingworld.com/dealer/wichita-kansaskansas city-missouri-grain valley,,Camping World,Q5028383
922,culvers_us,"Culver's of Grain Valley, MO - Buckner Tarsney Rd",,Grain Valley,MO,,US,+1 816-867-1018,http://www.culvers.com/restaurants/grain-valley-mo-nw-buckner-tarsney-rd,Mo-Fr 10:30-22:00; Su 10:30-22:00,Culver's,Q1143589
1534,dominos_pizza_us,Domino's Pizza,,Grain Valley,MO,,US,+1 816-535-1500,https://pizza.dominos.com/missouri/grain-valley/451-sw-eagles-parkway,Mo-Th 10:30-24:00; Fr-Sa 10:30-01:00; Su 10:30-24:00,Domino's,Q839466
https://www.edwardjones.com/us-en/financial-advisor/jarod-moran,edwardjones,Jarod M Moran,,Grain Valley,MO,,US,+1 816-847-1950,https://www.edwardjones.com/us-en/financial-advisor/jarod-moran,Mo-Th 08:30-16:30; Fr 08:30-16:00,Edward Jones,Q5343830
https://salons.greatclips.com/us/mo/grain-valley/1060-ne-mcquerry-rd,greatclips,Great Clips,,Grain Valley,MO,,US,+1 816-443-3480,https://salons.greatclips.com/us/mo/grain-valley/1060-ne-mcquerry-rd,Mo-Fr 09:00-19:00; Sa 08:00-18:00; Su 09:00-17:00,Great Clips,Q5598967
https://locations.oreillyauto.com/mo/grainvalley/check-engine-light-testing-4640.html,oreilly,Your Grain Valley O'Reilly Auto Parts Store,,Grain Valley,MO,,US,+1 816-443-2417,https://locations.oreillyauto.com/mo/grainvalley/check-engine-light-testing-4640.html,Mo-Sa 07:30-21:00; Su 08:00-20:00,O'Reilly Auto Parts,Q7071951
https://locations.oreillyauto.com/mo/grainvalley/wiper-installation-4640.html,oreilly,Your Grain Valley O'Reilly Auto Parts Store,,Grain Valley,MO,,US,+1 816-443-2417,https://locations.oreillyauto.com/mo/grainvalley/wiper-installation-4640.html,Mo-Sa 07:30-21:00; Su 08:00-20:00,O'Reilly Auto Parts,Q7071951
https://locations.oreillyauto.com/mo/grainvalley/battery-testing-4640.html,oreilly,Your Grain Valley O'Reilly Auto Parts Store,,Grain Valley,MO,,US,+1 816-443-2417,https://locations.oreillyauto.com/mo/grainvalley/battery-testing-4640.html,Mo-Sa 07:30-21:00; Su 08:00-20:00,O'Reilly Auto Parts,Q7071951
https://locations.oreillyauto.com/mo/grainvalley/autopartes-4640.html,oreilly,Tu tienda O'Reilly Auto Parts en Grain Valley,,Grain Valley,MO,,US,+1 816-443-2417,https://locations.oreillyauto.com/mo/grainvalley/autopartes-4640.html,Mo-Sa 07:30-21:00; Su 08:00-20:00,O'Reilly Auto Parts,Q7071951
169053,pandaexpress,I-70 & Buckner Tarsney Rd Panda Express,,Grain Valley,MO,,US,+1 816-623-0899,https://www.pandaexpress.com/locations/mo/grain-valley/1051-s-buckner-tarsney-road,Mo-Th 10:30-21:30; Fr-Sa 10:30-22:00; Su 10:30-21:30,Panda Express,Q1358690
https://locations.papamurphys.com/#15430584,papamurphys,Pizza Takeout & Delivery,,Grain Valley,MO,,US,+1 816-443-5275,https://locations.papamurphys.com/mo/grain-valley/1203-south-buckner-tarsney-road,Mo-Su 10:30-20:00,Papa Murphy's,Q7132349
https://locations.quiktrip.com/#16318597,quiktrip_us,QuikTrip Store #259 1110 N Buckner Tarsney Rd,,Grain Valley,MO,,US,+1 816-220-9030,https://locations.quiktrip.com/mo/grain-valley/1110-n-buckner-tarsney-rd,24/7,QuikTrip,Q7271953
https://restaurants.subway.com/#14906045,subway,Subway,,Grain Valley Jackson,MO,,US,+1 816-443-3995,https://restaurants.subway.com/united-states/mo/grain-valley/109-w-aa-highway,Mo-Su 09:00-22:00,Subway,Q244457
https://locations.tacobell.com/#15570645,taco_bell,Taco Bell,,Grain Valley,MO,,US,+1 816-867-4311,https://locations.tacobell.com/mo/grain-valley/1101-n--buckner-tarsney.html,Mo-Th 07:00-01:00; Fr-Sa 07:00-02:00; Su 07:00-01:00,Taco Bell,Q752941
1365274,usps,GRAIN VALLEY,,GRAIN VALLEY,MO,,US,+1 816-228-2024,,"Mo-Fr 09:30-11:30,12:30-16:30; Sa 09:00-12:00",United States Postal Service,Q668687
6402900007,usps_collection_boxes,USPS COLLECTION BOX - PO LOBBY,112 W WALNUT ST,GRAIN VALLEY,MO,,US,,,,United States Postal Service,Q668687
6402900001,usps_collection_boxes,USPS COLLECTION BOX - BLUE BOX,112 W WALNUT ST,GRAIN VALLEY,MO,,US,,,,United States Postal Service,Q668687
6402900011,usps_collection_boxes,USPS COLLECTION BOX - BLUE BOX,1251 E AA HWY,GRAIN VALLEY,MO,,US,,,,United States Postal Service,Q668687
6402900012,usps_collection_boxes,USPS COLLECTION BOX - PO LOBBY,112 W WALNUT ST,GRAIN VALLEY,MO,,US,,,,United States Postal Service,Q668687
,visa,,,GRAIN VALLEY,MO,,US,,,,,
,visa,,,GRAIN VALLEY,MO,,US,,,,,
,visa,,,GRAIN VALLEY,MO,,US,,,,,
,visa,,,GRAIN VALLEY,MO,,US,,,,,
,visa,,,GRAIN VALLEY,MO,,US,,,,,
,visa,,,GRAIN VALLEY,MO,,US,,,,,
,visa,,,GRAIN VALLEY,MO,,US,,,,,
,visa,,,GRAIN VALLEY,MO,,US,,,,,
,visa,,,GRAIN VALLEY,MO,,US,,,,,
,visa,,,GRAIN VALLEY,MO,,US,,,,,
,visa,,,GRAIN VALLEY,MO,,US,,,,,
,visa,,,GRAIN VALLEY,MO,,US,,,,,
,visa,,,GRAIN VALLEY,MO,,US,,,,,
a225199b9b6f4a6abad7af7c8431af05,western_union,QUIKTRIP #259,,Grain Valley,MO,,US,+1 816-220-9030,https://location.westernunion.com/us/mo/grain-valley/a225199b9b6f4a6abad7af7c8431af05,,Western Union,Q861042
