Ref,Spider,Name,Address,City,State,Zipcode,Country,Phone,Website,Hours,Brand,WikiData
https://stores.advanceautoparts.com/al/birmingham/1701-pinson-valley-pkwy,advance_auto_parts_us,Advance Auto Parts,,Birmingham,AL,,US,+1 205-808-0161,https://stores.advanceautoparts.com/al/birmingham/1701-pinson-valley-pkwy,Mo-Sa 07:30-21:00; Su 09:00-20:00,Advance Auto Parts,Q4686051
143,autozone_us,AutoZone Auto Parts Birmingham,,Birmingham,AL,,US,+1 205-841-3237,https://www.autozone.com/locations/al/birmingham/1720-pinson-valley-pkwy.html,Mo-Sa 07:00-21:00; Su 08:00-20:00,AutoZone,Q4826087
https://www.averitt.com/locations/alabama/birmingham,averitt,BirminghamÂ Service Center,,Birmingham,AL,,US,+1 800-283-7488,https://www.averitt.com/locations/alabama/birmingham,,Averitt Express,Q4828320
164215,bluerhino,Family Dollar #00415,,Tarrant,AL,,US,+1 205-849-9368,,,Blue Rhino,Q65681213
4009-vanderbilt-road,churchs_chicken,Vanderbilt Road,,Birmingham,AL,,US,+1 205-849-7102,https://locations.churchs.com/al/birmingham/4009-vanderbilt-road,,Church's Chicken,Q1089932
200327822,exxonmobil,AL0065,,BIRMINGHAM,AL,,US,+1 205-841-5443,https://www.exxon.com/en/find-station/mobil-birmingham-al-al0065-200327822,Mo-Su 06:00-00:00,Mobil,Q109676002
200327812,exxonmobil,AL0132,,BIRMINGHAM,AL,,US,+1 205-849-8817,https://www.exxon.com/en/find-station/mobil-birmingham-al-al0132-200327812,24/7,Mobil,Q109676002
200324892,exxonmobil,TARRANT FOODMART,,TARRANT,AL,,US,+1 205-841-2221,https://www.exxon.com/en/find-station/exxon-tarrant-al-tarrantfoodmart-200324892,Mo-Su 06:00-22:00,Exxon,Q109675651
155420,marathon_petroleum_us,MARATHON AL0056,,Birmingham,AL,,US,+1 205-808-1009,,,Marathon,Q458363
157130,marathon_petroleum_us,BASE EXCHANGE,,BIRMINGHAM,AL,,US,+1 205-714-2348,,,Marathon,Q458363
160242,marathon_petroleum_us,TARRANT MARATHON,,TARRANT,AL,,US,+1 205-900-8993,,,Marathon,Q458363
https://locations.oreillyauto.com/al/tarrant/check-engine-light-testing-1699.html,oreilly,Your Tarrant O'Reilly Auto Parts Store,,Tarrant,AL,,US,+1 205-841-7265,https://locations.oreillyauto.com/al/tarrant/check-engine-light-testing-1699.html,Mo-Sa 07:00-21:00; Su 08:00-20:00,O'Reilly Auto Parts,Q7071951
https://locations.oreillyauto.com/al/tarrant/wiper-installation-1699.html,oreilly,Your Tarrant O'Reilly Auto Parts Store,,Tarrant,AL,,US,+1 205-841-7265,https://locations.oreillyauto.com/al/tarrant/wiper-installation-1699.html,Mo-Sa 07:00-21:00; Su 08:00-20:00,O'Reilly Auto Parts,Q7071951
https://locations.oreillyauto.com/al/tarrant/battery-testing-1699.html,oreilly,Your Tarrant O'Reilly Auto Parts Store,,Tarrant,AL,,US,+1 205-841-7265,https://locations.oreillyauto.com/al/tarrant/battery-testing-1699.html,Mo-Sa 07:00-21:00; Su 08:00-20:00,O'Reilly Auto Parts,Q7071951
https://locations.oreillyauto.com/al/tarrant/autopartes-1699.html,oreilly,Tu tienda O'Reilly Auto Parts en Tarrant,,Tarrant,AL,,US,+1 205-841-7265,https://locations.oreillyauto.com/al/tarrant/autopartes-1699.html,Mo-Sa 07:00-21:00; Su 08:00-20:00,O'Reilly Auto Parts,Q7071951
4101,rentacenter,Rent-A-Center,,Birmingham,AL,,US,+1 205-808-0080,https://locations.rentacenter.com/alabama/birmingham/2046-springdale-ln/,Mo-Sa 10:00-18:00,Rent-A-Center,Q7313497
https://restaurants.subway.com/#14902469,subway,Subway The Pantry Gas/C-Store,,Birmingham Jefferson,AL,,US,+1 205-849-0113,https://restaurants.subway.com/united-states/al/birmingham/2803-pinson-valley-prkwy,Mo-Fr 06:00-21:00; Sa 08:00-20:00,Subway,Q244457
https://locations.tacobell.com/#3916816,taco_bell,Taco Bell,,Tarrant,AL,,US,+1 205-849-7464,https://locations.tacobell.com/al/tarrant/1801-pinson-valley-pkwy.html,Mo-Su 09:00-01:00,Taco Bell,Q752941
762048,uhaul,U-Haul Moving & Storage of Fultondale,1588 Carson Rd,Fultondale,AL,,US,+1 205-608-1103,,Mo-Th 00:00-19:00; Fr 00:00-20:00; Sa 00:00-19:00; Su 00:00-17:00,U-Haul,Q7862902
017356,uhaul,Industrial Park Mini Storage,970 N Pine Hill Rd,Birmingham,AL,,US,+1 205-815-1573,,Mo-Sa 00:00-15:00,U-Haul,Q7862902
1437789,usps,TARRANT,,BIRMINGHAM,AL,,US,+1 205-849-8245,,Mo-Fr 08:30-17:00; Sa 09:00-14:00,United States Postal Service,Q668687
3521700000,usps_collection_boxes,USPS COLLECTION BOX - BLUE BOX,1101 ELIZABETH AVE,BIRMINGHAM,AL,,US,,,,United States Postal Service,Q668687
3521700015,usps_collection_boxes,USPS COLLECTION BOX - PO LOBBY,1101 ELIZABETH AVE,BIRMINGHAM,AL,,US,,,,United States Postal Service,Q668687
3521700011,usps_collection_boxes,USPS COLLECTION BOX - PO LOBBY,1101 ELIZABETH AVE,BIRMINGHAM,AL,,US,,,,United States Postal Service,Q668687
3521700013,usps_collection_boxes,USPS COLLECTION BOX - PO LOBBY,1101 ELIZABETH AVE,BIRMINGHAM,AL,,US,,,,United States Postal Service,Q668687
3521700001,usps_collection_boxes,USPS COLLECTION BOX - BLUE BOX,1101 ELIZABETH AVE,BIRMINGHAM,AL,,US,,,,United States Postal Service,Q668687
,visa,,,BIRMINGHAM,AL,,US,,,,,
,visa,,,BIRMINGHAM,AL,,US,,,,,
,visa,,,BIRMINGHAM,AL,,US,,,,,
,visa,,,BIRMINGHAM,AL,,US,,,,,
,visa,,,BIRMINGHAM,AL,,US,,,,,
,visa,,,BIRMINGHAM,AL,,US,,,,,
,visa,,,TARRANT,AL,,US,,,,,
,visa,,,TARRANT,AL,,US,,,,,
,visa,,,BIRMINGHAM,AL,,US,,,,,
,visa,,,BIRMINGHAM,AL,,US,,,,,
,visa,,,TARRANT,AL,,US,,,,,
,visa,,,BIRMINGHAM,AL,,US,,,,,
,visa,,,TARRANT,AL,,US,,,,,
,visa,,,BIRMINGHAM,AL,,US,,,,,
,visa,,,BIRMINGHAM,AL,,US,,,,,
,visa,,,TARRANT,AL,,US,,,,,
,visa,,,BIRMINGHAM,AL,,US,,,,,
,visa,,,BIRMINGHAM,AL,,US,,,,,
,visa,,,BIRMINGHAM,AL,,US,,,,,
,visa,,,TARRANT,AL,,US,,,,,
,visa,,,TARRANT,AL,,US,,,,,
,visa,,,BIRMINGHAM,AL,,US,,,,,
,visa,,,BIRNINGHAM,AL,,US,,,,,
,visa,,,BIRMINGHAM,AL,,US,,,,,
,visa,,,BIRMINGHAM,AL,,US,,,,,
,visa,,,TARRANT,AL,,US,,,,,
,visa,,,TARRANT,AL,,US,,,,,
,visa,,,BIRMINGHAM,AL,,US,,,,,
,visa,,,BIRMINGHAM,AL,,US,,,,,
,visa,,,BIRMINGHAM,AL,,US,,,,,
