Ref,Spider,Name,Address,City,State,Zipcode,Country,Phone,Website,Hours,Brand,WikiData
202750,bluerhino,CASEY'S GENERAL STORE #1292,,WARREN,IL,,US,+1 815-745-2048,,,Blue Rhino,Q65681213
https://www.efaststop.com/store-locator/pv/3000/id/231,fast_stop_us,Stagecoach FAST STOP,,Warren,IL,,US,+1 815-745-3400,https://www.efaststop.com/store-locator/pv/3000/id/231,,FAST STOP,Q116734101
26756,h_r_block,H&R Block,,Warren,IL,,US,+1 815-745-2650,https://www.hrblock.com/local-tax-offices/illinois/warren/142-e-main-st/26756/,,H&R Block,Q5627799
Hartzell's IGA #8183,iga,Hartzell's IGA #8183,"7989 Rte. 78 North, Warren, IL, 61087",Warren,IL,,US,+1 813-515-6328,http://www.hartzellsigawarren.com,,IGA,Q3146662
https://restaurants.subway.com/#14896785,subway,Subway FS Gas Station/C-Store,,Warren Jo Daviess,IL,,US,+1 815-745-3400,https://restaurants.subway.com/united-states/il/warren/160-e-main-street,Mo-Su 08:00-21:00,Subway,Q244457
1386434,usps,WARREN,,WARREN,IL,,US,+1 815-745-2139,,"Mo-Fr 09:30-13:00,14:00-16:30; Sa 09:30-12:00",United States Postal Service,Q668687
6108700006,usps_collection_boxes,USPS COLLECTION BOX - BLUE BOX,110 W MAIN ST,WARREN,IL,,US,,,,United States Postal Service,Q668687
6108700002,usps_collection_boxes,USPS COLLECTION BOX - PO LOBBY,101 E MAIN ST,WARREN,IL,,US,,,,United States Postal Service,Q668687
6108700003,usps_collection_boxes,USPS COLLECTION BOX - PO LOBBY,101 E MAIN ST,WARREN,IL,,US,,,,United States Postal Service,Q668687
6108700007,usps_collection_boxes,USPS COLLECTION BOX - PO LOBBY,101 E MAIN ST,WARREN,IL,,US,,,,United States Postal Service,Q668687
6108700005,usps_collection_boxes,USPS COLLECTION BOX - BLUE BOX,101 E MAIN ST,WARREN,IL,,US,,,,United States Postal Service,Q668687
,visa,,,WARREN,IL,,US,,,,,
,visa,,,WARREN,IL,,US,,,,,
,visa,,,WARREN,IL,,US,,,,,
,visa,,,WARREN,IL,,US,,,,,
,visa,,,WARREN,IL,,US,,,,,
,visa,,,WARREN,IL,,US,,,,,
,visa,,,WARREN,IL,,US,,,,,
,visa,,,WARREN,IL,,US,,,,,
,visa,,,WARREN,IL,,US,,,,,
,visa,,,WARREN,IL,,US,,,,,
,visa,,,WARREN,IL,,US,,,,,
