Ref,Spider,Name,Address,City,State,Zipcode,Country,Phone,Website,Hours,Brand,WikiData
https://www.avis.com/en/locations/ao/luanda/lad,avis,Avis Angola Luanda Airport,,Luanda,Luanda,,AO,+244 222 321 551,https://www.avis.com/en/locations/ao/luanda/lad,Mo-Su 06:30-20:30,Avis,Q791136
cadac4e9837cf19ac6a135934692ebbe,western_union,ATLANTICO CENTRO BENFICA,,Luanda,LUANDA,,AO,+244 222 632 130,https://location.westernunion.com/ao/luanda/luanda/cadac4e9837cf19ac6a135934692ebbe,Mo-Fr 08:00-16:00; Sa 08:00-12:00,Western Union,Q861042
d774134c8a0c1c0442ee352dfbb5684a,western_union,BANCO MILLENIUM ATLANTICO SA,,Luanda,LUANDA,,AO,+244 923 169 000,https://location.westernunion.com/ao/luanda/luanda/d774134c8a0c1c0442ee352dfbb5684a,Mo-Fr 08:00-18:00,Western Union,Q861042
888bb4d4c5360f74c582cb045b055cd4,western_union,ATLANTICO CA CIDADE FINANCEIRA,,Luanda,LUANDA,,AO,+244 226 432 400,https://location.westernunion.com/ao/luanda/luanda/888bb4d4c5360f74c582cb045b055cd4,Mo-Fr 08:00-17:00,Western Union,Q861042
c320573d5eb891269b6698d57035a00e,western_union,BALCAO 4 REPARTICAO FISCAL DE TALATONA,,Luanda,LUANDA,,AO,+244 923 471 293,https://location.westernunion.com/ao/luanda/luanda/c320573d5eb891269b6698d57035a00e,Mo-Fr 08:00-16:30; Sa 09:00-14:30,Western Union,Q861042
e93b29c576ab8f1f19c4c70d60dd6710,western_union,BANCO MILLENIUM ATLANTICO SA MORRO BENTO,,Morro Bento,LUANDA,,AO,(+244) 22-632400,https://location.westernunion.com/ao/luanda/morro-bento/e93b29c576ab8f1f19c4c70d60dd6710,Mo-Fr 07:30-18:00; Sa 07:30-19:30,Western Union,Q861042
c52aa1f2a922900b03472f61efbe98ef,western_union,AGENCIA KERO MORRO BENTO,,Luanda,LUANDA,,AO,+244 923 169 000,https://location.westernunion.com/ao/luanda/luanda/c52aa1f2a922900b03472f61efbe98ef,Mo-Fr 08:00-18:00,Western Union,Q861042
655043706e53c6ee6ba7bf6e12ce3ff1,western_union,BANCO MILLENIUM ATLANTICO SA,,Luanda,LUANDA,,AO,+244 222 632 480,https://location.westernunion.com/ao/luanda/luanda/655043706e53c6ee6ba7bf6e12ce3ff1,Mo-Fr 07:30-18:00; Sa 07:30-19:30,Western Union,Q861042
f19d7ef9e66bbd0822783da0586af41c,western_union,ATLANTICO CAMAMA ESTRADA DIREITA,,Luanda,LUANDA,,AO,(+244) 22-632130,https://location.westernunion.com/ao/luanda/luanda/f19d7ef9e66bbd0822783da0586af41c,Mo-Fr 08:00-16:00; Sa 08:00-12:00,Western Union,Q861042
a0e17a602e9f136ad9dd5ac23ecf0546,western_union,BANCO MILLENIUM ATLANTICO SA,,Kilamba Kiaxi,LUANDA,,AO,(+244) 22-621400,https://location.westernunion.com/ao/luanda/kilamba-kiaxi/a0e17a602e9f136ad9dd5ac23ecf0546,Mo-Fr 07:30-18:00; Sa 07:30-19:30,Western Union,Q861042
2b1020227884e363dffa235eb3e8c1b2,western_union,BCI BALCAO DO AEROPORTO,,Luanda,LUANDA,,AO,+244 932 734 720,https://location.westernunion.com/ao/luanda/luanda/2b1020227884e363dffa235eb3e8c1b2,Mo-Fr 08:00-20:00; Sa 08:00-14:00; Su 08:00-24:00,Western Union,Q861042
fbccb4b8fb14286f11c5b86c55f7da0a,western_union,ATLANTICO BALCAO CASSENDA,,Luanda,LUANDA,,AO,+244 923 169 000,https://location.westernunion.com/ao/luanda/luanda/fbccb4b8fb14286f11c5b86c55f7da0a,Mo-Su 08:00-19:00,Western Union,Q861042
a18f9c17e95d481c911acebca12879a9,western_union,BANCO DE COMERCIO E INDUSTRIA,,Luanda,LUANDA,,AO,(+244) 2-333748,https://location.westernunion.com/ao/luanda/luanda/a18f9c17e95d481c911acebca12879a9,Mo-Fr 08:00-20:00,Western Union,Q861042
912806e38da6a9de66e168058a4c5dc5,western_union,BANCO MILLENIUM ATLANTICO SA,,Luanda,LUANDA,,AO,+244 222 632 480,https://location.westernunion.com/ao/luanda/luanda/912806e38da6a9de66e168058a4c5dc5,Mo-Fr 07:30-18:00; Sa 07:30-19:30,Western Union,Q861042
98e7eb713614ad9bbd477e18e728ec79,western_union,BALCAO DO SEQUELE,,Luanda,LUANDA,,AO,+244 912 347 878,https://location.westernunion.com/ao/luanda/luanda/98e7eb713614ad9bbd477e18e728ec79,Mo-Fr 08:00-16:30; Sa 09:00-14:30,Western Union,Q861042
2260561a40cf70f228373de108ffafd1,western_union,ATLANTICO COMANDANTE VALODIA,,Luanda,LUANDA,,AO,(+244) 330210,https://location.westernunion.com/ao/luanda/luanda/2260561a40cf70f228373de108ffafd1,Mo-Fr 07:30-18:00; Sa 07:30-19:30,Western Union,Q861042
77014acebb66b7c6f280e72b18b2d369,western_union,BALCAO DO ZANGO 1,,Luanda,LUANDA,,AO,+244 948 513 579,https://location.westernunion.com/ao/luanda/luanda/77014acebb66b7c6f280e72b18b2d369,Mo-Fr 08:00-16:30; Sa 09:00-14:30,Western Union,Q861042
d6e96b55234f107136880f44a0ac9f20,western_union,BANCO MILLENIUM ATLANTICO SA,,Luanda,LUANDA,,AO,(+244) 22-621400,https://location.westernunion.com/ao/luanda/luanda/d6e96b55234f107136880f44a0ac9f20,Mo-Fr 07:30-18:00; Sa 07:30-19:30,Western Union,Q861042
c78871d2307a49d7924622b750e4b5fd,western_union,AGENCIA ZANGO,,Luanda,LUANDA,,AO,+244 923 169 000,https://location.westernunion.com/ao/luanda/luanda/c78871d2307a49d7924622b750e4b5fd,Mo-Su 08:00-18:00,Western Union,Q861042
1f7117c45b42accdf59aef4afc087970,western_union,VIANA,,Viana,LUANDA,,AO,+244 222 693 800,https://location.westernunion.com/ao/luanda/viana/1f7117c45b42accdf59aef4afc087970,Mo-Fr 08:00-18:00,Western Union,Q861042
586423c7f6231ad01aa45b3cc3834cd8,western_union,BALCAO 11 NOVEMBRO I,,Luanda,LUANDA,,AO,(+244) 2-948513578,https://location.westernunion.com/ao/luanda/luanda/586423c7f6231ad01aa45b3cc3834cd8,Mo-Fr 08:30-20:00; Sa 08:30-15:30,Western Union,Q861042
26eb6c55e1f22f5a0b38e84f79e9c837,western_union,BANCO MILLENIUM ATLANTICO SA,,Cacuao,LUANDA,,AO,(+244) 22-632587,https://location.westernunion.com/ao/luanda/cacuao/26eb6c55e1f22f5a0b38e84f79e9c837,Mo-Fr 07:30-18:00; Sa 07:30-19:30,Western Union,Q861042
f6824ddc7f15ccdaa7f59c49bc0da885,western_union,AGENCIA CACUACO RETAIL PARK,,Luanda,LUANDA,,AO,+244 226 460 460,https://location.westernunion.com/ao/luanda/luanda/f6824ddc7f15ccdaa7f59c49bc0da885,Mo-Fr 08:00-18:00,Western Union,Q861042
22e680585f39fe6906eb2d894d9c80b7,western_union,AGENCIA KERO VIANA,,Luanda,LUANDA,,AO,+244 226 460 460,https://location.westernunion.com/ao/luanda/luanda/22e680585f39fe6906eb2d894d9c80b7,Mo-Fr 08:00-17:00,Western Union,Q861042
275bf21c1b7c7ca62424084a3bcb50db,western_union,ATLANTICO JOAQUIM KAPANGO PRESTIGE,,Luanda,LUANDA,,AO,+244 226 432 400,https://location.westernunion.com/ao/luanda/luanda/275bf21c1b7c7ca62424084a3bcb50db,Mo-Fr 08:00-18:00,Western Union,Q861042
050a3edaa4541b671b5886f3beeabbb2,western_union,BCI BALCAO LAR DO PATRIOTA,,Luanda,LUANDA,,AO,+244 947 012 796,https://location.westernunion.com/ao/luanda/luanda/050a3edaa4541b671b5886f3beeabbb2,Mo-Fr 08:00-20:00; Sa 08:00-14:00,Western Union,Q861042
20b4d7fcf3bf1cb51a590f520d0f4e19,western_union,BCI AGENCIA ATLANTICO,,Luanda,LUANDA,,AO,(+244) 2-932734679,https://location.westernunion.com/ao/luanda/luanda/20b4d7fcf3bf1cb51a590f520d0f4e19,Mo-Fr 08:00-20:00; Sa 08:00-14:00,Western Union,Q861042
97c943da1378631b4e26a005dfb699b1,western_union,BCI AGENCIA DO QUIFICA,,Luanda,LUANDA,,AO,+244 932 734 676,https://location.westernunion.com/ao/luanda/luanda/97c943da1378631b4e26a005dfb699b1,Mo-Fr 08:00-15:30; Sa 08:00-12:00; Su 08:00-24:00,Western Union,Q861042
d54d117fd59051db622db668771543bb,western_union,BANCO DE COMERCIO E INDUSTRIA,,Luanda,LUANDA,,AO,(+244) 2-932734699,https://location.westernunion.com/ao/luanda/luanda/d54d117fd59051db622db668771543bb,Mo-Fr 08:00-15:30; Sa 08:00-12:00,Western Union,Q861042
edec917197e081a3781a8888a3717eea,western_union,BCI LUANDA,,Luanda,LUANDA,,AO,+244 222 353 719,https://location.westernunion.com/ao/luanda/luanda/edec917197e081a3781a8888a3717eea,Mo-Fr 08:00-20:00; Sa 08:00-14:00,Western Union,Q861042
ebbac1c83e1990b8a7fbdb6774ba8818,western_union,BCI DEPENDENCIA DOS CONGOLENSES,,Luanda,LUANDA,,AO,+244 932 734 687,https://location.westernunion.com/ao/luanda/luanda/ebbac1c83e1990b8a7fbdb6774ba8818,Mo-Fr 08:00-20:00; Sa 08:00-14:00,Western Union,Q861042
e603b733abbff0684768e39d80770f3f,western_union,BALCAO SAO PAULO,,Luanda,LUANDA,,AO,+244 943 686 812,https://location.westernunion.com/ao/luanda/luanda/e603b733abbff0684768e39d80770f3f,Mo-Fr 08:00-20:00; Sa 08:00-14:00,Western Union,Q861042
192c24678809ef9654e17ce1225de3b8,western_union,BANCO DE COMERCIO E INDUSTRIA,,Luanda,LUANDA,,AO,(+244) 2-333748,https://location.westernunion.com/ao/luanda/luanda/192c24678809ef9654e17ce1225de3b8,Mo-Fr 08:00-15:30; Sa 08:00-12:00,Western Union,Q861042
27c9478d727a6c63ac7795b8977b12b7,western_union,BCI AGENCIA MACULUSSO,,Luanda,LUANDA,,AO,+244 923 641 850,https://location.westernunion.com/ao/luanda/luanda/27c9478d727a6c63ac7795b8977b12b7,Mo-Fr 08:00-20:00; Sa-Su 08:00-15:00,Western Union,Q861042
0e64b2c89e4366c5ca1afc4a5fbe16ff,western_union,ATLANTICO RAINHA GINGA,,Luanda,LUANDA,,AO,+244 222 632 669,https://location.westernunion.com/ao/luanda/luanda/0e64b2c89e4366c5ca1afc4a5fbe16ff,Mo-Su 08:00-17:00,Western Union,Q861042
fc1b94e46e07d7a8a81d33988635c481,western_union,BANCO DE COMERCIO E INDUSTRIA,,Luanda,LUANDA,,AO,+244 222 333 744,https://location.westernunion.com/ao/luanda/luanda/fc1b94e46e07d7a8a81d33988635c481,Mo-Su 06:00-20:00,Western Union,Q861042
23fd0076def3e98bc1448d7dc5f0c9c3,western_union,BANCO DE COMERCIO E INDUSTRIA,,Luanda,LUANDA,,AO,+244 222 333 744,https://location.westernunion.com/ao/luanda/luanda/23fd0076def3e98bc1448d7dc5f0c9c3,Mo-Su 06:00-20:00,Western Union,Q861042
e5e441e145d98de420c6bb119f04974c,western_union,ATLANTICO CA SEDE CHICALA,,Luanda,LUANDA,,AO,+244 226 432 400,https://location.westernunion.com/ao/luanda/luanda/e5e441e145d98de420c6bb119f04974c,Mo-Fr 08:00-17:00,Western Union,Q861042
