Ref,Spider,Name,Address,City,State,Zipcode,Country,Phone,Website,Hours,Brand,WikiData
Ford13800THAEN,ford,Ford Auto Gallery,,A.Muang,,,TH,+66 2 975 8900,,Mo-Fr 08:30-17:30; Su 08:30-17:30,Ford,Q44294
Ford13800THATH,ford,ฟอร์ด ออโต้ แกลลอรี่,,อ.เมือง,,,TH,+66 2 975 8900,,Mo-Fr 08:30-17:30; Su 08:30-17:30,Ford,Q44294
Ford17400THAEN,ford,Ford Auto Nation Tivanond,,"A.Mueang,",,,TH,+66 2 150 1230,,Mo-Fr 08:00-18:00; Su 08:00-18:00,Ford,Q44294
Ford17400THATH,ford,ฟอร์ด ออโต้เนชั่น ติวานนท์,,อ.เมือง,,,TH,+66 2 150 1230,,Mo-Fr 08:00-18:00; Su 08:00-18:00,Ford,Q44294
69171792,moneygram,GOVERNMENT SAVINGS BANK - MUEANG PATHUMT,,MUEANG PATHUMTHANI,,,TH,+66 2 581 7949,,Mo-Fr 08:30-16:30; Sa-Su 00:00-24:00,MoneyGram,Q1944412
69171828,moneygram,GOVERNMENT SAVINGS BANK - MUEANG PATHUMT,,MUEANG PATHUMTHANI,,,TH,+66 2 581 1609,,Mo-Su 09:00-19:00,MoneyGram,Q1944412
69172953,moneygram,GOVERNMENT SAVINGS BANK - MUEANG PATHUMT,,MUEANG PATHUMTHANI,,,TH,+66 2 997 1501,,Mo-Su 10:00-19:00,MoneyGram,Q1944412
69283910,moneygram,SIAM COMMERCIAL BANK - #5424 - TESCO LOT,,PATHUM THANI,,,TH,+66 2 106 3082,,Mo-Su 11:00-19:00,MoneyGram,Q1944412
69283949,moneygram,SIAM COMMERCIAL BANK - #5415 - THAMMASAT,,PATHUM THANI,,,TH,+66 2 986 9016,,Mo-Fr 08:30-16:30; Sa-Su 00:00-24:00,MoneyGram,Q1944412
70680382,moneygram,SIAM COMMERCIAL BANK - #5457 - TESCO LOT,,PATHUM THANI,,,TH,+66 2 581 0112,,Mo-Su 11:00-19:00,MoneyGram,Q1944412
70690327,moneygram,SIAM COMMERCIAL BANK - #5457 - TESCO LOT,,PATHUM THANI,,,TH,+66 2 581 0112,,24/7,MoneyGram,Q1944412
43985386,moneygram,SIAM COMMERCIAL BANK - #0369 - BANFAPIYA,,PATHUM THANI,,,TH,+66 2 532 6263,,Mo-Fr 08:30-15:30; Sa-Su 00:00-24:00,MoneyGram,Q1944412
43987119,moneygram,SIAM COMMERCIAL BANK - #0370 - TESCO LOT,,PATHUM THANI,,,TH,+66 2 567 4801,,Mo-Su 10:30-19:30,MoneyGram,Q1944412
43805220,moneygram,SIAM COMMERCIAL BANK - #0318 - KHLONG 10,,PATHUM THANI,,,TH,5461304,,Mo-Fr 08:30-15:30; Sa-Su 00:00-24:00,MoneyGram,Q1944412
43805259,moneygram,SIAM COMMERCIAL BANK - #0351 - KU KOT KL,,PATHUM THANI,,,TH,9959975,,Mo-Fr 08:30-15:30; Sa-Su 00:00-24:00,MoneyGram,Q1944412
43805275,moneygram,SIAM COMMERCIAL BANK - #0349 - RANGSIT P,,PATHUM THANI,,,TH,+66 2 959 0013,,Mo-Fr 08:30-15:30; Sa-Su 00:00-24:00,MoneyGram,Q1944412
43805288,moneygram,SIAM COMMERCIAL BANK - #0317 - SAM KHOK,,PATHUM THANI,,,TH,+66 2 593 1268,,Mo-Fr 08:30-15:30; Sa-Su 00:00-24:00,MoneyGram,Q1944412
43805301,moneygram,SIAM COMMERCIAL BANK - #0307 - KLONG 6 T,,PATHUM THANI,,,TH,+66 2 577 1490,,Mo-Fr 08:30-15:30; Sa-Su 00:00-24:00,MoneyGram,Q1944412
43805848,moneygram,SIAM COMMERCIAL BANK - #0301 - PATHUM TH,,PATHUM THANI,,,TH,5812996,,Mo-Fr 08:30-15:30; Sa-Su 00:00-24:00,MoneyGram,Q1944412
43803662,moneygram,SIAM COMMERCIAL BANK - #0288 - SIMUMMUAN,,PATHUM THANI,,,TH,+66 2 536 7712,,Mo-Fr 08:30-15:30; Sa-Su 00:00-24:00,MoneyGram,Q1944412
43803714,moneygram,SIAM COMMERCIAL BANK - #0293 - THANONLIA,,PATHUM THANI,,,TH,+66 2 504 0999,,Mo-Fr 08:30-18:00; Sa-Su 00:00-24:00,MoneyGram,Q1944412
43985250,moneygram,SIAM COMMERCIAL BANK - #0377 - BIG C NAV,,PATHUM THANI,,,TH,+66 2 520 4027,,Mo-Su 11:00-20:00,MoneyGram,Q1944412
43988040,moneygram,SIAM COMMERCIAL BANK - #0372 - POONSAB M,,PATHUM THANI,,,TH,+66 2 598 4149,,Mo-Su 09:00-19:00,MoneyGram,Q1944412
43985195,moneygram,SIAM COMMERCIAL BANK - #0371 - THAITHANI,,PATHUM THANI,,,TH,+66 2 529 5481,,Mo-Su 08:30-18:30,MoneyGram,Q1944412
43805217,moneygram,SIAM COMMERCIAL BANK - #0329 - BANGKADI,,PATHUM THANI,,,TH,9637140,,Mo-Fr 08:30-15:30; Sa-Su 00:00-24:00,MoneyGram,Q1944412
43986424,moneygram,SIAM COMMERCIAL BANK - #0326 - NONG SUA,,PATHUM THANI,,,TH,5491037,,Mo-Fr 08:30-18:00; Sa-Su 00:00-24:00,MoneyGram,Q1944412
43805246,moneygram,SIAM COMMERCIAL BANK - #0314 - KHLONG LU,,PATHUM THANI,,,TH,+66 2 516 8016,,Mo-Fr 08:30-15:30; Sa-Su 00:00-24:00,MoneyGram,Q1944412
43803808,moneygram,SIAM COMMERCIAL BANK - #0392 - TESCO LOT,,MUANG PATHUM THANI,,,TH,5691121,,Mo-Su 11:00-20:00,MoneyGram,Q1944412
64757085,moneygram,SIAM COMMERCIAL BANK - #5068,,PATHUM THANI,,,TH,+66 2 592 2934,,Mo-Sa 08:30-18:00; Su 00:00-24:00,MoneyGram,Q1944412
67202799,moneygram,SIAM COMMERCIAL BANK - #5220 - THANONBAN,,PATHUM THANI,,,TH,2524202930,,Mo-Fr 08:30-15:30; Sa-Su 00:00-24:00,MoneyGram,Q1944412
67202854,moneygram,SIAM COMMERCIAL BANK - #5258 - TALAD SAP,,PATHUM THANI,,,TH,+66 2 159 3437,,Mo-Sa 09:00-18:30; Su 00:00-24:00,MoneyGram,Q1944412
67367676,moneygram,SIAM COMMERCIAL BANK - #0368 - TESCO LOT,,PATHUM THANI,,,TH,+66 2 549 9062,,Mo-Su 11:00-20:00,MoneyGram,Q1944412
67367964,moneygram,SIAM COMMERCIAL BANK - #5115 - BIG C RAN,,PATHUM THANI,,,TH,+66 2 995 0481,,Mo-Sa 09:30-19:00; Su 00:00-24:00,MoneyGram,Q1944412
67367980,moneygram,SIAM COMMERCIAL BANK - #5117 - BIG C RAN,,PATHUM THANI,,,TH,+66 2 577 3802,,Mo-Sa 10:30-19:30; Su 00:00-24:00,MoneyGram,Q1944412
67368248,moneygram,SIAM COMMERCIAL BANK - #5147 - TESCO LOT,,PATHUM THANI,,,TH,+66 2 520 4010,,Mo-Sa 10:30-20:00; Su 00:00-24:00,MoneyGram,Q1944412
67368358,moneygram,SIAM COMMERCIAL BANK - #5159 - BIG C LUM,,PATHUM THANI,,,TH,+66 2 563 3213,,Mo-Sa 10:30-19:30; Su 00:00-24:00,MoneyGram,Q1944412
67368361,moneygram,SIAM COMMERCIAL BANK - #5160 - TESCO LOT,,PATHUM THANI,,,TH,+66 2 191 1587,,Mo-Sa 10:30-19:30; Su 00:00-24:00,MoneyGram,Q1944412
67368662,moneygram,SIAM COMMERCIAL BANK - #5193 - RANGSIT U,,PATHUM THANI,,,TH,+66 2 997 9273,,Mo-Fr 08:30-15:30; Sa-Su 00:00-24:00,MoneyGram,Q1944412
67368714,moneygram,SIAM COMMERCIAL BANK - #5201 - TALADNANA,,PATHUM THANI,,,TH,+66 2 533 1112,,Mo-Fr 08:30-15:30; Sa-Su 00:00-24:00,MoneyGram,Q1944412
67368727,moneygram,SIAM COMMERCIAL BANK - #5202 - BANGDUEA,,PATHUM THANI,,,TH,+66 2 593 4482,,Mo-Fr 08:30-16:00; Sa-Su 00:00-24:00,MoneyGram,Q1944412
43805262,moneygram,SIAM COMMERCIAL BANK - #0311 - LAM LUK K,,PATHUM THANI,,,TH,5311117,,Mo-Fr 08:30-15:30; Sa-Su 00:00-24:00,MoneyGram,Q1944412
43805291,moneygram,SIAM COMMERCIAL BANK - #0354 - THANON NI,,PATHUM THANI,,,TH,9930380,,Mo-Fr 08:30-15:30; Sa-Su 00:00-24:00,MoneyGram,Q1944412
43989081,moneygram,SIAM COMMERCIAL BANK - #0350 - LAT LUM K,,PATHUM THANI,,,TH,+66 2 976 2556,,Mo-Fr 08:30-15:30; Sa-Su 00:00-24:00,MoneyGram,Q1944412
45179433,moneygram,SIAM COMMERCIAL BANK - #0299 - J-VENUE N,,PATHUM THANI,,,TH,+66 2 529 1566,,Mo-Su 09:00-18:00,MoneyGram,Q1944412
43803772,moneygram,SIAM COMMERCIAL BANK - #0389 - BIG C RAN,,PATHUM THANI,,,TH,9585226,,Mo-Su 11:00-20:00,MoneyGram,Q1944412
67865055,moneygram,SIAM COMMERCIAL BANK - #5325 - THAI MARK,,PATHUM THANI,,,TH,+66 2 101 1003,,Mo-Su 08:30-18:30,MoneyGram,Q1944412
,visa,,,PATHUM THANI,,,TH,,,,,
,visa,,,PATHUM THANI,,,TH,,,,,
,visa,,,PATHUM THANI,,,TH,,,,,
,visa,,,PATHUM THANI,,,TH,,,,,
,visa,,,PATHUM THANI,,,TH,,,,,
,visa,,,PATHUM THANI,,,TH,,,,,
,visa,,,PATHUM THANI,,,TH,,,,,
,visa,,,PATHUM THANI,,,TH,,,,,
,visa,,,PATHUM THANI,,,TH,,,,,
,visa,,,PATHUM THANI,,,TH,,,,,
,visa,,,PATHUM THANI,,,TH,,,,,
,visa,,,PATHUM THANI,,,TH,,,,,
,visa,,,PATHUM THANI,,,TH,,,,,
,visa,,,PATHUM THANI,,,TH,,,,,
,visa,,,PATHUM THANI,,,TH,,,,,
,visa,,,PATHUM THANI,,,TH,,,,,
,visa,,,PATHUM THANI,,,TH,,,,,
,visa,,,PATHUM THANI,,,TH,,,,,
,visa,,,PATHUM THANI,,,TH,,,,,
,visa,,,PATHUM THANI,,,TH,,,,,
,visa,,,PATHUM THANI,,,TH,,,,,
,visa,,,PATHUM THANI,,,TH,,,,,
,visa,,,PATHUM THANI,,,TH,,,,,
,visa,,,PATHUM THANI,,,TH,,,,,
,visa,,,PATHUM THANI,,,TH,,,,,
,visa,,,PATHUM THANI,,,TH,,,,,
,visa,,,PATHUM THANI,,,TH,,,,,
,visa,,,PATHUM THANI,,,TH,,,,,
,visa,,,PATHUM THANI,,,TH,,,,,
,visa,,,PATHUM THANI,,,TH,,,,,
,visa,,,PATHUM THANI,,,TH,,,,,
,visa,,,PATHUM THANI,,,TH,,,,,
,visa,,,PATHUM THANI,,,TH,,,,,
,visa,,,PATHUM THANI,,,TH,,,,,
,visa,,,PATHUM THANI,,,TH,,,,,
,visa,,,PATHUM THANI,,,TH,,,,,
,visa,,,PATHUM THANI,,,TH,,,,,
,visa,,,PATHUM THANI,,,TH,,,,,
,visa,,,PATHUM THANI,,,TH,,,,,
,visa,,,PATHUM THANI,,,TH,,,,,
,visa,,,PATHUM THANI,,,TH,,,,,
,visa,,,PATHUM THANI,,,TH,,,,,
,visa,,,PATHUM THANI,,,TH,,,,,
,visa,,,PATHUM THANI,,,TH,,,,,
,visa,,,PATHUM THANI,,,TH,,,,,
,visa,,,PATHUM THANI,,,TH,,,,,
,visa,,,PATHUM THANI,,,TH,,,,,
,visa,,,PATHUM THANI,,,TH,,,,,
,visa,,,PATHUM THANI,,,TH,,,,,
,visa,,,PATHUM THANI,,,TH,,,,,
,visa,,,PATHUM THANI,,,TH,,,,,
,visa,,,PATHUM THANI,,,TH,,,,,
,visa,,,PATHUM THANI,,,TH,,,,,
,visa,,,PATHUM THANI,,,TH,,,,,
,visa,,,PATHUM THANI,,,TH,,,,,
,visa,,,PATHUM THANI,,,TH,,,,,
,visa,,,PATHUM THANI,,,TH,,,,,
,visa,,,PATHUM THANI,,,TH,,,,,
,visa,,,PATHUM THANI,,,TH,,,,,
,visa,,,PATHUM THANI,,,TH,,,,,
,visa,,,PATHUM THANI,,,TH,,,,,
,visa,,,PATHUM THANI,,,TH,,,,,
,visa,,,PATHUM THANI,,,TH,,,,,
,visa,,,PATHUM THANI,,,TH,,,,,
,visa,,,PATHUM THANI,,,TH,,,,,
,visa,,,PATHUM THANI,,,TH,,,,,
,visa,,,PATHUM THANI,,,TH,,,,,
,visa,,,PATHUM THANI,,,TH,,,,,
,visa,,,PATHUM THANI,,,TH,,,,,
,visa,,,PATHUM THANI,,,TH,,,,,
,visa,,,PATHUM THANI,,,TH,,,,,
,visa,,,PATHUM THANI,,,TH,,,,,
,visa,,,PATHUM THANI,,,TH,,,,,
,visa,,,PATHUM THANI,,,TH,,,,,
,visa,,,PATHUM THANI,,,TH,,,,,
,visa,,,PATHUM THANI,,,TH,,,,,
,visa,,,PATHUM THANI,,,TH,,,,,
,visa,,,PATHUM THANI,,,TH,,,,,
,visa,,,PATHUM THANI,,,TH,,,,,
,visa,,,PATHUM THANI,,,TH,,,,,
,visa,,,PATHUM THANI,,,TH,,,,,
,visa,,,PATHUM THANI,,,TH,,,,,
,visa,,,PATHUM THANI,,,TH,,,,,
,visa,,,PATHUM THANI,,,TH,,,,,
,visa,,,PATHUM THANI,,,TH,,,,,
,visa,,,PATHUM THANI,,,TH,,,,,
,visa,,,PATHUM THANI,,,TH,,,,,
,visa,,,PATHUM THANI,,,TH,,,,,
,visa,,,PATHUM THANI,,,TH,,,,,
,visa,,,PATHUM THANI,,,TH,,,,,
,visa,,,PATHUM THANI,,,TH,,,,,
,visa,,,PATHUM THANI,,,TH,,,,,
,visa,,,PATHUM THANI,,,TH,,,,,
,visa,,,PATHUM THANI,,,TH,,,,,
,visa,,,PATHUM THANI,,,TH,,,,,
,visa,,,PATHUM THANI,,,TH,,,,,
,visa,,,PATHUM THANI,,,TH,,,,,
,visa,,,PATHUM THANI,,,TH,,,,,
,visa,,,PATHUM THANI,,,TH,,,,,
,visa,,,PATHUM THANI,,,TH,,,,,
,visa,,,PATHUM THANI,,,TH,,,,,
,visa,,,PATHUM THANI,,,TH,,,,,
,visa,,,PATHUM THANI,,,TH,,,,,
,visa,,,PATHUM THANI,,,TH,,,,,
,visa,,,PATHUM THANI,,,TH,,,,,
,visa,,,PATHUM THANI,,,TH,,,,,
,visa,,,PATHUM THANI,,,TH,,,,,
,visa,,,PATHUM THANI,,,TH,,,,,
,visa,,,PATHUM THANI,,,TH,,,,,
,visa,,,PATHUM THANI,,,TH,,,,,
,visa,,,PATHUM THANI,,,TH,,,,,
,visa,,,PATHUM THANI,,,TH,,,,,
,visa,,,PATHUM THANI,,,TH,,,,,
,visa,,,PATHUM THANI,,,TH,,,,,
,visa,,,PATHUM THANI,,,TH,,,,,
,visa,,,PATHUM THANI,,,TH,,,,,
,visa,,,PATHUM THANI,,,TH,,,,,
,visa,,,PATHUM THANI,,,TH,,,,,
,visa,,,PATHUM THANI,,,TH,,,,,
,visa,,,PATHUM THANI,,,TH,,,,,
,visa,,,PATHUM THANI,,,TH,,,,,
,visa,,,PATHUM THANI,,,TH,,,,,
,visa,,,PATHUM THANI,,,TH,,,,,
,visa,,,PATHUM THANI,,,TH,,,,,
,visa,,,PATHUM THANI,,,TH,,,,,
,visa,,,PATHUM THANI,,,TH,,,,,
,visa,,,PATHUM THANI,,,TH,,,,,
,visa,,,PATHUM THANI,,,TH,,,,,
,visa,,,PATHUM THANI,,,TH,,,,,
,visa,,,PATHUM THANI,,,TH,,,,,
,visa,,,PATHUM THANI,,,TH,,,,,
,visa,,,PATHUM THANI,,,TH,,,,,
,visa,,,PATHUM THANI,,,TH,,,,,
,visa,,,PATHUM THANI,,,TH,,,,,
,visa,,,PATHUM THANI,,,TH,,,,,
,visa,,,PATHUM THANI,,,TH,,,,,
,visa,,,PATHUM THANI,,,TH,,,,,
,visa,,,PATHUM THANI,,,TH,,,,,
,visa,,,PATHUM THANI,,,TH,,,,,
,visa,,,PATHUM THANI,,,TH,,,,,
,visa,,,PATHUM THANI,,,TH,,,,,
,visa,,,PATHUM THANI,,,TH,,,,,
,visa,,,PATHUM THANI,,,TH,,,,,
,visa,,,PATHUM THANI,,,TH,,,,,
,visa,,,PATHUM THANI,,,TH,,,,,
,visa,,,PATHUM THANI,,,TH,,,,,
,visa,,,PATHUM THANI,,,TH,,,,,
,visa,,,PATHUM THANI,,,TH,,,,,
,visa,,,PATHUM THANI,,,TH,,,,,
,visa,,,PATHUM THANI,,,TH,,,,,
,visa,,,PATHUM THANI,,,TH,,,,,
,visa,,,PATHUM THANI,,,TH,,,,,
,visa,,,PATHUM THANI,,,TH,,,,,
,visa,,,PATHUM THANI,,,TH,,,,,
,visa,,,PATHUM THANI,,,TH,,,,,
,visa,,,PATHUM THANI,,,TH,,,,,
,visa,,,PATHUM THANI,,,TH,,,,,
