Ref,Spider,Name,Address,City,State,Zipcode,Country,Phone,Website,Hours,Brand,WikiData
2bcea3ad47bc4ea184841e7e4e0aef91,western_union,JAISWAL COMMUNICATION TOURS AND TRAVELS,,Kushinagar,UTTAR PRADESH,,IN,+91 98395 30630,https://location.westernunion.com/in/uttar-pradesh/kushinagar/2bcea3ad47bc4ea184841e7e4e0aef91,Mo-Su 06:00-21:00,Western Union,Q861042
db55baf0e46616c5f4a2ea5a43f64224,western_union,HELLO THE WORLS TOURS AND TRAVELS,,Kushinagar,UTTAR PRADESH,,IN,+91 88747 71716,https://location.westernunion.com/in/uttar-pradesh/kushinagar/db55baf0e46616c5f4a2ea5a43f64224,Mo-Su 07:00-22:00,Western Union,Q861042
280bbcb88c273f44814e0a3ec9f67c88,western_union,A TO Z COMPUTER SOLUTION,,Kushinagar,UTTAR PRADESH,,IN,+91 98395 45545,https://location.westernunion.com/in/uttar-pradesh/kushinagar/280bbcb88c273f44814e0a3ec9f67c88,Mo-Su 07:00-21:30,Western Union,Q861042
699aa1115b508700162d53f2569c5500,western_union,SHAYAMA COMPUTER,,Khusinagar,UTTAR PRADESH,,IN,+91 81271 04415,https://location.westernunion.com/in/uttar-pradesh/khusinagar/699aa1115b508700162d53f2569c5500,Mo-Su 09:30-23:00,Western Union,Q861042
0dc0c054f57e237ac01666714d4982f4,western_union,M/S ERUM TRAVELS,,Kushinagar,UTTAR PRADESH,,IN,+91 95544 14243,https://location.westernunion.com/in/uttar-pradesh/kushinagar/0dc0c054f57e237ac01666714d4982f4,Mo-Su 07:00-22:00,Western Union,Q861042
60d1d478b93773fe4e0eca7460726406,western_union,VERMA TRAVEL AND ONLINE SERVICES,,Kushinagar,UTTAR PRADESH,,IN,+91 94535 46054,https://location.westernunion.com/in/uttar-pradesh/kushinagar/60d1d478b93773fe4e0eca7460726406,Mo-Su 09:00-20:00,Western Union,Q861042
84d2a5ca68782144c3ab9101ed056b33,western_union,ANKIT TOUR AND TRAVELS,,Kushi Nagar,UTTAR PRADESH,,IN,+91 73791 13385,https://location.westernunion.com/in/uttar-pradesh/kushi-nagar/84d2a5ca68782144c3ab9101ed056b33,Mo-Su 09:00-18:00,Western Union,Q861042
2084efb355b62a2118baf348cf46ff6c,western_union,SAHAJ JAN SEWA KENDRA,,Kushinagar,UTTAR PRADESH,,IN,+91 85768 71283,https://location.westernunion.com/in/uttar-pradesh/kushinagar/2084efb355b62a2118baf348cf46ff6c,Mo-Su 08:00-22:00,Western Union,Q861042
79b83137d6de8a684be15b6b367f43b9,western_union,KUSHINAGAR TRAVELS,,Kushinagar,UTTAR PRADESH,,IN,+91 95989 35000,https://location.westernunion.com/in/uttar-pradesh/kushinagar/79b83137d6de8a684be15b6b367f43b9,Mo-Su 07:00-22:00,Western Union,Q861042
df42fef4c53fbc299f168ca3c01b1531,western_union,KASIA TRAVELS,,Kushinagar,UTTAR PRADESH,,IN,+91 91188 18288,https://location.westernunion.com/in/uttar-pradesh/kushinagar/df42fef4c53fbc299f168ca3c01b1531,Mo-Su 08:00-22:00,Western Union,Q861042
f6a9f227a0ee3805e8ddb4cdedc60ee4,western_union,M/s PANDEY CYBER POINT,,Kushinagar,UTTAR PRADESH,,IN,+91 73985 00170,https://location.westernunion.com/in/uttar-pradesh/kushinagar/f6a9f227a0ee3805e8ddb4cdedc60ee4,Mo-Su 07:00-22:00,Western Union,Q861042
494610f6a4f9d60b4f02f6b6e56bf81a,western_union,BUDDHA TOUR & TRAVELS,,Kushinagar,UTTAR PRADESH,,IN,+91 63860 15583,https://location.westernunion.com/in/uttar-pradesh/kushinagar/494610f6a4f9d60b4f02f6b6e56bf81a,Mo-Su 08:00-21:00,Western Union,Q861042
13c768fd507bf2eaf0e9d572a6837662,western_union,MUTHOOT FINANCE LTD,,Kasia,UTTAR PRADESH,,IN,+91 89604 33666,https://location.westernunion.com/in/uttar-pradesh/kasia/13c768fd507bf2eaf0e9d572a6837662,Mo-Sa 09:00-17:30,Western Union,Q861042
245cb1ea047bae16cf9fba225ca6f44a,western_union,SHARMA TRAVELS AND TOURS,,Kushinagar,UTTAR PRADESH,,IN,+91 98893 38644,https://location.westernunion.com/in/uttar-pradesh/kushinagar/245cb1ea047bae16cf9fba225ca6f44a,Mo-Su 07:00-22:00,Western Union,Q861042
bf27f68e27102e8fd4a4bf55dbe88ba0,western_union,CUSTOMER SOLUTION,,Kushinagar,UTTAR PRADESH,,IN,+91 98389 08857,https://location.westernunion.com/in/uttar-pradesh/kushinagar/bf27f68e27102e8fd4a4bf55dbe88ba0,Mo-Su 08:00-22:00,Western Union,Q861042
66edc610884b8938a9a6b6db98eb3a06,western_union,OM SAI TOUR TRAVELS,,Kushinagar,UTTAR PRADESH,,IN,+91 73980 74548,https://location.westernunion.com/in/uttar-pradesh/kushinagar/66edc610884b8938a9a6b6db98eb3a06,Mo-Su 08:00-20:00,Western Union,Q861042
dc72df1df022267c0642f02a2194e9ce,western_union,JAISWAL COMMUNICATION,,Kushinagar,UTTAR PRADESH,,IN,(+91) 556-271086,https://location.westernunion.com/in/uttar-pradesh/kushinagar/dc72df1df022267c0642f02a2194e9ce,Mo-Su 07:00-21:30,Western Union,Q861042
429f0828e1e1021413502a44c084f395,western_union,A TO Z TRAVEL SERVICES,,Kushinagar,UTTAR PRADESH,,IN,+91 99848 09691,https://location.westernunion.com/in/uttar-pradesh/kushinagar/429f0828e1e1021413502a44c084f395,Mo-Su 07:00-22:00,Western Union,Q861042
241125e39f846ae80d6bc38b486aef67,western_union,AL RAHMAN TRAVELS,,Kushinagar,UTTAR PRADESH,,IN,+91 96283 09263,https://location.westernunion.com/in/uttar-pradesh/kushinagar/241125e39f846ae80d6bc38b486aef67,Mo-Su 07:30-22:30,Western Union,Q861042
b35c8e3d128da863573a6edc5c494ce4,western_union,IRFAN JAN SEWA KENDRA,,Kushinagar,UTTAR PRADESH,,IN,+91 96514 09792,https://location.westernunion.com/in/uttar-pradesh/kushinagar/b35c8e3d128da863573a6edc5c494ce4,Mo-Su 08:00-20:00,Western Union,Q861042
a097acb2f72bffd27baf3e107d77112c,western_union,UNIMONI KASIA KSA,,Kushinagar,UTTAR PRADESH,,IN,+91 93050 20600,https://location.westernunion.com/in/uttar-pradesh/kushinagar/a097acb2f72bffd27baf3e107d77112c,Mo-Fr 09:30-18:30; Sa 09:30-18:00,Western Union,Q861042
19d2b6f80507e4d9de8d495d1fe6492c,western_union,SHAKTI TRAVEL AND TOURS,,Kushinagar,UTTAR PRADESH,,IN,+91 5564 271 118,https://location.westernunion.com/in/uttar-pradesh/kushinagar/19d2b6f80507e4d9de8d495d1fe6492c,Mo-Su 09:00-21:00,Western Union,Q861042
43c1c1e0b5a1b236a1073479a0228d3a,western_union,SHREE BALA JI TOUR AND TRAVELS,,Kushinagar,UTTAR PRADESH,,IN,+91 90447 38701,https://location.westernunion.com/in/uttar-pradesh/kushinagar/43c1c1e0b5a1b236a1073479a0228d3a,Mo-Su 07:00-22:00,Western Union,Q861042
b4bdd313f910c77681162acf15fe42da,western_union,SAHAB TRAVELS AND TOURS,,Kushinagar,UTTAR PRADESH,,IN,+91 99188 02002,https://location.westernunion.com/in/uttar-pradesh/kushinagar/b4bdd313f910c77681162acf15fe42da,Mo-Su 08:00-21:00,Western Union,Q861042
5c6a0f55ddee2c4c9b81f36b280aac67,western_union,SHAHIN COMPUTER,,Kushinagar,UTTAR PRADESH,,IN,+91 98380 38019,https://location.westernunion.com/in/uttar-pradesh/kushinagar/5c6a0f55ddee2c4c9b81f36b280aac67,Mo-Su 06:00-21:00,Western Union,Q861042
03b28645c93b6122721594d71697ff0a,western_union,GRAHAK SEWA KENDRA,,Kushinagar,UTTAR PRADESH,,IN,+91 78004 80419,https://location.westernunion.com/in/uttar-pradesh/kushinagar/03b28645c93b6122721594d71697ff0a,Mo-Su 08:00-20:00,Western Union,Q861042
