Ref,Spider,Name,Address,City,State,Zipcode,Country,Phone,Website,Hours,Brand,WikiData
92236,citi,ATM Walgreens,,Chestertown,NY,,US,,,,Citibank,Q857063
16739,dollar_general,Dollar General,,Chestertown,NY,,US,+1 518-504-0020,https://www.dollargeneral.com/store-directory/ny/chestertown/16739,Mo-Su 08:00-22:00,Dollar General,Q145168
200,mightyflame,STEWARTS SHOPS #174,,Chestertown,NY,,US,+1 518-494-3208,,,Mighty Flame,
531,mightyflame,CHESTERTOWN VALERO,,CHESTERTOWN,NY,,US,+1 518-494-2032,,,Mighty Flame,
4973,mightyflame,TOPS MARKET #712,,CHESTERTOWN,NY,,US,+1 518-494-7111,,,Mighty Flame,
174,stewartsshops,Stewart's Shops,,Chestertown,NY,,US,+1 518-714-0105,https://locations.stewartsshops.com/ll/US/NY/Chestertown/6135-New-York-8,Mo-Su 04:30-23:00,Stewart's Shops,Q7615690
0750388100,sunoco_us,Sunoco,,CHESTERTOWN,NY,,US,+1 518-494-2032,,Mo-Su 05:00-23:00,Sunoco,Q1423218
712,tops,Tops,6308 U.S. 9,Chestertown,NY,,US,+1 518-494-7111,,,Tops,Q7825137
1357874,usps,CHESTERTOWN,,CHESTERTOWN,NY,,US,+1 518-494-2712,,"Mo-Fr 08:00-11:00,12:30-16:30; Sa 09:00-12:00",United States Postal Service,Q668687
1281700004,usps_collection_boxes,USPS COLLECTION BOX - PO LOBBY,6323 STATE ROUTE 9,CHESTERTOWN,NY,,US,,,,United States Postal Service,Q668687
1281700002,usps_collection_boxes,USPS COLLECTION BOX - PO LOBBY,6323 STATE ROUTE 9,CHESTERTOWN,NY,,US,,,,United States Postal Service,Q668687
1281700001,usps_collection_boxes,USPS COLLECTION BOX - BLUE BOX,6323 STATE ROUTE 9,CHESTERTOWN,NY,,US,,,,United States Postal Service,Q668687
,visa,,,CHESTERTOWN,NY,,US,,,,,
,visa,,,CHESTERTOWN,NY,,US,,,,,
,visa,,,CHESTERTOWN,NY,,US,,,,,
,visa,,,CHESTERTOWN,NY,,US,,,,,
,visa,,,CHESTERTOWN,NY,,US,,,,,
,visa,,,CHESTERTOWN,NY,,US,,,,,
,visa,,,CHESTERTOWN,NY,,US,,,,,
,visa,,,CHESTERTOWN,NY,,US,,,,,
https://www.walgreens.com/locator/walgreens-6272+state+route+9-chestertown-ny-12817/id=19965,walgreens,Walgreens,,Chestertown,NY,,US,+1 518-494-3211,https://www.walgreens.com/locator/walgreens-6272+state+route+9-chestertown-ny-12817/id=19965,Mo-Sa 08:00-20:00; Su 09:00-18:00,Walgreens,Q1591889
0513bfc6d476e4378985dd8c3813255f,western_union,WALGREENS #19965,,Chestertown,NY,,US,+1 518-494-3211,https://location.westernunion.com/us/ny/chestertown/0513bfc6d476e4378985dd8c3813255f,Mo-Sa 08:00-19:00; Su 08:00-18:00,Western Union,Q861042
