Ref,Spider,Name,Address,City,State,Zipcode,Country,Phone,Website,Hours,Brand,WikiData
13622394,ally_fashion_au,Australia Fair ,,Southport ,QLD,,AU,+61 7 5649 5739,,,Ally Fashion,Q19870623
3741,amcal_au,Amcal+ Compounding Pharmacy Southport,"Smith Collective Shopping Centre, Shop C1-C3/2 Nexus Way, Southport QLD 4215",Southport,QLD,,AU,+61 7 5528 2313,https://amcal.com.au/store/3741/QLD/amcal-plus-compounding-pharmacy-southport/,Mo-Tu 08:30-18:00; We 08:00-18:00; Th-Fr 08:30-18:00; Sa 08:00-17:00; Su 09:00-16:00,Amcal,Q63367373
AU-1417,anytime_fitness,Anytime Fitness,,Southport,QLD,,AU,+61 411 069 947,https://anytimefitness.com.au/gyms/au-1417/southport-qld-4215/,,Anytime Fitness,Q4778364
RED0011950,australia_post_au,,,SOUTHPORT,QLD,,AU,,,,Australia Post,Q1142936
78072147_UPL,australia_post_au,Griffith Uni Gold Coast Campus Pcl Lkr,,SOUTHPORT,QLD,,AU,,,24/7,Australia Post,Q1142936
428736_PO,australia_post_au,GRIFFITH UNI LPO,,SOUTHPORT,QLD,,AU,+61 131318,,,Australia Post,Q1142936
RED0011932,australia_post_au,,,LABRADOR,QLD,,AU,,,,Australia Post,Q1142936
440022_PO,australia_post_au,LABRADOR LPO,,LABRADOR,QLD,,AU,+61 131318,,,Australia Post,Q1142936
RED0011952,australia_post_au,,,SOUTHPORT,QLD,,AU,,,,Australia Post,Q1142936
RED0011947,australia_post_au,,,SOUTHPORT,QLD,,AU,,,,Australia Post,Q1142936
RED0011929,australia_post_au,,,LABRADOR,QLD,,AU,,,,Australia Post,Q1142936
RED0011930,australia_post_au,,,LABRADOR,QLD,,AU,,,,Australia Post,Q1142936
RED0011959,australia_post_au,,,SOUTHPORT,QLD,,AU,,,,Australia Post,Q1142936
RED0011943,australia_post_au,,,SOUTHPORT,QLD,,AU,,,,Australia Post,Q1142936
79262362_UPL,australia_post_au,Queen St Village Parcel Locker,,SOUTHPORT,QLD,,AU,,,24/7,Australia Post,Q1142936
434765_PO,australia_post_au,CHIRN PARK LPO,,CHIRN PARK,QLD,,AU,+61 7 5532 5808,,,Australia Post,Q1142936
RED0011936,australia_post_au,,,LABRADOR,QLD,,AU,,,,Australia Post,Q1142936
RED0011925,australia_post_au,,,LABRADOR,QLD,,AU,,,,Australia Post,Q1142936
RED0011945,australia_post_au,,,SOUTHPORT,QLD,,AU,,,,Australia Post,Q1142936
RED0011934,australia_post_au,,,LABRADOR,QLD,,AU,,,,Australia Post,Q1142936
RED0011928,australia_post_au,,,SOUTHPORT,QLD,,AU,,,,Australia Post,Q1142936
RED0011924,australia_post_au,,,SOUTHPORT,QLD,,AU,,,,Australia Post,Q1142936
RED0011948,australia_post_au,,,SOUTHPORT,QLD,,AU,,,,Australia Post,Q1142936
RED0011938,australia_post_au,,,LABRADOR,QLD,,AU,,,,Australia Post,Q1142936
RED0011922,australia_post_au,,,LABRADOR,QLD,,AU,,,,Australia Post,Q1142936
RED0011935,australia_post_au,,,LABRADOR,QLD,,AU,,,,Australia Post,Q1142936
RED0011941,australia_post_au,,,SOUTHPORT,QLD,,AU,,,,Australia Post,Q1142936
RED0011958,australia_post_au,,,SOUTHPORT,QLD,,AU,,,,Australia Post,Q1142936
RED0011937,australia_post_au,,,SOUTHPORT,QLD,,AU,,,,Australia Post,Q1142936
414086_PO,australia_post_au,SOUTHPORT PARK LPO,,SOUTHPORT,QLD,,AU,+61 131318,,,Australia Post,Q1142936
RED0011931,australia_post_au,,,LABRADOR,QLD,,AU,,,,Australia Post,Q1142936
RED0011942,australia_post_au,,,SOUTHPORT,QLD,,AU,,,,Australia Post,Q1142936
75488044_UPL,australia_post_au,Southport Parcel Lockers,,SOUTHPORT,QLD,,AU,,,24/7,Australia Post,Q1142936
444728_PO,australia_post_au,SOUTHPORT BC,,SOUTHPORT,QLD,,AU,+61 131318,,,Australia Post,Q1142936
RED0011933,australia_post_au,,,LABRADOR,QLD,,AU,,,,Australia Post,Q1142936
RED0011926,australia_post_au,,,SOUTHPORT,QLD,,AU,,,,Australia Post,Q1142936
RED0011949,australia_post_au,,,SOUTHPORT,QLD,,AU,,,,Australia Post,Q1142936
RED0011944,australia_post_au,,,SOUTHPORT,QLD,,AU,,,,Australia Post,Q1142936
RED0011954,australia_post_au,,,SOUTHPORT,QLD,,AU,,,,Australia Post,Q1142936
RED0011953,australia_post_au,,,SOUTHPORT,QLD,,AU,,,,Australia Post,Q1142936
RED0011955,australia_post_au,,,SOUTHPORT,QLD,,AU,,,,Australia Post,Q1142936
RED0018082,australia_post_au,,,SOUTHPORT,QLD,,AU,,,,Australia Post,Q1142936
RED0011951,australia_post_au,,,SOUTHPORT,QLD,,AU,,,,Australia Post,Q1142936
2742,bakers_delight,Bakers Delight Southport,,Southport,QLD,,AU,+61 7 5613 3122,https://www.bakersdelight.com.au/bakery-locator/southport/,Mo-Fr 06:30-18:30; Sa-Su 06:30-17:30,Bakers Delight,Q4849261
99,battery_world_au,Battery World Southport,,Southport,QLD,,AU,+61 131760;+61 7 5591 4429,https://www.batteryworld.com.au/stores/battery-world-southport,Mo-Fr 07:30-17:30; Sa 08:00-16:00; Su 09:00-14:00,Battery World,Q124003678
45144_5,bmw_group,Gold Coast BMW,,Southport,QLD,,AU,+61 7 5557 7999,https://www.goldcoastbmw.com.au/,,BMW,Q26678
3245,bp,BP NIGHTOWL FERRY ROAD,,SOUTHPORT,QLD,,AU,+61 7 5532 7300,,Mo-Su 05:00-23:00,BP,Q152057
0855,bp,BP SOUTHPORT,,SOUTHPORT,QLD,,AU,+61 7 5527 0022,,Mo-Fr 05:00-20:45; Sa-Su 06:00-18:10,BP,Q152057
4214,bp,BP LABRADOR,,LABRADOR,QLD,,AU,+61 7 5531 3281,,Mo-Su 05:00-22:00,BP,Q152057
https://www.bridgestone.com.au/stores/qld/bridgestone-select-southport,bridgestone_select,Bridgestone Select Southport,,Southport,QLD,,AU,+61 7 5531 4304,https://www.bridgestone.com.au/stores/qld/bridgestone-select-southport/,Mo-Fr 08:00-17:00; Sa 08:00-24:00,Bridgestone Select Tyre & Auto,Q122420123
https://www.bridgestone.com.au/stores/qld/bridgestone-select-harbour-town,bridgestone_select,Bridgestone Select Harbour Town,,Labrador,QLD,,AU,+61 7 5500 6499,https://www.bridgestone.com.au/stores/qld/bridgestone-select-harbour-town/,Mo-Fr 08:00-17:00; Sa 08:00-24:00,Bridgestone Select Tyre & Auto,Q122420123
731,burson_auto_parts_au,LABRADOR,"UNIT 2, 240 BRISBANE ROAD, ARUNDEL QLD 4215, Australia",ARUNDEL,QLD,,AU,+61 7 5656 8400,,Mo-Fr 08:00-17:00; Sa 08:00-12:00,Burson Auto Parts,Q117075930
737,burson_auto_parts_au,SOUTHPORT,"108 FERRY ROAD, SOUTHPORT QLD 4215, Australia",SOUTHPORT,QLD,,AU,+61 7 5591 2911,,Mo-Fr 08:00-17:00; Sa 08:00-12:00,Burson Auto Parts,Q117075930
70640,caltex,Caltex Labrador,,Labrador,QLD,,AU,+61 7 5646 7982,,,Caltex,Q277470
70710,caltex,Caltex Southport,,Southport,QLD,,AU,+61 7 5627 2276,,,Caltex,Q277470
8656,coles_au,Southport,,Southport,QLD,,AU,+61 7 3078 8700,,,1st Choice,Q4596269
4653,coles_au,Coles Southport Park,,Southport,QLD,,AU,+61 7 5635 5200,,,Coles Supermarkets,Q1108172
6007,coles_au,Southport Park,,Southport,QLD,,AU,+61 7 5635 5280,,,Liquorland,Q2283837
443001,commonwealth_bank_au,Southport,,Southport,QLD,,AU,,,,Commonwealth Bank,Q285328
443003,commonwealth_bank_au,Southport,,Southport,QLD,,AU,,,,Commonwealth Bank,Q285328
443002,commonwealth_bank_au,Southport,,Southport,QLD,,AU,,,,Commonwealth Bank,Q285328
4d522dceb386272a0800028d,crust_au,Southport,3/7 Stevens Street Southport QLD 4215,Southport,QLD,,AU,+61 7 5531 0466,https://www.crust.com.au/stores/qld/southport,Mo-Su 16:00-21:00,Crust,Q100792715
392,doors_plus_au,Gold Coast,62-66 Brisbane Rd,Labrador,QLD,,AU,+61 7 5560 2400,https://www.doorsplus.com.au/store-locator/gold-coast/,,Doors Plus,Q78945358
6174296,exxonmobil,7-Eleven Park Ridge,,Park Ridge,QLD,,AU,+61 7 3297 1767,https://www.mobil.com.au/en-au/find-station/mobil-parkridge-qld-parkridge-6174296,24/7,Mobil,Q109676002
6174197,exxonmobil,7-Eleven Southport,,Southport,QLD,,AU,+61 7 5539 6048,https://www.mobil.com.au/en-au/find-station/mobil-southport-qld-southport-6174197,24/7,Mobil,Q109676002
6174129,exxonmobil,7-Eleven Labrador,,Labrador,QLD,,AU,+61 7 5526 3157,https://www.mobil.com.au/en-au/find-station/mobil-labrador-qld-labrador-6174129,24/7,Mobil,Q109676002
6100159,exxonmobil,Mobil Diesel Labrador,,Arundel,QLD,,AU,,https://www.mobil.com.au/en-au/find-station/mobil-arundel-qld-labrador-6100159,24/7,Mobil,Q109676002
897,greencross_au,Greencross Vets Southport,,Southport,QLD,,AU,+61 7 5531 2573,https://www.petbarn.com.au/store-finder/greencross-vets-southport,Mo-Fr 08:00-18:00; Sa 08:00-17:00,Greencross Vets,Q41179992
870,guzmany_gomez,Griffith University,,Southport,QLD,,AU,+61 7 3188 1731,https://www.guzmanygomez.com.au/locations/Griffith-University/,Mo-Fr 08:00-15:55,Guzman y Gomez,Q23019759
1059,guzmany_gomez,Southport Village,,Southport,QLD,,AU,+61 7 2104 9514,https://www.guzmanygomez.com.au/locations/southport-village/,Mo-Su 06:00-22:55,Guzman y Gomez,Q23019759
8514,hungry_jacks,Southport,,Queensland,QLD,,AU,5531 2388,,,Hungry Jack's,Q3036373
729,jbhifi,Australia Fair,,Southport,QLD,,AU,+61 7 5617 3200,,Mo-We 09:00-17:30; Th 09:00-19:00; Fr 09:00-17:30; Sa 09:00-17:00; Su 10:30-16:00,JB Hi-Fi,Q3310113
42892,just_group,Jay Jays Australia Fair,"Shop G161 Australia Fair, Marine Parade, Australia Fair, Southport, QLD, 4215, Australia",Southport,QLD,,AU,+61 7 3186 9297,https://justjeans.jgl.com.au/shop/stores/jayjays-australia-fair,,Jay Jays,Q6166759
44451,just_group,Just Jeans Australia Fair S/C,"Shop G078 Aust Fair S/C, 42 Marine Parade, Australia Fair S/C, Southport, QLD, 4215, Australia",Southport,QLD,,AU,+61 7 5531 4795,https://justjeans.jgl.com.au/shop/stores/justjeans-australia-fair-s-c,,Just Jeans,Q6316068
https://www.kss.com.au:443/locations/qld/gold-coast/southport-storage,kennards_self_storage_au,Kennards Self Storage Southport,,SOUTHPORT,QLD,,AU,+61 7 5649 5875,https://www.kss.com.au:443/locations/qld/gold-coast/southport-storage,Mo-Fr 08:30-18:00; Sa 09:00-17:00; Su 10:00-16:00,Kennards Self Storage,Q115565997
4008,kookai_au,BRICKWORKS,,Southport,QLD,,AU,+61 7 5591 2077,,Mo-Sa 09:30-17:00; Su 10:00-16:00,Kookai,Q1783759
southport,lj_hooker_au_nz,LJ Hooker Southport,,SOUTHPORT,QLD,,AU,+61 7 5591 5222,https://southport.ljhooker.com.au,Mo-Fr 09:00-17:00,LJ Hooker,Q6456509
broadwater,lj_hooker_au_nz,LJ Hooker Broadwater,,LABRADOR,QLD,,AU,+61 7 5537 1311,https://broadwater.ljhooker.com.au,Mo-Fr 08:30-17:00,LJ Hooker,Q6456509
11439,lovisa,Lovisa,,Southport,QLD,,AU,+61 7 2112 1719,,,Lovisa,Q106298409
9500179,mcdonalds_qstore,LABRADOR QLD,,Southport,QLD,,AU,+61 7 5591 4000,,24/7,McDonald's,Q38076
9500239,mcdonalds_qstore,MARINA MIRAGE QLD,,Main Beach,QLD,,AU,+61 7 5591 5999,,Mo-Fr 07:00-18:00; Sa-Su 06:00-18:00,McDonald's,Q38076
9500348,mcdonalds_qstore,AUSTRALIA FAIR QLD,,Southport,QLD,,AU,+61 7 5591 4744,,Mo-Th 07:00-19:30; Fr-Sa 07:00-18:00; Su 07:00-17:30,McDonald's,Q38076
9500865,mcdonalds_qstore,SOUTHPORT II QLD,,Southport,QLD,,AU,+61 7 5564 0885,,24/7,McDonald's,Q38076
https://www.mcgrath.com.au/offices/442-southport,mcgrath_au,McGrath Southport,,Southport,QLD,,AU,+61 7 5570 7000,https://www.mcgrath.com.au/offices/442-southport,Mo-Fr 09:00-17:00,McGrath,Q105290661
https://www.nandos.com.au/restaurants/qld/australia-fair-sc,nandos,AUSTRALIA FAIR SC,,Southport,QLD,,AU,+61 1300 626 367,https://www.nandos.com.au/restaurants/qld/australia-fair-sc,,Nando's,Q3472954
9896826,night_owl_au,NightOwl BP Southport,"BP NightOwl Shop 1, 201 Ferry Road, Southport, QLD, 4215, AU",Southport,QLD,,AU,+61 7 5532 7300,https://nightowl.com.au/store-locator/?location=nightowl-bp-southport-southport-qld,24/7,NightOwl,Q7033183
9896820,night_owl_au,NightOwl CALTEX Labrador,"177 Government Rd, Labrador, QLD, 4215, AU",Labrador,QLD,,AU,+61 7 5646 7982,https://nightowl.com.au/store-locator/?location=nightowl-puma-labrador-labrador-qld,Mo-Su 05:00-24:00,NightOwl,Q7033183
NMA30254,nissan_europe,Von Bibra Gold Coast Nissan,,SOUTHPORT,QLD,,AU,+61 7 5556 2900,http://www.vonbibranissan.com.au,,Nissan,Q20165
113,nutrition_warehouse_au,Labrador,,Labrador,QLD,,AU,+61 7 5500 5310,https://www.nutritionwarehouse.com.au/pages/labrador-vitamins-and-supplements,Mo-We 09:00-17:30; Th 09:00-18:00; Fr 09:00-17:30; Sa 21:00-16:00; Su 10:00-16:00,Nutrition Warehouse,Q117747424
W401,officeworks_au,Southport Officeworks,,Southport,QLD,,AU,+61 7 5591 0600,https://www.officeworks.com.au/shop/officeworks/storepage/W401/QLD/Southport,Mo-Fr 07:00-21:00; Sa 08:00-18:00; Su 09:00-18:00,Officeworks,Q7079486
OF4264,oporto_au,Southport,,Southport,QLD,,AU,+61 7 2105 1555,https://www.oporto.com.au/locations/southport,Mo-Su 10:00-22:00,Oporto,Q4412342
4011,pillow_talk_au,Southport,,Southport,QLD,,AU,+61 7 5571 1325,,Mo-We 09:00-17:30; Th 09:00-19:00; Fr-Sa 09:00-17:30; Su 10:00-16:00,Pillow Talk,Q120648495
148,price_attack_au,Australia Fair,,Southport,QLD,,AU,+61 7 5528 3122,,Mo-We 09:00-17:00; Th 09:00-05:00; Fr-Sa 09:00-17:00; Su 10:00-15:00,Price Attack,Q117747512
https://www.qbd.com.au/locations/australia-fair/,qbd_books_au,QBD Books - Australia Fair,,Southport,QLD,,AU,+61 7 5528 0288,https://www.qbd.com.au/locations/australia-fair/,Mo-We 08:30-17:30; Th 08:30-21:00; Fr-Sa 08:30-17:30; Su 10:00-16:00,QBD Books,Q7270909
4296,seven_eleven_au,Park Ridge,,Park Ridge,QLD,,AU,+61 7 3297 1767,,24/7,7-Eleven,Q259340
4129,seven_eleven_au,Labrador,,Labrador,QLD,,AU,+61 7 5526 3157,,24/7,7-Eleven,Q259340
4197,seven_eleven_au,Southport,,Southport,QLD,,AU,+61 7 5539 6048,,24/7,7-Eleven,Q259340
10111378,shell,SHELL COLES EXPRESS MOLENDINAR,,SOUTHPORT,QLD,,AU,+61 7 3338 1252,https://find.shell.com/au/fuel/10111378-shell-coles-express-molendinar,,Shell,Q110716465
10111425,shell,SHELL COLES EXPRESS SOUTHPORT,,SOUTHPORT,QLD,,AU,+61 7 3734 0960,https://find.shell.com/au/fuel/10111425-shell-coles-express-southport,24/7,Shell,Q110716465
959-06708,skoda,Euro Collision Centre,,,QLD,,AU,,,,Skoda,Q29637
959-43269,skoda,"Gold Coast Å koda, Southport, Gold Coast (QLD)",,,QLD,,AU,,,,Skoda,Q29637
QAUS,spendless_au,Australia Fair,,Southport,QLD,,AU,+61 7 5531 2422,,Mo-We 09:00-17:30; Th 09:00-18:00; Fr 09:00-17:30; Sa 09:00-17:00; Su 10:00-13:30,Spendless,Q120668938
4418,sussan_au,Southport,,Southport,QLD,,AU,+61 7 5532 4172,/store-locator/qld/southport-4418,Mo-We 09:00-17:30; Th 09:00-20:00; Fr-Sa 09:00-17:30; Su 11:00-16:00,Sussan,Q28184460
4788,suzanne_grae_au,Southport,,Southport,QLD,,AU,+61 7 5532 4356,/store-locator/qld/southport-4788,Mo-We 09:00-17:30; Th 09:00-20:00; Fr 09:00-17:30; Sa 09:00-17:00; Su 10:00-14:00,Suzanne Grae,Q117747672
LQSO,telstra_au,Australia Fair,,Southport,QLD,,AU,+61 1800 784 249,,Mo-We 09:00-17:30; Th 09:00-19:00; Fr 09:00-17:30; Sa 09:00-17:00; Su 10:00-15:00,Telstra,Q721162
1302,terry_white_chemmart_au,TerryWhite Chemmart Australia Fair,,Southport,QLD,,AU,+61 7 5591 6480,https://terrywhitechemmart.com.au/stores/terrywhite-chemmart-australia-fair,Mo-We 08:30-18:00; Th 08:30-19:00; Fr 08:30-18:00; Sa 08:30-17:30; Su 09:30-17:00,Terry White Chemmart,Q24089773
96,the_cheesecake_shop,Southport,"188 Scarborough Street, Southport, QLD, 4215",,QLD,,AU,+61 7 5526 3266,https://www.cheesecake.com.au/find-bakery/southport/,Mo-Fr 08:00-20:00; Sa 08:30-20:00; Su 09:00-19:00,The Cheesecake Shop,Q117717103
7cedefe5-f2c4-49f6-b913-137c3a2d8a84,thirsty_camel_au,Thirsty Camel Southport,"Shop 11, 160 Nerang Street, Southport",,QLD,,AU,+61 7 5538 1650,https://www.thirstycamel.com.au/stores/steampunk_qld_3,Mo-Su 10:00-22:00,Thirsty Camel,Q113503937
8fec5e95-41c1-4f2b-a491-b06d08c72365,thirsty_camel_au,Thirsty Camel Labrador,"158 Marine Parade, Labrador",,QLD,,AU,+61 7 5538 1650,https://www.thirstycamel.com.au/stores/steampunk_qld_4,Mo-Su 10:00-22:00,Thirsty Camel,Q113503937
4483,toyworld_au,Toyworld Southport,,Southport,QLD,,AU,+61 7 5591 6255,https://www.toyworld.com.au/pages/toyworld-southport,Mo-We 09:00-17:30; Th 09:00-21:00; Fr 09:00-17:30; Sa 08:30-17:00; Su 09:30-16:30,Toyworld,Q95923071
4474,tradelink_au,Labrador,"225a Brisbane Road, Labrador QLD 4215",Labrador,QLD,,AU,+61 7 5558 4540,,Mo-Fr 06:00-15:30; Sa 07:30-11:00,Tradelink,Q120648432
4407,tradelink_au,Southport,"9 Pinter Drive, Southport QLD 4215",Southport,QLD,,AU,+61 7 5558 4580,,Mo-Fr 06:00-16:00,Tradelink,Q120648432
,tyrepower_au,Tyrepower Labrador,,Labrador,QLD,,AU,+61 7 5537 9144,https://www.tyrepower.com.au/tyrepower-labrador,,Tyrepower,Q108855867
467,ultra_tune_au,Ultra Tune Harbour Town,,LABRADOR,QLD,,AU,+61 7 5537 6121,https://www.ultratune.com.au/store/ultra-tune-harbour-town,Mo-Fr 08:00-17:30; Sa 08:00-12:00,Ultra Tune,Q29025649
408,ultra_tune_au,Ultra Tune Southport,,SOUTHPORT,QLD,,AU,+61 7 5591 2133,https://www.ultratune.com.au/store/ultra-tune-southport,Mo-Fr 08:00-17:30; Sa 08:00-12:00,Ultra Tune,Q29025649
,visa,,,SOUTHPORT,QLD,,AU,,,,,
,visa,,,SOUTHPORT,QLD,,AU,,,,,
,visa,,,SOUTHPORT,QLD,,AU,,,,,
,visa,,,SOUTHPORT,QLD,,AU,,,,,
,visa,,,SOUTHPORT,QLD,,AU,,,,,
,visa,,,SOUTHPORT,QLD,,AU,,,,,
,visa,,,SOUTHPORT,QLD,,AU,,,,,
,visa,,,SOUTHPORT,QLD,,AU,,,,,
,visa,,,SOUTHPORT,QLD,,AU,,,,,
,visa,,,SOUTHPORT,QLD,,AU,,,,,
,visa,,,SOUTHPORT,QLD,,AU,,,,,
,visa,,,SOUTHPORT,QLD,,AU,,,,,
,visa,,,SOUTHPORT,QLD,,AU,,,,,
,visa,,,SOUTHPORT,QLD,,AU,,,,,
,visa,,,SOUTHPORT,QLD,,AU,,,,,
,visa,,,SOUTHPORT,QLD,,AU,,,,,
,visa,,,SOUTHPORT,QLD,,AU,,,,,
,visa,,,CHIRN PARK,QLD,,AU,,,,,
,visa,,,SOUTHPORT,QLD,,AU,,,,,
,visa,,,SOUTHPORT,QLD,,AU,,,,,
,visa,,,SOUTHPORT,QLD,,AU,,,,,
,visa,,,SOUTHPORT,QLD,,AU,,,,,
,visa,,,SOUTHPORT,QLD,,AU,,,,,
,visa,,,SOUTHPORT,QLD,,AU,,,,,
,visa,,,LABRADOR,QLD,,AU,,,,,
,visa,,,SOUTHPORT,QLD,,AU,,,,,
,visa,,,SOUTHPORT,QLD,,AU,,,,,
,visa,,,LABRADOR,QLD,,AU,,,,,
,visa,,,LABRADOR,QLD,,AU,,,,,
,visa,,,LABRADOR,QLD,,AU,,,,,
,visa,,,LABRADOR,QLD,,AU,,,,,
,visa,,,LABRADOR,QLD,,AU,,,,,
,visa,,,LABRADOR,QLD,,AU,,,,,
,visa,,,NORTH LAKES,QLD,,AU,,,,,
63103265b1dbd8d95ea9c8ffb70afe01,western_union,AUSTRALIA POST,,Labrador,QLD,,AU,+61 1800 501 500,https://location.westernunion.com/au/qld/labrador/63103265b1dbd8d95ea9c8ffb70afe01,Mo-Fr 09:00-17:00; Sa 09:00-11:00,Western Union,Q861042
06dfc24d2c639c93e1da64665d144b9e,western_union,AUSTRALIA POST,,Labrador,QLD,,AU,+61 1800 501 500,https://location.westernunion.com/au/qld/labrador/06dfc24d2c639c93e1da64665d144b9e,Mo-Fr 08:30-17:00; Sa 08:30-11:30,Western Union,Q861042
17366507c7d92a2cd5b14af7c7aa765a,western_union,AUSTRALIA POST,,Southport,QLD,,AU,+61 1800 501 500,https://location.westernunion.com/au/qld/southport/17366507c7d92a2cd5b14af7c7aa765a,Mo-Fr 09:00-17:00,Western Union,Q861042
96c0fb0ca4fa3eccc22d4bc3ee96b479,western_union,THE FILIPINO SHOP,,Southport,QLD,,AU,+61 1800 501 500,https://location.westernunion.com/au/qld/southport/96c0fb0ca4fa3eccc22d4bc3ee96b479,Mo-Sa 09:00-17:30,Western Union,Q861042
78e2f4eed9686408e20abdc3b0d38312,western_union,AUSTRALIA POST,,Southport,QLD,,AU,+61 1800 501 500,https://location.westernunion.com/au/qld/southport/78e2f4eed9686408e20abdc3b0d38312,Mo-Fr 08:30-17:30,Western Union,Q861042
58458f5cfdf3d06e6da1056ccddcf2b4,western_union,AUSTRALIA POST,,Southport,QLD,,AU,+61 1800 501 500,https://location.westernunion.com/au/qld/southport/58458f5cfdf3d06e6da1056ccddcf2b4,Mo-Fr 09:00-17:00; Sa 09:00-11:00,Western Union,Q861042
