Ref,Spider,Name,Address,City,State,Zipcode,Country,Phone,Website,Hours,Brand,WikiData
https://stores.advanceautoparts.com/il/summit/5944-s-harlem-ave,advance_auto_parts_us,Advance Auto Parts,,Summit,IL,,US,+1 708-496-1800,https://stores.advanceautoparts.com/il/summit/5944-s-harlem-ave,Mo-Sa 07:30-21:00; Su 09:00-20:00,Advance Auto Parts,Q4686051
2539,autozone_us,AutoZone Auto Parts Summit,,Summit,IL,,US,+1 708-496-1710,https://www.autozone.com/locations/il/summit/7206-archer-ave.html,Mo-Sa 07:30-21:00; Su 08:00-20:00,AutoZone,Q4826087
168213,bluerhino,Speedway #8799,,Bedford Park,IL,,US,+1 708-924-1961,,,Blue Rhino,Q65681213
219541,bluerhino,CC Wagner Lumber Company #12194,,Summit,IL,,US,+1 708-458-0122,,,Blue Rhino,Q65681213
73763,bluerhino,Speedway #8313,,Summit,IL,,US,+1 708-563-1699,,,Blue Rhino,Q65681213
08973101510346050100100000000000,bp,BP,,Summit,IL,,US,+1 708-594-7696,,Mo-Fr 06:00-22:00; Sa-Su 06:00-23:00,BP,Q152057
302648,dunkin_us,Dunkin',,Summit Argo,IL,,US,+1 708-458-1808,https://locations.dunkindonuts.com/en/il/summit-argo/6144-s-harlem-ave/302648,24/7,Dunkin',Q847743
E115B2,enterprise,Summit Truck Rental,,Summit,IL,,US,+1 708-728-0584,,,Enterprise Rent-A-Car,Q17085454
200330051,exxonmobil,CTJM ONE REAL ESTATE INC.,,SUMMIT,IL,,US,+1 708-924-9060,https://www.exxon.com/en/find-station/mobil-summit-il-ctjmonerealestateinc-200330051,24/7,Mobil,Q109676002
https://locations.53.com/#9415143,fifththirdbank,Fifth Third Bank Summit,,Summit,IL,,US,+1 708-625-0682,https://locations.53.com/il/summit/5640-south-harlem-ave.html,Mo-Th 09:00-17:30; Fr 09:00-18:00; Sa 09:00-14:00,Fifth Third Bank,Q1411810
9481,fresenius_kidney_care_us,Fresenius Kidney Care Summit,,Summit Argo,IL,,US,+1 800-881-5101,https://www.freseniuskidneycare.com/dialysis-centers/illinois/9481,Mo 05:00-20:30; Tu 05:00-16:00; We 05:00-20:30; Th 05:00-16:00; Fr 05:00-20:30; Sa 05:00-16:00,,
https://locations.jimmyjohns.com/il/summit/sandwiches-3105.html,jimmy_johns,Jimmy John's,,Summit,IL,,US,+1 708-924-4040,https://locations.jimmyjohns.com/il/summit/sandwiches-3105.html,,Jimmy John's,Q1689380
4697,mightyflame,THORNTONS #301,,SUMMIT,IL,,US,+1 708-458-3227,,,Mighty Flame,
620010,penske,Penske Chicago Midway,,BEDFORD PARK,IL,,US,+1 708-625-0860,https://www.pensketruckrental.com/locations/us/illinois/bedford_park/620010/,,Penske,Q81234570
il_summit_5836-s-harlem,pizza_hut_us,5836 S Harlem,,Summit,IL,,US,+1 708-728-0941,https://locations.pizzahut.com/il/summit/5836-s-harlem,,Pizza Hut,Q191615
restaurant_86422,popeyes_us_fr,Popeyes,"5708 South Harlem Ave. Summit, Illinois 60501 - USA",Summit,IL,,US,+1 708-458-4216,https://www.popeyes.com/store-locator/store/restaurant_86422,Mo-Su 10:00-22:30,Popeyes,Q1330910
23,portillos,"Summit, Illinois",,Summit,IL,,US,+1 708-458-7000,https://www.portillos.com/locations/summit/,,Portillo's,Q3399307
3PSA,tmobile_us,S Harlem Ave & W 57th St,,Summit,IL,,US,+1 708-552-5500,https://www.t-mobile.com/store-locator/il/summit/s-harlem-ave-w-57th-st,,T-Mobile,Q3511885
1383918,usps,SUMMIT ARGO,,SUMMIT ARGO,IL,,US,+1 708-458-0551,,Mo-Fr 09:00-17:00; Sa 09:00-15:00,United States Postal Service,Q668687
6050100014,usps_collection_boxes,USPS COLLECTION BOX - BLUE BOX,6701 S ARCHER RD,SUMMIT,IL,,US,,,,United States Postal Service,Q668687
6050100007,usps_collection_boxes,USPS COLLECTION BOX - BLUE BOX,7732 W 66TH PL,SUMMIT,IL,,US,,,,United States Postal Service,Q668687
6050100006,usps_collection_boxes,USPS COLLECTION BOX - BLUE BOX,7513 W 64TH ST,SUMMIT,IL,,US,,,,United States Postal Service,Q668687
6050100005,usps_collection_boxes,USPS COLLECTION BOX - BLUE BOX,7600 W 63RD ST,SUMMIT,IL,,US,,,,United States Postal Service,Q668687
6050100018,usps_collection_boxes,USPS COLLECTION BOX - PO LOBBY,7415 W 63RD ST,SUMMIT,IL,,US,,,,United States Postal Service,Q668687
6050100019,usps_collection_boxes,USPS COLLECTION BOX - PO LOBBY,7415 W 63RD ST,SUMMIT,IL,,US,,,,United States Postal Service,Q668687
6050100021,usps_collection_boxes,USPS COLLECTION BOX - PO LOBBY,7415 W 63RD ST,SUMMIT,IL,,US,,,,United States Postal Service,Q668687
6050100002,usps_collection_boxes,USPS COLLECTION BOX - EXPRESS,7415 W 63RD ST,SUMMIT,IL,,US,,,,United States Postal Service,Q668687
6050100003,usps_collection_boxes,USPS COLLECTION BOX - BLUE BOX,7415 W 63RD ST,SUMMIT,IL,,US,,,,United States Postal Service,Q668687
6050100013,usps_collection_boxes,USPS COLLECTION BOX - BLUE BOX,6132 S HARLEM AVE,SUMMIT,IL,,US,,,,United States Postal Service,Q668687
6050100009,usps_collection_boxes,USPS COLLECTION BOX - BLUE BOX,7321 W 59TH ST,SUMMIT,IL,,US,,,,United States Postal Service,Q668687
6050100001,usps_collection_boxes,USPS COLLECTION BOX - BLUE BOX,7349 W 57TH ST,SUMMIT,IL,,US,,,,United States Postal Service,Q668687
6050100004,usps_collection_boxes,USPS COLLECTION BOX - BLUE BOX,5658 S HARLEM AVE,SUMMIT,IL,,US,,,,United States Postal Service,Q668687
6050100016,usps_collection_boxes,USPS COLLECTION BOX - BLUE BOX,7424 W ARCHER AVE,SUMMIT,IL,,US,,,,United States Postal Service,Q668687
6050100012,usps_collection_boxes,USPS COLLECTION BOX - BLUE BOX,5428 S CENTER AVE,SUMMIT,IL,,US,,,,United States Postal Service,Q668687
6050100015,usps_collection_boxes,USPS COLLECTION BOX - BLUE BOX,7206 W ARCHER AVE,SUMMIT,IL,,US,,,,United States Postal Service,Q668687
6050100008,usps_collection_boxes,USPS COLLECTION BOX - BLUE BOX,5402 S 72ND CT,SUMMIT,IL,,US,,,,United States Postal Service,Q668687
,visa,,,SUMMIT,IL,,US,,,,,
,visa,,,"SUMMIT,",IL,,US,,,,,
,visa,,,SUMMIT,IL,,US,,,,,
,visa,,,SUMMIT,IL,,US,,,,,
,visa,,,SUMMIT,IL,,US,,,,,
,visa,,,SUMMIT,IL,,US,,,,,
,visa,,,SUMMIT,IL,,US,,,,,
,visa,,,SUMMIT,IL,,US,,,,,
,visa,,,SUMMIT,IL,,US,,,,,
,visa,,,SUMMITT,IL,,US,,,,,
,visa,,,SUMMIT,IL,,US,,,,,
,visa,,,SUMMIT,IL,,US,,,,,
,visa,,,SUMMIT,IL,,US,,,,,
,visa,,,SUMMIT,IL,,US,,,,,
,visa,,,SUMMIT,IL,,US,,,,,
,visa,,,SUMMIT,IL,,US,,,,,
,visa,,,SUMMIT,IL,,US,,,,,
,visa,,,SUMMIT,IL,,US,,,,,
,visa,,,SUMMIT,IL,,US,,,,,
,visa,,,SUMMIT,IL,,US,,,,,
,visa,,,SUMMIT,IL,,US,,,,,
,visa,,,SUMMIT,IL,,US,,,,,
,visa,,,SUMMIT,IL,,US,,,,,
,visa,,,SUMMIT,IL,,US,,,,,
,visa,,,SUMMIT,IL,,US,,,,,
,visa,,,SUMMIT,IL,,US,,,,,
,visa,,,SUMMIT,IL,,US,,,,,
,visa,,,SUMMIT,IL,,US,,,,,
,visa,,,SUMMIT,IL,,US,,,,,
,visa,,,SUMMIT,IL,,US,,,,,
,visa,,,SUMMIT,IL,,US,,,,,
,visa,,,BEDFORD PARK,IL,,US,,,,,
,visa,,,BROOKFIELD,IL,,US,,,,,
7f7472beb07be7ede14b00f7616c5dc2,western_union,ENVIOS XPRESS & SERVICE,,Summit,IL,,US,+1 708-496-9700,https://location.westernunion.com/us/il/summit/7f7472beb07be7ede14b00f7616c5dc2,Mo-Su 08:00-21:00,Western Union,Q861042
944627b1c800741a8a7f83064c69db81,western_union,ENVIOS XPRESS & SERVICE,,Summit,IL,,US,+1 708-496-9700,https://location.westernunion.com/us/il/summit/944627b1c800741a8a7f83064c69db81,Mo-Su 08:00-21:00,Western Union,Q861042
