Ref,Spider,Name,Address,City,State,Zipcode,Country,Phone,Website,Hours,Brand,WikiData
5640,abc_pl,abc,,Dzierżoniów,dolnośląskie,,PL,,,,abc,Q11683985
5213,abc_pl,abc,,Dzierżoniów,dolnośląskie,,PL,,,,abc,Q11683985
5392,abc_pl,abc,,Dzierżoniów,dolnośląskie,,PL,,,,abc,Q11683985
4110,abc_pl,abc,,Dobrocin,dolnośląskie,,PL,,,,abc,Q11683985
11321,abc_pl,abc,,Dzierżoniów,dolnośląskie,,PL,,,,abc,Q11683985
3600,abc_pl,abc,,Dzierżoniów,dolnośląskie,,PL,,,,abc,Q11683985
3571,abc_pl,abc,,Dzierżoniów,dolnośląskie,,PL,,,,abc,Q11683985
12642,abc_pl,abc,,Dzierżoniów,dolnośląskie,,PL,,,,abc,Q11683985
PL001067,aldi_nord_pl,ALDI,,Dzierżoniów,Dolnośląskie,,PL,+48 800 118 118,,Mo-Sa 06:00-22:00,ALDI,Q41171373
77,bricomarche_pl,Bricomarché Dzierżoniów,,Dzierżoniów,dolnośląskie,,PL,+48 74 645 05 05,https://www.bricomarche.pl/sklep/bricomarche-dzierzoniow,,Bricomarché,Q2925147
https://www.credit-agricole.pl/kontakt/oddzial/2132-dzierzoniow-zabkowicka,credit_agricole_pl,"Credit Agricole Ząbkowicka 2, Dzierżoniów",,Dzierżoniów,dolnośląskie,,PL,19 019,https://www.credit-agricole.pl/kontakt/oddzial/2132-dzierzoniow-zabkowicka,Mo-Tu 09:00-16:30; We 09:30-17:00; Th-Fr 09:00-16:30,Credit Agricole,Q590952
468,mcdonalds_pl,McDonald's,,Dzierżoniów,Dolnośląskie,,PL,+48 539 937 745,https://mcdonalds.pl/restauracje/dolnoslaskie/dzierzoniow/dzierzoniow-ul-piastowska-19,Mo-Th 07:00-23:00; Fr-Sa 07:00-24:00; Su 07:00-23:00,McDonald's,Q38076
DQC01D,paczkomat_inpost_pl,Przed przedszkolem,,Dobrocin,dolnośląskie,,PL,,https://inpost.pl/paczkomat-dobrocin-dqc01d-kosciuszki-paczkomaty-dolnoslaskie,24/7,Paczkomat,Q110970254
DZI01APP,paczkomat_inpost_pl,Na prawo od wejścia do sklepu,,Dzierżoniów,dolnośląskie,,PL,,https://inpost.pl/paczkomat-dzierzoniow-dzi01app-osiedle-blekitne-paczkomaty-dolnoslaskie,24/7,Paczkomat,Q110970254
DZI01L,paczkomat_inpost_pl,Stacja paliw Shell,,Dzierżoniów,dolnośląskie,,PL,,https://inpost.pl/paczkomat-dzierzoniow-dzi01l-swidnicka-paczkomaty-dolnoslaskie,24/7,Paczkomat,Q110970254
DZI01M,paczkomat_inpost_pl,Na parkingu sklepu Lidl,,Dzierżoniów,dolnośląskie,,PL,,https://inpost.pl/paczkomat-dzierzoniow-dzi01m-nowowiejska-paczkomaty-dolnoslaskie,24/7,Paczkomat,Q110970254
DZI01N,paczkomat_inpost_pl,Przy wejściu do sklepu Bricomarche,,Dzierżoniów,dolnośląskie,,PL,,https://inpost.pl/paczkomat-dzierzoniow-dzi01n-piastowska-paczkomaty-dolnoslaskie,24/7,Paczkomat,Q110970254
DZI02M,paczkomat_inpost_pl,Przy sklepie Media Expert,,Dzierżoniów,dolnośląskie,,PL,,https://inpost.pl/paczkomat-dzierzoniow-dzi02m-wroclawska-paczkomaty-dolnoslaskie,24/7,Paczkomat,Q110970254
DZI02N,paczkomat_inpost_pl,Przy sklepie Intermarche,,Dzierżoniów,dolnośląskie,,PL,,https://inpost.pl/paczkomat-dzierzoniow-dzi02n-piastowska-paczkomaty-dolnoslaskie,24/7,Paczkomat,Q110970254
DZI03M,paczkomat_inpost_pl,Przy warsztacie samochodowym,,Dzierżoniów,dolnośląskie,,PL,,https://inpost.pl/paczkomat-dzierzoniow-dzi03m-podwalna-paczkomaty-dolnoslaskie,24/7,Paczkomat,Q110970254
DZI03N,paczkomat_inpost_pl,Przy głównym wejściu do sklepu Mis,,Dzierżoniów,dolnośląskie,,PL,,https://inpost.pl/paczkomat-dzierzoniow-dzi03n-zimowa-paczkomaty-dolnoslaskie,24/7,Paczkomat,Q110970254
DZI04M,paczkomat_inpost_pl,Za sklepem Aldi,,Dzierżoniów,dolnośląskie,,PL,,https://inpost.pl/paczkomat-dzierzoniow-dzi04m-bielawska-paczkomaty-dolnoslaskie,24/7,Paczkomat,Q110970254
DZI05M,paczkomat_inpost_pl,Przy markecie Kaufland,,Dzierżoniów,dolnośląskie,,PL,,https://inpost.pl/paczkomat-dzierzoniow-dzi05m-diorowska-paczkomaty-dolnoslaskie,24/7,Paczkomat,Q110970254
DZI05N,paczkomat_inpost_pl,Na parkingu sklepu Netto,,Dzierżoniów,dolnośląskie,,PL,,https://inpost.pl/paczkomat-dzierzoniow-dzi05n-batalionow-chlopskich-paczkomaty-dolnoslaskie,24/7,Paczkomat,Q110970254
DZI06M,paczkomat_inpost_pl,Market Dino,,Dzierżoniów,dolnośląskie,,PL,,https://inpost.pl/paczkomat-dzierzoniow-dzi06m-lawendowa-paczkomaty-dolnoslaskie,24/7,Paczkomat,Q110970254
DZI06N,paczkomat_inpost_pl,Przy wejściu do sklepu Miś,,Dzierżoniów,dolnośląskie,,PL,,https://inpost.pl/paczkomat-dzierzoniow-dzi06n-pocztowa-paczkomaty-dolnoslaskie,24/7,Paczkomat,Q110970254
DZI07M,paczkomat_inpost_pl,Za sklepem Żabka,,Dzierżoniów,dolnośląskie,,PL,,https://inpost.pl/paczkomat-dzierzoniow-dzi07m-osiedle-rozane-paczkomaty-dolnoslaskie,24/7,Paczkomat,Q110970254
DZI07N,paczkomat_inpost_pl,Przy budynku stacji Pieprzyk,,Dzierżoniów,dolnośląskie,,PL,,https://inpost.pl/paczkomat-dzierzoniow-dzi07n-batalionow-chlopskich-paczkomaty-dolnoslaskie,24/7,Paczkomat,Q110970254
DZI08M,paczkomat_inpost_pl,Market Dino,,Dzierżoniów,dolnośląskie,,PL,,https://inpost.pl/paczkomat-dzierzoniow-dzi08m-kamienna-paczkomaty-dolnoslaskie,24/7,Paczkomat,Q110970254
DZI09M,paczkomat_inpost_pl,Na parkingu obok sklepów,,Dzierżoniów,dolnośląskie,,PL,,https://inpost.pl/paczkomat-dzierzoniow-dzi09m-staszica-paczkomaty-dolnoslaskie,24/7,Paczkomat,Q110970254
DZI10M,paczkomat_inpost_pl,Wzdług płotu od ulicy Piłsudskiego,,Dzierżoniów,dolnośląskie,,PL,,https://inpost.pl/paczkomat-dzierzoniow-dzi10m-parkowa-paczkomaty-dolnoslaskie,24/7,Paczkomat,Q110970254
DZI192,paczkomat_inpost_pl,Przy myjni samochodowej,,Dzierżoniów,dolnośląskie,,PL,,https://inpost.pl/paczkomat-dzierzoniow-dzi192-swidnicka-paczkomaty-dolnoslaskie,24/7,Paczkomat,Q110970254
DZI349,paczkomat_inpost_pl,Przy sklepie Majster,,Dzierżoniów,dolnośląskie,,PL,,https://inpost.pl/paczkomat-dzierzoniow-dzi349-batalionow-chlopskich-paczkomaty-dolnoslaskie,24/7,Paczkomat,Q110970254
POP-DZE3,paczkomat_inpost_pl,SKLEP SPOŻYWCZY,,Dzierżoniów,dolnośląskie,,PL,,https://inpost.pl/paczkomat-dzierzoniow-pop-dze3-krasickiego-paczkomaty-dolnoslaskie,Mo-Sa 06:00-23:00; Su 06:00-20:00,Paczkomat,Q110970254
POP-DZI2,paczkomat_inpost_pl,ENTER- KASY FISKALNE,,Dzierżoniów,dolnośląskie,,PL,,https://inpost.pl/paczkomat-dzierzoniow-pop-dzi2-zlota-paczkomaty-dolnoslaskie,Mo-Fr 09:00-17:00,Paczkomat,Q110970254
POP-DZI6,paczkomat_inpost_pl,KSIĘGARNIA IRENA,,Dzierżoniów,dolnośląskie,,PL,,https://inpost.pl/paczkomat-dzierzoniow-pop-dzi6-pilsudskiego-paczkomaty-dolnoslaskie,Mo-Fr 09:00-18:00; Sa 09:00-14:00,Paczkomat,Q110970254
POP-DZI7,paczkomat_inpost_pl,PAKERSI -  SKLEP HITGOSI,,Dzierżoniów,dolnośląskie,,PL,,https://inpost.pl/paczkomat-dzierzoniow-pop-dzi7-swidnicka-paczkomaty-dolnoslaskie,Mo-Fr 10:00-18:00; Sa 10:00-15:00,Paczkomat,Q110970254
95,play_pl,Salon Play,Ul. Wrocławska 3,Dzierżoniów,dolnośląskie,,PL,+48 790 030 549,,Mo-Fr 09:00-18:00; Sa 09:00-14:00,Play,Q7202998
247,play_pl,Salon Play,Ul. Diorowska 1,Dzierżoniów,dolnośląskie,,PL,+48 790 031 939,,Mo-Sa 09:00-21:00; Su 09:00-19:00,Play,Q7202998
282697,poczta_polska_pl,AP Dzierżoniów,,Dzierżoniów,DOLNOŚLĄSKIE,,PL,+48 501 597 430,,,Poczta Polska,Q168833
238426,poczta_polska_pl,UP Dzierżoniów 1,,Dzierżoniów,DOLNOŚLĄSKIE,,PL,+48 74 831 27 54;+48 74 831 36 03;+48 74 831 36 08,,,Poczta Polska,Q168833
7068,tedi,TEDi Sieć Handlowa Sp. z o.o.,,Dzierżoniów,Dolnośląskie,,PL,+48 32 450 36 20,https://www.tedi.com/stores/7068/pl/Dolnośląskie/Dzierżoniów/ul-Piastowska-17,Mo-Sa 10:00-18:00,TEDi,Q1364603
,visa,,,DZIERŻONIOW,DOLNOŚLĄSKIE,,PL,,,,,
,visa,,,DZIERŻONIOW,DOLNOŚLĄSKIE,,PL,,,,,
,visa,,,DZIERŻONIOW,DOLNOŚLĄSKIE,,PL,,,,,
,visa,,,DZIERŻONIOW,DOLNOŚLĄSKIE,,PL,,,,,
