Ref,Spider,Name,Address,City,State,Zipcode,Country,Phone,Website,Hours,Brand,WikiData
4161,autozone_us,AutoZone Auto Parts Phoenix,,Phoenix,AZ,,US,+1 602-253-0141,https://www.autozone.com/locations/az/phoenix/1885-w-buckeye-rd.html,Mo-Sa 07:30-21:00; Su 08:00-21:00,AutoZone,Q4826087
238596,bluerhino,Circle K #2701998,,Phoenix,AZ,,US,+1 602-254-6493,,,Blue Rhino,Q65681213
238594,bluerhino,Circle K #2701795,,Phoenix,AZ,,US,+1 602-253-9518,,,Blue Rhino,Q65681213
238732,bluerhino,Circle K #2701603,,Phoenix,AZ,,US,+1 602-253-1598,,,Blue Rhino,Q65681213
238735,bluerhino,Circle K #2701859,,Phoenix,AZ,,US,+1 602-252-4486,,,Blue Rhino,Q65681213
2040828,chase_us,West Van Buren - New branch,,Phoenix,AZ,,US,+1 602-261-2683,https://locator.chase.com/az/phoenix/1820-w-van-buren-st,Mo-Fr 09:00-17:00; Sa 09:00-14:00,Chase,Q524629
az_phoenix_1515-n-7th-ave,chipotle, ,,Phoenix,AZ,,US,+1 602-314-8127,https://locations.chipotle.com/az/phoenix/1515-n-7th-ave,,Chipotle,Q465751
714-nw-grand-avenue,churchs_chicken,N.W. Grand Avenue,,Phoenix,AZ,,US,+1 602-258-2267,https://locations.churchs.com/az/phoenix/714-nw-grand-avenue,,Church's Chicken,Q1089932
66854,citi,ATM OneAZ Credit Union,,Phoenix,AZ,,US,,,,Citibank,Q857063
41213,citi,ATM Circle K,,Phoenix,AZ,,US,,,,Citibank,Q857063
66847,citi,ATM OneAZ Credit Union,,Phoenix,AZ,,US,,,,Citibank,Q857063
66856,citi,ATM OneAZ Credit Union,,Phoenix,AZ,,US,,,,Citibank,Q857063
43779,citi,ATM Circle K,,Phoenix,AZ,,US,,,,Citibank,Q857063
41119,citi,ATM Circle K,,Phoenix,AZ,,US,,,,Citibank,Q857063
66858,citi,ATM OneAZ Credit Union,,Phoenix,AZ,,US,,,,Citibank,Q857063
40866,citi,ATM Circle K,,Phoenix,AZ,,US,,,,Citibank,Q857063
1340 West Lincoln StreetPhoenixAZ,clean_harbors,Clean Harbors,,Phoenix,AZ,,US,+1 602-258-6155,,,Clean Harbors,Q5130494
70053110,cricket_wireless,Cricket Wireless Authorized Retailer,,Phoenix,AZ,,US,+1 623-777-1980,https://www.cricketwireless.com/stores/ll/US/AZ/Phoenix/1210-S-7th-Ave,Mo-Sa 09:00-19:00; Su 11:00-17:00,Cricket Wireless,Q5184987
https://restaurants.fiveguys.com/#15553348,five_guys_us,Five Guys Phoenix,,Phoenix,AZ,,US,+1 602-253-6014,https://restaurants.fiveguys.com/1515-north-7th-avenue,"Mo-Su 11:00-21:30,11:00-22:00",Five Guys,Q1131810
6234,fresenius_kidney_care_us,Fresenius Kidney Care South Phoenix,,Phoenix,AZ,,US,+1 800-881-5101,https://www.freseniuskidneycare.com/dialysis-centers/arizona/6234,Mo-Su 05:00-21:00,,
https://locations.jackinthebox.com/us/az/phoenix/1833-w-van-buren-st,jackinthebox,Jack in the Box,,Phoenix,AZ,,US,+1 602-254-9324,https://locations.jackinthebox.com/us/az/phoenix/1833-w-van-buren-st,Mo-Su 04:00-04:00,Jack in the Box,Q1538507
50480,little_free_library,DeDe Forwood #50480 Phoenix AZ,,Phoenix,AZ,,US,,,,Little Free Library,Q6650101
39976,little_free_library,Robert Gale #39976 Phoenix AZ,,Phoenix,AZ,,US,,,,Little Free Library,Q6650101
32234,little_free_library,Francisco Blanco #32234 Phoenix AZ,,Phoenix,AZ,,US,,,,Little Free Library,Q6650101
132024,little_free_library,Encanto Palmcroft #132024 Phoenix AZ,,Phoenix,AZ,,US,,,,Little Free Library,Q6650101
2173,tmobile_us,7th & McDowell,,Phoenix,AZ,,US,+1 602-254-2123,https://www.t-mobile.com/store-locator/az/phoenix/7th-mcdowell,,T-Mobile,Q3511885
014673,uhaul,Westside Marine,1839 W Culver St,Phoenix,AZ,,US,+1 480-618-5513,,Mo-Fr 00:00-16:00; Sa 00:00-24:00,U-Haul,Q7862902
8500700026,usps_collection_boxes,USPS COLLECTION BOX - BLUE BOX,1801 W JEFFERSON ST,PHOENIX,AZ,,US,,,,United States Postal Service,Q668687
8500700027,usps_collection_boxes,USPS COLLECTION BOX - BLUE BOX,1600 W MONROE ST,PHOENIX,AZ,,US,,,,United States Postal Service,Q668687
8500700007,usps_collection_boxes,USPS COLLECTION BOX - BLUE BOX,1490 W JEFFERSON ST,PHOENIX,AZ,,US,,,,United States Postal Service,Q668687
8500700006,usps_collection_boxes,USPS COLLECTION BOX - BLUE BOX,100 N 15TH AVE,PHOENIX,AZ,,US,,,,United States Postal Service,Q668687
,visa,,,PHOENIX,AZ,,US,,,,,
,visa,,,PHOENIX,AZ,,US,,,,,
,visa,,,PHOENIX,AZ,,US,,,,,
,visa,,,PHOENIX,AZ,,US,,,,,
,visa,,,PHOENIX,AZ,,US,,,,,
,visa,,,PHOENIX,AZ,,US,,,,,
,visa,,,PHOENIX,AZ,,US,,,,,
,visa,,,PHOENIX,AZ,,US,,,,,
,visa,,,PHOENIX,AZ,,US,,,,,
,visa,,,PHOENIX,AZ,,US,,,,,
,visa,,,PHOENIX,AZ,,US,,,,,
,visa,,,PHOENIX,AZ,,US,,,,,
,visa,,,PHOENIX,AZ,,US,,,,,
,visa,,,PHOENIX,AZ,,US,,,,,
,visa,,,PHOENIX,AZ,,US,,,,,
,visa,,,PHOENIX,AZ,,US,,,,,
,visa,,,PHOENIX,AZ,,US,,,,,
,visa,,,PHOENIX,AZ,,US,,,,,
,visa,,,PHOENIX,AZ,,US,,,,,
,visa,,,PHOENIX,AZ,,US,,,,,
,visa,,,PHOENIX,AZ,,US,,,,,
,visa,,,PHOENIX,AZ,,US,,,,,
,visa,,,PHOENIX,AZ,,US,,,,,
,visa,,,PHOENIX,AZ,,US,,,,,
,visa,,,PHOENIX,AZ,,US,,,,,
,visa,,,PHOENIX,AZ,,US,,,,,
,visa,,,PHOENIX,AZ,,US,,,,,
,visa,,,PHOENIX,AZ,,US,,,,,
,visa,,,PHOENIX,AZ,,US,,,,,
,visa,,,PHOENIX,AZ,,US,,,,,
,visa,,,PHOENIX,AZ,,US,,,,,
,visa,,,PHOENIX,AZ,,US,,,,,
,visa,,,PHOENIX,AZ,,US,,,,,
,visa,,,PHOENIX,AZ,,US,,,,,
,visa,,,PHOENIX,AZ,,US,,,,,
,visa,,,PHOENIX,AZ,,US,,,,,
16484,wingstop,Wingstop Phoenix N 7th Ave & W McDowell,"1515 N 7th Ave, Ste 152",Phoenix,AZ,,US,+1 602-252-9464,,,Wingstop,Q8025339
