Ref,Spider,Name,Address,City,State,Zipcode,Country,Phone,Website,Hours,Brand,WikiData
A033,action,Kluczbork,,Kluczbork,,,PL,,https://www.action.com/pl-pl/sklepy/kluczbork-byczyska/,,Action,Q2634111
"https://www.brw.pl/siec-sprzedazy/salon,salon-meblowy-i-studio-kuchni-kluczbork,kluczbork,1372.html",black_red_white_pl,Salon Meblowy i Studio Kuchni Kluczbork - Kluczbork,,Kluczbork,,,PL,+48 668 688 386,"https://www.brw.pl/siec-sprzedazy/salon,salon-meblowy-i-studio-kuchni-kluczbork,kluczbork,1372.html",Mo-Fr 10:00-18:00; Sa 10:00-14:00,Black Red White,Q4921546
55185558,deichmann,DEICHMANN sklep Kluczbork Ul. Byczyńska 101,,Kluczbork,,,PL,+48 668 685 216,https://stores.deichmann.com/pl-pl/pl/opolskie/kluczbork/ul-byczynska-101,Mo-Sa 10:00-20:00; Su 10:00-19:00,Deichmann,Q664543
17730,empik_pl,Kluczbork Galeria Miodowa (SP),ul. Byczyńska 101,Kluczbork,,,PL,+48 575 919 769,"https://www.empik.com/salony-empik/kluczbork/kluczbork-galeria-miodowa-sp,17730,e",Mo-Sa 10:00-20:00; Su 10:00-19:00,Empik,Q3045978
P344,jysk,Kluczbork,,Kluczbork,,,PL,+48 575 853 898,https://jysk.pl/znajdz-sklep?storeId=P344,Mo-Sa 10:00-20:00,JYSK,Q138913
7074,kik,KiK,,Kluczbork,,,PL,+48 881 985 074,,Mo-Sa 09:00-20:00; Su 10:00-18:00,KiK,Q883965
11527,lewiatan_pl,Lewiatan,,Kluczbork,,,PL,,https://www.lewiatan.pl/znajdz-sklep/lewiatan-kluczbork-grunwaldzka-13,,Lewiatan,Q11755396
70987289,moneygram,FUP KLUCZBORK 1 - POCZTA POLSKA,,KLUCZBORK,,,PL,+48 77 418 60 65,,Mo-Fr 06:00-22:00; Sa 08:00-20:00; Su 00:00-24:00,MoneyGram,Q1944412
https://www.netto.pl/sklepy/kluczbork/ossowskiego-58a/21cf43086ca94555ab7877d024b3fd56/,netto_salling,Netto Kluczbork,,Kluczbork,,,PL,+48 531 994 994,https://www.netto.pl/sklepy/kluczbork/ossowskiego-58a/21cf43086ca94555ab7877d024b3fd56/,Mo-Th 06:00-21:00; Fr-Sa 06:00-22:00,Netto,Q552652
687403,orlen_paczka_pl,,,Kluczbork,,,PL,,,Mo-Fr 10:00-18:00; Sa 10:00-14:00,Orlen Paczka,Q110457879
410643,orlen_paczka_pl,,,Kluczbork,,,PL,,,,Orlen Paczka,Q110457879
362539,orlen_paczka_pl,,,Kluczbork,,,PL,,,Mo-Sa 07:00-22:00; Su 09:00-21:00,Orlen Paczka,Q110457879
444931,orlen_paczka_pl,,,Kluczbork,,,PL,,,,Orlen Paczka,Q110457879
516,tmobile_pl,T-Mobile,,Kluczbork,,,PL,+48 602 514 003,,Mo-Sa 09:00-21:00,T-Mobile,Q327634
1078434,tmobile_pl,T-Mobile,,Kluczbork,,,PL,+48 602 514 003,,Mo-Fr 09:00-21:00; Sa 09:00-19:00,T-Mobile,Q327634
2445183,tmobile_pl,T-Mobile,,Kluczbork,,,PL,+48 602 514 003,,Mo-Fr 09:00-21:00; Sa 09:00-19:00,T-Mobile,Q327634
,visa,,,KLUCZBORK,,,PL,,,,,
,visa,,,KLUCZBORK,,,PL,,,,,
ID01311,zabka_pl,Żabka,,Kluczbork,,,PL,,,Mo-Sa 06:00-23:00; Su 08:00-21:00,Żabka,Q2589061
ID01736,zabka_pl,Żabka,,Kluczbork,,,PL,,,Mo-Sa 06:00-23:00,Żabka,Q2589061
ID07486,zabka_pl,Żabka,,Kluczbork,,,PL,,,Mo-Sa 06:00-23:00; Su 11:00-20:00,Żabka,Q2589061
ID0B408,zabka_pl,Żabka,,Kluczbork,,,PL,,,Mo-Sa 06:00-23:00; Su 11:00-20:00,Żabka,Q2589061
ID0B466,zabka_pl,Żabka,,Kluczbork,,,PL,,,Mo-Sa 06:00-23:00; Su 10:00-20:00,Żabka,Q2589061
