Ref,Spider,Name,Address,City,State,Zipcode,Country,Phone,Website,Hours,Brand,WikiData
3759,anytime_fitness,Anytime Fitness,,Jackson,MN,,US,+1 507-849-7348,https://www.anytimefitness.com/gyms/3759/jackson-mn-56143/,,Anytime Fitness,Q4778364
227840,bluerhino,Speedway #4701,,Jackson,MN,,US,+1 507-847-3621,,,Blue Rhino,Q65681213
178570,bluerhino,"Schwalbach Hardware, Inc #14186",,Jackson,MN,,US,+1 507-847-3374,,,Blue Rhino,Q65681213
158778,bluerhino,Sunshine Foods #9033,,Jackson,MN,,US,+1 507-847-2074,,,Blue Rhino,Q65681213
116026,bluerhino,Casey's General Store #1660,,Jackson,MN,,US,+1 507-847-9920,,,Blue Rhino,Q65681213
228255,bluerhino,Speedway #4703,,Jackson,MN,,US,+1 507-847-9999,,,Blue Rhino,Q65681213
P313980,bmo,Super America Of Jackson,,Jackson,MN,,US,,,,BMO,Q4835981
88137131990215614300100000000000,bp,BP,,Jackson,MN,,US,+1 507-847-2070,,Mo-Su 06:00-22:00,BP,Q152057
04318,chevrolet,ASA AUTO PLAZA INC,,jackson,MN,,US,+1 507-849-7161,https://www.asachevybuick.com,Mo-Fr 08:00-17:00; Sa 08:00-14:00,Chevrolet,Q29570
86008,citi,ATM Vets Whoa & Go II,,Jackson,MN,,US,,,,Citibank,Q857063
75433,citi,ATM Santee Crossing,,Jackson,MN,,US,,,,Citibank,Q857063
35897,citi,ATM BANK MIDWEST,,Jackson,MN,,US,,,,Citibank,Q857063
75549,citi,ATM SECURITY BANK MID,,Jackson,MN,,US,,,,Citibank,Q857063
https://www.edwardjones.com/us-en/financial-advisor/kristie-swenson,edwardjones,Kristie Swenson,,Jackson,MN,,US,+1 507-847-3333,https://www.edwardjones.com/us-en/financial-advisor/kristie-swenson,,Edward Jones,Q5343830
26341,family_dollar_us,FAMILY DOLLAR #6341,,Jackson,MN,,US,+1 507-800-6000,https://www.familydollar.com/locations/mn/jackson/26341/,Mo-Su 08:00-22:00,Family Dollar,Q5433101
https://restaurants.subway.com/#14901642,subway,Subway,,Jackson Jackson,MN,,US,+1 507-847-5004,https://restaurants.subway.com/united-states/mn/jackson/120-industrial-parkway,Mo-We 07:00-21:00; Th 07:30-21:00; Fr 07:00-21:00; Sa 08:00-21:00; Su 09:00-21:00,Subway,Q244457
1368180,usps,JACKSON,,JACKSON,MN,,US,+1 507-847-2810,,Mo-Fr 08:30-16:00; Sa 09:00-11:00,United States Postal Service,Q668687
5614300001,usps_collection_boxes,USPS COLLECTION BOX - BLUE BOX,211 2ND ST,JACKSON,MN,,US,,,,United States Postal Service,Q668687
5614300002,usps_collection_boxes,USPS COLLECTION BOX - PO LOBBY,211 2ND ST,JACKSON,MN,,US,,,,United States Postal Service,Q668687
5614300004,usps_collection_boxes,USPS COLLECTION BOX - PO LOBBY,211 2ND ST,JACKSON,MN,,US,,,,United States Postal Service,Q668687
,visa,,,JACKSON,MN,,US,,,,,
,visa,,,JACKSON,MN,,US,,,,,
,visa,,,JACKSON,MN,,US,,,,,
,visa,,,JACKSON,MN,,US,,,,,
,visa,,,JACKSON,MN,,US,,,,,
,visa,,,JACKSON,MN,,US,,,,,
,visa,,,JACKSON,MN,,US,,,,,
,visa,,,JACKSON,MN,,US,,,,,
,visa,,,JACKSON,MN,,US,,,,,
,visa,,,JACKSON,MN,,US,,,,,
