Ref,Spider,Name,Address,City,State,Zipcode,Country,Phone,Website,Hours,Brand,WikiData
10113811,shell,C L L LEAL DE MIRANDA COMERCIO LTDA,,TRAIRAO,Para,,BR,,https://find.shell.com/br/fuel/10113811-c-l-l-leal-de-miranda-comercio-ltda,,Shell,Q110716465
10115020,shell,LEAL E COSTA LTDA,,ITAITUBA,Para,,BR,,https://find.shell.com/br/fuel/10115020-leal-e-costa-ltda,,Shell,Q110716465
10115018,shell,LEAL & COSTA LTDA,,ITAITUBA,Para,,BR,,https://find.shell.com/br/fuel/10115018-leal-costa-ltda,,Shell,Q110716465
10116055,shell,MIRIAN ITAITUBA AUTO POSTO LTDA,,ITAITUBA,Para,,BR,,https://find.shell.com/br/fuel/10116055-mirian-itaituba-auto-posto-ltda,,Shell,Q110716465
10112387,shell,AUTO POSTO AMIGAO CRIPURIZAO LTDA,,ITAITUBA,Para,,BR,,https://find.shell.com/br/fuel/10112387-auto-posto-amigao-cripurizao-ltda,,Shell,Q110716465
10111905,shell,A A FAGUNDES FILADELPHO EIRELI,,ITAITUBA,Para,,BR,,https://find.shell.com/br/fuel/10111905-a-a-fagundes-filadelpho-eireli,,Shell,Q110716465
10115017,shell,LEAL & COSTA LTDA,,ITAITUBA,Para,,BR,,https://find.shell.com/br/fuel/10115017-leal-costa-ltda,,Shell,Q110716465
10115037,shell,LEAL E LEAL LTDA EPP,,ITAITUBA,Para,,BR,,https://find.shell.com/br/fuel/10115037-leal-e-leal-ltda-epp,,Shell,Q110716465
10118258,shell,VIEIRA PIZZOLI VIEIRA LTDA ME,,TRAIRAO,Para,,BR,,https://find.shell.com/br/fuel/10118258-vieira-pizzoli-vieira-ltda-me,,Shell,Q110716465
10112273,shell,AUTO P LIDER DA TRANSAMAZONICA LTDA,,RUROPOLIS,Para,,BR,,https://find.shell.com/br/fuel/10112273-auto-p-lider-da-transamazonica-ltda,,Shell,Q110716465
10115723,shell,PETROLEUM DERIVADOS DE PETROLEO LTD,,MOJUI DOS CAMPOS,Para,,BR,,https://find.shell.com/br/fuel/10115723-petroleum-derivados-de-petroleo-ltd,,Shell,Q110716465
10115357,shell,FR LOBO E CIA LTDA,,URUARA,Para,,BR,,https://find.shell.com/br/fuel/10115357-fr-lobo-e-cia-ltda,,Shell,Q110716465
10113362,shell,AUTO POSTO REGIONAL LTDA,,SANTAREM,Para,,BR,,https://find.shell.com/br/fuel/10113362-auto-posto-regional-ltda,,Shell,Q110716465
10118239,shell,VALDEIR NICOLODI EIRELI EPP,,SANTAREM,Para,,BR,,https://find.shell.com/br/fuel/10118239-valdeir-nicolodi-eireli-epp,,Shell,Q110716465
10114471,shell,EDILEUZA P DE OLIVEIRA COMERCIO,,SANTAREM,Para,,BR,,https://find.shell.com/br/fuel/10114471-edileuza-p-de-oliveira-comercio,,Shell,Q110716465
10117601,shell,S E L LTDA,,SANTAREM,Para,,BR,,https://find.shell.com/br/fuel/10117601-s-e-l-ltda,,Shell,Q110716465
10115744,shell,PETROMOCO COM DE COMB LTDA EPP,,SANTAREM,Para,,BR,,https://find.shell.com/br/fuel/10115744-petromoco-com-de-comb-ltda-epp,,Shell,Q110716465
10116689,shell,POSTO CHICO MACHADO LTDA,,JURUTI,Para,,BR,,https://find.shell.com/br/fuel/10116689-posto-chico-machado-ltda,,Shell,Q110716465
10118238,shell,VALDEIR NICOLODI EIRELI EPP,,SANTAREM,Para,,BR,,https://find.shell.com/br/fuel/10118238-valdeir-nicolodi-eireli-epp,,Shell,Q110716465
10117231,shell,POSTO FLORESTA LTDA,,SANTAREM,Para,,BR,,https://find.shell.com/br/fuel/10117231-posto-floresta-ltda,,Shell,Q110716465
10114074,shell,AUTO POSTO SANTAREM LTDA,,SANTAREM,Para,,BR,,https://find.shell.com/br/fuel/10114074-auto-posto-santarem-ltda,,Shell,Q110716465
10118275,shell,VINHOTE & ALBARADO LTDA ME,,SANTAREM,Para,,BR,,https://find.shell.com/br/fuel/10118275-vinhote-albarado-ltda-me,,Shell,Q110716465
10113481,shell,AUTO POSTO NOSSATERRA LTDA,,SANTAREM,Para,,BR,,https://find.shell.com/br/fuel/10113481-auto-posto-nossaterra-ltda,,Shell,Q110716465
10114073,shell,AUTO POSTO SANTAREM LTDA,,SANTAREM,Para,,BR,,https://find.shell.com/br/fuel/10114073-auto-posto-santarem-ltda,,Shell,Q110716465
10112204,shell,AP TROPICAL LTDA,,SANTAREM,Para,,BR,,https://find.shell.com/br/fuel/10112204-ap-tropical-ltda,,Shell,Q110716465
10118491,shell,TERRA COM DE DERIV DE PETRO LTDA,,SANTAREM,Para,,BR,,https://find.shell.com/br/fuel/10118491-terra-com-de-deriv-de-petro-ltda,,Shell,Q110716465
10114405,shell,DERIVADOS DE PETROLEO MACHADO LTDA,,SANTAREM,Para,,BR,,https://find.shell.com/br/fuel/10114405-derivados-de-petroleo-machado-ltda,,Shell,Q110716465
10117597,shell,S & L LTDA,,SANTAREM,Para,,BR,,https://find.shell.com/br/fuel/10117597-s-l-ltda,,Shell,Q110716465
10113735,shell,AUTO POSTO NACIONAL LTDA,,SANTAREM,Para,,BR,,https://find.shell.com/br/fuel/10113735-auto-posto-nacional-ltda,,Shell,Q110716465
10115303,shell,JAMILSON DIAS FROTA E CIA LTDA  ME,,MOJUI DOS CAMPOS,Para,,BR,,https://find.shell.com/br/fuel/10115303-jamilson-dias-frota-e-cia-ltda-me,,Shell,Q110716465
10112388,shell,AUTO POSTO AMIGAO LTDA,,OBIDOS,Para,,BR,,https://find.shell.com/br/fuel/10112388-auto-posto-amigao-ltda,,Shell,Q110716465
10115967,shell,MARANHAO & MARANHAO LTDA,,MONTE ALEGRE,Para,,BR,,https://find.shell.com/br/fuel/10115967-maranhao-maranhao-ltda,,Shell,Q110716465
10115968,shell,MARANHAO E MARANHAO LTDA,,MONTE ALEGRE,Para,,BR,,https://find.shell.com/br/fuel/10115968-maranhao-e-maranhao-ltda,,Shell,Q110716465
10115673,shell,OOLIBAMA LEMOS DE JESUS,,PRAINHA,Para,,BR,,https://find.shell.com/br/fuel/10115673-oolibama-lemos-de-jesus,,Shell,Q110716465
10114076,shell,AUTO POSTO SANTO ANTONIO EIRELI,,ALTAMIRA,Para,,BR,,https://find.shell.com/br/fuel/10114076-auto-posto-santo-antonio-eireli,,Shell,Q110716465
10114402,shell,DERIV DE PETRO MACHADO LTDA,,PORTO DE MOZ,Para,,BR,,https://find.shell.com/br/fuel/10114402-deriv-de-petro-machado-ltda,,Shell,Q110716465
10114959,shell,CENTRO AUTOMOTIVO CIDADE LUZ LTDA,,VITORIA DO XINGU,Para,,BR,,https://find.shell.com/br/fuel/10114959-centro-automotivo-cidade-luz-ltda,,Shell,Q110716465
10115019,shell,LEAL DE MIRANDA E CIA LTDA,,TRAIRAO,Para,,BR,,https://find.shell.com/br/fuel/10115019-leal-de-miranda-e-cia-ltda,,Shell,Q110716465
10117320,shell,POSTO M I COMERCIO DE COMBUSTIVEIS,,MARABA,Para,,BR,,https://find.shell.com/br/fuel/10117320-posto-m-i-comercio-de-combustiveis,,Shell,Q110716465
10117409,shell,POSTO GOL LTDA,,MARABA,Para,,BR,,https://find.shell.com/br/fuel/10117409-posto-gol-ltda,,Shell,Q110716465
10115203,shell,J P R EMPREEND COMERCIAIS LTDA,,MARABA,Para,,BR,,https://find.shell.com/br/fuel/10115203-j-p-r-empreend-comerciais-ltda,,Shell,Q110716465
10112414,shell,AUTO POSTO ALIANCA LTDA,,MARABA,Para,,BR,,https://find.shell.com/br/fuel/10112414-auto-posto-alianca-ltda,,Shell,Q110716465
10117223,shell,POSTO DO BOLINHA LTDA,,MARABA,Para,,BR,,https://find.shell.com/br/fuel/10117223-posto-do-bolinha-ltda,,Shell,Q110716465
10114358,shell,AUTO POSTO TRACY LTDA,,MARABA,Para,,BR,,https://find.shell.com/br/fuel/10114358-auto-posto-tracy-ltda,,Shell,Q110716465
10115513,shell,FELIZARDO E PAIXAO LTDA,,MARABA,Para,,BR,,https://find.shell.com/br/fuel/10115513-felizardo-e-paixao-ltda,,Shell,Q110716465
10114231,shell,AUTO PT SERRA DOURADA LTDA,,MARABA,Para,,BR,,https://find.shell.com/br/fuel/10114231-auto-pt-serra-dourada-ltda,,Shell,Q110716465
10115113,shell,JVC COMERCIO LTDA,,MARABA,Para,,BR,,https://find.shell.com/br/fuel/10115113-jvc-comercio-ltda,,Shell,Q110716465
10116737,shell,POSTO AVENIDA 2000 EIRELI,,MARABA,Para,,BR,,https://find.shell.com/br/fuel/10116737-posto-avenida-2000-eireli,,Shell,Q110716465
10117563,shell,R DE F BORGES FILHO EIRELI,,MARABA,Para,,BR,,https://find.shell.com/br/fuel/10117563-r-de-f-borges-filho-eireli,,Shell,Q110716465
10112675,shell,AUTO POSTO IPE LTDA ME,,MARABA,Para,,BR,,https://find.shell.com/br/fuel/10112675-auto-posto-ipe-ltda-me,,Shell,Q110716465
10115311,shell,IRMAOS OLIVI LTDA,,MARABA,Para,,BR,,https://find.shell.com/br/fuel/10115311-irmaos-olivi-ltda,,Shell,Q110716465
10112743,shell,AUTO POSTO FOLHA 23 LTDA,,MARABA,Para,,BR,,https://find.shell.com/br/fuel/10112743-auto-posto-folha-23-ltda,,Shell,Q110716465
10112645,shell,AUTO POSTO FELIZARDO LTDA ME,,MARABA,Para,,BR,,https://find.shell.com/br/fuel/10112645-auto-posto-felizardo-ltda-me,,Shell,Q110716465
10117852,shell,POSTO SAO BENTO LTDA,,MARABA,Para,,BR,,https://find.shell.com/br/fuel/10117852-posto-sao-bento-ltda,,Shell,Q110716465
10115790,shell,POSTO 26 LTDA,,MARABA,Para,,BR,,https://find.shell.com/br/fuel/10115790-posto-26-ltda,,Shell,Q110716465
10116845,shell,POSTO CARAJAS COM COMB LTDA,,MARABA,Para,,BR,,https://find.shell.com/br/fuel/10116845-posto-carajas-com-comb-ltda,,Shell,Q110716465
10114359,shell,AUTO POSTO TRACYANNE LTDA,,MARABA,Para,,BR,,https://find.shell.com/br/fuel/10114359-auto-posto-tracyanne-ltda,,Shell,Q110716465
10114390,shell,E M ASSUMPCAO EIRELI,,MARABA,Para,,BR,,https://find.shell.com/br/fuel/10114390-e-m-assumpcao-eireli,,Shell,Q110716465
10116972,shell,POSTO MORADA NOVA LTDA,,MARABA,Para,,BR,,https://find.shell.com/br/fuel/10116972-posto-morada-nova-ltda,,Shell,Q110716465
10111934,shell,A P G COMERCIO DE COMBUSTIVEIS LTDA,,MARABA,Para,,BR,,https://find.shell.com/br/fuel/10111934-a-p-g-comercio-de-combustiveis-ltda,,Shell,Q110716465
10113971,shell,CARAJAS DISTRIB DE COMB LTDA,,MARABA,Para,,BR,,https://find.shell.com/br/fuel/10113971-carajas-distrib-de-comb-ltda,,Shell,Q110716465
10112685,shell,AUTO POSTO FERROVIARIO LTDA,,MARABA,Para,,BR,,https://find.shell.com/br/fuel/10112685-auto-posto-ferroviario-ltda,,Shell,Q110716465
10115162,shell,J M ALMEIDA & CIA LTDA,,MARABA,Para,,BR,,https://find.shell.com/br/fuel/10115162-j-m-almeida-cia-ltda,,Shell,Q110716465
10115489,shell,I V PAIANO COMB E LUBRIF EIRELI,,ITUPIRANGA,Para,,BR,,https://find.shell.com/br/fuel/10115489-i-v-paiano-comb-e-lubrif-eireli,,Shell,Q110716465
10114653,shell,COSTA E PAULA LTDA,,ITUPIRANGA,Para,,BR,,https://find.shell.com/br/fuel/10114653-costa-e-paula-ltda,,Shell,Q110716465
10115425,shell,GM AUTO POSTO COM DE COMB LTDA,,ITUPIRANGA,Para,,BR,,https://find.shell.com/br/fuel/10115425-gm-auto-posto-com-de-comb-ltda,,Shell,Q110716465
10117604,shell,R M CHAVES COMB E LUB EIRELI EPP,,ITUPIRANGA,Para,,BR,,https://find.shell.com/br/fuel/10117604-r-m-chaves-comb-e-lub-eireli-epp,,Shell,Q110716465
10114254,shell,AUTO POSTO SENNA LTDA,,SAO JOAO DO ARAGUAIA,Para,,BR,,https://find.shell.com/br/fuel/10114254-auto-posto-senna-ltda,,Shell,Q110716465
10115035,shell,JSS POSTO CUPU LTDA,,SAO JOAO DO ARAGUAIA,Para,,BR,,https://find.shell.com/br/fuel/10115035-jss-posto-cupu-ltda,,Shell,Q110716465
10112965,shell,AUTO POSTO CORUJAO LTDA ME,,NOVA IPIXUNA,Para,,BR,,https://find.shell.com/br/fuel/10112965-auto-posto-corujao-ltda-me,,Shell,Q110716465
10114728,shell,COM COMB ASA BRANCA LTDA,,NOVA IPIXUNA,Para,,BR,,https://find.shell.com/br/fuel/10114728-com-comb-asa-branca-ltda,,Shell,Q110716465
10113552,shell,AUTO POSTO MIRANDA LTDA,,SAO DOMINGOS DO ARAGUAIA,Para,,BR,,https://find.shell.com/br/fuel/10113552-auto-posto-miranda-ltda,,Shell,Q110716465
10115225,shell,J R RUAS NETO COMERCIO DE COMB LTDA,,ITUPIRANGA,Para,,BR,,https://find.shell.com/br/fuel/10115225-j-r-ruas-neto-comercio-de-comb-ltda,,Shell,Q110716465
10114210,shell,AUTOVIA 2 COM DER DE PETROLEO LTDA,,ELDORADO DOS CARAJAS,Para,,BR,,https://find.shell.com/br/fuel/10114210-autovia-2-com-der-de-petroleo-ltda,,Shell,Q110716465
10118438,shell,V S FREITAS E CIA LTDA,,ELDORADO DOS CARAJAS,Para,,BR,,https://find.shell.com/br/fuel/10118438-v-s-freitas-e-cia-ltda,,Shell,Q110716465
10118353,shell,SUPER POSTO TREVAO CURVA DO S LTDA,,ELDORADO DOS CARAJAS,Para,,BR,,https://find.shell.com/br/fuel/10118353-super-posto-trevao-curva-do-s-ltda,,Shell,Q110716465
10118354,shell,SUPER POSTO TREVAO EIRELI,,ELDORADO DOS CARAJAS,Para,,BR,,https://find.shell.com/br/fuel/10118354-super-posto-trevao-eireli,,Shell,Q110716465
10115841,shell,PETRO CENTER COM DERIV DE PETR LTDA,,ELDORADO DOS CARAJAS,Para,,BR,,https://find.shell.com/br/fuel/10115841-petro-center-com-deriv-de-petr-ltda,,Shell,Q110716465
10118416,shell,UATINA UELITON COM DE COMB E LUB LT,,CURIONOPOLIS,Para,,BR,,https://find.shell.com/br/fuel/10118416-uatina-ueliton-com-de-comb-e-lub-lt,,Shell,Q110716465
10114275,shell,AUTO POSTO SERRA LESTE LTDA,,CURIONOPOLIS,Para,,BR,,https://find.shell.com/br/fuel/10114275-auto-posto-serra-leste-ltda,,Shell,Q110716465
10112539,shell,AUTO POSTO JACUNDA LTDA EPP,,JACUNDA,Para,,BR,,https://find.shell.com/br/fuel/10112539-auto-posto-jacunda-ltda-epp,,Shell,Q110716465
10116275,shell,POSTO DALLAS EIRELLI,,JACUNDA,Para,,BR,,https://find.shell.com/br/fuel/10116275-posto-dallas-eirelli,,Shell,Q110716465
10114193,shell,AUTO POSTO SAO PAULO LTDA,,PARAUAPEBAS,Para,,BR,,https://find.shell.com/br/fuel/10114193-auto-posto-sao-paulo-ltda,,Shell,Q110716465
10113460,shell,AUTO POSTO NOGUEIRA SOUZA LTDA,,PARAUAPEBAS,Para,,BR,,https://find.shell.com/br/fuel/10113460-auto-posto-nogueira-souza-ltda,,Shell,Q110716465
10118224,shell,WL COM DE COMB DER PET LTDA EPP,,PARAUAPEBAS,Para,,BR,,https://find.shell.com/br/fuel/10118224-wl-com-de-comb-der-pet-ltda-epp,,Shell,Q110716465
10115461,shell,G E DA CRUZ E CIA LTDA  EPP,,PARAUAPEBAS,Para,,BR,,https://find.shell.com/br/fuel/10115461-g-e-da-cruz-e-cia-ltda-epp,,Shell,Q110716465
10113191,shell,AUTO POSTO RM E FILHOS EIRELI,,PARAUAPEBAS,Para,,BR,,https://find.shell.com/br/fuel/10113191-auto-posto-rm-e-filhos-eireli,,Shell,Q110716465
10117169,shell,POSTO MILENA COMERCIO EIRELI,,ABAETETUBA,Para,,BR,,https://find.shell.com/br/fuel/10117169-posto-milena-comercio-eireli,,Shell,Q110716465
10117006,shell,POSTO PIT STOP INDEPENDENCIA LTDA,,ANANINDEUA,Para,,BR,,https://find.shell.com/br/fuel/10117006-posto-pit-stop-independencia-ltda,,Shell,Q110716465
10116063,shell,M T COM DE DERIVADOS DE PETROL LTDA,,ANANINDEUA,Para,,BR,,https://find.shell.com/br/fuel/10116063-m-t-com-de-derivados-de-petrol-ltda,,Shell,Q110716465
10115241,shell,LIDER COMERCIO DE COMBUST LTDA EPP,,ANANINDEUA,Para,,BR,,https://find.shell.com/br/fuel/10115241-lider-comercio-de-combust-ltda-epp,,Shell,Q110716465
10115727,shell,POST RP C DE C E SERV D MANT EIRELI,,ANANINDEUA,Para,,BR,,https://find.shell.com/br/fuel/10115727-post-rp-c-de-c-e-serv-d-mant-eireli,,Shell,Q110716465
10115448,shell,ICUI AUTO POSTO DE COMB LTDA EPP,,ANANINDEUA,Para,,BR,,https://find.shell.com/br/fuel/10115448-icui-auto-posto-de-comb-ltda-epp,,Shell,Q110716465
10114883,shell,CIDADE A P COMB LUBRIFICANTES LTDA,,ANANINDEUA,Para,,BR,,https://find.shell.com/br/fuel/10114883-cidade-a-p-comb-lubrificantes-ltda,,Shell,Q110716465
10117771,shell,PRADO E PEREIRA COMERC COMBUST LTDA,,ANANINDEUA,Para,,BR,,https://find.shell.com/br/fuel/10117771-prado-e-pereira-comerc-combust-ltda,,Shell,Q110716465
10117765,shell,REBELO E CIA LTDA,,ANANINDEUA,Para,,BR,,https://find.shell.com/br/fuel/10117765-rebelo-e-cia-ltda,,Shell,Q110716465
10115816,shell,P IRMAS MARTINI COM VAR COMB LTDA,,ANANINDEUA,Para,,BR,,https://find.shell.com/br/fuel/10115816-p-irmas-martini-com-var-comb-ltda,,Shell,Q110716465
10112511,shell,AUTO POSTO G M D LTDA,,ANANINDEUA,Para,,BR,,https://find.shell.com/br/fuel/10112511-auto-posto-g-m-d-ltda,,Shell,Q110716465
10115832,shell,P IRMAS MARTINI COM VAR COMB LTDA,,ANANINDEUA,Para,,BR,,https://find.shell.com/br/fuel/10115832-p-irmas-martini-com-var-comb-ltda,,Shell,Q110716465
10112081,shell,AGUIA COMERCIO DE COMBUSTIVEIS LTDA,,ANANINDEUA,Para,,BR,,https://find.shell.com/br/fuel/10112081-aguia-comercio-de-combustiveis-ltda,,Shell,Q110716465
10114456,shell,CONF A P COMB LUBRIFICANTES LTDA,,ANANINDEUA,Para,,BR,,https://find.shell.com/br/fuel/10114456-conf-a-p-comb-lubrificantes-ltda,,Shell,Q110716465
10117151,shell,POSTO METROPOLE EIRELI,,ANANINDEUA,Para,,BR,,https://find.shell.com/br/fuel/10117151-posto-metropole-eireli,,Shell,Q110716465
10117338,shell,POSTO MAGUARI LTDA.,,BELEM,Para,,BR,,https://find.shell.com/br/fuel/10117338-posto-maguari-ltda,,Shell,Q110716465
10116764,shell,POSTO CAMILA COM VAREJIS COMB LTDA,,BELEM,Para,,BR,,https://find.shell.com/br/fuel/10116764-posto-camila-com-varejis-comb-ltda,,Shell,Q110716465
10117212,shell,POSTO ICOARACI LTDA,,BELEM,Para,,BR,,https://find.shell.com/br/fuel/10117212-posto-icoaraci-ltda,,Shell,Q110716465
10117766,shell,REBELO E CIA LTDA,,ANANINDEUA,Para,,BR,,https://find.shell.com/br/fuel/10117766-rebelo-e-cia-ltda,,Shell,Q110716465
10116100,shell,NOSSO POSTO COM DE COMB LTDA,,ANANINDEUA,Para,,BR,,https://find.shell.com/br/fuel/10116100-nosso-posto-com-de-comb-ltda,,Shell,Q110716465
10115482,shell,GP PETROLEO COM DE COMB LTDA,,ANANINDEUA,Para,,BR,,https://find.shell.com/br/fuel/10115482-gp-petroleo-com-de-comb-ltda,,Shell,Q110716465
10117822,shell,REDE DE POSTO POMBAL LTDA,,ANANINDEUA,Para,,BR,,https://find.shell.com/br/fuel/10117822-rede-de-posto-pombal-ltda,,Shell,Q110716465
10115239,shell,LIDER COM DE COMB LTDA EPP,,ANANINDEUA,Para,,BR,,https://find.shell.com/br/fuel/10115239-lider-com-de-comb-ltda-epp,,Shell,Q110716465
10118571,shell,TNT COMERCIO DE GAS LTDA,,BELEM,Para,,BR,,https://find.shell.com/br/fuel/10118571-tnt-comercio-de-gas-ltda,,Shell,Q110716465
10117072,shell,POSTO NOSSA SENHORA DE FATIMA LTDA,,BELEM,Para,,BR,,https://find.shell.com/br/fuel/10117072-posto-nossa-senhora-de-fatima-ltda,,Shell,Q110716465
10112178,shell,AMC AGUILERA COM COMBUST LTDA,,BELEM,Para,,BR,,https://find.shell.com/br/fuel/10112178-amc-aguilera-com-combust-ltda,,Shell,Q110716465
10115498,shell,G2F COMERCIO DE COMBUSTIVEIS LTDA,,BELEM,Para,,BR,,https://find.shell.com/br/fuel/10115498-g2f-comercio-de-combustiveis-ltda,,Shell,Q110716465
10117337,shell,POSTO MAGUARI LTDA,,BELEM,Para,,BR,,https://find.shell.com/br/fuel/10117337-posto-maguari-ltda,,Shell,Q110716465
10116826,shell,POSTO CAPITAL AUG MONTENEGRO LTDA,,BELEM,Para,,BR,,https://find.shell.com/br/fuel/10116826-posto-capital-aug-montenegro-ltda,,Shell,Q110716465
10118313,shell,SUPER POSTO DOIS MIL LTDA,,MARITUBA,Para,,BR,,https://find.shell.com/br/fuel/10118313-super-posto-dois-mil-ltda,,Shell,Q110716465
10114523,shell,DIST DE DERIVADOS PET POMBAL LTDA,,MARITUBA,Para,,BR,,https://find.shell.com/br/fuel/10114523-dist-de-derivados-pet-pombal-ltda,,Shell,Q110716465
10116245,shell,MAPA AUTO POSTO LTDA,,MARITUBA,Para,,BR,,https://find.shell.com/br/fuel/10116245-mapa-auto-posto-ltda,,Shell,Q110716465
10117005,shell,POSTO PIT STOP CRISTAL LTDA,,BELEM,Para,,BR,,https://find.shell.com/br/fuel/10117005-posto-pit-stop-cristal-ltda,,Shell,Q110716465
10117725,shell,REBELO COMERCIO DE COMBUSTIVEIS LTD,,BELEM,Para,,BR,,https://find.shell.com/br/fuel/10117725-rebelo-comercio-de-combustiveis-ltd,,Shell,Q110716465
10117488,shell,POSTO I COM DE DER DE PET LTDA,,BELEM,Para,,BR,,https://find.shell.com/br/fuel/10117488-posto-i-com-de-der-de-pet-ltda,,Shell,Q110716465
10118355,shell,SUPERCENTRO POSTOS DE SERV LTDA,,BELEM,Para,,BR,,https://find.shell.com/br/fuel/10118355-supercentro-postos-de-serv-ltda,,Shell,Q110716465
10116023,shell,M M AUTO POSTO LTDA,,BELEM,Para,,BR,,https://find.shell.com/br/fuel/10116023-m-m-auto-posto-ltda,,Shell,Q110716465
10117216,shell,POSTO ILHA DO OUTEIRO LTDA,,BELEM,Para,,BR,,https://find.shell.com/br/fuel/10117216-posto-ilha-do-outeiro-ltda,,Shell,Q110716465
10117677,shell,SAITO COMERCIO DE COMBUSTIVEIS LTDA,,BELEM,Para,,BR,,https://find.shell.com/br/fuel/10117677-saito-comercio-de-combustiveis-ltda,,Shell,Q110716465
10116776,shell,POSTO ALCINDO CACELA LTDA,,BELEM,Para,,BR,,https://find.shell.com/br/fuel/10116776-posto-alcindo-cacela-ltda,,Shell,Q110716465
10115752,shell,OVIDIO DA SILVEIRA GASPARETTO COM,,BELEM,Para,,BR,,https://find.shell.com/br/fuel/10115752-ovidio-da-silveira-gasparetto-com,,Shell,Q110716465
10116435,shell,POSTO DE GASOLINA PIT STOP LTDA,,BELEM,Para,,BR,,https://find.shell.com/br/fuel/10116435-posto-de-gasolina-pit-stop-ltda,,Shell,Q110716465
10117872,shell,POSTO SAO DOMINGOS LTDA ME,,BELEM,Para,,BR,,https://find.shell.com/br/fuel/10117872-posto-sao-domingos-ltda-me,,Shell,Q110716465
10115483,shell,GP PETROLEO COMERCIO DE COMB LTDA,,BELEM,Para,,BR,,https://find.shell.com/br/fuel/10115483-gp-petroleo-comercio-de-comb-ltda,,Shell,Q110716465
10112015,shell,ABASTECEDORA BRASILIA LTDA,,BELEM,Para,,BR,,https://find.shell.com/br/fuel/10112015-abastecedora-brasilia-ltda,,Shell,Q110716465
10114827,shell,COM DE COMB E LUBRIFICANTES LTDA,,BELEM,Para,,BR,,https://find.shell.com/br/fuel/10114827-com-de-comb-e-lubrificantes-ltda,,Shell,Q110716465
10118592,shell,TOP COMBUSTIVEIS E LUBR EIRELI,,BELEM,Para,,BR,,https://find.shell.com/br/fuel/10118592-top-combustiveis-e-lubr-eireli,,Shell,Q110716465
10116199,shell,LUBRIFIC COM DE LUBS LTDA,,BELEM,Para,,BR,,https://find.shell.com/br/fuel/10116199-lubrific-com-de-lubs-ltda,,Shell,Q110716465
10111956,shell,A F S S COM VAR COMB E LUB LTDA EPP,,BENEVIDES,Para,,BR,,https://find.shell.com/br/fuel/10111956-a-f-s-s-com-var-comb-e-lub-ltda-epp,,Shell,Q110716465
10115283,shell,JAFI BRASIL AUTO POSTO LTDA,,BENEVIDES,Para,,BR,,https://find.shell.com/br/fuel/10115283-jafi-brasil-auto-posto-ltda,,Shell,Q110716465
10118267,shell,VAZ OLIVEIRA E CRUZ LTDA,,BENEVIDES,Para,,BR,,https://find.shell.com/br/fuel/10118267-vaz-oliveira-e-cruz-ltda,,Shell,Q110716465
10117762,shell,REBELO E CIA LTDA,,SAO FRANCISCO DO PARA,Para,,BR,,https://find.shell.com/br/fuel/10117762-rebelo-e-cia-ltda,,Shell,Q110716465
10118314,shell,SUPER POSTO ESTRELA LTDA,,CASTANHAL,Para,,BR,,https://find.shell.com/br/fuel/10118314-super-posto-estrela-ltda,,Shell,Q110716465
10117704,shell,RAYANE VIP COM DE COMB LTDA,,CASTANHAL,Para,,BR,,https://find.shell.com/br/fuel/10117704-rayane-vip-com-de-comb-ltda,,Shell,Q110716465
10117745,shell,REBELO E ALVES LTDA,,CASTANHAL,Para,,BR,,https://find.shell.com/br/fuel/10117745-rebelo-e-alves-ltda,,Shell,Q110716465
10117825,shell,REDE DE POSTOS COMB APEU LTDA,,CASTANHAL,Para,,BR,,https://find.shell.com/br/fuel/10117825-rede-de-postos-comb-apeu-ltda,,Shell,Q110716465
10117361,shell,POSTO MARAPAR LTDA.,,CASTANHAL,Para,,BR,,https://find.shell.com/br/fuel/10117361-posto-marapar-ltda,,Shell,Q110716465
10116670,shell,POSTO COMBUSTIVEL NOVO ESTRELA LTDA,,CASTANHAL,Para,,BR,,https://find.shell.com/br/fuel/10116670-posto-combustivel-novo-estrela-ltda,,Shell,Q110716465
10116788,shell,POSTO CEU LTDA EPP,,CASTANHAL,Para,,BR,,https://find.shell.com/br/fuel/10116788-posto-ceu-ltda-epp,,Shell,Q110716465
10117764,shell,REBELO E CIA LTDA,,CASTANHAL,Para,,BR,,https://find.shell.com/br/fuel/10117764-rebelo-e-cia-ltda,,Shell,Q110716465
10113122,shell,AUTO POSTO PAM LTDA,,CASTANHAL,Para,,BR,,https://find.shell.com/br/fuel/10113122-auto-posto-pam-ltda,,Shell,Q110716465
10112096,shell,ALBUQUERQUE E ALB DIST DER PET LTDA,,SANTA ISABEL DO PARA,Para,,BR,,https://find.shell.com/br/fuel/10112096-albuquerque-e-alb-dist-der-pet-ltda,,Shell,Q110716465
10117508,shell,POSTO ICCAR LTDA,,SANTA ISABEL DO PARA,Para,,BR,,https://find.shell.com/br/fuel/10117508-posto-iccar-ltda,,Shell,Q110716465
10112914,shell,AUTO POSTO BR 316 LTDA,,SANTA ISABEL DO PARA,Para,,BR,,https://find.shell.com/br/fuel/10112914-auto-posto-br-316-ltda,,Shell,Q110716465
10114197,shell,AUTO POSTO TABOCAS LTDA,,SAO MIGUEL DO GUAMA,Para,,BR,,https://find.shell.com/br/fuel/10114197-auto-posto-tabocas-ltda,,Shell,Q110716465
10117868,shell,POSTO YGOR COMERCIO E SERVICOS LTDA,,BUJARU,Para,,BR,,https://find.shell.com/br/fuel/10117868-posto-ygor-comercio-e-servicos-ltda,,Shell,Q110716465
10116130,shell,MATAPIQUARA PERSONNALITE COM COMB L,,MARAPANIM,Para,,BR,,https://find.shell.com/br/fuel/10116130-matapiquara-personnalite-com-comb-l,,Shell,Q110716465
10117835,shell,ROTA 391 COM VAREJISTA DE COMB LTDA,,SANTA BARBARA DO PARA,Para,,BR,,https://find.shell.com/br/fuel/10117835-rota-391-com-varejista-de-comb-ltda,,Shell,Q110716465
10117234,shell,POSTO IMPERIAL LTDA,,SAO DOMINGOS DO CAPIM,Para,,BR,,https://find.shell.com/br/fuel/10117234-posto-imperial-ltda,,Shell,Q110716465
10112848,shell,AUTO POSTO DE SERV POMBAL LTDA EPP,,CAPANEMA,Para,,BR,,https://find.shell.com/br/fuel/10112848-auto-posto-de-serv-pombal-ltda-epp,,Shell,Q110716465
10116939,shell,POSTO PACHECO 1 LTDA,,CAPANEMA,Para,,BR,,https://find.shell.com/br/fuel/10116939-posto-pacheco-1-ltda,,Shell,Q110716465
10117763,shell,REBELO E CIA LTDA,,CAPANEMA,Para,,BR,,https://find.shell.com/br/fuel/10117763-rebelo-e-cia-ltda,,Shell,Q110716465
10113477,shell,AUTO POSTO NORTE PARA LTDA,,CAPANEMA,Para,,BR,,https://find.shell.com/br/fuel/10113477-auto-posto-norte-para-ltda,,Shell,Q110716465
10115148,shell,JORGE VICTOR CARVALHO EIRELI,,ABAETETUBA,Para,,BR,,https://find.shell.com/br/fuel/10115148-jorge-victor-carvalho-eireli,,Shell,Q110716465
10117953,shell,POSTO SAO PAULO LTDA,,ABAETETUBA,Para,,BR,,https://find.shell.com/br/fuel/10117953-posto-sao-paulo-ltda,,Shell,Q110716465
10115360,shell,FRANCISCO LOPES FREIRE EIRELI,,ABAETETUBA,Para,,BR,,https://find.shell.com/br/fuel/10115360-francisco-lopes-freire-eireli,,Shell,Q110716465
10113790,shell,C A PAES SANTOS E CIA LTDA,,ABAETETUBA,Para,,BR,,https://find.shell.com/br/fuel/10113790-c-a-paes-santos-e-cia-ltda,,Shell,Q110716465
10114683,shell,E CARVALHO COM. E NAV. LTD,,ABAETETUBA,Para,,BR,,https://find.shell.com/br/fuel/10114683-e-carvalho-com-e-nav-ltd,,Shell,Q110716465
10112822,shell,AUTO POSTO COLONIAL LTDA,,ABAETETUBA,Para,,BR,,https://find.shell.com/br/fuel/10112822-auto-posto-colonial-ltda,,Shell,Q110716465
10117209,shell,POSTO MOJUENSE COM DE COMB LTDA,,MOJU,Para,,BR,,https://find.shell.com/br/fuel/10117209-posto-mojuense-com-de-comb-ltda,,Shell,Q110716465
10116709,shell,POSTO CODIPE DIS COM A PECAS LTDA,,MOJU,Para,,BR,,https://find.shell.com/br/fuel/10116709-posto-codipe-dis-com-a-pecas-ltda,,Shell,Q110716465
10115753,shell,P 100 FRONTEIRAS COM VAR COMB LUB,,BARCARENA,Para,,BR,,https://find.shell.com/br/fuel/10115753-p-100-fronteiras-com-var-comb-lub,,Shell,Q110716465
10112995,shell,AUTO POSTO CABANOS LTDA EPP,,BARCARENA,Para,,BR,,https://find.shell.com/br/fuel/10112995-auto-posto-cabanos-ltda-epp,,Shell,Q110716465
10117782,shell,REBELO E CIA LTDA,,BARCARENA,Para,,BR,,https://find.shell.com/br/fuel/10117782-rebelo-e-cia-ltda,,Shell,Q110716465
10117665,shell,R5 COMERCIO E SERVICOS LTDA,,IGARAPE-MIRI,Para,,BR,,https://find.shell.com/br/fuel/10117665-r5-comercio-e-servicos-ltda,,Shell,Q110716465
10114391,shell,E M C COM DE REFINADOS DE PETR LTDA,,BARCARENA,Para,,BR,,https://find.shell.com/br/fuel/10114391-e-m-c-com-de-refinados-de-petr-ltda,,Shell,Q110716465
10113032,shell,AUTO POSTO CAETE LTDA EPP,,BARCARENA,Para,,BR,,https://find.shell.com/br/fuel/10113032-auto-posto-caete-ltda-epp,,Shell,Q110716465
10117319,shell,POSTO M E R LTDA,,BARCARENA,Para,,BR,,https://find.shell.com/br/fuel/10117319-posto-m-e-r-ltda,,Shell,Q110716465
10117874,shell,POSTO SAO FRA COM DE COMBUSTIVEL LT,,BARCARENA,Para,,BR,,https://find.shell.com/br/fuel/10117874-posto-sao-fra-com-de-combustivel-lt,,Shell,Q110716465
10113278,shell,AUTO POSTO PP LTDA EPP,,BARCARENA,Para,,BR,,https://find.shell.com/br/fuel/10113278-auto-posto-pp-ltda-epp,,Shell,Q110716465
10116870,shell,POSTO ACARA VIP EIRELI,,ACARA,Para,,BR,,https://find.shell.com/br/fuel/10116870-posto-acara-vip-eireli,,Shell,Q110716465
10115238,shell,LIDER COM DE COMB E LUB EIRELI,,ACARA,Para,,BR,,https://find.shell.com/br/fuel/10115238-lider-com-de-comb-e-lub-eireli,,Shell,Q110716465
10116571,shell,POSTO DA PAZ COM VAREJ DE COMB LTDA,,PARAUAPEBAS,Para,,BR,,https://find.shell.com/br/fuel/10116571-posto-da-paz-com-varej-de-comb-ltda,,Shell,Q110716465
10115468,shell,IPE DERIVADOS DE PETROLEO LTDA ME,,PARAUAPEBAS,Para,,BR,,https://find.shell.com/br/fuel/10115468-ipe-derivados-de-petroleo-ltda-me,,Shell,Q110716465
10115730,shell,POSTO 11 LTDA ME,,PARAUAPEBAS,Para,,BR,,https://find.shell.com/br/fuel/10115730-posto-11-ltda-me,,Shell,Q110716465
10113189,shell,AUTO POSTO RM E FILHOS EIRELI,,PARAUAPEBAS,Para,,BR,,https://find.shell.com/br/fuel/10113189-auto-posto-rm-e-filhos-eireli,,Shell,Q110716465
10114292,shell,AUTO POSTO SERV BEIRA RIO LTDA,,PARAUAPEBAS,Para,,BR,,https://find.shell.com/br/fuel/10114292-auto-posto-serv-beira-rio-ltda,,Shell,Q110716465
10112684,shell,AUTO POSTO FERROVIA LTDA EPP,,PARAUAPEBAS,Para,,BR,,https://find.shell.com/br/fuel/10112684-auto-posto-ferrovia-ltda-epp,,Shell,Q110716465
10115147,shell,JORGE BATISTA LTDA,,PARAUAPEBAS,Para,,BR,,https://find.shell.com/br/fuel/10115147-jorge-batista-ltda,,Shell,Q110716465
10113190,shell,AUTO POSTO RM E FILHOS EIRELI,,PARAUAPEBAS,Para,,BR,,https://find.shell.com/br/fuel/10113190-auto-posto-rm-e-filhos-eireli,,Shell,Q110716465
10113601,shell,AUTO POSTO NOVO HORIZONTE LTDA ME,,CANAA DOS CARAJAS,Para,,BR,,https://find.shell.com/br/fuel/10113601-auto-posto-novo-horizonte-ltda-me,,Shell,Q110716465
10113352,shell,AUTO POSTO PIMENTEL II LTDA EPP,,CANAA DOS CARAJAS,Para,,BR,,https://find.shell.com/br/fuel/10113352-auto-posto-pimentel-ii-ltda-epp,,Shell,Q110716465
10118393,shell,T OLIVEIRA DE ARAUJO  D R DA PA,,CANAA DOS CARAJAS,Para,,BR,,https://find.shell.com/br/fuel/10118393-t-oliveira-de-araujo-d-r-da-pa,,Shell,Q110716465
10114684,shell,E DA SILVA AGUIAR MARTINS EIRELI,,AGUA AZUL DO NORTE,Para,,BR,,https://find.shell.com/br/fuel/10114684-e-da-silva-aguiar-martins-eireli,,Shell,Q110716465
10117544,shell,R A DE BESSA E CIA LTDA ME,,XINGUARA,Para,,BR,,https://find.shell.com/br/fuel/10117544-r-a-de-bessa-e-cia-ltda-me,,Shell,Q110716465
10116611,shell,POSTO CAVALO DE ACO LTDA,,XINGUARA,Para,,BR,,https://find.shell.com/br/fuel/10116611-posto-cavalo-de-aco-ltda,,Shell,Q110716465
10116886,shell,POSTO CASTANHEIRAS LTDA,,XINGUARA,Para,,BR,,https://find.shell.com/br/fuel/10116886-posto-castanheiras-ltda,,Shell,Q110716465
10113341,shell,AUTO POSTO PRIMAVERA LTDA,,XINGUARA,Para,,BR,,https://find.shell.com/br/fuel/10113341-auto-posto-primavera-ltda,,Shell,Q110716465
10112844,shell,AUTO POSTO COMAXIN LTDA,,XINGUARA,Para,,BR,,https://find.shell.com/br/fuel/10112844-auto-posto-comaxin-ltda,,Shell,Q110716465
10118104,shell,POSTO VILA SORRISO LTDA,,BELEM,Para,,BR,,https://find.shell.com/br/fuel/10118104-posto-vila-sorriso-ltda,,Shell,Q110716465
10115857,shell,PETRO CENTER COM DERIV DE PETR LTDA,,SANTANA DO ARAGUAIA,Para,,BR,,https://find.shell.com/br/fuel/10115857-petro-center-com-deriv-de-petr-ltda,,Shell,Q110716465
10116397,shell,POSTO DE SERV SAWA LTDA,,SANTANA DO ARAGUAIA,Para,,BR,,https://find.shell.com/br/fuel/10116397-posto-de-serv-sawa-ltda,,Shell,Q110716465
10117623,shell,R POSTOS MARAJO SANTANA DO ARAGUAIA,,SANTANA DO ARAGUAIA,Para,,BR,,https://find.shell.com/br/fuel/10117623-r-postos-marajo-santana-do-araguaia,,Shell,Q110716465
10112725,shell,AUTO POSTO FLOR DO NORTE LTDA,,SANTA MARIA DAS BARREIRAS,Para,,BR,,https://find.shell.com/br/fuel/10112725-auto-posto-flor-do-norte-ltda,,Shell,Q110716465
10113486,shell,AUTO POSTO KM 48 LTDA,,SANTA LUZIA DO PARA,Para,,BR,,https://find.shell.com/br/fuel/10113486-auto-posto-km-48-ltda,,Shell,Q110716465
10112851,shell,AUTO POSTO DE SERVICO POMBAL LTDA,,CAPITAO POCO,Para,,BR,,https://find.shell.com/br/fuel/10112851-auto-posto-de-servico-pombal-ltda,,Shell,Q110716465
10117743,shell,REBELO E ALVES LTDA,,BRAGANCA,Para,,BR,,https://find.shell.com/br/fuel/10117743-rebelo-e-alves-ltda,,Shell,Q110716465
10113380,shell,AUTO POSTO PACHECO 2 LTDA,,OUREM,Para,,BR,,https://find.shell.com/br/fuel/10113380-auto-posto-pacheco-2-ltda,,Shell,Q110716465
10116940,shell,POSTO PACHECO 4 EIRELI,,TRACUATEUA,Para,,BR,,https://find.shell.com/br/fuel/10116940-posto-pacheco-4-eireli,,Shell,Q110716465
10115243,shell,J SILVA & AZEVEDO LTDA,,IRITUIA,Para,,BR,,https://find.shell.com/br/fuel/10115243-j-silva-azevedo-ltda,,Shell,Q110716465
10114104,shell,AUTO POSTO TROPICAL LTDA,,MAE DO RIO,Para,,BR,,https://find.shell.com/br/fuel/10114104-auto-posto-tropical-ltda,,Shell,Q110716465
10117746,shell,REBELO E ALVES LTDA,,MAE DO RIO,Para,,BR,,https://find.shell.com/br/fuel/10117746-rebelo-e-alves-ltda,,Shell,Q110716465
10115389,shell,HIPERPOSTO COM TRANSP COMB LTDA,,TUCURUI,Para,,BR,,https://find.shell.com/br/fuel/10115389-hiperposto-com-transp-comb-ltda,,Shell,Q110716465
10113179,shell,AUTO POSTO POPULAR LTDA,,TUCURUI,Para,,BR,,https://find.shell.com/br/fuel/10113179-auto-posto-popular-ltda,,Shell,Q110716465
10115866,shell,PIRENEUS AUTO POSTO COMERCIAL LTDA,,BREU BRANCO,Para,,BR,,https://find.shell.com/br/fuel/10115866-pireneus-auto-posto-comercial-ltda,,Shell,Q110716465
10117605,shell,R N DE SOUSA GONCALVES EIRELI,,BREU BRANCO,Para,,BR,,https://find.shell.com/br/fuel/10117605-r-n-de-sousa-goncalves-eireli,,Shell,Q110716465
10114869,shell,COM DE COMB NOVO BREU LTDA EPP,,BREU BRANCO,Para,,BR,,https://find.shell.com/br/fuel/10114869-com-de-comb-novo-breu-ltda-epp,,Shell,Q110716465
10115184,shell,J P COM E TRANSP DE COMB LTDA,,GOIANESIA DO PARA,Para,,BR,,https://find.shell.com/br/fuel/10115184-j-p-com-e-transp-de-comb-ltda,,Shell,Q110716465
10112928,shell,AUTO POSTO DIVINOPOLIS EIRELI,,NOVO REPARTIMENTO,Para,,BR,,https://find.shell.com/br/fuel/10112928-auto-posto-divinopolis-eireli,,Shell,Q110716465
10115335,shell,EVANDRO TEIXEIRA CAMPOS COMERCIO,,NOVO REPARTIMENTO,Para,,BR,,https://find.shell.com/br/fuel/10115335-evandro-teixeira-campos-comercio,,Shell,Q110716465
10115896,shell,PACAJA COMERCIO DE PETROLEO LTDA,,PACAJA,Para,,BR,,https://find.shell.com/br/fuel/10115896-pacaja-comercio-de-petroleo-ltda,,Shell,Q110716465
10113725,shell,AUTO POSTO LUCAR LTDA,,BAIAO,Para,,BR,,https://find.shell.com/br/fuel/10113725-auto-posto-lucar-ltda,,Shell,Q110716465
10117040,shell,POSTO PARAISO LTDA,,TAILANDIA,Para,,BR,,https://find.shell.com/br/fuel/10117040-posto-paraiso-ltda,,Shell,Q110716465
10115555,shell,FERREIRA E FERRO LTDA ME,,TAILANDIA,Para,,BR,,https://find.shell.com/br/fuel/10115555-ferreira-e-ferro-ltda-me,,Shell,Q110716465
10114174,shell,AUTO POSTO SAO LUCAS LTDA EPP,,MOCAJUBA,Para,,BR,,https://find.shell.com/br/fuel/10114174-auto-posto-sao-lucas-ltda-epp,,Shell,Q110716465
10115985,shell,M E M MEDEIROS LTDA ME,,CAMETA,Para,,BR,,https://find.shell.com/br/fuel/10115985-m-e-m-medeiros-ltda-me,,Shell,Q110716465
10117726,shell,REBELO E ALVES COM E NAVEGACAO LTDA,,CAMETA,Para,,BR,,https://find.shell.com/br/fuel/10117726-rebelo-e-alves-com-e-navegacao-ltda,,Shell,Q110716465
10117785,shell,RECOMP COM DE PECAS COMB LTDA,,CAMETA,Para,,BR,,https://find.shell.com/br/fuel/10117785-recomp-com-de-pecas-comb-ltda,,Shell,Q110716465
10115875,shell,P T NEVES FERNANDES COM DE COMB LTD,,CAMETA,Para,,BR,,https://find.shell.com/br/fuel/10115875-p-t-neves-fernandes-com-de-comb-ltd,,Shell,Q110716465
10113989,shell,AZEVEDO COM DE COMBUT LTDA,,ANAPU,Para,,BR,,https://find.shell.com/br/fuel/10113989-azevedo-com-de-combut-ltda,,Shell,Q110716465
10113521,shell,AUTO POSTO NW LTDA,,REDENCAO,Para,,BR,,https://find.shell.com/br/fuel/10113521-auto-posto-nw-ltda,,Shell,Q110716465
10112240,shell,ASAS COMERCIO DE COMB LTDA,,REDENCAO,Para,,BR,,https://find.shell.com/br/fuel/10112240-asas-comercio-de-comb-ltda,,Shell,Q110716465
10115695,shell,ORGANIZACOES COSTA LTDA,,REDENCAO,Para,,BR,,https://find.shell.com/br/fuel/10115695-organizacoes-costa-ltda,,Shell,Q110716465
10113715,shell,AUTO POSTO MUNDIAL LTDA,,REDENCAO,Para,,BR,,https://find.shell.com/br/fuel/10113715-auto-posto-mundial-ltda,,Shell,Q110716465
10116025,shell,M M COMB DERIVADOS DE PET LTDA,,REDENCAO,Para,,BR,,https://find.shell.com/br/fuel/10116025-m-m-comb-derivados-de-pet-ltda,,Shell,Q110716465
10115712,shell,ORGANIZACOES COSTA LTDA,,REDENCAO,Para,,BR,,https://find.shell.com/br/fuel/10115712-organizacoes-costa-ltda,,Shell,Q110716465
10115714,shell,ORGANIZACOES MOREIRA LTDA,,REDENCAO,Para,,BR,,https://find.shell.com/br/fuel/10115714-organizacoes-moreira-ltda,,Shell,Q110716465
10113409,shell,AUTO POSTO PARASAO LTDA,,REDENCAO,Para,,BR,,https://find.shell.com/br/fuel/10113409-auto-posto-parasao-ltda,,Shell,Q110716465
10115696,shell,ORGANIZACOES COSTA LTDA,,REDENCAO,Para,,BR,,https://find.shell.com/br/fuel/10115696-organizacoes-costa-ltda,,Shell,Q110716465
10115713,shell,ORGANIZACOES DILMA LTDA,,REDENCAO,Para,,BR,,https://find.shell.com/br/fuel/10115713-organizacoes-dilma-ltda,,Shell,Q110716465
10115004,shell,COELHO COM COMB TRANSPORTE LTDA ME,,CONCEICAO DO ARAGUAIA,Para,,BR,,https://find.shell.com/br/fuel/10115004-coelho-com-comb-transporte-ltda-me,,Shell,Q110716465
10117584,shell,R F DA CRUZ  CIA LTDA  EPP,,FLORESTA DO ARAGUAIA,Para,,BR,,https://find.shell.com/br/fuel/10117584-r-f-da-cruz-cia-ltda-epp,,Shell,Q110716465
10115369,shell,HIPER POSTO LIDER LTDA,,RIO MARIA,Para,,BR,,https://find.shell.com/br/fuel/10115369-hiper-posto-lider-ltda,,Shell,Q110716465
10116007,shell,MARIA BONITA COM DE COMB LTDA,,RIO MARIA,Para,,BR,,https://find.shell.com/br/fuel/10116007-maria-bonita-com-de-comb-ltda,,Shell,Q110716465
10115084,shell,J DA SILVA CAMILO COM COMB EIREL,,CUMARU DO NORTE,Para,,BR,,https://find.shell.com/br/fuel/10115084-j-da-silva-camilo-com-comb-eirel,,Shell,Q110716465
10115671,shell,PONTO CERTO COM VAREJ COMBUST LTDA,,CONCEICAO DO ARAGUAIA,Para,,BR,,https://find.shell.com/br/fuel/10115671-ponto-certo-com-varej-combust-ltda,,Shell,Q110716465
10115367,shell,HIPER P PISTA BR COM DE COMB EIRELI,,BANNACH,Para,,BR,,https://find.shell.com/br/fuel/10115367-hiper-p-pista-br-com-de-comb-eireli,,Shell,Q110716465
10113452,shell,AUTO POSTO MEDRADO LTDA,,SANTA MARIA DAS BARREIRAS,Para,,BR,,https://find.shell.com/br/fuel/10113452-auto-posto-medrado-ltda,,Shell,Q110716465
10113378,shell,AUTO POSTO OURO VERDE LTDA,,OURILANDIA DO NORTE,Para,,BR,,https://find.shell.com/br/fuel/10113378-auto-posto-ouro-verde-ltda,,Shell,Q110716465
10118273,shell,VILASBOAS E MEIRELLES LTDA,,OURILANDIA DO NORTE,Para,,BR,,https://find.shell.com/br/fuel/10118273-vilasboas-e-meirelles-ltda,,Shell,Q110716465
10114925,shell,CITY POSTO LTDA,,TUCUMA,Para,,BR,,https://find.shell.com/br/fuel/10114925-city-posto-ltda,,Shell,Q110716465
10118335,shell,SUPER POSTO PIONEIRO LTDA EPP,,TUCUMA,Para,,BR,,https://find.shell.com/br/fuel/10118335-super-posto-pioneiro-ltda-epp,,Shell,Q110716465
10118333,shell,SUPER POSTO PARAIBA LTDA  PA,,TUCUMA,Para,,BR,,https://find.shell.com/br/fuel/10118333-super-posto-paraiba-ltda-pa,,Shell,Q110716465
10118352,shell,SUPER POSTO TRANSBRASIL LTDA,,TUCUMA,Para,,BR,,https://find.shell.com/br/fuel/10118352-super-posto-transbrasil-ltda,,Shell,Q110716465
10114341,shell,AUTO POSTO TOURAO LTDA,,TUCUMA,Para,,BR,,https://find.shell.com/br/fuel/10114341-auto-posto-tourao-ltda,,Shell,Q110716465
10116020,shell,N CANDIDA QUEIROZ SILVA COMERCIO EI,,PICARRA,Para,,BR,,https://find.shell.com/br/fuel/10116020-n-candida-queiroz-silva-comercio-ei,,Shell,Q110716465
10116294,shell,POSTO DE GASOLINA BELATO LTDA,,TOME-ACU,Para,,BR,,https://find.shell.com/br/fuel/10116294-posto-de-gasolina-belato-ltda,,Shell,Q110716465
10116432,shell,POSTO DE GASOLINA PETRONORTE LTDA,,TOME-ACU,Para,,BR,,https://find.shell.com/br/fuel/10116432-posto-de-gasolina-petronorte-ltda,,Shell,Q110716465
10116949,shell,POSTO REGIONAL COM COMB LTDA,,ACARA,Para,,BR,,https://find.shell.com/br/fuel/10116949-posto-regional-com-comb-ltda,,Shell,Q110716465
10115951,shell,OLIVEIRA COMERCIO DE COMBUSTIVEIS L,,CONCORDIA DO PARA,Para,,BR,,https://find.shell.com/br/fuel/10115951-oliveira-comercio-de-combustiveis-l,,Shell,Q110716465
10117407,shell,POSTO GOIABEIRA LTDA,,AURORA DO PARA,Para,,BR,,https://find.shell.com/br/fuel/10117407-posto-goiabeira-ltda,,Shell,Q110716465
10111968,shell,A POSTO E CHURRASCARIA J B LTDA EPP,,IPIXUNA DO PARA,Para,,BR,,https://find.shell.com/br/fuel/10111968-a-posto-e-churrascaria-j-b-ltda-epp,,Shell,Q110716465
10116402,shell,POSTO DE COMB MANDACARU EIRELI,,IPIXUNA DO PARA,Para,,BR,,https://find.shell.com/br/fuel/10116402-posto-de-comb-mandacaru-eireli,,Shell,Q110716465
10118045,shell,POSTO VIA NORTE COM DE COMB LTDA ME,,IPIXUNA DO PARA,Para,,BR,,https://find.shell.com/br/fuel/10118045-posto-via-norte-com-de-comb-ltda-me,,Shell,Q110716465
10117982,shell,POSTO VALE DO URAIM LTDA,,PARAGOMINAS,Para,,BR,,https://find.shell.com/br/fuel/10117982-posto-vale-do-uraim-ltda,,Shell,Q110716465
10113990,shell,AZEVEDO COM VAR DE DERIV PET LTDA,,ALTAMIRA,Para,,BR,,https://find.shell.com/br/fuel/10113990-azevedo-com-var-de-deriv-pet-ltda,,Shell,Q110716465
10113374,shell,AUTO POSTO PIONEIRO LTDA,,PARAGOMINAS,Para,,BR,,https://find.shell.com/br/fuel/10113374-auto-posto-pioneiro-ltda,,Shell,Q110716465
10113106,shell,AUTO POSTO DE COMB POMBAL LTDA,,PARAGOMINAS,Para,,BR,,https://find.shell.com/br/fuel/10113106-auto-posto-de-comb-pombal-ltda,,Shell,Q110716465
10115649,shell,PML POSTO MADEIREIRO LTDA,,ULIANOPOLIS,Para,,BR,,https://find.shell.com/br/fuel/10115649-pml-posto-madeireiro-ltda,,Shell,Q110716465
10117606,shell,R N MELO DA SILVA,,ULIANOPOLIS,Para,,BR,,https://find.shell.com/br/fuel/10117606-r-n-melo-da-silva,,Shell,Q110716465
10117378,shell,POSTO MACARANI LTDA,,DOM ELISEU,Para,,BR,,https://find.shell.com/br/fuel/10117378-posto-macarani-ltda,,Shell,Q110716465
10112433,shell,AUTO POSTO ARRUDAO LTDA,,DOM ELISEU,Para,,BR,,https://find.shell.com/br/fuel/10112433-auto-posto-arrudao-ltda,,Shell,Q110716465
10116950,shell,POSTO RENASCER WR LTDA,,RONDON DO PARA,Para,,BR,,https://find.shell.com/br/fuel/10116950-posto-renascer-wr-ltda,,Shell,Q110716465
10118321,shell,SAS SANTOS DE MELO LTDA  EPP,,SAO GERALDO DO ARAGUAIA,Para,,BR,,https://find.shell.com/br/fuel/10118321-sas-santos-de-melo-ltda-epp,,Shell,Q110716465
10113138,shell,AUTO POSTO PLANALTO LTDA,,SAO GERALDO DO ARAGUAIA,Para,,BR,,https://find.shell.com/br/fuel/10113138-auto-posto-planalto-ltda,,Shell,Q110716465
10112310,shell,AUTO POSTO 10 EIRELI,,ANAPU,Para,,BR,,https://find.shell.com/br/fuel/10112310-auto-posto-10-eireli,,Shell,Q110716465
10118151,shell,POSTO SAO BENEDITO COM COMB LTDA,,BREVES,Para,,BR,,https://find.shell.com/br/fuel/10118151-posto-sao-benedito-com-comb-ltda,,Shell,Q110716465
10113368,shell,AUTO POSTO PARA SUL COM COMB LTDA,,SAO FELIX DO XINGU,Para,,BR,,https://find.shell.com/br/fuel/10113368-auto-posto-para-sul-com-comb-ltda,,Shell,Q110716465
10114783,shell,CENTRO POSTO LTDA EPP,,SAO FELIX DO XINGU,Para,,BR,,https://find.shell.com/br/fuel/10114783-centro-posto-ltda-epp,,Shell,Q110716465
10114538,shell,DANTAS E FREITAS LTDA,,SAO FELIX DO XINGU,Para,,BR,,https://find.shell.com/br/fuel/10114538-dantas-e-freitas-ltda,,Shell,Q110716465
10117744,shell,REBELO E ALVES LTDA,,BRAGANCA,Para,,BR,,https://find.shell.com/br/fuel/10117744-rebelo-e-alves-ltda,,Shell,Q110716465
10117684,shell,RAFA COM DE COMB E LUBRI LTDA,,PRIMAVERA,Para,,BR,,https://find.shell.com/br/fuel/10117684-rafa-com-de-comb-e-lubri-ltda,,Shell,Q110716465
10117742,shell,REBELO E ALVES LTDA,,SALINOPOLIS,Para,,BR,,https://find.shell.com/br/fuel/10117742-rebelo-e-alves-ltda,,Shell,Q110716465
