Ref,Spider,Name,Address,City,State,Zipcode,Country,Phone,Website,Hours,Brand,WikiData
1e0a6c4936034091f5440ae143ae38b4,western_union,TILOUINE,,Tiliouine,TAROUDANNT,,MA,+212 663-251987,https://location.westernunion.com/ma/taroudannt/tiliouine/1e0a6c4936034091f5440ae143ae38b4,Mo-Su 00:01-24:00,Western Union,Q861042
11febf9a0ca7ab0e5a3dbbdaf14513d4,western_union,CASH PLUS SA SOUK OULED TAIMA SOUK,,Oulad Taema,TAROUDANNT,,MA,+212 667-319014,https://location.westernunion.com/ma/taroudannt/oulad-taema/11febf9a0ca7ab0e5a3dbbdaf14513d4,Mo-Su 09:00-19:00,Western Union,Q861042
a0a57c121cae3f4c90b3d793c855007c,western_union,CASH PLUS OULED BERHIL,,Ouled Berhil,TAROUDANNT,,MA,+212 5285-31522,https://location.westernunion.com/ma/taroudannt/ouled-berhil/a0a57c121cae3f4c90b3d793c855007c,Mo-Su 00:01-24:00,Western Union,Q861042
fc162c0923e96f14e36d95dbaf9f893e,western_union,WAFACASH TALIOUINE MED V AMN,,Taliouine,TAROUDANNT,,MA,(+212) 522-435050-2601,https://location.westernunion.com/ma/taroudannt/taliouine/fc162c0923e96f14e36d95dbaf9f893e,Mo-Su 08:00-24:00,Western Union,Q861042
39a45ca87aa12a49a039db4d1c09aab6,western_union,BANQUE CENTRALE POPULAIRE AOULOUZ,,Aoulouz,TAROUDANNT,,MA,+212 5285-39600,https://location.westernunion.com/ma/taroudannt/aoulouz/39a45ca87aa12a49a039db4d1c09aab6,Mo-Sa 08:00-17:00,Western Union,Q861042
54f7b2500ab6cce80fcfd175b3f480d5,western_union,BC AOULOUZ,,Aoulouz,TAROUDANNT,,MA,+212 602-215987,https://location.westernunion.com/ma/taroudannt/aoulouz/54f7b2500ab6cce80fcfd175b3f480d5,Mo-Su 07:00-20:00,Western Union,Q861042
c226c22cacf2673ac90907ead2c2576e,western_union,CASH PLUS AOULOUZ,,Aoulouz,TAROUDANNT,,MA,+212 661-256398,https://location.westernunion.com/ma/taroudannt/aoulouz/c226c22cacf2673ac90907ead2c2576e,Mo-Su 00:01-24:00,Western Union,Q861042
104ef75d93d3d1dc0f5afe3fd41992c6,western_union,WAFACASH AOULOUZ HASSAN II AMN,,Aoulouz,TAROUDANNT,,MA,(+212) 522-435050-5116,https://location.westernunion.com/ma/taroudannt/aoulouz/104ef75d93d3d1dc0f5afe3fd41992c6,Mo-Su 08:00-24:00,Western Union,Q861042
0559f24554a578f506baac8e376b66aa,western_union,CENTRE TALIOUINE,,Taliouine,TAROUDANNT,,MA,+212 661-772123,https://location.westernunion.com/ma/taroudannt/taliouine/0559f24554a578f506baac8e376b66aa,Mo-Su 00:01-24:00,Western Union,Q861042
a9e46d5f9558e6414284e3208b0cffd2,western_union,WAFACASH TALIOUINE CENTRE  AFN,,Taliouin,TAROUDANNT,,MA,+212 5224-35050,https://location.westernunion.com/ma/taroudannt/taliouin/a9e46d5f9558e6414284e3208b0cffd2,Mo-Su 08:00-24:00,Western Union,Q861042
8b993267ea8c3e608d69e6b0d73b3804,western_union,WAFACASH AOULOUZ GFC,,Aoulouz,TAROUDANNT,,MA,+212 5224-35050,https://location.westernunion.com/ma/taroudannt/aoulouz/8b993267ea8c3e608d69e6b0d73b3804,Mo-Su 08:00-24:00,Western Union,Q861042
3a875c6c88b93d9d6c2c6475952d3c77,western_union,SOCIETE OUSSAYMA FRERES SARL,,Ouled Berhil,TAROUDANNT,,MA,+212 661-661126,https://location.westernunion.com/ma/taroudannt/ouled-berhil/3a875c6c88b93d9d6c2c6475952d3c77,Mo-Su 07:00-24:00,Western Union,Q861042
20f10267f64ab030aa0e033048cafaae,western_union,OLD BERHIL BLOC 9,,Old Berhil,TAROUDANNT,,MA,+212 5224-29030,https://location.westernunion.com/ma/taroudannt/old-berhil/20f10267f64ab030aa0e033048cafaae,Mo-Su 08:00-22:00,Western Union,Q861042
9443adbd9584d9e1e84b67dbddf9479e,western_union,WAFACASH OULED BERHIL AMN,,Oulad Berhil,TAROUDANNT,,MA,(+212) 522-435050-5116,https://location.westernunion.com/ma/taroudannt/oulad-berhil/9443adbd9584d9e1e84b67dbddf9479e,Mo-Su 08:00-24:00,Western Union,Q861042
df75052d1b274b49313d11a8cd007b31,western_union,WAFACASH IGHERM CENTRE  AFN,,Igherm,TAROUDANNT,,MA,+212 5224-35050,https://location.westernunion.com/ma/taroudannt/igherm/df75052d1b274b49313d11a8cd007b31,Mo-Su 08:00-24:00,Western Union,Q861042
1269bdd3fe432bcd1ac606c6358c27d1,western_union,CASH PLUS ARAZANE,,Arazane,TAROUDANNT,,MA,+212 5288-52182,https://location.westernunion.com/ma/taroudannt/arazane/1269bdd3fe432bcd1ac606c6358c27d1,Mo-Su 00:01-24:00,Western Union,Q861042
459d402d49bf198850adbafffa014962,western_union,ASSOCIATION AL AMANA IRHERM,,Taroudannt,TAROUDANNT,,MA,(+212) 522-435050-5116,https://location.westernunion.com/ma/taroudannt/taroudannt/459d402d49bf198850adbafffa014962,Mo-Su 08:00-24:00,Western Union,Q861042
469d7d26511575b65fa44cd7ece8b975,western_union,CASH PLUS CENTRE AIT IAAZA,,Ait Iaaza,TAROUDANNT,,MA,+212 5285-36023,https://location.westernunion.com/ma/taroudannt/ait-iaaza/469d7d26511575b65fa44cd7ece8b975,Mo-Su 00:01-24:00,Western Union,Q861042
a6e0e12c7c995223abbfb15a2b63e88c,western_union,WAFACASH AIT IAAZA HAY SALAM AMN,,Taroudant,TAROUDANNT,,MA,(+212) 522-435050-2601,https://location.westernunion.com/ma/taroudannt/taroudant/a6e0e12c7c995223abbfb15a2b63e88c,Mo-Su 08:00-24:00,Western Union,Q861042
ba8b7aa277a6aded3ae1717da51c9fa6,western_union,WAFACASH AIT IAAZA  PF,,Taroudant,TAROUDANNT,,MA,+212 5224-35050,https://location.westernunion.com/ma/taroudannt/taroudant/ba8b7aa277a6aded3ae1717da51c9fa6,Mo-Su 08:00-24:00,Western Union,Q861042
cb0b3314b180e17822072e97a5aec9cf,western_union,JAMAA LKBIR TAROUDANTE,,Taroudant,TAROUDANNT,,MA,+212 661-389489,https://location.westernunion.com/ma/taroudannt/taroudant/cb0b3314b180e17822072e97a5aec9cf,Mo-Su 00:01-24:00,Western Union,Q861042
eeaa2ce898bda4feed02e3e1212620c2,western_union,WAFAACSH TAROUDANT AKNIS  AMN,,Taroudant,TAROUDANNT,,MA,+212 5224-35050,https://location.westernunion.com/ma/taroudannt/taroudant/eeaa2ce898bda4feed02e3e1212620c2,Mo-Su 08:00-24:00,Western Union,Q861042
8f9f82fcdb647af2cb9bed2c116b5035,western_union,CASH PLUS TAROUDANTE,,Taroudant,TAROUDANNT,,MA,+212 5285-51997,https://location.westernunion.com/ma/taroudannt/taroudant/8f9f82fcdb647af2cb9bed2c116b5035,Mo-Su 00:01-24:00,Western Union,Q861042
6150b67feb3ba901273840fbcc0da744,western_union,CASH PLUS TAROUDANT,,Taroudant,TAROUDANNT,,MA,(+212) 751846-254391,https://location.westernunion.com/ma/taroudannt/taroudant/6150b67feb3ba901273840fbcc0da744,Mo-Su 00:01-24:00,Western Union,Q861042
3fbdd15e071546fd76c9a3ae4d487db5,western_union,TAROUDANT SKOURI,,Taroudant,TAROUDANNT,,MA,+212 641-183821,https://location.westernunion.com/ma/taroudannt/taroudant/3fbdd15e071546fd76c9a3ae4d487db5,Mo-Su 00:01-24:00,Western Union,Q861042
ed9f7e73b76c05cc12961cffc2085d3e,western_union,TAROUDANT MOUKHTAR SOUSSI,,Taroudant,TAROUDANNT,,MA,+212 5224-29030,https://location.westernunion.com/ma/taroudannt/taroudant/ed9f7e73b76c05cc12961cffc2085d3e,Mo-Su 08:00-22:00,Western Union,Q861042
c9e74013f8eb3b8c626132b8b023f1f1,western_union,CANALM TAROUDANTE,,Taroudante,TAROUDANNT,,MA,+212 5224-29030,https://location.westernunion.com/ma/taroudannt/taroudante/c9e74013f8eb3b8c626132b8b023f1f1,Mo-Su 08:00-23:00,Western Union,Q861042
0073031bc64d96edbcf18434ab3189d9,western_union,WAFACASH TAROUDANT LMHAYTA  IL,,Taroudant,TAROUDANNT,,MA,+212 5224-35050,https://location.westernunion.com/ma/taroudannt/taroudant/0073031bc64d96edbcf18434ab3189d9,Mo-Su 08:00-24:00,Western Union,Q861042
46f7d50ff0bf08f3bac5471f22d48b80,western_union,SAHATEL TAROUDANT HADDADA,,Taroudant,TAROUDANNT,,MA,+212 5288-51807,https://location.westernunion.com/ma/taroudannt/taroudant/46f7d50ff0bf08f3bac5471f22d48b80,Mo-Su 07:00-24:00,Western Union,Q861042
0dc194f5eb7fbedc5a42a740d5fb0d1d,western_union,WAFACASH SEBT L GUERDANE SOUK,,Sebt El Guerdane,TAROUDANNT,,MA,+212 5224-35050,https://location.westernunion.com/ma/taroudannt/sebt-el-guerdane/0dc194f5eb7fbedc5a42a740d5fb0d1d,Mo-Su 08:00-24:00,Western Union,Q861042
81c42436de80a49e5b64c1950128c9b5,western_union,WAFACASH TAROUDANT BAB KHMIS AMN,,Taroudant,TAROUDANNT,,MA,(+212) 522-435050-2601,https://location.westernunion.com/ma/taroudannt/taroudant/81c42436de80a49e5b64c1950128c9b5,Mo-Su 08:00-24:00,Western Union,Q861042
bad12784269cf7ddc2badcecb9622480,western_union,MISSOU CAR,,Taroudant,TAROUDANNT,,MA,+212 661-472330,https://location.westernunion.com/ma/taroudannt/taroudant/bad12784269cf7ddc2badcecb9622480,Mo-Su 07:00-24:00,Western Union,Q861042
984904459ff6dcea71f1bd8206b975ff,western_union,WAFACASH EL KOLEA CENTRE GSM,,Taroudant,TAROUDANNT,,MA,+212 5224-35050,https://location.westernunion.com/ma/taroudannt/taroudant/984904459ff6dcea71f1bd8206b975ff,Mo-Su 08:00-24:00,Western Union,Q861042
cf5ed6c5d37b7d085f170be6695660dc,western_union,DC TAROUDANT BAB KHMISS,,Taroudant,TAROUDANNT,,MA,+212 672-621319,https://location.westernunion.com/ma/taroudannt/taroudant/cf5ed6c5d37b7d085f170be6695660dc,Mo-Su 08:00-24:00,Western Union,Q861042
4a4a1eed0f6293289316c010dae33c11,western_union,WAFACASH TAROUDANT PF,,Taroudant,TAROUDANNT,,MA,+212 5224-35050,https://location.westernunion.com/ma/taroudannt/taroudant/4a4a1eed0f6293289316c010dae33c11,Mo-Su 08:00-24:00,Western Union,Q861042
5504a2a88a3fedd7d4600eb266c6ece1,western_union,ASSOCIATION AL AMANA TAFRAOUT RTE AMIAN,,Taroudannt,TAROUDANNT,,MA,(+212) 522-435050-5116,https://location.westernunion.com/ma/taroudannt/taroudannt/5504a2a88a3fedd7d4600eb266c6ece1,Mo-Su 08:00-24:00,Western Union,Q861042
8ba831528cf1d69f1e5e7de722261f2e,western_union,HAY SAFSAF,,Sebt El Gordane,TAROUDANNT,,MA,+212 661-136928,https://location.westernunion.com/ma/taroudannt/sebt-el-gordane/8ba831528cf1d69f1e5e7de722261f2e,Mo-Su 00:01-24:00,Western Union,Q861042
77bed18c8705eb8708d37ca64e641573,western_union,WAFACASH SEBT EL GUERDANE AMN,,Taroudant,TAROUDANNT,,MA,(+212) 522-435050-2601,https://location.westernunion.com/ma/taroudannt/taroudant/77bed18c8705eb8708d37ca64e641573,Mo-Su 08:00-24:00,Western Union,Q861042
f663a456996642bd99d7f561668c8888,western_union,WAFACASH DOUAR HMAR AMN,,Taroudant,TAROUDANNT,,MA,(+212) 522-435050-2601,https://location.westernunion.com/ma/taroudannt/taroudant/f663a456996642bd99d7f561668c8888,Mo-Su 08:00-24:00,Western Union,Q861042
fa9bdfe461cd1d6df0d9458daef26a3b,western_union,WAFACASH OULED TEIMA HAY RABIH,,Ouled Teima,TAROUDANNT,,MA,+212 5224-35050,https://location.westernunion.com/ma/taroudannt/ouled-teima/fa9bdfe461cd1d6df0d9458daef26a3b,Mo-Su 08:00-24:00,Western Union,Q861042
85bc85a83ec298dd2feb659657b7ade2,western_union,STE QELEC SARL AU,,Oulad Teima,TAROUDANNT,,MA,+212 661-285831,https://location.westernunion.com/ma/taroudannt/oulad-teima/85bc85a83ec298dd2feb659657b7ade2,Mo-Su 08:00-23:00,Western Union,Q861042
93b52402a64320a43ceab06d4b4f1485,western_union,MOHAMED V,,Oulad Teima,TAROUDANNT,,MA,+212 614-751986,https://location.westernunion.com/ma/taroudannt/oulad-teima/93b52402a64320a43ceab06d4b4f1485,Mo-Su 00:01-24:00,Western Union,Q861042
749290dcd58535048fe4cb44cadb24a6,western_union,WAFACASH CHRARDA RTE OULED TEI,,Ouled Teima,TAROUDANNT,,MA,+212 5224-35050,https://location.westernunion.com/ma/taroudannt/ouled-teima/749290dcd58535048fe4cb44cadb24a6,Mo-Su 08:00-24:00,Western Union,Q861042
503c0d8efd26fc6afab1a5d6e82ce368,western_union,WAFACASH DOUAR HMER CENTRE  WR,,Taroudant,TAROUDANNT,,MA,+212 5224-35050,https://location.westernunion.com/ma/taroudannt/taroudant/503c0d8efd26fc6afab1a5d6e82ce368,Mo-Su 08:00-24:00,Western Union,Q861042
55ccc97f830cd5033a641588fef70932,western_union,WAFACASH TAROUDANT TAGHOUNT  P,,Taroudant,TAROUDANNT,,MA,+212 5224-35050,https://location.westernunion.com/ma/taroudannt/taroudant/55ccc97f830cd5033a641588fef70932,Mo-Su 08:00-24:00,Western Union,Q861042
3a5f7339747e259c9f8de46b0e773ea7,western_union,WAFACASH TAROUDANT TALMEKLATE GFC,,Taroudant,TAROUDANNT,,MA,+212 5224-35050,https://location.westernunion.com/ma/taroudannt/taroudant/3a5f7339747e259c9f8de46b0e773ea7,Mo-Su 08:00-24:00,Western Union,Q861042
95020ced8363add26ed7df62883fc679,western_union,WAFACASH TAROUDANT BAB ZORGUAN,,Taroudant,TAROUDANNT,,MA,+212 5224-35050,https://location.westernunion.com/ma/taroudannt/taroudant/95020ced8363add26ed7df62883fc679,Mo-Su 08:00-24:00,Western Union,Q861042
1cd97d00243f0941183dbf0491326084,western_union,OULED TAIMA,,Ouled Teima,TAROUDANNT,,MA,+212 661-442800,https://location.westernunion.com/ma/taroudannt/ouled-teima/1cd97d00243f0941183dbf0491326084,Mo-Su 00:01-24:00,Western Union,Q861042
25cacd2dab2ad40e9a3eb8710dced34c,western_union,WAFACASH OULAD TEIMA MARCHE MUN ILC,,Ouled Teima,TAROUDANNT,,MA,+212 5224-35050,https://location.westernunion.com/ma/taroudannt/ouled-teima/25cacd2dab2ad40e9a3eb8710dced34c,Mo-Su 08:00-24:00,Western Union,Q861042
ec07b166f23200b552874986c197aa84,western_union,STE IMRINS EXPRESS SARL AU,,Oulad Teima,TAROUDANNT,,MA,+212 635-923758,https://location.westernunion.com/ma/taroudannt/oulad-teima/ec07b166f23200b552874986c197aa84,Mo-Su 07:00-24:00,Western Union,Q861042
9a7b315726327f1dbc256316f80e104a,western_union,ASSOCIATION AL AMANA OULED TEI,,Ouled Teima,TAROUDANNT,,MA,+212 5224-35050,https://location.westernunion.com/ma/taroudannt/ouled-teima/9a7b315726327f1dbc256316f80e104a,Mo-Su 08:00-24:00,Western Union,Q861042
da05664bb5b7f1bf616c73898cbe1ab6,western_union,WAFACASH OULED TEIMA,,Ouled Teima,TAROUDANNT,,MA,+212 5224-35050,https://location.westernunion.com/ma/taroudannt/ouled-teima/da05664bb5b7f1bf616c73898cbe1ab6,Mo-Su 08:00-24:00,Western Union,Q861042
a8def6496d99838aa75b407791f2b7a8,western_union,WAFACASH OULAD TEIMA Q ADMIN AMN,,Ouled Teima,TAROUDANNT,,MA,(+212) 522-435050-2601,https://location.westernunion.com/ma/taroudannt/ouled-teima/a8def6496d99838aa75b407791f2b7a8,Mo-Su 08:00-24:00,Western Union,Q861042
71270c0c98f67fbf70dfab415e17c3e6,western_union,AL BARID BANK OULED TEIMA  HAY MOHAMMADI,,Ouled Teima,TAROUDANNT,,MA,+212 5275-21537,https://location.westernunion.com/ma/taroudannt/ouled-teima/71270c0c98f67fbf70dfab415e17c3e6,Mo-Fr 07:00-21:00; Sa 07:00-16:30; Su 07:00-24:00,Western Union,Q861042
7e3999ba20b3a4edb831b1a390cd0439,western_union,WAFACASH OULED TEIMA MARCHE DE,,Ouled Teima,TAROUDANNT,,MA,(+212) 225-435050,https://location.westernunion.com/ma/taroudannt/ouled-teima/7e3999ba20b3a4edb831b1a390cd0439,Mo-Su 08:00-24:00,Western Union,Q861042
ce8402f42ee3a22e5edb1df546c0bbe0,western_union,CASH PLUS TAGADIRT,,Tagadirt,TAROUDANNT,,MA,+212 612-751986,https://location.westernunion.com/ma/taroudannt/tagadirt/ce8402f42ee3a22e5edb1df546c0bbe0,Mo-Su 00:01-24:00,Western Union,Q861042
bb187f36a0796d0ebdde307cff41eb5d,western_union,BCP LQLIAA OUFLA,,Taroudant,TAROUDANNT,,MA,+212 5283-12295,https://location.westernunion.com/ma/taroudannt/taroudant/bb187f36a0796d0ebdde307cff41eb5d,Mo-Su 08:00-18:00,Western Union,Q861042
15ccfdc8a34f05eee295692e2735a04c,western_union,CASH PLUS SA SOUK OULED TAIMA SOUK,,Oulad Taema,TAROUDANNT,,MA,+212 667-819014,https://location.westernunion.com/ma/taroudannt/oulad-taema/15ccfdc8a34f05eee295692e2735a04c,Mo-Su 00:01-24:00,Western Union,Q861042
14c690b727220bffe56515d350a83d3f,western_union,CENTRE ISSEN,,Issen,TAROUDANNT,,MA,+212 525-012399,https://location.westernunion.com/ma/taroudannt/issen/14c690b727220bffe56515d350a83d3f,Mo-Su 00:01-24:00,Western Union,Q861042
6ec22358aa17d43e9d5c1b8a8bbabf94,western_union,LAGFIFAT SCA,,Taroudant,TAROUDANNT,,MA,+212 5224-35050,https://location.westernunion.com/ma/taroudannt/taroudant/6ec22358aa17d43e9d5c1b8a8bbabf94,Mo-Su 08:00-24:00,Western Union,Q861042
a6a5a1a61a89d1ccbebaae89ef52de7b,western_union,ZAOUIYAT SIDI TAHER,,Taroudant,TAROUDANNT,,MA,+212 662-578303,https://location.westernunion.com/ma/taroudannt/taroudant/a6a5a1a61a89d1ccbebaae89ef52de7b,Mo-Su 00:01-24:00,Western Union,Q861042
a9febc18e0d448a914627e29c00dea1a,western_union,OULED BERHIL 2,,Ouled Berhil,TAROUDANNT,,MA,+212 661-480814,https://location.westernunion.com/ma/taroudannt/ouled-berhil/a9febc18e0d448a914627e29c00dea1a,Mo-Su 00:01-24:00,Western Union,Q861042
5094617ac275c6c684fa588a0aa15510,western_union,CASH PLUS ASSAKI,,Assaki,TAROUDANNT,,MA,+212 5285-34109,https://location.westernunion.com/ma/taroudannt/assaki/5094617ac275c6c684fa588a0aa15510,Mo-Su 00:01-24:00,Western Union,Q861042
2dc7aa1018e8fc5e6707564f6025e521,western_union,OUZIOUIA,,Taroudant,TAROUDANNT,,MA,+212 641-638432,https://location.westernunion.com/ma/taroudannt/taroudant/2dc7aa1018e8fc5e6707564f6025e521,Mo-Su 00:01-24:00,Western Union,Q861042
c2e22a8b8e093875bdd118277797bb1b,western_union,AL BARID BANK OULAD BERREHIL,,Oulad Berhil,TAROUDANNT,,MA,+212 5285-31315,https://location.westernunion.com/ma/taroudannt/oulad-berhil/c2e22a8b8e093875bdd118277797bb1b,Mo-Fr 07:00-21:00; Sa 07:00-16:30; Su 07:00-24:00,Western Union,Q861042
03b248cbb3ae770e7609556d321f7472,western_union,HAY BLALIAA,,Taroudante,TAROUDANNT,,MA,+212 661-575306,https://location.westernunion.com/ma/taroudannt/taroudante/03b248cbb3ae770e7609556d321f7472,Mo-Su 00:01-24:00,Western Union,Q861042
