Ref,Spider,Name,Address,City,State,Zipcode,Country,Phone,Website,Hours,Brand,WikiData
31165_1,bmw_group,Radulovic d.o.o,,Belgrade,,,RS,+381 11 2080180,https://www.bmw-voli.me,,BMW,Q26678
8484,church_of_england_gb,St Mary,"The Winter Chapel, Makedonska 23, Belgrade",,,,RS,+381 63 7502469,https://www.achurchnearyou.com/church/8484/,,,
131,dan_john,Dan John Belgrado Mihailova,,Belgrado,,,RS,+381 62 772262,https://stores.danjohn.com/en/serbia/dan-john-belgrado-mihailova,,Dan John,Q116304215
rs:151,dm,dm drogerie markt doo,,Beograd,,,RS,+381 11 6979008,https://www.dm.rs/store/j067/beograd/dunavska-2a,Mo-Sa 08:00-21:00; Su 09:00-15:00,dm,Q266572
0001056378,ecco,ECCO IPM,,Beograd,,,RS,+381 11 4024307,,Mo-Su 09:00-22:00,Ecco,Q1280255
0001054422,ecco,ECCO Ada Mall Belgrade,,Beograd,,,RS,+381 11 4022183,,Mo-Su 09:00-22:00,Ecco,Q1280255
0001046680,ecco,ECCO Uzun Mirkova Belgrade,,Belgrade,,,RS,+381 11 4095288,,Mo-Su 09:00-21:00,Ecco,Q1280255
110638,geox,Geox BELGRADE,,BELGRADE,,,RS,,https://www.geox.com/int/storedetails?StoreID=110638,,Geox,Q588001
110641,geox,Geox BELGRADE,,BELGRADE,,,RS,,https://www.geox.com/int/storedetails?StoreID=110641,,Geox,Q588001
110643,geox,Geox BELGRADE,,BELGRADE,,,RS,,https://www.geox.com/int/storedetails?StoreID=110643,,Geox,Q588001
124911,geox,Geox BELGRADE,,BELGRADE,,,RS,,https://www.geox.com/int/storedetails?StoreID=124911,,Geox,Q588001
125582,geox,Geox BELGRADE,,BELGRADE,,,RS,,https://www.geox.com/int/storedetails?StoreID=125582,,Geox,Q588001
110642,geox,Geox BELGRADE,,BELGRADE,,,RS,,https://www.geox.com/int/storedetails?StoreID=110642,,Geox,Q588001
RS0503,hm,Delta City,,Belgrade,,,RS,+381 11 4112601,,Mo-Su 10:00-22:00,H&M,Q188326
RS0508,hm,Knez Mihaijlova 14-16,,Belgrade,,,RS,+381 11 4112620,,Mo-Sa 09:00-22:00; Su 10:00-20:00,H&M,Q188326
RS0513,hm,BIG Fashion,,Belgrade,,,RS,+381 11 4130800,,Mo-Su 10:00-22:00,H&M,Q188326
RS0517,hm,Ada Mall,,Belgrade,,,RS,+381 11 4252220,,Mo-Su 10:00-22:00,H&M,Q188326
RS0519,hm,BEO Belgrade,,Belgrade,,,RS,+381 11 6351235,,Mo-Su 10:00-22:00,H&M,Q188326
RS0520,hm,Sava Promenade,,Belgrade,,,RS,+381-7450588,,Mo-Su 10:00-22:00,H&M,Q188326
Y141,jysk,"Vračar, Beograd",,Beograd,,,RS,+381 11 6555945,https://jysk.rs/prodavnice?storeId=Y141,Mo-Sa 09:00-21:00; Su 09:00-17:00,JYSK,Q138913
Y116,jysk,"Voždovac, Beograd",,Beograd (TC Stadion),,,RS,+381 11 6555945,https://jysk.rs/prodavnice?storeId=Y116,Mo-Su 10:00-22:00,JYSK,Q138913
Y112,jysk,"Karaburma, Beograd",,Beograd,,,RS,+381 11 6555945,https://jysk.rs/prodavnice?storeId=Y112,Mo-Su 09:30-22:00,JYSK,Q138913
Y124,jysk,"Zvezdara, Beograd",,Beograd,,,RS,+381 11 6555945,https://jysk.rs/prodavnice?storeId=Y124,Mo-Su 10:00-22:00,JYSK,Q138913
Y128,jysk,"Zemun Park, Beograd",,Beograd,,,RS,+381 11 6555945,https://jysk.rs/prodavnice?storeId=Y128,Mo-Su 10:00-22:00,JYSK,Q138913
4498,lukoil,Aerodrom,"highway Belgrade - Sid, 296, 11000, Belgrade",Belgrade,,,RS,,,24/7,Lukoil,Q329347
BEGCY,marriott,Courtyard Belgrade City Center,,Belgrade,,,RS,+381 11 4003000,https://www.marriott.com/BEGCY,,Courtyard by Marriott,Q1053170
BEGOX,marriott,Moxy Belgrade,,Belgrade,,,RS,+381 11 3661100,https://www.marriott.com/BEGOX,,Moxy Hotels,Q70287020
BEGXR,marriott,The St. Regis Belgrade,,Belgrade,,,RS,+381 64 6666061,https://www.marriott.com/BEGXR,,St. Regis Hotels & Resorts,Q30715430
71985701,moneygram,MONETA -S - #1 - BEOGRAD,,BEOGRAD,,,RS,+381 60 4949666,,Mo-Fr 08:00-16:30; Sa 09:00-12:00; Su 00:00-24:00,MoneyGram,Q1944412
71865643,moneygram,MONETA - KSR BEOTURIST - #1 - BEOGRAD,,BEOGRAD,,,RS,+381 63 477631,,Mo-Fr 08:00-22:00; Sa-Su 10:00-22:00,MoneyGram,Q1944412
71859947,moneygram,GONZO - #1 - BEOGRAD,,BEOGRAD,,,RS,+381 11 3835355,,Mo-Fr 07:30-20:00; Sa 07:30-15:00; Su 00:00-24:00,MoneyGram,Q1944412
72185490,moneygram,MONETA-L&N CO DOO,,BEOGRAD,,,RS,+381 11 2423959,,Mo-Sa 08:00-19:00; Su 08:00-15:00,MoneyGram,Q1944412
72185500,moneygram,MONETA-L&N CO DOO,,BEOGRAD,,,RS,+381 11 3249262,,Mo-Fr 08:00-20:00; Sa 08:00-16:00; Su 00:00-24:00,MoneyGram,Q1944412
72185513,moneygram,MONETA-L&N CO DOO,,BEOGRAD,,,RS,+381 11 3167457,,Mo-Fr 08:00-18:00; Sa 08:00-15:00; Su 08:00-13:00,MoneyGram,Q1944412
72185526,moneygram,MONETA-L&N CO DOO,,BEOGRAD,,,RS,+381 11 3167000,,Mo-Fr 08:00-20:00; Sa 08:00-16:00; Su 00:00-24:00,MoneyGram,Q1944412
72185539,moneygram,MONETA-L&N CO DOO,,BEOGRAD,,,RS,+381 11 39308888,,Mo-Fr 08:00-20:00; Sa 08:00-15:00; Su 08:00-13:00,MoneyGram,Q1944412
72185542,moneygram,MONETA-L&N CO DOO,,BEOGRAD,,,RS,+381 11 3189222,,Mo-Su 09:00-16:00,MoneyGram,Q1944412
72185555,moneygram,MONETA-L&N CO DOO,,BEOGRAD,,,RS,+381 11 2169442,,Mo-Sa 09:00-20:00; Su 09:00-19:00,MoneyGram,Q1944412
72185568,moneygram,MONETA-L&N CO DOO,,BEOGRAD,,,RS,+381 11 2411555,,Mo-Sa 08:00-20:00; Su 00:00-24:00,MoneyGram,Q1944412
72185571,moneygram,MONETA-L&N CO DOO,,BEOGRAD,,,RS,+381 11 2139480,,Mo-Fr 08:00-20:00; Sa 08:00-16:00; Su 00:00-24:00,MoneyGram,Q1944412
72185584,moneygram,MONETA-L&N CO DOO,,BEOGRAD,,,RS,+381 11 2147848,,Mo-Fr 08:00-20:00; Sa 08:00-16:00; Su 00:00-24:00,MoneyGram,Q1944412
72185597,moneygram,MONETA-L&N CO DOO,,BEOGRAD,,,RS,+381 11 3246640,,Mo-Fr 08:00-20:00; Sa 08:00-15:00; Su 00:00-24:00,MoneyGram,Q1944412
72185607,moneygram,MONETA-L&N CO DOO,,BEOGRAD,,,RS,+381 11 2752341,,Mo-Fr 09:00-16:00; Sa-Su 00:00-24:00,MoneyGram,Q1944412
72185623,moneygram,MONETA-L&N CO DOO,,BEOGRAD,,,RS,+381 11 2675000,,Mo-Su 10:00-22:00,MoneyGram,Q1944412
72185636,moneygram,MONETA-L&N CO DOO,,BEOGRAD,,,RS,+381 11 8036618,,Mo-Sa 08:00-20:00; Su 08:00-13:00,MoneyGram,Q1944412
72185649,moneygram,MONETA-L&N CO DOO,,BEOGRAD,,,RS,+381 11 3448486,,Mo-Fr 08:00-20:00; Sa 08:00-16:00; Su 00:00-24:00,MoneyGram,Q1944412
72185678,moneygram,MONETA-L&N CO DOO,,BEOGRAD,,,RS,+381 11 3910555,,Mo-Fr 08:00-20:00; Sa 08:00-16:00; Su 00:00-24:00,MoneyGram,Q1944412
72185681,moneygram,MONETA-L&N CO DOO,,BEOGRAD,,,RS,+381 11 3572502,,Mo-Fr 08:00-20:00; Sa 08:00-16:00; Su 00:00-24:00,MoneyGram,Q1944412
72185694,moneygram,MONETA-L&N CO DOO,,BEOGRAD,,,RS,+381 11 6309369,,Mo-Su 08:00-22:00,MoneyGram,Q1944412
72185717,moneygram,MONETA-L&N CO DOO,,BEOGRAD,,,RS,+381 11 3287225,,Mo-Fr 08:00-20:00; Sa 08:00-16:00; Su 00:00-24:00,MoneyGram,Q1944412
72185720,moneygram,MONETA-L&N CO DOO,,BEOGRAD,,,RS,+381 11 3670936,,Mo-Fr 08:00-20:00; Sa 08:00-16:00; Su 00:00-24:00,MoneyGram,Q1944412
72185733,moneygram,MONETA-L&N CO DOO,,BEOGRAD,,,RS,+381 11 3540851,,Mo-Fr 08:00-20:00; Sa 08:00-16:00; Su 00:00-24:00,MoneyGram,Q1944412
72185746,moneygram,MONETA-L&N CO DOO,,BEOGRAD,,,RS,+381 11 6301221,,Mo-Su 08:00-21:00,MoneyGram,Q1944412
72185759,moneygram,MONETA-L&N CO DOO,,BEOGRAD,,,RS,+381 64 6493151,,Mo-Su 08:00-21:00,MoneyGram,Q1944412
72185775,moneygram,MONETA-L&N CO DOO,,BEOGRAD,,,RS,+381 11 3181303,,Mo-Sa 08:00-21:00; Su 10:00-18:00,MoneyGram,Q1944412
72186774,moneygram,ALTA #13-SC ADA MALL,,BEOGRAD,,,RS,+381 16 84488,,Mo-Su 08:00-22:00,MoneyGram,Q1944412
72185487,moneygram,MONETA-L&N CO DOO,,BEOGRAD-VRACAR,,,RS,+381 11 2459977,,Mo-Fr 08:00-20:00; Sa 08:00-16:00; Su 00:00-24:00,MoneyGram,Q1944412
72131509,moneygram,VIP #01 - RESAVSKA 2,,BEOGRAD,,,RS,+381 11 3233901,,Mo-Fr 08:00-20:15; Sa 08:00-17:15; Su 09:00-16:15,MoneyGram,Q1944412
72131570,moneygram,VIP #06 - TC USCE -2 NIVO,,BEOGRAD,,,RS,+381 11 3120110,,Mo-Su 10:00-22:15,MoneyGram,Q1944412
72131596,moneygram,VIP #08 - AUTO PUT ZA NOVI SAD - TEMPO,,BEOGRAD,,,RS,+381 11 628003923,,Mo-Fr 08:00-21:15; Sa 08:00-20:15; Su 08:00-21:00,MoneyGram,Q1944412
72131622,moneygram,VIP #10 - ZELEZNICKA 4 I,,BEOGRAD,,,RS,+381 11 4252243,,Mo-Su 07:00-15:15,MoneyGram,Q1944412
72131619,moneygram,VIP #09 - BULEVAR KRALJA ALEKSANDRA 116,,BEOGRAD,,,RS,+381 11 2400028,,Mo-Fr 08:00-21:45; Sa 08:00-20:15; Su 00:00-24:00,MoneyGram,Q1944412
72131680,moneygram,VIP #15 - BULEVAR OSLOBODJENJA 1,,BEOGRAD,,,RS,+381 11 4252241,,Mo-Fr 08:00-20:15; Sa 08:00-17:15; Su 00:00-24:00,MoneyGram,Q1944412
72131761,moneygram,VIP #21 - TRGOVACKA 9A,,BEOGRAD,,,RS,+381 11 2360022,,Mo-Fr 08:00-20:00; Sa 08:00-17:00; Su 00:00-24:00,MoneyGram,Q1944412
72197844,moneygram,MONETA- STANKOMERC S - BEOGRAD,,BEOGRAD,,,RS,+381 11 8484939,,Mo-Su 07:00-22:00,MoneyGram,Q1944412
72131758,moneygram,VIP #20 - VISNJICKA 84,,BEOGRAD,,,RS,+381 11 4072246,,Mo-Su 10:00-22:15,MoneyGram,Q1944412
72131703,moneygram,VIP #17 - AERODROM BEOGRAD,,BEOGRAD,,,RS,+381 11 2286280,,Mo-Su 06:00-20:00,MoneyGram,Q1944412
72210145,moneygram,VIP #27 - RADNICKA 9 ADA,,BEOGRAD,,,RS,+381 11 7450345,,Mo-Su 10:00-22:00,MoneyGram,Q1944412
72131635,moneygram,VIP #11 - ZELEZNICKA 4 II,,BEOGRAD,,,RS,+381 11 4252244,,Mo-Su 08:00-20:15,MoneyGram,Q1944412
72131790,moneygram,VIP #22 - DR. IVANA RIBARA 91,,BEOGRAD,,,RS,+381 11 2284380,,Mo-Fr 08:00-20:15; Sa 08:00-17:15; Su 08:00-15:15,MoneyGram,Q1944412
72131541,moneygram,VIP #03 - PARTIZANSKE AVIJACIJE BB,,BEOGRAD,,,RS,+381 11 4252252,,Mo-Su 08:00-21:15,MoneyGram,Q1944412
72219405,moneygram,MONETA- BAJIC,,BEOGRAD - VOZDOVAC,,,RS,+381 11 3978544,,Mo-Sa 08:00-21:00; Su 09:00-16:00,MoneyGram,Q1944412
72219418,moneygram,MONETA- BAJIC,,BEOGRAD,,,RS,+381 11 2443234,,Mo-Sa 08:00-21:00; Su 00:00-24:00,MoneyGram,Q1944412
72219421,moneygram,MONETA- BAJIC,,BEOGRAD,,,RS,+381 11 2382551,,Mo-Sa 08:00-21:00; Su 00:00-24:00,MoneyGram,Q1944412
72219434,moneygram,MONETA- BAJIC,,BEOGRAD,,,RS,+381 63 213166,,Mo-Sa 08:00-21:00; Su 00:00-24:00,MoneyGram,Q1944412
72131693,moneygram,VIP #16 - GANDIJEVA 21,,BEOGRAD,,,RS,+381 11 4252253,,Mo-Su 09:00-21:45,MoneyGram,Q1944412
72045378,moneygram,MONETA - EVON WINNER - #9 - BEOGRAD,,BEOGRAD,,,RS,+381 60 5559240,,Mo-Su 09:00-21:00,MoneyGram,Q1944412
72131716,moneygram,VIP #18 - BULEVAR ARSENIJA CARNOJEVICA 3,,BEOGRAD,,,RS,+381 11 4252247,,Mo-Su 07:00-23:15,MoneyGram,Q1944412
71868019,moneygram,PE POST OF SERBIA BELGRADE - #11000 - B,,BEOGRAD,,,RS,+381 11 3643100,,Mo-Su 08:00-19:00,MoneyGram,Q1944412
72261796,moneygram,GELD 14,,BEOGRAD,,,RS,+381 60 3532865,,Mo-Sa 08:00-22:00; Su 08:00-16:00,MoneyGram,Q1944412
72262148,moneygram,MONETA- MN,,ZVEZDARA,,,RS,+381 11 3477515,,Mo-Fr 08:00-19:00; Sa 09:00-15:00; Su 00:00-24:00,MoneyGram,Q1944412
72272536,moneygram,MONETA- DIPLOMAT PAY,,BEOGRAD,,,RS,+381 62 382173,,Mo-Su 10:00-22:00,MoneyGram,Q1944412
72280586,moneygram,TRANGE-FRANGE - BEOGRAD,,BEOGRAD,,,RS,+381 11 24444448,,Mo-Fr 08:00-20:00; Sa 08:00-17:00; Su 00:00-24:00,MoneyGram,Q1944412
72280599,moneygram,TRANGE-FRANGE #2 - BUL.ZORANA DJINDJICA,,BEOGRAD,,,RS,+381 11 313105,,Mo-Fr 07:30-20:00; Sa 07:30-18:00; Su 00:00-24:00,MoneyGram,Q1944412
72280609,moneygram,TRANGE-FRANGE #3 - VOJVODE STEPE - BEOGR,,BEOGRAD,,,RS,+381 11 2432131,,Mo-Fr 07:00-20:00; Sa-Su 07:00-18:00,MoneyGram,Q1944412
72287408,moneygram,SANJA 1,,BEOGRAD-CUKARICA,,,RS,+381 11 7543745,,Mo-Fr 09:00-20:00; Sa 09:00-15:00; Su 00:00-24:00,MoneyGram,Q1944412
72290518,moneygram,PARTNER 011,,STARI GRAD,,,RS,+381 69 3505155,,Mo-Sa 08:00-20:00; Su 08:00-17:00,MoneyGram,Q1944412
72308002,moneygram,UNO KAFE,,BEOGRAD,,,RS,+381 11 3544885,,Mo-Fr 08:00-20:00; Sa 08:00-14:00; Su 00:00-24:00,MoneyGram,Q1944412
72320899,moneygram,BAJIC,,BEOGRAD- VOZDOVAC,,,RS,+381 63 213166,,Mo-Sa 08:00-21:00; Su 00:00-24:00,MoneyGram,Q1944412
72322648,moneygram,EURODARK,,BEOGRAD,,,RS,+381 65 5202500,,Mo-Fr 08:00-20:00; Sa 08:00-15:00; Su 00:00-24:00,MoneyGram,Q1944412
72131567,moneygram,VIP #05 - TC USCE I SPRAT,,BEOGRAD,,,RS,+381 11 3121854,,Mo-Su 10:00-22:15,MoneyGram,Q1944412
72131525,moneygram,VIP #02 - HERCEGOVACKA 14,,BEOGRAD,,,RS,+381 11 7357499,,Mo-Fr 08:00-20:00; Sa 08:00-17:00; Su 00:00-24:00,MoneyGram,Q1944412
72344493,moneygram,BRSA,,BEOGRAD- VOZDOVAC,,,RS,+381 11 3988455,,Mo-Fr 08:00-21:00; Sa 08:00-15:00; Su 00:00-24:00,MoneyGram,Q1944412
72348923,moneygram,MENJACNICA DUCAKI 011,,ZVEZDARA,,,RS,+381 11 3446938,,Mo-Fr 08:00-20:00; Sa 08:00-16:00; Su 08:00-14:00,MoneyGram,Q1944412
72131554,moneygram,VIP #04 - BULEVAR OSLOBODJENJA 162,,BEOGRAD,,,RS,+381 11 3943674,,Mo-Sa 08:00-20:15; Su 08:00-14:15,MoneyGram,Q1944412
72477687,moneygram,EUROVIZ,,BEOGRAD,,,RS,+381 11 4527095,,Mo-Sa 07:00-22:00; Su 09:00-20:00,MoneyGram,Q1944412
72479339,moneygram,ULTRAFAX,,BEOGRAD,,,RS,+381 11 7701091,,24/7,MoneyGram,Q1944412
72493399,moneygram,D.D. DUNAV - UNION,,BEOGRAD,,,RS,+381 11 2430376,,Mo-Fr 08:00-20:00; Sa 08:00-16:00; Su 08:00-15:00,MoneyGram,Q1944412
72493412,moneygram,D.D. DUNAV - UNION,,BEOGRAD,,,RS,+381 11 3445433,,Mo-Fr 08:00-20:00; Sa 08:00-16:00; Su 08:00-15:00,MoneyGram,Q1944412
72493386,moneygram,D.D. DUNAV - UNION,,BEOGRAD,,,RS,+381 11 4238654,,Mo-Fr 08:00-20:00; Sa 08:00-16:00; Su 08:00-15:00,MoneyGram,Q1944412
72479135,moneygram,EURO-MANEX,,BEOGRAD,,,RS,+381 11 3975943,,Mo-Fr 09:00-19:00; Sa 09:00-14:00; Su 00:00-24:00,MoneyGram,Q1944412
72479148,moneygram,EURO-MANEX,,BEOGRAD,,,RS,+381 11 2681176,,Mo-Fr 09:00-19:00; Sa-Su 00:00-24:00,MoneyGram,Q1944412
72131651,moneygram,VIP #12 - ZELEZNICKA 4 III,,BEOGRAD,,,RS,+381 11 2622136,,Mo-Su 05:00-23:45,MoneyGram,Q1944412
72623318,moneygram,SEDMICA MMS,,NOVI SAD,,,RS,+381 21 521421,,Mo-Sa 08:30-20:00; Su 00:00-24:00,MoneyGram,Q1944412
72666207,moneygram,RAMOVIC,,BEOGRAD,,,RS,+381 11 2775509,,Mo-Su 07:00-22:00,MoneyGram,Q1944412
72669424,moneygram,DUSAN,,BEOGRAD,,,RS,+381 11 8443900,,Mo-Sa 08:00-20:00; Su 08:00-13:00,MoneyGram,Q1944412
72711987,moneygram,VIP #29 - BEO SHOPPING CENTAR,,BEOGRAD,,,RS,+381 11 3233901,,Mo-Su 10:00-22:00,MoneyGram,Q1944412
72770465,moneygram,GACEVIC,,BEOGRAD,,,RS,+381 11 4524185,,Mo-Fr 08:00-17:00; Sa 08:00-15:00; Su 00:00-24:00,MoneyGram,Q1944412
72770452,moneygram,GACEVIC,,BEOGRAD,,,RS,+381 11 4524185,,Mo-Sa 08:00-21:00; Su 08:00-18:00,MoneyGram,Q1944412
72781865,moneygram,ALTA #14-SC BEO,,BEOGRAD,,,RS,+381 62 382979,,Mo-Su 08:00-22:00,MoneyGram,Q1944412
72131664,moneygram,VIP #13 - JURIJA GAGARINA 16,,BEOGRAD,,,RS,+381 11 2203886,,Mo-Su 10:00-22:15,MoneyGram,Q1944412
72852451,moneygram,ALDO-S,,BEOGRAD,,,RS,+381 11 343511,,Mo-Su 08:00-22:00,MoneyGram,Q1944412
72928628,moneygram,TREZOR C&C,,BEOGRAD,,,RS,+381 11 3565087,,Mo-Fr 09:00-20:00; Sa 09:00-15:00; Su 00:00-24:00,MoneyGram,Q1944412
72934780,moneygram,D.D. DUNAV - UNION,,BEOGRAD,,,RS,+381 11 2861759,,Mo-Fr 08:00-20:00; Sa 08:00-16:00; Su 08:00-15:00,MoneyGram,Q1944412
72938896,moneygram,SMART KAPITAL #6-SC GALERIJA,,BEOGRAD,,,RS,+381 69 4009085,,Mo-Su 10:00-22:00,MoneyGram,Q1944412
72952335,moneygram,FLASH,,BEOGRAD,,,RS,+381 11 2580300,,Mo-Fr 07:00-18:00; Sa 07:00-14:00; Su 00:00-24:00,MoneyGram,Q1944412
72977747,moneygram,DIPLOMAT PAY,,BEOGRAD,,,RS,+381 62 382173,,Mo-Su 10:00-22:00,MoneyGram,Q1944412
72980802,moneygram,KOSTAS 011,,BEOGRAD,,,RS,+381 69 3320870,,Mo-Fr 08:00-20:00; Sa 14:00-20:00; Su 08:00-14:00,MoneyGram,Q1944412
72991668,moneygram,RAMOVIC 2,,BEOGRAD,,,RS,+381 11 604123843,,Mo-Fr 07:30-21:00; Sa 07:30-17:00; Su 00:00-24:00,MoneyGram,Q1944412
73037660,moneygram,VIP #30 - GALERIJA SHOPPING CENTAR,,BEOGRAD,,,RS,+381 63 351225,,Mo-Su 09:00-22:00,MoneyGram,Q1944412
72940392,moneygram,ALTA #15-SC GALERIJA LOK 312,,BEOGRAD,,,RS,+381 64 1684488,,Mo-Su 08:00-22:00,MoneyGram,Q1944412
73245193,moneygram,KNEP,,BEOGRAD,,,RS,+381 11 3908308,,Mo-Sa 08:00-20:00; Su 00:00-24:00,MoneyGram,Q1944412
73349879,moneygram,ROBI CO,,BEOGRAD,,,RS,+381 11 2860195,,Mo-Fr 08:00-20:00; Sa 08:00-17:00; Su 08:00-15:00,MoneyGram,Q1944412
73358161,moneygram,GONZO #10-MATICE SRPSKE 43,,BEOGRAD,,,RS,+381 62 8433575,,Mo-Fr 07:00-19:00; Sa 07:00-18:00; Su 07:00-15:00,MoneyGram,Q1944412
73358174,moneygram,GONZO #11-MIRIJEVSKI BULEVAR 41M,,BEOGRAD,,,RS,+381 11 2992190,,Mo-Su 07:00-22:00,MoneyGram,Q1944412
73513582,moneygram,PLANETA-M,,BEOGRAD,,,RS,+381 64 6977910,,Mo-Fr 08:00-20:00; Sa 08:00-18:00; Su 08:00-13:00,MoneyGram,Q1944412
73528205,moneygram,NNS,,BEOGRAD,,,RS,+381 11 62343789,,Mo-Su 07:00-22:00,MoneyGram,Q1944412
73528218,moneygram,NNS,,BEOGRAD,,,RS,+381 11 62343789,,Mo-Su 07:00-22:00,MoneyGram,Q1944412
73528221,moneygram,NNS,,BEOGRAD,,,RS,+381 11 62383789,,Mo-Su 07:00-22:00,MoneyGram,Q1944412
73528234,moneygram,NNS,,BEOGRAD,,,RS,+381 11 604432146,,Mo-Su 07:00-22:00,MoneyGram,Q1944412
73549161,moneygram,FUNTA,,BEOGRAD,,,RS,+381 11 3987495,,Mo-Fr 08:00-20:00; Sa 08:00-14:00; Su 00:00-24:00,MoneyGram,Q1944412
73549174,moneygram,FUNTA,,BEOGRAD,,,RS,+381 11 63202200,,Mo-Fr 08:00-20:00; Sa 08:00-14:00; Su 00:00-24:00,MoneyGram,Q1944412
73567897,moneygram,MVB-TRADE,,BEOGRAD,,,RS,+381 11 2759892,,Mo-Fr 08:00-16:00; Sa-Su 00:00-24:00,MoneyGram,Q1944412
73620666,moneygram,TRANGE FRANGE #4 - USTANICKA,,BEOGRAD,,,RS,+381 11 3477515,,Mo-Su 07:00-20:00,MoneyGram,Q1944412
73627708,moneygram,MAESTRAL,,ZEMUN,,,RS,+381 11 631833700,,Mo-Fr 08:00-21:00; Sa 08:00-17:00; Su 00:00-24:00,MoneyGram,Q1944412
73627711,moneygram,MAESTRAL,,ZVEZDARA,,,RS,+381 11 638354045,,Mo-Fr 08:00-21:00; Sa 09:00-17:00; Su 00:00-24:00,MoneyGram,Q1944412
73632502,moneygram,ALTA #17-TRGOVACKA,,BEOGRAD,,,RS,+381 62 787278,,Mo-Su 08:00-20:30,MoneyGram,Q1944412
73632434,moneygram,KLEO STAMPA,,BEOGRAD,,,RS,+381 63 244396,,Mo-Fr 08:00-18:30; Sa 09:00-15:00; Su 00:00-24:00,MoneyGram,Q1944412
73658243,moneygram,MENJACNICA CITY 011,,BEOGRAD,,,RS,+381 11 5550452404,,Mo-Fr 10:00-18:00; Sa 10:00-16:00; Su 00:00-24:00,MoneyGram,Q1944412
73659815,moneygram,KOD STARE KUCE,,BEOGRAD,,,RS,+381 64 2700682,,Mo-Fr 09:00-18:00; Sa 09:00-13:00; Su 00:00-24:00,MoneyGram,Q1944412
73683386,moneygram,VIP #31 - JURIJA GAGARINA 221,,BEOGRAD,,,RS,+381 63 351225,,Mo-Fr 08:00-20:00; Sa 08:00-16:00; Su 00:00-24:00,MoneyGram,Q1944412
73684754,moneygram,KDK- ELECTIC,,BEOGRAD,,,RS,+381 11 7870113,,Mo-Fr 08:00-20:00; Sa 08:00-15:00; Su 00:00-24:00,MoneyGram,Q1944412
73708698,moneygram,DRALOMAX,,BEOGRAD,,,RS,+381 60 6401835,,Mo-Fr 09:00-18:00; Sa 09:00-15:00; Su 00:00-24:00,MoneyGram,Q1944412
73708708,moneygram,DRALOMAX,,BEOGRAD,,,RS,+381 11 3837576,,Mo-Fr 08:00-16:00; Sa-Su 00:00-24:00,MoneyGram,Q1944412
73775278,moneygram,COLLECTION,,BEOGRAD,,,RS,+381 11 2864475,,Mo-Sa 09:00-21:00; Su 00:00-24:00,MoneyGram,Q1944412
73831905,moneygram,BEST SKORPION,,BEOGRAD,,,RS,6006930002,,Mo-Su 08:00-20:00,MoneyGram,Q1944412
73845360,moneygram,UROS PROMET 2020,,BEOGRAD,,,RS,+381 61 6203156,,Mo-Fr 08:00-20:00; Sa 09:00-16:00; Su 00:00-24:00,MoneyGram,Q1944412
73848985,moneygram,DINARA PROMET 2017,,BACKA PALANKA,,,RS,+381 62 553661,,Mo-Fr 07:30-20:00; Sa 08:00-13:00; Su 00:00-24:00,MoneyGram,Q1944412
73849719,moneygram,INFINITY S,,BEOGRAD,,,RS,+381 64 9704281,,Mo-Su 08:00-22:00,MoneyGram,Q1944412
73849722,moneygram,INFINITY S,,BEOGRAD,,,RS,+381 64 9704281,,Mo-Su 08:00-22:00,MoneyGram,Q1944412
73848891,moneygram,PERMANENT EHCELLENT,,BEOGRAD,,,RS,+381 11 6305565,,Mo-Su 10:00-22:00,MoneyGram,Q1944412
73848888,moneygram,PERMANENT EHCELLENT,,BEOGRAD-VODOVAC,,,RS,+381 11 2420769,,Mo-Fr 08:00-20:00; Sa 08:00-18:00; Su 08:00-13:00,MoneyGram,Q1944412
73848901,moneygram,PERMANENT EHCELLENT,,BEOGRAD,,,RS,+381 64 2955333,,Mo-Fr 08:00-16:00; Sa-Su 00:00-24:00,MoneyGram,Q1944412
73848914,moneygram,PERMANENT EHCELLENT,,BEOGRAD,,,RS,+381 11 6305878,,Mo-Su 10:00-22:00,MoneyGram,Q1944412
73961244,moneygram,GOMIX GROUP,,STARI GRAD,,,RS,+381 11 3284414,,Mo-Su 08:30-22:00,MoneyGram,Q1944412
73961257,moneygram,GOMIX GROUP,,STARI GRAD,,,RS,+381 11 2627741,,Mo-Fr 09:00-20:00; Sa 09:00-16:00; Su 00:00-24:00,MoneyGram,Q1944412
73969741,moneygram,MILICA MMS,,BEOGRAD,,,RS,+381 62 1045870,,Mo-Fr 06:30-19:00; Sa 06:30-15:00; Su 06:30-14:00,MoneyGram,Q1944412
73979375,moneygram,VIP #34 - NEMANJINA,,BEOGRAD,,,RS,+381 63 351225,,Mo-Fr 08:00-20:00; Sa 08:00-17:00; Su 00:00-24:00,MoneyGram,Q1944412
73982511,moneygram,UROS PROMET 2020,,BEOGRAD,,,RS,+381 61 6203156,,Mo-Fr 08:00-20:00; Sa 08:00-16:00; Su 09:00-14:00,MoneyGram,Q1944412
74001514,moneygram,KENGUR,,BEOGRAD,,,RS,+381 65 3132088,,Mo-Fr 08:00-21:00; Sa 08:00-18:00; Su 09:00-15:00,MoneyGram,Q1944412
72940389,moneygram,ALTA #16-SC GALERIJA LOK 202,,BEOGRAD,,,RS,+381 64 1684488,,Mo-Su 08:00-22:00,MoneyGram,Q1944412
74027019,moneygram,SPASILAC,,BEOGRAD,,,RS,+381 61 1689511,,Mo-Sa 08:00-20:00; Su 08:00-14:00,MoneyGram,Q1944412
74095452,moneygram,M.P.T. SISTEM,,BEOGRAD,,,RS,+381 60 4003600,,Mo-Sa 08:00-21:00; Su 00:00-24:00,MoneyGram,Q1944412
73346047,moneygram,MENJACNICA DB,,BEOGRAD,,,RS,+381 11 2455016,,Mo-Sa 08:00-20:00; Su 08:00-15:00,MoneyGram,Q1944412
74212154,moneygram,GONZO #12-DRAGOSLAVA SREJOVICA 6,,BEOGRAD,,,RS,+381 11 3835355,,Mo-Su 07:00-22:00,MoneyGram,Q1944412
74425747,moneygram,MICO COMMERCE DOO,,BEOGRAD,,,RS,+381 11 3620420,,Mo-Sa 08:00-20:30; Su 09:00-20:30,MoneyGram,Q1944412
74425750,moneygram,MICO COMMERCE DOO,,BEOGRAD,,,RS,+381 11 3620420,,Mo-Fr 08:00-19:30; Sa 08:00-14:00; Su 00:00-24:00,MoneyGram,Q1944412
74425718,moneygram,MICO COMMERCE DOO,,BEOGRAD,,,RS,+381 11 3620420,,Mo-Fr 08:00-19:30; Sa 08:00-14:00; Su 09:00-20:30,MoneyGram,Q1944412
74451122,moneygram,LAGULIJA,,BEOGRAD,,,RS,+381 63 561815,,Mo-Fr 08:00-20:00; Sa 08:00-14:00; Su 00:00-24:00,MoneyGram,Q1944412
74476602,moneygram,MENJACNICA PASA,,BEOGRAD,,,RS,+381 60 3338584,,Mo-Fr 08:00-20:00; Sa 09:00-16:00; Su 00:00-24:00,MoneyGram,Q1944412
74611085,moneygram,MENJACNICA STATUS,,BEOGRAD,,,RS,+381 61 2686000,,Mo-Sa 07:00-20:00; Su 08:00-14:00,MoneyGram,Q1944412
68905574,moneygram,SBERBANK - BULEVAR,,BEOGRAD,,,RS,19909,,Mo-Th 09:00-17:00; Fr 10:30-18:30; Sa-Su 00:00-24:00,MoneyGram,Q1944412
68696061,moneygram,SBERBANK CARICE MILICE - BEOGRAD - CARIC,,BEOGRAD,,,RS,19909,,Mo-We 09:00-17:00; Th 10:30-18:30; Fr 09:00-17:00; Sa-Su 00:00-24:00,MoneyGram,Q1944412
68876069,moneygram,SBERBANK VRACAR - VRACAR,,SKOPJE,,,RS,19909,,Mo-Fr 09:00-17:00; Sa 09:00-13:00; Su 00:00-24:00,MoneyGram,Q1944412
65133336,moneygram,Sberbank  - Beograd  Vojvode Stepe,,BEOGRAD,,,RS,19909,,Mo-Fr 09:00-17:00; Sa-Su 00:00-24:00,MoneyGram,Q1944412
65132696,moneygram,Sberbank  - Beograd Decanska,,BEOGRAD,,,RS,19909,,Mo-Fr 09:00-17:00; Sa-Su 00:00-24:00,MoneyGram,Q1944412
65132735,moneygram,Sberbank  - Beograd Jurica Gagarina,,BEOGRAD,,,RS,19909,,Mo-Tu 09:00-17:00; We 10:00-18:00; Th-Fr 09:00-17:00; Sa-Su 00:00-24:00,MoneyGram,Q1944412
65132667,moneygram,Sberbank  - Beograd Kraja Milana 1,,BEOGRAD,,,RS,19909,,Mo-Tu 09:00-17:00; We 09:00-18:30; Th-Fr 09:00-17:00; Sa 09:00-13:00; Su 00:00-24:00,MoneyGram,Q1944412
65133242,moneygram,Sberbank  - Beograd Pozeska,,BEOGRAD,,,RS,19909,,Mo-Fr 09:00-17:00; Sa-Su 00:00-24:00,MoneyGram,Q1944412
65133310,moneygram,Sberbank  - Beograd Ustanicka,,BEOGRAD,,,RS,19909,,Mo-Fr 09:00-17:00; Sa-Su 00:00-24:00,MoneyGram,Q1944412
65133352,moneygram,Sberbank - Beograd Borska,,BEOGRAD,,,RS,19909,,Mo-Fr 09:00-17:00; Sa-Su 00:00-24:00,MoneyGram,Q1944412
74720604,moneygram,GONZO,,BEOGRAD,,,RS,+381 11 3835355,,Mo-Su 06:00-22:30,MoneyGram,Q1944412
74720617,moneygram,GONZO,,BEOGRAD,,,RS,+381 11 3835355,,Mo-Su 07:00-22:45,MoneyGram,Q1944412
74766338,moneygram,MICO COMMERCE #4,,BEOGRAD,,,RS,+381 69 3803007,,Mo-Su 07:00-23:00,MoneyGram,Q1944412
74766354,moneygram,MICO COMMERCE #6,,BEOGRAD,,,RS,+381 69 3803007,,Mo-Su 07:00-23:00,MoneyGram,Q1944412
74766367,moneygram,MICO COMMERCE #7,,BEOGRAD,,,RS,+381 69 3803007,,Mo-Su 07:00-23:00,MoneyGram,Q1944412
74766341,moneygram,MICO COMMERCE #5,,BEOGRAD,,,RS,+381 69 3803007,,Mo-Su 07:00-23:00,MoneyGram,Q1944412
74787401,moneygram,A-BETA,,BEOGRAD,,,RS,+381 63 8371183,,Mo-Fr 08:00-21:00; Sa 08:00-17:00; Su 00:00-24:00,MoneyGram,Q1944412
74870046,moneygram,ALTA #19,,BEOGRAD,,,RS,+381 69 8019165,,Mo-Su 07:00-22:00,MoneyGram,Q1944412
74911950,moneygram,GONZO #15,,BEOGRAD,,,RS,+381 11 3835355,,Mo-Su 10:00-20:00,MoneyGram,Q1944412
74948389,moneygram,THE BEST,,BEOGRAD,,,RS,+381 64 0225034,,Mo-Fr 08:00-20:00; Sa 08:00-16:00; Su 00:00-24:00,MoneyGram,Q1944412
71059640,moneygram,MENJACNICA TAS,,BEOGRAD,,,RS,+381 11 3340257,,Mo-Fr 08:00-20:00; Sa 08:00-15:00; Su 00:00-24:00,MoneyGram,Q1944412
71507037,moneygram,MONETA - EVON WINNER - #5 - BEOGRAD,,BEOGRAD,,,RS,+381 60 5559240,,Mo-Su 09:00-21:00,MoneyGram,Q1944412
71506999,moneygram,MONETA - EVON WINNER - #1 - BEOGRAD,,BEOGRAD,,,RS,+381 60 5559240,,Mo-Su 07:00-20:00,MoneyGram,Q1944412
71507011,moneygram,MONETA - EVON WINNER - #3 - BEOGRAD,,BEOGRAD,,,RS,+381 60 5559240,,Mo-Su 08:00-21:00,MoneyGram,Q1944412
71541158,moneygram,ALTA #10-KALENIC PIJACA - #10 - BEOGRAD,,BEOGRAD,,,RS,+381 62 787089,,Mo-Su 08:00-22:00,MoneyGram,Q1944412
71541129,moneygram,ALTA #7-SC RAJICEVA LOK B18 - #7 - BEOGR,,BEOGRAD,,,RS,+381 62 787093,,Mo-Su 08:00-22:00,MoneyGram,Q1944412
71536516,moneygram,MONETA - V&V BEOGRAD - BEOGRAD,,BEOGRAD,,,RS,+381 11 3470745,,Mo-Fr 08:00-19:00; Sa 08:00-15:00; Su 00:00-24:00,MoneyGram,Q1944412
71570446,moneygram,MONETA - MENJACNICA TAS - #2 - BEOGRAD,,BEOGRAD,,,RS,+381 11 6304485,,Mo-Su 10:00-22:00,MoneyGram,Q1944412
71541051,moneygram,MONETA - KOCKA+ - BEOGRAD,,BEOGRAD,,,RS,+381 16 46622966,,Mo-Fr 08:00-18:00; Sa 08:00-15:00; Su 00:00-24:00,MoneyGram,Q1944412
71614386,moneygram,MONETA - TIM 2 - #2 - BEOGRAD,,BEOGRAD,,,RS,+381 11 3444912,,Mo-Fr 08:00-21:00; Sa 08:00-16:00; Su 00:00-24:00,MoneyGram,Q1944412
71630250,moneygram,MONETA - NO 40 - BEOGRAD,,BEOGRAD,,,RS,+381 65 2216806,,Mo-Fr 08:00-20:00; Sa 08:00-16:00; Su 00:00-24:00,MoneyGram,Q1944412
71701862,moneygram,MONETA - EVON WINNER - #7 - BEOGRAD,,BEOGRAD,,,RS,+381 60 5559240,,Mo-Sa 09:00-21:00; Su 11:00-18:00,MoneyGram,Q1944412
71722579,moneygram,MONETA - SMART KAPITAL - #1 - BEOGRAD,,BEOGRAD,,,RS,+381 11 3129710,,Mo-Fr 08:00-20:00; Sa-Su 08:00-16:00,MoneyGram,Q1944412
71722582,moneygram,SMART KAPITAL #2-USTANICKA 170V - #2 - B,,BEOGRAD,,,RS,+381 11 3470528,,Mo-Su 08:00-22:00,MoneyGram,Q1944412
71722605,moneygram,SMART KAPITAL #3-JURIJA GAGARINA 30 - #3,,BEOGRAD,,,RS,+381 65 6161486,,Mo-Su 08:00-22:00,MoneyGram,Q1944412
71722618,moneygram,SMART KAPITAL #4-KOSTE GLAVNICA 2 - SMAR,,BEOGRAD,,,RS,+381 11 3691134,,Mo-Fr 08:00-20:00; Sa-Su 08:00-16:00,MoneyGram,Q1944412
71734062,moneygram,PARIS #2 - RESAVSKA 34 - #2 - BEOGRAD,,BEOGRAD,,,RS,+381 11 3248944,,Mo-Fr 08:00-19:45; Sa 08:00-15:00; Su 00:00-24:00,MoneyGram,Q1944412
71734075,moneygram,PARIS #3 - MARSALA BIRJUZOVA 2-4 - #3 -,,BEOGRAD,,,RS,+381 11 2185248,,Mo-Su 08:00-21:00,MoneyGram,Q1944412
71734088,moneygram,PARIS #4 - GLAVNA 18 - #4 - BEOGRAD,,BEOGRAD,,,RS,+381 11 3162247,,Mo-Fr 08:00-20:00; Sa 08:00-15:00; Su 00:00-24:00,MoneyGram,Q1944412
71734101,moneygram,PARIS #6 - JURIJA GAGARINA 87 - #6 - BEO,,BEOGRAD,,,RS,+381 11 2284592,,Mo-Sa 09:00-17:00; Su 10:00-17:00,MoneyGram,Q1944412
71733733,moneygram,MONETA - PARIS - #1 - BEOGRAD,,BEOGRAD,,,RS,+381 11 2632288,,Mo-Fr 08:00-19:45; Sa 08:00-15:00; Su 00:00-24:00,MoneyGram,Q1944412
71755012,moneygram,SMART KAPITAL #5-VLADIMIRA GACINOVICA 2,,BEOGRAD,,,RS,+381 64 0776255,,Mo-Fr 08:00-20:00; Sa-Su 08:00-16:00,MoneyGram,Q1944412
71614373,moneygram,MONETA - TIM 2 - #1 - BEOGRAD,,BEOGRAD,,,RS,+381 63 210417,,Mo-Fr 08:00-21:00; Sa 08:00-16:00; Su 00:00-24:00,MoneyGram,Q1944412
71776949,moneygram,MONETA -DI BESTE - #1 - BEOGRAD,,BEOGRAD,,,RS,+381 11 7290189,,Mo-Fr 08:00-20:00; Sa-Su 08:00-17:00,MoneyGram,Q1944412
71860017,moneygram,GONZO #2-BRACE JERKOVIC 123A - #2 - BEOG,,BEOGRAD,,,RS,+381 11 3961406,,Mo-Su 06:30-23:00,MoneyGram,Q1944412
71860020,moneygram,GONZO #3-GOSPODARA VUCICA 204A - #3 - BE,,BEOGRAD,,,RS,+381 11 2452776,,24/7,MoneyGram,Q1944412
71860033,moneygram,GONZO #4-DRAGICE KONCAR 45A - #4 - BEOGR,,BEOGRAD,,,RS,+381 11 3977820,,Mo-Su 07:00-22:30,MoneyGram,Q1944412
71860046,moneygram,GONZO #5-MIJE KOVACEVICA 6A - #5 - BEOGR,,BEOGRAD,,,RS,+381 11 2761677,,24/7,MoneyGram,Q1944412
71860059,moneygram,GONZO #6-ULOFA PALMEA 1 - #6 - BEOGRAD,,BEOGRAD,,,RS,+381 11 7433612,,Mo-Su 07:00-22:00,MoneyGram,Q1944412
71860062,moneygram,GONZO #7-DUSANA VUKASOVICA 8 - #7 - BEOG,,BEOGRAD,,,RS,+381 11 2273355,,24/7,MoneyGram,Q1944412
71860075,moneygram,GONZO #8-VOJVODE STEPE 345 - #8 - BEOGRA,,BEOGRAD,,,RS,+381 11 3962602,,Mo-Su 06:30-22:30,MoneyGram,Q1944412
71939320,moneygram,MONETA - DI BESTE - #2 - BEOGRAD,,BEOGRAD,,,RS,+381 11 2429364,,Mo-Fr 08:00-20:00; Sa-Su 08:00-17:00,MoneyGram,Q1944412
71940034,moneygram,MONETA -VIVEX COMPANY EX-IM - #1 - BEOGR,,BEOGRAD,,,RS,+381 11 7470573,,Mo-Fr 07:30-20:30; Sa 07:30-19:30; Su 07:30-15:00,MoneyGram,Q1944412
71940047,moneygram,MONETA -VIVEX COMPANY EX-IM - #2 - BEOGR,,BEOGRAD,,,RS,+381 11 7470543,,Mo-Fr 08:00-20:00; Sa 08:00-15:00; Su 00:00-24:00,MoneyGram,Q1944412
71940050,moneygram,MONETA -VIVEX COMPANY EX-IM - #3 - BEOGR,,BEOGRAD,,,RS,+381 11 3441640,,Mo-Fr 08:00-19:30; Sa 08:00-16:00; Su 08:00-15:00,MoneyGram,Q1944412
71944179,moneygram,AGENCIJA S&S - #1 - PALILULA,,PALILULA,,,RS,+381 63 269352,,Mo-Fr 08:00-20:00; Sa 08:00-17:00; Su 08:00-14:00,MoneyGram,Q1944412
RSH11000,neuroth,Neuroth,"Makenzijeva 53, 11000 Beograd, RS",Beograd,,,RS,+381 11 3240042,https://rs.neuroth.com/lokacije/makenzijeva-53-beograd/,Mo-Tu 08:00-17:00; We 10:00-18:00; Th-Fr 08:00-17:00; Sa 08:00-12:00,Neuroth,Q15836645
5b3cb3fac00458481b437f15,newyorker,NEW YORKER | Stadion Shopping Center,"Zaplanjska 32, 11010 Belgrad",Belgrad,,,RS,+381 630565,,Mo-Su 10:00-22:00,New Yorker,Q706421
5b3cb3fac00458481b437e09,newyorker,NEW YORKER | Capitol Park,"Patrijarha Dimitrija 14, 11000 Rakovica",Rakovica,,,RS,+381 11 16304263,,Mo-Su 10:00-22:00,New Yorker,Q706421
603ca498b90d777ec3605078,newyorker,NEW YORKER | Galerija Belgrade,"Bulevar Vudroa Vilsona 12, 11000 Belgrad",Belgrad,,,RS,+381 11 2083879,,Mo-Su 10:00-22:00,New Yorker,Q706421
RS.2209.8,omv,OMV,,Beograd,,,RS,+381 11 3674806,,24/7,OMV,Q168238
RS.2208.8,omv,OMV,,Beograd,,,RS,+381 11 3471026,,24/7,OMV,Q168238
222,ovs,OVS Belgrado - Terazije,,Belgrado,,,RS,,https://stores.ovsfashion.com/en/serbia/belgrado-terazije-rk-15-23,Mo-Sa 09:00-21:00; Su 11:00-18:00,OVS,Q2042514
1001,ovs,OVS Kids Belgrado - Plaza Center,,Belgrado,,,RS,,https://stores.ovsfashion.com/en/serbia/belgrado-visnjicka-84,Mo-Su 10:00-22:00,OVS,Q2042514
1906,ovs,OVS Belgrado Galerija,,Belgrado,,,RS,,https://stores.ovsfashion.com/en/serbia/belgrado-bulevar-vudro-vilsona,Mo-Su 10:00-22:00,OVS,Q2042514
2603,ovs,OVS Belgrade Beo,,Belgrado,,,RS,,,,OVS,Q2042514
7bbbb590-a96b-441f-8145-691ff5e12ace,petrol,"BS BEOGRAD, BANOVO BRDO",,ĆUKARICA,,,RS,,,24/7,Petrol,Q174824
89150075_001-renault,renault,AK KOMPRESOR PRODAJA AUTOMOBILA d.o.o,,BEOGRAD,,,RS,+381 11 7155600,,,Renault,Q6686
89150075_001-dacia,renault,AK KOMPRESOR PRODAJA AUTOMOBILA d.o.o,,BEOGRAD,,,RS,+381 11 7155600,,,Dacia,Q27460
89150020_001-renault,renault,HIT AUTO d.o.o.,,NOVI BEOGRAD,,,RS,+381 11 2018011,,,Renault,Q6686
89150020_001-dacia,renault,HIT AUTO d.o.o.,,NOVI BEOGRAD,,,RS,+381 11 2018011,,,Dacia,Q27460
89150041_001-renault,renault,RENO-SAVA d.o.o.,,BEOGRAD,,,RS,+381 11 6557020,,,Renault,Q6686
16230,samsonite_eu,Samsonite,,Beograd,,,RS,+381 11 4022665,,,Samsonite,Q1203426
14516,samsonite_eu,Samsonite,,Beograd,,,RS,+381 11 4076293,,,Samsonite,Q1203426
https://stores.superdry.com/#17497313,superdry,Superdry  Belgrade,,Belgrade,,,RS,+381 69 8578077,https://stores.superdry.com/rs/belgrade/kneza-mihaila-33,Mo-Sa 10:00-20:00,Superdry,Q1684445
THRS0009,tommy_hilfiger,Tommy Hilfiger,,Belgrade,,,RS,+381 11 3287704,,,Tommy Hilfiger,Q634881
N592323,united_colors_of_benetton,Benetton Beograd,,BEOGRAD,,,RS,+381 11 4558430,,,United Colors of Benetton,Q817139
,visa,,,BEOGRAD,,,RS,,,,,
,visa,,,BEOGRAD,,,RS,,,,,
,visa,,,BELGRADE,,,RS,,,,,
,visa,,,BEOGRAD,,,RS,,,,,
,visa,,,NOVI BEOGRAD,,,RS,,,,,
,visa,,,BELGRADE,,,RS,,,,,
,visa,,,BEOGRAD,,,RS,,,,,
,visa,,,BEOGRAD,,,RS,,,,,
,visa,,,BEOGRAD,,,RS,,,,,
,visa,,,BEOGRAD,,,RS,,,,,
,visa,,,BEOGRAD,,,RS,,,,,
,visa,,,BEOGRAD,,,RS,,,,,
,visa,,,BEOGRAD,,,RS,,,,,
,visa,,,BEOGRAD,,,RS,,,,,
,visa,,,BEOGRAD,,,RS,,,,,
,visa,,,BEOGRAD,,,RS,,,,,
,visa,,,BEOGRAD,,,RS,,,,,
,visa,,,"SURCIN, BEOGRAD",,,RS,,,,,
,visa,,,"SURCIN, BEOGRAD",,,RS,,,,,
,visa,,,BEOGRAD,,,RS,,,,,
,visa,,,BEOGRAD,,,RS,,,,,
,visa,,,BEOGRAD,,,RS,,,,,
,visa,,,BEOGRAD,,,RS,,,,,
,visa,,,BEOGRAD,,,RS,,,,,
,visa,,,BEOGRAD,,,RS,,,,,
,visa,,,BEOGRAD,,,RS,,,,,
,visa,,,BEOGRAD,,,RS,,,,,
,visa,,,BEOGRAD,,,RS,,,,,
,visa,,,BEOGRAD,,,RS,,,,,
,visa,,,BEOGRAD,,,RS,,,,,
,visa,,,BEOGRAD,,,RS,,,,,
,visa,,,BELGRADE,,,RS,,,,,
,visa,,,BEOGRAD,,,RS,,,,,
,visa,,,BEOGRAD,,,RS,,,,,
,visa,,,BEOGRAD,,,RS,,,,,
,visa,,,BEOGRAD,,,RS,,,,,
,visa,,,BEOGRAD,,,RS,,,,,
,visa,,,BEOGRAD,,,RS,,,,,
,visa,,,BEOGRAD,,,RS,,,,,
,visa,,,BEOGRAD,,,RS,,,,,
,visa,,,BEOGRAD,,,RS,,,,,
,visa,,,BEOGRAD,,,RS,,,,,
,visa,,,BEOGRAD,,,RS,,,,,
,visa,,,BEOGRAD,,,RS,,,,,
,visa,,,BEOGRAD,,,RS,,,,,
,visa,,,BEOGRAD,,,RS,,,,,
,visa,,,BEOGRAD,,,RS,,,,,
,visa,,,BEOGRAD,,,RS,,,,,
,visa,,,BEOGRAD,,,RS,,,,,
,visa,,,BEOGRAD,,,RS,,,,,
,visa,,,BEOGRAD,,,RS,,,,,
,visa,,,BEOGRAD,,,RS,,,,,
,visa,,,BEOGRAD,,,RS,,,,,
,visa,,,BEOGRAD,,,RS,,,,,
,visa,,,BEOGRAD,,,RS,,,,,
,visa,,,BEOGRAD,,,RS,,,,,
,visa,,,BEOGRAD,,,RS,,,,,
,visa,,,BEOGRAD,,,RS,,,,,
,visa,,,BEOGRAD,,,RS,,,,,
,visa,,,BEOGRAD,,,RS,,,,,
,visa,,,BEOGRAD,,,RS,,,,,
,visa,,,BEOGRAD,,,RS,,,,,
,visa,,,NOVI BEOGRAD,,,RS,,,,,
,visa,,,BEOGRAD,,,RS,,,,,
,visa,,,BEOGRAD,,,RS,,,,,
,visa,,,BELGRADE,,,RS,,,,,
,visa,,,BEOGRAD,,,RS,,,,,
,visa,,,BEOGRAD,,,RS,,,,,
,visa,,,BEOGRAD,,,RS,,,,,
,visa,,,BEOGRAD,,,RS,,,,,
,visa,,,BEOGRAD,,,RS,,,,,
,visa,,,BEOGRAD,,,RS,,,,,
,visa,,,BEOGRAD,,,RS,,,,,
,visa,,,BEOGRAD,,,RS,,,,,
,visa,,,BEOGRAD,,,RS,,,,,
,visa,,,BEOGRAD,,,RS,,,,,
,visa,,,BEOGRAD,,,RS,,,,,
,visa,,,BEOGRAD,,,RS,,,,,
,visa,,,"KALUDJERICA, BEOGRAD",,,RS,,,,,
,visa,,,BELGRADE,,,RS,,,,,
,visa,,,BEOGRAD,,,RS,,,,,
,visa,,,BEOGRAD,,,RS,,,,,
,visa,,,BEOGRAD,,,RS,,,,,
,visa,,,BEOGRAD,,,RS,,,,,
,visa,,,BELGRADE,,,RS,,,,,
,visa,,,BEOGRAD,,,RS,,,,,
,visa,,,NOVI BEOGRAD,,,RS,,,,,
,visa,,,BEOGRAD,,,RS,,,,,
,visa,,,BEOGRAD,,,RS,,,,,
,visa,,,BEOGRAD,,,RS,,,,,
,visa,,,BEOGRAD,,,RS,,,,,
,visa,,,BEOGRAD,,,RS,,,,,
,visa,,,BEOGRAD,,,RS,,,,,
,visa,,,BEOGRAD,,,RS,,,,,
,visa,,,BEOGRAD,,,RS,,,,,
,visa,,,BEOGRAD,,,RS,,,,,
,visa,,,BEOGRAD,,,RS,,,,,
,visa,,,BEOGRAD,,,RS,,,,,
,visa,,,BEOGRAD,,,RS,,,,,
,visa,,,BEOGRAD,,,RS,,,,,
,visa,,,BEOGRAD,,,RS,,,,,
,visa,,,BEOGRAD,,,RS,,,,,
,visa,,,BEOGRAD,,,RS,,,,,
,visa,,,BEOGRAD,,,RS,,,,,
,visa,,,BEOGRAD,,,RS,,,,,
,visa,,,BEOGRAD,,,RS,,,,,
,visa,,,BEOGRAD,,,RS,,,,,
,visa,,,BEOGRAD,,,RS,,,,,
,visa,,,BELGRADE,,,RS,,,,,
,visa,,,BEOGRAD,,,RS,,,,,
,visa,,,BEOGRAD,,,RS,,,,,
,visa,,,BEOGRAD,,,RS,,,,,
,visa,,,BEOGRAD,,,RS,,,,,
,visa,,,BEOGRAD,,,RS,,,,,
,visa,,,BEOGRAD,,,RS,,,,,
,visa,,,BEOGRAD,,,RS,,,,,
,visa,,,BEOGRAD,,,RS,,,,,
,visa,,,BELGRADE,,,RS,,,,,
,visa,,,BEOGRAD,,,RS,,,,,
,visa,,,BEOGRAD,,,RS,,,,,
,visa,,,BEOGRAD,,,RS,,,,,
,visa,,,ZEMUN POLJE,,,RS,,,,,
,visa,,,BELGRADE,,,RS,,,,,
,visa,,,BEOGRAD,,,RS,,,,,
,visa,,,BELGRADE,,,RS,,,,,
,visa,,,BELGRADE,,,RS,,,,,
,visa,,,BELGRADE,,,RS,,,,,
,visa,,,BELGRADE,,,RS,,,,,
,visa,,,BELGRADE,,,RS,,,,,
,visa,,,BELGRADE,,,RS,,,,,
,visa,,,BEOGRAD,,,RS,,,,,
,visa,,,BEOGRAD,,,RS,,,,,
,visa,,,BEOGRAD,,,RS,,,,,
,visa,,,BEOGRAD,,,RS,,,,,
,visa,,,BEOGRAD,,,RS,,,,,
,visa,,,BEOGRAD,,,RS,,,,,
,visa,,,BEOGRAD,,,RS,,,,,
,visa,,,BEOGRAD,,,RS,,,,,
,visa,,,BEOGRAD,,,RS,,,,,
,visa,,,BEOGRAD,,,RS,,,,,
,visa,,,BEOGRAD,,,RS,,,,,
,visa,,,NOVI BEOGRAD,,,RS,,,,,
,visa,,,NOVI BEOGRAD,,,RS,,,,,
,visa,,,BELGRADE,,,RS,,,,,
,visa,,,BEOGRAD,,,RS,,,,,
,visa,,,BEOGRAD,,,RS,,,,,
,visa,,,BEOGRAD,,,RS,,,,,
,visa,,,BEOGRAD,,,RS,,,,,
,visa,,,BEOGRAD,,,RS,,,,,
,visa,,,BEOGRAD,,,RS,,,,,
,visa,,,BEOGRAD,,,RS,,,,,
,visa,,,BEOGRAD,,,RS,,,,,
,visa,,,BELGRADE,,,RS,,,,,
,visa,,,BEOGRAD,,,RS,,,,,
,visa,,,BEOGRAD,,,RS,,,,,
,visa,,,BEOGRAD,,,RS,,,,,
,visa,,,BEOGRAD,,,RS,,,,,
,visa,,,BEOGRAD,,,RS,,,,,
,visa,,,BEOGRAD,,,RS,,,,,
,visa,,,BEOGRAD,,,RS,,,,,
,visa,,,BEOGRAD,,,RS,,,,,
,visa,,,BEOGRAD,,,RS,,,,,
,visa,,,BEOGRAD,,,RS,,,,,
,visa,,,NOVI BEOGRAD,,,RS,,,,,
,visa,,,BEOGRAD,,,RS,,,,,
,visa,,,BEOGRAD,,,RS,,,,,
,visa,,,BEOGRAD,,,RS,,,,,
,visa,,,BEOGRAD,,,RS,,,,,
,visa,,,BEOGRAD,,,RS,,,,,
,visa,,,BEOGRAD,,,RS,,,,,
,visa,,,BEOGRAD,,,RS,,,,,
,visa,,,BEOGRAD,,,RS,,,,,
,visa,,,BEOGRAD,,,RS,,,,,
,visa,,,BEOGRAD,,,RS,,,,,
,visa,,,BEOGRAD,,,RS,,,,,
,visa,,,BEOGRAD,,,RS,,,,,
,visa,,,BELGRADE,,,RS,,,,,
,visa,,,BEOGRAD,,,RS,,,,,
,visa,,,BEOGRAD,,,RS,,,,,
,visa,,,BEOGRAD,,,RS,,,,,
,visa,,,BEOGRAD,,,RS,,,,,
,visa,,,BEOGRAD,,,RS,,,,,
,visa,,,ZEMUN,,,RS,,,,,
,visa,,,BEOGRAD,,,RS,,,,,
,visa,,,BEOGRAD,,,RS,,,,,
,visa,,,BEOGRAD,,,RS,,,,,
,visa,,,BEOGRAD,,,RS,,,,,
,visa,,,BEOGRAD,,,RS,,,,,
,visa,,,BEOGRAD,,,RS,,,,,
,visa,,,BEOGRAD,,,RS,,,,,
,visa,,,BEOGRAD,,,RS,,,,,
,visa,,,BEOGRAD,,,RS,,,,,
,visa,,,BEOGRAD,,,RS,,,,,
,visa,,,BORCA,,,RS,,,,,
,visa,,,BEOGRAD,,,RS,,,,,
,visa,,,BEOGRAD,,,RS,,,,,
,visa,,,BEOGRAD,,,RS,,,,,
,visa,,,POZAREVAC,,,RS,,,,,
,visa,,,NOVI SAD,,,RS,,,,,
,visa,,,BEOGRAD,,,RS,,,,,
,visa,,,NOVI BEOGRAD,,,RS,,,,,
,visa,,,BEOGRAD,,,RS,,,,,
b7162b5aef6ce999485f44e34e3b2768,western_union,MENJACNICA STANKOMERC S,,Beograd,,,RS,+381 65 2861979,https://location.westernunion.com/yu/state/beograd/b7162b5aef6ce999485f44e34e3b2768,Mo-Fr 07:30-19:00; Sa 08:00-14:00,Western Union,Q861042
90e7acdbcb57d52f4ed7981f90f55196,western_union,MENJACNICA STANKOMERC S,,Beograd,,,RS,+381 65 2861979,https://location.westernunion.com/yu/state/beograd/90e7acdbcb57d52f4ed7981f90f55196,Mo-Fr 07:30-19:00; Sa 08:00-14:00,Western Union,Q861042
f147e578654d5e7a4291ce8dd8eb765c,western_union,MENJACNICA TAJCI,,Beograd Batajnica,,,RS,+381 11 3334999,https://location.westernunion.com/yu/state/beograd-batajnica/f147e578654d5e7a4291ce8dd8eb765c,Mo-Sa 08:00-20:00; Su 08:00-12:00,Western Union,Q861042
a007b2bd4f00923f6e85c6d16f37832e,western_union,MENJACNICA TAJCI,,Beograd Batajnica,,,RS,+381 11 3334999,https://location.westernunion.com/yu/state/beograd-batajnica/a007b2bd4f00923f6e85c6d16f37832e,Mo-Sa 08:00-16:00,Western Union,Q861042
35d81050bf869309ff78ca034befd1aa,western_union,MENJACNICA NV KURS,,Beograd,,,RS,+381 11 4037419,https://location.westernunion.com/yu/state/beograd/35d81050bf869309ff78ca034befd1aa,Mo-Fr 07:30-21:00; Sa 08:00-21:00; Su 10:00-13:00,Western Union,Q861042
4bbe613e8f27849ea9e1cc07c8306a4e,western_union,MENJACNICA ART PAY,,Beograd,,,RS,+381 60 5882299,https://location.westernunion.com/yu/state/beograd/4bbe613e8f27849ea9e1cc07c8306a4e,Mo-Fr 07:30-21:00; Sa 08:00-21:00; Su 10:00-13:00,Western Union,Q861042
e949764a48c95a51f9efdb150e2b65b6,western_union,MENJACNICA STANKOMERC S,,Beograd,,,RS,+381 65 2861979,https://location.westernunion.com/yu/state/beograd/e949764a48c95a51f9efdb150e2b65b6,Mo-Fr 07:30-22:00; Sa 08:00-22:00; Su 10:00-22:00,Western Union,Q861042
b8c80db25ab365a11b234161c470d9a8,western_union,KDK ELECTRIC,,Beograd,,,RS,+381 11 3334999,https://location.westernunion.com/yu/state/beograd/b8c80db25ab365a11b234161c470d9a8,Mo-Fr 08:00-20:00; Sa 08:00-15:00,Western Union,Q861042
b52f0e0bc7838fae55697add7b46627e,western_union,MENJACNICA NV KURS,,Belgrade,,,RS,+381 11 4038093,https://location.westernunion.com/yu/state/belgrade/b52f0e0bc7838fae55697add7b46627e,Mo-Sa 08:00-22:00; Su 10:00-14:00,Western Union,Q861042
b5266f93b21d834df20d4d8dec059624,western_union,MENJACNICA EURO,,Batajnica,,,RS,+381 11 3334999,https://location.westernunion.com/yu/state/batajnica/b5266f93b21d834df20d4d8dec059624,Mo-Fr 08:00-19:00; Sa 07:00-14:00,Western Union,Q861042
f75806707dc9291d58d2e4735c42f975,western_union,MENJACNICA POTRES,,Beograd,,,RS,+381 11 3334999,https://location.westernunion.com/yu/state/beograd/f75806707dc9291d58d2e4735c42f975,Mo-Su 08:00-22:00,Western Union,Q861042
8d3f7a54fe394a18d1ae61e05646a3ca,western_union,MENJACNICA POTRES,,Beograd,,,RS,+381 11 3334999,https://location.westernunion.com/yu/state/beograd/8d3f7a54fe394a18d1ae61e05646a3ca,Mo-Su 08:00-22:00,Western Union,Q861042
c6e11dc01e8906fa558765081531029b,western_union,MENJACNICA MONETA RAKOVICA,,Beograd,,,RS,+381 64 1101115,https://location.westernunion.com/yu/state/beograd/c6e11dc01e8906fa558765081531029b,Mo-Fr 08:00-19:00; Sa 08:00-15:00; Su 10:00-13:00,Western Union,Q861042
1afc7e62558f2b55865c55402a41c5bc,western_union,MINATI,,Beograd,,,RS,+381 11 3334999,https://location.westernunion.com/yu/state/beograd/1afc7e62558f2b55865c55402a41c5bc,Mo-Fr 07:30-20:00; Sa 07:30-15:00; Su 07:30-14:00,Western Union,Q861042
6fd7344fa1616e21cd62cf8c810c71c3,western_union,MENJACNICA KNEP,,Beograd,,,RS,+381 11 3907307,https://location.westernunion.com/yu/state/beograd/6fd7344fa1616e21cd62cf8c810c71c3,Mo-Sa 08:00-20:00,Western Union,Q861042
6422c496f26095aae5efc2e3013a41cf,western_union,DUNAV 3,,Beograd,,,RS,+381 11 3334999,https://location.westernunion.com/yu/state/beograd/6422c496f26095aae5efc2e3013a41cf,Mo-Fr 08:00-20:00; Sa 08:00-16:00,Western Union,Q861042
1,yettel_rs,Yettel,,Beograd,,,RS,,,Mo-Sa 08:00-20:00,Yettel,Q1780171
2,yettel_rs,Yettel,,Beograd,,,RS,,,Mo-Sa 09:00-21:00; Su 10:00-18:00,Yettel,Q1780171
6,yettel_rs,Yettel,,Beograd,,,RS,,,Mo-Fr 08:00-20:00; Sa 09:00-18:00,Yettel,Q1780171
7,yettel_rs,Yettel,,Beograd,,,RS,,,Mo-Fr 08:00-21:00; Sa 08:00-17:00,Yettel,Q1780171
11,yettel_rs,Yettel,,Beograd,,,RS,,,Mo-Sa 08:00-20:00,Yettel,Q1780171
12,yettel_rs,Yettel,,Beograd,,,RS,,,Mo-Th 08:00-20:00; Fr 09:00-20:00; Sa 08:00-20:00,Yettel,Q1780171
13,yettel_rs,Yettel,,Beograd,,,RS,,,Mo-Fr 08:00-20:00; Sa 08:00-16:00,Yettel,Q1780171
14,yettel_rs,Yettel,,Beograd,,,RS,,,Mo-Fr 08:00-20:00; Sa 08:00-16:00,Yettel,Q1780171
115,yettel_rs,Yettel,,Beograd,,,RS,,,Mo-Su 10:00-22:00,Yettel,Q1780171
165,yettel_rs,Yettel,,Beograd,,,RS,,,Mo-Fr 08:00-20:00; Sa 09:00-15:00,Yettel,Q1780171
244,yettel_rs,Yettel,,Beograd,,,RS,,,Mo-Su 10:00-22:00,Yettel,Q1780171
275,yettel_rs,Yettel,,Beograd,,,RS,,,Mo-Sa 08:00-21:00,Yettel,Q1780171
292,yettel_rs,Yettel,,Beograd,,,RS,,,Mo-Fr 09:00-20:00; Sa 09:00-16:00,Yettel,Q1780171
323,yettel_rs,Yettel,,Beograd,,,RS,,,Mo-Su 10:00-22:00,Yettel,Q1780171
331,yettel_rs,Yettel,,Beograd,,,RS,,,Mo-Fr 08:00-20:00; Sa 08:00-16:00,Yettel,Q1780171
332,yettel_rs,Yettel,,Beograd,,,RS,,,Mo-Su 10:00-22:00,Yettel,Q1780171
334,yettel_rs,Yettel,,Beograd,,,RS,,,Mo-Su 10:00-22:00,Yettel,Q1780171
355,yettel_rs,Yettel,,Beograd,,,RS,,,Mo-Fr 08:00-20:00; Sa-Su 10:00-18:00,Yettel,Q1780171
