Ref,Spider,Name,Address,City,State,Zipcode,Country,Phone,Website,Hours,Brand,WikiData
691,anytime_fitness,Anytime Fitness,,Waunakee,WI,,US,+1 608-849-8998,https://www.anytimefitness.com/gyms/691/waunakee-wi-53597/,,Anytime Fitness,Q4778364
153376,bluerhino,Walgreens #5669,,Waunakee,WI,,US,+1 608-850-6203,,,Blue Rhino,Q65681213
148073,bluerhino,Meffert's Division St. Mobil Mart,,Waunakee,WI,,US,+1 608-849-9518,,,Blue Rhino,Q65681213
81746,bluerhino,Kelley Williamson #76 - Westport Mobil,,Westport,WI,,US,+1 608-242-0526,,,Blue Rhino,Q65681213
06267947924045359700100000000000,bp,BP,,Waunakee,WI,,US,+1 608-849-6110,,Mo-Fr 05:00-22:00; Sa-Su 06:00-22:00,BP,Q152057
62153,citi,ATM Kwik Trip #1059-2,,Waunakee,WI,,US,,,,Citibank,Q857063
62152,citi,ATM Kwik Trip #1059-1,,Waunakee,WI,,US,,,,Citibank,Q857063
63513,citi,ATM Kwik Trip TOP Grocery #529,,Waunakee,WI,,US,,,,Citibank,Q857063
80708,citi,ATM State Bank of Cross Plains,,Waunakee,WI,,US,,,,Citibank,Q857063
35520,citi,ATM ASSOCIATED BANK,,Waunakee,WI,,US,,,,Citibank,Q857063
90825,citi,ATM Walgreens,,Waunakee,WI,,US,,,,Citibank,Q857063
63311,citi,ATM Kwik Trip #832-2,,Waunakee,WI,,US,,,,Citibank,Q857063
63310,citi,ATM Kwik Trip #832-1,,Waunakee,WI,,US,,,,Citibank,Q857063
65145,citi,"ATM Meffert Oil Co., Inc",,Waunakee,WI,,US,,,,Citibank,Q857063
11,culvers_us,"Culver's of Waunakee, WI - E Main St",,Waunakee,WI,,US,+1 608-849-6599,http://www.culvers.com/restaurants/waunakee,Mo-Fr 10:00-22:00; Su 10:00-22:00,Culver's,Q1143589
350274,dunkin_us,Dunkin',,Waunakee,WI,,US,+1 608-807-1307,https://locations.dunkindonuts.com/en/wi/waunakee/404-w-main-st/350274,Mo-Fr 05:00-20:00; Sa-Su 06:00-20:00,Dunkin',Q847743
https://www.edwardjones.com/us-en/financial-advisor/caleb-twedell,edwardjones,Caleb Twedell,,Waunakee,WI,,US,+1 608-849-8891,https://www.edwardjones.com/us-en/financial-advisor/caleb-twedell,Mo-Fr 08:00-16:00,Edward Jones,Q5343830
200317840,exxonmobil,WESTPORT MOBIL,,WAUNAKEE,WI,,US,+1 608-242-0526,https://www.exxon.com/en/find-station/mobil-waunakee-wi-westportmobil-200317840,Mo-Sa 05:30-23:00; Su 06:00-23:00,Mobil,Q109676002
https://local.fedex.com/#25198606,fedex,,,Waunakee,WI,,US,+1 800-463-3339,https://local.fedex.com/en-us/wi/waunakee/s1i33,,FedEx,Q459477
bd26037d-aa19-ed11-8100-00505689ac90,goodwill,ADC - Waunakee Donation Center,,Waunakee,WI,,US,+1 608-852-8400,https://www.goodwill.org/locator/location/?store=YmQyNjAzN2QtYWExOS1lZDExLTgxMDAtMDA1MDU2ODlhYzkw&lat=NDMuMTkxOTY=&lng=LTg5LjQ0NTkx,,Goodwill,Q5583655
https://salons.greatclips.com/us/wi/waunakee/241-s-century-ave,greatclips,Great Clips,,Waunakee,WI,,US,+1 608-849-4545,https://salons.greatclips.com/us/wi/waunakee/241-s-century-ave,Mo-Fr 09:00-17:00; Sa 08:00-17:00; Su 00:00-24:00,Great Clips,Q5598967
https://locations.jimmyjohns.com/wi/waunakee/sandwiches-4164.html,jimmy_johns,Jimmy John's,,Waunakee,WI,,US,+1 608-927-0044,https://locations.jimmyjohns.com/wi/waunakee/sandwiches-4164.html,,Jimmy John's,Q1689380
https://locations.kfc.com/#11248414,kfc,Chicken Nuggets Near Waunakee,,Waunakee,WI,,US,,https://locations.kfc.com/wi/waunakee/600-w-main-street/chickennugget,Mo-Su 11:00-20:00,KFC,Q524757
086141,kindercare,Waunakee KinderCare,,Waunakee,WI,,US,,https://www.kindercare.com/our-centers/waunakee/wi/086141,,KinderCare Learning Centers,Q6410551
https://locations.noodles.com/wi/waunakee/2800-sarah-lane.html,noodles_and_company_us,Noodles & Company Waunakee,,Waunakee,WI,,US,+1 608-912-0671,https://locations.noodles.com/wi/waunakee/2800-sarah-lane.html,Mo-Th 10:30-21:00; Fr-Sa 10:30-22:00; Su 10:30-21:00,Noodles and Company,Q7049673
https://locations.oreillyauto.com/wi/waunakee/check-engine-light-testing-5159.html,oreilly,Your Waunakee O'Reilly Auto Parts Store,,Waunakee,WI,,US,+1 608-849-4639,https://locations.oreillyauto.com/wi/waunakee/check-engine-light-testing-5159.html,Mo-Sa 07:00-21:00; Su 08:00-19:00,O'Reilly Auto Parts,Q7071951
https://locations.oreillyauto.com/wi/waunakee/wiper-installation-5159.html,oreilly,Your Waunakee O'Reilly Auto Parts Store,,Waunakee,WI,,US,+1 608-849-4639,https://locations.oreillyauto.com/wi/waunakee/wiper-installation-5159.html,Mo-Sa 07:00-21:00; Su 08:00-19:00,O'Reilly Auto Parts,Q7071951
https://locations.oreillyauto.com/wi/waunakee/battery-testing-5159.html,oreilly,Your Waunakee O'Reilly Auto Parts Store,,Waunakee,WI,,US,+1 608-849-4639,https://locations.oreillyauto.com/wi/waunakee/battery-testing-5159.html,Mo-Sa 07:00-21:00; Su 08:00-19:00,O'Reilly Auto Parts,Q7071951
https://locations.oreillyauto.com/wi/waunakee/autopartes-5159.html,oreilly,Tu tienda O'Reilly Auto Parts en Waunakee,,Waunakee,WI,,US,+1 608-849-4639,https://locations.oreillyauto.com/wi/waunakee/autopartes-5159.html,Mo-Sa 07:00-21:00; Su 08:00-19:00,O'Reilly Auto Parts,Q7071951
us442bbedc,pandora,About Pandora Jewelry Authorized Retailer - Red Barn Company Store LLC,,Waunakee,WI,,US,+1 608-850-4285,https://stores.pandora.net/wi/waunakee/pandora-jewelry-us442bbedc.html,,Pandora,Q2241604
https://locations.papamurphys.com/#15430491,papamurphys,Pizza Takeout & Delivery,,Waunakee,WI,,US,+1 608-850-9135,https://locations.papamurphys.com/wi/waunakee/219-south-century-avenue,Mo-Su 10:00-20:00,Papa Murphy's,Q7132349
055048,penske,Secure Storage Waunakee,,WAUNAKEE,WI,,US,+1 608-581-3130,https://www.pensketruckrental.com/locations/us/wisconsin/waunakee/055048/,,Penske,Q81234570
450,piggly_wiggly_us,Piggly Wiggly,,Waunakee,WI,,US,+1 608-849-6543,https://www.shopthepig.com/,,Piggly Wiggly,Q3388303
wi_waunakee_300-n-century-ave,pizza_hut_us,300 N Century Ave,,Waunakee,WI,,US,+1 608-849-8484,https://locations.pizzahut.com/wi/waunakee/300-n-century-ave,,Pizza Hut,Q191615
255,shopko,Shopko Optical Waunakee,,Waunakee,WI,,US,+1 608-602-5250,https://www.shopko.com/eye-care/wi/waunakee/store-255/,Mo-Fr 09:00-19:00; Sa 09:00-15:00,Shopko Optical,Q109228833
32514,smilebrands,Midwest Dental Waunakee,5898 Woodland Dr.,Waunakee,WI,,US,+1 608-849-4794,https://midwest-dental.com/locations/wisconsin-dental-centers/waunakee-wi/,,Smile Brands Inc.,Q108286823
https://restaurants.subway.com/#14899507,subway,Subway Village Mall,,Waunakee Dane,WI,,US,+1 608-268-1494,https://restaurants.subway.com/united-states/wi/waunakee/209-south-century-ave,Mo-Fr 07:00-22:00; Sa 07:30-22:00; Su 07:30-21:00,Subway,Q244457
048065,uhaul,Mobil Gas And Storage,300 S Division St,Waunakee,WI,,US,+1 608-849-1958,,Mo-Fr 00:00-17:00; Sa 00:00-15:00,U-Haul,Q7862902
4409,upsstore,Waunakee,215 S Century Ave,Waunakee,WI,,US,+1 608-849-2697,https://locations.theupsstore.com/wi/waunakee/215-s-century-ave,,UPS Store,Q7771029
1386676,usps,WAUNAKEE,,WAUNAKEE,WI,,US,+1 608-850-4151,,Mo-Fr 09:00-17:30; Sa 09:00-12:30,United States Postal Service,Q668687
5359700017,usps_collection_boxes,USPS COLLECTION BOX - PO LOBBY,101 N KLEIN DR,WAUNAKEE,WI,,US,,,,United States Postal Service,Q668687
5359700003,usps_collection_boxes,USPS COLLECTION BOX - BLUE BOX,101 N KLEIN DR,WAUNAKEE,WI,,US,,,,United States Postal Service,Q668687
5359700005,usps_collection_boxes,USPS COLLECTION BOX - BLUE BOX,101 N KLEIN DR,WAUNAKEE,WI,,US,,,,United States Postal Service,Q668687
5359700006,usps_collection_boxes,USPS COLLECTION BOX - BLUE BOX,101 N KLEIN DR,WAUNAKEE,WI,,US,,,,United States Postal Service,Q668687
5359700013,usps_collection_boxes,USPS COLLECTION BOX - PO LOBBY,101 N KLEIN DR,WAUNAKEE,WI,,US,,,,United States Postal Service,Q668687
5359700014,usps_collection_boxes,USPS COLLECTION BOX - PO LOBBY,101 N KLEIN DR,WAUNAKEE,WI,,US,,,,United States Postal Service,Q668687
5359700002,usps_collection_boxes,USPS COLLECTION BOX - BLUE BOX,100 MEADOW OAK TRL,WAUNAKEE,WI,,US,,,,United States Postal Service,Q668687
5359700009,usps_collection_boxes,USPS COLLECTION BOX - BLUE BOX,208 E MAIN ST,WAUNAKEE,WI,,US,,,,United States Postal Service,Q668687
,visa,,,SUN PRAIRIE,WI,,US,,,,,
,visa,,,WAUNAKEE,WI,,US,,,,,
,visa,,,WAUNAKEE,WI,,US,,,,,
,visa,,,WAUNAKEE,WI,,US,,,,,
,visa,,,WAUNAKEE,WI,,US,,,,,
,visa,,,WAUNAKEE,WI,,US,,,,,
,visa,,,WAUNAKEE,WI,,US,,,,,
,visa,,,WAUNAKEE,WI,,US,,,,,
,visa,,,WAUNAKEE,WI,,US,,,,,
,visa,,,WAUNAKEE,WI,,US,,,,,
,visa,,,WAUNAKEE,WI,,US,,,,,
,visa,,,WAUNAKEE,WI,,US,,,,,
,visa,,,WAUNAKEE,WI,,US,,,,,
,visa,,,WAUNAKEE,WI,,US,,,,,
,visa,,,WAUNAKEE,WI,,US,,,,,
,visa,,,WAUNAKEE,WI,,US,,,,,
,visa,,,WAUNAKEE,WI,,US,,,,,
,visa,,,WAUNAKEE,WI,,US,,,,,
,visa,,,WAUNAKEE,WI,,US,,,,,
,visa,,,WAUNAKEE,WI,,US,,,,,
,visa,,,WAUNAKEE,WI,,US,,,,,
https://www.walgreens.com/locator/walgreens-401+w+main+st-waunakee-wi-53597/id=5669,walgreens,Walgreens,,Waunakee,WI,,US,+1 608-850-6203,https://www.walgreens.com/locator/walgreens-401+w+main+st-waunakee-wi-53597/id=5669,Mo-Fr 07:00-23:00; Sa-Su 07:00-22:00,Walgreens,Q1591889
