Ref,Spider,Name,Address,City,State,Zipcode,Country,Phone,Website,Hours,Brand,WikiData
117620,bp,BP,,Waterloo,WI,,US,+1 920-478-2870,,24/7,BP,Q152057
62741,citi,ATM Kwik Trip #366-2,,Waterloo,WI,,US,,,,Citibank,Q857063
62740,citi,ATM Kwik Trip #366-1,,Waterloo,WI,,US,,,,Citibank,Q857063
,credit_union_us,Avestar CU,,Waterloo,WI,,US,+1 920-478-2151,,Mo-Fr 09:00-05:00,,
,credit_union_us,Avestar CU,,Waterloo,WI,,US,+1 920-478-2151,,Mo-Fr 09:00-06:30; Sa 09:00-12:00,,
https://local.fedex.com/#25229803,fedex,,,Waterloo,WI,,US,+1 800-463-3339,https://local.fedex.com/en-us/wi/waterloo/msnab,,FedEx,Q459477
396,piggly_wiggly_us,Piggly Wiggly,,Waterloo,WI,,US,+1 920-478-3088,https://www.shopthepig.com/,,Piggly Wiggly,Q3388303
024613,uhaul,The Engine Shop,320 Portland Rd,Waterloo,WI,,US,+1 920-478-1187,,Mo-Fr 30:00-17:00; Sa 00:00-24:00,U-Haul,Q7862902
1386597,usps,WATERLOO,,WATERLOO,WI,,US,+1 920-478-4335,,"Mo-Fr 09:00-11:30,12:00-16:30; Sa 09:00-11:00",United States Postal Service,Q668687
5359400010,usps_collection_boxes,USPS COLLECTION BOX - BLUE BOX,300 W MADISON ST,WATERLOO,WI,,US,,,,United States Postal Service,Q668687
5359400011,usps_collection_boxes,USPS COLLECTION BOX - BLUE BOX,241 W MADISON ST,WATERLOO,WI,,US,,,,United States Postal Service,Q668687
5359400015,usps_collection_boxes,USPS COLLECTION BOX - PO LOBBY,241 W MADISON ST,WATERLOO,WI,,US,,,,United States Postal Service,Q668687
5359400012,usps_collection_boxes,USPS COLLECTION BOX - PO LOBBY,241 W MADISON ST,WATERLOO,WI,,US,,,,United States Postal Service,Q668687
5359400013,usps_collection_boxes,USPS COLLECTION BOX - PO LOBBY,241 W MADISON ST,WATERLOO,WI,,US,,,,United States Postal Service,Q668687
5359400000,usps_collection_boxes,USPS COLLECTION BOX - BLUE BOX,810 N MONROE ST,WATERLOO,WI,,US,,,,United States Postal Service,Q668687
,visa,,,WATERLOO,WI,,US,,,,,
,visa,,,PORTLAND,WI,,US,,,,,
,visa,,,PORTLAND,WI,,US,,,,,
,visa,,,WATERLOO,WI,,US,,,,,
,visa,,,WATERLOO,WI,,US,,,,,
,visa,,,WATERLOO,WI,,US,,,,,
,visa,,,WATERLOO,WI,,US,,,,,
,visa,,,WATERLOO,WI,,US,,,,,
,visa,,,WATERLOO,WI,,US,,,,,
,visa,,,WATERLOO,WI,,US,,,,,
,visa,,,WATERLOO,WI,,US,,,,,
,visa,,,WATERLOO,WI,,US,,,,,
