Ref,Spider,Name,Address,City,State,Zipcode,Country,Phone,Website,Hours,Brand,WikiData
KLE-72,aldi_sud_de,,"Maisacher Straße 123, 82256, Fürstenfeldbruck, Deutschland",Fürstenfeldbruck,,,DE,,,Mo-Sa 08:00-20:00,ALDI Süd,Q41171672
KLE-77,aldi_sud_de,,"Schöngeisinger Straße 40-48, 82256, Fürstenfeldbruck, Deutschland",Fürstenfeldbruck,,,DE,,,Mo-Sa 08:00-20:00,ALDI Süd,Q41171672
KLE-73,aldi_sud_de,,"Otl-Aicher-Straße 2, 82256, Fürstenfeldbruck, Deutschland",Fürstenfeldbruck,,,DE,,,Mo-Sa 08:00-20:00,ALDI Süd,Q41171672
https://vertretung.allianz.de/hans.kreiner/,allianz_de,Allianz Versicherung Johann Kreiner GENERALVERTRETUNG,,Fürstenfeldbruck,,,DE,+49 8141 512698,https://vertretung.allianz.de/hans.kreiner/,"Mo-Tu 09:00-12:30,15:00-17:00; We 09:00-12:30; Th 09:00-12:30,15:00-17:00; Fr 09:00-15:00",Allianz SE,Q487292
https://vertretung.allianz.de/berger.rohde/,allianz_de,Allianz Versicherung Berger und Rohde OHG GENERALVERTRETUNG,,Fürstenfeldbruck,,,DE,+49 8141 92666,https://vertretung.allianz.de/berger.rohde/,"Mo-We 08:00-12:00,14:00-18:00; Th 08:00-12:00,14:00-19:00; Fr 08:00-12:00",Allianz SE,Q487292
https://vertretung.allianz.de/elke.kromes/,allianz_de,Allianz Versicherung Elke Kromes GENERALVERTRETUNG,,Fürstenfeldbruck,,,DE,+49 8141 33301,https://vertretung.allianz.de/elke.kromes/,"Mo 08:30-13:00; Tu 08:30-13:00,15:00-18:00; We 08:30-13:00; Th 08:30-13:00,15:00-18:00; Fr 08:30-13:00",Allianz SE,Q487292
00866_3,bmw_group,Autohaus Widmann + Winterholler GmbH,,Fürstenfeldbruck,,,DE,+49 8141 5346930,https://www.widmann-winterholler.de/mini/,,BMW,Q26678
19132500,bp,Alexander Spomer,,Fürstenfeldbruck,,,DE,+49 8141 355400,http://tankstelle.aral.de/tankstelle/19132500,24/7,BP,Q152057
DE0504,c_and_a,Fürstenfeldbruck Kurt-Huber-Ring,"Kurt-Huber-Ring 8-10, 82256 Fürstenfeldbruck",Fürstenfeldbruck,,,DE,,https://www.c-and-a.com/stores/de-de/bayern/fuerstenfeldbruck/kurt-huber-ring-8-10.html,Mo 09:00-19:00; Tu 09:00-19:00; We 09:00-19:00; Th 09:00-19:00; Fr 09:00-19:00; Sa 09:00-19:00,C&A,Q701338
https://www.biomarkt.de/fuerstenfeldbruck-maisacher-str-16,denns_de,Denns BioMarkt Fürstenfeldbruck,,Fürstenfeldbruck,,,DE,+49 8141 5258104,https://www.biomarkt.de/fuerstenfeldbruck-maisacher-str-16/marktseite,,Denns BioMarkt,Q48883773
220,deutsche_telekom_de,Telekom Shop Fürstenfeldbruck,,Fürstenfeldbruck,,,DE,+49 8141 346811,https://shopseite.telekom.de/sued-ost/fuerstenfeldbruck/schoengeisinger-str-24,Mo-Fr 09:30-18:00; Sa 09:30-13:00,Deutsche Telekom,Q9396
de:1647,dm,dm-drogerie markt,,Fürstenfeldbruck,,,DE,+49 8141 5359469,https://www.dm.de/store/d2kf/fuerstenfeldbruck/maisacher-strasse-122,Mo-Sa 07:00-20:00,dm,Q266572
48.1766911.259981,dpd_de,AGIP Service Station,,Fürstenfeldbruck,,,DE,,,,DPD,Q541030
48.179506636611.2548085234,dpd_de,NKD Deutschland GmbH,,Fürstenfeldbruck,,,DE,,,,DPD,Q541030
48.1618611.22703,dpd_de,expert TechnoMarkt Fürstenfeldbruck,,Fürstenfeldbruck,,,DE,,,,DPD,Q541030
FordGK1Z750  DEU,ford,Autohaus Lutz GmbH & Co. KG,,Fürstenfeldbruck,,,DE,+49 8141 40900,ford-lutz-fuerstenfeldbruck.de,,Ford,Q44294
https://www.fressnapf.de/stores/fressnapf-fuerstenfeldbruck/,fressnapf_de,Fressnapf Fürstenfeldbruck,,Fürstenfeldbruck,,,DE,+49 8141 6665799,https://www.fressnapf.de/stores/fressnapf-fuerstenfeldbruck/,Mo-Fr 09:00-20:00; Sa 09:00-19:00,Fressnapf,Q875796
2760916575,gls_de,Hookah Crown,,Fürstenfeldbruck,,,DE,+49 8141 3563266,,Mo-Sa 11:00-19:00,General Logistics Systems,Q46495823
1395,kik,KiK,,Fürstenfeldbruck,,,DE,+49 8141 354774,,Mo-Fr 09:00-20:00; Sa 09:00-19:00,KiK,Q883965
4688,lidl_de,,,Fürstenfeldbruck,,,DE,,,Mo-Sa 07:00-20:00,Lidl,Q151954
3826,lidl_de,,,Fürstenfeldbruck,,,DE,,,Mo-Sa 07:00-20:00,Lidl,Q151954
3806,mueller,Müller,,Fürstenfeldbruck,,,DE,+49 8141 6159730,https://www.mueller.de/meine-filiale/fuerstenfeldbruck/otl-aicher-strasse-2/,,Müller,Q1958759
1045,mueller,Müller,,Fürstenfeldbruck,,,DE,+49 8141 31410,https://www.mueller.de/meine-filiale/fuerstenfeldbruck/hauptstr-9/,,Müller,Q1958759
https://www.rossmann.de/de/filialen/bayern/fuerstenfeldbruck/kurt-huber-ring-12.html,rossmann_de,Rossmann Drogerie-Markt Kurt-Huber-Ring 12,,Fürstenfeldbruck,,,DE,+49 8141 224250,https://www.rossmann.de/de/filialen/bayern/fuerstenfeldbruck/kurt-huber-ring-12.html,Mo-Sa 08:00-20:00,Rossmann,Q316004
36153,seat_de,Auto Rasch GmbH & Co. KG,,Fürstenfeldbruck,,,DE,+49 8141 2940,https://auto-rasch.seat.de,,SEAT,Q188217
172375,sparkasse_de,Sparkasse Fürstenfeldbruck Immobilien Immobilien-Center Fürstenfeldbruck,,Fürstenfeldbruck,,,DE,+49 8141 4070,https://www.sparkasse.de/standorte/filialen/sparkasse-fuerstenfeldbruck-immobilien-immobilien-center-fuerstenfeldbruck-172375,Mo 08:30-12:30; Tu 14:00-16:00; We 08:30-12:30; Th 14:00-18:00; Fr 08:30-12:30,Sparkasse,Q13601825
29472,sparkasse_de,Sparkasse Fürstenfeldbruck Geldautomat St.-Bernhard,,Fürstenfeldbruck,,,DE,+49 8141 4070,https://www.sparkasse.de/standorte/geldautomaten/sparkasse-fuerstenfeldbruck-geldautomat-st-bernhard-29472,24/7,Sparkasse,Q13601825
10798,sparkasse_de,Sparkasse Fürstenfeldbruck Filiale St.-Bernhard,,Fürstenfeldbruck,,,DE,+49 8141 4070,https://www.sparkasse.de/standorte/filialen/sparkasse-fuerstenfeldbruck-filiale-st-bernhard-10798,Mo 14:00-16:00; Th 08:30-12:30,Sparkasse,Q13601825
29471,sparkasse_de,Sparkasse Fürstenfeldbruck Geldautomat Verwaltungszentrum,,Fürstenfeldbruck,,,DE,+49 8141 4070,https://www.sparkasse.de/standorte/geldautomaten/sparkasse-fuerstenfeldbruck-geldautomat-verwaltungszentrum-29471,24/7,Sparkasse,Q13601825
29468,sparkasse_de,Sparkasse Fürstenfeldbruck Geldautomat AEZ FFB-West,,Fürstenfeldbruck,,,DE,+49 8141 4070,https://www.sparkasse.de/standorte/geldautomaten/sparkasse-fuerstenfeldbruck-geldautomat-aez-ffb-west-29468,24/7,Sparkasse,Q13601825
29469,sparkasse_de,Sparkasse Fürstenfeldbruck Geldautomat AEZ Buchenau,,Fürstenfeldbruck,,,DE,+49 8141 4070,https://www.sparkasse.de/standorte/geldautomaten/sparkasse-fuerstenfeldbruck-geldautomat-aez-buchenau-29469,Mo-Sa 08:00-20:00,Sparkasse,Q13601825
38950,sparkasse_de,Sparkasse Fürstenfeldbruck Geldautomat Buchenau,,Fürstenfeldbruck,,,DE,+49 8141 4070,https://www.sparkasse.de/standorte/geldautomaten/sparkasse-fuerstenfeldbruck-geldautomat-buchenau-38950,24/7,Sparkasse,Q13601825
10797,sparkasse_de,Sparkasse Fürstenfeldbruck Filiale Buchenau,,Fürstenfeldbruck,,,DE,+49 8141 4070,https://www.sparkasse.de/standorte/filialen/sparkasse-fuerstenfeldbruck-filiale-buchenau-10797,Mo 08:30-12:30; Tu 14:00-16:00; We 08:30-12:30; Th 14:00-18:00; Fr 08:30-12:30,Sparkasse,Q13601825
29465,sparkasse_de,Sparkasse Fürstenfeldbruck Geldautomat Fürstenfeldbruck Marktplatz,,Fürstenfeldbruck,,,DE,+49 8141 4070,https://www.sparkasse.de/standorte/geldautomaten/sparkasse-fuerstenfeldbruck-geldautomat-fuerstenfeldbruck-marktplatz-29465,24/7,Sparkasse,Q13601825
10799,sparkasse_de,Sparkasse Fürstenfeldbruck Filiale Fürstenfeldbruck Marktplatz,,Fürstenfeldbruck,,,DE,+49 8141 4070,https://www.sparkasse.de/standorte/filialen/sparkasse-fuerstenfeldbruck-filiale-fuerstenfeldbruck-marktplatz-10799,Mo 08:30-12:30; Tu 14:00-16:00; We 08:30-12:30; Th 14:00-18:00; Fr 08:30-12:30,Sparkasse,Q13601825
29470,sparkasse_de,Sparkasse Fürstenfeldbruck Geldautomat FFB-Fliegerhorst,,Fürstenfeldbruck,,,DE,+49 8141 4070,https://www.sparkasse.de/standorte/geldautomaten/sparkasse-fuerstenfeldbruck-geldautomat-ffb-fliegerhorst-29470,24/7,Sparkasse,Q13601825
173767,sparkasse_de,Sparkasse Fürstenfeldbruck Digitales Beratungs-Center FFB-Digital,,Fürstenfeldbruck,,,DE,+49 8141 4070,https://www.sparkasse.de/standorte/filialen/sparkasse-fuerstenfeldbruck-digitales-beratungs-center-ffb-digital-173767,Mo-Fr 08:00-20:00,Sparkasse,Q13601825
168359,sparkasse_de,Sparkasse Fürstenfeldbruck Geldautomat FFB-Citypoint,,Fürstenfeldbruck,,,DE,+49 8141 4070,https://www.sparkasse.de/standorte/geldautomaten/sparkasse-fuerstenfeldbruck-geldautomat-ffb-citypoint-168359,Mo-Sa 08:00-20:00,Sparkasse,Q13601825
https://toom.de/m/fuerstenfeldbruck/,toom_baumarkt_de,toom Baumarkt in Fürstenfeldbruck,,Fürstenfeldbruck,,,DE,+49 8141 31470,https://toom.de/m/fuerstenfeldbruck/,Mo-Sa 07:00-20:00,Toom Baumarkt,Q2442970
DE_EXT_12030,totalenergies,Agip Fuerstenfeldbruck,,Fuerstenfeldbruck,,,DE,+49 9171 62648,https://store.totalenergies.fr/en_EN/DE_EXT_12030,,Agip,Q377915
EX_BP_1988,totalenergies,ARAL TANKSTELLE FÜRSTENFELDBRU,,Fürstenfeldbruck,,,DE,,https://store.totalenergies.fr/en_EN/EX_BP_1988,,Aral,Q565734
3700,valora,Cigo,,Fürstenfeldbruck,,,DE,,,,Cigo,Q113290782
https://www.vlh.de/bst/73232/Oeffnungszeiten.html,vhl_de,VLH-Beraterin Barbara Olapinski in Fürstenfeldbruck,,Fürstenfeldbruck,,,DE,+49 8141 8181036,https://www.vlh.de/bst/73232/,We 15:30-17:00; Th 09:00-11:00,Vereinigte Lohnsteuerhilfe e.V.,Q15852617
,visa,,,FURSTENFELDBRUCK,,,DE,,,,,
,visa,,,FUERSTENFELDBRUCK,,,DE,,,,,
,visa,,,FUERSTENFELDBRUCK,,,DE,,,,,
,visa,,,FUERSTENFELDBRUCK,,,DE,,,,,
,visa,,,FUERSTENFELDBRUCK,,,DE,,,,,
,visa,,,FUERSTENFELDBRUCK,,,DE,,,,,
,visa,,,FUERSTENFELDBRUCK,,,DE,,,,,
,visa,,,FUERSTENFELDBRUCK,,,DE,,,,,
,visa,,,FUERSTENFELDBRUCK,,,DE,,,,,
,visa,,,FUERSTENFELDBRUCK,,,DE,,,,,
https://shops.vodafone.de/fuerstenfeldbruck/schoengeisinger-str.-37,vodafone_de,Vodafone-Shop,,Fürstenfeldbruck,,,DE,+49 8141 3088764,https://shops.vodafone.de/fuerstenfeldbruck/schoengeisinger-str.-37,Mo-Th 09:30-18:00; Fr 09:30-12:45; Sa 09:30-14:00,Vodafone,Q122141
https://www.vr.de/standorte/F/volksbank-raiffeisenbank-fuerstenfeldbruck-eg-15007.html,vr_bank,Volksbank Raiffeisenbank Fürstenfeldbruck eG,,Fürstenfeldbruck,,,DE,+49 8141 2701555,https://www.vrbank-ffb.de,"Mo-Tu 08:30-12:00,14:00-16:00; We 08:30-12:00; Th 08:30-12:00,14:00-18:00; Fr 08:30-13:00",,
