Ref,Spider,Name,Address,City,State,Zipcode,Country,Phone,Website,Hours,Brand,WikiData
203586,bluerhino,CASEY'S GENERAL STORE #3303,,KIMBALL,MN,,US,+1 320-398-2600,,,Blue Rhino,Q65681213
48192643760215535300100000000000,bp,BP,,Kimball,MN,,US,+1 320-398-3210,,Mo-Sa 07:00-21:00; Su 08:00-21:00,BP,Q152057
13017,cenex,Kim-Built Industries Inc.,,Kimball,MN,,US,+1 320-398-3422,,,Cenex,Q62127191
1369031,usps,KIMBALL,,KIMBALL,MN,,US,+1 320-398-2375,,"Mo-Fr 08:30-12:00,13:00-16:00; Sa 08:30-09:30",United States Postal Service,Q668687
5535300001,usps_collection_boxes,USPS COLLECTION BOX - BLUE BOX,40 S MAIN ST,KIMBALL,MN,,US,,,,United States Postal Service,Q668687
5535300002,usps_collection_boxes,USPS COLLECTION BOX - PO LOBBY,40 S MAIN ST,KIMBALL,MN,,US,,,,United States Postal Service,Q668687
5535300005,usps_collection_boxes,USPS COLLECTION BOX - PO LOBBY,40 S MAIN ST,KIMBALL,MN,,US,,,,United States Postal Service,Q668687
5535300003,usps_collection_boxes,USPS COLLECTION BOX - BLUE BOX,130 MAUS DR,KIMBALL,MN,,US,,,,United States Postal Service,Q668687
,visa,,,KIMBALL,MN,,US,,,,,
,visa,,,KIMBALL,MN,,US,,,,,
,visa,,,KIMBALL,MN,,US,,,,,
,visa,,,KIMBALL,MN,,US,,,,,
,visa,,,KIMBALL,MN,,US,,,,,
,visa,,,KIMBALL,MN,,US,,,,,
,visa,,,KIMBALL,MN,,US,,,,,
,visa,,,KIMBALL,MN,,US,,,,,
,visa,,,KIMBALL,MN,,US,,,,,
,visa,,,KIMBALL,MN,,US,,,,,
,visa,,,KIMBALL,MN,,US,,,,,
