Ref,Spider,Name,Address,City,State,Zipcode,Country,Phone,Website,Hours,Brand,WikiData
65820173,moneygram,BIAO CI - #256,,BONOUA,,,CI,22521309810,,Mo 09:00-17:00; Tu-Fr 08:30-17:00; Sa 09:00-13:00; Su 00:00-24:00,MoneyGram,Q1944412
65775888,moneygram,BSIC,,SAN-PEDRO,,,CI,0022520320461,,Mo-Fr 08:00-16:00; Sa 09:00-13:00; Su 00:00-24:00,MoneyGram,Q1944412
66186324,moneygram,BSIC,,ABIDJAN,,,CI,0022520309989,,Mo-Fr 08:00-16:00; Sa 09:00-13:00; Su 00:00-24:00,MoneyGram,Q1944412
65775752,moneygram,BSIC,,ABIDJAN,,,CI,0022520320461,,Mo-Fr 08:00-16:00; Sa-Su 00:00-24:00,MoneyGram,Q1944412
65775846,moneygram,BSIC,,ABIDJAN,,,CI,0022520320461,,Mo-Fr 08:00-16:00; Sa 09:00-13:00; Su 00:00-24:00,MoneyGram,Q1944412
65775875,moneygram,BSIC,,ABIDJAN,,,CI,0022520320461,,Mo-Fr 08:00-16:00; Sa 09:00-13:00; Su 00:00-24:00,MoneyGram,Q1944412
65775833,moneygram,BSIC - ABIDJAN,,ABIDJAN,,,CI,0022520320461,,Mo-Fr 08:00-16:00; Sa 09:00-13:00; Su 00:00-24:00,MoneyGram,Q1944412
43568347,moneygram,BIAO CI - #220,,ABIDJAN,,,CI,22524390186,,Mo 09:00-17:00; Tu-Fr 08:30-17:00; Sa 09:00-13:00; Su 00:00-24:00,MoneyGram,Q1944412
43567982,moneygram,BACI,,ABIDJAN,,,CI,22520312121,,Mo-Fr 07:45-18:30; Sa 07:45-14:00; Su 00:00-24:00,MoneyGram,Q1944412
43567704,moneygram,BACI,,SAN-PEDRO,,,CI,22534713096,,Mo-Fr 07:45-18:30; Sa 07:45-14:00; Su 00:00-24:00,MoneyGram,Q1944412
43568392,moneygram,BIAO CI - #227,,ABIDJAN,,,CI,22521361067,,Mo 09:00-17:00; Tu-Fr 08:30-17:00; Sa 09:00-13:00; Su 00:00-24:00,MoneyGram,Q1944412
43568350,moneygram,BIAO CI - #226,,ABIDJAN,,,CI,22520211153,,Mo 09:00-17:00; Tu-Fr 08:30-17:00; Sa 09:00-13:00; Su 00:00-24:00,MoneyGram,Q1944412
43568402,moneygram,BIAO CI - #228,,ABIDJAN,,,CI,22521263540,,Mo 09:00-17:00; Tu-Fr 08:30-17:00; Sa 09:00-13:00; Su 00:00-24:00,MoneyGram,Q1944412
43568428,moneygram,BIAO CI - #218,,ABIDJAN,,,CI,22521243925,,Mo 09:00-17:00; Tu-Fr 08:30-17:00; Sa 09:00-13:00; Su 00:00-24:00,MoneyGram,Q1944412
43568363,moneygram,BIAO CI - #225,,ABIDJAN,,,CI,22441488,,Mo 09:00-17:00; Tu-Fr 08:30-17:00; Sa 09:00-13:00; Su 00:00-24:00,MoneyGram,Q1944412
43568444,moneygram,BIAO CI - #230,,ABIDJAN,,,CI,22522478520,,Mo 09:00-17:00; Tu-Fr 08:30-17:00; Sa 09:00-13:00; Su 00:00-24:00,MoneyGram,Q1944412
43568321,moneygram,BIAO CI - #223,,ABIDJAN,,,CI,22520386440,,Mo 09:00-17:00; Tu-Fr 08:30-17:00; Sa 09:00-13:00; Su 00:00-24:00,MoneyGram,Q1944412
43568389,moneygram,BIAO CI - #224,,ABIDJAN,,,CI,22520212306,,Mo 09:00-17:00; Tu-Fr 08:30-17:00; Sa 09:00-13:00; Su 00:00-24:00,MoneyGram,Q1944412
43568376,moneygram,BIAO CI - #217,,ABIDJAN,,,CI,22522527340,,Mo 09:00-17:00; Tu-Fr 08:30-17:00; Sa 09:00-13:00; Su 00:00-24:00,MoneyGram,Q1944412
44650474,moneygram,BACI,,SAN-PEDRO,,,CI,22520315950,,Mo-Fr 07:45-18:00; Sa 07:45-13:00; Su 00:00-24:00,MoneyGram,Q1944412
44706535,moneygram,BACI,,GNAMANDJI,,,CI,22520315950,,Mo-Fr 07:45-18:00; Sa 07:45-13:00; Su 00:00-24:00,MoneyGram,Q1944412
44706548,moneygram,BACI,,SOUBRE,,,CI,22520315950,,Mo-Fr 07:45-18:00; Sa 07:45-13:00; Su 00:00-24:00,MoneyGram,Q1944412
44706551,moneygram,BACI,,DIVO,,,CI,22520315950,,Mo-Fr 07:45-18:00; Sa 07:45-13:00; Su 00:00-24:00,MoneyGram,Q1944412
44706564,moneygram,BACI,,GAGNOA,,,CI,22520315950,,Mo-Fr 07:45-18:00; Sa 07:45-13:00; Su 00:00-24:00,MoneyGram,Q1944412
44706726,moneygram,BACI,,ISSIA,,,CI,22520315950,,Mo-Fr 07:45-18:00; Sa 07:45-13:00; Su 00:00-24:00,MoneyGram,Q1944412
44706739,moneygram,BACI,,DALOA,,,CI,22520315950,,Mo-Fr 07:45-18:00; Sa 07:45-13:00; Su 00:00-24:00,MoneyGram,Q1944412
44706742,moneygram,BACI,,YAMOUSSOUKRO,,,CI,22520315950,,Mo-Fr 07:45-18:00; Sa 07:45-13:00; Su 00:00-24:00,MoneyGram,Q1944412
44706771,moneygram,BACI,,ABIDJAN,,,CI,22520315950,,Mo-Fr 07:45-18:00; Sa 07:45-13:00; Su 00:00-24:00,MoneyGram,Q1944412
44706807,moneygram,BACI,,ABIDJAN,,,CI,22520315950,,Mo-Fr 07:45-18:00; Sa 07:45-13:00; Su 00:00-24:00,MoneyGram,Q1944412
44706920,moneygram,BACI,,ABIDJAN,,,CI,22520315950,,Mo-Fr 07:45-18:00; Sa 07:45-13:00; Su 00:00-24:00,MoneyGram,Q1944412
44706933,moneygram,BACI,,ABIDJAN,,,CI,22520315950,,Mo-Fr 07:45-18:00; Sa 07:45-13:00; Su 00:00-24:00,MoneyGram,Q1944412
44706946,moneygram,BACI,,ABIDJAN,,,CI,22520315950,,Mo-Fr 07:45-18:00; Sa 07:45-13:00; Su 00:00-24:00,MoneyGram,Q1944412
44756970,moneygram,BIAO CI - #215,,YOPOUGON-ATTIE,,,CI,22523530035,,Mo 09:00-17:00; Tu-Fr 08:30-17:00; Sa 09:00-13:00; Su 00:00-24:00,MoneyGram,Q1944412
45043682,moneygram,BIAO CI - #254,,DAOUKRO,,,CI,0022531979680,,Mo 09:00-17:00; Tu-Fr 08:30-17:00; Sa 09:00-13:00; Su 00:00-24:00,MoneyGram,Q1944412
45723258,moneygram,BIAO CI - #232,,BOUAKE,,,CI,0022531656830,,Mo 09:00-17:00; Tu-Fr 08:30-17:00; Sa 09:00-13:00; Su 00:00-24:00,MoneyGram,Q1944412
45788646,moneygram,BACI,,ABIDJAN,,,CI,22523530090,,Mo-Fr 08:00-16:15; Sa 08:00-12:00; Su 00:00-24:00,MoneyGram,Q1944412
45810909,moneygram,BNI - KORHOGO,,ABIDJAN,,,CI,22536850045,,Mo-Fr 08:00-17:00; Sa 08:00-13:00; Su 00:00-24:00,MoneyGram,Q1944412
65150791,moneygram,BACI,,ABIDJAN,,,CI,20315950,,Mo-Fr 07:00-16:30; Sa 09:00-12:00; Su 00:00-24:00,MoneyGram,Q1944412
65648520,moneygram,BACI,,ADZOPE,,,CI,22523560120,,Mo-Sa 08:00-18:00; Su 00:00-24:00,MoneyGram,Q1944412
65648562,moneygram,BACI,,ABIDJAN,,,CI,22521271947,,Mo-Sa 08:00-18:00; Su 00:00-24:00,MoneyGram,Q1944412
65648575,moneygram,BACI,,ABOISSO,,,CI,22520301520,,Mo-Sa 08:00-18:00; Su 00:00-24:00,MoneyGram,Q1944412
65648588,moneygram,BACI,,BONDOUKOU,,,CI,22520301520,,Mo-Sa 08:00-18:00; Su 00:00-24:00,MoneyGram,Q1944412
65648591,moneygram,BACI,,KORHOGO,,,CI,22536864860,,Mo-Sa 08:00-18:00; Su 00:00-24:00,MoneyGram,Q1944412
65648614,moneygram,BACI,,BOUAKE,,,CI,22531630706,,Mo-Sa 08:00-18:00; Su 00:00-24:00,MoneyGram,Q1944412
65648669,moneygram,BACI,,ABIDJAN,,,CI,22419342,,24/7,MoneyGram,Q1944412
65648698,moneygram,BACI,,ABIDJAN,,,CI,22520220030,,Mo-Sa 08:00-18:00; Su 00:00-24:00,MoneyGram,Q1944412
65648753,moneygram,BACI,,ABIDJAN,,,CI,22520334335,,Mo-Sa 08:00-18:00; Su 00:00-24:00,MoneyGram,Q1944412
65648821,moneygram,BACI,,ABIDJAN,,,CI,22521243777,,Mo-Sa 08:00-18:00; Su 00:00-24:00,MoneyGram,Q1944412
65648834,moneygram,BACI,,ABIDJAN,,,CI,22522411270,,Mo-Sa 08:00-18:00; Su 00:00-24:00,MoneyGram,Q1944412
65648915,moneygram,BACI,,ABIDJAN,,,CI,22520312121,,Mo-Sa 08:00-18:00; Su 00:00-24:00,MoneyGram,Q1944412
65648960,moneygram,BACI,,ABIDJAN,,,CI,22521586090,,24/7,MoneyGram,Q1944412
65649008,moneygram,BACI,,ABIDJAN,,,CI,22521259532,,Mo-Sa 08:00-18:00; Su 00:00-24:00,MoneyGram,Q1944412
65649037,moneygram,BACI,,ABIDJAN,,,CI,22521255100,,Mo-Sa 08:00-18:00; Su 00:00-24:00,MoneyGram,Q1944412
65646373,moneygram,BACI,,GRAND-BASSAM,,,CI,20315950,,Mo-Fr 08:00-16:00; Sa 09:00-12:00; Su 00:00-24:00,MoneyGram,Q1944412
65646412,moneygram,BACI,,ABIDJAN,,,CI,20315950,,Mo-Fr 08:00-16:00; Sa 09:00-12:00; Su 00:00-24:00,MoneyGram,Q1944412
65646425,moneygram,WORLD MONEY TRANSACTIONS,,ABIDJAN,,,CI,20315950,,Mo-Fr 08:00-17:30; Sa 08:00-13:00; Su 00:00-24:00,MoneyGram,Q1944412
65726633,moneygram,BACI,,ABIDJAN,,,CI,20315950,,Mo-Fr 08:00-16:15; Sa 08:00-12:00; Su 00:00-24:00,MoneyGram,Q1944412
65858310,moneygram,BACI,,ABIDJAN,,,CI,20315950,,24/7,MoneyGram,Q1944412
65855931,moneygram,BNI - ABIDJAN,,ABIDJAN,,,CI,20209800,,Mo-Fr 08:00-17:00; Sa 08:00-15:00; Su 00:00-24:00,MoneyGram,Q1944412
65855944,moneygram,BNI - ABIDJAN,,ABIDJAN,,,CI,20209800,,Mo-Fr 08:00-17:00; Sa 08:00-15:00; Su 00:00-24:00,MoneyGram,Q1944412
65855960,moneygram,BNI - ABIDJAN,,ABIDJAN,,,CI,20209800,,Mo-Sa 08:00-17:00; Su 00:00-24:00,MoneyGram,Q1944412
66113737,moneygram,BIAO CI - #239,,ABIDJAN,,,CI,22520200720,,Mo 09:00-17:00; Tu-Fr 08:30-17:00; Sa 09:00-13:00; Su 00:00-24:00,MoneyGram,Q1944412
43568431,moneygram,BIAO CI - #229,,ABIDJAN,,,CI,22521272311,,Mo 09:00-17:00; Tu-Fr 08:30-17:00; Sa 09:00-13:00; Su 00:00-24:00,MoneyGram,Q1944412
65150801,moneygram,BACI,,ABIDJAN,,,CI,20315950,,Mo-Fr 07:00-16:30; Sa 09:00-12:00; Su 00:00-24:00,MoneyGram,Q1944412
65726646,moneygram,BACI,,ABIDJAN,,,CI,20315950,,Mo-Fr 08:00-16:15; Sa 08:00-12:00; Su 00:00-24:00,MoneyGram,Q1944412
65855957,moneygram,BNI - ABIDJAN,,ABIDJAN,,,CI,20209800,,Mo-Fr 08:00-17:00; Sa 08:00-15:00; Su 00:00-24:00,MoneyGram,Q1944412
65649066,moneygram,APBS,,ABIDJAN,,,CI,22520312121,,Mo-Fr 07:30-17:30; Sa 07:30-14:30; Su 00:00-24:00,MoneyGram,Q1944412
