Ref,Spider,Name,Address,City,State,Zipcode,Country,Phone,Website,Hours,Brand,WikiData
239782,bluerhino,Circle K #4703617,,Monteagle,TN,,US,+1 931-924-3500,,,Blue Rhino,Q65681213
161094,bluerhino,Pilot Travel #4599,,Monteagle,TN,,US,+1 931-924-5111,,,Blue Rhino,Q65681213
50396,citi,ATM CVS,,Monteagle,TN,,US,,,,Citibank,Q857063
64616,citi,ATM Mapco,,Monteagle,TN,,US,,,,Citibank,Q857063
41042,citi,ATM Circle K,,Monteagle,TN,,US,,,,Citibank,Q857063
4421,cvs_us,CVS Pharmacy,,Monteagle,TN,,US,+1 931-924-2341,https://www.cvs.com/store-locator/monteagle-tn-pharmacies/340-west-main-st-monteagle-tn-37356/storeid=4421,Mo-Su 08:00-22:00,CVS Pharmacy,Q2078880
6962,dollartree,DollarTree,,Monteagle..,TN,,US,+1 931-313-4626,,Mo-Sa 09:00-21:00; Su 09:00-20:00,Dollar Tree,Q5289230
349394,dunkin_us,Dunkin',,Monteagle,TN,,US,+1 931-924-5111,https://locations.dunkindonuts.com/en/tn/monteagle/640-dixie-lee-ave/349394,24/7,Dunkin',Q847743
https://local.fedex.com/#25231193,fedex,,,Monteagle,TN,,US,+1 800-463-3339,https://local.fedex.com/en-us/tn/monteagle/chaaf,,FedEx,Q459477
2727,mightyflame,MAPCO EXPRESS #3540,,Monteagle,TN,,US,+1 931-924-3980,,,Mighty Flame,
362,piggly_wiggly_us,Piggly Wiggly,,Monteagle,TN,,US,+1 931-924-3135,,,Piggly Wiggly,Q3388303
4599,pilot_flyingj,Pilot Travel Center,,Monteagle,TN,,US,+1 931-924-5111,https://locations.pilotflyingj.com/us/tn/monteagle/640-dixie-lee-avenue,,Pilot,Q7194412
tn_monteagle_918-w-main,pizza_hut_us,918 W Main,,Monteagle,TN,,US,+1 931-924-5050,https://locations.pizzahut.com/tn/monteagle/918-w-main,,Pizza Hut,Q191615
builders-supply-27202,ppgpaints,BUILDERS SUPPLY,,"Monteagle, ",TN,,US,+1 931-924-2048,https://www.ppgpaints.com/store-locator/us/tennessee/monteagle-paint-stores/builders-supply-27202,,PPG Paints,Q83891559
https://restaurants.subway.com/#14907653,subway,Subway,,Monteagle Grundy,TN,,US,+1 931-924-7827,https://restaurants.subway.com/united-states/tn/monteagle/727-west-main-st,Mo-Su 08:00-21:00,Subway,Q244457
https://locations.tacobell.com/#1006491211,taco_bell,Taco Bell,,Monteagle,TN,,US,+1 423-203-1770,https://locations.tacobell.com/tn/monteagle/360-dixie-lee-ave-.html,Mo-We 09:00-24:00; Th 09:00-22:00; Fr-Su 09:00-24:00,Taco Bell,Q752941
1373582,usps,MONTEAGLE,,MONTEAGLE,TN,,US,+1 931-924-2118,,"Mo-Fr 09:00-12:30,13:30-16:00; Sa 10:00-12:00",United States Postal Service,Q668687
3735600007,usps_collection_boxes,USPS COLLECTION BOX - PO LOBBY,320 MOFFAT ST,MONTEAGLE,TN,,US,,,,United States Postal Service,Q668687
3735600001,usps_collection_boxes,USPS COLLECTION BOX - PO LOBBY,320 MOFFAT ST,MONTEAGLE,TN,,US,,,,United States Postal Service,Q668687
3735600002,usps_collection_boxes,USPS COLLECTION BOX - BLUE BOX,320 MOFFAT ST,MONTEAGLE,TN,,US,,,,United States Postal Service,Q668687
,visa,,,MONTEAGLE,TN,,US,,,,,
,visa,,,MONTEAGLE,TN,,US,,,,,
,visa,,,MONTEAGLE,TN,,US,,,,,
,visa,,,MONTEAGLE,TN,,US,,,,,
,visa,,,MONTEAGLE,TN,,US,,,,,
,visa,,,MONTEAGLE,TN,,US,,,,,
,visa,,,MONTEAGLE,TN,,US,,,,,
,visa,,,MONTEAGLE,TN,,US,,,,,
,visa,,,MONTEAGLE,TN,,US,,,,,
,visa,,,MONTEAGLE,TN,,US,,,,,
916,waffle_house_us,Waffle House #916,,MONTEAGLE,TN,,US,+1 931-246-4731,https://locations.wafflehouse.com/monteagle-tn-916,24/7,Waffle House,Q1701206
https://locations.wendys.com/#9254215,wendys,"Wendy's Monteagle in Monteagle, TN",,Monteagle,TN,,US,+1 931-924-5122,https://locations.wendys.com/united-states/tn/monteagle/640-dixie-lee-avenue,Mo-Su 05:00-10:30,Wendy's,Q550258
