Ref,Spider,Name,Address,City,State,Zipcode,Country,Phone,Website,Hours,Brand,WikiData
1144,accor,Sofitel Mauritius L'Impérial Resort & Spa,"Wolmar, 90517 FLIC EN FLAC",,,,MU,,https://all.accor.com/hotel/1144/index.en.shtml,,Sofitel,Q749431
6707,accor,SO Sofitel Mauritius,"Royal Road, Beau Champs, 61008 Bel Ombre",,,,MU,,https://all.accor.com/hotel/6707/index.en.shtml,,Sofitel,Q749431
9,engen,Engen Abercrombie,,Port-Louis,,,MU,+230 241 0555,,,Engen,Q3054251
46,engen,Engen Bagatelle,,Moka,,,MU,+230 468 8862,,,Engen,Q3054251
64,engen,Engen Beau Bassin,,Beau Bassin,,,MU,+230 466 0229,,,Engen,Q3054251
161,engen,Engen Chemin Grenier,,Chemin Grenier,,,MU,+230 622 7655,,,Engen,Q3054251
187,engen,Engen Coromandel,,Coromandel,,,MU,+230 233 5126,,,Engen,Q3054251
198,engen,Engen Curepipe,,Curepipe,,,MU,+230 674 3425,,,Engen,Q3054251
344,engen,Engen Grand Baie,,Grand Baie,,,MU,+230 263 4655,,,Engen,Q3054251
345,engen,Engen Grand Gaube,,Grand Gaube,,,MU,+230 288 1494,,,Engen,Q3054251
504,engen,Engen La Caroline,,La Caroline,,,MU,+230 419 5335,,,Engen,Q3054251
505,engen,Engen La Caroline 2,,La Caroline,,,MU,+230 419 5335,,,Engen,Q3054251
506,engen,Engen La Croisette,,Grand Baie,,,MU,+230 263 3942;43,,,Engen,Q3054251
507,engen,Engen La louise,,La Louise,,,MU,+230 5840 7316,,,Engen,Q3054251
509,engen,Engen La Preneuse,,La Preneuse,,,MU,+230 483 5514,,,Engen,Q3054251
511,engen,Engen La Vigie,,La Vigie,,,MU,+230 5250 4509,,,Engen,Q3054251
554,engen,Engen Mahebourg,,Mahebourg,,,MU,(+230) 631-9795/631-5600,,,Engen,Q3054251
602,engen,Engen Mesnil,,Mesnil,,,MU,+230 696 1085,,,Engen,Q3054251
754,engen,Engen Pamplemousses,,Pamplemousses,,,MU,+230 243 4016,,,Engen,Q3054251
772,engen,Engen Petit Raffray,,Raffray,,,MU,+230 283 8330,,,Engen,Q3054251
773,engen,Engen Petite Rivière,,Petite Riviere,,,MU,+230 233 2733,,,Engen,Q3054251
784,engen,Engen Plaine Verte,,Port-Louis,,,MU,+230 242 4583,,,Engen,Q3054251
785,engen,Engen Plaisance,,Plaisance,,,MU,+230 637 8384;+230 637 3740,,,Engen,Q3054251
795,engen,Engen Poste De Flacq,,Poste de flacq,,,MU,+230 413 2005,,,Engen,Q3054251
815,engen,Engen Quatre Bornes,,Quarre Bornes,,,MU,+230 464 1674,,,Engen,Q3054251
835,engen,Engen Réduit,,Réduit,,,MU,+230 467 9604,,,Engen,Q3054251
845,engen,Engen Riche Terre,,Tere Rouge,,,MU,+230 247 1656,,,Engen,Q3054251
859,engen,Engen Rivière des Anguilles,,Riviere des Anguilles,,,MU,+230 626 5407,,,Engen,Q3054251
863,engen,Engen Roches Brunes,,Roches Brunes,,,MU,+230 465 3188,,,Engen,Q3054251
868,engen,Engen Rose Belle,,Rose-Belle,,,MU,+230 627 4517,,,Engen,Q3054251
869,engen,Engen Rose Hill,,Rose-Hill,,,MU,+230 465 7112,,,Engen,Q3054251
883,engen,Engen Saint Jean,,Quatre-Bornes,,,MU,+230 465 1676;471 4445,,,Engen,Q3054251
884,engen,Engen Saint Leon,,Quartier-Militaire,,,MU,+230 435 5529,,,Engen,Q3054251
885,engen,Engen Sainte Ursule,,Flacq,,,MU,+230 413 2632,,,Engen,Q3054251
1048,engen,Engen Vacoas,,Vacoas,,,MU,+230 696 4430,,,Engen,Q3054251
mauritius#ebene,ernst_young,EY,"6th Floor, Icon Ebene, Rue de l'Institut",Ebene,,,MU,+230 403 4777,https://www.ey.com/locations/mauritius#ebene,,EY,Q489097
Ford901597MUSen,ford,Axess Limited (Mauritius),,Port Louis,,,MU,+230 206 4300,www.axess.mu,,Ford,Q44294
Motorcraft2MUSEnglish,ford,Axess Limited,,Port Louis,,,MU,"2,307,284,143",http://www.axess.mu,,Ford,Q44294
Motorcraft3MUSFrench,ford,Axess Limited,,Port Louis,,,MU,"2,307,284,143",http://www.axess.mu,,Ford,Q44294
Motorcraft4MUSPortuguese,ford,Axess Limited,,Port Louis,,,MU,"2,307,284,143",http://www.axess.mu,,Ford,Q44294
6020,lhw,Royal Palm Beachcomber Luxury,"Royal Road Grand Baie 30512, Mauritius",Grand Baie,,,MU,,https://www.lhw.com/hotel/Royal-Palm-Beachcomber-Grand-Baie-Mauritius,,The Leading Hotels of the World,Q834396
6026,lhw,Constance Prince Maurice,"Choisy Road, Poste de Flacq. Mauritius",Poste de Flacq,,,MU,,https://www.lhw.com/hotel/Constance-Prince-Maurice-Poste-de-Flacq-Mauritius,,The Leading Hotels of the World,Q834396
MU002,longchamp,Seguia,,MOKA,,,MU,(+230)4710030,,,Longchamp,Q1869471
MU001,longchamp,"Mauritius Duty Free Paradise Co, Ltd",,PLAINE MAGNIEN,,,MU,+230 637 4621,,,Longchamp,Q1869471
https://locations.michaelkors.com/fr/mauritius/plaine-magnien/sir-seewoosagar-ramgoolam-international-airport.html,michaelkors,Michael Kors Sir Seewoosagar Ramgoolam International Airport Mauritius,,Plaine Magnien,,,MU,+230 5493 0099,https://locations.michaelkors.com/fr/mauritius/plaine-magnien/sir-seewoosagar-ramgoolam-international-airport.html,Mo-Su 05:00-21:00,Michael Kors,Q19572998
68872681,moneygram,THOMAS COOK MAURITIUS,,CENTRAL FLACQ,,,MU,+230 413 0123,,Mo-Fr 08:30-17:00; Sa 08:00-17:00; Su 08:00-16:00,MoneyGram,Q1944412
69767999,moneygram,THOMAS COOK,,GOODLANDS,,,MU,+230 5449 4141,,Mo-Fr 08:30-17:00; Sa-Su 08:00-16:00,MoneyGram,Q1944412
70555815,moneygram,MCB - PORT LOUIS MAIN BRANCH - PORT LOUI,,PORT LOUIS,,,MU,+230 207 7575,,Mo-Fr 08:00-18:00; Sa-Su 07:00-16:00,MoneyGram,Q1944412
70555828,moneygram,MCB - 002 - CUREPIPE MAIN BRANCH - CUREP,,CUREPIPE,,,MU,+230 207 7575,,Mo-Fr 08:00-18:00; Sa-Su 07:00-16:00,MoneyGram,Q1944412
70555857,moneygram,MCB - 006 - FLACQ MAIN BRANCH - CENTRE D,,CENTRE DE FLACQ,,,MU,+230 207 7575,,Mo-Fr 08:00-18:00; Sa-Su 07:00-16:00,MoneyGram,Q1944412
70555860,moneygram,MCB - 007 - S.S.R STREET - PORT LOUIS -,,PORT LOUIS,,,MU,+230 207 7575,,Mo-Fr 08:00-18:00; Sa-Su 07:00-16:00,MoneyGram,Q1944412
70555873,moneygram,MCB - 008 - VACOAS - VACOAS - KIOSK,,VACOAS,,,MU,+230 207 7575,,Mo-Fr 08:00-18:00; Sa-Su 07:00-16:00,MoneyGram,Q1944412
70555886,moneygram,MCB - BEAU BASSIN - BEAU BASSIN - KIOSK,,BEAU BASSIN,,,MU,+230 207 7575,,Mo-Fr 08:00-18:00; Sa-Su 07:00-16:00,MoneyGram,Q1944412
70555909,moneygram,MCB - 012 - EDITH CAVELL - PORT LOUIS -,,PORT LOUIS,,,MU,+230 207 7575,,Mo-Fr 08:00-18:00; Sa-Su 07:00-16:00,MoneyGram,Q1944412
70555938,moneygram,MCB - 018 - ROSE BELLE - ROSE BELLE - KI,,ROSE BELLE,,,MU,+230 207 7575,,Mo-Fr 08:00-18:00; Sa-Su 07:00-16:00,MoneyGram,Q1944412
70555941,moneygram,MCB - 022 - PHOENIX - PHOENIX - KIOSK,,PHOENIX,,,MU,+230 207 7575,,Mo-Fr 08:00-18:00; Sa-Su 07:00-16:00,MoneyGram,Q1944412
70556018,moneygram,MCB - 038 - RIVIERE NOIRE - RIVIERE DRAG,,RIVIERE DRAGON,,,MU,+230 207 7575,,Mo-Fr 08:00-18:00; Sa-Su 07:00-16:00,MoneyGram,Q1944412
70556034,moneygram,MCB - EBENE - EBENE BRANCH - EBENE - KIO,,EBENE,,,MU,+230 207 7575,,Mo-Fr 08:00-18:00; Sa-Su 07:00-16:00,MoneyGram,Q1944412
70556005,moneygram,MCB - 037 - CASCAVELLE - FLIC-EN-FLACQ -,,FLIC-EN-FLACQ,,,MU,+230 207 7575,,Mo-Fr 08:00-18:00; Sa-Su 07:00-16:00,MoneyGram,Q1944412
70556047,moneygram,MCB - BAGATELLE - MOKA - KIOSK,,MOKA,,,MU,+230 207 7575,,Mo-Fr 08:00-18:00; Sa-Su 07:00-16:00,MoneyGram,Q1944412
70555967,moneygram,MCB - 024 - RIVIERE DES ANGUILLES - RIVI,,RIVIERE DES ANGUILLES,,,MU,+230 207 7575,,Mo-Fr 08:00-18:00; Sa-Su 07:00-16:00,MoneyGram,Q1944412
70555996,moneygram,MCB - 033 - PAMPLEMOUSSES - PAMPLEMOUSSE,,PAMPLEMOUSSES,,,MU,+230 207 7575,,Mo-Fr 08:00-18:00; Sa-Su 07:00-16:00,MoneyGram,Q1944412
70556050,moneygram,MCB - BAGATELLE - MOKA - KIOSK,,MOKA,,,MU,+230 207 7575,,Mo-Fr 08:00-18:00; Sa-Su 07:00-16:00,MoneyGram,Q1944412
70556568,moneygram,MCB - PORT LOUIS MAIN BRANCH - PORT LOUI,,PORT LOUIS,,,MU,+230 207 7575,,Mo-Fr 08:00-18:00; Sa-Su 07:00-16:00,MoneyGram,Q1944412
70556584,moneygram,MCB - 003 - ROSE HILL MAIN BRANCH - ROSE,,ROSE HILL,,,MU,+230 207 7575,,Mo-Fr 08:00-18:00; Sa-Su 07:00-16:00,MoneyGram,Q1944412
70556597,moneygram,MCB - 004 - MAHEBOURG - MAHEBOURG - KIOS,,MAHEBOURG,,,MU,+230 207 7575,,Mo-Fr 08:00-18:00; Sa-Su 07:00-16:00,MoneyGram,Q1944412
70556607,moneygram,MCB - 009 - GOODLANDS - GOODLANDS - KIOS,,GOODLANDS,,,MU,+230 207 7575,,Mo-Fr 08:00-18:00; Sa-Su 07:00-16:00,MoneyGram,Q1944412
70556649,moneygram,MCB - 019 - RIVIERE DU REMPART - RIVIERE,,RIVIERE DU REMPART,,,MU,+230 207 7575,,Mo-Fr 08:00-18:00; Sa-Su 07:00-16:00,MoneyGram,Q1944412
70556652,moneygram,MCB - 020 - JULES KOENIG STREET - PORT L,,PORT LOUIS,,,MU,+230 207 7575,,Mo-Fr 08:00-18:00; Sa-Su 07:00-16:00,MoneyGram,Q1944412
70556678,moneygram,MCB - 026 - BEL AIR - BEL AIR - KIOSK,,BEL AIR,,,MU,+230 207 7575,,Mo-Fr 08:00-18:00; Sa-Su 07:00-16:00,MoneyGram,Q1944412
70556681,moneygram,MCB - 034 - PLAINE VERTE - PORT LOUIS -,,PORT LOUIS,,,MU,+230 207 7575,,Mo-Fr 08:00-18:00; Sa-Su 07:00-16:00,MoneyGram,Q1944412
70556694,moneygram,MCB - 035 - LA CAVERNE - VACOAS - KIOSK,,VACOAS,,,MU,+230 207 7575,,Mo-Fr 08:00-18:00; Sa-Su 07:00-16:00,MoneyGram,Q1944412
70557059,moneygram,MCB - 002 - CUREPIPE MAIN BRANCH - CUREP,,CUREPIPE,,,MU,+230 207 7575,,Mo-Fr 08:00-18:00; Sa-Su 07:00-16:00,MoneyGram,Q1944412
70557062,moneygram,MCB - 006 - FLACQ MAIN BRANCH - CENTRE D,,CENTRE DE FLACQ,,,MU,+230 207 7575,,Mo-Fr 08:00-18:00; Sa-Su 07:00-16:00,MoneyGram,Q1944412
70557088,moneygram,MCB - 016 - GRAND BAY BRANCH - GRAND BAY,,GRAND BAY,,,MU,+230 207 7575,,Mo-Fr 08:00-18:00; Sa-Su 07:00-16:00,MoneyGram,Q1944412
70557091,moneygram,MCB - 021 - SAINT PIERRE - SAINT PIERRE,,SAINT PIERRE,,,MU,+230 207 7575,,Mo-Fr 08:00-18:00; Sa-Su 07:00-16:00,MoneyGram,Q1944412
70557101,moneygram,MCB - 028 - PLAINE MAGNIEN - PLAINE MAGN,,PLAINE MAGNIEN,,,MU,+230 207 7575,,Mo-Fr 08:00-18:00; Sa-Su 07:00-16:00,MoneyGram,Q1944412
70557114,moneygram,MCB - 036 - RODRIGUES - PORT MATHURIN -,,PORT MATHURIN,,,MU,+230 207 7575,,Mo-Fr 08:00-18:00; Sa-Su 07:00-16:00,MoneyGram,Q1944412
70555912,moneygram,MCB - 016 - GRAND BAY BRANCH - GRAND BAY,,GRAND BAY,,,MU,+230 207 7575,,Mo-Fr 08:00-18:00; Sa-Su 07:00-16:00,MoneyGram,Q1944412
70556623,moneygram,MCB - 013 - BELL VILLAGE - PORT LOUIS -,,PORT LOUIS,,,MU,+230 207 7575,,Mo-Fr 08:00-18:00; Sa-Su 07:00-16:00,MoneyGram,Q1944412
70556704,moneygram,MCB - QUATRE BORNES - QUATRE BORNES - KI,,QUATRE BORNES,,,MU,+230 207 7575,,Mo-Fr 08:00-18:00; Sa-Su 07:00-16:00,MoneyGram,Q1944412
70555925,moneygram,MCB - 017 - CHEMIN GRENIER - CHEMIN GREN,,CHEMIN GRENIER,,,MU,+230 207 7575,,Mo-Fr 08:00-18:00; Sa-Su 07:00-16:00,MoneyGram,Q1944412
70557075,moneygram,MCB - 010 - TRIOLET - TRIOLET - KIOSK,,TRIOLET,,,MU,+230 207 7575,,Mo-Fr 08:00-18:00; Sa-Su 07:00-16:00,MoneyGram,Q1944412
70555899,moneygram,MCB - 012 - EDITH CAVELL - PORT LOUIS -,,PORT LOUIS,,,MU,+230 207 7575,,Mo-Fr 08:00-18:00; Sa-Su 07:00-16:00,MoneyGram,Q1944412
70555983,moneygram,MCB - 031 - MONTAGNE BLANCHE - MONTAGNE,,MONTAGNE BLANCHE,,,MU,+230 207 7575,,Mo-Fr 08:00-18:00; Sa-Su 07:00-16:00,MoneyGram,Q1944412
70556665,moneygram,MCB - 025 - LALLMATIE - LALMATIE - KIOSK,,LALMATIE,,,MU,+230 207 7575,,Mo-Fr 08:00-18:00; Sa-Su 07:00-16:00,MoneyGram,Q1944412
70555844,moneygram,MCB - 003 - ROSE HILL MAIN BRANCH - ROSE,,ROSE HILL,,,MU,+230 207 7575,,Mo-Fr 08:00-18:00; Sa-Su 07:00-16:00,MoneyGram,Q1944412
70555970,moneygram,MCB - 029 - STANLEY - STANLEY - KIOSK,,STANLEY,,,MU,+230 207 7575,,Mo-Fr 08:00-18:00; Sa-Su 07:00-16:00,MoneyGram,Q1944412
70556571,moneygram,MCB - PORT LOUIS MAIN BRANCH - PORT LOUI,,PORT LOUIS,,,MU,+230 207 7575,,Mo-Fr 08:00-18:00; Sa-Su 07:00-16:00,MoneyGram,Q1944412
70556636,moneygram,MCB - 014 - REDUIT - REDUIT - KIOSK,,REDUIT,,,MU,+230 207 7575,,Mo-Fr 08:00-18:00; Sa-Su 07:00-16:00,MoneyGram,Q1944412
70555802,moneygram,MCB - PORT LOUIS MAIN BRANCH - PORT LOUI,,PORT LOUIS,,,MU,+230 207 7575,,Mo-Fr 08:00-18:00; Sa-Su 07:00-16:00,MoneyGram,Q1944412
70555831,moneygram,MCB - 003 - ROSE HILL MAIN BRANCH - ROSE,,ROSE HILL,,,MU,+230 207 7575,,Mo-Fr 08:00-18:00; Sa-Su 07:00-16:00,MoneyGram,Q1944412
70556021,moneygram,MCB - 040 - FLOREAL - FLOREAL - KIOSK,,FLOREAL,,,MU,+230 207 7575,,Mo-Fr 08:00-18:00; Sa-Su 07:00-16:00,MoneyGram,Q1944412
70556610,moneygram,MCB - 010 - TRIOLET - TRIOLET - KIOSK,,TRIOLET,,,MU,+230 207 7575,,Mo-Fr 08:00-18:00; Sa-Su 07:00-16:00,MoneyGram,Q1944412
70556717,moneygram,MCB - QUATRE BORNES - QUATRE BORNES - KI,,QUATRE BORNES,,,MU,+230 207 7575,,Mo-Fr 08:00-18:00; Sa-Su 07:00-16:00,MoneyGram,Q1944412
70557127,moneygram,MCB - EBENE - EBENE BRANCH - EBENE - KIO,,EBENE,,,MU,+230 207 7575,,Mo-Fr 08:00-18:00; Sa-Su 07:00-16:00,MoneyGram,Q1944412
65307780,moneygram,MCB - #014 - REDUIT,,REDUIT,,,MU,+230 467 7140,,Mo-Fr 08:00-18:00; Sa-Su 07:00-16:00,MoneyGram,Q1944412
65307803,moneygram,MCB - #016 - GRAND BAY BRANCH,,GRAND BAY,,,MU,+230 263 1850,,Mo-Fr 08:00-18:00; Sa-Su 07:00-16:00,MoneyGram,Q1944412
65622889,moneygram,MCB - FLACQ OFFSITE,,CENTRE DE FLACQ,,,MU,+230 413 1445,,Mo-Fr 08:00-18:00; Sa-Su 07:00-16:00,MoneyGram,Q1944412
65622915,moneygram,MCB - GRAND BAY OFFSITE,,GRAND BAY,,,MU,+230 263 1850,,Mo-Fr 08:00-18:00; Sa-Su 07:00-16:00,MoneyGram,Q1944412
65862526,moneygram,MCB - QUATRE BORNES,,QUATRE BORNES,,,MU,+230 202 5000,,Mo-Fr 08:00-18:00; Sa-Su 07:00-16:00,MoneyGram,Q1944412
66888075,moneygram,MCB - EBENE - EBENE BRANCH,,EBENE,,,MU,+230 454 0448,,Mo-Fr 08:00-18:00; Sa-Su 07:00-16:00,MoneyGram,Q1944412
67960879,moneygram,MCB - BAGATELLE,,MOKA,,,MU,+230 414 1522,,Mo-Fr 08:00-18:00; Sa-Su 07:00-16:00,MoneyGram,Q1944412
1053,next,Grand Baie,,Grand Baie,,,MU,,https://stores.next.co.uk/stores/single/1053,,Next,Q246655
1041,next,Bagatelle,,Moka ,,,MU,+230 414 0124,https://stores.next.co.uk/stores/single/1041,,Next,Q246655
THMU0001,tommy_hilfiger,Tommy Hilfiger,,Moka,,,MU,,,,Tommy Hilfiger,Q634881
MU111S1003,totalenergies,Belle Vue,,Mapou,,,MU,,https://store.totalenergies.fr/en_EN/MU111S1003,Mo-Th 06:00-22:00; Fr-Sa 06:00-23:00; Su 06:00-22:00,TotalEnergies,Q154037
MU111S1004,totalenergies,Rainbow,,Port Louis,,,MU,,https://store.totalenergies.fr/en_EN/MU111S1004,Mo-Su 06:00-21:00,TotalEnergies,Q154037
MU111S1005,totalenergies,Flic En Flac,,Flic en Flac,,,MU,,https://store.totalenergies.fr/en_EN/MU111S1005,Mo-Su 06:00-21:00,TotalEnergies,Q154037
MU111S2001,totalenergies,Abercrombie,,Port Louis,,,MU,+230 242 4315,https://store.totalenergies.fr/en_EN/MU111S2001,Mo-Sa 05:30-20:00; Su 05:30-15:00,TotalEnergies,Q154037
MU111S2002,totalenergies,Ambrose,,Rose Hill,,,MU,5792 0973/5928 0651,https://store.totalenergies.fr/en_EN/MU111S2002,,TotalEnergies,Q154037
MU111S2003,totalenergies,Bambous,,Bambous Virieux,,,MU,,https://store.totalenergies.fr/en_EN/MU111S2003,Mo-Sa 06:00-20:00; Su 06:00-13:00,TotalEnergies,Q154037
MU111S2004,totalenergies,Bel Air,,Bel Air,,,MU,+230 419 3864,https://store.totalenergies.fr/en_EN/MU111S2004,Mo-Su 05:30-20:00,TotalEnergies,Q154037
MU111S2005,totalenergies,Belle Rose,,Beau Bassin-Rose Hill,,,MU,+230 467 3116,https://store.totalenergies.fr/en_EN/MU111S2005,Mo-Su 06:30-21:00,TotalEnergies,Q154037
MU111S2007,totalenergies,Castel,,Vacoas-Phoenix,,,MU,+230 5787 9986;+230 5781 4710,https://store.totalenergies.fr/en_EN/MU111S2007,Mo-Sa 06:30-21:00; Su 06:00-21:30,TotalEnergies,Q154037
MU111S2008,totalenergies,Chemin Grenier,,Chemin Grenier,,,MU,,https://store.totalenergies.fr/en_EN/MU111S2008,Mo-Sa 06:00-20:00; Su 08:00-20:00,TotalEnergies,Q154037
MU111S2009,totalenergies,Desforges,,Port Louis,,,MU,,https://store.totalenergies.fr/en_EN/MU111S2009,Mo-Su 06:00-21:00,TotalEnergies,Q154037
MU111S2010,totalenergies,Forest Side,,Curepipe,,,MU,+230 5758 4058,https://store.totalenergies.fr/en_EN/MU111S2010,Mo-Su 05:30-21:00,TotalEnergies,Q154037
MU111S2012,totalenergies,LA GAIETÉ,,Central Flacq,,,MU,+230 413 8233,https://store.totalenergies.fr/en_EN/MU111S2012,Mo-Su 05:00-20:00,TotalEnergies,Q154037
MU111S2013,totalenergies,Labourdonnais,,Port Louis,,,MU,+230 212 5292,https://store.totalenergies.fr/en_EN/MU111S2013,Mo-Su 05:00-22:00,TotalEnergies,Q154037
MU111S2014,totalenergies,Lallmatie,,Lalmatie,,,MU,,https://store.totalenergies.fr/en_EN/MU111S2014,Mo-Sa 06:00-19:00; Su 06:00-12:00,TotalEnergies,Q154037
MU111S2015,totalenergies,L'escalier,,L Escalier,,,MU,+230 636 7522,https://store.totalenergies.fr/en_EN/MU111S2015,Mo 06:30-19:30; Tu-Sa 06:00-20:00; Su 06:30-12:30,TotalEnergies,Q154037
MU111S2016,totalenergies,Mahebourg,,Mahebourg,,,MU,+230 5947 1584,https://store.totalenergies.fr/en_EN/MU111S2016,Mo-Sa 06:00-20:00; Su 06:00-13:00,TotalEnergies,Q154037
MU111S2017,totalenergies,Mont Ida,,Medine Camp de Masque,,,MU,,https://store.totalenergies.fr/en_EN/MU111S2017,Mo-Sa 06:00-20:30; Su 06:00-14:00,TotalEnergies,Q154037
MU111S2018,totalenergies,Nouvelle France,,Nouvelle France,,,MU,+230 677 8223,https://store.totalenergies.fr/en_EN/MU111S2018,Mo 06:00-20:00; Tu-Sa 06:00-19:30; Su 06:00-14:00,TotalEnergies,Q154037
MU111S2019,totalenergies,North Exit,,Port Louis,,,MU,+230 217 4761,https://store.totalenergies.fr/en_EN/MU111S2019,Mo-Su 06:00-20:00,TotalEnergies,Q154037
MU111S2020,totalenergies,Phoenix,,Vacoas-Phoenix,,,MU,+230 696 3597,https://store.totalenergies.fr/en_EN/MU111S2020,Mo-Sa 06:00-19:30; Su 06:00-18:00,TotalEnergies,Q154037
MU111S2021,totalenergies,Plaine Verte,,Port Louis,,,MU,+230 217 5922,https://store.totalenergies.fr/en_EN/MU111S2021,Mo-Th 06:00-20:00; Fr 06:00-21:00; Sa-Su 06:00-20:00,TotalEnergies,Q154037
MU111S2022,totalenergies,Plaines des Papayes,,Plaine Des Papayes,,,MU,,https://store.totalenergies.fr/en_EN/MU111S2022,Mo-Sa 06:00-20:00; Su 06:00-18:00,TotalEnergies,Q154037
MU111S2024,totalenergies,Riviere des Anguilles,,Riviere des Anguilles,,,MU,+230 626 2042,https://store.totalenergies.fr/en_EN/MU111S2024,Mo-Sa 06:00-20:00; Su 06:00-19:00,TotalEnergies,Q154037
MU111S2025,totalenergies,Riviere du Rempart,,Rivière du Rempart,,,MU,+230 5763 2399,https://store.totalenergies.fr/en_EN/MU111S2025,Mo-Su 06:00-20:00,TotalEnergies,Q154037
MU111S2026,totalenergies,Rose Belle Tropical,,Rose Belle,,,MU,,https://store.totalenergies.fr/en_EN/MU111S2026,Mo-Su 05:45-21:00,TotalEnergies,Q154037
MU111S2028,totalenergies,Rose Hill,,Beau Bassin-Rose Hill,,,MU,,https://store.totalenergies.fr/en_EN/MU111S2028,Mo-Sa 06:00-22:00; Su 07:30-18:00,TotalEnergies,Q154037
MU111S2029,totalenergies,Sebastopol,,Sebastopol,,,MU,+230 437 5244,https://store.totalenergies.fr/en_EN/MU111S2029,"Su 06:00-12:00,16:00-20:00",TotalEnergies,Q154037
MU111S2030,totalenergies,Solitude,,Solitude,,,MU,,https://store.totalenergies.fr/en_EN/MU111S2030,Mo-Su 06:00-21:00,TotalEnergies,Q154037
MU111S2031,totalenergies,South Exit,,Port Louis,,,MU,,https://store.totalenergies.fr/en_EN/MU111S2031,Mo-Sa 06:30-20:00; Su 07:00-13:00,TotalEnergies,Q154037
MU111S2033,totalenergies,St Julien,,St Julien d Hotman,,,MU,+230 416 6169,https://store.totalenergies.fr/en_EN/MU111S2033,Mo-Su 06:00-20:00,TotalEnergies,Q154037
MU111S2034,totalenergies,St Pierre,,Saint Pierre,,,MU,,https://store.totalenergies.fr/en_EN/MU111S2034,Mo-Su 05:30-21:00,TotalEnergies,Q154037
MU111S2035,totalenergies,Surinam,,Suriname,,,MU,,https://store.totalenergies.fr/en_EN/MU111S2035,Mo-Su 05:30-22:00,TotalEnergies,Q154037
MU111S2036,totalenergies,Triolet,,Triolet,,,MU,+230 261 4659,https://store.totalenergies.fr/en_EN/MU111S2036,Mo-Sa 06:00-20:00; Su 06:00-19:00,TotalEnergies,Q154037
MU111S2037,totalenergies,Vacoas,,Vacoas-Phoenix,,,MU,+230 696 2390,https://store.totalenergies.fr/en_EN/MU111S2037,Mo-Su 06:00-21:00,TotalEnergies,Q154037
MU111S2041,totalenergies,Curepipe,,Curepipe,,,MU,+230 489 0713,https://store.totalenergies.fr/en_EN/MU111S2041,Mo-Th 06:00-22:00; Fr-Sa 06:00-23:00; Su 06:00-22:00,TotalEnergies,Q154037
MU111S2042,totalenergies,Petit Raffray,,Petit Raffray,,,MU,+230 489 1336,https://store.totalenergies.fr/en_EN/MU111S2042,Mo-Sa 06:00-21:00; Su 06:00-19:00,TotalEnergies,Q154037
MU111S2043,totalenergies,Quatre Bornes,,Quatre Bornes,,,MU,+230 425 3970,https://store.totalenergies.fr/en_EN/MU111S2043,Mo-Sa 06:00-23:00; Su 06:00-22:00,TotalEnergies,Q154037
MU111S2044,totalenergies,Mont Choisy,,Trou-aux-Biches,,,MU,+230 265 1806,https://store.totalenergies.fr/en_EN/MU111S2044,Mo-Su 06:30-19:00,TotalEnergies,Q154037
MU111S2046,totalenergies,Beau Bassin,,Beau Bassin-Rose Hill,,,MU,+230 454 0997,https://store.totalenergies.fr/en_EN/MU111S2046,Mo-Su 06:00-21:00,TotalEnergies,Q154037
MU111S2047,totalenergies,Grand Baie,,Grand Baie,,,MU,+230 263 1214,https://store.totalenergies.fr/en_EN/MU111S2047,Mo-Tu 05:00-22:00; We-Su 05:00-23:00,TotalEnergies,Q154037
MU111S2048,totalenergies,Flacq,,Central Flacq,,,MU,+230 413 1715,https://store.totalenergies.fr/en_EN/MU111S2048,Mo-Su 05:30-21:30,TotalEnergies,Q154037
MU111S2049,totalenergies,Cap Tamarin,,Tamarin,,,MU,,https://store.totalenergies.fr/en_EN/MU111S2049,Mo-Su 06:00-21:00,TotalEnergies,Q154037
MU111S2051,totalenergies,Nouvelle France M1 (NEW),,Nouvelle France,,,MU,+230 5250 0605,https://store.totalenergies.fr/en_EN/MU111S2051,Mo-Su 05:30-22:00,TotalEnergies,Q154037
MU111S2052,totalenergies,Rose Belle,,Rose Belle,,,MU,+230 627 4794,https://store.totalenergies.fr/en_EN/MU111S2052,Mo-Sa 06:15-21:00; Su 06:00-21:00,TotalEnergies,Q154037
MU111S4001,totalenergies,Trou d'Eau Douce,,Trou d'Eau Douce,,,MU,+230 480 2267,https://store.totalenergies.fr/en_EN/MU111S4001,Mo-Sa 06:30-18:30; Su 06:30-12:00,TotalEnergies,Q154037
MU111S4004,totalenergies,Ilot,,Ilot,,,MU,,https://store.totalenergies.fr/en_EN/MU111S4004,Mo-Sa 05:45-20:30; Su 05:00-15:00,TotalEnergies,Q154037
,visa,,,S U G-BAY,,,MU,,,,,
,visa,,,FLIC EN FLAC,,,MU,,,,,
,visa,,,PORT LOUIS,,,MU,,,,,
,visa,,,QUATRE BORNES,,,MU,,,,,
,visa,,,PORT LOUIS,,,MU,,,,,
,visa,,,GOODLANDS,,,MU,,,,,
,visa,,,TROU AUX BICHES,,,MU,,,,,
,visa,,,PORT LOUIS,,,MU,,,,,
,visa,,,GRAND BAY,,,MU,,,,,
,visa,,,PLAISANCE,,,MU,,,,,
,visa,,,REDUIT,,,MU,,,,,
,visa,,,QUATRE BORNES,,,MU,,,,,
,visa,,,PORT LOUIS,,,MU,,,,,
,visa,,,PORT LOUIS,,,MU,,,,,
,visa,,,VACOAS,,,MU,,,,,
,visa,,,PLAINE DES PAPAYES,,,MU,,,,,
,visa,,,PLAINE MAGNIEN,,,MU,,,,,
,visa,,,RIVIERE NOIRE,,,MU,,,,,
,visa,,,GRAND BAY,,,MU,,,,,
,visa,,,QUATRE BORNES,,,MU,,,,,
,visa,,,CUREPIPE,,,MU,,,,,
,visa,,,RIVIERE DU REMPART,,,MU,,,,,
,visa,,,QUATRE BORNES,,,MU,,,,,
,visa,,,TROU D'EAU DOUCE,,,MU,,,,,
,visa,,,PORT LOUIS,,,MU,,,,,
,visa,,,ROSE BELLE,,,MU,,,,,
,visa,,,MONTAGNE BLANCHE,,,MU,,,,,
,visa,,,ST PIERRE,,,MU,,,,,
,visa,,,CUREPIPE,,,MU,,,,,
,visa,,,VACOAS,,,MU,,,,,
,visa,,,PORT LOUIS,,,MU,,,,,
,visa,,,LALLMATIE,,,MU,,,,,
,visa,,,MAPOU,,,MU,,,,,
,visa,,,MAPOU,,,MU,,,,,
,visa,,,CASCAVELLE,,,MU,,,,,
,visa,,,CHEMIN GRENIER,,,MU,,,,,
,visa,,,ROCHES NOIRES,,,MU,,,,,
,visa,,,FLIC EN FLAC,,,MU,,,,,
,visa,,,ALBION,,,MU,,,,,
,visa,,,FLIC EN FLAC,,,MU,,,,,
,visa,,,RIVIERE NOIRE,,,MU,,,,,
,visa,,,TAMARIN,,,MU,,,,,
,visa,,,GRANDE RIVIERE NOIRE,,,MU,,,,,
,visa,,,CAP TAMARIN,,,MU,,,,,
,visa,,,LA GAULETTE,,,MU,,,,,
,visa,,,BAMBOUS,,,MU,,,,,
,visa,,,BAMBOUS,,,MU,,,,,
,visa,,,POINTE AUX SABLES,,,MU,,,,,
,visa,,,CASCAVELLE,,,MU,,,,,
,visa,,,PTE AUX SABLES,,,MU,,,,,
,visa,,,PORT LOUIS,,,MU,,,,,
,visa,,,LA TOUR KOENIG,,,MU,,,,,
,visa,,,BEAU BASSIN,,,MU,,,,,
,visa,,,COROMANDEL,,,MU,,,,,
,visa,,,COROMANDEL,,,MU,,,,,
,visa,,,PLAISANCE,,,MU,,,,,
,visa,,,BEAU BASSIN,,,MU,,,,,
,visa,,,BEAU BASSIN,,,MU,,,,,
,visa,,,B BASSIN,,,MU,,,,,
,visa,,,BEAU BASSIN,,,MU,,,,,
,visa,,,STANLEY,,,MU,,,,,
,visa,,,BEAU BASSIN,,,MU,,,,,
,visa,,,BEAU BASSIN,,,MU,,,,,
,visa,,,CASSIS,,,MU,,,,,
,visa,,,BELL VILLAGE,,,MU,,,,,
,visa,,,STANLEY,,,MU,,,,,
,visa,,,BEAU BASSIN 1,,,MU,,,,,
,visa,,,ROSE HILL,,,MU,,,,,
,visa,,,PORT LOUIS,,,MU,,,,,
,visa,,,BAIE DU CAP,,,MU,,,,,
,visa,,,ROSE HILL,,,MU,,,,,
,visa,,,BAIE DU TOMBEAU,,,MU,,,,,
,visa,,,BELL VILLAGE,,,MU,,,,,
,visa,,,ROSE HILL,,,MU,,,,,
,visa,,,ROSE HILL,,,MU,,,,,
,visa,,,PORT LOUIS,,,MU,,,,,
,visa,,,PORT LOUIS,,,MU,,,,,
,visa,,,PORT LOUIS,,,MU,,,,,
,visa,,,PORT LOUIS,,,MU,,,,,
,visa,,,PORT LOUIS,,,MU,,,,,
,visa,,,PORT LOUIS,,,MU,,,,,
,visa,,,QUATRE BORNES,,,MU,,,,,
,visa,,,PORT LOUIS,,,MU,,,,,
,visa,,,PORT LOUIS,,,MU,,,,,
,visa,,,ST PIERRE 2,,,MU,,,,,
,visa,,,G BAY,,,MU,,,,,
,visa,,,Q BORNES,,,MU,,,,,
,visa,,,Q BORNES,,,MU,,,,,
,visa,,,P VERTE 1,,,MU,,,,,
,visa,,,P MAGNIEN,,,MU,,,,,
,visa,,,Q MILITAIRE 2,,,MU,,,,,
,visa,,,P VERTE 2,,,MU,,,,,
,visa,,,POPE HENNESSY,,,MU,,,,,
,visa,,,Q MILITAIRE 1,,,MU,,,,,
,visa,,,B ROSE,,,MU,,,,,
,visa,,,G BOIS,,,MU,,,,,
,visa,,,ST PIERRE 1,,,MU,,,,,
,visa,,,Q BORNES,,,MU,,,,,
,visa,,,R BRUNES,,,MU,,,,,
,visa,,,PORT LOUIS,,,MU,,,,,
,visa,,,PORT LOUIS,,,MU,,,,,
,visa,,,PORT LOUIS,,,MU,,,,,
,visa,,,PORT LOUIS,,,MU,,,,,
,visa,,,PORT LOUIS,,,MU,,,,,
,visa,,,PORT LOUIS,,,MU,,,,,
,visa,,,PORT LOUIS,,,MU,,,,,
,visa,,,PORT LOUIS,,,MU,,,,,
,visa,,,CANDOS,,,MU,,,,,
,visa,,,QUATRE BORNES,,,MU,,,,,
,visa,,,LE REDUIT,,,MU,,,,,
,visa,,,PORT LOUIS,,,MU,,,,,
,visa,,,EBENE,,,MU,,,,,
,visa,,,EBENE,,,MU,,,,,
,visa,,,EBENE,,,MU,,,,,
,visa,,,EBENE,,,MU,,,,,
,visa,,,EBENE,,,MU,,,,,
,visa,,,QUATRE BORNES,,,MU,,,,,
,visa,,,QUATRE BORNES,,,MU,,,,,
,visa,,,PORT LOUIS,,,MU,,,,,
,visa,,,MOKA,,,MU,,,,,
,visa,,,QUATRE BORNES,,,MU,,,,,
,visa,,,REDUIT,,,MU,,,,,
,visa,,,RICHE TERRE,,,MU,,,,,
,visa,,,MOKA,,,MU,,,,,
,visa,,,TRIANON,,,MU,,,,,
,visa,,,TRIANON,,,MU,,,,,
,visa,,,VACOAS,,,MU,,,,,
,visa,,,PHOENIX,,,MU,,,,,
,visa,,,VACOAS 2,,,MU,,,,,
,visa,,,VACOAS 1,,,MU,,,,,
,visa,,,VACOAS,,,MU,,,,,
,visa,,,TRIOLET,,,MU,,,,,
,visa,,,TRIOLET,,,MU,,,,,
,visa,,,VACOAS,,,MU,,,,,
,visa,,,TERRE ROUGE,,,MU,,,,,
,visa,,,TERRE ROUGE,,,MU,,,,,
,visa,,,TERRE ROUGE,,,MU,,,,,
,visa,,,TERRE ROUGE,,,MU,,,,,
,visa,,,VACOAS,,,MU,,,,,
,visa,,,VACOAS,,,MU,,,,,
,visa,,,VACOAS,,,MU,,,,,
,visa,,,PHOENIX,,,MU,,,,,
,visa,,,PHOENIX,,,MU,,,,,
,visa,,,PHOENIX,,,MU,,,,,
,visa,,,PHOENIX,,,MU,,,,,
,visa,,,PHOENIX,,,MU,,,,,
,visa,,,PHOENIX,,,MU,,,,,
,visa,,,MORCELLEMENT ST ANDRE,,,MU,,,,,
,visa,,,MOKA,,,MU,,,,,
,visa,,,PHOENIX,,,MU,,,,,
,visa,,,FLOREAL,,,MU,,,,,
,visa,,,FLOREAL,,,MU,,,,,
,visa,,,GRAND BAIE,,,MU,,,,,
,visa,,,GRAND BAIE,,,MU,,,,,
,visa,,,MESNIL,,,MU,,,,,
,visa,,,CHEMIN GRENIER,,,MU,,,,,
,visa,,,G BAY,,,MU,,,,,
,visa,,,GRAND BAY,,,MU,,,,,
,visa,,,GRAND BAY,,,MU,,,,,
,visa,,,CHEMIN GRENIER 2,,,MU,,,,,
,visa,,,CHEMIN GRENIER 1,,,MU,,,,,
,visa,,,CUREPIPE,,,MU,,,,,
,visa,,,CUREPIPE,,,MU,,,,,
,visa,,,CUREPIPE,,,MU,,,,,
,visa,,,CUREPIPE,,,MU,,,,,
,visa,,,CUREPIPE,,,MU,,,,,
,visa,,,TRIOLET,,,MU,,,,,
,visa,,,FOND DU SAC,,,MU,,,,,
,visa,,,CUREPIPE 3,,,MU,,,,,
,visa,,,CUREPIPE 5,,,MU,,,,,
,visa,,,CUREPIPE 6,,,MU,,,,,
,visa,,,CUREPIPE 4,,,MU,,,,,
,visa,,,PAMPLEMMOUSSES 1,,,MU,,,,,
,visa,,,PAMPLEMMOUSSES 2,,,MU,,,,,
,visa,,,CUREPIPE,,,MU,,,,,
,visa,,,CUREPIPE,,,MU,,,,,
,visa,,,MTE BLANCHE,,,MU,,,,,
,visa,,,PAMPLEMOUSSES,,,MU,,,,,
,visa,,,PAMPLEMOUSSES,,,MU,,,,,
,visa,,,PAMPLEMOUSSES,,,MU,,,,,
,visa,,,LONG MOUNTAIN,,,MU,,,,,
,visa,,,SURINAM,,,MU,,,,,
,visa,,,SURINAM,,,MU,,,,,
,visa,,,LABOURDONNAIS,,,MU,,,,,
,visa,,,GOODLANDS,,,MU,,,,,
,visa,,,GOODLANDS 2,,,MU,,,,,
,visa,,,GOODLANDS 1,,,MU,,,,,
,visa,,,GOODLANDS,,,MU,,,,,
,visa,,,RIV DES ANGUILLES2,,,MU,,,,,
,visa,,,RIV DES ANGUILLES1,,,MU,,,,,
,visa,,,RIVIERE DES ANGUILLES,,,MU,,,,,
,visa,,,BEL AIR,,,MU,,,,,
,visa,,,ROSE BELLE,,,MU,,,,,
,visa,,,ROSE BELLE 1,,,MU,,,,,
,visa,,,ROSE BELLE 2,,,MU,,,,,
,visa,,,RIV DU REMPART 2,,,MU,,,,,
,visa,,,RIV DU REMPART 1,,,MU,,,,,
,visa,,,ROSE BELLE,,,MU,,,,,
,visa,,,LALLMATIE,,,MU,,,,,
,visa,,,RIVIERE DU REMPART,,,MU,,,,,
,visa,,,LESCALIER,,,MU,,,,,
,visa,,,FLACQ,,,MU,,,,,
,visa,,,FLACQ 1,,,MU,,,,,
,visa,,,FLACQ 2,,,MU,,,,,
,visa,,,CENTRE DE FLACQ,,,MU,,,,,
,visa,,,CENTRE DE FLACQ,,,MU,,,,,
,visa,,,CENTRE DE FLACQ,,,MU,,,,,
,visa,,,MAHEBOURG,,,MU,,,,,
,visa,,,MAHEBOURG,,,MU,,,,,
,visa,,,MAHEBOURG,,,MU,,,,,
,visa,,,MAHEBOURG,,,MU,,,,,
,visa,,,MAHEBOURG 1,,,MU,,,,,
,visa,,,MAHEBOURG 2,,,MU,,,,,
,visa,,,BEL AIR,,,MU,,,,,
,visa,,,BELLE MARE,,,MU,,,,,
,visa,,,MAHEBOURG,,,MU,,,,,
,visa,,,FLACQ,,,MU,,,,,
,visa,,,RODRIGUES,,,MU,,,,,
,visa,,,RODRIGUES 2,,,MU,,,,,
,visa,,,RODRIGUES 3,,,MU,,,,,
,visa,,,RODRIGUES 1,,,MU,,,,,
,visa,,,RODRIGUES,,,MU,,,,,
,visa,,,RODRIGUES,,,MU,,,,,
