Ref,Spider,Name,Address,City,State,Zipcode,Country,Phone,Website,Hours,Brand,WikiData
164473,bluerhino,Family Dollar #07097,,FERRIS,TX,,US,+1 972-544-2531,,,Blue Rhino,Q65681213
193387,bluerhino,Brookshire Brothers #93,,Ferris,TX,,US,+1 972-544-8733,,,Blue Rhino,Q65681213
https://www.edwardjones.com/us-en/financial-advisor/jason-crenshaw,edwardjones,Jason Crenshaw,,Ferris,TX,,US,+1 972-544-2172,https://www.edwardjones.com/us-en/financial-advisor/jason-crenshaw,Mo-Fr 08:00-16:00,Edward Jones,Q5343830
https://local.fedex.com/#25234151,fedex,,,Ferris,TX,,US,+1 800-463-3339,https://local.fedex.com/en-us/tx/ferris/crsbc,,FedEx,Q459477
https://locations.jackinthebox.com/us/tx/ferris/400-s-interstate-highway-45,jackinthebox,Jack in the Box,,Ferris,TX,,US,+1 972-544-2375,https://locations.jackinthebox.com/us/tx/ferris/400-s-interstate-highway-45,Mo-Th 06:00-00:00; Fr-Sa 06:00-02:00; Su 06:00-00:00,Jack in the Box,Q1538507
https://locations.oreillyauto.com/tx/ferris/check-engine-light-testing-6116.html,oreilly,Your Ferris O'Reilly Auto Parts Store,,Ferris,TX,,US,+1 972-544-9471,https://locations.oreillyauto.com/tx/ferris/check-engine-light-testing-6116.html,Mo-Sa 07:30-21:00; Su 09:00-19:00,O'Reilly Auto Parts,Q7071951
https://locations.oreillyauto.com/tx/ferris/wiper-installation-6116.html,oreilly,Your Ferris O'Reilly Auto Parts Store,,Ferris,TX,,US,+1 972-544-9471,https://locations.oreillyauto.com/tx/ferris/wiper-installation-6116.html,Mo-Sa 07:30-21:00; Su 09:00-19:00,O'Reilly Auto Parts,Q7071951
https://locations.oreillyauto.com/tx/ferris/battery-testing-6116.html,oreilly,Your Ferris O'Reilly Auto Parts Store,,Ferris,TX,,US,+1 972-544-9471,https://locations.oreillyauto.com/tx/ferris/battery-testing-6116.html,Mo-Sa 07:30-21:00; Su 09:00-19:00,O'Reilly Auto Parts,Q7071951
https://locations.oreillyauto.com/tx/ferris/autopartes-6116.html,oreilly,O'Reilly Auto Parts,,Ferris,TX,,US,+1 972-544-9471,https://locations.oreillyauto.com/tx/ferris/autopartes-6116.html,Mo-Sa 07:30-21:00; Su 09:00-19:00,O'Reilly Auto Parts,Q7071951
tx_ferris_312-s-interstate-45,pizza_hut_us,312 S Interstate 45,,Ferris,TX,,US,+1 972-544-8180,https://locations.pizzahut.com/tx/ferris/312-s-interstate-45,,Pizza Hut,Q191615
https://restaurants.subway.com/#14896062,subway,Subway Shaw Creek Towne Center,,Ferris Ellis,TX,,US,+1 972-544-2141,https://restaurants.subway.com/united-states/tx/ferris/454-fm-664,Mo-Su 08:30-21:30,Subway,Q244457
https://locations.tacobell.com/#9337173,taco_bell,Taco Bell,,Ferris,TX,,US,+1 972-544-2156,https://locations.tacobell.com/tx/ferris/314-n--interstate-45.html,Mo-Th 07:30-01:00; Fr-Sa 07:30-03:00; Su 07:30-01:00,Taco Bell,Q752941
1363340,usps,FERRIS,,FERRIS,TX,,US,+1 972-544-3872,,"Mo-Fr 08:00-12:00,13:00-16:00",United States Postal Service,Q668687
7512505180,usps_collection_boxes,USPS COLLECTION BOX - BLUE BOX,413 W 6TH ST,FERRIS,TX,,US,,,,United States Postal Service,Q668687
7512500821,usps_collection_boxes,USPS COLLECTION BOX - BLUE BOX,413 W 6TH ST,FERRIS,TX,,US,,,,United States Postal Service,Q668687
7512506693,usps_collection_boxes,USPS COLLECTION BOX - PO LOBBY,413 W 6TH ST,FERRIS,TX,,US,,,,United States Postal Service,Q668687
7512506695,usps_collection_boxes,USPS COLLECTION BOX - PO LOBBY,413 W 6TH ST,FERRIS,TX,,US,,,,United States Postal Service,Q668687
,visa,,,FERRIS,TX,,US,,,,,
,visa,,,FERRIS,TX,,US,,,,,
,visa,,,FERRIS,TX,,US,,,,,
,visa,,,FERRIS,TX,,US,,,,,
,visa,,,FERRIS,TX,,US,,,,,
,visa,,,FERRIS,TX,,US,,,,,
,visa,,,FERRIS,TX,,US,,,,,
,visa,,,FERRIS,TX,,US,,,,,
,visa,,,FERRIS,TX,,US,,,,,
b98389c4af24b2395233fd286063c880,western_union,E-Z MART #4240,,Ferris,TX,,US,+1 972-544-8007,https://location.westernunion.com/us/tx/ferris/b98389c4af24b2395233fd286063c880,Mo-Su 08:00-20:00,Western Union,Q861042
