Ref,Spider,Name,Address,City,State,Zipcode,Country,Phone,Website,Hours,Brand,WikiData
68244455,moneygram,BDO - #821 - LAGUNA - ALAMINOS,,ALAMINOS,,,PH,27026000,,Mo-Fr 08:30-18:00; Sa-Su 00:00-24:00,MoneyGram,Q1944412
68306872,moneygram,METROBANK - ALAMINOS PANGASINAN,,ALAMINOS,,,PH,28700700,,Mo-Fr 09:00-17:00; Sa 13:00-16:30; Su 00:00-24:00,MoneyGram,Q1944412
72203945,moneygram,PALAWAN PAWNSHOP - #EOM - ALAMINOS - PAN,,ALAMINOS,,,PH,+63 48 433 4110,,Mo-Su 08:00-17:30,MoneyGram,Q1944412
72257247,moneygram,RD PAWNSHOP INC. - #1910 - ALAMINOS - A,,ALAMINOS,,,PH,+63 995 927 0758,,Mo-Sa 08:00-18:00; Su 09:00-17:00,MoneyGram,Q1944412
72569757,moneygram,USSC - #10301 - PANGASINAN - ALAMINOS,,ALAMINOS,,,PH,+63 75 653 1925,,Mo-Su 09:30-18:30,MoneyGram,Q1944412
68893741,moneygram,M LHUILLIER - ALAMINOS 2 PANGASINAN,,ALAMINOS,,,PH,+63 32 348 9400,,Mo-Su 07:00-18:00,MoneyGram,Q1944412
72981526,moneygram,BCN COMMUNICATIONS & SERVICE CENTER - #7,,ALAMINOS,,,PH,7509164668536,,Mo-Su 08:00-17:00,MoneyGram,Q1944412
72229822,moneygram,CB ESTRADA PAWNSHOP - ALAMINOS,,ALAMINOS,,,PH,5409472,,Mo-Su 07:00-21:00,MoneyGram,Q1944412
73905666,moneygram,HL VILLARICA PAWNSHOP - #PSG004 - HL VIL,,ALAMINOS,,,PH,87026350,,Mo-Sa 07:00-19:00; Su 08:00-17:00,MoneyGram,Q1944412
73905679,moneygram,HL VILLARICA PAWNSHOP - #PSG005 - HL VIL,,ALAMINOS,,,PH,87026350,,Mo-Sa 07:00-19:00; Su 08:00-17:00,MoneyGram,Q1944412
72785366,moneygram,TAMBUNTING SINCE 1906 - A ALAMINOS,,ALAMINOS,,,PH,85516032,,Mo-Su 07:30-22:00,MoneyGram,Q1944412
72952173,moneygram,CEBUANA LHUILLIER - #61869 - ALAMINOS CI,,ALAMINOS CITY,,,PH,7799803,,Mo-Su 07:00-23:00,MoneyGram,Q1944412
70163964,moneygram,CEBUANA LHUILLIER - CLH ALAMINOS 1,,ALAMINOS CITY,,,PH,27799800,,Mo-Su 07:00-19:00,MoneyGram,Q1944412
70160378,moneygram,CEBUANA LHUILLIER - CLH ALAMINOS 2,,ALAMINOS CITY,,,PH,27799800,,Mo-Su 07:00-19:00,MoneyGram,Q1944412
70168215,moneygram,CEBUANA LHUILLIER - CLH ALAMINOS 3,,ALAMINOS CITY,,,PH,27799800,,Mo-Su 07:00-19:00,MoneyGram,Q1944412
70169696,moneygram,CEBUANA LHUILLIER - CLH ALAMINOS MONTEMA,,ALAMINOS CITY,,,PH,27799800,,Mo-Su 08:00-17:00,MoneyGram,Q1944412
73787020,moneygram,EBIZ - #105 - ALAMINOS CITY - ALAMINOS,,ALAMINOS CITY,,,PH,637586360881,,Mo-Sa 07:30-17:00; Su 08:00-17:00,MoneyGram,Q1944412
72507162,moneygram,LBC - #837 - ALAMINOS CITY - ALAMINOS 2,,ALAMINOS CITY,,,PH,8527239,,Mo-Sa 08:00-19:00; Su 08:00-18:00,MoneyGram,Q1944412
72507175,moneygram,LBC - #838 - ALAMINOS CITY - ALAMINOS,,ALAMINOS CITY,,,PH,8527239,,Mo-Sa 07:00-19:00; Su 00:00-24:00,MoneyGram,Q1944412
74006140,moneygram,SAVEMORE MARKET - #SV1720 - SAVEMORE MAR,,ALAMINOS,,,PH,+63 2 8702 6350,,Mo-Su 08:00-20:00,MoneyGram,Q1944412
74436354,moneygram,RAMOS MONEY CHANGER - #720BD - ALAMINOS,,ALAMINOS,,,PH,+63 75 529 6554,,Mo-Su 08:00-17:00,MoneyGram,Q1944412
74729605,moneygram,SINAG PAWNSHOP CORPORATION - #45327 - PA,,PANGASINAN,,,PH,759998461933,,Mo-Su 07:30-18:00,MoneyGram,Q1944412
68886871,moneygram,M LHUILLIER - ML ALAMINOS 2 PANGASINAN,,ALAMINOS,,,PH,28302011,,Mo-Su 07:00-18:00,MoneyGram,Q1944412
71094799,moneygram,PALAWAN PAWNSHOP - PANGASINAN- ALAMINOS,,ALAMINOS,,,PH,+63 48 433 4110,,Mo-Su 08:00-17:30,MoneyGram,Q1944412
71094809,moneygram,PALAWAN PAWNSHOP - PANGASINAN- ALAMINOS,,ALAMINOS,,,PH,+63 48 433 4110,,Mo-Su 08:00-17:30,MoneyGram,Q1944412
65264111,moneygram,BDO - #545 - PANGASINAN - ALAMINOS,,ALAMINOS,,,PH,+63 75 551 3353,,Mo-Sa 08:30-18:00; Su 00:00-24:00,MoneyGram,Q1944412
65277616,moneygram,M LHUILLIER - ALAMINOS 1 PANGASINAN,,ALAMINOS,,,PH,+63 32 348 9400,,Mo-Su 07:00-18:00,MoneyGram,Q1944412
PH_003,totalenergies,"Alaminos, Pangasinan",,Alaminos City,,,PH,,https://store.totalenergies.fr/en_EN/PH_003,24/7,TotalEnergies,Q154037
PH_436,totalenergies,Alaminos - Poblacion,,Alaminos City,,,PH,,https://store.totalenergies.fr/en_EN/PH_436,,TotalEnergies,Q154037
