Ref,Spider,Name,Address,City,State,Zipcode,Country,Phone,Website,Hours,Brand,WikiData
FordIJ19833  ITA,ford,AUTOFFICINA STILCAR MOTORSPORT SRL,,MODENA,,,IT,+39 059 468557,,,Ford,Q44294
FordIJ19841  ITA,ford,S.O.A. SNC,,MODENA (MO),,,IT,+39 059 333501,,,Ford,Q44294
dealer_50898,maserati,MOTOR SERVICE,,MODENA,,,IT,+39 059 280009,,,Maserati,Q35962
dealer_80292,maserati,CAMPANA ONORIO,,MODENA,,,IT,+39 059 828079,,,Maserati,Q35962
https://www.stroilioro.com/it_IT/gioiellerie-stroili/dettagli-negozio/?storeID=0043,stroili_oro_it,Stroili - Gioielleria Stroili Modena Rotonda - 0043,,MODENA,,,IT,+39 059 395225,https://www.stroilioro.com/it_IT/gioiellerie-stroili/dettagli-negozio/?storeID=0043,Mo 09:00-20:00; Tu-Su 08:30-20:30,Stroili Oro,Q106611306
https://www.stroilioro.com/it_IT/gioiellerie-stroili/dettagli-negozio/?storeID=0463,stroili_oro_it,Stroili - Gioielleria Stroili Baggiovara - 0463,,BAGGIOVARA,,,IT,+39 059 512921,https://www.stroilioro.com/it_IT/gioiellerie-stroili/dettagli-negozio/?storeID=0463,Mo 09:00-13:00; Tu-Su 08:30-20:00,Stroili Oro,Q106611306
https://www.stroilioro.com/it_IT/gioiellerie-stroili/dettagli-negozio/?storeID=0796,stroili_oro_it,Stroili - Gioielleria Stroili Modena Grand'Emilia - 0796,,MODENA,,,IT,+39 059 848286,https://www.stroilioro.com/it_IT/gioiellerie-stroili/dettagli-negozio/?storeID=0796,Mo 09:00-20:00; Tu-Su 09:00-21:00,Stroili Oro,Q106611306
IT_EXT_01436,totalenergies,ISOLA PREPAY,,MODENA,,,IT,,https://store.totalenergies.fr/en_EN/IT_EXT_01436,,TotalErg,Q3995933
IT_EXT_01481,totalenergies,ISOLA PREPAY,,MODENA,,,IT,,https://store.totalenergies.fr/en_EN/IT_EXT_01481,,TotalErg,Q3995933
IT_EXT_01757,totalenergies,ISOLA POSTPAY,,MODENA,,,IT,,https://store.totalenergies.fr/en_EN/IT_EXT_01757,,TotalErg,Q3995933
,visa,,,MODENA,,,IT,,,,,
,visa,,,MODENA,,,IT,,,,,
,visa,,,MODENA,,,IT,,,,,
,visa,,,MODENA,,,IT,,,,,
,visa,,,MODENA,,,IT,,,,,
,visa,,,MODENA,,,IT,,,,,
,visa,,,MODENA,,,IT,,,,,
,visa,,,MODENA,,,IT,,,,,
,visa,,,MODENA,,,IT,,,,,
,visa,,,MODENA,,,IT,,,,,
,visa,,,MODENA,,,IT,,,,,
,visa,,,MODENA,,,IT,,,,,
,visa,,,MODENA,,,IT,,,,,
,visa,,,MODENA,,,IT,,,,,
,visa,,,MODENA,,,IT,,,,,
,visa,,,MODENA,,,IT,,,,,
,visa,,,MODENA,,,IT,,,,,
,visa,,,MODENA,,,IT,,,,,
,visa,,,MODENA AG.1,,,IT,,,,,
,visa,,,MODENA,,,IT,,,,,
,visa,,,MODENA,,,IT,,,,,
,visa,,,MODENA,,,IT,,,,,
,visa,,,MODENA,,,IT,,,,,
,visa,,,MODENA,,,IT,,,,,
,visa,,,MODENA,,,IT,,,,,
,visa,,,MODENA,,,IT,,,,,
,visa,,,MODENA,,,IT,,,,,
,visa,,,MODENA,,,IT,,,,,
,visa,,,MODENA,,,IT,,,,,
,visa,,,MODENA,,,IT,,,,,
,visa,,,MODENA,,,IT,,,,,
,visa,,,MODENA,,,IT,,,,,
,visa,,,MODENA,,,IT,,,,,
,visa,,,MODENA,,,IT,,,,,
,visa,,,MODENA,,,IT,,,,,
,visa,,,MODENA,,,IT,,,,,
,visa,,,MODENA,,,IT,,,,,
,visa,,,MODENA,,,IT,,,,,
,visa,,,MODENA,,,IT,,,,,
,visa,,,MODENA,,,IT,,,,,
,visa,,,MODENA,,,IT,,,,,
,visa,,,MODENA,,,IT,,,,,
,visa,,,MODENA,,,IT,,,,,
,visa,,,MODENA,,,IT,,,,,
,visa,,,MODENA,,,IT,,,,,
,visa,,,MODENA,,,IT,,,,,
,visa,,,MODENA,,,IT,,,,,
,visa,,,MODENA,,,IT,,,,,
,visa,,,MODENA,,,IT,,,,,
,visa,,,MODENA,,,IT,,,,,
,visa,,,MODENA,,,IT,,,,,
,visa,,,MODENA,,,IT,,,,,
,visa,,,MODENA,,,IT,,,,,
,visa,,,MODENA,,,IT,,,,,
,visa,,,MODENA,,,IT,,,,,
,visa,,,MODENA,,,IT,,,,,
,visa,,,MODENA,,,IT,,,,,
,visa,,,MODENA,,,IT,,,,,
,visa,,,MODENA,,,IT,,,,,
,visa,,,MODENA,,,IT,,,,,
,visa,,,MODENA,,,IT,,,,,
,visa,,,MODENA,,,IT,,,,,
,visa,,,MODENA,,,IT,,,,,
,visa,,,MODENA,,,IT,,,,,
,visa,,,MODENA,,,IT,,,,,
,visa,,,MODENA,,,IT,,,,,
,visa,,,MODENA,,,IT,,,,,
,visa,,,MODENA,,,IT,,,,,
,visa,,,MODENA,,,IT,,,,,
,visa,,,MODENA,,,IT,,,,,
,visa,,,MODENA,,,IT,,,,,
,visa,,,MODENA,,,IT,,,,,
,visa,,,MODENA,,,IT,,,,,
,visa,,,MODENA,,,IT,,,,,
,visa,,,MODENA,,,IT,,,,,
,visa,,,MODENA,,,IT,,,,,
,visa,,,MODENA,,,IT,,,,,
,visa,,,MODENA,,,IT,,,,,
,visa,,,MODENA,,,IT,,,,,
,visa,,,MODENA,,,IT,,,,,
,visa,,,MODENA,,,IT,,,,,
,visa,,,MODENA,,,IT,,,,,
,visa,,,MODENA,,,IT,,,,,
,visa,,,MODENA,,,IT,,,,,
,visa,,,MODENA,,,IT,,,,,
,visa,,,MODENA,,,IT,,,,,
,visa,,,MODENA,,,IT,,,,,
,visa,,,MODENA,,,IT,,,,,
,visa,,,MODENA,,,IT,,,,,
,visa,,,MODENA,,,IT,,,,,
,visa,,,MODENA,,,IT,,,,,
,visa,,,MODENA,,,IT,,,,,
,visa,,,MODENA,,,IT,,,,,
,visa,,,MODENA,,,IT,,,,,
,visa,,,MODENA,,,IT,,,,,
,visa,,,MODENA,,,IT,,,,,
,visa,,,MODENA,,,IT,,,,,
,visa,,,MODENA,,,IT,,,,,
,visa,,,MODENA,,,IT,,,,,
,visa,,,MODENA,,,IT,,,,,
,visa,,,MODENA,,,IT,,,,,
,visa,,,MODENA,,,IT,,,,,
,visa,,,MODENA,,,IT,,,,,
,visa,,,MODENA,,,IT,,,,,
,visa,,,MODENA,,,IT,,,,,
,visa,,,MODENA,,,IT,,,,,
,visa,,,MODENA,,,IT,,,,,
,visa,,,MODENA AG.2,,,IT,,,,,
,visa,,,MODENA,,,IT,,,,,
,visa,,,MODENA,,,IT,,,,,
,visa,,,MODENA,,,IT,,,,,
,visa,,,MODENA,,,IT,,,,,
,visa,,,MODENA,,,IT,,,,,
,visa,,,MODENA,,,IT,,,,,
,visa,,,MODENA,,,IT,,,,,
,visa,,,MODENA,,,IT,,,,,
,visa,,,MODENA,,,IT,,,,,
,visa,,,MODENA,,,IT,,,,,
,visa,,,MODENA,,,IT,,,,,
,visa,,,MODENA,,,IT,,,,,
,visa,,,MODENA,,,IT,,,,,
,visa,,,MODENA,,,IT,,,,,
,visa,,,MODENA,,,IT,,,,,
,visa,,,MODENA,,,IT,,,,,
,visa,,,MODENA,,,IT,,,,,
,visa,,,MODENA,,,IT,,,,,
,visa,,,MODENA,,,IT,,,,,
,visa,,,MODENA,,,IT,,,,,
,visa,,,MODENA,,,IT,,,,,
,visa,,,MODENA,,,IT,,,,,
,visa,,,MODENA,,,IT,,,,,
,visa,,,MODENA,,,IT,,,,,
,visa,,,MODENA,,,IT,,,,,
,visa,,,MODENA,,,IT,,,,,
,visa,,,MODENA,,,IT,,,,,
,visa,,,MODENA,,,IT,,,,,
,visa,,,MODENA,,,IT,,,,,
,visa,,,MODENA,,,IT,,,,,
,visa,,,MODENA,,,IT,,,,,
,visa,,,MODENA,,,IT,,,,,
,visa,,,MODENA,,,IT,,,,,
,visa,,,MODENA,,,IT,,,,,
,visa,,,MODENA,,,IT,,,,,
,visa,,,MODENA,,,IT,,,,,
,visa,,,MODENA,,,IT,,,,,
,visa,,,MODENA,,,IT,,,,,
,visa,,,MODENA,,,IT,,,,,
,visa,,,MODENA,,,IT,,,,,
,visa,,,MODENA,,,IT,,,,,
,visa,,,MODENA,,,IT,,,,,
,visa,,,MODENA,,,IT,,,,,
,visa,,,MODENA,,,IT,,,,,
,visa,,,MODENA,,,IT,,,,,
,visa,,,MODENA,,,IT,,,,,
,visa,,,MODENA,,,IT,,,,,
,visa,,,MODENA,,,IT,,,,,
,visa,,,MODENA,,,IT,,,,,
,visa,,,MODENA,,,IT,,,,,
,visa,,,MODENA,,,IT,,,,,
,visa,,,MODENA,,,IT,,,,,
