Ref,Spider,Name,Address,City,State,Zipcode,Country,Phone,Website,Hours,Brand,WikiData
33655,citi,ATM 7ELEVEN-FCTI,,Delhi,CA,,US,,,,Citibank,Q857063
80221245,cricket_wireless,Cricket Wireless Authorized Retailer,,Delhi,CA,,US,+1 209-250-2567,https://www.cricketwireless.com/stores/ll/US/CA/Delhi/9724,Mo-Sa 11:00-18:00,Cricket Wireless,Q5184987
14670,dollar_general,Dollar General,,Delhi,CA,,US,+1 209-250-4676,https://www.dollargeneral.com/store-directory/ca/delhi/14670,Mo-Su 08:00-22:00,Dollar General,Q145168
Delhi Liberty Market,iga,Delhi Liberty Market,"16385 Schendel Ave, Delhi, CA, 95315",Delhi,CA,,US,+1 209-295-7160,,,IGA,Q3146662
https://locations.oreillyauto.com/ca/delhi/check-engine-light-testing-5620.html,oreilly,Your Delhi O'Reilly Auto Parts Store,,Delhi,CA,,US,+1 209-262-1342,https://locations.oreillyauto.com/ca/delhi/check-engine-light-testing-5620.html,Mo-Sa 07:30-21:00; Su 07:30-20:00,O'Reilly Auto Parts,Q7071951
https://locations.oreillyauto.com/ca/delhi/battery-testing-5620.html,oreilly,Your Delhi O'Reilly Auto Parts Store,,Delhi,CA,,US,+1 209-262-1342,https://locations.oreillyauto.com/ca/delhi/battery-testing-5620.html,Mo-Sa 07:30-21:00; Su 07:30-20:00,O'Reilly Auto Parts,Q7071951
https://locations.oreillyauto.com/ca/delhi/wiper-installation-5620.html,oreilly,Your Delhi O'Reilly Auto Parts Store,,Delhi,CA,,US,+1 209-262-1342,https://locations.oreillyauto.com/ca/delhi/wiper-installation-5620.html,Mo-Sa 07:30-21:00; Su 07:30-20:00,O'Reilly Auto Parts,Q7071951
https://locations.oreillyauto.com/ca/delhi/autopartes-5620.html,oreilly,Tu tienda O'Reilly Auto Parts en Delhi,,Delhi,CA,,US,+1 209-262-1342,https://locations.oreillyauto.com/ca/delhi/autopartes-5620.html,Mo-Sa 07:30-21:00; Su 07:30-20:00,O'Reilly Auto Parts,Q7071951
0000896169,phillips_66_conoco_76,DELHI,,DELHI,CA,,US,+1 209-632-3501,,,U76,Q1658320
39548,seven_eleven_ca_us,Bcp Store,,Delhi,CA,,US,+1 209-632-3501,https://www.7-eleven.com/locations/ca/delhi/9510-stephens-rd-39548,,7-Eleven,Q259340
039384,uhaul,H&S Sandhu Inc,9510 Stephens St,Delhi,CA,,US,+1 209-669-0584,,Mo-Sa 00:00-16:00,U-Haul,Q7862902
1360602,usps,DELHI,,DELHI,CA,,US,+1 209-668-1309,,Mo-Fr 08:30-16:30,United States Postal Service,Q668687
9531500002,usps_collection_boxes,USPS COLLECTION BOX - PO LOBBY,16096 LOCUST ST,DELHI,CA,,US,,,,United States Postal Service,Q668687
9531500001,usps_collection_boxes,USPS COLLECTION BOX - PO LOBBY,16096 LOCUST ST,DELHI,CA,,US,,,,United States Postal Service,Q668687
9531500003,usps_collection_boxes,USPS COLLECTION BOX - BLUE BOX,16096 LOCUST ST,DELHI,CA,,US,,,,United States Postal Service,Q668687
9531500004,usps_collection_boxes,USPS COLLECTION BOX - PO LOBBY,16096 LOCUST ST,DELHI,CA,,US,,,,United States Postal Service,Q668687
,visa,,,DELHI,CA,,US,,,,,
,visa,,,DELHI,CA,,US,,,,,
,visa,,,DELHI,CA,,US,,,,,
,visa,,,DELHI,CA,,US,,,,,
,visa,,,DELHI,CA,,US,,,,,
,visa,,,DELHI,CA,,US,,,,,
,visa,,,DELHI,CA,,US,,,,,
,visa,,,DELHI,CA,,US,,,,,
da4f6fe0a8e30bfe0ba1525dd2242a2c,western_union,DELHI LIQUOR LAND,,Delhi,CA,,US,+1 209-606-7172,https://location.westernunion.com/us/ca/delhi/da4f6fe0a8e30bfe0ba1525dd2242a2c,Mo-Su 07:00-21:00,Western Union,Q861042
f647e1ed4fe3b1a43417992e43c07f0b,western_union,DELHI LIQUOR LAND,,Delhi,CA,,US,+1 209-606-7172,https://location.westernunion.com/us/ca/delhi/f647e1ed4fe3b1a43417992e43c07f0b,Mo-Su 07:00-21:00,Western Union,Q861042
