Ref,Spider,Name,Address,City,State,Zipcode,Country,Phone,Website,Hours,Brand,WikiData
33829,citi,ATM 7ELEVEN-FCTI,,Jefferson Vly,NY,,US,,,,Citibank,Q857063
352623,dunkin_us,Dunkin',,Jefferson Valley,NY,,US,+1 914-302-7569,https://locations.dunkindonuts.com/en/ny/jefferson-valley/3663-lee-rd/352623,Mo-Su 05:00-21:00,Dunkin',Q847743
40227,seven_eleven_ca_us,7-Eleven Store,,Jefferson Valley,NY,,US,+1 914-962-9891,https://www.7-eleven.com/locations/ny/jefferson-valley/3650-lee-blvd-40227,,7-Eleven,Q259340
https://restaurants.subway.com/#14901187,subway,Subway Jefferson Valley Shopping Ctr,,Jefferson Valley Bronx,NY,,US,+1 914-302-2212,https://restaurants.subway.com/united-states/ny/jefferson-valley/3661-lee-road,Mo-Sa 09:00-21:00; Su 10:00-19:00,Subway,Q244457
0669479800,sunoco_us,Sunoco,,JEFFERSON VALLEY,NY,,US,+1 914-962-9891,,,Sunoco,Q1423218
1368359,usps,JEFFERSON VALLEY,,JEFFERSON VALLEY,NY,,US,+1 914-245-5705,,Mo-Fr 08:00-17:00; Sa 09:00-12:00,United States Postal Service,Q668687
1053500001,usps_collection_boxes,USPS COLLECTION BOX - BLUE BOX,3652 LEE RD,JEFFERSON VLY,NY,,US,,,,United States Postal Service,Q668687
1053500003,usps_collection_boxes,USPS COLLECTION BOX - PO LOBBY,3652 LEE RD LBBY DROP,JEFFERSON VLY,NY,,US,,,,United States Postal Service,Q668687
1053500004,usps_collection_boxes,USPS COLLECTION BOX - PO LOBBY,3652 LEE RD,JEFFERSON VLY,NY,,US,,,,United States Postal Service,Q668687
,visa,,,JEFFERSON VALLEY,NY,,US,,,,,
,visa,,,JEFFERSON VALLEY,NY,,US,,,,,
,visa,,,JEFFERSON VAL,NY,,US,,,,,
,visa,,,JEFFERSON VALLEY,NY,,US,,,,,
,visa,,,JEFFERSON VALLEY,NY,,US,,,,,
,visa,,,JEFFERSON VALLEY,NY,,US,,,,,
,visa,,,JEFFERSON VALLEY,NY,,US,,,,,
,visa,,,JEFFERSON VAL,NY,,US,,,,,
,visa,,,JEFFERSON VALLEY,NY,,US,,,,,
,visa,,,JEFFERSON VALLEY,NY,,US,,,,,
,visa,,,JEFFERSON VLY,NY,,US,,,,,
,visa,,,JEFFERSON VALLEY,NY,,US,,,,,
,visa,,,JEFFERSON VALLEY,NY,,US,,,,,
,visa,,,YORKTOWN,NY,,US,,,,,
