Ref,Spider,Name,Address,City,State,Zipcode,Country,Phone,Website,Hours,Brand,WikiData
https://local.pharmacy.albertsons.com/#5672608,albertsons,Albertsons Pharmacy,,Homedale,ID,,US,+1 208-337-4888,https://local.pharmacy.albertsons.com/id/homedale/20-e-wyoming-ave.html,Mo-Fr 08:00-19:00; Sa 09:00-18:00; Su 10:00-16:00,Albertsons,Q2831861
https://local.albertsons.com/#5603330,albertsons,Albertsons,,Homedale,ID,,US,+1 208-337-4679,https://local.albertsons.com/id/homedale/20-e-wyoming-ave.html,"Mo-Fr 07:00-22:00,08:00-19:00; Sa 07:00-22:00,09:00-18:00; Su 07:00-22:00,10:00-16:00",Albertsons,Q2831861
3702,autozone_us,AutoZone Auto Parts Homedale,,Homedale,ID,,US,+1 208-337-3170,https://www.autozone.com/locations/id/homedale/120-s-main-st.html,Mo-Sa 08:00-20:00; Su 08:00-19:00,AutoZone,Q4826087
163012,bluerhino,Family Dollar #07059,,HOMEDALE,ID,,US,+1 208-337-5484,,,Blue Rhino,Q65681213
186521,bluerhino,Tolmie's Ace Hardware #6137,,Homedale,ID,,US,+1 208-337-5006,,,Blue Rhino,Q65681213
380944,chevron,Chevron Station #380944,101 E IDAHO AVE,HOMEDALE,ID,,US,+1 202-337-3959,,,Chevron,Q319642
48964,h_r_block,H&R Block,,Homedale,ID,,US,+1 208-337-5539,https://www.hrblock.com/local-tax-offices/idaho/homedale/136-e-idaho-st/48964/,,H&R Block,Q5627799
85474,little_free_library,Little Book Cabin #85474 Homedale ID,,Homedale,ID,,US,,,,Little Free Library,Q6650101
0000819721,phillips_66_conoco_76,OWYHEE MOTOR,,HOMEDALE,ID,,US,+1 208-337-4664,,,Phillips 66,Q1656230
https://restaurants.subway.com/#14901702,subway,Subway,,Homedale Owyhee,ID,,US,+1 208-337-5777,https://restaurants.subway.com/united-states/id/homedale/321-e-idaho-ave,Mo-Su 08:00-22:00,Subway,Q244457
1367288,usps,HOMEDALE,,HOMEDALE,ID,,US,+1 208-337-3105,,Mo-Fr 08:30-16:30,United States Postal Service,Q668687
8362800002,usps_collection_boxes,USPS COLLECTION BOX - BLUE BOX,24 E WYOMING AVE,HOMEDALE,ID,,US,,,,United States Postal Service,Q668687
8362800001,usps_collection_boxes,USPS COLLECTION BOX - PO LOBBY,7 N MAIN ST,HOMEDALE,ID,,US,,,,United States Postal Service,Q668687
8362800003,usps_collection_boxes,USPS COLLECTION BOX - PO LOBBY,7 N MAIN ST,HOMEDALE,ID,,US,,,,United States Postal Service,Q668687
8362800000,usps_collection_boxes,USPS COLLECTION BOX - BLUE BOX,7 N MAIN ST,HOMEDALE,ID,,US,,,,United States Postal Service,Q668687
,visa,,,HOMEDALE,ID,,US,,,,,
,visa,,,HOMEDALE,ID,,US,,,,,
,visa,,,HOMEDALE,ID,,US,,,,,
,visa,,,HOMEDALE,ID,,US,,,,,
,visa,,,HOMEDALE,ID,,US,,,,,
,visa,,,HOMEDALE,ID,,US,,,,,
,visa,,,HOMEDALE,ID,,US,,,,,
,visa,,,HOMEDALE,ID,,US,,,,,
,visa,,,HOMEDALE,ID,,US,,,,,
,visa,,,HOMEDALE,ID,,US,,,,,
,visa,,,HOMEDALE,ID,,US,,,,,
