Ref,Spider,Name,Address,City,State,Zipcode,Country,Phone,Website,Hours,Brand,WikiData
12902,cenex,"Milan, Inc.",,Miller,SD,,US,+1 605-853-3758,,24/7,Cenex,Q62127191
34517,citi,ATM American Bank & Trust,,Miller,SD,,US,,,,Citibank,Q857063
34532,citi,ATM AMERICAN BANK AND TRUST,,Miller,SD,,US,,,,Citibank,Q857063
71853,citi,ATM QUOIN FINANCIAL BANK,,Miller,SD,,US,,,,Citibank,Q857063
34523,citi,ATM AMERICAN BANK AND TRUST,,Miller,SD,,US,,,,Citibank,Q857063
33544,family_dollar_us,FAMILY DOLLAR #13544,,Miller,SD,,US,+1 605-204-6734,https://www.familydollar.com/locations/sd/miller/33544/,Mo-Su 08:00-22:00,Family Dollar,Q5433101
https://local.fedex.com/#25997344,fedex,,,Miller,SD,,US,+1 800-463-3339,https://local.fedex.com/en-us/sd/miller/pirad,,FedEx,Q459477
https://stations.sinclairoil.com/sd/miller/704-n-broadway-ave,sinclair_us,Sinclair Gas Station,,Miller,SD,,US,+1 605-853-2404,https://stations.sinclairoil.com/sd/miller/704-n-broadway-ave,Mo-Sa 06:00-23:00; Su 06:00-22:00,Sinclair,Q1290900
https://restaurants.subway.com/#14900452,subway,Subway,,Miller Hand,SD,,US,+1 605-893-0144,https://restaurants.subway.com/united-states/sd/miller/812-n-broadway,Mo-Sa 08:30-21:00; Su 10:00-20:00,Subway,Q244457
1373144,usps,MILLER,,MILLER,SD,,US,+1 605-853-3772,,Mo-Fr 08:30-16:00; Sa 08:30-10:00,United States Postal Service,Q668687
5736200002,usps_collection_boxes,USPS COLLECTION BOX - BLUE BOX,320 N BROADWAY AVE,MILLER,SD,,US,,,,United States Postal Service,Q668687
5736200006,usps_collection_boxes,USPS COLLECTION BOX - PO LOBBY,320 N BROADWAY AVE,MILLER,SD,,US,,,,United States Postal Service,Q668687
,visa,,,MILLER,SD,,US,,,,,
,visa,,,MILLER,SD,,US,,,,,
,visa,,,MILLER,SD,,US,,,,,
,visa,,,MILLER,SD,,US,,,,,
,visa,,,MILLER,SD,,US,,,,,
,visa,,,MILLER,SD,,US,,,,,
,visa,,,MILLER,SD,,US,,,,,
,visa,,,MILLER,SD,,US,,,,,
,visa,,,MILLER,SD,,US,,,,,
,visa,,,MILLER,SD,,US,,,,,
