Ref,Spider,Name,Address,City,State,Zipcode,Country,Phone,Website,Hours,Brand,WikiData
204127,bluerhino,CASEY'S GENERAL STORE #1175,,PLATTE,SD,,US,+1 605-337-2230,,,Blue Rhino,Q65681213
216936,bluerhino,County Fair Food Store #9002,,Platte,SD,,US,+1 605-337-3325,,,Blue Rhino,Q65681213
ATM-403MSPS,bmo,ATM,,Platte,SD,,US,,,,BMO,Q4835981
bmo399,bmo,Platte - 403 Main St.,,Platte,SD,,US,+1 605-337-3331,,Mo-Fr 09:00-16:00,BMO,Q4835981
13055,cenex,44 Road Stop,,Platte,SD,,US,+1 605-337-3304,,,Cenex,Q62127191
57328,citi,ATM FORT RANDALL FEDERAL CREDIT UNION,,Wagner,SD,,US,,,,Citibank,Q857063
https://www.edwardjones.com/us-en/financial-advisor/trevor-koehn,edwardjones,Trevor Koehn,,Platte,SD,,US,+1 605-337-9588,https://www.edwardjones.com/us-en/financial-advisor/trevor-koehn,Mo-Th 08:00-16:30; Fr 08:00-16:00,Edward Jones,Q5343830
https://local.fedex.com/#26000323,fedex,,,Platte,SD,,US,+1 800-463-3339,https://local.fedex.com/en-us/sd/platte/fsdci,,FedEx,Q459477
Motorcraft4503USAEnglish,ford,"Platte Ford, Inc.",,South Dakota,SD,,US,+1 605-337-3328,,,Ford,Q44294
https://stations.sinclairoil.com/sd/platte/120-n-main-st,sinclair_us,Sinclair Gas Station,,Platte,SD,,US,+1 605-337-3681,https://stations.sinclairoil.com/sd/platte/120-n-main-st,24/7,Sinclair,Q1290900
https://stations.sinclairoil.com/sd/platte/601-s-main-ave,sinclair_us,Sinclair Gas Station,,Platte,SD,,US,+1 605-337-3751,https://stations.sinclairoil.com/sd/platte/601-s-main-ave,Mo-Sa 07:00-18:00; Su 00:00-24:00,Sinclair,Q1290900
https://restaurants.subway.com/#14904947,subway,Subway,,Platte Charles Mix,SD,,US,+1 605-337-9669,https://restaurants.subway.com/united-states/sd/platte/501-west-highway-44,Mo-Su 09:00-21:00,Subway,Q244457
1377753,usps,PLATTE,,PLATTE,SD,,US,+1 605-337-3491,,"Mo-Fr 07:45-11:30,12:00-14:45; Sa 09:00-11:00",United States Postal Service,Q668687
5736900002,usps_collection_boxes,USPS COLLECTION BOX - BLUE BOX,20 E 5TH ST,PLATTE,SD,,US,,,,United States Postal Service,Q668687
5736900003,usps_collection_boxes,USPS COLLECTION BOX - BLUE BOX,20 E 5TH ST,PLATTE,SD,,US,,,,United States Postal Service,Q668687
5736900004,usps_collection_boxes,USPS COLLECTION BOX - PO LOBBY,20 E 5TH ST,PLATTE,SD,,US,,,,United States Postal Service,Q668687
A00000033165,verizon_us,Wireless World Platte,,Platte,SD,,US,+1 605-337-3154,https://www.verizon.com/stores/details/south-dakota/platte/coles-computers-1888322/,Mo-Fr 08:30-17:30; Sa 09:00-14:00,Verizon,Q919641
,visa,,,PLATTE,SD,,US,,,,,
,visa,,,PLATTE,SD,,US,,,,,
,visa,,,PLATTE,SD,,US,,,,,
,visa,,,PLATTE,SD,,US,,,,,
,visa,,,PLATTE,SD,,US,,,,,
,visa,,,PLATTE,SD,,US,,,,,
,visa,,,PLATTE,SD,,US,,,,,
,visa,,,PLATTE,SD,,US,,,,,
