Ref,Spider,Name,Address,City,State,Zipcode,Country,Phone,Website,Hours,Brand,WikiData
2275,autozone_us,AutoZone Auto Parts Detroit,,Detroit,MI,,US,+1 313-537-2677,https://www.autozone.com/locations/mi/detroit/19701-w-eight-mile-rd.html,Mo-Sa 08:00-21:00; Su 09:00-20:00,AutoZone,Q4826087
124456,bp,BP,,Detroit,MI,,US,+1 810-695-1436,,,BP,Q152057
121542,bp,BP,,Detroit,MI,,US,+1 313-538-8189,,,BP,Q152057
127749,bp,Amoco,,Detroit,MI,,US,+1 313-766-7901,,,BP,Q152057
90917506654004821900100000000000,bp,BP,,Detroit,MI,,US,+1 313-534-2660,,24/7,BP,Q152057
10809467,chase_us,ISLAND IN PARKING LOT - 105140,,DETROIT,MI,,US,+1 800-935-9935,https://locator.chase.com/mi/detroit/19316-w-mcnichols-rd,,Chase,Q524629
19741-w-mcnichols-road,churchs_chicken,W. McNichols Road,,Detroit,MI,,US,+1 313-532-8267,https://locations.churchs.com/mi/detroit/19741-w-mcnichols-road,,Church's Chicken,Q1089932
48616,citi,ATM CVS,,Detroit,MI,,US,,,,Citibank,Q857063
94386,citi,ATM Wayne County - Northwest,,Detroit,MI,,US,,,,Citibank,Q857063
48579,citi,ATM CVS,,Detroit,MI,,US,,,,Citibank,Q857063
800771,citizens_us,Citizens Redford,,Detroit,MI,,US,+1 313-533-6100,,Mo-Fr 09:00-16:00; Sa 09:00-12:00,Citizens,Q5122694
ATM-161,citizens_us,,,Detroit,MI,,US,+1 313-533-6100,,24/7,Citizens,Q5122694
ATM-2418,citizens_us,,,Detroit,MI,,US,,,,Citizens,Q5122694
ATM-2474,citizens_us,,,Detroit,MI,,US,,,,Citizens,Q5122694
ATM-2530,citizens_us,,,Detroit,MI,,US,,,,Citizens,Q5122694
8199,cvs_us,CVS Pharmacy,,Detroit,MI,,US,+1 313-387-4120,https://www.cvs.com/store-locator/detroit-mi-pharmacies/18901-w-8-mile-rd-detroit-mi-48219/storeid=8199,Mo-Su 09:00-20:00,CVS Pharmacy,Q2078880
8115,cvs_us,CVS Pharmacy,,Detroit,MI,,US,+1 313-532-6300,https://www.cvs.com/store-locator/detroit-mi-pharmacies/18585-dale-st-corner-of-telegraph-grand-detroit-mi-48219/storeid=8115,Mo-Sa 09:00-22:00; Su 10:00-19:00,CVS Pharmacy,Q2078880
200328830,exxonmobil,USPP 1321,,DETROIT,MI,,US,+1 313-733-0982,https://www.exxon.com/en/find-station/exxon-detroit-mi-uspp1321-200328830,Mo-Su 06:00-23:00,Exxon,Q109675651
200326220,exxonmobil,SINJIL INC.,,DETROIT,MI,,US,,https://www.exxon.com/en/find-station/mobil-detroit-mi-sinjilinc-200326220,24/7,Mobil,Q109676002
200312533,exxonmobil,BARAKAT OIL LLC,,DETROIT,MI,,US,+1 313-533-7003,https://www.exxon.com/en/find-station/mobil-detroit-mi-barakatoilllc-200312533,24/7,Mobil,Q109676002
200309138,exxonmobil,7 MILE AND SOUTHFIELD MART,,DETROIT,MI,,US,+1 313-592-0700,https://www.exxon.com/en/find-station/mobil-detroit-mi-7mileandsouthfieldmart-200309138,24/7,Mobil,Q109676002
28997,family_dollar_us,FAMILY DOLLAR #8997,,Detroit,MI,,US,+1 817-505-2553,https://www.familydollar.com/locations/mi/detroit/28997/,Mo-Sa 09:00-22:00; Su 09:00-21:00,Family Dollar,Q5433101
32456,family_dollar_us,FAMILY DOLLAR #12456,,Detroit,MI,,US,+1 313-379-4221,https://www.familydollar.com/locations/mi/detroit/32456/,Mo-Su 09:00-20:00,Family Dollar,Q5433101
https://locations.53.com/#3034792,fifththirdbank,Fifth Third Bank 7 Mile and Telegraph,,Detroit,MI,,US,+1 313-387-5300,https://locations.53.com/mi/detroit/19111-telegraph-road.html,Mo-Th 09:00-17:00; Fr 09:00-18:00; Sa 09:00-13:00,Fifth Third Bank,Q1411810
413407,follett,WCCCD Northwest Campus,,Detroit,MI,,US,+1 313-943-4044,https://www.bkstr.com/wcccdstore/home,Mo-Th 10:00-17:00; Fr 10:00-13:00,,
https://stores.footlocker.com/mi/detroit/20280-west-7-mile-road-8760.html,footlocker,"Foot Locker in Detroit: Detroit, Michigan | Approved | Own It",,Detroit,MI,,US,+1 313-541-2360,https://stores.footlocker.com/mi/detroit/20280-west-7-mile-road-8760.html,Mo-Sa 10:00-19:00; Su 11:00-18:00,Foot Locker,Q63335
20873,h_r_block,H&R Block,,Detroit,MI,,US,+1 313-535-5138,https://www.hrblock.com/local-tax-offices/michigan/detroit/seven-mile---evergreen/20873/,,H&R Block,Q5627799
161376,marathon_petroleum_us,SEVEN TEL GASOLINE INC,,DETROIT,MI,,US,+1 313-766-7519,,,Marathon,Q458363
156362,marathon_petroleum_us,B104 Grand River,,DETROIT,MI,,US,+1 313-538-6559,,,Marathon,Q458363
70819823,moneygram,SEVEN-TEL PARTY STORE,,DETROID,MI,,US,+1 313-535-0860,,Mo-Su 08:00-23:00,MoneyGram,Q1944412
https://locations.oreillyauto.com/mi/detroit/check-engine-light-testing-3326.html,oreilly,Your Detroit O'Reilly Auto Parts Store,,Detroit,MI,,US,+1 313-537-5940,https://locations.oreillyauto.com/mi/detroit/check-engine-light-testing-3326.html,Mo-Sa 07:30-21:00; Su 08:30-20:00,O'Reilly Auto Parts,Q7071951
https://locations.oreillyauto.com/mi/detroit/wiper-installation-3326.html,oreilly,Your Detroit O'Reilly Auto Parts Store,,Detroit,MI,,US,+1 313-537-5940,https://locations.oreillyauto.com/mi/detroit/wiper-installation-3326.html,Mo-Sa 07:30-21:00; Su 08:30-20:00,O'Reilly Auto Parts,Q7071951
https://locations.oreillyauto.com/mi/detroit/battery-testing-3326.html,oreilly,Your Detroit O'Reilly Auto Parts Store,,Detroit,MI,,US,+1 313-537-5940,https://locations.oreillyauto.com/mi/detroit/battery-testing-3326.html,Mo-Sa 07:30-21:00; Su 08:30-20:00,O'Reilly Auto Parts,Q7071951
https://locations.oreillyauto.com/mi/detroit/autopartes-3326.html,oreilly,Tu tienda O'Reilly Auto Parts en Detroit,,Detroit,MI,,US,+1 313-537-5940,https://locations.oreillyauto.com/mi/detroit/autopartes-3326.html,Mo-Sa 07:30-21:00; Su 08:30-20:00,O'Reilly Auto Parts,Q7071951
restaurant_82965,popeyes_us_fr,Popeyes,"20919 Eight Mile Rd, Detroit, MI, Michigan 48219 - USA","Detroit, MI",MI,,US,+1 313-534-8733,https://www.popeyes.com/store-locator/store/restaurant_82965,Mo-We 10:00-23:00; Th-Sa 10:00-00:00; Su 10:00-23:00,Popeyes,Q1330910
modern-world-coatings-inc-28870,ppgpaints,MODERN WORLD COATINGS INC,,"Detroit, ",MI,,US,+1 313-538-1060,https://www.ppgpaints.com/store-locator/us/michigan/detroit-paint-stores/modern-world-coatings-inc-28870,,PPG Paints,Q83891559
https://restaurants.subway.com/#14912126,subway,Subway Wayne County Community College,,Detroit Wayne,MI,,US,+1 313-538-6067,https://restaurants.subway.com/united-states/mi/detroit/8200-west-outer-drive,Mo-Th 09:00-17:00,Subway,Q244457
https://restaurants.subway.com/#14904925,subway,Subway Topinka Plaza Shopping Center,,Detroit Wayne,MI,,US,+1 313-255-8811,https://restaurants.subway.com/united-states/mi/detroit/19127-telegraph-rd,Mo-Su 10:00-23:00,Subway,Q244457
0904175700,sunoco_us,Sunoco,,DETROIT,MI,,US,+1 313-534-5700,,Mo-Su 06:00-23:00,Sunoco,Q1423218
0528905300,sunoco_us,Sunoco,,DETROIT,MI,,US,+1 313-377-6347,,24/7,Sunoco,Q1423218
0507219400,sunoco_us,Sunoco,,DETROIT,MI,,US,+1 313-999-6442,,,Sunoco,Q1423218
0056543200,sunoco_us,Sunoco,,DETROIT,MI,,US,+1 313-255-7990,,24/7,Sunoco,Q1423218
0028995900,sunoco_us,Sunoco,,DETROIT,MI,,US,+1 313-535-1080,,24/7,Sunoco,Q1423218
2SQW,tmobile_us,Telegraph & 7 Mile Rd,,Detroit,MI,,US,+1 313-531-6727,https://www.t-mobile.com/store-locator/mi/detroit/telegraph-7-mile-rd,,T-Mobile,Q3511885
1376028,usps,OLD REDFORD,,DETROIT,MI,,US,+1 313-532-3579,,Mo-Fr 10:00-17:00; Sa 10:00-13:30,United States Postal Service,Q668687
4821900015,usps_collection_boxes,USPS COLLECTION BOX - BLUE BOX,20919 W 8 MILE RD,DETROIT,MI,,US,,,,United States Postal Service,Q668687
4821900059,usps_collection_boxes,USPS COLLECTION BOX - BLUE BOX,18309 W 7 MILE RD,DETROIT,MI,,US,,,,United States Postal Service,Q668687
4821900091,usps_collection_boxes,USPS COLLECTION BOX - BLUE BOX,19101 EVERGREEN RD,DETROIT,MI,,US,,,,United States Postal Service,Q668687
4821900098,usps_collection_boxes,USPS COLLECTION BOX - BLUE BOX,20201 W 7 MILE RD,DETROIT,MI,,US,,,,United States Postal Service,Q668687
4821900049,usps_collection_boxes,USPS COLLECTION BOX - BLUE BOX,19259 W 6 MILE RD,DETROIT,MI,,US,,,,United States Postal Service,Q668687
4821900083,usps_collection_boxes,USPS COLLECTION BOX - BLUE BOX,17321 TELEGRAPH RD,DETROIT,MI,,US,,,,United States Postal Service,Q668687
4821900085,usps_collection_boxes,USPS COLLECTION BOX - BLUE BOX,22503 GRAND RIVER AVE,DETROIT,MI,,US,,,,United States Postal Service,Q668687
4821900103,usps_collection_boxes,USPS COLLECTION BOX - PO LOBBY,22503 GRAND RIVER AVE,DETROIT,MI,,US,,,,United States Postal Service,Q668687
4821900061,usps_collection_boxes,USPS COLLECTION BOX - BLUE BOX,23600 W 7 MILE RD,DETROIT,MI,,US,,,,United States Postal Service,Q668687
4821900054,usps_collection_boxes,USPS COLLECTION BOX - BLUE BOX,22400 W 7 MILE RD,DETROIT,MI,,US,,,,United States Postal Service,Q668687
4821900012,usps_collection_boxes,USPS COLLECTION BOX - BLUE BOX,20505 BERG RD,DETROIT,MI,,US,,,,United States Postal Service,Q668687
4821900075,usps_collection_boxes,USPS COLLECTION BOX - BLUE BOX,21320 W 7 MILE RD,DETROIT,MI,,US,,,,United States Postal Service,Q668687
4821900066,usps_collection_boxes,USPS COLLECTION BOX - BLUE BOX,8528 W OUTER DR,DETROIT,MI,,US,,,,United States Postal Service,Q668687
4821900102,usps_collection_boxes,USPS COLLECTION BOX - BLUE BOX,18461 W MCNICHOLS RD,DETROIT,MI,,US,,,,United States Postal Service,Q668687
0000011860,valero,PEARSON AUTO,,DETROIT,MI,,US,+1 313-600-9321,https://locations.valero.com/en-us/LocationDetails/Index/20800-7-MILE/0000011860,24/7,Valero,Q1283291
,visa,,,DETROIT,MI,,US,,,,,
,visa,,,DETROIT,MI,,US,,,,,
,visa,,,DETROIT,MI,,US,,,,,
,visa,,,DETROIT,MI,,US,,,,,
,visa,,,DETROIT,MI,,US,,,,,
,visa,,,DETROIT,MI,,US,,,,,
,visa,,,DETROIT,MI,,US,,,,,
,visa,,,DETROIT,MI,,US,,,,,
,visa,,,DETROIT,MI,,US,,,,,
,visa,,,DETROIT,MI,,US,,,,,
,visa,,,DETROIT,MI,,US,,,,,
,visa,,,DETROIT,MI,,US,,,,,
,visa,,,DETROIT,MI,,US,,,,,
,visa,,,DETROIT BEACH,MI,,US,,,,,
,visa,,,DETROIT,MI,,US,,,,,
,visa,,,DETROIT,MI,,US,,,,,
,visa,,,DETROIT,MI,,US,,,,,
,visa,,,DETROIT,MI,,US,,,,,
,visa,,,DETROIT,MI,,US,,,,,
,visa,,,DETROIT,MI,,US,,,,,
,visa,,,DETROIT,MI,,US,,,,,
,visa,,,DETROIT,MI,,US,,,,,
,visa,,,DETROIT,MI,,US,,,,,
,visa,,,DETROIT,MI,,US,,,,,
,visa,,,DETROIT,MI,,US,,,,,
,visa,,,DETROIT,MI,,US,,,,,
,visa,,,DETROIT,MI,,US,,,,,
,visa,,,DETROIT,MI,,US,,,,,
,visa,,,DETROIT,MI,,US,,,,,
,visa,,,DETROIT,MI,,US,,,,,
,visa,,,DETROIT,MI,,US,,,,,
,visa,,,DETROIT,MI,,US,,,,,
,visa,,,DETROIT BEACH,MI,,US,,,,,
,visa,,,DETROIT,MI,,US,,,,,
,visa,,,DETROIT,MI,,US,,,,,
,visa,,,DETROIT,MI,,US,,,,,
,visa,,,DETROIT,MI,,US,,,,,
,visa,,,DETROIT,MI,,US,,,,,
,visa,,,DETROIT,MI,,US,,,,,
,visa,,,DETROIT,MI,,US,,,,,
,visa,,,DETROIT BEACH,MI,,US,,,,,
,visa,,,DETROIT,MI,,US,,,,,
,visa,,,DETROIT,MI,,US,,,,,
,visa,,,DETROIT,MI,,US,,,,,
,visa,,,DETROIT BEACH,MI,,US,,,,,
,visa,,,DETROIT,MI,,US,,,,,
,visa,,,DETROIT,MI,,US,,,,,
,visa,,,DETROIT,MI,,US,,,,,
,visa,,,DETROIT,MI,,US,,,,,
,visa,,,DETROIT,MI,,US,,,,,
,visa,,,DETROIT,MI,,US,,,,,
,visa,,,DETROIT,MI,,US,,,,,
,visa,,,DETROIT BEACH,MI,,US,,,,,
,visa,,,DETROIT,MI,,US,,,,,
,visa,,,DETROIT BEACH,MI,,US,,,,,
,visa,,,DETROIT,MI,,US,,,,,
,visa,,,DETROIT,MI,,US,,,,,
,visa,,,DETROIT,MI,,US,,,,,
,visa,,,DETROIT,MI,,US,,,,,
,visa,,,DETROIT,MI,,US,,,,,
,visa,,,DETROIT,MI,,US,,,,,
,visa,,,DETROIT,MI,,US,,,,,
,visa,,,DETROIT,MI,,US,,,,,
,visa,,,DETROIT,MI,,US,,,,,
,visa,,,DETROIT,MI,,US,,,,,
,visa,,,DETROIT,MI,,US,,,,,
,visa,,,DETROIT,MI,,US,,,,,
,visa,,,DETROIT,MI,,US,,,,,
,visa,,,DETROIT,MI,,US,,,,,
,visa,,,DETROIT,MI,,US,,,,,
,visa,,,DETROIT,MI,,US,,,,,
,visa,,,DETROIT,MI,,US,,,,,
,visa,,,DETROIT,MI,,US,,,,,
,visa,,,DETROIT,MI,,US,,,,,
,visa,,,DETROIT,MI,,US,,,,,
,visa,,,DETROIT,MI,,US,,,,,
,visa,,,DETROIT,MI,,US,,,,,
,visa,,,DETROIT BEACH,MI,,US,,,,,
,visa,,,DETROIT BEACH,MI,,US,,,,,
,visa,,,DETROIT,MI,,US,,,,,
,visa,,,DETROIT,MI,,US,,,,,
,visa,,,DETROIT,MI,,US,,,,,
,visa,,,DETROIT BEACH,MI,,US,,,,,
,visa,,,DETROIT,MI,,US,,,,,
,visa,,,DETROIT,MI,,US,,,,,
,visa,,,DETROIT,MI,,US,,,,,
,visa,,,DETROIT,MI,,US,,,,,
,visa,,,DETROIT,MI,,US,,,,,
,visa,,,DETRIOT,MI,,US,,,,,
,visa,,,DETROIT,MI,,US,,,,,
,visa,,,DETROIT,MI,,US,,,,,
,visa,,,DETROIT,MI,,US,,,,,
,visa,,,DETROIT,MI,,US,,,,,
,visa,,,DETROIT,MI,,US,,,,,
,visa,,,DETROIT,MI,,US,,,,,
,visa,,,DETROIT,MI,,US,,,,,
,visa,,,DETROIT,MI,,US,,,,,
,visa,,,REDFORD,MI,,US,,,,,
,visa,,,DETROIT,MI,,US,,,,,
,visa,,,DETROIT,MI,,US,,,,,
,visa,,,DETROIT,MI,,US,,,,,
,visa,,,DETROIT BEACH,MI,,US,,,,,
,visa,,,DETROIT,MI,,US,,,,,
,visa,,,DETROIT,MI,,US,,,,,
,visa,,,DETROIT,MI,,US,,,,,
,visa,,,DETROIT,MI,,US,,,,,
,visa,,,DETROIT,MI,,US,,,,,
,visa,,,DETROIT,MI,,US,,,,,
,visa,,,DETROIT,MI,,US,,,,,
,visa,,,DETROIT,MI,,US,,,,,
,visa,,,DETROIT,MI,,US,,,,,
,visa,,,DETROIT,MI,,US,,,,,
,visa,,,DETROIT,MI,,US,,,,,
,visa,,,DETROIT,MI,,US,,,,,
,visa,,,DETROIT,MI,,US,,,,,
,visa,,,DETROIT,MI,,US,,,,,
,visa,,,DETROIT BEACH,MI,,US,,,,,
,visa,,,DETROIT,MI,,US,,,,,
,visa,,,DETROIT,MI,,US,,,,,
,visa,,,DETROIT,MI,,US,,,,,
,visa,,,GARDEN CITY,MI,,US,,,,,
,visa,,,LANSING,MI,,US,,,,,
https://locations.wendys.com/#9252004,wendys,"Wendy's Grand River in Detroit, MI",,Detroit,MI,,US,+1 313-541-0149,https://locations.wendys.com/united-states/mi/detroit/22222-grand-river-ave,Mo-Su 06:30-10:30,Wendy's,Q550258
0c315331501ed4bd163a332bfde2002d,western_union,ADVANCE AMERICA #01304,,Detroit,MI,,US,+1 313-794-7081,https://location.westernunion.com/us/mi/detroit/0c315331501ed4bd163a332bfde2002d,Mo-Th 10:00-18:00; Fr 09:00-18:00; Sa 10:00-14:00,Western Union,Q861042
