Ref,Spider,Name,Address,City,State,Zipcode,Country,Phone,Website,Hours,Brand,WikiData
22616355857364821400100000000000,bp,BP,,Detroit,MI,,US,+1 313-821-5894,,24/7,BP,Q152057
127871,bp,Amoco,,Detroit,MI,,US,+1 313-499-8032,,,BP,Q152057
11965-e-warren-avenue,churchs_chicken,E. Warren Avenue,,Detroit,MI,,US,+1 313-571-6408,https://locations.churchs.com/mi/detroit/11965-e-warren-avenue,,Church's Chicken,Q1089932
30180,citi,ATM 7ELEVEN-FCTI,,Sterling Hts,MI,,US,,,,Citibank,Q857063
vc_0402V,department_veterans_affairs,Detroit Vet Center,,Detroit,MI,,US,+1 313-822-1141,,,Department Veterans Affairs,Q592576
https://stores.footlocker.com/mi/detroit/11970-east-warren-street-7797.html,footlocker,"Foot Locker in Detroit: Detroit, Michigan | Approved | Own It",,Detroit,MI,,US,+1 313-822-4911,https://stores.footlocker.com/mi/detroit/11970-east-warren-street-7797.html,Mo-Sa 10:00-19:00; Su 11:00-18:00,Foot Locker,Q63335
2819,fresenius_kidney_care_us,Fresenius Kidney Care Bewick,,Detroit,MI,,US,+1 800-881-5101,https://www.freseniuskidneycare.com/dialysis-centers/michigan/2819,Mo-Sa 06:00-15:00,,
mogo:43,gbfs,Agnes St & Parker St,,,MI,,US,,https://mogodetroit.org/,,Mogo Detroit,
mogo:99,gbfs,MacArthur Bridge & Gabriel Richard Park,,,MI,,US,,https://mogodetroit.org/,,Mogo Detroit,
25856,huntingtonbank,Jefferson Village ,,Detroit,MI,,US,+1 313-264-6309,https://www.huntington.com/Community/branch-info?locationId=25856,,Huntington Bank,Q798819
40353746,moneygram,PARKWAY FOODS - #0001,,DETROIT,MI,,US,+1 313-823-2444,,Mo-Sa 07:45-20:00; Su 07:45-18:00,MoneyGram,Q1944412
0968596700,sunoco_us,Sunoco,,DETROIT,MI,,US,+1 313-822-7424,,Mo-Su 06:00-22:00,Sunoco,Q1423218
0701619900,sunoco_us,Sunoco,,DETROIT,MI,,US,+1 313-922-8059,,24/7,Sunoco,Q1423218
0044452100,sunoco_us,Sunoco,,DETROIT,MI,,US,+1 248-478-3651,,,Sunoco,Q1423218
1368357,usps,JEFFERSON,,DETROIT,MI,,US,+1 313-331-4914,,Mo-Fr 08:00-17:00; Sa 10:00-14:00,United States Postal Service,Q668687
4821400015,usps_collection_boxes,USPS COLLECTION BOX - BLUE BOX,10600 E WARREN AVE,DETROIT,MI,,US,,,,United States Postal Service,Q668687
4821400062,usps_collection_boxes,USPS COLLECTION BOX - BLUE BOX,9300 E FOREST AVE,DETROIT,MI,,US,,,,United States Postal Service,Q668687
4821400013,usps_collection_boxes,USPS COLLECTION BOX - BLUE BOX,10605 MACK AVE,DETROIT,MI,,US,,,,United States Postal Service,Q668687
4821400032,usps_collection_boxes,USPS COLLECTION BOX - BLUE BOX,3600 VAN DYKE ST,DETROIT,MI,,US,,,,United States Postal Service,Q668687
4821400003,usps_collection_boxes,USPS COLLECTION BOX - BLUE BOX,1802 BALDWIN ST,DETROIT,MI,,US,,,,United States Postal Service,Q668687
4821400022,usps_collection_boxes,USPS COLLECTION BOX - BLUE BOX,5007 MCCLELLAN ST,DETROIT,MI,,US,,,,United States Postal Service,Q668687
4821400030,usps_collection_boxes,USPS COLLECTION BOX - BLUE BOX,4532 SEMINOLE ST,DETROIT,MI,,US,,,,United States Postal Service,Q668687
4821400034,usps_collection_boxes,USPS COLLECTION BOX - BLUE BOX,1100 SHERIDAN ST,DETROIT,MI,,US,,,,United States Postal Service,Q668687
4821400024,usps_collection_boxes,USPS COLLECTION BOX - BLUE BOX,1130 PARKER ST,DETROIT,MI,,US,,,,United States Postal Service,Q668687
4821400031,usps_collection_boxes,USPS COLLECTION BOX - BLUE BOX,8311 E JEFFERSON AVE,DETROIT,MI,,US,,,,United States Postal Service,Q668687
4821400036,usps_collection_boxes,USPS COLLECTION BOX - BLUE BOX,7919 E JEFFERSON AVE,DETROIT,MI,,US,,,,United States Postal Service,Q668687
4821400039,usps_collection_boxes,USPS COLLECTION BOX - BLUE BOX,7800 E JEFFERSON AVE,DETROIT,MI,,US,,,,United States Postal Service,Q668687
4821400044,usps_collection_boxes,USPS COLLECTION BOX - BLUE BOX,8330 E JEFFERSON AVE,DETROIT,MI,,US,,,,United States Postal Service,Q668687
4821400050,usps_collection_boxes,USPS COLLECTION BOX - BLUE BOX,10721 E JEFFERSON AVE,DETROIT,MI,,US,,,,United States Postal Service,Q668687
4821400070,usps_collection_boxes,USPS COLLECTION BOX - PO LOBBY,10721 E JEFFERSON AVE,DETROIT,MI,,US,,,,United States Postal Service,Q668687
,visa,,,DETROIT BEACH,MI,,US,,,,,
,visa,,,DETROIT,MI,,US,,,,,
,visa,,,DETROIT BEACH,MI,,US,,,,,
,visa,,,DETROIT,MI,,US,,,,,
,visa,,,DETRIOT,MI,,US,,,,,
,visa,,,DETROIT,MI,,US,,,,,
,visa,,,DETRIOT,MI,,US,,,,,
,visa,,,DETROIT,MI,,US,,,,,
,visa,,,DETROIT,MI,,US,,,,,
,visa,,,DETROIT,MI,,US,,,,,
,visa,,,DETROIT,MI,,US,,,,,
,visa,,,DETROIT,MI,,US,,,,,
,visa,,,DETROIT,MI,,US,,,,,
,visa,,,DETROIT,MI,,US,,,,,
,visa,,,DETROIT,MI,,US,,,,,
,visa,,,DETROIT,MI,,US,,,,,
,visa,,,DETROIT,MI,,US,,,,,
,visa,,,DETROIT,MI,,US,,,,,
,visa,,,DETROIT,MI,,US,,,,,
,visa,,,DETROIT,MI,,US,,,,,
,visa,,,DETROIT,MI,,US,,,,,
,visa,,,DETROIT,MI,,US,,,,,
,visa,,,DETROIT,MI,,US,,,,,
,visa,,,DETROIT,MI,,US,,,,,
,visa,,,DETROIT,MI,,US,,,,,
,visa,,,DETROIT,MI,,US,,,,,
,visa,,,DETROIT,MI,,US,,,,,
,visa,,,DETROIT,MI,,US,,,,,
,visa,,,DETROIT,MI,,US,,,,,
,visa,,,DETROIT,MI,,US,,,,,
,visa,,,DETROIT,MI,,US,,,,,
,visa,,,DETROIT,MI,,US,,,,,
,visa,,,DETROIT,MI,,US,,,,,
,visa,,,DETROIT,MI,,US,,,,,
,visa,,,DETROIT BEACH,MI,,US,,,,,
