Ref,Spider,Name,Address,City,State,Zipcode,Country,Phone,Website,Hours,Brand,WikiData
https://stores.advanceautoparts.com/al/mobile/3923-government-blvd,advance_auto_parts_us,Advance Auto Parts,,Mobile,AL,,US,+1 251-666-7384,https://stores.advanceautoparts.com/al/mobile/3923-government-blvd,Mo-Sa 07:00-21:00; Su 08:00-20:00,Advance Auto Parts,Q4686051
237337,bluerhino,Circle K #2706764,,Mobile,AL,,US,+1 251-602-0216,,,Blue Rhino,Q65681213
229396,bluerhino,Murphy's #8822,,Mobile,AL,,US,+1 251-277-8235,,,Blue Rhino,Q65681213
63423949424443669300100000000000,bp,BP,,Mobile,AL,,US,+1 251-666-5537,,24/7,BP,Q152057
42454,citi,ATM Circle K,,Mobile,AL,,US,,,,Citibank,Q857063
om_al_mobile_3969-cottage-hill-rd,cititrends,Citi Trends,,Mobile,AL,,US,+1 251-436-1675,https://locations.cititrends.com/al/mobile/3969-cottage-hill-rd.html,Mo 11:00-20:00; Tu 11:00-20:00; We 11:00-20:00; Th 11:00-20:00; Fr 10:00-21:00; Sa 10:00-21:00; Su 12:00-18:00,Citi Trends,Q5122438
200310840,exxonmobil,CLARKS EXXON #7,,MOBILE,AL,,US,+1 251-660-1734,https://www.exxon.com/en/find-station/exxon-mobile-al-clarksexxon7-200310840,24/7,Exxon,Q109675651
1061,mightyflame,CLARKS FOOD STORE #7,,Mobile,AL,,US,+1 251-660-1734,,,Mighty Flame,
8822,murphy_usa_us,,,Mobile,AL,,US,+1 251-277-8235,,Mo-Su 06:00-23:00,Murphy USA,Q19604459
1054,national_seating_mobility,Mobile,,Mobile,AL,,US,+1 251-473-2725,,,National Seating & Mobility,Q116770969
https://www.orkin.com/locations/alabama-al/mobile-pest-control/branch-908,orkin_us,Orkin,,Mobile,AL,,US,+1 251-666-7506,https://www.orkin.com/locations/alabama-al/mobile-pest-control/branch-908,,Orkin,Q7102943
https://www.publicstorage.com/self-storage-al-mobile/297.html,public_storage_us,Public Storage,,Mobile,AL,,US,+1 251-272-7915,https://www.publicstorage.com/self-storage-al-mobile/297.html,,Public Storage,Q1156045
https://restaurants.subway.com/#14903974,subway,Subway Skyland Shopping Center,,Mobile Mobile,AL,,US,+1 251-602-0722,https://restaurants.subway.com/united-states/al/mobile/3990-government-blvd,Mo-Th 07:00-21:00; Fr 07:00-22:00; Sa 08:00-22:00; Su 09:00-21:00,Subway,Q244457
100233,two_men_and_truck,Mobile,3759 Government Blvd,Mobile,AL,,US,+1 251-471-2223,https://twomenandatruck.com/movers/al/mobile,,Two Men and a Truck,Q7859087
003343,uhaul,Security Stor All,4175 Government Blvd,Mobile,AL,,US,+1 251-602-5857,,Mo-Fr 30:00-17:00; Sa 30:00-14:00,U-Haul,Q7862902
3669300012,usps_collection_boxes,USPS COLLECTION BOX - BLUE BOX,4011 GOVERNMENT BLVD,MOBILE,AL,,US,,,,United States Postal Service,Q668687
3669300013,usps_collection_boxes,USPS COLLECTION BOX - BLUE BOX,1764 INDUSTRIAL PARK DR,MOBILE,AL,,US,,,,United States Postal Service,Q668687
3669300016,usps_collection_boxes,USPS COLLECTION BOX - BLUE BOX,3938 GOVERNMENT BLVD,MOBILE,AL,,US,,,,United States Postal Service,Q668687
3669300017,usps_collection_boxes,USPS COLLECTION BOX - BLUE BOX,3737 GOVERNMENT BLVD,MOBILE,AL,,US,,,,United States Postal Service,Q668687
,visa,,,MOBILE,AL,,US,,,,,
,visa,,,MOBILE,AL,,US,,,,,
,visa,,,MOBILE,AL,,US,,,,,
,visa,,,MOBILE,AL,,US,,,,,
,visa,,,MOBILE,AL,,US,,,,,
,visa,,,MOBILE,AL,,US,,,,,
,visa,,,MOBILE,AL,,US,,,,,
,visa,,,MOBILE,AL,,US,,,,,
,visa,,,MOBILE,AL,,US,,,,,
,visa,,,MOBILE,AL,,US,,,,,
,visa,,,MOBILE,AL,,US,,,,,
,visa,,,MOBILE,AL,,US,,,,,
,visa,,,MOBILE,AL,,US,,,,,
,visa,,,MOBILE,AL,,US,,,,,
,visa,,,MOBILE,AL,,US,,,,,
,visa,,,MOBILE,AL,,US,,,,,
,visa,,,MOBILE,AL,,US,,,,,
,visa,,,MOBILE,AL,,US,,,,,
,visa,,,MOBILEÂ ,AL,,US,,,,,
,visa,,,MOBILE,AL,,US,,,,,
289,waffle_house_us,Waffle House #289,,MOBILE,AL,,US,+1 251-666-6056,https://locations.wafflehouse.com/mobile-al-289,24/7,Waffle House,Q1701206
211ab9093238e01ad9d76bf60903ad68,western_union,CLARK OIL #7,,Mobile,AL,,US,+1 251-660-1734,https://location.westernunion.com/us/al/mobile/211ab9093238e01ad9d76bf60903ad68,,Western Union,Q861042
