Ref,Spider,Name,Address,City,State,Zipcode,Country,Phone,Website,Hours,Brand,WikiData
208837,bluerhino,Casey's General Store #4075,,Oklahoma City,OK,,US,+1 405-942-0526,,,Blue Rhino,Q65681213
208849,bluerhino,Casey's General Store #4074,,Oklahoma City,OK,,US,+1 405-942-3773,,,Blue Rhino,Q65681213
112461,bluerhino,7-Eleven Stores #41415,,Oklahoma City,OK,,US,+1 405-681-0709,,,Blue Rhino,Q65681213
173676,bluerhino,Family Dollar #07808,,Oklahoma City,OK,,US,+1 405-278-7952,,,Blue Rhino,Q65681213
114516,bluerhino,American Propane - Downtown,,Oklahoma City,OK,,US,+1 405-235-8401,,,Blue Rhino,Q65681213
40776_1,bmw_group,BMW Motorcycles of Oklahoma City,,Oklahoma City,OK,,US,+1 405-948-4000,https://www.bmwmcofokc.com,,BMW Motorrad,Q249173
0302,bootbarn,Oklahoma City,,"Oklahoma City,",OK,,US,+1 405-947-6831,https://www.bootbarn.com/stores?StoreID=0302,Mo-Sa 09:00-21:00; Su 11:00-19:00,Boot Barn,Q109825187
001.005.0031,chilis,OKC I Meridian,,Oklahoma City,OK,,US,+1 405-682-2453,https://www.chilis.com/locations/us/oklahoma/oklahoma-city/okc-i-meridian/,Mo-Th 10:45-22:30; Fr-Sa 10:45-24:00; Su 10:45-22:30,Chili's,Q1072948
84870,citi,ATM TRANSFUND - 7-ELEVEN,,Oklahoma City,OK,,US,,,,Citibank,Q857063
84869,citi,ATM TRANSFUND - 7-ELEVEN,,Oklahoma City,OK,,US,,,,Citibank,Q857063
56b9e82d-5226-4e2e-9878-3ab004d995fa,concentra_us,Quadrum,,Oklahoma City,OK,,US,,https://www.concentra.com/urgent-care-centers/oklahoma/oklahoma-city/quadrum-urgent-care/,,Concentra,Q5158304
247994,dennys,Denny's,,Oklahoma City,OK,,US,+1 405-947-8548,https://locations.dennys.com/OK/OKLAHOMA-CITY/247994,24/7,Denny's,Q1189695
6429,dominos_pizza_us,Domino's Pizza,,Oklahoma City,OK,,US,+1 405-688-4349,https://pizza.dominos.com/oklahoma/oklahoma-city/2929-south-meridian-ave,Mo-Th 10:00-24:00; Fr-Sa 10:00-02:00; Su 10:00-24:00,Domino's,Q839466
27808,family_dollar_us,FAMILY DOLLAR #7808,,Oklahoma City,OK,,US,+1 405-803-6680,https://www.familydollar.com/locations/ok/oklahoma-city/27808/,Mo-Su 08:00-22:00,Family Dollar,Q5433101
Motorcraft1846USAEnglish,ford,Dealer Service Warehouse,,Oklahoma,OK,,US,+1 713-983-1100,,,Ford,Q44294
okcjwru-tru-oklahoma-city-airport,hilton,Tru by Hilton Oklahoma City Airport,,,OK,,US,+1 405-609-3955,https://www.hilton.com/ar/hotels/okcjwru-tru-oklahoma-city-airport/,,Tru by Hilton,Q24907770
okcahgi-hilton-garden-inn-oklahoma-city-airport,hilton,Hilton Garden Inn Oklahoma City Airport,,,OK,,US,+1 405-942-1400,https://www.hilton.com/ar/hotels/okcahgi-hilton-garden-inn-oklahoma-city-airport/,,Hilton Garden Inn,Q1162859
okcathx-hampton-suites-oklahoma-city-airport,hilton,Hampton Inn & Suites Oklahoma City Airport,,,OK,,US,+1 405-604-8000,https://www.hilton.com/ar/hotels/okcathx-hampton-suites-oklahoma-city-airport/,,Hampton by Hilton,Q5646230
ok_oklahoma-city_breakfast-701-s-meridian-ave-1490,ihop,IHOP Breakfast Restaurants Near You at 701 S Meridian Ave,,Oklahoma City,OK,,US,+1 405-917-7900,https://restaurants.ihop.com/en-us/ok/oklahoma-city/breakfast-701-s-meridian-ave-1490,,IHOP,Q1185675
74549,little_free_library,Rockwood Elementary #74549 Oklahoma City OK,,Oklahoma City,OK,,US,,,,Little Free Library,Q6650101
86814,little_free_library,Mary Golda Ross Middle School #86814 Oklahoma City OK,,Oklahoma City,OK,,US,,,,Little Free Library,Q6650101
OKCCA,marriott,Courtyard Oklahoma City Airport,,Oklahoma City,OK,,US,+1 405-946-6500,https://www.marriott.com/OKCCA,,Courtyard by Marriott,Q1053170
OKCRA,marriott,Residence Inn Oklahoma City Airport,,Oklahoma City,OK,,US,+1 405-546-7665,https://www.marriott.com/OKCRA,,Residence Inn by Marriott,Q7315394
0000896041,phillips_66_conoco_76,ONCUE 143,,OKLAHOMA CITY,OK,,US,+1 405-937-1069,,,Phillips 66,Q1656230
ok_oklahoma-city_2823-s-may-ave,pizza_hut_us,2823 S May Ave,,Oklahoma City,OK,,US,+1 405-680-9191,https://locations.pizzahut.com/ok/oklahoma-city/2823-s-may-ave,,Pizza Hut,Q191615
41415,seven_eleven_ca_us,7-Eleven,,Oklahoma City,OK,,US,+1 405-681-0709,https://www.7-eleven.com/locations/ok/oklahoma-city/2928-s.-meridian-41415,,7-Eleven,Q259340
https://restaurants.subway.com/#14913741,subway,Subway Meridian Business Center,,Oklahoma City Oklahoma,OK,,US,+1 405-681-2400,https://restaurants.subway.com/united-states/ok/oklahoma-city/2122-s-meridian-ave,Mo-Su 08:30-21:30,Subway,Q244457
1383641,usps,STOCKYARDS,,OKLAHOMA CITY,OK,,US,+1 405-815-2913,,Mo-Fr 09:00-16:00,United States Postal Service,Q668687
7310800012,usps_collection_boxes,USPS COLLECTION BOX - BLUE BOX,4401 WILL ROGERS PKWY,OKLAHOMA CITY,OK,,US,,,,United States Postal Service,Q668687
7310800020,usps_collection_boxes,USPS COLLECTION BOX - PO LOBBY,1101 S AGNEW AVE,OKLAHOMA CITY,OK,,US,,,,United States Postal Service,Q668687
0000013996,valero,OnGo Express,,Oklahoma City,OK,,US,+1 405-702-9877,https://locations.valero.com/en-us/LocationDetails/Index/3700-SW-15TH/0000013996,,Valero,Q1283291
,visa,,,OKLAHOMA CITY,OK,,US,,,,,
,visa,,,OKLAHOMA,OK,,US,,,,,
,visa,,,OKLAHOMA CITY,OK,,US,,,,,
,visa,,,OKLAHOMA CITY,OK,,US,,,,,
,visa,,,OKLAHOMA CITY,OK,,US,,,,,
,visa,,,OKLAHOMA CITY,OK,,US,,,,,
,visa,,,OKLAHOMA CITY,OK,,US,,,,,
,visa,,,OKLAHOMA,OK,,US,,,,,
,visa,,,OKLAHOMA CITY,OK,,US,,,,,
,visa,,,OKLAHOMA CITY,OK,,US,,,,,
,visa,,,OKLAHOMA CITY,OK,,US,,,,,
,visa,,,OKLAHOMA CITY,OK,,US,,,,,
,visa,,,OKLAHOMA CITY,OK,,US,,,,,
,visa,,,OKLAHOMA CITY,OK,,US,,,,,
,visa,,,OKLAHOMA CITY,OK,,US,,,,,
,visa,,,OKLAHOMA CITY,OK,,US,,,,,
,visa,,,OKLAHOMA CITY,OK,,US,,,,,
,visa,,,OKLAHOMA CITY,OK,,US,,,,,
,visa,,,OKLAHOMA CITY,OK,,US,,,,,
,visa,,,OKLAHOMA CITY,OK,,US,,,,,
,visa,,,OKLAHOMA CITY,OK,,US,,,,,
,visa,,,OKLAHOMA CITY,OK,,US,,,,,
,visa,,,OKLAHOMA CITY,OK,,US,,,,,
,visa,,,OKLAHOMA CITY,OK,,US,,,,,
,visa,,,OKLAHOMA CITY,OK,,US,,,,,
,visa,,,OKLAHOMA CITY,OK,,US,,,,,
,visa,,,OKLAHOMA CITY,OK,,US,,,,,
,visa,,,OKLAHOMA CITY,OK,,US,,,,,
,visa,,,OKLAHOMA CITY,OK,,US,,,,,
,visa,,,OKLAHOMA CITY,OK,,US,,,,,
,visa,,,OKLAHOMA CITY,OK,,US,,,,,
,visa,,,OKLAHOMA CITY,OK,,US,,,,,
,visa,,,OKLAHOMA CITY,OK,,US,,,,,
,visa,,,OKLAHOMA CITY,OK,,US,,,,,
,visa,,,OKLAHOMA CITY,OK,,US,,,,,
,visa,,,OKLAHOMA CITY,OK,,US,,,,,
,visa,,,OKLAHOMA CITY,OK,,US,,,,,
,visa,,,OKLAHOMA CITY,OK,,US,,,,,
,visa,,,OKLAHOMA CITY,OK,,US,,,,,
,visa,,,OKLAHOMA CITY,OK,,US,,,,,
,visa,,,OKLAHOMA CITY,OK,,US,,,,,
,visa,,,OKLAHOMA CITY,OK,,US,,,,,
,visa,,,OKLAHOMA CITY,OK,,US,,,,,
,visa,,,OKLAHOMA CITY,OK,,US,,,,,
,visa,,,OKLAHOMA CITY,OK,,US,,,,,
,visa,,,OKLAHOMA CITY,OK,,US,,,,,
,visa,,,CHICKASHA,OK,,US,,,,,
2027,waffle_house_us,Waffle House #2027,,OKLAHOMA CITY,OK,,US,+1 405-917-6319,https://locations.wafflehouse.com/oklahomacity-ok-2027,24/7,Waffle House,Q1701206
66cb0d52720ad94de2beb12bb1b42843,western_union,SPEEDMART & DEPAZ,,Oklahoma City,OK,,US,+1 405-314-3351,https://location.westernunion.com/us/ok/oklahoma-city/66cb0d52720ad94de2beb12bb1b42843,Mo-Su 07:00-22:00,Western Union,Q861042
https://locations.whataburger.com/ok/oklahoma-city/1325-s-meridian-ave.html,whataburger,Meridian & Will Rogers Pkwy,1325 S MERIDIAN AVE,OKLAHOMA CITY,OK,,US,,https://locations.whataburger.com/ok/oklahoma-city/1325-s-meridian-ave.html,,Whataburger,Q376627
