Ref,Spider,Name,Address,City,State,Zipcode,Country,Phone,Website,Hours,Brand,WikiData
https://stores.advanceautoparts.com/il/new-lenox/428-e-lincoln-hwy,advance_auto_parts_us,Advance Auto Parts,,New Lenox,IL,,US,+1 815-462-0698,https://stores.advanceautoparts.com/il/new-lenox/428-e-lincoln-hwy,Mo-Sa 07:30-21:00; Su 09:00-20:00,Advance Auto Parts,Q4686051
https://local.pharmacy.jewelosco.com/#5672891,albertsons,Jewel-Osco Pharmacy,,New Lenox,IL,,US,+1 815-462-1998,https://local.pharmacy.jewelosco.com/il/new-lenox/475-n-nelson-rd.html,Mo-Fr 08:00-22:00; Sa 08:00-18:00; Su 09:00-17:00,Jewel-Osco,Q3178470
https://local.pharmacy.jewelosco.com/#5672982,albertsons,Jewel-Osco Pharmacy,,New Lenox,IL,,US,+1 815-463-4954,https://local.pharmacy.jewelosco.com/il/new-lenox/2021-e-laraway-rd.html,Mo-Fr 08:00-20:00; Sa-Su 09:00-17:00,Jewel-Osco,Q3178470
https://local.jewelosco.com/#5603686,albertsons,Jewel-Osco,,New Lenox,IL,,US,+1 815-462-0018,https://local.jewelosco.com/il/new-lenox/475-n-nelson-rd.html,"Mo-Fr 06:00-24:00,08:00-22:00; Sa 06:00-24:00,08:00-18:00; Su 06:00-24:00,09:00-17:00",Jewel-Osco,Q3178470
https://local.jewelosco.com/#5603781,albertsons,Jewel-Osco,,New Lenox,IL,,US,+1 815-463-4950,https://local.jewelosco.com/il/new-lenox/2021-e-laraway-rd.html,"Mo-Fr 06:00-24:00,08:00-20:00; Sa-Su 06:00-24:00,09:00-17:00",Jewel-Osco,Q3178470
https://stores.aldi.us/#4420040,aldi_sud_us,ALDI  351 East Lincoln Highway,,New Lenox,IL,,US,+1 833-468-1083,https://stores.aldi.us/il/new-lenox/351-east-lincoln-highway,"Mo-Su 08:30-20:00,09:00-20:00",ALDI,Q41171672
4044,anytime_fitness,Anytime Fitness,,New Lenox,IL,,US,+1 815-534-5647,https://www.anytimefitness.com/gyms/4044/new-lenox-il-60451/,,Anytime Fitness,Q4778364
https://locations.atipt.com/new-lenox-il-west,ati_physical_therapy,ATI Physical Therapy New Lenox 122,,New Lenox,IL,,US,+1 815-462-8416,https://locations.atipt.com/new-lenox-il-west,,ATI Physical Therapy,Q50039703
https://locations.atipt.com/new-lenox-il-east,ati_physical_therapy,ATI Physical Therapy New Lenox 104,,New Lenox,IL,,US,+1 815-462-9420,https://locations.atipt.com/new-lenox-il-east,,ATI Physical Therapy,Q50039703
3566,autozone_us,AutoZone Auto Parts New Lenox,,New Lenox,IL,,US,+1 815-462-0917,https://www.autozone.com/locations/il/new-lenox/671-e-lincoln-hwy.html,Mo-Sa 07:30-21:00; Su 09:00-20:00,AutoZone,Q4826087
https://locators.bankofamerica.com/il/newlenox/financial-centers-new-lenox-16021.html,bankofamerica,Bank of America Financial Center & Drive-Thru ATM | New Lenox,,New Lenox,IL,,US,+1 815-462-3010,https://locators.bankofamerica.com/il/newlenox/financial-centers-new-lenox-16021.html,Mo-Fr 10:00-16:00,Bank of America,Q487907
https://locations.baskinrobbins.com/il/new-lenox/970-laraway-rd-341527-br,baskin_robbins_us,Baskin-Robbinsâ„¢,,New Lenox,IL,,US,+1 815-485-8270,https://locations.baskinrobbins.com/il/new-lenox/970-laraway-rd-341527-br,Mo-Su 05:00-22:00,Baskin-Robbins,Q584601
240596,bluerhino,Circle K #4706824,,New Lenox,IL,,US,+1 815-463-9227,,,Blue Rhino,Q65681213
151038,bluerhino,Walgreens #4032,,New Lenox,IL,,US,+1 815-485-2735,,,Blue Rhino,Q65681213
127536,bluerhino,Speedway #1431,,New Lenox,IL,,US,+1 815-485-9636,,,Blue Rhino,Q65681213
73628,bluerhino,Speedway #5380,,New Lenox,IL,,US,+1 815-485-6704,,,Blue Rhino,Q65681213
209591,bluerhino,Rebel #869 - MCI,,New Lenox,IL,,US,+1 779-803-0045,,,Blue Rhino,Q65681213
192479,bluerhino,Murphy's #7608,,New Lenox,IL,,US,+1 815-463-9963,,,Blue Rhino,Q65681213
151037,bluerhino,Walgreens #6180,,New Lenox,IL,,US,+1 815-485-7294,,,Blue Rhino,Q65681213
86881,bluerhino,Lowe's #2580,,New Lenox,IL,,US,+1 815-215-6000,,,Blue Rhino,Q65681213
214554,bluerhino,Casey's General Store #3981,,New Lenox,IL,,US,+1 815-518-2037,,,Blue Rhino,Q65681213
3755,buffalo_wild_wings_us,"New Lenox, IL",,New Lenox,IL,,US,+1 815-463-9333,"https://www.buffalowildwings.com/locations/us/il/new-lenox/414-nelson-road,-unit-414/sports-bar-1156",Mo-Th 11:00-23:00; Fr-Sa 11:00-24:00; Su 11:00-23:00,Buffalo Wild Wings,Q509255
9518,camp_bow_wow,Camp Bow Wow New Lenox,,New Lenox,IL,,US,+1 815-717-6755,,,Camp Bow Wow,Q121322343
2042477,chase_us,Route 30 and Williams - New branch,,New Lenox,IL,,US,+1 815-462-6274,https://locator.chase.com/il/new-lenox/611-e-lincoln-hwy,Mo-Fr 09:00-17:00; Sa 09:00-14:00,Chase,Q524629
001.005.1801,chilis,New Lenox,,New Lenox,IL,,US,+1 815-463-8743,https://www.chilis.com/locations/us/illinois/new-lenox/new-lenox/,Mo-Th 11:00-22:00; Fr-Sa 11:00-23:00; Su 11:00-22:00,Chili's,Q1072948
il_new-lenox_641-e-lincoln-hwy,chipotle, ,,New Lenox,IL,,US,+1 815-717-8388,https://locations.chipotle.com/il/new-lenox/641-e-lincoln-hwy,,Chipotle,Q465751
24715,citi,ATM 7ELEVEN-FCTI,,New Lenox,IL,,US,,,,Citibank,Q857063
48935,citi,ATM CVS,,New Lenox,IL,,US,,,,Citibank,Q857063
43015,citi,ATM Circle K,,New Lenox,IL,,US,,,,Citibank,Q857063
79335,citi,ATM Speedway,,New Lenox,IL,,US,,,,Citibank,Q857063
91293,citi,ATM Walgreens,,New Lenox,IL,,US,,,,Citibank,Q857063
79133,citi,ATM Speedway,,New Lenox,IL,,US,,,,Citibank,Q857063
66806,citi,ATM OLD PLANK TRAIL COMMUNITY BANK,,New Lenox,IL,,US,,,,Citibank,Q857063
66807,citi,ATM OLD PLANK TRAIL COMMUNITY BANK,,New Lenox,IL,,US,,,,Citibank,Q857063
77835,citi,ATM Speedway,,New Lenox,IL,,US,,,,Citibank,Q857063
24144,citi,ATM 7ELEVEN-FCTI,,New Lenox,IL,,US,,,,Citibank,Q857063
47234,citi,ATM CVS,,New Lenox,IL,,US,,,,Citibank,Q857063
91197,citi,ATM Walgreens,,New Lenox,IL,,US,,,,Citibank,Q857063
82062,citi,ATM Target,,New Lenox,IL,,US,,,,Citibank,Q857063
106 Ford CourtNew LenoxIL,clean_harbors,Clean Harbors,,New Lenox,IL,,US,+1 815-836-8813,,,Clean Harbors,Q5130494
36561,coopers_hawk,"New Lenox, IL",,New Lenox,IL,,US,,https://chwinery.com/locations/illinois/new-lenox,,Cooper's Hawk,Q64411347
430,culvers_us,"Culver's of New Lenox, IL - E Lincoln Hwy",,New Lenox,IL,,US,+1 815-463-9470,http://www.culvers.com/restaurants/new-lenox,Mo-Fr 10:00-22:00; Su 10:00-22:00,Culver's,Q1143589
10889,cvs_us,CVS Pharmacy,,New Lenox,IL,,US,+1 815-215-3183,https://www.cvs.com/store-locator/new-lenox-il-pharmacies/115-east-maple-st-new-lenox-il-60451/storeid=10889,Mo-Su 08:00-21:00,CVS Pharmacy,Q2078880
4977,cvs_us,CVS Pharmacy,,New Lenox,IL,,US,+1 815-463-5281,https://www.cvs.com/store-locator/new-lenox-il-pharmacies/2050-nelson-rd-new-lenox-il-60451/storeid=4977,Mo-Su 07:00-22:00,CVS Pharmacy,Q2078880
17121,cvs_us,CVS Pharmacy,,New Lenox,IL,,US,+1 815-462-6002,https://www.cvs.com/store-locator/new-lenox-il-pharmacies/2370-e-lincoln-hwy-new-lenox-il-60451/storeid=17121,"Mo-Fr 10:00-13:30,14:00-19:00; Sa-Su 11:00-13:30,14:00-17:00",CVS Pharmacy,Q2078880
9196,dominos_pizza_us,Domino's Pizza,,New Lenox,IL,,US,+1 815-242-2020,https://pizza.dominos.com/illinois/new-lenox/13150-east-lincoln-way-suite-5,Mo-Th 10:30-24:00; Fr-Sa 10:30-01:00; Su 10:30-24:00,Domino's,Q839466
355804,dunkin_us,Dunkin',,New Lenox,IL,,US,+1 815-717-6106,https://locations.dunkindonuts.com/en/il/new-lenox/273-e-haven-ave/355804,Mo-Su 04:00-22:00,Dunkin',Q847743
352762,dunkin_us,Dunkin',,New Lenox,IL,,US,+1 815-463-8781,https://locations.dunkindonuts.com/en/il/new-lenox/2516-n-cedar-rd/352762,Mo-Sa 04:00-19:00; Su 05:00-19:00,Dunkin',Q847743
341527,dunkin_us,Dunkin',,New Lenox,IL,,US,+1 815-485-8270,https://locations.dunkindonuts.com/en/il/new-lenox/970-laraway-rd/341527,Mo-Su 05:00-22:00,Dunkin',Q847743
349063,dunkin_us,Dunkin',,New Lenox,IL,,US,+1 815-462-3950,https://locations.dunkindonuts.com/en/il/new-lenox/429-e-lincoln-hwy/349063,Mo-Su 06:00-17:30,Dunkin',Q847743
364309,dunkin_us,Dunkin',,New Lenox,IL,,US,+1 224-735-5553,https://locations.dunkindonuts.com/en/il/new-lenox/1951-east-laraway-road/364309,Mo-Su 05:00-22:00,Dunkin',Q847743
https://www.edwardjones.com/us-en/financial-advisor/jim-budzinski,edwardjones,Jim Budzinski,,New Lenox,IL,,US,+1 815-485-8005,https://www.edwardjones.com/us-en/financial-advisor/jim-budzinski,Mo-Fr 08:00-17:00,Edward Jones,Q5343830
E115GN,enterprise,New Lenox,,New Lenox,IL,,US,+1 815-462-8200,,,Enterprise Rent-A-Car,Q17085454
1317,european_wax_center_us,European Wax Center,,New Lenox,IL,,US,+1 815-200-8266,https://locations.waxcenter.com/il/newlenox/new-lenox-new-lenox-town-center-1317.html,Mo-Fr 09:00-20:00; Sa 09:00-16:00; Su 09:00-15:00,European Wax Center,Q5413426
200328564,exxonmobil,REBEL#869,,NEW LENOX,IL,,US,+1 779-803-0045,https://www.exxon.com/en/find-station/mobil-newlenox-il-rebel869-200328564,Mo-Su 05:00-22:00,Mobil,Q109676002
200323858,exxonmobil,RIDGEWAY IX,,NEW LENOX,IL,,US,+1 708-474-0601,https://www.exxon.com/en/find-station/exxon-newlenox-il-ridgewayix-200323858,24/7,Exxon,Q109675651
200323077,exxonmobil,7-ELEVEN 33334,,NEW LENOX,IL,,US,+1 815-462-1739,https://www.exxon.com/en/find-station/mobil-newlenox-il-7eleven33334-200323077,24/7,Mobil,Q109676002
https://local.fedex.com/#25202883,fedex,,,New Lenox,IL,,US,+1 800-463-3339,https://local.fedex.com/en-us/il/new-lenox/sis97,,FedEx,Q459477
https://local.fedex.com/#25202675,fedex,,,New Lenox,IL,,US,+1 800-463-3339,https://local.fedex.com/en-us/il/new-lenox/sffw7,,FedEx,Q459477
https://local.fedex.com/#25476661,fedex,,,New Lenox,IL,,US,+1 800-463-3339,https://local.fedex.com/en-us/il/new-lenox/jotgs,,FedEx,Q459477
https://locations.53.com/#3033833,fifththirdbank,Fifth Third Bank New Lenox,,New Lenox,IL,,US,+1 815-463-4550,https://locations.53.com/il/new-lenox/2051-east-laraway-road.html,Mo-Th 09:00-17:30; Fr 09:00-18:00; Sa 09:00-14:00,Fifth Third Bank,Q1411810
https://restaurants.fiveguys.com/#15553199,five_guys_us,Five Guys New Lenox,,New Lenox,IL,,US,+1 815-463-0315,https://restaurants.fiveguys.com/2401-e-lincoln-hwy,"Mo-Su 11:00-21:30,11:00-22:00",Five Guys,Q1131810
100718,fresenius_kidney_care_us,Fresenius Kidney Care New Lenox,,New Lenox,IL,,US,+1 800-881-5101,https://www.freseniuskidneycare.com/dialysis-centers/illinois/100718,Mo 04:30-20:30; We 04:30-20:30; Fr 04:30-20:30,,
2857,gamestop_us,New Lenox Retail Center,,New Lenox,IL,,US,+1 815-463-4810,https://www.gamestop.com/search/?store=2857,Mo-Th 12:00-20:00; Fr-Sa 11:00-21:00; Su 11:00-20:00,GameStop,Q202210
https://stores.gnc.com/#24058412,gnc,GNC New Lenox Retail Center,,,IL,,US,+1 815-462-0092,https://stores.gnc.com/all-stores-illinois/new-lenox/2352-east-lincoln-hwy,Mo-Sa 10:00-20:00; Su 11:00-18:00,GNC,Q4808595
5bde83db-458a-e111-8dde-005056934050,goodwill,New Lenox Store,,New Lenox,IL,,US,+1 815-463-8832,https://www.goodwill.org/locator/location/?store=NWJkZTgzZGItNDU4YS1lMTExLThkZGUtMDA1MDU2OTM0MDUw&lat=NDEuNTEyMzk=&lng=LTg3Ljk1NDY2,,Goodwill,Q5583655
https://salons.greatclips.com/us/il/new-lenox/523-e-lincoln-hwy,greatclips,Great Clips,,New Lenox,IL,,US,+1 815-463-0274,https://salons.greatclips.com/us/il/new-lenox/523-e-lincoln-hwy,Mo-Fr 09:00-20:00; Sa 08:00-17:00; Su 10:00-17:00,Great Clips,Q5598967
29920,huntingtonbank,New Lenox,,New Lenox,IL,,US,+1 815-463-4000,https://www.huntington.com/Community/branch-info?locationId=29920,Mo-Fr 09:00-17:00; Sa 09:00-12:00; Su 00:00-00:00,Huntington Bank,Q798819
13908,h_r_block,H&R Block,,New Lenox,IL,,US,+1 815-463-1208,https://www.hrblock.com/local-tax-offices/illinois/new-lenox/1816-e-lincoln-hwy/13908/,,H&R Block,Q5627799
https://locations.jimmyjohns.com/il/newlenox/sandwiches-693.html,jimmy_johns,Jimmy John's,,New Lenox,IL,,US,+1 815-485-2725,https://locations.jimmyjohns.com/il/newlenox/sandwiches-693.html,,Jimmy John's,Q1689380
https://locations.kfc.com/#11249677,kfc,Chicken Nuggets Near New Lenox,,New Lenox,IL,,US,,https://locations.kfc.com/il/new-lenox/340-maple-street/chickennugget,Mo-Sa 10:30-21:00; Su 11:00-21:00,KFC,Q524757
070461,kindercare,New Lenox KinderCare,,New Lenox,IL,,US,,https://www.kindercare.com/our-centers/new-lenox/il/070461,,KinderCare Learning Centers,Q6410551
18473,mattress_firm_us,Mattress Firm New Lenox,,New Lenox,IL,,US,+1 815-463-0244,https://www.mattressfirm.com/en-us/stores/il/new-lenox/119115/,,Mattress Firm,Q6791878
https://locations.modpizza.com/#23558383,modpizza,MOD Pizza Lincoln Highway,,New Lenox,IL,,US,+1 779-803-8129,https://locations.modpizza.com/usa/il/new-lenox/651-e-lincoln-hwy,Mo-Th 10:30-22:00; Fr-Sa 10:30-23:00; Su 10:30-22:00,MOD Pizza,Q19903469
72028201,moneygram,CVS - #10889,,NEW LENOX,IL,,US,+1 815-215-3183,,24/7,MoneyGram,Q1944412
7608,murphy_usa_us,,,New Lenox,IL,,US,+1 815-420-5823,,Mo-Su 05:30-22:30,Murphy USA,Q19604459
30611,orangetheory_fitness,New Lenox-Manhattan,,New Lenox,IL,,US,+1 815-669-1800,,,Orangetheory Fitness,Q25005163
https://locations.oreillyauto.com/il/newlenox/wiper-installation-5999.html,oreilly,Your New Lenox O'Reilly Auto Parts Store,,New Lenox,IL,,US,+1 815-320-7979,https://locations.oreillyauto.com/il/newlenox/wiper-installation-5999.html,Mo-Sa 07:30-21:00; Su 08:00-20:00,O'Reilly Auto Parts,Q7071951
https://locations.oreillyauto.com/il/newlenox/battery-testing-5999.html,oreilly,Your New Lenox O'Reilly Auto Parts Store,,New Lenox,IL,,US,+1 815-320-7979,https://locations.oreillyauto.com/il/newlenox/battery-testing-5999.html,Mo-Sa 07:30-21:00; Su 08:00-20:00,O'Reilly Auto Parts,Q7071951
https://locations.oreillyauto.com/il/newlenox/check-engine-light-testing-5999.html,oreilly,Your New Lenox O'Reilly Auto Parts Store,,New Lenox,IL,,US,+1 815-320-7979,https://locations.oreillyauto.com/il/newlenox/check-engine-light-testing-5999.html,Mo-Sa 07:30-21:00; Su 08:00-20:00,O'Reilly Auto Parts,Q7071951
https://locations.oreillyauto.com/il/newlenox/autopartes-5999.html,oreilly,Tu tienda O'Reilly Auto Parts en New Lenox,,New Lenox,IL,,US,+1 815-320-7979,https://locations.oreillyauto.com/il/newlenox/autopartes-5999.html,Mo-Sa 07:30-21:00; Su 08:00-20:00,O'Reilly Auto Parts,Q7071951
672029,penske,Midwest Wheelz,,NEW LENOX,IL,,US,+1 630-226-6876,https://www.pensketruckrental.com/locations/us/illinois/new_lenox/672029/,,Penske,Q81234570
il_new-lenox_525-e-lincoln-highway,pizza_hut_us,525 E. Lincoln Highway,,New Lenox,IL,,US,+1 815-485-9400,https://locations.pizzahut.com/il/new-lenox/525-e-lincoln-highway,,Pizza Hut,Q191615
34,portillos,"New Lenox, Illinois",,New Lenox,IL,,US,+1 815-485-8301,https://www.portillos.com/locations/new-lenox/,,Portillo's,Q3399307
136972,potbelly_sandwich,New Lenox - Drive Thru,,New Lenox,IL,,US,+1 815-320-7388,,Mo-Su 09:00-22:00,Potbelly Sandwich Shop,Q7234777
https://restaurants.subway.com/#14904996,subway,Subway,,New Lenox Will,IL,,US,+1 815-463-0400,https://restaurants.subway.com/united-states/il/new-lenox/334-w-maple-st,Mo-Fr 08:00-21:00; Sa 10:00-21:00; Su 06:00-21:00,Subway,Q244457
https://locations.tacobell.com/#6143637,taco_bell,Taco Bell,,New Lenox,IL,,US,+1 815-462-0464,https://locations.tacobell.com/il/new-lenox/420-w-maple-st-.html,Mo-Th 09:00-02:00; Fr-Sa 09:00-03:00; Su 09:00-02:00,Taco Bell,Q752941
081398,tjx,New Lenox,485 E Lincoln Hwy,New Lenox,IL,,US,+1 815-462-0297,,Mo-Sa 09:30-21:30; Su 10:00-20:00,TJ Maxx,Q10860683
5741,tmobile_us,Nelson Rd. & Lincoln Hwy,,New Lenox,IL,,US,+1 779-803-3542,https://www.t-mobile.com/store-locator/il/new-lenox/nelson-rd-lincoln-hwy,,T-Mobile,Q3511885
"Silver Cross Surgery Center, New Lenox, Illinois",united_surgical_partners_international,Silver Cross Surgery Center,1003 Pawlak Parkway ,New Lenox,IL,,US,+1 815-717-1740,na,,United Surgical Partners International,Q7893575
5682,upsstore,New Lenox,2328 E Lincoln Hwy,New Lenox,IL,,US,+1 815-485-6580,https://locations.theupsstore.com/il/new-lenox/2328-e-lincoln-hwy,,UPS Store,Q7771029
1374771,usps,NEW LENOX,,NEW LENOX,IL,,US,+1 815-485-8273,,Mo-Fr 08:30-17:00; Sa 08:30-14:00,United States Postal Service,Q668687
6045100024,usps_collection_boxes,USPS COLLECTION BOX - BLUE BOX,475 NELSON RD,NEW LENOX,IL,,US,,,,United States Postal Service,Q668687
6045100006,usps_collection_boxes,USPS COLLECTION BOX - BLUE BOX,1202 TIMBER PL,NEW LENOX,IL,,US,,,,United States Postal Service,Q668687
6045100026,usps_collection_boxes,USPS COLLECTION BOX - BLUE BOX,466 NELSON RD,NEW LENOX,IL,,US,,,,United States Postal Service,Q668687
6045100023,usps_collection_boxes,USPS COLLECTION BOX - BLUE BOX,2050 NELSON RD,NEW LENOX,IL,,US,,,,United States Postal Service,Q668687
6045100020,usps_collection_boxes,USPS COLLECTION BOX - BLUE BOX,1 VETERANS PKWY,NEW LENOX,IL,,US,,,,United States Postal Service,Q668687
6045100009,usps_collection_boxes,USPS COLLECTION BOX - BLUE BOX,358 1/2 MAPLE ST,NEW LENOX,IL,,US,,,,United States Postal Service,Q668687
6045100025,usps_collection_boxes,USPS COLLECTION BOX - PO LOBBY,300 VINE ST,NEW LENOX,IL,,US,,,,United States Postal Service,Q668687
6045100038,usps_collection_boxes,USPS COLLECTION BOX - PO LOBBY,300 N VINE ST,NEW LENOX,IL,,US,,,,United States Postal Service,Q668687
6045100029,usps_collection_boxes,USPS COLLECTION BOX - BLUE BOX,450 S SCHOOLHOUSE RD,NEW LENOX,IL,,US,,,,United States Postal Service,Q668687
6045100007,usps_collection_boxes,USPS COLLECTION BOX - BLUE BOX,110 W MAPLE ST,NEW LENOX,IL,,US,,,,United States Postal Service,Q668687
6045100018,usps_collection_boxes,USPS COLLECTION BOX - BLUE BOX,1304 N CEDAR RD,NEW LENOX,IL,,US,,,,United States Postal Service,Q668687
6045100031,usps_collection_boxes,USPS COLLECTION BOX - BLUE BOX,2141 CALISTOGA DR,NEW LENOX,IL,,US,,,,United States Postal Service,Q668687
6045100032,usps_collection_boxes,USPS COLLECTION BOX - BLUE BOX,2021 E LARAWAY RD,NEW LENOX,IL,,US,,,,United States Postal Service,Q668687
6045100022,usps_collection_boxes,USPS COLLECTION BOX - BLUE BOX,2370 E LINCOLN HWY,NEW LENOX,IL,,US,,,,United States Postal Service,Q668687
R00000248555,verizon_us,New Lenox Town Center,,New Lenox,IL,,US,+1 815-462-1176,https://www.verizon.com/stores/details/illinois/new-lenox/new-lenox-town-center-1087202/,Mo-Sa 09:00-19:00; Su 10:00-17:00,Verizon,Q919641
,visa,,,NEW LENOX,IL,,US,,,,,
,visa,,,NEW LENOX,IL,,US,,,,,
,visa,,,NEW LENOX,IL,,US,,,,,
,visa,,,NEW LENOX,IL,,US,,,,,
,visa,,,NEW LENOX,IL,,US,,,,,
,visa,,,NEW LENOX,IL,,US,,,,,
,visa,,,NEW LENOX,IL,,US,,,,,
,visa,,,NEW LENOX,IL,,US,,,,,
,visa,,,NEW LENOX,IL,,US,,,,,
,visa,,,NEW LENOX,IL,,US,,,,,
,visa,,,NEW LENOX,IL,,US,,,,,
,visa,,,NEW LENOX,IL,,US,,,,,
,visa,,,NEW LENOX,IL,,US,,,,,
,visa,,,NEW LENOX,IL,,US,,,,,
,visa,,,NEW LENOX,IL,,US,,,,,
,visa,,,NEW LENOX,IL,,US,,,,,
,visa,,,NEW LENOX,IL,,US,,,,,
,visa,,,NEW LENOX,IL,,US,,,,,
,visa,,,NEW LENOX,IL,,US,,,,,
,visa,,,NEW LENOX,IL,,US,,,,,
,visa,,,NEW LENOX,IL,,US,,,,,
,visa,,,NEW LENOX,IL,,US,,,,,
,visa,,,NEW LENOX,IL,,US,,,,,
,visa,,,NEW LENOX,IL,,US,,,,,
,visa,,,NEW LENOX,IL,,US,,,,,
,visa,,,NEW LENOX,IL,,US,,,,,
,visa,,,NEW LENOX,IL,,US,,,,,
,visa,,,NEW LENOX,IL,,US,,,,,
,visa,,,NEW LENOX,IL,,US,,,,,
,visa,,,NEW LENOX,IL,,US,,,,,
,visa,,,NEW LENOX,IL,,US,,,,,
,visa,,,NEW LENOX,IL,,US,,,,,
,visa,,,NEW LENOX,IL,,US,,,,,
,visa,,,NEW LENOX,IL,,US,,,,,
,visa,,,NEW LENOX,IL,,US,,,,,
,visa,,,NEW LENOX,IL,,US,,,,,
,visa,,,NEW LENOX,IL,,US,,,,,
,visa,,,NEW LENOX,IL,,US,,,,,
,visa,,,NEW LENOX,IL,,US,,,,,
,visa,,,NEW LENOX,IL,,US,,,,,
,visa,,,NEW LENOX,IL,,US,,,,,
,visa,,,NEW LENOX,IL,,US,,,,,
,visa,,,NEW LENOX,IL,,US,,,,,
,visa,,,NEW LENOX,IL,,US,,,,,
https://www.walgreens.com/locator/walgreens-466+nelson+rd-new+lenox-il-60451/id=4032,walgreens,Walgreens,,New Lenox,IL,,US,+1 815-485-2735,https://www.walgreens.com/locator/walgreens-466+nelson+rd-new+lenox-il-60451/id=4032,24/7,Walgreens,Q1591889
https://www.walgreens.com/locator/walgreens-450+s+schoolhouse+rd-new+lenox-il-60451/id=6180,walgreens,Walgreens,,New Lenox,IL,,US,+1 815-485-7294,https://www.walgreens.com/locator/walgreens-450+s+schoolhouse+rd-new+lenox-il-60451/id=6180,Mo-Fr 07:00-22:00; Sa-Su 08:00-22:00,Walgreens,Q1591889
https://locations.wendys.com/#9254433,wendys,"Wendy's New Lenox in New Lenox, IL",,New Lenox,IL,,US,+1 815-462-8975,https://locations.wendys.com/united-states/il/new-lenox/2430-e-lincoln-hwy,"Mo-Su 06:30-10:30,09:00-22:00",Wendy's,Q550258
953e6a1b3367c1b6996e133a77e18870,western_union,WALMART #004529,,New Lenox,IL,,US,+1 815-215-2008,https://location.westernunion.com/us/il/new-lenox/953e6a1b3367c1b6996e133a77e18870,Mo-Su 07:00-21:00,Western Union,Q861042
050c286239bfac5534d92ec3f077e307,western_union,NEW LENOX CURRENCY EXCHANGE,,New Lenox,IL,,US,+1 815-485-0400,https://location.westernunion.com/us/il/new-lenox/050c286239bfac5534d92ec3f077e307,Mo-Fr 08:00-18:00; Sa 09:00-15:00,Western Union,Q861042
186477,wingstop,Wingstop New Lenox E Lincoln Hwy,1820 E. Lincoln Highway,New Lenox,IL,,US,+1 217-571-5388,,,Wingstop,Q8025339
