Ref,Spider,Name,Address,City,State,Zipcode,Country,Phone,Website,Hours,Brand,WikiData
72585346,moneygram,VAIRAM MEDICALS,,THANJAVUR,,,IN,+91 89251 03097,,Mo-Su 08:00-21:00,MoneyGram,Q1944412
73224758,moneygram,MADHA ENTERPRISES - THANJAVUR - THANJAVU,,THANJAVUR,,,IN,+91 94432 87153,,Mo-Su 09:00-21:00,MoneyGram,Q1944412
73282143,moneygram,MUTHOOT FINANCE LTD - #3278 - THANJAVUR,,THANJAVUR,,,IN,+91 4362 230 139,,Mo-Su 09:00-19:00,MoneyGram,Q1944412
73289049,moneygram,MUTHOOT FINANCE LTD - #4050 - THANJAVUR,,THANJAVUR,,,IN,+91 4362 230 129,,Mo-Su 09:00-19:00,MoneyGram,Q1944412
73255361,moneygram,MUTHOOT FINANCE LTD - #680 - THANJAVUR -,,THANJAVUR,,,IN,+91 4362 279 754,,Mo-Su 09:00-19:00,MoneyGram,Q1944412
73308166,moneygram,MUTHOOT FINCORP LIMITED - #F596 - THANJA,,THANJAVUR,,,IN,+91 4362 271 160,,Mo-Sa 09:00-17:30; Su 00:00-24:00,MoneyGram,Q1944412
73544771,moneygram,BAJE BHAI TRADER,,THANJAVUR,,,IN,+91 99443 94368,,Mo-Su 08:00-21:00,MoneyGram,Q1944412
73545987,moneygram,UNIVERSAL COMPUTERS,,THANJAVUR,,,IN,+91 99940 42734,,Mo-Su 08:00-21:00,MoneyGram,Q1944412
73545220,moneygram,YLB,,THANJAVUR,,,IN,+91 74491 91323,,Mo-Su 08:00-21:00,MoneyGram,Q1944412
73745855,moneygram,FULL MOON,,THANJAVUR,,,IN,+91 73392 71506,,Mo-Su 08:00-21:00,MoneyGram,Q1944412
74079274,moneygram,EQUITAS SMALL FINANCE BANK,,TANJAVUR,,,IN,+91 98408 15178,,Mo-Sa 10:00-17:00; Su 00:00-24:00,MoneyGram,Q1944412
74081767,moneygram,EQUITAS SMALL FINANCE BANK,,THANJAVUR,,,IN,+91 98408 15178,,Mo-Sa 10:00-17:00; Su 00:00-24:00,MoneyGram,Q1944412
74093438,moneygram,KOSAMATTAM FINANCE LIMITED - #849 - THAN,,THANJAVUR,,,IN,+91 4362 233 345,,Mo-Sa 09:00-17:30; Su 00:00-24:00,MoneyGram,Q1944412
70918724,moneygram,EBIXCASH WORLD MONEY INDIA LIMITED - THA,,THANJAVUR,,,IN,+91 4362 230 440,,Mo-Fr 08:30-22:00; Sa-Su 08:30-20:30,MoneyGram,Q1944412
44821504,moneygram,MANAPPURAM FINANCE,,THANJAVUR,,,IN,+91 4362 322 909,,Mo-Sa 09:30-18:30; Su 00:00-24:00,MoneyGram,Q1944412
71201540,moneygram,ST.MARY'S FINANCE CONSULTANCY & SERVICES,,THANJAVUR,,,IN,+91 94434 06714,,Mo-Su 09:00-21:00,MoneyGram,Q1944412
71204217,moneygram,ARIF COMMUNICATION INTERNET CAFE - THANJ,,THANJAVUR,,,IN,+91 99449 20223,,Mo-Su 09:00-21:00,MoneyGram,Q1944412
71537405,moneygram,SRI VINAYAKA JEWELLERY - THANJAVUR - THA,,THANJAVUR,,,IN,+91 94434 48902,,Mo-Su 09:00-21:00,MoneyGram,Q1944412
71940254,moneygram,ARIF COMMUNICATION INTERNET CAFE - THANJ,,THANJAVUR,,,IN,+91 99449 20223,,Mo-Su 09:00-21:00,MoneyGram,Q1944412
71944182,moneygram,MIZARO - THANJAVUR - THANJAVUR,,THANJAVUR,,,IN,+91 97918 98166,,Mo-Su 09:00-21:00,MoneyGram,Q1944412
