Ref,Spider,Name,Address,City,State,Zipcode,Country,Phone,Website,Hours,Brand,WikiData
187911,bluerhino,Batson's Ace Hardware #08462I,,Bushnell,IL,,US,+1 309-772-3700,,,Blue Rhino,Q65681213
202856,bluerhino,CASEY'S GENERAL STORE #1754,,BUSHNELL,IL,,US,+1 309-772-2969,,,Blue Rhino,Q65681213
90244870898596142200100000000000,bp,BP,,Bushnell,IL,,US,+1 309-772-3089,,Mo-Fr 04:00-24:00; Sa 05:00-24:00; Su 06:00-22:00,BP,Q152057
85532,citi,ATM UNITED COMMUNITY BANK 07,,Bushnell,IL,,US,,,,Citibank,Q857063
9734,dollar_general,Dollar General,,Bushnell,IL,,US,+1 309-439-9698,https://www.dollargeneral.com/store-directory/il/bushnell/9734,Mo-Su 08:00-21:00,Dollar General,Q145168
33619,family_dollar_us,FAMILY DOLLAR #13619,,Bushnell,IL,,US,+1 309-864-6009,https://www.familydollar.com/locations/il/bushnell/33619/,Mo-Sa 09:00-22:00; Su 09:00-21:00,Family Dollar,Q5433101
https://local.fedex.com/#25228609,fedex,,,Bushnell,IL,,US,+1 800-463-3339,https://local.fedex.com/en-us/il/bushnell/piaai,,FedEx,Q459477
1501271,hardees_us,Hardee's,,Bushnell,IL,,US,+1 309-588-4038,https://locations.hardees.com/il/bushnell/220-green-st,,Hardee's,Q1585088
https://restaurants.subway.com/#14904082,subway,Subway,,Bushnell McDonough,IL,,US,+1 309-772-2401,https://restaurants.subway.com/united-states/il/bushnell/494-e-hurst-street,Mo-Su 09:00-21:00,Subway,Q244457
1356463,usps,BUSHNELL,,BUSHNELL,IL,,US,+1 309-772-3515,,"Mo-Fr 08:00-11:00,12:00-16:30; Sa 09:30-11:30",United States Postal Service,Q668687
6142200004,usps_collection_boxes,USPS COLLECTION BOX - BLUE BOX,1001 COLE ST,BUSHNELL,IL,,US,,,,United States Postal Service,Q668687
6142200001,usps_collection_boxes,USPS COLLECTION BOX - BLUE BOX,223 E HAIL ST,BUSHNELL,IL,,US,,,,United States Postal Service,Q668687
6142200011,usps_collection_boxes,USPS COLLECTION BOX - PO LOBBY,223 E HAIL ST,BUSHNELL,IL,,US,,,,United States Postal Service,Q668687
6142200012,usps_collection_boxes,USPS COLLECTION BOX - PO LOBBY,223 E HAIL ST,BUSHNELL,IL,,US,,,,United States Postal Service,Q668687
6142200010,usps_collection_boxes,USPS COLLECTION BOX - BLUE BOX,458 E MAIN ST,BUSHNELL,IL,,US,,,,United States Postal Service,Q668687
,visa,,,BUSHNELL,IL,,US,,,,,
,visa,,,BUSHNELL,IL,,US,,,,,
,visa,,,BUSHNELL,IL,,US,,,,,
,visa,,,BASHNELL,IL,,US,,,,,
,visa,,,BASHNELL,IL,,US,,,,,
,visa,,,BUSHNELL,IL,,US,,,,,
,visa,,,BUSHNELL,IL,,US,,,,,
