Ref,Spider,Name,Address,City,State,Zipcode,Country,Phone,Website,Hours,Brand,WikiData
https://stores.ashleyfurniture.com/store/us/texas/houston/7710000416/,ashley_furniture,"Ashley Store Houston, TX",,Houston,TX,,US,+1 713-221-4100,https://stores.ashleyfurniture.com/store/us/texas/houston/7710000416/,,Ashley Furniture,Q4805437
11138,asics_us,REI - Houston-Willowbrook,17717 Tomball Pkwy,Houston,TX,,US,+1 832-237-8833,,Mo-Sa 10:00-20:00; Su 11:00-18:00,asics,Q327247
https://www.banfield.com/locations/veterinarians/tx/houston/hou,banfield_pet_hospital,Willowbrook,,Houston,TX,,US,+1 281-469-2999,https://www.banfield.com/locations/veterinarians/tx/houston/hou,Mo-Sa 07:00-18:00; Su 09:00-17:00,Banfield Pet Hospital,Q2882416
https://locators.bankofamerica.com/tx/houston/financial-centers-houston-16467.html,bankofamerica,Bank of America Financial Center & Walk-Up ATM | West Road and Beltway 8,,Houston,TX,,US,+1 281-890-5023,https://locators.bankofamerica.com/tx/houston/financial-centers-houston-16467.html,Mo-Fr 10:00-16:00,Bank of America,Q487907
https://stores.bestbuy.com/tx/houston/17776-state-highway-249-2643.html,bestbuy,Best Buy Houston Outlet,,Houston,TX,,US,+1 832-604-8217,https://stores.bestbuy.com/tx/houston/17776-state-highway-249-2643.html,,Best Buy,Q533415
225083,bluerhino,Easy Gas 3,,Houston,TX,,US,+1 832-364-2175,,,Blue Rhino,Q65681213
178662,bluerhino,Fuel Zone    (Fallbrook),,Houston,TX,,US,+1 346-763-1135,,,Blue Rhino,Q65681213
59176,bluerhino,Kroger #739 - Southwest,,Houston,TX,,US,+1 281-477-0701,,,Blue Rhino,Q65681213
186044,bluerhino,Kroger #739 - Southwest- Fuel Site,,Houston,TX,,US,+1 281-477-0701,,,Blue Rhino,Q65681213
227245,bluerhino,Timewise #880821,,Houston,TX,,US,+1 832-237-8960,,,Blue Rhino,Q65681213
177287,bluerhino,West Road Express (WEST ROAD),,Houston,TX,,US,+1 281-741-5933,,,Blue Rhino,Q65681213
237760,bluerhino,Circle K #2742731,,Houston,TX,,US,+1 713-466-3955,,,Blue Rhino,Q65681213
826,buffalo_wild_wings_us,"Buffalo Wild Wings GO - Houston, TX - Sam Houston Pkwy",,Houston,TX,,US,+1 281-985-9850,https://www.buffalowildwings.com/locations/us/tx/houston/9105-sam-houston-parkway-n/sports-bar-1649,Mo-Su 11:00-22:00,Buffalo Wild Wings,Q509255
22523,burgerking,Burger King,,Houston,TX,,US,+1 346-206-3146,https://www.bk.com/store-locator/store/restaurant_60359,Mo-Su 06:00-22:00,Burger King,Q177054
tx_houston_9102-w-sam-houston-pkwy-n,chipotle, ,,Houston,TX,,US,+1 281-720-0245,https://locations.chipotle.com/tx/houston/9102-w-sam-houston-pkwy-n,,Chipotle,Q465751
https://locations.chuckecheese.com/us/tx/houston/17780-tomball-pkwy.,chuckecheese,Chuck E. Cheese,,Houston,TX,,US,+1 281-894-1900,https://locations.chuckecheese.com/us/tx/houston/17780-tomball-pkwy.,Mo-Th 11:00-21:00; Fr 11:00-22:00; Sa 10:00-22:00; Su 11:00-21:00,Chuck E. Cheese,Q2438391
9825-jones-road,churchs_chicken,Jones Road,,Houston,TX,,US,+1 832-604-6539,https://locations.churchs.com/tx/houston/9825-jones-road,,Church's Chicken,Q1089932
8255-a-mills-road,churchs_chicken,Mills Road,,Houston,TX,,US,+1 832-688-8089,https://locations.churchs.com/tx/houston/8255-a-mills-road,,Church's Chicken,Q1089932
24197,citi,ATM 7ELEVEN-FCTI,,Houston,TX,,US,,,,Citibank,Q857063
45816,citi,ATM Costco,,Houston,TX,,US,,,,Citibank,Q857063
55032,citi,ATM FCCU - Sam Houston ATM (Inside HEB),,Houston,TX,,US,,,,Citibank,Q857063
61650,citi,ATM Kroger,,Houston,TX,,US,,,,Citibank,Q857063
tx_houston_17355-tomball-parkway,costplus_worldmarket,World Market Willowbrook,,Houston,TX,,US,+1 281-955-5746,https://stores.worldmarket.com/tx/houston/17355-tomball-parkway.html,Mo-Fr 11:00-20:00; Sa 10:00-20:00; Su 11:00-18:00,Cost Plus World Market,Q5174750
,credit_union_us,First Community CU,,Houston,TX,,US,+1 281-856-5300,,Mo-Fr 09:00-07:00; Sa 09:00-05:00,,
,credit_union_us,First Service CU,,Houston,TX,,US,+1 713-676-7777,,Mo-Fr 09:00-06:00; Sa 09:00-02:00,,
247792,dennys,Denny's,,Houston,TX,,US,+1 281-469-5311,https://locations.dennys.com/TX/HOUSTON/247792,24/7,Denny's,Q1189695
6782,dominos_pizza_us,Domino's Pizza,,Houston,TX,,US,+1 713-466-1500,https://pizza.dominos.com/texas/houston/8302-fairbanks-north-houston,Mo-Th 10:00-24:00; Fr-Sa 10:00-01:00; Su 10:00-24:00,Domino's,Q839466
200328998,exxonmobil,FUEL DEPOT # 35,,HOUSTON,TX,,US,+1 281-741-5084,https://www.exxon.com/en/find-station/mobil-houston-tx-fueldepot35-200328998,Mo-Su 06:00-00:00,Mobil,Q109676002
200322156,exxonmobil,Mobil,,HOUSTON,TX,,US,,https://www.exxon.com/en/find-station/mobil-houston-tx-mobil-200322156,24/7,Mobil,Q109676002
https://local.fedex.com/#27750852,fedex,FedEx Authorized ShipCenter,,Houston,TX,,US,+1 281-477-7678,https://local.fedex.com/en-us/tx/houston/49195,,FedEx,Q459477
https://local.fedex.com/#25457703,fedex,,,Houston,TX,,US,+1 800-463-3339,https://local.fedex.com/en-us/tx/houston/00jp1,,FedEx,Q459477
https://www.harborfreight.com/storelocator/17713-tomball-parkway-houston-77064?number=3524,harborfreight,"Harbor Freight Tools Houston Willowbrook, TX",,Houston,TX,,US,+1 346-537-7505,https://www.harborfreight.com/storelocator/17713-tomball-parkway-houston-77064?number=3524,Mo-Sa 08:00-20:00; Su 09:00-18:00,Harbor Freight Tools,Q5654601
houbehw-homewood-suites-houston-nw-at-beltway-8,hilton,Homewood Suites by Hilton Houston NW at Beltway 8,,,TX,,US,+1 832-648-4700,https://www.hilton.com/ar/hotels/houbehw-homewood-suites-houston-nw-at-beltway-8/,,Homewood Suites by Hilton,Q5890701
https://locations.jackinthebox.com/us/tx/houston/8055-n-sam-houston-pkwy-w,jackinthebox,Jack in the Box,,Houston,TX,,US,+1 281-894-2638,https://locations.jackinthebox.com/us/tx/houston/8055-n-sam-houston-pkwy-w,Mo-Su 04:00-04:00,Jack in the Box,Q1538507
https://stores.jdsports.com/tx/houston/willowbrook-mall.html,jdsports_us,JD Sports,,Houston,TX,,US,+1 832-604-5017,https://stores.jdsports.com/tx/houston/willowbrook-mall.html,Mo-Sa 11:00-20:00; Su 12:00-19:00,JD Sports,Q6108019
https://locations.kfc.com/#11246435,kfc,Chicken Nuggets Near Houston,,Houston,TX,,US,,https://locations.kfc.com/tx/houston/9011-w-sam-houston-parkway-n/chickennugget,Mo-Su 10:30-22:00,KFC,Q524757
11290,little_free_library,Brenda Morgan #11290 Houston TX,,Houston,TX,,US,,,,Little Free Library,Q6650101
83805,little_free_library,Westbridge LFB #83805 Houston TX,,Houston,TX,,US,,,,Little Free Library,Q6650101
HOUFX,marriott,Fairfield Inn & Suites Houston Northwest/Willowbrook,,Houston,TX,,US,+1 281-978-2678,https://www.marriott.com/HOUFX,,Fairfield by Marriott,Q5430314
HOUBK,marriott,Residence Inn Houston Northwest/Willowbrook,,Houston,TX,,US,+1 832-237-2002,https://www.marriott.com/HOUBK,,Residence Inn by Marriott,Q7315394
HOUTY,marriott,TownePlace Suites Houston Northwest/Beltway 8,,Houston,TX,,US,+1 281-529-6152,https://www.marriott.com/HOUTY,,Townplace Suites by Marriott,Q7830092
9105-w-sam-houston-parkway-n,my_eye_dr,,,Houston,TX,,US,+1 281-970-6900,https://locations.myeyedr.com/tx/houston/9105-w-sam-houston-parkway-n,,MyEyeDr.,Q117864710
17776-texas-249-access-road,my_eye_dr,,,Houston,TX,,US,+1 281-890-8480,https://locations.myeyedr.com/tx/houston/17776-texas-249-access-road,,MyEyeDr.,Q117864710
tx_houston_17254-state-highway-249,pizza_hut_us,17254 State Highway 249,,Houston,TX,,US,+1 281-955-7400,https://locations.pizzahut.com/tx/houston/17254-state-highway-249,,Pizza Hut,Q191615
restaurant_84955,popeyes_us_fr,Popeyes,"8120 North Sam Houston Pkwy W Houston, Tx 77064, Texas 77064 - USA","Houston, Tx 77064",TX,,US,+1 832-688-8666,https://www.popeyes.com/store-locator/store/restaurant_84955,Mo-Su 10:00-22:00,Popeyes,Q1330910
136957,potbelly_sandwich,Beltway 8 & West - Drive Thru,,Houston,TX,,US,+1 281-671-6226,,Mo-Su 10:00-22:00,Potbelly Sandwich Shop,Q7234777
41904,seven_eleven_ca_us,7-Eleven,,Houston,TX,,US,+1 800-255-0711,https://www.7-eleven.com/locations/tx/houston/9275-fm-1960-west-rd-41904,,7-Eleven,Q259340
41896,seven_eleven_ca_us,7-Eleven,,Houston,TX,,US,+1 346-453-9533,https://www.7-eleven.com/locations/tx/houston/10002-fairbanks-n-houston-41896,,7-Eleven,Q259340
38934,seven_eleven_ca_us,7-Eleven,,Houston,TX,,US,+1 346-244-8824,https://www.7-eleven.com/locations/tx/houston/8015-fm-1960-rd-w-38934,,7-Eleven,Q259340
3997,shellrecharge,DHO8,,Houston,TX,,US,,,,Shell Recharge,Q105883058
3956,shellrecharge,DHO3,,Houston,TX,,US,,,,Shell Recharge,Q105883058
32298,smilebrands,Southern Dental Associates Willowbrook,17776 Tomball Parkway,Houston,TX,,US,+1 281-469-0098,https://southerndental.com,,Smile Brands Inc.,Q108286823
https://restaurants.subway.com/#14906406,subway,Subway,,Houston Harris,TX,,US,+1 832-237-2323,https://restaurants.subway.com/united-states/tx/houston/9105-sam-houston-pkwy,Mo-Sa 08:00-21:30; Su 09:00-21:00,Subway,Q244457
https://restaurants.subway.com/#14905821,subway,Subway The Plazas at Legacy Park Ctr,,Houston Harris,TX,,US,+1 832-237-1888,https://restaurants.subway.com/united-states/tx/houston/8925-fallbrook-dr,Mo-Sa 08:00-21:30; Su 09:00-21:00,Subway,Q244457
https://restaurants.subway.com/#15109385,subway,Subway Beltway Crossing Retail Ctr,,Houston Harris,TX,,US,+1 281-469-2989,https://restaurants.subway.com/united-states/tx/houston/8050-n-sam-houston-pkwy-w,Mo-Th 08:00-22:00; Fr-Sa 08:00-21:00; Su 09:00-21:00,Subway,Q244457
https://restaurants.subway.com/#14903056,subway,Subway Circle K Store #2742731,,Houston Harris,TX,,US,+1 713-466-3955,https://restaurants.subway.com/united-states/tx/houston/8402-fairbanks-n-houston-rd,Mo-Su 08:00-21:00,Subway,Q244457
https://restaurants.subway.com/#14899583,subway,Subway Willowbrook Shopping Center,,Houston Harris,TX,,US,+1 832-237-2288,https://restaurants.subway.com/united-states/tx/houston/17735-state-hwy-249,Mo-Fr 07:00-21:00; Sa-Su 09:00-21:00,Subway,Q244457
https://locations.tacobell.com/#29413106,taco_bell,Taco Bell,,Houston,TX,,US,+1 832-280-4784,https://locations.tacobell.com/tx/houston/9145-w-sam-houston-pkwy.html,Mo-Su 07:00-02:00,Taco Bell,Q752941
20330,taco_cabana_us,8930 W Sam Houston Pkwy N,"8930 W Sam Houston Pkwy N, Houston, TX, USA",Houston,TX,,US,+1 281-617-5867,,,Taco Cabana,Q12070488
7914,tmobile_us,Gessner & Hwy 249,,Houston,TX,,US,+1 281-955-9741,https://www.t-mobile.com/store-locator/tx/houston/gessner-hwy-249,,T-Mobile,Q3511885
5444,tmobile_us,W Sam Houston Pkwy & West Rd,,Houston,TX,,US,+1 281-894-9483,https://www.t-mobile.com/store-locator/tx/houston/w-sam-houston-pkwy-west-rd,,T-Mobile,Q3511885
00206,twenty_four_hour_fitness_us,Willowbrook (Houston),,Houston,TX,,US,+1 281-894-6151,https://www.24hourfitness.com/Website/Club/00206,,24 Hour Fitness Super Sport,Q4631849
A00000233157,verizon_us,Cellular Sales Houston W Sam Houston Pkwy,,Houston,TX,,US,+1 832-688-9367,https://www.verizon.com/stores/details/texas/houston/victra-houston-w-34th-st-1369422/,Mo-Sa 09:00-20:00; Su 11:00-19:00,Verizon,Q919641
,visa,,,HOUSTON,TX,,US,,,,,
,visa,,,HOUSTON,TX,,US,,,,,
,visa,,,HOUSTON,TX,,US,,,,,
,visa,,,HOUSTON,TX,,US,,,,,
,visa,,,HOUSTON,TX,,US,,,,,
,visa,,,HOUSTON,TX,,US,,,,,
,visa,,,HOUSTON,TX,,US,,,,,
,visa,,,HOUSTON,TX,,US,,,,,
,visa,,,HOUSTON,TX,,US,,,,,
,visa,,,HOUSTON,TX,,US,,,,,
,visa,,,HOUSTON,TX,,US,,,,,
,visa,,,HOUSTON,TX,,US,,,,,
,visa,,,HOUSTON,TX,,US,,,,,
,visa,,,HOUSTON,TX,,US,,,,,
,visa,,,HOUSTON,TX,,US,,,,,
,visa,,,HOUSTON,TX,,US,,,,,
,visa,,,HOUSTON,TX,,US,,,,,
,visa,,,HOUSTON,TX,,US,,,,,
,visa,,,HOUSTON,TX,,US,,,,,
,visa,,,HOUSTON,TX,,US,,,,,
,visa,,,HOUSTON TX 77064,TX,,US,,,,,
,visa,,,HOUSTON,TX,,US,,,,,
,visa,,,HOUSTON,TX,,US,,,,,
,visa,,,HOUSTON,TX,,US,,,,,
,visa,,,HOUSTON,TX,,US,,,,,
,visa,,,HOUSTON,TX,,US,,,,,
,visa,,,HOUSTON,TX,,US,,,,,
,visa,,,HOUSTON,TX,,US,,,,,
,visa,,,HOUSTON,TX,,US,,,,,
,visa,,,HOUSTON,TX,,US,,,,,
,visa,,,HOUSTON,TX,,US,,,,,
,visa,,,HOUSTON,TX,,US,,,,,
,visa,,,HOUSTON,TX,,US,,,,,
,visa,,,HOUSTON,TX,,US,,,,,
,visa,,,HOUSTON,TX,,US,,,,,
,visa,,,HOUSTON,TX,,US,,,,,
,visa,,,HOUSTON,TX,,US,,,,,
,visa,,,HOUSTON,TX,,US,,,,,
,visa,,,HOUSTON,TX,,US,,,,,
,visa,,,HOUSTON,TX,,US,,,,,
,visa,,,HOUSTON,TX,,US,,,,,
,visa,,,HOUSTON,TX,,US,,,,,
,visa,,,HOUSTON,TX,,US,,,,,
,visa,,,HOUSTON,TX,,US,,,,,
,visa,,,HOUSTON,TX,,US,,,,,
,visa,,,HOUSTON,TX,,US,,,,,
,visa,,,HOUSTON,TX,,US,,,,,
,visa,,,HOUSTON,TX,,US,,,,,
,visa,,,HOUSTON,TX,,US,,,,,
,visa,,,HOUSTON,TX,,US,,,,,
,visa,,,HOUSTON,TX,,US,,,,,
,visa,,,HOUSTON,TX,,US,,,,,
,visa,,,HOUSTON,TX,,US,,,,,
,visa,,,HOUSTON,TX,,US,,,,,
,visa,,,HOUSTON,TX,,US,,,,,
,visa,,,HOUSTON,TX,,US,,,,,
,visa,,,HOUSTON,TX,,US,,,,,
,visa,,,HOUSTON,TX,,US,,,,,
,visa,,,HOUSTON,TX,,US,,,,,
,visa,,,HOUSTON,TX,,US,,,,,
,visa,,,HOUSTON,TX,,US,,,,,
,visa,,,HOUST0N,TX,,US,,,,,
,visa,,,HOUSTON,TX,,US,,,,,
,visa,,,HOUSTON,TX,,US,,,,,
https://locations.wendys.com/#9253022,wendys,"Wendy's 062 West in Houston, TX",,Houston,TX,,US,+1 832-509-5463,https://locations.wendys.com/united-states/tx/houston/9035-west-rd,"Mo-Su 06:00-10:30,09:00-22:00",Wendy's,Q550258
https://locations.wendys.com/#9252991,wendys,"Wendy's 249 + Gessner in Houston, TX",,Houston,TX,,US,+1 346-206-2894,https://locations.wendys.com/united-states/tx/houston/12707-gessner-road,"Mo-Su 06:30-10:30,07:00-22:00",Wendy's,Q550258
410a46de49a5087f62b429d4911a6e47,western_union,CIRCLE S FOOD STORE,,Houston,TX,,US,+1 713-896-1676,https://location.westernunion.com/us/tx/houston/410a46de49a5087f62b429d4911a6e47,Mo-Su 06:00-22:00,Western Union,Q861042
67fca9a1214beb112633ebfd00f6cdc5,western_union,7-ELEVEN #41896,,Houston,TX,,US,+1 346-453-9533,https://location.westernunion.com/us/tx/houston/67fca9a1214beb112633ebfd00f6cdc5,,Western Union,Q861042
https://locations.whataburger.com/tx/houston/9232-w-sam-houston-pkwy-n.html,whataburger,West & Beltway 8,9232 W SAM HOUSTON PKWY N,HOUSTON,TX,,US,,https://locations.whataburger.com/tx/houston/9232-w-sam-houston-pkwy-n.html,,Whataburger,Q376627
