Ref,Spider,Name,Address,City,State,Zipcode,Country,Phone,Website,Hours,Brand,WikiData
USAA08A01,audi,Classic Audi,"541 White Plains Rd, Eastchester, NY 10709",Eastchester,NY,,US,+1 914-779-2020,,,Audi,Q23317
70868833943811070900100000000000,bp,BP,,Eastchester,NY,,US,+1 914-337-2696,,24/7,BP,Q152057
2043055,chase_us,Eastchester - New branch,,Eastchester,NY,,US,+1 914-793-3250,https://locator.chase.com/ny/eastchester/360-white-plains-rd,Mo-Fr 09:00-17:00; Sa 09:00-14:00,Chase,Q524629
90559,citi,ATM Walgreens,,Eastchester,NY,,US,,,,Citibank,Q857063
50655,citi,ATM CVS,,Eastchester,NY,,US,,,,Citibank,Q857063
ATM-2284,citizens_us,,,Eastchester,NY,,US,,,,Citizens,Q5122694
2432,cvs_us,CVS Pharmacy,,Eastchester,NY,,US,+1 914-337-5300,https://www.cvs.com/store-locator/eastchester-ny-pharmacies/375-white-plains-road-eastchester-ny-10709/storeid=2432,Mo-Th 07:00-22:00; Fr-Sa 07:00-23:00; Su 07:00-22:00,CVS Pharmacy,Q2078880
8e1adb75-458a-e111-8dde-005056934050,goodwill,Elmsford Donation Center,,Eastchester,NY,,US,+1 914-347-4376,https://www.goodwill.org/locator/location/?store=OGUxYWRiNzUtNDU4YS1lMTExLThkZGUtMDA1MDU2OTM0MDUw&lat=NDEuMDcwNw==&lng=LTczLjgxNjM1,,Goodwill,Q5583655
e8a20146-458a-e111-8dde-005056934050,goodwill,Eastchester Attended Donation Center,,Eastchester,NY,,US,+1 914-337-3749,https://www.goodwill.org/locator/location/?store=ZThhMjAxNDYtNDU4YS1lMTExLThkZGUtMDA1MDU2OTM0MDUw&lat=NDAuOTU2Mzg=&lng=LTczLjgxMjI0,,Goodwill,Q5583655
https://stations.sinclairoil.com/ny/eastchester/600-white-plains-road,sinclair_us,Sinclair Gas Station,,Eastchester,NY,,US,+1 914-222-9442,https://stations.sinclairoil.com/ny/eastchester/600-white-plains-road,,Sinclair,Q1290900
0532,stop_and_shop,Stop & Shop,420 White Plains Road,Eastchester,NY,,US,,,,Stop and Shop,Q3658429
1433746,usps,EASTCHESTER,,EASTCHESTER,NY,,US,+1 914-779-7130,,Mo-Fr 09:00-17:00; Sa 09:00-13:00,United States Postal Service,Q668687
,visa,,,EASTCHESTER,NY,,US,,,,,
,visa,,,EASTCHESTER,NY,,US,,,,,
,visa,,,EASTCHESTER,NY,,US,,,,,
,visa,,,EASTCHESTER,NY,,US,,,,,
,visa,,,EASTCHESTER,NY,,US,,,,,
,visa,,,EASTCHESTER,NY,,US,,,,,
,visa,,,EASTCHESTER,NY,,US,,,,,
,visa,,,EASTCHESTER,NY,,US,,,,,
,visa,,,EASTCHESTER,NY,,US,,,,,
,visa,,,EASTCHESTER,NY,,US,,,,,
,visa,,,EASTCHESTER,NY,,US,,,,,
,visa,,,EASTCHESTER,NY,,US,,,,,
,visa,,,EASTCHESTER,NY,,US,,,,,
,visa,,,EAST CHESTER,NY,,US,,,,,
,visa,,,EAST CHESTER,NY,,US,,,,,
,visa,,,EASTCHESTER,NY,,US,,,,,
,visa,,,EASTCHESTER,NY,,US,,,,,
,visa,,,EASTCHESTER,NY,,US,,,,,
,visa,,,EASTCHESTER,NY,,US,,,,,
,visa,,,EASTCHESTER,NY,,US,,,,,
,visa,,,EASTCHESTER,NY,,US,,,,,
,visa,,,EASTCHESTER,NY,,US,,,,,
,visa,,,EASTCHESTER,NY,,US,,,,,
,visa,,,EASTCHESTER,NY,,US,,,,,
,visa,,,EASTCHESTER,NY,,US,,,,,
,visa,,,EASTCHESTER,NY,,US,,,,,
,visa,,,EASTCHESTER,NY,,US,,,,,
,visa,,,EASTCHESTER,NY,,US,,,,,
,visa,,,EASTCHESTER,NY,,US,,,,,
,visa,,,EASTCHESTER,NY,,US,,,,,
,visa,,,EASTCHESTER,NY,,US,,,,,
,visa,,,EAST CHESTER,NY,,US,,,,,
,visa,,,EASTCHESTER,NY,,US,,,,,
,visa,,,EASTCHESTER,NY,,US,,,,,
,visa,,,EASTCHESTER,NY,,US,,,,,
,visa,,,EASTCHESTER TOWN,NY,,US,,,,,
,visa,,,EASTCHESTER,NY,,US,,,,,
,visa,,,EASTCHESTER,NY,,US,,,,,
https://www.walgreens.com/locator/walgreens-370+white+plains+rd-eastchester-ny-10709/id=9866,walgreens,Walgreens,,Eastchester,NY,,US,+1 914-771-5853,https://www.walgreens.com/locator/walgreens-370+white+plains+rd-eastchester-ny-10709/id=9866,Mo-Su 07:00-22:00,Walgreens,Q1591889
375__WHITE__PLAINS__RD_EASTCHESTER_NY_10709,wellsfargo,Wells Fargo,375 WHITE PLAINS RD,EASTCHESTER,NY,,US,+1 914-361-3457,https://www.wellsfargo.com/locator/bank/375__WHITE__PLAINS__RD_EASTCHESTER_NY_10709/,Mo-Fr 09:00-17:00,Wells Fargo,Q744149
