Ref,Spider,Name,Address,City,State,Zipcode,Country,Phone,Website,Hours,Brand,WikiData
,visa,,,PEREIRA,RISARALDA,,CO,,,,,
,visa,,,PEREIRA,RISARALDA,,CO,,,,,
,visa,,,DOSQUEBRADAS,RISARALDA,,CO,,,,,
,visa,,,PEREIRA,RISARALDA,,CO,,,,,
,visa,,,PEREIRA,RISARALDA,,CO,,,,,
,visa,,,SALENTO,RISARALDA,,CO,,,,,
,visa,,,PEREIRA,RISARALDA,,CO,,,,,
,visa,,,SANTA ROSA DE CABAL,RISARALDA,,CO,,,,,
,visa,,,SANTA ROSA DE CABAL,RISARALDA,,CO,,,,,
,visa,,,SANTA ROSA DE CABAL,RISARALDA,,CO,,,,,
,visa,,,SANTA ROSA DE CABAL,RISARALDA,,CO,,,,,
,visa,,,SANTA ROSA DE CABAL,RISARALDA,,CO,,,,,
,visa,,,SANTA ROSA DE CABAL,RISARALDA,,CO,,,,,
,visa,,,DOSQUEBRADAS,RISARALDA,,CO,,,,,
,visa,,,DOSQUEBRADAS,RISARALDA,,CO,,,,,
,visa,,,DOSQUEBRADAS,RISARALDA,,CO,,,,,
,visa,,,DOSQUEBRADAS,RISARALDA,,CO,,,,,
,visa,,,DOSQUEBRADAS,RISARALDA,,CO,,,,,
,visa,,,DOSQUEBRADAS,RISARALDA,,CO,,,,,
,visa,,,DOSQUEBRADAS,RISARALDA,,CO,,,,,
,visa,,,DOSQUEBRADAS,RISARALDA,,CO,,,,,
,visa,,,DOSQUEBRADAS,RISARALDA,,CO,,,,,
,visa,,,PEREIRA,RISARALDA,,CO,,,,,
,visa,,,DOSQUEBRADAS,RISARALDA,,CO,,,,,
,visa,,,DOSQUEBRADAS,RISARALDA,,CO,,,,,
,visa,,,DOSQUEBRADAS,RISARALDA,,CO,,,,,
,visa,,,DOSQUEBRADAS,RISARALDA,,CO,,,,,
,visa,,,PEREIRA,RISARALDA,,CO,,,,,
,visa,,,PEREIRA,RISARALDA,,CO,,,,,
,visa,,,PEREIRA,RISARALDA,,CO,,,,,
,visa,,,PEREIRA,RISARALDA,,CO,,,,,
,visa,,,PEREIRA,RISARALDA,,CO,,,,,
,visa,,,PEREIRA,RISARALDA,,CO,,,,,
,visa,,,PEREIRA,RISARALDA,,CO,,,,,
,visa,,,PEREIRA,RISARALDA,,CO,,,,,
,visa,,,PEREIRA,RISARALDA,,CO,,,,,
,visa,,,PEREIRA,RISARALDA,,CO,,,,,
,visa,,,PEREIRA,RISARALDA,,CO,,,,,
,visa,,,DOSQUEBRADAS,RISARALDA,,CO,,,,,
,visa,,,PEREIRA,RISARALDA,,CO,,,,,
,visa,,,PEREIRA,RISARALDA,,CO,,,,,
,visa,,,PEREIRA,RISARALDA,,CO,,,,,
,visa,,,PEREIRA,RISARALDA,,CO,,,,,
,visa,,,PEREIRA,RISARALDA,,CO,,,,,
,visa,,,PEREIRA,RISARALDA,,CO,,,,,
,visa,,,PEREIRA,RISARALDA,,CO,,,,,
,visa,,,PEREIRA,RISARALDA,,CO,,,,,
,visa,,,PEREIRA,RISARALDA,,CO,,,,,
,visa,,,PEREIRA,RISARALDA,,CO,,,,,
,visa,,,PEREIRA,RISARALDA,,CO,,,,,
,visa,,,PEREIRA,RISARALDA,,CO,,,,,
,visa,,,PEREIRA,RISARALDA,,CO,,,,,
,visa,,,PEREIRA,RISARALDA,,CO,,,,,
,visa,,,PEREIRA,RISARALDA,,CO,,,,,
,visa,,,PEREIRA,RISARALDA,,CO,,,,,
,visa,,,PEREIRA,RISARALDA,,CO,,,,,
,visa,,,PEREIRA,RISARALDA,,CO,,,,,
,visa,,,PEREIRA,RISARALDA,,CO,,,,,
,visa,,,PEREIRA,RISARALDA,,CO,,,,,
,visa,,,PEREIRA,RISARALDA,,CO,,,,,
,visa,,,PEREIRA,RISARALDA,,CO,,,,,
,visa,,,PEREIRA,RISARALDA,,CO,,,,,
,visa,,,PEREIRA,RISARALDA,,CO,,,,,
,visa,,,PEREIRA,RISARALDA,,CO,,,,,
,visa,,,PEREIRA,RISARALDA,,CO,,,,,
,visa,,,PEREIRA,RISARALDA,,CO,,,,,
,visa,,,PEREIRA,RISARALDA,,CO,,,,,
,visa,,,PEREIRA,RISARALDA,,CO,,,,,
,visa,,,PEREIRA,RISARALDA,,CO,,,,,
,visa,,,PEREIRA,RISARALDA,,CO,,,,,
,visa,,,PEREIRA,RISARALDA,,CO,,,,,
,visa,,,PEREIRA,RISARALDA,,CO,,,,,
,visa,,,PEREIRA,RISARALDA,,CO,,,,,
,visa,,,PEREIRA,RISARALDA,,CO,,,,,
,visa,,,PEREIRA,RISARALDA,,CO,,,,,
,visa,,,PEREIRA,RISARALDA,,CO,,,,,
,visa,,,PEREIRA,RISARALDA,,CO,,,,,
,visa,,,PEREIRA,RISARALDA,,CO,,,,,
,visa,,,PEREIRA,RISARALDA,,CO,,,,,
,visa,,,PEREIRA,RISARALDA,,CO,,,,,
,visa,,,PEREIRA,RISARALDA,,CO,,,,,
,visa,,,PEREIRA,RISARALDA,,CO,,,,,
,visa,,,PEREIRA,RISARALDA,,CO,,,,,
,visa,,,PEREIRA,RISARALDA,,CO,,,,,
,visa,,,PEREIRA,RISARALDA,,CO,,,,,
,visa,,,PEREIRA,RISARALDA,,CO,,,,,
,visa,,,PEREIRA,RISARALDA,,CO,,,,,
,visa,,,PEREIRA,RISARALDA,,CO,,,,,
,visa,,,PEREIRA,RISARALDA,,CO,,,,,
,visa,,,PEREIRA,RISARALDA,,CO,,,,,
,visa,,,PEREIRA,RISARALDA,,CO,,,,,
,visa,,,PEREIRA,RISARALDA,,CO,,,,,
,visa,,,PEREIRA,RISARALDA,,CO,,,,,
,visa,,,PEREIRA,RISARALDA,,CO,,,,,
,visa,,,PEREIRA,RISARALDA,,CO,,,,,
,visa,,,PEREIRA,RISARALDA,,CO,,,,,
,visa,,,PEREIRA,RISARALDA,,CO,,,,,
,visa,,,PEREIRA,RISARALDA,,CO,,,,,
,visa,,,PEREIRA,RISARALDA,,CO,,,,,
,visa,,,DOSQUEBRADAS,RISARALDA,,CO,,,,,
,visa,,,PEREIRA,RISARALDA,,CO,,,,,
,visa,,,PEREIRA,RISARALDA,,CO,,,,,
,visa,,,PEREIRA,RISARALDA,,CO,,,,,
,visa,,,PEREIRA,RISARALDA,,CO,,,,,
,visa,,,PEREIRA,RISARALDA,,CO,,,,,
,visa,,,PEREIRA,RISARALDA,,CO,,,,,
,visa,,,PEREIRA,RISARALDA,,CO,,,,,
,visa,,,PEREIRA,RISARALDA,,CO,,,,,
,visa,,,PEREIRA,RISARALDA,,CO,,,,,
,visa,,,PEREIRA,RISARALDA,,CO,,,,,
,visa,,,PEREIRA,RISARALDA,,CO,,,,,
,visa,,,PEREIRA,RISARALDA,,CO,,,,,
,visa,,,PEREIRA,RISARALDA,,CO,,,,,
,visa,,,PEREIRA,RISARALDA,,CO,,,,,
,visa,,,PEREIRA,RISARALDA,,CO,,,,,
,visa,,,PEREIRA,RISARALDA,,CO,,,,,
,visa,,,PEREIRA,RISARALDA,,CO,,,,,
,visa,,,PEREIRA,RISARALDA,,CO,,,,,
,visa,,,PEREIRA,RISARALDA,,CO,,,,,
,visa,,,PEREIRA,RISARALDA,,CO,,,,,
,visa,,,PEREIRA,RISARALDA,,CO,,,,,
,visa,,,PEREIRA,RISARALDA,,CO,,,,,
,visa,,,PEREIRA,RISARALDA,,CO,,,,,
,visa,,,PEREIRA,RISARALDA,,CO,,,,,
,visa,,,PEREIRA,RISARALDA,,CO,,,,,
,visa,,,PEREIRA,RISARALDA,,CO,,,,,
,visa,,,PEREIRA,RISARALDA,,CO,,,,,
,visa,,,PEREIRA,RISARALDA,,CO,,,,,
,visa,,,MARSELLA,RISARALDA,,CO,,,,,
,visa,,,PEREIRA,RISARALDA,,CO,,,,,
,visa,,,QUINCHIA,RISARALDA,,CO,,,,,
,visa,,,MARSELLA,RISARALDA,,CO,,,,,
,visa,,,PEREIRA,RISARALDA,,CO,,,,,
,visa,,,PEREIRA,RISARALDA,,CO,,,,,
,visa,,,PEREIRA,RISARALDA,,CO,,,,,
,visa,,,PEREIRA,RISARALDA,,CO,,,,,
,visa,,,ARMENIA,RISARALDA,,CO,,,,,
,visa,,,PEREIRA,RISARALDA,,CO,,,,,
,visa,,,PEREIRA,RISARALDA,,CO,,,,,
,visa,,,PEREIRA,RISARALDA,,CO,,,,,
,visa,,,PEREIRA,RISARALDA,,CO,,,,,
,visa,,,PEREIRA,RISARALDA,,CO,,,,,
,visa,,,PEREIRA,RISARALDA,,CO,,,,,
,visa,,,GUATICA,RISARALDA,,CO,,,,,
,visa,,,PEREIRA,RISARALDA,,CO,,,,,
,visa,,,PEREIRA,RISARALDA,,CO,,,,,
,visa,,,BELEN DE UMBRIA,RISARALDA,,CO,,,,,
,visa,,,BELEN DE UMBRIA,RISARALDA,,CO,,,,,
,visa,,,LA VIRGINIA,RISARALDA,,CO,,,,,
,visa,,,LA VIRGINIA,RISARALDA,,CO,,,,,
,visa,,,LA VIRGINIA,RISARALDA,,CO,,,,,
,visa,,,LA VIRGINIA,RISARALDA,,CO,,,,,
,visa,,,MISTRATO,RISARALDA,,CO,,,,,
,visa,,,PEREIRA,RISARALDA,,CO,,,,,
,visa,,,CARTAGO,RISARALDA,,CO,,,,,
,visa,,,CARTAGO,RISARALDA,,CO,,,,,
,visa,,,APIA,RISARALDA,,CO,,,,,
,visa,,,APIA,RISARALDA,,CO,,,,,
,visa,,,BALBOA,RISARALDA,,CO,,,,,
,visa,,,SANTUARIO,RISARALDA,,CO,,,,,
,visa,,,LA CELIA,RISARALDA,,CO,,,,,
,visa,,,PUEBLO RICO,RISARALDA,,CO,,,,,
00b081a4d4046576a04f117e210c3077,western_union,EFECTY CORREGIMIENTO PUERTO,,Pereira,RISARALDA,,CO,+57 601 7566027,https://location.westernunion.com/co/risaralda/pereira/00b081a4d4046576a04f117e210c3077,Mo-Sa 08:00-20:00; Su 08:00-16:00,Western Union,Q861042
bd3548d143d26d291f94ea9e9a3c410e,western_union,EFECTY VILLA KENEDY PEREIRA,,Pereira,RISARALDA,,CO,+57 601 7566027,https://location.westernunion.com/co/risaralda/pereira/bd3548d143d26d291f94ea9e9a3c410e,Mo-Sa 08:00-20:00; Su 08:00-16:00,Western Union,Q861042
e330adc1fe08602e2ffdc205fc59035b,western_union,SUPERGIROS TRES ESQUINAS,,Dosquebradas,RISARALDA,,CO,+57 1 800 0111700,https://location.westernunion.com/co/risaralda/dosquebradas/e330adc1fe08602e2ffdc205fc59035b,Mo-Sa 08:00-20:00,Western Union,Q861042
772ff050cac668820581fd0a1ea350a1,western_union,EFECTY TECNI JHON LAS BRISAS,,Pereira,RISARALDA,,CO,+57 601 7566027,https://location.westernunion.com/co/risaralda/pereira/772ff050cac668820581fd0a1ea350a1,Mo-Sa 09:00-20:00,Western Union,Q861042
1df3f225898e93745bd6be2ee1103958,western_union,SUPERGIROS ALEJANDRIA,,Dosquebradas,RISARALDA,,CO,+57 1 800 0111700,https://location.westernunion.com/co/risaralda/dosquebradas/1df3f225898e93745bd6be2ee1103958,Mo-Sa 08:00-20:00,Western Union,Q861042
b276eb85ceaa08359793a715506eb328,western_union,SUPERGIROS LA YE VILLASANTANA,,Dosquebradas,RISARALDA,,CO,+57 1 800 0111700,https://location.westernunion.com/co/risaralda/dosquebradas/b276eb85ceaa08359793a715506eb328,Mo-Sa 08:00-20:00,Western Union,Q861042
b7dd0a30c54e583a808191f1a4eb7889,western_union,SUPERGIROS PRIMAVERA AZUL,,Dosquebradas,RISARALDA,,CO,+57 1 800 0111700,https://location.westernunion.com/co/risaralda/dosquebradas/b7dd0a30c54e583a808191f1a4eb7889,Mo-Sa 08:00-20:00,Western Union,Q861042
9cd6ee9e45ca84c8ff4bf43f5f821823,western_union,SUPERGIROS JUPITER,,Dosquebradas,RISARALDA,,CO,+57 1 800 0111700,https://location.westernunion.com/co/risaralda/dosquebradas/9cd6ee9e45ca84c8ff4bf43f5f821823,Mo-Sa 08:00-20:00,Western Union,Q861042
779e08618c8692a132d9194cff471711,western_union,EFECTY EL CRUCERO,,Dosquebradas,RISARALDA,,CO,+57 601 7566027,https://location.westernunion.com/co/risaralda/dosquebradas/779e08618c8692a132d9194cff471711,Mo-Sa 08:00-20:00; Su 08:00-16:00,Western Union,Q861042
434bcafa74c0b9a369a8f106b057a7a7,western_union,EFECTY BARRIO TOKIO,,Pereira,RISARALDA,,CO,+57 601 7566027,https://location.westernunion.com/co/risaralda/pereira/434bcafa74c0b9a369a8f106b057a7a7,Mo-Sa 09:00-19:00; Su 10:00-14:00,Western Union,Q861042
5a8af734a109b94e1904e0d23b700802,western_union,SUPERGIROS MOLINOS CANCHA,,Marsella,RISARALDA,,CO,+57 1 800 0111700,https://location.westernunion.com/co/risaralda/marsella/5a8af734a109b94e1904e0d23b700802,Mo-Sa 08:00-20:00,Western Union,Q861042
4bb0a90965f0f46639f36651df64b58d,western_union,EFECTY LA CAPILLA DOSQUEBRADAS 1,,Dosquebradas,RISARALDA,,CO,+57 601 7566027,https://location.westernunion.com/co/risaralda/dosquebradas/4bb0a90965f0f46639f36651df64b58d,Mo-Sa 08:00-20:00; Su 08:00-16:00,Western Union,Q861042
ffe46216496bd6c8f8d58cab2a349b13,western_union,EFECTY ALTOS DE LA CAPILLA,,Dosquebradas,RISARALDA,,CO,+57 601 7566027,https://location.westernunion.com/co/risaralda/dosquebradas/ffe46216496bd6c8f8d58cab2a349b13,Mo-Sa 08:00-20:00; Su 08:00-16:00,Western Union,Q861042
4346bc26568514e84fa4798d084b80ed,western_union,SUPERGIROS SUPER INTER LA CAPILLA,,Pereira,RISARALDA,,CO,+57 1 800 0111700,https://location.westernunion.com/co/risaralda/pereira/4346bc26568514e84fa4798d084b80ed,Mo-Sa 08:00-20:00,Western Union,Q861042
78568a04a2fea7fb0deb605684fcf9a6,western_union,EFECTY BARRIO CERRO AZUL,,Dosquebradas,RISARALDA,,CO,+57 601 7566027,https://location.westernunion.com/co/risaralda/dosquebradas/78568a04a2fea7fb0deb605684fcf9a6,Mo-Sa 08:00-20:00; Su 08:00-16:00,Western Union,Q861042
a8804bfc71ac8afa4c4c37f2471e288e,western_union,GIROS Y FINANZAS-BANCO UNION,,Dosquebradas,RISARALDA,,CO,+57 1 800 0111999,https://location.westernunion.com/co/risaralda/dosquebradas/a8804bfc71ac8afa4c4c37f2471e288e,Mo-Su 09:00-20:00,Western Union,Q861042
23f5b13ec26aae8bb8b717209ae28f86,western_union,EFECTY OLIMPICA DOSQUEBRADAS CAM,,Dosquebradas,RISARALDA,,CO,+57 601 7566027,https://location.westernunion.com/co/risaralda/dosquebradas/23f5b13ec26aae8bb8b717209ae28f86,Mo-Sa 08:00-20:00; Su 08:00-16:00,Western Union,Q861042
f23c5b832a9da10687939d281352004a,western_union,SUPERGIROS OFICINA PRINCIPAL DOSQUEB,,Pereira,RISARALDA,,CO,+57 1 800 0111700,https://location.westernunion.com/co/risaralda/pereira/f23c5b832a9da10687939d281352004a,Mo-Sa 08:00-20:00,Western Union,Q861042
153bcfc0926dacc4226339e9b373e073,western_union,ACCIONES Y VALORES C C  EL PROGRESO,,Dosquebradas,RISARALDA,,CO,(+57) 1-6510480,https://location.westernunion.com/co/risaralda/dosquebradas/153bcfc0926dacc4226339e9b373e073,Mo-Sa 08:00-19:00,Western Union,Q861042
9b2e21aca5a6e931225412b580dc91be,western_union,SUPERGIROS AVENIDA BOLIVAR,,Dosquebradas,RISARALDA,,CO,+57 1 800 0111700,https://location.westernunion.com/co/risaralda/dosquebradas/9b2e21aca5a6e931225412b580dc91be,Mo-Sa 08:00-20:00,Western Union,Q861042
70b2f551b720259879263bd490dab8c0,western_union,EFECTY MILAN DOSQUEBRADAS,,Dosquebradas,RISARALDA,,CO,+57 601 7566027,https://location.westernunion.com/co/risaralda/dosquebradas/70b2f551b720259879263bd490dab8c0,Mo-Sa 08:00-20:00; Su 08:00-16:00,Western Union,Q861042
b5cbb80b15bc67408a677276c9bf22a7,western_union,EFECTY CONJUNTO RESIDENCIAL TACUARA,,Dosquebradas,RISARALDA,,CO,+57 601 7566027,https://location.westernunion.com/co/risaralda/dosquebradas/b5cbb80b15bc67408a677276c9bf22a7,Mo-Sa 08:00-20:00; Su 08:00-16:00,Western Union,Q861042
ab9bacc6a382b4b86db16a991aad6832,western_union,SUPERGIROS MILAN,,Dosquebradas,RISARALDA,,CO,+57 1 800 0111700,https://location.westernunion.com/co/risaralda/dosquebradas/ab9bacc6a382b4b86db16a991aad6832,Mo-Sa 08:00-20:00,Western Union,Q861042
6af7334508eb14ad41c7dd25c8ad2364,western_union,SUPERGIROS CLINICA GUADALUPE,,La Virginia,RISARALDA,,CO,+57 1 800 0111700,https://location.westernunion.com/co/risaralda/la-virginia/6af7334508eb14ad41c7dd25c8ad2364,Mo-Sa 08:00-20:00,Western Union,Q861042
cdd1a9e4c45cf85b6922619469ed0ae5,western_union,EFECTY VILLA DEL CAMPO,,Dosquebradas,RISARALDA,,CO,+57 601 7566027,https://location.westernunion.com/co/risaralda/dosquebradas/cdd1a9e4c45cf85b6922619469ed0ae5,Mo-Sa 08:00-20:00; Su 08:00-16:00,Western Union,Q861042
90bc517b51efe2e2084c64ce840bd9ca,western_union,EFECTY CUCHILLA DE LOS CASTRO,,Pereira,RISARALDA,,CO,+57 601 7566027,https://location.westernunion.com/co/risaralda/pereira/90bc517b51efe2e2084c64ce840bd9ca,Mo-Fr 08:00-20:00; Sa 08:00-18:00; Su 08:00-24:00,Western Union,Q861042
16bd7e953c0032460c3adff1f977c7f0,western_union,EFECTY EL REY,,Pereira,RISARALDA,,CO,+57 601 7566027,https://location.westernunion.com/co/risaralda/pereira/16bd7e953c0032460c3adff1f977c7f0,Mo-Sa 08:00-18:00; Su 08:00-24:00,Western Union,Q861042
77e7b2ce0033eca0aa1c9c06e2d2147e,western_union,SUPERGIROS OFICINA PRINCIPAL BALBOA,,Pereira,RISARALDA,,CO,+57 1 800 0111700,https://location.westernunion.com/co/risaralda/pereira/77e7b2ce0033eca0aa1c9c06e2d2147e,Mo-Sa 08:00-20:00,Western Union,Q861042
6199834301665509ec3e76e1b6125193,western_union,SUPERGIROS LA MONEDA,,Dosquebradas,RISARALDA,,CO,+57 1 800 0111700,https://location.westernunion.com/co/risaralda/dosquebradas/6199834301665509ec3e76e1b6125193,Mo-Sa 08:00-20:00,Western Union,Q861042
4ce181ddda3cbc84e9a45c3b146216e5,western_union,SUPERGIROS GALERIA LA 40 LA CARCEL,,Dosquebradas,RISARALDA,,CO,+57 1 800 0111700,https://location.westernunion.com/co/risaralda/dosquebradas/4ce181ddda3cbc84e9a45c3b146216e5,Mo-Sa 08:00-20:00,Western Union,Q861042
8ca049076f07e6594a8b9b85ce8fa3ff,western_union,PAGAFACIL PEREIRA LA 14,,Pereira,RISARALDA,,CO,+57 1 800 0111700,https://location.westernunion.com/co/risaralda/pereira/8ca049076f07e6594a8b9b85ce8fa3ff,Mo-Fr 09:00-19:00; Sa 09:00-14:30,Western Union,Q861042
f1245fb58649f4c0e6ece43b98abfe8b,western_union,EFECTY HERNANDO VELEZ MARULANDA,,Pereira,RISARALDA,,CO,+57 601 7566027,https://location.westernunion.com/co/risaralda/pereira/f1245fb58649f4c0e6ece43b98abfe8b,Mo-Sa 08:00-20:00; Su 08:00-16:00,Western Union,Q861042
9cb452921abe0a751f792120a424a715,western_union,SUPERGIROS MONTELIBANO,,Dosquebradas,RISARALDA,,CO,+57 1 800 0111700,https://location.westernunion.com/co/risaralda/dosquebradas/9cb452921abe0a751f792120a424a715,Mo-Sa 08:00-20:00,Western Union,Q861042
1eb3bca50a245766cff14048b880c447,western_union,EFECTY POINT SISTEM EFECTY LA PRADERA,,Dosquebradas,RISARALDA,,CO,+57 601 7566027,https://location.westernunion.com/co/risaralda/dosquebradas/1eb3bca50a245766cff14048b880c447,Mo-Sa 08:00-20:00; Su 08:00-16:00,Western Union,Q861042
ce4c26d278bffded32dbe6805c23624f,western_union,SUPERGIROS PANADERIA,,Pereira,RISARALDA,,CO,+57 1 800 0111700,https://location.westernunion.com/co/risaralda/pereira/ce4c26d278bffded32dbe6805c23624f,Mo-Sa 08:00-20:00,Western Union,Q861042
37ccf137a811d0a083460876dc31fad2,western_union,EFECTY VILLAVICENCIO PEREIRA,,Pereira,RISARALDA,,CO,+57 601 7566027,https://location.westernunion.com/co/risaralda/pereira/37ccf137a811d0a083460876dc31fad2,Mo-Sa 08:00-20:00; Su 08:00-16:00,Western Union,Q861042
c3d705381adb41fb44ac6f476cd138d6,western_union,SUPERGIROS PLAYA RICA,,La Virginia,RISARALDA,,CO,+57 1 800 0111700,https://location.westernunion.com/co/risaralda/la-virginia/c3d705381adb41fb44ac6f476cd138d6,Mo-Sa 08:00-20:00,Western Union,Q861042
a8e16e97f64fbca76f35c88302b31fba,western_union,MULTIPAGAS CIRCUNVALAR PEREIRA,,Pereira,RISARALDA,,CO,+57 602 6510101,https://location.westernunion.com/co/risaralda/pereira/a8e16e97f64fbca76f35c88302b31fba,Mo-Fr 08:00-18:00; Sa 08:00-12:00,Western Union,Q861042
5837b0fc6063b3fd1f8f3e5dfc402f09,western_union,SUPERGIROS LA REBECA,,Pereira,RISARALDA,,CO,+57 1 800 0111700,https://location.westernunion.com/co/risaralda/pereira/5837b0fc6063b3fd1f8f3e5dfc402f09,Mo-Sa 08:00-20:00,Western Union,Q861042
6e04a326e1e06280e6536a4932ed671f,western_union,EFECTY BARRIO LAURELES II,,Pereira,RISARALDA,,CO,+57 601 7566027,https://location.westernunion.com/co/risaralda/pereira/6e04a326e1e06280e6536a4932ed671f,Mo-Sa 08:00-20:00; Su 08:00-16:00,Western Union,Q861042
a1b67858b0de1426da7fb1e603cf648b,western_union,SUPERGIROS LA AURORA ALTA,,Dosquebradas,RISARALDA,,CO,+57 1 800 0111700,https://location.westernunion.com/co/risaralda/dosquebradas/a1b67858b0de1426da7fb1e603cf648b,Mo-Sa 08:00-20:00,Western Union,Q861042
9a79a292b98373c750f9254c9998d201,western_union,EFECTY CORREGIMIENTO ARABIA,,Pereira,RISARALDA,,CO,+57 601 7566027,https://location.westernunion.com/co/risaralda/pereira/9a79a292b98373c750f9254c9998d201,Mo-Fr 09:30-19:00; Sa 09:00-19:00,Western Union,Q861042
c29187b0f8cc0fba2192ac85a16bb8e9,western_union,SUPERGIROS EL JAPON,,Pereira,RISARALDA,,CO,+57 1 800 0111700,https://location.westernunion.com/co/risaralda/pereira/c29187b0f8cc0fba2192ac85a16bb8e9,Mo-Sa 08:00-20:00,Western Union,Q861042
31548e0dd81473669209db3ad90a00a1,western_union,EFECTY CIBERJHOSEPH JAPON DOSQUEBRADAS,,Dosquebradas,RISARALDA,,CO,+57 601 7566027,https://location.westernunion.com/co/risaralda/dosquebradas/31548e0dd81473669209db3ad90a00a1,Mo-Sa 08:00-20:00; Su 08:00-16:00,Western Union,Q861042
71d68bea5e8920dc502fdf0674b8bfe0,western_union,SUPERGIROS ALTAGRACIA,,Pereira,RISARALDA,,CO,+57 1 800 0111700,https://location.westernunion.com/co/risaralda/pereira/71d68bea5e8920dc502fdf0674b8bfe0,Mo-Sa 08:00-20:00,Western Union,Q861042
f1b0f96df68a90816c08a503594dc0ad,western_union,SUPERGIROS LA CASITA,,Dosquebradas,RISARALDA,,CO,+57 1 800 0111700,https://location.westernunion.com/co/risaralda/dosquebradas/f1b0f96df68a90816c08a503594dc0ad,Mo-Sa 08:00-20:00,Western Union,Q861042
d13ada4cb2864908648811f6867a4e99,western_union,EFECTY BARRIO VILLAVICENCIO CRA 9,,Pereira,RISARALDA,,CO,+57 601 7566027,https://location.westernunion.com/co/risaralda/pereira/d13ada4cb2864908648811f6867a4e99,Mo-Sa 08:00-22:00; Su 08:00-15:00,Western Union,Q861042
17868b9381c393b47a945a3279687828,western_union,SUPERGIROS OFICINA PRINCIPAL QUINCHI,,Pereira,RISARALDA,,CO,+57 1 800 0111700,https://location.westernunion.com/co/risaralda/pereira/17868b9381c393b47a945a3279687828,Mo-Sa 08:00-20:00,Western Union,Q861042
22c89c57dbbca454c0124bb867894535,western_union,SUPERGIROS OFICINA PRINCIPAL LA VIRG,,Pereira,RISARALDA,,CO,+57 1 800 0111700,https://location.westernunion.com/co/risaralda/pereira/22c89c57dbbca454c0124bb867894535,Mo-Sa 08:00-20:00,Western Union,Q861042
903337be3654ddda0a5b4411f5201625,western_union,SUPERGIROS PEREIRA VILLAVICENCIO,,Pereira,RISARALDA,,CO,+57 1 800 0111700,https://location.westernunion.com/co/risaralda/pereira/903337be3654ddda0a5b4411f5201625,Mo-Sa 08:00-20:00,Western Union,Q861042
15ea6531948b0ebbb9c00c490d55b482,western_union,SUPERGIROS POSTOBON,,Pereira,RISARALDA,,CO,+57 1 800 0111700,https://location.westernunion.com/co/risaralda/pereira/15ea6531948b0ebbb9c00c490d55b482,Mo-Sa 08:00-20:00,Western Union,Q861042
5ed07ba921e34de46b8b56f7a41fd464,western_union,SUPERGIROS CAMILO MEJIA,,Dosquebradas,RISARALDA,,CO,+57 1 800 0111700,https://location.westernunion.com/co/risaralda/dosquebradas/5ed07ba921e34de46b8b56f7a41fd464,Mo-Sa 08:00-20:00,Western Union,Q861042
5459238f85b6e97326b798e0ba712bb1,western_union,SUPERGIROS LA YE DOSQUEBRADAS,,Pereira,RISARALDA,,CO,+57 1 800 0111700,https://location.westernunion.com/co/risaralda/pereira/5459238f85b6e97326b798e0ba712bb1,Mo-Sa 08:00-20:00,Western Union,Q861042
fdda66dbe50ddb7f665a30b3a2787335,western_union,SUPERGIROS SANTA ISABEL II,,Santa Rosa De Cabal,RISARALDA,,CO,+57 1 800 0111700,https://location.westernunion.com/co/risaralda/santa-rosa-de-cabal/fdda66dbe50ddb7f665a30b3a2787335,Mo-Sa 08:00-20:00,Western Union,Q861042
87c4586b3ed31036e86d1d21c97e8188,western_union,SUPERGIROS OFICINA PRINCIPAL BELEN,,Pereira,RISARALDA,,CO,+57 1 800 0111700,https://location.westernunion.com/co/risaralda/pereira/87c4586b3ed31036e86d1d21c97e8188,Mo-Sa 08:00-20:00,Western Union,Q861042
09b8e4021db748ab7b659159711271b4,western_union,EFECTY MALL SAN PABLO SECTOR TRIBUNAS,,Pereira,RISARALDA,,CO,+57 601 7566027,https://location.westernunion.com/co/risaralda/pereira/09b8e4021db748ab7b659159711271b4,Mo-Sa 08:00-20:00; Su 08:00-16:00,Western Union,Q861042
0079d8de46ec85738b3019c054850a43,western_union,SUPERGIROS LA TRILLADORA PEREIRA,,Pereira,RISARALDA,,CO,+57 1 800 0111700,https://location.westernunion.com/co/risaralda/pereira/0079d8de46ec85738b3019c054850a43,Mo-Sa 08:00-20:00,Western Union,Q861042
aba71db54f572be1d434d5d1ee559169,western_union,SUPERGIROS PIO PIO,,La Virginia,RISARALDA,,CO,+57 1 800 0111700,https://location.westernunion.com/co/risaralda/la-virginia/aba71db54f572be1d434d5d1ee559169,Mo-Sa 08:00-20:00,Western Union,Q861042
e9619303b20e28ced07b71b63a8380aa,western_union,ACCIONES Y VALORES CC PLAZA DEL SOL,,Dosquebradas,RISARALDA,,CO,+57 1 800 0111700,https://location.westernunion.com/co/risaralda/dosquebradas/e9619303b20e28ced07b71b63a8380aa,Mo-Sa 08:00-18:00,Western Union,Q861042
5088441b4272ddfeecd604b8036da3f9,western_union,SUPERGIROS LA IGLESIA SANTUARIO,,Pereira,RISARALDA,,CO,+57 1 800 0111700,https://location.westernunion.com/co/risaralda/pereira/5088441b4272ddfeecd604b8036da3f9,Mo-Sa 08:00-20:00,Western Union,Q861042
5554f6edd99f20ff84aa78a9b8ee0470,western_union,EFECTY BARRIO SANTA ISABEL II,,Dosquebradas,RISARALDA,,CO,+57 601 7566027,https://location.westernunion.com/co/risaralda/dosquebradas/5554f6edd99f20ff84aa78a9b8ee0470,Mo-Sa 08:00-20:00; Su 08:00-16:00,Western Union,Q861042
141c550be9d45a82fc5e000cbd7557c7,western_union,SUPERGIROS CENTRO COMERCIAL ARBOLEDA,,Pereira,RISARALDA,,CO,+57 1 800 0111700,https://location.westernunion.com/co/risaralda/pereira/141c550be9d45a82fc5e000cbd7557c7,Mo-Sa 08:00-20:00,Western Union,Q861042
bd24f875a2941f15aa316e9c85fa8682,western_union,PAGAFACIL DOSQUEBRADAS,,Dosquebradas,RISARALDA,,CO,+57 1 800 0111700,https://location.westernunion.com/co/risaralda/dosquebradas/bd24f875a2941f15aa316e9c85fa8682,Mo-Fr 08:00-17:50; Sa 08:00-13:50,Western Union,Q861042
3c248228d41e637a05496cd8788f0d83,western_union,SUPERGIROS OFICINA PRINCIPAL PUERTO,,Pereira,RISARALDA,,CO,+57 1 800 0111700,https://location.westernunion.com/co/risaralda/pereira/3c248228d41e637a05496cd8788f0d83,Mo-Sa 08:00-20:00,Western Union,Q861042
4f3ece0486d25fd3fb82425e75e3a28d,western_union,SUPERGIROS SAI,,Pereira,RISARALDA,,CO,+57 1 800 0111700,https://location.westernunion.com/co/risaralda/pereira/4f3ece0486d25fd3fb82425e75e3a28d,Mo-Sa 08:00-20:00,Western Union,Q861042
0fea9a81843ccdee249fabf29b6fa6bd,western_union,PAGAFACIL PEREIRA UNIPLEX,,Pereira,RISARALDA,,CO,+57 1 800 0111700,https://location.westernunion.com/co/risaralda/pereira/0fea9a81843ccdee249fabf29b6fa6bd,Mo-Fr 08:00-18:00; Sa 08:00-13:30,Western Union,Q861042
1e6be5a19eefa76a6675b125e2a613f2,western_union,SUPERGIROS LA 14 MARIA,,Pereira,RISARALDA,,CO,+57 1 800 0111700,https://location.westernunion.com/co/risaralda/pereira/1e6be5a19eefa76a6675b125e2a613f2,Mo-Sa 08:00-20:00,Western Union,Q861042
6aa0d50301f0c6169319812bb88c5c2a,western_union,SUPERGIROS PARQUE DE LA LIBERTAD,,Dosquebradas,RISARALDA,,CO,+57 1 800 0111700,https://location.westernunion.com/co/risaralda/dosquebradas/6aa0d50301f0c6169319812bb88c5c2a,Mo-Sa 08:00-20:00,Western Union,Q861042
ea7657798b3a4099989072c981ff7757,western_union,SUPERGIROS LOS OLIVOS,,Dosquebradas,RISARALDA,,CO,+57 1 800 0111700,https://location.westernunion.com/co/risaralda/dosquebradas/ea7657798b3a4099989072c981ff7757,Mo-Sa 08:00-20:00,Western Union,Q861042
ce94c9564ad1f9aee564ab5a245808b3,western_union,SUPERGIROS PUENTE MOSQUERA,,Pereira,RISARALDA,,CO,+57 1 800 0111700,https://location.westernunion.com/co/risaralda/pereira/ce94c9564ad1f9aee564ab5a245808b3,Mo-Sa 08:00-20:00,Western Union,Q861042
9ea0c25c47c69bfd3bca1915c25d1179,western_union,SUPERGIROS OFICINA PRINCIPAL SANTA R,,Pereira,RISARALDA,,CO,+57 1 800 0111700,https://location.westernunion.com/co/risaralda/pereira/9ea0c25c47c69bfd3bca1915c25d1179,Mo-Sa 08:00-20:00,Western Union,Q861042
996f93c4c4a97b6d44922d75fbeac2a0,western_union,PAGAFACIL PINARES,,Pereira,RISARALDA,,CO,+57 1 800 0111700,https://location.westernunion.com/co/risaralda/pereira/996f93c4c4a97b6d44922d75fbeac2a0,Mo-Fr 08:00-18:00; Sa 08:00-14:00,Western Union,Q861042
40ac9b1789397cf428b19dba963a8a5d,western_union,EFECTY PINARES DE ARAGON,,Pereira,RISARALDA,,CO,+57 601 7566027,https://location.westernunion.com/co/risaralda/pereira/40ac9b1789397cf428b19dba963a8a5d,Mo-Sa 08:00-20:00; Su 08:00-16:00,Western Union,Q861042
5f80d74b641b75482c7bdd8ff9739cfd,western_union,PAGAFACIL CC ARBOLEDA,,Pereira,RISARALDA,,CO,+57 1 800 0111700,https://location.westernunion.com/co/risaralda/pereira/5f80d74b641b75482c7bdd8ff9739cfd,Mo-Fr 07:00-16:50; Sa 08:00-13:00,Western Union,Q861042
6588a12d33e1527469097e8b814fcb30,western_union,SUPERGIROS ALTOS DE VILLA CECILIA,,Pereira,RISARALDA,,CO,+57 1 800 0111700,https://location.westernunion.com/co/risaralda/pereira/6588a12d33e1527469097e8b814fcb30,Mo-Sa 08:00-20:00,Western Union,Q861042
e525bfe6b0045d7435cc1ba68dd27f70,western_union,ACCIONES Y VALORES CC PLAZA DEL SOL,,Dosquebradas,RISARALDA,,CO,(+57) 1-6510480,https://location.westernunion.com/co/risaralda/dosquebradas/e525bfe6b0045d7435cc1ba68dd27f70,Mo-Sa 08:00-20:00; Su 10:00-16:00,Western Union,Q861042
950b309df118bcda451fc9c75c326188,western_union,MULTIPAGAS Dosquebradas II,,Dosquebradas,RISARALDA,,CO,+57 602 6510101,https://location.westernunion.com/co/risaralda/dosquebradas/950b309df118bcda451fc9c75c326188,Mo-Su 08:00-20:00,Western Union,Q861042
375b19663c9216f4f3a256f1f103b638,western_union,SUPERGIROS LA TRINIDAD PEREIRA,,Pereira,RISARALDA,,CO,+57 1 800 0111700,https://location.westernunion.com/co/risaralda/pereira/375b19663c9216f4f3a256f1f103b638,Mo-Sa 08:00-20:00,Western Union,Q861042
3afbcb3695f0aefa5c798d7c16afbaf2,western_union,SUPERGIROS GAMMA I,,Pereira,RISARALDA,,CO,+57 1 800 0111700,https://location.westernunion.com/co/risaralda/pereira/3afbcb3695f0aefa5c798d7c16afbaf2,Mo-Sa 08:00-20:00,Western Union,Q861042
73f63d22014fc886bf1911735459ce6b,western_union,SUPERGIROS SANTA MONICA HOSPITAL,,Dosquebradas,RISARALDA,,CO,+57 1 800 0111700,https://location.westernunion.com/co/risaralda/dosquebradas/73f63d22014fc886bf1911735459ce6b,Mo-Sa 08:00-20:00,Western Union,Q861042
130407f6057600cf49bf316f1ac99bb3,western_union,SUPERGIROS DOSQUEBRADAS FRAILES,,Dosquebradas,RISARALDA,,CO,+57 1 800 0111700,https://location.westernunion.com/co/risaralda/dosquebradas/130407f6057600cf49bf316f1ac99bb3,Mo-Sa 08:00-20:00,Western Union,Q861042
0cf5decd4bc812831bb0380870d94088,western_union,SUPERGIROS DROGUERIA LA VIRGINIA,,Dosquebradas,RISARALDA,,CO,+57 1 800 0111700,https://location.westernunion.com/co/risaralda/dosquebradas/0cf5decd4bc812831bb0380870d94088,Mo-Sa 08:00-20:00,Western Union,Q861042
55c9cad1854714559bdb41c0eb635b6b,western_union,SUPERGIROS TERMINAL PISO 1,,Pereira,RISARALDA,,CO,+57 1 800 0111700,https://location.westernunion.com/co/risaralda/pereira/55c9cad1854714559bdb41c0eb635b6b,Mo-Sa 08:00-20:00,Western Union,Q861042
65ae3c1ce3792cb839d82b8283de4153,western_union,EFECTY TERMINAL DE TRANSPORTES LOCAL 121,,Pereira,RISARALDA,,CO,+57 601 7566027,https://location.westernunion.com/co/risaralda/pereira/65ae3c1ce3792cb839d82b8283de4153,Mo-Sa 08:00-18:00,Western Union,Q861042
11a9442c710f74cd5a0b9025c323a111,western_union,SUPERGIROS PEREIRA PLAZA,,Dosquebradas,RISARALDA,,CO,+57 1 800 0111700,https://location.westernunion.com/co/risaralda/dosquebradas/11a9442c710f74cd5a0b9025c323a111,Mo-Sa 08:00-20:00,Western Union,Q861042
aa03f076c731f73014c3ff9239764b7b,western_union,GIROS Y FINANZAS-BANCO UNION,,Pereira,RISARALDA,,CO,+57 1 800 0111999,https://location.westernunion.com/co/risaralda/pereira/aa03f076c731f73014c3ff9239764b7b,Mo-Su 09:00-20:00,Western Union,Q861042
8ff67d1f39b2493d0aee7c3fde0411aa,western_union,SUPERGIROS VICTORIA CENTRO COMERCIAL,,Pereira,RISARALDA,,CO,+57 1 800 0111700,https://location.westernunion.com/co/risaralda/pereira/8ff67d1f39b2493d0aee7c3fde0411aa,Mo-Sa 08:00-20:00,Western Union,Q861042
b563c108d04d416da50e5b1b4dff832b,western_union,ACCIONES Y VALORES VICTORIA CENTRO COMER,,Pereira,RISARALDA,,CO,+57 1 800 0111700,https://location.westernunion.com/co/risaralda/pereira/b563c108d04d416da50e5b1b4dff832b,Mo-Su 09:00-20:00,Western Union,Q861042
29bd65569b2bee2022e146b0299cadaa,western_union,MULTIPAGAS MP-VICTORIA PLAZA 2,,Pereira,RISARALDA,,CO,+57 602 6510101,https://location.westernunion.com/co/risaralda/pereira/29bd65569b2bee2022e146b0299cadaa,Mo-Fr 08:00-18:00; Sa 08:00-15:00,Western Union,Q861042
32c30d7fb30973137cdc8be46d1c7ba2,western_union,GIROS Y FINANZAS-BANCO UNION,,Pereira,RISARALDA,,CO,+57 1 800 0111999,https://location.westernunion.com/co/risaralda/pereira/32c30d7fb30973137cdc8be46d1c7ba2,Mo-Su 09:00-20:00,Western Union,Q861042
e5d93d7e44e423eb6ab6bcf1f8ea73e5,western_union,EFECTY CRA 5 CALLE 18 CENTRO PEREIRA,,Pereira,RISARALDA,,CO,+57 601 7566027,https://location.westernunion.com/co/risaralda/pereira/e5d93d7e44e423eb6ab6bcf1f8ea73e5,Mo-Sa 08:00-20:00; Su 08:00-16:00,Western Union,Q861042
4e9d1181504dc71934a715680e1785f2,western_union,SUPERGIROS LOS SAPOS,,Dosquebradas,RISARALDA,,CO,+57 1 800 0111700,https://location.westernunion.com/co/risaralda/dosquebradas/4e9d1181504dc71934a715680e1785f2,Mo-Sa 08:00-20:00,Western Union,Q861042
182d317ad219d8ef00e4f0b2c479e7d8,western_union,REDY PEREIRA,,Pereira,RISARALDA,,CO,+57 1 800 0111700,https://location.westernunion.com/co/risaralda/pereira/182d317ad219d8ef00e4f0b2c479e7d8,Mo-Fr 08:00-18:00; Sa 08:00-16:00,Western Union,Q861042
cc033a1933959d73b44f0fe144e615fb,western_union,SUPERGIROS PEATONAL 1,,Guatica,RISARALDA,,CO,+57 1 800 0111700,https://location.westernunion.com/co/risaralda/guatica/cc033a1933959d73b44f0fe144e615fb,Mo-Sa 08:00-20:00,Western Union,Q861042
61314fb5afdf02f6b3d1c2bbbd6f47d4,western_union,SUPERGIROS CAMPESTRE D,,Dosquebradas,RISARALDA,,CO,+57 1 800 0111700,https://location.westernunion.com/co/risaralda/dosquebradas/61314fb5afdf02f6b3d1c2bbbd6f47d4,Mo-Sa 08:00-20:00,Western Union,Q861042
f9e5f5c38675717c07a2384e1c9eaf4d,western_union,SUPERGIROS ARABIA,,Pereira,RISARALDA,,CO,+57 1 800 0111700,https://location.westernunion.com/co/risaralda/pereira/f9e5f5c38675717c07a2384e1c9eaf4d,Mo-Sa 08:00-20:00,Western Union,Q861042
e6cc8a3049e9d7fd7928d77380d369ee,western_union,SUPERGIROS LAS ARAUCARIAS,,Pereira,RISARALDA,,CO,+57 1 800 0111700,https://location.westernunion.com/co/risaralda/pereira/e6cc8a3049e9d7fd7928d77380d369ee,Mo-Sa 08:00-20:00,Western Union,Q861042
75878f7b62bb38fa0d94b961482f109f,western_union,PAGAFACIL VALENCIA,,Pereira,RISARALDA,,CO,+57 1 800 0111700,https://location.westernunion.com/co/risaralda/pereira/75878f7b62bb38fa0d94b961482f109f,Mo-Fr 08:00-18:00; Sa 08:00-14:00,Western Union,Q861042
0083d1c5a06290803ec7c883d4cb98b4,western_union,SUPERGIROS MORA MORA,,Pereira,RISARALDA,,CO,+57 1 800 0111700,https://location.westernunion.com/co/risaralda/pereira/0083d1c5a06290803ec7c883d4cb98b4,Mo-Sa 08:00-20:00,Western Union,Q861042
37e4e68f74de8f131ce1b2a5dcbee802,western_union,SUPERGIROS LA GRAN ESQUINA,,Pereira,RISARALDA,,CO,+57 1 800 0111700,https://location.westernunion.com/co/risaralda/pereira/37e4e68f74de8f131ce1b2a5dcbee802,Mo-Sa 08:00-20:00,Western Union,Q861042
e376fb9e56793ec9f98acef92e683566,western_union,ACCIONES Y VALORES CC EL PASO,,Pereira,RISARALDA,,CO,(+57) 1-6510480,https://location.westernunion.com/co/risaralda/pereira/e376fb9e56793ec9f98acef92e683566,Mo-Fr 08:00-18:00,Western Union,Q861042
ef1c74df2431e8773237fa7206bb759e,western_union,MEGARED JORGE EDUARDO RESTREPO JARAMILLO,,Pereira,RISARALDA,,CO,+57 310 5303939,https://location.westernunion.com/co/risaralda/pereira/ef1c74df2431e8773237fa7206bb759e,Mo-Sa 08:00-17:00,Western Union,Q861042
042d8dc5621f435ce0c0c3e12ca0f1e1,western_union,ACCIONES Y VALORES CC EL PASO,,Pereira,RISARALDA,,CO,+57 1 800 0111700,https://location.westernunion.com/co/risaralda/pereira/042d8dc5621f435ce0c0c3e12ca0f1e1,Mo-Sa 09:00-18:00,Western Union,Q861042
bfd2ce4f2ae4fbf542eb45f0ef34b6fb,western_union,ACCIONES Y VALORES VICTORIA CC REGIONAL,,Pereira,RISARALDA,,CO,+57 1 800 0111700,https://location.westernunion.com/co/risaralda/pereira/bfd2ce4f2ae4fbf542eb45f0ef34b6fb,Mo-Sa 08:30-19:00; Su 11:00-17:00,Western Union,Q861042
a0cef2941e831a9eb31ebc450f76a3e3,western_union,SUPERGIROS CENTRALES,,Pereira,RISARALDA,,CO,+57 1 800 0111700,https://location.westernunion.com/co/risaralda/pereira/a0cef2941e831a9eb31ebc450f76a3e3,Mo-Sa 08:00-20:00,Western Union,Q861042
59ac6763f4be6eae5f2ce7d2056bed0c,western_union,EFECTY EL BOHIO,,Dosquebradas,RISARALDA,,CO,+57 601 7566027,https://location.westernunion.com/co/risaralda/dosquebradas/59ac6763f4be6eae5f2ce7d2056bed0c,Mo-Sa 08:00-20:00; Su 08:00-16:00,Western Union,Q861042
9bb52a5770e258730649a34c50d395de,western_union,SUPERGIROS OFICINA PRINCIPAL APIA,,Pereira,RISARALDA,,CO,+57 1 800 0111700,https://location.westernunion.com/co/risaralda/pereira/9bb52a5770e258730649a34c50d395de,Mo-Sa 08:00-20:00,Western Union,Q861042
307dbd334cc07ac86df2800bee04d263,western_union,SUPERGIROS OFICINA PRINCIPAL MARSELL,,Pereira,RISARALDA,,CO,+57 1 800 0111700,https://location.westernunion.com/co/risaralda/pereira/307dbd334cc07ac86df2800bee04d263,Mo-Sa 08:00-20:00,Western Union,Q861042
1592cdc07fa065a35b7083a765ad6d0d,western_union,SUPERGIROS LA PRADERA II,,La Virginia,RISARALDA,,CO,+57 1 800 0111700,https://location.westernunion.com/co/risaralda/la-virginia/1592cdc07fa065a35b7083a765ad6d0d,Mo-Sa 08:00-20:00,Western Union,Q861042
1124e43d58412341ac20e4d17f63a7e0,western_union,SUPERGIROS APARTAESTUDIO,,Pereira,RISARALDA,,CO,+57 1 800 0111700,https://location.westernunion.com/co/risaralda/pereira/1124e43d58412341ac20e4d17f63a7e0,Mo-Sa 08:00-20:00,Western Union,Q861042
6dbd8e66868ba8fcfbf7a05df65661fc,western_union,ACCIONES Y VALORES CC ALCIDES AREVALO,,Pereira,RISARALDA,,CO,(+57) 1-6510480,https://location.westernunion.com/co/risaralda/pereira/6dbd8e66868ba8fcfbf7a05df65661fc,Mo-Sa 08:00-19:00,Western Union,Q861042
db1ecf5c2df4fc6366bbd115aaa9b363,western_union,ACCIONES Y VALORES CC ALCIDES AREVALO,,Pereira,RISARALDA,,CO,+57 1 800 0111700,https://location.westernunion.com/co/risaralda/pereira/db1ecf5c2df4fc6366bbd115aaa9b363,Mo-Sa 08:00-17:00,Western Union,Q861042
b147cfc572ae65231793f9df3e7db080,western_union,BANCO AGRARIO PEREIRA,,Pereira,RISARALDA,,CO,+57 601 5948500,https://location.westernunion.com/co/risaralda/pereira/b147cfc572ae65231793f9df3e7db080,Mo 08:00-16:30; Tu-Sa 08:00-14:00,Western Union,Q861042
4a68406f4a68011c60cfc5e9ff7ddd08,western_union,SUPERGIROS CAMPESTRE B,,Pereira,RISARALDA,,CO,+57 1 800 0111700,https://location.westernunion.com/co/risaralda/pereira/4a68406f4a68011c60cfc5e9ff7ddd08,Mo-Sa 08:00-20:00,Western Union,Q861042
c7c07f3d10bfc5e27e8f576934c51e98,western_union,SUPERGIROS GIROS PREMIOS,,Pereira,RISARALDA,,CO,+57 1 800 0111700,https://location.westernunion.com/co/risaralda/pereira/c7c07f3d10bfc5e27e8f576934c51e98,Mo-Sa 08:00-20:00,Western Union,Q861042
077344d3e852710c0771b4aecd83e01b,western_union,EFECTY TRANSITO CALLE 18,,Pereira,RISARALDA,,CO,+57 601 7566027,https://location.westernunion.com/co/risaralda/pereira/077344d3e852710c0771b4aecd83e01b,Mo-Fr 07:00-18:00; Sa 08:00-13:00,Western Union,Q861042
1de2271eb3ff3b4e4d5bcba7dbe61552,western_union,SUPERGIROS BETPLAY GATONET STORE,,Pereira,RISARALDA,,CO,+57 1 800 0111700,https://location.westernunion.com/co/risaralda/pereira/1de2271eb3ff3b4e4d5bcba7dbe61552,Mo-Sa 08:00-20:00,Western Union,Q861042
9148b35297d9bda1a2f67c3ab09230ba,western_union,SUPERGIROS SHOPPING,,Pereira,RISARALDA,,CO,+57 1 800 0111700,https://location.westernunion.com/co/risaralda/pereira/9148b35297d9bda1a2f67c3ab09230ba,Mo-Sa 08:00-20:00,Western Union,Q861042
f81c3d3e8eba858d9acca37249e20751,western_union,SUPERGIROS POOL,,Pereira,RISARALDA,,CO,+57 1 800 0111700,https://location.westernunion.com/co/risaralda/pereira/f81c3d3e8eba858d9acca37249e20751,Mo-Sa 08:00-20:00,Western Union,Q861042
729d82f1fd9bcf441de2f4b9ba228fc7,western_union,ACCIONES Y VALORES EXITO PEREIRA,,Pereira,RISARALDA,,CO,+57 1 800 0111700,https://location.westernunion.com/co/risaralda/pereira/729d82f1fd9bcf441de2f4b9ba228fc7,Mo-Sa 09:00-18:00,Western Union,Q861042
c0ad0e368b0babecea75099525ab0d7e,western_union,ACCIONES Y VALORES EXITO PEREIRA,,Pereira,RISARALDA,,CO,+57 1 800 0111700,https://location.westernunion.com/co/risaralda/pereira/c0ad0e368b0babecea75099525ab0d7e,Mo-Su 09:00-20:00,Western Union,Q861042
54acfdd7494a26242306b702b9865a86,western_union,MULTIPAGAS VICTORIA PLAZA,,Pereira,RISARALDA,,CO,+57 602 6510101,https://location.westernunion.com/co/risaralda/pereira/54acfdd7494a26242306b702b9865a86,Mo-Fr 08:00-18:00; Sa 08:00-12:00,Western Union,Q861042
1f1cce502aee3dc26ccaac93682806c9,western_union,SUPERGIROS CLUB RIALTO,,Dosquebradas,RISARALDA,,CO,+57 1 800 0111700,https://location.westernunion.com/co/risaralda/dosquebradas/1f1cce502aee3dc26ccaac93682806c9,Mo-Sa 08:00-20:00,Western Union,Q861042
c1c8868ebed3639096ba1ae453333e18,western_union,SUPERGIROS SAN MARCOS,,Dosquebradas,RISARALDA,,CO,+57 1 800 0111700,https://location.westernunion.com/co/risaralda/dosquebradas/c1c8868ebed3639096ba1ae453333e18,Mo-Sa 08:00-20:00,Western Union,Q861042
a0f1340fd8cf1693eb96f14816d69bcd,western_union,EFECTY SENA CRA. 8,,Pereira,RISARALDA,,CO,+57 601 7566027,https://location.westernunion.com/co/risaralda/pereira/a0f1340fd8cf1693eb96f14816d69bcd,Mo-Sa 08:00-20:00; Su 08:00-16:00,Western Union,Q861042
a28ce3f2fd96706d1180555e363a5fb5,western_union,SUPERGIROS PERLA DEL SUR,,Dosquebradas,RISARALDA,,CO,+57 1 800 0111700,https://location.westernunion.com/co/risaralda/dosquebradas/a28ce3f2fd96706d1180555e363a5fb5,Mo-Sa 08:00-20:00,Western Union,Q861042
294cb0d46000f0b53d71efc7b9511f67,western_union,EFECTY CENTRO COMERCIAL LAGO PLAZA PEREI,,Pereira,RISARALDA,,CO,+57 601 7566027,https://location.westernunion.com/co/risaralda/pereira/294cb0d46000f0b53d71efc7b9511f67,Mo-Fr 08:00-20:00; Sa 08:00-18:00; Su 08:00-13:00,Western Union,Q861042
7d1bcbe91c253d732c71b7381893dd58,western_union,SUPERGIROS EL PARAISO,,Dosquebradas,RISARALDA,,CO,+57 1 800 0111700,https://location.westernunion.com/co/risaralda/dosquebradas/7d1bcbe91c253d732c71b7381893dd58,Mo-Sa 08:00-20:00,Western Union,Q861042
8261f546007c2af30a6e72ec520515ee,western_union,SUPERGIROS POPOCHO,,Pereira,RISARALDA,,CO,+57 1 800 0111700,https://location.westernunion.com/co/risaralda/pereira/8261f546007c2af30a6e72ec520515ee,Mo-Sa 08:00-20:00,Western Union,Q861042
bcc6e4fc0609fb26ce33f746ecdb247c,western_union,MULTIPAGAS MP - PEREIRA CENTRO,,Pereira,RISARALDA,,CO,+57 602 6510101,https://location.westernunion.com/co/risaralda/pereira/bcc6e4fc0609fb26ce33f746ecdb247c,Mo-Fr 08:00-19:00; Sa 08:00-15:00,Western Union,Q861042
ea39c2cb8b8e83172956679d5ee920d3,western_union,EFECTY SERVIENTREGA CALLE 21,,Pereira,RISARALDA,,CO,+57 601 7566027,https://location.westernunion.com/co/risaralda/pereira/ea39c2cb8b8e83172956679d5ee920d3,Mo-Fr 08:00-19:00; Sa 08:00-13:00,Western Union,Q861042
39408ff11e91fdc506ad4a57461ac4a3,western_union,SUPERGIROS ACUAZUL,,Pereira,RISARALDA,,CO,+57 1 800 0111700,https://location.westernunion.com/co/risaralda/pereira/39408ff11e91fdc506ad4a57461ac4a3,Mo-Sa 08:00-20:00,Western Union,Q861042
c13a65cbbb813784d43ed97765c81c62,western_union,EFECTY CENTRO COMERCIAL SANANDRESITO LC,,Pereira,RISARALDA,,CO,+57 601 7566027,https://location.westernunion.com/co/risaralda/pereira/c13a65cbbb813784d43ed97765c81c62,Mo-Fr 09:00-19:00; Sa 09:00-18:00,Western Union,Q861042
86c2a87b6abf13db800336833fa7721f,western_union,SUPERGIROS OFICINA PRINCIPAL SANTUAR,,Pereira,RISARALDA,,CO,+57 1 800 0111700,https://location.westernunion.com/co/risaralda/pereira/86c2a87b6abf13db800336833fa7721f,Mo-Sa 08:00-20:00,Western Union,Q861042
44dc3642da6824141cba81d52c322d87,western_union,EFECTY BARRIO SAN NICOLAS CRA 15,,Pereira,RISARALDA,,CO,+57 601 7566027,https://location.westernunion.com/co/risaralda/pereira/44dc3642da6824141cba81d52c322d87,Mo-Sa 08:00-20:00; Su 08:00-16:00,Western Union,Q861042
8cbc7118868a73de995b3aa8786aab00,western_union,SUPERGIROS DOSQUEBRADAS DROGUERIA,,Dosquebradas,RISARALDA,,CO,+57 1 800 0111700,https://location.westernunion.com/co/risaralda/dosquebradas/8cbc7118868a73de995b3aa8786aab00,Mo-Sa 08:00-20:00,Western Union,Q861042
8cd16e5e3476ff6ba7362cf7dc76192f,western_union,SUPERGIROS GUADALUPE,,La Virginia,RISARALDA,,CO,+57 1 800 0111700,https://location.westernunion.com/co/risaralda/la-virginia/8cd16e5e3476ff6ba7362cf7dc76192f,Mo-Sa 08:00-20:00,Western Union,Q861042
71d0a9cdb1523bf025e849382e08dedf,western_union,SUPERGIROS VILLA VERDE,,Pereira,RISARALDA,,CO,+57 1 800 0111700,https://location.westernunion.com/co/risaralda/pereira/71d0a9cdb1523bf025e849382e08dedf,Mo-Sa 08:00-20:00,Western Union,Q861042
8700e84d77905b97c469205e3631336d,western_union,SUPERGIROS EFIGAS PEREIRA,,Pereira,RISARALDA,,CO,+57 1 800 0111700,https://location.westernunion.com/co/risaralda/pereira/8700e84d77905b97c469205e3631336d,Mo-Sa 08:00-20:00,Western Union,Q861042
cbd81f6e5e5617df5b49ae6a5be1ca0b,western_union,SUPERGIROS MARCELINO II,,Pereira,RISARALDA,,CO,+57 1 800 0111700,https://location.westernunion.com/co/risaralda/pereira/cbd81f6e5e5617df5b49ae6a5be1ca0b,Mo-Sa 08:00-20:00,Western Union,Q861042
4d3f15f32a37eae143056774373edfd7,western_union,SUPERGIROS SAMARIA III,,Pereira,RISARALDA,,CO,+57 1 800 0111700,https://location.westernunion.com/co/risaralda/pereira/4d3f15f32a37eae143056774373edfd7,Mo-Sa 08:00-20:00,Western Union,Q861042
2312e92625d69e60ed428355f199d003,western_union,CONEXRED VARIEDADES GERIZIN,,Pereira,RISARALDA,,CO,+57 313 5559768,https://location.westernunion.com/co/risaralda/pereira/2312e92625d69e60ed428355f199d003,Mo-Fr 08:00-20:00; Sa 08:00-18:00; Su 08:00-12:00,Western Union,Q861042
bc39063b623a59fd733e4745b7b2076f,western_union,SUPERGIROS LOS CEDROS,,Pueblo Rico,RISARALDA,,CO,+57 1 800 0111700,https://location.westernunion.com/co/risaralda/pueblo-rico/bc39063b623a59fd733e4745b7b2076f,Mo-Sa 08:00-20:00,Western Union,Q861042
08c0b76b5e618cd24ce93b2797fb5fde,western_union,ACCIONES Y VALORES AV 30 DE AGOSTO,,Pereira,RISARALDA,,CO,(+57) 1-6510480,https://location.westernunion.com/co/risaralda/pereira/08c0b76b5e618cd24ce93b2797fb5fde,Mo-Sa 08:00-19:00,Western Union,Q861042
a78cdf08218ec8b28ebbcf59fe00ed20,western_union,ACCIONES Y VALORES AV 30 DE AGOSTO,,Pereira,RISARALDA,,CO,+57 1 800 0111700,https://location.westernunion.com/co/risaralda/pereira/a78cdf08218ec8b28ebbcf59fe00ed20,Mo-Fr 08:00-17:00; Sa 08:00-14:00,Western Union,Q861042
d18cbbcc1f3fac2cd184bc81b0e9e7a0,western_union,SUPERGIROS POBLADO PLAZA,,Pereira,RISARALDA,,CO,+57 1 800 0111700,https://location.westernunion.com/co/risaralda/pereira/d18cbbcc1f3fac2cd184bc81b0e9e7a0,Mo-Sa 08:00-20:00,Western Union,Q861042
35059706e9ae30df6bcd394031bd0dc0,western_union,EFECTY BARRIO EL POBLADO II,,Pereira,RISARALDA,,CO,+57 601 7566027,https://location.westernunion.com/co/risaralda/pereira/35059706e9ae30df6bcd394031bd0dc0,Mo-Sa 08:00-20:00; Su 08:00-16:00,Western Union,Q861042
6cf91534a985bf04146bc6b1873088bb,western_union,SUPERGIROS SUPER ENVIOS PEREIRA,,Pereira,RISARALDA,,CO,+57 1 800 0111700,https://location.westernunion.com/co/risaralda/pereira/6cf91534a985bf04146bc6b1873088bb,Mo-Sa 08:00-20:00,Western Union,Q861042
f237ef477b1234f6938285afacb39794,western_union,EFECTY EXPRESS CENTRO PEREIRA,,Pereira,RISARALDA,,CO,+57 601 7566027,https://location.westernunion.com/co/risaralda/pereira/f237ef477b1234f6938285afacb39794,Mo-Fr 08:00-20:00; Sa 08:00-18:00; Su 08:00-12:00,Western Union,Q861042
8cea10180d99fb2900ed99c20e7f10c9,western_union,SUPERGIROS AGENCIA BOLIVAR,,La Virginia,RISARALDA,,CO,+57 1 800 0111700,https://location.westernunion.com/co/risaralda/la-virginia/8cea10180d99fb2900ed99c20e7f10c9,Mo-Sa 08:00-20:00,Western Union,Q861042
8947f47321b1dbc225837a28b51df2a2,western_union,SUPERGIROS ARISTI,,Pereira,RISARALDA,,CO,+57 1 800 0111700,https://location.westernunion.com/co/risaralda/pereira/8947f47321b1dbc225837a28b51df2a2,Mo-Sa 08:00-20:00,Western Union,Q861042
f31c43f05973ffb9d4e40daf68eefca2,western_union,SUPERGIROS PEREIRA PROVIDENCIA,,Pereira,RISARALDA,,CO,+57 1 800 0111700,https://location.westernunion.com/co/risaralda/pereira/f31c43f05973ffb9d4e40daf68eefca2,Mo-Sa 08:00-20:00,Western Union,Q861042
9c92dafed5db5617760baa56c72e12dc,western_union,COOP  FINAN  D ANTIOQUIA   PEREIRA,,Pereira,RISARALDA,,CO,+57 1 800 0421827,https://location.westernunion.com/co/risaralda/pereira/9c92dafed5db5617760baa56c72e12dc,Mo-Fr 08:00-16:30; Sa 08:30-12:30,Western Union,Q861042
b261b656d1cbab2037e07e6b016de903,western_union,MULTIPAGAS PLAZA DE BOLIVAR PEREIRA,,Pereira,RISARALDA,,CO,+57 602 6510101,https://location.westernunion.com/co/risaralda/pereira/b261b656d1cbab2037e07e6b016de903,Mo-Fr 08:00-19:00; Sa 08:00-14:00,Western Union,Q861042
d82f2c33f226967b462187eb86a17908,western_union,EFECTY BARRIO DORADO 1,,Pereira,RISARALDA,,CO,+57 601 7566027,https://location.westernunion.com/co/risaralda/pereira/d82f2c33f226967b462187eb86a17908,Mo-Sa 08:00-20:00; Su 08:00-16:00,Western Union,Q861042
8bc4062f02a8995a16da38c1d61b0468,western_union,EFECTY EFECTY CUBA 2500,,Pereira,RISARALDA,,CO,+57 601 7566027,https://location.westernunion.com/co/risaralda/pereira/8bc4062f02a8995a16da38c1d61b0468,Mo-Sa 08:00-20:00; Su 08:00-16:00,Western Union,Q861042
d9862b768dbd0b46a4aed14c769d076a,western_union,EFECTY EFECTY BARRIO VILLA ELENA,,Pereira,RISARALDA,,CO,+57 601 7566027,https://location.westernunion.com/co/risaralda/pereira/d9862b768dbd0b46a4aed14c769d076a,Mo-Sa 08:00-20:00; Su 08:00-16:00,Western Union,Q861042
9d222065cc95dd8da811020e3ffe4a45,western_union,EFECTY DIMONEX AVENIDA DEL RIO,,Pereira,RISARALDA,,CO,+57 601 7566027,https://location.westernunion.com/co/risaralda/pereira/9d222065cc95dd8da811020e3ffe4a45,Mo-Fr 08:00-20:00; Sa 08:00-18:00; Su 08:00-12:00,Western Union,Q861042
8eb60ef1b4c6b2be2efd8433cfdf161f,western_union,EFECTY PARQUE BANDERAS CALLE 37.,,Pereira,RISARALDA,,CO,+57 601 7566027,https://location.westernunion.com/co/risaralda/pereira/8eb60ef1b4c6b2be2efd8433cfdf161f,Mo-Sa 08:00-20:00; Su 08:00-16:00,Western Union,Q861042
6b97c7a219fd6b65a0e04bde4e498759,western_union,EFECTY BARRIO SAMARIA I,,Pereira,RISARALDA,,CO,+57 601 7566027,https://location.westernunion.com/co/risaralda/pereira/6b97c7a219fd6b65a0e04bde4e498759,Mo-Sa 08:00-18:00; Su 08:00-12:00,Western Union,Q861042
4fbdc97463a4b892755e41aacb29e315,western_union,SUPERGIROS LA TRANQUERA,,Pereira,RISARALDA,,CO,+57 1 800 0111700,https://location.westernunion.com/co/risaralda/pereira/4fbdc97463a4b892755e41aacb29e315,Mo-Sa 08:00-20:00,Western Union,Q861042
e825414cfd071412fb25d91418a7fbc4,western_union,EFECTY HOSPITAL SAN JORGE II,,Pereira,RISARALDA,,CO,+57 601 7566027,https://location.westernunion.com/co/risaralda/pereira/e825414cfd071412fb25d91418a7fbc4,Mo-Sa 08:00-20:00; Su 08:00-16:00,Western Union,Q861042
4fb7b82c51928d45ee5337d3bc721402,western_union,SUPERGIROS MAQUILAGO,,Pereira,RISARALDA,,CO,+57 1 800 0111700,https://location.westernunion.com/co/risaralda/pereira/4fb7b82c51928d45ee5337d3bc721402,Mo-Sa 08:00-20:00,Western Union,Q861042
0378148179922145192967883e37a1d9,western_union,EFECTY EL LAGO,,Pereira,RISARALDA,,CO,+57 601 7566027,https://location.westernunion.com/co/risaralda/pereira/0378148179922145192967883e37a1d9,Mo-Fr 08:30-18:30; Sa 08:30-18:00; Su 08:30-12:30,Western Union,Q861042
f5bd8eb32209f35fedeea8f43513c142,western_union,MULTIPAGAS Unicentro Pereira,,Pereira,RISARALDA,,CO,+57 602 6510101,https://location.westernunion.com/co/risaralda/pereira/f5bd8eb32209f35fedeea8f43513c142,Mo-Su 08:00-20:00,Western Union,Q861042
4f8c818539577a5deb96bea0fd9b2bc8,western_union,EFECTY SERVIENTREGA CRA 7,,Pereira,RISARALDA,,CO,+57 601 7566027,https://location.westernunion.com/co/risaralda/pereira/4f8c818539577a5deb96bea0fd9b2bc8,Mo-Fr 08:00-18:30; Sa 08:00-13:00,Western Union,Q861042
c28fb53b76e64778bfa297d2d45dfe84,western_union,EFECTY BARRIO MONTELIBANO ABC,,Pereira,RISARALDA,,CO,+57 601 7566027,https://location.westernunion.com/co/risaralda/pereira/c28fb53b76e64778bfa297d2d45dfe84,Mo-Sa 08:00-20:00; Su 08:00-16:00,Western Union,Q861042
9dcc3d610683f2cb4937c6104dc56e6c,western_union,SUPERGIROS MONTELIBANO II,,Dosquebradas,RISARALDA,,CO,+57 1 800 0111700,https://location.westernunion.com/co/risaralda/dosquebradas/9dcc3d610683f2cb4937c6104dc56e6c,Mo-Sa 08:00-20:00,Western Union,Q861042
ca3b01ad0afc32600b439cbae3e63913,western_union,SUPERGIROS LA ROMELIA,,Pereira,RISARALDA,,CO,+57 1 800 0111700,https://location.westernunion.com/co/risaralda/pereira/ca3b01ad0afc32600b439cbae3e63913,Mo-Sa 08:00-20:00,Western Union,Q861042
3308297d2fb366c24f85b82a4fa5e169,western_union,SUPERGIROS SANFERNANDO CUBA,,Pereira,RISARALDA,,CO,+57 1 800 0111700,https://location.westernunion.com/co/risaralda/pereira/3308297d2fb366c24f85b82a4fa5e169,Mo-Sa 08:00-20:00,Western Union,Q861042
1b87bf1b12c0b81978e3ac4c6848f14d,western_union,GIROS Y FINANZAS ï¿½XITO CUBA,,Pereira,RISARALDA,,CO,(+57) 1800011199,https://location.westernunion.com/co/risaralda/pereira/1b87bf1b12c0b81978e3ac4c6848f14d,Mo-Su 09:00-20:00,Western Union,Q861042
e1268795b254314b0aaf4dfe70afec67,western_union,MULTIPAGAS BARRIO CUBA,,Pereira,RISARALDA,,CO,+57 602 6510101,https://location.westernunion.com/co/risaralda/pereira/e1268795b254314b0aaf4dfe70afec67,Mo-Fr 08:00-18:00; Sa 08:00-12:00,Western Union,Q861042
a899960dbd22292fb7e555b86c703f61,western_union,ACCIONES Y VALORES CUBA CC LAS AMERICAS,,Pereira,RISARALDA,,CO,+57 1 800 0111700,https://location.westernunion.com/co/risaralda/pereira/a899960dbd22292fb7e555b86c703f61,Mo-Sa 08:00-18:00,Western Union,Q861042
ab2c2a4dabef9a2c746de8ccc93c9ad6,western_union,EFECTY EXITO CUBA 1.,,Pereira,RISARALDA,,CO,+57 601 7566027,https://location.westernunion.com/co/risaralda/pereira/ab2c2a4dabef9a2c746de8ccc93c9ad6,Mo-Sa 08:00-20:00; Su 08:00-16:00,Western Union,Q861042
191e2dfc5e1d5410f27983578b0ffdf6,western_union,SUPERGIROS OFICINA PRINCIPAL CUBA,,Pereira,RISARALDA,,CO,+57 1 800 0111700,https://location.westernunion.com/co/risaralda/pereira/191e2dfc5e1d5410f27983578b0ffdf6,Mo-Sa 08:00-20:00,Western Union,Q861042
d26ca272988041d16fb5a22f167a1a8d,western_union,EFECTY SERVIENTREGA AV AMERICAS CL 55,,Pereira,RISARALDA,,CO,+57 601 7566027,https://location.westernunion.com/co/risaralda/pereira/d26ca272988041d16fb5a22f167a1a8d,Mo-Sa 10:00-20:30; Su 10:00-20:00,Western Union,Q861042
b63a261e67036405d5a91027a5a2032b,western_union,EFECTY EL COLISEO CUBA,,Pereira,RISARALDA,,CO,+57 601 7566027,https://location.westernunion.com/co/risaralda/pereira/b63a261e67036405d5a91027a5a2032b,Mo-Sa 08:00-19:00; Su 08:00-16:00,Western Union,Q861042
a989b1f36de36a93f431ee47cb73291d,western_union,EFECTY NUEVO SOL,,Pereira,RISARALDA,,CO,+57 601 7566027,https://location.westernunion.com/co/risaralda/pereira/a989b1f36de36a93f431ee47cb73291d,Mo-Sa 08:00-20:00; Su 08:00-16:00,Western Union,Q861042
c5164e8972c706dec99f87354556c5db,western_union,EFECTY EFECTY BRR LA ISLA CUBA,,Pereira,RISARALDA,,CO,+57 601 7566027,https://location.westernunion.com/co/risaralda/pereira/c5164e8972c706dec99f87354556c5db,Mo-Sa 08:00-20:00; Su 08:00-16:00,Western Union,Q861042
1bbecd9a0eee4398af952ba18599c2e1,western_union,SUPERGIROS FAROLES,,Pereira,RISARALDA,,CO,+57 1 800 0111700,https://location.westernunion.com/co/risaralda/pereira/1bbecd9a0eee4398af952ba18599c2e1,Mo-Sa 08:00-20:00,Western Union,Q861042
d5b25c85b47e098ff8e942c64b46831c,western_union,EFECTY BRR ALTOS DE LLANO GRANDE,,Pereira,RISARALDA,,CO,+57 601 7566027,https://location.westernunion.com/co/risaralda/pereira/d5b25c85b47e098ff8e942c64b46831c,Mo-Sa 08:00-20:00; Su 08:00-16:00,Western Union,Q861042
dced1bebd5071ec4ce7d97a72f21bad4,western_union,EFECTY EXPRESS EFECTY ALEJANDRIA,,Pereira,RISARALDA,,CO,+57 601 7566027,https://location.westernunion.com/co/risaralda/pereira/dced1bebd5071ec4ce7d97a72f21bad4,Mo-Fr 08:00-20:00; Sa 08:00-18:00; Su 08:00-12:00,Western Union,Q861042
ed40a0629302e3f730abb4a5af7be8d1,western_union,EFECTY MARSELLA,,Marsella,RISARALDA,,CO,+57 601 7566027,https://location.westernunion.com/co/risaralda/marsella/ed40a0629302e3f730abb4a5af7be8d1,Mo-Su 08:00-18:00,Western Union,Q861042
185c32261f9c75a28f6bda35e8ffc732,western_union,SUPERGIROS BELMONTE,,Dosquebradas,RISARALDA,,CO,+57 1 800 0111700,https://location.westernunion.com/co/risaralda/dosquebradas/185c32261f9c75a28f6bda35e8ffc732,Mo-Sa 08:00-20:00,Western Union,Q861042
f9cb29b2ee489018ce5d510b61c256da,western_union,EFECTY PERLA DEL SUR,,Pereira,RISARALDA,,CO,+57 601 7566027,https://location.westernunion.com/co/risaralda/pereira/f9cb29b2ee489018ce5d510b61c256da,Mo-Sa 08:00-20:00; Su 08:00-16:00,Western Union,Q861042
e5f45662b9d8d8fa6d299b392768a21e,western_union,SUPERGIROS LA BOMBA CORALES,,Dosquebradas,RISARALDA,,CO,+57 1 800 0111700,https://location.westernunion.com/co/risaralda/dosquebradas/e5f45662b9d8d8fa6d299b392768a21e,Mo-Sa 08:00-20:00,Western Union,Q861042
3581a1745c1d124a66d63e0807ead94a,western_union,EFECTY SERVIENTREGA UNICENTRO PEREIRA,,Pereira,RISARALDA,,CO,+57 601 7566027,https://location.westernunion.com/co/risaralda/pereira/3581a1745c1d124a66d63e0807ead94a,Mo-Sa 09:00-20:00; Su 10:00-18:00,Western Union,Q861042
304675c57bf2421bc47efffec34b21b8,western_union,EFECTY PAPELERIA MERCASA,,Pereira,RISARALDA,,CO,+57 601 7566027,https://location.westernunion.com/co/risaralda/pereira/304675c57bf2421bc47efffec34b21b8,Mo-Fr 07:30-17:00; Sa 07:30-13:00,Western Union,Q861042
e79ef53c541908317863b17f0afc5b17,western_union,SUPERGIROS GUAYACANES,,Pereira,RISARALDA,,CO,+57 1 800 0111700,https://location.westernunion.com/co/risaralda/pereira/e79ef53c541908317863b17f0afc5b17,Mo-Sa 08:00-20:00,Western Union,Q861042
81b597eefe5d5f3d45b4ea549c4824e3,western_union,EFECTY IRRA II,,Quinchia,RISARALDA,,CO,+57 601 7566027,https://location.westernunion.com/co/risaralda/quinchia/81b597eefe5d5f3d45b4ea549c4824e3,Mo-Sa 08:00-20:00; Su 08:00-16:00,Western Union,Q861042
2404bfaf2f96d4a70eebc1030ff4c6e6,western_union,EFECTY AVENIDA PRINCIPAL,,Quinchia,RISARALDA,,CO,+57 601 7566027,https://location.westernunion.com/co/risaralda/quinchia/2404bfaf2f96d4a70eebc1030ff4c6e6,Mo-Su 08:00-18:00,Western Union,Q861042
9436551d90d817d4c140d7ffcd1b951a,western_union,EFECTY SECTOR ESTACION SERVICIO BRIO,,Guatica,RISARALDA,,CO,+57 601 7566027,https://location.westernunion.com/co/risaralda/guatica/9436551d90d817d4c140d7ffcd1b951a,Mo-Sa 08:00-20:00; Su 08:00-16:00,Western Union,Q861042
cc39e609d07a503deb6bc97f3468d7d4,western_union,BANCO AGRARIO GUATICA,,Guatica,RISARALDA,,CO,+57 601 5948500,https://location.westernunion.com/co/risaralda/guatica/cc39e609d07a503deb6bc97f3468d7d4,Mo 08:00-16:30; Tu 08:00-12:00; We-Fr 07:00-12:00,Western Union,Q861042
9f4aec67dcc4270cafd7ef5929c3747f,western_union,SUPERGIROS OFICINA PRINCIPAL GUATICA,,Pereira,RISARALDA,,CO,+57 1 800 0111700,https://location.westernunion.com/co/risaralda/pereira/9f4aec67dcc4270cafd7ef5929c3747f,Mo-Sa 08:00-20:00,Western Union,Q861042
f93d40e7bd96b3b3f071ae8b3bb023f8,western_union,MULTIPAGAS LA VIRGINIA,,La Virginia,RISARALDA,,CO,+57 602 6510101,https://location.westernunion.com/co/risaralda/la-virginia/f93d40e7bd96b3b3f071ae8b3bb023f8,Mo-Fr 07:30-18:00; Sa 08:00-14:00,Western Union,Q861042
95e65437d8c144d2252f0451a4021399,western_union,EFECTY LA VIRGINIA CALLE 8 PRINCIPAL,,La Virginia,RISARALDA,,CO,+57 601 7566027,https://location.westernunion.com/co/risaralda/la-virginia/95e65437d8c144d2252f0451a4021399,Mo-Sa 08:00-20:00; Su 08:00-16:00,Western Union,Q861042
beccc6a3991e8ca3feda725ae952e7ed,western_union,EFECTY LA VIRGINIA CENTRO,,La Virginia,RISARALDA,,CO,+57 601 7566027,https://location.westernunion.com/co/risaralda/la-virginia/beccc6a3991e8ca3feda725ae952e7ed,Mo-Sa 08:00-20:00; Su 08:00-16:00,Western Union,Q861042
7d6efddc6d2a3835981577d4de204506,western_union,SUPERGIROS BELEN DE UMBRIA EL PARQUE,,Belen De Umbria,RISARALDA,,CO,+57 1 800 0111700,https://location.westernunion.com/co/risaralda/belen-de-umbria/7d6efddc6d2a3835981577d4de204506,Mo-Sa 08:00-20:00,Western Union,Q861042
57d9c73b403dc4ec15ede617a6d1d480,western_union,BANCO AGRARIO BELEN DE UMBRIA,,Belen De Umbria,RISARALDA,,CO,+57 601 5948500,https://location.westernunion.com/co/risaralda/belen-de-umbria/57d9c73b403dc4ec15ede617a6d1d480,Tu-Fr 08:00-16:30,Western Union,Q861042
bbac9bce25098e15c741e068ad97debc,western_union,SUPERGIROS OFICINA PRINCIPAL MISTRAT,,Pereira,RISARALDA,,CO,+57 1 800 0111700,https://location.westernunion.com/co/risaralda/pereira/bbac9bce25098e15c741e068ad97debc,Mo-Sa 08:00-20:00,Western Union,Q861042
d2490f3752e9c9428c10e4e5ebbf762e,western_union,SUPERGIROS SAI 2,,Mistrato,RISARALDA,,CO,+57 1 800 0111700,https://location.westernunion.com/co/risaralda/mistrato/d2490f3752e9c9428c10e4e5ebbf762e,Mo-Sa 08:00-20:00,Western Union,Q861042
c4883ec65515f96a8133a07400776e00,western_union,BANCO AGRARIO BALBOA,,Balboa,RISARALDA,,CO,+57 601 5948500,https://location.westernunion.com/co/risaralda/balboa/c4883ec65515f96a8133a07400776e00,Tu-Sa 08:00-14:00,Western Union,Q861042
f9bce0a38a8a5420ebfda96a557c5f88,western_union,EFECTY BALBOA CALLE CENTRAL,,Balboa,RISARALDA,,CO,+57 601 7566027,https://location.westernunion.com/co/risaralda/balboa/f9bce0a38a8a5420ebfda96a557c5f88,Mo-Sa 08:30-18:00; Su 09:30-17:00,Western Union,Q861042
7a7e2d1784ba52ca6852ce4db5fe0914,western_union,EFECTY PLAZA PRINCIPAL,,Apia,RISARALDA,,CO,+57 601 7566027,https://location.westernunion.com/co/risaralda/apia/7a7e2d1784ba52ca6852ce4db5fe0914,Mo-Th 08:00-20:00; Fr-Su 08:00-12:00,Western Union,Q861042
b7c65a7b082be8450adcc7176b110f60,western_union,BANCO AGRARIO APIA,,Apia,RISARALDA,,CO,+57 601 5948500,https://location.westernunion.com/co/risaralda/apia/b7c65a7b082be8450adcc7176b110f60,Tu-Sa 08:00-14:00,Western Union,Q861042
b521d407a58e919eafc9d26be9692da5,western_union,CONEXRED SAN VERANO 1,,Apia,RISARALDA,,CO,+57 313 5559768,https://location.westernunion.com/co/risaralda/apia/b521d407a58e919eafc9d26be9692da5,Mo-Su 08:00-20:00,Western Union,Q861042
6f7d2062dbca023f00983f085de25eb2,western_union,BANCO AGRARIO LA CELIA,,La Celia,RISARALDA,,CO,+57 601 5948500,https://location.westernunion.com/co/risaralda/la-celia/6f7d2062dbca023f00983f085de25eb2,Tu-Fr 08:00-16:30,Western Union,Q861042
8bb6fd0217ac7eb2355b7a55c127be6f,western_union,EFECTY GUADUALES DEL OTUN 1,,Dosquebradas,RISARALDA,,CO,+57 601 7566027,https://location.westernunion.com/co/risaralda/dosquebradas/8bb6fd0217ac7eb2355b7a55c127be6f,Mo-Sa 08:00-20:00; Su 08:00-16:00,Western Union,Q861042
ec165fca640cfc2bbcd83b139b6e90c0,western_union,BANCO AGRARIO PUEBLO RICO,,Pueblo Rico,RISARALDA,,CO,+57 601 5948500,https://location.westernunion.com/co/risaralda/pueblo-rico/ec165fca640cfc2bbcd83b139b6e90c0,Tu-Fr 08:00-15:00,Western Union,Q861042
92494ab181ed1cda76b5a6221ddacbd3,western_union,SUPERGIROS OFICINA PRINCIPAL,,Pereira,RISARALDA,,CO,+57 1 800 0111700,https://location.westernunion.com/co/risaralda/pereira/92494ab181ed1cda76b5a6221ddacbd3,Mo-Sa 08:00-20:00,Western Union,Q861042
c8bbeb45ce6bb4d18737e5b4a0a72284,western_union,SUPERGIROS IRRA,,Dosquebradas,RISARALDA,,CO,+57 1 800 0111700,https://location.westernunion.com/co/risaralda/dosquebradas/c8bbeb45ce6bb4d18737e5b4a0a72284,Mo-Sa 08:00-20:00,Western Union,Q861042
113bfe1048bad4355b6b08b1189b370c,western_union,EFECTY BARRIO LOS CRISTALES 1,,Santa Rosa De Cabal,RISARALDA,,CO,+57 601 7566027,https://location.westernunion.com/co/risaralda/santa-rosa-de-cabal/113bfe1048bad4355b6b08b1189b370c,Mo-Sa 08:00-20:00; Su 08:00-16:00,Western Union,Q861042
9375d32bd1d88bfda985c72834c682bd,western_union,SUPERGIROS LA FLORIDA,,Santa Rosa De Cabal,RISARALDA,,CO,+57 1 800 0111700,https://location.westernunion.com/co/risaralda/santa-rosa-de-cabal/9375d32bd1d88bfda985c72834c682bd,Mo-Sa 08:00-20:00,Western Union,Q861042
c74da928733fdb81472590f93d990cbb,western_union,SUPERGIROS GUACARI,,Santa Rosa De Cabal,RISARALDA,,CO,+57 1 800 0111700,https://location.westernunion.com/co/risaralda/santa-rosa-de-cabal/c74da928733fdb81472590f93d990cbb,Mo-Sa 08:00-20:00,Western Union,Q861042
9ac76fd18a9e97c7cbb46f36abfc857a,western_union,SUPERGIROS LA HERMOSA 2,,Pereira,RISARALDA,,CO,+57 1 800 0111700,https://location.westernunion.com/co/risaralda/pereira/9ac76fd18a9e97c7cbb46f36abfc857a,Mo-Sa 08:00-20:00,Western Union,Q861042
447afd5ba8f8e949e68e9e02b694adef,western_union,EFECTY BARRIO PINARES,,Santa Rosa De Cabal,RISARALDA,,CO,+57 601 7566027,https://location.westernunion.com/co/risaralda/santa-rosa-de-cabal/447afd5ba8f8e949e68e9e02b694adef,Mo-Sa 08:00-20:00; Su 08:00-16:00,Western Union,Q861042
364e43ec3503912c229ff2eaad5e92b8,western_union,SUPERGIROS ESTACION POLICI,,Dosquebradas,RISARALDA,,CO,+57 1 800 0111700,https://location.westernunion.com/co/risaralda/dosquebradas/364e43ec3503912c229ff2eaad5e92b8,Mo-Sa 08:00-20:00,Western Union,Q861042
85c2fc5d633f9a3938e7209f5446d700,western_union,GIROS Y FINANZAS-BANCO UNION,,Santa Rosa De Cabal,RISARALDA,,CO,(+57) 1800011199,https://location.westernunion.com/co/risaralda/santa-rosa-de-cabal/85c2fc5d633f9a3938e7209f5446d700,Mo-Su 09:00-20:00,Western Union,Q861042
b7746e857c1873e545f5cbd1f1e314e5,western_union,BANCO AGRARIO SANTA ROSA DE CABAL,,Santa Rosa De Cabal,RISARALDA,,CO,+57 601 5948500,https://location.westernunion.com/co/risaralda/santa-rosa-de-cabal/b7746e857c1873e545f5cbd1f1e314e5,Mo 08:00-16:30; Tu-Sa 08:00-14:00,Western Union,Q861042
d2420e0eda60f2ebed2ccaf00fb78c6a,western_union,EFECTY ACCESORIOS CARRERA 14 CENTRO,,Santa Rosa De Cabal,RISARALDA,,CO,+57 601 7566027,https://location.westernunion.com/co/risaralda/santa-rosa-de-cabal/d2420e0eda60f2ebed2ccaf00fb78c6a,Mo-Su 09:00-18:30,Western Union,Q861042
8b16bcc5545957c8ae67646dc9a42c25,western_union,SUPERGIROS COMBIA,,Santa Rosa De Cabal,RISARALDA,,CO,+57 1 800 0111700,https://location.westernunion.com/co/risaralda/santa-rosa-de-cabal/8b16bcc5545957c8ae67646dc9a42c25,Mo-Sa 08:00-20:00,Western Union,Q861042
d0aa34cf598e01a894b3f0662775744f,western_union,SUPERGIROS LA ECONOMIA,,Santuario,RISARALDA,,CO,+57 1 800 0111700,https://location.westernunion.com/co/risaralda/santuario/d0aa34cf598e01a894b3f0662775744f,Mo-Sa 08:00-20:00,Western Union,Q861042
53fc5436825d3b5d0e2519a2c4e5ce1e,western_union,SUPERGIROS EL PROGRESO,,Santa Rosa De Cabal,RISARALDA,,CO,+57 1 800 0111700,https://location.westernunion.com/co/risaralda/santa-rosa-de-cabal/53fc5436825d3b5d0e2519a2c4e5ce1e,Mo-Sa 08:00-20:00,Western Union,Q861042
a3a92661f176d2ac553d2dc39b2d54e8,western_union,SUPERGIROS POLICIA MODELO,,Santa Rosa De Cabal,RISARALDA,,CO,+57 1 800 0111700,https://location.westernunion.com/co/risaralda/santa-rosa-de-cabal/a3a92661f176d2ac553d2dc39b2d54e8,Mo-Sa 08:00-20:00,Western Union,Q861042
6999c5ebc4769abcddf06d8f15bbfda6,western_union,EFECTY BARRIO EL PARAISO,,Santa Rosa De Cabal,RISARALDA,,CO,+57 601 7566027,https://location.westernunion.com/co/risaralda/santa-rosa-de-cabal/6999c5ebc4769abcddf06d8f15bbfda6,Mo-Sa 08:00-20:00; Su 08:00-16:00,Western Union,Q861042
a591342415581ecace5d7e0f2f68ce81,western_union,MULTIPAGAS SANTA ROSA,,Santa Rosa De Cabal,RISARALDA,,CO,+57 602 6510101,https://location.westernunion.com/co/risaralda/santa-rosa-de-cabal/a591342415581ecace5d7e0f2f68ce81,Mo-Fr 08:00-18:00; Sa 08:00-13:00,Western Union,Q861042
8c6cb04680ee208ea94b3e14fbbfa8d9,western_union,EFECTY CALLE 16,,Santa Rosa De Cabal,RISARALDA,,CO,+57 601 7566027,https://location.westernunion.com/co/risaralda/santa-rosa-de-cabal/8c6cb04680ee208ea94b3e14fbbfa8d9,Mo-Sa 08:00-20:00; Su 08:00-16:00,Western Union,Q861042
f1a7acea2fe8a521a4f791c13c63a623,western_union,SUPERGIROS OFICINA PRINCIPAL LA CELI,,La Virginia,RISARALDA,,CO,+57 1 800 0111700,https://location.westernunion.com/co/risaralda/la-virginia/f1a7acea2fe8a521a4f791c13c63a623,Mo-Sa 08:00-20:00,Western Union,Q861042
2d3778c73ca846d2f04606633b0f8932,western_union,SUPERGIROS LOS REYES,,Marsella,RISARALDA,,CO,+57 1 800 0111700,https://location.westernunion.com/co/risaralda/marsella/2d3778c73ca846d2f04606633b0f8932,Mo-Sa 08:00-20:00,Western Union,Q861042
c0dabdfbb816a2e49917407955beb8a9,western_union,EFECTY TIENDA LA 23 LLANO GRANDE,,Pereira,RISARALDA,,CO,+57 601 7566027,https://location.westernunion.com/co/risaralda/pereira/c0dabdfbb816a2e49917407955beb8a9,Mo-Sa 08:00-20:00; Su 08:00-16:00,Western Union,Q861042
