Ref,Spider,Name,Address,City,State,Zipcode,Country,Phone,Website,Hours,Brand,WikiData
BPM911,bp,BP,,Zamora,Michoacan,,MX,+52 800 668 0209,,24/7,BP,Q152057
,visa,,,ZAMORA,MICHOACAN,,MX,,,,,
,visa,,,ZAMORA DE HIDALGO,MICHOACAN,,MX,,,,,
,visa,,,ZAMORA DE HIDALGO,MICHOACAN,,MX,,,,,
,visa,,,ZAMORA,MICHOACAN,,MX,,,,,
,visa,,,MORELIA,MICHOACAN,,MX,,,,,
,visa,,,ZAMORA,MICHOACAN,,MX,,,,,
,visa,,,ZAMORA,MICHOACAN,,MX,,,,,
,visa,,,ZAMORA DE HIDALGO,MICHOACAN,,MX,,,,,
89fbaf33ade694e267d717959adb0a0a,western_union,OXXO ZAMORA IMSS GDL,,Zamora,MICHOACAN,,MX,+52 81 8389 2121,https://location.westernunion.com/mx/michoacan/zamora/89fbaf33ade694e267d717959adb0a0a,Mo-Su 08:00-22:00,Western Union,Q861042
c3f3e0a08a91dd369a5f2e63add30683,western_union,OXXO ZAMORA IMSS GDL,,Zamora,MICHOACAN,,MX,+52 81 8389 2121,https://location.westernunion.com/mx/michoacan/zamora/c3f3e0a08a91dd369a5f2e63add30683,Mo-Su 08:00-22:00,Western Union,Q861042
2b84b161613bc9eb9a77c5a5d7276dc6,western_union,OXXO ZAMORA IMSS GDL,,Zamora,MICHOACAN,,MX,+52 81 8389 2121,https://location.westernunion.com/mx/michoacan/zamora/2b84b161613bc9eb9a77c5a5d7276dc6,Mo-Su 08:00-22:00,Western Union,Q861042
914fd827b16c294d3053e7a4c583fb26,western_union,FARM GUAD CLZD ZAMORA,,Zamora,MICHOACAN,,MX,+52 800 833 4700,https://location.westernunion.com/mx/michoacan/zamora/914fd827b16c294d3053e7a4c583fb26,Mo-Su 08:00-20:00,Western Union,Q861042
bda5c96cf553ab3cb1593c30f26c1a08,western_union,FARM GUAD CLZD ZAMORA,,Zamora,MICHOACAN,,MX,+52 800 833 4700,https://location.westernunion.com/mx/michoacan/zamora/bda5c96cf553ab3cb1593c30f26c1a08,Mo-Su 08:00-20:00,Western Union,Q861042
c5b81ac250a223e3c50303dd98e6b3f0,western_union,FARM GUAD CLZD ZAMORA,,Zamora,MICHOACAN,,MX,+52 800 833 4700,https://location.westernunion.com/mx/michoacan/zamora/c5b81ac250a223e3c50303dd98e6b3f0,Mo-Su 08:00-20:00,Western Union,Q861042
14c75e92d6798fd50a16b19292e80318,western_union,SORIANA ZAMORA 148,,Zamora,MICHOACAN,,MX,(+52) 81-1112009,https://location.westernunion.com/mx/michoacan/zamora/14c75e92d6798fd50a16b19292e80318,Mo-Su 08:00-23:00,Western Union,Q861042
8701be5ec99853a48ecab8c0b55db7e6,western_union,SORIANA ZAMORA 148,,Zamora,MICHOACAN,,MX,(+52) 81-1112009,https://location.westernunion.com/mx/michoacan/zamora/8701be5ec99853a48ecab8c0b55db7e6,Mo-Su 08:00-23:00,Western Union,Q861042
ab985c227bc67ea22b3fc7d8dd89c5fe,western_union,SORIANA ZAMORA 148,,Zamora,MICHOACAN,,MX,(+52) 81-1112009,https://location.westernunion.com/mx/michoacan/zamora/ab985c227bc67ea22b3fc7d8dd89c5fe,Mo-Su 08:00-23:00,Western Union,Q861042
ddba0971afd4239c469ef228f018c5be,western_union,OXXO ZAMORA VIRREY GDL,,Zamora,MICHOACAN,,MX,+52 81 8389 2121,https://location.westernunion.com/mx/michoacan/zamora/ddba0971afd4239c469ef228f018c5be,Mo-Su 08:00-22:00,Western Union,Q861042
4c4f28d356a6da39365ebb89c4007f5d,western_union,OXXO ZAMORA VIRREY GDL,,Zamora,MICHOACAN,,MX,+52 81 8389 2121,https://location.westernunion.com/mx/michoacan/zamora/4c4f28d356a6da39365ebb89c4007f5d,Mo-Su 08:00-22:00,Western Union,Q861042
1a7f5d050e2bd638f19a72a91ae9e3d2,western_union,OXXO ZAMORA VIRREY GDL,,Zamora,MICHOACAN,,MX,+52 81 8389 2121,https://location.westernunion.com/mx/michoacan/zamora/1a7f5d050e2bd638f19a72a91ae9e3d2,Mo-Su 08:00-22:00,Western Union,Q861042
5161bac0220383d62429e02451e5f365,western_union,MEGA LUPITA SUC APATZINGAN IMX,,Zamora,MICHOACAN,,MX,+52 800 733 3300,https://location.westernunion.com/mx/michoacan/zamora/5161bac0220383d62429e02451e5f365,Mo-Sa 08:00-20:00; Su 08:00-15:00,Western Union,Q861042
a97d414aa971197681ddc93be16bc0e1,western_union,MEGA LUPITA SUC APATZINGAN IMX,,Zamora,MICHOACAN,,MX,+52 800 733 3300,https://location.westernunion.com/mx/michoacan/zamora/a97d414aa971197681ddc93be16bc0e1,Mo-Sa 08:00-20:00; Su 08:00-15:00,Western Union,Q861042
5a0cfc97775554a4b8d1fc1ca4b29ae8,western_union,MEGA LUPITA SUC APATZINGAN IMX,,Zamora,MICHOACAN,,MX,+52 800 733 3300,https://location.westernunion.com/mx/michoacan/zamora/5a0cfc97775554a4b8d1fc1ca4b29ae8,Mo-Sa 08:00-20:00; Su 08:00-15:00,Western Union,Q861042
ccfcbf8bf7bdb238a7bc8ef4fff8b191,western_union,BANORTE 04230 ZAMORA EL DUERO,,Zamora,MICHOACAN,,MX,+52 800 833 4700,https://location.westernunion.com/mx/michoacan/zamora/ccfcbf8bf7bdb238a7bc8ef4fff8b191,Mo-Fr 09:00-17:00,Western Union,Q861042
0103183e77068936b703589dc2d402f7,western_union,BANORTE 04230 ZAMORA EL DUERO,,Zamora,MICHOACAN,,MX,+52 800 833 4700,https://location.westernunion.com/mx/michoacan/zamora/0103183e77068936b703589dc2d402f7,Mo-Fr 09:00-17:00,Western Union,Q861042
