Ref,Spider,Name,Address,City,State,Zipcode,Country,Phone,Website,Hours,Brand,WikiData
2377,anytime_fitness,Anytime Fitness,,Seymour,WI,,US,+1 920-785-1530,https://www.anytimefitness.com/gyms/2377/seymour-wi-54165/,,Anytime Fitness,Q4778364
198257,bluerhino,Don's Quality Market #18-2559,,Seymour,WI,,US,+1 920-833-2132,,,Blue Rhino,Q65681213
44563223682345416500100000000000,bp,BP,,Seymour,WI,,US,+1 920-833-7790,,Mo-Su 05:00-22:00,BP,Q152057
62566,citi,ATM Kwik Trip #225-2,,Seymour,WI,,US,,,,Citibank,Q857063
62565,citi,ATM Kwik Trip #225-1,,Seymour,WI,,US,,,,Citibank,Q857063
66290,citi,ATM NICOLET NATIONAL BANK,,Seymour,WI,,US,,,,Citibank,Q857063
35876,citi,ATM BANK FIRST,,Seymour,WI,,US,,,,Citibank,Q857063
https://www.edwardjones.com/us-en/financial-advisor/kurt-eaton,edwardjones,Kurt Eaton,,Seymour,WI,,US,+1 920-833-1559,https://www.edwardjones.com/us-en/financial-advisor/kurt-eaton,Mo-Th 08:00-16:30; Fr 08:00-15:00,Edward Jones,Q5343830
200315854,exxonmobil,SEYMOUR MOBIL,,SEYMOUR,WI,,US,+1 920-833-9752,https://www.exxon.com/en/find-station/mobil-seymour-wi-seymourmobil-200315854,Mo-Su 05:00-00:00,Mobil,Q109676002
https://locations.oreillyauto.com/wi/seymour/check-engine-light-testing-5046.html,oreilly,Your Seymour O'Reilly Auto Parts Store,,Seymour,WI,,US,+1 920-833-0561,https://locations.oreillyauto.com/wi/seymour/check-engine-light-testing-5046.html,Mo-Sa 07:00-21:00; Su 08:00-17:00,O'Reilly Auto Parts,Q7071951
https://locations.oreillyauto.com/wi/seymour/wiper-installation-5046.html,oreilly,Your Seymour O'Reilly Auto Parts Store,,Seymour,WI,,US,+1 920-833-0561,https://locations.oreillyauto.com/wi/seymour/wiper-installation-5046.html,Mo-Sa 07:00-21:00; Su 08:00-17:00,O'Reilly Auto Parts,Q7071951
https://locations.oreillyauto.com/wi/seymour/battery-testing-5046.html,oreilly,Your Seymour O'Reilly Auto Parts Store,,Seymour,WI,,US,+1 920-833-0561,https://locations.oreillyauto.com/wi/seymour/battery-testing-5046.html,Mo-Sa 07:00-21:00; Su 08:00-17:00,O'Reilly Auto Parts,Q7071951
https://locations.oreillyauto.com/wi/seymour/autopartes-5046.html,oreilly,Tu tienda O'Reilly Auto Parts en Seymour,,Seymour,WI,,US,+1 920-833-0561,https://locations.oreillyauto.com/wi/seymour/autopartes-5046.html,Mo-Sa 07:00-21:00; Su 08:00-17:00,O'Reilly Auto Parts,Q7071951
https://restaurants.subway.com/#14909955,subway,Subway,,Seymour Outagamie,WI,,US,+1 920-833-6469,https://restaurants.subway.com/united-states/wi/seymour/1028-s-main-st,Mo-Su 08:00-21:00,Subway,Q244457
040253,uhaul,Good To Go Seymour,211 E State Hwy 54,Seymour,WI,,US,+1 920-833-0195,,Mo-Sa 00:00-20:00,U-Haul,Q7862902
1381272,usps,SEYMOUR,,SEYMOUR,WI,,US,+1 920-833-6541,,Mo-Fr 09:00-16:30; Sa 09:00-11:00,United States Postal Service,Q668687
5416500002,usps_collection_boxes,USPS COLLECTION BOX - BLUE BOX,147 W WISCONSIN ST,SEYMOUR,WI,,US,,,,United States Postal Service,Q668687
5416500000,usps_collection_boxes,USPS COLLECTION BOX - PO LOBBY,607 WOODLAND PLZ,SEYMOUR,WI,,US,,,,United States Postal Service,Q668687
5416500005,usps_collection_boxes,USPS COLLECTION BOX - BLUE BOX,607 WOODLAND PLZ,SEYMOUR,WI,,US,,,,United States Postal Service,Q668687
5416500006,usps_collection_boxes,USPS COLLECTION BOX - BLUE BOX,607 WOODLAND PLZ,SEYMOUR,WI,,US,,,,United States Postal Service,Q668687
5416500007,usps_collection_boxes,USPS COLLECTION BOX - PO LOBBY,607 WOODLAND PLZ,SEYMOUR,WI,,US,,,,United States Postal Service,Q668687
5416500008,usps_collection_boxes,USPS COLLECTION BOX - PO LOBBY,607 WOODLAND PLZ,SEYMOUR,WI,,US,,,,United States Postal Service,Q668687
,visa,,,SEYMOUR,WI,,US,,,,,
,visa,,,SEYMOUR,WI,,US,,,,,
,visa,,,SEYMOUR,WI,,US,,,,,
,visa,,,SEYMOUR,WI,,US,,,,,
,visa,,,SEYMOUR,WI,,US,,,,,
,visa,,,SEYMOUR,WI,,US,,,,,
,visa,,,SEYMOUR,WI,,US,,,,,
,visa,,,SEYMOUR,WI,,US,,,,,
,visa,,,SEYMOUR,WI,,US,,,,,
,visa,,,SEYMOUR,WI,,US,,,,,
,visa,,,SEYMOUR,WI,,US,,,,,
