Ref,Spider,Name,Address,City,State,Zipcode,Country,Phone,Website,Hours,Brand,WikiData
218185,bluerhino,Dollar General #22696,,PULASKI,WI,,US,+1 920-489-3290,,,Blue Rhino,Q65681213
187913,bluerhino,United Cooperative #441,,Pulaski,WI,,US,+1 920-822-3235,,,Blue Rhino,Q65681213
164199,bluerhino,Family Dollar #04020,,PULASKI,WI,,US,+1 920-471-0114,,,Blue Rhino,Q65681213
169456,bluerhino,Do It Best- Vern's Hardware #5837,,Pulaski,WI,,US,+1 920-822-1040,,,Blue Rhino,Q65681213
160297,bluerhino,Super Ron's Food Center #720339,,Pulaski,WI,,US,+1 920-822-3300,,,Blue Rhino,Q65681213
81857,bluerhino,Oneida One Stop #2024,,Pulaski,WI,,US,+1 920-869-6250,,,Blue Rhino,Q65681213
18847495249205416200100000000000,bp,BP,,Pulaski,WI,,US,+1 920-822-2883,,Mo-Th 05:00-21:30; Fr 05:00-09:30; Sa 06:00-09:30; Su 06:00-21:00,BP,Q152057
66420,citi,ATM NORTH SHORE BANK,,Pulaski,WI,,US,,,,Citibank,Q857063
66419,citi,ATM NORTH SHORE BANK,,Pulaski,WI,,US,,,,Citibank,Q857063
35457,citi,ATM ASSOCIATED BANK,,Pulaski,WI,,US,,,,Citibank,Q857063
63429,citi,ATM Kwik Trip #946-1,,Pulaski,WI,,US,,,,Citibank,Q857063
63430,citi,ATM Kwik Trip #946-2,,Pulaski,WI,,US,,,,Citibank,Q857063
8361,cousins_subs_us,Pulaski - Mountain Bay Dr. & Hwy. 32,,Pulaski,WI,,US,+1 920-822-5555,https://www.cousinssubs.com/order/cousins-subs-pulaski-mountain-bay-dr-hwy-32,,Cousins Subs,Q5178843
https://www.edwardjones.com/us-en/financial-advisor/russell-winkler,edwardjones,Russell Winkler,,Pulaski,WI,,US,+1 920-822-3033,https://www.edwardjones.com/us-en/financial-advisor/russell-winkler,Mo-Th 08:00-16:30; Fr 08:00-15:00,Edward Jones,Q5343830
200314772,exxonmobil,ONEIDA ONE STOP - TRAVEL CENTER,,PULASKI,WI,,US,+1 920-865-7919,https://www.exxon.com/en/find-station/mobil-pulaski-wi-oneidaonestoptravelcenter-200314772,Mo-Fr 05:00-20:00; Sa-Su 07:00-20:00,Mobil,Q109676002
200312882,exxonmobil,ANGELICA MINI MART,,PULASKI,WI,,US,+1 920-822-3206,https://www.exxon.com/en/find-station/mobil-pulaski-wi-angelicaminimart-200312882,Mo-Sa 06:00-21:00; Su 07:00-21:00,Mobil,Q109676002
24020,family_dollar_us,FAMILY DOLLAR #4020,,Pulaski,WI,,US,+1 920-785-7209,https://www.familydollar.com/locations/wi/pulaski/24020/,Mo-Su 09:00-21:00,Family Dollar,Q5433101
https://www.ford.com/dealerships/dealer-details/wi/pulaski/witt-family-ford/,ford_dealers_us,Witt Family Ford,,Pulaski,WI,,US,+1 920-503-4120,https://www.ford.com/dealerships/dealer-details/wi/pulaski/witt-family-ford/,Mo 09:00-20:00; Tu-We 09:00-18:00; Th 09:00-20:00; Fr 09:00-18:00; Sa 09:00-16:00,Ford Motor Company,Q44294
https://locations.oreillyauto.com/wi/pulaski/check-engine-light-testing-6461.html,oreilly,Your Pulaski O'Reilly Auto Parts Store,,Pulaski,WI,,US,+1 920-822-1519,https://locations.oreillyauto.com/wi/pulaski/check-engine-light-testing-6461.html,Mo-Sa 07:00-21:00; Su 08:00-17:00,O'Reilly Auto Parts,Q7071951
https://locations.oreillyauto.com/wi/pulaski/wiper-installation-6461.html,oreilly,Your Pulaski O'Reilly Auto Parts Store,,Pulaski,WI,,US,+1 920-822-1519,https://locations.oreillyauto.com/wi/pulaski/wiper-installation-6461.html,Mo-Sa 07:00-21:00; Su 08:00-17:00,O'Reilly Auto Parts,Q7071951
https://locations.oreillyauto.com/wi/pulaski/battery-testing-6461.html,oreilly,Your Pulaski O'Reilly Auto Parts Store,,Pulaski,WI,,US,+1 920-822-1519,https://locations.oreillyauto.com/wi/pulaski/battery-testing-6461.html,Mo-Sa 07:00-21:00; Su 08:00-17:00,O'Reilly Auto Parts,Q7071951
https://locations.oreillyauto.com/wi/pulaski/autopartes-6461.html,oreilly,Tu tienda O'Reilly Auto Parts en Pulaski,,Pulaski,WI,,US,+1 920-822-1519,https://locations.oreillyauto.com/wi/pulaski/autopartes-6461.html,Mo-Sa 07:00-21:00; Su 08:00-17:00,O'Reilly Auto Parts,Q7071951
https://restaurants.subway.com/#14907582,subway,Subway,,Pulaski Brown,WI,,US,+1 920-822-7900,https://restaurants.subway.com/united-states/wi/pulaski/450-e-cedar-st,Mo-Su 08:00-21:00,Subway,Q244457
055647,uhaul,Angelica Mini Mart,W1989 Spruce Rd,Pulaski,WI,,US,+1 920-503-4031,,Mo-Sa 00:00-21:00,U-Haul,Q7862902
010166,uhaul,The Lil Red Shed,2301 State Hwy 32,Pulaski,WI,,US,+1 920-336-9572,,Tu-Fr 00:00-18:00; Sa 00:00-15:00,U-Haul,Q7862902
1378522,usps,PULASKI,,PULASKI,WI,,US,+1 920-822-5666,,Mo-Fr 09:00-16:45; Sa 08:30-10:00,United States Postal Service,Q668687
5416200005,usps_collection_boxes,USPS COLLECTION BOX - PO LOBBY,306 S SAINT AUGUSTINE ST,PULASKI,WI,,US,,,,United States Postal Service,Q668687
5416200003,usps_collection_boxes,USPS COLLECTION BOX - PO LOBBY,306 S SAINT AUGUSTINE ST,PULASKI,WI,,US,,,,United States Postal Service,Q668687
5416200000,usps_collection_boxes,USPS COLLECTION BOX - BLUE BOX,306 S SAINT AUGUSTINE ST,PULASKI,WI,,US,,,,United States Postal Service,Q668687
5416200004,usps_collection_boxes,USPS COLLECTION BOX - BLUE BOX,306 S SAINT AUGUSTINE ST,PULASKI,WI,,US,,,,United States Postal Service,Q668687
5416200001,usps_collection_boxes,USPS COLLECTION BOX - BLUE BOX,960 COUNTY ROAD B,PULASKI,WI,,US,,,,United States Postal Service,Q668687
,visa,,,PULASKI,WI,,US,,,,,
,visa,,,PULASKI,WI,,US,,,,,
,visa,,,PULASKI,WI,,US,,,,,
,visa,,,PULASKI,WI,,US,,,,,
,visa,,,PULASKI,WI,,US,,,,,
,visa,,,PULASKI,WI,,US,,,,,
,visa,,,PULASKI,WI,,US,,,,,
,visa,,,PULASKI,WI,,US,,,,,
,visa,,,PULASKI,WI,,US,,,,,
,visa,,,PULASKI,WI,,US,,,,,
,visa,,,PULASKI,WI,,US,,,,,
