Ref,Spider,Name,Address,City,State,Zipcode,Country,Phone,Website,Hours,Brand,WikiData
1470700007,banque_populaire_fr,ST AVOLD,,ST AVOLD,,,FR,+33 3 54 22 10 00,https://agences.banquepopulaire.fr/banque-assurance/agence-st-avold-id1470700007,"Mo 08:45-12:00,13:30-18:00; Tu-We 08:30-12:00,13:30-18:00; Th 09:30-12:00,13:30-18:00; Fr 08:30-12:00,13:30-18:00",Banque Populaire,Q846647
https://laboratoires.biogroup.fr/#25701487,biogroup_fr,BIOGROUP LORRAINE Laboratoire du Forum - Saint-Avold,,,,,FR,+33 3 87 92 41 96,https://laboratoires.biogroup.fr/moselle/saint-avold/6-rue-des-moulins,,Biogroup,Q101559741
https://laboratoires.biogroup.fr/#25701488,biogroup_fr,BIOGROUP LORRAINE Laboratoire Patton - Saint-Avold,,,,,FR,+33 3 87 92 18 31,https://laboratoires.biogroup.fr/moselle/saint-avold/5-rue-de-brack,,Biogroup,Q101559741
4674,carrefour_fr,Carrefour Express,,Saint-Avold,,,FR,,https://www.carrefour.fr/magasin/express-saint-avold,Mo-Sa 08:00-21:00; Su 09:00-13:00,Carrefour Express,Q2940190
200005968,century_21_fr,CENTURY 21 Rond Point de l'Europe,,ST AVOLD,,,FR,+33 3 87 00 00 21,https://www.century21.fr/trouver_agence/agence/200005968/,,Century 21,Q1054480
https://www.credit-agricole.fr/particulier/agence/lorraine/saint-avold-1179.html,credit_agricole,Crédit Agricole,,SAINT-AVOLD,,,FR,+33 3 87 00 32 41,https://www.credit-agricole.fr/particulier/agence/lorraine/saint-avold-1179.html,"Tu-We 08:30-12:00,13:30-18:00; Th 08:30-12:00,15:00-18:00; Fr 08:30-12:00,13:30-18:00; Sa 08:30-12:30",Credit Agricole,Q590952
05450,credit_mutuel_fr,CAISSE DE CREDIT MUTUEL SAINT AVOLD,,ST AVOLD,,,FR,+33 3 87 82 95 05,https://www.creditmutuel.fr/fr/caisses/10278/05450/00/000,,Crédit Mutuel,Q642627
683,croix_rouge_francaise_fr,UNITE LOCALE DE SAINT AVOLD,,ST AVOLD,,,FR,,https://www.croix-rouge.fr/unite-locale-de-saint-avold,Mo-Fr 14:00-18:00,Croix-Rouge française,Q3003244
https://bureaux.kpmg.fr/#location-354,kpmg_fr,KPMG Saint-Avold,,Saint-Avold,,,FR,+33 3 87 91 11 43,https://bureaux.kpmg.fr/fr/france-FR/354/kpmg-saint-avold/details,"Mo-Th 09:00-12:00,14:00-17:30",KPMG,Q493751
38,match_fr,Supermarché Match (Saint-Avold),,SAINT-AVOLD,,,FR,+33 3 87 89 10 49,,Mo-Sa 08:00-20:00,Match,Q513977
1033,mcdonalds_fr,SAINT AVOLD MANGIN,,SAINT AVOLD,,,FR,+33 3 57 85 01 54,https://www.mcdonalds.fr/restaurants/mcdonalds-saint-avold-mangin/1033,Mo-Su 10:30-23:00,McDonald's,Q38076
74094893,moneygram,ENNOUR - SAINT-AVOLD,,SAINT-AVOLD,,,FR,+33 6 62 81 97 34,,Mo-Su 08:00-21:00,MoneyGram,Q1944412
74804546,moneygram,L'EPICERIE DE SAINT AVOLD,,SAINT AVOLD,,,FR,+33 6 21 81 23 49,,Mo-Su 08:00-21:00,MoneyGram,Q1944412
256-opticien-saint-avold-optical-center,optical_center,Opticien SAINT-AVOLD Optical Center,,SAINT-AVOLD,,,FR,+33 3 87 97 02 03,https://opticien.optical-center.fr/256-opticien-saint-avold-optical-center,Mo-Sa 09:00-19:00,Optical Center,Q3354448
771-optical-center-oc-mobile-saint-avold,optical_center,Optical Center OC MOBILE SAINT-AVOLD,,SAINT-AVOLD,,,FR,+33 7 71 26 70 31,https://opticien.optical-center.fr/771-optical-center-oc-mobile-saint-avold,Mo-Sa 10:00-19:00,Optical Center,Q3354448
00000410_001-renault,renault,RENAULT SAINT AVOLD,,ST AVOLD,,,FR,+33 3 87 91 83 83,,,Renault,Q6686
00000410_001-dacia,renault,RENAULT SAINT AVOLD,,ST AVOLD,,,FR,+33 3 87 91 83 83,,,Dacia,Q27460
NF006639,totalenergies,SARL KL DISTRIBUTION,,SAINT AVOLD,,,FR,+33 3 87 92 29 82,https://store.totalenergies.fr/en_EN/NF006639,Mo-Fr 06:30-20:30; Sa 07:30-18:30,TotalEnergies,Q154037
,visa,,,ST AVOLD,,,FR,,,,,
,visa,,,ST AVOLD,,,FR,,,,,
,visa,,,SAINT AVOLD,,,FR,,,,,
,visa,,,SAINT-AVOLD,,,FR,,,,,
,visa,,,SAINT-AVOLD,,,FR,,,,,
,visa,,,SAINT AVOLD,,,FR,,,,,
,visa,,,SAINT AVOLD,,,FR,,,,,
,visa,,,SAINT-AVOLD,,,FR,,,,,
,visa,,,ST AVOLD,,,FR,,,,,
,visa,,,ST AVOLD,,,FR,,,,,
