Ref,Spider,Name,Address,City,State,Zipcode,Country,Phone,Website,Hours,Brand,WikiData
11737,ace_hardware,KAPAA ACE HARDWARE,,KAPAA,HI,,US,+1 808-822-7751,,Mo-Sa 07:00-19:00; Su 07:00-18:00,Ace Hardware,Q4672981
5209,autozone_us,AutoZone Auto Parts Kapaa,,Kapaa,HI,,US,+1 808-822-2267,https://www.autozone.com/locations/hi/kapaa/4-771-kuhio-hwy-107.html,Mo-Sa 07:30-21:00; Su 08:00-21:00,AutoZone,Q4826087
9573,bank_of_hawaii_us,Safeway Kapaa,,Kapaa,HI,,US,,,,Bank of Hawaii,Q4856124
9570,bank_of_hawaii_us,Big Save Kapaa,,Kapaa,HI,,US,,,,Bank of Hawaii,Q4856124
9091,bank_of_hawaii_us,Kapaa Branch,,Kapaa,HI,,US,+1 808-822-3471,,Mo-Fr 08:00-16:00; Sa 09:00-13:00,Bank of Hawaii,Q4856124
9572,bank_of_hawaii_us,Menehune Food Mart - Kapaa,,Kapaa,HI,,US,,,,Bank of Hawaii,Q4856124
92866,chevron,Texaco Station #92866,994 KUHIO HWY,KAPAA,HI,,US,+1 808-822-5318,,,Chevron,Q319642
64107,citi,ATM Longs Drugs,,Kapaa,HI,,US,,,,Citibank,Q857063
9952,cvs_us,Longs Drugs,,Kapaa,HI,,US,+1 808-822-4918,https://www.cvs.com/store-locator/kapaa-hi-pharmacies/645-aleka-loop-kapaa-hi-96746/storeid=9952,Mo-Th 07:00-23:00; Fr-Sa 07:00-00:00; Su 07:00-23:00,Longs Drugs,Q16931196
https://local.fedex.com/#27766916,fedex,FedEx Authorized ShipCenter,,Kapaa,HI,,US,+1 808-822-5195,https://local.fedex.com/en-us/hi/kapaa/58809,,FedEx,Q459477
51,first_hawaiian_bank,First Hawaiian Bank Kapaa Branch,,Kapa ªa,HI,,US,+1 808-822-4966,,Mo-Fr 08:30-16:00,First Hawaiian Bank,Q3072937
https://office.jacksonhewitt.com/#1029203075,jackson_hewitt,Jackson Hewitt,,Kapaa,HI,,US,+1 800-234-1040,https://office.jacksonhewitt.com/tax-preparation-services-locations/en/hi/kapaa/4-831-kuhio-highway/14604,,Jackson Hewitt,Q6117132
https://healthy.kaiserpermanente.org/hawaii/facilities/the-clinic-at-kapaa-434091,kaiser_permanente_us,The Clinic at Kapaa,,Kapaa,HI,,US,+1 808-823-4157,https://healthy.kaiserpermanente.org/hawaii/facilities/the-clinic-at-kapaa-434091,,Kaiser Permanente,Q1721601
https://healthy.kaiserpermanente.org/hawaii/facilities/tanya-gamby-phd-inc-142173,kaiser_permanente_us,"Tanya Gamby, Ph.D. Inc.",,Kapaa,HI,,US,+1 808-821-2027,https://healthy.kaiserpermanente.org/hawaii/facilities/tanya-gamby-phd-inc-142173,,Kaiser Permanente,Q1721601
https://healthy.kaiserpermanente.org/hawaii/facilities/samuel-mahelona-memorial-hospital-300142,kaiser_permanente_us,Samuel Mahelona Memorial Hospital,,Kapaa,HI,,US,+1 808-822-4961,https://healthy.kaiserpermanente.org/hawaii/facilities/samuel-mahelona-memorial-hospital-300142,,Kaiser Permanente,Q1721601
https://healthy.kaiserpermanente.org/hawaii/facilities/ohana-sports-medicine-kapaa-llc-139501,kaiser_permanente_us,Ohana Sports Medicine Kapaa LLC,,Kapaa,HI,,US,+1 808-826-6000,https://healthy.kaiserpermanente.org/hawaii/facilities/ohana-sports-medicine-kapaa-llc-139501,,Kaiser Permanente,Q1721601
https://healthy.kaiserpermanente.org/hawaii/facilities/longs-drugs-pharmacy-kapaa-no-09952-300308,kaiser_permanente_us,Longs Drugs Pharmacy - Kapaa No. 09952,,Kapaa,HI,,US,+1 808-822-4918,https://healthy.kaiserpermanente.org/hawaii/facilities/longs-drugs-pharmacy-kapaa-no-09952-300308,,Kaiser Permanente,Q1721601
https://healthy.kaiserpermanente.org/hawaii/facilities/kauai-integrative-therapies-llc-171969,kaiser_permanente_us,"Kauai Integrative Therapies, LLC",,Kapaa,HI,,US,+1 808-346-5859,https://healthy.kaiserpermanente.org/hawaii/facilities/kauai-integrative-therapies-llc-171969,,Kaiser Permanente,Q1721601
https://healthy.kaiserpermanente.org/hawaii/facilities/kauai-health-healing-partners-llc-140173,kaiser_permanente_us,Kauai Health & Healing Partners LLC,,Kapaa,HI,,US,+1 808-212-5966,https://healthy.kaiserpermanente.org/hawaii/facilities/kauai-health-healing-partners-llc-140173,,Kaiser Permanente,Q1721601
https://healthy.kaiserpermanente.org/hawaii/facilities/dr-steven-pappas-142197,kaiser_permanente_us,Dr Steven Pappas,,Kapaa,HI,,US,+1 808-278-3133,https://healthy.kaiserpermanente.org/hawaii/facilities/dr-steven-pappas-142197,,Kaiser Permanente,Q1721601
LIHSK,marriott,Sheraton Kauai Coconut Beach Resort,,Kapaa,HI,,US,+1 808-822-3455,https://www.marriott.com/LIHSK,,Sheraton Hotels and Resorts,Q634831
https://locations.oreillyauto.com/hi/kapaa/wiper-installation-5855.html,oreilly,Your Kapaa O'Reilly Auto Parts Store,,Kapaa,HI,,US,+1 808-720-4050,https://locations.oreillyauto.com/hi/kapaa/wiper-installation-5855.html,Mo-Su 07:30-21:00,O'Reilly Auto Parts,Q7071951
https://locations.oreillyauto.com/hi/kapaa/check-engine-light-testing-5855.html,oreilly,Your Kapaa O'Reilly Auto Parts Store,,Kapaa,HI,,US,+1 808-720-4050,https://locations.oreillyauto.com/hi/kapaa/check-engine-light-testing-5855.html,Mo-Su 07:30-21:00,O'Reilly Auto Parts,Q7071951
https://locations.oreillyauto.com/hi/kapaa/battery-testing-5855.html,oreilly,Your Kapaa O'Reilly Auto Parts Store,,Kapaa,HI,,US,+1 808-720-4050,https://locations.oreillyauto.com/hi/kapaa/battery-testing-5855.html,Mo-Su 07:30-21:00,O'Reilly Auto Parts,Q7071951
https://locations.oreillyauto.com/hi/kapaa/autopartes-5855.html,oreilly,O'Reilly Auto Parts,,Kapaa,HI,,US,+1 808-720-4050,https://locations.oreillyauto.com/hi/kapaa/autopartes-5855.html,Mo-Su 07:30-21:00,O'Reilly Auto Parts,Q7071951
111841,pandaexpress,Kauai Village,,Kapaa,HI,,US,+1 808-821-9696,https://www.pandaexpress.com/locations/hi/kapaa/4-831-kuhio-highway,Mo-Su 10:00-21:30,Panda Express,Q1358690
ppg-paints-9315-21841,ppgpaints,PPG Paints 9315,,"Kapaa, ",HI,,US,+1 808-822-1788,https://www.ppgpaints.com/store-locator/us/hawaii/kapaa-paint-stores/ppg-paints-9315-21841,,PPG Paints,Q83891559
https://local.pharmacy.safeway.com/#5673126,safeway,Safeway Pharmacy,,Kapaa,HI,,US,+1 808-822-2191,https://local.pharmacy.safeway.com/safeway/hi/kapaa/4-831-kuhio-hwy.html,,Safeway,Q1508234
https://local.safeway.com/#5603961,safeway,Safeway,,Kapaa,HI,,US,+1 808-822-2464,https://local.safeway.com/safeway/hi/kapaa/4-831-kuhio-hwy.html,,Safeway,Q1508234
https://restaurants.subway.com/#14908193,subway,Subway Kauai Village Shopping Cntr,,Kapaa Kauai,HI,,US,+1 808-821-8877,https://restaurants.subway.com/united-states/hi/kapaa/4-831-kuhio-hwy,Mo-Fr 07:00-20:30; Sa 08:00-20:30; Su 09:00-20:30,Subway,Q244457
https://locations.tacobell.com/#6143294,taco_bell,Taco Bell,,Kapaa,HI,,US,+1 808-822-3770,https://locations.tacobell.com/hi/kapaa/4-927-kuhio-hwy.html,Mo-Su 11:00-19:00,Taco Bell,Q752941
586F,tmobile_us,Kauai Village Shopping Center,,Kapaa,HI,,US,+1 808-977-6036,https://www.t-mobile.com/store-locator/hi/kapaa/kauai-village-shopping-center,,T-Mobile,Q3511885
6097,upsstore,Safeway Shopping Center,4-831 Kuhio Hwy Ste 438,Kapaa,HI,,US,+1 808-821-0735,https://locations.theupsstore.com/hi/kapaa/4-831-kuhio-hwy,,UPS Store,Q7771029
1368691,usps,KAPAA,,KAPAA,HI,,US,+1 808-822-0093,,Mo-Fr 09:00-16:00; Sa 09:00-13:00,United States Postal Service,Q668687
9674600013,usps_collection_boxes,USPS COLLECTION BOX - BLUE BOX,4-1359 KUHIO HWY,KAPAA,HI,,US,,,,United States Postal Service,Q668687
9674600009,usps_collection_boxes,USPS COLLECTION BOX - EXPRESS,4-1101 KUHIO HWY,KAPAA,HI,,US,,,,United States Postal Service,Q668687
9674600010,usps_collection_boxes,USPS COLLECTION BOX - PO LOBBY,4-1101 KUHIO HWY,KAPAA,HI,,US,,,,United States Postal Service,Q668687
9674600018,usps_collection_boxes,USPS COLLECTION BOX - PO LOBBY,4-1101 KUHIO HWY,KAPAA,HI,,US,,,,United States Postal Service,Q668687
9674600002,usps_collection_boxes,USPS COLLECTION BOX - BLUE BOX,4-1105 KUHIO HWY,KAPAA,HI,,US,,,,United States Postal Service,Q668687
9674600003,usps_collection_boxes,USPS COLLECTION BOX - BLUE BOX,4-831 KUHIO HWY,KAPAA,HI,,US,,,,United States Postal Service,Q668687
9674600004,usps_collection_boxes,USPS COLLECTION BOX - BLUE BOX,4-771 KUHIO HWY,KAPAA,HI,,US,,,,United States Postal Service,Q668687
9674600006,usps_collection_boxes,USPS COLLECTION BOX - BLUE BOX,4-484 KUHIO HWY,KAPAA,HI,,US,,,,United States Postal Service,Q668687
,visa,,,WAIALUA,HI,,US,,,,,
,visa,,,KAPAA,HI,,US,,,,,
,visa,,,KAPAA,HI,,US,,,,,
,visa,,,KAPAA,HI,,US,,,,,
,visa,,,KAPPA,HI,,US,,,,,
,visa,,,KAPAA,HI,,US,,,,,
,visa,,,KAPAA,HI,,US,,,,,
,visa,,,KAPAA KAUAI,HI,,US,,,,,
,visa,,,KAPAA,HI,,US,,,,,
,visa,,,KAPAA,HI,,US,,,,,
,visa,,,KAPAA-KAUAI,HI,,US,,,,,
,visa,,,KAPAA,HI,,US,,,,,
,visa,,,KAPAA,HI,,US,,,,,
,visa,,,KAPAA,HI,,US,,,,,
,visa,,,KAPAA KAUAI,HI,,US,,,,,
,visa,,,KAAPA,HI,,US,,,,,
,visa,,,KAPAA,HI,,US,,,,,
,visa,,,KONA,HI,,US,,,,,
,visa,,,KAPAA,HI,,US,,,,,
d40cf03708c5258517aa910690e3c341,western_union,SAFEWAY #1209,,Kapaa,HI,,US,+1 808-822-2464,https://location.westernunion.com/us/hi/kapaa/d40cf03708c5258517aa910690e3c341,Mo-Su 08:00-19:00,Western Union,Q861042
36011b20f022269926e4d5964972db45,western_union,BIG SAVE - KAPA'A #31,,Kapaa,HI,,US,+1 808-822-4971,https://location.westernunion.com/us/hi/kapaa/36011b20f022269926e4d5964972db45,Mo-Su 09:00-19:00,Western Union,Q861042
