Ref,Spider,Name,Address,City,State,Zipcode,Country,Phone,Website,Hours,Brand,WikiData
,visa,,,BELMAR,NJ,,US,,,,,
,visa,,,BELMAR,NJ,,US,,,,,
,visa,,,BELMAR,NJ,,US,,,,,
,visa,,,BELMAR,NJ,,US,,,,,
,visa,,,BELMAR,NJ,,US,,,,,
,visa,,,WILDWOOD,NJ,,US,,,,,
,visa,,,BELMAR,NJ,,US,,,,,
,visa,,,BELMAR,NJ,,US,,,,,
,visa,,,BELMAR,NJ,,US,,,,,
,visa,,,BELMAR,NJ,,US,,,,,
,visa,,,BELMAR,NJ,,US,,,,,
,visa,,,BELMAR,NJ,,US,,,,,
,visa,,,BELMAR,NJ,,US,,,,,
,visa,,,BELMAR,NJ,,US,,,,,
,visa,,,BELMAR,NJ,,US,,,,,
,visa,,,BELMAR,NJ,,US,,,,,
,visa,,,BELMAR,NJ,,US,,,,,
,visa,,,BELMAR,NJ,,US,,,,,
,visa,,,BELMAR,NJ,,US,,,,,
,visa,,,BELMAR,NJ,,US,,,,,
,visa,,,BELMAR,NJ,,US,,,,,
,visa,,,BELMAR,NJ,,US,,,,,
,visa,,,BELMAR,NJ,,US,,,,,
,visa,,,POINT PLEASANT,NJ,,US,,,,,
,visa,,,POINT PLEASANT,NJ,,US,,,,,
,visa,,,MANASQUAN,NJ,,US,,,,,
,visa,,,MONMOUTH BEACH,NJ,,US,,,,,
,visa,,,SEA BRIGHT,NJ,,US,,,,,
,visa,,,BELMAR,NJ,,US,,,,,
,visa,,,LAKE COMO,NJ,,US,,,,,
,visa,,,SPRING LAKE,NJ,,US,,,,,
,visa,,,ELWOOD,NJ,,US,,,,,
,visa,,,LAKE COMO,NJ,,US,,,,,
,visa,,,BELMAR,NJ,,US,,,,,
,visa,,,BRADLEY BEACH,NJ,,US,,,,,
,visa,,,LONG BRANCH,NJ,,US,,,,,
,visa,,,PT. PLEASANT,NJ,,US,,,,,
,visa,,,BELMAR,NJ,,US,,,,,
,visa,,,BELMAR,NJ,,US,,,,,
,visa,,,BELMAR,NJ,,US,,,,,
,visa,,,BELMAR,NJ,,US,,,,,
,visa,,,SO BELMAR,NJ,,US,,,,,
,visa,,,LAKE COMO,NJ,,US,,,,,
,visa,,,BELMAR,NJ,,US,,,,,
,visa,,,BELMAR,NJ,,US,,,,,
,visa,,,BELMAR,NJ,,US,,,,,
,visa,,,LAKE COMO,NJ,,US,,,,,
,visa,,,SO. BELMAR,NJ,,US,,,,,
,visa,,,BELMAR,NJ,,US,,,,,
,visa,,,BELMAR,NJ,,US,,,,,
,visa,,,BELMAR,NJ,,US,,,,,
,visa,,,BELMAR,NJ,,US,,,,,
,visa,,,BELMAR,NJ,,US,,,,,
,visa,,,BELMAR,NJ,,US,,,,,
,visa,,,BELMAR,NJ,,US,,,,,
,visa,,,BELMAR,NJ,,US,,,,,
,visa,,,BELMAR,NJ,,US,,,,,
,visa,,,BELMAR,NJ,,US,,,,,
,visa,,,LAKE COMO,NJ,,US,,,,,
,visa,,,BELMAR,NJ,,US,,,,,
,visa,,,BELMAR,NJ,,US,,,,,
,visa,,,BELMAR,NJ,,US,,,,,
,visa,,,BELMAR,NJ,,US,,,,,
,visa,,,SO. BELMAR,NJ,,US,,,,,
,visa,,,BELMAR,NJ,,US,,,,,
,visa,,,BELMAR,NJ,,US,,,,,
,visa,,,BELMAR,NJ,,US,,,,,
,visa,,,BELMAR,NJ,,US,,,,,
,visa,,,LAKE COMO,NJ,,US,,,,,
,visa,,,BELMAR,NJ,,US,,,,,
,visa,,,BELMAR,NJ,,US,,,,,
,visa,,,BELMAR,NJ,,US,,,,,
,visa,,,LAKE COMO,NJ,,US,,,,,
,visa,,,BELMAR,NJ,,US,,,,,
,visa,,,BELMAR,NJ,,US,,,,,
,visa,,,SOUTH BELMAR,NJ,,US,,,,,
,visa,,,BELMAR,NJ,,US,,,,,
,visa,,,BELMAR,NJ,,US,,,,,
,visa,,,BELMAR,NJ,,US,,,,,
,visa,,,BELMAR,NJ,,US,,,,,
,visa,,,BELMAR,NJ,,US,,,,,
,visa,,,BELMAR,NJ,,US,,,,,
,visa,,,BELMAR,NJ,,US,,,,,
,visa,,,WALL,NJ,,US,,,,,
,visa,,,SOUTH BOARD BROOK,NJ,,US,,,,,
,visa,,,UNION CITY,NJ,,US,,,,,
,visa,,,BRIELLE,NJ,,US,,,,,
,visa,,,WALL,NJ,,US,,,,,
,visa,,,POINT PLEASANT,NJ,,US,,,,,
,visa,,,BELMAR,NJ,,US,,,,,
,visa,,,BELMAR,NJ,,US,,,,,
,visa,,,WALL TWP,NJ,,US,,,,,
,visa,,,WALL TOWNSHIP,NJ,,US,,,,,
,visa,,,WALL,NJ,,US,,,,,
,visa,,,WALL TOWNSHIP,NJ,,US,,,,,
,visa,,,WALL TOWNSHIP,NJ,,US,,,,,
,visa,,,WAYNE,NJ,,US,,,,,
,visa,,,CLIFFSIE PARK,NJ,,US,,,,,
,visa,,,POINT PLEASANT,NJ,,US,,,,,
,visa,,,NEPTUNE,NJ,,US,,,,,
,visa,,,WALL,NJ,,US,,,,,
,visa,,,WALL TOWNSHIP,NJ,,US,,,,,
,visa,,,WALL,NJ,,US,,,,,
,visa,,,BELMAR,NJ,,US,,,,,
,visa,,,WALL TOWNSHIP,NJ,,US,,,,,
,visa,,,BRICK,NJ,,US,,,,,
,visa,,,TOMS RIVER,NJ,,US,,,,,
,visa,,,ALLENWOOD,NJ,,US,,,,,
,visa,,,BRICK,NJ,,US,,,,,
,visa,,,NEPTUNE,NJ,,US,,,,,
,visa,,,TOMS RIVER,NJ,,US,,,,,
,visa,,,WALL,NJ,,US,,,,,
,visa,,,EATONTOWN,NJ,,US,,,,,
,visa,,,RED BANK,NJ,,US,,,,,
,visa,,,BRICK,NJ,,US,,,,,
,visa,,,TOMS RIVER,NJ,,US,,,,,
,visa,,,TOMS RIVER,NJ,,US,,,,,
,visa,,,BARNEGAT,NJ,,US,,,,,
,visa,,,LAKEWOOD,NJ,,US,,,,,
,visa,,,ENGLEWOOD,NJ,,US,,,,,
,visa,,,CLIFFSIDE PARK,NJ,,US,,,,,
,visa,,,NORTHVALE,NJ,,US,,,,,
,visa,,,LAKEWOOD,NJ,,US,,,,,
,visa,,,FAIRVIEW,NJ,,US,,,,,
,visa,,,LEONIA,NJ,,US,,,,,
,visa,,,WEST NEW YORK,NJ,,US,,,,,
,visa,,,RIDGEFIELD,NJ,,US,,,,,
,visa,,,HOBOKEN,NJ,,US,,,,,
,visa,,,HOBOKEN,NJ,,US,,,,,
,visa,,,JERSEY CITY,NJ,,US,,,,,
,visa,,,BERGENFIELD,NJ,,US,,,,,
,visa,,,JERSEY CITY,NJ,,US,,,,,
,visa,,,UNION CITY,NJ,,US,,,,,
,visa,,,COLTS NECK,NJ,,US,,,,,
,visa,,,BOGOTA,NJ,,US,,,,,
,visa,,,TUCKERTON,NJ,,US,,,,,
,visa,,,WEST KEANSBURG,NJ,,US,,,,,
,visa,,,HOWELL,NJ,,US,,,,,
,visa,,,LITTLE EGG HARBOR,NJ,,US,,,,,
,visa,,,UNION BEACH,NJ,,US,,,,,
,visa,,,HOWELL,NJ,,US,,,,,
,visa,,,BAYONNE,NJ,,US,,,,,
,visa,,,HOWELL,NJ,,US,,,,,
,visa,,,RUTHERFORD,NJ,,US,,,,,
,visa,,,FREEHOLD,NJ,,US,,,,,
,visa,,,KEYPORT,NJ,,US,,,,,
,visa,,,KEYPORT,NJ,,US,,,,,
,visa,,,KEYPORT,NJ,,US,,,,,
,visa,,,NORTH ARLINGTON,NJ,,US,,,,,
,visa,,,JACKSON,NJ,,US,,,,,
,visa,,,NEWARK,NJ,,US,,,,,
,visa,,,FREEHOLD,NJ,,US,,,,,
,visa,,,MATAWAN,NJ,,US,,,,,
,visa,,,MATAWAN,NJ,,US,,,,,
,visa,,,FREEHOLD,NJ,,US,,,,,
,visa,,,FREEHOLD,NJ,,US,,,,,
,visa,,,HARRISON,NJ,,US,,,,,
,visa,,,KEARNEY,NJ,,US,,,,,
,visa,,,HARRISON,NJ,,US,,,,,
,visa,,,NEWARK,NJ,,US,,,,,
,visa,,,NEWARK,NJ,,US,,,,,
,visa,,,NEWARK,NJ,,US,,,,,
,visa,,,ELIZABETH,NJ,,US,,,,,
,visa,,,FREEHOLD,NJ,,US,,,,,
,visa,,,BLOOMFIELD,NJ,,US,,,,,
,visa,,,BLOOMFIELD,NJ,,US,,,,,
,visa,,,PLEASANTVILLE,NJ,,US,,,,,
,visa,,,SOUTH AMBOY,NJ,,US,,,,,
,visa,,,SOUTH AMBOY,NJ,,US,,,,,
,visa,,,RAHWAY,NJ,,US,,,,,
,visa,,,OCEAN CITY,NJ,,US,,,,,
,visa,,,UNION,NJ,,US,,,,,
,visa,,,WEST ORANGE,NJ,,US,,,,,
,visa,,,ORANGE,NJ,,US,,,,,
,visa,,,WEST ORANGE,NJ,,US,,,,,
,visa,,,UNION,NJ,,US,,,,,
,visa,,,VERONA,NJ,,US,,,,,
,visa,,,VERONA,NJ,,US,,,,,
,visa,,,WAYNE,NJ,,US,,,,,
,visa,,,CLARK,NJ,,US,,,,,
,visa,,,EGG HARBOR,NJ,,US,,,,,
,visa,,,MONROE TOWNSHIP,NJ,,US,,,,,
,visa,,,PERRINEVILLE,NJ,,US,,,,,
,visa,,,SOUTH RIVER,NJ,,US,,,,,
,visa,,,HELMETTA,NJ,,US,,,,,
,visa,,,FAIRFIELD,NJ,,US,,,,,
,visa,,,MILLTOWN,NJ,,US,,,,,
,visa,,,SOUTH PLAINFIELD,NJ,,US,,,,,
,visa,,,NORTH PLAINFIELD,NJ,,US,,,,,
,visa,,,WATCHUNG,NJ,,US,,,,,
,visa,,,BERKELEY HEIGHTS,NJ,,US,,,,,
,visa,,,WHIPPANY,NJ,,US,,,,,
,visa,,,WINDSOR,NJ,,US,,,,,
,visa,,,CEDAR KNOLLS,NJ,,US,,,,,
,visa,,,STIRLING,NJ,,US,,,,,
,visa,,,RIO GRANDE,NJ,,US,,,,,
,visa,,,MORRISTOWN,NJ,,US,,,,,
,visa,,,MORRISTOWN,NJ,,US,,,,,
,visa,,,PLAINSBORO,NJ,,US,,,,,
,visa,,,FOLSOM,NJ,,US,,,,,
,visa,,,HAMILTON,NJ,,US,,,,,
,visa,,,TRENTON,NJ,,US,,,,,
,visa,,,BURLINGTON,NJ,,US,,,,,
,visa,,,BERLIN,NJ,,US,,,,,
,visa,,,MARLTON,NJ,,US,,,,,
,visa,,,CLEMENTON,NJ,,US,,,,,
,visa,,,SICKLERVILLE,NJ,,US,,,,,
,visa,,,CHERRY HILL,NJ,,US,,,,,
,visa,,,BLACKWOOD,NJ,,US,,,,,
,visa,,,BLACKWOOD,NJ,,US,,,,,
,visa,,,SEWELL,NJ,,US,,,,,
,visa,,,RUNNEMEDE,NJ,,US,,,,,
,visa,,,RUNNEMEDE,NJ,,US,,,,,
,visa,,,BELLMAWR,NJ,,US,,,,,
,visa,,,OAKLYN,NJ,,US,,,,,
,visa,,,CAMDEN,NJ,,US,,,,,
,visa,,,CAMDEN,NJ,,US,,,,,
,visa,,,BRIDGETON,NJ,,US,,,,,
