Ref,Spider,Name,Address,City,State,Zipcode,Country,Phone,Website,Hours,Brand,WikiData
80823,att_us,JUNCTION BOULEVARD STORE,,Corona,NY,,US,+1 718-898-0140,https://www.att.com/stores/new-york/corona/80823,Mo-Sa 10:00-20:00; Su 11:00-19:00,AT&T,Q298594
https://locators.bankofamerica.com/ny/corona/financial-centers-corona-16823.html,bankofamerica,Bank of America Financial Center & Walk-Up ATM | Corona,,Corona,NY,,US,+1 718-663-2303,https://locators.bankofamerica.com/ny/corona/financial-centers-corona-16823.html,Mo-Fr 09:00-17:00; Sa 09:00-14:00,Bank of America,Q487907
https://locations.baskinrobbins.com/ny/corona/37-76-junction-blvd-356378-br,baskin_robbins_us,Baskin-Robbins™,,Corona,NY,,US,+1 718-397-5770,https://locations.baskinrobbins.com/ny/corona/37-76-junction-blvd-356378-br,24/7,Baskin-Robbins,Q584601
https://locations.baskinrobbins.com/ny/flushing/9925-horace-harding-expy-330267-br,baskin_robbins_us,Baskin-Robbins™,,Flushing,NY,,US,+1 718-271-9222,https://locations.baskinrobbins.com/ny/flushing/9925-horace-harding-expy-330267-br,24/7,Baskin-Robbins,Q584601
https://locations.baskinrobbins.com/ny/corona/5401-108th-st-340817-br,baskin_robbins_us,Baskin-Robbins™,,Corona,NY,,US,+1 917-745-1570,https://locations.baskinrobbins.com/ny/corona/5401-108th-st-340817-br,Mo-Su 06:00-22:00,Baskin-Robbins,Q584601
02234695959491136800100000000000,bp,BP,,Queens,NY,,US,+1 718-592-1247,,24/7,BP,Q152057
74028892233151136800100000000000,bp,BP,,Queens,NY,,US,+1 718-457-0447,,24/7,BP,Q152057
19940,burgerking,Burger King,,Queens,NY,,US,+1 347-813-4753,https://www.bk.com/store-locator/store/restaurant_13530,24/7,Burger King,Q177054
2041803,chase_us,Corona 99th St - New branch,,Corona,NY,,US,+1 718-699-2493,https://locator.chase.com/ny/corona/5702-99th-st,Mo-Fr 09:00-17:00; Sa 09:00-14:00,Chase,Q524629
2041696,chase_us,Corona 103rd St - New branch,,Corona,NY,,US,+1 718-335-6117,https://locator.chase.com/ny/corona/37-94-103rd-st,Mo-Fr 09:00-17:00; Sa 09:00-14:00,Chase,Q524629
2041749,chase_us,Junction Blvd - New branch - Newly renovated,,Corona,NY,,US,+1 718-476-5867,https://locator.chase.com/ny/corona/37-29-junction-blvd,Mo-Fr 09:00-17:00; Sa 09:00-14:00,Chase,Q524629
ny_corona_3747-junction-blvd,chipotle, ,,Corona,NY,,US,+1 718-593-4731,https://locations.chipotle.com/ny/corona/3747-junction-blvd,,Chipotle,Q465751
queens/6022,claires,Shop Ear Piercings & Jewelry at 37-60 Junction Blvd.,,QUEENS,NY,,US,+1 718-458-1506,https://stores.claires.com/us/ny/queens/6022.html,Mo-Su 11:00-19:00,Claire's,Q2974996
80132160,cricket_wireless,Cricket Wireless Authorized Retailer,,Corona,NY,,US,+1 718-205-9000,https://www.cricketwireless.com/stores/ll/US/NY/Corona/4018-Junction-Blvd,Mo-Sa 10:00-20:00; Su 10:00-18:00,Cricket Wireless,Q5184987
345493,dunkin_us,Dunkin',,Corona,NY,,US,+1 718-424-2592,https://locations.dunkindonuts.com/en/ny/corona/10227-roosevelt-ave/345493,24/7,Dunkin',Q847743
356378,dunkin_us,Dunkin',,Corona,NY,,US,+1 718-397-5770,https://locations.dunkindonuts.com/en/ny/corona/37-76-junction-blvd/356378,24/7,Dunkin',Q847743
340817,dunkin_us,Dunkin',,Corona,NY,,US,+1 917-745-1570,https://locations.dunkindonuts.com/en/ny/corona/5401-108th-st/340817,Mo-Su 06:00-22:00,Dunkin',Q847743
364273,dunkin_us,Dunkin',,Queens,NY,,US,+1 718-255-1582,https://locations.dunkindonuts.com/en/ny/queens/108-68-roosevelt-avenue/364273,24/7,Dunkin',Q847743
330267,dunkin_us,Dunkin',,Flushing,NY,,US,+1 718-271-9222,https://locations.dunkindonuts.com/en/ny/flushing/9925-horace-harding-expy/330267,24/7,Dunkin',Q847743
200330425,exxonmobil,Mobil,,FLUSHING,NY,,US,,https://www.exxon.com/en/find-station/mobil-flushing-ny-mobil-200330425,,Mobil,Q109676002
200310021,exxonmobil,KINGS 108 CAR CARE,,CORONA,NY,,US,+1 718-271-2434,https://www.exxon.com/en/find-station/mobil-corona-ny-kings108carcare-200310021,24/7,Mobil,Q109676002
Motorcraft3321USAEnglish,ford,Di Blasi Motors Inc,,New York,NY,,US,+1 718-898-6100,,,Ford,Q44294
7679,gamestop_us,Junction Blvd,,Corona,NY,,US,+1 718-507-2752,https://www.gamestop.com/search/?store=7679,Mo-Th 12:00-20:00; Fr-Sa 12:00-21:00; Su 12:00-20:00,GameStop,Q202210
https://stores.gnc.com/#91941159,gnc,GNC 37-58 JUNCTION BLVD,,,NY,,US,+1 718-730-1106,https://stores.gnc.com/all-stores-new-york/corona/37-58-junction-blvd,Mo-Sa 10:00-19:00; Su 11:00-18:00,GNC,Q4808595
2172,gulf_pr_us,HORACE GAS INC,,Corona,NY,,US,+1 718-699-7152,https://www.gulfoil.com/horace-gas-inc,,Gulf Oil,Q5617505
30718,h_r_block,H&R Block,,Corona,NY,,US,+1 718-396-0237,https://www.hrblock.com/local-tax-offices/new-york/corona/40-19-jct-blvd/30718/,,H&R Block,Q5627799
23464,h_r_block,H&R Block,,Corona,NY,,US,+1 347-396-5523,https://www.hrblock.com/local-tax-offices/new-york/corona/96-15-37th-ave/23464/,,H&R Block,Q5627799
https://locations.kfc.com/#26844344,kfc,Chicken Nuggets Near Corona,,Corona,NY,,US,,https://locations.kfc.com/ny/corona/39-21-103rd-street/chickennugget,Mo-Th 10:30-23:00; Fr-Sa 10:30-24:00; Su 10:30-22:00,KFC,Q524757
NYCQC,marriott,SpringHill Suites New York LaGuardia Airport,,Corona,NY,,US,+1 718-651-5000,https://www.marriott.com/NYCQC,,SpringHill Suites,Q7580351
18784,mattress_firm_us,Mattress Firm Jackson Heights,,Corona,NY,,US,+1 718-514-8097,https://www.mattressfirm.com/en-us/stores/ny/corona/169013/,,Mattress Firm,Q6791878
71919324,moneygram,SHERWOOD PHARMACY,,CORONA,NY,,US,+1 718-699-7700,,Mo-Fr 09:00-19:30; Sa 09:00-19:00; Su 00:00-24:00,MoneyGram,Q1944412
69114296,moneygram,TRANS MULTISERVICE CORP - #2 - CORONA,,CORONA,NY,,US,+1 718-424-4555,,Mo-Su 08:00-21:01,MoneyGram,Q1944412
72632901,moneygram,VARIETY MERCHANDISE CORP,,CORONA,NY,,US,+1 917-603-7150,,Mo-Su 10:00-22:00,MoneyGram,Q1944412
74355969,moneygram,INTERSOL NY INC - #1 - CORONA,,CORONA,NY,,US,+1 347-738-5253,,Mo-Su 09:00-21:00,MoneyGram,Q1944412
74659445,moneygram,MAX MULTISERVICES NY CORP,,CORONA,NY,,US,+1 929-417-4529,,Mo-Su 09:00-21:00,MoneyGram,Q1944412
73302476,moneygram,ROYAL TRAVEL MULTISERVICES INC,,CORONA,NY,,US,+1 718-205-5662,,Mo-Su 08:00-22:00,MoneyGram,Q1944412
74836242,moneygram,EL QUETZALITO 2 CORP,,QUEENS,NY,,US,+1 347-612-4578,,Mo-Su 06:00-23:30,MoneyGram,Q1944412
74627901,moneygram,MOSQUERA SERVICES INCORPORATED,,CORONA,NY,,US,+1 332-345-0299,,Mo-Su 08:00-23:00,MoneyGram,Q1944412
https://locations.papajohns.com/#10692649,papa_johns,Papa John's,,Corona,NY,,US,+1 718-507-7991,https://locations.papajohns.com/united-states/ny/11368/corona/99-06-northern-blvd,Mo-Th 11:00-00:45; Fr-Sa 11:00-01:45; Su 11:00-00:45,Papa John's Pizza,Q2759586
https://locations.papajohns.com/#10692657,papa_johns,Papa John's,,Corona,NY,,US,+1 718-672-3773,https://locations.papajohns.com/united-states/ny/11368/corona/4304-national-st,Mo-Th 11:00-02:00; Fr-Sa 11:00-03:00; Su 11:00-02:00,Papa John's Pizza,Q2759586
restaurant_241035,popeyes_us_fr,Popeyes,"102-18 Roosevelt Ave CORONA, New York 11368 - USA",CORONA,NY,,US,+1 347-813-4940,https://www.popeyes.com/store-locator/store/restaurant_241035,Mo-We 09:00-00:30; Th-Sa 09:00-01:30; Su 09:00-00:30,Popeyes,Q1330910
restaurant_84457,popeyes_us_fr,Popeyes,"9623 57th Ave Corona, New York 11368 - USA",Corona,NY,,US,+1 718-592-5700,https://www.popeyes.com/store-locator/store/restaurant_84457,Mo-Su 10:00-01:00,Popeyes,Q1330910
03870,rite_aid_us,Rite Aid #03870 Flushing,,Flushing,NY,,US,+1 718-639-2647,https://locations2.riteaid.com.yext-cdn.com/ny/flushing/3700-06-junction-boulevard.html,Mo-Su 07:00-23:00,Rite Aid,Q3433273
34023,seven_eleven_ca_us,7-11 Str   10724 Corona Ave,,Corona,NY,,US,+1 718-699-4704,https://www.7-eleven.com/locations/ny/corona/107-24-corona-ave-34023,,7-Eleven,Q259340
39190,seven_eleven_ca_us,Bcp Str    99-49 Horace Harding Exp,,Corona,NY,,US,+1 718-592-1247,https://www.7-eleven.com/locations/ny/corona/99-49-horace-harding-exp-39190,,7-Eleven,Q259340
https://restaurants.subway.com/#14904063,subway,Subway,,Corona Queens,NY,,US,+1 718-271-1633,https://restaurants.subway.com/united-states/ny/corona/108-11-corona-ave,Mo-Su 09:00-20:00,Subway,Q244457
https://locations.tacobell.com/#8958066,taco_bell,Taco Bell,,Corona,NY,,US,+1 929-314-1881,https://locations.tacobell.com/ny/corona/38-1-junction-blvd.html,,Taco Bell,Q752941
1359303,usps,CORONA-A,,CORONA,NY,,US,+1 347-396-3610,,Mo-Fr 08:30-17:00; Sa 08:30-15:00,United States Postal Service,Q668687
1136800037,usps_collection_boxes,USPS COLLECTION BOX - BLUE BOX,9801 NORTHERN BLVD,FLUSHING,NY,,US,,,,United States Postal Service,Q668687
1136800030,usps_collection_boxes,USPS COLLECTION BOX - BLUE BOX,9620 34TH AVE,FLUSHING,NY,,US,,,,United States Postal Service,Q668687
1136800031,usps_collection_boxes,USPS COLLECTION BOX - BLUE BOX,10302 NORTHERN BLVD,FLUSHING,NY,,US,,,,United States Postal Service,Q668687
1136800035,usps_collection_boxes,USPS COLLECTION BOX - BLUE BOX,10601 NORTHERN BLVD,FLUSHING,NY,,US,,,,United States Postal Service,Q668687
1136800032,usps_collection_boxes,USPS COLLECTION BOX - BLUE BOX,10802 NORTHERN BLVD,FLUSHING,NY,,US,,,,United States Postal Service,Q668687
1136800046,usps_collection_boxes,USPS COLLECTION BOX - BLUE BOX,10001 34TH AVE,FLUSHING,NY,,US,,,,United States Postal Service,Q668687
1136800025,usps_collection_boxes,USPS COLLECTION BOX - BLUE BOX,10402 37TH AVE,FLUSHING,NY,,US,,,,United States Postal Service,Q668687
1136800033,usps_collection_boxes,USPS COLLECTION BOX - BLUE BOX,11201 NORTHERN BLVD,FLUSHING,NY,,US,,,,United States Postal Service,Q668687
1136800028,usps_collection_boxes,USPS COLLECTION BOX - BLUE BOX,11017 34TH AVE,FLUSHING,NY,,US,,,,United States Postal Service,Q668687
1136800027,usps_collection_boxes,USPS COLLECTION BOX - BLUE BOX,3705 108TH ST,FLUSHING,NY,,US,,,,United States Postal Service,Q668687
1136800039,usps_collection_boxes,USPS COLLECTION BOX - BLUE BOX,10002 37TH AVE,FLUSHING,NY,,US,,,,United States Postal Service,Q668687
1136800034,usps_collection_boxes,USPS COLLECTION BOX - BLUE BOX,11230 NORTHERN BLVD,FLUSHING,NY,,US,,,,United States Postal Service,Q668687
1136800026,usps_collection_boxes,USPS COLLECTION BOX - BLUE BOX,3771 104TH ST,FLUSHING,NY,,US,,,,United States Postal Service,Q668687
1136800024,usps_collection_boxes,USPS COLLECTION BOX - BLUE BOX,10301 39TH AVE,FLUSHING,NY,,US,,,,United States Postal Service,Q668687
1136800060,usps_collection_boxes,USPS COLLECTION BOX - BLUE BOX,10408 ROOSEVELT AVE,FLUSHING,NY,,US,,,,United States Postal Service,Q668687
1136800042,usps_collection_boxes,USPS COLLECTION BOX - BLUE BOX,10408 ROOSEVELT AVE,FLUSHING,NY,,US,,,,United States Postal Service,Q668687
1136800062,usps_collection_boxes,USPS COLLECTION BOX - PO LOBBY,10328 ROOSEVELT AVE,FLUSHING,NY,,US,,,,United States Postal Service,Q668687
1136800066,usps_collection_boxes,USPS COLLECTION BOX - PO LOBBY,10328 ROOSEVELT AVE,FLUSHING,NY,,US,,,,United States Postal Service,Q668687
1136800045,usps_collection_boxes,USPS COLLECTION BOX - BLUE BOX,3810 JUNCTION BLVD,FLUSHING,NY,,US,,,,United States Postal Service,Q668687
1136800003,usps_collection_boxes,USPS COLLECTION BOX - BLUE BOX,4004 JUNCTION BLVD,FLUSHING,NY,,US,,,,United States Postal Service,Q668687
1136800004,usps_collection_boxes,USPS COLLECTION BOX - BLUE BOX,10880 ROOSEVELT AVE,FLUSHING,NY,,US,,,,United States Postal Service,Q668687
1136800040,usps_collection_boxes,USPS COLLECTION BOX - BLUE BOX,9907 41ST AVE,FLUSHING,NY,,US,,,,United States Postal Service,Q668687
1136800043,usps_collection_boxes,USPS COLLECTION BOX - BLUE BOX,4121 NATIONAL ST,FLUSHING,NY,,US,,,,United States Postal Service,Q668687
1136800021,usps_collection_boxes,USPS COLLECTION BOX - BLUE BOX,4215 108TH ST,FLUSHING,NY,,US,,,,United States Postal Service,Q668687
1136800016,usps_collection_boxes,USPS COLLECTION BOX - BLUE BOX,10402 46TH AVE,FLUSHING,NY,,US,,,,United States Postal Service,Q668687
1136800063,usps_collection_boxes,USPS COLLECTION BOX - PO LOBBY,8027 BROADWAY,FLUSHING,NY,,US,,,,United States Postal Service,Q668687
1136800018,usps_collection_boxes,USPS COLLECTION BOX - BLUE BOX,4517 NATIONAL ST,FLUSHING,NY,,US,,,,United States Postal Service,Q668687
1136800041,usps_collection_boxes,USPS COLLECTION BOX - BLUE BOX,4304 JUNCTION BLVD,FLUSHING,NY,,US,,,,United States Postal Service,Q668687
1136800007,usps_collection_boxes,USPS COLLECTION BOX - BLUE BOX,4718 108TH ST,FLUSHING,NY,,US,,,,United States Postal Service,Q668687
1136800056,usps_collection_boxes,USPS COLLECTION BOX - BLUE BOX,5201 111TH ST,FLUSHING,NY,,US,,,,United States Postal Service,Q668687
1136800008,usps_collection_boxes,USPS COLLECTION BOX - BLUE BOX,5018 111TH ST,FLUSHING,NY,,US,,,,United States Postal Service,Q668687
1136800009,usps_collection_boxes,USPS COLLECTION BOX - BLUE BOX,10725 CORONA AVE,FLUSHING,NY,,US,,,,United States Postal Service,Q668687
1136800017,usps_collection_boxes,USPS COLLECTION BOX - BLUE BOX,10401 49TH AVE,FLUSHING,NY,,US,,,,United States Postal Service,Q668687
1136800010,usps_collection_boxes,USPS COLLECTION BOX - BLUE BOX,5316 108TH ST,FLUSHING,NY,,US,,,,United States Postal Service,Q668687
1136800048,usps_collection_boxes,USPS COLLECTION BOX - BLUE BOX,10801 SAUTELL AVE,FLUSHING,NY,,US,,,,United States Postal Service,Q668687
1136800055,usps_collection_boxes,USPS COLLECTION BOX - BLUE BOX,5930 108TH ST,FLUSHING,NY,,US,,,,United States Postal Service,Q668687
1136800011,usps_collection_boxes,USPS COLLECTION BOX - BLUE BOX,10701 OTIS AVE,FLUSHING,NY,,US,,,,United States Postal Service,Q668687
1136800049,usps_collection_boxes,USPS COLLECTION BOX - BLUE BOX,5835 GRANGER ST,FLUSHING,NY,,US,,,,United States Postal Service,Q668687
1136800013,usps_collection_boxes,USPS COLLECTION BOX - BLUE BOX,10228 MARTENSE AVE,FLUSHING,NY,,US,,,,United States Postal Service,Q668687
1136800047,usps_collection_boxes,USPS COLLECTION BOX - BLUE BOX,9911 60TH AVE,FLUSHING,NY,,US,,,,United States Postal Service,Q668687
1136800053,usps_collection_boxes,USPS COLLECTION BOX - BLUE BOX,5822 99TH ST,FLUSHING,NY,,US,,,,United States Postal Service,Q668687
1136800014,usps_collection_boxes,USPS COLLECTION BOX - BLUE BOX,5045 102ND ST,FLUSHING,NY,,US,,,,United States Postal Service,Q668687
1136800051,usps_collection_boxes,USPS COLLECTION BOX - BLUE BOX,9728 57TH AVE,FLUSHING,NY,,US,,,,United States Postal Service,Q668687
,visa,,,CORONA,NY,,US,,,,,
,visa,,,WHITESTONE,NY,,US,,,,,
,visa,,,BEECHURST,NY,,US,,,,,
,visa,,,FLUSHING,NY,,US,,,,,
,visa,,,CORONA,NY,,US,,,,,
,visa,,,FLUSHING,NY,,US,,,,,
,visa,,,CORONA,NY,,US,,,,,
,visa,,,CORONA,NY,,US,,,,,
,visa,,,CORONA,NY,,US,,,,,
,visa,,,CORONA,NY,,US,,,,,
,visa,,,CORONA,NY,,US,,,,,
,visa,,,FLUSHING,NY,,US,,,,,
,visa,,,FLUSHING,NY,,US,,,,,
,visa,,,FLUSHING,NY,,US,,,,,
,visa,,,FLUSHING,NY,,US,,,,,
,visa,,,CORONA,NY,,US,,,,,
,visa,,,CORONA,NY,,US,,,,,
,visa,,,CORONA,NY,,US,,,,,
,visa,,,CORONA,NY,,US,,,,,
,visa,,,CORONA,NY,,US,,,,,
,visa,,,CORONA,NY,,US,,,,,
,visa,,,CORONA,NY,,US,,,,,
,visa,,,CORONA,NY,,US,,,,,
,visa,,,CORONA,NY,,US,,,,,
,visa,,,QUEENS,NY,,US,,,,,
,visa,,,CORONA,NY,,US,,,,,
,visa,,,CORONA,NY,,US,,,,,
,visa,,,CORONA,NY,,US,,,,,
,visa,,,CORONA,NY,,US,,,,,
,visa,,,CORONA,NY,,US,,,,,
,visa,,,CORONA,NY,,US,,,,,
,visa,,,CORONA,NY,,US,,,,,
,visa,,,CORONA,NY,,US,,,,,
,visa,,,QUEENS,NY,,US,,,,,
,visa,,,CORONA HEIGHTS,NY,,US,,,,,
,visa,,,CORONA,NY,,US,,,,,
,visa,,,"CORONA,",NY,,US,,,,,
,visa,,,FLUSHING,NY,,US,,,,,
,visa,,,QUEENS,NY,,US,,,,,
,visa,,,CORONA,NY,,US,,,,,
,visa,,,CORONA,NY,,US,,,,,
,visa,,,CORONA,NY,,US,,,,,
,visa,,,CORONA,NY,,US,,,,,
,visa,,,CORONA,NY,,US,,,,,
,visa,,,FLUSHING,NY,,US,,,,,
,visa,,,CORONA,NY,,US,,,,,
,visa,,,CORONA,NY,,US,,,,,
,visa,,,CORONA,NY,,US,,,,,
,visa,,,CORONA,NY,,US,,,,,
,visa,,,QUEENS,NY,,US,,,,,
,visa,,,CORONA,NY,,US,,,,,
,visa,,,CORONA,NY,,US,,,,,
,visa,,,CORONA,NY,,US,,,,,
,visa,,,CORONA,NY,,US,,,,,
,visa,,,CORONA,NY,,US,,,,,
,visa,,,QUEENS,NY,,US,,,,,
,visa,,,CORONA,NY,,US,,,,,
,visa,,,CORONA,NY,,US,,,,,
,visa,,,CORONA,NY,,US,,,,,
,visa,,,CORONA,NY,,US,,,,,
,visa,,,CORONA,NY,,US,,,,,
,visa,,,CORONA,NY,,US,,,,,
,visa,,,CORONA,NY,,US,,,,,
,visa,,,CORONA,NY,,US,,,,,
,visa,,,CORONA,NY,,US,,,,,
,visa,,,CORONA,NY,,US,,,,,
,visa,,,CORONA,NY,,US,,,,,
,visa,,,CORONA,NY,,US,,,,,
,visa,,,CORONA,NY,,US,,,,,
,visa,,,CORONA,NY,,US,,,,,
,visa,,,CORONA,NY,,US,,,,,
,visa,,,CORONA,NY,,US,,,,,
,visa,,,CORONA,NY,,US,,,,,
,visa,,,CORONA,NY,,US,,,,,
,visa,,,CORONA,NY,,US,,,,,
,visa,,,QUEENS,NY,,US,,,,,
,visa,,,QUEENS,NY,,US,,,,,
,visa,,,CORONA,NY,,US,,,,,
,visa,,,CORONA,NY,,US,,,,,
,visa,,,CORONA,NY,,US,,,,,
,visa,,,CORONA,NY,,US,,,,,
,visa,,,ELMHURST,NY,,US,,,,,
,visa,,,ELMHURST,NY,,US,,,,,
,visa,,,CORONA,NY,,US,,,,,
,visa,,,CORONA,NY,,US,,,,,
,visa,,,CORONA,NY,,US,,,,,
,visa,,,CORONA,NY,,US,,,,,
,visa,,,QUEENS,NY,,US,,,,,
,visa,,,CORONA,NY,,US,,,,,
,visa,,,CORONA,NY,,US,,,,,
,visa,,,CORONA,NY,,US,,,,,
,visa,,,QUEENS,NY,,US,,,,,
,visa,,,CORONA,NY,,US,,,,,
,visa,,,CORONA,NY,,US,,,,,
,visa,,,CORONA,NY,,US,,,,,
,visa,,,CORONA,NY,,US,,,,,
,visa,,,CORONA,NY,,US,,,,,
,visa,,,CORONA,NY,,US,,,,,
,visa,,,CORONA,NY,,US,,,,,
,visa,,,CORONA,NY,,US,,,,,
,visa,,,CORONA,NY,,US,,,,,
,visa,,,CORONA,NY,,US,,,,,
,visa,,,CORONA,NY,,US,,,,,
,visa,,,FLUSHING,NY,,US,,,,,
,visa,,,CORONA,NY,,US,,,,,
,visa,,,CORONA,NY,,US,,,,,
,visa,,,CORONA,NY,,US,,,,,
,visa,,,CORONA,NY,,US,,,,,
,visa,,,CORONA,NY,,US,,,,,
,visa,,,CORONA,NY,,US,,,,,
,visa,,,CORONA,NY,,US,,,,,
,visa,,,QUEENS,NY,,US,,,,,
,visa,,,FLUSHING,NY,,US,,,,,
,visa,,,CORONA,NY,,US,,,,,
,visa,,,CORONA,NY,,US,,,,,
,visa,,,CORONA,NY,,US,,,,,
,visa,,,CORONA,NY,,US,,,,,
,visa,,,CORONA,NY,,US,,,,,
,visa,,,FLUSHING,NY,,US,,,,,
,visa,,,FLUSHING,NY,,US,,,,,
,visa,,,CORONA,NY,,US,,,,,
,visa,,,CORONA,NY,,US,,,,,
,visa,,,CORONA,NY,,US,,,,,
,visa,,,CORONA,NY,,US,,,,,
,visa,,,CORONA,NY,,US,,,,,
,visa,,,CORONA,NY,,US,,,,,
,visa,,,CORONA,NY,,US,,,,,
,visa,,,CORONA,NY,,US,,,,,
,visa,,,CORONA,NY,,US,,,,,
,visa,,,CORONA,NY,,US,,,,,
,visa,,,CORONA,NY,,US,,,,,
,visa,,,CORONA,NY,,US,,,,,
,visa,,,CORONA,NY,,US,,,,,
,visa,,,CORONA,NY,,US,,,,,
,visa,,,CORONA,NY,,US,,,,,
,visa,,,CORONA,NY,,US,,,,,
,visa,,,CORONA,NY,,US,,,,,
,visa,,,QUEENS,NY,,US,,,,,
,visa,,,CORONA,NY,,US,,,,,
,visa,,,CORONA,NY,,US,,,,,
,visa,,,CORONA,NY,,US,,,,,
,visa,,,CORONA,NY,,US,,,,,
,visa,,,QUEENS,NY,,US,,,,,
,visa,,,FLUSHING,NY,,US,,,,,
,visa,,,CORONA,NY,,US,,,,,
,visa,,,CORONA,NY,,US,,,,,
,visa,,,CORONA,NY,,US,,,,,
,visa,,,CORONA,NY,,US,,,,,
,visa,,,CORONA,NY,,US,,,,,
,visa,,,CORONA,NY,,US,,,,,
,visa,,,QUEENS,NY,,US,,,,,
,visa,,,CORONA,NY,,US,,,,,
,visa,,,CORONA,NY,,US,,,,,
,visa,,,CORONA,NY,,US,,,,,
,visa,,,CORONA,NY,,US,,,,,
,visa,,,CORONA,NY,,US,,,,,
,visa,,,CORONA,NY,,US,,,,,
,visa,,,CORONA,NY,,US,,,,,
,visa,,,CORONA,NY,,US,,,,,
,visa,,,CORONA,NY,,US,,,,,
,visa,,,QUEENS,NY,,US,,,,,
,visa,,,CORONA,NY,,US,,,,,
,visa,,,CORONA,NY,,US,,,,,
,visa,,,CORONA,NY,,US,,,,,
,visa,,,CORONA,NY,,US,,,,,
,visa,,,CORONA,NY,,US,,,,,
,visa,,,CORONA,NY,,US,,,,,
,visa,,,CORONA,NY,,US,,,,,
,visa,,,CORONA,NY,,US,,,,,
,visa,,,CORONA,NY,,US,,,,,
,visa,,,CORONA,NY,,US,,,,,
,visa,,,CORONA,NY,,US,,,,,
,visa,,,CORONA,NY,,US,,,,,
,visa,,,CORONA,NY,,US,,,,,
,visa,,,CORONA,NY,,US,,,,,
,visa,,,CORONA,NY,,US,,,,,
,visa,,,CORONA,NY,,US,,,,,
,visa,,,CORONA,NY,,US,,,,,
,visa,,,JACKSON HEIGHTS,NY,,US,,,,,
,visa,,,CORONA,NY,,US,,,,,
,visa,,,CORONA,NY,,US,,,,,
,visa,,,CORONA,NY,,US,,,,,
,visa,,,CORONA,NY,,US,,,,,
,visa,,,CORONA,NY,,US,,,,,
,visa,,,CORONA,NY,,US,,,,,
,visa,,,CORONA,NY,,US,,,,,
,visa,,,CORONA,NY,,US,,,,,
,visa,,,CORONA,NY,,US,,,,,
,visa,,,CORONA,NY,,US,,,,,
,visa,,,CORONA,NY,,US,,,,,
,visa,,,CORONA,NY,,US,,,,,
,visa,,,CORONA,NY,,US,,,,,
,visa,,,CORONA,NY,,US,,,,,
,visa,,,CORONA,NY,,US,,,,,
,visa,,,CORONA,NY,,US,,,,,
,visa,,,CORONA,NY,,US,,,,,
,visa,,,QUEENS,NY,,US,,,,,
,visa,,,QUEENS,NY,,US,,,,,
,visa,,,QUEENS,NY,,US,,,,,
,visa,,,"CORONA,",NY,,US,,,,,
,visa,,,CORONA,NY,,US,,,,,
,visa,,,CORONA,NY,,US,,,,,
,visa,,,CORONA,NY,,US,,,,,
,visa,,,CORONA,NY,,US,,,,,
,visa,,,CORONA,NY,,US,,,,,
,visa,,,CORONA,NY,,US,,,,,
,visa,,,CORONA,NY,,US,,,,,
,visa,,,CORONA,NY,,US,,,,,
,visa,,,CORONA,NY,,US,,,,,
,visa,,,CORONA,NY,,US,,,,,
,visa,,,CORONA,NY,,US,,,,,
,visa,,,CORONA,NY,,US,,,,,
,visa,,,CORONA,NY,,US,,,,,
,visa,,,CORONA,NY,,US,,,,,
,visa,,,CORONA,NY,,US,,,,,
,visa,,,CORONA,NY,,US,,,,,
,visa,,,CORONA,NY,,US,,,,,
,visa,,,CORONA,NY,,US,,,,,
,visa,,,CORONA,NY,,US,,,,,
,visa,,,CORONA,NY,,US,,,,,
,visa,,,CORONA,NY,,US,,,,,
,visa,,,"CORONA,",NY,,US,,,,,
,visa,,,CORONA,NY,,US,,,,,
,visa,,,CORONA,NY,,US,,,,,
,visa,,,QUEENS,NY,,US,,,,,
,visa,,,CORONA,NY,,US,,,,,
,visa,,,CORONA,NY,,US,,,,,
,visa,,,CORONA,NY,,US,,,,,
,visa,,,CORONA,NY,,US,,,,,
,visa,,,FLUSHING,NY,,US,,,,,
,visa,,,CORONA,NY,,US,,,,,
,visa,,,FLUSHING,NY,,US,,,,,
,visa,,,CORONA,NY,,US,,,,,
,visa,,,CORONA,NY,,US,,,,,
,visa,,,QUEENS VILLAGE,NY,,US,,,,,
,visa,,,CORONA,NY,,US,,,,,
,visa,,,FLUSHING,NY,,US,,,,,
,visa,,,CORONA,NY,,US,,,,,
,visa,,,QUEENS,NY,,US,,,,,
,visa,,,CORONA,NY,,US,,,,,
,visa,,,CORONA,NY,,US,,,,,
,visa,,,FLUSHING,NY,,US,,,,,
,visa,,,FLUSHING,NY,,US,,,,,
,visa,,,CORONA,NY,,US,,,,,
,visa,,,CORONA,NY,,US,,,,,
,visa,,,CORONA,NY,,US,,,,,
,visa,,,CORONA,NY,,US,,,,,
,visa,,,CORONA,NY,,US,,,,,
,visa,,,CORONA,NY,,US,,,,,
,visa,,,CORONA,NY,,US,,,,,
,visa,,,CORONA,NY,,US,,,,,
,visa,,,CORONA,NY,,US,,,,,
,visa,,,CORONA,NY,,US,,,,,
,visa,,,CORONA,NY,,US,,,,,
,visa,,,CORONA,NY,,US,,,,,
,visa,,,CORONA,NY,,US,,,,,
,visa,,,QUEENS,NY,,US,,,,,
,visa,,,CORONA,NY,,US,,,,,
,visa,,,CORONA,NY,,US,,,,,
,visa,,,CORONA,NY,,US,,,,,
,visa,,,CORONA,NY,,US,,,,,
,visa,,,CORONA,NY,,US,,,,,
,visa,,,CORONA,NY,,US,,,,,
,visa,,,CORONA,NY,,US,,,,,
,visa,,,CORONA,NY,,US,,,,,
,visa,,,"CORONA,",NY,,US,,,,,
,visa,,,CORONA,NY,,US,,,,,
,visa,,,CORONA,NY,,US,,,,,
,visa,,,CORONA,NY,,US,,,,,
,visa,,,CORONA,NY,,US,,,,,
,visa,,,CORONA,NY,,US,,,,,
,visa,,,CORONA,NY,,US,,,,,
,visa,,,CORONA,NY,,US,,,,,
,visa,,,CORONA,NY,,US,,,,,
,visa,,,CORONA,NY,,US,,,,,
,visa,,,CORONA,NY,,US,,,,,
,visa,,,CORONA,NY,,US,,,,,
,visa,,,FLUSHING,NY,,US,,,,,
,visa,,,QUEENS,NY,,US,,,,,
,visa,,,LONG ISLAND CITY,NY,,US,,,,,
,visa,,,CORONA,NY,,US,,,,,
,visa,,,CORONA,NY,,US,,,,,
,visa,,,CORONA,NY,,US,,,,,
,visa,,,CORONA,NY,,US,,,,,
,visa,,,CORONA,NY,,US,,,,,
,visa,,,CORONA,NY,,US,,,,,
,visa,,,CORONA,NY,,US,,,,,
,visa,,,CORONA,NY,,US,,,,,
,visa,,,CORONA,NY,,US,,,,,
,visa,,,CORONA,NY,,US,,,,,
,visa,,,CORONA,NY,,US,,,,,
,visa,,,CORONA,NY,,US,,,,,
,visa,,,CORONA,NY,,US,,,,,
,visa,,,CORONA,NY,,US,,,,,
,visa,,,CORONA,NY,,US,,,,,
,visa,,,CORONA,NY,,US,,,,,
,visa,,,"CORONA,",NY,,US,,,,,
,visa,,,CORONA,NY,,US,,,,,
,visa,,,CORONA,NY,,US,,,,,
,visa,,,CORONA,NY,,US,,,,,
,visa,,,CORONA,NY,,US,,,,,
,visa,,,CORONA,NY,,US,,,,,
,visa,,,CORONA,NY,,US,,,,,
,visa,,,CORONA,NY,,US,,,,,
,visa,,,CORONA,NY,,US,,,,,
,visa,,,CORONA,NY,,US,,,,,
,visa,,,CORONA,NY,,US,,,,,
,visa,,,CORONA,NY,,US,,,,,
,visa,,,CORONA,NY,,US,,,,,
,visa,,,CORONA,NY,,US,,,,,
,visa,,,CORONA,NY,,US,,,,,
,visa,,,CORONA,NY,,US,,,,,
,visa,,,CORONA,NY,,US,,,,,
,visa,,,CORONA,NY,,US,,,,,
,visa,,,CORONA,NY,,US,,,,,
,visa,,,CORONA,NY,,US,,,,,
,visa,,,CORONA,NY,,US,,,,,
,visa,,,CORONA,NY,,US,,,,,
,visa,,,QUEENS,NY,,US,,,,,
,visa,,,CORONA,NY,,US,,,,,
,visa,,,QUEENS,NY,,US,,,,,
,visa,,,CORONA,NY,,US,,,,,
,visa,,,CORONA,NY,,US,,,,,
,visa,,,CORONA,NY,,US,,,,,
,visa,,,CORONA,NY,,US,,,,,
,visa,,,CORONA,NY,,US,,,,,
,visa,,,CORONA,NY,,US,,,,,
,visa,,,JACKSON HTS,NY,,US,,,,,
,visa,,,JACKSON HTS,NY,,US,,,,,
,visa,,,CORONA,NY,,US,,,,,
,visa,,,CORONA,NY,,US,,,,,
,visa,,,CORONA,NY,,US,,,,,
,visa,,,CORONA,NY,,US,,,,,
,visa,,,CORONA,NY,,US,,,,,
,visa,,,CORONA,NY,,US,,,,,
,visa,,,CORONA,NY,,US,,,,,
,visa,,,CORONA,NY,,US,,,,,
,visa,,,CORONA,NY,,US,,,,,
,visa,,,JACKSON HEIGHTS,NY,,US,,,,,
,visa,,,CORONA,NY,,US,,,,,
,visa,,,CORONA,NY,,US,,,,,
,visa,,,RIDGEWOOD,NY,,US,,,,,
,visa,,,CORONA,NY,,US,,,,,
https://www.walgreens.com/locator/walgreens-10314+roosevelt+ave-corona-ny-11368/id=7294,walgreens,Walgreens,,Corona,NY,,US,+1 718-426-4271,https://www.walgreens.com/locator/walgreens-10314+roosevelt+ave-corona-ny-11368/id=7294,Mo-Su 07:00-23:00,Walgreens,Q1591889
0665e7ab827f5315c6e87488b81648b6,western_union,MYVEN WELLNESS CORP,,Corona,NY,,US,+1 718-779-8050,https://location.westernunion.com/us/ny/corona/0665e7ab827f5315c6e87488b81648b6,Mo-Sa 10:00-19:00,Western Union,Q861042
b5856aefee567fc7357c4d60bfc070ac,western_union,OK MULTISERVICES QUEENS,,Corona,NY,,US,+1 718-424-5013,https://location.westernunion.com/us/ny/corona/b5856aefee567fc7357c4d60bfc070ac,Mo-Su 08:00-21:00,Western Union,Q861042
f5c3b27a00f771d50a86257d400c68a9,western_union,OK MULTISERVICES QUEENS INC,,Corona,NY,,US,+1 718-606-0484,https://location.westernunion.com/us/ny/corona/f5c3b27a00f771d50a86257d400c68a9,Mo-Su 08:00-20:00,Western Union,Q861042
d8744eb50d07cd26d8bed5ce21b1dc7b,western_union,TRAVEL MULTISERVICES EXPRESS I,,Corona,NY,,US,+1 718-592-7460,https://location.westernunion.com/us/ny/corona/d8744eb50d07cd26d8bed5ce21b1dc7b,Mo-Sa 08:00-22:00; Su 09:00-21:00,Western Union,Q861042
b639a239c89345c8f6f1c46a69425567,western_union,VARIETY MERCHANDISE CORP,,Corona,NY,,US,+1 917-603-7150,https://location.westernunion.com/us/ny/corona/b639a239c89345c8f6f1c46a69425567,Mo-Su 10:00-21:00,Western Union,Q861042
9fdcd423a62711f77555e4a38424273d,western_union,JOEL TECH SOLUTIONS INC,,Corona,NY,,US,+1 347-507-1741,https://location.westernunion.com/us/ny/corona/9fdcd423a62711f77555e4a38424273d,Mo-Fr 09:00-22:00; Sa-Su 09:00-21:00,Western Union,Q861042
b768c6b675bce5da6f4fb6b1391badba,western_union,J & C EXPRESS MULTISERVICES,,Corona,NY,,US,+1 718-406-9605,https://location.westernunion.com/us/ny/corona/b768c6b675bce5da6f4fb6b1391badba,Mo-Fr 08:00-20:00; Sa 08:30-20:00; Su 09:00-19:00,Western Union,Q861042
fd34119eca6b3209fd7703ea0464b603,western_union,FIX WIRELESS LLC,,Corona,NY,,US,+1 347-507-1646,https://location.westernunion.com/us/ny/corona/fd34119eca6b3209fd7703ea0464b603,Mo-Su 10:00-22:00,Western Union,Q861042
b33b9dce5969e3910fc4ecbed3918715,western_union,D&A PEREZ MULTISERVICES CORP,,Corona,NY,,US,+1 516-647-8605,https://location.westernunion.com/us/ny/corona/b33b9dce5969e3910fc4ecbed3918715,Mo-Fr 09:00-19:30; Sa 09:30-19:30; Su 10:00-19:00,Western Union,Q861042
daf8ceb1e06a74bac20245643e0ec096,western_union,OK MULTISERVICES QUEENS INC,,Corona,NY,,US,+1 347-808-7948,https://location.westernunion.com/us/ny/corona/daf8ceb1e06a74bac20245643e0ec096,Mo-Su 08:00-20:00,Western Union,Q861042
35e9fee621d5b8b00c96501c703afabd,western_union,NATIONAL PHARMACY,,Corona,NY,,US,+1 718-779-9080,https://location.westernunion.com/us/ny/corona/35e9fee621d5b8b00c96501c703afabd,Mo-Su 10:00-19:00,Western Union,Q861042
6ae83ad48c72212f722b86c6d052eae2,western_union,NATIONAL PHARMCACY,,Corona,NY,,US,+1 718-779-9080,https://location.westernunion.com/us/ny/corona/6ae83ad48c72212f722b86c6d052eae2,Mo-Su 10:00-19:00,Western Union,Q861042
d74c24308f610f4b7e07df312b5c7028,western_union,7-ELEVEN #34023,,Corona,NY,,US,+1 718-699-4704,https://location.westernunion.com/us/ny/corona/d74c24308f610f4b7e07df312b5c7028,,Western Union,Q861042
185289a478b9d97bca739a7fd4a1e2a9,western_union,MAX MULTISERVICES NY CORP,,Corona,NY,,US,+1 718-688-5879,https://location.westernunion.com/us/ny/corona/185289a478b9d97bca739a7fd4a1e2a9,Mo-Sa 09:00-20:00; Su 09:00-19:00,Western Union,Q861042
7314ca09ffa09fb02e78d4001099d6b9,western_union,OK MULTISERVICES QUEENS,,Corona,NY,,US,+1 585-632-9004,https://location.westernunion.com/us/ny/corona/7314ca09ffa09fb02e78d4001099d6b9,Mo-Sa 09:00-19:00; Su 10:00-19:00,Western Union,Q861042
c546c0ef2898331e93e2a5fa182d01f5,western_union,LA HORA DEL SWING ENTERTAINMEN,,Corona,NY,,US,+1 718-426-4261,https://location.westernunion.com/us/ny/corona/c546c0ef2898331e93e2a5fa182d01f5,Mo-Sa 09:00-20:00; Su 09:00-18:00,Western Union,Q861042
c3270f2a804099ed6b527302df0187aa,western_union,IDEAL FOOD BASKET,,Corona,NY,,US,+1 718-271-5854,https://location.westernunion.com/us/ny/corona/c3270f2a804099ed6b527302df0187aa,Mo-Sa 07:00-23:00; Su 08:00-23:00,Western Union,Q861042
fa5bcb99f26b88d4ec403bed548265ea,western_union,P&G MULTISERVICES CORP,,Corona,NY,,US,+1 347-730-4688,https://location.westernunion.com/us/ny/corona/fa5bcb99f26b88d4ec403bed548265ea,Mo-Sa 09:00-21:00; Su 10:00-19:00,Western Union,Q861042
a084a804aeeb4e03576c0ee4e292750e,western_union,CAROLINA MULTISERVICE CORP,,Corona,NY,,US,+1 917-832-7772,https://location.westernunion.com/us/ny/corona/a084a804aeeb4e03576c0ee4e292750e,Mo-Sa 10:00-19:00,Western Union,Q861042
539e89c4eff63bfe6ad17d83735c9f79,western_union,ROYAL TRAVEL MULTISERVICES INC,,Corona,NY,,US,+1 718-205-5662,https://location.westernunion.com/us/ny/corona/539e89c4eff63bfe6ad17d83735c9f79,Mo-Fr 09:00-19:30; Sa 10:00-17:00,Western Union,Q861042
029b272eb1c3cc064de49917b834bf24,western_union,FERNANDEZ INS AGENCY INC,,Corona,NY,,US,+1 718-651-6363,https://location.westernunion.com/us/ny/corona/029b272eb1c3cc064de49917b834bf24,Mo-Fr 09:00-19:00; Sa 10:00-15:00,Western Union,Q861042
6c5f1f3a03850bee41594ee0d9ac265c,western_union,SUREXPRESS CARGO AND COURIER L,,Corona,NY,,US,+1 718-779-0777,https://location.westernunion.com/us/ny/corona/6c5f1f3a03850bee41594ee0d9ac265c,Mo-Sa 10:00-19:00; Su 10:00-16:00,Western Union,Q861042
1d6f40aa0a77086e99440b3f439f9662,western_union,ENVIAMEX INC,,Corona,NY,,US,+1 718-406-9605,https://location.westernunion.com/us/ny/corona/1d6f40aa0a77086e99440b3f439f9662,Mo-Fr 08:30-21:00; Sa 09:00-20:00; Su 09:00-19:00,Western Union,Q861042
218590,wingstop,Wingstop Corona 57 10 99th St,"57-10 99th Street, Store W",Corona,NY,,US,+1 718-271-2657,,,Wingstop,Q8025339
