Ref,Spider,Name,Address,City,State,Zipcode,Country,Phone,Website,Hours,Brand,WikiData
2917,autozone_us,AutoZone Auto Parts Fresh Meadows,,Fresh Meadows,NY,,US,+1 718-380-8648,https://www.autozone.com/locations/ny/fresh-meadows/16020-union-tpk.html,Mo-Sa 07:30-22:00; Su 08:00-21:00,AutoZone,Q4826087
https://locations.baskinrobbins.com/ny/flushing/16822-union-tpke-302542-br,baskin_robbins_us,Baskin-Robbins™,,Flushing,NY,,US,+1 718-591-6616,https://locations.baskinrobbins.com/ny/flushing/16822-union-tpke-302542-br,Mo-Su 05:00-22:00,Baskin-Robbins,Q584601
https://locations.baskinrobbins.com/ny/fresh-meadows/18823-union-tpke-352191-br,baskin_robbins_us,Baskin-Robbins™,,Fresh Meadows,NY,,US,+1 347-548-4154,https://locations.baskinrobbins.com/ny/fresh-meadows/18823-union-tpke-352191-br,Mo-Su 05:00-22:00,Baskin-Robbins,Q584601
27041933893151136600100000000000,bp,BP,,Queens,NY,,US,+1 718-380-6484,,24/7,BP,Q152057
12293049,chase_us,VESTIBULE - 104830,,FRESH MEADOWS,NY,,US,+1 800-935-9935,https://locator.chase.com/ny/fresh-meadows/17660-union-tpke,,Chase,Q524629
2041738,chase_us,Union Tpke and 188th St - New branch,,Flushing,NY,,US,+1 718-454-4736,https://locator.chase.com/ny/flushing/18715-union-tpke,Mo-Fr 09:00-17:00; Sa 09:00-14:00,Chase,Q524629
20583,coldstone_creamery,Cold Stone Creamery,,Flushing,NY,,US,+1 718-591-5800,https://www.coldstonecreamery.com/stores/20583,,Cold Stone Creamery,Q1094923
3612,dominos_pizza_us,Domino's Pizza,,Fresh Meadows,NY,,US,+1 718-776-0330,https://pizza.dominos.com/new-york/fresh-meadows/188-07-union-turnpike,Mo-Th 10:30-01:00; Fr-Sa 10:30-03:00; Su 10:30-01:00,Domino's,Q839466
352191,dunkin_us,Dunkin',,Fresh Meadows,NY,,US,+1 347-548-4154,https://locations.dunkindonuts.com/en/ny/fresh-meadows/18823-union-tpke/352191,Mo-Su 05:00-22:00,Dunkin',Q847743
302542,dunkin_us,Dunkin',,Flushing,NY,,US,+1 718-591-6616,https://locations.dunkindonuts.com/en/ny/flushing/16822-union-tpke/302542,Mo-Su 05:00-22:00,Dunkin',Q847743
https://www.edwardjones.com/us-en/financial-advisor/paul-fishman,edwardjones,Paul Fishman,,Fresh Meadows,NY,,US,+1 718-969-2606,https://www.edwardjones.com/us-en/financial-advisor/paul-fishman,Mo-Fr 08:00-17:00,Edward Jones,Q5343830
200319455,exxonmobil,"NOR-CREST SERVICE STATION, INC",,FLUSHING,NY,,US,+1 718-591-3203,https://www.exxon.com/en/find-station/exxon-flushing-ny-norcrestservicestationinc-200319455,24/7,Exxon,Q109675651
5095,fresenius_kidney_care_us,Fresenius Kidney Care Queens Home Therapy,,Fresh Meadows,NY,,US,+1 800-881-5101,https://www.freseniuskidneycare.com/dialysis-centers/new-york/5095,Mo-Fr 09:00-17:00,,
https://locations.kfc.com/#11247802,kfc,Chicken Nuggets Near Flushing,,Flushing,NY,,US,,https://locations.kfc.com/ny/flushing/158-05-union-turnpike/chickennugget,,KFC,Q524757
16469,mattress_firm_us,Mattress Firm Union Turnpike,,Fresh Meadows,NY,,US,+1 718-969-3890,https://www.mattressfirm.com/en-us/stores/ny/fresh-meadows/169022/,,Mattress Firm,Q6791878
https://locations.papajohns.com/#10692653,papa_johns,Papa John's,,Fresh Meadows,NY,,US,+1 718-591-7272,https://locations.papajohns.com/united-states/ny/11366/fresh-meadows/16202-union-turnpike,Mo-Th 11:00-01:00; Fr-Sa 11:00-02:00; Su 11:00-01:00,Papa John's Pizza,Q2759586
restaurant_83217,popeyes_us_fr,Popeyes,"16417 Union Tpke Flushing, New York 11366 - USA",Flushing,NY,,US,+1 718-969-3423,https://www.popeyes.com/store-locator/store/restaurant_83217,Mo-Su 10:30-00:00,Popeyes,Q1330910
03626,rite_aid_us,Rite Aid #03626 Flushing,,Flushing,NY,,US,+1 718-380-8259,https://locations2.riteaid.com.yext-cdn.com/ny/flushing/158-02-union-turnpike.html,Mo-Su 07:00-24:00,Rite Aid,Q3433273
https://restaurants.subway.com/#14901299,subway,Subway,,Flushing Queens,NY,,US,+1 718-380-8718,https://restaurants.subway.com/united-states/ny/flushing/176-71-union-turnpike,Mo-Su 09:00-22:00,Subway,Q244457
081421,tjx,Fresh Meadows,176-60 Union Turnpike,Fresh Meadows,NY,,US,+1 718-820-8590,,Mo-Sa 09:30-21:30; Su 10:00-20:00,TJ Maxx,Q10860683
4302,tmobile_us,Union Turnpike & 162nd St,,Fresh Meadows,NY,,US,+1 347-960-7967,https://www.t-mobile.com/store-locator/ny/fresh-meadows/union-turnpike-162nd-st,,T-Mobile,Q3511885
3869,upsstore,Fresh Meadows,176-25 Union Tpke,Fresh Meadows,NY,,US,+1 718-820-0630,https://locations.theupsstore.com/ny/fresh-meadows/176-25-union-tpke,,UPS Store,Q7771029
1385600,usps,UTOPIA,,FRESH MEADOWS,NY,,US,+1 718-969-4986,,Mo-Fr 09:00-17:00,United States Postal Service,Q668687
1136600001,usps_collection_boxes,USPS COLLECTION BOX - PO LOBBY,18204 UNION TPKE,FLUSHING,NY,,US,,,,United States Postal Service,Q668687
1136600004,usps_collection_boxes,USPS COLLECTION BOX - PO LOBBY,18204 UNION TPKE,FLUSHING,NY,,US,,,,United States Postal Service,Q668687
A00000163137,verizon_us,Your Wireless Fresh Meadows,,Fresh Meadows,NY,,US,+1 718-591-3600,https://www.verizon.com/stores/details/new-york/fresh-meadows/your-wireless-fresh-meadows-1688822/,Mo-Fr 10:00-20:00; Sa 10:00-19:00; Su 11:00-18:00,Verizon,Q919641
,visa,,,JAMAICA ESTATE,NY,,US,,,,,
,visa,,,FLUSHING,NY,,US,,,,,
,visa,,,FLUSHING,NY,,US,,,,,
,visa,,,FLUSHING,NY,,US,,,,,
,visa,,,FRESH MEADOWS,NY,,US,,,,,
,visa,,,FLUSHING,NY,,US,,,,,
,visa,,,FLUSHING,NY,,US,,,,,
,visa,,,FLUSHING,NY,,US,,,,,
,visa,,,FLUSHING,NY,,US,,,,,
,visa,,,FRESH MEADOWS,NY,,US,,,,,
,visa,,,QUEENS,NY,,US,,,,,
,visa,,,FRESH MEADOWS,NY,,US,,,,,
,visa,,,FLUSHING,NY,,US,,,,,
,visa,,,FRESH MEADOWS,NY,,US,,,,,
,visa,,,FRESH MEADOWS,NY,,US,,,,,
,visa,,,FRESH MEADOWS,NY,,US,,,,,
,visa,,,FLUSHING,NY,,US,,,,,
,visa,,,FRESH MEADOWS,NY,,US,,,,,
,visa,,,FRESH MEADOWS,NY,,US,,,,,
,visa,,,FLUSHING,NY,,US,,,,,
,visa,,,FLUSHING,NY,,US,,,,,
,visa,,,FRESH MEADOWS,NY,,US,,,,,
,visa,,,FLUSHING,NY,,US,,,,,
,visa,,,FRESH MEADOWS,NY,,US,,,,,
,visa,,,FRESH MEADOWS,NY,,US,,,,,
,visa,,,FLUSHING,NY,,US,,,,,
,visa,,,FRESH MEADOWS,NY,,US,,,,,
,visa,,,FLUSHING,NY,,US,,,,,
,visa,,,FLUSHING,NY,,US,,,,,
,visa,,,FLUSHING,NY,,US,,,,,
,visa,,,FLUSHING,NY,,US,,,,,
,visa,,,FLUSHING,NY,,US,,,,,
,visa,,,FLUSHING,NY,,US,,,,,
,visa,,,FLUSHING,NY,,US,,,,,
,visa,,,FLUSHING,NY,,US,,,,,
,visa,,,JAMAICA,NY,,US,,,,,
,visa,,,FLUSHING,NY,,US,,,,,
,visa,,,FLUSHING,NY,,US,,,,,
,visa,,,MASPETH,NY,,US,,,,,
78f6730dbe1f867f73309d7281a1a074,western_union,7-ELEVEN # 23897,,Flushing,NY,,US,+1 718-969-9713,https://location.westernunion.com/us/ny/flushing/78f6730dbe1f867f73309d7281a1a074,,Western Union,Q861042
167a31c4bea45afd5e4a5c01ee1b3eca,western_union,IP101 LLC,,Fresh Meadows,NY,,US,+1 347-615-7447,https://location.westernunion.com/us/ny/fresh-meadows/167a31c4bea45afd5e4a5c01ee1b3eca,Mo-Th 09:00-19:00; Fr 09:00-14:00; Su 10:00-14:00,Western Union,Q861042
