Ref,Spider,Name,Address,City,State,Zipcode,Country,Phone,Website,Hours,Brand,WikiData
,visa,,,ATIZAPAN DE ZARAGOZA,ESTADO DE MEXICO,,MX,,,,,
,visa,,,ATIZAPAN,ESTADO DE MEXICO,,MX,,,,,
,visa,,,CIUDAD ADOLFO LOPEZ MATEOS,ESTADO DE MEXICO,,MX,,,,,
,visa,,,ATIZAPAN DE ZARAGOZA,ESTADO DE MEXICO,,MX,,,,,
,visa,,,ADOLFO LOPEZ MATEOS,ESTADO DE MEXICO,,MX,,,,,
,visa,,,ATIZAPAN,ESTADO DE MEXICO,,MX,,,,,
,visa,,,ATIZAPAN ZARG,ESTADO DE MEXICO,,MX,,,,,
,visa,,,ATIZAPAN DE ZARAGOZA,ESTADO DE MEXICO,,MX,,,,,
121cace7a0391eab53e71026795ce7d5,western_union,BANCOPPEL 7613 MULTIPLAZA ALAMEDAS,,Atizapan De Zaragoza,ESTADO DE MEXICO,,MX,(+52) 667-589999,https://location.westernunion.com/mx/estado-de-mexico/atizapan-de-zaragoza/121cace7a0391eab53e71026795ce7d5,Mo-Su 10:00-20:00,Western Union,Q861042
e012f516e8b849ab4aa91899726341af,western_union,BANCOPPEL 7613 MULTIPLAZA ALAMEDAS,,Atizapan De Zaragoza,ESTADO DE MEXICO,,MX,(+52) 667-589999,https://location.westernunion.com/mx/estado-de-mexico/atizapan-de-zaragoza/e012f516e8b849ab4aa91899726341af,Mo-Su 10:00-20:00,Western Union,Q861042
41ac7bdcf8392bddf14c3a54d3f8bb0c,western_union,OXXO PLAZA ALAMEDAS MEX,,Ciudad Lopez Mateos,ESTADO DE MEXICO,,MX,+52 81 8389 2121,https://location.westernunion.com/mx/estado-de-mexico/ciudad-lopez-mateos/41ac7bdcf8392bddf14c3a54d3f8bb0c,Mo-Su 08:00-22:00,Western Union,Q861042
b67c4586e4007b274ed5f9c131e44421,western_union,WALMART LAS ALAMEDAS 5855,,Atizapan De Zaragoza,ESTADO DE MEXICO,,MX,+52 800 833 4700,https://location.westernunion.com/mx/estado-de-mexico/atizapan-de-zaragoza/b67c4586e4007b274ed5f9c131e44421,Mo-Su 07:00-23:00,Western Union,Q861042
9d8c3663628c5abae76cb661f02291df,western_union,WALMART LAS ALAMEDAS 5855,,Atizapan De Zaragoza,ESTADO DE MEXICO,,MX,+52 800 833 4700,https://location.westernunion.com/mx/estado-de-mexico/atizapan-de-zaragoza/9d8c3663628c5abae76cb661f02291df,Mo-Su 07:00-23:00,Western Union,Q861042
d55a6f76e33c0bef85315309af17f2c5,western_union,WALMART LAS ALAMEDAS 5855,,Atizapan De Zaragoza,ESTADO DE MEXICO,,MX,+52 800 833 4700,https://location.westernunion.com/mx/estado-de-mexico/atizapan-de-zaragoza/d55a6f76e33c0bef85315309af17f2c5,Mo-Su 07:00-23:00,Western Union,Q861042
ee73a102d28f94471be1fa770d1023f7,western_union,BANORTE 00463 ATIZAPAN,,Atizapan De Zaragoza,ESTADO DE MEXICO,,MX,+52 800 833 4700,https://location.westernunion.com/mx/estado-de-mexico/atizapan-de-zaragoza/ee73a102d28f94471be1fa770d1023f7,Mo-Sa 09:00-17:00,Western Union,Q861042
8f8a14d81bfc4059c3e1910a5d4c55b7,western_union,BANORTE 00463 ATIZAPAN,,Atizapan De Zaragoza,ESTADO DE MEXICO,,MX,+52 800 833 4700,https://location.westernunion.com/mx/estado-de-mexico/atizapan-de-zaragoza/8f8a14d81bfc4059c3e1910a5d4c55b7,Mo-Sa 09:00-17:00,Western Union,Q861042
f54d785cd33f887c23baf2784af4677c,western_union,BANCOPPEL 7613 MULTIPLAZA ALAMEDAS,,Atizapan De Zaragoza,ESTADO DE MEXICO,,MX,(+52) 667-589999,https://location.westernunion.com/mx/estado-de-mexico/atizapan-de-zaragoza/f54d785cd33f887c23baf2784af4677c,Mo-Su 10:00-20:00,Western Union,Q861042
6185fe4876c8c06c9b80a822a184bea0,western_union,OXXO PLAZA ALAMEDAS MEX,,Ciudad Lopez Mateos,ESTADO DE MEXICO,,MX,+52 81 8389 2121,https://location.westernunion.com/mx/estado-de-mexico/ciudad-lopez-mateos/6185fe4876c8c06c9b80a822a184bea0,Mo-Su 08:00-22:00,Western Union,Q861042
1cdeca21138ab37b5792ba1561b69003,western_union,OXXO PLAZA ALAMEDAS MEX,,Ciudad Lopez Mateos,ESTADO DE MEXICO,,MX,+52 81 8389 2121,https://location.westernunion.com/mx/estado-de-mexico/ciudad-lopez-mateos/1cdeca21138ab37b5792ba1561b69003,Mo-Su 08:00-22:00,Western Union,Q861042
