Ref,Spider,Name,Address,City,State,Zipcode,Country,Phone,Website,Hours,Brand,WikiData
5e9d779b741414c8b76a312b20a6feb9,western_union,ENTREPRISE OKAKOUMA,,Boussouma,BOULGOU,,BF,+226 70 37 17 62,https://location.westernunion.com/bf/boulgou/boussouma/5e9d779b741414c8b76a312b20a6feb9,Mo-Su 07:00-18:00,Western Union,Q861042
8ab45934d7ba5593fe9b6408217cb923,western_union,ENTREPRISE OKAKOUMA,,Boussouma,BOULGOU,,BF,+226 70 37 17 62,https://location.westernunion.com/bf/boulgou/boussouma/8ab45934d7ba5593fe9b6408217cb923,Mo-Su 07:00-18:00,Western Union,Q861042
29323db213ba9d6e0d20418b00004af6,western_union,ENTREPRISE OKAKOUMA,,Boussouma,BOULGOU,,BF,+226 70 37 17 62,https://location.westernunion.com/bf/boulgou/boussouma/29323db213ba9d6e0d20418b00004af6,Mo-Su 07:00-18:00,Western Union,Q861042
b8c34e5d5a84173f4b5641ab0235a4b4,western_union,WENDEBARACA SERVICES TRANSFERT D ARGENT,,Tenkodogo,BOULGOU,,BF,+226 70 46 71 71,https://location.westernunion.com/bf/boulgou/tenkodogo/b8c34e5d5a84173f4b5641ab0235a4b4,Mo-Sa 07:00-20:00; Su 08:00-20:00,Western Union,Q861042
a92b37f367f275668dacd38a8c50f04a,western_union,ETS MARIAM SONGNE,,Garango,BOULGOU,,BF,+226 65 55 03 07,https://location.westernunion.com/bf/boulgou/garango/a92b37f367f275668dacd38a8c50f04a,Mo-Su 07:00-18:00,Western Union,Q861042
aa60a0a9936353cae6c749b3824939e5,western_union,BCB AGENCE GARANGO,,Garango,BOULGOU,,BF,+226 24 71 30 43,https://location.westernunion.com/bf/boulgou/garango/aa60a0a9936353cae6c749b3824939e5,Mo-Fr 07:30-17:00; Sa 08:00-12:00,Western Union,Q861042
d2396b49274d1381592310e88c3a3822,western_union,BCB AGENCE TENKODOGO,,Tenkodogo,BOULGOU,,BF,+226 24 71 08 35,https://location.westernunion.com/bf/boulgou/tenkodogo/d2396b49274d1381592310e88c3a3822,Mo-Fr 07:30-17:00; Sa 08:00-12:00,Western Union,Q861042
bbc7ff20e7798dc331868dcb8f947189,western_union,SAMB SERVICES,,Beguedo,BOULGOU,,BF,+226 70 04 68 25,https://location.westernunion.com/bf/boulgou/beguedo/bbc7ff20e7798dc331868dcb8f947189,Mo-Sa 07:00-21:00; Su 08:00-21:00,Western Union,Q861042
7d5085592cf0c7a704a6688a048fc923,western_union,ENTREPRISE GOUEM ET FRERES,,Beguedo,BOULGOU,,BF,+226 67 87 50 09,https://location.westernunion.com/bf/boulgou/beguedo/7d5085592cf0c7a704a6688a048fc923,Mo-Su 07:00-19:00,Western Union,Q861042
9cbb9c4e1cafbebc0914a46b359d713f,western_union,ORABANK TENKODOGO,,Tenkodogo,BOULGOU,,BF,+226 24 71 00 33,https://location.westernunion.com/bf/boulgou/tenkodogo/9cbb9c4e1cafbebc0914a46b359d713f,Mo-Fr 07:30-18:00; Sa 08:00-13:00,Western Union,Q861042
c5e70d0c5e0abfe43feb85be8844716d,western_union,AGENCE TORLA,,Torla,BOULGOU,,BF,+226 67 87 50 09,https://location.westernunion.com/bf/boulgou/torla/c5e70d0c5e0abfe43feb85be8844716d,Mo-Su 07:00-21:30,Western Union,Q861042
d9c004e41ce6062b7e9ecb9315b3c96f,western_union,ETABLISSEMENT YODA HONORE,,Komtoega,BOULGOU,,BF,+226 76 45 96 21,https://location.westernunion.com/bf/boulgou/komtoega/d9c004e41ce6062b7e9ecb9315b3c96f,Mo-Sa 07:00-20:00; Su 08:00-20:00,Western Union,Q861042
939b5b17a902a1940c62b3fc5b9ff29d,western_union,ENTREPRISE L'AVENIR DE BEGUEDO,,Beguedo,BOULGOU,,BF,+226 76 55 45 65,https://location.westernunion.com/bf/boulgou/beguedo/939b5b17a902a1940c62b3fc5b9ff29d,Mo-Su 07:30-19:00,Western Union,Q861042
60cae2116a093c58fb0f504b7b5887cd,western_union,TOWU BULGA SERVICE 02,,Beguedo,BOULGOU,,BF,+226 73 33 74 77,https://location.westernunion.com/bf/boulgou/beguedo/60cae2116a093c58fb0f504b7b5887cd,Mo-Sa 07:00-19:00; Su 07:30-17:00,Western Union,Q861042
214d6b4ad15472cd68ea68aa407c8ad3,western_union,TOWU BULGA SERVICE,,Beguedo,BOULGOU,,BF,+226 76 33 74 77,https://location.westernunion.com/bf/boulgou/beguedo/214d6b4ad15472cd68ea68aa407c8ad3,Mo-Su 07:00-18:00,Western Union,Q861042
81a858650c1401af378b0ae659d9aa6d,western_union,SAMB SERVICES,,Beguedo,BOULGOU,,BF,+226 70 04 68 25,https://location.westernunion.com/bf/boulgou/beguedo/81a858650c1401af378b0ae659d9aa6d,Mo-Su 07:30-21:00,Western Union,Q861042
3f1a604b8ed34a509d4a14d3da0f6d01,western_union,THE WHITE,,Beguedo,BOULGOU,,BF,+226 64 66 60 94,https://location.westernunion.com/bf/boulgou/beguedo/3f1a604b8ed34a509d4a14d3da0f6d01,Mo-Su 07:30-21:00,Western Union,Q861042
e932c4c36f62ec5695e373ba525f9bd7,western_union,ETS BAMBORE ZENFOMA & FRERES,,Niaogho,BOULGOU,,BF,+226 76 26 50 78,https://location.westernunion.com/bf/boulgou/niaogho/e932c4c36f62ec5695e373ba525f9bd7,Mo-Su 07:00-21:30,Western Union,Q861042
49dd7d5e997f3100a7d9f91fb2df1723,western_union,CBI BEGUEDO,,Beguedo,BOULGOU,,BF,+226 25 31 23 23,https://location.westernunion.com/bf/boulgou/beguedo/49dd7d5e997f3100a7d9f91fb2df1723,Mo-Fr 07:30-17:00; Sa 08:00-14:00,Western Union,Q861042
b7502dfcd93cc15045f3ddbb963c61c8,western_union,HUNSUNCRI IMPORT EXPORT,,Garango,BOULGOU,,BF,+226 78 88 82 70,https://location.westernunion.com/bf/boulgou/garango/b7502dfcd93cc15045f3ddbb963c61c8,Mo-Su 07:30-21:00,Western Union,Q861042
eb5f7d2eb5104f5eb86139524d6dcad4,western_union,HALLALE TRANSFERT,,Garango,BOULGOU,,BF,+226 72 77 64 75,https://location.westernunion.com/bf/boulgou/garango/eb5f7d2eb5104f5eb86139524d6dcad4,Mo-Sa 07:00-20:00; Su 08:00-20:00,Western Union,Q861042
ae13730ecfca4ad04a2e740f254f8989,western_union,CBI GARANGO,,Garango,BOULGOU,,BF,+226 25 49 10 00,https://location.westernunion.com/bf/boulgou/garango/ae13730ecfca4ad04a2e740f254f8989,Mo-Fr 07:30-18:00; Sa-Su 08:00-13:00,Western Union,Q861042
cbeea2265d64640c2c6fedf8089feedb,western_union,HUNSUNCRI IMPORT EXPORT,,Garango,BOULGOU,,BF,+226 78 88 82 70,https://location.westernunion.com/bf/boulgou/garango/cbeea2265d64640c2c6fedf8089feedb,Mo-Su 07:00-21:30,Western Union,Q861042
fe1837bd659406b501ae4581902409aa,western_union,YANKINE ET FRERES KADPOGO,,Garango,BOULGOU,,BF,+226 76 82 15 83,https://location.westernunion.com/bf/boulgou/garango/fe1837bd659406b501ae4581902409aa,Mo-Su 07:30-19:00,Western Union,Q861042
125b9e21adf91b4d9b74e83310cc568a,western_union,ENTREPRISE GOUEM ET FRERES,,Boussouma,BOULGOU,,BF,+226 61 31 60 81,https://location.westernunion.com/bf/boulgou/boussouma/125b9e21adf91b4d9b74e83310cc568a,Mo-Su 06:00-19:00,Western Union,Q861042
6b3d287d8413e9178261804b7f601166,western_union,ECOBANK AGENCE BACB DE TENKODO,,Tenkodogo,BOULGOU,,BF,+226 70 31 35 34,https://location.westernunion.com/bf/boulgou/tenkodogo/6b3d287d8413e9178261804b7f601166,Mo-Sa 07:00-18:30; Su 07:00-15:00,Western Union,Q861042
75036899228e7887dfcd3880f2fda16d,western_union,CBI AGENCE TENKODOGO,,Tenkodogo,BOULGOU,,BF,+226 79 82 14 39,https://location.westernunion.com/bf/boulgou/tenkodogo/75036899228e7887dfcd3880f2fda16d,Mo-Fr 07:30-18:00; Sa 08:00-14:00,Western Union,Q861042
dd1805395448be408623e0886e4249d0,western_union,SONAPOST,,Garango,BOULGOU,,BF,+226 50 30 18 34,https://location.westernunion.com/bf/boulgou/garango/dd1805395448be408623e0886e4249d0,Mo-Fr 07:00-17:30; Sa 08:00-12:00,Western Union,Q861042
0b6a68f9cbcadd6ea0ccdda7147bff37,western_union,ETS NABONS WENDE TRADE,,Tenkodogo,BOULGOU,,BF,+226 70 13 88 06,https://location.westernunion.com/bf/boulgou/tenkodogo/0b6a68f9cbcadd6ea0ccdda7147bff37,Mo-Sa 07:30-18:30; Su 09:00-17:00,Western Union,Q861042
4be0eec5e23306de99d77d0f060e5199,western_union,BANQUE ATLANTIQUE TENKODOGO,,Tenkodogo,BOULGOU,,BF,+226 25 49 24 46,https://location.westernunion.com/bf/boulgou/tenkodogo/4be0eec5e23306de99d77d0f060e5199,Mo-Sa 07:30-18:00,Western Union,Q861042
d7576190f887c1749b50c088cd5daaf0,western_union,LA COLOMBE TENKODOGO,,Tenkodogo,BOULGOU,,BF,+226 70 73 61 21,https://location.westernunion.com/bf/boulgou/tenkodogo/d7576190f887c1749b50c088cd5daaf0,Mo-Fr 07:30-19:00; Sa 08:00-17:00,Western Union,Q861042
7e9c6056aeb8ad0e1b2044224e521f0a,western_union,CORIS BANK ZABRE,,Zabre,BOULGOU,,BF,+226 25 49 10 00,https://location.westernunion.com/bf/boulgou/zabre/7e9c6056aeb8ad0e1b2044224e521f0a,Mo-Fr 07:30-18:00; Sa-Su 08:00-13:00,Western Union,Q861042
55f27b4685fbbb21a9bd427d52e57d98,western_union,ETABLISSEMENT ZAMPOU ET FRERES,,Tenkodogo,BOULGOU,,BF,+226 76 72 50 93,https://location.westernunion.com/bf/boulgou/tenkodogo/55f27b4685fbbb21a9bd427d52e57d98,Mo-Su 07:30-19:00,Western Union,Q861042
63ce1db2bee2e6fca234d834958407b6,western_union,SONAPOST,,Tenkodogo,BOULGOU,,BF,+226 50 30 18 34,https://location.westernunion.com/bf/boulgou/tenkodogo/63ce1db2bee2e6fca234d834958407b6,Mo-Fr 07:00-17:30; Sa 08:00-12:00,Western Union,Q861042
c2b667919cf6141455e2556517aea003,western_union,CBI CINKANSE,,Bagre,BOULGOU,,BF,+226 78 64 21 06,https://location.westernunion.com/bf/boulgou/bagre/c2b667919cf6141455e2556517aea003,Mo-Fr 07:30-18:00; Sa 08:00-14:00,Western Union,Q861042
