Ref,Spider,Name,Address,City,State,Zipcode,Country,Phone,Website,Hours,Brand,WikiData
https://stores.advanceautoparts.com/il/bourbonnais/507-n-convent-st,advance_auto_parts_us,Advance Auto Parts,,Bourbonnais,IL,,US,+1 815-401-1162,https://stores.advanceautoparts.com/il/bourbonnais/507-n-convent-st,Mo-Sa 07:30-21:00; Su 09:00-20:00,Advance Auto Parts,Q4686051
https://local.pharmacy.jewelosco.com/#5672867,albertsons,Jewel-Osco Pharmacy,,Bourbonnais,IL,,US,+1 815-929-0590,https://local.pharmacy.jewelosco.com/il/bourbonnais/655-main-st-nw.html,Mo-Fr 08:00-21:00; Sa 09:00-18:00; Su 09:00-17:00,Jewel-Osco,Q3178470
https://local.jewelosco.com/#5603662,albertsons,Jewel-Osco,,Bourbonnais,IL,,US,+1 815-929-0560,https://local.jewelosco.com/il/bourbonnais/655-main-st-nw.html,"Mo-Fr 06:00-24:00,08:00-21:00; Sa 06:00-24:00,09:00-18:00; Su 06:00-24:00,09:00-17:00",Jewel-Osco,Q3178470
https://stores.aldi.us/#18207419,aldi_sud_us,ALDI  950 Main St NW,,Bourbonnais,IL,,US,+1 833-468-1093,https://stores.aldi.us/il/bourbonnais/950-main-st-nw,"Mo-Su 08:30-20:00,09:00-20:00",ALDI,Q41171672
https://stores.aldi.us/#4420012,aldi_sud_us,ALDI  2051 N State Route 50,,Bourbonnais,IL,,US,+1 833-468-7039,https://stores.aldi.us/il/bourbonnais/2051-n-state-route-50,"Mo-Su 08:30-20:00,09:00-20:00",ALDI,Q41171672
https://locations.arbys.com/il/bourbonnais/1512-n.-covent-st.html,arbys_us,"Arby's Fast-Food Drive Through Near You in Bourbonnais, IL",,Bourbonnais,IL,,US,+1 815-401-5405,https://locations.arbys.com/il/bourbonnais/1512-n.-covent-st.html,Mo-Su 10:00-22:00,Arby's,Q630866
11837,asics_us,DICK'S Sporting Goods  - Bourbonnais,2054 N State Route 50,Bourbonnais,IL,,US,+1 815-802-0565,,Mo-Sa 09:00-21:00; Su 10:00-19:00,asics,Q327247
62302,asics_us,Salkeld & Sons Inc,575 William R Latham Senior Dr,Bourbonnais,IL,,US,+1 815-932-4111,,,asics,Q327247
62378,asics_us,Finish Line,1600 IL-50,Bourbonnais,IL,,US,+1 815-932-9947,,,asics,Q327247
https://locations.atipt.com/bourbonnais-il,ati_physical_therapy,ATI Physical Therapy Bourbonnais 106,,Bourbonnais,IL,,US,+1 815-936-1855,https://locations.atipt.com/bourbonnais-il,,ATI Physical Therapy,Q50039703
https://locations.auntieannes.com/#5605,auntie_annes,Auntie Anne's Northfield Square Mall,,Bourbonnais,IL,,US,+1 815-937-2688,https://locations.auntieannes.com/il/bourbonnais/1600-n-state-rt-50,,Auntie Anne's,Q4822010
2690,autozone_us,AutoZone Auto Parts Bourbonnais,,Bourbonnais,IL,,US,+1 815-933-2275,https://www.autozone.com/locations/il/bourbonnais/648-n-convent-rd.html,Mo-Sa 07:30-20:00; Su 08:00-20:00,AutoZone,Q4826087
BBW02660,bathandbodyworks_us,BRADLEY COMMONS,,BOURBONNAIS,IL,,US,+1 815-214-2359,,Mo-Sa 10:00-20:00; Su 10:00-18:00,Bath & Body Works,Q810773
646,batteriesplus,Visit Our Store In Bourbonnais Today,,Bourbonnais,IL,,US,+1 815-348-7161,https://www.batteriesplus.com/store-locator/il/bourbonnais/batteries-plus-646,Mo-Sa 09:00-18:00; Su 10:00-17:00,Batteries Plus Bulbs,Q17005157
https://stores.bestbuy.com/il/bourbonnais/1584-n-state-route-50-1123.html,bestbuy,Best Buy Kankakee,,Bourbonnais,IL,,US,+1 815-932-2995,https://stores.bestbuy.com/il/bourbonnais/1584-n-state-route-50-1123.html,,Best Buy,Q533415
https://local.biglots.com/#13191039,biglots,Big Lots - Bourbonnais,,Bourbonnais,IL,,US,+1 815-928-8247,https://local.biglots.com/il/bourbonnais/185-s-kennedy-dr,Mo-Sa 09:00-21:00; Su 09:00-19:00,Big Lots,Q4905973
240607,bluerhino,Circle K #4700171,,Bourbonnais,IL,,US,+1 815-935-9544,,,Blue Rhino,Q65681213
189978,bluerhino,Minit Mart #624,,Bourbonnais,IL,,US,+1 815-933-8364,,,Blue Rhino,Q65681213
43489,bluerhino,Ace - Girard Ace Hardware #8984,,Bourbonnais,IL,,US,+1 815-928-9888,,,Blue Rhino,Q65681213
152417,bluerhino,Walgreens #10339,,Bourbonnais,IL,,US,+1 815-937-0502,,,Blue Rhino,Q65681213
73721,bluerhino,Speedway #7509,,Bourbonnais,IL,,US,+1 815-932-2260,,,Blue Rhino,Q65681213
203088,bluerhino,CASEY'S GENERAL STORE #2910,,BOURBONNAIS,IL,,US,+1 815-929-0957,,,Blue Rhino,Q65681213
143906,bluerhino,Kroger #984- Central - Fuel Site,,Bourbonnais,IL,,US,+1 815-614-2003,,,Blue Rhino,Q65681213
100834,bluerhino,Kroger #984- Central,,Bourbonnais,IL,,US,+1 815-935-1650,,,Blue Rhino,Q65681213
146056,bluerhino,Kankakee Farm and Fleet #21,,Bourbonnais,IL,,US,+1 815-933-3244,,,Blue Rhino,Q65681213
240618,bluerhino,Circle K #4700172,,Bourbonnais,IL,,US,+1 815-935-9543,,,Blue Rhino,Q65681213
192759,bluerhino,Murphy's #8817,,Bourbonnais,IL,,US,+1 815-932-3659,,,Blue Rhino,Q65681213
80762105584106091400100000961334,bp,BP,,Bourbonnais,IL,,US,+1 815-933-8364,,24/7,BP,Q152057
54378,chevrolet,"PHILLIPS CHEVROLET OF BRADLEY, LLC",,Bourbonnais,IL,,US,+1 866-488-4260,https://www.phillipschevybradley.com,Mo-Fr 08:00-19:00; Sa 08:00-18:00,Chevrolet,Q29570
il_bourbonnais_1601-n-state-route-50,chipotle, ,,Bourbonnais,IL,,US,+1 815-932-3225,https://locations.chipotle.com/il/bourbonnais/1601-n-state-route-50,,Chipotle,Q465751
5210-quebec-drive,churchs_chicken,Quebec Drive,,Bourbonnais,IL,,US,+1 779-260-4410,https://locations.churchs.com/il/bourbonnais/5210-quebec-drive,,Church's Chicken,Q1089932
91519,citi,ATM Walgreens,,Bourbonnais,IL,,US,,,,Citibank,Q857063
78748,citi,ATM Speedway,,Bourbonnais,IL,,US,,,,Citibank,Q857063
43663,citi,ATM Circle K,,Bourbonnais,IL,,US,,,,Citibank,Q857063
61534,citi,ATM Kroger,,Bourbonnais,IL,,US,,,,Citibank,Q857063
81716,citi,ATM Target,,Bradley,IL,,US,,,,Citibank,Q857063
41097,citi,ATM Circle K,,Bourbonnais,IL,,US,,,,Citibank,Q857063
392,culvers_us,"Culver's of Bourbonnais, IL - Convent St",,Bourbonnais,IL,,US,+1 815-614-3638,http://www.culvers.com/restaurants/bourbonnais,Mo-Fr 10:00-23:00; Su 10:00-23:00,Culver's,Q1143589
248087,dennys,Denny's,,Bourbonnais,IL,,US,+1 815-937-9304,https://locations.dennys.com/IL/BOURBONNAIS/248087,24/7,Denny's,Q1189695
2204,dickeys_barbecue_pit_us,Bourbonnais-Quebec Dr,,Bourbonnais,IL,,US,+1 779-260-4409,https://www.dickeys.com/locations/illinois/bourbonnais/bourbonnais-quebec-dr,Mo-Su 11:00-21:00,Dickey's Barbecue Pit,Q19880747
750,dickssportinggoods,"DICK'S Sporting Goods Store in Bourbonnais, IL | 750",,Bourbonnais,IL,,US,+1 815-802-0565,https://stores.dickssportinggoods.com/il/bourbonnais/750/,Mo-Sa 09:00-21:00; Su 10:00-19:00,Dick's Sporting Goods,Q5272601
2862,dominos_pizza_us,Domino's Pizza,,Bourbonnais,IL,,US,+1 815-939-6400,https://pizza.dominos.com/illinois/bourbonnais/100-e-john-casey-drive,Mo-Th 10:30-24:00; Fr-Sa 10:30-01:00; Su 10:30-24:00,Domino's,Q839466
348463,dunkin_us,Dunkin',,Bourbonnais,IL,,US,+1 815-933-7100,https://locations.dunkindonuts.com/en/il/bourbonnais/112-e-bethel-dr/348463,Mo-Sa 04:00-20:00; Su 04:00-19:00,Dunkin',Q847743
359162,dunkin_us,Dunkin',,Bourbonnais,IL,,US,+1 815-929-9109,https://locations.dunkindonuts.com/en/il/bourbonnais/5916-n-convent-st/359162,Mo-Sa 04:00-20:00; Su 04:00-17:00,Dunkin',Q847743
https://www.edwardjones.com/us-en/financial-advisor/ryan-weimer,edwardjones,Ryan T Weimer,,Bourbonnais,IL,,US,+1 815-802-1892,https://www.edwardjones.com/us-en/financial-advisor/ryan-weimer,Mo-Th 08:00-16:30; Fr 08:00-16:00,Edward Jones,Q5343830
520892,eg_america_us,Minit Mart,,Bourbonnais,IL,,US,+1 815-933-8364,https://www.minitmart.com/find-us/generic-store-page/?id=600624,,Minit Mart,Q18154470
E11537,enterprise,Bourbonnais,,Bourbonnais,IL,,US,+1 815-936-0404,,,Enterprise Rent-A-Car,Q17085454
https://local.fedex.com/#25206010,fedex,,,Bourbonnais,IL,,US,+1 800-463-3339,https://local.fedex.com/en-us/il/bourbonnais/snjj3,,FedEx,Q459477
https://local.fedex.com/#25476747,fedex,,,Bourbonnais,IL,,US,+1 800-463-3339,https://local.fedex.com/en-us/il/bourbonnais/ikkas,,FedEx,Q459477
https://stores.finishline.com/il/bourbonnais/northfield-square-mall.html,finishline,Finish Line,,Bourbonnais,IL,,US,+1 815-932-9947,https://stores.finishline.com/il/bourbonnais/northfield-square-mall.html,Mo-Sa 11:00-20:00; Su 12:00-18:00,Finish Line,Q5450341
https://locations.fivebelow.com/il/bradley/2066-il-50,five_below,Five Below Bradley Commons,,Bradley,IL,,US,,https://locations.fivebelow.com/il/bradley/2066-il-50,Mo-Sa 10:00-20:00; Su 11:00-18:00,Five Below,Q5455836
https://restaurants.fiveguys.com/#15553240,five_guys_us,Five Guys Bradley,,Bradley,IL,,US,+1 708-653-5489,https://restaurants.fiveguys.com/1617-illinois-route-50,"Mo-Su 11:00-21:30,11:00-22:00",Five Guys,Q1131810
Motorcraft3516USAEnglish,ford,Court Street Ford Inc,,Illinois,IL,,US,+1 815-939-9600,,,Ford,Q44294
Motorcraft3517USAEnglish,ford,Napleton Lincoln of Bourbonnais,,Illinois,IL,,US,+1 815-933-8221,,,Ford,Q44294
https://www.ford.com/dealerships/dealer-details/il/bourbonnais/court-street-ford/,ford_dealers_us,Court Street Ford,,Bourbonnais,IL,,US,+1 779-258-0347,https://www.ford.com/dealerships/dealer-details/il/bourbonnais/court-street-ford/,,Ford Motor Company,Q44294
3943,gamestop_us,Bradley Commons,,BOURBONNAIS,IL,,US,+1 815-932-7928,https://www.gamestop.com/search/?store=3943,Mo-Th 12:00-20:00; Fr-Sa 10:00-21:00; Su 12:00-20:00,GameStop,Q202210
https://stores.gnc.com/#24057665,gnc,GNC Northfield Square,,,IL,,US,+1 815-935-5151,https://stores.gnc.com/all-stores-illinois/bourbonnais/1600-north-state-route-50,Mo-Sa 11:00-20:00; Su 12:00-18:00,GNC,Q4808595
ef2ead32-b6fa-e611-bbdb-005056890337,goodwill,Bourbonnais Store,,Bourbonnais,IL,,US,+1 815-935-2779,https://www.goodwill.org/locator/location/?store=ZWYyZWFkMzItYjZmYS1lNjExLWJiZGItMDA1MDU2ODkwMzM3&lat=NDEuMTU5NDY=&lng=LTg3Ljg4NDQ2,,Goodwill,Q5583655
https://salons.greatclips.com/us/il/bourbonnais/2024-n-state-route-50,greatclips,Great Clips,,Bourbonnais,IL,,US,+1 815-802-0500,https://salons.greatclips.com/us/il/bourbonnais/2024-n-state-route-50,Mo-Fr 09:00-19:00; Sa 09:00-18:00; Su 09:00-17:00,Great Clips,Q5598967
4403,gulf_pr_us,SHADDY CONVENIENT MART,,Bourbonnais,IL,,US,+1 815-936-6306,https://www.gulfoil.com/shaddy-convenient-mart,,Gulf Oil,Q5617505
mdwbohx-hampton-bourbonnais-kankakee,hilton,Hampton Inn Bourbonnais Kankakee,,,IL,,US,+1 815-933-3800,https://www.hilton.com/ar/hotels/mdwbohx-hampton-bourbonnais-kankakee/,,Hampton by Hilton,Q5646230
1702,honey_baked,HoneyBaked of Bourbonnais,,Bourbonnais,IL,,US,+1 815-935-9700,https://www.honeybaked.com/stores/1702,,Honey Baked Ham,Q5893363
14132,h_r_block,H&R Block,,Bourbonnais,IL,,US,+1 815-929-0411,https://www.hrblock.com/local-tax-offices/illinois/bourbonnais/1511-n-convent/14132/,,H&R Block,Q5627799
il_bourbonnais_breakfast-1347-kinneman-dr-3102,ihop,IHOP Breakfast Restaurants Near You at 1347 Kinneman Dr,,Bourbonnais,IL,,US,+1 815-929-9765,https://restaurants.ihop.com/en-us/il/bourbonnais/breakfast-1347-kinneman-dr-3102,,IHOP,Q1185675
https://office.jacksonhewitt.com/#27578391,jackson_hewitt,Jackson Hewitt,,Bourbonnais,IL,,US,+1 815-932-1038,https://office.jacksonhewitt.com/tax-preparation-services-locations/en/il/bourbonnais/2080-n-state-route-50/51307,Mo-Fr 09:30-17:30; Sa 09:00-17:00; Su 12:00-16:00,Jackson Hewitt,Q6117132
https://locations.jimmyjohns.com/il/bourbonnais/sandwiches-490.html,jimmy_johns,Jimmy John's,,Bourbonnais,IL,,US,+1 815-929-9620,https://locations.jimmyjohns.com/il/bourbonnais/sandwiches-490.html,,Jimmy John's,Q1689380
https://locations.jimmyjohns.com/il/bourbonnais/sandwiches-2833.html,jimmy_johns,Jimmy John's,,Bourbonnais,IL,,US,+1 815-935-5177,https://locations.jimmyjohns.com/il/bourbonnais/sandwiches-2833.html,,Jimmy John's,Q1689380
2587,joann_us,JOANN Fabric and Crafts,,Bourbonnais,IL,,US,+1 815-401-4443,https://stores.joann.com/il/bourbonnais/2587/,Mo-Sa 09:00-21:00; Su 10:00-18:00,JOANN,Q6203968
78,kay_jewelers,KAY Jewelers,1690 N State Rd.,Bourbonnais,IL,,US,+1 815-937-4400,,Mo-Sa 11:00-19:00; Su 12:00-18:00,Kay Jewelers,Q62029290
300924,kindercare,Bourbonnais KinderCare,,Bourbonnais,IL,,US,,https://www.kindercare.com/our-centers/bourbonnais/il/300924,,KinderCare Learning Centers,Q6410551
1034,kohls_us,Kohl's,,Bourbonnais,IL,,US,+1 815-939-0478,https://www.kohls.com/stores/il/bourbonnais-1034.shtml,Mo-Sa 09:00-21:00; Su 09:00-20:00,Kohl's,Q967265
https://local.lenscrafters.com/il/bourbonnais/2024-n-state-rt-50.html,lenscrafters,LensCrafters,,Bourbonnais,IL,,US,+1 815-932-2200,https://local.lenscrafters.com/il/bourbonnais/2024-n-state-rt-50.html,Mo 09:00-19:00; Tu-We 10:00-19:00; Th-Sa 09:00-19:00; Su 11:00-17:00,LensCrafters,Q6523209
CHIKK,marriott,Fairfield Inn Kankakee Bourbonnais,,Bourbonnais,IL,,US,+1 815-935-1334,https://www.marriott.com/CHIKK,,Fairfield by Marriott,Q5430314
18153,mattress_firm_us,Mattress Firm Bradley East,,Bourbonnais,IL,,US,+1 815-936-8108,https://www.mattressfirm.com/en-us/stores/il/bourbonnais/119183/,,Mattress Firm,Q6791878
17077,mattress_firm_us,Mattress Firm Bradley West,,Bourbonnais,IL,,US,+1 815-936-8111,https://www.mattressfirm.com/en-us/stores/il/bourbonnais/119150/,,Mattress Firm,Q6791878
https://locations.maurices.com/#11688534,maurices,maurices Bradley Commons,,Bourbonnais,IL,,US,+1 815-935-5854,https://locations.maurices.com/us/il/bourbonnais/2022-n-state-rte-50,Mo-Sa 10:00-20:00; Su 11:00-18:00,maurices,Q6793571
https://www.monicals.com/locations/monicals-pizza-of-bourbonnais/,monicals_pizza_us,Monicalâ€™s Pizza of Bourbonnais,,Bourbonnais,IL,,US,+1 815-932-9100,https://www.monicals.com/locations/monicals-pizza-of-bourbonnais/,,Monical's Pizza,Q6900121
8817,murphy_usa_us,,,Bourbonnais,IL,,US,+1 815-932-3659,,Mo-Sa 04:30-23:30; Su 05:30-23:00,Murphy USA,Q19604459
https://locations.noodles.com/il/bourbonnais/2024-route-50.html,noodles_and_company_us,Noodles & Company Bradley Commons,,Bourbonnais,IL,,US,+1 815-939-3810,https://locations.noodles.com/il/bourbonnais/2024-route-50.html,Mo-Th 10:30-21:00; Fr-Sa 10:30-22:00; Su 10:30-21:00,Noodles and Company,Q7049673
https://locations.papajohns.com/#10693097,papa_johns,Papa John's,,Bourbonnais,IL,,US,+1 815-932-4800,https://locations.papajohns.com/united-states/il/60914/bourbonnais/195-n-kennedy-dr,Mo-Su 11:00-23:00,Papa John's Pizza,Q2759586
043627,penske,Pacesetter Truck Caps &amp; Accessories,,BOURBONNAIS,IL,,US,+1 815-935-1873,https://www.pensketruckrental.com/locations/us/illinois/bourbonnais/043627/,,Penske,Q81234570
https://stores.petco.com/#27960411,petco,Petco Bourbonnais,,Bourbonnais,IL,,US,+1 815-929-0245,https://stores.petco.com/il/bourbonnais/pet-supplies-bourbonnais-il-1660.html,Mo 09:00-20:00; Tu 09:00-19:00; We-Sa 09:00-20:00; Su 10:00-19:00,Petco,Q7171798
il_bourbonnais_582-main-nw,pizza_hut_us,582 Main NW,,Bourbonnais,IL,,US,,https://locations.pizzahut.com/il/bourbonnais/582-main-nw,,Pizza Hut,Q191615
il_bourbonnais_559-main-st-nw,pizza_hut_us,559 Main St  NW,,Bourbonnais,IL,,US,+1 815-932-2900,https://locations.pizzahut.com/il/bourbonnais/559-main-st-nw,,Pizza Hut,Q191615
https://www.publicstorage.com/self-storage-il-bourbonnais/6025.html,public_storage_us,Public Storage,,Bourbonnais,IL,,US,+1 779-771-7848,https://www.publicstorage.com/self-storage-il-bourbonnais/6025.html,,Public Storage,Q1156045
https://www.publicstorage.com/self-storage-il-bourbonnais/6026.html,public_storage_us,Public Storage,,Bourbonnais,IL,,US,+1 779-888-4282,https://www.publicstorage.com/self-storage-il-bourbonnais/6026.html,,Public Storage,Q1156045
4232,rentacenter,Rent-A-Center,,Bourbonnais,IL,,US,+1 815-933-7290,https://locations.rentacenter.com/illinois/bourbonnais/125-n-kennedy-dr-spc-2/,Mo-Sa 10:00-18:00,Rent-A-Center,Q7313497
132,shoe_carnival_us,Shoe Carnival,,Bourbonnais,IL,,US,+1 815-928-8578,https://stores.shoecarnival.com/il/bourbonnais/shoe-store-bourbonnais-il-132.html,Mo-Sa 10:00-21:00; Su 11:00-19:00,Shoe Carnival,Q7500007
7369663875386073255,sleep_number_us,Sleep Number,,Bourbonnais,IL,,US,,https://www.sleepnumber.com/stores/il/bourbonnais/2086-n-state-route-50,Mo-Th 10:00-19:00; Fr-Sa 10:00-20:00; Su 11:00-19:00,Sleep Number,Q7447640
32237,smilebrands,590 Dental Care,590 William R Latham Drive,Bourbonnais,IL,,US,+1 815-932-6665,https://590dentalbourbonnais.com,,Smile Brands Inc.,Q108286823
32235,smilebrands,Main Street Dentistry,801 Main Street NW,Bourbonnais,IL,,US,+1 815-932-3516,https://bourbonnaisdental.com,,Smile Brands Inc.,Q108286823
1585-north-state-rt-50,staples,"Staples Bourbonnais, IL",,Bourbonnais,IL,,US,,https://stores.staples.com/il/bourbonnais/1585-north-state-rt-50,Mo-Fr 09:00-20:00; Sa 10:00-19:00; Su 10:00-18:00,Staples,Q785943
171,steak_n_shake,Steak n Shake,,Bourbonnais,IL,,US,+1 815-932-5600,https://www.steaknshake.com/locations/il-bourbonnais-locke-road/,,Steak N Shake,Q7605233
https://restaurants.subway.com/#14904185,subway,Subway Promenade of Bourbonnais,,Bourbonnais Kankakee,IL,,US,+1 815-939-3355,https://restaurants.subway.com/united-states/il/bourbonnais/922-n-convent-street,Mo-Su 09:00-22:00,Subway,Q244457
https://restaurants.subway.com/#14894180,subway,Subway,,Bourbonnais Kankakee,IL,,US,+1 815-939-1300,https://restaurants.subway.com/united-states/il/bourbonnais/646-south-main-street,Mo-Su 09:00-22:00,Subway,Q244457
https://restaurants.subway.com/#1029233656,subway,Subway Road Ranger Truck Stop,,Bourbonnais,IL,,US,+1 779-260-4409,https://restaurants.subway.com/united-states/il/bourbonnais/5210-quebec-drive,Mo-Su 08:00-22:00,Subway,Q244457
82190,supercuts,Bourbonnais Towne Centre,551 Main St Nw,Bourbonnais,IL,,US,+1 815-523-7545,https://www.supercuts.com/checkin/82190,Mo 12:00-15:00; Tu-Su 00:00-01:00,Supercuts,Q7643239
https://locations.tacobell.com/#6142921,taco_bell,Taco Bell,,Bourbonnais,IL,,US,+1 815-935-1758,https://locations.tacobell.com/il/bourbonnais/582-main-nw.html,Mo-We 07:00-02:00; Th 07:00-00:30; Fr-Sa 07:00-03:00; Su 07:00-02:00,Taco Bell,Q752941
https://locations.tacobell.com/#6145339,taco_bell,Taco Bell,,Bourbonnais,IL,,US,+1 815-936-7475,https://locations.tacobell.com/il/bourbonnais/2036-state-route-50-north.html,Mo-Th 07:00-01:00; Fr-Sa 07:00-02:00; Su 07:00-01:00,Taco Bell,Q752941
583541,taco_johns_us,Bourbonnais,"562 William R Latham Sr Dr, Bourbonnais IL 60914",Bourbonnais,IL,,US,+1 815-929-1333,https://locations.tacojohns.com/il/bourbonnais/562-william-r-latham-sr-dr/,Mo-Su 06:30-23:00,Taco John's,Q7673962
https://locations.tccrocks.com/il/bourbonnais/2082-north-state-route-50.html,tcc_us,TCC Bourbonnais,,Bourbonnais,IL,,US,+1 815-464-0300,https://locations.tccrocks.com/il/bourbonnais/2082-north-state-route-50.html,Mo-Sa 09:00-19:00; Su 11:00-18:00,Verizon,Q919641
10720,tjx,Bourbonnais,1525 N. State Rte 50,Bourbonnais,IL,,US,+1 815-929-0248,,Mo-Sa 09:30-21:30; Su 10:00-20:00,Marshalls,Q15903261
9073,tmobile_us,Rt 50 & St George Rd,,Bourbonnais,IL,,US,+1 815-802-0361,https://www.t-mobile.com/store-locator/il/bourbonnais/rt-50-st-george-rd,,T-Mobile,Q3511885
https://www.asurion.com/repairs/tech/locations/bradley,ubreakifix,uBreakiFix by Asurion - Bradley,,Bourbonnais,IL,,US,+1 779-236-4096,https://www.asurion.com/repairs/tech/locations/bradley,Mo-Sa 10:00-19:00; Su 12:00-17:00,Asurion Tech Repair & Solutions,Q4811938
5545,upsstore,Bourbonnais,1511 N. Convent St Suite 700,Bourbonnais,IL,,US,+1 815-929-1511,https://locations.theupsstore.com/il/bourbonnais/1511-n-convent-st,,UPS Store,Q7771029
1355503,usps,BOURBONNAIS,,BOURBONNAIS,IL,,US,+1 815-939-1531,,Mo-Fr 08:30-17:30; Sa 08:30-12:30,United States Postal Service,Q668687
6091400013,usps_collection_boxes,USPS COLLECTION BOX - BLUE BOX,30 BRIARCLIFF PROF CTR,BOURBONNAIS,IL,,US,,,,United States Postal Service,Q668687
6091400015,usps_collection_boxes,USPS COLLECTION BOX - PO LOBBY,850 MAIN ST NW,BOURBONNAIS,IL,,US,,,,United States Postal Service,Q668687
6091400018,usps_collection_boxes,USPS COLLECTION BOX - BLUE BOX,850 MAIN ST NW,BOURBONNAIS,IL,,US,,,,United States Postal Service,Q668687
6091400032,usps_collection_boxes,USPS COLLECTION BOX - PO LOBBY,850 MAIN ST NW,BOURBONNAIS,IL,,US,,,,United States Postal Service,Q668687
6091400012,usps_collection_boxes,USPS COLLECTION BOX - BLUE BOX,315 N MAIN ST,BOURBONNAIS,IL,,US,,,,United States Postal Service,Q668687
6091400011,usps_collection_boxes,USPS COLLECTION BOX - BLUE BOX,19 HERITAGE DR,BOURBONNAIS,IL,,US,,,,United States Postal Service,Q668687
6091400024,usps_collection_boxes,USPS COLLECTION BOX - BLUE BOX,633 ARMOUR RD,BOURBONNAIS,IL,,US,,,,United States Postal Service,Q668687
6091400025,usps_collection_boxes,USPS COLLECTION BOX - BLUE BOX,43 E 5000N RD,BOURBONNAIS,IL,,US,,,,United States Postal Service,Q668687
A00000016790,verizon_us,TCC Bourbonnais,,BOURBONNAIS,IL,,US,+1 815-937-9633,https://www.verizon.com/stores/details/illinois/bourbonnais/tcc-bourbonnais-1351122/,Mo-Sa 09:00-19:00; Su 11:00-18:00,Verizon,Q919641
,visa,,,BRADLEY,IL,,US,,,,,
,visa,,,KANKAKEE,IL,,US,,,,,
,visa,,,BOURBONNAIS,IL,,US,,,,,
,visa,,,BOURBONNAIS,IL,,US,,,,,
,visa,,,BOURBONAIS,IL,,US,,,,,
,visa,,,BOURBONNAIS,IL,,US,,,,,
,visa,,,BOURBONNAIS,IL,,US,,,,,
,visa,,,BOURBONNAIS,IL,,US,,,,,
,visa,,,BOURBONNAIS,IL,,US,,,,,
,visa,,,BOURBONNAIS,IL,,US,,,,,
,visa,,,BOURBONNAIS,IL,,US,,,,,
,visa,,,BOURBONNAIS,IL,,US,,,,,
,visa,,,BOURBONNAIS,IL,,US,,,,,
,visa,,,BOURBONNAIS,IL,,US,,,,,
,visa,,,BOURBONNAIS,IL,,US,,,,,
,visa,,,BOURBONNAIS,IL,,US,,,,,
,visa,,,BOURBANNAIS,IL,,US,,,,,
,visa,,,BOURBONNAIS,IL,,US,,,,,
,visa,,,BOURBONNAIS,IL,,US,,,,,
,visa,,,BOURBONNAIS,IL,,US,,,,,
,visa,,,BOURBONNAIS,IL,,US,,,,,
,visa,,,BOURBONNAIS,IL,,US,,,,,
,visa,,,BOURBONNAIS,IL,,US,,,,,
,visa,,,BOURBONNAIS,IL,,US,,,,,
,visa,,,BOURBONNIS,IL,,US,,,,,
,visa,,,BOURBONNAIS,IL,,US,,,,,
,visa,,,BOURBONNAIS,IL,,US,,,,,
,visa,,,BOURBONNAIS,IL,,US,,,,,
,visa,,,BOURBONNAIS,IL,,US,,,,,
,visa,,,BOURBONNAIS,IL,,US,,,,,
,visa,,,BOURBONNAIS,IL,,US,,,,,
,visa,,,BOURBONNAIS,IL,,US,,,,,
,visa,,,BOURBONNAIS,IL,,US,,,,,
,visa,,,BOURBONNAIS,IL,,US,,,,,
,visa,,,BOURBONNAIS,IL,,US,,,,,
,visa,,,BOURBONNAIS,IL,,US,,,,,
,visa,,,BOURBONNAIS,IL,,US,,,,,
,visa,,,BOURBONNAIS,IL,,US,,,,,
,visa,,,BOURBONNAIS,IL,,US,,,,,
850,visionworks,Visionworks Bradley,,Bourbonnais,IL,,US,+1 815-929-0120,https://locations.visionworks.com/ll/US/IL/Bourbonnais/1630-N-Kinzie-Ave,Mo-Sa 09:00-19:00,Visionworks,Q5422607
https://www.walgreens.com/locator/walgreens-501+n+convent+st-bourbonnais-il-60914/id=10339,walgreens,Walgreens,,Bourbonnais,IL,,US,+1 815-937-0632,https://www.walgreens.com/locator/walgreens-501+n+convent+st-bourbonnais-il-60914/id=10339,Mo-Su 07:00-22:00,Walgreens,Q1591889
https://locations.wendys.com/#9251004,wendys,"Wendy's Bourbonnais in Bourbonnais, IL",,Bourbonnais,IL,,US,+1 815-932-6681,https://locations.wendys.com/united-states/il/bourbonnais/599-william-latham-dr,"Mo-Su 06:30-10:30,09:00-22:00",Wendy's,Q550258
60b575196723c1146138bddf55f08482,western_union,JEWEL #2488,,Bourbonnais,IL,,US,+1 815-929-0560,https://location.westernunion.com/us/il/bourbonnais/60b575196723c1146138bddf55f08482,Mo-Su 08:00-22:00,Western Union,Q861042
f42cedf4fdb29dff66f073a8b30256e8,western_union,WALMART #001307,,Bradley,IL,,US,+1 815-937-5100,https://location.westernunion.com/us/il/bradley/f42cedf4fdb29dff66f073a8b30256e8,Mo-Sa 08:00-20:00; Su 10:00-18:00,Western Union,Q861042
4223,xfinity,Xfinity,,Bourbonnais,IL,,US,,https://www.xfinity.com/local/il/bourbonnais/1690-n-state-route-50.html,Mo-Sa 10:00-17:00,Xfinity,Q5151002
