Ref,Spider,Name,Address,City,State,Zipcode,Country,Phone,Website,Hours,Brand,WikiData
https://vertretung.allianz.de/jens.guenther/,allianz_de,Allianz Versicherung Jens Günther GENERALVERTRETUNG,,Lossatal,,,DE,+49 34262 62630,https://vertretung.allianz.de/jens.guenther/,"Mo 09:00-12:30; Tu 09:00-12:30,13:30-18:00; We 09:00-12:30; Th 09:00-12:30,13:30-16:00; Fr 09:00-12:30",Allianz SE,Q487292
https://vertretung.allianz.de/gerd.nosske/,allianz_de,Allianz Versicherung Gerd Noßke GENERALVERTRETUNG,,Wurzen,,,DE,+49 3425 922087,https://vertretung.allianz.de/gerd.nosske/,"Mo 09:00-12:00,14:00-17:00; Tu 09:00-12:00,14:00-19:00; Th 09:00-12:00,14:00-18:00; Fr 09:00-12:00",Allianz SE,Q487292
https://vertretung.allianz.de/andre.preil/,allianz_de,Allianz Versicherung Andre Preil GENERALVERTRETUNG,,Wurzen,,,DE,+49 3425 8579873,https://vertretung.allianz.de/andre.preil/,Mo 09:00-16:00; Tu 09:00-18:00; We 09:00-14:00; Th 09:00-18:00,Allianz SE,Q487292
30016,bilgro_de,bilgro Wurzen,Georg-Schumann-Straße 38,Wurzen,,,DE,,,,bilgro,Q108029888
30312_1,bmw_group,Autohaus Müller Wurzen GmbH,,Wurzen,,,DE,+49 3425 819730,https://www.bmw-mueller.de,,BMW,Q26678
1173,diska_de,diska,,Wurzen,,,DE,,https://diska.de/stores/diska-wurzen/,,diska,Q62390177
51.452318812.7813886,dpd_de,Spiller,,Thallwitz,,,DE,,,,DPD,Q541030
51.367118512.7365945999,dpd_de,Hobby Wendler,,Wurzen,,,DE,,,,DPD,Q541030
51.365670331212.7415405071,dpd_de,NKD Deutschland GmbH,,Wurzen,,,DE,,,,DPD,Q541030
51.36475712.749452,dpd_de,Nordöl-Tankstelle,,Wurzen,,,DE,,,,DPD,Q541030
51.37424812.738361,dpd_de,diska Wurzen,,Wurzen,,,DE,,,,DPD,Q541030
51.3812812.7377912,dpd_de,AWG Mode Center,,Wurzen,,,DE,,,,DPD,Q541030
2760911216,gls_de,DVD-Video-Shop,,Thallwitz OT Röcknitz,,,DE,+49 34263 41644,,"Mo-Fr 09:00-12:00,15:00-18:00; Sa 07:30-11:00",General Logistics Systems,Q46495823
2760911864,gls_de,Werbe & Textil Point Lochmann,,Wurzen,,,DE,+49 3425 8563210,,Mo-Fr 10:00-15:00,General Logistics Systems,Q46495823
2760911726,gls_de,Nordoel,,Wurzen,,,DE,+49 3425 813437,,Mo-Th 05:00-22:00; Fr-Su 05:00-23:00,General Logistics Systems,Q46495823
2760917207,gls_de,Fleischer & Restaurantbedarf Kühren,,Wurzen OT Kühren,,,DE,+49 34261 40400,,Mo-Fr 07:00-16:00,General Logistics Systems,Q46495823
1839,jysk,Wurzen,,Wurzen,,,DE,+49 3425 8542970,https://jysk.de/filialen?storeId=1839,Mo-Th 10:00-18:00; Sa 09:30-16:00,JYSK,Q138913
DE3240,kaufland,Kaufland Wurzen,,Wurzen,,,DE,+49 3425 90210,https://filiale.kaufland.de/service/filiale/frankfurt-oder-spitzkrug-multi-center-wurzen-3240.html,Mo-Sa 07:00-22:00,Kaufland,Q685967
2387,kik,KiK,,Wurzen,,,DE,+49 3425 852275,,Mo-Fr 09:00-19:00; Sa 09:00-16:00,KiK,Q883965
3637,lidl_de,,,Wurzen,,,DE,,,Mo-Sa 07:00-21:00,Lidl,Q151954
https://www.rossmann.de/de/filialen/sachsen/wurzen/markt-2.html,rossmann_de,Rossmann Drogerie-Markt Markt 2,,Wurzen,,,DE,+49 3425 819831,https://www.rossmann.de/de/filialen/sachsen/wurzen/markt-2.html,Mo-Fr 08:00-19:00; Sa 08:00-18:00,Rossmann,Q316004
40393,seat_de,Autohaus Müller Wurzen GmbH,,Wurzen,,,DE,+49 3425 819730,https://mueller-wurzen.seat.de,,SEAT,Q188217
17251,sparkasse_de,Sparkasse Muldental Geldautomat Wurzen-Nord,,Wurzen,,,DE,+49 3437 9912220,https://www.sparkasse.de/standorte/geldautomaten/sparkasse-muldental-geldautomat-wurzen-nord-17251,24/7,Sparkasse,Q13601825
5862,sparkasse_de,Sparkasse Muldental Filiale Wurzen-Nord,,Wurzen,,,DE,+49 3437 9912220,https://www.sparkasse.de/standorte/filialen/sparkasse-muldental-filiale-wurzen-nord-5862,"Mo 09:30-12:30; Th 09:30-12:30,14:00-18:00",Sparkasse,Q13601825
32720,sparkasse_de,Sparkasse Muldental Geldautomat Wurzen-Kaufland,,Wurzen,,,DE,+49 3437 9912210,https://www.sparkasse.de/standorte/geldautomaten/sparkasse-muldental-geldautomat-wurzen-kaufland-32720,Mo-Sa 07:00-22:00,Sparkasse,Q13601825
166702,sparkasse_de,Sparkasse Muldental Baufinanzierungsberatung Wurzen,,Wurzen,,,DE,+49 3437 9912210,https://www.sparkasse.de/standorte/filialen/sparkasse-muldental-baufinanzierungsberatung-wurzen-166702,Mo 09:30-12:30; Tu 09:00-18:00; We 09:30-12:30; Th 09:00-18:00; Fr 09:30-12:30,Sparkasse,Q13601825
17248,sparkasse_de,Sparkasse Muldental Geldautomat Wurzen,,Wurzen,,,DE,+49 3437 9912210,https://www.sparkasse.de/standorte/geldautomaten/sparkasse-muldental-geldautomat-wurzen-17248,24/7,Sparkasse,Q13601825
5861,sparkasse_de,Sparkasse Muldental Filiale Wurzen,,Wurzen,,,DE,+49 3437 9912210,https://www.sparkasse.de/standorte/filialen/sparkasse-muldental-filiale-wurzen-5861,Mo 09:30-12:30; Tu 09:00-18:00; We 09:30-12:30; Th 09:00-18:00; Fr 09:30-12:30,Sparkasse,Q13601825
79807,steinecke_de,Brotmeisterei Steinecke,,Wurzen,,,DE,+49 3425 927975,,Mo-Sa 07:00-19:00,Steinecke,Q57516278
4494,valora,k kiosk,,Wurzen,,,DE,,,,k kiosk,Q60381703
3401,valora,k kiosk,,Wurzen,,,DE,,,,k kiosk,Q60381703
3229,valora,k kiosk,,Wurzen,,,DE,,,,k kiosk,Q60381703
https://www.vlh.de/bst/27982/Oeffnungszeiten.html,vhl_de,VLH-Beraterin Grit Klapproth in Wurzen,,Wurzen,,,DE,+49 34292 895908,https://www.vlh.de/bst/27982/,,Vereinigte Lohnsteuerhilfe e.V.,Q15852617
https://www.vlh.de/bst/9918/Oeffnungszeiten.html,vhl_de,VLH-Beraterin Janine Voigt in Thallwitz,,Thallwitz,,,DE,+49 176 20740766,https://www.vlh.de/bst/9918/,We 16:00-18:00,Vereinigte Lohnsteuerhilfe e.V.,Q15852617
https://www.vlh.de/bst/9851/Oeffnungszeiten.html,vhl_de,VLH-Berater Silvio Kästner in Wurzen,,Wurzen,,,DE,+49 3425 8199783,https://www.vlh.de/bst/9851/,,Vereinigte Lohnsteuerhilfe e.V.,Q15852617
https://www.vlh.de/bst/2698/Oeffnungszeiten.html,vhl_de,VLH-Beraterin Alice Ebinger in Wurzen,,Wurzen,,,DE,+49 3425 928858,https://www.vlh.de/bst/2698/,Mo 10:00-17:00; We-Th 10:00-17:00,Vereinigte Lohnsteuerhilfe e.V.,Q15852617
https://www.vlh.de/bst/2000/Oeffnungszeiten.html,vhl_de,VLH-Beraterin Susann Seifert in Wurzen,,Wurzen,,,DE,+49 3425 812281,https://www.vlh.de/bst/2000/,,Vereinigte Lohnsteuerhilfe e.V.,Q15852617
,visa,,,WURZEN,,,DE,,,,,
,visa,,,WURZEN,,,DE,,,,,
,visa,,,WURZEN,,,DE,,,,,
,visa,,,WURZEN,,,DE,,,,,
,visa,,,LOSSATAL,,,DE,,,,,
https://www.vr.de/standorte/W/Wn-Wz/volks-und-raiffeisenbank-muldental-eg-geschaeftsstelle-wurzen-9846.html,vr_bank,Volks- und Raiffeisenbank Muldental eG Geschäftsstelle Wurzen,,Wurzen,,,DE,+49 3437 9380,https://www.vr-bank-muldental.de,,,
https://www.vr.de/standorte/L/volks-und-raiffeisenbank-muldental-eg-sb-stelle-falkenhain-14719.html,vr_bank,Volks- und Raiffeisenbank Muldental eG SB-Stelle Falkenhain,,Lossatal,,,DE,+49 3437 9380,https://www.vr-bank-muldental.de,,,
