Ref,Spider,Name,Address,City,State,Zipcode,Country,Phone,Website,Hours,Brand,WikiData
72484751,moneygram,PURNIMA NX - PALGHAR - NALLASOPARA,,PALGHAR,,,IN,+91 99705 54060,,Mo-Su 09:00-21:00,MoneyGram,Q1944412
72536337,moneygram,SHREE SAMARTHA KRUPA,,NALASOPARA,,,IN,+91 90495 27896,,Mo-Su 08:00-21:00,MoneyGram,Q1944412
72535590,moneygram,SNEHA NOVELTY AND XEROX CENTER,,THANE,,,IN,+91 89349 37548,,Mo-Su 08:00-21:00,MoneyGram,Q1944412
72619393,moneygram,PREMCHAND H MAURYA,,THANE,,,IN,+91 93237 78557,,Mo-Su 08:00-21:00,MoneyGram,Q1944412
72600894,moneygram,VIMALSONS JEWELLERS,,THANE,,,IN,+91 93257 56165,,Mo-Su 08:00-21:00,MoneyGram,Q1944412
72587496,moneygram,CHANDNI JEWELLERS,,THANE,,,IN,+91 96894 76478,,Mo-Su 08:00-21:00,MoneyGram,Q1944412
72895308,moneygram,HAWAI TELECOM,,THANE,,,IN,+91 89839 05802,,Mo-Su 08:00-21:00,MoneyGram,Q1944412
73271196,moneygram,ALPHA TRAVELS,,THANE,,,IN,+91 93201 12212,,Mo-Su 08:00-21:00,MoneyGram,Q1944412
73259367,moneygram,MUTHOOT FINANCE LTD - #1163 - PALGHAR -,,PALGHAR,,,IN,+91 74200 85451,,Mo-Su 09:00-19:00,MoneyGram,Q1944412
73290559,moneygram,MUTHOOT FINANCE LTD - #4239 - PALGHAR -,,PALGHAR,,,IN,+91 250 245 0111,,Mo-Su 09:00-19:00,MoneyGram,Q1944412
73312550,moneygram,MUTHOOT FINCORP LIMITED - #F1249 - NEW N,,THANE,,,IN,+91 250 240 7804,,Mo-Sa 09:00-17:30; Su 00:00-24:00,MoneyGram,Q1944412
73388542,moneygram,DEVENDRA SAHADEO GAONKAR,,NALASOPARA,,,IN,+91 97699 35240,,Mo-Su 08:00-21:00,MoneyGram,Q1944412
73414212,moneygram,NEELAM JEWELLERS AND MOBILE CENTRE,,PALGHAR,,,IN,+91 93266 00041,,Mo-Su 08:00-21:00,MoneyGram,Q1944412
73446073,moneygram,MANIRATNAM GOLD,,NALASOPARA,,,IN,+91 85302 02111,,Mo-Su 08:00-21:00,MoneyGram,Q1944412
73446086,moneygram,VARDHMAN JEWELLERS,,NALASOPARA,,,IN,+91 98605 10120,,Mo-Su 08:00-21:00,MoneyGram,Q1944412
73421438,moneygram,VISHAL MOBILE & XEROX CENTER,,THANE,,,IN,+91 90220 22057,,Mo-Su 08:00-21:00,MoneyGram,Q1944412
73536718,moneygram,SHRI GAJANAN COMMUNICATION CENTRE,,THANE,,,IN,+91 93239 41473,,Mo-Su 08:00-21:00,MoneyGram,Q1944412
73734099,moneygram,RADHESHYAM TOURS AND TRAVELS,,MUMBAI,,,IN,+91 99750 01141,,Mo-Su 08:00-21:00,MoneyGram,Q1944412
74560217,moneygram,NAZNEEN ENTERPRISES,,VASAI,,,IN,+91 98901 94260,,Mo-Su 08:00-21:00,MoneyGram,Q1944412
74742035,moneygram,ROYAL ENTERPRISES,,VASAI,,,IN,+91 98677 85033,,Mo-Su 08:00-23:00,MoneyGram,Q1944412
71526377,moneygram,NAKSHTRA JEWELLERS - PALGHAR - PALGHAR,,PALGHAR,,,IN,+91 98900 87301,,Mo-Su 09:00-21:00,MoneyGram,Q1944412
71512792,moneygram,NEELAM JEWELLERS - THANE - THANE,,THANE,,,IN,+91 250 240 1656,,Mo-Su 09:00-21:00,MoneyGram,Q1944412
,visa,,,THANE,,,IN,,,,,
,visa,,,THANE,,,IN,,,,,
