Ref,Spider,Name,Address,City,State,Zipcode,Country,Phone,Website,Hours,Brand,WikiData
175543,bluerhino,Rutter's #75,,Walkersville,MD,,US,+1 301-304-9712,,,Blue Rhino,Q65681213
68705,citi,ATM PNC AT SHEETZ,,Walkersville,MD,,US,,,,Citibank,Q857063
33074,citi,ATM 7ELEVEN-FCTI,,Walkersville,MD,,US,,,,Citibank,Q857063
47058,citi,ATM CVS,,Walkersville,MD,,US,,,,Citibank,Q857063
75304,citi,ATM Rutters #75,,Walkersville,MD,,US,,,,Citibank,Q857063
1509,cvs_us,CVS Pharmacy,,Walkersville,MD,,US,+1 301-845-2811,https://www.cvs.com/store-locator/walkersville-md-pharmacies/110-walkers-village-way-walkersville-md-21793/storeid=1509,Mo-Sa 09:00-21:00; Su 09:00-18:00,CVS Pharmacy,Q2078880
21977,dollar_general,Dollar General,,Walkersville,MD,,US,+1 240-908-4327,https://www.dollargeneral.com/store-directory/md/walkersville/21977,Mo-Su 08:00-22:00,Dollar General,Q145168
c6e018bf-f932-e211-bd7d-005056934050,goodwill,8425 Woodsboro Pike,,Walkersville,MD,,US,+1 240-651-8993,https://www.goodwill.org/locator/location/?store=YzZlMDE4YmYtZjkzMi1lMjExLWJkN2QtMDA1MDU2OTM0MDUw&lat=MzkuNDY1Ng==&lng=LTc3LjM2Mzkz,,Goodwill,Q5583655
19684,h_r_block,H&R Block,,Walkersville,MD,,US,+1 301-845-0809,https://www.hrblock.com/local-tax-offices/maryland/walkersville/discovery-crossings-shop-ctr/19684/,,H&R Block,Q5627799
md_walkersville_24-e-frederick,pizza_hut_us,24 E. Frederick,,Walkersville,MD,,US,+1 301-898-3900,https://locations.pizzahut.com/md/walkersville/24-e-frederick,,Pizza Hut,Q191615
https://local.pharmacy.safeway.com/#5673149,safeway,Safeway Pharmacy,,Walkersville,MD,,US,+1 301-845-2888,https://local.pharmacy.safeway.com/safeway/md/walkersville/151-walkers-village-way.html,Mo-Fr 09:00-20:00; Sa 09:00-17:00; Su 10:00-17:00,Safeway,Q1508234
https://local.safeway.com/#5603993,safeway,Safeway,,Walkersville,MD,,US,+1 301-845-2844,https://local.safeway.com/safeway/md/walkersville/151-walkers-village-way.html,"Mo-Fr 06:00-23:00,09:00-20:00; Sa 06:00-23:00,09:00-17:00; Su 06:00-23:00,10:00-17:00",Safeway,Q1508234
38646,seven_eleven_ca_us,7-Eleven Store,,Walkersville,MD,,US,+1 301-401-3714,https://www.7-eleven.com/locations/md/walkersville/8411-woodsboro-pike-38646,,7-Eleven,Q259340
210,sheetz,Sheetz,,Walkersville,MD,,US,+1 301-304-5490,https://orders.sheetz.com/findASheetz/store/210,24/7,Sheetz,Q7492551
https://restaurants.subway.com/#14915037,subway,Subway,,Walkersville Frederick,MD,,US,+1 301-845-0207,https://restaurants.subway.com/united-states/md/walkersville/134-walkers-village-way,Mo-Tu 08:30-21:30; We 08:00-21:30; Th-Su 08:30-21:30,Subway,Q244457
1386244,usps,WALKERSVILLE,,WALKERSVILLE,MD,,US,+1 301-845-8342,,"Mo-Fr 08:30-12:00,13:00-17:00; Sa 08:30-12:00",United States Postal Service,Q668687
2179300000,usps_collection_boxes,USPS COLLECTION BOX - BLUE BOX,7 E FREDERICK ST,WALKERSVILLE,MD,,US,,,,United States Postal Service,Q668687
2179300005,usps_collection_boxes,USPS COLLECTION BOX - PO LOBBY,7 E FREDERICK ST,WALKERSVILLE,MD,,US,,,,United States Postal Service,Q668687
2179300006,usps_collection_boxes,USPS COLLECTION BOX - PO LOBBY,7 E FREDERICK ST,WALKERSVILLE,MD,,US,,,,United States Postal Service,Q668687
2179300009,usps_collection_boxes,USPS COLLECTION BOX - PO LOBBY,7 E FREDERICK ST,WALKERSVILLE,MD,,US,,,,United States Postal Service,Q668687
2179300001,usps_collection_boxes,USPS COLLECTION BOX - BLUE BOX,300 CHAPEL CT,WALKERSVILLE,MD,,US,,,,United States Postal Service,Q668687
,visa,,,WALKERSVILLE,MD,,US,,,,,
,visa,,,WALKERSVILLE,MD,,US,,,,,
,visa,,,WALKERSVILLE,MD,,US,,,,,
,visa,,,WALKERSVILLE,MD,,US,,,,,
,visa,,,WALKERSVILLE,MD,,US,,,,,
,visa,,,WALKERSVILLE,MD,,US,,,,,
,visa,,,WALKERSVILLE,MD,,US,,,,,
,visa,,,WALKERSVILLE,MD,,US,,,,,
,visa,,,WALKERSVILLE,MD,,US,,,,,
,visa,,,WALKERSVILLE,MD,,US,,,,,
,visa,,,WALKERSVILLE,MD,,US,,,,,
,visa,,,WALKERSVILLE,MD,,US,,,,,
,visa,,,WALKERSVILLE,MD,,US,,,,,
,visa,,,WALKERSVILLE,MD,,US,,,,,
235bcb1f51caa50de28c8cb7628a9ea5,western_union,7-ELEVEN #38646,,Walkersville,MD,,US,+1 301-639-5130,https://location.westernunion.com/us/md/walkersville/235bcb1f51caa50de28c8cb7628a9ea5,,Western Union,Q861042
7c4e08c51a6ee0cb71619a29f0fe61cf,western_union,EL CHAPITO GROCERY STORE LLC,,Walkersville,MD,,US,+1 301-304-0547,https://location.westernunion.com/us/md/walkersville/7c4e08c51a6ee0cb71619a29f0fe61cf,Mo-Su 08:00-21:00,Western Union,Q861042
