Ref,Spider,Name,Address,City,State,Zipcode,Country,Phone,Website,Hours,Brand,WikiData
1066,anytime_fitness,Anytime Fitness,,Pella,IA,,US,+1 641-628-3488,https://www.anytimefitness.com/gyms/1066/pella-ia-50219/,,Anytime Fitness,Q4778364
https://restaurants.applebees.com/en-us/ia/pella/1600-washington-st-76051,applebees,Connect with this Applebee's,,Pella,IA,,US,+1 641-620-8646,https://restaurants.applebees.com/en-us/ia/pella/1600-washington-st-76051,Mo-Th 11:00-23:00; Fr-Sa 11:00-24:00; Su 11:00-22:00,Applebees,Q621532
https://locations.arbys.com/ia/pella/903-w-16th-st.html,arbys_us,"Arby's Fast-Food Drive Through Near You in Pella, IA",,Pella,IA,,US,+1 641-628-1713,https://locations.arbys.com/ia/pella/903-w-16th-st.html,Mo-Su 10:00-22:00,Arby's,Q630866
22015,asics_us,Brown's Shoe Fit Pella,721 Franklin St,Pella,IA,,US,+1 641-628-2251,,Mo-Fr 09:00-18:00; Sa 09:00-16:00,asics,Q327247
202550,bluerhino,CASEY'S GENERAL STORE #2694,,PELLA,IA,,US,+1 641-255-0031,,,Blue Rhino,Q65681213
202713,bluerhino,CASEY'S GENERAL STORE #3566,,PELLA,IA,,US,+1 641-613-3279,,,Blue Rhino,Q65681213
202519,bluerhino,CASEY'S GENERAL STORE #2598,,PELLA,IA,,US,+1 641-628-1170,,,Blue Rhino,Q65681213
https://child-care-preschool.brighthorizons.com/IA/Pella/vermeer,brighthorizons,Vermeer Yellow Iron Academy,,Pella,IA,,US,+1 641-621-8940,https://child-care-preschool.brighthorizons.com/ia/pella/vermeer,Mo-Fr 05:30-17:30,Bright Horizons,Q4967421
3707,cenex,Two Rivers Cooperative,,Pella,IA,,US,+1 641-628-4167,,24/7,Cenex,Q62127191
18485,chevrolet,PELLA MOTORS,,Pella,IA,,US,+1 641-628-4124,https://www.pellachevy.com,Mo-Tu 08:30-19:00; We 08:30-17:30; Th 08:30-19:00; Fr 08:30-17:30; Sa 08:30-15:00,Chevrolet,Q29570
65485,citi,ATM MIDWESTONE BANK PELLA DR,,Pella,IA,,US,,,,Citibank,Q857063
65486,citi,ATM MIDWESTONE BANK PELLA MAIN,,Pella,IA,,US,,,,Citibank,Q857063
469,culvers_us,"Culver's of Pella, IA - Washington St",,Pella,IA,,US,+1 641-620-1557,http://www.culvers.com/restaurants/pella-ia,Mo-Fr 10:00-22:00; Su 10:00-22:00,Culver's,Q1143589
1766,dominos_pizza_us,Domino's Pizza,,Pella,IA,,US,+1 641-416-4001,https://pizza.dominos.com/iowa/pella/1542-washington-st,Mo-Th 10:00-24:00; Fr-Sa 10:00-01:00; Su 10:00-24:00,Domino's,Q839466
https://www.edwardjones.com/us-en/financial-advisor/kaurie-marinkovich,edwardjones,Kaurie Marinkovich,,Pella,IA,,US,+1 641-628-1552,https://www.edwardjones.com/us-en/financial-advisor/kaurie-marinkovich,Mo 08:00-17:00; Tu-Th 08:30-16:30; Fr 08:30-15:00,Edward Jones,Q5343830
E162L3,enterprise,Pella,,Pella,IA,,US,+1 641-620-1133,,,Enterprise Rent-A-Car,Q17085454
https://local.fedex.com/#61078683,fedex,FedEx Authorized ShipCenter,,Pella,IA,,US,+1 641-628-4888,https://local.fedex.com/en-us/ia/pella/dsmcp,,FedEx,Q459477
https://local.fedex.com/#27755468,fedex,FedEx Authorized ShipCenter,,Pella,IA,,US,+1 641-628-4888,https://local.fedex.com/en-us/ia/pella/000ml,,FedEx,Q459477
Motorcraft3631USAEnglish,ford,Ulrich Motor Co.,,Iowa,IA,,US,+1 641-628-2184,,,Ford,Q44294
https://www.ford.com/dealerships/dealer-details/ia/pella/ulrich-ford/,ford_dealers_us,Ulrich Ford,,Pella,IA,,US,+1 641-232-7693,https://www.ford.com/dealerships/dealer-details/ia/pella/ulrich-ford/,Mo-Fr 08:30-18:00; Sa 08:30-15:00,Ford Motor Company,Q44294
https://salons.greatclips.com/us/ia/pella/1586-washington-st,greatclips,Great Clips,,Pella,IA,,US,+1 641-628-8111,https://salons.greatclips.com/us/ia/pella/1586-washington-st,Mo-Fr 10:00-19:00; Sa 08:00-17:00; Su 10:00-16:00,Great Clips,Q5598967
16001,h_r_block,H&R Block,,Pella,IA,,US,+1 641-628-1337,https://www.hrblock.com/local-tax-offices/iowa/pella/837-broadway/16001/,,H&R Block,Q5627799
https://office.jacksonhewitt.com/#27577717,jackson_hewitt,Jackson Hewitt,,Pella,IA,,US,+1 641-638-3461,https://office.jacksonhewitt.com/tax-preparation-services-locations/en/ia/pella/1650-washington-st/50751,Mo-Sa 11:00-19:00; Su 12:00-16:00,Jackson Hewitt,Q6117132
https://locations.jimmyjohns.com/ia/pella/sandwiches-1631.html,jimmy_johns,Jimmy John's,,Pella,IA,,US,+1 641-204-0025,https://locations.jimmyjohns.com/ia/pella/sandwiches-1631.html,,Jimmy John's,Q1689380
https://locations.maurices.com/#11688345,maurices,maurices De Wnkln Hof Van Pella,,Pella,IA,,US,+1 641-628-8355,https://locations.maurices.com/us/ia/pella/1570-washington-st,Mo-Fr 10:00-19:00; Sa 10:00-18:00; Su 11:00-16:00,maurices,Q6793571
71477167,moneygram,WAL-MART - #751,,PELLA,IA,,US,+1 641-628-9881,,Mo-Su 07:00-21:00,MoneyGram,Q1944412
https://locations.oreillyauto.com/ia/pella/check-engine-light-testing-339.html,oreilly,Your Pella O'Reilly Auto Parts Store,,Pella,IA,,US,+1 641-620-8013,https://locations.oreillyauto.com/ia/pella/check-engine-light-testing-339.html,Mo-Sa 07:30-20:00; Su 09:00-17:00,O'Reilly Auto Parts,Q7071951
https://locations.oreillyauto.com/ia/pella/wiper-installation-339.html,oreilly,Your Pella O'Reilly Auto Parts Store,,Pella,IA,,US,+1 641-620-8013,https://locations.oreillyauto.com/ia/pella/wiper-installation-339.html,Mo-Sa 07:30-20:00; Su 09:00-17:00,O'Reilly Auto Parts,Q7071951
https://locations.oreillyauto.com/ia/pella/battery-testing-339.html,oreilly,Your Pella O'Reilly Auto Parts Store,,Pella,IA,,US,+1 641-620-8013,https://locations.oreillyauto.com/ia/pella/battery-testing-339.html,Mo-Sa 07:30-20:00; Su 09:00-17:00,O'Reilly Auto Parts,Q7071951
https://locations.oreillyauto.com/ia/pella/autopartes-339.html,oreilly,Tu tienda O'Reilly Auto Parts en Pella,,Pella,IA,,US,+1 641-620-8013,https://locations.oreillyauto.com/ia/pella/autopartes-339.html,Mo-Sa 07:30-20:00; Su 09:00-17:00,O'Reilly Auto Parts,Q7071951
pella-yard-company-29003,ppgpaints,PELLA YARD COMPANY,,"Pella, ",IA,,US,+1 641-628-2571,https://www.ppgpaints.com/store-locator/us/iowa/pella-paint-stores/pella-yard-company-29003,,PPG Paints,Q83891559
gilcrest-jewett-69273,ppgpaints,GILCREST JEWETT,,"Pella, ",IA,,US,+1 641-628-9663,https://www.ppgpaints.com/store-locator/us/iowa/pella-paint-stores/gilcrest-jewett-69273,,PPG Paints,Q83891559
672,scooters_coffee_us,Washington & W 12th St,,Pella,IA,,US,+1 641-621-0010,,Mo-Sa 05:30-20:00; Su 06:00-20:00,Scooter's Coffee,Q117280308
https://restaurants.subway.com/#14895233,subway,Subway,,Pella Marion,IA,,US,+1 641-628-8923,https://restaurants.subway.com/united-states/ia/pella/714-liberty-street,Mo-Su 08:00-21:00,Subway,Q244457
https://restaurants.subway.com/#14909366,subway,Subway,,Pella Marion,IA,,US,+1 641-628-3054,https://restaurants.subway.com/united-states/ia/pella/422-east-oskaloosa-street,Mo-Fr 07:00-21:00; Sa 08:00-21:00; Su 08:00-16:00,Subway,Q244457
https://locations.tacobell.com/#6145965,taco_bell,Taco Bell,,Pella,IA,,US,+1 641-620-1051,https://locations.tacobell.com/ia/pella/1620-washington-st.html,Mo-Su 10:00-01:00,Taco Bell,Q752941
583772,taco_johns_us,Pella,"911 W 16th St, Pella IA 50219",Pella,IA,,US,+1 641-628-8818,https://locations.tacojohns.com/ia/pella/911-w-16th-st/,Mo-Th 07:00-22:00; Fr-Sa 07:00-22:30; Su 07:00-22:00,Taco John's,Q7673962
1377106,usps,PELLA,,PELLA,IA,,US,+1 641-628-2951,,Mo-Fr 08:30-16:30; Sa 09:00-12:00,United States Postal Service,Q668687
5021900024,usps_collection_boxes,USPS COLLECTION BOX - BLUE BOX,118 SE 9TH ST,PELLA,IA,,US,,,,United States Postal Service,Q668687
5021900012,usps_collection_boxes,USPS COLLECTION BOX - BLUE BOX,613 WASHINGTON ST,PELLA,IA,,US,,,,United States Postal Service,Q668687
5021900018,usps_collection_boxes,USPS COLLECTION BOX - BLUE BOX,800 MAIN ST,PELLA,IA,,US,,,,United States Postal Service,Q668687
5021900014,usps_collection_boxes,USPS COLLECTION BOX - BLUE BOX,801 FRANKLIN ST,PELLA,IA,,US,,,,United States Postal Service,Q668687
5021900025,usps_collection_boxes,USPS COLLECTION BOX - PO LOBBY,801 FRANKLIN ST,PELLA,IA,,US,,,,United States Postal Service,Q668687
5021900027,usps_collection_boxes,USPS COLLECTION BOX - PO LOBBY,801 FRANKLIN ST,PELLA,IA,,US,,,,United States Postal Service,Q668687
5021900005,usps_collection_boxes,USPS COLLECTION BOX - BLUE BOX,1650 WASHINGTON ST,PELLA,IA,,US,,,,United States Postal Service,Q668687
A00000206234,verizon_us,Victra Pella,,Pella,IA,,US,+1 641-651-3020,https://www.verizon.com/stores/details/iowa/pella/victra-pella-1873222/,Mo-Fr 10:00-19:00; Sa 10:00-17:00,Verizon,Q919641
,visa,,,PELLA,IA,,US,,,,,
,visa,,,PELLA,IA,,US,,,,,
,visa,,,PELLA,IA,,US,,,,,
,visa,,,PELLA,IA,,US,,,,,
,visa,,,PELLA,IA,,US,,,,,
,visa,,,PELLA,IA,,US,,,,,
,visa,,,PELLA,IA,,US,,,,,
,visa,,,PELLA,IA,,US,,,,,
,visa,,,PELLA,IA,,US,,,,,
,visa,,,PELLA,IA,,US,,,,,
,visa,,,PELLA,IA,,US,,,,,
,visa,,,PELLA,IA,,US,,,,,
,visa,,,PELLA,IA,,US,,,,,
,visa,,,PELLA,IA,,US,,,,,
,visa,,,PELLA,IA,,US,,,,,
,visa,,,PELLA,IA,,US,,,,,
,visa,,,PELLA,IA,,US,,,,,
,visa,,,PELLA,IA,,US,,,,,
712__WASHINGTON__ST_PELLA_IA_50219,wellsfargo,,712 WASHINGTON ST,PELLA,IA,,US,+1 800-869-3557,https://www.wellsfargo.com/locator/bank/712__WASHINGTON__ST_PELLA_IA_50219/,,Wells Fargo,Q744149
1f8995c441adb4e960d87f90aa409545,western_union,WALMART #000751,,Pella,IA,,US,+1 641-628-9881,https://location.westernunion.com/us/ia/pella/1f8995c441adb4e960d87f90aa409545,Mo-Su 07:00-21:00,Western Union,Q861042
