Ref,Spider,Name,Address,City,State,Zipcode,Country,Phone,Website,Hours,Brand,WikiData
71549464,moneygram,MCS MOBILE AND COMPUTERS - DEORIA - DEOR,,DEORIA,,,IN,+91 88087 94192,,Mo-Su 08:00-20:00,MoneyGram,Q1944412
71717694,moneygram,JAN SEWA KENDRA - DEORIA - DEORIA,,DEORIA,,,IN,+91 99182 31669,,Mo-Su 10:00-20:00,MoneyGram,Q1944412
72333996,moneygram,MAA VAISHNO BACHAT SANSTHAN - DEORIA - D,,DEORIA,,,IN,+91 96481 86820,,Mo-Su 08:00-22:00,MoneyGram,Q1944412
72360105,moneygram,TRAVEL XPRESS - DEORIA - DEORIA,,DEORIA,,,IN,+91 75650 46568,,Mo-Su 08:00-22:00,MoneyGram,Q1944412
72391501,moneygram,SHRI SAI MOTORS - DEORIA - DEORIA,,DEORIA,,,IN,+91 93365 31183,,Mo-Su 08:00-22:00,MoneyGram,Q1944412
72408258,moneygram,JB TRAVEL AGENCY - DEORIA - DEORIA,,DEORIA,,,IN,+91 98388 94444,,Mo-Su 08:00-22:00,MoneyGram,Q1944412
72555583,moneygram,BAHURANI JEWELLERS,,DEORIA,,,IN,+91 95800 71961,,Mo-Su 08:00-21:00,MoneyGram,Q1944412
72604094,moneygram,DHRUVJI RISHI KUMAR JWELLERS,,DEORIA,,,IN,+91 94542 22552,,Mo-Su 08:00-21:00,MoneyGram,Q1944412
72603309,moneygram,DIVYA TOUR TRAVELS,,DEORIA,,,IN,+91 78972 24127,,Mo-Su 08:00-21:00,MoneyGram,Q1944412
72604311,moneygram,INTER NATIONAL TRAVELS,,DEORIA,,,IN,+91 87870 23209,,Mo-Su 08:00-21:00,MoneyGram,Q1944412
72610059,moneygram,PAKIJA TRAVELS,,DEORIA,,,IN,+91 94514 17504,,Mo-Su 08:00-21:00,MoneyGram,Q1944412
72610949,moneygram,PATEL MOBILES & REPARING CENTER,,DEORIA,,,IN,+91 96484 70369,,Mo-Su 08:00-21:00,MoneyGram,Q1944412
72613182,moneygram,RAI TOUR TRAVELS,,DEORIA,,,IN,+91 99103 65047,,Mo-Su 08:00-21:00,MoneyGram,Q1944412
72607619,moneygram,VINAYAK MOBILE,,DEORIA,,,IN,+91 98386 63796,,Mo-Su 08:00-21:00,MoneyGram,Q1944412
72591660,moneygram,MS AKENTERPRISES,,DEORIA,,,IN,+91 94156 29705,,Mo-Su 08:00-21:00,MoneyGram,Q1944412
72657834,moneygram,BOMBAY TRAVELS - DEORIA,,DEORIA,,,IN,+91 91255 25176,,Mo-Su 08:00-20:00,MoneyGram,Q1944412
72767973,moneygram,ABHISHEK ENTERPRISES - DEORIA,,DEORIA,,,IN,+91 90822 61920,,Mo-Su 08:00-20:00,MoneyGram,Q1944412
72804409,moneygram,GRAHAK SEVA KENDRA - DEORIA - DEORIA,,DEORIA,,,IN,+91 84000 20006,,Mo-Su 08:00-22:00,MoneyGram,Q1944412
72894066,moneygram,KAMDHENU TRAVELS,,DEORIA,,,IN,+91 88557 74458,,Mo-Su 08:00-21:00,MoneyGram,Q1944412
72893627,moneygram,M/S KESHARINANDAN,,DEORIA,,,IN,+91 94153 83964,,Mo-Su 08:00-21:00,MoneyGram,Q1944412
72895858,moneygram,TRIPATHI ENTERPRISES,,DEORIA,,,IN,+91 81738 43688,,Mo-Su 08:00-21:00,MoneyGram,Q1944412
72939743,moneygram,GRAHAK SEWA KENDRA - DEORIA,,DEORIA,,,IN,+91 77030 50478,,Mo-Su 08:00-20:00,MoneyGram,Q1944412
72976803,moneygram,B.K.TOUR & TRAVELS - DEORIA,,DEORIA,,,IN,+91 84232 06017,,Mo-Su 08:00-20:00,MoneyGram,Q1944412
72981034,moneygram,MANSUR MONEY TRANSFER - DEORIA,,DEORIA,,,IN,+91 77048 79409,,Mo-Su 08:00-20:00,MoneyGram,Q1944412
72986356,moneygram,ALAM ASSOCIATE - DEORIA,,DEORIA,,,IN,+91 72380 02458,,Mo-Su 08:00-20:00,MoneyGram,Q1944412
72996825,moneygram,SHREYA TOUR & TRAVELS - DEORIA,,DEORIA,,,IN,+91 93361 09833,,Mo-Su 08:00-20:00,MoneyGram,Q1944412
73289573,moneygram,MUTHOOT FINANCE LTD - #4110 - DEORIA - D,,DEORIA,,,IN,+91 5568 220 340,,Mo-Su 09:00-19:00,MoneyGram,Q1944412
72973880,moneygram,PATEL TRADERS,,DEORIA,,,IN,+91 94514 14357,,Mo-Su 08:00-21:00,MoneyGram,Q1944412
72972700,moneygram,ANSH STUDIO,,DEORIA,,,IN,+91 85769 25275,,Mo-Su 08:00-21:00,MoneyGram,Q1944412
73393854,moneygram,INDIA INTERNET POINT,,DEORIA,,,IN,+91 88742 81111,,Mo-Su 08:00-21:00,MoneyGram,Q1944412
73415046,moneygram,MISHRA AGENCY,,GORAKHPUR,,,IN,+91 97920 73281,,Mo-Su 08:00-21:00,MoneyGram,Q1944412
73403472,moneygram,SHYAM KRIPA,,DEORIA,,,IN,+91 96165 31318,,Mo-Su 08:00-21:00,MoneyGram,Q1944412
73437859,moneygram,PANDIT JEE TRAVELS,,DEORIA,,,IN,+91 90447 42562,,Mo-Su 08:00-21:00,MoneyGram,Q1944412
73437862,moneygram,PINGAKSH MARKETING,,DEORIA,,,IN,+91 70079 40862,,Mo-Su 08:00-21:00,MoneyGram,Q1944412
73449753,moneygram,CHAURASIYA CYBER CITY,,DEORIA,,,IN,+91 94550 78161,,Mo-Su 08:00-21:00,MoneyGram,Q1944412
73446387,moneygram,LAKHI TOUR & TRAVELS,,DEORIA,,,IN,+91 99565 55214,,Mo-Su 08:00-21:00,MoneyGram,Q1944412
73446361,moneygram,NEW INDIA ELECTRICALS AND ELECTRONICS,,DEORIA,,,IN,+91 76518 49153,,Mo-Su 08:00-21:00,MoneyGram,Q1944412
73449782,moneygram,PRASHANT PHOTO COPIERS,,DEORIA,,,IN,+91 83550 56550,,Mo-Su 08:00-21:00,MoneyGram,Q1944412
73449795,moneygram,RAHUL TRAVELS & INTERNET ZONE,,DEORIA,,,IN,+91 70074 82492,,Mo-Su 08:00-21:00,MoneyGram,Q1944412
73446251,moneygram,RAUNAK OPTICALS,,DEORIA,,,IN,+91 94502 14282,,Mo-Su 08:00-21:00,MoneyGram,Q1944412
73441803,moneygram,SUJATA PHOTO COPIERS,,DEORIA,,,IN,+91 98388 19192,,Mo-Su 08:00-21:00,MoneyGram,Q1944412
73547794,moneygram,GRAHAK SEWA KENDRA,,DEORIA,,,IN,+91 88815 46655,,Mo-Su 08:00-21:00,MoneyGram,Q1944412
73567826,moneygram,AIR INDIA TRAVELS - DEORIA,,DEORIA,,,IN,+91 88081 86481,,Mo-Su 08:00-20:00,MoneyGram,Q1944412
73703428,moneygram,BALA JI JEWELLERS - DEORIA,,DEORIA,,,IN,+91 97922 15765,,Mo-Su 09:00-21:00,MoneyGram,Q1944412
73749961,moneygram,MA DURGA GRAHAK SEVA,,DEORIA,,,IN,+91 63070 51283,,Mo-Su 08:00-21:00,MoneyGram,Q1944412
73739120,moneygram,TRAVEL CAFE,,DEORIA,,,IN,+91 94504 82333,,Mo-Su 08:00-21:00,MoneyGram,Q1944412
73729606,moneygram,TRAVEL EXPERT,,DEORIA,,,IN,+91 73172 77731,,Mo-Su 08:00-21:00,MoneyGram,Q1944412
73822024,moneygram,RAJEEV GENERAL STORE DEORIA IBP,,DEORIA,,,IN,+91 99367 58108,,Mo-Su 08:00-21:00,MoneyGram,Q1944412
74221200,moneygram,UNIMONI FINANCIAL SERVICES LIMITED - DEO,,DEORIA,,,IN,+91 99353 05599,,Mo-Fr 09:30-18:30; Sa 09:30-14:00; Su 00:00-24:00,MoneyGram,Q1944412
74271616,moneygram,OM SAI CYBER WORLD,,DEORIA,,,IN,+91 99196 08047,,Mo-Su 08:00-21:00,MoneyGram,Q1944412
74389757,moneygram,ASHISH MOBILE,,DEORIA,,,IN,+91 79059 86379,,Mo-Su 08:00-21:00,MoneyGram,Q1944412
74389760,moneygram,POOJA MOBILE CENTER,,DEORIA,,,IN,+91 75185 38407,,Mo-Su 08:00-21:00,MoneyGram,Q1944412
74389786,moneygram,POOJA MOBILE SHOP,,DEORIA,,,IN,+91 73554 38521,,Mo-Su 08:00-21:00,MoneyGram,Q1944412
74389773,moneygram,SHREE MOBILE WORLD,,DEORIA,,,IN,+91 94530 31901,,Mo-Su 08:00-21:00,MoneyGram,Q1944412
69318908,moneygram,BOMBAY TRAVELS - DEORIA,,DEORIA,,,IN,+91 94531 01295,,Mo-Su 08:00-20:00,MoneyGram,Q1944412
74590355,moneygram,KUMAR ENTERPRISES,,DEORIA,,,IN,+91 99351 56705,,Mo-Su 08:00-21:00,MoneyGram,Q1944412
74968819,moneygram,SHARDA COMMUNICATION,,DEORIA,,,IN,+91 89310 52473,,Mo-Su 05:00-23:00,MoneyGram,Q1944412
70729489,moneygram,MANAPPURAM FINANCE - #3576 - DEORIA,,DEORIA,,,IN,+91 5568 220 860,,Mo-Sa 10:00-18:00; Su 00:00-24:00,MoneyGram,Q1944412
71625537,moneygram,RAMESHWAR LAL BISAMBHAR LAL - DEORIA - D,,DEORIA,,,IN,+91 96166 41058,,Mo-Su 09:00-20:00,MoneyGram,Q1944412
,visa,,,DEORIA,,,IN,,,,,
