Ref,Spider,Name,Address,City,State,Zipcode,Country,Phone,Website,Hours,Brand,WikiData
73249801,moneygram,MUTHOOT FINANCE LTD - #51 - CENTRAL DELH,,CENTRAL DELHI,,,IN,+91 91437 20281,,Mo-Su 09:00-19:00,MoneyGram,Q1944412
73258038,moneygram,MUTHOOT FINANCE LTD - #1025 - VILLUPURAM,,VILLUPURAM,,,IN,+91 4151 236 770,,Mo-Su 09:00-19:00,MoneyGram,Q1944412
73258355,moneygram,MUTHOOT FINANCE LTD - #1058 - WEST DELHI,,WEST DELHI,,,IN,+91 11 4986 8959,,Mo-Su 09:00-19:00,MoneyGram,Q1944412
73258449,moneygram,MUTHOOT FINANCE LTD - #1067 - DELHI - DE,,DELHI,,,IN,+91 435 609 2425,,Mo-Su 09:00-19:00,MoneyGram,Q1944412
73258614,moneygram,MUTHOOT FINANCE LTD - #1083 - JHANJHAR -,,JHANJHAR,,,IN,+91 1276 230 231,,Mo-Su 09:00-19:00,MoneyGram,Q1944412
73258821,moneygram,MUTHOOT FINANCE LTD - #1105 - WEST DELHI,,WEST DELHI,,,IN,+91 11 2852 1174,,Mo-Su 09:00-19:00,MoneyGram,Q1944412
73259008,moneygram,MUTHOOT FINANCE LTD - #1123 - CENTRAL DE,,CENTRAL DELHI,,,IN,+91 11 4570 1800,,Mo-Su 09:00-19:00,MoneyGram,Q1944412
73259024,moneygram,MUTHOOT FINANCE LTD - #1125 - WEST DELHI,,WEST DELHI,,,IN,+91 91274 81160,,Mo-Su 09:00-19:00,MoneyGram,Q1944412
73259066,moneygram,MUTHOOT FINANCE LTD - #1130 - WEST DELHI,,WEST DELHI,,,IN,+91 91273 55972,,Mo-Su 09:00-19:00,MoneyGram,Q1944412
73259309,moneygram,MUTHOOT FINANCE LTD - #1156 - DELHI - DE,,DELHI,,,IN,+91 81368 63202,,Mo-Su 09:00-19:00,MoneyGram,Q1944412
73259422,moneygram,MUTHOOT FINANCE LTD - #1170 - DELHI - DE,,DELHI,,,IN,+91 91257 51471,,Mo-Su 09:00-19:00,MoneyGram,Q1944412
73260149,moneygram,MUTHOOT FINANCE LTD - #1273 - HYDERABAD,,HYDERABAD,,,IN,+91 40 2772 9239,,Mo-Su 09:00-19:00,MoneyGram,Q1944412
73260741,moneygram,MUTHOOT FINANCE LTD - #1341 - GURGAON -,,GURGAON,,,IN,+91 124 425 6901,,Mo-Su 09:00-19:00,MoneyGram,Q1944412
73261038,moneygram,MUTHOOT FINANCE LTD - #1374 - BHARUCH -,,BHARUCH,,,IN,+91 2646 222 414,,Mo-Su 09:00-19:00,MoneyGram,Q1944412
73261287,moneygram,MUTHOOT FINANCE LTD - #1400 - VADODARA -,,VADODARA,,,IN,+91 265 241 2960,,Mo-Su 09:00-19:00,MoneyGram,Q1944412
73261449,moneygram,MUTHOOT FINANCE LTD - #1417 - CENTRAL DE,,CENTRAL DELHI,,,IN,+91 11 6509 7307,,Mo-Su 09:00-19:00,MoneyGram,Q1944412
73262529,moneygram,MUTHOOT FINANCE LTD - #1534 - CENTRAL DE,,CENTRAL DELHI,,,IN,+91 91435 57467,,Mo-Su 09:00-19:00,MoneyGram,Q1944412
73263418,moneygram,MUTHOOT FINANCE LTD - #1632 - GURGAON -,,GURGAON,,,IN,+91 124 427 0621,,Mo-Su 09:00-19:00,MoneyGram,Q1944412
73263492,moneygram,MUTHOOT FINANCE LTD - #1641 - SURAT - SU,,SURAT,,,IN,+91 74050 05633,,Mo-Su 09:00-19:00,MoneyGram,Q1944412
73263638,moneygram,MUTHOOT FINANCE LTD - #1656 - SURAT - SU,,SURAT,,,IN,+91 261 253 7300,,Mo-Su 09:00-19:00,MoneyGram,Q1944412
73263832,moneygram,MUTHOOT FINANCE LTD - #1677 - GURGAON -,,GURGAON,,,IN,+91 124 414 7679,,Mo-Su 09:00-19:00,MoneyGram,Q1944412
73263900,moneygram,MUTHOOT FINANCE LTD - #1684 - AHMEDABAD,,AHMEDABAD,,,IN,+91 2696 220 477,,Mo-Su 09:00-19:00,MoneyGram,Q1944412
73264200,moneygram,MUTHOOT FINANCE LTD - #1717 - DELHI - DE,,DELHI,,,IN,+91 91434 64480,,Mo-Su 09:00-19:00,MoneyGram,Q1944412
73264271,moneygram,MUTHOOT FINANCE LTD - #1724 - VADODARA -,,VADODARA,,,IN,+91 265 246 0974,,Mo-Su 09:00-19:00,MoneyGram,Q1944412
73264284,moneygram,MUTHOOT FINANCE LTD - #1725 - AMRELI - B,,AMRELI,,,IN,+91 265 278 1894,,Mo-Su 09:00-19:00,MoneyGram,Q1944412
73264307,moneygram,MUTHOOT FINANCE LTD - #1727 - VALSAD - V,,VALSAD,,,IN,+91 260 242 4363,,Mo-Su 09:00-19:00,MoneyGram,Q1944412
73264323,moneygram,MUTHOOT FINANCE LTD - #1729 - NAVSARI -,,NAVSARI,,,IN,+91 2634 280 124,,Mo-Su 09:00-19:00,MoneyGram,Q1944412
73265733,moneygram,MUTHOOT FINANCE LTD - #1880 - ALLAHABAD,,ALLAHABAD,,,IN,+91 532 256 4890,,Mo-Su 09:00-19:00,MoneyGram,Q1944412
73266172,moneygram,MUTHOOT FINANCE LTD - #1925 - AHMEDABAD,,AHMEDABAD,,,IN,+91 2698 220 085,,Mo-Su 09:00-19:00,MoneyGram,Q1944412
73266198,moneygram,MUTHOOT FINANCE LTD - #1927 - CUDDALORE,,CUDDALORE,,,IN,+91 4144 262 477,,Mo-Su 09:00-19:00,MoneyGram,Q1944412
73268196,moneygram,MUTHOOT FINANCE LTD - #2146 - NAVSARI -,,NAVSARI,,,IN,+91 2634 231 461,,Mo-Su 09:00-19:00,MoneyGram,Q1944412
73252092,moneygram,MUTHOOT FINANCE LTD - #306 - CENTRAL DEL,,CENTRAL DELHI,,,IN,+91 11 4759 2073,,Mo-Su 09:00-19:00,MoneyGram,Q1944412
73284196,moneygram,MUTHOOT FINANCE LTD - #3499 - VIKARABAD,,VIKARABAD,,,IN,+91 84112 73950,,Mo-Su 09:00-19:00,MoneyGram,Q1944412
73284578,moneygram,MUTHOOT FINANCE LTD - #3541 - WEST GODAV,,WEST GODAVARI,,,IN,+91 88192 20977,,Mo-Su 09:00-19:00,MoneyGram,Q1944412
73284633,moneygram,MUTHOOT FINANCE LTD - #3547 - PANCHMAHAL,,PANCHMAHALS,,,IN,+91 2676 220 297,,Mo-Su 09:00-19:00,MoneyGram,Q1944412
73284798,moneygram,MUTHOOT FINANCE LTD - #3566 - SALEM - JA,,SALEM,,,IN,+91 4298 261 500,,Mo-Su 09:00-19:00,MoneyGram,Q1944412
73284950,moneygram,MUTHOOT FINANCE LTD - #3583 - MOGA - KOT,,MOGA,,,IN,+91 168 224 0350,,Mo-Su 09:00-19:00,MoneyGram,Q1944412
73285289,moneygram,MUTHOOT FINANCE LTD - #3618 - SOUTH WEST,,SOUTH WEST DELHI,,,IN,+91 81296 01816,,Mo-Su 09:00-19:00,MoneyGram,Q1944412
73252898,moneygram,MUTHOOT FINANCE LTD - #397 - DELHI - DEL,,DELHI,,,IN,+91 11 2704 7340,,Mo-Su 09:00-19:00,MoneyGram,Q1944412
73253347,moneygram,MUTHOOT FINANCE LTD - #453 - SURAT - SUR,,SURAT,,,IN,+91 261 255 7301,,Mo-Su 09:00-19:00,MoneyGram,Q1944412
73253499,moneygram,MUTHOOT FINANCE LTD - #472 - VILLUPURAM,,VILLUPURAM,,,IN,+91 4146 227 723,,Mo-Su 09:00-19:00,MoneyGram,Q1944412
73253897,moneygram,MUTHOOT FINANCE LTD - #525 - CUDDALORE -,,CUDDALORE,,,IN,+91 4144 221 227,,Mo-Su 09:00-19:00,MoneyGram,Q1944412
73254317,moneygram,MUTHOOT FINANCE LTD - #567 - THANE - KAL,,THANE,,,IN,+91 251 221 2876,,Mo-Su 09:00-19:00,MoneyGram,Q1944412
73255060,moneygram,MUTHOOT FINANCE LTD - #652 - RAIGAD - NE,,RAIGAD,,,IN,+91 22 2748 2168,,Mo-Su 09:00-19:00,MoneyGram,Q1944412
73255293,moneygram,MUTHOOT FINANCE LTD - #673 - ANAND - ANA,,ANAND,,,IN,+91 2692 232 169,,Mo-Su 09:00-19:00,MoneyGram,Q1944412
73255439,moneygram,MUTHOOT FINANCE LTD - #688 - KURNOOL - N,,KURNOOL,,,IN,+91 85142 20642,,Mo-Su 09:00-19:00,MoneyGram,Q1944412
73256454,moneygram,MUTHOOT FINANCE LTD - #798 - BHARUCH - B,,BHARUCH,,,IN,+91 2642 226 704,,Mo-Su 09:00-19:00,MoneyGram,Q1944412
