Ref,Spider,Name,Address,City,State,Zipcode,Country,Phone,Website,Hours,Brand,WikiData
1660700476,banque_populaire_fr,MEZE CMM,,MEZE,,,FR,+33 4 67 43 80 34,https://agences.banquepopulaire.fr/banque-assurance/agence-meze-cmm-id1660700476,"Mo-We 08:30-12:00,13:45-17:30; Th 08:30-12:00,15:15-17:30; Fr 08:30-12:00,13:45-17:30",Banque Populaire,Q846647
1660700440,banque_populaire_fr,AG MEZE BDP,,MEZE,,,FR,+33 4 67 43 80 32,https://agences.banquepopulaire.fr/banque-assurance/agence-ag-meze-bdp-id1660700440,"Mo-We 08:30-12:00,13:30-17:30; Th 08:30-12:00,15:00-17:30; Fr 08:30-12:00,13:30-17:30",Banque Populaire,Q846647
7998,carrefour_fr,Market Meze,,Meze,,,FR,+33 4 67 18 68 28,https://www.carrefour.fr/magasin/market-meze,Mo-Sa 08:30-20:00; Su 08:30-12:30,Carrefour Market,Q2689639
2582676847,century_21_fr,CENTURY 21 Alizés - Puig Immobilier,,MEZE,,,FR,+33 4 48 20 07 79,https://www.century21.fr/trouver_agence/agence/2582676847/,,Century 21,Q1054480
https://www.credit-agricole.fr/particulier/agence/languedoc/meze-rivage-5289.html,credit_agricole,Crédit Agricole,,MEZE,,,FR,+33 4 67 17 58 01,https://www.credit-agricole.fr/particulier/agence/languedoc/meze-rivage-5289.html,"Mo-We 08:30-12:15,13:45-17:30; Th 09:15-12:15,13:45-17:30; Fr 08:30-12:15,13:45-17:30",Credit Agricole,Q590952
https://www.credit-agricole.fr/particulier/agence/languedoc/meze-centre-5290.html,credit_agricole,Crédit Agricole,,MEZE,,,FR,+33 4 67 17 58 81,https://www.credit-agricole.fr/particulier/agence/languedoc/meze-centre-5290.html,"Mo-We 08:30-12:15,13:45-17:30; Th 09:15-12:15,13:45-17:30; Fr 08:30-12:15,13:45-17:30",Credit Agricole,Q590952
3597,lidl_fr,MEZE Romany,,MEZE,,,FR,,,Mo-Sa 08:30-20:00; Su 08:30-12:30,Lidl,Q151954
00000969_001-renault,renault,RENAULT MEZE - TRESSOL-CHABRIER,,MEZE,,,FR,+33 4 67 43 66 43,,,Renault,Q6686
NF911306,totalenergies,DYNEFF,,BOUZIGUES,,,FR,,https://store.totalenergies.fr/en_EN/NF911306,,Dyneff,Q16630266
,visa,,,MEZE,,,FR,,,,,
,visa,,,MEZE,,,FR,,,,,
,visa,,,MEZE,,,FR,,,,,
,visa,,,MEZE,,,FR,,,,,
,visa,,,MEZE,,,FR,,,,,
,visa,,,MEZE,,,FR,,,,,
,visa,,,MEZE,,,FR,,,,,
,visa,,,MEZE,,,FR,,,,,
,visa,,,MEZE,,,FR,,,,,
,visa,,,LOUPIAN,,,FR,,,,,
,visa,,,LOUPIAN,,,FR,,,,,
http://magasins.vival.fr/fr/vival-meze-sadit-carnot,vival_fr,Vival Mèze,,Mèze,,,FR,+33 4 67 78 82 28,http://magasins.vival.fr/fr/vival-meze-sadit-carnot,"Mo-Su 08:30-12:30,16:00-20:00",Vival,Q7937525
