Ref,Spider,Name,Address,City,State,Zipcode,Country,Phone,Website,Hours,Brand,WikiData
72419302,moneygram,SINGH TRAVELS - BAHRAICH,,BAHRAICH,,,IN,+91 87870 32081,,Mo-Su 09:00-21:00,MoneyGram,Q1944412
72489196,moneygram,DIPESH ENTERPRISES - SHRAVASTI - SHRAVAS,,SHRAVASTI,,,IN,+91 98386 16522,,Mo-Su 08:00-22:00,MoneyGram,Q1944412
72609701,moneygram,BAHAR TRAVELS,,BAHRAICH,,,IN,+91 96709 33893,,Mo-Su 08:00-21:00,MoneyGram,Q1944412
72609497,moneygram,EM TOUR TRAVELS,,BAHRAICH,,,IN,+91 97214 24390,,Mo-Su 08:00-21:00,MoneyGram,Q1944412
72596364,moneygram,ANSARI TOUR AND TRAVELS,,BAHRAICH,,,IN,+91 98391 24361,,Mo-Su 08:00-21:00,MoneyGram,Q1944412
72592216,moneygram,TILAK AUTO MOBILES,,BAHRAICH,,,IN,+91 98397 92872,,Mo-Su 08:00-21:00,MoneyGram,Q1944412
72600904,moneygram,RAINY TRAVELS,,BAHRAICH,,,IN,+91 81150 33666,,Mo-Su 08:00-21:00,MoneyGram,Q1944412
72601916,moneygram,ALI KHAN TRAVEL AGENCY,,BAHRAICH,,,IN,+91 97925 28457,,Mo-Su 08:00-21:00,MoneyGram,Q1944412
72669275,moneygram,GLOBAL TRAVELS - BAHRAICH,,BAHRAICH,,,IN,+91 96288 43603,,Mo-Su 08:00-20:00,MoneyGram,Q1944412
72601314,moneygram,JAISWAL TRADERS,,BAHRAICH,,,IN,+91 94151 24641,,Mo-Su 08:00-21:00,MoneyGram,Q1944412
72892291,moneygram,CHARAN TRADERS,,BAHARAICH,,,IN,+91 98397 42832,,Mo-Su 08:00-21:00,MoneyGram,Q1944412
72893258,moneygram,INDIA TRAVELS,,BAHRAICH,,,IN,+91 92355 79481,,Mo-Su 08:00-21:00,MoneyGram,Q1944412
72921120,moneygram,GRAHAK SEWA KENDRA - BAHRAICH,,BAHRAICH,,,IN,+91 84237 43163,,Mo-Su 08:00-20:00,MoneyGram,Q1944412
73039697,moneygram,GOLDEN ARROW TRAVELS,,BAHARAICH,,,IN,+91 96288 64298,,Mo-Su 08:00-21:00,MoneyGram,Q1944412
73279305,moneygram,MUTHOOT FINANCE LTD - #2965 - BAHRAICH -,,BAHRAICH,,,IN,+91 5252 232 476,,Mo-Su 09:00-19:00,MoneyGram,Q1944412
73040576,moneygram,BANSAL TRAVELS,,BAHARAICH,,,IN,+91 99193 33880,,Mo-Su 08:00-21:00,MoneyGram,Q1944412
73552938,moneygram,WORLD TOUR TRAVELS,,BAHRAICH,,,IN,+91 99184 91571,,Mo-Su 08:00-21:00,MoneyGram,Q1944412
74359729,moneygram,SONU COMPUTERS,,SHRAWASTI,,,IN,+91 98148 57477,,Mo-Su 08:00-21:00,MoneyGram,Q1944412
74591710,moneygram,SINGH COMPUTERS & TELECOM,,BAHRAICH,,,IN,+91 63880 83132,,Mo-Su 08:00-21:00,MoneyGram,Q1944412
74649565,moneygram,GOLDEN ARROW TRAVELS,,BAHRAICH,,,IN,+91 81818 16229,,Mo-Su 04:00-24:00,MoneyGram,Q1944412
