Ref,Spider,Name,Address,City,State,Zipcode,Country,Phone,Website,Hours,Brand,WikiData
,visa,,,VILLA GUERRERO,ESTADO DE MEXICO,,MX,,,,,
,visa,,,VILLA GUERRERO,ESTADO DE MEXICO,,MX,,,,,
020138047d7e7aa023235333d6acf5cc,western_union,OXXO GALEANA TLC,,Villa Guerrero,ESTADO DE MEXICO,,MX,+52 81 8389 2121,https://location.westernunion.com/mx/estado-de-mexico/villa-guerrero/020138047d7e7aa023235333d6acf5cc,Mo-Su 08:00-22:00,Western Union,Q861042
e959c4d39bb965fc2c97a36d1ddc0041,western_union,OXXO GALEANA TLC,,Villa Guerrero,ESTADO DE MEXICO,,MX,+52 81 8389 2121,https://location.westernunion.com/mx/estado-de-mexico/villa-guerrero/e959c4d39bb965fc2c97a36d1ddc0041,Mo-Su 08:00-22:00,Western Union,Q861042
5b88ceaf8ac64e54ccb2c032e33c13d4,western_union,OXXO GALEANA TLC,,Villa Guerrero,ESTADO DE MEXICO,,MX,+52 81 8389 2121,https://location.westernunion.com/mx/estado-de-mexico/villa-guerrero/5b88ceaf8ac64e54ccb2c032e33c13d4,Mo-Su 08:00-22:00,Western Union,Q861042
8ac7805d44da68b0292768cb219857d5,western_union,OXXO CARR VILLA TLC,,Villa Guerrero,ESTADO DE MEXICO,,MX,+52 81 8389 2121,https://location.westernunion.com/mx/estado-de-mexico/villa-guerrero/8ac7805d44da68b0292768cb219857d5,Mo-Su 08:00-22:00,Western Union,Q861042
ccfadd345cbd02595c5a4e61e6559c38,western_union,OXXO CARR VILLA TLC,,Villa Guerrero,ESTADO DE MEXICO,,MX,+52 81 8389 2121,https://location.westernunion.com/mx/estado-de-mexico/villa-guerrero/ccfadd345cbd02595c5a4e61e6559c38,Mo-Su 08:00-22:00,Western Union,Q861042
3c0b74b17484b65fe5408d7da460e830,western_union,OXXO CARR VILLA TLC,,Villa Guerrero,ESTADO DE MEXICO,,MX,+52 81 8389 2121,https://location.westernunion.com/mx/estado-de-mexico/villa-guerrero/3c0b74b17484b65fe5408d7da460e830,Mo-Su 08:00-22:00,Western Union,Q861042
798e7786a1e612e89bc52ff63f247f50,western_union,AURRERA VILLA GUERRERO 2783,,Villa Guerrero,ESTADO DE MEXICO,,MX,+52 800 833 4700,https://location.westernunion.com/mx/estado-de-mexico/villa-guerrero/798e7786a1e612e89bc52ff63f247f50,Mo-Su 07:00-23:00,Western Union,Q861042
b0b275f619d1adcbeb607ad31bdab7d8,western_union,AURRERA VILLA GUERRERO 2783,,Villa Guerrero,ESTADO DE MEXICO,,MX,+52 800 833 4700,https://location.westernunion.com/mx/estado-de-mexico/villa-guerrero/b0b275f619d1adcbeb607ad31bdab7d8,Mo-Su 07:00-23:00,Western Union,Q861042
f4dcccb21fb392ed0201abe55513263d,western_union,AURRERA VILLA GUERRERO 2783,,Villa Guerrero,ESTADO DE MEXICO,,MX,+52 800 833 4700,https://location.westernunion.com/mx/estado-de-mexico/villa-guerrero/f4dcccb21fb392ed0201abe55513263d,Mo-Su 07:00-23:00,Western Union,Q861042
012b16d9781d2c4664a60ca31184eadc,western_union,OXXO VILLA LEON TLC,,Villa Guerrero,ESTADO DE MEXICO,,MX,+52 81 8389 2121,https://location.westernunion.com/mx/estado-de-mexico/villa-guerrero/012b16d9781d2c4664a60ca31184eadc,Mo-Su 06:00-22:00,Western Union,Q861042
3924659c0383fd85ccacf96c6f367083,western_union,OXXO VILLA LEON TLC,,Villa Guerrero,ESTADO DE MEXICO,,MX,+52 81 8389 2121,https://location.westernunion.com/mx/estado-de-mexico/villa-guerrero/3924659c0383fd85ccacf96c6f367083,Mo-Su 06:00-22:00,Western Union,Q861042
b8328163e3807661267b93b72eba2291,western_union,OXXO VILLA LEON TLC,,Villa Guerrero,ESTADO DE MEXICO,,MX,+52 81 8389 2121,https://location.westernunion.com/mx/estado-de-mexico/villa-guerrero/b8328163e3807661267b93b72eba2291,Mo-Su 06:00-22:00,Western Union,Q861042
93adece2d2524c35bfa52aa6f55f9982,western_union,TELECOMM 15055,,Villa Guerrero,ESTADO DE MEXICO,,MX,+52 800 800 9889,https://location.westernunion.com/mx/estado-de-mexico/villa-guerrero/93adece2d2524c35bfa52aa6f55f9982,Mo-Fr 09:00-15:00,Western Union,Q861042
3294ac6cd6efd4914d301495e4720e73,western_union,TELECOMM 15055,,Villa Guerrero,ESTADO DE MEXICO,,MX,+52 800 800 8930,https://location.westernunion.com/mx/estado-de-mexico/villa-guerrero/3294ac6cd6efd4914d301495e4720e73,Mo-Sa 09:00-21:00,Western Union,Q861042
db939158f9eefcadeea0e4c7b2d5ce3a,western_union,TELECOMM 15055,,Villa Guerrero,ESTADO DE MEXICO,,MX,+52 800 800 8930,https://location.westernunion.com/mx/estado-de-mexico/villa-guerrero/db939158f9eefcadeea0e4c7b2d5ce3a,Mo-Su 09:00-20:00,Western Union,Q861042
1ac6073ae8ec79b7e7d131f8ced3016d,western_union,TIENDAS NETO VILLA GUERRERO 0318,,Villa Guerrero,ESTADO DE MEXICO,,MX,+52 714 146 2602,https://location.westernunion.com/mx/estado-de-mexico/villa-guerrero/1ac6073ae8ec79b7e7d131f8ced3016d,Mo-Su 07:00-22:00,Western Union,Q861042
06c6c3e0cc43f0a82d2788c37370b5f1,western_union,OXXO V GUERREROCENTROTLC,,Villa Guerrero,ESTADO DE MEXICO,,MX,+52 81 8389 2121,https://location.westernunion.com/mx/estado-de-mexico/villa-guerrero/06c6c3e0cc43f0a82d2788c37370b5f1,Mo-Su 08:00-22:00,Western Union,Q861042
4e65a5ece9e19deb7f9706a5a9a11d44,western_union,OXXO V GUERREROCENTROTLC,,Villa Guerrero,ESTADO DE MEXICO,,MX,+52 81 8389 2121,https://location.westernunion.com/mx/estado-de-mexico/villa-guerrero/4e65a5ece9e19deb7f9706a5a9a11d44,Mo-Su 08:00-22:00,Western Union,Q861042
2bc2279367a658a9d0f58bd3df7a62ec,western_union,OXXO V GUERREROCENTROTLC,,Villa Guerrero,ESTADO DE MEXICO,,MX,+52 81 8389 2121,https://location.westernunion.com/mx/estado-de-mexico/villa-guerrero/2bc2279367a658a9d0f58bd3df7a62ec,Mo-Su 08:00-22:00,Western Union,Q861042
ce8ea13c95a3ee286f2bab64e9b5ebfc,western_union,OXXO VILLA GUERRERO IITLC,,Villa Guerrero,ESTADO DE MEXICO,,MX,+52 81 8389 2121,https://location.westernunion.com/mx/estado-de-mexico/villa-guerrero/ce8ea13c95a3ee286f2bab64e9b5ebfc,Mo-Su 08:00-22:00,Western Union,Q861042
3108049d833cc26c8034e81c5fe73664,western_union,ELEKTRA 4772,,Villa Guerrero,ESTADO DE MEXICO,,MX,+52 55 1720 8177,https://location.westernunion.com/mx/estado-de-mexico/villa-guerrero/3108049d833cc26c8034e81c5fe73664,Mo-Su 09:00-21:00,Western Union,Q861042
e137dd004c167bd685031b245d50e0c7,western_union,ELEKTRA 4772,,Villa Guerrero,ESTADO DE MEXICO,,MX,+52 55 1720 8177,https://location.westernunion.com/mx/estado-de-mexico/villa-guerrero/e137dd004c167bd685031b245d50e0c7,Mo-Su 09:00-20:00,Western Union,Q861042
649f42283a8582594d563d7ea6a795a8,western_union,ELEKTRA 4772,,Villa Guerrero,ESTADO DE MEXICO,,MX,+52 55 1720 8177,https://location.westernunion.com/mx/estado-de-mexico/villa-guerrero/649f42283a8582594d563d7ea6a795a8,Mo-Su 09:00-21:00,Western Union,Q861042
ec94a019c67ab8bd57b3eeef10e652f2,western_union,BANCOPPEL 1076 VICTORIA,,Villa Guerrero,ESTADO DE MEXICO,,MX,(+52) 667-589999,https://location.westernunion.com/mx/estado-de-mexico/villa-guerrero/ec94a019c67ab8bd57b3eeef10e652f2,Mo-Su 08:30-21:00,Western Union,Q861042
eff9ce1c048be8968827afb257b0ca6c,western_union,BANCOPPEL 1076 VICTORIA,,Villa Guerrero,ESTADO DE MEXICO,,MX,(+52) 667-589999,https://location.westernunion.com/mx/estado-de-mexico/villa-guerrero/eff9ce1c048be8968827afb257b0ca6c,Mo-Su 08:30-21:00,Western Union,Q861042
91438b53be26bfbdf0ecbae4e6dbe6d3,western_union,BANCOPPEL 1076 VICTORIA,,Villa Guerrero,ESTADO DE MEXICO,,MX,(+52) 667-589999,https://location.westernunion.com/mx/estado-de-mexico/villa-guerrero/91438b53be26bfbdf0ecbae4e6dbe6d3,Mo-Su 08:30-21:00,Western Union,Q861042
bbe09b754f824de78ef7fc264f2228b2,western_union,OXXO CRUCERO VILLA TLC,,Villa Guerrero,ESTADO DE MEXICO,,MX,+52 81 8389 2121,https://location.westernunion.com/mx/estado-de-mexico/villa-guerrero/bbe09b754f824de78ef7fc264f2228b2,Mo-Su 08:00-22:00,Western Union,Q861042
4a5fbdfab0d0090b118f15f47bc22e23,western_union,OXXO CRUCERO VILLA TLC,,Villa Guerrero,ESTADO DE MEXICO,,MX,+52 81 8389 2121,https://location.westernunion.com/mx/estado-de-mexico/villa-guerrero/4a5fbdfab0d0090b118f15f47bc22e23,Mo-Su 08:00-22:00,Western Union,Q861042
36976418ea8e180a6f5bcd0f80ce3fdc,western_union,OXXO CRUCERO VILLA TLC,,Villa Guerrero,ESTADO DE MEXICO,,MX,+52 81 8389 2121,https://location.westernunion.com/mx/estado-de-mexico/villa-guerrero/36976418ea8e180a6f5bcd0f80ce3fdc,Mo-Su 08:00-22:00,Western Union,Q861042
89f29126b5085693eae7f55a950249f2,western_union,OXXO VILLA GUERRERO IITLC,,Villa Guerrero,ESTADO DE MEXICO,,MX,+52 81 8389 2121,https://location.westernunion.com/mx/estado-de-mexico/villa-guerrero/89f29126b5085693eae7f55a950249f2,Mo-Su 08:00-22:00,Western Union,Q861042
