Ref,Spider,Name,Address,City,State,Zipcode,Country,Phone,Website,Hours,Brand,WikiData
https://stores.advanceautoparts.com/ny/saranac-lake/622-lake-flower-ave,advance_auto_parts_us,Advance Auto Parts,,Saranac Lake,NY,,US,+1 518-891-5872,https://stores.advanceautoparts.com/ny/saranac-lake/622-lake-flower-ave,Mo-Sa 07:30-21:00; Su 09:00-20:00,Advance Auto Parts,Q4686051
https://stores.aldi.us/#4421180,aldi_sud_us,ALDI  587 Lake Flower Ave,,Saranac Lake,NY,,US,+1 877-465-1046,https://stores.aldi.us/ny/saranac-lake/587-lake-flower-ave,"Mo-Su 08:30-20:00,09:00-20:00",ALDI,Q41171672
/locations/propane-offices/new-york/saranac-lake/159-church-st,amerigas,"AmerGas Propane | Saranac Lake, New York",,Saranac Lake,NY,,US,+1 518-891-3172,/locations/propane-offices/new-york/saranac-lake/159-church-st,,AmeriGas,Q23130318
58344,citi,ATM Grand Union,,Saranac Lake,NY,,US,,,,Citibank,Q857063
340659,dunkin_us,Dunkin',,Saranac Lake,NY,,US,+1 518-891-8424,https://locations.dunkindonuts.com/en/ny/saranac-lake/600-lake-flower-avenue/340659,Mo-Su 05:00-19:00,Dunkin',Q847743
https://www.edwardjones.com/us-en/financial-advisor/christopher-miller,edwardjones,Christopher E Miller,,Saranac Lake,NY,,US,+1 518-891-5863,https://www.edwardjones.com/us-en/financial-advisor/christopher-miller,Mo-Fr 08:00-18:00,Edward Jones,Q5343830
200310134,exxonmobil,BROADWAY MOBIL MART,,SARANAC LAKE,NY,,US,+1 518-891-1493,https://www.exxon.com/en/find-station/mobil-saranaclake-ny-broadwaymobilmart-200310134,Mo-Su 05:00-00:00,Mobil,Q109676002
31301,h_r_block,H&R Block,,Saranac Lake,NY,,US,+1 518-891-0844,https://www.hrblock.com/local-tax-offices/new-york/saranac-lake/110-broadway/31301/,,H&R Block,Q5627799
2286,mightyflame,KINNEY DRUGS INC #02,,Saranac Lake,NY,,US,+1 518-891-3132,,,Mighty Flame,
2080,mightyflame,HYDE FUEL STORE #5004,,SARANAC LAKE,NY,,US,+1 518-891-1493,,,Mighty Flame,
230,mightyflame,STEWARTS SHOP #242,,SARANAC LAKE,NY,,US,+1 518-891-6687,,,Mighty Flame,
1771,mightyflame,FUSION MARKET,,SARANAC LAKE,NY,,US,+1 518-891-2095,,,Mighty Flame,
2081,mightyflame,HYDE FUEL STORE #5005,,SARANAC LAKE,NY,,US,+1 518-891-7246,,,Mighty Flame,
https://www.plannedparenthood.org/health-center/new-york/saranac-lake/12983/saranac-lake-clinic-3428-91210,planned_parenthood,Planned Parenthood,,Saranac Lake,NY,,US,,https://www.plannedparenthood.org/health-center/new-york/saranac-lake/12983/saranac-lake-clinic-3428-91210,,Planned Parenthood,Q2553262
242,stewartsshops,Stewart's Shops,,Saranac Lake,NY,,US,+1 518-891-6687,https://locations.stewartsshops.com/ll/US/NY/Saranac-Lake/27-Bloomingdale-Avenue,Mo-Su 04:30-23:00,Stewart's Shops,Q7615690
https://restaurants.subway.com/#14897783,subway,Subway Saranac Lake,,Saranac Lake Essex,NY,,US,+1 518-891-6868,https://restaurants.subway.com/united-states/ny/saranac-lake/615-lake-flower-ave,Mo-Su 09:00-21:00,Subway,Q244457
1380795,usps,SARANAC LAKE,,SARANAC LAKE,NY,,US,+1 518-891-4390,,Mo-Fr 09:00-17:00; Sa 09:00-12:00,United States Postal Service,Q668687
1298300013,usps_collection_boxes,USPS COLLECTION BOX - BLUE BOX,277 BROADWAY,SARANAC LAKE,NY,,US,,,,United States Postal Service,Q668687
1298300002,usps_collection_boxes,USPS COLLECTION BOX - BLUE BOX,51 BROADWAY,SARANAC LAKE,NY,,US,,,,United States Postal Service,Q668687
1298300018,usps_collection_boxes,USPS COLLECTION BOX - PO LOBBY,51 BROADWAY,SARANAC LAKE,NY,,US,,,,United States Postal Service,Q668687
1298300016,usps_collection_boxes,USPS COLLECTION BOX - PO LOBBY,51 BROADWAY,SARANAC LAKE,NY,,US,,,,United States Postal Service,Q668687
1298300007,usps_collection_boxes,USPS COLLECTION BOX - BLUE BOX,39 MAIN ST,SARANAC LAKE,NY,,US,,,,United States Postal Service,Q668687
1298300005,usps_collection_boxes,USPS COLLECTION BOX - BLUE BOX,75 MAIN ST,SARANAC LAKE,NY,,US,,,,United States Postal Service,Q668687
1298300006,usps_collection_boxes,USPS COLLECTION BOX - BLUE BOX,48 CHURCH ST,SARANAC LAKE,NY,,US,,,,United States Postal Service,Q668687
1298300011,usps_collection_boxes,USPS COLLECTION BOX - BLUE BOX,209 LAKE FLOWER AVE,SARANAC LAKE,NY,,US,,,,United States Postal Service,Q668687
A00000233092,verizon_us,Wireless Zone Saranac Lake,,SARANAC LAKE,NY,,US,+1 518-891-7300,https://www.verizon.com/stores/details/new-york/saranac-lake/wireless-zone-saranac-lake-1596822/,Mo-Sa 09:00-19:00; Su 11:00-17:00,Verizon,Q919641
,visa,,,ALBANY,NY,,US,,,,,
,visa,,,ALBANY,NY,,US,,,,,
,visa,,,LAKE PLACID,NY,,US,,,,,
,visa,,,SARANAC LAKE,NY,,US,,,,,
,visa,,,SARANAC LAKE,NY,,US,,,,,
,visa,,,SARANAC LAKE,NY,,US,,,,,
,visa,,,SARANAC LAKE,NY,,US,,,,,
,visa,,,SARANAC LAKE,NY,,US,,,,,
,visa,,,SARANAC LAKE,NY,,US,,,,,
,visa,,,SARANAC LAKE,NY,,US,,,,,
,visa,,,SARANAC LAKE,NY,,US,,,,,
,visa,,,SARANAC LAKE,NY,,US,,,,,
,visa,,,SARANAC LAKE,NY,,US,,,,,
,visa,,,SARANAC LAKE,NY,,US,,,,,
,visa,,,SARANAC LAKE,NY,,US,,,,,
,visa,,,SARANAC LAKE,NY,,US,,,,,
,visa,,,SARANAC LAKE,NY,,US,,,,,
,visa,,,SARANAC LAKE,NY,,US,,,,,
,visa,,,SARANAC LAKE,NY,,US,,,,,
,visa,,,SARANAC LAKE,NY,,US,,,,,
,visa,,,SARANAC LAKE,NY,,US,,,,,
,visa,,,SARANAC LAKE,NY,,US,,,,,
,visa,,,SARANAC LAKE,NY,,US,,,,,
,visa,,,SARANAC LAKE,NY,,US,,,,,
,visa,,,SARANAC LAKE,NY,,US,,,,,
,visa,,,SARANAC LAKE,NY,,US,,,,,
,visa,,,SARANAC LAKE,NY,,US,,,,,
,visa,,,SARANAC LAKE,NY,,US,,,,,
,visa,,,SARANAC LAKE,NY,,US,,,,,
,visa,,,SARANAC LAKE,NY,,US,,,,,
,visa,,,SARANAC LAKE,NY,,US,,,,,
,visa,,,SARANAC LAKE,NY,,US,,,,,
,visa,,,SARANAC LAKE,NY,,US,,,,,
,visa,,,SARANAC LAKE,NY,,US,,,,,
,visa,,,SYRANAC LAKE,NY,,US,,,,,
,visa,,,SARANAC LAKE,NY,,US,,,,,
,visa,,,SARANAC LAKE,NY,,US,,,,,
,visa,,,SARANAC LAKE,NY,,US,,,,,
,visa,,,SARANAC LAKE,NY,,US,,,,,
,visa,,,SARANAC LAKE,NY,,US,,,,,
,visa,,,SARANAC LAKE,NY,,US,,,,,
,visa,,,SARANAC LAKE,NY,,US,,,,,
,visa,,,SARANAC LAKE,NY,,US,,,,,
,visa,,,SARANAC LAKE,NY,,US,,,,,
,visa,,,SARANAC LAKE,NY,,US,,,,,
https://www.walgreens.com/locator/walgreens-173+church+st-saranac+lake-ny-12983/id=17227,walgreens,Walgreens,,Saranac Lake,NY,,US,+1 518-891-6033,https://www.walgreens.com/locator/walgreens-173+church+st-saranac+lake-ny-12983/id=17227,Mo-Sa 08:00-20:00; Su 09:00-18:00,Walgreens,Q1591889
4df1fd0ef876446163dd8e2a33083b9b,western_union,WALGREENS #17227,,Saranac Lake,NY,,US,+1 518-893-6033,https://location.westernunion.com/us/ny/saranac-lake/4df1fd0ef876446163dd8e2a33083b9b,Mo-Fr 08:00-21:00; Sa 08:00-20:00; Su 08:00-19:00,Western Union,Q861042
724e6ca2f73b31b96f233c99e3530ea2,western_union,GU MARKETS #707,,Saranac Lake,NY,,US,+1 518-891-4345,https://location.westernunion.com/us/ny/saranac-lake/724e6ca2f73b31b96f233c99e3530ea2,Mo-Su 06:00-23:00,Western Union,Q861042
