Ref,Spider,Name,Address,City,State,Zipcode,Country,Phone,Website,Hours,Brand,WikiData
141288,bluerhino,Parker's Building Supply #5704,,Junction,TX,,US,+1 325-446-2243,,,Blue Rhino,Q65681213
123348,bluerhino,"Junction True Value (Hill Country Hardware & Rentals, LLC)",,Junction,TX,,US,+1 325-446-9101,,,Blue Rhino,Q65681213
144657,bluerhino,Pilot Travel #1006,,Junction,TX,,US,+1 325-446-2085,,,Blue Rhino,Q65681213
213446,bluerhino,RMI #101 Junction,,Junction,TX,,US,+1 254-541-5509,,,Blue Rhino,Q65681213
212244,bluerhino,Timewise #162 - Junction Shamrock,,Junction,TX,,US,+1 325-446-8740,,,Blue Rhino,Q65681213
219113,bluerhino,Dollar General #10436,,JUNCTION,TX,,US,+1 325-313-2935,,,Blue Rhino,Q65681213
138110,bluerhino,Lowe's Super S #133,,Junction,TX,,US,+1 325-446-2650,,,Blue Rhino,Q65681213
71001,chevron,Chevron Station #71001, 2415 N MAIN,JUNCTION,TX,,US,,,,Chevron,Q319642
100143,electrify_america,"Econo Lodge (Junction, TX)",,Junction,TX,,US,,,,Electrify America,Q59773555
33010,family_dollar_us,FAMILY DOLLAR #13010,,Junction,TX,,US,+1 325-770-6000,https://www.familydollar.com/locations/tx/junction/33010/,Mo-Su 08:00-22:00,Family Dollar,Q5433101
https://local.fedex.com/#25228302,fedex,,,Junction,TX,,US,+1 800-463-3339,https://local.fedex.com/en-us/tx/junction/evaai,,FedEx,Q459477
138445,little_free_library,Pecan Valley RV Park #138445 Junction TX,,Junction,TX,,US,,,,Little Free Library,Q6650101
2102,mightyflame,JUNCTION SHORT STOP,,Junction,TX,,US,+1 325-446-2739,,,Mighty Flame,
0000890037,phillips_66_conoco_76,KIMBLE COUNTY MARKET,,JUNCTION,TX,,US,+1 325-446-2432,,,Phillips 66,Q1656230
1006,pilot_flyingj,Pilot Travel Center,,Junction,TX,,US,+1 325-439-7717,https://locations.pilotflyingj.com/us/tx/junction/2342-north-main-street,,Pilot,Q7194412
1184,roadys_us,Junction Travel Center,,Junction,TX,,US,+1 325-446-8740,,24/7,Roadyâ€™s Truck Stops,Q7339701
https://restaurants.subway.com/#14907428,subway,Subway PilotTruck Stop #1006,,Junction Kimble,TX,,US,+1 325-446-3234,https://restaurants.subway.com/united-states/tx/junction/2342-north-main-street,Mo-Su 09:00-22:00,Subway,Q244457
0424577500,sunoco_us,Sunoco,,JUNCTION,TX,,US,+1 325-658-7521,,Mo-Su 06:00-00:00,Sunoco,Q1423218
1368609,usps,JUNCTION,,JUNCTION,TX,,US,+1 325-446-2587,,Mo-Fr 07:45-15:45,United States Postal Service,Q668687
7684900001,usps_collection_boxes,USPS COLLECTION BOX - PO LOBBY,612 COLLEGE ST,JUNCTION,TX,,US,,,,United States Postal Service,Q668687
7684900002,usps_collection_boxes,USPS COLLECTION BOX - PO LOBBY,612 COLLEGE ST,JUNCTION,TX,,US,,,,United States Postal Service,Q668687
7684900000,usps_collection_boxes,USPS COLLECTION BOX - BLUE BOX,612 COLLEGE ST,JUNCTION,TX,,US,,,,United States Postal Service,Q668687
0000028741,valero,Segovia Truck Stop,,Junction,TX,,US,,https://locations.valero.com/en-us/LocationDetails/Index/115-SOUTH-SEGOVIA-ACCESS-RD/0000028741,24/7,Valero,Q1283291
,visa,,,JUNCTION,TX,,US,,,,,
,visa,,,JUNCTION,TX,,US,,,,,
,visa,,,JUNCTION,TX,,US,,,,,
,visa,,,JUNCTION,TX,,US,,,,,
,visa,,,JUNCTION,TX,,US,,,,,
,visa,,,JUNCTION,TX,,US,,,,,
,visa,,,JUNCTION,TX,,US,,,,,
,visa,,,JUNCTION,TX,,US,,,,,
,visa,,,JUNCTION,TX,,US,,,,,
,visa,,,JUNCTION,TX,,US,,,,,
,visa,,,JUNCTION,TX,,US,,,,,
,visa,,,JUNCTION,TX,,US,,,,,
,visa,,,JUNCTION,TX,,US,,,,,
