Ref,Spider,Name,Address,City,State,Zipcode,Country,Phone,Website,Hours,Brand,WikiData
72284207,moneygram,SHIV ENTERPRISES - MAHARAJGANJ - GORAKHP,,MAHARAJGANJ,,,IN,+91 98393 38837,,Mo-Su 08:00-22:00,MoneyGram,Q1944412
72330119,moneygram,SANGAM BOOK DEPO - MAHARAJGANJ - MAHARAJ,,MAHARAJGANJ,,,IN,+91 98382 52626,,Mo-Su 08:00-22:00,MoneyGram,Q1944412
72360668,moneygram,A K TOUR AND TRAVELS - MAHARAJGANJ - MAH,,MAHARAJGANJ,,,IN,+91 99199 12265,,Mo-Su 08:00-22:00,MoneyGram,Q1944412
72487211,moneygram,OM MOBILE CENTER AND SAHAJ JAN SEVA KEND,,MAHARAJGANJ,,,IN,+91 96955 90961,,Mo-Su 08:00-22:00,MoneyGram,Q1944412
72604968,moneygram,CHINU TOUR AND TRAVELS,,MAHARAJGANJ,,,IN,+91 99358 47800,,Mo-Su 08:00-21:00,MoneyGram,Q1944412
72605569,moneygram,FAHAD MOBILE SHOP REPARING CEN,,MAHARAJGANJ,,,IN,+91 98394 54573,,Mo-Su 08:00-21:00,MoneyGram,Q1944412
72604146,moneygram,M K TRADING COMPANY,,MAHARAJGANJ,,,IN,+91 98388 67893,,Mo-Su 08:00-21:00,MoneyGram,Q1944412
72611757,moneygram,M. S. MOBILE SHOP,,MAHARAJGANJ,,,IN,+91 98394 70488,,Mo-Su 08:00-21:00,MoneyGram,Q1944412
72589177,moneygram,INDIA TOURS AND TRAVEL,,MAHARAJGANJ,,,IN,+91 98394 88942,,Mo-Su 08:00-21:00,MoneyGram,Q1944412
72595967,moneygram,LK TOUR TRAVELS,,MAHARAJGANJ,,,IN,+91 96708 10204,,Mo-Su 08:00-21:00,MoneyGram,Q1944412
72644180,moneygram,SABA TOURS AND TRAVELS - MAHARAJGANJ,,MAHARAJGANJ,,,IN,+91 80813 34455,,Mo-Su 08:00-20:00,MoneyGram,Q1944412
72588055,moneygram,KISHAN KHAD BHANDAR,,MAHARAJGANJ,,,IN,+91 99194 41629,,Mo-Su 08:00-21:00,MoneyGram,Q1944412
72602805,moneygram,KRISHNA TRAVELS,,MAHARAJGANJ,,,IN,+91 76071 68005,,Mo-Su 08:00-21:00,MoneyGram,Q1944412
72685615,moneygram,GRAHAK SEWA KENDRA - MAHARAJGANJ,,MAHARAJGANJ,,,IN,+91 73557 40902,,Mo-Su 08:00-20:00,MoneyGram,Q1944412
72767944,moneygram,AARISH TRAVEL SERVICES - MAHARAJGANJ,,MAHARAJGANJ,,,IN,+91 88408 13851,,Mo-Su 09:00-21:00,MoneyGram,Q1944412
72768998,moneygram,UNIQUE PRINTERS AND TRAVELS - MAHARAJGAN,,MAHARAJGANJ,,,IN,+91 98895 95139,,Mo-Su 08:00-20:00,MoneyGram,Q1944412
72774432,moneygram,NEW JANTA MOBILE SHOP AND REPAIRING CENT,,MAHARAJGANJ,,,IN,+91 89536 66772,,Mo-Su 09:00-21:00,MoneyGram,Q1944412
72588806,moneygram,L.K TOUR & TRAVELS,,MAHARAJGANJ,,,IN,+91 95545 49020,,Mo-Su 08:00-21:00,MoneyGram,Q1944412
72603082,moneygram,LUCKY AUTO SPARES,,MAHARAJGANJ,,,IN,+91 99362 10724,,Mo-Su 08:00-21:00,MoneyGram,Q1944412
72857485,moneygram,SAHAJ JAN SEWA KENDRA - MAHARAJGANJ,,MAHARAJGANJ,,,IN,+91 82997 69771,,Mo-Su 09:00-21:00,MoneyGram,Q1944412
72893630,moneygram,ALAM TOUR TRAVELS,,MAHARAJGANJ,,,IN,+91 99194 09160,,Mo-Su 08:00-21:00,MoneyGram,Q1944412
72986712,moneygram,ALI ENTERPRISES - MAHARAJGANJ,,MAHARAJGANJ,,,IN,+91 99356 45023,,Mo-Su 09:00-21:00,MoneyGram,Q1944412
73038193,moneygram,OM MOBILE CENTER AND SAHAJJAN SEVAKENDRA,,MAHARAJGANJ,,,IN,+91 99184 91571,,Mo-Su 08:00-21:00,MoneyGram,Q1944412
73415156,moneygram,RAZA GARMENTS AND SAUNDARYA PRASHADHAN,,MAHARAJGANJ,,,IN,+91 96282 83852,,Mo-Su 08:00-21:00,MoneyGram,Q1944412
73406929,moneygram,VYOM TOURS AND TRAVELS,,MUMBAI,,,IN,+91 80820 23147,,Mo-Su 08:00-21:00,MoneyGram,Q1944412
73421386,moneygram,KISSAN TOURS TRAVELS,,MAHARAJGANJ,,,IN,+91 98389 10373,,Mo-Su 08:00-21:00,MoneyGram,Q1944412
73423148,moneygram,STAR TOUR AND TRAVELS,,MAHARAJGANJ,,,IN,+91 89487 78477,,Mo-Su 08:00-21:00,MoneyGram,Q1944412
73442116,moneygram,G MOBILE SHOP,,MAHARAJGANJ,,,IN,+91 72359 52375,,Mo-Su 08:00-21:00,MoneyGram,Q1944412
73422628,moneygram,USHMAN TOUR & TRAVELS,,MAHARAJGANJ,,,IN,+91 98381 58150,,Mo-Su 08:00-21:00,MoneyGram,Q1944412
73533054,moneygram,KRISHNA MEDICINE CENTER,,MAHARAJGANJ,,,IN,+91 97210 00000,,Mo-Su 08:00-21:00,MoneyGram,Q1944412
73547862,moneygram,LUCKY TRAVELS,,MAHARAJGANJ,,,IN,+91 98394 06477,,Mo-Su 08:00-21:00,MoneyGram,Q1944412
73547846,moneygram,SAHAJ JAN SEWA KENDRA,,MAHARAJGANJ,,,IN,+91 90443 73536,,Mo-Su 08:00-21:00,MoneyGram,Q1944412
73538033,moneygram,SALMAN MOBILE SHOP,,MAHARAJGANJ,,,IN,+91 88088 00880,,Mo-Su 08:00-21:00,MoneyGram,Q1944412
73553005,moneygram,JAIN TRAVELS - MAHARAJGANJ,,MAHARAJGANJ,,,IN,+91 96284 33845,,Mo-Su 09:00-21:00,MoneyGram,Q1944412
73616874,moneygram,ARABIA TRAVELS SERVICES,,MAHARAJGANJ,,,IN,+91 78006 66457,,Mo-Su 08:00-21:00,MoneyGram,Q1944412
73570509,moneygram,GRAHAK SEWA KENDRA - MAHARAJGANJ,,MAHARAJGANJ,,,IN,+91 99300 17527,,Mo-Su 09:00-21:00,MoneyGram,Q1944412
73649511,moneygram,GRAHAK SEVA KENDRA,,MAHARAJGANJ,,,IN,+91 99368 14041,,Mo-Su 08:00-21:00,MoneyGram,Q1944412
73046224,moneygram,JAI MAA LAXMI TRADERS,,MAHARAJGANJ,,,IN,+91 93898 31199,,Mo-Su 08:00-21:00,MoneyGram,Q1944412
73044501,moneygram,TAJ ENTERPRISES,,MAHARAJGANJ,,,IN,+91 98384 51223,,Mo-Su 08:00-21:00,MoneyGram,Q1944412
74271289,moneygram,ANJUM TOUR AND TRAVELS,,MAHRAJGANJ,,,IN,+91 99191 11400,,Mo-Su 08:00-21:00,MoneyGram,Q1944412
74271959,moneygram,M/S KHAN CYCLE STORES,,MAHARAJGANJ,,,IN,+91 99361 11475,,Mo-Su 08:00-21:00,MoneyGram,Q1944412
74614121,moneygram,A.K. TOUR & TRAVELS,,MAHARAJGANJ,,,IN,+91 88408 08406,,Mo-Su 04:00-24:00,MoneyGram,Q1944412
74765122,moneygram,SHIVAM TOUR AND TRAVELS,,MAHARAJGANJ,,,IN,+91 99195 62057,,Mo-Su 01:00-24:00,MoneyGram,Q1944412
71609074,moneygram,MOBILE COLLECTION & INTERNET - MAHARAJGA,,MAHARAJGANJ,,,IN,+91 99350 78934,,Mo-Su 09:00-21:00,MoneyGram,Q1944412
71775940,moneygram,SHIVAM TOUR AND TRAVELS - MAHARAJGANJ -,,MAHARAJGANJ,,,IN,+91 98396 81627,,Mo-Su 10:00-20:00,MoneyGram,Q1944412
