Ref,Spider,Name,Address,City,State,Zipcode,Country,Phone,Website,Hours,Brand,WikiData
B026,action,Praha-Eden,,Praha,,,CZ,,https://www.action.com/cs-cz/prodejny/prague-10/,,Action,Q2634111
B056,action,Praha 10,,Praha,,,CZ,,https://www.action.com/cs-cz/prodejny/praha2/,,Action,Q2634111
26245_1,bmw_group,CarTec Praha s.r.o.,,Praha 10,,,CZ,+420 226 889 011,https://www.bmw-cartecgroup.cz/,,BMW,Q26678
CZ101009,burger_king_cz,BK Praha Eden,,Praha,,,CZ,,https://burgerking.cz/restaurants/bk-praha-eden,We-Sa 09:00-21:00,Burger King,Q177054
781,ccc,Praha CCC Eden 2287,,Praha,,,CZ,+420 222 211 862,https://ccc.eu/cz/market/praha-ccc-eden-2287,Su 09:00-21:00,CCC,Q11788344
,czech_post_cz,Praha 10,,,,,CZ,,,,Česká pošta,Q341090
55187083,deichmann,DEICHMANN prodejnu Praha U Slavie 1527,,Praha,,,CZ,+420 725 295 831,https://stores.deichmann.com/cz-cs/cz/hlavni-mesto-praha/praha/u-slavie-1527,Mo-Su 09:00-21:00,Deichmann,Q664543
cz:160,dm,dm drogerie markt s.r.o. - prod.160,,Praha,,,CZ,+420 274 822 843,https://www.dm.cz/store/p06g/praha/starostrasnicka-1088-22,Mo-Fr 07:30-19:30; Sa 08:00-17:00; Su 09:00-13:00,dm,Q266572
cz:288,dm,dm drogerie markt s.r.o. - prod.288,,Praha,,,CZ,+420 272 660 816,https://www.dm.cz/store/p0c0/praha/vrsovicka-1527-67b,Mo-Su 09:00-21:00,dm,Q266572
cz:373,dm,dm drogerie markt s.r.o. - prod.373,,Praha,,,CZ,+420 274 771 817,https://www.dm.cz/store/p0fd/praha/pretlucka-3295-50,Mo-Su 08:00-20:00,dm,Q266572
CZ0057,hm,H&M,,Prague,,,CZ,+420 245 002 200,,Mo-Su 09:00-21:00,H&M,Q188326
T437,jysk,"Skalka, Praha",,Praha 10,,,CZ,+420 720 740 437,https://jysk.cz/prodejny?storeId=T437,Mo-Fr 09:00-19:00; Sa 09:00-18:00; Su 10:00-17:00,JYSK,Q138913
5024,kik,KiK,,Praha Skalka,,,CZ,+420 274 772 865,,Mo-Fr 09:00-20:00; Sa-Su 09:00-18:00,KiK,Q883965
458,lidl_cz,Lidl,,Praha 10,,,CZ,,,Mo-Sa 07:00-22:00; Su 08:00-22:00,Lidl,Q151954
66,mcdonalds_cz,"Praha, Eden",,Praha 10 - Vršovice,,,CZ,+420 606 615 432,https://restaurace.mcdonalds.cz/praha-eden,Mo-Su 06:00-24:00,McDonald's,Q38076
1200094,mol,Praha 10 - Štěrboholy (Europark),Štěrboholy 1 - Jižný spojka (z centra),Praha 10 - Štěrboholy,,,CZ,+420 721 007 807,,Mo-Sa 00:00-24:00,MOL,Q549181
1200092,mol,Praha 10 - Štěrboholy (out),Štěrboholská spojka II. (z centra),Praha 10 - Štěrboholy,,,CZ,+420 601 122 061,,Mo-Sa 06:00-22:00,MOL,Q549181
1199207,mol,Praha 10 - Švehlova,Švehlova,Praha 10 - Zahradní město,,,CZ,+420 721 007 783,,Mo-Sa 06:00-22:00,MOL,Q549181
1199002,mol,Praha 10 - Ruská,Ruská,Praha 10 - Vršovice,,,CZ,+420 721 007 812,,Mo-Fr 06:00-21:00; Sa 08:00-20:00,MOL,Q549181
1198504,mol,Praha 10 - Černokostelecká II.,Černokostelecká,Praha 10 - Hostivař,,,CZ,+420 721 007 839,,Mo-Sa 00:00-24:00,MOL,Q549181
1198490,mol,Praha 10 - Štěrboholy (in),Štěrboholská spojka I. (do centra),Praha 10 - Štěrboholy,,,CZ,+420 601 129 946,,Mo-Sa 00:00-24:00,MOL,Q549181
1198485,mol,Praha 10 - V korytech,V Korytech,Praha 10 - Strašnice,,,CZ,+420 721 007 780,,Mo-Sa 00:00-24:00,MOL,Q549181
73848480,moneygram,EUROEXCHANGE - PRAHA - PRAHA TESCO SKALK,,PRAHA,,,CZ,+420 733 736 649,,Mo-Su 09:00-20:00,MoneyGram,Q1944412
CZ_6814,totalenergies,PRAHA JIZNI SPOJKA,,PRAHA,,,CZ,,https://store.totalenergies.fr/en_EN/CZ_6814,,AS 24,Q2819394
