Ref,Spider,Name,Address,City,State,Zipcode,Country,Phone,Website,Hours,Brand,WikiData
54db7322dfd4dbf0b1c86e731275072e,western_union,WAFACASH EL JORF AMN,,Jorf El Melha,SIDI KACEM,,MA,(+212) 522-435050-2601,https://location.westernunion.com/ma/sidi-kacem/jorf-el-melha/54db7322dfd4dbf0b1c86e731275072e,Mo-Su 08:00-24:00,Western Union,Q861042
df3c23d8e7bfc2687b838be6e8c0d520,western_union,AL BARID BANK SIDI KACEM ZAOUIA,,Sidi Kacem,SIDI KACEM,,MA,+212 5375-90598,https://location.westernunion.com/ma/sidi-kacem/sidi-kacem/df3c23d8e7bfc2687b838be6e8c0d520,Mo-Fr 07:00-21:00; Sa 07:00-16:30; Su 07:00-24:00,Western Union,Q861042
ce0845d91a4bddc9a6ea1dc1ee4b0564,western_union,JORF MELHA,,Sidi Kacem,SIDI KACEM,,MA,+212 663-896324,https://location.westernunion.com/ma/sidi-kacem/sidi-kacem/ce0845d91a4bddc9a6ea1dc1ee4b0564,Mo-Su 00:01-24:00,Western Union,Q861042
111f55c22a735070ec5d10fc232f9a80,western_union,CENTRE KHENICHET,,Khenichat,SIDI KACEM,,MA,+212 661-305685,https://location.westernunion.com/ma/sidi-kacem/khenichat/111f55c22a735070ec5d10fc232f9a80,Mo-Su 00:01-24:00,Western Union,Q861042
507f2b659624cda1cd4683ef67fbe631,western_union,SIDI KACEM MJAARA,,Sidi Kacem,SIDI KACEM,,MA,+212 5224-29030,https://location.westernunion.com/ma/sidi-kacem/sidi-kacem/507f2b659624cda1cd4683ef67fbe631,Mo-Su 08:00-23:00,Western Union,Q861042
4082f9822a43ab92184507bb42c890c2,western_union,LC SIDI KACEM QU MILOUD,,Sidi Kacem,SIDI KACEM,,MA,+212 667-446801,https://location.westernunion.com/ma/sidi-kacem/sidi-kacem/4082f9822a43ab92184507bb42c890c2,Mo-Su 00:08-24:00,Western Union,Q861042
31b315ce714fd2996efbbb23cf99fe09,western_union,SIDIKACEMMED5,,Sidi Kacem,SIDI KACEM,,MA,+212 5375-90222,https://location.westernunion.com/ma/sidi-kacem/sidi-kacem/31b315ce714fd2996efbbb23cf99fe09,Mo-Su 00:01-24:00,Western Union,Q861042
79908aedb7e24871cada7357211cf67a,western_union,WAFACASH SIDI KACEM MP,,Sidi Kacem,SIDI KACEM,,MA,+212 5224-35050,https://location.westernunion.com/ma/sidi-kacem/sidi-kacem/79908aedb7e24871cada7357211cf67a,Mo-Su 08:00-24:00,Western Union,Q861042
9751b2735d7be9eebf90baa9b11ec080,western_union,CENTRE SIDI REDOUAN,,Sidi Redouan,SIDI KACEM,,MA,+212 660-931186,https://location.westernunion.com/ma/sidi-kacem/sidi-redouan/9751b2735d7be9eebf90baa9b11ec080,Mo-Su 00:01-24:00,Western Union,Q861042
d1d44d7fd07ec021e4fb1fd2a8c33100,western_union,WAFACASH JORF EL MELHA CENTRE,,Jorf El Melha,SIDI KACEM,,MA,+212 5224-35050,https://location.westernunion.com/ma/sidi-kacem/jorf-el-melha/d1d44d7fd07ec021e4fb1fd2a8c33100,Mo-Su 08:00-24:00,Western Union,Q861042
5c713d0521a9ba4d955c7127e76cf6b2,western_union,ATACADAO,,Sidi Kacem,SIDI KACEM,,MA,+212 672-927975,https://location.westernunion.com/ma/sidi-kacem/sidi-kacem/5c713d0521a9ba4d955c7127e76cf6b2,Mo-Su 00:01-24:00,Western Union,Q861042
0676ee987f85d5d5992dc84e76145b86,western_union,FAHMI BELKSIRI,,Sidi Kacem,SIDI KACEM,,MA,(+212) 37-438188,https://location.westernunion.com/ma/sidi-kacem/sidi-kacem/0676ee987f85d5d5992dc84e76145b86,Mo-Su 00:01-24:00,Western Union,Q861042
e0d2eed2242f7a734856e31e3ada88c5,western_union,ROUTE TANGER,,Sidi Kacem,SIDI KACEM,,MA,+212 661-772947,https://location.westernunion.com/ma/sidi-kacem/sidi-kacem/e0d2eed2242f7a734856e31e3ada88c5,Mo-Su 00:01-24:00,Western Union,Q861042
bdfd0564f267d843fa8c9002b318919e,western_union,WAFACASH SIDI KACEM MOHAMED V EC,,Sidi Kacem,SIDI KACEM,,MA,+212 5224-35050,https://location.westernunion.com/ma/sidi-kacem/sidi-kacem/bdfd0564f267d843fa8c9002b318919e,Mo-Su 08:00-24:00,Western Union,Q861042
0c2a1699d74c373b00cbe55630729caa,western_union,DC SIDI KACEM AFCA,,Sidi Kacem,SIDI KACEM,,MA,+212 660-030057,https://location.westernunion.com/ma/sidi-kacem/sidi-kacem/0c2a1699d74c373b00cbe55630729caa,Mo-Su 08:00-24:00,Western Union,Q861042
2b4b51983b248a255c8b14a42d9efdb8,western_union,CANALM SIDI KACEM,,Sidi Kacem,SIDI KACEM,,MA,+212 5224-29030,https://location.westernunion.com/ma/sidi-kacem/sidi-kacem/2b4b51983b248a255c8b14a42d9efdb8,Mo-Su 08:00-23:00,Western Union,Q861042
8e1f19e28c284d8494452e122c48a439,western_union,WAFACASH SIDI KACEM BIR ANZARANE GSM,,Sidi Kacem,SIDI KACEM,,MA,+212 5224-35050,https://location.westernunion.com/ma/sidi-kacem/sidi-kacem/8e1f19e28c284d8494452e122c48a439,Mo-Su 08:00-24:00,Western Union,Q861042
733b0d66ad30d7cca1bd2269eea0cc05,western_union,WAFACASH SIDI KACEM EL YASMINE,,Sidi Kacem,SIDI KACEM,,MA,+212 5224-35050,https://location.westernunion.com/ma/sidi-kacem/sidi-kacem/733b0d66ad30d7cca1bd2269eea0cc05,Mo-Su 08:00-24:00,Western Union,Q861042
df2e82f553066a1ebbfa80b609b6902f,western_union,EL YASSMINE SIDI KACEM,,Sidi Kacem,SIDI KACEM,,MA,+212 5375-93912,https://location.westernunion.com/ma/sidi-kacem/sidi-kacem/df2e82f553066a1ebbfa80b609b6902f,Mo-Su 00:01-24:00,Western Union,Q861042
97c8fef4d2b8d70e5eaa88c7610c85f0,western_union,TASSHILAT MULTI SER BELOUADIF,,Sidi Kacem,SIDI KACEM,,MA,+212 669-254005,https://location.westernunion.com/ma/sidi-kacem/sidi-kacem/97c8fef4d2b8d70e5eaa88c7610c85f0,Mo-Su 07:00-24:00,Western Union,Q861042
c671369690e71f6609b2288ed9335877,western_union,CASH PLUS SIDI KACEM,,Sidi Kacem,SIDI KACEM,,MA,+212 5228-60100,https://location.westernunion.com/ma/sidi-kacem/sidi-kacem/c671369690e71f6609b2288ed9335877,Mo-Su 00:01-24:00,Western Union,Q861042
3b8817afbc2e19de9fc3aa0cbb8942bb,western_union,DC SIDI KACEM LAMLAHFA,,Sidi Kacem,SIDI KACEM,,MA,+212 661-430167,https://location.westernunion.com/ma/sidi-kacem/sidi-kacem/3b8817afbc2e19de9fc3aa0cbb8942bb,Mo-Su 08:00-24:00,Western Union,Q861042
3be12affb86073fb42f692d61f83c2b9,western_union,SIDI KACEM HAY EL JADID,,Sidi Kacem,SIDI KACEM,,MA,+212 662-196665,https://location.westernunion.com/ma/sidi-kacem/sidi-kacem/3be12affb86073fb42f692d61f83c2b9,Mo-Su 00:01-24:00,Western Union,Q861042
804d5f4fada5d18da031479515c56e27,western_union,SIDI KACEM HY SLAOUI,,Sidi Kacem,SIDI KACEM,,MA,+212 5375-90222,https://location.westernunion.com/ma/sidi-kacem/sidi-kacem/804d5f4fada5d18da031479515c56e27,Mo-Su 00:01-24:00,Western Union,Q861042
abfd5f7058dd8398b7f09494649d71d3,western_union,ZIRARA,,Sidi Kacem,SIDI KACEM,,MA,+212 674-256987,https://location.westernunion.com/ma/sidi-kacem/sidi-kacem/abfd5f7058dd8398b7f09494649d71d3,Mo-Su 00:01-24:00,Western Union,Q861042
6820532784349533c5b370e5af823ad6,western_union,DC SIDI KACEM ZIRARA,,Sidi Kacem,SIDI KACEM,,MA,+212 611-506477,https://location.westernunion.com/ma/sidi-kacem/sidi-kacem/6820532784349533c5b370e5af823ad6,Mo-Su 08:00-24:00,Western Union,Q861042
6ec65ef927ad45b26dcb739a13a46f86,western_union,OUEZZANE HAY ADAIR,,Ouezzane,SIDI KACEM,,MA,+212 5224-29030,https://location.westernunion.com/ma/sidi-kacem/ouezzane/6ec65ef927ad45b26dcb739a13a46f86,Mo-Su 08:00-22:00,Western Union,Q861042
6bb5c4cbab4677df46e6c4cfdf2c3057,western_union,WAFACASH OUAZZAN ALLAL BENABDE,,Ouazzane,SIDI KACEM,,MA,+212 5224-35050,https://location.westernunion.com/ma/sidi-kacem/ouazzane/6bb5c4cbab4677df46e6c4cfdf2c3057,Mo-Su 08:00-24:00,Western Union,Q861042
42c2e89ff2390eb31d217bfc1f6c0a47,western_union,WAFACASH HAD KORT AMN,,Had Kourt,SIDI KACEM,,MA,(+212) 522-435050-2601,https://location.westernunion.com/ma/sidi-kacem/had-kourt/42c2e89ff2390eb31d217bfc1f6c0a47,Mo-Su 08:00-24:00,Western Union,Q861042
e8c8ca8e1ff3f9823468a8a74b951435,western_union,WAFACASH MACHRAA BELKSIRI ILC,,Mechra Bel Ksiri,SIDI KACEM,,MA,+212 5224-35050,https://location.westernunion.com/ma/sidi-kacem/mechra-bel-ksiri/e8c8ca8e1ff3f9823468a8a74b951435,Mo-Su 08:00-24:00,Western Union,Q861042
0d4679de6dcb372c68f31465880a07fb,western_union,ASSAFAEINFO,,Mechra Bel Ksiri,SIDI KACEM,,MA,+212 661-942866,https://location.westernunion.com/ma/sidi-kacem/mechra-bel-ksiri/0d4679de6dcb372c68f31465880a07fb,Mo-Su 07:00-24:00,Western Union,Q861042
6cdd714343ce804a2096c2cea9b7db34,western_union,WAFACASH MACHRAA BELKSSIRI MOHAMED V QM,,Mechra Bel Ksiri,SIDI KACEM,,MA,+212 5224-35050,https://location.westernunion.com/ma/sidi-kacem/mechra-bel-ksiri/6cdd714343ce804a2096c2cea9b7db34,Mo-Su 08:00-24:00,Western Union,Q861042
f2300e0e0adf04b3fed4da6aa8e72464,western_union,WAFACASH MECHRAA BELKSSIRI AMN,,Mechra Bel Ksiri,SIDI KACEM,,MA,(+212) 522-435050-5116,https://location.westernunion.com/ma/sidi-kacem/mechra-bel-ksiri/f2300e0e0adf04b3fed4da6aa8e72464,Mo-Su 08:00-24:00,Western Union,Q861042
4351017294c35689fcb52bd470786305,western_union,SAMIRA ET CONSORTS DE SERVICES SARL,,Dar Gueddari,SIDI KACEM,,MA,+212 662-380103,https://location.westernunion.com/ma/sidi-kacem/dar-gueddari/4351017294c35689fcb52bd470786305,Mo-Su 07:00-24:00,Western Union,Q861042
723d2fbce63156f7c88de862f9548642,western_union,WAFACASH KHEMISS R MILA AMN,,Sidi Kacem,SIDI KACEM,,MA,(+212) 522-435050-2601,https://location.westernunion.com/ma/sidi-kacem/sidi-kacem/723d2fbce63156f7c88de862f9548642,Mo-Su 08:00-24:00,Western Union,Q861042
1dd0261627e39a1825b906b4690c2bbe,western_union,MECHRAA BELKSIRI CENTRE,,Mechraa Bel Ksiri,SIDI KACEM,,MA,+212 603-689976,https://location.westernunion.com/ma/sidi-kacem/mechraa-bel-ksiri/1dd0261627e39a1825b906b4690c2bbe,Mo-Su 00:01-24:00,Western Union,Q861042
7c0e8d8dd749ac8b4f35046d2aed862c,western_union,WAFACASH MACHRA BELKSIRI AV DE,,Macraa Belksiri,SIDI KACEM,,MA,+212 5224-35050,https://location.westernunion.com/ma/sidi-kacem/macraa-belksiri/7c0e8d8dd749ac8b4f35046d2aed862c,Mo-Su 08:00-24:00,Western Union,Q861042
e67ab68162723c387b83babd8aa0548a,western_union,BC SIDI KACEM,,Sidi Kacem,SIDI KACEM,,MA,+212 602-369874,https://location.westernunion.com/ma/sidi-kacem/sidi-kacem/e67ab68162723c387b83babd8aa0548a,Mo-Su 07:00-20:00,Western Union,Q861042
1edc6a6b90c8430aec10a21af24994f2,western_union,DAR EL GUEDDARI  EM,,Sidi Kacem,SIDI KACEM,,MA,+212 5225-35050,https://location.westernunion.com/ma/sidi-kacem/sidi-kacem/1edc6a6b90c8430aec10a21af24994f2,Mo-Su 08:00-24:00,Western Union,Q861042
0ed19a65779ff1e381824b59070be0b7,western_union,AFRIQIA GUEDDARI,,Dar El  Gueddari,SIDI KACEM,,MA,+212 5373-10978,https://location.westernunion.com/ma/sidi-kacem/dar-el--gueddari/0ed19a65779ff1e381824b59070be0b7,Mo-Su 00:01-24:00,Western Union,Q861042
dabed8c145b3f24375d82c500909c2bf,western_union,Sidi El Kamel Belksiri,,Mechra Bel Ksiri,SIDI KACEM,,MA,+212 676-168993,https://location.westernunion.com/ma/sidi-kacem/mechra-bel-ksiri/dabed8c145b3f24375d82c500909c2bf,Mo-Su 00:01-24:00,Western Union,Q861042
e6a4c0a6a3294bf3925841ae5ee995f5,western_union,WAFACASH SKOURA AHL EL OUST AMN,,Skoura,SIDI KACEM,,MA,(+212) 522-435050-5116,https://location.westernunion.com/ma/sidi-kacem/skoura/e6a4c0a6a3294bf3925841ae5ee995f5,Mo-Su 08:00-24:00,Western Union,Q861042
