Ref,Spider,Name,Address,City,State,Zipcode,Country,Phone,Website,Hours,Brand,WikiData
21945,citi,ALSUPER STORE RIBERA,,Chihuahua,CHIHUAHUA,,MX,+52 800 110 3990,,,Citibank,Q857063
1435,first_cash,First Cash Pawn,,Chihuahua,Chihuahua,,MX,+52 614 493 2667,,,First Cash Pawn,
3653,first_cash,First Cash Pawn,,Chihuahua,Chihuahua,,MX,+52 614 566 5427,,,First Cash Pawn,
,visa,,,CHIHUAHUA,CHIHUAHUA,,MX,,,,,
,visa,,,CHIHUAHUA,CHIHUAHUA,,MX,,,,,
45820bf96069ee4a9f0478ef994594a1,western_union,FARM GUAD 2540 QUINTAS CAROLINAS,,Chihuahua,CHIHUAHUA,,MX,+52 800 833 4700,https://location.westernunion.com/mx/chihuahua/chihuahua/45820bf96069ee4a9f0478ef994594a1,Mo-Su 10:00-21:00,Western Union,Q861042
8ff20504f38d0f75691b4032b1f9a685,western_union,FARM GUAD 2540 QUINTAS CAROLINAS,,Chihuahua,CHIHUAHUA,,MX,+52 800 833 4700,https://location.westernunion.com/mx/chihuahua/chihuahua/8ff20504f38d0f75691b4032b1f9a685,Mo-Su 10:00-21:00,Western Union,Q861042
1dd0c100c906911f4877dfbe8fda2cc0,western_union,FARM GUAD 2540 QUINTAS CAROLINAS,,Chihuahua,CHIHUAHUA,,MX,+52 800 833 4700,https://location.westernunion.com/mx/chihuahua/chihuahua/1dd0c100c906911f4877dfbe8fda2cc0,Mo-Su 10:00-21:00,Western Union,Q861042
fb3ae901dde1029f6223dd506ccc181f,western_union,ALSUPER RIBERAS DE SACRAMENTO AP CASH,,Chihuahua,CHIHUAHUA,,MX,+52 614 458 2451,https://location.westernunion.com/mx/chihuahua/chihuahua/fb3ae901dde1029f6223dd506ccc181f,Mo-Su 07:00-24:00,Western Union,Q861042
fdb5efa5a2efc6e7c705943adde77b33,western_union,ALSUPER RIBERAS DE SACRAMENTO AP CASH,,Chihuahua,CHIHUAHUA,,MX,+52 614 458 2451,https://location.westernunion.com/mx/chihuahua/chihuahua/fdb5efa5a2efc6e7c705943adde77b33,Mo-Su 07:00-24:00,Western Union,Q861042
09576d060ecaacc69cd6c77d86629f8a,western_union,ALSUPER RIBERAS DE SACRAMENTO AP CASH,,Chihuahua,CHIHUAHUA,,MX,+52 614 458 2451,https://location.westernunion.com/mx/chihuahua/chihuahua/09576d060ecaacc69cd6c77d86629f8a,Mo-Su 07:00-24:00,Western Union,Q861042
3ff8618778b04902d76babb1d56c51f8,western_union,ALSUPER CAROLINAS,,Chihuahua,CHIHUAHUA,,MX,+52 614 442 1100,https://location.westernunion.com/mx/chihuahua/chihuahua/3ff8618778b04902d76babb1d56c51f8,Mo-Su 08:00-23:00,Western Union,Q861042
4d7db0aff8f785ea5a044a03cc3e8489,western_union,ALSUPER CAROLINAS,,Chihuahua,CHIHUAHUA,,MX,+52 614 442 1100,https://location.westernunion.com/mx/chihuahua/chihuahua/4d7db0aff8f785ea5a044a03cc3e8489,Mo-Su 08:00-23:00,Western Union,Q861042
cd9c5cb1c529b69e6b817a8b6f10cd8b,western_union,ALSUPER CAROLINAS,,Chihuahua,CHIHUAHUA,,MX,+52 614 442 1100,https://location.westernunion.com/mx/chihuahua/chihuahua/cd9c5cb1c529b69e6b817a8b6f10cd8b,Mo-Su 08:00-23:00,Western Union,Q861042
fd8596fde75844815a04435a7cc83e55,western_union,OXXO ATENAS CUF,,Chihuahua,CHIHUAHUA,,MX,+52 81 8389 2121,https://location.westernunion.com/mx/chihuahua/chihuahua/fd8596fde75844815a04435a7cc83e55,Mo-Su 08:00-22:00,Western Union,Q861042
74af53cedddb18a6bde5b94502233dbe,western_union,OXXO ATENAS CUF,,Chihuahua,CHIHUAHUA,,MX,+52 81 8389 2121,https://location.westernunion.com/mx/chihuahua/chihuahua/74af53cedddb18a6bde5b94502233dbe,Mo-Su 08:00-22:00,Western Union,Q861042
79dffa9987b2e4d0aa26cb94333e98b5,western_union,OXXO ATENAS CUF,,Chihuahua,CHIHUAHUA,,MX,+52 81 8389 2121,https://location.westernunion.com/mx/chihuahua/chihuahua/79dffa9987b2e4d0aa26cb94333e98b5,Mo-Su 08:00-22:00,Western Union,Q861042
2c556f023574e1ff588a1f5a38b4006b,western_union,OXXO VIALIDAD CHP CUF,,Chihuahua,CHIHUAHUA,,MX,+52 81 8389 2121,https://location.westernunion.com/mx/chihuahua/chihuahua/2c556f023574e1ff588a1f5a38b4006b,Mo-Su 08:00-22:00,Western Union,Q861042
3c8c9e18998f7d4715804657434ccade,western_union,OXXO OJOS AZULES CUF,,Chihuahua,CHIHUAHUA,,MX,+52 81 8389 2121,https://location.westernunion.com/mx/chihuahua/chihuahua/3c8c9e18998f7d4715804657434ccade,Mo-Su 08:00-22:00,Western Union,Q861042
9c062799f4125da44cbde287f330facf,western_union,FARM GUAD 2606 MONTE EVEREST,,Chihuahua,CHIHUAHUA,,MX,+52 800 833 4700,https://location.westernunion.com/mx/chihuahua/chihuahua/9c062799f4125da44cbde287f330facf,Mo-Su 10:00-21:00,Western Union,Q861042
928e57f6a3458b2684b1d3c6f2f70519,western_union,FARM GUAD 2606 MONTE EVEREST,,Chihuahua,CHIHUAHUA,,MX,+52 800 833 4700,https://location.westernunion.com/mx/chihuahua/chihuahua/928e57f6a3458b2684b1d3c6f2f70519,Mo-Su 10:00-21:00,Western Union,Q861042
dd916e1426609aa62e5f645795baf59f,western_union,FARM GUAD 2606 MONTE EVEREST,,Chihuahua,CHIHUAHUA,,MX,+52 800 833 4700,https://location.westernunion.com/mx/chihuahua/chihuahua/dd916e1426609aa62e5f645795baf59f,Mo-Su 10:00-21:00,Western Union,Q861042
20cd36589ac058460029ab7a3612f25a,western_union,OXXO EVEREST CUF,,Chihuahua,CHIHUAHUA,,MX,+52 81 8389 2121,https://location.westernunion.com/mx/chihuahua/chihuahua/20cd36589ac058460029ab7a3612f25a,Mo-Su 08:00-22:00,Western Union,Q861042
8ecc2ee54853f0e4699206289fe5cfc1,western_union,OXXO TERMINAL NORTE CUF,,Chihuahua,CHIHUAHUA,,MX,+52 81 8389 2121,https://location.westernunion.com/mx/chihuahua/chihuahua/8ecc2ee54853f0e4699206289fe5cfc1,Mo-Su 08:00-22:00,Western Union,Q861042
6f04169bb2e80cb7fc991e40144938b9,western_union,OXXO TERMINAL NORTE CUF,,Chihuahua,CHIHUAHUA,,MX,+52 81 8389 2121,https://location.westernunion.com/mx/chihuahua/chihuahua/6f04169bb2e80cb7fc991e40144938b9,Mo-Su 08:00-22:00,Western Union,Q861042
30775a3728e4f458ec163db51cb98e06,western_union,OXXO MONTE ALBAN CUF,,Chihuahua,CHIHUAHUA,,MX,+52 81 8389 2121,https://location.westernunion.com/mx/chihuahua/chihuahua/30775a3728e4f458ec163db51cb98e06,Mo-Su 08:00-22:00,Western Union,Q861042
4f2899dae92e60f6bc0380a14f62fbaf,western_union,OXXO MONTE ALBAN CUF,,Chihuahua,CHIHUAHUA,,MX,+52 81 8389 2121,https://location.westernunion.com/mx/chihuahua/chihuahua/4f2899dae92e60f6bc0380a14f62fbaf,Mo-Su 08:00-22:00,Western Union,Q861042
df01328a136b6dd283b36ad660f8ad2d,western_union,OXXO MONTE ALBAN CUF,,Chihuahua,CHIHUAHUA,,MX,+52 81 8389 2121,https://location.westernunion.com/mx/chihuahua/chihuahua/df01328a136b6dd283b36ad660f8ad2d,Mo-Su 08:00-22:00,Western Union,Q861042
60d53a51fa24a82133fb701baa1c41fb,western_union,OXXO CAROLINAS CUF,,Chihuahua,CHIHUAHUA,,MX,+52 81 8389 2121,https://location.westernunion.com/mx/chihuahua/chihuahua/60d53a51fa24a82133fb701baa1c41fb,Mo-Su 08:00-22:00,Western Union,Q861042
9f8c54a83924a6fd9d1b2284e1ae9bf7,western_union,OXXO CAROLINAS CUF,,Chihuahua,CHIHUAHUA,,MX,+52 81 8389 2121,https://location.westernunion.com/mx/chihuahua/chihuahua/9f8c54a83924a6fd9d1b2284e1ae9bf7,Mo-Su 08:00-22:00,Western Union,Q861042
621174d929d1c9999d28d1aa346bc989,western_union,OXXO CAROLINAS CUF,,Chihuahua,CHIHUAHUA,,MX,+52 81 8389 2121,https://location.westernunion.com/mx/chihuahua/chihuahua/621174d929d1c9999d28d1aa346bc989,Mo-Su 08:00-22:00,Western Union,Q861042
3b1e450d408cb9d97a7d040f097c5ae2,western_union,OXXO GRUTAS CUU,,Chihuahua,CHIHUAHUA,,MX,+52 81 8389 2121,https://location.westernunion.com/mx/chihuahua/chihuahua/3b1e450d408cb9d97a7d040f097c5ae2,Mo-Su 08:00-22:00,Western Union,Q861042
903664117316ebb8f022eea58d62d4fb,western_union,OXXO QUINTA REAL CUF,,Chihuahua,CHIHUAHUA,,MX,+52 81 8389 2121,https://location.westernunion.com/mx/chihuahua/chihuahua/903664117316ebb8f022eea58d62d4fb,Mo-Su 08:00-22:00,Western Union,Q861042
3b6a4212a8c3904449e8d0cd54ea2cca,western_union,OXXO ISSSTE CUF,,Chihuahua,CHIHUAHUA,,MX,+52 81 8389 2121,https://location.westernunion.com/mx/chihuahua/chihuahua/3b6a4212a8c3904449e8d0cd54ea2cca,Mo-Su 08:00-22:00,Western Union,Q861042
3b2953cf66625c68cf533621805c15ea,western_union,OXXO ISSSTE CUF,,Chihuahua,CHIHUAHUA,,MX,+52 81 8389 2121,https://location.westernunion.com/mx/chihuahua/chihuahua/3b2953cf66625c68cf533621805c15ea,Mo-Su 08:00-22:00,Western Union,Q861042
abf74b197763242ab54bb187a00cde84,western_union,OXXO ISSSTE CUF,,Chihuahua,CHIHUAHUA,,MX,+52 81 8389 2121,https://location.westernunion.com/mx/chihuahua/chihuahua/abf74b197763242ab54bb187a00cde84,Mo-Su 08:00-22:00,Western Union,Q861042
