Ref,Spider,Name,Address,City,State,Zipcode,Country,Phone,Website,Hours,Brand,WikiData
1460700057,banque_populaire_fr,CARPENTRAS,,CARPENTRAS,,,FR,+33 4 90 63 99 70,https://agences.banquepopulaire.fr/banque-assurance/agence-carpentras-id1460700057,"Tu 08:30-12:20,14:00-18:00; We-Fr 08:30-12:20,13:30-18:00; Sa 08:30-12:35",Banque Populaire,Q846647
5648,carrefour_fr,Carrefour City,,Carpentras,,,FR,+33 4 90 28 81 51,https://www.carrefour.fr/magasin/city-carpentras,Mo-Sa 07:00-22:00; Su 09:00-20:00,Carrefour City,Q2940187
https://www.credit-agricole.fr/particulier/agence/alpes-provence/carpentras-leclerc-1813.html,credit_agricole,Crédit Agricole,,Carpentras,,,FR,+33 4 84 68 84 09,https://www.credit-agricole.fr/particulier/agence/alpes-provence/carpentras-leclerc-1813.html,"Tu-We 08:45-12:15,13:30-18:00; Th 09:30-12:15,13:30-18:00; Fr 08:45-12:15,13:30-18:00; Sa 08:45-12:45",Credit Agricole,Q590952
https://www.credit-agricole.fr/particulier/agence/alpes-provence/carpentras-jaures-1812.html,credit_agricole,Crédit Agricole,,Carpentras,,,FR,+33 4 84 68 84 08,https://www.credit-agricole.fr/particulier/agence/alpes-provence/carpentras-jaures-1812.html,"Tu-We 08:30-12:15,13:30-17:45; Th 09:15-12:15,13:30-17:45; Fr 08:30-12:15,13:30-17:45; Sa 08:30-12:45",Credit Agricole,Q590952
1042,croix_rouge_francaise_fr,UNITE LOCALE SUD VENTOUX,,CARPENTRAS,,,FR,,https://www.croix-rouge.fr/unite-locale-sud-ventoux,Mo 14:00-17:00; Tu 14:00-18:00; Th 14:00-18:00; Sa 09:00-12:00,Croix-Rouge française,Q3003244
https://www.dominos.fr/magasin/carpentras_84200,dominos_pizza_fr,Domino's,,CARPENTRAS,,,FR,,https://www.dominos.fr/magasin/carpentras_84200,,Domino's,Q839466
FordFF46954  FRA,ford,FORD CARPENTRAS - VENTOUX AUTO,,CARPENTRAS,,,FR,+33 4 90 63 16 79,www.fordnimes.fr,Mo-Fr 08:00-19:00; Sa 09:00-19:00,Ford,Q44294
4136,lidl_fr,,,Carpentras,,,FR,,,Mo-Sa 08:30-20:00; Su 08:30-12:30,Lidl,Q151954
3173,lidl_fr,CARPENTRAS Eisenhower,,Carpentras,,,FR,,,Mo-Sa 08:30-20:00; Su 08:30-12:30,Lidl,Q151954
FR235,longchamp,Peau D'Ane,,CARPENTRAS,,,FR,+33 4 90 60 20 46,,,Longchamp,Q1869471
1522,mcdonalds_fr,CARPENTRAS NORD,,CARPENTRAS,,,FR,+33 4 90 61 54 43,https://www.mcdonalds.fr/restaurants/mcdonalds-carpentras-nord/1522,Mo-Su 10:00-23:00,McDonald's,Q38076
616,mcdonalds_fr,CARPENTRAS,,CARPENTRAS,,,FR,+33 4 90 67 04 00,https://www.mcdonalds.fr/restaurants/mcdonalds-carpentras/616,Mo-Th 09:30-23:00; Fr-Sa 09:30-23:30; Su 09:30-23:00,McDonald's,Q38076
72362378,moneygram,PHONE 84 - CARPENTRAS,,CARPENTRAS,,,FR,+33 4 88 50 05 78,,Mo-Su 08:00-22:00,MoneyGram,Q1944412
74614066,moneygram,DEAL PROVENCE,,CARPENTRAS,,,FR,+33 6 86 77 23 30,,Mo-Su 09:00-20:00,MoneyGram,Q1944412
74739844,moneygram,BJC DIFFUSION,,CARPENTRAS,,,FR,+33 4 90 40 47 03,,Mo-Su 08:00-19:30,MoneyGram,Q1944412
68341675,moneygram,ER ROUFI MOSTAPHA - CARPENTRAS,,CARPENTRAS,,,FR,+33 4 90 37 12 35,,Mo-Su 08:00-22:00,MoneyGram,Q1944412
452-opticien-carpentras-optical-center,optical_center,Opticien CARPENTRAS Optical Center,,Carpentras,,,FR,+33 4 28 69 69 28,https://opticien.optical-center.fr/452-opticien-carpentras-optical-center,Mo-Sa 10:00-19:00,Optical Center,Q3354448
freb8afd54,pandora,A propos de Boutique Bijoux Pandora BIJOUTERIE INFINIMENT,,CARPENTRAS,,,FR,+33 4 90 63 56 72,https://stores.pandora.net/fr-pac/carpentras/bijoux-pandora-freb8afd54.html,,Pandora,Q2241604
00000049_001-renault,renault,RENAULT CARPENTRAS - GROUPE GGP,,CARPENTRAS,,,FR,+33 4 90 60 87 87,,,Renault,Q6686
00000049_001-dacia,renault,RENAULT CARPENTRAS - GROUPE GGP,,CARPENTRAS,,,FR,+33 4 90 60 87 87,,,Dacia,Q27460
NF903778,totalenergies,ESSO,,CARPENTRAS,,,FR,,https://store.totalenergies.fr/en_EN/NF903778,,Esso,Q867662
NF903781,totalenergies,INDÉPENDANT SANS ENSEIGNE,,CARPENTRAS,,,FR,,https://store.totalenergies.fr/en_EN/NF903781,,,
NF913566,totalenergies,INDÉPENDANT SANS ENSEIGNE,,Serres,,,FR,,https://store.totalenergies.fr/en_EN/NF913566,,,
,visa,,,CARPENTRAS,,,FR,,,,,
,visa,,,CARPENTRAS,,,FR,,,,,
,visa,,,CARPENTRAS,,,FR,,,,,
,visa,,,CARPENTRAS,,,FR,,,,,
,visa,,,CARPENTRAS,,,FR,,,,,
,visa,,,CARPENTRAS,,,FR,,,,,
,visa,,,CARPENTRAS,,,FR,,,,,
,visa,,,CARPENTRAS,,,FR,,,,,
,visa,,,CARPENTRAS,,,FR,,,,,
,visa,,,CARPENTRAS,,,FR,,,,,
,visa,,,CARPENTRAS,,,FR,,,,,
,visa,,,CARPENTRAS,,,FR,,,,,
http://magasins.vival.fr/fr/vival-carpentras,vival_fr,Vival Carpentras,,Carpentras,,,FR,+33 9 50 31 27 20,http://magasins.vival.fr/fr/vival-carpentras,"Mo-Sa 08:30-13:00,15:00-19:30; Su 08:30-12:30",Vival,Q7937525
cafa220246dae803a561aee81ca69b2f,western_union,TAXI PHONE,,Carpentras,,,FR,+33 6 27 94 16 51,https://location.westernunion.com/fr/state/carpentras/cafa220246dae803a561aee81ca69b2f,Mo-Su 09:00-21:00,Western Union,Q861042
333d30b6af5153b417bb2afcf0730961,western_union,PHONE 84,,Carpentras,,,FR,+33 7 61 15 30 58,https://location.westernunion.com/fr/state/carpentras/333d30b6af5153b417bb2afcf0730961,Mo-Su 09:00-19:30,Western Union,Q861042
