Ref,Spider,Name,Address,City,State,Zipcode,Country,Phone,Website,Hours,Brand,WikiData
https://locations.auntieannes.com/#7828854997862486805,auntie_annes,Auntie Anne's Plattekill Travel Plaza,,Wallkill,NY,,US,+1 845-420-1484,https://locations.auntieannes.com/ny/wallkill/plattekill-mile-post-65-n-nys-thruway,Mo-Th 11:00-19:00; Fr 11:00-21:00; Sa-Su 11:00-20:00,Auntie Anne's,Q4822010
65663,citi,ATM Modena Service Area,,Newburgh,NY,,US,,,,Citibank,Q857063
81089,citi,ATM Sunoco,,Modena,NY,,US,,,,Citibank,Q857063
https://locations.moes.com/#909,moes,Moe's Southwest Grill,,Modena,NY,,US,+1 845-391-8322,https://locations.moes.com/ny/modena/milepost-66s-nys-thruway-modena-new-york-12589,Mo-Th 10:00-20:00; Fr-Su 10:00-21:00,Moe's Southwest Grill,Q6889938
251,stewartsshops,Stewart's Shops,,Wallkill,NY,,US,+1 845-895-9617,https://locations.stewartsshops.com/ll/US/NY/Wallkill/3075-NY~208,Mo-Su 04:30-23:00,Stewart's Shops,Q7615690
0951590900,sunoco_us,Sunoco,,WALLKILL,NY,,US,+1 845-895-2220,,Mo-Su 06:00-23:00,Sunoco,Q1423218
0587018302,sunoco_us,Sunoco,,WALLKILL,NY,,US,,,24/7,Sunoco,Q1423218
1386282,usps,WALLKILL,,WALLKILL,NY,,US,+1 845-895-1064,,Mo-Fr 08:30-17:00; Sa 09:00-12:00,United States Postal Service,Q668687
1258900001,usps_collection_boxes,USPS COLLECTION BOX - BLUE BOX,45 WALLKILL AVE,WALLKILL,NY,,US,,,,United States Postal Service,Q668687
1258900003,usps_collection_boxes,USPS COLLECTION BOX - PO LOBBY,45 WALLKILL AVE LBBY SLOT,WALLKILL,NY,,US,,,,United States Postal Service,Q668687
1258900004,usps_collection_boxes,USPS COLLECTION BOX - PO LOBBY,45 WALLKILL AVE,WALLKILL,NY,,US,,,,United States Postal Service,Q668687
,visa,,,WALLKILL,NY,,US,,,,,
,visa,,,PLATTEKILL,NY,,US,,,,,
,visa,,,WALKILL,NY,,US,,,,,
,visa,,,WALLKILL,NY,,US,,,,,
,visa,,,WALDEN,NY,,US,,,,,
,visa,,,WALKILL,NY,,US,,,,,
,visa,,,WALLKILL,NY,,US,,,,,
,visa,,,WALLKILL,NY,,US,,,,,
,visa,,,WALKILL,NY,,US,,,,,
,visa,,,WALLKILL,NY,,US,,,,,
,visa,,,"WALLKILL,",NY,,US,,,,,
,visa,,,WALLKILL,NY,,US,,,,,
,visa,,,WALLKILL,NY,,US,,,,,
,visa,,,WALLKILL,NY,,US,,,,,
,visa,,,NEWBURGH,NY,,US,,,,,
