Ref,Spider,Name,Address,City,State,Zipcode,Country,Phone,Website,Hours,Brand,WikiData
66683571,moneygram,BOC - #04723 - LNLY XINYUNJIE OFFICE,,LIAOYANG,,,CN,+86 419 216 9098,,Mo-Su 08:00-17:00,MoneyGram,Q1944412
66683885,moneygram,BOC - #04717 - LNLY GUANGHUAJIE OFFICE,,LIAOYANG,,,CN,+86 419 531 5502,,Mo-Su 08:00-17:00,MoneyGram,Q1944412
66684046,moneygram,BOC - #04964 - LNLY LIAOYANG BRANCH,,LIAOYANG,,,CN,+86 419 216 9052,,Mo-Su 08:00-17:00,MoneyGram,Q1944412
66683788,moneygram,BOC - #23587 - LNLY DENGTA SUB-BRANCH,,LIAOYANG,,,CN,+86 419 818 8407,,Mo-Su 08:00-17:00,MoneyGram,Q1944412
66683665,moneygram,BOC - #04722 - LNLY JIEFANG RD OFFICE,,LIAOYANG,,,CN,+86 419 216 9086,,Mo-Su 08:00-17:00,MoneyGram,Q1944412
66683924,moneygram,BOC - #04715 - LNLY HONGWEI ROAD OFFICE,,LIAOYANG,,,CN,+86 419 531 5501,,Mo-Su 08:00-17:00,MoneyGram,Q1944412
66683681,moneygram,BOC - #04726 - LNLY QINGNIANDAJIE OFFICE,,LIAOYANG,,,CN,+86 419 413 1067,,Mo-Su 08:00-17:00,MoneyGram,Q1944412
66683966,moneygram,BOC - #04718 - LNLY GONGNONG STREET OFFI,,LIAOYANG,,,CN,+86 419 532 0156,,Mo-Su 08:00-17:00,MoneyGram,Q1944412
66683856,moneygram,BOC - #04716 - LNLY RONGHUAJIE OFFICE,,LIAOYANG,,,CN,+86 419 531 1443,,Mo-Su 08:00-17:00,MoneyGram,Q1944412
66683843,moneygram,BOC - #04965 - LNLY LIAOHUA SUB-BRANCH,,LIAOYANG,,,CN,+86 419 531 5507,,Mo-Su 07:00-19:00,MoneyGram,Q1944412
66683830,moneygram,BOC - #04730 - LNLY WUSHENG RD SUB-BRANC,,LIAOYANG,,,CN,+86 419 216 9092,,Mo-Su 08:00-17:00,MoneyGram,Q1944412
66683746,moneygram,BOC - #04721 - LNLY QINGHUAYUAN OFFICE,,LIAOYANG,,,CN,+86 419 216 9095,,Mo-Su 08:00-17:00,MoneyGram,Q1944412
66683555,moneygram,BOC - #04725 - LNLY DONGDIAN OFFICE,,LIAOYANG,,,CN,+86 419 422 3215,,Mo-Su 08:00-17:00,MoneyGram,Q1944412
66683458,moneygram,BOC - #04724 - LNLY ZHONGXIN ROAD OFFICE,,LIAOYANG,,,CN,+86 419 216 9096,,Mo-Su 08:00-18:00,MoneyGram,Q1944412
66683445,moneygram,BOC - #04966 - LNLY DONGJIE SUB-BRANCH,,LIAOYANG,,,CN,+86 419 412 9754,,Mo-Su 08:00-18:00,MoneyGram,Q1944412
66683597,moneygram,BOC - #04729 - LNLY LAODONG STREET OFFIC,,LIAOYANG,,,CN,+86 419 216 9188,,Mo-Su 07:00-17:30,MoneyGram,Q1944412
66683623,moneygram,BOC - #04727 - LNLY HAIGUAN OFFICE,,LIAOYANG,,,CN,+86 419 216 9095,,Mo-Su 08:00-18:00,MoneyGram,Q1944412
66683720,moneygram,BOC - #04728 - LNLY FANRONG RD OFFICE,,LIAOYANG,,,CN,+86 419 238 1208,,Mo-Su 07:00-17:30,MoneyGram,Q1944412
66684004,moneygram,BOC - #04719 - LNLY JIANKANG ROAD OFFICE,,LIAOYANG,,,CN,+86 419 531 5505,,Mo-Su 08:00-17:00,MoneyGram,Q1944412
