Ref,Spider,Name,Address,City,State,Zipcode,Country,Phone,Website,Hours,Brand,WikiData
1020700179,banque_populaire_fr,CERGY LE HAUT ST CHRISTOPHE,,CERGY,,,FR,+33 1 71 66 81 51,https://agences.banquepopulaire.fr/banque-assurance/agence-cergy-le-haut-st-christophe-id1020700179,"Tu-We 09:00-13:00,14:00-17:30; Th 09:00-13:00,14:00-16:15; Fr-Sa 09:00-13:00,14:00-17:30",Banque Populaire,Q846647
https://laboratoires.biogroup.fr/#25701433,biogroup_fr,BIOGROUP BIOSYNERGIE Laboratoire Cergy St Christophe,,,,,FR,+33 1 30 31 97 70,https://laboratoires.biogroup.fr/val-doise/cergy-saint-christophe/19-avenue-de-la-constellation,Mo-Fr 07:00-17:00; Sa 07:30-12:30,Biogroup,Q101559741
820954193,bp,BP CERGY ST CHRISTOPHE,,CERGY,,,FR,+33 1 30 38 44 43,,Mo-Fr 06:00-24:00; Sa 00:00-24:00; Su 07:00-24:00,BP,Q152057
6000,carrefour_fr,Carrefour Express,,Cergy,,,FR,+33 1 30 38 44 43,https://www.carrefour.fr/magasin/express-cergy-chenes,Mo-Sa 06:00-24:00; Su 07:00-13:00,Carrefour Express,Q2940190
https://magasins.supercasino.fr/supermarche/cergy/CS753,casino_fr,Cergy,,CERGY,,,FR,+33 1 30 36 64 00,https://magasins.supercasino.fr/supermarche/cergy/CS753,Mo 06:30-23:00; Tu-Fr 06:45-21:00; Sa 06:30-23:00; Su 08:00-23:00,Casino Supermarchés,Q89029184
https://www.credit-agricole.fr/particulier/agence/paris/cergy-le-haut-2471.html,credit_agricole,Crédit Agricole,,CERGY,,,FR,+33 1 34 32 18 18,https://www.credit-agricole.fr/particulier/agence/paris/cergy-le-haut-2471.html,"Tu-We 09:00-13:00,14:00-17:30; Th 09:00-13:00,15:00-17:30; Fr 09:00-13:00,14:00-18:00; Sa 09:00-13:00,14:00-16:00",Credit Agricole,Q590952
0070021200212,decathlon_fr,Cergy Pontoise Osny,,CERGY PONTOISE,,,FR,+33 1 34 35 15 80,https://www.decathlon.fr/store-view/magasin-de-sports-cergy-pontoise-osny-0070021200212,Mo-Sa 09:30-20:00,Decathlon,Q509349
FordFF54651  FRA,ford,FORD PONTOISE-CERGY - COURTOISE,,CERGY,,,FR,+33 1 34 33 32 31,www.courtoise-auto.com,Mo-Fr 08:30-19:00; Sa 08:30-12:00,Ford,Q44294
71733801,moneygram,KN PARADIS - CERGY SAINT CHRISTOPHE,,CERGY SAINT CHRISTOPHE,,,FR,+33 1 75 81 27 70,,Mo-Su 08:00-21:00,MoneyGram,Q1944412
65148651,moneygram,AGENCE MONEYGRAM CERGY,,CERGY,,,FR,+33 1 30 38 15 14,,Mo-Sa 09:00-19:00; Su 00:00-24:00,MoneyGram,Q1944412
521-opticien-cergy-aren-park-optical-center,optical_center,Opticien CERGY- AREN PARK Optical Center,,Cergy,,,FR,+33 1 84 24 43 60,https://opticien.optical-center.fr/521-opticien-cergy-aren-park-optical-center,Mo-Sa 10:00-19:00,Optical Center,Q3354448
935-optical-center-oc-mobile-cergy,optical_center,Optical Center OC MOBILE CERGY,,CERGY,,,FR,+33 7 65 69 14 88,https://opticien.optical-center.fr/935-optical-center-oc-mobile-cergy,Mo-Sa 10:00-18:00,Optical Center,Q3354448
25003586_001-renault,renault,APV Cergy Pontoise,,Cergy,,,FR,,,,Renault,Q6686
25003586_001-dacia,renault,APV Cergy Pontoise,,Cergy,,,FR,,,,Dacia,Q27460
https://restaurants.subway.com/#14924808,subway,Subway,,Cergy,,,FR,+33 9 51 44 70 65,https://restaurants.subway.com/france/cergy/4-place-des-trois-gares,Mo-Su 10:00-22:00,Subway,Q244457
https://restaurants.subway.com/#14927386,subway,Subway,,Cergy,,,FR,+33 1 30 32 48 79,https://restaurants.subway.com/france/cergy/9-square-columbia,Mo-Fr 10:00-22:30; Sa 10:30-22:30; Su 11:30-22:30,Subway,Q244457
,visa,,,COURDIMANCHE,,,FR,,,,,
,visa,,,COURDIMANCHE,,,FR,,,,,
,visa,,,CERGY,,,FR,,,,,
,visa,,,CERGY PONTOISE,,,FR,,,,,
,visa,,,CERGY,,,FR,,,,,
,visa,,,CERGY,,,FR,,,,,
,visa,,,CERGY,,,FR,,,,,
,visa,,,CERGY,,,FR,,,,,
,visa,,,CERGY,,,FR,,,,,
,visa,,,CERGY,,,FR,,,,,
,visa,,,CERGY,,,FR,,,,,
,visa,,,CERGY,,,FR,,,,,
,visa,,,CERGY ST CHRIST,,,FR,,,,,
,visa,,,CERGY,,,FR,,,,,
,visa,,,CERGY,,,FR,,,,,
