Ref,Spider,Name,Address,City,State,Zipcode,Country,Phone,Website,Hours,Brand,WikiData
110609,bluerhino,AAFES - Ft. Huachucha Class 6 Shoppette #1068710,,Fort Huachuca,AZ,,US,+1 520-458-8389,,,Blue Rhino,Q65681213
93335,bluerhino,AAFES - Ft. Huachucha Main Store #1068702,,Fort Huachuca,AZ,,US,+1 520-458-7830,,,Blue Rhino,Q65681213
37573,bluerhino,AAFES - Fort Huachuca Regimental Trp,,Fort Huachuca,AZ,,US,+1 520-459-4022,,,Blue Rhino,Q65681213
4680,burgerking,Burger King,,FORT HUACHUCA,AZ,,US,+1 520-459-1430,https://www.bk.com/store-locator/store/restaurant_2619,Mo-Fr 06:00-18:00; Sa-Su 08:00-18:00,Burger King,Q177054
,credit_union_us,American Southwest CU,,Fort Huachuca,AZ,,US,+1 520-458-6044,,Mo-Fr 09:00-05:00,,
vba_345e,department_veterans_affairs,Veteran Readiness and Employment Office at Fort Huachuca,,Fort Huachuca,AZ,,US,+1 520-294-3628,https://www.benefits.va.gov/phoenix/,,Department Veterans Affairs,Q592576
vba_345i,department_veterans_affairs,VA Regional Benefit Satellite Office at Raymond W. Bliss Army Health Center,,Tucson,AZ,,US,+1 800-827-1169,https://www.benefits.va.gov/phoenix/,,Department Veterans Affairs,Q592576
358494,dunkin_us,Dunkin',,Sierra Vista,AZ,,US,+1 520-457-7063,https://locations.dunkindonuts.com/en/az/sierra-vista/1000-winrow-ave/358494,Mo-Fr 05:00-14:00; Sa-Su 07:00-14:00,Dunkin',Q847743
https://stores.gnc.com/#24059258,gnc,GNC Fort Huachuca Exchange,,,AZ,,US,+1 520-452-7946,https://stores.gnc.com/all-stores-arizona/fort-huachuca/bldg-52030,Mo-Sa 09:00-18:00; Su 11:00-16:00,GNC,Q4808595
https://locations.papajohns.com/#10690616,papa_johns,Papa John's,,Fort Huachuca,AZ,,US,+1 520-458-7272,https://locations.papajohns.com/united-states/az/85613/fort-huachuca/2170-arizona-street,Mo-Th 10:30-21:00; Fr-Sa 10:30-22:00; Su 10:30-20:00,Papa John's Pizza,Q2759586
restaurant_82757,popeyes_us_fr,Popeyes,"BLDG 82301 Bissel & Hatfield St. (military post access required) Fort Huachuca, Arizona 85613 - USA",Fort Huachuca,AZ,,US,+1 520-459-4275,https://www.popeyes.com/store-locator/store/restaurant_82757,Mo-Fr 10:30-19:00; Sa-Su 09:30-19:00,Popeyes,Q1330910
https://restaurants.subway.com/#14984116,subway,Subway Greely Hall Food Court,,Ft. Huachuca Cochise,AZ,,US,+1 520-459-2321,https://restaurants.subway.com/united-states/az/ft-huachuca/bldg-52030,Mo-Fr 08:00-18:00; Sa 09:00-18:00; Su 09:00-16:00,Subway,Q244457
1439486,usps,FORT HUACHUCA,,FORT HUACHUCA,AZ,,US,+1 520-458-4411,,Mo-Fr 08:30-16:00,United States Postal Service,Q668687
8561300009,usps_collection_boxes,USPS COLLECTION BOX - PO LOBBY,47 ARIZONA ST,FORT HUACHUCA,AZ,,US,,,,United States Postal Service,Q668687
8561300006,usps_collection_boxes,USPS COLLECTION BOX - PO LOBBY,47 ARIZONA ST,FORT HUACHUCA,AZ,,US,,,,United States Postal Service,Q668687
8561300008,usps_collection_boxes,USPS COLLECTION BOX - BLUE BOX,47 ARIZONA ST,FORT HUACHUCA,AZ,,US,,,,United States Postal Service,Q668687
,visa,,,FORT HUACHUCA,AZ,,US,,,,,
,visa,,,FT HUACHUCA,AZ,,US,,,,,
,visa,,,FT HUACHUCA,AZ,,US,,,,,
,visa,,,FT HUACHUCA,AZ,,US,,,,,
,visa,,,FT HUACHUCA,AZ,,US,,,,,
,visa,,,FT HUACHUCA,AZ,,US,,,,,
,visa,,,FT HUACHUCA,AZ,,US,,,,,
,visa,,,FT HUACHUCA,AZ,,US,,,,,
,visa,,,FT HUACHUCA,AZ,,US,,,,,
,visa,,,FT HUACHUCA,AZ,,US,,,,,
,visa,,,FT HUACHUCA,AZ,,US,,,,,
c3f926a25c0cbe6db7da932186d1668f,western_union,WER-FORT HUACHUCA MX,,Fort Huachuca,AZ,,US,+1 520-458-7830,https://location.westernunion.com/us/az/fort-huachuca/c3f926a25c0cbe6db7da932186d1668f,,Western Union,Q861042
