Ref,Spider,Name,Address,City,State,Zipcode,Country,Phone,Website,Hours,Brand,WikiData
https://stores.advanceautoparts.com/va/blacksburg/800-n-main-st,advance_auto_parts_us,Advance Auto Parts,,Blacksburg,VA,,US,+1 540-552-8888,https://stores.advanceautoparts.com/va/blacksburg/800-n-main-st,Mo-Sa 07:30-21:00; Su 09:00-20:00,Advance Auto Parts,Q4686051
2737,anytime_fitness,Anytime Fitness,,Blacksburg,VA,,US,+1 540-951-1340,https://www.anytimefitness.com/gyms/2737/blacksburg-va-24060/,,Anytime Fitness,Q4778364
https://stores.ashleyfurniture.com/store/us/virginia/blacksburg/9000170254/,ashley_furniture,"Ashley Store Blacksburg, VA",,Blacksburg,VA,,US,+1 540-605-7979,https://stores.ashleyfurniture.com/store/us/virginia/blacksburg/9000170254/,,Ashley Furniture,Q4805437
23065,asics_us,RunAbout Sports,1470 S Main St,Blacksburg,VA,,US,+1 540-552-9339,,Mo-Fr 11:00-19:00; Sa 10:00-19:00; Su 12:00-17:00,asics,Q327247
14162,asics_us,Hibbett Sports,1540 S Main Street,Blacksburg,VA,,US,+1 540-951-1718,,,asics,Q327247
https://locators.bankofamerica.com/va/blacksburg/atm-blacksburg-105812.html,bankofamerica,Bank of America Walk-Up ATM | Va Tech - Squires Student Center,,Blacksburg,VA,,US,+1 844-401-8500,https://locators.bankofamerica.com/va/blacksburg/atm-blacksburg-105812.html,,Bank of America,Q487907
157268,bluerhino,Gobble Stop #08,,Blacksburg,VA,,US,+1 540-552-0688,,,Blue Rhino,Q65681213
67519,bluerhino,Food Lion #2573,,Blacksburg,VA,,US,+1 540-951-1016,,,Blue Rhino,Q65681213
148612,bluerhino,Speedway #4626,,Blacksburg,VA,,US,+1 540-961-9244,,,Blue Rhino,Q65681213
5420,bluerhino,Kroger #210 - MidAtlantic,,Blacksburg,VA,,US,+1 540-951-3045,,,Blue Rhino,Q65681213
218151,bluerhino,Dollar General #21820,,BLACKSBURG,VA,,US,+1 540-315-3740,,,Blue Rhino,Q65681213
148815,bluerhino,Speedway #4627,,Blacksburg,VA,,US,+1 540-953-0698,,,Blue Rhino,Q65681213
219649,bluerhino,Northwest Ace Hardware #18415,,Blacksburg,VA,,US,+1 540-418-4913,,,Blue Rhino,Q65681213
241376,bluerhino,Stop In #8163,,Blacksburg,VA,,US,,,,Blue Rhino,Q65681213
148626,bluerhino,Speedway #4628,,Blacksburg,VA,,US,+1 540-953-1524,,,Blue Rhino,Q65681213
33122,bluerhino,Kroger #402 - MidAtlantic,,Blacksburg,VA,,US,+1 540-953-7004,,,Blue Rhino,Q65681213
12104,bluerhino,Food Lion #0425,,Blacksburg,VA,,US,+1 540-552-1445,,,Blue Rhino,Q65681213
va/blacksburg/2111-south-main-street,bojangles,"Bojangles Blacksburg, VA",,Blacksburg,VA,,US,+1 540-953-0702,https://locations.bojangles.com/va/blacksburg/2111-south-main-street.html,,Bojangles',Q891163
56442205077102406000100000000000,bp,BP,,Blacksburg,VA,,US,+1 540-552-2365,,Mo-Su 06:00-24:00,BP,Q152057
3853,buffalo_wild_wings_us,Blacksburg VA,,Blacksburg,VA,,US,+1 540-552-9464,https://www.buffalowildwings.com/locations/us/va/blacksburg/460-turner-street-nw/sports-bar-311,Mo-Th 11:00-23:00; Fr-Sa 11:00-24:00; Su 11:00-23:00,Buffalo Wild Wings,Q509255
va_blacksburg_868-prices-fork-rd,chipotle, ,,Blacksburg,VA,,US,+1 540-552-0190,https://locations.chipotle.com/va/blacksburg/868-prices-fork-rd,,Chipotle,Q465751
va_blacksburg_314-n-main-st,chipotle, ,,Blacksburg,VA,,US,+1 540-552-3860,https://locations.chipotle.com/va/blacksburg/314-n-main-st,,Chipotle,Q465751
57472,citi,ATM FREEDOM FIRST FCU- PRICES FORK BLACKBURG BRANC,,Blacksburg,VA,,US,,,,Citibank,Q857063
61646,citi,ATM Kroger,,Blacksburg,VA,,US,,,,Citibank,Q857063
25112,citi,ATM 7ELEVEN-FCTI,,Blacksburg,VA,,US,,,,Citibank,Q857063
51986,citi,ATM CVS,,Blacksburg,VA,,US,,,,Citibank,Q857063
79189,citi,ATM Speedway,,Blacksburg,VA,,US,,,,Citibank,Q857063
25590,citi,ATM 7ELEVEN-FCTI,,Blacksburg,VA,,US,,,,Citibank,Q857063
24139,citi,ATM 7ELEVEN-FCTI,,Blacksburg,VA,,US,,,,Citibank,Q857063
76149,citi,ATM SKYLINE NATIONAL BANK 05,,Blacksburg,VA,,US,,,,Citibank,Q857063
38922,citi,ATM CARTER BANK AND TRUST,,Blacksburg,VA,,US,,,,Citibank,Q857063
78194,citi,ATM Speedway,,Blacksburg,VA,,US,,,,Citibank,Q857063
77483,citi,ATM Speedway,,Blacksburg,VA,,US,,,,Citibank,Q857063
438,cookout,Blacksburg,,Blacksburg,VA,,US,,https://www.facebook.com/Cook-Out-Blacksburg-164380223665045/,Mo-Th 10:30-03:30; Fr-Sa 10:30-04:30; Su 10:30-03:30,Cookout,Q5166992
6329,cvs_us,CVS Pharmacy,,Blacksburg,VA,,US,+1 540-951-8595,https://www.cvs.com/store-locator/blacksburg-va-pharmacies/1775-south-main-st-blacksburg-va-24060/storeid=6329,Mo-Sa 09:00-21:00; Su 10:00-20:00,CVS Pharmacy,Q2078880
3460,cvs_us,CVS Pharmacy,,Blacksburg,VA,,US,+1 540-951-4911,https://www.cvs.com/store-locator/blacksburg-va-pharmacies/600-university-city-blvd-blacksburg-va-24060/storeid=3460,Mo-Su 07:00-22:00,CVS Pharmacy,Q2078880
4290,dominos_pizza_us,Domino's Pizza,,Blacksburg,VA,,US,+1 540-953-4600,https://pizza.dominos.com/virginia/blacksburg/905-n-main-st,Mo-Th 10:00-24:00; Fr-Sa 10:00-01:00; Su 10:00-24:00,Domino's,Q839466
350752,dunkin_us,Dunkin',,Blacksburg,VA,,US,+1 540-231-4901,https://locations.dunkindonuts.com/en/va/blacksburg/150-kent-st/350752,Mo-Fr 07:30-20:00; Sa-Su 08:00-14:00,Dunkin',Q847743
https://www.edwardjones.com/us-en/financial-advisor/meghan-kuczmarski,edwardjones,Meghan D Kuczmarski,,Blacksburg,VA,,US,+1 540-944-1511,https://www.edwardjones.com/us-en/financial-advisor/meghan-kuczmarski,Mo-Fr 08:30-16:30,Edward Jones,Q5343830
E121M4,enterprise,Blacksburg Virginia Tech Airport,,Blacksburg,VA,,US,+1 540-231-4230,,,Enterprise Rent-A-Car,Q17085454
200328589,exxonmobil,DUCK IN DELI #8,,BLACKSBURG,VA,,US,+1 540-552-1941,https://www.exxon.com/en/find-station/mobil-blacksburg-va-duckindeli8-200328589,Mo-Fr 06:00-22:00; Sa-Su 07:00-22:00,Mobil,Q109676002
200328588,exxonmobil,DUCK IN DELI #7,,BLACKSBURG,VA,,US,+1 540-552-1899,https://www.exxon.com/en/find-station/exxon-blacksburg-va-duckindeli7-200328588,Mo-Fr 06:00-22:00; Sa-Su 07:00-22:00,Exxon,Q109675651
200322080,exxonmobil,BSR FOOD & FUEL INC,,BLACKSBURG,VA,,US,+1 540-552-5952,https://www.exxon.com/en/find-station/exxon-blacksburg-va-bsrfoodfuelinc-200322080,Mo-Su 06:00-00:00,Exxon,Q109675651
https://local.fedex.com/#27767568,fedex,FedEx Authorized ShipCenter,,Blacksburg,VA,,US,+1 800-463-3339,https://local.fedex.com/en-us/va/blacksburg/walaa,,FedEx,Q459477
https://local.fedex.com/#27751398,fedex,FedEx Authorized ShipCenter,,Blacksburg,VA,,US,+1 540-951-4351,https://local.fedex.com/en-us/va/blacksburg/45603,,FedEx,Q459477
24783,firestone_auto_care,Firestone Complete Auto Care,,Blacksburg,VA,,US,+1 540-443-6861,https://local.firestonecompleteautocare.com/virginia/blacksburg/305-ferguson-dr/,,Firestone,Q420837
Motorcraft2233USAEnglish,ford,Duncan Ford Lincoln,,Virginia,VA,,US,+1 540-552-4331,,,Ford,Q44294
https://www.ford.com/dealerships/dealer-details/va/blacksburg/duncan-ford/,ford_dealers_us,Duncan Ford,,Blacksburg,VA,,US,+1 540-934-2356,https://www.ford.com/dealerships/dealer-details/va/blacksburg/duncan-ford/,Mo-Fr 09:00-19:00; Sa 09:00-18:00,Ford Motor Company,Q44294
1532,fresenius_kidney_care_us,Fresenius Kidney Care Montgomery County,,Blacksburg,VA,,US,+1 800-881-5101,https://www.freseniuskidneycare.com/dialysis-centers/virginia/1532,Mo-Sa 05:00-18:30,,
6d39fc4b-458a-e111-8dde-005056934050,goodwill,Blacksburg Store and Donation Center,,Blacksburg,VA,,US,+1 540-951-0215,https://www.goodwill.org/locator/location/?store=NmQzOWZjNGItNDU4YS1lMTExLThkZGUtMDA1MDU2OTM0MDUw&lat=MzcuMjQ2NzM=&lng=LTgwLjQxNDU3,,Goodwill,Q5583655
https://salons.greatclips.com/us/va/blacksburg/1334-s-main-st,greatclips,Great Clips,,Blacksburg,VA,,US,+1 540-951-4247,https://salons.greatclips.com/us/va/blacksburg/1334-s-main-st,Mo-Fr 09:00-19:00; Sa 09:00-18:00; Su 12:00-17:00,Great Clips,Q5598967
44996,h_r_block,H&R Block,,Blacksburg,VA,,US,+1 540-951-1040,https://www.hrblock.com/local-tax-offices/virginia/blacksburg/1344-s-main-st/44996/,,H&R Block,Q5627799
4117,jiffy_lube_us,N Main St,,Blacksburg,VA,,US,+1 540-739-3324,https://www.jiffylube.com/locations/va/blacksburg/4117,Mo-Fr 08:00-19:00; Sa 08:00-18:00,Jiffy Lube,Q6192247
https://locations.jimmyjohns.com/va/blacksburg/sandwiches-509.html,jimmy_johns,Jimmy John's,,Blacksburg,VA,,US,+1 540-951-2100,https://locations.jimmyjohns.com/va/blacksburg/sandwiches-509.html,,Jimmy John's,Q1689380
301968,kindercare,Blacksburg South KinderCare,,Blacksburg,VA,,US,,https://www.kindercare.com/our-centers/blacksburg/va/301968,,KinderCare Learning Centers,Q6410551
086011,kindercare,Blacksburg KinderCare,,Blacksburg,VA,,US,,https://www.kindercare.com/our-centers/blacksburg/va/086011,,KinderCare Learning Centers,Q6410551
https://stores.loft.com/va/blacksburg/1520-south-main-street.html,loft_us,Loft,,Blacksburg,VA,,US,+1 540-552-4356,https://stores.loft.com/va/blacksburg/1520-south-main-street.html,,Loft,Q62075137
157937,marathon_petroleum_us,GOBBLE STOP 8,,BLACKSBURG,VA,,US,+1 540-552-0688,,,Marathon,Q458363
155388,marathon_petroleum_us,FASMART 123,,BLACKSBURG,VA,,US,+1 540-552-4477,,,Marathon,Q458363
ROABL,marriott,Courtyard Blacksburg,,Blacksburg,VA,,US,+1 540-552-5222,https://www.marriott.com/ROABL,,Courtyard by Marriott,Q1053170
ROARB,marriott,Residence Inn Blacksburg-University,,Blacksburg,VA,,US,+1 540-750-4400,https://www.marriott.com/ROARB,,Residence Inn by Marriott,Q7315394
https://locations.moes.com/#515,moes,Moe's Southwest Grill,,Blacksburg,VA,,US,+1 540-552-6220,https://locations.moes.com/va/blacksburg/239-north-main-street,Mo-Su 10:30-21:00,Moe's Southwest Grill,Q6889938
112887,pandaexpress,Prices Fork & University City,,Blacksburg,VA,,US,+1 540-552-0261,https://www.pandaexpress.com/locations/va/blacksburg/900-prices-fork-rd,Mo-Th 10:00-22:00; Fr-Sa 10:00-22:30; Su 10:00-22:00,Panda Express,Q1358690
https://locations.papajohns.com/#10692075,papa_johns,Papa John's,,Blacksburg,VA,,US,+1 540-953-3333,https://locations.papajohns.com/united-states/va/24060/blacksburg/824-n-main-street,Mo-Th 10:30-24:00; Fr-Sa 10:30-01:00; Su 10:30-24:00,Papa John's Pizza,Q2759586
046338,penske,Tuckit In Storage,,BLACKSBURG,VA,,US,+1 540-552-3529,https://www.pensketruckrental.com/locations/us/virginia/blacksburg/046338/,,Penske,Q81234570
va_blacksburg_1344-3-south-main-st,pizza_hut_us,1344-3 South Main St.,,Blacksburg,VA,,US,,https://locations.pizzahut.com/va/blacksburg/1344-3-south-main-st,,Pizza Hut,Q191615
18293,seven_eleven_ca_us,7-11 Str   100 Draper Rd Sw,,Blacksburg,VA,,US,+1 540-951-8261,https://www.7-eleven.com/locations/va/blacksburg/100-draper-road-18293,,7-Eleven,Q259340
805,sheetz,Sheetz,,Blacksburg,VA,,US,+1 540-739-3049,https://orders.sheetz.com/findASheetz/store/805,24/7,Sheetz,Q7492551
https://restaurants.subway.com/#14893592,subway,Subway,,Blacksburg Montgomery,VA,,US,+1 540-961-5036,https://restaurants.subway.com/united-states/va/blacksburg/860-university-city-blvd,Mo-Su 09:00-22:00,Subway,Q244457
https://restaurants.subway.com/#14908538,subway,Subway Gables Shopping Center,,Blacksburg Montgomery,VA,,US,+1 540-961-7827,https://restaurants.subway.com/united-states/va/blacksburg/1356-south-main-street,Mo-Su 09:00-21:00,Subway,Q244457
0993205400,sunoco_us,Sunoco,,BLACKSBURG,VA,,US,+1 540-953-3861,,Mo-Su 06:00-00:00,Sunoco,Q1423218
35177,sweetfrog_us,sweetFrog Store 35177,,Blacksburg,VA,,US,+1 540-552-0371,https://www.sweetfrog.com/stores/frozen-yogurt-blacksburg/35177,Mo-Su 12:00-21:00,sweetFrog,Q16952110
https://locations.tacobell.com/#6142798,taco_bell,Taco Bell,,Blacksburg,VA,,US,+1 540-552-6169,https://locations.tacobell.com/va/blacksburg/608-n-main-st.html,Mo-Su 07:00-24:00,Taco Bell,Q752941
https://www.trekbikes.com/us/en_US/retail/blacksburg/,trekbikes,Trek Bicycle Blacksburg ,,Blacksburg,VA,,US,+1 540-692-1378,https://www.trekbikes.com/us/en_US/retail/blacksburg/,Tu-Sa 10:00-18:00,Trek,Q1067617
3421,upsstore,Virginia Tech,125 N Main St #500,Blacksburg,VA,,US,+1 540-953-9000,https://locations.theupsstore.com/va/blacksburg/125-n-main-st,,UPS Store,Q7771029
1355075,usps,BLACKSBURG,,BLACKSBURG,VA,,US,+1 540-552-2751,,Mo-Fr 08:30-17:00; Sa 09:30-13:00,United States Postal Service,Q668687
1361147,usps,DOWNTOWN BLACKSBURG,,BLACKSBURG,VA,,US,+1 540-951-3034,,Mo-Fr 09:30-16:00,United States Postal Service,Q668687
2406000006,usps_collection_boxes,USPS COLLECTION BOX - BLUE BOX,3700 S MAIN ST,BLACKSBURG,VA,,US,,,,United States Postal Service,Q668687
2406000060,usps_collection_boxes,USPS COLLECTION BOX - BLUE BOX,200 PROFESSIONAL PARK DR SE,BLACKSBURG,VA,,US,,,,United States Postal Service,Q668687
2406000046,usps_collection_boxes,USPS COLLECTION BOX - BLUE BOX,2001 S MAIN ST,BLACKSBURG,VA,,US,,,,United States Postal Service,Q668687
2406000010,usps_collection_boxes,USPS COLLECTION BOX - BLUE BOX,1999 S MAIN ST,BLACKSBURG,VA,,US,,,,United States Postal Service,Q668687
2406000058,usps_collection_boxes,USPS COLLECTION BOX - BLUE BOX,1901 S MAIN ST,BLACKSBURG,VA,,US,,,,United States Postal Service,Q668687
2406000005,usps_collection_boxes,USPS COLLECTION BOX - BLUE BOX,1872 PRATT DR,BLACKSBURG,VA,,US,,,,United States Postal Service,Q668687
2406000034,usps_collection_boxes,USPS COLLECTION BOX - BLUE BOX,1425 S MAIN ST,BLACKSBURG,VA,,US,,,,United States Postal Service,Q668687
2406000013,usps_collection_boxes,USPS COLLECTION BOX - BLUE BOX,1324 S MAIN ST,BLACKSBURG,VA,,US,,,,United States Postal Service,Q668687
2406000015,usps_collection_boxes,USPS COLLECTION BOX - BLUE BOX,300 WASHINGTON ST SW,BLACKSBURG,VA,,US,,,,United States Postal Service,Q668687
2406000032,usps_collection_boxes,USPS COLLECTION BOX - BLUE BOX,118 N MAIN ST,BLACKSBURG,VA,,US,,,,United States Postal Service,Q668687
2406000049,usps_collection_boxes,USPS COLLECTION BOX - PO LOBBY,118 N MAIN ST,BLACKSBURG,VA,,US,,,,United States Postal Service,Q668687
2406000071,usps_collection_boxes,USPS COLLECTION BOX - PO LOBBY,118 N MAIN ST,BLACKSBURG,VA,,US,,,,United States Postal Service,Q668687
2406000033,usps_collection_boxes,USPS COLLECTION BOX - BLUE BOX,100 E JACKSON ST,BLACKSBURG,VA,,US,,,,United States Postal Service,Q668687
2406000003,usps_collection_boxes,USPS COLLECTION BOX - BLUE BOX,6300 HEATHER DR,BLACKSBURG,VA,,US,,,,United States Postal Service,Q668687
2406000001,usps_collection_boxes,USPS COLLECTION BOX - BLUE BOX,800 HETHWOOD BLVD,BLACKSBURG,VA,,US,,,,United States Postal Service,Q668687
2406000059,usps_collection_boxes,USPS COLLECTION BOX - BLUE BOX,610 N MAIN ST,BLACKSBURG,VA,,US,,,,United States Postal Service,Q668687
2406000037,usps_collection_boxes,USPS COLLECTION BOX - BLUE BOX,909 UNIVERSITY CITY BLVD,BLACKSBURG,VA,,US,,,,United States Postal Service,Q668687
2406000052,usps_collection_boxes,USPS COLLECTION BOX - PO LOBBY,909 UNIVERSITY CITY BLVD,BLACKSBURG,VA,,US,,,,United States Postal Service,Q668687
2406000057,usps_collection_boxes,USPS COLLECTION BOX - APC,909 UNIVERSITY CITY BLVD,BLACKSBURG,VA,,US,,,,United States Postal Service,Q668687
2406000070,usps_collection_boxes,USPS COLLECTION BOX - PO LOBBY,909 UNIVERSITY CITY BLVD,BLACKSBURG,VA,,US,,,,United States Postal Service,Q668687
2406000063,usps_collection_boxes,USPS COLLECTION BOX - BLUE BOX,413 HUNT CLUB RD,BLACKSBURG,VA,,US,,,,United States Postal Service,Q668687
2406000055,usps_collection_boxes,USPS COLLECTION BOX - BLUE BOX,1400 N MAIN ST,BLACKSBURG,VA,,US,,,,United States Postal Service,Q668687
2406000040,usps_collection_boxes,USPS COLLECTION BOX - BLUE BOX,1317 UNIVERSITY CITY BLVD,BLACKSBURG,VA,,US,,,,United States Postal Service,Q668687
2406000031,usps_collection_boxes,USPS COLLECTION BOX - BLUE BOX,500 SUNRIDGE DR,BLACKSBURG,VA,,US,,,,United States Postal Service,Q668687
A00000238348,verizon_us,Victra Blacksburg,,Blacksburg,VA,,US,+1 540-553-8600,https://www.verizon.com/stores/details/virginia/blacksburg/victra-blacksburg-1572822/,Mo-Fr 11:00-20:00; Sa 10:00-20:00; Su 11:00-18:00,Verizon,Q919641
,visa,,,ROANOKE,VA,,US,,,,,
,visa,,,ROANOKE,VA,,US,,,,,
,visa,,,BLACKSBURG,VA,,US,,,,,
,visa,,,BLACKSBURG,VA,,US,,,,,
,visa,,,BLACKSBURG,VA,,US,,,,,
,visa,,,BLACKSBURG,VA,,US,,,,,
,visa,,,BLACKSBURG,VA,,US,,,,,
,visa,,,BLACKBURG,VA,,US,,,,,
,visa,,,BLACKSBURG,VA,,US,,,,,
,visa,,,BLACKSBURG,VA,,US,,,,,
,visa,,,BLACKBURG,VA,,US,,,,,
,visa,,,BLACKSBURG,VA,,US,,,,,
,visa,,,BLACKSBURG,VA,,US,,,,,
,visa,,,BLACKSBURG,VA,,US,,,,,
,visa,,,BLACKSBURG,VA,,US,,,,,
,visa,,,BLACKSBURG,VA,,US,,,,,
,visa,,,BLACKSBURG,VA,,US,,,,,
,visa,,,BLACKSBURG,VA,,US,,,,,
,visa,,,BLACKSBURG,VA,,US,,,,,
,visa,,,BLACKSBURG,VA,,US,,,,,
,visa,,,BLACKBURG,VA,,US,,,,,
,visa,,,BLACKSBURG,VA,,US,,,,,
,visa,,,BLACKSBURG,VA,,US,,,,,
,visa,,,BLACKSBURG,VA,,US,,,,,
,visa,,,BLACKSBURG,VA,,US,,,,,
,visa,,,BLACKSBURG,VA,,US,,,,,
,visa,,,BLACKSBURG,VA,,US,,,,,
,visa,,,BLACKSBURG,VA,,US,,,,,
,visa,,,BLACKSBURG,VA,,US,,,,,
,visa,,,BLACKSBURG,VA,,US,,,,,
,visa,,,BLACKSBURG,VA,,US,,,,,
,visa,,,BLACKSBURG,VA,,US,,,,,
,visa,,,BLACKSBURG,VA,,US,,,,,
,visa,,,BLACKSBURG,VA,,US,,,,,
,visa,,,BLACKSBURG,VA,,US,,,,,
,visa,,,BLACKSBURG,VA,,US,,,,,
,visa,,,BLACKSBURG,VA,,US,,,,,
,visa,,,BLACKSBURG,VA,,US,,,,,
,visa,,,BLACKSBURG,VA,,US,,,,,
,visa,,,BLACKSBURG,VA,,US,,,,,
,visa,,,BLACKSBURG,VA,,US,,,,,
,visa,,,BLACKSBURG,VA,,US,,,,,
,visa,,,BLACKSBURG,VA,,US,,,,,
,visa,,,BLACKSBURG,VA,,US,,,,,
,visa,,,BLACKSBURG,VA,,US,,,,,
,visa,,,BLACKSBURG,VA,,US,,,,,
,visa,,,BLACKSBURG,VA,,US,,,,,
,visa,,,BLACKSBURG,VA,,US,,,,,
,visa,,,BLACKSBURG,VA,,US,,,,,
,visa,,,BLACKSBURG,VA,,US,,,,,
,visa,,,BLACKSBURG,VA,,US,,,,,
,visa,,,BLACKSBURG,VA,,US,,,,,
,visa,,,BLACKSBURG,VA,,US,,,,,
,visa,,,BLACKSBURG,VA,,US,,,,,
,visa,,,BLACKSBURG,VA,,US,,,,,
,visa,,,BLACKSBURG,VA,,US,,,,,
,visa,,,BLACKSBURG,VA,,US,,,,,
,visa,,,BLACKSBURG,VA,,US,,,,,
,visa,,,BLACKSBURG,VA,,US,,,,,
,visa,,,BLACKSBURG,VA,,US,,,,,
,visa,,,BLACKSBURG,VA,,US,,,,,
,visa,,,BLACKSBURG,VA,,US,,,,,
,visa,,,BLACKSBURG,VA,,US,,,,,
,visa,,,BLACKSBURG,VA,,US,,,,,
,visa,,,BLACKSBURG,VA,,US,,,,,
,visa,,,BLACKSBURG,VA,,US,,,,,
,visa,,,BLACKSBURG,VA,,US,,,,,
,visa,,,BLACKSBURG,VA,,US,,,,,
,visa,,,BLACKSBURG,VA,,US,,,,,
,visa,,,BLACKSBURG,VA,,US,,,,,
,visa,,,BLACKSBURG,VA,,US,,,,,
,visa,,,BLACKSBURG,VA,,US,,,,,
,visa,,,BLACKSBURG,VA,,US,,,,,
,visa,,,BLACKSBURG,VA,,US,,,,,
,visa,,,BLACKSBURG,VA,,US,,,,,
,visa,,,WYTHEVILLE,VA,,US,,,,,
1959,waffle_house_us,Waffle House #1959,,BLACKSBURG,VA,,US,+1 540-951-5370,https://locations.wafflehouse.com/blacksburg-va-1959,24/7,Waffle House,Q1701206
920__UNIVERSITY__CITY__BLVD_BLACKSBURG_VA_24060,wellsfargo,Wells Fargo,920 UNIVERSITY CITY BLVD,BLACKSBURG,VA,,US,+1 540-951-7100,https://www.wellsfargo.com/locator/bank/920__UNIVERSITY__CITY__BLVD_BLACKSBURG_VA_24060/,Mo-Fr 09:00-17:00,Wells Fargo,Q744149
200__N__MAIN__ST_BLACKSBURG_VA_24060,wellsfargo,,200 N MAIN ST,BLACKSBURG,VA,,US,+1 800-869-3557,https://www.wellsfargo.com/locator/bank/200__N__MAIN__ST_BLACKSBURG_VA_24060/,,Wells Fargo,Q744149
https://locations.wendys.com/#9250940,wendys,"Wendy's Blacksburg in Blacksburg, VA",,Blacksburg,VA,,US,+1 540-552-7139,https://locations.wendys.com/united-states/va/blacksburg/701-n-main-st,"Mo-Su 06:30-10:30,07:00-22:00",Wendy's,Q550258
https://locations.wendys.com/#9250938,wendys,"Wendy's Blacksburg Ii in Blacksburg, VA",,Blacksburg,VA,,US,+1 540-552-1440,https://locations.wendys.com/united-states/va/blacksburg/1705-south-main-street,Mo-Su 10:30-22:00,Wendy's,Q550258
e5e2a71c3e6c79bcb69c8877a67ff291,western_union,7-ELEVEN #18233,,Blacksburg,VA,,US,+1 540-951-2885,https://location.westernunion.com/us/va/blacksburg/e5e2a71c3e6c79bcb69c8877a67ff291,,Western Union,Q861042
4a95d20ed9ee33174fc9bbf7cbdaabf0,western_union,7-ELEVEN #18293,,Blacksburg,VA,,US,+1 540-951-8261,https://location.westernunion.com/us/va/blacksburg/4a95d20ed9ee33174fc9bbf7cbdaabf0,,Western Union,Q861042
03220c65265cfc38da039507b077c1b0,western_union,7-ELEVEN #15112,,Blacksburg,VA,,US,+1 540-552-6385,https://location.westernunion.com/us/va/blacksburg/03220c65265cfc38da039507b077c1b0,,Western Union,Q861042
8ab48a66a28839dccb64f229a94b006c,western_union,7-ELEVEN/SPEEDWAY #45978,,Blacksburg,VA,,US,+1 540-953-1524,https://location.westernunion.com/us/va/blacksburg/8ab48a66a28839dccb64f229a94b006c,,Western Union,Q861042
2a7c6f264425beaa1e713eb3ae038d44,western_union,7-ELEVEN/SPEEDWAY #46616,,Blacksburg,VA,,US,+1 540-953-0698,https://location.westernunion.com/us/va/blacksburg/2a7c6f264425beaa1e713eb3ae038d44,,Western Union,Q861042
1b4fdc9c087938bb5eba59f8a837f6f5,western_union,7-ELEVEN/SPEEDWAY #46615,,Blacksburg,VA,,US,+1 540-961-9244,https://location.westernunion.com/us/va/blacksburg/1b4fdc9c087938bb5eba59f8a837f6f5,,Western Union,Q861042
