Ref,Spider,Name,Address,City,State,Zipcode,Country,Phone,Website,Hours,Brand,WikiData
1283,first_cash,First Cash Pawn,,Cancún,Quintana Roo,,MX,+52 998 568 0824,,,First Cash Pawn,
4197,first_cash,Realice,,Cancún,Quintana Roo,,MX,+52 998 132 8185,,,,
,visa,,,BENITO JUAREZ,QUINTANA ROO,,MX,,,,,
,visa,,,BENITO JUAREZ,QUINTANA ROO,,MX,,,,,
,visa,,,CANCÚN,QUINTANA ROO,,MX,,,,,
,visa,,,BENITO JUAREZ,QUINTANA ROO,,MX,,,,,
,visa,,,CANCÚN,QUINTANA ROO,,MX,,,,,
,visa,,,CANCUN,QUINTANA ROO,,MX,,,,,
,visa,,,CANCUN,QUINTANA ROO,,MX,,,,,
,visa,,,CANCUN,QUINTANA ROO,,MX,,,,,
,visa,,,CANCUN,QUINTANA ROO,,MX,,,,,
,visa,,,BENITO JUAREZ,QUINTANA ROO,,MX,,,,,
,visa,,,CANCUN,QUINTANA ROO,,MX,,,,,
,visa,,,BENITO JUAREZ,QUINTANA ROO,,MX,,,,,
,visa,,,BENITO JUAREZ,QUINTANA ROO,,MX,,,,,
,visa,,,CANCUN,QUINTANA ROO,,MX,,,,,
,visa,,,BENITO JUAREZ,QUINTANA ROO,,MX,,,,,
,visa,,,CANCUN,QUINTANA ROO,,MX,,,,,
f8d2435e0d200382d676f3fbc5d14042,western_union,DUNOSUSA 321 AP CASH,,Cancun,QUINTANA ROO,,MX,+52 999 994 0606,https://location.westernunion.com/mx/quintana-roo/cancun/f8d2435e0d200382d676f3fbc5d14042,Mo-Su 09:00-21:00,Western Union,Q861042
1f98c8c62f4ec5e7ea110b23fb27bc5b,western_union,DUNOSUSA 321 AP CASH,,Cancun,QUINTANA ROO,,MX,+52 999 994 0606,https://location.westernunion.com/mx/quintana-roo/cancun/1f98c8c62f4ec5e7ea110b23fb27bc5b,Mo-Su 09:00-21:00,Western Union,Q861042
7eb45a7feea6a913974b5370c69e715d,western_union,FUNDACION DONDE CANCUN 7 ID272,,Benito Juarez,QUINTANA ROO,,MX,+52 999 940 7550,https://location.westernunion.com/mx/quintana-roo/benito-juarez/7eb45a7feea6a913974b5370c69e715d,Mo-Su 08:00-20:00,Western Union,Q861042
c8e482a6f4480bff9520377ee309c827,western_union,FUNDACION DONDE CANCUN 7 ID272,,Benito Juarez,QUINTANA ROO,,MX,+52 999 940 7550,https://location.westernunion.com/mx/quintana-roo/benito-juarez/c8e482a6f4480bff9520377ee309c827,Mo-Su 08:00-20:00,Western Union,Q861042
206412df1ddfe26509c3450fb7c986fa,western_union,FUNDACION DONDE CANCUN 7 ID272,,Benito Juarez,QUINTANA ROO,,MX,+52 999 940 7550,https://location.westernunion.com/mx/quintana-roo/benito-juarez/206412df1ddfe26509c3450fb7c986fa,Mo-Su 08:00-20:00,Western Union,Q861042
6f175a89a9e09bef3b4f1984a612e4ef,western_union,OXXO LOPEZ PORTILLO CUN,,Cancun,QUINTANA ROO,,MX,+52 81 8389 2121,https://location.westernunion.com/mx/quintana-roo/cancun/6f175a89a9e09bef3b4f1984a612e4ef,Mo-Su 08:00-22:00,Western Union,Q861042
0eb4e9259347fd2ced96764a9a76aa65,western_union,OXXO LOPEZ PORTILLO CUN,,Cancun,QUINTANA ROO,,MX,+52 81 8389 2121,https://location.westernunion.com/mx/quintana-roo/cancun/0eb4e9259347fd2ced96764a9a76aa65,Mo-Su 08:00-22:00,Western Union,Q861042
d958010a9188841738e4251ef0dda68a,western_union,OXXO LOPEZ PORTILLO CUN,,Cancun,QUINTANA ROO,,MX,+52 81 8389 2121,https://location.westernunion.com/mx/quintana-roo/cancun/d958010a9188841738e4251ef0dda68a,Mo-Su 08:00-22:00,Western Union,Q861042
3e3d3c9accb553c5964a85fec12e8339,western_union,DUNOSUSA 401 AP CASH,,Cancun,QUINTANA ROO,,MX,+52 999 994 0606,https://location.westernunion.com/mx/quintana-roo/cancun/3e3d3c9accb553c5964a85fec12e8339,Mo-Su 09:00-21:00,Western Union,Q861042
d71bcbc36f7316e0b69b9cfbc1d0678f,western_union,DUNOSUSA 401 AP CASH,,Cancun,QUINTANA ROO,,MX,+52 999 994 0606,https://location.westernunion.com/mx/quintana-roo/cancun/d71bcbc36f7316e0b69b9cfbc1d0678f,Mo-Su 09:00-21:00,Western Union,Q861042
f7b09df5a40982b7e7161c5d6794dfb8,western_union,OXXO TAXISTAS CUN,,Cancun,QUINTANA ROO,,MX,+52 81 8389 2121,https://location.westernunion.com/mx/quintana-roo/cancun/f7b09df5a40982b7e7161c5d6794dfb8,Mo-Su 08:00-22:00,Western Union,Q861042
92db1dda903c4d8f787452fd97572b42,western_union,OXXO SESENTA Y TRES CUN,,Cancun,QUINTANA ROO,,MX,+52 81 8389 2121,https://location.westernunion.com/mx/quintana-roo/cancun/92db1dda903c4d8f787452fd97572b42,Mo-Su 08:00-22:00,Western Union,Q861042
9d625d7b6d05e558489898c0e6e29c41,western_union,OXXO SESENTA Y TRES CUN,,Cancun,QUINTANA ROO,,MX,+52 81 8389 2121,https://location.westernunion.com/mx/quintana-roo/cancun/9d625d7b6d05e558489898c0e6e29c41,Mo-Su 08:00-22:00,Western Union,Q861042
a222a0ac39fcfbc50806144573638764,western_union,OXXO TAXISTAS CUN,,Cancun,QUINTANA ROO,,MX,+52 81 8389 2121,https://location.westernunion.com/mx/quintana-roo/cancun/a222a0ac39fcfbc50806144573638764,Mo-Su 08:00-22:00,Western Union,Q861042
c00b03847c8a74feabaf8b16c0117862,western_union,BANORTE 00740 CANCUN AVENIDA,,Benito Juarez,QUINTANA ROO,,MX,+52 800 833 4700,https://location.westernunion.com/mx/quintana-roo/benito-juarez/c00b03847c8a74feabaf8b16c0117862,Mo-Sa 09:00-17:00,Western Union,Q861042
0f394919dc03794465b43f4cea4af10b,western_union,BANORTE 00740 CANCUN AVENIDA,,Benito Juarez,QUINTANA ROO,,MX,+52 800 833 4700,https://location.westernunion.com/mx/quintana-roo/benito-juarez/0f394919dc03794465b43f4cea4af10b,Mo-Sa 09:00-17:00,Western Union,Q861042
38a1989a0f56060df82f719799246c79,western_union,OXXO CASTORES CUN,,Cancun,QUINTANA ROO,,MX,+52 81 8389 2121,https://location.westernunion.com/mx/quintana-roo/cancun/38a1989a0f56060df82f719799246c79,Mo-Su 08:00-22:00,Western Union,Q861042
29ae96726123cc0b162808a11a5433f7,western_union,OXXO CASTORES CUN,,Cancun,QUINTANA ROO,,MX,+52 81 8389 2121,https://location.westernunion.com/mx/quintana-roo/cancun/29ae96726123cc0b162808a11a5433f7,Mo-Su 08:00-22:00,Western Union,Q861042
7c61b34de6951ff45c4a01f5c2572d3b,western_union,OXXO CASTORES CUN,,Cancun,QUINTANA ROO,,MX,+52 81 8389 2121,https://location.westernunion.com/mx/quintana-roo/cancun/7c61b34de6951ff45c4a01f5c2572d3b,Mo-Su 08:00-22:00,Western Union,Q861042
7b3f7f53610f13dc0f6166db646715ee,western_union,SORIANA   CANCUN LOPEZ PORTILLO 874,,Cancun,QUINTANA ROO,,MX,+52 800 555 6555,https://location.westernunion.com/mx/quintana-roo/cancun/7b3f7f53610f13dc0f6166db646715ee,Mo-Su 08:00-22:00,Western Union,Q861042
e196211611d67ac2d307c6eb4d577ea2,western_union,SORIANA   CANCUN LOPEZ PORTILLO 874,,Cancun,QUINTANA ROO,,MX,+52 800 555 6555,https://location.westernunion.com/mx/quintana-roo/cancun/e196211611d67ac2d307c6eb4d577ea2,Mo-Su 08:00-22:00,Western Union,Q861042
9d94ce07929d2421da9d00e8d2e9e122,western_union,SORIANA   CANCUN LOPEZ PORTILLO 874,,Cancun,QUINTANA ROO,,MX,+52 800 555 6555,https://location.westernunion.com/mx/quintana-roo/cancun/9d94ce07929d2421da9d00e8d2e9e122,Mo-Su 08:00-22:00,Western Union,Q861042
394c735d4db04d1d1e590f9c300f0cb3,western_union,OXXO MEGA CUN,,Cancun,QUINTANA ROO,,MX,+52 81 8389 2121,https://location.westernunion.com/mx/quintana-roo/cancun/394c735d4db04d1d1e590f9c300f0cb3,Mo-Su 08:00-22:00,Western Union,Q861042
4024fe852ae6eb7fdd71358c07e13a15,western_union,OXXO MEGA CUN,,Cancun,QUINTANA ROO,,MX,+52 81 8389 2121,https://location.westernunion.com/mx/quintana-roo/cancun/4024fe852ae6eb7fdd71358c07e13a15,Mo-Su 08:00-22:00,Western Union,Q861042
7ef9a10012501d9d738e86c061b75dc4,western_union,WALDOS CANCUN MALL QR 6823,,Cancun,QUINTANA ROO,,MX,+52 55 5246 0700,https://location.westernunion.com/mx/quintana-roo/cancun/7ef9a10012501d9d738e86c061b75dc4,Mo-Su 08:00-22:00,Western Union,Q861042
b00d5f1b15d9527609e6bd0ea6c9f4bb,western_union,WALDOS CANCUN MALL QR 6823,,Cancun,QUINTANA ROO,,MX,+52 55 5246 0700,https://location.westernunion.com/mx/quintana-roo/cancun/b00d5f1b15d9527609e6bd0ea6c9f4bb,Mo-Su 08:00-22:00,Western Union,Q861042
b2cbacae8d164115064ef7b17acc7daf,western_union,BANCOPPEL 270 REGIONES,,Benito Juarez,QUINTANA ROO,,MX,+52 442 214 2460,https://location.westernunion.com/mx/quintana-roo/benito-juarez/b2cbacae8d164115064ef7b17acc7daf,Mo-Su 11:00-21:00,Western Union,Q861042
447ea109b9018f6b52aac6b8dca0cebc,western_union,BANCOPPEL 270 REGIONES,,Benito Juarez,QUINTANA ROO,,MX,+52 442 214 2460,https://location.westernunion.com/mx/quintana-roo/benito-juarez/447ea109b9018f6b52aac6b8dca0cebc,Mo-Su 11:00-21:00,Western Union,Q861042
55530e63ebba2ee1fda3edf025e142b5,western_union,EKT 9958 CANCUN MALL,,Cancun,QUINTANA ROO,,MX,+52 55 1720 8177,https://location.westernunion.com/mx/quintana-roo/cancun/55530e63ebba2ee1fda3edf025e142b5,Mo-Su 09:00-21:00,Western Union,Q861042
11970647e0b023928593954e23a32d02,western_union,EKT 9958 CANCUN MALL,,Cancun,QUINTANA ROO,,MX,+52 55 1720 8177,https://location.westernunion.com/mx/quintana-roo/cancun/11970647e0b023928593954e23a32d02,Mo-Su 09:00-21:00,Western Union,Q861042
c5d6e811dd13b811c5574ede01c4626a,western_union,EKT 9958 CANCUN MALL,,Cancun,QUINTANA ROO,,MX,+52 55 1720 8177,https://location.westernunion.com/mx/quintana-roo/cancun/c5d6e811dd13b811c5574ede01c4626a,Mo-Su 09:00-21:00,Western Union,Q861042
c0cfa5662b39292e092909c8d8983fae,western_union,OXXO MUYAL CUN,,Cancun,QUINTANA ROO,,MX,+52 81 8389 2121,https://location.westernunion.com/mx/quintana-roo/cancun/c0cfa5662b39292e092909c8d8983fae,Mo-Su 08:00-22:00,Western Union,Q861042
df5174ae85d02b663da2ead338b4400d,western_union,OXXO MUYAL CUN,,Cancun,QUINTANA ROO,,MX,+52 81 8389 2121,https://location.westernunion.com/mx/quintana-roo/cancun/df5174ae85d02b663da2ead338b4400d,Mo-Su 08:00-22:00,Western Union,Q861042
2dca3d753a674f3c30d27a38bec6653f,western_union,OXXO MUYAL CUN,,Cancun,QUINTANA ROO,,MX,+52 81 8389 2121,https://location.westernunion.com/mx/quintana-roo/cancun/2dca3d753a674f3c30d27a38bec6653f,Mo-Su 08:00-22:00,Western Union,Q861042
b4a2dda32387a0f3a86a43923189ac3f,western_union,FUNDACION DONDE CANCUN 5 ID132,,Benito Juarez,QUINTANA ROO,,MX,+52 999 940 7550,https://location.westernunion.com/mx/quintana-roo/benito-juarez/b4a2dda32387a0f3a86a43923189ac3f,Mo-Su 08:00-20:00,Western Union,Q861042
9b7040decb275e4aae8adf7765b80782,western_union,FUNDACION DONDE CANCUN 5 ID132,,Benito Juarez,QUINTANA ROO,,MX,+52 999 940 7550,https://location.westernunion.com/mx/quintana-roo/benito-juarez/9b7040decb275e4aae8adf7765b80782,Mo-Su 08:00-20:00,Western Union,Q861042
2444e17b9434750c9136a5b10757a853,western_union,FUNDACION DONDE CANCUN 5 ID132,,Benito Juarez,QUINTANA ROO,,MX,+52 999 940 7550,https://location.westernunion.com/mx/quintana-roo/benito-juarez/2444e17b9434750c9136a5b10757a853,Mo-Su 08:00-20:00,Western Union,Q861042
ce16ab513e287246a4261f2ce6898d99,western_union,SORIANA   CANCUN NINOS HEROES 951,,Benito Juarez,QUINTANA ROO,,MX,+52 800 555 6555,https://location.westernunion.com/mx/quintana-roo/benito-juarez/ce16ab513e287246a4261f2ce6898d99,Mo-Su 08:00-22:00,Western Union,Q861042
7587449f95e9e595cb8aabf8f475da3f,western_union,SORIANA   CANCUN NINOS HEROES 951,,Benito Juarez,QUINTANA ROO,,MX,+52 800 555 6555,https://location.westernunion.com/mx/quintana-roo/benito-juarez/7587449f95e9e595cb8aabf8f475da3f,Mo-Su 08:00-22:00,Western Union,Q861042
84346561e862afcd2171ddc4277ff758,western_union,SORIANA   CANCUN NINOS HEROES 951,,Benito Juarez,QUINTANA ROO,,MX,+52 800 555 6555,https://location.westernunion.com/mx/quintana-roo/benito-juarez/84346561e862afcd2171ddc4277ff758,Mo-Su 08:00-22:00,Western Union,Q861042
b243df23307f6f585ce61479b29a56fb,western_union,WALDOS CANCUN MALL QR 6823,,Cancun,QUINTANA ROO,,MX,+52 55 5246 0700,https://location.westernunion.com/mx/quintana-roo/cancun/b243df23307f6f585ce61479b29a56fb,Mo-Su 06:30-23:30,Western Union,Q861042
19a34519231a6588bb30264e1f5bb97e,western_union,OXXO BOMBON CUN,,Cancun,QUINTANA ROO,,MX,+52 81 8389 2121,https://location.westernunion.com/mx/quintana-roo/cancun/19a34519231a6588bb30264e1f5bb97e,Mo-Su 08:00-22:00,Western Union,Q861042
dc82a191459c974db7cf6d9e3dcd3f56,western_union,OXXO BOMBON CUN,,Cancun,QUINTANA ROO,,MX,+52 81 8389 2121,https://location.westernunion.com/mx/quintana-roo/cancun/dc82a191459c974db7cf6d9e3dcd3f56,Mo-Su 08:00-22:00,Western Union,Q861042
a225e047c3f690b5bec518d0a72b9f47,western_union,OXXO BOMBON CUN,,Cancun,QUINTANA ROO,,MX,+52 81 8389 2121,https://location.westernunion.com/mx/quintana-roo/cancun/a225e047c3f690b5bec518d0a72b9f47,Mo-Su 08:00-22:00,Western Union,Q861042
43ff78fd26c2796904a7f871769d18ac,western_union,DUNOSUSA BBC AV LEONA VICARIO,,Cancun,QUINTANA ROO,,MX,+52 999 940 6060,https://location.westernunion.com/mx/quintana-roo/cancun/43ff78fd26c2796904a7f871769d18ac,Mo-Su 07:00-22:00,Western Union,Q861042
cc2b1aaccca7af8cc24c7032645938b5,western_union,DUNOSUSA BBC AV LEONA VICARIO,,Cancun,QUINTANA ROO,,MX,+52 999 940 6060,https://location.westernunion.com/mx/quintana-roo/cancun/cc2b1aaccca7af8cc24c7032645938b5,Mo-Su 07:00-22:00,Western Union,Q861042
b22d6b07ea87c97981013216d7ca1cbc,western_union,OXXO TOLEDANO CUN,,Cancun,QUINTANA ROO,,MX,+52 81 8389 2121,https://location.westernunion.com/mx/quintana-roo/cancun/b22d6b07ea87c97981013216d7ca1cbc,Mo-Su 08:00-22:00,Western Union,Q861042
5cdc9b546e6bea3e090f894ebe2d4e55,western_union,OXXO TOLEDANO CUN,,Cancun,QUINTANA ROO,,MX,+52 81 8389 2121,https://location.westernunion.com/mx/quintana-roo/cancun/5cdc9b546e6bea3e090f894ebe2d4e55,Mo-Su 08:00-22:00,Western Union,Q861042
3044cbb0cc4dba03bf8d3367b4f07154,western_union,OXXO TOLEDANO CUN,,Cancun,QUINTANA ROO,,MX,+52 81 8389 2121,https://location.westernunion.com/mx/quintana-roo/cancun/3044cbb0cc4dba03bf8d3367b4f07154,Mo-Su 08:00-22:00,Western Union,Q861042
25e9491b932f1d59b0b8a5a5be20dcd8,western_union,SUPER AKI 78 AV CENTEN AP CASH,,Cancun,QUINTANA ROO,,MX,+52 998 889 5034,https://location.westernunion.com/mx/quintana-roo/cancun/25e9491b932f1d59b0b8a5a5be20dcd8,Mo-Su 07:00-22:00,Western Union,Q861042
3c58e9c92a79ddfdb166e77b8e7df9fb,western_union,SUPER AKI 78 AV CENTEN AP CASH,,Cancun,QUINTANA ROO,,MX,+52 998 889 5034,https://location.westernunion.com/mx/quintana-roo/cancun/3c58e9c92a79ddfdb166e77b8e7df9fb,Mo-Su 07:00-22:00,Western Union,Q861042
a229961ea95287c4a1e3e2dbebb0b707,western_union,AURRERA EXPRESS PASEO EL LAUREL 5283,,Benito Juarez,QUINTANA ROO,,MX,+52 800 833 4700,https://location.westernunion.com/mx/quintana-roo/benito-juarez/a229961ea95287c4a1e3e2dbebb0b707,Mo-Su 08:00-22:00,Western Union,Q861042
f4df442545cff44912688b96137bf261,western_union,AURRERA EXPRESS PASEO EL LAUREL 5283,,Benito Juarez,QUINTANA ROO,,MX,+52 800 833 4700,https://location.westernunion.com/mx/quintana-roo/benito-juarez/f4df442545cff44912688b96137bf261,Mo-Su 08:00-22:00,Western Union,Q861042
e5affb9c0edfc1734ceb1a5eb9036fac,western_union,AURRERA EXPRESS PASEO EL LAUREL 5283,,Benito Juarez,QUINTANA ROO,,MX,+52 800 833 4700,https://location.westernunion.com/mx/quintana-roo/benito-juarez/e5affb9c0edfc1734ceb1a5eb9036fac,Mo-Su 08:00-22:00,Western Union,Q861042
9ac9f87ae6a098b09a18eb95863017c9,western_union,FRAGUA 2533 VILLAS OTOCH,,Benito Juarez,QUINTANA ROO,,MX,+52 800 833 4700,https://location.westernunion.com/mx/quintana-roo/benito-juarez/9ac9f87ae6a098b09a18eb95863017c9,Mo-Su 08:00-22:00,Western Union,Q861042
7cfc108907d5d7796c25a271a8af58ad,western_union,FRAGUA 2533 VILLAS OTOCH,,Benito Juarez,QUINTANA ROO,,MX,+52 800 833 4700,https://location.westernunion.com/mx/quintana-roo/benito-juarez/7cfc108907d5d7796c25a271a8af58ad,Mo-Su 08:00-22:00,Western Union,Q861042
e99872968bffaaf5bda4d6abeffe2426,western_union,FRAGUA 2533 VILLAS OTOCH,,Benito Juarez,QUINTANA ROO,,MX,+52 800 833 4700,https://location.westernunion.com/mx/quintana-roo/benito-juarez/e99872968bffaaf5bda4d6abeffe2426,Mo-Su 08:00-22:00,Western Union,Q861042
532ebb22b97b678ad98414455a1a3929,western_union,SUPER WILLYS 133 AP CASH,,Cancun,QUINTANA ROO,,MX,+52 998 132 9620,https://location.westernunion.com/mx/quintana-roo/cancun/532ebb22b97b678ad98414455a1a3929,Mo-Su 08:00-21:00,Western Union,Q861042
37806be295dad467294fc63ac5e5200f,western_union,SUPER WILLYS 133 AP CASH,,Cancun,QUINTANA ROO,,MX,+52 998 132 9620,https://location.westernunion.com/mx/quintana-roo/cancun/37806be295dad467294fc63ac5e5200f,Mo-Su 08:00-21:00,Western Union,Q861042
bb19a22b0a3fc57d5175cd010880d7f0,western_union,OXXO PAYO OBISPO CUN,,Cancun,QUINTANA ROO,,MX,+52 81 8389 2121,https://location.westernunion.com/mx/quintana-roo/cancun/bb19a22b0a3fc57d5175cd010880d7f0,Mo-Su 06:00-22:00,Western Union,Q861042
18059cd992dd2338920a67ca988bda3a,western_union,OXXO PAYO OBISPO CUN,,Cancun,QUINTANA ROO,,MX,+52 81 8389 2121,https://location.westernunion.com/mx/quintana-roo/cancun/18059cd992dd2338920a67ca988bda3a,Mo-Su 06:00-22:00,Western Union,Q861042
e9c44c63e1da76775dfde1acfdd392a7,western_union,OXXO PAYO OBISPO CUN,,Cancun,QUINTANA ROO,,MX,+52 81 8389 2121,https://location.westernunion.com/mx/quintana-roo/cancun/e9c44c63e1da76775dfde1acfdd392a7,Mo-Su 06:00-22:00,Western Union,Q861042
cdabedb8da68914d66af414bf40fbffc,western_union,DUNOSUSA 54 AP CASH,,Cancun,QUINTANA ROO,,MX,+52 999 994 0606,https://location.westernunion.com/mx/quintana-roo/cancun/cdabedb8da68914d66af414bf40fbffc,Mo-Su 09:00-21:00,Western Union,Q861042
3afbdf1b4451d3117725e69d28230bfe,western_union,DUNOSUSA 193 AP CASH,,Cancun,QUINTANA ROO,,MX,+52 999 994 0606,https://location.westernunion.com/mx/quintana-roo/cancun/3afbdf1b4451d3117725e69d28230bfe,Mo-Su 09:00-21:00,Western Union,Q861042
bb5b752c74b3f8a5852ec58a09e26e89,western_union,DUNOSUSA 88 AP CASH,,Cancun,QUINTANA ROO,,MX,+52 999 994 0606,https://location.westernunion.com/mx/quintana-roo/cancun/bb5b752c74b3f8a5852ec58a09e26e89,Mo-Su 09:00-21:00,Western Union,Q861042
319376ef93615a96494ae6d5af52a850,western_union,DUNOSUSA 54 AP CASH,,Cancun,QUINTANA ROO,,MX,+52 999 994 0606,https://location.westernunion.com/mx/quintana-roo/cancun/319376ef93615a96494ae6d5af52a850,Mo-Su 09:00-21:00,Western Union,Q861042
d42c8fbdc7dc4c70f87582a69591fd70,western_union,DUNOSUSA 39 AP CASH,,Cancun,QUINTANA ROO,,MX,+52 999 994 0606,https://location.westernunion.com/mx/quintana-roo/cancun/d42c8fbdc7dc4c70f87582a69591fd70,Mo-Su 09:00-21:00,Western Union,Q861042
2318e186c117b8cb52e7c1bfffac46c6,western_union,DUNOSUSA 193 AP CASH,,Cancun,QUINTANA ROO,,MX,+52 999 994 0606,https://location.westernunion.com/mx/quintana-roo/cancun/2318e186c117b8cb52e7c1bfffac46c6,Mo-Su 09:00-21:00,Western Union,Q861042
a38683f45de74121dc091acd01097853,western_union,DUNOSUSA 88 AP CASH,,Cancun,QUINTANA ROO,,MX,+52 999 994 0606,https://location.westernunion.com/mx/quintana-roo/cancun/a38683f45de74121dc091acd01097853,Mo-Su 09:00-21:00,Western Union,Q861042
b9b33bdce09303fe8f76b7b1a3789300,western_union,DUNOSUSA 39 AP CASH,,Cancun,QUINTANA ROO,,MX,+52 999 994 0606,https://location.westernunion.com/mx/quintana-roo/cancun/b9b33bdce09303fe8f76b7b1a3789300,Mo-Su 09:00-21:00,Western Union,Q861042
372f0aa37509a0a39c5344438eaaa592,western_union,AURRERA LOS TULES 5390,,Benito Juarez,QUINTANA ROO,,MX,+52 800 833 4700,https://location.westernunion.com/mx/quintana-roo/benito-juarez/372f0aa37509a0a39c5344438eaaa592,Mo-Su 08:00-22:00,Western Union,Q861042
0e627d9d3991fe549ba3619521f6e7cc,western_union,AURRERA LOS TULES 5390,,Benito Juarez,QUINTANA ROO,,MX,+52 800 833 4700,https://location.westernunion.com/mx/quintana-roo/benito-juarez/0e627d9d3991fe549ba3619521f6e7cc,Mo-Su 08:00-22:00,Western Union,Q861042
605d23d6f70accc85cb806c05a9bb11c,western_union,DUNOSUSA KABAH 2 AP CASH,,Cancun,QUINTANA ROO,,MX,+52 999 940 6060,https://location.westernunion.com/mx/quintana-roo/cancun/605d23d6f70accc85cb806c05a9bb11c,Mo-Su 09:00-21:00,Western Union,Q861042
fe1e61e25ad60d7753cefb2e161dfeb4,western_union,DUNOSUSA KABAH 2 AP CASH,,Cancun,QUINTANA ROO,,MX,+52 999 940 6060,https://location.westernunion.com/mx/quintana-roo/cancun/fe1e61e25ad60d7753cefb2e161dfeb4,Mo-Su 09:00-21:00,Western Union,Q861042
1b52ea707a725f82804dcd3a2af02664,western_union,DUNOSUSA KABAH 2 AP CASH,,Cancun,QUINTANA ROO,,MX,+52 999 940 6060,https://location.westernunion.com/mx/quintana-roo/cancun/1b52ea707a725f82804dcd3a2af02664,Mo-Su 09:00-21:00,Western Union,Q861042
8142c44b77238476d80f6d6bc4fde76d,western_union,ELEKTRA AC 8694,,Cancun,QUINTANA ROO,,MX,+52 55 1720 8177,https://location.westernunion.com/mx/quintana-roo/cancun/8142c44b77238476d80f6d6bc4fde76d,Mo-Su 09:00-21:00,Western Union,Q861042
0191512501a5ee9b2f7265fcaa1152ea,western_union,ELEKTRA AC 8694,,Cancun,QUINTANA ROO,,MX,+52 55 1720 8177,https://location.westernunion.com/mx/quintana-roo/cancun/0191512501a5ee9b2f7265fcaa1152ea,Mo-Su 09:00-21:00,Western Union,Q861042
504065413e0070bdcb525358676ee337,western_union,WALDOS CANCUN PLAZA KABAH QTR 6852,,Cancun,QUINTANA ROO,,MX,+52 55 5246 0700,https://location.westernunion.com/mx/quintana-roo/cancun/504065413e0070bdcb525358676ee337,Mo-Su 06:30-23:30,Western Union,Q861042
bff1f3210a1cc904b0b450049a2e6f86,western_union,WALDOS CANCUN PLAZA KABAH QTR 6852,,Cancun,QUINTANA ROO,,MX,+52 55 5246 0700,https://location.westernunion.com/mx/quintana-roo/cancun/bff1f3210a1cc904b0b450049a2e6f86,Mo-Su 06:30-23:30,Western Union,Q861042
bb8bcfb5f83ca0667100b5e8c494a4e0,western_union,FARM GUAD 2663 TULES 2,,Benito Juarez,QUINTANA ROO,,MX,(+52) 81-018008334700,https://location.westernunion.com/mx/quintana-roo/benito-juarez/bb8bcfb5f83ca0667100b5e8c494a4e0,Mo-Su 08:00-22:00,Western Union,Q861042
e7103f5f1f9f1c9de311d06d92892caf,western_union,FARM GUAD 2663 TULES 2,,Benito Juarez,QUINTANA ROO,,MX,(+52) 81-018008334700,https://location.westernunion.com/mx/quintana-roo/benito-juarez/e7103f5f1f9f1c9de311d06d92892caf,Mo-Su 08:00-22:00,Western Union,Q861042
57b05c121544b77c91e8cb1b48be0b5a,western_union,FARM GUAD 2663 TULES 2,,Benito Juarez,QUINTANA ROO,,MX,(+52) 81-018008334700,https://location.westernunion.com/mx/quintana-roo/benito-juarez/57b05c121544b77c91e8cb1b48be0b5a,Mo-Su 08:00-22:00,Western Union,Q861042
bdf96f9724c6289a9651bf4835bd38bf,western_union,OXXO ALOJA CUN,,Cancun,QUINTANA ROO,,MX,+52 81 8389 2121,https://location.westernunion.com/mx/quintana-roo/cancun/bdf96f9724c6289a9651bf4835bd38bf,Mo-Su 06:00-22:00,Western Union,Q861042
fc55d4f213111d4c26838ac2dbc2eb85,western_union,OXXO ALOJA CUN,,Cancun,QUINTANA ROO,,MX,+52 81 8389 2121,https://location.westernunion.com/mx/quintana-roo/cancun/fc55d4f213111d4c26838ac2dbc2eb85,Mo-Su 06:00-22:00,Western Union,Q861042
3da391f943ae0a9c2a3d4367200f988f,western_union,OXXO ALOJA CUN,,Cancun,QUINTANA ROO,,MX,+52 81 8389 2121,https://location.westernunion.com/mx/quintana-roo/cancun/3da391f943ae0a9c2a3d4367200f988f,Mo-Su 06:00-22:00,Western Union,Q861042
0aea5ed3b473952f52bdefe4c5c71818,western_union,WALDOS CANCUN PLAZA KABAH QTR 6852,,Cancun,QUINTANA ROO,,MX,+52 55 5246 0700,https://location.westernunion.com/mx/quintana-roo/cancun/0aea5ed3b473952f52bdefe4c5c71818,Mo-Su 06:30-23:30,Western Union,Q861042
4f623146926675117236798b3ecf9694,western_union,AURRERA EXPRESS PASEO EL CIRUELO 5280,,Benito Juarez,QUINTANA ROO,,MX,+52 800 833 4700,https://location.westernunion.com/mx/quintana-roo/benito-juarez/4f623146926675117236798b3ecf9694,Mo-Su 08:00-22:00,Western Union,Q861042
b6122708c9caca5b5a8f0f426e612841,western_union,AURRERA EXPRESS PASEO EL CIRUELO 5280,,Benito Juarez,QUINTANA ROO,,MX,+52 800 833 4700,https://location.westernunion.com/mx/quintana-roo/benito-juarez/b6122708c9caca5b5a8f0f426e612841,Mo-Su 08:00-22:00,Western Union,Q861042
5e6f0f72783739a4986e8c7a344d7f95,western_union,AURRERA EXPRESS PASEO EL CIRUELO 5280,,Benito Juarez,QUINTANA ROO,,MX,+52 800 833 4700,https://location.westernunion.com/mx/quintana-roo/benito-juarez/5e6f0f72783739a4986e8c7a344d7f95,Mo-Su 08:00-22:00,Western Union,Q861042
08e05411441cd2ddb6f8d17bf4bb8d98,western_union,AURRERA VILLAS OTOCH 1665,,Benito Juarez,QUINTANA ROO,,MX,+52 800 833 4700,https://location.westernunion.com/mx/quintana-roo/benito-juarez/08e05411441cd2ddb6f8d17bf4bb8d98,Mo-Su 07:00-23:00,Western Union,Q861042
bedef021a8253bbd6c0f196f489aebac,western_union,AURRERA VILLAS OTOCH 1665,,Benito Juarez,QUINTANA ROO,,MX,+52 800 833 4700,https://location.westernunion.com/mx/quintana-roo/benito-juarez/bedef021a8253bbd6c0f196f489aebac,Mo-Su 07:00-23:00,Western Union,Q861042
ebe393f1a444e4c505c7a334d7deeb48,western_union,AURRERA VILLAS OTOCH 1665,,Benito Juarez,QUINTANA ROO,,MX,+52 800 833 4700,https://location.westernunion.com/mx/quintana-roo/benito-juarez/ebe393f1a444e4c505c7a334d7deeb48,Mo-Su 07:00-23:00,Western Union,Q861042
1e051faf848681d3c6695e61c4bf1150,western_union,AURRERA EXPRESS OTOCH BUGAMBILIAS 5272,,Benito Juarez,QUINTANA ROO,,MX,+52 800 833 4700,https://location.westernunion.com/mx/quintana-roo/benito-juarez/1e051faf848681d3c6695e61c4bf1150,Mo-Su 08:00-22:00,Western Union,Q861042
2cd4f2847c969e5b0bb1841bdb5a2a24,western_union,AURRERA EXPRESS OTOCH BUGAMBILIAS 5272,,Benito Juarez,QUINTANA ROO,,MX,+52 800 833 4700,https://location.westernunion.com/mx/quintana-roo/benito-juarez/2cd4f2847c969e5b0bb1841bdb5a2a24,Mo-Su 08:00-22:00,Western Union,Q861042
66e25e25af58345fa25edde2a9ef41ff,western_union,AURRERA EXPRESS OTOCH BUGAMBILIAS 5272,,Benito Juarez,QUINTANA ROO,,MX,+52 800 833 4700,https://location.westernunion.com/mx/quintana-roo/benito-juarez/66e25e25af58345fa25edde2a9ef41ff,Mo-Su 08:00-22:00,Western Union,Q861042
db14ca9441417bca15537f2e75a6910a,western_union,FARM GUAD 2600 SUPERMANZANA,,Benito Juarez,QUINTANA ROO,,MX,+52 800 833 4700,https://location.westernunion.com/mx/quintana-roo/benito-juarez/db14ca9441417bca15537f2e75a6910a,Mo-Su 08:00-22:00,Western Union,Q861042
9beca40afbbc2b7de91fde1d339e9d1a,western_union,FARM GUAD 2600 SUPERMANZANA,,Benito Juarez,QUINTANA ROO,,MX,+52 800 833 4700,https://location.westernunion.com/mx/quintana-roo/benito-juarez/9beca40afbbc2b7de91fde1d339e9d1a,Mo-Su 08:00-22:00,Western Union,Q861042
d6c6fef935cc3a66a42a49bb6ec4d481,western_union,FARM GUAD 2600 SUPERMANZANA,,Benito Juarez,QUINTANA ROO,,MX,+52 800 833 4700,https://location.westernunion.com/mx/quintana-roo/benito-juarez/d6c6fef935cc3a66a42a49bb6ec4d481,Mo-Su 08:00-22:00,Western Union,Q861042
b9bbb04c6c0ebfaeafa096cadb8f24b5,western_union,SUPER WILLYS 222 AP CASH,,Cancun,QUINTANA ROO,,MX,+52 998 177 2219,https://location.westernunion.com/mx/quintana-roo/cancun/b9bbb04c6c0ebfaeafa096cadb8f24b5,Mo-Su 08:00-21:00,Western Union,Q861042
6259aa1afd82b4f1b76dbf7110a2a451,western_union,SUPER WILLYS 222 AP CASH,,Cancun,QUINTANA ROO,,MX,+52 998 177 2219,https://location.westernunion.com/mx/quintana-roo/cancun/6259aa1afd82b4f1b76dbf7110a2a451,Mo-Su 08:00-21:00,Western Union,Q861042
cb33c04d5be1a67ee9683ffe7fe9bb12,western_union,ELEKTRA AC 8694,,Cancun,QUINTANA ROO,,MX,+52 55 1720 8177,https://location.westernunion.com/mx/quintana-roo/cancun/cb33c04d5be1a67ee9683ffe7fe9bb12,Mo-Su 09:00-21:00,Western Union,Q861042
a59d9d71a76135183d4dedaa71cc6a08,western_union,DUNOSUSA EL LIMONERO AP CASH,,Cancun,QUINTANA ROO,,MX,+52 999 940 6060,https://location.westernunion.com/mx/quintana-roo/cancun/a59d9d71a76135183d4dedaa71cc6a08,Mo-Su 09:00-21:00,Western Union,Q861042
beda5cdbfa34d0a5db57047d7edfcceb,western_union,DUNOSUSA EL LIMONERO AP CASH,,Cancun,QUINTANA ROO,,MX,+52 999 940 6060,https://location.westernunion.com/mx/quintana-roo/cancun/beda5cdbfa34d0a5db57047d7edfcceb,Mo-Su 09:00-21:00,Western Union,Q861042
15468072547f0a4a93beaac70cb45c89,western_union,OXXO HOSPITAL KUMATE CUN,,Cancun,QUINTANA ROO,,MX,+52 81 8389 2121,https://location.westernunion.com/mx/quintana-roo/cancun/15468072547f0a4a93beaac70cb45c89,Mo-Su 08:00-22:00,Western Union,Q861042
3d9fb24b86096b4c385703d1703607ed,western_union,OXXO HOSPITAL KUMATE CUN,,Cancun,QUINTANA ROO,,MX,+52 81 8389 2121,https://location.westernunion.com/mx/quintana-roo/cancun/3d9fb24b86096b4c385703d1703607ed,Mo-Su 08:00-22:00,Western Union,Q861042
df163d3d5712ffe2573b59c3dac89e54,western_union,OXXO HOSPITAL KUMATE CUN,,Cancun,QUINTANA ROO,,MX,+52 81 8389 2121,https://location.westernunion.com/mx/quintana-roo/cancun/df163d3d5712ffe2573b59c3dac89e54,Mo-Su 08:00-22:00,Western Union,Q861042
a177466dc0651ca373e06c100408c7e8,western_union,OXXO GIRASOL CUN,,Cancun,QUINTANA ROO,,MX,+52 81 8389 2121,https://location.westernunion.com/mx/quintana-roo/cancun/a177466dc0651ca373e06c100408c7e8,Mo-Su 08:00-22:00,Western Union,Q861042
d12a5332c5a390f933b706b108120e7d,western_union,OXXO GIRASOL CUN,,Cancun,QUINTANA ROO,,MX,+52 81 8389 2121,https://location.westernunion.com/mx/quintana-roo/cancun/d12a5332c5a390f933b706b108120e7d,Mo-Su 08:00-22:00,Western Union,Q861042
fefb52c117cfa1484a132b28aa65d948,western_union,OXXO GIRASOL CUN,,Cancun,QUINTANA ROO,,MX,+52 81 8389 2121,https://location.westernunion.com/mx/quintana-roo/cancun/fefb52c117cfa1484a132b28aa65d948,Mo-Su 08:00-22:00,Western Union,Q861042
c199a0ce1637dbd264c52eccb4bccdf0,western_union,SUPER WILLYS 182 AP CASH,,Cancun,QUINTANA ROO,,MX,(+52) 998-91181000,https://location.westernunion.com/mx/quintana-roo/cancun/c199a0ce1637dbd264c52eccb4bccdf0,Mo-Su 08:00-21:00,Western Union,Q861042
efe905d57380d411cedd4a6b51352ec0,western_union,SUPER WILLYS 182 AP CASH,,Cancun,QUINTANA ROO,,MX,(+52) 998-91181000,https://location.westernunion.com/mx/quintana-roo/cancun/efe905d57380d411cedd4a6b51352ec0,Mo-Su 08:00-21:00,Western Union,Q861042
45b97768bf502fa083684ebda084fbdc,western_union,DUNOSUSA CANCUN PETUNIAS AP CASH,,Cancun,QUINTANA ROO,,MX,+52 999 940 6060,https://location.westernunion.com/mx/quintana-roo/cancun/45b97768bf502fa083684ebda084fbdc,Mo-Su 09:00-21:00,Western Union,Q861042
a37fea6ecf12bce3606ec3b223a223f8,western_union,DUNOSUSA CANCUN PETUNIAS AP CASH,,Cancun,QUINTANA ROO,,MX,+52 999 940 6060,https://location.westernunion.com/mx/quintana-roo/cancun/a37fea6ecf12bce3606ec3b223a223f8,Mo-Su 09:00-21:00,Western Union,Q861042
8377ce066d1449d0249130459c2c10e2,western_union,SUPER WILLYS CANCUN 23 AP CASH,,Cancun,QUINTANA ROO,,MX,(+52) 999-91181000,https://location.westernunion.com/mx/quintana-roo/cancun/8377ce066d1449d0249130459c2c10e2,Mo-Su 08:00-21:00,Western Union,Q861042
e5357f6ffcb94f433054c32ef02d7f99,western_union,SUPER WILLYS CANCUN 23 AP CASH,,Cancun,QUINTANA ROO,,MX,(+52) 999-91181000,https://location.westernunion.com/mx/quintana-roo/cancun/e5357f6ffcb94f433054c32ef02d7f99,Mo-Su 08:00-21:00,Western Union,Q861042
4bd61fe3805b38ed7ae9686ebbd5fc70,western_union,SUBURBIA 993 CANCUN MALL,,Benito Juarez,QUINTANA ROO,,MX,+52 800 733 3300,https://location.westernunion.com/mx/quintana-roo/benito-juarez/4bd61fe3805b38ed7ae9686ebbd5fc70,Mo-Su 11:00-21:00,Western Union,Q861042
05fe72f8ba697c2c867f27ba69000226,western_union,SUBURBIA 993 CANCUN MALL,,Benito Juarez,QUINTANA ROO,,MX,+52 800 733 3300,https://location.westernunion.com/mx/quintana-roo/benito-juarez/05fe72f8ba697c2c867f27ba69000226,Mo-Su 11:00-21:00,Western Union,Q861042
d677ac2c50544036a4c973f40321a654,western_union,SUBURBIA 993 CANCUN MALL,,Benito Juarez,QUINTANA ROO,,MX,+52 800 733 3300,https://location.westernunion.com/mx/quintana-roo/benito-juarez/d677ac2c50544036a4c973f40321a654,Mo-Su 11:00-21:00,Western Union,Q861042
