Ref,Spider,Name,Address,City,State,Zipcode,Country,Phone,Website,Hours,Brand,WikiData
227476,bluerhino,SNS Market,,Dayton,OH,,US,+1 937-503-3237,,,Blue Rhino,Q65681213
32211,bluerhino,Speedway #5286,,Dayton,OH,,US,+1 937-253-9870,,,Blue Rhino,Q65681213
https://stores.catofashions.com/#26559645,cato_us,Cato,,,OH,,US,+1 937-252-7897,https://stores.catofashions.com/oh/dayton/1034-south-smithville-road,Mo-Sa 10:00-19:00; Su 13:00-18:00,Cato,Q16956136
2043257,chase_us,East Dayton - New branch - Newly renovated,,Dayton,OH,,US,+1 937-443-6090,https://locator.chase.com/oh/dayton/2000-e-third-st,Mo-Fr 09:00-17:00,Chase,Q524629
70259140,cricket_wireless,Cricket Wireless Authorized Retailer,,Dayton,OH,,US,+1 937-254-2355,https://www.cricketwireless.com/stores/ll/US/OH/Dayton/3326-E-3rd-St,Mo-Sa 10:00-19:00; Su 12:00-18:00,Cricket Wireless,Q5184987
2363,dominos_pizza_us,Domino's Pizza,,Dayton,OH,,US,+1 937-258-3030,https://pizza.dominos.com/ohio/dayton/2-n-smithville-road,Mo-Th 10:30-01:00; Fr-Sa 10:30-02:00; Su 10:30-01:00,Domino's,Q839466
E13877,enterprise,Thoma's Body Shop,,Dayton,OH,,US,+1 937-252-7798,,,Enterprise Rent-A-Car,Q17085454
159132,marathon_petroleum_us,SMITHVILLE FOOD MART,,Dayton,OH,,US,+1 937-254-0764,,,Marathon,Q458363
5196,mightyflame,VALERO,,DAYTON,OH,,US,+1 937-254-8486,,,Mighty Flame,
03030,rite_aid_us,Rite Aid #03030 Dayton,,Dayton,OH,,US,+1 937-258-8101,https://locations2.riteaid.com.yext-cdn.com/oh/dayton/2532-east-third-street.html,Mo-Fr 08:00-21:00; Sa-Su 09:00-18:00,Rite Aid,Q3433273
8002331201,sunoco_us,Sunoco,,DAYTON,OH,,US,+1 937-608-8389,,,Sunoco,Q1423218
0734451800,sunoco_us,Sunoco,,DAYTON,OH,,US,+1 937-461-1962,,24/7,Sunoco,Q1423218
0174584300,sunoco_us,Sunoco,,DAYTON,OH,,US,+1 937-256-0685,,Mo-Sa 05:00-01:00; Su 05:00-00:00,Sunoco,Q1423218
4540300016,usps_collection_boxes,USPS COLLECTION BOX - BLUE BOX,2602 E 3RD ST,DAYTON,OH,,US,,,,United States Postal Service,Q668687
4540300030,usps_collection_boxes,USPS COLLECTION BOX - BLUE BOX,1054 S SMITHVILLE RD,DAYTON,OH,,US,,,,United States Postal Service,Q668687
4540300011,usps_collection_boxes,USPS COLLECTION BOX - BLUE BOX,1101 E 2ND ST,DAYTON,OH,,US,,,,United States Postal Service,Q668687
,visa,,,SPRINGFIELD,OH,,US,,,,,
,visa,,,DAYTON,OH,,US,,,,,
,visa,,,DAYTON,OH,,US,,,,,
,visa,,,DAYTON,OH,,US,,,,,
,visa,,,DAYTON,OH,,US,,,,,
,visa,,,DAYTON,OH,,US,,,,,
,visa,,,DAYTON,OH,,US,,,,,
,visa,,,DAYTON,OH,,US,,,,,
,visa,,,DAYTON,OH,,US,,,,,
,visa,,,DAYTON,OH,,US,,,,,
,visa,,,DAYTON,OH,,US,,,,,
,visa,,,DAYTON,OH,,US,,,,,
,visa,,,DAYTON,OH,,US,,,,,
,visa,,,DAYTON,OH,,US,,,,,
,visa,,,DAYTON,OH,,US,,,,,
,visa,,,DAYTON,OH,,US,,,,,
,visa,,,DAYTON,OH,,US,,,,,
,visa,,,DAYTON,OH,,US,,,,,
,visa,,,DAYTON,OH,,US,,,,,
,visa,,,DAYTON,OH,,US,,,,,
,visa,,,DAYTON,OH,,US,,,,,
,visa,,,DAYTON,OH,,US,,,,,
,visa,,,DAYTON,OH,,US,,,,,
,visa,,,DAYTON,OH,,US,,,,,
,visa,,,DAYTON,OH,,US,,,,,
,visa,,,DAYTON,OH,,US,,,,,
,visa,,,DAYTON,OH,,US,,,,,
,visa,,,DAYTON,OH,,US,,,,,
,visa,,,DAYTON,OH,,US,,,,,
,visa,,,DAYTON,OH,,US,,,,,
26ebe046e9c6b2f050c1be956bddec83,western_union,GUR PETROLEUM OIL LLC,,Dayton,OH,,US,+1 734-709-3724,https://location.westernunion.com/us/oh/dayton/26ebe046e9c6b2f050c1be956bddec83,Mo-Su 05:00-21:00,Western Union,Q861042
