Ref,Spider,Name,Address,City,State,Zipcode,Country,Phone,Website,Hours,Brand,WikiData
https://locations.arbys.com/nv/nellisafb/5691-rickenbacker-rd.-bldg-431.html,arbys_us,"Arby's Fast-Food Near You in Nellis Afb, NV",,Nellis Afb,NV,,US,+1 702-644-8516,https://locations.arbys.com/nv/nellisafb/5691-rickenbacker-rd.-bldg-431.html,Mo-Th 06:00-20:00; Fr 10:00-15:00; Sa 10:30-20:00; Su 10:30-18:00,Arby's,Q630866
67431,bluerhino,AAFES - Nellis AFB Shoppette,,Nellis AFB,NV,,US,+1 702-379-6999,,,Blue Rhino,Q65681213
vba_354c,department_veterans_affairs,Integrated Disability Evaluation System (IDES) Site at Nellis AFB,,Nelis AFB,NV,,US,+1 800-827-1000,,,Department Veterans Affairs,Q592576
E15418,enterprise,Nellis AFB - Military Access Only,,Nellis Afb,NV,,US,+1 702-643-8211,,,Enterprise Rent-A-Car,Q17085454
344698,firestone_auto_care,Firestone Complete Auto Care,,Nellis Afb,NV,,US,+1 702-628-9328,https://local.firestonecompleteautocare.com/nevada/nellis-afb/5691-rickenbacker-rd/,,Firestone,Q420837
https://stores.gnc.com/#24058376,gnc,GNC Nellis Afb Exchange,,,NV,,US,+1 702-643-6660,https://stores.gnc.com/all-stores-nevada/las-vegas/5691-rickenbacker-rd,Mo-Sa 09:00-18:00; Su 10:00-17:00,GNC,Q4808595
https://salons.greatclips.com/us/nv/nellis-afb/5691-rickenbacker-road,greatclips,Great Clips,,Nellis AFB,NV,,US,+1 725-255-8500,https://salons.greatclips.com/us/nv/nellis-afb/5691-rickenbacker-road,Mo-Sa 08:00-19:00; Su 09:00-18:00,Great Clips,Q5598967
27854,h_r_block,H&R Block,,Nellis Afb,NV,,US,+1 702-309-2831,https://www.hrblock.com/local-tax-offices/nevada/nellis-afb/nellis-air-force-base/27854/,,H&R Block,Q5627799
https://locations.papajohns.com/#10690654,papa_johns,Papa John's,,Las Vegas,NV,,US,+1 702-643-7222,https://locations.papajohns.com/united-states/nv/89191/las-vegas/nellis-air-force-base-building-350,Mo-Th 10:00-23:00; Fr-Sa 10:00-24:00; Su 10:00-23:00,Papa John's Pizza,Q2759586
restaurant_83828,popeyes_us_fr,Popeyes,"(Military Post Access Required) 4200 N Washington Blvd Las Vegas, Nevada 89191 - USA",Las Vegas,NV,,US,+1 702-644-3477,https://www.popeyes.com/store-locator/store/restaurant_83828,Mo-Fr 10:00-20:00,Popeyes,Q1330910
https://locations.qdoba.com/us/nv/nellis-afb/5691-rickenbacker-rd.html,qdoba,QDOBA Nellis AFB,,Nellis AFB,NV,,US,+1 702-829-0967,https://locations.qdoba.com/us/nv/nellis-afb/5691-rickenbacker-rd.html,Mo-Sa 10:30-19:00; Su 10:30-18:00,Qdoba,Q1363885
https://stores.sunglasshut.com/us/nv/nellis-afb/5691-rickenbacker-rd,sunglass_hut_1,Sunglass Hut at Aafes,,Nellis Afb,NV,,US,+1 702-643-3526,https://stores.sunglasshut.com/us/nv/nellis-afb/5691-rickenbacker-rd,Mo-Sa 09:00-19:00; Su 10:00-18:00,Sunglass Hut,Q136311
1A25,tmobile_us,AAFES Nellis North Las Vegas NV,,North Las Vegas,NV,,US,,https://www.t-mobile.com/store-locator/nv/north-las-vegas/aafes-nellis-north-las-vegas-nv,,T-Mobile,Q3511885
7266,upsstore,Nellis Afb,5691 Rickenbacker Rd Bldg 431,Nellis Afb,NV,,US,+1 702-643-6055,https://locations.theupsstore.com/nv/nellis-afb/5691-rickenbacker-rd,,UPS Store,Q7771029
1439874,usps,NELLIS AFB,,NELLIS AFB,NV,,US,+1 702-432-0482,,Mo-Fr 08:30-16:00,United States Postal Service,Q668687
8919100009,usps_collection_boxes,USPS COLLECTION BOX - BLUE BOX,755 N FITZGERALD,LAS VEGAS,NV,,US,,,,United States Postal Service,Q668687
8919100005,usps_collection_boxes,USPS COLLECTION BOX - BLUE BOX,5971 FITZGERALD BLVD,LAS VEGAS,NV,,US,,,,United States Postal Service,Q668687
8919100004,usps_collection_boxes,USPS COLLECTION BOX - BLUE BOX,5691 RICKENBACKER RD BLDG 431,LAS VEGAS,NV,,US,,,,United States Postal Service,Q668687
8919100000,usps_collection_boxes,USPS COLLECTION BOX - BLUE BOX,4250 GRIFFISS AVE,LAS VEGAS,NV,,US,,,,United States Postal Service,Q668687
8919100008,usps_collection_boxes,USPS COLLECTION BOX - BLUE BOX,4250 GRIFFISS AVE,LAS VEGAS,NV,,US,,,,United States Postal Service,Q668687
8919100001,usps_collection_boxes,USPS COLLECTION BOX - BLUE BOX,4250 GRIFFISS AVE,LAS VEGAS,NV,,US,,,,United States Postal Service,Q668687
8919100012,usps_collection_boxes,USPS COLLECTION BOX - PO LOBBY,4250 GRIFFISS AVE,LAS VEGAS,NV,,US,,,,United States Postal Service,Q668687
8919100002,usps_collection_boxes,USPS COLLECTION BOX - PO LOBBY,4250 GRIFFISS AVE,LAS VEGAS,NV,,US,,,,United States Postal Service,Q668687
8919100007,usps_collection_boxes,USPS COLLECTION BOX - BLUE BOX,"0 I ST, BLDG 201",LAS VEGAS,NV,,US,,,,United States Postal Service,Q668687
,visa,,,NELLIS AFB,NV,,US,,,,,
,visa,,,NELLIS AFB,NV,,US,,,,,
,visa,,,NELLIS AFB,NV,,US,,,,,
,visa,,,NELLIS AFB,NV,,US,,,,,
,visa,,,NELLIS AFB,NV,,US,,,,,
,visa,,,LAS VEGAS,NV,,US,,,,,
,visa,,,LAS VEGAS,NV,,US,,,,,
,visa,,,LAS VEGAS,NV,,US,,,,,
,visa,,,LAS VEGAS,NV,,US,,,,,
,visa,,,LAS VEGAS,NV,,US,,,,,
,visa,,,NELLIS AFB,NV,,US,,,,,
,visa,,,NELLIS AFB,NV,,US,,,,,
,visa,,,NELLIS AFB,NV,,US,,,,,
,visa,,,NELLIS AFB,NV,,US,,,,,
,visa,,,NELLIS AFB,NV,,US,,,,,
,visa,,,NELLIS AFB,NV,,US,,,,,
,visa,,,LAS VEGAS,NV,,US,,,,,
,visa,,,LAS VEGAS,NV,,US,,,,,
,visa,,,LAS VEGAS,NV,,US,,,,,
,visa,,,LAS VEGAS,NV,,US,,,,,
