Ref,Spider,Name,Address,City,State,Zipcode,Country,Phone,Website,Hours,Brand,WikiData
AU-1402,anytime_fitness,Anytime Fitness,,Sylvania,NSW,,AU,+61 421 392 845,https://anytimefitness.com.au/gyms/au-1402/sylvania-nsw-2224/,,Anytime Fitness,Q4778364
RED0003643,australia_post_au,,,SYLVANIA,NSW,,AU,,,,Australia Post,Q1142936
RED0003550,australia_post_au,,,SYLVANIA,NSW,,AU,,,,Australia Post,Q1142936
RED0017676,australia_post_au,,,SYLVANIA WATERS,NSW,,AU,,,,Australia Post,Q1142936
RED0003558,australia_post_au,,,SYLVANIA HEIGHTS,NSW,,AU,,,,Australia Post,Q1142936
RED0003553,australia_post_au,,,SYLVANIA,NSW,,AU,,,,Australia Post,Q1142936
RED0003561,australia_post_au,,,SYLVANIA WATERS,NSW,,AU,,,,Australia Post,Q1142936
245761_PO,australia_post_au,SYLVANIA WATERS LPO,,SYLVANIA WATERS,NSW,,AU,+61 2 9522 9779,,,Australia Post,Q1142936
RED0003556,australia_post_au,,,SYLVANIA,NSW,,AU,,,,Australia Post,Q1142936
RED0003562,australia_post_au,,,SYLVANIA WATERS,NSW,,AU,,,,Australia Post,Q1142936
RED0003554,australia_post_au,,,SYLVANIA,NSW,,AU,,,,Australia Post,Q1142936
245817_PO,australia_post_au,SYLVANIA SOUTHGATE LPO,,SYLVANIA,NSW,,AU,+61 2 8581 0258,,,Australia Post,Q1142936
RED0002858,australia_post_au,,,SYLVANIA,NSW,,AU,,,,Australia Post,Q1142936
RED0003557,australia_post_au,,,SYLVANIA HEIGHTS,NSW,,AU,,,,Australia Post,Q1142936
RED0003552,australia_post_au,,,SYLVANIA,NSW,,AU,,,,Australia Post,Q1142936
RED0003555,australia_post_au,,,SYLVANIA,NSW,,AU,,,,Australia Post,Q1142936
2439,bakers_delight,Bakers Delight Southgate &#8211; NSW,,Sylvanina,NSW,,AU,+61 2 9522 9933,https://www.bakersdelight.com.au/bakery-locator/southgate-nsw/,Mo-Fr 07:00-18:30; Sa 07:00-18:00; Su 07:00-17:00,Bakers Delight,Q4849261
08916_3,bmw_group,Sylvania BMW,,Sylvania,NSW,,AU,+61 2 8543 5470,http://www.sylvaniabmw.com.au,,BMW,Q26678
86724,cellarbrations_au,CELLARBRATIONS AT CREST HOTEL SYLVANIA,,SYLVANIA,NSW,,AU,+61 2 9522 3233,,Mo-Su 10:00-22:00,Cellarbrations,Q109807592
772,coles_au,Coles Sylvania,,Sylvania,NSW,,AU,+61 2 8578 8000,,,Coles Supermarkets,Q1108172
245801,commonwealth_bank_au,Sylvania,,Sylvania,NSW,,AU,,,,Commonwealth Bank,Q285328
245898,commonwealth_bank_au,Southgate,,Sylvania,NSW,,AU,,,,Commonwealth Bank,Q285328
/clubs/sylvania/,fitness_first_au,Sylvania,,Sylvania,Nsw,,AU,+61 2 8543 6100,https://www.fitnessfirst.com.au/clubs/sylvania/,24/7,Fitness First,Q127120
3463,hungry_jacks,Sylvania,,Sylvania,NSW,,AU,+61 2 8513 9534,,,Hungry Jack's,Q3036373
1000,just_cuts,Sylvania - Southgate Shopping Centre,,Sylvania,NSW,,AU,+61 2 9522 0300,https://www.justcuts.com.au/Australian-Salons/Sylvania---Southgate-Shopping-Centre?sid=1000,Mo-We 09:00-17:00; Th 09:00-19:00; Fr-Sa 09:00-17:00; Su 10:00-16:00,Just Cuts,Q116784479
9500101,mcdonalds_qstore,SYLVANIA NSW,,Sylvania,NSW,,AU,+61 2 9522 4444,,24/7,McDonald's,Q38076
https://www.mcgrath.com.au/offices/21-sylvania,mcgrath_au,McGrath Sylvania,,Sylvania Waters,NSW,,AU,+61 2 9532 7099,https://www.mcgrath.com.au/offices/21-sylvania,Mo-Fr 09:00-17:30; Sa 09:00-16:00,McGrath,Q105290661
2216,sportsgirl_au,SYLVANIA,,Sylvania,NSW,,AU,+61 2 9522 7185,/store-locator/nsw/sylvania-2216,Mo-We 09:00-17:30; Th 09:00-21:00; Fr 09:00-17:30; Sa 09:00-17:00; Su 10:00-16:00,Sportsgirl,Q7579970
2295,sussan_au,Sylvania,,Sylvania,NSW,,AU,+61 2 9544 8139,/store-locator/nsw/sylvania-2295,Mo-We 09:00-17:30; Th 09:00-21:00; Fr 09:00-17:30; Sa 09:00-16:30; Su 10:00-16:00,Sussan,Q28184460
2234,suzanne_grae_au,Sylvania,,Sylvania,NSW,,AU,+61 2 9522 0255,/store-locator/nsw/sylvania-2234,Mo-We 09:00-17:30; Th 09:00-21:00; Fr 09:00-17:30; Sa 09:00-16:00; Su 10:00-16:00,Suzanne Grae,Q117747672
BRMQ,telstra_au,Sylvania,,Sylvania,NSW,,AU,+61 1800 565 994,,Mo-We 09:00-17:30; Th 09:00-19:00; Fr 09:00-17:30; Sa 09:00-17:00; Su 10:00-16:00,Telstra,Q721162
,visa,,,SYLVANIA,NSW,,AU,,,,,
,visa,,,SYLVANIA,NSW,,AU,,,,,
,visa,,,SYLVANIA,NSW,,AU,,,,,
,visa,,,SYLVANIA,NSW,,AU,,,,,
,visa,,,SYLVANIA,NSW,,AU,,,,,
,visa,,,SYLVANIA,NSW,,AU,,,,,
,visa,,,SYLVANIA,NSW,,AU,,,,,
,visa,,,SYLVANIA,NSW,,AU,,,,,
,visa,,,SYLVANIA,NSW,,AU,,,,,
,visa,,,SYLVANIA,NSW,,AU,,,,,
81e14ff541b527a934021ce35e6e21b9,western_union,AUSTRALIA POST,,Sylvania Waters,NSW,,AU,+61 1800 501 500,https://location.westernunion.com/au/nsw/sylvania-waters/81e14ff541b527a934021ce35e6e21b9,Mo-Fr 09:00-17:00; Sa 09:00-12:00,Western Union,Q861042
f389c1b5f97a765c7145593dd678ba92,western_union,AUSTRALIA POST,,Sylvania,NSW,,AU,+61 1800 501 500,https://location.westernunion.com/au/nsw/sylvania/f389c1b5f97a765c7145593dd678ba92,Mo-Fr 09:00-17:00; Sa 09:00-12:00,Western Union,Q861042
