Ref,Spider,Name,Address,City,State,Zipcode,Country,Phone,Website,Hours,Brand,WikiData
69041,bluerhino,Ace - Webster Ace Hardware #11323W,,Webster,WI,,US,+1 715-866-8666,,,Blue Rhino,Q65681213
163252,bluerhino,Family Dollar #10057,,Webster,WI,,US,+1 715-939-6001,,,Blue Rhino,Q65681213
213928,bluerhino,Edward Oil - Webster,,Webster,WI,,US,+1 715-866-7046,,,Blue Rhino,Q65681213
25718,dollar_general,Dollar General,,Webster,WI,,US,+1 920-309-6465,https://www.dollargeneral.com/store-directory/wi/webster/25718,Mo-Su 08:00-22:00,Dollar General,Q145168
24300,dollar_general,Dollar General,,Webster,WI,,US,+1 615-855-4000,https://www.dollargeneral.com/store-directory/wi/webster/24300,Mo-Su 08:00-22:00,Dollar General,Q145168
https://www.edwardjones.com/us-en/financial-advisor/devin-danielson,edwardjones,Devin A Danielson,,Webster,WI,,US,+1 715-866-4603,https://www.edwardjones.com/us-en/financial-advisor/devin-danielson,Mo-Th 08:00-16:00; Fr 08:00-15:00,Edward Jones,Q5343830
161649,marathon_petroleum_us,CONNORS SERVICE STATION,,Webster,WI,,US,+1 715-866-4166,,,Marathon,Q458363
039546,uhaul,Larry's LP,25260 State Rd 35,Webster,WI,,US,+1 715-866-8122,,Mo-Fr 30:00-16:00; Sa 30:00-24:00,U-Haul,Q7862902
1386781,usps,WEBSTER,,WEBSTER,WI,,US,+1 715-866-4303,,Mo-Fr 08:30-16:30; Sa 09:00-10:00,United States Postal Service,Q668687
5489300001,usps_collection_boxes,USPS COLLECTION BOX - BLUE BOX,7426 MAIN ST W,WEBSTER,WI,,US,,,,United States Postal Service,Q668687
5489300003,usps_collection_boxes,USPS COLLECTION BOX - PO LOBBY,7426 MAIN ST W,WEBSTER,WI,,US,,,,United States Postal Service,Q668687
5489300004,usps_collection_boxes,USPS COLLECTION BOX - PO LOBBY,7426 MAIN ST W,WEBSTER,WI,,US,,,,United States Postal Service,Q668687
,visa,,,WEBSTER,WI,,US,,,,,
,visa,,,WEBSTER,WI,,US,,,,,
,visa,,,WEBSTER,WI,,US,,,,,
,visa,,,WEBSTER,WI,,US,,,,,
,visa,,,WEBSTER,WI,,US,,,,,
,visa,,,WEBSTER,WI,,US,,,,,
,visa,,,WEBSTER,WI,,US,,,,,
,visa,,,WEBSTER,WI,,US,,,,,
,visa,,,WEBSTER,WI,,US,,,,,
,visa,,,WEBSTER,WI,,US,,,,,
,visa,,,WEBSTER,WI,,US,,,,,
,visa,,,WEBSTER,WI,,US,,,,,
,visa,,,WEBSTER,WI,,US,,,,,
,visa,,,WEBSTER,WI,,US,,,,,
,visa,,,WEBSTER,WI,,US,,,,,
,visa,,,WEBSTER,WI,,US,,,,,
,visa,,,WEBSTER,WI,,US,,,,,
