Ref,Spider,Name,Address,City,State,Zipcode,Country,Phone,Website,Hours,Brand,WikiData
https://locators.bankofamerica.com/ma/somerville/financial-centers-somerville-14455.html,bankofamerica,Bank of America Financial Center & Walk-Up ATM | Davis Square,,Somerville,MA,,US,+1 617-666-0405,https://locators.bankofamerica.com/ma/somerville/financial-centers-somerville-14455.html,Mo-Fr 09:00-17:00; Sa 09:00-14:00,Bank of America,Q487907
https://locators.bankofamerica.com/ma/somerville/atm-somerville-105314.html,bankofamerica,Bank of America Walk-Up ATM | Starbucks Remote,,Somerville,MA,,US,+1 844-401-8500,https://locators.bankofamerica.com/ma/somerville/atm-somerville-105314.html,,Bank of America,Q487907
https://child-care-preschool.brighthorizons.com/MA/Somerville/teelesquare,brighthorizons,Bright Horizons at Teele Square,,Somerville,MA,,US,+1 617-977-5000,https://child-care-preschool.brighthorizons.com/ma/somerville/teelesquare,Mo-Fr 08:00-17:30,Bright Horizons,Q4967421
https://child-care-preschool.brighthorizons.com/MA/Somerville/davissquare,brighthorizons,Bright Horizons at Davis Square,,Somerville,MA,,US,+1 617-625-1300,https://child-care-preschool.brighthorizons.com/ma/somerville/davissquare,Mo-Fr 07:30-17:30,Bright Horizons,Q4967421
1134,buffalo_exchange_us,Boston &#8211; Somerville,238 Elm St,"Somerville,",MA,,US,+1 617-629-5383,https://buffaloexchange.com/location/somerville-boston/,,Buffalo Exchange,Q4985721
64953349,chase_us,Davis Square Elm St - New branch,,Somerville,MA,,US,+1 617-616-1155,https://locator.chase.com/ma/somerville/250-elm-st,Mo-Fr 09:00-17:00; Sa 09:00-13:00,Chase,Q524629
ma_somerville_274-elm-st,chipotle, ,,Somerville,MA,,US,+1 617-623-1759,https://locations.chipotle.com/ma/somerville/274-elm-st,,Chipotle,Q465751
25696,citi,ATM 7ELEVEN-FCTI,,Somerville,MA,,US,,,,Citibank,Q857063
46552,citi,ATM CVS,,Somerville,MA,,US,,,,Citibank,Q857063
76280,citi,ATM SOMERVILLE MUNICIPAL FEDERAL CREDIT UNIO,,Somerville,MA,,US,,,,Citibank,Q857063
101770,citizens_us,Citizens Davis Square,,Somerville,MA,,US,+1 617-629-3898,,Mo-Fr 09:00-16:00; Sa 09:00-12:00,Citizens,Q5122694
ATM-1332,citizens_us,,,Somerville,MA,,US,,,,Citizens,Q5122694
ATM-674,citizens_us,,,Somerville,MA,,US,+1 617-629-3898,,24/7,Citizens,Q5122694
ATM-1371,citizens_us,,,Somerville,MA,,US,,,,Citizens,Q5122694
,credit_union_us,Somerville Municipal FCU,,Somerville,MA,,US,+1 617-625-0898,,Mo-Fr 09:00-04:30,,
8319,cvs_us,CVS Pharmacy,,Somerville,MA,,US,+1 617-629-4156,https://www.cvs.com/store-locator/somerville-ma-pharmacies/1-davis-sq-somerville-ma-02144/storeid=8319,"Mo-Fr 09:00-13:30,14:00-21:00; Sa 09:00-13:30,14:00-20:00; Su 10:00-13:30,14:00-20:00",CVS Pharmacy,Q2078880
348017,dunkin_us,Dunkin',,Somerville,MA,,US,+1 617-628-0587,https://locations.dunkindonuts.com/en/ma/somerville/850-broadway/348017,Mo-Su 05:00-19:00,Dunkin',Q847743
302804,dunkin_us,Dunkin',,Somerville,MA,,US,+1 617-764-0029,https://locations.dunkindonuts.com/en/ma/somerville/379-alewife-brook-pky/302804,Mo-Fr 05:00-24:00; Sa-Su 06:00-24:00,Dunkin',Q847743
7d19f063-458a-e111-8dde-005056934050,goodwill,230 Elm St Store,,Somerville,MA,,US,+1 617-628-3618,https://www.goodwill.org/locator/location/?store=N2QxOWYwNjMtNDU4YS1lMTExLThkZGUtMDA1MDU2OTM0MDUw&lat=NDIuMzk0Nw==&lng=LTcxLjEyMTc4,,Goodwill,Q5583655
132,gulf_pr_us,GULF MART PLUS,,Somerville,MA,,US,+1 617-625-2230,https://www.gulfoil.com/gulf-mart-plus,,Gulf Oil,Q5617505
20427,h_r_block,H&R Block,,Somerville,MA,,US,+1 617-666-5082,https://www.hrblock.com/local-tax-offices/massachusetts/somerville/davis-square-plaza/20427/,,H&R Block,Q5627799
303005,kindercare,Davis Square KinderCare,,Somerville,MA,,US,,https://www.kindercare.com/our-centers/somerville/ma/303005,,KinderCare Learning Centers,Q6410551
37345,seven_eleven_ca_us,7-Eleven Store,,Somerville,MA,,US,+1 617-623-0630,https://www.7-eleven.com/locations/ma/somerville/4-college-ave-37345,,7-Eleven,Q259340
https://restaurants.subway.com/#14916042,subway,Subway,,Somerville Middlesex,MA,,US,+1 617-764-2432,https://restaurants.subway.com/united-states/ma/somerville/860-broadway,Mo-Su 09:00-22:00,Subway,Q244457
1434355,usps,WEST SOMERVILLE,,SOMERVILLE,MA,,US,+1 617-666-2255,,Mo-Fr 08:00-17:00; Sa 08:00-13:00,United States Postal Service,Q668687
0214400005,usps_collection_boxes,USPS COLLECTION BOX - BLUE BOX,133 HOLLAND ST,SOMERVILLE,MA,,US,,,,United States Postal Service,Q668687
0214400013,usps_collection_boxes,USPS COLLECTION BOX - BLUE BOX,1244 BROADWAY,SOMERVILLE,MA,,US,,,,United States Postal Service,Q668687
0214400012,usps_collection_boxes,USPS COLLECTION BOX - BLUE BOX,1153 BROADWAY,SOMERVILLE,MA,,US,,,,United States Postal Service,Q668687
0214400001,usps_collection_boxes,USPS COLLECTION BOX - BLUE BOX,1122 BROADWAY,SOMERVILLE,MA,,US,,,,United States Postal Service,Q668687
0214400002,usps_collection_boxes,USPS COLLECTION BOX - BLUE BOX,1366 BROADWAY,SOMERVILLE,MA,,US,,,,United States Postal Service,Q668687
0214400014,usps_collection_boxes,USPS COLLECTION BOX - BLUE BOX,1310 BROADWAY,SOMERVILLE,MA,,US,,,,United States Postal Service,Q668687
0214400006,usps_collection_boxes,USPS COLLECTION BOX - BLUE BOX,51 HOLLAND ST,SOMERVILLE,MA,,US,,,,United States Postal Service,Q668687
0214400034,usps_collection_boxes,USPS COLLECTION BOX - BLUE BOX,58 DAY ST,SOMERVILLE,MA,,US,,,,United States Postal Service,Q668687
0214400008,usps_collection_boxes,USPS COLLECTION BOX - BLUE BOX,1028 BROADWAY,SOMERVILLE,MA,,US,,,,United States Postal Service,Q668687
0214400011,usps_collection_boxes,USPS COLLECTION BOX - BLUE BOX,13 COLLEGE AVE,SOMERVILLE,MA,,US,,,,United States Postal Service,Q668687
0214400022,usps_collection_boxes,USPS COLLECTION BOX - BLUE BOX,246 ELM ST,SOMERVILLE,MA,,US,,,,United States Postal Service,Q668687
0214400015,usps_collection_boxes,USPS COLLECTION BOX - BLUE BOX,162 POWDERHOUSE BLVD,SOMERVILLE,MA,,US,,,,United States Postal Service,Q668687
0214400025,usps_collection_boxes,USPS COLLECTION BOX - BLUE BOX,231 ELM ST,SOMERVILLE,MA,,US,,,,United States Postal Service,Q668687
0214400037,usps_collection_boxes,USPS COLLECTION BOX - BLUE BOX,407 HIGHLAND AVE,SOMERVILLE,MA,,US,,,,United States Postal Service,Q668687
0214400019,usps_collection_boxes,USPS COLLECTION BOX - BLUE BOX,44 PACKARD AVE,SOMERVILLE,MA,,US,,,,United States Postal Service,Q668687
0214400009,usps_collection_boxes,USPS COLLECTION BOX - BLUE BOX,964 BROADWAY,SOMERVILLE,MA,,US,,,,United States Postal Service,Q668687
0214400010,usps_collection_boxes,USPS COLLECTION BOX - BLUE BOX,72 COLLEGE AVE,SOMERVILLE,MA,,US,,,,United States Postal Service,Q668687
0214400027,usps_collection_boxes,USPS COLLECTION BOX - BLUE BOX,204 ELM ST,SOMERVILLE,MA,,US,,,,United States Postal Service,Q668687
0214400024,usps_collection_boxes,USPS COLLECTION BOX - BLUE BOX,382 HIGHLAND AVE,SOMERVILLE,MA,,US,,,,United States Postal Service,Q668687
0214400018,usps_collection_boxes,USPS COLLECTION BOX - BLUE BOX,146 CURTIS ST,SOMERVILLE,MA,,US,,,,United States Postal Service,Q668687
0214400026,usps_collection_boxes,USPS COLLECTION BOX - BLUE BOX,145 ELM ST,SOMERVILLE,MA,,US,,,,United States Postal Service,Q668687
0214400023,usps_collection_boxes,USPS COLLECTION BOX - BLUE BOX,91 ELM ST,SOMERVILLE,MA,,US,,,,United States Postal Service,Q668687
0214400017,usps_collection_boxes,USPS COLLECTION BOX - BLUE BOX,156 NORTH ST,SOMERVILLE,MA,,US,,,,United States Postal Service,Q668687
0214400016,usps_collection_boxes,USPS COLLECTION BOX - BLUE BOX,373 ALEWIFE BROOK PKWY,SOMERVILLE,MA,,US,,,,United States Postal Service,Q668687
0214400032,usps_collection_boxes,USPS COLLECTION BOX - BLUE BOX,787 BROADWAY,SOMERVILLE,MA,,US,,,,United States Postal Service,Q668687
0214400007,usps_collection_boxes,USPS COLLECTION BOX - BLUE BOX,852 BROADWAY,SOMERVILLE,MA,,US,,,,United States Postal Service,Q668687
0214400020,usps_collection_boxes,USPS COLLECTION BOX - BLUE BOX,725 BROADWAY,SOMERVILLE,MA,,US,,,,United States Postal Service,Q668687
0214400021,usps_collection_boxes,USPS COLLECTION BOX - BLUE BOX,674 BROADWAY,SOMERVILLE,MA,,US,,,,United States Postal Service,Q668687
0214400031,usps_collection_boxes,USPS COLLECTION BOX - BLUE BOX,209 WILLOW AVE,SOMERVILLE,MA,,US,,,,United States Postal Service,Q668687
0214400028,usps_collection_boxes,USPS COLLECTION BOX - BLUE BOX,64 MORRISON AVE,SOMERVILLE,MA,,US,,,,United States Postal Service,Q668687
0214400029,usps_collection_boxes,USPS COLLECTION BOX - BLUE BOX,340 HIGHLAND AVE,SOMERVILLE,MA,,US,,,,United States Postal Service,Q668687
,visa,,,SOMERVILLE,MA,,US,,,,,
,visa,,,SOMERVILLE,MA,,US,,,,,
,visa,,,SOMERVILLE,MA,,US,,,,,
,visa,,,SOMERVILLE,MA,,US,,,,,
,visa,,,SOMERVILLE,MA,,US,,,,,
,visa,,,SOMERVILLE,MA,,US,,,,,
,visa,,,SOMERVILLE,MA,,US,,,,,
,visa,,,SOMERVILLE,MA,,US,,,,,
,visa,,,SOMERVILLE,MA,,US,,,,,
,visa,,,SOMERVILLE,MA,,US,,,,,
,visa,,,SOMERVILLE,MA,,US,,,,,
,visa,,,SOMERVILLE,MA,,US,,,,,
,visa,,,SOMERVILLE,MA,,US,,,,,
,visa,,,SOMERVILLE,MA,,US,,,,,
,visa,,,SOMERVILLE,MA,,US,,,,,
,visa,,,SOMERVILLE,MA,,US,,,,,
,visa,,,SOMERVILLE,MA,,US,,,,,
,visa,,,SOMERVILLE,MA,,US,,,,,
,visa,,,SOMERVILLE,MA,,US,,,,,
,visa,,,SOMERVILLE,MA,,US,,,,,
,visa,,,SOMERVILLE,MA,,US,,,,,
,visa,,,SOMERVILLE,MA,,US,,,,,
,visa,,,SOMERVILLE,MA,,US,,,,,
dc02edf50c8fabb485973b689e5b5f48,western_union,ROSE GIFT STORE,,Somerville,MA,,US,+1 617-764-0206,https://location.westernunion.com/us/ma/somerville/dc02edf50c8fabb485973b689e5b5f48,Mo-Su 09:00-21:00,Western Union,Q861042
1f35d0f3ca6a2ea29b266480f376b366,western_union,ROSE GIFT STORE,,Somerville,MA,,US,+1 617-764-0206,https://location.westernunion.com/us/ma/somerville/1f35d0f3ca6a2ea29b266480f376b366,Mo-Su 09:00-21:00,Western Union,Q861042
