Ref,Spider,Name,Address,City,State,Zipcode,Country,Phone,Website,Hours,Brand,WikiData
https://locations.arbys.com/ks/coffeyville/501-w-11th-st.html,arbys_us,"Arby's Fast-Food Drive Through Near You in Coffeyville, KS",,Coffeyville,KS,,US,+1 620-251-4304,https://locations.arbys.com/ks/coffeyville/501-w-11th-st.html,Mo-Su 09:30-23:00,Arby's,Q630866
36522,asics_us,Brown's Shoe Fit Coffeyville,1316 W 11th St,Coffeyville,KS,,US,+1 620-251-2210,,Mo-Fr 09:00-18:00; Sa 09:00-17:00,asics,Q327247
15546,asics_us,Hibbett Sports,906 Hall St,Coffeyville,KS,,US,+1 620-251-7996,,,asics,Q327247
1601,autozone_us,AutoZone Auto Parts Coffeyville,,Coffeyville,KS,,US,+1 620-251-0220,https://www.autozone.com/locations/ks/coffeyville/912-w-11th-st.html,Mo-Sa 08:00-20:00; Su 09:00-19:00,AutoZone,Q4826087
203336,bluerhino,CASEY'S GENERAL STORE #1406,,COFFEYVILLE,KS,,US,+1 620-252-6879,,,Blue Rhino,Q65681213
227632,bluerhino,Tractor Supply #2837,,Coffeyville,KS,,US,+1 620-251-2950,,,Blue Rhino,Q65681213
193547,bluerhino,Olson's Ace Hardware Coffeyville #17515,,Coffeyville,KS,,US,+1 620-251-0055,,,Blue Rhino,Q65681213
203405,bluerhino,CASEY'S GENERAL STORE #2950,,COFFEYVILLE,KS,,US,+1 620-251-5419,,,Blue Rhino,Q65681213
183715,bluerhino,Kansas Lumber Company,,Coffeyville,KS,,US,+1 620-251-0920,,,Blue Rhino,Q65681213
15704,bluerhino,Walmart #0042,,Coffeyville,KS,,US,+1 620-251-4113,,,Blue Rhino,Q65681213
60587,citi,ATM KANSAS TEACHERS COMMUNITY CREDIT UNION,,Coffeyville,KS,,US,,,,Citibank,Q857063
https://www.edwardjones.com/us-en/financial-advisor/emily-melchiori,edwardjones,Emily J Melchiori,,Coffeyville,KS,,US,+1 620-251-2123,https://www.edwardjones.com/us-en/financial-advisor/emily-melchiori,Mo-Th 08:00-17:00; Fr 08:00-16:00,Edward Jones,Q5343830
16665,h_r_block,H&R Block,,Coffeyville,KS,,US,+1 620-251-1348,https://www.hrblock.com/local-tax-offices/kansas/coffeyville/502-w-12th/16665/,,H&R Block,Q5627799
https://office.jacksonhewitt.com/#27577849,jackson_hewitt,Jackson Hewitt,,Coffeyville,KS,,US,+1 620-205-2266,https://office.jacksonhewitt.com/tax-preparation-services-locations/en/ks/coffeyville/1011-west-11th-street/18617,Mo-Th 10:00-19:00; Fr 10:00-18:00; Sa 09:00-17:00; Su 13:00-17:00,Jackson Hewitt,Q6117132
https://locations.kfc.com/#11248101,kfc,Chicken Nuggets Near Coffeyville,,Coffeyville,KS,,US,,https://locations.kfc.com/ks/coffeyville/215-w-11th-street/chickennugget,Mo-Su 10:30-22:00,KFC,Q524757
111,mightyflame,AKAS #6,,COFFEYVILLE,KS,,US,+1 620-251-4500,,,Mighty Flame,
71473530,moneygram,WAL-MART - #42,,COFFEYVILLE,KS,,US,+1 620-251-4113,,Mo-Su 07:00-21:00,MoneyGram,Q1944412
0000912586,phillips_66_conoco_76,PETE'S 49,,COFFEYVILLE,KS,,US,1234567890,,,Phillips 66,Q1656230
ks_coffeyville_1612-w-11th-st,pizza_hut_us,1612 W 11th St,,Coffeyville,KS,,US,+1 620-251-4520,https://locations.pizzahut.com/ks/coffeyville/1612-w-11th-st,,Pizza Hut,Q191615
https://restaurants.subway.com/#14906657,subway,Subway,,Coffeyville Montgomery,KS,,US,+1 620-251-0011,https://restaurants.subway.com/united-states/ks/coffeyville/902-w-11th-st,Mo-Su 09:00-22:00,Subway,Q244457
https://locations.tacobell.com/#6145969,taco_bell,Taco Bell,,Coffeyville,KS,,US,+1 620-251-3333,https://locations.tacobell.com/ks/coffeyville/1616-west-11th-street.html,Mo-Fr 09:00-24:00; Su 09:00-24:00,Taco Bell,Q752941
1358567,usps,COFFEYVILLE,,COFFEYVILLE,KS,,US,+1 620-251-4570,,Mo-Fr 08:00-16:30,United States Postal Service,Q668687
6733700018,usps_collection_boxes,USPS COLLECTION BOX - BLUE BOX,900 HALL ST,COFFEYVILLE,KS,,US,,,,United States Postal Service,Q668687
6733700026,usps_collection_boxes,USPS COLLECTION BOX - BLUE BOX,232 W 8TH ST,COFFEYVILLE,KS,,US,,,,United States Postal Service,Q668687
6733700028,usps_collection_boxes,USPS COLLECTION BOX - PO LOBBY,232 W 8TH ST,COFFEYVILLE,KS,,US,,,,United States Postal Service,Q668687
6733700023,usps_collection_boxes,USPS COLLECTION BOX - PO LOBBY,232 W 8TH ST,COFFEYVILLE,KS,,US,,,,United States Postal Service,Q668687
6733700001,usps_collection_boxes,USPS COLLECTION BOX - BLUE BOX,102 W 7TH ST,COFFEYVILLE,KS,,US,,,,United States Postal Service,Q668687
,visa,,,COFFEYVILLE,KS,,US,,,,,
,visa,,,COFFEYVILLE,KS,,US,,,,,
,visa,,,COFFEYVILLE,KS,,US,,,,,
,visa,,,COFFEYVILLE,KS,,US,,,,,
,visa,,,COFFEYVILLE,KS,,US,,,,,
,visa,,,COFFEYVILLE,KS,,US,,,,,
,visa,,,COFFEYVILLE,KS,,US,,,,,
,visa,,,COFFEYVILLE,KS,,US,,,,,
,visa,,,COFFEYVILLE,KS,,US,,,,,
,visa,,,COFFEYVILLE,KS,,US,,,,,
,visa,,,COFFEYVILLE,KS,,US,,,,,
,visa,,,COFFEYVILLE,KS,,US,,,,,
,visa,,,COFFEYVILLE,KS,,US,,,,,
,visa,,,COFFEYVILLE,KS,,US,,,,,
,visa,,,COFFEYVILLE,KS,,US,,,,,
,visa,,,COFFEYVILLE,KS,,US,,,,,
,visa,,,COFFEYVILLE,KS,,US,,,,,
,visa,,,COFFEYVILLE,KS,,US,,,,,
,visa,,,COFFEYVILLE,KS,,US,,,,,
,visa,,,COFFEYVILLE,KS,,US,,,,,
,visa,,,COFFEYVILLE,KS,,US,,,,,
,visa,,,COFFEYVILLE,KS,,US,,,,,
,visa,,,COFFEYVILLE,KS,,US,,,,,
,visa,,,COFFEYVILLE,KS,,US,,,,,
https://locations.wendys.com/#1030293937,wendys,"Wendy's Coffeyville, Ks in Coffeyville, KS",,Coffeyville,KS,,US,+1 620-228-5530,https://locations.wendys.com/united-states/ks/coffeyville/1009-s-elm-street,"Mo-Th 06:30-10:30,09:00-22:00; Fr-Sa 06:30-10:30,09:00-23:00; Su 06:30-10:30,09:00-22:00",Wendy's,Q550258
b13b1dfaec076ccaf619aa399c71f212,western_union,COUNTRY MART #76,,Coffeyville,KS,,US,+1 620-251-6820,https://location.westernunion.com/us/ks/coffeyville/b13b1dfaec076ccaf619aa399c71f212,Mo-Su 08:00-22:00,Western Union,Q861042
a69f2d1b424ef1cb1baa5185f9d49dac,western_union,WALMART #000042,,Coffeyville,KS,,US,+1 620-251-4113,https://location.westernunion.com/us/ks/coffeyville/a69f2d1b424ef1cb1baa5185f9d49dac,Mo-Su 07:00-21:00,Western Union,Q861042
