Ref,Spider,Name,Address,City,State,Zipcode,Country,Phone,Website,Hours,Brand,WikiData
48,aaa,Waterbury Branch,,Waterbury,CT,,US,+1 203-721-8284,,,American Automobile Association,Q463436
https://stores.advanceautoparts.com/ct/waterbury/689-wolcott-st,advance_auto_parts_us,Advance Auto Parts,,Waterbury,CT,,US,+1 203-757-5358,https://stores.advanceautoparts.com/ct/waterbury/689-wolcott-st,Mo-Sa 07:30-21:00; Su 09:00-20:00,Advance Auto Parts,Q4686051
https://stores.aldi.us/#4421060,aldi_sud_us,ALDI  464 Reidville Drive,,Waterbury,CT,,US,+1 888-473-1064,https://stores.aldi.us/ct/waterbury/464-reidville-drive,"Mo-Su 08:30-20:00,09:00-20:00",ALDI,Q41171672
https://locations.arbys.com/ct/waterbury/789-wolcott-st.html,arbys_us,"Arby's Fast-Food Drive Through Near You in Waterbury, CT",,Waterbury,CT,,US,+1 203-574-2881,https://locations.arbys.com/ct/waterbury/789-wolcott-st.html,Mo-Su 10:00-24:00,Arby's,Q630866
62117,asics_us,Bob's Stores Footwear & Apparel,910 Wolcott St,Waterbury,CT,,US,+1 203-574-6604,,,asics,Q327247
https://local.biglots.com/#13189909,biglots,Big Lots - Waterbury,,Waterbury,CT,,US,+1 203-597-1071,https://local.biglots.com/ct/waterbury/650-wolcott-st,Mo-Sa 09:00-21:00; Su 09:00-19:00,Big Lots,Q4905973
0037,bjswholesale,Waterbury,,Waterbury,CT,,US,+1 203-753-9997,https://www.bjs.com/mapDetail;city=0037,Mo-Sa 08:00-21:00,BJ's Wholesale,Q4835754
229438,bluerhino,Stop & Shop #2618,,Waterbury,CT,,US,+1 203-755-9489,,,Blue Rhino,Q65681213
59972,bluerhino,Walmart #3548,,Waterbury,CT,,US,+1 203-759-1000,,,Blue Rhino,Q65681213
157779,bluerhino,Stop & Shop #618 - Fuel Site,,Waterbury,CT,,US,+1 203-575-0854,,,Blue Rhino,Q65681213
56758,bluerhino,Stop & Shop #618,,Waterbury,CT,,US,+1 203-755-8605,,,Blue Rhino,Q65681213
130732,bluerhino,Winzz Gas & Goods,,Waterbury,CT,,US,+1 203-756-7777,,,Blue Rhino,Q65681213
43039_01,bmw_group,BMW of Waterbury,,Waterbury,CT,,US,+1 860-274-7515,https://www.bmwofwatertown.com,,BMW,Q26678
4855,burgerking,Burger King,,Waterbury,CT,,US,+1 203-753-5127,https://www.bk.com/store-locator/store/restaurant_2716,Mo-Su 06:00-22:00,Burger King,Q177054
28967,burgerking,Burger King,,Waterbury,CT,,US,+1 860-327-4848,https://www.bk.com/store-locator/store/restaurant_240265,Mo-Th 07:00-00:00; Fr-Sa 07:00-01:00; Su 07:00-00:00,Burger King,Q177054
24274,cadillac,BLASIUS CADILLAC,,Waterbury,CT,,US,+1 203-753-9261,https://www.blasiuscadillac.com,Mo-Th 08:00-19:00; Fr 08:00-18:00; Sa 08:30-17:00,Cadillac,Q27436
02316,chevrolet,"LOEHMANN-BLASIUS CHEVROLET, INC.",,Waterbury,CT,,US,+1 203-753-9261,https://www.blasiuschevrolet.com,Mo-Th 08:00-19:00; Fr 08:00-18:00; Sa 08:30-17:00,Chevrolet,Q29570
94699,citi,ATM Webster Bank,,Waterbury,CT,,US,,,,Citibank,Q857063
94700,citi,ATM Webster Bank,,Waterbury,CT,,US,,,,Citibank,Q857063
46098,citi,ATM Costco,,Waterbury,CT,,US,,,,Citibank,Q857063
86660,citi,ATM Walgreens,,Waterbury,CT,,US,,,,Citibank,Q857063
51657,citi,ATM CVS,,Waterbury,CT,,US,,,,Citibank,Q857063
om_ct_waterbury_650-wolcott-street,cititrends,Citi Trends,,Waterbury,CT,,US,+1 475-282-1889,https://locations.cititrends.com/ct/waterbury/650-wolcott-street.html,Mo 11:00-20:00; Tu 11:00-20:00; We 11:00-20:00; Th 11:00-20:00; Fr 10:00-21:00; Sa 10:00-21:00; Su 12:00-18:00,Citi Trends,Q5122438
2140,cvs_us,CVS Pharmacy,,Waterbury,CT,,US,+1 203-465-7055,https://www.cvs.com/store-locator/waterbury-ct-pharmacies/526-meriden-road-waterbury-ct-06705/storeid=2140,Mo-Su 08:00-22:00,CVS Pharmacy,Q2078880
1151,cvs_us,CVS Pharmacy,,Waterbury,CT,,US,+1 203-596-0909,https://www.cvs.com/store-locator/waterbury-ct-pharmacies/464-reidville-drive-waterbury-ct-06705/storeid=1151,Mo-Su 08:00-22:00,CVS Pharmacy,Q2078880
1389,dickssportinggoods,"DICK'S Sporting Goods Store in Waterbury, CT | 1389",,Waterbury,CT,,US,+1 203-437-9392,https://stores.dickssportinggoods.com/ct/waterbury/1389/,Mo-Sa 09:00-21:00; Su 10:00-19:00,Dick's Sporting Goods,Q5272601
18763,dollar_general,Dollar General,,Waterbury,CT,,US,+1 203-518-4480,https://www.dollargeneral.com/store-directory/ct/waterbury/18763,Mo-Su 08:00-22:00,Dollar General,Q145168
4020,dominos_pizza_us,Domino's Pizza,,Waterbury,CT,,US,+1 203-755-8110,https://pizza.dominos.com/connecticut/waterbury/158-manor-ave,Mo-Th 10:30-01:00; Fr-Sa 10:30-02:00; Su 10:30-01:00,Domino's,Q839466
340071,dunkin_us,Dunkin',,Waterbury,CT,,US,+1 203-574-2211,https://locations.dunkindonuts.com/en/ct/waterbury/160-kukas-ln/340071,Mo-Su 04:00-22:00,Dunkin',Q847743
349048,dunkin_us,Dunkin',,Waterbury,CT,,US,+1 203-527-3726,https://locations.dunkindonuts.com/en/ct/waterbury/1003-wolcott-st/349048,Mo-Sa 04:00-19:00; Su 05:00-19:00,Dunkin',Q847743
357155,dunkin_us,Dunkin',,Waterbury,CT,,US,+1 203-757-8089,https://locations.dunkindonuts.com/en/ct/waterbury/93-meriden-rd/357155,Mo-Sa 05:00-20:00; Su 06:00-20:00,Dunkin',Q847743
301928,dunkin_us,Dunkin',,Waterbury,CT,,US,+1 203-597-8953,https://locations.dunkindonuts.com/en/ct/waterbury/2586-e-main-st/301928,Mo-Sa 04:30-21:00; Su 05:00-20:00,Dunkin',Q847743
E14817,enterprise,Waterbury,,Waterbury,CT,,US,+1 203-755-3770,,,Enterprise Rent-A-Car,Q17085454
E148B3,enterprise,Waterbury Truck Rental,,Waterbury,CT,,US,+1 203-756-2504,,,Enterprise Rent-A-Car,Q17085454
200315821,exxonmobil,SCOTT ROAD MOBIL,,WATERBURY,CT,,US,+1 203-755-4160,https://www.exxon.com/en/find-station/mobil-waterbury-ct-scottroadmobil-200315821,24/7,Mobil,Q109676002
19429,firestone_auto_care,Firestone Complete Auto Care,,Waterbury,CT,,US,+1 203-437-6508,https://local.firestonecompleteautocare.com/connecticut/waterbury/809-wolcott-st/,,Firestone,Q420837
https://restaurants.fiveguys.com/#49218546,five_guys_us,Five Guys Waterbury,,Waterbury,CT,,US,+1 203-591-1242,https://restaurants.fiveguys.com/410-reidville-dr,"Mo-Su 11:00-21:30,11:00-22:00",Five Guys,Q1131810
Motorcraft3712USAEnglish,ford,Family Ford Inc,,Connecticut,CT,,US,+1 203-757-1201,,,Ford,Q44294
2404,gamestop_us,Price Chopper Shopping Center,,Waterbury,CT,,US,+1 203-575-1400,https://www.gamestop.com/search/?store=2404,Mo-Th 11:00-20:00; Fr-Sa 10:00-21:00; Su 11:00-20:00,GameStop,Q202210
190,gulf_pr_us,CONVENIENCE PLUS,,Waterbury,CT,,US,+1 860-757-8102,https://www.gulfoil.com/convenience-plus,,Gulf Oil,Q5617505
522,gulf_pr_us,850 WOLCOTT GULF,,Waterbury,CT,,US,+1 860-621-5800,https://www.gulfoil.com/850-wolcott-gulf,,Gulf Oil,Q5617505
4783,gulf_pr_us,MERIDEN AVE. GULF,,Waterbury,CT,,US,+1 202-753-6027,https://www.gulfoil.com/meriden-ave-gulf,,Gulf Oil,Q5617505
https://www.harborfreight.com/storelocator/650-wolcott-st-ste-1-waterbury-06705?number=396,harborfreight,"Harbor Freight Tools Waterbury, CT",,Waterbury,CT,,US,+1 203-596-3567,https://www.harborfreight.com/storelocator/650-wolcott-st-ste-1-waterbury-06705?number=396,Mo-Sa 08:00-20:00; Su 09:00-18:00,Harbor Freight Tools,Q5654601
https://office.jacksonhewitt.com/#27577540,jackson_hewitt,Jackson Hewitt,,Waterbury,CT,,US,+1 203-278-5237,https://office.jacksonhewitt.com/tax-preparation-services-locations/en/ct/waterbury/910-wolcott-street/53548,Mo-Sa 11:00-19:00; Su 12:00-16:00,Jackson Hewitt,Q6117132
https://office.jacksonhewitt.com/#27577758,jackson_hewitt,Jackson Hewitt,,Waterbury,CT,,US,+1 203-893-4609,https://office.jacksonhewitt.com/tax-preparation-services-locations/en/ct/waterbury/625-wolcott-street/19579,Mo-Sa 11:00-19:00; Su 12:00-16:00,Jackson Hewitt,Q6117132
969,kohls_us,Kohl's,,Waterbury,CT,,US,+1 203-575-9238,https://www.kohls.com/stores/ct/waterbury-969.shtml,Mo-Sa 09:00-21:00; Su 09:00-20:00,Kohl's,Q967265
18766,mattress_firm_us,Mattress Firm Waterbury,,Waterbury,CT,,US,+1 203-596-0795,https://www.mattressfirm.com/en-us/stores/ct/waterbury/165021/,,Mattress Firm,Q6791878
71471639,moneygram,WAL-MART - #3548,,WATERBURY,CT,,US,+1 203-759-1000,,Mo-Su 07:00-21:00,MoneyGram,Q1944412
https://locations.mtb.com/#3027837,mt_bank_us,M&T Bank,,,CT,,US,+1 203-573-8322,https://locations.mtb.com/ct/waterbury/bank-branches-and-atms-waterbury-ct-8226.html,Mo-Fr 09:00-17:00; Sa 09:00-12:00,M&T Bank,Q3272257
https://locations.oreillyauto.com/ct/waterbury/check-engine-light-testing-5190.html,oreilly,Your Waterbury O'Reilly Auto Parts Store,,Waterbury,CT,,US,+1 203-437-6249,https://locations.oreillyauto.com/ct/waterbury/check-engine-light-testing-5190.html,Mo-Sa 07:30-21:00; Su 08:00-19:00,O'Reilly Auto Parts,Q7071951
https://locations.oreillyauto.com/ct/waterbury/wiper-installation-5190.html,oreilly,Your Waterbury O'Reilly Auto Parts Store,,Waterbury,CT,,US,+1 203-437-6249,https://locations.oreillyauto.com/ct/waterbury/wiper-installation-5190.html,Mo-Sa 07:30-21:00; Su 08:00-19:00,O'Reilly Auto Parts,Q7071951
https://locations.oreillyauto.com/ct/waterbury/battery-testing-5190.html,oreilly,Your Waterbury O'Reilly Auto Parts Store,,Waterbury,CT,,US,+1 203-437-6249,https://locations.oreillyauto.com/ct/waterbury/battery-testing-5190.html,Mo-Sa 07:30-21:00; Su 08:00-19:00,O'Reilly Auto Parts,Q7071951
https://locations.oreillyauto.com/ct/waterbury/autopartes-5190.html,oreilly,Tu tienda O'Reilly Auto Parts en Waterbury,,Waterbury,CT,,US,+1 203-437-6249,https://locations.oreillyauto.com/ct/waterbury/autopartes-5190.html,Mo-Sa 07:30-21:00; Su 08:00-19:00,O'Reilly Auto Parts,Q7071951
887,party_city,Naugatuck Valley Shopping Center,,Waterbury,CT,,US,+1 203-577-5537,https://stores.partycity.com/us/ct/waterbury/party-store-pc887.html,,Party City,Q7140896
059010,penske,Penske Waterbury,,WATERBURY,CT,,US,+1 203-596-8102,https://www.pensketruckrental.com/locations/us/connecticut/waterbury/059010/,,Penske,Q81234570
restaurant_84519,popeyes_us_fr,Popeyes,"650 Wolcott St Waterbury, Connecticut 06705 - USA",Waterbury,CT,,US,+1 203-596-3934,https://www.popeyes.com/store-locator/store/restaurant_84519,Mo-Su 10:30-23:00,Popeyes,Q1330910
https://www.publicstorage.com/self-storage-ct-waterbury/1084.html,public_storage_us,Public Storage,,Waterbury,CT,,US,+1 203-490-6743,https://www.publicstorage.com/self-storage-ct-waterbury/1084.html,,Public Storage,Q1156045
3611,rentacenter,Rent-A-Center,,Waterbury,CT,,US,+1 203-753-0000,https://locations.rentacenter.com/connecticut/waterbury/625-wolcott-st/,Mo-Sa 10:00-18:00,Rent-A-Center,Q7313497
32508,smilebrands,Mondovi Dental Waterbury,2457 East Main St.,Waterbury,CT,,US,+1 203-755-2744,https://mondovidental.com/locations/connecticut-dental-centers/waterbury-ct/,,Smile Brands Inc.,Q108286823
910-wolcott-road,staples,"Staples Waterbury, CT",,Waterbury,CT,,US,,https://stores.staples.com/ct/waterbury/910-wolcott-road,Mo-Fr 09:00-20:00; Sa-Su 11:00-18:00,Staples,Q785943
2618,stop_and_shop,Super Stop & Shop,943 Wolcott Street,Waterbury,CT,,US,,,,Stop and Shop,Q3658429
0618,stop_and_shop,Super Stop & Shop,410 Reidville Drive,Waterbury,CT,,US,,,,Stop and Shop,Q3658429
https://restaurants.subway.com/#14895409,subway,Subway Wal-Mart #3548,,Waterbury New Haven,CT,,US,+1 203-419-0770,https://restaurants.subway.com/united-states/ct/waterbury/910-wolcott-st,Mo-We 08:00-21:30; Th-Sa 08:00-22:00; Su 08:00-21:30,Subway,Q244457
https://restaurants.subway.com/#14909170,subway,Subway,,Waterbury New Haven,CT,,US,+1 203-528-0205,https://restaurants.subway.com/united-states/ct/waterbury/464-reidville-drive,Mo-Su 09:00-22:00,Subway,Q244457
https://restaurants.subway.com/#14906256,subway,Subway,,Waterbury New Haven,CT,,US,+1 475-235-4156,https://restaurants.subway.com/united-states/ct/waterbury/3670-east-main-street,Mo-Su 08:30-21:30,Subway,Q244457
https://restaurants.subway.com/#14909884,subway,Subway,,Waterbury New Haven,CT,,US,+1 203-437-8162,https://restaurants.subway.com/united-states/ct/waterbury/1344-meriden-rd,Mo-Su 08:00-21:00,Subway,Q244457
82870,supercuts,Naugatuck Valley Shopping Ctr,920 Wolcott St,Waterbury,CT,,US,+1 203-574-0642,https://www.supercuts.com/checkin/82870,Mo-We 09:00-18:00; Th-Fr 09:00-19:00; Sa 09:00-18:00; Su 10:00-16:00,Supercuts,Q7643239
https://locations.tacobell.com/#6141597,taco_bell,Taco Bell,,Waterbury,CT,,US,+1 203-346-0798,https://locations.tacobell.com/ct/waterbury/973-wolcott-street.html,Mo-Th 07:00-02:00; Fr-Sa 07:00-03:00; Su 07:00-02:00,Taco Bell,Q752941
https://locations.tacobell.com/#29519456,taco_bell,Taco Bell,,Waterbury,CT,,US,+1 203-518-5080,https://locations.tacobell.com/ct/waterbury/224-kukas-lane.html,Mo-Th 07:00-02:30; Fr-Sa 07:00-03:30; Su 07:00-02:30,Taco Bell,Q752941
2202,tmobile_us,Wolcott And Pritchard,,Waterbury,CT,,US,+1 203-756-2068,https://www.t-mobile.com/store-locator/ct/waterbury/wolcott-and-pritchard,,T-Mobile,Q3511885
924055,uhaul,U-Haul Moving & Storage of Waterbury,169 Meriden Rd,Waterbury,CT,,US,+1 203-754-0193,,Mo-Th 00:00-19:00; Fr 00:00-20:00; Sa 00:00-19:00; Su 00:00-17:00,U-Haul,Q7862902
1361710,usps,EAST END,,WATERBURY,CT,,US,+1 203-574-6512,,Mo-Fr 09:00-17:00; Sa 08:30-12:30,United States Postal Service,Q668687
0670500045,usps_collection_boxes,USPS COLLECTION BOX - PO LOBBY,797 LAKEWOOD AVE,WATERBURY,CT,,US,,,,United States Postal Service,Q668687
0670500040,usps_collection_boxes,USPS COLLECTION BOX - BLUE BOX,920 WOLCOTT ST,WATERBURY,CT,,US,,,,United States Postal Service,Q668687
0670500016,usps_collection_boxes,USPS COLLECTION BOX - BLUE BOX,835 WOLCOTT ST,WATERBURY,CT,,US,,,,United States Postal Service,Q668687
0670500023,usps_collection_boxes,USPS COLLECTION BOX - BLUE BOX,596 WOODTICK RD,WATERBURY,CT,,US,,,,United States Postal Service,Q668687
0670500015,usps_collection_boxes,USPS COLLECTION BOX - BLUE BOX,650 WOLCOTT ST,WATERBURY,CT,,US,,,,United States Postal Service,Q668687
0670500003,usps_collection_boxes,USPS COLLECTION BOX - BLUE BOX,119 STORE AVE,WATERBURY,CT,,US,,,,United States Postal Service,Q668687
0670500010,usps_collection_boxes,USPS COLLECTION BOX - BLUE BOX,489 MERIDEN RD,WATERBURY,CT,,US,,,,United States Postal Service,Q668687
0670500036,usps_collection_boxes,USPS COLLECTION BOX - BLUE BOX,159 MANOR AVE,WATERBURY,CT,,US,,,,United States Postal Service,Q668687
0670500044,usps_collection_boxes,USPS COLLECTION BOX - PO LOBBY,159 MANOR AVE STE 6,WATERBURY,CT,,US,,,,United States Postal Service,Q668687
0670500018,usps_collection_boxes,USPS COLLECTION BOX - BLUE BOX,975 MERIDEN RD,WATERBURY,CT,,US,,,,United States Postal Service,Q668687
0670500012,usps_collection_boxes,USPS COLLECTION BOX - BLUE BOX,560 PIERPONT RD,WATERBURY,CT,,US,,,,United States Postal Service,Q668687
0670500024,usps_collection_boxes,USPS COLLECTION BOX - BLUE BOX,410 REIDVILLE DR,WATERBURY,CT,,US,,,,United States Postal Service,Q668687
0670500013,usps_collection_boxes,USPS COLLECTION BOX - BLUE BOX,464 REIDVILLE DR,WATERBURY,CT,,US,,,,United States Postal Service,Q668687
0670500034,usps_collection_boxes,USPS COLLECTION BOX - BLUE BOX,380 HITCHCOCK RD,WATERBURY,CT,,US,,,,United States Postal Service,Q668687
A00000010512,verizon_us,Wireless Zone Waterbury,,Waterbury,CT,,US,+1 203-755-6629,https://www.verizon.com/stores/details/connecticut/waterbury/wireless-zone-waterbury-1792322/,Mo-Fr 10:00-19:00; Sa 10:00-18:00; Su 11:00-17:00,Verizon,Q919641
,visa,,,WATERBURY,CT,,US,,,,,
,visa,,,WATERBURY,CT,,US,,,,,
,visa,,,WATERBURY,CT,,US,,,,,
,visa,,,WATERBURY,CT,,US,,,,,
,visa,,,WATERBURY,CT,,US,,,,,
,visa,,,WATERBURY,CT,,US,,,,,
,visa,,,WATERBURY,CT,,US,,,,,
,visa,,,WATERBURY,CT,,US,,,,,
,visa,,,WATERBURY,CT,,US,,,,,
,visa,,,WATERBURY,CT,,US,,,,,
,visa,,,WATERBURY,CT,,US,,,,,
,visa,,,WATERBURY,CT,,US,,,,,
,visa,,,WATERBURY,CT,,US,,,,,
,visa,,,WATERBURY,CT,,US,,,,,
,visa,,,WATERBURY,CT,,US,,,,,
,visa,,,WATERBURY,CT,,US,,,,,
,visa,,,WATERBURY,CT,,US,,,,,
,visa,,,WATERBURY,CT,,US,,,,,
,visa,,,WATERBURY,CT,,US,,,,,
,visa,,,WATERBURY,CT,,US,,,,,
,visa,,,WATERBURY,CT,,US,,,,,
,visa,,,WATERBURY,CT,,US,,,,,
,visa,,,WATERBURY,CT,,US,,,,,
,visa,,,WATERBURY,CT,,US,,,,,
https://www.walgreens.com/locator/walgreens-11+meriden+rd-waterbury-ct-06705/id=6966,walgreens,Walgreens,,Waterbury,CT,,US,+1 203-757-1998,https://www.walgreens.com/locator/walgreens-11+meriden+rd-waterbury-ct-06705/id=6966,Mo-Su 08:00-22:00,Walgreens,Q1591889
800__WOLCOTT__ST_WATERBURY_CT_06705,wellsfargo,Wells Fargo,800 WOLCOTT ST,WATERBURY,CT,,US,+1 203-753-2905,https://www.wellsfargo.com/locator/bank/800__WOLCOTT__ST_WATERBURY_CT_06705/,Mo-Fr 09:00-17:00,Wells Fargo,Q744149
https://locations.wendys.com/#9256369,wendys,"Wendy's Waterbury in Waterbury, CT",,Waterbury,CT,,US,+1 203-573-0163,https://locations.wendys.com/united-states/ct/waterbury/910-wolcott-street,"Mo-Su 06:30-10:30,07:00-22:00",Wendy's,Q550258
fdafeb11ede28c50849bd4328f547687,western_union,WALMART #003548,,Waterbury,CT,,US,+1 203-759-1000,https://location.westernunion.com/us/ct/waterbury/fdafeb11ede28c50849bd4328f547687,Mo-Sa 08:00-20:00; Su 10:00-18:00,Western Union,Q861042
fb2fe3124cb51638cad9f1d39b4a62c6,western_union,STOP & SHOP #2618,,Waterbury,CT,,US,+1 203-755-9489,https://location.westernunion.com/us/ct/waterbury/fb2fe3124cb51638cad9f1d39b4a62c6,Mo-Su 07:00-22:00,Western Union,Q861042
67369e38e5f4d356f573489e30db0e06,western_union,AP FINANCIAL SERVICES,,Waterbury,CT,,US,+1 203-437-8533,https://location.westernunion.com/us/ct/waterbury/67369e38e5f4d356f573489e30db0e06,Mo-Sa 09:00-19:00,Western Union,Q861042
3801,xfinity,Xfinity,,Waterbury,CT,,US,,https://www.xfinity.com/local/ct/waterbury/920-wolcott-street.html,Mo-Sa 10:00-20:00; Su 11:00-17:00,Xfinity,Q5151002
