Ref,Spider,Name,Address,City,State,Zipcode,Country,Phone,Website,Hours,Brand,WikiData
102019,allsups_yesway_us,Allsup's,,Spearman,TX,,US,+1 806-659-3135,,24/7,Allsup's,Q4733292
212654,bluerhino,Family Dollar #12877,,Spearman,TX,,US,+1 806-513-6706,,,Blue Rhino,Q65681213
140537,bluerhino,Orgill #412486 - Bartlett Lumber #11,,Spearman,TX,,US,+1 806-659-1066,,,Blue Rhino,Q65681213
53311,bluerhino,Lowe's Marketplace #064,,Spearman,TX,,US,+1 806-659-3212,,,Blue Rhino,Q65681213
56643,citi,ATM First State Bank Spearman,,Spearman,TX,,US,,,,Citibank,Q857063
32877,family_dollar_us,FAMILY DOLLAR #12877,,Spearman,TX,,US,+1 806-513-6706,https://www.familydollar.com/locations/tx/spearman/32877/,Mo-Sa 09:00-22:00; Su 09:00-21:00,Family Dollar,Q5433101
https://local.fedex.com/#25228966,fedex,,,Spearman,TX,,US,+1 800-463-3339,https://local.fedex.com/en-us/tx/spearman/amaad,,FedEx,Q459477
0000824277,phillips_66_conoco_76,GOLDEN SPREADSC,,SPEARMAN,TX,,US,+1 806-659-3776,,,Phillips 66,Q1656230
tx_spearman_207-s-hwy,pizza_hut_us,207 S Hwy,,Spearman,TX,,US,+1 806-659-2547,https://locations.pizzahut.com/tx/spearman/207-s-hwy,,Pizza Hut,Q191615
19670,true_value_us,Family Farm Stores,,Spearman,TX,,US,+1 806-659-2662,http://www.familyfarmstores.com,,True Value,Q7847545
1382451,usps,SPEARMAN,,SPEARMAN,TX,,US,+1 806-659-3313,,"Mo-Fr 08:30-13:30,14:30-16:00",United States Postal Service,Q668687
7908100005,usps_collection_boxes,USPS COLLECTION BOX - PO LOBBY,101 N BERNICE ST,SPEARMAN,TX,,US,,,,United States Postal Service,Q668687
7908100002,usps_collection_boxes,USPS COLLECTION BOX - BLUE BOX,101 N BERNICE ST,SPEARMAN,TX,,US,,,,United States Postal Service,Q668687
7908100000,usps_collection_boxes,USPS COLLECTION BOX - PO LOBBY,101 N BERNICE ST,SPEARMAN,TX,,US,,,,United States Postal Service,Q668687
7908100001,usps_collection_boxes,USPS COLLECTION BOX - PO LOBBY,101 N BERNICE ST,SPEARMAN,TX,,US,,,,United States Postal Service,Q668687
,visa,,,SPEARMAN,TX,,US,,,,,
,visa,,,SPEARMAN,TX,,US,,,,,
,visa,,,SPEARMAN,TX,,US,,,,,
,visa,,,SPEARMAN,TX,,US,,,,,
,visa,,,SPEARMAN,TX,,US,,,,,
,visa,,,SPEARMAN,TX,,US,,,,,
,visa,,,SPEARMAN,TX,,US,,,,,
be90e4312f397cc96e2c3385a8f68a23,western_union,ALLSUPS #102019,,Spearman,TX,,US,+1 806-659-3135,https://location.westernunion.com/us/tx/spearman/be90e4312f397cc96e2c3385a8f68a23,Mo-Su 06:00-22:00,Western Union,Q861042
0e1295e8ff526903816ffa7faffab556,western_union,CORNER MARKET COLLARD SPEA,,Spearman,TX,,US,+1 806-659-2043,https://location.westernunion.com/us/tx/spearman/0e1295e8ff526903816ffa7faffab556,Mo-Su 06:00-19:00,Western Union,Q861042
