Ref,Spider,Name,Address,City,State,Zipcode,Country,Phone,Website,Hours,Brand,WikiData
102029,allsups_yesway_us,Allsup's,,Tulia,TX,,US,+1 806-995-2227,,24/7,Allsup's,Q4733292
102028,allsups_yesway_us,Allsup's,,Tulia,TX,,US,+1 806-995-2213,,24/7,Allsup's,Q4733292
219044,bluerhino,Dollar General #1938,,TULIA,TX,,US,+1 806-310-9197,,,Blue Rhino,Q65681213
164599,bluerhino,Family Dollar #07924,,Tulia,TX,,US,+1 806-641-5583,,,Blue Rhino,Q65681213
72645,bluerhino,Lowe's Marketplace #049,,Tulia,TX,,US,+1 806-995-3559,,,Blue Rhino,Q65681213
https://local.fedex.com/#25230318,fedex,,,Tulia,TX,,US,+1 800-463-3339,https://local.fedex.com/en-us/tx/tulia/amaah,,FedEx,Q459477
Motorcraft1644USAEnglish,ford,"Bar-W Ford Tulia, LTD",,Texas,TX,,US,+1 806-995-3537,,,Ford,Q44294
https://www.ford.com/dealerships/dealer-details/tx/tulia/bar_w-ford-tulia-ltd/,ford_dealers_us,"Bar-W Ford Tulia, LTD",,Tulia,TX,,US,+1 806-583-0489,https://www.ford.com/dealerships/dealer-details/tx/tulia/bar_w-ford-tulia-ltd/,Mo-Fr 08:00-18:00,Ford Motor Company,Q44294
0000891117,phillips_66_conoco_76,SWISHER TIRE,,TULIA,TX,,US,+1 806-995-1709,,,Phillips 66,Q1656230
888,pilot_flyingj,Pilot Dealer,,Tulia,TX,,US,+1 806-995-4567,https://locations.pilotflyingj.com/us/tx/tulia/2901-w.-highway-86,,Pilot,Q7194412
tx_tulia_811-sw-2nd-st,pizza_hut_us,811 SW 2nd St,,Tulia,TX,,US,+1 806-995-4010,https://locations.pizzahut.com/tx/tulia/811-sw-2nd-st,,Pizza Hut,Q191615
https://restaurants.subway.com/#14916876,subway,"Subway Tulia, Texas",,Tulia Swisher,TX,,US,+1 806-995-2620,https://restaurants.subway.com/united-states/tx/tulia/700-s-i-27,Mo-Su 08:00-21:00,Subway,Q244457
1385137,usps,TULIA,,TULIA,TX,,US,+1 806-995-2812,,"Mo-Fr 08:30-12:30,13:30-16:30",United States Postal Service,Q668687
7908800009,usps_collection_boxes,USPS COLLECTION BOX - PO LOBBY,129 N ARMSTRONG AVE,TULIA,TX,,US,,,,United States Postal Service,Q668687
7908800008,usps_collection_boxes,USPS COLLECTION BOX - PO LOBBY,129 N ARMSTRONG AVE,TULIA,TX,,US,,,,United States Postal Service,Q668687
7908800002,usps_collection_boxes,USPS COLLECTION BOX - BLUE BOX,129 N ARMSTRONG AVE,TULIA,TX,,US,,,,United States Postal Service,Q668687
7908800000,usps_collection_boxes,USPS COLLECTION BOX - BLUE BOX,129 N ARMSTRONG AVE,TULIA,TX,,US,,,,United States Postal Service,Q668687
7908800010,usps_collection_boxes,USPS COLLECTION BOX - PO LOBBY,129 N ARMSTRONG AVE,TULIA,TX,,US,,,,United States Postal Service,Q668687
7908800005,usps_collection_boxes,USPS COLLECTION BOX - BLUE BOX,119 S MAXWELL AVE,TULIA,TX,,US,,,,United States Postal Service,Q668687
0000026396,valero,ALLSUP 102028,,TULIA,TX,,US,,https://locations.valero.com/en-us/LocationDetails/Index/517-SOUTHWEST-2ND-STREET/0000026396,24/7,Valero,Q1283291
0000026397,valero,ALLSUP 102029,,TULIA,TX,,US,,https://locations.valero.com/en-us/LocationDetails/Index/806-NW-6TH-ST/0000026397,24/7,Valero,Q1283291
,visa,,,TULIA,TX,,US,,,,,
,visa,,,TULIA,TX,,US,,,,,
,visa,,,TULIA,TX,,US,,,,,
,visa,,,TULIA,TX,,US,,,,,
,visa,,,TULIA,TX,,US,,,,,
,visa,,,TULIA,TX,,US,,,,,
,visa,,,TULIA,TX,,US,,,,,
,visa,,,TULIA,TX,,US,,,,,
,visa,,,TULIA,TX,,US,,,,,
