Ref,Spider,Name,Address,City,State,Zipcode,Country,Phone,Website,Hours,Brand,WikiData
https://stores.aldi.us/#24241845,aldi_sud_us,ALDI  1801 West Mechanic St,,Harrisonville,MO,,US,+1 855-955-2534,https://stores.aldi.us/mo/harrisonville/1801-west-mechanic-st,Mo-Su 09:00-20:00,ALDI,Q41171672
3994,anytime_fitness,Anytime Fitness,,Harrisonville,MO,,US,+1 816-884-3165,https://www.anytimefitness.com/gyms/3994/harrisonville-mo-64701/,,Anytime Fitness,Q4778364
https://restaurants.applebees.com/en-us/mo/harrisonville/2401-rock-haven-road-79026,applebees,Connect with this Applebee's,,Harrisonville,MO,,US,+1 816-887-2288,https://restaurants.applebees.com/en-us/mo/harrisonville/2401-rock-haven-road-79026,Mo-Th 11:00-23:00; Fr-Sa 11:00-24:00; Su 11:00-22:00,Applebees,Q621532
https://locations.arbys.com/mo/harrisonville/1500-n-state-route-291.html,arbys_us,"Arby's Fast-Food Drive Through Near You in Harrisonville, MO",,Harrisonville,MO,,US,+1 816-380-3130,https://locations.arbys.com/mo/harrisonville/1500-n-state-route-291.html,Mo-Su 09:30-23:00,Arby's,Q630866
23063,asics_us,Hibbett Sports,2061 N Commercial St,Harrisonville,MO,,US,+1 816-380-5882,,,asics,Q327247
2351,autozone_us,AutoZone Auto Parts Harrisonville,,Harrisonville,MO,,US,+1 816-380-6866,https://www.autozone.com/locations/mo/harrisonville/1000-n-commercial.html,Mo-Sa 07:30-20:00; Su 09:00-19:00,AutoZone,Q4826087
203751,bluerhino,CASEY'S GENERAL STORE #1629,,HARRISONVILLE,MO,,US,+1 816-380-2415,,,Blue Rhino,Q65681213
203950,bluerhino,CASEY'S GENERAL STORE #3486,,HARRISONVILLE,MO,,US,+1 816-884-3188,,,Blue Rhino,Q65681213
190110,bluerhino,Minit Mart #605,,Harrisonville,MO,,US,+1 816-887-1907,,,Blue Rhino,Q65681213
154068,bluerhino,Walgreens #12778,,Harrisonville,MO,,US,+1 816-884-1891,,,Blue Rhino,Q65681213
186410,bluerhino,Sutherlands #1219,,Harrisonville,MO,,US,+1 816-380-2800,,,Blue Rhino,Q65681213
168664,bluerhino,Ducky's,,Harrisonville,MO,,US,+1 816-925-4674,,,Blue Rhino,Q65681213
203774,bluerhino,CASEY'S GENERAL STORE #1961,,HARRISONVILLE,MO,,US,+1 816-380-2439,,,Blue Rhino,Q65681213
55054758745006470100100000000000,bp,Amoco,,Harrisonville,MO,,US,1111111111,,24/7,BP,Q152057
3385,captaind,Captain D's,,Harrisonville,MO,,US,+1 816-884-3958,https://locations.captainds.com/ll/US/MO/Harrisonville/2003-N-Commercial-St,Mo-Th 10:30-22:00; Fr-Sa 10:30-23:00; Su 10:30-22:00,Captain D's,Q5036616
https://stores.catofashions.com/#26560532,cato_us,Cato,,,MO,,US,+1 816-884-1818,https://stores.catofashions.com/mo/harrisonville/1818-north-highway-291,Mo-Sa 10:00-20:00; Su 13:00-18:00,Cato,Q16956136
33929,citi,ATM ACADEMY BANK,,Harrisonville,MO,,US,,,,Citibank,Q857063
39064,citi,ATM CB OF HARRISONVIL,,Harrisonville,MO,,US,,,,Citibank,Q857063
49993,citi,ATM CVS,,Harrisonville,MO,,US,,,,Citibank,Q857063
91556,citi,ATM Walgreens,,Harrisonville,MO,,US,,,,Citibank,Q857063
46341,citi,ATM COUNTRY CLUB BANK,,Harrisonville,MO,,US,,,,Citibank,Q857063
66362,citi,ATM NORTH AMERICAN SAVINGS BANK,,Harrisonville,MO,,US,,,,Citibank,Q857063
harrisonville/3214,claires,Shop Ear Piercings & Jewelry at Claires Walmart Harrisonville,,HARRISONVILLE,MO,,US,+1 816-884-5011,https://stores.claires.com/us/mo/harrisonville/3214.html,Mo-Su 12:00-19:00,Claire's,Q2974996
845,culvers_us,"Culver's of Harrisonville, MO - N Rte 291",,Harrisonville,MO,,US,+1 816-793-0058,http://www.culvers.com/restaurants/harrisonville-mo-rte-291,Mo-Fr 10:00-22:00; Su 10:00-22:00,Culver's,Q1143589
8563,cvs_us,CVS Pharmacy,,Harrisonville,MO,,US,+1 816-380-6566,https://www.cvs.com/store-locator/harrisonville-mo-pharmacies/300-s-commercial-st-harrisonville-mo-64701/storeid=8563,Mo-Sa 08:00-21:00; Su 09:00-21:00,CVS Pharmacy,Q2078880
1590,dominos_pizza_us,Domino's Pizza,,Harrisonville,MO,,US,+1 816-793-6333,https://pizza.dominos.com/missouri/harrisonville/301-s-commercial-st,Mo-Th 10:30-24:00; Fr-Sa 10:30-01:00; Su 10:30-24:00,Domino's,Q839466
352533,dunkin_us,Dunkin',,Harrisonville,MO,,US,+1 816-884-3306,https://locations.dunkindonuts.com/en/mo/harrisonville/27603-sw-outer-rd/352533,Mo-Su 05:00-19:00,Dunkin',Q847743
https://www.edwardjones.com/us-en/financial-advisor/cole-welhoff,edwardjones,Cole Welhoff,,Harrisonville,MO,,US,+1 816-380-7491,https://www.edwardjones.com/us-en/financial-advisor/cole-welhoff,Mo-Th 08:30-16:30; Fr 08:30-15:00,Edward Jones,Q5343830
520875,eg_america_us,Minit Mart,,Harrisonville,MO,,US,+1 816-887-1907,https://www.minitmart.com/find-us/generic-store-page/?id=600605,,Minit Mart,Q18154470
E10531,enterprise,Harrisonville,,Harrisonville,MO,,US,+1 816-887-5110,,,Enterprise Rent-A-Car,Q17085454
Motorcraft2584USAEnglish,ford,"Milner O'Quinn Ford Sales, Inc",,Missouri,MO,,US,+1 816-380-3251,,,Ford,Q44294
https://www.ford.com/dealerships/dealer-details/mo/harrisonville/max-ford-of-harrisonville/,ford_dealers_us,Max Ford of Harrisonville,,Harrisonville,MO,,US,+1 816-925-0246,https://www.ford.com/dealerships/dealer-details/mo/harrisonville/max-ford-of-harrisonville/,Mo-Th 08:30-20:00; Fr-Sa 08:30-18:00,Ford Motor Company,Q44294
8621,fresenius_kidney_care_us,Fresenius Kidney Care Harrisonville,,Harrisonville,MO,,US,+1 800-881-5101,https://www.freseniuskidneycare.com/dialysis-centers/missouri/8621,Mo 06:00-17:00; We 06:00-17:00; Fr 06:00-17:00,,
2953,gamestop_us,Supercenter Square,,Harrisonville,MO,,US,+1 816-887-4731,https://www.gamestop.com/search/?store=2953,Mo-Th 12:00-20:00; Fr-Sa 10:00-20:00; Su 12:00-18:00,GameStop,Q202210
https://salons.greatclips.com/us/mo/harrisonville/658-s-commercial-st,greatclips,Great Clips,,Harrisonville,MO,,US,+1 816-884-5020,https://salons.greatclips.com/us/mo/harrisonville/658-s-commercial-st,Mo-Fr 09:00-19:00; Sa 09:00-17:00; Su 10:00-16:00,Great Clips,Q5598967
25862,h_r_block,H&R Block,,Harrisonville,MO,,US,+1 816-884-3656,https://www.hrblock.com/local-tax-offices/missouri/harrisonville/2103-plaza-dr/25862/,,H&R Block,Q5627799
https://locations.jimmyjohns.com/mo/harrisonville/sandwiches-4068.html,jimmy_johns,Jimmy John's,,Harrisonville,MO,,US,+1 816-380-1000,https://locations.jimmyjohns.com/mo/harrisonville/sandwiches-4068.html,,Jimmy John's,Q1689380
https://locations.kfc.com/#11249599,kfc,Chicken Nuggets Near Harrisonville,,Harrisonville,MO,,US,,https://locations.kfc.com/mo/harrisonville/1606-highway-291-north/chickennugget,Mo-Su 10:30-22:00,KFC,Q524757
608,loves,Site 616,,Harrisonville,MO,,US,+1 816-887-2050,,,Love's,Q1872496
1132,mightyflame,COMMERCIAL STREET CONOCO,,HARRISONVILLE,MO,,US,+1 816-925-0938,,,Mighty Flame,
432,mightyflame,QUIK BREAK (PHILLIPS 66),,HARRISONVILLE,MO,,US,,,,Mighty Flame,
5782,murphy_usa_us,,,Harrisonville,MO,,US,+1 816-380-6957,,Mo-Sa 05:30-23:00; Su 06:00-23:30,Murphy USA,Q19604459
https://locations.oreillyauto.com/mo/harrisonville/check-engine-light-testing-4092.html,oreilly,Your Harrisonville O'Reilly Auto Parts Store,,Harrisonville,MO,,US,+1 816-884-3261,https://locations.oreillyauto.com/mo/harrisonville/check-engine-light-testing-4092.html,Mo-Sa 07:30-22:00; Su 08:00-20:00,O'Reilly Auto Parts,Q7071951
https://locations.oreillyauto.com/mo/harrisonville/battery-testing-4092.html,oreilly,Your Harrisonville O'Reilly Auto Parts Store,,Harrisonville,MO,,US,+1 816-884-3261,https://locations.oreillyauto.com/mo/harrisonville/battery-testing-4092.html,Mo-Sa 07:30-22:00; Su 08:00-20:00,O'Reilly Auto Parts,Q7071951
https://locations.oreillyauto.com/mo/harrisonville/wiper-installation-4092.html,oreilly,Your Harrisonville O'Reilly Auto Parts Store,,Harrisonville,MO,,US,+1 816-884-3261,https://locations.oreillyauto.com/mo/harrisonville/wiper-installation-4092.html,Mo-Sa 07:30-22:00; Su 08:00-20:00,O'Reilly Auto Parts,Q7071951
https://locations.oreillyauto.com/mo/harrisonville/autopartes-4092.html,oreilly,Tu tienda O'Reilly Auto Parts en Harrisonville,,Harrisonville,MO,,US,+1 816-884-3261,https://locations.oreillyauto.com/mo/harrisonville/autopartes-4092.html,Mo-Sa 07:30-22:00; Su 08:00-20:00,O'Reilly Auto Parts,Q7071951
us73184441,pandora,About Pandora Jewelry Authorized Retailer - Golden Classics Jewelers,,Harrisonville,MO,,US,+1 816-380-6325,https://stores.pandora.net/mo/harrisonville/pandora-jewelry-us73184441.html,,Pandora,Q2241604
https://locations.papamurphys.com/#15430579,papamurphys,Pizza Takeout & Delivery,,Harrisonville,MO,,US,+1 816-884-5005,https://locations.papamurphys.com/mo/harrisonville/662-s-commercial-street,Mo-Su 10:30-20:00,Papa Murphy's,Q7132349
038645,penske,Holland&#39;s Auto Sales,,HARRISONVILLE,MO,,US,+1 816-793-3890,https://www.pensketruckrental.com/locations/us/missouri/harrisonville/038645/,,Penske,Q81234570
0000893835,phillips_66_conoco_76,MINIT MART EG 605,,HARRISONVILLE,MO,,US,+1 816-884-3052,,,Phillips 66,Q1656230
0000883083,phillips_66_conoco_76,QUICK BREAK 4,,HARRISONVILLE,MO,,US,+1 816-786-8815,,,Phillips 66,Q1656230
mo_harrisonville_1900-w-wall-st,pizza_hut_us,1900 W Wall St,,Harrisonville,MO,,US,+1 816-884-2832,https://locations.pizzahut.com/mo/harrisonville/1900-w-wall-st,,Pizza Hut,Q191615
https://locations.quiktrip.com/#16004258,quiktrip_us,QuikTrip Store #247 1402 N 291 Hwy,,Harrisonville,MO,,US,+1 816-884-3553,https://locations.quiktrip.com/mo/harrisonville/1402-n-291-hwy,24/7,QuikTrip,Q7271953
8350,regal_nails_us,"Regal Nails, Salon &#038; Spa",1700 North 291 Hwy,Harrisonville,MO,,US,+1 816-884-4339,,,Regal Nails,Q108918028
4364,rentacenter,Rent-A-Center,,Harrisonville,MO,,US,+1 816-884-3086,https://locations.rentacenter.com/missouri/harrisonville/2002-n-state-route-291/,Mo-Sa 10:00-18:00,Rent-A-Center,Q7313497
1008,scooters_coffee_us,"Harrisonville, MO",,Harrisonville,MO,,US,+1 816-853-4140,,Mo-Fr 05:30-20:00; Sa-Su 06:00-20:00,Scooter's Coffee,Q117280308
https://restaurants.subway.com/#14900612,subway,"Subway Love's Travel Stop, #616",,Harrisonville Cass,MO,,US,+1 816-887-2052,https://restaurants.subway.com/united-states/mo/harrisonville/2611-s-brookhart-drive,,Subway,Q244457
https://restaurants.subway.com/#14898480,subway,Subway,,Harrisonville Cass,MO,,US,+1 816-380-3060,https://restaurants.subway.com/united-states/mo/harrisonville/2061-n-commercial-st,Mo-Su 09:00-22:00,Subway,Q244457
https://locations.tacobell.com/#6145384,taco_bell,Taco Bell,,Harrisonville,MO,,US,+1 816-884-3031,https://locations.tacobell.com/mo/harrisonville/2010-n-commercial-st.html,Mo-Th 08:00-02:00; Fr-Sa 08:00-04:00; Su 08:00-02:00,Taco Bell,Q752941
2YSM,tmobile_us,N State Route 291 & Timber Dr,,Harrisonville,MO,,US,+1 816-884-6008,https://www.t-mobile.com/store-locator/mo/harrisonville/n-state-route-291-timber-dr,,T-Mobile,Q3511885
1435015,usps,HARRISONVILLE,,HARRISONVILLE,MO,,US,+1 816-380-3841,,Mo-Fr 08:30-17:00; Sa 08:30-12:00,United States Postal Service,Q668687
6470100023,usps_collection_boxes,USPS COLLECTION BOX - BLUE BOX,2600 CANTRELL RD,HARRISONVILLE,MO,,US,,,,United States Postal Service,Q668687
6470100010,usps_collection_boxes,USPS COLLECTION BOX - BLUE BOX,2001 N COMMERCIAL ST,HARRISONVILLE,MO,,US,,,,United States Postal Service,Q668687
6470100026,usps_collection_boxes,USPS COLLECTION BOX - PO LOBBY,305 E MECHANIC ST,HARRISONVILLE,MO,,US,,,,United States Postal Service,Q668687
6470100015,usps_collection_boxes,USPS COLLECTION BOX - PO LOBBY,305 E MECHANIC ST,HARRISONVILLE,MO,,US,,,,United States Postal Service,Q668687
6470100019,usps_collection_boxes,USPS COLLECTION BOX - BLUE BOX,305 E MECHANIC ST,HARRISONVILLE,MO,,US,,,,United States Postal Service,Q668687
,visa,,,HARRISONVILLE,MO,,US,,,,,
,visa,,,HARRISONVILLE,MO,,US,,,,,
,visa,,,HARRISONVILLE,MO,,US,,,,,
,visa,,,HARRISONVILLE,MO,,US,,,,,
,visa,,,HARRISONVILLE,MO,,US,,,,,
,visa,,,HARRSONVILLE,MO,,US,,,,,
,visa,,,HARRISONVILLE,MO,,US,,,,,
,visa,,,HARRISONVILLE,MO,,US,,,,,
,visa,,,HARRISONVILLE,MO,,US,,,,,
,visa,,,HARRISONVILLE,MO,,US,,,,,
,visa,,,HARRISONVILLE,MO,,US,,,,,
,visa,,,HARRISONVILLE,MO,,US,,,,,
,visa,,,HARRISONVILLE,MO,,US,,,,,
,visa,,,HARRISONVILLE,MO,,US,,,,,
,visa,,,HARRISONVILLE,MO,,US,,,,,
,visa,,,HARRISONVILLE,MO,,US,,,,,
,visa,,,HARRISONVILLE,MO,,US,,,,,
,visa,,,HARRISONVILLE,MO,,US,,,,,
,visa,,,HARRISONVILLE,MO,,US,,,,,
,visa,,,HARRISONVILLE,MO,,US,,,,,
,visa,,,HARRISONVILLE,MO,,US,,,,,
,visa,,,HARRISONVILLE,MO,,US,,,,,
,visa,,,HARRISONVILLE,MO,,US,,,,,
,visa,,,HARRISONVILLE,MO,,US,,,,,
,visa,,,HARRISONVILLE,MO,,US,,,,,
,visa,,,HARRISONVILLE,MO,,US,,,,,
,visa,,,HARRISONVILLE,MO,,US,,,,,
https://www.walgreens.com/locator/walgreens-505+s+commercial+st-harrisonville-mo-64701/id=12778,walgreens,Walgreens,,Harrisonville,MO,,US,+1 816-884-1891,https://www.walgreens.com/locator/walgreens-505+s+commercial+st-harrisonville-mo-64701/id=12778,Mo-Su 08:00-20:00,Walgreens,Q1591889
https://locations.wendys.com/#9252827,wendys,"Wendy's Highway 291 in Harrisonville, MO",,Harrisonville,MO,,US,+1 816-884-3700,https://locations.wendys.com/united-states/mo/harrisonville/1800-n-state-route-291,"Mo-Su 06:00-10:30,06:00-22:00",Wendy's,Q550258
910da7338b688d74ed4218912917919b,western_union,DOLLAR GENERAL #21278,,Harrisonville,MO,,US,+1 816-793-0675,https://location.westernunion.com/us/mo/harrisonville/910da7338b688d74ed4218912917919b,Mo-Su 08:00-22:00,Western Union,Q861042
ba1e33dce45669c044f9cc143fdf1b96,western_union,WALMART #000096,,Harrisonville,MO,,US,+1 816-884-5635,https://location.westernunion.com/us/mo/harrisonville/ba1e33dce45669c044f9cc143fdf1b96,Mo-Su 07:00-21:00,Western Union,Q861042
1159,world_finance_us,,"1808 N State Route 291, Harrisonville, MO, 64701",Harrisonville,MO,,US,+1 816-884-4038,https://www.loansbyworld.com/branches/branch-1159,Mo-Fr 09:00-17:30; Sa 09:00-12:00,World Finance,Q3569971
