Ref,Spider,Name,Address,City,State,Zipcode,Country,Phone,Website,Hours,Brand,WikiData
72842160,moneygram,KEAT MOYKI,,STUENG SAEN,,,KH,+855 12 508 967,,Mo-Su 07:00-17:00,MoneyGram,Q1944412
72920846,moneygram,SIV SOTHEARUM,,STUENG SAEN,,,KH,+855 17 224 224,,Mo-Su 07:00-17:00,MoneyGram,Q1944412
72920480,moneygram,SREYMUCH,,STUENG SAEN,,,KH,+855 77 317 373,,Mo-Su 07:00-17:00,MoneyGram,Q1944412
72920260,moneygram,TANN SAPOV,,STUENG SAEN,,,KH,+855 77 918 686,,Mo-Su 07:00-17:00,MoneyGram,Q1944412
72948666,moneygram,KRUY SEANGKIM,,STUENG SAEN,,,KH,+855 17 272 830,,Mo-Su 07:00-17:00,MoneyGram,Q1944412
72948653,moneygram,MOM DAVY,,STUENG SAEN,,,KH,+855 17 444 976,,Mo-Su 07:00-17:00,MoneyGram,Q1944412
72980310,moneygram,DIT CHANNTHA,,STUENG SAEN,,,KH,+855 76 618 6725,,Mo-Su 07:00-17:00,MoneyGram,Q1944412
72980213,moneygram,HE LALIN,,STUENG SAEN,,,KH,+855 12 709 870,,Mo-Su 07:00-17:00,MoneyGram,Q1944412
73050731,moneygram,BONG SAO,,STUENG SAEN,,,KH,+855 69 946 157,,Mo-Su 07:00-17:00,MoneyGram,Q1944412
73050621,moneygram,CASH YOU UP,,STUENG SAEN,,,KH,+855 11 828 236,,Mo-Su 07:00-17:00,MoneyGram,Q1944412
73051109,moneygram,EANG LYLY,,STUENG SAEN,,,KH,+855 95 900 775,,Mo-Su 07:00-17:00,MoneyGram,Q1944412
73051002,moneygram,HEM VANNAY,,STUENG SAEN,,,KH,+855 92 883 070,,Mo-Su 07:00-17:00,MoneyGram,Q1944412
73050485,moneygram,KIV LYMENG,,STUENG SAEN,,,KH,+855 12 214 904,,Mo-Su 07:00-17:00,MoneyGram,Q1944412
73050634,moneygram,KRONG THEARY,,STUENG SAEN,,,KH,+855 12 529 067,,Mo-Su 07:00-17:00,MoneyGram,Q1944412
73050980,moneygram,OL CHAMNAB,,STUENG SAEN,,,KH,+855 95 576 547,,Mo-Su 07:00-17:00,MoneyGram,Q1944412
73050582,moneygram,SOKNA,,STUENG SAEN,,,KH,+855 12 927 350,,Mo-Su 07:00-17:00,MoneyGram,Q1944412
73050993,moneygram,SOMPHORS SREYMAB,,STUENG SAEN,,,KH,+855 17 414 341,,Mo-Su 07:00-17:00,MoneyGram,Q1944412
73050812,moneygram,VANN SAAVIN,,STUENG SAEN,,,KH,+855 89 994 538,,Mo-Su 07:00-17:00,MoneyGram,Q1944412
73051044,moneygram,WING SA SATASS,,STUENG SAEN,,,KH,+855 92 490 443,,Mo-Su 07:00-17:00,MoneyGram,Q1944412
73097118,moneygram,POM SAROEUNG,,STUENG SAEN,,,KH,+855 89 582 331,,Mo-Su 07:00-17:00,MoneyGram,Q1944412
73100160,moneygram,RY SAVUN,,STUENG SAEN,,,KH,+855 61 242 009,,Mo-Su 07:00-17:00,MoneyGram,Q1944412
73189534,moneygram,HANG BONNY,,STUENG SAEN,,,KH,+855 12 469 063,,Mo-Su 07:00-17:00,MoneyGram,Q1944412
73188629,moneygram,SOK MEARDEY,,STUENG SAEN,,,KH,+855 12 642 508,,Mo-Su 07:00-17:00,MoneyGram,Q1944412
