Ref,Spider,Name,Address,City,State,Zipcode,Country,Phone,Website,Hours,Brand,WikiData
https://www.academy.com/storelocator/#8745438,academy_us,Academy Sports + Outdoors,,Overland Park,KS,,US,+1 913-227-1600,https://www.academy.com/storelocator/kansas/overland-park/store-0187,Mo-Th 09:00-21:00; Fr 09:00-22:00; Sa 08:00-22:00; Su 09:00-21:00,Academy Sports + Outdoors,Q4671380
https://stores.advanceautoparts.com/ks/lenexa/12310-w-95th-st,advance_auto_parts_us,Advance Auto Parts,,Lenexa,KS,,US,+1 913-599-5553,https://stores.advanceautoparts.com/ks/lenexa/12310-w-95th-st,Mo-Sa 07:30-21:00; Su 09:00-20:00,Advance Auto Parts,Q4686051
128585,asics_us,Academy Sports + Outdoors,9781 Quivira Rd,Overland Park,KS,,US,+1 913-227-1600,,,asics,Q327247
4495,autozone_us,AutoZone Auto Parts Lenexa,,Lenexa,KS,,US,+1 913-218-3713,https://www.autozone.com/locations/ks/lenexa/12800-w-87th-st-pkwy.html,Mo-Sa 07:30-20:00; Su 09:00-19:00,AutoZone,Q4826087
https://locators.bankofamerica.com/ks/overlandpark/atm-overland-park-104123.html,bankofamerica,Bank of America Walk-Up ATM | Overland Park Regional Medical Center,,Overland Park,KS,,US,+1 844-401-8500,https://locators.bankofamerica.com/ks/overlandpark/atm-overland-park-104123.html,,Bank of America,Q487907
https://stores.bestbuy.com/ks/overland-park/9301-quivira-rd-39.html,bestbuy,Best Buy Oak Park,,Overland Park,KS,,US,+1 913-894-0055,https://stores.bestbuy.com/ks/overland-park/9301-quivira-rd-39.html,,Best Buy,Q533415
203460,bluerhino,CASEY'S GENERAL STORE #3672,,LENEXA,KS,,US,+1 913-324-1531,,,Blue Rhino,Q65681213
178261,bluerhino,Kwik Shop #782,,Lenexa,KS,,US,+1 913-782-3856,,,Blue Rhino,Q65681213
204789,bluerhino,Lenexa HyVee C-Store #1383,,Lenexa,KS,,US,+1 913-307-0070,,,Blue Rhino,Q65681213
190014,bluerhino,Minit Mart #768,,Lenexa,KS,,US,+1 913-338-3322,,,Blue Rhino,Q65681213
225704,bluerhino,Casey's General Store #4349,,Lenexa,KS,,US,+1 913-438-6655,,,Blue Rhino,Q65681213
197170,bluerhino,APMA & Company,,Lenexa,KS,,US,+1 913-626-5598,,,Blue Rhino,Q65681213
67386180187036621500100000000000,bp,Amoco,,Lenexa,KS,,US,+1 913-955-2473,,24/7,BP,Q152057
//locations.carters.com/ks/lenexa/carters-lenexa-ks,carters_us,Carter's Lenexa,,Lenexa,KS,,US,+1 913-495-9405,https://locations.carters.com/ks/lenexa/carters-lenexa-ks,Mo-Sa 10:00-19:00; Su 11:00-18:00,Carter's,Q5047083
25743230,chase_us,DRIVE UP ISLAND - 828618,,LENEXA,KS,,US,+1 800-935-9935,https://locator.chase.com/ks/lenexa/12804-w-87th-street-pkwy,,Chase,Q524629
ks_lenexa_12150-w-95th-st,chipotle, ,,Lenexa,KS,,US,+1 913-492-4610,https://locations.chipotle.com/ks/lenexa/12150-w-95th-st,,Chipotle,Q465751
47786,citi,ATM CVS,,Lenexa,KS,,US,,,,Citibank,Q857063
33918,citi,ATM ACADEMY BANK,,Lenexa,KS,,US,,,,Citibank,Q857063
33917,citi,ATM ACADEMY BANK,,Lenexa,KS,,US,,,,Citibank,Q857063
33919,citi,ATM ACADEMY BANK,,Lenexa,KS,,US,,,,Citibank,Q857063
46315,citi,ATM Costco,,Lenexa,KS,,US,,,,Citibank,Q857063
63643,citi,ATM LANDMARK NATIONAL BANK,,Lenexa,KS,,US,,,,Citibank,Q857063
13733 W. 108th StreetLenexaKS,clean_harbors,Clean Harbors,,Lenexa,KS,,US,+1 913-491-4051,,,Clean Harbors,Q5130494
763ce762-7df8-4061-a531-0ae4719264d6,concentra_us,Lenexa,,Lenexa,KS,,US,,https://www.concentra.com/urgent-care-centers/kansas/kansas-city/lenexa-urgent-care/,,Concentra,Q5158304
,credit_union_us,Mainstreet CU,,Lenexa,KS,,US,+1 888-395-1010,,Mo-Fr 09:00-05:30; Sa 09:00-12:30,,
6345,dominos_pizza_us,Domino's Pizza,,Overland Park,KS,,US,+1 913-894-4144,https://pizza.dominos.com/kansas/overland-park/11036-quivira,Mo-Th 10:30-24:00; Fr-Sa 10:30-01:00; Su 10:30-24:00,Domino's,Q839466
Oak Park Commons,dsw,DSW,,Lenexa,KS,,US,+1 913-310-0063,https://stores.dsw.com/usa/ks/lenexa/dsw-designer-shoe-warehouse-oak-park-commons.html,Mo-Sa 10:00-20:00; Su 11:00-18:00,Designer Shoe Warehouse,Q5206207
352265,dunkin_us,Dunkin',,Lenexa,KS,,US,+1 913-310-9900,https://locations.dunkindonuts.com/en/ks/lenexa/12075-w-87th-st-parkway/352265,Mo-Su 05:00-20:00,Dunkin',Q847743
https://www.edwardjones.com/us-en/financial-advisor/jeremiah-wright,edwardjones,Jeremiah Wright,,Lenexa,KS,,US,+1 913-310-0316,https://www.edwardjones.com/us-en/financial-advisor/jeremiah-wright,Mo-Th 08:00-16:00; Fr 08:00-15:00,Edward Jones,Q5343830
520929,eg_america_us,Minit Mart,,Lenexa,KS,,US,+1 913-338-3322,https://www.minitmart.com/find-us/generic-store-page/?id=600768,,Minit Mart,Q18154470
3908,eightyfour_lumber_us,LENEXA,,LENEXA,KS,,US,+1 913-888-8488,https://www.84lumber.com/store-locator/store-detail/?storeId=3908,Mo-Fr 07:00-17:00; Sa 08:00-12:00,84 Lumber,Q4644779
E10506,enterprise,Lenexa,,Lenexa,KS,,US,+1 913-894-0400,,,Enterprise Rent-A-Car,Q17085454
6176,extra_space_storage,Lenexa Self Storage at 10800 Pflumm Rd,,Lenexa,KS,,US,+1 913-270-8140,https://www.extraspace.com/storage/facilities/us/kansas/lenexa/6176/,Mo-Fr 09:30-18:00; Sa 09:00-17:30,Extra Space Storage,Q5422162
16365,firestone_auto_care,Firestone Complete Auto Care,,Lenexa,KS,,US,+1 913-396-6720,https://local.firestonecompleteautocare.com/kansas/lenexa/12380-w-95th-st/,,Firestone,Q420837
9448,fresenius_kidney_care_us,Fresenius Kidney Care Lenexa,,Lenexa,KS,,US,+1 800-881-5101,https://www.freseniuskidneycare.com/dialysis-centers/kansas/9448,Mo 05:00-16:00; We 05:00-16:00; Fr 05:00-16:00,,
0674,gamestop_us,Orchard Corners,,Lenexa,KS,,US,+1 913-438-3636,https://www.gamestop.com/search/?store=0674,Mo-Th 12:00-20:00; Fr-Sa 12:00-21:00; Su 11:00-19:00,GameStop,Q202210
https://salons.greatclips.com/us/ks/lenexa/14904-w-87th-st-pkwy,greatclips,Great Clips,,Lenexa,KS,,US,+1 913-888-7447,https://salons.greatclips.com/us/ks/lenexa/14904-w-87th-st-pkwy,Mo-Fr 09:00-20:00; Sa-Su 09:00-17:00,Great Clips,Q5598967
16576,h_r_block,H&R Block,,Lenexa,KS,,US,+1 913-492-2091,https://www.hrblock.com/local-tax-offices/kansas/lenexa/oak-park-commons/16576/,,H&R Block,Q5627799
16865,h_r_block,H&R Block,,Lenexa,KS,,US,+1 913-541-0029,https://www.hrblock.com/local-tax-offices/kansas/lenexa/westchester-square-shpg-ctr/16865/,,H&R Block,Q5627799
https://office.jacksonhewitt.com/#27575029,jackson_hewitt,Jackson Hewitt,,Lenexa,KS,,US,+1 913-599-1099,https://office.jacksonhewitt.com/tax-preparation-services-locations/en/ks/lenexa/14914-w-87th-st-pkwy/18404,Mo-Fr 10:00-18:00; Sa 09:00-17:00; Su 11:00-16:00,Jackson Hewitt,Q6117132
https://locations.jimmyjohns.com/ks/lenexa/sandwiches-1990.html,jimmy_johns,Jimmy John's,,Lenexa,KS,,US,+1 913-601-3979,https://locations.jimmyjohns.com/ks/lenexa/sandwiches-1990.html,,Jimmy John's,Q1689380
https://locations.kfc.com/#11248577,kfc,Chicken Nuggets Near Lenexa,,Lenexa,KS,,US,,https://locations.kfc.com/ks/lenexa/9564-quivira-rd/chickennugget,Mo-Su 10:30-22:00,KFC,Q524757
https://locations.massageenvy.com/#1773501,massage_envy,Massage Envy Lenexa/Shawnee,,Lenexa,KS,,US,+1 913-888-3689,https://locations.massageenvy.com/kansas/lenexa/13224-w-87th-st.html,Mo-Fr 09:00-21:00; Sa 09:00-20:00; Su 10:00-18:00,Massage Envy,Q10327170
18201,mattress_firm_us,Mattress Firm Lenexa,,Lenexa,KS,,US,+1 913-541-2545,https://www.mattressfirm.com/en-us/stores/ks/lenexa/009035/,,Mattress Firm,Q6791878
5166,michaels,KC-LENEXA,,Lenexa,KS,,US,+1 913-914-4220,https://locations.michaels.com/ks/lenexa/5166,Mo-Sa 09:00-21:00; Su 10:00-19:00,Michaels,Q6835667
https://stores.nordstromrack.com/#9398332,nordstrom_rack,Nordstrom Rack  Orchard Corners Lenexa,,Lenexa,KS,,US,+1 913-553-6242,https://stores.nordstromrack.com/us/ks/lenexa/9540-quivira-rd,Mo-Sa 10:00-21:00; Su 11:00-18:00,Nordstrom Rack,Q21463374
https://locations.oreillyauto.com/ks/lenexa/check-engine-light-testing-1214.html,oreilly,Your Lenexa O'Reilly Auto Parts Store,,Lenexa,KS,,US,+1 913-888-7101,https://locations.oreillyauto.com/ks/lenexa/check-engine-light-testing-1214.html,Mo-Sa 07:30-22:00; Su 08:00-20:00,O'Reilly Auto Parts,Q7071951
https://locations.oreillyauto.com/ks/lenexa/wiper-installation-1214.html,oreilly,Your Lenexa O'Reilly Auto Parts Store,,Lenexa,KS,,US,+1 913-888-7101,https://locations.oreillyauto.com/ks/lenexa/wiper-installation-1214.html,Mo-Sa 07:30-22:00; Su 08:00-20:00,O'Reilly Auto Parts,Q7071951
https://locations.oreillyauto.com/ks/lenexa/battery-testing-1214.html,oreilly,Your Lenexa O'Reilly Auto Parts Store,,Lenexa,KS,,US,+1 913-888-7101,https://locations.oreillyauto.com/ks/lenexa/battery-testing-1214.html,Mo-Sa 07:30-22:00; Su 08:00-20:00,O'Reilly Auto Parts,Q7071951
https://locations.oreillyauto.com/ks/lenexa/autopartes-1214.html,oreilly,Tu tienda O'Reilly Auto Parts en Lenexa,,Lenexa,KS,,US,+1 913-888-7101,https://locations.oreillyauto.com/ks/lenexa/autopartes-1214.html,Mo-Sa 07:30-22:00; Su 08:00-20:00,O'Reilly Auto Parts,Q7071951
https://www.orkin.com/locations/kansas-ks/lenexa-pest-control/branch-788,orkin_us,Orkin,,Lenexa,KS,,US,+1 913-222-7300,https://www.orkin.com/locations/kansas-ks/lenexa-pest-control/branch-788,,Orkin,Q7102943
//locations.oshkosh.com/ks/lenexa/oshkosh-lenexa-ks,oshkosh_us,Oshkosh B'gosh Lenexa,,Lenexa,KS,,US,+1 913-495-9405,https://locations.oshkosh.com/ks/lenexa/oshkosh-lenexa-ks,Mo-Sa 10:00-19:00; Su 11:00-18:00,OshKosh B'gosh,Q1417347
https://locations.outback.com/#15502167,outbacksteakhouse,Outback Steakhouse,,Overland Park,KS,,US,+1 913-894-5115,https://locations.outback.com/kansas/overland-park/9501-quivira-drive,Mo-Th 11:00-21:30; Fr-Sa 11:00-22:30; Su 11:00-21:00,Outback Steakhouse,Q1064893
111966,pandaexpress,95th & Quivera,,Lenexa,KS,,US,+1 913-599-6111,https://www.pandaexpress.com/locations/ks/lenexa/12210-west-95th-street,Mo-Th 10:00-21:00; Fr-Sa 10:00-21:30; Su 10:00-21:00,Panda Express,Q1358690
https://locations.papamurphys.com/#15430160,papamurphys,Pizza Takeout & Delivery,,Lenexa,KS,,US,+1 913-894-5800,https://locations.papamurphys.com/ks/lenexa/14912-west-87th-street-parkway,Mo-Fr 10:30-20:00; Sa-Su 10:30-19:00,Papa Murphy's,Q7132349
0000893767,phillips_66_conoco_76,MINIT MART EG 768,,LENEXA,KS,,US,+1 913-338-3322,,,Phillips 66,Q1656230
ks_lenexa_13630-w-87th-st,pizza_hut_us,13630 W. 87th St.,,Lenexa,KS,,US,+1 913-894-1051,https://locations.pizzahut.com/ks/lenexa/13630-w-87th-st,,Pizza Hut,Q191615
restaurant_241576,popeyes_us_fr,Popeyes,"9460 Quivira Rd Lenexa, Kansas 66215 - USA",Lenexa,KS,,US,+1 913-428-0191,https://www.popeyes.com/store-locator/store/restaurant_241576,Mo-Su 10:00-22:00,Popeyes,Q1330910
ace-westlake-hardware-39074,ppgpaints,Ace Westlake Hardware,,"Lenexa, ",KS,,US,,https://www.ppgpaints.com/store-locator/us/kansas/lenexa-paint-stores/ace-westlake-hardware-39074,,PPG Paints,Q83891559
https://www.publicstorage.com/self-storage-ks-lenexa/5650.html,public_storage_us,Public Storage,,Lenexa,KS,,US,+1 913-274-1169,https://www.publicstorage.com/self-storage-ks-lenexa/5650.html,,Public Storage,Q1156045
https://www.publicstorage.com/self-storage-ks-lenexa/6053.html,public_storage_us,Public Storage,,Lenexa,KS,,US,+1 913-717-0249,https://www.publicstorage.com/self-storage-ks-lenexa/6053.html,,Public Storage,Q1156045
https://www.publicstorage.com/self-storage-ks-lenexa/987.html,public_storage_us,Public Storage,,Lenexa,KS,,US,+1 913-624-9117,https://www.publicstorage.com/self-storage-ks-lenexa/987.html,,Public Storage,Q1156045
https://locations.quiktrip.com/#23007585,quiktrip_us,QuikTrip Store #296 12355 W 95th St,,Lenexa,KS,,US,+1 913-748-2025,https://locations.quiktrip.com/ks/lenexa/12355-w-95th-st,24/7,QuikTrip,Q7271953
https://locations.quiktrip.com/#16004248,quiktrip_us,QuikTrip Store #235 11070 Pflumm Rd,,Lenexa,KS,,US,+1 913-339-9236,https://locations.quiktrip.com/ks/lenexa/11070-pflumm-rd,24/7,QuikTrip,Q7271953
https://stores.saloncentric.com/#48409468,salon_centric_us,SalonCentric,,,KS,,US,+1 913-599-6464,https://stores.saloncentric.com/ks/lenexa/4617,Mo 08:00-18:30; Tu-Fr 08:00-18:00; Sa 08:30-16:00,SalonCentric,Q124339481
8208,sams_club,Lenexa Sam's Club,,Lenexa,KS,,US,+1 913-894-0084,https://www.samsclub.com/club/lenexa-ks-sams-club/8208,Mo 10:00-20:00; Sa 09:00-20:00; Su 10:00-18:00,Sam's Club,Q1972120
8147754745412844745,sleep_number_us,Sleep Number,,Lenexa,KS,,US,,https://www.sleepnumber.com/stores/ks/lenexa/11916-w-95th-street,Mo-Tu 10:00-20:00; We-Th 10:00-19:00; Fr-Sa 10:00-20:00; Su 11:00-19:00,Sleep Number,Q7447640
https://restaurants.subway.com/#14916220,subway,Subway Westchester Square Shopping Cn,,Lenexa Johnson,KS,,US,+1 913-495-9959,https://restaurants.subway.com/united-states/ks/lenexa/13228-w-87th-st-pkwy,Mo-Su 09:00-22:00,Subway,Q244457
https://locations.tacobell.com/#6141615,taco_bell,Taco Bell,,Lenexa,KS,,US,+1 913-599-1309,https://locations.tacobell.com/ks/lenexa/9600-quivira-rd-.html,Mo 07:00-01:00; Tu 07:00-00:30; We-Su 07:00-01:00,Taco Bell,Q752941
https://locations.tacobell.com/#6146708,taco_bell,Taco Bell,,Lenexa,KS,,US,+1 913-492-5513,https://locations.tacobell.com/ks/lenexa/12291-w-87th-st.html,Mo-Th 07:00-01:00; Fr-Sa 07:00-02:00; Su 07:00-01:00,Taco Bell,Q752941
28837,tjx,Lenexa,9650 Quivira Rd,Lenexa,KS,,US,+1 913-438-9416,,Mo-Sa 09:30-21:30; Su 10:00-20:00,HomeGoods,Q5887941
08211,tjx,Lenexa,9650 Quiviura Rd,Lenexa,KS,,US,+1 913-438-9416,,Mo-Sa 09:30-21:30; Su 10:00-20:00,TJ Maxx,Q10860683
4B87,tmobile_us,Sam's Club Lenexa KS,,Lenexa,KS,,US,+1 913-203-2043,https://www.t-mobile.com/store-locator/ks/lenexa/sams-club-lenexa-ks,,T-Mobile,Q3511885
https://www.ubreakifix.com/locations/lenexa,ubreakifix,uBreakiFix Lenexa,,Lenexa,KS,,US,+1 913-674-0995,https://www.ubreakifix.com/locations/lenexa,Tu-Sa 10:00-19:00,uBreakiFix,Q53685733
1435574,usps,LENEXA,,LENEXA,KS,,US,+1 913-888-0448,,Mo-Fr 08:30-17:00; Sa 08:30-13:00,United States Postal Service,Q668687
6621500057,usps_collection_boxes,USPS COLLECTION BOX - BLUE BOX,14610 W 112TH ST,SHAWNEE MISSION,KS,,US,,,,United States Postal Service,Q668687
6621500048,usps_collection_boxes,USPS COLLECTION BOX - BLUE BOX,10610 SUMMIT ST,SHAWNEE MISSION,KS,,US,,,,United States Postal Service,Q668687
6621500020,usps_collection_boxes,USPS COLLECTION BOX - BLUE BOX,15001 W 101ST TER,SHAWNEE MISSION,KS,,US,,,,United States Postal Service,Q668687
6621500034,usps_collection_boxes,USPS COLLECTION BOX - BLUE BOX,10600 QUIVIRA RD,SHAWNEE MISSION,KS,,US,,,,United States Postal Service,Q668687
6621500010,usps_collection_boxes,USPS COLLECTION BOX - BLUE BOX,14600 W 100TH ST,SHAWNEE MISSION,KS,,US,,,,United States Postal Service,Q668687
6621500009,usps_collection_boxes,USPS COLLECTION BOX - BLUE BOX,14600 W 100TH ST,SHAWNEE MISSION,KS,,US,,,,United States Postal Service,Q668687
6621500044,usps_collection_boxes,USPS COLLECTION BOX - BLUE BOX,10000 MARSHALL DR,SHAWNEE MISSION,KS,,US,,,,United States Postal Service,Q668687
6621500060,usps_collection_boxes,USPS COLLECTION BOX - BLUE BOX,10000 MARSHALL DR,SHAWNEE MISSION,KS,,US,,,,United States Postal Service,Q668687
6621500031,usps_collection_boxes,USPS COLLECTION BOX - BLUE BOX,13610 W 95TH ST,SHAWNEE MISSION,KS,,US,,,,United States Postal Service,Q668687
6621500025,usps_collection_boxes,USPS COLLECTION BOX - BLUE BOX,13801 SANTA FE TRAIL DR,SHAWNEE MISSION,KS,,US,,,,United States Postal Service,Q668687
6621500024,usps_collection_boxes,USPS COLLECTION BOX - BLUE BOX,13801 SANTA FE TRAIL DR,SHAWNEE MISSION,KS,,US,,,,United States Postal Service,Q668687
6621500028,usps_collection_boxes,USPS COLLECTION BOX - BLUE BOX,12345 W 95TH ST,SHAWNEE MISSION,KS,,US,,,,United States Postal Service,Q668687
6621500050,usps_collection_boxes,USPS COLLECTION BOX - BLUE BOX,15000 W 87TH STREET PKWY,SHAWNEE MISSION,KS,,US,,,,United States Postal Service,Q668687
6621500038,usps_collection_boxes,USPS COLLECTION BOX - BLUE BOX,13230 W 87TH STREET PKWY,SHAWNEE MISSION,KS,,US,,,,United States Postal Service,Q668687
6621500003,usps_collection_boxes,USPS COLLECTION BOX - BLUE BOX,9601 DICE LN,SHAWNEE MISSION,KS,,US,,,,United States Postal Service,Q668687
6621500040,usps_collection_boxes,USPS COLLECTION BOX - BLUE BOX,8820 MONROVIA ST,SHAWNEE MISSION,KS,,US,,,,United States Postal Service,Q668687
6621500053,usps_collection_boxes,USPS COLLECTION BOX - PO LOBBY,8820 MONROVIA ST,SHAWNEE MISSION,KS,,US,,,,United States Postal Service,Q668687
6621500054,usps_collection_boxes,USPS COLLECTION BOX - APC,8820 MONROVIA ST,SHAWNEE MISSION,KS,,US,,,,United States Postal Service,Q668687
6621500067,usps_collection_boxes,USPS COLLECTION BOX - PO LOBBY,8820 MONROVIA ST,SHAWNEE MISSION,KS,,US,,,,United States Postal Service,Q668687
6621500006,usps_collection_boxes,USPS COLLECTION BOX - BLUE BOX,7900 QUIVIRA RD,SHAWNEE MISSION,KS,,US,,,,United States Postal Service,Q668687
overlandpark_oil-change-050100,valvoline_instant_oil_change,Valvoline,9531 West 87th Street ,Overland Park,KS,,US,+1 913-385-1266,https://store.vioc.com/ks/overlandpark/oil-change-050100.html,,Valvoline Instant Oil Change,Q7912852
,visa,,,LENEXA,KS,,US,,,,,
,visa,,,LENEXA,KS,,US,,,,,
,visa,,,KANSAS,KS,,US,,,,,
,visa,,,LENEXA,KS,,US,,,,,
,visa,,,LENEXA,KS,,US,,,,,
,visa,,,OVERLAND PARK,KS,,US,,,,,
,visa,,,LENEXA,KS,,US,,,,,
,visa,,,LENEXA,KS,,US,,,,,
,visa,,,LENEXA,KS,,US,,,,,
,visa,,,LENEXA,KS,,US,,,,,
,visa,,,LENEXA,KS,,US,,,,,
,visa,,,LENEXA,KS,,US,,,,,
,visa,,,LENEXA,KS,,US,,,,,
,visa,,,LENEXA,KS,,US,,,,,
,visa,,,LENEXA,KS,,US,,,,,
,visa,,,LENEXA,KS,,US,,,,,
,visa,,,LENEXA,KS,,US,,,,,
,visa,,,LENEXA,KS,,US,,,,,
,visa,,,LENEXA,KS,,US,,,,,
,visa,,,LENEXA,KS,,US,,,,,
,visa,,,LENEXA,KS,,US,,,,,
,visa,,,LENEXA,KS,,US,,,,,
,visa,,,LENEXA,KS,,US,,,,,
,visa,,,LENEXA,KS,,US,,,,,
,visa,,,LENEXA,KS,,US,,,,,
,visa,,,LENEXA,KS,,US,,,,,
,visa,,,LENEXA,KS,,US,,,,,
,visa,,,LENEXA,KS,,US,,,,,
,visa,,,LENEXA,KS,,US,,,,,
,visa,,,LENEXA,KS,,US,,,,,
,visa,,,LENEXA,KS,,US,,,,,
,visa,,,LENEXA,KS,,US,,,,,
,visa,,,INDEPENDENCE,KS,,US,,,,,
,visa,,,LENEXA,KS,,US,,,,,
,visa,,,LENEXA,KS,,US,,,,,
,visa,,,LENEXA,KS,,US,,,,,
,visa,,,LENEXA,KS,,US,,,,,
,visa,,,LENEXA,KS,,US,,,,,
12000__W__95TH__ST_LENEXA_KS_66215,wellsfargo,Wells Fargo,12000 W 95TH ST,LENEXA,KS,,US,+1 913-888-8220,https://www.wellsfargo.com/locator/bank/12000__W__95TH__ST_LENEXA_KS_66215/,Mo-Fr 09:00-17:00,Wells Fargo,Q744149
cdb2fc04375f66b113bd082008ecff9b,western_union,QUIKTRIP #296,,Lenexa,KS,,US,+1 913-748-2025,https://location.westernunion.com/us/ks/lenexa/cdb2fc04375f66b113bd082008ecff9b,,Western Union,Q861042
4c5a5b3f9d012d65d1503e23bfe7180b,western_union,ADVANCE AMERICA #04157,,Lenexa,KS,,US,+1 913-495-9715,https://location.westernunion.com/us/ks/lenexa/4c5a5b3f9d012d65d1503e23bfe7180b,Mo 10:00-18:00; Tu 10:00-16:00; We-Fr 10:00-18:00; Sa 09:00-12:00,Western Union,Q861042
0ccbbbaa5823985f292e02f01d19b366,western_union,HY-VEE FOOD STORE #1383,,Lenexa,KS,,US,+1 913-438-8308,https://location.westernunion.com/us/ks/lenexa/0ccbbbaa5823985f292e02f01d19b366,Mo-Su 07:30-21:00,Western Union,Q861042
