Ref,Spider,Name,Address,City,State,Zipcode,Country,Phone,Website,Hours,Brand,WikiData
MX-1104,anytime_fitness,Anytime Fitness,,Puebla,Puebla,,MX,+52 222 300 7826,https://anytimefitness.com.mx/club/mx-1104/puebla-puebla-72450/,,Anytime Fitness,Q4778364
https://locations.michaelkors.com/mexico/puebla/puebla/boulevard-del-nino-poblano-no--2510--local-11-pb.html,michaelkors,Michael Kors Puebla,,Puebla,Puebla,,MX,+52 222 273 8833,https://locations.michaelkors.com/mexico/puebla/puebla/boulevard-del-nino-poblano-no--2510--local-11-pb.html,Mo-Su 11:00-18:00,Michael Kors,Q19572998
https://locations.michaelkors.com/fr/mexico/puebla/puebla/boulevard-del-nino-poblano-no--2510--local-11-pb.html,michaelkors,Michael Kors Puebla,,Puebla,Puebla,,MX,+52 222 273 8833,https://locations.michaelkors.com/fr/mexico/puebla/puebla/boulevard-del-nino-poblano-no--2510--local-11-pb.html,Mo-Su 11:00-18:00,Michael Kors,Q19572998
,visa,,,PUEBLA,PUEBLA,,MX,,,,,
,visa,,,HEROICA PUEBLA DE ZARAGOZA,PUEBLA,,MX,,,,,
,visa,,,PUEBLA,PUEBLA,,MX,,,,,
,visa,,,HEROICA PUEBLA DE ZA,PUEBLA,,MX,,,,,
,visa,,,PUEBLA,PUEBLA,,MX,,,,,
,visa,,,PUEBLA,PUEBLA,,MX,,,,,
,visa,,,PUEBLA,PUEBLA,,MX,,,,,
,visa,,,HEROICA PUEBLA DE ZA,PUEBLA,,MX,,,,,
,visa,,,PUEBLA,PUEBLA,,MX,,,,,
5570b76965df3556d80fb91d3b5104f0,western_union,ELEKTRA 8329,,Puebla,PUEBLA,,MX,+52 55 1720 8177,https://location.westernunion.com/mx/puebla/puebla/5570b76965df3556d80fb91d3b5104f0,Mo-Su 09:00-21:00,Western Union,Q861042
cbef682dbcd107cfe3ecf319a922bcf1,western_union,ELEKTRA 8329,,Puebla,PUEBLA,,MX,+52 55 1720 8177,https://location.westernunion.com/mx/puebla/puebla/cbef682dbcd107cfe3ecf319a922bcf1,Mo-Su 09:00-21:00,Western Union,Q861042
0eabd42cfc3e7dfe18583b0d0f9e4001,western_union,ELEKTRA 8329,,Puebla,PUEBLA,,MX,+52 55 1720 8177,https://location.westernunion.com/mx/puebla/puebla/0eabd42cfc3e7dfe18583b0d0f9e4001,Mo-Su 09:00-20:00,Western Union,Q861042
c46b66820f9d24da27d5ca16e45b5d16,western_union,AURRERA MAYORAZGO 3796,,Puebla,PUEBLA,,MX,+52 800 833 4700,https://location.westernunion.com/mx/puebla/puebla/c46b66820f9d24da27d5ca16e45b5d16,Mo-Su 07:00-23:00,Western Union,Q861042
70f88810163ecc57223c92a55af914c0,western_union,AURRERA MAYORAZGO 3796,,Puebla,PUEBLA,,MX,+52 800 833 4700,https://location.westernunion.com/mx/puebla/puebla/70f88810163ecc57223c92a55af914c0,Mo-Su 07:00-23:00,Western Union,Q861042
be28650828799de8be4d3d5fcb59eb82,western_union,AURRERA MAYORAZGO 3796,,Puebla,PUEBLA,,MX,+52 800 833 4700,https://location.westernunion.com/mx/puebla/puebla/be28650828799de8be4d3d5fcb59eb82,Mo-Su 07:00-23:00,Western Union,Q861042
34cd0a1830ac4a4505a3985b2771ad41,western_union,OXXO CLUB DE GOLF PBF,,Puebla,PUEBLA,,MX,+52 81 8389 2121,https://location.westernunion.com/mx/puebla/puebla/34cd0a1830ac4a4505a3985b2771ad41,Mo-Su 08:00-22:00,Western Union,Q861042
a82a19173eed7a61bfb7f87353e29bab,western_union,OXXO CLUB DE GOLF PBF,,Puebla,PUEBLA,,MX,+52 81 8389 2121,https://location.westernunion.com/mx/puebla/puebla/a82a19173eed7a61bfb7f87353e29bab,Mo-Su 08:00-22:00,Western Union,Q861042
5d99f1e81014e5c418ea576bcf1f44bf,western_union,OXXO CLUB DE GOLF PBF,,Puebla,PUEBLA,,MX,+52 81 8389 2121,https://location.westernunion.com/mx/puebla/puebla/5d99f1e81014e5c418ea576bcf1f44bf,Mo-Su 08:00-22:00,Western Union,Q861042
796bbe6b164ce17c3a0d6742dbc4488b,western_union,FARM GUAD PROLOG 11 SUR,,Puebla,PUEBLA,,MX,+52 800 833 4700,https://location.westernunion.com/mx/puebla/puebla/796bbe6b164ce17c3a0d6742dbc4488b,Mo-Su 08:00-20:00,Western Union,Q861042
72cef65eba2f9ddbf0728b6f8914efe6,western_union,FARM GUAD PROLOG 11 SUR,,Puebla,PUEBLA,,MX,+52 800 833 4700,https://location.westernunion.com/mx/puebla/puebla/72cef65eba2f9ddbf0728b6f8914efe6,Mo-Su 08:00-20:00,Western Union,Q861042
cff41fd06d0b31aff8058b083dccdf0e,western_union,FARM GUAD PROLOG 11 SUR,,Puebla,PUEBLA,,MX,+52 800 833 4700,https://location.westernunion.com/mx/puebla/puebla/cff41fd06d0b31aff8058b083dccdf0e,Mo-Su 08:00-20:00,Western Union,Q861042
50fa36aad1fbf1e6558c6dc567e0907d,western_union,OXXO SAN JOSE PBF,,Puebla,PUEBLA,,MX,+52 81 8389 2121,https://location.westernunion.com/mx/puebla/puebla/50fa36aad1fbf1e6558c6dc567e0907d,Mo-Su 08:00-22:00,Western Union,Q861042
8279d09a87f5a1cbaea0d84c97c64a6a,western_union,OXXO SAN JOSE PBF,,Puebla,PUEBLA,,MX,+52 81 8389 2121,https://location.westernunion.com/mx/puebla/puebla/8279d09a87f5a1cbaea0d84c97c64a6a,Mo-Su 08:00-22:00,Western Union,Q861042
a961faecfcc61d9338a4fcc9f08e6cfa,western_union,OXXO SAN JOSE PBF,,Puebla,PUEBLA,,MX,+52 81 8389 2121,https://location.westernunion.com/mx/puebla/puebla/a961faecfcc61d9338a4fcc9f08e6cfa,Mo-Su 08:00-22:00,Western Union,Q861042
fee8e4b5f657656c22d8d80960380106,western_union,OXXO PARAISO PBF,,Puebla,PUEBLA,,MX,+52 81 8389 2121,https://location.westernunion.com/mx/puebla/puebla/fee8e4b5f657656c22d8d80960380106,Mo-Su 08:00-22:00,Western Union,Q861042
5bd8cb5f7bdd0efa595c38e4cae5080f,western_union,OXXO PARAISO PBF,,Puebla,PUEBLA,,MX,+52 81 8389 2121,https://location.westernunion.com/mx/puebla/puebla/5bd8cb5f7bdd0efa595c38e4cae5080f,Mo-Su 08:00-22:00,Western Union,Q861042
799af9c051f7d9c772fd08d153912706,western_union,OXXO PARAISO PBF,,Puebla,PUEBLA,,MX,+52 81 8389 2121,https://location.westernunion.com/mx/puebla/puebla/799af9c051f7d9c772fd08d153912706,Mo-Su 08:00-22:00,Western Union,Q861042
b14e585f870263fa191927adc03e7826,western_union,OXXO NACIONAL PBF,,Puebla,PUEBLA,,MX,+52 81 8389 2121,https://location.westernunion.com/mx/puebla/puebla/b14e585f870263fa191927adc03e7826,Mo-Su 08:00-22:00,Western Union,Q861042
fe894f434f247adde556115f55cb5bb7,western_union,OXXO NACIONAL PBF,,Puebla,PUEBLA,,MX,+52 81 8389 2121,https://location.westernunion.com/mx/puebla/puebla/fe894f434f247adde556115f55cb5bb7,Mo-Su 08:00-22:00,Western Union,Q861042
61942d2451dca2bfdd75f84c8197177c,western_union,OXXO NACIONAL PBF,,Puebla,PUEBLA,,MX,+52 81 8389 2121,https://location.westernunion.com/mx/puebla/puebla/61942d2451dca2bfdd75f84c8197177c,Mo-Su 08:00-22:00,Western Union,Q861042
9f1a103d2490379fae1bb9885067fbb7,western_union,OXXO PATRIMONIO PBF,,Puebla,PUEBLA,,MX,+52 81 8389 2121,https://location.westernunion.com/mx/puebla/puebla/9f1a103d2490379fae1bb9885067fbb7,Mo-Su 08:00-22:00,Western Union,Q861042
89bbe49008b1e4ec679da4bafad1b06d,western_union,OXXO PATRIMONIO PBF,,Puebla,PUEBLA,,MX,+52 81 8389 2121,https://location.westernunion.com/mx/puebla/puebla/89bbe49008b1e4ec679da4bafad1b06d,Mo-Su 08:00-22:00,Western Union,Q861042
7b46e0c46adfdacc61b4958c9904241e,western_union,OXXO PATRIMONIO PBF,,Puebla,PUEBLA,,MX,+52 81 8389 2121,https://location.westernunion.com/mx/puebla/puebla/7b46e0c46adfdacc61b4958c9904241e,Mo-Su 08:00-22:00,Western Union,Q861042
