Ref,Spider,Name,Address,City,State,Zipcode,Country,Phone,Website,Hours,Brand,WikiData
11692518,anatomie,Montage Deer valley,,Park city,UT,,US,+1 435-604-1400,,,Anatomie,Q115608133
12869,asics_us,Christy Sports,7580 Royal St,Deer Valley,UT,,US,+1 435-649-2909,,Mo-Su 08:00-18:00,asics,Q327247
4173,athleta,PARK CITY - MAIN ST,,Park City,UT,,US,+1 435-649-9232,https://athleta.gap.com/stores/ut/park city/athleta-4173.html,Mo-Su 10:00-18:00,Athleta,Q105722424
5382,bluerhino,Smiths Food & Drug 72,,Kimball Junction,UT,,US,+1 435-649-7278,,,Blue Rhino,Q65681213
150007,bluerhino,Smiths Food & Drug 72 - Fuel Site,,Kimball Junction,UT,,US,+1 435-649-7278,,,Blue Rhino,Q65681213
217920,bluerhino,The Market at Park City,,Park City,UT,,US,+1 435-645-7139,,,Blue Rhino,Q65681213
182004,bluerhino,Walgreens #19168,,Park City,UT,,US,+1 435-649-9621,,,Blue Rhino,Q65681213
2039978,chase_us,Park City - New branch,,Park City,UT,,US,+1 435-649-8052,https://locator.chase.com/ut/park-city/1650-park-ave,Mo-Fr 09:00-17:00; Sa 09:00-14:00,Chase,Q524629
351880,chevron,Chevron Station #351880,2010 PARK AVENUE,PARK CITY,UT,,US,+1 435-649-3698,,,Chevron,Q319642
93560,citi,ATM Walgreens,,Park City,UT,,US,,,,Citibank,Q857063
https://www.edwardjones.com/us-en/financial-advisor/joe-cronley,edwardjones,Joe Cronley,,Park City,UT,,US,+1 435-615-2009,https://www.edwardjones.com/us-en/financial-advisor/joe-cronley,Mo-Th 08:30-17:00; Fr 08:30-15:30,Edward Jones,Q5343830
E14713,enterprise,Park City,,Park City,UT,,US,+1 435-655-7277,,,Enterprise Rent-A-Car,Q17085454
https://local.fedex.com/#25200893,fedex,,,Park City,UT,,US,+1 800-463-3339,https://local.fedex.com/en-us/ut/park-city/btfoc,,FedEx,Q459477
FPC-440MSPCU,fjallraven,Fj채llr채ven Park City,,Park City,UT,,US,+1 435-565-6389,http://www.fjallraven.us,,Fj채llr채ven,Q1422481
slcywdt-doubletree-park-city-the-yarrow,hilton,DoubleTree by Hilton Hotel Park City - The Yarrow,,,UT,,US,+1 435-649-7000,https://www.hilton.com/ar/hotels/slcywdt-doubletree-park-city-the-yarrow/,,DoubleTree by Hilton,Q2504643
23999,little_free_library,Hong McDonald #23999 Park City UT,,Park City,UT,,US,,,,Little Free Library,Q6650101
159996,little_free_library,Therese Henderson #159996 Park City UT,,Park City,UT,,US,,,,Little Free Library,Q6650101
69487,little_free_library,Ecker Hill Middle School 2018 NJHS #69487 Park City UT,,Park City,UT,,US,,,,Little Free Library,Q6650101
Main St. Park City,lululemon,Lululemon,"333 Main St, Suite G, Park City, UT, US, 84060",Park City,UT,,US,+1 435-447-4595,https://shop.lululemon.com/stores/us/park-city/mainst,Mo-Sa 10:00-19:00; Su 11:00-18:00,Lululemon,Q6702957
SLCVI,marriott,Marriott's Summit Watch,,Park City,UT,,US,+1 435-647-4100,https://www.marriott.com/SLCVI,,Marriott Vacation Club International,Q6772996
SLCMS,marriott,Marriott's MountainSide,,Park City,UT,,US,+1 435-940-2000,https://www.marriott.com/SLCMS,,Marriott Vacation Club International,Q6772996
SLCSC,marriott,Sheraton Park City,,Park City,UT,,US,+1 435-649-2900,https://www.marriott.com/SLCSC,,Sheraton Hotels and Resorts,Q634831
SLCXR,marriott,The St. Regis Deer Valley,,Park City,UT,,US,+1 435-940-5700,https://www.marriott.com/SLCXR,,St. Regis Hotels & Resorts,Q30715430
65314744,moneygram,THE MARKET AT PARK CITY - #0001,,PARK CITY,UT,,US,+1 435-645-7139,,Mo-Su 07:00-21:00,MoneyGram,Q1944412
https://restaurants.subway.com/#14899291,subway,Subway,,Park City Summit,UT,,US,+1 435-649-0123,https://restaurants.subway.com/united-states/ut/park-city/1400-snow-creek-dr,Mo-Su 08:00-21:00,Subway,Q244457
https://stores.sunglasshut.com/us/ut/park-city/675-main-st,sunglass_hut_1,Sunglass Hut,,Park City,UT,,US,+1 435-252-1086,https://stores.sunglasshut.com/us/ut/park-city/675-main-st,Mo-Sa 11:00-19:00; Su 12:00-18:00,Sunglass Hut,Q136311
1376793,usps,PARK CITY,,PARK CITY,UT,,US,+1 435-655-8037,,Mo-Fr 09:00-17:30; Sa 09:00-13:00,United States Postal Service,Q668687
1376796,usps,OLD TOWN,,PARK CITY,UT,,US,+1 435-655-8037,,Mo-Fr 09:00-17:00; Sa 09:00-13:00,United States Postal Service,Q668687
8406000000,usps_collection_boxes,USPS COLLECTION BOX - BLUE BOX,450 MAIN ST,PARK CITY,UT,,US,,,,United States Postal Service,Q668687
8406000001,usps_collection_boxes,USPS COLLECTION BOX - BLUE BOX,450 MAIN ST,PARK CITY,UT,,US,,,,United States Postal Service,Q668687
8406000002,usps_collection_boxes,USPS COLLECTION BOX - PO LOBBY,450 MAIN ST,PARK CITY,UT,,US,,,,United States Postal Service,Q668687
8406000003,usps_collection_boxes,USPS COLLECTION BOX - PO LOBBY,450 MAIN ST,PARK CITY,UT,,US,,,,United States Postal Service,Q668687
8406000006,usps_collection_boxes,USPS COLLECTION BOX - PO LOBBY,450 MAIN ST,PARK CITY,UT,,US,,,,United States Postal Service,Q668687
,visa,,,PARK CITY,UT,,US,,,,,
,visa,,,PARK CITY,UT,,US,,,,,
,visa,,,PARK CITY,UT,,US,,,,,
,visa,,,PARK CITY,UT,,US,,,,,
,visa,,,PARK CITY,UT,,US,,,,,
,visa,,,PARK CITY,UT,,US,,,,,
,visa,,,PARK CITY,UT,,US,,,,,
,visa,,,PARK CITY,UT,,US,,,,,
,visa,,,PARK CITY,UT,,US,,,,,
,visa,,,PARK CITY,UT,,US,,,,,
,visa,,,PARK CITY,UT,,US,,,,,
,visa,,,PARK CITY,UT,,US,,,,,
,visa,,,PARK CITY,UT,,US,,,,,
,visa,,,PARK CITY,UT,,US,,,,,
,visa,,,PARK CITY,UT,,US,,,,,
,visa,,,PARK CITY,UT,,US,,,,,
,visa,,,PARK CITY,UT,,US,,,,,
,visa,,,PARK CITY,UT,,US,,,,,
,visa,,,PARK CITY,UT,,US,,,,,
,visa,,,PARK CITY,UT,,US,,,,,
,visa,,,PARK CITY,UT,,US,,,,,
,visa,,,PARK CITY,UT,,US,,,,,
,visa,,,PARK CITY,UT,,US,,,,,
,visa,,,PARK CITY,UT,,US,,,,,
,visa,,,PARK CITY,UT,,US,,,,,
,visa,,,PARK CITY,UT,,US,,,,,
,visa,,,PARK CITY,UT,,US,,,,,
,visa,,,PARK CITY,UT,,US,,,,,
,visa,,,PARK CITY,UT,,US,,,,,
,visa,,,PARK CITY,UT,,US,,,,,
,visa,,,PARK CITY,UT,,US,,,,,
,visa,,,PARK CITY,UT,,US,,,,,
,visa,,,PARK CITY,UT,,US,,,,,
,visa,,,PARK CITY,UT,,US,,,,,
,visa,,,PARK CITY,UT,,US,,,,,
,visa,,,PARK CITY,UT,,US,,,,,
,visa,,,PARK CITY,UT,,US,,,,,
,visa,,,PARK CITY,UT,,US,,,,,
,visa,,,PARK CITY,UT,,US,,,,,
,visa,,,PARK CITY,UT,,US,,,,,
,visa,,,PARK CITY,UT,,US,,,,,
,visa,,,PARK CITY,UT,,US,,,,,
,visa,,,PARK CITY,UT,,US,,,,,
,visa,,,PARK CITY,UT,,US,,,,,
,visa,,,PARK CITY,UT,,US,,,,,
,visa,,,PARK CITY,UT,,US,,,,,
,visa,,,PARK CITY,UT,,US,,,,,
,visa,,,PARK CITY,UT,,US,,,,,
,visa,,,PARK CITY,UT,,US,,,,,
,visa,,,PARK CITY,UT,,US,,,,,
,visa,,,KIMBALL JCT.,UT,,US,,,,,
,visa,,,PARK CITY,UT,,US,,,,,
,visa,,,PARK CITY,UT,,US,,,,,
https://www.walgreens.com/locator/walgreens-950+iron+horse+dr-park+city-ut-84060/id=19168,walgreens,Walgreens,,Park City,UT,,US,+1 435-649-9621,https://www.walgreens.com/locator/walgreens-950+iron+horse+dr-park+city-ut-84060/id=19168,Mo-Sa 07:00-23:00; Su 07:00-22:00,Walgreens,Q1591889
1400__KEARNS__BLVD__STE__100_PARK__CITY_UT_84060,wellsfargo,Wells Fargo,1400 KEARNS BLVD STE 100,PARK CITY,UT,,US,+1 435-655-4055,https://www.wellsfargo.com/locator/bank/1400__KEARNS__BLVD__STE__100_PARK__CITY_UT_84060/,Mo-Fr 09:00-17:00,Wells Fargo,Q744149
d68900d76a3256aedbd1e9a22ec7ed56,western_union,WALGREENS #19168,,Park City,UT,,US,+1 435-649-9621,https://location.westernunion.com/us/ut/park-city/d68900d76a3256aedbd1e9a22ec7ed56,Mo-Su 08:00-21:00,Western Union,Q861042
1203,xfinity,Xfinity,,Park City,UT,,US,,https://www.xfinity.com/local/ut/park-city/1890-bonanza-dr--suite-101.html,Mo-Fr 10:00-18:00,Xfinity,Q5151002
