Ref,Spider,Name,Address,City,State,Zipcode,Country,Phone,Website,Hours,Brand,WikiData
860,amcal_au,Amcal+ Pharmacy Leeton,"113 Pine Avenue, Leeton NSW 2705",Leeton,NSW,,AU,+61 2 6953 3602,https://amcal.com.au/store/860/NSW/amcal-plus-pharmacy-leeton/,Mo-Fr 09:00-17:30; Sa 09:00-12:00; Su 00:00-00:00,Amcal,Q63367373
AU-1080,anytime_fitness,Anytime Fitness,,Leeton,NSW,,AU,+61 2 6953 3235,https://anytimefitness.com.au/gyms/au-1080/leeton-nsw-2705/,,Anytime Fitness,Q4778364
RED0005605,australia_post_au,,,WHITTON,NSW,,AU,,,,Australia Post,Q1142936
248524_PO,australia_post_au,WHITTON LPO,,WHITTON,NSW,,AU,+61 2 6955 2640,,,Australia Post,Q1142936
240514_PO,australia_post_au,MURRAMI LPO,,MURRAMI,NSW,,AU,+61 2 6955 2240,,,Australia Post,Q1142936
RED0005607,australia_post_au,,,MURRAMI,NSW,,AU,,,,Australia Post,Q1142936
RED0005604,australia_post_au,,,LEETON,NSW,,AU,,,,Australia Post,Q1142936
RED0005603,australia_post_au,,,LEETON,NSW,,AU,,,,Australia Post,Q1142936
RED0005606,australia_post_au,,,LEETON,NSW,,AU,,,,Australia Post,Q1142936
237649_PO,australia_post_au,LEETON POST SHOP,,LEETON,NSW,,AU,+61 131318,,,Australia Post,Q1142936
RED0005601,australia_post_au,,,LEETON,NSW,,AU,,,,Australia Post,Q1142936
RED0005602,australia_post_au,,,LEETON,NSW,,AU,,,,Australia Post,Q1142936
8796096233495,best_and_less_au,Leeton,"Leeton Centrepoint, Cnr Pine Ave & Maple St, Leeton, New South Wales, 2705",Leeton,NSW,,AU,+61 2 6953 6925,https://www.bestandless.com.au/store/Leeton,Mo-Fr 09:00-17:30; Sa 09:00-14:00; Su 10:00-14:00,Best & Less,Q4896542
2370,bp,BP GOLDEN APPLE SUPER STORE,,LEETON,NSW,,AU,+61 2 6953 2000,,24/7,BP,Q152057
https://www.bridgestone.com.au/stores/nsw/bridgestone-service-centre-leeton,bridgestone_select,Bridgestone Service Centre Leeton,,Leeton,NSW,,AU,+61 2 6953 6666,https://www.bridgestone.com.au/stores/nsw/bridgestone-service-centre-leeton/,Mo-Fr 08:00-17:00; Sa 09:00-24:00,Bridgestone Select Tyre & Auto,Q122420123
33921,cellarbrations_au,CELLARBRATIONS AT GLENLEE CELLARS,,LEETON,NSW,,AU,+61 2 6953 5233,,Mo-Sa 09:15-20:00; Su 10:00-18:00,Cellarbrations,Q109807592
256401,commonwealth_bank_au,Leeton,,Leeton,NSW,,AU,,,,Commonwealth Bank,Q285328
256402,commonwealth_bank_au,Leeton,,Leeton,NSW,,AU,,,,Commonwealth Bank,Q285328
9501242,mcdonalds_qstore,LEETON NSW,,Leeton,NSW,,AU,+61 2 6953 6215,,Mo-Su 05:00-23:00,McDonald's,Q38076
https://www.nationalparks.nsw.gov.au/camping-and-accommodation/campgrounds/yarradda-campgrounds,nsw_national_parks_and_wildlife_service_au,Yarradda campgrounds,,Darlington Point,NSW,,AU,+61 2 6966 8100,https://www.nationalparks.nsw.gov.au/camping-and-accommodation/campgrounds/yarradda-campgrounds,,,
https://www.nationalparks.nsw.gov.au/camping-and-accommodation/campgrounds/cuba-campgrounds,nsw_national_parks_and_wildlife_service_au,Cuba campgrounds,,Whitton,NSW,,AU,+61 2 6966 8100,https://www.nationalparks.nsw.gov.au/camping-and-accommodation/campgrounds/cuba-campgrounds,,,
2184,petstock_au,Petstock Leeton,,Leeton,NSW,,AU,+61 2 6953 2388,https://www.petstock.com.au/pages/store/petstock-leeton,Mo-Fr 08:30-17:30; Sa 08:30-12:30,Petstock,Q106540728
10111039,shell,SHELL LEETON,,LEETON,NSW,,AU,+61 2 6953 8987,https://find.shell.com/au/fuel/10111039-shell-leeton,,Shell,Q110716465
4554,sportspower_au,Leeton,,Leeton,NSW,,AU,+61 2 6953 2250,https://www.sportspower.com.au/pages/sportspower-leeton,Mo-Fr 08:45-17:30; Sa 08:45-12:30; Su 10:00-14:00,SportsPower,Q117747652
,visa,,,WHITTON,NSW,,AU,,,,,
95c966a94060c4c158b678df58d6e8b6,western_union,AUSTRALIA POST,,Leeton,NSW,,AU,+61 1800 501 500,https://location.westernunion.com/au/nsw/leeton/95c966a94060c4c158b678df58d6e8b6,Mo-Fr 09:00-17:00; Sa 09:00-12:30,Western Union,Q861042
140d699cf65d8a6b4756639e3c10fe72,western_union,AUSTRALIA POST,,Whitton,NSW,,AU,+61 1800 501 500,https://location.westernunion.com/au/nsw/whitton/140d699cf65d8a6b4756639e3c10fe72,Mo-Fr 09:00-17:00,Western Union,Q861042
