Ref,Spider,Name,Address,City,State,Zipcode,Country,Phone,Website,Hours,Brand,WikiData
5808,aaa,Houston-The Woodlands,,Conroe,TX,,US,+1 281-465-1520,,,American Automobile Association,Q463436
US517917,adidas,"adidas Store, Shenandoah, Portofino",,Shenandoah,TX,,US,+1 936-363-4063,https://www.adidas.co.uk/storefront/US517917-shenandoah-19075-i-45-south-adidas-store-shenandoah-portofino,,Adidas,Q3895
US518455,adidas,"adidas Store, Shenandoah, Portofino",,Shenandoah,TX,,US,+1 936-363-4063,https://www.adidas.co.uk/storefront/US518455-shenandoah-19075-i-45-south-adidas-store-shenandoah-portofino,,Adidas,Q3895
a81eae73-e11d-e611-80c5-005056aa8521,amf_bowling,Bowlero The Woodlands,,Conroe,TX,,US,+1 281-367-1277,https://www.bowlero.com/location/bowlero-the-woodlands,,Bowlero,Q17102967
50824,asics_us,PGA TOUR Superstore,19075 Interstate 45 N #105,Shenandoah,TX,,US,+1 832-616-4400,,,asics,Q327247
6107,autozone_us,AutoZone Auto Parts Conroe,,Conroe,TX,,US,+1 936-703-1652,https://www.autozone.com/locations/tx/conroe/9639-hwy-242.html,Mo-Sa 07:30-22:00; Su 08:00-21:00,AutoZone,Q4826087
https://www.banfield.com/locations/veterinarians/tx/conroe/wod,banfield_pet_hospital,The Woodlands,,Conroe,TX,,US,+1 936-273-1080,https://www.banfield.com/locations/veterinarians/tx/conroe/wod,Mo-Sa 08:00-18:00; Su 10:00-17:00,Banfield Pet Hospital,Q2882416
BBW01567,bathandbodyworks_us,PORTOFINO SHOPPING CENTER,,SHENANDOAH,TX,,US,+1 936-271-4440,,Mo-Sa 10:00-21:00; Su 11:00-19:00,Bath & Body Works,Q810773
237804,bluerhino,Circle K #2742244,,Oak Ridge North,TX,,US,+1 281-363-3279,,,Blue Rhino,Q65681213
93189,bluerhino,Kwik Serv Food Mart (27328 Woodson RD LLC),,Conroe,TX,,US,+1 281-367-7272,,,Blue Rhino,Q65681213
177372,bluerhino,Express Mart #5 (ZUKA RETAIL),,Conroe,TX,,US,+1 832-299-6784,,,Blue Rhino,Q65681213
190433,bluerhino,Snappy Mart #11 (DMFZ Incorporated),,Conroe,TX,,US,+1 936-321-4004,,,Blue Rhino,Q65681213
181310,bluerhino,Robin Express #4413 (Makfam GP Holdings LLC),,Conroe,TX,,US,+1 281-292-9933,,,Blue Rhino,Q65681213
237802,bluerhino,Circle K #2741922,,Conroe,TX,,US,+1 936-271-4012,,,Blue Rhino,Q65681213
196856,bluerhino,H-E-B #757,,CONROE,TX,,US,+1 936-266-1100,,,Blue Rhino,Q65681213
195179,bluerhino,Bucks Mini Mart #1,,Conroe,TX,,US,+1 936-273-2377,,,Blue Rhino,Q65681213
21471_04,bmw_group,MINI of the Woodlands,,Conroe,TX,,US,+1 936-266-1900,https://www.miniofthewoodlands.com,,Mini,Q116232
41956_1,bmw_group,BMW Motorcycles of The Woodlands,,Shenandoah,TX,,US,+1 936-271-7600,https://www.BMWMotorcyclesofthewoodlands.com,,BMW Motorrad,Q249173
CNROTXYD,builders_firstsource_us,Conroe TX Yard,,Conroe,TX,,US,+1 936-273-2256,https://www.bldr.com/location/conroe/CNROTXYD,Mo-Fr 07:00-17:00,Builders FirstSource,Q27686100
CONRTXMF,builders_firstsource_us,Conroe TX Truss,,Conroe,TX,,US,+1 936-273-2256,https://www.bldr.com/location/houston-truss/CONRTXMF,Mo-Fr 07:00-17:00,Builders FirstSource,Q27686100
CONRTXYD,builders_firstsource_us,Conroe TX Yard - Noth,,Conroe,TX,,US,+1 936-321-6800,https://www.bldr.com/location/conroe-tx-yard---noth/CONRTXYD,Mo-Fr 08:00-17:00,Builders FirstSource,Q27686100
60711,cadillac,BAYWAY CADILLAC OF THE WOODLANDS,,The Woodlands,TX,,US,+1 936-321-6000,https://www.baywaycadillacofthewoodlands.com,Mo-Sa 09:00-20:00,Cadillac,Q27436
TX047-M1-SR2,california_closets_us,California Closets - Conroe,,Conroe,TX,,US,+1 281-719-5031,https://www.locations.californiaclosets.com/california-closets-conroe-64016316e52e,Mo-Sa 10:00-16:00,California Closets,Q5020325
5859,camp_bow_wow,Camp Bow Wow Near The Woodlands Area,,Oak Ridge North,TX,,US,+1 832-482-2299,,,Camp Bow Wow,Q121322343
//locations.carters.com/tx/shenandoah/carters-shenandoah-tx,carters_us,Carter's Shenandoah,,Shenandoah,TX,,US,+1 936-271-5051,https://locations.carters.com/tx/shenandoah/carters-shenandoah-tx,Mo-Sa 10:00-19:00; Su 11:00-18:00,Carter's,Q5047083
https://locations.chuckecheese.com/us/tx/conroe/16790-interstate-45-south,chuckecheese,Chuck E. Cheese,,Conroe,TX,,US,+1 936-271-1550,https://locations.chuckecheese.com/us/tx/conroe/16790-interstate-45-south,Mo-Fr 11:00-21:00; Sa 10:00-22:00; Su 11:00-21:00,Chuck E. Cheese,Q2438391
59164,citi,ATM Heb,,Conroe,TX,,US,,,,Citibank,Q857063
46290,citi,ATM Costco,,Conroe,TX,,US,,,,Citibank,Q857063
12553566,daiso_us,Shenandoah,,Shenandoah,TX,,US,+1 817-472-9080,,Mo-Sa 10:00-21:00; Su 10:00-20:00,Daiso Japan,Q866991
8024,dominos_pizza_us,Domino's Pizza,,Oak Ridge North,TX,,US,+1 832-281-8811,https://pizza.dominos.com/texas/oak-ridge-north/27605-robinson-rd,Mo-Th 10:30-24:00; Fr-Sa 10:30-01:00; Su 10:30-24:00,Domino's,Q839466
"Portofino Shopping Center, Woodlands",dsw,DSW,,Shenandoah,TX,,US,+1 936-271-1990,https://stores.dsw.com/usa/tx/shenandoah/dsw-designer-shoe-warehouse-portofino-shopping-center--woodlands.html,Mo-Sa 10:00-20:00; Su 11:00-19:00,Designer Shoe Warehouse,Q5206207
364254,dunkin_us,Dunkin',,Conroe,TX,,US,,https://locations.dunkindonuts.com/en/tx/conroe/10463-texas-242/364254,Mo-Tu 05:00-20:00; We 05:00-21:00; Th-Fr 05:00-20:00; Sa-Su 06:00-20:00,Dunkin',Q847743
DB658,dutchbros,Hwy 242,,Conroe,TX,,US,,https://locations.dutchbros.com/dutch-bros-coffee-ea2e639dcb43,Mo-Th 05:00-22:00; Fr-Sa 05:00-23:00; Su 05:00-22:00,Dutch Bros. Coffee,Q5317253
17201-i-45-s,einsteinbros,Houston Methodist Hospital The Woodlands Einstein Bros. Bagels,,Shenandoah,TX,,US,+1 936-290-1235,https://locations.einsteinbros.com/us/tx/shenandoah/17201-i-45-s,Mo-Fr 06:00-14:00,Einstein Bros. Bagels,Q5349788
E1067Y,enterprise,Shenandoah,,Shenandoah,TX,,US,+1 936-271-7477,,,Enterprise Rent-A-Car,Q17085454
200330401,exxonmobil,Mobil,,CONROE,TX,,US,,https://www.exxon.com/en/find-station/mobil-conroe-tx-mobil-200330401,24/7,Mobil,Q109676002
200322358,exxonmobil,EXPRESS MART # 5,,OAK RIDGE NORTH,TX,,US,+1 281-719-8426,https://www.exxon.com/en/find-station/exxon-oakridgenorth-tx-expressmart5-200322358,Mo-Th 05:00-23:00; Fr-Sa 05:00-00:00; Su 06:00-23:00,Exxon,Q109675651
200317957,exxonmobil,WINNERS CORNER,,CONROE,TX,,US,+1 936-273-4642,https://www.exxon.com/en/find-station/exxon-conroe-tx-winnerscorner-200317957,24/7,Exxon,Q109675651
https://local.fedex.com/#25201911,fedex,,,Conroe,TX,,US,+1 800-463-3339,https://local.fedex.com/en-us/tx/conroe/i2rnb,,FedEx,Q459477
https://local.fedex.com/#47671663,fedex,FedEx Authorized ShipCenter,,Conroe,TX,,US,+1 936-224-7549,https://local.fedex.com/en-us/tx/conroe/00v24,,FedEx,Q459477
https://locations.fivebelow.com/tx/shenandoah/19075-i-45-s-suite-108,five_below,Five Below The Woodlands,,Shenandoah,TX,,US,,https://locations.fivebelow.com/tx/shenandoah/19075-i-45-s-suite-108,Mo-Sa 10:00-20:00; Su 11:00-18:00,Five Below,Q5455836
https://salons.greatclips.com/us/tx/conroe/10160-highway-242,greatclips,Great Clips,,Conroe,TX,,US,+1 936-271-3297,https://salons.greatclips.com/us/tx/conroe/10160-highway-242,Mo-Fr 09:00-19:00; Sa 09:00-18:00; Su 10:00-18:00,Great Clips,Q5598967
https://stores.guitarcenter.com/tx/oak-ridge-north/488,guitar_center,Guitar Center Oak Ridge North Musical Instruments Store,,Oak Ridge North,TX,,US,+1 936-777-6954,https://stores.guitarcenter.com/tx/oak-ridge-north/488,Mo-Fr 11:00-21:00; Sa 10:00-21:00; Su 11:00-19:00,Guitar Center,Q3622794
houshht-home2-suites-shenandoah-the-woodlands,hilton,Home2 Suites by Hilton Shenandoah The Woodlands,,,TX,,US,+1 281-907-5700,https://www.hilton.com/ar/hotels/houshht-home2-suites-shenandoah-the-woodlands/,,Home2 Suites by Hilton,Q5887912
43190,h_r_block,H&R Block,,Shenandoah,TX,,US,+1 936-271-3670,https://www.hrblock.com/local-tax-offices/texas/shenandoah/17947-i-45-n/43190/,,H&R Block,Q5627799
https://www.blockadvisors.com/local-tax-offices/texas/conroe/27140-i-45-n/42884/,h_r_block,H&R Block,,Conroe,TX,,US,+1 281-367-5895,https://www.blockadvisors.com/local-tax-offices/texas/conroe/27140-i-45-n/42884/,,H&R Block,Q5627799
https://locations.jackinthebox.com/us/tx/conroe/9300-highway-242,jackinthebox,Jack in the Box,,Conroe,TX,,US,+1 936-271-3277,https://locations.jackinthebox.com/us/tx/conroe/9300-highway-242,Mo-Su 04:00-04:00,Jack in the Box,Q1538507
https://stores.factory.jcrew.com/#78901521,j_crew_us,J.Crew Factory,,Shenandoah,TX,,US,+1 936-286-3591,https://stores.factory.jcrew.com/us/tx/shenandoah/19075-i-45-s,Mo-Sa 10:00-20:00; Su 11:00-18:00,J. Crew,Q5370765
111225,little_free_library,Moca's Book Nook #111225 Oak Ridge North TX,,Oak Ridge North,TX,,US,,,,Little Free Library,Q6650101
136202,little_free_library,Houser Elementary #136202 Conroe TX,,Conroe,TX,,US,,,,Little Free Library,Q6650101
87997,little_free_library,April Mist Circle Library #87997 Conroe TX,,Conroe,TX,,US,,,,Little Free Library,Q6650101
114929,little_free_library,Irons Junior High Little Library #114929 Conroe TX,,Conroe,TX,,US,,,,Little Free Library,Q6650101
https://www.mainevent.com/locations/texas/shenandoah,main_event,MAIN EVENT SHENANDOAH,,Shenandoah,TX,,US,+1 281-355-5511,https://www.mainevent.com/locations/texas/shenandoah,Mo 11:00-01:00; Tu-Th 11:00-24:00; Fr 11:00-02:00; Sa 09:00-02:00; Su 11:00-24:00,Main Event Entertainment,Q56062981
HOUAO,marriott,Aloft Shenandoah Woodlands Area,,Shenandoah,TX,,US,+1 281-363-4400,https://www.marriott.com/HOUAO,,Aloft Hotels,Q4734166
IAHCS,marriott,Courtyard Houston North/Shenandoah,,Shenandoah,TX,,US,+1 936-273-6600,https://www.marriott.com/IAHCS,,Courtyard by Marriott,Q1053170
https://locations.modpizza.com/#23558160,modpizza,MOD Pizza Portofino Shopping Center,,Shenandoah,TX,,US,+1 281-503-1560,https://locations.modpizza.com/usa/tx/shenandoah/19075-ih-45-s,Mo-We 10:30-22:00; Th-Sa 10:30-23:00; Su 10:30-22:00,MOD Pizza,Q19903469
https://stores.nordstromrack.com/#9398243,nordstrom_rack,Nordstrom Rack  Portofino Shopping Center Shenandoah,,Shenandoah,TX,,US,+1 936-206-3243,https://stores.nordstromrack.com/us/tx/shenandoah/19075-i-45-south,Mo-Sa 10:00-21:00; Su 11:00-19:00,Nordstrom Rack,Q21463374
https://locations.oreillyauto.com/tx/conroe/check-engine-light-testing-6006.html,oreilly,Your Conroe O'Reilly Auto Parts Store,,Conroe,TX,,US,+1 936-647-1659,https://locations.oreillyauto.com/tx/conroe/check-engine-light-testing-6006.html,Mo-Sa 07:30-22:00; Su 08:00-21:00,O'Reilly Auto Parts,Q7071951
https://locations.oreillyauto.com/tx/conroe/wiper-installation-6006.html,oreilly,Your Conroe O'Reilly Auto Parts Store,,Conroe,TX,,US,+1 936-647-1659,https://locations.oreillyauto.com/tx/conroe/wiper-installation-6006.html,Mo-Sa 07:30-22:00; Su 08:00-21:00,O'Reilly Auto Parts,Q7071951
https://locations.oreillyauto.com/tx/conroe/battery-testing-6006.html,oreilly,Your Conroe O'Reilly Auto Parts Store,,Conroe,TX,,US,+1 936-647-1659,https://locations.oreillyauto.com/tx/conroe/battery-testing-6006.html,Mo-Sa 07:30-22:00; Su 08:00-21:00,O'Reilly Auto Parts,Q7071951
https://locations.oreillyauto.com/tx/conroe/autopartes-6006.html,oreilly,Tu tienda O'Reilly Auto Parts en Conroe,,Conroe,TX,,US,+1 936-647-1659,https://locations.oreillyauto.com/tx/conroe/autopartes-6006.html,Mo-Sa 07:30-22:00; Su 08:00-21:00,O'Reilly Auto Parts,Q7071951
//locations.oshkosh.com/tx/shenandoah/oshkosh-shenandoah-tx,oshkosh_us,Oshkosh B'gosh Shenandoah,,Shenandoah,TX,,US,+1 936-271-5051,https://locations.oshkosh.com/tx/shenandoah/oshkosh-shenandoah-tx,Mo-Sa 10:00-19:00; Su 11:00-18:00,OshKosh B'gosh,Q1417347
usf35151aa,pandora,About Pandora Jewelry Authorized Retailer - Trudy&#039;s / Shenandoah,,Shenandoah,TX,,US,+1 936-271-1951,https://stores.pandora.net/tx/shenandoah/pandora-jewelry-usf35151aa.html,,Pandora,Q2241604
https://locations.papajohns.com/#28117143,papa_johns,Papa John's,,Conroe,TX,,US,+1 936-235-2222,https://locations.papajohns.com/united-states/tx/77385/conroe/10161-sh-242,Mo-Th 09:30-23:00; Fr-Sa 09:30-24:00; Su 09:30-23:00,Papa John's Pizza,Q2759586
320,party_city,Research Plaza,,Shenandoah,TX,,US,+1 281-363-9511,https://stores.partycity.com/us/tx/shenandoah/party-store-pc320.html,,Party City,Q7140896
626826,penske,Home Depot #6516,,CONROE,TX,,US,+1 936-271-0428,https://www.pensketruckrental.com/locations/us/texas/conroe/626826/,,Penske,Q81234570
73832,petland_us,Petland of Shenandoah Woodlands,"19053 Interstate 45 N, Suite D",Shannandoah,TX,,US,+1 936-909-6540,,,Petland,Q17111474
ppg-paints-8055-21382,ppgpaints,PPG Paints 8055,,"Shenandoah, ",TX,,US,+1 936-321-3335,https://www.ppgpaints.com/store-locator/us/texas/shenandoah-paint-stores/ppg-paints-8055-21382,,PPG Paints,Q83891559
4713,sams_club,Shenandoah Sam's Club,,Shenandoah,TX,,US,+1 936-271-1732,https://www.samsclub.com/club/shenandoah-tx-sams-club/4713,Mo 10:00-20:00; Sa 09:00-20:00; Su 10:00-18:00,Sam's Club,Q1972120
https://locations.scrubsandbeyond.com/tx/oakridgenorth/scrubs-oak-ridge-north-tx-541.html,scrubs_and_beyond,Nursing Uniforms & Medical Scrubs at 27714 I-45 North | Scrubs & Beyond Near Me,,Oak Ridge North,TX,,US,+1 281-401-9999,https://locations.scrubsandbeyond.com/tx/oakridgenorth/scrubs-oak-ridge-north-tx-541.html,Mo-Fr 10:00-20:00; Sa 10:00-18:00; Su 11:00-17:00,Scrubs and Beyond,Q119972011
125,sola_salon_studios,The Woodlands,,Shenandoah,TX,,US,+1 832-995-6162,https://www.solasalonstudios.com/locations/the-woodlands,,Sola Salon Studios,Q64337426
https://restaurants.subway.com/#14912889,subway,Subway The Research Plaza,,Shenandoah Montgomery,TX,,US,+1 281-419-2112,https://restaurants.subway.com/united-states/tx/shenandoah/19189-i-45-s,Mo-Fr 07:00-22:00; Sa 08:00-22:00; Su 09:00-22:00,Subway,Q244457
https://restaurants.subway.com/#14905650,subway,Subway Standard Shopping Ctr,,Conroe Montgomery,TX,,US,+1 936-267-3913,https://restaurants.subway.com/united-states/tx/conroe/10161-state-hwy-242,Mo-Fr 07:00-22:00; Sa 08:00-22:00; Su 09:00-22:00,Subway,Q244457
https://locations.tacobell.com/#26064340,taco_bell,Taco Bell,,Conroe,TX,,US,+1 936-209-2803,https://locations.tacobell.com/tx/conroe/10280-hwy-242.html,Mo 09:00-21:00; Tu-Th 09:00-01:00; Fr-Sa 09:00-02:00; Su 09:00-01:00,Taco Bell,Q752941
081436,tjx,Shenandoah,19075 I-45 South,Shenandoah,TX,,US,+1 936-273-2121,,Mo-Sa 09:30-21:30; Su 10:00-20:00,TJ Maxx,Q10860683
2C62,tmobile_us,Costco Conroe TX,,Conroe,TX,,US,+1 936-766-7006,https://www.t-mobile.com/store-locator/tx/conroe/costco-conroe-tx,,T-Mobile,Q3511885
7738500000,usps_collection_boxes,USPS COLLECTION BOX - BLUE BOX,19221 I 45 S,SHENANDOAH,TX,,US,,,,United States Postal Service,Q668687
7738500003,usps_collection_boxes,USPS COLLECTION BOX - BLUE BOX,27820 I-45 N,SHENANDOAH,TX,,US,,,,United States Postal Service,Q668687
7738500002,usps_collection_boxes,USPS COLLECTION BOX - BLUE BOX,27424 ROBINSON RD,SHENANDOAH,TX,,US,,,,United States Postal Service,Q668687
0000026931,valero,VALERO  2741922,,Conroe,TX,,US,,https://locations.valero.com/en-us/LocationDetails/Index/9895-HIGHWAY-242/0000026931,24/7,Valero,Q1283291
conroe_oil-change-070090,valvoline_instant_oil_change,Valvoline,10464 Highway 242 ,Conroe,TX,,US,+1 936-242-0182,https://store.vioc.com/tx/conroe/oil-change-070090.html,,Valvoline Instant Oil Change,Q7912852
,visa,,,COLD SPRINGS,TX,,US,,,,,
,visa,,,CONROE,TX,,US,,,,,
,visa,,,CONROE,TX,,US,,,,,
,visa,,,CONROE,TX,,US,,,,,
,visa,,,CONROE,TX,,US,,,,,
,visa,,,CONROE,TX,,US,,,,,
,visa,,,CONROE,TX,,US,,,,,
,visa,,,CONROE,TX,,US,,,,,
,visa,,,CONROE,TX,,US,,,,,
,visa,,,CONROE,TX,,US,,,,,
,visa,,,CONROE,TX,,US,,,,,
,visa,,,CONROE,TX,,US,,,,,
,visa,,,THE WOODLANDS,TX,,US,,,,,
,visa,,,SHENANDOAH,TX,,US,,,,,
,visa,,,SHENANDOAH,TX,,US,,,,,
,visa,,,CONROE,TX,,US,,,,,
,visa,,,SHENANDOAH,TX,,US,,,,,
,visa,,,CONROE,TX,,US,,,,,
,visa,,,SHENONDOAH,TX,,US,,,,,
,visa,,,CONROE,TX,,US,,,,,
,visa,,,CONROE,TX,,US,,,,,
,visa,,,SHENANDOAH,TX,,US,,,,,
,visa,,,CONROE,TX,,US,,,,,
,visa,,,CONROE,TX,,US,,,,,
,visa,,,CONROE,TX,,US,,,,,
,visa,,,CONROE,TX,,US,,,,,
,visa,,,CONROE,TX,,US,,,,,
,visa,,,CONROE,TX,,US,,,,,
https://locations.vitaminshoppe.com/tx/conroe/vitamins-supplements-conroe-tx-192.html,vitamin_shoppe,The Vitamin ShoppeÂ® Conroe ,19075 Interstate 45 North Suite 700,Conroe,TX,,US,+1 936-321-2234,https://locations.vitaminshoppe.com/tx/conroe/vitamins-supplements-conroe-tx-192.html,Su 10:30-19:00; Mo 09:30-20:00; Tu 09:30-20:00; We 09:30-20:00; Th 09:30-20:00; Fr 09:30-20:00; Sa 09:30-20:00,The Vitamin Shoppe,Q7772938
https://www.walgreens.com/locator/walgreens-19215+interstate+45+s-shenandoah-tx-77385/id=6782,walgreens,Walgreens,,Shenandoah,TX,,US,+1 281-419-6247,https://www.walgreens.com/locator/walgreens-19215+interstate+45+s-shenandoah-tx-77385/id=6782,Mo-Fr 07:00-23:00; Sa-Su 07:00-22:00,Walgreens,Q1591889
https://locations.wendys.com/#28490378,wendys,"Wendy's 087 Harpers Trace in Conroe, TX",,Conroe,TX,,US,+1 346-667-9531,https://locations.wendys.com/united-states/tx/conroe/10377-highway-242,"Mo-Su 06:00-10:30,07:00-22:00",Wendy's,Q550258
8a7f2d4f073371c8a1d5d22b7ccd9761,western_union,REGIONS #8029,,Conroe,TX,,US,+1 936-235-2580,https://location.westernunion.com/us/tx/conroe/8a7f2d4f073371c8a1d5d22b7ccd9761,Mo-Fr 09:00-17:00; Sa 09:00-12:00,Western Union,Q861042
0f096a57245c79268745bf5ddef44fe1,western_union,HEB # 757,,Conroe,TX,,US,+1 936-266-1100,https://location.westernunion.com/us/tx/conroe/0f096a57245c79268745bf5ddef44fe1,Mo-Fr 09:00-19:00; Sa 10:00-16:00; Su 12:00-17:00,Western Union,Q861042
83a82c39df88d1f6671462d1236e0809,western_union,FIRST CONVENIENCE BANK #366,,Conroe,TX,,US,+1 800-677-9801,https://location.westernunion.com/us/tx/conroe/83a82c39df88d1f6671462d1236e0809,Mo-We 10:00-18:00; Th-Fr 09:00-18:00; Sa 10:00-18:00; Su 12:00-16:00,Western Union,Q861042
https://locations.whataburger.com/tx/conroe/9353-highway-242.html,whataburger,Whataburger,9353 Highway 242,Conroe,TX,,US,,https://locations.whataburger.com/tx/conroe/9353-highway-242.html,,Whataburger,Q376627
13873,wingstop,Wingstop Conroe TX Hwy 242,8000 TX-242 #113B,Conroe,TX,,US,+1 936-242-1568,,,Wingstop,Q8025339
