Ref,Spider,Name,Address,City,State,Zipcode,Country,Phone,Website,Hours,Brand,WikiData
John Cooper School,barnesnoblecollege,John Cooper School,,Woodlands,TX,,US,,https://www.bncollege.com/campus-stores/,,Barnes & Noble College,Q4861508
227259,bluerhino,Timewise #880803,,The Woodlands,TX,,US,+1 281-298-9313,,,Blue Rhino,Q65681213
218509,bluerhino,Woodlands Ace Hardware #15584,,The Woodlands,TX,,US,+1 832-482-3063,,,Blue Rhino,Q65681213
227263,bluerhino,Timewise #880804,,The Woodlands,TX,,US,+1 281-362-8060,,,Blue Rhino,Q65681213
212297,bluerhino,Timewise Shell #204,,The Woodlands,TX,,US,+1 281-364-8908,,,Blue Rhino,Q65681213
30063,bluerhino,Kroger #316 - Southwest,,The Woodlands,TX,,US,+1 281-367-1591,,,Blue Rhino,Q65681213
212293,bluerhino,Timewise Shell #236,,The Woodlands,TX,,US,+1 281-364-7554,,,Blue Rhino,Q65681213
227291,bluerhino,Timewise #880807,,The Woodlands,TX,,US,+1 281-364-7673,,,Blue Rhino,Q65681213
237805,bluerhino,Circle K #2742317,,Shenandoah,TX,,US,+1 281-367-2298,,,Blue Rhino,Q65681213
A361,capital_one_us,Woodlands-Research Forest,,SPRING,TX,,US,,https://locations.capitalone.com/atm/TX/spring-atm-A361,,Capital One,Q1034654
41709,capital_one_us,Woodlands-Research Forest,,Spring,TX,,US,+1 281-367-4927,https://locations.capitalone.com/bank/TX/Spring-WoodlandsResearch-Forest-branch-41709,Mo-Fr 09:00-17:00; Sa 09:00-13:00,Capital One,Q1034654
2038887,chase_us,Panther Creek - New branch,,The Woodlands,TX,,US,+1 281-363-8919,https://locator.chase.com/tx/the-woodlands/4755-w-panther-creek-dr,Mo-Fr 09:00-17:00; Sa 09:00-13:00,Chase,Q524629
38700,citi,ATM Capital One Branch - Woodlands-Research Forest,,Spring,TX,,US,,,,Citibank,Q857063
38701,citi,ATM Capital One Branch - Woodlands-Research Forest,,Spring,TX,,US,,,,Citibank,Q857063
38702,citi,ATM Capital One Branch - Woodlands-Research Forest,,Spring,TX,,US,,,,Citibank,Q857063
60175,citi,ATM Independent Financial,,The Woodlands,TX,,US,,,,Citibank,Q857063
91253,citi,ATM Walgreens,,The Woodlands,TX,,US,,,,Citibank,Q857063
61429,citi,ATM Kroger,,The Woodlands,TX,,US,,,,Citibank,Q857063
51327,citi,ATM CVS,,The Woodlands,TX,,US,,,,Citibank,Q857063
61692,citi,ATM Kroger Fuel Center,,The Woodlands,TX,,US,,,,Citibank,Q857063
7426,cvs_us,CVS Pharmacy,,The Woodlands,TX,,US,+1 281-363-9174,https://www.cvs.com/store-locator/the-woodlands-tx-pharmacies/4775-w-panther-creek-dr-ste-a-100-the-woodlands-tx-77381/storeid=7426,Mo-Fr 07:00-22:00; Sa-Su 08:00-22:00,CVS Pharmacy,Q2078880
247859,dennys,Denny's,,Shenandoah,TX,,US,+1 281-367-5140,https://locations.dennys.com/TX/SHENANDOAH/247859,24/7,Denny's,Q1189695
115,dickeys_barbecue_pit_us,The Woodlands - Kuykendahl Rd,,The Woodlands,TX,,US,+1 281-298-8422,https://www.dickeys.com/locations/texas/the%20woodlands/kuykendahl-road,Mo-Su 11:00-20:00,Dickey's Barbecue Pit,Q19880747
https://www.edwardjones.com/us-en/financial-advisor/austin-sturrock,edwardjones,Austin Sturrock,,The Woodlands,TX,,US,+1 281-651-5965,https://www.edwardjones.com/us-en/financial-advisor/austin-sturrock,Mo-Fr 08:30-17:30,Edward Jones,Q5343830
200317207,exxonmobil,TIMEWISE #804,,THE WOODLANDS,TX,,US,+1 281-362-8060,https://www.exxon.com/en/find-station/exxon-thewoodlands-tx-timewise804-200317207,24/7,Exxon,Q109675651
https://local.fedex.com/#25200937,fedex,,,The Woodlands,TX,,US,+1 800-463-3339,https://local.fedex.com/en-us/tx/the-woodlands/irmhm,,FedEx,Q459477
https://local.fedex.com/#25201814,fedex,,,The Woodlands,TX,,US,+1 800-463-3339,https://local.fedex.com/en-us/tx/the-woodlands/i6ycx,,FedEx,Q459477
9091,fresenius_kidney_care_us,Fresenius Kidney Care Woodlands Home Therapies,,Shenandoah,TX,,US,+1 800-881-5101,https://www.freseniuskidneycare.com/dialysis-centers/texas/9091,Mo-We 08:00-16:30; Th 09:00-16:30; Fr 08:00-16:30,,
https://www.goodyearautoservice.com/en_US/location/The-Woodlands-TX-77381-US-000904232,goodyear_us,"Goodyear Auto Service - The Woodlands, The Woodlands, TX | Oil, Brakes & Repairs | #000904232",,The Woodlands,TX,,US,+1 281-298-5182,https://www.goodyearautoservice.com/en_US/location/The-Woodlands-TX-77381-US-000904232,Mo-Sa 07:00-19:00; Su 08:00-17:00,Goodyear,Q620875
houwlhw-homewood-suites-houston-woodlands,hilton,Homewood Suites by Hilton Houston-Woodlands,,,TX,,US,+1 281-681-9199,https://www.hilton.com/ar/hotels/houwlhw-homewood-suites-houston-woodlands/,,Homewood Suites by Hilton,Q5890701
182149,hopdoddy_burger_bar,Woodlands,,Woodlands,TX,,US,+1 281-907-9001,,,HopDoddy Burger Bar,Q123689179
https://locations.jimmyjohns.com/tx/thewoodlands/sandwiches-949.html,jimmy_johns,Jimmy John's,,The Woodlands,TX,,US,+1 832-585-0610,https://locations.jimmyjohns.com/tx/thewoodlands/sandwiches-949.html,,Jimmy John's,Q1689380
301528,kindercare,Forest Crossing KinderCare,,The Woodlands,TX,,US,,https://www.kindercare.com/our-centers/the-woodlands/tx/301528,,KinderCare Learning Centers,Q6410551
170874,little_free_library,Kirell/Campbell Little Free Library #170874 The Woodlands TX,,The Woodlands,TX,,US,,,,Little Free Library,Q6650101
101161,little_free_library,Rhoad House Free Library #101161 The Woodlands TX,,The Woodlands,TX,,US,,,,Little Free Library,Q6650101
165303,little_free_library,E Stony End Pl #165303 #165303 The Woodlands TX,,The Woodlands,TX,,US,,,,Little Free Library,Q6650101
144724,little_free_library,Tula Bearâ€™s LFL #144724 The Woodlands TX,,The Woodlands,TX,,US,,,,Little Free Library,Q6650101
55399,little_free_library,Leslie McPherson #55399 The Woodlands TX,,The Woodlands,TX,,US,,,,Little Free Library,Q6650101
80435,little_free_library,The Butterfly Book Nook #80435 Spring TX,,Spring,TX,,US,,,,Little Free Library,Q6650101
10516,little_free_library,Nan Morrison #10516 The Woodlands TX,,The Woodlands,TX,,US,,,,Little Free Library,Q6650101
117319,little_free_library,Terri's Library #117319 The Woodlands TX,,The Woodlands,TX,,US,,,,Little Free Library,Q6650101
1150,orangetheory_fitness,"The Woodlands, TX",,Woodlands,TX,,US,+1 832-916-2115,,,Orangetheory Fitness,Q25005163
626827,penske,Amazing Spaces Storage,,THE WOODLANDS,TX,,US,+1 281-353-5090,https://www.pensketruckrental.com/locations/us/texas/the_woodlands/626827/,,Penske,Q81234570
https://stores.petco.com/#27959998,petco,Petco Sterling Ridge,,The Woodlands,TX,,US,+1 281-465-4771,https://stores.petco.com/tx/thewoodlands/pet-supplies-thewoodlands-tx-1481.html,Mo-Sa 09:00-20:00; Su 10:00-19:00,Petco,Q7171798
263,pinch_a_penny_us,Pinch A Penny,,The Woodlands,TX,,US,+1 832-757-1787,https://pinchapenny.com/stores/woodlands-tx-263,Mo-Fr 09:00-18:00; Sa 09:00-17:00; Su 10:00-15:00,Pinch A Penny,Q121436109
restaurant_83524,popeyes_us_fr,Popeyes,"4510 Panther Creek Pines The Woodlands, Texas 77381 - USA",The Woodlands,TX,,US,+1 281-298-7400,https://www.popeyes.com/store-locator/store/restaurant_83524,Mo-Su 10:00-21:00,Popeyes,Q1330910
https://restaurants.subway.com/#14893663,subway,Subway Cochran's Crossing Shop Center,,The Woodlands Montgomery,TX,,US,+1 281-465-8675,https://restaurants.subway.com/united-states/tx/the-woodlands/4747-research-forest-dr,Mo-Fr 08:00-22:00; Sa 09:00-22:00; Su 09:00-21:00,Subway,Q244457
https://restaurants.subway.com/#14911775,subway,Subway Panther Creek Village Square,,The Woodlands Montgomery,TX,,US,+1 281-367-3891,https://restaurants.subway.com/united-states/tx/the-woodlands/4775-w-panther-creek,Mo-Sa 08:00-22:00; Su 09:00-21:00,Subway,Q244457
https://restaurants.subway.com/#14916332,subway,Subway Alden Bridge Shopping Center,,The Woodlands Montgomery,TX,,US,+1 281-364-8370,https://restaurants.subway.com/united-states/tx/the-woodlands/8000-research-forest-dr,Mo-Fr 07:00-22:00; Sa 08:00-22:00; Su 09:00-21:00,Subway,Q244457
https://locations.tacobell.com/#3917096,taco_bell,Taco Bell,,The Woodlands,TX,,US,+1 281-363-9707,https://locations.tacobell.com/tx/the-woodlands/4490-panther-creek-pne.html,Mo-Th 09:00-01:00; Fr-Sa 09:00-02:00; Su 09:00-01:00,Taco Bell,Q752941
The Woodlands,torchys_tacos,Torchy's Tacos,4747 Research Forest Drive #475,The Woodlands,TX,,US,+1 281-465-8918,https://torchystacos.com/location/the-woodlands/,Mo 09:00-21:00; Tu-Th 09:00-21:30; Fr-Sa 09:00-22:30; Su 09:00-21:30,Torchy's Tacos,Q106769573
428,trader_joes_us,Trader Joe's The Woodlands (428),,The Woodlands,TX,,US,+1 281-465-0254,https://locations.traderjoes.com/tx/the-woodlands/428/,Mo-Su 08:00-21:00,Trader Joe's,Q688825
https://www.trekbikes.com/us/en_US/retail/the_woodlands/,trekbikes,Trek Bicycle The Woodlands,,The Woodlands,TX,,US,+1 832-966-7404,https://www.trekbikes.com/us/en_US/retail/the_woodlands/,Tu-Sa 10:00-18:00; Su 12:00-17:00,Trek,Q1067617
1435975,usps,PANTHER CREEK,,SPRING,TX,,US,+1 281-419-8231,,Mo-Fr 08:00-18:30; Sa 09:00-12:00,United States Postal Service,Q668687
7738100015,usps_collection_boxes,USPS COLLECTION BOX - BLUE BOX,8000 RESEARCH FOREST DR,SPRING,TX,,US,,,,United States Postal Service,Q668687
7738100009,usps_collection_boxes,USPS COLLECTION BOX - BLUE BOX,4747 RESEARCH FOREST DR,SPRING,TX,,US,,,,United States Postal Service,Q668687
7738100018,usps_collection_boxes,USPS COLLECTION BOX - PO LOBBY,10800 GOSLING RD,SPRING,TX,,US,,,,United States Postal Service,Q668687
7738100022,usps_collection_boxes,USPS COLLECTION BOX - PO LOBBY,10800 GOSLING RD,SPRING,TX,,US,,,,United States Postal Service,Q668687
7738100011,usps_collection_boxes,USPS COLLECTION BOX - APC,10800 GOSLING RD,SPRING,TX,,US,,,,United States Postal Service,Q668687
7738100012,usps_collection_boxes,USPS COLLECTION BOX - BLUE BOX,10800 GOSLING RD,SPRING,TX,,US,,,,United States Postal Service,Q668687
7738100016,usps_collection_boxes,USPS COLLECTION BOX - BLUE BOX,3400 RESEARCH FOREST DR,SPRING,TX,,US,,,,United States Postal Service,Q668687
,visa,,,THE WOODLANDS,TX,,US,,,,,
,visa,,,SPRING,TX,,US,,,,,
,visa,,,THE WOODLANDS,TX,,US,,,,,
,visa,,,SHENANDOAH,TX,,US,,,,,
,visa,,,SPRING,TX,,US,,,,,
,visa,,,THE WOODLANDS,TX,,US,,,,,
,visa,,,THE WOODLANDS,TX,,US,,,,,
,visa,,,THE WOODLANDS,TX,,US,,,,,
,visa,,,THE WOODLANDS,TX,,US,,,,,
,visa,,,THE WOODLANDS,TX,,US,,,,,
,visa,,,SPRING,TX,,US,,,,,
,visa,,,THE WOODLANDS,TX,,US,,,,,
,visa,,,THE WOODLANDS,TX,,US,,,,,
,visa,,,THE WOODLANDS,TX,,US,,,,,
,visa,,,WOODLANDS,TX,,US,,,,,
,visa,,,THE WOODLANDS,TX,,US,,,,,
,visa,,,THE WOODLANDS,TX,,US,,,,,
,visa,,,THE WOODLANDS,TX,,US,,,,,
,visa,,,THE WOODLANDS,TX,,US,,,,,
,visa,,,THE WOODLANDS,TX,,US,,,,,
,visa,,,SPRING,TX,,US,,,,,
,visa,,,THE WOODLANDS,TX,,US,,,,,
,visa,,,THE WOODLANDS,TX,,US,,,,,
,visa,,,THE WOODLANDS,TX,,US,,,,,
,visa,,,SPRING,TX,,US,,,,,
https://www.walgreens.com/locator/walgreens-6467+woodlands+pkwy-the+woodlands-tx-77381/id=9602,walgreens,Walgreens,,The Woodlands,TX,,US,+1 281-292-6743,https://www.walgreens.com/locator/walgreens-6467+woodlands+pkwy-the+woodlands-tx-77381/id=9602,Mo-Su 08:00-22:00,Walgreens,Q1591889
https://www.walgreens.com/locator/walgreens-4585+research+forest+dr-the+woodlands-tx-77381/id=11646,walgreens,Walgreens,,The Woodlands,TX,,US,+1 281-465-0548,https://www.walgreens.com/locator/walgreens-4585+research+forest+dr-the+woodlands-tx-77381/id=11646,Mo-Su 08:00-21:00,Walgreens,Q1591889
4880__W__PANTHER__CREEK__DR_THE__WOODLANDS_TX_77381,wellsfargo,Wells Fargo,4880 W PANTHER CREEK DR,THE WOODLANDS,TX,,US,+1 281-362-2400,https://www.wellsfargo.com/locator/bank/4880__W__PANTHER__CREEK__DR_THE__WOODLANDS_TX_77381/,Mo-Fr 09:00-17:00,Wells Fargo,Q744149
