Ref,Spider,Name,Address,City,State,Zipcode,Country,Phone,Website,Hours,Brand,WikiData
https://locations.arbys.com/tx/conroe/16630-i-45-south.html,arbys_us,"Arby's Fast-Food Drive Through Near You in Conroe, TX",,Conroe,TX,,US,+1 936-271-1077,https://locations.arbys.com/tx/conroe/16630-i-45-south.html,Mo-Su 10:00-22:00,Arby's,Q630866
https://locators.bankofamerica.com/tx/conroe/financial-centers-conroe-12756.html,bankofamerica,Bank of America Financial Center & Drive-Thru ATM | College Park,,Conroe,TX,,US,+1 936-321-5332,https://locators.bankofamerica.com/tx/conroe/financial-centers-conroe-12756.html,Mo-Fr 10:00-16:00,Bank of America,Q487907
https://locators.bankofamerica.com/tx/thewoodlands/atm-the-woodlands-110297.html,bankofamerica,Bank of America Walk-Up ATM | Texas Childrens Hospital - The Woodlands,,The Woodlands,TX,,US,+1 844-401-8500,https://locators.bankofamerica.com/tx/thewoodlands/atm-the-woodlands-110297.html,,Bank of America,Q487907
https://locations.baskinrobbins.com/tx/conroe/3085-college-park-dr-355348-br,baskin_robbins_us,Baskin-Robbinsâ„¢,,Conroe,TX,,US,+1 936-242-1249,https://locations.baskinrobbins.com/tx/conroe/3085-college-park-dr-355348-br,Mo-Th 05:00-21:00; Fr 05:00-22:00; Sa 06:00-22:00; Su 06:00-21:00,Baskin-Robbins,Q584601
196397,bluerhino,Roadster #1 (FM 1488 Store LLC),,Conroe,TX,,US,+1 346-224-2956,,,Blue Rhino,Q65681213
237800,bluerhino,Circle K #2741461,,Conroe,TX,,US,+1 936-273-5911,,,Blue Rhino,Q65681213
196780,bluerhino,H-E-B #638,,THE WOODLANDS,TX,,US,+1 936-271-2730,,,Blue Rhino,Q65681213
227285,bluerhino,Timewise #880801,,Conroe,TX,,US,+1 936-321-0878,,,Blue Rhino,Q65681213
174985,bluerhino,Breaktime at Carriage Hills (CARRIAGE HILLS),,Conroe,TX,,US,+1 936-224-6969,,,Blue Rhino,Q65681213
212295,bluerhino,Timewise Shell #248,,The Woodlands,TX,,US,+1 936-321-9305,,,Blue Rhino,Q65681213
56922,bluerhino,Lowe's #1515,,Conroe,TX,,US,+1 936-271-1166,,,Blue Rhino,Q65681213
212373,bluerhino,Timewise #169,,Conroe,TX,,US,+1 936-321-6050,,,Blue Rhino,Q65681213
193491,bluerhino,AM & PM Express (AM & PM LLC),,Conroe,TX,,US,+1 936-321-1752,,,Blue Rhino,Q65681213
237799,bluerhino,Circle K #2740591,,Conroe,TX,,US,+1 936-273-5402,,,Blue Rhino,Q65681213
45289_01,bmw_group,BMW of The Woodlands,,The Woodlands,TX,,US,+1 936-271-3000,https://www.bmwofthewoodlands.com,,BMW,Q26678
21618,burgerking,Burger King,,CONROE,TX,,US,+1 281-786-0649,https://www.bk.com/store-locator/store/restaurant_61942,Mo-Su 06:00-22:00,Burger King,Q177054
2043244,chase_us,Woodlands College Park - New branch,,The Woodlands,TX,,US,+1 936-271-3710,https://locator.chase.com/tx/the-woodlands/3097-college-park-dr,Mo-Fr 09:00-17:00; Sa 09:00-13:00,Chase,Q524629
tx_conroe_3085-college-park-dr,chipotle, ,,Conroe,TX,,US,+1 936-271-2088,https://locations.chipotle.com/tx/conroe/3085-college-park-dr,,Chipotle,Q465751
1597,chuys,Chuy's,"18035, I-45 South, Shenandoah, TX, 77384",Shenandoah,TX,,US,+1 936-321-4440,https://www.chuys.com/locations/shenandoah,,Chuy's,Q5118415
75965,citi,ATM SIMMONS BANK,,The Woodlands,TX,,US,,,,Citibank,Q857063
89998,citi,ATM Walgreens,,Woodlands,TX,,US,,,,Citibank,Q857063
59203,citi,ATM Heb,,The Woodlands,TX,,US,,,,Citibank,Q857063
55041,citi,ATM FCCU - Woodlands ATM (Inside HEB),,The Woodlands,TX,,US,,,,Citibank,Q857063
,credit_union_us,First Community CU,,The Woodlands,TX,,US,+1 281-856-5300,,Mo-Fr 09:00-07:00; Sa 09:00-05:00,,
8033,dominos_pizza_us,Domino's Pizza,,Conroe,TX,,US,+1 936-273-3111,https://pizza.dominos.com/texas/conroe/3026-college-park-dr-ste-e,Mo-Th 10:30-24:00; Fr-Sa 10:00-01:00; Su 10:30-24:00,Domino's,Q839466
357216,dunkin_us,Dunkin',,Conroe,TX,,US,+1 281-789-4833,https://locations.dunkindonuts.com/en/tx/conroe/5201-fm-1488-rd/357216,Mo-Sa 06:00-18:00; Su 06:00-15:00,Dunkin',Q847743
355348,dunkin_us,Dunkin',,Conroe,TX,,US,+1 936-242-1249,https://locations.dunkindonuts.com/en/tx/conroe/3085-college-park-dr/355348,Mo-Th 05:00-21:00; Fr 05:00-22:00; Sa 06:00-22:00; Su 06:00-21:00,Dunkin',Q847743
https://www.edwardjones.com/us-en/financial-advisor/jack-mcgill,edwardjones,Jack McGill,,The Woodlands,TX,,US,+1 281-419-9400,https://www.edwardjones.com/us-en/financial-advisor/jack-mcgill,Mo-Fr 08:00-17:00,Edward Jones,Q5343830
3188,extra_space_storage,Conroe Self Storage at 2828 FM 1488,,Conroe,TX,,US,+1 936-321-9800,https://www.extraspace.com/storage/facilities/us/texas/conroe/3188/,Mo-Fr 09:30-18:00; Sa 09:00-17:30,Extra Space Storage,Q5422162
https://local.fedex.com/#25197330,fedex,,,Conroe,TX,,US,+1 800-463-3339,https://local.fedex.com/en-us/tx/conroe/i37hi,,FedEx,Q459477
https://local.fedex.com/#27763336,fedex,FedEx Authorized ShipCenter,,Conroe,TX,,US,+1 936-321-1258,https://local.fedex.com/en-us/tx/conroe/70494,,FedEx,Q459477
591513,firestone_auto_care,Firestone Complete Auto Care,,Conroe,TX,,US,+1 936-242-0201,https://local.firestonecompleteautocare.com/texas/conroe/16802-i-45/,,Firestone,Q420837
68394e17-4c78-e311-9471-0050568924e6,goodwill,College Park Crossing Attended Donation Center,,Woodlands,TX,,US,+1 713-970-1652,https://www.goodwill.org/locator/location/?store=NjgzOTRlMTctNGM3OC1lMzExLTk0NzEtMDA1MDU2ODkyNGU2&lat=MzAuMjA1NjI=&lng=LTk1LjQ3MzM4,,Goodwill,Q5583655
https://salons.greatclips.com/us/tx/conroe/3600-fm-1488,greatclips,Great Clips,,Conroe,TX,,US,+1 281-292-3900,https://salons.greatclips.com/us/tx/conroe/3600-fm-1488,Mo-Fr 09:00-19:00; Sa 09:00-18:00; Su 10:00-17:00,Great Clips,Q5598967
https://office.jacksonhewitt.com/#27579247,jackson_hewitt,Jackson Hewitt,,The Woodlands,TX,,US,+1 936-206-7761,https://office.jacksonhewitt.com/tax-preparation-services-locations/en/tx/the-woodlands/3040-college-park-drive/53213,Mo-Sa 11:00-19:00; Su 12:00-16:00,Jackson Hewitt,Q6117132
3754,jiffy_lube_us,Fm 1488,,CONROE,TX,,US,+1 936-271-0959,https://www.jiffylube.com/locations/tx/conroe/3754,Mo-Sa 08:00-18:00; Su 09:00-17:00,Jiffy Lube,Q6192247
https://locations.jimmyjohns.com/tx/thewoodlands/sandwiches-3604.html,jimmy_johns,Jimmy John's,,The Woodlands,TX,,US,+1 936-224-5952,https://locations.jimmyjohns.com/tx/thewoodlands/sandwiches-3604.html,,Jimmy John's,Q1689380
521,kohls_us,Kohl's,,Conroe,TX,,US,+1 936-321-4901,https://www.kohls.com/stores/tx/conroe-521.shtml,Mo-Sa 09:00-21:00; Su 09:00-20:00,Kohl's,Q967265
148771,little_free_library,W.G. Jones State Forest Little Free Library #148771 Conroe TX,,Conroe,TX,,US,,,,Little Free Library,Q6650101
HOUTW,marriott,Fairfield Inn & Suites Houston The Woodlands,,The Woodlands,TX,,US,+1 936-271-0110,https://www.marriott.com/HOUTW,,Fairfield by Marriott,Q5430314
HOULN,marriott,SpringHill Suites Houston The Woodlands,,The Woodlands,TX,,US,+1 936-271-0051,https://www.marriott.com/HOULN,,SpringHill Suites,Q7580351
HOUTL,marriott,TownePlace Suites Houston North/Shenandoah,,Shenandoah,TX,,US,+1 936-273-7772,https://www.marriott.com/HOUTL,,Townplace Suites by Marriott,Q7830092
17517,mattress_firm_us,Mattress Firm Vision Park,,Shenandoah,TX,,US,+1 936-273-1001,https://www.mattressfirm.com/en-us/stores/tx/shenandoah/001056/,,Mattress Firm,Q6791878
73864338,moneygram,LESLY'S MULTISERVICES - LESLY'S MULTISER,,CONROE,TX,,US,+1 936-267-0158,,Mo-Sa 10:00-19:00; Su 00:00-24:00,MoneyGram,Q1944412
6628,murphy_usa_us,,,The Woodlands,TX,,US,+1 936-283-4758,,Mo-Sa 05:00-00:00; Su 05:00-23:30,Murphy USA,Q19604459
https://locations.outback.com/#15502064,outbacksteakhouse,Outback Steakhouse,,Shenandoah,TX,,US,+1 936-321-9106,https://locations.outback.com/texas/shenandoah/18326-i-45-south,Mo-Th 11:00-22:00; Fr-Sa 11:00-23:00; Su 11:00-21:00,Outback Steakhouse,Q1064893
112956,pandaexpress,College Park & IH 45,,Conroe,TX,,US,+1 936-273-9999,https://www.pandaexpress.com/locations/tx/conroe/3375-college-park-dr,Mo-Th 10:00-22:00; Fr-Sa 10:00-22:30; Su 10:30-22:00,Panda Express,Q1358690
tx_the-woodlands_3091-college-park-dr,pizza_hut_us,3091 College Park Dr.,,The Woodlands,TX,,US,+1 936-271-9888,https://locations.pizzahut.com/tx/the-woodlands/3091-college-park-dr,,Pizza Hut,Q191615
home-depot-6516-7621,ppgpaints,HOME DEPOT 6516,,"Conroe, ",TX,,US,+1 936-321-0100,https://www.ppgpaints.com/store-locator/us/texas/conroe-paint-stores/home-depot-6516-7621,,PPG Paints,Q83891559
108,primrose_schools,Primrose School of The Woodlands at College Park,,The Woodlands,TX,,US,+1 936-321-5900,https://www.primroseschools.com/schools/woodlands-college-park/,,Primrose Schools,Q7243677
https://www.publicstorage.com/self-storage-tx-the-woodlands/5889.html,public_storage_us,Public Storage,,The Woodlands,TX,,US,+1 281-746-9651,https://www.publicstorage.com/self-storage-tx-the-woodlands/5889.html,,Public Storage,Q1156045
10261666746365765594,sleep_number_us,Sleep Number,,Shenandoah,TX,,US,,https://www.sleepnumber.com/stores/tx/shenandoah/18440-interstate-45-s,Mo-Th 10:00-19:00; Fr-Sa 10:00-20:00; Su 11:00-19:00,Sleep Number,Q7447640
https://restaurants.subway.com/#14913863,subway,Subway,,The Woodlands Montgomery,TX,,US,+1 936-273-6366,https://restaurants.subway.com/united-states/tx/the-woodlands/3026-college-park-dr,Mo-Fr 08:00-22:00; Sa-Su 09:00-21:00,Subway,Q244457
https://restaurants.subway.com/#14901660,subway,Subway 1488 Town Plaza,,Conroe Harris,TX,,US,+1 936-273-5209,https://restaurants.subway.com/united-states/tx/conroe/3600-fm-1488,Mo-Sa 08:00-22:00; Su 09:00-21:00,Subway,Q244457
https://restaurants.subway.com/#14904719,subway,Subway Circle K Store #2740591,,Conroe Montgomery,TX,,US,+1 936-273-5402,https://restaurants.subway.com/united-states/tx/conroe/172-fm-1488,Mo-Su 08:00-21:00,Subway,Q244457
0166539700,sunoco_us,Sunoco,,CONROE,TX,,US,+1 503-412-9225,,24/7,Sunoco,Q1423218
81909,supercuts,Town Plaza III,3570 Fm 1488 Ste 400,Conroe,TX,,US,+1 936-266-0537,https://www.supercuts.com/checkin/81909,Mo-Fr 10:00-18:00; Sa 09:00-18:00; Su 10:00-18:00,Supercuts,Q7643239
https://locations.tacobell.com/#3916982,taco_bell,Taco Bell,,The Woodlands,TX,,US,+1 936-271-3608,https://locations.tacobell.com/tx/the-woodlands/3103-college-park-drive.html,Mo-Th 09:00-01:00; Fr-Sa 09:00-02:00; Su 09:00-01:00,Taco Bell,Q752941
20268,taco_cabana_us,3079 College Park Dr,"3079 College Park Dr, The Woodlands, TX, USA",Conroe,TX,,US,+1 936-271-4777,,,Taco Cabana,Q12070488
https://www.asurion.com/repairs/tech/locations/woodlands,ubreakifix,uBreakiFix by Asurion - Woodlands,,Woodlands,TX,,US,+1 936-703-1338,https://www.asurion.com/repairs/tech/locations/woodlands,Mo-Sa 10:00-19:00,Asurion Tech Repair & Solutions,Q4811938
7738400000,usps_collection_boxes,USPS COLLECTION BOX - BLUE BOX,2750 FM 1488 RD,CONROE,TX,,US,,,,United States Postal Service,Q668687
,visa,,,CONROE,TX,,US,,,,,
,visa,,,SHENANDOAH,TX,,US,,,,,
,visa,,,THE WOODLANDS,TX,,US,,,,,
,visa,,,CONROE,TX,,US,,,,,
,visa,,,THE WOODLANDS,TX,,US,,,,,
,visa,,,THE WOODLANDS,TX,,US,,,,,
,visa,,,THE WOODLANDS,TX,,US,,,,,
,visa,,,THE WOODLANDS,TX,,US,,,,,
,visa,,,THE WOODLANDS,TX,,US,,,,,
,visa,,,CONROE,TX,,US,,,,,
,visa,,,SHENANDOAH,TX,,US,,,,,
,visa,,,CONROE,TX,,US,,,,,
,visa,,,MONTGOMERY,TX,,US,,,,,
,visa,,,CONROE,TX,,US,,,,,
,visa,,,CONROE,TX,,US,,,,,
,visa,,,WOODLANDS,TX,,US,,,,,
,visa,,,THE WOODLANDS,TX,,US,,,,,
,visa,,,CONROE,TX,,US,,,,,
,visa,,,SHENANDOAH,TX,,US,,,,,
,visa,,,CONROE,TX,,US,,,,,
,visa,,,THE WOODLANDS,TX,,US,,,,,
,visa,,,THE WOODLANDS,TX,,US,,,,,
,visa,,,CONROE,TX,,US,,,,,
,visa,,,THE WOODLANDS,TX,,US,,,,,
,visa,,,THE WOODLANDS,TX,,US,,,,,
,visa,,,THE WOODLANDS,TX,,US,,,,,
,visa,,,CONROE,TX,,US,,,,,
,visa,,,CONROE,TX,,US,,,,,
,visa,,,CONROE,TX,,US,,,,,
,visa,,,CONROE,TX,,US,,,,,
,visa,,,CONROE,TX,,US,,,,,
https://www.walgreens.com/locator/walgreens-3061+college+park+dr-conroe-tx-77384/id=7632,walgreens,Walgreens,,Conroe,TX,,US,+1 936-271-9471,https://www.walgreens.com/locator/walgreens-3061+college+park+dr-conroe-tx-77384/id=7632,24/7,Walgreens,Q1591889
https://locations.wendys.com/#9251731,wendys,"Wendy's College Park in Conroe, TX",,Conroe,TX,,US,+1 936-242-1973,https://locations.wendys.com/united-states/tx/conroe/3032-college-park,"Mo-Su 06:30-10:30,07:00-22:00",Wendy's,Q550258
6ef6af55e00d4fc661744285bfdaf9ac,western_union,WALMART #003213,,The Woodlands,TX,,US,+1 936-321-9922,https://location.westernunion.com/us/tx/the-woodlands/6ef6af55e00d4fc661744285bfdaf9ac,Mo-Su 07:00-21:00,Western Union,Q861042
https://locations.whataburger.com/tx/the-woodlands/3073-college-park-dr.html,whataburger,Hwy 242 & St Lukes,3073 COLLEGE PARK DR,THE WOODLANDS,TX,,US,,https://locations.whataburger.com/tx/the-woodlands/3073-college-park-dr.html,,Whataburger,Q376627
