Ref,Spider,Name,Address,City,State,Zipcode,Country,Phone,Website,Hours,Brand,WikiData
https://stores.aldi.us/#81222466,aldi_sud_us,ALDI  2352 Morthland Dr,,Valparaiso,IN,,US,+1 833-462-7040,https://stores.aldi.us/in/valparaiso/2352-morthland-dr,"Mo-Su 08:30-20:00,09:00-20:00",ALDI,Q41171672
2841,anytime_fitness,Anytime Fitness,,Valparaiso,IN,,US,+1 219-462-1122,https://www.anytimefitness.com/gyms/2841/valparaiso-in-46385/,,Anytime Fitness,Q4778364
https://restaurants.applebees.com/en-us/in/valparaiso/670-morthland-89094,applebees,Connect with this Applebee's,,Valparaiso,IN,,US,+1 219-477-3868,https://restaurants.applebees.com/en-us/in/valparaiso/670-morthland-89094,Mo-Su 11:00-24:00,Applebees,Q621532
https://locations.baskinrobbins.com/in/valparaiso/1651-morthland-dr-307466-br,baskin_robbins_us,Baskin-Robbinsâ„¢,,Valparaiso,IN,,US,+1 219-531-6363,https://locations.baskinrobbins.com/in/valparaiso/1651-morthland-dr-307466-br,Mo-Su 05:00-21:00,Baskin-Robbins,Q584601
220703,bluerhino,Dollar General #21702,,VALPARAISO,IN,,US,+1 219-386-2662,,,Blue Rhino,Q65681213
225590,bluerhino,CASEY'S GENERAL STORE #3988,,Valparaiso,IN,,US,+1 219-255-9741,,,Blue Rhino,Q65681213
73730,bluerhino,Speedway #7524,,Valparaiso,IN,,US,+1 219-762-9672,,,Blue Rhino,Q65681213
73658,bluerhino,Speedway #6673,,Valparaiso,IN,,US,+1 219-759-1072,,,Blue Rhino,Q65681213
8944,burgerking,Burger King,,VALPARAISO,IN,,US,+1 219-763-9666,https://www.bk.com/store-locator/store/restaurant_5037,Mo-Sa 06:00-22:00; Su 07:00-22:00,Burger King,Q177054
9797,burgerking,Burger King,,"Valparaiso, IN",IN,,US,+1 219-464-1861,https://www.bk.com/store-locator/store/restaurant_5522,Mo-Sa 06:00-21:00; Su 07:00-21:00,Burger King,Q177054
11260,chevrolet,"TEAM CHEVROLET, INC.",,Valparaiso,IN,,US,+1 219-263-0114,https://www.chevyon30.com,Mo-Th 09:00-19:00; Fr 09:00-18:00; Sa 09:00-17:00,Chevrolet,Q29570
78414,citi,ATM Speedway,,Valparaiso,IN,,US,,,,Citibank,Q857063
55079,citi,ATM FE23 Aberdeen,,Valparaiso,IN,,US,,,,Citibank,Q857063
55061,citi,ATM FE05 Valpo US 30,,Valparaiso,IN,,US,,,,Citibank,Q857063
55057,citi,ATM FE01 Valpo West,,Valparaiso,IN,,US,,,,Citibank,Q857063
56222,citi,ATM FIRST MERCHANTS BANK,,Valparaiso,IN,,US,,,,Citibank,Q857063
48015,citi,ATM CVS,,Valparaiso,IN,,US,,,,Citibank,Q857063
55107,citi,ATM FE53 Valpo 130,,Valparaiso,IN,,US,,,,Citibank,Q857063
55096,citi,ATM FE42 South Haven East,,Valparaiso,IN,,US,,,,Citibank,Q857063
38967,citi,ATM Casey's,,Valparaiso,IN,,US,,,,Citibank,Q857063
55060,citi,ATM FE04 South Haven,,Valparaiso,IN,,US,,,,Citibank,Q857063
,credit_union_us,Tech CU,,Valparaiso,IN,,US,+1 219-477-6805,,Mo-Th 09:00-05:00; Fr 09:00-06:00; Sa 09:00-12:30,,
21702,dollar_general,Dollar General,,Valparaiso,IN,,US,+1 219-386-2662,https://www.dollargeneral.com/store-directory/in/valparaiso/21702,Mo-Su 08:00-22:00,Dollar General,Q145168
307466,dunkin_us,Dunkin',,Valparaiso,IN,,US,+1 219-531-6363,https://locations.dunkindonuts.com/en/in/valparaiso/1651-morthland-dr/307466,Mo-Su 05:00-21:00,Dunkin',Q847743
https://www.edwardjones.com/us-en/financial-advisor/joe-arroyo,edwardjones,Joe Arroyo,,Valparaiso,IN,,US,+1 219-465-6390,https://www.edwardjones.com/us-en/financial-advisor/joe-arroyo,Mo-Th 08:30-16:30; Fr 08:30-15:30,Edward Jones,Q5343830
Motorcraft3657USAEnglish,ford,"Barile Ford, Inc.",,Indiana,IN,,US,+1 219-464-3523,,,Ford,Q44294
https://www.ford.com/dealerships/dealer-details/in/valparaiso/currie-motors-ford-of-valpo/,ford_dealers_us,Currie Motors Ford of Valpo,,Valparaiso,IN,,US,+1 219-329-7060,https://www.ford.com/dealerships/dealer-details/in/valparaiso/currie-motors-ford-of-valpo/,Mo-Fr 09:00-20:00; Sa 09:00-19:00,Ford Motor Company,Q44294
https://salons.greatclips.com/us/in/valparaiso/2270-morthland-dr.,greatclips,Great Clips,,Valparaiso,IN,,US,+1 219-707-5081,https://salons.greatclips.com/us/in/valparaiso/2270-morthland-dr.,Mo-Fr 09:00-19:00; Sa 08:00-17:00; Su 09:00-17:00,Great Clips,Q5598967
23388,h_r_block,H&R Block,,Valparaiso,IN,,US,+1 219-762-7600,https://www.hrblock.com/local-tax-offices/indiana/valparaiso/310-w-us-hwy-6/23388/,,H&R Block,Q5627799
112989,pandaexpress,John Howell & Silhavy,,Valparaiso,IN,,US,+1 219-476-7773,https://www.pandaexpress.com/locations/in/valparaiso/2904-john-howell-drive,Mo-Th 10:00-21:30; Fr-Sa 10:00-22:00; Su 10:00-21:30,Panda Express,Q1358690
https://restaurants.subway.com/#14904133,subway,Subway,,Valparaiso Porter,IN,,US,+1 219-462-0084,https://restaurants.subway.com/united-states/in/valparaiso/1655-morthland-ave,Mo-Th 09:00-21:00; Fr-Sa 09:00-22:00; Su 09:00-20:00,Subway,Q244457
1385695,usps,DOWNTOWN VALPARAISO,,VALPARAISO,IN,,US,+1 219-464-1637,,Mo-Fr 09:00-18:00; Sa 09:00-15:00,United States Postal Service,Q668687
4638500008,usps_collection_boxes,USPS COLLECTION BOX - BLUE BOX,390 W US HIGHWAY 6,VALPARAISO,IN,,US,,,,United States Postal Service,Q668687
4638500007,usps_collection_boxes,USPS COLLECTION BOX - BLUE BOX,389 W US HIGHWAY 6,VALPARAISO,IN,,US,,,,United States Postal Service,Q668687
4638500006,usps_collection_boxes,USPS COLLECTION BOX - BLUE BOX,330 W US HIGHWAY 30,VALPARAISO,IN,,US,,,,United States Postal Service,Q668687
4638500003,usps_collection_boxes,USPS COLLECTION BOX - BLUE BOX,2168 MORTHLAND DR,VALPARAISO,IN,,US,,,,United States Postal Service,Q668687
4638500005,usps_collection_boxes,USPS COLLECTION BOX - BLUE BOX,852 THORNAPPLE DR,VALPARAISO,IN,,US,,,,United States Postal Service,Q668687
4638500001,usps_collection_boxes,USPS COLLECTION BOX - BLUE BOX,460 LINCOLNWAY,VALPARAISO,IN,,US,,,,United States Postal Service,Q668687
4638500002,usps_collection_boxes,USPS COLLECTION BOX - PO LOBBY,460 LINCOLNWAY,VALPARAISO,IN,,US,,,,United States Postal Service,Q668687
4638500009,usps_collection_boxes,USPS COLLECTION BOX - PO LOBBY,460 LINCOLNWAY,VALPARAISO,IN,,US,,,,United States Postal Service,Q668687
,visa,,,VALPARAISO,IN,,US,,,,,
,visa,,,VALPARAISO,IN,,US,,,,,
,visa,,,VALPARAISO,IN,,US,,,,,
,visa,,,VALPARAISO,IN,,US,,,,,
,visa,,,VALPARAISO,IN,,US,,,,,
,visa,,,VALPARAISO,IN,,US,,,,,
,visa,,,VALPARAISO,IN,,US,,,,,
,visa,,,VALPARAISO,IN,,US,,,,,
,visa,,,VALPARAISO,IN,,US,,,,,
,visa,,,VALPARAISO,IN,,US,,,,,
,visa,,,VALPARAISO,IN,,US,,,,,
,visa,,,VALPARAISO,IN,,US,,,,,
,visa,,,VALPARASIO,IN,,US,,,,,
,visa,,,VALPARAISO,IN,,US,,,,,
,visa,,,VALPARAISO,IN,,US,,,,,
13f64c7f49b2730f76070c37104fda2e,western_union,8749 SVT VALPO SOUTH,,Valparaiso,IN,,US,+1 219-462-5147,https://location.westernunion.com/us/in/valparaiso/13f64c7f49b2730f76070c37104fda2e,Mo-Su 06:00-24:00,Western Union,Q861042
