Ref,Spider,Name,Address,City,State,Zipcode,Country,Phone,Website,Hours,Brand,WikiData
128714,bp,BP,,Baltimore,MD,,US,+1 410-225-9443,,,BP,Q152057
32042,family_dollar_us,FAMILY DOLLAR #12042,,Baltimore,MD,,US,+1 443-977-6346,https://www.familydollar.com/locations/md/baltimore/32042/,Mo-Su 08:00-21:00,Family Dollar,Q5433101
501913,follett,Coppin State University Bookstore,,Baltimore,MD,,US,+1 410-951-1223,https://www.bkstr.com/coppinstore/home,Mo-Th 08:30-17:30; Fr 08:30-15:30,,
https://locations.mtb.com/#25082204,mt_bank_us,,,,MD,,US,+1 800-724-2440,https://locations.mtb.com/md/baltimore/bank-branches-and-atms-baltimore-md-sa4462.html,24/7,M&T Bank,Q3272257
https://locations.papajohns.com/#10691653,papa_johns,Papa John's,,Baltimore,MD,,US,+1 410-233-7272,https://locations.papajohns.com/united-states/md/21216/baltimore/3411-clifton-avenue,Mo-Th 10:00-01:00; Fr-Sa 10:00-02:00; Su 11:00-01:00,Papa John's Pizza,Q2759586
1587,rentacenter,Rent-A-Center,,Baltimore,MD,,US,+1 410-233-7800,https://locations.rentacenter.com/maryland/baltimore/3413-clifton-ave/,Mo-Sa 10:00-18:00,Rent-A-Center,Q7313497
1650,ross_dress_for_less_us,Mondawmin Mall,,Baltimore,MD,,US,+1 410-225-9780,,Mo-Th 09:30-21:00; Fr-Sa 09:00-21:30; Su 09:30-21:00,Ross Dress for Less,Q3442791
3420,shellrecharge,BGE - Leon Day Park,,Baltimore,MD,,US,,,,Shell Recharge,Q105883058
https://restaurants.subway.com/#14912041,subway,Subway Coppin State University,,Baltimore Baltimore City,MD,,US,+1 410-951-1236,https://restaurants.subway.com/united-states/md/baltimore/2500-w-north-ave,Mo-Fr 09:00-17:00,Subway,Q244457
1386193,usps,WALBROOK,,BALTIMORE,MD,,US,+1 410-523-3198,,"Mo-Fr 10:00-13:30,14:30-16:30; Sa 10:00-12:00",United States Postal Service,Q668687
2121600099,usps_collection_boxes,USPS COLLECTION BOX - BLUE BOX,3439 CLIFTON AVE,BALTIMORE,MD,,US,,,,United States Postal Service,Q668687
2121600038,usps_collection_boxes,USPS COLLECTION BOX - BLUE BOX,2101 GARRISON BLVD,BALTIMORE,MD,,US,,,,United States Postal Service,Q668687
2121600061,usps_collection_boxes,USPS COLLECTION BOX - BLUE BOX,2300 GARRISON BLVD,BALTIMORE,MD,,US,,,,United States Postal Service,Q668687
2121600001,usps_collection_boxes,USPS COLLECTION BOX - BLUE BOX,1908 N ELLAMONT ST,BALTIMORE,MD,,US,,,,United States Postal Service,Q668687
2121600114,usps_collection_boxes,USPS COLLECTION BOX - PO LOBBY,1908 N ELLAMONT ST,BALTIMORE,MD,,US,,,,United States Postal Service,Q668687
2121600124,usps_collection_boxes,USPS COLLECTION BOX - PO LOBBY,1908 N ELLAMONT ST,BALTIMORE,MD,,US,,,,United States Postal Service,Q668687
2121600095,usps_collection_boxes,USPS COLLECTION BOX - BLUE BOX,3033 WINDSOR AVE,BALTIMORE,MD,,US,,,,United States Postal Service,Q668687
2121600115,usps_collection_boxes,USPS COLLECTION BOX - BLUE BOX,3003 W NORTH AVE,BALTIMORE,MD,,US,,,,United States Postal Service,Q668687
2121600117,usps_collection_boxes,USPS COLLECTION BOX - BLUE BOX,2901 GARRISON BLVD,BALTIMORE,MD,,US,,,,United States Postal Service,Q668687
2121600082,usps_collection_boxes,USPS COLLECTION BOX - BLUE BOX,2911 MOUNT HOLLY ST,BALTIMORE,MD,,US,,,,United States Postal Service,Q668687
2121600024,usps_collection_boxes,USPS COLLECTION BOX - BLUE BOX,3005 BAKER ST,BALTIMORE,MD,,US,,,,United States Postal Service,Q668687
2121600026,usps_collection_boxes,USPS COLLECTION BOX - BLUE BOX,4501 BONNER RD,BALTIMORE,MD,,US,,,,United States Postal Service,Q668687
2121600027,usps_collection_boxes,USPS COLLECTION BOX - BLUE BOX,2701 GWYNNS FALLS PKWY,BALTIMORE,MD,,US,,,,United States Postal Service,Q668687
2121600058,usps_collection_boxes,USPS COLLECTION BOX - BLUE BOX,4616 NORFOLK AVE,BALTIMORE,MD,,US,,,,United States Postal Service,Q668687
2121600046,usps_collection_boxes,USPS COLLECTION BOX - BLUE BOX,2756 RIGGS AVE,BALTIMORE,MD,,US,,,,United States Postal Service,Q668687
2121600010,usps_collection_boxes,USPS COLLECTION BOX - BLUE BOX,2701 WINCHESTER ST,BALTIMORE,MD,,US,,,,United States Postal Service,Q668687
2121600121,usps_collection_boxes,USPS COLLECTION BOX - BLUE BOX,2500 W NORTH AVE,BALTIMORE,MD,,US,,,,United States Postal Service,Q668687
2121600088,usps_collection_boxes,USPS COLLECTION BOX - BLUE BOX,721 POPLAR GROVE ST,BALTIMORE,MD,,US,,,,United States Postal Service,Q668687
2121600040,usps_collection_boxes,USPS COLLECTION BOX - BLUE BOX,730 N ASHBURTON ST,BALTIMORE,MD,,US,,,,United States Postal Service,Q668687
2121600023,usps_collection_boxes,USPS COLLECTION BOX - BLUE BOX,1921 N BENTALOU ST,BALTIMORE,MD,,US,,,,United States Postal Service,Q668687
2121600118,usps_collection_boxes,USPS COLLECTION BOX - BLUE BOX,2200 W NORTH AVE,BALTIMORE,MD,,US,,,,United States Postal Service,Q668687
2121600030,usps_collection_boxes,USPS COLLECTION BOX - BLUE BOX,2546 CALVERTON HEIGHTS AVE,BALTIMORE,MD,,US,,,,United States Postal Service,Q668687
2121600021,usps_collection_boxes,USPS COLLECTION BOX - BLUE BOX,1226 N BENTALOU ST,BALTIMORE,MD,,US,,,,United States Postal Service,Q668687
2121600074,usps_collection_boxes,USPS COLLECTION BOX - BLUE BOX,2430 W LANVALE ST,BALTIMORE,MD,,US,,,,United States Postal Service,Q668687
2121600122,usps_collection_boxes,USPS COLLECTION BOX - BLUE BOX,2329 HARLEM AVE,BALTIMORE,MD,,US,,,,United States Postal Service,Q668687
,visa,,,TOWSON,MD,,US,,,,,
,visa,,,BALTIMORE,MD,,US,,,,,
,visa,,,BALTIMORE,MD,,US,,,,,
,visa,,,BALTIMORE,MD,,US,,,,,
,visa,,,BALTIMORE,MD,,US,,,,,
,visa,,,BALTIMORE,MD,,US,,,,,
,visa,,,BALTIMORE,MD,,US,,,,,
,visa,,,BALTIMORE,MD,,US,,,,,
,visa,,,BALTIMORE,MD,,US,,,,,
,visa,,,BALTIMORE,MD,,US,,,,,
,visa,,,BALTIMORE,MD,,US,,,,,
,visa,,,BALTIMORE,MD,,US,,,,,
,visa,,,BALTIMORE,MD,,US,,,,,
,visa,,,BALTIMORE,MD,,US,,,,,
,visa,,,BALTIMORE,MD,,US,,,,,
,visa,,,BALTIMORE,MD,,US,,,,,
,visa,,,BALTIMORE,MD,,US,,,,,
,visa,,,BALTIMORE,MD,,US,,,,,
,visa,,,BALTIMORE,MD,,US,,,,,
,visa,,,BALTIMORE,MD,,US,,,,,
,visa,,,BALTIMORE,MD,,US,,,,,
,visa,,,BALTIMORE,MD,,US,,,,,
,visa,,,BALTIMORE,MD,,US,,,,,
,visa,,,BALTIMORE,MD,,US,,,,,
,visa,,,BALTIMORE,MD,,US,,,,,
,visa,,,BALTIMORE,MD,,US,,,,,
,visa,,,BALTIMORE,MD,,US,,,,,
,visa,,,BALTIMORE,MD,,US,,,,,
,visa,,,BALTIMORE,MD,,US,,,,,
,visa,,,BALTIMORE,MD,,US,,,,,
,visa,,,BALTIMORE,MD,,US,,,,,
,visa,,,BALTIMORE,MD,,US,,,,,
,visa,,,BALTIMORE,MD,,US,,,,,
,visa,,,BALTIMORE,MD,,US,,,,,
,visa,,,BALTIMORE,MD,,US,,,,,
,visa,,,BALTIMORE,MD,,US,,,,,
,visa,,,BALTIMORE,MD,,US,,,,,
,visa,,,BALTIMORE,MD,,US,,,,,
,visa,,,BALTIMORE,MD,,US,,,,,
,visa,,,BALTIMORE,MD,,US,,,,,
,visa,,,BALTIMORE,MD,,US,,,,,
,visa,,,BALTIMORE,MD,,US,,,,,
,visa,,,BALTIMORE,MD,,US,,,,,
,visa,,,BALTIMORE,MD,,US,,,,,
,visa,,,BALTIMORE,MD,,US,,,,,
,visa,,,BALTIMORE,MD,,US,,,,,
,visa,,,BALTIMORE,MD,,US,,,,,
,visa,,,BALTIMORE,MD,,US,,,,,
,visa,,,BALTIMORE,MD,,US,,,,,
,visa,,,BALTIMORE,MD,,US,,,,,
,visa,,,BALTIMORE,MD,,US,,,,,
,visa,,,BALTIMORE,MD,,US,,,,,
,visa,,,BALTIMORE,MD,,US,,,,,
,visa,,,BALTIMORE,MD,,US,,,,,
,visa,,,BALTIMORE,MD,,US,,,,,
,visa,,,BALTIMORE,MD,,US,,,,,
,visa,,,BALTIMORE,MD,,US,,,,,
,visa,,,BALTIMORE,MD,,US,,,,,
,visa,,,BALTIMORE,MD,,US,,,,,
,visa,,,BALTIMORE,MD,,US,,,,,
,visa,,,BALTIMORE,MD,,US,,,,,
,visa,,,BALTIMORE,MD,,US,,,,,
,visa,,,BALTIMORE,MD,,US,,,,,
,visa,,,BALTIMORE,MD,,US,,,,,
,visa,,,BALTIMORE,MD,,US,,,,,
,visa,,,BALTIMORE,MD,,US,,,,,
,visa,,,BALTIMORE,MD,,US,,,,,
,visa,,,BALTIMORE,MD,,US,,,,,
,visa,,,BALTIMORE,MD,,US,,,,,
,visa,,,BALTIMORE,MD,,US,,,,,
,visa,,,BALTIMORE,MD,,US,,,,,
,visa,,,BALTIMORE,MD,,US,,,,,
,visa,,,BALTIMORE,MD,,US,,,,,
,visa,,,BALTIMORE,MD,,US,,,,,
,visa,,,BALTIMORE,MD,,US,,,,,
,visa,,,BALTIMORE,MD,,US,,,,,
,visa,,,"BALTIMORE,MD",MD,,US,,,,,
,visa,,,BALTIMORE,MD,,US,,,,,
,visa,,,BALTIMORE,MD,,US,,,,,
3200__W__NORTH__AVE_BALTIMORE_MD_21216,wellsfargo,Wells Fargo,3200 W NORTH AVE,BALTIMORE,MD,,US,+1 410-462-3848,https://www.wellsfargo.com/locator/bank/3200__W__NORTH__AVE_BALTIMORE_MD_21216/,Mo-Fr 09:00-17:00,Wells Fargo,Q744149
