Ref,Spider,Name,Address,City,State,Zipcode,Country,Phone,Website,Hours,Brand,WikiData
https://storelocations.ae.com/#29025987,american_eagle_outfitters,OFFLINE Store 69 Main Street,,Westport,CT,,US,+1 203-349-4205,https://storelocations.ae.com/us/ct/westport/91-main-street.html,Mo-Sa 10:00-18:00; Su 11:00-18:00,OFFLINE Store,Q2842931
14990,asics_us,ASF Sports & Outdoors,1560 Post Rd E,Westport,CT,,US,+1 203-255-4460,,Mo-Fr 10:00-18:00; Sa 10:00-17:30; Su 11:00-16:30,asics,Q327247
164453,asics_us,Fleet Feet Westport,633 Post Road East,Westport,CT,,US,+1 203-557-3608,,Mo-Th 10:00-18:00; Fr 10:00-19:00; Sa 10:00-18:00; Su 11:00-17:00,asics,Q327247
https://www.avis.com/en/locations/us/ct/westport/wes,avis,Avis U S A Westport,,Westport,CT,,US,+1 203-227-1232,https://www.avis.com/en/locations/us/ct/westport/wes,Mo-Fr 08:00-18:00; Sa-Su 08:00-15:00,Avis,Q791136
https://locators.bankofamerica.com/ct/westport/financial-centers-westport-13368.html,bankofamerica,Bank of America Financial Center & Drive-Thru ATM | Westport Center,,Westport,CT,,US,+1 203-221-3248,https://locators.bankofamerica.com/ct/westport/financial-centers-westport-13368.html,Mo-Fr 10:00-16:00,Bank of America,Q487907
1109240,bassett_furniture,Bassett Home Furnishings,,Westport,CT,,US,+1 203-222-3888,https://stores.bassettfurniture.com/ct/westport/1109240,Mo-Sa 10:00-18:00; Su 12:00-17:00,Bassett Furniture,Q4868109
72773,bluerhino,Cumberland Farms #4733,,East Westport,CT,,US,+1 203-227-6282,,,Blue Rhino,Q65681213
151432,bluerhino,Walgreens #7145,,Westport,CT,,US,+1 203-226-8452,,,Blue Rhino,Q65681213
58675,bluerhino,Stop & Shop #653,,Westport,CT,,US,+1 203-254-8484,,,Blue Rhino,Q65681213
2038161,chase_us,Westport Main St - New branch,,Westport,CT,,US,+1 203-227-1116,https://locator.chase.com/ct/westport/184-main-st,Mo-Fr 09:00-17:00; Sa 09:00-14:00,Chase,Q524629
2038160,chase_us,Greens Farms - New branch,,Westport,CT,,US,+1 203-227-0010,https://locator.chase.com/ct/westport/1090-post-rd-e,Mo-Fr 09:00-17:00; Sa 09:00-14:00,Chase,Q524629
ATM-1927,citizens_us,,,Westport,CT,,US,,,,Citizens,Q5122694
ATM-1746,citizens_us,,,Westport,CT,,US,,,,Citizens,Q5122694
520091,cumberland_farms_us,Cumberland Farms,,WESTPORT,CT,,US,+1 203-227-6282,https://www.cumberlandfarms.com/find-us/generic-store-page/?id=004733,,Cumberland Farms,Q1143685
521516,cumberland_farms_us,Cumberland Farms,,Westport,CT,,US,+1 203-256-1131,https://www.cumberlandfarms.com/find-us/generic-store-page/?id=004781,,Cumberland Farms,Q1143685
623,cvs_us,CVS Pharmacy,,Westport,CT,,US,+1 203-227-7343,https://www.cvs.com/store-locator/westport-ct-pharmacies/397-post-road-east-westport-ct-06880/storeid=623,24/7,CVS Pharmacy,Q2078880
348429,dunkin_us,Dunkin',,Westport,CT,,US,+1 203-341-0650,https://locations.dunkindonuts.com/en/ct/westport/23-bridge-square/348429,Mo-Su 05:00-20:00,Dunkin',Q847743
363851,dunkin_us,Dunkin',,Westport,CT,,US,+1 203-349-5707,https://locations.dunkindonuts.com/en/ct/westport/385-post-road-east/363851,Mo-Su 05:00-20:00,Dunkin',Q847743
520091,eg_america_us,Cumberland Farms,,WESTPORT,CT,,US,+1 203-227-6282,https://www.cumberlandfarms.com/find-us/generic-store-page/?id=004733,,Cumberland Farms,Q1143685
521516,eg_america_us,Cumberland Farms,,Westport,CT,,US,+1 203-256-1131,https://www.cumberlandfarms.com/find-us/generic-store-page/?id=004781,,Cumberland Farms,Q1143685
0203,european_wax_center_us,European Wax Center,,Westport,CT,,US,+1 203-295-8905,https://locations.waxcenter.com/ct/westport/westport-0203.html,Mo-Fr 09:00-20:00; Sa 09:00-18:00; Su 09:00-17:00,European Wax Center,Q5413426
200329737,exxonmobil,"WESTPORT AUTOMOTIVE SERVICES, INC.",,WESTPORT,CT,,US,+1 203-227-0503,https://www.exxon.com/en/find-station/exxon-westport-ct-westportautomotiveservicesinc-200329737,Mo-Fr 05:00-21:00; Sa-Su 07:00-21:00,Exxon,Q109675651
200319912,exxonmobil,WESTPORT EXXON,,WESTPORT,CT,,US,+1 203-255-3549,https://www.exxon.com/en/find-station/exxon-westport-ct-westportexxon-200319912,24/7,Exxon,Q109675651
200315545,exxonmobil,WESTPORT SERVICE CENTER,,WESTPORT,CT,,US,+1 203-227-0575,https://www.exxon.com/en/find-station/mobil-westport-ct-westportservicecenter-200315545,Mo-Su 07:00-22:00,Mobil,Q109676002
https://restaurants.fiveguys.com/#15553315,five_guys_us,Five Guys Westport,,Westport,CT,,US,+1 203-557-4250,https://restaurants.fiveguys.com/534-post-road-east,"Mo-Su 10:00-21:30,10:00-22:00",Five Guys,Q1131810
https://www.fleetfeet.com/s/westport,fleet_feet_us,Fleet Feet,,Westport,CT,,US,,https://www.fleetfeet.com/s/westport,,Fleet Feet,Q117062761
676a299f-fa32-e211-bd7d-005056934050,goodwill,Westport Store,,Westport,CT,,US,+1 203-259-3943,https://www.goodwill.org/locator/location/?store=Njc2YTI5OWYtZmEzMi1lMjExLWJkN2QtMDA1MDU2OTM0MDUw&lat=NDEuMTM4NDg=&lng=LTczLjMwNjY4,,Goodwill,Q5583655
4602,gulf_pr_us,COUNTRY STORE,,Westport,CT,,US,+1 203-227-2200,https://www.gulfoil.com/country-store,,Gulf Oil,Q5617505
223,jmclaughlin_us,J. McLaughlin,,Westport,CT,,US,+1 475-284-2495,https://www.jmclaughlin.com/store-details?store=US/CT/Westport/382-Post-Road-East/Westport,Mo-Sa 10:00-18:00; Su 11:00-16:00,J. McLaughlin,Q111230943
https://stores.jcrew.com/#1975422,j_crew_us,J.Crew,,Westport,CT,,US,+1 203-226-6502,https://stores.jcrew.com/us/ct/westport/145-main-street,Mo-Sa 10:00-18:00; Su 11:00-18:00,J. Crew,Q5370765
Westport Store,lululemon,Lululemon,"69 Main Street, Westport, CT, US, 06880",Westport,CT,,US,+1 475-256-5433,https://shop.lululemon.com/stores/us/westport/westport,Mo-Su 10:00-18:00,Lululemon,Q6702957
https://stores.madewell.com/#1974771,madewell_us,Madewell,,Westport,CT,,US,+1 203-222-0014,https://stores.madewell.com/us/ct/westport/155-main-street,Mo-Sa 10:00-18:00; Su 11:00-18:00,Madewell,Q64026213
dealer_6128,maserati,MASERATI OF WESTPORT,,WESTPORT,CT,,US,,https://www.maseratiusaofwestport.com/,,Maserati,Q35962
16859,mattress_firm_us,Mattress Firm Westport,,Westport,CT,,US,+1 203-255-2316,https://www.mattressfirm.com/en-us/stores/ct/westport/174017/,,Mattress Firm,Q6791878
1172,michaels,"WESTPORT, CT",,Westport,CT,,US,+1 203-692-4374,https://locations.michaels.com/ct/westport/1172,Mo-Sa 09:00-21:00; Su 10:00-19:00,Michaels,Q6835667
https://locations.mtb.com/#3027921,mt_bank_us,M&T Bank,,,CT,,US,+1 203-454-8411,https://locations.mtb.com/ct/westport/bank-branches-and-atms-westport-ct-8304.html,Mo-Th 09:00-16:00; Fr 09:00-17:00; Sa 09:00-12:00,M&T Bank,Q3272257
https://locations.mtb.com/#3027862,mt_bank_us,M&T Bank,,,CT,,US,+1 203-254-2188,https://locations.mtb.com/ct/westport/bank-branches-and-atms-westport-ct-8251.html,Mo-Fr 09:00-17:00; Sa 09:00-12:00,M&T Bank,Q3272257
https://locations.mtb.com/#3027790,mt_bank_us,M&T Bank,,,CT,,US,+1 203-227-1284,https://locations.mtb.com/ct/westport/bank-branches-and-atms-westport-ct-8182.html,Mo-Th 09:00-16:00; Fr 09:00-17:00; Sa 09:00-12:00,M&T Bank,Q3272257
877-post-rd-east,my_eye_dr,,,Westport,CT,,US,+1 203-226-5585,https://locations.myeyedr.com/ct/westport/877-post-rd-east,,MyEyeDr.,Q117864710
1139,orangetheory_fitness,"Westport, CT",,Westport,CT,,US,+1 203-883-9262,,,Orangetheory Fitness,Q25005163
1604,paper_source_us,"Westport, CT",,Westport,CT,,US,+1 203-682-0500,https://www.papersource.com/locator/Ct-westport/,Mo-Tu 10:00-19:00; We-Fr 10:00-20:00; Sa 10:00-19:00; Su 11:00-18:00,Paper Source,Q25000269
https://stores.petco.com/#27959834,petco,Petco Westport,,Westport,CT,,US,+1 203-418-9352,https://stores.petco.com/ct/westport/pet-supplies-westport-ct-3787.html,Mo-Sa 09:00-21:00; Su 10:00-19:00,Petco,Q7171798
685,pure_barre_us,Westport,,Westport,CT,,US,+1 203-557-8663,https://www.purebarre.com/location/westport-ct,,Pure Barre,Q86707084
3801511519648817772,sleep_number_us,Sleep Number,,Westport,CT,,US,,https://www.sleepnumber.com/stores/ct/westport/606-post-road-east,Mo-Th 10:00-19:00; Fr-Sa 10:00-20:00; Su 11:00-20:00,Sleep Number,Q7447640
274,sola_salon_studios,Westport,,Westport,CT,,US,+1 203-885-7652,https://www.solasalonstudios.com/locations/westport,,Sola Salon Studios,Q64337426
https://www.solidcore.co/ct/connecticut/westport/,solidcore_us,[solidcore],,Westport,CT,,US,+1 203-349-9230,https://www.solidcore.co/ct/connecticut/westport/,,[solidcore],Q124429271
Westport ,soulcycle,Westport ,372 Post Road E,Westport,CT,,US,+1 203-683-7685,https://www.soul-cycle.com/studios/ct-westport/,,Soulcycle,Q17084730
0653,stop_and_shop,Super Stop & Shop,1790 Post Road East,Westport,CT,,US,,,,Stop and Shop,Q3658429
https://restaurants.subway.com/#14902171,subway,Subway,,Westport Fairfield,CT,,US,+1 203-227-2626,https://restaurants.subway.com/united-states/ct/westport/940-post-road-east,Mo-Su 07:00-20:00,Subway,Q244457
0005502003,sunoco_us,Sunoco,,WESTPORT,CT,,US,+1 203-227-8539,,Mo-Su 06:00-22:00,Sunoco,Q1423218
82321,supercuts,Garlick & Herbs Plaza,1799 Post Rd E,Westport,CT,,US,+1 203-254-0557,https://www.supercuts.com/checkin/82321,Mo-Fr 09:00-19:00; Sa 09:00-18:00; Su 09:00-16:00,Supercuts,Q7643239
28463,tjx,Westport,1850 Post Road East,Westport,CT,,US,+1 203-256-9453,,Mo-Sa 09:30-21:30; Su 10:00-20:00,HomeGoods,Q5887941
521,trader_joes_us,Trader Joe's Westport (521),,Westport,CT,,US,+1 203-226-8966,https://locations.traderjoes.com/ct/westport/521/,Mo-Su 08:00-21:00,Trader Joe's,Q688825
1387354,usps,WESTPORT,,WESTPORT,CT,,US,+1 203-229-0480,,Mo-Fr 09:00-17:30; Sa 09:00-12:30,United States Postal Service,Q668687
0688000098,usps_collection_boxes,USPS COLLECTION BOX - BLUE BOX,234 WESTPORT AVE,WESTPORT,CT,,US,,,,United States Postal Service,Q668687
0688000031,usps_collection_boxes,USPS COLLECTION BOX - BLUE BOX,21 CHARLES ST,WESTPORT,CT,,US,,,,United States Postal Service,Q668687
0688000069,usps_collection_boxes,USPS COLLECTION BOX - BLUE BOX,615 RIVERSIDE AVE,WESTPORT,CT,,US,,,,United States Postal Service,Q668687
0688000101,usps_collection_boxes,USPS COLLECTION BOX - BLUE BOX,25 FRANKLIN ST,WESTPORT,CT,,US,,,,United States Postal Service,Q668687
0688000097,usps_collection_boxes,USPS COLLECTION BOX - BLUE BOX,3 BRIDGE SQ,WESTPORT,CT,,US,,,,United States Postal Service,Q668687
0688000038,usps_collection_boxes,USPS COLLECTION BOX - BLUE BOX,315 POST RD W,WESTPORT,CT,,US,,,,United States Postal Service,Q668687
0688000064,usps_collection_boxes,USPS COLLECTION BOX - BLUE BOX,320 POST RD W,WESTPORT,CT,,US,,,,United States Postal Service,Q668687
0688000034,usps_collection_boxes,USPS COLLECTION BOX - BLUE BOX,274 RIVERSIDE AVE,WESTPORT,CT,,US,,,,United States Postal Service,Q668687
0688000039,usps_collection_boxes,USPS COLLECTION BOX - BLUE BOX,221 POST RD W,WESTPORT,CT,,US,,,,United States Postal Service,Q668687
0688000036,usps_collection_boxes,USPS COLLECTION BOX - BLUE BOX,25 SYLVAN RD S,WESTPORT,CT,,US,,,,United States Postal Service,Q668687
0688000063,usps_collection_boxes,USPS COLLECTION BOX - BLUE BOX,170 POST RD W,WESTPORT,CT,,US,,,,United States Postal Service,Q668687
0688000062,usps_collection_boxes,USPS COLLECTION BOX - BLUE BOX,55 GREENFARMS RD,WESTPORT,CT,,US,,,,United States Postal Service,Q668687
0688000082,usps_collection_boxes,USPS COLLECTION BOX - BLUE BOX,33 RIVERSIDE AVE,WESTPORT,CT,,US,,,,United States Postal Service,Q668687
0688000029,usps_collection_boxes,USPS COLLECTION BOX - BLUE BOX,10 WRIGHT ST,WESTPORT,CT,,US,,,,United States Postal Service,Q668687
0688000028,usps_collection_boxes,USPS COLLECTION BOX - BLUE BOX,16 WILTON RD,WESTPORT,CT,,US,,,,United States Postal Service,Q668687
0688000086,usps_collection_boxes,USPS COLLECTION BOX - BLUE BOX,20 BAY ST,WESTPORT,CT,,US,,,,United States Postal Service,Q668687
0688000073,usps_collection_boxes,USPS COLLECTION BOX - BLUE BOX,167 MAIN ST,WESTPORT,CT,,US,,,,United States Postal Service,Q668687
0688000099,usps_collection_boxes,USPS COLLECTION BOX - BLUE BOX,1870 POST RD E,WESTPORT,CT,,US,,,,United States Postal Service,Q668687
0688000048,usps_collection_boxes,USPS COLLECTION BOX - BLUE BOX,1790 POST RD E,WESTPORT,CT,,US,,,,United States Postal Service,Q668687
0688000096,usps_collection_boxes,USPS COLLECTION BOX - BLUE BOX,1720 POST RD E,WESTPORT,CT,,US,,,,United States Postal Service,Q668687
0688000066,usps_collection_boxes,USPS COLLECTION BOX - BLUE BOX,1460 POST RD E,WESTPORT,CT,,US,,,,United States Postal Service,Q668687
0688000050,usps_collection_boxes,USPS COLLECTION BOX - BLUE BOX,1465 POST RD E,WESTPORT,CT,,US,,,,United States Postal Service,Q668687
0688000047,usps_collection_boxes,USPS COLLECTION BOX - BLUE BOX,1246 POST RD E,WESTPORT,CT,,US,,,,United States Postal Service,Q668687
0688000051,usps_collection_boxes,USPS COLLECTION BOX - BLUE BOX,606 POST RD E,WESTPORT,CT,,US,,,,United States Postal Service,Q668687
0688000052,usps_collection_boxes,USPS COLLECTION BOX - BLUE BOX,830 POST RD E,WESTPORT,CT,,US,,,,United States Postal Service,Q668687
0688000060,usps_collection_boxes,USPS COLLECTION BOX - BLUE BOX,877 POST RD E,WESTPORT,CT,,US,,,,United States Postal Service,Q668687
0688000095,usps_collection_boxes,USPS COLLECTION BOX - BLUE BOX,397 POST RD E,WESTPORT,CT,,US,,,,United States Postal Service,Q668687
0688000103,usps_collection_boxes,USPS COLLECTION BOX - PO LOBBY,275 POST RD E,WESTPORT,CT,,US,,,,United States Postal Service,Q668687
0688000002,usps_collection_boxes,USPS COLLECTION BOX - BLUE BOX,275 POST RD E,WESTPORT,CT,,US,,,,United States Postal Service,Q668687
0688000110,usps_collection_boxes,USPS COLLECTION BOX - PO LOBBY,275 POST RD E,WESTPORT,CT,,US,,,,United States Postal Service,Q668687
0688000007,usps_collection_boxes,USPS COLLECTION BOX - BLUE BOX,110 MYRTLE AVE,WESTPORT,CT,,US,,,,United States Postal Service,Q668687
0688000024,usps_collection_boxes,USPS COLLECTION BOX - BLUE BOX,136 MAIN ST,WESTPORT,CT,,US,,,,United States Postal Service,Q668687
0688000081,usps_collection_boxes,USPS COLLECTION BOX - BLUE BOX,111 MYRTLE AVE,WESTPORT,CT,,US,,,,United States Postal Service,Q668687
0688000067,usps_collection_boxes,USPS COLLECTION BOX - BLUE BOX,225 MAIN ST,WESTPORT,CT,,US,,,,United States Postal Service,Q668687
0688000077,usps_collection_boxes,USPS COLLECTION BOX - BLUE BOX,190 WESTON RD,WESTPORT,CT,,US,,,,United States Postal Service,Q668687
0688000111,usps_collection_boxes,USPS COLLECTION BOX - PO LOBBY,190 WESTON RD STE 1,WESTPORT,CT,,US,,,,United States Postal Service,Q668687
A00000175215,verizon_us,Wireless Zone Westport,,Westport,CT,,US,+1 203-221-0000,https://www.verizon.com/stores/details/connecticut/westport/wireless-zone-westport-1800722/,Mo-Sa 10:00-19:00; Su 11:00-17:00,Verizon,Q919641
,visa,,,WESTPORT,CT,,US,,,,,
,visa,,,WESTPORT,CT,,US,,,,,
,visa,,,WESTPORT,CT,,US,,,,,
,visa,,,WESTPORT,CT,,US,,,,,
,visa,,,WESTPORT,CT,,US,,,,,
,visa,,,WESTPORT,CT,,US,,,,,
,visa,,,WESTPORT,CT,,US,,,,,
,visa,,,WESTPORT,CT,,US,,,,,
,visa,,,WESTPORT,CT,,US,,,,,
,visa,,,WESTPORT,CT,,US,,,,,
,visa,,,WESTPORT,CT,,US,,,,,
,visa,,,WESTPORT,CT,,US,,,,,
,visa,,,WESTPORT,CT,,US,,,,,
,visa,,,WESTPORT,CT,,US,,,,,
,visa,,,WESTPORT,CT,,US,,,,,
,visa,,,WESTPORT,CT,,US,,,,,
,visa,,,WESTPORT,CT,,US,,,,,
https://www.walgreens.com/locator/walgreens-880+post+rd+e-westport-ct-06880/id=7145,walgreens,Walgreens,,Westport,CT,,US,+1 203-226-8452,https://www.walgreens.com/locator/walgreens-880+post+rd+e-westport-ct-06880/id=7145,Mo-Su 07:00-23:00,Walgreens,Q1591889
422__POST__RD__E_WESTPORT_CT_06880,wellsfargo,Wells Fargo,422 POST RD E,WESTPORT,CT,,US,+1 203-226-7440,https://www.wellsfargo.com/locator/bank/422__POST__RD__E_WESTPORT_CT_06880/,Mo-Fr 09:00-17:00,Wells Fargo,Q744149
westport,whole_foods,Westport,399 Post Rd W,Westport,CT,,US,+1 203-227-6858,https://www.wholefoodsmarket.com/stores/westport,Mo-Su 08:00-21:00,Whole Foods,Q1809448
ymca-westportweston-ct-inc,ymca,YMCA of Westport/Weston CT Inc.,14 Allen Raymond Lane,Westport,CT,,US,+1 203-226-8981,https://www.ymca.org/locations/ymca-westportweston-ct-inc,Mo-Fr 05:30-21:00; Sa-Su 07:00-18:00,YMCA,Q157169
