Ref,Spider,Name,Address,City,State,Zipcode,Country,Phone,Website,Hours,Brand,WikiData
CN_6090,shell,清徐三丰加油站,,太原,山西,,CN,,https://find.shell.com/cn/fuel/CN_6090-,,Shell,Q110716465
CN_6144,shell,太原太太路东加油站,,太原,山西,,CN,,https://find.shell.com/cn/fuel/CN_6144-,,Shell,Q110716465
CN_60HZ,shell,清徐华茂加油站,,太原,山西,,CN,,https://find.shell.com/cn/fuel/CN_60HZ-,24/7,Shell,Q110716465
CN_608M,shell,清徐昌顺加油站,,太原,山西,,CN,,https://find.shell.com/cn/fuel/CN_608M-,,Shell,Q110716465
CN_608J,shell,太谷水秀加油站,,晋中,山西,,CN,,https://find.shell.com/cn/fuel/CN_608J-,,Shell,Q110716465
CN_608R,shell,太原晋源区王郭村加油站,,太原,山西,,CN,,https://find.shell.com/cn/fuel/CN_608R-,,Shell,Q110716465
CN_60LA,shell,太原龙城服务区北区加油站,,太原,山西,,CN,+86 184 3517 3851,https://find.shell.com/cn/fuel/CN_60LA-,24/7,Shell,Q110716465
CN_60G7,shell,太谷凤仪街加油站,,太谷/晋中,山西,,CN,+86 189 6684 3881,https://find.shell.com/cn/fuel/CN_60G7-,24/7,Shell,Q110716465
CN_609Z,shell,太原市新晋祠路东加油站,,太原,山西,,CN,,https://find.shell.com/cn/fuel/CN_609Z-,,Shell,Q110716465
CN_608P,shell,太谷华盛加油站,,晋中,山西,,CN,,https://find.shell.com/cn/fuel/CN_608P-,,Shell,Q110716465
CN_608G,shell,太谷城关加油站,,晋中,山西,,CN,,https://find.shell.com/cn/fuel/CN_608G-,,Shell,Q110716465
CN_608H,shell,太谷富源加油站,,晋中,山西,,CN,,https://find.shell.com/cn/fuel/CN_608H-,,Shell,Q110716465
CN_608I,shell,太谷富谷加油站,,晋中,山西,,CN,,https://find.shell.com/cn/fuel/CN_608I-,,Shell,Q110716465
CN_6104,shell,晋中市榆清路南张庆加油站,,晋中,山西,,CN,,https://find.shell.com/cn/fuel/CN_6104-,,Shell,Q110716465
CN_609W,shell,太原清徐东于加油站,,太原,山西,,CN,,https://find.shell.com/cn/fuel/CN_609W-,,Shell,Q110716465
CN_60B8,shell,太原晋源新城加油站,,太原,山西,,CN,,https://find.shell.com/cn/fuel/CN_60B8-,,Shell,Q110716465
CN_6103,shell,晋中市陈侃加油站,,晋中,山西,,CN,,https://find.shell.com/cn/fuel/CN_6103-,,Shell,Q110716465
CN_608V,shell,太原经济区卫国加油站,,太原,山西,,CN,,https://find.shell.com/cn/fuel/CN_608V-,,Shell,Q110716465
CN_6110,shell,太原市汾东南路西加油站,,太原,山西,,CN,,https://find.shell.com/cn/fuel/CN_6110-,,Shell,Q110716465
CN_609C,shell,晋源立明加油站,,太原,山西,,CN,,https://find.shell.com/cn/fuel/CN_609C-,,Shell,Q110716465
CN_6094,shell,榆次金顺加油站,,晋中,山西,,CN,,https://find.shell.com/cn/fuel/CN_6094-,,Shell,Q110716465
CN_608O,shell,晋中开发区环城西路加油站,,晋中,山西,,CN,,https://find.shell.com/cn/fuel/CN_608O-,,Shell,Q110716465
CN_608L,shell,榆次泰洛加油站,,晋中,山西,,CN,,https://find.shell.com/cn/fuel/CN_608L-,,Shell,Q110716465
CN_6096,shell,晋中开发区汇通加油站,,晋中,山西,,CN,,https://find.shell.com/cn/fuel/CN_6096-,,Shell,Q110716465
CN_608Q,shell,晋中开发区榆太加油站,,晋中,山西,,CN,,https://find.shell.com/cn/fuel/CN_608Q-,,Shell,Q110716465
CN_6102,shell,晋中市汇通北路东使赵加油站,,晋中,山西,,CN,,https://find.shell.com/cn/fuel/CN_6102-,,Shell,Q110716465
CN_6101,shell,太原市太榆路西武宿加油站,,太原,山西,,CN,,https://find.shell.com/cn/fuel/CN_6101-,,Shell,Q110716465
CN_609U,shell,太原市晋祠路南上庄加油站,,太原,山西,,CN,,https://find.shell.com/cn/fuel/CN_609U-,,Shell,Q110716465
CN_60A0,shell,榆次顺城东街南加油站,,晋中,山西,,CN,,https://find.shell.com/cn/fuel/CN_60A0-,,Shell,Q110716465
CN_6111,shell,太原西矿街加油站,,太原,山西,,CN,,https://find.shell.com/cn/fuel/CN_6111-,,Shell,Q110716465
CN_60K7,shell,文水则天大街加油站,,吕梁,山西,,CN,+86 159 0297 9356,https://find.shell.com/cn/fuel/CN_60K7-,,Shell,Q110716465
CN_60DV,shell,太原环城高速北服务区东区加油站,,太原,山西,,CN,,https://find.shell.com/cn/fuel/CN_60DV-,,Shell,Q110716465
CN_608U,shell,汾阳市益华加油站,,吕梁,山西,,CN,,https://find.shell.com/cn/fuel/CN_608U-,,Shell,Q110716465
CN_609H,shell,汾阳市巨源加油站,,吕梁,山西,,CN,,https://find.shell.com/cn/fuel/CN_609H-,,Shell,Q110716465
CN_608N,shell,介休运通加油站,,晋中,山西,,CN,,https://find.shell.com/cn/fuel/CN_608N-,,Shell,Q110716465
CN_608T,shell,孝义市先锋加油站,,吕梁,山西,,CN,,https://find.shell.com/cn/fuel/CN_608T-,,Shell,Q110716465
CN_6095,shell,孝义市首龙加油站,,吕梁,山西,,CN,,https://find.shell.com/cn/fuel/CN_6095-,,Shell,Q110716465
CN_6092,shell,介休铁南加油站,,晋中,山西,,CN,,https://find.shell.com/cn/fuel/CN_6092-,,Shell,Q110716465
CN_609S,shell,孝义市昌盛加油站,,吕梁,山西,,CN,,https://find.shell.com/cn/fuel/CN_609S-,,Shell,Q110716465
CN_6093,shell,孝义市泽玉加油站,,吕梁,山西,,CN,,https://find.shell.com/cn/fuel/CN_6093-,,Shell,Q110716465
CN_609G,shell,孝义市新世纪加油站,,吕梁,山西,,CN,,https://find.shell.com/cn/fuel/CN_609G-,,Shell,Q110716465
CN_6U0F,shell,山西忻州忻府区润通石化加油站,,忻州,山西,,CN,+86 186 0789 3399,https://find.shell.com/cn/fuel/CN_6U0F-,24/7,Shell,Q110716465
CN_6098,shell,忻州正大加油站,,忻州,山西,,CN,,https://find.shell.com/cn/fuel/CN_6098-,,Shell,Q110716465
CN_60CQ,shell,长治前进加油站,,长治,山西,,CN,,https://find.shell.com/cn/fuel/CN_60CQ-,,Shell,Q110716465
CN_609R,shell,长治市石泰加油站,,长治,山西,,CN,,https://find.shell.com/cn/fuel/CN_609R-,,Shell,Q110716465
CN_609I,shell,原平市石封加油站,,忻州,山西,,CN,,https://find.shell.com/cn/fuel/CN_609I-,,Shell,Q110716465
CN_6U36,shell,山西临县西服务区北站,,吕梁,山西,,CN,+86 155 2902 9037,https://find.shell.com/cn/fuel/CN_6U36-,24/7,Shell,Q110716465
CN_6U37,shell,山西临县西服务区南站,,吕梁,山西,,CN,+86 155 2902 9037,https://find.shell.com/cn/fuel/CN_6U37-,24/7,Shell,Q110716465
CN_60JE,shell,延长壳牌朔州市通顺加油站,,朔州,山西,,CN,+86 151 0346 7526,https://find.shell.com/cn/fuel/CN_60JE-,24/7,Shell,Q110716465
CN_60JH,shell,山西省朔州平铁加油站,,朔州,山西,,CN,+86 349 562 9012,https://find.shell.com/cn/fuel/CN_60JH-,24/7,Shell,Q110716465
CN_60JI,shell,山西省朔州怡通源加油站,,朔州,山西,,CN,+86 349 562 9018,https://find.shell.com/cn/fuel/CN_60JI-,24/7,Shell,Q110716465
CN_60JF,shell,山西省朔州中东加油站,,朔州,山西,,CN,+86 349 562 9019,https://find.shell.com/cn/fuel/CN_60JF-,24/7,Shell,Q110716465
CN_6U73,shell,二广高速康庄服务区西加油站-DOCO,,朔州,山西,,CN,+86 186 3615 7765,https://find.shell.com/cn/fuel/CN_6U73-doco,24/7,Shell,Q110716465
CN_6U72,shell,二广高速康庄服务区东加油站-DOCO,,朔州,山西,,CN,+86 186 3615 7765,https://find.shell.com/cn/fuel/CN_6U72-doco,24/7,Shell,Q110716465
CN_6U31,shell,山西右玉服务区西加油站-DOCO,,朔州,山西,,CN,+86 199 9125 4529,https://find.shell.com/cn/fuel/CN_6U31-doco,,Shell,Q110716465
CN_6U30,shell,山西右玉服务区东加油站-DOCO,,朔州,山西,,CN,+86 199 9125 4529,https://find.shell.com/cn/fuel/CN_6U30-doco,,Shell,Q110716465
CN_6U71,shell,孙右高速官堡服务区北加油站,,大同,山西,,CN,+86 184 3525 2333,https://find.shell.com/cn/fuel/CN_6U71-,,Shell,Q110716465
CN_6U70,shell,孙右高速官堡服务区南加油站,,大同,山西,,CN,+86 184 3525 2333,https://find.shell.com/cn/fuel/CN_6U70-,,Shell,Q110716465
CN_60G4,shell,晋城天马加油站,,晋中,山西,,CN,,https://find.shell.com/cn/fuel/CN_60G4-,,Shell,Q110716465
CN_609P,shell,长治市王坊村加油站,,长治,山西,,CN,,https://find.shell.com/cn/fuel/CN_609P-,,Shell,Q110716465
CN_6149,shell,长治长丰置换站,,长治,山西,,CN,,https://find.shell.com/cn/fuel/CN_6149-,,Shell,Q110716465
CN_609D,shell,长治县北环加油站,,长治,山西,,CN,,https://find.shell.com/cn/fuel/CN_609D-,24/7,Shell,Q110716465
CN_613X,shell,长治县光明路站,,长治,山西,,CN,,https://find.shell.com/cn/fuel/CN_613X-,,Shell,Q110716465
CN_6U3F,shell,长治长陵加油站-DODO,,长治,山西,,CN,+86 152 3458 2888,https://find.shell.com/cn/fuel/CN_6U3F-dodo,24/7,Shell,Q110716465
CN_609O,shell,长治市长陵加油站,,长治,山西,,CN,,https://find.shell.com/cn/fuel/CN_609O-,,Shell,Q110716465
CN_609X,shell,长治市延安南路加油站,,长治,山西,,CN,,https://find.shell.com/cn/fuel/CN_609X-,,Shell,Q110716465
CN_609K,shell,长治市针漳加油站,,长治,山西,,CN,,https://find.shell.com/cn/fuel/CN_609K-,,Shell,Q110716465
CN_609Q,shell,长治市鑫茂加油站,,长治,山西,,CN,,https://find.shell.com/cn/fuel/CN_609Q-,,Shell,Q110716465
CN_609T,shell,长治市西外环加油站,,长治,山西,,CN,,https://find.shell.com/cn/fuel/CN_609T-,,Shell,Q110716465
CN_60DI,shell,长治保宁门街加油站,,长治,山西,,CN,,https://find.shell.com/cn/fuel/CN_60DI-,,Shell,Q110716465
CN_609N,shell,长治市金鹿加油站,,长治,山西,,CN,,https://find.shell.com/cn/fuel/CN_609N-,,Shell,Q110716465
CN_609Y,shell,长治市北外环大辛庄,,长治,山西,,CN,+86 147 0345 1342,https://find.shell.com/cn/fuel/CN_609Y-,24/7,Shell,Q110716465
CN_6100,shell,长治市长治北加油站,,长治,山西,,CN,,https://find.shell.com/cn/fuel/CN_6100-,,Shell,Q110716465
CN_6U0D,shell,翼城西关加油站,,临汾,山西,,CN,+86 153 8857 7759,https://find.shell.com/cn/fuel/CN_6U0D-,24/7,Shell,Q110716465
CN_60F9,shell,运城盐湖交通加油站,,运城市,山西,,CN,,https://find.shell.com/cn/fuel/CN_60F9-,,Shell,Q110716465
CN_6U1T,shell,运城南极加油站,,运城,山西,,CN,+86 176 0359 6843,https://find.shell.com/cn/fuel/CN_6U1T-,24/7,Shell,Q110716465
CN_60EW,shell,运城盐湖南极加油站,,运城市,山西,,CN,,https://find.shell.com/cn/fuel/CN_60EW-,,Shell,Q110716465
CN_6U40,shell,运城服务区南加油站-DOCO,,运城市,山西,,CN,+86 153 9901 9651,https://find.shell.com/cn/fuel/CN_6U40-doco,24/7,Shell,Q110716465
CN_6U39,shell,运城服务区北加油站-DOCO,,运城市,山西,,CN,+86 153 9901 9651,https://find.shell.com/cn/fuel/CN_6U39-doco,24/7,Shell,Q110716465
CN_6U2Y,shell,河津紫金南街加油站-DODO,,运城,山西,,CN,+86 176 0359 6843,https://find.shell.com/cn/fuel/CN_6U2Y-dodo,24/7,Shell,Q110716465
CN_6U26,shell,襄汾高速服务区东区加油站-DOCO,,临汾,山西,,CN,+86 136 4369 1878,https://find.shell.com/cn/fuel/CN_6U26-doco,24/7,Shell,Q110716465
