Ref,Spider,Name,Address,City,State,Zipcode,Country,Phone,Website,Hours,Brand,WikiData
,visa,,,LERMA,ESTADO DE MEXICO,,MX,,,,,
,visa,,,LERMA DE VILLADA,ESTADO DE MEXICO,,MX,,,,,
,visa,,,LERMA,ESTADO DE MEXICO,,MX,,,,,
,visa,,,LERMA DE VILLADA,ESTADO DE MEXICO,,MX,,,,,
,visa,,,LERMA DE VILLADA,ESTADO DE MEXICO,,MX,,,,,
,visa,,,LERMA,ESTADO DE MEXICO,,MX,,,,,
,visa,,,LERMA,ESTADO DE MEXICO,,MX,,,,,
,visa,,,LERMA,ESTADO DE MEXICO,,MX,,,,,
,visa,,,LERMA,ESTADO DE MEXICO,,MX,,,,,
,visa,,,LERMA DE VILLADA,ESTADO DE MEXICO,,MX,,,,,
,visa,,,LERMA,ESTADO DE MEXICO,,MX,,,,,
,visa,,,LERMA,ESTADO DE MEXICO,,MX,,,,,
,visa,,,LERMA,ESTADO DE MEXICO,,MX,,,,,
,visa,,,LERMA,ESTADO DE MEXICO,,MX,,,,,
,visa,,,LERMA,ESTADO DE MEXICO,,MX,,,,,
0f69b2b7af4ff46e6565f49e6a790737,western_union,OXXO SANTA FE TLC,,Lerma De Villada,ESTADO DE MEXICO,,MX,+52 81 8389 2121,https://location.westernunion.com/mx/estado-de-mexico/lerma-de-villada/0f69b2b7af4ff46e6565f49e6a790737,Mo-Su 08:00-22:00,Western Union,Q861042
ce62f6ce673d15ef3f6743a2552add7a,western_union,OXXO SANTA FE TLC,,Lerma De Villada,ESTADO DE MEXICO,,MX,+52 81 8389 2121,https://location.westernunion.com/mx/estado-de-mexico/lerma-de-villada/ce62f6ce673d15ef3f6743a2552add7a,Mo-Su 08:00-22:00,Western Union,Q861042
bfa0477740cac8cc480eb1c1bbd4ccea,western_union,OXXO PLAZA LASPARTIDASTLC,,Lerma De Villada,ESTADO DE MEXICO,,MX,+52 81 8389 2121,https://location.westernunion.com/mx/estado-de-mexico/lerma-de-villada/bfa0477740cac8cc480eb1c1bbd4ccea,Mo-Su 08:00-22:00,Western Union,Q861042
22ab7f1f98ca8173588ccf7798124022,western_union,OXXO PLAZA LASPARTIDASTLC,,Lerma De Villada,ESTADO DE MEXICO,,MX,+52 81 8389 2121,https://location.westernunion.com/mx/estado-de-mexico/lerma-de-villada/22ab7f1f98ca8173588ccf7798124022,Mo-Su 08:00-22:00,Western Union,Q861042
7075a1a4bc073fb140b64c94c7db5b99,western_union,OXXO PLAZA LASPARTIDASTLC,,Lerma De Villada,ESTADO DE MEXICO,,MX,+52 81 8389 2121,https://location.westernunion.com/mx/estado-de-mexico/lerma-de-villada/7075a1a4bc073fb140b64c94c7db5b99,Mo-Su 08:00-22:00,Western Union,Q861042
463f7cb1cf96dfcef8d9fa3fd648454f,western_union,OXXO EL CERRILLO TLC,,Lerma De Villada,ESTADO DE MEXICO,,MX,+52 81 8389 2121,https://location.westernunion.com/mx/estado-de-mexico/lerma-de-villada/463f7cb1cf96dfcef8d9fa3fd648454f,Mo-Su 08:00-22:00,Western Union,Q861042
52ba4d929384f78f4572c3b8d9685023,western_union,OXXO EL CERRILLO TLC,,Lerma De Villada,ESTADO DE MEXICO,,MX,+52 81 8389 2121,https://location.westernunion.com/mx/estado-de-mexico/lerma-de-villada/52ba4d929384f78f4572c3b8d9685023,Mo-Su 08:00-22:00,Western Union,Q861042
d70ffe2978f61c5b23d945509ae5b434,western_union,OXXO EL CERRILLO TLC,,Lerma De Villada,ESTADO DE MEXICO,,MX,+52 81 8389 2121,https://location.westernunion.com/mx/estado-de-mexico/lerma-de-villada/d70ffe2978f61c5b23d945509ae5b434,Mo-Su 08:00-22:00,Western Union,Q861042
0b4574b5fe038fec3bf6ac5f581e976b,western_union,OXXO EL CERRILLO II TLC,,Lerma De Villada,ESTADO DE MEXICO,,MX,+52 81 8389 2121,https://location.westernunion.com/mx/estado-de-mexico/lerma-de-villada/0b4574b5fe038fec3bf6ac5f581e976b,Mo-Su 08:00-22:00,Western Union,Q861042
975da1181ae8d430d1eb1cc88cc05b76,western_union,OXXO EL CERRILLO II TLC,,Lerma De Villada,ESTADO DE MEXICO,,MX,+52 81 8389 2121,https://location.westernunion.com/mx/estado-de-mexico/lerma-de-villada/975da1181ae8d430d1eb1cc88cc05b76,Mo-Su 08:00-22:00,Western Union,Q861042
d30914ceb9a13ddbcc5035886a7bac3a,western_union,OXXO EL CERRILLO II TLC,,Lerma De Villada,ESTADO DE MEXICO,,MX,+52 81 8389 2121,https://location.westernunion.com/mx/estado-de-mexico/lerma-de-villada/d30914ceb9a13ddbcc5035886a7bac3a,Mo-Su 08:00-22:00,Western Union,Q861042
4227c960f268ef68fdde79979622ae69,western_union,OXXO POLARIS TLC,,Lerma De Villada,ESTADO DE MEXICO,,MX,+52 81 8389 2121,https://location.westernunion.com/mx/estado-de-mexico/lerma-de-villada/4227c960f268ef68fdde79979622ae69,Mo-Su 08:00-22:00,Western Union,Q861042
49b8711d008bbe9e44d816a0d0d06928,western_union,OXXO POLARIS TLC,,Lerma De Villada,ESTADO DE MEXICO,,MX,+52 81 8389 2121,https://location.westernunion.com/mx/estado-de-mexico/lerma-de-villada/49b8711d008bbe9e44d816a0d0d06928,Mo-Su 08:00-22:00,Western Union,Q861042
a38500930505d96d6eab3c9762fb36ad,western_union,BANORTE 01297 LERMA,,Lerma De Villada,ESTADO DE MEXICO,,MX,+52 800 833 4700,https://location.westernunion.com/mx/estado-de-mexico/lerma-de-villada/a38500930505d96d6eab3c9762fb36ad,Mo-Fr 09:00-17:00,Western Union,Q861042
98d7a18e4b035f30b099214ba635d83e,western_union,OXXO AZTECA TLC,,Lerma De Villada,ESTADO DE MEXICO,,MX,+52 81 8389 2121,https://location.westernunion.com/mx/estado-de-mexico/lerma-de-villada/98d7a18e4b035f30b099214ba635d83e,Mo-Su 08:00-22:00,Western Union,Q861042
64470ff8b2fba5abac341a29980a3a8d,western_union,OXXO AZTECA TLC,,Lerma De Villada,ESTADO DE MEXICO,,MX,+52 81 8389 2121,https://location.westernunion.com/mx/estado-de-mexico/lerma-de-villada/64470ff8b2fba5abac341a29980a3a8d,Mo-Su 08:00-22:00,Western Union,Q861042
8f255d090013137851e8e80c85469d2c,western_union,OXXO AZTECA TLC,,Lerma De Villada,ESTADO DE MEXICO,,MX,+52 81 8389 2121,https://location.westernunion.com/mx/estado-de-mexico/lerma-de-villada/8f255d090013137851e8e80c85469d2c,Mo-Su 08:00-22:00,Western Union,Q861042
30c517e6e1d1a80e6ced2cb5270431d4,western_union,OXXO WORLD PARK TLC,,Lerma De Villada,ESTADO DE MEXICO,,MX,+52 81 8389 2121,https://location.westernunion.com/mx/estado-de-mexico/lerma-de-villada/30c517e6e1d1a80e6ced2cb5270431d4,Mo-Su 08:00-22:00,Western Union,Q861042
353d39345f4ff94e00a00c06f51e614f,western_union,OXXO WORLD PARK TLC,,Lerma De Villada,ESTADO DE MEXICO,,MX,+52 81 8389 2121,https://location.westernunion.com/mx/estado-de-mexico/lerma-de-villada/353d39345f4ff94e00a00c06f51e614f,Mo-Su 08:00-22:00,Western Union,Q861042
941dba3339b314501a59abd6a0062b54,western_union,OXXO WORLD PARK TLC,,Lerma De Villada,ESTADO DE MEXICO,,MX,+52 81 8389 2121,https://location.westernunion.com/mx/estado-de-mexico/lerma-de-villada/941dba3339b314501a59abd6a0062b54,Mo-Su 08:00-22:00,Western Union,Q861042
74f7c681708ba182b8eee725dd15d485,western_union,OXXO CEDIS TLC,,Lerma De Villada,ESTADO DE MEXICO,,MX,+52 81 8389 2121,https://location.westernunion.com/mx/estado-de-mexico/lerma-de-villada/74f7c681708ba182b8eee725dd15d485,Mo-Su 08:00-22:00,Western Union,Q861042
d86598a67604d56efce7f936fbf0ff8a,western_union,OXXO CEDIS TLC,,Lerma De Villada,ESTADO DE MEXICO,,MX,+52 81 8389 2121,https://location.westernunion.com/mx/estado-de-mexico/lerma-de-villada/d86598a67604d56efce7f936fbf0ff8a,Mo-Su 08:00-22:00,Western Union,Q861042
d9c210aa27ae8cab6724a6be0a5da9ee,western_union,OXXO SANTA FE TLC,,Lerma De Villada,ESTADO DE MEXICO,,MX,+52 81 8389 2121,https://location.westernunion.com/mx/estado-de-mexico/lerma-de-villada/d9c210aa27ae8cab6724a6be0a5da9ee,Mo-Su 08:00-22:00,Western Union,Q861042
