Ref,Spider,Name,Address,City,State,Zipcode,Country,Phone,Website,Hours,Brand,WikiData
1845,anytime_fitness,Anytime Fitness,,Glenwood,IA,,US,+1 712-527-9800,https://www.anytimefitness.com/gyms/1845/glenwood-ia-51534/,,Anytime Fitness,Q4778364
178153,bluerhino,Kwik Shop #541,,Glenwood,IA,,US,+1 712-527-9426,,,Blue Rhino,Q65681213
144198,bluerhino,Bomgaar's #068,,Glenwood,IA,,US,+1 712-527-3044,,,Blue Rhino,Q65681213
202731,bluerhino,CASEY'S GENERAL STORE #3770,,GLENWOOD,IA,,US,+1 712-527-2956,,,Blue Rhino,Q65681213
KR002200,bmo,Kwik Shop,,Glenwood,IA,,US,,,,BMO,Q4835981
31692504025155153400100000000000,bp,BP,,Glenwood,IA,,US,+1 712-527-4833,,24/7,BP,Q152057
12989,cenex,Lake Ohana Market,,Glenwood,IA,,US,+1 712-526-2412,,,Cenex,Q62127191
61759,citi,ATM Kwik Shop,,Glenwood,IA,,US,,,,Citibank,Q857063
55843,citi,ATM FIRST INTERSTATE BANK,,Glenwood,IA,,US,,,,Citibank,Q857063
https://www.edwardjones.com/us-en/financial-advisor/matt-portrey,edwardjones,Matt Portrey,,Glenwood,IA,,US,+1 712-527-3520,https://www.edwardjones.com/us-en/financial-advisor/matt-portrey,,Edward Jones,Q5343830
520552,eg_america_us,Kwik Shop,,Glenwood,IA,,US,+1 712-527-9426,https://www.kwikshop.com/find-us/generic-store-page/?id=350541,,Kwik Shop,Q6450417
3803,family_fare_us,Family Fare - Glenwood,,Glenwood,IA,,US,+1 712-527-4632,https://www.shopfamilyfare.com/stores/family-fare-glenwood,Mo-Su 06:00-22:00,Family Fare,Q19868045
https://local.fedex.com/#25228961,fedex,,,Glenwood,IA,,US,+1 800-463-3339,https://local.fedex.com/en-us/ia/glenwood/omaac,,FedEx,Q459477
16019,h_r_block,H&R Block,,Glenwood,IA,,US,+1 712-527-9993,https://www.hrblock.com/local-tax-offices/iowa/glenwood/920-s-locust/16019/,,H&R Block,Q5627799
https://locations.oreillyauto.com/ia/glenwood/check-engine-light-testing-5216.html,oreilly,Your Glenwood O'Reilly Auto Parts Store,,Glenwood,IA,,US,+1 712-800-0061,https://locations.oreillyauto.com/ia/glenwood/check-engine-light-testing-5216.html,Mo-Sa 07:30-20:00; Su 09:00-18:00,O'Reilly Auto Parts,Q7071951
https://locations.oreillyauto.com/ia/glenwood/autopartes-5216.html,oreilly,Tu tienda O'Reilly Auto Parts en Glenwood,,Glenwood,IA,,US,+1 712-800-0061,https://locations.oreillyauto.com/ia/glenwood/autopartes-5216.html,Mo-Sa 07:30-20:00; Su 09:00-18:00,O'Reilly Auto Parts,Q7071951
https://locations.oreillyauto.com/ia/glenwood/wiper-installation-5216.html,oreilly,Your Glenwood O'Reilly Auto Parts Store,,Glenwood,IA,,US,+1 712-800-0061,https://locations.oreillyauto.com/ia/glenwood/wiper-installation-5216.html,Mo-Sa 07:30-20:00; Su 09:00-18:00,O'Reilly Auto Parts,Q7071951
https://locations.oreillyauto.com/ia/glenwood/battery-testing-5216.html,oreilly,Your Glenwood O'Reilly Auto Parts Store,,Glenwood,IA,,US,+1 712-800-0061,https://locations.oreillyauto.com/ia/glenwood/battery-testing-5216.html,Mo-Sa 07:30-20:00; Su 09:00-18:00,O'Reilly Auto Parts,Q7071951
0000883189,phillips_66_conoco_76,FASMART 551,,GLENWOOD,IA,,US,+1 712-527-3318,,,Phillips 66,Q1656230
ia_glenwood_704-s-locust-st,pizza_hut_us,704 S Locust St,,Glenwood,IA,,US,+1 712-527-9981,https://locations.pizzahut.com/ia/glenwood/704-s-locust-st,,Pizza Hut,Q191615
https://restaurants.subway.com/#14906796,subway,Subway,,Glenwood Mills,IA,,US,+1 712-527-3300,https://restaurants.subway.com/united-states/ia/glenwood/948-s-locust,Mo-Fr 07:00-22:00; Sa 08:00-22:00; Su 09:00-22:00,Subway,Q244457
1365014,usps,GLENWOOD,,GLENWOOD,IA,,US,+1 712-527-4840,,"Mo-Fr 08:30-12:30,13:30-16:30; Sa 08:30-11:00",United States Postal Service,Q668687
5153400005,usps_collection_boxes,USPS COLLECTION BOX - BLUE BOX,902 S LOCUST ST,GLENWOOD,IA,,US,,,,United States Postal Service,Q668687
5153400008,usps_collection_boxes,USPS COLLECTION BOX - BLUE BOX,101 S VINE ST,GLENWOOD,IA,,US,,,,United States Postal Service,Q668687
5153400009,usps_collection_boxes,USPS COLLECTION BOX - PO LOBBY,101 S VINE ST,GLENWOOD,IA,,US,,,,United States Postal Service,Q668687
5153400011,usps_collection_boxes,USPS COLLECTION BOX - PO LOBBY,101 S VINE ST,GLENWOOD,IA,,US,,,,United States Postal Service,Q668687
5153400007,usps_collection_boxes,USPS COLLECTION BOX - BLUE BOX,418 SHARP ST,GLENWOOD,IA,,US,,,,United States Postal Service,Q668687
5153400001,usps_collection_boxes,USPS COLLECTION BOX - BLUE BOX,14 N WALNUT ST,GLENWOOD,IA,,US,,,,United States Postal Service,Q668687
,visa,,,GLENWOOD,IA,,US,,,,,
,visa,,,GLENWOOD,IA,,US,,,,,
,visa,,,GLENWOOD,IA,,US,,,,,
,visa,,,GLENWOOD,IA,,US,,,,,
,visa,,,GLENWOOD,IA,,US,,,,,
,visa,,,GLENWOOD,IA,,US,,,,,
,visa,,,GLENWOOD,IA,,US,,,,,
,visa,,,GLENWOOD,IA,,US,,,,,
,visa,,,GLENWOOD,IA,,US,,,,,
,visa,,,GLENWOOD,IA,,US,,,,,
,visa,,,GLENWOOD,IA,,US,,,,,
,visa,,,GLENWOOD,IA,,US,,,,,
mills-county-ymcacommunity-center,ymca,Mills County YMCA/Community Center,110 Sivers Rd,Glenwood,IA,,US,+1 712-527-4352,https://www.ymca.org/locations/mills-county-ymcacommunity-center,Mo-Fr 05:00-21:00; Sa 07:00-17:00; Su 12:00-17:00,YMCA,Q157169
