Ref,Spider,Name,Address,City,State,Zipcode,Country,Phone,Website,Hours,Brand,WikiData
144428,bluerhino,Kwik Fill #S0048,,Homer City,PA,,US,+1 724-479-9646,,,Blue Rhino,Q65681213
185448,bluerhino,Brush Valley Tire,,Homer City,PA,,US,+1 724-479-1010,,,Blue Rhino,Q65681213
68318,citi,ATM PNC AT SHEETZ,,Homer City,PA,,US,,,,Citibank,Q857063
/pennsylvania/homer-city/homer-city-office/2254-route-119-hwy-s/,fcbanking,First Commonwealth Bank - Homer City Office,,Homer City,PA,,US,+1 724-459-4682,https://www.fcbanking.com/branch-locations/pennsylvania/homer-city/homer-city-office/2254-route-119-hwy-s/,Mo-Fr 09:00-17:00; Sa 09:00-12:00,First Commonwealth Bank,Q5452773
Motorcraft3209USAEnglish,ford,Luther Ford Lincoln,,Pennsylvania,PA,,US,+1 724-349-6000,,,Ford,Q44294
https://www.ford.com/dealerships/dealer-details/pa/homer-city/luther-ford/,ford_dealers_us,Luther Ford,,Homer City,PA,,US,+1 724-343-6661,https://www.ford.com/dealerships/dealer-details/pa/homer-city/luther-ford/,,Ford Motor Company,Q44294
https://restaurants.subway.com/#52939952,subway,Subway,,Homer City,PA,,US,+1 724-915-8186,https://restaurants.subway.com/united-states/pa/homer-city/2350-route-119-hwy-s,Mo-Su 08:00-21:00,Subway,Q244457
1367294,usps,HOMER CITY,,HOMER CITY,PA,,US,+1 724-479-9303,,"Mo-Fr 08:30-11:15,11:45-16:30; Sa 09:00-12:00",United States Postal Service,Q668687
1574800013,usps_collection_boxes,USPS COLLECTION BOX - BLUE BOX,125 W ELM ST,HOMER CITY,PA,,US,,,,United States Postal Service,Q668687
1574800017,usps_collection_boxes,USPS COLLECTION BOX - PO LOBBY,25 N MAIN ST,HOMER CITY,PA,,US,,,,United States Postal Service,Q668687
1574800001,usps_collection_boxes,USPS COLLECTION BOX - BLUE BOX,25 N MAIN ST,HOMER CITY,PA,,US,,,,United States Postal Service,Q668687
1574800015,usps_collection_boxes,USPS COLLECTION BOX - PO LOBBY,25 N MAIN ST,HOMER CITY,PA,,US,,,,United States Postal Service,Q668687
,visa,,,HOMER CITY,PA,,US,,,,,
,visa,,,HOMER CITY,PA,,US,,,,,
,visa,,,HOMER CITY,PA,,US,,,,,
,visa,,,HOMER CITY,PA,,US,,,,,
,visa,,,HOMER CITY,PA,,US,,,,,
,visa,,,HOMER CITY,PA,,US,,,,,
,visa,,,HOMER CITY,PA,,US,,,,,
,visa,,,HOMER CITY,PA,,US,,,,,
,visa,,,HOMER CITY,PA,,US,,,,,
,visa,,,HOMER CITY,PA,,US,,,,,
,visa,,,INDIANA,PA,,US,,,,,
