Ref,Spider,Name,Address,City,State,Zipcode,Country,Phone,Website,Hours,Brand,WikiData
105953,bluerhino,TruServ - Easter's True Value #10881-9,,Clarinda,IA,,US,+1 712-542-5139,,,Blue Rhino,Q65681213
202464,bluerhino,CASEY'S GENERAL STORE #2467,,CLARINDA,IA,,US,+1 712-542-5575,,,Blue Rhino,Q65681213
202476,bluerhino,CASEY'S GENERAL STORE #2491,,CLARINDA,IA,,US,+1 712-542-6424,,,Blue Rhino,Q65681213
225146,bluerhino,Tractor Supply #2801,,Clarinda,IA,,US,+1 712-542-5400,,,Blue Rhino,Q65681213
05030,chevrolet,SHORE MOTOR COMPANY,,Clarinda,IA,,US,+1 866-545-2824,https://www.shoremotorcompany.com,Mo-Fr 08:00-17:30; Sa 08:00-14:00,Chevrolet,Q29570
55868,citi,ATM FIRST INTERSTATE BANK,,Clainda,IA,,US,,,,Citibank,Q857063
https://www.efaststop.com/store-locator/pv/3000/id/287,fast_stop_us,Clarinda FAST STOP Express (AGRILAND FS),,Clarinda,IA,,US,+1 712-542-2146,https://www.efaststop.com/store-locator/pv/3000/id/287,,FAST STOP,Q116734101
https://local.fedex.com/#25997034,fedex,,,Clarinda,IA,,US,+1 800-463-3339,https://local.fedex.com/en-us/ia/clarinda/omabl,,FedEx,Q459477
ia_clarinda_1320-s-16th,pizza_hut_us,1320 S 16th,,Clarinda,IA,,US,+1 712-542-6565,https://locations.pizzahut.com/ia/clarinda/1320-s-16th,,Pizza Hut,Q191615
991,scooters_coffee_us,S 16th St & Glenn Miller Ave,,Clarinda,IA,,US,+1 712-850-9996,,Mo-Fr 05:30-20:00; Sa-Su 06:00-20:00,Scooter's Coffee,Q117280308
2204,shellrecharge,Clarinda,,Clarinda,IA,,US,,,,Shell Recharge,Q105883058
https://restaurants.subway.com/#14911335,subway,Subway,,Clarinda Page,IA,,US,+1 712-542-2211,https://restaurants.subway.com/united-states/ia/clarinda/1324-s-16th-st,Mo-Sa 09:00-22:00; Su 09:00-21:00,Subway,Q244457
1358156,usps,CLARINDA,,CLARINDA,IA,,US,+1 712-542-3615,,"Mo-Fr 08:00-13:00,14:00-16:30; Sa 10:00-12:00",United States Postal Service,Q668687
5163200010,usps_collection_boxes,USPS COLLECTION BOX - BLUE BOX,101 S 16TH ST,CLARINDA,IA,,US,,,,United States Postal Service,Q668687
5163200011,usps_collection_boxes,USPS COLLECTION BOX - BLUE BOX,101 S 16TH ST,CLARINDA,IA,,US,,,,United States Postal Service,Q668687
5163200012,usps_collection_boxes,USPS COLLECTION BOX - PO LOBBY,101 S 16TH ST,CLARINDA,IA,,US,,,,United States Postal Service,Q668687
5163200015,usps_collection_boxes,USPS COLLECTION BOX - PO LOBBY,101 S 16TH ST,CLARINDA,IA,,US,,,,United States Postal Service,Q668687
5163200007,usps_collection_boxes,USPS COLLECTION BOX - BLUE BOX,1200 S 16TH ST,CLARINDA,IA,,US,,,,United States Postal Service,Q668687
,visa,,,CLARINDA,IA,,US,,,,,
,visa,,,CLARINDA,IA,,US,,,,,
,visa,,,CLARINDA,IA,,US,,,,,
,visa,,,CLARINDA,IA,,US,,,,,
,visa,,,CLARINDA,IA,,US,,,,,
,visa,,,CLARINDA,IA,,US,,,,,
,visa,,,CLARINDA,IA,,US,,,,,
,visa,,,CLARINDA,IA,,US,,,,,
,visa,,,CLARINDA,IA,,US,,,,,
,visa,,,CLARINDA,IA,,US,,,,,
,visa,,,CLARINDA,IA,,US,,,,,
,visa,,,CLARINDA,IA,,US,,,,,
