Ref,Spider,Name,Address,City,State,Zipcode,Country,Phone,Website,Hours,Brand,WikiData
,visa,,,IXTAPALUCA,ESTADO DE MEXICO,,MX,,,,,
,visa,,,IXTAPALUCA,ESTADO DE MEXICO,,MX,,,,,
913cd3511219f709b49f9d4c89777771,western_union,TIENDAS NETO CARRIL DE LOS HORNOS 1340,,Ixtapaluca,ESTADO DE MEXICO,,MX,+52 55 6319 3071,https://location.westernunion.com/mx/estado-de-mexico/ixtapaluca/913cd3511219f709b49f9d4c89777771,Mo-Su 07:00-22:00,Western Union,Q861042
4cd1ec6dc2eabd56c4c214d1d5a3e681,western_union,TIENDAS NETO AV DEL CANAL 1007,,Ixtapaluca,ESTADO DE MEXICO,,MX,+52 55 7577 4760,https://location.westernunion.com/mx/estado-de-mexico/ixtapaluca/4cd1ec6dc2eabd56c4c214d1d5a3e681,Mo-Su 07:00-22:00,Western Union,Q861042
183cf9cf9249c779ab8965eaaa3f8d9e,western_union,TIENDAS NETO AV DEL CANAL 1007,,Ixtapaluca,ESTADO DE MEXICO,,MX,+52 55 7577 4760,https://location.westernunion.com/mx/estado-de-mexico/ixtapaluca/183cf9cf9249c779ab8965eaaa3f8d9e,Mo-Su 07:00-22:00,Western Union,Q861042
77237846bcd03c8b60729ae45233e363,western_union,TIENDAS NETO AV DEL CANAL 1007,,Ixtapaluca,ESTADO DE MEXICO,,MX,+52 55 7577 4760,https://location.westernunion.com/mx/estado-de-mexico/ixtapaluca/77237846bcd03c8b60729ae45233e363,Mo-Su 07:00-22:00,Western Union,Q861042
659c81fce517372b13078bfe0b375e5c,western_union,AURRERA IXTAPALUCA 4541,,Ixtapaluca,ESTADO DE MEXICO,,MX,+52 800 833 4700,https://location.westernunion.com/mx/estado-de-mexico/ixtapaluca/659c81fce517372b13078bfe0b375e5c,Mo-Su 07:00-23:00,Western Union,Q861042
4dd58c5d31469001cb47c0d5f95039cf,western_union,AURRERA IXTAPALUCA 4541,,Ixtapaluca,ESTADO DE MEXICO,,MX,+52 800 833 4700,https://location.westernunion.com/mx/estado-de-mexico/ixtapaluca/4dd58c5d31469001cb47c0d5f95039cf,Mo-Su 07:00-23:00,Western Union,Q861042
5368d68e6b8d676779e265689f6097da,western_union,AURRERA IXTAPALUCA 4541,,Ixtapaluca,ESTADO DE MEXICO,,MX,+52 800 833 4700,https://location.westernunion.com/mx/estado-de-mexico/ixtapaluca/5368d68e6b8d676779e265689f6097da,Mo-Su 07:00-23:00,Western Union,Q861042
1a4ab5a71c899e2122effaefa65413b3,western_union,AURRERA EXPRESS LAS PALMAS III 1779,,Ixtapaluca,ESTADO DE MEXICO,,MX,+52 800 833 4700,https://location.westernunion.com/mx/estado-de-mexico/ixtapaluca/1a4ab5a71c899e2122effaefa65413b3,Mo-Su 08:00-22:00,Western Union,Q861042
d36a77beda213868ca9c997eb04f2207,western_union,AURRERA EXPRESS LAS PALMAS III 1779,,Ixtapaluca,ESTADO DE MEXICO,,MX,+52 800 833 4700,https://location.westernunion.com/mx/estado-de-mexico/ixtapaluca/d36a77beda213868ca9c997eb04f2207,Mo-Su 08:00-22:00,Western Union,Q861042
a8903b8fc84f66eaeffa7429b89d56f6,western_union,AURRERA EXPRESS LAS PALMAS III 1779,,Ixtapaluca,ESTADO DE MEXICO,,MX,+52 800 833 4700,https://location.westernunion.com/mx/estado-de-mexico/ixtapaluca/a8903b8fc84f66eaeffa7429b89d56f6,Mo-Su 08:00-22:00,Western Union,Q861042
99a905292ead87cb6e95dc2ddc7bb394,western_union,FARM GUAD CANAL SANTA BARBARA,,Ixtapaluca,ESTADO DE MEXICO,,MX,+52 800 833 4700,https://location.westernunion.com/mx/estado-de-mexico/ixtapaluca/99a905292ead87cb6e95dc2ddc7bb394,Mo-Su 09:00-22:00,Western Union,Q861042
4b8b145693888cfe3076e483796d674d,western_union,FARM GUAD CANAL SANTA BARBARA,,Ixtapaluca,ESTADO DE MEXICO,,MX,+52 800 833 4700,https://location.westernunion.com/mx/estado-de-mexico/ixtapaluca/4b8b145693888cfe3076e483796d674d,Mo-Su 09:00-22:00,Western Union,Q861042
816f72fd5341d265ba117b8420c742ea,western_union,FARM GUAD CANAL SANTA BARBARA,,Ixtapaluca,ESTADO DE MEXICO,,MX,+52 800 833 4700,https://location.westernunion.com/mx/estado-de-mexico/ixtapaluca/816f72fd5341d265ba117b8420c742ea,Mo-Su 09:00-22:00,Western Union,Q861042
ab6ff74fb521487620495339e26f3b36,western_union,AZULEMEX IXTAPALUCA 889,,Ixtapaluca,ESTADO DE MEXICO,,MX,(+52) 55-17208177-8847,https://location.westernunion.com/mx/estado-de-mexico/ixtapaluca/ab6ff74fb521487620495339e26f3b36,Mo-Su 09:00-21:00,Western Union,Q861042
fc2de9bd85ddcd00117b2bfdf2b6e345,western_union,AZULEMEX IXTAPALUCA 889,,Ixtapaluca,ESTADO DE MEXICO,,MX,+52 55 1720 8177,https://location.westernunion.com/mx/estado-de-mexico/ixtapaluca/fc2de9bd85ddcd00117b2bfdf2b6e345,Mo-Su 09:00-21:00,Western Union,Q861042
5dbb3dca0f9fb79b3bbc0142b1342e16,western_union,AZULEMEX IXTAPALUCA 889,,Ixtapaluca,ESTADO DE MEXICO,,MX,+52 55 1720 8177,https://location.westernunion.com/mx/estado-de-mexico/ixtapaluca/5dbb3dca0f9fb79b3bbc0142b1342e16,Mo-Su 09:00-21:00,Western Union,Q861042
44137bba6a2c6ddd7cf0d06f919af2c1,western_union,OXXO SANTA BARBARA MEX,,Ixtapaluca,ESTADO DE MEXICO,,MX,+52 81 8389 2121,https://location.westernunion.com/mx/estado-de-mexico/ixtapaluca/44137bba6a2c6ddd7cf0d06f919af2c1,Mo-Su 08:00-22:00,Western Union,Q861042
1ad13dbf7122a74ee00e4c8c6c209de0,western_union,OXXO SANTA BARBARA MEX,,Ixtapaluca,ESTADO DE MEXICO,,MX,+52 81 8389 2121,https://location.westernunion.com/mx/estado-de-mexico/ixtapaluca/1ad13dbf7122a74ee00e4c8c6c209de0,Mo-Su 08:00-22:00,Western Union,Q861042
1f01a3a0da44254c21b76625c8a2daba,western_union,OXXO SANTA BARBARA MEX,,Ixtapaluca,ESTADO DE MEXICO,,MX,+52 81 8389 2121,https://location.westernunion.com/mx/estado-de-mexico/ixtapaluca/1f01a3a0da44254c21b76625c8a2daba,Mo-Su 08:00-22:00,Western Union,Q861042
9a6163525c0b737a11118e84fd64096e,western_union,AURRERA EXPRESS VALLE VERDE 2260,,Ixtapaluca,ESTADO DE MEXICO,,MX,+52 800 833 4700,https://location.westernunion.com/mx/estado-de-mexico/ixtapaluca/9a6163525c0b737a11118e84fd64096e,Mo-Su 08:00-22:00,Western Union,Q861042
674ac39d68644825a8e7e536f603caf1,western_union,AURRERA EXPRESS VALLE VERDE 2260,,Ixtapaluca,ESTADO DE MEXICO,,MX,+52 800 833 4700,https://location.westernunion.com/mx/estado-de-mexico/ixtapaluca/674ac39d68644825a8e7e536f603caf1,Mo-Su 08:00-22:00,Western Union,Q861042
51e1e830fa2fd4dd111f2743d52459d7,western_union,AURRERA EXPRESS VALLE VERDE 2260,,Ixtapaluca,ESTADO DE MEXICO,,MX,+52 800 833 4700,https://location.westernunion.com/mx/estado-de-mexico/ixtapaluca/51e1e830fa2fd4dd111f2743d52459d7,Mo-Su 08:00-22:00,Western Union,Q861042
62d0c8f62f57bc117419ada0e8adf545,western_union,OXXO ALEMANIA MEX,,Ixtapaluca,ESTADO DE MEXICO,,MX,+52 81 8389 2121,https://location.westernunion.com/mx/estado-de-mexico/ixtapaluca/62d0c8f62f57bc117419ada0e8adf545,Mo-Su 08:00-22:00,Western Union,Q861042
8c61e1903f69cd96430e40383811e88d,western_union,OXXO ALEMANIA MEX,,Ixtapaluca,ESTADO DE MEXICO,,MX,+52 81 8389 2121,https://location.westernunion.com/mx/estado-de-mexico/ixtapaluca/8c61e1903f69cd96430e40383811e88d,Mo-Su 08:00-22:00,Western Union,Q861042
12d1a5f9e9c882c615aa5c7210bb6ec2,western_union,OXXO ALEMANIA MEX,,Ixtapaluca,ESTADO DE MEXICO,,MX,+52 81 8389 2121,https://location.westernunion.com/mx/estado-de-mexico/ixtapaluca/12d1a5f9e9c882c615aa5c7210bb6ec2,Mo-Su 08:00-22:00,Western Union,Q861042
2ca94f097bde79020be8af80814acbb8,western_union,TIENDAS NETO VALLE VERDE 0456,,Ixtapaluca,ESTADO DE MEXICO,,MX,+52 55 8946 5225,https://location.westernunion.com/mx/estado-de-mexico/ixtapaluca/2ca94f097bde79020be8af80814acbb8,Mo-Su 07:00-22:00,Western Union,Q861042
76e928a02473bb93b8f06cbd2dcf79b4,western_union,TIENDAS NETO VALLE VERDE 0456,,Ixtapaluca,ESTADO DE MEXICO,,MX,+52 55 8946 5225,https://location.westernunion.com/mx/estado-de-mexico/ixtapaluca/76e928a02473bb93b8f06cbd2dcf79b4,Mo-Su 07:00-22:00,Western Union,Q861042
1f91cef9c631949a834eca26f73e87dc,western_union,TIENDAS NETO VALLE VERDE 0456,,Ixtapaluca,ESTADO DE MEXICO,,MX,+52 55 8946 5225,https://location.westernunion.com/mx/estado-de-mexico/ixtapaluca/1f91cef9c631949a834eca26f73e87dc,Mo-Su 07:00-22:00,Western Union,Q861042
207a509989abbad78928a7b7e6f6a231,western_union,AURRERA EXPRESS DEL CANAL 1357,,Ixtapaluca,ESTADO DE MEXICO,,MX,+52 800 833 4700,https://location.westernunion.com/mx/estado-de-mexico/ixtapaluca/207a509989abbad78928a7b7e6f6a231,Mo-Su 08:00-22:00,Western Union,Q861042
fd3a8448f69cfdefc3fbce374b6b9a78,western_union,AURRERA EXPRESS DEL CANAL 1357,,Ixtapaluca,ESTADO DE MEXICO,,MX,+52 800 833 4700,https://location.westernunion.com/mx/estado-de-mexico/ixtapaluca/fd3a8448f69cfdefc3fbce374b6b9a78,Mo-Su 08:00-22:00,Western Union,Q861042
d80859a3457ff04abe39c1a2f2cd6415,western_union,AURRERA EXPRESS DEL CANAL 1357,,Ixtapaluca,ESTADO DE MEXICO,,MX,+52 800 833 4700,https://location.westernunion.com/mx/estado-de-mexico/ixtapaluca/d80859a3457ff04abe39c1a2f2cd6415,Mo-Su 08:00-22:00,Western Union,Q861042
7883568f23485a21cf115bdb7b9f33bc,western_union,TIENDAS NETO CASINO DE LA SELVA 3715,,Ixtapaluca,ESTADO DE MEXICO,,MX,+52 55 8946 5382,https://location.westernunion.com/mx/estado-de-mexico/ixtapaluca/7883568f23485a21cf115bdb7b9f33bc,Mo-Su 07:00-22:00,Western Union,Q861042
b5bdaa9f2f09bf5379510e92b3d5dd7e,western_union,TIENDAS NETO CASINO DE LA SELVA 3715,,Ixtapaluca,ESTADO DE MEXICO,,MX,+52 55 8946 5382,https://location.westernunion.com/mx/estado-de-mexico/ixtapaluca/b5bdaa9f2f09bf5379510e92b3d5dd7e,Mo-Su 07:00-22:00,Western Union,Q861042
b8bb1270c4a56e45219d74dbe2be8697,western_union,TIENDAS NETO CASINO DE LA SELVA 3715,,Ixtapaluca,ESTADO DE MEXICO,,MX,+52 55 8946 5382,https://location.westernunion.com/mx/estado-de-mexico/ixtapaluca/b8bb1270c4a56e45219d74dbe2be8697,Mo-Su 07:00-22:00,Western Union,Q861042
5e82287f6a7cfa231b0cc21e08353051,western_union,MODATELAS 297 AP CASH,,Ixtapaluca,ESTADO DE MEXICO,,MX,+52 55 5047 4200,https://location.westernunion.com/mx/estado-de-mexico/ixtapaluca/5e82287f6a7cfa231b0cc21e08353051,Mo-Su 08:00-20:00,Western Union,Q861042
0c7f759e64c5507ec6d739596af8b3a6,western_union,MODATELAS 297 AP CASH,,Ixtapaluca,ESTADO DE MEXICO,,MX,+52 55 5047 4200,https://location.westernunion.com/mx/estado-de-mexico/ixtapaluca/0c7f759e64c5507ec6d739596af8b3a6,Mo-Su 08:00-20:00,Western Union,Q861042
26527916565596818ccb696f61094734,western_union,OXXO ENERGIA MEX,,Ixtapaluca,ESTADO DE MEXICO,,MX,+52 81 8389 2121,https://location.westernunion.com/mx/estado-de-mexico/ixtapaluca/26527916565596818ccb696f61094734,Mo-Su 08:00-22:00,Western Union,Q861042
3bda39f666b5a4e3f6f688cb75e3557a,western_union,OXXO Energia MEX,,Ixtapaluca,ESTADO DE MEXICO,,MX,+52 81 8389 2121,https://location.westernunion.com/mx/estado-de-mexico/ixtapaluca/3bda39f666b5a4e3f6f688cb75e3557a,Mo-Su 08:00-22:00,Western Union,Q861042
254e90382c9f2f21c355b077721f2b16,western_union,OXXO ENERGIA MEX,,Ixtapaluca,ESTADO DE MEXICO,,MX,+52 81 8389 2121,https://location.westernunion.com/mx/estado-de-mexico/ixtapaluca/254e90382c9f2f21c355b077721f2b16,Mo-Su 08:00-22:00,Western Union,Q861042
1a87d7537e38ecd2655e76d1bb3f9d10,western_union,OXXO SANTA CRUZ II MEX,,Ixtapaluca,ESTADO DE MEXICO,,MX,+52 81 8389 2121,https://location.westernunion.com/mx/estado-de-mexico/ixtapaluca/1a87d7537e38ecd2655e76d1bb3f9d10,Mo-Su 08:00-22:00,Western Union,Q861042
3fa0a4fb0eac3270b4f35d96a80ff9ce,western_union,OXXO SANTA CRUZ II MEX,,Ixtapaluca,ESTADO DE MEXICO,,MX,+52 81 8389 2121,https://location.westernunion.com/mx/estado-de-mexico/ixtapaluca/3fa0a4fb0eac3270b4f35d96a80ff9ce,Mo-Su 08:00-22:00,Western Union,Q861042
34ccd6e899c24e1a78fb6dea74cdb52b,western_union,OXXO SANTA CRUZ II MEX,,Ixtapaluca,ESTADO DE MEXICO,,MX,+52 81 8389 2121,https://location.westernunion.com/mx/estado-de-mexico/ixtapaluca/34ccd6e899c24e1a78fb6dea74cdb52b,Mo-Su 08:00-22:00,Western Union,Q861042
