Ref,Spider,Name,Address,City,State,Zipcode,Country,Phone,Website,Hours,Brand,WikiData
,visa,,,ECATEPEC DE MORELOS,ESTADO DE MEXICO,,MX,,,,,
,visa,,,ECATEPEC DE MORELOS,ESTADO DE MEXICO,,MX,,,,,
,visa,,,ECATEPEC DE MORELOS,ESTADO DE MEXICO,,MX,,,,,
,visa,,,ECATEPEC,ESTADO DE MEXICO,,MX,,,,,
,visa,,,ECATEPEC DE MORELOS,ESTADO DE MEXICO,,MX,,,,,
,visa,,,ECATEPEC DE MORELOS,ESTADO DE MEXICO,,MX,,,,,
,visa,,,ECATEPEC,ESTADO DE MEXICO,,MX,,,,,
e979d795c4acac2dae30bf762f0af1ed,western_union,OXXO SALMON MEX,,Ecatepec De Morelos,ESTADO DE MEXICO,,MX,+52 81 8389 2121,https://location.westernunion.com/mx/estado-de-mexico/ecatepec-de-morelos/e979d795c4acac2dae30bf762f0af1ed,Mo-Su 08:00-22:00,Western Union,Q861042
08473220e83fb0d86d4bc02863cf891a,western_union,OXXO SALMON MEX,,Ecatepec De Morelos,ESTADO DE MEXICO,,MX,+52 81 8389 2121,https://location.westernunion.com/mx/estado-de-mexico/ecatepec-de-morelos/08473220e83fb0d86d4bc02863cf891a,Mo-Su 08:00-22:00,Western Union,Q861042
d7ece17a1ca87880e55b2da54d7fc6a9,western_union,TIENDAS NETO JARDINES DE MORELOS 1 3812,,Ecatepec De Morelos,ESTADO DE MEXICO,,MX,+52 55 7593 8149,https://location.westernunion.com/mx/estado-de-mexico/ecatepec-de-morelos/d7ece17a1ca87880e55b2da54d7fc6a9,Mo-Su 07:00-22:00,Western Union,Q861042
a890bb1547274ce199e690a19a2f7b4c,western_union,TIENDAS NETO JARDINES DE MORELOS 1 3812,,Ecatepec De Morelos,ESTADO DE MEXICO,,MX,+52 55 7593 8149,https://location.westernunion.com/mx/estado-de-mexico/ecatepec-de-morelos/a890bb1547274ce199e690a19a2f7b4c,Mo-Su 07:00-22:00,Western Union,Q861042
cc98f604ae6f4b49adc3b6cd8208c9cd,western_union,TIENDAS NETO JARDINES DE MORELOS 1 3812,,Ecatepec De Morelos,ESTADO DE MEXICO,,MX,+52 55 7593 8149,https://location.westernunion.com/mx/estado-de-mexico/ecatepec-de-morelos/cc98f604ae6f4b49adc3b6cd8208c9cd,Mo-Su 07:00-22:00,Western Union,Q861042
2aeac7cd82719f3a5b8a030f1dcdcafe,western_union,ELEKTRA 6267,,Ecatepec De Morelos,ESTADO DE MEXICO,,MX,+52 55 1720 8177,https://location.westernunion.com/mx/estado-de-mexico/ecatepec-de-morelos/2aeac7cd82719f3a5b8a030f1dcdcafe,Mo-Su 09:00-21:00,Western Union,Q861042
54cbdfc12d93eaa9343ff7cc340b2592,western_union,ELEKTRA 6267,,Ecatepec De Morelos,ESTADO DE MEXICO,,MX,+52 55 1720 8177,https://location.westernunion.com/mx/estado-de-mexico/ecatepec-de-morelos/54cbdfc12d93eaa9343ff7cc340b2592,Mo-Su 09:00-21:00,Western Union,Q861042
e7127d2352d49ed3f76c986f21079eda,western_union,ELEKTRA 6267,,Ecatepec De Morelos,ESTADO DE MEXICO,,MX,+52 55 1720 8177,https://location.westernunion.com/mx/estado-de-mexico/ecatepec-de-morelos/e7127d2352d49ed3f76c986f21079eda,Mo-Su 09:00-21:00,Western Union,Q861042
04b7c0f62f1182c62081646972c9cb4c,western_union,AURRERA EXPRESS JARDINES DE MORELOS 1505,,Ecatepec De Morelos,ESTADO DE MEXICO,,MX,+52 800 833 4700,https://location.westernunion.com/mx/estado-de-mexico/ecatepec-de-morelos/04b7c0f62f1182c62081646972c9cb4c,Mo-Su 08:00-22:00,Western Union,Q861042
3e08b64c2af5b7f7761c6327b3865b3f,western_union,AURRERA EXPRESS JARDINES DE MORELOS 1505,,Ecatepec De Morelos,ESTADO DE MEXICO,,MX,+52 800 833 4700,https://location.westernunion.com/mx/estado-de-mexico/ecatepec-de-morelos/3e08b64c2af5b7f7761c6327b3865b3f,Mo-Su 08:00-22:00,Western Union,Q861042
433b874317ef42fcf3cca93c7bc1d32f,western_union,AURRERA EXPRESS JARDINES DE MORELOS 1505,,Ecatepec De Morelos,ESTADO DE MEXICO,,MX,+52 800 833 4700,https://location.westernunion.com/mx/estado-de-mexico/ecatepec-de-morelos/433b874317ef42fcf3cca93c7bc1d32f,Mo-Su 08:00-22:00,Western Union,Q861042
de78898e67c95609d4d3ca3d26a32413,western_union,TIENDAS NETO BRISA MERCADO 0334,,Ecatepec De Morelos,ESTADO DE MEXICO,,MX,+52 55 1550 0223,https://location.westernunion.com/mx/estado-de-mexico/ecatepec-de-morelos/de78898e67c95609d4d3ca3d26a32413,Mo-Su 07:00-22:00,Western Union,Q861042
65c972dc84d41bf129c34139d09e3b1f,western_union,TIENDAS NETO BRISA MERCADO 0334,,Ecatepec De Morelos,ESTADO DE MEXICO,,MX,+52 55 1550 0223,https://location.westernunion.com/mx/estado-de-mexico/ecatepec-de-morelos/65c972dc84d41bf129c34139d09e3b1f,Mo-Su 07:00-22:00,Western Union,Q861042
e1c03756fe3a55fe5da4a3b760257631,western_union,TIENDAS NETO BRISA MERCADO 0334,,Ecatepec De Morelos,ESTADO DE MEXICO,,MX,+52 55 1550 0223,https://location.westernunion.com/mx/estado-de-mexico/ecatepec-de-morelos/e1c03756fe3a55fe5da4a3b760257631,Mo-Su 07:00-22:00,Western Union,Q861042
986f6c4d6f5b624cf35c0524be25353e,western_union,TIENDAS NETO JARDINES DE MORELOS 0624,,Ecatepec De Morelos,ESTADO DE MEXICO,,MX,+52 55 8929 5872,https://location.westernunion.com/mx/estado-de-mexico/ecatepec-de-morelos/986f6c4d6f5b624cf35c0524be25353e,Mo-Su 07:00-22:00,Western Union,Q861042
598bba3af9e39f0e2cfe3888024c50c4,western_union,TIENDAS NETO JARDINES DE MORELOS 0624,,Ecatepec De Morelos,ESTADO DE MEXICO,,MX,+52 55 8929 5872,https://location.westernunion.com/mx/estado-de-mexico/ecatepec-de-morelos/598bba3af9e39f0e2cfe3888024c50c4,Mo-Su 07:00-22:00,Western Union,Q861042
459462786be9580539a3ad290dbeeaf9,western_union,TIENDAS NETO JARDINES DE MORELOS 0624,,Ecatepec De Morelos,ESTADO DE MEXICO,,MX,+52 55 8929 5872,https://location.westernunion.com/mx/estado-de-mexico/ecatepec-de-morelos/459462786be9580539a3ad290dbeeaf9,Mo-Su 07:00-22:00,Western Union,Q861042
824aae6986e51e09209705ad614e9ec0,western_union,OXXO GALLO MEX,,Ecatepec De Morelos,ESTADO DE MEXICO,,MX,+52 81 8389 2121,https://location.westernunion.com/mx/estado-de-mexico/ecatepec-de-morelos/824aae6986e51e09209705ad614e9ec0,Mo-Su 08:00-22:00,Western Union,Q861042
7ca966afaf6e7560dd9c8c68d2674968,western_union,OXXO GALLO MEX,,Ecatepec De Morelos,ESTADO DE MEXICO,,MX,+52 81 8389 2121,https://location.westernunion.com/mx/estado-de-mexico/ecatepec-de-morelos/7ca966afaf6e7560dd9c8c68d2674968,Mo-Su 08:00-22:00,Western Union,Q861042
aaed2f18a086bfa95f58f28bf10495b9,western_union,OXXO GALLO MEX,,Ecatepec De Morelos,ESTADO DE MEXICO,,MX,+52 81 8389 2121,https://location.westernunion.com/mx/estado-de-mexico/ecatepec-de-morelos/aaed2f18a086bfa95f58f28bf10495b9,Mo-Su 08:00-22:00,Western Union,Q861042
1e81c1dadd2bb6695ac77f68e7c15192,western_union,BANCOPPEL 7857 LAS BRISAS,,Ecatepec De Morelos,ESTADO DE MEXICO,,MX,+52 667 758 9999,https://location.westernunion.com/mx/estado-de-mexico/ecatepec-de-morelos/1e81c1dadd2bb6695ac77f68e7c15192,Mo-Sa 10:00-20:00; Su 11:00-20:00,Western Union,Q861042
c1b05a83be3cb7906beb4cb86300182b,western_union,BANCOPPEL 7857 LAS BRISAS,,Ecatepec De Morelos,ESTADO DE MEXICO,,MX,+52 667 758 9999,https://location.westernunion.com/mx/estado-de-mexico/ecatepec-de-morelos/c1b05a83be3cb7906beb4cb86300182b,Mo-Sa 10:00-20:00; Su 11:00-20:00,Western Union,Q861042
82b894fc04d562d640c947dd47d14dc2,western_union,BANCOPPEL 7857 LAS BRISAS,,Ecatepec De Morelos,ESTADO DE MEXICO,,MX,+52 667 758 9999,https://location.westernunion.com/mx/estado-de-mexico/ecatepec-de-morelos/82b894fc04d562d640c947dd47d14dc2,Mo-Sa 10:00-20:00; Su 11:00-20:00,Western Union,Q861042
9d445ceb4dc1f6bc4115be5d41067b8c,western_union,AURRERA EXPRESS GRIETA ECATEPEC 1709,,Ecatepec De Morelos,ESTADO DE MEXICO,,MX,+52 800 833 4700,https://location.westernunion.com/mx/estado-de-mexico/ecatepec-de-morelos/9d445ceb4dc1f6bc4115be5d41067b8c,Mo-Su 08:00-22:00,Western Union,Q861042
0b39df710344fdf949767c074914916f,western_union,AURRERA EXPRESS GRIETA ECATEPEC 1709,,Ecatepec De Morelos,ESTADO DE MEXICO,,MX,+52 800 833 4700,https://location.westernunion.com/mx/estado-de-mexico/ecatepec-de-morelos/0b39df710344fdf949767c074914916f,Mo-Su 08:00-22:00,Western Union,Q861042
c6c1c885036e472ed971a93d0a799cd6,western_union,AURRERA EXPRESS GRIETA ECATEPEC 1709,,Ecatepec De Morelos,ESTADO DE MEXICO,,MX,+52 800 833 4700,https://location.westernunion.com/mx/estado-de-mexico/ecatepec-de-morelos/c6c1c885036e472ed971a93d0a799cd6,Mo-Su 08:00-22:00,Western Union,Q861042
23d732938345d11f8641c4da556a321d,western_union,ELEKTRA 6017,,Ecatepec De Morelos,ESTADO DE MEXICO,,MX,+52 55 1720 8177,https://location.westernunion.com/mx/estado-de-mexico/ecatepec-de-morelos/23d732938345d11f8641c4da556a321d,Mo-Su 09:00-21:00,Western Union,Q861042
7c40451ce0e8a0e231f7497bb9215993,western_union,ELEKTRA 6017,,Ecatepec De Morelos,ESTADO DE MEXICO,,MX,+52 55 1720 8177,https://location.westernunion.com/mx/estado-de-mexico/ecatepec-de-morelos/7c40451ce0e8a0e231f7497bb9215993,Mo-Su 09:00-20:00,Western Union,Q861042
792afc033b315cab648056e734a197b4,western_union,ELEKTRA 6017,,Ecatepec De Morelos,ESTADO DE MEXICO,,MX,+52 55 1720 8177,https://location.westernunion.com/mx/estado-de-mexico/ecatepec-de-morelos/792afc033b315cab648056e734a197b4,Mo-Su 09:00-21:00,Western Union,Q861042
e24ffe15dec350b0e11948f7ef0b1716,western_union,OXXO VOLGA MEX,,Ecatepec De Morelos,ESTADO DE MEXICO,,MX,+52 81 8389 2121,https://location.westernunion.com/mx/estado-de-mexico/ecatepec-de-morelos/e24ffe15dec350b0e11948f7ef0b1716,Mo-Su 08:00-22:00,Western Union,Q861042
68de09d50720646e4862fc18b3babc72,western_union,FARM GUAD AV JARDINES DE MORELOS,,Ecatepec De Morelos,ESTADO DE MEXICO,,MX,+52 800 833 4700,https://location.westernunion.com/mx/estado-de-mexico/ecatepec-de-morelos/68de09d50720646e4862fc18b3babc72,Mo-Su 08:00-20:00,Western Union,Q861042
540b23c4b5d208308f14a82a7402efda,western_union,FARM GUAD AV JARDINES DE MORELOS,,Ecatepec De Morelos,ESTADO DE MEXICO,,MX,+52 800 833 4700,https://location.westernunion.com/mx/estado-de-mexico/ecatepec-de-morelos/540b23c4b5d208308f14a82a7402efda,Mo-Su 08:00-20:00,Western Union,Q861042
88c2417baa543ffc9d6cabad00018858,western_union,FARM GUAD AV JARDINES DE MORELOS,,Ecatepec De Morelos,ESTADO DE MEXICO,,MX,+52 800 833 4700,https://location.westernunion.com/mx/estado-de-mexico/ecatepec-de-morelos/88c2417baa543ffc9d6cabad00018858,Mo-Su 08:00-20:00,Western Union,Q861042
2a49e70d015f905fbc3945080e3d4af6,western_union,OXXO VOLGA MEX,,Ecatepec De Morelos,ESTADO DE MEXICO,,MX,+52 81 8389 2121,https://location.westernunion.com/mx/estado-de-mexico/ecatepec-de-morelos/2a49e70d015f905fbc3945080e3d4af6,Mo-Su 08:00-22:00,Western Union,Q861042
c9c0eb11e1e665ab6e6b73b2f2a3b56c,western_union,OXXO RIO DE JANEIRO MEX,,Ecatepec De Morelos,ESTADO DE MEXICO,,MX,+52 81 8389 2121,https://location.westernunion.com/mx/estado-de-mexico/ecatepec-de-morelos/c9c0eb11e1e665ab6e6b73b2f2a3b56c,Mo-Su 08:00-22:00,Western Union,Q861042
93fa13c9b0545166271355285d10148a,western_union,OXXO RIO DE JANEIRO MEX,,Ecatepec De Morelos,ESTADO DE MEXICO,,MX,+52 81 8389 2121,https://location.westernunion.com/mx/estado-de-mexico/ecatepec-de-morelos/93fa13c9b0545166271355285d10148a,Mo-Su 08:00-22:00,Western Union,Q861042
b1088a0669af265ae206fd346f536f0c,western_union,OXXO RIO DE JANEIRO MEX,,Ecatepec De Morelos,ESTADO DE MEXICO,,MX,+52 81 8389 2121,https://location.westernunion.com/mx/estado-de-mexico/ecatepec-de-morelos/b1088a0669af265ae206fd346f536f0c,Mo-Su 08:00-22:00,Western Union,Q861042
ead0778f58cd540d37f03b05fa44713e,western_union,BANCOPPEL 749 BOSQUES,,Ecatepec De Morelos,ESTADO DE MEXICO,,MX,+52 81 8389 3400,https://location.westernunion.com/mx/estado-de-mexico/ecatepec-de-morelos/ead0778f58cd540d37f03b05fa44713e,Mo-Su 10:00-20:30,Western Union,Q861042
817c990b4eb9aa6897e011a068ad57eb,western_union,BANCOPPEL 749 BOSQUES,,Ecatepec De Morelos,ESTADO DE MEXICO,,MX,+52 33 3658 9010,https://location.westernunion.com/mx/estado-de-mexico/ecatepec-de-morelos/817c990b4eb9aa6897e011a068ad57eb,Mo-Su 10:00-20:30,Western Union,Q861042
ca18f41118df000dcf91bc4e9a31093c,western_union,BANCOPPEL 749 BOSQUES,,Ecatepec De Morelos,ESTADO DE MEXICO,,MX,+52 33 3658 9010,https://location.westernunion.com/mx/estado-de-mexico/ecatepec-de-morelos/ca18f41118df000dcf91bc4e9a31093c,Mo-Su 10:00-20:30,Western Union,Q861042
1d172a5be2da899840e732dc413e0b0f,western_union,AURRERA EXPRESS LAS AMERICAS 2279,,Ecatepec De Morelos,ESTADO DE MEXICO,,MX,+52 800 833 4700,https://location.westernunion.com/mx/estado-de-mexico/ecatepec-de-morelos/1d172a5be2da899840e732dc413e0b0f,Mo-Su 08:00-22:00,Western Union,Q861042
4610c4397d9a758477663d479fe3b62b,western_union,AURRERA EXPRESS LAS AMERICAS 2279,,Ecatepec De Morelos,ESTADO DE MEXICO,,MX,+52 800 833 4700,https://location.westernunion.com/mx/estado-de-mexico/ecatepec-de-morelos/4610c4397d9a758477663d479fe3b62b,Mo-Su 08:00-22:00,Western Union,Q861042
7cd3b57ba7d5c8511fad164f3613f2f1,western_union,AURRERA EXPRESS LAS AMERICAS 2279,,Ecatepec De Morelos,ESTADO DE MEXICO,,MX,+52 800 833 4700,https://location.westernunion.com/mx/estado-de-mexico/ecatepec-de-morelos/7cd3b57ba7d5c8511fad164f3613f2f1,Mo-Su 08:00-22:00,Western Union,Q861042
b023782e040c85bfa7afa2d55195d7a5,western_union,OXXO SALMON MEX,,Ecatepec De Morelos,ESTADO DE MEXICO,,MX,+52 81 8389 2121,https://location.westernunion.com/mx/estado-de-mexico/ecatepec-de-morelos/b023782e040c85bfa7afa2d55195d7a5,Mo-Su 08:00-22:00,Western Union,Q861042
e6a576be29f92932057a446bc14419c0,western_union,OXXO VOLGA MEX,,Ecatepec De Morelos,ESTADO DE MEXICO,,MX,+52 81 8389 2121,https://location.westernunion.com/mx/estado-de-mexico/ecatepec-de-morelos/e6a576be29f92932057a446bc14419c0,Mo-Su 08:00-22:00,Western Union,Q861042
