Ref,Spider,Name,Address,City,State,Zipcode,Country,Phone,Website,Hours,Brand,WikiData
,visa,,,TULTITLAN,ESTADO DE MEXICO,,MX,,,,,
,visa,,,CUAUTEPEC,ESTADO DE MEXICO,,MX,,,,,
,visa,,,TULTITLAN,ESTADO DE MEXICO,,MX,,,,,
,visa,,,TULTITLAN,ESTADO DE MEXICO,,MX,,,,,
5069810cd11b611db4ed090507e91857,western_union,OXXO SOLIDARIDAD TULTITLAN PAC,,Tultitlan,ESTADO DE MEXICO,,MX,+52 81 8389 2121,https://location.westernunion.com/mx/estado-de-mexico/tultitlan/5069810cd11b611db4ed090507e91857,Mo-Su 06:00-22:00,Western Union,Q861042
1f941e5bb8d7888f65e375e461094ce7,western_union,OXXO SOLIDARIDAD TULTITLAN PAC,,Tultitlan,ESTADO DE MEXICO,,MX,+52 81 8389 2121,https://location.westernunion.com/mx/estado-de-mexico/tultitlan/1f941e5bb8d7888f65e375e461094ce7,Mo-Su 06:00-22:00,Western Union,Q861042
3a459a32a81d9a5e63470b7322dbad0a,western_union,AURRERA EXPRESS LA MARISCALA 2130,,Tultitlan,ESTADO DE MEXICO,,MX,+52 800 833 4700,https://location.westernunion.com/mx/estado-de-mexico/tultitlan/3a459a32a81d9a5e63470b7322dbad0a,Mo-Su 08:00-22:00,Western Union,Q861042
f6743123b046d1890c4d3c7956f6bb4d,western_union,AURRERA EXPRESS LA MARISCALA 2130,,Tultitlan,ESTADO DE MEXICO,,MX,+52 800 833 4700,https://location.westernunion.com/mx/estado-de-mexico/tultitlan/f6743123b046d1890c4d3c7956f6bb4d,Mo-Su 08:00-22:00,Western Union,Q861042
13304bb41fca6a4e9db8b327491edf74,western_union,AURRERA EXPRESS LA MARISCALA 2130,,Tultitlan,ESTADO DE MEXICO,,MX,+52 800 833 4700,https://location.westernunion.com/mx/estado-de-mexico/tultitlan/13304bb41fca6a4e9db8b327491edf74,Mo-Su 08:00-22:00,Western Union,Q861042
393c3fb337a8f1ea3aa6e9d75b1ec638,western_union,FARM GUAD REAL DE CIPRESES TULTITLAN,,Tultitlan,ESTADO DE MEXICO,,MX,+52 800 833 4700,https://location.westernunion.com/mx/estado-de-mexico/tultitlan/393c3fb337a8f1ea3aa6e9d75b1ec638,Mo-Su 08:00-22:00,Western Union,Q861042
88e89b3f1fb41939acb7fce71f28ca0e,western_union,FARM GUAD REAL DE CIPRESES TULTITLAN,,Tultitlan,ESTADO DE MEXICO,,MX,+52 800 833 4700,https://location.westernunion.com/mx/estado-de-mexico/tultitlan/88e89b3f1fb41939acb7fce71f28ca0e,Mo-Su 08:00-22:00,Western Union,Q861042
4c3df38807f889a5cd9c5e60c299031f,western_union,FARM GUAD REAL DE CIPRESES TULTITLAN,,Tultitlan,ESTADO DE MEXICO,,MX,+52 800 833 4700,https://location.westernunion.com/mx/estado-de-mexico/tultitlan/4c3df38807f889a5cd9c5e60c299031f,Mo-Su 08:00-22:00,Western Union,Q861042
c433d3d32632ff77a11ed393062c6feb,western_union,OXXO REAL BOSQUE MEX,,Tultitlan,ESTADO DE MEXICO,,MX,+52 81 8389 2121,https://location.westernunion.com/mx/estado-de-mexico/tultitlan/c433d3d32632ff77a11ed393062c6feb,Mo-Su 08:00-22:00,Western Union,Q861042
727e1774ec8f9b8855fc6aecc4b2b905,western_union,OXXO REAL BOSQUE MEX,,Tultitlan,ESTADO DE MEXICO,,MX,+52 81 8389 2121,https://location.westernunion.com/mx/estado-de-mexico/tultitlan/727e1774ec8f9b8855fc6aecc4b2b905,Mo-Su 08:00-22:00,Western Union,Q861042
b183f8493ba30476c95b56862326edfe,western_union,OXXO REAL BOSQUE MEX,,Tultitlan,ESTADO DE MEXICO,,MX,+52 81 8389 2121,https://location.westernunion.com/mx/estado-de-mexico/tultitlan/b183f8493ba30476c95b56862326edfe,Mo-Su 08:00-22:00,Western Union,Q861042
e91b26a7d53ac6cfa99a805c3644e8d4,western_union,AURRERA EXPRESS REAL DEL BOSQUE 2274,,Tultitlan,ESTADO DE MEXICO,,MX,+52 800 833 4700,https://location.westernunion.com/mx/estado-de-mexico/tultitlan/e91b26a7d53ac6cfa99a805c3644e8d4,Mo-Su 08:00-22:00,Western Union,Q861042
2c2e731ccbef97a973e99631910437de,western_union,AURRERA EXPRESS REAL DEL BOSQUE 2274,,Tultitlan,ESTADO DE MEXICO,,MX,+52 800 833 4700,https://location.westernunion.com/mx/estado-de-mexico/tultitlan/2c2e731ccbef97a973e99631910437de,Mo-Su 08:00-22:00,Western Union,Q861042
6326f8a53b8bacb9809048951a21395b,western_union,AURRERA EXPRESS REAL DEL BOSQUE 2274,,Tultitlan,ESTADO DE MEXICO,,MX,+52 800 833 4700,https://location.westernunion.com/mx/estado-de-mexico/tultitlan/6326f8a53b8bacb9809048951a21395b,Mo-Su 08:00-22:00,Western Union,Q861042
9ac5881fb1a99b69bacb399e1ded3a2f,western_union,OXXO SOLIDARIDAD TULTITLAN PAC,,Tultitlan,ESTADO DE MEXICO,,MX,+52 81 8389 2121,https://location.westernunion.com/mx/estado-de-mexico/tultitlan/9ac5881fb1a99b69bacb399e1ded3a2f,Mo-Su 06:00-22:00,Western Union,Q861042
bf8250de416dd258d3f0c73ef6cf9c3d,western_union,TIENDAS NETO SOLIDARIDAD 3881,,Tultitlan,ESTADO DE MEXICO,,MX,+52 55 6732 9350,https://location.westernunion.com/mx/estado-de-mexico/tultitlan/bf8250de416dd258d3f0c73ef6cf9c3d,Mo-Su 07:00-22:00,Western Union,Q861042
48dfe371de2f6b9320f0e729acd87bd9,western_union,TIENDAS NETO SOLIDARIDAD 3881,,Tultitlan,ESTADO DE MEXICO,,MX,+52 55 6732 9350,https://location.westernunion.com/mx/estado-de-mexico/tultitlan/48dfe371de2f6b9320f0e729acd87bd9,Mo-Su 07:00-22:00,Western Union,Q861042
