Ref,Spider,Name,Address,City,State,Zipcode,Country,Phone,Website,Hours,Brand,WikiData
BPM962,bp,BP,,Rinc√≥n de Romos,Aguascalientes,,MX,+52 800 668 0209,,24/7,BP,Q152057
,visa,,,RINCON DE ROMOS,AGUASCALIENTES,,MX,,,,,
,visa,,,RINCON DE ROMOS,AGUASCALIENTES,,MX,,,,,
,visa,,,AGUASCALIENTES,AGUASCALIENTES,,MX,,,,,
,visa,,,RINCON DE ROMOS,AGUASCALIENTES,,MX,,,,,
663b6d5b5d67889306f3bc0a0ba60850,western_union,OXXO RINCON CENTRO AGU,,Rincon De Romos,AGUASCALIENTES,,MX,+52 81 8389 2121,https://location.westernunion.com/mx/aguascalientes/rincon-de-romos/663b6d5b5d67889306f3bc0a0ba60850,Mo-Su 08:00-22:00,Western Union,Q861042
7e5efac34fe4d6f5e9628c40f834d0b1,western_union,OXXO RINCON AGU,,Rincon De Romos,AGUASCALIENTES,,MX,+52 81 8389 2121,https://location.westernunion.com/mx/aguascalientes/rincon-de-romos/7e5efac34fe4d6f5e9628c40f834d0b1,Mo-Su 08:00-22:00,Western Union,Q861042
4a6718bbc2d2f57b8fef7c6325891a8d,western_union,OXXO RINCON AGU,,Rincon De Romos,AGUASCALIENTES,,MX,+52 81 8389 2121,https://location.westernunion.com/mx/aguascalientes/rincon-de-romos/4a6718bbc2d2f57b8fef7c6325891a8d,Mo-Su 08:00-22:00,Western Union,Q861042
f4b17d514d7186c383a66ff687d1f2da,western_union,TELECOMM 01003,,Aguascalientes,AGUASCALIENTES,,MX,+52 800 800 8930,https://location.westernunion.com/mx/aguascalientes/aguascalientes/f4b17d514d7186c383a66ff687d1f2da,Mo-Fr 09:00-15:00,Western Union,Q861042
040c60ce5763292092ede040c2f2b2eb,western_union,AURRERA RINCON DE ROMOS,,Rincon De Romos,AGUASCALIENTES,,MX,+52 800 833 4700,https://location.westernunion.com/mx/aguascalientes/rincon-de-romos/040c60ce5763292092ede040c2f2b2eb,Mo-Su 07:00-23:00,Western Union,Q861042
2f74455917dc4492c2a99262435701de,western_union,AURRERA RINCON DE ROMOS,,Rincon De Romos,AGUASCALIENTES,,MX,+52 800 833 4700,https://location.westernunion.com/mx/aguascalientes/rincon-de-romos/2f74455917dc4492c2a99262435701de,Mo-Su 07:00-23:00,Western Union,Q861042
522bc6506a7b87625f829966e6bd26c0,western_union,BANORTE 00873 RINCON DE ROMOS,,Rincon De Romos,AGUASCALIENTES,,MX,+52 800 833 4700,https://location.westernunion.com/mx/aguascalientes/rincon-de-romos/522bc6506a7b87625f829966e6bd26c0,Mo-Fr 09:00-17:00,Western Union,Q861042
4c5a9466bd7ef9563e5442a372404a6e,western_union,FARMACIAS STA MARIA RINCON DE ROMOS TD,,Rincon De Romos,AGUASCALIENTES,,MX,+52 465 951 1597,https://location.westernunion.com/mx/aguascalientes/rincon-de-romos/4c5a9466bd7ef9563e5442a372404a6e,Mo-Su 09:00-19:30,Western Union,Q861042
4e91a9d2a7f80b50b7b2504a8ecb0bc1,western_union,FARMACIAS STA MARIA RINCON DE ROMOS TD,,Rincon De Romos,AGUASCALIENTES,,MX,+52 465 951 1597,https://location.westernunion.com/mx/aguascalientes/rincon-de-romos/4e91a9d2a7f80b50b7b2504a8ecb0bc1,Mo-Su 09:00-19:30,Western Union,Q861042
2bebd0efea3b0954a4cb35415e9a8ecb,western_union,FARMACIAS STA MARIA RINCON DE ROMOS TD,,Rincon De Romos,AGUASCALIENTES,,MX,+52 465 951 1597,https://location.westernunion.com/mx/aguascalientes/rincon-de-romos/2bebd0efea3b0954a4cb35415e9a8ecb,Mo-Su 09:00-19:30,Western Union,Q861042
f9472fc00b3db681a54b329b55a5804f,western_union,AURRERA RINCON DE ROMOS PLAZA 4649,,Rincon De Romos,AGUASCALIENTES,,MX,+52 800 833 4700,https://location.westernunion.com/mx/aguascalientes/rincon-de-romos/f9472fc00b3db681a54b329b55a5804f,Mo-Su 07:00-22:00,Western Union,Q861042
eef36baf5e588c15c6db929bd30adc4c,western_union,AURRERA RINCON DE ROMOS PLAZA 4649,,Rincon De Romos,AGUASCALIENTES,,MX,+52 800 833 4700,https://location.westernunion.com/mx/aguascalientes/rincon-de-romos/eef36baf5e588c15c6db929bd30adc4c,Mo-Su 07:00-22:00,Western Union,Q861042
04d52b661d51ad206e1c4f8e2ef52894,western_union,AURRERA RINCON DE ROMOS PLAZA 4649,,Rincon De Romos,AGUASCALIENTES,,MX,+52 800 833 4700,https://location.westernunion.com/mx/aguascalientes/rincon-de-romos/04d52b661d51ad206e1c4f8e2ef52894,Mo-Su 07:00-22:00,Western Union,Q861042
fe4e54f8c2dd3d15b2c7fc961452a05e,western_union,ELEKTRA 2212,,Rincon De Romos,AGUASCALIENTES,,MX,+52 55 1720 8177,https://location.westernunion.com/mx/aguascalientes/rincon-de-romos/fe4e54f8c2dd3d15b2c7fc961452a05e,Mo-Su 09:00-21:00,Western Union,Q861042
f2a6199b900ed6d473008f954e5f403b,western_union,ELEKTRA 2212,,Rincon De Romos,AGUASCALIENTES,,MX,+52 55 1720 8177,https://location.westernunion.com/mx/aguascalientes/rincon-de-romos/f2a6199b900ed6d473008f954e5f403b,Mo-Su 09:00-20:00,Western Union,Q861042
e1ccc221db0f4c18c3598860088690a2,western_union,ELEKTRA 2212,,Rincon De Romos,AGUASCALIENTES,,MX,+52 55 1720 8177,https://location.westernunion.com/mx/aguascalientes/rincon-de-romos/e1ccc221db0f4c18c3598860088690a2,Mo-Su 09:00-21:00,Western Union,Q861042
ecc8187169f8dda6f3f3f36f3ff10141,western_union,AURRERA RINCON DE ROMOS,,Rincon De Romos,AGUASCALIENTES,,MX,+52 800 833 4700,https://location.westernunion.com/mx/aguascalientes/rincon-de-romos/ecc8187169f8dda6f3f3f36f3ff10141,Mo-Su 07:00-23:00,Western Union,Q861042
092dd9939cbbaadb87f53f59fe6b7b59,western_union,TELECOMM 01009,,Rincon De Romos,AGUASCALIENTES,,MX,+52 800 800 8930,https://location.westernunion.com/mx/aguascalientes/rincon-de-romos/092dd9939cbbaadb87f53f59fe6b7b59,Mo-Su 09:00-20:00,Western Union,Q861042
b7734772efcf59479e83855c50b9528e,western_union,TELECOMM 01009,,Rincon De Romos,AGUASCALIENTES,,MX,+52 800 800 8930,https://location.westernunion.com/mx/aguascalientes/rincon-de-romos/b7734772efcf59479e83855c50b9528e,Mo-Sa 09:00-21:00,Western Union,Q861042
0936d5a9cfd2b1090ac8ffb7003ce03e,western_union,TELECOMM 01009,,Rincon De Romos,AGUASCALIENTES,,MX,+52 800 800 9889,https://location.westernunion.com/mx/aguascalientes/rincon-de-romos/0936d5a9cfd2b1090ac8ffb7003ce03e,Mo-Fr 09:00-15:00; Sa 09:00-13:00,Western Union,Q861042
c902c57e61dc7fb861ae1ca535465ba4,western_union,OXXO FRANCISCO GUEL AGU,,Rincon De Romos,AGUASCALIENTES,,MX,+52 81 8389 2121,https://location.westernunion.com/mx/aguascalientes/rincon-de-romos/c902c57e61dc7fb861ae1ca535465ba4,Mo-Su 08:00-22:00,Western Union,Q861042
b39ebc210f07731ecf0c4f81b05927b1,western_union,OXXO FRANCISCO GUEL AGU,,Rincon De Romos,AGUASCALIENTES,,MX,+52 81 8389 2121,https://location.westernunion.com/mx/aguascalientes/rincon-de-romos/b39ebc210f07731ecf0c4f81b05927b1,Mo-Su 08:00-22:00,Western Union,Q861042
ea482452882ceab652b5950dc4c861e6,western_union,BANCOPPEL 1029 MORELOS,,Rincon De Romos,AGUASCALIENTES,,MX,+52 961 602 3214,https://location.westernunion.com/mx/aguascalientes/rincon-de-romos/ea482452882ceab652b5950dc4c861e6,Mo-Sa 10:00-20:30; Su 11:00-17:00,Western Union,Q861042
460e01da595f8a092908fd7126447fe6,western_union,BANCOPPEL 1029 MORELOS,,Rincon De Romos,AGUASCALIENTES,,MX,+52 961 602 3214,https://location.westernunion.com/mx/aguascalientes/rincon-de-romos/460e01da595f8a092908fd7126447fe6,Mo-Sa 10:00-20:30; Su 11:00-17:00,Western Union,Q861042
14211f2d25db7368ef41c3357f8c03fd,western_union,BANCOPPEL 1029 MORELOS,,Rincon De Romos,AGUASCALIENTES,,MX,+52 961 602 3214,https://location.westernunion.com/mx/aguascalientes/rincon-de-romos/14211f2d25db7368ef41c3357f8c03fd,Mo-Sa 10:00-20:30; Su 11:00-17:00,Western Union,Q861042
1a207cdd120d9ce4765792bae6bd65f5,western_union,ITALIKA RINCON DE ROMOS 4800,,Rincon De Romos,AGUASCALIENTES,,MX,+52 55 1720 8177,https://location.westernunion.com/mx/aguascalientes/rincon-de-romos/1a207cdd120d9ce4765792bae6bd65f5,Mo-Su 09:00-21:00,Western Union,Q861042
7ac741e5900036a4931e47a51b33defd,western_union,ITALIKA RINCON DE ROMOS 4800,,Rincon De Romos,AGUASCALIENTES,,MX,+52 55 1720 8177,https://location.westernunion.com/mx/aguascalientes/rincon-de-romos/7ac741e5900036a4931e47a51b33defd,Mo-Su 09:00-21:00,Western Union,Q861042
2298055acc085adee198a368b26aad52,western_union,ITALIKA RINCON DE ROMOS 4800,,Rincon De Romos,AGUASCALIENTES,,MX,+52 55 1720 8177,https://location.westernunion.com/mx/aguascalientes/rincon-de-romos/2298055acc085adee198a368b26aad52,Mo-Su 09:00-21:00,Western Union,Q861042
4b7820c0dc914ab8b6ba8f00f0a8c5a1,western_union,CAJA AGUASCALIENTES RINCON DE ROMOS,,Rincon De Romos,AGUASCALIENTES,,MX,+52 465 851 4848,https://location.westernunion.com/mx/aguascalientes/rincon-de-romos/4b7820c0dc914ab8b6ba8f00f0a8c5a1,Mo-Fr 08:00-16:00,Western Union,Q861042
0e924b52e5a1e709f2ac233a59883d1b,western_union,CAJA AGUASCALIENTES RINCON DE ROMOS,,Rincon De Romos,AGUASCALIENTES,,MX,+52 465 851 4848,https://location.westernunion.com/mx/aguascalientes/rincon-de-romos/0e924b52e5a1e709f2ac233a59883d1b,Mo-Fr 08:00-16:00,Western Union,Q861042
8504e68a7b3645ebd01c1093dcba0c78,western_union,CAJA AGUASCALIENTES RINCON DE ROMOS,,Rincon De Romos,AGUASCALIENTES,,MX,+52 465 851 4848,https://location.westernunion.com/mx/aguascalientes/rincon-de-romos/8504e68a7b3645ebd01c1093dcba0c78,Mo-Fr 08:00-16:00,Western Union,Q861042
678bc37b0d6c86c6c92103e62652d92c,western_union,FARM GUAD MORELOS RINCON DE ROMOS,,Rincon De Romos,AGUASCALIENTES,,MX,+52 800 833 4700,https://location.westernunion.com/mx/aguascalientes/rincon-de-romos/678bc37b0d6c86c6c92103e62652d92c,Mo-Su 08:00-20:00,Western Union,Q861042
9492bfa5d5d7c20368eacc2358a683b2,western_union,FARM GUAD MORELOS RINCON DE ROMOS,,Rincon De Romos,AGUASCALIENTES,,MX,+52 800 833 4700,https://location.westernunion.com/mx/aguascalientes/rincon-de-romos/9492bfa5d5d7c20368eacc2358a683b2,Mo-Su 08:00-20:00,Western Union,Q861042
faf58074ecfaa9043fca0566229f65c8,western_union,FARM GUAD MORELOS RINCON DE ROMOS,,Rincon De Romos,AGUASCALIENTES,,MX,+52 800 833 4700,https://location.westernunion.com/mx/aguascalientes/rincon-de-romos/faf58074ecfaa9043fca0566229f65c8,Mo-Su 08:00-20:00,Western Union,Q861042
2b3bd2b66d1da6448c03b10b08d52d6b,western_union,OXXO FRANCISCO GUEL AGU,,Rincon De Romos,AGUASCALIENTES,,MX,+52 81 8389 2121,https://location.westernunion.com/mx/aguascalientes/rincon-de-romos/2b3bd2b66d1da6448c03b10b08d52d6b,Mo-Su 08:00-22:00,Western Union,Q861042
8a98c2e60f9698df150d651cc4e09129,western_union,OXXO RINCON CENTRO AGU,,Rincon De Romos,AGUASCALIENTES,,MX,+52 81 8389 2121,https://location.westernunion.com/mx/aguascalientes/rincon-de-romos/8a98c2e60f9698df150d651cc4e09129,Mo-Su 08:00-22:00,Western Union,Q861042
22977092578c30e8db383b701ca6861a,western_union,OXXO RINCON CENTRO AGU,,Rincon De Romos,AGUASCALIENTES,,MX,+52 81 8389 2121,https://location.westernunion.com/mx/aguascalientes/rincon-de-romos/22977092578c30e8db383b701ca6861a,Mo-Su 08:00-22:00,Western Union,Q861042
009074bbbad9478065aba7cf222a5b03,western_union,BANORTE 00873 RINCON DE ROMOS,,Rincon De Romos,AGUASCALIENTES,,MX,+52 800 833 4700,https://location.westernunion.com/mx/aguascalientes/rincon-de-romos/009074bbbad9478065aba7cf222a5b03,Mo-Fr 09:00-17:00,Western Union,Q861042
cc9a6c29865c5463dd3bd75271fee078,western_union,OXXO PADRE NIEVES AGU,,Rincon De Romos,AGUASCALIENTES,,MX,+52 81 8389 2121,https://location.westernunion.com/mx/aguascalientes/rincon-de-romos/cc9a6c29865c5463dd3bd75271fee078,Mo-Su 08:00-22:00,Western Union,Q861042
3ca3acdac7644c3e05414294b349aedf,western_union,OXXO PADRE NIEVES AGU,,Rincon De Romos,AGUASCALIENTES,,MX,+52 81 8389 2121,https://location.westernunion.com/mx/aguascalientes/rincon-de-romos/3ca3acdac7644c3e05414294b349aedf,Mo-Su 08:00-22:00,Western Union,Q861042
