Ref,Spider,Name,Address,City,State,Zipcode,Country,Phone,Website,Hours,Brand,WikiData
https://www.ameripriseadvisors.com/team/strategic-wealth-advisor-team/contact/,ameriprise_us,Strategic Wealth Advisor Team,,Celina,TX,,US,+1 469-865-1020,https://www.ameripriseadvisors.com/team/strategic-wealth-advisor-team/,Mo-Th 08:00-05:00; Fr 08:00-03:00,Ameriprise Financial,Q2843129
240977,bluerhino,Brookshire Grocery Gas Station #303,,Celina,TX,,US,+1 972-382-8681,,,Blue Rhino,Q65681213
240935,bluerhino,Brookshire Grocery #073,,Celina,TX,,US,+1 972-382-3553,,,Blue Rhino,Q65681213
60177,citi,ATM Independent Financial,,Celina,TX,,US,,,,Citibank,Q857063
50148,citi,ATM CVS,,Celina,TX,,US,,,,Citibank,Q857063
37246,citi,ATM Brookshires,,Celina,TX,,US,,,,Citibank,Q857063
37261,citi,ATM Brookshires,,Celina,TX,,US,,,,Citibank,Q857063
26067,citi,ATM 7ELEVEN-FCTI,,Celina,TX,,US,,,,Citibank,Q857063
,credit_union_us,Mobility CU,,Celina,TX,,US,+1 214-574-2027,,Mo-Fr 08:00-05:00; Sa 09:00-12:00,,
10413,cvs_us,CVS Pharmacy,,Celina,TX,,US,+1 972-382-8668,https://www.cvs.com/store-locator/celina-tx-pharmacies/310-so-preston-rd-celina-tx-75009/storeid=10413,Mo-Su 08:00-22:00,CVS Pharmacy,Q2078880
8172,dominos_pizza_us,Domino's Pizza,,Celina,TX,,US,+1 214-851-2222,https://pizza.dominos.com/texas/celina/2750-south-preston-rd-suite-114,Mo-Th 10:30-24:00; Fr-Sa 10:30-01:00; Su 10:30-24:00,Domino's,Q839466
8017,dominos_pizza_us,Domino's Pizza,,Celina,TX,,US,+1 469-202-3063,https://pizza.dominos.com/texas/celina/695-north-preston-road-110,Mo-Th 10:30-24:00; Fr-Sa 10:30-01:00; Su 10:30-24:00,Domino's,Q839466
https://www.edwardjones.com/us-en/financial-advisor/ryan-merchant,edwardjones,Ryan P Merchant,,Celina,TX,,US,+1 469-813-0001,https://www.edwardjones.com/us-en/financial-advisor/ryan-merchant,Mo-Th 08:30-17:00; Fr 08:30-15:00,Edward Jones,Q5343830
https://local.fedex.com/#25234137,fedex,,,Celina,TX,,US,+1 800-463-3339,https://local.fedex.com/en-us/tx/celina/dneab,,FedEx,Q459477
67451,little_free_library,Terri Harkey #67451 Celina TX,,Celina,TX,,US,,,,Little Free Library,Q6650101
https://locations.oreillyauto.com/tx/celina/check-engine-light-testing-4916.html,oreilly,Your Celina O'Reilly Auto Parts Store,,Celina,TX,,US,+1 972-382-7089,https://locations.oreillyauto.com/tx/celina/check-engine-light-testing-4916.html,Mo-Sa 07:30-21:00; Su 08:00-20:00,O'Reilly Auto Parts,Q7071951
https://locations.oreillyauto.com/tx/celina/wiper-installation-4916.html,oreilly,Your Celina O'Reilly Auto Parts Store,,Celina,TX,,US,+1 972-382-7089,https://locations.oreillyauto.com/tx/celina/wiper-installation-4916.html,Mo-Sa 07:30-21:00; Su 08:00-20:00,O'Reilly Auto Parts,Q7071951
https://locations.oreillyauto.com/tx/celina/battery-testing-4916.html,oreilly,Your Celina O'Reilly Auto Parts Store,,Celina,TX,,US,+1 972-382-7089,https://locations.oreillyauto.com/tx/celina/battery-testing-4916.html,Mo-Sa 07:30-21:00; Su 08:00-20:00,O'Reilly Auto Parts,Q7071951
https://locations.oreillyauto.com/tx/celina/autopartes-4916.html,oreilly,Tu tienda O'Reilly Auto Parts en Celina,,Celina,TX,,US,+1 972-382-7089,https://locations.oreillyauto.com/tx/celina/autopartes-4916.html,Mo-Sa 07:30-21:00; Su 08:00-20:00,O'Reilly Auto Parts,Q7071951
35680,seven_eleven_ca_us,7-11 Str   1513 Preston Rd,,Celina,TX,,US,+1 972-382-8169,https://www.7-eleven.com/locations/tx/celina/1513-preston-rd-35680,,7-Eleven,Q259340
https://restaurants.subway.com/#14897883,subway,Subway Shops at Carter Ranch,,Celina Collin,TX,,US,+1 214-851-0008,https://restaurants.subway.com/united-states/tx/celina/2750-s-preston-rd,Mo-Su 09:00-22:00,Subway,Q244457
https://locations.tacobell.com/#6147391,taco_bell,Taco Bell,,Celina,TX,,US,+1 972-382-8010,https://locations.tacobell.com/tx/celina/1002-s--preston-road.html,Mo-Su 08:00-02:00,Taco Bell,Q752941
7075,upsstore,Celina,2750 S Preston Rd Ste 116,Celina,TX,,US,+1 469-777-4142,https://locations.theupsstore.com/tx/celina/2750-s-preston-rd,,UPS Store,Q7771029
1357417,usps,CELINA,,CELINA,TX,,US,+1 972-382-2951,,"Mo-Fr 08:00-12:00,13:00-16:00",United States Postal Service,Q668687
7500900074,usps_collection_boxes,USPS COLLECTION BOX - BLUE BOX,918 W WALNUT ST,CELINA,TX,,US,,,,United States Postal Service,Q668687
7500906275,usps_collection_boxes,USPS COLLECTION BOX - PO LOBBY,918 W WALNUT ST,CELINA,TX,,US,,,,United States Postal Service,Q668687
7500906278,usps_collection_boxes,USPS COLLECTION BOX - PO LOBBY,918 W WALNUT ST,CELINA,TX,,US,,,,United States Postal Service,Q668687
,visa,,,CELINA,TX,,US,,,,,
,visa,,,CELINA,TX,,US,,,,,
,visa,,,CELINA,TX,,US,,,,,
,visa,,,CELINE,TX,,US,,,,,
,visa,,,CELINA,TX,,US,,,,,
,visa,,,CELINA,TX,,US,,,,,
,visa,,,CELINA,TX,,US,,,,,
,visa,,,CELINA,TX,,US,,,,,
,visa,,,CELINA,TX,,US,,,,,
https://www.walgreens.com/locator/walgreens-675+e+sunset+blvd-celina-tx-75009/id=21507,walgreens,Walgreens,,Celina,TX,,US,+1 972-382-3989,https://www.walgreens.com/locator/walgreens-675+e+sunset+blvd-celina-tx-75009/id=21507,Mo-Fr 09:00-19:00; Sa 09:00-17:00; Su 00:00-24:00,Walgreens,Q1591889
219673,wingstop,Wingstop Celina S. Preston,"525 South Preston, Ste 105",Celina,TX,,US,+1 469-481-4505,,,Wingstop,Q8025339
