Ref,Spider,Name,Address,City,State,Zipcode,Country,Phone,Website,Hours,Brand,WikiData
71537670,moneygram,HOLLYWOOD INTERNATIONAL - MUMBAI - MUMBA,,MUMBAI,,,IN,+91 92219 25155,,Mo-Su 09:00-21:00,MoneyGram,Q1944412
72485828,moneygram,MAISON DE MODE - MUMBAI - MASJID BUNDER,,MUMBAI,,,IN,+91 98923 59155,,Mo-Su 09:00-21:00,MoneyGram,Q1944412
72487282,moneygram,MARZ TOURS AND TRAVELS - MUMBAI - DONGRI,,MUMBAI,,,IN,+91 98927 76923,,Mo-Su 09:00-21:00,MoneyGram,Q1944412
73442365,moneygram,BALAJI ENTERPRISES,,MUMBAI,,,IN,+91 91728 34447,,Mo-Su 08:00-21:00,MoneyGram,Q1944412
73431567,moneygram,AL QADRI ENTERPRISES,,MUMBAI,,,IN,+91 70802 24286,,Mo-Su 08:00-21:00,MoneyGram,Q1944412
73431583,moneygram,FIRST-AIM CONSULTANCY,,MUMBAI,,,IN,+91 98193 45539,,Mo-Su 08:00-21:00,MoneyGram,Q1944412
73548696,moneygram,AMBIKA ELECTRICT GENERAL STORES,,MUMBAI,,,IN,+91 99204 56286,,Mo-Su 08:00-21:00,MoneyGram,Q1944412
73736592,moneygram,ADITYA TRAVELS,,MUMBAI,,,IN,+91 70213 67781,,Mo-Su 08:00-21:00,MoneyGram,Q1944412
73745554,moneygram,AL AMEER ENTERPRISES,,MUMBAI,,,IN,+91 79772 70970,,Mo-Su 08:00-21:00,MoneyGram,Q1944412
73739476,moneygram,BHAVANI TRAVELS,,MUMBAI,,,IN,+91 93222 16747,,Mo-Su 08:00-21:00,MoneyGram,Q1944412
73744377,moneygram,FALCON ENTERPRISES,,MUMBAI,,,IN,+91 98201 90025,,Mo-Su 08:00-21:00,MoneyGram,Q1944412
73751247,moneygram,SAMEER COMMUNICATION,,MUMBAI,,,IN,+91 97027 86146,,Mo-Su 08:00-21:00,MoneyGram,Q1944412
73733854,moneygram,SHREE RAJENDRA MOBILE CENTRE,,MUMBAI,,,IN,+91 98924 61719,,Mo-Su 08:00-21:00,MoneyGram,Q1944412
73754095,moneygram,YA RAHMAN TOUR AND TELECOM,,MUMBAI,,,IN,+91 99676 46655,,Mo-Su 08:00-21:00,MoneyGram,Q1944412
73818601,moneygram,SUFI ENTERPRISES,,MUMBAI,,,IN,+91 98205 95713,,Mo-Su 08:00-21:00,MoneyGram,Q1944412
72964080,moneygram,TICKETS EXPRESS,,MUMBAI,,,IN,+91 98207 86713,,Mo-Su 08:00-21:00,MoneyGram,Q1944412
73798556,moneygram,PEERZADA TRAVELS,,MUMBAI,,,IN,+91 91224 00652,,Mo-Su 08:00-21:00,MoneyGram,Q1944412
73931915,moneygram,DHRUV TRAVELS,,MUMBAI,,,IN,+91 98333 84333,,Mo-Su 08:00-21:00,MoneyGram,Q1944412
74107379,moneygram,SALIM INTERNATIONAL TOURS AND TRAVELS,,MUMBAI,,,IN,+91 88790 86678,,Mo-Su 08:00-21:00,MoneyGram,Q1944412
74765753,moneygram,SAHARA TRADERS,,MUMBAI,,,IN,+91 79774 04637,,Mo-Su 08:00-23:30,MoneyGram,Q1944412
71511861,moneygram,KOTWALA TOURS & TRAVELS - MUMBAI - MUMBA,,MUMBAI,,,IN,+91 22 2345 4434,,Mo-Su 09:00-21:00,MoneyGram,Q1944412
,visa,,,MUMBAI,,,IN,,,,,
,visa,,,MUMBAI,,,IN,,,,,
,visa,,,MUMBAI,,,IN,,,,,
,visa,,,MUMBAI,,,IN,,,,,
