Ref,Spider,Name,Address,City,State,Zipcode,Country,Phone,Website,Hours,Brand,WikiData
13622383,ally_fashion_au,Rockhampton ,,Rockhampton City ,QLD,,AU,+61 7 4994 9832,,,Ally Fashion,Q19870623
RED0012893,australia_post_au,,,KAWANA,QLD,,AU,,,,Australia Post,Q1142936
RED0012904,australia_post_au,,,PARK AVENUE,QLD,,AU,,,,Australia Post,Q1142936
RED0012894,australia_post_au,,,KAWANA,QLD,,AU,,,,Australia Post,Q1142936
RED0012902,australia_post_au,,,PARK AVENUE,QLD,,AU,,,,Australia Post,Q1142936
400071_PO,australia_post_au,CENTRAL QUEENSLAND UNI LPO,,NORMAN GARDENS,QLD,,AU,+61 131318,,,Australia Post,Q1142936
443100_PO,australia_post_au,PARK AVENUE LPO,,PARK AVENUE,QLD,,AU,+61 7 4922 1717,,,Australia Post,Q1142936
RED0012897,australia_post_au,,,NORMAN GARDENS,QLD,,AU,,,,Australia Post,Q1142936
RED0012906,australia_post_au,,,KAWANA,QLD,,AU,,,,Australia Post,Q1142936
444242_PO,australia_post_au,RED HILL ROCKHAMPTON POST SHOP,,NORMAN GARDENS,QLD,,AU,+61 131318,,,Australia Post,Q1142936
RED0012884,australia_post_au,,,BERSERKER,QLD,,AU,,,,Australia Post,Q1142936
RED0012913,australia_post_au,,,PARK AVENUE,QLD,,AU,,,,Australia Post,Q1142936
RED0012883,australia_post_au,,,NORMAN ROAD,QLD,,AU,,,,Australia Post,Q1142936
RED0012900,australia_post_au,,,BERSERKER,QLD,,AU,,,,Australia Post,Q1142936
RED0017631,australia_post_au,,,BERSERKER,QLD,,AU,,,,Australia Post,Q1142936
RED0012898,australia_post_au,,,BERSERKER,QLD,,AU,,,,Australia Post,Q1142936
RED0012882,australia_post_au,,,BERSERKER,QLD,,AU,,,,Australia Post,Q1142936
RED0012899,australia_post_au,,,BERSERKER,QLD,,AU,,,,Australia Post,Q1142936
RED0012886,australia_post_au,,,FRENCHVILLE,QLD,,AU,,,,Australia Post,Q1142936
RED0012901,australia_post_au,,,BERSERKER,QLD,,AU,,,,Australia Post,Q1142936
RED0012885,australia_post_au,,,BERSERKER,QLD,,AU,,,,Australia Post,Q1142936
RED0012889,australia_post_au,,,FRENCHVILLE,QLD,,AU,,,,Australia Post,Q1142936
437173_PO,australia_post_au,FRENCHVILLE LPO,,FRENCHVILLE,QLD,,AU,+61 131318,,,Australia Post,Q1142936
RED0012890,australia_post_au,,,FRENCHVILLE,QLD,,AU,,,,Australia Post,Q1142936
RED0012888,australia_post_au,,,FRENCHVILLE,QLD,,AU,,,,Australia Post,Q1142936
RED0012892,australia_post_au,,,KOONGAL,QLD,,AU,,,,Australia Post,Q1142936
RED0012895,australia_post_au,,,KOONGAL,QLD,,AU,,,,Australia Post,Q1142936
RED0012896,australia_post_au,,,KOONGAL,QLD,,AU,,,,Australia Post,Q1142936
L-ROCK,barbeques_galore_au,North Rockhampton,,Nth Rockhampton,QLD,,AU,+61 7 4926 5405,https://www.barbequesgalore.com.au/stores/north-rockhampton,Mo-Fr 08:30-17:00; Sa 08:30-15:00; Su 10:00-14:00,Barbeques Galore,Q4859570
167,battery_world_au,Battery World Rockhampton [A],,North Rockhampton,QLD,,AU,+61 131760;+61 7 4922 9022,https://www.batteryworld.com.au/stores/battery-world-rockhampton,Mo-Fr 08:00-17:30; Sa 08:00-14:00,Battery World,Q124003678
21949708,bottlemart_au,Ascot Hotel,,,QLD,,AU,+61 7 4922 4719,,,Bottlemart,Q102863175
22929072,bottlemart_au,Kalka Palms Hotel Motel,,,QLD,,AU,+61 7 4928 5666,,,Bottlemart,Q102863175
7649,bp,BP AQUATIC PLACE (ROCKHAMPTON),,ROCKHAMPTON,QLD,,AU,+61 7 4914 0770,,24/7,BP,Q152057
7730,bp,BP GLENMORE ROAD,,PARK AVENUE,QLD,,AU,+61 7 4819 0007,,24/7,BP,Q152057
7717,bp,BP BRIDGE ST,,BERSERKER ROCKHAMPTON,QLD,,AU,+61 7 4914 0770,,24/7,BP,Q152057
https://www.bridgestone.com.au/stores/qld/bridgestone-service-centre-rockhampton,bridgestone_select,Bridgestone Service Centre Rockhampton,,Rockhampton,QLD,,AU,+61 7 4928 3988,https://www.bridgestone.com.au/stores/qld/bridgestone-service-centre-rockhampton/,Mo-Fr 07:30-17:00; Sa 07:30-11:00,Bridgestone Select Tyre & Auto,Q122420123
https://www.bridgestone.com.au/stores/qld/bridgestone-select-north-rockhampton,bridgestone_select,Bridgestone Select North Rockhampton,,Berserker,QLD,,AU,+61 7 4807 6499,https://www.bridgestone.com.au/stores/qld/bridgestone-select-north-rockhampton/,Mo-Fr 08:00-17:00; Sa 08:00-24:00,Bridgestone Select Tyre & Auto,Q122420123
70557,caltex,Caltex Berserker,,Rockhampton,QLD,,AU,+61 7 4994 2827,,,Caltex,Q277470
70637,caltex,Caltex Koongal,,Koongal,QLD,,AU,+61 7 4994 2896,,,Caltex,Q277470
70687,caltex,Caltex Park Avenue,,Rockhampton,QLD,,AU,+61 7 4994 2818,,,Caltex,Q277470
44,camera_house_au,Rockhampton,"Shop 224/225 Stockland Shopping Centre, 176-331 Yaamba Road, Park Avenue, 4701, QLD",Park Avenue,QLD,,AU,+61 7 4921 1479,https://www.camerahouse.com.au/store/rockhampton,Mo-We 09:00-17:30; Th 09:00-21:00; Fr 09:00-17:30; Sa 09:00-17:00; Su 10:00-16:00,Camera House,Q124062505
081,city_beach_au,Rockhampton,"City Beach Stockland Rockhampton Shopping Centre, Shop-87 120-331 Yaamba Rd.",Park Avenue,QLD,,AU,+61 7 4924 3000,,Mo-We 09:00-17:30; Th 09:00-21:30; Fr 09:00-17:30; Sa 08:30-16:00; Su 10:00-16:00,City Beach,Q16958619
4455,coles_au,Coles Rockhampton North,,Rockhampton,QLD,,AU,+61 7 4930 8400,,,Coles Supermarkets,Q1108172
1766,coles_au,Coles Express Rockhampton North,,Rockhampton North,QLD,,AU,+61 7 3734 0708,,,Coles Express,Q5144653
6530,coles_au,North Rockhampton,,North Rockhampton,QLD,,AU,+61 7 3734 0806,,,Liquorland,Q2283837
8614,coles_au,Farm St Bottleshop,,Norman Gardens,QLD,,AU,+61 7 3734 0834,,,Liquorland,Q2283837
470902,commonwealth_bank_au,Rockhampton North,,Park Avenue,QLD,,AU,,,,Commonwealth Bank,Q285328
470905,commonwealth_bank_au,Rockhampton North,,Park Avenue,QLD,,AU,,,,Commonwealth Bank,Q285328
470901,commonwealth_bank_au,Rockhampton North,,Park Avenue,QLD,,AU,,,,Commonwealth Bank,Q285328
470995,commonwealth_bank_au,Northside Plaza,,Berserker,QLD,,AU,,,,Commonwealth Bank,Q285328
41,drummond_golf_au,Rockhampton Drummond Golf,,Park Avenue,QLD,,AU,+61 7 4926 6266,https://www.drummondgolf.com.au/storelocator/storedetail?id=41,,Drummond Golf,Q124065894
515,dusk_au,dusk Rockhampton,,Park Avenue,QLD,,AU,,https://www.dusk.com.au/store-locator/dusk-rockhampton/,,dusk,Q120669167
65,early_settler,Rockhampton,,Norman Gardens,QLD,,AU,+61 7 4928 6383,https://earlysettler.com.au/pages/early-settler-rockhampton,Mo-Sa 09:00-17:00; Su 10:00-16:00,Early Settler,Q111080173
6100252,exxonmobil,Mobil Berserker,,Berserker,QLD,,AU,,https://www.mobil.com.au/en-au/find-station/mobil-berserker-qld-berserker-6100252,Mo-Su 06:00-23:00,Mobil,Q109676002
297,greencross_au,Rockhampton,,Park Avenue,QLD,,AU,+61 7 3181 3270,https://www.petbarn.com.au/store-finder/rockhampton,Mo-We 08:30-18:00; Th 08:30-19:00; Fr 08:30-18:00; Sa 08:30-17:00; Su 09:00-17:00,Petbarn,Q104746468
868,guzmany_gomez,Rockhampton,,Rockhampton,QLD,,AU,+61 7 3188 1712,https://www.guzmanygomez.com.au/locations/Rockhampton/,Mo-Su 10:00-21:55,Guzman y Gomez,Q23019759
454,house_au,House Bed & Bath Rockhampton,,Park Avenue,QLD,,AU,+61 7 5228 3440,https://www.house.com.au/stores/house-bed-bath-rockhampton,Mo-We 09:00-17:30; Th 09:00-19:00; Fr 09:00-17:30; Sa 09:00-16:00; Su 10:00-15:00,House,Q117921987
120,jbhifi,Rockhampton Stockland,,North Rockhampton,QLD,,AU,+61 7 4936 5300,,Mo-We 09:00-17:30; Th 09:00-21:00; Fr 09:00-17:30; Sa 09:00-17:00; Su 10:00-16:00,JB Hi-Fi,Q3310113
717,just_cuts,Rockhampton- Stockland,,North Rockhampton,QLD,,AU,+61 7 4926 3433,https://www.justcuts.com.au/Australian-Salons/Rockhampton--Stockland?sid=717,Mo-We 09:00-17:00; Th 09:00-17:30; Fr 09:00-17:00; Sa 09:00-16:00; Su 10:00-16:00,Just Cuts,Q116784479
41833,just_group,Peter Alexander Rocky Fair,"Shop 249 Stockland, Rockhampton 331 Yaamba Rd, Rocky Fair, Norman Gardens, QLD, 4701, Australia",Norman Gardens,QLD,,AU,+61 7 4994 9879,https://justjeans.jgl.com.au/shop/stores/peteralexander-rocky-fair,Mo-We 09:00-17:30; Th 09:00-19:00; Fr 09:00-17:30; Sa 09:00-17:00; Su 10:00-16:00,Peter Alexander,Q118383240
41957,just_group,Smiggle Rocky Fair,"Shop 36A Rockhampton S/C, Cnr Bruce Hwy & Yaamba St, Rocky Fair, North Rockhampton, QLD, 4701, Australia",North Rockhampton,QLD,,AU,+61 7 4926 5152,https://justjeans.jgl.com.au/shop/stores/smiggle-rocky-fair,,Smiggle,Q7544536
42306,just_group,Portmans Rocky Fair,"Shop 75 Rockhampton S/C, Cnr Bruce Hwy & Yaamba St, Rocky Fair, North Rockhampton, QLD, 4701, Australia",North Rockhampton,QLD,,AU,+61 7 4927 8211,https://justjeans.jgl.com.au/shop/stores/portmans-rocky-fair,,Portmans,Q118383252
42392,just_group,Dotti Rocky Fair,"Shp 203 Rockhampton S/C, Cnr Bruce Hwy & Yaamba St, Rocky Fair, North Rockhampton, QLD, 4701, Australia",North Rockhampton,QLD,,AU,+61 7 4921 3874,https://justjeans.jgl.com.au/shop/stores/dotti-rocky-fair,,Dotti,Q5299495
42628,just_group,Just Jeans Rocky Fair,"Shop 91A Rockhampton S/C, Cnr Bruce Hwy & Yaamba Rd, Rocky Fair, North Rockhampton, QLD, 4701, Australia",North Rockhampton,QLD,,AU,+61 7 4926 2690,https://justjeans.jgl.com.au/shop/stores/justjeans-rocky-fair,,Just Jeans,Q6316068
42803,just_group,Jacqui E Rocky Fair,"Sh 76-77 Rockhampton Fair, Cnr Yaamba Rd/Highway One, Rocky Fair, North Rockhampton, QLD, 4701, Australia",North Rockhampton,QLD,,AU,+61 7 4922 7901,https://justjeans.jgl.com.au/shop/stores/jacquie-rocky-fair,,Jacqui E,Q118383260
42992,just_group,Jay Jays Rocky Fair,"Shop 091C Rockhampton S/C, Cnr Bruce Hwy & Yaamba Rd, Rocky Fair, North Rockhampton, QLD, 4701, Australia",North Rockhampton,QLD,,AU,+61 7 4923 7336,https://justjeans.jgl.com.au/shop/stores/jayjays-rocky-fair,,Jay Jays,Q6166759
11408,lovisa,Lovisa,,Rockhampton North,QLD,,AU,+61 7 2111 9820,,,Lovisa,Q106298409
9501219,mcdonalds_qstore,ROCKHAMPTON NORTH,,Rockhampton North,QLD,,AU,+61 7 4926 7790,,24/7,McDonald's,Q38076
9500434,mcdonalds_qstore,GLENMORE QLD,,North Rockhampton,QLD,,AU,+61 7 4926 1986,,24/7,McDonald's,Q38076
https://www.mcgrath.com.au/offices/429-rockhampton,mcgrath_au,McGrath Rockhampton,,Park Avenue,QLD,,AU,+61 7 4819 2459,https://www.mcgrath.com.au/offices/429-rockhampton,Mo-Fr 08:30-17:00,McGrath,Q105290661
https://www.nandos.com.au/restaurants/qld/rockhampton,nandos,ROCKHAMPTON,,Berserker,QLD,,AU,+61 1300 626 367,https://www.nandos.com.au/restaurants/qld/rockhampton,,Nando's,Q3472954
110,nutrition_warehouse_au,Rockhampton,,Park Avenue,QLD,,AU,+61 7 4928 4794,https://www.nutritionwarehouse.com.au/pages/rockhampton-vitamins-and-supplements,Mo-We 09:00-17:30; Th 09:00-18:00; Fr 09:00-17:30; Sa 09:00-16:00; Su 10:00-16:00,Nutrition Warehouse,Q117747424
4006,petstock_au,Petstock Rockhampton,,North Rockhampton,QLD,,AU,+61 7 4936 3170,https://www.petstock.com.au/pages/store/petstock-rockhampton,Mo-We 08:30-17:30; Th 08:30-19:00; Fr 08:30-17:30; Sa 08:30-17:00; Su 09:00-16:00,Petstock,Q106540728
4023,pillow_talk_au,Rockhampton,,North Rockhampton,QLD,,AU,+61 7 4926 4533,,Mo-We 09:00-17:30; Th 09:00-19:00; Fr 09:00-17:30; Sa 09:00-17:00; Su 10:00-16:00,Pillow Talk,Q120648495
https://www.qbd.com.au/locations/rockhampton/,qbd_books_au,QBD Books - Rockhampton,,Norman Gardens,QLD,,AU,+61 7 4994 9855,https://www.qbd.com.au/locations/rockhampton/,Mo-We 08:30-17:30; Th 08:30-21:00; Fr 08:30-17:30; Sa 08:30-17:00; Su 10:00-16:00,QBD Books,Q7270909
4754,red_rooster_au,Red Rooster Glenmore,,Norman Gardens,QLD,,AU,+61 7 4928 0464,https://redrooster.com.au/locations/glenmore/,Mo-Su 09:00-22:00,Red Rooster,Q376466
414,rsea_safety_au,RSEA Safety Rockhampton,,ROCKHAMPTON,QLD,,AU,+61 7 3541 5210,https://www.rsea.com.au/store-locator/qld/rockhampton,Mo-Fr 07:30-17:00; Sa 09:00-16:00; Su 09:00-14:00,RSEA Safety,Q122418895
Rockhampton,shaver_shop,Rockhampton,,Rockhampton,QLD,,AU,+61 7 4819 9346,https://www.shavershop.com.au/stores/QLD/Rockhampton,Mo-We 09:00-17:30; Th 09:00-19:00; Fr-Sa 09:00-17:30; Su 10:00-16:00,Shaver Shop,Q119443589
10111436,shell,SHELL COLES EXPRESS ROCKHAMPTON NORTH,,ROCKHAMPTON NORTH,QLD,,AU,+61 7 3734 0708,https://find.shell.com/au/fuel/10111436-shell-coles-express-rockhampton-north,24/7,Shell,Q110716465
959-43230,skoda,Rockhampton Volkswagen (Å koda Service),,,QLD,,AU,,,,Skoda,Q29637
QRCK,spendless_au,Rockhampton,,Rockhampton DC,QLD,,AU,+61 7 4921 0078,,Mo-We 09:00-17:30; Th 09:00-21:00; Fr 09:00-17:30; Sa 09:00-16:00; Su 10:00-16:00,Spendless,Q120668938
4415,sportsgirl_au,ROCKHAMPTON,,Berserker,QLD,,AU,+61 7 4927 3610,/store-locator/qld/rockhampton-4415,Mo-We 09:00-17:30; Th 09:00-21:00; Fr 09:00-17:30; Sa 09:00-16:00; Su 10:00-15:00,Sportsgirl,Q7579970
https://stores.sunglasshut.com/au/qld/rockhampton/120-331-yaamba-rd-park-avenue-stockland-rockhampton-shopping-centre,sunglass_hut_1,Sunglass Hut Rockhampton,,Rockhampton,QLD,,AU,+61 7 4921 4137,https://stores.sunglasshut.com/au/qld/rockhampton/120-331-yaamba-rd-park-avenue-stockland-rockhampton-shopping-centre,Mo-We 09:00-17:30; Th 09:00-21:00; Fr 09:00-17:30; Sa 09:00-17:00; Su 10:00-16:00,Sunglass Hut,Q136311
4445,sussan_au,Rockhampton,,North Rockhampton,QLD,,AU,+61 7 4921 4694,/store-locator/qld/rockhampton-4445,Mo-We 09:00-17:30; Th 09:00-21:00; Fr 09:00-17:30; Sa 09:00-16:00,Sussan,Q28184460
4278,suzanne_grae_au,Rocky Fair,,North Rockhampton,QLD,,AU,+61 7 4928 8277,/store-locator/qld/rocky-fair-4278,Mo-We 09:00-17:30; Th 09:00-20:30; Fr 09:00-17:30; Sa 09:00-16:00; Su 11:00-14:00,Suzanne Grae,Q117747672
TCCAUS0209,the_coffee_club_au,TCC - Stockland Rocky,"Shop 245 Stockland Rockhampton, Cnr Yamba Road and Bruce Highway, North Rockhampton, QLD, Australia, 4701",North Rockhampton,QLD,,AU,+61 7 4887 1401,https://coffeeclub.com.au/pages/store-details?country=Australia&name=rockhampton-stockland,Mo-Fr 08:00-17:30; Sa 08:00-16:30; Su 09:00-15:00,The Coffee Club,Q7726599
https://www.thegoodguys.com.au/rockhampton,the_good_guys_au,The Good Guys Rockhampton,,Rockhampton,QLD,,AU,+61 7 4923 5900,https://www.thegoodguys.com.au/rockhampton,Mo-Fr 09:00-17:30; Sa 09:00-17:00; Su 09:00-16:00,The Good Guys,Q7737217
4583,toyworld_au,Toyworld Rockhampton,,Norman Gardens,QLD,,AU,+61 7 4926 1756,https://www.toyworld.com.au/pages/toyworld-rockhampton,Mo-Fr 09:00-17:00; Sa 09:00-16:00; Su 10:00-16:00,Toyworld,Q95923071
,tyrepower_au,Rockhampton Tyrepower,,Rockhampton,QLD,,AU,+61 7 4926 6800,https://tyrepowerrockhampton.com.au/,,Tyrepower,Q108855867
419,ultra_tune_au,Ultra Tune Rockhampton,,BERSERKER,QLD,,AU,+61 7 4922 5866,https://www.ultratune.com.au/store/ultra-tune-rockhampton,Mo-Fr 08:00-17:30; Sa 08:00-12:00,Ultra Tune,Q29025649
,visa,,,ROCKHAMPTON,QLD,,AU,,,,,
,visa,,,BERSERKER,QLD,,AU,,,,,
,visa,,,PARK AVENUE,QLD,,AU,,,,,
,visa,,,PARK AVENUE,QLD,,AU,,,,,
,visa,,,NORTH ROCKHAMPTON,QLD,,AU,,,,,
,visa,,,BERSERKER,QLD,,AU,,,,,
,visa,,,BERSERKER,QLD,,AU,,,,,
,visa,,,NORTH ROCKHAMPTON,QLD,,AU,,,,,
,visa,,,NORTH ROCKHAMPTON,QLD,,AU,,,,,
,visa,,,ROCKHAMPTON NORTH,QLD,,AU,,,,,
,visa,,,NORTH ROCKHAMPTON,QLD,,AU,,,,,
,visa,,,NORTH ROCKHAMPTON,QLD,,AU,,,,,
,visa,,,PARK AVENUE,QLD,,AU,,,,,
,visa,,,NORTH ROCKHAMPTON,QLD,,AU,,,,,
,visa,,,KOONGAL,QLD,,AU,,,,,
,visa,,,NORTH ROCKHAMPTON,QLD,,AU,,,,,
,visa,,,NORTH ROCKHAMPTON,QLD,,AU,,,,,
,visa,,,ROCKHAMPTON,QLD,,AU,,,,,
,visa,,,ROCKHAMPTON,QLD,,AU,,,,,
,visa,,,NORTH ROCKHAMPTON,QLD,,AU,,,,,
,visa,,,ROCKHAMPTON,QLD,,AU,,,,,
,visa,,,ROCKHAMPTON,QLD,,AU,,,,,
266ec80374cd361f89488d3b75ca2530,western_union,AUSTRALIA POST,,Norman Gardens,QLD,,AU,+61 1800 501 500,https://location.westernunion.com/au/qld/norman-gardens/266ec80374cd361f89488d3b75ca2530,Mo-Fr 09:00-17:00,Western Union,Q861042
