Ref,Spider,Name,Address,City,State,Zipcode,Country,Phone,Website,Hours,Brand,WikiData
4a9e6f78462c00ee791a489ce9b4a631,western_union,OXXO REPUBLICA DE ARGENTINA MAF,,Matamoros,TAMAULIPAS,,MX,+52 81 8389 2121,https://location.westernunion.com/mx/tamaulipas/matamoros/4a9e6f78462c00ee791a489ce9b4a631,Mo-Su 06:00-22:00,Western Union,Q861042
c6554bf13f22aaf67844ca3f3393a51c,western_union,OXXO REPUBLICA DE ARGENTINA MAF,,Matamoros,TAMAULIPAS,,MX,+52 81 8389 2121,https://location.westernunion.com/mx/tamaulipas/matamoros/c6554bf13f22aaf67844ca3f3393a51c,Mo-Su 06:00-22:00,Western Union,Q861042
1009bae62182defa389a393f28efcd89,western_union,OXXO REPUBLICA DE ARGENTINA MAF,,Matamoros,TAMAULIPAS,,MX,+52 81 8389 2121,https://location.westernunion.com/mx/tamaulipas/matamoros/1009bae62182defa389a393f28efcd89,Mo-Su 06:00-22:00,Western Union,Q861042
2987df01a63f05f86d6b6ec686273bac,western_union,OXXO MEXICO MAF,,Matamoros,TAMAULIPAS,,MX,+52 81 8389 2121,https://location.westernunion.com/mx/tamaulipas/matamoros/2987df01a63f05f86d6b6ec686273bac,Mo-Su 08:00-22:00,Western Union,Q861042
fd8edc4c8bc57a516b1ab04b137badf8,western_union,OXXO MEXICO MAF,,Matamoros,TAMAULIPAS,,MX,+52 81 8389 2121,https://location.westernunion.com/mx/tamaulipas/matamoros/fd8edc4c8bc57a516b1ab04b137badf8,Mo-Su 08:00-22:00,Western Union,Q861042
526f75b16195286aafa4b5e9531cc860,western_union,OXXO MEXICO MAF,,Matamoros,TAMAULIPAS,,MX,+52 81 8389 2121,https://location.westernunion.com/mx/tamaulipas/matamoros/526f75b16195286aafa4b5e9531cc860,Mo-Su 08:00-22:00,Western Union,Q861042
ce4a9d86fc932737a8ee9e6c7ae82559,western_union,7ELEVEN CAMINO REAL Y MANINALCO 2189,,Matamoros,TAMAULIPAS,,MX,+52 800 833 4700,https://location.westernunion.com/mx/tamaulipas/matamoros/ce4a9d86fc932737a8ee9e6c7ae82559,Mo-Su 06:00-22:00,Western Union,Q861042
8f22444462cb1eb198f5a81b4069139f,western_union,7ELEVEN CAMINO REAL Y MANINALCO 2189,,Matamoros,TAMAULIPAS,,MX,+52 800 833 4700,https://location.westernunion.com/mx/tamaulipas/matamoros/8f22444462cb1eb198f5a81b4069139f,Mo-Su 06:00-22:00,Western Union,Q861042
f96d81ffe9d05bb924eab0e5cab0b1b6,western_union,7ELEVEN CAMINO REAL Y MANINALCO 2189,,Matamoros,TAMAULIPAS,,MX,+52 800 833 4700,https://location.westernunion.com/mx/tamaulipas/matamoros/f96d81ffe9d05bb924eab0e5cab0b1b6,Mo-Su 06:00-22:00,Western Union,Q861042
5f4a921d659ebadbebc9f5d0033f5f4b,western_union,OXXO TAXQUENA MAF,,Matamoros,TAMAULIPAS,,MX,+52 81 8389 2121,https://location.westernunion.com/mx/tamaulipas/matamoros/5f4a921d659ebadbebc9f5d0033f5f4b,Mo-Su 06:00-22:00,Western Union,Q861042
5150face9ddc1fd106ef75393dd54072,western_union,OXXO TAXQUENA MAF,,Matamoros,TAMAULIPAS,,MX,+52 81 8389 2121,https://location.westernunion.com/mx/tamaulipas/matamoros/5150face9ddc1fd106ef75393dd54072,Mo-Su 06:00-22:00,Western Union,Q861042
13f8262d60739627ec7f4658ea6a7b6d,western_union,OXXO TAXQUENA MAF,,Matamoros,TAMAULIPAS,,MX,+52 81 8389 2121,https://location.westernunion.com/mx/tamaulipas/matamoros/13f8262d60739627ec7f4658ea6a7b6d,Mo-Su 06:00-22:00,Western Union,Q861042
317dd01c11734b24bca2d09aa1e1ded1,western_union,OXXO PALMAS DE MAR MAF,,Matamoros,TAMAULIPAS,,MX,+52 81 8389 2121,https://location.westernunion.com/mx/tamaulipas/matamoros/317dd01c11734b24bca2d09aa1e1ded1,Mo-Su 08:00-22:00,Western Union,Q861042
1461545222cb3e2aac50bc19f9f62b27,western_union,OXXO PALMAS DE MAR MAF,,Matamoros,TAMAULIPAS,,MX,+52 81 8389 2121,https://location.westernunion.com/mx/tamaulipas/matamoros/1461545222cb3e2aac50bc19f9f62b27,Mo-Su 08:00-22:00,Western Union,Q861042
9c7e8b8e27aad82c8350b23531a7370b,western_union,OXXO PALMAS DE MAR MAF,,Matamoros,TAMAULIPAS,,MX,+52 81 8389 2121,https://location.westernunion.com/mx/tamaulipas/matamoros/9c7e8b8e27aad82c8350b23531a7370b,Mo-Su 08:00-22:00,Western Union,Q861042
08a13a5f756c08833bdfeabf56e78d65,western_union,OXXO CAMINO REAL MAF,,Matamoros,TAMAULIPAS,,MX,+52 81 8389 2121,https://location.westernunion.com/mx/tamaulipas/matamoros/08a13a5f756c08833bdfeabf56e78d65,Mo-Su 08:00-22:00,Western Union,Q861042
17a881fca0fee9d5bea5c6c6fad37dc0,western_union,OXXO CAMINO REAL MAF,,Matamoros,TAMAULIPAS,,MX,+52 81 8389 2121,https://location.westernunion.com/mx/tamaulipas/matamoros/17a881fca0fee9d5bea5c6c6fad37dc0,Mo-Su 08:00-22:00,Western Union,Q861042
9c42c53689308503a99a6904fe3ac134,western_union,OXXO CAMINO REAL MAF,,Matamoros,TAMAULIPAS,,MX,+52 81 8389 2121,https://location.westernunion.com/mx/tamaulipas/matamoros/9c42c53689308503a99a6904fe3ac134,Mo-Su 08:00-22:00,Western Union,Q861042
1e58a00a54623fc608e217ee7eb341d3,western_union,7ELEVEN ARGENTINA Y CAMINO REAL 1830,,Matamoros,TAMAULIPAS,,MX,+52 800 833 4700,https://location.westernunion.com/mx/tamaulipas/matamoros/1e58a00a54623fc608e217ee7eb341d3,Mo-Su 06:00-22:00,Western Union,Q861042
9e151461475dc3efb9637996679a1d06,western_union,7ELEVEN ARGENTINA Y CAMINO REAL 1830,,Matamoros,TAMAULIPAS,,MX,+52 800 833 4700,https://location.westernunion.com/mx/tamaulipas/matamoros/9e151461475dc3efb9637996679a1d06,Mo-Su 06:00-22:00,Western Union,Q861042
2229e66d3be546467eb80539a44b7265,western_union,7ELEVEN ARGENTINA Y CAMINO REAL 1830,,Matamoros,TAMAULIPAS,,MX,+52 800 833 4700,https://location.westernunion.com/mx/tamaulipas/matamoros/2229e66d3be546467eb80539a44b7265,Mo-Su 06:00-22:00,Western Union,Q861042
