Ref,Spider,Name,Address,City,State,Zipcode,Country,Phone,Website,Hours,Brand,WikiData
73251297,moneygram,MUTHOOT FINANCE LTD - #220 - NAMAKKAL -,,NAMAKKAL,,,IN,+91 4286 223 774,,Mo-Su 09:00-19:00,MoneyGram,Q1944412
73260673,moneygram,MUTHOOT FINANCE LTD - #1334 - NAMAKKAL -,,NAMAKKAL,,,IN,+91 4286 277 647,,Mo-Su 09:00-19:00,MoneyGram,Q1944412
73319252,moneygram,MUTHOOT FINCORP LIMITED - #F1942 - NAMAK,,NAMAKKAL,,,IN,+91 4286 275 737,,Mo-Sa 09:00-17:30; Su 00:00-24:00,MoneyGram,Q1944412
73306896,moneygram,MUTHOOT FINCORP LIMITED - #F467 - NAMAKK,,NAMAKKAL,,,IN,+91 4286 280 010,,Mo-Sa 09:00-17:30; Su 00:00-24:00,MoneyGram,Q1944412
73395195,moneygram,KL TRAVELS,,NAMAKKAL,,,IN,+91 98657 71733,,Mo-Su 08:00-21:00,MoneyGram,Q1944412
73447519,moneygram,VIDEO PALACE,,NAMAKKAL,,,IN,+91 98940 22730,,Mo-Su 08:00-21:00,MoneyGram,Q1944412
73541745,moneygram,BROWSER POINT,,NAMAKKAL,,,IN,+91 97915 33422,,Mo-Su 08:00-21:00,MoneyGram,Q1944412
73545233,moneygram,HI TECH TOURS AND TRAVELS,,NAMAKKAL,,,IN,+91 99657 07203,,Mo-Su 08:00-21:00,MoneyGram,Q1944412
73638454,moneygram,FLASHBACK COMMUNICATION (NAMAKKAL)-IBP,,NAMAKKAL,,,IN,+91 98430 07771,,Mo-Su 08:00-21:00,MoneyGram,Q1944412
73743501,moneygram,VIZCELL,,NAMAKKAL,,,IN,+91 99444 98686,,Mo-Su 08:00-21:00,MoneyGram,Q1944412
73816810,moneygram,ANNAI BROWSING AND XEROX,,NAMAKKAL,,,IN,+91 99944 91901,,Mo-Su 08:00-21:00,MoneyGram,Q1944412
73930123,moneygram,NAMAKKAL INTERNET CENTRE,,NAMAKKAL,,,IN,+91 98427 36944,,Mo-Su 08:00-21:00,MoneyGram,Q1944412
74053533,moneygram,MUTHOOTTU MINI FINANCIERS LTD - MOHANUR,,MOHANUR ROAD,,,IN,+91 4286 225 051,,Mo-Sa 09:00-17:30; Su 00:00-24:00,MoneyGram,Q1944412
74053708,moneygram,MUTHOOTTU MINI FINANCIERS LTD - RENGANSA,,RENGANSANNATHI ST,,,IN,+91 4286 225 053,,Mo-Sa 09:00-17:30; Su 00:00-24:00,MoneyGram,Q1944412
65725207,moneygram,MANAPPURAM FINANCE - TRICHY ROAD NAMAKKA,,NAMAKKAL,,,IN,+91 4286 220 559,,Mo-Sa 09:30-18:30; Su 00:00-24:00,MoneyGram,Q1944412
65725621,moneygram,MANAPPURAM FINANCE,,NAMAKKAL,,,IN,+91 4286 322 077,,Mo-Sa 09:30-18:30; Su 00:00-24:00,MoneyGram,Q1944412
67333985,moneygram,MANAPPURAM FINANCE - #2641 - NAMAKKAL,,NAMAKKAL,,,IN,+91 4268 250 150,,Mo-Su 09:30-18:30,MoneyGram,Q1944412
67780101,moneygram,MANAPPURAM FINANCE - #3115 - NAMAKKAL,,NAMAKKAL,,,IN,+91 4286 277 994,,Mo-Sa 09:30-18:30; Su 00:00-24:00,MoneyGram,Q1944412
,visa,,,NAMAKKAL,,,IN,,,,,
,visa,,,NAMAKKAL,,,IN,,,,,
,visa,,,NAMAKKAL,,,IN,,,,,
,visa,,,NAMAKKAL,,,IN,,,,,
,visa,,,NAMAKKAL,,,IN,,,,,
,visa,,,SALEM,,,IN,,,,,
,visa,,,NAMAKKAL,,,IN,,,,,
,visa,,,NAMAKKAL,,,IN,,,,,
,visa,,,NAMAKKAL,,,IN,,,,,
,visa,,,NAMAKKAL,,,IN,,,,,
