Ref,Spider,Name,Address,City,State,Zipcode,Country,Phone,Website,Hours,Brand,WikiData
https://stores.advanceautoparts.com/nc/black-mountain/3116-us-70-hwy,advance_auto_parts_us,Advance Auto Parts,,Black Mountain,NC,,US,+1 828-669-5245,https://stores.advanceautoparts.com/nc/black-mountain/3116-us-70-hwy,Mo-Sa 07:30-21:00; Su 08:30-21:00,Advance Auto Parts,Q4686051
208304,asics_us,Mountain Running Company- Black Mountain,106 W State St,Black Mountain,NC,,US,+1 828-357-5671,,,asics,Q327247
5709,autozone_us,AutoZone Auto Parts Black Mountain,,Black Mountain,NC,,US,+1 828-596-6004,https://www.autozone.com/locations/nc/black-mountain/3018-hwy-70.html,Mo-Th 07:30-20:00; Fr-Sa 07:30-21:00; Su 09:00-20:00,AutoZone,Q4826087
143827,bluerhino,Orgill #177295 - Henson Bldg Materials,,Black Mountain,NC,,US,+1 828-669-9602,,,Blue Rhino,Q65681213
02751159115082871100100000000000,bp,BP,,Black Mountain,NC,,US,+1 828-669-8686,,24/7,BP,Q152057
51019,citi,ATM CVS,,Black Mountain,NC,,US,,,,Citibank,Q857063
73839,citi,ATM Roadrunner Market,,Black Mountain,NC,,US,,,,Citibank,Q857063
3860,cvs_us,CVS Pharmacy,,Black Mountain,NC,,US,+1 828-669-2992,https://www.cvs.com/store-locator/black-mountain-nc-pharmacies/425-west-state-st-black-mountain-nc-28711/storeid=3860,Mo-Fr 08:00-21:00; Sa-Su 09:00-21:00,CVS Pharmacy,Q2078880
nca_s1101,department_veterans_affairs,Western Carolina State Veterans Cemetery,,Black Mountain,NC,,US,+1 828-669-0684,https://www.milvets.nc.gov/services/nc-veterans-cemetery-program,,Department Veterans Affairs,Q592576
https://www.edwardjones.com/us-en/financial-advisor/averyl-basolo,edwardjones,Averyl H Basolo,,Black Mountain,NC,,US,+1 828-669-8370,https://www.edwardjones.com/us-en/financial-advisor/averyl-basolo,Mo-Th 08:30-17:00; Fr 08:30-16:00,Edward Jones,Q5343830
https://locations.53.com/#3034651,fifththirdbank,Fifth Third Bank Black Mountain,,Black Mountain,NC,,US,+1 828-669-8481,https://locations.53.com/nc/black-mountain/128-montreat-road.html,Mo-Th 09:00-17:00; Fr 09:00-18:00,Fifth Third Bank,Q1411810
bbd7a9c5-fd24-e711-923d-005056890337,goodwill,Retail Store - Black Mountain,,Black Mountain,NC,,US,+1 828-669-4813,https://www.goodwill.org/locator/location/?store=YmJkN2E5YzUtZmQyNC1lNzExLTkyM2QtMDA1MDU2ODkwMzM3&lat=MzUuNjA3MjM=&lng=LTgyLjM1MzA2,,Goodwill,Q5583655
3993,gulf_pr_us,HILLBILLY'S,,Black Mountain,NC,,US,+1 828-669-6466,https://www.gulfoil.com/hillbillys,,Gulf Oil,Q5617505
avlmohx-hampton-black-mountain,hilton,Hampton Inn Black Mountain,,,NC,,US,+1 828-669-1000,https://www.hilton.com/ar/hotels/avlmohx-hampton-black-mountain/,,Hampton by Hilton,Q5646230
32588,h_r_block,H&R Block,,Black Mountain,NC,,US,+1 828-669-7596,https://www.hrblock.com/local-tax-offices/north-carolina/black-mountain/601-w-state-st-ste-8/32588/,,H&R Block,Q5627799
8,ingles,Black Mountain,,Black Mountain,NC,,US,+1 828-669-6700,https://www.ingles-markets.com/storelocate/storeinfo.php?storenum=8,Mo-Su 07:00-23:00,Ingles,Q6032595
https://locations.oreillyauto.com/nc/blackmountain/check-engine-light-testing-2244.html,oreilly,Your Black Mountain O'Reilly Auto Parts Store,,Black Mountain,NC,,US,+1 828-669-2244,https://locations.oreillyauto.com/nc/blackmountain/check-engine-light-testing-2244.html,Mo-Sa 07:30-21:00; Su 09:00-20:00,O'Reilly Auto Parts,Q7071951
https://locations.oreillyauto.com/nc/blackmountain/wiper-installation-2244.html,oreilly,Your Black Mountain O'Reilly Auto Parts Store,,Black Mountain,NC,,US,+1 828-669-2244,https://locations.oreillyauto.com/nc/blackmountain/wiper-installation-2244.html,Mo-Sa 07:30-21:00; Su 09:00-20:00,O'Reilly Auto Parts,Q7071951
https://locations.oreillyauto.com/nc/blackmountain/battery-testing-2244.html,oreilly,Your Black Mountain O'Reilly Auto Parts Store,,Black Mountain,NC,,US,+1 828-669-2244,https://locations.oreillyauto.com/nc/blackmountain/battery-testing-2244.html,Mo-Sa 07:30-21:00; Su 09:00-20:00,O'Reilly Auto Parts,Q7071951
https://locations.oreillyauto.com/nc/blackmountain/autopartes-2244.html,oreilly,Tu tienda O'Reilly Auto Parts en Black Mountain,,Black Mountain,NC,,US,+1 828-669-2244,https://locations.oreillyauto.com/nc/blackmountain/autopartes-2244.html,Mo-Sa 07:30-21:00; Su 09:00-20:00,O'Reilly Auto Parts,Q7071951
nc_black-mountain_250-us-highway-9,pizza_hut_us,250 US Highway 9,,Black Mountain,NC,,US,+1 828-669-9455,https://locations.pizzahut.com/nc/black-mountain/250-us-highway-9,,Pizza Hut,Q191615
https://restaurants.subway.com/#20711947,subway,Subway Mountain Empire Market,,Black Mountain,NC,,US,+1 828-669-8009,https://restaurants.subway.com/united-states/nc/black-mountain/202-nc-hwy-9,Mo-Su 10:00-21:00,Subway,Q244457
https://locations.tacobell.com/#6143115,taco_bell,Taco Bell,,Black Mountain,NC,,US,+1 828-669-0087,https://locations.tacobell.com/nc/black-mountain/530-nc-highway-9.html,Mo-Su 09:00-24:00,Taco Bell,Q752941
4824,upsstore,Black Mountain,151 NC Hwy 9 Ste B,Black Mountain,NC,,US,+1 828-664-9333,https://locations.theupsstore.com/nc/black-mountain/151-nc-hwy-9,,UPS Store,Q7771029
1355061,usps,BLACK MOUNTAIN,,BLACK MOUNTAIN,NC,,US,+1 828-669-8381,,Mo-Fr 08:30-17:00; Sa 09:00-12:00,United States Postal Service,Q668687
2871100013,usps_collection_boxes,USPS COLLECTION BOX - PO LOBBY,106 RICHARDSON BLVD,BLACK MOUNTAIN,NC,,US,,,,United States Postal Service,Q668687
2871100014,usps_collection_boxes,USPS COLLECTION BOX - PO LOBBY,106 RICHARDSON BLVD,BLACK MOUNTAIN,NC,,US,,,,United States Postal Service,Q668687
2871100002,usps_collection_boxes,USPS COLLECTION BOX - BLUE BOX,106 RICHARDSON BLVD,BLACK MOUNTAIN,NC,,US,,,,United States Postal Service,Q668687
2871100018,usps_collection_boxes,USPS COLLECTION BOX - PO LOBBY,106 RICHARDSON BLVD,BLACK MOUNTAIN,NC,,US,,,,United States Postal Service,Q668687
2871100007,usps_collection_boxes,USPS COLLECTION BOX - BLUE BOX,200 TABERNACLE RD UNIT L100,BLACK MOUNTAIN,NC,,US,,,,United States Postal Service,Q668687
A00000251806,verizon_us,Russell Cellular Black Mountain,,BLACK MOUNTAIN,NC,,US,+1 828-664-9004,https://www.verizon.com/stores/details/north-carolina/black-mountain/russell-cellular-black-mountain-1527822/,Mo-Sa 10:00-18:00; Su 11:00-17:00,Verizon,Q919641
,visa,,,ASHEVILLE,NC,,US,,,,,
,visa,,,BLACK MOUNTAIN,NC,,US,,,,,
,visa,,,BLACK MOUNTAIN,NC,,US,,,,,
,visa,,,BLACK MOUNTAIN,NC,,US,,,,,
,visa,,,BLACK MOUNTAIN,NC,,US,,,,,
,visa,,,BLACK MOUNTAIN,NC,,US,,,,,
,visa,,,BLACK MOUNTAIN,NC,,US,,,,,
,visa,,,BLACK MOUNTAIN,NC,,US,,,,,
,visa,,,BLACK MOUNTAIN,NC,,US,,,,,
,visa,,,BLACK MOUNTAIN,NC,,US,,,,,
,visa,,,BLACK MOUNTAIN,NC,,US,,,,,
,visa,,,BLACK MOUNTAIN,NC,,US,,,,,
,visa,,,BLACK MOUNTAIN,NC,,US,,,,,
,visa,,,BLACK MOUNTAIN,NC,,US,,,,,
,visa,,,BLACK MOUNTAIN,NC,,US,,,,,
,visa,,,BLACK MOUNTAIN,NC,,US,,,,,
,visa,,,BLACK MTN,NC,,US,,,,,
,visa,,,BLACK MOUNTAIN,NC,,US,,,,,
,visa,,,BLACK MOUNTAIN,NC,,US,,,,,
,visa,,,BLACK MOUNTAIN,NC,,US,,,,,
,visa,,,BLACK MOUNTAIN,NC,,US,,,,,
,visa,,,BLACK MOUNTAIN,NC,,US,,,,,
,visa,,,BLACK MOUNTAIN,NC,,US,,,,,
,visa,,,BLACK MOUNTAIN,NC,,US,,,,,
,visa,,,BLACK MOUNTAIN,NC,,US,,,,,
,visa,,,BLACK MOUNTAIN,NC,,US,,,,,
,visa,,,BLACK MOUNTAIN,NC,,US,,,,,
,visa,,,BLACK MOUNTAIN,NC,,US,,,,,
,visa,,,BLACK MOUNTAIN,NC,,US,,,,,
https://www.walgreens.com/locator/walgreens-510+nc+highway+9-black+mountain-nc-28711/id=17288,walgreens,Walgreens,,Black Mountain,NC,,US,+1 828-419-3280,https://www.walgreens.com/locator/walgreens-510+nc+highway+9-black+mountain-nc-28711/id=17288,Mo-Fr 09:00-19:00; Sa 09:00-18:00; Su 00:00-24:00,Walgreens,Q1591889
https://locations.wendys.com/#9250936,wendys,"Wendy's 08 Black Mountain in Black Mountain, NC",,Black Mountain,NC,,US,+1 828-669-9451,https://locations.wendys.com/united-states/nc/black-mountain/591-nc-highway-9,"Mo-Th 06:30-10:30,09:00-22:00; Fr-Sa 06:30-10:30,09:00-23:00; Su 06:30-10:30,09:00-22:00",Wendy's,Q550258
dc898ee18b27baf19a41af627a4dc30d,western_union,ROADRUNNER #6035,,Black Mountain,NC,,US,+1 828-669-5086,https://location.westernunion.com/us/nc/black-mountain/dc898ee18b27baf19a41af627a4dc30d,Mo-Su 06:00-22:00,Western Union,Q861042
black-mountain-ymca,ymca,Black Mountain YMCA,25 Jane Jacobs Rd,Black Mountain,NC,,US,+1 828-552-3620,https://www.ymca.org/locations/black-mountain-ymca,Mo-Th 05:30-21:00; Fr 05:30-19:00; Sa 08:00-14:00; Su 13:00-17:00,YMCA,Q157169
