Ref,Spider,Name,Address,City,State,Zipcode,Country,Phone,Website,Hours,Brand,WikiData
216891,bluerhino,Family Dollar #13320 - Combo,,Delphi,IN,,US,+1 765-822-5061,,,Blue Rhino,Q65681213
149736,bluerhino,True Value - D #19782-4,,Delphi,IN,,US,+1 765-564-1000,,,Blue Rhino,Q65681213
75765448955024692300100000000000,bp,BP,,Delphi,IN,,US,+1 765-564-1111,,24/7,BP,Q152057
25327,chevrolet,MANN CHEVROLET-GMC,,DELPHI,IN,,US,+1 765-564-2113,https://www.mannchevy.com,Mo-Th 08:00-18:00; Fr 08:00-17:00; Sa 08:00-13:00,Chevrolet,Q29570
51525,citi,ATM CVS,,Delphi,IN,,US,,,,Citibank,Q857063
6674,cvs_us,CVS Pharmacy,,Delphi,IN,,US,+1 765-564-4117,https://www.cvs.com/store-locator/delphi-in-pharmacies/505-west-main-street-delphi-in-46923/storeid=6674,Mo-Su 08:00-22:00,CVS Pharmacy,Q2078880
https://www.edwardjones.com/us-en/financial-advisor/adam-blankenberger,edwardjones,Adam Blankenberger,,Delphi,IN,,US,+1 765-564-1089,https://www.edwardjones.com/us-en/financial-advisor/adam-blankenberger,Mo-Fr 08:30-16:30,Edward Jones,Q5343830
33320,family_dollar_us,FAMILY DOLLAR #13320,,Delphi,IN,,US,+1 765-822-5061,https://www.familydollar.com/locations/in/delphi/33320/,Mo-Su 09:00-21:00,Family Dollar,Q5433101
https://local.fedex.com/#25228800,fedex,,,Delphi,IN,,US,+1 800-463-3339,https://local.fedex.com/en-us/in/delphi/lafaf,,FedEx,Q459477
14885,h_r_block,H&R Block,,Delphi,IN,,US,+1 765-564-3783,https://www.hrblock.com/local-tax-offices/indiana/delphi/1173-commercial-dr/14885/,,H&R Block,Q5627799
160912,marathon_petroleum_us,DELPHI MARAMART,,DELPHI,IN,,US,+1 765-564-4238,,,Marathon,Q458363
0000894998,phillips_66_conoco_76,DELPHI FOOD MART,,DELPHI,IN,,US,+1 765-564-2121,,,Phillips 66,Q1656230
in_delphi_806-bicycle-bridge-rd,pizza_hut_us,806 Bicycle Bridge Rd,,Delphi,IN,,US,+1 765-564-4545,https://locations.pizzahut.com/in/delphi/806-bicycle-bridge-rd,,Pizza Hut,Q191615
https://restaurants.subway.com/#14911456,subway,Subway Save A Lot Shopping Center,,Delphi Carroll,IN,,US,+1 765-564-2444,https://restaurants.subway.com/united-states/in/delphi/517-west-monroe-street,Mo-Su 09:00-22:00,Subway,Q244457
0738369800,sunoco_us,Sunoco,,DELPHI,IN,,US,+1 765-564-4015,,Mo-Su 05:00-22:00,Sunoco,Q1423218
1360626,usps,DELPHI,,DELPHI,IN,,US,+1 765-564-2315,,Mo-Tu 08:45-16:30; We 08:45-15:00; Th-Fr 08:45-16:30; Sa 10:00-12:00,United States Postal Service,Q668687
4692300010,usps_collection_boxes,USPS COLLECTION BOX - BLUE BOX,505 W MAIN ST,DELPHI,IN,,US,,,,United States Postal Service,Q668687
4692300006,usps_collection_boxes,USPS COLLECTION BOX - BLUE BOX,122 W FRONT ST,DELPHI,IN,,US,,,,United States Postal Service,Q668687
4692300002,usps_collection_boxes,USPS COLLECTION BOX - BLUE BOX,201 W FRANKLIN ST,DELPHI,IN,,US,,,,United States Postal Service,Q668687
4692300008,usps_collection_boxes,USPS COLLECTION BOX - PO LOBBY,201 W FRANKLIN ST,DELPHI,IN,,US,,,,United States Postal Service,Q668687
4692300012,usps_collection_boxes,USPS COLLECTION BOX - PO LOBBY,201 W FRANKLIN ST,DELPHI,IN,,US,,,,United States Postal Service,Q668687
4692300009,usps_collection_boxes,USPS COLLECTION BOX - BLUE BOX,921 S WASHINGTON ST,DELPHI,IN,,US,,,,United States Postal Service,Q668687
4692300007,usps_collection_boxes,USPS COLLECTION BOX - BLUE BOX,125 S WASHINGTON ST,DELPHI,IN,,US,,,,United States Postal Service,Q668687
4692300001,usps_collection_boxes,USPS COLLECTION BOX - BLUE BOX,121 N WASHINGTON ST,DELPHI,IN,,US,,,,United States Postal Service,Q668687
4692300004,usps_collection_boxes,USPS COLLECTION BOX - BLUE BOX,100 S UNION ST,DELPHI,IN,,US,,,,United States Postal Service,Q668687
4692300005,usps_collection_boxes,USPS COLLECTION BOX - BLUE BOX,203 E MAIN ST,DELPHI,IN,,US,,,,United States Postal Service,Q668687
,visa,,,DELPHI,IN,,US,,,,,
,visa,,,DELPHI,IN,,US,,,,,
,visa,,,DELPHI,IN,,US,,,,,
,visa,,,DELPHI,IN,,US,,,,,
,visa,,,DELPHI,IN,,US,,,,,
,visa,,,DELPHI,IN,,US,,,,,
,visa,,,DELPHI,IN,,US,,,,,
,visa,,,DELPHI,IN,,US,,,,,
,visa,,,DELPHI,IN,,US,,,,,
,visa,,,DELPHI,IN,,US,,,,,
,visa,,,DELPHI,IN,,US,,,,,
2303b0f6ee43cd9edb7f6cbdfc8cdb7f,western_union,MASSINGILL'S MARKET,,Delphi,IN,,US,+1 765-564-3795,https://location.westernunion.com/us/in/delphi/2303b0f6ee43cd9edb7f6cbdfc8cdb7f,Mo-Su 07:00-21:00,Western Union,Q861042
