Ref,Spider,Name,Address,City,State,Zipcode,Country,Phone,Website,Hours,Brand,WikiData
1372354,usps,MCKEESPORT,,MCKEESPORT,PA,,US,+1 412-672-9722,,Mo-Fr 08:00-17:00; Sa 09:00-13:00,United States Postal Service,Q668687
1513400108,usps_collection_boxes,USPS COLLECTION BOX - BLUE BOX,2280 LINCOLN WAY,MCKEESPORT,PA,,US,,,,United States Postal Service,Q668687
1513400157,usps_collection_boxes,USPS COLLECTION BOX - BLUE BOX,2001 LINCOLN WAY,MCKEESPORT,PA,,US,,,,United States Postal Service,Q668687
1513400099,usps_collection_boxes,USPS COLLECTION BOX - BLUE BOX,1129 GREENOCK BUENA VISTA RD,MCKEESPORT,PA,,US,,,,United States Postal Service,Q668687
1513400031,usps_collection_boxes,USPS COLLECTION BOX - BLUE BOX,1985 LINCOLN WAY,MCKEESPORT,PA,,US,,,,United States Postal Service,Q668687
1513400033,usps_collection_boxes,USPS COLLECTION BOX - BLUE BOX,1180 LONG RUN RD,MCKEESPORT,PA,,US,,,,United States Postal Service,Q668687
1513400018,usps_collection_boxes,USPS COLLECTION BOX - BLUE BOX,2200 FAWCETT AVE,MCKEESPORT,PA,,US,,,,United States Postal Service,Q668687
1513400121,usps_collection_boxes,USPS COLLECTION BOX - BLUE BOX,1735 LINCOLN WAY,MCKEESPORT,PA,,US,,,,United States Postal Service,Q668687
1513400048,usps_collection_boxes,USPS COLLECTION BOX - BLUE BOX,152 ROYAL OAK DR,MCKEESPORT,PA,,US,,,,United States Postal Service,Q668687
1513400088,usps_collection_boxes,USPS COLLECTION BOX - BLUE BOX,1612 LINCOLN WAY,MCKEESPORT,PA,,US,,,,United States Postal Service,Q668687
1513400087,usps_collection_boxes,USPS COLLECTION BOX - BLUE BOX,1514 LINCOLN WAY,MCKEESPORT,PA,,US,,,,United States Postal Service,Q668687
1513400086,usps_collection_boxes,USPS COLLECTION BOX - BLUE BOX,1507 LINCOLN WAY,MCKEESPORT,PA,,US,,,,United States Postal Service,Q668687
1513400162,usps_collection_boxes,USPS COLLECTION BOX - BLUE BOX,1133 LINCOLN WAY,MCKEESPORT,PA,,US,,,,United States Postal Service,Q668687
1513400135,usps_collection_boxes,USPS COLLECTION BOX - BLUE BOX,1133 LINCOLN WAY,MCKEESPORT,PA,,US,,,,United States Postal Service,Q668687
1513400046,usps_collection_boxes,USPS COLLECTION BOX - BLUE BOX,4000 UNIVERSITY DR,MCKEESPORT,PA,,US,,,,United States Postal Service,Q668687
1513400172,usps_collection_boxes,USPS COLLECTION BOX - PO LOBBY,5727 SMITHFIELD ST,MCKEESPORT,PA,,US,,,,United States Postal Service,Q668687
1513400134,usps_collection_boxes,USPS COLLECTION BOX - BLUE BOX,5727 SMITHFIELD ST,MCKEESPORT,PA,,US,,,,United States Postal Service,Q668687
1513400149,usps_collection_boxes,USPS COLLECTION BOX - PO LOBBY,5727 SMITHFIELD ST LBBY,MCKEESPORT,PA,,US,,,,United States Postal Service,Q668687
1513400011,usps_collection_boxes,USPS COLLECTION BOX - BLUE BOX,2016 EDEN PARK BLVD,MCKEESPORT,PA,,US,,,,United States Postal Service,Q668687
1513400098,usps_collection_boxes,USPS COLLECTION BOX - BLUE BOX,1 DUNCAN STATION RD,MCKEESPORT,PA,,US,,,,United States Postal Service,Q668687
1513400045,usps_collection_boxes,USPS COLLECTION BOX - BLUE BOX,2501 ONEIL BLVD,MCKEESPORT,PA,,US,,,,United States Postal Service,Q668687
1513400012,usps_collection_boxes,USPS COLLECTION BOX - BLUE BOX,3812 ONEIL BLVD,MCKEESPORT,PA,,US,,,,United States Postal Service,Q668687
1513400163,usps_collection_boxes,USPS COLLECTION BOX - BLUE BOX,687 ONEIL BLVD,MCKEESPORT,PA,,US,,,,United States Postal Service,Q668687
1513400095,usps_collection_boxes,USPS COLLECTION BOX - BLUE BOX,4313 WALNUT ST STE 12,MCKEESPORT,PA,,US,,,,United States Postal Service,Q668687
1513400024,usps_collection_boxes,USPS COLLECTION BOX - BLUE BOX,1902 GRANDVIEW AVE,MCKEESPORT,PA,,US,,,,United States Postal Service,Q668687
1513400122,usps_collection_boxes,USPS COLLECTION BOX - BLUE BOX,4304 WALNUT ST,MCKEESPORT,PA,,US,,,,United States Postal Service,Q668687
1513400112,usps_collection_boxes,USPS COLLECTION BOX - BLUE BOX,318 LONG RUN RD,MCKEESPORT,PA,,US,,,,United States Postal Service,Q668687
1513400102,usps_collection_boxes,USPS COLLECTION BOX - BLUE BOX,2015 DEVONWOOD DR,MCKEESPORT,PA,,US,,,,United States Postal Service,Q668687
1513400147,usps_collection_boxes,USPS COLLECTION BOX - BLUE BOX,600 SCENE RIDGE RD,MCKEESPORT,PA,,US,,,,United States Postal Service,Q668687
1513400034,usps_collection_boxes,USPS COLLECTION BOX - BLUE BOX,3107 LIBERTY WAY,MCKEESPORT,PA,,US,,,,United States Postal Service,Q668687
1513400070,usps_collection_boxes,USPS COLLECTION BOX - BLUE BOX,2801 WALNUT ST,MCKEESPORT,PA,,US,,,,United States Postal Service,Q668687
1513400004,usps_collection_boxes,USPS COLLECTION BOX - BLUE BOX,2301 VERSAILLES AVE,MCKEESPORT,PA,,US,,,,United States Postal Service,Q668687
1513400049,usps_collection_boxes,USPS COLLECTION BOX - BLUE BOX,1191 ROMINE AVE,MCKEESPORT,PA,,US,,,,United States Postal Service,Q668687
1513400022,usps_collection_boxes,USPS COLLECTION BOX - BLUE BOX,1400 WASHINGTON BLVD,MCKEESPORT,PA,,US,,,,United States Postal Service,Q668687
1513400082,usps_collection_boxes,USPS COLLECTION BOX - BLUE BOX,1500 5TH AVE,MCKEESPORT,PA,,US,,,,United States Postal Service,Q668687
1513400028,usps_collection_boxes,USPS COLLECTION BOX - BLUE BOX,100 9TH ST,MCKEESPORT,PA,,US,,,,United States Postal Service,Q668687
1513400158,usps_collection_boxes,USPS COLLECTION BOX - BLUE BOX,206 9TH ST REAR,MCKEESPORT,PA,,US,,,,United States Postal Service,Q668687
1513400132,usps_collection_boxes,USPS COLLECTION BOX - BLUE BOX,850 WALNUT ST,MCKEESPORT,PA,,US,,,,United States Postal Service,Q668687
1513400150,usps_collection_boxes,USPS COLLECTION BOX - PO LOBBY,850 WALNUT ST LBBY,MCKEESPORT,PA,,US,,,,United States Postal Service,Q668687
1513400155,usps_collection_boxes,USPS COLLECTION BOX - PO LOBBY,850 WALNUT ST LBBY,MCKEESPORT,PA,,US,,,,United States Postal Service,Q668687
1513400002,usps_collection_boxes,USPS COLLECTION BOX - BLUE BOX,850 WALNUT ST,MCKEESPORT,PA,,US,,,,United States Postal Service,Q668687
1513400171,usps_collection_boxes,USPS COLLECTION BOX - PO LOBBY,850 WALNUT ST,MCKEESPORT,PA,,US,,,,United States Postal Service,Q668687
1513400072,usps_collection_boxes,USPS COLLECTION BOX - BLUE BOX,815 5TH AVE,MCKEESPORT,PA,,US,,,,United States Postal Service,Q668687
1513400067,usps_collection_boxes,USPS COLLECTION BOX - BLUE BOX,625 WALNUT ST,MCKEESPORT,PA,,US,,,,United States Postal Service,Q668687
1513400076,usps_collection_boxes,USPS COLLECTION BOX - BLUE BOX,601 LOCUST ST,MCKEESPORT,PA,,US,,,,United States Postal Service,Q668687
1513400078,usps_collection_boxes,USPS COLLECTION BOX - BLUE BOX,500 5TH AVE,MCKEESPORT,PA,,US,,,,United States Postal Service,Q668687
1513400116,usps_collection_boxes,USPS COLLECTION BOX - BLUE BOX,332 5TH AVE,MCKEESPORT,PA,,US,,,,United States Postal Service,Q668687
1513400075,usps_collection_boxes,USPS COLLECTION BOX - BLUE BOX,224 5TH AVE,MCKEESPORT,PA,,US,,,,United States Postal Service,Q668687
1513400003,usps_collection_boxes,USPS COLLECTION BOX - BLUE BOX,319 ANN ST,MCKEESPORT,PA,,US,,,,United States Postal Service,Q668687
