Ref,Spider,Name,Address,City,State,Zipcode,Country,Phone,Website,Hours,Brand,WikiData
MX-1064,anytime_fitness,Anytime Fitness,,Guadalajara,Jalisco,,MX,+52 33 1602 6109,https://anytimefitness.com.mx/club/mx-1064/guadalajara-jalisco-44950/,,Anytime Fitness,Q4778364
,visa,,,GUADALAJARA,JALISCO,,MX,,,,,
8b6af6f6cb978ac022142be3209d0c82,western_union,FARM GUAD 8 DE JULIO GUADALAJARA II,,Guadalajara,JALISCO,,MX,+52 800 833 4700,https://location.westernunion.com/mx/jalisco/guadalajara/8b6af6f6cb978ac022142be3209d0c82,Mo-Su 08:00-20:00,Western Union,Q861042
ce3cf6c8ba7611798d613dacbc175663,western_union,FARM GUAD 8 DE JULIO GUADALAJARA II,,Guadalajara,JALISCO,,MX,+52 800 833 4700,https://location.westernunion.com/mx/jalisco/guadalajara/ce3cf6c8ba7611798d613dacbc175663,Mo-Su 08:00-20:00,Western Union,Q861042
967b7921aef1b9b7c08d739f0efe1291,western_union,FARM GUAD 8 DE JULIO GUADALAJARA II,,Guadalajara,JALISCO,,MX,+52 800 833 4700,https://location.westernunion.com/mx/jalisco/guadalajara/967b7921aef1b9b7c08d739f0efe1291,Mo-Su 08:00-20:00,Western Union,Q861042
692c6c106fe32285979971ec4597ad8c,western_union,OXXO COLON GDL,,Guadalajara,JALISCO,,MX,+52 81 8389 2121,https://location.westernunion.com/mx/jalisco/guadalajara/692c6c106fe32285979971ec4597ad8c,Mo-Su 08:00-22:00,Western Union,Q861042
c2c14b399b315a9537faf7ce8416c32b,western_union,OXXO COLON GDL,,Guadalajara,JALISCO,,MX,+52 81 8389 2121,https://location.westernunion.com/mx/jalisco/guadalajara/c2c14b399b315a9537faf7ce8416c32b,Mo-Su 08:00-22:00,Western Union,Q861042
5ab86144f3ba3ff12885cb89f5ff39b9,western_union,OXXO COLON GDL,,Guadalajara,JALISCO,,MX,+52 81 8389 2121,https://location.westernunion.com/mx/jalisco/guadalajara/5ab86144f3ba3ff12885cb89f5ff39b9,Mo-Su 08:00-22:00,Western Union,Q861042
c2669f9da1f861772c0fca772ff9ddc6,western_union,OXXO VAZQUEZ CORONADO GDL,,Guadalajara,JALISCO,,MX,+52 81 8389 2121,https://location.westernunion.com/mx/jalisco/guadalajara/c2669f9da1f861772c0fca772ff9ddc6,Mo-Su 08:00-22:00,Western Union,Q861042
2df0666c06f0953c589ccc1961289270,western_union,OXXO VAZQUEZ CORONADO GDL,,Guadalajara,JALISCO,,MX,+52 81 8389 2121,https://location.westernunion.com/mx/jalisco/guadalajara/2df0666c06f0953c589ccc1961289270,Mo-Su 08:00-22:00,Western Union,Q861042
bb6350c4eceae08327bb709547f4461e,western_union,OXXO VAZQUEZ CORONADO GDL,,Guadalajara,JALISCO,,MX,+52 81 8389 2121,https://location.westernunion.com/mx/jalisco/guadalajara/bb6350c4eceae08327bb709547f4461e,Mo-Su 08:00-22:00,Western Union,Q861042
bffae4457e35abad46819da0ae279f40,western_union,AURRERA JARDINES COLON 2868,,Guadalajara,JALISCO,,MX,+52 800 833 4700,https://location.westernunion.com/mx/jalisco/guadalajara/bffae4457e35abad46819da0ae279f40,Mo-Su 07:00-22:00,Western Union,Q861042
259b95df09bd3a0477410702abbf3ef6,western_union,AURRERA JARDINES COLON 2868,,Guadalajara,JALISCO,,MX,+52 800 833 4700,https://location.westernunion.com/mx/jalisco/guadalajara/259b95df09bd3a0477410702abbf3ef6,Mo-Su 07:00-22:00,Western Union,Q861042
fb3d90aa337163a23c55cbd2b098d14d,western_union,AURRERA JARDINES COLON 2868,,Guadalajara,JALISCO,,MX,+52 800 833 4700,https://location.westernunion.com/mx/jalisco/guadalajara/fb3d90aa337163a23c55cbd2b098d14d,Mo-Su 07:00-22:00,Western Union,Q861042
0495a6a77f39c9a49f860b2d4a4f5acf,western_union,OXXO GUAYANA GDL,,Guadalajara,JALISCO,,MX,+52 81 8389 2121,https://location.westernunion.com/mx/jalisco/guadalajara/0495a6a77f39c9a49f860b2d4a4f5acf,Mo-Su 08:00-22:00,Western Union,Q861042
f2a414f401608af47722332e36dc9b70,western_union,OXXO GUAYANA GDL,,Guadalajara,JALISCO,,MX,+52 81 8389 2121,https://location.westernunion.com/mx/jalisco/guadalajara/f2a414f401608af47722332e36dc9b70,Mo-Su 08:00-22:00,Western Union,Q861042
9dedd7ba9ea12f299eaa8d3c20b313d6,western_union,OXXO GUAYANA GDL,,Guadalajara,JALISCO,,MX,+52 81 8389 2121,https://location.westernunion.com/mx/jalisco/guadalajara/9dedd7ba9ea12f299eaa8d3c20b313d6,Mo-Su 08:00-22:00,Western Union,Q861042
a7cc7e15876e3335fe23db3ed574c14b,western_union,OXXO CRUZ DEL SUR GDL,,Guadalajara,JALISCO,,MX,+52 81 8389 2121,https://location.westernunion.com/mx/jalisco/guadalajara/a7cc7e15876e3335fe23db3ed574c14b,Mo-Su 08:00-22:00,Western Union,Q861042
b98c92f48ada4eccd7d61ac98c3c3c9a,western_union,OXXO CRUZ DEL SUR GDL,,Guadalajara,JALISCO,,MX,+52 81 8389 2121,https://location.westernunion.com/mx/jalisco/guadalajara/b98c92f48ada4eccd7d61ac98c3c3c9a,Mo-Su 08:00-22:00,Western Union,Q861042
39ad78682a78c77466e841b028195fe5,western_union,OXXO CRUZ DEL SUR GDL,,Guadalajara,JALISCO,,MX,+52 81 8389 2121,https://location.westernunion.com/mx/jalisco/guadalajara/39ad78682a78c77466e841b028195fe5,Mo-Su 08:00-22:00,Western Union,Q861042
754ed70d3c6b85569f3bd2177268f319,western_union,OXXO ISLA BARU GDL,,Guadalajara,JALISCO,,MX,+52 81 8389 2121,https://location.westernunion.com/mx/jalisco/guadalajara/754ed70d3c6b85569f3bd2177268f319,Mo-Su 08:00-22:00,Western Union,Q861042
8e668c6d7a3f86ed1fc90ebc8b5389d5,western_union,OXXO ISLA BARU GDL,,Guadalajara,JALISCO,,MX,+52 81 8389 2121,https://location.westernunion.com/mx/jalisco/guadalajara/8e668c6d7a3f86ed1fc90ebc8b5389d5,Mo-Su 08:00-22:00,Western Union,Q861042
48b10d7c736dad544110af06d530ad6e,western_union,OXXO ISLA BARU GDL,,Guadalajara,JALISCO,,MX,+52 81 8389 2121,https://location.westernunion.com/mx/jalisco/guadalajara/48b10d7c736dad544110af06d530ad6e,Mo-Su 08:00-22:00,Western Union,Q861042
91bd504044c7f3d54fcd50aed7f7d74b,western_union,OXXO PANTENARIA GDL,,Guadalajara,JALISCO,,MX,+52 81 8389 2121,https://location.westernunion.com/mx/jalisco/guadalajara/91bd504044c7f3d54fcd50aed7f7d74b,Mo-Su 08:00-22:00,Western Union,Q861042
691b36e34c5d39cae81dc32ce71f846a,western_union,OXXO PANTENARIA GDL,,Guadalajara,JALISCO,,MX,+52 81 8389 2121,https://location.westernunion.com/mx/jalisco/guadalajara/691b36e34c5d39cae81dc32ce71f846a,Mo-Su 08:00-22:00,Western Union,Q861042
c5e351d08a28dd6aa18b86bf2314d65e,western_union,OXXO PANTENARIA GDL,,Guadalajara,JALISCO,,MX,+52 81 8389 2121,https://location.westernunion.com/mx/jalisco/guadalajara/c5e351d08a28dd6aa18b86bf2314d65e,Mo-Su 08:00-22:00,Western Union,Q861042
0ab970b66bf666d79a9119150b64b5be,western_union,OXXO ROSARIOCASTELLANOGDL,,Guadalajara,JALISCO,,MX,+52 81 8389 2121,https://location.westernunion.com/mx/jalisco/guadalajara/0ab970b66bf666d79a9119150b64b5be,Mo-Su 08:00-22:00,Western Union,Q861042
dcdaa9348bd6a8bfcf3fee0ef61b1c09,western_union,OXXO ROSARIOCASTELLANOGDL,,Guadalajara,JALISCO,,MX,+52 81 8389 2121,https://location.westernunion.com/mx/jalisco/guadalajara/dcdaa9348bd6a8bfcf3fee0ef61b1c09,Mo-Su 08:00-22:00,Western Union,Q861042
209e040a68ba2ea72e7b007d3b1e9d2d,western_union,OXXO MALTA GDL,,Guadalajara,JALISCO,,MX,+52 81 8389 2121,https://location.westernunion.com/mx/jalisco/guadalajara/209e040a68ba2ea72e7b007d3b1e9d2d,Mo-Su 08:00-22:00,Western Union,Q861042
cf54b85419e226f0f1808404b111bfd1,western_union,OXXO MALTA GDL,,Guadalajara,JALISCO,,MX,+52 81 8389 2121,https://location.westernunion.com/mx/jalisco/guadalajara/cf54b85419e226f0f1808404b111bfd1,Mo-Su 08:00-22:00,Western Union,Q861042
b82bcb43a304cbb0ae3a0b1dcd536093,western_union,OXXO MALTA GDL,,Guadalajara,JALISCO,,MX,+52 81 8389 2121,https://location.westernunion.com/mx/jalisco/guadalajara/b82bcb43a304cbb0ae3a0b1dcd536093,Mo-Su 08:00-22:00,Western Union,Q861042
