Ref,Spider,Name,Address,City,State,Zipcode,Country,Phone,Website,Hours,Brand,WikiData
25756_1,bmw_group,AUTO CENTAR TOMIC DOO MOSTAR,,Mostar,,,BA,+387 36 351-341,https://www.bmw.ba,,BMW,Q26678
55187379,deichmann,DEICHMANN filijalu Mostar Put M-17 Broj 5,,Mostar,,,BA,+387 36 571-473,https://stores.deichmann.com/ba-hr/ba/federacija-bosne-i-hercegovine/mostar/put-m-17-broj-5,Mo-Sa 09:00-21:00,Deichmann,Q664543
55186408,deichmann,DEICHMANN filijalu Mostar Kardinala Stepinca Bb,,Mostar,,,BA,+387 36 316-472,https://stores.deichmann.com/ba-hr/ba/federacija-bosne-i-hercegovine/mostar/kardinala-stepinca-bb,Mo-Sa 09:00-21:00,Deichmann,Q664543
ba:3,dm,dm drogerie markt,,Mostar,,,BA,+387 36 334-339,https://www.dm-drogeriemarkt.ba/store/h003/mostar/kneza-branimira-2,Mo-Sa 08:00-21:00,dm,Q266572
ba:9,dm,dm drogerie markt,,Mostar,,,BA,+387 36 555-225,https://www.dm-drogeriemarkt.ba/store/h009/mostar/brace-fejica-bb,Mo-Sa 08:00-21:00,dm,Q266572
ba:39,dm,dm drogerie markt,,Mostar,,,BA,+387 36 333-710,https://www.dm-drogeriemarkt.ba/store/h01f/mostar/hrvatske-mladezi-4,Mo-Sa 09:00-21:00,dm,Q266572
ba:45,dm,dm-drogerie markt,,Mostar,,,BA,+387 36 333-382,https://www.dm-drogeriemarkt.ba/store/h01l/mostar/kneza-viseslava-i-kardinal-stepinca-bb,Mo-Sa 09:00-21:00,dm,Q266572
ba:75,dm,dm-drogerie markt,,Mostar,,,BA,+387 36 555-800,https://www.dm-drogeriemarkt.ba/store/h033/mostar/magistralni-put-m-17-5,Mo-Sa 09:00-21:00,dm,Q266572
ba:86,dm,dm-drogerie markt,,Mostar,,,BA,+387 36 281-519,https://www.dm-drogeriemarkt.ba/store/h03e/mostar/mostar-bisce-bb,Tu-Su 09:00-21:00,dm,Q266572
OMOC61,enterprise,Mostar,,Mostar,,,BA,+387 61 901 901,,,Enterprise Rent-A-Car,Q17085454
OMOT61,enterprise,Mostar International Airport,,Mostar,,,BA,+387 61 901 901,,,Enterprise Rent-A-Car,Q17085454
OMOMC,marriott,Mostar Marriott Hotel,,Mostar,,,BA,+387 36 551-999,https://www.marriott.com/OMOMC,,Marriott Hotels & Resorts,Q3918608
72815359,moneygram,YUTRANSFER - HRVATSKA POSTA MOSTAR - MOS,,MOSTAR,,,BA,+387 36 446-401,,Mo-Sa 09:00-20:00; Su 13:00-19:00,MoneyGram,Q1944412
73453202,moneygram,YUTRANSFER D.O.O. - RAIFFEISEN BANK DD B,,MOSTAR,,,BA,+387 33 755-025,,Mo-Fr 08:00-18:00; Sa-Su 00:00-24:00,MoneyGram,Q1944412
73453215,moneygram,YUTRANSFER D.O.O. - RAIFFEISEN BANK DD B,,MOSTAR,,,BA,+387 33 755-025,,Mo-Fr 08:00-16:30; Sa-Su 00:00-24:00,MoneyGram,Q1944412
69339628,moneygram,SPARKASSE BANK BIH DD - MOSTAR - POSLOVN,,MOSTAR,,,BA,+387 36 333-446,,Mo-Fr 08:30-16:30; Sa 09:00-13:00; Su 00:00-24:00,MoneyGram,Q1944412
69488854,moneygram,NOVA BANKA AD - MOSTAR,,MOSTAR,,,BA,+387 36 333-302,,Mo-Fr 08:00-16:00; Sa 08:00-13:00; Su 00:00-24:00,MoneyGram,Q1944412
70495030,moneygram,ASA BANKA BIH - MOSTAR - MOSTAR 1,,MOSTAR,,,BA,+387 36 334-007,,Mo-Fr 08:00-16:00; Sa 09:00-12:00; Su 00:00-24:00,MoneyGram,Q1944412
70495043,moneygram,ASA BANKA BIH - MOSTAR - MOSTAR 2,,MOSTAR,,,BA,+387 36 501-672,,Mo-Fr 08:00-16:00; Sa 09:00-12:00; Su 00:00-24:00,MoneyGram,Q1944412
70495056,moneygram,ASA BANKA BIH - MOSTAR - MOSTAR 3,,MOSTAR,,,BA,+387 36 333-227,,Mo-Fr 08:00-17:00; Sa 09:00-13:00; Su 00:00-24:00,MoneyGram,Q1944412
67481222,moneygram,NOVA BANKA AD - MOSTAR,,MOSTAR,,,BA,+387 36 320-386,,Mo-Fr 08:00-16:00; Sa 08:00-12:00; Su 00:00-24:00,MoneyGram,Q1944412
BAH88000,neuroth,Neuroth,"Kralja Petra Krešimira IV bb (Tržni centar Rondo), 88000 Mostar, BA",Mostar,,,BA,+387 36 397-218,https://ba.neuroth.com/lokacije/kralja-petra-kresimira-iv-bb-trzni-centar-rondo-mostar/,Mo-Fr 08:00-16:00,Neuroth,Q15836645
5b3cb3fac00458481b437948,newyorker,NEW YORKER | Mepas Mall,"Kneza Višeslava, 88000 Mostar",Mostar,,,BA,+387 6333655,,Mo-Sa 09:00-21:00,New Yorker,Q706421
5fbb7d3ccc2ee8da292763fc,newyorker,NEW YORKER | Mostar Plaza,"Bišce Polje BB, 88000 Mostar",Mostar,,,BA,+387 36 506-577,,Tu-Su 09:00-21:00,New Yorker,Q706421
77a27924-71f0-468e-933e-b7b41522fbf2,nike,Nike Store Mostar Mepas Mall (Partnered),,Mostar,,,BA,+387 51 263-070,https://www.nike.com/retail/s/nike-store-banja-luka,Mo-Su 10:00-22:00,Nike,Q483915
18dab4d3-64f7-48d9-94d0-bc4f325b1d64,petrol,"BS MOSTAR, RODOČ",,MOSTAR,,,BA,,,Mo-Su 06:00-22:00,Petrol,Q174824
bde7e609-11a4-4514-ab82-d5967d93592b,petrol,"BS MOSTAR, ŽOVNICA",,MOSTAR,,,BA,,,Mo-Su 06:00-18:00,Petrol,Q174824
07000017_001-renault,renault,GUMA M d.o.o.,,MOSTAR,,,BA,+387 36 352-900,,,Renault,Q6686
07000017_001-dacia,renault,GUMA M d.o.o.,,MOSTAR,,,BA,+387 36 352-900,,,Dacia,Q27460
,visa,,,NEUM,,,BA,,,,,
,visa,,,MEDUGORJE,,,BA,,,,,
,visa,,,MOSTAR ORTIJEŠ,,,BA,,,,,
,visa,,,MOSTAR,,,BA,,,,,
,visa,,,MOSTAR,,,BA,,,,,
,visa,,,MOSTAR,,,BA,,,,,
,visa,,,MOSTAR,,,BA,,,,,
,visa,,,MOSTAR,,,BA,,,,,
,visa,,,MOSTAR,,,BA,,,,,
,visa,,,MOSTAR,,,BA,,,,,
,visa,,,MOSTAR,,,BA,,,,,
,visa,,,MOSTAR,,,BA,,,,,
,visa,,,MOSTAR,,,BA,,,,,
,visa,,,MOSTAR,,,BA,,,,,
,visa,,,MOSTAR,,,BA,,,,,
,visa,,,MOSTAR,,,BA,,,,,
,visa,,,MOSTAR,,,BA,,,,,
,visa,,,MOSTAR,,,BA,,,,,
,visa,,,MOSTAR,,,BA,,,,,
,visa,,,MOSTAR,,,BA,,,,,
,visa,,,MOSTAR,,,BA,,,,,
,visa,,,MOSTAR,,,BA,,,,,
,visa,,,MOSTAR,,,BA,,,,,
,visa,,,MOSTAR,,,BA,,,,,
,visa,,,MOSTAR,,,BA,,,,,
,visa,,,MOSTAR,,,BA,,,,,
,visa,,,MOSTAR,,,BA,,,,,
,visa,,,MOSTAR,,,BA,,,,,
,visa,,,MOSTAR,,,BA,,,,,
,visa,,,MOSTAR,,,BA,,,,,
,visa,,,MOSTAR,,,BA,,,,,
,visa,,,MOSTAR,,,BA,,,,,
,visa,,,MOSTAR,,,BA,,,,,
,visa,,,MOSTAR,,,BA,,,,,
,visa,,,MOSTAR,,,BA,,,,,
,visa,,,MOSTAR,,,BA,,,,,
,visa,,,MOSTAR,,,BA,,,,,
,visa,,,MOSTAR,,,BA,,,,,
,visa,,,MOSTAR,,,BA,,,,,
,visa,,,MOSTAR,,,BA,,,,,
,visa,,,MOSTAR,,,BA,,,,,
,visa,,,MOSTAR,,,BA,,,,,
,visa,,,MOSTAR,,,BA,,,,,
,visa,,,MOSTAR,,,BA,,,,,
,visa,,,MOSTAR,,,BA,,,,,
,visa,,,MOSTAR,,,BA,,,,,
,visa,,,MOSTAR,,,BA,,,,,
,visa,,,MOSTAR,,,BA,,,,,
,visa,,,MOSTAR,,,BA,,,,,
,visa,,,MOSTAR,,,BA,,,,,
,visa,,,MOSTAR,,,BA,,,,,
,visa,,,MOSTAR,,,BA,,,,,
,visa,,,MOSTAR,,,BA,,,,,
,visa,,,MOSTAR,,,BA,,,,,
c7083f61346a9fcd62b581c756cede05,western_union,HRVATSKA POSTA MOSTAR,,Buna,,,BA,+387 33 268-000,https://location.westernunion.com/ba/state/buna/c7083f61346a9fcd62b581c756cede05,Mo-Fr 08:00-15:00; Sa 09:00-13:00,Western Union,Q861042
82d3a1b34f59ec18fa4ab7f3e79221ce,western_union,RBBH 200290 MO KNEZA DOMOGOJA,,Mostar,,,BA,+387 36 398-301,https://location.westernunion.com/ba/state/mostar/82d3a1b34f59ec18fa4ab7f3e79221ce,Mo-Fr 08:00-18:00; Sa 08:00-13:00,Western Union,Q861042
bed924178c5a856856db3b2985b0a353,western_union,NOVA BANKA MOSTAR,,Mostar,,,BA,+387 36 320-386,https://location.westernunion.com/ba/state/mostar/bed924178c5a856856db3b2985b0a353,Mo-Fr 08:00-16:00; Sa 08:00-12:00,Western Union,Q861042
d44642c8a15de1ec4a113527b1d26099,western_union,MOSTAR RONDO,,Mostar,,,BA,+387 36 289-800,https://location.westernunion.com/ba/state/mostar/d44642c8a15de1ec4a113527b1d26099,Mo-Fr 08:00-16:30,Western Union,Q861042
174c5c22b1f4b5f909fec7fda3896c22,western_union,SPARKASSE BANK,,Mostar,,,BA,+387 33 268-000,https://location.westernunion.com/ba/state/mostar/174c5c22b1f4b5f909fec7fda3896c22,Mo-Fr 07:30-15:30,Western Union,Q861042
fbb52945b93791a01978a4350174ae1f,western_union,ADDIKO BANK D D,,Mostar,,,BA,+387 33 268-000,https://location.westernunion.com/ba/state/mostar/fbb52945b93791a01978a4350174ae1f,Mo-Fr 08:00-19:00,Western Union,Q861042
8049ab97450179210608384db6e0f17c,western_union,BOSNA BANK INTERNATIONAL,,Mostar,,,BA,+387 33 268-000,https://location.westernunion.com/ba/state/mostar/8049ab97450179210608384db6e0f17c,Mo-Fr 08:00-17:00,Western Union,Q861042
cc63985558e29fb103a64a27f46aa620,western_union,ASA BANKA DD SARAJEVO,,Mostar,,,BA,+387 33 268-000,https://location.westernunion.com/ba/state/mostar/cc63985558e29fb103a64a27f46aa620,Mo-Fr 08:00-16:00,Western Union,Q861042
6d386eafa324d7e791d4261ac27fa9b4,western_union,ZIRAATBANK BH DD SARAJEVO,,Mostar,,,BA,+387 36 501-650,https://location.westernunion.com/ba/state/mostar/6d386eafa324d7e791d4261ac27fa9b4,Mo-Fr 08:30-20:00; Sa 09:00-15:00,Western Union,Q861042
0d71029aa5d25ca06d2e1410b9759809,western_union,SPARKASSE BANK,,Mostar,,,BA,+387 33 268-000,https://location.westernunion.com/ba/state/mostar/0d71029aa5d25ca06d2e1410b9759809,Mo-Fr 07:30-16:30,Western Union,Q861042
33a12e65eee18a2de2a2d890dc69da8b,western_union,PRIVREDNA BANKA SARAJEVO DD SA,,Mostar,,,BA,+387 33 268-520,https://location.westernunion.com/ba/state/mostar/33a12e65eee18a2de2a2d890dc69da8b,Mo-Fr 08:00-16:00,Western Union,Q861042
6ddad5c5dceeca1fc0455e96d0c43896,western_union,JP BH POSTA 88108 MOSTAR,,Mostar,,,BA,+387 36 511-545,https://location.westernunion.com/ba/state/mostar/6ddad5c5dceeca1fc0455e96d0c43896,Mo-Fr 08:00-18:00; Sa 08:00-15:00,Western Union,Q861042
