Ref,Spider,Name,Address,City,State,Zipcode,Country,Phone,Website,Hours,Brand,WikiData
219847,bluerhino,Cross Plains Ace Hardware #18153,,Cross Plains,WI,,US,+1 608-795-7202,,,Blue Rhino,Q65681213
153683,bluerhino,Walgreens #12603,,Cross Plains,WI,,US,+1 608-798-4003,,,Blue Rhino,Q65681213
63313,citi,ATM Kwik Trip #833-2,,Cross Plains,WI,,US,,,,Citibank,Q857063
63312,citi,ATM Kwik Trip #833-1,,Cross Plains,WI,,US,,,,Citibank,Q857063
80706,citi,ATM State Bank of Cross Plains,,Cross Plains,WI,,US,,,,Citibank,Q857063
89463,citi,ATM Walgreens,,Cross Plains,WI,,US,,,,Citibank,Q857063
6,culvers_us,"Culver's of Cross Plains, WI - Main St",,Cross Plains,WI,,US,+1 608-798-1600,http://www.culvers.com/restaurants/cross-plains,Mo-Fr 10:00-22:00; Su 10:00-22:00,Culver's,Q1143589
https://www.edwardjones.com/us-en/financial-advisor/scott-lamontagne,edwardjones,Scott LaMontagne,,Cross Plains,WI,,US,+1 608-798-0043,https://www.edwardjones.com/us-en/financial-advisor/scott-lamontagne,Mo-Fr 07:30-16:30,Edward Jones,Q5343830
https://local.fedex.com/#25203485,fedex,,,Cross Plains,WI,,US,+1 800-463-3339,https://local.fedex.com/en-us/wi/cross-plains/tabns,,FedEx,Q459477
425,piggly_wiggly_us,Piggly Wiggly,,Cross Plains,WI,,US,+1 608-798-3701,https://www.shopthepig.com/,,Piggly Wiggly,Q3388303
32349,smilebrands,Midwest Dental Cross Plains,2525 Main St.,Cross Plains,WI,,US,+1 608-371-5863,https://midwest-dental.com/locations/wisconsin-dental-centers/cross-plains-wi/,,Smile Brands Inc.,Q108286823
2394,snap_fitness,"Cross Plains, WI",34 Glacier Edge Sq,Cross Plains,WI,,US,+1 608-413-0277,https://www.snapfitness.com/us/gyms/cross-plains-wi,24/7,Snap Fitness,Q7547254
014643,uhaul,Saeman Lumber Company,1923 Market St,Cross Plains,WI,,US,+1 608-798-0067,,Mo-Fr 30:00-16:00; Sa 00:00-24:00,U-Haul,Q7862902
1359891,usps,CROSS PLAINS,,CROSS PLAINS,WI,,US,+1 608-798-1462,,"Mo-Fr 09:00-12:00,13:00-16:30; Sa 09:00-11:00",United States Postal Service,Q668687
5352800002,usps_collection_boxes,USPS COLLECTION BOX - BLUE BOX,2012 PARK ST,CROSS PLAINS,WI,,US,,,,United States Postal Service,Q668687
5352800005,usps_collection_boxes,USPS COLLECTION BOX - PO LOBBY,2012 PARK ST,CROSS PLAINS,WI,,US,,,,United States Postal Service,Q668687
5352800007,usps_collection_boxes,USPS COLLECTION BOX - PO LOBBY,2012 PARK ST,CROSS PLAINS,WI,,US,,,,United States Postal Service,Q668687
,visa,,,WEST ALLIS,WI,,US,,,,,
,visa,,,WEST BEND,WI,,US,,,,,
,visa,,,CROSS PLAINS,WI,,US,,,,,
,visa,,,CROSS PLAINS,WI,,US,,,,,
,visa,,,CROSS PLAINS,WI,,US,,,,,
,visa,,,CROSS PLAINS,WI,,US,,,,,
,visa,,,CROSS PLAINS,WI,,US,,,,,
,visa,,,CROSS PLAINS,WI,,US,,,,,
,visa,,,CROSS PLAINS,WI,,US,,,,,
,visa,,,CROSS PLAINS,WI,,US,,,,,
,visa,,,CROSS PLAINS,WI,,US,,,,,
,visa,,,CROSS PLAINS,WI,,US,,,,,
,visa,,,BLACK EARTH,WI,,US,,,,,
https://www.walgreens.com/locator/walgreens-2575+main+st-cross+plains-wi-53528/id=12603,walgreens,Walgreens,,Cross Plains,WI,,US,+1 608-798-4003,https://www.walgreens.com/locator/walgreens-2575+main+st-cross+plains-wi-53528/id=12603,Mo-Su 08:00-21:00,Walgreens,Q1591889
