Ref,Spider,Name,Address,City,State,Zipcode,Country,Phone,Website,Hours,Brand,WikiData
https://stores.advanceautoparts.com/wv/parkersburg/2010-7th-st,advance_auto_parts_us,Advance Auto Parts,,Parkersburg,WV,,US,+1 304-422-8422,https://stores.advanceautoparts.com/wv/parkersburg/2010-7th-st,Mo-Sa 07:30-21:00; Su 08:00-20:00,Advance Auto Parts,Q4686051
https://stores.advanceautoparts.com/wv/parkersburg/910-division-st,advance_auto_parts_us,Advance Auto Parts,,Parkersburg,WV,,US,+1 304-422-5788,https://stores.advanceautoparts.com/wv/parkersburg/910-division-st,Mo-Sa 07:30-21:00; Su 08:00-20:00,Advance Auto Parts,Q4686051
https://stores.advanceautoparts.com/wv/parkersburg/1505-13th-st,advance_auto_parts_us,Advance Auto Parts,,Parkersburg,WV,,US,+1 304-422-5859,https://stores.advanceautoparts.com/wv/parkersburg/1505-13th-st,Mo-Fr 07:30-18:00; Sa 08:00-16:00; Su 00:00-24:00,Advance Auto Parts,Q4686051
https://stores.aldi.us/#14672636,aldi_sud_us,ALDI  56 Bosley Parkway,,Parkersburg,WV,,US,+1 833-461-7082,https://stores.aldi.us/wv/parkersburg/56-bosley-parkway,Mo-Su 09:00-20:00,ALDI,Q41171672
https://storelocations.ae.com/#1727592,american_eagle_outfitters,American Eagle & Aerie Store Grand Central Mall,,Vienna,WV,,US,+1 304-485-9101,https://storelocations.ae.com/us/wv/vienna/255-grand-central-mall.html,Mo-Sa 11:00-20:00; Su 12:00-18:00,American Eagle & Aerie Store,Q2842931
https://locations.arbys.com/wv/parkersburg/2899-pike-st.html,arbys_us,"Arby's Fast-Food Drive Through Near You in Parkersburg, WV",,Parkersburg,WV,,US,+1 304-489-1919,https://locations.arbys.com/wv/parkersburg/2899-pike-st.html,Mo-Sa 10:00-24:00; Su 10:00-23:00,Arby's,Q630866
https://stores.ashleyfurniture.com/store/us/west-virginia/parkersburg/7710000501/,ashley_furniture,"Ashley Store Parkersburg, WV",,Parkersburg,WV,,US,+1 304-893-9590,https://stores.ashleyfurniture.com/store/us/west-virginia/parkersburg/7710000501/,,Ashley Furniture,Q4805437
29345,asics_us,Shirt Factory & Sporting Goods,1606 Dupont Rd,Parkersburg,WV,,US,+1 304-428-0566,,,asics,Q327247
697,att_us,PARKERSBURG STORE,,Parkersburg,WV,,US,+1 304-422-2355,https://www.att.com/stores/west-virginia/parkersburg/697,Mo-Sa 09:00-20:00; Su 11:00-18:00,AT&T,Q298594
1103,autozone_us,AutoZone Auto Parts Parkersburg,,Parkersburg,WV,,US,+1 304-424-0250,https://www.autozone.com/locations/wv/parkersburg/3313-murdoch-ave.html,Mo-Fr 07:30-21:00; Sa 07:30-20:00; Su 09:00-20:00,AutoZone,Q4826087
4684,autozone_us,AutoZone Auto Parts Parkersburg,,Parkersburg,WV,,US,+1 304-424-6035,https://www.autozone.com/locations/wv/parkersburg/1968-7th-st.html,Mo-Sa 07:30-21:00; Su 09:00-20:00,AutoZone,Q4826087
1104,autozone_us,AutoZone Auto Parts Parkersburg,,Parkersburg,WV,,US,+1 304-424-0256,https://www.autozone.com/locations/wv/parkersburg/1806-12th-ave.html,Mo-Sa 07:30-21:00; Su 09:00-20:00,AutoZone,Q4826087
163136,bluerhino,Family Dollar #08225,,Parkersburg,WV,,US,+1 304-850-6032,,,Blue Rhino,Q65681213
5747,bluerhino,Kroger #753 - MidAtlantic,,Parkersburg,WV,,US,+1 304-428-8533,,,Blue Rhino,Q65681213
198176,bluerhino,CAMDEN AVE GO-MART 99,,Parkersburg,WV,,US,+1 304-424-3706,,,Blue Rhino,Q65681213
59719,bluerhino,Par Mar #18 - Chevron,,Parkersburg,WV,,US,+1 304-422-1014,,,Blue Rhino,Q65681213
142945,bluerhino,Rural King Supply #76,,Parkersburg,WV,,US,+1 304-428-0608,,,Blue Rhino,Q65681213
142689,bluerhino,Speedway #9381,,Parkersburg,WV,,US,+1 304-424-9428,,,Blue Rhino,Q65681213
173244,bluerhino,Family Dollar #00715,,Parkersburg,WV,,US,+1 304-485-2808,,,Blue Rhino,Q65681213
209748,bluerhino,Rebel #919 - MCI,,Parkersburg,WV,,US,+1 304-485-0424,,,Blue Rhino,Q65681213
196307,bluerhino,Murdoch Go-Mart #115,,Parkersburg,WV,,US,+1 304-422-7472,,,Blue Rhino,Q65681213
87429,bluerhino,Lowe's #2246,,Parkersburg,WV,,US,+1 304-489-4370,,,Blue Rhino,Q65681213
40663,bluerhino,Walmart #2823 - Supercenter,,Parkersburg,WV,,US,+1 304-489-1905,,,Blue Rhino,Q65681213
148634,bluerhino,Walmart #2823 - Supercenter - Fuel Site,,Parkersburg,WV,,US,+1 304-489-1905,,,Blue Rhino,Q65681213
172988,bluerhino,Family Dollar #04604,,Parkersburg,WV,,US,+1 681-315-6147,,,Blue Rhino,Q65681213
198123,bluerhino,PIKE STREET GO-MART 122,,Parkersburg,WV,,US,+1 304-489-9840,,,Blue Rhino,Q65681213
106217,bluerhino,Speedway #3311,,Parkersburg,WV,,US,+1 304-489-3651,,,Blue Rhino,Q65681213
187315,bluerhino,Piggly Wiggly,,Parkersburg,WV,,US,+1 304-428-9165,,,Blue Rhino,Q65681213
59713,bluerhino,Par Mar #03,,Parkersburg,WV,,US,+1 304-485-8211,,,Blue Rhino,Q65681213
73816,bluerhino,Speedway #9253,,Parkersburg,WV,,US,+1 304-422-7921,,,Blue Rhino,Q65681213
170624,bluerhino,Bosley Rental & Supply,,Parkersburg,WV,,US,+1 304-422-0407,,,Blue Rhino,Q65681213
59412,bluerhino,Par Mar #20,,Boaz,WV,,US,+1 304-295-7686,,,Blue Rhino,Q65681213
59720,bluerhino,Par Mar #19 - BP,,Parkersburg,WV,,US,+1 304-422-7757,,,Blue Rhino,Q65681213
168299,bluerhino,Parks Hardware & Supply Inc #285700,,Parkersburg,WV,,US,+1 304-422-7231,,,Blue Rhino,Q65681213
59715,bluerhino,Par Mar #12 - BP,,Parkersburg,WV,,US,+1 304-428-7664,,,Blue Rhino,Q65681213
5746,bluerhino,Kroger #752 - MidAtlantic,,Parkersburg,WV,,US,+1 304-424-6369,,,Blue Rhino,Q65681213
198175,bluerhino,PARKERSBURG GO-MART 73,,Parkersburg,WV,,US,+1 304-422-8545,,,Blue Rhino,Q65681213
162741,bluerhino,Family Dollar #01249,,PARKERSBURG,WV,,US,+1 681-315-6142,,,Blue Rhino,Q65681213
47203,bobevans_us,Parkersburg,,Parkersburg,WV,,US,+1 304-489-2171,https://www.bobevans.com/locations/parkersburg-2,Mo-Su 07:00-21:00,Bob Evans,Q4932386
46901,bobevans_us,Parkersburg,,Parkersburg,WV,,US,+1 304-428-6555,https://www.bobevans.com/locations/parkersburg,Mo-Su 07:00-21:00,Bob Evans,Q4932386
86863370357002610100100000000000,bp,BP,,Parkersburg,WV,,US,+1 304-863-9548,,24/7,BP,Q152057
44708392170202610100100000000000,bp,BP,,Parkersburg,WV,,US,+1 304-863-3280,,24/7,BP,Q152057
00173914623012610100100000000000,bp,BP,,Parkersburg,WV,,US,+1 304-485-8211,,24/7,BP,Q152057
78000405127202610100100000000000,bp,BP,,Parkersburg,WV,,US,+1 304-422-1014,,24/7,BP,Q152057
64516405077102610100100000000000,bp,BP,,Parkersburg,WV,,US,+1 304-422-7757,,Mo-Sa 06:00-23:00; Su 07:00-23:00,BP,Q152057
3551,captaind,Captain D's,,Parkersburg,WV,,US,+1 304-428-4824,https://locations.captainds.com/ll/US/WV/Parkersburg/2201-Pike-St,Mo-Su 10:30-22:00,Captain D's,Q5036616
3663,captaind,Captain D's,,Parkersburg,WV,,US,+1 304-422-3100,https://locations.captainds.com/ll/US/WV/Parkersburg/1103-Murdoch-Ave,Mo-Su 10:30-22:00,Captain D's,Q5036616
09255,chevrolet,MCCLINTON CHEVROLET COMPANY,,Parkersburg,WV,,US,+1 304-422-6501,https://www.mcclintonchevy.com,Mo-Fr 09:00-18:30; Sa 09:00-17:00,Chevrolet,Q29570
27139,citi,ATM 7ELEVEN-FCTI,,Parkersburg,WV,,US,,,,Citibank,Q857063
66837,citi,ATM ONE COMMUNITY FEDERAL CREDIT UNION,,Parkersburg,WV,,US,,,,Citibank,Q857063
68406,citi,ATM PNC AT SHEETZ,,Parkersburg,WV,,US,,,,Citibank,Q857063
67561,citi,ATM PEOPLES BANK,,Parkersburg,WV,,US,,,,Citibank,Q857063
67562,citi,ATM PEOPLES BANK,,Parkersburg,WV,,US,,,,Citibank,Q857063
77762,citi,ATM Speedway,,Parkersburg,WV,,US,,,,Citibank,Q857063
27827,citi,ATM 7ELEVEN-FCTI,,Parkersburg,WV,,US,,,,Citibank,Q857063
48497,citi,ATM CVS,,Parkersburg,WV,,US,,,,Citibank,Q857063
67675,citi,ATM PEOPLES BANK,,Parkersburg,WV,,US,,,,Citibank,Q857063
67674,citi,ATM PEOPLES BANK,,Parkersburg,WV,,US,,,,Citibank,Q857063
61658,citi,ATM Kroger,,Parkersburg,WV,,US,,,,Citibank,Q857063
95153,citi,ATM West Virginia Central Federal Credit Union,,Parkersburg,WV,,US,,,,Citibank,Q857063
78263,citi,ATM Speedway,,Parkersburg,WV,,US,,,,Citibank,Q857063
68075,citi,ATM PNC AT SHEETZ,,Parkersburg,WV,,US,,,,Citibank,Q857063
66838,citi,ATM ONE COMMUNITY FEDERAL CREDIT UNION,,Parkersburg,WV,,US,,,,Citibank,Q857063
66840,citi,ATM ONE COMMUNITY FEDERAL CREDIT UNION,,Parkersburg,WV,,US,,,,Citibank,Q857063
32187,citi,ATM 7ELEVEN-FCTI,,Parkersburg,WV,,US,,,,Citibank,Q857063
76943,citi,ATM Speedway,,Parkersburg,WV,,US,,,,Citibank,Q857063
66839,citi,ATM ONE COMMUNITY FEDERAL CREDIT UNION,,Parkersburg,WV,,US,,,,Citibank,Q857063
48240,citi,ATM CVS,,Parkersburg,WV,,US,,,,Citibank,Q857063
61143,citi,ATM Kroger,,Parkersburg,WV,,US,,,,Citibank,Q857063
25166,citi,ATM 7ELEVEN-FCTI,,Parkersburg,WV,,US,,,,Citibank,Q857063
95150,citi,ATM West Virginia Central Federal Credit Union,,Parkersburg,WV,,US,,,,Citibank,Q857063
49316,citi,ATM CVS,,Parkersburg,WV,,US,,,,Citibank,Q857063
28741,citi,ATM 7ELEVEN-FCTI,,Parkersburg,WV,,US,,,,Citibank,Q857063
,credit_union_us,West Virginia Central FCU,,Parkersburg,WV,,US,+1 304-485-4523,,,,
,credit_union_us,West Virginia Central FCU,,Parkersburg,WV,,US,+1 304-485-4523,,,,
80380103,cricket_wireless,Cricket Wireless Authorized Retailer,,Parkersburg,WV,,US,+1 681-797-5513,https://www.cricketwireless.com/stores/ll/US/WV/Parkersburg/2838-Pike-St,Mo-Sa 10:00-19:00; Su 12:00-18:00,Cricket Wireless,Q5184987
6276,cvs_us,CVS Pharmacy,,Parkersburg,WV,,US,+1 304-485-4533,https://www.cvs.com/store-locator/parkersburg-wv-pharmacies/1800-broadway-ave-parkersburg-wv-26101/storeid=6276,Mo-Fr 08:00-21:00; Sa-Su 09:00-21:00,CVS Pharmacy,Q2078880
6274,cvs_us,CVS Pharmacy,,Parkersburg,WV,,US,+1 304-485-5428,https://www.cvs.com/store-locator/parkersburg-wv-pharmacies/1605-7th-street-parkersburg-wv-26101/storeid=6274,Mo-Sa 09:00-21:00; Su 10:00-18:00,CVS Pharmacy,Q2078880
7604,cvs_us,CVS Pharmacy,,Parkersburg,WV,,US,+1 304-422-2884,https://www.cvs.com/store-locator/parkersburg-wv-pharmacies/2323-murdoch-ave-parkersburg-wv-26101/storeid=7604,Mo-Su 08:00-22:00,CVS Pharmacy,Q2078880
vc_2081OS,department_veterans_affairs,Parkersburg Vet Center Outstation,,Parkersburg,WV,,US,+1 304-485-1599,https://www.va.gov/huntington-vet-center/,,Department Veterans Affairs,Q592576
1303,dominos_pizza_us,Domino's Pizza,,Parkersburg,WV,,US,+1 304-485-7501,https://pizza.dominos.com/west-virginia/parkersburg/1814-seventh-street,Mo-Th 10:00-24:00; Fr-Sa 10:00-01:00; Su 10:00-24:00,Domino's,Q839466
351615,dunkin_us,Dunkin',,Parkersburg,WV,,US,+1 304-893-9880,https://locations.dunkindonuts.com/en/wv/parkersburg/3701-murdoch-ave/351615,Mo-Th 05:00-21:00; Fr-Sa 05:00-22:00; Su 05:00-21:00,Dunkin',Q847743
350517,dunkin_us,Dunkin',,Parkersburg,WV,,US,+1 304-893-9494,https://locations.dunkindonuts.com/en/wv/parkersburg/601-division-st/350517,Mo-Th 05:00-21:00; Fr-Sa 05:00-22:00; Su 05:00-21:00,Dunkin',Q847743
https://www.edwardjones.com/us-en/financial-advisor/jc-rutter,edwardjones,JC Rutter,,Parkersburg,WV,,US,+1 304-422-6770,https://www.edwardjones.com/us-en/financial-advisor/jc-rutter,Tu-Fr 08:00-16:00,Edward Jones,Q5343830
520689,eg_america_us,Certified,,PARKERSBURG,WV,,US,+1 304-428-3686,https://www.certifiedoil.com/find-us/generic-store-page/?id=400297,,Certified Oil,Q100148356
E16833,enterprise,Parkersburg 7th St.,,Parkersburg,WV,,US,+1 304-422-3600,,,Enterprise Rent-A-Car,Q17085454
E1683K,enterprise,Parkersburg Murdoch Ave.,,Parkersburg,WV,,US,+1 304-865-2600,,,Enterprise Rent-A-Car,Q17085454
28225,family_dollar_us,FAMILY DOLLAR #8225,,Parkersburg,WV,,US,+1 304-850-6032,https://www.familydollar.com/locations/wv/parkersburg/28225/,Mo-Su 09:00-21:00,Family Dollar,Q5433101
https://local.fedex.com/#25944226,fedex,,,Parkersburg,WV,,US,+1 800-463-3339,https://local.fedex.com/en-us/wv/parkersburg/pkbcc,,FedEx,Q459477
https://local.fedex.com/#493258,fedex,FedEx Ship Center,,Parkersburg,WV,,US,+1 800-463-3339,https://local.fedex.com/en-us/wv/parkersburg/pkba,,FedEx,Q459477
https://branches.fleetpride.com/wv/parkersburg/truckparts-par.html,fleet_pride_us,FleetPride,,Parkersburg,WV,,US,+1 304-485-2036,https://branches.fleetpride.com/wv/parkersburg/truckparts-par.html,Mo-Fr 07:30-17:00,FleetPride,Q121436710
Motorcraft2768USAEnglish,ford,"Astorg Ford Lincoln of Parkersburg, Inc.",,West Virginia,WV,,US,+1 304-485-8585,,,Ford,Q44294
https://www.ford.com/dealerships/dealer-details/wv/parkersburg/astorg-ford-lincoln-of-parkersburg-inc/,ford_dealers_us,"Astorg Ford Lincoln of Parkersburg, Inc.",,Parkersburg,WV,,US,+1 304-699-0573,https://www.ford.com/dealerships/dealer-details/wv/parkersburg/astorg-ford-lincoln-of-parkersburg-inc/,Mo-Sa 09:00-18:30,Ford Motor Company,Q44294
5303,gamestop_us,Mary Walter Plaza,,PARKERSBURG,WV,,US,+1 304-489-3157,https://www.gamestop.com/search/?store=5303,Mo-Th 12:00-20:00; Fr-Sa 11:00-21:00; Su 12:00-19:00,GameStop,Q202210
https://stores.gnc.com/#24059356,gnc,GNC Martin Plaza,,,WV,,US,+1 304-489-3966,https://stores.gnc.com/all-stores-west-virginia/parkersburg/2826-pike-street,Mo-Th 10:00-20:00; Fr-Sa 10:00-19:00; Su 12:00-18:00,GNC,Q4808595
de7991a4-3879-ec11-80f8-00505689ac90,goodwill,South Parkersburg Store,,Parkersburg,WV,,US,,https://www.goodwill.org/locator/location/?store=ZGU3OTkxYTQtMzg3OS1lYzExLTgwZjgtMDA1MDU2ODlhYzkw&lat=MzkuMjIwNTQ=&lng=LTgxLjU0NjE3,,Goodwill,Q5583655
https://www.goodyearautoservice.com/en_US/location/Parkersburg-WV-26101-US-000906323,goodyear_us,"Goodyear Auto Service - Parkersburg, Parkersburg, WV | Oil, Brakes & Repairs | #000906323",,Parkersburg,WV,,US,+1 304-485-7396,https://www.goodyearautoservice.com/en_US/location/Parkersburg-WV-26101-US-000906323,Mo-Fr 07:30-18:00; Sa 08:00-18:00,Goodyear,Q620875
https://salons.greatclips.com/us/wv/parkersburg/2826b-pike-st,greatclips,Great Clips,,Parkersburg,WV,,US,+1 304-489-9090,https://salons.greatclips.com/us/wv/parkersburg/2826b-pike-st,Mo-Fr 09:00-19:00; Sa 09:00-18:00; Su 10:00-17:00,Great Clips,Q5598967
1503515,hardees_us,Hardee's,,Parkersburg,WV,,US,+1 304-422-2455,https://locations.hardees.com/wv/parkersburg/2309-pike-street,,Hardee's,Q1585088
1503628,hardees_us,Hardee's,,Parkersburg,WV,,US,+1 304-428-7980,https://locations.hardees.com/wv/parkersburg/1440-7th-street,,Hardee's,Q1585088
260,huntingtonbank,Parkersburg Main ,,Parkersburg,WV,,US,+1 304-424-7500,https://www.huntington.com/Community/branch-info?locationId=260,Mo-Th 09:00-16:00; Fr 09:00-17:00; Sa-Su 00:00-00:00,Huntington Bank,Q798819
46133,h_r_block,H&R Block,,Parkersburg,WV,,US,+1 304-489-1401,https://www.hrblock.com/local-tax-offices/west-virginia/parkersburg/martin-plaza/46133/,,H&R Block,Q5627799
46132,h_r_block,H&R Block,,Parkersburg,WV,,US,+1 304-428-7051,https://www.hrblock.com/local-tax-offices/west-virginia/parkersburg/lakeview-center/46132/,,H&R Block,Q5627799
https://office.jacksonhewitt.com/#27577609,jackson_hewitt,Jackson Hewitt,,Parkersburg,WV,,US,+1 304-485-0200,https://office.jacksonhewitt.com/tax-preparation-services-locations/en/wv/parkersburg/1920-blizzard-drive/11848,Mo-Th 09:00-17:00; Fr 09:00-18:00; Sa 09:00-17:00,Jackson Hewitt,Q6117132
https://locations.jimmyjohns.com/wv/parkersburg/sandwiches-676.html,jimmy_johns,Jimmy John's,,Parkersburg,WV,,US,+1 304-422-4060,https://locations.jimmyjohns.com/wv/parkersburg/sandwiches-676.html,,Jimmy John's,Q1689380
https://locations.kfc.com/#11248568,kfc,Chicken Nuggets Near Parkersburg,,Parkersburg,WV,,US,,https://locations.kfc.com/wv/parkersburg/930-seventh-street/chickennugget,Mo-Su 10:00-22:30,KFC,Q524757
https://locations.kfc.com/#11248164,kfc,Chicken Nuggets Near Parkersburg,,Parkersburg,WV,,US,,https://locations.kfc.com/wv/parkersburg/2604-ohio-avenue/chickennugget,Mo-Su 10:00-22:30,KFC,Q524757
1063,kohls_us,Kohl's,,Parkersburg,WV,,US,+1 304-489-3246,https://www.kohls.com/stores/wv/parkersburg-1063.shtml,Mo-Sa 09:00-21:00; Su 09:00-20:00,Kohl's,Q967265
160552,marathon_petroleum_us,MARATHON FOOD CENTER 156,,PARKERSBURG,WV,,US,+1 304-422-5381,,,Marathon,Q458363
157500,marathon_petroleum_us,CERTIFIED 297,,PARKERSBURG,WV,,US,+1 304-428-3686,,,Marathon,Q458363
159038,marathon_petroleum_us,Rebel  922,,Parkersburg,WV,,US,+1 304-205-9727,,,Marathon,Q458363
160576,marathon_petroleum_us,Rebel  919,,Parkersburg,WV,,US,+1 740-315-8942,,,Marathon,Q458363
156337,marathon_petroleum_us,MARATHON FOOD CENTER 150,,Parkersburg,WV,,US,+1 304-422-1576,,,Marathon,Q458363
PKBTS,marriott,TownePlace Suites Parkersburg,,Parkersburg,WV,,US,+1 304-485-4485,https://www.marriott.com/PKBTS,,Townplace Suites by Marriott,Q7830092
WwBXX,medexpress,MedExpress Urgent Care,,Parkersburg,WV,,US,+1 304-489-3815,https://www.medexpress.com/location/wv/parkersburg/spw/,Mo-Su 08:00-20:00,MedExpress,Q102183820
71499653,moneygram,WAL-MART - #2823,,PARKERSBURG,WV,,US,+1 304-489-1905,,Mo-Su 07:00-21:00,MoneyGram,Q1944412
2014-dudley-avenue,my_eye_dr,,,Parkersburg,WV,,US,+1 304-422-1841,https://locations.myeyedr.com/wv/parkersburg/2014-dudley-avenue,,MyEyeDr.,Q117864710
50,ollies_bargain_outlet,Ollie's Bargain Outlet,,Parkersburg,WV,,US,+1 304-422-6436,https://www.ollies.us/locations/100-gihon-village-parkersburg-wv/,Mo-Sa 09:00-21:00; Su 10:00-19:00,Ollie's Bargain Outlet,Q7088304
https://locations.oreillyauto.com/wv/parkersburg/check-engine-light-testing-5888.html,oreilly,Your Parkersburg O'Reilly Auto Parts Store,,Parkersburg,WV,,US,+1 304-916-7454,https://locations.oreillyauto.com/wv/parkersburg/check-engine-light-testing-5888.html,Mo-Sa 07:30-21:00; Su 07:30-20:00,O'Reilly Auto Parts,Q7071951
https://locations.oreillyauto.com/wv/parkersburg/wiper-installation-5888.html,oreilly,Your Parkersburg O'Reilly Auto Parts Store,,Parkersburg,WV,,US,+1 304-916-7454,https://locations.oreillyauto.com/wv/parkersburg/wiper-installation-5888.html,Mo-Sa 07:30-21:00; Su 07:30-20:00,O'Reilly Auto Parts,Q7071951
https://locations.oreillyauto.com/wv/parkersburg/battery-testing-5888.html,oreilly,Your Parkersburg O'Reilly Auto Parts Store,,Parkersburg,WV,,US,+1 304-916-7454,https://locations.oreillyauto.com/wv/parkersburg/battery-testing-5888.html,Mo-Sa 07:30-21:00; Su 07:30-20:00,O'Reilly Auto Parts,Q7071951
https://locations.oreillyauto.com/wv/parkersburg/autopartes-5888.html,oreilly,Tu tienda O'Reilly Auto Parts en Parkersburg,,Parkersburg,WV,,US,+1 304-916-7454,https://locations.oreillyauto.com/wv/parkersburg/autopartes-5888.html,Mo-Sa 07:30-21:00; Su 07:30-20:00,O'Reilly Auto Parts,Q7071951
https://locations.oreillyauto.com/wv/parkersburg/wiper-installation-3941.html,oreilly,Your Parkersburg O'Reilly Auto Parts Store,,Parkersburg,WV,,US,+1 304-422-7425,https://locations.oreillyauto.com/wv/parkersburg/wiper-installation-3941.html,Mo-Sa 07:00-21:00; Su 07:30-20:00,O'Reilly Auto Parts,Q7071951
https://locations.oreillyauto.com/wv/parkersburg/check-engine-light-testing-3941.html,oreilly,Your Parkersburg O'Reilly Auto Parts Store,,Parkersburg,WV,,US,+1 304-422-7425,https://locations.oreillyauto.com/wv/parkersburg/check-engine-light-testing-3941.html,Mo-Sa 07:00-21:00; Su 07:30-20:00,O'Reilly Auto Parts,Q7071951
https://locations.oreillyauto.com/wv/parkersburg/battery-testing-3941.html,oreilly,Your Parkersburg O'Reilly Auto Parts Store,,Parkersburg,WV,,US,+1 304-422-7425,https://locations.oreillyauto.com/wv/parkersburg/battery-testing-3941.html,Mo-Sa 07:00-21:00; Su 07:30-20:00,O'Reilly Auto Parts,Q7071951
https://locations.oreillyauto.com/wv/parkersburg/autopartes-3941.html,oreilly,Tu tienda O'Reilly Auto Parts en Parkersburg,,Parkersburg,WV,,US,+1 304-422-7425,https://locations.oreillyauto.com/wv/parkersburg/autopartes-3941.html,Mo-Sa 07:00-21:00; Su 07:30-20:00,O'Reilly Auto Parts,Q7071951
https://www.orkin.com/locations/west-virginia-wv/parkersburg-pest-control/branch-912,orkin_us,Orkin,,Parkersburg,WV,,US,+1 304-485-4459,https://www.orkin.com/locations/west-virginia-wv/parkersburg-pest-control/branch-912,,Orkin,Q7102943
https://locations.papajohns.com/#10691234,papa_johns,Papa John's,,Parkersburg,WV,,US,+1 304-428-4400,https://locations.papajohns.com/united-states/wv/26101/parkersburg/2100-camden-avenue,Mo-Th 10:00-23:00; Fr-Sa 10:00-24:00; Su 10:00-23:00,Papa John's Pizza,Q2759586
628723,penske,A.w. Couch,,PARKERSBURG,WV,,US,+1 304-485-6520,https://www.pensketruckrental.com/locations/us/west_virginia/parkersburg/628723/,,Penske,Q81234570
384,piggly_wiggly_us,Piggly Wiggly,,Parkersburg,WV,,US,+1 304-428-9165,https://www.lovingthepig.com/,,Piggly Wiggly,Q3388303
383,piggly_wiggly_us,Piggly Wiggly,,Parkersburg,WV,,US,+1 304-428-1932,https://www.lovingthepig.com/,,Piggly Wiggly,Q3388303
wv_parkersburg_2407-pike-st,pizza_hut_us,2407 Pike St,,Parkersburg,WV,,US,+1 304-422-2535,https://locations.pizzahut.com/wv/parkersburg/2407-pike-st,,Pizza Hut,Q191615
divisions-dept-store-38807,ppgpaints,DIVISIONS DEPT STORE / *,,"Parkersburg, ",WV,,US,,https://www.ppgpaints.com/store-locator/us/west-virginia/parkersburg-paint-stores/divisions-dept-store-38807,,PPG Paints,Q83891559
4773,rentacenter,Rent-A-Center,,Parkersburg,WV,,US,+1 304-428-7788,https://locations.rentacenter.com/west-virginia/parkersburg/2360-pike-st/,Mo-Sa 10:00-18:00,Rent-A-Center,Q7313497
857,rentacenter,Rent-A-Center,,Parkersburg,WV,,US,+1 304-485-1100,https://locations.rentacenter.com/west-virginia/parkersburg/103-lakeview-ctr/,Mo-Sa 10:00-18:00,Rent-A-Center,Q7313497
35922,seven_eleven_ca_us,7-Eleven Store,,Parkersburg,WV,,US,+1 304-428-5419,https://www.7-eleven.com/locations/wv/parkersburg/1212-avery-st-35922,,7-Eleven,Q259340
35965,seven_eleven_ca_us,7-Eleven Store,,Parkersburg,WV,,US,+1 304-863-9548,https://www.7-eleven.com/locations/wv/parkersburg/700-harris-hwy-35965,,7-Eleven,Q259340
35950,seven_eleven_ca_us,7-Eleven Store,,Parkersburg,WV,,US,+1 304-422-7840,https://www.7-eleven.com/locations/wv/parkersburg/2320-gihon-rd-35950,,7-Eleven,Q259340
35966,seven_eleven_ca_us,7-Eleven Store,,Parkersburg,WV,,US,+1 304-863-3280,https://www.7-eleven.com/locations/wv/parkersburg/20-marrtown-rd-35966,,7-Eleven,Q259340
640,sheetz,Sheetz,,PARKERSBURG,WV,,US,+1 681-229-3079,https://orders.sheetz.com/findASheetz/store/640,24/7,Sheetz,Q7492551
643,sheetz,Sheetz,,PARKERSBURG,WV,,US,+1 681-229-3121,https://orders.sheetz.com/findASheetz/store/643,24/7,Sheetz,Q7492551
42,sleep_outfitters_us,Sleep Outfitters,,Parkersburg,WV,,US,+1 304-428-5232,,,Sleep Outfitters,Q120509459
101,sleep_outfitters_us,Sleep Outfitters,,Parkersburg,WV,,US,+1 304-908-5021,,,Sleep Outfitters,Q120509459
https://restaurants.subway.com/#14903227,subway,Subway,,Parkersburg Wood,WV,,US,+1 304-485-4811,https://restaurants.subway.com/united-states/wv/parkersburg/824-7th-st,Mo-Su 09:00-22:00,Subway,Q244457
https://restaurants.subway.com/#14895214,subway,Subway Wal-Mart #2823,,Parkersburg Wood,WV,,US,+1 304-489-4100,https://restaurants.subway.com/united-states/wv/parkersburg/2900-pike-st,Mo-Su 08:00-21:00,Subway,Q244457
https://restaurants.subway.com/#14894236,subway,Subway,,Parkersburg Wood,WV,,US,+1 304-861-2105,https://restaurants.subway.com/united-states/wv/parkersburg/2771-dupont-road,Mo-Su 08:00-21:00,Subway,Q244457
https://restaurants.subway.com/#14905460,subway,Subway,,Parkersburg Wood,WV,,US,+1 304-485-4411,https://restaurants.subway.com/united-states/wv/parkersburg/1814-blizzard-dr,Mo-Su 09:00-22:00,Subway,Q244457
35317,sweetfrog_us,sweetFrog Store 35317,,Parkersburg,WV,,US,+1 304-893-9990,https://www.sweetfrog.com/stores/frozen-yogurt-parkersburg/35317,Mo-Th 12:00-21:00; Fr-Sa 12:00-22:00; Su 12:00-21:00,sweetFrog,Q16952110
https://locations.tacobell.com/#6144448,taco_bell,Taco Bell,,Parkersburg,WV,,US,+1 304-428-4065,https://locations.tacobell.com/wv/parkersburg/300-gihon-village.html,Mo-Su 07:00-03:00,Taco Bell,Q752941
https://locations.tacobell.com/#25607310,taco_bell,Taco Bell,,Parkersburg,WV,,US,+1 681-326-0101,https://locations.tacobell.com/wv/parkersburg/1921-7th-street.html,Mo-Su 06:00-01:00,Taco Bell,Q752941
5RSD,tmobile_us,Pike Street,,Parkersburg,WV,,US,+1 304-489-3529,https://www.t-mobile.com/store-locator/wv/parkersburg/pike-street,,T-Mobile,Q3511885
821054,uhaul,U-Haul Moving & Storage of Southside,1420 Blizzard Dr,Parkersburg,WV,,US,+1 304-485-6220,,Mo-Th 00:00-19:00; Fr 00:00-20:00; Sa 00:00-19:00; Su 00:00-17:00,U-Haul,Q7862902
1437453,usps,FORT NEAL,,PARKERSBURG,WV,,US,+1 304-428-0992,,Mo-Tu 09:00-16:00; We 09:00-12:30; Th-Fr 09:00-16:00,United States Postal Service,Q668687
1381713,usps,SIMMONS,,PARKERSBURG,WV,,US,+1 304-485-8009,,Mo-Fr 08:00-17:00; Sa 10:00-12:00,United States Postal Service,Q668687
1473336,usps,PARKERSBURG CARRIER ANNEX,,PARKERSBURG,WV,,US,+1 304-485-7771,,,United States Postal Service,Q668687
1476194,usps,PARKERSBURG,,PARKERSBURG,WV,,US,+1 304-485-7771,,,United States Postal Service,Q668687
1365293,usps,GRAND CENTRAL MALL,,PARKERSBURG,WV,,US,+1 304-428-4778,,Tu 10:00-12:00; Fr 10:00-12:00,United States Postal Service,Q668687
2610100105,usps_collection_boxes,USPS COLLECTION BOX - PO LOBBY,230 GRAND CENTRAL MALL,PARKERSBURG,WV,,US,,,,United States Postal Service,Q668687
2610100021,usps_collection_boxes,USPS COLLECTION BOX - BLUE BOX,180 PARK CENTER DR,PARKERSBURG,WV,,US,,,,United States Postal Service,Q668687
2610100052,usps_collection_boxes,USPS COLLECTION BOX - BLUE BOX,600 18TH ST,PARKERSBURG,WV,,US,,,,United States Postal Service,Q668687
2610100032,usps_collection_boxes,USPS COLLECTION BOX - BLUE BOX,2007 7TH ST,PARKERSBURG,WV,,US,,,,United States Postal Service,Q668687
2610100087,usps_collection_boxes,USPS COLLECTION BOX - BLUE BOX,1050 MARKET ST,PARKERSBURG,WV,,US,,,,United States Postal Service,Q668687
2610100088,usps_collection_boxes,USPS COLLECTION BOX - BLUE BOX,1050 MARKET ST,PARKERSBURG,WV,,US,,,,United States Postal Service,Q668687
2610100090,usps_collection_boxes,USPS COLLECTION BOX - BLUE BOX,1050 MARKET ST,PARKERSBURG,WV,,US,,,,United States Postal Service,Q668687
2610100096,usps_collection_boxes,USPS COLLECTION BOX - BLUE BOX,1050 MARKET ST,PARKERSBURG,WV,,US,,,,United States Postal Service,Q668687
2610100106,usps_collection_boxes,USPS COLLECTION BOX - PO LOBBY,1050 MARKET ST,PARKERSBURG,WV,,US,,,,United States Postal Service,Q668687
2610100034,usps_collection_boxes,USPS COLLECTION BOX - BLUE BOX,800 GARFIELD AVE,PARKERSBURG,WV,,US,,,,United States Postal Service,Q668687
2610100017,usps_collection_boxes,USPS COLLECTION BOX - BLUE BOX,1210 13TH ST,PARKERSBURG,WV,,US,,,,United States Postal Service,Q668687
2610100001,usps_collection_boxes,USPS COLLECTION BOX - BLUE BOX,501 MARKET ST,PARKERSBURG,WV,,US,,,,United States Postal Service,Q668687
2610100009,usps_collection_boxes,USPS COLLECTION BOX - BLUE BOX,601 AVERY ST,PARKERSBURG,WV,,US,,,,United States Postal Service,Q668687
2610100049,usps_collection_boxes,USPS COLLECTION BOX - BLUE BOX,1 COURT SQ,PARKERSBURG,WV,,US,,,,United States Postal Service,Q668687
2610100071,usps_collection_boxes,USPS COLLECTION BOX - BLUE BOX,2 GOVERNMENT SQ,PARKERSBURG,WV,,US,,,,United States Postal Service,Q668687
2610100080,usps_collection_boxes,USPS COLLECTION BOX - BLUE BOX,100 STAR AVE,PARKERSBURG,WV,,US,,,,United States Postal Service,Q668687
2610100018,usps_collection_boxes,USPS COLLECTION BOX - BLUE BOX,806 NEAL ST,PARKERSBURG,WV,,US,,,,United States Postal Service,Q668687
2610100019,usps_collection_boxes,USPS COLLECTION BOX - BLUE BOX,806 NEAL ST,PARKERSBURG,WV,,US,,,,United States Postal Service,Q668687
2610100104,usps_collection_boxes,USPS COLLECTION BOX - PO LOBBY,806 NEAL ST,PARKERSBURG,WV,,US,,,,United States Postal Service,Q668687
2610100044,usps_collection_boxes,USPS COLLECTION BOX - BLUE BOX,1050 DIVISION ST,PARKERSBURG,WV,,US,,,,United States Postal Service,Q668687
2610100093,usps_collection_boxes,USPS COLLECTION BOX - BLUE BOX,400 RAYON DR,PARKERSBURG,WV,,US,,,,United States Postal Service,Q668687
2610100042,usps_collection_boxes,USPS COLLECTION BOX - BLUE BOX,100 GIHON VLG,PARKERSBURG,WV,,US,,,,United States Postal Service,Q668687
2610100041,usps_collection_boxes,USPS COLLECTION BOX - BLUE BOX,100 GIHON VLG,PARKERSBURG,WV,,US,,,,United States Postal Service,Q668687
A00000253480,verizon_us,Victra Parkersburg,,Parkersburg,WV,,US,+1 304-699-4846,https://www.verizon.com/stores/details/west-virginia/parkersburg/victra-parkersburg-1641722/,Mo-Fr 09:00-20:00; Sa 10:00-20:00; Su 11:00-19:00,Verizon,Q919641
,visa,,,DANIELS,WV,,US,,,,,
,visa,,,PARKERSBURG,WV,,US,,,,,
,visa,,,PARKERSBURG,WV,,US,,,,,
,visa,,,PARKERSBURG,WV,,US,,,,,
,visa,,,PARKERSBURG,WV,,US,,,,,
,visa,,,PARKERSBURG,WV,,US,,,,,
,visa,,,PARKERSBURG,WV,,US,,,,,
,visa,,,PARKERSBURG,WV,,US,,,,,
,visa,,,PARKERSBURG,WV,,US,,,,,
,visa,,,PARKERSBURG,WV,,US,,,,,
,visa,,,PARKERSBURG,WV,,US,,,,,
,visa,,,PARKERSBURG,WV,,US,,,,,
,visa,,,PARKERSBURG,WV,,US,,,,,
,visa,,,PARKERSBURG,WV,,US,,,,,
,visa,,,PARKERSBURG,WV,,US,,,,,
,visa,,,PARKERSBURG,WV,,US,,,,,
,visa,,,PARKERSBURG,WV,,US,,,,,
,visa,,,PARKERSBURG,WV,,US,,,,,
,visa,,,PARKERSBURG,WV,,US,,,,,
,visa,,,PARKERSBURG,WV,,US,,,,,
,visa,,,PARKERSBURG,WV,,US,,,,,
,visa,,,PARKERSBURG,WV,,US,,,,,
,visa,,,PARKERSBURG,WV,,US,,,,,
,visa,,,PARKERSBURG,WV,,US,,,,,
,visa,,,VIENNA,WV,,US,,,,,
,visa,,,PARKERSBURG,WV,,US,,,,,
,visa,,,PARKERSBURG,WV,,US,,,,,
,visa,,,PARKERSBURG,WV,,US,,,,,
,visa,,,PARKERSBURG,WV,,US,,,,,
,visa,,,PARKERSBURG,WV,,US,,,,,
,visa,,,PARKERSBURG,WV,,US,,,,,
,visa,,,PARKERSBURG,WV,,US,,,,,
,visa,,,PARKERSBURG,WV,,US,,,,,
,visa,,,PARKERSBURG,WV,,US,,,,,
,visa,,,PARKERBURG,WV,,US,,,,,
,visa,,,PARKERSBURG,WV,,US,,,,,
,visa,,,PARKERSBURG,WV,,US,,,,,
,visa,,,PARKERSBURG,WV,,US,,,,,
,visa,,,PARKERSBURG,WV,,US,,,,,
,visa,,,PARKERSBURG,WV,,US,,,,,
,visa,,,PARKERSBURG,WV,,US,,,,,
,visa,,,PARKERSBURG,WV,,US,,,,,
,visa,,,PARKERSBURG,WV,,US,,,,,
,visa,,,PARKERSBERG,WV,,US,,,,,
,visa,,,PARKERSBURG,WV,,US,,,,,
,visa,,,PARKERSBURG,WV,,US,,,,,
,visa,,,PARKERSBURG,WV,,US,,,,,
,visa,,,PARKERSBURG,WV,,US,,,,,
,visa,,,PARKERSBURG,WV,,US,,,,,
,visa,,,PARKERSBURG,WV,,US,,,,,
,visa,,,PARKERSBURG,WV,,US,,,,,
,visa,,,PARKERSBURG,WV,,US,,,,,
,visa,,,PARKERSBURG,WV,,US,,,,,
,visa,,,PARKERSVILLE,WV,,US,,,,,
,visa,,,PARKERSBURG,WV,,US,,,,,
,visa,,,PARKERSBURG,WV,,US,,,,,
,visa,,,PARKERSBURG,WV,,US,,,,,
,visa,,,PARKERSBURG,WV,,US,,,,,
,visa,,,PARKERSBURG,WV,,US,,,,,
,visa,,,PARKERSBURG,WV,,US,,,,,
,visa,,,PARKERSBURG,WV,,US,,,,,
,visa,,,PARKERSBURG,WV,,US,,,,,
,visa,,,PARKERSBURG,WV,,US,,,,,
,visa,,,PARKERSBURG,WV,,US,,,,,
,visa,,,PARKERSBURG,WV,,US,,,,,
,visa,,,WASHINGTON,WV,,US,,,,,
,visa,,,PARKERSBURG,WV,,US,,,,,
,visa,,,PARKERSBURG,WV,,US,,,,,
,visa,,,PARKERSBURG,WV,,US,,,,,
,visa,,,PARKERSBURG,WV,,US,,,,,
,visa,,,PARKERSBURG,WV,,US,,,,,
,visa,,,PARKERSBURG,WV,,US,,,,,
,visa,,,PARKERSBURG,WV,,US,,,,,
,visa,,,PARKERSBURG,WV,,US,,,,,
,visa,,,PARKERSBURG,WV,,US,,,,,
,visa,,,PARKERSBURG,WV,,US,,,,,
,visa,,,PARKERSBURG,WV,,US,,,,,
,visa,,,PARKERSBURG,WV,,US,,,,,
,visa,,,PARKERSBURG,WV,,US,,,,,
,visa,,,PARKERSBURG,WV,,US,,,,,
,visa,,,PARKERSBURG,WV,,US,,,,,
,visa,,,PARKERSBURG,WV,,US,,,,,
,visa,,,PARKERSBURG,WV,,US,,,,,
,visa,,,PARKERSBURG,WV,,US,,,,,
,visa,,,PARKERSBURG,WV,,US,,,,,
,visa,,,PARKERSBURG,WV,,US,,,,,
,visa,,,PARKERSBURG,WV,,US,,,,,
,visa,,,PARKERSBURG,WV,,US,,,,,
,visa,,,PARKERSBURG,WV,,US,,,,,
,visa,,,PARKERSBURG,WV,,US,,,,,
,visa,,,PARKERSBURG,WV,,US,,,,,
,visa,,,PARKERSBURG,WV,,US,,,,,
,visa,,,PARKERSBURG,WV,,US,,,,,
,visa,,,PARKERSBURG,WV,,US,,,,,
,visa,,,PARKERSBURG,WV,,US,,,,,
,visa,,,PARKERSBURG,WV,,US,,,,,
,visa,,,PARKERSBURG,WV,,US,,,,,
,visa,,,PARKERSBURG,WV,,US,,,,,
,visa,,,PARKERSBURG,WV,,US,,,,,
,visa,,,VIENNA,WV,,US,,,,,
,visa,,,PARKERSBURG,WV,,US,,,,,
,visa,,,PARKERSBURG,WV,,US,,,,,
,visa,,,PARKERSBURG,WV,,US,,,,,
,visa,,,PARKERSBURG,WV,,US,,,,,
,visa,,,PARKERSBURG,WV,,US,,,,,
,visa,,,CHARLESTON,WV,,US,,,,,
,visa,,,PARKERSBURG,WV,,US,,,,,
,visa,,,PARKERSBURG,WV,,US,,,,,
,visa,,,PARKERSBURG,WV,,US,,,,,
,visa,,,PARKERSBURG,WV,,US,,,,,
,visa,,,PARKERSBURG,WV,,US,,,,,
,visa,,,PARKERSBURG,WV,,US,,,,,
,visa,,,PARKERSBURG,WV,,US,,,,,
,visa,,,PARKERSBURG,WV,,US,,,,,
,visa,,,PARKERSBURG,WV,,US,,,,,
,visa,,,PARKERSBURG,WV,,US,,,,,
,visa,,,PARKERSBURG,WV,,US,,,,,
,visa,,,PARKERSBURG,WV,,US,,,,,
,visa,,,PARKERSBURG,WV,,US,,,,,
,visa,,,PARKERSBURG,WV,,US,,,,,
,visa,,,PARKERSBURG,WV,,US,,,,,
,visa,,,PARKERSBURG,WV,,US,,,,,
,visa,,,PARKERSBURG,WV,,US,,,,,
,visa,,,PARKERSBURG,WV,,US,,,,,
,visa,,,PARKERSBURG,WV,,US,,,,,
,visa,,,PARKERSBURG,WV,,US,,,,,
,visa,,,PARKERSBURG,WV,,US,,,,,
,visa,,,PARKERSBURG,WV,,US,,,,,
,visa,,,PARKERSBURG,WV,,US,,,,,
,visa,,,PARKERSBURG,WV,,US,,,,,
,visa,,,PARKERSBURG,WV,,US,,,,,
,visa,,,PARKERSBURG,WV,,US,,,,,
,visa,,,PARKERSBURG,WV,,US,,,,,
,visa,,,PARKERSBURG,WV,,US,,,,,
,visa,,,PARKERSBURG,WV,,US,,,,,
,visa,,,PARKERSBURG,WV,,US,,,,,
,visa,,,PARKERSBURG,WV,,US,,,,,
,visa,,,PARKERSBURG,WV,,US,,,,,
,visa,,,PARKERSBURG,WV,,US,,,,,
,visa,,,PARKERSBURG,WV,,US,,,,,
,visa,,,CEREDO,WV,,US,,,,,
https://www.walgreens.com/locator/walgreens-2211+pike+stree-parkersburg-wv-26101/id=17335,walgreens,Walgreens,,Parkersburg,WV,,US,+1 304-485-5517,https://www.walgreens.com/locator/walgreens-2211+pike+stree-parkersburg-wv-26101/id=17335,Mo-Fr 09:00-21:00; Sa 09:00-18:00; Su 00:00-24:00,Walgreens,Q1591889
https://locations.wendys.com/#9254804,wendys,"Wendy's South in Parkersburg, WV",,Parkersburg,WV,,US,+1 304-428-5911,https://locations.wendys.com/united-states/wv/parkersburg/2602-gihon-road,"Mo-Su 06:30-10:30,07:00-22:00",Wendy's,Q550258
https://locations.wendys.com/#9254803,wendys,"Wendy's Park in Parkersburg, WV",,Parkersburg,WV,,US,+1 304-485-4112,https://locations.wendys.com/united-states/wv/parkersburg/1603-7th-street,"Mo-Su 06:30-10:30,07:00-22:00",Wendy's,Q550258
d81ae3f82479d9c23f7b9377eda04f8e,western_union,WALMART #002823,,Parkersburg,WV,,US,+1 304-489-1905,https://location.westernunion.com/us/wv/parkersburg/d81ae3f82479d9c23f7b9377eda04f8e,Mo-Su 07:00-21:00,Western Union,Q861042
