Ref,Spider,Name,Address,City,State,Zipcode,Country,Phone,Website,Hours,Brand,WikiData
690,aaa,Boise Branch,,Boise,ID,,US,+1 208-342-9391,,,American Automobile Association,Q463436
https://local.pharmacy.albertsons.com/#5672490,albertsons,Albertsons Pharmacy,,Boise,ID,,US,+1 208-375-8278,https://local.pharmacy.albertsons.com/id/boise/1520-n-cole-rd.html,Mo-Fr 09:00-20:00; Sa 09:00-17:00; Su 10:00-17:00,Albertsons,Q2831861
https://local.albertsons.com/#5603190,albertsons,Albertsons,,Boise,ID,,US,+1 208-375-2542,https://local.albertsons.com/id/boise/1520-n-cole-rd.html,"Mo-Fr 07:00-22:00,09:00-20:00; Sa 07:00-22:00,09:00-17:00; Su 07:00-22:00,10:00-17:00",Albertsons,Q2831861
https://storelocations.ae.com/#1725725,american_eagle_outfitters,American Eagle Store Boise Towne Square,,Boise,ID,,US,+1 208-658-6250,https://storelocations.ae.com/us/id/boise/350-milwaukee.html,Mo-Th 11:00-19:00; Fr-Sa 11:00-20:00; Su 11:00-18:00,American Eagle Store,Q2842931
R303,apple,Apple Boise Towne Square,,Boise,ID,,US,+1 208-377-6500,https://www.apple.com/retail/boisetownesquare,Mo-Th 11:00-19:00; Fr-Sa 11:00-20:00; Su 11:00-18:00,Apple,Q421253
https://restaurants.applebees.com/en-us/id/boise/7845-west-emerald-84079,applebees,Connect with this Applebee's,,Boise,ID,,US,+1 208-378-1890,https://restaurants.applebees.com/en-us/id/boise/7845-west-emerald-84079,Mo-Su 11:00-24:00,Applebees,Q621532
https://locations.arbys.com/id/boise/989-n-milwaukee.html,arbys_us,"Arby's Fast-Food Drive Through Near You in Boise, ID",,Boise,ID,,US,+1 208-672-8807,https://locations.arbys.com/id/boise/989-n-milwaukee.html,Mo-Th 09:30-23:00; Fr-Sa 09:30-23:30; Su 09:30-23:00,Arby's,Q630866
332911,asics_us,Al's Sporting Goods,1301 N. Milwaukee St,Boise,ID,,US,+1 435-210-5356,,Mo-Sa 09:00-21:00,asics,Q327247
12249,asics_us,DICK'S Sporting Goods  - Boise,131 N Milwaukee St,Boise,ID,,US,+1 208-999-3475,,Mo-Sa 09:00-21:00; Su 10:00-19:00,asics,Q327247
34208,asics_us,Tradehome Shoes ,350 N Milwaukee St,Boise,ID,,US,+1 208-321-2771,,Mo-Sa 10:00-21:00; Su 11:00-19:00,asics,Q327247
11037,asics_us,REI - Boise,8300 Emerald St,Boise,ID,,US,+1 208-322-1141,,Mo-Fr 10:00-20:00; Sa 10:00-19:00; Su 10:00-18:00,asics,Q327247
23075,asics_us,Finish Line,370 North Milwaukee,Boise,ID,,US,+1 208-323-6774,,,asics,Q327247
1185,autozone_us,AutoZone Auto Parts Boise,,Boise,ID,,US,+1 208-378-8338,https://www.autozone.com/locations/id/boise/9707-w-fairview-ave.html,Mo-Sa 07:30-21:00; Su 09:00-20:00,AutoZone,Q4826087
https://bananarepublic.gap.com/stores/id/boise/banana-republic-8486.html,bananarepublic,Banana Republic,,Boise,ID,,US,+1 208-321-0995,https://bananarepublic.gap.com/stores/id/boise/banana-republic-8486.html,Mo-Th 11:00-19:00; Fr-Sa 11:00-20:00; Su 11:00-18:00,Banana Republic,Q806085
https://www.banfield.com/locations/veterinarians/id/boise/boi,banfield_pet_hospital,Boise,,Boise,ID,,US,+1 208-321-2621,https://www.banfield.com/locations/veterinarians/id/boise/boi,Mo-Sa 08:00-18:00; Su 00:00-24:00,Banfield Pet Hospital,Q2882416
BBW00421,bathandbodyworks_us,BOISE MALL,,BOISE,ID,,US,+1 208-375-7755,,Mo-Th 11:00-19:00; Fr-Sa 11:00-20:00; Su 11:00-18:00,Bath & Body Works,Q810773
150905,bluerhino,Walgreens #5184,,Boise,ID,,US,+1 208-377-4166,,,Blue Rhino,Q65681213
218731,bluerhino,WinCo Foods #6 - Boise-Fairview,,Boise,ID,,US,+1 208-377-9840,,,Blue Rhino,Q65681213
150906,bluerhino,Walgreens #4942,,Boise,ID,,US,+1 208-375-7899,,,Blue Rhino,Q65681213
TGD20040,bmo,Target,,Boise,ID,,US,,,,BMO,Q4835981
11010_01,bmw_group,Peterson BMW of Boise,,Boise,ID,,US,+1 208-378-5980,https://www.petersonbmw.net,,BMW,Q26678
1953,bricks_minifigs_ca_us,Idaho &#8211; Boise,10150 W. Fairview Ave,Boise,ID,,US,+1 208-377-4386,https://bricksandminifigs.com/boise-id/,,Bricks & Minifigs,Q109329121
https://local.buckle.com/id/boise/clothing-231.html,buckle_us,Boise Men’s & Women’s Clothing,,Boise,ID,,US,+1 208-376-3230,https://local.buckle.com/id/boise/clothing-231.html,Mo-Th 10:00-19:00; Fr-Sa 10:00-20:00; Su 11:00-18:00,Buckle,Q4983306
159,burlington_us,Burlington,,Boise,ID,,US,+1 208-323-0452,https://stores.burlington.com/id/boise/159,Mo-Th 09:00-23:30; Fr-Sa 09:00-23:00; Su 09:00-22:00,Burlington,Q4999220
52,cafe_zupas,Boise Mall,,Boise,ID,,US,+1 208-319-1295,https://cafezupas.com/locationcopy/info/boise-mall,Mo-Th 10:00-21:00; Fr-Sa 10:00-22:00,Café Zupas,Q123687995
2038266,chase_us,Boise Towne Square - New branch,,Boise,ID,,US,+1 208-373-3300,https://locator.chase.com/id/boise/373-n-milwaukee-st,Mo-Fr 09:00-17:00,Chase,Q524629
id_boise_205-n-milwaukee-st,chipotle, ,,Boise,ID,,US,+1 208-376-3433,https://locations.chipotle.com/id/boise/205-n-milwaukee-st,,Chipotle,Q465751
https://locations.chuckecheese.com/us/id/boise/6255-fairview-ave.,chuckecheese,Chuck E. Cheese,,Boise,ID,,US,+1 208-322-1833,https://locations.chuckecheese.com/us/id/boise/6255-fairview-ave.,Mo-Fr 11:00-21:00; Sa 10:00-21:00; Su 11:00-21:00,Chuck E. Cheese,Q2438391
91425,citi,ATM Walgreens,,Boise,ID,,US,,,,Citibank,Q857063
93935,citi,ATM WASHINGTON FEDERAL BANK,,Boise,ID,,US,,,,Citibank,Q857063
93936,citi,ATM WASHINGTON FEDERAL BANK,,Boise,ID,,US,,,,Citibank,Q857063
82892,citi,ATM Target,,Boise,ID,,US,,,,Citibank,Q857063
93050,citi,ATM Walgreens,,Boise,ID,,US,,,,Citibank,Q857063
52674,citi,ATM CVS,,Boise,ID,,US,,,,Citibank,Q857063
53927,citi,ATM DL EVANS BANK,,Boise,ID,,US,,,,Citibank,Q857063
65786,citi,ATM MOUNTAIN AMERICA CU,,Boise,ID,,US,,,,Citibank,Q857063
86541,citi,ATM Walgreens,,Boise,ID,,US,,,,Citibank,Q857063
93902,citi,ATM WASHINGTON FEDERAL BANK,,Boise,ID,,US,,,,Citibank,Q857063
boise/5729,claires,Shop Ear Piercings & Jewelry at Boise Town Square,,BOISE,ID,,US,+1 208-376-0080,https://stores.claires.com/us/id/boise/5729.html,Mo-Th 11:00-19:00; Fr-Sa 11:00-20:00; Su 11:00-18:00,Claire's,Q2974996
https://www.coach.com/stores/#17277380,coach_us,COACH,,Boise,ID,,US,+1 208-314-9059,https://www.coach.com/stores/id/boise/350-north-milwaukee,Mo-Th 11:00-19:00; Fr 11:00-20:00; Sa 10:00-21:00; Su 11:00-18:00,Coach,Q727697
,credit_union_us,Connections CU,,Boise,ID,,US,+1 208-233-5544,,Mo-Fr 09:00-05:30,,
80155201,cricket_wireless,Cricket Wireless Authorized Retailer,,Boise,ID,,US,+1 208-579-2422,https://www.cricketwireless.com/stores/ll/US/ID/Boise/489-N-Milwaukee-St,Mo-Sa 10:00-20:00; Su 23:00-17:00,Cricket Wireless,Q5184987
11169,cvs_us,CVS Pharmacy,,Boise,ID,,US,+1 208-375-4670,https://www.cvs.com/store-locator/boise-id-pharmacies/7402-west-fairview-ave-boise-id-83704/storeid=11169,Mo-Su 08:00-21:00,CVS Pharmacy,Q2078880
1202,dickssportinggoods,"DICK'S Sporting Goods Store in Boise, ID | 1202",,Boise,ID,,US,+1 208-999-3475,https://stores.dickssportinggoods.com/id/boise/1202/,Mo-Sa 09:00-21:00; Su 10:00-19:00,Dick's Sporting Goods,Q5272601
0934,dillards,"Dillard's Boise Towne Square in Boise, Idaho",,Boise,ID,,US,+1 208-321-4646,https://www.dillards.com/stores/idaho/boise-towne-square-boise/0934,Mo-Sa 11:00-20:00; Su 12:00-18:00,Dillard's,Q844805
7302,dominos_pizza_us,Domino's Pizza,,Boise,ID,,US,+1 208-377-5201,https://pizza.dominos.com/idaho/boise/10396-fairview-ave,Mo-Th 10:00-24:00; Fr-Sa 10:00-01:00; Su 10:00-24:00,Domino's,Q839466
DB200,dutchbros,"Boise, ID (Milwaukee)",,Boise,ID,,US,,https://locations.dutchbros.com/dutch-bros-coffee-9b62575f4554,Mo-Th 05:00-00:00; Fr-Sa 05:00-01:00; Su 05:00-00:00,Dutch Bros. Coffee,Q5317253
https://www.edwardjones.com/us-en/financial-advisor/amy-flohr,edwardjones,Amy Flohr,,Boise,ID,,US,+1 208-322-1626,https://www.edwardjones.com/us-en/financial-advisor/amy-flohr,Mo-Th 08:00-17:00; Fr 08:00-16:00,Edward Jones,Q5343830
E14735,enterprise,Boise W. Fairview Ave.,,Boise,ID,,US,+1 208-321-7936,,,Enterprise Rent-A-Car,Q17085454
0740,european_wax_center_us,European Wax Center,,Boise,ID,,US,+1 208-322-6484,https://locations.waxcenter.com/id/boise/boise-0740.html,Mo-Fr 08:30-20:00; Sa 08:30-17:00; Su 09:30-16:00,European Wax Center,Q5413426
350-north-milwaukee,express,Boise,,Boise,ID,,US,+1 208-322-7280,https://stores.express.com/us/id/boise/350-north-milwaukee,Mo-Th 11:00-19:00; Fr-Sa 11:00-20:00; Su 11:00-18:00,Express,Q1384784
https://local.fedex.com/#25198714,fedex,,,Boise,ID,,US,+1 800-463-3339,https://local.fedex.com/en-us/id/boise/mkvz7,,FedEx,Q459477
https://local.fedex.com/#25201476,fedex,,,Boise,ID,,US,+1 800-463-3339,https://local.fedex.com/en-us/id/boise/mkh51,,FedEx,Q459477
19631,firestone_auto_care,Firestone Complete Auto Care,,Boise,ID,,US,+1 208-258-3062,https://local.firestonecompleteautocare.com/idaho/boise/6690-w-fairview-ave/,,Firestone,Q420837
https://restaurants.fiveguys.com/#15552615,five_guys_us,Five Guys Fairview,,Boise,ID,,US,+1 208-658-4930,https://restaurants.fiveguys.com/1587-n-milwaukee-st,"Mo-Su 11:00-21:30,11:00-22:00",Five Guys,Q1131810
https://stores.footlocker.com/id/boise/350-north-milwaukee-street-10443.html,footlocker,"Foot Locker in Boise: Boise, Idaho | Approved | Own It",,Boise,ID,,US,+1 208-375-3538,https://stores.footlocker.com/id/boise/350-north-milwaukee-street-10443.html,Mo-Th 11:00-19:00; Fr-Sa 11:00-20:00; Su 11:00-18:00,Foot Locker,Q63335
Motorcraft4571USAEnglish,ford,Factory Motor Parts,,Idaho,ID,,US,+1 651-454-4100,,,Ford,Q44294
Motorcraft4576USAEnglish,ford,Lithia Ford Lincoln of Boise,,Idaho,ID,,US,+1 208-342-6811,,,Ford,Q44294
https://www.ford.com/dealerships/dealer-details/id/boise/lithia-ford-of-boise/,ford_dealers_us,Lithia Ford of Boise,,Boise,ID,,US,+1 208-914-6633,https://www.ford.com/dealerships/dealer-details/id/boise/lithia-ford-of-boise/,Mo-Fr 09:00-20:00; Sa 08:30-20:00; Su 11:00-18:00,Ford Motor Company,Q44294
https://locations.forever21.com/#35646922,forever21_us,Boise Towne Square,,Boise,ID,,US,+1 208-803-3534,https://locations.forever21.com/us/stores/id/boise/350-n-milwaukee,Mo-Th 10:00-19:00; Fr-Sa 10:00-20:00; Su 11:00-18:00,Forever 21,Q1060537
8402,fossil,Fossil,,Boise,ID,,US,+1 208-994-6995,,Mo-Th 10:00-19:00; Fr-Sa 10:00-20:00; Su 11:00-18:00,Fossil,Q356212
1156,gamestop_us,Boise Town Square,,Boise,ID,,US,+1 208-378-7310,https://www.gamestop.com/search/?store=1156,Mo-Th 11:00-19:00; Fr-Sa 11:00-20:00; Su 11:00-18:00,GameStop,Q202210
https://stores.gnc.com/#24058159,gnc,GNC Boise Towne Square,,,ID,,US,+1 208-376-2804,https://stores.gnc.com/all-stores-idaho/boise/350-north-milwaukee-st,Mo-Th 11:00-19:00; Fr-Sa 11:00-20:00; Su 11:00-18:00,GNC,Q4808595
https://www.goldencorral.com/locations/location-detail/692/golden-corral-west-emerald-street/,golden_corral,"Golden Corral 692, Boise, ID",,Boise,ID,,US,+1 208-373-7118,https://www.goldencorral.com/locations/location-detail/692/golden-corral-west-emerald-street/,,Golden Corral,Q4039560
https://www.harborfreight.com/storelocator/10296-fairview-ave-boise-83704?number=54,harborfreight,"Harbor Freight Tools Boise, ID",,Boise,ID,,US,+1 208-376-8989,https://www.harborfreight.com/storelocator/10296-fairview-ave-boise-83704?number=54,Mo-Sa 08:00-20:00; Su 09:00-18:00,Harbor Freight Tools,Q5654601
0204,helzberg_diamonds,Helzberg Diamonds,,Boise,ID,,US,+1 208-658-6485,https://www.helzberg.com/store?storeId=0204,Mo-Th 11:00-19:00; Fr-Sa 11:00-20:00; Su 11:00-18:00,Helzberg Diamonds,Q16995161
US0295,hm,Boise Town Square,,Boise,ID,,US,+1 855-466-7467,,Mo-Th 11:00-19:00; Fr-Sa 11:00-20:00; Su 11:00-18:00,H&M,Q188326
1735,honey_baked,HoneyBaked of Boise,,Boise,ID,,US,+1 208-296-7999,https://www.honeybaked.com/stores/1735,,Honey Baked Ham,Q5893363
12423,h_r_block,H&R Block,,Boise,ID,,US,+1 208-321-1844,https://www.hrblock.com/local-tax-offices/idaho/boise/fairview/12423/,,H&R Block,Q5627799
id_boise_breakfast-7959-w-emerald-st-1771,ihop,IHOP Breakfast Restaurants Near You at 7959 W Emerald St,,Boise,ID,,US,+1 208-322-4467,https://restaurants.ihop.com/en-us/id/boise/breakfast-7959-w-emerald-st-1771,,IHOP,Q1185675
https://locations.jackinthebox.com/us/id/boise/3220-n-cole-rd,jackinthebox,Jack in the Box,,Boise,ID,,US,+1 208-322-5005,https://locations.jackinthebox.com/us/id/boise/3220-n-cole-rd,Mo-Su 04:00-04:00,Jack in the Box,Q1538507
https://locations.jackinthebox.com/us/id/boise/9052-w-fairview-ave,jackinthebox,Jack in the Box,,Boise,ID,,US,+1 208-377-9113,https://locations.jackinthebox.com/us/id/boise/9052-w-fairview-ave,Mo-Su 04:00-04:00,Jack in the Box,Q1538507
https://office.jacksonhewitt.com/#27577042,jackson_hewitt,Jackson Hewitt,,Boise,ID,,US,+1 208-321-1040,https://office.jacksonhewitt.com/tax-preparation-services-locations/en/id/boise/8812-fairview-ave/13114,Mo-Sa 11:00-19:00; Su 12:00-16:00,Jackson Hewitt,Q6117132
https://locations.jamba.com/#1576-Jamba,jambajuice,Jamba Boise Towne Square,,Boise,ID,,US,+1 208-488-4535,https://locations.jamba.com/id/boise/350-n-milwaukee-st,Mo-Th 10:00-19:00; Fr-Sa 10:00-20:00; Su 11:00-18:00,Jamba Juice,Q3088784
https://locations.jimmyjohns.com/id/boise/sandwiches-1568.html,jimmy_johns,Jimmy John's,,Boise,ID,,US,+1 208-955-0525,https://locations.jimmyjohns.com/id/boise/sandwiches-1568.html,,Jimmy John's,Q1689380
https://stores.factory.jcrew.com/#1975197,j_crew_us,J.Crew Factory,,Boise,ID,,US,+1 208-323-8827,https://stores.factory.jcrew.com/us/id/boise/350-n-milwaukee,Mo-Sa 11:00-19:00; Su 11:00-18:00,J. Crew,Q5370765
1441,kohls_us,Kohl's,,Boise,ID,,US,+1 208-321-4506,https://www.kohls.com/stores/id/boise-1441.shtml,Mo-Th 09:00-20:00; Fr-Sa 09:00-21:00; Su 09:00-20:00,Kohl's,Q967265
97404,little_free_library,Aster Place Little Free Library #97404 Boise ID,,Boise,ID,,US,,,,Little Free Library,Q6650101
100109,little_free_library,Summerwind Little Free Library #100109 Boise ID,,Boise,ID,,US,,,,Little Free Library,Q6650101
124157,little_free_library,Susan Stumph #124157 Boise ID,,Boise,ID,,US,,,,Little Free Library,Q6650101
102119,little_free_library,Belmont Park HOA #102119 Boise ID,,Boise,ID,,US,,,,Little Free Library,Q6650101
149676,little_free_library,Sherry Johnson #149676 Boise ID,,Boise,ID,,US,,,,Little Free Library,Q6650101
145758,little_free_library,The Meadows HOA #145758 Boise ID,,Boise,ID,,US,,,,Little Free Library,Q6650101
75589,little_free_library,Wood Family #75589 Boise ID,,Boise,ID,,US,,,,Little Free Library,Q6650101
107487,little_free_library,The Giving Box #107487 Boise ID,,Boise,ID,,US,,,,Little Free Library,Q6650101
131254,little_free_library,BCBAB Little Free Library! #131254 Boise ID,,Boise,ID,,US,,,,Little Free Library,Q6650101
115874,little_free_library,Susan Norton #115874 Boise ID,,Boise,ID,,US,,,,Little Free Library,Q6650101
134643,little_free_library,Rory’s Little Free Library #134643 Boise ID,,Boise,ID,,US,,,,Little Free Library,Q6650101
47851,little_free_library,Chris DaMour #47851 Boise ID,,Boise,ID,,US,,,,Little Free Library,Q6650101
51505,lovisa,Lovisa,,Boise,ID,,US,+1 208-593-2070,,,Lovisa,Q106298409
Boise Town Square,lululemon,Lululemon,"350 North Milwaukee, Space 1025, Boise, ID, US, 83704",Boise,ID,,US,+1 208-997-4115,https://shop.lululemon.com/stores/us/boise/boise-town-square,Mo-Th 10:00-19:00; Fr-Sa 10:00-20:00; Su 11:00-18:00,Lululemon,Q6702957
BOIFW,marriott,Fairfield Inn & Suites Boise West,,Boise,ID,,US,+1 208-378-4044,https://www.marriott.com/BOIFW,,Fairfield by Marriott,Q5430314
BOIRI,marriott,Residence Inn Boise West,,Boise,ID,,US,+1 208-385-9000,https://www.marriott.com/BOIRI,,Residence Inn by Marriott,Q7315394
18008,mattress_firm_us,Mattress Firm Boise Cole Road,,Boise,ID,,US,+1 208-246-8606,https://www.mattressfirm.com/en-us/stores/id/boise/082008/,,Mattress Firm,Q6791878
https://locations.maurices.com/#64586389,maurices,evsie Boise Towne Square Sp 2153,,Boise,ID,,US,+1 208-900-4338,https://locations.maurices.com/us/id/boise/350-n-milwaukee-st,Mo-Th 11:00-19:00; Fr 11:00-20:00; Sa 10:00-20:00; Su 11:00-18:00,maurices,Q6793571
https://locations.maurices.com/#11688846,maurices,maurices Boise Town Square,,Boise,ID,,US,+1 208-322-1768,https://locations.maurices.com/us/id/boise/350-n-milwaukee,Mo-Th 11:00-19:00; Fr-Sa 11:00-20:00; Su 11:00-18:00,maurices,Q6793571
https://locations.modpizza.com/#23558036,modpizza,MOD Pizza Boise Town Square,,Boise,ID,,US,+1 208-314-5394,https://locations.modpizza.com/usa/id/boise/600-n-milwaukee-st,Mo-Th 10:30-22:00; Fr-Sa 10:30-23:00; Su 10:30-22:00,MOD Pizza,Q19903469
71859442,moneygram,CVS - #11169,,BOISE,ID,,US,+1 208-375-4670,,Mo-Su 08:00-22:00,MoneyGram,Q1944412
https://www.naturalgrocers.com/store/boise,natural_grocers_us,Boise,,Boise,ID,,US,,https://www.naturalgrocers.com/store/boise,Mo-Sa 08:57-20:36; Su 08:57-19:36,Natural Grocers,Q17146520
NNA2150,nissan_europe,DENNIS DILLON NISSAN,,BOISE,ID,,US,+1 208-388-4400,https://www.dennisdillonnissan.com,Mo-Fr 09:00-20:00; Sa 09:00-19:00; Su 11:00-18:00,Nissan,Q20165
https://locations.noodles.com/id/boise/535-n--milwaukee.html,noodles_and_company_us,Noodles & Company Boise Mall,,Boise,ID,,US,+1 208-375-5022,https://locations.noodles.com/id/boise/535-n--milwaukee.html,Mo-Th 10:30-21:00; Fr-Su 10:30-22:00,Noodles and Company,Q7049673
https://stores.nordstromrack.com/#9398287,nordstrom_rack,Nordstrom Rack  Boise Towne Square Boise,,Boise,ID,,US,+1 208-321-4040,https://stores.nordstromrack.com/us/id/boise/534-n-milwaukee-st,Mo-Sa 10:00-21:00; Su 11:00-19:00,Nordstrom Rack,Q21463374
33,old_chicago_us,Boise Mall,"350 N MILWAUKEE ST STE 1017, BOISE, ID 83704",BOISE,ID,,US,,https://oldchicago.com/locations/boise-mall,Mo-Su 11:00-00:00,Old Chicago,Q64411347
https://locations.oreillyauto.com/id/boise/check-engine-light-testing-3835.html,oreilly,Your Boise O'Reilly Auto Parts Store,,Boise,ID,,US,+1 208-672-1102,https://locations.oreillyauto.com/id/boise/check-engine-light-testing-3835.html,Mo-Sa 07:30-22:00; Su 08:00-20:00,O'Reilly Auto Parts,Q7071951
https://locations.oreillyauto.com/id/boise/wiper-installation-3835.html,oreilly,Your Boise O'Reilly Auto Parts Store,,Boise,ID,,US,+1 208-672-1102,https://locations.oreillyauto.com/id/boise/wiper-installation-3835.html,Mo-Sa 07:30-22:00; Su 08:00-20:00,O'Reilly Auto Parts,Q7071951
https://locations.oreillyauto.com/id/boise/battery-testing-3835.html,oreilly,Your Boise O'Reilly Auto Parts Store,,Boise,ID,,US,+1 208-672-1102,https://locations.oreillyauto.com/id/boise/battery-testing-3835.html,Mo-Sa 07:30-22:00; Su 08:00-20:00,O'Reilly Auto Parts,Q7071951
https://locations.oreillyauto.com/id/boise/autopartes-3835.html,oreilly,Tu tienda O'Reilly Auto Parts en Boise,,Boise,ID,,US,+1 208-672-1102,https://locations.oreillyauto.com/id/boise/autopartes-3835.html,Mo-Sa 07:30-22:00; Su 08:00-20:00,O'Reilly Auto Parts,Q7071951
111339,pandaexpress,W Franklin & N Cole - Level 2 JCPenny,,Boise,ID,,US,+1 208-323-8697,https://www.pandaexpress.com/locations/id/boise/350-n-milwaukee,Mo-Th 11:00-19:00; Fr-Sa 11:00-20:00; Su 11:00-18:00,Panda Express,Q1358690
https://locations.papamurphys.com/#15430648,papamurphys,Pizza Takeout & Delivery,,Boise,ID,,US,+1 208-658-1155,https://locations.papamurphys.com/id/boise/6887-w-fairview-avenue,Mo-Su 10:00-21:00,Papa Murphy's,Q7132349
https://stores.petco.com/#27959202,petco,Petco Boise,,Boise,ID,,US,+1 208-375-7971,https://stores.petco.com/id/boise/pet-supplies-boise-id-263.html,Mo-Sa 09:00-21:00; Su 10:00-19:00,Petco,Q7171798
id_boise_9050-ustick-rd,pizza_hut_us,9050 Ustick Rd,,Boise,ID,,US,+1 208-323-7731,https://locations.pizzahut.com/id/boise/9050-ustick-rd,,Pizza Hut,Q191615
restaurant_81868,popeyes_us_fr,Popeyes,"8840 W Fairview Ave Boise, Idaho 83704 - USA",Boise,ID,,US,+1 208-376-1266,https://www.popeyes.com/store-locator/store/restaurant_81868,Mo-Su 10:30-22:00,Popeyes,Q1330910
home-depot-1801-9744,ppgpaints,HOME DEPOT 1801,,"Boise, ",ID,,US,+1 208-375-1186,https://www.ppgpaints.com/store-locator/us/idaho/boise-paint-stores/home-depot-1801-9744,,PPG Paints,Q83891559
4029,rentacenter,Rent-A-Center,,Boise,ID,,US,+1 208-343-9400,https://locations.rentacenter.com/idaho/boise/1507-n-milwaukee-st/,Mo-Sa 10:00-18:00,Rent-A-Center,Q7313497
217,ross_dress_for_less_us,Boise,,Boise,ID,,US,+1 208-375-2280,,Mo-Th 09:00-22:00; Fr-Sa 09:00-22:30; Su 09:30-21:30,Ross Dress for Less,Q3442791
350-n-milwaukee-st,rue21,Boise Towne Square,,Boise,ID,,US,,https://stores.rue21.com/id/boise/350-n-milwaukee-st.html,Mo-Th 11:00-19:00; Fr-Sa 11:00-20:00; Su 11:00-18:00,rue21,Q7377762
1033,savers,Boise,,Boise,ID,,US,+1 208-377-2001,https://stores.savers.com/id/boise/savers-thrift-store-1033.html,Mo-Su 10:00-20:00,Savers,Q7428188
location-9203,sbarro,Boise Town Square,350 NORTH MILWAUKEE STREET,BOISE,ID,,US,,https://sbarro.com/locations/id/boise/boise-town-square/,,Sbarro,Q2589409
https://stations.sinclairoil.com/id/boise/3203-n-cole-rd,sinclair_us,Sinclair Gas Station,,Boise,ID,,US,+1 208-323-7299,https://stations.sinclairoil.com/id/boise/3203-n-cole-rd,24/7,Sinclair,Q1290900
8059-w-preece-drive,staples,"Staples Boise, ID",,Boise,ID,,US,,https://stores.staples.com/id/boise/8059-w-preece-drive,Mo-Fr 08:00-20:00; Sa 09:00-19:00; Su 11:00-17:00,Staples,Q785943
https://restaurants.subway.com/#14914281,subway,Subway,,Boise Ada,ID,,US,+1 208-322-3434,https://restaurants.subway.com/united-states/id/boise/6931-fairview-ave,Mo-Su 08:00-21:00,Subway,Q244457
https://restaurants.subway.com/#14910661,subway,Subway Cole Village Shopping Center,,Boise Ada,ID,,US,+1 208-322-3433,https://restaurants.subway.com/united-states/id/boise/3415-north-cole-road,Mo-Su 07:00-21:00,Subway,Q244457
https://restaurants.subway.com/#14911206,subway,Subway,,Boise Ada,ID,,US,+1 208-375-8525,https://restaurants.subway.com/united-states/id/boise/10715-fairview-ave,Mo-Sa 08:00-22:00; Su 09:00-21:00,Subway,Q244457
https://stores.sunglasshut.com/us/id/boise/370-n-milwaukee-st,sunglass_hut_1,Sunglass Hut at Macy's,,Boise,ID,,US,+1 208-322-0025,https://stores.sunglasshut.com/us/id/boise/370-n-milwaukee-st,Mo-Sa 10:00-21:00; Su 11:00-19:00,Sunglass Hut,Q136311
8139,supercuts,Village Shopping Center,10440 Fairview Ave,Boise,ID,,US,+1 208-322-1234,https://www.supercuts.com/checkin/8139,Mo-Sa 09:00-18:00; Su 09:00-17:00,Supercuts,Q7643239
https://locations.tacobell.com/#6142605,taco_bell,Taco Bell,,Boise,ID,,US,+1 208-378-4548,https://locations.tacobell.com/id/boise/6521-fairview-ave.html,Mo-Th 07:00-01:00; Sa 07:00-02:00; Su 07:00-01:00,Taco Bell,Q752941
6142,taco_time,Taco Time Store 6142,,Boise,ID,,US,+1 208-376-3281,https://www.tacotime.com/stores/6142,,Taco Time,Q7673969
8796423356439,thebodyshop,Boise Towne Square,,Boise,ID,,US,,https://www.thebodyshop.com/en-us/store-details/boise-towne-square/1569,,The Body Shop,Q837851
120,the_cheesecake_factory,Boise Towne Square,,Boise,ID,,US,+1 208-377-4466,https://locations.thecheesecakefactory.com/id/boise-120/,Mo-Th 11:00-22:00; Fr 11:00-23:00; Su 10:00-22:00,The Cheesecake Factory,Q1045842
289,tmobile_us,Milwaukee St - Westpark Plaza,,Boise,ID,,US,+1 208-375-3200,https://www.t-mobile.com/store-locator/id/boise/milwaukee-st-westpark-plaza,,T-Mobile,Q3511885
1548,tmobile_us,Boise Towne Square,,Boise,ID,,US,+1 208-321-4822,https://www.t-mobile.com/store-locator/id/boise/boise-towne-square,,T-Mobile,Q3511885
https://www.trekbikes.com/us/en_US/retail/boise/,trekbikes,Trek Bicycle Boise West,,Boise,ID,,US,+1 208-513-1412,https://www.trekbikes.com/us/en_US/retail/boise/,Tu-Sa 10:00-18:00; Su 12:00-17:00,Trek,Q1067617
1358614,usps,COLE VILLAGE,,BOISE,ID,,US,+1 208-376-8651,,Mo-Fr 08:30-17:00,United States Postal Service,Q668687
8370400020,usps_collection_boxes,USPS COLLECTION BOX - BLUE BOX,6060 W EMERALD ST,BOISE,ID,,US,,,,United States Postal Service,Q668687
8370400069,usps_collection_boxes,USPS COLLECTION BOX - APC,3485 N COLE RD,BOISE,ID,,US,,,,United States Postal Service,Q668687
8370400070,usps_collection_boxes,USPS COLLECTION BOX - PO LOBBY,3485 N COLE RD,BOISE,ID,,US,,,,United States Postal Service,Q668687
8370400073,usps_collection_boxes,USPS COLLECTION BOX - PO LOBBY,3485 N COLE RD,BOISE,ID,,US,,,,United States Postal Service,Q668687
8370400039,usps_collection_boxes,USPS COLLECTION BOX - BLUE BOX,3485 N COLE RD,BOISE,ID,,US,,,,United States Postal Service,Q668687
8370400023,usps_collection_boxes,USPS COLLECTION BOX - BLUE BOX,7150 W POTOMAC DR,BOISE,ID,,US,,,,United States Postal Service,Q668687
8370400025,usps_collection_boxes,USPS COLLECTION BOX - BLUE BOX,7736 W FAIRVIEW AVE,BOISE,ID,,US,,,,United States Postal Service,Q668687
8370400016,usps_collection_boxes,USPS COLLECTION BOX - BLUE BOX,350 N MILWAUKEE ST,BOISE,ID,,US,,,,United States Postal Service,Q668687
8370400066,usps_collection_boxes,USPS COLLECTION BOX - BLUE BOX,8100 W FAIRVIEW AVE,BOISE,ID,,US,,,,United States Postal Service,Q668687
8370400010,usps_collection_boxes,USPS COLLECTION BOX - BLUE BOX,153 N BENJAMIN LN,BOISE,ID,,US,,,,United States Postal Service,Q668687
8370400067,usps_collection_boxes,USPS COLLECTION BOX - BLUE BOX,8850 W EMERALD ST,BOISE,ID,,US,,,,United States Postal Service,Q668687
8370400034,usps_collection_boxes,USPS COLLECTION BOX - BLUE BOX,9500 W FAIRVIEW AVE,BOISE,ID,,US,,,,United States Postal Service,Q668687
8370400026,usps_collection_boxes,USPS COLLECTION BOX - BLUE BOX,8030 W EMERALD ST,BOISE,ID,,US,,,,United States Postal Service,Q668687
USA335,vans,Vans Store - Boise ID,,Boise,ID,,US,+1 208-376-4851,https://www.vans.com/en-us/stores/id/boise/usa335,Mo-Th 11:00-19:00; Fr-Sa 11:00-20:00; Su 11:00-19:00,Vans,Q1135366
R00000005594,verizon_us,Boise Town Square,,Boise,ID,,US,+1 208-375-7693,https://www.verizon.com/stores/details/idaho/boise/boise-town-square-321925/,Mo-Fr 10:00-20:00; Sa 09:00-19:00; Su 11:00-18:00,Verizon,Q919641
,visa,,,BOISE,ID,,US,,,,,
,visa,,,BOISE,ID,,US,,,,,
,visa,,,BOISE,ID,,US,,,,,
,visa,,,BOISE,ID,,US,,,,,
,visa,,,BOISE,ID,,US,,,,,
,visa,,,BOISE,ID,,US,,,,,
,visa,,,BOISE,ID,,US,,,,,
,visa,,,BOISE,ID,,US,,,,,
,visa,,,BOISE,ID,,US,,,,,
,visa,,,BOISE,ID,,US,,,,,
,visa,,,BOISE,ID,,US,,,,,
,visa,,,BOISE,ID,,US,,,,,
,visa,,,BOISE,ID,,US,,,,,
,visa,,,BOISE,ID,,US,,,,,
,visa,,,BOISE,ID,,US,,,,,
,visa,,,BOISE,ID,,US,,,,,
,visa,,,BOISE,ID,,US,,,,,
,visa,,,BOISE,ID,,US,,,,,
,visa,,,BOISE,ID,,US,,,,,
,visa,,,BOISE,ID,,US,,,,,
,visa,,,BOISE,ID,,US,,,,,
,visa,,,BOISE,ID,,US,,,,,
,visa,,,BOISE,ID,,US,,,,,
,visa,,,BOISE,ID,,US,,,,,
,visa,,,BOISE,ID,,US,,,,,
,visa,,,BOISE,ID,,US,,,,,
,visa,,,BOISE,ID,,US,,,,,
,visa,,,BOISE,ID,,US,,,,,
,visa,,,BOISE,ID,,US,,,,,
,visa,,,BOISE,ID,,US,,,,,
,visa,,,BOISE,ID,,US,,,,,
,visa,,,BOISE,ID,,US,,,,,
,visa,,,BOISE,ID,,US,,,,,
,visa,,,BOISE,ID,,US,,,,,
,visa,,,BOISE,ID,,US,,,,,
,visa,,,BOISE,ID,,US,,,,,
,visa,,,BOISE,ID,,US,,,,,
,visa,,,BOISE,ID,,US,,,,,
,visa,,,BOISE,ID,,US,,,,,
,visa,,,BOISE,ID,,US,,,,,
,visa,,,BOISE,ID,,US,,,,,
,visa,,,BOISE,ID,,US,,,,,
,visa,,,BOISE,ID,,US,,,,,
,visa,,,BOISE,ID,,US,,,,,
,visa,,,BOISE,ID,,US,,,,,
,visa,,,BOISE,ID,,US,,,,,
,visa,,,BOISE,ID,,US,,,,,
,visa,,,BOISE,ID,,US,,,,,
,visa,,,BOISE,ID,,US,,,,,
,visa,,,BOISE,ID,,US,,,,,
,visa,,,BOISE,ID,,US,,,,,
,visa,,,BOISE,ID,,US,,,,,
,visa,,,BOISE,ID,,US,,,,,
,visa,,,BOISE,ID,,US,,,,,
,visa,,,BOISE,ID,,US,,,,,
,visa,,,BOISE,ID,,US,,,,,
,visa,,,BOISE,ID,,US,,,,,
,visa,,,BOISE,ID,,US,,,,,
,visa,,,BOISE,ID,,US,,,,,
,visa,,,BOISE,ID,,US,,,,,
,visa,,,BOISE,ID,,US,,,,,
,visa,,,BOISE,ID,,US,,,,,
,visa,,,BOISE,ID,,US,,,,,
,visa,,,BOISE,ID,,US,,,,,
58,visionworks,Visionworks Boise Town Square,,Boise,ID,,US,+1 208-322-2933,https://locations.visionworks.com/ll/US/ID/Boise/421-North-Cole-Rd,Mo-Sa 10:00-18:00,Visionworks,Q5422607
https://locations.vitaminshoppe.com/id/boise/vitamins-supplements-boise-id-290.html,vitamin_shoppe,The Vitamin Shoppe® Boise ,347 N. Milwaukee St ,Boise,ID,,US,+1 208-672-3445,https://locations.vitaminshoppe.com/id/boise/vitamins-supplements-boise-id-290.html,Su 10:00-19:00; Mo 09:30-20:30; Tu 09:30-20:30; We 09:30-20:30; Th 09:30-20:30; Fr 09:30-20:30; Sa 09:30-20:00,The Vitamin Shoppe,Q7772938
https://www.walgreens.com/locator/walgreens-10580+w+ustick+rd-boise-id-83704/id=5184,walgreens,Walgreens,,Boise,ID,,US,+1 208-377-3581,https://www.walgreens.com/locator/walgreens-10580+w+ustick+rd-boise-id-83704/id=5184,Mo-Su 08:00-21:00,Walgreens,Q1591889
https://www.walgreens.com/locator/walgreens-8100+w+fairview+ave-boise-id-83704/id=4942,walgreens,Walgreens,,Boise,ID,,US,+1 208-375-2825,https://www.walgreens.com/locator/walgreens-8100+w+fairview+ave-boise-id-83704/id=4942,Mo-Su 06:00-24:00,Walgreens,Q1591889
7700__W__FAIRVIEW__AVE_BOISE_ID_83704,wellsfargo,Wells Fargo,7700 W FAIRVIEW AVE,BOISE,ID,,US,+1 208-377-2076,https://www.wellsfargo.com/locator/bank/7700__W__FAIRVIEW__AVE_BOISE_ID_83704/,Mo-Fr 09:00-17:00,Wells Fargo,Q744149
407f8518cd71527997464e9e2252c43b,western_union,WALMART #003094,,Boise,ID,,US,+1 208-501-7025,https://location.westernunion.com/us/id/boise/407f8518cd71527997464e9e2252c43b,Mo-Su 07:00-21:00,Western Union,Q861042
0a1f764e2ccc998b0bc228b95fe130c3,western_union,ADVANCE AMERICA #03261,,Boise,ID,,US,+1 208-322-6500,https://location.westernunion.com/us/id/boise/0a1f764e2ccc998b0bc228b95fe130c3,Mo 10:00-18:00; Tu 11:00-17:00; We-Th 10:00-18:00; Fr 09:00-18:00; Sa 10:00-13:00,Western Union,Q861042
233,windsor_us,Boise Towne Square,,Boise,ID,,US,+1 208-515-2760,https://www.windsorstore.com/pages/id-boise-boise-towne-square,,Windsor,Q72981668
143131,wingstop,Wingstop Boise N. Milwaukee,1575 N. Milwaukee,Boise,ID,,US,+1 208-672-9464,,,Wingstop,Q8025339
