Ref,Spider,Name,Address,City,State,Zipcode,Country,Phone,Website,Hours,Brand,WikiData
https://locations.arbys.com/in/winamac/876-n-plymouth-rd.html,arbys_us,"Arby's Fast-Food Drive Through Near You in Winamac, IN",,Winamac,IN,,US,+1 574-946-6220,https://locations.arbys.com/in/winamac/876-n-plymouth-rd.html,Mo-Th 10:00-23:00; Fr-Sa 10:00-24:00; Su 10:00-23:00,Arby's,Q630866
184325,bluerhino,Orgill #366229 - Healey's Home Center Inc.,,Winamac,IN,,US,+1 574-946-0998,,,Blue Rhino,Q65681213
199841,bluerhino,Good To Go #10,,Winamac,IN,,US,+1 574-946-4863,,,Blue Rhino,Q65681213
193826,bluerhino,Family Dollar #3476,,WINAMAC,IN,,US,+1 574-946-7309,,,Blue Rhino,Q65681213
203210,bluerhino,CASEY'S GENERAL STORE #2214,,WINAMAC,IN,,US,+1 574-213-5269,,,Blue Rhino,Q65681213
15149129242014699600100000000000,bp,Amoco,,Winamac,IN,,US,+1 574-946-4863,,24/7,BP,Q152057
55696,citi,ATM FIRST FEDERAL SAVINGS BANK,,Winamac,IN,,US,,,,Citibank,Q857063
53104,citi,ATM CVS,,Winamac,IN,,US,,,,Citibank,Q857063
55104,citi,ATM FE50 Winamac,,Winamac,IN,,US,,,,Citibank,Q857063
58291,citi,ATM Good To Go,,Winamac,IN,,US,,,,Citibank,Q857063
6537,cvs_us,CVS Pharmacy,,Winamac,IN,,US,+1 574-946-3554,https://www.cvs.com/store-locator/winamac-in-pharmacies/850-n-plymouth-rd-winamac-in-46996/storeid=6537,Mo-Sa 08:00-21:00; Su 10:00-18:00,CVS Pharmacy,Q2078880
https://www.edwardjones.com/us-en/financial-advisor/jon-chapman,edwardjones,Jon P Chapman,,Winamac,IN,,US,+1 574-946-6982,https://www.edwardjones.com/us-en/financial-advisor/jon-chapman,Mo-Th 08:00-17:00; Fr 08:00-16:00,Edward Jones,Q5343830
Motorcraft3471USAEnglish,ford,The Braun,,Indiana,IN,,US,,,,Ford,Q44294
Motorcraft3474USAEnglish,ford,"Jim Dobson Ford, Inc.",,Indiana,IN,,US,+1 574-946-3117,,,Ford,Q44294
https://www.ford.com/dealerships/dealer-details/in/winamac/jim-dobson-ford-inc/,ford_dealers_us,"Jim Dobson Ford, Inc.",,Winamac,IN,,US,+1 574-200-0828,https://www.ford.com/dealerships/dealer-details/in/winamac/jim-dobson-ford-inc/,Mo-Fr 08:00-18:00; Sa 08:00-14:00,Ford Motor Company,Q44294
14852,h_r_block,H&R Block,,Winamac,IN,,US,+1 574-946-3832,https://www.hrblock.com/local-tax-offices/indiana/winamac/121-e-pearl-st/14852/,,H&R Block,Q5627799
161479,marathon_petroleum_us,HOWARDS MARATHON,,WINAMAC,IN,,US,+1 574-946-6894,,,Marathon,Q458363
1296,mightyflame,DAIRY BARN,,WINIMAC,IN,,US,+1 574-946-6545,,,Mighty Flame,
581156,penske,Tgmc,,WINAMAC,IN,,US,+1 574-704-3090,https://www.pensketruckrental.com/locations/us/indiana/winamac/581156/,,Penske,Q81234570
in_winamac_874-n-plymouth-rd,pizza_hut_us,874 N Plymouth Rd,,Winamac,IN,,US,+1 574-946-6116,https://locations.pizzahut.com/in/winamac/874-n-plymouth-rd,,Pizza Hut,Q191615
standard-industrial-supply-26781,ppgpaints,STANDARD INDUSTRIAL SUPPLY,,"Winamac, ",IN,,US,+1 574-946-6661,https://www.ppgpaints.com/store-locator/us/indiana/winamac-paint-stores/standard-industrial-supply-26781,,PPG Paints,Q83891559
https://restaurants.subway.com/#14915866,subway,Subway BP Station,,Winamac Pulaski,IN,,US,+1 574-946-4660,https://restaurants.subway.com/united-states/in/winamac/1201-n-us-35n,Mo-Fr 07:00-23:00; Sa 09:00-23:00; Su 10:00-22:00,Subway,Q244457
1387899,usps,WINAMAC,,WINAMAC,IN,,US,+1 574-946-3743,,"Mo-Fr 08:30-12:30,13:30-16:00; Sa 09:00-12:00",United States Postal Service,Q668687
4699600014,usps_collection_boxes,USPS COLLECTION BOX - BLUE BOX,850 N PLYMOUTH RD,WINAMAC,IN,,US,,,,United States Postal Service,Q668687
4699600015,usps_collection_boxes,USPS COLLECTION BOX - BLUE BOX,317 E 13TH ST,WINAMAC,IN,,US,,,,United States Postal Service,Q668687
4699600003,usps_collection_boxes,USPS COLLECTION BOX - BLUE BOX,209 E PEARL ST,WINAMAC,IN,,US,,,,United States Postal Service,Q668687
4699600019,usps_collection_boxes,USPS COLLECTION BOX - PO LOBBY,209 E PEARL ST,WINAMAC,IN,,US,,,,United States Postal Service,Q668687
4699600033,usps_collection_boxes,USPS COLLECTION BOX - PO LOBBY,209 E PEARL ST,WINAMAC,IN,,US,,,,United States Postal Service,Q668687
4699600018,usps_collection_boxes,USPS COLLECTION BOX - BLUE BOX,110 E MERIDIAN ST,WINAMAC,IN,,US,,,,United States Postal Service,Q668687
A00000011081,verizon_us,Your Wireless Winamac,,WINAMAC,IN,,US,+1 574-946-7444,https://www.verizon.com/stores/details/indiana/winamac/venture-winamac-1496422/,Mo-Fr 09:00-18:00; Sa 09:00-16:00,Verizon,Q919641
,visa,,,WINAMAC,IN,,US,,,,,
,visa,,,WINAMAC,IN,,US,,,,,
,visa,,,WINAMAC,IN,,US,,,,,
,visa,,,WINAMAC,IN,,US,,,,,
,visa,,,WINAMAC,IN,,US,,,,,
,visa,,,WINAMAC,IN,,US,,,,,
,visa,,,WINAMAC,IN,,US,,,,,
,visa,,,WINAMAC,IN,,US,,,,,
,visa,,,WINAMAC,IN,,US,,,,,
