Ref,Spider,Name,Address,City,State,Zipcode,Country,Phone,Website,Hours,Brand,WikiData
https://stores.advanceautoparts.com/ma/fall-river/361-quarry-st,advance_auto_parts_us,Advance Auto Parts,,Fall River,MA,,US,+1 508-679-8402,https://stores.advanceautoparts.com/ma/fall-river/361-quarry-st,Mo-Sa 07:30-21:00; Su 09:00-20:00,Advance Auto Parts,Q4686051
193040,bluerhino,U-Haul #872056,,Fall River,MA,,US,+1 508-679-5277,,,Blue Rhino,Q65681213
54733,citi,ATM FALL RIVER PAWN BROKERS NO. 2,,Fall River,MA,,US,,,,Citibank,Q857063
93514,citi,ATM Walgreens,,Fall River,MA,,US,,,,Citibank,Q857063
3763,dominos_pizza_us,Domino's Pizza,,Fall River,MA,,US,+1 508-672-3030,https://pizza.dominos.com/massachusetts/fall-river/933-pleasant-st,Mo-Th 10:00-24:00; Fr-Sa 10:00-01:00; Su 10:00-24:00,Domino's,Q839466
335784,dunkin_us,Dunkin',,Fall River,MA,,US,+1 774-488-3389,https://locations.dunkindonuts.com/en/ma/fall-river/1510-brayton-ave/335784,Mo-Su 04:00-21:00,Dunkin',Q847743
334687,dunkin_us,Dunkin',,Fall River,MA,,US,+1 508-646-1320,https://locations.dunkindonuts.com/en/ma/fall-river/400-quarry-st/334687,Mo-Su 05:00-21:00,Dunkin',Q847743
E14905,enterprise,Fall River,,Fall River,MA,,US,+1 508-677-9000,,,Enterprise Rent-A-Car,Q17085454
E148M0,enterprise,Fall River,,Fall River,MA,,US,+1 508-677-9000,,,Enterprise Rent-A-Car,Q17085454
200304351,exxonmobil,20TH REAL ESTATE MANAGEMENT INC.,,FALL RIVER,MA,,US,+1 508-672-1585,https://www.exxon.com/en/find-station/mobil-fallriver-ma-20threalestatemanagementinc-200304351,24/7,Mobil,Q109676002
647,firestone_auto_care,Firestone Complete Auto Care,,Fall River,MA,,US,+1 508-916-2057,https://local.firestonecompleteautocare.com/massachusetts/fall-river/748-pleasant-st/,,Firestone,Q420837
restaurant_84268,popeyes_us_fr,Popeyes,"933 Pleasant St Fall River, Massachusetts 02723 - USA",Fall River,MA,,US,+1 508-689-7905,https://www.popeyes.com/store-locator/store/restaurant_84268,Mo-Su 10:30-22:30,Popeyes,Q1330910
3849,rentacenter,Rent-A-Center,,Fall River,MA,,US,+1 508-678-0500,https://locations.rentacenter.com/massachusetts/fall-river/933-pleasant-st/,Mo-Sa 10:00-18:00,Rent-A-Center,Q7313497
3SMS,tmobile_us,Flint Village Plaza,,Fall River,MA,,US,+1 508-689-4989,https://www.t-mobile.com/store-locator/ma/fall-river/flint-village-plaza,,T-Mobile,Q3511885
1363525,usps,FLINT,,FALL RIVER,MA,,US,+1 508-672-1442,,Mo-Fr 09:00-17:00; Sa 10:30-12:00,United States Postal Service,Q668687
0272300019,usps_collection_boxes,USPS COLLECTION BOX - BLUE BOX,1 FATHER DEVALLES BLVD,FALL RIVER,MA,,US,,,,United States Postal Service,Q668687
0272300012,usps_collection_boxes,USPS COLLECTION BOX - BLUE BOX,2187 PLEASANT ST,FALL RIVER,MA,,US,,,,United States Postal Service,Q668687
0272300006,usps_collection_boxes,USPS COLLECTION BOX - BLUE BOX,1662 PLEASANT ST,FALL RIVER,MA,,US,,,,United States Postal Service,Q668687
0272300016,usps_collection_boxes,USPS COLLECTION BOX - BLUE BOX,1465 PLEASANT ST,FALL RIVER,MA,,US,,,,United States Postal Service,Q668687
0272300025,usps_collection_boxes,USPS COLLECTION BOX - BLUE BOX,529 EASTERN AVE,FALL RIVER,MA,,US,,,,United States Postal Service,Q668687
0272300027,usps_collection_boxes,USPS COLLECTION BOX - BLUE BOX,964 COUNTY ST,FALL RIVER,MA,,US,,,,United States Postal Service,Q668687
0272300017,usps_collection_boxes,USPS COLLECTION BOX - BLUE BOX,1174 BEDFORD ST,FALL RIVER,MA,,US,,,,United States Postal Service,Q668687
0272300022,usps_collection_boxes,USPS COLLECTION BOX - BLUE BOX,375 N EASTERN AVE,FALL RIVER,MA,,US,,,,United States Postal Service,Q668687
,visa,,,FALL RIVER,MA,,US,,,,,
,visa,,,FALL RIVER,MA,,US,,,,,
,visa,,,FALL RIVER,MA,,US,,,,,
,visa,,,FALL RIVER,MA,,US,,,,,
,visa,,,FALL RIVER,MA,,US,,,,,
,visa,,,FALL RIVER,MA,,US,,,,,
,visa,,,FALL RIVER,MA,,US,,,,,
,visa,,,FALL RIVER,MA,,US,,,,,
,visa,,,FALL RIVER,MA,,US,,,,,
https://www.walgreens.com/locator/walgreens-933+pleasant+st-fall+river-ma-02723/id=19124,walgreens,Walgreens,,Fall River,MA,,US,+1 508-679-9130,https://www.walgreens.com/locator/walgreens-933+pleasant+st-fall+river-ma-02723/id=19124,Mo-Sa 09:00-21:00; Su 09:00-19:00,Walgreens,Q1591889
8fcb1a1aeb68d2bd9c2a5d67ecc84b06,western_union,PIYAY MARKET INC,,Fall River,MA,,US,+1 401-919-7027,https://location.westernunion.com/us/ma/fall-river/8fcb1a1aeb68d2bd9c2a5d67ecc84b06,Mo-Sa 07:30-19:00; Su 09:00-19:00,Western Union,Q861042
