Ref,Spider,Name,Address,City,State,Zipcode,Country,Phone,Website,Hours,Brand,WikiData
172716,bluerhino,Family Dollar #04190,,Scranton,PA,,US,+1 570-969-6542,,,Blue Rhino,Q65681213
177606,bluerhino,Turkey Hill #142,,Scranton,PA,,US,+1 570-342-9333,,,Blue Rhino,Q65681213
https://child-care-preschool.brighthorizons.com/PA/Scranton/scranton,brighthorizons,The University of Scranton Early Learning Center,,Scranton,PA,,US,+1 570-941-4525,https://child-care-preschool.brighthorizons.com/pa/scranton/scranton,Mo-Fr 07:00-18:00,Bright Horizons,Q4967421
70594,citi,ATM PNC BANK,,Scranton,PA,,US,,,,Citibank,Q857063
4871,dominos_pizza_us,Domino's Pizza,,Scranton,PA,,US,+1 570-347-3030,https://pizza.dominos.com/pennsylvania/scranton/1420-mulberry-street,Mo-Th 10:30-02:00; Fr-Sa 10:30-03:00; Su 10:30-02:00,Domino's,Q839466
521305,eg_america_us,Turkey Hill,,Scranton,PA,,US,+1 570-342-9333,https://www.turkeyhillcstores.com/find-us/generic-store-page/?id=950142,,Turkey Hill,Q42376970
1851000016,usps_collection_boxes,USPS COLLECTION BOX - BLUE BOX,1428 ASH ST,SCRANTON,PA,,US,,,,United States Postal Service,Q668687
1851000023,usps_collection_boxes,USPS COLLECTION BOX - BLUE BOX,601 COLFAX AVE,SCRANTON,PA,,US,,,,United States Postal Service,Q668687
1851000024,usps_collection_boxes,USPS COLLECTION BOX - BLUE BOX,1800 MULBERRY ST,SCRANTON,PA,,US,,,,United States Postal Service,Q668687
1851000021,usps_collection_boxes,USPS COLLECTION BOX - BLUE BOX,801 WHEELER AVE,SCRANTON,PA,,US,,,,United States Postal Service,Q668687
1851000017,usps_collection_boxes,USPS COLLECTION BOX - BLUE BOX,402 PRESCOTT AVE,SCRANTON,PA,,US,,,,United States Postal Service,Q668687
1851000044,usps_collection_boxes,USPS COLLECTION BOX - BLUE BOX,550 CLAY AVE,SCRANTON,PA,,US,,,,United States Postal Service,Q668687
1851000036,usps_collection_boxes,USPS COLLECTION BOX - BLUE BOX,HITCHCOCK CT,SCRANTON,PA,,US,,,,United States Postal Service,Q668687
1851000034,usps_collection_boxes,USPS COLLECTION BOX - BLUE BOX,743 JEFFERSON AVE,SCRANTON,PA,,US,,,,United States Postal Service,Q668687
1851000043,usps_collection_boxes,USPS COLLECTION BOX - BLUE BOX,743 JEFFERSON AVE,SCRANTON,PA,,US,,,,United States Postal Service,Q668687
1851000033,usps_collection_boxes,USPS COLLECTION BOX - BLUE BOX,743 JEFFERSON AVE,SCRANTON,PA,,US,,,,United States Postal Service,Q668687
1851000004,usps_collection_boxes,USPS COLLECTION BOX - BLUE BOX,600 JEFFERSON AVE,SCRANTON,PA,,US,,,,United States Postal Service,Q668687
1851000041,usps_collection_boxes,USPS COLLECTION BOX - BLUE BOX,401 ADAMS AVE,SCRANTON,PA,,US,,,,United States Postal Service,Q668687
1851000003,usps_collection_boxes,USPS COLLECTION BOX - BLUE BOX,444 JEFFERSON AVE,SCRANTON,PA,,US,,,,United States Postal Service,Q668687
,visa,,,DUNMORE,PA,,US,,,,,
,visa,,,DUNMORE,PA,,US,,,,,
,visa,,,DUNMORE,PA,,US,,,,,
,visa,,,SCRANTON,PA,,US,,,,,
,visa,,,SCRANTON,PA,,US,,,,,
,visa,,,DUNMORE,PA,,US,,,,,
,visa,,,DUNMORE,PA,,US,,,,,
,visa,,,SCRANTON,PA,,US,,,,,
,visa,,,SCRANTON,PA,,US,,,,,
,visa,,,SCRANTON,PA,,US,,,,,
,visa,,,SCRANTON,PA,,US,,,,,
,visa,,,SCRANTON,PA,,US,,,,,
,visa,,,SCRANTON,PA,,US,,,,,
,visa,,,SCRANTON,PA,,US,,,,,
,visa,,,SCRANTON,PA,,US,,,,,
,visa,,,SCRANTON,PA,,US,,,,,
,visa,,,SCRANTON,PA,,US,,,,,
,visa,,,SCRANTON,PA,,US,,,,,
,visa,,,SCRANTON,PA,,US,,,,,
,visa,,,SCRANTON,PA,,US,,,,,
,visa,,,SCRANTON,PA,,US,,,,,
,visa,,,SCRANTON,PA,,US,,,,,
,visa,,,SCRANTON,PA,,US,,,,,
,visa,,,SCRANTON,PA,,US,,,,,
,visa,,,SCRANTON,PA,,US,,,,,
,visa,,,SCRANTON,PA,,US,,,,,
,visa,,,SCRANTON,PA,,US,,,,,
,visa,,,SCRANTON,PA,,US,,,,,
,visa,,,SCRANTON,PA,,US,,,,,
,visa,,,SCRANTON,PA,,US,,,,,
,visa,,,SCRANTON,PA,,US,,,,,
,visa,,,SCRANTON,PA,,US,,,,,
,visa,,,SCRANTON,PA,,US,,,,,
,visa,,,SCRANTON,PA,,US,,,,,
01771a024a2ea3994acd7b0ec8f29d4d,western_union,TURKEY HILL #142,,Scranton,PA,,US,+1 570-342-9333,https://location.westernunion.com/us/pa/scranton/01771a024a2ea3994acd7b0ec8f29d4d,Mo-We 05:00-23:00; Th-Su 07:00-23:00,Western Union,Q861042
