Ref,Spider,Name,Address,City,State,Zipcode,Country,Phone,Website,Hours,Brand,WikiData
1019080,alamo,Lubbock Preston Smith Intl. Airport,,Lubbock,TX,,US,+1 844-891-0538,,,ALAMO,Q1429287
https://local.pharmacy.unitedsupermarkets.com/#5673930,albertsons,United Supermarkets Pharmacy,,Lubbock,TX,,US,+1 806-765-7014,https://local.pharmacy.unitedsupermarkets.com/tx/lubbock/2630-parkway-dr.html,Mo-Fr 09:00-19:00; Sa 09:00-18:00; Su 13:00-18:00,United Supermarkets,Q17108901
https://local.unitedsupermarkets.com/#5605050,albertsons,United Supermarkets,,Lubbock,TX,,US,+1 806-765-8013,https://local.unitedsupermarkets.com/tx/lubbock/2630-parkway-dr.html,Mo-Su 07:00-22:00,United Supermarkets,Q17108901
https://www.averitt.com/locations/texas/lubbock,averitt,Lubbock Service Center,,Lubbock,TX,,US,+1 800-283-7488,https://www.averitt.com/locations/texas/lubbock,,Averitt Express,Q4828320
https://www.avis.com/en/locations/us/tx/lubbock/lbb,avis,Avis U S A Lubbock Airport,,Lubbock,TX,,US,+1 806-763-5433,https://www.avis.com/en/locations/us/tx/lubbock/lbb,Mo-Fr 08:00-23:30; Sa 09:00-23:00; Su 08:00-23:30,Avis,Q791136
176386,bluerhino,Cal's #2445,,Lubbock,TX,,US,+1 832-595-0209,,,Blue Rhino,Q65681213
218992,bluerhino,Dollar General #12125,,LUBBOCK,TX,,US,+1 806-319-7630,,,Blue Rhino,Q65681213
211026,bluerhino,Dollar General #22784,,Lubbock,TX,,US,+1 806-224-1665,,,Blue Rhino,Q65681213
210682,bluerhino,Dollar General #22136,,Lubbock,TX,,US,+1 806-370-6025,,,Blue Rhino,Q65681213
175563,bluerhino,Love's #589,,Lubbock,TX,,US,+1 806-744-1531,,,Blue Rhino,Q65681213
71762,bluerhino,7-Eleven #1405,,Lubbock,TX,,US,+1 806-763-7983,,,Blue Rhino,Q65681213
165305,bluerhino,Family Dollar #03438,,Lubbock,TX,,US,+1 806-503-7645,,,Blue Rhino,Q65681213
219706,bluerhino,Dollar General #14889,,LUBBOCK,TX,,US,+1 806-368-4240,,,Blue Rhino,Q65681213
219063,bluerhino,Dollar General #19354,,LUBBOCK,TX,,US,+1 806-368-4580,,,Blue Rhino,Q65681213
200787,bluerhino,Lakeside Mini Mart,,Lubbock,TX,,US,+1 806-749-0660,,,Blue Rhino,Q65681213
34297,citi,"ATM Alon 7ELEVEN, INC.",,Lubbock,TX,,US,,,,Citibank,Q857063
70235285,cricket_wireless,Cricket Wireless Authorized Retailer,,Lubbock,TX,,US,+1 806-368-8153,https://www.cricketwireless.com/stores/ll/US/TX/Lubbock/1826-Parkway-Dr,Mo-Fr 10:00-19:00; Sa 10:00-18:00; Su 11:00-16:00,Cricket Wireless,Q5184987
9501,dollartree,DollarTree,,Lubbock,TX,,US,+1 806-368-4545,,Mo-Sa 09:00-21:00; Su 10:00-20:00,Dollar Tree,Q5289230
22784,dollar_general,Dollar General,,Lubbock,TX,,US,+1 806-224-1665,https://www.dollargeneral.com/store-directory/tx/lubbock/22784,Mo-Su 08:00-22:00,Dollar General,Q145168
22136,dollar_general,Dollar General,,Lubbock,TX,,US,+1 806-370-6025,https://www.dollargeneral.com/store-directory/tx/lubbock/22136,Mo-Su 08:00-22:00,Dollar General,Q145168
19355,dollar_general,Dollar General,,Lubbock,TX,,US,+1 806-368-4675,https://www.dollargeneral.com/store-directory/tx/lubbock/19355,Mo-Su 08:00-22:00,Dollar General,Q145168
19354,dollar_general,Dollar General,,Lubbock,TX,,US,+1 806-368-4580,https://www.dollargeneral.com/store-directory/tx/lubbock/19354,Mo-Su 08:00-22:00,Dollar General,Q145168
14889,dollar_general,Dollar General,,Lubbock,TX,,US,+1 806-368-4240,https://www.dollargeneral.com/store-directory/tx/lubbock/14889,Mo-Su 08:00-22:00,Dollar General,Q145168
6416,dominos_pizza_us,Domino's Pizza,,Lubbock,TX,,US,+1 806-741-8000,https://pizza.dominos.com/texas/lubbock/1708-parkway-drive,Mo-Th 10:30-24:00; Fr-Sa 10:30-01:00; Su 10:30-24:00,Domino's,Q839466
23438,family_dollar_us,FAMILY DOLLAR #3438,,Lubbock,TX,,US,+1 806-503-7645,https://www.familydollar.com/locations/tx/lubbock/23438/,Mo-Su 08:00-22:00,Family Dollar,Q5433101
https://local.fedex.com/#25228784,fedex,,,Lubbock,TX,,US,+1 800-463-3339,https://local.fedex.com/en-us/tx/lubbock/lbbal,,FedEx,Q459477
https://local.fedex.com/#492640,fedex,FedEx Ship Center,,Lubbock,TX,,US,+1 800-463-3339,https://local.fedex.com/en-us/tx/lubbock/lbba,,FedEx,Q459477
https://office.jacksonhewitt.com/#27579406,jackson_hewitt,Jackson Hewitt,,Lubbock,TX,,US,+1 806-744-4999,https://office.jacksonhewitt.com/tax-preparation-services-locations/en/tx/lubbock/407-martin-luther-king-blvd/17927,Tu-Sa 10:00-19:00,Jackson Hewitt,Q6117132
128391,little_free_library,TTU Center for Early Head Start #128391 Lubbock TX,,Lubbock,TX,,US,,,,Little Free Library,Q6650101
563,loves,Site 589,,Lubbock,TX,,US,+1 806-744-1531,,,Love's,Q1872496
72039960,moneygram,7-11 - #51405,,LUBBOCK,TX,,US,+1 806-763-7983,,Mo-Su 09:00-20:00,MoneyGram,Q1944412
1019078,national,Lubbock Preston Smith Intl. Airport,,Lubbock,TX,,US,+1 844-891-0535,,,NATIONAL,Q1424142
https://locations.oreillyauto.com/tx/lubbock/check-engine-light-testing-2098.html,oreilly,Your Lubbock O'Reilly Auto Parts Store,,Lubbock,TX,,US,+1 806-747-3980,https://locations.oreillyauto.com/tx/lubbock/check-engine-light-testing-2098.html,Mo-Sa 07:30-22:00; Su 08:00-21:00,O'Reilly Auto Parts,Q7071951
https://locations.oreillyauto.com/tx/lubbock/wiper-installation-2098.html,oreilly,Your Lubbock O'Reilly Auto Parts Store,,Lubbock,TX,,US,+1 806-747-3980,https://locations.oreillyauto.com/tx/lubbock/wiper-installation-2098.html,Mo-Sa 07:30-22:00; Su 08:00-21:00,O'Reilly Auto Parts,Q7071951
https://locations.oreillyauto.com/tx/lubbock/battery-testing-2098.html,oreilly,Your Lubbock O'Reilly Auto Parts Store,,Lubbock,TX,,US,+1 806-747-3980,https://locations.oreillyauto.com/tx/lubbock/battery-testing-2098.html,Mo-Sa 07:30-22:00; Su 08:00-21:00,O'Reilly Auto Parts,Q7071951
https://locations.oreillyauto.com/tx/lubbock/autopartes-2098.html,oreilly,Tu tienda O'Reilly Auto Parts en Lubbock,,Lubbock,TX,,US,+1 806-747-3980,https://locations.oreillyauto.com/tx/lubbock/autopartes-2098.html,Mo-Sa 07:30-22:00; Su 08:00-21:00,O'Reilly Auto Parts,Q7071951
tx_lubbock_1824-parkway-dr,pizza_hut_us,1824 Parkway Dr,,Lubbock,TX,,US,+1 806-771-5570,https://locations.pizzahut.com/tx/lubbock/1824-parkway-dr,,Pizza Hut,Q191615
https://restaurants.subway.com/#14897975,subway,"Subway Love's Travel Stop, #589",,Lubbock Lubbock,TX,,US,+1 806-744-1531,https://restaurants.subway.com/united-states/tx/lubbock/4221-north-interstate-27,,Subway,Q244457
7940300005,usps_collection_boxes,USPS COLLECTION BOX - BLUE BOX,2630 PARKWAY DR,LUBBOCK,TX,,US,,,,United States Postal Service,Q668687
,visa,,,LUBBOCK,TX,,US,,,,,
,visa,,,LUBBOCK,TX,,US,,,,,
,visa,,,LUBBOCK,TX,,US,,,,,
,visa,,,LUBBOCK,TX,,US,,,,,
,visa,,,LUBBOCK,TX,,US,,,,,
,visa,,,LUBBOCK,TX,,US,,,,,
,visa,,,LUBBOCK,TX,,US,,,,,
,visa,,,LUBBOCK,TX,,US,,,,,
,visa,,,LUBBOCK,TX,,US,,,,,
,visa,,,LUBBOCK,TX,,US,,,,,
,visa,,,LUBBOCK,TX,,US,,,,,
,visa,,,LUBBOCK,TX,,US,,,,,
,visa,,,LUBBOCK,TX,,US,,,,,
,visa,,,LUBBOCK,TX,,US,,,,,
,visa,,,LUBBOCK,TX,,US,,,,,
,visa,,,LUBBOCK,TX,,US,,,,,
,visa,,,LUBBOCK,TX,,US,,,,,
,visa,,,LUBBOCK,TX,,US,,,,,
,visa,,,LUBBOCK,TX,,US,,,,,
,visa,,,LUBBOCK,TX,,US,,,,,
2630__PARKWAY__DR_LUBBOCK_TX_79403,wellsfargo,,2630 PARKWAY DR,LUBBOCK,TX,,US,+1 800-869-3557,https://www.wellsfargo.com/locator/bank/2630__PARKWAY__DR_LUBBOCK_TX_79403/,,Wells Fargo,Q744149
013b2e94b69e8e9d45daa0c06fe46a1e,western_union,STRIPES #2445,,Lubbock,TX,,US,+1 806-771-2478,https://location.westernunion.com/us/tx/lubbock/013b2e94b69e8e9d45daa0c06fe46a1e,Mo-Su 05:00-23:00,Western Union,Q861042
