Ref,Spider,Name,Address,City,State,Zipcode,Country,Phone,Website,Hours,Brand,WikiData
https://stores.ashleyfurniture.com/store/us/missouri/saint-james/9000481701/,ashley_furniture,"Ashley Store Saint James, MO",,Saint James,MO,,US,+1 573-899-7900,https://stores.ashleyfurniture.com/store/us/missouri/saint-james/9000481701/,,Ashley Furniture,Q4805437
212734,bluerhino,Family Dollar #12793,,St. James,MO,,US,+1 573-899-6100,,,Blue Rhino,Q65681213
203954,bluerhino,CASEY'S GENERAL STORE #3625,,St James,MO,,US,+1 573-265-3802,,,Blue Rhino,Q65681213
44346541088016555900100000000000,bp,BP,,ST JAMES,MO,,US,+1 573-265-1260,,24/7,BP,Q152057
10665,cenex,Ed's Neighborhood Market,,Saint James,MO,,US,+1 573-265-3124,,,Cenex,Q62127191
84021,citi,ATM TOWN & COUNTRY BANK,,St James,MO,,US,,,,Citibank,Q857063
84020,citi,ATM Town & Country Bank,,St James,MO,,US,,,,Citibank,Q857063
nca_s1084,department_veterans_affairs,St. James Missouri Veterans Home Cemetery,,St. James,MO,,US,+1 573-265-3271,https://www.waymarking.com/waymarks/WMN9A6_Saint_James_Veterans_Home_Cemetery_St_James_MO,,Department Veterans Affairs,Q592576
4397,dollar_general,Dollar General,,Saint James,MO,,US,+1 314-798-0135,https://www.dollargeneral.com/store-directory/mo/saint-james/4397,Mo-Su 07:00-22:00,Dollar General,Q145168
https://www.edwardjones.com/us-en/financial-advisor/jacob-shockley,edwardjones,Jacob D Shockley,,Saint James,MO,,US,+1 573-265-1613,https://www.edwardjones.com/us-en/financial-advisor/jacob-shockley,Mo-Th 08:00-17:00; Fr 08:00-16:00,Edward Jones,Q5343830
200308854,exxonmobil,SAINT JAMES MOBIL,,SAINT JAMES,MO,,US,+1 573-265-8070,https://www.exxon.com/en/find-station/mobil-saintjames-mo-saintjamesmobil-200308854,24/7,Mobil,Q109676002
32793,family_dollar_us,FAMILY DOLLAR #12793,,St. James,MO,,US,+1 573-899-6100,https://www.familydollar.com/locations/mo/st.-james/32793/,Mo-Su 08:00-22:00,Family Dollar,Q5433101
Motorcraft2419USAEnglish,ford,"Hutcheson Ford Sales, Inc.",,Missouri,MO,,US,+1 573-265-7015,,,Ford,Q44294
https://www.ford.com/dealerships/dealer-details/mo/saint-james/hutcheson-ford-sales-inc/,ford_dealers_us,"Hutcheson Ford Sales, Inc.",,Saint James,MO,,US,+1 573-367-4043,https://www.ford.com/dealerships/dealer-details/mo/saint-james/hutcheson-ford-sales-inc/,Mo-Fr 08:00-18:00; Sa 08:00-16:00,Ford Motor Company,Q44294
26820,h_r_block,H&R Block,,Saint James,MO,,US,+1 573-265-2665,https://www.hrblock.com/local-tax-offices/missouri/saint-james/102-n-jefferson/26820/,,H&R Block,Q5627799
https://www.mercy.net/content/mercy/us/en/practice/st-james/mercy-clinic-family-medicine-st-james.html,mercy,Mercy Clinic Family Medicine - St. James,,St. James,MO,,US,+1 573-265-1818,https://www.mercy.net/practice/mercy-clinic-family-medicine-st-james,Mo-Fr 07:30-17:00,Mercy,Q30289045
4386,mightyflame,ST JAMES BP,,Saint James,MO,,US,+1 573-265-1260,,,Mighty Flame,
https://locations.oreillyauto.com/mo/saintjames/check-engine-light-testing-818.html,oreilly,Your Saint James O'Reilly Auto Parts Store,,Saint James,MO,,US,+1 573-265-1732,https://locations.oreillyauto.com/mo/saintjames/check-engine-light-testing-818.html,Mo-Sa 07:30-21:00; Su 09:00-19:00,O'Reilly Auto Parts,Q7071951
https://locations.oreillyauto.com/mo/saintjames/wiper-installation-818.html,oreilly,Your Saint James O'Reilly Auto Parts Store,,Saint James,MO,,US,+1 573-265-1732,https://locations.oreillyauto.com/mo/saintjames/wiper-installation-818.html,Mo-Sa 07:30-21:00; Su 09:00-19:00,O'Reilly Auto Parts,Q7071951
https://locations.oreillyauto.com/mo/saintjames/battery-testing-818.html,oreilly,Your Saint James O'Reilly Auto Parts Store,,Saint James,MO,,US,+1 573-265-1732,https://locations.oreillyauto.com/mo/saintjames/battery-testing-818.html,Mo-Sa 07:30-21:00; Su 09:00-19:00,O'Reilly Auto Parts,Q7071951
https://locations.oreillyauto.com/mo/saintjames/autopartes-818.html,oreilly,Tu tienda O'Reilly Auto Parts en Saint James,,Saint James,MO,,US,+1 573-265-1732,https://locations.oreillyauto.com/mo/saintjames/autopartes-818.html,Mo-Sa 07:30-21:00; Su 09:00-19:00,O'Reilly Auto Parts,Q7071951
mo_saint-james_205-state-route-b,pizza_hut_us,205 State Route B,,Saint James,MO,,US,+1 573-265-8904,https://locations.pizzahut.com/mo/saint-james/205-state-route-b,,Pizza Hut,Q191615
https://restaurants.subway.com/#14898106,subway,Subway New Concorde Village,,St James Phelps,MO,,US,+1 573-265-5900,https://restaurants.subway.com/united-states/mo/st-james/205-state-rte-b,Mo-Th 07:00-21:00; Fr 07:00-22:00; Sa 08:00-21:00; Su 09:00-21:00,Subway,Q244457
1380356,usps,SAINT JAMES,,SAINT JAMES,MO,,US,+1 573-265-7664,,Mo-Fr 08:00-16:30; Sa 10:00-13:00,United States Postal Service,Q668687
6555900003,usps_collection_boxes,USPS COLLECTION BOX - BLUE BOX,319 N JEFFERSON ST,SAINT JAMES,MO,,US,,,,United States Postal Service,Q668687
6555900000,usps_collection_boxes,USPS COLLECTION BOX - BLUE BOX,201 N BOURBEUSE ST,SAINT JAMES,MO,,US,,,,United States Postal Service,Q668687
6555900007,usps_collection_boxes,USPS COLLECTION BOX - PO LOBBY,201 N BOURBEUSE ST,SAINT JAMES,MO,,US,,,,United States Postal Service,Q668687
6555900010,usps_collection_boxes,USPS COLLECTION BOX - PO LOBBY,201 N BOURBEUSE ST,SAINT JAMES,MO,,US,,,,United States Postal Service,Q668687
,visa,,,ST JAMES,MO,,US,,,,,
,visa,,,ST. JAMES,MO,,US,,,,,
,visa,,,ST. JAMES,MO,,US,,,,,
,visa,,,ST JAMES,MO,,US,,,,,
,visa,,,ST JAMES,MO,,US,,,,,
,visa,,,ST JAMES,MO,,US,,,,,
,visa,,,SAINT JAMES,MO,,US,,,,,
,visa,,,ST. JAMES,MO,,US,,,,,
,visa,,,ST. JAMES,MO,,US,,,,,
,visa,,,ST. JAMES,MO,,US,,,,,
,visa,,,ST JAMES,MO,,US,,,,,
,visa,,,ST JAMES,MO,,US,,,,,
