Ref,Spider,Name,Address,City,State,Zipcode,Country,Phone,Website,Hours,Brand,WikiData
Ford13150INDen,ford,"GF Ford, Alwar",,ALWAR,,,IN,,,,Ford,Q44294
72539499,moneygram,MAYANK KUMAR GARG,,ALWAR,,,IN,+91 94603 34285,,Mo-Su 08:00-21:00,MoneyGram,Q1944412
72531769,moneygram,TRIPTI ENTERTAINMENT,,ALWAR,,,IN,+91 76652 38000,,Mo-Su 08:00-21:00,MoneyGram,Q1944412
72620094,moneygram,PRAMESH KUMAR THADANI,,ALWAR,,,IN,+91 98284 22995,,Mo-Su 08:00-21:00,MoneyGram,Q1944412
73258766,moneygram,MUTHOOT FINANCE LTD - #1099 - ALWAR - AL,,ALWAR,,,IN,+91 144 270 0412,,Mo-Su 09:00-19:00,MoneyGram,Q1944412
73267809,moneygram,MUTHOOT FINANCE LTD - #2102 - ALWAR - AL,,ALWAR,,,IN,+91 144 270 3581,,Mo-Su 09:00-19:00,MoneyGram,Q1944412
73291008,moneygram,MUTHOOT FINANCE LTD - #4293 - ALWAR - AL,,ALWAR,,,IN,+91 144 237 0334,,Mo-Su 09:00-19:00,MoneyGram,Q1944412
73315971,moneygram,MUTHOOT FINCORP LIMITED - #F1487 - KHATI,,JAIPUR,,,IN,+91 141 234 9077,,Mo-Sa 09:00-17:30; Su 00:00-24:00,MoneyGram,Q1944412
73319443,moneygram,MUTHOOT FINCORP LIMITED - #F1609 - BAGAT,,ALWAR,,,IN,+91 144 270 0941,,Mo-Sa 09:00-17:30; Su 00:00-24:00,MoneyGram,Q1944412
73318020,moneygram,MUTHOOT FINCORP LIMITED - #F1619 - RAMGU,,ALWAR,,,IN,+91 144 270 0795,,Mo-Sa 09:00-17:30; Su 00:00-24:00,MoneyGram,Q1944412
72969140,moneygram,KRISHNA BILL PAY,,ALWAR,,,IN,+91 90793 51568,,Mo-Su 08:00-21:00,MoneyGram,Q1944412
73393278,moneygram,GULAB DEVI SHARMA,,ALWAR,,,IN,+91 86192 26546,,Mo-Su 08:00-21:00,MoneyGram,Q1944412
73420824,moneygram,SEVEN SEAS TOUR & TRAVELS (ALWAR)-IBP,,ALWAR,,,IN,+91 98292 94949,,Mo-Su 08:00-21:00,MoneyGram,Q1944412
73426983,moneygram,CYBETERIA,,ALWAR,,,IN,+91 95290 17666,,Mo-Su 08:00-21:00,MoneyGram,Q1944412
73429032,moneygram,KANHA COMPUTERS,,ALWAR,,,IN,+91 98284 41512,,Mo-Su 08:00-21:00,MoneyGram,Q1944412
73826020,moneygram,VINOD KUMAR SATIJA,,ALWAR,,,IN,+91 77928 28083,,Mo-Su 08:00-21:00,MoneyGram,Q1944412
72968057,moneygram,GOVERDHAN LAL,,ALWAR,,,IN,+91 94142 31714,,Mo-Su 08:00-21:00,MoneyGram,Q1944412
74084120,moneygram,EQUITAS SMALL FINANCE BANK,,ALWAR,,,IN,+91 98408 15178,,Mo-Sa 10:00-17:00; Su 00:00-24:00,MoneyGram,Q1944412
66348971,moneygram,MANAPPURAM FINANCE - #1214 - MANUMERGA A,,ALWAR,,,IN,+91 144 270 2271,,Mo-Sa 10:00-19:00; Su 00:00-24:00,MoneyGram,Q1944412
67553833,moneygram,GUPTA INVESTMENT,,ALWAR,,,IN,+91 92149 49530,,Mo-Sa 10:00-20:00; Su 11:00-17:00,MoneyGram,Q1944412
663-1029001C,skoda,Saisha Motors Pvt Ltd,,,,,IN,,,,Skoda,Q29637
N232319,united_colors_of_benetton,Benetton Alwar,,ALWAR,,,IN,+91 144 233 2025,,Mo-Su 10:00-22:00,United Colors of Benetton,Q817139
N234207,united_colors_of_benetton,Benetton Alwar,,ALWAR,,,IN,+91 90018 68728,,,United Colors of Benetton,Q817139
,visa,,,ALWAR,,,IN,,,,,
,visa,,,ALWAR,,,IN,,,,,
,visa,,,ALWAR,,,IN,,,,,
,visa,,,JAIPUR,,,IN,,,,,
,visa,,,ALWAR,,,IN,,,,,
,visa,,,ALWAR,,,IN,,,,,
,visa,,,ALWAR,,,IN,,,,,
,visa,,,ALWAR,,,IN,,,,,
,visa,,,ALWAR,,,IN,,,,,
