Ref,Spider,Name,Address,City,State,Zipcode,Country,Phone,Website,Hours,Brand,WikiData
https://www.avis.com/en/locations/gn/conakry/oa1,avis,Avis Guinea Conakry,,Conakry,Conakry,,GN,+224 628 68 11 11,https://www.avis.com/en/locations/gn/conakry/oa1,Mo-Fr 07:30-12:30; Sa 08:00-12:30,Avis,Q791136
https://local.fedex.com/#27754080,fedex,FedEx Station,,Conakry,Conakry,,GN,,https://local.fedex.com/en-gn/conakry/ckya,,FedEx,Q459477
b1697a51e6398f4351e84a34dafcdf52,western_union,ORABANK MADINA,,Conakry,CONAKRY,,GN,+224 627 27 03 22,https://location.westernunion.com/gn/conakry/conakry/b1697a51e6398f4351e84a34dafcdf52,Mo-Su 08:00-18:00,Western Union,Q861042
e703752698266c8429aad8c700ad19ad,western_union,SOFIG GBESSIA ROND POINT,,Conakry,CONAKRY,,GN,+224 629 30 25 02,https://location.westernunion.com/gn/conakry/conakry/e703752698266c8429aad8c700ad19ad,Mo-Sa 08:00-19:00,Western Union,Q861042
a7d5a929e27a0a558deffea30f0fc598,western_union,SOFIG GBESSIA ROND POINT,,Conakry,CONAKRY,,GN,+224 629 30 25 02,https://location.westernunion.com/gn/conakry/conakry/a7d5a929e27a0a558deffea30f0fc598,Mo-Sa 08:00-19:00,Western Union,Q861042
dceebe72c8fddb361bfce36b655771bb,western_union,LA ROSE MULTI-SERVICES,,Conakry,CONAKRY,,GN,+224 622 57 74 46,https://location.westernunion.com/gn/conakry/conakry/dceebe72c8fddb361bfce36b655771bb,Mo-Sa 08:00-17:00; Su 09:00-13:00,Western Union,Q861042
3b0b8128e86b7134b2ccf5e960535ca1,western_union,KALOUM,,Conakry,CONAKRY,,GN,+224 654 18 14 10,https://location.westernunion.com/gn/conakry/conakry/3b0b8128e86b7134b2ccf5e960535ca1,Mo-Su 08:00-17:00,Western Union,Q861042
52d45ee205dde56602bb5c7b1e7292a4,western_union,KALOUM,,Conakry,CONAKRY,,GN,+224 654 18 14 10,https://location.westernunion.com/gn/conakry/conakry/52d45ee205dde56602bb5c7b1e7292a4,Mo-Su 08:00-17:00,Western Union,Q861042
636853cc5bf0d3684f3b13f7483904f3,western_union,BNB AFRICAN LEASE BP,,Conakry,CONAKRY,,GN,+224 626 61 18 81,https://location.westernunion.com/gn/conakry/conakry/636853cc5bf0d3684f3b13f7483904f3,Mo 07:00-20:00; Tu-Th 08:00-20:00; Fr-Su 07:00-20:00,Western Union,Q861042
ef7437771b564803243021e956935af7,western_union,BATRANS MARCHE NIGER 3,,Conakry,CONAKRY,,GN,+224 622 52 12 60,https://location.westernunion.com/gn/conakry/conakry/ef7437771b564803243021e956935af7,Mo-Su 08:00-18:00,Western Union,Q861042
dc5832cba388ba098c8ba0c25941c990,western_union,BATRANS MARCHE NIGER 3,,Conakry,CONAKRY,,GN,+224 622 52 12 60,https://location.westernunion.com/gn/conakry/conakry/dc5832cba388ba098c8ba0c25941c990,Mo-Su 08:00-18:00,Western Union,Q861042
281f73528469e5f58773b6b7a0c76c31,western_union,TUDOR SANDERVALIA,,Conakry,CONAKRY,,GN,+224 621 77 71 71,https://location.westernunion.com/gn/conakry/conakry/281f73528469e5f58773b6b7a0c76c31,Mo-Sa 08:00-19:00,Western Union,Q861042
b00b0325594bba3482d91b6b77a4325b,western_union,TUDOR SANDERVALIA,,Conakry,CONAKRY,,GN,+224 621 77 71 71,https://location.westernunion.com/gn/conakry/conakry/b00b0325594bba3482d91b6b77a4325b,Mo-Sa 08:00-19:00,Western Union,Q861042
227c7ac291ec3a69e43214e63f11ee02,western_union,TUDOR KOULEWONDY,,Conakry,CONAKRY,,GN,+224 622 46 68 96,https://location.westernunion.com/gn/conakry/conakry/227c7ac291ec3a69e43214e63f11ee02,Mo-Sa 08:00-18:00,Western Union,Q861042
c3995bbe97523de7f0f9ffefdef2585e,western_union,MARCHE NIGER 1,,Conakry,CONAKRY,,GN,+224 622 19 79 65,https://location.westernunion.com/gn/conakry/conakry/c3995bbe97523de7f0f9ffefdef2585e,Mo-Su 08:00-20:00,Western Union,Q861042
f24a44f6826525a9d349984bf3b5313b,western_union,MARCHE NIGER 1,,Conakry,CONAKRY,,GN,+224 622 19 79 65,https://location.westernunion.com/gn/conakry/conakry/f24a44f6826525a9d349984bf3b5313b,Mo-Su 08:00-20:00,Western Union,Q861042
f9fe9d7f05ae759213da02914d7c9482,western_union,BNB KALOUM NIGER BU,,Conakry,CONAKRY,,GN,+224 629 23 62 99,https://location.westernunion.com/gn/conakry/conakry/f9fe9d7f05ae759213da02914d7c9482,Mo 07:00-20:00; Tu-Th 08:00-20:00; Fr-Su 07:00-20:00,Western Union,Q861042
efec8c4aa64402828fe564c55ca2fa70,western_union,KALOUM,,Conakry,CONAKRY,,GN,(+224) 68356835,https://location.westernunion.com/gn/conakry/conakry/efec8c4aa64402828fe564c55ca2fa70,Mo-Fr 08:00-16:00; Sa 09:00-13:00,Western Union,Q861042
5a871f2d0fc8abba1510edffc6219914,western_union,KALOUM,,Conakry,CONAKRY,,GN,(+224) 68356835,https://location.westernunion.com/gn/conakry/conakry/5a871f2d0fc8abba1510edffc6219914,Mo-Fr 08:00-16:00; Sa 09:00-13:00,Western Union,Q861042
1438dd5048ba7dcbaaa16043e69d5473,western_union,TUDOR ALMAMYA,,Conakry,CONAKRY,,GN,+224 620 52 06 77,https://location.westernunion.com/gn/conakry/conakry/1438dd5048ba7dcbaaa16043e69d5473,Mo-Sa 08:00-18:00,Western Union,Q861042
932d1a5f2caee48a9ae7dbb9b59dcae9,western_union,TUDOR ALMAMYA,,Conakry,CONAKRY,,GN,+224 620 52 06 77,https://location.westernunion.com/gn/conakry/conakry/932d1a5f2caee48a9ae7dbb9b59dcae9,Mo-Sa 08:00-18:00,Western Union,Q861042
cd6a921a55473e4eeea68f30976b3f13,western_union,NIGER,,Conakry,CONAKRY,,GN,+224 629 29 27 56,https://location.westernunion.com/gn/conakry/conakry/cd6a921a55473e4eeea68f30976b3f13,Mo-Fr 07:00-19:00; Sa 08:00-18:00; Su 09:00-14:00,Western Union,Q861042
514881d94528c53fb23f4e92753d3a0a,western_union,KALOUM CONAKRY,,Conakry,CONAKRY,,GN,(+224) 67477702,https://location.westernunion.com/gn/conakry/conakry/514881d94528c53fb23f4e92753d3a0a,Mo-Fr 08:00-16:00; Sa-Su 09:00-13:00,Western Union,Q861042
27132876373c0ea0c534d4155eae0769,western_union,KALOUM CONAKRY,,Conakry,CONAKRY,,GN,(+224) 67477702,https://location.westernunion.com/gn/conakry/conakry/27132876373c0ea0c534d4155eae0769,Mo-Fr 08:00-16:00; Sa-Su 09:00-13:00,Western Union,Q861042
67affb82896e143ca83ace8adc5b813d,western_union,NAFA FINANCE,,Conakry,CONAKRY,,GN,+224 622 97 32 66,https://location.westernunion.com/gn/conakry/conakry/67affb82896e143ca83ace8adc5b813d,Mo-Sa 08:00-17:00; Su 09:00-13:00,Western Union,Q861042
f66e0ef8c154a4f741d6f84639ca321f,western_union,NAFA FINANCE,,Conakry,CONAKRY,,GN,+224 622 97 32 66,https://location.westernunion.com/gn/conakry/conakry/f66e0ef8c154a4f741d6f84639ca321f,Mo-Sa 08:00-17:00; Su 09:00-13:00,Western Union,Q861042
5186622a30ddb6ddac67e12426586894,western_union,ORABANK KALOUM,,Conakry,CONAKRY,,GN,+224 627 27 03 22,https://location.westernunion.com/gn/conakry/conakry/5186622a30ddb6ddac67e12426586894,Mo-Su 08:00-18:00,Western Union,Q861042
02c93141848f8dd5ac9525a09e3a9d58,western_union,BIG NAFAYA,,Conakry,CONAKRY,,GN,+224 622 84 53 99,https://location.westernunion.com/gn/conakry/conakry/02c93141848f8dd5ac9525a09e3a9d58,Mo-Fr 08:15-16:30; Sa 09:00-12:30,Western Union,Q861042
aadc3d7425554ecb342aa05785715864,western_union,BIG NAFAYA,,Conakry,CONAKRY,,GN,+224 622 84 53 99,https://location.westernunion.com/gn/conakry/conakry/aadc3d7425554ecb342aa05785715864,Mo-Fr 08:15-16:30; Sa 09:00-12:30,Western Union,Q861042
44c6707a3f459f56a9d084ea7d99d0a9,western_union,ROYAL ARK HEAD OFFICE,,Conakry,CONAKRY,,GN,(+224) 1-610901111,https://location.westernunion.com/gn/conakry/conakry/44c6707a3f459f56a9d084ea7d99d0a9,Mo-Su 07:00-22:00,Western Union,Q861042
d2b1bf5a27513f177fe11b27edec4426,western_union,MANQUEPAS1,,Conakry,CONAKRY,,GN,(+224) 63-405956,https://location.westernunion.com/gn/conakry/conakry/d2b1bf5a27513f177fe11b27edec4426,Mo-Sa 08:30-17:00,Western Union,Q861042
9cbcf3ae2ed9a4196332218ee09f1ef8,western_union,MANQUEPAS1,,Conakry,CONAKRY,,GN,(+224) 63-405956,https://location.westernunion.com/gn/conakry/conakry/9cbcf3ae2ed9a4196332218ee09f1ef8,Mo-Sa 08:30-17:00,Western Union,Q861042
e72c95591fa430dcdbde05bda0f11041,western_union,CD CIRE VOYAGES,,Conakry,CONAKRY,,GN,+224 623 04 73 39,https://location.westernunion.com/gn/conakry/conakry/e72c95591fa430dcdbde05bda0f11041,Mo-Fr 08:15-19:00; Sa 09:00-19:00,Western Union,Q861042
d5ac83d7f18c0ea1deb91718b01dbd67,western_union,CD CIRE VOYAGES,,Conakry,CONAKRY,,GN,+224 623 04 73 39,https://location.westernunion.com/gn/conakry/conakry/d5ac83d7f18c0ea1deb91718b01dbd67,Mo-Fr 08:15-19:00; Sa 09:00-19:00,Western Union,Q861042
d488973be53995e64b4ead0332325eb3,western_union,ORABANK FAMOUGUE,,Conakry,CONAKRY,,GN,+224 622 35 05 15,https://location.westernunion.com/gn/conakry/conakry/d488973be53995e64b4ead0332325eb3,Mo-Su 08:00-18:30,Western Union,Q861042
39d1ad4acb67563d99d33092fc486993,western_union,ORABANK LGV,,Conakry,CONAKRY,,GN,+224 622 35 05 15,https://location.westernunion.com/gn/conakry/conakry/39d1ad4acb67563d99d33092fc486993,Mo-Su 08:00-18:30,Western Union,Q861042
b7747e8c734f276799c2aa5d6b6de337,western_union,ORABANK HAMAK,,Conakry,CONAKRY,,GN,+224 622 35 05 15,https://location.westernunion.com/gn/conakry/conakry/b7747e8c734f276799c2aa5d6b6de337,Mo-Su 08:00-18:30,Western Union,Q861042
c09162cc52e865caef343c1c6bc1bcdf,western_union,GUINEE VOYAGE BIS,,Conakry,CONAKRY,,GN,(+224) 30-451992-5842,https://location.westernunion.com/gn/conakry/conakry/c09162cc52e865caef343c1c6bc1bcdf,Mo-Su 08:15-16:30,Western Union,Q861042
a353bfe468bb65a5f2fccffe3cbc6e2b,western_union,GUINEE VOYAGE BIS,,Conakry,CONAKRY,,GN,(+224) 30-451992-5842,https://location.westernunion.com/gn/conakry/conakry/a353bfe468bb65a5f2fccffe3cbc6e2b,Mo-Su 08:15-16:30,Western Union,Q861042
7d6317af19a71ecf0944fdcfec2ac6cd,western_union,SIEGE ALMAMIYA KALOUM,,Conakry,CONAKRY,,GN,+224 628 31 13 80,https://location.westernunion.com/gn/conakry/conakry/7d6317af19a71ecf0944fdcfec2ac6cd,Mo-Su 08:00-20:00,Western Union,Q861042
a53b161aa8806da7ba8c250519f0fdfa,western_union,SIEGE ALMAMIYA KALOUM,,Conakry,CONAKRY,,GN,+224 628 31 13 80,https://location.westernunion.com/gn/conakry/conakry/a53b161aa8806da7ba8c250519f0fdfa,Mo-Su 08:00-20:00,Western Union,Q861042
b2b45457ddf7ec26326c09a36523b323,western_union,WESTERN UNION AGENCE BOULEVARD REP,,Conakry,CONAKRY,,GN,(+224) 631403999-160,https://location.westernunion.com/gn/conakry/conakry/b2b45457ddf7ec26326c09a36523b323,Mo-Fr 08:00-17:30; Sa 09:00-15:00,Western Union,Q861042
ea00c9c03d241210dd32dc3e653f7181,western_union,WESTERN UNION AGENCE BOULEVARD REP,,Conakry,CONAKRY,,GN,(+224) 631403999-160,https://location.westernunion.com/gn/conakry/conakry/ea00c9c03d241210dd32dc3e653f7181,Mo-Fr 08:00-17:30; Sa 09:00-15:00,Western Union,Q861042
d402eeb927c6301dd2186bc36c19760f,western_union,TINKISS STORE,,Conakry,CONAKRY,,GN,+224 625 25 92 90,https://location.westernunion.com/gn/conakry/conakry/d402eeb927c6301dd2186bc36c19760f,Mo-Sa 08:00-18:00,Western Union,Q861042
08245337bfc008aec0da6bee08d97fa4,western_union,TINKISS STORE,,Conakry,CONAKRY,,GN,+224 625 25 92 90,https://location.westernunion.com/gn/conakry/conakry/08245337bfc008aec0da6bee08d97fa4,Mo-Sa 08:00-18:00,Western Union,Q861042
5b0003a7744baf66709787e4f8699b96,western_union,BNB TINO CONSTANTIN BP,,Conakry,CONAKRY,,GN,+224 626 39 45 72,https://location.westernunion.com/gn/conakry/conakry/5b0003a7744baf66709787e4f8699b96,Mo 07:00-20:00; Tu-Th 08:00-20:00; Fr-Su 07:00-20:00,Western Union,Q861042
0d93edd2effce66794c9d3c28fb0e6ec,western_union,MADINA,,Conakry,CONAKRY,,GN,+224 622 62 69 92,https://location.westernunion.com/gn/conakry/conakry/0d93edd2effce66794c9d3c28fb0e6ec,Mo-Fr 08:00-16:00; Sa 09:00-13:00,Western Union,Q861042
e351b549ba5c5aba9918907fabea6e03,western_union,BATRANS SIEGE 2,,Conakry,CONAKRY,,GN,+224 628 86 94 35,https://location.westernunion.com/gn/conakry/conakry/e351b549ba5c5aba9918907fabea6e03,Mo-Su 08:00-20:00,Western Union,Q861042
f3f907682a64a692733938685133ff23,western_union,FINAEXPRESS DE NONGO,,Conakry,CONAKRY,,GN,+224 625 25 93 83,https://location.westernunion.com/gn/conakry/conakry/f3f907682a64a692733938685133ff23,Mo-Su 08:00-20:00,Western Union,Q861042
098a7f3deea2175b02b0c9bf28be89e5,western_union,BATRANS CAUSA 2,,Conakry,CONAKRY,,GN,+224 622 19 79 65,https://location.westernunion.com/gn/conakry/conakry/098a7f3deea2175b02b0c9bf28be89e5,Mo-Su 08:00-20:00,Western Union,Q861042
71860317b4fc6de1aea38c201a22013f,western_union,FINAEXPRESS DE NONGO,,Conakry,CONAKRY,,GN,+224 625 25 93 83,https://location.westernunion.com/gn/conakry/conakry/71860317b4fc6de1aea38c201a22013f,Mo-Su 08:00-20:00,Western Union,Q861042
89e0315b9bd86a18ab75bd65551a8f47,western_union,BATRANS CAUSA 2,,Conakry,CONAKRY,,GN,+224 622 19 79 65,https://location.westernunion.com/gn/conakry/conakry/89e0315b9bd86a18ab75bd65551a8f47,Mo-Su 08:00-20:00,Western Union,Q861042
49d1648adb9c53d1a33f4734a4f77cfc,western_union,BATRANS SIEGE 2,,Conakry,CONAKRY,,GN,+224 628 86 94 35,https://location.westernunion.com/gn/conakry/conakry/49d1648adb9c53d1a33f4734a4f77cfc,Mo-Su 08:00-20:00,Western Union,Q861042
4aec453de6821c8d95b6381b833bbd72,western_union,MARCHE NIGER BIS,,Conakry,CONAKRY,,GN,+224 622 62 05 10,https://location.westernunion.com/gn/conakry/conakry/4aec453de6821c8d95b6381b833bbd72,Mo-Su 08:00-20:00,Western Union,Q861042
17c4311ceb72ee2c9bdb227a5f684613,western_union,MARCHE NIGER BIS,,Conakry,CONAKRY,,GN,+224 622 62 05 10,https://location.westernunion.com/gn/conakry/conakry/17c4311ceb72ee2c9bdb227a5f684613,Mo-Su 08:00-20:00,Western Union,Q861042
ddcdad13989d8ee23602598b68854f96,western_union,EGN PNUD,,Conakry,CONAKRY,,GN,+224 664 21 33 48,https://location.westernunion.com/gn/conakry/conakry/ddcdad13989d8ee23602598b68854f96,Mo-Fr 08:00-19:00; Sa 09:00-19:00,Western Union,Q861042
7760baa35ee9b66a58e91944b2d2a831,western_union,EGN PNUD,,Conakry,CONAKRY,,GN,+224 664 21 33 48,https://location.westernunion.com/gn/conakry/conakry/7760baa35ee9b66a58e91944b2d2a831,Mo-Fr 08:00-19:00; Sa 09:00-19:00,Western Union,Q861042
025ee41086a158cc9f7e3a33e1991915,western_union,GOLFE 2,,Conakry,CONAKRY,,GN,+224 629 29 15 04,https://location.westernunion.com/gn/conakry/conakry/025ee41086a158cc9f7e3a33e1991915,Mo-Su 10:00-22:00,Western Union,Q861042
f85d7c316d4d87fe6f393f5470baff36,western_union,GOLFE 2,,Conakry,CONAKRY,,GN,+224 629 29 15 04,https://location.westernunion.com/gn/conakry/conakry/f85d7c316d4d87fe6f393f5470baff36,Mo-Su 10:00-22:00,Western Union,Q861042
38bfc0075b6d691af1847e55f61751d8,western_union,GOLFE,,Conakry,CONAKRY,,GN,(+224) 631403999-160,https://location.westernunion.com/gn/conakry/conakry/38bfc0075b6d691af1847e55f61751d8,Mo-Fr 08:00-17:30; Sa 09:00-14:30,Western Union,Q861042
fdcf2be0915be99ce65b31afad362f5f,western_union,GOLFE,,Conakry,CONAKRY,,GN,(+224) 631403999-160,https://location.westernunion.com/gn/conakry/conakry/fdcf2be0915be99ce65b31afad362f5f,Mo-Fr 08:00-17:30; Sa 09:00-14:30,Western Union,Q861042
38cac676e6c9602100cf1de83e8a5818,western_union,FIB AGENCE ENTA,,Conakry,CONAKRY,,GN,+224 662 46 46 46,https://location.westernunion.com/gn/conakry/conakry/38cac676e6c9602100cf1de83e8a5818,Mo-Fr 08:00-16:30; Sa 09:15-13:00,Western Union,Q861042
f2ce6934f7e1e2ab2ed336e77153ceda,western_union,FIB AGENCE KAGBELEN DUBREKA,,Conakry,CONAKRY,,GN,+224 662 46 46 46,https://location.westernunion.com/gn/conakry/conakry/f2ce6934f7e1e2ab2ed336e77153ceda,Mo-Fr 08:00-16:30; Sa 09:15-13:00,Western Union,Q861042
19ce06c5177317faa7f0affda65df859,western_union,FIB AGENCE KALOUM,,Conakry,CONAKRY,,GN,+224 662 46 46 46,https://location.westernunion.com/gn/conakry/conakry/19ce06c5177317faa7f0affda65df859,Mo-Fr 08:00-17:30; Sa 09:15-16:00,Western Union,Q861042
1a0e9ea1db61dac61c3d5a63f252144e,western_union,FIB AGENCE COLEAH,,Conakry,CONAKRY,,GN,+224 662 46 46 46,https://location.westernunion.com/gn/conakry/conakry/1a0e9ea1db61dac61c3d5a63f252144e,Mo-Fr 08:00-16:30; Sa 09:15-13:00,Western Union,Q861042
dd43d32e09450b166d2a115b5f5b996d,western_union,FIB AGENCE MADINA SIG,,Conakry,CONAKRY,,GN,+224 662 46 46 46,https://location.westernunion.com/gn/conakry/conakry/dd43d32e09450b166d2a115b5f5b996d,Mo-Fr 08:00-16:30; Sa 09:15-13:00,Western Union,Q861042
793cbf70fe7b3aabd2be5278b5069250,western_union,FIRST INTERNATIONAL BANK GUINE,,Conakry,CONAKRY,,GN,+224 662 46 46 46,https://location.westernunion.com/gn/conakry/conakry/793cbf70fe7b3aabd2be5278b5069250,Mo-Fr 08:15-16:30; Sa 09:15-13:00,Western Union,Q861042
e886d474c3888083f803c35a15709483,western_union,FIRST INTERNATIONAL BANK GUINE,,Conakry,CONAKRY,,GN,+224 662 46 46 46,https://location.westernunion.com/gn/conakry/conakry/e886d474c3888083f803c35a15709483,Mo-Fr 08:15-16:30; Sa 09:15-13:00,Western Union,Q861042
c59ae2b4b5e2b3e84abdfcb5753a2e1f,western_union,BATRANS KOULEWONDY,,Conakry,CONAKRY,,GN,+224 625 25 93 83,https://location.westernunion.com/gn/conakry/conakry/c59ae2b4b5e2b3e84abdfcb5753a2e1f,Mo-Su 08:00-19:00,Western Union,Q861042
d1333b6b88eecd53ce1a5f6ca35b153c,western_union,BATRANS KOULEWONDY,,Conakry,CONAKRY,,GN,+224 625 25 93 83,https://location.westernunion.com/gn/conakry/conakry/d1333b6b88eecd53ce1a5f6ca35b153c,Mo-Su 08:00-19:00,Western Union,Q861042
a2b9c006d91193215552079ba29d89c8,western_union,ORABANK MINIERE,,Conakry,CONAKRY,,GN,+224 627 27 03 22,https://location.westernunion.com/gn/conakry/conakry/a2b9c006d91193215552079ba29d89c8,Mo-Su 08:00-18:00,Western Union,Q861042
02b3806f7fc3237e729b290c297d62df,western_union,BIG CONSTANTIN,,Conakry,CONAKRY,,GN,+224 662 66 66 62,https://location.westernunion.com/gn/conakry/conakry/02b3806f7fc3237e729b290c297d62df,Mo-Fr 08:15-16:30; Sa 09:00-12:30,Western Union,Q861042
fe201b2cb3e6a0236be1d23ab5b9d142,western_union,BIG CONSTANTIN,,Conakry,CONAKRY,,GN,+224 662 66 66 62,https://location.westernunion.com/gn/conakry/conakry/fe201b2cb3e6a0236be1d23ab5b9d142,Mo-Fr 08:15-16:30; Sa 09:00-12:30,Western Union,Q861042
ce32385210fe9778613796a783d56db7,western_union,SOFIG BELLE VUE,,Conakry,CONAKRY,,GN,+224 629 00 59 48,https://location.westernunion.com/gn/conakry/conakry/ce32385210fe9778613796a783d56db7,Mo-Fr 08:15-19:00; Sa 09:00-18:00,Western Union,Q861042
5a2e78113c14c46486e0829a5a8536de,western_union,SOFIG BELLE VUE,,Conakry,CONAKRY,,GN,+224 629 00 59 48,https://location.westernunion.com/gn/conakry/conakry/5a2e78113c14c46486e0829a5a8536de,Mo-Fr 08:15-19:00; Sa 09:00-18:00,Western Union,Q861042
95542b371233570fdc65c66769a58291,western_union,BNB XENON BELLEVUE BP,,Conakry,CONAKRY,,GN,+224 624 37 05 17,https://location.westernunion.com/gn/conakry/conakry/95542b371233570fdc65c66769a58291,Mo 07:00-20:00; Tu-Th 08:00-20:00; Fr-Su 07:00-20:00,Western Union,Q861042
1ca4e7953f546c7b053ac9544578c5f8,western_union,ORABANK MATAM,,Conakry,CONAKRY,,GN,+224 627 27 03 22,https://location.westernunion.com/gn/conakry/conakry/1ca4e7953f546c7b053ac9544578c5f8,Mo-Su 08:00-18:00,Western Union,Q861042
d3c7a7435d54e1c8626e9cef465e709e,western_union,GBESSIA,,Conakry,CONAKRY,,GN,(+224) 631403999-160,https://location.westernunion.com/gn/conakry/conakry/d3c7a7435d54e1c8626e9cef465e709e,Mo-Th 08:00-17:30; Fr 08:00-17:00; Sa 09:00-15:00,Western Union,Q861042
b94eedcd066de2d93c5237ece39a4d0d,western_union,DIXINN GARE,,Conakry,CONAKRY,,GN,(+224) 631403999-160,https://location.westernunion.com/gn/conakry/conakry/b94eedcd066de2d93c5237ece39a4d0d,Mo-Fr 08:00-19:00; Sa 09:00-19:00,Western Union,Q861042
3431e2cd5188fdd0bee14b3dd7da7e02,western_union,DIXINN GARE,,Conakry,CONAKRY,,GN,(+224) 631403999-160,https://location.westernunion.com/gn/conakry/conakry/3431e2cd5188fdd0bee14b3dd7da7e02,Mo-Fr 08:00-19:00; Sa 09:00-19:00,Western Union,Q861042
d4d3612c7c3ce9ac253eaa12f7da8a59,western_union,BELLE VUE,,Conakry,CONAKRY,,GN,(+224) 431100,https://location.westernunion.com/gn/conakry/conakry/d4d3612c7c3ce9ac253eaa12f7da8a59,Mo-Su 08:15-19:00,Western Union,Q861042
d01a11f70136de2440125e3036ae6839,western_union,GROUP VIVACE SARL,,Conakry,CONAKRY,,GN,+224 626 96 37 90,https://location.westernunion.com/gn/conakry/conakry/d01a11f70136de2440125e3036ae6839,Mo-Sa 08:00-17:00; Su 09:00-13:00,Western Union,Q861042
ebc99bdadb16f1092d28ff661b89605b,western_union,GROUP VIVACE SARL,,Conakry,CONAKRY,,GN,+224 626 96 37 90,https://location.westernunion.com/gn/conakry/conakry/ebc99bdadb16f1092d28ff661b89605b,Mo-Sa 08:00-17:00; Su 09:00-13:00,Western Union,Q861042
42b4adb00d7b7a551ecfa02978e74659,western_union,WU SOFIG FATAKO,,Conakry,CONAKRY,,GN,(+224) 629292767-160,https://location.westernunion.com/gn/conakry/conakry/42b4adb00d7b7a551ecfa02978e74659,Mo-Sa 08:00-18:00,Western Union,Q861042
7c107aea70133b9b7a8f2c0a9840a0af,western_union,WU SOFIG FATAKO,,Conakry,CONAKRY,,GN,(+224) 629292767-160,https://location.westernunion.com/gn/conakry/conakry/7c107aea70133b9b7a8f2c0a9840a0af,Mo-Sa 08:00-18:00,Western Union,Q861042
008954807f57d6852052330170d4f2b5,western_union,GUB MADINA,,Conakry,CONAKRY,,GN,+224 625 05 54 54,https://location.westernunion.com/gn/conakry/conakry/008954807f57d6852052330170d4f2b5,Mo-Sa 08:00-17:00,Western Union,Q861042
ae2d0e73b3f2326fd7c104101947fec5,western_union,GUB MADINA,,Conakry,CONAKRY,,GN,+224 625 05 54 54,https://location.westernunion.com/gn/conakry/conakry/ae2d0e73b3f2326fd7c104101947fec5,Mo-Sa 08:00-17:00,Western Union,Q861042
712e1210031900cfe7d2124c4507953e,western_union,SOFIG CENTRE DIALLO SADAKADJI,,Conakry,CONAKRY,,GN,+224 627 27 26 87,https://location.westernunion.com/gn/conakry/conakry/712e1210031900cfe7d2124c4507953e,Mo-Sa 08:00-19:00,Western Union,Q861042
e026fdd45a481d6959d58ee881ca416a,western_union,SOFIG CENTRE DIALLO SADAKADJI,,Conakry,CONAKRY,,GN,+224 627 27 26 87,https://location.westernunion.com/gn/conakry/conakry/e026fdd45a481d6959d58ee881ca416a,Mo-Sa 08:00-19:00,Western Union,Q861042
d2e3c5117897637fe03ad4eb2cee430e,western_union,TUDOR MADINA,,Conakry,CONAKRY,,GN,+224 621 38 03 33,https://location.westernunion.com/gn/conakry/conakry/d2e3c5117897637fe03ad4eb2cee430e,Mo-Su 08:00-18:00,Western Union,Q861042
d47ad06c1b3cd1f35315b8b2b2497ee2,western_union,TUDOR MADINA,,Conakry,CONAKRY,,GN,+224 621 38 03 33,https://location.westernunion.com/gn/conakry/conakry/d47ad06c1b3cd1f35315b8b2b2497ee2,Mo-Su 08:00-18:00,Western Union,Q861042
0f0722fe0042ce6011ddf40d7c8c362a,western_union,ROYAL ARK MADINA,,Conakry,CONAKRY,,GN,(+224) 1-610901111,https://location.westernunion.com/gn/conakry/conakry/0f0722fe0042ce6011ddf40d7c8c362a,Mo-Su 07:00-22:00,Western Union,Q861042
b7a6819f0f204fe576930ffb4ea1fbb8,western_union,CD ETS NEAR SERVICES,,Conakry,CONAKRY,,GN,+224 621 89 71 75,https://location.westernunion.com/gn/conakry/conakry/b7a6819f0f204fe576930ffb4ea1fbb8,Mo-Fr 08:15-19:00; Sa 09:00-19:00,Western Union,Q861042
d9713d46328a573a5a04ccc8042e263d,western_union,BNB DIXINN BU,,Conakry,CONAKRY,,GN,+224 629 23 92 24,https://location.westernunion.com/gn/conakry/conakry/d9713d46328a573a5a04ccc8042e263d,Mo 07:00-20:00; Tu-Th 08:00-20:00; Fr-Su 07:00-20:00,Western Union,Q861042
096fbcfa7f3cddce1eb17dd29ede42ce,western_union,STADE,,Conakry,CONAKRY,,GN,(+224) 63403999-160,https://location.westernunion.com/gn/conakry/conakry/096fbcfa7f3cddce1eb17dd29ede42ce,Mo-Fr 08:00-18:00; Sa 09:00-18:00,Western Union,Q861042
7152baa3771eb6a334e8daffe8b28c1f,western_union,BELLE VUE,,Conakry,CONAKRY,,GN,(+224) 431100,https://location.westernunion.com/gn/conakry/conakry/7152baa3771eb6a334e8daffe8b28c1f,Mo-Su 08:15-19:00,Western Union,Q861042
437b36737a3e388853330ac7b3db0015,western_union,MADINA,,Conakry,CONAKRY,,GN,+224 628 53 31 86,https://location.westernunion.com/gn/conakry/conakry/437b36737a3e388853330ac7b3db0015,Mo-Su 08:00-19:00,Western Union,Q861042
050e8c366e707d8c459c54ebb115a24c,western_union,MADINA,,Conakry,CONAKRY,,GN,+224 628 53 31 86,https://location.westernunion.com/gn/conakry/conakry/050e8c366e707d8c459c54ebb115a24c,Mo-Su 08:00-19:00,Western Union,Q861042
123811981e45532e2abb714d51a7c7e1,western_union,SOFIG MADINA CORNICHE,,Matam,CONAKRY,,GN,+224 627 26 27 87,https://location.westernunion.com/gn/conakry/matam/123811981e45532e2abb714d51a7c7e1,Mo-Fr 08:00-19:00; Sa 08:00-18:00,Western Union,Q861042
4e788ad0aedfcf8f9194e302e046c1b3,western_union,FINAEXPESS BELLEVUE,,Conakry,CONAKRY,,GN,+224 666 89 45 33,https://location.westernunion.com/gn/conakry/conakry/4e788ad0aedfcf8f9194e302e046c1b3,Mo-Su 08:00-18:00,Western Union,Q861042
bec415fbda6070326c930a037d5fad75,western_union,FIB AGENCE MADINA DISPENSAIRE,,Conakry,CONAKRY,,GN,+224 662 46 46 46,https://location.westernunion.com/gn/conakry/conakry/bec415fbda6070326c930a037d5fad75,Mo-Fr 08:00-16:30; Sa 09:15-13:00,Western Union,Q861042
ff0fa086f022f9df9e8401f3f443e70e,western_union,CD MAMADOU KINDY DIALLO,,Conakry,CONAKRY,,GN,+224 628 43 35 00,https://location.westernunion.com/gn/conakry/conakry/ff0fa086f022f9df9e8401f3f443e70e,Mo-Fr 08:00-20:00; Sa 09:00-19:00,Western Union,Q861042
ea54b421d32c9ffb641f8bbdbf259b81,western_union,ROYAL MADINA 2,,Conakry,CONAKRY,,GN,+224 628 07 99 07,https://location.westernunion.com/gn/conakry/conakry/ea54b421d32c9ffb641f8bbdbf259b81,Mo-Su 08:00-19:00,Western Union,Q861042
b00b6c6e31b3891091614ba80f40756c,western_union,FINAEXPRESS MADINA 2,,Conakry,CONAKRY,,GN,(+224) 63405946,https://location.westernunion.com/gn/conakry/conakry/b00b6c6e31b3891091614ba80f40756c,Mo-Su 08:00-19:00,Western Union,Q861042
c5cabbcba47fc22451019212d9679fdf,western_union,FINAEXPRESS MADINA 2,,Conakry,CONAKRY,,GN,(+224) 63405946,https://location.westernunion.com/gn/conakry/conakry/c5cabbcba47fc22451019212d9679fdf,Mo-Su 08:00-19:00,Western Union,Q861042
ab95e4e0c8d48ac5c06363c80dfe28c8,western_union,ETABLISSEMENTS BINDY NIAGARA,,Conakry,CONAKRY,,GN,+224 664 87 23 24,https://location.westernunion.com/gn/conakry/conakry/ab95e4e0c8d48ac5c06363c80dfe28c8,Mo-Fr 08:00-17:00; Sa 08:00-15:00,Western Union,Q861042
a693542d14a36d3b7baa7dfbd1e75930,western_union,ROYAL ARK MATAM,,Conakry,CONAKRY,,GN,(+224) 1-610901111,https://location.westernunion.com/gn/conakry/conakry/a693542d14a36d3b7baa7dfbd1e75930,Mo-Su 07:00-22:00,Western Union,Q861042
b3941a09fa0a55a1aa8e12f545771d30,western_union,FIRST INTERNATIONAL BANK GUINE,,Conakry,CONAKRY,,GN,+224 662 46 46 46,https://location.westernunion.com/gn/conakry/conakry/b3941a09fa0a55a1aa8e12f545771d30,Mo-Fr 08:15-16:30; Sa 09:15-13:00,Western Union,Q861042
8d8d86ce6637b5e32166b62c85bd1e23,western_union,FIRST INTERNATIONAL BANK GUINE,,Conakry,CONAKRY,,GN,+224 662 46 46 46,https://location.westernunion.com/gn/conakry/conakry/8d8d86ce6637b5e32166b62c85bd1e23,Mo-Fr 08:15-16:30; Sa 09:15-13:00,Western Union,Q861042
1cc1fa9fe7d8e4c19ee4e06f1e58fa04,western_union,SEFID ETS MARIAM PRESTATION,,Conakry,CONAKRY,,GN,+224 628 69 89 91,https://location.westernunion.com/gn/conakry/conakry/1cc1fa9fe7d8e4c19ee4e06f1e58fa04,Mo-Fr 08:15-23:00; Sa 09:00-23:00; Su 08:00-23:00,Western Union,Q861042
c6a9072e0731997355f5963ed8446320,western_union,ECOBANK,,Conakry,CONAKRY,,GN,(+224) 63967488,https://location.westernunion.com/gn/conakry/conakry/c6a9072e0731997355f5963ed8446320,Mo-Fr 08:15-16:30; Sa 09:15-13:00,Western Union,Q861042
af7607e5876d254f141e1f5e2c324138,western_union,ECOBANK,,Conakry,CONAKRY,,GN,(+224) 63967488,https://location.westernunion.com/gn/conakry/conakry/af7607e5876d254f141e1f5e2c324138,Mo-Fr 08:15-16:30; Sa 09:15-13:00,Western Union,Q861042
12405e47958163b200c0a1156b0f99bc,western_union,CD CONDEM BUSNESS,,Conakry,CONAKRY,,GN,+224 622 11 08 14,https://location.westernunion.com/gn/conakry/conakry/12405e47958163b200c0a1156b0f99bc,Mo-Sa 08:15-20:00,Western Union,Q861042
565c24727c7b7725ad6e55a030a1c402,western_union,CD CONDEM BUSNESS,,Conakry,CONAKRY,,GN,+224 622 11 08 14,https://location.westernunion.com/gn/conakry/conakry/565c24727c7b7725ad6e55a030a1c402,Mo-Sa 08:15-20:00,Western Union,Q861042
1dbf0291f913f49940b75f4c57d53030,western_union,SOFIG MATAM,,Conakry,CONAKRY,,GN,+224 628 43 35 00,https://location.westernunion.com/gn/conakry/conakry/1dbf0291f913f49940b75f4c57d53030,Mo-Fr 08:15-20:00; Sa 09:00-20:00,Western Union,Q861042
62728babd1a69343a7bb6c7887ebdfa9,western_union,SOFIG MATAM,,Conakry,CONAKRY,,GN,+224 628 43 35 00,https://location.westernunion.com/gn/conakry/conakry/62728babd1a69343a7bb6c7887ebdfa9,Mo-Fr 08:15-20:00; Sa 09:00-20:00,Western Union,Q861042
9220be86424de8182755ba10db8f6d90,western_union,ROYAL ARK DIXINN,,Conakry,CONAKRY,,GN,(+224) 1-610901111,https://location.westernunion.com/gn/conakry/conakry/9220be86424de8182755ba10db8f6d90,Mo-Su 07:00-22:00,Western Union,Q861042
8c3178ad54b957386bd58400f0466ed0,western_union,BNB MAMADOU ALPHA BAH DISTRIBUTION,,Conakry,CONAKRY,,GN,+224 622 05 43 45,https://location.westernunion.com/gn/conakry/conakry/8c3178ad54b957386bd58400f0466ed0,Mo 07:00-20:00; Tu-Th 08:00-20:00; Fr-Su 07:00-20:00,Western Union,Q861042
90cb8b029c7c1956ff373d77fd9f741f,western_union,SOFIG BAMBETO CARREFOUR,,Conakry,CONAKRY,,GN,+224 629 29 27 62,https://location.westernunion.com/gn/conakry/conakry/90cb8b029c7c1956ff373d77fd9f741f,Mo-Fr 08:15-19:00; Sa 09:00-18:00,Western Union,Q861042
d508320fade3f82468b595bc85857d96,western_union,SOFIG BAMBETO CARREFOUR,,Conakry,CONAKRY,,GN,+224 629 29 27 62,https://location.westernunion.com/gn/conakry/conakry/d508320fade3f82468b595bc85857d96,Mo-Fr 08:15-19:00; Sa 09:00-18:00,Western Union,Q861042
dce1b50b36791f0a03b4d59a42c7843e,western_union,GUB KAPORO CENTRE,,Conakry,CONAKRY,,GN,+224 654 18 14 10,https://location.westernunion.com/gn/conakry/conakry/dce1b50b36791f0a03b4d59a42c7843e,Mo-Su 08:00-17:00,Western Union,Q861042
9a1a2f24eae8ebccd6d8c1fea5a530bc,western_union,GUB KAPORO CENTRE,,Conakry,CONAKRY,,GN,+224 654 18 14 10,https://location.westernunion.com/gn/conakry/conakry/9a1a2f24eae8ebccd6d8c1fea5a530bc,Mo-Su 08:00-17:00,Western Union,Q861042
8b5f571fa799c86913d6d242f807922a,western_union,TUDOR BARRY BECKS,,Conakry,CONAKRY,,GN,+224 628 87 12 87,https://location.westernunion.com/gn/conakry/conakry/8b5f571fa799c86913d6d242f807922a,Mo-Su 08:00-17:00,Western Union,Q861042
f0cbd66726a525f3845cae135f944496,western_union,TUDOR BARRY BECKS,,Conakry,CONAKRY,,GN,+224 628 87 12 87,https://location.westernunion.com/gn/conakry/conakry/f0cbd66726a525f3845cae135f944496,Mo-Su 08:00-17:00,Western Union,Q861042
de39673607e052bd9559758834f0dac9,western_union,PRIMA CENTER,,Conakry,CONAKRY,,GN,+224 628 35 68 35,https://location.westernunion.com/gn/conakry/conakry/de39673607e052bd9559758834f0dac9,Mo-Fr 08:00-17:00; Sa 09:00-14:00; Su 08:00-17:00,Western Union,Q861042
0b4c607b016715bd7836e27f5a3d430d,western_union,PRIMA CENTER,,Conakry,CONAKRY,,GN,+224 628 35 68 35,https://location.westernunion.com/gn/conakry/conakry/0b4c607b016715bd7836e27f5a3d430d,Mo-Fr 08:00-17:00; Sa 09:00-14:00; Su 08:00-17:00,Western Union,Q861042
76b85486ae4690579d0b44a601761da4,western_union,CD ETS SOUARE HABIB ET FRER,,Conakry,CONAKRY,,GN,+224 622 89 19 49,https://location.westernunion.com/gn/conakry/conakry/76b85486ae4690579d0b44a601761da4,Mo-Fr 08:15-23:00; Sa-Su 08:00-23:00,Western Union,Q861042
62bc2ee78ad830d91fdf2ec116df9ff8,western_union,CD ETS SOUARE HABIB ET FRER,,Conakry,CONAKRY,,GN,+224 622 89 19 49,https://location.westernunion.com/gn/conakry/conakry/62bc2ee78ad830d91fdf2ec116df9ff8,Mo-Fr 08:15-23:00; Sa-Su 08:00-23:00,Western Union,Q861042
06dd175613eb55f15152807efa6b0aec,western_union,CONSTANTIN,,Conakry,CONAKRY,,GN,+224 654 77 77 05,https://location.westernunion.com/gn/conakry/conakry/06dd175613eb55f15152807efa6b0aec,Mo-Su 08:00-16:00,Western Union,Q861042
bea17fbaea769cb4790ff14114920ca1,western_union,ORABANK COLLEYAH,,Conakry,CONAKRY,,GN,+224 627 27 03 22,https://location.westernunion.com/gn/conakry/conakry/bea17fbaea769cb4790ff14114920ca1,Mo-Su 08:00-18:00,Western Union,Q861042
c738c81a574d247f6a48552c86695525,western_union,TAOUYAH,,Conakry,CONAKRY,,GN,(+224) 631403999-160,https://location.westernunion.com/gn/conakry/conakry/c738c81a574d247f6a48552c86695525,Mo-Sa 08:00-19:00,Western Union,Q861042
63a5bf1e98ebf43321a7c90d9b68824a,western_union,ECOBANK HAMDALLAYE,,Conakry,CONAKRY,,GN,+224 631 40 59 46,https://location.westernunion.com/gn/conakry/conakry/63a5bf1e98ebf43321a7c90d9b68824a,Mo-Sa 08:15-19:00,Western Union,Q861042
9c822c64b62506f43bf847f97cbac4bc,western_union,ECOBANK HAMDALLAYE,,Conakry,CONAKRY,,GN,+224 631 40 59 46,https://location.westernunion.com/gn/conakry/conakry/9c822c64b62506f43bf847f97cbac4bc,Mo-Sa 08:15-19:00,Western Union,Q861042
770075c3e63fcb01a8cdbb8d6fcebb90,western_union,ATLANTIC NET SERVICES   SARL,,Conakry,CONAKRY,,GN,+224 628 19 52 42,https://location.westernunion.com/gn/conakry/conakry/770075c3e63fcb01a8cdbb8d6fcebb90,Mo-Sa 08:00-18:00,Western Union,Q861042
8406c6daa8577b30e689c246903bd2ba,western_union,ORABANK EGT,,Conakry,CONAKRY,,GN,+224 627 27 03 22,https://location.westernunion.com/gn/conakry/conakry/8406c6daa8577b30e689c246903bd2ba,Mo-Su 08:00-18:00,Western Union,Q861042
c2625317142186f66878a6e9360dd1fc,western_union,BNB CENTRE ESPOIR BP,,Conakry,CONAKRY,,GN,+224 625 27 10 53,https://location.westernunion.com/gn/conakry/conakry/c2625317142186f66878a6e9360dd1fc,Mo 07:00-20:00; Tu-Th 08:00-20:00; Fr-Su 07:00-20:00,Western Union,Q861042
cc3c35816a9f347d5f76e8d3a66c7fb7,western_union,SOFIG MATAM BOULANGERIE,,Conakry,CONAKRY,,GN,+224 629 29 27 50,https://location.westernunion.com/gn/conakry/conakry/cc3c35816a9f347d5f76e8d3a66c7fb7,Mo-Fr 08:15-19:00; Sa 09:00-19:00,Western Union,Q861042
6a3ef8252f807f28b366e911959df6c6,western_union,SOFIG MATAM BOULANGERIE,,Conakry,CONAKRY,,GN,+224 629 29 27 50,https://location.westernunion.com/gn/conakry/conakry/6a3ef8252f807f28b366e911959df6c6,Mo-Fr 08:15-19:00; Sa 09:00-19:00,Western Union,Q861042
d584a958f3fff9b3e694a4a84b3bcbf2,western_union,GUB KIPE,,Conakry,CONAKRY,,GN,+224 654 18 14 10,https://location.westernunion.com/gn/conakry/conakry/d584a958f3fff9b3e694a4a84b3bcbf2,Mo-Su 08:00-17:00,Western Union,Q861042
d7aa17850daac7ccc285b188ef46a11c,western_union,GUB KIPE,,Conakry,CONAKRY,,GN,+224 654 18 14 10,https://location.westernunion.com/gn/conakry/conakry/d7aa17850daac7ccc285b188ef46a11c,Mo-Su 08:00-17:00,Western Union,Q861042
1519e4aaf1e4da86fafc00590833c35e,western_union,SEFID BALDE BOUBACAR,,Conakry,CONAKRY,,GN,+224 628 43 35 00,https://location.westernunion.com/gn/conakry/conakry/1519e4aaf1e4da86fafc00590833c35e,Mo-Fr 08:15-19:00; Sa 09:00-19:00,Western Union,Q861042
7e2f47361d610abae85f4feb7cfa4885,western_union,SEFID BALDE BOUBACAR,,Conakry,CONAKRY,,GN,+224 628 43 35 00,https://location.westernunion.com/gn/conakry/conakry/7e2f47361d610abae85f4feb7cfa4885,Mo-Fr 08:15-19:00; Sa 09:00-19:00,Western Union,Q861042
adc02b4d36f83a802b5ffa9e5a68ada2,western_union,KIPE,,Conakry,CONAKRY,,GN,+224 622 49 39 93,https://location.westernunion.com/gn/conakry/conakry/adc02b4d36f83a802b5ffa9e5a68ada2,Mo-Su 08:00-19:00,Western Union,Q861042
3efc62282e4e1a7fa6422a930459608a,western_union,KIPE,,Conakry,CONAKRY,,GN,+224 622 49 39 93,https://location.westernunion.com/gn/conakry/conakry/3efc62282e4e1a7fa6422a930459608a,Mo-Su 08:00-19:00,Western Union,Q861042
3e84403d3fa6bb65001e1f4faa6bc772,western_union,KIPE,,Conakry,CONAKRY,,GN,(+224) 631403999-160,https://location.westernunion.com/gn/conakry/conakry/3e84403d3fa6bb65001e1f4faa6bc772,Mo-Fr 08:00-18:00; Sa 09:00-18:00,Western Union,Q861042
1b9d050043c3620180814c658e5fb37e,western_union,KIPE,,Conakry,CONAKRY,,GN,(+224) 631403999-160,https://location.westernunion.com/gn/conakry/conakry/1b9d050043c3620180814c658e5fb37e,Mo-Fr 08:00-18:00; Sa 09:00-18:00,Western Union,Q861042
21b664582eda38b7315533627a1b5c00,western_union,ORABANK KIPE,,Conakry,CONAKRY,,GN,+224 627 27 03 22,https://location.westernunion.com/gn/conakry/conakry/21b664582eda38b7315533627a1b5c00,Mo-Su 08:00-18:00,Western Union,Q861042
dae93c89838f2f0a5d0d593f873a2fd4,western_union,BNB KIPE BU,,Conakry,CONAKRY,,GN,+224 623 47 23 23,https://location.westernunion.com/gn/conakry/conakry/dae93c89838f2f0a5d0d593f873a2fd4,Mo-Su 07:00-20:00,Western Union,Q861042
9a119d46de037c094dc6461a6307f234,western_union,ETS SOULEYMANE TRANSFERT,,Conakry,CONAKRY,,GN,+224 628 36 56 74,https://location.westernunion.com/gn/conakry/conakry/9a119d46de037c094dc6461a6307f234,Mo-Sa 08:00-17:00; Su 09:00-13:00,Western Union,Q861042
2dee89468666d53f97ab60b00b514f6d,western_union,R ARK FOREIGN,,Conakry,CONAKRY,,GN,+224 628 36 56 74,https://location.westernunion.com/gn/conakry/conakry/2dee89468666d53f97ab60b00b514f6d,Mo-Sa 08:00-17:00; Su 09:00-13:00,Western Union,Q861042
98c590e217526df880b2f8960589105c,western_union,ROYAL ARK BONFI,,Conakry,CONAKRY,,GN,(+224) 1-610901111,https://location.westernunion.com/gn/conakry/conakry/98c590e217526df880b2f8960589105c,Mo-Su 07:00-22:00,Western Union,Q861042
6970cf35c89431d04ec6207d2c506fe4,western_union,CD BALIMAR MULTI SERVICES,,Conakry,CONAKRY,,GN,+224 629 56 46 46,https://location.westernunion.com/gn/conakry/conakry/6970cf35c89431d04ec6207d2c506fe4,Mo-Fr 08:15-19:00; Sa 09:00-19:00; Su 08:00-18:00,Western Union,Q861042
70680b0cb88f4ae48ee646152ec7e48a,western_union,CD BALIMAR MULTI SERVICES,,Conakry,CONAKRY,,GN,+224 629 56 46 46,https://location.westernunion.com/gn/conakry/conakry/70680b0cb88f4ae48ee646152ec7e48a,Mo-Fr 08:15-19:00; Sa 09:00-19:00; Su 08:00-18:00,Western Union,Q861042
3ee3751f5a7e374b626aeacd6c5688bd,western_union,GUINEE VOY AEROPORT,,Conakry,CONAKRY,,GN,+224 631 40 59 46,https://location.westernunion.com/gn/conakry/conakry/3ee3751f5a7e374b626aeacd6c5688bd,Mo-Su 08:00-20:00,Western Union,Q861042
646a3c2401399cf2f9907ed92b2e0625,western_union,GUINEE VOY AEROPORT,,Conakry,CONAKRY,,GN,+224 631 40 59 46,https://location.westernunion.com/gn/conakry/conakry/646a3c2401399cf2f9907ed92b2e0625,Mo-Su 08:00-20:00,Western Union,Q861042
49e8da7d5673860e7c6a02f8d9fbb658,western_union,WESTERN UNION AEROPORT,,Conakry,CONAKRY,,GN,(+224) 631403999-160,https://location.westernunion.com/gn/conakry/conakry/49e8da7d5673860e7c6a02f8d9fbb658,Mo-Fr 08:00-18:00; Sa 09:00-18:00,Western Union,Q861042
ef19aab4bd6a82a3a0829e1563978857,western_union,WESTERN UNION AEROPORT,,Conakry,CONAKRY,,GN,(+224) 631403999-160,https://location.westernunion.com/gn/conakry/conakry/ef19aab4bd6a82a3a0829e1563978857,Mo-Fr 08:00-18:00; Sa 09:00-18:00,Western Union,Q861042
bae31a1a833363ee759838090272044b,western_union,BNB AEROPORT BU,,Conakry,CONAKRY,,GN,+224 621 10 85 77,https://location.westernunion.com/gn/conakry/conakry/bae31a1a833363ee759838090272044b,Mo 07:00-20:00; Tu-Th 08:00-20:00; Fr-Su 07:00-20:00,Western Union,Q861042
2fbb894288a54bef73e600613273f65e,western_union,TUDOR TRANFERT BAMBETO,,Conakry,CONAKRY,,GN,+224 625 25 93 83,https://location.westernunion.com/gn/conakry/conakry/2fbb894288a54bef73e600613273f65e,Mo-Sa 08:00-18:00; Su 00:00-18:00,Western Union,Q861042
b309bf079ec0a89387205f1a6b7f5a45,western_union,TUDOR TRANFERT BAMBETO,,Conakry,CONAKRY,,GN,+224 625 25 93 83,https://location.westernunion.com/gn/conakry/conakry/b309bf079ec0a89387205f1a6b7f5a45,Mo-Sa 08:00-18:00; Su 00:00-18:00,Western Union,Q861042
d103d878e8f77cb71e020ba52db83e2f,western_union,TUDOR BAMBETO 2,,Conakry,CONAKRY,,GN,+224 622 19 79 65,https://location.westernunion.com/gn/conakry/conakry/d103d878e8f77cb71e020ba52db83e2f,Mo-Sa 08:00-17:00,Western Union,Q861042
a8eb6ca8706cbd4abfa3c7d00bcf7688,western_union,OTD MS,,Conakry,CONAKRY,,GN,+224 622 69 92 69,https://location.westernunion.com/gn/conakry/conakry/a8eb6ca8706cbd4abfa3c7d00bcf7688,Mo-Fr 08:00-16:00; Sa 08:00-13:00,Western Union,Q861042
50d88edffeb135322422e11bb242eaf1,western_union,MATOTO NEWS,,Conakry,CONAKRY,,GN,+224 622 52 48 95,https://location.westernunion.com/gn/conakry/conakry/50d88edffeb135322422e11bb242eaf1,Mo-Su 08:00-20:00,Western Union,Q861042
128b637473809b32ad739fc905ad306e,western_union,MATOTO NEWS,,Conakry,CONAKRY,,GN,+224 622 52 48 95,https://location.westernunion.com/gn/conakry/conakry/128b637473809b32ad739fc905ad306e,Mo-Su 08:00-20:00,Western Union,Q861042
acc422c8077b17321104d78311d5995e,western_union,MATOTO,,Conakry,CONAKRY,,GN,(+224) 631403999-160,https://location.westernunion.com/gn/conakry/conakry/acc422c8077b17321104d78311d5995e,Mo-Sa 08:00-19:00,Western Union,Q861042
4ebe822d7234f461c6db938c51c168ff,western_union,MATOTO,,Conakry,CONAKRY,,GN,(+224) 631403999-160,https://location.westernunion.com/gn/conakry/conakry/4ebe822d7234f461c6db938c51c168ff,Mo-Sa 08:00-19:00,Western Union,Q861042
b9480cf145fd428048f8940f629d3942,western_union,GUB NONGO,,Conakry,CONAKRY,,GN,+224 622 92 08 25,https://location.westernunion.com/gn/conakry/conakry/b9480cf145fd428048f8940f629d3942,Mo-Sa 08:00-20:00,Western Union,Q861042
265c6d3c2090243fb72a0d0dc2893f75,western_union,GUB NONGO,,Conakry,CONAKRY,,GN,+224 622 92 08 25,https://location.westernunion.com/gn/conakry/conakry/265c6d3c2090243fb72a0d0dc2893f75,Mo-Sa 08:00-20:00,Western Union,Q861042
24919feaa73e58969fd41b20b7a1271a,western_union,ETABLISSEMENTS MARIAMA KESSO DIALLO MULT,,Conakry,CONAKRY,,GN,+224 622 31 26 71,https://location.westernunion.com/gn/conakry/conakry/24919feaa73e58969fd41b20b7a1271a,Mo-Sa 08:00-17:00; Su 09:00-13:00,Western Union,Q861042
3dff9c9ad22229b2f96d5bdce55c0204,western_union,SOFIG NONGO,,Conakry,CONAKRY,,GN,+224 631 40 39 99,https://location.westernunion.com/gn/conakry/conakry/3dff9c9ad22229b2f96d5bdce55c0204,Mo-Fr 08:15-18:00; Sa 09:00-18:00,Western Union,Q861042
69118fd9a2560914e3a4354b9baf3e0c,western_union,SOFIG NONGO,,Conakry,CONAKRY,,GN,+224 631 40 39 99,https://location.westernunion.com/gn/conakry/conakry/69118fd9a2560914e3a4354b9baf3e0c,Mo-Fr 08:15-18:00; Sa 09:00-18:00,Western Union,Q861042
cb51f4df4d644077618abfcf039d36b0,western_union,SEFID ETS DIALLO SAIKOU,,Conakry,CONAKRY,,GN,+224 624 22 81 04,https://location.westernunion.com/gn/conakry/conakry/cb51f4df4d644077618abfcf039d36b0,Mo-Sa 08:15-19:00,Western Union,Q861042
94fd0af78a7d1effe6a0df57e7fca4a6,western_union,CD ETS DJINKAN,,Conakry,CONAKRY,,GN,+224 622 99 39 15,https://location.westernunion.com/gn/conakry/conakry/94fd0af78a7d1effe6a0df57e7fca4a6,Mo-Fr 08:15-19:00; Sa 09:00-18:00,Western Union,Q861042
1296c5c028bb44b79d7fa15e1556d8e6,western_union,CD ETS DJINKAN,,Conakry,CONAKRY,,GN,+224 622 99 39 15,https://location.westernunion.com/gn/conakry/conakry/1296c5c028bb44b79d7fa15e1556d8e6,Mo-Fr 08:15-19:00; Sa 09:00-18:00,Western Union,Q861042
c53b908df4ed9644fcfd7b99da8f3a28,western_union,KOLOMA,,Conakry,CONAKRY,,GN,(+224) 631701562-160,https://location.westernunion.com/gn/conakry/conakry/c53b908df4ed9644fcfd7b99da8f3a28,Mo-Th 08:00-17:30; Fr 08:00-17:00; Sa 09:00-15:00,Western Union,Q861042
7f3213abefb62dc5266ef4a5d8421de5,western_union,KOLOMA,,Conakry,CONAKRY,,GN,(+224) 631701562-160,https://location.westernunion.com/gn/conakry/conakry/7f3213abefb62dc5266ef4a5d8421de5,Mo-Th 08:00-17:30; Fr 08:00-17:00; Sa 09:00-15:00,Western Union,Q861042
d1d9bfda1df3735da0d9113968e3fc16,western_union,BNB KAI SOLUTION NONGO TADY BP,,Conakry,CONAKRY,,GN,+224 624 88 96 54,https://location.westernunion.com/gn/conakry/conakry/d1d9bfda1df3735da0d9113968e3fc16,Mo 07:00-20:00; Tu-Th 08:00-20:00; Fr-Su 07:00-20:00,Western Union,Q861042
e0b307159c1063e890149d4196ba2098,western_union,ALSENY TANENE MARCHE,,Conakry,CONAKRY,,GN,+224 622 28 63 51,https://location.westernunion.com/gn/conakry/conakry/e0b307159c1063e890149d4196ba2098,Mo-Sa 08:00-18:00,Western Union,Q861042
d3d3dfb7c15ec839a5873601eaa37485,western_union,ALSENY TANENE MARCHE,,Conakry,CONAKRY,,GN,+224 622 28 63 51,https://location.westernunion.com/gn/conakry/conakry/d3d3dfb7c15ec839a5873601eaa37485,Mo-Sa 08:00-18:00,Western Union,Q861042
463dc28bbfff9a9f2e7200399b87a0f7,western_union,COSA,,Conakry,CONAKRY,,GN,(+224) 63403999-160,https://location.westernunion.com/gn/conakry/conakry/463dc28bbfff9a9f2e7200399b87a0f7,Mo-Th 08:00-17:30; Fr 08:00-17:00; Sa 09:00-15:00,Western Union,Q861042
ec342b1af70784b9df6d88f79566b212,western_union,ENTA,,Conakry,CONAKRY,,GN,(+224) 631403999-160,https://location.westernunion.com/gn/conakry/conakry/ec342b1af70784b9df6d88f79566b212,Mo-Sa 08:00-19:00,Western Union,Q861042
23ed4475e47c552dfc4f31d381c40758,western_union,BNB COSA BU,,Conakry,CONAKRY,,GN,+224 629 90 27 66,https://location.westernunion.com/gn/conakry/conakry/23ed4475e47c552dfc4f31d381c40758,Mo 07:00-20:00; Tu-Th 08:00-20:00; Fr-Su 07:00-20:00,Western Union,Q861042
559f603a8eff027cd3d58c291f588a93,western_union,ROYAL LAMBANYI AAMS,,Conakry,CONAKRY,,GN,+224 628 52 04 04,https://location.westernunion.com/gn/conakry/conakry/559f603a8eff027cd3d58c291f588a93,Mo-Su 08:00-19:00,Western Union,Q861042
6fe4b8e888ff2642b0bd20fbac28098d,western_union,ROYAL LAMBANYI AAMS,,Conakry,CONAKRY,,GN,+224 628 52 04 04,https://location.westernunion.com/gn/conakry/conakry/6fe4b8e888ff2642b0bd20fbac28098d,Mo-Su 08:00-19:00,Western Union,Q861042
f1c9778b13230b1e1bd3a9bb0151fae4,western_union,GUB LAMBANYI,,Conakry,CONAKRY,,GN,+224 623 58 37 95,https://location.westernunion.com/gn/conakry/conakry/f1c9778b13230b1e1bd3a9bb0151fae4,Mo-Sa 08:00-20:00,Western Union,Q861042
4ae238a7a0aacdee30048efbbf42b10a,western_union,GUB LAMBANYI,,Conakry,CONAKRY,,GN,+224 623 58 37 95,https://location.westernunion.com/gn/conakry/conakry/4ae238a7a0aacdee30048efbbf42b10a,Mo-Sa 08:00-20:00,Western Union,Q861042
2f5991ed9b0358ceb6b4c85e66453b9d,western_union,CD GUINEE TRANSFERT,,Conakry,CONAKRY,,GN,+224 620 38 15 83,https://location.westernunion.com/gn/conakry/conakry/2f5991ed9b0358ceb6b4c85e66453b9d,Mo-Sa 08:15-20:00; Su 09:00-18:00,Western Union,Q861042
ec9e76b515ebbcc2a1f6daa6f14c04e6,western_union,CD GUINEE TRANSFERT,,Conakry,CONAKRY,,GN,+224 620 38 15 83,https://location.westernunion.com/gn/conakry/conakry/ec9e76b515ebbcc2a1f6daa6f14c04e6,Mo-Sa 08:15-20:00; Su 09:00-18:00,Western Union,Q861042
9b61e8c09662c9cc9f8dc02127f46093,western_union,BIG LAMBANYI,,Conakry,CONAKRY,,GN,+224 662 66 66 65,https://location.westernunion.com/gn/conakry/conakry/9b61e8c09662c9cc9f8dc02127f46093,Mo-Fr 08:15-16:30; Sa 09:00-12:30,Western Union,Q861042
ac0da9d9c0514edbdfbd736077c52bc5,western_union,BIG LAMBANYI,,Conakry,CONAKRY,,GN,+224 662 66 66 65,https://location.westernunion.com/gn/conakry/conakry/ac0da9d9c0514edbdfbd736077c52bc5,Mo-Fr 08:15-16:30; Sa 09:00-12:30,Western Union,Q861042
6b899657e389331f8dd4b7be80453530,western_union,SEFID BAH KADIATOU ET FILS,,Conakry,CONAKRY,,GN,+224 622 29 39 39,https://location.westernunion.com/gn/conakry/conakry/6b899657e389331f8dd4b7be80453530,Mo-Fr 08:15-19:00; Sa 09:00-19:00,Western Union,Q861042
4ea9cd5ecdba87baea39108d2417db30,western_union,SOFIG TANNERIE,,Conakry,CONAKRY,,GN,+224 627 26 27 87,https://location.westernunion.com/gn/conakry/conakry/4ea9cd5ecdba87baea39108d2417db30,Mo-Fr 08:15-19:00; Sa 08:15-18:00,Western Union,Q861042
e694881a934dc977d2e41a9abed33085,western_union,SOFIG TANNERIE,,Conakry,CONAKRY,,GN,+224 627 26 27 87,https://location.westernunion.com/gn/conakry/conakry/e694881a934dc977d2e41a9abed33085,Mo-Fr 08:15-19:00; Sa 08:15-18:00,Western Union,Q861042
f91fd620526d801157a4852bb26a074d,western_union,MATOTO SBK,,Conakry,CONAKRY,,GN,(+224) 631403999-160,https://location.westernunion.com/gn/conakry/conakry/f91fd620526d801157a4852bb26a074d,Mo-Th 08:00-17:30; Fr 08:00-17:00; Sa 09:00-15:00,Western Union,Q861042
c937e68c08e346cb4ae053e99cbb0a6f,western_union,MATOTO SBK,,Conakry,CONAKRY,,GN,(+224) 631403999-160,https://location.westernunion.com/gn/conakry/conakry/c937e68c08e346cb4ae053e99cbb0a6f,Mo-Th 08:00-17:30; Fr 08:00-17:00; Sa 09:00-15:00,Western Union,Q861042
e2c31a8e2cc2398c2611bc8825026b6b,western_union,MATOTO,,Conakry,CONAKRY,,GN,+224 628 35 68 35,https://location.westernunion.com/gn/conakry/conakry/e2c31a8e2cc2398c2611bc8825026b6b,Mo-Su 08:00-18:00,Western Union,Q861042
edef7063c7ae946cce64b116b39253b5,western_union,ESTABLISHMENTS MS MULTI-SERVICES,,Conakry,CONAKRY,,GN,+224 622 71 03 92,https://location.westernunion.com/gn/conakry/conakry/edef7063c7ae946cce64b116b39253b5,Mo-Sa 08:00-17:00; Su 09:00-13:00,Western Union,Q861042
14b96928f0e95e8e2365d1ad2493ddfe,western_union,CD BUREAU DE CHANGE THIERNO MOUCTAR,,Conakry,CONAKRY,,GN,+224 628 00 50 50,https://location.westernunion.com/gn/conakry/conakry/14b96928f0e95e8e2365d1ad2493ddfe,Mo-Fr 08:15-19:00; Sa 09:00-19:00,Western Union,Q861042
3f7e854552a6a66908ee420750770784,western_union,ENCO 5,,Conakry,CONAKRY,,GN,(+224) 629292771-160,https://location.westernunion.com/gn/conakry/conakry/3f7e854552a6a66908ee420750770784,Mo-Fr 08:00-18:00; Sa 09:00-18:00,Western Union,Q861042
d30f16d005d65eb51c61b3653ab27ecb,western_union,ENCO 5,,Conakry,CONAKRY,,GN,(+224) 629292771-160,https://location.westernunion.com/gn/conakry/conakry/d30f16d005d65eb51c61b3653ab27ecb,Mo-Fr 08:00-18:00; Sa 09:00-18:00,Western Union,Q861042
999d30df022425179c8f2215fe49baf6,western_union,GUB SITE ENCO 5,,Conakry,CONAKRY,,GN,+224 622 23 41 83,https://location.westernunion.com/gn/conakry/conakry/999d30df022425179c8f2215fe49baf6,Mo-Sa 08:00-17:00,Western Union,Q861042
d7ff19f45774a6d5e5e8f7df833c4c4a,western_union,GUB SITE ENCO 5,,Conakry,CONAKRY,,GN,+224 622 23 41 83,https://location.westernunion.com/gn/conakry/conakry/d7ff19f45774a6d5e5e8f7df833c4c4a,Mo-Sa 08:00-17:00,Western Union,Q861042
5360d8da95b0a3abe9386e354b6151d9,western_union,BNB BHOHEL ET FRERES BP,,Conakry,CONAKRY,,GN,+224 620 36 47 94,https://location.westernunion.com/gn/conakry/conakry/5360d8da95b0a3abe9386e354b6151d9,Mo 07:00-20:00; Tu-Th 08:00-20:00; Fr-Su 07:00-20:00,Western Union,Q861042
abd34d8c58f6163fe460cb101ac90251,western_union,BNB TINO LANSANAYA BP,,Conakry,CONAKRY,,GN,+224 620 26 09 28,https://location.westernunion.com/gn/conakry/conakry/abd34d8c58f6163fe460cb101ac90251,Mo 07:00-20:00; Tu-Th 08:00-20:00; Fr-Su 07:00-20:00,Western Union,Q861042
325431ab01611f924823f9e0c4c65d57,western_union,BNB RAPIDE SERVICE BP,,Conakry,CONAKRY,,GN,+224 622 08 25 08,https://location.westernunion.com/gn/conakry/conakry/325431ab01611f924823f9e0c4c65d57,Mo 07:00-20:00; Tu-Th 08:00-20:00; Fr-Su 07:00-20:00,Western Union,Q861042
b3f811a53971a371bcec834af4981c2c,western_union,SOCIETE DIARI MULTI SERVICES,,Conakry,CONAKRY,,GN,+224 628 47 47 77,https://location.westernunion.com/gn/conakry/conakry/b3f811a53971a371bcec834af4981c2c,Mo-Su 08:00-18:00,Western Union,Q861042
42148157d8ac4a9108d0250bdf0fd30d,western_union,SOCIETE DIARI MULTI SERVICES,,Conakry,CONAKRY,,GN,+224 628 47 47 77,https://location.westernunion.com/gn/conakry/conakry/42148157d8ac4a9108d0250bdf0fd30d,Mo-Su 08:00-18:00,Western Union,Q861042
f1257c6775339ebd8387f0495f88a29d,western_union,ORABANK LAMBANYI,,Conakry,CONAKRY,,GN,+224 627 27 03 22,https://location.westernunion.com/gn/conakry/conakry/f1257c6775339ebd8387f0495f88a29d,Mo-Su 08:00-18:00,Western Union,Q861042
77387d794ce0313eca9117f731f3155b,western_union,SOFIG LAMBANYI,,Conakry,CONAKRY,,GN,+224 631 40 39 99,https://location.westernunion.com/gn/conakry/conakry/77387d794ce0313eca9117f731f3155b,Mo-Fr 08:15-20:00; Sa 09:00-20:00,Western Union,Q861042
78818ea28bb6ce9b96626f8db9dc9bb1,western_union,SOFIG LAMBANYI,,Conakry,CONAKRY,,GN,+224 631 40 39 99,https://location.westernunion.com/gn/conakry/conakry/78818ea28bb6ce9b96626f8db9dc9bb1,Mo-Fr 08:15-20:00; Sa 09:00-20:00,Western Union,Q861042
3f7a7cfe2de95007a118e59898cf9502,western_union,SOCIETE MARIAM BRIANDING AFRICA SARL,,Conakry,CONAKRY,,GN,+224 628 91 52 63,https://location.westernunion.com/gn/conakry/conakry/3f7a7cfe2de95007a118e59898cf9502,Mo-Sa 08:00-17:00; Su 09:00-13:00,Western Union,Q861042
59edc2bfb3d3646093779ad1f55a5b17,western_union,GUB KOBAYAH,,Conakry,CONAKRY,,GN,+224 627 24 00 38,https://location.westernunion.com/gn/conakry/conakry/59edc2bfb3d3646093779ad1f55a5b17,Mo-Sa 08:00-18:00,Western Union,Q861042
53024e0f9ec39d5fae3a110ea224f998,western_union,SOFIG SANGOYAH,,Conakry,CONAKRY,,GN,+224 626 43 97 78,https://location.westernunion.com/gn/conakry/conakry/53024e0f9ec39d5fae3a110ea224f998,Mo-Fr 08:15-20:00; Sa 09:00-20:00,Western Union,Q861042
0a3a45ee362e425ce28373b55be26148,western_union,SOFIG SANGOYAH,,Conakry,CONAKRY,,GN,+224 626 43 97 78,https://location.westernunion.com/gn/conakry/conakry/0a3a45ee362e425ce28373b55be26148,Mo-Fr 08:15-20:00; Sa 09:00-20:00,Western Union,Q861042
f13667096402265eadb3fa62d9fd2dae,western_union,SOFIG SANGOYAH,,Conakry,CONAKRY,,GN,+224 629 00 59 44,https://location.westernunion.com/gn/conakry/conakry/f13667096402265eadb3fa62d9fd2dae,Mo-Fr 08:15-19:00; Sa 09:00-18:00,Western Union,Q861042
4605670d084ce76ac95dc91ac3521ee5,western_union,SOFIG SANGOYAH,,Conakry,CONAKRY,,GN,+224 629 00 59 44,https://location.westernunion.com/gn/conakry/conakry/4605670d084ce76ac95dc91ac3521ee5,Mo-Fr 08:15-19:00; Sa 09:00-18:00,Western Union,Q861042
69a287cde31c2edbf21f12d91b28753e,western_union,SOCIETE GUINEENNE DE TRANSFERTS SARLU,,Conakry,CONAKRY,,GN,+224 622 67 87 37,https://location.westernunion.com/gn/conakry/conakry/69a287cde31c2edbf21f12d91b28753e,Mo-Sa 08:00-17:00; Su 09:00-13:00,Western Union,Q861042
12f59c3b28519b52aa58ab54efde87b0,western_union,SOCIETE GUINEENNE DE TRANSFERTS SARLU,,Conakry,CONAKRY,,GN,+224 622 67 87 37,https://location.westernunion.com/gn/conakry/conakry/12f59c3b28519b52aa58ab54efde87b0,Mo-Sa 08:00-17:00; Su 09:00-13:00,Western Union,Q861042
01e5f297ab92f2bcbb21822ab4cfd56c,western_union,ORABANK MAMY,,Conakry,CONAKRY,,GN,+224 628 35 68 35,https://location.westernunion.com/gn/conakry/conakry/01e5f297ab92f2bcbb21822ab4cfd56c,Mo-Su 08:00-18:30,Western Union,Q861042
e1a71bd1704d9dfba5fda8c6a43e113c,western_union,ENTREPRISE ALPHA BARRY AND FRERES,,Conakry,CONAKRY,,GN,+224 622 18 26 12,https://location.westernunion.com/gn/conakry/conakry/e1a71bd1704d9dfba5fda8c6a43e113c,Mo-Su 08:00-18:00,Western Union,Q861042
4dbe26196848fcf8ec6b83edd8a170cb,western_union,ENTREPRISE ALPHA BARRY AND FRERES,,Conakry,CONAKRY,,GN,+224 622 18 26 12,https://location.westernunion.com/gn/conakry/conakry/4dbe26196848fcf8ec6b83edd8a170cb,Mo-Su 08:00-18:00,Western Union,Q861042
b7f644470fc55cb52be482487d8b5bc0,western_union,SOFIG KISSOSSO,,Conakry,CONAKRY,,GN,+224 627 27 26 87,https://location.westernunion.com/gn/conakry/conakry/b7f644470fc55cb52be482487d8b5bc0,Mo-Fr 08:15-19:00; Sa 09:00-18:00,Western Union,Q861042
3f5fa261c3cdfc2ea41c65cdbe857b68,western_union,SOFIG KISSOSSO,,Conakry,CONAKRY,,GN,+224 627 27 26 87,https://location.westernunion.com/gn/conakry/conakry/3f5fa261c3cdfc2ea41c65cdbe857b68,Mo-Fr 08:15-19:00; Sa 09:00-18:00,Western Union,Q861042
35a131889195fc8f0f88abeeba0799c4,western_union,FINAEXPRESS COLEAH 2,,Conakry,CONAKRY,,GN,+224 620 28 57 11,https://location.westernunion.com/gn/conakry/conakry/35a131889195fc8f0f88abeeba0799c4,Mo-Su 08:00-18:00,Western Union,Q861042
a7e2072f1fcb56548765181b0eb0f63a,western_union,FINAEXPRESS COLEAH 1,,Conakry,CONAKRY,,GN,+224 620 28 57 11,https://location.westernunion.com/gn/conakry/conakry/a7e2072f1fcb56548765181b0eb0f63a,Mo-Su 08:00-18:00,Western Union,Q861042
dff3392b59407c733dc361480300cc59,western_union,FINAEXPRESS COLEAH 1,,Conakry,CONAKRY,,GN,+224 620 28 57 11,https://location.westernunion.com/gn/conakry/conakry/dff3392b59407c733dc361480300cc59,Mo-Su 08:00-18:00,Western Union,Q861042
9985e94cf2b93b853a73dff7987e4fa6,western_union,FIRST INTERNATIONAL BANK GUINE,,Conakry,CONAKRY,,GN,(+224) 662-2464646-557,https://location.westernunion.com/gn/conakry/conakry/9985e94cf2b93b853a73dff7987e4fa6,Mo-Fr 08:15-17:30; Sa 09:15-16:00,Western Union,Q861042
e26ab28e103074f30a52dc334cfd0d21,western_union,BNB ENTA BU,,Conakry,CONAKRY,,GN,+224 626 26 75 36,https://location.westernunion.com/gn/conakry/conakry/e26ab28e103074f30a52dc334cfd0d21,Mo 07:00-20:00; Tu-Th 08:00-20:00; Fr-Su 07:00-20:00,Western Union,Q861042
dbaa7558e21e3758d44b97473bc54ca7,western_union,ETABLISSEMENTS DIALLO IBRAHIMA BALE,,Conakry,CONAKRY,,GN,+224 626 00 06 61,https://location.westernunion.com/gn/conakry/conakry/dbaa7558e21e3758d44b97473bc54ca7,Mo-Sa 08:00-17:00; Su 09:00-13:00,Western Union,Q861042
a59b96118258705ede5b9a669b67f4fd,western_union,ROYAL ARK KAGBELE,,Conakry,CONAKRY,,GN,(+224) 1-610901111,https://location.westernunion.com/gn/conakry/conakry/a59b96118258705ede5b9a669b67f4fd,Mo-Su 07:00-22:00,Western Union,Q861042
4970feef44d527add26bb4a32cb555e0,western_union,ORABANK ENTA,,Conakry,CONAKRY,,GN,+224 627 27 03 22,https://location.westernunion.com/gn/conakry/conakry/4970feef44d527add26bb4a32cb555e0,Mo-Su 08:00-18:00,Western Union,Q861042
f225c436362474d9db96318cf49143b2,western_union,SOFIG FOULA MADINA,,Conakry,CONAKRY,,GN,+224 627 27 12 06,https://location.westernunion.com/gn/conakry/conakry/f225c436362474d9db96318cf49143b2,Mo-Sa 08:15-18:00,Western Union,Q861042
454bede7a93d5208fd949bc34842594d,western_union,SOFIG FOULA MADINA,,Conakry,CONAKRY,,GN,+224 627 27 12 06,https://location.westernunion.com/gn/conakry/conakry/454bede7a93d5208fd949bc34842594d,Mo-Sa 08:15-18:00,Western Union,Q861042
2cf8deca27d8a8dea70e3d153e1b0247,western_union,CIMENTERIE,,Conakry,CONAKRY,,GN,(+224) 63403999-160,https://location.westernunion.com/gn/conakry/conakry/2cf8deca27d8a8dea70e3d153e1b0247,Mo-Sa 08:00-20:00,Western Union,Q861042
a8c1439f437edfded61dd649698d3380,western_union,CIMENTERIE,,Conakry,CONAKRY,,GN,(+224) 63403999-160,https://location.westernunion.com/gn/conakry/conakry/a8c1439f437edfded61dd649698d3380,Mo-Sa 08:00-20:00,Western Union,Q861042
8b5409737061683684bd5fca0fa55d23,western_union,SOFIG T8,,Conakry,CONAKRY,,GN,+224 629 30 25 03,https://location.westernunion.com/gn/conakry/conakry/8b5409737061683684bd5fca0fa55d23,Mo-Fr 08:00-19:00; Sa 08:00-16:00,Western Union,Q861042
7d16c5603a97bb9fa12df6c6a8649cfd,western_union,SOFIG T8,,Conakry,CONAKRY,,GN,+224 629 30 25 03,https://location.westernunion.com/gn/conakry/conakry/7d16c5603a97bb9fa12df6c6a8649cfd,Mo-Fr 08:00-19:00; Sa 08:00-16:00,Western Union,Q861042
97ca454d632f1e0d6a5ad4cc1050c077,western_union,BNB BALDAO BP,,Conakry,CONAKRY,,GN,+224 628 00 55 56,https://location.westernunion.com/gn/conakry/conakry/97ca454d632f1e0d6a5ad4cc1050c077,Mo 07:00-20:00; Tu-Th 08:00-20:00; Fr-Su 07:00-20:00,Western Union,Q861042
d81b2adb96f2d19cc7b4c52533fc54fa,western_union,DABOMPA,,Conakry,CONAKRY,,GN,(+224) 631403999-160,https://location.westernunion.com/gn/conakry/conakry/d81b2adb96f2d19cc7b4c52533fc54fa,Mo-Fr 08:00-18:00; Sa 09:00-18:00,Western Union,Q861042
1a96469e3361647e3dd9d95c7bd2d3fc,western_union,DABOMPA,,Conakry,CONAKRY,,GN,(+224) 631403999-160,https://location.westernunion.com/gn/conakry/conakry/1a96469e3361647e3dd9d95c7bd2d3fc,Mo-Fr 08:00-18:00; Sa 09:00-18:00,Western Union,Q861042
56d2d3b158c1561d40d5687bc9354ac6,western_union,BNB TINO T8 BP,,Conakry,CONAKRY,,GN,+224 620 59 58 59,https://location.westernunion.com/gn/conakry/conakry/56d2d3b158c1561d40d5687bc9354ac6,Mo 07:00-20:00; Tu-Th 08:00-20:00; Fr-Su 07:00-20:00,Western Union,Q861042
87df9c65180cce99926fc069e8d9b022,western_union,BNB XENON SONFONIA BP,,Conakry,CONAKRY,,GN,+224 627 11 02 28,https://location.westernunion.com/gn/conakry/conakry/87df9c65180cce99926fc069e8d9b022,Mo 07:00-20:00; Tu-Th 08:00-20:00; Fr-Su 07:00-20:00,Western Union,Q861042
3b8d16688beb1c29b8a9aa993b1e2626,western_union,SOFIG TOMBOLIA,,Conakry,CONAKRY,,GN,+224 626 47 08 41,https://location.westernunion.com/gn/conakry/conakry/3b8d16688beb1c29b8a9aa993b1e2626,Mo-Sa 08:00-20:00,Western Union,Q861042
bdb60be03b9a19ab869cd62a700a00c2,western_union,SOFIG TOMBOLIA,,Conakry,CONAKRY,,GN,+224 626 47 08 41,https://location.westernunion.com/gn/conakry/conakry/bdb60be03b9a19ab869cd62a700a00c2,Mo-Sa 08:00-20:00,Western Union,Q861042
e2ebe209a01bd9c9d0d656010ec9c10c,western_union,ORABANK SONFONIA,,Conakry,CONAKRY,,GN,+224 627 27 03 22,https://location.westernunion.com/gn/conakry/conakry/e2ebe209a01bd9c9d0d656010ec9c10c,Mo-Su 08:00-18:00,Western Union,Q861042
f5b13fb27cb1e173dca7a3f4bb746ba4,western_union,FINAEXPRESS SONFONIA,,Conakry,CONAKRY,,GN,+224 625 25 93 83,https://location.westernunion.com/gn/conakry/conakry/f5b13fb27cb1e173dca7a3f4bb746ba4,Mo-Su 08:00-20:00,Western Union,Q861042
3dcfbc5833a9657a51cdf87377224b44,western_union,FINAEXPRESS SONFONIA,,Conakry,CONAKRY,,GN,+224 625 25 93 83,https://location.westernunion.com/gn/conakry/conakry/3dcfbc5833a9657a51cdf87377224b44,Mo-Su 08:00-20:00,Western Union,Q861042
bd21f110f2f915f2cb2774931547a74b,western_union,WU SONFONIA,,Conakry,CONAKRY,,GN,(+224) 631403999-160,https://location.westernunion.com/gn/conakry/conakry/bd21f110f2f915f2cb2774931547a74b,Mo-Fr 08:00-17:30; Sa 09:00-15:00,Western Union,Q861042
7a50f5d807bc45717563c1e821c469d1,western_union,BNB BAMBETO,,Conakry,CONAKRY,,GN,+224 623 47 23 23,https://location.westernunion.com/gn/conakry/conakry/7a50f5d807bc45717563c1e821c469d1,Mo-Sa 08:00-20:00; Su 09:00-14:00,Western Union,Q861042
7d17334fc34d959549ae81e9cc4b8716,western_union,BUSINESS AFRICAIN DES OPERATION,,Conakry,CONAKRY,,GN,+224 626 77 00 00,https://location.westernunion.com/gn/conakry/conakry/7d17334fc34d959549ae81e9cc4b8716,Mo-Sa 08:00-17:00; Su 08:00-08:00,Western Union,Q861042
e9beafb8707cb054cf0ba646aa6390b5,western_union,FIRST INTERNATIONAL BANK GUINE,,Conakry,CONAKRY,,GN,(+224) 662-2464646-557,https://location.westernunion.com/gn/conakry/conakry/e9beafb8707cb054cf0ba646aa6390b5,Mo-Fr 08:15-17:30; Sa 09:15-16:00,Western Union,Q861042
0a346dda2194538e55340837dc87b180,western_union,BNB LANSANAYA BU,,Conakry,CONAKRY,,GN,+224 624 42 96 14,https://location.westernunion.com/gn/conakry/conakry/0a346dda2194538e55340837dc87b180,Mo 07:00-20:00; Tu-Th 08:00-20:00; Fr-Su 07:00-20:00,Western Union,Q861042
01cb4c035da81e3b58877689cc277744,western_union,SOFIG LANSANAYA MARCHE,,Conakry,CONAKRY,,GN,+224 626 43 97 74,https://location.westernunion.com/gn/conakry/conakry/01cb4c035da81e3b58877689cc277744,Mo-Fr 08:15-19:00; Sa 09:00-18:00,Western Union,Q861042
3cad97d2e83c08a2f1360314b6f47fad,western_union,SOFIG LANSANAYA MARCHE,,Conakry,CONAKRY,,GN,+224 626 43 97 74,https://location.westernunion.com/gn/conakry/conakry/3cad97d2e83c08a2f1360314b6f47fad,Mo-Fr 08:15-19:00; Sa 09:00-18:00,Western Union,Q861042
ffefd8ea08a8205a3f29fe034ce9039e,western_union,ROYAL ARK CIMENTERIE,,Conakry,CONAKRY,,GN,(+224) 1-610901111,https://location.westernunion.com/gn/conakry/conakry/ffefd8ea08a8205a3f29fe034ce9039e,Mo-Su 07:00-22:00,Western Union,Q861042
eac16073c78797c4871648f958e47cfe,western_union,ORABANK FCG,,Conakry,CONAKRY,,GN,+224 622 35 05 15,https://location.westernunion.com/gn/conakry/conakry/eac16073c78797c4871648f958e47cfe,Mo-Su 08:00-19:00,Western Union,Q861042
c74f1535287b504669e8f179a94d6f1b,western_union,ORABANK KAGBELEN,,Conakry,CONAKRY,,GN,+224 627 27 03 22,https://location.westernunion.com/gn/conakry/conakry/c74f1535287b504669e8f179a94d6f1b,Mo-Su 08:00-18:00,Western Union,Q861042
e75455f4a0179496eb58488e6793ab5c,western_union,BNB KAGBELEN BU,,Conakry,CONAKRY,,GN,+224 624 88 76 84,https://location.westernunion.com/gn/conakry/conakry/e75455f4a0179496eb58488e6793ab5c,Mo 07:00-20:00; Tu-Th 08:00-20:00; Fr-Su 07:00-20:00,Western Union,Q861042
71cd9cee968886d7982d8442d15e6c38,western_union,KAGBELEN,,Conakry,CONAKRY,,GN,(+224) 622-357699-673,https://location.westernunion.com/gn/conakry/conakry/71cd9cee968886d7982d8442d15e6c38,Mo-Su 08:15-19:00,Western Union,Q861042
067dba1813bb4799f7ab3c8150e5abff,western_union,KAGBELEN,,Conakry,CONAKRY,,GN,(+224) 622-357699-673,https://location.westernunion.com/gn/conakry/conakry/067dba1813bb4799f7ab3c8150e5abff,Mo-Su 08:15-19:00,Western Union,Q861042
34cabba4708d618e71dd6a78fab51977,western_union,SOFINA,,Conakry,CONAKRY,,GN,+224 622 31 62 49,https://location.westernunion.com/gn/conakry/conakry/34cabba4708d618e71dd6a78fab51977,Mo-Su 08:00-18:00,Western Union,Q861042
93604154e52a627515b1e87a118a1db0,western_union,SOFINA,,Conakry,CONAKRY,,GN,+224 622 31 62 49,https://location.westernunion.com/gn/conakry/conakry/93604154e52a627515b1e87a118a1db0,Mo-Su 08:00-18:00,Western Union,Q861042
725cee946a87bde1c977c324b7630c41,western_union,KM 36,,Conakry,CONAKRY,,GN,(+224) 631403999-160,https://location.westernunion.com/gn/conakry/conakry/725cee946a87bde1c977c324b7630c41,Mo-Sa 08:00-19:00,Western Union,Q861042
5199fa6b1769fada0c351bd4f0029fbc,western_union,CASH UP,,Conakry,CONAKRY,,GN,+224 622 69 92 69,https://location.westernunion.com/gn/conakry/conakry/5199fa6b1769fada0c351bd4f0029fbc,Mo-Fr 08:00-16:00; Sa 09:00-14:00; Su 08:00-16:00,Western Union,Q861042
e0512eec95838f675da55bd9858a20d2,western_union,CASH UP,,Conakry,CONAKRY,,GN,+224 622 69 92 69,https://location.westernunion.com/gn/conakry/conakry/e0512eec95838f675da55bd9858a20d2,Mo-Fr 08:00-16:00; Sa 09:00-14:00; Su 08:00-16:00,Western Union,Q861042
3e76bc9b6e4163b5f5b6ffcd00a868d3,western_union,GUB HAMDALLAYE,,Conakry,CONAKRY,,GN,+224 654 18 14 10,https://location.westernunion.com/gn/conakry/conakry/3e76bc9b6e4163b5f5b6ffcd00a868d3,Mo-Sa 08:00-17:00,Western Union,Q861042
6a1999e223e562de31bdd83a3ad99c20,western_union,GUB HAMDALLAYE,,Conakry,CONAKRY,,GN,+224 654 18 14 10,https://location.westernunion.com/gn/conakry/conakry/6a1999e223e562de31bdd83a3ad99c20,Mo-Sa 08:00-17:00,Western Union,Q861042
da61fb6a7a78dc036341e07ac66c6f9b,western_union,ORABANK FCG,,Conakry,CONAKRY,,GN,+224 622 35 05 15,https://location.westernunion.com/gn/conakry/conakry/da61fb6a7a78dc036341e07ac66c6f9b,Mo-Su 08:00-19:00,Western Union,Q861042
daedccee5000c3f671e1f0a6de7dbf69,western_union,SIGUIRI,,Conakry,CONAKRY,,GN,+224 622 97 26 27,https://location.westernunion.com/gn/conakry/conakry/daedccee5000c3f671e1f0a6de7dbf69,Mo-Su 08:00-19:00,Western Union,Q861042
7a35836b9a5ad5ba7d477edc9284e39f,western_union,SIGUIRI,,Conakry,CONAKRY,,GN,+224 622 97 26 27,https://location.westernunion.com/gn/conakry/conakry/7a35836b9a5ad5ba7d477edc9284e39f,Mo-Su 08:00-19:00,Western Union,Q861042
ef062d3e8c857fe04237dd0d6ca3d84a,western_union,LABE  BRANCH,,Conakry,CONAKRY,,GN,+224 622 69 92 69,https://location.westernunion.com/gn/conakry/conakry/ef062d3e8c857fe04237dd0d6ca3d84a,Mo-Fr 08:00-16:00; Sa 09:00-13:00,Western Union,Q861042
50695046d2bccd7c03e36bb205caa2d3,western_union,ORABANK MATOTO,,Conakry,CONAKRY,,GN,+224 627 27 03 22,https://location.westernunion.com/gn/conakry/conakry/50695046d2bccd7c03e36bb205caa2d3,Mo-Su 08:00-18:00,Western Union,Q861042
