Ref,Spider,Name,Address,City,State,Zipcode,Country,Phone,Website,Hours,Brand,WikiData
2632,amcal_au,Amcal+ Pharmacy Rangeway,"2 Utakarra Road, Geraldton WA 6530",Geraldton,WA,,AU,+61 8 9921 8111,https://amcal.com.au/store/2632/WA/amcal-plus-pharmacy-rangeway/,Mo-Fr 08:00-18:00; Sa 08:00-13:00; Su 00:00-00:00,Amcal,Q63367373
AU-1438,anytime_fitness,Anytime Fitness,,Geraldton,WA,,AU,+61 466 228 195,https://anytimefitness.com.au/gyms/au-1438/geraldton-wa-6530/,,Anytime Fitness,Q4778364
614870_PO,australia_post_au,CAPE BURNEY CPA,,CAPE BURNEY,WA,,AU,+61 131318,,,Australia Post,Q1142936
RED0001068,australia_post_au,,,UTAKARRA,WA,,AU,,,,Australia Post,Q1142936
RED0018343,australia_post_au,,,WANDINA,WA,,AU,,,,Australia Post,Q1142936
RED0001088,australia_post_au,,,WONTHELLA,WA,,AU,,,,Australia Post,Q1142936
RED0001087,australia_post_au,,,SPALDING,WA,,AU,,,,Australia Post,Q1142936
RED0001089,australia_post_au,,,WONTHELLA,WA,,AU,,,,Australia Post,Q1142936
RED0001085,australia_post_au,,,WAGGRAKINE,WA,,AU,,,,Australia Post,Q1142936
644340_PO,australia_post_au,WONTHELLA LPO,,WONTHELLA,WA,,AU,+61 131318,,,Australia Post,Q1142936
RED0001070,australia_post_au,,,MOUNT TARCOOLA,WA,,AU,,,,Australia Post,Q1142936
RED0001086,australia_post_au,,,SPALDING,WA,,AU,,,,Australia Post,Q1142936
RED0001072,australia_post_au,,,TARCOOLA BEACH,WA,,AU,,,,Australia Post,Q1142936
RED0001082,australia_post_au,,,BLUFF POINT,WA,,AU,,,,Australia Post,Q1142936
660156_PO,australia_post_au,BLUFF POINT LPO,,BLUFF POINT,WA,,AU,+61 131318,,,Australia Post,Q1142936
RED0001066,australia_post_au,,,GERALDTON,WA,,AU,,,,Australia Post,Q1142936
RED0001081,australia_post_au,,,BLUFF POINT,WA,,AU,,,,Australia Post,Q1142936
RED0001080,australia_post_au,,,GERALDTON,WA,,AU,,,,Australia Post,Q1142936
RED0001079,australia_post_au,,,GERALDTON,WA,,AU,,,,Australia Post,Q1142936
RED0001076,australia_post_au,,,GERALDTON,WA,,AU,,,,Australia Post,Q1142936
53411113_UPL,australia_post_au,Geraldton Parcel Locker,,GERALDTON,WA,,AU,,,24/7,Australia Post,Q1142936
634812_PO,australia_post_au,GERALDTON POST SHOP,,GERALDTON,WA,,AU,+61 131318,,,Australia Post,Q1142936
RED0014101,australia_post_au,,,GERALDTON,WA,,AU,,,,Australia Post,Q1142936
RED0014100,australia_post_au,,,GERALDTON,WA,,AU,,,,Australia Post,Q1142936
RED0001075,australia_post_au,,,BEACHLANDS,WA,,AU,,,,Australia Post,Q1142936
RED0001077,australia_post_au,,,BEACHLANDS,WA,,AU,,,,Australia Post,Q1142936
RED0001073,australia_post_au,,,WEST END,WA,,AU,,,,Australia Post,Q1142936
2862,bakers_delight,Bakers Delight Geraldton,,Geraldton,WA,,AU,+61 8 9921 5461,https://www.bakersdelight.com.au/bakery-locator/geraldton/,Mo-We 08:00-18:00; Th 08:00-20:00; Fr 08:00-18:00; Sa 08:00-17:00,Bakers Delight,Q4849261
8796099215383,best_and_less_au,Geraldton,"Centro Stirlings, 54 Sanford St, Geraldton, Western Australia, 6530",Geraldton,WA,,AU,+61 8 9964 2677,https://www.bestandless.com.au/store/Geraldton,Mo-We 08:00-17:30; Th 08:00-19:00; Fr 08:00-17:30; Sa 09:00-17:00; Su 11:00-14:00,Best & Less,Q4896542
21949729,bottlemart_au,Geraldton Motor Inn,,,WA,,AU,+61 8 9964 4777,,,Bottlemart,Q102863175
21949753,bottlemart_au,Geraldton Beach Hotel,,,WA,,AU,+61 8 9921 4444,,,Bottlemart,Q102863175
1048,bp,BILLABONG HOTEL MOTEL - Temporary closed,,Meadow,WA,,AU,+61 8 9942 5980,,Mo-Su 06:00-18:00,BP,Q152057
1066,bp,bp OPT BILLABONG HOTEL MOTEL - Temporary closed,,MEADOW,WA,,AU,+61 8 9942 5980,,24/7,BP,Q152057
7298,bp,BP GERALDTON FUELS,,GERALDTON,WA,,AU,+61 8 9920 8000,,24/7,BP,Q152057
1892,bp,BP WONTHELLA,,WEBBERTON,WA,,AU,+61 8 9921 1153,,24/7,BP,Q152057
6437,bp,BP Flores Road,,GERALDTON,WA,,AU,+61 8 9921 1290,,24/7,BP,Q152057
1987,bp,DPT GERALDTON 15C,,GERALDTON,WA,,AU,+61 8 9921 0100,,24/7,BP,Q152057
6610,bp,BP OPT GERALDTON,,GERALDTON,WA,,AU,+61 8 9921 2412,,24/7,BP,Q152057
6023,bp,DPT GERALDTON AMBT,,GERALDTON,WA,,AU,+61 8 9921 2412,,24/7,BP,Q152057
https://www.bridgestone.com.au/stores/wa/bridgestone-service-centre-geraldton,bridgestone_select,Bridgestone Service Centre Geraldton,,Geraldton,WA,,AU,+61 8 9921 5589,https://www.bridgestone.com.au/stores/wa/bridgestone-service-centre-geraldton/,Mo-Fr 08:00-17:00; Sa 08:00-24:00,Bridgestone Select Tyre & Auto,Q122420123
852,burson_auto_parts_au,GERALDTON,"47 BRADFORD STREET, WONTHELLA WA 6530, Australia",WONTHELLA,WA,,AU,+61 8 9948 7100,,Mo-Fr 08:00-17:00; Sa 08:00-12:00,Burson Auto Parts,Q117075930
70718,caltex,Caltex Tarcoola Beach,,Geraldton,WA,,AU,+61 8 9999 1864,,,Caltex,Q277470
44916,cellarbrations_au,CELLARBRATIONS AT WONTHELLA,,WONTHELLA,WA,,AU,+61 8 9921 8555,,Mo-Sa 10:00-21:00,Cellarbrations,Q109807592
48091,cellarbrations_au,CELLARBRATIONS AT QUEENS,,GERALDTON,WA,,AU,+61 8 9964 6216,,Mo-Sa 10:00-21:00; Su 10:00-20:00,Cellarbrations,Q109807592
12861,cellarbrations_au,CELLARBRATIONS AT CENTRAL,,GERALDTON,WA,,AU,+61 8 9921 8925,,Mo-Su 10:00-21:00,Cellarbrations,Q109807592
CT6473,chicken_treat_au,Mahomets Flats,,South Geraldton,WA,,AU,+61 8 6157 5320,https://www.chickentreat.com.au/locations/mahomets-flats,Mo-Su 10:00-21:00,Chicken Treat,Q5096274
5104,coles_au,Geraldton Bluff Point,,Geraldton,WA,,AU,+61 8 6115 6437,,,Liquorland,Q2283837
3083,coles_au,Northgate,,Geraldton,WA,,AU,+61 8 6115 6438,,,Liquorland,Q2283837
350,coles_au,Coles Geraldton,,Geraldton,WA,,AU,+61 8 9948 7300,,,Coles Supermarkets,Q1108172
2033,coles_au,Coles Express Wonthella,,Wonthella,WA,,AU,+61 8 6247 4356,,,Coles Express,Q5144653
2034,coles_au,Coles Express Tarcoola,,Mahomets Flats,WA,,AU,+61 8 6247 4358,,,Coles Express,Q5144653
651201,commonwealth_bank_au,Geraldton,,Geraldton,WA,,AU,,,,Commonwealth Bank,Q285328
651202,commonwealth_bank_au,Geraldton,,Geraldton,WA,,AU,,,,Commonwealth Bank,Q285328
651235,commonwealth_bank_au,Bankwest Geraldton,,Geraldton,WA,,AU,,,,Commonwealth Bank,Q285328
651234,commonwealth_bank_au,Bankwest Geraldton,,Geraldton,WA,,AU,,,,Commonwealth Bank,Q285328
621,greencross_au,Geraldton,,Geraldton,WA,,AU,+61 8 9921 2648,https://www.petbarn.com.au/store-finder/geraldton,Mo-We 09:00-18:00; Th 09:00-19:00; Fr 09:00-18:00; Sa 08:30-17:00; Su 11:00-17:00,Petbarn,Q104746468
637,house_au,House Geraldton,,Geraldton,WA,,AU,+61 8 9964 6358,https://www.house.com.au/stores/house-geraldton,Mo-We 09:00-17:30; Th 09:00-19:00; Fr 09:00-17:30; Sa 09:00-17:00,House,Q117921987
3120,hungry_jacks,Geraldton,,Geraldton,WA,,AU,+61 8 9999 1961,,,Hungry Jack's,Q3036373
3168,hungry_jacks,Geraldton South,,Geraldton,WA,,AU,+61 8 9999 1962,,,Hungry Jack's,Q3036373
42979,just_group,Jay Jays Geraldton,"Shop 10 Northgate S/C, 54 Sanford Street, Geraldton, WA, 6530, Australia",Geraldton,WA,,AU,+61 8 9921 7105,https://justjeans.jgl.com.au/shop/stores/jayjays-geraldton,,Jay Jays,Q6166759
9500804,mcdonalds_qstore,GERALDTON WA,,Geraldton,WA,,AU,+61 8 9964 8880,,24/7,McDonald's,Q38076
9501359,mcdonalds_qstore,GERALDTON HOMEMAKER CENTRE WA,,Webberton,WA,,AU,+61 8 9921 1768,,24/7,McDonald's,Q38076
NMA30399,nissan_europe,Midwest Nissan,,GERALDTON,WA,,AU,+61 8 9938 0500,http://www.midwestnissan.com.au,,Nissan,Q20165
10111617,shell,SHELL COLES EXPRESS WONTHELLA,,WONTHELLA,WA,,AU,+61 8 6247 4356,https://find.shell.com/au/fuel/10111617-shell-coles-express-wonthella,,Shell,Q110716465
10111534,shell,SHELL GERALDTON UNMANNED,,MERU,WA,,AU,+61 131618,https://find.shell.com/au/fuel/10111534-shell-geraldton-unmanned,24/7,Shell,Q110716465
10111627,shell,SHELL COLES EXPRESS TARCOOLA,,MAHOMETS FLATS,WA,,AU,+61 8 6247 4358,https://find.shell.com/au/fuel/10111627-shell-coles-express-tarcoola,24/7,Shell,Q110716465
3535,specsavers,Geraldton,,Geraldton,WA,,AU,+61 8 9964 7555,https://www.specsavers.com.au/stores/geraldton,,Specsavers,Q2000610
WGER,spendless_au,Geraldton,,Geraldton,WA,,AU,+61 8 6207 2021,,Mo-We 09:00-17:30; Th 08:00-20:00; Fr 09:00-17:30; Sa 09:00-17:00; Su 11:00-14:30,Spendless,Q120668938
RZQT,telstra_au,Geraldton,,Geraldton,WA,,AU,+61 1800 844 048,,Mo-We 09:00-17:00; Th 09:00-17:30; Fr-Sa 09:00-17:00,Telstra,Q721162
2108,terry_white_chemmart_au,TerryWhite Chemmart Bluff Point,,Geraldton,WA,,AU,+61 8 9923 1584,https://terrywhitechemmart.com.au/stores/terrywhite-chemmart-bluff-point,Mo-Fr 08:00-18:00; Sa 08:30-14:00,Terry White Chemmart,Q24089773
https://www.thegoodguys.com.au/geraldton,the_good_guys_au,The Good Guys Geraldton,,Geraldton,WA,,AU,+61 8 9920 7000,https://www.thegoodguys.com.au/geraldton,Mo 11:00-17:00; Tu-Fr 09:00-17:30; Sa 09:00-17:00; Su 11:00-16:00,The Good Guys,Q7737217
,tyrepower_au,Geraldton Tyrepower,,Geraldton,WA,,AU,+61 8 9921 4144,https://geraldtontyrepower.com.au/,,Tyrepower,Q108855867
633,ultra_tune_au,Ultra Tune Geraldton,,GERALDTON,WA,,AU,+61 8 9921 1899,https://www.ultratune.com.au/store/ultra-tune-geraldton,Mo-Fr 08:00-17:30; Sa 08:00-12:00,Ultra Tune,Q29025649
,visa,,,GERALDTON,WA,,AU,,,,,
,visa,,,GERALDTON,WA,,AU,,,,,
,visa,,,GERALDTON,WA,,AU,,,,,
,visa,,,GERALDTON,WA,,AU,,,,,
,visa,,,GERALDTON,WA,,AU,,,,,
,visa,,,MAHOMETS FLATS,WA,,AU,,,,,
,visa,,,GERALDTON,WA,,AU,,,,,
,visa,,,GERALDTON,WA,,AU,,,,,
,visa,,,GERALDTON,WA,,AU,,,,,
,visa,,,GERALDTON,WA,,AU,,,,,
,visa,,,GERALDTON,WA,,AU,,,,,
,visa,,,GERALDTON,WA,,AU,,,,,
,visa,,,GERALDTON,WA,,AU,,,,,
,visa,,,GERALDTON,WA,,AU,,,,,
,visa,,,MOUNT TARCOOLA,WA,,AU,,,,,
,visa,,,WONTHELLA,WA,,AU,,,,,
,visa,,,WONTHELLA,WA,,AU,,,,,
,visa,,,WONTHELLA,WA,,AU,,,,,
,visa,,,BLUFF POINT,WA,,AU,,,,,
,visa,,,GERALDTON,WA,,AU,,,,,
,visa,,,WONTHELLA,WA,,AU,,,,,
9a000efcab50aa83479ae37b1eea5b5a,western_union,AUSTRALIA POST,,Bluff Point,WA,,AU,+61 1800 501 500,https://location.westernunion.com/au/wa/bluff-point/9a000efcab50aa83479ae37b1eea5b5a,Mo-Fr 07:00-08:00; Sa 07:00-14:00,Western Union,Q861042
38cc76759529f85bdbb43e642c2f07ab,western_union,AUSTRALIA POST,,Geraldton,WA,,AU,+61 1800 501 500,https://location.westernunion.com/au/wa/geraldton/38cc76759529f85bdbb43e642c2f07ab,Mo-Fr 08:30-17:00; Sa 09:00-12:30,Western Union,Q861042
923afc0f00aad4d8c503f8c8b36ac6dc,western_union,FILMART ASIAN SHOP,,Kalgoorlie,WA,,AU,+61 1800 501 500,https://location.westernunion.com/au/wa/kalgoorlie/923afc0f00aad4d8c503f8c8b36ac6dc,Mo-Su 07:30-19:00,Western Union,Q861042
