Ref,Spider,Name,Address,City,State,Zipcode,Country,Phone,Website,Hours,Brand,WikiData
45043_1,bmw_group,"Jürgen Motors Jürgen Motors, S.A. de C.V. Jürgen Motors",,Guadalajara,Jalisco,,MX,+52 33 3630 3019,https://www.bmw-motorrad.com.mx/jurgen-guadalajara,,BMW Motorrad,Q249173
1303,first_cash,Cash America Pawn,,Guadalajara,Jalisco,,MX,+52 33 3827 5132,,,Cash America,Q5048636
GS0015452,mercedes_benz,"Eurostern, S.A. de C.V.",,Guadalajara,Jalisco,,MX,+52 33 3630 4545,https://www.mercedes-benz-eurostern-guadalajara.com.mx/,"Mo-Sa 09:00-13:00,14:00-20:00",Mercedes-Benz,Q36008
,visa,,,GUADALAJARA,JALISCO,,MX,,,,,
,visa,,,GUADALAJARA,JALISCO,,MX,,,,,
,visa,,,GUADALAJARA,JALISCO,,MX,,,,,
,visa,,,GUADALAJARA,JALISCO,,MX,,,,,
,visa,,,GUADALAJARA,JALISCO,,MX,,,,,
,visa,,,GUADALAJARA,JALISCO,,MX,,,,,
,visa,,,GUADALAJARA,JALISCO,,MX,,,,,
,visa,,,GUADALAJARA,JALISCO,,MX,,,,,
,visa,,,GUADALAJARA,JALISCO,,MX,,,,,
,visa,,,GUADALAJARA,JALISCO,,MX,,,,,
,visa,,,GUADALAJARA,JALISCO,,MX,,,,,
,visa,,,GUADALAJARA,JALISCO,,MX,,,,,
,visa,,,GUADALAJARA,JALISCO,,MX,,,,,
,visa,,,GUADALAJARA,JALISCO,,MX,,,,,
,visa,,,GUADALAJARA,JALISCO,,MX,,,,,
,visa,,,GUADALAJARA,JALISCO,,MX,,,,,
,visa,,,GUADALAJARA,JALISCO,,MX,,,,,
,visa,,,GUADALAJARA,JALISCO,,MX,,,,,
,visa,,,GUADALAJARA,JALISCO,,MX,,,,,
,visa,,,GUADALAJARA,JALISCO,,MX,,,,,
,visa,,,GUADALAJARA,JALISCO,,MX,,,,,
,visa,,,GUADALAJARA,JALISCO,,MX,,,,,
,visa,,,GUADALAJARA,JALISCO,,MX,,,,,
,visa,,,ZAPOPAN,JALISCO,,MX,,,,,
344d87acb9df890a48114bda868c94e6,western_union,FARM GUAD OROZCO Y JIMENEZ,,Lagos De Moreno,JALISCO,,MX,+52 800 833 4700,https://location.westernunion.com/mx/jalisco/lagos-de-moreno/344d87acb9df890a48114bda868c94e6,Mo-Su 08:00-22:00,Western Union,Q861042
8e7d830379f5e11888271a38fc5d0529,western_union,FARM GUAD OROZCO Y JIMENEZ,,Lagos De Moreno,JALISCO,,MX,+52 800 833 4700,https://location.westernunion.com/mx/jalisco/lagos-de-moreno/8e7d830379f5e11888271a38fc5d0529,Mo-Su 08:00-22:00,Western Union,Q861042
5b8d939c4f0862b0c2b737b216be7cb0,western_union,FARM GUAD OROZCO Y JIMENEZ,,Lagos De Moreno,JALISCO,,MX,+52 800 833 4700,https://location.westernunion.com/mx/jalisco/lagos-de-moreno/5b8d939c4f0862b0c2b737b216be7cb0,Mo-Su 08:00-22:00,Western Union,Q861042
c40912fc4990521af95c002a39c6d35f,western_union,FARM GUAD FRAY BERNARDO COUSSIN,,Lagos De Moreno,JALISCO,,MX,+52 800 833 4700,https://location.westernunion.com/mx/jalisco/lagos-de-moreno/c40912fc4990521af95c002a39c6d35f,Mo-Su 08:00-20:00,Western Union,Q861042
3d8abbf1cbf9a4b27a9d1f58a515b130,western_union,FARM GUAD FRAY BERNARDO COUSSIN,,Lagos De Moreno,JALISCO,,MX,+52 800 833 4700,https://location.westernunion.com/mx/jalisco/lagos-de-moreno/3d8abbf1cbf9a4b27a9d1f58a515b130,Mo-Su 08:00-20:00,Western Union,Q861042
5f8190b7d58ee60b853b4aa838500d2c,western_union,FARM GUAD FRAY BERNARDO COUSSIN,,Lagos De Moreno,JALISCO,,MX,+52 800 833 4700,https://location.westernunion.com/mx/jalisco/lagos-de-moreno/5f8190b7d58ee60b853b4aa838500d2c,Mo-Su 08:00-20:00,Western Union,Q861042
9899915b107308f480c1e3d736940fe5,western_union,TIENDA MUEBLERIA EL BODEGON YAHUALICA,,Yahualica,JALISCO,,MX,+52 344 784 1220,https://location.westernunion.com/mx/jalisco/yahualica/9899915b107308f480c1e3d736940fe5,Mo-Sa 10:00-20:30; Su 10:00-14:00,Western Union,Q861042
2648d8a2612707f2f91ab3a0750eb77c,western_union,TIENDA MUEBLERIA EL BODEGON YAHUALICA,,Yahualica,JALISCO,,MX,+52 344 784 1220,https://location.westernunion.com/mx/jalisco/yahualica/2648d8a2612707f2f91ab3a0750eb77c,Mo-Sa 10:00-20:30; Su 10:00-14:00,Western Union,Q861042
01701b6140d535d856a54d5dd10bea78,western_union,TIENDA MUEBLERIA EL BODEGON YAHUALICA,,Yahualica,JALISCO,,MX,+52 344 784 1220,https://location.westernunion.com/mx/jalisco/yahualica/01701b6140d535d856a54d5dd10bea78,Mo-Sa 10:00-20:30; Su 10:00-14:00,Western Union,Q861042
c16c8f150052d19afbfdafde89c3c909,western_union,WALDOS SANTA TERESA 4203,,Guadalajara,JALISCO,,MX,+52 55 5246 0700,https://location.westernunion.com/mx/jalisco/guadalajara/c16c8f150052d19afbfdafde89c3c909,Mo-Su 06:30-23:30,Western Union,Q861042
ddeb2681946d4b2f11f153c265fe2fd7,western_union,WALDOS SANTA TERESA 4203,,Guadalajara,JALISCO,,MX,+52 55 5246 0700,https://location.westernunion.com/mx/jalisco/guadalajara/ddeb2681946d4b2f11f153c265fe2fd7,Mo-Su 06:30-23:30,Western Union,Q861042
d5c42a3b90219d3e18a92b8b46ca6b7d,western_union,OXXO DIAZ INDEPENDENCIA GDL,,Guadalajara,JALISCO,,MX,+52 81 8389 2121,https://location.westernunion.com/mx/jalisco/guadalajara/d5c42a3b90219d3e18a92b8b46ca6b7d,Mo-Su 06:00-22:00,Western Union,Q861042
6a6755e876af0cfe4383f11e30bc0dd7,western_union,OXXO DIAZ INDEPENDENCIA GDL,,Guadalajara,JALISCO,,MX,+52 81 8389 2121,https://location.westernunion.com/mx/jalisco/guadalajara/6a6755e876af0cfe4383f11e30bc0dd7,Mo-Su 06:00-22:00,Western Union,Q861042
6955e1ebe09bc596fa093c4ccaf968e3,western_union,OXXO DIAZ INDEPENDENCIA GDL,,Guadalajara,JALISCO,,MX,+52 81 8389 2121,https://location.westernunion.com/mx/jalisco/guadalajara/6955e1ebe09bc596fa093c4ccaf968e3,Mo-Su 06:00-22:00,Western Union,Q861042
3650f8ca47fc413e05aed4b26f5109e3,western_union,FARM GUAD PASEO LOMA,,Guadalajara,JALISCO,,MX,+52 800 833 4700,https://location.westernunion.com/mx/jalisco/guadalajara/3650f8ca47fc413e05aed4b26f5109e3,Mo-Su 08:00-20:00,Western Union,Q861042
26e41b753f52018201f7ffc090431f12,western_union,FARM GUAD PASEO LOMA,,Guadalajara,JALISCO,,MX,+52 800 833 4700,https://location.westernunion.com/mx/jalisco/guadalajara/26e41b753f52018201f7ffc090431f12,Mo-Su 08:00-20:00,Western Union,Q861042
1858b6380bb1e22beb47bf99b0cfc446,western_union,FARM GUAD PASEO LOMA,,Guadalajara,JALISCO,,MX,+52 800 833 4700,https://location.westernunion.com/mx/jalisco/guadalajara/1858b6380bb1e22beb47bf99b0cfc446,Mo-Su 08:00-20:00,Western Union,Q861042
d083d92a055afee06fdb53498dfa8246,western_union,OXXO GENERAL CORONADO GDL,,Guadalajara,JALISCO,,MX,+52 81 8389 2121,https://location.westernunion.com/mx/jalisco/guadalajara/d083d92a055afee06fdb53498dfa8246,Mo-Su 06:00-22:00,Western Union,Q861042
8ae2d3ffbbdf1284fd3208659cddcb86,western_union,OXXO GENERAL CORONADO GDL,,Guadalajara,JALISCO,,MX,+52 81 8389 2121,https://location.westernunion.com/mx/jalisco/guadalajara/8ae2d3ffbbdf1284fd3208659cddcb86,Mo-Su 06:00-22:00,Western Union,Q861042
b9cec4da5e179a4afad85fb58962fcdf,western_union,OXXO GENERAL CORONADO GDL,,Guadalajara,JALISCO,,MX,+52 81 8389 2121,https://location.westernunion.com/mx/jalisco/guadalajara/b9cec4da5e179a4afad85fb58962fcdf,Mo-Su 06:00-22:00,Western Union,Q861042
9e1dae0e3fea8b36f4b52b93e26c87af,western_union,7ELEVEN JESUS GARCIA II 1555,,Guadalajara,JALISCO,,MX,+52 800 833 4700,https://location.westernunion.com/mx/jalisco/guadalajara/9e1dae0e3fea8b36f4b52b93e26c87af,Mo-Su 06:00-22:00,Western Union,Q861042
54aefbca84e637cd76a7830388c286ea,western_union,7ELEVEN JESUS GARCIA II 1555,,Guadalajara,JALISCO,,MX,+52 800 833 4700,https://location.westernunion.com/mx/jalisco/guadalajara/54aefbca84e637cd76a7830388c286ea,Mo-Su 06:00-22:00,Western Union,Q861042
8899be93dbf0240ff72d4d5bc60b1708,western_union,OXXO SANTA TERE GDL,,Guadalajara,JALISCO,,MX,+52 81 8389 2121,https://location.westernunion.com/mx/jalisco/guadalajara/8899be93dbf0240ff72d4d5bc60b1708,Mo-Su 08:00-22:00,Western Union,Q861042
97dd12f3e8c00e9ab3f32d06079727a1,western_union,OXXO SANTA TERE GDL,,Guadalajara,JALISCO,,MX,+52 81 8389 2121,https://location.westernunion.com/mx/jalisco/guadalajara/97dd12f3e8c00e9ab3f32d06079727a1,Mo-Su 08:00-22:00,Western Union,Q861042
5e730b8e61c44c9cfd7c357ae4534ee4,western_union,OXXO SANTA TERE GDL,,Guadalajara,JALISCO,,MX,+52 81 8389 2121,https://location.westernunion.com/mx/jalisco/guadalajara/5e730b8e61c44c9cfd7c357ae4534ee4,Mo-Su 08:00-22:00,Western Union,Q861042
ec0f454b87290e584dddad174fd96e67,western_union,ELEKTRA 4461,,Guadalajara,JALISCO,,MX,+52 55 1720 8177,https://location.westernunion.com/mx/jalisco/guadalajara/ec0f454b87290e584dddad174fd96e67,Mo-Su 09:00-21:00,Western Union,Q861042
f9310fd016dbc733de8dd1d7dee470db,western_union,WALDOS SANTA TERESA 4203,,Guadalajara,JALISCO,,MX,+52 55 5246 0700,https://location.westernunion.com/mx/jalisco/guadalajara/f9310fd016dbc733de8dd1d7dee470db,Mo-Su 06:30-23:30,Western Union,Q861042
475ec2c5ae1fd34462c23f47bfec98a2,western_union,OXXO ANDRES TERAN GDL,,Guadalajara,JALISCO,,MX,+52 81 8389 2121,https://location.westernunion.com/mx/jalisco/guadalajara/475ec2c5ae1fd34462c23f47bfec98a2,Mo-Su 08:00-22:00,Western Union,Q861042
e83faf80f6a8f00ba398ff13a94f9698,western_union,OXXO ANDRES TERAN GDL,,Guadalajara,JALISCO,,MX,+52 81 8389 2121,https://location.westernunion.com/mx/jalisco/guadalajara/e83faf80f6a8f00ba398ff13a94f9698,Mo-Su 08:00-22:00,Western Union,Q861042
d75becf597215f4ac736ebfb08a55e70,western_union,OXXO ANDRES TERAN GDL,,Guadalajara,JALISCO,,MX,+52 81 8389 2121,https://location.westernunion.com/mx/jalisco/guadalajara/d75becf597215f4ac736ebfb08a55e70,Mo-Su 08:00-22:00,Western Union,Q861042
580b9a94631bfed81458bc82e6d0ec7f,western_union,BANORTE 01511 GDL SANTA TERESITA,,Guadalajara,JALISCO,,MX,+52 800 833 4700,https://location.westernunion.com/mx/jalisco/guadalajara/580b9a94631bfed81458bc82e6d0ec7f,Mo-Fr 09:00-17:00,Western Union,Q861042
efa2c7d429a5b27cca5f837f442b0438,western_union,BANORTE 01511 GDL SANTA TERESITA,,Guadalajara,JALISCO,,MX,+52 800 833 4700,https://location.westernunion.com/mx/jalisco/guadalajara/efa2c7d429a5b27cca5f837f442b0438,Mo-Fr 09:00-17:00,Western Union,Q861042
5bfbdc584012ec60af6ac4f9b402bf8d,western_union,FUNDACION DONDE GUADALAJARA 8 ID250,,Guadalajara,JALISCO,,MX,+52 999 940 7550,https://location.westernunion.com/mx/jalisco/guadalajara/5bfbdc584012ec60af6ac4f9b402bf8d,Mo-Su 08:00-20:00,Western Union,Q861042
4da2a960ecda8aa97ef98651357de9b6,western_union,FUNDACION DONDE GUADALAJARA 8 ID250,,Guadalajara,JALISCO,,MX,+52 999 940 7550,https://location.westernunion.com/mx/jalisco/guadalajara/4da2a960ecda8aa97ef98651357de9b6,Mo-Su 08:00-20:00,Western Union,Q861042
d4fbe941b74c9c618742cbe744e11afd,western_union,FUNDACION DONDE GUADALAJARA 8 ID250,,Guadalajara,JALISCO,,MX,+52 999 940 7550,https://location.westernunion.com/mx/jalisco/guadalajara/d4fbe941b74c9c618742cbe744e11afd,Mo-Su 08:00-20:00,Western Union,Q861042
6f27f93f1ce3a999769d9ebd126d9323,western_union,MAXI LANA 52 AP CASH,,Guadalajara,JALISCO,,MX,(+52) 33-8257999,https://location.westernunion.com/mx/jalisco/guadalajara/6f27f93f1ce3a999769d9ebd126d9323,Mo-Fr 08:45-19:00; Sa 09:00-17:00; Su 09:00-15:00,Western Union,Q861042
e0aee3675e53320dbf7ecc93ee4a265f,western_union,MAXI LANA 52 AP CASH,,Guadalajara,JALISCO,,MX,(+52) 33-8257999,https://location.westernunion.com/mx/jalisco/guadalajara/e0aee3675e53320dbf7ecc93ee4a265f,Mo-Fr 08:45-19:00; Sa 09:00-17:00; Su 09:00-15:00,Western Union,Q861042
7ec3b7b7b0f2dd5106689b0bbe77d8f5,western_union,MAXI LANA 52 AP CASH,,Guadalajara,JALISCO,,MX,(+52) 33-8257999,https://location.westernunion.com/mx/jalisco/guadalajara/7ec3b7b7b0f2dd5106689b0bbe77d8f5,Mo-Fr 08:45-19:00; Sa 09:00-17:00; Su 09:00-15:00,Western Union,Q861042
d15c01781133c34d1d1d593a4d6b5dd4,western_union,FARM GUAD AMERICAS JAL,,Guadalajara,JALISCO,,MX,+52 800 833 4700,https://location.westernunion.com/mx/jalisco/guadalajara/d15c01781133c34d1d1d593a4d6b5dd4,Mo-Su 08:00-20:00,Western Union,Q861042
67cd6acffe324afcb1f1afd4e8ec8e70,western_union,FARM GUAD AMERICAS JAL,,Guadalajara,JALISCO,,MX,+52 800 833 4700,https://location.westernunion.com/mx/jalisco/guadalajara/67cd6acffe324afcb1f1afd4e8ec8e70,Mo-Su 08:00-20:00,Western Union,Q861042
2023789b2be1827cc52bf3ae3cfe37af,western_union,FARM GUAD AMERICAS JAL,,Guadalajara,JALISCO,,MX,+52 800 833 4700,https://location.westernunion.com/mx/jalisco/guadalajara/2023789b2be1827cc52bf3ae3cfe37af,Mo-Su 08:00-20:00,Western Union,Q861042
b4022642c9bebbe2aa1dcae0d523471a,western_union,FARM GUAD AMERICAS NTE II,,Guadalajara,JALISCO,,MX,+52 800 833 4700,https://location.westernunion.com/mx/jalisco/guadalajara/b4022642c9bebbe2aa1dcae0d523471a,Mo-Su 08:00-22:00,Western Union,Q861042
16012bd748850792e57807af3974d412,western_union,FARM GUAD AMERICAS NTE II,,Guadalajara,JALISCO,,MX,+52 800 833 4700,https://location.westernunion.com/mx/jalisco/guadalajara/16012bd748850792e57807af3974d412,Mo-Su 08:00-22:00,Western Union,Q861042
69c45a082380319c10d70191810efeb0,western_union,FARM GUAD AMERICAS NTE II,,Guadalajara,JALISCO,,MX,+52 800 833 4700,https://location.westernunion.com/mx/jalisco/guadalajara/69c45a082380319c10d70191810efeb0,Mo-Su 08:00-22:00,Western Union,Q861042
6eff47e85a5d82e4c887c34c2440e26d,western_union,7ELEVEN AMERICAS ESQUINA ARISTA 2194,,Guadalajara,JALISCO,,MX,+52 800 833 4700,https://location.westernunion.com/mx/jalisco/guadalajara/6eff47e85a5d82e4c887c34c2440e26d,Mo-Su 06:00-22:00,Western Union,Q861042
6f4d552b1807349acef21866a93d9d59,western_union,7ELEVEN AMERICAS ESQUINA ARISTA 2194,,Guadalajara,JALISCO,,MX,+52 800 833 4700,https://location.westernunion.com/mx/jalisco/guadalajara/6f4d552b1807349acef21866a93d9d59,Mo-Su 06:00-22:00,Western Union,Q861042
515742dce5ff63748e7a04ab6fca7a9c,western_union,7ELEVEN AMERICAS ESQUINA ARISTA 2194,,Guadalajara,JALISCO,,MX,+52 800 833 4700,https://location.westernunion.com/mx/jalisco/guadalajara/515742dce5ff63748e7a04ab6fca7a9c,Mo-Su 06:00-22:00,Western Union,Q861042
9369862cccc10ef70c5c8c37007ac8cc,western_union,FARM GUAD AV DE LAS AMERICANAS,,Guadalajara,JALISCO,,MX,+52 800 833 4700,https://location.westernunion.com/mx/jalisco/guadalajara/9369862cccc10ef70c5c8c37007ac8cc,Mo-Su 08:00-20:00,Western Union,Q861042
b99a85b2e989bd1b73ab6800790d2fa4,western_union,FARM GUAD AV DE LAS AMERICANAS,,Guadalajara,JALISCO,,MX,+52 800 833 4700,https://location.westernunion.com/mx/jalisco/guadalajara/b99a85b2e989bd1b73ab6800790d2fa4,Mo-Su 08:00-20:00,Western Union,Q861042
f118e6bc8940c1fe71352433e2c88b5b,western_union,FARM GUAD AV DE LAS AMERICANAS,,Guadalajara,JALISCO,,MX,+52 800 833 4700,https://location.westernunion.com/mx/jalisco/guadalajara/f118e6bc8940c1fe71352433e2c88b5b,Mo-Su 08:00-20:00,Western Union,Q861042
52ff924195fab0e008b5e256a1b3695f,western_union,OXXO GARIBALDI GDL,,Guadalajara,JALISCO,,MX,+52 81 8389 2121,https://location.westernunion.com/mx/jalisco/guadalajara/52ff924195fab0e008b5e256a1b3695f,Mo-Su 08:00-22:00,Western Union,Q861042
569a153300f10233c2ceb7d30aa16a3d,western_union,OXXO GARIBALDI GDL,,Guadalajara,JALISCO,,MX,+52 81 8389 2121,https://location.westernunion.com/mx/jalisco/guadalajara/569a153300f10233c2ceb7d30aa16a3d,Mo-Su 08:00-22:00,Western Union,Q861042
eb1884895b0047fbb2477896587f6f94,western_union,OXXO GARIBALDI GDL,,Guadalajara,JALISCO,,MX,+52 81 8389 2121,https://location.westernunion.com/mx/jalisco/guadalajara/eb1884895b0047fbb2477896587f6f94,Mo-Su 08:00-22:00,Western Union,Q861042
08b854afd37934997b494e66b9d57991,western_union,OXXO MEXICO GDL,,Guadalajara,JALISCO,,MX,+52 81 8389 2121,https://location.westernunion.com/mx/jalisco/guadalajara/08b854afd37934997b494e66b9d57991,Mo-Su 08:00-22:00,Western Union,Q861042
b9e23d83e3895f23a09b5bb9ac96f94b,western_union,FARM GUAD LADRON DE GUEVARA,,Guadalajara,JALISCO,,MX,+52 800 833 4700,https://location.westernunion.com/mx/jalisco/guadalajara/b9e23d83e3895f23a09b5bb9ac96f94b,Mo-Su 09:00-22:00,Western Union,Q861042
1d687279933e1af121f4457cd5e26a63,western_union,7ELEVEN CENTRO MAGNO 1646,,Guadalajara,JALISCO,,MX,+52 800 833 4700,https://location.westernunion.com/mx/jalisco/guadalajara/1d687279933e1af121f4457cd5e26a63,Mo-Su 06:00-22:00,Western Union,Q861042
8043998ce53bfc34816fe1a95d3fc824,western_union,FARM GUAD LADRON DE GUEVARA,,Guadalajara,JALISCO,,MX,+52 800 833 4700,https://location.westernunion.com/mx/jalisco/guadalajara/8043998ce53bfc34816fe1a95d3fc824,Mo-Su 09:00-22:00,Western Union,Q861042
2e230e9086516a532157270ee775d245,western_union,OXXO MARIA VIGIL GDL,,Guadalajara,JALISCO,,MX,+52 81 8389 2121,https://location.westernunion.com/mx/jalisco/guadalajara/2e230e9086516a532157270ee775d245,Mo-Su 08:00-22:00,Western Union,Q861042
15983ec889a13481fc6ea5991e83914a,western_union,OXXO PEREZ VERDIA GDL,,Guadalajara,JALISCO,,MX,+52 81 8389 2121,https://location.westernunion.com/mx/jalisco/guadalajara/15983ec889a13481fc6ea5991e83914a,Mo-Su 08:00-22:00,Western Union,Q861042
8d3dde82b2cd9f5b365be7206974e9f6,western_union,OXXO PEREZ VERDIA GDL,,Guadalajara,JALISCO,,MX,+52 81 8389 2121,https://location.westernunion.com/mx/jalisco/guadalajara/8d3dde82b2cd9f5b365be7206974e9f6,Mo-Su 08:00-22:00,Western Union,Q861042
c2eba347fbdba228cdecb557c5a7d6cc,western_union,OXXO PEREZ VERDIA GDL,,Guadalajara,JALISCO,,MX,+52 81 8389 2121,https://location.westernunion.com/mx/jalisco/guadalajara/c2eba347fbdba228cdecb557c5a7d6cc,Mo-Su 08:00-22:00,Western Union,Q861042
1ee64b11f64f559b961041b77414fa24,western_union,7ELEVEN LUIS PEREZ VERDIA 313,,Guadalajara,JALISCO,,MX,+52 800 833 4700,https://location.westernunion.com/mx/jalisco/guadalajara/1ee64b11f64f559b961041b77414fa24,Mo-Su 06:00-22:00,Western Union,Q861042
941e1565884fc0de08c27a621a032911,western_union,7ELEVEN LUIS PEREZ VERDIA 313,,Guadalajara,JALISCO,,MX,+52 800 833 4700,https://location.westernunion.com/mx/jalisco/guadalajara/941e1565884fc0de08c27a621a032911,Mo-Su 06:00-22:00,Western Union,Q861042
77797ecbfe28d847df069156db835813,western_union,7ELEVEN LUIS PEREZ VERDIA 313,,Guadalajara,JALISCO,,MX,+52 800 833 4700,https://location.westernunion.com/mx/jalisco/guadalajara/77797ecbfe28d847df069156db835813,Mo-Su 06:00-22:00,Western Union,Q861042
167233984444adf0964e3296b94d709c,western_union,OXXO MEXICO GDL,,Guadalajara,JALISCO,,MX,+52 81 8389 2121,https://location.westernunion.com/mx/jalisco/guadalajara/167233984444adf0964e3296b94d709c,Mo-Su 08:00-22:00,Western Union,Q861042
76c293bc8d2d0f2a8cfb17a88cc89a0e,western_union,WALDOS AV MEXICO GUADALAJARA JAL 6601,,Guadalajara,JALISCO,,MX,+52 55 5246 0700,https://location.westernunion.com/mx/jalisco/guadalajara/76c293bc8d2d0f2a8cfb17a88cc89a0e,Mo-Su 06:30-23:30,Western Union,Q861042
5bffae584fe1d750719c00cf63fca57c,western_union,7ELEVEN CENTRO MAGNO 1646,,Guadalajara,JALISCO,,MX,+52 800 833 4700,https://location.westernunion.com/mx/jalisco/guadalajara/5bffae584fe1d750719c00cf63fca57c,Mo-Su 06:00-22:00,Western Union,Q861042
a122fe78e609ff0aa09e63af9b3e8ff9,western_union,SORIANA CITY TOWER 677,,Guadalajara,JALISCO,,MX,+52 800 555 6555,https://location.westernunion.com/mx/jalisco/guadalajara/a122fe78e609ff0aa09e63af9b3e8ff9,Mo-Su 08:00-22:00,Western Union,Q861042
46311118f577252898c602c1797255b2,western_union,SORIANA CITY TOWER 677,,Guadalajara,JALISCO,,MX,+52 800 555 6555,https://location.westernunion.com/mx/jalisco/guadalajara/46311118f577252898c602c1797255b2,Mo-Su 08:00-22:00,Western Union,Q861042
5584b2bd2647b8a9478e900b9047379e,western_union,SORIANA CITY TOWER 677,,Guadalajara,JALISCO,,MX,+52 800 555 6555,https://location.westernunion.com/mx/jalisco/guadalajara/5584b2bd2647b8a9478e900b9047379e,Mo-Su 08:00-22:00,Western Union,Q861042
71bb9e969cc845697ad6ea444abf1c6c,western_union,OXXO ONDASDELAALEGRIA GDL,,Guadalajara,JALISCO,,MX,+52 81 8389 2121,https://location.westernunion.com/mx/jalisco/guadalajara/71bb9e969cc845697ad6ea444abf1c6c,Mo-Su 08:00-22:00,Western Union,Q861042
7655df47542d1c83759eff38da877cce,western_union,OXXO ONDASDELAALEGRIA GDL,,Guadalajara,JALISCO,,MX,+52 81 8389 2121,https://location.westernunion.com/mx/jalisco/guadalajara/7655df47542d1c83759eff38da877cce,Mo-Su 08:00-22:00,Western Union,Q861042
3a1cf780344f8cd4d7bb56821b24b329,western_union,OXXO ONDASDELAALEGRIA GDL,,Guadalajara,JALISCO,,MX,+52 81 8389 2121,https://location.westernunion.com/mx/jalisco/guadalajara/3a1cf780344f8cd4d7bb56821b24b329,Mo-Su 08:00-22:00,Western Union,Q861042
4d113f32916226270e2767f0337a18c2,western_union,OXXO MARIA VIGIL GDL,,Guadalajara,JALISCO,,MX,+52 81 8389 2121,https://location.westernunion.com/mx/jalisco/guadalajara/4d113f32916226270e2767f0337a18c2,Mo-Su 08:00-22:00,Western Union,Q861042
3a0a0a49b087c90078ed694706cf0a45,western_union,OXXO MARIA VIGIL GDL,,Guadalajara,JALISCO,,MX,+52 81 8389 2121,https://location.westernunion.com/mx/jalisco/guadalajara/3a0a0a49b087c90078ed694706cf0a45,Mo-Su 08:00-22:00,Western Union,Q861042
