Ref,Spider,Name,Address,City,State,Zipcode,Country,Phone,Website,Hours,Brand,WikiData
22140,asics_us,Hibbett Sports,1500 Military St S,Hamilton,AL,,US,+1 205-921-0160,,,asics,Q327247
2372,autozone_us,AutoZone Auto Parts Hamilton,,Hamilton,AL,,US,+1 205-921-0043,https://www.autozone.com/locations/al/hamilton/1684-military-st-s.html,Mo-Sa 07:00-20:00; Su 08:00-19:00,AutoZone,Q4826087
200168,bluerhino,Love's #814,,Hamilton,AL,,US,+1 205-754-3100,,,Blue Rhino,Q65681213
33,bluerhino,Walmart #1100,,Hamilton,AL,,US,+1 205-921-3090,,,Blue Rhino,Q65681213
91022,bluerhino,Hamilton Super Valu - SV #710404,,Hamilton,AL,,US,+1 205-921-2119,,,Blue Rhino,Q65681213
45198,chevron,Chevron Station #45198,197 MILITARY ST,HAMILTON,AL,,US,,,,Chevron,Q319642
304606,chevron,Texaco Station #304606,215 BEXAR AVE,HAMILTON,AL,,US,,,,Chevron,Q319642
382268,chevron,Chevron Station #382268,1705 MILITARY STREET S,HAMILTON,AL,,US,+1 205-430-2119,,,Chevron,Q319642
,credit_union_us,Listerhill CU,,Hamilton,AL,,US,+1 800-239-6023,,Mo-Fr 09:00-05:00,,
80010172,cricket_wireless,Cricket Wireless Authorized Retailer,,Hamilton,AL,,US,+1 205-498-6050,https://www.cricketwireless.com/stores,Mo-Sa 10:00-19:00; Su 13:00-17:00,Cricket Wireless,Q5184987
18259,dollar_general,Dollar General,,Hamilton,AL,,US,+1 205-395-3300,https://www.dollargeneral.com/store-directory/al/hamilton/18259,Mo-Su 08:00-22:00,Dollar General,Q145168
5822,dominos_pizza_us,Domino's Pizza,,Hamilton,AL,,US,+1 205-634-8400,https://pizza.dominos.com/alabama/hamilton/1261-military-st-s,Mo-Th 10:00-24:00; Fr-Sa 10:00-01:00; Su 10:00-24:00,Domino's,Q839466
https://www.edwardjones.com/us-en/financial-advisor/larry-nix,edwardjones,Larry D Nix,,Hamilton,AL,,US,+1 205-921-0260,https://www.edwardjones.com/us-en/financial-advisor/larry-nix,Mo-Th 08:00-16:30; Fr 08:00-15:00,Edward Jones,Q5343830
https://www.harborfreight.com/storelocator/1500-military-st-s-ste-10-hamilton-35570?number=3207,harborfreight,"Harbor Freight Tools Hamilton, AL",,Hamilton,AL,,US,+1 205-634-1414,https://www.harborfreight.com/storelocator/1500-military-st-s-ste-10-hamilton-35570?number=3207,Mo-Sa 08:00-20:00; Su 09:00-18:00,Harbor Freight Tools,Q5654601
1501390,hardees_us,Hardee's,,Hamilton,AL,,US,+1 205-921-9108,https://locations.hardees.com/al/hamilton/261-bexar-ave-e,,Hardee's,Q1585088
585,huddle_house_us,AL - Hamilton,,Hamilton,AL,,US,+1 205-921-0525,https://www.huddlehouse.com/locations/al/hamilton/210-river-road-dr,Mo-Th 06:00-22:00; Fr-Sa 06:00-00:00; Su 06:00-22:00,Huddle House,Q5928324
27131,h_r_block,H&R Block,,Hamilton,AL,,US,+1 205-921-3311,https://www.hrblock.com/local-tax-offices/alabama/hamilton/1500-military-st-south/27131/,,H&R Block,Q5627799
https://office.jacksonhewitt.com/#27576563,jackson_hewitt,Jackson Hewitt,,Hamilton,AL,,US,+1 205-319-3150,https://office.jacksonhewitt.com/tax-preparation-services-locations/en/al/hamilton/1706-military-street-south/51100,Mo-Sa 11:00-19:00; Su 13:00-17:00,Jackson Hewitt,Q6117132
1082,loves,Site 814,,Hamilton,AL,,US,+1 205-754-3100,,,Love's,Q1872496
158445,marathon_petroleum_us,Hamilton Marathon,,Hamilton,AL,,US,+1 205-921-1776,,,Marathon,Q458363
https://locations.oreillyauto.com/al/hamilton/check-engine-light-testing-1961.html,oreilly,Your Hamilton O'Reilly Auto Parts Store,,Hamilton,AL,,US,+1 205-921-2003,https://locations.oreillyauto.com/al/hamilton/check-engine-light-testing-1961.html,Mo-Sa 07:00-21:00; Su 08:00-19:00,O'Reilly Auto Parts,Q7071951
https://locations.oreillyauto.com/al/hamilton/wiper-installation-1961.html,oreilly,Your Hamilton O'Reilly Auto Parts Store,,Hamilton,AL,,US,+1 205-921-2003,https://locations.oreillyauto.com/al/hamilton/wiper-installation-1961.html,Mo-Sa 07:00-21:00; Su 08:00-19:00,O'Reilly Auto Parts,Q7071951
https://locations.oreillyauto.com/al/hamilton/battery-testing-1961.html,oreilly,Your Hamilton O'Reilly Auto Parts Store,,Hamilton,AL,,US,+1 205-921-2003,https://locations.oreillyauto.com/al/hamilton/battery-testing-1961.html,Mo-Sa 07:00-21:00; Su 08:00-19:00,O'Reilly Auto Parts,Q7071951
https://locations.oreillyauto.com/al/hamilton/autopartes-1961.html,oreilly,Tu tienda O'Reilly Auto Parts en Hamilton,,Hamilton,AL,,US,+1 205-921-2003,https://locations.oreillyauto.com/al/hamilton/autopartes-1961.html,Mo-Sa 07:00-21:00; Su 08:00-19:00,O'Reilly Auto Parts,Q7071951
al_hamilton_360-bexar-ave-east,pizza_hut_us,360 Bexar Ave. East,,Hamilton,AL,,US,+1 205-921-2523,https://locations.pizzahut.com/al/hamilton/360-bexar-ave-east,,Pizza Hut,Q191615
https://restaurants.subway.com/#14898753,subway,Subway Hamilton Heights,,Hamilton Marion,AL,,US,+1 205-921-7800,https://restaurants.subway.com/united-states/al/hamilton/1500-military-st-s,Mo-Su 08:00-21:00,Subway,Q244457
https://locations.tacobell.com/#3916805,taco_bell,Taco Bell,,Hamilton,AL,,US,+1 205-921-0600,https://locations.tacobell.com/al/hamilton/1746-military-st-s.html,Mo-Su 08:00-01:00,Taco Bell,Q752941
140G,tmobile_us,iRestoration - Hamilton AL,,Hamilton,AL,,US,+1 205-921-1716,https://www.t-mobile.com/store-locator/al/hamilton/irestoration-hamilton-al,,T-Mobile,Q3511885
034120,uhaul,C&C Mini Storage,865 Bexar Ave E,Hamilton,AL,,US,+1 205-921-1543,,Mo-Tu 00:00-17:00; Th-Fr 00:00-17:00; Sa 00:00-24:00,U-Haul,Q7862902
001106,uhaul,Wathas Inc,195 - 1st Ave SE,Hamilton,AL,,US,+1 205-921-9989,,Mo-Fr 00:00-17:00; Sa 00:00-24:00,U-Haul,Q7862902
1366052,usps,HAMILTON,,HAMILTON,AL,,US,+1 205-921-3895,,Mo-Tu 08:30-16:30; We 08:30-12:00; Th-Fr 08:30-16:30; Sa 08:30-12:00,United States Postal Service,Q668687
3557000007,usps_collection_boxes,USPS COLLECTION BOX - PO LOBBY,315 BEXAR AVE E,HAMILTON,AL,,US,,,,United States Postal Service,Q668687
3557000001,usps_collection_boxes,USPS COLLECTION BOX - BLUE BOX,315 BEXAR AVE E,HAMILTON,AL,,US,,,,United States Postal Service,Q668687
3557000002,usps_collection_boxes,USPS COLLECTION BOX - BLUE BOX,315 BEXAR AVE E,HAMILTON,AL,,US,,,,United States Postal Service,Q668687
3557000004,usps_collection_boxes,USPS COLLECTION BOX - PO LOBBY,315 BEXAR AVE E,HAMILTON,AL,,US,,,,United States Postal Service,Q668687
3557000006,usps_collection_boxes,USPS COLLECTION BOX - PO LOBBY,315 BEXAR AVE E,HAMILTON,AL,,US,,,,United States Postal Service,Q668687
,visa,,,HAMILTON,AL,,US,,,,,
,visa,,,HAMILTON,AL,,US,,,,,
,visa,,,HAMILTON,AL,,US,,,,,
,visa,,,HAMILTON,AL,,US,,,,,
,visa,,,HAMILTON,AL,,US,,,,,
,visa,,,HAMILTON,AL,,US,,,,,
,visa,,,HAMILTON,AL,,US,,,,,
,visa,,,HAMILTON,AL,,US,,,,,
,visa,,,HAMILTON,AL,,US,,,,,
,visa,,,HAMILTON,AL,,US,,,,,
,visa,,,HAMILTON,AL,,US,,,,,
,visa,,,HAMILTON,AL,,US,,,,,
,visa,,,HAMILTON,AL,,US,,,,,
,visa,,,HAMILTON,AL,,US,,,,,
,visa,,,HAMILTON,AL,,US,,,,,
,visa,,,HAMILTON,AL,,US,,,,,
,visa,,,HAMILTON,AL,,US,,,,,
,visa,,,HAMILTON,AL,,US,,,,,
,visa,,,HAMILTON,AL,,US,,,,,
,visa,,,HAMILTON,AL,,US,,,,,
,visa,,,HAMILTON,AL,,US,,,,,
,visa,,,HAMILTON,AL,,US,,,,,
,visa,,,HAMILTON,AL,,US,,,,,
,visa,,,HAMILTON,AL,,US,,,,,
,visa,,,HAMILTON,AL,,US,,,,,
,visa,,,HAMILTON,AL,,US,,,,,
,visa,,,HAMILTON,AL,,US,,,,,
320__BEXAR__AVE__W_HAMILTON_AL_35570,wellsfargo,Wells Fargo,320 BEXAR AVE W,HAMILTON,AL,,US,+1 205-921-7886,https://www.wellsfargo.com/locator/bank/320__BEXAR__AVE__W_HAMILTON_AL_35570/,Mo-Fr 09:00-17:00,Wells Fargo,Q744149
389c9e8045864e6f5401fdc5f3aeadbf,western_union,WALMART #001100,,Hamilton,AL,,US,+1 205-921-3090,https://location.westernunion.com/us/al/hamilton/389c9e8045864e6f5401fdc5f3aeadbf,Mo-Su 07:00-21:00,Western Union,Q861042
1564,world_finance_us,,"535 Military St S Ste 3, Hamilton, AL, 35570",Hamilton,AL,,US,+1 205-921-1254,https://www.loansbyworld.com/branches/branch-1564,Mo-Fr 09:00-17:30; Sa 09:00-12:00,World Finance,Q3569971
