Ref,Spider,Name,Address,City,State,Zipcode,Country,Phone,Website,Hours,Brand,WikiData
https://www.academy.com/storelocator/#8745631,academy_us,Academy Sports + Outdoors,,Gulfport,MS,,US,+1 228-831-5260,https://www.academy.com/storelocator/mississippi/gulfport/store-0058,Mo-Th 09:00-21:00; Fr 09:00-22:00; Sa 08:00-22:00; Su 09:00-21:00,Academy Sports + Outdoors,Q4671380
US518512,adidas,adidas Outlet Store Gulfport,,Gulfport,MS,,US,+1 228-203-2111,https://www.adidas.co.uk/storefront/US518512-gulfport-10425-factory-shop-blvd-adidas-outlet-store-gulfport,,Adidas,Q3895
https://stores.advanceautoparts.com/ms/gulfport/11220-highway-49,advance_auto_parts_us,Advance Auto Parts,,Gulfport,MS,,US,+1 228-539-2706,https://stores.advanceautoparts.com/ms/gulfport/11220-highway-49,Mo-Sa 07:00-21:00; Su 08:30-20:00,Advance Auto Parts,Q4686051
1055499,alamo,Gulfport Biloxi Airport,,Gulfport,MS,,US,+1 833-516-1180,,,ALAMO,Q1429287
https://storelocations.ae.com/#1725955,american_eagle_outfitters,American Eagle Outlet Gulfport Premium Outlets,,Gulfport,MS,,US,+1 228-863-8798,https://storelocations.ae.com/us/ms/gulfport/10000-factory-shops-blvd.html,Mo-Th 11:00-19:00; Fr-Sa 10:00-20:00; Su 12:00-18:00,American Eagle Outlet,Q2842931
https://restaurants.applebees.com/en-us/ms/gulfport/9319-highway-49-89095,applebees,Connect with this Applebee's,,Gulfport,MS,,US,+1 228-868-8867,https://restaurants.applebees.com/en-us/ms/gulfport/9319-highway-49-89095,Mo-Th 11:00-23:00; Fr-Sa 11:00-24:00; Su 11:00-22:00,Applebees,Q621532
12473,asics_us,Academy Sports + Outdoors,15130 Crossroads Pkwy,Gulfport,MS,,US,+1 228-831-5260,,,asics,Q327247
62297,asics_us,Shoe Carnival,15146 Crossroads Pkwy,Gulfport,MS,,US,+1 228-539-0233,,,asics,Q327247
16486,asics_us,Run-N-Tri Company,9138 Carl Legett Rd St D,Gulfport,MS,,US,+1 228-604-2227,,Mo-Fr 10:00-18:00; Sa 10:00-17:00,asics,Q327247
3006,att_us,GULFPORT/CROSSROADS CTR STORE 907,,Gulfport,MS,,US,+1 228-831-1162,https://www.att.com/stores/mississippi/gulfport/3006,Mo-Sa 09:00-20:00; Su 11:00-18:00,AT&T,Q298594
3852,autozone_us,AutoZone Auto Parts Gulfport,,Gulfport,MS,,US,+1 228-832-3135,https://www.autozone.com/locations/ms/gulfport/15248-dedeaux-rd.html,Mo-Th 07:00-21:00; Fr-Sa 07:00-22:00; Su 08:00-21:00,AutoZone,Q4826087
https://www.avis.com/en/locations/us/ms/gulfport/gpt,avis,Avis U S A Gulfport Airport,,Gulfport,MS,,US,+1 228-864-7182,https://www.avis.com/en/locations/us/ms/gulfport/gpt,Mo-Su 08:00-23:00,Avis,Q791136
https://www.banfield.com/locations/veterinarians/ms/gulfport/gul,banfield_pet_hospital,Gulfport,,Gulfport,MS,,US,+1 228-539-2965,https://www.banfield.com/locations/veterinarians/ms/gulfport/gul,Mo-Sa 08:00-18:00; Su 09:00-17:00,Banfield Pet Hospital,Q2882416
BBW01806,bathandbodyworks_us,GULFPORT PREMIUM OUTLETS,,GULFPORT,MS,,US,+1 228-868-8818,,Mo-Th 11:00-19:00; Fr-Sa 10:00-20:00; Su 12:00-18:00,Bath & Body Works,Q810773
538,bealls_us,Bealls,,Gulfport,MS,,US,+1 228-832-3540,https://stores.bealls.com/ms/gulfport/clothing-store-538.html,Mo-Th 09:00-21:00; Fr-Sa 09:00-21:30; Su 10:00-20:00,Bealls,Q4876153
https://stores.bestbuy.com/ms/gulfport/10545-hwy-49-1174.html,bestbuy,Best Buy Gulfport,,Gulfport,MS,,US,+1 228-539-6463,https://stores.bestbuy.com/ms/gulfport/10545-hwy-49-1174.html,,Best Buy,Q533415
175253,bluerhino,Love's #595,,Gulfport,MS,,US,+1 228-832-0199,,,Blue Rhino,Q65681213
207458,bluerhino,Pure Country - MS15823,,Gulfport,MS,,US,+1 606-481-2238,,,Blue Rhino,Q65681213
164675,bluerhino,Family Dollar #08553,,Gulfport,MS,,US,+1 228-832-6424,,,Blue Rhino,Q65681213
57393,bluerhino,Walmart #0969 - Supercenter,,Gulfport,MS,,US,+1 228-864-5197,,,Blue Rhino,Q65681213
237314,bluerhino,Circle K #2723696,,Gulfport,MS,,US,+1 228-328-9260,,,Blue Rhino,Q65681213
179706,bluerhino,Walgreens #17031,,Gulfport,MS,,US,+1 228-832-6280,,,Blue Rhino,Q65681213
154769,bluerhino,Walgreens #5195,,GULFPORT,MS,,US,+1 228-539-9890,,,Blue Rhino,Q65681213
176037,bluerhino,Winn Dixie #1511 - New Orleans,,Gulfport,MS,,US,+1 228-832-8452,,,Blue Rhino,Q65681213
237311,bluerhino,Circle K #2723389,,Gulfport,MS,,US,+1 228-831-3432,,,Blue Rhino,Q65681213
220026,bluerhino,TCB Stop N Geaux,,Gulfport,MS,,US,+1 228-224-4405,,,Blue Rhino,Q65681213
237325,bluerhino,Circle K #2723755,,Gulfport,MS,,US,+1 228-539-5232,,,Blue Rhino,Q65681213
156730,bluerhino,Walgreens # 15484,,Gulfport,MS,,US,+1 228-896-3870,,,Blue Rhino,Q65681213
172478,bluerhino,Family Dollar #09146,,Gulfport,MS,,US,+1 228-539-0663,,,Blue Rhino,Q65681213
196459,bluerhino,Froogels #6 - AWG #6598,,Gulfport,MS,,US,+1 228-265-9747,,,Blue Rhino,Q65681213
207457,bluerhino,Stop-N-Shop #15 - MS15889,,Gulfport,MS,,US,+1 228-604-1782,,,Blue Rhino,Q65681213
237324,bluerhino,Circle K #2723465,,Gulfport,MS,,US,+1 228-831-9810,,,Blue Rhino,Q65681213
3788,buffalo_wild_wings_us,"Gulfport, MS",,Gulfport,MS,,US,+1 228-236-9464,https://www.buffalowildwings.com/locations/us/ms/gulfport/15530-daniel-boulevard/sports-bar-1427,Mo-Th 11:00-23:00; Fr-Sa 11:00-24:00; Su 11:00-23:00,Buffalo Wild Wings,Q509255
39439,cadillac,"TURAN-FOLEY MOTORS, INC.",,Gulfport,MS,,US,+1 228-205-7095,https://www.turanfoleycadillac.com,Mo-Fr 08:00-19:00; Sa 08:00-18:00,Cadillac,Q27436
//locations.carters.com/ms/gulfport/carters-gulfport-ms,carters_us,Carter's Gulfport,,Gulfport,MS,,US,+1 228-863-7711,https://locations.carters.com/ms/gulfport/carters-gulfport-ms,Mo-Th 11:00-19:00; Fr-Sa 10:00-20:00; Su 12:00-18:00,Carter's,Q5047083
https://stores.catofashions.com/#26559766,cato_us,Cato,,,MS,,US,+1 228-864-6404,https://stores.catofashions.com/ms/gulfport/9352-highway-49,Mo-Sa 10:00-20:00; Su 13:00-18:00,Cato,Q16956136
24569,chevrolet,"TURAN-FOLEY MOTORS, INC.",,Gulfport,MS,,US,+1 228-206-0289,https://www.turanfoley.com,Mo-Sa 08:00-19:00,Chevrolet,Q29570
383695,chevron,Chevron Station #383695,12251 CANAL RD,GULFPORT,MS,,US,,,,Chevron,Q319642
207437,chevron,Chevron Station #207437,11207 LORRAINE ROAD,GULFPORT,MS,,US,+1 228-328-4100,,,Chevron,Q319642
001.005.0577,chilis,Gulfport,,Gulfport,MS,,US,+1 228-831-2251,https://www.chilis.com/locations/us/mississippi/gulfport/gulfport/,Mo-Th 11:00-23:00; Fr-Sa 11:00-24:00; Su 11:00-23:00,Chili's,Q1072948
https://locations.chuckecheese.com/us/ms/gulfport/15082-crossroads-pkwy.,chuckecheese,Chuck E. Cheese,,Gulfport,MS,,US,+1 228-832-1613,https://locations.chuckecheese.com/us/ms/gulfport/15082-crossroads-pkwy.,Mo-Th 11:00-21:00; Fr 11:00-22:00; Sa 10:00-22:00; Su 11:00-21:00,Chuck E. Cheese,Q2438391
ms-gulfport/cinemark-gulfport-16,cinemark,Cinemark Gulfport 16,,Gulfport,MS,,US,+1 228-539-5294,https://www.cinemark.com/theatres/ms-gulfport/cinemark-gulfport-16,,Cinemark,Q707530
87588,citi,ATM Walgreens,,Gulfport,MS,,US,,,,Citibank,Q857063
40320,citi,ATM Circle K,,Gulfport,MS,,US,,,,Citibank,Q857063
71877,citi,ATM Racetrac,,Gulfport,MS,,US,,,,Citibank,Q857063
66278,citi,ATM Nic Nac Grocery,,Gulfport,MS,,US,,,,Citibank,Q857063
40348,citi,ATM Circle K,,Gulfport,MS,,US,,,,Citibank,Q857063
47100,citi,ATM CVS,,Gulfport,MS,,US,,,,Citibank,Q857063
40276,citi,ATM Circle K,,Gulfport,MS,,US,,,,Citibank,Q857063
95417,citi,ATM Winn Dixie,,Gulfport,MS,,US,,,,Citibank,Q857063
87849,citi,ATM Walgreens,,Gulfport,MS,,US,,,,Citibank,Q857063
86817,citi,ATM Walgreens,,Gulfport,MS,,US,,,,Citibank,Q857063
66063,citi,ATM Navigator Credit Union,,Gulfport,MS,,US,,,,Citibank,Q857063
58530,citi,ATM GULF COAST COMM FCUORANGE GROVE,,Gulfport,MS,,US,,,,Citibank,Q857063
40675,citi,ATM Circle K,,Gulfport,MS,,US,,,,Citibank,Q857063
om_ms_gulfport_11312-b-highway-49,cititrends,Citi Trends,,Gulfport,MS,,US,+1 228-227-5519,https://locations.cititrends.com/ms/gulfport/11312-b-highway-49.html,Mo 11:00-20:00; Tu 11:00-20:00; We 11:00-20:00; Th 11:00-20:00; Fr 10:00-21:00; Sa 10:00-21:00; Su 12:00-18:00,Citi Trends,Q5122438
gulfport/5373,claires,Shop Ear Piercings & Jewelry at Gulfport Premium Outlets,,GULFPORT,MS,,US,+1 228-864-4556,https://stores.claires.com/us/ms/gulfport/5373.html,Mo-Th 11:00-19:00; Fr-Sa 10:00-20:00; Su 12:00-18:00,Claire's,Q2974996
gulfport/3312,claires,Shop Ear Piercings & Jewelry at Claires Walmart Gulfport,,GULFPORT,MS,,US,+1 228-575-3825,https://stores.claires.com/us/ms/gulfport/3312.html,Mo-We 11:00-18:00; Th 11:00-19:00; Fr-Su 11:00-20:00,Claire's,Q2974996
https://www.coach.com/stores/#17277358,coach_us,COACH Outlet,,Gulfport,MS,,US,+1 228-284-5074,https://www.coach.com/stores/outlets/ms/gulfport/10450-factory-shop-blvd,Mo-Th 11:00-19:00; Fr-Sa 10:00-20:00; Su 12:00-18:00,Coach,Q727697
,credit_union_us,Navigator CU,,Gulfport,MS,,US,+1 228-475-7300,,Mo-Fr 09:00-05:00; Sa 09:00-01:00,,
70144687,cricket_wireless,Cricket Wireless Authorized Retailer,,Gulfport,MS,,US,+1 228-206-6976,https://www.cricketwireless.com/stores/ll/US/MS/Gulfport/9293-Highway-49,Mo-Sa 10:00-20:00; Su 12:00-18:00,Cricket Wireless,Q5184987
206570,crocs_eu,Crocsat Gulfport Outlet,,Gulfport,MS,,US,+1 228-575-9818,,,Crocs,Q926699
248586,dennys,Denny's,,Gulfport,MS,,US,+1 228-214-2376,https://locations.dennys.com/MS/GULFPORT/248586,24/7,Denny's,Q1189695
640,dickeys_barbecue_pit_us,Gulfport - US Hwy 49,,Gulfport,MS,,US,+1 228-539-0031,https://www.dickeys.com/locations/mississippi/gulfport/gulfport,Mo-Su 11:00-21:00,Dickey's Barbecue Pit,Q19880747
82,dirt_cheap_us,Gulfport Dirt Cheap (Super Lux Store!),,Gulfport,MS,,US,+1 228-539-6248,https://ilovedirtcheap.com/locations/store-details/gulfport-dirt-cheap-gulfport,Mo-Sa 09:00-19:00; Su 10:00-19:00,Dirt Cheap,Q123013019
9423,dollartree,DollarTree,,Gulfport,MS,,US,+1 601-746-4189,,Mo-Sa 09:00-21:00; Su 10:00-20:00,Dollar Tree,Q5289230
16087,dollar_general,Dollar General,,Gulfport,MS,,US,+1 769-717-4145,https://www.dollargeneral.com/store-directory/ms/gulfport/16087,Mo-Su 08:00-21:00,Dollar General,Q145168
5911,dominos_pizza_us,Domino's Pizza,,Gulfport,MS,,US,+1 228-831-3030,https://pizza.dominos.com/mississippi/gulfport/11380-hwy-49-north,Mo-Th 10:30-24:00; Fr-Sa 10:30-01:00; Su 10:30-24:00,Domino's,Q839466
5908,dominos_pizza_us,Domino's Pizza,,Gulfport,MS,,US,+1 228-832-1111,https://pizza.dominos.com/mississippi/gulfport/11236-lorraine-rd,Mo-Th 10:30-24:00; Fr-Sa 10:30-01:00; Su 10:30-24:00,Domino's,Q839466
357356,dunkin_us,Dunkin',,Gulfport,MS,,US,+1 228-282-2872,https://locations.dunkindonuts.com/en/ms/gulfport/11181-highway-49-n/357356,Mo-Su 05:00-19:00,Dunkin',Q847743
https://www.edwardjones.com/us-en/financial-advisor/mark-holden,edwardjones,Mark R Holden,,Gulfport,MS,,US,+1 228-328-0423,https://www.edwardjones.com/us-en/financial-advisor/mark-holden,Mo-Fr 08:00-16:30,Edward Jones,Q5343830
100205,electrify_america,Gulfport Premium Outlets,,Gulfport,MS,,US,,,,Electrify America,Q59773555
10000-factory-shops-boulevard,express,Gulfport Premium,,Gulfport,MS,,US,+1 228-346-7092,https://stores.expressfactoryoutlet.com/us/ms/gulfport/10000-factory-shops-boulevard,Mo-Th 10:00-19:00; Fr-Sa 10:00-20:00; Su 12:00-18:00,Express Factory Outlet,Q1384784
29146,family_dollar_us,FAMILY DOLLAR #9146,,Gulfport,MS,,US,+1 228-213-5789,https://www.familydollar.com/locations/ms/gulfport/29146/,Mo-Su 08:00-22:00,Family Dollar,Q5433101
28553,family_dollar_us,FAMILY DOLLAR #8553,,Gulfport,MS,,US,+1 228-213-5788,https://www.familydollar.com/locations/ms/gulfport/28553/,Mo-Su 08:00-22:00,Family Dollar,Q5433101
https://stores.finishline.com/ms/gulfport/gulfport-premium-outlets.html,finishline,Finish Line,,Gulfport,MS,,US,+1 228-284-4347,https://stores.finishline.com/ms/gulfport/gulfport-premium-outlets.html,Mo-Th 11:00-19:00; Fr-Sa 10:00-20:00; Su 12:00-18:00,Finish Line,Q5450341
https://locations.fivebelow.com/ms/gulfport/15128-crossroads-parkway,five_below,Five Below Crossroads Center,,Gulfport,MS,,US,,https://locations.fivebelow.com/ms/gulfport/15128-crossroads-parkway,Mo-Sa 10:00-20:00; Su 11:00-18:00,Five Below,Q5455836
https://restaurants.fiveguys.com/#15552971,five_guys_us,Five Guys Gulfport,,Gulfport,MS,,US,+1 228-206-2027,https://restaurants.fiveguys.com/10495-highway-49,"Mo-Su 11:00-21:30,11:00-22:00",Five Guys,Q1131810
Motorcraft899USAEnglish,ford,Butch Oustalet Inc,,Mississippi,MS,,US,+1 228-863-5525,,,Ford,Q44294
https://www.ford.com/dealerships/dealer-details/ms/gulfport/j-allen-ford/,ford_dealers_us,J Allen Ford,,Gulfport,MS,,US,+1 228-284-5687,https://www.ford.com/dealerships/dealer-details/ms/gulfport/j-allen-ford/,Mo-Sa 08:30-19:00,Ford Motor Company,Q44294
1825,fresenius_kidney_care_us,Fresenius Kidney Care Smkc Orange Grove,,Gulfport,MS,,US,+1 800-881-5101,https://www.freseniuskidneycare.com/dialysis-centers/mississippi/1825,Mo 06:00-21:30; Tu 06:00-17:30; We 06:00-21:30; Th 06:00-17:30; Fr 06:00-21:30; Sa 06:00-17:30,,
3744,gamestop_us,Gulfport Plaza,,Gulfport,MS,,US,+1 228-867-8315,https://www.gamestop.com/search/?store=3744,Mo-Th 12:00-20:00; Fr-Sa 10:00-21:00; Su 12:00-19:00,GameStop,Q202210
https://stores.gnc.com/#24058490,gnc,GNC Gulfport Plaza,,,MS,,US,+1 228-864-0530,https://stores.gnc.com/all-stores-mississippi/gulfport/9354-d-highway-49,Mo-Sa 09:00-20:00; Su 11:00-18:00,GNC,Q4808595
https://www.goldencorral.com/locations/location-detail/2582/golden-corral-us-49/,golden_corral,"Golden Corral 2582, Gulfport, MS",,Gulfport,MS,,US,+1 228-226-0330,https://www.goldencorral.com/locations/location-detail/2582/golden-corral-us-49/,,Golden Corral,Q4039560
791adb75-458a-e111-8dde-005056934050,goodwill,"Goodwill Industries of South Mississippi, Inc.",,Gulfport,MS,,US,+1 228-863-2323,https://www.goodwill.org/locator/location/?store=NzkxYWRiNzUtNDU4YS1lMTExLThkZGUtMDA1MDU2OTM0MDUw&lat=MzAuMzg3OTE=&lng=LTg5LjA5MjE0,,Goodwill,Q5583655
gpththt-home2-suites-gulfport-i-10,hilton,Home2 Suites by Hilton Gulfport I-10,,,MS,,US,+1 228-357-9684,https://www.hilton.com/ar/hotels/gpththt-home2-suites-gulfport-i-10/,,Home2 Suites by Hilton,Q5887912
US0651,hm,Gulfport Premium Outlets,,Gulfport,MS,,US,+1 855-466-7467,,Mo-Th 11:00-19:00; Fr-Sa 10:00-20:00; Su 12:00-18:00,H&M,Q188326
23514,h_r_block,H&R Block,,Gulfport,MS,,US,+1 228-832-1040,https://www.hrblock.com/local-tax-offices/mississippi/gulfport/15214-crossroads-pkwy/23514/,,H&R Block,Q5627799
ms_gulfport_breakfast-15130-turkey-creek-dr-4484,ihop,IHOP Breakfast Restaurants Near You at 15130 Turkey Creek Dr,,Gulfport,MS,,US,+1 228-868-2211,https://restaurants.ihop.com/en-us/ms/gulfport/breakfast-15130-turkey-creek-dr-4484,,IHOP,Q1185675
https://office.jacksonhewitt.com/#27577625,jackson_hewitt,Jackson Hewitt,,Gulfport,MS,,US,+1 228-896-0002,https://office.jacksonhewitt.com/tax-preparation-services-locations/en/ms/gulfport/9350-hwy-49/50969,Mo-Fr 09:00-18:00; Sa 10:00-17:00,Jackson Hewitt,Q6117132
https://office.jacksonhewitt.com/#27577523,jackson_hewitt,Jackson Hewitt,,Gulfport,MS,,US,+1 228-896-0002,https://office.jacksonhewitt.com/tax-preparation-services-locations/en/ms/gulfport/12058-hwy-49/16542,Mo-Fr 09:00-18:00; Sa 10:00-17:00,Jackson Hewitt,Q6117132
https://locations.jimmyjohns.com/ms/gulfport/sandwiches-3784.html,jimmy_johns,Jimmy John's,,Gulfport,MS,,US,+1 228-575-5166,https://locations.jimmyjohns.com/ms/gulfport/sandwiches-3784.html,,Jimmy John's,Q1689380
https://stores.factory.jcrew.com/#832755,j_crew_us,J.Crew Factory,,Gulfport,MS,,US,+1 228-864-3182,https://stores.factory.jcrew.com/us/ms/gulfport/10605-factory-shops-blvd,Mo-Th 11:00-19:00; Fr-Sa 10:00-20:00; Su 12:00-18:00,J. Crew,Q5370765
https://www.katespade.com/stores/#18467861,kate_spade_ca_us,Kate Spade Outlet Gulfport Premium,,Gulfport,MS,,US,+1 228-338-4453,https://www.katespade.com/stores/us/ms/gulfport/10455-factory-shop-boulevards,Mo-We 11:00-19:00; Th 10:00-20:00; Fr-Sa 10:00-21:00; Su 11:00-18:00,Kate Spade New York,Q6375797
https://locations.kfc.com/#11247914,kfc,Chicken Nuggets Near Gulfport,,Gulfport,MS,,US,,https://locations.kfc.com/ms/gulfport/12208-highway-49/chickennugget,Mo-Th 10:00-22:00; Fr-Sa 10:00-23:00; Su 10:00-22:00,KFC,Q524757
300313,kindercare,Dedeaux KinderCare,,Gulfport,MS,,US,,https://www.kindercare.com/our-centers/gulfport/ms/300313,,KinderCare Learning Centers,Q6410551
618,loves,Site 595,,Gulfport,MS,,US,+1 228-832-0199,,,Love's,Q1872496
158807,marathon_petroleum_us,Vogles,,Gulfport,MS,,US,+1 228-539-9413,,,Marathon,Q458363
159660,marathon_petroleum_us,Gulf Coast Gulfport Marathon,,Gulfport,MS,,US,+1 251-343-3410,,,Marathon,Q458363
157385,marathon_petroleum_us,FOOD QUEEN MINI MART,,GULFPORT,MS,,US,+1 228-831-9555,,,Marathon,Q458363
GPTFI,marriott,Fairfield Inn & Suites Gulfport,,Gulfport,MS,,US,+1 228-822-9000,https://www.marriott.com/GPTFI,,Fairfield by Marriott,Q5430314
GPTRI,marriott,Residence Inn Gulfport-Biloxi Airport,,Gulfport,MS,,US,+1 228-867-1722,https://www.marriott.com/GPTRI,,Residence Inn by Marriott,Q7315394
GPTSH,marriott,SpringHill Suites Gulfport I-10,,Gulfport,MS,,US,+1 228-265-5869,https://www.marriott.com/GPTSH,,SpringHill Suites,Q7580351
https://locations.massageenvy.com/#1773559,massage_envy,Massage Envy Gulfport,,Gulfport Gulfport,MS,,US,+1 228-539-3393,https://locations.massageenvy.com/mississippi/gulfport/15256-crossroads-pkwy.html,Mo-Sa 09:00-21:00; Su 10:00-18:00,Massage Envy,Q10327170
17991,mattress_firm_us,Mattress Firm Gulfport,,Gulfport,MS,,US,+1 228-539-9442,https://www.mattressfirm.com/en-us/stores/ms/gulfport/022016/,,Mattress Firm,Q6791878
15140-creosote-road,mcalisters_deli,McAlister's Deli Gulfport ,,Gulfport,MS,,US,+1 228-822-0550,https://locations.mcalistersdeli.com/ms/gulfport/15140-creosote-road,Mo-Su 10:00-21:30,McAlister's Deli,Q17020829
https://locations.michaelkors.com/us/ms/gulfport/10355-factory-shops-blvd.html,michaelkors,Michael Kors Outlet GULFPORT,,Gulfport,MS,,US,+1 228-284-6656,https://locations.michaelkors.com/us/ms/gulfport/10355-factory-shops-blvd.html,Mo-Th 11:00-19:00; Fr-Sa 10:00-20:00; Su 12:00-18:00,Michael Kors,Q19572998
https://locations.michaelkors.com/fr/us/ms/gulfport/10355-factory-shops-blvd.html,michaelkors,Michael Kors Outlet GULFPORT,,Gulfport,MS,,US,+1 228-284-6656,https://locations.michaelkors.com/fr/us/ms/gulfport/10355-factory-shops-blvd.html,Mo-Th 11:00-19:00; Fr-Sa 10:00-20:00; Su 12:00-18:00,Michael Kors,Q19572998
1096,mightyflame,CLARKS FOOD STORE #45,,Gulfport,MS,,US,+1 228-832-3575,,,Mighty Flame,
1072,mightyflame,CLARKS FOOD STORE #19,,Gulfport,MS,,US,+1 228-831-8725,,,Mighty Flame,
5231,mightyflame,VOGLES,,GULFPORT,MS,,US,+1 228-539-9413,,,Mighty Flame,
2501,mightyflame,LIZANA KWIK STOP,,Gulfport,MS,,US,+1 228-831-4466,,,Mighty Flame,
1064,mightyflame,CLARKS FOOD STORE #11,,Gulfport,MS,,US,+1 228-831-3376,,,Mighty Flame,
416,mightyflame,53 PIT STOP EXPRESS,,GULFPORT,MS,,US,+1 228-831-4005,,,Mighty Flame,
https://locations.moes.com/#8393,moes,Moe's Southwest Grill,,Gulfport,MS,,US,+1 228-731-3466,https://locations.moes.com/ms/gulfport/11464-highway-49,Mo-Sa 10:30-21:00; Su 10:30-20:00,Moe's Southwest Grill,Q6889938
5508,murphy_usa_us,,,Gulfport,MS,,US,+1 228-871-5662,,Mo-Sa 05:00-23:00; Su 06:00-23:00,Murphy USA,Q19604459
1019045,national,Gulfport-Biloxi International Airport,,Gulfport,MS,,US,+1 844-370-7397,,,NATIONAL,Q1424142
NNA5859,nissan_europe,GULFPORT NISSAN,,GULFPORT,MS,,US,+1 228-864-6411,https://www.gulfportnissan.com,Mo-Sa 08:30-19:00,Nissan,Q20165
https://locations.oreillyauto.com/ms/gulfport/check-engine-light-testing-1489.html,oreilly,Your Gulfport O'Reilly Auto Parts Store,,Gulfport,MS,,US,+1 228-832-5419,https://locations.oreillyauto.com/ms/gulfport/check-engine-light-testing-1489.html,Mo-Sa 07:00-22:00; Su 08:00-20:00,O'Reilly Auto Parts,Q7071951
https://locations.oreillyauto.com/ms/gulfport/wiper-installation-1489.html,oreilly,Your Gulfport O'Reilly Auto Parts Store,,Gulfport,MS,,US,+1 228-832-5419,https://locations.oreillyauto.com/ms/gulfport/wiper-installation-1489.html,Mo-Sa 07:00-22:00; Su 08:00-20:00,O'Reilly Auto Parts,Q7071951
https://locations.oreillyauto.com/ms/gulfport/battery-testing-1489.html,oreilly,Your Gulfport O'Reilly Auto Parts Store,,Gulfport,MS,,US,+1 228-832-5419,https://locations.oreillyauto.com/ms/gulfport/battery-testing-1489.html,Mo-Sa 07:00-22:00; Su 08:00-20:00,O'Reilly Auto Parts,Q7071951
https://locations.oreillyauto.com/ms/gulfport/autopartes-1489.html,oreilly,Tu tienda O'Reilly Auto Parts en Gulfport,,Gulfport,MS,,US,+1 228-832-5419,https://locations.oreillyauto.com/ms/gulfport/autopartes-1489.html,Mo-Sa 07:00-22:00; Su 08:00-20:00,O'Reilly Auto Parts,Q7071951
https://www.orkin.com/locations/mississippi-ms/gulfport-pest-control/branch-206,orkin_us,Orkin,,Gulfport,MS,,US,+1 228-305-7001,https://www.orkin.com/locations/mississippi-ms/gulfport-pest-control/branch-206,,Orkin,Q7102943
https://locations.papajohns.com/#10690937,papa_johns,Papa John's,,Gulfport,MS,,US,+1 228-831-0838,https://locations.papajohns.com/united-states/ms/39503/gulfport/12186-hwy-49,Mo-Th 10:00-23:00; Fr-Sa 10:00-24:00; Su 10:00-23:00,Papa John's Pizza,Q2759586
1050,party_city,Crossroads Shopping Center,,Gulfport,MS,,US,+1 228-284-4050,https://stores.partycity.com/us/ms/gulfport/party-store-pc1050.html,,Party City,Q7140896
735426,penske,Mobile Squad,,GULFPORT,MS,,US,+1 228-896-6370,https://www.pensketruckrental.com/locations/us/mississippi/gulfport/735426/,,Penske,Q81234570
735410,penske,Penske Gulfport,,GULFPORT,MS,,US,+1 228-896-3457,https://www.pensketruckrental.com/locations/us/mississippi/gulfport/735410/,,Penske,Q81234570
676,pilot_flyingj,Flying J Travel Center,,Gulfport,MS,,US,+1 228-868-2711,https://locations.pilotflyingj.com/us/ms/gulfport/9351-canal-road,,Flying J,Q16974822
ms_gulfport_15171-crossroads-pkwy,pizza_hut_us,15171 Crossroads Pkwy,,Gulfport,MS,,US,,https://locations.pizzahut.com/ms/gulfport/15171-crossroads-pkwy,,Pizza Hut,Q191615
ms_gulfport_10585-b-three-rivers-rd,pizza_hut_us,10585 - B Three Rivers Rd.,,Gulfport,MS,,US,+1 228-832-1173,https://locations.pizzahut.com/ms/gulfport/10585-b-three-rivers-rd,,Pizza Hut,Q191615
restaurant_82879,popeyes_us_fr,Popeyes,"12152 Highway 49 Gulfport, Mississippi 39503 - USA",Gulfport,MS,,US,+1 228-831-1098,https://www.popeyes.com/store-locator/store/restaurant_82879,Mo-Su 10:00-22:00,Popeyes,Q1330910
home-depot-2901-14089,ppgpaints,HOME DEPOT 2901,,"Gulfport, ",MS,,US,+1 228-867-9925,https://www.ppgpaints.com/store-locator/us/mississippi/gulfport-paint-stores/home-depot-2901-14089,,PPG Paints,Q83891559
https://www.premiumoutlets.com/outlet/gulfport/about,premium_outlets,Gulfport Premium Outlets®,,Gulfport,MS,,US,+1 228-867-6101,https://www.premiumoutlets.com/outlet/gulfport,Mo-Th 11:00-19:00; Fr-Sa 10:00-20:00; Su 12:00-18:00,Premium Outlets,
https://locations.quiktrip.com/#1022641425,quiktrip_us,QuikTrip Store #7242 9326 Canal Rd,,Gulfport,MS,,US,+1 228-213-5961,https://locations.quiktrip.com/ms/gulfport/9326-canal-rd,24/7,QuikTrip,Q7271953
https://www.racetrac.com/locations/mississippi/gulfport/lorraine,racetrac_us,RaceTrac,,Gulfport,MS,,US,+1 228-896-7684,https://www.racetrac.com/locations/mississippi/gulfport/lorraine,,RaceTrac,Q735942
10189491,rooms_to_go_us,Rooms To Go - Gulfport,,Gulfport,MS,,US,+1 228-832-3500,,,Rooms To Go,Q7366329
10189492,rooms_to_go_us,Rtg Kids - Gulfport,,Gulfport,MS,,US,+1 228-832-3500,,,Rooms to Go Kids,Q119443278
820,ross_dress_for_less_us,Gulfport,,Gulfport,MS,,US,+1 228-328-1859,,Mo-Th 09:30-22:00; Fr-Sa 09:00-22:30; Su 09:30-21:30,Ross Dress for Less,Q3442791
10210-factory-shops-blvd,rue21,Gulfport Premium Outlets,,Gulfport,MS,,US,,https://stores.rue21.com/ms/gulfport/10210-factory-shops-blvd.html,Mo-Th 11:00-19:00; Fr-Sa 10:00-20:00; Su 12:00-18:00,rue21,Q7377762
https://stores.saloncentric.com/#29173213,salon_centric_us,SalonCentric,,,MS,,US,+1 201-383-1681,https://stores.saloncentric.com/ms/gulfport/1402,Mo 08:00-18:30; Tu-Fr 08:00-18:00; Sa 08:30-16:00,SalonCentric,Q124339481
8236,sams_club,Gulfport Sam's Club,,Gulfport,MS,,US,+1 228-832-4441,https://www.samsclub.com/club/gulfport-ms-sams-club/8236,Mo 10:00-20:00; Sa 09:00-20:00; Su 10:00-18:00,Sam's Club,Q1972120
165,shoe_carnival_us,Shoe Carnival,,Gulfport,MS,,US,+1 228-539-0233,https://stores.shoecarnival.com/ms/gulfport/shoe-store-gulfport-ms-165.html,Mo-Sa 10:00-21:00; Su 11:00-19:00,Shoe Carnival,Q7500007
1326,simonmalls,Gulfport Premium Outlets®,,Gulfport,MS,,US,+1 228-867-6100,https://www.simon.com/mall/gulfport,Mo-Th 11:00-19:00; Fr-Sa 10:00-20:00; Su 12:00-18:00,Premium Outlets,Q2287759
https://restaurants.subway.com/#14907575,subway,Subway,,Gulfport Harrison,MS,,US,+1 228-314-3565,https://restaurants.subway.com/united-states/ms/gulfport/23379-hwy-53,Mo-Su 08:00-22:00,Subway,Q244457
https://restaurants.subway.com/#14898090,subway,Subway,,Gulfport Harrison,MS,,US,+1 228-870-6980,https://restaurants.subway.com/united-states/ms/gulfport/8837-lorraine-road,Mo-Fr 09:00-21:00; Sa-Su 09:00-17:00,Subway,Q244457
https://restaurants.subway.com/#14914817,subway,Subway Exxon Gas Station C-Store,,Gulfport Harrison,MS,,US,+1 228-831-5764,https://restaurants.subway.com/united-states/ms/gulfport/11192-lorraine-rd,Mo 06:00-24:00; Tu-We 00:00-22:00; Su 06:00-24:00,Subway,Q244457
https://restaurants.subway.com/#15299968,subway,Subway,,Gulfport,MS,,US,+1 228-864-0500,https://restaurants.subway.com/united-states/ms/gulfport/15096-creosote-rd,Mo-Fr 08:00-22:00; Sa-Su 09:00-22:00,Subway,Q244457
https://restaurants.subway.com/#14909730,subway,Subway Bayou Bernard S/C,,Gulfport Harrison,MS,,US,+1 228-832-8580,https://restaurants.subway.com/united-states/ms/gulfport/11240-hwy-49-n,Mo-Fr 08:00-21:30; Sa 09:00-21:30; Su 09:00-20:00,Subway,Q244457
https://restaurants.subway.com/#14906559,subway,Subway Exxon Truck Stop/,,Gulfport Harrison,MS,,US,+1 228-701-0028,https://restaurants.subway.com/united-states/ms/gulfport/10006-canal-rd,Mo-Fr 06:00-22:00; Sa-Su 07:30-22:00,Subway,Q244457
https://locations.tacobell.com/#6141670,taco_bell,Taco Bell,,Gulfport,MS,,US,+1 228-822-2868,https://locations.tacobell.com/ms/gulfport/9384-hwy-49.html,Mo-Su 09:00-24:00,Taco Bell,Q752941
https://locations.tacobell.com/#6146929,taco_bell,Taco Bell,,Gulfport,MS,,US,+1 228-832-9333,https://locations.tacobell.com/ms/gulfport/11423-highway-49-north.html,Mo-Th 09:00-01:00; Fr-Sa 09:00-03:00; Su 09:00-01:00,Taco Bell,Q752941
088,tjx,Gulfport,15150 Crossroads Parkway,Gulfport,MS,,US,+1 228-539-4794,,Mo-Sa 09:30-21:30; Su 10:00-20:00,TJ Maxx,Q10860683
1B73,tmobile_us,Sam's Club Gulfport MS,,Gulfport,MS,,US,+1 228-437-9648,https://www.t-mobile.com/store-locator/ms/gulfport/sams-club-gulfport-ms,,T-Mobile,Q3511885
4SEJ,tmobile_us,Hwy 490 & Airport Rd,,Gulfport,MS,,US,+1 228-563-1000,https://www.t-mobile.com/store-locator/ms/gulfport/hwy-490-airport-rd,,T-Mobile,Q3511885
https://www.ubreakifix.com/locations/gulfport,ubreakifix,uBreakiFix Gulfport,,Gulfport,MS,,US,+1 228-215-1755,https://www.ubreakifix.com/locations/gulfport,Mo-Fr 09:00-19:00; Sa 10:00-19:00; Su 12:00-17:00,uBreakiFix,Q53685733
1365853,usps,GULFPORT,,GULFPORT,MS,,US,+1 228-831-5471,,Mo-Fr 08:30-17:00; Sa 09:00-13:00,United States Postal Service,Q668687
3950300029,usps_collection_boxes,USPS COLLECTION BOX - APC,11110 HIGHWAY 49,GULFPORT,MS,,US,,,,United States Postal Service,Q668687
3950300030,usps_collection_boxes,USPS COLLECTION BOX - PO LOBBY,11110 HIGHWAY 49,GULFPORT,MS,,US,,,,United States Postal Service,Q668687
3950300038,usps_collection_boxes,USPS COLLECTION BOX - PO LOBBY,11110 HIGHWAY 49,GULFPORT,MS,,US,,,,United States Postal Service,Q668687
R00000003274,verizon_us,Gulfport,,Gulfport,MS,,US,+1 228-863-6035,https://www.verizon.com/stores/details/mississippi/gulfport/gulfport-229824/,Mo-Sa 10:00-18:00; Su 10:00-17:00,Verizon,Q919641
,visa,,,GULFPORT,MS,,US,,,,,
,visa,,,GULFPORT,MS,,US,,,,,
,visa,,,GULFPORT,MS,,US,,,,,
,visa,,,GULFPORT,MS,,US,,,,,
,visa,,,GULFPORT,MS,,US,,,,,
,visa,,,GULFPORT,MS,,US,,,,,
,visa,,,GULFPORT,MS,,US,,,,,
,visa,,,GULFPORT,MS,,US,,,,,
,visa,,,GULFPORT,MS,,US,,,,,
,visa,,,GULFPORT,MS,,US,,,,,
,visa,,,GULFPORT,MS,,US,,,,,
,visa,,,GULFPORT,MS,,US,,,,,
,visa,,,GULFPORT,MS,,US,,,,,
,visa,,,GULFPORT,MS,,US,,,,,
,visa,,,GULFPORT,MS,,US,,,,,
,visa,,,GULFPORT,MS,,US,,,,,
,visa,,,GULFPORT,MS,,US,,,,,
,visa,,,GULFPORT,MS,,US,,,,,
,visa,,,GULFPORT,MS,,US,,,,,
,visa,,,GULFPORT,MS,,US,,,,,
,visa,,,GULFPORT,MS,,US,,,,,
,visa,,,GULFPORT,MS,,US,,,,,
,visa,,,GULFPORT,MS,,US,,,,,
,visa,,,GULFPORT,MS,,US,,,,,
,visa,,,GULFPORT,MS,,US,,,,,
,visa,,,GULFPORT,MS,,US,,,,,
,visa,,,GULFPORT,MS,,US,,,,,
,visa,,,GULFPORT,MS,,US,,,,,
,visa,,,GULFPORT,MS,,US,,,,,
,visa,,,GULFPORT,MS,,US,,,,,
,visa,,,GULFPORT,MS,,US,,,,,
,visa,,,GULFPORT,MS,,US,,,,,
,visa,,,GULFPORT,MS,,US,,,,,
,visa,,,GULFPORT,MS,,US,,,,,
,visa,,,GULFPORT,MS,,US,,,,,
,visa,,,GULFPORT,MS,,US,,,,,
,visa,,,GULFPORT,MS,,US,,,,,
,visa,,,GULFPORT,MS,,US,,,,,
,visa,,,GULFPORT,MS,,US,,,,,
,visa,,,GULFPORT,MS,,US,,,,,
,visa,,,GULFPORT,MS,,US,,,,,
,visa,,,GULFPORT,MS,,US,,,,,
,visa,,,GULFPORT,MS,,US,,,,,
,visa,,,GULFPORT,MS,,US,,,,,
,visa,,,GULFPORT,MS,,US,,,,,
,visa,,,GULFPORT,MS,,US,,,,,
,visa,,,GULFPORT,MS,,US,,,,,
,visa,,,GULFPORT,MS,,US,,,,,
,visa,,,GULFPORT,MS,,US,,,,,
,visa,,,GULFPORT,MS,,US,,,,,
,visa,,,GULFPORT,MS,,US,,,,,
,visa,,,GULFPORT,MS,,US,,,,,
,visa,,,GULFPORT,MS,,US,,,,,
,visa,,,GULFPORT,MS,,US,,,,,
,visa,,,GULFPORT,MS,,US,,,,,
,visa,,,GULFPORT,MS,,US,,,,,
,visa,,,GULFPORT,MS,,US,,,,,
,visa,,,GULFPORT,MS,,US,,,,,
,visa,,,GULFPORT,MS,,US,,,,,
,visa,,,GULFPORT,MS,,US,,,,,
,visa,,,GULFPORT,MS,,US,,,,,
,visa,,,GULFPORT,MS,,US,,,,,
,visa,,,GULFPORT,MS,,US,,,,,
,visa,,,GULFPORT,MS,,US,,,,,
,visa,,,GULFPORT,MS,,US,,,,,
,visa,,,GULFPORT,MS,,US,,,,,
,visa,,,GULFPORT,MS,,US,,,,,
,visa,,,GULFPORT,MS,,US,,,,,
,visa,,,GULFPORT,MS,,US,,,,,
,visa,,,GULFPORT,MS,,US,,,,,
,visa,,,GULFPORT,MS,,US,,,,,
,visa,,,GULFPORT,MS,,US,,,,,
,visa,,,GULFPORT,MS,,US,,,,,
,visa,,,GULFPORT,MS,,US,,,,,
,visa,,,GULFPORT,MS,,US,,,,,
,visa,,,GULFPORT,MS,,US,,,,,
,visa,,,GULFPORT,MS,,US,,,,,
,visa,,,GULFPORT,MS,,US,,,,,
,visa,,,PICAYUNE,MS,,US,,,,,
1497,waffle_house_us,Waffle House #1497,,GULFPORT,MS,,US,+1 228-822-9517,https://locations.wafflehouse.com/gulfport-ms-1497,24/7,Waffle House,Q1701206
319,waffle_house_us,Waffle House #319,,GULFPORT,MS,,US,+1 228-863-1645,https://locations.wafflehouse.com/gulfport-ms-319,24/7,Waffle House,Q1701206
757,waffle_house_us,Waffle House #757,,GULFPORT,MS,,US,+1 228-831-4857,https://locations.wafflehouse.com/gulfport-ms-757,24/7,Waffle House,Q1701206
https://www.walgreens.com/locator/walgreens-15371+dedeaux+rd-gulfport-ms-39503/id=5195,walgreens,Walgreens,,Gulfport,MS,,US,+1 228-539-9890,https://www.walgreens.com/locator/walgreens-15371+dedeaux+rd-gulfport-ms-39503/id=5195,24/7,Walgreens,Q1591889
https://www.walgreens.com/locator/walgreens-11279+highway+49-gulfport-ms-39503/id=17031,walgreens,Walgreens,,Gulfport,MS,,US,+1 228-832-6280,https://www.walgreens.com/locator/walgreens-11279+highway+49-gulfport-ms-39503/id=17031,Mo-Su 09:00-21:00,Walgreens,Q1591889
9444__HWY__49_GULFPORT_MS_39503,wellsfargo,,9444 HWY 49,GULFPORT,MS,,US,+1 800-869-3557,https://www.wellsfargo.com/locator/bank/9444__HWY__49_GULFPORT_MS_39503/,,Wells Fargo,Q744149
https://locations.wendys.com/#9252754,wendys,"Wendy's Hwy 49 in Gulfport, MS",,Gulfport,MS,,US,+1 228-868-1400,https://locations.wendys.com/united-states/ms/gulfport/9455-highway-49,"Mo-Su 06:30-10:30,07:00-22:00",Wendy's,Q550258
https://locations.wendys.com/#9252753,wendys,"Wendy's 9373 Canal Road in Gulfport, MS",,Gulfport,MS,,US,+1 228-863-0151,https://locations.wendys.com/united-states/ms/gulfport/9373-canal-road,"Mo-Su 06:30-10:30,07:00-22:00",Wendy's,Q550258
https://locations.wendys.com/#9252751,wendys,"Wendy's Orange Grove in Gulfport, MS",,Gulfport,MS,,US,+1 228-328-0158,https://locations.wendys.com/united-states/ms/gulfport/12102-hwy-49-n,"Mo-Su 06:30-10:30,07:00-22:00",Wendy's,Q550258
ba543f84a58fc4312450897bdfcc1124,western_union,CLARK OIL 33,,Gulfport,MS,,US,+1 228-863-0274,https://location.westernunion.com/us/ms/gulfport/ba543f84a58fc4312450897bdfcc1124,,Western Union,Q861042
6f8018c527a6de7d235d8f2ceffd49a6,western_union,CLARK OIL #45,,Gulfport,MS,,US,+1 228-832-3575,https://location.westernunion.com/us/ms/gulfport/6f8018c527a6de7d235d8f2ceffd49a6,,Western Union,Q861042
4ad2e1df14b48a53dd589adc1c31a6b6,western_union,WALMART #000969,,Gulfport,MS,,US,+1 228-864-5197,https://location.westernunion.com/us/ms/gulfport/4ad2e1df14b48a53dd589adc1c31a6b6,Mo-Sa 08:00-20:00; Su 10:00-18:00,Western Union,Q861042
f486c783f2b8ad99a5065851ea8e01c1,western_union,WOODFOREST #8135,,Gulfport,MS,,US,+1 228-868-7271,https://location.westernunion.com/us/ms/gulfport/f486c783f2b8ad99a5065851ea8e01c1,Mo-Fr 10:00-19:00; Sa 10:00-18:00,Western Union,Q861042
224c889af071068343490596187bf111,western_union,CLARK OIL #11,,Gulfport,MS,,US,+1 228-831-3376,https://location.westernunion.com/us/ms/gulfport/224c889af071068343490596187bf111,,Western Union,Q861042
31da8f27e5cf7f9ac3eb41b7ff14ecec,western_union,ADVANCE AMERICA #02784,,Gulfport,MS,,US,+1 228-539-6268,https://location.westernunion.com/us/ms/gulfport/31da8f27e5cf7f9ac3eb41b7ff14ecec,Mo-Th 10:00-18:00; Fr 09:00-18:00; Sa 09:00-14:00,Western Union,Q861042
bc22ba933380d56471325adbd9151bf9,western_union,WALGREENS #17031,,Gulfport,MS,,US,+1 228-832-6280,https://location.westernunion.com/us/ms/gulfport/bc22ba933380d56471325adbd9151bf9,Mo-Su 08:00-21:00,Western Union,Q861042
bcbedb5c669f4a2143f2418175c68463,western_union,CLARK OIL #19,,Gulfport,MS,,US,+1 228-831-8725,https://location.westernunion.com/us/ms/gulfport/bcbedb5c669f4a2143f2418175c68463,,Western Union,Q861042
05d3cfc8689eaa777f0ec4e5f5f5ae63,western_union,WALMART #006323,,Gulfport,MS,,US,+1 228-284-6114,https://location.westernunion.com/us/ms/gulfport/05d3cfc8689eaa777f0ec4e5f5f5ae63,Mo-Su 07:00-21:00,Western Union,Q861042
https://locations.whataburger.com/ms/gulfport/11484-highway-49.html,whataburger,Hwy 49 - Gulfport,11484 HIGHWAY 49,GULFPORT,MS,,US,,https://locations.whataburger.com/ms/gulfport/11484-highway-49.html,,Whataburger,Q376627
1511,winndixie,ORANGE GROVE SHOPPING CENTER,11312 H HWY 49,GULFPORT,MS,,US,+1 228-832-8452,https://www.winndixie.com/storedetails/gulfport/ms?search=1511,,Winn Dixie,Q1264366
2105,world_finance_us,,"12449 Hwy 49 Ste D, Gulfport, MS, 39503",Gulfport,MS,,US,+1 228-539-3211,https://www.loansbyworld.com/branches/branch-2105,Mo-Fr 09:00-17:30; Sa 09:00-12:00,World Finance,Q3569971
