Ref,Spider,Name,Address,City,State,Zipcode,Country,Phone,Website,Hours,Brand,WikiData
23264,citi,IMSS HRZ 0270,,Reynosa,TAMAULIPAS,,MX,+52 800 110 3990,,,Citibank,Q857063
151,first_cash,First Cash Pawn,,Reynosa,Tamaulipas,,MX,+52 899 957 4030,,,First Cash Pawn,
848,first_cash,First Cash Pawn,,Reynosa,Tamaulipas,,MX,+52 899 902 7638,,,First Cash Pawn,
,visa,,,REYNOSA,TAMAULIPAS,,MX,,,,,
,visa,,,REYNOSA,TAMAULIPAS,,MX,,,,,
,visa,,,REYNOSA,TAMAULIPAS,,MX,,,,,
,visa,,,REYNOSA,TAMAULIPAS,,MX,,,,,
,visa,,,REYNOSA,TAMAULIPAS,,MX,,,,,
,visa,,,REYNOSA,TAMAULIPAS,,MX,,,,,
,visa,,,REYNOSA,TAMAULIPAS,,MX,,,,,
,visa,,,REYNOSA,TAMAULIPAS,,MX,,,,,
6e7f945a3f12db096d070fe61842eb03,western_union,OXXO CALZADA VICTORIA REX,,Reynosa,TAMAULIPAS,,MX,+52 81 8389 2121,https://location.westernunion.com/mx/tamaulipas/reynosa/6e7f945a3f12db096d070fe61842eb03,Mo-Su 08:00-22:00,Western Union,Q861042
9371655f3fba8f36b59748bf855a3577,western_union,OXXO CALZADA VICTORIA REX,,Reynosa,TAMAULIPAS,,MX,+52 81 8389 2121,https://location.westernunion.com/mx/tamaulipas/reynosa/9371655f3fba8f36b59748bf855a3577,Mo-Su 08:00-22:00,Western Union,Q861042
accce1a12d6c46d2b940aae7568e370f,western_union,BANCOPPEL 0967 CITADINA,,Reynosa,TAMAULIPAS,,MX,(+52) 667-589999,https://location.westernunion.com/mx/tamaulipas/reynosa/accce1a12d6c46d2b940aae7568e370f,Mo-Su 08:30-21:00,Western Union,Q861042
927d1b72912965cf22ecbdcf421fad33,western_union,BANCOPPEL 0967 CITADINA,,Reynosa,TAMAULIPAS,,MX,(+52) 667-589999,https://location.westernunion.com/mx/tamaulipas/reynosa/927d1b72912965cf22ecbdcf421fad33,Mo-Su 08:30-21:00,Western Union,Q861042
dbae7d75e6e999473e94dd762fdd8746,western_union,BANCOPPEL 0967 CITADINA,,Reynosa,TAMAULIPAS,,MX,(+52) 667-589999,https://location.westernunion.com/mx/tamaulipas/reynosa/dbae7d75e6e999473e94dd762fdd8746,Mo-Su 08:30-21:00,Western Union,Q861042
d4f046ac40672b290fee145458513c04,western_union,OXXO SEGUNDA MTY,,Reynosa,TAMAULIPAS,,MX,+52 81 8389 2121,https://location.westernunion.com/mx/tamaulipas/reynosa/d4f046ac40672b290fee145458513c04,Mo-Su 06:00-22:00,Western Union,Q861042
084cea503b93bfbeadb4cf0154918230,western_union,7ELEVEN ENRIQUE CANSECO Y CALLE 8 2028,,Reynosa,TAMAULIPAS,,MX,+52 800 833 4700,https://location.westernunion.com/mx/tamaulipas/reynosa/084cea503b93bfbeadb4cf0154918230,Mo-Su 06:00-22:00,Western Union,Q861042
2c17bc5a1dc5017d6276fd1feadb4f66,western_union,7ELEVEN ENRIQUE CANSECO Y CALLE 8 2028,,Reynosa,TAMAULIPAS,,MX,+52 800 833 4700,https://location.westernunion.com/mx/tamaulipas/reynosa/2c17bc5a1dc5017d6276fd1feadb4f66,Mo-Su 06:00-22:00,Western Union,Q861042
81e33e2028059538d6230dfa4deb7ddc,western_union,7ELEVEN ENRIQUE CANSECO Y CALLE 8 2028,,Reynosa,TAMAULIPAS,,MX,+52 800 833 4700,https://location.westernunion.com/mx/tamaulipas/reynosa/81e33e2028059538d6230dfa4deb7ddc,Mo-Su 06:00-22:00,Western Union,Q861042
3443d260ee105388987aaabba77bac3f,western_union,OXXO TREBOL REX,,Reynosa,TAMAULIPAS,,MX,+52 81 8389 2121,https://location.westernunion.com/mx/tamaulipas/reynosa/3443d260ee105388987aaabba77bac3f,Mo-Su 08:00-22:00,Western Union,Q861042
9fcc0b5f62409567f0e822b4c4a97a3d,western_union,OXXO TREBOL REX,,Reynosa,TAMAULIPAS,,MX,+52 81 8389 2121,https://location.westernunion.com/mx/tamaulipas/reynosa/9fcc0b5f62409567f0e822b4c4a97a3d,Mo-Su 08:00-22:00,Western Union,Q861042
00200dc4cbae2a0a7f74ffea04f6f3c5,western_union,OXXO TREBOL REX,,Reynosa,TAMAULIPAS,,MX,+52 81 8389 2121,https://location.westernunion.com/mx/tamaulipas/reynosa/00200dc4cbae2a0a7f74ffea04f6f3c5,Mo-Su 08:00-22:00,Western Union,Q861042
5f303b97efe9a367ae7c42516e35fbd2,western_union,AURRERA EXPRESS PASEO DE LAS FLORES 4681,,Reynosa,TAMAULIPAS,,MX,+52 800 833 4700,https://location.westernunion.com/mx/tamaulipas/reynosa/5f303b97efe9a367ae7c42516e35fbd2,Mo-Su 08:00-22:00,Western Union,Q861042
05b7730b818f855ae2bfba22026d965e,western_union,AURRERA EXPRESS PASEO DE LAS FLORES 4681,,Reynosa,TAMAULIPAS,,MX,+52 800 833 4700,https://location.westernunion.com/mx/tamaulipas/reynosa/05b7730b818f855ae2bfba22026d965e,Mo-Su 08:00-22:00,Western Union,Q861042
40c76dd5d98032fb843a876bc4beb339,western_union,OXXO GIRASOL REX,,Reynosa,TAMAULIPAS,,MX,+52 81 8389 2121,https://location.westernunion.com/mx/tamaulipas/reynosa/40c76dd5d98032fb843a876bc4beb339,Mo-Su 08:00-22:00,Western Union,Q861042
86f7e191c6839a42bd4e86ae0c6a8b4e,western_union,OXXO GIRASOL REX,,Reynosa,TAMAULIPAS,,MX,+52 81 8389 2121,https://location.westernunion.com/mx/tamaulipas/reynosa/86f7e191c6839a42bd4e86ae0c6a8b4e,Mo-Su 08:00-22:00,Western Union,Q861042
a0e68b5c05aaf539b32296ece31d19cf,western_union,OXXO GIRASOL REX,,Reynosa,TAMAULIPAS,,MX,+52 81 8389 2121,https://location.westernunion.com/mx/tamaulipas/reynosa/a0e68b5c05aaf539b32296ece31d19cf,Mo-Su 08:00-22:00,Western Union,Q861042
70e12e7117f7c69d0b87399fdddfe3b5,western_union,OXXO ENRIQUE CANSECO REX,,Reynosa,TAMAULIPAS,,MX,+52 81 8389 2121,https://location.westernunion.com/mx/tamaulipas/reynosa/70e12e7117f7c69d0b87399fdddfe3b5,Mo-Su 08:00-22:00,Western Union,Q861042
40884a30066bf172fc72cadf703d59aa,western_union,OXXO ENRIQUE CANSECO REX,,Reynosa,TAMAULIPAS,,MX,+52 81 8389 2121,https://location.westernunion.com/mx/tamaulipas/reynosa/40884a30066bf172fc72cadf703d59aa,Mo-Su 08:00-22:00,Western Union,Q861042
eb024179ab4b15520232ffd903a75c88,western_union,OXXO ENRIQUE CANSECO REX,,Reynosa,TAMAULIPAS,,MX,+52 81 8389 2121,https://location.westernunion.com/mx/tamaulipas/reynosa/eb024179ab4b15520232ffd903a75c88,Mo-Su 08:00-22:00,Western Union,Q861042
740c8895ab04392cc2d1fffaf61401ef,western_union,OXXO VALLE SOLEADO REX,,Reynosa,TAMAULIPAS,,MX,+52 81 8389 2121,https://location.westernunion.com/mx/tamaulipas/reynosa/740c8895ab04392cc2d1fffaf61401ef,Mo-Su 08:00-22:00,Western Union,Q861042
0b512d2f73d39cac24448fe8a8b57e79,western_union,OXXO RIO DE LA PLATA REX,,Reynosa,TAMAULIPAS,,MX,+52 81 8389 2121,https://location.westernunion.com/mx/tamaulipas/reynosa/0b512d2f73d39cac24448fe8a8b57e79,Mo-Su 08:00-22:00,Western Union,Q861042
ec151ee7caf928274fffa40fcba23a69,western_union,OXXO RIO DE LA PLATA REX,,Reynosa,TAMAULIPAS,,MX,+52 81 8389 2121,https://location.westernunion.com/mx/tamaulipas/reynosa/ec151ee7caf928274fffa40fcba23a69,Mo-Su 08:00-22:00,Western Union,Q861042
270c0900f998bc622dcb4e7629841d33,western_union,OXXO BALCONES DEALCALAREX,,Reynosa,TAMAULIPAS,,MX,+52 81 8389 2121,https://location.westernunion.com/mx/tamaulipas/reynosa/270c0900f998bc622dcb4e7629841d33,Mo-Su 08:00-22:00,Western Union,Q861042
32333a2bdd894d40295c27dfc05ac0cb,western_union,OXXO BALCONES DEALCALAREX,,Reynosa,TAMAULIPAS,,MX,+52 81 8389 2121,https://location.westernunion.com/mx/tamaulipas/reynosa/32333a2bdd894d40295c27dfc05ac0cb,Mo-Su 08:00-22:00,Western Union,Q861042
af3017c263ebd454eb27ad081d461872,western_union,OXXO BALCONES DEALCALAREX,,Reynosa,TAMAULIPAS,,MX,+52 81 8389 2121,https://location.westernunion.com/mx/tamaulipas/reynosa/af3017c263ebd454eb27ad081d461872,Mo-Su 08:00-22:00,Western Union,Q861042
389c692db17f19073847af9c7db42cc2,western_union,OXXO ROCALLOSA REX,,Reynosa,TAMAULIPAS,,MX,+52 81 8389 2121,https://location.westernunion.com/mx/tamaulipas/reynosa/389c692db17f19073847af9c7db42cc2,Mo-Su 08:00-22:00,Western Union,Q861042
37cac68ff69d865e0486d49c54919643,western_union,OXXO RUIZ CORTINEZ REX,,Reynosa,TAMAULIPAS,,MX,+52 81 8389 2121,https://location.westernunion.com/mx/tamaulipas/reynosa/37cac68ff69d865e0486d49c54919643,Mo-Su 08:00-22:00,Western Union,Q861042
16c3f513193f6908d59589d3a715d798,western_union,OXXO RUIZ CORTINEZ REX,,Reynosa,TAMAULIPAS,,MX,+52 81 8389 2121,https://location.westernunion.com/mx/tamaulipas/reynosa/16c3f513193f6908d59589d3a715d798,Mo-Su 08:00-22:00,Western Union,Q861042
eda37a1961a4b42c0755f4e4a0b02049,western_union,OXXO RUIZ CORTINEZ REX,,Reynosa,TAMAULIPAS,,MX,+52 81 8389 2121,https://location.westernunion.com/mx/tamaulipas/reynosa/eda37a1961a4b42c0755f4e4a0b02049,Mo-Su 08:00-22:00,Western Union,Q861042
ac3fc62be9269c1275e2bc48271e6319,western_union,AURRERA REYNOSA,,Reynosa,TAMAULIPAS,,MX,+52 800 833 4700,https://location.westernunion.com/mx/tamaulipas/reynosa/ac3fc62be9269c1275e2bc48271e6319,Mo-Su 07:00-23:00,Western Union,Q861042
2f9842094fdb6616a51b07e08f1f000a,western_union,AURRERA REYNOSA,,Reynosa,TAMAULIPAS,,MX,+52 800 833 4700,https://location.westernunion.com/mx/tamaulipas/reynosa/2f9842094fdb6616a51b07e08f1f000a,Mo-Su 07:00-23:00,Western Union,Q861042
ea1cd760ba2c420f2c39b1abb633fd8a,western_union,AURRERA REYNOSA,,Reynosa,TAMAULIPAS,,MX,+52 800 833 4700,https://location.westernunion.com/mx/tamaulipas/reynosa/ea1cd760ba2c420f2c39b1abb633fd8a,Mo-Su 07:00-23:00,Western Union,Q861042
715fcde918af88f43a9a144f0a5a07f3,western_union,OXXO VALLE SOLEADO REX,,Reynosa,TAMAULIPAS,,MX,+52 81 8389 2121,https://location.westernunion.com/mx/tamaulipas/reynosa/715fcde918af88f43a9a144f0a5a07f3,Mo-Su 08:00-22:00,Western Union,Q861042
d03bcf3d19ee1823d2b9b82a2f4b25a0,western_union,OXXO CIPRES REX,,Reynosa,TAMAULIPAS,,MX,+52 81 8389 2121,https://location.westernunion.com/mx/tamaulipas/reynosa/d03bcf3d19ee1823d2b9b82a2f4b25a0,Mo-Su 08:00-22:00,Western Union,Q861042
a7c2c001eebd6bc922b630c467f5eceb,western_union,OXXO CIPRES REX,,Reynosa,TAMAULIPAS,,MX,+52 81 8389 2121,https://location.westernunion.com/mx/tamaulipas/reynosa/a7c2c001eebd6bc922b630c467f5eceb,Mo-Su 08:00-22:00,Western Union,Q861042
29aee5ec9ec6f416a4513fd414cb81be,western_union,OXXO CIPRES REX,,Reynosa,TAMAULIPAS,,MX,+52 81 8389 2121,https://location.westernunion.com/mx/tamaulipas/reynosa/29aee5ec9ec6f416a4513fd414cb81be,Mo-Su 08:00-22:00,Western Union,Q861042
546aaecf66ad1272dc930aa838c2ccec,western_union,OXXO LAUREL REX,,Reynosa,TAMAULIPAS,,MX,+52 81 8389 2121,https://location.westernunion.com/mx/tamaulipas/reynosa/546aaecf66ad1272dc930aa838c2ccec,Mo-Su 08:00-22:00,Western Union,Q861042
716b10d4c6b485cedf73de0b728ead6f,western_union,OXXO LAUREL REX,,Reynosa,TAMAULIPAS,,MX,+52 81 8389 2121,https://location.westernunion.com/mx/tamaulipas/reynosa/716b10d4c6b485cedf73de0b728ead6f,Mo-Su 08:00-22:00,Western Union,Q861042
a562c2927ac0eadaa94f2dec262522c6,western_union,OXXO LAUREL REX,,Reynosa,TAMAULIPAS,,MX,+52 81 8389 2121,https://location.westernunion.com/mx/tamaulipas/reynosa/a562c2927ac0eadaa94f2dec262522c6,Mo-Su 08:00-22:00,Western Union,Q861042
349c9743801d4437eeb9f8ef546c570b,western_union,OXXO ROCALLOSA REX,,Reynosa,TAMAULIPAS,,MX,+52 81 8389 2121,https://location.westernunion.com/mx/tamaulipas/reynosa/349c9743801d4437eeb9f8ef546c570b,Mo-Su 08:00-22:00,Western Union,Q861042
daf1a2ff114f1a0bba31046ee0a3e642,western_union,OXXO ROCALLOSA REX,,Reynosa,TAMAULIPAS,,MX,+52 81 8389 2121,https://location.westernunion.com/mx/tamaulipas/reynosa/daf1a2ff114f1a0bba31046ee0a3e642,Mo-Su 08:00-22:00,Western Union,Q861042
b8eccc588f142e4655af7650ef1c69c6,western_union,OXXO VIADUCTO REYNOSA REX,,Reynosa,TAMAULIPAS,,MX,+52 81 8389 2121,https://location.westernunion.com/mx/tamaulipas/reynosa/b8eccc588f142e4655af7650ef1c69c6,Mo-Su 06:00-22:00,Western Union,Q861042
cc476aaa6319a77f355e9eaee56600a7,western_union,OXXO VIADUCTO REYNOSA REX,,Reynosa,TAMAULIPAS,,MX,+52 81 8389 2121,https://location.westernunion.com/mx/tamaulipas/reynosa/cc476aaa6319a77f355e9eaee56600a7,Mo-Su 06:00-22:00,Western Union,Q861042
d9f19f248606feda9b99672f103d7690,western_union,OXXO VIADUCTO REYNOSA REX,,Reynosa,TAMAULIPAS,,MX,+52 81 8389 2121,https://location.westernunion.com/mx/tamaulipas/reynosa/d9f19f248606feda9b99672f103d7690,Mo-Su 06:00-22:00,Western Union,Q861042
1fb0165af68656ad38283cef928d0631,western_union,AURRERA EXPRESS VALLE SOLEADO 2692,,Reynosa,TAMAULIPAS,,MX,+52 800 833 4700,https://location.westernunion.com/mx/tamaulipas/reynosa/1fb0165af68656ad38283cef928d0631,Mo-Su 08:00-22:00,Western Union,Q861042
c158637c964293fe88a243d3b1feec53,western_union,AURRERA EXPRESS VALLE SOLEADO 2692,,Reynosa,TAMAULIPAS,,MX,+52 800 833 4700,https://location.westernunion.com/mx/tamaulipas/reynosa/c158637c964293fe88a243d3b1feec53,Mo-Su 08:00-22:00,Western Union,Q861042
ae025588ef45a0dc23aab965d89e8ed3,western_union,AURRERA EXPRESS VALLE SOLEADO 2692,,Reynosa,TAMAULIPAS,,MX,+52 800 833 4700,https://location.westernunion.com/mx/tamaulipas/reynosa/ae025588ef45a0dc23aab965d89e8ed3,Mo-Su 08:00-22:00,Western Union,Q861042
66850a3b2b9c063e15a17c6bc7922491,western_union,FARM GUAD BLVD D ALCALA,,Reynosa,TAMAULIPAS,,MX,+52 800 833 4700,https://location.westernunion.com/mx/tamaulipas/reynosa/66850a3b2b9c063e15a17c6bc7922491,Mo-Su 08:00-20:00,Western Union,Q861042
a59ae5782415671031253dbe26c3cd84,western_union,FARM GUAD BLVD D ALCALA,,Reynosa,TAMAULIPAS,,MX,+52 800 833 4700,https://location.westernunion.com/mx/tamaulipas/reynosa/a59ae5782415671031253dbe26c3cd84,Mo-Su 08:00-20:00,Western Union,Q861042
c5f3fcfab83587aa706b1b0afbb6f88d,western_union,FARM GUAD BLVD D ALCALA,,Reynosa,TAMAULIPAS,,MX,+52 800 833 4700,https://location.westernunion.com/mx/tamaulipas/reynosa/c5f3fcfab83587aa706b1b0afbb6f88d,Mo-Su 08:00-20:00,Western Union,Q861042
3b1853ede900a10fd163aafc7e11e495,western_union,AURRERA EXPRESS BALCONES DE ALCALA 4753,,Reynosa,TAMAULIPAS,,MX,+52 800 833 4700,https://location.westernunion.com/mx/tamaulipas/reynosa/3b1853ede900a10fd163aafc7e11e495,Mo-Su 08:00-22:00,Western Union,Q861042
01c2172e78f5c3814528d2faf2f10880,western_union,AURRERA EXPRESS BALCONES DE ALCALA 4753,,Reynosa,TAMAULIPAS,,MX,+52 800 833 4700,https://location.westernunion.com/mx/tamaulipas/reynosa/01c2172e78f5c3814528d2faf2f10880,Mo-Su 08:00-22:00,Western Union,Q861042
68a68477394e39530673d7047e35dc6b,western_union,AURRERA EXPRESS BALCONES DE ALCALA 4753,,Reynosa,TAMAULIPAS,,MX,+52 800 833 4700,https://location.westernunion.com/mx/tamaulipas/reynosa/68a68477394e39530673d7047e35dc6b,Mo-Su 08:00-22:00,Western Union,Q861042
2c13f9f8f0efca5098210274ae3c8d74,western_union,OXXO HIMALAYA REX,,Reynosa,TAMAULIPAS,,MX,+52 81 8389 2121,https://location.westernunion.com/mx/tamaulipas/reynosa/2c13f9f8f0efca5098210274ae3c8d74,Mo-Su 08:00-22:00,Western Union,Q861042
de42ee4f53a7f45ddcc90bcc8a3a8f9f,western_union,OXXO HIMALAYA REX,,Reynosa,TAMAULIPAS,,MX,+52 81 8389 2121,https://location.westernunion.com/mx/tamaulipas/reynosa/de42ee4f53a7f45ddcc90bcc8a3a8f9f,Mo-Su 08:00-22:00,Western Union,Q861042
c32f8c42981ad157872ca1246b2f6986,western_union,OXXO HIMALAYA REX,,Reynosa,TAMAULIPAS,,MX,+52 81 8389 2121,https://location.westernunion.com/mx/tamaulipas/reynosa/c32f8c42981ad157872ca1246b2f6986,Mo-Su 08:00-22:00,Western Union,Q861042
2d46cf09e6a3f6c9949af7faa8f5d107,western_union,7ELEVEN EVEREST Y LAUREL 1718,,Reynosa,TAMAULIPAS,,MX,+52 800 833 4700,https://location.westernunion.com/mx/tamaulipas/reynosa/2d46cf09e6a3f6c9949af7faa8f5d107,Mo-Su 06:00-22:00,Western Union,Q861042
717759992b2673fcb81052d7960d3347,western_union,7ELEVEN EVEREST Y LAUREL 1718,,Reynosa,TAMAULIPAS,,MX,+52 800 833 4700,https://location.westernunion.com/mx/tamaulipas/reynosa/717759992b2673fcb81052d7960d3347,Mo-Su 06:00-22:00,Western Union,Q861042
2be0d5881727f53f53f747aa24c34265,western_union,7ELEVEN EVEREST Y LAUREL 1718,,Reynosa,TAMAULIPAS,,MX,+52 800 833 4700,https://location.westernunion.com/mx/tamaulipas/reynosa/2be0d5881727f53f53f747aa24c34265,Mo-Su 06:00-22:00,Western Union,Q861042
11871cd4e68ac0743100358554a42304,western_union,AURRERA EXPRESS PICO BROAD 4997,,Reynosa,TAMAULIPAS,,MX,+52 800 833 4700,https://location.westernunion.com/mx/tamaulipas/reynosa/11871cd4e68ac0743100358554a42304,Mo-Su 08:00-22:00,Western Union,Q861042
8af1e501db20ae43e5362634003d4599,western_union,7ELEVEN VIADUCTO REYNOSA Y MIGUEL ANGEL,,Reynosa,TAMAULIPAS,,MX,+52 800 833 4700,https://location.westernunion.com/mx/tamaulipas/reynosa/8af1e501db20ae43e5362634003d4599,Mo-Su 06:00-22:00,Western Union,Q861042
5318e71493b3f04f7abaf89c43a4b58e,western_union,7ELEVEN VIADUCTO REYNOSA Y MIGUEL ANGEL,,Reynosa,TAMAULIPAS,,MX,+52 800 833 4700,https://location.westernunion.com/mx/tamaulipas/reynosa/5318e71493b3f04f7abaf89c43a4b58e,Mo-Su 06:00-22:00,Western Union,Q861042
f38082a88ab73c8ca1314d202076ec4d,western_union,7ELEVEN VIADUCTO REYNOSA Y MIGUEL ANGEL,,Reynosa,TAMAULIPAS,,MX,+52 800 833 4700,https://location.westernunion.com/mx/tamaulipas/reynosa/f38082a88ab73c8ca1314d202076ec4d,Mo-Su 06:00-22:00,Western Union,Q861042
a4b7c20150578430c82a1662a3f92608,western_union,FARM GUAD LOS ALMENDROS,,Reynosa,TAMAULIPAS,,MX,+52 800 833 4700,https://location.westernunion.com/mx/tamaulipas/reynosa/a4b7c20150578430c82a1662a3f92608,Mo-Su 08:00-20:00,Western Union,Q861042
fff62c1c1122f78c3cd609fb24dd2096,western_union,FARM GUAD LOS ALMENDROS,,Reynosa,TAMAULIPAS,,MX,+52 800 833 4700,https://location.westernunion.com/mx/tamaulipas/reynosa/fff62c1c1122f78c3cd609fb24dd2096,Mo-Su 08:00-20:00,Western Union,Q861042
f44d5b9d3fa9323b9d4a27637b8f6053,western_union,FARM GUAD LOS ALMENDROS,,Reynosa,TAMAULIPAS,,MX,+52 800 833 4700,https://location.westernunion.com/mx/tamaulipas/reynosa/f44d5b9d3fa9323b9d4a27637b8f6053,Mo-Su 08:00-20:00,Western Union,Q861042
46c1046ada4df2918854073e1f81b8ff,western_union,AURRERA EXPRESS PICO BROAD 4997,,Reynosa,TAMAULIPAS,,MX,+52 800 833 4700,https://location.westernunion.com/mx/tamaulipas/reynosa/46c1046ada4df2918854073e1f81b8ff,Mo-Su 08:00-22:00,Western Union,Q861042
7cd87fd772929e57d1ff19fae5aceadc,western_union,AURRERA EXPRESS PICO BROAD 4997,,Reynosa,TAMAULIPAS,,MX,+52 800 833 4700,https://location.westernunion.com/mx/tamaulipas/reynosa/7cd87fd772929e57d1ff19fae5aceadc,Mo-Su 08:00-22:00,Western Union,Q861042
be37c3f2bbf50e560a99274f502f26de,western_union,OXXO ALMENDROS REX,,Reynosa,TAMAULIPAS,,MX,+52 81 8389 2121,https://location.westernunion.com/mx/tamaulipas/reynosa/be37c3f2bbf50e560a99274f502f26de,Mo-Su 08:00-22:00,Western Union,Q861042
c5bea3dd70e8580c3a24680fff58a2e5,western_union,OXXO ALMENDROS REX,,Reynosa,TAMAULIPAS,,MX,+52 81 8389 2121,https://location.westernunion.com/mx/tamaulipas/reynosa/c5bea3dd70e8580c3a24680fff58a2e5,Mo-Su 08:00-22:00,Western Union,Q861042
ae052e13ee98cb617eff62795f9f36bc,western_union,OXXO ALMENDROS REX,,Reynosa,TAMAULIPAS,,MX,+52 81 8389 2121,https://location.westernunion.com/mx/tamaulipas/reynosa/ae052e13ee98cb617eff62795f9f36bc,Mo-Su 08:00-22:00,Western Union,Q861042
144c5542b2327fcfe15c1031e4088911,western_union,7ELEVEN SEGUNDA Y CALLE 13 1786,,Reynosa,TAMAULIPAS,,MX,+52 800 833 4700,https://location.westernunion.com/mx/tamaulipas/reynosa/144c5542b2327fcfe15c1031e4088911,Mo-Su 06:00-22:00,Western Union,Q861042
908ade8a780fc0ba9bb404ee5e8981a5,western_union,7ELEVEN SEGUNDA Y CALLE 13 1786,,Reynosa,TAMAULIPAS,,MX,+52 800 833 4700,https://location.westernunion.com/mx/tamaulipas/reynosa/908ade8a780fc0ba9bb404ee5e8981a5,Mo-Su 06:00-22:00,Western Union,Q861042
fcd9a26eb132e46f7fe05653609a3bb8,western_union,7ELEVEN SEGUNDA Y CALLE 13 1786,,Reynosa,TAMAULIPAS,,MX,+52 800 833 4700,https://location.westernunion.com/mx/tamaulipas/reynosa/fcd9a26eb132e46f7fe05653609a3bb8,Mo-Su 06:00-22:00,Western Union,Q861042
