Ref,Spider,Name,Address,City,State,Zipcode,Country,Phone,Website,Hours,Brand,WikiData
17949,ace_hardware,Northwest Hardware Company,,Blackstone,VA,,US,+1 434-292-7208,,Mo-Sa 07:45-19:15; Su 09:45-18:15,Ace Hardware,Q4672981
https://stores.advanceautoparts.com/va/blackstone/1412-s-main-st,advance_auto_parts_us,Advance Auto Parts,,Blackstone,VA,,US,+1 434-292-0070,https://stores.advanceautoparts.com/va/blackstone/1412-s-main-st,Mo-Sa 07:30-21:00; Su 09:00-20:00,Advance Auto Parts,Q4686051
175417,bluerhino,Hardaways Shell Slip-in,,Blackstone,VA,,US,+1 434-292-1240,,,Blue Rhino,Q65681213
175416,bluerhino,Hardaways Race-In,,Blackstone,VA,,US,+1 434-292-5725,,,Blue Rhino,Q65681213
164324,bluerhino,Family Dollar #05176,,BLACKSTONE,VA,,US,+1 434-292-4855,,,Blue Rhino,Q65681213
12078,bluerhino,Food Lion #0908,,Blackstone,VA,,US,+1 434-292-1620,,,Blue Rhino,Q65681213
25610,bluerhino,Walmart #2645 - Supercenter,,Blackstone,VA,,US,+1 434-292-5898,,,Blue Rhino,Q65681213
30183875564072382400100000000000,bp,BP,,Blackstone,VA,,US,+1 434-292-1246,,Mo-Sa 06:30-22:00; Su 06:30-21:00,BP,Q152057
57323,citi,ATM Fort Lee FCU,,Blackstone,VA,,US,,,,Citibank,Q857063
20774,dollar_general,Dollar General,,Blackstone,VA,,US,+1 434-264-7025,https://www.dollargeneral.com/store-directory/va/blackstone/20774,Mo-Su 08:00-22:00,Dollar General,Q145168
200323108,exxonmobil,WILBURNS,,BLACKSTONE,VA,,US,+1 434-292-4187,https://www.exxon.com/en/find-station/exxon-blackstone-va-wilburns-200323108,Mo-Fr 06:00-22:00; Sa-Su 07:00-21:00,Exxon,Q109675651
200320809,exxonmobil,BLACKSTONE,,BLACKSTONE,VA,,US,+1 434-292-5125,https://www.exxon.com/en/find-station/exxon-blackstone-va-blackstone-200320809,Mo-Fr 05:00-21:00; Sa 06:00-21:00; Su 07:00-21:00,Exxon,Q109675651
https://local.fedex.com/#25235058,fedex,,,Blackstone,VA,,US,+1 800-463-3339,https://local.fedex.com/en-us/va/blackstone/ptbbc,,FedEx,Q459477
https://local.fedex.com/#27753121,fedex,FedEx Authorized ShipCenter,,Blackstone,VA,,US,+1 434-292-7447,https://local.fedex.com/en-us/va/blackstone/00tl2,,FedEx,Q459477
44480,h_r_block,H&R Block,,Blackstone,VA,,US,+1 434-292-7634,https://www.hrblock.com/local-tax-offices/virginia/blackstone/blackstone-shopping-center/44480/,,H&R Block,Q5627799
https://office.jacksonhewitt.com/#27577537,jackson_hewitt,Jackson Hewitt,,Blackstone,VA,,US,+1 434-447-4477,https://office.jacksonhewitt.com/tax-preparation-services-locations/en/va/blackstone/215-south-main-street/11910,Mo-Fr 10:00-18:00; Sa 10:00-16:00,Jackson Hewitt,Q6117132
158855,marathon_petroleum_us,Blackstone 717,,Blackstone,VA,,US,+1 804-297-7397,,,Marathon,Q458363
https://locations.oreillyauto.com/va/blackstone/check-engine-light-testing-4649.html,oreilly,Your Blackstone O'Reilly Auto Parts Store,,Blackstone,VA,,US,+1 434-292-1230,https://locations.oreillyauto.com/va/blackstone/check-engine-light-testing-4649.html,Mo-Sa 07:30-21:00; Su 09:00-20:00,O'Reilly Auto Parts,Q7071951
https://locations.oreillyauto.com/va/blackstone/wiper-installation-4649.html,oreilly,Your Blackstone O'Reilly Auto Parts Store,,Blackstone,VA,,US,+1 434-292-1230,https://locations.oreillyauto.com/va/blackstone/wiper-installation-4649.html,Mo-Sa 07:30-21:00; Su 09:00-20:00,O'Reilly Auto Parts,Q7071951
https://locations.oreillyauto.com/va/blackstone/battery-testing-4649.html,oreilly,Your Blackstone O'Reilly Auto Parts Store,,Blackstone,VA,,US,+1 434-292-1230,https://locations.oreillyauto.com/va/blackstone/battery-testing-4649.html,Mo-Sa 07:30-21:00; Su 09:00-20:00,O'Reilly Auto Parts,Q7071951
https://locations.oreillyauto.com/va/blackstone/autopartes-4649.html,oreilly,Tu tienda O'Reilly Auto Parts en Blackstone,,Blackstone,VA,,US,+1 434-292-1230,https://locations.oreillyauto.com/va/blackstone/autopartes-4649.html,Mo-Sa 07:30-21:00; Su 09:00-20:00,O'Reilly Auto Parts,Q7071951
va_blackstone_1445-s-main-street,pizza_hut_us,1445 S. Main Street,,Blackstone,VA,,US,+1 434-292-3336,https://locations.pizzahut.com/va/blackstone/1445-s-main-street,,Pizza Hut,Q191615
https://restaurants.subway.com/#14911246,subway,Subway Blackstone Shopping Center,,Blackstone Nottoway,VA,,US,+1 434-292-5949,https://restaurants.subway.com/united-states/va/blackstone/1501-s-main-st,Mo-Su 08:00-21:00,Subway,Q244457
0511601700,sunoco_us,Sunoco,,BLACKSTONE,VA,,US,+1 434-292-5725,,,Sunoco,Q1423218
1355079,usps,BLACKSTONE,,BLACKSTONE,VA,,US,+1 434-292-4457,,Mo-Fr 09:00-17:00; Sa 09:00-11:00,United States Postal Service,Q668687
2382400004,usps_collection_boxes,USPS COLLECTION BOX - BLUE BOX,400 S MAIN ST,BLACKSTONE,VA,,US,,,,United States Postal Service,Q668687
2382400008,usps_collection_boxes,USPS COLLECTION BOX - PO LOBBY,400 S MAIN ST,BLACKSTONE,VA,,US,,,,United States Postal Service,Q668687
2382400011,usps_collection_boxes,USPS COLLECTION BOX - PO LOBBY,400 S MAIN ST,BLACKSTONE,VA,,US,,,,United States Postal Service,Q668687
A00000254166,verizon_us,Wireless Zone Blackstone,,Blackstone,VA,,US,+1 434-264-3206,https://www.verizon.com/stores/details/virginia/blackstone/wireless-zone-blackstone-1568722/,Mo-Sa 10:00-19:00; Su 11:00-17:00,Verizon,Q919641
,visa,,,BLACKSTONE,VA,,US,,,,,
,visa,,,BLACKSTONE,VA,,US,,,,,
,visa,,,BLACKSTOCK,VA,,US,,,,,
,visa,,,BLACKSTONE,VA,,US,,,,,
,visa,,,BLACKSTONE,VA,,US,,,,,
,visa,,,BLACKSTONE,VA,,US,,,,,
,visa,,,BLACKSTONE,VA,,US,,,,,
,visa,,,BLACKSTONE,VA,,US,,,,,
,visa,,,BLACKSTONE,VA,,US,,,,,
,visa,,,BLACKSTONE,VA,,US,,,,,
,visa,,,BLACKSTONE,VA,,US,,,,,
,visa,,,BLACKSTONE,VA,,US,,,,,
,visa,,,BLACKSTONE,VA,,US,,,,,
,visa,,,BLACKSTONE,VA,,US,,,,,
,visa,,,BLACKSTONE,VA,,US,,,,,
,visa,,,BLACKSTONE,VA,,US,,,,,
,visa,,,BLACKSTONE,VA,,US,,,,,
,visa,,,BLACKSTONE,VA,,US,,,,,
https://locations.wendys.com/#9250941,wendys,"Wendy's Blackstone in Blackstone, VA",,Blackstone,VA,,US,+1 434-298-0808,https://locations.wendys.com/united-states/va/blackstone/1419-south-main-street,"Mo-Su 06:30-10:30,09:00-22:00",Wendy's,Q550258
49855344b401367577ed23f4ea1e4244,western_union,DOLLAR GENERAL #20774,,Blackstone,VA,,US,+1 434-264-7025,https://location.westernunion.com/us/va/blackstone/49855344b401367577ed23f4ea1e4244,Mo-Su 08:00-22:00,Western Union,Q861042
ffd406418d1a90c4e973c3c18a44c9fd,western_union,WALMART #002645,,Blackstone,VA,,US,+1 434-292-5898,https://location.westernunion.com/us/va/blackstone/ffd406418d1a90c4e973c3c18a44c9fd,Mo-Su 07:00-21:00,Western Union,Q861042
