Ref,Spider,Name,Address,City,State,Zipcode,Country,Phone,Website,Hours,Brand,WikiData
143739,bluerhino,King Soopers #009 - Fuel Site,,Fort Collins,CO,,US,+1 970-221-4943,,,Blue Rhino,Q65681213
82314,bluerhino,King Soopers #009,,Fort Collins,CO,,US,+1 970-221-4943,,,Blue Rhino,Q65681213
212015,bluerhino,Fresh Foods #9529,,Fort Collins,CO,,US,+1 970-484-2243,,,Blue Rhino,Q65681213
82322,bluerhino,King Soopers #018,,Fort Collins,CO,,US,+1 970-482-8855,,,Blue Rhino,Q65681213
27161,citi,ATM 7ELEVEN-FCTI,,Fort Collins,CO,,US,,,,Citibank,Q857063
30856,citi,ATM 7ELEVEN-FCTI,,Fort Collins,CO,,US,,,,Citibank,Q857063
25735,citi,ATM 7ELEVEN-FCTI,,Fort Collins,CO,,US,,,,Citibank,Q857063
23589,coldstone_creamery,Cold Stone Creamery,,Fort Collins,CO,,US,+1 970-484-3415,https://www.coldstonecreamery.com/stores/23589,,Cold Stone Creamery,Q1094923
,credit_union_us,Canvas CU,,Fort Collins,CO,,US,+1 303-691-2345,,Mo-Fr 08:00-05:00,,
,credit_union_us,Canvas CU,,Fort Collins,CO,,US,+1 970-416-5000,,Mo-Fr 09:00-06:00; Sa 09:00-01:00,,
6235,dominos_pizza_us,Domino's Pizza,,Fort Collins,CO,,US,+1 970-484-3030,https://pizza.dominos.com/colorado/fort-collins/2110-w-elizabeth-st,Mo-Th 10:00-24:00; Fr-Sa 10:00-01:00; Su 10:00-24:00,Domino's,Q839466
DB420,dutchbros,Elizabeth Coffeehouse,,Fort Collins,CO,,US,,https://locations.dutchbros.com/dutch-bros-coffee-cf1c4aca97d4,Mo-Th 05:00-22:00; Fr-Sa 05:00-23:00; Su 05:00-22:00,Dutch Bros. Coffee,Q5317253
https://www.edwardjones.com/us-en/financial-advisor/john-balmer,edwardjones,John Balmer,,Ft Collins,CO,,US,+1 970-491-9970,https://www.edwardjones.com/us-en/financial-advisor/john-balmer,Mo-Fr 08:00-17:00,Edward Jones,Q5343830
https://restaurants.fiveguys.com/#15553342,five_guys_us,Five Guys Next to CSU campus,,Fort Collins,CO,,US,+1 970-797-2428,https://restaurants.fiveguys.com/1335-w-elizabeth,"Mo-Su 11:00-21:30,11:00-22:00",Five Guys,Q1131810
https://fuzzystacoshop.com/locations/colorado/fort-collins-elizabeth/,fuzzys_taco_shop_us,Fort Collins (Elizabeth),,Fort Collins,CO,,US,+1 970-407-8226,https://fuzzystacoshop.com/locations/colorado/fort-collins-elizabeth/,Mo-We 08:00-23:00; Th-Sa 08:00-24:00; Su 09:00-22:00,Fuzzy's Taco Shop,Q85762348
a2dfb599-458a-e111-8dde-005056934050,goodwill,Ft Collins Store,,Fort Collins,CO,,US,+1 970-223-1042,https://www.goodwill.org/locator/location/?store=YTJkZmI1OTktNDU4YS1lMTExLThkZGUtMDA1MDU2OTM0MDUw&lat=NDAuNTk4Mzk=&lng=LTEwNS4xMjYzOQ==,,Goodwill,Q5583655
https://salons.greatclips.com/us/co/fort-collins/1015-s-taft-hill-rd,greatclips,Great Clips,,Fort Collins,CO,,US,+1 970-224-2664,https://salons.greatclips.com/us/co/fort-collins/1015-s-taft-hill-rd,Mo-Fr 08:00-19:00; Sa-Su 08:00-18:00,Great Clips,Q5598967
https://healthy.kaiserpermanente.org/colorado/facilities/aveanna-healthcare-316595,kaiser_permanente_us,Aveanna Healthcare,,Fort Collins,CO,,US,+1 970-416-6481,https://healthy.kaiserpermanente.org/colorado/facilities/aveanna-healthcare-316595,,Kaiser Permanente,Q1721601
302083,kindercare,Fort Collins KinderCare,,Fort Collins,CO,,US,,https://www.kindercare.com/our-centers/fort-collins/co/302083,,KinderCare Learning Centers,Q6410551
64270,little_free_library,Kara Fairweather #64270 Fort Collins CO,,Fort Collins,CO,,US,,,,Little Free Library,Q6650101
7668,little_free_library,Macalister LFL #7668 Fort Collins CO,,Fort Collins,CO,,US,,,,Little Free Library,Q6650101
33455,little_free_library,Audrey Borden #33455 fort collins CO,,fort collins,CO,,US,,,,Little Free Library,Q6650101
94325,little_free_library,North Hollywood's Little Free Library #94325 Fort Collins CO,,Fort Collins,CO,,US,,,,Little Free Library,Q6650101
88470,little_free_library,Little Red House Library #88470 Fort Collins CO,,Fort Collins,CO,,US,,,,Little Free Library,Q6650101
14920,little_free_library,Bev Perina #14920 Ft Collins CO,,Ft Collins,CO,,US,,,,Little Free Library,Q6650101
26544,little_free_library,Kristopher Hite #26544 Fort Collins CO,,Fort Collins,CO,,US,,,,Little Free Library,Q6650101
51021,little_free_library,Sharing is Caring Free Library #51021 Fort Collins CO,,Fort Collins,CO,,US,,,,Little Free Library,Q6650101
116035,little_free_library,Big Tree Little Free Library #116035 Fort Collins CO,,Fort Collins,CO,,US,,,,Little Free Library,Q6650101
153431,little_free_library,The Children's Workshop Library #153431 Fort Collins CO,,Fort Collins,CO,,US,,,,Little Free Library,Q6650101
138578,little_free_library,"Lori's ""Love Letter"" to Literature/Peace #138578 Fort Collins CO",,Fort Collins,CO,,US,,,,Little Free Library,Q6650101
172189,little_free_library,Susan Epperson #172189 Fort Collins CO,,Fort Collins,CO,,US,,,,Little Free Library,Q6650101
2595,little_free_library,Ron Harber #2595 Fort Collins CO,,Fort Collins,CO,,US,,,,Little Free Library,Q6650101
0000886960,phillips_66_conoco_76,SEI 39079,,FORT COLLINS,CO,,US,+1 970-482-3279,,,Conoco,Q109341187
0000884412,phillips_66_conoco_76,SEI 13171,,FORT COLLINS,CO,,US,+1 970-493-3098,,,Conoco,Q109341187
https://www.plannedparenthood.org/health-center/colorado/fort-collins/80521/fort-collins-4087-90210,planned_parenthood,Planned Parenthood,,Fort Collins,CO,,US,,https://www.plannedparenthood.org/health-center/colorado/fort-collins/80521/fort-collins-4087-90210,,Planned Parenthood,Q2553262
https://locations.qdoba.com/us/co/fort-collins/1104-w-elizabeth-st.html,qdoba,QDOBA Elizabeth,,Fort Collins,CO,,US,+1 970-416-6930,https://locations.qdoba.com/us/co/fort-collins/1104-w-elizabeth-st.html,Mo-Su 06:30-24:00,Qdoba,Q1363885
35880,seven_eleven_ca_us,7-Eleven Store,,Fort Collins,CO,,US,+1 970-825-5671,https://www.7-eleven.com/locations/co/fort-collins/1401-elizabeth-st-35880,,7-Eleven,Q259340
39079,seven_eleven_ca_us,7-Eleven Store,,Fort Collins,CO,,US,+1 970-493-0285,https://www.7-eleven.com/locations/co/fort-collins/200-taft-hill-rd-39079,,7-Eleven,Q259340
https://restaurants.subway.com/#14913940,subway,Subway Campus West,,"Fort Collins, Co Larimer",CO,,US,+1 970-224-5914,https://restaurants.subway.com/united-states/co/fort-collins-co/1101-west-elizabeth-street,Mo-Th 09:00-22:00; Fr-Sa 09:00-22:30; Su 09:00-21:00,Subway,Q244457
https://locations.tacobell.com/#6146123,taco_bell,Taco Bell,,Fort Collins,CO,,US,+1 970-221-4311,https://locations.tacobell.com/co/fort-collins/1527-w--elizabeth-st-.html,Mo-Th 07:00-02:00; Fr-Sa 07:00-03:00; Su 07:00-02:00,Taco Bell,Q752941
https://locations.tacobell.com/#23560416,taco_bell,Taco Bell,,Fort Collins,CO,,US,+1 970-482-5331,https://locations.tacobell.com/co/fort-collins/1101-central-avenue-mall.html,,Taco Bell,Q752941
1376040,usps,FORT COLLINS OLD TOWN STA,,FORT COLLINS,CO,,US,+1 970-472-4022,,Mo-Fr 09:00-17:00; Sa 10:00-14:00,United States Postal Service,Q668687
8052100002,usps_collection_boxes,USPS COLLECTION BOX - BLUE BOX,1100 W MOUNTAIN AVE,FORT COLLINS,CO,,US,,,,United States Postal Service,Q668687
8052100005,usps_collection_boxes,USPS COLLECTION BOX - BLUE BOX,1015 S TAFT HILL RD,FORT COLLINS,CO,,US,,,,United States Postal Service,Q668687
8052100022,usps_collection_boxes,USPS COLLECTION BOX - BLUE BOX,211 CANYON AVE,FORT COLLINS,CO,,US,,,,United States Postal Service,Q668687
8052100000,usps_collection_boxes,USPS COLLECTION BOX - BLUE BOX,215 W OAK ST,FORT COLLINS,CO,,US,,,,United States Postal Service,Q668687
8052100026,usps_collection_boxes,USPS COLLECTION BOX - BLUE BOX,215 W OAK ST,FORT COLLINS,CO,,US,,,,United States Postal Service,Q668687
8052100006,usps_collection_boxes,USPS COLLECTION BOX - EXPRESS,301 S HOWES ST,FORT COLLINS,CO,,US,,,,United States Postal Service,Q668687
8052100008,usps_collection_boxes,USPS COLLECTION BOX - BLUE BOX,301 S HOWES ST,FORT COLLINS,CO,,US,,,,United States Postal Service,Q668687
8052100009,usps_collection_boxes,USPS COLLECTION BOX - BLUE BOX,301 S HOWES ST,FORT COLLINS,CO,,US,,,,United States Postal Service,Q668687
8052100010,usps_collection_boxes,USPS COLLECTION BOX - BLUE BOX,301 S HOWES ST,FORT COLLINS,CO,,US,,,,United States Postal Service,Q668687
8052100011,usps_collection_boxes,USPS COLLECTION BOX - PO LOBBY,301 S HOWES ST,FORT COLLINS,CO,,US,,,,United States Postal Service,Q668687
8052100012,usps_collection_boxes,USPS COLLECTION BOX - PO LOBBY,301 S HOWES ST,FORT COLLINS,CO,,US,,,,United States Postal Service,Q668687
8052100016,usps_collection_boxes,USPS COLLECTION BOX - PO LOBBY,301 S HOWES ST,FORT COLLINS,CO,,US,,,,United States Postal Service,Q668687
8052100017,usps_collection_boxes,USPS COLLECTION BOX - PO LOBBY,301 S HOWES ST,FORT COLLINS,CO,,US,,,,United States Postal Service,Q668687
8052100018,usps_collection_boxes,USPS COLLECTION BOX - PO LOBBY,301 S HOWES ST,FORT COLLINS,CO,,US,,,,United States Postal Service,Q668687
8052100019,usps_collection_boxes,USPS COLLECTION BOX - PO LOBBY,301 S HOWES ST,FORT COLLINS,CO,,US,,,,United States Postal Service,Q668687
8052100020,usps_collection_boxes,USPS COLLECTION BOX - PO LOBBY,301 S HOWES ST,FORT COLLINS,CO,,US,,,,United States Postal Service,Q668687
8052100021,usps_collection_boxes,USPS COLLECTION BOX - PO LOBBY,301 S HOWES ST,FORT COLLINS,CO,,US,,,,United States Postal Service,Q668687
8052100027,usps_collection_boxes,USPS COLLECTION BOX - APC,301 S HOWES ST,FORT COLLINS,CO,,US,,,,United States Postal Service,Q668687
8052100003,usps_collection_boxes,USPS COLLECTION BOX - BLUE BOX,1129 W ELIZABETH ST,FORT COLLINS,CO,,US,,,,United States Postal Service,Q668687
,visa,,,FORT COLLINS,CO,,US,,,,,
,visa,,,FORT COLLINS,CO,,US,,,,,
,visa,,,FORT COLLINS,CO,,US,,,,,
,visa,,,FORT COLLINS,CO,,US,,,,,
,visa,,,FORT COLLINS,CO,,US,,,,,
,visa,,,FORT COLLINS,CO,,US,,,,,
,visa,,,FORT COLLINS,CO,,US,,,,,
,visa,,,FORT COLLINS,CO,,US,,,,,
,visa,,,FORT COLLINS,CO,,US,,,,,
,visa,,,FORT COLLINS,CO,,US,,,,,
,visa,,,FT COLLINS,CO,,US,,,,,
,visa,,,FORT COLLINS,CO,,US,,,,,
,visa,,,FT. COLLINS,CO,,US,,,,,
,visa,,,FORT COLLINS,CO,,US,,,,,
,visa,,,FORT COLLINS,CO,,US,,,,,
,visa,,,FORT COLLINS,CO,,US,,,,,
,visa,,,FORT COLLINS,CO,,US,,,,,
,visa,,,FORT COLLINS,CO,,US,,,,,
,visa,,,FORT COLLINS,CO,,US,,,,,
,visa,,,FORT COLLINS,CO,,US,,,,,
,visa,,,FORT COLLINS,CO,,US,,,,,
,visa,,,FORT COLLINS,CO,,US,,,,,
,visa,,,FORT COLLINS,CO,,US,,,,,
,visa,,,FORT COLLINS,CO,,US,,,,,
,visa,,,FORT COLLINS,CO,,US,,,,,
,visa,,,FORT COLLINS,CO,,US,,,,,
,visa,,,FT. COLLINS,CO,,US,,,,,
,visa,,,FT. COLLINS,CO,,US,,,,,
,visa,,,FORT COLLINS,CO,,US,,,,,
,visa,,,FT COLLINS,CO,,US,,,,,
,visa,,,FORT COLLINS,CO,,US,,,,,
,visa,,,FT COLLINS,CO,,US,,,,,
,visa,,,FORT COLLINS,CO,,US,,,,,
,visa,,,FORT COLLINS,CO,,US,,,,,
,visa,,,FORT COLLINS,CO,,US,,,,,
,visa,,,FORT COLLINS,CO,,US,,,,,
,visa,,,FORT COLLINS,CO,,US,,,,,
,visa,,,FORT COLLINS,CO,,US,,,,,
,visa,,,FORT COLLINS,CO,,US,,,,,
,visa,,,FORT COLLINS,CO,,US,,,,,
,visa,,,FORT COLLINS,CO,,US,,,,,
,visa,,,FT. COLLINS,CO,,US,,,,,
,visa,,,FORT COLLINS,CO,,US,,,,,
,visa,,,FT COLLINS,CO,,US,,,,,
,visa,,,FT COLLINS,CO,,US,,,,,
,visa,,,FORT COLLINS,CO,,US,,,,,
,visa,,,FT COLLINS,CO,,US,,,,,
,visa,,,FORT COLLINS,CO,,US,,,,,
,visa,,,DENVER,CO,,US,,,,,
,visa,,,FT COLLINS,CO,,US,,,,,
,visa,,,FT COLLINS,CO,,US,,,,,
https://locations.wendys.com/#9252375,wendys,"Wendy's W Eliz College in Fort Collins, CO",,Fort Collins,CO,,US,+1 970-484-7131,https://locations.wendys.com/united-states/co/fort-collins/1405-w-elizabeth-st,"Mo-Su 06:30-10:30,06:30-21:00",Wendy's,Q550258
0d9367daf3ccbb2e5e1fc2ae4ecdae80,western_union,7-ELEVEN #35880,,Fort Collins,CO,,US,+1 970-825-5671,https://location.westernunion.com/us/co/fort-collins/0d9367daf3ccbb2e5e1fc2ae4ecdae80,,Western Union,Q861042
e0549ea5ce86b03d54d1f14b16664212,western_union,7-ELEVEN #13171,,Fort Collins,CO,,US,+1 970-493-3098,https://location.westernunion.com/us/co/fort-collins/e0549ea5ce86b03d54d1f14b16664212,,Western Union,Q861042
79139173cbfd09529c5286946c782f33,western_union,7-ELEVEN #39079,,Fort Collins,CO,,US,+1 970-493-0285,https://location.westernunion.com/us/co/fort-collins/79139173cbfd09529c5286946c782f33,,Western Union,Q861042
