Ref,Spider,Name,Address,City,State,Zipcode,Country,Phone,Website,Hours,Brand,WikiData
https://locations.arbys.com/co/fortcollins/7601-westgate-drive.html,arbys_us,"Arby's Fast-Food Drive Through Near You in Fort Collins, CO",,Fort Collins,CO,,US,+1 970-225-6064,https://locations.arbys.com/co/fortcollins/7601-westgate-drive.html,Mo-Th 09:30-22:30; Fr-Sa 09:30-23:00; Su 09:30-22:00,Arby's,Q630866
5967,autozone_us,AutoZone Auto Parts Fort Collins,,Fort Collins,CO,,US,+1 970-223-5745,https://www.autozone.com/locations/co/fort-collins/2226-e-harmony-rd.html,Mo-Fr 08:00-21:00; Sa-Su 08:00-20:00,AutoZone,Q4826087
https://www.avis.com/en/locations/us/co/hpe-only-ft-collins/avhpe,avis,Avis U S A HPE Only/Ft Collins,,HPE Only/Ft Collins,CO,,US,+1 970-229-9115,https://www.avis.com/en/locations/us/co/hpe-only-ft-collins/avhpe,Mo-Fr 08:00-17:00,Avis,Q791136
https://www.avis.com/en/locations/us/co/hp-inc-only-fort-collins/f1t,avis,Avis U S A HP INC Only/Fort Collins,,HP INC Only/Fort Collins,CO,,US,+1 970-229-9115,https://www.avis.com/en/locations/us/co/hp-inc-only-fort-collins/f1t,Mo-Fr 08:00-16:00,Avis,Q791136
https://www.avis.com/en/locations/us/co/hewlett-packard-only-ft-collin/f1t,avis,Avis U S A HP INC Only/Fort Collins,,HP INC Only/Fort Collins,CO,,US,+1 970-229-9115,https://www.avis.com/en/locations/us/co/hewlett-packard-only-ft-collin/f1t,Mo-Fr 08:00-16:00,Avis,Q791136
https://locators.bankofamerica.com/co/fortcollins/financial-centers-fort-collins-17060.html,bankofamerica,Bank of America Financial Center & Drive-Thru ATM | Front Range Village,,Fort Collins,CO,,US,+1 970-658-4426,https://locators.bankofamerica.com/co/fortcollins/financial-centers-fort-collins-17060.html,Mo-Fr 09:00-16:00; Sa 09:00-13:00,Bank of America,Q487907
https://www.bannerhealth.com/locations/fort-collins/banner-health-center-lady-moon,bannerhealth,Banner Health Center,,Fort Collins,CO,,US,+1 970-821-4500,,Mo-Fr 07:00-17:00,Banner Health,Q4856918
https://www.bannerhealth.com/locations/fort-collins/banner-fort-collins-medical-center,bannerhealth,Banner Fort Collins Medical Center,,Fort Collins,CO,,US,+1 970-821-4000,,,Banner Health,Q4856918
https://www.bannerhealth.com/locations/fort-collins/horizon-laboratory-lady-moon,bannerhealth,Horizon Laboratory,,Fort Collins,CO,,US,+1 970-820-6890,,Mo-Fr 07:00-17:00; Sa 07:00-12:00,Banner Health,Q4856918
228459,bluerhino,Loaf N Jug #822,,Fort Collins,CO,,US,+1 970-266-9711,,,Blue Rhino,Q65681213
163410,bluerhino,Big D Oil #49,,Fort Collins,CO,,US,+1 970-223-5161,,,Blue Rhino,Q65681213
152696,bluerhino,Walgreens #10601,,Fort Collins,CO,,US,+1 970-530-2692,,,Blue Rhino,Q65681213
106466,bluerhino,Lowe's #2697,,Fort Collins,CO,,US,+1 970-232-7910,,,Blue Rhino,Q65681213
2043460,chase_us,Harmony and Corbett - New branch,,Fort Collins,CO,,US,+1 970-377-9599,https://locator.chase.com/co/fort-collins/2820-e-harmony-rd,Mo-Fr 09:00-17:00; Sa 09:00-14:00,Chase,Q524629
co_fort-collins_2120-e-harmony-rd,chipotle, ,,Fort Collins,CO,,US,+1 970-530-3200,https://locations.chipotle.com/co/fort-collins/2120-e-harmony-rd,,Chipotle,Q465751
89103,citi,ATM Walgreens,,Fort Collins,CO,,US,,,,Citibank,Q857063
46429,citi,ATM CREDIT UNION OF COLORADO,,Ft Collins,CO,,US,,,,Citibank,Q857063
65909,citi,ATM MOUNTAIN VALLEY B,,Fort Collins,CO,,US,,,,Citibank,Q857063
32523,citi,ATM 7ELEVEN-FCTI,,Windsor,CO,,US,,,,Citibank,Q857063
20271,coldstone_creamery,Cold Stone Creamery,,Fort Collins,CO,,US,+1 970-204-1284,https://www.coldstonecreamery.com/stores/20271,,Cold Stone Creamery,Q1094923
,credit_union_us,Elevations CU,,Port Collins,CO,,US,,,Mo-Fr 08:30-05:30; Sa 09:00-12:00,,
6279,dominos_pizza_us,Domino's Pizza,,Timnath,CO,,US,+1 970-295-4990,https://pizza.dominos.com/colorado/timnath/4650-signal-tree-drive-bldg-a-unit-1700,Mo-Th 10:00-23:00; Fr-Sa 10:00-24:00; Su 10:00-23:00,Domino's,Q839466
Front Range Village,dsw,DSW,,Fort Collins,CO,,US,+1 970-223-2399,https://stores.dsw.com/usa/co/fortcollins/dsw-designer-shoe-warehouse-front-range-village.html,Mo-Sa 10:00-20:00; Su 11:00-19:00,Designer Shoe Warehouse,Q5206207
https://www.edwardjones.com/us-en/financial-advisor/shane-richendifer,edwardjones,Shane M Richendifer,,Ft Collins,CO,,US,+1 970-223-7799,https://www.edwardjones.com/us-en/financial-advisor/shane-richendifer,Mo-Th 08:00-17:00; Fr 08:00-14:00,Edward Jones,Q5343830
521495,eg_america_us,Loaf 'N Jug,,Fort Collins,CO,,US,+1 970-266-9711,https://www.loafnjug.com/find-us/generic-store-page/?id=750822,,Loaf 'N Jug,Q6663398
521481,eg_america_us,Loaf 'N Jug,,Fort Collins,CO,,US,+1 970-204-0070,https://www.loafnjug.com/find-us/generic-store-page/?id=750813,,Loaf 'N Jug,Q6663398
521491,eg_america_us,Loaf 'N Jug,,Fort Collins,CO,,US,+1 970-229-0903,https://www.loafnjug.com/find-us/generic-store-page/?id=750817,,Loaf 'N Jug,Q6663398
https://restaurants.fiveguys.com/#15553047,five_guys_us,Five Guys Harmony Road,,Fort Collins,CO,,US,+1 970-204-9140,https://restaurants.fiveguys.com/2860-east-harmony-road,"Mo-Su 11:00-21:30,11:00-22:00",Five Guys,Q1131810
https://fuzzystacoshop.com/locations/colorado/fort-collins-harmony/,fuzzys_taco_shop_us,Fort Collins (Harmony),,Fort Collins,CO,,US,+1 970-223-8226,https://fuzzystacoshop.com/locations/colorado/fort-collins-harmony/,Mo-Sa 08:00-23:00; Su 08:00-22:00,Fuzzy's Taco Shop,Q85762348
denver_steve-allen,geico,Steve Allen,,Ft. Collins,CO,,US,+1 970-221-5230,https://www.geico.com/insurance-agents/colorado/denver/steve-allen/,,GEICO,Q1498689
https://locations.jimmyjohns.com/co/fortcollins/sandwiches-3184.html,jimmy_johns,Jimmy John's,,Fort Collins,CO,,US,+1 970-223-7200,https://locations.jimmyjohns.com/co/fortcollins/sandwiches-3184.html,,Jimmy John's,Q1689380
https://healthy.kaiserpermanente.org/colorado/facilities/pet-imaging-of-northern-colorado-305285,kaiser_permanente_us,PET Imaging of Northern Colorado,,Fort Collins,CO,,US,+1 970-204-0202,https://healthy.kaiserpermanente.org/colorado/facilities/pet-imaging-of-northern-colorado-305285,,Kaiser Permanente,Q1721601
https://healthy.kaiserpermanente.org/colorado/facilities/horizon-laboratory-at-banner-fort-collins-medical-center-321981,kaiser_permanente_us,Horizon Laboratory at Banner Fort Collins Medical Center,,Fort Collins,CO,,US,+1 970-821-4347,https://healthy.kaiserpermanente.org/colorado/facilities/horizon-laboratory-at-banner-fort-collins-medical-center-321981,,Kaiser Permanente,Q1721601
https://healthy.kaiserpermanente.org/colorado/facilities/hanger-clinic-339355,kaiser_permanente_us,Hanger Clinic,,Fort Collins,CO,,US,+1 970-204-7803,https://healthy.kaiserpermanente.org/colorado/facilities/hanger-clinic-339355,,Kaiser Permanente,Q1721601
https://healthy.kaiserpermanente.org/colorado/facilities/fort-collins-medical-offices-300538,kaiser_permanente_us,Fort Collins Medical Offices,,Fort Collins,CO,,US,+1 303-338-4545,https://healthy.kaiserpermanente.org/colorado/facilities/fort-collins-medical-offices-300538,,Kaiser Permanente,Q1721601
https://healthy.kaiserpermanente.org/colorado/facilities/eye-center-of-northern-colorado-surgery-center-312181,kaiser_permanente_us,Eye Center of Northern Colorado Surgery Center,,Fort Collins,CO,,US,+1 970-221-2222,https://healthy.kaiserpermanente.org/colorado/facilities/eye-center-of-northern-colorado-surgery-center-312181,,Kaiser Permanente,Q1721601
https://healthy.kaiserpermanente.org/colorado/facilities/banner-fort-collins-medical-center-318981,kaiser_permanente_us,Banner Fort Collins Medical Center,,Fort Collins,CO,,US,+1 970-821-4000,https://healthy.kaiserpermanente.org/colorado/facilities/banner-fort-collins-medical-center-318981,,Kaiser Permanente,Q1721601
301651,kindercare,Westgate KinderCare,,Windsor,CO,,US,,https://www.kindercare.com/our-centers/windsor/co/301651,,KinderCare Learning Centers,Q6410551
93278,little_free_library,The Ketchter Crossing Little Free Librar #93278 Fort Collins CO,,Fort Collins,CO,,US,,,,Little Free Library,Q6650101
39740,little_free_library,Maria Mulreaney Kirschner #39740 Fort collins CO,,Fort collins,CO,,US,,,,Little Free Library,Q6650101
68276,little_free_library,Angie's Library #68276 Fort Collins CO,,Fort Collins,CO,,US,,,,Little Free Library,Q6650101
148121,little_free_library,Wendy Dolgin #148121 Fort Collins CO,,Fort Collins,CO,,US,,,,Little Free Library,Q6650101
152632,little_free_library,Heather Henricks #152632 #152632 FORT COLLINS CO,,FORT COLLINS,CO,,US,,,,Little Free Library,Q6650101
70166,little_free_library,Fossil Lake Ranch Ambassadors #70166 Fort Collins CO,,Fort Collins,CO,,US,,,,Little Free Library,Q6650101
45623,little_free_library,Carol Morschhauser #45623 Fort Collins CO,,Fort Collins,CO,,US,,,,Little Free Library,Q6650101
60713,little_free_library,Kelly Hughes #60713 Fort Collins CO,,Fort Collins,CO,,US,,,,Little Free Library,Q6650101
121710,little_free_library,Just Melinda #121710 Fort Collins CO,,Fort Collins,CO,,US,,,,Little Free Library,Q6650101
139276,little_free_library,Harmony Village #139276 Fort Collins CO,,Fort Collins,CO,,US,,,,Little Free Library,Q6650101
122176,little_free_library,Ptarmigan LFL #122176 Ft Collins CO,,Ft Collins,CO,,US,,,,Little Free Library,Q6650101
FTCFF,marriott,Fairfield Inn & Suites Fort Collins South,,Fort Collins,CO,,US,+1 970-226-6656,https://www.marriott.com/FTCFF,,Fairfield by Marriott,Q5430314
18835,mattress_firm_us,Mattress Firm Front Range Village,,Fort Collins,CO,,US,+1 970-414-0031,https://www.mattressfirm.com/en-us/stores/co/fort-collins/003074/,,Mattress Firm,Q6791878
221851,modern_market_us,Stand UCHealth Harmony,,Fort Collins,CO,,US,+1 970-406-7400,,,Modern Market,Q123370165
https://locations.noodles.com/co/fort-collins/4733-s--timberline-rd.html,noodles_and_company_us,Noodles & Company Timberline,,Fort Collins,CO,,US,+1 970-223-2808,https://locations.noodles.com/co/fort-collins/4733-s--timberline-rd.html,Mo-We 10:30-21:00; Th-Sa 10:30-22:00; Su 10:30-21:00,Noodles and Company,Q7049673
50,old_chicago_us,Fort Collins Harmony,"4709 S TIMBERLINE RD, FORT COLLINS, CO 80528",FORT COLLINS,CO,,US,,https://oldchicago.com/locations/fort-collins-harmony,Mo-Su 11:00-00:00,Old Chicago,Q64411347
0000884443,phillips_66_conoco_76,SEI 35717,,WINDSOR,CO,,US,+1 970-461-7851,,,Conoco,Q109341187
137050,potbelly_sandwich,Ft. Collins Harmony,,Fort Collins,CO,,US,+1 970-530-2265,,Mo-Su 10:00-21:00,Potbelly Sandwich Shop,Q7234777
39519,seven_eleven_ca_us,7-Eleven Store,,Windsor,CO,,US,+1 970-223-5554,https://www.7-eleven.com/locations/co/windsor/7486-westgate-39519,,7-Eleven,Q259340
https://stations.sinclairoil.com/co/ft-collins/4325-e-harmony-rd,sinclair_us,Sinclair Gas Station,,Ft Collins,CO,,US,+1 970-223-4029,https://stations.sinclairoil.com/co/ft-collins/4325-e-harmony-rd,Mo-Su 05:00-22:00,Sinclair,Q1290900
https://smashburger.com/locations/#64506925,smashburger,Smashburger,,Fort Collins,CO,,US,+1 970-744-3700,https://smashburger.com/locations/us/co/fort-collins/2550-e-harmony-rd,Mo-Th 10:30-21:30; Fr-Sa 10:30-22:00; Su 10:30-21:30,Smashburger,Q17061332
https://restaurants.subway.com/#14907620,subway,Subway Schrader Oil,,Fort Collins Larimer,CO,,US,+1 970-266-0883,https://restaurants.subway.com/united-states/co/fort-collins/7600-westgate-dr,Mo-Fr 07:00-20:30; Sa 08:00-20:30; Su 09:00-20:00,Subway,Q244457
https://restaurants.subway.com/#14897753,subway,Subway,,Fort Collins Larimer,CO,,US,+1 970-377-0070,https://restaurants.subway.com/united-states/co/fort-collins/2815-harmony-rd-e,Mo-Fr 07:30-21:00; Sa-Su 09:00-21:00,Subway,Q244457
583869,taco_johns_us,Windsor,"7605 Royal Vista Circle, Windsor CO 80528",Windsor,CO,,US,+1 970-266-2665,https://locations.tacojohns.com/co/windsor/7605-royal-vista-circle/,Mo-Su 07:00-22:00,Taco John's,Q7673962
00667,twenty_four_hour_fitness_us,Fort Collins,,Fort Collins,CO,,US,+1 970-797-3036,https://www.24hourfitness.com/Website/Club/00667,,24 Hour Fitness Sport,Q4631849
8052800001,usps_collection_boxes,USPS COLLECTION BOX - BLUE BOX,2315 E HARMONY RD,FORT COLLINS,CO,,US,,,,United States Postal Service,Q668687
8052800003,usps_collection_boxes,USPS COLLECTION BOX - BLUE BOX,3003 E HARMONY RD,FORT COLLINS,CO,,US,,,,United States Postal Service,Q668687
8052800002,usps_collection_boxes,USPS COLLECTION BOX - EXPRESS,3003 E HARMONY RD,FORT COLLINS,CO,,US,,,,United States Postal Service,Q668687
,visa,,,WINDSOR,CO,,US,,,,,
,visa,,,WINDSOR,CO,,US,,,,,
,visa,,,FT. COLLINS,CO,,US,,,,,
,visa,,,FORT COLLINS,CO,,US,,,,,
,visa,,,FORT COLLINS,CO,,US,,,,,
,visa,,,FORT COLLINS,CO,,US,,,,,
,visa,,,FORT COLLINS,CO,,US,,,,,
,visa,,,FORT COLLINS,CO,,US,,,,,
,visa,,,FORT COLLINS,CO,,US,,,,,
,visa,,,FORT COLLINS,CO,,US,,,,,
,visa,,,FT COLLINS,CO,,US,,,,,
,visa,,,FORT COLLINS,CO,,US,,,,,
,visa,,,FORT COLLINS,CO,,US,,,,,
,visa,,,FORT COLLINS,CO,,US,,,,,
,visa,,,FORT COLLINS,CO,,US,,,,,
,visa,,,FORT COLLINS,CO,,US,,,,,
,visa,,,FORT COLLINS,CO,,US,,,,,
,visa,,,FORT COLLINS,CO,,US,,,,,
,visa,,,FORT COLLINS,CO,,US,,,,,
,visa,,,FT. COLLINS,CO,,US,,,,,
,visa,,,FORT COLLINS,CO,,US,,,,,
,visa,,,FORT COLLINS,CO,,US,,,,,
,visa,,,FORT COLLINS,CO,,US,,,,,
,visa,,,FORT COLLINS,CO,,US,,,,,
https://www.walgreens.com/locator/walgreens-2268+e+harmony+rd-fort+collins-co-80528/id=10601,walgreens,Walgreens,,Fort Collins,CO,,US,+1 970-530-2692,https://www.walgreens.com/locator/walgreens-2268+e+harmony+rd-fort+collins-co-80528/id=10601,Mo-Su 07:00-23:00,Walgreens,Q1591889
2827__E__HARMONY__RD_FORT__COLLINS_CO_80528,wellsfargo,Wells Fargo,2827 E HARMONY RD,FORT COLLINS,CO,,US,+1 970-266-4420,https://www.wellsfargo.com/locator/bank/2827__E__HARMONY__RD_FORT__COLLINS_CO_80528/,Mo-Fr 09:00-17:00,Wells Fargo,Q744149
988a0c542caeae4420398e290c1b1592,western_union,LOAF N JUG #360,,Fort Collins,CO,,US,+1 970-266-9711,https://location.westernunion.com/us/co/fort-collins/988a0c542caeae4420398e290c1b1592,Mo-Su 05:00-23:00,Western Union,Q861042
09dd133807af7ea6d01f70887552782e,western_union,7-ELEVEN #39519,,Windsor,CO,,US,+1 970-223-5554,https://location.westernunion.com/us/co/windsor/09dd133807af7ea6d01f70887552782e,,Western Union,Q861042
5cc744b43a86cbb01fec9ef294c32a9f,western_union,LOAF N JUG #290,,Fort Collins,CO,,US,+1 970-229-0903,https://location.westernunion.com/us/co/fort-collins/5cc744b43a86cbb01fec9ef294c32a9f,Mo-Su 06:00-22:00,Western Union,Q861042
c80c9a5550420b1f6665392ad1f9229c,western_union,LOAF N JUG #240,,Fort Collins,CO,,US,+1 970-204-0070,https://location.westernunion.com/us/co/fort-collins/c80c9a5550420b1f6665392ad1f9229c,Mo-Su 05:00-23:00,Western Union,Q861042
