Ref,Spider,Name,Address,City,State,Zipcode,Country,Phone,Website,Hours,Brand,WikiData
71574358,moneygram,NIGAM ELECTRONIC - MAHARAJ GANJ - MAHARA,,MAHARAJ GANJ,,,IN,+91 87657 98160,,Mo-Su 08:00-20:00,MoneyGram,Q1944412
72367030,moneygram,RAUNIYAR TRADERS - MAHARAJ GANJ - MAHARA,,MAHARAJ GANJ,,,IN,+91 97921 27195,,Mo-Su 08:00-22:00,MoneyGram,Q1944412
72367014,moneygram,VIVEK MOBILE CARE - MAHARAJ GANJ - MAHAR,,MAHARAJ GANJ,,,IN,+91 97930 02900,,Mo-Su 08:00-22:00,MoneyGram,Q1944412
72484900,moneygram,GUPTA MEDICAL STORE - MAHARAJGANJ - MAHA,,MAHARAJGANJ,,,IN,+91 97943 51327,,Mo-Su 08:00-22:00,MoneyGram,Q1944412
72489251,moneygram,SHANTEE-E-SERVICES - MAHARAJGANJ - MAHRA,,MAHARAJGANJ,,,IN,+91 94540 00151,,Mo-Su 08:00-22:00,MoneyGram,Q1944412
72608980,moneygram,FARHAN TRAVELS,,MAHARAJGANJ,,,IN,+91 96702 70483,,Mo-Su 08:00-21:00,MoneyGram,Q1944412
72610321,moneygram,NEW VIVEK MEDICAL STORE,,MAHARAJGANJ,,,IN,+91 76074 44657,,Mo-Su 08:00-21:00,MoneyGram,Q1944412
72593859,moneygram,ANJALI TOURS AND TRAVELS,,MAHARAJGANJ,,,IN,+91 99361 70193,,Mo-Su 08:00-21:00,MoneyGram,Q1944412
72594337,moneygram,M/S PRAGYA VASTRALAYA,,MAHARAJGANJ,,,IN,+91 96513 47663,,Mo-Su 08:00-21:00,MoneyGram,Q1944412
72672547,moneygram,SAHAJ JAN SEWA KENDRA - MAHARAJ GANJ - M,,MAHARAJ GANJ,,,IN,+91 80096 91023,,Mo-Su 08:00-22:00,MoneyGram,Q1944412
72864672,moneygram,MAHALAXMI TOUR & TRAVELS - MAHARAJ GANJ,,MAHARAJ GANJ,,,IN,+91 73182 07798,,Mo-Su 09:00-21:00,MoneyGram,Q1944412
72901357,moneygram,BHARAT TOUR AND TRAVELS AND ROSE SAHAJ J,,MAHARAJ GANJ,,,IN,+91 96285 32121,,Mo-Su 09:00-21:00,MoneyGram,Q1944412
72926691,moneygram,ROHAN COMPUTER CENTER - MAHARAJ GANJ - M,,MAHARAJ GANJ,,,IN,+91 91980 71655,,Mo-Su 08:00-22:00,MoneyGram,Q1944412
73034061,moneygram,SAHAJ JAN SEWA KENDRA - MAHARAJ GANJ,,MAHARAJ GANJ,,,IN,+91 90050 00562,,Mo-Su 08:00-20:00,MoneyGram,Q1944412
73046295,moneygram,SAHAJ JAN SEVA KENDRA,,MAHARAJ GANJ,,,IN,+91 96212 72140,,Mo-Su 08:00-21:00,MoneyGram,Q1944412
73417743,moneygram,SANDEEP INTERNET SEVA,,MAHARAJ GANJ,,,IN,+91 76071 46636,,Mo-Su 08:00-21:00,MoneyGram,Q1944412
73538046,moneygram,SAHAJ JAN SEWA KENDRA,,MAHARAJ GANJ,,,IN,+91 80096 91023,,Mo-Su 08:00-21:00,MoneyGram,Q1944412
73540979,moneygram,SAHAJ JAN SEWA KENDRA,,MAHARAJ GANJ,,,IN,+91 95657 35433,,Mo-Su 08:00-21:00,MoneyGram,Q1944412
73721277,moneygram,STAR TOUR AND TRAVELS - MAHARAJ GANJ,,MAHARAJ GANJ,,,IN,+91 97946 03055,,Mo-Su 08:00-20:00,MoneyGram,Q1944412
74107560,moneygram,AHIL ONLINE,,MAHARAJGANJ,,,IN,+91 99359 39881,,Mo-Su 08:00-21:00,MoneyGram,Q1944412
74108213,moneygram,MAA VAISHNO TRAVELS,,MAHARAJGANJ,,,IN,+91 99192 31814,,Mo-Su 08:00-21:00,MoneyGram,Q1944412
74187111,moneygram,NEW ANSARI MOBILE SHOP,,MAHARAJ GANJ,,,IN,+91 90057 06222,,Mo-Su 08:00-21:00,MoneyGram,Q1944412
74186905,moneygram,RADHE RADHE COSMETIC CENTER,,MAHARAJ GANJ,,,IN,+91 96518 75968,,Mo-Su 08:00-21:00,MoneyGram,Q1944412
74282731,moneygram,MARUTI FINANCIAL & TOUR & TRAVELS,,MAHARAJGANJ,,,IN,+91 90441 83541,,Mo-Su 08:00-21:00,MoneyGram,Q1944412
71776172,moneygram,SAHAJ JAN SEWA KENDRA - MAHARAJ GANJ - M,,MAHARAJ GANJ,,,IN,+91 96285 46284,,Mo-Su 10:00-20:00,MoneyGram,Q1944412
