Ref,Spider,Name,Address,City,State,Zipcode,Country,Phone,Website,Hours,Brand,WikiData
180598,bluerhino,Speedway #9918,,Richfield Springs,NY,,US,+1 315-858-0623,,,Blue Rhino,Q65681213
191698,bluerhino,Price Chopper #210,,Richfield Springs,NY,,US,+1 315-858-1171,,,Blue Rhino,Q65681213
207170,bluerhino,Aubuchon Hardware #177,,Richfield Springs,NY,,US,+1 315-858-2411,,,Blue Rhino,Q65681213
77901,citi,ATM Speedway,,Rochester,NY,,US,,,,Citibank,Q857063
Motorcraft4273USAEnglish,ford,"Skinner & Damulis, Inc.",,New York,NY,,US,+1 315-858-1350,,,Ford,Q44294
210,golub_corporation_us,Price Chopper Richfield Springs,,Richfield Springs,NY,,US,+1 315-858-1171,https://www.pricechopper.com/stores/ny/richfieldsprings/price-chopper-210.html,Mo-Su 06:00-23:00,Price Chopper,Q7242574
3173,mightyflame,MIRABITO STORES #129,,RICHFIELD SPRINGS,NY,,US,+1 315-858-2088,,,Mighty Flame,
193,mightyflame,STEWARTS SHOPS #163,,RICHFIELD SPRINGS,NY,,US,+1 315-858-6140,,,Mighty Flame,
163,stewartsshops,Stewart's Shops,,Richfield Springs,NY,,US,+1 315-858-6140,https://locations.stewartsshops.com/ll/US/NY/Richfield-Springs/119-West-Main-Street,Mo-Su 04:00-00:00,Stewart's Shops,Q7615690
0428229900,sunoco_us,Sunoco,,RICHFIELD SPRINGS,NY,,US,+1 315-858-6140,,Mo-Su 04:00-00:00,Sunoco,Q1423218
1379221,usps,RICHFIELD SPRINGS,,RICHFIELD SPRINGS,NY,,US,+1 315-858-0150,,"Mo-Fr 08:30-12:30,14:00-17:00; Sa 09:00-12:00",United States Postal Service,Q668687
1343900001,usps_collection_boxes,USPS COLLECTION BOX - BLUE BOX,152 MAIN ST,RICHFLD SPGS,NY,,US,,,,United States Postal Service,Q668687
1343900008,usps_collection_boxes,USPS COLLECTION BOX - PO LOBBY,152 MAIN ST,RICHFLD SPGS,NY,,US,,,,United States Postal Service,Q668687
1343900004,usps_collection_boxes,USPS COLLECTION BOX - PO LOBBY,152 MAIN ST,RICHFLD SPGS,NY,,US,,,,United States Postal Service,Q668687
,visa,,,RICHFIELD SPR,NY,,US,,,,,
,visa,,,RICHFIELD SPRINGS,NY,,US,,,,,
,visa,,,RICHFIELD SPRINGS,NY,,US,,,,,
,visa,,,RICHFIELD,NY,,US,,,,,
,visa,,,RICHFIELD SPRINGS,NY,,US,,,,,
,visa,,,RICHFIELD SPR,NY,,US,,,,,
,visa,,,RICHFIELD SPRINGS,NY,,US,,,,,
