Ref,Spider,Name,Address,City,State,Zipcode,Country,Phone,Website,Hours,Brand,WikiData
CN518506,adidas,"adidas Outlet Store Xuzhou, Xuzhou Shanshan Outlets",,徐州市,,,CN,+86 155 5552 0686,https://www.adidas.co.uk/storefront/CN518506-徐州市-6-玉带大道6号徐州杉杉奥特莱斯购物广场内1-2层编号为b122-124&b2-adidas-outlet-store-xuzhou-xuzhou-shanshan-outlets,,Adidas,Q3895
xuzhxhx-hampton-xuzhou-yunlong-mountain,hilton,Hampton by Hilton Xuzhou Yunlong Mountain,"246 Jiefang Road, Yunlong District, Xuzhou, 221000, China",,,,CN,+86 516 8088 8888,https://www.hilton.com/ar/hotels/xuzhxhx-hampton-xuzhou-yunlong-mountain/,,Hampton by Hilton,Q5646230
68643616,moneygram,BOC - #07350 - JSXZ YUNLONGHU SUBBRANCH,,XUZHOU,,,CN,+86 516 8561 6899,,Mo-Su 09:00-17:00,MoneyGram,Q1944412
65858530,moneygram,BOC - #07326 - JSXZ YOUTH ROAD XUZHOU BR,,XUZHOU,,,CN,+86 516 8372 5368,,Mo-Su 08:30-17:00,MoneyGram,Q1944412
65858543,moneygram,BOC - #06964 - JSXZ SOUTH XUZHOU RENAISS,,XUZHOU,,,CN,+86 516 8380 7588,,Mo-Fr 08:30-17:00; Sa 00:00-24:00; Su 08:30-17:00,MoneyGram,Q1944412
65858556,moneygram,BOC - #06957 - JSXZ XUZHOU NORTH STATION,,XUZHOU,,,CN,+86 516 8762 4847,,Mo-Sa 08:30-17:00; Su 00:00-24:00,MoneyGram,Q1944412
65858569,moneygram,BOC - #06966 - JSXZ BUILD A BRANCH XUZHO,,XUZHOU,,,CN,+86 516 8356 3555,,Mo-Sa 08:30-17:00; Su 00:00-24:00,MoneyGram,Q1944412
65858572,moneygram,BOC - #06965 - JSXZ XUZHOU DONGYUAN,,XUZHOU,,,CN,+86 516 8356 0328,,Mo-Fr 08:30-17:00; Sa 00:00-24:00; Su 08:30-17:00,MoneyGram,Q1944412
65858585,moneygram,BOC - #06956 - JSXZ THE LIBERATION OF SO,,XUZHOU,,,CN,+86 516 8385 4923,,Mo-Fr 08:30-17:00; Sa 00:00-24:00; Su 08:30-17:00,MoneyGram,Q1944412
65858608,moneygram,BOC - #06979 - JSXZ PLAYS MA XUZHOU TAIW,,XUZHOU,,,CN,+86 516 8390 2370,,Mo-Sa 08:30-17:00; Su 00:00-24:00,MoneyGram,Q1944412
65858624,moneygram,BOC - #06963 - JSXZ XUZHOU BRANCH JIULON,,XUZHOU,,,CN,+86 516 8772 7312,,Mo-Fr 08:30-17:00; Sa 00:00-24:00; Su 08:30-17:00,MoneyGram,Q1944412
65858637,moneygram,BOC - #06978 - JSXZ JIANGUO ROAD XUZHOU,,XUZHOU,,,CN,+86 516 8381 8565,,Mo-Fr 08:30-17:00; Sa 00:00-24:00; Su 08:30-17:00,MoneyGram,Q1944412
65858941,moneygram,BOC - #06984 - JSXZ XUZHOU ECONOMIC DEVE,,XUZHOU,,,CN,+86 516 8779 3204,,Mo-Fr 08:30-17:00; Sa 00:00-24:00; Su 08:30-17:00,MoneyGram,Q1944412
65858967,moneygram,BOC - #06986 - JSXZ NORTH XUZHOU RENAISS,,XUZHOU,,,CN,+86 516 8377 9042,,Mo-Sa 08:30-17:00; Su 00:00-24:00,MoneyGram,Q1944412
65858970,moneygram,BOC - #06955 - JSXZ TOWER BRANCH XUZHOU,,XUZHOU,,,CN,+86 516 8384 6269,,Mo-Sa 08:30-17:00; Su 00:00-24:00,MoneyGram,Q1944412
65858996,moneygram,BOC - #07328 - JSXZ XIZHOU XIGUAN,,XUZHOU,,,CN,+86 516 8565 7890,,Mo-Su 08:30-17:00,MoneyGram,Q1944412
65859047,moneygram,BOC - #06969 - JSXZ WING ON XUZHOU BRANC,,XUZHOU,,,CN,+86 516 8569 6035,,Mo-Fr 08:30-17:00; Sa 00:00-24:00; Su 08:30-17:00,MoneyGram,Q1944412
65859050,moneygram,BOC - #06971 - JSXZ PEI HO STREET XUZHOU,,XUZHOU,,,CN,+86 516 8573 3216,,Mo-Fr 08:30-17:00; Sa 00:00-24:00; Su 08:30-17:00,MoneyGram,Q1944412
65859063,moneygram,BOC - #06972 - JSXZ XUZHOU HUAIXI,,XUZHOU,,,CN,+86 516 8560 5777,,Mo-Sa 08:30-17:00; Su 00:00-24:00,MoneyGram,Q1944412
65859005,moneygram,BOC - #06975 - JSXZ PEOPLE'S XUZHOU HOME,,XUZHOU,,,CN,+86 516 8595 0100,,Mo-Fr 08:30-17:00; Sa 00:00-24:00; Su 08:30-17:00,MoneyGram,Q1944412
65859076,moneygram,BOC - #06973 - JSXZ XUZHOU PEACE IN WEST,,XUZHOU,,,CN,+86 516 8581 8822,,Mo-Sa 08:30-17:00; Su 00:00-24:00,MoneyGram,Q1944412
65859092,moneygram,BOC - #06974 - JSXZ JINSHAN XUZHOU,,XUZHOU,,,CN,+86 516 8391 9698,,Mo-Sa 08:30-17:00; Su 00:00-24:00,MoneyGram,Q1944412
65859102,moneygram,BOC - #06987 - JSXZ XUZHOU XIYUAN,,XUZHOU,,,CN,+86 516 8585 7055,,Mo-Sa 08:30-17:00; Su 00:00-24:00,MoneyGram,Q1944412
65859115,moneygram,BOC - #06988 - JSXZ DEMOCRACY NORTH ROAD,,XUZHOU,,,CN,+86 516 8371 9630,,Mo-Sa 08:30-17:00; Su 00:00-24:00,MoneyGram,Q1944412
65859128,moneygram,BOC - #06961 - JSXZ ZHONGSHAN SOUTH ROAD,,XUZHOU,,,CN,+86 516 8579 5778,,Mo-Fr 08:30-17:00; Sa 00:00-24:00; Su 08:30-17:00,MoneyGram,Q1944412
65859160,moneygram,BOC - #06958 - JSXZ HUBEI ROAD XUZHOU BR,,XUZHOU,,,CN,+86 516 8570 7878,,Mo-Fr 08:30-17:00; Sa 00:00-24:00; Su 08:30-17:00,MoneyGram,Q1944412
65859173,moneygram,BOC - #06962 - JSXZ WU ZHUANG XUZHOU BRA,,XUZHOU,,,CN,+86 516 8570 9978,,Mo-Sa 08:30-17:00; Su 00:00-24:00,MoneyGram,Q1944412
65859186,moneygram,BOC - #06982 - JSXZ XIZHOU GURI,,XUZHOU,,,CN,+86 516 8577 2288,,Mo-Sa 08:30-17:00; Su 00:00-24:00,MoneyGram,Q1944412
65859199,moneygram,BOC - #07274 - JSXZ XUZHOU TONGSHAN,,XUZHOU,,,CN,+86 516 8331 2299,,Mo-Su 08:30-17:00,MoneyGram,Q1944412
65859209,moneygram,BOC - #06954 - JSXZ UNIVERSITY OF MINING,,XUZHOU,,,CN,+86 516 8359 2839,,Mo-Fr 08:30-17:00; Sa 00:00-24:00; Su 08:30-17:00,MoneyGram,Q1944412
65859212,moneygram,BOC - #06977 - JSXZ XUZHOU NORMAL UNIVER,,XUZHOU,,,CN,+86 516 8353 5771,,Mo-Fr 08:30-17:00; Sa 00:00-24:00; Su 08:30-17:00,MoneyGram,Q1944412
65859225,moneygram,BOC - #06959 - JSXZ XUZHOU WENCHANG,,XUZHOU,,,CN,+86 516 8388 5169,,Mo-Fr 08:30-17:00; Sa 00:00-24:00; Su 08:30-17:00,MoneyGram,Q1944412
65859241,moneygram,BOC - #06953 - JSXZ XUZHOU ZHAI SHAN BRA,,XUZHOU,,,CN,+86 516 8388 8924,,Mo-Sa 08:30-17:00; Su 00:00-24:00,MoneyGram,Q1944412
65859254,moneygram,BOC - #06980 - JSXZ XUZHOU JIAWAN,,XUZHOU,,,CN,+86 516 8771 5536,,Mo-Su 08:30-17:00,MoneyGram,Q1944412
65859267,moneygram,BOC - #26114 - JSXZ XUZHOU FENGXIAN,,XUZHOU,,,CN,+86 516 8922 5402,,Mo-Su 08:30-17:00,MoneyGram,Q1944412
66684884,moneygram,BOC - #06970 - JSXZ KUANGSHANLU SUB-BRAN,,XUZHOU,,,CN,+86 516 8581 8822,,Mo-Fr 08:30-17:00; Sa-Su 00:00-24:00,MoneyGram,Q1944412
66684907,moneygram,BOC - #06967 - JSXZ DAWU SUB-BRANCH,,XUZHOU,,,CN,+86 516 8377 9042,,Mo-Su 08:30-17:00,MoneyGram,Q1944412
65858527,moneygram,BOC - #07273 - JSXZ XUZHOU FICE,,XUZHOU,,,CN,+86 516 8560 8988,,Mo-Su 08:30-17:00,MoneyGram,Q1944412
65858954,moneygram,BOC - #06985 - JSXZ QINGFENG ROAD XUZHOU,,XUZHOU,,,CN,+86 516 8366 5643,,Mo-Sa 08:30-17:00; Su 00:00-24:00,MoneyGram,Q1944412
,visa,,,XUZHOU,,,CN,,,,,
,visa,,,XUZHOU,,,CN,,,,,
