Ref,Spider,Name,Address,City,State,Zipcode,Country,Phone,Website,Hours,Brand,WikiData
3668,action,Ahlen,,Ahlen,,,DE,,https://www.action.com/de-de/laden/ahlen/,,Action,Q2634111
https://vertretung.allianz.de/vertretung.riecke/,allianz_de,Allianz Versicherung Jörg Riecke HAUPTVERTRETUNG,,Ahlen,,,DE,+49 2382 9619044,https://vertretung.allianz.de/vertretung.riecke/,"Mo-Th 09:00-12:00,13:00-16:00; Fr 09:00-12:00",Allianz SE,Q487292
https://vertretung.allianz.de/vertretung.guettner/,allianz_de,Allianz Versicherung Daniel Güttner GENERALVERTRETUNG,,Ahlen,,,DE,+49 2382 83040,https://vertretung.allianz.de/vertretung.guettner/,Mo-Th 09:00-16:30; Fr 09:00-13:00,Allianz SE,Q487292
25742_4,bmw_group,Procar Automobile Münsterland GmbH,,Ahlen,,,DE,+49 2382 98350,https://www.bmw-procar.de,,BMW,Q26678
DE2218,c_and_a,Ahlen Oststrasse,"Oststrasse 2-10, 59227 Ahlen",Ahlen,,,DE,,https://www.c-and-a.com/stores/de-de/nordrhein-westfalen/ahlen/oststrasse-2-10.html,Mo 09:30-18:30; Tu 09:30-18:30; We 09:30-18:30; Th 09:30-18:30; Fr 09:30-18:30; Sa 09:30-17:00,C&A,Q701338
589,deutsche_telekom_de,Telekom Shop Ahlen,,Ahlen,,,DE,+49 2382 7601370,https://shopseite.telekom.de/west/ahlen/weststr-62,Mo-Fr 09:30-18:00; Sa 09:30-14:00,Deutsche Telekom,Q9396
2760917448,gls_de,Beko´s Kiosk,,Ahlen,,,DE,+49 1590 1794449,,"Mo-Fr 06:00-11:00,13:00-20:00",General Logistics Systems,Q46495823
1502,jysk,Ahlen,,Ahlen,,,DE,+49 2382 8556990,https://jysk.de/filialen?storeId=1502,Mo-Fr 10:00-18:30; Sa 09:30-16:00,JYSK,Q138913
2446,kik,KiK,,Ahlen,,,DE,+49 2382 7605199,,Mo-Fr 09:00-19:00; Sa 09:00-18:00,KiK,Q883965
1935,lidl_de,,,Ahlen,,,DE,,,Mo-Sa 07:00-21:00,Lidl,Q151954
2019,lidl_de,,,Ahlen,,,DE,,,Mo-Sa 07:00-21:00,Lidl,Q151954
https://www.rossmann.de/de/filialen/nordrhein-westfalen/ahlen/oststr--2-10.html,rossmann_de,Rossmann Drogerie-Markt Oststr. 2-10,,Ahlen,,,DE,+49 2382 9402751,https://www.rossmann.de/de/filialen/nordrhein-westfalen/ahlen/oststr--2-10.html,Mo-Fr 09:00-19:00; Sa 09:00-18:00,Rossmann,Q316004
60429,sparkasse_de,Sparkasse Münsterland Ost Geldautomat Vorhelm,,Ahlen,,,DE,+49 800 40050153,https://www.sparkasse.de/standorte/geldautomaten/sparkasse-muensterland-ost-geldautomat-vorhelm-60429,Mo-Su 06:00-23:00,Sparkasse,Q13601825
34795,sparkasse_de,Sparkasse Münsterland Ost SB-Filiale Vorhelm,,Ahlen,,,DE,+49 800 40050153,https://www.sparkasse.de/standorte/geldautomaten/sparkasse-muensterland-ost-sb-filiale-vorhelm-34795,Mo-Su 06:00-23:00,Sparkasse,Q13601825
60431,sparkasse_de,Sparkasse Münsterland Ost Geldautomat Ahlen-Warendorfer Straße,,Ahlen,,,DE,+49 800 40050153,https://www.sparkasse.de/standorte/geldautomaten/sparkasse-muensterland-ost-geldautomat-ahlen-warendorfer-strasse-60431,Mo-Su 06:00-23:00,Sparkasse,Q13601825
34778,sparkasse_de,Sparkasse Münsterland Ost SB-Filiale Ahlen-Warendorfer Straße,,Ahlen,,,DE,+49 2382 85458400,https://www.sparkasse.de/standorte/geldautomaten/sparkasse-muensterland-ost-sb-filiale-ahlen-warendorfer-strasse-34778,Mo-Su 06:00-23:00,Sparkasse,Q13601825
176055,sparkasse_de,Sparkasse Münsterland Ost Geldautomat Ahlen Westraße,,Ahlen,,,DE,+49 800 40050153,https://www.sparkasse.de/standorte/geldautomaten/sparkasse-muensterland-ost-geldautomat-ahlen-westrasse-176055,Mo-Su 06:00-23:00,Sparkasse,Q13601825
175823,sparkasse_de,Sparkasse Münsterland Ost SB-Filiale Ahlen Westraße,,Ahlen,,,DE,+49 800 40050153,https://www.sparkasse.de/standorte/filialen/sparkasse-muensterland-ost-sb-filiale-ahlen-westrasse-175823,Mo-Su 06:00-23:00,Sparkasse,Q13601825
WES_DE_957,totalenergies,"AHLEN, HAUPTSTR. 19",,Ahlen,,,DE,,https://store.totalenergies.fr/en_EN/WES_DE_957,,Westfalen,Q1411209
3138,valora,Press & Books,,Ahlen,,,DE,,,,Press & Books,Q100407277
,visa,,,AHLEN,,,DE,,,,,
,visa,,,AHLEN,,,DE,,,,,
,visa,,,AHLEN,,,DE,,,,,
,visa,,,AHLEN,,,DE,,,,,
,visa,,,AHLEN,,,DE,,,,,
https://shops.vodafone.de/ahlen/oststr.-46,vodafone_de,Vodafone-Shop,,Ahlen,,,DE,+49 173 2814400,https://shops.vodafone.de/ahlen/oststr.-46,Mo-Fr 09:30-18:30; Sa 09:30-15:00,Vodafone,Q122141
https://www.vr.de/standorte/A/volksbank-eg-filiale-vorhelm-sb-filiale-12469.html,vr_bank,Volksbank eG - Filiale Vorhelm (SB-Filiale),,Ahlen-Vorhelm,,,DE,+49 2581 570,https://www.volksbank-eg.de,Mo-Su 06:00-23:00,,
https://www.vr.de/standorte/A/volksbank-eg-filiale-ahlen-warendorfer-strasse-sb-filiale-11712.html,vr_bank,"Volksbank eG - Filiale Ahlen, Warendorfer Straße (SB-Filiale)",,Ahlen,,,DE,+49 2581 570,https://www.volksbank-eg.de,Mo-Su 06:00-23:00,,
https://www.vr.de/standorte/A/volksbank-eg-hauptstelle-ahlen-12467.html,vr_bank,Volksbank eG - Hauptstelle Ahlen,,Ahlen,,,DE,+49 2581 570,https://www.volksbank-eg.de,"Mo 09:00-12:30,14:00-16:30; Tu 09:00-12:30,14:00-18:00; We 09:00-12:30,14:00-16:30; Th 09:00-12:30,14:00-18:00; Fr 09:00-12:30,14:00-16:30",,
