Ref,Spider,Name,Address,City,State,Zipcode,Country,Phone,Website,Hours,Brand,WikiData
https://local.pharmacy.acmemarkets.com/#5672394,albertsons,ACME Markets Pharmacy,,Audubon,NJ,,US,+1 856-616-2484,https://local.pharmacy.acmemarkets.com/nj/audubon/100-e-black-horse-pike.html,Mo-Fr 09:00-20:00; Sa 09:00-17:00; Su 09:00-16:00,ACME Markets,Q341975
https://local.acmemarkets.com/#5603048,albertsons,ACME Markets,,Audubon,NJ,,US,+1 856-547-3938,https://local.acmemarkets.com/nj/audubon/100-e-black-horse-pike.html,"Mo-Fr 07:00-22:00,09:00-20:00; Sa 07:00-22:00,09:00-17:00; Su 07:00-22:00,09:00-16:00",ACME Markets,Q341975
https://restaurants.applebees.com/en-us/nj/audubon/610-west-nicholson-road-99057,applebees,Connect with this Applebee's,,Audubon,NJ,,US,+1 856-547-9000,https://restaurants.applebees.com/en-us/nj/audubon/610-west-nicholson-road-99057,Mo-Th 11:00-24:00; Fr-Sa 11:00-01:00; Su 11:00-24:00,Applebees,Q621532
https://locations.arbys.com/nj/audubon/100-black-horse-pike.html,arbys_us,"Arby's Fast-Food Drive Through Near You in Audubon, NJ",,Audubon,NJ,,US,+1 856-310-1033,https://locations.arbys.com/nj/audubon/100-black-horse-pike.html,Mo-Su 10:00-23:30,Arby's,Q630866
https://locations.auntieannes.com/#6213,auntie_annes,Auntie Anne's Audubon Wal-Mart #5047/Subway #33832,,Audubon,NJ,,US,+1 856-672-0055,https://locations.auntieannes.com/nj/audubon/130-black-horse-pike,Mo-Su 10:00-21:00,Auntie Anne's,Q4822010
86479,bluerhino,Walmart #5047,,Audubon,NJ,,US,+1 856-310-1470,,,Blue Rhino,Q65681213
69694,citi,ATM PNC AT WAWA,,Audubon,NJ,,US,,,,Citibank,Q857063
69693,citi,ATM PNC AT WAWA,,Audubon,NJ,,US,,,,Citibank,Q857063
ATM-2135,citizens_us,,,Audubon,NJ,,US,,,,Citizens,Q5122694
2bb4732f-a8cc-4090-b3fd-61552910446d,concentra_us,Burlington New Jersey,,Burlington,NJ,,US,,https://www.concentra.com/urgent-care-centers/new-jersey/elizabeth/burlington-new-jersey-urgent-care/,,Concentra,Q5158304
70271440,cricket_wireless,Cricket Wireless Authorized Retailer,,Audubon,NJ,,US,+1 856-349-7106,https://www.cricketwireless.com/stores/ll/US/NJ/Audubon/130-Black-Horse-Pike,Mo-Sa 10:00-20:00; Su 12:00-18:00,Cricket Wireless,Q5184987
https://locations.fivebelow.com/nj/audubon/130-black-horse-pike,five_below,Five Below Audubon Crossings,,Audubon,NJ,,US,,https://locations.fivebelow.com/nj/audubon/130-black-horse-pike,Mo-Sa 10:00-20:00; Su 11:00-18:00,Five Below,Q5455836
5606,gamestop_us,Audubon Crossings,,AUDUBON,NJ,,US,+1 856-546-4921,https://www.gamestop.com/search/?store=5606,Mo-Th 12:00-20:00; Fr-Sa 10:00-21:00; Su 12:00-19:00,GameStop,Q202210
https://salons.greatclips.com/us/nj/audubon/130-blackhorse-pike,greatclips,Great Clips,,Audubon,NJ,,US,+1 856-546-7222,https://salons.greatclips.com/us/nj/audubon/130-blackhorse-pike,Mo-Fr 09:00-19:30; Sa 08:00-17:00; Su 09:00-17:00,Great Clips,Q5598967
71486116,moneygram,WAL-MART - #5047,,AUDUBON,NJ,,US,+1 856-310-1470,,Mo-Su 07:00-21:00,MoneyGram,Q1944412
1838,rentacenter,Rent-A-Center,,Audubon,NJ,,US,+1 856-546-7255,https://locations.rentacenter.com/new-jersey/audubon/130-blackhorse-pike/,Mo-Sa 10:00-18:00,Rent-A-Center,Q7313497
1985,ross_dress_for_less_us,Audubon,,Audubon,NJ,,US,+1 856-546-1731,,Mo-Th 09:30-21:30; Fr-Sa 09:30-22:00; Su 10:00-21:00,Ross Dress for Less,Q3442791
https://restaurants.subway.com/#14904862,subway,Subway Wal-Mart #5047,,Audubon Camden,NJ,,US,+1 856-672-0055,https://restaurants.subway.com/united-states/nj/audubon/130-blackhorse-pike,Mo-Su 08:00-21:00,Subway,Q244457
101346,tjx,Audubon ,130 Black Horse Pike ,Audubon ,NJ,,US,+1 856-547-1690,,Mo-Sa 09:30-21:30; Su 10:00-20:00,Marshalls,Q15903261
1433541,usps,AUDUBON,,AUDUBON,NJ,,US,+1 856-963-6597,,Mo-Fr 08:30-17:00; Sa 08:30-12:30,United States Postal Service,Q668687
0810600003,usps_collection_boxes,USPS COLLECTION BOX - BLUE BOX,303 WASHINGTON TER,AUDUBON,NJ,,US,,,,United States Postal Service,Q668687
0810600010,usps_collection_boxes,USPS COLLECTION BOX - BLUE BOX,268 WYOMING AVE,AUDUBON,NJ,,US,,,,United States Postal Service,Q668687
0810600006,usps_collection_boxes,USPS COLLECTION BOX - BLUE BOX,701 S WHITE HORSE PIKE,AUDUBON,NJ,,US,,,,United States Postal Service,Q668687
0810600005,usps_collection_boxes,USPS COLLECTION BOX - BLUE BOX,137 PARIS AVE,AUDUBON,NJ,,US,,,,United States Postal Service,Q668687
0810600018,usps_collection_boxes,USPS COLLECTION BOX - BLUE BOX,277 S WHITE HORSE PIKE,AUDUBON,NJ,,US,,,,United States Postal Service,Q668687
0810600008,usps_collection_boxes,USPS COLLECTION BOX - BLUE BOX,270 W MERCHANT ST,AUDUBON,NJ,,US,,,,United States Postal Service,Q668687
0810600011,usps_collection_boxes,USPS COLLECTION BOX - BLUE BOX,199 CARLISLE RD,AUDUBON,NJ,,US,,,,United States Postal Service,Q668687
0810600001,usps_collection_boxes,USPS COLLECTION BOX - BLUE BOX,130 BLACK HORSE PIKE,AUDUBON,NJ,,US,,,,United States Postal Service,Q668687
0810600030,usps_collection_boxes,USPS COLLECTION BOX - PO LOBBY,130 BLACK HORSE PIKE STE 400,AUDUBON,NJ,,US,,,,United States Postal Service,Q668687
0810600024,usps_collection_boxes,USPS COLLECTION BOX - BLUE BOX,200 W MERCHANT ST,AUDUBON,NJ,,US,,,,United States Postal Service,Q668687
0810600026,usps_collection_boxes,USPS COLLECTION BOX - PO LOBBY,130 BLACK HORSE PIKE,AUDUBON,NJ,,US,,,,United States Postal Service,Q668687
0810600014,usps_collection_boxes,USPS COLLECTION BOX - BLUE BOX,118 E GRAISBURY AVE,AUDUBON,NJ,,US,,,,United States Postal Service,Q668687
0810600022,usps_collection_boxes,USPS COLLECTION BOX - BLUE BOX,606 W NICHOLSON RD,AUDUBON,NJ,,US,,,,United States Postal Service,Q668687
0810600015,usps_collection_boxes,USPS COLLECTION BOX - BLUE BOX,20 ROAD C,AUDUBON,NJ,,US,,,,United States Postal Service,Q668687
A00000237196,verizon_us,Wireless Zone Audubon,,Audubon,NJ,,US,+1 856-546-8080,https://www.verizon.com/stores/details/new-jersey/audubon/tcc-audubon-1660322/,Mo-Fr 10:00-18:00; Sa 10:00-17:00; Su 11:00-16:00,Verizon,Q919641
,visa,,,AUDUBON,NJ,,US,,,,,
,visa,,,AUDUBON,NJ,,US,,,,,
,visa,,,AUDUBON,NJ,,US,,,,,
,visa,,,AUDUBON,NJ,,US,,,,,
638dbd79d4f2bb4a13b87dcc8ccdd85f,western_union,WALMART #005047,,Audubon,NJ,,US,+1 856-310-1470,https://location.westernunion.com/us/nj/audubon/638dbd79d4f2bb4a13b87dcc8ccdd85f,Mo-Su 07:00-21:00,Western Union,Q861042
