Ref,Spider,Name,Address,City,State,Zipcode,Country,Phone,Website,Hours,Brand,WikiData
68164292,moneygram,JBL - ZINZIRA-0858,,KERANIGONJ,,,BD,+880 2-7771821,,24/7,MoneyGram,Q1944412
73995320,moneygram,IFIC BANK - #451195 - KERANIGONJ BRANCH-,,DHAKA,,,BD,+880 9666-716250,,Mo-Th 10:00-18:00; Fr-Sa 00:00-24:00; Su 10:00-17:00,MoneyGram,Q1944412
73994538,moneygram,IFIC BANK - #451219 - AGANAGAR BRANCH-IF,,DHAKA,,,BD,+880 9666-716250,,Mo-Th 10:00-18:00; Fr-Sa 00:00-24:00; Su 10:00-17:00,MoneyGram,Q1944412
73994606,moneygram,IFIC BANK - #451234 - ARSHINAGAR BRANCH-,,DHAKA,,,BD,+880 9666-716250,,Mo-Th 10:00-18:00; Fr-Sa 00:00-24:00; Su 10:00-17:00,MoneyGram,Q1944412
73997726,moneygram,IFIC BANK - #458246 - RANIGANJ BAZAR UPO,,GAZIPUR,,,BD,+880 9666-716250,,Mo-Th 10:00-18:00; Fr-Sa 00:00-24:00; Su 10:00-17:00,MoneyGram,Q1944412
74020919,moneygram,GLOBAL ISLAMI BANK LIMITED - #BD0010071,,DHAKA,,,BD,+880 1981-701718,,Mo-Th 10:00-16:30; Fr-Sa 00:00-24:00; Su 10:00-16:30,MoneyGram,Q1944412
74258008,moneygram,M/S. DEEPTOO & ALIF AGRO FARM - DHAKA -,,DHAKA,,,BD,+880 1715-017325,,Mo-Th 09:30-17:00; Fr-Sa 00:00-24:00; Su 09:30-17:00,MoneyGram,Q1944412
74272411,moneygram,PREMIER BANK - #66127 - ZINZIRA-PBL,,DHAKA,,,BD,880027761708,,Mo-Th 10:00-18:00; Fr 00:00-24:00; Sa 10:00-13:00; Su 10:00-18:00,MoneyGram,Q1944412
74273245,moneygram,PREMIER BANK - #66510 - KERANIGANJ SME-P,,DHAKA,,,BD,880027764010,,Mo-Th 10:00-18:00; Fr 00:00-24:00; Sa 10:00-13:00; Su 10:00-18:00,MoneyGram,Q1944412
74350647,moneygram,NBL - #1027 - DHAKA - RAJENDRAPUR BAZAR,,DHAKA,,,BD,8808801313711215,,Mo-Th 10:00-16:00; Fr 00:00-24:00; Sa-Su 10:00-16:00,MoneyGram,Q1944412
74403824,moneygram,PUBALI BANK LIMITED - #47941 - DHAKA - Z,,DHAKA,,,BD,+880 1958-578213,,Mo-Th 10:00-18:00; Fr-Sa 00:00-24:00; Su 10:00-18:00,MoneyGram,Q1944412
74586767,moneygram,MERCANTILE BANK LIMITED - DHAKA - RAJEND,,DHAKA,,,BD,+880 1705-765074,,Mo-Su 10:00-17:00,MoneyGram,Q1944412
74674226,moneygram,DHAKA BANK - #56124 - RUHITPUR-DBL,,DHAKA,,,BD,+880 1321-209739,,Mo-Th 10:00-17:00; Fr 00:00-24:00; Sa 10:00-15:00; Su 10:00-17:00,MoneyGram,Q1944412
70496547,moneygram,DUTCH-BANGLA BANK LIMITED - BANGLADESH,,BANGLADESH,,,BD,+880 1938-803293,,24/7,MoneyGram,Q1944412
71180483,moneygram,NCC - #111 - KERANIGANJ - NCC-ZINZIRA BR,,KERANIGANJ,,,BD,942556041,,Mo-Th 10:00-17:00; Fr 00:00-24:00; Sa 10:00-15:00; Su 10:00-17:00,MoneyGram,Q1944412
44798190,moneygram,TCBL,,DHAKA,,,BD,7772742,,24/7,MoneyGram,Q1944412
44798297,moneygram,TCBL,,DHAKA,,,BD,7772857,,24/7,MoneyGram,Q1944412
65522497,moneygram,AIBL - #55,,DHAKA,,,BD,4874850,,24/7,MoneyGram,Q1944412
66641966,moneygram,BRAC BANK LTD - #1504 - DHAKA - KERANIGO,,DHAKA,,,BD,7772662,,24/7,MoneyGram,Q1944412
66864523,moneygram,BRAC BANK LTD - #1544 - DHAKA - GULISTAN,,DHAKA,,,BD,88185368,,24/7,MoneyGram,Q1944412
66892294,moneygram,EXIM - DHAKA - KARANIGONJ BR,,DHAKA,,,BD,+880 1730-706768,,24/7,MoneyGram,Q1944412
67218660,moneygram,NBL - Abdullahpur Branch,,DHAKA,,,BD,+880 1730-329689,,24/7,MoneyGram,Q1944412
67218835,moneygram,NBL - Kholamora Bazar Branch,,DHAKA,,,BD,+880 1755-547992,,24/7,MoneyGram,Q1944412
67498150,moneygram,AIBL - RUHITPUR,,DHAKA,,,BD,027766882,,24/7,MoneyGram,Q1944412
71759872,moneygram,BCBL - #57 - KERANIGONJ - BCBL- AGANAGAR,,KERANIGONJ,,,BD,+880 1711-587835,,Mo-Th 10:00-17:00; Fr 00:00-24:00; Sa 10:00-15:00; Su 10:00-17:00,MoneyGram,Q1944412
