Ref,Spider,Name,Address,City,State,Zipcode,Country,Phone,Website,Hours,Brand,WikiData
https://stores.aldi.us/#4420958,aldi_sud_us,ALDI  5505 Ridge Ave,,Cincinnati,OH,,US,+1 833-461-7025,https://stores.aldi.us/oh/cincinnati/5505-ridge-ave,Mo-Su 09:00-20:00,ALDI,Q41171672
703,autozone_us,AutoZone Auto Parts Cincinnati,,Cincinnati,OH,,US,+1 513-631-5595,https://www.autozone.com/locations/oh/cincinnati/6629-montgomery.html,Mo-Sa 08:00-21:00; Su 09:00-21:00,AutoZone,Q4826087
60542,bluerhino,Lowe's #1585,,Cincinnati,OH,,US,+1 513-731-6127,,,Blue Rhino,Q65681213
152049,bluerhino,Walgreens #1502,,Cincinnati,OH,,US,+1 513-731-2272,,,Blue Rhino,Q65681213
76490170291354521300100000000000,bp,BP,,Cincinnati,OH,,US,+1 513-882-3461,,Mo-Fr 06:00-23:00; Sa 07:00-23:00; Su 08:00-22:00,BP,Q152057
85631,citi,ATM United Dairy Farmers,,Cincinnati,OH,,US,,,,Citibank,Q857063
68796,citi,ATM PNC AT UDF,,Cincinnati,OH,,US,,,,Citibank,Q857063
92208,citi,ATM Walgreens,,Cincinnati,OH,,US,,,,Citibank,Q857063
354849,dunkin_us,Dunkin',,Cincinnati,OH,,US,+1 513-246-2031,https://locations.dunkindonuts.com/en/oh/cincinnati/5301-ridge-ave/354849,Mo-Sa 05:00-20:00; Su 06:00-20:00,Dunkin',Q847743
E13810,enterprise,Cincinnati Norwood,,Cincinnati,OH,,US,+1 513-731-3131,,,Enterprise Rent-A-Car,Q17085454
https://locations.53.com/#3033696,fifththirdbank,Fifth Third Bank Pleasant Ridge,,Cincinnati,OH,,US,+1 513-731-4000,https://locations.53.com/oh/cincinnati/6057-montgomery-road.html,Mo-Th 09:00-17:00; Fr 09:00-18:00; Sa 09:00-12:00,Fifth Third Bank,Q1411810
https://locations.jackinthebox.com/us/oh/cincinnati/5234-ridge-ave,jackinthebox,Jack in the Box,,Cincinnati,OH,,US,+1 513-531-5225,https://locations.jackinthebox.com/us/oh/cincinnati/5234-ridge-ave,Mo-Th 06:30-22:30; Fr-Sa 06:30-00:00; Su 06:30-22:30,Jack in the Box,Q1538507
156211,marathon_petroleum_us,KENNEDY AVENUE MARATHON,,CINCINNATI,OH,,US,+1 513-351-2014,,,Marathon,Q458363
2920,mightyflame,DALTON MARATHON,,CINCINNATI,OH,,US,+1 513-345-6617,,,Mighty Flame,
1868,mightyflame,SHELL 1233,,CINCINNATI,OH,,US,+1 513-531-5558,,,Mighty Flame,
007834,penske,Home Depot #3832,,CINCINNATI,OH,,US,+1 513-321-4464,https://www.pensketruckrental.com/locations/us/ohio/cincinnati/007834/,,Penske,Q81234570
home-depot-3832-13699,ppgpaints,HOME DEPOT 3832,,"Cincinnati, ",OH,,US,+1 513-631-1705,https://www.ppgpaints.com/store-locator/us/ohio/cincinnati-paint-stores/home-depot-3832-13699,,PPG Paints,Q83891559
https://restaurants.subway.com/#14907154,subway,Subway Shell Gas Station/C-Store,,Cincinnati Hamilton,OH,,US,+1 513-351-7496,https://restaurants.subway.com/united-states/oh/cincinnati/5301-ridge-rd,Mo-Fr 08:00-21:00; Sa 11:00-21:00; Su 11:00-20:00,Subway,Q244457
0951770700,sunoco_us,Sunoco,,CINCINNATI,OH,,US,+1 513-531-3412,,24/7,Sunoco,Q1423218
1977,united_dairy_farmers_us,United Dairy Farmers,3190 Woodford Rd,Cincinnati,OH,,US,+1 513-731-7917,,,United Dairy Farmers,Q7887677
4521300012,usps_collection_boxes,USPS COLLECTION BOX - BLUE BOX,6300 MONTGOMERY RD,CINCINNATI,OH,,US,,,,United States Postal Service,Q668687
4521300002,usps_collection_boxes,USPS COLLECTION BOX - BLUE BOX,5555 RIDGE AVE,CINCINNATI,OH,,US,,,,United States Postal Service,Q668687
4521300000,usps_collection_boxes,USPS COLLECTION BOX - BLUE BOX,3240 HIGHLAND AVE,CINCINNATI,OH,,US,,,,United States Postal Service,Q668687
,visa,,,CINCINNATI,OH,,US,,,,,
,visa,,,CINCINNATI,OH,,US,,,,,
,visa,,,CINCINNATI,OH,,US,,,,,
,visa,,,CINCINNATI,OH,,US,,,,,
,visa,,,CINCINNATI,OH,,US,,,,,
,visa,,,CINCINNATI,OH,,US,,,,,
,visa,,,CINCINNATI,OH,,US,,,,,
,visa,,,CINCINNATI,OH,,US,,,,,
,visa,,,CINCINNATI,OH,,US,,,,,
,visa,,,CINCINNATI,OH,,US,,,,,
,visa,,,CINCINNATI,OH,,US,,,,,
,visa,,,CINCINNATI,OH,,US,,,,,
,visa,,,CINCINNATI,OH,,US,,,,,
,visa,,,CINCINNATI,OH,,US,,,,,
,visa,,,CINCINNATI,OH,,US,,,,,
,visa,,,CINCINNATI,OH,,US,,,,,
,visa,,,CINCINNATI,OH,,US,,,,,
,visa,,,CINCINNATI,OH,,US,,,,,
,visa,,,CINCINNATI,OH,,US,,,,,
,visa,,,CINCINNATI,OH,,US,,,,,
,visa,,,CINCINNATI,OH,,US,,,,,
https://www.walgreens.com/locator/walgreens-6204+montgomery+rd-cincinnati-oh-45213/id=1502,walgreens,Walgreens,,Cincinnati,OH,,US,+1 513-731-2272,https://www.walgreens.com/locator/walgreens-6204+montgomery+rd-cincinnati-oh-45213/id=1502,Mo-Su 09:00-21:00,Walgreens,Q1591889
https://locations.wendys.com/#9251509,wendys,"Wendy's 605 Ridge in Cincinnati, OH",,Cincinnati,OH,,US,+1 513-501-3595,https://locations.wendys.com/united-states/oh/cincinnati/5330-ridge-ave,"Mo-Su 06:30-10:30,07:00-22:00",Wendy's,Q550258
