Ref,Spider,Name,Address,City,State,Zipcode,Country,Phone,Website,Hours,Brand,WikiData
7458,aaa,Tulsa OK - Southwest,,Tulsa,OK,,US,+1 918-960-2700,,,American Automobile Association,Q463436
https://locations.arbys.com/ok/tulsa/5980-s-49th-west-ave.html,arbys_us,"Arby's Fast-Food Drive Through Near You in Tulsa, OK",,Tulsa,OK,,US,+1 918-445-6835,https://locations.arbys.com/ok/tulsa/5980-s-49th-west-ave.html,Mo-Su 09:30-23:00,Arby's,Q630866
https://locations.arbys.com/ok/tulsa/4335-southwest-blvd.html,arbys_us,"Arby's Fast-Food Drive Through Near You in Tulsa, OK",,Tulsa,OK,,US,+1 918-446-2050,https://locations.arbys.com/ok/tulsa/4335-southwest-blvd.html,Mo-Su 09:30-23:00,Arby's,Q630866
556,autozone_us,AutoZone Auto Parts Tulsa,,Tulsa,OK,,US,+1 918-446-1159,https://www.autozone.com/locations/ok/tulsa/4261-southwest-blvd.html,Mo-Sa 08:00-21:00; Su 09:00-20:00,AutoZone,Q4826087
https://local.biglots.com/#13190806,biglots,Big Lots - Tulsa: Oakhurst,,Tulsa,OK,,US,+1 918-445-6292,https://local.biglots.com/ok/tulsa/5644-w-skelly-dr,Mo-Sa 09:00-21:00; Su 09:00-19:00,Big Lots,Q4905973
103665,bluerhino,Lowe's #2756,,Tulsa,OK,,US,+1 918-281-4400,,,Blue Rhino,Q65681213
3191,bueno,Taco Bueno - 3191,"5847 S 49th West Ave,  , Tulsa, OK, 74107, US",Tulsa,OK,,US,+1 918-528-4863,,Mo-Su 10:30-22:00,Taco Bueno,Q7673958
05230,chevrolet,JIM GLOVER CHEVROLET,,Tulsa,OK,,US,+1 918-447-7337,https://www.jimgloverchevy.com,Mo-Sa 08:00-21:00,Chevrolet,Q29570
39222,citi,ATM Central Bank,,Tulsa,OK,,US,,,,Citibank,Q857063
e49c5597-8ddf-4540-9643-6f438df03d73,concentra_us,Town West,,Tulsa,OK,,US,,https://www.concentra.com/urgent-care-centers/oklahoma/tulsa/town-west-urgent-care/,,Concentra,Q5158304
70161317,cricket_wireless,Cricket Wireless Authorized Retailer,,Tulsa,OK,,US,+1 918-878-7960,https://www.cricketwireless.com/stores/ll/US/OK/Tulsa/4953-S-Union-Ave,Mo-Sa 10:00-20:00; Su 12:00-18:00,Cricket Wireless,Q5184987
6467,dominos_pizza_us,Domino's Pizza,,Tulsa,OK,,US,+1 918-446-4444,https://pizza.dominos.com/oklahoma/tulsa/5108-s-33rd-west-ave,Mo-Th 10:30-24:00; Fr-Sa 10:30-01:00; Su 10:30-24:00,Domino's,Q839466
E1515D,enterprise,Tulsa Bob Hurley Ford,,Tulsa,OK,,US,+1 918-445-4420,,,Enterprise Rent-A-Car,Q17085454
Motorcraft2019USAEnglish,ford,Bob Hurley Ford,,Oklahoma,OK,,US,+1 918-445-2700,,,Ford,Q44294
https://www.ford.com/dealerships/dealer-details/ok/tulsa/riverside-ford-of-tulsa/,ford_dealers_us,Riverside Ford of Tulsa,,Tulsa,OK,,US,+1 539-476-8905,https://www.ford.com/dealerships/dealer-details/ok/tulsa/riverside-ford-of-tulsa/,Mo-Sa 08:00-20:00,Ford Motor Company,Q44294
0a31f951-458a-e111-8dde-005056934050,goodwill,"Goodwill Industries of Tulsa, Inc.",,Tulsa,OK,,US,+1 918-584-7291,https://www.goodwill.org/locator/location/?store=MGEzMWY5NTEtNDU4YS1lMTExLThkZGUtMDA1MDU2OTM0MDUw&lat=MzYuMTIyMDc=&lng=LTk2LjAwNzIy,,Goodwill,Q5583655
https://www.harborfreight.com/storelocator/5648-w-skelly-dr-tulsa-74107?number=740,harborfreight,"Harbor Freight Tools Tulsa West, OK",,Tulsa,OK,,US,+1 918-445-6204,https://www.harborfreight.com/storelocator/5648-w-skelly-dr-tulsa-74107?number=740,Mo-Sa 08:00-20:00; Su 09:00-18:00,Harbor Freight Tools,Q5654601
35772,h_r_block,H&R Block,,Tulsa,OK,,US,+1 918-446-1319,https://www.hrblock.com/local-tax-offices/oklahoma/tulsa/4243-sw-blvd/35772/,,H&R Block,Q5627799
https://office.jacksonhewitt.com/#27579670,jackson_hewitt,Jackson Hewitt,,Tulsa,OK,,US,+1 423-225-2734,https://office.jacksonhewitt.com/tax-preparation-services-locations/en/ok/tulsa/1507-a-west-51st-street-south/15400,Mo-Th 10:00-19:00; Fr 10:00-18:00; Sa 09:00-17:00; Su 13:00-17:00,Jackson Hewitt,Q6117132
https://locations.kfc.com/#11248373,kfc,Chicken Nuggets Near Tulsa,,Tulsa,OK,,US,,https://locations.kfc.com/ok/tulsa/4926-s-union-avenue/chickennugget,Mo-Su 10:30-22:00,KFC,Q524757
131412,little_free_library,Clinton West Elementary School #131412 Tulsa OK,,Tulsa,OK,,US,,,,Little Free Library,Q6650101
5019,mightyflame,TULSA FOOD MART (KWICK STOP),,TULSA,OK,,US,+1 918-582-3982,,,Mighty Flame,
https://locations.quiktrip.com/#16003784,quiktrip_us,QuikTrip Store #102 6008 S 49th W Ave,,Tulsa,OK,,US,+1 918-446-5500,https://locations.quiktrip.com/ok/tulsa/6008-s-49th-w-ave,24/7,QuikTrip,Q7271953
https://locations.quiktrip.com/#16003855,quiktrip_us,QuikTrip Store #18 3304 W 42nd Pl,,Tulsa,OK,,US,+1 918-446-5005,https://locations.quiktrip.com/ok/tulsa/3304-w-42nd-pl,24/7,QuikTrip,Q7271953
https://locations.quiktrip.com/#16004382,quiktrip_us,QuikTrip Store #9 1617 W 51st St,,Tulsa,OK,,US,+1 918-446-4325,https://locations.quiktrip.com/ok/tulsa/1617-w-51st-st,24/7,QuikTrip,Q7271953
https://locations.quiktrip.com/#16003845,quiktrip_us,QuikTrip Store #17 1202 W 23rd St S,,Tulsa,OK,,US,+1 918-599-7971,https://locations.quiktrip.com/ok/tulsa/1202-w-23rd-st-s,24/7,QuikTrip,Q7271953
16847546,ribcrib_us,West Skelly,"3232 W Skelly Dr, Tulsa, OK, 74107",Tulsa,OK,,US,+1 918-447-1400,https://ribcrib.com/locations/?location=west-skelly-tulsa-ok,Mo-Th 11:00-21:00; Fr-Sa 11:00-22:00; Su 11:00-21:00,RibCrib,Q7322197
1485835,ribcrib_us,West Skelly,"3232 W Skelly Dr, Tulsa, OK, 74107",Tulsa,OK,,US,+1 918-447-1400,https://ribcrib.com/locations/?location=west-skelly,Mo-Th 11:00-21:00; Fr-Sa 11:00-22:00; Su 11:00-21:00,RibCrib,Q7322197
https://stations.sinclairoil.com/ok/tulsa/3031-s-65th-street-west,sinclair_us,Sinclair Gas Station,,Tulsa,OK,,US,+1 918-446-6854,https://stations.sinclairoil.com/ok/tulsa/3031-s-65th-street-west,Mo-Su 06:00-22:00,Sinclair,Q1290900
https://restaurants.subway.com/#14915119,subway,Subway,,Tulsa Tulsa,OK,,US,+1 918-592-2782,https://restaurants.subway.com/united-states/ok/tulsa/738-west-23rd-street,Mo-Fr 10:00-20:00; Sa 10:00-18:00; Su 10:00-16:00,Subway,Q244457
https://restaurants.subway.com/#14905974,subway,Subway Town West Shop Center,,Tulsa Tulsa,OK,,US,+1 918-794-2802,https://restaurants.subway.com/united-states/ok/tulsa/5620-b-west-skelly-drive,Mo-Fr 08:00-21:00; Sa 08:00-20:00; Su 08:00-21:00,Subway,Q244457
https://locations.tacobell.com/#14441077,taco_bell,Taco Bell,,Tulsa,OK,,US,+1 539-202-4610,https://locations.tacobell.com/ok/tulsa/1722-w--51st--street.html,Mo-Sa 08:00-03:00; Su 08:00-02:00,Taco Bell,Q752941
1387220,usps,WEST TULSA,,TULSA,OK,,US,+1 918-446-3976,,Mo-Fr 08:30-17:00; Sa 09:00-12:00,United States Postal Service,Q668687
7410700033,usps_collection_boxes,USPS COLLECTION BOX - BLUE BOX,6136 W 41ST ST,TULSA,OK,,US,,,,United States Postal Service,Q668687
7410700029,usps_collection_boxes,USPS COLLECTION BOX - PO LOBBY,3408 W 42ND PL,TULSA,OK,,US,,,,United States Postal Service,Q668687
7410700030,usps_collection_boxes,USPS COLLECTION BOX - PO LOBBY,3408 W 42ND PL,TULSA,OK,,US,,,,United States Postal Service,Q668687
7410700035,usps_collection_boxes,USPS COLLECTION BOX - PO LOBBY,3408 W 42ND PL,TULSA,OK,,US,,,,United States Postal Service,Q668687
7410700008,usps_collection_boxes,USPS COLLECTION BOX - BLUE BOX,2420 SOUTHWEST BLVD,TULSA,OK,,US,,,,United States Postal Service,Q668687
,visa,,,TULSA,OK,,US,,,,,
,visa,,,TULSA,OK,,US,,,,,
,visa,,,TULSA,OK,,US,,,,,
,visa,,,TULSA,OK,,US,,,,,
,visa,,,TULSA,OK,,US,,,,,
,visa,,,TULSA,OK,,US,,,,,
,visa,,,TULSA,OK,,US,,,,,
,visa,,,TULSA,OK,,US,,,,,
,visa,,,TULSA,OK,,US,,,,,
,visa,,,TULSA,OK,,US,,,,,
,visa,,,TULSA,OK,,US,,,,,
,visa,,,TULSA,OK,,US,,,,,
,visa,,,TULSA,OK,,US,,,,,
,visa,,,TULSA,OK,,US,,,,,
,visa,,,TULSA,OK,,US,,,,,
,visa,,,TULSA,OK,,US,,,,,
,visa,,,TULSA,OK,,US,,,,,
,visa,,,TULSA,OK,,US,,,,,
,visa,,,TULSA,OK,,US,,,,,
,visa,,,TULSA,OK,,US,,,,,
,visa,,,TULSA,OK,,US,,,,,
,visa,,,TULSA,OK,,US,,,,,
,visa,,,TULSA,OK,,US,,,,,
,visa,,,TULSA,OK,,US,,,,,
,visa,,,TULSA,OK,,US,,,,,
,visa,,,TULSA,OK,,US,,,,,
,visa,,,TULSA,OK,,US,,,,,
,visa,,,TULSA,OK,,US,,,,,
,visa,,,BERRYHILL,OK,,US,,,,,
,visa,,,TULSA,OK,,US,,,,,
598,waffle_house_us,Waffle House #598,,TULSA,OK,,US,+1 918-446-1140,https://locations.wafflehouse.com/tulsa-ok-598,24/7,Waffle House,Q1701206
https://www.walgreens.com/locator/walgreens-4423+southwest+blvd-tulsa-ok-74107/id=15776,walgreens,Walgreens,,Tulsa,OK,,US,+1 918-446-3541,https://www.walgreens.com/locator/walgreens-4423+southwest+blvd-tulsa-ok-74107/id=15776,Mo-Fr 09:00-18:00; Sa-Su 00:00-24:00,Walgreens,Q1591889
91982dcaab1579991b76901203c482d4,western_union,E-Z MART #4413,,Tulsa,OK,,US,+1 918-446-7515,https://location.westernunion.com/us/ok/tulsa/91982dcaab1579991b76901203c482d4,Mo-Su 08:00-20:00,Western Union,Q861042
68e7e79a6b97af2a0caca64be9fa23f9,western_union,QUIKTRIP #0017,,Tulsa,OK,,US,+1 918-599-7971,https://location.westernunion.com/us/ok/tulsa/68e7e79a6b97af2a0caca64be9fa23f9,,Western Union,Q861042
ymca-greater-tulsa,ymca,YMCA of Greater Tulsa,5400 S Olympia Ave,Tulsa,OK,,US,+1 918-747-9622,https://www.ymca.org/locations/ymca-greater-tulsa,Mo-Fr 08:00-17:00,YMCA,Q157169
