Ref,Spider,Name,Address,City,State,Zipcode,Country,Phone,Website,Hours,Brand,WikiData
https://local.pharmacy.tomthumb.com/#5673901,albertsons,Tom Thumb Pharmacy,,Dallas,TX,,US,+1 214-750-3210,https://local.pharmacy.tomthumb.com/tx/dallas/5809-e-lovers-ln.html,Mo-Fr 09:00-20:00; Sa 09:00-18:00; Su 10:00-17:00,Tom Thumb,Q7817826
https://local.tomthumb.com/#5604999,albertsons,Tom Thumb,,Dallas,TX,,US,+1 214-750-3200,https://local.tomthumb.com/tx/dallas/5809-e-lovers-ln.html,"Mo-Fr 06:00-23:00,07:00-21:00,09:00-20:00; Sa 06:00-23:00,07:00-21:00,09:00-18:00; Su 06:00-23:00,07:00-21:00,10:00-17:00",Tom Thumb,Q7817826
https://local.fuel.tomthumb.com/#9073323,albertsons,Tom Thumb Express,,Dallas,TX,,US,+1 214-750-3200,https://local.fuel.tomthumb.com/tx/dallas/5809-e-lovers-ln.html,Mo-Su 07:00-21:00,Tom Thumb,Q7817826
https://locations.arbys.com/tx/dallas/6363-greenville-avenue.html,arbys_us,"Arby's Fast-Food Drive Through Near You in Dallas, TX",,Dallas,TX,,US,+1 214-363-9836,https://locations.arbys.com/tx/dallas/6363-greenville-avenue.html,Mo-Su 10:00-22:00,Arby's,Q630866
22756,asics_us,Fleet Feet - RunOn! - Dallas Mockingbird,5400 E Mockingbird Ln,Dallas,TX,,US,+1 214-821-0909,,Mo-Sa 10:00-19:00; Su 12:00-17:00,asics,Q327247
1534,autozone_us,AutoZone Auto Parts Dallas,,Dallas,TX,,US,+1 214-827-8994,https://www.autozone.com/locations/tx/dallas/4920-ross-ave.html,Mo-Sa 07:30-22:00; Su 08:00-22:00,AutoZone,Q4826087
https://www.banfield.com/locations/veterinarians/tx/dallas/ndl,banfield_pet_hospital,Dallas N,,Dallas,TX,,US,+1 469-232-9963,https://www.banfield.com/locations/veterinarians/tx/dallas/ndl,Mo-Sa 08:00-18:00; Su 09:00-17:00,Banfield Pet Hospital,Q2882416
https://locators.bankofamerica.com/tx/dallas/financial-centers-dallas-15594.html,bankofamerica,Bank of America Financial Center & Drive-Thru ATM | Greenville/Lovers,,Dallas,TX,,US,+1 214-527-3560,https://locators.bankofamerica.com/tx/dallas/financial-centers-dallas-15594.html,Mo-Fr 09:00-17:00; Sa 09:00-14:00,Bank of America,Q487907
https://locations.baskinrobbins.com/tx/dallas/5500-greenville-ave-345436-br,baskin_robbins_us,Baskin-Robbins™,,Dallas,TX,,US,+1 214-890-9800,https://locations.baskinrobbins.com/tx/dallas/5500-greenville-ave-345436-br,Mo-Su 11:00-22:00,Baskin-Robbins,Q584601
BBW01557,bathandbodyworks_us,MOCKINGBIRD STATION,,DALLAS,TX,,US,+1 214-824-9393,,Mo-Sa 10:00-21:00; Su 12:00-18:00,Bath & Body Works,Q810773
9844,baylorscottwhite,Baylor Scott & White Urgent Care - Lovers Lane,,Dallas,TX,,US,+1 972-817-6260,https://www.bswhealth.com/locations/urgent-care-lovers-lane,Mo-Sa 08:00-20:00; Su 12:00-17:00,Baylor Scott & White Health,Q41568258
136676,blaze_pizza,Blaze Pizza Dallas,,Dallas,TX,,US,+1 214-385-2333,https://blazepizza.olo.com/menu/blaze-pizza-dallas-2/,,Blaze Pizza,Q23016666
155706,bluerhino,Walgreens #7334,,Dallas,TX,,US,+1 214-370-8747,,,Blue Rhino,Q65681213
173247,bluerhino,Family Dollar #02872,,Dallas,TX,,US,+1 214-887-0993,,,Blue Rhino,Q65681213
5135,bluerhino,Kroger #518 - Southwest,,Dallas,TX,,US,+1 214-826-2901,,,Blue Rhino,Q65681213
155647,bluerhino,Walgreens #6660,,Dallas,TX,,US,+1 214-826-7136,,,Blue Rhino,Q65681213
3177,bueno,Taco Bueno - 3177,"7940 N Central Expwy, # 101,  , Dallas, TX, 75206, US",Dallas,TX,,US,+1 214-206-1767,,Mo-Su 05:30-01:50,Taco Bueno,Q7673958
1149,buffalo_exchange_us,Dallas &#8211; Greenville Ave,3424 Greenville Ave,"Dallas,",TX,,US,+1 214-826-7544,https://buffaloexchange.com/location/greenville-ave-dallas/,,Buffalo Exchange,Q4985721
2038515,chase_us,Campbell Centre - New branch,,Dallas,TX,,US,+1 214-360-2027,https://locator.chase.com/tx/dallas/6251-greenville-ave,Mo-Fr 09:00-17:00; Sa 09:00-14:00,Chase,Q524629
2038544,chase_us,Mockingbird - New branch,,Dallas,TX,,US,+1 214-739-9800,https://locator.chase.com/tx/dallas/5646-e-mockingbird-ln,Mo-Fr 09:00-17:00; Sa 09:00-14:00,Chase,Q524629
tx_dallas_7700-n-central-expy,chipotle, ,,Dallas,TX,,US,+1 469-232-0963,https://locations.chipotle.com/tx/dallas/7700-n-central-expy,,Chipotle,Q465751
27473,citi,ATM 7ELEVEN-FCTI,,Dallas,TX,,US,,,,Citibank,Q857063
30790,citi,ATM 7ELEVEN-FCTI,,Dallas,TX,,US,,,,Citibank,Q857063
91502,citi,ATM Walgreens,,Dallas,TX,,US,,,,Citibank,Q857063
39797,citi,ATM Chevron,,Dallas,TX,,US,,,,Citibank,Q857063
31352,citi,ATM 7ELEVEN-FCTI,,Dallas,TX,,US,,,,Citibank,Q857063
29593,citi,ATM 7ELEVEN-FCTI,,Dallas,TX,,US,,,,Citibank,Q857063
91921,citi,ATM Walgreens,,Dallas,TX,,US,,,,Citibank,Q857063
49345,citi,ATM CVS,,Dallas,TX,,US,,,,Citibank,Q857063
31320,citi,ATM 7ELEVEN-FCTI,,Dallas,TX,,US,,,,Citibank,Q857063
61495,citi,ATM Kroger,,Dallas,TX,,US,,,,Citibank,Q857063
30568,citi,ATM 7ELEVEN-FCTI,,Dallas,TX,,US,,,,Citibank,Q857063
28507,citi,ATM 7ELEVEN-FCTI,,Dallas,TX,,US,,,,Citibank,Q857063
32818,citi,ATM 7ELEVEN-FCTI,,Dallas,TX,,US,,,,Citibank,Q857063
e3114394-0ef1-4265-8f62-04da7ed951e9,concentra_us,Upper Greenville,,Dallas,TX,,US,,https://www.concentra.com/urgent-care-centers/texas/dallas/upper-greenville-urgent-care/,,Concentra,Q5158304
10ytnKORcEcta7zccIhEBT,corepower_yoga_us,Mockingbird ,,Dallas,TX,,US,,https://www.corepoweryoga.com/yoga-studios/tx/dallas/mockingbird,,Corepower Yoga,Q21015663
349VjpwRTdolxwVSUauXcr,corepower_yoga_us,Henderson,,Dallas,TX,,US,,https://www.corepoweryoga.com/yoga-studios/tx/dallas/henderson,,Corepower Yoga,Q21015663
tx_dallas_5500-greenville-avenue,costplus_worldmarket,World Market Dallas Old Towne,,Dallas,TX,,US,+1 214-378-5370,https://stores.worldmarket.com/tx/dallas/5500-greenville-avenue.html,Mo-Sa 10:00-20:00; Su 11:00-18:00,Cost Plus World Market,Q5174750
247712,dennys,Denny's,,Dallas,TX,,US,+1 214-824-1269,https://locations.dennys.com/TX/DALLAS/247712,24/7,Denny's,Q1189695
1,dickeys_barbecue_pit_us,Dallas - Central Expy,,Dallas,TX,,US,+1 214-370-4550,https://www.dickeys.com/locations/texas/dallas/central,Mo-Su 11:00-21:00,Dickey's Barbecue Pit,Q19880747
6974,dominos_pizza_us,Domino's Pizza,,Dallas,TX,,US,+1 214-827-8600,https://pizza.dominos.com/texas/dallas/4105-skillman-st,Mo-Th 10:00-24:00; Fr-Sa 10:00-02:00; Su 10:00-24:00,Domino's,Q839466
https://www.edwardjones.com/us-en/financial-advisor/michael-delossantos,edwardjones,Michael A De Los Santos,,Dallas,TX,,US,+1 214-265-6043,https://www.edwardjones.com/us-en/financial-advisor/michael-delossantos,,Edward Jones,Q5343830
0024,european_wax_center_us,European Wax Center,,Dallas,TX,,US,+1 214-368-4929,https://locations.waxcenter.com/tx/dallas/dallas-old-town-0024.html,Mo-Sa 08:00-20:00; Su 08:00-19:00,European Wax Center,Q5413426
200323307,exxonmobil,7-ELEVEN 21368,,DALLAS,TX,,US,+1 214-821-7190,https://www.exxon.com/en/find-station/exxon-dallas-tx-7eleven21368-200323307,24/7,Exxon,Q109675651
200320705,exxonmobil,LAKEWOOD FUEL CENTER,,DALLAS,TX,,US,+1 214-459-2880,https://www.exxon.com/en/find-station/exxon-dallas-tx-lakewoodfuelcenter-200320705,Mo-Su 06:00-00:00,Exxon,Q109675651
https://local.fedex.com/#25205705,fedex,,,Dallas,TX,,US,+1 800-463-3339,https://local.fedex.com/en-us/tx/dallas/bvrni,,FedEx,Q459477
https://local.fedex.com/#25200954,fedex,,,Dallas,TX,,US,+1 800-463-3339,https://local.fedex.com/en-us/tx/dallas/buwur,,FedEx,Q459477
https://local.fedex.com/#27757171,fedex,FedEx Authorized ShipCenter,,Dallas,TX,,US,+1 214-528-6655,https://local.fedex.com/en-us/tx/dallas/75749,,FedEx,Q459477
https://local.fedex.com/#25457939,fedex,,,Dallas,TX,,US,+1 800-463-3339,https://local.fedex.com/en-us/tx/dallas/00jh3,,FedEx,Q459477
https://local.fedex.com/#27761760,fedex,FedEx Authorized ShipCenter,,Dallas,TX,,US,+1 214-954-7155,https://local.fedex.com/en-us/tx/dallas/007gq,,FedEx,Q459477
383,fiesta_mart_us,Store #40,"5334 Ross Ave, Dallas, TX, 75206",Dallas,TX,,US,+1 214-887-3000,https://www.fiestamart.com/store-detail/?store_id=383,Mo-Su 07:00-22:00,Fiesta Mart,Q5447326
909091,firestone_auto_care,Firestone Complete Auto Care,,Dallas,TX,,US,+1 214-506-0127,https://local.firestonecompleteautocare.com/texas/dallas/1430-greenville-ave/,,Firestone,Q420837
2167,first_cash,Cash America Pawn,,Dallas,TX,,US,+1 214-987-1254,,,Cash America,Q5048636
0951,gamestop_us,Caruth Haven Place,,Dallas,TX,,US,+1 214-750-4412,https://www.gamestop.com/search/?store=0951,Mo-Th 12:00-20:00; Fr-Sa 11:00-21:00; Su 12:00-20:00,GameStop,Q202210
3873,gamestop_us,Ross Henderson Shopping Center,,Dallas,TX,,US,+1 214-823-1061,https://www.gamestop.com/search/?store=3873,Mo-Th 12:00-20:00; Fr-Sa 11:00-21:00; Su 11:00-20:00,GameStop,Q202210
84be77f3-458a-e111-8dde-005056934050,goodwill,Greenville Store,,Dallas,TX,,US,+1 214-824-4351,https://www.goodwill.org/locator/location/?store=ODRiZTc3ZjMtNDU4YS1lMTExLThkZGUtMDA1MDU2OTM0MDUw&lat=MzIuODExMTQ=&lng=LTk2Ljc2OTc3,,Goodwill,Q5583655
https://salons.greatclips.com/us/tx/dallas/5334-ross-ave,greatclips,Great Clips,,Dallas,TX,,US,+1 469-399-7565,https://salons.greatclips.com/us/tx/dallas/5334-ross-ave,Mo-Fr 09:00-20:00; Sa 09:00-19:00; Su 10:00-18:00,Great Clips,Q5598967
https://salons.greatclips.com/us/tx/dallas/5500-greenville-ave,greatclips,Great Clips,,Dallas,TX,,US,+1 214-363-1554,https://salons.greatclips.com/us/tx/dallas/5500-greenville-ave,Mo-Fr 09:00-20:00; Sa 09:00-19:00; Su 10:00-18:00,Great Clips,Q5598967
40746,h_r_block,H&R Block,,Dallas,TX,,US,+1 214-373-8488,https://www.hrblock.com/local-tax-offices/texas/dallas/greenville-avenue-center/40746/,,H&R Block,Q5627799
tx_dallas_breakfast-7830-n.-central-expy-3027,ihop,IHOP Breakfast Restaurants Near You at 7830 N. Central Expy,,Dallas,TX,,US,+1 214-346-6520,https://restaurants.ihop.com/en-us/tx/dallas/breakfast-7830-n.-central-expy-3027,,IHOP,Q1185675
258,innout,Dallas,,Dallas,TX,,US,,http://locations.in-n-out.com/258,,In-N-Out Burger,Q1205312
https://locations.jackinthebox.com/us/tx/dallas/4210-n-central-expy,jackinthebox,Jack in the Box,,Dallas,TX,,US,+1 214-823-3650,https://locations.jackinthebox.com/us/tx/dallas/4210-n-central-expy,Mo-Su 04:00-04:00,Jack in the Box,Q1538507
https://locations.jamba.com/#557-Jamba,jambajuice,Jamba Greenville,,Dallas,TX,,US,+1 214-363-6461,https://locations.jamba.com/tx/dallas/5923-greenville-ave,Mo-Th 07:00-20:00; Fr 07:00-21:00; Sa 08:00-20:00; Su 09:00-21:00,Jamba Juice,Q3088784
mockingbird-ln-deli,jasonsdeli,Mockingbird Ln Deli,"5400 E Mockingbird Ln, Dallas, Texas 75206",Dallas,TX,,US,+1 214-821-7021,https://www.jasonsdeli.com/restaurants/mockingbird-ln-deli,Mo-Su 08:00-22:00,Jason's Deli,Q16997641
https://locations.jimmyjohns.com/tx/dallas/sandwiches-3851.html,jimmy_johns,Jimmy John's,,Dallas,TX,,US,+1 972-807-9091,https://locations.jimmyjohns.com/tx/dallas/sandwiches-3851.html,,Jimmy John's,Q1689380
1016,kohls_us,Kohl's,,Dallas,TX,,US,+1 214-368-1204,https://www.kohls.com/stores/tx/dallas-1016.shtml,Mo-Sa 09:00-21:00; Su 09:00-20:00,Kohl's,Q967265
TXDAC,life_time,Dallas - Highland Park,,Dallas,TX,,US,+1 214-624-5800,https://my.lifetime.life/clubs/tx/dallas-highland-park.html,Mo-Fr 05:00-23:00; Sa-Su 06:00-21:00,Life Time,Q6545004
3944,little_free_library,Arlene Colbert #3944 Dallas TX,,Dallas,TX,,US,,,,Little Free Library,Q6650101
124140,little_free_library,Sally's Little Free Library #124140 Dallas TX,,Dallas,TX,,US,,,,Little Free Library,Q6650101
80409,little_free_library,Vickery Place Little Free Library #80409 Dallas TX,,Dallas,TX,,US,,,,Little Free Library,Q6650101
90813,little_free_library,For Janny #90813 Dallas TX,,Dallas,TX,,US,,,,Little Free Library,Q6650101
33137,little_free_library,Debra McKnight #33137 Dallas TX,,Dallas,TX,,US,,,,Little Free Library,Q6650101
60870,little_free_library,St. Andrew's Presbyterian Church #60870 Dallas TX,,Dallas,TX,,US,,,,Little Free Library,Q6650101
https://stores.loft.com/tx/dallas/5307-e-mockingbird-lane.html,loft_us,Loft,,Dallas,TX,,US,+1 214-821-7862,https://stores.loft.com/tx/dallas/5307-e-mockingbird-lane.html,,Loft,Q62075137
https://locations.massageenvy.com/#1774006,massage_envy,Massage Envy Dallas Old Town - Greenville,,Dallas,TX,,US,+1 214-575-3689,https://locations.massageenvy.com/texas/dallas/5500-greenville-ave.html,Mo-Fr 09:00-21:00; Sa-Su 08:00-20:00,Massage Envy,Q10327170
18805,mattress_firm_us,Mattress Firm Mockingbird,,Dallas,TX,,US,+1 214-826-7600,https://www.mattressfirm.com/en-us/stores/tx/dallas/002017/,,Mattress Firm,Q6791878
17193,mattress_firm_us,Sleep Experts Knox,,Dallas,TX,,US,+1 214-237-5294,https://www.mattressfirm.com/en-us/stores/tx/dallas/117017/,,Sleep Experts,Q7539688
c1cc9e8d-9086-4bfd-918f-996a1776a903,medical_city_healthcare,CareNow Urgent Care - Greenville,,Dallas,TX,,US,+1 214-295-9410,https://medicalcityhealthcare.com/locations/,,Medical City Healthcare,
74025752,moneygram,A N NAILS,,DALLAS,TX,,US,+1 214-370-0477,,Mo-Su 07:00-23:00,MoneyGram,Q1944412
111662,pandaexpress,I-75 & Lovers,,Dallas,TX,,US,+1 214-361-8283,https://www.pandaexpress.com/locations/tx/dallas/5500-greenville-ave,Mo-Su 10:00-22:00,Panda Express,Q1358690
https://locations.papajohns.com/#10690871,papa_johns,Papa John's,,Dallas,TX,,US,+1 214-826-7272,https://locations.papajohns.com/united-states/tx/75206/dallas/2937-greenville-ave,Mo-Su 10:00-22:00,Papa John's Pizza,Q2759586
tx_dallas_1916-skillman-street,pizza_hut_us,1916 Skillman Street,,Dallas,TX,,US,+1 214-823-2555,https://locations.pizzahut.com/tx/dallas/1916-skillman-street,,Pizza Hut,Q191615
136863,potbelly_sandwich,Old Town,,Dallas,TX,,US,+1 214-377-8265,,Mo-Fr 10:00-22:00; Sa-Su 10:00-21:00,Potbelly Sandwich Shop,Q7234777
https://www.publicstorage.com/self-storage-tx-dallas/838.html,public_storage_us,Public Storage,,Dallas,TX,,US,+1 972-763-5456,https://www.publicstorage.com/self-storage-tx-dallas/838.html,,Public Storage,Q1156045
382,pure_barre_us,Dallas | University Park,,Dallas,TX,,US,+1 214-361-2882,https://www.purebarre.com/location/dallas-university-park-tx,,Pure Barre,Q86707084
https://www.racetrac.com/locations/texas/dallas/johnson-freeway,racetrac_us,RaceTrac,,Dallas,TX,,US,+1 469-330-0733,https://www.racetrac.com/locations/texas/dallas/johnson-freeway,,RaceTrac,Q735942
498,rentacenter,Rent-A-Center,,Dallas,TX,,US,+1 214-826-9070,https://locations.rentacenter.com/texas/dallas/5334a-ross-ave/,Mo-Sa 10:00-18:00,Rent-A-Center,Q7313497
4925,sams_club,Dallas - Greenville Sam's Club,,Dallas - Greenville,TX,,US,+1 469-329-5388,https://www.samsclub.com/club/dallas-greenville-tx-sams-club/4925,Mo 10:00-20:00; Sa 09:00-20:00; Su 10:00-18:00,Sam's Club,Q1972120
37535,seven_eleven_ca_us,7-11 Str   5000 Ross Ave,,Dallas,TX,,US,+1 214-828-8749,https://www.7-eleven.com/locations/tx/dallas/5000-ross-ave-37535,,7-Eleven,Q259340
38635,seven_eleven_ca_us,7-11 Str   8010 Southwestern Blvd,,Dallas,TX,,US,+1 972-741-0516,https://www.7-eleven.com/locations/tx/dallas/8010-southwestern-blvd-38635,,7-Eleven,Q259340
33321,seven_eleven_ca_us,7-11 Str   5712 Skillman,,Dallas,TX,,US,+1 214-987-4271,https://www.7-eleven.com/locations/tx/dallas/5712-skillman-33321,,7-Eleven,Q259340
35403,seven_eleven_ca_us,7-11 Str   5671 E Mockingbird Ln,,Dallas,TX,,US,+1 214-823-9707,https://www.7-eleven.com/locations/tx/dallas/5671-e-mockingbird-ln-35403,,7-Eleven,Q259340
34112,seven_eleven_ca_us,7-11 Str   4747 Greenville,,Dallas,TX,,US,+1 214-987-2328,https://www.7-eleven.com/locations/tx/dallas/4747-greenville-34112,,7-Eleven,Q259340
37923,seven_eleven_ca_us,7-11 Str   2831 N Henderson,,Dallas,TX,,US,+1 214-821-3583,https://www.7-eleven.com/locations/tx/dallas/2831-n-henderson-37923,,7-Eleven,Q259340
32101,smilebrands,Monarch Dental Dallas &#8211; Mockingbird Lane,5400 E Mockingbird Lane,Dallas,TX,,US,+1 214-361-2227,https://www.monarchdental.com/dentist-near-me/dallas-dentist/30140/,,Smile Brands Inc.,Q108286823
https://www.sprouts.com/store/tx/dallas/dallas-henderson-ave/,sprouts_farmer_market,Sprouts Farmers Market 126-Dallas &#8211; Henderson Ave.,,Dallas,TX,,US,+1 214-826-2937,https://www.sprouts.com/store/tx/dallas/dallas-henderson-ave/,Mo-Su 07:00-22:00,Sprouts Farmer Market,Q7581369
https://restaurants.subway.com/#14896298,subway,Subway Old Town Shopping Center,,Dallas Dallas,TX,,US,+1 214-987-2290,https://restaurants.subway.com/united-states/tx/dallas/5500-greenville-ave,Mo-Fr 09:00-21:00; Sa-Su 10:00-21:00,Subway,Q244457
https://restaurants.subway.com/#14898127,subway,Subway,,Dallas Dallas,TX,,US,+1 214-823-9898,https://restaurants.subway.com/united-states/tx/dallas/2123-greenville-ave,Mo-Fr 10:00-21:00; Sa-Su 10:00-20:00,Subway,Q244457
0944822600,sunoco_us,Sunoco,,DALLAS,TX,,US,+1 214-823-5717,,Mo-Su 06:00-00:00,Sunoco,Q1423218
https://locations.tacobell.com/#6143033,taco_bell,Taco Bell,,Dallas,TX,,US,+1 214-821-5751,https://locations.tacobell.com/tx/dallas/5506-e-mockingbird-ln-.html,,Taco Bell,Q752941
SMU,torchys_tacos,Torchy's Tacos,5600 SMU Blvd. #102,Dallas,TX,,US,+1 972-993-8226,https://torchystacos.com/location/smu/,Mo-Fr 10:00-22:00; Sa 09:00-22:00; Su 09:00-21:00,Torchy's Tacos,Q106769573
403,trader_joes_us,Trader Joe's Dallas  -  Lower Greenville (403),,Dallas,TX,,US,+1 469-334-0614,https://locations.traderjoes.com/tx/dallas/403/,Mo-Su 08:00-21:00,Trader Joe's,Q688825
https://www.asurion.com/repairs/tech/locations/midtowndallas,ubreakifix,uBreakiFix by Asurion - Lower Greenville,,Dallas,TX,,US,+1 469-872-0094,https://www.asurion.com/repairs/tech/locations/midtowndallas,Mo-Sa 10:00-19:00; Su 12:00-17:00,Asurion Tech Repair & Solutions,Q4811938
1385469,usps,UNIVERSITY DALLAS,,DALLAS,TX,,US,+1 214-691-0788,,Mo-Fr 09:30-17:30; Sa 09:30-14:30,United States Postal Service,Q668687
7520601389,usps_collection_boxes,USPS COLLECTION BOX - BLUE BOX,4900 ROSS AVE,DALLAS,TX,,US,,,,United States Postal Service,Q668687
7520606882,usps_collection_boxes,USPS COLLECTION BOX - BLUE BOX,2218 GREENVILLE AVE,DALLAS,TX,,US,,,,United States Postal Service,Q668687
7520601398,usps_collection_boxes,USPS COLLECTION BOX - BLUE BOX,5707 MARQUITA AVE,DALLAS,TX,,US,,,,United States Postal Service,Q668687
7520607364,usps_collection_boxes,USPS COLLECTION BOX - BLUE BOX,5665 E MOCKINGBIRD LN,DALLAS,TX,,US,,,,United States Postal Service,Q668687
7520607383,usps_collection_boxes,USPS COLLECTION BOX - BLUE BOX,5307 E MOCKINGBIRD LN,DALLAS,TX,,US,,,,United States Postal Service,Q668687
7520605310,usps_collection_boxes,USPS COLLECTION BOX - BLUE BOX,5606 SMU BLVD,DALLAS,TX,,US,,,,United States Postal Service,Q668687
7520607394,usps_collection_boxes,USPS COLLECTION BOX - PO LOBBY,5606 SMU BLVD,DALLAS,TX,,US,,,,United States Postal Service,Q668687
7520607395,usps_collection_boxes,USPS COLLECTION BOX - APC,5606 SMU BLVD,DALLAS,TX,,US,,,,United States Postal Service,Q668687
7520607398,usps_collection_boxes,USPS COLLECTION BOX - PO LOBBY,5606 SMU BLVD,DALLAS,TX,,US,,,,United States Postal Service,Q668687
7520607363,usps_collection_boxes,USPS COLLECTION BOX - BLUE BOX,6060 BIRCHBROOK DR,DALLAS,TX,,US,,,,United States Postal Service,Q668687
7520601394,usps_collection_boxes,USPS COLLECTION BOX - BLUE BOX,5809 E LOVERS LN,DALLAS,TX,,US,,,,United States Postal Service,Q668687
7520601396,usps_collection_boxes,USPS COLLECTION BOX - BLUE BOX,5500 GREENVILLE AVE STE 200,DALLAS,TX,,US,,,,United States Postal Service,Q668687
,visa,,,DALLAS,TX,,US,,,,,
,visa,,,DALLAS,TX,,US,,,,,
,visa,,,DALLAS,TX,,US,,,,,
,visa,,,DALLAS,TX,,US,,,,,
,visa,,,DALLAS,TX,,US,,,,,
,visa,,,DALLAS,TX,,US,,,,,
,visa,,,DALLAS,TX,,US,,,,,
,visa,,,DALLAS,TX,,US,,,,,
,visa,,,DALLAS,TX,,US,,,,,
,visa,,,DALLAS,TX,,US,,,,,
,visa,,,DALLAS,TX,,US,,,,,
,visa,,,DALLAS,TX,,US,,,,,
,visa,,,DALLAS,TX,,US,,,,,
,visa,,,DALLAS,TX,,US,,,,,
,visa,,,DALLAS,TX,,US,,,,,
,visa,,,DALLAS,TX,,US,,,,,
,visa,,,DALLAS,TX,,US,,,,,
,visa,,,DALLAS,TX,,US,,,,,
,visa,,,DALLAS,TX,,US,,,,,
,visa,,,DALLAS,TX,,US,,,,,
,visa,,,DALLAS,TX,,US,,,,,
,visa,,,DALLAS,TX,,US,,,,,
,visa,,,DALLAS,TX,,US,,,,,
,visa,,,DALLAS,TX,,US,,,,,
,visa,,,DALLAS,TX,,US,,,,,
,visa,,,DALLAS,TX,,US,,,,,
,visa,,,DALLAS,TX,,US,,,,,
,visa,,,DALLAS,TX,,US,,,,,
,visa,,,DALLAS,TX,,US,,,,,
,visa,,,DALLAS,TX,,US,,,,,
,visa,,,DALLAS,TX,,US,,,,,
,visa,,,DALLAS,TX,,US,,,,,
,visa,,,DALLAS,TX,,US,,,,,
,visa,,,DALLAS,TX,,US,,,,,
,visa,,,DALLAS,TX,,US,,,,,
,visa,,,DALLAS,TX,,US,,,,,
,visa,,,DALLAS,TX,,US,,,,,
,visa,,,DALLAS,TX,,US,,,,,
,visa,,,DALLAS,TX,,US,,,,,
,visa,,,DALLAS,TX,,US,,,,,
,visa,,,DALLAS,TX,,US,,,,,
,visa,,,DALLAS,TX,,US,,,,,
,visa,,,DALLAS,TX,,US,,,,,
,visa,,,DALLAS,TX,,US,,,,,
,visa,,,DALLAS,TX,,US,,,,,
,visa,,,DALLAS,TX,,US,,,,,
,visa,,,DALLAS,TX,,US,,,,,
,visa,,,DALLAS,TX,,US,,,,,
,visa,,,DALLAS,TX,,US,,,,,
,visa,,,DALLAS,TX,,US,,,,,
,visa,,,DALLAS,TX,,US,,,,,
,visa,,,DALLAS,TX,,US,,,,,
,visa,,,DALLAS,TX,,US,,,,,
,visa,,,DALLAS,TX,,US,,,,,
,visa,,,DALLAS,TX,,US,,,,,
,visa,,,DALLAS,TX,,US,,,,,
,visa,,,DALLAS,TX,,US,,,,,
,visa,,,DALLAS,TX,,US,,,,,
,visa,,,DALLAS,TX,,US,,,,,
,visa,,,DALLAS,TX,,US,,,,,
,visa,,,DALLAS,TX,,US,,,,,
,visa,,,DALLAS,TX,,US,,,,,
,visa,,,DALLAS,TX,,US,,,,,
,visa,,,DALLAS,TX,,US,,,,,
,visa,,,DALLAS,TX,,US,,,,,
,visa,,,DALLAS,TX,,US,,,,,
,visa,,,DALLAS,TX,,US,,,,,
,visa,,,DALLAS,TX,,US,,,,,
,visa,,,DALLAS,TX,,US,,,,,
,visa,,,DALLAS,TX,,US,,,,,
,visa,,,DALLAS,TX,,US,,,,,
,visa,,,DALLAS,TX,,US,,,,,
,visa,,,DALLAS,TX,,US,,,,,
,visa,,,DALLAS,TX,,US,,,,,
,visa,,,DALLAS,TX,,US,,,,,
,visa,,,DALLAS,TX,,US,,,,,
,visa,,,DALLAS,TX,,US,,,,,
,visa,,,DALLAS,TX,,US,,,,,
,visa,,,DALLAS,TX,,US,,,,,
,visa,,,DALLAS,TX,,US,,,,,
https://locations.vitaminshoppe.com/tx/dallas/vitamins-supplements-dallas-tx-209.html,vitamin_shoppe,The Vitamin Shoppe® Northpark ,5425 Greenville Ave. ,Dallas,TX,,US,+1 214-750-8064,https://locations.vitaminshoppe.com/tx/dallas/vitamins-supplements-dallas-tx-209.html,Su 10:00-19:00; Mo 09:00-21:00; Tu 09:00-21:00; We 09:00-21:00; Th 09:00-21:00; Fr 09:00-21:00; Sa 09:00-21:00,The Vitamin Shoppe,Q7772938
2178,waffle_house_us,Waffle House #2178,,DALLAS,TX,,US,+1 214-824-2539,https://locations.wafflehouse.com/dallas-tx-2178,24/7,Waffle House,Q1701206
https://www.walgreens.com/locator/walgreens-5001+ross+ave-dallas-tx-75206/id=7334,walgreens,Walgreens,,Dallas,TX,,US,+1 214-370-8747,https://www.walgreens.com/locator/walgreens-5001+ross+ave-dallas-tx-75206/id=7334,Mo-Su 08:00-21:00,Walgreens,Q1591889
https://www.walgreens.com/locator/walgreens-5742+e+mockingbird+ln-dallas-tx-75206/id=6660,walgreens,Walgreens,,Dallas,TX,,US,+1 214-826-7136,https://www.walgreens.com/locator/walgreens-5742+e+mockingbird+ln-dallas-tx-75206/id=6660,24/7,Walgreens,Q1591889
5809__E__LOVERS__LN_DALLAS_TX_75206,wellsfargo,Wells Fargo,5809 E LOVERS LN,DALLAS,TX,,US,+1 214-692-8193,https://www.wellsfargo.com/locator/bank/5809__E__LOVERS__LN_DALLAS_TX_75206/,Mo-Fr 09:00-17:00,Wells Fargo,Q744149
5730__E__MOCKINGBIRD__LANE_DALLAS_TX_75206,wellsfargo,,5730 E MOCKINGBIRD LANE,DALLAS,TX,,US,+1 800-869-3557,https://www.wellsfargo.com/locator/bank/5730__E__MOCKINGBIRD__LANE_DALLAS_TX_75206/,,Wells Fargo,Q744149
1931__GREENVILLE__AVE__STE__110_DALLAS_TX_75206,wellsfargo,Wells Fargo,1931 GREENVILLE AVE STE 110,DALLAS,TX,,US,+1 214-453-5365,https://www.wellsfargo.com/locator/bank/1931__GREENVILLE__AVE__STE__110_DALLAS_TX_75206/,Mo-Fr 09:00-17:00,Wells Fargo,Q744149
2646232dba33939c43e9ce8da37171fb,western_union,7-ELEVEN #38635,,Dallas,TX,,US,+1 972-741-0516,https://location.westernunion.com/us/tx/dallas/2646232dba33939c43e9ce8da37171fb,,Western Union,Q861042
815455439c7c1d338378367a96cf3912,western_union,7-ELEVEN #12137,,Dallas,TX,,US,+1 214-826-0351,https://location.westernunion.com/us/tx/dallas/815455439c7c1d338378367a96cf3912,,Western Union,Q861042
27cc8c2e9ec3d8b26b2007e6f2182250,western_union,CORNER STOP,,Dallas,TX,,US,+1 214-823-7702,https://location.westernunion.com/us/tx/dallas/27cc8c2e9ec3d8b26b2007e6f2182250,Mo-Su 08:00-22:59,Western Union,Q861042
https://locations.whataburger.com/tx/dallas/6061-greenville-ave.html,whataburger,Greenville & Caruth Haven,6061 GREENVILLE AVE,DALLAS,TX,,US,,https://locations.whataburger.com/tx/dallas/6061-greenville-ave.html,,Whataburger,Q376627
9313,wingstop,Wingstop Dallas Greenville Ave,6130 Greenville Ave Ste 108,Dallas,TX,,US,+1 214-368-9464,,,Wingstop,Q8025339
8710,wingstop,Wingstop Dallas Ross Ave,5334 Ross Ave Ste 600,Dallas,TX,,US,+1 214-821-9464,,,Wingstop,Q8025339
