Ref,Spider,Name,Address,City,State,Zipcode,Country,Phone,Website,Hours,Brand,WikiData
d2ec074397e1ad92f9e9c6e9c299a074,western_union,OXXO LA CANDELARIA CUL,,Quila,SINALOA,,MX,+52 81 8389 2121,https://location.westernunion.com/mx/sinaloa/quila/d2ec074397e1ad92f9e9c6e9c299a074,Mo-Su 08:00-22:00,Western Union,Q861042
0fe3388cde22c097c9e841dc84fca997,western_union,OXXO LA CANDELARIA CUL,,Quila,SINALOA,,MX,+52 81 8389 2121,https://location.westernunion.com/mx/sinaloa/quila/0fe3388cde22c097c9e841dc84fca997,Mo-Su 08:00-22:00,Western Union,Q861042
dd5c323c3a3900da4c3c11568a284b59,western_union,OXXO LA CANDELARIA CUL,,Quila,SINALOA,,MX,+52 81 8389 2121,https://location.westernunion.com/mx/sinaloa/quila/dd5c323c3a3900da4c3c11568a284b59,Mo-Su 08:00-22:00,Western Union,Q861042
5ffa633f71127ab3ef84b5c1b6bfa04e,western_union,CASA LEY 1224LEY EXPRESS QUILA,,Culiacan,SINALOA,,MX,+52 800 800 3930,https://location.westernunion.com/mx/sinaloa/culiacan/5ffa633f71127ab3ef84b5c1b6bfa04e,Mo-Su 07:00-23:00,Western Union,Q861042
06aaf249d20077ab792aecef90169316,western_union,CASA LEY 1224LEY EXPRESS QUILA,,Culiacan,SINALOA,,MX,+52 800 800 3930,https://location.westernunion.com/mx/sinaloa/culiacan/06aaf249d20077ab792aecef90169316,Mo-Su 07:00-23:00,Western Union,Q861042
f24eb69ba601e08fd8d44ffd07d23f72,western_union,CASA LEY 1224LEY EXPRESS QUILA,,Culiacan,SINALOA,,MX,+52 800 800 8930,https://location.westernunion.com/mx/sinaloa/culiacan/f24eb69ba601e08fd8d44ffd07d23f72,Mo-Su 07:00-23:00,Western Union,Q861042
cd2400117e936d856cd1a55e58f99ddb,western_union,TELECOMM 25061,,Quila,SINALOA,,MX,+52 800 800 8930,https://location.westernunion.com/mx/sinaloa/quila/cd2400117e936d856cd1a55e58f99ddb,Mo-Su 09:00-20:00,Western Union,Q861042
9d44b2a0023edddaaf619773bb3c41f5,western_union,TELECOMM 25061,,Quila,SINALOA,,MX,+52 800 800 8930,https://location.westernunion.com/mx/sinaloa/quila/9d44b2a0023edddaaf619773bb3c41f5,Mo-Fr 08:00-14:30,Western Union,Q861042
3816d6cb0aec6e3700d2c6efb8a30400,western_union,TELECOMM 25061,,Quila,SINALOA,,MX,+52 800 800 9889,https://location.westernunion.com/mx/sinaloa/quila/3816d6cb0aec6e3700d2c6efb8a30400,Mo-Fr 08:00-19:30; Sa-Su 09:00-12:30,Western Union,Q861042
31c691510abf7c197e321c6c7953e9a5,western_union,OXXO QUILA CUL,,Quila,SINALOA,,MX,+52 81 8389 2121,https://location.westernunion.com/mx/sinaloa/quila/31c691510abf7c197e321c6c7953e9a5,Mo-Su 08:00-22:00,Western Union,Q861042
6ce42feec90fee213df9db76432d9032,western_union,OXXO QUILA CUL,,Quila,SINALOA,,MX,+52 81 8389 2121,https://location.westernunion.com/mx/sinaloa/quila/6ce42feec90fee213df9db76432d9032,Mo-Su 08:00-22:00,Western Union,Q861042
0f23a83521f01e516e26999b123b4d2c,western_union,OXXO QUILA CUL,,Quila,SINALOA,,MX,+52 81 8389 2121,https://location.westernunion.com/mx/sinaloa/quila/0f23a83521f01e516e26999b123b4d2c,Mo-Su 08:00-22:00,Western Union,Q861042
c7c3baa2bdee0aaab7670d76424957bd,western_union,OXXO PEDREGAL CUL,,Culiacan,SINALOA,,MX,+52 81 8389 2121,https://location.westernunion.com/mx/sinaloa/culiacan/c7c3baa2bdee0aaab7670d76424957bd,Mo-Su 08:00-22:00,Western Union,Q861042
705ba97bceca030c6a3a2a98f5439c35,western_union,OXXO PEDREGAL CUL,,Culiacan,SINALOA,,MX,+52 81 8389 2121,https://location.westernunion.com/mx/sinaloa/culiacan/705ba97bceca030c6a3a2a98f5439c35,Mo-Su 08:00-22:00,Western Union,Q861042
97a73887bc3480d8107767ee12aea4cd,western_union,OXXO PEDREGAL CUL,,Culiacan,SINALOA,,MX,+52 81 8389 2121,https://location.westernunion.com/mx/sinaloa/culiacan/97a73887bc3480d8107767ee12aea4cd,Mo-Su 08:00-22:00,Western Union,Q861042
3a9005978acb863f5e9ae6fc1f5ad2f0,western_union,FARM GUAD EMILIANO ZAPATA SIN,,Culiacan,SINALOA,,MX,+52 800 833 4700,https://location.westernunion.com/mx/sinaloa/culiacan/3a9005978acb863f5e9ae6fc1f5ad2f0,Mo-Su 09:00-22:00,Western Union,Q861042
6c2df6c583c0010da9c4df0d071f8af9,western_union,FARM GUAD EMILIANO ZAPATA SIN,,Culiacan,SINALOA,,MX,+52 800 833 4700,https://location.westernunion.com/mx/sinaloa/culiacan/6c2df6c583c0010da9c4df0d071f8af9,Mo-Su 09:00-22:00,Western Union,Q861042
990892e617e1edbaa43951f6a1ffd405,western_union,FARM GUAD EMILIANO ZAPATA SIN,,Culiacan,SINALOA,,MX,+52 800 833 4700,https://location.westernunion.com/mx/sinaloa/culiacan/990892e617e1edbaa43951f6a1ffd405,Mo-Su 09:00-22:00,Western Union,Q861042
d78e3605d71a755e10276269ea934a94,western_union,OXXO MILITAR CUL,,Culiacan,SINALOA,,MX,+52 81 8389 2121,https://location.westernunion.com/mx/sinaloa/culiacan/d78e3605d71a755e10276269ea934a94,Mo-Su 08:00-22:00,Western Union,Q861042
3a8d80048139c4e0e3ab2f6f5c8ce9a2,western_union,OXXO MILITAR CUL,,Culiacan,SINALOA,,MX,+52 81 8389 2121,https://location.westernunion.com/mx/sinaloa/culiacan/3a8d80048139c4e0e3ab2f6f5c8ce9a2,Mo-Su 08:00-22:00,Western Union,Q861042
a8eb03c4ca25b2309679b7e554f7c275,western_union,OXXO MILITAR CUL,,Culiacan,SINALOA,,MX,+52 81 8389 2121,https://location.westernunion.com/mx/sinaloa/culiacan/a8eb03c4ca25b2309679b7e554f7c275,Mo-Su 08:00-22:00,Western Union,Q861042
