Ref,Spider,Name,Address,City,State,Zipcode,Country,Phone,Website,Hours,Brand,WikiData
3006,allsups_yesway_us,Allsup's,,Waco,TX,,US,+1 254-294-8034,,Mo-Th 06:00-00:00; Fr-Sa 06:00-02:00; Su 06:00-00:00,Allsup's,Q4733292
72459,asics_us,Waco Running Company,700 Franklin Ave.,Waco,TX,,US,+1 254-235-1350,,Mo-Fr 10:00-19:00; Sa 09:00-18:00; Su 12:00-17:00,asics,Q327247
104381,asics_us,Bicycle World Waco,112 Mary Ave #1,Waco,TX,,US,+1 254-300-4448,,Mo-Fr 10:00-19:00; Sa 10:00-18:00; Su 12:00-18:00,asics,Q327247
https://www.edwardjones.com/us-en/financial-advisor/devin-mejia,edwardjones,Devin G Mejia,,Waco,TX,,US,+1 254-732-1487,https://www.edwardjones.com/us-en/financial-advisor/devin-mejia,Mo-Th 08:00-16:00; Fr 08:00-15:00,Edward Jones,Q5343830
200320440,exxonmobil,BUZZY BEE #7,,WACO,TX,,US,+1 254-235-3598,https://www.exxon.com/en/find-station/exxon-waco-tx-buzzybee7-200320440,Mo-Su 06:00-00:00,Exxon,Q109675651
2401,first_cash,Cash America Pawn,,Waco,TX,,US,+1 254-754-4012,,,Cash America,Q5048636
2450,first_cash,Cash America Pawn,,Waco,TX,,US,+1 254-755-6321,,,Cash America,Q5048636
https://fuzzystacoshop.com/locations/texas/waco/,fuzzys_taco_shop_us,Waco,,Waco,TX,,US,+1 254-296-1307,https://fuzzystacoshop.com/locations/texas/waco/,Mo-Th 10:00-21:00; Fr-Sa 10:00-22:00; Su 10:00-21:00,Fuzzy's Taco Shop,Q85762348
https://office.jacksonhewitt.com/#27575078,jackson_hewitt,Jackson Hewitt,,Waco,TX,,US,+1 254-714-1040,https://office.jacksonhewitt.com/tax-preparation-services-locations/en/tx/waco/2418-w-waco-dr/13221,Mo-Fr 10:00-19:00; Sa 10:00-18:00,Jackson Hewitt,Q6117132
178169,little_free_library,Waco School #178169 #178169 Waco TX,,Waco,TX,,US,,,,Little Free Library,Q6650101
ACTAC,marriott,AC Hotel Waco Downtown,,Waco,TX,,US,+1 254-910-8900,https://www.marriott.com/ACTAC,,AC Hotels,Q5653536
WCOCY,marriott,Courtyard Waco,,Waco,TX,,US,+1 254-752-8686,https://www.marriott.com/WCOCY,,Courtyard by Marriott,Q1053170
3442,mightyflame,BUZZY BEE #7,,WACO,TX,,US,+1 254-235-3598,,,Mighty Flame,
https://locations.oreillyauto.com/tx/waco/check-engine-light-testing-715.html,oreilly,Your Waco O'Reilly Auto Parts Store,,Waco,TX,,US,+1 254-752-2131,https://locations.oreillyauto.com/tx/waco/check-engine-light-testing-715.html,Mo-Sa 07:30-22:00; Su 08:00-22:00,O'Reilly Auto Parts,Q7071951
https://locations.oreillyauto.com/tx/waco/wiper-installation-715.html,oreilly,Your Waco O'Reilly Auto Parts Store,,Waco,TX,,US,+1 254-752-2131,https://locations.oreillyauto.com/tx/waco/wiper-installation-715.html,Mo-Sa 07:30-22:00; Su 08:00-22:00,O'Reilly Auto Parts,Q7071951
https://locations.oreillyauto.com/tx/waco/battery-testing-715.html,oreilly,Your Waco O'Reilly Auto Parts Store,,Waco,TX,,US,+1 254-752-2131,https://locations.oreillyauto.com/tx/waco/battery-testing-715.html,Mo-Sa 07:30-22:00; Su 08:00-22:00,O'Reilly Auto Parts,Q7071951
https://locations.oreillyauto.com/tx/waco/autopartes-715.html,oreilly,Tu tienda O'Reilly Auto Parts en Waco,,Waco,TX,,US,+1 254-752-2131,https://locations.oreillyauto.com/tx/waco/autopartes-715.html,Mo-Sa 07:30-22:00; Su 08:00-22:00,O'Reilly Auto Parts,Q7071951
882,pure_barre_us,Waco,,Waco,TX,,US,+1 254-709-8751,https://www.purebarre.com/location/waco-tx,,Pure Barre,Q86707084
7670100000,usps_collection_boxes,USPS COLLECTION BOX - BLUE BOX,215 N 5TH ST,WACO,TX,,US,,,,United States Postal Service,Q668687
7670100035,usps_collection_boxes,USPS COLLECTION BOX - BLUE BOX,215 N 5TH ST,WACO,TX,,US,,,,United States Postal Service,Q668687
7670100050,usps_collection_boxes,USPS COLLECTION BOX - BLUE BOX,424 CLAY AVE,WACO,TX,,US,,,,United States Postal Service,Q668687
7670100026,usps_collection_boxes,USPS COLLECTION BOX - BLUE BOX,1124 WASHINGTON AVE,WACO,TX,,US,,,,United States Postal Service,Q668687
7670100052,usps_collection_boxes,USPS COLLECTION BOX - BLUE BOX,801 AUSTIN AVE,WACO,TX,,US,,,,United States Postal Service,Q668687
7670100007,usps_collection_boxes,USPS COLLECTION BOX - BLUE BOX,425 AUSTIN AVE,WACO,TX,,US,,,,United States Postal Service,Q668687
7670100002,usps_collection_boxes,USPS COLLECTION BOX - BLUE BOX,100 N 6TH ST,WACO,TX,,US,,,,United States Postal Service,Q668687
7670100022,usps_collection_boxes,USPS COLLECTION BOX - BLUE BOX,600 AUSTIN AVE,WACO,TX,,US,,,,United States Postal Service,Q668687
7670100017,usps_collection_boxes,USPS COLLECTION BOX - BLUE BOX,805 FRANKLIN AVE,WACO,TX,,US,,,,United States Postal Service,Q668687
7670100018,usps_collection_boxes,USPS COLLECTION BOX - BLUE BOX,805 FRANKLIN AVE,WACO,TX,,US,,,,United States Postal Service,Q668687
7670100003,usps_collection_boxes,USPS COLLECTION BOX - BLUE BOX,424 CLAY AVE,WACO,TX,,US,,,,United States Postal Service,Q668687
7670100029,usps_collection_boxes,USPS COLLECTION BOX - PO LOBBY,424 CLAY AVE,WACO,TX,,US,,,,United States Postal Service,Q668687
7670100044,usps_collection_boxes,USPS COLLECTION BOX - PO LOBBY,424 CLAY AVE,WACO,TX,,US,,,,United States Postal Service,Q668687
7670100045,usps_collection_boxes,USPS COLLECTION BOX - PO LOBBY,424 CLAY AVE,WACO,TX,,US,,,,United States Postal Service,Q668687
7670100053,usps_collection_boxes,USPS COLLECTION BOX - PO LOBBY,424 CLAY AVE,WACO,TX,,US,,,,United States Postal Service,Q668687
7670100034,usps_collection_boxes,USPS COLLECTION BOX - BLUE BOX,424 CLAY AVE,WACO,TX,,US,,,,United States Postal Service,Q668687
,visa,,,WACO,TX,,US,,,,,
,visa,,,WACO,TX,,US,,,,,
,visa,,,WACO,TX,,US,,,,,
,visa,,,WACO,TX,,US,,,,,
,visa,,,WACO,TX,,US,,,,,
,visa,,,WACO,TX,,US,,,,,
,visa,,,WACO,TX,,US,,,,,
,visa,,,WACO,TX,,US,,,,,
,visa,,,WACO,TX,,US,,,,,
,visa,,,WACO,TX,,US,,,,,
,visa,,,WACO,TX,,US,,,,,
,visa,,,WACO,TX,,US,,,,,
,visa,,,WACO,TX,,US,,,,,
,visa,,,WACO,TX,,US,,,,,
,visa,,,WACO,TX,,US,,,,,
,visa,,,WACO,TX,,US,,,,,
,visa,,,SAN ANGELO,TX,,US,,,,,
,visa,,,SAN ANGELO,TX,,US,,,,,
,visa,,,SAN ANGELO,TX,,US,,,,,
300__FRANKLIN__AVE_WACO_TX_76701,wellsfargo,Wells Fargo,300 FRANKLIN AVE,WACO,TX,,US,+1 254-754-5431,https://www.wellsfargo.com/locator/bank/300__FRANKLIN__AVE_WACO_TX_76701/,Mo-Fr 09:00-17:00,Wells Fargo,Q744149
8727,wingstop,Wingstop Waco S 2nd St,220 S 2Nd St Ste 2,Waco,TX,,US,+1 254-296-9464,,,Wingstop,Q8025339
543,world_finance_us,,"2414 W Waco Dr, Waco, TX, 76701",Waco,TX,,US,+1 254-756-7931,https://www.loansbyworld.com/branches/branch-543,Mo-Fr 09:00-17:30,World Finance,Q3569971
