Ref,Spider,Name,Address,City,State,Zipcode,Country,Phone,Website,Hours,Brand,WikiData
72489455,moneygram,PATHAK TOUR AND TRAVELS - GOPALGANJ - GO,,GOPALGANJ,,,IN,+91 75430 80099,,Mo-Su 09:00-21:00,MoneyGram,Q1944412
72485417,moneygram,SANDHYA ENTERPRISES - GOPALGANJ - GOPALG,,GOPALGANJ,,,IN,+91 70044 11437,,Mo-Su 09:00-21:00,MoneyGram,Q1944412
72614246,moneygram,DEEP JEWELERS,,GOPALGANJ,,,IN,+91 72777 38666,,Mo-Su 08:00-21:00,MoneyGram,Q1944412
72607648,moneygram,SONU MOBILE,,GOPALGANJ,,,IN,+91 98394 28467,,Mo-Su 08:00-21:00,MoneyGram,Q1944412
72592012,moneygram,AM SIDDIQUEE KRISHI KENDRA,,GOPALGANJ,,,IN,+91 95254 66286,,Mo-Su 08:00-21:00,MoneyGram,Q1944412
72594599,moneygram,SANGAM TOUR AND TRAVELS,,GOPALGANJ,,,IN,+91 98522 35361,,Mo-Su 08:00-21:00,MoneyGram,Q1944412
72676624,moneygram,PALLVI INTERNET SEVA - GOPALGANJ,,GOPALGANJ,,,IN,+91 95049 37405,,Mo-Su 07:00-21:00,MoneyGram,Q1944412
72770287,moneygram,ROHIT MOBILE REPAIRING ELECTRICALS - GOP,,GOPALGANJ,,,IN,+91 70049 06373,,Mo-Su 07:00-21:00,MoneyGram,Q1944412
72799116,moneygram,ANUJ ENTERPRISES - GOPALGANJ,,GOPALGANJ,,,IN,+91 95460 97880,,Mo-Su 07:00-21:00,MoneyGram,Q1944412
72838404,moneygram,SOFT MOBILE - GOPALGANJ,,GOPALGANJ,,,IN,+91 96616 07468,,Mo-Su 08:00-20:00,MoneyGram,Q1944412
72997138,moneygram,DEEPU ENTERPRISES - GOPALGANJ,,GOPALGANJ,,,IN,+91 75498 26131,,Mo-Su 08:00-21:00,MoneyGram,Q1944412
73040673,moneygram,SHRYA ENTERPRISES,,GOPALGANJ,,,IN,+91 90978 99047,,Mo-Su 08:00-21:00,MoneyGram,Q1944412
73400653,moneygram,RAVI TOUR AND TRAVEL,,GOPALGANJ,,,IN,+91 70918 00839,,Mo-Su 08:00-21:00,MoneyGram,Q1944412
73497268,moneygram,RAVI TOUR & TRAVELS - GOPALGANJ,,GOPALGANJ,,,IN,+91 70918 00839,,Mo-Su 08:00-21:00,MoneyGram,Q1944412
73615985,moneygram,SATVIK ENTERPRISES,,GOPALGANJ,,,IN,+91 70916 15047,,Mo-Su 08:00-21:00,MoneyGram,Q1944412
74045923,moneygram,S K GENERAL STORE & INTERNET SEVA,,GOPALGANJ,,,IN,+91 91994 59606,,Mo-Su 08:00-21:00,MoneyGram,Q1944412
74115345,moneygram,AANSHI INFRASTRUCTURE,,GOPALGANJ,,,IN,+91 93043 57122,,Mo-Su 08:00-21:00,MoneyGram,Q1944412
68240297,moneygram,SWETA ENTERPRISES - GOPALGANJ,,GOPALGANJ,,,IN,+91 99394 83712,,Mo-Su 08:00-21:00,MoneyGram,Q1944412
74808733,moneygram,AMOD PUSTAK SADAN,,GOPALGANJ,,,IN,+91 99310 89519,,Mo-Su 07:00-21:00,MoneyGram,Q1944412
71201537,moneygram,CUSTOMER SERVICE POINT - GOPALGANJ - GOP,,GOPALGANJ,,,IN,+91 99732 58202,,Mo-Su 09:00-21:00,MoneyGram,Q1944412
71588483,moneygram,DHRUV PRASAD SANJAY KUMAR - GOPALGANJ -,,GOPALGANJ,,,IN,+91 99319 89516,,Mo-Fr 08:00-20:00; Sa-Su 09:00-13:00,MoneyGram,Q1944412
