Ref,Spider,Name,Address,City,State,Zipcode,Country,Phone,Website,Hours,Brand,WikiData
55ba1cc2dc167af9bf29eed07a3dcd34,western_union,ASA,,Comilla,CHATTOGRAM,,BD,+880 1730-098114,https://location.westernunion.com/bd/chattogram/comilla/55ba1cc2dc167af9bf29eed07a3dcd34,Mo-Th 08:00-19:00; Sa-Su 08:00-19:00,Western Union,Q861042
d8e4a7b1d32bc28ae03d3e19685f4593,western_union,SHIMANTO BANK LIMITED,,Comilla,CHATTOGRAM,,BD,+880 9612-880070,https://location.westernunion.com/bd/chattogram/comilla/d8e4a7b1d32bc28ae03d3e19685f4593,Mo-Th 10:00-16:00; Su 10:00-16:00,Western Union,Q861042
6ce493f142c021cafa4a83c50fa15d4e,western_union,UNION BANK LIMITED,,Cumilla,CHATTOGRAM,,BD,(+880) 181708958,https://location.westernunion.com/bd/chattogram/cumilla/6ce493f142c021cafa4a83c50fa15d4e,Mo 10:00-17:00; Tu-Th 09:00-17:00; Sa-Su 09:00-17:00,Western Union,Q861042
4493d3eace7f16a75365aa1b3bf4743f,western_union,ASA,,Comilla,CHATTOGRAM,,BD,+880 1730-065494,https://location.westernunion.com/bd/chattogram/comilla/4493d3eace7f16a75365aa1b3bf4743f,Mo-Th 08:00-19:00; Sa-Su 08:00-19:00,Western Union,Q861042
d3e49899dc9cbfb49e71028de68eca34,western_union,RUPALI BANK LIMITED,,Comilla,CHATTOGRAM,,BD,+880 1818-305177,https://location.westernunion.com/bd/chattogram/comilla/d3e49899dc9cbfb49e71028de68eca34,Mo-Th 09:00-17:00; Fr 09:30-15:00; Sa 09:30-17:00; Su 09:00-17:00,Western Union,Q861042
8e379f57d97785c012f611ff2bc83122,western_union,UNION BANK LIMITED,,Cumilla,CHATTOGRAM,,BD,(+880) 194023948,https://location.westernunion.com/bd/chattogram/cumilla/8e379f57d97785c012f611ff2bc83122,Mo 10:00-17:00; Tu-Th 09:00-17:00; Sa-Su 09:00-17:00,Western Union,Q861042
7599ed912952d51b1d1247af45505af6,western_union,ASA,,Comilla,CHATTOGRAM,,BD,+880 1730-098139,https://location.westernunion.com/bd/chattogram/comilla/7599ed912952d51b1d1247af45505af6,Mo-Th 08:00-19:00; Sa-Su 08:00-19:00,Western Union,Q861042
88fe3d8b3201bc81ec0bba61339334c8,western_union,AGRANI BANK LIMITED,,Comilla,CHATTOGRAM,,BD,(+880) 81-8172120,https://location.westernunion.com/bd/chattogram/comilla/88fe3d8b3201bc81ec0bba61339334c8,Mo-Th 09:00-17:00; Fr-Sa 10:00-16:00; Su 09:00-17:00,Western Union,Q861042
c195c7373aca2580352aa5e2c3f8eff5,western_union,ASA,,Comilla,CHATTOGRAM,,BD,+880 1730-098104,https://location.westernunion.com/bd/chattogram/comilla/c195c7373aca2580352aa5e2c3f8eff5,Mo-Th 08:00-19:00; Sa-Su 08:00-19:00,Western Union,Q861042
c17ae46a60542c66a7246f241d4b895c,western_union,BRAC BANK LIMITED,,Comilla,CHATTOGRAM,,BD,(+880) 02-1956666030,https://location.westernunion.com/bd/chattogram/comilla/c17ae46a60542c66a7246f241d4b895c,Mo-Su 08:00-21:00,Western Union,Q861042
4be7540e712aaa2afa66de195e161d79,western_union,JANATA BANK LIMITED,,Comilla,CHATTOGRAM,,BD,+880 1712-900397,https://location.westernunion.com/bd/chattogram/comilla/4be7540e712aaa2afa66de195e161d79,Mo-Th 09:00-17:00; Fr 09:30-15:00; Sa 09:30-17:00; Su 09:00-17:00,Western Union,Q861042
45287c1a441e7db5b67fefeae84c658c,western_union,BURO BANGLADESH,,Comilla,CHATTOGRAM,,BD,(+880) 02-28857476,https://location.westernunion.com/bd/chattogram/comilla/45287c1a441e7db5b67fefeae84c658c,Mo-Th 10:00-16:00; Su 10:00-16:00,Western Union,Q861042
9ee94e092f63ebfc936f2c66f16be865,western_union,ASA,,Comilla,CHATTOGRAM,,BD,+880 1730-098115,https://location.westernunion.com/bd/chattogram/comilla/9ee94e092f63ebfc936f2c66f16be865,Mo-Th 08:00-19:00; Sa-Su 08:00-19:00,Western Union,Q861042
218c7d3aff8ac72570fd59419c6ee65c,western_union,UNITED COMMERCIAL BANK LIMITED,,Cumilla,CHATTOGRAM,,BD,(+0088) 2-01711444327,https://location.westernunion.com/bd/chattogram/cumilla/218c7d3aff8ac72570fd59419c6ee65c,Mo-Th 09:30-17:00; Su 09:30-17:00,Western Union,Q861042
c0e786012c82bd5957baa7989a1f2b25,western_union,BANGLADESH COMMERCE BANK LIMITED,,Comilla,CHATTOGRAM,,BD,+880 1712-123371,https://location.westernunion.com/bd/chattogram/comilla/c0e786012c82bd5957baa7989a1f2b25,Mo-Th 10:00-18:00; Sa 10:00-14:00; Su 10:00-18:00,Western Union,Q861042
aeca02104445177989b8507a9e7a10a9,western_union,AGRANI BANK LIMITED,,Comilla,CHATTOGRAM,,BD,+880 1922-177278,https://location.westernunion.com/bd/chattogram/comilla/aeca02104445177989b8507a9e7a10a9,Mo-Th 09:00-17:00; Fr 09:30-15:00; Sa 09:30-17:00; Su 09:00-17:00,Western Union,Q861042
e4c5726cbf0dac2df980881f240816af,western_union,AGRANI BANK LIMITED,,Comilla,CHATTOGRAM,,BD,+880 1557-365190,https://location.westernunion.com/bd/chattogram/comilla/e4c5726cbf0dac2df980881f240816af,Mo-Th 09:00-17:00; Fr-Sa 10:00-16:00; Su 09:00-17:00,Western Union,Q861042
16ccc6006dafcfdf1d2b4a623ea22849,western_union,JANATA BANK LIMITED,,Comilla,CHATTOGRAM,,BD,+880 1717-100474,https://location.westernunion.com/bd/chattogram/comilla/16ccc6006dafcfdf1d2b4a623ea22849,Mo-Th 09:30-17:00; Fr 09:30-15:00; Sa-Su 09:30-17:00,Western Union,Q861042
a7d72f6c444355466a2e8c041d8e15a1,western_union,ASA,,Comilla,CHATTOGRAM,,BD,+880 1730-065498,https://location.westernunion.com/bd/chattogram/comilla/a7d72f6c444355466a2e8c041d8e15a1,Mo-Th 08:00-19:00; Sa-Su 08:00-19:00,Western Union,Q861042
f9175e4c76a9943f2fbfe60ae277311a,western_union,ASA,,Comilla,CHATTOGRAM,,BD,+880 1730-098116,https://location.westernunion.com/bd/chattogram/comilla/f9175e4c76a9943f2fbfe60ae277311a,Mo-Th 08:00-19:00; Sa-Su 08:00-19:00,Western Union,Q861042
fa9080c43148c9e93134dfb40e3c0ea7,western_union,AGRANI BANK LIMITED,,Comilla,CHATTOGRAM,,BD,(+880) 81-8165770,https://location.westernunion.com/bd/chattogram/comilla/fa9080c43148c9e93134dfb40e3c0ea7,Mo-Th 09:00-17:00; Fr 09:30-15:00; Sa 09:30-17:00; Su 09:00-17:00,Western Union,Q861042
4edffba97b90dba5d853b31a4a1ade04,western_union,ASA,,Comilla,CHATTOGRAM,,BD,+880 1730-098167,https://location.westernunion.com/bd/chattogram/comilla/4edffba97b90dba5d853b31a4a1ade04,Mo-Th 08:00-19:00; Sa-Su 08:00-19:00,Western Union,Q861042
6adc6e06158c2ac59be2452dff5f025b,western_union,AGRANI BANK LIMITED,,Comilla,CHATTOGRAM,,BD,+880 1711-701028,https://location.westernunion.com/bd/chattogram/comilla/6adc6e06158c2ac59be2452dff5f025b,Mo-Th 09:00-17:00; Fr-Sa 10:00-16:00; Su 09:00-17:00,Western Union,Q861042
f74e850066917778aa18b9d3fc9849a1,western_union,DUTCH BANGLA BANK LIMITED,,Comilla,CHATTOGRAM,,BD,(+880) 81-8161011,https://location.westernunion.com/bd/chattogram/comilla/f74e850066917778aa18b9d3fc9849a1,Mo-Th 09:00-17:00; Fr 09:30-15:00; Sa 09:30-17:00; Su 09:00-17:00,Western Union,Q861042
8764b0ae6ba30286f974735c76c97f2d,western_union,UTTARA BANK LIMITED,,Comilla,CHATTOGRAM,,BD,(+880) 081-1991144304,https://location.westernunion.com/bd/chattogram/comilla/8764b0ae6ba30286f974735c76c97f2d,Mo-Th 09:00-17:00; Fr 09:30-15:00; Sa 09:30-17:00; Su 09:00-17:00,Western Union,Q861042
fc8a816578c39775a188a260e1eedc2f,western_union,BANGLADESH COMMERCE BANK LIMITED,,Comilla,CHATTOGRAM,,BD,+880 1719-014236,https://location.westernunion.com/bd/chattogram/comilla/fc8a816578c39775a188a260e1eedc2f,Mo-Th 10:00-18:00; Sa 10:00-14:00; Su 10:00-18:00,Western Union,Q861042
2f65b96594013d97856b21b48f2a0f06,western_union,AB BANK LIMITED,,Cumilla,CHATTOGRAM,,BD,+880 816-8773,https://location.westernunion.com/bd/chattogram/cumilla/2f65b96594013d97856b21b48f2a0f06,Mo-Th 09:30-17:00; Su 09:30-17:00,Western Union,Q861042
f9ce6ea1b40ca95b33b2fd75c4c2cb4b,western_union,NATIONAL BANK LTD,,Comilla,CHATTOGRAM,,BD,(+880) 0173-326248,https://location.westernunion.com/bd/chattogram/comilla/f9ce6ea1b40ca95b33b2fd75c4c2cb4b,Mo-Fr 09:00-17:00; Sa 09:00-15:30; Su 09:00-17:00,Western Union,Q861042
29663ca4c12e4e06f8ee7a63a3188e25,western_union,THE PREMIER BANK LIMITED,,Comilla,CHATTOGRAM,,BD,+880 816-1972,https://location.westernunion.com/bd/chattogram/comilla/29663ca4c12e4e06f8ee7a63a3188e25,Mo-Th 09:00-17:00; Sa-Su 09:00-17:00,Western Union,Q861042
5910a1e07dba2bc7abba5cce7acbcb0b,western_union,MERCANTILE BANK LIMITED,,Cumilla,CHATTOGRAM,,BD,(+880) 0182-97165,https://location.westernunion.com/bd/chattogram/cumilla/5910a1e07dba2bc7abba5cce7acbcb0b,Mo-Th 10:00-18:00; Sa 10:00-14:00; Su 10:00-18:00,Western Union,Q861042
01c2b7840d77270fa1a0c40e6b40c8a1,western_union,JANATA BANK LIMITED,,Comilla,CHATTOGRAM,,BD,+880 1912-060802,https://location.westernunion.com/bd/chattogram/comilla/01c2b7840d77270fa1a0c40e6b40c8a1,Mo-Th 09:30-17:00; Fr 09:30-15:00; Sa-Su 09:30-17:00,Western Union,Q861042
1812f057769e67ad8a1a5ab0420ecfc3,western_union,CHWAK BAZAR SUB BRANCH,,Cumilla,CHATTOGRAM,,BD,+880 1673-741201,https://location.westernunion.com/bd/chattogram/cumilla/1812f057769e67ad8a1a5ab0420ecfc3,Mo-Th 10:00-17:00; Su 10:00-17:00,Western Union,Q861042
5e5690febfab8f36c8497a5f72cb76ca,western_union,RUPALI BANK LIMITED,,Comilla,CHATTOGRAM,,BD,(+880) 81-8165235,https://location.westernunion.com/bd/chattogram/comilla/5e5690febfab8f36c8497a5f72cb76ca,Mo-Th 09:00-17:00; Fr 09:30-15:00; Sa 09:30-17:00; Su 09:00-17:00,Western Union,Q861042
1869b85d47395c166e651bae73c8b27b,western_union,FIRST SECURITY ISLAMI BANK LIMITED,,Comilla,CHATTOGRAM,,BD,(+880) 02-29884292-2642,https://location.westernunion.com/bd/chattogram/comilla/1869b85d47395c166e651bae73c8b27b,Mo-Th 09:00-17:00; Fr 09:30-15:00; Sa 09:30-17:00; Su 09:00-17:00,Western Union,Q861042
311e912cbf3a9adf7fa442c960a8c12e,western_union,ASA,,Comilla,CHATTOGRAM,,BD,(+880) 02-29557045,https://location.westernunion.com/bd/chattogram/comilla/311e912cbf3a9adf7fa442c960a8c12e,Mo-Th 08:00-19:00; Sa-Su 08:00-19:00,Western Union,Q861042
ffb60ab6b1ec5291bf2758d14281f84b,western_union,ASA,,Comilla,CHATTOGRAM,,BD,+880 1730-065492,https://location.westernunion.com/bd/chattogram/comilla/ffb60ab6b1ec5291bf2758d14281f84b,Mo-Th 08:00-19:00; Sa-Su 08:00-19:00,Western Union,Q861042
b314ef8289e4e15b68fa819f3f5919fd,western_union,UTTARA BANK LIMITED,,Comilla,CHATTOGRAM,,BD,(+880) 081-1991144318,https://location.westernunion.com/bd/chattogram/comilla/b314ef8289e4e15b68fa819f3f5919fd,Mo-Th 09:00-17:00; Fr 09:30-15:00; Sa 09:30-17:00; Su 09:00-17:00,Western Union,Q861042
34f24e5bbd3024fa50b5af64e75f050e,western_union,RUPALI BANK LIMITED,,Comilla,CHATTOGRAM,,BD,(+880) 81-8164288,https://location.westernunion.com/bd/chattogram/comilla/34f24e5bbd3024fa50b5af64e75f050e,Mo-Th 09:00-17:00; Fr 09:30-15:00; Sa 09:30-17:00; Su 09:00-17:00,Western Union,Q861042
d43ac2bcdcfe5ce4eda3e2f2a1d31486,western_union,AGRANI BANK LIMITED,,Comilla,CHATTOGRAM,,BD,+880 817-3517,https://location.westernunion.com/bd/chattogram/comilla/d43ac2bcdcfe5ce4eda3e2f2a1d31486,Mo-Th 09:00-17:00; Fr 09:30-15:00; Sa 09:30-17:00; Su 09:00-17:00,Western Union,Q861042
920e91077d3334f928f4539ecb9719ab,western_union,SONALI BANK LIMITED,,Comilla,CHATTOGRAM,,BD,+880 1736-516535,https://location.westernunion.com/bd/chattogram/comilla/920e91077d3334f928f4539ecb9719ab,Mo-Th 10:00-16:00; Fr-Sa 09:00-16:00; Su 10:00-16:00,Western Union,Q861042
c338dc6f10c1b2f420a10ab910d6d75f,western_union,SONALI BANK LIMITED,,Comilla,CHATTOGRAM,,BD,(+880) 81-8176288,https://location.westernunion.com/bd/chattogram/comilla/c338dc6f10c1b2f420a10ab910d6d75f,Mo-Th 10:00-16:00; Fr-Sa 09:00-16:00; Su 10:00-16:00,Western Union,Q861042
9c04cefa231055875fbce558a930c734,western_union,AGRANI BANK LIMITED,,Comilla,CHATTOGRAM,,BD,+880 816-8750,https://location.westernunion.com/bd/chattogram/comilla/9c04cefa231055875fbce558a930c734,Mo-Th 09:00-17:00; Fr 09:30-15:00; Sa 09:30-17:00; Su 09:00-17:00,Western Union,Q861042
5af516ca8d6b6c56d2d2bd8e0f912183,western_union,RUPALI BANK LIMITED,,Comilla,CHATTOGRAM,,BD,(+880) 081-38176042,https://location.westernunion.com/bd/chattogram/comilla/5af516ca8d6b6c56d2d2bd8e0f912183,Mo-Th 09:00-17:00; Fr 09:30-15:00; Sa 09:30-17:00; Su 09:00-17:00,Western Union,Q861042
f1c077816f8011124e7837a7961dfc44,western_union,BASIC BANK LIMITED,,Comilla,CHATTOGRAM,,BD,(+880) 081-815886-2642,https://location.westernunion.com/bd/chattogram/comilla/f1c077816f8011124e7837a7961dfc44,Mo-Th 09:00-17:00; Fr 09:30-15:00; Sa 09:30-17:00; Su 09:00-17:00,Western Union,Q861042
968a641482017ae9d71220e7274cf4f7,western_union,SONALI BANK LIMITED,,Comilla,CHATTOGRAM,,BD,+880 1719-673330,https://location.westernunion.com/bd/chattogram/comilla/968a641482017ae9d71220e7274cf4f7,Mo-Th 10:00-16:00; Fr-Sa 09:00-16:00; Su 10:00-16:00,Western Union,Q861042
542c76727469fb8e6a498f3dd1fbae12,western_union,ONE BANK LIMITED,,Comilla,CHATTOGRAM,,BD,+880 816-3001,https://location.westernunion.com/bd/chattogram/comilla/542c76727469fb8e6a498f3dd1fbae12,Mo-Th 09:00-17:00; Sa-Su 09:00-17:00,Western Union,Q861042
bff5296298de3931256bf1ac059a7238,western_union,EXIM BANK LIMITED,,Comilla,CHATTOGRAM,,BD,+880 1713-380695,https://location.westernunion.com/bd/chattogram/comilla/bff5296298de3931256bf1ac059a7238,Mo-Th 09:00-17:00; Fr 09:30-15:00; Sa 09:30-17:00; Su 09:00-17:00,Western Union,Q861042
33d9d48a5feb2d0dad74fb16ca5d5644,western_union,UNITED COMMERCIAL BANK LIMITED,,Comilla,CHATTOGRAM,,BD,(+880) 184752270,https://location.westernunion.com/bd/chattogram/comilla/33d9d48a5feb2d0dad74fb16ca5d5644,Mo-Th 09:30-17:00; Fr 09:30-15:00; Sa-Su 09:30-17:00,Western Union,Q861042
aafd9d54e8b8a89b4661a2208ded3266,western_union,MERCANTILE BANK LIMITED,,Comilla,CHATTOGRAM,,BD,+880 1709-652411,https://location.westernunion.com/bd/chattogram/comilla/aafd9d54e8b8a89b4661a2208ded3266,Mo-Th 10:00-17:00; Fr 09:30-15:00; Sa 09:30-17:00; Su 10:00-17:00,Western Union,Q861042
4497391a8cd6a66e5fed78b2db2e8a3f,western_union,UNION BANK LIMITED,,Cumilla,CHATTOGRAM,,BD,(+880) 171614690,https://location.westernunion.com/bd/chattogram/cumilla/4497391a8cd6a66e5fed78b2db2e8a3f,Mo 10:00-17:00; Tu-Th 09:00-17:00; Sa-Su 09:00-17:00,Western Union,Q861042
fc008f7c00c7380fac0d6178a326292c,western_union,TRUST BANK LIMITED,,Comilla,CHATTOGRAM,,BD,(+880) 081-1712006299,https://location.westernunion.com/bd/chattogram/comilla/fc008f7c00c7380fac0d6178a326292c,Mo-Th 09:00-17:00; Fr 09:30-15:00; Sa 09:30-17:00; Su 09:00-17:00,Western Union,Q861042
1fd8326930ee7deb0ab588920ba2363b,western_union,JAMUNA BANK LIMITED,,Cumilla,CHATTOGRAM,,BD,+880 1716-731173,https://location.westernunion.com/bd/chattogram/cumilla/1fd8326930ee7deb0ab588920ba2363b,Mo-Th 10:00-17:00; Sa-Su 10:00-17:00,Western Union,Q861042
87dd9ccf879d606d2804ed8b31d652e7,western_union,DHAKA BANK LIMITED,,Comilla,CHATTOGRAM,,BD,+880 2-9561203,https://location.westernunion.com/bd/chattogram/comilla/87dd9ccf879d606d2804ed8b31d652e7,Mo-Th 09:00-17:00; Fr 09:30-15:00; Sa 09:30-17:00; Su 09:00-17:00,Western Union,Q861042
f189fba7c7b5b001d86d53a79d373ee3,western_union,PUBALI BANK LIMITED,,Cumilla,CHATTOGRAM,,BD,+880 1713-755842,https://location.westernunion.com/bd/chattogram/cumilla/f189fba7c7b5b001d86d53a79d373ee3,Mo-Th 10:00-16:00; Su 10:00-16:00,Western Union,Q861042
89433dae8089f7eebd77723e851925b7,western_union,BANGLADESH KRISHI BANK,,Comilla,CHATTOGRAM,,BD,(+880) 02-29565848,https://location.westernunion.com/bd/chattogram/comilla/89433dae8089f7eebd77723e851925b7,Mo-Su 09:00-17:00,Western Union,Q861042
c7f0c643336b7f515ed70a102fcd0cdc,western_union,PUBALI BANK LIMITED,,Comilla,CHATTOGRAM,,BD,(+880) 81-8176903,https://location.westernunion.com/bd/chattogram/comilla/c7f0c643336b7f515ed70a102fcd0cdc,Mo-Th 09:00-17:00; Fr 09:30-15:00; Sa 09:30-17:00; Su 09:00-17:00,Western Union,Q861042
53c392a32f6f89c20297cb0915212697,western_union,NATIONAL CREDIT & COMMERCE BANK LIMITED,,Comilla,CHATTOGRAM,,BD,(+880) 081-318164787,https://location.westernunion.com/bd/chattogram/comilla/53c392a32f6f89c20297cb0915212697,Mo-Th 09:00-18:00; Fr 09:30-15:00; Sa 09:30-17:00; Su 09:00-18:00,Western Union,Q861042
67d71ea0ecd0ad1ee673040e8bc0b7b7,western_union,JANATA BANK LIMITED,,Comilla,CHATTOGRAM,,BD,(+880) 81-8165373,https://location.westernunion.com/bd/chattogram/comilla/67d71ea0ecd0ad1ee673040e8bc0b7b7,Mo-Th 09:00-17:00; Fr 09:30-15:00; Sa 09:30-17:00; Su 09:00-17:00,Western Union,Q861042
e7c0139069a3575473cea7cd518a74d3,western_union,JANATA BANK LIMITED,,Comilla,CHATTOGRAM,,BD,(+880) 81-8168440,https://location.westernunion.com/bd/chattogram/comilla/e7c0139069a3575473cea7cd518a74d3,Mo-Th 09:00-17:00; Fr 09:30-15:00; Sa 09:30-17:00; Su 09:00-17:00,Western Union,Q861042
aeb0451f8d3a7d8acf900bc4d9b32d4f,western_union,BANGLADESH COMMERCE BANK LIMITED,,Comilla,CHATTOGRAM,,BD,(+880) 81-8169902,https://location.westernunion.com/bd/chattogram/comilla/aeb0451f8d3a7d8acf900bc4d9b32d4f,Mo-Th 09:00-17:00; Fr 09:30-15:00; Sa 09:30-17:00; Su 09:00-17:00,Western Union,Q861042
13d46cb29f0dadf12720b65a1eb3db0f,western_union,AGRANI BANK LIMITED,,Comilla,CHATTOGRAM,,BD,+880 1711-458473,https://location.westernunion.com/bd/chattogram/comilla/13d46cb29f0dadf12720b65a1eb3db0f,Mo-Th 09:00-17:00; Fr 09:30-15:00; Sa 09:30-17:00; Su 09:00-17:00,Western Union,Q861042
c2371f2aec92c78a0247fc71eed96696,western_union,MERCANTILE BANK LIMITED,,Comilla,CHATTOGRAM,,BD,(+880) 81-8165275,https://location.westernunion.com/bd/chattogram/comilla/c2371f2aec92c78a0247fc71eed96696,Mo-Th 09:00-17:00; Fr 09:30-15:00; Sa 09:30-17:00; Su 09:00-17:00,Western Union,Q861042
b0cf32cc9a6b42c7806eeb7c31372be7,western_union,PUBALI BANK LIMITED,,Comilla,CHATTOGRAM,,BD,+880 1711-426139,https://location.westernunion.com/bd/chattogram/comilla/b0cf32cc9a6b42c7806eeb7c31372be7,Mo-Th 09:00-17:00; Fr 09:30-15:00; Sa 09:30-17:00; Su 09:00-17:00,Western Union,Q861042
7e0f4abeef17a1ea0be1196179062333,western_union,SHAHJALAL ISLAMI BANK LIMITED,,Comilla,CHATTOGRAM,,BD,(+880) 02-29561473,https://location.westernunion.com/bd/chattogram/comilla/7e0f4abeef17a1ea0be1196179062333,Mo-Th 09:00-17:00; Sa-Su 09:00-17:00,Western Union,Q861042
0e3ebf9c25455668b81ecd6d88fa81f2,western_union,SONALI BANK LIMITED,,Comilla,CHATTOGRAM,,BD,+880 1733-648154,https://location.westernunion.com/bd/chattogram/comilla/0e3ebf9c25455668b81ecd6d88fa81f2,Mo-Th 10:00-16:00; Fr-Sa 09:00-16:00; Su 10:00-16:00,Western Union,Q861042
2671c86d7ca2fb3cac734df0a9e49ac7,western_union,SONALI BANK LIMITED,,Comilla,CHATTOGRAM,,BD,+880 1732-673468,https://location.westernunion.com/bd/chattogram/comilla/2671c86d7ca2fb3cac734df0a9e49ac7,Mo-Th 10:00-16:00; Fr-Sa 09:00-16:00; Su 10:00-16:00,Western Union,Q861042
f40dd8b257ad78a91daa224dc7ca165f,western_union,PUBALI BANK LIMITED,,Comilla,CHATTOGRAM,,BD,+880 1711-426138,https://location.westernunion.com/bd/chattogram/comilla/f40dd8b257ad78a91daa224dc7ca165f,Mo-Th 09:00-17:00; Fr 09:30-15:00; Sa 09:30-17:00; Su 09:00-17:00,Western Union,Q861042
6894581834229160ebd34a6af9ca0075,western_union,UTTARA BANK LIMITED,,Comilla,CHATTOGRAM,,BD,+880 817-6271,https://location.westernunion.com/bd/chattogram/comilla/6894581834229160ebd34a6af9ca0075,Mo-Th 09:00-17:00; Fr 09:30-15:00; Sa 09:30-17:00; Su 09:00-17:00,Western Union,Q861042
e01f588a008afd846326ce6b057e9d18,western_union,SOCIAL ISLAMI BANK LIMITED,,Cumilla,CHATTOGRAM,,BD,(+880) 01-1717309208,https://location.westernunion.com/bd/chattogram/cumilla/e01f588a008afd846326ce6b057e9d18,Mo-Th 10:00-17:00; Su 10:00-17:00,Western Union,Q861042
3a719550ea7d06a3ce89fa3241f88b41,western_union,THE FARMERS BANK LIMITED,,Comilla,CHATTOGRAM,,BD,+880 1982-167334,https://location.westernunion.com/bd/chattogram/comilla/3a719550ea7d06a3ce89fa3241f88b41,Mo-Th 09:00-17:00; Sa-Su 09:00-17:00,Western Union,Q861042
c4c4b9aa34caa30747facaa804f3baf8,western_union,EXIM BANK LTD,,Cumilla,CHATTOGRAM,,BD,+880 1752-500800,https://location.westernunion.com/bd/chattogram/cumilla/c4c4b9aa34caa30747facaa804f3baf8,Mo-Th 10:00-17:00; Su 10:00-17:00,Western Union,Q861042
cf1c1d39c5ab006fa2de649ec50a61e7,western_union,PUBALI BANK LIMITED,,Comilla,CHATTOGRAM,,BD,+880 1711-401319,https://location.westernunion.com/bd/chattogram/comilla/cf1c1d39c5ab006fa2de649ec50a61e7,Mo-Th 09:00-17:00; Fr 09:30-15:00; Sa 09:30-17:00; Su 09:00-17:00,Western Union,Q861042
5df3e2d7cd8df853b9a7e25d285b0d79,western_union,BASIC BANK LTD,,Cumilla,CHATTOGRAM,,BD,+880 1673-639935,https://location.westernunion.com/bd/chattogram/cumilla/5df3e2d7cd8df853b9a7e25d285b0d79,Mo-Th 10:00-17:00; Su 10:00-17:00,Western Union,Q861042
51760e71c517893ba45eb15a3f476385,western_union,BANK ASIA LIMITED,,Comilla,CHATTOGRAM,,BD,+880 1712-978139,https://location.westernunion.com/bd/chattogram/comilla/51760e71c517893ba45eb15a3f476385,Mo-Th 09:45-18:00; Fr 09:30-15:00; Sa 09:30-17:00; Su 09:45-18:00,Western Union,Q861042
b83d90cd8e5fc3213d7be912dd89e9b3,western_union,AGRANI BANK LIMITED,,Comilla,CHATTOGRAM,,BD,+880 1916-003471,https://location.westernunion.com/bd/chattogram/comilla/b83d90cd8e5fc3213d7be912dd89e9b3,Mo-Th 09:00-17:00; Fr 09:30-15:00; Sa 09:30-17:00; Su 09:00-17:00,Western Union,Q861042
bf82a0d360dcfb10cd228655788fe110,western_union,SOCIAL ISLAMI BANK LIMITED,,Cumilla,CHATTOGRAM,,BD,(+880) 01-1746888484,https://location.westernunion.com/bd/chattogram/cumilla/bf82a0d360dcfb10cd228655788fe110,Mo-Th 10:00-17:00; Su 10:00-17:00,Western Union,Q861042
9c9ccd8f29323da35152e765cad15ef4,western_union,JAMUNA BANK LIMITED,,Cumilla,CHATTOGRAM,,BD,+880 1727-824277,https://location.westernunion.com/bd/chattogram/cumilla/9c9ccd8f29323da35152e765cad15ef4,Mo-Th 10:00-16:00; Su 10:00-16:00,Western Union,Q861042
30fd4dd16d031af42b9fa73dcc8e0a56,western_union,ASA,,Comilla,CHATTOGRAM,,BD,+880 1708-495733,https://location.westernunion.com/bd/chattogram/comilla/30fd4dd16d031af42b9fa73dcc8e0a56,Mo-Th 08:00-19:00; Sa-Su 08:00-19:00,Western Union,Q861042
170dcd5ee00a7a623026f2a8e36ee1af,western_union,JANATA BANK LIMITED,,Comilla,CHATTOGRAM,,BD,+880 1670-750959,https://location.westernunion.com/bd/chattogram/comilla/170dcd5ee00a7a623026f2a8e36ee1af,Mo-Th 09:00-17:00; Fr 09:30-15:00; Sa 09:30-17:00; Su 09:00-17:00,Western Union,Q861042
f639faff8c941fc5f9481ef2c5322da1,western_union,JAMUNA BANK LIMITED,,Comilla,CHATTOGRAM,,BD,(+880) 081-69234568007,https://location.westernunion.com/bd/chattogram/comilla/f639faff8c941fc5f9481ef2c5322da1,Mo-Th 09:00-17:00; Sa-Su 09:00-17:00,Western Union,Q861042
2159c39a83e15906671e9fff3246545c,western_union,ASA,,Comilla,CHATTOGRAM,,BD,(+880) 02-29557045,https://location.westernunion.com/bd/chattogram/comilla/2159c39a83e15906671e9fff3246545c,Mo-Th 08:00-19:00; Sa-Su 08:00-19:00,Western Union,Q861042
498d4b7740bda1c92aff374890f07a0c,western_union,JANATA BANK LIMITED,,Comilla,CHATTOGRAM,,BD,+880 1715-516847,https://location.westernunion.com/bd/chattogram/comilla/498d4b7740bda1c92aff374890f07a0c,Mo-Th 09:00-17:00; Fr 09:30-15:00; Sa 09:30-17:00; Su 09:00-17:00,Western Union,Q861042
e1f596541e684f8896de4b138e1c060e,western_union,ASA,,Comilla,CHATTOGRAM,,BD,(+880) 02-29557045,https://location.westernunion.com/bd/chattogram/comilla/e1f596541e684f8896de4b138e1c060e,Mo-Th 08:00-19:00; Sa-Su 08:00-19:00,Western Union,Q861042
63c0a2d74218efa3b008edfac3c24f3e,western_union,RUPALI BANK LIMITED,,Comilla,CHATTOGRAM,,BD,+880 1712-552855,https://location.westernunion.com/bd/chattogram/comilla/63c0a2d74218efa3b008edfac3c24f3e,Mo-Th 09:00-17:00; Fr 09:30-15:00; Sa 09:30-17:00; Su 09:00-17:00,Western Union,Q861042
a7a019156b476038c0a9270c8d332510,western_union,JANATA BANK LIMITED,,Comilla,CHATTOGRAM,,BD,+880 1819-189296,https://location.westernunion.com/bd/chattogram/comilla/a7a019156b476038c0a9270c8d332510,Mo-Th 09:00-17:00; Fr 09:30-15:00; Sa 09:30-17:00; Su 09:00-17:00,Western Union,Q861042
1d5d176549d4c3424359e8e62bece3fa,western_union,THE PREMIER BANK LIMITED,,Cumilla,CHATTOGRAM,,BD,+880 1737-474454,https://location.westernunion.com/bd/chattogram/cumilla/1d5d176549d4c3424359e8e62bece3fa,Mo-Th 09:00-17:00; Sa-Su 09:00-17:00,Western Union,Q861042
6cf35280afd3f96d38bc9fdee60510a7,western_union,JAMUNA BANK LIMITED,,Comilla,CHATTOGRAM,,BD,+880 8325-1305,https://location.westernunion.com/bd/chattogram/comilla/6cf35280afd3f96d38bc9fdee60510a7,Mo-Th 09:00-17:00; Sa-Su 09:00-17:00,Western Union,Q861042
7cb2318e77c1f7a259553e420fd0c222,western_union,TRUST BANK LIMITED,,Comilla,CHATTOGRAM,,BD,+880 1712-006299,https://location.westernunion.com/bd/chattogram/comilla/7cb2318e77c1f7a259553e420fd0c222,Mo-Th 09:00-17:00; Fr 09:30-15:00; Sa 09:30-17:00; Su 09:00-17:00,Western Union,Q861042
fd312e206bc5f5caf46bc26efcaf02ff,western_union,SONALI BANK LIMITED,,Comilla,CHATTOGRAM,,BD,+880 1553-382106,https://location.westernunion.com/bd/chattogram/comilla/fd312e206bc5f5caf46bc26efcaf02ff,Mo-Th 10:00-16:00; Fr-Sa 09:00-16:00; Su 10:00-16:00,Western Union,Q861042
6cdf7d13d4e9c3936656af272a7fba28,western_union,PUBALI BANK LIMITED,,Comilla,CHATTOGRAM,,BD,(+880) 81-8166888,https://location.westernunion.com/bd/chattogram/comilla/6cdf7d13d4e9c3936656af272a7fba28,Mo-Th 09:00-17:00; Fr 09:30-15:00; Sa 09:30-17:00; Su 09:00-17:00,Western Union,Q861042
a63ec4c69125b4d498c6b9529309a1e1,western_union,UTTARA BANK LIMITED,,Comilla,CHATTOGRAM,,BD,(+880) 01730-1991144311,https://location.westernunion.com/bd/chattogram/comilla/a63ec4c69125b4d498c6b9529309a1e1,Mo-Th 09:00-17:00; Fr 09:30-15:00; Sa 09:30-17:00; Su 09:00-17:00,Western Union,Q861042
1a4dabbcf65269d12ce23821fc2322eb,western_union,SOCIAL ISLAMI BANK LIMITED,,Cumilla,CHATTOGRAM,,BD,(+880) 01-1815429009,https://location.westernunion.com/bd/chattogram/cumilla/1a4dabbcf65269d12ce23821fc2322eb,Mo-Th 10:00-17:00; Su 10:00-17:00,Western Union,Q861042
3933d368c5fdd6683757901491d8034e,western_union,SONALI BANK LIMITED,,Comilla,CHATTOGRAM,,BD,+880 1726-608083,https://location.westernunion.com/bd/chattogram/comilla/3933d368c5fdd6683757901491d8034e,Mo-Th 10:00-16:00; Fr-Sa 09:00-16:00; Su 10:00-16:00,Western Union,Q861042
25ee3d3115c0c10043d43de473bfa69e,western_union,ASA,,Comilla,CHATTOGRAM,,BD,+880 1730-098146,https://location.westernunion.com/bd/chattogram/comilla/25ee3d3115c0c10043d43de473bfa69e,Mo-Th 08:00-19:00; Sa-Su 08:00-19:00,Western Union,Q861042
ee7ca26cfdb8731f06bd45e3835a4536,western_union,UTTARA BANK LIMITED,,Cumilla,CHATTOGRAM,,BD,+880 1404-450232,https://location.westernunion.com/bd/chattogram/cumilla/ee7ca26cfdb8731f06bd45e3835a4536,Mo-Th 10:00-18:00; Su 10:00-18:00,Western Union,Q861042
af9adf20f308a9423f9859d4e19c2aec,western_union,SONALI BANK LIMITED,,Comilla,CHATTOGRAM,,BD,+880 1713-206871,https://location.westernunion.com/bd/chattogram/comilla/af9adf20f308a9423f9859d4e19c2aec,Mo-Th 10:00-16:30; Su 10:00-16:30,Western Union,Q861042
3a54ce06012170dc7c213d90120d8f34,western_union,ASA,,Comilla,CHATTOGRAM,,BD,+880 1730-098133,https://location.westernunion.com/bd/chattogram/comilla/3a54ce06012170dc7c213d90120d8f34,Mo-Th 08:00-19:00; Sa-Su 08:00-19:00,Western Union,Q861042
1ccc7368fda936d3a900f0ab7fec5100,western_union,PUBALI BANK LIMITED,,Cumilla,CHATTOGRAM,,BD,+880 1770-794353,https://location.westernunion.com/bd/chattogram/cumilla/1ccc7368fda936d3a900f0ab7fec5100,Mo-Th 10:00-17:00; Su 10:00-17:00,Western Union,Q861042
3c618e799df112f74555a1b5a398b028,western_union,BRAC BANK LIMITED,,Comilla,CHATTOGRAM,,BD,(+880) 81-8173650,https://location.westernunion.com/bd/chattogram/comilla/3c618e799df112f74555a1b5a398b028,Mo-Th 09:00-17:00; Fr 09:30-15:00; Sa 09:30-17:00; Su 09:00-17:00,Western Union,Q861042
c7dd5b3ad61f6efeb876424d2fe54aea,western_union,JANATA BANK LIMITED,,Comilla,CHATTOGRAM,,BD,+880 1710-272091,https://location.westernunion.com/bd/chattogram/comilla/c7dd5b3ad61f6efeb876424d2fe54aea,Mo-Th 09:00-17:00; Fr 09:30-15:00; Sa 09:30-17:00; Su 09:00-17:00,Western Union,Q861042
2526f109c56f067ddd96fe6908cb2196,western_union,SOUTHEAST BANK LIMITED,,Comilla,CHATTOGRAM,,BD,(+880) 02-29571115,https://location.westernunion.com/bd/chattogram/comilla/2526f109c56f067ddd96fe6908cb2196,Mo-Th 09:00-17:00; Sa-Su 09:00-17:00,Western Union,Q861042
765692d83b81ddc8e0b0ff67a44c8d95,western_union,JANATA BANK LIMITED,,Comilla,CHATTOGRAM,,BD,+880 1818-713936,https://location.westernunion.com/bd/chattogram/comilla/765692d83b81ddc8e0b0ff67a44c8d95,Mo-Th 09:00-17:00; Fr 09:30-15:00; Sa 09:30-17:00; Su 09:00-17:00,Western Union,Q861042
8ee2fb2e252eb71be2210f14a49a58b2,western_union,MUTUAL TRUST BANK LTD,,Cumilla,CHATTOGRAM,,BD,+880 1625-994870,https://location.westernunion.com/bd/chattogram/cumilla/8ee2fb2e252eb71be2210f14a49a58b2,Mo-Th 10:00-17:00; Su 10:00-17:00,Western Union,Q861042
17dc9b76ad7868c2b9bfa4d1f913b5e3,western_union,ASA,,Comilla,CHATTOGRAM,,BD,+880 1730-098145,https://location.westernunion.com/bd/chattogram/comilla/17dc9b76ad7868c2b9bfa4d1f913b5e3,Mo-Th 08:00-19:00; Sa-Su 08:00-19:00,Western Union,Q861042
9282382fb5243e594c16eb10a8063aa4,western_union,PUBALI BANK LIMITED,,Cumilla,CHATTOGRAM,,BD,+880 1792-849160,https://location.westernunion.com/bd/chattogram/cumilla/9282382fb5243e594c16eb10a8063aa4,Mo-Th 09:00-17:00; Su 09:00-17:00,Western Union,Q861042
43d568d95e9b9cb935c380dcaaa8cbe0,western_union,PRIME BANK LIMITED,,Comilla,CHATTOGRAM,,BD,(+880) 81-8172610,https://location.westernunion.com/bd/chattogram/comilla/43d568d95e9b9cb935c380dcaaa8cbe0,Mo-Th 09:00-17:00; Fr 09:30-15:00; Sa 09:30-17:00; Su 09:00-17:00,Western Union,Q861042
e9fae7c2d9b84be8a0ab71c27025872e,western_union,ASA,,Comilla,CHATTOGRAM,,BD,+880 1730-098131,https://location.westernunion.com/bd/chattogram/comilla/e9fae7c2d9b84be8a0ab71c27025872e,Mo-Th 08:00-19:00; Sa-Su 08:00-19:00,Western Union,Q861042
de22fb2f68ff6101aca090b318f392ba,western_union,SONALI BANK LIMITED,,Comilla,CHATTOGRAM,,BD,+880 1913-595081,https://location.westernunion.com/bd/chattogram/comilla/de22fb2f68ff6101aca090b318f392ba,Mo-Th 10:00-16:00; Fr-Sa 09:00-16:00; Su 10:00-16:00,Western Union,Q861042
b11363ea4e3eb1dd40535c3f68d576e9,western_union,AL-ARAFAH ISLAMI BANK LIMITED,,Cumilla,CHATTOGRAM,,BD,+880 1922-545022,https://location.westernunion.com/bd/chattogram/cumilla/b11363ea4e3eb1dd40535c3f68d576e9,Mo-Th 09:00-17:00; Su 09:00-17:00,Western Union,Q861042
54493c932e06b9e0636bec77deae8604,western_union,MUTUAL TRUST BANK LIMITED,,Comilla,CHATTOGRAM,,BD,+880 1755-558261,https://location.westernunion.com/bd/chattogram/comilla/54493c932e06b9e0636bec77deae8604,Mo-Th 09:00-17:00; Sa-Su 09:00-17:00,Western Union,Q861042
b7c7a4652364001da91157cce1da7865,western_union,NATIONAL CREDIT & COMMERCE BANK LIMITED,,Comilla,CHATTOGRAM,,BD,+880 1819-820746,https://location.westernunion.com/bd/chattogram/comilla/b7c7a4652364001da91157cce1da7865,Mo-Th 09:00-18:00; Fr 09:30-15:00; Sa 09:30-17:00; Su 09:00-18:00,Western Union,Q861042
0f58a296e8da578b594ffda3fa57ffcd,western_union,ASA,,Comilla,CHATTOGRAM,,BD,(+880) 02-29557045,https://location.westernunion.com/bd/chattogram/comilla/0f58a296e8da578b594ffda3fa57ffcd,Mo-Th 08:00-19:00; Sa-Su 08:00-19:00,Western Union,Q861042
b25d47fd7121f1864c01060a6890bf08,western_union,AGRANI BANK LIMITED,,Comilla,CHATTOGRAM,,BD,+880 1819-412927,https://location.westernunion.com/bd/chattogram/comilla/b25d47fd7121f1864c01060a6890bf08,Mo-Th 09:00-17:00; Fr 09:30-15:00; Sa 09:30-17:00; Su 09:00-17:00,Western Union,Q861042
f4d157f1e45b11f77ff52526f8ddc088,western_union,ASA,,Comilla,CHATTOGRAM,,BD,+880 1730-098155,https://location.westernunion.com/bd/chattogram/comilla/f4d157f1e45b11f77ff52526f8ddc088,Mo-Th 08:00-19:00; Sa-Su 08:00-19:00,Western Union,Q861042
5eb82b1d61bbb949c86e75586b048664,western_union,AL ARAFAH ISLAMI BANK LIMITED,,Cumilla,CHATTOGRAM,,BD,+880 1680-670060,https://location.westernunion.com/bd/chattogram/cumilla/5eb82b1d61bbb949c86e75586b048664,Mo-Th 10:00-17:00; Su 10:00-17:00,Western Union,Q861042
af4e5cb85d75b211a787f05f24fa4aed,western_union,JANATA BANK LIMITED,,Comilla,CHATTOGRAM,,BD,+880 1913-634616,https://location.westernunion.com/bd/chattogram/comilla/af4e5cb85d75b211a787f05f24fa4aed,Mo-Th 09:30-17:00; Fr 09:30-15:00; Sa-Su 09:30-17:00,Western Union,Q861042
9cef11590991029712a6d482df50c078,western_union,MUTUAL TRUST BANK LIMITED,,Comilla,CHATTOGRAM,,BD,+880 1911-682484,https://location.westernunion.com/bd/chattogram/comilla/9cef11590991029712a6d482df50c078,Mo-Th 09:00-17:00; Sa-Su 09:00-17:00,Western Union,Q861042
833de95873c67153eb6b60290271d318,western_union,MUTUAL TRUST BANK LIMITED,,Comilla,CHATTOGRAM,,BD,+880 1813-737823,https://location.westernunion.com/bd/chattogram/comilla/833de95873c67153eb6b60290271d318,Mo-Th 09:00-17:00; Sa-Su 09:00-17:00,Western Union,Q861042
939bc8a9184bea9cdb66d14fcaaa9ff8,western_union,BANGLADESH KRISHI BANK,,Comilla,CHATTOGRAM,,BD,(+880) 02-29565848,https://location.westernunion.com/bd/chattogram/comilla/939bc8a9184bea9cdb66d14fcaaa9ff8,Mo-Su 09:00-17:00,Western Union,Q861042
edff5b6c34bd0e0bd11d3af83ff0c66a,western_union,ASA,,Comilla,CHATTOGRAM,,BD,(+880) 02-29557045,https://location.westernunion.com/bd/chattogram/comilla/edff5b6c34bd0e0bd11d3af83ff0c66a,Mo-Th 08:00-19:00; Sa-Su 08:00-19:00,Western Union,Q861042
789375ad47f7f02100af31adfefda6c1,western_union,UNITED COMMERCIAL BANK LIMITED,,Comilla,CHATTOGRAM,,BD,(+880) 81-8165776,https://location.westernunion.com/bd/chattogram/comilla/789375ad47f7f02100af31adfefda6c1,Mo-Th 09:30-17:00; Fr 09:30-15:00; Sa-Su 09:30-17:00,Western Union,Q861042
868df532d9b778dc31625c95c5575f8e,western_union,SONALI BANK LIMITED,,Cumilla,CHATTOGRAM,,BD,(+880) 171758514,https://location.westernunion.com/bd/chattogram/cumilla/868df532d9b778dc31625c95c5575f8e,Mo-Th 10:00-16:30; Su 10:00-16:30,Western Union,Q861042
