Ref,Spider,Name,Address,City,State,Zipcode,Country,Phone,Website,Hours,Brand,WikiData
4010,action,Soissons - Vauxbuin,,Soissons - Vauxbuin,,,FR,,https://www.action.com/fr-fr/points-de-vente/soissons---vauxbuin-zac-du-rond-point-de-larcher/,,Action,Q2634111
https://magasins.aubert.com/#location-MC7,aubert_fr,Aubert Soissons,,Soissons,,,FR,+33 3 23 75 13 15,https://magasins.aubert.com/fr/france-FR/MC7/aubert-soissons/details,"Tu-Fr 10:00-12:30,14:00-19:00; Sa 10:00-19:00",Aubert,Q62964657
1010700300,banque_populaire_fr,SOISSONS,,SOISSONS,,,FR,+33 820 33 63 00,https://agences.banquepopulaire.fr/banque-assurance/agence-soissons-id1010700300,"Tu-We 09:00-13:00,14:00-18:00; Th 10:00-13:00,14:00-18:00; Fr 09:00-13:00,14:00-18:00; Sa 09:00-13:00,14:00-17:00",Banque Populaire,Q846647
https://laboratoires.biogroup.fr/#98686911,biogroup_fr,BIOGROUP CORCY Laboratoire de Soissons Saint-Martin,,,,,FR,+33 3 23 53 20 19,https://laboratoires.biogroup.fr/aisne/soissons/1-rue-saint-martin,Mo-Fr 07:00-18:00; Sa 07:00-15:00,Biogroup,Q101559741
11380_6,bmw_group,ENVERGURE SOISSONS,,SOISSONS,,,FR,+33 3 23 73 50 50,http://partenaire.bmw.fr/philippe-emond-soissons,,BMW,Q26678
1568,carrefour_fr,Carrefour Contact,,Venizel,,,FR,+33 3 23 54 63 23,https://www.carrefour.fr/magasin/contact-venizel,Mo-Sa 08:00-20:00; Su 09:00-13:00,Carrefour Contact,Q2940188
7525,carrefour_fr,Carrefour City,,Soissons,,,FR,+33 3 23 93 23 19,https://www.carrefour.fr/magasin/city-soissons,Mo-Sa 07:00-22:00; Su 09:00-13:00,Carrefour City,Q2940187
7614,carrefour_fr,Market Mercin-Et-Vaux,,Mercin Et Vaux,,,FR,+33 3 23 53 22 03,https://www.carrefour.fr/magasin/market-mercin-et-vaux,Mo-Sa 08:30-20:00; Su 08:45-12:30,Carrefour Market,Q2689639
378111693,century_21_fr,CENTURY 21 L.S. Immobilier,,SOISSONS,,,FR,+33 3 23 53 21 21,https://www.century21.fr/trouver_agence/agence/378111693/,,Century 21,Q1054480
https://www.credit-agricole.fr/particulier/agence/nord-est/soissons-republique-3444.html,credit_agricole,Crédit Agricole,,SOISSONS,,,FR,+33 3 23 59 86 00,https://www.credit-agricole.fr/particulier/agence/nord-est/soissons-republique-3444.html,"Tu-Fr 09:00-12:00,13:30-18:00; Sa 09:00-12:30",Credit Agricole,Q590952
https://www.credit-agricole.fr/particulier/agence/nord-est/soissons-centre-3452.html,credit_agricole,Crédit Agricole,,Soissons,,,FR,+33 3 23 76 45 10,https://www.credit-agricole.fr/particulier/agence/nord-est/soissons-centre-3452.html,"Tu-Fr 09:00-12:00,13:30-18:00; Sa 09:00-12:30",Credit Agricole,Q590952
https://www.credit-agricole.fr/particulier/agence/nord-est/la-banque-privee-soissons-9256.html,credit_agricole,Crédit Agricole,,SOISSONS,,,FR,+33 3 23 84 21 10,https://www.credit-agricole.fr/particulier/agence/nord-est/la-banque-privee-soissons-9256.html,"Tu-Fr 09:00-12:00,13:30-18:00; Sa 09:00-12:30",Credit Agricole,Q590952
https://www.credit-agricole.fr/particulier/agence/nord-est/centre-d-affaires-pro-soissons-5186.html,credit_agricole,Crédit Agricole,,SOISSONS,,,FR,+33 3 23 76 45 30,https://www.credit-agricole.fr/particulier/agence/nord-est/centre-d-affaires-pro-soissons-5186.html,"Tu-Fr 09:00-12:00,13:30-18:00; Sa 09:00-12:30",Credit Agricole,Q590952
https://www.credit-agricole.fr/particulier/agence/nord-est/centre-d-affaires-agri-viti-soissons-5183.html,credit_agricole,Crédit Agricole,,SOISSONS,,,FR,+33 3 23 59 86 46,https://www.credit-agricole.fr/particulier/agence/nord-est/centre-d-affaires-agri-viti-soissons-5183.html,"Tu-Fr 09:00-12:00,13:30-18:00; Sa 09:00-12:30",Credit Agricole,Q590952
144,croix_rouge_francaise_fr,UNITE LOCALE DE SOISSONS,,SOISSONS,,,FR,,https://www.croix-rouge.fr/unite-locale-de-soissons,,Croix-Rouge française,Q3003244
FR0135,c_and_a,Vauxbuin Portes de Soissons,"Rond Point de l'Archer 1, 02200 Vauxbuin",Vauxbuin,,,FR,,https://www.c-and-a.com/stores/fr-fr/hauts-de-france/vauxbuin/rond-point-de-l-archer-1.html,Mo 10:00-19:00; Tu 10:00-19:00; We 10:00-19:00; Th 10:00-19:00; Fr 10:00-19:00; Sa 10:00-19:00,C&A,Q701338
0070060300603,decathlon_fr,Decathlon Soissons,,SOISSONS,,,FR,+33 3 64 91 00 13,https://www.decathlon.fr/store-view/magasin-de-sports-decathlon-soissons-0070060300603,Mo-Sa 09:30-19:00,Decathlon,Q509349
FordFF65100  FRA,ford,FORD SOISSONS - EUROPE AUTO,,SOISSONS,,,FR,+33 3 23 59 03 29,www.fordsoissons.fr,Mo-Fr 08:30-19:00; Sa 08:30-18:00,Ford,Q44294
185,jardiland_fr,Soissons,,Soissons,,,FR,+33 3 23 75 37 50,https://www.jardiland.com/magasins/soissons,"Mo-Fr 09:30-12:00,14:00-19:00; Sa 09:30-19:00; Su 10:00-12:30,14:30-18:30",Jardiland,Q3162276
7132,jysk,Vauxbuin Soissons,,Vauxbuin Soissons,,,FR,+33 3 23 53 75 31,https://jysk.fr/magasins?storeId=7132,"Mo-Fr 10:00-12:00,14:00-19:00; Sa 10:00-12:00,12:00-19:00",JYSK,Q138913
3905,lidl_fr,SOISSONS - Laon,,Soissons,,,FR,,,Mo-Sa 08:30-20:00; Su 08:30-12:15,Lidl,Q151954
467,lidl_fr,SOISS Ecusson,,Soissons,,,FR,,,Mo-Sa 08:30-19:30,Lidl,Q151954
369,mcdonalds_fr,SOISSONS,,SOISSONS,,,FR,+33 3 23 53 92 13,https://www.mcdonalds.fr/restaurants/mcdonalds-soissons/369,Mo-Su 10:00-24:00,McDonald's,Q38076
67497957,moneygram,BAZAR ORIENT - SOISSONS,,SOISSONS,,,FR,+33 3 64 18 45 20,,Mo-Sa 09:30-19:30; Su 00:00-24:00,MoneyGram,Q1944412
71212717,moneygram,ZHAR - SOISSONS,,SOISSONS,,,FR,3323733947,,Mo-Fr 06:30-20:00; Sa-Su 07:00-20:00,MoneyGram,Q1944412
11-opticien-soissons-vauxbuin-optical-center,optical_center,Opticien SOISSONS - VAUXBUIN Optical Center,,VAUXBUIN,,,FR,+33 3 23 93 40 00,https://opticien.optical-center.fr/11-opticien-soissons-vauxbuin-optical-center,Mo-Sa 09:00-19:00,Optical Center,Q3354448
26572,relay_fr,Relay Gare de Soissons,,Soissons,,,FR,+33 3 23 53 51 94,https://www.relay.com/stores/relay-gare-de-soissons/,Mo-Fr 05:15-10:00,Relay,Q3424298
00018023_001-renault,renault,GARAGE DOUBLET,,BELLEU,,,FR,+33 3 23 73 20 80,,,Renault,Q6686
00018023_001-dacia,renault,GARAGE DOUBLET,,BELLEU,,,FR,+33 3 23 73 20 80,,,Dacia,Q27460
00018300_001-renault,renault,GARAGE GANDOSSI,,SOISSONS,,,FR,+33 3 23 53 29 24,,,Renault,Q6686
00018300_001-dacia,renault,GARAGE GANDOSSI,,SOISSONS,,,FR,+33 3 23 53 29 24,,,Dacia,Q27460
00000261_001-renault,renault,RENAULT SOISSONS,,SOISSONS,,,FR,+33 3 23 75 59 59,,,Renault,Q6686
00000261_001-dacia,renault,RENAULT SOISSONS,,SOISSONS,,,FR,+33 3 23 75 59 59,,,Dacia,Q27460
https://restaurants.subway.com/#14924328,subway,Subway,,Soissons,,,FR,+33 3 23 76 46 53,https://restaurants.subway.com/france/soissons/4-rue-de-commerce,Mo-Th 11:00-21:30; Fr-Sa 11:00-22:00; Su 11:00-21:30,Subway,Q244457
NF059307,totalenergies,RELAIS MAUPAS,,MERCIN ET VAUX,,,FR,+33 3 23 53 03 65,https://store.totalenergies.fr/en_EN/NF059307,Mo-Sa 07:00-20:00; Su 08:00-20:00,TotalEnergies,Q154037
NF059397,totalenergies,RELAIS SAINTE EUGENIE,,SOISSONS,,,FR,+33 3 23 53 22 30,https://store.totalenergies.fr/en_EN/NF059397,Mo-Fr 06:00-21:00; Sa-Su 07:00-21:00,Total Access,Q154037
NF064232,totalenergies,RELAIS SOISSONS,,SOISSONS,,,FR,+33 3 23 73 27 53,https://store.totalenergies.fr/en_EN/NF064232,Mo-Fr 06:00-21:00; Sa-Su 08:00-21:00,TotalEnergies,Q154037
,visa,,,SOISSONS,,,FR,,,,,
,visa,,,SOISSONS,,,FR,,,,,
,visa,,,SOISSONS,,,FR,,,,,
,visa,,,SOISSONS,,,FR,,,,,
,visa,,,SOISSONS,,,FR,,,,,
,visa,,,SOISSONS,,,FR,,,,,
,visa,,,SOISSONS,,,FR,,,,,
,visa,,,SOISSONS,,,FR,,,,,
