Ref,Spider,Name,Address,City,State,Zipcode,Country,Phone,Website,Hours,Brand,WikiData
guinea#conakry,ernst_young,EY,"Immeuble de l'Archevêché, Corniche Sud, Port de pêche artisanal de Téminétaye",Conakry,,,GN,+224 30 41 21 82,https://www.ey.com/locations/guinea#conakry,,EY,Q489097
72055876,moneygram,BNB BAMBETO - CONAKRY - BAMBETO,,CONAKRY,,,GN,+224 623 47 23 23,,Mo-Su 08:00-19:00,MoneyGram,Q1944412
72055850,moneygram,BNB BELLE VUE - CONAKRY - BELLE VUE,,CONAKRY,,,GN,+224 657 27 88 55,,Mo-Su 08:00-19:00,MoneyGram,Q1944412
72055957,moneygram,BNB CONSTANTIN - #2 - CONAKRY - MATAM,,CONAKRY,,,GN,+224 657 27 88 55,,Mo-Su 08:00-19:00,MoneyGram,Q1944412
72055915,moneygram,BNB COSA - CONAKRY - COSA,,CONAKRY,,,GN,+224 627 09 53 06,,Mo-Su 06:00-23:00,MoneyGram,Q1944412
72056008,moneygram,BNB COYAH MARCHE - COYAH - COYAH MARCHE,,COYAH,,,GN,+224 623 47 23 23,,Mo-Su 08:00-19:00,MoneyGram,Q1944412
72055973,moneygram,BNB DOW SAARE - LABE - DOW SAARE,,LABE,,,GN,+224 657 27 88 55,,Mo-Su 06:00-23:00,MoneyGram,Q1944412
72055889,moneygram,BNB ENTA NORD - CONAKRY - ENTA NORD,,CONAKRY,,,GN,+224 657 27 88 55,,Mo-Su 08:00-19:00,MoneyGram,Q1944412
72055902,moneygram,BNB KALOUM - CONAKRY - KALOUM,,CONAKRY,,,GN,+224 657 27 88 55,,Mo-Su 08:00-19:00,MoneyGram,Q1944412
72055931,moneygram,BNB LABE TINK - LABE - KOUROULA,,LABE,,,GN,+224 627 09 53 06,,Mo-Su 06:00-23:00,MoneyGram,Q1944412
72055944,moneygram,BNB LAGUI TRANSFERT - CONAKRY - KALOUM,,CONAKRY,,,GN,+224 623 47 23 23,,Mo-Su 06:00-23:00,MoneyGram,Q1944412
72055928,moneygram,BNB MATOTO - CONAKRY - MATOTO,,CONAKRY,,,GN,+224 623 47 23 23,,Mo-Su 06:00-23:00,MoneyGram,Q1944412
72055805,moneygram,BNB NONGO TAADY - CONAKRY - NONGO TAADY,,CONAKRY,,,GN,+224 627 09 53 06,,Mo-Su 08:00-19:00,MoneyGram,Q1944412
72055847,moneygram,BNB SONFONIA - CONAKRY - SONFONIA,,CONAKRY,,,GN,+224 623 47 23 23,,Mo-Su 06:00-23:00,MoneyGram,Q1944412
72170078,moneygram,ORABANK GUINEA - CONAKRY - ETS LAMINE TR,,CONAKRY,,,GN,+224 622 35 90 90,,Mo-Sa 08:00-17:30; Su 00:00-24:00,MoneyGram,Q1944412
72173813,moneygram,MICRO-BIT,,CONAKRY,,,GN,+224 657 67 38 01,,Mo-Th 08:00-18:00; Fr 08:00-17:00; Sa 08:00-16:00; Su 00:00-24:00,MoneyGram,Q1944412
72173826,moneygram,MICRO-BIT,,CONAKRY,,,GN,+224 657 67 38 01,,Mo-Th 08:00-18:00; Fr 08:00-17:00; Sa 08:00-16:00; Su 00:00-24:00,MoneyGram,Q1944412
72173839,moneygram,MICRO-BIT,,CONAKRY,,,GN,+224 657 67 38 01,,Mo-Th 08:00-18:00; Fr 08:00-17:00; Sa 08:00-16:00; Su 00:00-24:00,MoneyGram,Q1944412
72173842,moneygram,MICRO-BIT,,CONAKRY,,,GN,+224 657 67 38 01,,Mo-Th 08:00-18:00; Fr 08:00-17:00; Sa 08:00-16:00; Su 00:00-24:00,MoneyGram,Q1944412
72173868,moneygram,MICRO-BIT,,CONAKRY,,,GN,+224 657 67 38 01,,Mo-Th 08:00-18:00; Fr 08:00-17:00; Sa 08:00-16:00; Su 00:00-24:00,MoneyGram,Q1944412
72173871,moneygram,MICRO-BIT,,CONAKRY,,,GN,+224 657 67 38 01,,Mo-Th 08:00-18:00; Fr 08:00-17:00; Sa 08:00-16:00; Su 00:00-24:00,MoneyGram,Q1944412
72173884,moneygram,MICRO-BIT,,CONAKRY,,,GN,+224 657 67 38 01,,Mo-Th 08:00-18:00; Fr 08:00-17:00; Sa 08:00-16:00; Su 00:00-24:00,MoneyGram,Q1944412
72173897,moneygram,MICRO-BIT,,CONAKRY,,,GN,+224 657 67 38 01,,Mo-Th 08:00-18:00; Fr 08:00-17:00; Sa 08:00-16:00; Su 00:00-24:00,MoneyGram,Q1944412
72173907,moneygram,MICRO-BIT,,CONAKRY,,,GN,+224 657 67 38 01,,Mo-Th 08:00-18:00; Fr 08:00-17:00; Sa 08:00-16:00; Su 00:00-24:00,MoneyGram,Q1944412
72173910,moneygram,MICRO-BIT,,CONAKRY,,,GN,+224 657 67 38 01,,Mo-Th 08:00-18:00; Fr 08:00-17:00; Sa 08:00-16:00; Su 00:00-24:00,MoneyGram,Q1944412
72173936,moneygram,MICRO-BIT,,CONAKRY,,,GN,+224 657 67 38 01,,Mo-Th 08:00-18:00; Fr 08:00-17:00; Sa 08:00-16:00; Su 00:00-24:00,MoneyGram,Q1944412
72173949,moneygram,MICRO-BIT,,CONAKRY,,,GN,+224 657 67 38 01,,Mo-Th 08:00-18:00; Fr 08:00-17:00; Sa 08:00-16:00; Su 00:00-24:00,MoneyGram,Q1944412
72173952,moneygram,MICRO-BIT,,CONAKRY,,,GN,+224 657 67 38 01,,Mo-Th 08:00-18:00; Fr 08:00-17:00; Sa 08:00-16:00; Su 00:00-24:00,MoneyGram,Q1944412
72173965,moneygram,MICRO-BIT,,NZEREKORE,,,GN,+224 657 67 38 01,,Mo-Th 08:00-18:00; Fr 08:00-17:00; Sa 08:00-16:00; Su 00:00-24:00,MoneyGram,Q1944412
70950494,moneygram,MICROBIT - CONAKRY,,CONAKRY,,,GN,+224 666 97 77 62,,Mo-Th 08:00-18:00; Fr 08:00-17:00; Sa 08:00-16:00; Su 00:00-24:00,MoneyGram,Q1944412
72245929,moneygram,BNB TRANSFERT SARL - #BGC002 - BNB MATAM,,CONAKRY,,,GN,+224 623 47 23 23,,Mo-Su 08:00-19:00,MoneyGram,Q1944412
72245945,moneygram,BNB TRANSFERT SARL - #BGC004 - BNB LABE,,LABE,,,GN,+224 623 47 23 23,,Mo-Su 06:00-23:00,MoneyGram,Q1944412
72245958,moneygram,BNB TRANSFERT SARL - #BGC009 - BNB KIPE,,CONAKRY,,,GN,+224 623 47 23 23,,Mo-Su 06:00-23:00,MoneyGram,Q1944412
72245961,moneygram,BNB TRANSFERT SARL - #BGC018 - BNB ENTA,,CONAKRY,,,GN,+224 623 47 23 23,,Mo-Su 08:00-19:00,MoneyGram,Q1944412
72245974,moneygram,BNB TRANSFERT SARL - #BGC022 - BNB DALAB,,DALABA,,,GN,+224 623 47 23 23,,Mo-Su 08:00-20:00,MoneyGram,Q1944412
72245987,moneygram,BNB TRANSFERT SARL - #BGC029 - BNB BUREA,,LABE,,,GN,+224 623 47 23 23,,Mo-Su 08:00-19:00,MoneyGram,Q1944412
72246274,moneygram,BNB TRANSFERT SARL - #BGC080 - BNB DAAKA,,LABE,,,GN,+224 623 47 23 23,,Mo-Su 08:00-19:00,MoneyGram,Q1944412
72246287,moneygram,BNB TRANSFERT SARL - #BGC081 - BNB MALI,,MALI,,,GN,+224 623 47 23 23,,Mo-Su 06:00-23:00,MoneyGram,Q1944412
72246313,moneygram,BNB TRANSFERT SARL - #BGC084 - BNB KOUND,,KOUNDARA,,,GN,+224 623 47 23 23,,Mo-Su 06:00-23:00,MoneyGram,Q1944412
72246216,moneygram,BNB TRANSFERT SARL - #BNB112 - BNB FIN C,,CONAKRY,,,GN,+224 623 47 23 23,,Mo-Su 08:00-19:00,MoneyGram,Q1944412
72246041,moneygram,BNB TRANSFERT SARL - #FINA01 - BNB FIN M,,CONAKRY,,,GN,+224 623 47 23 23,,Mo-Su 08:00-19:00,MoneyGram,Q1944412
72246054,moneygram,BNB TRANSFERT SARL - #FINA02 - BNB FIN M,,CONAKRY,,,GN,+224 623 47 23 23,,Mo-Su 08:00-19:00,MoneyGram,Q1944412
72246067,moneygram,BNB TRANSFERT SARL - #FINA03 - BNB FIN B,,CONAKRY,,,GN,+224 623 47 23 23,,Mo-Su 08:00-19:00,MoneyGram,Q1944412
72246070,moneygram,BNB TRANSFERT SARL - #FINA04 - BNB FIN N,,CONAKRY,,,GN,+224 623 47 23 23,,Mo-Su 08:00-19:00,MoneyGram,Q1944412
72246083,moneygram,BNB TRANSFERT SARL - #FINA06 - BNB FIN K,,KINDIA,,,GN,+224 623 47 23 23,,Mo-Su 08:00-19:00,MoneyGram,Q1944412
72246096,moneygram,BNB TRANSFERT SARL - #FINA09 - BNB FIN P,,PITA,,,GN,+224 623 47 23 23,,Mo-Su 08:00-19:00,MoneyGram,Q1944412
72246119,moneygram,BNB TRANSFERT SARL - #FINA10 - BNB FIN L,,LABE,,,GN,+224 623 47 23 23,,Mo-Su 08:00-19:00,MoneyGram,Q1944412
72246106,moneygram,BNB TRANSFERT SARL - #FINA11 - BNB FIN D,,DABOLA,,,GN,+224 623 47 23 23,,Mo-Su 08:00-19:00,MoneyGram,Q1944412
72246122,moneygram,BNB TRANSFERT SARL - #FINA12 - BNB FIN K,,KISSIDOUGOU,,,GN,+224 623 47 23 23,,Mo-Su 08:00-19:00,MoneyGram,Q1944412
72246135,moneygram,BNB TRANSFERT SARL - #FINA13 - BNB FIN N,,NZEREKORE,,,GN,+224 623 47 23 23,,Mo-Su 08:00-19:00,MoneyGram,Q1944412
72246148,moneygram,BNB TRANSFERT SARL - #FINA14 - BNB FIN L,,LOLA,,,GN,+224 623 47 23 23,,Mo-Su 08:00-19:00,MoneyGram,Q1944412
72246164,moneygram,BNB TRANSFERT SARL - #FINA16 - BNB FIN K,,KOUROUSSA,,,GN,+224 623 47 23 23,,Mo-Su 08:00-19:00,MoneyGram,Q1944412
72246180,moneygram,BNB TRANSFERT SARL - #FINA18 - BNB FIN G,,GUECKEDOU,,,GN,+224 623 47 23 23,,Mo-Su 08:00-19:00,MoneyGram,Q1944412
72246193,moneygram,BNB TRANSFERT SARL - #FINA19 - BNB FIN M,,MACENTA,,,GN,+224 623 47 23 23,,Mo-Su 08:00-19:00,MoneyGram,Q1944412
72246203,moneygram,BNB TRANSFERT SARL - #FINA21 - BNB FIN Y,,CONAKRY,,,GN,+224 623 47 23 23,,Mo-Su 08:00-19:00,MoneyGram,Q1944412
72263299,moneygram,ORABANK GUINEA - CONAKRY - FAMOUGUE,,CONAKRY,,,GN,+224 622 35 90 90,,Mo-Sa 08:00-19:00; Su 00:00-24:00,MoneyGram,Q1944412
72283729,moneygram,ORABANK GUINEA - ENTREPRISE CHERIF HASSA,,CONAKRY,,,GN,+224 625 00 00 01,,Mo-Fr 08:00-17:30; Sa 08:00-14:00; Su 00:00-24:00,MoneyGram,Q1944412
72329748,moneygram,MICRO-BIT,,CONAKRY,,,GN,+224 657 67 38 01,,Mo-Sa 08:30-18:00; Su 00:00-24:00,MoneyGram,Q1944412
72329751,moneygram,MICRO-BIT,,CONAKRY,,,GN,+224 657 67 38 01,,Mo-Sa 08:30-18:00; Su 00:00-24:00,MoneyGram,Q1944412
72329764,moneygram,MICRO-BIT,,CONAKRY,,,GN,+224 657 67 38 01,,Mo-Sa 08:30-18:00; Su 00:00-24:00,MoneyGram,Q1944412
72329780,moneygram,MICRO-BIT,,CONAKRY,,,GN,+224 657 67 38 01,,Mo-Sa 08:30-18:00; Su 00:00-24:00,MoneyGram,Q1944412
72329803,moneygram,MICRO-BIT,,CONAKRY,,,GN,+224 657 67 38 01,,Mo-Sa 08:30-18:00; Su 00:00-24:00,MoneyGram,Q1944412
72329816,moneygram,MICRO-BIT,,CONAKRY,,,GN,+224 657 67 38 01,,Mo-Sa 08:30-18:00; Su 00:00-24:00,MoneyGram,Q1944412
72329829,moneygram,MICRO-BIT,,CONAKRY,,,GN,+224 657 67 38 01,,Mo-Sa 08:30-18:00; Su 00:00-24:00,MoneyGram,Q1944412
72329832,moneygram,MICRO-BIT,,CONAKRY,,,GN,+224 657 67 38 01,,Mo-Sa 08:30-18:00; Su 00:00-24:00,MoneyGram,Q1944412
72329845,moneygram,MICRO-BIT,,CONAKRY,,,GN,+224 657 67 38 01,,Mo-Sa 08:30-18:00; Su 00:00-24:00,MoneyGram,Q1944412
72329858,moneygram,MICRO-BIT,,CONAKRY,,,GN,+224 657 67 38 01,,Mo-Sa 08:30-18:00; Su 00:00-24:00,MoneyGram,Q1944412
72329861,moneygram,MICRO-BIT,,CONAKRY,,,GN,+224 657 67 38 01,,Mo-Sa 08:30-18:00; Su 00:00-24:00,MoneyGram,Q1944412
72329874,moneygram,MICRO-BIT,,CONAKRY,,,GN,+224 657 67 38 01,,Mo-Sa 08:30-18:00; Su 00:00-24:00,MoneyGram,Q1944412
72329887,moneygram,MICRO-BIT,,CONAKRY,,,GN,+224 657 67 38 01,,Mo-Sa 08:30-18:00; Su 00:00-24:00,MoneyGram,Q1944412
72329890,moneygram,MICRO-BIT,,CONAKRY,,,GN,+224 657 67 38 01,,Mo-Sa 08:30-18:00; Su 00:00-24:00,MoneyGram,Q1944412
72329900,moneygram,MICRO-BIT,,CONAKRY,,,GN,+224 657 67 38 01,,Mo-Sa 08:30-18:00; Su 00:00-24:00,MoneyGram,Q1944412
72329913,moneygram,MICRO-BIT,,KANKAN,,,GN,+224 657 67 38 01,,Mo-Sa 08:30-18:00; Su 00:00-24:00,MoneyGram,Q1944412
72329926,moneygram,MICRO-BIT,,NZEREKORE,,,GN,+224 657 67 38 01,,Mo 08:30-18:00; Tu 08:00-18:00; We-Sa 08:30-18:00; Su 00:00-24:00,MoneyGram,Q1944412
72361722,moneygram,BNB TRANSFERT SARL - #BGC090 - BNB AVIAT,,CONAKRY,,,GN,+224 623 47 23 23,,Mo-Su 06:00-23:00,MoneyGram,Q1944412
72361706,moneygram,BNB TRANSFERT SARL - #BGC094 - BNB KAGBE,,DUBREKA,,,GN,+224 623 47 23 23,,Mo-Su 08:30-20:00,MoneyGram,Q1944412
72361625,moneygram,BNB TRANSFERT SARL - #BGC096 - BNB SANGO,,CONAKRY,,,GN,+224 623 47 23 23,,Mo-Su 06:00-23:00,MoneyGram,Q1944412
72361696,moneygram,BNB TRANSFERT SARL - #BGC099 - BNB KAMSA,,KAMSAR,,,GN,+224 623 47 23 23,,Mo-Su 06:00-23:00,MoneyGram,Q1944412
72361638,moneygram,BNB TRANSFERT SARL - #BGC103 - BNB CASH,,CONAKRY,,,GN,+224 623 47 23 23,,Mo-Sa 08:30-20:00; Su 00:00-24:00,MoneyGram,Q1944412
72361719,moneygram,BNB TRANSFERT SARL - #BGC111 - BNB T8,,CONAKRY,,,GN,+224 623 47 23 23,,Mo-Sa 08:30-20:00; Su 00:00-24:00,MoneyGram,Q1944412
72361667,moneygram,BNB TRANSFERT SARL - #BGC112 - BNB KANKA,,KANKAN,,,GN,+224 623 47 23 23,,Mo-Su 08:30-20:00,MoneyGram,Q1944412
72361641,moneygram,BNB TRANSFERT SARL - #BGC113 - BNB DIXIN,,CONAKRY,,,GN,+224 623 47 23 23,,Mo-Su 08:00-20:00,MoneyGram,Q1944412
72361654,moneygram,BNB TRANSFERT SARL - #BGC114 - BNB KOUNT,,CONAKRY,,,GN,+224 623 47 23 23,,Mo-Su 06:00-23:00,MoneyGram,Q1944412
72427941,moneygram,ORABANK GUINEA - CONAKRY - AGENCE ENTA,,CONAKRY,,,GN,+224 622 35 90 90,,Mo-Fr 08:00-17:30; Sa 08:00-14:00; Su 00:00-24:00,MoneyGram,Q1944412
72497560,moneygram,AFRO INTERNATIONAL - CONAKRY - AFRO ANKO,,CONAKRY,,,GN,+224 655 33 33 32,,Mo-Su 08:30-22:00,MoneyGram,Q1944412
72497612,moneygram,AFRO INTERNATIONAL - CONAKRY - AFRO CIME,,CONAKRY,,,GN,+224 655 33 33 32,,Mo-Su 08:30-22:00,MoneyGram,Q1944412
72497515,moneygram,AFRO INTERNATIONAL - CONAKRY - AFRO KAGB,,CONAKRY,,,GN,+224 655 33 33 32,,Mo-Su 08:30-22:00,MoneyGram,Q1944412
72497502,moneygram,AFRO INTERNATIONAL - CONAKRY - AFRO NONG,,CONAKRY,,,GN,+224 655 33 33 32,,Mo-Su 08:30-22:00,MoneyGram,Q1944412
72497586,moneygram,AFRO INTERNATIONAL - CONAKRY - AFRO SANG,,CONAKRY,,,GN,+224 655 33 33 32,,Mo-Su 08:30-22:00,MoneyGram,Q1944412
72497531,moneygram,AFRO INTERNATIONAL - CONAKRY - AFRO YIMB,,CONAKRY,,,GN,+224 655 33 33 32,,Mo-Su 08:30-22:00,MoneyGram,Q1944412
72497696,moneygram,AFRO INTERNATIONAL - FARANAH - AFRO FARA,,FARANAH,,,GN,+224 655 33 33 32,,Mo-Su 08:30-22:00,MoneyGram,Q1944412
72497683,moneygram,AFRO INTERNATIONAL - KINDIA - AFRO KINDI,,KINDIA,,,GN,+224 655 33 33 32,,Mo-Su 08:30-22:00,MoneyGram,Q1944412
72687765,moneygram,BNB TRANSFERT SARL - #BGC100 - CONAKRY -,,CONAKRY,,,GN,+224 623 47 23 23,,Mo-Su 06:00-23:00,MoneyGram,Q1944412
72687778,moneygram,BNB TRANSFERT SARL - #BGC110 - CONAKRY -,,CONAKRY,,,GN,+224 623 47 23 23,,Mo-Su 06:00-23:00,MoneyGram,Q1944412
72687794,moneygram,BNB TRANSFERT SARL - #BGC122 - CONAKRY -,,CONAKRY,,,GN,+224 623 47 23 23,,Mo-Su 06:00-23:00,MoneyGram,Q1944412
72687804,moneygram,BNB TRANSFERT SARL - #BGC123 - CONAKRY -,,CONAKRY,,,GN,+224 623 47 23 23,,Mo-Su 06:00-23:00,MoneyGram,Q1944412
72687749,moneygram,BNB TRANSFERT SARL - #BGC126 - CONAKRY -,,CONAKRY,,,GN,+224 623 47 23 23,,Mo-Su 08:30-20:00,MoneyGram,Q1944412
72687752,moneygram,BNB TRANSFERT SARL - #BGC128 - NZEREKORE,,NZEREKORE,,,GN,+224 623 47 23 23,,Mo-Su 08:30-20:00,MoneyGram,Q1944412
72687736,moneygram,BNB TRANSFERT SARL - #BGC131 - NZEREKORE,,NZEREKORE,,,GN,+224 623 47 23 23,,Mo-Su 06:00-23:00,MoneyGram,Q1944412
72761924,moneygram,MICRO-BIT,,CONAKRY,,,GN,+224 657 67 38 01,,Mo-Sa 08:30-18:00; Su 00:00-24:00,MoneyGram,Q1944412
72761940,moneygram,MICRO-BIT,,CONAKRY,,,GN,+224 657 67 38 01,,Mo-Sa 08:30-18:00; Su 00:00-24:00,MoneyGram,Q1944412
72761966,moneygram,MICRO-BIT,,CONAKRY,,,GN,+224 657 67 38 01,,Mo-Sa 08:30-18:00; Su 00:00-24:00,MoneyGram,Q1944412
72761979,moneygram,MICRO-BIT,,CONAKRY,,,GN,+224 657 67 38 01,,Mo-Sa 08:30-18:00; Su 00:00-24:00,MoneyGram,Q1944412
72761995,moneygram,MICRO-BIT,,CONAKRY,,,GN,+224 657 67 38 01,,Mo-Sa 08:30-18:00; Su 00:00-24:00,MoneyGram,Q1944412
72762017,moneygram,MICRO-BIT,,CONAKRY,,,GN,+224 657 67 38 01,,Mo-Sa 08:30-18:00; Su 00:00-24:00,MoneyGram,Q1944412
72762033,moneygram,MICRO-BIT,,CONAKRY,,,GN,+224 657 67 38 01,,Mo-Sa 08:30-18:00; Su 00:00-24:00,MoneyGram,Q1944412
72762059,moneygram,MICRO-BIT,,CONAKRY,,,GN,+224 657 67 38 01,,Mo-Sa 08:30-18:00; Su 00:00-24:00,MoneyGram,Q1944412
72762062,moneygram,MICRO-BIT,,CONAKRY,,,GN,+224 657 67 38 01,,Mo-Sa 08:30-18:00; Su 00:00-24:00,MoneyGram,Q1944412
72762088,moneygram,MICRO-BIT,,KANKAN,,,GN,+224 657 67 38 01,,Mo-Sa 08:30-18:00; Su 00:00-24:00,MoneyGram,Q1944412
72762091,moneygram,MICRO-BIT,,NZEREKORE,,,GN,+224 657 67 38 01,,Mo 08:30-18:00; Tu 08:00-18:00; We-Sa 08:30-18:00; Su 00:00-24:00,MoneyGram,Q1944412
72803044,moneygram,BNB TRANSFERT SARL - #139 - PITA - BNB M,,PITA,,,GN,+224 623 47 23 23,,Mo-Su 06:00-23:00,MoneyGram,Q1944412
72803086,moneygram,BNB TRANSFERT SARL - #140 - CONAKRY - BN,,CONAKRY,,,GN,+224 623 47 23 23,,Mo-Sa 08:30-20:00; Su 00:00-24:00,MoneyGram,Q1944412
72803073,moneygram,BNB TRANSFERT SARL - #141 - MAMOU - BNB,,MAMOU,,,GN,+224 623 47 23 23,,Mo-Su 08:00-20:00,MoneyGram,Q1944412
72803099,moneygram,BNB TRANSFERT SARL - #142 - CONAKRY - BN,,CONAKRY,,,GN,+224 623 47 23 23,,Mo-Sa 08:30-20:00; Su 00:00-24:00,MoneyGram,Q1944412
72803109,moneygram,BNB TRANSFERT SARL - #143 - MAMOU - BNB,,MAMOU,,,GN,+224 623 47 23 23,,Mo-Su 06:00-23:00,MoneyGram,Q1944412
72803141,moneygram,BNB TRANSFERT SARL - #147 - CONAKRY - VI,,CONAKRY,,,GN,+224 623 47 23 23,,Mo-Su 06:00-23:00,MoneyGram,Q1944412
72803060,moneygram,BNB TRANSFERT SARL - #151 - KINDIA - LAG,,KINDIA,,,GN,+224 623 47 23 23,,Mo-Su 06:00-23:00,MoneyGram,Q1944412
72814156,moneygram,BSIC BOKE,,BOKE,,,GN,+224 666 55 55 57,,Mo-Fr 08:00-16:30; Sa 08:00-12:00; Su 00:00-24:00,MoneyGram,Q1944412
72814127,moneygram,BSIC FORECARIAH,,FORECARIAH,,,GN,+224 666 55 55 57,,Mo-Fr 08:00-16:30; Sa 08:00-12:00; Su 00:00-24:00,MoneyGram,Q1944412
72814017,moneygram,BSIC KALOUM,,CONAKRY,,,GN,+224 666 55 55 57,,Mo-Fr 08:00-16:30; Sa 08:00-12:00; Su 00:00-24:00,MoneyGram,Q1944412
72814091,moneygram,BSIC KANKAN,,KANKAN,,,GN,+224 666 55 55 57,,Mo-Fr 08:00-16:30; Sa 08:00-12:00; Su 00:00-24:00,MoneyGram,Q1944412
72814130,moneygram,BSIC MANDIANA,,MANDIANA,,,GN,+224 666 55 55 57,,Mo-Fr 08:00-16:30; Sa 08:00-12:00; Su 00:00-24:00,MoneyGram,Q1944412
72814088,moneygram,BSIC NZEREKORE,,NZEREKORE,,,GN,+224 666 55 55 57,,Mo-Fr 08:00-16:30; Sa 08:00-12:00; Su 00:00-24:00,MoneyGram,Q1944412
72814101,moneygram,BSIC SIGUIRI,,SIGUIRI,,,GN,+224 666 55 55 57,,Mo-Fr 08:00-16:30; Sa 08:00-12:00; Su 00:00-24:00,MoneyGram,Q1944412
72879955,moneygram,AFRO INTERNATIONAL - AFRO ABDULAI OFFICE,,CONAKRY,,,GN,+224 655 33 33 32,,Mo-Su 08:30-21:00,MoneyGram,Q1944412
72880135,moneygram,AFRO INTERNATIONAL - AFRO ALMAMYA OFFICE,,CONAKRY,,,GN,+224 655 33 33 32,,Mo-Su 08:30-21:00,MoneyGram,Q1944412
72879971,moneygram,AFRO INTERNATIONAL - AFRO AVARIA OFFICE,,CONAKRY,,,GN,+224 655 33 33 32,,Mo-Su 08:30-21:00,MoneyGram,Q1944412
72879968,moneygram,AFRO INTERNATIONAL - AFRO BAILO OFFICE,,CONAKRY,,,GN,+224 655 33 33 32,,Mo-Su 08:30-21:00,MoneyGram,Q1944412
72880067,moneygram,AFRO INTERNATIONAL - AFRO BOKE OFFICE,,BOKE,,,GN,+224 655 33 33 32,,Mo-Su 08:30-21:00,MoneyGram,Q1944412
72879984,moneygram,AFRO INTERNATIONAL - AFRO BUSHURA OFFICE,,CONAKRY,,,GN,+224 655 33 33 32,,Mo-Su 08:30-21:00,MoneyGram,Q1944412
72879997,moneygram,AFRO INTERNATIONAL - AFRO CONSTATAIN OFF,,CONAKRY,,,GN,+224 655 33 33 32,,Mo-Su 08:30-21:00,MoneyGram,Q1944412
72880038,moneygram,AFRO INTERNATIONAL - AFRO COZA OFFICE,,CONAKRY,,,GN,+224 655 33 33 32,,Mo-Su 08:30-21:00,MoneyGram,Q1944412
72880041,moneygram,AFRO INTERNATIONAL - AFRO COZA RAI OFFIC,,CONAKRY,,,GN,+224 655 33 33 32,,Mo-Su 08:30-21:00,MoneyGram,Q1944412
72880025,moneygram,AFRO INTERNATIONAL - AFRO DIXINN OFFICE,,CONAKRY,,,GN,+224 655 33 33 32,,Mo-Su 08:30-21:00,MoneyGram,Q1944412
72880119,moneygram,AFRO INTERNATIONAL - AFRO FORSIDIE OFFIC,,CONAKRY,,,GN,+224 655 33 33 32,,Mo-Su 08:30-21:00,MoneyGram,Q1944412
72880122,moneygram,AFRO INTERNATIONAL - AFRO KALOUM OFFICE,,CONAKRY,,,GN,+224 655 33 33 32,,Mo-Su 08:30-21:00,MoneyGram,Q1944412
72880106,moneygram,AFRO INTERNATIONAL - AFRO MADINA CORNICH,,CONAKRY,,,GN,+224 655 33 33 32,,Mo-Su 08:30-21:00,MoneyGram,Q1944412
72880012,moneygram,AFRO INTERNATIONAL - AFRO MATOTO ROND PO,,CONAKRY,,,GN,+224 655 33 33 32,,Mo-Su 08:30-21:00,MoneyGram,Q1944412
72880148,moneygram,AFRO INTERNATIONAL - AFRO PRIMA OFFICE,,CONAKRY,,,GN,+224 655 33 33 32,,Mo-Su 08:30-21:00,MoneyGram,Q1944412
72880070,moneygram,AFRO INTERNATIONAL - AFRO T5 OFFICE,,CONAKRY,,,GN,+224 655 33 33 32,,Mo-Su 08:30-21:00,MoneyGram,Q1944412
72880096,moneygram,AFRO INTERNATIONAL - AFRO T8 OFFICE,,CONAKRY,,,GN,+224 655 33 33 32,,Mo-Su 08:30-21:00,MoneyGram,Q1944412
72283745,moneygram,ORABANK GUINEA - SOFINA,,CONAKRY,,,GN,+224 622 31 62 49,,Mo-Fr 08:00-17:00; Sa 08:00-14:00; Su 00:00-24:00,MoneyGram,Q1944412
72926015,moneygram,BNB TRANSFERT SARL - #BGC172 - SIGUIRI -,,SIGUIRI,,,GN,+224 623 47 23 23,,Mo-Su 06:00-23:00,MoneyGram,Q1944412
72926028,moneygram,BNB TRANSFERT SARL - #BGC177 - CONAKRY -,,CONAKRY,,,GN,+224 623 47 23 23,,Mo-Su 06:00-23:00,MoneyGram,Q1944412
72926031,moneygram,BNB TRANSFERT SARL - #BGC178 - MAMOU - B,,MAMOU,,,GN,+224 623 47 23 23,,Mo-Sa 08:30-20:00; Su 00:00-24:00,MoneyGram,Q1944412
72926057,moneygram,BNB TRANSFERT SARL - #BGC182 - CONAKRY -,,CONAKRY,,,GN,+224 623 47 23 23,,Mo-Su 06:00-23:00,MoneyGram,Q1944412
73127156,moneygram,BNB TRANSFERT SARL - #BGC176 - CONAKRY -,,CONAKRY,,,GN,+224 623 47 23 23,,Mo-Su 06:00-23:00,MoneyGram,Q1944412
73127172,moneygram,BNB TRANSFERT SARL - #BGC197 - CONAKRY -,,CONAKRY,,,GN,+224 623 47 23 23,,Mo-Su 06:00-23:00,MoneyGram,Q1944412
73300148,moneygram,BNB TRANSFERT SARL - #BGC203 - CONAKRY -,,CONAKRY,,,GN,+224 623 47 23 23,,Mo-Su 06:00-23:00,MoneyGram,Q1944412
73369286,moneygram,WELY-WELY TRANSFERT - #1 - MADINA CONSTA,,CONAKRY,,,GN,+224 624 51 06 53,,Mo-Sa 08:00-17:00; Su 10:00-14:00,MoneyGram,Q1944412
73369370,moneygram,WELY-WELY TRANSFERT - #10 - NONGO,,CONAKRY,,,GN,+224 628 55 98 98,,Mo-Sa 08:00-17:00; Su 10:00-14:00,MoneyGram,Q1944412
73369383,moneygram,WELY-WELY TRANSFERT - #11 - FOULAMADINA,,CONAKRY,,,GN,+224 628 62 57 16,,Mo-Sa 08:00-17:00; Su 10:00-14:00,MoneyGram,Q1944412
73369396,moneygram,WELY-WELY TRANSFERT - #12 - FACIAH -COYA,,CONAKRY,,,GN,+224 626 45 00 97,,Mo-Sa 08:00-17:00; Su 10:00-14:00,MoneyGram,Q1944412
73369406,moneygram,WELY-WELY TRANSFERT - #13 - YIMBAYAH TAN,,CONAKRY,,,GN,+224 622 34 70 11,,Mo-Sa 08:00-17:00; Su 10:00-14:00,MoneyGram,Q1944412
73369419,moneygram,WELY-WELY TRANSFERT - #14 - FOSIDE,,CONAKRY,,,GN,+224 626 96 65 16,,Mo-Sa 08:00-17:00; Su 10:00-14:00,MoneyGram,Q1944412
73369422,moneygram,WELY-WELY TRANSFERT - #15 - WANINDARA,,CONAKRY,,,GN,+224 621 75 85 94,,Mo-Sa 08:00-17:00; Su 10:00-14:00,MoneyGram,Q1944412
73369435,moneygram,WELY-WELY TRANSFERT - #16 - YATAYA -T6,,CONAKRY,,,GN,+224 624 35 35 36,,Mo-Sa 08:00-17:00; Su 10:00-14:00,MoneyGram,Q1944412
73369448,moneygram,WELY-WELY TRANSFERT - #17 - SONFONIA -1,,CONAKRY,,,GN,+224 620 30 36 17,,Mo-Sa 08:00-17:00; Su 10:00-14:00,MoneyGram,Q1944412
73369451,moneygram,WELY-WELY TRANSFERT - #18 - SONFONIA-2,,CONAKRY,,,GN,+224 620 07 22 78,,Mo-Sa 08:00-17:00; Su 10:00-14:00,MoneyGram,Q1944412
73369464,moneygram,WELY-WELY TRANSFERT - #19 - CIMENTERIE -,,CONAKRY,,,GN,+224 621 71 00 00,,Mo-Sa 08:00-17:00; Su 10:00-14:00,MoneyGram,Q1944412
73369299,moneygram,WELY-WELY TRANSFERT - #2 - MADINA FALLOU,,CONAKRY,,,GN,+224 624 51 06 40,,Mo-Sa 08:00-17:00; Su 10:00-14:00,MoneyGram,Q1944412
73369477,moneygram,WELY-WELY TRANSFERT - #20 - CIMENTERIE-2,,CONAKRY,,,GN,+224 624 01 01 61,,Mo-Sa 08:00-17:00; Su 10:00-14:00,MoneyGram,Q1944412
73369480,moneygram,WELY-WELY TRANSFERT - #21 - KAGBELEN,,CONAKRY,,,GN,+224 623 16 48 62,,Mo-Sa 08:00-17:00; Su 10:00-14:00,MoneyGram,Q1944412
73369493,moneygram,WELY-WELY TRANSFERT - #22 - KILLOMETRE 3,,CONAKRY,,,GN,+224 621 23 27 12,,Mo-Sa 08:00-17:00; Su 10:00-14:00,MoneyGram,Q1944412
73369503,moneygram,WELY-WELY TRANSFERT - #23 - BONFI-MARCHE,,CONAKRY,,,GN,+224 626 07 79 61,,Mo-Sa 08:00-17:00; Su 10:00-14:00,MoneyGram,Q1944412
73369516,moneygram,WELY-WELY TRANSFERT - #24 - MATOTO -2,,CONAKRY,,,GN,+224 621 36 90 61,,Mo-Sa 08:00-17:00; Su 10:00-14:00,MoneyGram,Q1944412
73369529,moneygram,WELY-WELY TRANSFERT - #25 - MATOTO -1,,CONAKRY,,,GN,+224 624 65 07 87,,Mo-Sa 08:00-17:00; Su 10:00-14:00,MoneyGram,Q1944412
73369532,moneygram,WELY-WELY TRANSFERT - #26 - ANTA MARCHE,,CONAKRY,,,GN,+224 620 06 74 10,,Mo-Sa 08:00-17:00; Su 10:00-14:00,MoneyGram,Q1944412
73369545,moneygram,WELY-WELY TRANSFERT - #27 - AEROPORT,,CONAKRY,,,GN,+224 626 23 23 23,,Mo-Sa 08:00-17:00; Su 10:00-14:00,MoneyGram,Q1944412
73369558,moneygram,WELY-WELY TRANSFERT - #28 - BONFI-AUTO-R,,CONAKRY,,,GN,+224 622 25 85 80,,Mo-Sa 08:00-17:00; Su 10:00-14:00,MoneyGram,Q1944412
73369561,moneygram,WELY-WELY TRANSFERT - #29 - KOUNTIA,,CONAKRY,,,GN,+224 622 13 08 83,,Mo-Sa 08:00-17:00; Su 10:00-14:00,MoneyGram,Q1944412
73369309,moneygram,WELY-WELY TRANSFERT - #3 - BELLE VUE,,CONAKRY,,,GN,+224 624 51 06 51,,Mo-Sa 08:00-17:00; Su 10:00-14:00,MoneyGram,Q1944412
73369574,moneygram,WELY-WELY TRANSFERT - #30 - GOMBOYAH,,CONAKRY,,,GN,+224 622 26 31 16,,Mo-Sa 08:00-17:00; Su 10:00-14:00,MoneyGram,Q1944412
73369587,moneygram,WELY-WELY TRANSFERT - #31 - SODEFA,,CONAKRY,,,GN,+224 628 81 06 47,,Mo-Sa 08:00-17:00; Su 10:00-14:00,MoneyGram,Q1944412
73369590,moneygram,WELY-WELY TRANSFERT - #32 - COCHERIE- CO,,CONAKRY,,,GN,+224 620 97 42 81,,Mo-Sa 08:00-17:00; Su 10:00-14:00,MoneyGram,Q1944412
73369600,moneygram,WELY-WELY TRANSFERT - #33 - COYAH -MARCH,,CONAKRY,,,GN,+224 628 69 38 99,,Mo-Sa 08:00-17:00; Su 10:00-14:00,MoneyGram,Q1944412
73369613,moneygram,WELY-WELY TRANSFERT - #34 - COYAH-SAMBAY,,CONAKRY,,,GN,+224 628 58 85 76,,Mo-Sa 08:00-17:00; Su 10:00-14:00,MoneyGram,Q1944412
73369626,moneygram,WELY-WELY TRANSFERT - #35 - KINDIA,,CONAKRY,,,GN,+224 622 36 46 07,,Mo-Sa 08:00-17:00; Su 10:00-14:00,MoneyGram,Q1944412
73369639,moneygram,WELY-WELY TRANSFERT - #36 - TANENE,,CONAKRY,,,GN,+224 628 33 00 33,,Mo-Sa 08:00-17:00; Su 10:00-14:00,MoneyGram,Q1944412
73369642,moneygram,WELY-WELY TRANSFERT - #37 - FRIA,,CONAKRY,,,GN,+224 620 25 52 06,,Mo-Sa 08:00-17:00; Su 10:00-14:00,MoneyGram,Q1944412
73369655,moneygram,WELY-WELY TRANSFERT - #38 - KOULABOUYI,,CONAKRY,,,GN,+224 620 71 71 00,,Mo-Sa 08:00-17:00; Su 10:00-14:00,MoneyGram,Q1944412
73369668,moneygram,WELY-WELY TRANSFERT - #39 - KAMSAR - 1,,CONAKRY,,,GN,+224 627 07 46 13,,Mo-Sa 08:00-17:00; Su 10:00-14:00,MoneyGram,Q1944412
73369312,moneygram,WELY-WELY TRANSFERT - #4 - BAMBETTO,,CONAKRY,,,GN,+224 624 51 06 46,,Mo-Sa 08:00-17:00; Su 10:00-14:00,MoneyGram,Q1944412
73369671,moneygram,WELY-WELY TRANSFERT - #40 - KAMSAR- 2,,CONAKRY,,,GN,+224 620 63 63 63,,Mo-Sa 08:00-17:00; Su 10:00-14:00,MoneyGram,Q1944412
73369684,moneygram,WELY-WELY TRANSFERT - #41 - BOKE -1,,CONAKRY,,,GN,+224 624 43 22 23,,Mo-Sa 08:00-17:00; Su 10:00-14:00,MoneyGram,Q1944412
73369697,moneygram,WELY-WELY TRANSFERT - #42 - BOKE- 2,,CONAKRY,,,GN,+224 622 81 81 82,,Mo-Sa 08:00-17:00; Su 10:00-14:00,MoneyGram,Q1944412
73369707,moneygram,WELY-WELY TRANSFERT - #43 - SANGAREDI,,CONAKRY,,,GN,+224 621 34 49 44,,Mo-Sa 08:00-17:00; Su 10:00-14:00,MoneyGram,Q1944412
73369710,moneygram,WELY-WELY TRANSFERT - #44 - MAMOU -1,,CONAKRY,,,GN,+224 627 76 13 93,,Mo-Sa 08:00-17:00; Su 10:00-14:00,MoneyGram,Q1944412
73369723,moneygram,WELY-WELY TRANSFERT - #45 - MAMOU -2,,CONAKRY,,,GN,+224 621 67 73 67,,Mo-Sa 08:00-17:00; Su 10:00-14:00,MoneyGram,Q1944412
73369736,moneygram,WELY-WELY TRANSFERT - #46 - DALABA,,CONAKRY,,,GN,+224 623 72 73 73,,Mo-Sa 08:00-17:00; Su 10:00-14:00,MoneyGram,Q1944412
73369749,moneygram,WELY-WELY TRANSFERT - #47 - PITA,,CONAKRY,,,GN,+224 622 57 13 74,,Mo-Sa 08:00-17:00; Su 10:00-14:00,MoneyGram,Q1944412
73369765,moneygram,WELY-WELY TRANSFERT - #49 - LABE- 2,,CONAKRY,,,GN,+224 623 03 95 92,,Mo-Sa 08:00-17:00; Su 10:00-14:00,MoneyGram,Q1944412
73369325,moneygram,WELY-WELY TRANSFERT - #5 - LAMBANYI,,CONAKRY,,,GN,+224 620 12 87 18,,Mo-Sa 08:00-17:00; Su 10:00-14:00,MoneyGram,Q1944412
73369778,moneygram,WELY-WELY TRANSFERT - #50 - LELOUMA,,CONAKRY,,,GN,+224 622 38 12 06,,Mo-Sa 08:00-17:00; Su 10:00-14:00,MoneyGram,Q1944412
73369781,moneygram,WELY-WELY TRANSFERT - #51 - TIMBI-MADINA,,CONAKRY,,,GN,+224 622 33 50 51,,Mo-Sa 08:00-17:00; Su 10:00-14:00,MoneyGram,Q1944412
73369794,moneygram,WELY-WELY TRANSFERT - #52 - POPODARA,,CONAKRY,,,GN,+224 620 30 23 85,,Mo-Sa 08:00-17:00; Su 10:00-14:00,MoneyGram,Q1944412
73369804,moneygram,WELY-WELY TRANSFERT - #53 - FARANAH,,CONAKRY,,,GN,+224 623 88 14 69,,Mo-Sa 08:00-17:00; Su 10:00-14:00,MoneyGram,Q1944412
73369817,moneygram,WELY-WELY TRANSFERT - #54 - KISSIDOUGOU,,CONAKRY,,,GN,+224 622 25 54 98,,Mo-Sa 08:00-17:00; Su 10:00-14:00,MoneyGram,Q1944412
73369820,moneygram,WELY-WELY TRANSFERT - #55 - GUCKEDOU,,CONAKRY,,,GN,+224 628 58 19 78,,Mo-Sa 08:00-17:00; Su 10:00-14:00,MoneyGram,Q1944412
73369833,moneygram,WELY-WELY TRANSFERT - #56 - MACENTA,,CONAKRY,,,GN,+224 628 64 97 67,,Mo-Sa 08:00-17:00; Su 10:00-14:00,MoneyGram,Q1944412
73369859,moneygram,WELY-WELY TRANSFERT - #58 - NZEREKORE 2,,CONAKRY,,,GN,+224 626 44 71 01,,Mo-Sa 08:00-17:00; Su 10:00-14:00,MoneyGram,Q1944412
73369862,moneygram,WELY-WELY TRANSFERT - #59 - DIECKE,,CONAKRY,,,GN,+224 626 26 82 49,,Mo-Sa 08:00-17:00; Su 10:00-14:00,MoneyGram,Q1944412
73369338,moneygram,WELY-WELY TRANSFERT - #6 - COSA-1,,CONAKRY,,,GN,+224 620 14 32 05,,Mo-Sa 08:00-17:00; Su 10:00-14:00,MoneyGram,Q1944412
73369875,moneygram,WELY-WELY TRANSFERT - #60 - KANKAN -1,,CONAKRY,,,GN,+224 622 10 67 12,,Mo-Sa 08:00-17:00; Su 10:00-14:00,MoneyGram,Q1944412
73369888,moneygram,WELY-WELY TRANSFERT - #61 - KANKAN -2,,CONAKRY,,,GN,+224 621 92 80 58,,Mo-Sa 08:00-17:00; Su 10:00-14:00,MoneyGram,Q1944412
73369891,moneygram,WELY-WELY TRANSFERT - #62 - SIGUIRI -1,,CONAKRY,,,GN,+224 628 04 93 14,,Mo-Sa 08:00-17:00; Su 10:00-14:00,MoneyGram,Q1944412
73369901,moneygram,WELY-WELY TRANSFERT - #63 - SIGUIRI - 2,,CONAKRY,,,GN,+224 622 73 74 00,,Mo-Sa 08:00-17:00; Su 10:00-14:00,MoneyGram,Q1944412
73369914,moneygram,WELY-WELY TRANSFERT - #64 - DINGUIRAYE,,CONAKRY,,,GN,+224 628 57 29 70,,Mo-Sa 08:00-17:00; Su 10:00-14:00,MoneyGram,Q1944412
73369927,moneygram,WELY-WELY TRANSFERT - #65 - DABOLA,,CONAKRY,,,GN,+224 622 48 77 77,,Mo-Sa 08:00-17:00; Su 10:00-14:00,MoneyGram,Q1944412
73369341,moneygram,WELY-WELY TRANSFERT - #7 - COSA-2,,CONAKRY,,,GN,+224 621 78 33 23,,Mo-Sa 08:00-17:00; Su 10:00-14:00,MoneyGram,Q1944412
73369354,moneygram,WELY-WELY TRANSFERT - #8 - ENCO5 -1,,CONAKRY,,,GN,+224 626 91 54 75,,Mo-Sa 08:00-17:00; Su 10:00-14:00,MoneyGram,Q1944412
73369367,moneygram,WELY-WELY TRANSFERT - #9 - ENCO5-2,,CONAKRY,,,GN,+224 626 26 82 47,,Mo-Sa 08:00-17:00; Su 10:00-14:00,MoneyGram,Q1944412
73456018,moneygram,MICRO-BIT,,CONAKRY,,,GN,+224 657 67 38 01,,Mo-Sa 08:30-18:00; Su 00:00-24:00,MoneyGram,Q1944412
73456209,moneygram,MICRO-BIT,,CONAKRY,,,GN,+224 657 67 38 01,,Mo-Sa 08:30-18:00; Su 00:00-24:00,MoneyGram,Q1944412
73456212,moneygram,MICRO-BIT,,CONAKRY,,,GN,+224 657 67 38 01,,Mo-Sa 08:30-18:00; Su 00:00-24:00,MoneyGram,Q1944412
73456225,moneygram,MICRO-BIT,,CONAKRY,,,GN,+224 657 67 38 01,,Mo-Sa 08:30-18:00; Su 00:00-24:00,MoneyGram,Q1944412
73456157,moneygram,MICRO-BIT,,CONAKRY,,,GN,+224 657 67 38 01,,Mo-Sa 08:30-18:00; Su 00:00-24:00,MoneyGram,Q1944412
73456241,moneygram,MICRO-BIT,,NZEREKORE,,,GN,+224 657 67 38 01,,Mo-Sa 08:30-18:00; Su 00:00-24:00,MoneyGram,Q1944412
73456254,moneygram,MICRO-BIT,,KINDIA,,,GN,+224 657 67 38 01,,Mo-Tu 08:30-18:00; We 08:30-18:30; Th-Sa 08:30-18:00; Su 00:00-24:00,MoneyGram,Q1944412
73456267,moneygram,MICRO-BIT,,KANKAN,,,GN,+224 657 67 38 01,,Mo-Sa 08:30-18:00; Su 00:00-24:00,MoneyGram,Q1944412
73672384,moneygram,THE CANADIAN - CONAKRY,,CONAKRY,,,GN,+224 627 17 05 69,,Mo-Su 08:00-17:30,MoneyGram,Q1944412
73704197,moneygram,AMALY REMIT - BOKE - SOFINA BOKE,,BOKE,,,GN,+224 657 97 11 77,,Mo-Fr 08:00-18:00; Sa 08:00-16:00; Su 09:00-13:00,MoneyGram,Q1944412
73704294,moneygram,AMALY REMIT - CONAKRY - AGENCE COFINA,,CONAKRY,,,GN,+224 657 97 11 77,,Mo-Fr 08:00-17:00; Sa 08:00-13:00; Su 00:00-24:00,MoneyGram,Q1944412
73703732,moneygram,AMALY REMIT - CONAKRY - SIEGE,,CONAKRY,,,GN,+224 657 97 11 77,,Mo-Fr 08:00-18:00; Sa 08:00-16:00; Su 09:00-13:00,MoneyGram,Q1944412
73704016,moneygram,AMALY REMIT - CONAKRY - SOFINA BELLE VUE,,CONAKRY,,,GN,+224 657 97 11 77,,Mo-Fr 08:00-18:00; Sa 08:00-16:00; Su 09:00-13:00,MoneyGram,Q1944412
73704029,moneygram,AMALY REMIT - CONAKRY - SOFINA CENTRE EM,,CONAKRY,,,GN,+224 657 97 11 77,,Mo-Fr 08:00-18:00; Sa 08:00-16:00; Su 09:00-13:00,MoneyGram,Q1944412
73704168,moneygram,AMALY REMIT - CONAKRY - SOFINA COSA,,CONAKRY,,,GN,+224 657 97 11 77,,Mo-Fr 08:00-18:00; Sa 08:00-16:00; Su 09:00-13:00,MoneyGram,Q1944412
73704003,moneygram,AMALY REMIT - CONAKRY - SOFINA DIXINN,,CONAKRY,,,GN,+224 657 97 11 77,,Mo-Fr 08:00-18:00; Sa 08:00-16:00; Su 09:00-13:00,MoneyGram,Q1944412
73703855,moneygram,AMALY REMIT - CONAKRY - SOFINA ENCO 5,,CONAKRY,,,GN,+224 657 97 11 77,,Mo-Fr 08:00-18:00; Sa 08:00-16:00; Su 09:00-13:00,MoneyGram,Q1944412
73703868,moneygram,AMALY REMIT - CONAKRY - SOFINA ENCO5 RAI,,CONAKRY,,,GN,+224 657 97 11 77,,Mo-Fr 08:00-18:00; Sa 08:00-16:00; Su 09:00-13:00,MoneyGram,Q1944412
73703813,moneygram,AMALY REMIT - CONAKRY - SOFINA ENTA,,CONAKRY,,,GN,+224 657 97 11 77,,Mo-Fr 08:00-18:00; Sa 08:00-16:00; Su 09:00-13:00,MoneyGram,Q1944412
73703994,moneygram,AMALY REMIT - CONAKRY - SOFINA KALOUM MA,,CONAKRY,,,GN,+224 657 97 11 77,,Mo-Fr 08:00-18:00; Sa 08:00-16:00; Su 09:00-13:00,MoneyGram,Q1944412
73703897,moneygram,AMALY REMIT - CONAKRY - SOFINA KAPORO MA,,CONAKRY,,,GN,+224 657 97 11 77,,Mo-Fr 08:00-18:00; Sa 08:00-16:00; Su 09:00-13:00,MoneyGram,Q1944412
73703884,moneygram,AMALY REMIT - CONAKRY - SOFINA LAMBANYI,,CONAKRY,,,GN,+224 657 97 11 77,,Mo-Fr 08:00-18:00; Sa 08:00-16:00; Su 09:00-13:00,MoneyGram,Q1944412
73703800,moneygram,AMALY REMIT - CONAKRY - SOFINA LANSANAYA,,CONAKRY,,,GN,+224 657 97 11 77,,Mo-Fr 08:00-18:00; Sa 08:00-16:00; Su 09:00-13:00,MoneyGram,Q1944412
73703952,moneygram,AMALY REMIT - CONAKRY - SOFINA MADINA,,CONAKRY,,,GN,+224 657 97 11 77,,Mo-Fr 08:00-18:00; Sa 08:00-16:00; Su 09:00-13:00,MoneyGram,Q1944412
73703936,moneygram,AMALY REMIT - CONAKRY - SOFINA MADINA CO,,CONAKRY,,,GN,+224 657 97 11 77,,Mo-Fr 08:00-18:00; Sa 08:00-16:00; Su 09:00-13:00,MoneyGram,Q1944412
73703842,moneygram,AMALY REMIT - CONAKRY - SOFINA MATOTO BO,,CONAKRY,,,GN,+224 657 97 11 77,,Mo-Fr 08:00-18:00; Sa 08:00-16:00; Su 09:00-13:00,MoneyGram,Q1944412
73703826,moneygram,AMALY REMIT - CONAKRY - SOFINA MATOTO MA,,CONAKRY,,,GN,+224 657 97 11 77,,Mo-Fr 08:00-18:00; Sa 08:00-16:00; Su 09:00-13:00,MoneyGram,Q1944412
73703839,moneygram,AMALY REMIT - CONAKRY - SOFINA MATOTO UB,,CONAKRY,,,GN,+224 657 97 11 77,,Mo-Fr 08:00-18:00; Sa 08:00-16:00; Su 09:00-13:00,MoneyGram,Q1944412
73703978,moneygram,AMALY REMIT - CONAKRY - SOFINA SANS FIL,,CONAKRY,,,GN,+224 657 97 11 77,,Mo-Fr 08:00-18:00; Sa 08:00-16:00; Su 09:00-13:00,MoneyGram,Q1944412
73703758,moneygram,AMALY REMIT - CONAKRY - SOFINA SONFINIA,,CONAKRY,,,GN,+224 657 97 11 77,,Mo-Fr 08:00-18:00; Sa 08:00-16:00; Su 09:00-13:00,MoneyGram,Q1944412
73703761,moneygram,AMALY REMIT - CONAKRY - SOFINA SONFINIA,,CONAKRY,,,GN,+224 657 97 11 77,,Mo-Fr 08:00-18:00; Sa 08:00-16:00; Su 09:00-13:00,MoneyGram,Q1944412
73703774,moneygram,AMALY REMIT - CONAKRY - SOFINA SONFONIA,,CONAKRY,,,GN,+224 657 97 11 77,,Mo-Fr 08:00-18:00; Sa 08:00-16:00; Su 09:00-13:00,MoneyGram,Q1944412
73703910,moneygram,AMALY REMIT - CONAKRY - SOFINA TOMBOLIA,,CONAKRY,,,GN,+224 657 97 11 77,,Mo-Fr 08:00-18:00; Sa 08:00-16:00; Su 09:00-13:00,MoneyGram,Q1944412
73704317,moneygram,AMALY REMIT - CONAKRY - YETEMALY,,CONAKRY,,,GN,+224 657 97 11 77,,Mo-Fr 08:00-17:00; Sa 08:00-13:00; Su 00:00-24:00,MoneyGram,Q1944412
73704113,moneygram,AMALY REMIT - COYAH - SOFINA GOMBOYA,,COYAH,,,GN,+224 657 97 11 77,,Mo-Fr 08:00-18:00; Sa 08:00-16:00; Su 09:00-13:00,MoneyGram,Q1944412
73703745,moneygram,AMALY REMIT - DUBREKA - SOFINA KAGBELEN,,DUBREKA,,,GN,+224 657 97 11 77,,Mo-Fr 08:00-18:00; Sa 08:00-16:00; Su 09:00-13:00,MoneyGram,Q1944412
73704265,moneygram,AMALY REMIT - KANKAN - SOFINA KANKAN,,KANKAN,,,GN,+224 657 97 11 77,,Mo-Fr 08:00-18:00; Sa 08:00-16:00; Su 09:00-13:00,MoneyGram,Q1944412
73850999,moneygram,FBNBANK/AGENCE KANKAN,,KANKAN,,,GN,+224 628 52 81 54,,Mo-Sa 08:00-16:30; Su 00:00-24:00,MoneyGram,Q1944412
73859424,moneygram,SOGUIGED - CONAKRY - SOCIETE GUINEENNE D,,CONAKRY,,,GN,+224 622 65 19 62,,Mo-Su 08:00-17:30,MoneyGram,Q1944412
73867759,moneygram,HOLLAND AMENAGEMENT MARCHAND - HOLLAND A,,CONAKRY,,,GN,+224 622 39 32 05,,Mo-Su 08:00-17:30,MoneyGram,Q1944412
73873031,moneygram,ETS AHMED ALY,,CONAKRY,,,GN,+224 627 64 16 07,,Mo-Sa 08:00-18:00; Su 00:00-24:00,MoneyGram,Q1944412
73877082,moneygram,NAFA BAILOBAYAH,,CONAKRY,,,GN,+224 628 24 25 95,,Mo-Sa 08:00-17:00; Su 00:00-24:00,MoneyGram,Q1944412
73877037,moneygram,NAFA BAMBETO,,CONAKRY,,,GN,+224 628 06 96 11,,Mo-Sa 08:00-17:00; Su 00:00-24:00,MoneyGram,Q1944412
73877024,moneygram,NAFA CONSTANTIN,,CONAKRY,,,GN,+224 628 57 10 88,,Mo-Sa 08:00-17:00; Su 00:00-24:00,MoneyGram,Q1944412
73877079,moneygram,NAFA COSA,,CONAKRY,,,GN,+224 628 57 29 70,,Mo-Sa 08:00-17:00; Su 00:00-24:00,MoneyGram,Q1944412
73877040,moneygram,NAFA ENCO5,,CONAKRY,,,GN,+224 620 39 12 36,,Mo-Sa 08:00-17:00; Su 00:00-24:00,MoneyGram,Q1944412
73877105,moneygram,NAFA ENTAG,,CONAKRY,,,GN,+224 628 92 62 74,,Mo-Sa 08:00-17:00; Su 00:00-24:00,MoneyGram,Q1944412
73877053,moneygram,NAFA KAGBELEN,,CONAKRY,,,GN,+224 622 34 25 71,,Mo-Sa 08:00-17:00; Su 00:00-24:00,MoneyGram,Q1944412
73877066,moneygram,NAFA KOLOMA,,CONAKRY,,,GN,+224 628 57 22 04,,Mo-Sa 08:00-17:00; Su 00:00-24:00,MoneyGram,Q1944412
73877118,moneygram,NAFA LANSANAYAH,,CONAKRY,,,GN,+224 622 55 06 84,,Mo-Sa 08:00-17:00; Su 00:00-24:00,MoneyGram,Q1944412
73877121,moneygram,NAFA MAMOU,,CONAKRY,,,GN,+224 628 57 26 49,,Mo-Sa 08:00-17:00; Su 00:00-24:00,MoneyGram,Q1944412
73877095,moneygram,NAFA MATOTO,,CONAKRY,,,GN,+224 628 31 96 70,,Mo-Sa 08:00-17:00; Su 00:00-24:00,MoneyGram,Q1944412
73877134,moneygram,NAFA N'ZEREKORE,,N'ZEREKORE,,,GN,+224 620 71 94 64,,Mo-Sa 08:00-17:00; Su 00:00-24:00,MoneyGram,Q1944412
73877011,moneygram,NAF SARL,,CONAKRY,,,GN,+224 622 97 32 66,,Mo-Sa 08:00-17:00; Su 00:00-24:00,MoneyGram,Q1944412
73882501,moneygram,BUSINESS AFRICAIN DES OPERATIONS - CONAK,,CONAKRY,,,GN,+224 628 49 97 27,,Mo-Su 08:00-17:30,MoneyGram,Q1944412
69501401,moneygram,MICROBIT - BOFFA,,BOFFA,,,GN,+224 657 04 22 11,,Mo-Th 08:00-18:00; Fr 08:00-17:00; Sa 08:00-16:00; Su 00:00-24:00,MoneyGram,Q1944412
73918527,moneygram,224 TECHNOLOGY PROFESSIONALS - CONAKRY,,CONAKRY,,,GN,+224 623 93 71 43,,Mo-Su 08:00-17:30,MoneyGram,Q1944412
73919704,moneygram,BNB AFRL - #GN0576 - KALOUM,,KALOUM,,,GN,+224 623 47 23 23,,Mo-Sa 08:30-20:00; Su 00:00-24:00,MoneyGram,Q1944412
73919830,moneygram,BNB AHD - #BGC209 - RATOMA,,RATOMA,,,GN,+224 623 47 23 23,,Mo-Su 08:30-20:00,MoneyGram,Q1944412
73919665,moneygram,BNB BK YEMBEYA - #GN0596-001 - RATOMA,,RATOMA,,,GN,+224 623 47 23 23,,Mo-Su 06:00-23:00,MoneyGram,Q1944412
73919733,moneygram,BNB BSOL - #BGC392 - RATOMA,,RATOMA,,,GN,+224 623 47 23 23,,Mo-Su 06:00-23:00,MoneyGram,Q1944412
73919681,moneygram,BNB CKF - #BGC285 - RATOMA,,RATOMA,,,GN,+224 623 47 23 23,,Mo-Su 06:00-23:00,MoneyGram,Q1944412
73919775,moneygram,BNB COSA OF - #BGC391 - RATOMA,,RATOMA,,,GN,+224 623 47 23 23,,Mo-Su 08:30-20:00,MoneyGram,Q1944412
73919788,moneygram,BNB DIXINN TERRASSE - #GN0542 - DIXINN,,DIXINN,,,GN,+224 623 47 23 23,,Mo-Su 08:30-20:00,MoneyGram,Q1944412
73919694,moneygram,BNB ENCO5 OF - #GN0663 - RATOMA,,RATOMA,,,GN,+224 623 47 23 23,,Mo-Su 08:30-20:00,MoneyGram,Q1944412
73919791,moneygram,BNB KALOUM NIGER - #BGC170 - DIXINN,,DIXINN,,,GN,+224 623 47 23 23,,Mo-Su 08:30-20:00,MoneyGram,Q1944412
73919678,moneygram,BNB KENIN - #GN0588-001 - RATOMA,,RATOMA,,,GN,+224 623 47 23 23,,Mo-Su 08:30-20:00,MoneyGram,Q1944412
73919762,moneygram,BNB KINDIA OF - #BGC362 - KALOUM,,KALOUM,,,GN,+224 623 47 23 23,,Mo-Su 08:30-20:00,MoneyGram,Q1944412
73919759,moneygram,BNB LANSANAYAH - #BGC341 - MATOTO,,MATOTO,,,GN,+224 623 47 23 23,,Mo-Su 08:30-20:00,MoneyGram,Q1944412
73919814,moneygram,BNB TINO - #BGC281 - RATOMA,,RATOMA,,,GN,+224 623 47 23 23,,Mo-Su 08:30-20:00,MoneyGram,Q1944412
73919623,moneygram,FBNBANK KAMSAR,,KAMSAR,,,GN,+224 622 41 41 80,,Mo-Sa 08:00-16:30; Su 00:00-24:00,MoneyGram,Q1944412
73922814,moneygram,MARIA-TOUR-SARL - CONAKRY,,CONAKRY,,,GN,+224 628 58 36 62,,Mo-Su 08:00-17:30,MoneyGram,Q1944412
73960986,moneygram,ETS CASH UP - CONAKRY - CONSTANTIN,,CONAKRY,,,GN,+224 621 20 76 23,,Mo-Sa 08:00-18:00; Su 09:00-12:00,MoneyGram,Q1944412
73960973,moneygram,ETS CASH UP - CONAKRY - KIPE,,CONAKRY,,,GN,+224 621 20 76 23,,Mo-Sa 08:00-18:00; Su 09:00-12:00,MoneyGram,Q1944412
73960960,moneygram,ETS CASH UP - CONAKRY - LAMBANYI,,CONAKRY,,,GN,+224 621 20 76 23,,Mo-Sa 08:00-18:00; Su 09:00-12:00,MoneyGram,Q1944412
73960999,moneygram,ETS CASH UP - CONAKRY - NONGO,,CONAKRY,,,GN,+224 621 20 76 23,,Mo-Sa 08:00-18:00; Su 09:00-12:00,MoneyGram,Q1944412
73962191,moneygram,ENTREPRISE ALPHA BARRY & FRERES - CONAKR,,CONAKRY,,,GN,+224 622 18 26 12,,Mo-Sa 08:00-18:00; Su 09:00-12:00,MoneyGram,Q1944412
73369846,moneygram,WELY-WELY TRANSFERT - #57 - NZEREKORE 1,,CONAKRY,,,GN,+224 622 57 40 54,,Mo-Sa 08:00-17:00; Su 10:00-14:00,MoneyGram,Q1944412
73982029,moneygram,ATLANTIC NET SERVICES - CONAKRY - HAMDAL,,CONAKRY,,,GN,+224 628 19 52 42,,Mo-Sa 08:00-18:00; Su 09:00-12:00,MoneyGram,Q1944412
73983125,moneygram,BAREMA PRESTATION ET ELECTRONIQUE SHOP -,,CONAKRY,,,GN,+224 622 96 70 11,,Mo-Su 08:00-17:30,MoneyGram,Q1944412
73989459,moneygram,MAMADOU SIRADJO DIALLO-BUSINESS ET SERVI,,CONAKRY,,,GN,+224 627 13 46 71,,Mo-Su 08:00-17:00,MoneyGram,Q1944412
73989462,moneygram,MAMADOU SIRADJO DIALLO-BUSINESS ET SERVI,,LABE,,,GN,+224 666 69 70 31,,Mo-Su 08:00-17:00,MoneyGram,Q1944412
73989488,moneygram,MAMADOU SIRADJO DIALLO-BUSINESS ET SERVI,,CONAKRY,,,GN,+224 627 40 20 94,,Mo-Su 08:00-17:00,MoneyGram,Q1944412
73989475,moneygram,MAMADOU SIRADJO DIALLO-BUSINESS ET SERVI,,CONAKRY,,,GN,+224 627 40 20 94,,Mo-Su 08:00-17:00,MoneyGram,Q1944412
73989491,moneygram,MAMADOU SIRADJO DIALLO-BUSINESS ET SERVI,,CONAKRY,,,GN,+224 627 40 20 94,,Mo-Su 08:00-17:00,MoneyGram,Q1944412
73989501,moneygram,MAMADOU SIRADJO DIALLO-BUSINESS ET SERVI,,CONAKRY,,,GN,+224 627 40 20 94,,Mo-Su 08:00-17:00,MoneyGram,Q1944412
73989514,moneygram,MAMADOU SIRADJO DIALLO-BUSINESS ET SERVI,,CONAKRY,,,GN,+224 627 40 20 94,,Mo-Su 08:00-17:00,MoneyGram,Q1944412
73989527,moneygram,MAMADOU SIRADJO DIALLO-BUSINESS ET SERVI,,CONAKRY,,,GN,+224 628 70 19 74,,Mo-Su 08:00-17:00,MoneyGram,Q1944412
73989543,moneygram,MAMADOU SIRADJO DIALLO-BUSINESS ET SERVI,,CONAKRY,,,GN,+224 620 00 88 46,,Mo-Su 08:00-17:00,MoneyGram,Q1944412
73989530,moneygram,MAMADOU SIRADJO DIALLO-BUSINESS ET SERVI,,CONAKRY,,,GN,+224 626 45 29 01,,Mo-Su 08:00-17:00,MoneyGram,Q1944412
73989556,moneygram,MAMADOU SIRADJO DIALLO-BUSINESS ET SERVI,,CONAKRY,,,GN,+224 626 96 65 30,,Mo-Su 08:00-17:00,MoneyGram,Q1944412
73989572,moneygram,MAMADOU SIRADJO DIALLO-BUSINESS ET SERVI,,CONAKRY,,,GN,+224 628 23 48 23,,Mo-Su 08:00-17:00,MoneyGram,Q1944412
73989569,moneygram,MAMADOU SIRADJO DIALLO-BUSINESS ET SERVI,,CONAKRY,,,GN,+224 622 57 09 62,,Mo-Su 08:00-17:00,MoneyGram,Q1944412
73989585,moneygram,MAMADOU SIRADJO DIALLO-BUSINESS ET SERVI,,CONAKRY,,,GN,+224 626 96 65 50,,Mo-Su 08:00-17:00,MoneyGram,Q1944412
73989598,moneygram,MAMADOU SIRADJO DIALLO-BUSINESS ET SERVI,,CONAKRY,,,GN,+224 626 96 65 38,,Mo-Su 08:00-17:00,MoneyGram,Q1944412
73989608,moneygram,MAMADOU SIRADJO DIALLO-BUSINESS ET SERVI,,CONAKRY,,,GN,+224 620 39 40 66,,Mo-Su 08:00-17:00,MoneyGram,Q1944412
73989611,moneygram,MAMADOU SIRADJO DIALLO-BUSINESS ET SERVI,,CONAKRY,,,GN,+224 622 49 45 55,,Mo-Su 08:00-17:00,MoneyGram,Q1944412
73989624,moneygram,MAMADOU SIRADJO DIALLO-BUSINESS ET SERVI,,CONAKRY,,,GN,+224 621 96 36 55,,Mo-Su 08:00-17:00,MoneyGram,Q1944412
73989637,moneygram,MAMADOU SIRADJO DIALLO-BUSINESS ET SERVI,,CONAKRY,,,GN,+224 622 44 68 03,,Mo-Su 08:00-17:00,MoneyGram,Q1944412
73989640,moneygram,MAMADOU SIRADJO DIALLO-BUSINESS ET SERVI,,CONAKRY,,,GN,+224 621 16 50 75,,Mo-Su 08:00-17:00,MoneyGram,Q1944412
73989653,moneygram,MAMADOU SIRADJO DIALLO-BUSINESS ET SERVI,,CONAKRY,,,GN,+224 622 20 16 75,,Mo-Su 08:00-17:00,MoneyGram,Q1944412
73989666,moneygram,MAMADOU SIRADJO DIALLO-BUSINESS ET SERVI,,CONAKRY,,,GN,+224 622 85 51 98,,Mo-Su 08:00-17:00,MoneyGram,Q1944412
73989679,moneygram,MAMADOU SIRADJO DIALLO-BUSINESS ET SERVI,,CONAKRY,,,GN,+224 627 85 67 67,,Mo-Su 08:00-17:00,MoneyGram,Q1944412
73989682,moneygram,MAMADOU SIRADJO DIALLO-BUSINESS ET SERVI,,CONAKRY,,,GN,+224 629 00 72 68,,Mo-Su 08:00-17:00,MoneyGram,Q1944412
73989695,moneygram,MAMADOU SIRADJO DIALLO-BUSINESS ET SERVI,,CONAKRY,,,GN,+224 620 52 32 62,,Mo-Su 08:00-17:00,MoneyGram,Q1944412
73989705,moneygram,MAMADOU SIRADJO DIALLO-BUSINESS ET SERVI,,CONAKRY,,,GN,+224 661 27 27 93,,Mo-Su 08:00-17:00,MoneyGram,Q1944412
73989718,moneygram,MAMADOU SIRADJO DIALLO-BUSINESS ET SERVI,,CONAKRY,,,GN,+224 624 88 88 99,,Mo-Su 08:00-17:00,MoneyGram,Q1944412
73989721,moneygram,MAMADOU SIRADJO DIALLO-BUSINESS ET SERVI,,CONAKRY,,,GN,+224 620 07 07 08,,Mo-Su 08:00-17:00,MoneyGram,Q1944412
73989734,moneygram,MAMADOU SIRADJO DIALLO-BUSINESS ET SERVI,,CONAKRY,,,GN,+224 621 71 92 33,,Mo-Su 08:00-17:00,MoneyGram,Q1944412
73989747,moneygram,MAMADOU SIRADJO DIALLO-BUSINESS ET SERVI,,CONAKRY,,,GN,+224 621 77 93 53,,Mo-Su 08:00-17:00,MoneyGram,Q1944412
73989750,moneygram,MAMADOU SIRADJO DIALLO-BUSINESS ET SERVI,,CONAKRY,,,GN,+224 628 69 54 07,,Mo-Su 08:00-17:00,MoneyGram,Q1944412
73989776,moneygram,MAMADOU SIRADJO DIALLO-BUSINESS ET SERVI,,CONAKRY,,,GN,+224 621 20 76 23,,Mo-Su 08:00-17:00,MoneyGram,Q1944412
73989789,moneygram,MAMADOU SIRADJO DIALLO-BUSINESS ET SERVI,,CONAKRY,,,GN,+224 625 27 53 51,,Mo-Su 08:00-17:00,MoneyGram,Q1944412
73989792,moneygram,MAMADOU SIRADJO DIALLO-BUSINESS ET SERVI,,CONAKRY,,,GN,+224 620 12 91 28,,Mo-Su 08:00-17:00,MoneyGram,Q1944412
73989802,moneygram,MAMADOU SIRADJO DIALLO-BUSINESS ET SERVI,,CONAKRY,,,GN,+224 628 51 45 77,,Mo-Su 08:00-17:00,MoneyGram,Q1944412
73989815,moneygram,MAMADOU SIRADJO DIALLO-BUSINESS ET SERVI,,CONAKRY,,,GN,+224 620 38 31 22,,Mo-Su 08:00-17:00,MoneyGram,Q1944412
73989828,moneygram,MAMADOU SIRADJO DIALLO-BUSINESS ET SERVI,,CONAKRY,,,GN,+224 624 66 06 13,,Mo-Su 08:00-17:00,MoneyGram,Q1944412
73989844,moneygram,MAMADOU SIRADJO DIALLO-BUSINESS ET SERVI,,CONAKRY,,,GN,+224 621 66 57 72,,Mo-Su 08:00-17:00,MoneyGram,Q1944412
73989831,moneygram,MAMADOU SIRADJO DIALLO-BUSINESS ET SERVI,,CONAKRY,,,GN,+224 628 61 03 61,,Mo-Su 08:00-17:00,MoneyGram,Q1944412
73989857,moneygram,MAMADOU SIRADJO DIALLO-BUSINESS ET SERVI,,CONAKRY,,,GN,+224 622 34 10 12,,Mo-Su 08:00-17:00,MoneyGram,Q1944412
73989860,moneygram,MAMADOU SIRADJO DIALLO-BUSINESS ET SERVI,,LABE,,,GN,+224 622 90 28 76,,Mo-Su 08:00-17:00,MoneyGram,Q1944412
73989446,moneygram,MAMADOU SIRADJO DIALLO-BUSINESS ET SERVI,,LABE,,,GN,+224 622 90 28 76,,Mo-Su 08:00-17:00,MoneyGram,Q1944412
74008070,moneygram,2KD MULTISERVICES - CONAKRY,,CONAKRY,,,GN,+224 622 02 17 52,,Mo-Su 08:00-17:30,MoneyGram,Q1944412
74038202,moneygram,MAX GUINEE - CONAKRY - ALMAMYA MARCHE NI,,CONAKRY,,,GN,+224 628 06 08 09,,Mo-Su 08:00-17:30,MoneyGram,Q1944412
74038192,moneygram,MAX GUINEE - CONAKRY - BAMBETO ROND POIN,,CONAKRY,,,GN,+224 628 06 08 09,,Mo-Su 08:00-17:30,MoneyGram,Q1944412
74038189,moneygram,MAX GUINEE - CONAKRY - COLEAH IMPRIMERIE,,CONAKRY,,,GN,+224 628 06 08 09,,Mo-Su 08:00-17:30,MoneyGram,Q1944412
74038231,moneygram,MAX GUINEE - CONAKRY - DIXINN CAMEROUN,,CONAKRY,,,GN,+224 628 06 08 09,,Mo-Su 08:00-17:30,MoneyGram,Q1944412
74038215,moneygram,MAX GUINEE - CONAKRY - DIXINN TERRASSE,,CONAKRY,,,GN,+224 628 06 08 09,,Mo-Su 08:00-17:30,MoneyGram,Q1944412
74038176,moneygram,MAX GUINEE - CONAKRY - HAMDALLAYE PHARMA,,CONAKRY,,,GN,+224 628 06 08 09,,Mo-Su 08:00-17:30,MoneyGram,Q1944412
74038105,moneygram,MAX GUINEE - CONAKRY - KIPE DADYA,,CONAKRY,,,GN,+224 628 06 08 09,,Mo-Su 08:00-17:30,MoneyGram,Q1944412
74038118,moneygram,MAX GUINEE - CONAKRY - LAMBANYI STATION,,CONAKRY,,,GN,+224 628 06 08 09,,Mo-Su 08:00-17:30,MoneyGram,Q1944412
74038134,moneygram,MAX GUINEE - CONAKRY - MADINA NIGER,,CONAKRY,,,GN,+224 628 06 08 09,,Mo-Su 08:00-17:30,MoneyGram,Q1944412
74038121,moneygram,MAX GUINEE - CONAKRY - MATOTO TANERIE,,CONAKRY,,,GN,+224 628 06 08 09,,Mo-Su 08:00-17:30,MoneyGram,Q1944412
74038095,moneygram,MAX GUINEE - CONAKRY - RATOMA CYBER,,CONAKRY,,,GN,+224 628 06 08 09,,Mo-Su 08:00-17:30,MoneyGram,Q1944412
74038147,moneygram,MAX GUINEE - CONAKRY - SANGOYAH MOSQUEE,,CONAKRY,,,GN,+224 628 06 08 09,,Mo-Su 08:00-17:30,MoneyGram,Q1944412
74038163,moneygram,MAX GUINEE - CONAKRY - SONFONIA GARE,,CONAKRY,,,GN,+224 628 06 08 09,,Mo-Su 08:00-17:30,MoneyGram,Q1944412
74038228,moneygram,MAX GUINEE - CONAKRY - YATTATA FOSSIDET,,CONAKRY,,,GN,+224 628 06 08 09,,Mo-Su 08:00-17:30,MoneyGram,Q1944412
74038150,moneygram,MAX GUINEE - CONAKRY - YATTAYA T6,,CONAKRY,,,GN,+224 628 06 08 09,,Mo-Su 08:00-17:30,MoneyGram,Q1944412
74038082,moneygram,MAX GUINEE - CONAKRY - DIXINN PHARMA GUI,,CONAKRY,,,GN,+224 628 06 08 09,,Mo-Su 08:00-17:30,MoneyGram,Q1944412
74044610,moneygram,BNB ABDRA - #BGC262 - LABE - BNB TRANSFE,,LABE,,,GN,+224 623 47 23 23,,Mo-Su 06:00-23:00,MoneyGram,Q1944412
74044526,moneygram,BNB ATIKA - #GN0363 - CONAKRY - BNB TRAN,,CONAKRY,,,GN,+224 623 47 23 23,,Mo-Su 08:00-20:00,MoneyGram,Q1944412
74044539,moneygram,BNB BHOHEL - #BGC232 - CONAKRY - BNB TRA,,CONAKRY,,,GN,+224 623 47 23 23,,Mo-Su 06:00-23:00,MoneyGram,Q1944412
74044500,moneygram,BNB DMMF - #GN0332 - CONAKRY - BNB TRANS,,CONAKRY,,,GN,+224 623 47 23 23,,Mo-Su 08:00-20:00,MoneyGram,Q1944412
74044607,moneygram,BNB DONZO - #BGC248 - CONAKRY - BNB TRAN,,CONAKRY,,,GN,+224 623 47 23 23,,Mo-Su 06:00-23:00,MoneyGram,Q1944412
74044597,moneygram,BNB ECI - #BGC364 - CONAKRY - BNB TRANSF,,CONAKRY,,,GN,+224 623 47 23 23,,Mo-Su 06:00-23:00,MoneyGram,Q1944412
74044584,moneygram,BNB J-LABE TATA - #BGC277 - LABE - BNB T,,LABE,,,GN,+224 623 47 23 23,,Mo-Su 06:00-23:00,MoneyGram,Q1944412
74044555,moneygram,BNB KNFALY - #BGC252 - CONAKRY - BNB TRA,,CONAKRY,,,GN,+224 623 47 23 23,,Mo-Su 06:00-23:00,MoneyGram,Q1944412
74044623,moneygram,BNB LANAL - #GN0718 - CONAKRY - BNB TRAN,,CONAKRY,,,GN,+224 623 47 23 23,,Mo-Su 06:00-23:00,MoneyGram,Q1944412
74044461,moneygram,BNB LANTECH - #BGC365 - CONAKRY - BNB TR,,CONAKRY,,,GN,+224 623 47 23 23,,Mo-Su 06:00-23:00,MoneyGram,Q1944412
74044636,moneygram,BNB LONDIA - #GN0860 - CONAKRY - BNB TRA,,CONAKRY,,,GN,+224 623 47 23 23,,Mo-Su 06:00-23:00,MoneyGram,Q1944412
74044568,moneygram,BNB LOURA - #BGC253 - CONAKRY - BNB TRAN,,CONAKRY,,,GN,+224 623 47 23 23,,Mo-Su 06:00-23:00,MoneyGram,Q1944412
74044487,moneygram,BNB MAB - #BGC378 - CONAKRY - BNB TRANSF,,CONAKRY,,,GN,+224 623 47 23 23,,Mo-Su 08:00-20:00,MoneyGram,Q1944412
74044490,moneygram,BNB NETEXP - #BGC239 - CONAKRY - BNB TRA,,CONAKRY,,,GN,+224 623 47 23 23,,Mo-Su 08:00-20:00,MoneyGram,Q1944412
74044542,moneygram,BNB SP - #BGC257 - CONAKRY - BNB TRANSFE,,CONAKRY,,,GN,+224 623 47 23 23,,Mo-Su 06:00-23:00,MoneyGram,Q1944412
74044649,moneygram,BNB SUPNOVA - #GN1139 - CONAKRY - BNB TR,,CONAKRY,,,GN,+224 623 47 23 23,,Mo-Su 06:00-23:00,MoneyGram,Q1944412
74044571,moneygram,BNB TOUNTOUROUN - #BGC204 - CONAKRY - BN,,CONAKRY,,,GN,+224 623 47 23 23,,Mo-Su 08:00-20:00,MoneyGram,Q1944412
74048250,moneygram,BNB GBESSIA OFFICE - #BGC267 - CONAKRY -,,CONAKRY,,,GN,+224 623 47 23 23,,Mo-Su 08:00-20:00,MoneyGram,Q1944412
74071049,moneygram,ETABLISSEMENTS BOGIC LINE - CONAKRY - ET,,CONAKRY,,,GN,+224 628 52 45 54,,Mo-Su 08:00-17:30,MoneyGram,Q1944412
74097492,moneygram,LAGUI TRANSFERT - CONAKRY - ALMAMYA COMM,,CONAKRY,,,GN,+224 666 98 20 20,,Mo-Sa 08:00-18:00; Su 09:00-12:00,MoneyGram,Q1944412
74097502,moneygram,LAGUI TRANSFERT - CONAKRY - GOMBOYAH COM,,CONAKRY,,,GN,+224 666 98 20 20,,Mo-Sa 08:00-18:00; Su 09:00-12:00,MoneyGram,Q1944412
73897923,moneygram,ENTREPRISE IBRAHIMA SORY BAH - CONAKRY,,CONAKRY,,,GN,+224 626 44 94 38,,Mo-Su 08:00-17:30,MoneyGram,Q1944412
74106228,moneygram,CASH MOOV MAIN A MAIN - CONAKRY - DIXINN,,CONAKRY,,,GN,+224 622 48 10 10,,Mo-Sa 08:00-18:00; Su 09:00-12:00,MoneyGram,Q1944412
74106215,moneygram,CASH MOOV MAIN A MAIN - CONAKRY - IMMEUB,,CONAKRY,,,GN,+224 622 48 10 10,,Mo-Sa 08:00-18:00; Su 09:00-12:00,MoneyGram,Q1944412
74111527,moneygram,UBA GUINEA - NZEREKORE - AGENCE NZEREKOR,,NZEREKORE,,,GN,+224 629 46 36 96,,Mo-Fr 08:00-17:00; Sa 09:00-13:00; Su 00:00-24:00,MoneyGram,Q1944412
74129535,moneygram,SOCIETE DIARI MULTI SERVICES - CONAKRY -,,CONAKRY,,,GN,+224 628 47 47 77,,Mo-Sa 08:00-18:00; Su 09:00-12:00,MoneyGram,Q1944412
74129522,moneygram,SOCIETE DIARI MULTI SERVICES - CONAKRY -,,CONAKRY,,,GN,+224 628 47 47 77,,Mo-Sa 08:00-18:00; Su 09:00-12:00,MoneyGram,Q1944412
72246261,moneygram,BNB TRANSFERT SARL - #BGC079 - BNB KAPOR,,CONAKRY,,,GN,+224 623 47 23 23,,Mo-Su 08:30-20:00,MoneyGram,Q1944412
74181832,moneygram,MAMADOU DIAN BARRY KOUFFA ET FRERES - CO,,CONAKRY,,,GN,+224 628 50 40 24,,Mo-Su 08:00-17:30,MoneyGram,Q1944412
74242124,moneygram,UBA GUINEE - 6008 - SIGUIRI - SIGUIRI -,,SIGUIRI,,,GN,+224 629 46 36 96,,Mo-Fr 08:00-17:00; Sa-Su 09:00-13:00,MoneyGram,Q1944412
73369752,moneygram,WELY-WELY TRANSFERT - #48 - LABE -1,,CONAKRY,,,GN,+224 622 13 39 13,,Mo-Sa 08:00-17:00; Su 10:00-14:00,MoneyGram,Q1944412
74274095,moneygram,FBNBANK LABE,,LABE,,,GN,+224 628 44 29 24,,Mo-Fr 08:00-16:30; Sa 08:00-14:00; Su 00:00-24:00,MoneyGram,Q1944412
74320512,moneygram,ROYAL ARK - BONFI,,CONAKRY,,,GN,+224 620 10 43 63,,Mo-Sa 08:00-18:00; Su 00:00-24:00,MoneyGram,Q1944412
74320460,moneygram,ROYAL ARK - CIMENTERIE,,CONAKRY,,,GN,+224 620 10 43 63,,Mo-Sa 08:00-18:00; Su 00:00-24:00,MoneyGram,Q1944412
74320473,moneygram,ROYAL ARK - DIXINN,,CONAKRY,,,GN,+224 620 10 43 63,,Mo-Sa 08:00-18:00; Su 00:00-24:00,MoneyGram,Q1944412
74320457,moneygram,ROYAL ARK - KAGBELEN,,CONAKRY,,,GN,+224 620 10 43 63,,Mo-Sa 08:00-18:00; Su 00:00-24:00,MoneyGram,Q1944412
74320486,moneygram,ROYAL ARK - KALOUM,,CONAKRY,,,GN,+224 620 10 43 63,,Mo-Sa 08:00-18:00; Su 00:00-24:00,MoneyGram,Q1944412
74320509,moneygram,ROYAL ARK - MADINA,,CONAKRY,,,GN,+224 620 10 43 63,,Mo-Sa 08:00-18:00; Su 00:00-24:00,MoneyGram,Q1944412
74320499,moneygram,ROYAL ARK - SONFONIA,,CONAKRY,,,GN,+224 620 10 43 63,,Mo-Sa 08:00-18:00; Su 00:00-24:00,MoneyGram,Q1944412
70099876,moneygram,ORABANK GUINEA - CONAKRY - MADINA,,CONAKRY,,,GN,+224 622 35 00 52,,Mo-Fr 07:00-18:00; Sa 08:00-14:00; Su 00:00-24:00,MoneyGram,Q1944412
70099889,moneygram,ORABANK GUINEA - CONAKRY - SONFONIA,,CONAKRY,,,GN,+224 623 23 50 00,,Mo-Fr 07:00-18:00; Sa 08:00-14:00; Su 00:00-24:00,MoneyGram,Q1944412
70099892,moneygram,ORABANK GUINEA - LABE - LABE,,LABE,,,GN,+224 623 23 50 03,,Mo-Fr 07:00-18:00; Sa 08:00-14:00; Su 00:00-24:00,MoneyGram,Q1944412
70100273,moneygram,ORABANK GUINEA - CONAKRY - MINIERE,,CONAKRY,,,GN,+224 621 35 00 01,,Mo-Fr 07:00-18:00; Sa 08:00-14:00; Su 00:00-24:00,MoneyGram,Q1944412
70100286,moneygram,ORABANK GUINEA - CONAKRY - MATOTO,,CONAKRY,,,GN,+224 621 35 00 03,,Mo-Fr 07:00-18:00; Sa 08:00-14:00; Su 00:00-24:00,MoneyGram,Q1944412
70100299,moneygram,ORABANK GUINEA - CONAKRY - LAMBANYI,,CONAKRY,,,GN,+224 621 35 00 12,,Mo-Fr 07:00-18:00; Sa 08:00-14:00; Su 00:00-24:00,MoneyGram,Q1944412
70100309,moneygram,ORABANK GUINEA - CONAKRY - KAGBELEN,,CONAKRY,,,GN,+224 623 23 50 04,,Mo-Fr 07:00-18:00; Sa 08:00-14:00; Su 00:00-24:00,MoneyGram,Q1944412
70100312,moneygram,ORABANK GUINEA - FRIA - FRIA,,FRIA,,,GN,+224 622 35 00 88,,Mo-Fr 07:00-18:00; Sa 08:00-14:00; Su 00:00-24:00,MoneyGram,Q1944412
70100325,moneygram,ORABANK GUINEA - KANKAN - KANKAN,,KANKAN,,,GN,+224 621 35 00 17,,Mo-Fr 07:00-18:00; Sa 08:00-14:00; Su 00:00-24:00,MoneyGram,Q1944412
70100338,moneygram,ORABANK GUINEA - NZEREKORE - NZEREKORE,,NZEREKORE,,,GN,+224 622 35 00 78,,Mo-Fr 07:00-18:00; Sa 08:00-14:00; Su 00:00-24:00,MoneyGram,Q1944412
70101162,moneygram,ORABANK GUINEA - KAMSAR - KAMSAR,,KAMSAR,,,GN,+224 623 23 50 02,,Mo-Fr 07:00-18:00; Sa 08:00-14:00; Su 00:00-24:00,MoneyGram,Q1944412
70100341,moneygram,ORABANK GUINEA - COLLEYAH - COLLEYAH,,COLLEYAH,,,GN,+224 628 34 34 37,,Mo-Fr 07:00-18:00; Sa 08:00-14:00; Su 00:00-24:00,MoneyGram,Q1944412
70101159,moneygram,ORABANK GUINEA - CONAKRY - KALOUM,,CONAKRY,,,GN,+224 622 35 90 90,,Mo-Fr 07:00-18:00; Sa 08:00-14:00; Su 00:00-24:00,MoneyGram,Q1944412
74313273,moneygram,KADIATOU SOW - KADIATOU SOW-SARL HEAD OF,,CONAKRY,,,GN,+224 626 36 00 64,,Mo-Su 08:00-19:00,MoneyGram,Q1944412
74313396,moneygram,KADIATOU SOW - KS PAY YEMBEYA MARCHE,,CONAKRY,,,GN,+224 622 29 39 39,,Mo-Su 08:00-19:00,MoneyGram,Q1944412
74313370,moneygram,KADIATOU SOW - KS-PAY DIXIN PHARMACIE,,CONAKRY,,,GN,+224 622 04 73 09,,Mo-Su 08:00-19:00,MoneyGram,Q1944412
74313406,moneygram,KADIATOU SOW - KS-PAY ENCO5,,CONAKRY,,,GN,+224 629 88 45 65,,Mo-Su 08:00-19:00,MoneyGram,Q1944412
74313383,moneygram,KADIATOU SOW - KS-PAY LINSAN MARCHE,,KINDIA,,,GN,+224 622 80 74 33,,Mo-Su 08:00-19:00,MoneyGram,Q1944412
74390979,moneygram,ROYAL ARK FOREIGN EXCHANGE BUREAU SARL -,,CONAKRY,,,GN,+224 620 10 43 63,,24/7,MoneyGram,Q1944412
74199730,moneygram,BNB 224 TECH PRO - #GN1181 - CONAKRY - B,,CONAKRY,,,GN,+224 623 47 23 23,,Mo-Su 06:00-23:00,MoneyGram,Q1944412
74199581,moneygram,BNB BAH ET BALDE - #GN1214 - CONAKRY - B,,CONAKRY,,,GN,+224 623 47 23 23,,Mo-Su 06:00-23:00,MoneyGram,Q1944412
74199675,moneygram,BNB BOUNDOUI ET FRERE - #GN1083 - CONAKR,,CONAKRY,,,GN,+224 623 47 23 23,,Mo-Su 06:00-23:00,MoneyGram,Q1944412
74199565,moneygram,BNB DIALLO AMADOU BHOYE ET FRERE - #GN10,,CONAKRY,,,GN,+224 623 47 23 23,,Mo-Su 06:00-23:00,MoneyGram,Q1944412
74199727,moneygram,BNB DIALLO IBRAHIMA BALE - #GN1136 - CON,,CONAKRY,,,GN,+224 623 47 23 23,,Mo-Su 06:00-23:00,MoneyGram,Q1944412
74199808,moneygram,BNB DIALLO MAMADOU YACINE ET FILS - #GN1,,CONAKRY,,,GN,+224 623 47 23 23,,Mo-Su 06:00-23:00,MoneyGram,Q1944412
74199688,moneygram,BNB DOUKOURE ET FRERES - #GN1106 - N'ZER,,N'ZEREKORE,,,GN,+224 623 47 23 23,,Mo-Su 06:00-23:00,MoneyGram,Q1944412
74199604,moneygram,BNB ETA VISION TECH - #GN0156 - CONAKRY,,CONAKRY,,,GN,+224 623 47 23 23,,Mo-Su 06:00-23:00,MoneyGram,Q1944412
74199756,moneygram,BNB MAMADOU DIAN BARRY KOUFFA ET FRERE -,,CONAKRY,,,GN,+224 623 47 23 23,,Mo-Su 06:00-23:00,MoneyGram,Q1944412
74199714,moneygram,BNB MOUSTAPHA CONDE ET FRERES - #GN1131,,FARANAH,,,GN,+224 623 47 23 23,,Mo-Su 06:00-23:00,MoneyGram,Q1944412
74199617,moneygram,BNB NIAGARA MULTI-SERVICE - #GN0713 - CO,,CONAKRY,,,GN,+224 623 47 23 23,,Mo-Su 06:00-23:00,MoneyGram,Q1944412
74199662,moneygram,BNB SALIOU DIAO BAH - #GN1042 - DUBREKA,,DUBREKA,,,GN,+224 623 47 23 23,,Mo-Su 06:00-23:00,MoneyGram,Q1944412
74199811,moneygram,BNB SUPER NOVA GUINEE-SARLU - #GN1139 -,,CONAKRY,,,GN,+224 623 47 23 23,,Mo-Su 06:00-23:00,MoneyGram,Q1944412
74199701,moneygram,BNB TAOB BUSINESS - #GN1131 - CONAKRY -,,CONAKRY,,,GN,+224 623 47 23 23,,Mo-Su 06:00-23:00,MoneyGram,Q1944412
74199772,moneygram,BNB TIGUID - #GN1271 - CONAKRY - BNB TRA,,CONAKRY,,,GN,+224 623 47 23 23,,Mo-Su 06:00-23:00,MoneyGram,Q1944412
74430703,moneygram,ETABLISSEMENT OUSMANE TANOU DIALLO,,LABE,,,GN,+224 628 25 89 49,,Mo-Sa 08:00-18:00; Su 09:00-13:00,MoneyGram,Q1944412
74414295,moneygram,ORABANK GUINEE  AGENCE KINDIA,,CONAKRY,,,GN,+224 627 27 03 22,,Mo-Su 08:00-18:00,MoneyGram,Q1944412
74414266,moneygram,ORABANK GUINEE  AGENCE MADINA 2,,CONAKRY,,,GN,+224 627 27 03 22,,Mo-Su 08:00-18:00,MoneyGram,Q1944412
74414279,moneygram,ORABANK GUINEE  AGENCE MATAM,,CONAKRY,,,GN,+224 627 27 03 22,,Mo-Su 08:00-18:00,MoneyGram,Q1944412
74414282,moneygram,ORABANK GUINEE  AGENCE SANGAREDI,,CONAKRY,,,GN,+224 627 27 03 22,,Mo-Su 08:00-18:00,MoneyGram,Q1944412
74415553,moneygram,ROYAL ARK ALMAMYA - ROYAL ARK FOREIGN EX,,CONAKRY,,,GN,+224 620 10 43 63,,Mo-Su 08:00-18:00,MoneyGram,Q1944412
74419818,moneygram,ROYAL ARK FOREIGN EXCHANGE BUREAU SARL -,,CONAKRY,,,GN,+224 620 10 43 63,,Mo-Su 08:00-18:00,MoneyGram,Q1944412
74430444,moneygram,ROYAL ARK FOREIGN EXCHANGE BUREAU SARL -,,CONAKRY,,,GN,+224 620 10 43 63,,Mo-Su 08:00-18:00,MoneyGram,Q1944412
74437625,moneygram,ROYAL ARK COBAYAH - ROYAL ARK FOREIGN EX,,CONAKRY,,,GN,+224 620 10 43 63,,Mo-Su 08:00-18:00,MoneyGram,Q1944412
74446700,moneygram,ROYAL ARK FOREIGN EXCHANGE BUREAU SARL -,,CONAKRY,,,GN,+224 620 10 43 63,,Mo-Su 08:00-18:00,MoneyGram,Q1944412
74448782,moneygram,ROYAL ARK FOREIGN EXCHANGE BUREAU SARL -,,CONAKRY,,,GN,+224 620 10 43 63,,Mo-Su 08:00-18:00,MoneyGram,Q1944412
74313325,moneygram,KADIATOU SOW - KS-PAY DABOMPA,,CONAKRY,,,GN,+224 622 67 91 73,,Mo-Su 08:00-19:00,MoneyGram,Q1944412
74313299,moneygram,KADIATOU SOW - KS-PAY DINGUIRAYE PREFECT,,DINGUIRAYE,,,GN,+224 621 21 27 28,,Mo-Su 08:00-19:00,MoneyGram,Q1944412
74313354,moneygram,KADIATOU SOW - KS-PAY KINDIA MARCHE,,KINDIA,,,GN,+224 620 69 63 95,,Mo-Su 08:00-19:00,MoneyGram,Q1944412
74313367,moneygram,KADIATOU SOW - KS-PAY LINSAN GENDARMERIE,,KINDIA,,,GN,+224 620 40 43 08,,Mo-Su 08:00-19:00,MoneyGram,Q1944412
74313338,moneygram,KADIATOU SOW - KS-PAY MADINA CENTRE FALL,,CONAKRY,,,GN,+224 625 35 95 24,,Mo-Su 08:00-19:00,MoneyGram,Q1944412
74313286,moneygram,KADIATOU SOW - KS-PAY MADINA2,,CONAKRY,,,GN,+224 624 11 40 85,,Mo-Su 08:00-19:00,MoneyGram,Q1944412
74313309,moneygram,KADIATOU SOW - KS-PAY MANQUEPAS BANQUE I,,KINDIA,,,GN,+224 624 11 40 85,,Mo-Su 08:00-19:00,MoneyGram,Q1944412
74313312,moneygram,KADIATOU SOW - KS-PAY MANQUEPAS SOCIETE,,KINDIA,,,GN,+224 628 89 37 63,,Mo-Su 08:00-19:00,MoneyGram,Q1944412
74313341,moneygram,KADIATOU SOW - KS-PAY MATAGANIA,,DINGUIRAYE,,,GN,+224 624 98 96 97,,Mo-Su 08:00-19:00,MoneyGram,Q1944412
74452723,moneygram,ROYAL ARK FOREIGN EXCHANGE BUREAU SARL -,,CONAKRY,,,GN,+224 620 10 43 63,,Mo-Su 08:00-18:00,MoneyGram,Q1944412
74460883,moneygram,ROYAL ARK FOREIGN EXCHANGE BUREAU SARL -,,CONAKRY,,,GN,+224 620 10 43 63,,Mo-Su 08:00-18:00,MoneyGram,Q1944412
74464067,moneygram,ROYAL ARK FOREIGN EXCHANGE BUREAU SARL -,,CONAKRY,,,GN,+224 620 10 43 63,,Mo-Su 08:00-18:00,MoneyGram,Q1944412
74466816,moneygram,ROYAL ARK FOREIGN EXCHANGE BUREAU-SARL -,,CONAKRY,,,GN,+224 620 10 43 63,,Mo-Su 08:00-21:00,MoneyGram,Q1944412
74466861,moneygram,ROYAL ARK FOREIGN EXCHANGE BUREAU-SARL -,,CONAKRY,,,GN,+224 620 10 43 63,,Mo-Su 08:00-21:00,MoneyGram,Q1944412
70367139,moneygram,MICROBIT - SANGAREDI,,SANGAREDI,,,GN,+224 657 21 37 55,,Mo-Th 08:00-18:00; Fr 08:00-17:00; Sa 08:00-16:00; Su 00:00-24:00,MoneyGram,Q1944412
70366305,moneygram,MICROBIT - KOUNDARA,,KOUNDARA,,,GN,+224 656 56 09 11,,Mo-Th 08:00-18:00; Fr 08:00-17:00; Sa 08:00-16:00; Su 00:00-24:00,MoneyGram,Q1944412
70366295,moneygram,MICROBIT - FORECARIAH,,FORECARIAH,,,GN,+224 657 21 41 37,,Mo-Th 08:00-18:00; Fr 08:00-17:00; Sa 08:00-16:00; Su 00:00-24:00,MoneyGram,Q1944412
74469004,moneygram,ROYAL ARK FOREIGN EXCHANGE BUREAU-SARL -,,CONAKRY,,,GN,+224 620 10 43 63,,Mo-Su 08:00-21:00,MoneyGram,Q1944412
74470433,moneygram,CEINATEC,,CONAKRY,,,GN,+224 620 10 43 63,,Mo-Su 07:00-19:00,MoneyGram,Q1944412
74474549,moneygram,ROYAL ARK FOREIGN EXCHANGE BUREAU-SARL -,,CONAKRY,,,GN,+224 620 10 43 63,,Mo-Su 08:00-21:00,MoneyGram,Q1944412
74474743,moneygram,ROYAL ARK LAMBANGNY - CONAKRY,,CONAKRY,,,GN,+224 620 10 43 63,,Mo-Su 08:00-21:00,MoneyGram,Q1944412
74486922,moneygram,ENTREPRISE ALPHA BARRY & FRERES,,CONAKRY,,,GN,+224 621 60 15 89,,Mo-Sa 08:00-18:00; Su 09:00-13:00,MoneyGram,Q1944412
74486919,moneygram,ENTREPRISE ALPHA BARRY & FRERES,,DUBREKA,,,GN,+224 628 25 89 49,,Mo-Sa 08:00-18:00; Su 09:00-13:00,MoneyGram,Q1944412
74485538,moneygram,ROYAL ARK TANNERIE - CONAKRY,,CONAKRY,,,GN,+224 620 10 43 63,,Mo-Su 08:00-21:00,MoneyGram,Q1944412
74487552,moneygram,ROYAL ARK FOREIGN EXCHANGE BUREAU-SARL -,,CONAKRY,,,GN,+224 620 10 43 63,,Mo-Su 08:00-21:00,MoneyGram,Q1944412
74430732,moneygram,ETABLISSEMENT OUSMANE TANOU DIALLO,,LABE,,,GN,+224 611 25 89 49,,Mo-Sa 08:00-18:00; Su 09:00-13:00,MoneyGram,Q1944412
74492916,moneygram,ROYAL ARK FOREIGN EXCHANGE BUREAU-SARL -,,CONAKRY,,,GN,+224 620 10 43 63,,Mo-Su 08:00-21:00,MoneyGram,Q1944412
74493423,moneygram,ROYAL ARK LANSANAYAH BARRAGE - CONAKRY,,CONAKRY,,,GN,+224 620 10 43 63,,Mo-Su 07:00-22:00,MoneyGram,Q1944412
74430729,moneygram,ETABLISSEMENT OUSMANE TANOU DIALLO,,LABE,,,GN,+224 621 60 15 89,,Mo-Sa 08:00-18:00; Su 09:00-13:00,MoneyGram,Q1944412
74534049,moneygram,ROYAL ARK FOREIGN EXCHANGE BUREAU SARL -,,CONAKRY,,,GN,+224 620 10 43 63,,Mo-Su 08:00-21:00,MoneyGram,Q1944412
74535365,moneygram,ROYAL ARK WANINDARA - CONAKRY,,CONAKRY,,,GN,+224 620 10 43 63,,Mo-Su 08:00-21:00,MoneyGram,Q1944412
70446199,moneygram,UBA GUINEA - #6002 - CONAKRY - MADINA,,CONAKRY,,,GN,+224 628 35 68 68,,Mo-Fr 08:00-17:00; Sa 09:00-13:00; Su 00:00-24:00,MoneyGram,Q1944412
70446283,moneygram,UBA GUINEA - #6006 - LABE - LABE,,LABE,,,GN,+224 628 35 68 68,,Mo-Fr 08:00-17:00; Sa 09:00-13:00; Su 00:00-24:00,MoneyGram,Q1944412
70446076,moneygram,UBA GUINEA - #6003 - CONAKRY - MATOTO,,CONAKRY,,,GN,+224 628 35 68 68,,Mo-Fr 08:00-17:00; Sa 09:00-13:00; Su 00:00-24:00,MoneyGram,Q1944412
70446209,moneygram,UBA GUINEA - #6004 - CONAKRY - KAGBELEN,,CONAKRY,,,GN,+224 628 35 68 68,,Mo-Fr 08:00-17:00; Sa 09:00-13:00; Su 00:00-24:00,MoneyGram,Q1944412
70448663,moneygram,MICROBIT - CONAKRY,,CONAKRY,,,GN,+224 656 01 28 90,,Mo-Th 08:00-18:00; Fr 08:00-17:00; Sa 08:00-16:00; Su 00:00-24:00,MoneyGram,Q1944412
74610633,moneygram,BAH TRANS SARLU - BATRANS-COSA,,CONAKRY,,,GN,+224 628 86 94 35,,Mo-Sa 08:00-20:00; Su 00:00-24:00,MoneyGram,Q1944412
74610620,moneygram,BAH TRANS SARLU - BATRANS-NIGER-P,,CONAKRY,,,GN,+224 628 86 94 35,,Mo-Sa 08:00-20:00; Su 00:00-24:00,MoneyGram,Q1944412
74610646,moneygram,BAH TRANS SARLU - BATRANS-SIEGE,,CONAKRY,,,GN,+224 628 86 94 35,,Mo-Sa 08:00-20:00; Su 00:00-24:00,MoneyGram,Q1944412
74320431,moneygram,ROYAL ARK - HEAD OFFICE,,CONAKRY,,,GN,+224 620 10 43 63,,Mo-Su 07:00-22:00,MoneyGram,Q1944412
74633678,moneygram,DAK FRIA - FRIA,,FRIA,,,GN,+224 628 41 07 32,,Mo-Su 08:00-18:00,MoneyGram,Q1944412
74633681,moneygram,DAK KALOUM - CONAKRY,,CONAKRY,,,GN,+224 628 35 99 66,,Mo-Su 08:00-18:00,MoneyGram,Q1944412
74633665,moneygram,DAK KM 5 - DUBREKA,,DUBREKA,,,GN,+224 621 92 10 26,,Mo-Su 08:00-18:00,MoneyGram,Q1944412
70413931,moneygram,BNB TRANSFERT SARL - #BGC001 - CONAKRY -,,CONAKRY,,,GN,+224 661 42 40 93,,Mo-Su 08:00-19:00,MoneyGram,Q1944412
74644887,moneygram,ROYAL ARK COYAH,,CONAKRY,,,GN,+224 620 10 43 63,,Mo-Su 08:00-21:00,MoneyGram,Q1944412
74644667,moneygram,ROYAL ARK FOREIGN EXCHANGE BUREAU-SARL -,,CONAKRY,,,GN,+224 620 10 43 63,,Mo-Su 07:00-22:00,MoneyGram,Q1944412
74645899,moneygram,ROYAL ARK ENCO 5 - CONAKRY,,CONAKRY,,,GN,+224 620 10 43 63,,Mo-Su 07:00-22:00,MoneyGram,Q1944412
70529401,moneygram,MICROBIT - CONAKRY - SONFONIA GARE,,CONAKRY,,,GN,+224 664 71 83 99,,Mo-Th 08:00-18:00; Fr 08:00-17:00; Sa 08:00-16:00; Su 00:00-24:00,MoneyGram,Q1944412
74666328,moneygram,TUDOR - TUDOR ALMAMYA,,CONAKRY,,,GN,+224 622 19 79 65,,Mo-Sa 08:00-20:00; Su 00:00-24:00,MoneyGram,Q1944412
74666292,moneygram,TUDOR - TUDOR BAMBETO 1,,CONAKRY,,,GN,+224 622 19 79 65,,Mo-Sa 08:00-20:00; Su 00:00-24:00,MoneyGram,Q1944412
74666302,moneygram,TUDOR - TUDOR BAMBETO 2,,CONAKRY,,,GN,+224 622 19 79 65,,Mo-Sa 08:00-20:00; Su 00:00-24:00,MoneyGram,Q1944412
74666331,moneygram,TUDOR - TUDOR SAMATRAN,,CONAKRY,,,GN,+224 622 19 79 65,,Mo-Sa 08:00-20:00; Su 00:00-24:00,MoneyGram,Q1944412
74666315,moneygram,TUDOR - TUDOR SANDERVALIA,,CONAKRY,,,GN,+224 622 19 79 65,,Mo-Sa 08:00-20:00; Su 00:00-24:00,MoneyGram,Q1944412
74690284,moneygram,NAFA FINANCE SARL - ETABLISSEMENT KOUNTA,,CONAKRY,,,GN,+224 628 83 43 23,,Mo-Su 08:00-18:00,MoneyGram,Q1944412
74690404,moneygram,NAFA FINANCE SARL - ETS ABDOULAYE GOUBA,,CONAKRY,,,GN,+224 622 33 34 42,,Mo-Su 08:00-18:00,MoneyGram,Q1944412
74690433,moneygram,NAFA FINANCE SARL - ETS SOUNKE MULTI-SER,,CONAKRY,,,GN,+224 622 65 71 58,,Mo-Su 08:00-18:00,MoneyGram,Q1944412
74699968,moneygram,GONGORE STORE - CONAKRY,,CONAKRY,,,GN,+224 625 25 00 08,,Mo-Su 08:00-18:00,MoneyGram,Q1944412
74699942,moneygram,FATIMA MS - CONAKRY,,CONAKRY,,,GN,+224 625 25 00 08,,Mo-Su 08:00-18:00,MoneyGram,Q1944412
74699955,moneygram,DIALLO ALGASSIM - FRIA,,FRIA,,,GN,+224 625 25 00 08,,Mo-Su 08:00-18:00,MoneyGram,Q1944412
74690336,moneygram,NAFA FINANCE SARL - ETS MOHAMED LALYA BA,,CONAKRY,,,GN,+224 628 40 28 93,,Mo-Su 08:00-18:00,MoneyGram,Q1944412
74690323,moneygram,NAFA FINANCE SARL - ETS TINTY DISTRIBUTI,,CONAKRY,,,GN,+224 626 30 14 30,,Mo-Su 08:00-18:00,MoneyGram,Q1944412
74699939,moneygram,AZIZ SERVICES RAPIDES - CONAKRY,,CONAKRY,,,GN,+224 625 25 00 08,,Mo-Su 08:00-18:00,MoneyGram,Q1944412
74690365,moneygram,NAFA FINANCE SARL - AMADOU BOBO DIALLO,,KINDIA,,,GN,+224 621 60 15 75,,Mo-Su 08:00-18:00,MoneyGram,Q1944412
74690420,moneygram,NAFA FINANCE SARL - ETS LELOU-TECH-BUSIN,,DUBREKA,,,GN,+224 628 95 58 23,,Mo-Su 08:00-18:00,MoneyGram,Q1944412
74690381,moneygram,NAFA FINANCE SARL - ENTREPRISE GENIE PRE,,CONAKRY,,,GN,+224 628 65 23 06,,Mo-Su 08:00-18:00,MoneyGram,Q1944412
74699926,moneygram,CASHMINUTE MADINA - CONAKRY,,CONAKRY,,,GN,+224 625 25 00 08,,Mo-Su 08:00-18:00,MoneyGram,Q1944412
74690297,moneygram,NAFA FINANCE SARL - ETABLISSEMENT KOUNTA,,KINDIA,,,GN,+224 628 83 43 23,,Mo-Su 08:00-18:00,MoneyGram,Q1944412
74690378,moneygram,NAFA FINANCE SARL - ETS AFANA DIALLO,,KINDIA,,,GN,+224 623 23 60 15,,Mo-Su 08:00-18:00,MoneyGram,Q1944412
74690417,moneygram,NAFA FINANCE SARL - ETS DAZ,,KINDIA,,,GN,+224 625 70 93 34,,Mo-Su 08:00-18:00,MoneyGram,Q1944412
74690349,moneygram,NAFA FINANCE SARL - ETS GONGORE TRANSFER,,CONAKRY,,,GN,+224 628 17 85 58,,Mo-Su 08:00-18:00,MoneyGram,Q1944412
74690307,moneygram,NAFA FINANCE SARL - ETABLISSEMENT KOUNTA,,LABE,,,GN,+224 628 83 43 23,,Mo-Su 08:00-18:00,MoneyGram,Q1944412
74690310,moneygram,NAFA FINANCE SARL - ETS TOUFE & FILS,,CONAKRY,,,GN,+224 628 17 36 48,,Mo-Su 08:00-18:00,MoneyGram,Q1944412
74690394,moneygram,NAFA FINANCE SARL - ETS AICHA DIALLO TRA,,CONAKRY,,,GN,+224 624 77 90 77,,Mo-Su 08:00-18:00,MoneyGram,Q1944412
74690352,moneygram,NAFA FINANCE SARL - ETS AFROTECH,,CONAKRY,,,GN,+224 621 47 19 74,,Mo-Su 08:00-18:00,MoneyGram,Q1944412
74699913,moneygram,CASHMINUTE HEAD OFFICE - CONAKRY,,CONAKRY,,,GN,+224 625 25 00 08,,Mo-Su 08:00-18:00,MoneyGram,Q1944412
74676347,moneygram,S.G.T,,CONAKRY,,,GN,+224 622 67 87 37,,Mo-Sa 08:00-18:00; Su 08:00-12:00,MoneyGram,Q1944412
73301804,moneygram,SOFIG - CONAKRY - AEROPORT,,CONAKRY,,,GN,+224 629 26 27 54,,Mo-Sa 08:00-19:00; Su 00:00-24:00,MoneyGram,Q1944412
73302269,moneygram,SOFIG - CONAKRY - MATOTO SBK,,CONAKRY,,,GN,+224 625 25 32 27,,Mo-Sa 08:00-19:00; Su 00:00-24:00,MoneyGram,Q1944412
73302023,moneygram,SOFIG - CONAKRY - GOLFE1,,CONAKRY,,,GN,+224 629 29 27 73,,Mo-Sa 08:00-19:00; Su 00:00-24:00,MoneyGram,Q1944412
73301901,moneygram,SOFIG - CONAKRY - DABOMPA,,CONAKRY,,,GN,+224 625 25 32 28,,Mo-Sa 08:00-19:00; Su 00:00-24:00,MoneyGram,Q1944412
73301888,moneygram,SOFIG - CONAKRY - CONSTANTIN,,CONAKRY,,,GN,+224 629 29 27 61,,Mo-Sa 08:00-19:00; Su 00:00-24:00,MoneyGram,Q1944412
73302094,moneygram,SOFIG - KEFINNA - KANKAN1,,KEFINNA,,,GN,+224 625 25 32 26,,Mo-Sa 08:00-19:00; Su 00:00-24:00,MoneyGram,Q1944412
73302120,moneygram,SOFIG - CONAKRY - KIPE,,CONAKRY,,,GN,+224 629 29 27 72,,Mo-Sa 08:00-19:00; Su 00:00-24:00,MoneyGram,Q1944412
73301862,moneygram,SOFIG - CONAKRY - BOULEVARD,,CONAKRY,,,GN,+224 629 29 27 66,,Mo-Sa 08:00-19:00; Su 00:00-24:00,MoneyGram,Q1944412
73301956,moneygram,SOFIG - CONAKRY - ENTA,,CONAKRY,,,GN,+224 629 29 27 75,,Mo-Sa 08:00-19:00; Su 00:00-24:00,MoneyGram,Q1944412
73302324,moneygram,SOFIG - CONAKRY - SONFONIA,,CONAKRY,,,GN,+224 629 29 27 69,,Mo-Sa 08:00-19:00; Su 00:00-24:00,MoneyGram,Q1944412
73302308,moneygram,SOFIG - CONAKRY - SANGAREDI,,CONAKRY,,,GN,+224 627 40 50 85,,Mo-Sa 08:00-19:00; Su 00:00-24:00,MoneyGram,Q1944412
74068874,moneygram,SOFIG - #70 - KINDIA - SANOYAH,,KINDIA,,,GN,+224 629 00 59 49,,Mo-Sa 08:00-19:00; Su 00:00-24:00,MoneyGram,Q1944412
73302010,moneygram,SOFIG - GBESSIA - GBESSIA ROND POINT,,GBESSIA,,,GN,+224 629 30 25 02,,Mo-Sa 08:00-19:00; Su 00:00-24:00,MoneyGram,Q1944412
74350304,moneygram,SOFIG SA - #77 - COYAH - WONKIFON,,COYAH,,,GN,+224 629 30 25 03,,Mo-Fr 08:00-19:00; Sa 08:00-18:00; Su 00:00-24:00,MoneyGram,Q1944412
73971548,moneygram,SOFIG - CONAKRY - KISSOSSO,,CONAKRY,,,GN,+224 622 20 20 31,,Mo-Sa 08:00-19:00; Su 00:00-24:00,MoneyGram,Q1944412
73301943,moneygram,SOFIG - CONAKRY - ENCO5,,CONAKRY,,,GN,+224 629 29 27 71,,Mo-Sa 08:00-19:00; Su 00:00-24:00,MoneyGram,Q1944412
73302227,moneygram,SOFIG - LOLA - LOLA,,LOLA,,,GN,+224 629 00 59 45,,Mo-Sa 08:00-19:00; Su 00:00-24:00,MoneyGram,Q1944412
73971551,moneygram,SOFIG - NZEREKORE - NZEREKORE2,,NZEREKORE,,,GN,+224 629 00 59 46,,Mo-Sa 08:00-19:00; Su 00:00-24:00,MoneyGram,Q1944412
74350281,moneygram,SOFIG SA - #75 - SIGUIRI - BALATO,,SIGUIRI,,,GN,+224 629 30 25 03,,Mo-Fr 08:00-19:00; Sa 08:00-18:00; Su 00:00-24:00,MoneyGram,Q1944412
73302230,moneygram,SOFIG - MACENTA - MACENTA,,MACENTA,,,GN,+224 626 59 68 69,,Mo-Sa 08:00-19:00; Su 00:00-24:00,MoneyGram,Q1944412
73302214,moneygram,SOFIG - CONAKRY - LANSANAYA BARRAGE,,CONAKRY,,,GN,+224 626 43 97 74,,Mo-Sa 08:00-19:00; Su 00:00-24:00,MoneyGram,Q1944412
73302065,moneygram,SOFIG - KAMASAR - KAMSAR,,KAMASAR,,,GN,+224 626 26 27 86,,Mo-Sa 08:00-19:00; Su 00:00-24:00,MoneyGram,Q1944412
73302146,moneygram,SOFIG - KOLABOUNDJI - KM36,,KOLABOUNDJI,,,GN,+224 628 43 54 89,,Mo-Sa 08:00-19:00; Su 00:00-24:00,MoneyGram,Q1944412
73302081,moneygram,SOFIG - M'BALIA - KANKAN 2,,M'BALIA,,,GN,+224 627 27 06 30,,Mo-Sa 08:00-19:00; Su 00:00-24:00,MoneyGram,Q1944412
73302337,moneygram,SOFIG - CONAKRY - SANGOYAH,,CONAKRY,,,GN,+224 626 43 97 78,,Mo-Sa 08:00-19:00; Su 00:00-24:00,MoneyGram,Q1944412
73301820,moneygram,SOFIG - CONAKRY - BELLE VUE,,CONAKRY,,,GN,+224 629 00 59 48,,Mo-Sa 08:00-19:00; Su 00:00-24:00,MoneyGram,Q1944412
73302285,moneygram,SOFIG - CONAKRY - NONGO,,CONAKRY,,,GN,+224 627 27 03 80,,Mo-Sa 08:00-19:00; Su 00:00-24:00,MoneyGram,Q1944412
74250695,moneygram,SOFIG SA - KINDIA - SANOYAH1,,KINDIA,,,GN,+224 627 27 26 87,,Mo-Fr 08:00-19:00; Sa 08:00-18:00; Su 00:00-24:00,MoneyGram,Q1944412
73302036,moneygram,SOFIG - CONAKRY - GOLFE2,,CONAKRY,,,GN,+224 629 29 27 58,,Mo-Sa 08:00-19:00; Su 00:00-24:00,MoneyGram,Q1944412
73302311,moneygram,SOFIG - SIGUIRI - SIGUIRI,,SIGUIRI,,,GN,+224 623 05 95 75,,Mo-Sa 08:00-19:00; Su 00:00-24:00,MoneyGram,Q1944412
74188864,moneygram,SOFIG - CONAKRY - SIMBAYA,,CONAKRY,,,GN,+224 627 27 26 86,,Mo-Sa 08:00-19:00; Su 00:00-24:00,MoneyGram,Q1944412
73301927,moneygram,SOFIG - DINGUIRAYE - DINGUIRAYE,,DINGUIRAYE,,,GN,+224 626 43 89 65,,Mo-Sa 08:00-19:00; Su 00:00-24:00,MoneyGram,Q1944412
73301914,moneygram,SOFIG - COYAH - COYAH,,COYAH,,,GN,+224 626 47 08 14,,Mo-Sa 08:00-19:00; Su 00:00-24:00,MoneyGram,Q1944412
73302078,moneygram,SOFIG - KAMSAR - KAMSAR CITE,,KAMSAR,,,GN,+224 629 00 43 98,,Mo-Sa 08:00-19:00; Su 00:00-24:00,MoneyGram,Q1944412
74068861,moneygram,SOFIG - #69 - COYAH - GOMBOYAH 2,,COYAH,,,GN,+224 629 30 25 03,,Mo-Sa 08:00-19:00; Su 00:00-24:00,MoneyGram,Q1944412
73301972,moneygram,SOFIG - CONAKRY - FATAKO,,CONAKRY,,,GN,+224 629 29 27 67,,Mo-Sa 08:00-19:00; Su 00:00-24:00,MoneyGram,Q1944412
73301817,moneygram,SOFIG - CONAKRY - BAMBETO,,CONAKRY,,,GN,+224 629 29 27 62,,Mo-Sa 08:00-19:00; Su 00:00-24:00,MoneyGram,Q1944412
73301859,moneygram,SOFIG - BOFFA - BOFFA,,BOFFA,,,GN,+224 626 43 88 74,,Mo-Sa 08:00-19:00; Su 00:00-24:00,MoneyGram,Q1944412
74068845,moneygram,SOFIG - #67 - NZEREKORE - BEYLA,,NZEREKORE,,,GN,+224 628 43 35 00,,Mo-Sa 08:00-19:00; Su 00:00-24:00,MoneyGram,Q1944412
73301833,moneygram,SOFIG - BOKE - BOKE,,BOKE,,,GN,+224 623 25 03 86,,Mo-Sa 08:00-19:00; Su 00:00-24:00,MoneyGram,Q1944412
73301969,moneygram,SOFIG - FARANAH - FARANAH,,FARANAH,,,GN,+224 629 29 34 46,,Mo-Sa 08:00-19:00; Su 00:00-24:00,MoneyGram,Q1944412
73302104,moneygram,SOFIG - KINDIA - KINDIA1,,KINDIA,,,GN,+224 628 43 35 64,,Mo-Sa 08:00-19:00; Su 00:00-24:00,MoneyGram,Q1944412
74350265,moneygram,SOFIG SA - #73 - BOKE - SANGAREDI 2,,BOKE,,,GN,+224 628 43 35 00,,Mo-Fr 08:00-19:00; Sa 08:00-18:00; Su 00:00-24:00,MoneyGram,Q1944412
73301891,moneygram,SOFIG - CONAKRY - COSA,,CONAKRY,,,GN,+224 629 29 27 63,,Mo-Sa 08:00-19:00; Su 00:00-24:00,MoneyGram,Q1944412
73971564,moneygram,SOFIG - CONAKRY - SANGOYAH1,,CONAKRY,,,GN,+224 626 43 97 78,,Mo-Sa 08:00-19:00; Su 00:00-24:00,MoneyGram,Q1944412
73971577,moneygram,SOFIG - CONAKRY - TANENE,,CONAKRY,,,GN,+224 629 00 59 47,,Mo-Sa 08:00-19:00; Su 00:00-24:00,MoneyGram,Q1944412
74350278,moneygram,SOFIG SA - #74 - CONAKRY - SONFONIA 2,,CONAKRY,,,GN,+224 629 30 25 03,,Mo-Fr 08:00-19:00; Sa 08:00-18:00; Su 00:00-24:00,MoneyGram,Q1944412
73302201,moneygram,SOFIG - CONAKRY - LAMBANYI,,CONAKRY,,,GN,+224 627 27 03 81,,Mo-Sa 08:00-19:00; Su 00:00-24:00,MoneyGram,Q1944412
73302382,moneygram,SOFIG - CONAKRY - WANINDARA T5,,CONAKRY,,,GN,+224 625 25 79 75,,Mo-Sa 08:00-19:00; Su 00:00-24:00,MoneyGram,Q1944412
74068890,moneygram,SOFIG - #72 - CONAKRY - MATAM CARREFOUR,,CONAKRY,,,GN,+224 627 27 26 87,,Mo-Sa 08:00-19:00; Su 00:00-24:00,MoneyGram,Q1944412
73302133,moneygram,SOFIG - KISSIDOUGOU - KISSIDOUGOU,,KISSIDOUGOU,,,GN,+224 627 27 06 31,,Mo-Sa 08:00-19:00; Su 00:00-24:00,MoneyGram,Q1944412
73302007,moneygram,SOFIG - GBESSIA - GBESSIA,,GBESSIA,,,GN,+224 629 29 27 64,,Mo-Sa 08:00-19:00; Su 00:00-24:00,MoneyGram,Q1944412
74188877,moneygram,SOFIG - CONAKRY - TANNERIE,,CONAKRY,,,GN,+224 629 30 25 03,,Mo-Sa 08:00-19:00; Su 00:00-24:00,MoneyGram,Q1944412
73302340,moneygram,SOFIG - CONAKRY - STADE,,CONAKRY,,,GN,+224 629 29 27 74,,Mo-Sa 08:00-19:00; Su 00:00-24:00,MoneyGram,Q1944412
73302243,moneygram,SOFIG - FORECARIAH - MAFERINYA,,FORECARIAH,,,GN,+224 629 48 18 45,,Mo-Sa 08:00-19:00; Su 00:00-24:00,MoneyGram,Q1944412
74250682,moneygram,SOFIG SA - CONAKRY - YIMBAYA MANGUEBOUNY,,CONAKRY,,,GN,+224 627 27 26 87,,Mo-Fr 08:00-19:00; Sa 08:00-18:00; Su 00:00-24:00,MoneyGram,Q1944412
74038545,moneygram,SOFIG - CONAKRY - MATOTO 1,,CONAKRY,,,GN,+224 629 29 27 57,,Mo-Sa 08:00-19:00; Su 00:00-24:00,MoneyGram,Q1944412
73302272,moneygram,SOFIG - CONAKRY - NIGER1,,CONAKRY,,,GN,+224 629 29 27 56,,Mo-Sa 08:00-19:00; Su 00:00-24:00,MoneyGram,Q1944412
73302162,moneygram,SOFIG - CONAKRY - KOLOMA,,CONAKRY,,,GN,+224 629 29 27 60,,Mo-Sa 08:00-19:00; Su 00:00-24:00,MoneyGram,Q1944412
73302366,moneygram,SOFIG - CONAKRY - TAOUYAH,,CONAKRY,,,GN,+224 629 29 27 70,,Mo-Sa 08:00-19:00; Su 00:00-24:00,MoneyGram,Q1944412
74038558,moneygram,SOFIG - BOKE - BOFFA1,,BOKE,,,GN,+224 626 43 88 74,,Mo-Sa 08:00-19:00; Su 00:00-24:00,MoneyGram,Q1944412
73302379,moneygram,SOFIG - CONAKRY - TOMBOLIA,,CONAKRY,,,GN,+224 626 47 08 41,,Mo-Sa 08:00-19:00; Su 00:00-24:00,MoneyGram,Q1944412
73302175,moneygram,SOFIG - CONAKRY - KOUMI,,CONAKRY,,,GN,+224 629 29 27 59,,Mo-Sa 08:00-19:00; Su 00:00-24:00,MoneyGram,Q1944412
73301985,moneygram,SOFIG - CONAKRY - FOULAMADINA,,CONAKRY,,,GN,+224 627 27 12 06,,Mo-Sa 08:00-19:00; Su 00:00-24:00,MoneyGram,Q1944412
74188851,moneygram,SOFIG - CONAKRY - MADINA CENTRE SADAKADJ,,CONAKRY,,,GN,+224 627 27 26 87,,Mo-Sa 08:00-19:00; Su 00:00-24:00,MoneyGram,Q1944412
73301875,moneygram,SOFIG - CONAKRY - CIMENTERIE,,CONAKRY,,,GN,+224 628 43 36 09,,Mo-Sa 08:00-19:00; Su 00:00-24:00,MoneyGram,Q1944412
73301930,moneygram,SOFIG - DUBREKA - DUBREKA,,DUBREKA,,,GN,+224 629 29 15 04,,Mo-Sa 08:00-19:00; Su 00:00-24:00,MoneyGram,Q1944412
74068887,moneygram,SOFIG - #71 - CONAKRY - MADINA CORNICHE,,CONAKRY,,,GN,+224 626 26 73 76,,Mo-Sa 08:00-19:00; Su 00:00-24:00,MoneyGram,Q1944412
73302159,moneygram,SOFIG - CONAKRY - KOLABOUI,,CONAKRY,,,GN,+224 629 30 25 80,,Mo-Sa 08:00-19:00; Su 00:00-24:00,MoneyGram,Q1944412
73302188,moneygram,SOFIG - KOUNDARA - KOUNDARA,,KOUNDARA,,,GN,+224 626 26 27 78,,Mo-Sa 08:00-19:00; Su 00:00-24:00,MoneyGram,Q1944412
74350294,moneygram,SOFIG SA - #76 - BOKE - KAMSAR 3,,BOKE,,,GN,+224 628 43 35 00,,Mo-Fr 08:00-19:00; Sa 08:00-18:00; Su 00:00-24:00,MoneyGram,Q1944412
73302117,moneygram,SOFIG - KIANDIA - KINDIA2,,KIANDIA,,,GN,+224 629 29 27 68,,Mo-Sa 08:00-19:00; Su 00:00-24:00,MoneyGram,Q1944412
74068858,moneygram,SOFIG - #68 - KINDIA - BINTOURAYA PLATEA,,KINDIA,,,GN,+224 627 27 26 86,,Mo-Sa 08:00-19:00; Su 00:00-24:00,MoneyGram,Q1944412
73302298,moneygram,SOFIG - N'ZEREKORE - NZEREKORE,,N'ZEREKORE,,,GN,+224 628 64 62 90,,Mo-Sa 08:00-19:00; Su 00:00-24:00,MoneyGram,Q1944412
73302353,moneygram,SOFIG - CONAKRY - T8,,CONAKRY,,,GN,+224 629 00 59 43,,Mo-Sa 08:00-19:00; Su 00:00-24:00,MoneyGram,Q1944412
74038561,moneygram,SOFIG - CONAKRY - CSC SOFIG,,CONAKRY,,,GN,+224 629 30 25 03,,Mo-Sa 08:00-19:00; Su 00:00-24:00,MoneyGram,Q1944412
73302049,moneygram,SOFIG - CONAKRY - GOMBOYAH,,CONAKRY,,,GN,+224 627 27 12 05,,Mo-Sa 08:00-19:00; Su 00:00-24:00,MoneyGram,Q1944412
73971535,moneygram,SOFIG - KINDIA - KINDIA3,,KINDIA,,,GN,+224 610 10 81 84,,Mo-Sa 08:00-19:00; Su 00:00-24:00,MoneyGram,Q1944412
73302191,moneygram,SOFIG - LABE - LABE,,LABE,,,GN,+224 626 26 27 87,,Mo-Sa 08:00-19:00; Su 00:00-24:00,MoneyGram,Q1944412
74759219,moneygram,ROYAL ARK FOREIGN EXCHANGE BUREAU SARL -,,CONAKRY,,,GN,+224 611 00 10 53,,Mo-Su 08:00-21:00,MoneyGram,Q1944412
74762060,moneygram,ROYAL ARK TANENE - CONAKRY - ROYAL ARK F,,CONAKRY,,,GN,+224 611 00 10 53,,Mo-Su 08:00-21:00,MoneyGram,Q1944412
70645178,moneygram,MICROBIT - CONAKRY,,CONAKRY,,,GN,+224 622 83 81 94,,Mo-Th 08:00-18:00; Fr 08:00-17:00; Sa 08:00-16:00; Su 00:00-24:00,MoneyGram,Q1944412
74805435,moneygram,DAK TRANSFERT - DAK CIMENTERIE1,,DUBREKA,,,GN,+224 662 69 73 44,,Mo-Su 08:00-18:00,MoneyGram,Q1944412
74805422,moneygram,DAK TRANSFERT - DAK SABUS,,DUBREKA,,,GN,+224 628 25 74 91,,Mo-Su 08:00-18:00,MoneyGram,Q1944412
74807213,moneygram,NAFA-FINANCE SARL - ETS OASIS GROUP SARL,,CONAKRY,,,GN,+224 627 81 14 56,,Mo-Su 08:00-18:00,MoneyGram,Q1944412
74807226,moneygram,NAFA-FINANCE SARL - ETS ABL ET FRERES,,LABE,,,GN,+224 622 38 12 06,,Mo-Su 08:00-18:00,MoneyGram,Q1944412
74807190,moneygram,NAFA-FINANCE SARL - ETS FEADEV HCF SARL,,CONAKRY,,,GN,+224 610 77 38 98,,Mo-Su 08:00-18:00,MoneyGram,Q1944412
74807187,moneygram,NAFA-FINANCE SARL - ETS UNITE PRESTATION,,CONAKRY,,,GN,+224 622 22 93 13,,Mo-Su 08:00-18:00,MoneyGram,Q1944412
74807200,moneygram,NAFA-FINANCE SARL - ETS AGENCE DE VOYAGE,,CONAKRY,,,GN,+224 628 04 63 05,,Mo-Su 08:00-18:00,MoneyGram,Q1944412
70414095,moneygram,BNB TRANSFERT SARL - #BGC005 - MAMOU - B,,MAMOU,,,GN,+224 622 26 82 41,,Mo-Su 08:00-19:00,MoneyGram,Q1944412
74834765,moneygram,ETS M.K.D.M-S - CONAKRY - KOLOMA II COMM,,CONAKRY,,,GN,+224 622 31 26 71,,Mo-Sa 08:00-18:00; Su 09:00-12:00,MoneyGram,Q1944412
74833850,moneygram,OVER SERVICES ET INDUSTRIES SARL - CONAK,,CONAKRY,,,GN,+224 622 75 70 10,,Mo-Sa 08:00-18:00; Su 09:00-12:00,MoneyGram,Q1944412
74865983,moneygram,ETABLISSEMENTS DIALLO IBRAHIMA BALE - CO,,CONAKRY,,,GN,+224 626 00 06 81,,Mo-Sa 08:00-18:00; Su 09:00-12:00,MoneyGram,Q1944412
74880418,moneygram,DAK-TRANSFER - DAK-SIMBAYA,,RATOMA,,,GN,+224 622 34 25 40,,Mo-Su 08:00-18:00,MoneyGram,Q1944412
74880434,moneygram,DAK-TRANSFER - DAK-GUECKEDOU,,GUECKEDOU,,,GN,+224 628 82 40 80,,Mo-Su 08:00-18:00,MoneyGram,Q1944412
74880421,moneygram,DAK-TRANSFER - DAK-MALI CENTRE,,MALI,,,GN,+224 623 99 88 99,,Mo-Su 08:00-18:00,MoneyGram,Q1944412
66592196,moneygram,C.E SERVICE - #3 - CONAKRY,,CONAKRY,,,GN,64268822,,Mo-Th 08:00-17:00; Fr 08:00-16:00; Sa 08:00-13:00; Su 00:00-24:00,MoneyGram,Q1944412
72880054,moneygram,AFRO INTERNATIONAL - AFRO NZEREKORE OFFI,,NZEREKORE,,,GN,+224 655 33 33 32,,Mo-Su 08:30-21:00,MoneyGram,Q1944412
73456306,moneygram,MICRO-BIT,,FARANAH,,,GN,+224 657 67 38 01,,Mo-Sa 08:30-18:00; Su 00:00-24:00,MoneyGram,Q1944412
72055986,moneygram,BNB MADINA MARCHE - CONAKRY - MADINA MAR,,CONAKRY,,,GN,+224 657 27 88 55,,Mo-Su 08:00-19:00,MoneyGram,Q1944412
72055960,moneygram,BNB LELOUMA - LELOUMA - LELOUMA,,LELOUMA,,,GN,+224 657 27 88 55,,Mo-Su 06:00-23:00,MoneyGram,Q1944412
72055863,moneygram,BNB OTD LABE - LABE - LABE,,LABE,,,GN,+224 627 09 53 06,,Mo-Su 06:00-23:00,MoneyGram,Q1944412
70414105,moneygram,BNB TRANSFERT SARL - #BGC006 - MAMOU - B,,MAMOU,,,GN,+224 622 26 82 41,,Mo-Su 08:00-19:00,MoneyGram,Q1944412
72246245,moneygram,BNB TRANSFERT SARL - #BGC076 - BNB POPOD,,LABE,,,GN,+224 623 47 23 23,,Mo-Su 06:00-23:00,MoneyGram,Q1944412
72055818,moneygram,BNB JATROPHA KINDIA - KINDIA - FOULAYA,,KINDIA,,,GN,+224 623 47 23 23,,Mo-Su 08:00-19:00,MoneyGram,Q1944412
72245932,moneygram,BNB TRANSFERT SARL - #BGC003 - BNB SABOU,,CONAKRY,,,GN,+224 623 47 23 23,,Mo-Su 08:00-19:00,MoneyGram,Q1944412
72173855,moneygram,MICRO-BIT,,CONAKRY,,,GN,+224 657 67 38 01,,Mo-Th 08:00-18:00; Fr 08:00-17:00; Sa 08:00-16:00; Su 00:00-24:00,MoneyGram,Q1944412
74906033,moneygram,LA ROSE MULTI-SERVICES - CONAKRY - ALMAM,,CONAKRY,,,GN,+224 622 57 74 46,,Mo-Sa 08:00-18:00; Su 09:00-12:00,MoneyGram,Q1944412
72173923,moneygram,MICRO-BIT,,CONAKRY,,,GN,+224 657 67 38 01,,Mo-Th 08:00-18:00; Fr 08:00-17:00; Sa 08:00-16:00; Su 00:00-24:00,MoneyGram,Q1944412
72329735,moneygram,MICRO-BIT,,CONAKRY,,,GN,+224 657 67 38 01,,Mo-Sa 08:30-18:00; Su 00:00-24:00,MoneyGram,Q1944412
74935596,moneygram,ETS MS-MS - CONAKRY,,CONAKRY,,,GN,+224 622 71 03 92,,Mo-Sa 08:00-18:00; Su 09:00-12:00,MoneyGram,Q1944412
74938218,moneygram,EMTP - CONAKRY,,CONAKRY,,,GN,+224 622 57 74 46,,Mo-Sa 08:00-18:00; Su 09:00-12:00,MoneyGram,Q1944412
74939181,moneygram,DAK TRANSFERT - DAK-COSA,,RATOMA,,,GN,+224 612 32 32 60,,Mo-Su 08:00-18:00,MoneyGram,Q1944412
74939194,moneygram,DAK TRANSFERT - DAK-KEITAYA,,DUBREKA,,,GN,+224 620 45 93 02,,Mo-Su 08:00-18:00,MoneyGram,Q1944412
74943685,moneygram,MAGUI HOLDING - CONAKRY,,CONAKRY,,,GN,+224 621 16 16 41,,Mo-Sa 08:00-18:00; Su 09:00-12:00,MoneyGram,Q1944412
71435400,moneygram,BNG - #2 - CONAKRY - MADINA,,CONAKRY,,,GN,+224 624 63 38 39,,Mo-Sa 08:15-16:30; Su 00:00-24:00,MoneyGram,Q1944412
71435374,moneygram,BNG - #1 - CONAKRY - SIEGE,,CONAKRY,,,GN,+224 624 63 38 39,,Mo-Fr 08:15-16:30; Sa-Su 00:00-24:00,MoneyGram,Q1944412
74320444,moneygram,ROYAL ARK - MATAM,,CONAKRY,,,GN,+224 620 10 43 63,,Mo-Su 08:00-19:00,MoneyGram,Q1944412
74988611,moneygram,NAF SARL - ETABLISSEMENTS AHMED ALY,,CONAKRY,,,GN,+224 627 64 16 07,,Mo-Sa 08:00-17:00; Su 00:00-24:00,MoneyGram,Q1944412
74988624,moneygram,NAF SARL - ETS ABDOULAYE BARRY MULTI-SER,,BOKE,,,GN,+224 622 24 87 33,,Mo-Sa 08:00-17:00; Su 00:00-24:00,MoneyGram,Q1944412
75003252,moneygram,TEGUEGNIN MULTI SERVICES - LABE,,LABE,,,GN,+224 622 94 22 22,,Mo-Sa 08:00-18:00; Su 09:00-12:00,MoneyGram,Q1944412
75060855,moneygram,DAK TRANSFERT - DIALLO SOULEYMANE KOIN D,,CONAKRY,,,GN,+224 628 31 48 75,,Mo-Su 08:00-18:00,MoneyGram,Q1944412
75060842,moneygram,DAK TRANSFERT - BAH FATOUMATA DIARAYE DA,,DUBREKA,,,GN,+224 628 19 19 51,,Mo-Su 08:00-18:00,MoneyGram,Q1944412
75060884,moneygram,DAK TRANSFERT - DIALLO AMADOU BHASSO DAK,,DUBREKA,,,GN,+224 620 90 49 91,,Mo-Su 08:00-18:00,MoneyGram,Q1944412
70950465,moneygram,MICROBIT - SANGAREDI,,SANGAREDI,,,GN,+224 620 58 97 45,,Mo-Th 08:00-18:00; Fr 08:00-17:00; Sa 08:00-16:00; Su 00:00-24:00,MoneyGram,Q1944412
70950478,moneygram,MICROBIT - CONAKRY,,CONAKRY,,,GN,+224 623 25 81 55,,Mo-Th 08:00-18:00; Fr 08:00-17:00; Sa 08:00-16:00; Su 00:00-24:00,MoneyGram,Q1944412
70950504,moneygram,MICROBIT - CONAKRY,,CONAKRY,,,GN,+224 622 58 74 09,,Mo-Th 08:00-18:00; Fr 08:00-17:00; Sa 08:00-16:00; Su 00:00-24:00,MoneyGram,Q1944412
71072614,moneygram,ORABANK GUINEA - CONAKRY - COLEAH,,CONAKRY,,,GN,+224 622 35 00 66,,Mo-Fr 08:00-18:00; Sa 09:00-15:00; Su 00:00-24:00,MoneyGram,Q1944412
71072627,moneygram,ORABANK GUINEA - CONAKRY - KIPE,,CONAKRY,,,GN,+224 625 25 07 48,,Mo-Fr 08:00-18:00; Sa 09:00-15:00; Su 00:00-24:00,MoneyGram,Q1944412
71072630,moneygram,ORABANK GUINEA - SIGUIRI - LERA,,SIGUIRI,,,GN,+224 622 35 00 78,,Mo-Fr 08:00-18:00; Sa 09:00-15:00; Su 00:00-24:00,MoneyGram,Q1944412
65459858,moneygram,AFRO INTL LIMITED,,CONAKRY,,,GN,22464522480,,Mo-Sa 09:00-17:00; Su 00:00-24:00,MoneyGram,Q1944412
66538257,moneygram,MICROBIT - CONAKRY,,CONAKRY,,,GN,67673814,,Mo-Th 08:00-18:00; Fr 08:00-17:00; Sa 08:00-16:00; Su 00:00-24:00,MoneyGram,Q1944412
66538260,moneygram,MICROBIT - CONAKRY,,CONAKRY,,,GN,67673818,,Mo-Th 08:00-18:00; Fr 08:00-17:00; Sa 08:00-16:00; Su 00:00-24:00,MoneyGram,Q1944412
66538338,moneygram,MICROBIT - CONAKRY,,CONAKRY,,,GN,67673815,,Mo-Th 08:00-18:00; Fr 08:00-17:00; Sa 08:00-16:00; Su 00:00-24:00,MoneyGram,Q1944412
66538370,moneygram,MICROBIT - CONAKRY,,CONAKRY,,,GN,67673832,,Mo-Th 08:00-18:00; Fr 08:00-17:00; Sa 08:00-16:00; Su 00:00-24:00,MoneyGram,Q1944412
66538419,moneygram,MICROBIT - LABE,,LABE,,,GN,67673832,,Mo-Th 08:00-18:00; Fr 08:00-17:00; Sa 08:00-16:00; Su 00:00-24:00,MoneyGram,Q1944412
66538448,moneygram,MICROBIT - CONAKRY,,CONAKRY,,,GN,67673832,,Mo-Th 08:00-18:00; Fr 08:00-17:00; Sa 08:00-16:00; Su 00:00-24:00,MoneyGram,Q1944412
66538477,moneygram,MICROBIT - CONAKRY,,CONAKRY,,,GN,67673832,,Mo-Th 08:00-20:00; Fr-Sa 08:00-18:00; Su 00:00-24:00,MoneyGram,Q1944412
66592154,moneygram,C.E SERVICE - #1 - CONAKRY,,CONAKRY,,,GN,62268822,,Mo-Th 08:00-18:00; Fr 08:00-17:00; Sa 08:00-16:00; Su 00:00-24:00,MoneyGram,Q1944412
66592183,moneygram,C.E SERVICE - #2 - CONAKRY,,CONAKRY,,,GN,63268822,,Mo-Th 08:00-18:00; Fr 08:00-17:00; Sa 08:00-16:00; Su 00:00-24:00,MoneyGram,Q1944412
66592219,moneygram,C.E SERVICE - #4 - BEYLA,,BEYLA,,,GN,65495959,,Mo-Th 08:00-17:00; Fr 08:00-16:00; Sa 08:00-13:00; Su 00:00-24:00,MoneyGram,Q1944412
66799371,moneygram,MICROBIT - CONAKRY,,CONAKRY,,,GN,22467673820,,Mo-Th 08:00-18:00; Fr 08:00-17:00; Sa 08:00-16:00; Su 00:00-24:00,MoneyGram,Q1944412
66799407,moneygram,MICROBIT - KISSIDOUGOU,,KISSIDOUGOU,,,GN,22467673839,,Mo-Th 08:00-18:00; Fr 08:00-17:00; Sa 08:00-16:00; Su 00:00-24:00,MoneyGram,Q1944412
66799452,moneygram,MICROBIT - HAMDALLAYE,,HAMDALLAYE,,,GN,22467673810,,Mo-Th 08:00-18:00; Fr 08:00-17:00; Sa 08:00-16:00; Su 00:00-24:00,MoneyGram,Q1944412
66799119,moneygram,MICROBIT - CONAKRY,,CONAKRY,,,GN,22467673837,,Mo-Th 08:00-18:00; Fr 08:00-17:00; Sa 08:00-16:00; Su 00:00-24:00,MoneyGram,Q1944412
66799274,moneygram,MICROBIT - BOKE,,BOKE,,,GN,22467673835,,Mo-Th 08:00-18:00; Fr 08:00-17:00; Sa 08:00-16:00; Su 00:00-24:00,MoneyGram,Q1944412
66799342,moneygram,MICROBIT - FRIA,,FRIA,,,GN,22467673829,,Mo-Th 08:00-18:00; Fr 08:00-17:00; Sa 08:00-16:00; Su 00:00-24:00,MoneyGram,Q1944412
66799355,moneygram,MICROBIT - KANKAN,,KANKAN,,,GN,22467673813,,Mo-Th 08:00-18:00; Fr 08:00-17:00; Sa 08:00-16:00; Su 00:00-24:00,MoneyGram,Q1944412
66799423,moneygram,MICROBIT - KAMSAR,,KAMSAR,,,GN,22467673972,,Mo-Th 08:00-18:00; Fr 08:00-17:00; Sa 08:00-16:00; Su 00:00-24:00,MoneyGram,Q1944412
66918220,moneygram,MICROBIT - GUECKEDOU,,GUECKEDOU,,,GN,67673999,,Mo-Th 08:00-18:00; Fr 08:00-17:00; Sa 08:00-16:00; Su 00:00-24:00,MoneyGram,Q1944412
66918233,moneygram,MICROBIT - FARANAH,,FARANAH,,,GN,67674147,,Mo-Th 08:00-18:00; Fr 08:00-17:00; Sa 08:00-16:00; Su 00:00-24:00,MoneyGram,Q1944412
66918246,moneygram,MICROBIT - MACENTA,,MACENTA,,,GN,67673841,,Mo-Th 08:00-18:00; Fr 08:00-17:00; Sa 08:00-16:00; Su 00:00-24:00,MoneyGram,Q1944412
67106439,moneygram,MICROBIT - PITA,,PITA,,,GN,+224 30 41 31 61,,Mo-Th 08:00-18:00; Fr 08:00-17:00; Sa 08:00-16:00; Su 00:00-24:00,MoneyGram,Q1944412
71230919,moneygram,ORABANK GUINEE - #3 - COANKRY - AGENCE D,,COANKRY,,,GN,+224 628 35 68 35,,Mo-Fr 08:15-18:00; Sa 09:00-15:00; Su 00:00-24:00,MoneyGram,Q1944412
71736837,moneygram,MICRO-BIT - CONAKRY,,CONAKRY,,,GN,+224 657 67 38 03,,Mo-Th 08:00-18:00; Fr 08:00-17:00; Sa 08:00-16:00; Su 00:00-24:00,MoneyGram,Q1944412
71736840,moneygram,MICRO-BIT - CONAKRY,,CONAKRY,,,GN,+224 655 72 31 75,,Mo-Th 08:00-18:00; Fr 08:00-17:00; Sa 08:00-16:00; Su 00:00-24:00,MoneyGram,Q1944412
71537010,moneygram,ORABANK GUINEE - CONAKRY - SIGUIRI,,CONAKRY,,,GN,+224 669 39 13 19,,Mo-Fr 08:00-18:00; Sa 09:00-15:00; Su 00:00-24:00,MoneyGram,Q1944412
67807699,moneygram,MICROBIT - TIMBI MADINA,,TIMBI MADINA,,,GN,65732099,,Mo-Th 08:00-18:00; Fr 08:00-17:00; Sa 08:00-16:00; Su 00:00-24:00,MoneyGram,Q1944412
67810945,moneygram,MICROBIT - CONAKRY,,CONAKRY,,,GN,+224 30 41 30 61,,Mo-Th 08:00-18:00; Fr 08:00-17:00; Sa 08:00-16:00; Su 00:00-24:00,MoneyGram,Q1944412
67810987,moneygram,MICROBIT - CONAKRY,,CONAKRY,,,GN,+224 30 41 30 61,,Mo-Th 08:00-18:00; Fr 08:00-17:00; Sa 08:00-16:00; Su 00:00-24:00,MoneyGram,Q1944412
67810990,moneygram,MICROBIT - CONAKRY,,CONAKRY,,,GN,+224 30 41 30 61,,Mo-Th 08:00-18:00; Fr 08:00-17:00; Sa 08:00-16:00; Su 00:00-24:00,MoneyGram,Q1944412
67811009,moneygram,MICROBIT - CONAKRY,,CONAKRY,,,GN,+224 30 41 30 61,,Mo-Th 08:00-18:00; Fr 08:00-17:00; Sa 08:00-16:00; Su 00:00-24:00,MoneyGram,Q1944412
71790653,moneygram,ORABANK GUINEA - CONAKRY - COFINA,,CONAKRY,,,GN,+224 627 27 03 22,,Mo-Fr 08:00-18:00; Sa 09:00-15:00; Su 00:00-24:00,MoneyGram,Q1944412
GN_1390904,shell,Station NZEREKORE CHERIF MARCHE,,Nzerekore,,,GN,+224 622 45 70 12,,,Shell,Q110716465
GN_1390903,shell,Station NZEREKORE CHERIF 1,,Nzerekore,,,GN,+224 622 45 70 12,,,Shell,Q110716465
GN_1228024,shell,Station Tawu-Tama N'zerekore Boma,,N'zerekore,,,GN,+224 628 99 71 00,,,Shell,Q110716465
GN_1091948,shell,Station Nzerekore Gare Routiere,,Nzerekore,,,GN,+224 626 32 54 99,,,Shell,Q110716465
GN_1094988,shell,Station Boma,,Nzerekore,,,GN,+224 622 20 26 07,,,Shell,Q110716465
GN_1395998,shell,Station SENKO CENTRE,,Beyla,,,GN,62868767,,,Shell,Q110716465
GN_1091106,shell,Station Senko Saliou2,,Beyla,,,GN,+224 628 68 70 67,,,Shell,Q110716465
GN_1090951,shell,Station Macenta IriÃ©,,Macenta,,,GN,+224 623 83 05 58,,,Shell,Q110716465
GN_1094989,shell,Station Macenta Andre Mahomou,,Macenta,,,GN,+224 622 20 26 07,,,Shell,Q110716465
GN_1091942,shell,Station Coleah,,Conakry,,,GN,+224 622 31 66 92,,,Shell,Q110716465
GN_1091221,shell,Station Coronthie,,Conakry,,,GN,+224 622 07 73 18,,,Shell,Q110716465
GN_1091199,shell,Station Wanindara T5,,Conakry,,,GN,+224 622 28 02 60,,,Shell,Q110716465
GN_1091940,shell,Station Belle Vue,,Conakry,,,GN,+224 628 02 44 74,,,Shell,Q110716465
GN_1351224,shell,Station Miniere,,Conakry,,,GN,+224 628 42 42 80,,,Shell,Q110716465
GN_1090690,shell,Station Bonfi Autoroute,,Conakry,,,GN,+224 628 50 34 94,,,Shell,Q110716465
GN_1091789,shell,Station Dabondy,,Conakry,,,GN,+224 624 72 38 09,,,Shell,Q110716465
GN_1367952,shell,Station Dabondy ecole,,Conakry,,,GN,+224 621 09 05 36,,,Shell,Q110716465
GN_1091386,shell,Station Yataya Fossedet,,Conakry,,,GN,+224 621 68 19 75,,,Shell,Q110716465
GN_1091720,shell,Station Ratoma Centre,,Conakry,,,GN,+224 628 39 44 02,,24/7,Shell,Q110716465
GN_1091935,shell,Station Ratoma,,Conakry,,,GN,+224 621 09 05 36,,,Shell,Q110716465
GN_1371813,shell,Station AEROPORT A&G,,Conakry,,,GN,+224 627 47 66 47,,,Shell,Q110716465
GN_1091736,shell,Station CitÃ© de l'Air,,Conakry,,,GN,+224 621 01 30 80,,24/7,Shell,Q110716465
GN_1091938,shell,Station Gbessia,,Conakry,,,GN,+224 621 09 05 36,,,Shell,Q110716465
GN_1091943,shell,Station Matoto,,Conakry,,,GN,+224 621 09 05 36,,,Shell,Q110716465
GN_1091936,shell,Station Tanene,,Conakry,,,GN,+224 620 22 49 74,,,Shell,Q110716465
GN_1091937,shell,Station Kaporo,,Conakry,,,GN,+224 624 96 48 66,,,Shell,Q110716465
GN_1091939,shell,Station Simbaya,,Conakry,,,GN,+224 625 72 77 16,,,Shell,Q110716465
GN_1090827,shell,Station Nongo Taady,,Conakry,,,GN,+224 626 81 90 05,,,Shell,Q110716465
GN_1091218,shell,Station Tannerie Corniche,,BokÃ©,,,GN,+224 620 22 49 74,,,Shell,Q110716465
GN_1368566,shell,Station NONGO DEM,,Conakry,,,GN,+224 622 98 85 61,,,Shell,Q110716465
GN_1091934,shell,Station Lambanyi,,Conakry,,,GN,+224 628 42 42 80,,,Shell,Q110716465
GN_1351143,shell,Station Sangoyah,,Conakry,,,GN,+224 625 72 77 16,,,Shell,Q110716465
GN_1363882,shell,Station Lambanyi Wareyah,,Conakry,,,GN,+224 628 08 57 36,,,Shell,Q110716465
GN_1090843,shell,Station Dabompa Autoroute,,Conakry,,,GN,+224 628 60 73 57,,,Shell,Q110716465
GN_1091127,shell,Station Dabompa Tamisso,,Conakry,,,GN,+224 621 09 05 36,,,Shell,Q110716465
GN_1091241,shell,Station Chateau T2,,Conakry,,,GN,+224 621 09 05 36,,,Shell,Q110716465
GN_1091548,shell,Station Kobayah,,Conakry,,,GN,+224 622 10 26 17,,,Shell,Q110716465
GN_1354170,shell,Station Kobayah Village,,Conakry,,,GN,+224 622 10 26 17,,,Shell,Q110716465
GN_1091953,shell,Station Enta,,Conakry,,,GN,+224 622 10 26 17,,,Shell,Q110716465
GN_1372431,shell,Station Yattayah Bambe,,Conakry,,,GN,+224 621 75 40 40,,,Shell,Q110716465
GN_1091417,shell,Station Tombolia Marche Belle Epine,,Conakry,,,GN,+224 628 61 51 79,,,Shell,Q110716465
GN_1091121,shell,Station Tombolia,,Conakry,,,GN,+224 628 61 51 79,,,Shell,Q110716465
GN_1091589,shell,Station Sonfonia Yali,,Conakry,,,GN,+224 620 13 02 11,,,Shell,Q110716465
GN_1091580,shell,Station Sonfonia T7,,Conakry,,,GN,+224 628 02 44 74,,,Shell,Q110716465
GN_1090729,shell,Station Sonfonia Gare,,Conakry,,,GN,+224 624 89 36 84,,,Shell,Q110716465
GN_1091679,shell,Station Sonfonia T8 Saliou2,,Conakry,,,GN,+224 620 27 27 27,,,Shell,Q110716465
GN_1091547,shell,Station Sonfonia SOS,,Conakry,,,GN,+224 621 75 40 40,,,Shell,Q110716465
GN_1229351,shell,Station Tombolia EntrÃ©e,,Conakry,,,GN,+224 628 54 42 63,,,Shell,Q110716465
GN_1374670,shell,Station sonfonia centre,,Conakry,,,GN,+224 628 68 70 67,,,Shell,Q110716465
GN_1351142,shell,Station Cimenterie,,Conakry,,,GN,+224 622 21 28 57,,,Shell,Q110716465
GN_1091957,shell,Station Kountia,,Conakry,,,GN,+224 622 82 18 06,,,Shell,Q110716465
GN_1091716,shell,Station Kountia Autoroute,,Conakry,,,GN,+224 621 09 05 36,,,Shell,Q110716465
GN_1090746,shell,Station Ansoumania,,Conakry,,,GN,+224 627 47 66 47,,,Shell,Q110716465
GN_1402229,shell,Station KEITAYA BENTE,,Conakry,,,GN,+224 628 69 42 00,,,Shell,Q110716465
GN_1373873,shell,Station KEITAYA,,Conakry,,,GN,+224 621 96 96 71,,,Shell,Q110716465
GN_1091507,shell,Station Sanoyah Societe Coguimex,,Coyah,,,GN,+224 622 77 38 61,,,Shell,Q110716465
GN_1091583,shell,Station Maneah Autoroute,,Coyah,,,GN,+224 628 52 42 40,,,Shell,Q110716465
GN_1373414,shell,Station kagbelen village,,Conakry,,,GN,+224 622 10 26 17,,,Shell,Q110716465
GN_1229381,shell,Station Bentourayah,,Conakry,,,GN,+224 625 72 77 16,,24/7,Shell,Q110716465
GN_1091223,shell,Station SOUMBARAKOBA,,Siguiri,,,GN,+224 622 32 60 43,,,Shell,Q110716465
GN_1353100,shell,Station Siguiri Corniche,,Siguiri,,,GN,+224 623 77 10 11,,,Shell,Q110716465
GN_1370414,shell,Station DJOMA,,Siguiri,,,GN,+224 622 55 54 40,,,Shell,Q110716465
GN_1370415,shell,Station NANKO,,Siguiri,,,GN,+224 622 11 92 88,,,Shell,Q110716465
GN_1091642,shell,Station Bananinkoro Saliou 2,,Siguiri,,,GN,+224 628 68 70 67,,,Shell,Q110716465
GN_1374559,shell,Sation teleladji,,Siguiri,,,GN,+224 622 11 92 88,,,Shell,Q110716465
GN_1090784,shell,Station Boure Gare,,Siguiri,,,GN,+224 622 41 98 41,,,Shell,Q110716465
GN_1094785,shell,Station Siguiri Kourouni,,Siguiri,,,GN,+224 622 47 29 95,,,Shell,Q110716465
GN_1090994,shell,Station Kouroussa,,Kouroussa,,,GN,+224 621 16 29 27,,,Shell,Q110716465
GN_1094962,shell,Station Toyiwoulen,,Siguiri,,,GN,+224 628 05 46 45,,,Shell,Q110716465
GN_1091708,shell,Station Kouroukoro Dabo,,Kouroussa,,,GN,+224 626 54 82 57,,,Shell,Q110716465
GN_1094800,shell,Station Bembeta Doko Siguiri,,Conakry,,,GN,+224 622 90 78 17,,,Shell,Q110716465
GN_1090741,shell,Station Kerouane,,Kerouane,,,GN,+224 622 27 75 49,,,Shell,Q110716465
GN_1090910,shell,Station Kerouane Kakoro,,Kerouane,,,GN,+224 620 89 99 02,,,Shell,Q110716465
GN_1375229,shell,Station KORODOU,,Kissidougou,,,GN,+224 621 16 29 27,,,Shell,Q110716465
GN_1091107,shell,Station Kissidougou Saliou2,,Kissidougou,,,GN,+224 628 68 70 67,,,Shell,Q110716465
GN_1091257,shell,Station Kissidougou Cabral,,Kissidougou,,,GN,+224 620 79 79 59,,,Shell,Q110716465
GN_1091465,shell,Station Bate Soila EDAS,,Kankan,,,GN,+224 622 90 78 17,,,Shell,Q110716465
GN_1091783,shell,Station Kankan Soridou,,Kankan,,,GN,+224 622 26 00 63,,,Shell,Q110716465
GN_1090728,shell,Station Kankan Missira,,Kankan,,,GN,+224 621 16 29 27,,,Shell,Q110716465
GN_1373415,shell,Station Kankan Météo,,Kankan,,,GN,+224 622 77 44 53,,,Shell,Q110716465
GN_1353049,shell,Station KARIFAMORIAH,,Kankan,,,GN,+224 622 23 19 30,,,Shell,Q110716465
GN_1091949,shell,Station Gueckedou,,Gueckedou,,,GN,+224 628 68 70 67,,,Shell,Q110716465
GN_1091376,shell,Station Sanguiana,,Kouroussa,,,GN,+224 622 77 44 53,,,Shell,Q110716465
GN_1399396,shell,Station KOUROUSSA ENTREE,,Kouroussa,,,GN,+224 622 26 00 63,,,Shell,Q110716465
GN_1370288,shell,Station FARANAH,,Faranah,,,GN,+224 625 91 91 53,,,Shell,Q110716465
GN_1354171,shell,Station Tiguibiri,,Siguiri,,,GN,+224 628 05 46 45,,,Shell,Q110716465
GN_1091350,shell,Station SIGUIRI BOLIBANA,,Siguiri,,,GN,+224 623 45 55 00,,,Shell,Q110716465
GN_1091947,shell,Station Mamou,,Mamou,,,GN,+224 628 82 20 62,,,Shell,Q110716465
GN_1091275,shell,Station Mamou Transmar,,Mamou,,,GN,+224 621 07 87 71,,,Shell,Q110716465
GN_1090948,shell,Station Mamou Timbo,,Mamou,,,GN,+224 622 98 09 53,,,Shell,Q110716465
GN_1395699,shell,Station MAMOU HORE FELO,,Mamou,,,GN,+224 622 77 44 53,,,Shell,Q110716465
GN_1392631,shell,Station MAMOU CONTOURNANTE,,Mamou,,,GN,+224 622 98 09 53,,,Shell,Q110716465
GN_1354172,shell,Station Fatako,,Labe,,,GN,+224 622 92 66 39,,,Shell,Q110716465
GN_1091356,shell,Station Brouwal Tappe,,Pita,,,GN,+224 623 74 00 62,,,Shell,Q110716465
GN_1091509,shell,Station Dabola Ets Nadouba,,Dabola,,,GN,+224 621 68 19 75,,,Shell,Q110716465
GN_1094809,shell,Station Labe Hafia,,Conakry,,,GN,+224 622 10 26 17,,,Shell,Q110716465
GN_1094908,shell,Station Labe Fady,,LabÃ©,,,GN,+224 620 70 91 42,,,Shell,Q110716465
GN_1091946,shell,Station Labe Gare Voiture Yali,,LabÃ©,,,GN,+224 628 25 58 10,,,Shell,Q110716465
GN_1094953,shell,Station Labe Ndjolou Yali,,LabÃ©,,,GN,+224 628 28 15 41,,,Shell,Q110716465
GN_1091945,shell,Station Labe Route Mali,,LabÃ©,,,GN,+224 628 57 48 57,,,Shell,Q110716465
GN_1373231,shell,Station Labé Ville,,Labe,,,GN,+224 628 42 42 80,,,Shell,Q110716465
GN_1090845,shell,Station Kindia Contournante,,Kindia,,,GN,+224 628 42 42 80,,,Shell,Q110716465
GN_1091944,shell,Station Kindia Tafory,,Kindia,,,GN,+224 628 42 42 80,,,Shell,Q110716465
GN_1091576,shell,Station Kindia Sofidis,,Kindia,,,GN,+224 623 78 80 28,,,Shell,Q110716465
GN_1091120,shell,Station Dinguiraye,,Dinguiraye,,,GN,+224 624 57 41 28,,,Shell,Q110716465
GN_1091742,shell,Station Kassonya Saliou2,,Conakry,,,GN,+224 628 68 70 67,,,Shell,Q110716465
GN_1091217,shell,Station Kagbelen Marche,,Conakry,,,GN,+224 621 14 91 23,,,Shell,Q110716465
GN_1091557,shell,Station Kagbelen Guico,,Dubreka,,,GN,+224 620 63 16 58,,,Shell,Q110716465
GN_1091325,shell,Station Dubreka Km5,,Dubreka,,,GN,+224 621 08 74 20,,,Shell,Q110716465
GN_1091091,shell,Station Kagbelen-Dubreka Bente,,Dubreka,,,GN,+224 622 22 55 85,,,Shell,Q110716465
GN_1090844,shell,Station Kaleta,,Dubreka,,,GN,+224 626 26 73 19,,,Shell,Q110716465
GN_1091941,shell,Station Dixinn,,Conakry,,,GN,+224 622 36 70 40,,,Shell,Q110716465
GN_1385756,shell,Station MANEAH,,Conakry,,,GN,+224 622 34 61 76,,,Shell,Q110716465
GN_1401976,shell,Station KENENDE,,Conakry,,,GN,+224 620 39 98 74,,,Shell,Q110716465
GN_1401222,shell,Station KOUBIA,,Conakry,,,GN,+224 621 16 29 27,,,Shell,Q110716465
GN_1352482,shell,Station  BOFFA TANENE,,Boffa,,,GN,+224 628 42 96 50,,,Shell,Q110716465
GN_1091310,shell,Station Koundara Centre,,Koundara,,,GN,+224 623 33 63 63,,,Shell,Q110716465
GN_1091084,shell,Station Koba Boffa,,Boffa,,,GN,+224 626 26 73 18,,,Shell,Q110716465
GN_1094925,shell,Station Kolaboui,,Siguiri,,,GN,+224 620 91 73 14,,,Shell,Q110716465
GN_1385757,shell,Station BEL AIR,,Boffa,,,GN,+224 622 21 24 41,,,Shell,Q110716465
GN_1090887,shell,Station Boke Ville,,BokÃ©,,,GN,+224 624 72 38 09,,,Shell,Q110716465
GN_1094859,shell,Station Denken Boke,,BokÃ©,,,GN,+224 622 88 87 95,,,Shell,Q110716465
GN_1090888,shell,Station Kamsar Port,,Kamsar,,,GN,+224 628 93 20 88,,,Shell,Q110716465
GN_101,totalenergies,Labe Donghora,,Labe,,,GN,,https://store.totalenergies.fr/en_EN/GN_101,,TotalEnergies,Q154037
GN_103,totalenergies,Koundara Assifate,,Mamou,,,GN,,https://store.totalenergies.fr/en_EN/GN_103,,TotalEnergies,Q154037
GN_104,totalenergies,Mamou B,,Labe,,,GN,,https://store.totalenergies.fr/en_EN/GN_104,,TotalEnergies,Q154037
GN_106,totalenergies,Pita Parc,,Kindia,,,GN,,https://store.totalenergies.fr/en_EN/GN_106,,TotalEnergies,Q154037
GN_108,totalenergies,Kamsar port de pêche,,Bok,,,GN,,https://store.totalenergies.fr/en_EN/GN_108,,TotalEnergies,Q154037
GN_11,totalenergies,Kamsar Commisariat,,Conakry,,,GN,,https://store.totalenergies.fr/en_EN/GN_11,,TotalEnergies,Q154037
GN_111,totalenergies,Telimélé,,Bok,,,GN,,https://store.totalenergies.fr/en_EN/GN_111,,TotalEnergies,Q154037
GN111S0010,totalenergies,Domino,,Conakry,,,GN,+224 628 68 69 09,https://store.totalenergies.fr/en_EN/GN111S0010,Mo-Su 06:00-22:00,TotalEnergies,Q154037
GN111S0057,totalenergies,Telimélé,,Bok,,,GN,,https://store.totalenergies.fr/en_EN/GN111S0057,,TotalEnergies,Q154037
GN111S0063,totalenergies,Kamsar Barrage,,Kamsar,,,GN,,https://store.totalenergies.fr/en_EN/GN111S0063,,TotalEnergies,Q154037
GN111S0073,totalenergies,Koundara,,Mamou,,,GN,,https://store.totalenergies.fr/en_EN/GN111S0073,,TotalEnergies,Q154037
GN111S0087,totalenergies,Lola Toure,,Lola,,,GN,,https://store.totalenergies.fr/en_EN/GN111S0087,,TotalEnergies,Q154037
GN111S0089,totalenergies,"STATION MACENTA A""""",,Macenta,,,GN,,https://store.totalenergies.fr/en_EN/GN111S0089,,TotalEnergies,Q154037
GN111S0095,totalenergies,Seredou,,Macenta,,,GN,,https://store.totalenergies.fr/en_EN/GN111S0095,,TotalEnergies,Q154037
GN111S0105,totalenergies,Siguiri Demba Coulib,,Siguiri,,,GN,,https://store.totalenergies.fr/en_EN/GN111S0105,,TotalEnergies,Q154037
GN111S0109,totalenergies,PR Kintinia,,Siguiri,,,GN,,https://store.totalenergies.fr/en_EN/GN111S0109,,TotalEnergies,Q154037
GN111S0116,totalenergies,koundara Donzo,,Conakry,,,GN,,https://store.totalenergies.fr/en_EN/GN111S0116,,TotalEnergies,Q154037
GN111S0133,totalenergies,Yende,,Gueckedougou,,,GN,,https://store.totalenergies.fr/en_EN/GN111S0133,,TotalEnergies,Q154037
GN111S0135,totalenergies,Lola Mory sara,,Kissidougou,,,GN,,https://store.totalenergies.fr/en_EN/GN111S0135,,TotalEnergies,Q154037
GN111S0144,totalenergies,Mali,,Lola,,,GN,,https://store.totalenergies.fr/en_EN/GN111S0144,,TotalEnergies,Q154037
GN111S0157,totalenergies,Nzerekore YERO MAKAN,,Nzérékoré,,,GN,,https://store.totalenergies.fr/en_EN/GN111S0157,Mo-Su 06:00-22:00,TotalEnergies,Q154037
GN111S0207,totalenergies,SIGUIRI DANKA KORO,,Siguiri,,,GN,,https://store.totalenergies.fr/en_EN/GN111S0207,,TotalEnergies,Q154037
GN111S0211,totalenergies,PR Kintinia Oumar,,Kintinian,,,GN,,https://store.totalenergies.fr/en_EN/GN111S0211,,TotalEnergies,Q154037
GN111S0215,totalenergies,PR Boucaria Fanta Madi,,Siguiri,,,GN,,https://store.totalenergies.fr/en_EN/GN111S0215,,TotalEnergies,Q154037
GN_112,totalenergies,Kamsar Barrage,,Coyah,,,GN,,https://store.totalenergies.fr/en_EN/GN_112,,TotalEnergies,Q154037
GN_116,totalenergies,Sanoyah YMC,,Nzerekore,,,GN,,https://store.totalenergies.fr/en_EN/GN_116,,TotalEnergies,Q154037
GN_118,totalenergies,Lola Touré,,Lola,,,GN,,https://store.totalenergies.fr/en_EN/GN_118,,TotalEnergies,Q154037
GN_120,totalenergies,Seredou,,MACENTA,,,GN,,https://store.totalenergies.fr/en_EN/GN_120,,TotalEnergies,Q154037
GN_122,totalenergies,Beyla,,Macenta,,,GN,,https://store.totalenergies.fr/en_EN/GN_122,,TotalEnergies,Q154037
GN_124,totalenergies,Nzerekore Yero Makan,,Nzerekore,,,GN,,https://store.totalenergies.fr/en_EN/GN_124,,TotalEnergies,Q154037
GN_125,totalenergies,Nzerekore Cherif 1,,Nzerekore,,,GN,,https://store.totalenergies.fr/en_EN/GN_125,,TotalEnergies,Q154037
GN_130,totalenergies,Koundara Donzo,,Conakry,,,GN,,https://store.totalenergies.fr/en_EN/GN_130,,TotalEnergies,Q154037
GN_137,totalenergies,PR Kintinia Oumar,,Siguiri,,,GN,,https://store.totalenergies.fr/en_EN/GN_137,,TotalEnergies,Q154037
GN_138,totalenergies,PR Kintinia,,Siguiri,,,GN,,https://store.totalenergies.fr/en_EN/GN_138,,TotalEnergies,Q154037
GN_139,totalenergies,PR Boucaria Fanta Madi,,Siguiri,,,GN,,https://store.totalenergies.fr/en_EN/GN_139,,TotalEnergies,Q154037
GN_140,totalenergies,PR Siguiri Kain Camara,,Siguiri,,,GN,,https://store.totalenergies.fr/en_EN/GN_140,,TotalEnergies,Q154037
GN_141,totalenergies,PR Siguiri Fanta Madi,,Siguiri,,,GN,,https://store.totalenergies.fr/en_EN/GN_141,,TotalEnergies,Q154037
GN_148,totalenergies,Yende,,Kissidougou,,,GN,,https://store.totalenergies.fr/en_EN/GN_148,,TotalEnergies,Q154037
GN_18,totalenergies,Fria Economat,,Kouroussa,,,GN,,https://store.totalenergies.fr/en_EN/GN_18,,TotalEnergies,Q154037
GN_22,totalenergies,Macenta A,,MACENTA,,,GN,,https://store.totalenergies.fr/en_EN/GN_22,,TotalEnergies,Q154037
GN_25,totalenergies,Dubreka,,Conakry,,,GN,,https://store.totalenergies.fr/en_EN/GN_25,,TotalEnergies,Q154037
GN_27,totalenergies,Mali,,Lola,,,GN,,https://store.totalenergies.fr/en_EN/GN_27,,TotalEnergies,Q154037
GN_28,totalenergies,Lola Ayoub,,Kissidougou,,,GN,,https://store.totalenergies.fr/en_EN/GN_28,,TotalEnergies,Q154037
GN_34,totalenergies,Dixinn Oasis,,Siguiri,,,GN,,https://store.totalenergies.fr/en_EN/GN_34,,TotalEnergies,Q154037
GN_38,totalenergies,Boké Yomboya,,Nzekerore,,,GN,,https://store.totalenergies.fr/en_EN/GN_38,,TotalEnergies,Q154037
GN_39,totalenergies,Nzerekore Sory Keïta,,Dinguiraye,,,GN,,https://store.totalenergies.fr/en_EN/GN_39,,TotalEnergies,Q154037
GN_4,totalenergies,Domino,,CONAKRY,,,GN,+224 628 68 69 09,https://store.totalenergies.fr/en_EN/GN_4,Mo-Su 06:00-22:00,TotalEnergies,Q154037
GN_51,totalenergies,Lambanyi,,Conakry,,,GN,,https://store.totalenergies.fr/en_EN/GN_51,,TotalEnergies,Q154037
GN_63,totalenergies,Siguiri Demba Coulibaly,,Siguiri,,,GN,,https://store.totalenergies.fr/en_EN/GN_63,,TotalEnergies,Q154037
GN_72,totalenergies,SIGUIRI DANKA KORO,,Kankan,,,GN,,https://store.totalenergies.fr/en_EN/GN_72,,TotalEnergies,Q154037
GN_82,totalenergies,Dinguiraye Elhadj LY,,Dabola,,,GN,,https://store.totalenergies.fr/en_EN/GN_82,,TotalEnergies,Q154037
GN_92,totalenergies,Mamou C,,Dalaba,,,GN,,https://store.totalenergies.fr/en_EN/GN_92,,TotalEnergies,Q154037
GN_94,totalenergies,Mamou Carrefour,,Kindia,,,GN,,https://store.totalenergies.fr/en_EN/GN_94,,TotalEnergies,Q154037
GN_96,totalenergies,Tougué,,Pita,,,GN,,https://store.totalenergies.fr/en_EN/GN_96,,TotalEnergies,Q154037
GN_98,totalenergies,Mamou D,,Conakry,,,GN,,https://store.totalenergies.fr/en_EN/GN_98,,TotalEnergies,Q154037
,visa,,,KALOUM,,,GN,,,,,
3fda669652d94dbe9e603a9c638f38cf,western_union,MANQUEPAS,,Conakry,,,GN,+224 657 67 38 07,https://location.westernunion.com/gn/state/conakry/3fda669652d94dbe9e603a9c638f38cf,Mo-Su 08:00-21:00,Western Union,Q861042
b28fc4dabd9b0fc86d220e07331d173e,western_union,BNB ETS LOURA SERVICES,,Conakry,,,GN,+224 628 85 01 37,https://location.westernunion.com/gn/state/conakry/b28fc4dabd9b0fc86d220e07331d173e,Mo-Sa 08:00-20:00,Western Union,Q861042
3a4c8df357d02da41a74adf2f1790ab8,western_union,BONFI,,Conakry,,,GN,+224 658 67 38 08,https://location.westernunion.com/gn/state/conakry/3a4c8df357d02da41a74adf2f1790ab8,Mo-Su 08:00-21:00,Western Union,Q861042
b7a17612ba10ea19285dc505148fa783,western_union,KOLOMA,,Conakry,,,GN,+224 657 67 38 07,https://location.westernunion.com/gn/state/conakry/b7a17612ba10ea19285dc505148fa783,Mo-Su 08:00-21:00,Western Union,Q861042
df00c07ca09696e377e4d334df52f074,western_union,TAOUYAH,,Conakry,,,GN,+224 657 67 38 05,https://location.westernunion.com/gn/state/conakry/df00c07ca09696e377e4d334df52f074,Mo-Su 08:00-21:00,Western Union,Q861042
ec3ba4a368ba6a3fbce3fb18eea29376,western_union,DUBREKA,,Dubreka,,,GN,+224 657 67 38 30,https://location.westernunion.com/gn/state/dubreka/ec3ba4a368ba6a3fbce3fb18eea29376,Mo-Su 08:00-21:00,Western Union,Q861042
472f06bdccca04a06123b2c69f1ae57e,western_union,KISSOSSO,,Conakry,,,GN,+224 657 67 38 30,https://location.westernunion.com/gn/state/conakry/472f06bdccca04a06123b2c69f1ae57e,Mo-Su 08:00-21:00,Western Union,Q861042
78f897db23ca7138bb381bfcbb6c5eeb,western_union,WELY WELY SA,,Conakry,,,GN,+224 624 51 06 43,https://location.westernunion.com/gn/state/conakry/78f897db23ca7138bb381bfcbb6c5eeb,Mo-Su 08:00-19:00,Western Union,Q861042
c8dc1d977d08f8f9f7c39e31a7451c8b,western_union,WELY WELY SA,,Conakry,,,GN,+224 624 51 06 43,https://location.westernunion.com/gn/state/conakry/c8dc1d977d08f8f9f7c39e31a7451c8b,Mo-Su 08:00-19:00,Western Union,Q861042
a2cfec3e862d321c6872dac37cb280cf,western_union,TINO ENTA NORD,,Conakry,,,GN,+224 623 47 23 23,https://location.westernunion.com/gn/state/conakry/a2cfec3e862d321c6872dac37cb280cf,Mo-Sa 08:00-20:00,Western Union,Q861042
51aa5fcfb7e09108266d5a2400b15a43,western_union,TANNERIE,,Conakry,,,GN,+224 657 67 38 20,https://location.westernunion.com/gn/state/conakry/51aa5fcfb7e09108266d5a2400b15a43,Mo-Su 08:00-21:00,Western Union,Q861042
16339e527014f61f98d3a7088b0f1f3b,western_union,ETS ADF,,Conakry,,,GN,+224 622 72 15 87,https://location.westernunion.com/gn/state/conakry/16339e527014f61f98d3a7088b0f1f3b,Mo-Sa 08:00-18:00,Western Union,Q861042
a0d360d73a457e2fd376a939d36e0e56,western_union,ETS ADF,,Conakry,,,GN,+224 622 72 15 87,https://location.westernunion.com/gn/state/conakry/a0d360d73a457e2fd376a939d36e0e56,Mo-Sa 08:00-18:00,Western Union,Q861042
b4e51d7eed80af8f00623a8ad5cbe06a,western_union,ETS ADF,,Conakry,,,GN,+224 622 29 32 72,https://location.westernunion.com/gn/state/conakry/b4e51d7eed80af8f00623a8ad5cbe06a,Mo-Sa 08:00-18:00,Western Union,Q861042
ce9f1c15ca730fe3bd22470cd958adbb,western_union,ETS ADF,,Conakry,,,GN,+224 620 61 65 55,https://location.westernunion.com/gn/state/conakry/ce9f1c15ca730fe3bd22470cd958adbb,Mo-Sa 08:00-18:00,Western Union,Q861042
