Ref,Spider,Name,Address,City,State,Zipcode,Country,Phone,Website,Hours,Brand,WikiData
https://magasins.autourdebebe.com/#location-399,autour_de_bebe_fr,adbb autour de bébé Bayonne,,Bayonne,,,FR,+33 5 59 45 00 37,https://magasins.autourdebebe.com/fr/france-FR/399/adbb-autour-de-bebe-bayonne/details,"Mo-Sa 10:00-13:00,14:00-19:00",Autour de Bébé,Q117842411
1090700866,banque_populaire_fr,ENTREPRISES GROUPE COTE BASQUE,,BAYONNE,,,FR,,https://agences.banquepopulaire.fr/banque-assurance/agence-entreprises-groupe-cote-basque-id1090700866,,Banque Populaire,Q846647
1090700016,banque_populaire_fr,BAYONNE ST ESPRIT,,BAYONNE,,,FR,+33 5 59 29 07 80,https://agences.banquepopulaire.fr/banque-assurance/agence-bayonne-st-esprit-id1090700016,"Tu-We 09:00-12:30,13:45-18:00; Th 09:00-12:30,14:45-18:00; Fr 09:00-12:30,13:45-18:00; Sa 09:00-12:30",Banque Populaire,Q846647
1090700015,banque_populaire_fr,BAYONNE,,BAYONNE,,,FR,+33 5 59 15 16 40,https://agences.banquepopulaire.fr/banque-assurance/agence-bayonne-id1090700015,"Mo-We 09:00-12:15,13:45-18:00; Th 09:00-12:15,14:45-18:00; Fr 09:00-12:15,13:45-18:00",Banque Populaire,Q846647
_EXTRA00071,banque_populaire_fr,BANQUE PRIVEE 40 - 64,,BAYONNE,,,FR,+33 5 58 56 55 13,https://agences.banquepopulaire.fr/banque-assurance/agence-banque-privee-40-64-id_EXTRA00071,,Banque Populaire,Q846647
04951_1,bmw_group,BAYERN BY AUTOSPHERE BAYONNE,,BAYONNE,,,FR,+33 5 59 50 88 77,http://www.bmw-bayern-bayonne.fr/,,BMW,Q26678
4121,carrefour_fr,Carrefour Express,,Bayonne,,,FR,+33 5 59 03 87 63,https://www.carrefour.fr/magasin/express-bayonne-marechal-foch,"Mo-Sa 07:00-21:00; Su 09:00-13:00,15:00-20:00",Carrefour Express,Q2940190
4373,carrefour_fr,Carrefour City,,Bayonne,,,FR,+33 5 59 70 00 22,https://www.carrefour.fr/magasin/city-bayonne-hugo,Mo-Sa 07:00-22:00; Su 09:00-22:00,Carrefour City,Q2940187
4577,carrefour_fr,Carrefour City,,Bayonne,,,FR,+33 5 59 45 70 32,https://www.carrefour.fr/magasin/city-bayonne-marinadour,Mo-Sa 07:00-21:00; Su 09:00-20:00,Carrefour City,Q2940187
6275,carrefour_fr,Carrefour Express,,Bayonne,,,FR,+33 5 59 50 57 19,https://www.carrefour.fr/magasin/express-bayonne,Mo-Su 06:00-22:00,Carrefour Express,Q2940190
6859,carrefour_fr,Carrefour Contact,,Bayonne,,,FR,+33 5 54 66 54 66,https://www.carrefour.fr/magasin/contact-bayonne-lorraine,Mo-Sa 08:00-22:00; Su 09:00-21:00,Carrefour Contact,Q2940188
8455,carrefour_fr,Market Bayonne Marracq,,Bayonne,,,FR,+33 5 59 52 03 03,https://www.carrefour.fr/magasin/market-bayonne-marracq,Mo-Sa 08:30-20:00; Su 09:00-12:30,Carrefour Market,Q2689639
84969,century_21_fr,CENTURY 21 Berritzea,,BAYONNE,,,FR,+33 5 59 46 21 21,https://www.century21.fr/trouver_agence/agence/84969/,,Century 21,Q1054480
https://www.credit-agricole.fr/particulier/agence/pyrenees-gascogne/bayonne-thiers-5947.html,credit_agricole,Crédit Agricole,,BAYONNE,,,FR,+33 5 59 31 39 05,https://www.credit-agricole.fr/particulier/agence/pyrenees-gascogne/bayonne-thiers-5947.html,"Mo-Fr 09:00-12:20,13:30-17:30",Credit Agricole,Q590952
https://www.credit-agricole.fr/particulier/agence/pyrenees-gascogne/bayonne-saint-esprit-5945.html,credit_agricole,Crédit Agricole,,BAYONNE,,,FR,+33 5 59 29 34 55,https://www.credit-agricole.fr/particulier/agence/pyrenees-gascogne/bayonne-saint-esprit-5945.html,"Tu-Fr 09:00-12:30,13:30-18:00; Sa 08:30-13:00",Credit Agricole,Q590952
https://www.credit-agricole.fr/particulier/agence/pyrenees-gascogne/bayonne-grand-basque-5949.html,credit_agricole,Crédit Agricole,,BAYONNE,,,FR,+33 5 59 31 83 06,https://www.credit-agricole.fr/particulier/agence/pyrenees-gascogne/bayonne-grand-basque-5949.html,"Mo-Su 00:00-12:30,12:30-24:00",Credit Agricole,Q590952
https://www.credit-agricole.fr/particulier/agence/pyrenees-gascogne/bayonne-bertaco-5948.html,credit_agricole,Crédit Agricole,,BAYONNE,,,FR,+33 5 59 31 70 47,https://www.credit-agricole.fr/particulier/agence/pyrenees-gascogne/bayonne-bertaco-5948.html,"Tu-Fr 09:00-12:30,13:30-18:00; Sa 08:30-12:30",Credit Agricole,Q590952
https://www.credit-agricole.fr/particulier/agence/pyrenees-gascogne/banque-privee-ca-pays-basque-592.html,credit_agricole,Crédit Agricole,,BAYONNE,,,FR,+33 5 59 13 09 98,https://www.credit-agricole.fr/particulier/agence/pyrenees-gascogne/banque-privee-ca-pays-basque-592.html,"Mo-Fr 09:00-12:00,14:00-17:00",Credit Agricole,Q590952
https://www.credit-agricole.fr/particulier/agence/pyrenees-gascogne/agence-entreprises-de-bayonne-5921.html,credit_agricole,Crédit Agricole,,BAYONNE,,,FR,,https://www.credit-agricole.fr/particulier/agence/pyrenees-gascogne/agence-entreprises-de-bayonne-5921.html,"Mo-We 08:30-12:30,13:30-17:30; Th 10:00-12:30,13:30-17:30; Fr 08:30-12:30,13:30-17:30",Credit Agricole,Q590952
02278,credit_mutuel_fr,CAISSE DE CREDIT MUTUEL BAYONNE SAINT ESPRIT,,BAYONNE,,,FR,+33 5 59 03 66 80,https://www.creditmutuel.fr/fr/caisses/10278/02278/00/000,,Crédit Mutuel,Q642627
02277,credit_mutuel_fr,CAISSE DE CREDIT MUTUEL BAYONNE CENTRE,,BAYONNE,,,FR,+33 5 59 03 73 57,https://www.creditmutuel.fr/fr/caisses/10278/02277/00/000,,Crédit Mutuel,Q642627
775,croix_rouge_francaise_fr,UNITE LOCALE DE BAYONNE,,BAYONNE,,,FR,,https://www.croix-rouge.fr/unite-locale-de-bayonne,"Mo 09:00-12:00,14:00-17:00; Tu-Fr 09:00-12:00,14:00-17:30",Croix-Rouge française,Q3003244
https://www.dominos.fr/magasin/bayonne_64100,dominos_pizza_fr,Domino's,,BAYONNE,,,FR,,https://www.dominos.fr/magasin/bayonne_64100,,Domino's,Q839466
france#bayonne,ernst_young,EY,"54 avenue du 8 Mai 1945, Now Connected, Espace On Spot",Bayonne,,,FR,+33 5 59 44 59 50,https://www.ey.com/locations/france#bayonne,,EY,Q489097
https://bureaux.kpmg.fr/#location-216,kpmg_fr,KPMG Bayonne - Biarritz / Anglet,,Bayonne,,,FR,+33 5 59 57 59 57,https://bureaux.kpmg.fr/fr/france-FR/216/kpmg-bayonne-biarritz-anglet/details,"Mo-Th 08:30-12:30,13:30-17:30; Fr 08:30-12:30,13:30-16:30",KPMG,Q493751
71,leroy_merlin,Bayonne,,Bayonne,,,FR,+33 5 59 31 47 60,https://www.leroymerlin.fr/magasins/bayonne.html,Mo-Sa 08:00-20:00; Su 09:00-18:00,Leroy Merlin,Q889624
936,lidl_fr,BAYONNE,,BAYONNE,,,FR,,,Mo-Sa 08:30-20:00,Lidl,Q151954
FR382,longchamp,Sieulanne Bagages,,BAYONNE,,,FR,+33 5 59 46 16 60,,,Longchamp,Q1869471
40435,man_truck_and_bus,SEG ARRIETA,,Bayonne,,,FR,+33 5 59 55 72 74,,,MAN Truck & Bus,Q708667
59261,man_truck_and_bus,SARL HENRI ARRIETA,,Bayonne,,,FR,+33 5 59 55 72 74,,,MAN Truck & Bus,Q708667
896,mcdonalds_fr,BAYONNE SAINT ESPRIT,,BAYONNE,,,FR,+33 5 59 55 05 63,https://www.mcdonalds.fr/restaurants/mcdonalds-bayonne-saint-esprit/896,Mo-Th 10:00-23:00; Fr-Sa 10:00-24:00; Su 10:00-23:00,McDonald's,Q38076
72635500,moneygram,AFRO SHOP - BAYONNE,,BAYONNE,,,FR,+33 5 59 55 62 18,,Mo-Sa 09:00-19:00; Su 00:00-24:00,MoneyGram,Q1944412
72770805,moneygram,BAY-AFRICA - BAYONNE,,BAYONNE,,,FR,+33 5 47 75 98 39,,Mo-Sa 09:00-20:00; Su 00:00-24:00,MoneyGram,Q1944412
26666,relay_fr,Relay Gare de Bayonne,,Bayonne,,,FR,+33 5 59 70 57 70,https://www.relay.com/stores/relay-gare-de-bayonne/,Mo-Th 06:00-19:00; Fr 06:00-19:30; Sa 06:00-18:00; Su 07:00-20:00,Relay,Q3424298
00000171_001-renault,renault,RENAULT BAYONNE - EDENAUTO,,BAYONNE,,,FR,+33 5 59 58 59 58,,,Renault,Q6686
00000171_001-dacia,renault,RENAULT BAYONNE - EDENAUTO,,BAYONNE,,,FR,+33 5 59 58 59 58,,,Dacia,Q27460
https://www.sixt.co.uk/car-hire/france/bayonne/bayonne-station/,sixt,Car Hire Bayonne Train Station | SIXT rent a car,,Bayonne,,,FR,,https://www.sixt.co.uk/car-hire/france/bayonne/bayonne-station/,Mo-Sa 08:30-17:30; Su 10:30-16:30,SIXT,Q705664
https://www.sixt.co.uk/car-hire/france/bayonne/bayonne/,sixt,Car Hire Bayonne | SIXT rent a car,,Bayonne,,,FR,,https://www.sixt.co.uk/car-hire/france/bayonne/bayonne/,Mo-Sa 08:00-18:00; Su 10:00-17:00,SIXT,Q705664
spar-bayonne-regiment-d-infanterie,spar_fr,SPAR Bayonne Regiment d'Infanterie,,Bayonne,,,FR,+33 5 47 75 16 87,https://magasins.spar.fr/fr/s/spar-bayonne-regiment-d-infanterie,Mo-Su 09:00-22:00,Spar,Q610492
spar-supermarche-bayonne,spar_fr,SPAR Supermarché Bayonne,,Bayonne,,,FR,+33 5 59 31 11 71,https://magasins.spar.fr/fr/s/spar-supermarche-bayonne,Mo-Sa 07:30-21:45; Su 08:30-20:00,Spar,Q610492
spar-bayonne-8-mai-1945,spar_fr,SPAR Bayonne,,Bayonne,,,FR,+33 5 59 70 08 49,https://magasins.spar.fr/fr/s/spar-bayonne-8-mai-1945,Mo-Sa 07:00-19:00,Spar,Q610492
NF001305,totalenergies,RELAIS BAYONNE GUYENNE,,BAYONNE,,,FR,+33 5 59 50 57 19,https://store.totalenergies.fr/en_EN/NF001305,Mo-Su 06:00-22:00,Total Access,Q154037
NF001306,totalenergies,RELAIS BAYONNE SAINTE CROIX,,BAYONNE,,,FR,+33 5 59 55 06 87,https://store.totalenergies.fr/en_EN/NF001306,Mo-Fr 07:00-20:30; Sa-Su 08:00-20:00,Total Access,Q154037
NF001322,totalenergies,SARL ESSENJY,,BAYONNE,,,FR,+33 5 59 55 19 75,https://store.totalenergies.fr/en_EN/NF001322,"Mo-Fr 07:00-20:00; Sa 08:30-12:30,15:30-19:30",TotalEnergies,Q154037
NF900191,totalenergies,ESSO,,BAYONNE,,,FR,,https://store.totalenergies.fr/en_EN/NF900191,,Esso,Q867662
N780048,united_colors_of_benetton,Benetton Bayonne,,BAYONNE,,,FR,null,,,United Colors of Benetton,Q817139
,visa,,,BAYONNE,,,FR,,,,,
,visa,,,BAYONNE,,,FR,,,,,
,visa,,,BAYONNE,,,FR,,,,,
,visa,,,BAYONNE,,,FR,,,,,
,visa,,,BAYONNE,,,FR,,,,,
,visa,,,BAYONNE,,,FR,,,,,
,visa,,,BAYONNE,,,FR,,,,,
,visa,,,BAYONNE,,,FR,,,,,
,visa,,,BAYONNE,,,FR,,,,,
,visa,,,BAYONNE,,,FR,,,,,
,visa,,,BAYONNE,,,FR,,,,,
,visa,,,BAYONNE,,,FR,,,,,
,visa,,,BAYONNE,,,FR,,,,,
,visa,,,BAYONNE,,,FR,,,,,
,visa,,,BAYONNE,,,FR,,,,,
,visa,,,BAYONNE,,,FR,,,,,
,visa,,,BAYONNE,,,FR,,,,,
,visa,,,BAYONNE,,,FR,,,,,
,visa,,,BAYONNE,,,FR,,,,,
,visa,,,BAYONNE,,,FR,,,,,
,visa,,,BAYONNE,,,FR,,,,,
,visa,,,BAYONNE,,,FR,,,,,
,visa,,,BAYONNE,,,FR,,,,,
,visa,,,BAYONNE SAINT ESPRIT,,,FR,,,,,
,visa,,,BAYONNE,,,FR,,,,,
,visa,,,BAYONNE,,,FR,,,,,
,visa,,,BAYONNE,,,FR,,,,,
,visa,,,BAYONNE,,,FR,,,,,
