Ref,Spider,Name,Address,City,State,Zipcode,Country,Phone,Website,Hours,Brand,WikiData
4b5848d5dc939199df0dff2d9e3d2635,western_union,THE FELIX BUSINESS 3 PORT SALUT,,Port Salut,SUD,,HT,+509 36 63 7766,https://location.westernunion.com/ht/sud/port-salut/4b5848d5dc939199df0dff2d9e3d2635,Mo-Su 07:00-22:00,Western Union,Q861042
0d8d8b1342ad7c341b7d2021ba77c8ab,western_union,FONKOZE LES COTEAUX,,Les Coteaux,SUD,,HT,+509 28 15 0631,https://location.westernunion.com/ht/sud/les-coteaux/0d8d8b1342ad7c341b7d2021ba77c8ab,Mo-Fr 08:00-17:00; Sa 08:00-14:00,Western Union,Q861042
93cabe5a3b5228bce647c597ab760e2e,western_union,FONKOZE THIOTTE,,Jakmel,SUD,,HT,+509 28 15 0643,https://location.westernunion.com/ht/sud/jakmel/93cabe5a3b5228bce647c597ab760e2e,Mo-Fr 08:00-17:00; Sa 08:00-14:00,Western Union,Q861042
5c171b844943227ad10b8314b0918cf2,western_union,FONKOZE DAME MARIE,,Jeremie,SUD,,HT,+509 44 03 3007,https://location.westernunion.com/ht/sud/jeremie/5c171b844943227ad10b8314b0918cf2,Mo-Fr 08:00-17:00; Sa 08:00-14:00,Western Union,Q861042
09c4ec164f929ebea8c6af9b8385ba1c,western_union,FONKOZE PORMAGOT,,Pormagot,SUD,,HT,+509 28 15 0634,https://location.westernunion.com/ht/sud/pormagot/09c4ec164f929ebea8c6af9b8385ba1c,Mo-Fr 08:00-17:00; Sa 08:00-14:00,Western Union,Q861042
17b4a1abd9abdc4b9425daa8b6efdade,western_union,THE FELIX BUSINESS 7 TORBECK,,Torbeck,SUD,,HT,+509 36 63 7766,https://location.westernunion.com/ht/sud/torbeck/17b4a1abd9abdc4b9425daa8b6efdade,Mo-Sa 08:00-18:00; Su 08:00-16:00,Western Union,Q861042
eb55c7ee4518a41d63b36f68e709921f,western_union,CARAIBES INTER MULTI SERVICES,,Grand Anse,SUD,,HT,+509 38 59 6346,https://location.westernunion.com/ht/sud/grand-anse/eb55c7ee4518a41d63b36f68e709921f,Mo-Su 07:00-22:00,Western Union,Q861042
b4eda343da228e1d81b488b4aefa55af,western_union,NIRA VARIETES,,Les Cayes,SUD,,HT,+509 37 07 5277,https://location.westernunion.com/ht/sud/les-cayes/b4eda343da228e1d81b488b4aefa55af,Mo-Su 07:00-22:00,Western Union,Q861042
509b09a558271099b4b15f4855627111,western_union,LA VOIX DE DIEU MULTI SERVICES,,Aquin,SUD,,HT,+509 36 98 2155,https://location.westernunion.com/ht/sud/aquin/509b09a558271099b4b15f4855627111,Mo-Sa 07:30-22:00; Su 09:30-13:00,Western Union,Q861042
a044235c2accb8bc95373624af3f7a93,western_union,STOP N BUY,,Les Cayes,SUD,,HT,+509 38 05 0505,https://location.westernunion.com/ht/sud/les-cayes/a044235c2accb8bc95373624af3f7a93,Mo-Su 07:00-22:00,Western Union,Q861042
08f7e4b05ce8c1a7b118345e21a59984,western_union,THE FELIX BUSINESS 4 CAMP PERRIN,,Camp Perrin,SUD,,HT,+509 36 63 7766,https://location.westernunion.com/ht/sud/camp-perrin/08f7e4b05ce8c1a7b118345e21a59984,Mo-Su 07:00-22:00,Western Union,Q861042
ab2826f151ae0d421bb1e1aff72f1b10,western_union,SERGO AUTO PARTS MULTI SERVICE,,Les Cayes,SUD,,HT,+509 37 38 8685,https://location.westernunion.com/ht/sud/les-cayes/ab2826f151ae0d421bb1e1aff72f1b10,Mo-Su 07:00-22:00,Western Union,Q861042
7f07ec11e3a127124c0702a603392d27,western_union,CARIBBEAN MULTISERVICE,,Cavaillon,SUD,,HT,+509 38 59 6346,https://location.westernunion.com/ht/sud/cavaillon/7f07ec11e3a127124c0702a603392d27,Mo-Su 07:00-22:00,Western Union,Q861042
bcacf26ad491d4aa943bf19f4e5f311d,western_union,MOODYOLO,,Cayes,SUD,,HT,+509 47 05 3644,https://location.westernunion.com/ht/sud/cayes/bcacf26ad491d4aa943bf19f4e5f311d,Mo-Su 07:00-22:00,Western Union,Q861042
fbbc94bd66a2459b3b7f2800dea46991,western_union,LA DIFFERENCE MULTI SERVICES 2,,Cayes,SUD,,HT,+509 28 13 1512,https://location.westernunion.com/ht/sud/cayes/fbbc94bd66a2459b3b7f2800dea46991,Mo-Sa 08:00-16:00; Su 09:00-14:00,Western Union,Q861042
8f65439d1f2873a70067feec4f5fadd1,western_union,MANZE SHOP 3,,Les Cayes,SUD,,HT,+509 37 31 0706,https://location.westernunion.com/ht/sud/les-cayes/8f65439d1f2873a70067feec4f5fadd1,Mo-Su 07:00-22:00,Western Union,Q861042
0396b647fcce557130c7271006a9937b,western_union,SAKALAKAWEL QUINCAILLERIE,,Cayes,SUD,,HT,+509 47 63 4319,https://location.westernunion.com/ht/sud/cayes/0396b647fcce557130c7271006a9937b,Mo-Su 07:00-22:00,Western Union,Q861042
f2339cbf8c60262e66f06307b54a4cec,western_union,RICHARD CELL,,Cayes,SUD,,HT,+509 37 36 3635,https://location.westernunion.com/ht/sud/cayes/f2339cbf8c60262e66f06307b54a4cec,Mo-Su 07:00-22:00,Western Union,Q861042
c0db647c007efb80b845dbca034dda3b,western_union,WUIDNY DISTRIBUTION,,Cayes,SUD,,HT,+509 37 11 5097,https://location.westernunion.com/ht/sud/cayes/c0db647c007efb80b845dbca034dda3b,Mo-Su 07:00-22:00,Western Union,Q861042
4986d9862fa5797dcdb5d32391db0c14,western_union,OPTI INFO MULTI SERVICES,,Les Cayes,SUD,,HT,+509 32 96 4681,https://location.westernunion.com/ht/sud/les-cayes/4986d9862fa5797dcdb5d32391db0c14,Mo-Su 07:00-22:00,Western Union,Q861042
e3e3999a3104143c462198eb5b7a154f,western_union,AGENCE DEUX MAPOUS,,Les Cayes,SUD,,HT,+509 38 59 9624,https://location.westernunion.com/ht/sud/les-cayes/e3e3999a3104143c462198eb5b7a154f,Mo-Su 07:00-22:00,Western Union,Q861042
f3143bbb9c1cbbf91f3c492c87adc251,western_union,DIDICE ENTREPRISE DE SERVICES 2,,Cayes,SUD,,HT,+509 28 13 1537,https://location.westernunion.com/ht/sud/cayes/f3143bbb9c1cbbf91f3c492c87adc251,Mo-Fr 08:00-16:00; Sa 08:00-14:00,Western Union,Q861042
e4dac11dadd072ad3195d025d3e345a8,western_union,ATLANTIS TRUCKING SERVICES,,Les Cayes,SUD,,HT,+509 38 70 5079,https://location.westernunion.com/ht/sud/les-cayes/e4dac11dadd072ad3195d025d3e345a8,Mo-Su 07:00-22:00,Western Union,Q861042
dae20193451cba847485f205ca833cc1,western_union,FONKOZE CAYES,,Cayes,SUD,,HT,+509 28 15 0630,https://location.westernunion.com/ht/sud/cayes/dae20193451cba847485f205ca833cc1,Mo-Fr 08:00-17:00; Sa 08:00-14:00,Western Union,Q861042
a267f0a312d2af596c08b151bfcc6cd5,western_union,SOGEXPRESS CAYES 1,,Les Cayes,SUD,,HT,+509 38 59 9621,https://location.westernunion.com/ht/sud/les-cayes/a267f0a312d2af596c08b151bfcc6cd5,Mo-Su 07:00-22:00,Western Union,Q861042
8687729f36bd16d901dc184f45b8ba06,western_union,MANZE SHOP,,Les Cayes,SUD,,HT,(+509) 7017111,https://location.westernunion.com/ht/sud/les-cayes/8687729f36bd16d901dc184f45b8ba06,Mo-Su 07:00-22:00,Western Union,Q861042
f9338a7513cb931a325e3702ed9409da,western_union,KEPLER MERCIER DISTRIBUTION,,Cayes,SUD,,HT,+509 38 78 6650,https://location.westernunion.com/ht/sud/cayes/f9338a7513cb931a325e3702ed9409da,Mo-Su 07:00-22:00,Western Union,Q861042
db100ac5eac4aa03fc86043e5736701b,western_union,MANZE SHOP II,,Les Cayes,SUD,,HT,+509 37 31 0706,https://location.westernunion.com/ht/sud/les-cayes/db100ac5eac4aa03fc86043e5736701b,Mo-Su 07:00-22:00,Western Union,Q861042
f057b3245888e0584fd9dfebe6950daf,western_union,ADONAI JIREH AUTO PARTS,,Les Cayes,SUD,,HT,+509 22 70 1188,https://location.westernunion.com/ht/sud/les-cayes/f057b3245888e0584fd9dfebe6950daf,Mo-Su 07:00-22:00,Western Union,Q861042
e98898a73ef6d89f6b2085f306c4abd8,western_union,MICHELIN MULTI SERVICES 3,,Aquin,SUD,,HT,+509 28 13 1537,https://location.westernunion.com/ht/sud/aquin/e98898a73ef6d89f6b2085f306c4abd8,Mo-Su 07:30-19:00,Western Union,Q861042
481e8faa931b52abac56443030c0fb1e,western_union,FONKOZE BELLE ANSE,,Jakmel,SUD,,HT,+509 28 15 0604,https://location.westernunion.com/ht/sud/jakmel/481e8faa931b52abac56443030c0fb1e,Mo-Fr 08:00-17:00; Sa 08:00-14:00,Western Union,Q861042
aa076ae012eba86569b7bfb7b7c4ba87,western_union,BADY MULTI SERVICES,,Chantaal,SUD,,HT,+509 48 92 9717,https://location.westernunion.com/ht/sud/chantaal/aa076ae012eba86569b7bfb7b7c4ba87,Mo-Su 07:00-22:00,Western Union,Q861042
5e2bdd78e94f41b66fae27642a7c4a09,western_union,LA PERFECTION BOUTIQUE,,Port Salut,SUD,,HT,+509 36 02 6257,https://location.westernunion.com/ht/sud/port-salut/5e2bdd78e94f41b66fae27642a7c4a09,Mo-Su 07:00-22:00,Western Union,Q861042
dc9565c35731d352fe06f1fda1f0c17e,western_union,FONKOZE TABARRE,,Tabarre,SUD,,HT,+509 28 15 0645,https://location.westernunion.com/ht/sud/tabarre/dc9565c35731d352fe06f1fda1f0c17e,Mo-Fr 08:00-17:00; Sa 08:00-14:00,Western Union,Q861042
6cd78439c0ef5cb5f3df057487ea048b,western_union,FONKOZE PORT AU PRINCE,,Port Au Prince,SUD,,HT,+509 28 15 0601,https://location.westernunion.com/ht/sud/port-au-prince/6cd78439c0ef5cb5f3df057487ea048b,Mo-Fr 08:00-17:00; Sa 08:00-14:00,Western Union,Q861042
88c2381d9df9db035bc84ce77e862688,western_union,KARIBU MULTI SERVICES,,Aquin,SUD,,HT,+509 37 19 7986,https://location.westernunion.com/ht/sud/aquin/88c2381d9df9db035bc84ce77e862688,Mo-Su 07:00-22:00,Western Union,Q861042
a633e07699f031ef69edbc5452343619,western_union,FONKOZE AQUIN,,Aquin,SUD,,HT,+509 28 15 0602,https://location.westernunion.com/ht/sud/aquin/a633e07699f031ef69edbc5452343619,Mo-Fr 08:00-17:00; Sa 08:00-14:00,Western Union,Q861042
cc0ad104b3d67c0ee7e643793a2ac55b,western_union,COMPLEXE NENETTE,,Aquin,SUD,,HT,+509 37 16 8248,https://location.westernunion.com/ht/sud/aquin/cc0ad104b3d67c0ee7e643793a2ac55b,Mo-Su 07:00-22:00,Western Union,Q861042
61ff2fcefbab8cf723e12ddd9d47ae53,western_union,ST JOSEPH MULTI SERVICE,,Aquin,SUD,,HT,+509 38 59 6346,https://location.westernunion.com/ht/sud/aquin/61ff2fcefbab8cf723e12ddd9d47ae53,Mo-Su 07:00-22:00,Western Union,Q861042
cd329978b6ae59c67ea30cf606c16985,western_union,THE FELIX BUSINESS1 VIEUX BOUR,,Aquin,SUD,,HT,(+509) 2295900,https://location.westernunion.com/ht/sud/aquin/cd329978b6ae59c67ea30cf606c16985,Mo-Su 07:00-22:00,Western Union,Q861042
8112a423761371114e34631c1226d890,western_union,YVON MULTI SERVICES,,Fond Des Blancs,SUD,,HT,+509 37 88 1661,https://location.westernunion.com/ht/sud/fond-des-blancs/8112a423761371114e34631c1226d890,Mo-Su 07:00-22:00,Western Union,Q861042
406243c149bbfe242d2003255e66781e,western_union,FONKOZE FOND DES BLANCS,,Fond Des Blancs,SUD,,HT,+509 28 15 0609,https://location.westernunion.com/ht/sud/fond-des-blancs/406243c149bbfe242d2003255e66781e,Mo-Fr 08:00-17:00; Sa 08:00-14:00,Western Union,Q861042
c622bcd8aef781ab1ed339b92636ff3d,western_union,QUEENS MULTI SERVICES 10,,Aquin,SUD,,HT,+509 28 13 1537,https://location.westernunion.com/ht/sud/aquin/c622bcd8aef781ab1ed339b92636ff3d,Mo-Su 07:00-18:00,Western Union,Q861042
b0af87fd0810f1a876e632dadee7302b,western_union,THE FELIX BUSINESS 2,,Aquin,SUD,,HT,+509 37 91 2506,https://location.westernunion.com/ht/sud/aquin/b0af87fd0810f1a876e632dadee7302b,Mo-Su 07:00-22:00,Western Union,Q861042
