Ref,Spider,Name,Address,City,State,Zipcode,Country,Phone,Website,Hours,Brand,WikiData
AU-1638,anytime_fitness,Anytime Fitness,,Clyde North,VIC,,AU,,https://anytimefitness.com.au/gyms/au-1638/clyde-north-vic-3978/,,Anytime Fitness,Q4778364
RED0010659,australia_post_au,,,CARDINIA,VIC,,AU,,,,Australia Post,Q1142936
329703_PO,australia_post_au,CLYDE LPO,,CLYDE,VIC,,AU,+61 3 5998 5229,,,Australia Post,Q1142936
80865983_UPL,australia_post_au,Clyde Parcel Locker,,CLYDE,VIC,,AU,,,24/7,Australia Post,Q1142936
RED0010660,australia_post_au,,,CLYDE,VIC,,AU,,,,Australia Post,Q1142936
RED0013827,australia_post_au,,,CLYDE,VIC,,AU,,,,Australia Post,Q1142936
RED0010650,australia_post_au,,,CLYDE NORTH,VIC,,AU,,,,Australia Post,Q1142936
RED0013698,australia_post_au,,,CLYDE NORTH,VIC,,AU,,,,Australia Post,Q1142936
9757,bp,BP CLYDE,,CLYDE,VIC,,AU,+61 3 5999 0980,,24/7,BP,Q152057
2889,coles_au,Clyde North,,Clyde North,VIC,,AU,+61 3 5991 6380,,,Liquorland,Q2283837
7758,coles_au,Coles Clyde North,,Clyde North,VIC,,AU,+61 3 5991 6300,,,Coles Supermarkets,Q1108172
1980,coles_au,Coles Express Clyde Village,,Clyde,VIC,,AU,+61 3 9075 1502,,,Coles Express,Q5144653
2801,coles_au,St Germain,,Clyde North,VIC,,AU,+61 3 8750 6180,,,Liquorland,Q2283837
7748,coles_au,Coles St Germain,,Clyde North,VIC,,AU,+61 3 8750 6100,,,Coles Supermarkets,Q1108172
6171151,exxonmobil,7-Eleven Five Ways,,Five Ways,VIC,,AU,+61 3 5998 1316,https://www.mobil.com.au/en-au/find-station/mobil-fiveways-vic-fiveways-6171151,24/7,Mobil,Q109676002
8349,hungry_jacks,Clyde North,,Clyde North,VIC,,AU,,,,Hungry Jack's,Q3036373
9501648,mcdonalds_qstore,CLYDE,,Clyde,VIC,,AU,+61 3 5998 5920,,24/7,McDonald's,Q38076
9501645,mcdonalds_qstore,Clyde North,,Clyde North,VIC,,AU,+61 3 9293 9200,,Mo-Su 07:00-00:00,McDonald's,Q38076
3192,petstock_au,Petstock Clyde North,,Clyde North,VIC,,AU,+61 3 8685 8515,https://www.petstock.com.au/pages/store/petstock-clyde-north,Mo-Th 09:00-18:00; Fr 09:00-19:00; Sa-Su 09:00-17:00,Petstock,Q106540728
320,rsea_safety_au,RSEA Safety Clyde North,,CLYDE NORTH,VIC,,AU,+61 3 9552 7932,https://www.rsea.com.au/store-locator/vic/clyde-north,Mo-Fr 07:30-17:30; Sa 09:00-17:00; Su 10:00-17:00,RSEA Safety,Q122418895
1151,seven_eleven_au,Five Ways,,Five Ways,VIC,,AU,+61 3 5998 1316,,24/7,7-Eleven,Q259340
10111232,shell,SHELL COLES EXPRESS CLYDE VILLAGE,,CLYDE,VIC,,AU,+61 3 9075 1502,https://find.shell.com/au/fuel/10111232-shell-coles-express-clyde-village,,Shell,Q110716465
10111231,shell,SHELL COLES EXPRESS CLYDE NORTH,,CLYDE NORTH,VIC,,AU,+61 3 8871 2608,https://find.shell.com/au/fuel/10111231-shell-coles-express-clyde-north,,Shell,Q110716465
2281,terry_white_chemmart_au,TerryWhite Chemmart Clyde,,Clyde,VIC,,AU,+61 3 5998 0400,https://terrywhitechemmart.com.au/stores/terrywhite-chemmart-clyde,Mo-Su 09:00-18:00,Terry White Chemmart,Q24089773
3880,terry_white_chemmart_au,TerryWhite Chemmart Waterside,,Clyde North,VIC,,AU,+61 3 9707 7100,https://terrywhitechemmart.com.au/stores/terrywhite-chemmart-waterside,Mo-Fr 08:00-18:00; Sa 09:00-17:00; Su 10:00-15:00,Terry White Chemmart,Q24089773
311,the_cheesecake_shop,Clyde North,"195 St Germain Boulevard, Clyde, VIC, 3978",,VIC,,AU,+61 3 5926 8003,https://www.cheesecake.com.au/find-bakery/clyde-north/,Mo-Sa 09:00-20:00; Su 10:00-19:00,The Cheesecake Shop,Q117717103
,visa,,,CLYDE,VIC,,AU,,,,,
,visa,,,CLYDE,VIC,,AU,,,,,
,visa,,,CLYDE NORTH,VIC,,AU,,,,,
