Ref,Spider,Name,Address,City,State,Zipcode,Country,Phone,Website,Hours,Brand,WikiData
4449,action,Bollène,,Bollène,,,FR,,https://www.action.com/fr-fr/points-de-vente/bollene-avenue-jean-moulin/,,Action,Q2634111
1460700225,banque_populaire_fr,BOLLENE,,BOLLENE,,,FR,+33 4 32 80 39 05,https://agences.banquepopulaire.fr/banque-assurance/agence-bollene-id1460700225,"Tu 08:30-12:20,14:00-18:00; We-Fr 08:30-12:20,13:30-18:00; Sa 08:30-12:35",Banque Populaire,Q846647
https://laboratoires.biogroup.fr/#29185029,biogroup_fr,BIOGROUP BIO-SANTIS Laboratoire Bollène,,,,,FR,+33 4 90 32 86 10,https://laboratoires.biogroup.fr/vaucluse/bollene/170-avenue-jean-moulin,Mo-Fr 06:30-14:00; Sa 07:00-12:00,Biogroup,Q101559741
https://www.credit-agricole.fr/particulier/agence/alpes-provence/bollene-1821.html,credit_agricole,Crédit Agricole,,Bollène,,,FR,+33 4 84 68 84 23,https://www.credit-agricole.fr/particulier/agence/alpes-provence/bollene-1821.html,"Tu-We 08:30-12:15,13:30-17:45; Th 09:15-12:15,14:30-17:45; Fr 08:30-12:15,13:30-17:45; Sa 08:30-12:45",Credit Agricole,Q590952
09085,credit_mutuel_fr,CAISSE DE CREDIT MUTUEL BOLLENE,,BOLLENE,,,FR,+33 4 32 80 34 14,https://www.creditmutuel.fr/fr/caisses/10278/09085/00/000,,Crédit Mutuel,Q642627
1041,croix_rouge_francaise_fr,UNITE LOCALE DU HAUT VAUCLUSE,,BOLLENE,,,FR,,https://www.croix-rouge.fr/unite-locale-du-haut-vaucluse,Tu 09:30-11:30; Th 14:00-18:00,Croix-Rouge française,Q3003244
0070036300363,decathlon_fr,Bollène,,Bollène,,,FR,+33 4 32 80 33 60,https://www.decathlon.fr/store-view/magasin-de-sports-bollene-0070036300363,Mo-Sa 09:00-19:00,Decathlon,Q509349
FordFF43203  FRA,ford,BOLLENE AUTOMOBILES SASU,,BOLLENE,,,FR,+33 4 90 30 10 61,,,Ford,Q44294
668,mcdonalds_fr,BOLLENE,,BOLLENE,,,FR,+33 4 90 30 26 26,https://www.mcdonalds.fr/restaurants/mcdonalds-bollene/668,Mo-Th 10:30-22:30; Fr-Sa 10:30-23:00; Su 10:30-22:30,McDonald's,Q38076
68764896,moneygram,SARL LABAZ - BOLLENE,,BOLLENE,,,FR,+33 9 50 24 56 40,,Mo-Su 08:30-20:30,MoneyGram,Q1944412
70184024,moneygram,CYB PHONE,,BOLLENE,,,FR,+33 9 67 20 93 53,,Mo-Su 09:00-20:00,MoneyGram,Q1944412
00022423_001-renault,renault,SA FATIGA AUTOMOBILES,,BOLLENE,,,FR,+33 4 90 30 51 52,,,Renault,Q6686
00022423_001-dacia,renault,SA FATIGA AUTOMOBILES,,BOLLENE,,,FR,+33 4 90 30 51 52,,,Dacia,Q27460
https://restaurants.subway.com/#14924419,subway,Subway,,Bollene,,,FR,+33 4 90 40 21 50,https://restaurants.subway.com/france/bollene/82-avenue-jean-giono,Mo-Su 10:00-22:00,Subway,Q244457
NF037300,totalenergies,GGE PORTES PROVENCE,,BOLLENE,,,FR,+33 4 90 30 10 46,https://store.totalenergies.fr/en_EN/NF037300,Mo-Su 00:01-24:00,TotalEnergies,Q154037
NF059402,totalenergies,RELAIS DES GRES,,BOLLENE,,,FR,+33 4 90 30 10 82,https://store.totalenergies.fr/en_EN/NF059402,Mo-Fr 06:00-20:00; Sa-Su 07:00-20:00,TotalEnergies,Q154037
NF913583,totalenergies,INDÉPENDANT,,Bollène,,,FR,,https://store.totalenergies.fr/en_EN/NF913583,,,
,visa,,,BOLLENE,,,FR,,,,,
,visa,,,BOLLENE,,,FR,,,,,
,visa,,,BOLLENE,,,FR,,,,,
,visa,,,BOLLENE,,,FR,,,,,
,visa,,,BOLLENE,,,FR,,,,,
,visa,,,BOLLENE,,,FR,,,,,
,visa,,,BOLLENE,,,FR,,,,,
,visa,,,BOLLENE,,,FR,,,,,
