Ref,Spider,Name,Address,City,State,Zipcode,Country,Phone,Website,Hours,Brand,WikiData
70852,bluerhino,East Rockville Sunoco,,Rockville,MD,,US,+1 301-460-7800,,,Blue Rhino,Q65681213
51795,citi,ATM CVS,,Rockville,MD,,US,,,,Citibank,Q857063
1502,cvs_us,CVS Pharmacy,,Rockville,MD,,US,+1 301-460-1120,https://www.cvs.com/store-locator/rockville-md-pharmacies/5560-norbeck-road-rockville-md-20853/storeid=1502,Mo-Su 08:00-22:00,CVS Pharmacy,Q2078880
200322215,exxonmobil,PMG 6136,,ROCKVILLE,MD,,US,+1 240-669-3723,https://www.exxon.com/en/find-station/exxon-rockville-md-pmg6136-200322215,24/7,Exxon,Q109675651
200312340,exxonmobil,GEORGIA AVE MOBIL,,ROCKVILLE,MD,,US,+1 301-929-1660,https://www.exxon.com/en/find-station/mobil-rockville-md-georgiaavemobil-200312340,Mo-Su 06:00-21:00,Mobil,Q109676002
https://local.pharmacy.safeway.com/#5673338,safeway,Safeway Pharmacy,,Rockville,MD,,US,+1 301-438-4023,https://local.pharmacy.safeway.com/safeway/md/rockville/5510-norbeck-rd.html,Mo-Fr 09:00-20:00; Sa 09:00-17:00; Su 10:00-17:00,Safeway,Q1508234
https://local.safeway.com/#5604199,safeway,Safeway,,Rockville,MD,,US,+1 301-438-4020,https://local.safeway.com/safeway/md/rockville/5510-norbeck-rd.html,"Mo-Fr 06:00-23:00,09:00-20:00; Sa 06:00-23:00,09:00-17:00; Su 06:00-23:00,10:00-17:00",Safeway,Q1508234
https://restaurants.subway.com/#14914963,subway,Subway Rock Creek Village Center,,Rockville Montgomery,MD,,US,+1 240-454-9415,https://restaurants.subway.com/united-states/md/rockville/5548-norbeck-road,Mo-Fr 09:00-21:00; Sa 10:00-21:00; Su 10:00-19:00,Subway,Q244457
0394485702,sunoco_us,Sunoco,,ROCKVILLE,MD,,US,+1 301-460-7800,,24/7,Sunoco,Q1423218
2085300003,usps_collection_boxes,USPS COLLECTION BOX - BLUE BOX,14620 MELINDA LN,ROCKVILLE,MD,,US,,,,United States Postal Service,Q668687
2085300010,usps_collection_boxes,USPS COLLECTION BOX - BLUE BOX,13921 PARKLAND DR,ROCKVILLE,MD,,US,,,,United States Postal Service,Q668687
2085300015,usps_collection_boxes,USPS COLLECTION BOX - BLUE BOX,14200 ARCTIC AVE,ROCKVILLE,MD,,US,,,,United States Postal Service,Q668687
2085300018,usps_collection_boxes,USPS COLLECTION BOX - BLUE BOX,14623 MYER TER,ROCKVILLE,MD,,US,,,,United States Postal Service,Q668687
2085300014,usps_collection_boxes,USPS COLLECTION BOX - BLUE BOX,4402 ASPEN HILL RD,ROCKVILLE,MD,,US,,,,United States Postal Service,Q668687
2085300023,usps_collection_boxes,USPS COLLECTION BOX - BLUE BOX,13801 ARCTIC AVE,ROCKVILLE,MD,,US,,,,United States Postal Service,Q668687
2085300017,usps_collection_boxes,USPS COLLECTION BOX - BLUE BOX,13704 DOWLAIS DR,ROCKVILLE,MD,,US,,,,United States Postal Service,Q668687
2085300012,usps_collection_boxes,USPS COLLECTION BOX - BLUE BOX,4317 INDEPENDENCE ST,ROCKVILLE,MD,,US,,,,United States Postal Service,Q668687
2085300016,usps_collection_boxes,USPS COLLECTION BOX - BLUE BOX,13401 ARCTIC AVE,ROCKVILLE,MD,,US,,,,United States Postal Service,Q668687
2085300011,usps_collection_boxes,USPS COLLECTION BOX - BLUE BOX,13101 GLASGOW DR,ROCKVILLE,MD,,US,,,,United States Postal Service,Q668687
2085300005,usps_collection_boxes,USPS COLLECTION BOX - BLUE BOX,4601 ADRIAN ST,ROCKVILLE,MD,,US,,,,United States Postal Service,Q668687
,visa,,,ROCKVILLE,MD,,US,,,,,
,visa,,,ROCKVILLE,MD,,US,,,,,
,visa,,,ROCKVILLE,MD,,US,,,,,
,visa,,,ROCKVILLE,MD,,US,,,,,
,visa,,,ROCKVILLE,MD,,US,,,,,
,visa,,,ROCKVILLE,MD,,US,,,,,
,visa,,,ROCKVILLE,MD,,US,,,,,
,visa,,,ROCKVILLE,MD,,US,,,,,
,visa,,,ROCKVILLE,MD,,US,,,,,
,visa,,,ROCKVILLE,MD,,US,,,,,
,visa,,,ROCKVILLE,MD,,US,,,,,
dbf1359c1fab9cab207ef11a83ca8fc2,western_union,7-ELEVEN #20294,,Rockville,MD,,US,+1 301-424-8087,https://location.westernunion.com/us/md/rockville/dbf1359c1fab9cab207ef11a83ca8fc2,,Western Union,Q861042
