Ref,Spider,Name,Address,City,State,Zipcode,Country,Phone,Website,Hours,Brand,WikiData
10114589,shell,EIXINHO L 212 N COM DE COMB E DER,,BRASILIA,Distrito Federal,,BR,,https://find.shell.com/br/fuel/10114589-eixinho-l-212-n-com-de-comb-e-der,,Shell,Q110716465
10117275,shell,POSTO ITAMARATY LTDA,,BRASILIA,Distrito Federal,,BR,,https://find.shell.com/br/fuel/10117275-posto-itamaraty-ltda,,Shell,Q110716465
10112362,shell,AUTO POSTO 306 NORTE LTDA,,BRASILIA,Distrito Federal,,BR,,https://find.shell.com/br/fuel/10112362-auto-posto-306-norte-ltda,,Shell,Q110716465
10112319,shell,AUTO POSTO 109 NORTE LTDA,,BRASILIA,Distrito Federal,,BR,,https://find.shell.com/br/fuel/10112319-auto-posto-109-norte-ltda,,Shell,Q110716465
10116407,shell,POSTO DE COMBUSTIVEL YASMIN LTDA,,BRASILIA,Distrito Federal,,BR,,https://find.shell.com/br/fuel/10116407-posto-de-combustivel-yasmin-ltda,,Shell,Q110716465
10114270,shell,AUTO POSTO Z Z 307 NORTE LTDA,,BRASILIA,Distrito Federal,,BR,,https://find.shell.com/br/fuel/10114270-auto-posto-z-z-307-norte-ltda,,Shell,Q110716465
10118350,shell,SMAFF COMBUSTIVEIS LTDA,,BRASILIA,Distrito Federal,,BR,,https://find.shell.com/br/fuel/10118350-smaff-combustiveis-ltda,,Shell,Q110716465
10113544,shell,AUTO POSTO LAGO NORTE LTDA EPP,,BRASILIA,Distrito Federal,,BR,,https://find.shell.com/br/fuel/10113544-auto-posto-lago-norte-ltda-epp,,Shell,Q110716465
10113099,shell,AUTO POSTO CINCO ESTRELAS LTDA,,BRASILIA,Distrito Federal,,BR,,https://find.shell.com/br/fuel/10113099-auto-posto-cinco-estrelas-ltda,,Shell,Q110716465
10114506,shell,DISBRAVE COMBUSTIVEIS LTDA,,BRASILIA,Distrito Federal,,BR,,https://find.shell.com/br/fuel/10114506-disbrave-combustiveis-ltda,,Shell,Q110716465
10112386,shell,AUTO POSTO ALVORADA LTDA,,BRASILIA,Distrito Federal,,BR,,https://find.shell.com/br/fuel/10112386-auto-posto-alvorada-ltda,,Shell,Q110716465
10114003,shell,BRASAL COMBUSTIVEIS LTDA,,BRASILIA,Distrito Federal,,BR,,https://find.shell.com/br/fuel/10114003-brasal-combustiveis-ltda,,Shell,Q110716465
10112701,shell,AUTO POSTO JK LTDA,,BRASILIA,Distrito Federal,,BR,,https://find.shell.com/br/fuel/10112701-auto-posto-jk-ltda,,Shell,Q110716465
10116401,shell,POSTO DE SERVICO 307 LTDA FILIAL,,BRASILIA,Distrito Federal,,BR,,https://find.shell.com/br/fuel/10116401-posto-de-servico-307-ltda-filial,,Shell,Q110716465
10115378,shell,FRATELLI PART EMPR E IMOB LTDA,,BRASILIA,Distrito Federal,,BR,,https://find.shell.com/br/fuel/10115378-fratelli-part-empr-e-imob-ltda,,Shell,Q110716465
10113100,shell,AUTO POSTO CINCO ESTRELAS LTDA,,BRASILIA,Distrito Federal,,BR,,https://find.shell.com/br/fuel/10113100-auto-posto-cinco-estrelas-ltda,,Shell,Q110716465
10116067,shell,MARLIM COMB LTDA,,BRASILIA,Distrito Federal,,BR,,https://find.shell.com/br/fuel/10116067-marlim-comb-ltda,,Shell,Q110716465
10117167,shell,POSTO METROPOLITANO DER DE PET LTDA,,BRASILIA,Distrito Federal,,BR,,https://find.shell.com/br/fuel/10117167-posto-metropolitano-der-de-pet-ltda,,Shell,Q110716465
10116400,shell,POSTO DE SERVICO 307 LTDA,,BRASILIA,Distrito Federal,,BR,,https://find.shell.com/br/fuel/10116400-posto-de-servico-307-ltda,,Shell,Q110716465
10118577,shell,SAO JOAO POSTOS ABASTEC SERV LTDA,,BRASILIA,Distrito Federal,,BR,,https://find.shell.com/br/fuel/10118577-sao-joao-postos-abastec-serv-ltda,,Shell,Q110716465
10117980,shell,POSTO SOBRADINHO LTDA,,BRASILIA,Distrito Federal,,BR,,https://find.shell.com/br/fuel/10117980-posto-sobradinho-ltda,,Shell,Q110716465
10117810,shell,PRIME DERIVADOS DE PETROLEO LTDA,,BRASILIA,Distrito Federal,,BR,,https://find.shell.com/br/fuel/10117810-prime-derivados-de-petroleo-ltda,,Shell,Q110716465
10116382,shell,POSTO DE COMB GUERREIRINHO LTDA,,BRASILIA,Distrito Federal,,BR,,https://find.shell.com/br/fuel/10116382-posto-de-comb-guerreirinho-ltda,,Shell,Q110716465
10114400,shell,CRUZEIRO COMBUSTIVEIS E SERVICOS SA,,BRASILIA,Distrito Federal,,BR,,https://find.shell.com/br/fuel/10114400-cruzeiro-combustiveis-e-servicos-sa,,Shell,Q110716465
10117911,shell,POSTO Z+Z 314 SUL LTDA,,BRASILIA,Distrito Federal,,BR,,https://find.shell.com/br/fuel/10117911-posto-z-z-314-sul-ltda,,Shell,Q110716465
10118042,shell,POSTO VIA EST COM DER DE PET LTDA,,BRASILIA,Distrito Federal,,BR,,https://find.shell.com/br/fuel/10118042-posto-via-est-com-der-de-pet-ltda,,Shell,Q110716465
10112316,shell,AUTO POSTO 302 SUL LTDA,,BRASILIA,Distrito Federal,,BR,,https://find.shell.com/br/fuel/10112316-auto-posto-302-sul-ltda,,Shell,Q110716465
10114006,shell,BRASAL COMBUSTVEIS LTDA,,BRASILIA,Distrito Federal,,BR,,https://find.shell.com/br/fuel/10114006-brasal-combustveis-ltda,,Shell,Q110716465
10117501,shell,POSTO DISBRAVE SIA LTDA,,BRASILIA,Distrito Federal,,BR,,https://find.shell.com/br/fuel/10117501-posto-disbrave-sia-ltda,,Shell,Q110716465
10114004,shell,BRASAL COMBUSTIVEIS LTDA,,BRASILIA,Distrito Federal,,BR,,https://find.shell.com/br/fuel/10114004-brasal-combustiveis-ltda,,Shell,Q110716465
10112699,shell,AUTO POSTO JF COM DER DE PETRO LTDA,,BRASILIA,Distrito Federal,,BR,,https://find.shell.com/br/fuel/10112699-auto-posto-jf-com-der-de-petro-ltda,,Shell,Q110716465
10114335,shell,AUTO POSTO SIA SUL LTDA,,BRASILIA,Distrito Federal,,BR,,https://find.shell.com/br/fuel/10114335-auto-posto-sia-sul-ltda,,Shell,Q110716465
10112792,shell,AUTO POSTO ITICAR LTDA,,BRASILIA,Distrito Federal,,BR,,https://find.shell.com/br/fuel/10112792-auto-posto-iticar-ltda,,Shell,Q110716465
10114077,shell,AUTO POSTO SOF NORTE LTDA,,BRASILIA,Distrito Federal,,BR,,https://find.shell.com/br/fuel/10114077-auto-posto-sof-norte-ltda,,Shell,Q110716465
10113117,shell,AUTO POSTO CINCO ESTRELAS LTDA,,BRASILIA,Distrito Federal,,BR,,https://find.shell.com/br/fuel/10113117-auto-posto-cinco-estrelas-ltda,,Shell,Q110716465
10116426,shell,POSTO DE COMB R13 STA M LTDA,,BRASILIA,Distrito Federal,,BR,,https://find.shell.com/br/fuel/10116426-posto-de-comb-r13-sta-m-ltda,,Shell,Q110716465
10116562,shell,POSTO DE COMBUSTIVEIS GARANTIA LTDA,,BRASILIA,Distrito Federal,,BR,,https://find.shell.com/br/fuel/10116562-posto-de-combustiveis-garantia-ltda,,Shell,Q110716465
10112228,shell,ARCO IRIS PETRO COM E SERV LTDA,,BRASILIA,Distrito Federal,,BR,,https://find.shell.com/br/fuel/10112228-arco-iris-petro-com-e-serv-ltda,,Shell,Q110716465
10118412,shell,TAGUACENTRO COM DE DER PETR LTDA,,BRASILIA,Distrito Federal,,BR,,https://find.shell.com/br/fuel/10118412-taguacentro-com-de-der-petr-ltda,,Shell,Q110716465
10113101,shell,AUTO POSTO CINCO ESTRELAS LTDA,,BRASILIA,Distrito Federal,,BR,,https://find.shell.com/br/fuel/10113101-auto-posto-cinco-estrelas-ltda,,Shell,Q110716465
10112903,shell,AUTO POSTO CONCORDE LTDA,,BRASILIA,Distrito Federal,,BR,,https://find.shell.com/br/fuel/10112903-auto-posto-concorde-ltda,,Shell,Q110716465
10112347,shell,AUTO POSTO AEROPORTO LTDA,,BRASILIA,Distrito Federal,,BR,,https://find.shell.com/br/fuel/10112347-auto-posto-aeroporto-ltda,,Shell,Q110716465
10116691,shell,POSTO CIDADE DO AUTOMOVEL LTDA,,BRASILIA,Distrito Federal,,BR,,https://find.shell.com/br/fuel/10116691-posto-cidade-do-automovel-ltda,,Shell,Q110716465
10115862,shell,PIONEIRO COM VAR DERIV PETRO LTDA,,BRASILIA,Distrito Federal,,BR,,https://find.shell.com/br/fuel/10115862-pioneiro-com-var-deriv-petro-ltda,,Shell,Q110716465
10113118,shell,AUTO POSTO CINCO ESTRELAS LTDA,,BRASILIA,Distrito Federal,,BR,,https://find.shell.com/br/fuel/10113118-auto-posto-cinco-estrelas-ltda,,Shell,Q110716465
10113098,shell,AUTO POSTO CINCO ESTRELAS LTDA,,BRASILIA,Distrito Federal,,BR,,https://find.shell.com/br/fuel/10113098-auto-posto-cinco-estrelas-ltda,,Shell,Q110716465
10112379,shell,AUTO POSTO ALMENARA LTDA,,BRASILIA,Distrito Federal,,BR,,https://find.shell.com/br/fuel/10112379-auto-posto-almenara-ltda,,Shell,Q110716465
10115761,shell,PARK BANDEIRA COM COMB DER PET LTDA,,BRASILIA,Distrito Federal,,BR,,https://find.shell.com/br/fuel/10115761-park-bandeira-com-comb-der-pet-ltda,,Shell,Q110716465
10114582,shell,DRIVE CAR TRANSP E COMB LTDA,,BRASILIA,Distrito Federal,,BR,,https://find.shell.com/br/fuel/10114582-drive-car-transp-e-comb-ltda,,Shell,Q110716465
10114147,shell,AUTO VOLUME COM DERIV PETROLEO LTDA,,BRASILIA,Distrito Federal,,BR,,https://find.shell.com/br/fuel/10114147-auto-volume-com-deriv-petroleo-ltda,,Shell,Q110716465
10115647,shell,PLAYTIME COML DE COMBUSTIVEIS LTDA,,BRASILIA,Distrito Federal,,BR,,https://find.shell.com/br/fuel/10115647-playtime-coml-de-combustiveis-ltda,,Shell,Q110716465
10118518,shell,SANTA FE SERVICOS E PETROLEO LTDA,,BRASILIA,Distrito Federal,,BR,,https://find.shell.com/br/fuel/10118518-santa-fe-servicos-e-petroleo-ltda,,Shell,Q110716465
10113011,shell,AUTO POSTO DF 290 LTDA EPP,,BRASILIA,Distrito Federal,,BR,,https://find.shell.com/br/fuel/10113011-auto-posto-df-290-ltda-epp,,Shell,Q110716465
10117621,shell,SAIDA SUL POSTOS E SERVICOS LTDA,,BRASILIA,Distrito Federal,,BR,,https://find.shell.com/br/fuel/10117621-saida-sul-postos-e-servicos-ltda,,Shell,Q110716465
10115119,shell,LR COM DE PROD E DERIV PETR LTDA,,BRASILIA,Distrito Federal,,BR,,https://find.shell.com/br/fuel/10115119-lr-com-de-prod-e-deriv-petr-ltda,,Shell,Q110716465
10117778,shell,PTO COM CONNECTA CEILANDIA SUL LTDA,,BRASILIA,Distrito Federal,,BR,,https://find.shell.com/br/fuel/10117778-pto-com-connecta-ceilandia-sul-ltda,,Shell,Q110716465
10114474,shell,CONQUISTA COM DERIV DE PET LTDA,,BRASILIA,Distrito Federal,,BR,,https://find.shell.com/br/fuel/10114474-conquista-com-deriv-de-pet-ltda,,Shell,Q110716465
10116648,shell,POSTO CEILANDIA LTDA,,BRASILIA,Distrito Federal,,BR,,https://find.shell.com/br/fuel/10116648-posto-ceilandia-ltda,,Shell,Q110716465
10118527,shell,SOUSA E ALVES COM DER  DE PETR LTDA,,BRASILIA,Distrito Federal,,BR,,https://find.shell.com/br/fuel/10118527-sousa-e-alves-com-der-de-petr-ltda,,Shell,Q110716465
10115995,shell,METRO COMERCIAL DE COMB LTDA,,BRASILIA,Distrito Federal,,BR,,https://find.shell.com/br/fuel/10115995-metro-comercial-de-comb-ltda,,Shell,Q110716465
10116188,shell,MAXXI COME DE DERIV DE PETROLEO LTD,,BRASILIA,Distrito Federal,,BR,,https://find.shell.com/br/fuel/10116188-maxxi-come-de-deriv-de-petroleo-ltd,,Shell,Q110716465
10112818,shell,AUTO POSTO CAPITAL LTDA,,BRASILIA,Distrito Federal,,BR,,https://find.shell.com/br/fuel/10112818-auto-posto-capital-ltda,,Shell,Q110716465
10116350,shell,POSTO DE COMBUSTIVEL RANIA LTDA,,BRASILIA,Distrito Federal,,BR,,https://find.shell.com/br/fuel/10116350-posto-de-combustivel-rania-ltda,,Shell,Q110716465
10117664,shell,R13 ORIGINAL COM PROD DER PETROLEO,,BRASILIA,Distrito Federal,,BR,,https://find.shell.com/br/fuel/10117664-r13-original-com-prod-der-petroleo,,Shell,Q110716465
10116759,shell,POSTO AVENIDA HELIO PRATES LTDA,,BRASILIA,Distrito Federal,,BR,,https://find.shell.com/br/fuel/10116759-posto-avenida-helio-prates-ltda,,Shell,Q110716465
10114289,shell,AUTO POSTO SAMDU LTDA,,BRASILIA,Distrito Federal,,BR,,https://find.shell.com/br/fuel/10114289-auto-posto-samdu-ltda,,Shell,Q110716465
10117928,shell,POSTOS DE GASOLINA RANONI LTDA,,BRASILIA,Distrito Federal,,BR,,https://find.shell.com/br/fuel/10117928-postos-de-gasolina-ranoni-ltda,,Shell,Q110716465
10116092,shell,MM COMERCIAL DE COMBUSTIVEIS LTDA,,BRASILIA,Distrito Federal,,BR,,https://find.shell.com/br/fuel/10116092-mm-comercial-de-combustiveis-ltda,,Shell,Q110716465
10114005,shell,BRASAL COMBUSTIVEIS LTDA,,BRASILIA,Distrito Federal,,BR,,https://find.shell.com/br/fuel/10114005-brasal-combustiveis-ltda,,Shell,Q110716465
10112047,shell,ABRITTA POSTOS DE SERVICOS LTDA,,BRASILIA,Distrito Federal,,BR,,https://find.shell.com/br/fuel/10112047-abritta-postos-de-servicos-ltda,,Shell,Q110716465
10116552,shell,POSTO DE PETROLEO SAMAMBAIA LTDA,,BRASILIA,Distrito Federal,,BR,,https://find.shell.com/br/fuel/10116552-posto-de-petroleo-samambaia-ltda,,Shell,Q110716465
10113127,shell,AUTO POSTO RIBEIRO LTDA,,BRASILIA,Distrito Federal,,BR,,https://find.shell.com/br/fuel/10113127-auto-posto-ribeiro-ltda,,Shell,Q110716465
10115676,shell,ORCA VEICULOS LTDA,,BRASILIA,Distrito Federal,,BR,,https://find.shell.com/br/fuel/10115676-orca-veiculos-ltda,,Shell,Q110716465
10113581,shell,AUTO POSTO OLIVEIRA LTDA,,BRASILIA,Distrito Federal,,BR,,https://find.shell.com/br/fuel/10113581-auto-posto-oliveira-ltda,,Shell,Q110716465
10113756,shell,BANTA COMERCIO DE COMBUSTIVEIS LTDA,,BRASILIA,Distrito Federal,,BR,,https://find.shell.com/br/fuel/10113756-banta-comercio-de-combustiveis-ltda,,Shell,Q110716465
10113163,shell,AUTO POSTO QS 09 LTDA,,BRASILIA,Distrito Federal,,BR,,https://find.shell.com/br/fuel/10113163-auto-posto-qs-09-ltda,,Shell,Q110716465
