Ref,Spider,Name,Address,City,State,Zipcode,Country,Phone,Website,Hours,Brand,WikiData
131924,bluerhino,Speedway #8061,,Knightstown,IN,,US,+1 765-785-6017,,,Blue Rhino,Q65681213
175195,bluerhino,Love's #601,,Knightstown,IN,,US,+1 765-785-2060,,,Blue Rhino,Q65681213
28003,bluerhino,Speedway #7153,,Knightstown,IN,,US,+1 765-345-7300,,,Blue Rhino,Q65681213
161062,bluerhino,Knightstown Quickpix - Herdrich #111,,Knightstown,IN,,US,+1 765-345-2131,,,Blue Rhino,Q65681213
221039,bluerhino,Dollar General #1145,,KNIGHTSTOWN,IN,,US,+1 765-388-4061,,,Blue Rhino,Q65681213
22232703530024614800100000000000,bp,BP,,KNIGHTSTOWN,IN,,US,+1 765-345-2260,,24/7,BP,Q152057
80011,citi,ATM SPEEDWAY #7153,,Knightstown,IN,,US,,,,Citibank,Q857063
77433,citi,ATM Speedway,,Knightstown,IN,,US,,,,Citibank,Q857063
56164,citi,ATM FIRST MERCHANTS BANK,,Knightstown,IN,,US,,,,Citibank,Q857063
49663,citi,ATM CVS,,Knightstown,IN,,US,,,,Citibank,Q857063
78793,citi,ATM Speedway,,Knightstown,IN,,US,,,,Citibank,Q857063
80476,citi,ATM SPEEDWAY 8061,,Knightstown,IN,,US,,,,Citibank,Q857063
6661,cvs_us,CVS Pharmacy,,Knightstown,IN,,US,+1 765-345-7163,https://www.cvs.com/store-locator/knightstown-in-pharmacies/263-w-morgan-st-knightstown-in-46148/storeid=6661,Mo-Sa 09:00-21:00; Su 10:00-18:00,CVS Pharmacy,Q2078880
14958,h_r_block,H&R Block,,Knightstown,IN,,US,+1 765-345-7246,https://www.hrblock.com/local-tax-offices/indiana/knightstown/19-s-washington/14958/,,H&R Block,Q5627799
555,loves,Site 601,,Knightstown,IN,,US,+1 765-785-2060,,,Love's,Q1872496
157142,marathon_petroleum_us,KNIGHTSTOWN QUICKPIX,,KNIGHTSTOWN,IN,,US,+1 765-345-2131,,,Marathon,Q458363
https://restaurants.subway.com/#14896660,subway,Subway National Road BP,,Knightstown Henry,IN,,US,+1 765-345-7827,https://restaurants.subway.com/united-states/in/knightstown/2-n-franklin-st,Mo-Sa 09:00-21:30; Su 09:00-21:00,Subway,Q244457
https://restaurants.subway.com/#14915808,subway,"Subway Love's Travel Stop, #601",,Knightstown Henry,IN,,US,+1 765-785-2060,https://restaurants.subway.com/united-states/in/knightstown/6190-south-state-route-109,,Subway,Q244457
8002723601,sunoco_us,Sunoco,,KNIGHTSTOWN,IN,,US,,,,Sunoco,Q1423218
1369224,usps,KNIGHTSTOWN,,KNIGHTSTOWN,IN,,US,+1 765-345-5575,,"Mo-Fr 09:00-11:00,12:00-17:00; Sa 09:00-12:00",United States Postal Service,Q668687
4614800015,usps_collection_boxes,USPS COLLECTION BOX - PO LOBBY,37 N JEFFERSON ST,KNIGHTSTOWN,IN,,US,,,,United States Postal Service,Q668687
4614800005,usps_collection_boxes,USPS COLLECTION BOX - BLUE BOX,37 N JEFFERSON ST,KNIGHTSTOWN,IN,,US,,,,United States Postal Service,Q668687
4614800011,usps_collection_boxes,USPS COLLECTION BOX - PO LOBBY,37 N JEFFERSON ST,KNIGHTSTOWN,IN,,US,,,,United States Postal Service,Q668687
4614800012,usps_collection_boxes,USPS COLLECTION BOX - PO LOBBY,37 N JEFFERSON ST,KNIGHTSTOWN,IN,,US,,,,United States Postal Service,Q668687
A00000021644,verizon_us,Victra Knightstown,,KNIGHTSTOWN,IN,,US,+1 765-345-5400,https://www.verizon.com/stores/details/indiana/knightstown/true-com-knightstown-1447622/,Mo-Fr 10:00-18:00,Verizon,Q919641
,visa,,,KNIGHTSTOWN,IN,,US,,,,,
,visa,,,KNIGHTSTOWN,IN,,US,,,,,
,visa,,,KNIGHTSTOWN,IN,,US,,,,,
,visa,,,KNIGHTSTOWN,IN,,US,,,,,
,visa,,,KNIGHTSTOWN,IN,,US,,,,,
,visa,,,KNIGHTSTOWN,IN,,US,,,,,
,visa,,,KNIGHTSTOWN,IN,,US,,,,,
,visa,,,KNIGHTSTOWN,IN,,US,,,,,
,visa,,,KNIGHTSTOWN,IN,,US,,,,,
,visa,,,KNIGHTSTOWN,IN,,US,,,,,
