Ref,Spider,Name,Address,City,State,Zipcode,Country,Phone,Website,Hours,Brand,WikiData
3702,anytime_fitness,Anytime Fitness,,West Salem,WI,,US,+1 608-451-2744,https://www.anytimefitness.com/gyms/3702/west-salem-wi-54669/,,Anytime Fitness,Q4778364
158593,bluerhino,Hansen's IGA - West Salem #9174,,West Salem,WI,,US,+1 608-786-1730,,,Blue Rhino,Q65681213
85134,bluerhino,Lloyd's,,West Salem,WI,,US,+1 608-786-2888,,,Blue Rhino,Q65681213
22221,chevrolet,MORRIES WEST SALEM CHEVROLET,,WEST SALEM,WI,,US,+1 608-786-0400 ext. 2,https://www.morrieswestsalemchevrolet.com/,Mo 09:00-19:00; Tu-We 09:00-18:00; Th 09:00-19:00; Fr 09:00-18:00; Sa 09:00-16:00,Chevrolet,Q29570
63129,citi,ATM Kwik Trip #684-1,,West Salem,WI,,US,,,,Citibank,Q857063
63130,citi,ATM Kwik Trip #684-2,,West Salem,WI,,US,,,,Citibank,Q857063
62142,citi,ATM Kwik Trip #1048-1,,West Salem,WI,,US,,,,Citibank,Q857063
62143,citi,ATM Kwik Trip #1048-2,,West Salem,WI,,US,,,,Citibank,Q857063
,credit_union_us,Altra Federal Credit Union,,West Salem,WI,,US,+1 608-787-4500,,Mo-Th 09:00-05:30; Fr 09:00-06:00,,
15049,dollar_general,Dollar General,,West Salem,WI,,US,+1 608-302-6765,https://www.dollargeneral.com/store-directory/wi/west-salem/15049,Mo-Su 09:00-20:00,Dollar General,Q145168
https://www.edwardjones.com/us-en/financial-advisor/stephen-cohen,edwardjones,Stephen Cohen,,West Salem,WI,,US,+1 608-786-1480,https://www.edwardjones.com/us-en/financial-advisor/stephen-cohen,Mo-Fr 08:00-16:30,Edward Jones,Q5343830
https://local.fedex.com/#25235166,fedex,,,West Salem,WI,,US,+1 800-463-3339,https://local.fedex.com/en-us/wi/west-salem/lseaa,,FedEx,Q459477
Hansen's IGA- 9174,iga,Hansen's IGA- 9174,"635 West Hwy. 16, West Salem, WI, 54669",West Salem,WI,,US,+1 608-654-7682,https://westsalem.hansensiga.com,,IGA,Q3146662
https://locations.ironmountain.com/wi/west-salem/858/,iron_mountain,"Iron Mountain in 365 South Oak Street, West Salem, Wisconsin | Secure Shredding, Scanning, IT Asset Disposition, & Records Management",,West Salem,WI,,US,+1 800-899-4766,https://locations.ironmountain.com/wi/west-salem/858/,,Iron Mountain Incorporated,Q1673079
https://restaurants.subway.com/#14916729,subway,Subway BP Gas Station/C-Store,,West Salem La Crosse,WI,,US,+1 608-786-3036,https://restaurants.subway.com/united-states/wi/west-salem/83-buol-road,Mo-Su 08:00-21:00,Subway,Q244457
https://restaurants.subway.com/#14898339,subway,Subway,,West Salem La Crosse,WI,,US,+1 608-786-2225,https://restaurants.subway.com/united-states/wi/west-salem/420-commerce-drive,Mo-Su 08:00-21:00,Subway,Q244457
1387175,usps,WEST SALEM,,WEST SALEM,WI,,US,+1 608-786-1710,,"Mo-Fr 08:30-11:30,12:00-17:00; Sa 08:30-10:00",United States Postal Service,Q668687
5466900001,usps_collection_boxes,USPS COLLECTION BOX - BLUE BOX,111 LEONARD ST N,WEST SALEM,WI,,US,,,,United States Postal Service,Q668687
5466900002,usps_collection_boxes,USPS COLLECTION BOX - BLUE BOX,111 LEONARD ST N,WEST SALEM,WI,,US,,,,United States Postal Service,Q668687
5466900006,usps_collection_boxes,USPS COLLECTION BOX - PO LOBBY,111 LEONARD ST N,WEST SALEM,WI,,US,,,,United States Postal Service,Q668687
5466900008,usps_collection_boxes,USPS COLLECTION BOX - PO LOBBY,111 LEONARD ST N,WEST SALEM,WI,,US,,,,United States Postal Service,Q668687
5466900004,usps_collection_boxes,USPS COLLECTION BOX - BLUE BOX,985 W CITY HIGHWAY 16,WEST SALEM,WI,,US,,,,United States Postal Service,Q668687
5466900005,usps_collection_boxes,USPS COLLECTION BOX - BLUE BOX,420 COMMERCE ST,WEST SALEM,WI,,US,,,,United States Postal Service,Q668687
,visa,,,WEST SALEM,WI,,US,,,,,
,visa,,,WEST SALEM,WI,,US,,,,,
,visa,,,WEST SALEM,WI,,US,,,,,
,visa,,,WEST SALEM,WI,,US,,,,,
,visa,,,WEST SALEM,WI,,US,,,,,
,visa,,,SALEM,WI,,US,,,,,
,visa,,,WEST SALEM,WI,,US,,,,,
,visa,,,WEST SALEM,WI,,US,,,,,
,visa,,,WEST SALEM,WI,,US,,,,,
,visa,,,WEST SALEM,WI,,US,,,,,
