Ref,Spider,Name,Address,City,State,Zipcode,Country,Phone,Website,Hours,Brand,WikiData
66913092,chase_us,Allentown - New branch,,Allentown,PA,,US,+1 610-295-0534,https://locator.chase.com/pa/allentown/107-n-7th-st,Mo-Fr 09:00-17:00; Sa 09:00-13:00,Chase,Q524629
53879,citi,ATM Distinctive Notary & Services,,Allentown,PA,,US,,,,Citibank,Q857063
24334,citi,ATM 7ELEVEN-FCTI,,Allentown,PA,,US,,,,Citibank,Q857063
73156,citi,ATM Rite Aid,,Allentown,PA,,US,,,,Citibank,Q857063
70235535,cricket_wireless,Cricket Wireless Authorized Retailer,,Allentown,PA,,US,+1 484-274-6278,https://www.cricketwireless.com/stores/ll/US/PA/Allentown/5-American-Pkwy,Mo-Fr 10:00-19:00; Sa 10:00-18:00; Su 11:00-17:00,Cricket Wireless,Q5184987
364372,dunkin_us,Dunkin',,Allentown,PA,,US,+1 610-434-9300,https://locations.dunkindonuts.com/en/pa/allentown/902-hamilton-st/364372,Mo-Su 05:00-21:00,Dunkin',Q847743
36802,h_r_block,H&R Block,,Allentown,PA,,US,+1 610-437-1774,https://www.hrblock.com/local-tax-offices/pennsylvania/allentown/27-n-7th-st/36802/,,H&R Block,Q5627799
37912,h_r_block,H&R Block,,Allentown,PA,,US,+1 610-351-0889,https://www.hrblock.com/local-tax-offices/pennsylvania/allentown/1028-hamilton-st/37912/,,H&R Block,Q5627799
https://office.jacksonhewitt.com/#27579593,jackson_hewitt,Jackson Hewitt,,Allentown,PA,,US,+1 610-776-6933,https://office.jacksonhewitt.com/tax-preparation-services-locations/en/pa/allentown/104-n-8th-street/13495,Mo-Fr 09:00-21:00; Sa 09:00-17:00; Su 12:00-17:00,Jackson Hewitt,Q6117132
ABEBR,marriott,Renaissance Allentown Hotel,,Allentown,PA,,US,+1 484-273-4000,https://www.marriott.com/ABEBR,,Renaissance Hotels,Q2143252
https://www.plannedparenthood.org/health-center/pennsylvania/allentown/18101/allentown-medical-center-2723-91410,planned_parenthood,Planned Parenthood,,Allentown,PA,,US,,https://www.plannedparenthood.org/health-center/pennsylvania/allentown/18101/allentown-medical-center-2723-91410,,Planned Parenthood,Q2553262
06778,rite_aid_us,Rite Aid #06778 Allentown,,Allentown,PA,,US,+1 610-437-7261,https://locations2.riteaid.com.yext-cdn.com/pa/allentown/27-n-7th-street.html,Mo-Fr 08:00-22:00; Sa-Su 09:00-22:00,Rite Aid,Q3433273
1352741,usps,ALLENTOWN,,ALLENTOWN,PA,,US,+1 610-821-8450,,Mo-Fr 08:00-17:00; Sa 09:00-13:00,United States Postal Service,Q668687
1810100031,usps_collection_boxes,USPS COLLECTION BOX - BLUE BOX,1014 HAMILTON ST,ALLENTOWN,PA,,US,,,,United States Postal Service,Q668687
1810100030,usps_collection_boxes,USPS COLLECTION BOX - BLUE BOX,33 S 7TH ST,ALLENTOWN,PA,,US,,,,United States Postal Service,Q668687
1810100038,usps_collection_boxes,USPS COLLECTION BOX - PO LOBBY,442 HAMILTON ST,ALLENTOWN,PA,,US,,,,United States Postal Service,Q668687
1810100034,usps_collection_boxes,USPS COLLECTION BOX - BLUE BOX,442 HAMILTON ST,ALLENTOWN,PA,,US,,,,United States Postal Service,Q668687
1810100036,usps_collection_boxes,USPS COLLECTION BOX - PO LOBBY,442 HAMILTON ST,ALLENTOWN,PA,,US,,,,United States Postal Service,Q668687
,visa,,,ALLENTOWN,PA,,US,,,,,
,visa,,,ALLENTOWN,PA,,US,,,,,
,visa,,,ALLENTOWN,PA,,US,,,,,
,visa,,,ALLENTOWN,PA,,US,,,,,
,visa,,,ALLENTOWN,PA,,US,,,,,
,visa,,,ALLENTOWN,PA,,US,,,,,
,visa,,,ALLENTOWN,PA,,US,,,,,
,visa,,,ALLENTOWN,PA,,US,,,,,
,visa,,,ALLENTOWN,PA,,US,,,,,
,visa,,,ALLENTOWN,PA,,US,,,,,
,visa,,,ALLENTOWN,PA,,US,,,,,
,visa,,,ALLENTOWN,PA,,US,,,,,
,visa,,,ALLENTOWN,PA,,US,,,,,
,visa,,,ALLENTOWN,PA,,US,,,,,
,visa,,,ALLENTOWN,PA,,US,,,,,
,visa,,,ALLENTOWN,PA,,US,,,,,
,visa,,,ALLENTOWN,PA,,US,,,,,
,visa,,,ALLENTOWN,PA,,US,,,,,
,visa,,,ALLENTOWN,PA,,US,,,,,
,visa,,,ALLENTOWN,PA,,US,,,,,
,visa,,,ALLENTOWN,PA,,US,,,,,
,visa,,,ALLENTOWN,PA,,US,,,,,
,visa,,,ALLENTOWN,PA,,US,,,,,
,visa,,,ALLENTOWN,PA,,US,,,,,
,visa,,,ALLENTOWN,PA,,US,,,,,
,visa,,,ALLENTOWN,PA,,US,,,,,
,visa,,,ALLENTOWN,PA,,US,,,,,
,visa,,,ALLENTOWN,PA,,US,,,,,
,visa,,,ALLENTOWN,PA,,US,,,,,
,visa,,,ALLENTOWN,PA,,US,,,,,
,visa,,,ALLENTOWN,PA,,US,,,,,
,visa,,,ALLENTOWN,PA,,US,,,,,
,visa,,,ALLENTOWN,PA,,US,,,,,
,visa,,,ALLENTOWN,PA,,US,,,,,
,visa,,,ALLENTOWN,PA,,US,,,,,
,visa,,,ALLENTOWN,PA,,US,,,,,
,visa,,,ALLENTOWN,PA,,US,,,,,
,visa,,,ALLENTOWN,PA,,US,,,,,
,visa,,,ALLENTOWN,PA,,US,,,,,
,visa,,,ALLENTOWN,PA,,US,,,,,
,visa,,,ALLENTOWN,PA,,US,,,,,
,visa,,,ALLENTOWN,PA,,US,,,,,
,visa,,,ALLENTOWN,PA,,US,,,,,
,visa,,,ALLENTOWN,PA,,US,,,,,
,visa,,,ALLENTOWN,PA,,US,,,,,
,visa,,,ALLENTOWN,PA,,US,,,,,
"https://www.walgreens.com/locator/community,+a+walgreens+pharmacy-541+hamilton+st-allentown-pa-18101/id=21169",walgreens,"Community, a Walgreens Pharmacy",,Allentown,PA,,US,+1 484-705-1783,"https://www.walgreens.com/locator/community,+a+walgreens+pharmacy-541+hamilton+st-allentown-pa-18101/id=21169",,,
740__W__HAMILTON__ST_ALLENTOWN_PA_18101,wellsfargo,Wells Fargo,740 W HAMILTON ST,ALLENTOWN,PA,,US,+1 484-705-1687,https://www.wellsfargo.com/locator/bank/740__W__HAMILTON__ST_ALLENTOWN_PA_18101/,Mo-Fr 09:00-17:00,Wells Fargo,Q744149
https://locations.wendys.com/#9250552,wendys,"Wendy's Union Blvd in Allentown, PA",,Allentown,PA,,US,+1 610-434-5060,https://locations.wendys.com/united-states/pa/allentown/757-union-blvd,"Mo-Su 06:30-10:30,07:00-22:00",Wendy's,Q550258
a8b80a8feabed7317b5c39e591177ebc,western_union,FAMILY FINANCIAL CENTERS,,Allentown,PA,,US,+1 610-433-4960,https://location.westernunion.com/us/pa/allentown/a8b80a8feabed7317b5c39e591177ebc,Mo-Fr 08:30-19:00; Sa 09:00-17:00,Western Union,Q861042
