Ref,Spider,Name,Address,City,State,Zipcode,Country,Phone,Website,Hours,Brand,WikiData
b2573,bmo,OLDS,,OLDS,AB,,CA,+1 403-556-3307,,Mo-Fr 09:30-17:00,BMO,Q4835981
abm2573,bmo,OLDS,,OLDS,AB,,CA,,,,BMO,Q4835981
BM907048,bmo,SHELL C22437 OLDS,,OLDS,AB,,CA,,,,BMO,Q4835981
2911000515,dollarama,Dollarama,,Olds,AB,,CA,+1 403-556-6745,,Mo 08:00-18:00; Tu-Sa 08:00-21:00; Su 08:00-19:00,Dollarama,Q3033947
257,marks_ca,,,,AB,,CA,+1 403-556-7811,https://www.marks.com/en/store-details/ab/olds-257.html,Mo-Fr 08:00-21:00; Su 09:00-18:00,Mark's,Q6766373
10052603,shell,46 ST - 65 AVE.,,OLDS,AB,,CA,+1 403-556-8539,https://find.shell.com/ca/fuel/10052603-46-st-65-ave,,Shell,Q110716465
836,sobeys_ca,Sobeys Olds,,Olds,AB,,CA,+1 403-556-3113,https://www.sobeys.com/stores/sobeys-olds/,Mo-Su 08:00-21:00,Sobeys,Q1143340
https://stores.staples.ca/ab/olds/office-supplies-ca-334.html,staples_ca,Staples,,Olds,AB,,CA,+1 403-507-4595,https://stores.staples.ca/ab/olds/office-supplies-ca-334.html,Mo-Fr 09:00-18:00; Sa 10:00-18:00; Su 11:00-17:00,Staples,Q17149420
103200,tim_hortons,Tim Hortons,,Olds,AB,,CA,+1 403-507-8462,,Mo-We 05:00-23:00; Fr-Su 05:00-23:00,Tim Hortons,Q175106
,visa,,,OLDS,AB,,CA,,,,,
,visa,,,OLDS,AB,,CA,,,,,
,visa,,,OLDS,AB,,CA,,,,,
,visa,,,OLDS,AB,,CA,,,,,
,visa,,,OLDS,AB,,CA,,,,,
,visa,,,OLDS,AB,,CA,,,,,
,visa,,,OLDS,AB,,CA,,,,,
,visa,,,OLDS,AB,,CA,,,,,
1084,walmart_ca,"OLDS, AB",,Olds,AB,,CA,+1 403-556-3844,,Mo-Su 08:00-22:00,Walmart,Q483551
d8b10f1afbf4b6b0540d3bdeb321853d,western_union,WAL MART #1084,,Olds,AB,,CA,+1 403-556-3844,https://location.westernunion.com/ca/ab/olds/d8b10f1afbf4b6b0540d3bdeb321853d,Mo-Su 07:00-23:00,Western Union,Q861042
1c092417551ec946ebc11119d85867ff,western_union,MONEY MART #0527,,Olds,AB,,CA,+1 403-507-4465,https://location.westernunion.com/ca/ab/olds/1c092417551ec946ebc11119d85867ff,Mo-Fr 09:00-19:00; Sa 10:00-17:00,Western Union,Q861042
