Ref,Spider,Name,Address,City,State,Zipcode,Country,Phone,Website,Hours,Brand,WikiData
626,biggby_coffee_us,Biggby Coffee,124 E. Michigan Ave Clinton MI 49236,Clinton,MI,,US,+1 517-701-1212,,Mo-Fr 05:00-20:00; Sa 06:00-20:00; Su 07:00-20:00,Biggby Coffee,Q4906876
118459,bp,BP,,Clinton,MI,,US,+1 517-456-1089,,,BP,Q152057
26527376201094923600100000000000,bp,BP,,Clinton,MI,,US,+1 517-456-1089,,Mo-Fr 04:00-22:00; Sa 05:00-22:00; Su 06:00-15:00,BP,Q152057
88991,chevrolet,CHEVROLET OF CLINTON,,Clinton,MI,,US,+1 517-705-0020,https://www.chevroletofclinton.com,Mo 09:00-20:00; Tu-We 09:00-18:00; Th 09:00-20:00; Fr 09:00-18:00; Sa 09:00-17:00,Chevrolet,Q29570
https://www.edwardjones.com/us-en/financial-advisor/mark-mazur,edwardjones,Mark J Mazur,,Clinton,MI,,US,+1 517-456-5157,https://www.edwardjones.com/us-en/financial-advisor/mark-mazur,Mo-Fr 08:30-17:00,Edward Jones,Q5343830
Motorcraft3930USAEnglish,ford,"Clinton-Tecumseh Ford Lincoln-Mercury, Inc.",,Michigan,MI,,US,+1 517-456-7414,,,Ford,Q44294
157739,marathon_petroleum_us,CLINTON FUEL EXPRESS INC,,CLINTON,MI,,US,+1 517-456-7309,,,Marathon,Q458363
https://restaurants.subway.com/#14903131,subway,Subway Stoplight Plaza,,Clinton Lenawee,MI,,US,+1 517-456-8050,https://restaurants.subway.com/united-states/mi/clinton/104-e-michigan-ave,Mo-Su 08:30-21:30,Subway,Q244457
8002194001,sunoco_us,Sunoco,,CLINTON,MI,,US,,,,Sunoco,Q1423218
1358398,usps,CLINTON,,CLINTON,MI,,US,+1 517-456-7641,,Mo-Fr 07:00-16:30; Sa 09:00-12:00,United States Postal Service,Q668687
4923600006,usps_collection_boxes,USPS COLLECTION BOX - BLUE BOX,12919 TIPTON HWY,CLINTON,MI,,US,,,,United States Postal Service,Q668687
4923600004,usps_collection_boxes,USPS COLLECTION BOX - BLUE BOX,1950 W US HIGHWAY 12,CLINTON,MI,,US,,,,United States Postal Service,Q668687
4923600007,usps_collection_boxes,USPS COLLECTION BOX - BLUE BOX,316 W MICHIGAN AVE,CLINTON,MI,,US,,,,United States Postal Service,Q668687
4923600010,usps_collection_boxes,USPS COLLECTION BOX - BLUE BOX,123 E MICHIGAN AVE,CLINTON,MI,,US,,,,United States Postal Service,Q668687
4923600011,usps_collection_boxes,USPS COLLECTION BOX - PO LOBBY,123 E MICHIGAN AVE,CLINTON,MI,,US,,,,United States Postal Service,Q668687
4923600009,usps_collection_boxes,USPS COLLECTION BOX - BLUE BOX,705 TECUMSEH RD,CLINTON,MI,,US,,,,United States Postal Service,Q668687
,visa,,,CLINTON TOWNSHIP,MI,,US,,,,,
,visa,,,CLINTON,MI,,US,,,,,
,visa,,,CLINTON,MI,,US,,,,,
,visa,,,CLINTON,MI,,US,,,,,
,visa,,,CLINTON TOWNSHIP,MI,,US,,,,,
,visa,,,CLINTON,MI,,US,,,,,
,visa,,,CLINTON,MI,,US,,,,,
,visa,,,CLINTON,MI,,US,,,,,
,visa,,,LANSING,MI,,US,,,,,
