Ref,Spider,Name,Address,City,State,Zipcode,Country,Phone,Website,Hours,Brand,WikiData
https://locations.arbys.com/oh/wheelersburg/8219-ohio-river-rd.html,arbys_us,"Arby's Fast-Food Drive Through Near You in Wheelersburg, OH",,Wheelersburg,OH,,US,+1 740-574-5999,https://locations.arbys.com/oh/wheelersburg/8219-ohio-river-rd.html,Mo-Sa 10:00-24:00; Su 10:00-23:00,Arby's,Q630866
746,autozone_us,AutoZone Auto Parts Wheelersburg,,Wheelersburg,OH,,US,+1 740-574-5322,https://www.autozone.com/locations/oh/wheelersburg/8900-ohio-river-rd.html,Mo-Sa 07:30-21:00; Su 09:00-20:00,AutoZone,Q4826087
https://local.biglots.com/#13189810,biglots,Big Lots - Wheelersburg,,Wheelersburg,OH,,US,+1 740-574-4734,https://local.biglots.com/oh/wheelersburg/9025-ohio-river-rd,Mo 10:00-21:00; Tu-Sa 09:00-21:00; Su 11:00-19:00,Big Lots,Q4905973
4252,bluerhino,Lowe's #477,,Wheelersburg,OH,,US,+1 740-574-6200,,,Blue Rhino,Q65681213
206374,bluerhino,Rite Aid #01897,,Wheelersburg,OH,,US,+1 740-574-5054,,,Blue Rhino,Q65681213
183165,bluerhino,Food Fair #113418,,Wheelersburg,OH,,US,+1 740-574-5512,,,Blue Rhino,Q65681213
159672,bluerhino,Big Lots #0244,,Wheelersburg,OH,,US,+1 740-574-4734,,,Blue Rhino,Q65681213
180863,bluerhino,Family Dollar #01252,,Wheelersburg,OH,,US,+1 740-574-4525,,,Blue Rhino,Q65681213
68984,bluerhino,Kroger #664 - Columbus,,Wheelersburg,OH,,US,+1 740-574-2171,,,Blue Rhino,Q65681213
147595,bluerhino,Kroger #664 - Columbus - Fuel Site,,Wheelersburg,OH,,US,+1 740-574-2171,,,Blue Rhino,Q65681213
211189,bluerhino,Dollar General #23035,,Wheelersburg,OH,,US,+1 380-710-9510,,,Blue Rhino,Q65681213
35687,citi,ATM ATOMIC CU,,Wheelersburg,OH,,US,,,,Citibank,Q857063
67658,citi,ATM PEOPLES BANK,,Wheelersburg,OH,,US,,,,Citibank,Q857063
800577,citizens_us,Citizens Wheelersburg,,Wheelersburg,OH,,US,+1 740-574-5065,,Mo-Fr 09:00-16:00; Sa 09:00-12:00,Citizens,Q5122694
ATM-820,citizens_us,,,Wheelersburg,OH,,US,+1 740-574-5065,,24/7,Citizens,Q5122694
7108,dollartree,DollarTree,,Wheelersburg,OH,,US,+1 740-529-5034,,Mo-Su 09:00-21:00,Dollar Tree,Q5289230
23035,dollar_general,Dollar General,,Wheelersburg,OH,,US,+1 380-710-9510,https://www.dollargeneral.com/store-directory/oh/wheelersburg/23035,Mo-Su 08:00-22:00,Dollar General,Q145168
https://www.edwardjones.com/us-en/financial-advisor/crystal-hemmings,edwardjones,Crystal B Hemmings,,Wheelersburg,OH,,US,+1 740-574-5456,https://www.edwardjones.com/us-en/financial-advisor/crystal-hemmings,Mo-Th 08:00-16:30; Fr 08:00-16:00,Edward Jones,Q5343830
3418,food_fair_market_us,Deemer's Foodfair,,Wheelersburg,OH,,US,+1 740-574-5512,https://www.foodfairmarkets.com/stores/deemers-foodfair,Mo-Su 08:00-21:00,Food Fair Market,Q122080459
31431,h_r_block,H&R Block,,Wheelersburg,OH,,US,+1 740-574-8404,https://www.hrblock.com/local-tax-offices/ohio/wheelersburg/8326-12-ohio-river-rd/31431/,,H&R Block,Q5627799
156490,marathon_petroleum_us,Wheelersburg  1st Stop,,Wheelersburg,OH,,US,+1 740-574-0055,,,Marathon,Q458363
157269,marathon_petroleum_us,CLARKS PNS 33,,WHEELERSBURG,OH,,US,+1 740-574-5655,,,Marathon,Q458363
https://locations.oreillyauto.com/oh/wheelersburg/check-engine-light-testing-3898.html,oreilly,Your Wheelersburg O'Reilly Auto Parts Store,,Wheelersburg,OH,,US,+1 740-574-8721,https://locations.oreillyauto.com/oh/wheelersburg/check-engine-light-testing-3898.html,Mo-Sa 07:30-21:00; Su 08:00-20:00,O'Reilly Auto Parts,Q7071951
https://locations.oreillyauto.com/oh/wheelersburg/wiper-installation-3898.html,oreilly,Your Wheelersburg O'Reilly Auto Parts Store,,Wheelersburg,OH,,US,+1 740-574-8721,https://locations.oreillyauto.com/oh/wheelersburg/wiper-installation-3898.html,Mo-Sa 07:30-21:00; Su 08:00-20:00,O'Reilly Auto Parts,Q7071951
https://locations.oreillyauto.com/oh/wheelersburg/battery-testing-3898.html,oreilly,Your Wheelersburg O'Reilly Auto Parts Store,,Wheelersburg,OH,,US,+1 740-574-8721,https://locations.oreillyauto.com/oh/wheelersburg/battery-testing-3898.html,Mo-Sa 07:30-21:00; Su 08:00-20:00,O'Reilly Auto Parts,Q7071951
https://locations.oreillyauto.com/oh/wheelersburg/autopartes-3898.html,oreilly,Tu tienda O'Reilly Auto Parts en Wheelersburg,,Wheelersburg,OH,,US,+1 740-574-8721,https://locations.oreillyauto.com/oh/wheelersburg/autopartes-3898.html,Mo-Sa 07:30-21:00; Su 08:00-20:00,O'Reilly Auto Parts,Q7071951
https://www.orkin.com/locations/ohio-oh/wheelersburg-pest-control/branch-578,orkin_us,Orkin,,Wheelersburg,OH,,US,+1 740-370-7002,https://www.orkin.com/locations/ohio-oh/wheelersburg-pest-control/branch-578,,Orkin,Q7102943
oh_wheelersburg_8224-ohio-river-rd,pizza_hut_us,8224 Ohio River Rd,,Wheelersburg,OH,,US,+1 740-574-5051,https://locations.pizzahut.com/oh/wheelersburg/8224-ohio-river-rd,,Pizza Hut,Q191615
5096206,ponderosa_bonanza_steakhouse_us,Wheelersburg,"8801 Ohio River Road, Wheelersburg, OH, 45694, USA",Wheelersburg,OH,,US,+1 740-574-8355,https://pon-bon.com/locations?location=wheelersburg-wheelersburg-oh,Mo-Th 11:00-20:00; Fr-Sa 11:00-21:00; Su 11:00-20:00,Ponderosa Steakhouse,Q64038204
01897,rite_aid_us,Rite Aid #01897 Wheelersburg,,Wheelersburg,OH,,US,+1 740-574-5054,https://locations2.riteaid.com.yext-cdn.com/oh/wheelersburg/8130-ohio-river-road.html,Mo-Fr 08:00-21:00; Sa 09:00-19:00; Su 09:00-20:00,Rite Aid,Q3433273
https://restaurants.subway.com/#14912954,subway,Subway,,Wheelersburg Scioto,OH,,US,+1 740-574-5890,https://restaurants.subway.com/united-states/oh/wheelersburg/8516-ohio-river-rd,Mo-Su 09:00-22:00,Subway,Q244457
0158557900,sunoco_us,Sunoco,,WHEELERSBURG,OH,,US,+1 740-574-4552,,,Sunoco,Q1423218
https://locations.tacobell.com/#3917250,taco_bell,Taco Bell,,Wheelersburg,OH,,US,+1 740-574-5160,https://locations.tacobell.com/oh/wheelersburg/8220-ohio-river-road.html,Mo-Su 07:00-04:00,Taco Bell,Q752941
1387461,usps,WHEELERSBURG,,WHEELERSBURG,OH,,US,+1 740-574-2825,,Mo-Fr 09:00-16:30; Sa 09:00-12:00,United States Postal Service,Q668687
4569400001,usps_collection_boxes,USPS COLLECTION BOX - PO LOBBY,11687 GALLIA PIKE RD,WHEELERSBURG,OH,,US,,,,United States Postal Service,Q668687
4569400005,usps_collection_boxes,USPS COLLECTION BOX - BLUE BOX,11687 GALLIA PIKE RD,WHEELERSBURG,OH,,US,,,,United States Postal Service,Q668687
4569400015,usps_collection_boxes,USPS COLLECTION BOX - PO LOBBY,11687 GALLIA PIKE RD,WHEELERSBURG,OH,,US,,,,United States Postal Service,Q668687
,visa,,,WHEELERSBURG,OH,,US,,,,,
,visa,,,WHEELERSBURG,OH,,US,,,,,
,visa,,,WHEELERSBURG,OH,,US,,,,,
,visa,,,WHEELERSBURG,OH,,US,,,,,
,visa,,,WHEELERSBURG,OH,,US,,,,,
,visa,,,WHEELERSBURG,OH,,US,,,,,
,visa,,,WHEELERSBURG,OH,,US,,,,,
,visa,,,WHEELERSBURG,OH,,US,,,,,
,visa,,,WHEELERSBURG,OH,,US,,,,,
,visa,,,WHEELERSBURG,OH,,US,,,,,
,visa,,,WHEELERSBURG,OH,,US,,,,,
,visa,,,WHEELERSBURG,OH,,US,,,,,
,visa,,,WHEELERSBURG,OH,,US,,,,,
,visa,,,WHEELERSBURG,OH,,US,,,,,
,visa,,,WHEELERSBURG,OH,,US,,,,,
https://locations.wendys.com/#9256438,wendys,"Wendy's Wheelersburg in Wheelersburg, OH",,Wheelersburg,OH,,US,+1 740-574-8188,https://locations.wendys.com/united-states/oh/wheelersburg/316-center-st,"Mo-Su 06:00-10:30,07:00-22:00",Wendy's,Q550258
