Ref,Spider,Name,Address,City,State,Zipcode,Country,Phone,Website,Hours,Brand,WikiData
72045857,moneygram,DESCREMADORA RONY Y PULPERIA - TOCOA - D,,TOCOA,,,HN,+504 3149-5417,,Mo-Su 07:30-19:00,MoneyGram,Q1944412
72361887,moneygram,COOPERATIVA CEIBENA MAXI DESPENSA TOCOA,,TOCOA,,,HN,2443575,,Mo-Sa 10:00-19:00; Su 10:00-15:00,MoneyGram,Q1944412
72643686,moneygram,BANPAIS - #633 - TOCOA - VENTANILLA SALA,,TOCOA,,,HN,+504 2566-2020,,Mo-Su 08:00-20:00,MoneyGram,Q1944412
72643699,moneygram,BANPAIS - #635 - TOCOA - AGENCIA TOCOA,,TOCOA,,,HN,+504 2566-2020,,Mo-Su 08:00-20:00,MoneyGram,Q1944412
72643709,moneygram,BANPAIS - #636 - TOCOA - AGENCIA METRO M,,TOCOA,,,HN,+504 2566-2020,,Mo-Su 08:00-20:00,MoneyGram,Q1944412
72643945,moneygram,BANPAIS - #638 - TOCOA - VENT. EMBOTELLA,,TOCOA,,,HN,+504 2566-2020,,Mo-Fr 08:30-19:00; Sa-Su 10:00-18:00,MoneyGram,Q1944412
73508063,moneygram,COPY CENTER,,TOCOA,,,HN,+504 3193-5996,,Mo-Sa 07:00-19:00; Su 06:00-18:00,MoneyGram,Q1944412
73635541,moneygram,PESCAMAR/ PESCAMAR MARISCOS Y MAS,,TOCOA,,,HN,+504 3142-3829,,Mo-Su 07:00-20:00,MoneyGram,Q1944412
73653905,moneygram,PULPERIA MARIA ESTER,,TOCOA,,,HN,+504 9893-0235,,Mo-Sa 07:00-18:00; Su 00:00-24:00,MoneyGram,Q1944412
73675459,moneygram,INVERSIONES MADISON - #184,,TOCOA,,,HN,+504 2280-1049,,Mo-Su 07:00-20:00,MoneyGram,Q1944412
73675462,moneygram,INVERSIONES MADISON - #185,,TOCOA,,,HN,+504 2280-1049,,Mo-Su 07:00-20:00,MoneyGram,Q1944412
73675475,moneygram,INVERSIONES MADISON - #186,,TOCOA,,,HN,+504 2280-1049,,Mo-Su 07:00-20:00,MoneyGram,Q1944412
73700272,moneygram,PULPERIA MELISSA,,TOCOA,,,HN,+504 9464-5408,,Mo-Su 06:30-21:00,MoneyGram,Q1944412
73718646,moneygram,BODEGUITA LOS GEMELOS,,TOCOA,,,HN,+504 9518-0099,,Mo-Sa 07:00-18:00; Su 08:00-12:00,MoneyGram,Q1944412
73806749,moneygram,FARMYDENT - TOCOA,,TOCOA,,,HN,+504 3174-1454,,24/7,MoneyGram,Q1944412
73806736,moneygram,MARISCOS LEIVA Y MAS - TOCOA,,TOCOA,,,HN,+504 9806-2110,,Mo-Su 07:00-19:00,MoneyGram,Q1944412
73806684,moneygram,PULPERIA DALILA - TOCOA - PULPERIA DALIL,,TOCOA,,,HN,+504 9961-2931,,Mo-Su 06:00-21:00,MoneyGram,Q1944412
73806752,moneygram,USADOS AMERICANOS AL LICE - TOCOA - USAD,,TOCOA,,,HN,+504 9806-9111,,Mo-Su 08:00-18:00,MoneyGram,Q1944412
73879718,moneygram,APPLE CELL - TOCOA - APPLE CELL,,TOCOA,,,HN,+504 9481-7169,,Mo-Sa 08:00-17:00; Su 00:00-24:00,MoneyGram,Q1944412
73889517,moneygram,PULPERIA YOLANY - TOCOA - PULPERIA YOLAN,,TOCOA,,,HN,+504 9541-8541,,Mo-Sa 08:00-20:00; Su 00:00-24:00,MoneyGram,Q1944412
73942962,moneygram,SUPER TIENDAS HLA #2 - TOCOA - SUPER TIE,,TOCOA,,,HN,9795429,,Mo-Su 07:00-17:00,MoneyGram,Q1944412
73942454,moneygram,SUPER AMANECER - TOCOA - SUPER AMANECER,,TOCOA,,,HN,+504 9786-7641,,Mo-Su 08:00-19:00,MoneyGram,Q1944412
73993131,moneygram,CELULARES Y ACCESORIOS MATAMOROS - TOCOA,,TOCOA,,,HN,+504 9994-8573,,Mo-Sa 07:00-17:00; Su 00:00-24:00,MoneyGram,Q1944412
73992886,moneygram,MERCADITO ANGEL - TOCOA - MERCADITO LEYM,,TOCOA,,,HN,+504 9952-4973,,Mo-Su 08:00-22:00,MoneyGram,Q1944412
73992909,moneygram,MISTER MARKET - TOCOA - MISTER MARKET,,TOCOA,,,HN,+504 9783-8081,,Mo-Su 08:00-21:00,MoneyGram,Q1944412
73992857,moneygram,VARIEDADES ALEJANDRA - TOCOA - VARIEDADE,,TOCOA,,,HN,+504 3373-7020,,Mo-Su 07:00-21:00,MoneyGram,Q1944412
74129098,moneygram,EL MUNDO DEL ACERO - TOCOA - EL MUNDO DE,,TOCOA,,,HN,+504 9510-4645,,Mo-Su 08:00-20:00,MoneyGram,Q1944412
74129111,moneygram,VIL-CELL - TOCOA - VIL-CELL,,TOCOA,,,HN,+504 9997-9907,,Mo-Su 07:00-17:00,MoneyGram,Q1944412
74134339,moneygram,COMERCIAL ISABEL - TOCOA - PULPERIA ISAB,,TOCOA,,,HN,+504 8804-5081,,Mo-Su 06:30-18:00,MoneyGram,Q1944412
74137462,moneygram,FARMACIA LA ECONOMIK - TOCOA - FARMACIA,,TOCOA,,,HN,+504 9945-5338,,Mo-Su 08:00-20:00,MoneyGram,Q1944412
74137527,moneygram,AGROPECUARIA EL CORRAL - TOCOA - AGROVET,,TOCOA,,,HN,+504 9577-5430,,Mo-Su 07:00-18:00,MoneyGram,Q1944412
74154885,moneygram,COMERCIAL KEIDY - TOCOA - COMERCIAL KEID,,TOCOA,,,HN,+504 9975-4128,,Mo-Su 08:00-17:00,MoneyGram,Q1944412
74192151,moneygram,TIENDA REDSON - TOCOA - REDSON,,TOCOA,,,HN,+504 3191-1952,,Mo-Su 09:00-19:00,MoneyGram,Q1944412
74223295,moneygram,FARMALUNA - TOCOA - FARMACIA FARMALUNA,,TOCOA,,,HN,+504 3175-1583,,Mo-Su 08:00-22:00,MoneyGram,Q1944412
74243576,moneygram,PULPERIA ALVAREZ - TOCOA - INVERSIONES M,,TOCOA,,,HN,+504 8877-8272,,Mo-Su 06:30-21:00,MoneyGram,Q1944412
74242807,moneygram,PULPERIA GLORIA - TOCOA - MERCADITO GLOR,,TOCOA,,,HN,+504 9473-2018,,Mo-Su 06:00-21:00,MoneyGram,Q1944412
70267653,moneygram,FARMACIA CELIA - TOCOA,,TOCOA,,,HN,+504 2444-2500,,Mo-Sa 08:00-20:30; Su 10:00-17:00,MoneyGram,Q1944412
70651188,moneygram,CELULARES GISEL - TOCOA,,TOCOA,,,HN,+504 9705-4073,,Mo-Sa 08:00-20:30; Su 10:00-17:00,MoneyGram,Q1944412
71099419,moneygram,BANRURAL HONDURAS - #58 - TOCOA - METRO,,TOCOA,,,HN,+504 2290-1010,,Mo-Su 07:00-20:00,MoneyGram,Q1944412
71222448,moneygram,BANRURAL HONDURAS - #106 - TOCOA - TOCOA,,TOCOA,,,HN,+504 2290-1010,,Mo-Su 07:00-20:00,MoneyGram,Q1944412
