Ref,Spider,Name,Address,City,State,Zipcode,Country,Phone,Website,Hours,Brand,WikiData
https://storelocations.ae.com/#1726315,american_eagle_outfitters,American Eagle & Aerie Store Hillsdale Shopping Center,,San Mateo,CA,,US,+1 650-638-2548,https://storelocations.ae.com/us/ca/san-mateo/448-hillsdale-s-c.html,Mo-Sa 10:00-21:00; Su 11:00-18:00,American Eagle & Aerie Store,Q2842931
https://stores.anntaylor.com/ca/san-mateo/276-hillsdale-shopping-center.html,anntaylor,Ann Taylor,,San Mateo,CA,,US,+1 650-571-1030,https://stores.anntaylor.com/ca/san-mateo/276-hillsdale-shopping-center.html,Mo-Sa 10:00-21:00; Su 11:00-19:00,Ann Taylor,Q4766699
R231,apple,Apple Hillsdale,,San Mateo,CA,,US,+1 650-645-4800,https://www.apple.com/retail/hillsdale,Mo-Sa 10:00-21:00; Su 11:00-19:00,Apple,Q421253
23331,asics_us,Lady Foot Locker - San Mateo,245 Hillsdale Shop,San Mateo,CA,,US,+1 650-572-9835,,,asics,Q327247
14530,asics_us,Nordstrom Hillsdale Shopping Center,130 Hillsdale Shppng Center,San Mateo,CA,,US,+1 650-570-5111,,,asics,Q327247
116636,att_us,SAN MATEO HILLSDALE,,San Mateo,CA,,US,+1 650-312-1346,https://www.att.com/stores/california/san-mateo/116636,Mo-Fr 10:00-21:00; Sa 10:00-20:00; Su 10:00-18:00,AT&T,Q298594
2854,autozone_us,AutoZone Auto Parts San Mateo,,San Mateo,CA,,US,+1 650-372-0535,https://www.autozone.com/locations/ca/san-mateo/3880-s-el-camino-real.html,Mo-Fr 07:30-21:00; Sa 07:30-20:00; Su 08:00-20:00,AutoZone,Q4826087
https://www.banfield.com/locations/veterinarians/ca/san-mateo/sam,banfield_pet_hospital,San Mateo,,San Mateo,CA,,US,+1 650-577-0115,https://www.banfield.com/locations/veterinarians/ca/san-mateo/sam,Mo-Su 08:00-19:00,Banfield Pet Hospital,Q2882416
https://locators.bankofamerica.com/ca/sanmateo/financial-centers-san-mateo-8370.html,bankofamerica,Bank of America Financial Center & Walk-Up ATM | Laurelwood,,San Mateo,CA,,US,+1 650-358-4423,https://locators.bankofamerica.com/ca/sanmateo/financial-centers-san-mateo-8370.html,Mo-Fr 10:00-16:00,Bank of America,Q487907
https://locators.bankofamerica.com/ca/sanmateo/financial-centers-san-mateo-9721.html,bankofamerica,Bank of America Financial Center & Drive-Thru ATM | Hillsdale,,San Mateo,CA,,US,+1 650-358-4454,https://locators.bankofamerica.com/ca/sanmateo/financial-centers-san-mateo-9721.html,Mo-Fr 10:00-16:00,Bank of America,Q487907
Junipero Serra High School,barnesnoblecollege,Junipero Serra High School,,Mateo,CA,,US,,https://www.bncollege.com/campus-stores/,,Barnes & Noble College,Q4861508
BBW00281,bathandbodyworks_us,HILLSDALE SHOPPING CENTER,,SAN MATEO,CA,,US,+1 650-212-2044,,Mo-Sa 10:00-21:00; Su 11:00-19:00,Bath & Body Works,Q810773
21,bevmo_us,San Mateo,,San Mateo,CA,,US,+1 650-577-8161,https://www.bevmo.com/stores/san-mateo,Mo-Th 09:00-21:00; Fr-Sa 09:00-22:00; Su 09:00-20:00,BevMo!,Q4899308
142109,bluerhino,Double AA #142109,,San Mateo,CA,,US,+1 650-286-1513,,,Blue Rhino,Q65681213
209252,bluerhino,United Pacific #5622,,San Mateo,CA,,US,+1 650-525-4611,,,Blue Rhino,Q65681213
154339,bluerhino,Walgreens #05006,,San Mateo,CA,,US,+1 650-212-4600,,,Blue Rhino,Q65681213
198885,bluerhino,San Mateo BevMo - UNFI #248051,,San Mateo,CA,,US,+1 650-577-8161,,,Blue Rhino,Q65681213
89319,bluerhino,Mollie Stone's Market #241161,,San Mateo,CA,,US,+1 650-372-2828,,,Blue Rhino,Q65681213
143264,bluerhino,Pacific Fuel & Auto Service,,San Mateo,CA,,US,+1 650-341-5901,,,Blue Rhino,Q65681213
32652_01,bmw_group,Peter Pan BMW,,San Mateo,CA,,US,+1 650-349-9077,https://www.peterpanbmw.com,,BMW,Q26678
https://child-care-preschool.brighthorizons.com/CA/SanMateo/sanmateo,brighthorizons,Bright Horizons at San Mateo,,San Mateo,CA,,US,+1 650-844-6460,https://child-care-preschool.brighthorizons.com/ca/sanmateo/sanmateo,Mo-Fr 08:00-18:00,Bright Horizons,Q4967421
0971,carpet_one_floor_and_home_us,Bay Area Floors & Design,,San Mateo,CA,,US,+1 650-358-2580,https://www.bayareafloorscarpetone.com/,,Carpet One Floor & Home,Q121335910
2041276,chase_us,Hillsdale - New branch,,San Mateo,CA,,US,+1 650-525-1635,https://locator.chase.com/ca/san-mateo/3590-s-el-camino-real,Mo-Fr 09:00-17:00; Sa 09:00-14:00,Chase,Q524629
2041280,chase_us,S Norfolk St and E Hillsdale Bl - New branch,,San Mateo,CA,,US,+1 650-638-0251,https://locator.chase.com/ca/san-mateo/2900-s-norfolk-st,Mo-Fr 09:00-17:00; Sa 09:00-14:00,Chase,Q524629
97781,chevron,Chevron Station #97781,300 E. HILLSDALE BLVD.,SAN MATEO,CA,,US,+1 650-573-9125,,,Chevron,Q319642
ca_san-mateo_1050-park-pl,chipotle, ,,San Mateo,CA,,US,+1 650-242-7265,https://locations.chipotle.com/ca/san-mateo/1050-park-pl,,Chipotle,Q465751
72776,citi,ATM Rite Aid,,San Mateo,CA,,US,,,,Citibank,Q857063
419,citi,San Mateo-Hillsdale,,San Mateo,CA,,US,+1 800-627-3999,,,Citibank,Q857063
90895,citi,ATM Walgreens,,San Mateo,CA,,US,,,,Citibank,Q857063
36548,citi,ATM Bel Mateo Bowl,,San Mateo,CA,,US,,,,Citibank,Q857063
51011,citi,ATM CVS,,San Mateo,CA,,US,,,,Citibank,Q857063
24655,citi,ATM 7ELEVEN-FCTI,,San Mateo,CA,,US,,,,Citibank,Q857063
54284,citi,ATM EAST WEST BANK,,San Mateo,CA,,US,,,,Citibank,Q857063
sanmateo/6827,claires,Shop Ear Piercings & Jewelry at Hillsdale Shopping Center,,SAN MATEO,CA,,US,+1 650-573-0594,https://stores.claires.com/us/ca/sanmateo/6827.html,Mo-Sa 10:00-21:00; Su 11:00-18:00,Claire's,Q2974996
29492,cpk,California Pizza Kitchen San Mateo,,San Mateo,CA,,US,+1 650-286-9018,https://www.cpk.com/locations/29492,,California Pizza Kitchen,Q15109854
121,crunch_fitness,Crunch Fitness,,San Mateo,CA,,US,+1 650-212-4653,https://www.crunch.com/locations/san-mateo,,Crunch Fitness,Q5190093
9833,cvs_us,CVS Pharmacy,,San Mateo,CA,,US,+1 650-573-5401,https://www.cvs.com/store-locator/san-mateo-ca-pharmacies/4242-s-el-camino-real-san-mateo-ca-94403/storeid=9833,Mo-Sa 07:00-22:00; Su 08:00-22:00,CVS Pharmacy,Q2078880
248538,dennys,Denny's,,San Mateo,CA,,US,+1 650-574-1221,https://locations.dennys.com/CA/SAN-MATEO/248538,24/7,Denny's,Q1189695
Hillsdale Shopping Center,dsw,DSW,,San Mateo,CA,,US,+1 650-212-7545,https://stores.dsw.com/usa/ca/sanmateo/dsw-designer-shoe-warehouse-hillsdale-shopping-center.html,Mo-Sa 10:00-20:00; Su 11:00-19:00,Designer Shoe Warehouse,Q5206207
0001043787,ecco,ECCO HILLSDALE,,SAN MATEO,CA,,US,+1 650-312-8031,,Mo-Sa 10:00-09:00; Su 11:00-07:00,Ecco,Q1280255
210054,electrify_america,"BoA Hillsdale CA5-143 (San Mateo, CA)",,San Mateo,CA,,US,,,,Electrify America,Q59773555
E123A2,enterprise,San Mateo Hillsdale Blvd.,,San Mateo,CA,,US,+1 650-570-6677,,,Enterprise Rent-A-Car,Q17085454
200320684,exxonmobil,SAN MATEO,,SAN MATEO,CA,,US,+1 650-727-3157,https://www.exxon.com/en/find-station/exxon-sanmateo-ca-sanmateo-200320684,Mo-Su 05:00-23:00,Exxon,Q109675651
https://www.fitness19.com/centers/san-mateo/,fitness19_us,Fitness 19,,San Mateo,CA,,US,+1 650-212-1919,https://www.fitness19.com/centers/san-mateo/,,Fitness 19,Q121787953
https://stores.footlocker.com/ca/sanmateo/394-hillsdale-shop-center-7397.html,footlocker,"Foot Locker in San Mateo: San Mateo, California | Approved | Own It",,San Mateo,CA,,US,+1 650-345-7610,https://stores.footlocker.com/ca/sanmateo/394-hillsdale-shop-center-7397.html,Mo-Sa 10:00-21:00; Su 11:00-19:00,Foot Locker,Q63335
4570,gamestop_us,Hillsdale Mall,,SAN MATEO,CA,,US,+1 650-286-1302,https://www.gamestop.com/search/?store=4570,Mo-Sa 10:00-21:00; Su 11:00-21:00,GameStop,Q202210
https://stores.gnc.com/#63390751,gnc,GNC HILLSDALE SHOPPING CENTER,,,CA,,US,+1 650-356-8637,https://stores.gnc.com/all-stores-california/san-mateo/190-hillsdale-mall,Mo-Sa 10:00-19:00; Su 11:00-19:00,GNC,Q4808595
58eb6cff-458a-e111-8dde-005056934050,goodwill,Goodwill,,San Mateo,CA,,US,+1 650-293-8500,https://www.goodwill.org/locator/location/?store=NThlYjZjZmYtNDU4YS1lMTExLThkZGUtMDA1MDU2OTM0MDUw&lat=MzcuNzQwMDI=&lng=LTEyMi40NjYyNg==,,Goodwill,Q5583655
US0249,hm,Hillsdale Shopping Center,,San Mateo,CA,,US,+1 855-466-7467,,Mo-Sa 10:00-21:00; Su 11:00-19:00,H&M,Q188326
https://www.blockadvisors.com/local-tax-offices/california/san-mateo/21-w-41st-ave/3630/,h_r_block,H&R Block,,San Mateo,CA,,US,+1 650-345-0729,https://www.blockadvisors.com/local-tax-offices/california/san-mateo/21-w-41st-ave/3630/,,H&R Block,Q5627799
https://locations.jamba.com/#104123-Jamba,jambajuice,Jamba Hillsdale Shopping Center,,San Mateo,CA,,US,+1 415-610-3324,https://locations.jamba.com/ca/san-mateo/29-hillsdale-mall,Mo-Sa 09:00-19:00; Su 09:00-18:30,Jamba Juice,Q3088784
https://locations.jamba.com/#172-Jamba,jambajuice,Jamba Laurelwood S/C,,San Mateo,CA,,US,+1 650-357-0804,https://locations.jamba.com/ca/san-mateo/1230-a-west-hillsdale-blvd,Mo-Sa 08:30-18:00; Su 09:00-18:00,Jamba Juice,Q3088784
https://stores.jdsports.com/ca/sanmateo/hillsdale-center.html,jdsports_us,JD Sports,,San Mateo,CA,,US,+1 650-425-3240,https://stores.jdsports.com/ca/sanmateo/hillsdale-center.html,Mo-Sa 10:00-21:00; Su 11:00-19:00,JD Sports,Q6108019
https://healthy.kaiserpermanente.org/northern-california/facilities/satellite-dialysis-san-mateo-339939,kaiser_permanente_us,Satellite Dialysis San Mateo,,San Mateo,CA,,US,+1 855-396-2212,https://healthy.kaiserpermanente.org/northern-california/facilities/satellite-dialysis-san-mateo-339939,,Kaiser Permanente,Q1721601
https://healthy.kaiserpermanente.org/northern-california/facilities/san-mateo-medical-offices-300395,kaiser_permanente_us,San Mateo Medical Offices,,San Mateo,CA,,US,+1 650-358-7000,https://healthy.kaiserpermanente.org/northern-california/facilities/san-mateo-medical-offices-300395,,Kaiser Permanente,Q1721601
https://healthy.kaiserpermanente.org/northern-california/facilities/palm-avenue-social-model-detoxification-326187,kaiser_permanente_us,Palm Avenue Social Model Detoxification,,San Mateo,CA,,US,+1 650-513-6500,https://healthy.kaiserpermanente.org/northern-california/facilities/palm-avenue-social-model-detoxification-326187,,Kaiser Permanente,Q1721601
https://healthy.kaiserpermanente.org/northern-california/facilities/brookside-skilled-nursing-hospital-327989,kaiser_permanente_us,Brookside Skilled Nursing Hospital,,San Mateo,CA,,US,+1 650-349-2161,https://healthy.kaiserpermanente.org/northern-california/facilities/brookside-skilled-nursing-hospital-327989,,Kaiser Permanente,Q1721601
https://stores.kiehls.com/ca/san-mateo/135-hillsdale-shopping-ctr.html,kiehls_us,Kiehl's hillsdale shopping center,,San Mateo,CA,,US,+1 650-638-1800,https://stores.kiehls.com/ca/san-mateo/135-hillsdale-shopping-ctr.html,Mo-Sa 10:00-21:00; Su 11:00-19:00,Kiehl's,Q3196447
301713,kindercare,Bay Meadows KinderCare,,San Mateo,CA,,US,,https://www.kindercare.com/our-centers/san-mateo/ca/301713,,KinderCare Learning Centers,Q6410551
69759,little_free_library,Moo Ping’s Library #69759 San Mateo CA,,San Mateo,CA,,US,,,,Little Free Library,Q6650101
94706,little_free_library,Little Free Library #94706 San Mateo CA,,San Mateo,CA,,US,,,,Little Free Library,Q6650101
104243,little_free_library,Tish Matulich #104243 San Mateo CA,,San Mateo,CA,,US,,,,Little Free Library,Q6650101
33892,little_free_library,Lisa Taner #33892 San Mateo CA,,San Mateo,CA,,US,,,,Little Free Library,Q6650101
111587,little_free_library,Jessica Naecker #111587 San Mateo CA,,San Mateo,CA,,US,,,,Little Free Library,Q6650101
161418,little_free_library,Jose Irias #161418 #161418 San Mateo CA,,San Mateo,CA,,US,,,,Little Free Library,Q6650101
70954,little_free_library,Chestnut Lane Library #70954 San Mateo CA,,San Mateo,CA,,US,,,,Little Free Library,Q6650101
94115,little_free_library,Siegel's library #94115 San Mateo CA,,San Mateo,CA,,US,,,,Little Free Library,Q6650101
82472,little_free_library,Troop 61738's Library #82472 San Mateo CA,,San Mateo,CA,,US,,,,Little Free Library,Q6650101
19083,little_free_library,Alec Simpson #19083 San mateo CA,,San mateo,CA,,US,,,,Little Free Library,Q6650101
101388,little_free_library,The Kent’s Library #101388 San Mateo CA,,San Mateo,CA,,US,,,,Little Free Library,Q6650101
110954,little_free_library,Parkside Little Library #110954 San Mateo CA,,San Mateo,CA,,US,,,,Little Free Library,Q6650101
120220,little_free_library,The Chavez #120220 San Mateo CA,,San Mateo,CA,,US,,,,Little Free Library,Q6650101
136190,little_free_library,Little Free Library #136190 San Mateo CA,,San Mateo,CA,,US,,,,Little Free Library,Q6650101
US194,longchamp_us,Nordstrom Hillsdale Mall,,SAN MATEO,CA,,US,+1 650-570-5111,,,Longchamp,Q1869471
50512,lovisa,Lovisa,,San Mateo,CA,,US,+1 810-202-7421,,,Lovisa,Q106298409
Hillsdale Mall,lululemon,Lululemon,"17 Hillsdale Mall, San Mateo, CA, US, 94403",San Mateo,CA,,US,+1 650-750-0554,https://shop.lululemon.com/stores/us/san-mateo/lululemon-hillsdale-mall,Mo-Th 10:00-20:00; Fr-Sa 10:00-21:00; Su 11:00-19:00,Lululemon,Q6702957
https://locations.massageenvy.com/#1774243,massage_envy,Massage Envy San Mateo Bay Meadows,,San Mateo,CA,,US,+1 650-393-6477,https://locations.massageenvy.com/california/san-mateo/1100-park-place.html,Mo-Fr 08:00-21:00; Sa 08:00-20:00; Su 10:00-20:00,Massage Envy,Q10327170
17254,mattress_firm_us,Mattress Firm San Mateo Hillsdale,,San Mateo,CA,,US,+1 650-572-9005,https://www.mattressfirm.com/en-us/stores/ca/san-mateo/502011/,,Mattress Firm,Q6791878
5051,michaels,"Bay-San Mateo, CA",,San Mateo,CA,,US,+1 650-513-8189,https://locations.michaels.com/ca/san-mateo/5051,Mo-Sa 09:00-21:00; Su 10:00-19:00,Michaels,Q6835667
10383171,nick_the_greek_us,San Mateo,"1324 W Hillsdale Blvd., San Mateo, Ca, 94403, US",San Mateo,CA,,US,+1 650-345-4976,,Mo-Su 11:00-22:00,Nick The Greek,Q117222612
420,nordstrom,Nordstrom Hillsdale Shopping Center,,San Mateo,CA,,US,+1 650-570-5111,https://www.nordstrom.com/store-details/nordstrom-hillsdale-shopping-center,,Nordstrom,Q174310
https://locations.oreillyauto.com/ca/sanmateo/check-engine-light-testing-3468.html,oreilly,Your San Mateo O'Reilly Auto Parts Store,,San Mateo,CA,,US,+1 650-349-1275,https://locations.oreillyauto.com/ca/sanmateo/check-engine-light-testing-3468.html,Mo-Sa 07:30-21:00; Su 08:00-21:00,O'Reilly Auto Parts,Q7071951
https://locations.oreillyauto.com/ca/sanmateo/wiper-installation-3468.html,oreilly,Your San Mateo O'Reilly Auto Parts Store,,San Mateo,CA,,US,+1 650-349-1275,https://locations.oreillyauto.com/ca/sanmateo/wiper-installation-3468.html,Mo-Sa 07:30-21:00; Su 08:00-21:00,O'Reilly Auto Parts,Q7071951
https://locations.oreillyauto.com/ca/sanmateo/battery-testing-3468.html,oreilly,Your San Mateo O'Reilly Auto Parts Store,,San Mateo,CA,,US,+1 650-349-1275,https://locations.oreillyauto.com/ca/sanmateo/battery-testing-3468.html,Mo-Sa 07:30-21:00; Su 08:00-21:00,O'Reilly Auto Parts,Q7071951
https://locations.oreillyauto.com/ca/sanmateo/autopartes-3468.html,oreilly,Tu tienda O'Reilly Auto Parts en San Mateo,,San Mateo,CA,,US,+1 650-349-1275,https://locations.oreillyauto.com/ca/sanmateo/autopartes-3468.html,Mo-Sa 07:30-21:00; Su 08:00-21:00,O'Reilly Auto Parts,Q7071951
113135,pandaexpress,Hillsdale Shopping Center,,San Mateo,CA,,US,+1 650-286-1079,https://www.pandaexpress.com/locations/ca/san-mateo/74-hillsdale-mall,Mo-Th 11:00-20:00; Fr-Sa 10:30-20:30; Su 11:00-19:00,Panda Express,Q1358690
us73c41a92,pandora,About Pandora Jewelry at 3860 Pandora @ Hillsdale Shopping Center,,San Mateo,CA,,US,+1 650-572-9000,https://stores.pandora.net/ca/sanmateo/pandora-jewelry-us73c41a92.html,Mo-Sa 10:00-20:00; Su 11:00-19:00,Pandora,Q2241604
https://locations.papajohns.com/#10692397,papa_johns,Papa John's,,San Mateo,CA,,US,+1 650-570-7272,https://locations.papajohns.com/united-states/ca/94403/san-mateo/9-43rd-ave,Mo-Th 10:30-23:00; Fr-Sa 10:30-24:00; Su 10:30-23:00,Papa John's Pizza,Q2759586
16526000,peets_coffee_us,Bay Meadows,,San Mateo,CA,,US,+1 650-403-0110,https://peets.app.link?&$fallback_url=https%3A%2F%2Forder.peets.com%2Flocation%2Fbay-meadows%2Fmenu&$type=order&~campaign=orderaheadonline&~channel=web&~feature=menu&~tags=bay-meadows,Mo-Fr 05:00-18:30; Sa-Su 06:00-18:30,Peet's Coffee,Q1094101
068560,penske,Peninsula Rentals &amp; Stor,,SAN MATEO,CA,,US,+1 650-578-0526,https://www.pensketruckrental.com/locations/us/california/san_mateo/068560/,,Penske,Q81234570
0000880474,phillips_66_conoco_76,CF UNITED APRO LLC 2704622,,SAN MATEO,CA,,US,+1 650-312-9519,,,U76,Q1658320
0000879235,phillips_66_conoco_76,HILLSDALE AUTO CARE,,SAN MATEO,CA,,US,+1 650-212-7451,,,U76,Q1658320
https://www.publicstorage.com/self-storage-ca-san-mateo/398.html,public_storage_us,Public Storage,,San Mateo,CA,,US,+1 650-403-1057,https://www.publicstorage.com/self-storage-ca-san-mateo/398.html,,Public Storage,Q1156045
05903,rite_aid_us,Rite Aid #05903 San Mateo,,San Mateo,CA,,US,+1 650-570-6094,https://locations2.riteaid.com.yext-cdn.com/ca/san-mateo/1320-west-hillsdale-blvd.html,Mo-Su 08:00-22:00,Rite Aid,Q3433273
993666,rocket_us,Rocket,,San Mateo,CA,,US,+1 650-315-2112,,,Rocket,Q121513516
1552,round_table_pizza,San Mateo - S.Norfolk st,,San Mateo ,CA,,US,+1 650-341-0600,https://ordering.roundtablepizza.com/site/rtsm,,Round Table Pizza,Q7371139
1595,round_table_pizza,San Mateo - Laurelwood,,San Mateo ,CA,,US,+1 650-573-5858,https://ordering.roundtablepizza.com/site/rthillsdale,,Round Table Pizza,Q7371139
2134,round_table_pizza,Round Table Pizza W 43rd Ave,,San Mateo ,CA,,US,+1 650-577-0303,https://ordering.roundtablepizza.com/site/rtp805,,Round Table Pizza,Q7371139
https://stores.saloncentric.com/#29173716,salon_centric_us,SalonCentric,,,CA,,US,+1 650-344-2180,https://stores.saloncentric.com/ca/san-mateo/5910,Mo 08:00-18:30; Tu-Fr 08:00-18:00; Sa 08:30-16:00; Su 12:00-16:00,SalonCentric,Q124339481
1236,shellrecharge,521401-City of San Mateo,,San Mateo,CA,,US,,,,Shell Recharge,Q105883058
794838497301944700,sleep_number_us,Sleep Number,,San Mateo,CA,,US,,https://www.sleepnumber.com/stores/ca/san-mateo/41-w-hillsdale-blvd,Mo-Su 11:00-20:00,Sleep Number,Q7447640
2267,snap_fitness,"San Mateo, CA",1232 W Hillsdale Blvd,San Mateo,CA,,US,+1 650-393-5625,https://www.snapfitness.com/us/gyms/san-mateo-ca,24/7,Snap Fitness,Q7547254
85,sola_salon_studios,San Mateo,,San Mateo,CA,,US,+1 415-524-7302,https://www.solasalonstudios.com/locations/san-mateo,,Sola Salon Studios,Q64337426
https://restaurants.subway.com/#14904141,subway,Subway,,San Mateo San Mateo,CA,,US,+1 650-341-1446,https://restaurants.subway.com/united-states/ca/san-mateo/3880-s-el-camino-real,Mo-Fr 10:00-20:00; Sa 10:00-19:00; Su 10:00-18:00,Subway,Q244457
https://restaurants.subway.com/#14908924,subway,Subway,,San Mateo San Mateo,CA,,US,+1 650-242-1741,https://restaurants.subway.com/united-states/ca/san-mateo/2727-s-el-camino-real,Mo-Fr 08:30-22:00; Sa 09:00-21:00; Su 09:30-21:00,Subway,Q244457
https://restaurants.subway.com/#14914033,subway,Subway Laurelwood Shopping Ctr,,San Mateo San Mateo,CA,,US,+1 650-341-1900,https://restaurants.subway.com/united-states/ca/san-mateo/1308-w-hillsdale-blvd,Mo-Fr 08:30-21:30; Sa-Su 09:00-22:00,Subway,Q244457
https://stores.sunglasshut.com/us/ca/san-mateo/115-hillsdale-mall,sunglass_hut_1,Sunglass Hut at Macy's,,San Mateo,CA,,US,+1 650-286-9587,https://stores.sunglasshut.com/us/ca/san-mateo/115-hillsdale-mall,Mo-Sa 10:00-21:00; Su 11:00-19:00,Sunglass Hut,Q136311
8017,supercuts,San Mateo,15 24th Ave,San Mateo,CA,,US,+1 650-572-1101,https://www.supercuts.com/checkin/8017,Mo-Th 09:00-18:00; Fr-Sa 09:00-19:00; Su 09:00-18:00,Supercuts,Q7643239
https://locations.tacobell.com/#6145474,taco_bell,Taco Bell,,San Mateo,CA,,US,+1 650-403-0387,https://locations.tacobell.com/ca/san-mateo/1975-s-el-camino-real.html,,Taco Bell,Q752941
8796423290903,thebodyshop,Hillsdale Shopping Center,,San Mateo,CA,,US,,https://www.thebodyshop.com/en-us/store-details/hillsdale-shopping-center/1399,,The Body Shop,Q837851
156,the_cheesecake_factory,Hillsdale Shopping Center,,San Mateo,CA,,US,+1 650-638-0310,https://locations.thecheesecakefactory.com/ca/san-mateo-156/,Mo-Th 11:00-22:00; Fr 11:00-23:00; Su 10:00-22:00,The Cheesecake Factory,Q1045842
862C,tmobile_us,Hillsdale Mall,,San Mateo,CA,,US,+1 650-389-5807,https://www.t-mobile.com/store-locator/ca/san-mateo/hillsdale-mall,,T-Mobile,Q3511885
245,trader_joes_us,Trader Joe's San Mateo - Hillsdale (245),,San Mateo,CA,,US,+1 650-286-1509,https://locations.traderjoes.com/ca/san-mateo/245/,Mo-Su 08:00-21:00,Trader Joe's,Q688825
028208,uhaul,Beacon Auto Care,2300 S El Camino Real,San Mateo,CA,,US,+1 650-288-0230,,Tu-Fr 00:00-15:00,U-Haul,Q7862902
037243,uhaul,Auto Experts,3555 S El Camino Real,San Mateo,CA,,US,+1 650-931-6755,,Mo-Fr 00:00-16:00,U-Haul,Q7862902
006014,uhaul,Valero San Mateo,4095 Pacific Bl,San Mateo,CA,,US,+1 650-377-0701,,Mo-Fr 00:00-19:00; Sa 00:00-19:00,U-Haul,Q7862902
1352244,usps,25TH AVENUE,,SAN MATEO,CA,,US,+1 650-358-8476,,Mo-Fr 09:30-17:00,United States Postal Service,Q668687
9440300027,usps_collection_boxes,USPS COLLECTION BOX - BLUE BOX,345 42ND AVE,SAN MATEO,CA,,US,,,,United States Postal Service,Q668687
9440300025,usps_collection_boxes,USPS COLLECTION BOX - BLUE BOX,3901 ALAMEDA DE LAS PULGAS,SAN MATEO,CA,,US,,,,United States Postal Service,Q668687
9440300028,usps_collection_boxes,USPS COLLECTION BOX - BLUE BOX,60 W 42ND AVE,SAN MATEO,CA,,US,,,,United States Postal Service,Q668687
9440300081,usps_collection_boxes,USPS COLLECTION BOX - BLUE BOX,4055 PACIFIC BLVD,SAN MATEO,CA,,US,,,,United States Postal Service,Q668687
9440300046,usps_collection_boxes,USPS COLLECTION BOX - BLUE BOX,3150 CAMPUS DR,SAN MATEO,CA,,US,,,,United States Postal Service,Q668687
9440300091,usps_collection_boxes,USPS COLLECTION BOX - BLUE BOX,1202 W HILLSDALE BLVD,SAN MATEO,CA,,US,,,,United States Postal Service,Q668687
9440300031,usps_collection_boxes,USPS COLLECTION BOX - BLUE BOX,2000 ALAMEDA DE LAS PULGAS,SAN MATEO,CA,,US,,,,United States Postal Service,Q668687
9440300013,usps_collection_boxes,USPS COLLECTION BOX - BLUE BOX,2602 DOLORES ST,SAN MATEO,CA,,US,,,,United States Postal Service,Q668687
9440300067,usps_collection_boxes,USPS COLLECTION BOX - BLUE BOX,81 W HILLSDALE BLVD,SAN MATEO,CA,,US,,,,United States Postal Service,Q668687
9440300022,usps_collection_boxes,USPS COLLECTION BOX - BLUE BOX,11 37TH AVE,SAN MATEO,CA,,US,,,,United States Postal Service,Q668687
9440300015,usps_collection_boxes,USPS COLLECTION BOX - BLUE BOX,140 28TH AVE,SAN MATEO,CA,,US,,,,United States Postal Service,Q668687
9440300059,usps_collection_boxes,USPS COLLECTION BOX - BLUE BOX,2555 FLORES ST,SAN MATEO,CA,,US,,,,United States Postal Service,Q668687
9440300008,usps_collection_boxes,USPS COLLECTION BOX - BLUE BOX,135 W 25TH AVE,SAN MATEO,CA,,US,,,,United States Postal Service,Q668687
9440300010,usps_collection_boxes,USPS COLLECTION BOX - EXPRESS,135 W 25TH AVE,SAN MATEO,CA,,US,,,,United States Postal Service,Q668687
9440300090,usps_collection_boxes,USPS COLLECTION BOX - PO LOBBY,135 W 25TH AVE,SAN MATEO,CA,,US,,,,United States Postal Service,Q668687
9440300111,usps_collection_boxes,USPS COLLECTION BOX - PO LOBBY,135 W 25TH AVE,SAN MATEO,CA,,US,,,,United States Postal Service,Q668687
9440300084,usps_collection_boxes,USPS COLLECTION BOX - BLUE BOX,3301 SARATOGA DR,SAN MATEO,CA,,US,,,,United States Postal Service,Q668687
9440300102,usps_collection_boxes,USPS COLLECTION BOX - BLUE BOX,200 FRANKLIN PKWY,SAN MATEO,CA,,US,,,,United States Postal Service,Q668687
9440300100,usps_collection_boxes,USPS COLLECTION BOX - BLUE BOX,2495 S DELAWARE ST,SAN MATEO,CA,,US,,,,United States Postal Service,Q668687
9440300097,usps_collection_boxes,USPS COLLECTION BOX - BLUE BOX,1391 PARK PL,SAN MATEO,CA,,US,,,,United States Postal Service,Q668687
9440300060,usps_collection_boxes,USPS COLLECTION BOX - BLUE BOX,221 PORTOLA DR,SAN MATEO,CA,,US,,,,United States Postal Service,Q668687
9440300007,usps_collection_boxes,USPS COLLECTION BOX - BLUE BOX,200 23RD AVE,SAN MATEO,CA,,US,,,,United States Postal Service,Q668687
9440300082,usps_collection_boxes,USPS COLLECTION BOX - BLUE BOX,2211 PALM AVE,SAN MATEO,CA,,US,,,,United States Postal Service,Q668687
9440300054,usps_collection_boxes,USPS COLLECTION BOX - BLUE BOX,2121 S EL CAMINO REAL,SAN MATEO,CA,,US,,,,United States Postal Service,Q668687
9440300070,usps_collection_boxes,USPS COLLECTION BOX - BLUE BOX,3130 LA SELVA ST,SAN MATEO,CA,,US,,,,United States Postal Service,Q668687
9440300032,usps_collection_boxes,USPS COLLECTION BOX - BLUE BOX,1088 ANNAPOLIS DR,SAN MATEO,CA,,US,,,,United States Postal Service,Q668687
9440300083,usps_collection_boxes,USPS COLLECTION BOX - BLUE BOX,2001 PIONEER CT,SAN MATEO,CA,,US,,,,United States Postal Service,Q668687
9440300076,usps_collection_boxes,USPS COLLECTION BOX - BLUE BOX,2968 S NORFOLK ST,SAN MATEO,CA,,US,,,,United States Postal Service,Q668687
9440300033,usps_collection_boxes,USPS COLLECTION BOX - BLUE BOX,3200 LOS PRADOS ST,SAN MATEO,CA,,US,,,,United States Postal Service,Q668687
9440300073,usps_collection_boxes,USPS COLLECTION BOX - BLUE BOX,1900 S NORFOLK ST,SAN MATEO,CA,,US,,,,United States Postal Service,Q668687
9440300072,usps_collection_boxes,USPS COLLECTION BOX - BLUE BOX,1850 S NORFOLK ST,SAN MATEO,CA,,US,,,,United States Postal Service,Q668687
9440300078,usps_collection_boxes,USPS COLLECTION BOX - BLUE BOX,1501 ROBERTA DR,SAN MATEO,CA,,US,,,,United States Postal Service,Q668687
9440300069,usps_collection_boxes,USPS COLLECTION BOX - BLUE BOX,2372 KEHOE AVE,SAN MATEO,CA,,US,,,,United States Postal Service,Q668687
USA359,vans,Vans Store - Hillsdale,,San Mateo,CA,,US,+1 650-286-9175,https://www.vans.com/en-us/stores/ca/san-mateo/usa359,Mo-Sa 10:00-21:00; Su 11:00-19:00,Vans,Q1135366
https://vcahospitals.com/san-mateo,vca,VCA San Mateo Animal Hospital,,San Mateo,CA,,US,+1 650-345-1655,https://vcahospitals.com/san-mateo,Mo-Fr 08:00-18:00,VCA,Q7906620
,visa,,,SAN MATEO,CA,,US,,,,,
,visa,,,SAN MATEO,CA,,US,,,,,
,visa,,,SAN MATEO,CA,,US,,,,,
,visa,,,SAN MATEO,CA,,US,,,,,
,visa,,,SAN MATEO,CA,,US,,,,,
,visa,,,SAN MATEO,CA,,US,,,,,
,visa,,,SAN MATEO,CA,,US,,,,,
,visa,,,SAN MATEO,CA,,US,,,,,
,visa,,,SAN MATEO,CA,,US,,,,,
,visa,,,SAN MATEO,CA,,US,,,,,
,visa,,,SAN MATEO,CA,,US,,,,,
,visa,,,SAN MATEO,CA,,US,,,,,
,visa,,,SAN MATEO,CA,,US,,,,,
,visa,,,SAN MATEO,CA,,US,,,,,
,visa,,,SAN MATEO,CA,,US,,,,,
,visa,,,SAN MATEO,CA,,US,,,,,
,visa,,,SAN MATEO,CA,,US,,,,,
,visa,,,SAN MATEO,CA,,US,,,,,
,visa,,,SAN MATEO,CA,,US,,,,,
,visa,,,SAN MATEO,CA,,US,,,,,
,visa,,,SAN MATEO,CA,,US,,,,,
,visa,,,SAN MATEO,CA,,US,,,,,
,visa,,,SAN MATEO,CA,,US,,,,,
,visa,,,SAN MATEO,CA,,US,,,,,
,visa,,,SAN MATEO,CA,,US,,,,,
,visa,,,SAN MATEO,CA,,US,,,,,
,visa,,,SAN MATEO,CA,,US,,,,,
,visa,,,SAN MATEO,CA,,US,,,,,
,visa,,,SAN MATEO,CA,,US,,,,,
,visa,,,SAN MATEO,CA,,US,,,,,
,visa,,,SAN MATEO,CA,,US,,,,,
,visa,,,SAN MATEO,CA,,US,,,,,
,visa,,,SAN MATEO,CA,,US,,,,,
,visa,,,SAN MATEO,CA,,US,,,,,
,visa,,,SAN MATEO,CA,,US,,,,,
,visa,,,SAN MATEO,CA,,US,,,,,
,visa,,,SAN MATEO,CA,,US,,,,,
,visa,,,SAN MATEO,CA,,US,,,,,
,visa,,,SAN MATEO,CA,,US,,,,,
,visa,,,SAN MATEO,CA,,US,,,,,
,visa,,,SAN MATEO,CA,,US,,,,,
,visa,,,SAN MATEO,CA,,US,,,,,
,visa,,,SAN MATEO,CA,,US,,,,,
,visa,,,SAN MATEO,CA,,US,,,,,
,visa,,,SAN MATEO,CA,,US,,,,,
,visa,,,SAN MATEO,CA,,US,,,,,
,visa,,,SAN MATEO,CA,,US,,,,,
,visa,,,SAN MATEO,CA,,US,,,,,
,visa,,,SAN FRANCISCO,CA,,US,,,,,
,visa,,,SAN MATEO,CA,,US,,,,,
,visa,,,SAN MATEO,CA,,US,,,,,
,visa,,,SAN MATEO,CA,,US,,,,,
,visa,,,SAN MATEO,CA,,US,,,,,
,visa,,,SAN MATEO,CA,,US,,,,,
,visa,,,SAN MATEO,CA,,US,,,,,
https://www.walgreens.com/locator/walgreens-4070+s+el+camino+real-san+mateo-ca-94403/id=5006,walgreens,Walgreens,,San Mateo,CA,,US,+1 650-212-4600,https://www.walgreens.com/locator/walgreens-4070+s+el+camino+real-san+mateo-ca-94403/id=5006,Mo-Su 07:00-22:00,Walgreens,Q1591889
81__W__HILLSDALE__BLVD_SAN__MATEO_CA_94403,wellsfargo,Wells Fargo,81 W HILLSDALE BLVD,SAN MATEO,CA,,US,+1 650-356-1650,https://www.wellsfargo.com/locator/bank/81__W__HILLSDALE__BLVD_SAN__MATEO_CA_94403/,Mo-Fr 09:00-17:00,Wells Fargo,Q744149
49__42ND__AVE_SAN__MATEO_CA_94403,wellsfargo,,49 42ND AVE,SAN MATEO,CA,,US,+1 800-869-3557,https://www.wellsfargo.com/locator/bank/49__42ND__AVE_SAN__MATEO_CA_94403/,,Wells Fargo,Q744149
243406,wheel_works_us,Wheel Works,,San Mateo,CA,,US,+1 650-653-8804,https://www.wheelworks.net/california/san-mateo/2640-s-el-camino-real/,Mo-Sa 07:00-18:00; Su 09:00-17:00,Wheel Works,Q121088283
1370,whitehouseblackmarket,Hillsdale Shopping Center,160 Hillsdale Shopping Center,San Mateo,CA,,US,+1 650-286-9134,,Mo-Sa 10:00-21:00; Su 11:00-19:00,White House Black Market,Q7994858
sanmateo,whole_foods,San Mateo,1010 Park Pl,San Mateo,CA,,US,+1 650-358-6900,https://www.wholefoodsmarket.com/stores/sanmateo,Mo-Su 08:00-22:00,Whole Foods,Q1809448
