Ref,Spider,Name,Address,City,State,Zipcode,Country,Phone,Website,Hours,Brand,WikiData
132289,bluerhino,Farmer's Marketplace - #242663,,Shasta Lake,CA,,US,+1 530-275-2936,,,Blue Rhino,Q65681213
380173,chevron,Chevron Station #380173,4833 SHASTA DAM BLVD,SHASTA LAKE,CA,,US,,,,Chevron,Q319642
73473,citi,ATM Rite Aid,,Shasta Lake,CA,,US,,,,Citibank,Q857063
85061,citi,ATM TRI COUNTIES BANK,,Shasta Lake,CA,,US,,,,Citibank,Q857063
85062,citi,ATM TRI COUNTIES BANK,,Shasta Lake,CA,,US,,,,Citibank,Q857063
14665,little_free_library,Gina Ritter #14665 Shasta Lake CA,,Shasta Lake,CA,,US,,,,Little Free Library,Q6650101
145908,little_free_library,Words of Windsor #145908 Shasta Lake CA,,Shasta Lake,CA,,US,,,,Little Free Library,Q6650101
27047,little_free_library,Leanne Westphal #27047 Shasta Lake CA,,Shasta Lake,CA,,US,,,,Little Free Library,Q6650101
06480,rite_aid_us,Rite Aid #06480 Shasta Lake,,Shasta Lake,CA,,US,+1 530-275-1532,https://locations2.riteaid.com.yext-cdn.com/ca/shasta-lake/5350-shasta-dam-boulevard.html,Mo-Su 08:00-22:00,Rite Aid,Q3433273
1381366,usps,SHASTA LAKE,,SHASTA LAKE,CA,,US,+1 530-275-8695,,Mo-Fr 09:00-17:00,United States Postal Service,Q668687
1440647,usps,PROJECT CITY,,SHASTA LAKE,CA,,US,+1 530-275-9317,,Mo-Fr 08:15-10:15,United States Postal Service,Q668687
9601900000,usps_collection_boxes,USPS COLLECTION BOX - BLUE BOX,4425 FRONT ST,SHASTA LAKE,CA,,US,,,,United States Postal Service,Q668687
9601900001,usps_collection_boxes,USPS COLLECTION BOX - PO LOBBY,4425 FRONT ST,SHASTA LAKE,CA,,US,,,,United States Postal Service,Q668687
9601900002,usps_collection_boxes,USPS COLLECTION BOX - PO LOBBY,4425 FRONT ST,SHASTA LAKE,CA,,US,,,,United States Postal Service,Q668687
,visa,,,SHASTA LAKE,CA,,US,,,,,
,visa,,,SHASTA LAKE,CA,,US,,,,,
,visa,,,SHASTA,CA,,US,,,,,
,visa,,,SHASTA LAKE,CA,,US,,,,,
,visa,,,SHASTA LAKE,CA,,US,,,,,
,visa,,,SHASTA LAKE,CA,,US,,,,,
,visa,,,SHASTA LAKE,CA,,US,,,,,
,visa,,,SHASTA LAKE,CA,,US,,,,,
,visa,,,SHASTA LAKE,CA,,US,,,,,
,visa,,,SHASTA,CA,,US,,,,,
,visa,,,SHASTA LAKE,CA,,US,,,,,
,visa,,,CENTRAL VALLEY,CA,,US,,,,,
