Ref,Spider,Name,Address,City,State,Zipcode,Country,Phone,Website,Hours,Brand,WikiData
209474,bluerhino,Cumberland Farms #4784,,Middlebury,CT,,US,+1 203-577-3431,,,Blue Rhino,Q65681213
ATM-1929,citizens_us,,,Middlebury,CT,,US,,,,Citizens,Q5122694
519946,cumberland_farms_us,Cumberland Farms,,Middlebury,CT,,US,+1 203-577-3431,https://www.cumberlandfarms.com/find-us/generic-store-page/?id=004784,,Cumberland Farms,Q1143685
348967,dunkin_us,Dunkin',,Middlebury,CT,,US,+1 203-596-0070,https://locations.dunkindonuts.com/en/ct/middlebury/489-middlebury-rd/348967,Mo-Su 05:00-21:00,Dunkin',Q847743
https://www.edwardjones.com/us-en/financial-advisor/stephen-harrington,edwardjones,Stephen Harrington,,Middlebury,CT,,US,+1 203-758-1396,https://www.edwardjones.com/us-en/financial-advisor/stephen-harrington,Mo-Fr 09:00-17:00,Edward Jones,Q5343830
519946,eg_america_us,Cumberland Farms,,Middlebury,CT,,US,+1 203-577-3431,https://www.cumberlandfarms.com/find-us/generic-store-page/?id=004784,,Cumberland Farms,Q1143685
NNA5928,nissan_europe,CRABTREE NISSAN,,MIDDLEBURY,CT,,US,+1 203-758-8221,https://www.crabtreenissan.com,Mo-Fr 09:00-20:00; Sa 09:00-19:00,Nissan,Q20165
81054,ritasitalianice,Ritaâ€™s of Middlebury CT,,Middlebury,CT,,US,+1 203-758-2888,https://www.ritasice.com/location/ritas-of-middlebury-ct/,,Rita's Italian Ice,Q7336456
https://restaurants.subway.com/#14895973,subway,Subway,,Middlebury New Haven,CT,,US,+1 203-598-7827,https://restaurants.subway.com/united-states/ct/middlebury/750-straits-tpke,Mo-Su 08:00-21:00,Subway,Q244457
0234854800,sunoco_us,Sunoco,,MIDDLEBURY,CT,,US,+1 860-261-4798,,Mo-Su 06:00-00:00,Sunoco,Q1423218
1372949,usps,MIDDLEBURY,,MIDDLEBURY,CT,,US,+1 203-758-2334,,Mo-Fr 09:00-17:00; Sa 09:00-12:00,United States Postal Service,Q668687
0676200002,usps_collection_boxes,USPS COLLECTION BOX - BLUE BOX,850 STRAITS TPKE,MIDDLEBURY,CT,,US,,,,United States Postal Service,Q668687
0676200005,usps_collection_boxes,USPS COLLECTION BOX - BLUE BOX,530 MIDDLEBURY RD,MIDDLEBURY,CT,,US,,,,United States Postal Service,Q668687
0676200008,usps_collection_boxes,USPS COLLECTION BOX - PO LOBBY,590 MIDDLEBURY RD STE F,MIDDLEBURY,CT,,US,,,,United States Postal Service,Q668687
0676200001,usps_collection_boxes,USPS COLLECTION BOX - BLUE BOX,590 MIDDLEBURY RD STE F,MIDDLEBURY,CT,,US,,,,United States Postal Service,Q668687
0676200006,usps_collection_boxes,USPS COLLECTION BOX - PO LOBBY,590 MIDDLEBURY RD STE F,MIDDLEBURY,CT,,US,,,,United States Postal Service,Q668687
,visa,,,MIDDLEBURY,CT,,US,,,,,
,visa,,,MIDDLEBURY,CT,,US,,,,,
,visa,,,MIDDLEBURY,CT,,US,,,,,
,visa,,,MIDDLEBURY,CT,,US,,,,,
,visa,,,MIDDLEBURY,CT,,US,,,,,
,visa,,,MIDDLEBURY,CT,,US,,,,,
