Ref,Spider,Name,Address,City,State,Zipcode,Country,Phone,Website,Hours,Brand,WikiData
12646112,shell,SH LUCENA DIVERSION,,LUCENA CITY,Quezon,,PH,28788888,https://find.shell.com/ph/fuel/12646112-sh-lucena-diversion,24/7,Shell,Q110716465
12125405,shell,SH GULANG GULANG LUCENA,,LUCENA CITY,Quezon,,PH,+63 42 373 6203,https://find.shell.com/ph/fuel/12125405-sh-gulang-gulang-lucena,,Shell,Q110716465
10021535,shell,SH P GOMEZ LUCENA QUEZON,,LUCENA CITY,Quezon,,PH,+63 42 710 6123,https://find.shell.com/ph/fuel/10021535-sh-p-gomez-lucena-quezon,,Shell,Q110716465
10021550,shell,SH IYAM LUCENA,,LUCENA CITY,Quezon,,PH,+63 42 373 6698,https://find.shell.com/ph/fuel/10021550-sh-iyam-lucena,,Shell,Q110716465
10050785,shell,SH MAHARLIKA SM LUCENA,,LUCENA CITY,Quezon,,PH,+63 42 710 8211,https://find.shell.com/ph/fuel/10050785-sh-maharlika-sm-lucena,,Shell,Q110716465
,visa,,,LUCENA CITY,QUEZON,,PH,,,,,
,visa,,,LUCENA CITY,QUEZON,,PH,,,,,
,visa,,,LUCENA CITY,QUEZON,,PH,,,,,
,visa,,,LUCENA CITY,QUEZON,,PH,,,,,
,visa,,,LUCENA,QUEZON,,PH,,,,,
,visa,,,LUCENA CITY,QUEZON,,PH,,,,,
,visa,,,LUCENA CITY,QUEZON,,PH,,,,,
c6aa409faae74d7a088d500434b67cce,western_union,PFSI-QUEZON PROV.-LUCENA CITY-CENTRO,,Lucena,QUEZON,,PH,+63 83 434 8596,https://location.westernunion.com/ph/quezon/lucena/c6aa409faae74d7a088d500434b67cce,Mo-Su 08:00-18:30,Western Union,Q861042
632b8cc384575c6d4614494857e3315b,western_union,CLH PRIMARK   TAYABAS,,Tayabas,QUEZON,,PH,+63 2 7759 9800,https://location.westernunion.com/ph/quezon/tayabas/632b8cc384575c6d4614494857e3315b,Mo-Su 08:00-20:00,Western Union,Q861042
888de95e4755a35d1555fa7723ead073,western_union,SAVEMORE MARKET PRIMARK TC TAYABAS,,Quezon City,QUEZON,,PH,+63 2 8631 8000,https://location.westernunion.com/ph/quezon/quezon-city/888de95e4755a35d1555fa7723ead073,Mo-Su 08:00-20:00,Western Union,Q861042
978f5addbf2035da7730f8bf1300f203,western_union,RAQUEL PAWNSHOP INC GULANG GULANG,,Lucena,QUEZON,,PH,+63 42 373 3623,https://location.westernunion.com/ph/quezon/lucena/978f5addbf2035da7730f8bf1300f203,Mo-Sa 08:00-17:00,Western Union,Q861042
fa6ed321085b5763c928458c83e235a6,western_union,MLI GULANG GULANG QUEZON,,Lucena,QUEZON,,PH,+63 32 345 6476,https://location.westernunion.com/ph/quezon/lucena/fa6ed321085b5763c928458c83e235a6,Mo-Sa 07:00-18:00; Su 08:00-18:00,Western Union,Q861042
95bd810fa4d7ff7697d586849a058ff1,western_union,PALAWAN PAWNSHOP  DIVERSION,,Lucena,QUEZON,,PH,+63 42 434 8596,https://location.westernunion.com/ph/quezon/lucena/95bd810fa4d7ff7697d586849a058ff1,Mo-Su 08:00-17:30,Western Union,Q861042
295022fa8721c2604d6b7912537b22a8,western_union,BDO LUCENA  IYAM,,Lucena,QUEZON,,PH,(+63) 02-6318000,https://location.westernunion.com/ph/quezon/lucena/295022fa8721c2604d6b7912537b22a8,Mo-Fr 08:30-17:30,Western Union,Q861042
40fa43a7bd78e3987eec2deedd48bbc7,western_union,PFSI-QUEZON- LUCENA CITY-IYAM,,Lucena,QUEZON,,PH,+63 83 434 8596,https://location.westernunion.com/ph/quezon/lucena/40fa43a7bd78e3987eec2deedd48bbc7,Mo-Su 08:00-18:30,Western Union,Q861042
59a5a5f0c67c1723dd32460368dbb03e,western_union,MLI MAHARLIKA LUCENA QUEZON,,Lucena City,QUEZON,,PH,+63 32 345 6476,https://location.westernunion.com/ph/quezon/lucena-city/59a5a5f0c67c1723dd32460368dbb03e,Mo-Su 07:00-18:00,Western Union,Q861042
74bd104559f155a7d95f00a150b2f16b,western_union,MLI LUCENA 2 QUEZON,,Lucena,QUEZON,,PH,+63 2 8892 3159,https://location.westernunion.com/ph/quezon/lucena/74bd104559f155a7d95f00a150b2f16b,Mo-Sa 07:00-18:00; Su 08:00-17:00,Western Union,Q861042
317e6f084d05373642e6e4a500fa2ebb,western_union,PRODUCERS BANK LUCENA,,Lucena,QUEZON,,PH,+63 42 660 1911,https://location.westernunion.com/ph/quezon/lucena/317e6f084d05373642e6e4a500fa2ebb,Mo-Sa 09:00-17:00,Western Union,Q861042
d3023694c33a7489333f398a368a7ebb,western_union,MLI RED V LUCENA QUEZON,,Lucena,QUEZON,,PH,+63 32 345 6476,https://location.westernunion.com/ph/quezon/lucena/d3023694c33a7489333f398a368a7ebb,Mo-Sa 07:00-19:00; Su 08:00-18:00,Western Union,Q861042
fe3895305c75b20feac6f76e3187ed79,western_union,H VILLARICA PAWNSHOP INC LUCENA 2,,Lucena,QUEZON,,PH,+63 995 309 4121,https://location.westernunion.com/ph/quezon/lucena/fe3895305c75b20feac6f76e3187ed79,Mo-Sa 08:00-18:00; Su 08:00-17:00,Western Union,Q861042
c3fa363af56b90b8e51832a2721e0aa9,western_union,H VILLARICA PAWNSHOP INC LUCENA,,Lucena,QUEZON,,PH,(+63) 02-5556012,https://location.westernunion.com/ph/quezon/lucena/c3fa363af56b90b8e51832a2721e0aa9,Mo-Sa 08:00-18:00; Su 08:00-17:00,Western Union,Q861042
42e2f6ea731d3fcb856c828ec6385abf,western_union,LBC EXPRESS INC,,Lucena,QUEZON,,PH,(+63) 02-8585999,https://location.westernunion.com/ph/quezon/lucena/42e2f6ea731d3fcb856c828ec6385abf,Mo-Th 10:00-19:30; Fr-Sa 10:00-20:30; Su 10:00-19:30,Western Union,Q861042
e2bcb910b3e53652dc5ade9108e03a43,western_union,RD PAWNSHOP LUCENA 3,,Lucena,QUEZON,,PH,+63 926 614 8739,https://location.westernunion.com/ph/quezon/lucena/e2bcb910b3e53652dc5ade9108e03a43,Mo-Sa 08:00-18:00; Su 09:00-17:00,Western Union,Q861042
1a43dbc0588769e8f045671b1ff85972,western_union,MLI TAGARAO QUEZON PROVINCE,,Lucena,QUEZON,,PH,(+63) 02-8410642,https://location.westernunion.com/ph/quezon/lucena/1a43dbc0588769e8f045671b1ff85972,Mo-Su 07:30-17:30,Western Union,Q861042
d2ea698500fff7abfec6d14ed16174cf,western_union,RAQUEL PAWNSHOP INC GOMEZ,,Lucena,QUEZON,,PH,+63 42 373 5673,https://location.westernunion.com/ph/quezon/lucena/d2ea698500fff7abfec6d14ed16174cf,Mo-Sa 08:00-17:00,Western Union,Q861042
e24168daab93f4d4c32439b544cf6875,western_union,BDO LUCENA  TAGARAO,,Lucena,QUEZON,,PH,(+63) 02-6318000,https://location.westernunion.com/ph/quezon/lucena/e24168daab93f4d4c32439b544cf6875,Mo-We 08:30-17:30; Th 08:00-17:00; Fr 08:30-17:30,Western Union,Q861042
2f834e9271611c2137e4ed56a25b4a8b,western_union,USSC SERVICE STORE LUCENA PACI,,Lucena,QUEZON,,PH,(+63) 02-4492973,https://location.westernunion.com/ph/quezon/lucena/2f834e9271611c2137e4ed56a25b4a8b,Mo-Th 10:00-20:00; Fr-Sa 10:00-21:00; Su 10:00-20:00,Western Union,Q861042
3022e7e6ce34305ea2d33be5c6e9922c,western_union,BDO SM CITY LUCENA,,Lucena,QUEZON,,PH,(+63) 02-6318000,https://location.westernunion.com/ph/quezon/lucena/3022e7e6ce34305ea2d33be5c6e9922c,Mo-Su 10:00-19:00,Western Union,Q861042
36efe69bcd929e38c32988470dd05b91,western_union,SM SUPERMARKET   LUCENA,,Lucena,QUEZON,,PH,+63 2 8631 8000,https://location.westernunion.com/ph/quezon/lucena/36efe69bcd929e38c32988470dd05b91,Mo-Su 09:00-20:00,Western Union,Q861042
7609bee12d05abe9dd85d23bb7a9bf05,western_union,SM FOREX DEPT  STORE LUCENA,,Ibabang Dupay,QUEZON,,PH,+63 2 8831 8000,https://location.westernunion.com/ph/quezon/ibabang-dupay/7609bee12d05abe9dd85d23bb7a9bf05,Mo-Su 10:00-20:30,Western Union,Q861042
f3215ee077f639ec63a04a2fcabc888d,western_union,LBC EXPRESS INC,,Lucena,QUEZON,,PH,(+63) 02-8585999,https://location.westernunion.com/ph/quezon/lucena/f3215ee077f639ec63a04a2fcabc888d,Mo-Su 10:00-21:00,Western Union,Q861042
38ca2f4f8a160c0587a334b863ebd974,western_union,PALAWAN PAWNSHOP  GOMEZ,,Lucena,QUEZON,,PH,+63 42 434 8596,https://location.westernunion.com/ph/quezon/lucena/38ca2f4f8a160c0587a334b863ebd974,Mo-Su 08:00-17:30,Western Union,Q861042
638bf7bda9d6ddce89b0a2d9657b1a14,western_union,BDO LUCENA  MERCHAN,,Lucena,QUEZON,,PH,(+63) 02-6318000,https://location.westernunion.com/ph/quezon/lucena/638bf7bda9d6ddce89b0a2d9657b1a14,Mo-Fr 08:30-17:30,Western Union,Q861042
08d8c4e064fb9f7f12e2b378bc0313f1,western_union,RAQUEL PAWNSHOP INC CABANA,,Lucena,QUEZON,,PH,+63 42 373 3253,https://location.westernunion.com/ph/quezon/lucena/08d8c4e064fb9f7f12e2b378bc0313f1,Mo-Sa 08:00-17:30,Western Union,Q861042
9174267d9731aeb013f866df83b689d6,western_union,BDO LUCENA   MAYAO,,Lucena City,QUEZON,,PH,+63 2 8631 8000,https://location.westernunion.com/ph/quezon/lucena-city/9174267d9731aeb013f866df83b689d6,Mo-Su 08:30-17:30,Western Union,Q861042
497ef10b01fca48f8350069690a7d52e,western_union,TANIX MONEY CHANGER,,Lucena,QUEZON,,PH,+63 42 710 4292,https://location.westernunion.com/ph/quezon/lucena/497ef10b01fca48f8350069690a7d52e,Mo-Su 07:00-21:00,Western Union,Q861042
54483da4c859902cf4fc6a164d0845f9,western_union,LBC EXPRESS INC,,Lucena,QUEZON,,PH,(+63) 02-8585999,https://location.westernunion.com/ph/quezon/lucena/54483da4c859902cf4fc6a164d0845f9,Mo-Sa 07:00-18:00; Su 08:00-17:00,Western Union,Q861042
53cbd5a6c0d0220a5a39653f332ef3b9,western_union,ROBINSONS BANK LUCENA,,Lucena,QUEZON,,PH,+63 42 322 0082,https://location.westernunion.com/ph/quezon/lucena/53cbd5a6c0d0220a5a39653f332ef3b9,Mo-Fr 09:00-16:00,Western Union,Q861042
f9a3ab071b38433f53bf21c7cacbdca9,western_union,PFSI-QUEZON PROV.-LUCENA CITY-QMC,,Lucena,QUEZON,,PH,+63 83 434 8596,https://location.westernunion.com/ph/quezon/lucena/f9a3ab071b38433f53bf21c7cacbdca9,Mo-Su 08:00-18:30,Western Union,Q861042
9feb771cc516f2900d87bc649324f40c,western_union,PALAWAN PAWNSHOP  SM,,Lucena,QUEZON,,PH,+63 42 434 8596,https://location.westernunion.com/ph/quezon/lucena/9feb771cc516f2900d87bc649324f40c,Mo-Fr 08:00-18:00; Sa-Su 08:00-17:30,Western Union,Q861042
9e105277147c53d80c98bf9716e56b8e,western_union,BDO LUCENA  GULANGGULANG,,Lucena,QUEZON,,PH,(+63) 02-6318000,https://location.westernunion.com/ph/quezon/lucena/9e105277147c53d80c98bf9716e56b8e,Mo-Fr 08:30-17:30,Western Union,Q861042
9e4b6f3067016897fae01005e0b25a60,western_union,LBC EXPRESS INC,,Lucena,QUEZON,,PH,(+63) 02-8585999,https://location.westernunion.com/ph/quezon/lucena/9e4b6f3067016897fae01005e0b25a60,Mo-Sa 07:00-18:00; Su 08:00-17:00,Western Union,Q861042
ac7df2da627d6d4829abc83165f0ea96,western_union,RB-COOP BANK OF QUEZON LUCENA,,Lucena,QUEZON,,PH,(+63) 261-0424214982,https://location.westernunion.com/ph/quezon/lucena/ac7df2da627d6d4829abc83165f0ea96,Mo-Su 09:00-17:00,Western Union,Q861042
ddb7ae4d822ba165c41109805d925406,western_union,PFSI-QUEZON PROV.-LUCENA CITY-MERCHAN,,Lucena,QUEZON,,PH,+63 83 434 8596,https://location.westernunion.com/ph/quezon/lucena/ddb7ae4d822ba165c41109805d925406,Mo-Su 08:00-18:30,Western Union,Q861042
68ec3d148caed3f6a7c93a8cb70a4f42,western_union,USSC SERVICE STORE   LUCENA QUEZON,,Lucena,QUEZON,,PH,(+63) 02-4492973,https://location.westernunion.com/ph/quezon/lucena/68ec3d148caed3f6a7c93a8cb70a4f42,Mo-Sa 08:00-18:00; Su 08:00-17:00,Western Union,Q861042
ce2c1b5be03ec0b7a68eac863439fe06,western_union,RAQUEL PAWNSHOP INC ENRIQUEZ,,Lucena,QUEZON,,PH,+63 918 773 2564,https://location.westernunion.com/ph/quezon/lucena/ce2c1b5be03ec0b7a68eac863439fe06,Mo-Sa 08:00-17:00,Western Union,Q861042
400f71a754177fb64ee7a7885203fa90,western_union,BDO LUCENA  QUEZON AVENUE,,Lucena,QUEZON,,PH,(+63) 02-6318000,https://location.westernunion.com/ph/quezon/lucena/400f71a754177fb64ee7a7885203fa90,Mo-Sa 09:00-18:00,Western Union,Q861042
a453b6edd82158858657cdacce88800e,western_union,RD PAWNSHOP LUCENA 1,,Lucena,QUEZON,,PH,+63 917 716 2203,https://location.westernunion.com/ph/quezon/lucena/a453b6edd82158858657cdacce88800e,Mo-Sa 08:00-18:00; Su 09:00-17:00,Western Union,Q861042
b8c6b9aa8626c9793247831285019a45,western_union,PALAWAN PAWNSHOP CM RECTO LUCENA,,Lucena,QUEZON,,PH,(+63) 4348596,https://location.westernunion.com/ph/quezon/lucena/b8c6b9aa8626c9793247831285019a45,Mo-Fr 07:30-19:00; Sa-Su 08:00-17:30,Western Union,Q861042
ed5492e432e25c4c2fdefd274678fa0a,western_union,MLI SAN FERNANDO QUEZON,,Lucena,QUEZON,,PH,+63 32 345 6476,https://location.westernunion.com/ph/quezon/lucena/ed5492e432e25c4c2fdefd274678fa0a,Mo-Sa 07:00-18:00; Su 08:00-18:00,Western Union,Q861042
9e3da11584aec9557096cd59ec30909e,western_union,CLH LUCENA 2,,Lucena City,QUEZON,,PH,+63 2 7759 9800,https://location.westernunion.com/ph/quezon/lucena-city/9e3da11584aec9557096cd59ec30909e,Mo-Sa 07:30-18:00; Su 08:00-17:00,Western Union,Q861042
ee981dfa093abd47a0c20916712650e3,western_union,SAMANTHA PAWNSHOP,,Lucena,QUEZON,,PH,+63 42797 2130,https://location.westernunion.com/ph/quezon/lucena/ee981dfa093abd47a0c20916712650e3,Mo-Su 08:00-19:00,Western Union,Q861042
86dfad8a142f415ddff96b1991ec06af,western_union,BDO LUCENA  ENRIQUEZ,,Lucena,QUEZON,,PH,(+63) 02-6318000,https://location.westernunion.com/ph/quezon/lucena/86dfad8a142f415ddff96b1991ec06af,Mo-Fr 09:30-18:30,Western Union,Q861042
72c8672e104e0af43d38ff7b5f68b848,western_union,MLI MERCHAN QUEZON,,Lucena,QUEZON,,PH,+63 32 345 6476,https://location.westernunion.com/ph/quezon/lucena/72c8672e104e0af43d38ff7b5f68b848,Mo-Su 07:00-19:00,Western Union,Q861042
e9a7b6e8d35a31fc8b86f5291079ce88,western_union,MLI QUEZON AVENUE QUEZON PROVINCE,,Lucena,QUEZON,,PH,+63 32 345 6476,https://location.westernunion.com/ph/quezon/lucena/e9a7b6e8d35a31fc8b86f5291079ce88,Mo-Su 07:00-19:00,Western Union,Q861042
1296eef722caa70d6580043c70bc8139,western_union,RAQUEL PAWNSHOP INC MAIN,,Lucena,QUEZON,,PH,+63 42 710 9256,https://location.westernunion.com/ph/quezon/lucena/1296eef722caa70d6580043c70bc8139,Mo-Sa 08:30-18:00; Su 08:00-17:00,Western Union,Q861042
a189780079d354e62d9ce23f005d8693,western_union,RAQUEL PAWNSHOP INC ZAMORA,,Lucena,QUEZON,,PH,+63 42 710 9257,https://location.westernunion.com/ph/quezon/lucena/a189780079d354e62d9ce23f005d8693,Mo-Sa 08:00-17:30; Su 08:00-17:00,Western Union,Q861042
543d74a7f73c93e6cf015123d751e9c8,western_union,PALAWAN PAWNSHOP QUEZON AVE LUCENA,,Lucena,QUEZON,,PH,+63 42 434 8596,https://location.westernunion.com/ph/quezon/lucena/543d74a7f73c93e6cf015123d751e9c8,Mo-Fr 07:30-18:00; Sa-Su 08:00-17:30,Western Union,Q861042
400f86bb9177615922316dfd57dbe56a,western_union,QUEZON CAPITAL RURAL BANK INC LUCENA MAI,,Lucena,QUEZON,,PH,+63 42 710 7559,https://location.westernunion.com/ph/quezon/lucena/400f86bb9177615922316dfd57dbe56a,Mo-Fr 08:00-17:00,Western Union,Q861042
539ba11b0aae2bf3600cc3e984ed2bd6,western_union,TMC MONEY CHANGER,,Lucena,QUEZON,,PH,(+63) 02-4492973,https://location.westernunion.com/ph/quezon/lucena/539ba11b0aae2bf3600cc3e984ed2bd6,Mo-Su 08:00-20:00,Western Union,Q861042
6b27db48c971472e8c9200d813a2c3a3,western_union,RAQUEL PAWNSHOP INC QUEZON AVE,,Lucena,QUEZON,,PH,+63 42 710 9253,https://location.westernunion.com/ph/quezon/lucena/6b27db48c971472e8c9200d813a2c3a3,Mo-Sa 08:30-18:00; Su 08:00-17:00,Western Union,Q861042
1717ed002b7d72f2038c81b3843b9f9e,western_union,MLI DALAHICAN LUCENA QUEZON,,Lucena,QUEZON,,PH,+63 32 345 6476,https://location.westernunion.com/ph/quezon/lucena/1717ed002b7d72f2038c81b3843b9f9e,Mo-Sa 07:00-18:00; Su 08:00-17:00,Western Union,Q861042
d75e3b1a874496525f647560d90a2ec9,western_union,RAQUEL PAWNSHOP INC DALAHICAN,,Lucena,QUEZON,,PH,+63 42 788 2070,https://location.westernunion.com/ph/quezon/lucena/d75e3b1a874496525f647560d90a2ec9,Mo-Sa 08:00-17:00,Western Union,Q861042
0e4d3cb4ce9a1656877305926e51d429,western_union,MLI PITOGO QUEZON,,Pitogo,QUEZON,,PH,+63 32 345 6476,https://location.westernunion.com/ph/quezon/pitogo/0e4d3cb4ce9a1656877305926e51d429,Mo-Su 07:00-17:00,Western Union,Q861042
ed71641bf40fba554e07d1a5edf3f670,western_union,PALAWAN PAWNSHOP LUCENA DALAHICAN,,Lucena,QUEZON,,PH,+63 42 434 8596,https://location.westernunion.com/ph/quezon/lucena/ed71641bf40fba554e07d1a5edf3f670,Mo-Su 07:30-17:30,Western Union,Q861042
62077d522b94623d0409fa456a969913,western_union,SAVEMORE MARKET AGORA LUCENA,,Lucena City,QUEZON,,PH,+63 2 8631 8000,https://location.westernunion.com/ph/quezon/lucena-city/62077d522b94623d0409fa456a969913,Mo-Su 08:00-20:00,Western Union,Q861042
143fc560c016b26c6c5500dec72adb27,western_union,PALAWAN PAWNSHOP  TAGARAO,,Lucena,QUEZON,,PH,+63 42 434 8596,https://location.westernunion.com/ph/quezon/lucena/143fc560c016b26c6c5500dec72adb27,Mo-Fr 08:00-18:00; Sa-Su 08:00-17:30,Western Union,Q861042
c826dd8521373175a07f22af76f4790d,western_union,RAQUEL PAWNSHOP INC CM RECTO,,Lucena,QUEZON,,PH,+63 42 660 4797,https://location.westernunion.com/ph/quezon/lucena/c826dd8521373175a07f22af76f4790d,Mo-Sa 07:30-17:00,Western Union,Q861042
f7f9ec17b10733893d3f55708da15fdc,western_union,RAQUEL PAWNSHOP INC PROFUGO,,Lucena,QUEZON,,PH,+63 42 710 9252,https://location.westernunion.com/ph/quezon/lucena/f7f9ec17b10733893d3f55708da15fdc,Mo-Sa 08:00-17:30,Western Union,Q861042
a666e53ee2a206b8378574e11d069c74,western_union,LBC EXPRESS INC,,Lucena,QUEZON,,PH,(+63) 02-8585999,https://location.westernunion.com/ph/quezon/lucena/a666e53ee2a206b8378574e11d069c74,Mo-Sa 07:00-18:30; Su 08:00-16:30,Western Union,Q861042
3bd28ac886b48f7f93ed7424d62c3c57,western_union,NMSB REMITTANCE CENTER,,Lucena,QUEZON,,PH,+63 42 710 4149,https://location.westernunion.com/ph/quezon/lucena/3bd28ac886b48f7f93ed7424d62c3c57,Mo-Su 07:00-19:00,Western Union,Q861042
3fc9e6103317096ea778050a20e0560c,western_union,CLH LUCENA 3,,Lucena City,QUEZON,,PH,+63 2 7759 9800,https://location.westernunion.com/ph/quezon/lucena-city/3fc9e6103317096ea778050a20e0560c,Mo-Sa 07:30-20:00; Su 08:00-17:00,Western Union,Q861042
55a00e2011c05d54dbb5d9d3a9f67ca9,western_union,RAQUEL PAWNSHOP INC MERCHAN,,Lucena,QUEZON,,PH,(+63) 42-6607790-102,https://location.westernunion.com/ph/quezon/lucena/55a00e2011c05d54dbb5d9d3a9f67ca9,Mo-Sa 08:00-17:30; Su 08:00-17:00,Western Union,Q861042
