Ref,Spider,Name,Address,City,State,Zipcode,Country,Phone,Website,Hours,Brand,WikiData
173134,bluerhino,Family Dollar #07086,,Dayton,OH,,US,+1 937-226-1372,,,Blue Rhino,Q65681213
152175,bluerhino,Walgreens #4975,,Dayton,OH,,US,+1 937-254-2156,,,Blue Rhino,Q65681213
206351,bluerhino,Rite Aid #03246,,Dayton,OH,,US,+1 937-256-3111,,,Blue Rhino,Q65681213
184711,bluerhino,HH&G Stores INC,,Dayton,OH,,US,+1 513-646-3880,,,Blue Rhino,Q65681213
52294554760004541000100000000000,bp,BP,,Dayton,OH,,US,+1 937-256-0401,,Mo-Su 06:00-22:00,BP,Q152057
,credit_union_us,Wright-Patt CU,,Dayton,OH,,US,+1 800-762-0047,,Mo-Fr 09:00-05:00; Sa 09:00-01:00,,
3123,first_cash,Cash America Pawn,,Dayton,OH,,US,+1 937-252-0434,,,Cash America,Q5048636
03246,rite_aid_us,Rite Aid #03246 Dayton,,Dayton,OH,,US,+1 937-256-3111,https://locations2.riteaid.com.yext-cdn.com/oh/dayton/2916-linden-avenue.html,Mo-Fr 08:00-21:00; Sa-Su 09:00-20:00,Rite Aid,Q3433273
https://restaurants.subway.com/#14905966,subway,Subway Linden Heights Plaza,,Dayton Montgomery,OH,,US,+1 937-949-3001,https://restaurants.subway.com/united-states/oh/dayton/2923-linden-avenue,Mo-Su 09:00-22:00,Subway,Q244457
0367950300,sunoco_us,Sunoco,,DAYTON,OH,,US,+1 937-254-4944,,Mo-Sa 05:00-00:00; Su 06:00-00:00,Sunoco,Q1423218
0277636700,sunoco_us,Sunoco,,DAYTON,OH,,US,+1 937-256-0196,,24/7,Sunoco,Q1423218
0224460600,sunoco_us,Sunoco,,DAYTON,OH,,US,+1 937-253-3267,,24/7,Sunoco,Q1423218
4541000021,usps_collection_boxes,USPS COLLECTION BOX - BLUE BOX,1420 HEARTHSTONE DR,DAYTON,OH,,US,,,,United States Postal Service,Q668687
4541000026,usps_collection_boxes,USPS COLLECTION BOX - BLUE BOX,2821 LINDEN AVE,DAYTON,OH,,US,,,,United States Postal Service,Q668687
4541000018,usps_collection_boxes,USPS COLLECTION BOX - BLUE BOX,4269 CORINTH BLVD,DAYTON,OH,,US,,,,United States Postal Service,Q668687
4541000012,usps_collection_boxes,USPS COLLECTION BOX - BLUE BOX,1819 WYOMING ST,DAYTON,OH,,US,,,,United States Postal Service,Q668687
4541000002,usps_collection_boxes,USPS COLLECTION BOX - BLUE BOX,930 WYOMING ST,DAYTON,OH,,US,,,,United States Postal Service,Q668687
4541000005,usps_collection_boxes,USPS COLLECTION BOX - BLUE BOX,220 PARK MANOR DR,DAYTON,OH,,US,,,,United States Postal Service,Q668687
,visa,,,DAYTON,OH,,US,,,,,
,visa,,,DAYTON,OH,,US,,,,,
,visa,,,DAYTON,OH,,US,,,,,
,visa,,,DAYTON,OH,,US,,,,,
,visa,,,DAYTON,OH,,US,,,,,
,visa,,,DAYTON,OH,,US,,,,,
,visa,,,DAYTON,OH,,US,,,,,
,visa,,,DAYTON,OH,,US,,,,,
,visa,,,DAYTON,OH,,US,,,,,
,visa,,,DAYTON,OH,,US,,,,,
,visa,,,DAYTON,OH,,US,,,,,
,visa,,,DAYTON,OH,,US,,,,,
,visa,,,DAYTON,OH,,US,,,,,
,visa,,,DAYTON,OH,,US,,,,,
,visa,,,DAYTON,OH,,US,,,,,
,visa,,,DAYTON,OH,,US,,,,,
,visa,,,DAYTON,OH,,US,,,,,
,visa,,,DAYTON,OH,,US,,,,,
,visa,,,DAYTON,OH,,US,,,,,
,visa,,,DAYTON,OH,,US,,,,,
,visa,,,DAYTON,OH,,US,,,,,
,visa,,,DAYTON,OH,,US,,,,,
,visa,,,DAYTON,OH,,US,,,,,
,visa,,,DAYTON,OH,,US,,,,,
,visa,,,DAYTON,OH,,US,,,,,
,visa,,,DAYTON,OH,,US,,,,,
,visa,,,DAYTON,OH,,US,,,,,
,visa,,,DAYTON,OH,,US,,,,,
,visa,,,DAYTON,OH,,US,,,,,
,visa,,,DAYTON,OH,,US,,,,,
,visa,,,DAYTON,OH,,US,,,,,
,visa,,,DAYTON,OH,,US,,,,,
,visa,,,DAYTON,OH,,US,,,,,
https://www.walgreens.com/locator/walgreens-1542+wayne+ave-dayton-oh-45410/id=4975,walgreens,Walgreens,,Dayton,OH,,US,+1 937-254-2156,https://www.walgreens.com/locator/walgreens-1542+wayne+ave-dayton-oh-45410/id=4975,Mo-Su 08:00-21:00,Walgreens,Q1591889
https://locations.wendys.com/#9251909,wendys,"Wendy's Wayne Ave in Dayton, OH",,Dayton,OH,,US,+1 937-802-5131,https://locations.wendys.com/united-states/oh/dayton/1507-wayne-avenue,"Mo-Su 06:30-10:30,09:00-22:00",Wendy's,Q550258
