Ref,Spider,Name,Address,City,State,Zipcode,Country,Phone,Website,Hours,Brand,WikiData
MY-0054,anytime_fitness,Anytime Fitness,,Taman Bukit Cheras,Kuala Lumpur,,MY,+60 17-359 3570,https://anytimefitness.my/gyms/my-0054/taman-bukit-cheras-kuala-lumpur-56000/,,Anytime Fitness,Q4778364
4328,caltex,Stesen Minyak Musim Sdn Bhd,,,Kuala Lumpur,,MY,+60 3-9130 0500,,,Caltex,Q277470
798,kfc_my,KFC TAMAN MIDAH HUB,"Ground Floor, Unit No. 338, Jalan Midah Besar, Taman Midah, 56000 Cheras, Kuala Lumpur",Cheras,Kuala Lumpur,,MY,+60 3-9171 1368,,Mo-Su 10:00-23:00,KFC,Q524757
10208736,shell,SHELL JALAN CHERAS,,KUALA LUMPUR,Kuala Lumpur,,MY,+60 19-305 6043,https://find.shell.com/my/fuel/10208736-shell-jalan-cheras,24/7,Shell,Q110716465
10208589,shell,SHELL TAMAN MIDAH KL,,KUALA LUMPUR,Kuala Lumpur,,MY,+60 3-9131 1231,https://find.shell.com/my/fuel/10208589-shell-taman-midah-kl,,Shell,Q110716465
10208134,shell,SHELL BUKIT JALIL,,KUALA LUMPUR,Kuala Lumpur,,MY,+60 3-8996 6736,https://find.shell.com/my/fuel/10208134-shell-bukit-jalil,24/7,Shell,Q110716465
10365012,shell,SHELL TAMAN CONNAUGHT CHERAS,,KUALA LUMPUR,Kuala Lumpur,,MY,+60 19-337 4075,https://find.shell.com/my/fuel/10365012-shell-taman-connaught-cheras,24/7,Shell,Q110716465
10208722,shell,SHELL BANDAR SRI PERMAISURI,,KUALA LUMPUR,Kuala Lumpur,,MY,+60 3-9171 2127,https://find.shell.com/my/fuel/10208722-shell-bandar-sri-permaisuri,24/7,Shell,Q110716465
10208611,shell,SHELL BUKIT CHERAS,,KUALA LUMPUR,Kuala Lumpur,,MY,+60 3-9101 8235,https://find.shell.com/my/fuel/10208611-shell-bukit-cheras,24/7,Shell,Q110716465
,visa,,,CHERAS,KUALA LUMPUR,,MY,,,,,
,visa,,,KUALA LUMPUR,KUALA LUMPUR,,MY,,,,,
,visa,,,CHERAS,KUALA LUMPUR,,MY,,,,,
,visa,,,BANDAR TUN RAZAK,KUALA LUMPUR,,MY,,,,,
,visa,,,CHERAS,KUALA LUMPUR,,MY,,,,,
,visa,,,KUALA LUMPUR,KUALA LUMPUR,,MY,,,,,
,visa,,,KUALA LUMPUR,KUALA LUMPUR,,MY,,,,,
,visa,,,KUALA LUMPUR,KUALA LUMPUR,,MY,,,,,
,visa,,,KUALA LUMPUR,KUALA LUMPUR,,MY,,,,,
,visa,,,KUALA LUMPUR,KUALA LUMPUR,,MY,,,,,
,visa,,,KUALA LUMPUR,KUALA LUMPUR,,MY,,,,,
,visa,,,KUALA LUMPUR,KUALA LUMPUR,,MY,,,,,
,visa,,,KUALA LUMPUR,KUALA LUMPUR,,MY,,,,,
,visa,,,KUALA LUMPUR,KUALA LUMPUR,,MY,,,,,
,visa,,,KUALA LUMPUR,KUALA LUMPUR,,MY,,,,,
,visa,,,CHERAS,KUALA LUMPUR,,MY,,,,,
911d422f9e1ba0a79e36487554ee5863,western_union,AGROBANK CHERAS,,Cheras,KUALA LUMPUR,,MY,+60 3-9173 2389,https://location.westernunion.com/my/kuala-lumpur/cheras/911d422f9e1ba0a79e36487554ee5863,Mo-Fr 09:00-16:30,Western Union,Q861042
6ad4531907ef95d71737049d097da36a,western_union,PBB BANDAR SRI PERMAISURI BRANCH,,Cheras,KUALA LUMPUR,,MY,+60 3-9171 9966,https://location.westernunion.com/my/kuala-lumpur/cheras/6ad4531907ef95d71737049d097da36a,Mo-Fr 09:30-16:00,Western Union,Q861042
9b760688430791ce8119ed83019bbecf,western_union,POS TAMAN MIDAH 06076,,Kuala Lumpur,KUALA LUMPUR,,MY,+60 3-9130 0042,https://location.westernunion.com/my/kuala-lumpur/kuala-lumpur/9b760688430791ce8119ed83019bbecf,Mo-Su 10:00-18:00,Western Union,Q861042
f442809f89f7f9686eb3cbd667519a88,western_union,PBB TAMAN MIDAH,,Kuala Lumpur,KUALA LUMPUR,,MY,+60 3-9130 0533,https://location.westernunion.com/my/kuala-lumpur/kuala-lumpur/f442809f89f7f9686eb3cbd667519a88,Mo-Fr 09:30-16:00,Western Union,Q861042
28a2b0b30580675e4c9ea7c20c20f893,western_union,M171 BSN TAMAN LEN SENG,,Kuala Lumpur,KUALA LUMPUR,,MY,+60 3-9100 2557,https://location.westernunion.com/my/kuala-lumpur/kuala-lumpur/28a2b0b30580675e4c9ea7c20c20f893,Mo-Fr 08:30-20:00,Western Union,Q861042
825e6b4310b7d22602d85867e507bced,western_union,RHB TAMAN CONNAUGHT CHERAS,,Cheras,KUALA LUMPUR,,MY,+60 3-9206 8118,https://location.westernunion.com/my/kuala-lumpur/cheras/825e6b4310b7d22602d85867e507bced,Mo-Fr 09:15-16:15,Western Union,Q861042
69ca66b628a011bab29eb53fce44eeec,western_union,LOTUS GROUP TAMAN CONNAUGHT,,Kuala Lumpur,KUALA LUMPUR,,MY,+60 3-9107 7558,https://location.westernunion.com/my/kuala-lumpur/kuala-lumpur/69ca66b628a011bab29eb53fce44eeec,Mo-Su 09:30-19:00,Western Union,Q861042
0df9c96fb7e28117554fce4909d7538a,western_union,PBB TAMAN CONNAUGHT,,Cheras,KUALA LUMPUR,,MY,+60 3-9101 7152,https://location.westernunion.com/my/kuala-lumpur/cheras/0df9c96fb7e28117554fce4909d7538a,Mo-Fr 09:30-16:00,Western Union,Q861042
444c054f6922ac7403af552a2e797310,western_union,POS BANDAR TUN RAZAK 06035,,Kuala Lumpur,KUALA LUMPUR,,MY,+60 3-9171 5555,https://location.westernunion.com/my/kuala-lumpur/kuala-lumpur/444c054f6922ac7403af552a2e797310,Mo-Fr 08:30-17:30; Sa 08:30-13:00,Western Union,Q861042
0c668bded92e3334432ad300a91a52e8,western_union,POS DAMAI PERDANA 06069,,Cheras,KUALA LUMPUR,,MY,+60 3-9100 2464,https://location.westernunion.com/my/kuala-lumpur/cheras/0c668bded92e3334432ad300a91a52e8,Mo-Fr 08:30-17:30; Sa 08:30-13:00,Western Union,Q861042
