Ref,Spider,Name,Address,City,State,Zipcode,Country,Phone,Website,Hours,Brand,WikiData
73128,bluerhino,Speedway #3617,,Elida,OH,,US,+1 419-331-4285,,,Blue Rhino,Q65681213
4054,bluerhino,Lowe's #255,,Lima,OH,,US,+1 419-331-3598,,,Blue Rhino,Q65681213
201747,bluerhino,Menards - LIMA #3184,,LIMA,OH,,US,+1 419-224-4490,,,Blue Rhino,Q65681213
240071,bluerhino,Circle K #4705655,,Lima,OH,,US,+1 419-224-1006,,,Blue Rhino,Q65681213
09270,chevrolet,LIMA AUTO MALL,,Lima,OH,,US,+1 419-549-5884,https://www.limaautomall.com,Mo 09:00-19:00; Tu-We 09:00-18:00; Th 09:00-19:00; Fr 09:00-18:00; Sa 09:00-15:00,Chevrolet,Q29570
56391,citi,ATM FIRST NATIONAL BANK OF PANDORA,,Lima,OH,,US,,,,Citibank,Q857063
81227,citi,ATM SUPERIOR CREDIT UNION INC.,,Lima,OH,,US,,,,Citibank,Q857063
80224,citi,ATM SPEEDWAY #3617,,Elida,OH,,US,,,,Citibank,Q857063
78398,citi,ATM Speedway,,Elida,OH,,US,,,,Citibank,Q857063
83463,citi,ATM THE CITIZENS NATIONAL BANK BLUFFTON,,Elida,OH,,US,,,,Citibank,Q857063
71311,citi,ATM PREMIER BANK,,Elida,OH,,US,,,,Citibank,Q857063
42020,citi,ATM Circle K,,Lima,OH,,US,,,,Citibank,Q857063
22651,coldstone_creamery,Cold Stone Creamery,,Lima,OH,,US,+1 567-712-6349,https://www.coldstonecreamery.com/stores/22651,,Cold Stone Creamery,Q1094923
,credit_union_us,Superior CU Inc,,Lima,OH,,US,+1 419-223-9746,,Mo-Fr 08:30-05:00; Sa 09:00-12:00,,
18818,dollar_general,Dollar General,,Lima,OH,,US,+1 567-825-0037,https://www.dollargeneral.com/store-directory/oh/lima/18818,Mo-Su 08:00-22:00,Dollar General,Q145168
3184,menards,LIMA,"2614 N EASTOWN RD, LIMA, OH 45807",LIMA,OH,,US,,https://www.menards.com/main/storeDetails.html?store=3184,,Menards,Q1639897
https://www.mercy.com/#ea06c094-6622-413e-b1d5-cd3dcbc80937,mercy_health_us,Mercy Health — Transitions of Care,,Lima,OH,,US,+1 419-995-5000,https://www.mercy.com/locations/specialty-locations/geriatrics-senior-care/mercy-health-transitions-of-care,,Mercy Health,Q5053169
https://www.mercy.com/#8f6f501b-19ab-4da6-ad80-bdd9be686284,mercy_health_us,Mercy Health — UNOH Family Medicine,,Lima,OH,,US,+1 419-996-5757,https://www.mercy.com/locations/primary-care-family-medicine/lima/st-ritas-family-medicine-at-unoh,Mo-Th 08:00-16:30; Fr 08:00-12:00,Mercy Health,Q5053169
113134,pandaexpress,Elida & Eastown,,Lima,OH,,US,+1 419-702-0690,https://www.pandaexpress.com/locations/oh/lima/3200-elida-road,Mo-Th 10:00-22:00; Fr-Sa 10:00-22:30; Su 10:00-22:00,Panda Express,Q1358690
028388,penske,Ez Wheeler,,ELIDA,OH,,US,+1 419-227-2497,https://www.pensketruckrental.com/locations/us/ohio/elida/028388/,,Penske,Q81234570
1436954,usps,ELIDA,,ELIDA,OH,,US,+1 419-339-1330,,"Mo-Fr 08:30-13:00,14:00-16:30; Sa 08:30-12:00",United States Postal Service,Q668687
4580700008,usps_collection_boxes,USPS COLLECTION BOX - BLUE BOX,1866 N EASTOWN RD,ELIDA,OH,,US,,,,United States Postal Service,Q668687
4580700007,usps_collection_boxes,USPS COLLECTION BOX - BLUE BOX,2275 N CABLE RD,ELIDA,OH,,US,,,,United States Postal Service,Q668687
4580700010,usps_collection_boxes,USPS COLLECTION BOX - PO LOBBY,304 E MAIN ST,ELIDA,OH,,US,,,,United States Postal Service,Q668687
4580700001,usps_collection_boxes,USPS COLLECTION BOX - PO LOBBY,304 E MAIN ST,ELIDA,OH,,US,,,,United States Postal Service,Q668687
4580700002,usps_collection_boxes,USPS COLLECTION BOX - BLUE BOX,304 E MAIN ST,ELIDA,OH,,US,,,,United States Postal Service,Q668687
4580700003,usps_collection_boxes,USPS COLLECTION BOX - BLUE BOX,304 E MAIN ST,ELIDA,OH,,US,,,,United States Postal Service,Q668687
4580700006,usps_collection_boxes,USPS COLLECTION BOX - BLUE BOX,100 E MAIN ST,ELIDA,OH,,US,,,,United States Postal Service,Q668687
,visa,,,ELIDA,OH,,US,,,,,
,visa,,,LIMA,OH,,US,,,,,
,visa,,,LIMA,OH,,US,,,,,
,visa,,,LIMA,OH,,US,,,,,
,visa,,,LIMA,OH,,US,,,,,
,visa,,,ELIDA,OH,,US,,,,,
,visa,,,ELIDA,OH,,US,,,,,
,visa,,,ELIDA,OH,,US,,,,,
,visa,,,ELIDA,OH,,US,,,,,
