Ref,Spider,Name,Address,City,State,Zipcode,Country,Phone,Website,Hours,Brand,WikiData
US518469,adidas,adidas Outlet Store Oshkosh,,Oshkosh,WI,,US,+1 920-891-3763,https://www.adidas.co.uk/storefront/US518469-oshkosh-3001-south-washburn-street-adidas-outlet-store-oshkosh,,Adidas,Q3895
https://stores.ashleyfurniture.com/store/us/wisconsin/oshkosh/9000503499/,ashley_furniture,"Ashley Outlet Oshkosh, WI",,Oshkosh,WI,,US,+1 920-966-1299,https://stores.ashleyfurniture.com/store/us/wisconsin/oshkosh/9000503499/,,Ashley Furniture,Q4805437
42847,asics_us,DICK'S Sporting Goods  - Oshkosh ,1015 N Washburn St,Oshkosh,WI,,US,+1 920-252-8271,,Mo-Sa 09:00-21:00; Su 10:00-19:00,asics,Q327247
https://locations.atipt.com/oshkosh-wi,ati_physical_therapy,ATI Physical Therapy Oshkosh 1113,,Oshkosh,WI,,US,+1 920-456-8099,https://locations.atipt.com/oshkosh-wi,,ATI Physical Therapy,Q50039703
https://locations.auntieannes.com/#8525,auntie_annes,Auntie Anne's Outlets of Oshkosh,,Oshkosh,WI,,US,+1 920-259-8836,https://locations.auntieannes.com/wi/oshkosh/3001-south-washburn,Mo-Sa 10:00-19:00; Su 11:00-18:00,Auntie Anne's,Q4822010
https://awrestaurants.com/locations/wisconsin/oshkosh/2187-w-ninth-avenue/,awrestaurants,A&W Restaurant,,Oshkosh,WI,,US,+1 920-233-4677,https://awrestaurants.com/locations/wisconsin/oshkosh/2187-w-ninth-avenue/,Mo-Su 10:00-21:00,A&W Restaurants,Q277641
BBW01850,bathandbodyworks_us,OUTLET SHOPPES AT OSHKOSH,,OSHKOSH,WI,,US,+1 920-233-2254,,Mo-Th 10:00-18:00; Fr-Sa 10:00-20:00; Su 10:00-18:00,Bath & Body Works,Q810773
151694,bluerhino,Walgreens #7835,,Oshkosh,WI,,US,+1 920-237-4700,,,Blue Rhino,Q65681213
212088,bluerhino,Festival Foods - Oshkosh #18-2708,,Oshkosh,WI,,US,+1 920-966-3378,,,Blue Rhino,Q65681213
201797,bluerhino,Menards - OSHKOSH #3025,,OSHKOSH,WI,,US,+1 920-426-2777,,,Blue Rhino,Q65681213
102212,bluerhino,Lowe's #2308,,Oshkosh,WI,,US,+1 920-232-7423,,,Blue Rhino,Q65681213
67484,bluerhino,Mills Fleet Farm #1700,,Oshkosh,WI,,US,+1 920-231-5738,,,Blue Rhino,Q65681213
78490010595005490400100000000000,bp,BP,,Oshkosh,WI,,US,+1 920-426-2641,,24/7,BP,Q152057
06684640211655490400100000000000,bp,BP,,Oshkosh,WI,,US,+1 920-479-6032,,Mo-Sa 05:00-23:00; Su 06:00-22:00,BP,Q152057
70332595675315490400100000000000,bp,BP,,Oshkosh,WI,,US,+1 920-235-9666,,Mo-Fr 05:00-21:00; Sa 06:00-21:00; Su 07:00-21:00,BP,Q152057
13236,cadillac,BERGSTROM CADILLAC OSHKOSH,,Oshkosh,WI,,US,+1 866-551-9854,https://www.oshkoshcadillac.com,Mo-Tu 08:30-19:00; We 20:30-19:00; Th 08:30-19:00; Fr 08:30-18:00; Sa 08:00-17:00,Cadillac,Q27436
OSWI,camping_world_us,Camping World of Oshkosh,"3855 South Washburn Street Oshkosh, WI 54904",Oshkosh,WI,,US,+1 866-920-0246,https://rv.campingworld.com/dealer/wichita-kansasoshkosh-wisconsin,,Camping World,Q5028383
//locations.carters.com/wi/oshkosh/carters-oshkosh-wi,carters_us,"Carter's Oshkosh, WI",,OshKosh,WI,,US,+1 920-426-5817,https://locations.carters.com/wi/oshkosh/carters-oshkosh-wi,Mo-Th 10:00-18:00; Fr-Sa 10:00-19:00; Su 11:00-18:00,Carter's,Q5047083
2043153,chase_us,Oshkosh West - New branch,,Oshkosh,WI,,US,+1 920-236-3900,https://locator.chase.com/wi/oshkosh/2280-state-road-44,Mo-Fr 09:00-17:00; Sa 09:00-14:00,Chase,Q524629
18523,chevrolet,BERGSTROM CHEVROLET BUICK GMC,,Oshkosh,WI,,US,+1 866-551-9854,https://www.oshkoshchevrolet.com,Mo-Tu 08:30-19:00; We 20:30-19:00; Th 08:30-19:00; Fr 08:30-18:00; Sa 08:00-17:00,Chevrolet,Q29570
66289,citi,ATM NICOLET NATIONAL BANK,,Oshkosh,WI,,US,,,,Citibank,Q857063
63375,citi,ATM Kwik Trip #882-1,,Oshkosh,WI,,US,,,,Citibank,Q857063
63376,citi,ATM Kwik Trip #882-2,,Oshkosh,WI,,US,,,,Citibank,Q857063
67069,citi,ATM OSHKOSH,,Oshkosh,WI,,US,,,,Citibank,Q857063
35509,citi,ATM ASSOCIATED BANK,,Oshkosh,WI,,US,,,,Citibank,Q857063
63349,citi,ATM Kwik Trip #862-2,,Oshkosh,WI,,US,,,,Citibank,Q857063
63348,citi,ATM Kwik Trip #862-1,,Oshkosh,WI,,US,,,,Citibank,Q857063
33852,citi,ATM 9th Ave BP,,Oshkosh,WI,,US,,,,Citibank,Q857063
63358,citi,ATM Kwik Trip #871-1,,Oshkosh,WI,,US,,,,Citibank,Q857063
63359,citi,ATM Kwik Trip #871-2,,Oshkosh,WI,,US,,,,Citibank,Q857063
62897,citi,ATM Kwik Trip #457-1,,Oshkosh,WI,,US,,,,Citibank,Q857063
62898,citi,ATM Kwik Trip #457-2,,Oshkosh,WI,,US,,,,Citibank,Q857063
oshkosh/6328,claires,Shop Ear Piercings & Jewelry at The Shops At Oshkosh,,OSHKOSH,WI,,US,+1 920-235-3148,https://stores.claires.com/us/wi/oshkosh/6328.html,Mo-Th 10:00-18:00; Fr-Sa 10:00-20:00; Su 10:00-18:00,Claire's,Q2974996
https://www.coach.com/stores/#17277332,coach_us,COACH Outlet,,Oshkosh,WI,,US,+1 920-280-3131,https://www.coach.com/stores/outlets/wi/oshkosh/3001-s-washburn-street,Mo-Th 10:00-18:00; Fr-Sa 10:00-20:00; Su 10:00-18:00,Coach,Q727697
8321,cousins_subs_us,Oshkosh - Westowne Ave. (Westroads Shopping Center),,Oshkosh,WI,,US,+1 920-230-6711,https://www.cousinssubs.com/order/cousins-subs-oshkosh-westowne-ave-westroads-shopping-center,,Cousins Subs,Q5178843
140,culvers_us,"Culver's of Oshkosh, WI - Westowne Ave",,Oshkosh,WI,,US,+1 920-231-6019,http://www.culvers.com/restaurants/oshkosh-westowne,Mo-Fr 10:00-22:00; Su 10:00-22:00,Culver's,Q1143589
1230,dickssportinggoods,"DICK'S Sporting Goods Store in Oshkosh, WI | 1230",,Oshkosh,WI,,US,+1 920-252-8271,https://stores.dickssportinggoods.com/wi/oshkosh/1230/,Mo-Sa 09:00-21:00; Su 10:00-19:00,Dick's Sporting Goods,Q5272601
2029,dominos_pizza_us,Domino's Pizza,,Oshkosh,WI,,US,+1 920-235-2200,https://pizza.dominos.com/wisconsin/oshkosh/1179-s-washburn-street,Mo-Th 10:00-24:00; Fr-Sa 10:00-01:00; Su 10:00-24:00,Domino's,Q839466
https://www.edwardjones.com/us-en/financial-advisor/nicole-riley,edwardjones,Nicole J Riley,,Oshkosh,WI,,US,+1 920-966-0228,https://www.edwardjones.com/us-en/financial-advisor/nicole-riley,Mo-Th 08:30-16:30; Fr 08:30-15:00,Edward Jones,Q5343830
https://local.fedex.com/#25199070,fedex,,,Oshkosh,WI,,US,+1 800-463-3339,https://local.fedex.com/en-us/wi/oshkosh/t8vey,,FedEx,Q459477
2708,festival_foods_us,Oshkosh,,Oshkosh,WI,,US,"[920-966-3378](+19209663378)
Click N Go: [920-462-3893](+19204623893)",https://www.festfoods.com/stores/oshkosh,"Mo-Su 06:00-23:00,08:00-21:00",Festival Foods,Q5445707
Motorcraft4706USAEnglish,ford,Mueller Lincoln-Mercury,,Wisconsin,WI,,US,+1 920-231-5010,,,Ford,Q44294
6057,fresenius_kidney_care_us,Fresenius Kidney Care Oshkosh,,Oshkosh,WI,,US,+1 800-881-5101,https://www.freseniuskidneycare.com/dialysis-centers/wisconsin/6057,Mo 06:00-19:30; Tu 06:00-16:00; We 06:00-17:30; Th 06:00-16:00; Fr 06:00-17:30; Sa 06:00-16:00,,
3264,gamestop_us,Witzel Retail Center,,Oshkosh,WI,,US,+1 920-233-1083,https://www.gamestop.com/search/?store=3264,Mo-Th 12:00-20:00; Fr-Sa 10:00-21:00; Su 12:00-18:00,GameStop,Q202210
740611c6-1eac-e611-bbdb-005056890337,goodwill,Goodwill Retail Store and Training Center - Oshkosh West,,Oshkosh,WI,,US,+1 920-479-1719,https://www.goodwill.org/locator/location/?store=NzQwNjExYzYtMWVhYy1lNjExLWJiZGItMDA1MDU2ODkwMzM3&lat=NDQuMDMwODg=&lng=LTg4LjU4ODQ4,,Goodwill,Q5583655
https://salons.greatclips.com/us/wi/oshkosh/2075-witzel-ave,greatclips,Great Clips,,Oshkosh,WI,,US,+1 920-233-5200,https://salons.greatclips.com/us/wi/oshkosh/2075-witzel-ave,Mo-Fr 09:00-19:00; Sa 08:00-17:00; Su 09:00-14:00,Great Clips,Q5598967
46625,h_r_block,H&R Block,,Oshkosh,WI,,US,+1 920-231-1145,https://www.hrblock.com/local-tax-offices/wisconsin/oshkosh/witzel-road-retail/46625/,,H&R Block,Q5627799
https://office.jacksonhewitt.com/#27574995,jackson_hewitt,Jackson Hewitt,,Oshkosh,WI,,US,+1 920-860-8187,https://office.jacksonhewitt.com/tax-preparation-services-locations/en/wi/oshkosh/351-s-washburn-street/51430,Mo-Sa 11:00-19:00; Su 12:00-16:00,Jackson Hewitt,Q6117132
239247,mattress_firm_us,Mattress Firm Oshkosh,,Oshkosh,WI,,US,+1 920-232-1591,https://www.mattressfirm.com/en-us/stores/wi/oshkosh/112004/,,Mattress Firm,Q6791878
17318,mattress_firm_us,Mattress Firm Oshkosh,,Oshkosh,WI,,US,+1 920-232-1591,https://www.mattressfirm.com/en-us/stores/wi/oshkosh/658001/,,Mattress Firm,Q6791878
https://locations.maurices.com/#11688424,maurices,maurices Shoppes At Oshkosh,,Oshkosh,WI,,US,+1 920-233-1394,https://locations.maurices.com/us/wi/oshkosh/3001-s-washburn-street,Mo-Th 10:00-18:00; Fr-Sa 10:00-20:00; Su 10:00-18:00,maurices,Q6793571
3025,menards,OSHKOSH,"2351 WESTOWNE AVE, OSHKOSH, WI 54904",OSHKOSH,WI,,US,,https://www.menards.com/main/storeDetails.html?store=3025,,Menards,Q1639897
https://locations.michaelkors.com/us/wi/oshkosh/3001-s--washburn.html,michaelkors,Michael Kors Outlet OSHKOSH,,Oshkosh,WI,,US,+1 920-232-0019,https://locations.michaelkors.com/us/wi/oshkosh/3001-s--washburn.html,Mo-Th 10:00-18:00; Fr-Sa 10:00-20:00; Su 10:00-18:00,Michael Kors,Q19572998
https://locations.michaelkors.com/fr/us/wi/oshkosh/3001-s--washburn.html,michaelkors,Michael Kors Outlet OSHKOSH,,Oshkosh,WI,,US,+1 920-232-0019,https://locations.michaelkors.com/fr/us/wi/oshkosh/3001-s--washburn.html,Mo-Th 10:00-18:00; Fr-Sa 10:00-20:00; Su 10:00-18:00,Michael Kors,Q19572998
NNA3832,nissan_europe,BERGSTROM NISSAN,,OSHKOSH,WI,,US,+1 920-236-1000,https://www.bergstromnissanoshkosh.com,Mo-Th 08:30-20:00; Fr 08:30-18:00; Sa 08:30-17:00,Nissan,Q20165
//locations.oshkosh.com/wi/oshkosh/oshkosh-oshkosh-wi,oshkosh_us,"Oshkosh B'gosh Oshkosh, WI",,OshKosh,WI,,US,+1 920-426-5817,https://locations.oshkosh.com/wi/oshkosh/oshkosh-oshkosh-wi,Mo-Th 10:00-18:00; Fr-Sa 10:00-19:00; Su 11:00-18:00,OshKosh B'gosh,Q1417347
https://locations.papamurphys.com/#15430634,papamurphys,Pizza Takeout & Delivery,,Oshkosh,WI,,US,+1 920-233-7272,https://locations.papamurphys.com/wi/oshkosh/2314-westowne-avenue,Mo-Su 11:00-19:00,Papa Murphy's,Q7132349
024445,penske,Winnebago Power,,OSHKOSH,WI,,US,+1 920-735-1570,https://www.pensketruckrental.com/locations/us/wisconsin/oshkosh/024445/,,Penske,Q81234570
1121,roadys_us,Planeview Travel Plaza,,Oshkosh,WI,,US,+1 920-426-2641,,,Roadyâ€™s Truck Stops,Q7339701
3001-south-washburn-street,rue21,The Outlet Shoppes at Oshkosh,,Oshkosh,WI,,US,,https://stores.rue21.com/wi/oshkosh/3001-south-washburn-street.html,Mo-Sa 10:00-20:00; Su 10:00-18:00,rue21,Q7377762
1246,scooters_coffee_us,"Oshkosh, WI",,Oshkosh,WI,,US,+1 920-385-0391,,Mo-Fr 05:00-21:00; Sa 06:00-21:00; Su 06:00-20:00,Scooter's Coffee,Q117280308
https://restaurants.subway.com/#14914121,subway,Subway,,Oshkosh Winnebago,WI,,US,+1 920-235-6738,https://restaurants.subway.com/united-states/wi/oshkosh/2281-westowne-ave,Mo-Su 08:00-21:00,Subway,Q244457
https://restaurants.subway.com/#14915879,subway,Subway Wal-Mart #1430,,Oshkosh Winnebago,WI,,US,+1 920-235-3493,https://restaurants.subway.com/united-states/wi/oshkosh/351-s-washburn-st,Mo-Fr 07:00-21:00; Sa 09:00-21:00; Su 09:00-20:00,Subway,Q244457
TNFUS00322,the_north_face,The North Face The Outlet Shoppes at Oshkosh,,Oshkosh,WI,,US,+1 920-235-0470,,Mo-Th 10:00-18:00; Fr 10:00-19:00; Sa 10:00-20:00; Su 10:00-18:00,The North Face,Q152784
52,under_armour,Under Armour Factory House,,Oshkosh,WI,,US,+1 920-303-2018,https://store-locations.underarmour.com/wi/oshkosh/52,,Under Armour,Q2031485
1250,upsstore,Oshkosh,2080 W 9th Ave,Oshkosh,WI,,US,+1 920-231-1623,https://locations.theupsstore.com/wi/oshkosh/2080-w-9th-ave,,UPS Store,Q7771029
5490400000,usps_collection_boxes,USPS COLLECTION BOX - BLUE BOX,1500 PLANEVIEW DR,OSHKOSH,WI,,US,,,,United States Postal Service,Q668687
5490400008,usps_collection_boxes,USPS COLLECTION BOX - BLUE BOX,500 S OAKWOOD RD,OSHKOSH,WI,,US,,,,United States Postal Service,Q668687
5490400007,usps_collection_boxes,USPS COLLECTION BOX - BLUE BOX,2415 WESTOWNE AVE,OSHKOSH,WI,,US,,,,United States Postal Service,Q668687
5490400003,usps_collection_boxes,USPS COLLECTION BOX - BLUE BOX,301 S WESTHAVEN DR,OSHKOSH,WI,,US,,,,United States Postal Service,Q668687
,visa,,,OSHKOSH,WI,,US,,,,,
,visa,,,OSHKOSH,WI,,US,,,,,
,visa,,,OSHKOSH,WI,,US,,,,,
,visa,,,OSHKOSH,WI,,US,,,,,
,visa,,,OSHKOSH,WI,,US,,,,,
,visa,,,OSHKOSH,WI,,US,,,,,
,visa,,,OSHKOSH,WI,,US,,,,,
,visa,,,OSHKOSH,WI,,US,,,,,
,visa,,,OSHKOSH,WI,,US,,,,,
,visa,,,OSHKOSH,WI,,US,,,,,
,visa,,,OSHKOSH,WI,,US,,,,,
,visa,,,OSHKOSH,WI,,US,,,,,
,visa,,,OSHKOSH,WI,,US,,,,,
,visa,,,OSHKOSH,WI,,US,,,,,
,visa,,,OSHKOSH,WI,,US,,,,,
,visa,,,OSHKOSH,WI,,US,,,,,
,visa,,,OSHKOSH,WI,,US,,,,,
,visa,,,OSHKOSH,WI,,US,,,,,
,visa,,,OSHKOSH,WI,,US,,,,,
,visa,,,OSHKOSH,WI,,US,,,,,
,visa,,,OSHKOSH,WI,,US,,,,,
,visa,,,OSHKOSH,WI,,US,,,,,
,visa,,,OSHKOSH,WI,,US,,,,,
,visa,,,OSHKOSH,WI,,US,,,,,
,visa,,,OSHKOSH,WI,,US,,,,,
,visa,,,OSHKOSH,WI,,US,,,,,
,visa,,,OSHKOSH,WI,,US,,,,,
,visa,,,OSHKOSH,WI,,US,,,,,
,visa,,,OSHKOSH,WI,,US,,,,,
https://www.walgreens.com/locator/walgreens-1100+emmers+ln-oshkosh-wi-54904/id=7835,walgreens,Walgreens,,Oshkosh,WI,,US,+1 920-237-4753,https://www.walgreens.com/locator/walgreens-1100+emmers+ln-oshkosh-wi-54904/id=7835,Mo-Su 07:00-22:00,Walgreens,Q1591889
https://locations.wendys.com/#9254723,wendys,"Wendy's Oshkosh 2 in Oshkosh, WI",,Oshkosh,WI,,US,+1 920-966-9940,https://locations.wendys.com/united-states/wi/oshkosh/2360-westowne-ave,"Mo-Su 06:30-10:30,07:00-21:00",Wendy's,Q550258
b6c215415a7dae547fcb2ec620bef4e3,western_union,WALMART #001430,,Oshkosh,WI,,US,+1 920-231-1575,https://location.westernunion.com/us/wi/oshkosh/b6c215415a7dae547fcb2ec620bef4e3,Mo-Sa 08:00-20:00; Su 10:00-18:00,Western Union,Q861042
20th-avenue-center,ymca,20th Avenue Center,3303 West 20th Ave,Oshkosh,WI,,US,+1 920-230-8439,https://www.ymca.org/locations/20th-avenue-center,24/7,YMCA,Q157169
