Ref,Spider,Name,Address,City,State,Zipcode,Country,Phone,Website,Hours,Brand,WikiData
189213,bluerhino,Walgreens #17920,,Amelia Court House,VA,,US,+1 804-561-2691,,,Blue Rhino,Q65681213
11954,bluerhino,Food Lion #0870,,Amelia Court House,VA,,US,+1 804-561-5222,,,Blue Rhino,Q65681213
64145503208502300200100000000000,bp,BP,,Amelia Court House,VA,,US,+1 804-561-6999,,24/7,BP,Q152057
26146,citi,ATM 7ELEVEN-FCTI,,Amelia,VA,,US,,,,Citibank,Q857063
87782,citi,ATM Walgreens,,Amelia Court House,VA,,US,,,,Citibank,Q857063
nca_s1126,department_veterans_affairs,Virginia Department of Veterans Services,,Amelia,VA,,US,+1 855-482-8387,https://www.dvs.virginia.gov/cemeteries,,Department Veterans Affairs,Q592576
nca_s1129,department_veterans_affairs,Virginia Veterans Cemetery in Amelia,,Amelia,VA,,US,+1 855-482-8387,https://www.dvs.virginia.gov/cemeteries/amelia-cemetery,,Department Veterans Affairs,Q592576
24340,dollar_general,Dollar General,,Amelia Courthouse,VA,,US,+1 804-630-0115,https://www.dollargeneral.com/store-directory/va/amelia-courthouse/24340,Mo-Su 08:00-22:00,Dollar General,Q145168
200329956,exxonmobil,Exxon,,AMELIA COURT HOUSE,VA,,US,,https://www.exxon.com/en/find-station/exxon-ameliacourthouse-va-exxon-200329956,Mo-Su 06:00-22:00,Exxon,Q109675651
200329955,exxonmobil,Mobil,,AMELIA COURT HOUSE,VA,,US,,https://www.exxon.com/en/find-station/mobil-ameliacourthouse-va-mobil-200329955,Mo-Su 06:00-00:00,Mobil,Q109676002
200321315,exxonmobil,Exxon,,AMELIA COURT HOUSE,VA,,US,,https://www.exxon.com/en/find-station/exxon-ameliacourthouse-va-exxon-200321315,Mo-Sa 06:00-21:00; Su 06:00-21:30,Exxon,Q109675651
https://local.fedex.com/#25198883,fedex,,,Amelia Court House,VA,,US,+1 800-463-3339,https://local.fedex.com/en-us/va/amelia-court-house/lfile,,FedEx,Q459477
https://local.fedex.com/#25228630,fedex,,,Amelia Court House,VA,,US,+1 800-463-3339,https://local.fedex.com/en-us/va/amelia-court-house/lfiac,,FedEx,Q459477
1506341,hardees_us,Hardee's,,Amelia Court House,VA,,US,+1 504-561-2489,https://locations.hardees.com/va/amelia-court-house/10151-superior-way,,Hardee's,Q1585088
44481,h_r_block,H&R Block,,Amelia,VA,,US,+1 804-561-3757,https://www.hrblock.com/local-tax-offices/virginia/amelia/15408-patrick-henry-hwy/44481/,,H&R Block,Q5627799
https://locations.papajohns.com/#10690702,papa_johns,Papa John's,,Amelia,VA,,US,+1 804-561-0699,https://locations.papajohns.com/united-states/va/23002/amelia/15418-patrick-henry-hwy,Mo-Th 11:00-21:00; Fr-Sa 10:00-22:00; Su 11:00-21:00,Papa John's Pizza,Q2759586
va_amelia_15071-patrick-henry-hwy,pizza_hut_us,15071 Patrick Henry Hwy.,,Amelia,VA,,US,+1 804-561-1908,https://locations.pizzahut.com/va/amelia/15071-patrick-henry-hwy,,Pizza Hut,Q191615
40019,seven_eleven_ca_us,7-Eleven,,AMELIA,VA,,US,+1 804-561-7331,https://www.7-eleven.com/locations/va/amelia/15418-patrick-henry-hwy-40019,,7-Eleven,Q259340
https://restaurants.subway.com/#14898111,subway,Subway Uppy's C-Store,,Amelia Court House Amelia,VA,,US,+1 804-561-7742,https://restaurants.subway.com/united-states/va/amelia-court-house/15418-patrick-henry-hwy,Mo-Fr 09:00-22:00; Sa 10:00-22:00; Su 12:00-17:00,Subway,Q244457
0145440400,sunoco_us,Sunoco,,AMELIA COURT HOUSE,VA,,US,+1 804-561-7331,,,Sunoco,Q1423218
1352942,usps,AMELIA COURT HOUSE,,AMELIA COURT HOUSE,VA,,US,+1 804-561-6092,,Mo-Fr 08:30-17:00; Sa 10:00-12:00,United States Postal Service,Q668687
2300200003,usps_collection_boxes,USPS COLLECTION BOX - BLUE BOX,15103 PATRICK HENRY HWY,AMELIA CT HSE,VA,,US,,,,United States Postal Service,Q668687
2300200004,usps_collection_boxes,USPS COLLECTION BOX - PO LOBBY,16400 CHURCH ST,AMELIA CT HSE,VA,,US,,,,United States Postal Service,Q668687
2300200008,usps_collection_boxes,USPS COLLECTION BOX - PO LOBBY,16400 CHURCH ST,AMELIA CT HSE,VA,,US,,,,United States Postal Service,Q668687
,visa,,,AMELIA COURT HOUSE,VA,,US,,,,,
,visa,,,AMELIA,VA,,US,,,,,
,visa,,,AMELIA,VA,,US,,,,,
,visa,,,AMELIA,VA,,US,,,,,
,visa,,,AMELIA COURTHOUSE,VA,,US,,,,,
,visa,,,AMELIA,VA,,US,,,,,
,visa,,,AMELIA COURT HOUSE,VA,,US,,,,,
,visa,,,AMELIA COURT HOUSE,VA,,US,,,,,
,visa,,,AMELIA,VA,,US,,,,,
,visa,,,AMELIA COURT HOUSE,VA,,US,,,,,
,visa,,,AMELIA COURT HOUSE,VA,,US,,,,,
https://www.walgreens.com/locator/walgreens-15105+patrick+henry+hwy-amelia+court+house-va-23002/id=17920,walgreens,Walgreens,,Amelia Court House,VA,,US,+1 804-561-2691,https://www.walgreens.com/locator/walgreens-15105+patrick+henry+hwy-amelia+court+house-va-23002/id=17920,Mo-Su 09:00-21:00,Walgreens,Q1591889
15105__PATRICK__HENRY__HWY_AMELIA__COURT__HOUSE_VA_23002,wellsfargo,,15105 PATRICK HENRY HWY,AMELIA COURT HOUSE,VA,,US,+1 800-869-3557,https://www.wellsfargo.com/locator/bank/15105__PATRICK__HENRY__HWY_AMELIA__COURT__HOUSE_VA_23002/,,Wells Fargo,Q744149
f42432ee7f3a8e63dcac68a33f068a4d,western_union,WALGREENS #17920,,Amelia Court House,VA,,US,+1 804-561-2691,https://location.westernunion.com/us/va/amelia-court-house/f42432ee7f3a8e63dcac68a33f068a4d,Mo-Fr 08:00-21:00; Sa 08:00-20:00; Su 08:00-19:00,Western Union,Q861042
