Ref,Spider,Name,Address,City,State,Zipcode,Country,Phone,Website,Hours,Brand,WikiData
10967,asics_us,Cadillac Mountain Sports,26 Cottage St,Bar Harbor,ME,,US,+1 207-288-4532,,Mo-Su 09:00-18:00,asics,Q327247
240137,bluerhino,Circle K #4707014,,Bar Harbor,ME,,US,+1 207-288-9691,,,Blue Rhino,Q65681213
66365,bluerhino,Paradis True Value #17695,,Bar Harbor,ME,,US,+1 207-288-4995,,,Blue Rhino,Q65681213
89949,bluerhino,Hannaford #8224,,Bar Harbor,ME,,US,+1 207-288-3621,,,Blue Rhino,Q65681213
44468,citi,ATM Circle K,,Bar Harbor,ME,,US,,,,Citibank,Q857063
33960,citi,ATM Acadia Hotel,,Bar Harbor,ME,,US,,,,Citibank,Q857063
https://www.edwardjones.com/us-en/financial-advisor/david-lewis,edwardjones,David W Lewis,,Bar Harbor,ME,,US,+1 207-288-3903,https://www.edwardjones.com/us-en/financial-advisor/david-lewis,Tu-Fr 08:30-16:00,Edward Jones,Q5343830
https://stores.hannaford.com/#8905552,hannaford,Hannaford - Bar Harbor 86 Cottage St - Bar Harbor,,Hancock County,ME,,US,+1 207-288-5680,https://stores.hannaford.com/me/bar-harbor/8224,Mo-Su 07:00-21:00,Hannaford,Q5648760
https://restaurants.subway.com/#14907909,subway,Subway,,Bar Harbor Hancock,ME,,US,+1 207-288-0782,https://restaurants.subway.com/united-states/me/bar-harbor/4-cottage-street,Mo-Fr 11:00-19:00; Sa-Su 11:00-18:00,Subway,Q244457
0710775800,sunoco_us,Sunoco,,BAR HARBOR,ME,,US,,,Mo-Su 06:00-16:00,Sunoco,Q1423218
0187870100,sunoco_us,Sunoco,,BAR HARBOR,ME,,US,+1 207-288-5053,,,Sunoco,Q1423218
1354016,usps,BAR HARBOR,,BAR HARBOR,ME,,US,+1 207-288-3122,,Mo-Fr 08:00-16:30; Sa 09:00-12:00,United States Postal Service,Q668687
0460900004,usps_collection_boxes,USPS COLLECTION BOX - BLUE BOX,103 MAIN ST,BAR HARBOR,ME,,US,,,,United States Postal Service,Q668687
0460900013,usps_collection_boxes,USPS COLLECTION BOX - PO LOBBY,55 COTTAGE ST,BAR HARBOR,ME,,US,,,,United States Postal Service,Q668687
0460900016,usps_collection_boxes,USPS COLLECTION BOX - PO LOBBY,55 COTTAGE ST,BAR HARBOR,ME,,US,,,,United States Postal Service,Q668687
0460900006,usps_collection_boxes,USPS COLLECTION BOX - BLUE BOX,55 COTTAGE ST,BAR HARBOR,ME,,US,,,,United States Postal Service,Q668687
0460900000,usps_collection_boxes,USPS COLLECTION BOX - BLUE BOX,86 COTTAGE ST,BAR HARBOR,ME,,US,,,,United States Postal Service,Q668687
,visa,,,BAR HARBOR,ME,,US,,,,,
,visa,,,BAR HARBOR,ME,,US,,,,,
,visa,,,BAR HARBOR,ME,,US,,,,,
,visa,,,BAR HARBOR,ME,,US,,,,,
,visa,,,BAR HARBOR,ME,,US,,,,,
https://www.walgreens.com/locator/walgreens-34+cottage+st-bar+harbor-me-04609/id=19967,walgreens,Walgreens,,Bar Harbor,ME,,US,+1 207-288-2222,https://www.walgreens.com/locator/walgreens-34+cottage+st-bar+harbor-me-04609/id=19967,Mo-Sa 08:00-20:00; Su 08:00-18:00,Walgreens,Q1591889
fecf0cd58755ddb5cfc18084c602ea3b,western_union,WALGREENS #19967,,Bar Harbor,ME,,US,+1 207-288-2222,https://location.westernunion.com/us/me/bar-harbor/fecf0cd58755ddb5cfc18084c602ea3b,Mo-Fr 08:00-21:00; Sa 08:00-20:00; Su 08:00-19:00,Western Union,Q861042
mount-desert-island-ymca,ymca,Mount Desert Island YMCA,21 Park Street,Bar Harbor,ME,,US,+1 207-288-3511,https://www.ymca.org/locations/mount-desert-island-ymca,Mo 06:00-20:00; Tu 06:00-21:00; We-Fr 06:00-20:00; Sa 08:00-14:00; Su 08:00-12:00,YMCA,Q157169
