Ref,Spider,Name,Address,City,State,Zipcode,Country,Phone,Website,Hours,Brand,WikiData
205692,bluerhino,Ace Building Center #08836,,Tenton,TN,,US,+1 731-855-2991,,,Blue Rhino,Q65681213
75539,citi,ATM SECURITY BANK AND TRUST CO,,Trenton,TN,,US,,,,Citibank,Q857063
75519,citi,ATM SECURITY BANK,,Trenton,TN,,US,,,,Citibank,Q857063
48940,citi,ATM CVS,,Trenton,TN,,US,,,,Citibank,Q857063
https://www.edwardjones.com/us-en/financial-advisor/christy-allen,edwardjones,Christy M Allen,,Trenton,TN,,US,+1 731-855-9173,https://www.edwardjones.com/us-en/financial-advisor/christy-allen,Mo-Th 08:00-17:00; Fr 08:00-16:00,Edward Jones,Q5343830
20633,family_dollar_us,FAMILY DOLLAR #633,,Trenton,TN,,US,+1 731-388-5007,https://www.familydollar.com/locations/tn/trenton/20633/,Mo-Su 08:00-22:00,Family Dollar,Q5433101
https://local.fedex.com/#25235984,fedex,,,Trenton,TN,,US,+1 800-463-3339,https://local.fedex.com/en-us/tn/trenton/mklbl,,FedEx,Q459477
Motorcraft1984USAEnglish,ford,Moss Miller Ford,,Tennessee,TN,,US,+1 731-855-9662,,,Ford,Q44294
1506015,hardees_us,Hardee's,,Trenton,TN,,US,+1 731-855-2383,https://locations.hardees.com/tn/trenton/2060-us-45-bypass-south,,Hardee's,Q1585088
40044,h_r_block,H&R Block,,Trenton,TN,,US,+1 731-855-9797,https://www.hrblock.com/local-tax-offices/tennessee/trenton/156-davy-crockett-mall/40044/,,H&R Block,Q5627799
157530,marathon_petroleum_us,SPEED MART INC,,TRENTON,TN,,US,+1 731-470-5007,,,Marathon,Q458363
160226,marathon_petroleum_us,LITTLE GENERAL  39,,TRENTON,TN,,US,+1 731-855-9951,,,Marathon,Q458363
https://locations.oreillyauto.com/tn/trenton/check-engine-light-testing-2455.html,oreilly,Your Trenton O'Reilly Auto Parts Store,,Trenton,TN,,US,+1 731-855-7679,https://locations.oreillyauto.com/tn/trenton/check-engine-light-testing-2455.html,Mo-Sa 07:00-21:00; Su 08:00-20:00,O'Reilly Auto Parts,Q7071951
https://locations.oreillyauto.com/tn/trenton/wiper-installation-2455.html,oreilly,Your Trenton O'Reilly Auto Parts Store,,Trenton,TN,,US,+1 731-855-7679,https://locations.oreillyauto.com/tn/trenton/wiper-installation-2455.html,Mo-Sa 07:00-21:00; Su 08:00-20:00,O'Reilly Auto Parts,Q7071951
https://locations.oreillyauto.com/tn/trenton/battery-testing-2455.html,oreilly,Your Trenton O'Reilly Auto Parts Store,,Trenton,TN,,US,+1 731-855-7679,https://locations.oreillyauto.com/tn/trenton/battery-testing-2455.html,Mo-Sa 07:00-21:00; Su 08:00-20:00,O'Reilly Auto Parts,Q7071951
https://locations.oreillyauto.com/tn/trenton/autopartes-2455.html,oreilly,Tu tienda O'Reilly Auto Parts en Trenton,,Trenton,TN,,US,+1 731-855-7679,https://locations.oreillyauto.com/tn/trenton/autopartes-2455.html,Mo-Sa 07:00-21:00; Su 08:00-20:00,O'Reilly Auto Parts,Q7071951
tn_trenton_2062-us-highway-45,pizza_hut_us,2062 US Highway 45,,Trenton,TN,,US,+1 731-855-4652,https://locations.pizzahut.com/tn/trenton/2062-us-highway-45,,Pizza Hut,Q191615
https://restaurants.subway.com/#14911999,subway,Subway,,Trenton Gibson,TN,,US,+1 731-855-9555,https://restaurants.subway.com/united-states/tn/trenton/160-davy-crockett-shpg-ctr,Mo-Su 09:00-22:00,Subway,Q244457
https://locations.tacobell.com/#55108044,taco_bell,Taco Bell,,Trenton,TN,,US,+1 731-200-9156,https://locations.tacobell.com/tn/trenton/hwy-45-byp-s-2045.html,Mo-Th 07:00-24:00; Fr-Sa 07:00-01:00; Su 07:00-24:00,Taco Bell,Q752941
1384971,usps,TRENTON,,TRENTON,TN,,US,+1 731-855-0541,,Mo-Fr 08:30-16:30; Sa 09:00-11:00,United States Postal Service,Q668687
3838200000,usps_collection_boxes,USPS COLLECTION BOX - BLUE BOX,200 S COLLEGE ST,TRENTON,TN,,US,,,,United States Postal Service,Q668687
3838200020,usps_collection_boxes,USPS COLLECTION BOX - BLUE BOX,200 S COLLEGE ST,TRENTON,TN,,US,,,,United States Postal Service,Q668687
3838200018,usps_collection_boxes,USPS COLLECTION BOX - BLUE BOX,100 COURT SQ,TRENTON,TN,,US,,,,United States Postal Service,Q668687
3838200023,usps_collection_boxes,USPS COLLECTION BOX - PO LOBBY,200 S COLLEGE ST,TRENTON,TN,,US,,,,United States Postal Service,Q668687
3838200022,usps_collection_boxes,USPS COLLECTION BOX - PO LOBBY,200 S COLLEGE ST,TRENTON,TN,,US,,,,United States Postal Service,Q668687
3838200006,usps_collection_boxes,USPS COLLECTION BOX - BLUE BOX,309 S COLLEGE ST,TRENTON,TN,,US,,,,United States Postal Service,Q668687
3838200003,usps_collection_boxes,USPS COLLECTION BOX - BLUE BOX,108 ARMORY ST,TRENTON,TN,,US,,,,United States Postal Service,Q668687
3838200001,usps_collection_boxes,USPS COLLECTION BOX - BLUE BOX,2038 US HIGHWAY 45 BYP S,TRENTON,TN,,US,,,,United States Postal Service,Q668687
3838200019,usps_collection_boxes,USPS COLLECTION BOX - BLUE BOX,1714 S COLLEGE ST,TRENTON,TN,,US,,,,United States Postal Service,Q668687
A00000252026,verizon_us,Russell Cellular Trenton Davy Crockett Mall,,TRENTON,TN,,US,+1 731-855-0220,https://www.verizon.com/stores/details/tennessee/trenton/russell-cellular-trenton-davy-crockett-mall-1520822/,Mo-Sa 09:00-19:00; Su 11:00-17:00,Verizon,Q919641
,visa,,,TRENTON,TN,,US,,,,,
,visa,,,TRENTON,TN,,US,,,,,
,visa,,,TRENTON,TN,,US,,,,,
,visa,,,TRENTON,TN,,US,,,,,
,visa,,,TRENTON,TN,,US,,,,,
,visa,,,TRENTON,TN,,US,,,,,
,visa,,,TRENTON,TN,,US,,,,,
,visa,,,TRENTON,TN,,US,,,,,
,visa,,,TRENTON,TN,,US,,,,,
,visa,,,TRENTON,TN,,US,,,,,
,visa,,,TRENTON,TN,,US,,,,,
,visa,,,TRENTON,TN,,US,,,,,
,visa,,,TRENTON,TN,,US,,,,,
872,world_finance_us,,"136 Davy Crockett Mall, Trenton, TN, 38382",Trenton,TN,,US,+1 731-855-3797,https://www.loansbyworld.com/branches/branch-872,Mo-Fr 09:00-17:30; Sa 09:00-12:00,World Finance,Q3569971
northwest-gibson-county-branch-ymca,ymca,Northwest Gibson County Branch YMCA,110 YMCA Drive,Trenton,TN,,US,+1 901-766-7677,https://www.ymca.org/locations/northwest-gibson-county-branch-ymca,Mo-Fr 05:00-20:00; Sa 08:00-15:00,YMCA,Q157169
