Ref,Spider,Name,Address,City,State,Zipcode,Country,Phone,Website,Hours,Brand,WikiData
AU-1204,anytime_fitness,Anytime Fitness,,Warrnambool,VIC,,AU,+61 434 623 580,https://anytimefitness.com.au/gyms/au-1204/warrnambool-vic-3280/,,Anytime Fitness,Q4778364
RED0009241,australia_post_au,,,DENNINGTON,VIC,,AU,,,,Australia Post,Q1142936
331133_PO,australia_post_au,DENNINGTON LPO,,DENNINGTON,VIC,,AU,+61 3 5562 5860,,,Australia Post,Q1142936
RED0009244,australia_post_au,,,WARRNAMBOOL,VIC,,AU,,,,Australia Post,Q1142936
RED0009242,australia_post_au,,,WARRNAMBOOL,VIC,,AU,,,,Australia Post,Q1142936
RED0009259,australia_post_au,,,WARRNAMBOOL,VIC,,AU,,,,Australia Post,Q1142936
RED0009247,australia_post_au,,,WARRNAMBOOL,VIC,,AU,,,,Australia Post,Q1142936
RED0009255,australia_post_au,,,WARRNAMBOOL,VIC,,AU,,,,Australia Post,Q1142936
RED0009250,australia_post_au,,,WARRNAMBOOL,VIC,,AU,,,,Australia Post,Q1142936
RED0009251,australia_post_au,,,WARRNAMBOOL,VIC,,AU,,,,Australia Post,Q1142936
362669_PO,australia_post_au,WARRNAMBOOL WEST LPO,,WARRNAMBOOL,VIC,,AU,+61 3 5562 2034,,,Australia Post,Q1142936
RED0009253,australia_post_au,,,WARRNAMBOOL,VIC,,AU,,,,Australia Post,Q1142936
RED0009257,australia_post_au,,,WARRNAMBOOL,VIC,,AU,,,,Australia Post,Q1142936
RED0009252,australia_post_au,,,WARRNAMBOOL,VIC,,AU,,,,Australia Post,Q1142936
RED0009243,australia_post_au,,,WARRNAMBOOL,VIC,,AU,,,,Australia Post,Q1142936
RED0009249,australia_post_au,,,WARRNAMBOOL,VIC,,AU,,,,Australia Post,Q1142936
RED0009256,australia_post_au,,,WARRNAMBOOL,VIC,,AU,,,,Australia Post,Q1142936
RED0009245,australia_post_au,,,WARRNAMBOOL,VIC,,AU,,,,Australia Post,Q1142936
346853_PO,australia_post_au,WARRNAMBOOL POST SHOP,,WARRNAMBOOL,VIC,,AU,+61 131318,,,Australia Post,Q1142936
RED0009254,australia_post_au,,,WARRNAMBOOL,VIC,,AU,,,,Australia Post,Q1142936
RED0017877,australia_post_au,,,WARRNAMBOOL,VIC,,AU,,,,Australia Post,Q1142936
78557173_UPL,australia_post_au,Warrnambool Parcel Locker,,WARRNAMBOOL,VIC,,AU,,,24/7,Australia Post,Q1142936
327150_DC,australia_post_au,TIMOR STREET BOX ROOM,,WARRNAMBOOL,VIC,,AU,+61 131318,,,Australia Post,Q1142936
362650_PO,australia_post_au,WARRNAMBOOL EAST LPO,,WARRNAMBOOL,VIC,,AU,+61 3 5520 7315,,,Australia Post,Q1142936
RED0009248,australia_post_au,,,WARRNAMBOOL,VIC,,AU,,,,Australia Post,Q1142936
RED0017856,australia_post_au,,,WARRNAMBOOL,VIC,,AU,,,,Australia Post,Q1142936
RED0009260,australia_post_au,,,WARRNAMBOOL,VIC,,AU,,,,Australia Post,Q1142936
RED0009246,australia_post_au,,,WARRNAMBOOL,VIC,,AU,,,,Australia Post,Q1142936
RED0009258,australia_post_au,,,WARRNAMBOOL,VIC,,AU,,,,Australia Post,Q1142936
2706,bakers_delight,Bakers Delight Warrnambool East,,Warrnambool,VIC,,AU,+61 3 5561 1896,https://www.bakersdelight.com.au/bakery-locator/warrnambool-east/,Mo-Su 07:00-18:00,Bakers Delight,Q4849261
2611,bakers_delight,Bakers Delight Warrnambool &#8211; Norfolk Plaza,,Warrnambool,VIC,,AU,+61 3 5560 5355,https://www.bakersdelight.com.au/bakery-locator/warrnambool-norfolk-plaza/,Mo-Su 06:00-19:00,Bakers Delight,Q4849261
2562,bakers_delight,Bakers Delight Warrnambool &#8211; CBD,,Warrnambool,VIC,,AU,+61 3 5561 5037,https://www.bakersdelight.com.au/bakery-locator/warrnambool-cbd/,Mo-Fr 06:00-18:30; Sa-Su 06:00-17:30,Bakers Delight,Q4849261
L-WARR1,barbeques_galore_au,Warrnambool,,Warrnambool,VIC,,AU,+61 3 5561 3900,https://www.barbequesgalore.com.au/stores/warrnambool,Mo-Fr 09:00-17:30; Sa 09:00-17:00; Su 11:00-16:00,Barbeques Galore,Q4859570
228,battery_world_au,Battery World Warrnambool [A],,Warrnambool,VIC,,AU,+61 131760;+61 3 5560 5245,https://www.batteryworld.com.au/stores/battery-world-warrnambool,Mo-Fr 08:00-17:00; Sa 09:00-13:00,Battery World,Q124003678
8796095152151,best_and_less_au,Warrnambool,"MMO2 Gateway Plaza, 154 Raglan Pde, Warrnambool, Victoria, 3280",Warrnambool,VIC,,AU,+61 3 5562 4722,https://www.bestandless.com.au/store/Warrnambool,Mo-Th 09:00-17:30; Fr 09:00-19:00; Sa 09:00-17:00; Su 10:00-16:00,Best & Less,Q4896542
21949674,bottlemart_au,Vic Bar Restaurant & Bottle Shop,,,VIC,,AU,+61 3 5560 5777,,,Bottlemart,Q102863175
21949982,bottlemart_au,Flying Horse Bar & Brewery,,,VIC,,AU,+61 3 5562 2254,,,Bottlemart,Q102863175
3141,bp,BP OPT WARRNAMBOOL (ALBERT ST),,WARRNAMBOOL,VIC,,AU,+61 3 5562 8155,,24/7,BP,Q152057
7492,bp,DPT WARRNAMBOOL (LUBES ONLY),,WARRNAMBOOL,VIC,,AU,+61 3 5562 8155,,24/7,BP,Q152057
1269,bp,BP WARRNAMBOOL (922- 924 RAGLAN PDE),,WARRNAMBOOL,VIC,,AU,+61 3 5561 1781,,Mo-Su 06:00-22:30,BP,Q152057
3545,bp,BP WARRNAMBOOL (MORTLAKE RD),,WARRNAMBOOL,VIC,,AU,+61 3 5561 1353,,24/7,BP,Q152057
7483,bp,BP WARRNAMBOOL ( 634 RAGLAN PDE),,WARRNAMBOOL,VIC,,AU,+61 3 5561 1853,,Mo-Su 06:00-22:30,BP,Q152057
1014,bp,BP WARRNAMBOOL EAST,,WARRNAMBOOL,VIC,,AU,+61 3 5562 8155,,24/7,BP,Q152057
6892,bp,BP WARRNAMBOOL (PRINCESS HWY),,WARRNAMBOOL,VIC,,AU,+61 3 5561 7498,,Mo-Su 06:00-24:00,BP,Q152057
https://www.bridgestone.com.au/stores/vic/bridgestone-service-centre-warrnambool,bridgestone_select,Bridgestone Service Centre Warrnambool,,Warrnambool,VIC,,AU,+61 3 5562 4086,https://www.bridgestone.com.au/stores/vic/bridgestone-service-centre-warrnambool/,Mo-Fr 08:00-17:00; Sa 08:30-24:00,Bridgestone Select Tyre & Auto,Q122420123
https://www.bridgestone.com.au/stores/vic/bridgestone-service-centre-warrnambool-truck-centre,bridgestone_select,Bridgestone Service Centre Warrnambool Truck Centre,,Warrnambool,VIC,,AU,+61 3 5561 0280,https://www.bridgestone.com.au/stores/vic/bridgestone-service-centre-warrnambool-truck-centre/,Mo-Fr 07:00-17:00; Sa 07:00-24:00,Bridgestone Select Tyre & Auto,Q122420123
842,burson_auto_parts_au,WARRNAMBOOL,"109 HENNA STREET, WARRNAMBOOL VIC 3280, Australia",WARRNAMBOOL,VIC,,AU,+61 3 5562 0955,,Mo-Fr 08:00-17:00; Sa 08:00-12:00,Burson Auto Parts,Q117075930
6330,cellarbrations_au,CELLARBRATIONS AT MACS HOTEL WARRNAMBOOL,,WARRNAMBOOL,VIC,,AU,+61 3 5562 2270,,Mo-Sa 08:30-23:00; Su 09:30-23:00,Cellarbrations,Q109807592
6723,coles_au,Coles Express Warrnambool,,Warrnambool,VIC,,AU,+61 3 9075 1046,,,Coles Express,Q5144653
7730,coles_au,Coles Warrnambool (lava St),,Warrnambool,VIC,,AU,+61 3 5564 4900,,,Coles Supermarkets,Q1108172
3705,coles_au,Lava St Warrnambool,,Warrnambool,VIC,,AU,+61 3 5564 4980,,,Liquorland,Q2283837
596,coles_au,Coles Northpoint,,Warrnambool North,VIC,,AU,+61 3 5559 0700,,,Coles Supermarkets,Q1108172
3778,coles_au,North Warrnambool,,Warrnambool,VIC,,AU,+61 3 9075 1303,,,Liquorland,Q2283837
6725,coles_au,Coles Express Ponderosa,,Warrnambool,VIC,,AU,+61 3 9075 1094,,,Coles Express,Q5144653
3701,coles_au,East Warrnambool,,Warrnambool,VIC,,AU,+61 3 4504 6080,,,Liquorland,Q2283837
563,coles_au,Coles Warrnambool,,Warrnambool,VIC,,AU,+61 3 4504 6000,,,Coles Supermarkets,Q1108172
353301,commonwealth_bank_au,Warrnambool,,Warrnambool,VIC,,AU,,,,Commonwealth Bank,Q285328
353302,commonwealth_bank_au,Warrnambool,,Warrnambool,VIC,,AU,,,,Commonwealth Bank,Q285328
353303,commonwealth_bank_au,Warrnambool,,Warrnambool,VIC,,AU,,,,Commonwealth Bank,Q285328
782,dusk_au,dusk Warrnambool,,Warrnambool,VIC,,AU,,https://www.dusk.com.au/store-locator/dusk-warrnambool/,,dusk,Q120669167
73,early_settler,Warrnambool,,Warrnambool,VIC,,AU,+61 3 5562 0950,https://earlysettler.com.au/pages/early-settler-warrnambool,Mo-Sa 10:00-17:00; Su 11:00-16:00,Early Settler,Q111080173
714,first_national_real_estate_au,First National Real Estate Warrnambool,,Warrnambool,VIC,,AU,+61 3 5562 9014,https://www.firstnational.com.au/pages/real-estate/office/714/first-national-real-estate-warrnambool,,First National Real Estate,Q122888198
313,house_au,House Warrnambool,,Warrnambool,VIC,,AU,+61 3 7038 2099,https://www.house.com.au/stores/house-warrnambool,Mo-Fr 09:00-17:30; Sa 10:00-17:00; Su 10:00-16:00,House,Q117921987
5344,hungry_jacks,Warrnambool,,Warrnambool,VIC,,AU,+61 3 5500 1256,,,Hungry Jack's,Q3036373
752,jbhifi,Warrnambool Home,,WARRNAMBOOL,VIC,,AU,+61 3 5563 2900,,Mo-We 09:00-17:30; Th-Fr 09:00-19:00; Sa 09:00-17:00; Su 10:00-17:00,JB Hi-Fi,Q3310113
42544,just_group,Just Jeans Warrnambool,"Shop 4, 147 Liebig Street, Warrnambool, VIC, 3280, Australia",Warrnambool,VIC,,AU,+61 3 5562 7271,https://justjeans.jgl.com.au/shop/stores/justjeans-warrnambool,,Just Jeans,Q6316068
9500798,mcdonalds_qstore,WARRNAMBOOL CENTRAL VIC,,Warrnambool,VIC,,AU,+61 3 5561 6244,,24/7,McDonald's,Q38076
9501159,mcdonalds_qstore,WARRNAMBOOL EAST VIC,,Warrnambool,VIC,,AU,+61 3 5561 1986,,Mo-Su 05:00-23:00,McDonald's,Q38076
NMA30397,nissan_europe,Warrnambool Nissan,,WARRNAMBOOL,VIC,,AU,+61 3 5564 5999,http://www.warrnamboolnissan.com.au,,Nissan,Q20165
W367,officeworks_au,Warrnambool Officeworks,,Warrnambool,VIC,,AU,+61 3 9020 4543,https://www.officeworks.com.au/shop/officeworks/storepage/W367/VIC/Warrnambool,Mo-Fr 07:00-19:00; Sa 08:00-18:00; Su 09:00-18:00,Officeworks,Q7079486
3052,petstock_au,Petstock Warrnambool,,Warrnambool,VIC,,AU,+61 3 5561 3371,https://www.petstock.com.au/pages/store/petstock-warrnambool,Mo-We 09:00-17:30; Th-Fr 09:00-18:00; Sa 09:00-17:00; Su 10:00-17:00,Petstock,Q106540728
3515,red_rooster_au,Red Rooster Warrnambool,,Warrnambool,VIC,,AU,+61 3 5562 9949,https://redrooster.com.au/locations/warrnambool/,Mo-Th 10:30-21:00; Fr 10:30-22:00; Sa-Su 10:30-21:00,Red Rooster,Q376466
10110934,shell,SHELL COLES EXPRESS PONDEROSA,,WARRNAMBOOL,VIC,,AU,+61 3 9075 1094,https://find.shell.com/au/fuel/10110934-shell-coles-express-ponderosa,,Shell,Q110716465
10110984,shell,SHELL COLES EXPRESS WARRNAMBOOL,,WARRNAMBOOL,VIC,,AU,+61 3 9075 1046,https://find.shell.com/au/fuel/10110984-shell-coles-express-warrnambool,,Shell,Q110716465
3297,specsavers,Warrnambool,,Warrnambool,VIC,,AU,+61 3 5561 3796,https://www.specsavers.com.au/stores/warrnambool,,Specsavers,Q2000610
7297,specsavers,Warrnambool,,Warrnambool,VIC,,AU,+61 3 5561 3796,https://www.specsavers.com.au/stores/warrnambool,,Specsavers,Q2000610
VWBL,spendless_au,Warrnambool,,Warrnambool,VIC,,AU,+61 3 5561 5811,,Mo-Th 09:00-17:30; Fr 09:00-21:00; Sa 09:00-17:00; Su 10:00-16:00,Spendless,Q120668938
3350,sportsgirl_au,WARRNAMBOOL,,Warrnambool,VIC,,AU,+61 3 5562 5037,/store-locator/vic/warrnambool-3350,Mo-Th 09:00-17:30; Fr 09:00-18:00; Sa 09:00-16:00; Su 11:00-15:00,Sportsgirl,Q7579970
4653,sportspower_au,Warrnambool,,Warrnambool,VIC,,AU,+61 3 5560 5044,https://www.sportspower.com.au/pages/sportspower-warrnambool,Mo-Th 09:00-17:30; Fr 09:00-18:00; Sa 09:00-16:00; Su 10:00-15:00,SportsPower,Q117747652
3542,sussan_au,Warrnambool,,Warrnambool,VIC,,AU,+61 3 5562 4660,/store-locator/vic/warrnambool-3542,Mo-Th 09:00-17:30; Fr 09:00-18:00; Sa 09:00-16:00; Su 11:00-15:00,Sussan,Q28184460
3286,suzanne_grae_au,Warrnambool,,Warrnambool,VIC,,AU,+61 3 5562 1921,/store-locator/vic/warrnambool-3286,Mo-Th 09:00-17:30; Fr 09:00-19:00; Sa 09:00-17:00; Su 11:00-16:00,Suzanne Grae,Q117747672
IJCI,telstra_au,Warrnambool,,Warrnambool,VIC,,AU,+61 1800 566 042,,Mo-Fr 09:00-17:00; Sa 09:00-14:00; Su 10:00-15:00,Telstra,Q721162
LAO2,telstra_au,Warrnambool Gateway Plaza,,Warrnambool,VIC,,AU,+61 1800 566 043,,Mo-Fr 09:00-17:00; Sa 09:00-15:00,Telstra,Q721162
247,the_cheesecake_shop,Warrnambool,"Bayside City Plaza, 36 Fairy Street, Warrnambool, VIC, 3280",,VIC,,AU,+61 3 5561 6226,https://www.cheesecake.com.au/find-bakery/warrnambool/,Mo-Sa 09:00-20:00; Su 10:00-19:00,The Cheesecake Shop,Q117717103
https://www.thegoodguys.com.au/warrnambool,the_good_guys_au,The Good Guys Warrnambool,,Warrnambool,VIC,,AU,+61 3 5564 3900,https://www.thegoodguys.com.au/warrnambool,Mo-Fr 09:00-17:30; Sa 09:00-17:00; Su 10:00-17:00,The Good Guys,Q7737217
c15fc3d2-b05b-47fa-b00d-4aa74e20640a,thirsty_camel_au,Flying Horse Bar & Brewery,"10699 Princes Hwy, Warrnambool",,VIC,,AU,+61 3 5562 2254,https://www.thirstycamel.com.au/stores/flying-horse-bar-and-brewery,Mo-Th 10:00-22:00; Fr-Sa 10:00-23:00; Su 10:00-22:00,Thirsty Camel,Q113503937
3de8e19b-5425-4a8e-9516-b1637aba0bd9,thirsty_camel_au,Rafferty's Tavern,"1145 Raglan Parade, WARRNAMBOOL",,VIC,,AU,+61 3 5561 1888,https://www.thirstycamel.com.au/stores/rafferty's-tavern,Mo-We 10:00-22:00; Th-Sa 10:00-23:00; Su 10:00-22:00,Thirsty Camel,Q113503937
3900,toyworld_au,Toyworld Warrnambool,,Warrnambool,VIC,,AU,+61 3 5562 7362,https://www.toyworld.com.au/pages/toyworld-warrnambool,Mo-Th 09:00-17:30; Fr 09:00-18:00; Sa 09:00-14:00,Toyworld,Q95923071
3322,tradelink_au,Warrnambool,"27 Fairy Street, Warrnambool VIC 3280",Warrnambool,VIC,,AU,+61 3 5247 7160,,Mo-Fr 07:00-17:00; Sa 09:00-12:00,Tradelink,Q120648432
,tyrepower_au,Garden Tyrepower Warrnambool,,Warrnambool,VIC,,AU,+61 3 5562 2782,https://warrnambooltyrepower.com.au/,,Tyrepower,Q108855867
,visa,,,WARRNAMBOOL,VIC,,AU,,,,,
,visa,,,WARRNAMBOOL,VIC,,AU,,,,,
,visa,,,WARRNAMBOOL,VIC,,AU,,,,,
,visa,,,WARRNAMBOOL,VIC,,AU,,,,,
,visa,,,WARRNAMBOOL,VIC,,AU,,,,,
,visa,,,WARRNAMBOOL,VIC,,AU,,,,,
,visa,,,WARRNAMBOOL,VIC,,AU,,,,,
,visa,,,WARRNAMBOOL,VIC,,AU,,,,,
,visa,,,WARRNAMBOOL,VIC,,AU,,,,,
,visa,,,WARRNAMBOOL,VIC,,AU,,,,,
,visa,,,WARRNAMBOOL,VIC,,AU,,,,,
,visa,,,WARRNAMBOOL,VIC,,AU,,,,,
,visa,,,WARRNAMBOOL,VIC,,AU,,,,,
e474772d812dce94a3352bd0d83317d1,western_union,AUSTRALIA POST,,Dennington,VIC,,AU,+61 1800 501 500,https://location.westernunion.com/au/vic/dennington/e474772d812dce94a3352bd0d83317d1,Mo-Fr 08:00-18:00; Sa 08:00-13:00,Western Union,Q861042
41bbb1d4a4b843a604bf3be56d096389,western_union,AUSTRALIA POST,,Warrnambool,VIC,,AU,+61 1800 501 500,https://location.westernunion.com/au/vic/warrnambool/41bbb1d4a4b843a604bf3be56d096389,Mo-Fr 07:00-08:00; Sa 07:30-17:00; Su 08:00-15:00,Western Union,Q861042
f29142448326c02275066bfe0c76139f,western_union,AUSTRALIA POST,,Warrnambool,VIC,,AU,+61 1800 501 500,https://location.westernunion.com/au/vic/warrnambool/f29142448326c02275066bfe0c76139f,Mo-Fr 08:45-17:00; Sa 09:00-12:30,Western Union,Q861042
b7442180ba43df16cd3b88831cb8de93,western_union,AUSTRALIA POST,,Warrnambool,VIC,,AU,+61 1800 501 500,https://location.westernunion.com/au/vic/warrnambool/b7442180ba43df16cd3b88831cb8de93,Mo-Fr 09:00-17:30; Sa 09:00-16:00,Western Union,Q861042
