Ref,Spider,Name,Address,City,State,Zipcode,Country,Phone,Website,Hours,Brand,WikiData
3004,action,Cloppenburg,,Cloppenburg,,,DE,,https://www.action.com/de-de/laden/cloppenburg-emsteker-strabe/,,Action,Q2634111
https://vertretung.allianz.de/markus.buken/,allianz_de,Allianz Versicherung Markus Buken HAUPTVERTRETUNG,,Cloppenburg,,,DE,+49 4471 6242,https://vertretung.allianz.de/markus.buken/,Mo-Fr 09:30-12:00,Allianz SE,Q487292
https://vertretung.allianz.de/agentur.witt_bley_ohg/,allianz_de,Allianz Versicherung Witt und Bley OHG GENERALVERTRETUNG,,Cloppenburg,,,DE,+49 4471 3909,https://vertretung.allianz.de/agentur.witt_bley_ohg/,Mo-Fr 09:00-12:00,Allianz SE,Q487292
00863_7,bmw_group,B&K Deutschland GmbH,,Cloppenburg,,,DE,+49 4471 85020,https://www.bundk.de,,BMW,Q26678
04504_1,bmw_group,Autohaus Menke GmbH,,Cloppenburg,,,DE,+49 4471 184380,https://www.bmw-service-menke.de,,BMW,Q26678
13956,burgerking,Burger King,,Cloppenburg,,,DE,+49 4471 884339,https://www.burgerking.de/store-locator/store/restaurant_8235,Mo-Th 10:00-23:00; Fr-Sa 10:00-00:00; Su 10:00-23:00,Burger King,Q177054
Cloppenburg,combi_de,Combi,"Memelstr. 56, 49661 Cloppenburg",Cloppenburg,,,DE,+49 4471 933146,https://www.combi.de/marktauswahl/Cloppenburg,Mo-Sa 07:00-21:00,Combi,Q1113618
DE0272,c_and_a,Cloppenburg Lange Strasse,"Lange Strasse 26-30, 49661 Cloppenburg",Cloppenburg,,,DE,,https://www.c-and-a.com/stores/de-de/niedersachsen/cloppenburg/lange-strasse-26-30.html,Mo 09:30-19:00; Tu 09:30-19:00; We 09:30-19:00; Th 09:30-19:00; Fr 09:30-19:00; Sa 09:30-18:30,C&A,Q701338
https://www.biomarkt.de/cloppenburg-emsteker-str-34,denns_de,Denns BioMarkt Cloppenburg,,Cloppenburg,,,DE,+49 4471 1879217,https://www.biomarkt.de/cloppenburg-emsteker-str-34/marktseite,,Denns BioMarkt,Q48883773
2665,deutsche_telekom_de,Telekom Shop Cloppenburg,,Cloppenburg,,,DE,+49 4471 4004,https://shopseite.telekom.de/nord-ost/cloppenburg/bahnhofstr-2,Mo-Fr 09:30-18:00; Sa 09:30-14:00,Deutsche Telekom,Q9396
de:2152,dm,dm-drogerie markt,,Cloppenburg,,,DE,+49 4471 1805691,https://www.dm.de/store/d3hg/cloppenburg/lange-strasse-4,Mo-Sa 09:00-20:00,dm,Q266572
52.849218.037,dpd_de,Soesten Tank,,Cloppenburg,,,DE,,,,DPD,Q541030
52.845318.0404301,dpd_de,NKD Deutschland GmbH,,Cloppenburg,,,DE,,,,DPD,Q541030
52.8486978.045185,dpd_de,Cloppenburger Kiosk,,Cloppenburg,,,DE,,,,DPD,Q541030
52.8426148.058768,dpd_de,ViMa-Tech Technischer Handel / Serv,,Cloppenburg,,,DE,,,,DPD,Q541030
52.83757198.036209,dpd_de,Kiosk FOR YOU,,Cloppenburg,,,DE,,,,DPD,Q541030
52.84000718.0264253,dpd_de,nah und gut Konofol,,Cloppenburg,,,DE,,,,DPD,Q541030
3135323333HndR82,eyes_and_more,eyes + more Cloppenburg,"Lange Straße   31-33, Cloppenburg, 49661",,,,DE,+49 4471 9575270,https://www.eyesandmore.de/termin-vereinbaren/?storeId=3135323333HndR82,Mo-Fr 09:00-18:30; Sa 09:00-16:00,eyes + more,Q1385775
https://www.fressnapf.de/stores/fressnapf-cloppenburg-emstekerstrasse/,fressnapf_de,Fressnapf Cloppenburg,,Cloppenburg,,,DE,+49 4471 1766010,https://www.fressnapf.de/stores/fressnapf-cloppenburg-emstekerstrasse/,Mo-Fr 09:00-20:00; Sa 09:00-18:00,Fressnapf,Q875796
2760908596,gls_de,ViMa-Tech Technischer Handel,,Cloppenburg,,,DE,+49 4471 8509528,,Mo-Th 07:00-16:30; Fr 07:00-14:30,General Logistics Systems,Q46495823
2760917023,gls_de,Jabal Kiosk,,Cloppenburg,,,DE,+49 162 7901372,,Mo-Sa 08:00-20:00,General Logistics Systems,Q46495823
2760916926,gls_de,Cloppenberger Kiosk,,Cloppenburg,,,DE,+49 160 8324561,,Mo-Su 08:00-24:00,General Logistics Systems,Q46495823
2760207829,gls_de,nah und gut Konofol,,Cloppenburg,,,DE,+49 4471 2704,,"Mo-Fr 06:30-12:30,14:30-18:00; Sa 06:30-12:30; Su 08:00-11:00",General Logistics Systems,Q46495823
5511,jack_and_jones,"Cloppenburg, Lange Str. 39",,Cloppenburg,,,DE,+49 4471 1842863,,,Jack & Jones,Q6077665
1164,jysk,Cloppenburg,,Cloppenburg,,,DE,+49 4471 91040,https://jysk.de/filialen?storeId=1164,Mo-Th 10:00-18:30; Sa 09:30-16:00,JYSK,Q138913
DE1423,kaufland,Kaufland Cloppenburg,,Cloppenburg,,,DE,+49 4471 1843260,https://filiale.kaufland.de/service/filiale/frankfurt-oder-spitzkrug-multi-center-cloppenburg-1423.html,Mo-Sa 07:00-22:00,Kaufland,Q685967
8107,kik,KiK,,Cloppenburg,,,DE,+49 4471 1808591,,Mo-Fr 09:00-19:00; Sa 09:00-18:00,KiK,Q883965
6469,lidl_de,,,Cloppenburg,,,DE,,,Mo-Sa 07:00-21:00,Lidl,Q151954
5912,lidl_de,,,Cloppenburg,,,DE,,,Mo-Sa 07:00-21:00,Lidl,Q151954
42465,man_truck_and_bus,Ludwig Südbeck Nutzfahrzeuge GmbH,,Cloppenburg,,,DE,+49 4471 91130,,,MAN Truck & Bus,Q708667
74286931,moneygram,A & Z - CLOPPENBURG,,CLOPPENBURG,,,DE,+49 1520 4166702,,Mo-Sa 07:00-19:00; Su 00:00-24:00,MoneyGram,Q1944412
3708,mueller,Müller,,Cloppenburg,,,DE,+49 4471 9273998,https://www.mueller.de/meine-filiale/cloppenburg/cappelner-strasse-4/,,Müller,Q1958759
5b3cb3fac00458481b4378b9,newyorker,NEW YORKER,"Langestr. 32, 49661 Cloppenburg",Cloppenburg,,,DE,+49 4471 2100,,Mo-Fr 10:00-19:00; Sa 10:00-18:00,New Yorker,Q706421
2448,ovs,OVS Cloppenburg Kids,,Cloppenburg,,,DE,-,,,OVS,Q2042514
https://www.rossmann.de/de/filialen/niedersachsen/cloppenburg/lange-str--26-30.html,rossmann_de,Rossmann Drogerie-Markt Lange Str. 26-30,,Cloppenburg,,,DE,+49 4471 1841522,https://www.rossmann.de/de/filialen/niedersachsen/cloppenburg/lange-str--26-30.html,Mo-Sa 09:00-20:00,Rossmann,Q316004
4577,santander_de,,,Cloppenburg,,,DE,,,,Santander,Q875292
a07e69fb-ec71-4eab-8f95-0ab024b32250,scania,Auto Jacobsen GmbH,,Cloppenburg,,,DE,+49 4471 91810,,Mo-Fr 08:00-18:00; Sa 08:00-13:00,Scania,Q219960
49182,seat_de,"""Rasch"" Automobile GmbH",,Cloppenburg,,,DE,+49 4471 961300,https://rasch.seat.de,,SEAT,Q188217
23327,sparkasse_de,Landessparkasse zu Oldenburg Geldautomat Löninger Straße,,Cloppenburg,,,DE,+49 441 2304650,https://www.sparkasse.de/standorte/geldautomaten/landessparkasse-zu-oldenburg-geldautomat-loeninger-strasse-23327,Mo-Su 06:00-23:00,Sparkasse,Q13601825
104438,sparkasse_de,Landessparkasse zu Oldenburg SB-Filiale Löninger Straße,,Cloppenburg,,,DE,+49 441 2304650,https://www.sparkasse.de/standorte/filialen/landessparkasse-zu-oldenburg-sb-filiale-loeninger-strasse-104438,Mo-Su 06:00-23:00,Sparkasse,Q13601825
23323,sparkasse_de,Landessparkasse zu Oldenburg Geldautomat Osterstraße,,Cloppenburg,,,DE,+49 441 2300,https://www.sparkasse.de/standorte/geldautomaten/landessparkasse-zu-oldenburg-geldautomat-osterstrasse-23323,Mo-Su 06:00-23:00,Sparkasse,Q13601825
4218,sparkasse_de,Landessparkasse zu Oldenburg Filiale Osterstraße,,Cloppenburg,,,DE,+49 441 2304350,https://www.sparkasse.de/standorte/filialen/landessparkasse-zu-oldenburg-filiale-osterstrasse-4218,Mo-Tu 09:30-12:30; Th-Fr 09:30-12:30,Sparkasse,Q13601825
23325,sparkasse_de,Landessparkasse zu Oldenburg Geldautomat Cloppenburg,,Cloppenburg,,,DE,+49 441 2304650,https://www.sparkasse.de/standorte/geldautomaten/landessparkasse-zu-oldenburg-geldautomat-cloppenburg-23325,Mo-Su 06:00-23:00,Sparkasse,Q13601825
105270,sparkasse_de,Landessparkasse zu Oldenburg Filiale Cloppenburg,,Cloppenburg,,,DE,+49 441 2304650,https://www.sparkasse.de/standorte/filialen/landessparkasse-zu-oldenburg-filiale-cloppenburg-105270,"Mo 09:30-12:30; Tu 09:30-12:30,14:00-18:00; We 09:30-12:30; Th 09:30-12:30,14:00-18:00; Fr 09:30-12:30",Sparkasse,Q13601825
37625,sparkasse_de,Landessparkasse zu Oldenburg Geldautomat Emstekerfeld,,Cloppenburg,,,DE,+49 441 2304650,https://www.sparkasse.de/standorte/geldautomaten/landessparkasse-zu-oldenburg-geldautomat-emstekerfeld-37625,Mo-Su 06:00-23:00,Sparkasse,Q13601825
4220,sparkasse_de,Landessparkasse zu Oldenburg SB-Filiale Emstekerfeld,,Cloppenburg-Emstekerfeld,,,DE,+49 441 4650,https://www.sparkasse.de/standorte/filialen/landessparkasse-zu-oldenburg-sb-filiale-emstekerfeld-4220,Mo-Su 06:00-23:00,Sparkasse,Q13601825
ND038166,totalenergies,CLOPPENBURG VAHRENER DAMM,,CLOPPENBURG,,,DE,+49 4471 7012924,https://store.totalenergies.fr/en_EN/ND038166,Mo-Su 05:00-23:30,TotalEnergies,Q154037
https://www.vlh.de/bst/5656/Oeffnungszeiten.html,vhl_de,VLH-Beraterin Hoai Makselon in Cloppenburg,,Cloppenburg,,,DE,+49 4471 7013261,https://www.vlh.de/bst/5656/,Mo-Th 09:00-12:30; Fr 09:00-12:00,Vereinigte Lohnsteuerhilfe e.V.,Q15852617
,visa,,,CLOPPENBURG,,,DE,,,,,
,visa,,,CLOPPENBURG,,,DE,,,,,
,visa,,,CLOPPENBURG,,,DE,,,,,
,visa,,,CLOPPENBURG,,,DE,,,,,
,visa,,,CLOPPENBURG,,,DE,,,,,
,visa,,,CLOPPENBURG,,,DE,,,,,
,visa,,,CLOPPENBURG,,,DE,,,,,
,visa,,,CLOPPENBURG,,,DE,,,,,
,visa,,,CLOPPENBURG,,,DE,,,,,
,visa,,,CLOPPENBURG,,,DE,,,,,
,visa,,,CLOPPENBURG,,,DE,,,,,
,visa,,,CLOPPENBURG,,,DE,,,,,
https://shops.vodafone.de/cloppenburg/alte-stadttor-passage-14,vodafone_de,Vodafone-Shop,,Cloppenburg,,,DE,+49 162 2893185,https://shops.vodafone.de/cloppenburg/alte-stadttor-passage-14,Mo-Fr 10:00-18:00; Sa 10:00-14:00,Vodafone,Q122141
6DE96918,volvo,Autohaus Riemann e.K.,,Cloppenburg,,,DE,+49 4471 99950,http://www.volvocars-haendler.de/riemann/,,Volvo,Q215293
https://www.vr.de/standorte/C/vr-bank-in-suedoldenburg-eg-10471.html,vr_bank,VR-Bank in Südoldenburg eG,,Cloppenburg,,,DE,+49 4471 969156,https://www.vrbank-suedoldenburg.de,Mo-Fr 09:00-12:00,,
https://www.vr.de/standorte/C/vr-bank-in-suedoldenburg-eg-10470.html,vr_bank,VR-Bank in Südoldenburg eG,,Cloppenburg,,,DE,+49 4471 969152,https://www.vrbank-suedoldenburg.de,Mo-Fr 09:00-12:00,,
https://www.vr.de/standorte/C/vr-bank-in-suedoldenburg-eg-13783.html,vr_bank,VR-Bank in Südoldenburg eG,,Cloppenburg,,,DE,+49 4471 9690,https://www.vrbank-suedoldenburg.de,"Mo 09:00-13:00,14:00-16:00; Tu 09:00-13:00,14:00-18:00; We 09:00-13:00,14:00-16:00; Th 09:00-13:00,14:00-18:00; Fr 09:00-13:00",,
