Ref,Spider,Name,Address,City,State,Zipcode,Country,Phone,Website,Hours,Brand,WikiData
,visa,,,NAUGATUCK,CT,,US,,,,,
,visa,,,NAUGATUCK,CT,,US,,,,,
,visa,,,NAUGATUCK,CT,,US,,,,,
,visa,,,NAUGATUCK,CT,,US,,,,,
,visa,,,NAUGATUCK,CT,,US,,,,,
,visa,,,NAUGATUCK,CT,,US,,,,,
,visa,,,NAUGATUCK,CT,,US,,,,,
,visa,,,NAUGATUCK,CT,,US,,,,,
,visa,,,NAUGATUCK,CT,,US,,,,,
,visa,,,MAUGATUCK,CT,,US,,,,,
,visa,,,NAUGATUCK,CT,,US,,,,,
,visa,,,NAUGATUCK,CT,,US,,,,,
,visa,,,NAUGATUCK,CT,,US,,,,,
,visa,,,NAUGATUCK,CT,,US,,,,,
,visa,,,NAUGATUCK,CT,,US,,,,,
,visa,,,NAUGATUCK,CT,,US,,,,,
,visa,,,NAUGATUCK,CT,,US,,,,,
,visa,,,NAUGATUCK,CT,,US,,,,,
,visa,,,NAUGATUCK,CT,,US,,,,,
,visa,,,NAUGATUCK,CT,,US,,,,,
,visa,,,NAUGATUCK,CT,,US,,,,,
,visa,,,NAUGATUCK,CT,,US,,,,,
,visa,,,NAUGATUCK,CT,,US,,,,,
,visa,,,NAUGATUCK,CT,,US,,,,,
,visa,,,NAUGATUCK,CT,,US,,,,,
,visa,,,NAUGATUCK,CT,,US,,,,,
,visa,,,NAUGATUCK,CT,,US,,,,,
,visa,,,NAGATUCK,CT,,US,,,,,
,visa,,,NAUGATUCK,CT,,US,,,,,
,visa,,,NAGNATUCK,CT,,US,,,,,
,visa,,,NAUGATUCK,CT,,US,,,,,
,visa,,,NAUGATUCK,CT,,US,,,,,
,visa,,,NAUGATUCK,CT,,US,,,,,
,visa,,,NAUGATUCK,CT,,US,,,,,
,visa,,,NAUGATUCK,CT,,US,,,,,
,visa,,,NAUGATUCK,CT,,US,,,,,
,visa,,,NAGAUTUCK,CT,,US,,,,,
,visa,,,NAUGHATUCK,CT,,US,,,,,
,visa,,,NAUGATUCK,CT,,US,,,,,
,visa,,,NAUGATUCK,CT,,US,,,,,
