Ref,Spider,Name,Address,City,State,Zipcode,Country,Phone,Website,Hours,Brand,WikiData
https://stores.advanceautoparts.com/va/quinton/2307-pocahontas-trl,advance_auto_parts_us,Advance Auto Parts,,Quinton,VA,,US,+1 804-932-3233,https://stores.advanceautoparts.com/va/quinton/2307-pocahontas-trl,Mo-Sa 07:30-21:00; Su 09:00-20:00,Advance Auto Parts,Q4686051
192055,bluerhino,Walgreens #18196,,Quinton,VA,,US,+1 804-932-4336,,,Blue Rhino,Q65681213
131091,bluerhino,Food Lion #2219,,Quinton,VA,,US,+1 804-932-8807,,,Blue Rhino,Q65681213
11967,bluerhino,Food Lion #1336,,Quinton,VA,,US,+1 804-932-3188,,,Blue Rhino,Q65681213
209819,bluerhino,Food Lion #2235,,Quinton,VA,,US,+1 804-932-3815,,,Blue Rhino,Q65681213
va/quinton/2390-pocahontas-trail,bojangles,"Bojangles Quinton, VA",,Quinton,VA,,US,+1 804-932-4206,https://locations.bojangles.com/va/quinton/2390-pocahontas-trail.html,,Bojangles',Q891163
69469011663012314100100000000000,bp,BP,,Quinton,VA,,US,+1 804-932-9016,,24/7,BP,Q152057
36490,citi,ATM BAYLANDS FAMILY CREDIT UNION,,Quinton,VA,,US,,,,Citibank,Q857063
89472,citi,ATM Walgreens,,Quinton,VA,,US,,,,Citibank,Q857063
,credit_union_us,Baylands Family CU,,Quinton,VA,,US,+1 804-843-2520,,Mo-Tu 08:00-05:00; We 10:00-05:00; Th-Fr 08:00-05:00,,
18678,dollar_general,Dollar General,,Quinton,VA,,US,+1 757-447-2096,https://www.dollargeneral.com/store-directory/va/quinton/18678,Mo-Su 08:00-22:00,Dollar General,Q145168
8092,dominos_pizza_us,Domino's Pizza,,Quinton,VA,,US,+1 804-932-9930,https://pizza.dominos.com/virginia/quinton/7410-d-cooper-tavern-rd,Mo-Th 10:30-24:00; Fr-Sa 10:30-01:00; Su 10:30-24:00,Domino's,Q839466
355665,dunkin_us,Dunkin',,Quinton,VA,,US,+1 804-932-3265,https://locations.dunkindonuts.com/en/va/quinton/1-cooper-tavern-rd/355665,Mo-Su 05:00-20:00,Dunkin',Q847743
200322798,exxonmobil,FAS MART #57,,QUINTON,VA,,US,+1 804-932-9077,https://www.exxon.com/en/find-station/mobil-quinton-va-fasmart57-200322798,24/7,Mobil,Q109676002
200318772,exxonmobil,"RICK'S STOP AND SHOP, INC",,QUINTON,VA,,US,+1 804-932-3802,https://www.exxon.com/en/find-station/exxon-quinton-va-ricksstopandshopinc-200318772,Mo-Su 06:00-22:00,Exxon,Q109675651
https://local.fedex.com/#25198754,fedex,,,Quinton,VA,,US,+1 800-463-3339,https://local.fedex.com/en-us/va/quinton/lfilj,,FedEx,Q459477
https://local.fedex.com/#25235236,fedex,,,Quinton,VA,,US,+1 800-463-3339,https://local.fedex.com/en-us/va/quinton/lfibf,,FedEx,Q459477
va_quinton_2620-new-kent-hwy,pizza_hut_us,2620 New Kent Hwy.,,Quinton,VA,,US,+1 804-932-3555,https://locations.pizzahut.com/va/quinton/2620-new-kent-hwy,,Pizza Hut,Q191615
https://restaurants.subway.com/#14894594,subway,Subway New Kent Crossings Shop Ctr,,Quinton New Kent,VA,,US,+1 804-932-8536,https://restaurants.subway.com/united-states/va/quinton/2583-new-kent-hwy,Mo-Su 08:00-21:00,Subway,Q244457
0821081700,sunoco_us,Sunoco,,QUINTON,VA,,US,+1 804-932-3100,,24/7,Sunoco,Q1423218
https://locations.tacobell.com/#8958051,taco_bell,Taco Bell,,Quinton,VA,,US,+1 804-557-2368,https://locations.tacobell.com/va/quinton/7330-cumberland-station-road.html,Mo-Th 09:00-24:00; Fr-Sa 09:00-01:00; Su 09:00-24:00,Taco Bell,Q752941
054590,uhaul,JT's Barber And Beauty,5410 New Kent Hwy,Quinton,VA,,US,+1 804-966-0046,,Mo 00:00-24:00; Tu-Fr 00:00-16:00; Sa 00:00-14:00,U-Haul,Q7862902
089095,uhaul,Superior Tire & Auto,1701 Pocahontas Trl,Quinton,VA,,US,+1 804-966-2937,,Mo-Th 00:00-17:00; Fr 00:00-17:00,U-Haul,Q7862902
008402,uhaul,March Mini Storage Inc,3301 New Kent Hwy,Quinton,VA,,US,+1 804-932-9753,,Mo-Fr 00:00-15:00,U-Haul,Q7862902
1378655,usps,QUINTON,,QUINTON,VA,,US,+1 804-932-4312,,Mo-Fr 09:00-17:00; Sa 10:00-12:00,United States Postal Service,Q668687
2314100001,usps_collection_boxes,USPS COLLECTION BOX - BLUE BOX,2510 NEW KENT HWY,QUINTON,VA,,US,,,,United States Postal Service,Q668687
2314100002,usps_collection_boxes,USPS COLLECTION BOX - PO LOBBY,2510 NEW KENT HWY,QUINTON,VA,,US,,,,United States Postal Service,Q668687
2314100004,usps_collection_boxes,USPS COLLECTION BOX - PO LOBBY,2510 NEW KENT HWY,QUINTON,VA,,US,,,,United States Postal Service,Q668687
https://vcahospitals.com/new-kent,vca,VCA New Kent Animal Hospital,,Quinton,VA,,US,+1 804-932-9170,https://vcahospitals.com/new-kent,Mo-Fr 07:30-18:00,VCA,Q7906620
A00000177038,verizon_us,Wireless Zone Quinton,,QUINTON,VA,,US,+1 804-201-9755,https://www.verizon.com/stores/details/virginia/quinton/wireless-zone-quinton-1568322/,Mo-Sa 09:00-20:00; Su 11:00-17:00,Verizon,Q919641
,visa,,,QUINTON,VA,,US,,,,,
,visa,,,QUINTON,VA,,US,,,,,
,visa,,,QUINTON,VA,,US,,,,,
,visa,,,QUINTON,VA,,US,,,,,
,visa,,,QUINTON,VA,,US,,,,,
,visa,,,QUINTON,VA,,US,,,,,
,visa,,,QUINTON,VA,,US,,,,,
2163,waffle_house_us,Waffle House #2163,,QUINTON,VA,,US,+1 804-932-3694,https://locations.wafflehouse.com/quinton-va-2163,24/7,Waffle House,Q1701206
https://www.walgreens.com/locator/walgreens-2207+pocahontas+trl-quinton-va-23141/id=18196,walgreens,Walgreens,,Quinton,VA,,US,+1 804-932-4336,https://www.walgreens.com/locator/walgreens-2207+pocahontas+trl-quinton-va-23141/id=18196,Mo-Sa 07:00-22:00; Su 08:00-21:00,Walgreens,Q1591889
https://locations.wendys.com/#9255129,wendys,"Wendy's New Kent in Quinton, VA",,Quinton,VA,,US,+1 804-932-3014,https://locations.wendys.com/united-states/va/quinton/2614-new-kent-highway,"Mo-We 06:30-10:30,07:00-21:00; Th 06:30-10:30,07:00-22:00; Fr-Su 06:30-10:30,07:00-21:00",Wendy's,Q550258
fb7f51f28088fa595bc14596f3dc813d,western_union,FAS MART #21,,Quinton,VA,,US,+1 804-932-3628,https://location.westernunion.com/us/va/quinton/fb7f51f28088fa595bc14596f3dc813d,Mo-Su 06:00-22:00,Western Union,Q861042
b9dd20f0d126e2027741e2e0179603c1,western_union,FAS MART #57,,Quinton,VA,,US,+1 804-932-9077,https://location.westernunion.com/us/va/quinton/b9dd20f0d126e2027741e2e0179603c1,Mo-Su 06:00-22:00,Western Union,Q861042
79810cc78c72215ed792c0d474952217,western_union,WALGREENS #18196,,Quinton,VA,,US,+1 804-932-4336,https://location.westernunion.com/us/va/quinton/79810cc78c72215ed792c0d474952217,Mo-Sa 08:00-21:00; Su 08:00-18:00,Western Union,Q861042
4aa92fdcf25bdf2e950a31a7fa9327a3,western_union,FOOD LION #2235,,Quinton,VA,,US,+1 276-739-2383,https://location.westernunion.com/us/va/quinton/4aa92fdcf25bdf2e950a31a7fa9327a3,Mo-Su 07:00-23:00,Western Union,Q861042
