Ref,Spider,Name,Address,City,State,Zipcode,Country,Phone,Website,Hours,Brand,WikiData
1018922,alamo,Omaha Eppley Airfield Airport,,Omaha,NE,,US,+1 844-370-3139,,,ALAMO,Q1429287
https://www.avis.com/en/locations/us/ne/omaha/oma,avis,Avis U S A Omaha Airport,,Omaha,NE,,US,+1 402-422-6480,https://www.avis.com/en/locations/us/ne/omaha/oma,Mo-Fr 07:30-01:00; Sa-Su 08:00-01:00,Avis,Q791136
https://awrestaurants.com/locations/nebraska/omaha/4501-abbott-drive/,awrestaurants,A&W Restaurant,,Omaha,NE,,US,+1 402-345-1223,https://awrestaurants.com/locations/nebraska/omaha/4501-abbott-drive/,Mo-Su 10:30-21:00,A&W Restaurants,Q277641
211372,bluerhino,Dollar General #22619,,Omaha,NE,,US,+1 402-913-0750,,,Blue Rhino,Q65681213
172127,bluerhino,Family Dollar #09369,,Omaha,NE,,US,+1 402-403-3733,,,Blue Rhino,Q65681213
https://locations.us.express.dhl.com/#8427400,dhl_express_us_ca,DHL Express ServicePoint Next to  Eppley Airfield,,,NE,,US,+1 800-225-5345,https://locations.us.express.dhl.com/ne/omaha/1505-hartman-court,Mo-Fr 10:00-19:00,DHL,Q489815
OMAT61,enterprise,Omaha Eppley Airfield Airport,,Omaha,NE,,US,+1 402-344-3280,,,Enterprise Rent-A-Car,Q17085454
https://locations.kfc.com/#11250407,kfc,Chicken Nuggets Near Omaha,,Omaha,NE,,US,,https://locations.kfc.com/ne/omaha/4501-abbott-drive/chickennugget,,KFC,Q524757
1018919,national,Omaha Eppley Airfield Airport,,Omaha,NE,,US,+1 844-370-3138,,,NATIONAL,Q1424142
566010,penske,Omaha Airport,,OMAHA,NE,,US,+1 402-342-3834,https://www.pensketruckrental.com/locations/us/nebraska/omaha/566010/,,Penske,Q81234570
22,scooters_coffee_us,Eppley Airport,,Omaha,NE,,US,+1 402-422-6376,,Mo-Fr 05:30-21:00; Sa-Su 06:30-20:00,Scooter's Coffee,Q117280308
https://restaurants.subway.com/#14910267,subway,Subway Phillips 66 C-Store,,Omaha Douglas,NE,,US,+1 402-342-3155,https://restaurants.subway.com/united-states/ne/omaha/2509-abbott-plaza,Mo-Su 09:00-22:00,Subway,Q244457
6811000022,usps_collection_boxes,USPS COLLECTION BOX - BLUE BOX,2222 N 11TH ST,OMAHA,NE,,US,,,,United States Postal Service,Q668687
6811000008,usps_collection_boxes,USPS COLLECTION BOX - BLUE BOX,2229 LAKE ST,OMAHA,NE,,US,,,,United States Postal Service,Q668687
,visa,,,OMAHA,NE,,US,,,,,
,visa,,,OMAHA,NE,,US,,,,,
,visa,,,OMAHA,NE,,US,,,,,
,visa,,,OMAHA,NE,,US,,,,,
,visa,,,OMAHA,NE,,US,,,,,
,visa,,,OMAHA,NE,,US,,,,,
,visa,,,OMAHA,NE,,US,,,,,
,visa,,,OMAHA,NE,,US,,,,,
,visa,,,OMAHA,NE,,US,,,,,
,visa,,,OMAHA,NE,,US,,,,,
,visa,,,OMAHA,NE,,US,,,,,
,visa,,,OMAHA,NE,,US,,,,,
,visa,,,OMAHA,NE,,US,,,,,
,visa,,,OMAHA,NE,,US,,,,,
4501__ABBOTT__DR__STE__1450_OMAHA_NE_68110,wellsfargo,,4501 ABBOTT DR STE 1450,OMAHA,NE,,US,+1 800-869-3557,https://www.wellsfargo.com/locator/bank/4501__ABBOTT__DR__STE__1450_OMAHA_NE_68110/,,Wells Fargo,Q744149
4501__ABBOTT__DR_OMAHA_NE_68110,wellsfargo,,4501 ABBOTT DR,OMAHA,NE,,US,+1 800-869-3557,https://www.wellsfargo.com/locator/bank/4501__ABBOTT__DR_OMAHA_NE_68110/,,Wells Fargo,Q744149
