Ref,Spider,Name,Address,City,State,Zipcode,Country,Phone,Website,Hours,Brand,WikiData
https://locators.bankofamerica.com/va/norfolk/atm-norfolk-107233.html,bankofamerica,Bank of America Walk-Up ATM | Old Dominion Webb Student Center,,Norfolk,VA,,US,+1 844-401-8500,https://locators.bankofamerica.com/va/norfolk/atm-norfolk-107233.html,,Bank of America,Q487907
229574,bluerhino,Global #571,,NORFOLK,VA,,US,+1 757-440-7792,,,Blue Rhino,Q65681213
va_norfolk_4712-hampton-blvd,chipotle, ,,Norfolk,VA,,US,+1 757-802-3914,https://locations.chipotle.com/va/norfolk/4712-hampton-blvd,,Chipotle,Q465751
30985,citi,ATM 7ELEVEN-FCTI,,Norfolk,VA,,US,,,,Citibank,Q857063
30603,citi,ATM 7ELEVEN-FCTI,,Norfolk,VA,,US,,,,Citibank,Q857063
30555,citi,ATM 7ELEVEN-FCTI,,Norfolk,VA,,US,,,,Citibank,Q857063
29682,citi,ATM 7ELEVEN-FCTI,,Norfolk,VA,,US,,,,Citibank,Q857063
50635,citi,ATM CVS,,Norfolk,VA,,US,,,,Citibank,Q857063
10021,cvs_us,CVS Pharmacy,,Norfolk,VA,,US,+1 757-533-9134,https://www.cvs.com/store-locator/norfolk-va-pharmacies/3717-hampton-blvd-norfolk-va-23508/storeid=10021,Mo-Su 07:00-00:00,CVS Pharmacy,Q2078880
4231,dominos_pizza_us,Domino's Pizza,,Norfolk,VA,,US,+1 757-512-5655,https://pizza.dominos.com/virginia/norfolk/4412-monarch-way,Mo-Th 10:00-24:00; Fr-Sa 10:00-01:00; Su 10:00-24:00,Domino's,Q839466
346443,dunkin_us,Dunkin',,Norfolk,VA,,US,+1 757-489-7990,https://locations.dunkindonuts.com/en/va/norfolk/3901-hampton-blvd/346443,Mo-Fr 04:30-20:00; Sa-Su 05:00-20:00,Dunkin',Q847743
4427-hampton-blvd,einsteinbros,Old Dominion - Library Einstein Bros. Bagels,,Norfolk,VA,,US,+1 757-683-7012,https://locations.einsteinbros.com/us/va/norfolk/4427-hampton-blvd,,Einstein Bros. Bagels,Q5349788
ORFOD,marriott,SpringHill Suites Norfolk Old Dominion University,,Norfolk,VA,,US,+1 757-423-4100,https://www.marriott.com/ORFOD,,SpringHill Suites,Q7580351
68963626,moneygram,CVS - #10021,,NORFOLK,VA,,US,+1 757-533-9134,,Mo-Su 07:00-22:00,MoneyGram,Q1944412
va_norfolk_4100-colley-avenue,pizza_hut_us,4100 Colley Avenue,,Norfolk,VA,,US,,https://locations.pizzahut.com/va/norfolk/4100-colley-avenue,,Pizza Hut,Q191615
https://www.publicstorage.com/self-storage-va-norfolk/2367.html,public_storage_us,Public Storage,,Norfolk,VA,,US,+1 757-275-8242,https://www.publicstorage.com/self-storage-va-norfolk/2367.html,,Public Storage,Q1156045
https://locations.qdoba.com/us/va/norfolk/4607-hampton-blvd--1110.html,qdoba,QDOBA Old Dominion University,,Norfolk,VA,,US,+1 888-736-2224,https://locations.qdoba.com/us/va/norfolk/4607-hampton-blvd--1110.html,Mo-Fr 11:00-20:00; Su 11:00-19:00,Qdoba,Q1363885
35685,seven_eleven_ca_us,7-Eleven Store,,Norfolk,VA,,US,+1 757-423-3043,https://www.7-eleven.com/locations/va/norfolk/4803-powhatan-ave-35685,,7-Eleven,Q259340
https://restaurants.subway.com/#14915152,subway,Subway Shell Gas Station/C-Store,,Norfolk Norfolk City,VA,,US,+1 757-489-0352,https://restaurants.subway.com/united-states/va/norfolk/4902-hampton-blvd,Mo-Fr 07:00-23:00; Sa-Su 08:00-23:00,Subway,Q244457
https://locations.tacobell.com/#6143767,taco_bell,Taco Bell,,Norfolk,VA,,US,+1 757-423-0825,https://locations.tacobell.com/va/norfolk/4009-hampton-blvd-.html,Mo-Th 08:00-24:00; Fr-Sa 08:00-01:00; Su 08:00-24:00,Taco Bell,Q752941
2350800001,usps_collection_boxes,USPS COLLECTION BOX - BLUE BOX,6500 HAMPTON BLVD,NORFOLK,VA,,US,,,,United States Postal Service,Q668687
2350800010,usps_collection_boxes,USPS COLLECTION BOX - BLUE BOX,1106 LARCHMONT CRES,NORFOLK,VA,,US,,,,United States Postal Service,Q668687
2350800042,usps_collection_boxes,USPS COLLECTION BOX - BLUE BOX,1300 49TH ST,NORFOLK,VA,,US,,,,United States Postal Service,Q668687
2350800002,usps_collection_boxes,USPS COLLECTION BOX - BLUE BOX,4712 HAMPTON BLVD,NORFOLK,VA,,US,,,,United States Postal Service,Q668687
2350800066,usps_collection_boxes,USPS COLLECTION BOX - PO LOBBY,3800 COLLEY AVE,NORFOLK,VA,,US,,,,United States Postal Service,Q668687
2350800025,usps_collection_boxes,USPS COLLECTION BOX - BLUE BOX,4313 COLONIAL AVE,NORFOLK,VA,,US,,,,United States Postal Service,Q668687
,visa,,,NORFOLK,VA,,US,,,,,
,visa,,,NORFOLK,VA,,US,,,,,
,visa,,,NORFOLK,VA,,US,,,,,
,visa,,,NORFOLK,VA,,US,,,,,
,visa,,,NORFOLK,VA,,US,,,,,
,visa,,,NORFOLK,VA,,US,,,,,
,visa,,,NORFOLK,VA,,US,,,,,
,visa,,,NORFOLK,VA,,US,,,,,
,visa,,,NORFOLK,VA,,US,,,,,
,visa,,,NORFOLK,VA,,US,,,,,
,visa,,,NORFOLK,VA,,US,,,,,
,visa,,,NORFOLK,VA,,US,,,,,
,visa,,,NORFOLK,VA,,US,,,,,
,visa,,,NORFOLK,VA,,US,,,,,
,visa,,,NORFOLK,VA,,US,,,,,
,visa,,,NORFOLK,VA,,US,,,,,
,visa,,,NORFOLK,VA,,US,,,,,
,visa,,,NORFOLK,VA,,US,,,,,
,visa,,,NORFOLK,VA,,US,,,,,
,visa,,,NORFOLK,VA,,US,,,,,
,visa,,,NORFOLK,VA,,US,,,,,
,visa,,,NORFOLK,VA,,US,,,,,
,visa,,,NORFOLK,VA,,US,,,,,
,visa,,,NORFOLK,VA,,US,,,,,
,visa,,,NORFOLK,VA,,US,,,,,
,visa,,,NORFOLK,VA,,US,,,,,
,visa,,,NORFOLK,VA,,US,,,,,
,visa,,,NORFOLK,VA,,US,,,,,
,visa,,,NORFOLK,VA,,US,,,,,
,visa,,,NORFOLK,VA,,US,,,,,
,visa,,,NORFOLK,VA,,US,,,,,
,visa,,,NORFOLK,VA,,US,,,,,
,visa,,,NORFOLK,VA,,US,,,,,
,visa,,,NORFOLK,VA,,US,,,,,
,visa,,,NORFOLK,VA,,US,,,,,
,visa,,,NORFOLK,VA,,US,,,,,
f82f32f89ed573a59e2713ca10d031ad,western_union,7-ELEVEN #24641,,Norfolk,VA,,US,+1 757-334-5379,https://location.westernunion.com/us/va/norfolk/f82f32f89ed573a59e2713ca10d031ad,,Western Union,Q861042
4b12ca08500ccc295718408e36f2b809,western_union,7-ELEVEN #19345,,Norfolk,VA,,US,+1 757-423-4701,https://location.westernunion.com/us/va/norfolk/4b12ca08500ccc295718408e36f2b809,,Western Union,Q861042
