Ref,Spider,Name,Address,City,State,Zipcode,Country,Phone,Website,Hours,Brand,WikiData
https://locations.baskinrobbins.com/md/scaggsville/8305-ice-crystal-dr-341097-br,baskin_robbins_us,Baskin-Robbinsâ„¢,,Scaggsville,MD,,US,+1 301-498-3250,https://locations.baskinrobbins.com/md/scaggsville/8305-ice-crystal-dr-341097-br,Mo-Sa 05:00-21:00; Su 06:00-21:00,Baskin-Robbins,Q584601
130853,bluerhino,Food Lion #2501,,Scaggsville,MD,,US,+1 301-362-1375,,,Blue Rhino,Q65681213
185329,bluerhino,Weis #122,,Laurel,MD,,US,+1 301-725-2140,,,Blue Rhino,Q65681213
185309,bluerhino,Weis #045,,Laurel,MD,,US,+1 301-362-7301,,,Blue Rhino,Q65681213
,credit_union_us,Market USA FCU,,Laurel,MD,,US,+1 301-586-3400,,Mo-Fr 09:00-04:00,,
341097,dunkin_us,Dunkin',,Scaggsville,MD,,US,+1 301-498-3250,https://locations.dunkindonuts.com/en/md/scaggsville/8305-ice-crystal-dr/341097,Mo-Sa 05:00-21:00; Su 06:00-21:00,Dunkin',Q847743
345682,dunkin_us,Dunkin',,Laurel,MD,,US,+1 301-498-2444,https://locations.dunkindonuts.com/en/md/laurel/7530-montpelier-rd/345682,Mo-Fr 05:00-18:00; Sa 05:00-17:00; Su 06:00-17:00,Dunkin',Q847743
E1162Q,enterprise,Laurel Washington Blvd.,,Laurel,MD,,US,+1 301-617-9677,,,Enterprise Rent-A-Car,Q17085454
200313883,exxonmobil,JOHN HOPKINS EXXON,,LAUREL,MD,,US,+1 301-725-7171,https://www.exxon.com/en/find-station/exxon-laurel-md-johnhopkinsexxon-200313883,24/7,Exxon,Q109675651
200311422,exxonmobil,"DUNCAN SERVICES, INC.",,LAUREL,MD,,US,+1 301-483-4404,https://www.exxon.com/en/find-station/exxon-laurel-md-duncanservicesinc-200311422,24/7,Exxon,Q109675651
073204,kindercare,Laurel Knowledge Beginnings,,Laurel,MD,,US,,https://www.kindercare.com/our-centers/laurel/md/073204,,KinderCare Learning Centers,Q6410551
https://locations.mtb.com/#25082181,mt_bank_us,,,,MD,,US,+1 800-724-2440,https://locations.mtb.com/md/laurel/bank-branches-and-atms-laurel-md-rt19966.html,24/7,M&T Bank,Q3272257
https://locations.papajohns.com/#10691170,papa_johns,Papa John's,,Laurel,MD,,US,+1 301-725-9404,https://locations.papajohns.com/united-states/md/20723/laurel/8851-gorman-road,Mo-Th 10:00-23:00; Fr-Sa 10:00-24:00; Su 10:00-23:00,Papa John's Pizza,Q2759586
md_laurel_9155-maier-rd,pizza_hut_us,9155 Maier Rd,,Laurel,MD,,US,+1 301-725-0747,https://locations.pizzahut.com/md/laurel/9155-maier-rd,,Pizza Hut,Q191615
32975,seven_eleven_ca_us,7-11 Str   9651 Washington Blvd,,Laurel,MD,,US,+1 301-617-9920,https://www.7-eleven.com/locations/md/laurel/9651-washington-blvd-32975,,7-Eleven,Q259340
2455,shellrecharge,BGE-HCLS Savage Branch,,Laurel,MD,,US,,,,Shell Recharge,Q105883058
https://restaurants.subway.com/#14913404,subway,Subway,,Laurel Prince Georges,MD,,US,+1 301-483-0222,https://restaurants.subway.com/united-states/md/laurel/9105-k-all-saints-rd,Mo-Fr 08:30-22:00; Sa 09:00-22:00; Su 10:00-21:00,Subway,Q244457
https://restaurants.subway.com/#14916980,subway,Subway Montpelier Retail Center,,Laurel Howard,MD,,US,+1 301-776-6446,https://restaurants.subway.com/united-states/md/laurel/7500-montpelier-rd,Mo-Fr 07:30-21:30; Sa-Su 09:30-20:00,Subway,Q244457
https://restaurants.subway.com/#14895049,subway,Subway Cherry Tree Crossing,,Laurel Howard,MD,,US,+1 301-604-0599,https://restaurants.subway.com/united-states/md/laurel/8305-ice-crystal-drive,Mo-Fr 07:30-21:30; Sa-Su 09:30-20:00,Subway,Q244457
2072300001,usps_collection_boxes,USPS COLLECTION BOX - BLUE BOX,9713 COUNTRY MEADOWS LN,LAUREL,MD,,US,,,,United States Postal Service,Q668687
2072300002,usps_collection_boxes,USPS COLLECTION BOX - BLUE BOX,9101 ALL SAINTS RD,LAUREL,MD,,US,,,,United States Postal Service,Q668687
10837,vestis_uniform_services_us,Vestis Laurel,,Laurel,MD,,US,+1 443-992-4665,https://www.vestis.com/our-locations/vestis-laurel,,Vestis,Q122947676
,visa,,,LAUREL,MD,,US,,,,,
,visa,,,LAUREL,MD,,US,,,,,
,visa,,,LAUREL,MD,,US,,,,,
,visa,,,LAUREL,MD,,US,,,,,
,visa,,,LAUREL,MD,,US,,,,,
,visa,,,LAUREL,MD,,US,,,,,
,visa,,,LAUREL,MD,,US,,,,,
,visa,,,LAUREL,MD,,US,,,,,
,visa,,,COLUMBIA,MD,,US,,,,,
,visa,,,COLUMBIA,MD,,US,,,,,
,visa,,,LAUREL,MD,,US,,,,,
,visa,,,LAUREL,MD,,US,,,,,
,visa,,,LAUREL,MD,,US,,,,,
,visa,,,LAUREL,MD,,US,,,,,
,visa,,,LAUREL,MD,,US,,,,,
,visa,,,LAUREL,MD,,US,,,,,
,visa,,,LAUREL,MD,,US,,,,,
,visa,,,LAUREL,MD,,US,,,,,
,visa,,,LAUREL,MD,,US,,,,,
,visa,,,LAUREL,MD,,US,,,,,
,visa,,,LAUREL,MD,,US,,,,,
,visa,,,LAUREL,MD,,US,,,,,
,visa,,,LAUREL,MD,,US,,,,,
,visa,,,LAUREL,MD,,US,,,,,
,visa,,,LAUREL,MD,,US,,,,,
,visa,,,LAUREL,MD,,US,,,,,
,visa,,,LAUREL,MD,,US,,,,,
,visa,,,LAUREL,MD,,US,,,,,
,visa,,,LAUREL,MD,,US,,,,,
,visa,,,LAUREL,MD,,US,,,,,
,visa,,,LAUREL,MD,,US,,,,,
,visa,,,LAUREL,MD,,US,,,,,
,visa,,,LAUREL,MD,,US,,,,,
,visa,,,LAUREL,MD,,US,,,,,
,visa,,,LAUREL,MD,,US,,,,,
,visa,,,LAUREL,MD,,US,,,,,
https://locations.wendys.com/#9253538,wendys,"Wendy's Savage in Laurel, MD",,Laurel,MD,,US,+1 301-362-1528,https://locations.wendys.com/united-states/md/laurel/8850-gorman-road,"Mo-Su 06:30-10:30,07:00-22:00",Wendy's,Q550258
ed1a96568b80e7b4c097e0b5f63ae6ac,western_union,LAS PAISANAS MULTISERVICES LLC,,Laurel,MD,,US,+1 240-584-3249,https://location.westernunion.com/us/md/laurel/ed1a96568b80e7b4c097e0b5f63ae6ac,Mo-Su 08:00-22:00,Western Union,Q861042
1ffbf6d302a81c1ac2496199c587e1f2,western_union,7-ELEVEN #32975,,Laurel,MD,,US,+1 301-617-9920,https://location.westernunion.com/us/md/laurel/1ffbf6d302a81c1ac2496199c587e1f2,,Western Union,Q861042
