Ref,Spider,Name,Address,City,State,Zipcode,Country,Phone,Website,Hours,Brand,WikiData
47,aaa,Hamden Branch,,Hamden,CT,,US,+1 203-937-2597,,,American Automobile Association,Q463436
quinnipiac-university,aubonpain,Au Bon Pain,,Hamden,CT,,US,+1 203-582-8250,https://www.aubonpain.com/stores/quinnipiac-university,Mo-Fr 08:30-14:30,Au Bon Pain,Q4818942
152291,bluerhino,Walgreens #9101,,Hamden,CT,,US,+1 203-288-5217,,,Blue Rhino,Q65681213
89435,citi,ATM Walgreens,,Hamden,CT,,US,,,,Citibank,Q857063
94537,citi,ATM Webster Bank,,Hamden,CT,,US,,,,Citibank,Q857063
4035,dominos_pizza_us,Domino's Pizza,,Hamden,CT,,US,+1 203-288-3800,https://pizza.dominos.com/connecticut/hamden/2545-whitney-ave,Mo-Th 10:30-24:00; Fr-Sa 10:30-01:00; Su 10:30-24:00,Domino's,Q839466
341296,dunkin_us,Dunkin',,Hamden,CT,,US,+1 203-230-5884,https://locations.dunkindonuts.com/en/ct/hamden/2490-whitney-ave/341296,Mo-Su 05:00-21:00,Dunkin',Q847743
331287,dunkin_us,Dunkin',,Hamden,CT,,US,+1 203-287-5442,https://locations.dunkindonuts.com/en/ct/hamden/3300-whitney-ave/331287,Mo-Su 05:00-19:00,Dunkin',Q847743
3371,gulf_pr_us,WHITNEY AVE GULF,,Hamden,CT,,US,+1 203-248-0911,https://www.gulfoil.com/whitney-ave-gulf,,Gulf Oil,Q5617505
301764,kindercare,Mt. Carmel KinderCare,,Hamden,CT,,US,,https://www.kindercare.com/our-centers/hamden/ct/301764,,KinderCare Learning Centers,Q6410551
HVNRH,marriott,Residence Inn New Haven Hamden,,Hamden,CT,,US,+1 203-691-5123,https://www.marriott.com/HVNRH,,Residence Inn by Marriott,Q7315394
1490,mightyflame,EXPRESS FOOD MART,,HAMDEN,CT,,US,+1 203-288-9577,,,Mighty Flame,
https://locations.mtb.com/#54321810,mt_bank_us,,,,CT,,US,+1 800-724-2440,https://locations.mtb.com/ct/hamden/bank-branches-and-atms-hamden-ct-sa7213.html,24/7,M&T Bank,Q3272257
https://locations.mtb.com/#15636655,mt_bank_us,M&T Bank,,,CT,,US,+1 203-974-6280,https://locations.mtb.com/ct/hamden/bank-branches-and-atms-hamden-ct-8361.html,Mo-Th 09:00-16:00; Fr 09:00-17:00; Sa 09:00-12:00,M&T Bank,Q3272257
https://locations.mtb.com/#3027831,mt_bank_us,M&T Bank,,,CT,,US,+1 203-248-1115,https://locations.mtb.com/ct/hamden/bank-branches-and-atms-hamden-ct-8220.html,Mo-Th 09:00-16:00; Fr 09:00-17:00; Sa 09:00-12:00,M&T Bank,Q3272257
32390,smilebrands,Mondovi Dental Hamden,4193 Whitney Ave,Hamden,CT,,US,+1 203-248-4080,https://mondovidental.com/locations/connecticut-dental-centers/hamden-ct/,,Smile Brands Inc.,Q108286823
https://restaurants.subway.com/#14916634,subway,Subway,,Hamden New Haven,CT,,US,+1 203-281-7929,https://restaurants.subway.com/united-states/ct/hamden/2411-whitney-avenue,Mo-Sa 08:00-22:00; Su 09:00-21:00,Subway,Q244457
2560,upsstore,Hamden,3000 Whitney Ave,Hamden,CT,,US,+1 203-288-8685,https://locations.theupsstore.com/ct/hamden/3000-whitney-ave,,UPS Store,Q7771029
1443966,usps,MOUNT CARMEL,,HAMDEN,CT,,US,+1 203-407-5822,,Mo-Fr 07:30-17:00; Sa 08:00-12:00,United States Postal Service,Q668687
1374188,usps,MOUNT CARMEL CARRIER ANNEX,,HAMDEN,CT,,US,+1 203-248-8061,,,United States Postal Service,Q668687
0651800005,usps_collection_boxes,USPS COLLECTION BOX - BLUE BOX,3490 WHITNEY AVE,HAMDEN,CT,,US,,,,United States Postal Service,Q668687
0651800008,usps_collection_boxes,USPS COLLECTION BOX - BLUE BOX,2319 WHITNEY AVE,HAMDEN,CT,,US,,,,United States Postal Service,Q668687
0651800038,usps_collection_boxes,USPS COLLECTION BOX - PO LOBBY,2305 WHITNEY AVE,HAMDEN,CT,,US,,,,United States Postal Service,Q668687
0651800039,usps_collection_boxes,USPS COLLECTION BOX - PO LOBBY,2514 WHITNEY AVE,HAMDEN,CT,,US,,,,United States Postal Service,Q668687
0651800030,usps_collection_boxes,USPS COLLECTION BOX - PO LOBBY,2514 WHITNEY AVE,HAMDEN,CT,,US,,,,United States Postal Service,Q668687
0651800034,usps_collection_boxes,USPS COLLECTION BOX - BLUE BOX,2901 DIXWELL AVE,HAMDEN,CT,,US,,,,United States Postal Service,Q668687
0651800025,usps_collection_boxes,USPS COLLECTION BOX - BLUE BOX,1 EVERGREEN AVE,HAMDEN,CT,,US,,,,United States Postal Service,Q668687
0651800004,usps_collection_boxes,USPS COLLECTION BOX - BLUE BOX,3190 WHITNEY AVE,HAMDEN,CT,,US,,,,United States Postal Service,Q668687
,visa,,,HAMDEN,CT,,US,,,,,
,visa,,,HAMDEN,CT,,US,,,,,
,visa,,,HAMDEN,CT,,US,,,,,
,visa,,,HAMDEN,CT,,US,,,,,
,visa,,,HAMDEN,CT,,US,,,,,
,visa,,,HAMDEN,CT,,US,,,,,
https://www.walgreens.com/locator/walgreens-2505+whitney+ave-hamden-ct-06518/id=9101,walgreens,Walgreens,,Hamden,CT,,US,+1 203-288-5217,https://www.walgreens.com/locator/walgreens-2505+whitney+ave-hamden-ct-06518/id=9101,Mo-Su 07:00-23:00,Walgreens,Q1591889
