Ref,Spider,Name,Address,City,State,Zipcode,Country,Phone,Website,Hours,Brand,WikiData
https://restaurants.applebees.com/en-us/ga/stone-mountain/5200-stone-mountain-hwy-85062,applebees,Connect with this Applebee's,,Stone Mountain,GA,,US,+1 770-879-8549,https://restaurants.applebees.com/en-us/ga/stone-mountain/5200-stone-mountain-hwy-85062,Mo-Th 11:00-24:00; Fr-Sa 11:00-02:00; Su 11:00-23:00,Applebees,Q621532
4847,autozone_us,AutoZone Auto Parts Stone Mountain,,Stone Mountain,GA,,US,+1 770-465-3011,https://www.autozone.com/locations/ga/stone-mountain/404-n-deshon-rd.html,Mo-Sa 07:30-21:00; Su 08:30-20:00,AutoZone,Q4826087
https://locators.bankofamerica.com/ga/stonemountain/financial-centers-stone-mountain-9711.html,bankofamerica,Bank of America Financial Center & Drive-Thru ATM | Stone Mountain,,Stone Mountain,GA,,US,+1 770-498-5250,https://locators.bankofamerica.com/ga/stonemountain/financial-centers-stone-mountain-9711.html,Mo-Fr 09:00-17:00; Sa 09:00-14:00,Bank of America,Q487907
https://locations.baskinrobbins.com/ga/stone-mountain/5161-highway-78-302851-br,baskin_robbins_us,Baskin-Robbinsâ„¢,,Stone Mountain,GA,,US,+1 678-344-9920,https://locations.baskinrobbins.com/ga/stone-mountain/5161-highway-78-302851-br,24/7,Baskin-Robbins,Q584601
345,bealls_us,Bealls,,Stone Mountain,GA,,US,+1 770-413-5700,https://stores.bealls.com/ga/stonemountain/clothing-store-345.html,Mo-Th 10:00-20:00; Fr 10:00-21:00; Sa 09:00-21:00; Su 11:00-20:00,Bealls,Q4876153
https://local.biglots.com/#13190947,biglots,Big Lots - Stone Mountain,,Stone Mountain,GA,,US,+1 770-413-0524,https://local.biglots.com/ga/stone-mountain/5370-stone-mountain-hwy,Mo-Th 10:00-21:00; Fr-Sa 09:00-21:00; Su 11:00-19:00,Big Lots,Q4905973
208481,bluerhino,Trubuy BP (Ram USA Inc.) - ARA #3319,,Stone Mountain,GA,,US,+1 770-469-3020,,,Blue Rhino,Q65681213
167433,bluerhino,Food Depot #47 Stone Mt - #622227,,Stone Mountain,GA,,US,+1 770-413-8580,,,Blue Rhino,Q65681213
168381,bluerhino,Kroger #449 - Atlanta-Fuel Site,,Stone Mountain,GA,,US,+1 770-225-1853,,,Blue Rhino,Q65681213
86650,bluerhino,Kroger #449 - Atlanta,,Stone Mountain,GA,,US,+1 770-225-1877,,,Blue Rhino,Q65681213
153938,bluerhino,Walgreens #07608,,Stone Mountain,GA,,US,+1 770-935-5607,,,Blue Rhino,Q65681213
1190,bluerhino,Walmart #1184,,Stone Mountain,GA,,US,+1 770-469-8660,,,Blue Rhino,Q65681213
11486215265503008700100000000000,bp,BP,,Stone Mountain,GA,,US,+1 770-469-3020,,Mo-Fr 05:00-23:30; Sa 06:00-23:30; Su 07:00-23:30,BP,Q152057
https://stores.catofashions.com/#26560639,cato_us,Cato,,,GA,,US,+1 770-413-0612,https://stores.catofashions.com/ga/stone-mountain/5370-highway-78,Mo-Sa 10:00-19:00; Su 13:00-18:00,Cato,Q16956136
15031687,chase_us,Five Forks Trickum and Rockbridge - New branch,,Stone Mountain,GA,,US,+1 678-459-1470,https://locator.chase.com/ga/stone-mountain/5454-five-forks-trickum-rd,Mo-Fr 09:00-17:00; Sa 09:00-14:00,Chase,Q524629
60974,citi,ATM Kroger,,Stone Mountain,GA,,US,,,,Citibank,Q857063
91777,citi,ATM Walgreens,,Stone Mountain,GA,,US,,,,Citibank,Q857063
57758,citi,ATM GEORGIA'S OWN CREDIT UNION,,Stone Mountain,GA,,US,,,,Citibank,Q857063
52596,citi,ATM CVS,,Stone Mountain,GA,,US,,,,Citibank,Q857063
70235480,cricket_wireless,Cricket Wireless Authorized Retailer,,Stone Mountain,GA,,US,+1 678-585-1444,https://www.cricketwireless.com/stores/ll/US/GA/Stone-Mountain/1825-Rockbridge-Rd,Mo-Sa 10:00-19:00; Su 12:00-18:00,Cricket Wireless,Q5184987
2116,cvs_us,CVS Pharmacy,,Stone Mountain,GA,,US,+1 770-469-2002,https://www.cvs.com/store-locator/stone-mountain-ga-pharmacies/7207-rockbridge-road-stone-mountain-ga-30087/storeid=2116,Mo-Th 08:00-22:00; Fr-Sa 08:00-23:00; Su 08:00-22:00,CVS Pharmacy,Q2078880
4147,dominos_pizza_us,Domino's Pizza,,Stone Mountain,GA,,US,+1 770-469-1806,https://pizza.dominos.com/georgia/stone-mountain/5761-a-rockbridge-rd-sw,Mo-Th 10:30-24:00; Fr-Sa 10:30-01:00; Su 10:30-24:00,Domino's,Q839466
4155,dominos_pizza_us,Domino's Pizza,,Stone Mountain,GA,,US,+1 678-392-3130,https://pizza.dominos.com/georgia/stone-mountain/7184-rockbridge-rd-ste-1101,Mo-Th 10:30-24:00; Fr-Sa 10:30-01:00; Su 10:30-24:00,Domino's,Q839466
302851,dunkin_us,Dunkin',,Stone Mountain,GA,,US,+1 678-344-9920,https://locations.dunkindonuts.com/en/ga/stone-mountain/5161-highway-78/302851,24/7,Dunkin',Q847743
500896,extra_space_storage,Stone Mountain Self Storage at 5151 Annistown Rd,,Stone Mountain,GA,,US,+1 770-465-9500,https://www.extraspace.com/storage/facilities/us/georgia/stone_mountain/500896/,Mo-Fr 09:30-18:00; Sa 09:00-17:30,Extra Space Storage,Q5422162
200327913,exxonmobil,ANNISTOWN FOOD MART,,STONE MOUNTAIN,GA,,US,+1 678-336-9963,https://www.exxon.com/en/find-station/exxon-stonemountain-ga-annistownfoodmart-200327913,Mo-Su 06:00-23:30,Exxon,Q109675651
https://local.fedex.com/#25197179,fedex,,,Stone Mountain,GA,,US,+1 800-463-3339,https://local.fedex.com/en-us/ga/stone-mountain/p645f,,FedEx,Q459477
https://locations.fivebelow.com/ga/stone-mountain/5370-us-highway-78,five_below,Five Below Stone Mountain Square,,Stone Mountain,GA,,US,,https://locations.fivebelow.com/ga/stone-mountain/5370-us-highway-78,Mo-Sa 10:00-20:00; Su 11:00-18:00,Five Below,Q5455836
3702,gamestop_us,Stone Mountain Festival,,Stone Mountain,GA,,US,+1 770-879-5560,https://www.gamestop.com/search/?store=3702,Mo-Th 11:00-20:00; Fr-Sa 10:00-21:00; Su 11:00-20:00,GameStop,Q202210
atlanta_sheldon-whittaker,geico,Sheldon Whittaker,,Stone Mountain,GA,,US,+1 770-576-2400,https://www.geico.com/insurance-agents/georgia/atlanta/sheldon-whittaker/,,GEICO,Q1498689
https://stores.gnc.com/#24059664,gnc,GNC Stone Mountain Square,,,GA,,US,+1 770-274-0434,https://stores.gnc.com/all-stores-georgia/stone-mountain/5370-us-highway-78,Mo-Sa 10:00-20:00; Su 11:00-18:00,GNC,Q4808595
https://salons.greatclips.com/us/ga/stone-mountain/1227-rockbridge-rd,greatclips,Great Clips,,Stone Mountain,GA,,US,+1 470-719-9875,https://salons.greatclips.com/us/ga/stone-mountain/1227-rockbridge-rd,Mo-Fr 10:00-19:00; Sa 09:00-18:00; Su 10:00-17:00,Great Clips,Q5598967
https://www.harborfreight.com/storelocator/1825-rockbridge-rd-ste-22b-stone-mountain-30087?number=3349,harborfreight,"Harbor Freight Tools Stone Mountain, GA",,Stone Mountain,GA,,US,+1 470-207-2888,https://www.harborfreight.com/storelocator/1825-rockbridge-rd-ste-22b-stone-mountain-30087?number=3349,Mo-Sa 08:00-20:00; Su 09:00-18:00,Harbor Freight Tools,Q5654601
1500518,hardees_us,Hardee's,,Stone Mountain,GA,,US,+1 770-469-0345,https://locations.hardees.com/ga/stone-mountain/5259-stone-mountain-hwy,,Hardee's,Q1585088
16,honey_baked,HoneyBaked of Stone Mountain,,Stone Mountain,GA,,US,+1 770-879-1230,https://www.honeybaked.com/stores/16,,Honey Baked Ham,Q5893363
https://office.jacksonhewitt.com/#27576584,jackson_hewitt,Jackson Hewitt,,Stone Mountain,GA,,US,+1 770-465-2818,https://office.jacksonhewitt.com/tax-preparation-services-locations/en/ga/stone-mountain/5226-stone-mountain-highway/15339,Mo-Fr 10:00-19:00; Sa 10:00-17:00,Jackson Hewitt,Q6117132
https://locations.kfc.com/#11249237,kfc,Chicken Nuggets Near Stone Mountain,,Stone Mountain,GA,,US,,https://locations.kfc.com/ga/stone-mountain/5290-highway-78/chickennugget,Mo-Su 10:30-23:00,KFC,Q524757
18795,mattress_firm_us,Mattress Firm Clearance Center Stone Mountain,,Stone Mountain,GA,,US,+1 770-465-2477,https://www.mattressfirm.com/en-us/stores/ga/stone-mountain/007030/,,Mattress Firm Clearance,Q6791878
71476281,moneygram,WAL-MART - #1184,,STONE MOUNTAIN,GA,,US,+1 770-469-8660,,Mo-Sa 08:00-20:00; Su 10:00-18:00,MoneyGram,Q1944412
7052,murphy_usa_us,,,Stone Mountain,GA,,US,+1 770-498-2016,,Mo-Su 05:30-23:00,Murphy USA,Q19604459
aa61c6f3-9da3-4322-a318-f84ff9c26c26,northside_hospital_us,North Atlanta Medical Associates - Stone Mountain,,Stone Mountain,GA,,US,+1 770-469-4131,https://www.northside.com/locations/north-atlanta-medical-associates-stone-mountain,,Northside Hospital,Q7059745
1316,orangetheory_fitness,"Stone Mountain, GA",,Stone Mountain,GA,,US,+1 770-604-1812,,,Orangetheory Fitness,Q25005163
https://locations.oreillyauto.com/ga/stonemountain/check-engine-light-testing-1915.html,oreilly,Your Stone Mountain O'Reilly Auto Parts Store,,Stone Mountain,GA,,US,+1 770-469-7254,https://locations.oreillyauto.com/ga/stonemountain/check-engine-light-testing-1915.html,Mo-Sa 07:30-21:00; Su 09:00-20:00,O'Reilly Auto Parts,Q7071951
https://locations.oreillyauto.com/ga/stonemountain/wiper-installation-1915.html,oreilly,Your Stone Mountain O'Reilly Auto Parts Store,,Stone Mountain,GA,,US,+1 770-469-7254,https://locations.oreillyauto.com/ga/stonemountain/wiper-installation-1915.html,Mo-Sa 07:30-21:00; Su 09:00-20:00,O'Reilly Auto Parts,Q7071951
https://locations.oreillyauto.com/ga/stonemountain/battery-testing-1915.html,oreilly,Your Stone Mountain O'Reilly Auto Parts Store,,Stone Mountain,GA,,US,+1 770-469-7254,https://locations.oreillyauto.com/ga/stonemountain/battery-testing-1915.html,Mo-Sa 07:30-21:00; Su 09:00-20:00,O'Reilly Auto Parts,Q7071951
https://locations.oreillyauto.com/ga/stonemountain/autopartes-1915.html,oreilly,Tu tienda O'Reilly Auto Parts en Stone Mountain,,Stone Mountain,GA,,US,+1 770-469-7254,https://locations.oreillyauto.com/ga/stonemountain/autopartes-1915.html,Mo-Sa 07:30-21:00; Su 09:00-20:00,O'Reilly Auto Parts,Q7071951
https://locations.papajohns.com/#10692834,papa_johns,Papa John's,,Stone Mountain,GA,,US,+1 770-469-6119,https://locations.papajohns.com/united-states/ga/30087/stone-mountain/386-n-deshong-rd,Mo-Th 10:00-24:00; Fr-Sa 10:00-01:00; Su 10:00-24:00,Papa John's Pizza,Q2759586
19282,planet_smoothie_us,Planet Smoothie,,Stone Mountain,GA,,US,+1 770-864-9371,https://www.planetsmoothie.com/stores/stone-mountain/19282,,Planet Smoothie,Q7201170
https://www.publicstorage.com/self-storage-ga-stone-mountain/582.html,public_storage_us,Public Storage,,Stone Mountain,GA,,US,+1 678-942-6373,https://www.publicstorage.com/self-storage-ga-stone-mountain/582.html,,Public Storage,Q1156045
https://locations.quiktrip.com/#16004119,quiktrip_us,QuikTrip Store #795 5065 Stone Mountain Hwy,,Stone Mountain,GA,,US,+1 770-982-9696,https://locations.quiktrip.com/ga/stone-mountain/5065-stone-mountain-hwy,24/7,QuikTrip,Q7271953
8798,regal_nails_us,"Regal Nails, Salon &#038; Spa",1825 Rockbridge Rd,Stone Mountain,GA,,US,+1 770-469-0435,,,Regal Nails,Q108918028
875,ross_dress_for_less_us,Stone Mountain,,Stone Mountain,GA,,US,+1 770-498-0377,,Mo-Th 09:30-21:30; Fr-Sa 09:30-22:00; Su 10:00-21:00,Ross Dress for Less,Q3442791
1072,speedee_us,"Stone Mountain, GA",,Stone Mountain,GA,,US,+1 470-321-3995,https://www.speedeeoil.com/stone-mountain-ga-1072/,Mo-Fr 08:00-19:00; Sa 08:00-17:00,SpeeDee Oil Change and Auto Service,Q120537032
https://restaurants.subway.com/#14894192,subway,Subway Rockbridge Village Shopping Ct,,Stone Mountain Dekalb,GA,,US,+1 770-638-5994,https://restaurants.subway.com/united-states/ga/stone-mountain/1227-rockbridge-rd,Mo-Th 08:30-21:30; Fr 08:00-21:30; Sa 08:30-21:30; Su 08:30-21:00,Subway,Q244457
https://restaurants.subway.com/#14894849,subway,Subway Park Place Square Shopping Ctr,,Stone Mountain Dekalb,GA,,US,+1 770-469-1886,https://restaurants.subway.com/united-states/ga/stone-mountain/1525-east-park-place-blvd,Mo-Su 08:00-21:00,Subway,Q244457
https://restaurants.subway.com/#14899445,subway,Subway Wal-Mart #1184,,Stone Mountain Dekalb,GA,,US,+1 678-476-0900,https://restaurants.subway.com/united-states/ga/stone-mountain/1825-rockbridge-road,Mo-Su 09:00-22:00,Subway,Q244457
https://restaurants.subway.com/#14895518,subway,Subway Deshon Plaza,,Stone Mountain Dekalb,GA,,US,+1 770-559-9685,https://restaurants.subway.com/united-states/ga/stone-mountain/374-deshon-road-north,Mo-Su 08:00-21:00,Subway,Q244457
https://locations.tacobell.com/#6143155,taco_bell,Taco Bell,,Stone Mountain,GA,,US,+1 770-978-9511,https://locations.tacobell.com/ga/stone-mountain/5160-hwy-78.html,Mo-Su 07:00-01:00,Taco Bell,Q752941
10513,tjx,Stone Mountain,5370 Highway 78,Stone Mountain,GA,,US,+1 770-413-0945,,Mo-Sa 09:30-21:30; Su 10:00-20:00,Marshalls,Q15903261
1374142,usps,MOUNTAIN PARK,,STONE MOUNTAIN,GA,,US,+1 770-879-6417,,Mo-Fr 08:30-17:00; Sa 09:00-13:00,United States Postal Service,Q668687
3008700004,usps_collection_boxes,USPS COLLECTION BOX - BLUE BOX,1999 PARKER CT,STONE MTN,GA,,US,,,,United States Postal Service,Q668687
3008700022,usps_collection_boxes,USPS COLLECTION BOX - BLUE BOX,5385 FIVE FORKS TRICKUM RD,STONE MTN,GA,,US,,,,United States Postal Service,Q668687
3008700034,usps_collection_boxes,USPS COLLECTION BOX - APC,1785 E PARK PLACE BLVD STE E,STONE MTN,GA,,US,,,,United States Postal Service,Q668687
3008700030,usps_collection_boxes,USPS COLLECTION BOX - PO LOBBY,1785 E PARK PLACE BLVD,STONE MTN,GA,,US,,,,United States Postal Service,Q668687
3008700039,usps_collection_boxes,USPS COLLECTION BOX - PO LOBBY,1785 E PARK PLACE BLVD STE 201,STONE MTN,GA,,US,,,,United States Postal Service,Q668687
3008700027,usps_collection_boxes,USPS COLLECTION BOX - BLUE BOX,2300 W PARK PL,STONE MTN,GA,,US,,,,United States Postal Service,Q668687
3008700028,usps_collection_boxes,USPS COLLECTION BOX - BLUE BOX,2066 W PARK PL,STONE MTN,GA,,US,,,,United States Postal Service,Q668687
3008700009,usps_collection_boxes,USPS COLLECTION BOX - BLUE BOX,2156 W PARK PL,STONE MTN,GA,,US,,,,United States Postal Service,Q668687
,visa,,,STONE MOUNTAIN,GA,,US,,,,,
,visa,,,STONE MOUNTAIN,GA,,US,,,,,
,visa,,,STONE MOUNTAIN,GA,,US,,,,,
,visa,,,STONE MOUNTAIN,GA,,US,,,,,
,visa,,,STONE MOUNTAIN,GA,,US,,,,,
,visa,,,STONE MOUNTAIN,GA,,US,,,,,
,visa,,,STONE MOUNTAIN,GA,,US,,,,,
,visa,,,STONE MOUNTAIN,GA,,US,,,,,
,visa,,,STONE MOUNTAIN,GA,,US,,,,,
,visa,,,STONE MOUNTAIN,GA,,US,,,,,
,visa,,,STONE MOUNTAIN,GA,,US,,,,,
,visa,,,STONE MOUNTAIN,GA,,US,,,,,
,visa,,,STONE MOUNTAIN,GA,,US,,,,,
,visa,,,STONE MOUNTAIN,GA,,US,,,,,
,visa,,,STONE MOUNTAIN,GA,,US,,,,,
,visa,,,STONEMOUNTAIN,GA,,US,,,,,
,visa,,,STONE MOUNTAIN,GA,,US,,,,,
,visa,,,STONE MOUNTAIN,GA,,US,,,,,
,visa,,,STONE MOUNTAIN,GA,,US,,,,,
,visa,,,STONE MOUNTAIN,GA,,US,,,,,
,visa,,,STONE MTN,GA,,US,,,,,
,visa,,,STONE MOUNTAIN,GA,,US,,,,,
,visa,,,STONE MOUNTAIN,GA,,US,,,,,
,visa,,,STONE MOUNTAIN,GA,,US,,,,,
,visa,,,STONE MOUNTAIN,GA,,US,,,,,
,visa,,,STONE MOUNTAIN,GA,,US,,,,,
,visa,,,STONE MOUNTAIN,GA,,US,,,,,
2126,waffle_house_us,Waffle House #2126,,STONE MOUNTAIN,GA,,US,+1 770-469-8596,https://locations.wafflehouse.com/stonemountain-ga-2126,24/7,Waffle House,Q1701206
https://www.walgreens.com/locator/walgreens-5435+five+forks+trickum+rd-stone+mountain-ga-30087/id=7608,walgreens,Walgreens,,Stone Mountain,GA,,US,+1 770-935-5607,https://www.walgreens.com/locator/walgreens-5435+five+forks+trickum+rd-stone+mountain-ga-30087/id=7608,Mo-Su 08:00-21:00,Walgreens,Q1591889
5170__STONE__MOUNTAIN__HWY_STONE__MOUNTAIN_GA_30087,wellsfargo,,5170 STONE MOUNTAIN HWY,STONE MOUNTAIN,GA,,US,+1 800-869-3557,https://www.wellsfargo.com/locator/bank/5170__STONE__MOUNTAIN__HWY_STONE__MOUNTAIN_GA_30087/,,Wells Fargo,Q744149
2066__PARKER__CT_STONE__MOUNTAIN_GA_30087,wellsfargo,,2066 PARKER CT,STONE MOUNTAIN,GA,,US,+1 800-869-3557,https://www.wellsfargo.com/locator/bank/2066__PARKER__CT_STONE__MOUNTAIN_GA_30087/,,Wells Fargo,Q744149
1815__ROCKBRIDGE__RD_STONE__MOUNTAIN_GA_30087,wellsfargo,Wells Fargo,1815 ROCKBRIDGE RD,STONE MOUNTAIN,GA,,US,+1 770-879-3420,https://www.wellsfargo.com/locator/bank/1815__ROCKBRIDGE__RD_STONE__MOUNTAIN_GA_30087/,Mo-Fr 09:00-17:00,Wells Fargo,Q744149
https://locations.wendys.com/#9255860,wendys,"Wendy's Rockbridge in Stone Mountain, GA",,Stone Mountain,GA,,US,+1 770-469-1233,https://locations.wendys.com/united-states/ga/stone-mountain/1880-rockbridge-road,"Mo-Su 06:30-10:30,06:30-22:00",Wendy's,Q550258
e5ab968ead7c147e57eb63f192193972,western_union,WALMART #001184,,Stone Mountain,GA,,US,+1 770-469-8660,https://location.westernunion.com/us/ga/stone-mountain/e5ab968ead7c147e57eb63f192193972,Mo-Sa 08:00-20:00; Su 10:00-18:00,Western Union,Q861042
6996f929a2ac3c4d705f9ac6fb4f9bfb,western_union,CITGO QUIK MART,,Stone Mountain,GA,,US,+1 770-413-8988,https://location.westernunion.com/us/ga/stone-mountain/6996f929a2ac3c4d705f9ac6fb4f9bfb,Mo-Su 05:00-23:00,Western Union,Q861042
49979,wingstop,Wingstop Stone Mountain E. Park Place Blvd,1525 E. Park Place Blvd Ste 700,Stone Mountain,GA,,US,+1 470-359-5849,,,Wingstop,Q8025339
186,world_finance_us,,"5170 Stone Mountain Hwy Ste C, Stone Mountain, GA, 30087",Stone Mountain,GA,,US,+1 770-879-6440,https://www.loansbyworld.com/branches/branch-186,Mo-Fr 09:00-17:30; Sa 09:00-12:00,World Finance,Q3569971
