Ref,Spider,Name,Address,City,State,Zipcode,Country,Phone,Website,Hours,Brand,WikiData
130294,bluerhino,Kroger #699 - Atlanta,,Smyrna,GA,,US,+1 770-433-3410,,,Blue Rhino,Q65681213
13623,burgerking,Burger King,,Smyrna,GA,,US,+1 770-206-1356,https://www.bk.com/store-locator/store/restaurant_7980,Mo-Su 07:00-22:00,Burger King,Q177054
https://stores.catofashions.com/#26560390,cato_us,Cato,,,GA,,US,+1 770-435-9146,https://stores.catofashions.com/ga/smyrna/4480-south-cobb-drive,Mo-Sa 10:00-20:00; Su 13:00-18:00,Cato,Q16956136
60362,citi,ATM iTHINK Financial Credit Union,,Smyrna,GA,,US,,,,Citibank,Q857063
https://locations.us.express.dhl.com/#8427358,dhl_express_us_ca,DHL Express ServicePoint DHL Building,,,GA,,US,+1 800-225-5345,https://locations.us.express.dhl.com/ga/smyrna/1400-highland-ridge-road-s.e.,Mo-Fr 09:00-20:00,DHL,Q489815
1000000737,extra_space_storage,Smyrna Self Storage at 5218 Oakdale Rd SE,,Smyrna,GA,,US,+1 678-841-7658,https://www.extraspace.com/storage/facilities/us/georgia/smyrna/1000000737/,Mo-Fr 09:30-18:00; Sa 09:00-17:30,Extra Space Storage,Q5422162
4550,fresenius_kidney_care_us,Fresenius Kidney Care Highlands,,Smyrna,GA,,US,+1 800-881-5101,https://www.freseniuskidneycare.com/dialysis-centers/georgia/4550,Mo 06:00-17:00; We 06:00-17:00; Fr 06:00-17:00,,
https://locations.jimmyjohns.com/ga/smyrna/sandwiches-2182.html,jimmy_johns,Jimmy John's,,Smyrna,GA,,US,+1 678-293-5855,https://locations.jimmyjohns.com/ga/smyrna/sandwiches-2182.html,,Jimmy John's,Q1689380
https://healthy.kaiserpermanente.org/georgia/facilities/fresenius-medical-care-highlands-337735,kaiser_permanente_us,Fresenius Medical Care Highlands,,Smyrna,GA,,US,+1 678-303-5064,https://healthy.kaiserpermanente.org/georgia/facilities/fresenius-medical-care-highlands-337735,,Kaiser Permanente,Q1721601
300414,kindercare,Smyrna KinderCare,,Smyrna,GA,,US,,https://www.kindercare.com/our-centers/smyrna/ga/300414,,KinderCare Learning Centers,Q6410551
000167,kindercare,Cooper Lake KinderCare,,Smyrna,GA,,US,,https://www.kindercare.com/our-centers/smyrna/ga/000167,,KinderCare Learning Centers,Q6410551
18635,mattress_firm_us,Mattress Firm Old Ivy Village,,Smyrna,GA,,US,+1 770-805-9784,https://www.mattressfirm.com/en-us/stores/ga/smyrna/007125/,,Mattress Firm,Q6791878
https://www.racetrac.com/locations/georgia/smyrna/ew-connector,racetrac_us,RaceTrac,,Smyrna,GA,,US,+1 770-436-9946,https://www.racetrac.com/locations/georgia/smyrna/ew-connector,,RaceTrac,Q735942
https://www.sprouts.com/store/ga/smyrna/smyrna/,sprouts_farmer_market,Sprouts Farmers Market 518-Smyrna,,Smyrna,GA,,US,+1 770-200-7587,https://www.sprouts.com/store/ga/smyrna/smyrna/,Mo-Su 07:00-22:00,Sprouts Farmer Market,Q7581369
https://restaurants.subway.com/#14905791,subway,Subway,,Smyrna Cobb,GA,,US,+1 678-809-4478,https://restaurants.subway.com/united-states/ga/smyrna/1435-highlands-ridge-rd,Mo-Fr 09:00-21:00; Sa-Su 09:00-20:00,Subway,Q244457
100197,two_men_and_truck,Smyrna,2976 C Ask-Kay Drive,Smyrna,GA,,US,+1 678-305-7304,https://twomenandatruck.com/movers/ga/atlanta/smyrna,,Two Men and a Truck,Q7859087
,visa,,,ATANTA,GA,,US,,,,,
,visa,,,MABLETON,GA,,US,,,,,
,visa,,,MABLETON,GA,,US,,,,,
,visa,,,SMYRNA,GA,,US,,,,,
,visa,,,SMYRNA,GA,,US,,,,,
,visa,,,SMYRNA,GA,,US,,,,,
,visa,,,SMYRNA,GA,,US,,,,,
,visa,,,SMYRNA,GA,,US,,,,,
,visa,,,SMYRNA,GA,,US,,,,,
,visa,,,SMYRNA,GA,,US,,,,,
,visa,,,SMYRNA,GA,,US,,,,,
,visa,,,SMYRNA,GA,,US,,,,,
,visa,,,SMRYNA,GA,,US,,,,,
,visa,,,SMYRNA,GA,,US,,,,,
,visa,,,SMYRNA,GA,,US,,,,,
,visa,,,SMYRNA,GA,,US,,,,,
,visa,,,SMYRNA,GA,,US,,,,,
,visa,,,SMYRNA,GA,,US,,,,,
,visa,,,SMYRNA,GA,,US,,,,,
,visa,,,SYMRNA,GA,,US,,,,,
1563,waffle_house_us,Waffle House #1563,,SMYRNA,GA,,US,+1 770-803-0850,https://locations.wafflehouse.com/smyrna-ga-1563,24/7,Waffle House,Q1701206
2540,wellstar_us,Wellstar Urgent Care,4480 North Cooper Lake Road SE Suite 100,Smyrna,GA,,US,+1 770-333-1300,https://www.wellstar.org/locations/urgent-care/urgent-care-smyrna-4480-north-cooper-lake-road-se-suite-100,Mo-Su 08:00-19:30,WellStar Health System,Q7981073
3204,wellstar_us,Wellstar Chiropractic,562 Concord Road SE,Smyrna,GA,,US,+1 770-384-9900,https://www.wellstar.org/locations/medical-practice/chiropractic-smyrna-562-concord-road-se,Mo-Th 08:00-16:00; Fr 08:00-13:00,WellStar Health System,Q7981073
100583,wellstar_us,Wellstar Kennestone Family Medicine,582 Concord Road SE,Smyrna,GA,,US,+1 470-956-4000,https://www.wellstar.org/locations/medical-practice/kennestone-family-medicine-smyrna-582-concord-road-se,,WellStar Health System,Q7981073
100747,wellstar_us,Wellstar Pediatrics East Cobb,562 Concord Road SE,Smyrna,GA,,US,+1 770-384-9830,https://www.wellstar.org/locations/medical-practice/pediatrics-east-cobb-smyrna-562-concord-road-se,,WellStar Health System,Q7981073
13568,wellstar_us, West Atlanta OB-Gyn Inc,3610 Highlands Parkway SE Building 2,Smyrna,GA,,US,+1 770-444-9981,https://www.wellstar.org/locations/medical-practice/west-atlanta-ob-gyn-inc-smyrna-3610-highlands-parkway-se-building-2,,WellStar Health System,Q7981073
