Ref,Spider,Name,Address,City,State,Zipcode,Country,Phone,Website,Hours,Brand,WikiData
125954,geox,Geox KARLOVY VARY,,KARLOVY VARY,Karlovarsky,,CZ,,https://www.geox.com/int/storedetails?StoreID=125954,,Geox,Q588001
106704,geox,Geox KARLOVY VARY,,KARLOVY VARY,Karlovarsky,,CZ,+420 777 594 662,https://www.geox.com/int/storedetails?StoreID=106704,,Geox,Q588001
,visa,,,JENIŠOV U KARLOVYCH VARŮ,KARLOVARSKY,,CZ,,,,,
,visa,,,JENIŠOV U KARLOVYCH VARŮ,KARLOVARSKY,,CZ,,,,,
,visa,,,JENIŠOV U KARLOVYCH VARŮ,Karlovarsky,,CZ,,,,,
,visa,,,JENISOV,Karlovarsky,,CZ,,,,,
,visa,,,KARLOVY VARY,Karlovarsky,,CZ,,,,,
,visa,,,KARLOVY VARY,Karlovarsky,,CZ,,,,,
,visa,,,KARLOVY VARY,Karlovarsky,,CZ,,,,,
,visa,,,KARLOVY VARY,Karlovarsky,,CZ,,,,,
,visa,,,KARLOVY VARY,Karlovarsky,,CZ,,,,,
,visa,,,KARLOVY VARY,Karlovarsky,,CZ,,,,,
,visa,,,KARLOVY VARY,Karlovarsky,,CZ,,,,,
,visa,,,KARLOVY VARY,Karlovarsky,,CZ,,,,,
,visa,,,KARLOVY VARY,KARLOVARSKY,,CZ,,,,,
,visa,,,KARLOVY VARY,Karlovarsky,,CZ,,,,,
,visa,,,KARLOVY VARY,Karlovarsky,,CZ,,,,,
,visa,,,KARLOVY VARY,Karlovarsky,,CZ,,,,,
,visa,,,KARLOVY VARY,Karlovarsky,,CZ,,,,,
,visa,,,KARLOVY VARY,Karlovarsky,,CZ,,,,,
,visa,,,KARLOVY VARY,Karlovarsky,,CZ,,,,,
,visa,,,KARLOVY VARY,Karlovarsky,,CZ,,,,,
,visa,,,KARLOVY VARY,Karlovarsky,,CZ,,,,,
,visa,,,KARLOVY VARY,Karlovarsky,,CZ,,,,,
,visa,,,KARLOVY VARY,Karlovarsky,,CZ,,,,,
,visa,,,KARLOVY VARY,Karlovarsky,,CZ,,,,,
,visa,,,KARLOVY VARY,Karlovarsky,,CZ,,,,,
,visa,,,KARLOVY VARY,Karlovarsky,,CZ,,,,,
,visa,,,KARLOVY VARY,Karlovarsky,,CZ,,,,,
,visa,,,KARLOVY VARY,KARLOVARSKY,,CZ,,,,,
,visa,,,KARLOVY VARY,Karlovarsky,,CZ,,,,,
,visa,,,KARLOVY VARY,KARLOVARSKY,,CZ,,,,,
,visa,,,KARLOVY VARY,KARLOVARSKY,,CZ,,,,,
,visa,,,KARLOVY VARY,Karlovarsky,,CZ,,,,,
,visa,,,KARLOVY VARY,Karlovarsky,,CZ,,,,,
,visa,,,KARLOVY VARY,KARLOVARSKY,,CZ,,,,,
,visa,,,KARLOVY VARY,KARLOVARSKY,,CZ,,,,,
,visa,,,KARLOVY VARY,Karlovarsky,,CZ,,,,,
,visa,,,KARLOVY VARY,Karlovarsky,,CZ,,,,,
,visa,,,KARLOVY VARY,Karlovarsky,,CZ,,,,,
,visa,,,KARLOVY VARY,Karlovarsky,,CZ,,,,,
