Ref,Spider,Name,Address,City,State,Zipcode,Country,Phone,Website,Hours,Brand,WikiData
68489896,moneygram,SIBL - AKHAURA BRANCH,,BRAHMAN BARIA,,,BD,+880 1712-592457,,24/7,MoneyGram,Q1944412
72406849,moneygram,ISAMI BANK BANGLADESH LIMITED - BAKALIA,,BAKALIA,,,BD,+880 1313-084350,,Mo-Th 09:00-18:00; Fr 00:00-24:00; Sa 09:00-12:00; Su 09:00-18:00,MoneyGram,Q1944412
68809405,moneygram,AIBL - KADAMTOLI,,CHITTAGONG,,,BD,+880 1847-114430,,24/7,MoneyGram,Q1944412
68161758,moneygram,JBL - ASADGONJ CORP.-0057,,CTG GPO,,,BD,321632648,,24/7,MoneyGram,Q1944412
68161761,moneygram,JBL - CHAKTAI-0054,,CTG GPO,,,BD,+880 31-622323,,24/7,MoneyGram,Q1944412
68161813,moneygram,JBL - FOREIGN EXCHANGE CORP. (CTG)-0749,,CTG GPO,,,BD,+880 31-620608,,24/7,MoneyGram,Q1944412
68161703,moneygram,JBL - JUBILEE ROAD-0083,,CTG GPO,,,BD,+880 31-614516,,24/7,MoneyGram,Q1944412
68161651,moneygram,JBL - LADIES-0826,,CTG GPO,,,BD,+880 31-654363,,24/7,MoneyGram,Q1944412
68161745,moneygram,JBL - NEW MARKET CORP.-0082,,CTG GPO,,,BD,+880 31-634904,,24/7,MoneyGram,Q1944412
68161680,moneygram,JBL - AMBAGAN-0757,,CTG GPO,,,BD,+880 31-614555,,24/7,MoneyGram,Q1944412
68161677,moneygram,JBL - BAKALIA-0044,,CTG GPO,,,BD,+880 31-630993,,24/7,MoneyGram,Q1944412
68161693,moneygram,JBL - CITY CORPORATION (CTG)-0022,,CTG GPO,,,BD,+880 31-612686,,24/7,MoneyGram,Q1944412
68161842,moneygram,JBL - KHATUNGONJ CORP.-0009,,CTG GPO,,,BD,+880 31-630480,,24/7,MoneyGram,Q1944412
68161800,moneygram,JBL - KAZIR DEWRI-0766,,CTG GPO,,,BD,+880 31-618309,,24/7,MoneyGram,Q1944412
68161839,moneygram,JBL - LALDIGHI EAST CORP.-0002,,CTG GPO,,,BD,+880 31-611375,,24/7,MoneyGram,Q1944412
68161826,moneygram,JBL - REAZUDDIN BAZAR-0015,,CTG GPO,,,BD,+880 31-613424,,24/7,MoneyGram,Q1944412
72633803,moneygram,PUBALI BANK LIMITED - #261 - CHATTOGRAM,,CHATTOGRAM,,,BD,+880 1713-755831,,Mo-Th 09:00-18:00; Fr 00:00-24:00; Sa-Su 09:00-18:00,MoneyGram,Q1944412
72850181,moneygram,ISLAMI BANK BANGLADESH LIMITED - CHITTAG,,CHITTAGONG,,,BD,+880 1817-048630,,Mo-Th 09:00-18:00; Fr 00:00-24:00; Sa 09:00-12:00; Su 09:00-18:00,MoneyGram,Q1944412
72880588,moneygram,ONE BANK - #94 - COLONEL HAT OBL,,CHITTAGONG,,,BD,+880 3127-71163,,Mo-Th 10:00-18:00; Fr 00:00-24:00; Sa 10:00-15:00; Su 10:00-18:00,MoneyGram,Q1944412
72881367,moneygram,BANK ASIA LIMITED - #13 - KHATUNGANJ BR.,,CHITTAGONG,,,BD,+880 31-610036,,Mo-Th 09:30-17:00; Fr-Sa 00:00-24:00; Su 09:30-17:00,MoneyGram,Q1944412
72880740,moneygram,BANK ASIA LIMITED - #5 - AGRABAD BR.,,CHITTAGONG,,,BD,+880 31-714665,,Mo-Th 09:30-17:00; Fr-Sa 00:00-24:00; Su 09:30-17:00,MoneyGram,Q1944412
72880821,moneygram,BANK ASIA LIMITED - #81 - BANK ASIA BHAB,,CHITTAGONG,,,BD,+880 1713-106206,,Mo-Th 09:30-17:00; Fr-Sa 00:00-24:00; Su 09:30-17:00,MoneyGram,Q1944412
72880342,moneygram,ISLAMI BANK BANGLADESH LIMITED - CHITTAG,,CHITTAGONG,,,BD,+880 1817-042037,,Mo-Th 09:00-18:00; Fr 00:00-24:00; Sa 09:00-12:00; Su 09:00-18:00,MoneyGram,Q1944412
68968469,moneygram,EXIM - SHEIKH MUJIB ROAD BRANCH,,CHITTAGONG,,,BD,+880 31-726901,,24/7,MoneyGram,Q1944412
70499557,moneygram,EXIM - CHITTAGONG,,CHITTAGONG,,,BD,+880 2-9889363,,24/7,MoneyGram,Q1944412
72988956,moneygram,PUBALI BANK LIMITED - #6341 - CHATTOGRAM,,CHATTOGRAM,,,BD,+880 1713-080051,,Mo-Th 09:00-18:00; Fr 00:00-24:00; Sa-Su 09:00-18:00,MoneyGram,Q1944412
69045404,moneygram,ONE BANK LTD - STATION ROAD BRANCH,,CHITTAGONG,,,BD,0312851840,,24/7,MoneyGram,Q1944412
73339410,moneygram,ISLAMI BANK BANGLADESH LIMITED - CHATTOG,,CHATTOGRAM,,,BD,+880 1844-242640,,Mo-Th 09:00-18:00; Fr 00:00-24:00; Sa 09:00-12:00; Su 09:00-18:00,MoneyGram,Q1944412
69134726,moneygram,FSIBL - CHONDONAISH BRANCH,,CHITTAGONG,,,BD,+880 1938-886168,,24/7,MoneyGram,Q1944412
69134742,moneygram,FSIBL - PANCHLAIS BRANCH,,CHITTAGONG,,,BD,193888100,,24/7,MoneyGram,Q1944412
73551696,moneygram,AIBL - #175 - CHITTAGONG - FIRINGI BAZAR,,CHITTAGONG,,,BD,311841123008,,Mo-Th 10:00-18:00; Fr-Sa 00:00-24:00; Su 10:00-18:00,MoneyGram,Q1944412
73632036,moneygram,MEGHNA - #2104 - MEGHNA-JUBILEE ROAD BRA,,CHITTAGONG (METRO),,,BD,+880 1777-797795,,Mo-Th 10:00-18:00; Fr 00:00-24:00; Sa 10:00-17:00; Su 10:00-18:00,MoneyGram,Q1944412
73630847,moneygram,UNION BANK - #265150137 - UBL-AGRABAD,,CHATTOGRAM,,,BD,+880 1858-270740,,Mo-Su 10:00-16:00,MoneyGram,Q1944412
73631118,moneygram,UNION BANK - #265152414 - UBL-DEWAN BAZA,,CHATTOGRAM,,,BD,+880 1918-230541,,Mo-Su 10:00-16:00,MoneyGram,Q1944412
73631367,moneygram,UNION BANK - #265153642 - UBL-JUBILEE RO,,CHATTOGRAM,,,BD,+880 1716-243945,,Mo-Su 10:00-16:00,MoneyGram,Q1944412
73630737,moneygram,UNION BANK - #265154270 - UBL-KHATUNGANJ,,CHATTOGRAM,,,BD,+880 1985-508080,,Mo-Su 10:00-16:00,MoneyGram,Q1944412
73631260,moneygram,UNION BANK - #265154517 - UBL-LALDIGHI,,CHATTOGRAM,,,BD,+880 1618-026700,,Mo-Su 10:00-16:00,MoneyGram,Q1944412
73631545,moneygram,UNION BANK - #265155808 - UBL-O R NIZAM,,CHATTOGRAM,,,BD,+880 1713-229383,,Mo-Su 10:00-16:00,MoneyGram,Q1944412
73694294,moneygram,MUTUAL TRUST BANK LTD - MTB-CDA AVENUE B,,CHITTAGONG,,,BD,+880 31-656810,,Mo-Th 10:00-16:00; Fr-Sa 00:00-24:00; Su 10:00-16:00,MoneyGram,Q1944412
73694388,moneygram,MUTUAL TRUST BANK LTD - MTB-JUBILEE ROAD,,CHITTAGONG,,,BD,+880 31-624922,,Mo-Th 10:00-16:00; Fr-Sa 00:00-24:00; Su 10:00-16:00,MoneyGram,Q1944412
73694333,moneygram,MUTUAL TRUST BANK LTD - MTB-KHATUNGONJ B,,CHITTAGONG,,,BD,+880 31-612254,,Mo-Th 10:00-16:00; Fr-Sa 00:00-24:00; Su 10:00-16:00,MoneyGram,Q1944412
73768887,moneygram,AIBL - #SB5 - CHITTAGONG - ANDARKILLAH B,,CHITTAGONG,,,BD,3101819335952,,Mo-Th 10:00-18:00; Fr-Sa 00:00-24:00; Su 10:00-18:00,MoneyGram,Q1944412
73781275,moneygram,AB BANK LIMITED - AGRABAD BRANCH-ABBL,,CHATTOGRAM,,,BD,+880 31-713381,,Mo-Th 10:00-16:00; Fr-Sa 00:00-24:00; Su 10:00-16:00,MoneyGram,Q1944412
73781770,moneygram,AB BANK LIMITED - JOYPARA BRANCH-ABBL,,CHATTOGRAM,,,BD,88027768164,,Mo-Th 10:00-16:00; Fr-Sa 00:00-24:00; Su 10:00-16:00,MoneyGram,Q1944412
73781835,moneygram,AB BANK LIMITED - KARWAN BAZAR BRANCH-AB,,CHATTOGRAM,,,BD,+880 2-8117598,,Mo-Th 10:00-16:00; Fr-Sa 00:00-24:00; Su 10:00-16:00,MoneyGram,Q1944412
73781945,moneygram,AB BANK LIMITED - MOHAKHALI BRANCH-ABBL,,CHATTOGRAM,,,BD,8809842567,,Mo-Th 10:00-16:00; Fr-Sa 00:00-24:00; Su 10:00-16:00,MoneyGram,Q1944412
73782245,moneygram,AB BANK LIMITED - SREEMONGAL BRANCH-ABBL,,CHATTOGRAM,,,BD,880862671322,,Mo-Th 10:00-16:00; Fr-Sa 00:00-24:00; Su 10:00-16:00,MoneyGram,Q1944412
73783150,moneygram,BASIC BANK LIMITED - #55154277 - CHITTAG,,CHITTAGONG,,,BD,+880 31-614200,,Mo-Th 10:00-16:00; Fr-Sa 00:00-24:00; Su 10:00-16:00,MoneyGram,Q1944412
73807609,moneygram,SIBL - #5803960 - CHATTOGRAM - B.ED COLL,,CHATTOGRAM,,,BD,+880 1839-535254,,Mo-Th 10:00-16:00; Fr-Sa 00:00-24:00; Su 10:00-16:00,MoneyGram,Q1944412
73807117,moneygram,SIBL - #5808011 - CHATTOGRAM - D.T ROAD,,CHATTOGRAM,,,BD,+880 1709-105597,,Mo-Th 10:00-16:00; Fr-Sa 00:00-24:00; Su 10:00-16:00,MoneyGram,Q1944412
73807625,moneygram,SIBL - #5815962 - CHATTOGRAM. - SALTGOLA,,CHATTOGRAM.,,,BD,+880 1815-570739,,Mo-Th 10:00-16:00; Fr-Sa 00:00-24:00; Su 10:00-16:00,MoneyGram,Q1944412
73806985,moneygram,SIBL - #58167 - CHATTOGRAM - BAKALIA BR-,,CHATTOGRAM,,,BD,+880 1817-702450,,Mo-Th 10:00-16:00; Fr-Sa 00:00-24:00; Su 10:00-16:00,MoneyGram,Q1944412
69466407,moneygram,FSIBL - CHITTAGONG - SADARGHAT BRANCH,,CHITTAGONG,,,BD,+880 1938-888108,,24/7,MoneyGram,Q1944412
68161664,moneygram,JBL - WASA CORP. (CTG.)-0546,,CTG GPO,,,BD,+880 31-613073,,24/7,MoneyGram,Q1944412
68161729,moneygram,JBL - FERINGEE BAZAR-0323,,CTG GPO,,,BD,+880 31-630330,,24/7,MoneyGram,Q1944412
68161732,moneygram,JBL - H.S.S. ROAD-0245,,CTG GPO,,,BD,+880 31-619101,,24/7,MoneyGram,Q1944412
73898427,moneygram,ISLAMI BANK BANGLADESH LIMITED - CHATTOG,,CHATTOGRAM,,,BD,+880 1844-242694,,Mo-Th 09:00-18:00; Fr 00:00-24:00; Sa 09:00-12:00; Su 09:00-18:00,MoneyGram,Q1944412
69515361,moneygram,FIRST SECURITY ISLAMI BANK LTD - SADARGH,,CHITTAGONG,,,BD,+880 1938-888108,,24/7,MoneyGram,Q1944412
69518436,moneygram,SIBL - AZADI BAZAR BRANCH,,CHITTAGONG,,,BD,+880 1815-711673,,24/7,MoneyGram,Q1944412
68161787,moneygram,JBL - TERRI BAZAR-0880,,CTG GPO,,,BD,+880 31-638959,,24/7,MoneyGram,Q1944412
73995346,moneygram,IFIC BANK - #452031 - KHATUNGANJ BRANCH-,,CHITTAGONG,,,BD,+880 9666-716250,,Mo-Th 10:00-18:00; Fr 00:00-24:00; Sa 10:00-15:00; Su 10:00-17:00,MoneyGram,Q1944412
73995414,moneygram,IFIC BANK - #452036 - LALDIGHI BRANCH-IF,,CHITTAGONG,,,BD,+880 9666-716250,,Mo-Th 10:00-18:00; Fr 00:00-24:00; Sa 10:00-15:00; Su 10:00-17:00,MoneyGram,Q1944412
73995896,moneygram,IFIC BANK - #452042 - SHAH AMANAT MKT. B,,CHITTAGONG,,,BD,+880 9666-716250,,Mo-Th 10:00-18:00; Fr-Sa 00:00-24:00; Su 10:00-17:00,MoneyGram,Q1944412
73997302,moneygram,IFIC BANK - #458765 - RAHATTAR POOL UPOS,,CHATTOGRAM,,,BD,+880 9666-716250,,Mo-Th 10:00-18:00; Fr-Sa 00:00-24:00; Su 10:00-17:00,MoneyGram,Q1944412
73999300,moneygram,IFIC BANK - #458766 - PATHARGHATA UPOSHA,,CHATTOGRAM,,,BD,+880 9666-716250,,Mo-Th 10:00-18:00; Fr-Sa 00:00-24:00; Su 10:00-17:00,MoneyGram,Q1944412
73997917,moneygram,IFIC BANK - #458800 - SADARGHAT ROAD UPO,,CHATTOGRAM,,,BD,+880 9666-716250,,Mo-Th 10:00-18:00; Fr-Sa 00:00-24:00; Su 10:00-17:00,MoneyGram,Q1944412
73999517,moneygram,IFIC BANK - #458801 - MADARBARI UPOSHAKH,,CHATTOGRAM,,,BD,+880 9666-716250,,Mo-Th 10:00-18:00; Fr-Sa 00:00-24:00; Su 10:00-17:00,MoneyGram,Q1944412
74021659,moneygram,GLOBAL ISLAMI BANK LIMITED - #BD0010092,,CHITTAGONG,,,BD,+880 1716-030688,,Mo-Th 10:00-16:30; Fr-Sa 00:00-24:00; Su 10:00-16:30,MoneyGram,Q1944412
74106587,moneygram,AIBL - #202 - CHITTAGONG - JAMALKHAN BRA,,CHITTAGONG,,,BD,31244850064,,Mo-Th 10:00-18:00; Fr-Sa 00:00-24:00; Su 10:00-18:00,MoneyGram,Q1944412
68161716,moneygram,JBL - SADARGHAT ROAD (CTG.)-0034,,CTG GPO,,,BD,+880 31-618617,,24/7,MoneyGram,Q1944412
68161774,moneygram,JBL - ASHRAF ALI ROAD-0897,,CTG GPO,,,BD,+880 31-621140,,24/7,MoneyGram,Q1944412
69580749,moneygram,FIRST SECURITY ISLAMI BANK LTD - KORERHA,,CHITTAGONG,,,BD,+880 2-9888446,,24/7,MoneyGram,Q1944412
74274260,moneygram,OBL - #62107 - AGRABAD ISLAMI BANKING BR,,CHATTOGRAM,,,BD,+880 1676-513898,,Mo-Th 10:00-18:00; Fr 00:00-24:00; Sa 10:00-15:00; Su 10:00-16:00,MoneyGram,Q1944412
74272259,moneygram,PREMIER BANK - #66111 - KHATUNGANJ-PBL,,CHATTOGRAM,,,BD,+880 31-639523,,Mo-Th 10:00-18:00; Fr 00:00-24:00; Sa 10:00-13:00; Su 10:00-18:00,MoneyGram,Q1944412
74273601,moneygram,PREMIER BANK - #6611101 - LALDIGHIR PAR,,CHATTOGRAM,,,BD,+880 31-639523,,Mo-Th 10:00-18:00; Fr 00:00-24:00; Sa 10:00-13:00; Su 10:00-18:00,MoneyGram,Q1944412
74272372,moneygram,PREMIER BANK - #66123 - O.R NIZAM ROAD-P,,CHATTOGRAM,,,BD,8800312852434,,Mo-Th 10:00-18:00; Fr 00:00-24:00; Sa 10:00-13:00; Su 10:00-18:00,MoneyGram,Q1944412
74272466,moneygram,PREMIER BANK - #66132 - PAHARTOLI-PBL,,CHATTOGRAM,,,BD,+880 3127-72514,,Mo-Th 10:00-18:00; Fr 00:00-24:00; Sa 10:00-13:00; Su 10:00-18:00,MoneyGram,Q1944412
74272628,moneygram,PREMIER BANK - #66147 - JUBILEE ROAD-PBL,,CHATTOGRAM,,,BD,+880 31-628242,,Mo-Th 10:00-18:00; Fr 00:00-24:00; Sa 10:00-13:00; Su 10:00-18:00,MoneyGram,Q1944412
70138591,moneygram,DUTCH-BANGLA BANK LIMITED - CHITTAGONG -,,CHITTAGONG,,,BD,312854493,,24/7,MoneyGram,Q1944412
70138601,moneygram,DUTCH-BANGLA BANK LIMITED - CHITTAGONG -,,CHITTAGONG,,,BD,+880 3125-14116,,24/7,MoneyGram,Q1944412
70138669,moneygram,DUTCH-BANGLA BANK LIMITED - CHITTAGONG -,,CHITTAGONG,,,BD,312866692,,24/7,MoneyGram,Q1944412
70139477,moneygram,DUTCH-BANGLA BANK LIMITED - CHITTAGONG -,,CHITTAGONG,,,BD,+880 3125-71263,,24/7,MoneyGram,Q1944412
70139561,moneygram,DUTCH-BANGLA BANK LIMITED - CHITTAGONG -,,CHITTAGONG,,,BD,+880 3125-51737,,24/7,MoneyGram,Q1944412
70139587,moneygram,DUTCH-BANGLA BANK LIMITED - CHITTAGONG -,,CHITTAGONG,,,BD,+880 3125-51436,,24/7,MoneyGram,Q1944412
70180329,moneygram,TMSS - CHITTAGONG,,CHITTAGONG,,,BD,+880 1713-377357,,24/7,MoneyGram,Q1944412
70210930,moneygram,TMSS - CHITTAGONG,,CHITTAGONG,,,BD,+880 1713-377189,,24/7,MoneyGram,Q1944412
70369276,moneygram,STANDARD BANK LIMITED - CHITTAGONG - CHA,,CHITTAGONG,,,BD,+880 31-626794,,24/7,MoneyGram,Q1944412
70369506,moneygram,STANDARD BANK LIMITED - CHITTAGONG - JUB,,CHITTAGONG,,,BD,+880 31-610356,,24/7,MoneyGram,Q1944412
70369629,moneygram,STANDARD BANK LIMITED - CHITTAGONG - SAD,,CHITTAGONG,,,BD,+880 31-619950,,24/7,MoneyGram,Q1944412
70369959,moneygram,STANDARD BANK LIMITED - CHITTAGONG - AGR,,CHITTAGONG,,,BD,+880 3125-13856,,24/7,MoneyGram,Q1944412
70369483,moneygram,STANDARD BANK LIMITED - CHITTAGONG - KHA,,CHITTAGONG,,,BD,312857811,,24/7,MoneyGram,Q1944412
70370320,moneygram,STANDARD BANK LIMITED - CHITTAGONG - KAD,,CHITTAGONG,,,BD,+880 1819-380277,,24/7,MoneyGram,Q1944412
70369108,moneygram,STANDARD BANK LIMITED - CHITTAGONG - CDA,,CHITTAGONG,,,BD,+880 3125-53462,,24/7,MoneyGram,Q1944412
70406977,moneygram,EBL - CHITTAGONG - JUBILEE ROAD BRANCH C,,CHITTAGONG,,,BD,+880 31-614442,,24/7,MoneyGram,Q1944412
70406980,moneygram,EBL - CHITTAGONG - KHATUNGONG BRANCH CTG,,CHITTAGONG,,,BD,+880 31-621316,,24/7,MoneyGram,Q1944412
70407028,moneygram,EBL - CHITTAGONG - SIRAJUDDOWLA ROAD BRA,,CHITTAGONG,,,BD,312865261,,24/7,MoneyGram,Q1944412
70407277,moneygram,EBL - CHITTAGONG - AGRABAD BRANCH CHITTA,,CHITTAGONG,,,BD,+880 3125-16613,,24/7,MoneyGram,Q1944412
70407578,moneygram,EBL - CHITTAGONG - MEHDIBAGH BRANCH,,CHITTAGONG,,,BD,312869451,,24/7,MoneyGram,Q1944412
70407581,moneygram,EBL - CHITTAGONG - NEW MARKET BRANCH CTG,,CHITTAGONG,,,BD,+880 31-621898,,24/7,MoneyGram,Q1944412
70407714,moneygram,EBL - CHITTAGONG - DOHAZARI BRANCH,,CHITTAGONG,,,BD,319666777325,,24/7,MoneyGram,Q1944412
70407727,moneygram,EBL - CHITTAGONG - NAZIRHAT BRANCH,,CHITTAGONG,,,BD,314438000505,,24/7,MoneyGram,Q1944412
70406948,moneygram,EBL - CHITTAGONG - BHATIARI BRANCH,,CHITTAGONG,,,BD,314438000567,,24/7,MoneyGram,Q1944412
70407329,moneygram,EBL - CHITTAGONG - LOHAGARA BRANCH CTG,,CHITTAGONG,,,BD,303456681,,24/7,MoneyGram,Q1944412
70407303,moneygram,EBL - CHITTAGONG - JAMAL KHAN ROAD BRANC,,CHITTAGONG,,,BD,312866603,,24/7,MoneyGram,Q1944412
70406951,moneygram,EBL - CHITTAGONG - CEPZ BRANCH,,CHITTAGONG,,,BD,+880 31-742196,,24/7,MoneyGram,Q1944412
70407293,moneygram,EBL - CHITTAGONG - HATHAZARI BRANCH CTG,,CHITTAGONG,,,BD,+880 3126-01956,,24/7,MoneyGram,Q1944412
70407565,moneygram,EBL - CHITTAGONG - HALISHAR BRANCH,,CHITTAGONG,,,BD,+880 3125-13895,,24/7,MoneyGram,Q1944412
70407332,moneygram,EBL - CHITTAGONG - O R NIZAM ROAD BRANCH,,CHITTAGONG,,,BD,312857073,,24/7,MoneyGram,Q1944412
74684106,moneygram,EXIM BANK - #63148 - JAMAL KHAN RD-EXIM,,CHITTAGONG,,,BD,+880 1764-195200,,Mo-Fr 10:00-17:00; Sa 10:00-15:00; Su 10:00-17:00,MoneyGram,Q1944412
70496424,moneygram,STANDARD BANK LIMITED - CHITTAGONG,,CHITTAGONG,,,BD,+880 31-711467,,24/7,MoneyGram,Q1944412
68161790,moneygram,JBL - AMIR MARKET-0246,,CTG GPO,,,BD,+880 31-631491,,24/7,MoneyGram,Q1944412
70114272,moneygram,ONE BANK LTD - #95 - ONE BANK-CHITTAGONG,,CHITTAGONG,,,BD,+880 1709-646004,,24/7,MoneyGram,Q1944412
70114308,moneygram,ONE BANK LTD - ONE BANK-BIBIRHAT BRANCH,,CHITTAGONG,,,BD,+880 1709-646005,,24/7,MoneyGram,Q1944412
70675902,moneygram,PBL - #4786 - CHITTAGONG - COLONEL HAT B,,CHITTAGONG,,,BD,+880 1917-704889,,Mo-Th 09:00-18:00; Fr 00:00-24:00; Sa-Su 09:00-18:00,MoneyGram,Q1944412
70499544,moneygram,EXIM - CHITTAGONG,,CHITTAGONG,,,BD,+880 2-9889363,,24/7,MoneyGram,Q1944412
74979316,moneygram,ISLAMI BANK BANGLADESH PLC - CHATTOGRAM,,CHATTOGRAM,,,BD,894874096,,Mo-Th 09:00-18:00; Fr 00:00-24:00; Sa 09:00-16:00; Su 09:00-18:00,MoneyGram,Q1944412
70972472,moneygram,FSIBL - CHITTAGONG - FSIBL - RAHATTARPUL,,CHITTAGONG,,,BD,+880 1992-044259,,Mo-Th 10:00-17:00; Fr 00:00-24:00; Sa 10:00-15:00; Su 10:00-17:00,MoneyGram,Q1944412
71043384,moneygram,IBBL - CHITTAGONG,,CHITTAGONG,,,BD,+880 1998-707052,,Mo-Th 09:00-18:00; Fr 00:00-24:00; Sa 09:00-14:00; Su 09:00-18:00,MoneyGram,Q1944412
71170202,moneygram,STANDARD BANK LIMITED - #4574215919 - CH,,CHITTAGONG,,,BD,+880 1713-375810,,Mo-Th 10:00-16:00; Fr-Sa 00:00-24:00; Su 10:00-16:00,MoneyGram,Q1944412
71180315,moneygram,AIBL - #155 - CHITTAGONG - TERRI BAZAR,,CHITTAGONG,,,BD,630279,,Mo-Th 10:00-18:00; Fr-Sa 00:00-24:00; Su 10:00-18:00,MoneyGram,Q1944412
44796668,moneygram,TCBL,,CHITTAGONG,,,BD,+880 31-612681,,24/7,MoneyGram,Q1944412
44796671,moneygram,TCBL,,CHITTAGONG,,,BD,+880 31-612104,,24/7,MoneyGram,Q1944412
44796707,moneygram,TCBL,,CHITTAGONG,,,BD,+880 31-613476,,24/7,MoneyGram,Q1944412
44796736,moneygram,TCBL,,CHITTAGONG,,,BD,+880 31-654432,,24/7,MoneyGram,Q1944412
65161968,moneygram,NCC - #2,,CHITTAGONG,,,BD,+880 1819-648068,,24/7,MoneyGram,Q1944412
65232172,moneygram,AGRANI BANK,,CHITTAGONG,,,BD,617608,,Mo-Th 09:00-16:00; Fr 00:00-24:00; Sa-Su 09:00-16:00,MoneyGram,Q1944412
65232240,moneygram,AGRANI BANK,,CHITTAGONG,,,BD,631724,,Mo-Th 09:00-16:00; Fr 00:00-24:00; Sa-Su 09:00-16:00,MoneyGram,Q1944412
65232253,moneygram,AGRANI BANK,,CHITTAGONG,,,BD,+880 1819-345137,,Mo-Th 09:00-16:00; Fr 00:00-24:00; Sa-Su 09:00-16:00,MoneyGram,Q1944412
65232279,moneygram,AGRANI BANK,,CHITTAGONG,,,BD,637482,,Mo-Th 09:00-16:00; Fr 00:00-24:00; Sa-Su 09:00-16:00,MoneyGram,Q1944412
65232509,moneygram,AGRANI BANK,,CHITTAGONG,,,BD,637728,,Mo-Th 09:00-16:00; Fr 00:00-24:00; Sa-Su 09:00-16:00,MoneyGram,Q1944412
65232570,moneygram,AGRANI BANK,,CHITTAGONG,,,BD,611421,,Mo-Th 09:00-16:00; Fr 00:00-24:00; Sa-Su 09:00-16:00,MoneyGram,Q1944412
65232635,moneygram,AGRANI BANK,,CHITTAGONG,,,BD,615759,,Mo-Th 09:00-16:00; Fr 00:00-24:00; Sa-Su 09:00-16:00,MoneyGram,Q1944412
65232732,moneygram,AGRANI BANK,,CHITTAGONG,,,BD,614732,,Mo-Th 09:00-16:00; Fr 00:00-24:00; Sa-Su 09:00-16:00,MoneyGram,Q1944412
65232761,moneygram,AGRANI BANK,,CHITTAGONG,,,BD,611525,,Mo-Th 09:00-16:00; Fr 00:00-24:00; Sa-Su 09:00-16:00,MoneyGram,Q1944412
65232787,moneygram,AGRANI BANK,,CHITTAGONG,,,BD,630209,,Mo-Th 09:00-16:00; Fr 00:00-24:00; Sa-Su 09:00-16:00,MoneyGram,Q1944412
65232790,moneygram,AGRANI BANK,,CHITTAGONG,,,BD,613386,,Mo-Th 09:00-16:00; Fr 00:00-24:00; Sa-Su 09:00-16:00,MoneyGram,Q1944412
65239285,moneygram,AGRANI BANK,,CHITTAGONG,,,BD,630805611373,,Mo-Th 09:00-16:00; Fr 00:00-24:00; Sa-Su 09:00-16:00,MoneyGram,Q1944412
65232868,moneygram,AGRANI BANK,,CHITTAGONG,,,BD,621692,,Mo-Th 09:00-16:00; Fr 00:00-24:00; Sa-Su 09:00-16:00,MoneyGram,Q1944412
65232907,moneygram,AGRANI BANK,,CHITTAGONG,,,BD,614919,,Mo-Th 09:00-16:00; Fr 00:00-24:00; Sa-Su 09:00-16:00,MoneyGram,Q1944412
65232923,moneygram,AGRANI BANK,,CHITTAGONG,,,BD,610910,,Mo-Th 09:00-16:00; Fr 00:00-24:00; Sa-Su 09:00-16:00,MoneyGram,Q1944412
65232981,moneygram,AGRANI BANK,,CHITTAGONG,,,BD,+880 31-613828,,Mo-Th 09:00-16:00; Fr 00:00-24:00; Sa-Su 09:00-16:00,MoneyGram,Q1944412
65233155,moneygram,AGRANI BANK,,CHITTAGONG,,,BD,+880 31-614226,,Mo-Th 09:00-16:00; Fr 00:00-24:00; Sa-Su 09:00-16:00,MoneyGram,Q1944412
65233197,moneygram,AGRANI BANK,,CHITTAGONG,,,BD,+880 3125-20931,,Mo-Th 09:00-16:00; Fr 00:00-24:00; Sa-Su 09:00-16:00,MoneyGram,Q1944412
65233252,moneygram,AGRANI BANK,,CHITTAGONG,,,BD,+880 31-711603,,Mo-Th 09:00-16:00; Fr 00:00-24:00; Sa-Su 09:00-16:00,MoneyGram,Q1944412
65233391,moneygram,AGRANI BANK,,CHITTAGONG,,,BD,+880 31-655283,,Mo-Th 09:00-16:00; Fr 00:00-24:00; Sa-Su 09:00-16:00,MoneyGram,Q1944412
65235467,moneygram,AGRANI BANK,,CHITTAGONG,,,BD,+880 1716-245024,,Mo-Th 09:00-16:00; Fr 00:00-24:00; Sa-Su 09:00-16:00,MoneyGram,Q1944412
65237805,moneygram,AGRANI BANK,,CHITTAGONG,,,BD,03172330,,Mo-Th 09:00-16:00; Fr 00:00-24:00; Sa-Su 09:00-16:00,MoneyGram,Q1944412
65238011,moneygram,AGRANI BANK,,CHITTAGONG,,,BD,+880 31-653075,,Mo-Th 09:00-16:00; Fr 00:00-24:00; Sa-Su 09:00-16:00,MoneyGram,Q1944412
65407907,moneygram,AIBL - #05,,CHITTAGONG,,,BD,+880 31-713372,,24/7,MoneyGram,Q1944412
65407978,moneygram,AIBL - #10,,CHITTAGONG,,,BD,+880 31-622229,,24/7,MoneyGram,Q1944412
65408375,moneygram,AIBL - #26,,CHITTAGONG,,,BD,+880 31-656567,,24/7,MoneyGram,Q1944412
65408799,moneygram,AIBL - #48,,CHITTAGONG,,,BD,+880 3126-01679,,24/7,MoneyGram,Q1944412
65408113,moneygram,AIBL - #18,,CHITTAGONG,,,BD,+880 31-637680,,24/7,MoneyGram,Q1944412
66892003,moneygram,EXIM - CHITTAGONG - AGRABAD BR,,CHITTAGONG,,,BD,317276578,,24/7,MoneyGram,Q1944412
66892281,moneygram,EXIM - CHITTAGONG - JUBILEE ROAD BR,,CHITTAGONG,,,BD,+880 31-611170,,24/7,MoneyGram,Q1944412
66892320,moneygram,EXIM - CHITTAGONG - KHATUNGONJ BR,,CHITTAGONG,,,BD,+880 31-615544,,24/7,MoneyGram,Q1944412
67109740,moneygram,BCBL - AGRABAD,,CHITTAGONG,,,BD,+880 31-717974,,24/7,MoneyGram,Q1944412
67109753,moneygram,BCBL - JUBILEEROAD,,CHITTAGONG,,,BD,+880 31-627837,,24/7,MoneyGram,Q1944412
67109847,moneygram,BCBL - DEWANHAT,,CHITTAGONG,,,BD,+880 31-728145,,24/7,MoneyGram,Q1944412
67122109,moneygram,AIBL - STATION ROAD BRANCH,,CHITTAGONG,,,BD,+880 31-632813,,24/7,MoneyGram,Q1944412
67217810,moneygram,NBL - Jubilee Road Branch,,CHITTAGONG,,,BD,+880 1713-388905,,24/7,MoneyGram,Q1944412
67218152,moneygram,NBL - Agrabad Branch,,CHITTAGONG,,,BD,+880 1713-388903,,24/7,MoneyGram,Q1944412
67219054,moneygram,NBL - Sk. Mujib Road Branch,,CHITTAGONG,,,BD,+880 1713-388906,,24/7,MoneyGram,Q1944412
67109779,moneygram,BCBL - CHAKTAI,,CHITTAGONG,,,BD,+880 31-634612,,24/7,MoneyGram,Q1944412
67548055,moneygram,FSIBL - HALISHAHAR BRANCH,,CHITTAGONG,,,BD,+880 1938-886107,,24/7,MoneyGram,Q1944412
67548084,moneygram,FSIBL - BANSHKHALI BRANCH,,CHITTAGONG,,,BD,+880 1938-886108,,24/7,MoneyGram,Q1944412
67568611,moneygram,SHAHJALAL - ANDARKILLA BRANCH,,CHITTAGONG,,,BD,8827694,,24/7,MoneyGram,Q1944412
67109986,moneygram,BCBL - MURADPUR,,CHITTAGONG,,,BD,+880 1816-386963,,24/7,MoneyGram,Q1944412
71759704,moneygram,AIBL - #157 - CHITTAGONG - KARNAPHULY,,CHITTAGONG,,,BD,+880 31-620193,,Mo-Th 10:00-18:00; Fr-Sa 00:00-24:00; Su 10:00-18:00,MoneyGram,Q1944412
67109766,moneygram,BCBL - KHATUNGONG,,CHITTAGONG,,,BD,+880 31-618821,,24/7,MoneyGram,Q1944412
68204563,moneygram,SIBL - CHITTAGONG - SHAH MOHSEN AULIA BR,,CHITTAGONG,,,BD,+880 1814-257762,,24/7,MoneyGram,Q1944412
68204592,moneygram,SIBL - CHITTAGONG - DEWANHAT BRANCH,,CHITTAGONG,,,BD,+880 1815-065948,,24/7,MoneyGram,Q1944412
68204631,moneygram,SIBL - CHITTAGONG - ROAZARHAT BRANCH,,CHITTAGONG,,,BD,+880 1819-998358,,24/7,MoneyGram,Q1944412
