Ref,Spider,Name,Address,City,State,Zipcode,Country,Phone,Website,Hours,Brand,WikiData
72115583,moneygram,SM INTERNATIONAL TRAVELS - GOPAJGANJ,,GOPAJGANJ,,,IN,+91 91624 71376,,Mo-Su 07:00-21:00,MoneyGram,Q1944412
72112670,moneygram,NITYA ONLINE SERVICES - GOPALGANJ,,GOPALGANJ,,,IN,+91 72504 26176,,Mo-Su 06:00-20:00,MoneyGram,Q1944412
72613687,moneygram,M/S SHIVAM MEDICAL AGENCY,,GOPALGANJ,,,IN,+91 95764 76850,,Mo-Su 08:00-21:00,MoneyGram,Q1944412
72611540,moneygram,PANCHOO ENTERPRISES,,GOPALGANJ,,,IN,+91 99313 54435,,Mo-Su 08:00-21:00,MoneyGram,Q1944412
72589818,moneygram,COMMON SERVICES CENTRES,,GOPALGANJ,,,IN,+91 96611 24006,,Mo-Su 08:00-21:00,MoneyGram,Q1944412
72685576,moneygram,ANANYA INFORMATION - GOPALGANJ,,GOPALGANJ,,,IN,+91 87262 75674,,Mo-Su 07:00-21:00,MoneyGram,Q1944412
72769104,moneygram,COMMON SERVICE CENTER - GOPALGANJ,,GOPALGANJ,,,IN,+91 87070 24440,,Mo-Su 07:00-21:00,MoneyGram,Q1944412
72799200,moneygram,INDIA ELECTRONICS - GOPALGANJ,,GOPALGANJ,,,IN,+91 85216 16440,,Mo-Su 08:00-20:00,MoneyGram,Q1944412
71584254,moneygram,SHYAM NARAYAN PARSAD - GOPALGANJ - GOPAL,,GOPALGANJ,,,IN,+91 99340 77791,,Mo-Su 08:00-20:00,MoneyGram,Q1944412
73339669,moneygram,MERAJ ENTERPRISES TOUR & TRAVELS - GOPAL,,GOPALGANJ,,,IN,+91 79829 11697,,Mo-Su 08:00-21:00,MoneyGram,Q1944412
73045843,moneygram,COMMAN SERVICE CENTER,,GOPALGANJ,,,IN,+91 97087 94763,,Mo-Su 08:00-21:00,MoneyGram,Q1944412
73044530,moneygram,NEHA CYBER ENTERPRISES,,GOPALGANJ,,,IN,+91 76548 13065,,Mo-Su 08:00-21:00,MoneyGram,Q1944412
72961630,moneygram,KARAN TELECOM,,GOPALGANJ,,,IN,+91 90060 68666,,Mo-Su 08:00-21:00,MoneyGram,Q1944412
73389567,moneygram,ADITYA TRAVELS,,GOPALGANJ,,,IN,+91 99349 46673,,Mo-Su 08:00-21:00,MoneyGram,Q1944412
73397889,moneygram,NEHA CYBER ENTERPRISES,,GOPALGANJ,,,IN,+91 95728 27082,,Mo-Su 08:00-21:00,MoneyGram,Q1944412
73644723,moneygram,DILIP TRADRS,,GOPALGANJ,,,IN,+91 99319 82063,,Mo-Su 08:00-21:00,MoneyGram,Q1944412
73643643,moneygram,GRAHAK SEVA KENDRA,,GOPALGANJ,,,IN,+91 99556 82183,,Mo-Su 08:00-21:00,MoneyGram,Q1944412
73815455,moneygram,RIDHI SHIDHI INFORMATION CENTER,,GOPALGANJ,,,IN,+91 99551 15626,,Mo-Su 08:00-21:00,MoneyGram,Q1944412
67943469,moneygram,SHIVAM MEDICAN AGENCY - GOPALGANJ,,GOPALGANJ,,,IN,+91 95764 76850,,Mo-Su 08:00-21:00,MoneyGram,Q1944412
71453343,moneygram,M/S DHANANJAY TOUR TRAVELS - GOPALGANJ -,,GOPALGANJ,,,IN,+91 97081 44005,,Mo-Su 09:00-21:00,MoneyGram,Q1944412
71574934,moneygram,PRIYANSHU PAY PHONE - GOPALGANJ - GOPALG,,GOPALGANJ,,,IN,+91 99348 36442,,Mo-Su 08:00-20:00,MoneyGram,Q1944412
