Ref,Spider,Name,Address,City,State,Zipcode,Country,Phone,Website,Hours,Brand,WikiData
68159812,moneygram,JBL - AKHAURA-0046,,AKHAUARA,,,BD,852256020,,24/7,MoneyGram,Q1944412
72811447,moneygram,BRAC BANK LTD - #742029 - BRAHMANBARIA -,,BRAHMANBARIA,,,BD,+880 1819-430906,,Mo-Th 10:00-18:00; Fr 00:00-24:00; Sa-Su 10:00-18:00,MoneyGram,Q1944412
73549420,moneygram,RUPSADI UNION DIGITAL CENTRE - BRAHMANBA,,BRAHMANBARIA,,,BD,+880 1717-820824,,Mo-Su 09:30-17:00,MoneyGram,Q1944412
73611646,moneygram,UNION DIGITAL CENTRE - BRAHMANBARIA - UN,,BRAHMANBARIA,,,BD,+880 1712-046410,,Mo-Th 09:30-17:00; Fr-Sa 00:00-24:00; Su 09:30-17:00,MoneyGram,Q1944412
73768308,moneygram,04 NO CHOMPOKNAGAR UNION DIGITAL CENTRE,,BRAHMANBARIA,,,BD,+880 1746-659360,,Mo-Th 09:30-17:00; Fr-Sa 00:00-24:00; Su 09:30-17:00,MoneyGram,Q1944412
73768324,moneygram,PAHARPUR UNION DIGITAL CENTRE - BRAHMANB,,BRAHMANBARIA,,,BD,+880 1714-203083,,Mo-Th 09:30-17:00; Fr-Sa 00:00-24:00; Su 09:30-17:00,MoneyGram,Q1944412
73772792,moneygram,SHIMANTO BANK - BRAHMANBARIA - CHAMPAKNA,,BRAHMANBARIA,,,BD,+880 9612-880130,,Mo-Th 10:00-16:00; Fr-Sa 00:00-24:00; Su 10:00-16:00,MoneyGram,Q1944412
73806930,moneygram,SIBL - #58156 - BRAHMANBARIA - BRAHMANBA,,BRAHMANBARIA,,,BD,+880 1713-139156,,Mo-Th 10:00-16:00; Fr-Sa 00:00-24:00; Su 10:00-16:00,MoneyGram,Q1944412
73850973,moneygram,HARASHPUR UDC - BRAHMANBARIA - HARASHPUR,,BRAHMANBARIA,,,BD,+880 1762-298400,,Mo-Th 09:30-17:00; Fr-Sa 00:00-24:00; Su 09:30-17:00,MoneyGram,Q1944412
73997483,moneygram,IFIC BANK - #450125 - TANTAR BAZAR UPOSH,,BRAHMANBARIA,,,BD,+880 9666-716250,,Mo-Th 10:00-18:00; Fr-Sa 00:00-24:00; Su 10:00-17:00,MoneyGram,Q1944412
73994554,moneygram,IFIC BANK - #452250 - AKHAURA BRANCH-IFI,,BRAHMANBARIA,,,BD,+880 9666-716250,,Mo-Th 10:00-18:00; Fr-Sa 00:00-24:00; Su 10:00-17:00,MoneyGram,Q1944412
74026434,moneygram,M/S. ABIR ENTERPRISE - HABIGANJ - M/S. A,,HABIGANJ,,,BD,+880 1723-392628,,Mo-Th 09:30-17:00; Fr-Sa 00:00-24:00; Su 09:30-17:00,MoneyGram,Q1944412
74041202,moneygram,M/S. DOLUN TRADERS - BRAHMANBARIA - M/S.,,BRAHMANBARIA,,,BD,+880 1733-141908,,Mo-Th 09:30-17:00; Fr-Sa 00:00-24:00; Su 09:30-17:00,MoneyGram,Q1944412
74313493,moneygram,BANK ASIA AGENT BANKING - BRAHMANBARIA -,,BRAHMANBARIA,,,BD,+880 1757-065861,,Mo-Th 09:30-17:00; Fr-Sa 00:00-24:00; Su 09:30-17:00,MoneyGram,Q1944412
74377264,moneygram,03 NO. ICHAPURA UNION DIGITAL CENTRE - B,,BRAHMANBARIA,,,BD,+880 1723-141373,,Mo-Th 09:30-17:00; Fr-Sa 00:00-24:00; Su 09:30-17:00,MoneyGram,Q1944412
74470909,moneygram,SINGERBIL DPO - BRAHMANBARIA - SINGERBIL,,BRAHMANBARIA,,,BD,+880 1757-065861,,Mo-Th 09:30-17:00; Fr-Sa 00:00-24:00; Su 09:30-17:00,MoneyGram,Q1944412
74546435,moneygram,M/S FAYEZ MEDICAL HALL - #1740 - BRAHMAN,,BRAHMANBARIA,,,BD,+880 1818-221056,,Mo-Su 08:00-20:00,MoneyGram,Q1944412
74647936,moneygram,BANK ASIA LIMITED - #703 - ASHUGANJ SUB-,,BRAHMANBARIA,,,BD,+880 1919-409198,,Mo-Th 09:30-17:00; Fr-Sa 00:00-24:00; Su 09:30-17:00,MoneyGram,Q1944412
74647978,moneygram,BANK ASIA LIMITED - #707 - BANCHARAMPUR,,BRAHMANBARIA,,,BD,+880 1764-696798,,Mo-Th 09:30-17:00; Fr-Sa 00:00-24:00; Su 09:30-17:00,MoneyGram,Q1944412
74660748,moneygram,BRAC BANK SULTANPUR AGENT BANKING - BRAH,,BRAHMANBARIA,,,BD,+880 1614-117010,,Mo-Su 08:00-20:00,MoneyGram,Q1944412
66372471,moneygram,AIBL - BRAHMANBARIA - AKHAURA BRANCH,,BRAHMANBARIA,,,BD,+880 1933-008352,,24/7,MoneyGram,Q1944412
67766277,moneygram,BRAC BANK LTD - #103 - BRAHMANBARIA - SM,,BRAHMANBARIA,,,BD,+880 1713-368552,,24/7,MoneyGram,Q1944412
