Ref,Spider,Name,Address,City,State,Zipcode,Country,Phone,Website,Hours,Brand,WikiData
https://stores.advanceautoparts.com/pa/myerstown/119-w-lincoln-ave,advance_auto_parts_us,Advance Auto Parts,,Myerstown,PA,,US,+1 717-628-3392,https://stores.advanceautoparts.com/pa/myerstown/119-w-lincoln-ave,Mo-Sa 07:30-21:00; Su 09:00-20:00,Advance Auto Parts,Q4686051
https://locations.auntieannes.com/#5371,auntie_annes,Auntie Anne's Pilot Flying J #518 - Frystown,,Myerstown,PA,,US,+1 717-933-4146,https://locations.auntieannes.com/pa/myerstown/2210-camp-swatara-rd,,Auntie Anne's,Q4822010
177794,bluerhino,Turkey Hill #081,,Myerstown,PA,,US,+1 717-866-6373,,,Blue Rhino,Q65681213
177056,bluerhino,Dutch Country Ace #11833,,Myerstown,PA,,US,+1 717-866-8882,,,Blue Rhino,Q65681213
70799,citi,ATM PNC BANK,,Myerstown,PA,,US,,,,Citibank,Q857063
4748,dominos_pizza_us,Domino's Pizza,,Myerstown,PA,,US,+1 717-970-7000,https://pizza.dominos.com/pennsylvania/myerstown/133-west-lincoln-ave,Mo-Th 10:30-24:00; Fr-Sa 10:30-01:00; Su 10:30-24:00,Domino's,Q839466
https://www.edwardjones.com/us-en/financial-advisor/steven-goodhue,edwardjones,Steven B Goodhue,,Myerstown,PA,,US,+1 717-866-2747,https://www.edwardjones.com/us-en/financial-advisor/steven-goodhue,Mo-Fr 08:30-17:00,Edward Jones,Q5343830
520110,eg_america_us,Turkey Hill,,Myerstown,PA,,US,+1 717-866-6373,https://www.turkeyhillcstores.com/find-us/generic-store-page/?id=950081,,Turkey Hill,Q42376970
200317353,exxonmobil,TOP STAR #125 MYERSTOWN,,MYERSTOWN,PA,,US,+1 717-866-5055,https://www.exxon.com/en/find-station/exxon-myerstown-pa-topstar125myerstown-200317353,Mo-Sa 05:00-23:00; Su 06:00-22:00,Exxon,Q109675651
787,huddle_house_us,PA - Frystown,,Frystown,PA,,US,+1 717-933-4171,https://www.huddlehouse.com/locations/pa/frystown/2210-camp-swatara-rd,24/7,Huddle House,Q5928324
37972,h_r_block,H&R Block,,Myerstown,PA,,US,+1 717-866-6151,https://www.hrblock.com/local-tax-offices/pennsylvania/myerstown/899-e-lincoln-ave/37972/,,H&R Block,Q5627799
https://locations.northwest.bank/#35177093,northwest_bank,1 W Main Ave Myerstown,,Myerstown,PA,,US,+1 717-866-2929,https://locations.northwest.bank/pa/myerstown/1-w-main-ave,Mo-Th 09:00-16:00; Fr 09:00-18:00; Sa 09:00-12:00,Northwest Bank,Q7060191
us8f5aebd6,pandora,About Pandora Jewelry Authorized Retailer - Leitzel&#039;s Jewelry,,Myerstown,PA,,US,+1 717-866-4274,https://stores.pandora.net/pa/myerstown/pandora-jewelry-us8f5aebd6.html,Tu-Fr 09:00-17:00; Sa 09:00-15:00,Pandora,Q2241604
518,pilot_flyingj,Flying J Travel Center,,Frystown,PA,,US,+1 717-933-4146,https://locations.pilotflyingj.com/us/pa/frystown/2210-camp-swatara-road,,Flying J,Q16974822
https://restaurants.subway.com/#14915094,subway,Subway Topstar Express,,Myerstown Lebanon,PA,,US,+1 717-866-9555,https://restaurants.subway.com/united-states/pa/myerstown/299-w-lincoln-ave,Mo-Su 09:00-22:00,Subway,Q244457
https://restaurants.subway.com/#14898775,subway,Subway Pilot Travel Center #518,,Frystown Lebanon,PA,,US,+1 717-933-4146,https://restaurants.subway.com/united-states/pa/frystown/2210-camp-swatara-rd,Mo-Su 07:00-23:00,Subway,Q244457
1374311,usps,MYERSTOWN,,MYERSTOWN,PA,,US,+1 717-866-2714,,Mo-Fr 08:30-16:30; Sa 09:00-11:00,United States Postal Service,Q668687
1706700016,usps_collection_boxes,USPS COLLECTION BOX - PO LOBBY,120 W JEFFERSON AVE,MYERSTOWN,PA,,US,,,,United States Postal Service,Q668687
1706700012,usps_collection_boxes,USPS COLLECTION BOX - BLUE BOX,120 W JEFFERSON AVE,MYERSTOWN,PA,,US,,,,United States Postal Service,Q668687
1706700011,usps_collection_boxes,USPS COLLECTION BOX - BLUE BOX,120 W JEFFERSON AVE,MYERSTOWN,PA,,US,,,,United States Postal Service,Q668687
1706700014,usps_collection_boxes,USPS COLLECTION BOX - PO LOBBY,120 W JEFFERSON AVE,MYERSTOWN,PA,,US,,,,United States Postal Service,Q668687
1706700003,usps_collection_boxes,USPS COLLECTION BOX - BLUE BOX,101 W MAIN AVE,MYERSTOWN,PA,,US,,,,United States Postal Service,Q668687
1706700010,usps_collection_boxes,USPS COLLECTION BOX - BLUE BOX,15 S RAILROAD ST,MYERSTOWN,PA,,US,,,,United States Postal Service,Q668687
1706700006,usps_collection_boxes,USPS COLLECTION BOX - BLUE BOX,2 S LOCUST ST,MYERSTOWN,PA,,US,,,,United States Postal Service,Q668687
,visa,,,MYERSTOWN,PA,,US,,,,,
,visa,,,MYERSTOWN,PA,,US,,,,,
,visa,,,MYERSTOWN,PA,,US,,,,,
,visa,,,MYERSTOWN,PA,,US,,,,,
,visa,,,MYERSTOWN,PA,,US,,,,,
,visa,,,MYERSTOWN,PA,,US,,,,,
,visa,,,MYERSTOWN,PA,,US,,,,,
,visa,,,MYERSTOWN,PA,,US,,,,,
,visa,,,MYERSTOWN,PA,,US,,,,,
,visa,,,MYERSTOWN,PA,,US,,,,,
,visa,,,MYERSTOWN,PA,,US,,,,,
180__W__LINCOLN__AVE_MYERSTOWN_PA_17067,wellsfargo,Wells Fargo,180 W LINCOLN AVE,MYERSTOWN,PA,,US,+1 717-866-6129,https://www.wellsfargo.com/locator/bank/180__W__LINCOLN__AVE_MYERSTOWN_PA_17067/,Mo-Fr 09:00-17:00,Wells Fargo,Q744149
7dd96cc39f252bda3e0ad143cf86842f,western_union,TURKEY HILL #81,,Myerstown,PA,,US,717-866-6373-3,https://location.westernunion.com/us/pa/myerstown/7dd96cc39f252bda3e0ad143cf86842f,Mo-Su 06:00-21:00,Western Union,Q861042
