Ref,Spider,Name,Address,City,State,Zipcode,Country,Phone,Website,Hours,Brand,WikiData
5271,autozone_us,AutoZone Auto Parts Brooklyn,,Brooklyn,NY,,US,+1 718-435-6827,https://www.autozone.com/locations/ny/brooklyn/464-coney-island-ave.html,Mo-Su 07:30-22:00,AutoZone,Q4826087
https://locations.baskinrobbins.com/ny/brooklyn/906-coney-island-ave-338871-br,baskin_robbins_us,Baskin-Robbinsâ„¢,,Brooklyn,NY,,US,+1 718-871-0526,https://locations.baskinrobbins.com/ny/brooklyn/906-coney-island-ave-338871-br,Mo-Su 05:00-21:00,Baskin-Robbins,Q584601
55768127830281121800100000000000,bp,BP,,Brooklyn,NY,,US,+1 718-438-2166,,24/7,BP,Q152057
24574464474181121800100000000000,bp,BP,,Brooklyn,NY,,US,+1 718-437-7730,,24/7,BP,Q152057
04872217008521121800100000000000,bp,BP,,Brooklyn,NY,,US,+1 718-284-2223,,24/7,BP,Q152057
44052398521245221100100000000000,bp,BP,,Brooklyn,NY,,US,+1 641-522-4569,,24/7,BP,Q152057
C637,carpet_one_floor_and_home_us,Quality Carpet One Floor & Home,,Brooklyn,NY,,US,+1 718-941-4200,https://www.qualitycarpethomebrooklyn.com/,,Carpet One Floor & Home,Q121335910
2041729,chase_us,McDonald Ave - New branch,,Brooklyn,NY,,US,+1 718-436-4501,https://locator.chase.com/ny/brooklyn/4323-18th-ave,Mo-Fr 09:00-17:00; Su 10:00-14:00,Chase,Q524629
2699,cvs_us,CVS Pharmacy,,Brooklyn,NY,,US,+1 718-435-7101,https://www.cvs.com/store-locator/brooklyn-ny-pharmacies/411-ditmas-avenue-brooklyn-ny-11218/storeid=2699,Mo-Su 08:00-22:00,CVS Pharmacy,Q2078880
354873,dunkin_us,Dunkin',,Brooklyn,NY,,US,+1 718-975-0551,https://locations.dunkindonuts.com/en/ny/brooklyn/110-beverley-rd/354873,Mo-Su 05:00-19:00,Dunkin',Q847743
332353,dunkin_us,Dunkin',,Brooklyn,NY,,US,+1 718-437-7730,https://locations.dunkindonuts.com/en/ny/brooklyn/418-coney-island-ave/332353,Mo-Su 05:00-22:00,Dunkin',Q847743
338871,dunkin_us,Dunkin',,Brooklyn,NY,,US,+1 718-871-0526,https://locations.dunkindonuts.com/en/ny/brooklyn/906-coney-island-ave/338871,Mo-Su 05:00-21:00,Dunkin',Q847743
1000001138,extra_space_storage,Brooklyn Self Storage at 1320 37th St,,Brooklyn,NY,,US,+1 347-967-3520,https://www.extraspace.com/storage/facilities/us/new_york/brooklyn/1000001138/,Mo-Sa 08:00-19:00; Su 09:30-18:00,Extra Space Storage,Q5422162
589,foodtown_us,Foodtown of Kensington,,Brooklyn,NY,,US,+1 718-871-6161,https://www.foodtown.com/stores/foodtown-of-kensington,Mo-Sa 07:00-22:00; Su 07:00-21:00,Foodtown,Q5465575
29681,h_r_block,H&R Block,,Brooklyn,NY,,US,+1 718-693-1100,https://www.hrblock.com/local-tax-offices/new-york/brooklyn/771-coney-island-ave/29681/,,H&R Block,Q5627799
https://locations.kfc.com/#11249491,kfc,Chicken Nuggets Near Brooklyn,,Brooklyn,NY,,US,,https://locations.kfc.com/ny/brooklyn/534-coney-island-avenue/chickennugget,Mo-Th 10:30-24:00; Fr-Sa 10:30-01:00; Su 10:30-24:00,KFC,Q524757
74257889,moneygram,US MOBIL SERVICE INC,,BROOKLYN,NY,,US,+1 718-880-7777,,Mo-Su 09:00-21:00,MoneyGram,Q1944412
ny_brooklyn_3132-fort-hamilton-pkwy,pizza_hut_us,3132 Fort Hamilton Pkwy,,Brooklyn,NY,,US,,https://locations.pizzahut.com/ny/brooklyn/3132-fort-hamilton-pkwy,,Pizza Hut,Q191615
36091,seven_eleven_ca_us,7-11 Str   547 Coney Island Ave,,Brooklyn,NY,,US,+1 718-462-0605,https://www.7-eleven.com/locations/ny/brooklyn/547-coney-island-ave-36091,,7-Eleven,Q259340
1368888,usps,KENSINGTON,,BROOKLYN,NY,,US,+1 718-436-0164,,Mo-Fr 09:30-18:00; Sa 09:00-14:00,United States Postal Service,Q668687
1121800001,usps_collection_boxes,USPS COLLECTION BOX - BLUE BOX,1150 36TH ST,BROOKLYN,NY,,US,,,,United States Postal Service,Q668687
1121800016,usps_collection_boxes,USPS COLLECTION BOX - BLUE BOX,71 CHESTER AVE,BROOKLYN,NY,,US,,,,United States Postal Service,Q668687
1121800002,usps_collection_boxes,USPS COLLECTION BOX - BLUE BOX,3802 13TH AVE,BROOKLYN,NY,,US,,,,United States Postal Service,Q668687
1121800003,usps_collection_boxes,USPS COLLECTION BOX - BLUE BOX,4024 13TH AVE,BROOKLYN,NY,,US,,,,United States Postal Service,Q668687
1121800029,usps_collection_boxes,USPS COLLECTION BOX - BLUE BOX,1 ALBEMARLE RD,BROOKLYN,NY,,US,,,,United States Postal Service,Q668687
1121800004,usps_collection_boxes,USPS COLLECTION BOX - BLUE BOX,3601 14TH AVE,BROOKLYN,NY,,US,,,,United States Postal Service,Q668687
1121800040,usps_collection_boxes,USPS COLLECTION BOX - BLUE BOX,301 MCDONALD AVE,BROOKLYN,NY,,US,,,,United States Postal Service,Q668687
1121800033,usps_collection_boxes,USPS COLLECTION BOX - BLUE BOX,221 MCDONALD AVE,BROOKLYN,NY,,US,,,,United States Postal Service,Q668687
1121800054,usps_collection_boxes,USPS COLLECTION BOX - BLUE BOX,102 VANDERBILT ST,BROOKLYN,NY,,US,,,,United States Postal Service,Q668687
1121800018,usps_collection_boxes,USPS COLLECTION BOX - BLUE BOX,73 CHURCH AVE,BROOKLYN,NY,,US,,,,United States Postal Service,Q668687
1121800136,usps_collection_boxes,USPS COLLECTION BOX - PO LOBBY,419 MCDONALD AVE,BROOKLYN,NY,,US,,,,United States Postal Service,Q668687
1121800139,usps_collection_boxes,USPS COLLECTION BOX - PO LOBBY,419 MCDONALD AVE,BROOKLYN,NY,,US,,,,United States Postal Service,Q668687
1121800053,usps_collection_boxes,USPS COLLECTION BOX - BLUE BOX,419 MCDONALD AVE,BROOKLYN,NY,,US,,,,United States Postal Service,Q668687
1121800036,usps_collection_boxes,USPS COLLECTION BOX - BLUE BOX,419 MCDONALD AVE,BROOKLYN,NY,,US,,,,United States Postal Service,Q668687
1121800034,usps_collection_boxes,USPS COLLECTION BOX - BLUE BOX,3002 FORT HAMILTON PKWY,BROOKLYN,NY,,US,,,,United States Postal Service,Q668687
1121800135,usps_collection_boxes,USPS COLLECTION BOX - BLUE BOX,220 GREENWOOD AVE,BROOKLYN,NY,,US,,,,United States Postal Service,Q668687
1121800032,usps_collection_boxes,USPS COLLECTION BOX - BLUE BOX,222 ALBEMARLE RD,BROOKLYN,NY,,US,,,,United States Postal Service,Q668687
1121800006,usps_collection_boxes,USPS COLLECTION BOX - BLUE BOX,1478 39TH ST,BROOKLYN,NY,,US,,,,United States Postal Service,Q668687
1121800007,usps_collection_boxes,USPS COLLECTION BOX - BLUE BOX,1501 41ST ST,BROOKLYN,NY,,US,,,,United States Postal Service,Q668687
1121800051,usps_collection_boxes,USPS COLLECTION BOX - BLUE BOX,67 SEELEY ST,BROOKLYN,NY,,US,,,,United States Postal Service,Q668687
1121800019,usps_collection_boxes,USPS COLLECTION BOX - BLUE BOX,301 CHURCH AVE,BROOKLYN,NY,,US,,,,United States Postal Service,Q668687
1121800035,usps_collection_boxes,USPS COLLECTION BOX - BLUE BOX,2805 FORT HAMILTON PKWY,BROOKLYN,NY,,US,,,,United States Postal Service,Q668687
1121800008,usps_collection_boxes,USPS COLLECTION BOX - BLUE BOX,129 AVENUE C,BROOKLYN,NY,,US,,,,United States Postal Service,Q668687
1121800038,usps_collection_boxes,USPS COLLECTION BOX - BLUE BOX,761 MCDONALD AVE,BROOKLYN,NY,,US,,,,United States Postal Service,Q668687
1121800130,usps_collection_boxes,USPS COLLECTION BOX - BLUE BOX,4330 18TH AVE,BROOKLYN,NY,,US,,,,United States Postal Service,Q668687
1121800037,usps_collection_boxes,USPS COLLECTION BOX - BLUE BOX,4330 18TH AVE,BROOKLYN,NY,,US,,,,United States Postal Service,Q668687
1121800041,usps_collection_boxes,USPS COLLECTION BOX - BLUE BOX,3889 18TH AVE,BROOKLYN,NY,,US,,,,United States Postal Service,Q668687
1121800031,usps_collection_boxes,USPS COLLECTION BOX - BLUE BOX,704 DITMAS AVE,BROOKLYN,NY,,US,,,,United States Postal Service,Q668687
1121800025,usps_collection_boxes,USPS COLLECTION BOX - BLUE BOX,1004 CORTELYOU RD,BROOKLYN,NY,,US,,,,United States Postal Service,Q668687
1121800030,usps_collection_boxes,USPS COLLECTION BOX - BLUE BOX,423 DITMAS AVE,BROOKLYN,NY,,US,,,,United States Postal Service,Q668687
1121800027,usps_collection_boxes,USPS COLLECTION BOX - BLUE BOX,629 C0RTELYOU RD,BROOKLYN,NY,,US,,,,United States Postal Service,Q668687
1121800131,usps_collection_boxes,USPS COLLECTION BOX - BLUE BOX,430 OCEAN PKWY,BROOKLYN,NY,,US,,,,United States Postal Service,Q668687
1121800009,usps_collection_boxes,USPS COLLECTION BOX - BLUE BOX,615 AVENUE C,BROOKLYN,NY,,US,,,,United States Postal Service,Q668687
1121800026,usps_collection_boxes,USPS COLLECTION BOX - BLUE BOX,586 E 3RD ST,BROOKLYN,NY,,US,,,,United States Postal Service,Q668687
1121800010,usps_collection_boxes,USPS COLLECTION BOX - BLUE BOX,209 ARGYLE RD,BROOKLYN,NY,,US,,,,United States Postal Service,Q668687
1121800011,usps_collection_boxes,USPS COLLECTION BOX - BLUE BOX,908 BEVERLEY RD,BROOKLYN,NY,,US,,,,United States Postal Service,Q668687
1121800013,usps_collection_boxes,USPS COLLECTION BOX - BLUE BOX,261 OCEAN PKWY,BROOKLYN,NY,,US,,,,United States Postal Service,Q668687
1121800017,usps_collection_boxes,USPS COLLECTION BOX - BLUE BOX,901 CHURCH AVE,BROOKLYN,NY,,US,,,,United States Postal Service,Q668687
1121800020,usps_collection_boxes,USPS COLLECTION BOX - BLUE BOX,629 CHURCH AVE,BROOKLYN,NY,,US,,,,United States Postal Service,Q668687
1121800133,usps_collection_boxes,USPS COLLECTION BOX - BLUE BOX,632 CATON AVE,BROOKLYN,NY,,US,,,,United States Postal Service,Q668687
1121800134,usps_collection_boxes,USPS COLLECTION BOX - BLUE BOX,101 OCEAN PKWY,BROOKLYN,NY,,US,,,,United States Postal Service,Q668687
1121800023,usps_collection_boxes,USPS COLLECTION BOX - BLUE BOX,531 CHURCH AVE,BROOKLYN,NY,,US,,,,United States Postal Service,Q668687
1121800048,usps_collection_boxes,USPS COLLECTION BOX - BLUE BOX,829 GREENWOOD AVE,BROOKLYN,NY,,US,,,,United States Postal Service,Q668687
1121800012,usps_collection_boxes,USPS COLLECTION BOX - BLUE BOX,310 E 4TH ST,BROOKLYN,NY,,US,,,,United States Postal Service,Q668687
1121800047,usps_collection_boxes,USPS COLLECTION BOX - BLUE BOX,1241 REEVE PL,BROOKLYN,NY,,US,,,,United States Postal Service,Q668687
1121800132,usps_collection_boxes,USPS COLLECTION BOX - BLUE BOX,251 SEELEY ST,BROOKLYN,NY,,US,,,,United States Postal Service,Q668687
,visa,,,BROOKLYN,NY,,US,,,,,
,visa,,,NEW YORK,NY,,US,,,,,
,visa,,,BROOKLYN,NY,,US,,,,,
,visa,,,BROOKLYN,NY,,US,,,,,
,visa,,,BROOKLYN,NY,,US,,,,,
,visa,,,BROOKLYN,NY,,US,,,,,
,visa,,,BROOKLYN,NY,,US,,,,,
,visa,,,BOOKLYN,NY,,US,,,,,
,visa,,,BROOKLYN,NY,,US,,,,,
,visa,,,BROOKLYN,NY,,US,,,,,
,visa,,,BROOKLYN,NY,,US,,,,,
,visa,,,BROOKLYN,NY,,US,,,,,
,visa,,,BOOKLYN,NY,,US,,,,,
,visa,,,BROOKLYN,NY,,US,,,,,
,visa,,,BROOKLYN,NY,,US,,,,,
,visa,,,BROOKLYN,NY,,US,,,,,
,visa,,,BROOKLYN,NY,,US,,,,,
,visa,,,BROOKLYN,NY,,US,,,,,
,visa,,,BROOKLYN,NY,,US,,,,,
,visa,,,BROOKLYN,NY,,US,,,,,
,visa,,,BROOKLYN,NY,,US,,,,,
,visa,,,BROOKLYN,NY,,US,,,,,
,visa,,,BROOKLYN,NY,,US,,,,,
,visa,,,BROOKLYN,NY,,US,,,,,
,visa,,,BROOKLYN,NY,,US,,,,,
,visa,,,BROOKLYN,NY,,US,,,,,
,visa,,,BROOKLYN,NY,,US,,,,,
,visa,,,BROOKLYN,NY,,US,,,,,
,visa,,,BROOKLYN,NY,,US,,,,,
,visa,,,BROOKLYN,NY,,US,,,,,
,visa,,,BROOKLYN,NY,,US,,,,,
,visa,,,BROOKLYN,NY,,US,,,,,
,visa,,,BROOKLYN,NY,,US,,,,,
,visa,,,BROOKLYN,NY,,US,,,,,
,visa,,,BROOKLYN,NY,,US,,,,,
,visa,,,BROOKLYN,NY,,US,,,,,
,visa,,,BROOKLYN,NY,,US,,,,,
,visa,,,BROOKLYN,NY,,US,,,,,
,visa,,,BROOKLYN,NY,,US,,,,,
,visa,,,BROOKLYN,NY,,US,,,,,
,visa,,,BROOKLYN,NY,,US,,,,,
,visa,,,BROOKLYN,NY,,US,,,,,
,visa,,,BROOKLYN,NY,,US,,,,,
,visa,,,BROOKLYN,NY,,US,,,,,
,visa,,,BROOKLYN,NY,,US,,,,,
,visa,,,BROOKLYN,NY,,US,,,,,
,visa,,,NEW YORK,NY,,US,,,,,
,visa,,,BROOKLYN,NY,,US,,,,,
,visa,,,BROOKLYN,NY,,US,,,,,
,visa,,,BROOKLYN,NY,,US,,,,,
,visa,,,BROOKLYN,NY,,US,,,,,
,visa,,,BROOKLYN,NY,,US,,,,,
,visa,,,BROOKLYN,NY,,US,,,,,
,visa,,,BROOKLYN,NY,,US,,,,,
,visa,,,BROOKLYN,NY,,US,,,,,
,visa,,,BROOKLYN,NY,,US,,,,,
,visa,,,BROOKLYN,NY,,US,,,,,
,visa,,,BROOKLYN,NY,,US,,,,,
,visa,,,BROOKLYN,NY,,US,,,,,
,visa,,,BROOKLYN,NY,,US,,,,,
,visa,,,BROOKLYN,NY,,US,,,,,
,visa,,,BROOKLYN,NY,,US,,,,,
,visa,,,BROOKLYN,NY,,US,,,,,
,visa,,,BROOKLYN,NY,,US,,,,,
,visa,,,BROOKLYN,NY,,US,,,,,
,visa,,,BROOKLYN,NY,,US,,,,,
,visa,,,BROOKLYN,NY,,US,,,,,
,visa,,,BROOKLYN,NY,,US,,,,,
,visa,,,BROOKLYN,NY,,US,,,,,
,visa,,,BROOKLYN,NY,,US,,,,,
,visa,,,BROOKLYN,NY,,US,,,,,
,visa,,,BROOKLYN,NY,,US,,,,,
,visa,,,BROOKLYN,NY,,US,,,,,
,visa,,,BROOKLYN,NY,,US,,,,,
,visa,,,BROOKLYN,NY,,US,,,,,
,visa,,,BROOKLYN,NY,,US,,,,,
,visa,,,BROOKLYN,NY,,US,,,,,
,visa,,,BROOKLYN,NY,,US,,,,,
,visa,,,BROOKLYN,NY,,US,,,,,
,visa,,,BROOKLYN,NY,,US,,,,,
,visa,,,BROOKLYN,NY,,US,,,,,
,visa,,,BROOKLYN,NY,,US,,,,,
,visa,,,BROOKLYN,NY,,US,,,,,
,visa,,,BROOKLYN,NY,,US,,,,,
,visa,,,BROOKLYN,NY,,US,,,,,
,visa,,,BROOKLYN,NY,,US,,,,,
,visa,,,BROOKLYN,NY,,US,,,,,
,visa,,,BROOKLYN,NY,,US,,,,,
,visa,,,BROOKLYN,NY,,US,,,,,
,visa,,,BROOKLYN,NY,,US,,,,,
,visa,,,BROOKLYN,NY,,US,,,,,
,visa,,,BROOKLYN,NY,,US,,,,,
,visa,,,BROOKLYN,NY,,US,,,,,
,visa,,,BROOKLYN,NY,,US,,,,,
,visa,,,BROOKLYN,NY,,US,,,,,
,visa,,,BROOKLYN,NY,,US,,,,,
,visa,,,BROOKLYN,NY,,US,,,,,
,visa,,,BROOKLYN,NY,,US,,,,,
,visa,,,BROOKLYN,NY,,US,,,,,
,visa,,,BROOKLYN,NY,,US,,,,,
,visa,,,BROOKLYN,NY,,US,,,,,
,visa,,,BROOKLYN,NY,,US,,,,,
,visa,,,BROOKLYN,NY,,US,,,,,
,visa,,,BROOKLYN,NY,,US,,,,,
,visa,,,BROOKLYN,NY,,US,,,,,
,visa,,,BROOKLYN,NY,,US,,,,,
,visa,,,BROOKLYN,NY,,US,,,,,
,visa,,,BROOKLYN,NY,,US,,,,,
,visa,,,BROOKLYN,NY,,US,,,,,
,visa,,,BROOKLYN,NY,,US,,,,,
,visa,,,BROOKLYN,NY,,US,,,,,
,visa,,,BROOKLYN,NY,,US,,,,,
,visa,,,BROOKLYN,NY,,US,,,,,
,visa,,,BROOKLYN,NY,,US,,,,,
,visa,,,BROOKLYN,NY,,US,,,,,
,visa,,,BROOKLYN,NY,,US,,,,,
,visa,,,BROOKLYN,NY,,US,,,,,
,visa,,,BROOKLYN,NY,,US,,,,,
,visa,,,BROOKLYN,NY,,US,,,,,
,visa,,,BROOKLYN,NY,,US,,,,,
,visa,,,BROOKLYN,NY,,US,,,,,
,visa,,,BROOKLYN,NY,,US,,,,,
,visa,,,BROOKLYN,NY,,US,,,,,
,visa,,,BROOKLYN,NY,,US,,,,,
,visa,,,BROOKLYNN,NY,,US,,,,,
,visa,,,BROOKLYN,NY,,US,,,,,
,visa,,,BROOKLYN,NY,,US,,,,,
,visa,,,BROOKLYN,NY,,US,,,,,
,visa,,,BROOKLYN,NY,,US,,,,,
,visa,,,BROOKLYN,NY,,US,,,,,
,visa,,,BROOKLYN,NY,,US,,,,,
,visa,,,BROOKLYN,NY,,US,,,,,
,visa,,,BROOKLYN,NY,,US,,,,,
,visa,,,BROOKLYN,NY,,US,,,,,
,visa,,,BROOKLYN,NY,,US,,,,,
,visa,,,BROOKLYN,NY,,US,,,,,
,visa,,,BROOKLYN,NY,,US,,,,,
,visa,,,BROOKLYN,NY,,US,,,,,
,visa,,,BROOKLYN,NY,,US,,,,,
,visa,,,BROOKLYN,NY,,US,,,,,
,visa,,,"BROOKLYN,",NY,,US,,,,,
,visa,,,BROOKLYN,NY,,US,,,,,
,visa,,,BROOKLYN,NY,,US,,,,,
,visa,,,BROOKLYN,NY,,US,,,,,
,visa,,,BROOKLYN,NY,,US,,,,,
,visa,,,BROOKLYN,NY,,US,,,,,
,visa,,,BROOKLYN,NY,,US,,,,,
,visa,,,BROOKLYN,NY,,US,,,,,
,visa,,,BROOKLYN,NY,,US,,,,,
,visa,,,BROOKLYN,NY,,US,,,,,
,visa,,,BROOKLYN,NY,,US,,,,,
,visa,,,BROOKLYN,NY,,US,,,,,
,visa,,,BROOKLYN,NY,,US,,,,,
,visa,,,BROOKLYN,NY,,US,,,,,
,visa,,,BROOKLYN,NY,,US,,,,,
https://www.walgreens.com/locator/walgreens-114+beverley+rd-brooklyn-ny-11218/id=11806,walgreens,Walgreens,,Brooklyn,NY,,US,+1 718-437-7802,https://www.walgreens.com/locator/walgreens-114+beverley+rd-brooklyn-ny-11218/id=11806,Mo-Su 08:00-22:00,Walgreens,Q1591889
f601589b776ba5a94289b1e325310447,western_union,TOMAS GROCERY INC,,Brooklyn,NY,,US,+1 347-263-4294,https://location.westernunion.com/us/ny/brooklyn/f601589b776ba5a94289b1e325310447,Mo-Sa 08:00-20:30; Su 08:00-18:30,Western Union,Q861042
fd6b676a8987ae8a27cab89aa5bbf6eb,western_union,ATHEPY MULTISERVICE INC,,Brooklyn,NY,,US,+1 718-713-7961,https://location.westernunion.com/us/ny/brooklyn/fd6b676a8987ae8a27cab89aa5bbf6eb,Mo-Su 09:00-21:00,Western Union,Q861042
5cb171a94d4bae74760382ba28a7cce1,western_union,PHARMA RX INC,,Brooklyn,NY,,US,+1 718-436-5501,https://location.westernunion.com/us/ny/brooklyn/5cb171a94d4bae74760382ba28a7cce1,Mo-Su 09:00-19:30,Western Union,Q861042
10ec98ffba0d6cf909b85eaf1a65399b,western_union,MICHAELS PHARMACY,,Brooklyn,NY,,US,+1 718-921-8777,https://location.westernunion.com/us/ny/brooklyn/10ec98ffba0d6cf909b85eaf1a65399b,Mo-Fr 09:00-19:00; Su 09:00-19:00,Western Union,Q861042
15c05f20b434c73d2712ead56aef5337,western_union,7-ELEVEN #36091,,Brooklyn,NY,,US,+1 718-462-0605,https://location.westernunion.com/us/ny/brooklyn/15c05f20b434c73d2712ead56aef5337,,Western Union,Q861042
9ec766bf1f3e6a7f405c73b374c9ada1,western_union,CITYLINE PHARMACY CORP,,Brooklyn,NY,,US,+1 718-940-0310,https://location.westernunion.com/us/ny/brooklyn/9ec766bf1f3e6a7f405c73b374c9ada1,Mo-Su 09:00-20:00,Western Union,Q861042
dbf1de1a8a6c5e8241e1f214e6b62d6c,western_union,CITYLINE PHARMACY CORP,,Brooklyn,NY,,US,+1 718-940-0310,https://location.westernunion.com/us/ny/brooklyn/dbf1de1a8a6c5e8241e1f214e6b62d6c,Mo-Su 09:00-20:00,Western Union,Q861042
19694ab88722f068757d53577e907a8b,western_union,A-Z COMMUNITY SERVICES INC,,Brooklyn,NY,,US,+1 718-972-0002,https://location.westernunion.com/us/ny/brooklyn/19694ab88722f068757d53577e907a8b,Mo-Fr 09:00-21:00; Sa-Su 10:00-19:00,Western Union,Q861042
d6ba7815ef4c98e7cb88407a53d7b9f9,western_union,RANA786 INC,,Brooklyn,NY,,US,+1 929-430-8896,https://location.westernunion.com/us/ny/brooklyn/d6ba7815ef4c98e7cb88407a53d7b9f9,Mo-Su 09:00-21:30,Western Union,Q861042
