Ref,Spider,Name,Address,City,State,Zipcode,Country,Phone,Website,Hours,Brand,WikiData
6b014157-703e-ed11-b828-005056822c8b,amf_bowling,Sabre Lanes,,Menasha,WI,,US,+1 920-739-9161,https://www.bowlero.com/location/sabre-lanes,,Bowlero,Q17102967
1951,autozone_us,AutoZone Auto Parts Menasha,,Menasha,WI,,US,+1 920-720-8909,https://www.autozone.com/locations/wi/menasha/1325-appleton-rd.html,Mo-Fr 07:30-20:00; Sa-Su 08:00-20:00,AutoZone,Q4826087
168228,bluerhino,Piggly Wiggly #337,,Menasha,WI,,US,+1 920-727-9770,,,Blue Rhino,Q65681213
179919,bluerhino,"Kitz & Pfeil, Inc Ace Hardware #16906",,Menasha,WI,,US,+1 920-722-2877,,,Blue Rhino,Q65681213
151721,bluerhino,Walgreens #3851,,Menasha,WI,,US,+1 920-722-4759,,,Blue Rhino,Q65681213
212102,bluerhino,Festival Foods - Menasha #18-2725,,Menasha,WI,,US,+1 844-358-1454,,,Blue Rhino,Q65681213
83968586545155495200100000000000,bp,BP,,Menasha,WI,,US,+1 920-722-1782,,24/7,BP,Q152057
128350,bp,BP,,Menasha,WI,,US,1111111111,,,BP,Q152057
13074357702005495200100000000000,bp,BP,,Menasha,WI,,US,+1 920-886-1816,,Mo-Su 05:00-22:00,BP,Q152057
5366,burgerking,Burger King,,Menasha,WI,,US,+1 920-215-6343,https://www.bk.com/store-locator/store/restaurant_3006,Mo-Sa 06:00-20:00; Su 07:00-20:00,Burger King,Q177054
65967,citi,ATM Nail Boss,,Menasha,WI,,US,,,,Citibank,Q857063
66410,citi,ATM NORTH SHORE BANK,,Menasha,WI,,US,,,,Citibank,Q857063
66409,citi,ATM NORTH SHORE BANK,,Menasha,WI,,US,,,,Citibank,Q857063
62630,citi,ATM Kwik Trip #297-1,,Menasha,WI,,US,,,,Citibank,Q857063
62631,citi,ATM Kwik Trip #297-2,,Menasha,WI,,US,,,,Citibank,Q857063
62199,citi,ATM Kwik Trip #1099-1,,Menasha,WI,,US,,,,Citibank,Q857063
62200,citi,ATM Kwik Trip #1099-2,,Menasha,WI,,US,,,,Citibank,Q857063
63190,citi,ATM Kwik Trip #743-1,,Menasha,WI,,US,,,,Citibank,Q857063
63191,citi,ATM Kwik Trip #743-2,,Menasha,WI,,US,,,,Citibank,Q857063
66318,citi,ATM NICOLET NATIONAL BANK,,Menasha,WI,,US,,,,Citibank,Q857063
89987,citi,ATM Walgreens,,Menasha,WI,,US,,,,Citibank,Q857063
94091,citi,ATM Waverly Beach,,Menasha,WI,,US,,,,Citibank,Q857063
65183,citi,ATM Menasha Marathon,,Menasha,WI,,US,,,,Citibank,Q857063
https://www.edwardjones.com/us-en/financial-advisor/brian-asendorf,edwardjones,Brian P Asendorf,,Menasha,WI,,US,+1 920-738-9252,https://www.edwardjones.com/us-en/financial-advisor/brian-asendorf,Mo-Th 08:00-17:00; Fr 08:00-16:00,Edward Jones,Q5343830
https://local.fedex.com/#25200843,fedex,,,Menasha,WI,,US,+1 800-463-3339,https://local.fedex.com/en-us/wi/menasha/tyf1u,,FedEx,Q459477
2725,festival_foods_us,Menasha,,Menasha,WI,,US,"[920-968-9690](+19209689690)
Click N Go: [920-249-6110](+19202496110)",https://www.festfoods.com/stores/menasha,"Mo-Su 06:00-23:00,08:00-21:00",Festival Foods,Q5445707
ac2de657-ed66-e511-97d0-005056890337,goodwill,Goodwill Retail Store and Training Center - Menasha,,Menasha,WI,,US,+1 920-731-6605,https://www.goodwill.org/locator/location/?store=YWMyZGU2NTctZWQ2Ni1lNTExLTk3ZDAtMDA1MDU2ODkwMzM3&lat=NDQuMjM1MzQ=&lng=LTg4LjQyNjA5,,Goodwill,Q5583655
https://salons.greatclips.com/us/wi/menasha/1490-oneida-st,greatclips,Great Clips,,Menasha,WI,,US,+1 920-944-3601,https://salons.greatclips.com/us/wi/menasha/1490-oneida-st,Mo-Fr 09:00-19:00; Sa 09:00-17:00; Su 00:00-24:00,Great Clips,Q5598967
https://locations.jimmyjohns.com/wi/menasha/sandwiches-4091.html,jimmy_johns,Jimmy John's,,Menasha,WI,,US,+1 920-215-3643,https://locations.jimmyjohns.com/wi/menasha/sandwiches-4091.html,,Jimmy John's,Q1689380
https://locations.kfc.com/#11247896,kfc,Chicken Nuggets Near Menasha,,Menasha,WI,,US,,https://locations.kfc.com/wi/menasha/1195-valley-road/chickennugget,Mo-Su 11:00-21:00,KFC,Q524757
160220,marathon_petroleum_us,Menasha Marathon,,MENASHA,WI,,US,+1 920-725-7068,,,Marathon,Q458363
https://locations.oreillyauto.com/wi/menasha/check-engine-light-testing-4596.html,oreilly,Your Menasha O'Reilly Auto Parts Store,,Menasha,WI,,US,+1 920-729-6720,https://locations.oreillyauto.com/wi/menasha/check-engine-light-testing-4596.html,Mo-Sa 07:00-21:00; Su 08:00-20:00,O'Reilly Auto Parts,Q7071951
https://locations.oreillyauto.com/wi/menasha/wiper-installation-4596.html,oreilly,Your Menasha O'Reilly Auto Parts Store,,Menasha,WI,,US,+1 920-729-6720,https://locations.oreillyauto.com/wi/menasha/wiper-installation-4596.html,Mo-Sa 07:00-21:00; Su 08:00-20:00,O'Reilly Auto Parts,Q7071951
https://locations.oreillyauto.com/wi/menasha/battery-testing-4596.html,oreilly,Your Menasha O'Reilly Auto Parts Store,,Menasha,WI,,US,+1 920-729-6720,https://locations.oreillyauto.com/wi/menasha/battery-testing-4596.html,Mo-Sa 07:00-21:00; Su 08:00-20:00,O'Reilly Auto Parts,Q7071951
https://locations.oreillyauto.com/wi/menasha/autopartes-4596.html,oreilly,Tu tienda O'Reilly Auto Parts en Menasha,,Menasha,WI,,US,+1 920-729-6720,https://locations.oreillyauto.com/wi/menasha/autopartes-4596.html,Mo-Sa 07:00-21:00; Su 08:00-20:00,O'Reilly Auto Parts,Q7071951
464,piggly_wiggly_us,Piggly Wiggly,,Menasha,WI,,US,+1 920-727-9770,https://www.shopthepig.com/,,Piggly Wiggly,Q3388303
969,scooters_coffee_us,Airport & Appleton Rd,,Menasha,WI,,US,+1 920-486-1326,,Mo-Fr 05:30-20:00; Sa-Su 06:00-20:00,Scooter's Coffee,Q117280308
972,sola_salon_studios,Menasha,,Menasha,WI,,US,+1 920-326-1870,https://www.solasalonstudios.com/locations/menasha,,Sola Salon Studios,Q64337426
https://restaurants.subway.com/#14911542,subway,Subway,,Menasha Winnebago,WI,,US,+1 920-751-3999,https://restaurants.subway.com/united-states/wi/menasha/1050-midway-road,Mo-Fr 07:00-20:30; Sa-Su 08:30-20:30,Subway,Q244457
https://restaurants.subway.com/#14912209,subway,Subway,,Menasha Winnebago,WI,,US,+1 920-725-5760,https://restaurants.subway.com/united-states/wi/menasha/319-racine-st,Mo-Fr 07:00-21:00; Sa-Su 09:00-21:00,Subway,Q244457
https://locations.tacobell.com/#6143463,taco_bell,Taco Bell,,Menasha,WI,,US,+1 920-727-0755,https://locations.tacobell.com/wi/menasha/450-3rd-st.html,Mo-Sa 08:00-04:00; Su 08:00-03:00,Taco Bell,Q752941
015266,uhaul,Chicagos House Of Hoagies,1089 Racine Rd,Menasha,WI,,US,+1 920-486-6245,,Tu-Fr 00:00-18:00; Sa 00:00-16:00,U-Haul,Q7862902
002005,uhaul,Pitts Small Engine,1616 Drum Corps Dr,Menasha,WI,,US,+1 920-486-6080,,Mo-Th 00:00-17:00; Fr 00:00-15:00,U-Haul,Q7862902
026608,uhaul,Big Door Ready To Roll LLC,600 Century Oaks Dr,Menasha,WI,,US,+1 920-486-5708,,Mo-Fr 00:00-16:00,U-Haul,Q7862902
1372686,usps,MENASHA,,MENASHA,WI,,US,+1 920-722-0326,,Mo-Fr 08:30-17:00; Sa 09:00-12:00,United States Postal Service,Q668687
5495200044,usps_collection_boxes,USPS COLLECTION BOX - BLUE BOX,508 BROAD ST,MENASHA,WI,,US,,,,United States Postal Service,Q668687
5495200045,usps_collection_boxes,USPS COLLECTION BOX - BLUE BOX,508 BROAD ST,MENASHA,WI,,US,,,,United States Postal Service,Q668687
5495200030,usps_collection_boxes,USPS COLLECTION BOX - BLUE BOX,100 MAIN ST,MENASHA,WI,,US,,,,United States Postal Service,Q668687
5495200048,usps_collection_boxes,USPS COLLECTION BOX - PO LOBBY,84 RACINE ST,MENASHA,WI,,US,,,,United States Postal Service,Q668687
5495200049,usps_collection_boxes,USPS COLLECTION BOX - PO LOBBY,84 RACINE ST,MENASHA,WI,,US,,,,United States Postal Service,Q668687
5495200052,usps_collection_boxes,USPS COLLECTION BOX - PO LOBBY,84 RACINE ST,MENASHA,WI,,US,,,,United States Postal Service,Q668687
5495200034,usps_collection_boxes,USPS COLLECTION BOX - BLUE BOX,84 RACINE ST,MENASHA,WI,,US,,,,United States Postal Service,Q668687
5495200047,usps_collection_boxes,USPS COLLECTION BOX - BLUE BOX,849 WARSAW ST,MENASHA,WI,,US,,,,United States Postal Service,Q668687
5495200012,usps_collection_boxes,USPS COLLECTION BOX - BLUE BOX,1487 KENWOOD CTR,MENASHA,WI,,US,,,,United States Postal Service,Q668687
5495200009,usps_collection_boxes,USPS COLLECTION BOX - BLUE BOX,1325 APPLETON RD,MENASHA,WI,,US,,,,United States Postal Service,Q668687
5495200010,usps_collection_boxes,USPS COLLECTION BOX - BLUE BOX,1700 APPLETON RD,MENASHA,WI,,US,,,,United States Postal Service,Q668687
5495200019,usps_collection_boxes,USPS COLLECTION BOX - BLUE BOX,1800 APPLETON RD,MENASHA,WI,,US,,,,United States Postal Service,Q668687
,visa,,,MENASHA,WI,,US,,,,,
,visa,,,MENASHA,WI,,US,,,,,
,visa,,,MENASHA,WI,,US,,,,,
,visa,,,APPLETON,WI,,US,,,,,
,visa,,,MENSHA,WI,,US,,,,,
,visa,,,MENASHA,WI,,US,,,,,
,visa,,,MENASHA,WI,,US,,,,,
,visa,,,MENASHA,WI,,US,,,,,
,visa,,,MENASHA,WI,,US,,,,,
,visa,,,MENSAHA,WI,,US,,,,,
,visa,,,MENASHA,WI,,US,,,,,
,visa,,,MENASHA,WI,,US,,,,,
,visa,,,MENASHA,WI,,US,,,,,
,visa,,,MENASHA,WI,,US,,,,,
,visa,,,MENASHA,WI,,US,,,,,
,visa,,,MENASHA,WI,,US,,,,,
,visa,,,MENASHA,WI,,US,,,,,
,visa,,,MENASHA,WI,,US,,,,,
,visa,,,MENASHA,WI,,US,,,,,
,visa,,,MENASHA,WI,,US,,,,,
,visa,,,MENASHA,WI,,US,,,,,
,visa,,,MENASHA,WI,,US,,,,,
,visa,,,MENASHA,WI,,US,,,,,
,visa,,,MENASHA,WI,,US,,,,,
,visa,,,MENASHA,WI,,US,,,,,
,visa,,,MENASHA,WI,,US,,,,,
,visa,,,MENASHA,WI,,US,,,,,
,visa,,,MENOSHA,WI,,US,,,,,
,visa,,,MENASHA,WI,,US,,,,,
,visa,,,MENASHA,WI,,US,,,,,
,visa,,,MENASHA,WI,,US,,,,,
,visa,,,MENASHA,WI,,US,,,,,
,visa,,,MENASHA,WI,,US,,,,,
,visa,,,MENASHA,WI,,US,,,,,
,visa,,,MENASHA,WI,,US,,,,,
,visa,,,NEENAH,WI,,US,,,,,
https://www.walgreens.com/locator/walgreens-305+racine+st-menasha-wi-54952/id=3851,walgreens,Walgreens,,Menasha,WI,,US,+1 920-722-4759,https://www.walgreens.com/locator/walgreens-305+racine+st-menasha-wi-54952/id=3851,Mo-Su 08:00-22:00,Walgreens,Q1591889
