Ref,Spider,Name,Address,City,State,Zipcode,Country,Phone,Website,Hours,Brand,WikiData
6450,aaa,Fresno Fig Garden Village,,Fresno,CA,,US,+1 559-241-6800,,,American Automobile Association,Q463436
2519 W. Shaw Avenue,allied_universal,Allied Universal,,Fresno,CA,,US,+1 559-243-1217,https://www.aus.com/fresno-security-systems-services,,Allied Universal,Q4732537
"600 W. Shaw Avenue, Suite 200",allied_universal,Allied Universal,,Fresno,CA,,US,+1 559-243-1217,https://www.aus.com/fresno-security-systems-services,,Allied Universal,Q4732537
https://bananarepublic.gap.com/stores/ca/fresno/banana-republic-7652.html,bananarepublic,Banana Republic,,Fresno,CA,,US,+1 559-226-3906,https://bananarepublic.gap.com/stores/ca/fresno/banana-republic-7652.html,Mo-Sa 10:00-19:00; Su 11:00-18:00,Banana Republic,Q806085
https://locators.bankofamerica.com/ca/fresno/financial-centers-fresno-8691.html,bankofamerica,Bank of America Financial Center & Walk-Up ATM | Fig Garden Financial Ctr,,Fresno,CA,,US,+1 559-445-7731,https://locators.bankofamerica.com/ca/fresno/financial-centers-fresno-8691.html,Mo-Fr 10:00-16:00,Bank of America,Q487907
fresno,barmethod,The Bar Method Fresno,,Fresno,CA,,US,+1 559-412-2750,https://barmethod.com/locations/fresno/,,The Bar Method,Q117599728
https://locations.baskinrobbins.com/ca/fresno/310-e-shields-ave-360128-br,baskin_robbins_us,Baskin-Robbinsâ„¢,,Fresno,CA,,US,+1 559-227-7013,https://locations.baskinrobbins.com/ca/fresno/310-e-shields-ave-360128-br,Mo-Su 10:00-22:00,Baskin-Robbins,Q584601
BBW01702,bathandbodyworks_us,FIG GARDEN VILLAGE SHOPPING CENTER,,FRESNO,CA,,US,+1 559-221-6429,,Mo-Sa 10:00-19:00; Su 11:00-18:00,Bath & Body Works,Q810773
ca_fresno_5128-n-palm-ave,chipotle, ,,Fresno,CA,,US,+1 559-225-1166,https://locations.chipotle.com/ca/fresno/5128-n-palm-ave,,Chipotle,Q465751
26371,citi,ATM 7ELEVEN-FCTI,,Fresno,CA,,US,,,,Citibank,Q857063
52623,citi,ATM CVS,,Fresno,CA,,US,,,,Citibank,Q857063
67206,citi,ATM PACIFIC WESTERN BANK,,Fresno,CA,,US,,,,Citibank,Q857063
29715,citi,ATM 7ELEVEN-FCTI,,Fresno,CA,,US,,,,Citibank,Q857063
31373,citi,ATM 7ELEVEN-FCTI,,Fresno,CA,,US,,,,Citibank,Q857063
20121,coldstone_creamery,Cold Stone Creamery,,Fresno,CA,,US,+1 559-225-0437,https://www.coldstonecreamery.com/stores/20121,,Cold Stone Creamery,Q1094923
9994,cvs_us,CVS Pharmacy,,Fresno,CA,,US,+1 559-226-1485,https://www.cvs.com/store-locator/fresno-ca-pharmacies/728-w-shaw-ave-fresno-ca-93704/storeid=9994,Mo-Su 08:00-22:00,CVS Pharmacy,Q2078880
california-fresno,deloitte,Deloitte - Fresno,,Fresno,CA,,US,+1 559-449-6300,https://www2.deloitte.com/us/en/footerlinks/office-locator/california/fresno.html,,Deloitte,Q491748
https://www.habitburger.com/locations/fresno/,habit_burger,The Habit Burger Grill,,Fresno,CA,,US,+1 559-226-2128,https://www.habitburger.com/locations/fresno/,Mo-Th 10:30-21:00; Fr-Sa 10:30-22:00; Su 10:30-21:00,The Habit Burger Grill,Q18158741
146,ikes,Fresno (Palmdon),,Fresno,CA,,US,+1 559-319-8174,https://locations.ikessandwich.com/ca/fresno/146/,,Ike's Love & Sandwiches,Q112028897
https://locations.jamba.com/#355-Jamba,jambajuice,Jamba Fig Garden,,Fresno,CA,,US,+1 559-515-6742,https://locations.jamba.com/ca/fresno/5060-n-palm-ave,Mo-Th 08:00-20:00; Fr-Sa 08:00-21:00; Su 09:00-20:00,Jamba Juice,Q3088784
105191,little_free_library,The Roosevelt Little Library #105191 Fresno CA,,Fresno,CA,,US,,,,Little Free Library,Q6650101
90679,little_free_library,Emmiterio Boyer #90679 Fresno CA,,Fresno,CA,,US,,,,Little Free Library,Q6650101
111974,little_free_library,Evangeline's Library #111974 Fresno CA,,Fresno,CA,,US,,,,Little Free Library,Q6650101
69278,little_free_library,Laura Ward #69278 Fresno CA,,Fresno,CA,,US,,,,Little Free Library,Q6650101
141046,little_free_library,Diane Hanson-Barnes #141046 Fresno CA,,Fresno,CA,,US,,,,Little Free Library,Q6650101
132484,little_free_library,Lansing Library #132484 Fresno CA,,Fresno,CA,,US,,,,Little Free Library,Q6650101
84336,little_free_library,CVCF Little Free Library #84336 Fresno CA,,Fresno,CA,,US,,,,Little Free Library,Q6650101
125653,little_free_library,Carl Simms #125653 Fresno CA,,Fresno,CA,,US,,,,Little Free Library,Q6650101
Fig Garden Village,lululemon,Lululemon,"712 W Shaw, Space 43A, Fresno, CA, US, 93704",Fresno,CA,,US,+1 559-314-3263,https://shop.lululemon.com/stores/us/fresno/fig-garden-village-store,Mo-Sa 10:00-19:00; Su 11:00-18:00,Lululemon,Q6702957
https://stores.madewell.com/#3708347,madewell_us,Madewell,,Fresno,CA,,US,+1 559-226-1285,https://stores.madewell.com/us/ca/fresno/706-west-shaw-avenue,Mo 10:00-19:00; Tu 10:00-18:00; We-Sa 10:00-19:00; Su 11:00-18:00,Madewell,Q64026213
https://locations.massageenvy.com/#1774072,massage_envy,Massage Envy Fresno-Fig Garden,,Fresno,CA,,US,+1 559-264-3689,https://locations.massageenvy.com/california/fresno/642-w-shaw-ave.html,Mo 09:00-20:00; Tu-Fr 09:00-21:00; Sa 09:00-19:00; Su 09:00-20:00,Massage Envy,Q10327170
1669,paper_source_us,"Fresno, CA",,Fresno,CA,,US,+1 559-666-1958,https://www.papersource.com/locator/Ca-fresno/,Mo-Tu 10:00-19:00; We-Fr 10:00-20:00; Sa 10:00-19:00; Su 11:00-18:00,Paper Source,Q25000269
0000887032,phillips_66_conoco_76,SEI 37962,,FRESNO,CA,,US,+1 559-892-0093,,,U76,Q1658320
35732,seven_eleven_ca_us,7-11 Str   385 W Shaw,,Fresno,CA,,US,+1 559-229-2781,https://www.7-eleven.com/locations/ca/fresno/385-w-shaw-35732,,7-Eleven,Q259340
https://stations.sinclairoil.com/ca/fresno/384-w-shaw-ave,sinclair_us,Sinclair Gas Station,,Fresno,CA,,US,+1 559-227-7676,https://stations.sinclairoil.com/ca/fresno/384-w-shaw-ave,Mo-Su 07:00-21:00,Sinclair,Q1290900
https://stations.sinclairoil.com/ca/fresno/5792-n-palm-ave,sinclair_us,Sinclair Gas Station,,Fresno,CA,,US,+1 559-412-4052,https://stations.sinclairoil.com/ca/fresno/5792-n-palm-ave,Mo-Su 05:00-23:00,Sinclair,Q1290900
796,sola_salon_studios,Fig Garden Village,,Fresno,CA,,US,+1 559-569-2772,https://www.solasalonstudios.com/locations/fig-garden-village,,Sola Salon Studios,Q64337426
82597,supercuts,Shaw Maroa Shopping Center,411 W Shaw Ave,Fresno,CA,,US,+1 559-221-9100,https://www.supercuts.com/checkin/82597,Mo-Fr 08:00-20:00; Sa 08:00-19:00; Su 09:00-19:00,Supercuts,Q7643239
1357003,usps,CARDWELL,,FRESNO,CA,,US,+1 559-222-2230,,Mo-Fr 09:00-17:00; Sa 10:00-14:00,United States Postal Service,Q668687
9370400005,usps_collection_boxes,USPS COLLECTION BOX - BLUE BOX,1101 E UNIVERSITY AVE,FRESNO,CA,,US,,,,United States Postal Service,Q668687
9370400029,usps_collection_boxes,USPS COLLECTION BOX - BLUE BOX,780 W SHAW AVE,FRESNO,CA,,US,,,,United States Postal Service,Q668687
9370400027,usps_collection_boxes,USPS COLLECTION BOX - BLUE BOX,5136 N PALM AVE,FRESNO,CA,,US,,,,United States Postal Service,Q668687
9370400036,usps_collection_boxes,USPS COLLECTION BOX - BLUE BOX,5250 N PALM AVE,FRESNO,CA,,US,,,,United States Postal Service,Q668687
9370400020,usps_collection_boxes,USPS COLLECTION BOX - BLUE BOX,1606 E GRIFFITH WAY,FRESNO,CA,,US,,,,United States Postal Service,Q668687
9370400016,usps_collection_boxes,USPS COLLECTION BOX - PO LOBBY,1606 E GRIFFITH WAY,FRESNO,CA,,US,,,,United States Postal Service,Q668687
9370400048,usps_collection_boxes,USPS COLLECTION BOX - PO LOBBY,1606 E GRIFFITH WAY,FRESNO,CA,,US,,,,United States Postal Service,Q668687
9370400012,usps_collection_boxes,USPS COLLECTION BOX - BLUE BOX,365 W SHAW AVE,FRESNO,CA,,US,,,,United States Postal Service,Q668687
9370400033,usps_collection_boxes,USPS COLLECTION BOX - BLUE BOX,732 W BULLARD AVE,FRESNO,CA,,US,,,,United States Postal Service,Q668687
9370400041,usps_collection_boxes,USPS COLLECTION BOX - BLUE BOX,6465 N PALM AVE,FRESNO,CA,,US,,,,United States Postal Service,Q668687
9370400002,usps_collection_boxes,USPS COLLECTION BOX - BLUE BOX,6715 N PALM AVE,FRESNO,CA,,US,,,,United States Postal Service,Q668687
,visa,,,FRESNO,CA,,US,,,,,
,visa,,,FRESNO,CA,,US,,,,,
,visa,,,FRESNO,CA,,US,,,,,
,visa,,,FRESNO,CA,,US,,,,,
,visa,,,FRESNO,CA,,US,,,,,
,visa,,,FRESNO,CA,,US,,,,,
,visa,,,FRESNO,CA,,US,,,,,
,visa,,,FRESNO,CA,,US,,,,,
,visa,,,FRESNO,CA,,US,,,,,
,visa,,,FRESNO,CA,,US,,,,,
,visa,,,FRESNO,CA,,US,,,,,
,visa,,,FRESNO,CA,,US,,,,,
,visa,,,FRESNO,CA,,US,,,,,
,visa,,,FRESNO,CA,,US,,,,,
,visa,,,FRESNO,CA,,US,,,,,
,visa,,,FRESNO,CA,,US,,,,,
,visa,,,FRESNO,CA,,US,,,,,
,visa,,,FRESNO,CA,,US,,,,,
,visa,,,FRESNO,CA,,US,,,,,
,visa,,,FRESNO,CA,,US,,,,,
,visa,,,FRESNO,CA,,US,,,,,
,visa,,,FRESNO,CA,,US,,,,,
,visa,,,FRESNO,CA,,US,,,,,
,visa,,,FRESNO,CA,,US,,,,,
,visa,,,FRESNO,CA,,US,,,,,
,visa,,,FRESNO,CA,,US,,,,,
,visa,,,FRESNO,CA,,US,,,,,
,visa,,,FRESNO,CA,,US,,,,,
,visa,,,FRESNO,CA,,US,,,,,
,visa,,,FRESNO,CA,,US,,,,,
,visa,,,MODESTO,CA,,US,,,,,
6b9f5af6b691f34e56670ca666a96b03,western_union,7-ELEVEN #13926,,Fresno,CA,,US,+1 559-227-8778,https://location.westernunion.com/us/ca/fresno/6b9f5af6b691f34e56670ca666a96b03,,Western Union,Q861042
1773,whitehouseblackmarket,Fig Garden Village,714 W Shaw Ave,Fresno,CA,,US,+1 559-221-0646,,Mo-Sa 10:00-21:00; Su 12:00-18:00,White House Black Market,Q7994858
fresno,whole_foods,Fresno,650 W Shaw Ave,Fresno,CA,,US,+1 559-241-0300,https://www.wholefoodsmarket.com/stores/fresno,Mo-Su 08:00-21:00,Whole Foods,Q1809448
