Ref,Spider,Name,Address,City,State,Zipcode,Country,Phone,Website,Hours,Brand,WikiData
https://stores.advanceautoparts.com/pa/pittsburgh/1445-babcock-blvd,advance_auto_parts_us,Advance Auto Parts,,Pittsburgh,PA,,US,+1 412-407-4685,https://stores.advanceautoparts.com/pa/pittsburgh/1445-babcock-blvd,Mo-Fr 07:30-18:00; Sa 08:00-16:00; Su 09:00-15:00,Advance Auto Parts,Q4686051
126808,bluerhino,Do It Best #3317- D. Hastings Co.,,Pittsburg,PA,,US,+1 412-821-3883,,,Blue Rhino,Q65681213
40989176310011520900100000000000,bp,BP,,Pittsburgh,PA,,US,+1 412-821-1591,,Mo-Su 06:00-22:00,BP,Q152057
28723,citi,ATM 7ELEVEN-FCTI,,Millvale,PA,,US,,,,Citibank,Q857063
72054495,moneygram,ACE CASH EXPRESS - #2428,,MILLVALE,PA,,US,+1 412-821-0769,,Mo-Th 09:00-19:00; Fr 09:00-20:00; Sa 09:00-18:00; Su 00:00-24:00,MoneyGram,Q1944412
81196,ritasitalianice,Ritaâ€™s of Babcock and Glenwood PA,,Pittsburgh,PA,,US,+1 412-821-7482,https://www.ritasice.com/location/ritas-of-babcock-and-glenwood-pa/,,Rita's Italian Ice,Q7336456
40225,seven_eleven_ca_us,7-Eleven,,MILLVALE,PA,,US,+1 412-821-3670,https://www.7-eleven.com/locations/pa/millvale/300-grant-avenue-40225,,7-Eleven,Q259340
https://restaurants.subway.com/#14909421,subway,Subway,,Millvale Allegheny,PA,,US,+1 412-821-4140,https://restaurants.subway.com/united-states/pa/millvale/124-grant-ave,Mo-Su 09:00-22:00,Subway,Q244457
0363332804,sunoco_us,Sunoco,,MILLVALE,PA,,US,+1 412-821-0840,,24/7,Sunoco,Q1423218
0062400700,sunoco_us,Sunoco,,MILLVALE,PA,,US,+1 412-821-3670,,,Sunoco,Q1423218
1436530,usps,MILLVALE,,MILLVALE,PA,,US,+1 412-821-7859,,Mo-Fr 10:00-16:00; Sa 10:00-12:00,United States Postal Service,Q668687
1520900002,usps_collection_boxes,USPS COLLECTION BOX - BLUE BOX,1801 BABCOCK BLVD,MILLVALE,PA,,US,,,,United States Postal Service,Q668687
1520900012,usps_collection_boxes,USPS COLLECTION BOX - BLUE BOX,1620 BABCOCK BLVD,MILLVALE,PA,,US,,,,United States Postal Service,Q668687
1520900011,usps_collection_boxes,USPS COLLECTION BOX - BLUE BOX,200 HILLWOOD RD,MILLVALE,PA,,US,,,,United States Postal Service,Q668687
1520900005,usps_collection_boxes,USPS COLLECTION BOX - BLUE BOX,1304 EVERGREEN AVE,MILLVALE,PA,,US,,,,United States Postal Service,Q668687
1520900018,usps_collection_boxes,USPS COLLECTION BOX - BLUE BOX,1097 NORTH AVE,MILLVALE,PA,,US,,,,United States Postal Service,Q668687
1520900010,usps_collection_boxes,USPS COLLECTION BOX - BLUE BOX,295 HAWTHORNE RD,MILLVALE,PA,,US,,,,United States Postal Service,Q668687
1520900021,usps_collection_boxes,USPS COLLECTION BOX - BLUE BOX,195 SEAVEY RD,MILLVALE,PA,,US,,,,United States Postal Service,Q668687
1520900022,usps_collection_boxes,USPS COLLECTION BOX - BLUE BOX,820 EVERGREEN AVE,MILLVALE,PA,,US,,,,United States Postal Service,Q668687
1520900016,usps_collection_boxes,USPS COLLECTION BOX - BLUE BOX,501 NORTH AVE,MILLVALE,PA,,US,,,,United States Postal Service,Q668687
1520900013,usps_collection_boxes,USPS COLLECTION BOX - BLUE BOX,501 LINCOLN AVE,MILLVALE,PA,,US,,,,United States Postal Service,Q668687
1520900001,usps_collection_boxes,USPS COLLECTION BOX - BLUE BOX,205 LINCOLN AVE,MILLVALE,PA,,US,,,,United States Postal Service,Q668687
1520900027,usps_collection_boxes,USPS COLLECTION BOX - PO LOBBY,205 LINCOLN AVE LBBY,MILLVALE,PA,,US,,,,United States Postal Service,Q668687
1520900028,usps_collection_boxes,USPS COLLECTION BOX - PO LOBBY,205 LINCOLN AVE LBBY,MILLVALE,PA,,US,,,,United States Postal Service,Q668687
1520900030,usps_collection_boxes,USPS COLLECTION BOX - PO LOBBY,205 LINCOLN AVE,MILLVALE,PA,,US,,,,United States Postal Service,Q668687
1520900008,usps_collection_boxes,USPS COLLECTION BOX - BLUE BOX,411 GRANT AVE,MILLVALE,PA,,US,,,,United States Postal Service,Q668687
,visa,,,PITTSBURGH,PA,,US,,,,,
,visa,,,PITTSBURGH,PA,,US,,,,,
,visa,,,PITTSBURGH,PA,,US,,,,,
,visa,,,PITTSBURGH,PA,,US,,,,,
,visa,,,PITTSBURGH,PA,,US,,,,,
,visa,,,PITTSBURGH,PA,,US,,,,,
,visa,,,MILLVALE,PA,,US,,,,,
,visa,,,MILLVALE,PA,,US,,,,,
,visa,,,MILLVALE,PA,,US,,,,,
,visa,,,MILLVALE,PA,,US,,,,,
,visa,,,PITTSBURGH,PA,,US,,,,,
,visa,,,MILLVALE,PA,,US,,,,,
,visa,,,MILLVALE,PA,,US,,,,,
,visa,,,PITTSBURGH,PA,,US,,,,,
,visa,,,MILLVALE,PA,,US,,,,,
,visa,,,PITTSBURGH,PA,,US,,,,,
,visa,,,MILLVALE,PA,,US,,,,,
,visa,,,PITTSBURGH,PA,,US,,,,,
,visa,,,MILLVALE,PA,,US,,,,,
,visa,,,PITTSBURGH,PA,,US,,,,,
,visa,,,PITTSBURGH,PA,,US,,,,,
,visa,,,PITTSBURGH,PA,,US,,,,,
,visa,,,PITTSBURGH,PA,,US,,,,,
,visa,,,MILLVALE,PA,,US,,,,,
,visa,,,MILLVALE,PA,,US,,,,,
,visa,,,MILLVALE,PA,,US,,,,,
,visa,,,MILLVALE,PA,,US,,,,,
,visa,,,MILLVALE,PA,,US,,,,,
,visa,,,MILLVALE,PA,,US,,,,,
,visa,,,MILLVALE,PA,,US,,,,,
,visa,,,MILLVALE,PA,,US,,,,,
,visa,,,PITTSBURGH,PA,,US,,,,,
,visa,,,PITTSBURGH,PA,,US,,,,,
,visa,,,PITTSBURGH,PA,,US,,,,,
,visa,,,PITTSBURGH,PA,,US,,,,,
,visa,,,MILLVALE,PA,,US,,,,,
,visa,,,PITTSBURGH,PA,,US,,,,,
,visa,,,PITTSBURGH,PA,,US,,,,,
,visa,,,PITTSBURGH,PA,,US,,,,,
,visa,,,PITTSBURGH,PA,,US,,,,,
,visa,,,PITTSBURGH,PA,,US,,,,,
,visa,,,PITTSBURGH,PA,,US,,,,,
,visa,,,PITTSBURGH,PA,,US,,,,,
,visa,,,PITTSBURGH,PA,,US,,,,,
