Ref,Spider,Name,Address,City,State,Zipcode,Country,Phone,Website,Hours,Brand,WikiData
1942,autozone_us,AutoZone Auto Parts Cincinnati,,Cincinnati,OH,,US,+1 513-471-8900,https://www.autozone.com/locations/oh/cincinnati/3410-warsaw-ave.html,Mo-Sa 07:30-20:00; Su 09:00-20:00,AutoZone,Q4826087
152053,bluerhino,Walgreens #7181,,Cincinnati,OH,,US,+1 513-921-7722,,,Blue Rhino,Q65681213
185514,bluerhino,Kroger #482 - Cincinnati- Fuel Site,,Cincinnati,OH,,US,+1 513-598-7880,,,Blue Rhino,Q65681213
109560,bluerhino,Kroger #482 - Cincinnati,,Cincinnati,OH,,US,+1 513-598-7880,,,Blue Rhino,Q65681213
96663748627494520500100000000000,bp,BP,,Cincinnati,OH,,US,+1 513-921-4411,,24/7,BP,Q152057
91027,citi,ATM Walgreens,,Cincinnati,OH,,US,,,,Citibank,Q857063
61339,citi,ATM Kroger,,Cincinnati,OH,,US,,,,Citibank,Q857063
61338,citi,ATM Kroger,,Cincinnati,OH,,US,,,,Citibank,Q857063
70103101,cricket_wireless,Cricket Wireless Authorized Retailer,,Cincinnati,OH,,US,+1 513-251-7900,https://www.cricketwireless.com/stores/ll/US/OH/Cincinnati/3614-Warsaw-Ave,Mo-Sa 10:00-19:00; Su 12:00-17:00,Cricket Wireless,Q5184987
2434,dominos_pizza_us,Domino's Pizza,,Cincinnati,OH,,US,+1 513-921-9700,https://pizza.dominos.com/ohio/cincinnati/3725-warsaw-ave,Mo-Th 10:30-01:14; Fr-Sa 10:30-02:14; Su 10:30-01:14,Domino's,Q839466
33597,h_r_block,H&R Block,,Cincinnati,OH,,US,+1 513-921-5549,https://www.hrblock.com/local-tax-offices/ohio/cincinnati/4000-glenway-ave/33597/,,H&R Block,Q5627799
157574,marathon_petroleum_us,PRICE HILL MARATHON,,CINCINNATI,OH,,US,+1 513-251-8856,,,Marathon,Q458363
238,skyline_chili,Skyline Chili,3714 Warsaw Avenue,Cincinnati,OH,,US,+1 513-471-2445,https://locations.skylinechili.com/skyline-chili-42eb0cdad531,Mo-Sa 10:00-21:00; Su 11:00-21:00,Skyline Chili,Q151224
0119194900,sunoco_us,Sunoco,,CINCINNATI,OH,,US,+1 513-921-7448,,Mo-Sa 06:00-23:00; Su 07:00-23:00,Sunoco,Q1423218
1378396,usps,PRICE HILL,,CINCINNATI,OH,,US,+1 513-921-4943,,"Mo-Fr 08:30-11:00,12:00-17:00",United States Postal Service,Q668687
4520500017,usps_collection_boxes,USPS COLLECTION BOX - BLUE BOX,4221 GLENWAY AVE,CINCINNATI,OH,,US,,,,United States Postal Service,Q668687
4520500007,usps_collection_boxes,USPS COLLECTION BOX - BLUE BOX,4076 W 8TH ST,CINCINNATI,OH,,US,,,,United States Postal Service,Q668687
4520500022,usps_collection_boxes,USPS COLLECTION BOX - BLUE BOX,3775 WESTMONT DR,CINCINNATI,OH,,US,,,,United States Postal Service,Q668687
4520500008,usps_collection_boxes,USPS COLLECTION BOX - BLUE BOX,975 ENRIGHT AVE,CINCINNATI,OH,,US,,,,United States Postal Service,Q668687
4520500027,usps_collection_boxes,USPS COLLECTION BOX - PO LOBBY,975 ENRIGHT AVE,CINCINNATI,OH,,US,,,,United States Postal Service,Q668687
4520500033,usps_collection_boxes,USPS COLLECTION BOX - PO LOBBY,975 ENRIGHT AVE,CINCINNATI,OH,,US,,,,United States Postal Service,Q668687
,visa,,,CINCINNATI,OH,,US,,,,,
,visa,,,CINCINNATI,OH,,US,,,,,
,visa,,,CINCINNATI,OH,,US,,,,,
,visa,,,CINCINNATI,OH,,US,,,,,
,visa,,,CINCINNATI,OH,,US,,,,,
,visa,,,CINCINNATI,OH,,US,,,,,
,visa,,,CINCINNATI,OH,,US,,,,,
,visa,,,CINCINNATI,OH,,US,,,,,
,visa,,,CINCINNATI,OH,,US,,,,,
,visa,,,CINCINNATI,OH,,US,,,,,
,visa,,,CINCINNATI,OH,,US,,,,,
,visa,,,CINCINNATI,OH,,US,,,,,
,visa,,,CINCINNATI,OH,,US,,,,,
,visa,,,CINCINNATI,OH,,US,,,,,
,visa,,,CINCINNATI,OH,,US,,,,,
,visa,,,CINCINNATI,OH,,US,,,,,
,visa,,,CINCINNATI,OH,,US,,,,,
,visa,,,CINCINNATI,OH,,US,,,,,
,visa,,,CINCINNATI,OH,,US,,,,,
,visa,,,CINCINNATI,OH,,US,,,,,
,visa,,,CINCINNATI,OH,,US,,,,,
,visa,,,CINCINNATI,OH,,US,,,,,
,visa,,,CINCINNATI,OH,,US,,,,,
,visa,,,CINCINNATI,OH,,US,,,,,
,visa,,,CINCINNATI,OH,,US,,,,,
,visa,,,CINCINNATI,OH,,US,,,,,
https://www.walgreens.com/locator/walgreens-4241+glenway+ave-cincinnati-oh-45205/id=7181,walgreens,Walgreens,,Cincinnati,OH,,US,+1 513-921-7722,https://www.walgreens.com/locator/walgreens-4241+glenway+ave-cincinnati-oh-45205/id=7181,Mo-Su 09:00-21:00,Walgreens,Q1591889
