Ref,Spider,Name,Address,City,State,Zipcode,Country,Phone,Website,Hours,Brand,WikiData
67119219,moneygram,MANAPPURAM FINANCE - #2523 - TIRUCHIRAPP,,TIRUCHIRAPPALLI,,,IN,49364312482260,,Mo-Sa 09:30-18:30; Su 09:30-15:30,MoneyGram,Q1944412
72941375,moneygram,FIND MONEY CONSULTANCY - TIRUCHIRAPPALLI,,TIRUCHIRAPPALLI,,,IN,+91 98653 59979,,Mo-Su 09:00-21:00,MoneyGram,Q1944412
73038465,moneygram,HIGHWAY FOREX CONVERSIONS PLTD,,TRICHY,,,IN,+91 99444 50213,,Mo-Su 08:00-21:00,MoneyGram,Q1944412
73044569,moneygram,PASLA AIR TRAVELS AND CARGO P,,TRICHY,,,IN,+91 98400 34943,,Mo-Su 08:00-21:00,MoneyGram,Q1944412
73251734,moneygram,MUTHOOT FINANCE LTD - #266 - TRICHY - TI,,TRICHY,,,IN,+91 431 240 0504,,Mo-Su 09:00-19:00,MoneyGram,Q1944412
73265128,moneygram,MUTHOOT FINANCE LTD - #1813 - TRICHY - T,,TRICHY,,,IN,+91 431 240 0284,,Mo-Su 09:00-19:00,MoneyGram,Q1944412
73275516,moneygram,MUTHOOT FINANCE LTD - #2543 - TRICHY - T,,TRICHY,,,IN,+91 431 241 0353,,Mo-Su 09:00-19:00,MoneyGram,Q1944412
73281597,moneygram,MUTHOOT FINANCE LTD - #3218 - TRICHY - T,,TRICHY,,,IN,+91 431 248 3348,,Mo-Su 09:00-19:00,MoneyGram,Q1944412
73308153,moneygram,MUTHOOT FINCORP LIMITED - #F595 - KARUMA,,TRICHY,,,IN,+91 431 248 2003,,Mo-Sa 09:00-17:30; Su 00:00-24:00,MoneyGram,Q1944412
73308700,moneygram,MUTHOOT FINCORP LIMITED - #F651 - PALAKK,,TIRUCHIRAPPALLI,,,IN,+91 431 401 2124,,Mo-Sa 09:00-17:30; Su 00:00-24:00,MoneyGram,Q1944412
72957945,moneygram,AFMI OPTICALS,,TIRUCHIRAPPALLI,,,IN,+91 80565 65560,,Mo-Su 08:00-21:00,MoneyGram,Q1944412
72958287,moneygram,ES ES TRAVEL SERVICE,,TIRUCHIRAPPALLI,,,IN,+91 80129 95784,,Mo-Su 08:00-21:00,MoneyGram,Q1944412
73443584,moneygram,BRIGHT MONEY WORLD,,TIRUCHIRAPPALLI,,,IN,+91 95008 68868,,Mo-Su 08:00-21:00,MoneyGram,Q1944412
73417015,moneygram,MAXIMO SOLUTIONS,,TIRUCHIRAPPALLI,,,IN,+91 97503 07303,,Mo-Su 08:00-21:00,MoneyGram,Q1944412
73539223,moneygram,AL NOOR ASSOCIATES,,TIRUCHIRAPPALLI,,,IN,+91 96290 98457,,Mo-Su 08:00-21:00,MoneyGram,Q1944412
73728487,moneygram,ALSAFA TRAVELS,,TRICHY,,,IN,+91 94426 15850,,Mo-Su 08:00-21:00,MoneyGram,Q1944412
73736628,moneygram,BRIGHT XEROX,,TRICHY,,,IN,+91 99429 87886,,Mo-Su 08:00-21:00,MoneyGram,Q1944412
73739418,moneygram,GURUDEV MOBILES,,TRICHY,,,IN,+91 97895 36999,,Mo-Su 08:00-21:00,MoneyGram,Q1944412
73751218,moneygram,MR AIR TRAVELS,,TRICHY,,,IN,+91 78068 27019,,Mo-Su 08:00-21:00,MoneyGram,Q1944412
73814375,moneygram,SRI KALAIVANI AIR TRAVELS P LTD,,TIRUCHIRAPPALLI,,,IN,+91 98424 62231,,Mo-Su 08:00-21:00,MoneyGram,Q1944412
73661780,moneygram,AMEER TRAVELS P LTD,,TIRUCHIRAPPALLI,,,IN,+91 98432 27878,,Mo-Su 08:00-21:00,MoneyGram,Q1944412
74081864,moneygram,EQUITAS SMALL FINANCE BANK,,TIRUCHIRAPALLI,,,IN,+91 98408 15178,,Mo-Sa 10:00-17:00; Su 00:00-24:00,MoneyGram,Q1944412
74081893,moneygram,EQUITAS SMALL FINANCE BANK,,TIRUCHIRAPALLI,,,IN,+91 98408 15178,,Mo-Sa 10:00-17:00; Su 00:00-24:00,MoneyGram,Q1944412
74093360,moneygram,KOSAMATTAM FINANCE LIMITED - #1020 - PAL,,PALAKKARAI,,,IN,+91 431 241 0845,,Mo-Sa 09:00-17:30; Su 00:00-24:00,MoneyGram,Q1944412
74093522,moneygram,KOSAMATTAM FINANCE LIMITED - #67 - MELAP,,MELAPUTHUR,,,IN,+91 431 246 2340,,Mo-Sa 09:00-17:30; Su 00:00-24:00,MoneyGram,Q1944412
74220777,moneygram,UNIMONI FINANCIAL SERVICES LIMITED - TRI,,TRICHY,,,IN,+91 98424 40161,,Mo-Fr 09:30-18:30; Sa 09:30-14:00; Su 00:00-24:00,MoneyGram,Q1944412
69957314,moneygram,GEM MONEY CHANGERS PVT. LTD. - TIRUCHIRA,,TIRUCHIRAPPALLI,,,IN,+91 431 240 1060,,Mo-Sa 09:00-19:30; Su 09:00-13:00,MoneyGram,Q1944412
66409551,moneygram,MANAPPURAM FINANCE - TIRUCHIRAPPALLI - P,,TIRUCHIRAPPALLI,,,IN,+91 431 241 8342,,Mo-Sa 09:30-18:30; Su 09:30-15:30,MoneyGram,Q1944412
66599568,moneygram,MANAPPURAM FINANCE - #2035 - TIRUCHIRAPP,,TIRUCHIRAPPALLI,,,IN,+91 431 241 3911,,Mo-Sa 10:00-19:00; Su 10:00-16:00,MoneyGram,Q1944412
N233020,united_colors_of_benetton,Benetton Tiruchirapalli,,TIRUCHIRAPALLI,,,IN,+91 96638 66576,,,United Colors of Benetton,Q817139
,visa,,,TRICHY,,,IN,,,,,
,visa,,,TRICHY,,,IN,,,,,
,visa,,,TRICHY,,,IN,,,,,
,visa,,,TRICHY,,,IN,,,,,
,visa,,,TRICHY,,,IN,,,,,
,visa,,,TIRUCHIRAPPALLI,,,IN,,,,,
,visa,,,MUMBAI,,,IN,,,,,
,visa,,,TIRUCHIRAPALLI,,,IN,,,,,
