Ref,Spider,Name,Address,City,State,Zipcode,Country,Phone,Website,Hours,Brand,WikiData
https://www.avis.com/en/locations/ni/managua/mga,avis,Avis Nicaragua Managua Airport,,Managua,Managua,,NI,+505 2233 3013,https://www.avis.com/en/locations/ni/managua/mga,Mo-Su 00:00-23:00,Avis,Q791136
https://www.avis.com/en/locations/ni/managua/avmn2,avis,Avis Nicaragua Managua,,Managua,Managua,,NI,+505 2255 9002,https://www.avis.com/en/locations/ni/managua/avmn2,Mo-Su 08:00-17:00,Avis,Q791136
https://www.avis.com/en/locations/ni/managua/avmn3,avis,Avis Nicaragua Managua,,Managua,Managua,,NI,+505 2255 9001,https://www.avis.com/en/locations/ni/managua/avmn3,Mo-Su 07:00-19:00,Avis,Q791136
Managua,deloitte,Managua,,,,,NI,(505) 2278 6004,https://www2.deloitte.com/ni/es/footerlinks/office-locator.html?icid=bottom_office-locator.html,,Deloitte,Q491748
7763cfb0f93c84a13e23f5467d1a1b21,western_union,FUNDESER SAN RAFAEL DEL SUR,,San Rafael Del Sur,MANAGUA,,NI,+505 2266 8126,https://location.westernunion.com/ni/managua/san-rafael-del-sur/7763cfb0f93c84a13e23f5467d1a1b21,Mo-Fr 08:00-17:30; Sa 08:00-12:30,Western Union,Q861042
2bceac4619b574f317b62d82802b03bc,western_union,FUNDESER SAN RAFAEL DEL SUR,,San Rafael Del Sur,MANAGUA,,NI,+505 2266 8126,https://location.westernunion.com/ni/managua/san-rafael-del-sur/2bceac4619b574f317b62d82802b03bc,Mo-Fr 08:00-17:30; Sa 08:00-12:30,Western Union,Q861042
1c283d44149dc3164fee5422ff224965,western_union,SAN RAFAEL DEL SUR V,,San Rafael Del Sur,MANAGUA,,NI,+505 8688 0254,https://location.westernunion.com/ni/managua/san-rafael-del-sur/1c283d44149dc3164fee5422ff224965,Mo-Sa 08:00-17:00,Western Union,Q861042
004973991c5bd1fe2e604b3a9c535097,western_union,SAN RAFAEL DEL SUR V,,San Rafael Del Sur,MANAGUA,,NI,+505 8688 0254,https://location.westernunion.com/ni/managua/san-rafael-del-sur/004973991c5bd1fe2e604b3a9c535097,Mo-Sa 08:00-17:00,Western Union,Q861042
6f7d851fd058bca5ca5aecaa3f389385,western_union,AIRPAK PALI CIUDAD SANDINO,,Managua,MANAGUA,,NI,+505 2266 8126,https://location.westernunion.com/ni/managua/managua/6f7d851fd058bca5ca5aecaa3f389385,Mo-Sa 08:00-17:00,Western Union,Q861042
8211a9af0a6fccdfa2a17510566db4c2,western_union,FAMA CIUDAD SANDINO,,Ciudad Sandino,MANAGUA,,NI,+505 2266 8126,https://location.westernunion.com/ni/managua/ciudad-sandino/8211a9af0a6fccdfa2a17510566db4c2,Mo-Fr 08:00-16:30; Sa 08:00-12:00,Western Union,Q861042
fc7bf2b7807a2ca88c1152384af0e3f3,western_union,FAMA CIUDAD SANDINO,,Ciudad Sandino,MANAGUA,,NI,+505 2266 8126,https://location.westernunion.com/ni/managua/ciudad-sandino/fc7bf2b7807a2ca88c1152384af0e3f3,Mo-Fr 08:00-14:30; Sa 08:00-12:00,Western Union,Q861042
48a9394d605a43646e795d60d8bac076,western_union,AMPM SANTO TOMAS,,Ciudad Sandino,MANAGUA,,NI,+505 2266 8126,https://location.westernunion.com/ni/managua/ciudad-sandino/48a9394d605a43646e795d60d8bac076,Mo-Su 01:00-24:00,Western Union,Q861042
43b2c104da0af1a6ce025d9599877ea8,western_union,AMPM SANTO TOMAS,,Ciudad Sandino,MANAGUA,,NI,+505 2266 8126,https://location.westernunion.com/ni/managua/ciudad-sandino/43b2c104da0af1a6ce025d9599877ea8,Mo-Su 01:00-24:00,Western Union,Q861042
3b87653f1f2c030abafc0d971fce396c,western_union,FONOCENTER CIUDAD SANDINO,,Ciudad Sandino,MANAGUA,,NI,+505 2266 8123,https://location.westernunion.com/ni/managua/ciudad-sandino/3b87653f1f2c030abafc0d971fce396c,Mo-Sa 08:00-17:30; Su 08:00-13:00,Western Union,Q861042
c9ac0ef370a49bade5711168562671ce,western_union,FONOCENTER CIUDAD SANDINO,,Ciudad Sandino,MANAGUA,,NI,+505 2266 8123,https://location.westernunion.com/ni/managua/ciudad-sandino/c9ac0ef370a49bade5711168562671ce,Mo-Sa 08:00-17:30; Su 08:00-13:00,Western Union,Q861042
224e8eff9c73abb5bb6d7827dda1b567,western_union,AMPM PLAZA 10 5 I,,Managua,MANAGUA,,NI,+505 2253 8740,https://location.westernunion.com/ni/managua/managua/224e8eff9c73abb5bb6d7827dda1b567,Mo-Su 00:01-24:00,Western Union,Q861042
881ebe91b298665ccc468a8497f91fb1,western_union,AMPM PLAZA 10 5 I,,Managua,MANAGUA,,NI,+505 2253 8740,https://location.westernunion.com/ni/managua/managua/881ebe91b298665ccc468a8497f91fb1,Mo-Su 00:01-24:00,Western Union,Q861042
c388a40e7ac9e521675be1b8b93b98d0,western_union,AMPM CARRETERA SUR I,,Managua,MANAGUA,,NI,+505 2266 8126,https://location.westernunion.com/ni/managua/managua/c388a40e7ac9e521675be1b8b93b98d0,Mo-Su 01:00-24:00,Western Union,Q861042
c5a40ab7eee61ede675b3bd0e5636637,western_union,AMPM CARRETERA SUR I,,Managua,MANAGUA,,NI,+505 2266 8126,https://location.westernunion.com/ni/managua/managua/c5a40ab7eee61ede675b3bd0e5636637,Mo-Su 01:00-24:00,Western Union,Q861042
e2137d5026e3715eba25c3a4ec704dbe,western_union,FICOHSA CARRETERA SUR,,Managua,MANAGUA,,NI,+505 2255 8000,https://location.westernunion.com/ni/managua/managua/e2137d5026e3715eba25c3a4ec704dbe,Mo-Fr 08:30-16:30; Sa 08:30-12:30,Western Union,Q861042
05aecaf349736d8d096133d3fc54818d,western_union,FICOHSA CARRETERA SUR,,Managua,MANAGUA,,NI,+505 2255 8000,https://location.westernunion.com/ni/managua/managua/05aecaf349736d8d096133d3fc54818d,Mo-Fr 08:30-16:30; Sa 08:30-12:30,Western Union,Q861042
3681ce2b347c20d1754fb6b1189ee193,western_union,AMPM CARRETERA SUR II,,Managua,MANAGUA,,NI,+505 2266 8126,https://location.westernunion.com/ni/managua/managua/3681ce2b347c20d1754fb6b1189ee193,Mo-Su 00:01-24:00,Western Union,Q861042
3b3a039bd25e6752c3f85844f3fde59a,western_union,AMPM CARRETERA SUR II,,Managua,MANAGUA,,NI,+505 2266 8126,https://location.westernunion.com/ni/managua/managua/3b3a039bd25e6752c3f85844f3fde59a,Mo-Su 00:01-24:00,Western Union,Q861042
b44956926d39c758c7bce5fcb053ae0a,western_union,WALMART LA UNION NEJAPA,,Managua,MANAGUA,,NI,+505 2264 9370,https://location.westernunion.com/ni/managua/managua/b44956926d39c758c7bce5fcb053ae0a,Mo-Fr 09:00-18:00; Sa 09:00-17:00,Western Union,Q861042
cf0ee22364115d3fd1dcc18c741317d5,western_union,WALMART LA UNION NEJAPA,,Managua,MANAGUA,,NI,+505 2264 9370,https://location.westernunion.com/ni/managua/managua/cf0ee22364115d3fd1dcc18c741317d5,Mo-Fr 09:00-18:00; Sa 09:00-17:00,Western Union,Q861042
3239eda4e3731cf5202e76d33c9fa3c8,western_union,WALMART PALI LOMA LINDA,,Managua,MANAGUA,,NI,+505 2264 9370,https://location.westernunion.com/ni/managua/managua/3239eda4e3731cf5202e76d33c9fa3c8,Mo-Fr 09:00-18:00; Sa 09:00-17:00,Western Union,Q861042
ddb076a71101d34fe631382b5c01bfee,western_union,WALMART LA UNION LINDA VISTA,,Managua,MANAGUA,,NI,+505 2264 9370,https://location.westernunion.com/ni/managua/managua/ddb076a71101d34fe631382b5c01bfee,Mo-Fr 09:00-18:00; Sa 09:00-17:00,Western Union,Q861042
8a6ff48684d5d206b42298c67f5c2620,western_union,AMPM LINDA VISTA I,,Managua,MANAGUA,,NI,+505 2266 8126,https://location.westernunion.com/ni/managua/managua/8a6ff48684d5d206b42298c67f5c2620,Mo-Su 01:00-24:00,Western Union,Q861042
b2fe71c4248c64bb4a225b9fb50c1560,western_union,AMPM LINDA VISTA I,,Managua,MANAGUA,,NI,+505 2266 8126,https://location.westernunion.com/ni/managua/managua/b2fe71c4248c64bb4a225b9fb50c1560,Mo-Su 01:00-24:00,Western Union,Q861042
71b691c03ba0b38a9d0d7118296f2ea1,western_union,FAMA LINDA VISTA,,Managua,MANAGUA,,NI,+505 2266 8126,https://location.westernunion.com/ni/managua/managua/71b691c03ba0b38a9d0d7118296f2ea1,Mo-Fr 08:00-16:30; Sa 08:00-12:00,Western Union,Q861042
0f1f4b4aab025d3082af2efc0951edf4,western_union,FAMA LINDA VISTA,,Managua,MANAGUA,,NI,+505 2266 8126,https://location.westernunion.com/ni/managua/managua/0f1f4b4aab025d3082af2efc0951edf4,Mo-Fr 08:00-14:30; Sa 08:00-12:00,Western Union,Q861042
b36130d3c34481bb14b7be5689643e58,western_union,AIRPAK PALI LINDA VISTA,,Managua,MANAGUA,,NI,+505 2266 8126,https://location.westernunion.com/ni/managua/managua/b36130d3c34481bb14b7be5689643e58,Mo-Sa 08:00-17:00,Western Union,Q861042
86333795ad430578131ab5fcc0c36c01,western_union,AIRPAK PALI LINDA VISTA,,Managua,MANAGUA,,NI,+505 2266 8126,https://location.westernunion.com/ni/managua/managua/86333795ad430578131ab5fcc0c36c01,Mo-Sa 08:00-17:00,Western Union,Q861042
fe5024e4cd9603902b28538181d4c843,western_union,WALMART PALI MIRAFLORES,,Managua,MANAGUA,,NI,+505 2264 9370,https://location.westernunion.com/ni/managua/managua/fe5024e4cd9603902b28538181d4c843,Mo-Fr 09:00-18:00; Sa 09:00-17:00,Western Union,Q861042
307e17a3fb66281103e2de4ec3c61492,western_union,WALMART PALI ALTAGRACIA,,Managua,MANAGUA,,NI,+505 2264 9370,https://location.westernunion.com/ni/managua/managua/307e17a3fb66281103e2de4ec3c61492,Mo-Fr 09:00-18:00; Sa 09:00-17:00,Western Union,Q861042
5e19a40e4dd8b87ded5b2a0b70ad6efd,western_union,WALMART PALI MATEARE,,Mateare,MANAGUA,,NI,+505 2264 9370,https://location.westernunion.com/ni/managua/mateare/5e19a40e4dd8b87ded5b2a0b70ad6efd,Mo-Fr 09:00-18:00; Sa 09:00-17:00,Western Union,Q861042
313578210e2f42461c29c6f864a7b775,western_union,MATEARE III,,Mateare,MANAGUA,,NI,+505 8841 0317,https://location.westernunion.com/ni/managua/mateare/313578210e2f42461c29c6f864a7b775,Mo-Su 08:00-18:00,Western Union,Q861042
3015057603a20113559c86df1650ea74,western_union,MATEARE III,,Mateare,MANAGUA,,NI,+505 8841 0317,https://location.westernunion.com/ni/managua/mateare/3015057603a20113559c86df1650ea74,Mo-Su 08:00-18:00,Western Union,Q861042
9fb3c65d7d92d85a7ecfc07eaa10a1c8,western_union,AIRPAK MAXI PALI BELMONTE,,Managua,MANAGUA,,NI,+505 2266 8126,https://location.westernunion.com/ni/managua/managua/9fb3c65d7d92d85a7ecfc07eaa10a1c8,Mo-Su 09:00-21:00,Western Union,Q861042
50b3047ba06d793302d7e70f9611fa0c,western_union,STEN CIUDAD SANDINO,,Ciudad Sandino,MANAGUA,,NI,+505 2222 3168,https://location.westernunion.com/ni/managua/ciudad-sandino/50b3047ba06d793302d7e70f9611fa0c,Mo-Su 08:00-17:00,Western Union,Q861042
b7edae757a3d21c9dbd8cbba7302770f,western_union,STEN CIUDAD SANDINO,,Ciudad Sandino,MANAGUA,,NI,+505 2222 3168,https://location.westernunion.com/ni/managua/ciudad-sandino/b7edae757a3d21c9dbd8cbba7302770f,Mo-Su 08:00-17:00,Western Union,Q861042
1111e2c59e2613a7719abdd2f2bbcbe9,western_union,AMPM CIUDAD SANDINO I,,Ciudad Sandino,MANAGUA,,NI,+505 2253 8740,https://location.westernunion.com/ni/managua/ciudad-sandino/1111e2c59e2613a7719abdd2f2bbcbe9,Mo-Su 00:01-24:00,Western Union,Q861042
4291d5840fbf539da3aa2a1e01541699,western_union,AMPM CIUDAD SANDINO I,,Ciudad Sandino,MANAGUA,,NI,+505 2253 8740,https://location.westernunion.com/ni/managua/ciudad-sandino/4291d5840fbf539da3aa2a1e01541699,Mo-Su 00:01-24:00,Western Union,Q861042
67a1ab83c9d0ab1f6dd230da0e554030,western_union,AIRPAK MAXI PALI CIUDAD SANDIN,,Ciudad Sandino,MANAGUA,,NI,+505 2266 8126,https://location.westernunion.com/ni/managua/ciudad-sandino/67a1ab83c9d0ab1f6dd230da0e554030,Mo-Su 09:00-18:00,Western Union,Q861042
90430fd77ec3b669c72747c4685c6f06,western_union,AIRPAK MAXI PALI CIUDAD SANDIN,,Ciudad Sandino,MANAGUA,,NI,+505 2266 8126,https://location.westernunion.com/ni/managua/ciudad-sandino/90430fd77ec3b669c72747c4685c6f06,Mo-Su 09:00-18:00,Western Union,Q861042
a7b336b431532bcece1e5181f1e84eb5,western_union,AIRPAK PALI SANTA ANA,,Managua,MANAGUA,,NI,+505 2266 8126,https://location.westernunion.com/ni/managua/managua/a7b336b431532bcece1e5181f1e84eb5,Mo-Su 09:00-18:00,Western Union,Q861042
c48455b1b98e138f21c23bfa44ff5bdf,western_union,FICOHSA METROCENTRO,,Managua,MANAGUA,,NI,+505 2255 8000,https://location.westernunion.com/ni/managua/managua/c48455b1b98e138f21c23bfa44ff5bdf,Mo-Fr 08:30-16:30; Sa 08:30-12:30,Western Union,Q861042
33acc87b5805b4e45e1a35f066e23594,western_union,FICOHSA METROCENTRO,,Managua,MANAGUA,,NI,+505 2255 8000,https://location.westernunion.com/ni/managua/managua/33acc87b5805b4e45e1a35f066e23594,Mo-Fr 08:30-16:30; Sa 08:30-12:30,Western Union,Q861042
d392cf525b0358844b1c3b688538e9c7,western_union,HIPER LA COLONIA,,Managua,MANAGUA,,NI,+505 2266 8126,https://location.westernunion.com/ni/managua/managua/d392cf525b0358844b1c3b688538e9c7,Mo-Su 07:30-21:00,Western Union,Q861042
c980ec22743de92455e3b6103a0819e6,western_union,HIPER LA COLONIA,,Managua,MANAGUA,,NI,+505 2266 8126,https://location.westernunion.com/ni/managua/managua/c980ec22743de92455e3b6103a0819e6,Mo-Su 07:30-21:00,Western Union,Q861042
eca372d3f79d93da147a5f8a4fd807db,western_union,WALMART LA UNION CARRETERA MASAYA,,Managua,MANAGUA,,NI,+505 2264 9370,https://location.westernunion.com/ni/managua/managua/eca372d3f79d93da147a5f8a4fd807db,Mo-Fr 09:00-18:00; Sa 09:00-17:00,Western Union,Q861042
4c1cbcda2782c564f7c02ff415a32aba,western_union,WALMART LA UNION CARRETERA MASAYA,,Managua,MANAGUA,,NI,+505 2264 9370,https://location.westernunion.com/ni/managua/managua/4c1cbcda2782c564f7c02ff415a32aba,Mo-Fr 09:00-18:00; Sa 09:00-17:00,Western Union,Q861042
219bae2b71a56b9e81b5b9d5141a0a27,western_union,FICOHSA GALERIA SANTO DOMINGO,,Managua,MANAGUA,,NI,+505 2255 8000,https://location.westernunion.com/ni/managua/managua/219bae2b71a56b9e81b5b9d5141a0a27,Mo-Fr 08:30-16:30; Sa 08:30-12:30,Western Union,Q861042
97cccfe90e2ba3c04f6942f9c964aa0d,western_union,FICOHSA GALERIA SANTO DOMINGO,,Managua,MANAGUA,,NI,+505 2255 8000,https://location.westernunion.com/ni/managua/managua/97cccfe90e2ba3c04f6942f9c964aa0d,Mo-Fr 08:30-16:30; Sa 08:30-12:30,Western Union,Q861042
60acc1a43b9df1240ed83775565bd5ec,western_union,AIRPAK NICARAGUA,,Managua,MANAGUA,,NI,+505 2266 8126,https://location.westernunion.com/ni/managua/managua/60acc1a43b9df1240ed83775565bd5ec,Mo-Fr 08:00-19:00; Sa 08:00-17:00,Western Union,Q861042
7ac945f74cd11f9691e65ab8b20681ce,western_union,AIRPAK NICARAGUA,,Managua,MANAGUA,,NI,+505 2266 8126,https://location.westernunion.com/ni/managua/managua/7ac945f74cd11f9691e65ab8b20681ce,Mo-Sa 08:00-19:00; Su 08:00-15:00,Western Union,Q861042
6ca23bac8e4ec1cdc6dde0581213c071,western_union,PLANES DE ALTAMIRA,,Managua,MANAGUA,,NI,+505 2266 8126,https://location.westernunion.com/ni/managua/managua/6ca23bac8e4ec1cdc6dde0581213c071,Mo-Fr 08:00-21:00; Sa 08:00-20:00; Su 08:00-17:00,Western Union,Q861042
b0725973cc619f2ea43ffe819817a325,western_union,PLANES DE ALTAMIRA,,Managua,MANAGUA,,NI,+505 2266 8126,https://location.westernunion.com/ni/managua/managua/b0725973cc619f2ea43ffe819817a325,Mo-Fr 07:00-18:00; Sa 07:00-17:00,Western Union,Q861042
b776b794e2a3a2fe9229b21d56f17899,western_union,AIRPAK MAXI PALI SANTA ANA,,Managua,MANAGUA,,NI,+505 2266 8126,https://location.westernunion.com/ni/managua/managua/b776b794e2a3a2fe9229b21d56f17899,Mo-Su 09:00-18:00,Western Union,Q861042
d9f880f9dcdc99f098fd6e49cd33ef5d,western_union,AIRPAK MAXI PALI SANTA ANA,,Managua,MANAGUA,,NI,+505 2266 8126,https://location.westernunion.com/ni/managua/managua/d9f880f9dcdc99f098fd6e49cd33ef5d,Mo-Su 09:00-18:00,Western Union,Q861042
e1f8ff7181aa396bdadcd17474d570d9,western_union,EL ZUMEN IV,,Managua,MANAGUA,,NI,+505 8813 3990,https://location.westernunion.com/ni/managua/managua/e1f8ff7181aa396bdadcd17474d570d9,Mo-Sa 08:00-17:00; Su 08:00-13:00,Western Union,Q861042
fc8c90116e26ec89c2f1a994a226e223,western_union,FDL 7 SUR I,,Managua,MANAGUA,,NI,+505 2266 8126,https://location.westernunion.com/ni/managua/managua/fc8c90116e26ec89c2f1a994a226e223,Mo-Fr 08:00-17:00; Sa 08:00-12:00,Western Union,Q861042
f78790b7906b02a3849c3351e3c329e2,western_union,FDL 7 SUR I,,Managua,MANAGUA,,NI,+505 2266 8126,https://location.westernunion.com/ni/managua/managua/f78790b7906b02a3849c3351e3c329e2,Mo-Fr 08:00-17:00; Sa 08:00-12:00,Western Union,Q861042
46a158c7ac2a5f30f5a3def6c84fa894,western_union,AMPM ISRAEL LEWITES I,,Managua,MANAGUA,,NI,+505 2266 8126,https://location.westernunion.com/ni/managua/managua/46a158c7ac2a5f30f5a3def6c84fa894,Mo-Su 01:00-24:00,Western Union,Q861042
1f775ca7690646fa185af9c23f23b91a,western_union,AMPM ISRAEL LEWITES I,,Managua,MANAGUA,,NI,+505 2266 8126,https://location.westernunion.com/ni/managua/managua/1f775ca7690646fa185af9c23f23b91a,Mo-Su 01:00-24:00,Western Union,Q861042
0dc0f410096c3e1a670c9731c0d27f36,western_union,AIRPAK PALI ZUMEN,,Managua,MANAGUA,,NI,+505 2266 8126,https://location.westernunion.com/ni/managua/managua/0dc0f410096c3e1a670c9731c0d27f36,Mo-Sa 08:00-19:00,Western Union,Q861042
3a8680ac892ad14a7b647601bdce6995,western_union,AIRPAK PALI ZUMEN,,Managua,MANAGUA,,NI,+505 2266 8126,https://location.westernunion.com/ni/managua/managua/3a8680ac892ad14a7b647601bdce6995,Mo-Sa 08:00-19:00,Western Union,Q861042
5cf9a9f925a6c6147bd0e6ba53e30081,western_union,STEN COLONIA NEJAPA,,Managua,MANAGUA,,NI,+505 2266 8126,https://location.westernunion.com/ni/managua/managua/5cf9a9f925a6c6147bd0e6ba53e30081,Mo-Sa 08:00-17:00; Su 08:00-16:00,Western Union,Q861042
9dc5f1851d21ec16fd9de338f2546c7a,western_union,STEN COLONIA NEJAPA,,Managua,MANAGUA,,NI,+505 2266 8126,https://location.westernunion.com/ni/managua/managua/9dc5f1851d21ec16fd9de338f2546c7a,Mo-Sa 08:00-17:00; Su 08:00-16:00,Western Union,Q861042
0dbca593f773799fe3f93276c0a2d880,western_union,WALMART PALI SAN JUDAS,,Managua,MANAGUA,,NI,+505 2264 9370,https://location.westernunion.com/ni/managua/managua/0dbca593f773799fe3f93276c0a2d880,Mo-Fr 09:00-18:00; Sa 09:00-17:00,Western Union,Q861042
c034d0afc96ea0413d2a1964e2c3e202,western_union,FAMA LAS PALMAS,,Managua,MANAGUA,,NI,+505 2266 8126,https://location.westernunion.com/ni/managua/managua/c034d0afc96ea0413d2a1964e2c3e202,Mo-Fr 08:00-17:00; Sa 08:00-12:00,Western Union,Q861042
0d481c3a7388edb8619e8308c237bf21,western_union,FAMA LAS PALMAS,,Managua,MANAGUA,,NI,+505 2266 8126,https://location.westernunion.com/ni/managua/managua/0d481c3a7388edb8619e8308c237bf21,Mo-Fr 08:00-17:00; Sa 08:00-12:00,Western Union,Q861042
cca864b96408ca06229e7e634ab6f63a,western_union,AMPM EDIFICIO DISCOVER I,,Managua,MANAGUA,,NI,+505 2253 8740,https://location.westernunion.com/ni/managua/managua/cca864b96408ca06229e7e634ab6f63a,Mo-Su 00:01-24:00,Western Union,Q861042
4f155087f2073d9ebe0cb846f74c5187,western_union,AMPM EDIFICIO DISCOVER I,,Managua,MANAGUA,,NI,+505 2253 8740,https://location.westernunion.com/ni/managua/managua/4f155087f2073d9ebe0cb846f74c5187,Mo-Su 00:01-24:00,Western Union,Q861042
87061cf96fad7afa93a4e255acd4ecae,western_union,WALMART PALI TICUANTEPE,,Ticuantepe,MANAGUA,,NI,+505 2264 9370,https://location.westernunion.com/ni/managua/ticuantepe/87061cf96fad7afa93a4e255acd4ecae,Mo-Fr 09:00-18:00; Sa 09:00-17:00,Western Union,Q861042
5698f3a7dd53c0833304d4f9c6a7e5e0,western_union,AMPM TICUANTEPE I,,Ticuantepe,MANAGUA,,NI,+505 2253 8740,https://location.westernunion.com/ni/managua/ticuantepe/5698f3a7dd53c0833304d4f9c6a7e5e0,Mo-Su 00:01-24:00,Western Union,Q861042
2def1b42f57a1fa8dc97ad1b9c1c05c5,western_union,AMPM TICUANTEPE I,,Ticuantepe,MANAGUA,,NI,+505 2253 8740,https://location.westernunion.com/ni/managua/ticuantepe/2def1b42f57a1fa8dc97ad1b9c1c05c5,Mo-Su 00:01-24:00,Western Union,Q861042
8249f493e5af04ad12b402d82173b715,western_union,AMPM GUANACASTE I,,Managua,MANAGUA,,NI,+505 2266 8126,https://location.westernunion.com/ni/managua/managua/8249f493e5af04ad12b402d82173b715,Mo-Su 01:00-24:00,Western Union,Q861042
64947baba9ced3de6294db86caecec03,western_union,AMPM GUANACASTE I,,Managua,MANAGUA,,NI,+505 2266 8126,https://location.westernunion.com/ni/managua/managua/64947baba9ced3de6294db86caecec03,Mo-Su 01:00-24:00,Western Union,Q861042
c4d14e78fffad1efabd9ed11eb18452e,western_union,VERITA TICUANTEPE,,Managua,MANAGUA,,NI,+505 2266 8126,https://location.westernunion.com/ni/managua/managua/c4d14e78fffad1efabd9ed11eb18452e,Mo-Fr 08:00-17:00; Sa 08:00-12:00,Western Union,Q861042
a71f9127293ed4b6b840ef33b585fab7,western_union,VERITA TICUANTEPE,,Managua,MANAGUA,,NI,+505 2266 8126,https://location.westernunion.com/ni/managua/managua/a71f9127293ed4b6b840ef33b585fab7,Mo-Fr 08:00-17:00; Sa 08:00-12:00,Western Union,Q861042
e05dade1338685d46c76db883dd64b5d,western_union,AIRPAK WALMART I,,Managua,MANAGUA,,NI,+505 2266 8126,https://location.westernunion.com/ni/managua/managua/e05dade1338685d46c76db883dd64b5d,Mo-Su 09:00-18:00,Western Union,Q861042
e8976d12d129c2012fcfcaa762ffd18b,western_union,AIRPAK WALMART I,,Managua,MANAGUA,,NI,+505 2266 8126,https://location.westernunion.com/ni/managua/managua/e8976d12d129c2012fcfcaa762ffd18b,Mo-Su 09:00-18:00,Western Union,Q861042
3c8d24822e9d71677629b44c1fb11af8,western_union,FICOHSA LINDA VISTA,,Managua,MANAGUA,,NI,+505 2255 8000,https://location.westernunion.com/ni/managua/managua/3c8d24822e9d71677629b44c1fb11af8,Mo-Fr 08:30-16:30; Sa 08:30-12:30,Western Union,Q861042
ecea855b1c8baf842e38be82e25fd5c1,western_union,FICOHSA LINDA VISTA,,Managua,MANAGUA,,NI,+505 2255 8000,https://location.westernunion.com/ni/managua/managua/ecea855b1c8baf842e38be82e25fd5c1,Mo-Fr 08:30-16:30; Sa 08:30-12:30,Western Union,Q861042
2bd3b366e5dc7026c0fba02610f31bcc,western_union,STEN S A,,Managua,MANAGUA,,NI,+505 2266 8126,https://location.westernunion.com/ni/managua/managua/2bd3b366e5dc7026c0fba02610f31bcc,Mo-Th 08:00-13:00; Fr-Sa 09:30-13:00; Su 08:00-13:00,Western Union,Q861042
0887297017cb9bc443f8dffe3b1fea8e,western_union,STEN S A,,Managua,MANAGUA,,NI,+505 2266 8126,https://location.westernunion.com/ni/managua/managua/0887297017cb9bc443f8dffe3b1fea8e,Mo-Sa 09:30-19:00; Su 08:00-16:00,Western Union,Q861042
a0e0a5c1424987495022962a9f105e08,western_union,AIRPAK WALMART CARRETERA MASAY,,Managua,MANAGUA,,NI,+505 2266 8126,https://location.westernunion.com/ni/managua/managua/a0e0a5c1424987495022962a9f105e08,Mo-Sa 09:00-18:00,Western Union,Q861042
d39b6b2268fda640404e820cd5054615,western_union,AIRPAK WALMART CARRETERA MASAY,,Managua,MANAGUA,,NI,+505 2266 8126,https://location.westernunion.com/ni/managua/managua/d39b6b2268fda640404e820cd5054615,Mo-Sa 09:00-18:00,Western Union,Q861042
b60d47d198898dab6dfb392099bc4948,western_union,AMPM PLAZA GOURMET,,Managua,MANAGUA,,NI,+505 2266 8126,https://location.westernunion.com/ni/managua/managua/b60d47d198898dab6dfb392099bc4948,Mo-Su 01:00-24:00,Western Union,Q861042
bd4388c2a765673f991d341c538f0a9d,western_union,AMPM PLAZA GOURMET,,Managua,MANAGUA,,NI,+505 2266 8126,https://location.westernunion.com/ni/managua/managua/bd4388c2a765673f991d341c538f0a9d,Mo-Su 01:00-24:00,Western Union,Q861042
e78bbaece781390ebf94ed58403d8a32,western_union,AMPM METROPOLITANO II,,Managua,MANAGUA,,NI,+505 2253 8740,https://location.westernunion.com/ni/managua/managua/e78bbaece781390ebf94ed58403d8a32,Mo-Su 00:01-24:00,Western Union,Q861042
da904e5f0bcd5182b751d2f65f14e1c2,western_union,AMPM METROPOLITANO II,,Managua,MANAGUA,,NI,+505 2253 8740,https://location.westernunion.com/ni/managua/managua/da904e5f0bcd5182b751d2f65f14e1c2,Mo-Su 00:01-24:00,Western Union,Q861042
8e8da17ba4c2d44a2a4145c9cba040ef,western_union,AMPM LA FAMILIAR I,,Managua,MANAGUA,,NI,+505 2253 8740,https://location.westernunion.com/ni/managua/managua/8e8da17ba4c2d44a2a4145c9cba040ef,Mo-Su 00:01-24:00,Western Union,Q861042
fd40a94b0472d92fd0743349a168c64b,western_union,AMPM LA FAMILIAR I,,Managua,MANAGUA,,NI,+505 2253 8740,https://location.westernunion.com/ni/managua/managua/fd40a94b0472d92fd0743349a168c64b,Mo-Su 00:01-24:00,Western Union,Q861042
09ce5270a825bba9466094b42dc9dce4,western_union,AIRPAK METROCENTRO,,Managua,MANAGUA,,NI,+505 2266 8126,https://location.westernunion.com/ni/managua/managua/09ce5270a825bba9466094b42dc9dce4,Mo-Fr 10:00-19:00; Sa 10:00-17:00; Su 10:00-15:00,Western Union,Q861042
ce3fc4b47b12d161aa96d265a3aaebdc,western_union,AIRPAK METROCENTRO,,Managua,MANAGUA,,NI,+505 2266 8126,https://location.westernunion.com/ni/managua/managua/ce3fc4b47b12d161aa96d265a3aaebdc,Mo-Sa 09:00-19:00; Su 09:00-17:00,Western Union,Q861042
8f03e6b3a4244e5a783d626afeb96702,western_union,CREDILEASING MANAGUA,,Managua,MANAGUA,,NI,+505 2266 8126,https://location.westernunion.com/ni/managua/managua/8f03e6b3a4244e5a783d626afeb96702,Mo-Fr 08:00-17:00; Sa 08:00-12:00,Western Union,Q861042
110e843affa1eefe8ffdbf5512a4c091,western_union,WALMART PALI AVENIDA BOLIVAR,,Managua,MANAGUA,,NI,+505 2264 9370,https://location.westernunion.com/ni/managua/managua/110e843affa1eefe8ffdbf5512a4c091,Mo-Fr 09:00-18:00; Sa 09:00-17:00,Western Union,Q861042
f41da97c559fb26608e47c25f0fc0551,western_union,WALMART PALI AVENIDA BOLIVAR,,Managua,MANAGUA,,NI,+505 2264 9370,https://location.westernunion.com/ni/managua/managua/f41da97c559fb26608e47c25f0fc0551,Mo-Fr 09:00-18:00; Sa 09:00-17:00,Western Union,Q861042
033ccd4f193d1965bd4e35b54d161aeb,western_union,AMPM PLAZA ESPANA I,,Managua,MANAGUA,,NI,+505 2266 8126,https://location.westernunion.com/ni/managua/managua/033ccd4f193d1965bd4e35b54d161aeb,Mo-Su 01:00-24:00,Western Union,Q861042
58f30437a6d1701a0a952fe89d587341,western_union,AMPM PLAZA ESPANA I,,Managua,MANAGUA,,NI,+505 2266 8126,https://location.westernunion.com/ni/managua/managua/58f30437a6d1701a0a952fe89d587341,Mo-Su 01:00-24:00,Western Union,Q861042
404f7e7b30b07cda0fb085ba9a04b3e5,western_union,AIRPAK LA COLONIA PLAZA ESPANA,,Managua,MANAGUA,,NI,+505 2253 8740,https://location.westernunion.com/ni/managua/managua/404f7e7b30b07cda0fb085ba9a04b3e5,Mo-Su 10:00-19:00,Western Union,Q861042
d3c3521e580c60e6f04bd1861a78136f,western_union,AIRPAK LA COLONIA PLAZA ESPANA,,Managua,MANAGUA,,NI,+505 2253 8740,https://location.westernunion.com/ni/managua/managua/d3c3521e580c60e6f04bd1861a78136f,Mo-Su 10:00-19:00,Western Union,Q861042
74b1dfc47e843e3481095dffc9884bef,western_union,FICOHSA PLAZA ESPANA,,Managua,MANAGUA,,NI,+505 2255 8000,https://location.westernunion.com/ni/managua/managua/74b1dfc47e843e3481095dffc9884bef,Mo-Fr 08:30-16:30; Sa 08:30-12:30,Western Union,Q861042
328941348a78d68fd9a15ea6ed6f0708,western_union,FICOHSA PLAZA ESPANA,,Managua,MANAGUA,,NI,+505 2255 8000,https://location.westernunion.com/ni/managua/managua/328941348a78d68fd9a15ea6ed6f0708,Mo-Fr 08:30-16:30; Sa 08:30-12:30,Western Union,Q861042
227dd933453d7d164efafa0b508e986f,western_union,AMPM INVERCASA II,,Managua,MANAGUA,,NI,+505 2253 8740,https://location.westernunion.com/ni/managua/managua/227dd933453d7d164efafa0b508e986f,Mo-Su 00:01-24:00,Western Union,Q861042
bd730bb96f5d4c60ed6b49cb9f571e62,western_union,AMPM INVERCASA II,,Managua,MANAGUA,,NI,+505 2253 8740,https://location.westernunion.com/ni/managua/managua/bd730bb96f5d4c60ed6b49cb9f571e62,Mo-Su 00:01-24:00,Western Union,Q861042
507ae0906d6891f3dc297293c1806522,western_union,AMPM EDIFICIO ESCALA II,,Managua,MANAGUA,,NI,+505 2253 8740,https://location.westernunion.com/ni/managua/managua/507ae0906d6891f3dc297293c1806522,Mo-Su 00:01-24:00,Western Union,Q861042
4aefb87227f9210b98143b6828d2e1cc,western_union,AMPM EDIFICIO ESCALA II,,Managua,MANAGUA,,NI,+505 2253 8740,https://location.westernunion.com/ni/managua/managua/4aefb87227f9210b98143b6828d2e1cc,Mo-Su 00:01-24:00,Western Union,Q861042
55436a7685af14dff978d492c56c1689,western_union,AMPM ROTONDA UNIVERSITARIA I,,Managua,MANAGUA,,NI,+505 2266 8126,https://location.westernunion.com/ni/managua/managua/55436a7685af14dff978d492c56c1689,Mo-Su 01:00-24:00,Western Union,Q861042
0cff379ce0b0fc29dd3d680ca56c7051,western_union,AMPM ROTONDA UNIVERSITARIA I,,Managua,MANAGUA,,NI,+505 2266 8126,https://location.westernunion.com/ni/managua/managua/0cff379ce0b0fc29dd3d680ca56c7051,Mo-Su 01:00-24:00,Western Union,Q861042
2ec2359ecb6d23b09332bf2f1cfb968c,western_union,AIRPAK MAXI PALI ORIENTAL,,Managua,MANAGUA,,NI,+505 2266 8126,https://location.westernunion.com/ni/managua/managua/2ec2359ecb6d23b09332bf2f1cfb968c,Mo-Su 09:00-18:00,Western Union,Q861042
3083442495b7b972de4d68bfcf0b39f0,western_union,AMPM EL PARAISITO II,,Managua,MANAGUA,,NI,+505 7521 6319,https://location.westernunion.com/ni/managua/managua/3083442495b7b972de4d68bfcf0b39f0,Mo-Su 00:01-24:00,Western Union,Q861042
f72a6ea28c536c5e0f299aa20d60410c,western_union,WALMART PALI P DEL H,,Managua,MANAGUA,,NI,+505 2264 9370,https://location.westernunion.com/ni/managua/managua/f72a6ea28c536c5e0f299aa20d60410c,Mo-Fr 09:00-18:00; Sa 09:00-17:00,Western Union,Q861042
834f0e8567125890e93d4afb771ac8a5,western_union,FICOHSA CIUDAD JARDIN,,Managua,MANAGUA,,NI,+505 2255 8000,https://location.westernunion.com/ni/managua/managua/834f0e8567125890e93d4afb771ac8a5,Mo-Fr 08:30-16:30; Sa 08:30-12:30,Western Union,Q861042
ed18801dfbdafee23d9962ccc9817690,western_union,FICOHSA CIUDAD JARDIN,,Managua,MANAGUA,,NI,+505 2255 8000,https://location.westernunion.com/ni/managua/managua/ed18801dfbdafee23d9962ccc9817690,Mo-Fr 08:30-16:30; Sa 08:30-12:30,Western Union,Q861042
4fea90eeb18cca81e38def9dc57a0f54,western_union,VERITA REPARTO SHICK,,Managua,MANAGUA,,NI,+505 2279 9387,https://location.westernunion.com/ni/managua/managua/4fea90eeb18cca81e38def9dc57a0f54,Mo-Fr 08:00-17:00; Sa 08:00-12:00,Western Union,Q861042
f830083131c936b016115ecf75d2b39c,western_union,VERITA REPARTO SHICK,,Managua,MANAGUA,,NI,+505 2279 9387,https://location.westernunion.com/ni/managua/managua/f830083131c936b016115ecf75d2b39c,Mo-Fr 08:00-17:00; Sa 08:00-12:00,Western Union,Q861042
c4cd013d7fdaa5a3c02343a7919ea418,western_union,WALMART PALI CIUDAD JARDIN,,Managua,MANAGUA,,NI,+505 2264 9370,https://location.westernunion.com/ni/managua/managua/c4cd013d7fdaa5a3c02343a7919ea418,Mo-Fr 09:00-18:00; Sa 09:00-17:00,Western Union,Q861042
7ce51c404b390d99d4241a754bf53744,western_union,WALMART PALI CIUDAD JARDIN,,Managua,MANAGUA,,NI,+505 2264 9370,https://location.westernunion.com/ni/managua/managua/7ce51c404b390d99d4241a754bf53744,Mo-Fr 09:00-18:00; Sa 09:00-17:00,Western Union,Q861042
b450cf527cd9244e5179cb417c32772a,western_union,AIRPAK LA COLONIA CIUDAD JARDI,,Managua,MANAGUA,,NI,+505 2266 8126,https://location.westernunion.com/ni/managua/managua/b450cf527cd9244e5179cb417c32772a,Mo-Fr 08:00-17:00; Sa 08:00-13:00,Western Union,Q861042
b87e810bc671a6c1110e1e20b7846278,western_union,AIRPAK LA COLONIA CIUDAD JARDI,,Managua,MANAGUA,,NI,+505 2266 8126,https://location.westernunion.com/ni/managua/managua/b87e810bc671a6c1110e1e20b7846278,Mo-Fr 08:00-17:00; Sa 08:00-13:00,Western Union,Q861042
595efff6b93cc498d8219d8a995aefdf,western_union,MI CREDITO CIUDAD JARDIN II,,Managua,MANAGUA,,NI,+505 2266 8126,https://location.westernunion.com/ni/managua/managua/595efff6b93cc498d8219d8a995aefdf,Mo-Fr 08:00-16:30; Sa 08:00-12:00,Western Union,Q861042
817527c7c403a94049308ace588b1ba1,western_union,MI CREDITO CIUDAD JARDIN II,,Managua,MANAGUA,,NI,+505 2266 8126,https://location.westernunion.com/ni/managua/managua/817527c7c403a94049308ace588b1ba1,Mo-Fr 08:00-16:30; Sa 08:00-11:30,Western Union,Q861042
38d1c6d9a6252375e1ff18c6cb747af2,western_union,MI CREDITO RUBENIA II,,Managua,MANAGUA,,NI,+505 2266 8126,https://location.westernunion.com/ni/managua/managua/38d1c6d9a6252375e1ff18c6cb747af2,Mo-Fr 08:00-16:30; Sa 08:00-11:30,Western Union,Q861042
f381d41916e123db92925374885f2e8f,western_union,LA COLONIA RUBENIA,,Managua,MANAGUA,,NI,+505 2266 8126,https://location.westernunion.com/ni/managua/managua/f381d41916e123db92925374885f2e8f,Mo-Su 08:00-20:00,Western Union,Q861042
37c8c82fea7205edd238317022d6c0a8,western_union,LA COLONIA RUBENIA,,Managua,MANAGUA,,NI,+505 2266 8126,https://location.westernunion.com/ni/managua/managua/37c8c82fea7205edd238317022d6c0a8,Mo-Su 08:00-20:00,Western Union,Q861042
ef3fc6af339f1993ac9f0de2b15b9611,western_union,AIRPAK PALI PRIMERO DE MAYO,,Managua,MANAGUA,,NI,+505 2266 8126,https://location.westernunion.com/ni/managua/managua/ef3fc6af339f1993ac9f0de2b15b9611,Mo-Sa 08:00-17:00; Su 08:00-15:00,Western Union,Q861042
99da6fce8f0f6c593c9877a903af0c4e,western_union,AIRPAK PALI PRIMERO DE MAYO,,Managua,MANAGUA,,NI,+505 2266 8126,https://location.westernunion.com/ni/managua/managua/99da6fce8f0f6c593c9877a903af0c4e,Mo-Sa 08:00-17:00; Su 08:00-15:00,Western Union,Q861042
dafeefc1698b98872fcf4c0ce0f4559f,western_union,AMPM RUBENIA II,,Managua,MANAGUA,,NI,+505 5502 3415,https://location.westernunion.com/ni/managua/managua/dafeefc1698b98872fcf4c0ce0f4559f,Mo-Su 00:01-24:00,Western Union,Q861042
9828f9849b5b292bc8119560e5958c7b,western_union,AMPM RUBENIA I,,Managua,MANAGUA,,NI,+505 2266 8126,https://location.westernunion.com/ni/managua/managua/9828f9849b5b292bc8119560e5958c7b,Mo-Su 01:00-24:00,Western Union,Q861042
19cfe1dd8bf7cb58efa9df241f12965d,western_union,AMPM RUBENIA I,,Managua,MANAGUA,,NI,+505 2266 8126,https://location.westernunion.com/ni/managua/managua/19cfe1dd8bf7cb58efa9df241f12965d,Mo-Su 01:00-24:00,Western Union,Q861042
344dd7e6d51d272f4b9e4398bd433edf,western_union,PALI RUBENIA III,,Managua,MANAGUA,,NI,+505 2266 8126,https://location.westernunion.com/ni/managua/managua/344dd7e6d51d272f4b9e4398bd433edf,Mo-Sa 08:00-17:00,Western Union,Q861042
99d39249c566e9f064155d1c1d3f16e1,western_union,PALI RUBENIA III,,Managua,MANAGUA,,NI,+505 2266 8126,https://location.westernunion.com/ni/managua/managua/99d39249c566e9f064155d1c1d3f16e1,Mo-Sa 08:00-17:00,Western Union,Q861042
08f5c9e907c88778e0fb9d90e348aceb,western_union,WALMART PALI 27 DE MAYO,,Managua,MANAGUA,,NI,+505 2264 9370,https://location.westernunion.com/ni/managua/managua/08f5c9e907c88778e0fb9d90e348aceb,Mo-Fr 09:00-18:00; Sa 09:00-17:00,Western Union,Q861042
766fb3d370c4f150a84ea535cfec4694,western_union,WALMART LA UNION VILLA FONTANA,,Managua,MANAGUA,,NI,+505 2264 9370,https://location.westernunion.com/ni/managua/managua/766fb3d370c4f150a84ea535cfec4694,Mo-Fr 09:00-18:00; Sa 09:00-17:00,Western Union,Q861042
5e9ee7f11f94e9ef65501f73e0318855,western_union,AMPM LOS VADOS II,,Managua,MANAGUA,,NI,+505 2253 8740,https://location.westernunion.com/ni/managua/managua/5e9ee7f11f94e9ef65501f73e0318855,Mo-Su 00:01-24:00,Western Union,Q861042
db4cd99e86c189519de29694386af27d,western_union,AMPM LOS VADOS II,,Managua,MANAGUA,,NI,+505 2253 8740,https://location.westernunion.com/ni/managua/managua/db4cd99e86c189519de29694386af27d,Mo-Su 00:01-24:00,Western Union,Q861042
b12fb0e2e75b3e1774524d4031872787,western_union,FUNDESER 27 DE MAYO,,Managua,MANAGUA,,NI,+505 2266 8126,https://location.westernunion.com/ni/managua/managua/b12fb0e2e75b3e1774524d4031872787,Mo-Fr 08:00-17:30; Sa 08:00-12:30,Western Union,Q861042
30ad5a5905782ecdd4f06bc029f647e4,western_union,FUNDESER 27 DE MAYO,,Managua,MANAGUA,,NI,+505 2266 8126,https://location.westernunion.com/ni/managua/managua/30ad5a5905782ecdd4f06bc029f647e4,Mo-Fr 08:00-17:30; Sa 08:00-12:30,Western Union,Q861042
5a77cb51d594c7a049b32697528d840b,western_union,AMPM LOS ROBLES II,,Managua,MANAGUA,,NI,+505 2253 8740,https://location.westernunion.com/ni/managua/managua/5a77cb51d594c7a049b32697528d840b,Mo-Su 00:01-24:00,Western Union,Q861042
c8b2c32a41ebab5f817686f2fb3596fa,western_union,AMPM LOS ROBLES II,,Managua,MANAGUA,,NI,+505 2253 8740,https://location.westernunion.com/ni/managua/managua/c8b2c32a41ebab5f817686f2fb3596fa,Mo-Su 00:01-24:00,Western Union,Q861042
30989372c5fe50d9036f58275cef4c2a,western_union,FDL CASA MATRIZ I,,Managua,MANAGUA,,NI,+505 2266 8126,https://location.westernunion.com/ni/managua/managua/30989372c5fe50d9036f58275cef4c2a,Mo-Fr 08:00-17:00; Sa 08:00-12:00,Western Union,Q861042
15212898b7f8e7aa31c40e6aab537eb7,western_union,FDL CASA MATRIZ I,,Managua,MANAGUA,,NI,+505 2266 8126,https://location.westernunion.com/ni/managua/managua/15212898b7f8e7aa31c40e6aab537eb7,Mo-Fr 08:00-17:00; Sa 08:00-12:00,Western Union,Q861042
d37b0997742920225fbd7dd5ad9b18ee,western_union,CENTRO COMERCIAL MANAGUA II,,Managua,MANAGUA,,NI,+505 2266 8126,https://location.westernunion.com/ni/managua/managua/d37b0997742920225fbd7dd5ad9b18ee,Mo-Su 08:00-16:00,Western Union,Q861042
7dd2e4b8191091802e8fc32513e6af77,western_union,CENTRO COMERCIAL MANAGUA II,,Managua,MANAGUA,,NI,+505 2266 8126,https://location.westernunion.com/ni/managua/managua/7dd2e4b8191091802e8fc32513e6af77,Mo-Su 08:00-16:00,Western Union,Q861042
766ffbae8a2e445d52c09b4cffd786a6,western_union,VERITA ESQUIPULAS,,Managua,MANAGUA,,NI,+505 2266 8126,https://location.westernunion.com/ni/managua/managua/766ffbae8a2e445d52c09b4cffd786a6,Mo-Sa 08:00-17:00,Western Union,Q861042
026c010c5b157b647361f343a621f712,western_union,VERITA ESQUIPULAS,,Managua,MANAGUA,,NI,+505 2266 8126,https://location.westernunion.com/ni/managua/managua/026c010c5b157b647361f343a621f712,Mo-Sa 08:00-17:00,Western Union,Q861042
e4a901829dfe40332f297427d5b63ee1,western_union,AIRPAK PALI ESQUIPULAS,,Managua,MANAGUA,,NI,+505 2266 8126,https://location.westernunion.com/ni/managua/managua/e4a901829dfe40332f297427d5b63ee1,Mo-Su 09:00-21:00,Western Union,Q861042
34d918142c27630d00b1f40f8cb23611,western_union,AIRPAK PALI ESQUIPULAS,,Managua,MANAGUA,,NI,+505 2266 8126,https://location.westernunion.com/ni/managua/managua/34d918142c27630d00b1f40f8cb23611,Mo-Su 09:00-21:00,Western Union,Q861042
f48dfda06db9d4f7f28e68f7871ce081,western_union,AMPM LAS COLINAS II,,Managua,MANAGUA,,NI,+505 2253 8740,https://location.westernunion.com/ni/managua/managua/f48dfda06db9d4f7f28e68f7871ce081,Mo-Su 00:01-24:00,Western Union,Q861042
928070b7c9ed4f62f2e5bca77ac9ce1a,western_union,AMPM LAS COLINAS II,,Managua,MANAGUA,,NI,+505 2253 8740,https://location.westernunion.com/ni/managua/managua/928070b7c9ed4f62f2e5bca77ac9ce1a,Mo-Su 00:01-24:00,Western Union,Q861042
ca21e690526a3807bb05d7a97b96e282,western_union,AIRPAK MAXI TICUANTEPE,,Ticuantepe,MANAGUA,,NI,+505 2266 8126,https://location.westernunion.com/ni/managua/ticuantepe/ca21e690526a3807bb05d7a97b96e282,Mo-Su 08:00-20:00,Western Union,Q861042
43ce68889dea2b7a50bae3f6a432402f,western_union,AIRPAK MAXI TICUANTEPE,,Ticuantepe,MANAGUA,,NI,+505 2266 8126,https://location.westernunion.com/ni/managua/ticuantepe/43ce68889dea2b7a50bae3f6a432402f,Mo-Su 08:00-20:00,Western Union,Q861042
12b4fd717309fe51c12ea515d8442a64,western_union,FICOHSA CARRETERA A MASAYA,,Managua,MANAGUA,,NI,+505 2255 8000,https://location.westernunion.com/ni/managua/managua/12b4fd717309fe51c12ea515d8442a64,Mo-Fr 08:30-17:00; Sa 08:30-12:30,Western Union,Q861042
454691c3272c745d28475e515ce41130,western_union,FICOHSA CARRETERA A MASAYA,,Managua,MANAGUA,,NI,+505 2255 8000,https://location.westernunion.com/ni/managua/managua/454691c3272c745d28475e515ce41130,Mo-Fr 08:00-17:00; Sa 08:00-13:00,Western Union,Q861042
c84185ba7d19bb9f731b20cb2c9489e2,western_union,WALMART LA UNION ESQUIPULAS,,Esquipulas,MANAGUA,,NI,+505 2264 9370,https://location.westernunion.com/ni/managua/esquipulas/c84185ba7d19bb9f731b20cb2c9489e2,Mo-Fr 09:00-18:00; Sa 09:00-17:00,Western Union,Q861042
589638548d5218c6ec10e3e235e806ef,western_union,FDL TICUANTEPE I,,Ticuantepe,MANAGUA,,NI,+505 2266 8126,https://location.westernunion.com/ni/managua/ticuantepe/589638548d5218c6ec10e3e235e806ef,Mo-Fr 08:00-17:00; Sa 08:00-12:00,Western Union,Q861042
2e5d3b2ecb4853654651fede5f1ed9cc,western_union,FDL TICUANTEPE I,,Ticuantepe,MANAGUA,,NI,+505 2266 8126,https://location.westernunion.com/ni/managua/ticuantepe/2e5d3b2ecb4853654651fede5f1ed9cc,Mo-Fr 08:00-17:00; Sa 08:00-12:00,Western Union,Q861042
e4a2bf9e504fe21c2f0b0cc6d64a0ae1,western_union,STEN VILLA LIBERTAD,,Managua,MANAGUA,,NI,+505 2266 8126,https://location.westernunion.com/ni/managua/managua/e4a2bf9e504fe21c2f0b0cc6d64a0ae1,Mo-Sa 08:00-17:00; Su 08:00-13:00,Western Union,Q861042
42732a28999efe7d134b1be7b5000393,western_union,STEN VILLA LIBERTAD,,Managua,MANAGUA,,NI,+505 2266 8126,https://location.westernunion.com/ni/managua/managua/42732a28999efe7d134b1be7b5000393,Mo-Sa 08:00-17:00; Su 08:00-13:00,Western Union,Q861042
96355ad616d74e1e3214c2f01b1ecea2,western_union,WALMART LA UNION LARREYNAGA,,Managua,MANAGUA,,NI,+505 2264 9370,https://location.westernunion.com/ni/managua/managua/96355ad616d74e1e3214c2f01b1ecea2,Mo-Fr 09:00-18:00; Sa 09:00-17:00,Western Union,Q861042
6347d39ec7f48e1bf254f243cd97c691,western_union,WALMART LA UNION LARREYNAGA,,Managua,MANAGUA,,NI,+505 2264 9370,https://location.westernunion.com/ni/managua/managua/6347d39ec7f48e1bf254f243cd97c691,Mo-Fr 09:00-18:00; Sa 09:00-17:00,Western Union,Q861042
2b05b0dc7ab7b8df4d832820c76bd9e6,western_union,AMPM VILLA LIBERTAD I,,Managua,MANAGUA,,NI,+505 2253 8740,https://location.westernunion.com/ni/managua/managua/2b05b0dc7ab7b8df4d832820c76bd9e6,Mo-Su 00:01-24:00,Western Union,Q861042
9d42710992ce7e26219a887f79633820,western_union,AMPM VILLA LIBERTAD I,,Managua,MANAGUA,,NI,+505 2253 8740,https://location.westernunion.com/ni/managua/managua/9d42710992ce7e26219a887f79633820,Mo-Su 00:01-24:00,Western Union,Q861042
ad568ff1c85befcbec23b43fa1ac92a9,western_union,WALMART PALI LOGIX PLAZA,,Managua,MANAGUA,,NI,+505 2264 9370,https://location.westernunion.com/ni/managua/managua/ad568ff1c85befcbec23b43fa1ac92a9,Mo-Fr 09:00-18:00; Sa 09:00-17:00,Western Union,Q861042
637552ed91f5016a8f9a13082542defc,western_union,FONOCENTER IVAN MONTENEGRO,,Managua,MANAGUA,,NI,+505 2266 8126,https://location.westernunion.com/ni/managua/managua/637552ed91f5016a8f9a13082542defc,Mo-Sa 08:00-17:30; Su 08:00-13:00,Western Union,Q861042
ff61add4840e9cffa47afd6fb3264fc6,western_union,FONOCENTER IVAN MONTENEGRO,,Managua,MANAGUA,,NI,+505 2266 8126,https://location.westernunion.com/ni/managua/managua/ff61add4840e9cffa47afd6fb3264fc6,Mo-Fr 08:00-17:00; Sa 08:00-13:00,Western Union,Q861042
cbfa37a32dc0c46fe6478f538b369779,western_union,AMPM IVAN MONTENEGRO I,,Managua,MANAGUA,,NI,+505 2266 8126,https://location.westernunion.com/ni/managua/managua/cbfa37a32dc0c46fe6478f538b369779,Mo-Su 00:01-24:00,Western Union,Q861042
691eba588170579f33680ef8736d2f6d,western_union,AHORRA MAS BELLO HORIZONTE,,Managua,MANAGUA,,NI,+505 2253 8740,https://location.westernunion.com/ni/managua/managua/691eba588170579f33680ef8736d2f6d,Mo-Su 10:00-19:00,Western Union,Q861042
5b81d39f317750eb5117923976cca7a3,western_union,AHORRA MAS BELLO HORIZONTE,,Managua,MANAGUA,,NI,+505 2253 8740,https://location.westernunion.com/ni/managua/managua/5b81d39f317750eb5117923976cca7a3,Mo-Su 10:00-19:00,Western Union,Q861042
1bcfb00e05f4af56604b650235ebd946,western_union,WALMART LA UNION BELLO HORIZONTE,,Managua,MANAGUA,,NI,+505 2264 9370,https://location.westernunion.com/ni/managua/managua/1bcfb00e05f4af56604b650235ebd946,Mo-Fr 09:00-18:00; Sa 09:00-17:00,Western Union,Q861042
25d42cd040d90ad727359e6e7ff51c3b,western_union,WALMART LA UNION BELLO HORIZONTE,,Managua,MANAGUA,,NI,+505 2264 9370,https://location.westernunion.com/ni/managua/managua/25d42cd040d90ad727359e6e7ff51c3b,Mo-Fr 09:00-18:00; Sa 09:00-17:00,Western Union,Q861042
db1f23eebc6b1a51f3a38134b773984a,western_union,FICOHSA MULTICENTRO LAS AMERICAS,,Managua,MANAGUA,,NI,+505 2255 8000,https://location.westernunion.com/ni/managua/managua/db1f23eebc6b1a51f3a38134b773984a,Mo-Fr 08:30-16:30; Sa 08:30-12:30,Western Union,Q861042
e843b2805f09e2ae839ced704e06b457,western_union,FICOHSA MULTICENTRO LAS AMERICAS,,Managua,MANAGUA,,NI,+505 2255 8000,https://location.westernunion.com/ni/managua/managua/e843b2805f09e2ae839ced704e06b457,Mo-Fr 08:30-16:30; Sa 08:30-12:30,Western Union,Q861042
6978320cfd5c4e8736022b9a743783c1,western_union,FAMA 1 ERO MAYO,,Managua,MANAGUA,,NI,+505 2266 8126,https://location.westernunion.com/ni/managua/managua/6978320cfd5c4e8736022b9a743783c1,Mo-Fr 08:00-14:30; Sa 08:00-12:00,Western Union,Q861042
2ffcb30b5fbdbe8de395f5b12f318254,western_union,FAMA 1 ERO MAYO,,Managua,MANAGUA,,NI,+505 2266 8126,https://location.westernunion.com/ni/managua/managua/2ffcb30b5fbdbe8de395f5b12f318254,Mo-Fr 08:00-16:30; Sa 08:00-12:00,Western Union,Q861042
95a0e87df21f9d7abfe36122fdb3dd60,western_union,MI CREDITO RUBENIA II,,Managua,MANAGUA,,NI,+505 2266 8126,https://location.westernunion.com/ni/managua/managua/95a0e87df21f9d7abfe36122fdb3dd60,Mo-Fr 08:00-16:30; Sa 08:00-12:00,Western Union,Q861042
b6cbcda961d9203bfcc3a17d9270f3a0,western_union,FAMA ROBERTO HUEMBES,,Managua,MANAGUA,,NI,+505 2266 8126,https://location.westernunion.com/ni/managua/managua/b6cbcda961d9203bfcc3a17d9270f3a0,Mo-Fr 08:00-14:30; Sa 08:00-12:00,Western Union,Q861042
71439d7dce6d9b5374ea895e50adffb5,western_union,COLONIA LA GRAN VIA,,Managua,MANAGUA,,NI,+505 2266 8126,https://location.westernunion.com/ni/managua/managua/71439d7dce6d9b5374ea895e50adffb5,Mo-Su 08:00-20:00,Western Union,Q861042
d44ae96b60ec6c9f60179d95d13ac962,western_union,COLONIA LA GRAN VIA,,Managua,MANAGUA,,NI,+505 2266 8126,https://location.westernunion.com/ni/managua/managua/d44ae96b60ec6c9f60179d95d13ac962,Mo-Su 08:00-20:00,Western Union,Q861042
2159e7f991a9ca6a684a4532f9e10a61,western_union,MAYOREO III,,Managua,MANAGUA,,NI,+505 2266 8126,https://location.westernunion.com/ni/managua/managua/2159e7f991a9ca6a684a4532f9e10a61,Mo-Sa 08:00-16:00,Western Union,Q861042
d0aa7d73eacfd73d3bc661d5a4526765,western_union,WALMART PALI VERACRUZ,,Managua,MANAGUA,,NI,+505 2264 9370,https://location.westernunion.com/ni/managua/managua/d0aa7d73eacfd73d3bc661d5a4526765,Mo-Fr 09:00-18:00; Sa 09:00-17:00,Western Union,Q861042
62a537065de327cce162ca442b4e2216,western_union,AIRPAK MAXI PALI LAS COLINAS,,Managua,MANAGUA,,NI,+505 2266 8126,https://location.westernunion.com/ni/managua/managua/62a537065de327cce162ca442b4e2216,Mo-Su 09:00-21:00,Western Union,Q861042
51a72543cfc7fac4796b21a2bb5f6f2e,western_union,AIRPAK MAXI PALI LAS COLINAS,,Managua,MANAGUA,,NI,+505 2266 8126,https://location.westernunion.com/ni/managua/managua/51a72543cfc7fac4796b21a2bb5f6f2e,Mo-Su 09:00-21:00,Western Union,Q861042
71667ce5c215ff584af7096e7d753b32,western_union,WALMART PALI SANTO DOMINGO,,Managua,MANAGUA,,NI,+505 2264 9370,https://location.westernunion.com/ni/managua/managua/71667ce5c215ff584af7096e7d753b32,Mo-Fr 09:00-18:00; Sa 09:00-17:00,Western Union,Q861042
44417b781210feca5862ab3a3f1c1ee9,western_union,WALMART PALI SANTO DOMINGO,,Managua,MANAGUA,,NI,+505 2264 9370,https://location.westernunion.com/ni/managua/managua/44417b781210feca5862ab3a3f1c1ee9,Mo-Fr 09:00-18:00; Sa 09:00-17:00,Western Union,Q861042
bbc63472102519618b02f9b488ea6dfa,western_union,WALMART PALI EL REDENTOR,,Managua,MANAGUA,,NI,+505 2264 9370,https://location.westernunion.com/ni/managua/managua/bbc63472102519618b02f9b488ea6dfa,Mo-Fr 09:00-18:00; Sa 09:00-17:00,Western Union,Q861042
706e17a46fcc4bee41b49fbe4ea46a3e,western_union,WALMART PALI ALTAMIRA,,Managua,MANAGUA,,NI,+505 2264 9370,https://location.westernunion.com/ni/managua/managua/706e17a46fcc4bee41b49fbe4ea46a3e,Mo-Fr 09:00-18:00; Sa 09:00-17:00,Western Union,Q861042
fec0baeb802bdec8cf50f1489855e676,western_union,FDL MERCADO ORIENTAL I,,Managua,MANAGUA,,NI,+505 2266 8126,https://location.westernunion.com/ni/managua/managua/fec0baeb802bdec8cf50f1489855e676,Mo-Fr 08:00-17:00; Sa 08:00-12:00,Western Union,Q861042
82727ae6a21758f6f2568766527b3fe1,western_union,FDL MERCADO ORIENTAL I,,Managua,MANAGUA,,NI,+505 2266 8126,https://location.westernunion.com/ni/managua/managua/82727ae6a21758f6f2568766527b3fe1,Mo-Fr 08:00-17:00; Sa 08:00-12:00,Western Union,Q861042
c91e8452aa9a1413e6de5a4e1b145cff,western_union,FAMA CIUDAD JARDIN,,Managua,MANAGUA,,NI,+505 2266 8126,https://location.westernunion.com/ni/managua/managua/c91e8452aa9a1413e6de5a4e1b145cff,Mo-Sa 08:00-14:30,Western Union,Q861042
b157c5e99199c7266788dc4b36386e7c,western_union,FAMA CIUDAD JARDIN,,Managua,MANAGUA,,NI,+505 2266 8126,https://location.westernunion.com/ni/managua/managua/b157c5e99199c7266788dc4b36386e7c,Mo-Fr 08:00-16:30; Sa 08:00-12:00,Western Union,Q861042
58bc34b35f7e749096809b40f693f8a3,western_union,FDL MERCADO HUEMBES I,,Managua,MANAGUA,,NI,+505 2266 8126,https://location.westernunion.com/ni/managua/managua/58bc34b35f7e749096809b40f693f8a3,Mo-Fr 08:00-17:00; Sa 08:00-12:00,Western Union,Q861042
36a0ffd7893df8b9d44d5dc7b21bf19b,western_union,FDL MERCADO HUEMBES I,,Managua,MANAGUA,,NI,+505 2266 8126,https://location.westernunion.com/ni/managua/managua/36a0ffd7893df8b9d44d5dc7b21bf19b,Mo-Fr 08:00-17:00; Sa 08:00-12:00,Western Union,Q861042
eebea00c7d77a10f6ab99f8f2d60187e,western_union,FARMACIA KONNY,,Managua,MANAGUA,,NI,+505 2266 8126,https://location.westernunion.com/ni/managua/managua/eebea00c7d77a10f6ab99f8f2d60187e,Mo-Su 06:30-18:00,Western Union,Q861042
0cc18139b8355324802b6e22c2e9bce9,western_union,FARMACIA KONNY,,Managua,MANAGUA,,NI,+505 2266 8126,https://location.westernunion.com/ni/managua/managua/0cc18139b8355324802b6e22c2e9bce9,Mo-Sa 08:00-17:30,Western Union,Q861042
ad9315c1a087d7139845b08251190e99,western_union,WALMART PALI LA FUENTE,,Managua,MANAGUA,,NI,+505 2264 9370,https://location.westernunion.com/ni/managua/managua/ad9315c1a087d7139845b08251190e99,Mo-Fr 09:00-18:00; Sa 09:00-17:00,Western Union,Q861042
f52753dd19924347fd88211bb99fb74b,western_union,AIRPAK MAXI PALI EL DORADO,,Managua,MANAGUA,,NI,+505 2266 8126,https://location.westernunion.com/ni/managua/managua/f52753dd19924347fd88211bb99fb74b,Mo-Su 09:00-18:00,Western Union,Q861042
fc13abedf2e9433360b8e0b11684efdd,western_union,AIRPAK MAXI PALI EL DORADO,,Managua,MANAGUA,,NI,+505 2266 8126,https://location.westernunion.com/ni/managua/managua/fc13abedf2e9433360b8e0b11684efdd,Mo-Su 09:00-18:00,Western Union,Q861042
ee3f9b9ebc98881b67a4043b24197a6e,western_union,LA FUENTE II,,Managua,MANAGUA,,NI,+505 2266 8126,https://location.westernunion.com/ni/managua/managua/ee3f9b9ebc98881b67a4043b24197a6e,Mo-Sa 08:00-17:00,Western Union,Q861042
9716f70bad1288d5dbc33b0d83d2992e,western_union,LA FUENTE II,,Managua,MANAGUA,,NI,+505 2266 8126,https://location.westernunion.com/ni/managua/managua/9716f70bad1288d5dbc33b0d83d2992e,Mo-Sa 08:00-17:00,Western Union,Q861042
485cc1404529545046bc9db3b3aafb80,western_union,AIRPAK AMERICAS 2,,Managua,MANAGUA,,NI,+505 2266 8126,https://location.westernunion.com/ni/managua/managua/485cc1404529545046bc9db3b3aafb80,Mo-Sa 08:00-17:00,Western Union,Q861042
efb221e6bb4f729318f2c318ea7fd5a2,western_union,AMPM LAS MERCEDES I,,Managua,MANAGUA,,NI,+505 2253 8740,https://location.westernunion.com/ni/managua/managua/efb221e6bb4f729318f2c318ea7fd5a2,Mo-Su 00:01-24:00,Western Union,Q861042
3b3989d2f33e87a370b26b95a870306d,western_union,AMPM LAS MERCEDES I,,Managua,MANAGUA,,NI,+505 2253 8740,https://location.westernunion.com/ni/managua/managua/3b3989d2f33e87a370b26b95a870306d,Mo-Su 00:01-24:00,Western Union,Q861042
455f73d0b00100bcae2e1b822d9906c9,western_union,VILLA EL SOL I,,Managua,MANAGUA,,NI,+505 2266 8126,https://location.westernunion.com/ni/managua/managua/455f73d0b00100bcae2e1b822d9906c9,Mo-Sa 08:00-17:00,Western Union,Q861042
2683db7a64c99374ae920ba2bf9ccd9f,western_union,VILLA EL SOL I,,Managua,MANAGUA,,NI,+505 2266 8126,https://location.westernunion.com/ni/managua/managua/2683db7a64c99374ae920ba2bf9ccd9f,Mo-Sa 08:00-17:00,Western Union,Q861042
aa721b5e49885c2fb7d3381114a62ee9,western_union,AMPM ROCARGO I,,Managua,MANAGUA,,NI,+505 2266 8126,https://location.westernunion.com/ni/managua/managua/aa721b5e49885c2fb7d3381114a62ee9,Mo-Su 01:00-24:00,Western Union,Q861042
8d800aa25bc421edd18bba1bcfa6dd30,western_union,AMPM ROCARGO I,,Managua,MANAGUA,,NI,+505 2266 8126,https://location.westernunion.com/ni/managua/managua/8d800aa25bc421edd18bba1bcfa6dd30,Mo-Su 01:00-24:00,Western Union,Q861042
57044d852f64d99594016c528f5c1d7d,western_union,WALMART MAXI PALI LA SUBASTA,,Managua,MANAGUA,,NI,+505 2264 9370,https://location.westernunion.com/ni/managua/managua/57044d852f64d99594016c528f5c1d7d,Mo-Fr 09:00-18:00; Sa 09:00-17:00,Western Union,Q861042
fb5382314a7cd749bfbb0e2350a542c9,western_union,WALMART MAXI PALI LA SUBASTA,,Managua,MANAGUA,,NI,+505 2264 9370,https://location.westernunion.com/ni/managua/managua/fb5382314a7cd749bfbb0e2350a542c9,Mo-Fr 09:00-18:00; Sa 09:00-17:00,Western Union,Q861042
a37e278cc2ab6eb4cb51ee6ed26809fb,western_union,AMPM IVAN MONTENEGRO I,,Managua,MANAGUA,,NI,+505 2266 8126,https://location.westernunion.com/ni/managua/managua/a37e278cc2ab6eb4cb51ee6ed26809fb,Mo-Su 00:01-24:00,Western Union,Q861042
685faa667517cbb9ed73952606b2bc31,western_union,AIRPAK COLONIA MULTICENTRO LAS AMARICAS,,Managua,MANAGUA,,NI,+505 2266 8126,https://location.westernunion.com/ni/managua/managua/685faa667517cbb9ed73952606b2bc31,Mo-Fr 08:00-17:00; Sa 08:00-12:00,Western Union,Q861042
2a7ffb70683b3bfba263c4aaa768bef6,western_union,AMPM BELLO HORIZONTE I,,Managua,MANAGUA,,NI,+505 2266 8126,https://location.westernunion.com/ni/managua/managua/2a7ffb70683b3bfba263c4aaa768bef6,Mo-Su 01:00-24:00,Western Union,Q861042
1e50567fca40427dc2b912e312314e2f,western_union,AMPM BELLO HORIZONTE I,,Managua,MANAGUA,,NI,+505 2266 8126,https://location.westernunion.com/ni/managua/managua/1e50567fca40427dc2b912e312314e2f,Mo-Su 01:00-24:00,Western Union,Q861042
78bbf50ce11d428383c73e26233990d3,western_union,AMPM MULTICENTRO LAS AMERICAS II,,Managua,MANAGUA,,NI,+505 2253 8740,https://location.westernunion.com/ni/managua/managua/78bbf50ce11d428383c73e26233990d3,Mo-Su 00:01-24:00,Western Union,Q861042
7aba98d3d26a3204e8fe68420c853d6c,western_union,AMPM MULTICENTRO LAS AMERICAS II,,Managua,MANAGUA,,NI,+505 2253 8740,https://location.westernunion.com/ni/managua/managua/7aba98d3d26a3204e8fe68420c853d6c,Mo-Su 00:01-24:00,Western Union,Q861042
bd919c8d277d7b3c8fc3df5db347cecc,western_union,AIRPAK COLONIA MULTICENTRO LAS AMERICAS,,Managua,MANAGUA,,NI,+505 2266 8126,https://location.westernunion.com/ni/managua/managua/bd919c8d277d7b3c8fc3df5db347cecc,Mo-Fr 08:00-17:00; Sa 08:00-12:00,Western Union,Q861042
3424ff3f50e54fbb0aaad1702538f213,western_union,FDL MERCADO IVAN MONTENEGRO I,,Managua,MANAGUA,,NI,+505 2266 8126,https://location.westernunion.com/ni/managua/managua/3424ff3f50e54fbb0aaad1702538f213,Mo-Fr 08:00-17:00; Sa 08:00-12:00,Western Union,Q861042
993cac91325fa0dfde299662cbdefdf1,western_union,FDL MERCADO IVAN MONTENEGRO I,,Managua,MANAGUA,,NI,+505 2266 8126,https://location.westernunion.com/ni/managua/managua/993cac91325fa0dfde299662cbdefdf1,Mo-Fr 08:00-17:00; Sa 08:00-12:00,Western Union,Q861042
39f743a97e114557908549794cae1a8f,western_union,MAYOREO III,,Managua,MANAGUA,,NI,+505 2266 8126,https://location.westernunion.com/ni/managua/managua/39f743a97e114557908549794cae1a8f,Mo-Sa 08:00-16:00,Western Union,Q861042
6fc60404961252b8f366c1632f08a3b0,western_union,ORIENTAL V,,Managua,MANAGUA,,NI,+505 2266 8126,https://location.westernunion.com/ni/managua/managua/6fc60404961252b8f366c1632f08a3b0,Mo-Sa 08:00-16:00,Western Union,Q861042
239ee59832bdacac16694c3e912c27b7,western_union,ORIENTAL V,,Managua,MANAGUA,,NI,+505 2266 8126,https://location.westernunion.com/ni/managua/managua/239ee59832bdacac16694c3e912c27b7,Mo-Sa 08:00-16:00,Western Union,Q861042
f357060126a301270523dea69853a2e6,western_union,FAMA MAYOREO,,Managua,MANAGUA,,NI,+505 2266 8126,https://location.westernunion.com/ni/managua/managua/f357060126a301270523dea69853a2e6,Mo-Fr 08:00-14:30; Sa 08:00-12:00,Western Union,Q861042
22da94c126686ec589237458ce878e36,western_union,FAMA MAYOREO,,Managua,MANAGUA,,NI,+505 2266 8126,https://location.westernunion.com/ni/managua/managua/22da94c126686ec589237458ce878e36,Mo-Fr 08:00-16:30; Sa 08:00-12:00,Western Union,Q861042
c951f842b0242e65268053a83f6f2dbe,western_union,FUNDESER MAYOREO,,Managua,MANAGUA,,NI,+505 2266 8126,https://location.westernunion.com/ni/managua/managua/c951f842b0242e65268053a83f6f2dbe,Mo-Fr 08:00-17:30; Sa 08:00-12:30,Western Union,Q861042
e0a0a2356682bad2f24eaa1570ea8f86,western_union,FUNDESER MAYOREO,,Managua,MANAGUA,,NI,+505 2266 8126,https://location.westernunion.com/ni/managua/managua/e0a0a2356682bad2f24eaa1570ea8f86,Mo-Fr 08:00-17:30; Sa 08:00-12:30,Western Union,Q861042
ec2f09a30e6faa101b16d47eee17ecd5,western_union,AMPM WASPAN NORTE II,,Managua,MANAGUA,,NI,+505 2253 8740,https://location.westernunion.com/ni/managua/managua/ec2f09a30e6faa101b16d47eee17ecd5,Mo-Su 00:01-24:00,Western Union,Q861042
22f8d7b8562ed00eaf0b8ab91f7cd499,western_union,AMPM WASPAN NORTE II,,Managua,MANAGUA,,NI,+505 2253 8740,https://location.westernunion.com/ni/managua/managua/22f8d7b8562ed00eaf0b8ab91f7cd499,Mo-Su 00:01-24:00,Western Union,Q861042
1948cf1c75971294f1050999943ad3dc,western_union,AHORRA MAS EL MAYOREO,,Managua,MANAGUA,,NI,+505 2253 8740,https://location.westernunion.com/ni/managua/managua/1948cf1c75971294f1050999943ad3dc,Mo-Su 10:00-19:00,Western Union,Q861042
1140941ef299aa20be4a72d1798d0d24,western_union,AHORRA MAS EL MAYOREO,,Managua,MANAGUA,,NI,+505 2253 8740,https://location.westernunion.com/ni/managua/managua/1140941ef299aa20be4a72d1798d0d24,Mo-Su 10:00-19:00,Western Union,Q861042
a7d6becc74150ca38f0eb2fae70b36cf,western_union,AIRPAK MAXI PALI WASPAN,,Managua,MANAGUA,,NI,+505 2266 8126,https://location.westernunion.com/ni/managua/managua/a7d6becc74150ca38f0eb2fae70b36cf,Mo-Su 09:00-18:00,Western Union,Q861042
0d6f18801cedf2f6bea4dda2323484f4,western_union,AIRPAK MAXI PALI WASPAN,,Managua,MANAGUA,,NI,+505 2266 8126,https://location.westernunion.com/ni/managua/managua/0d6f18801cedf2f6bea4dda2323484f4,Mo-Su 09:00-18:00,Western Union,Q861042
104b0f8f8660d8de1db225f56ad83642,western_union,AIRPAK PALI LA PRIMAVERA,,Managua,MANAGUA,,NI,+505 2266 8126,https://location.westernunion.com/ni/managua/managua/104b0f8f8660d8de1db225f56ad83642,Mo-Su 09:00-18:00,Western Union,Q861042
d40844f145830e9374af63f4df0f5faf,western_union,AIRPAK PALI LA PRIMAVERA,,Managua,MANAGUA,,NI,+505 2266 8126,https://location.westernunion.com/ni/managua/managua/d40844f145830e9374af63f4df0f5faf,Mo-Su 09:00-18:00,Western Union,Q861042
d1eee02bd4fe181d11cc90a9a304e3db,western_union,FARMACIA LARRI,,Managua,MANAGUA,,NI,+505 8323 7073,https://location.westernunion.com/ni/managua/managua/d1eee02bd4fe181d11cc90a9a304e3db,Mo-Sa 08:00-17:00,Western Union,Q861042
321d047dbc7812dff278ab9cb94e7343,western_union,FARMACIA LARRI,,Managua,MANAGUA,,NI,+505 8323 7073,https://location.westernunion.com/ni/managua/managua/321d047dbc7812dff278ab9cb94e7343,Mo-Sa 08:00-17:00,Western Union,Q861042
6f9a2204ceac780e59f9a95c1809f94b,western_union,AIRPAK MAXI PALI MAYOREO,,Managua,MANAGUA,,NI,+505 2266 8126,https://location.westernunion.com/ni/managua/managua/6f9a2204ceac780e59f9a95c1809f94b,Mo-Su 09:00-21:00,Western Union,Q861042
f23dbfbaa6a4fbee1133aca80b1ed001,western_union,AIRPAK MAXI PALI MAYOREO,,Managua,MANAGUA,,NI,+505 2266 8126,https://location.westernunion.com/ni/managua/managua/f23dbfbaa6a4fbee1133aca80b1ed001,Mo-Su 09:00-21:00,Western Union,Q861042
b04878ae691597aeb8daa648e9f0d3c0,western_union,FICOHSA CARRETERA NORTE,,Managua,MANAGUA,,NI,+505 2255 8000,https://location.westernunion.com/ni/managua/managua/b04878ae691597aeb8daa648e9f0d3c0,Mo-Fr 08:30-16:30; Sa 08:30-12:30,Western Union,Q861042
8fe40795400ce67c15a3d5f9f54e678f,western_union,FICOHSA CARRETERA NORTE,,Managua,MANAGUA,,NI,+505 2255 8000,https://location.westernunion.com/ni/managua/managua/8fe40795400ce67c15a3d5f9f54e678f,Mo-Fr 08:30-16:30; Sa 08:30-12:30,Western Union,Q861042
c8cbe4ef123fdca52119ba01bcf5d5e9,western_union,WALMART PALI LAS AMERICAS,,Managua,MANAGUA,,NI,+505 2264 9370,https://location.westernunion.com/ni/managua/managua/c8cbe4ef123fdca52119ba01bcf5d5e9,Mo-Fr 09:00-18:00; Sa 09:00-17:00,Western Union,Q861042
2ab58d4d5f02790c1a8852ccbb719d98,western_union,WALMART PALI LAS AMERICAS,,Managua,MANAGUA,,NI,+505 2264 9370,https://location.westernunion.com/ni/managua/managua/2ab58d4d5f02790c1a8852ccbb719d98,Mo-Fr 09:00-18:00; Sa 09:00-17:00,Western Union,Q861042
6d9b3dbf267b97374961df1358f56422,western_union,PLAZA LA SABANA,,Managua,MANAGUA,,NI,+505 2266 8126,https://location.westernunion.com/ni/managua/managua/6d9b3dbf267b97374961df1358f56422,Mo-Su 08:00-20:00,Western Union,Q861042
8c5554f167aeedcf2044f3b47378730b,western_union,PLAZA LA SABANA,,Managua,MANAGUA,,NI,+505 2266 8126,https://location.westernunion.com/ni/managua/managua/8c5554f167aeedcf2044f3b47378730b,Mo-Su 08:00-20:00,Western Union,Q861042
0ffba743fd4d7d78a443ff1033bf3cfe,western_union,AIRPAK AMERICAS 2,,Managua,MANAGUA,,NI,+505 2266 8126,https://location.westernunion.com/ni/managua/managua/0ffba743fd4d7d78a443ff1033bf3cfe,Mo-Sa 08:00-17:00,Western Union,Q861042
f9b0db3c905a4add05dfb2091eaad96e,western_union,AIRPAK TIPITAPA,,Tipitapa,MANAGUA,,NI,+505 2266 8126,https://location.westernunion.com/ni/managua/tipitapa/f9b0db3c905a4add05dfb2091eaad96e,Mo-Sa 08:00-18:00; Su 09:00-15:00,Western Union,Q861042
2c874e2b2aaf081909e947eb51e21d73,western_union,AIRPAK TIPITAPA,,Tipitapa,MANAGUA,,NI,+505 2266 8126,https://location.westernunion.com/ni/managua/tipitapa/2c874e2b2aaf081909e947eb51e21d73,Mo-Sa 08:00-17:00,Western Union,Q861042
df78ce19d363b4a071e1cc9717f971a1,western_union,AMPM TIPITAPA I,,Tipitapa,MANAGUA,,NI,+505 2253 8740,https://location.westernunion.com/ni/managua/tipitapa/df78ce19d363b4a071e1cc9717f971a1,Mo-Su 00:01-24:00,Western Union,Q861042
be8e40e91fee93b5daabffc3a896668b,western_union,AMPM TIPITAPA I,,Tipitapa,MANAGUA,,NI,+505 2253 8740,https://location.westernunion.com/ni/managua/tipitapa/be8e40e91fee93b5daabffc3a896668b,Mo-Su 00:01-24:00,Western Union,Q861042
35a3695c71d338bd0de83c218ed5dda8,western_union,WALMART PALI TIPITAPA,,Tipitapa,MANAGUA,,NI,+505 2264 9370,https://location.westernunion.com/ni/managua/tipitapa/35a3695c71d338bd0de83c218ed5dda8,Mo-Fr 09:00-18:00; Sa 09:00-17:00,Western Union,Q861042
32720e8ea0a8f47638d1d03b9f2c545f,western_union,FDL TIPITAPA I,,Tipitapa,MANAGUA,,NI,+505 2266 8126,https://location.westernunion.com/ni/managua/tipitapa/32720e8ea0a8f47638d1d03b9f2c545f,Mo-Fr 08:00-17:00; Sa 08:00-12:00,Western Union,Q861042
f929e1cbfe39884587762ec20c6d8a6d,western_union,FDL TIPITAPA I,,Tipitapa,MANAGUA,,NI,+505 2266 8126,https://location.westernunion.com/ni/managua/tipitapa/f929e1cbfe39884587762ec20c6d8a6d,Mo-Fr 08:00-17:00; Sa 08:00-12:00,Western Union,Q861042
132b0c8d101cff0e7ca60debd38bd5b2,western_union,SAN FRANCISCO LIBRE,,San Francisco Libre,MANAGUA,,NI,+505 2266 8126,https://location.westernunion.com/ni/managua/san-francisco-libre/132b0c8d101cff0e7ca60debd38bd5b2,Mo-Sa 08:00-18:00,Western Union,Q861042
bd3cadfac8d6f0233211130768995930,western_union,AHORRA MAS TIPITAPA,,Tipitapa,MANAGUA,,NI,+505 2253 8740,https://location.westernunion.com/ni/managua/tipitapa/bd3cadfac8d6f0233211130768995930,Mo-Su 10:00-19:00,Western Union,Q861042
8dd201b1f25750846186a7f6a68c88cb,western_union,AHORRA MAS TIPITAPA,,Tipitapa,MANAGUA,,NI,+505 2253 8740,https://location.westernunion.com/ni/managua/tipitapa/8dd201b1f25750846186a7f6a68c88cb,Mo-Su 10:00-19:00,Western Union,Q861042
00dea9f4b8b868c2124ada1636ade660,western_union,AMPM TIPITAPA II,,Tipitapa,MANAGUA,,NI,+505 7796 3839,https://location.westernunion.com/ni/managua/tipitapa/00dea9f4b8b868c2124ada1636ade660,Mo-Su 00:01-24:00,Western Union,Q861042
62d26a0d00732911ef71918e62b96094,western_union,AMPM TIPITAPA II,,Tipitapa,MANAGUA,,NI,+505 7796 3839,https://location.westernunion.com/ni/managua/tipitapa/62d26a0d00732911ef71918e62b96094,Mo-Su 00:01-24:00,Western Union,Q861042
1764d011478ffed830ca2d33442f1c98,western_union,AIRPAK PALI TIPITAPA SUR,,Tipitapa,MANAGUA,,NI,+505 2266 8126,https://location.westernunion.com/ni/managua/tipitapa/1764d011478ffed830ca2d33442f1c98,Mo-Su 09:00-18:00,Western Union,Q861042
9a090899a523341317ec1a9930f194d0,western_union,AIRPAK PALI TIPITAPA SUR,,Tipitapa,MANAGUA,,NI,+505 2266 8126,https://location.westernunion.com/ni/managua/tipitapa/9a090899a523341317ec1a9930f194d0,Mo-Su 09:00-18:00,Western Union,Q861042
575342b7fd0b6a05e9d2ba50edfb2c54,western_union,FAMA TIPITAPA,,Tipitapa,MANAGUA,,NI,+505 2266 8126,https://location.westernunion.com/ni/managua/tipitapa/575342b7fd0b6a05e9d2ba50edfb2c54,Mo-Fr 08:00-14:30; Sa 08:00-12:00,Western Union,Q861042
eb6af6398284f76a5f916744bab27355,western_union,FAMA TIPITAPA,,Tipitapa,MANAGUA,,NI,+505 2266 8126,https://location.westernunion.com/ni/managua/tipitapa/eb6af6398284f76a5f916744bab27355,Mo-Fr 08:00-16:30; Sa 08:00-12:00,Western Union,Q861042
568cd865229159dfa71cd3fd00cc238a,western_union,AMPM SAN BENITO I,,San Benito,MANAGUA,,NI,+505 2266 8123,https://location.westernunion.com/ni/managua/san-benito/568cd865229159dfa71cd3fd00cc238a,Mo-Su 00:01-24:00,Western Union,Q861042
94334c8f0b4521a95a920f180f2c671e,western_union,AMPM SAN BENITO I,,San Benito,MANAGUA,,NI,+505 2266 8123,https://location.westernunion.com/ni/managua/san-benito/94334c8f0b4521a95a920f180f2c671e,Mo-Su 00:01-24:00,Western Union,Q861042
e69ea1448429683d0f8933a3151920fc,western_union,SAN BENITO I,,Tipitapa,MANAGUA,,NI,+505 8919 7341,https://location.westernunion.com/ni/managua/tipitapa/e69ea1448429683d0f8933a3151920fc,Mo-Fr 08:00-16:30; Sa 08:00-14:00,Western Union,Q861042
720992129710cc3c9fd6df43aeb0a253,western_union,SAN BENITO I,,Tipitapa,MANAGUA,,NI,+505 8919 7341,https://location.westernunion.com/ni/managua/tipitapa/720992129710cc3c9fd6df43aeb0a253,Mo-Fr 08:00-16:30; Sa 08:00-14:00,Western Union,Q861042
