Ref,Spider,Name,Address,City,State,Zipcode,Country,Phone,Website,Hours,Brand,WikiData
68309853,moneygram,METROBANK - PLARIDEL-BULACAN,,PLARIDEL,,,PH,28700700,,Mo-Fr 09:00-17:00; Sa-Su 00:00-24:00,MoneyGram,Q1944412
72570681,moneygram,USSC - #10512 - BULACAN - PLARIDEL WALTE,,PLARIDEL,,,PH,+63 44 795 3884,,Mo-Su 09:00-20:00,MoneyGram,Q1944412
72944194,moneygram,M LHUILLIER - PLARIDEL - SAN JOSE PLARID,,PLARIDEL,,,PH,28923159,,Mo-Su 08:00-18:00,MoneyGram,Q1944412
73872579,moneygram,HRV VILLARICA PAWNSHOP - #PSH096 - HRV V,,PLARIDEL,,,PH,87026350,,Mo-Sa 07:00-19:00; Su 08:00-17:00,MoneyGram,Q1944412
73901204,moneygram,VILLARICA PAWNSHOP - #PSE094 - VILLARICA,,PLARIDEL,,,PH,87026350,,Mo-Sa 07:00-19:00; Su 08:00-17:00,MoneyGram,Q1944412
71853600,moneygram,TAMBUNTING - MUNTINLUPA - RITZ ALABANG,,MUNTINLUPA,,,PH,3250356,,Mo-Su 07:30-18:30,MoneyGram,Q1944412
72785159,moneygram,TAMBUNTING SINCE 1906 - A PLARIDEL 2,,PLARIDEL,,,PH,85516032,,Mo-Su 07:30-22:00,MoneyGram,Q1944412
73904450,moneygram,CEBUANA LHUILLIER - #62246 - PLARIDEL -,,PLARIDEL,,,PH,6327799803,,Mo-Su 07:00-23:00,MoneyGram,Q1944412
70163184,moneygram,CEBUANA LHUILLIER - CLH PLARIDEL,,PLARIDEL,,,PH,27799800,,Mo-Su 07:00-18:00,MoneyGram,Q1944412
69736409,moneygram,HENRY LHUILLIER PAWNSHOP & JEWELRY STORE,,TABANG PLARIDEL,,,PH,+63 44 795 1309,,Mo-Sa 08:00-17:00; Su 00:00-24:00,MoneyGram,Q1944412
72506370,moneygram,LBC - #758 - PLARIDEL - BANGA PLARIDEL,,PLARIDEL,,,PH,8527239,,Mo-Sa 08:00-19:00; Su 08:00-17:00,MoneyGram,Q1944412
72506396,moneygram,LBC - #760 - PLARIDEL - PLARIDEL,,PLARIDEL,,,PH,8527239,,Mo-Sa 08:00-19:00; Su 00:00-24:00,MoneyGram,Q1944412
72506406,moneygram,LBC - #761 - PLARIDEL - ROCKA PLARIDEL,,PLARIDEL,,,PH,8527239,,Mo-Sa 08:00-19:00; Su 00:00-24:00,MoneyGram,Q1944412
73990794,moneygram,PALAWAN PAWNSHOP - #FHL - PLARIDEL - BUL,,PLARIDEL,,,PH,+63 48 433 4110,,Mo-Su 08:00-17:30,MoneyGram,Q1944412
74007084,moneygram,SAVEMORE MARKET - #SV2124 - SAVEMORE MAR,,PLARIDEL,,,PH,+63 2 8702 6350,,Mo-Su 08:00-20:00,MoneyGram,Q1944412
74034167,moneygram,PALAWAN PAWNSHOP - #FHL - PLARIDEL - BUL,,PLARIDEL,,,PH,+63 48 433 4110,,Mo-Su 08:00-17:30,MoneyGram,Q1944412
74066711,moneygram,WALTERMART - #WM709 - WALTERMART PLARIDE,,PLARIDEL,,,PH,87026350,,Mo-Su 09:00-19:00,MoneyGram,Q1944412
74141306,moneygram,HRV VILLARICA - #PSH158 - PLARIDEL 3,,PLARIDEL,,,PH,+63 2 8702 6350,,Mo-Sa 07:00-19:00; Su 08:00-17:00,MoneyGram,Q1944412
74429963,moneygram,TRAVEL+ LIFESTYLE MARKETPLACE INCORPORAT,,PLARIDEL,,,PH,+63 917 568 3374,,Mo-Su 08:00-17:00,MoneyGram,Q1944412
74650716,moneygram,CEBUANA LHUILLIER - #62797 - PLARIDEL -,,PLARIDEL,,,PH,7799803,,Mo-Su 07:00-23:00,MoneyGram,Q1944412
74708480,moneygram,JPT CENTRAL CORPORATE HOLDING & MANAGEME,,PLARIDEL,,,PH,+63 2 8551 6032,,Mo-Sa 08:00-18:00; Su 08:00-17:00,MoneyGram,Q1944412
70810136,moneygram,PALAWAN PAWNSHOP - #DGS - PLARIDEL - PLA,,PLARIDEL,,,PH,+63 48 433 4110,,Mo-Su 08:00-17:30,MoneyGram,Q1944412
70811258,moneygram,PALAWAN PAWNSHOP - #DFC - STA. MARIA - P,,STA. MARIA,,,PH,+63 48 433 4110,,Mo-Su 08:00-17:30,MoneyGram,Q1944412
65271094,moneygram,M LHUILLIER - PLARIDEL BULACAN,,PLARIDEL,,,PH,+63 32 348 9400,,Mo-Su 07:00-19:00,MoneyGram,Q1944412
65630606,moneygram,BDO - #684 - BULACAN - PLARIDEL,,PLARIDEL,,,PH,6327026350,,Mo-Sa 09:00-18:30; Su 00:00-24:00,MoneyGram,Q1944412
71214139,moneygram,M LHUILLIER - PLARIDEL 2 BULACAN,,PLARIDEL,,,PH,+63 32 348 9400,,Mo-Su 07:00-18:00,MoneyGram,Q1944412
PH_082,totalenergies,"Plaridel, Bulacan",,Plaridel,,,PH,,https://store.totalenergies.fr/en_EN/PH_082,24/7,TotalEnergies,Q154037
