Ref,Spider,Name,Address,City,State,Zipcode,Country,Phone,Website,Hours,Brand,WikiData
0000004939,sams_club_mx,"Sam's Club Tehuacán, Pue.",,Tehuacán,Puebla,,MX,+52 238 384 7243,https://www.sams.com.mx/clubes/0000004939,,Sam's Club,Q1972120
,visa,,,TEHUACAN,PUEBLA,,MX,,,,,
,visa,,,TEHUACAN,PUEBLA,,MX,,,,,
,visa,,,TEHUACAN,PUEBLA,,MX,,,,,
,visa,,,TEHUACAN,PUEBLA,,MX,,,,,
,visa,,,TEHUACAN,PUEBLA,,MX,,,,,
,visa,,,TEHUACAN,PUEBLA,,MX,,,,,
,visa,,,TEHUACÁN,PUEBLA,,MX,,,,,
,visa,,,TEHUACAN,PUEBLA,,MX,,,,,
,visa,,,TEHUACAN,PUEBLA,,MX,,,,,
,visa,,,TEHUACAN,PUEBLA,,MX,,,,,
,visa,,,TEHUACAN,PUEBLA,,MX,,,,,
,visa,,,TEHUACAN,PUEBLA,,MX,,,,,
,visa,,,TEHUACAN,PUEBLA,,MX,,,,,
178468afa0d9f74edba8bfc764e2b67d,western_union,OXXO IDENTIDAD PBF,,Tehuacan,PUEBLA,,MX,+52 81 8389 2121,https://location.westernunion.com/mx/puebla/tehuacan/178468afa0d9f74edba8bfc764e2b67d,Mo-Su 06:00-22:00,Western Union,Q861042
f53091645cb8c6d48a11b99c6d2d9e58,western_union,OXXO IDENTIDAD PBF,,Tehuacan,PUEBLA,,MX,(+52) 83892121,https://location.westernunion.com/mx/puebla/tehuacan/f53091645cb8c6d48a11b99c6d2d9e58,Mo-Su 06:00-22:00,Western Union,Q861042
5ddc74fe920590c6b86b3f9d30ee8bee,western_union,OXXO IDENTIDAD PBF,,Tehuacan,PUEBLA,,MX,+52 81 8389 2121,https://location.westernunion.com/mx/puebla/tehuacan/5ddc74fe920590c6b86b3f9d30ee8bee,Mo-Su 06:00-22:00,Western Union,Q861042
820dd652c57bc7bf22070c1084e0b3ce,western_union,SUBURBIA 578 TEHUACAN,,Tehuacan,PUEBLA,,MX,+52 800 733 3300,https://location.westernunion.com/mx/puebla/tehuacan/820dd652c57bc7bf22070c1084e0b3ce,Mo-Su 11:00-21:00,Western Union,Q861042
5cb899f10fe7188ec7ac9095c1d1e6b2,western_union,SUBURBIA 578 TEHUACAN,,Tehuacan,PUEBLA,,MX,+52 800 733 3300,https://location.westernunion.com/mx/puebla/tehuacan/5cb899f10fe7188ec7ac9095c1d1e6b2,Mo-Su 11:00-21:00,Western Union,Q861042
1cb668fe783ede400bae42b2cb283646,western_union,MODATELAS 201 AP CASH,,Tehuacan,PUEBLA,,MX,+52 222 382 4567,https://location.westernunion.com/mx/puebla/tehuacan/1cb668fe783ede400bae42b2cb283646,Mo-Su 08:00-20:00,Western Union,Q861042
987b0604351db0237d46949c7e7f31f8,western_union,MODATELAS 201 AP CASH,,Tehuacan,PUEBLA,,MX,+52 222 382 4567,https://location.westernunion.com/mx/puebla/tehuacan/987b0604351db0237d46949c7e7f31f8,Mo-Su 08:00-20:00,Western Union,Q861042
fbdb9ca9f3b0fd5311f306b4072df01e,western_union,EKT 9956 PASEO TEHUACAN,,Tehuacan,PUEBLA,,MX,+52 55 1720 8177,https://location.westernunion.com/mx/puebla/tehuacan/fbdb9ca9f3b0fd5311f306b4072df01e,Mo-Su 09:00-21:00,Western Union,Q861042
c5d364c28a6f72c91325b664454fc844,western_union,EKT 9956 PASEO TEHUACAN,,Tehuacan,PUEBLA,,MX,+52 55 1720 8177,https://location.westernunion.com/mx/puebla/tehuacan/c5d364c28a6f72c91325b664454fc844,Mo-Su 09:00-21:00,Western Union,Q861042
9b0c64244b8a9965c49d52d0370bce9e,western_union,EKT 9956 PASEO TEHUACAN,,Tehuacan,PUEBLA,,MX,+52 55 1720 8177,https://location.westernunion.com/mx/puebla/tehuacan/9b0c64244b8a9965c49d52d0370bce9e,Mo-Su 09:00-21:00,Western Union,Q861042
bd569b6c2eaeb2c874ff3b111b9f5c61,western_union,BANCOPPEL 7748 LOPEZ MATEOS,,Tehuacan,PUEBLA,,MX,+52 667 758 9999,https://location.westernunion.com/mx/puebla/tehuacan/bd569b6c2eaeb2c874ff3b111b9f5c61,Mo-Sa 10:00-20:00; Su 11:00-19:00,Western Union,Q861042
fa550fcddfe38b35303c075d6d271bdb,western_union,BANCOPPEL 7748 LOPEZ MATEOS,,Tehuacan,PUEBLA,,MX,+52 667 758 9999,https://location.westernunion.com/mx/puebla/tehuacan/fa550fcddfe38b35303c075d6d271bdb,Mo-Sa 10:00-20:00; Su 11:00-19:00,Western Union,Q861042
e69bfd6d36aba05c71cd678412b462d0,western_union,BANCOPPEL 7748 LOPEZ MATEOS,,Tehuacan,PUEBLA,,MX,+52 667 758 9999,https://location.westernunion.com/mx/puebla/tehuacan/e69bfd6d36aba05c71cd678412b462d0,Mo-Sa 10:00-20:00; Su 11:00-19:00,Western Union,Q861042
8a1a3f7a279c800050e5874881587560,western_union,OXXO OKTAN PBF,,Tehuacan,PUEBLA,,MX,+52 81 8389 2121,https://location.westernunion.com/mx/puebla/tehuacan/8a1a3f7a279c800050e5874881587560,Mo-Su 08:00-22:00,Western Union,Q861042
74e314f474e2b3d95aebaa1898458ff1,western_union,OXXO OKTAN PBF,,Tehuacan,PUEBLA,,MX,+52 81 8389 2121,https://location.westernunion.com/mx/puebla/tehuacan/74e314f474e2b3d95aebaa1898458ff1,Mo-Su 08:00-22:00,Western Union,Q861042
713d489fd405c94438088c5a6a2befcb,western_union,OXXO OKTAN PBF,,Tehuacan,PUEBLA,,MX,+52 81 8389 2121,https://location.westernunion.com/mx/puebla/tehuacan/713d489fd405c94438088c5a6a2befcb,Mo-Su 08:00-22:00,Western Union,Q861042
a02545f6bbe458491b6d7163f48a3635,western_union,SUBURBIA 578 TEHUACAN,,Tehuacan,PUEBLA,,MX,+52 800 733 3300,https://location.westernunion.com/mx/puebla/tehuacan/a02545f6bbe458491b6d7163f48a3635,Mo-Su 11:00-21:00,Western Union,Q861042
