Ref,Spider,Name,Address,City,State,Zipcode,Country,Phone,Website,Hours,Brand,WikiData
https://stores.advanceautoparts.com/ma/ware/355-palmer-rd,advance_auto_parts_us,Advance Auto Parts,,Ware,MA,,US,+1 413-967-6210,https://stores.advanceautoparts.com/ma/ware/355-palmer-rd,Mo-Sa 07:30-21:00; Su 08:00-20:00,Advance Auto Parts,Q4686051
2384,bluerhino,Walmart #2386 - Supercenter,,Ware,MA,,US,+1 413-967-0040,,,Blue Rhino,Q65681213
102919,bluerhino,Lowe's #2386,,Ware,MA,,US,+1 413-277-4000,,,Blue Rhino,Q65681213
147289,bluerhino,Cumberland Farms #6749,,Ware,MA,,US,+1 413-967-0172,,,Blue Rhino,Q65681213
48975,bluerhino,Rolla Motors,,Ware,MA,,US,+1 413-967-5121,,,Blue Rhino,Q65681213
153710,bluerhino,Walgreens #10128,,Ware,MA,,US,+1 413-277-9749,,,Blue Rhino,Q65681213
166611,bluerhino,Big Y #21 - Ware,,Ware,MA,,US,+1 413-967-6181,,,Blue Rhino,Q65681213
138179,bluerhino,Cluett Appliance,,Ware,MA,,US,+1 413-967-6871,,,Blue Rhino,Q65681213
128468,bp,BP,,Ware,MA,,US,+1 413-967-4403,,Mo-Su 05:00-22:00,BP,Q152057
88158,citi,ATM Walgreens,,Ware,MA,,US,,,,Citibank,Q857063
66377,citi,ATM NORTH BROOKFIELD SAVINGS BANK,,Ware,MA,,US,,,,Citibank,Q857063
46873,citi,ATM CVS,,Ware,MA,,US,,,,Citibank,Q857063
ATM-1419,citizens_us,,,Ware,MA,,US,,,,Citizens,Q5122694
520467,cumberland_farms_us,Cumberland Farms,,WARE,MA,,US,+1 413-967-0172,https://www.cumberlandfarms.com/find-us/generic-store-page/?id=006749,,Cumberland Farms,Q1143685
1111,cvs_us,CVS Pharmacy,,Ware,MA,,US,+1 413-967-5997,https://www.cvs.com/store-locator/ware-ma-pharmacies/104-west-st-ware-ma-01082/storeid=1111,Mo-Su 08:00-21:00,CVS Pharmacy,Q2078880
9809,dominos_pizza_us,Domino's Pizza,,Ware,MA,,US,+1 413-277-6260,https://pizza.dominos.com/massachusetts/ware/124-west-st,Mo-Th 10:30-23:00; Fr-Sa 10:30-24:00; Su 10:30-23:00,Domino's,Q839466
336194,dunkin_us,Dunkin',,Ware,MA,,US,+1 413-967-4666,https://locations.dunkindonuts.com/en/ma/ware/139-west-st/336194,Mo-Su 05:00-19:00,Dunkin',Q847743
520467,eg_america_us,Cumberland Farms,,WARE,MA,,US,+1 413-967-0172,https://www.cumberlandfarms.com/find-us/generic-store-page/?id=006749,,Cumberland Farms,Q1143685
20083,h_r_block,H&R Block,,Ware,MA,,US,+1 413-967-5268,https://www.hrblock.com/local-tax-offices/massachusetts/ware/124-west-st/20083/,,H&R Block,Q5627799
https://office.jacksonhewitt.com/#27575289,jackson_hewitt,Jackson Hewitt,,Ware,MA,,US,+1 413-853-3097,https://office.jacksonhewitt.com/tax-preparation-services-locations/en/ma/ware/352-palmer-road/52386,Tu-Th 16:00-19:00; Sa 11:00-19:00; Su 12:00-16:00,Jackson Hewitt,Q6117132
17642,mattress_firm_us,Mattress Firm Ware,,Ware,MA,,US,+1 413-967-0349,https://www.mattressfirm.com/en-us/stores/ma/ware/181007/,,Mattress Firm,Q6791878
https://locations.oreillyauto.com/ma/ware/check-engine-light-testing-5632.html,oreilly,Your Ware O'Reilly Auto Parts Store,,Ware,MA,,US,+1 413-725-4011,https://locations.oreillyauto.com/ma/ware/check-engine-light-testing-5632.html,Mo-Sa 07:30-21:00; Su 08:00-20:00,O'Reilly Auto Parts,Q7071951
https://locations.oreillyauto.com/ma/ware/wiper-installation-5632.html,oreilly,Your Ware O'Reilly Auto Parts Store,,Ware,MA,,US,+1 413-725-4011,https://locations.oreillyauto.com/ma/ware/wiper-installation-5632.html,Mo-Sa 07:30-21:00; Su 08:00-20:00,O'Reilly Auto Parts,Q7071951
https://locations.oreillyauto.com/ma/ware/battery-testing-5632.html,oreilly,Your Ware O'Reilly Auto Parts Store,,Ware,MA,,US,+1 413-725-4011,https://locations.oreillyauto.com/ma/ware/battery-testing-5632.html,Mo-Sa 07:30-21:00; Su 08:00-20:00,O'Reilly Auto Parts,Q7071951
https://locations.oreillyauto.com/ma/ware/autopartes-5632.html,oreilly,Tu tienda O'Reilly Auto Parts en Ware,,Ware,MA,,US,+1 413-725-4011,https://locations.oreillyauto.com/ma/ware/autopartes-5632.html,Mo-Sa 07:30-21:00; Su 08:00-20:00,O'Reilly Auto Parts,Q7071951
https://restaurants.subway.com/#14894818,subway,Subway Wal-Mart #2386,,Ware Hampshire,MA,,US,+1 413-967-0046,https://restaurants.subway.com/united-states/ma/ware/352-palmer-rd,Mo-Th 10:00-21:00; Fr-Sa 10:00-21:30; Su 10:00-21:00,Subway,Q244457
https://restaurants.subway.com/#14913707,subway,Subway,,Ware Hampshire,MA,,US,+1 413-277-0438,https://restaurants.subway.com/united-states/ma/ware/139-west-street,Mo-Su 09:00-21:00,Subway,Q244457
https://locations.tacobell.com/#6146855,taco_bell,Taco Bell,,Ware,MA,,US,+1 413-967-4898,https://locations.tacobell.com/ma/ware/118-west-street.html,Mo-Su 08:00-24:00,Taco Bell,Q752941
https://locations.tccrocks.com/ma/ware/350-palmer-rd.html,tcc_us,TCC Ware,,Ware,MA,,US,+1 860-870-0100,https://locations.tccrocks.com/ma/ware/350-palmer-rd.html,Mo-Sa 09:00-18:00; Su 10:00-18:00,Verizon,Q919641
132E,tmobile_us,Gibbs Crossing,,Ware,MA,,US,+1 413-967-0453,https://www.t-mobile.com/store-locator/ma/ware/gibbs-crossing,,T-Mobile,Q3511885
1386393,usps,WARE,,WARE,MA,,US,+1 413-967-9914,,Mo-Fr 09:00-16:30; Sa 09:00-12:00,United States Postal Service,Q668687
0108200020,usps_collection_boxes,USPS COLLECTION BOX - BLUE BOX,352 PALMER RD,WARE,MA,,US,,,,United States Postal Service,Q668687
0108200024,usps_collection_boxes,USPS COLLECTION BOX - PO LOBBY,165 WEST ST,WARE,MA,,US,,,,United States Postal Service,Q668687
0108200019,usps_collection_boxes,USPS COLLECTION BOX - PO LOBBY,165 WEST ST LBBY,WARE,MA,,US,,,,United States Postal Service,Q668687
0108200014,usps_collection_boxes,USPS COLLECTION BOX - BLUE BOX,165 WEST ST,WARE,MA,,US,,,,United States Postal Service,Q668687
0108200016,usps_collection_boxes,USPS COLLECTION BOX - BLUE BOX,146 WEST ST,WARE,MA,,US,,,,United States Postal Service,Q668687
0108200008,usps_collection_boxes,USPS COLLECTION BOX - BLUE BOX,85 SOUTH ST,WARE,MA,,US,,,,United States Postal Service,Q668687
0108200011,usps_collection_boxes,USPS COLLECTION BOX - BLUE BOX,48 SOUTH ST,WARE,MA,,US,,,,United States Postal Service,Q668687
0108200000,usps_collection_boxes,USPS COLLECTION BOX - BLUE BOX,126 MAIN ST,WARE,MA,,US,,,,United States Postal Service,Q668687
0108200002,usps_collection_boxes,USPS COLLECTION BOX - BLUE BOX,22 NORTH ST,WARE,MA,,US,,,,United States Postal Service,Q668687
A00000244974,verizon_us,TCC Ware,,WARE,MA,,US,+1 413-277-9507,https://www.verizon.com/stores/details/massachusetts/palmer/gomobl-palmer-1782422/,Mo-Sa 09:00-18:00; Su 10:00-18:00,Verizon,Q919641
,visa,,,WARE,MA,,US,,,,,
,visa,,,WARE,MA,,US,,,,,
,visa,,,WARE,MA,,US,,,,,
,visa,,,WARE,MA,,US,,,,,
,visa,,,WARE,MA,,US,,,,,
,visa,,,WARE,MA,,US,,,,,
,visa,,,WARE,MA,,US,,,,,
,visa,,,WARE,MA,,US,,,,,
,visa,,,WARE,MA,,US,,,,,
,visa,,,WARE,MA,,US,,,,,
,visa,,,WARE,MA,,US,,,,,
,visa,,,WARE,MA,,US,,,,,
,visa,,,WARE,MA,,US,,,,,
,visa,,,WARE,MA,,US,,,,,
,visa,,,WARE,MA,,US,,,,,
,visa,,,WARE,MA,,US,,,,,
,visa,,,WARE,MA,,US,,,,,
,visa,,,WARE,MA,,US,,,,,
https://www.walgreens.com/locator/walgreens-171+west+st-ware-ma-01082/id=10128,walgreens,Walgreens,,Ware,MA,,US,+1 413-277-9749,https://www.walgreens.com/locator/walgreens-171+west+st-ware-ma-01082/id=10128,Mo-Su 08:00-21:00,Walgreens,Q1591889
20d38a2a705a917e6c66d8f0256dfe81,western_union,WALMART #002386,,Ware,MA,,US,+1 413-967-0040,https://location.westernunion.com/us/ma/ware/20d38a2a705a917e6c66d8f0256dfe81,Mo-Su 07:00-21:00,Western Union,Q861042
