Ref,Spider,Name,Address,City,State,Zipcode,Country,Phone,Website,Hours,Brand,WikiData
478,aaa,Birmingham,,Birmingham,MI,,US,+1 248-433-8200,,,American Automobile Association,Q463436
59752,asics_us,Gazelle Sports Birmingham,99 West Maple,Birmingham,MI,,US,+1 248-282-4874,,Mo-Fr 11:00-19:00; Sa 11:00-18:00; Su 12:00-16:00,asics,Q327247
USAA03C03,audi,Audi Birmingham,"34602 Woodward Ave, Birmingham, MI 48009",Birmingham,MI,,US,+1 248-645-5930,,,Audi,Q23317
https://www.avis.com/en/locations/us/mi/birmingham/x4b,avis,Avis U S A Birmingham,,Birmingham,MI,,US,+1 248-593-1328,https://www.avis.com/en/locations/us/mi/birmingham/x4b,Mo-Fr 07:00-18:00; Sa-Su 09:00-13:00,Avis,Q791136
73286,bluerhino,Speedway #8721,,Birmingham,MI,,US,+1 248-642-0452,,,Blue Rhino,Q65681213
MI095-M1-SR1,california_closets_us,California Closets - Birmingham,,Birmingham,MI,,US,+1 248-624-1234,https://www.locations.californiaclosets.com/california-closets-birmingham-b88f48bc1bdc,Mo-Th 09:00-17:00; Fr 09:00-16:00; Sa 10:00-15:00,California Closets,Q5020325
2038717,chase_us,Birmingham - New branch,,Birmingham,MI,,US,+1 248-594-2261,https://locator.chase.com/mi/birmingham/200-s-old-woodward-ave,Mo-Fr 09:00-17:00; Sa 09:00-14:00,Chase,Q524629
50385,citi,ATM CVS,,Birmingham,MI,,US,,,,Citibank,Q857063
90359,citi,ATM Walgreens,,Birmingham,MI,,US,,,,Citibank,Q857063
79610,citi,ATM SPEEDWAY #8721,,Birmingham,MI,,US,,,,Citibank,Q857063
78024,citi,ATM Speedway,,Birmingham,MI,,US,,,,Citibank,Q857063
51141,citi,ATM CVS,,Birmingham,MI,,US,,,,Citibank,Q857063
800812,citizens_us,Citizens Birmingham,,Birmingham,MI,,US,+1 248-644-7510,,Mo-Fr 09:00-16:00; Sa 09:00-12:00,Citizens,Q5122694
ATM-1273,citizens_us,,,Birmingham,MI,,US,,,24/7,Citizens,Q5122694
ATM-2424,citizens_us,,,Birmingham,MI,,US,,,,Citizens,Q5122694
ATM-2343,citizens_us,,,Birmingham,MI,,US,,,,Citizens,Q5122694
,credit_union_us,Michigan United CU,,Birmingham,MI,,US,+1 248-647-5958,,Mo-Th 09:00-05:00; Fr 09:00-05:30,,
11244,cvs_us,CVS Pharmacy,,Birmingham,MI,,US,+1 248-644-3214,https://www.cvs.com/store-locator/birmingham-mi-pharmacies/33877-woodward-ave-birmingham-mi-48009/storeid=11244,Mo-Fr 08:00-21:00; Sa 08:00-20:00; Su 10:00-19:00,CVS Pharmacy,Q2078880
8136,cvs_us,CVS Pharmacy,,Birmingham,MI,,US,+1 248-647-0790,https://www.cvs.com/store-locator/birmingham-mi-pharmacies/444-s-old-woodward-road-birmingham-mi-48009/storeid=8136,Mo-Th 08:00-22:00; Fr-Sa 08:00-23:00; Su 08:00-22:00,CVS Pharmacy,Q2078880
353242,dunkin_us,Dunkin',,Birmingham,MI,,US,+1 248-885-8301,https://locations.dunkindonuts.com/en/mi/birmingham/33588-woodward-ave/353242,Mo-Su 05:00-18:00,Dunkin',Q847743
https://www.edwardjones.com/us-en/financial-advisor/stephen-green,edwardjones,Steve Green,,Birmingham,MI,,US,+1 248-594-2881,https://www.edwardjones.com/us-en/financial-advisor/stephen-green,,Edward Jones,Q5343830
200318421,exxonmobil,GHAFARI TRADING,,BIRMINGHAM,MI,,US,+1 248-647-0020,https://www.exxon.com/en/find-station/mobil-birmingham-mi-ghafaritrading-200318421,24/7,Mobil,Q109676002
200315994,exxonmobil,BIRMINGHAM MOBIL,,BIRMINGHAM,MI,,US,+1 248-594-2285,https://www.exxon.com/en/find-station/mobil-birmingham-mi-birminghammobil-200315994,Mo-Sa 06:00-23:00; Su 06:00-22:00,Mobil,Q109676002
200312651,exxonmobil,ADAMS & MAPLE MOBIL,,BIRMINGHAM,MI,,US,+1 248-258-2000,https://www.exxon.com/en/find-station/mobil-birmingham-mi-adamsmaplemobil-200312651,Mo-Sa 06:00-00:00; Su 07:00-00:00,Mobil,Q109676002
https://salons.greatclips.com/us/mi/birmingham/725-e-maple-rd,greatclips,Great Clips,,Birmingham,MI,,US,+1 248-593-9099,https://salons.greatclips.com/us/mi/birmingham/725-e-maple-rd,Mo-Fr 09:00-19:00; Sa 09:00-18:00; Su 10:00-17:00,Great Clips,Q5598967
17982,huntingtonbank,Birmingham Maple,,Birmingham,MI,,US,+1 248-642-1901,https://www.huntington.com/Community/branch-info?locationId=17982,Mo-Fr 09:00-17:00; Sa-Su 00:00-00:00,Huntington Bank,Q798819
https://www.blockadvisors.com/local-tax-offices/michigan/birmingham/south-adams-commons/20856/,h_r_block,H&R Block,,Birmingham,MI,,US,+1 248-647-5445,https://www.blockadvisors.com/local-tax-offices/michigan/birmingham/south-adams-commons/20856/,,H&R Block,Q5627799
https://locations.jimmyjohns.com/mi/birmingham/sandwiches-1443.html,jimmy_johns,Jimmy John's,,Birmingham,MI,,US,+1 248-594-4769,https://locations.jimmyjohns.com/mi/birmingham/sandwiches-1443.html,,Jimmy John's,Q1689380
https://locations.kfc.com/#11246743,kfc,Chicken Nuggets Near Birmingham,,Birmingham,MI,,US,,https://locations.kfc.com/mi/birmingham/33900-woodward-avenue/chickennugget,Mo-Sa 10:00-21:00; Su 10:00-18:00,KFC,Q524757
Old Woodward,lululemon,Lululemon,"101 S Old Woodward Ave, Birmingham, MI, US, 48009",Birmingham,MI,,US,+1 248-846-1774,https://shop.lululemon.com/stores/us/birmingham/birminghammi,Mo-Sa 10:00-19:00; Su 11:00-18:00,Lululemon,Q6702957
https://locations.massageenvy.com/#3025915,massage_envy,Massage Envy Birmingham,,Birmingham,MI,,US,+1 248-593-9903,https://locations.massageenvy.com/michigan/birmingham/34256-woodward-ave..html,Mo-Sa 10:00-21:00; Su 10:00-18:00,Massage Envy,Q10327170
1466,orangetheory_fitness,"Birmingham, MI",,Birmingham,MI,,US,+1 248-712-4548,,,Orangetheory Fitness,Q25005163
1520,paper_source_us,"Birmingham, MI",,Birmingham,MI,,US,+1 248-594-4954,https://www.papersource.com/locator/Mi-birmingham/,Mo-Tu 10:00-19:00; We-Fr 10:00-20:00; Sa 10:00-19:00; Su 11:00-18:00,Paper Source,Q25000269
544,pure_barre_us,Birmingham | Troy,,Birmingham,MI,,US,+1 248-839-5885,https://www.purebarre.com/location/birmingham-mi,,Pure Barre,Q86707084
195,sola_salon_studios,Birmingham,,Birmingham,MI,,US,+1 833-694-5546,https://www.solasalonstudios.com/locations/birmingham-mi1,,Sola Salon Studios,Q64337426
2522,sweetgreen_us,Birmingham,,Birmingham,MI,,US,+1 248-920-9040,https://order.sweetgreen.com/birmingham/,Mo-Su 10:30-21:00,Sweetgreen,Q18636413
9320,tmobile_us,Woodward & Maple,,Birmingham,MI,,US,+1 248-593-5828,https://www.t-mobile.com/store-locator/mi/birmingham/woodward-maple,,T-Mobile,Q3511885
0094,upsstore,Birmingham,33717 Woodward Ave,Birmingham,MI,,US,+1 248-642-8770,https://locations.theupsstore.com/mi/birmingham/33717-woodward-ave,,UPS Store,Q7771029
4800900067,usps_collection_boxes,USPS COLLECTION BOX - BLUE BOX,1794 W MAPLE RD,BIRMINGHAM,MI,,US,,,,United States Postal Service,Q668687
4800900061,usps_collection_boxes,USPS COLLECTION BOX - BLUE BOX,191 N CHESTER ST,BIRMINGHAM,MI,,US,,,,United States Postal Service,Q668687
4800900020,usps_collection_boxes,USPS COLLECTION BOX - BLUE BOX,555 S OLD WOODWARD AVE,BIRMINGHAM,MI,,US,,,,United States Postal Service,Q668687
4800900026,usps_collection_boxes,USPS COLLECTION BOX - BLUE BOX,380 N OLD WOODWARD AVE,BIRMINGHAM,MI,,US,,,,United States Postal Service,Q668687
4800900030,usps_collection_boxes,USPS COLLECTION BOX - BLUE BOX,620 N OLD WOODWARD AVE,BIRMINGHAM,MI,,US,,,,United States Postal Service,Q668687
4800900035,usps_collection_boxes,USPS COLLECTION BOX - BLUE BOX,280 N OLD WOODWARD AVE,BIRMINGHAM,MI,,US,,,,United States Postal Service,Q668687
4800900066,usps_collection_boxes,USPS COLLECTION BOX - BLUE BOX,401 S OLD WOODWARD AVE,BIRMINGHAM,MI,,US,,,,United States Postal Service,Q668687
4800900028,usps_collection_boxes,USPS COLLECTION BOX - BLUE BOX,685 S ADAMS RD,BIRMINGHAM,MI,,US,,,,United States Postal Service,Q668687
4800900024,usps_collection_boxes,USPS COLLECTION BOX - BLUE BOX,112 PEABODY ST.,BIRMINGHAM,MI,,US,,,,United States Postal Service,Q668687
,visa,,,BIRMINGHAM,MI,,US,,,,,
,visa,,,BIRMINGHAM,MI,,US,,,,,
,visa,,,BIRMINGHAM,MI,,US,,,,,
,visa,,,BIRMINGHAM,MI,,US,,,,,
,visa,,,BIRMINGHAM,MI,,US,,,,,
,visa,,,BIRMINGHAM,MI,,US,,,,,
,visa,,,BIRMINGHAM,MI,,US,,,,,
,visa,,,BIRMINGHAM,MI,,US,,,,,
,visa,,,BIRMINGHAM,MI,,US,,,,,
,visa,,,BIRMINGHAM,MI,,US,,,,,
,visa,,,BIRMINGHAM,MI,,US,,,,,
,visa,,,BIRMINGHAM,MI,,US,,,,,
,visa,,,BIRMINGHAM,MI,,US,,,,,
,visa,,,BIRMINGHAM,MI,,US,,,,,
,visa,,,BIRMINGHAM,MI,,US,,,,,
,visa,,,BIRMINGHAM,MI,,US,,,,,
,visa,,,BIRMINGHAM,MI,,US,,,,,
,visa,,,BIRMINGHAM,MI,,US,,,,,
,visa,,,BIRMINGHAM,MI,,US,,,,,
,visa,,,BIRMINGHAM,MI,,US,,,,,
,visa,,,BIRMINGHAM,MI,,US,,,,,
,visa,,,BIRMINGHAM,MI,,US,,,,,
,visa,,,BIRMINGHAM,MI,,US,,,,,
,visa,,,BIRMINGHAM,MI,,US,,,,,
,visa,,,BIRMINGHAM,MI,,US,,,,,
,visa,,,BIRMINGHAM,MI,,US,,,,,
,visa,,,BIRMINGHAM,MI,,US,,,,,
,visa,,,BIRMINGHAM,MI,,US,,,,,
,visa,,,BIRMINGHAM,MI,,US,,,,,
,visa,,,BIRMINGHAM,MI,,US,,,,,
,visa,,,BIRMINGHAM,MI,,US,,,,,
,visa,,,BIRMINGHAM,MI,,US,,,,,
,visa,,,BIRMINGHAM,MI,,US,,,,,
,visa,,,BIRMINGHAM,MI,,US,,,,,
,visa,,,BIRMINGHAM,MI,,US,,,,,
,visa,,,BIRMINGHAM,MI,,US,,,,,
,visa,,,KALAMAZOO,MI,,US,,,,,
https://www.walgreens.com/locator/walgreens-34300+woodward+ave-birmingham-mi-48009/id=15391,walgreens,Walgreens,,Birmingham,MI,,US,+1 248-593-8450,https://www.walgreens.com/locator/walgreens-34300+woodward+ave-birmingham-mi-48009/id=15391,Mo-Sa 07:00-22:00; Su 08:00-22:00,Walgreens,Q1591889
birminghammi,whole_foods,Birmingham,2100 E Maple Rd,Birmingham,MI,,US,+1 248-649-9600,https://www.wholefoodsmarket.com/stores/birminghammi,Mo-Su 08:00-21:00,Whole Foods,Q1809448
