Ref,Spider,Name,Address,City,State,Zipcode,Country,Phone,Website,Hours,Brand,WikiData
gdps_vst-0651841,activ_fitness_ch,Activ Fitness,,Pratteln,,,CH,+41 61 515 20 35,https://www.activfitness.ch/studios/activ-fitness-pratteln-aquabasilea-4/,,Activ Fitness,Q123747318
1828736427,bp,BP Service Pratteln-Nord,,Pratteln,,,CH,,,24/7,BP,Q152057
471852997,bp,BP Service Pratteln-SÃ¼d,,Pratteln,,,CH,,,24/7,BP,Q152057
523481713,bp,BP Tankstelle Pratteln,,Pratteln,,,CH,,,,BP,Q152057
schlossstrasse-1-4133-pratteln,denner_ch,Denner,,Pratteln,,,CH,+41 58 999 05 20,https://www.denner.ch/de/filialen/denner-filiale-und-oeffnungszeiten/store/schlossstrasse-1-4133-pratteln/,Mo-Fr 08:00-20:00; Sa 08:00-18:00,Denner,Q379911
FordSU56900  CHE,ford,Frenken-Garage AG,,Pratteln,,,CH,+41 61 826 25 25,www.frenkengarage.ch,,Ford,Q44294
292,ikea,Pratteln,,Pratteln 1,,,CH,,https://www.ikea.com/ch/de/stores/pratteln/,Mo-Sa 09:00-20:00,IKEA,Q54078
6135,jysk,Pratteln,,Pratteln,,,CH,+41 61 813 52 00,https://jysk.ch/de/filialen?storeId=6135,Mo-Fr 10:00-19:00; Sa 09:00-18:00,JYSK,Q138913
182,lidl_ch,Lidl,,Pratteln,,,CH,,,Mo-Sa 07:30-21:00,Lidl,Q151954
42568,man_truck_and_bus,Garage Nepple AG Basel,,Pratteln,,,CH,+41 61 638 87 00,,,MAN Truck & Bus,Q708667
BSLCY,marriott,Courtyard Basel,,Basel-Pratteln,,,CH,+41 61 827 17 17,https://www.marriott.com/BSLCY,,Courtyard by Marriott,Q1053170
305,medbase_ch,Medbase,,Pratteln,,,CH,+41 61 825 90 90,https://www.medbase.ch/standorte/detail/medbase-toujours-pratteln,Mo-Fr 07:00-20:00; Sa 09:00-17:00,Medbase,Q50038690
0026950_spx,migros_ch,SportXX,,Pratteln,,,CH,+41 58 575 79 40,https://filialen.migros.ch/de/bike-world-bike-world-pratteln,Mo-Th 09:00-19:00; Fr 09:00-20:00; Sa 09:00-18:00,SportXX,Q19309319
0029540_mp,migros_ch,Migros Partner,,Pratteln,,,CH,+41 58 575 77 82,https://filialen.migros.ch/de/migros-partner-pratteln-gehrenacker,Mo-Sa 08:00-19:00; Su 09:00-18:00,Migros Partner,Q115661515
4797219_mno,migros_ch,Migrolino,,Pratteln,,,CH,,https://filialen.migros.ch/de/migrolino-pratteln,Mo-Fr 05:30-22:00; Sa-Su 07:00-22:00,Migrolino,Q56745088
0025380_gour,migros_ch,Migros Take Away,,Pratteln,,,CH,+41 58 575 75 51,https://filialen.migros.ch/de/take-away-pratteln,Mo-Fr 08:00-19:00; Sa 08:00-18:00,Migros Take Away,Q111826610
0023640_super,migros_ch,Migros,,Pratteln,,,CH,+41 58 575 75 40,https://filialen.migros.ch/de/migros-supermarkt-pratteln,Mo-Fr 08:00-20:00; Sa 08:00-18:00,Migros,Q115661152
0023640_flori,migros_ch,Florissimo,,Pratteln,,,CH,+41 58 575 75 40,https://filialen.migros.ch/de/florissimo-pratteln,Mo-Fr 08:00-20:00; Sa 08:00-18:00,Florissimo,Q115659418
87e9ce4d-79e7-4b7d-9bd1-94e615a99131,scania,Scania Schweiz AG,,Pratteln,,,CH,+41 61 826 22 80,,"Mo-Fr 07:00-12:00,13:00-18:00; Sa 07:30-12:00,13:00-16:00",Scania,Q219960
3932,valora,k kiosk,,Pratteln,,,CH,,,,k kiosk,Q60381703
272,valora,k kiosk,,Pratteln,,,CH,,,,k kiosk,Q60381703
,visa,,,PRATTELN,,,CH,,,,,
,visa,,,PRATTELN,,,CH,,,,,
,visa,,,PRATTELN,,,CH,,,,,
