Ref,Spider,Name,Address,City,State,Zipcode,Country,Phone,Website,Hours,Brand,WikiData
,visa,,,PROVIDENCE,RI,,US,,,,,
,visa,,,WEST WARRICK,RI,,US,,,,,
,visa,,,WEST WARWICK,RI,,US,,,,,
,visa,,,WEST WARWICK,RI,,US,,,,,
,visa,,,WEST WARWICK,RI,,US,,,,,
,visa,,,WEST WARWICK,RI,,US,,,,,
,visa,,,WEST WARWICK,RI,,US,,,,,
,visa,,,WEST WARWICK,RI,,US,,,,,
,visa,,,WEST WARWICK,RI,,US,,,,,
,visa,,,WEST WARWICK,RI,,US,,,,,
,visa,,,JOHNSTON,RI,,US,,,,,
,visa,,,WEST WARWICK,RI,,US,,,,,
,visa,,,WEST WARWICK,RI,,US,,,,,
,visa,,,WEST WARRICK,RI,,US,,,,,
,visa,,,W WARWICK,RI,,US,,,,,
,visa,,,WARWICK,RI,,US,,,,,
,visa,,,WEST WARWICK,RI,,US,,,,,
,visa,,,WEST WARWICK,RI,,US,,,,,
,visa,,,WEST WARWICK,RI,,US,,,,,
,visa,,,WEST WARWICK,RI,,US,,,,,
,visa,,,WEST WARWICK,RI,,US,,,,,
,visa,,,WEST WARWICK,RI,,US,,,,,
,visa,,,WEST WARWICK,RI,,US,,,,,
,visa,,,WEST WARWICK,RI,,US,,,,,
,visa,,,WEST WARWICK,RI,,US,,,,,
,visa,,,WEST WARWICK,RI,,US,,,,,
,visa,,,WEST WARWICK,RI,,US,,,,,
,visa,,,WEST WARWICK,RI,,US,,,,,
,visa,,,WEST WARWICK,RI,,US,,,,,
,visa,,,WEST WARWICK,RI,,US,,,,,
