Ref,Spider,Name,Address,City,State,Zipcode,Country,Phone,Website,Hours,Brand,WikiData
https://vertretung.allianz.de/jens.gutekunst/,allianz_de,Allianz Versicherung Jens Gutekunst HAUPTVERTRETUNG,,Haselbachtal,,,DE,+49 35795 391659,https://vertretung.allianz.de/jens.gutekunst/,"Mo-Tu 10:00-13:00,14:00-18:00; Th 10:00-13:00,14:00-18:00",Allianz SE,Q487292
https://vertretung.allianz.de/sylvia.berger/,allianz_de,Allianz Versicherung Sylvia Berger GENERALVERTRETUNG,,Elstra,,,DE,+49 35793 4388,https://vertretung.allianz.de/sylvia.berger/,"Mo-Th 09:00-13:00,14:00-18:00",Allianz SE,Q487292
https://vertretung.allianz.de/anne.schmaler/,allianz_de,Allianz Versicherung Anne Schmaler HAUPTVERTRETUNG,,Panschwitz-Kuckau,,,DE,+49 35796 947669,https://vertretung.allianz.de/anne.schmaler/,"Mo 09:00-12:00,14:00-16:00; Tu 09:00-12:00,15:00-18:00; We 09:00-12:00; Th 09:00-12:00,15:00-18:00; Fr 09:00-12:00",Allianz SE,Q487292
51.3578114.13752,dpd_de,Autohaus Andreas Jehnichen,,Oßling,,,DE,,,Mo-Fr 08:00-12:00,DPD,Q541030
51.220414.13374,dpd_de,Klaus Unger und Irmgard Unger GbR,,Elstra,,,DE,,,,DPD,Q541030
FordGK2XF92  DEU,ford,Auto-Lehmann GmbH,,Scheckthal,,,DE,+49 35792 50261,ford-lehmann-scheckthal.de,,Ford,Q44294
2760134068,gls_de,Kerstin Vollrath Handelsvertretung,,Elstra,,,DE,+49 35793 5727,,"Mo 09:00-12:00; Tu-Fr 09:00-13:00,15:00-18:00",General Logistics Systems,Q46495823
2760906834,gls_de,Autohaus Jehnichen,,Oßling OT Lieske,,,DE,+49 35792 50653,,"Mo-Fr 08:00-12:30,13:00-17:00",General Logistics Systems,Q46495823
2760909490,gls_de,Computer & Beratung Palme,,Haselbachtal,,,DE,+49 3578 307295,,Mo-Fr 09:00-17:00,General Logistics Systems,Q46495823
2760234012,gls_de,Getränkeland & Weindepot,,Haselbachtal OT Reichenbach,,,DE,+49 35795 42855,,"Mo-Fr 09:00-12:00,14:00-18:00; Sa 09:00-11:00",General Logistics Systems,Q46495823
https://www.netto.de/geschaefte/elstra/stadtring-2/134709c0233743ffaca3e54e687d449e/,netto_salling,Netto Elstra,,Elstra,,,DE,,https://www.netto.de/geschaefte/elstra/stadtring-2/134709c0233743ffaca3e54e687d449e/,Mo-Sa 07:00-20:00,Netto,Q552652
161818,sparkasse_de,Ostsächsische Sparkasse Dresden Sparkassenmobil Milstrich,,Milstrich,,,DE,+49 351 4550,https://www.sparkasse.de/standorte/filialen/ostsaechsische-sparkasse-dresden-sparkassenmobil-milstrich-161818,Mo 14:30-14:30,Sparkasse,Q13601825
140118,sparkasse_de,Ostsächsische Sparkasse Dresden Geldautomat Panschwitz-Kuckau,,Panschwitz-Kuckau,,,DE,+49 351 4550,https://www.sparkasse.de/standorte/geldautomaten/ostsaechsische-sparkasse-dresden-geldautomat-panschwitz-kuckau-140118,Mo-Su 06:00-23:00,Sparkasse,Q13601825
115587,sparkasse_de,Ostsächsische Sparkasse Dresden Filiale Panschwitz-Kuckau,,Panschwitz-Kuckau,,,DE,+49 351 45554550,https://www.sparkasse.de/standorte/filialen/ostsaechsische-sparkasse-dresden-filiale-panschwitz-kuckau-115587,"Mo 09:00-13:00; Tu 09:00-13:00,14:00-18:00; Th 09:00-13:00,14:00-18:00; Fr 09:00-13:00",Sparkasse,Q13601825
161831,sparkasse_de,Ostsächsische Sparkasse Dresden Sparkassenmobil Oßling,,Oßling,,,DE,+49 351 4550,https://www.sparkasse.de/standorte/filialen/ostsaechsische-sparkasse-dresden-sparkassenmobil-ossling-161831,Fr 09:30-09:30,Sparkasse,Q13601825
161702,sparkasse_de,Ostsächsische Sparkasse Dresden Sparkassenmobil Steina Oberdorf,,Steina,,,DE,+49 351 4550,https://www.sparkasse.de/standorte/filialen/ostsaechsische-sparkasse-dresden-sparkassenmobil-steina-oberdorf-161702,Tu 10:00-11:00,Sparkasse,Q13601825
161820,sparkasse_de,Ostsächsische Sparkasse Dresden Sparkassenmobil Räckelwitz an den Anlagen,,Räckelwitz,,,DE,+49 351 4550,https://www.sparkasse.de/standorte/filialen/ostsaechsische-sparkasse-dresden-sparkassenmobil-raeckelwitz-an-den-anlagen-161820,Tu 10:00-11:00,Sparkasse,Q13601825
161817,sparkasse_de,Ostsächsische Sparkasse Dresden Sparkassenmobil Bischheim,,Bischheim,,,DE,+49 351 4550,https://www.sparkasse.de/standorte/filialen/ostsaechsische-sparkasse-dresden-sparkassenmobil-bischheim-161817,Mo 12:00-13:00; Th 12:00-13:00,Sparkasse,Q13601825
162441,sparkasse_de,Ostsächsische Sparkasse Dresden Sparkassenmobil Biehla,,Biehla,,,DE,+49 351 4550,https://www.sparkasse.de/standorte/filialen/ostsaechsische-sparkasse-dresden-sparkassenmobil-biehla-162441,We 11:30-11:30,Sparkasse,Q13601825
171049,sparkasse_de,Ostsächsische Sparkasse Dresden Sparkassenmobil Cunnersdorf,,Cunnersdorf,,,DE,+49 351 4550,https://www.sparkasse.de/standorte/filialen/ostsaechsische-sparkasse-dresden-sparkassenmobil-cunnersdorf-171049,We 10:30-10:30,Sparkasse,Q13601825
161819,sparkasse_de,Ostsächsische Sparkasse Dresden Sparkassenmobil Crostwitz,,Crostwitz,,,DE,+49 351 4550,https://www.sparkasse.de/standorte/filialen/ostsaechsische-sparkasse-dresden-sparkassenmobil-crostwitz-161819,Tu 09:30-09:30,Sparkasse,Q13601825
161709,sparkasse_de,Ostsächsische Sparkasse Dresden Sparkassenmobil Döbra,,Oßling,,,DE,+49 351 4550,https://www.sparkasse.de/standorte/filialen/ostsaechsische-sparkasse-dresden-sparkassenmobil-doebra-161709,We 09:30-09:30,Sparkasse,Q13601825
122337,sparkasse_de,Ostsächsische Sparkasse Dresden Geldautomat Elstra,,Elstra,,,DE,+49 351 4550,https://www.sparkasse.de/standorte/geldautomaten/ostsaechsische-sparkasse-dresden-geldautomat-elstra-122337,Mo-Su 06:00-23:00,Sparkasse,Q13601825
115507,sparkasse_de,Ostsächsische Sparkasse Dresden SB-Filiale Elstra,,Elstra,,,DE,+49 351 4550,https://www.sparkasse.de/standorte/filialen/ostsaechsische-sparkasse-dresden-sb-filiale-elstra-115507,Mo-Su 06:00-23:00,Sparkasse,Q13601825
161829,sparkasse_de,Ostsächsische Sparkasse Dresden Sparkassenmobil Elstra,,Elstra,,,DE,+49 351 4550,https://www.sparkasse.de/standorte/filialen/ostsaechsische-sparkasse-dresden-sparkassenmobil-elstra-161829,Th 09:00-11:00,Sparkasse,Q13601825
161816,sparkasse_de,Ostsächsische Sparkasse Dresden Sparkassenmobil Elstra,,Elstra,,,DE,+49 351 4550,https://www.sparkasse.de/standorte/filialen/ostsaechsische-sparkasse-dresden-sparkassenmobil-elstra-161816,Mo 09:00-11:00,Sparkasse,Q13601825
172663,sparkasse_de,Ostsächsische Sparkasse Dresden Sparkassenmobil Gersdorf,,Gersdorf,,,DE,+49 351 4550,https://www.sparkasse.de/standorte/filialen/ostsaechsische-sparkasse-dresden-sparkassenmobil-gersdorf-172663,Th 13:15-14:15,Sparkasse,Q13601825
161701,sparkasse_de,Ostsächsische Sparkasse Dresden Sparkassenmobil Gersdorf,,Gersdorf,,,DE,+49 351 4550,https://www.sparkasse.de/standorte/filialen/ostsaechsische-sparkasse-dresden-sparkassenmobil-gersdorf-161701,Tu 09:30-09:30,Sparkasse,Q13601825
https://www.vlh.de/bst/9939/Oeffnungszeiten.html,vhl_de,VLH-Beraterin Marita Rhede in Elstra,,Elstra,,,DE,+49 35793 39622,https://www.vlh.de/bst/9939/,,Vereinigte Lohnsteuerhilfe e.V.,Q15852617
https://www.vlh.de/bst/1685/Oeffnungszeiten.html,vhl_de,VLH-Beraterin Kerstin Heinrich in Haselbachtal,,Haselbachtal,,,DE,+49 3578 3095763,https://www.vlh.de/bst/1685/,,Vereinigte Lohnsteuerhilfe e.V.,Q15852617
