Ref,Spider,Name,Address,City,State,Zipcode,Country,Phone,Website,Hours,Brand,WikiData
,visa,,,SANTA BARBARA,SANTA BARBARA,,HN,,,,,
,visa,,,NACO,SANTA BARBARA,,HN,,,,,
,visa,,,SANTA BARBARA,SANTA BARBARA,,HN,,,,,
,visa,,,QUIMISTAN,SANTA BARBARA,,HN,,,,,
,visa,,,LA FLECHA,SANTA BARBARA,,HN,,,,,
,visa,,,LA FLECHA,SANTA BARBARA,,HN,,,,,
bb39533a27f670d5c7c3332d932e7cb6,western_union,BANCO POPULAR AGENCIA STA BARBARA,,Santa Barbara,SANTA BARBARA,,HN,+504 2232-9500,https://location.westernunion.com/hn/santa-barbara/santa-barbara/bb39533a27f670d5c7c3332d932e7cb6,Mo-Fr 08:00-16:00; Sa 08:00-12:00,Western Union,Q861042
86b66ad11db3db6516326c5620d32a9d,western_union,AIRPAK INDEP DANIBETH PATRICI,,Trinidad,SANTA BARBARA,,HN,+504 2232-9500,https://location.westernunion.com/hn/santa-barbara/trinidad/86b66ad11db3db6516326c5620d32a9d,Mo-Su 09:00-22:00,Western Union,Q861042
ddef9f2a03a0f2c5ccd519f29aa05cea,western_union,FICOHSA TENGO F SIMAN LA ESPERANZA 1,,Santa Barbara,SANTA BARBARA,,HN,+504 3175-4549,https://location.westernunion.com/hn/santa-barbara/santa-barbara/ddef9f2a03a0f2c5ccd519f29aa05cea,Mo-Fr 07:00-23:00; Sa 07:00-22:00; Su 07:00-21:00,Western Union,Q861042
5c36b6193d42f97bd5b08a30f30104e2,western_union,FICOHSA TENGO F SIMAN LA ESPERANZA 1,,Santa Barbara,SANTA BARBARA,,HN,+504 3175-4456,https://location.westernunion.com/hn/santa-barbara/santa-barbara/5c36b6193d42f97bd5b08a30f30104e2,Mo-Fr 07:00-23:00; Sa 07:00-22:00; Su 07:00-21:00,Western Union,Q861042
6c999336c889217794abe9f82a6ecba9,western_union,AIRPAK HERMANDAD DE HONDURAS O,,Santa Barbara,SANTA BARBARA,,HN,+504 2232-9500,https://location.westernunion.com/hn/santa-barbara/santa-barbara/6c999336c889217794abe9f82a6ecba9,Mo-Fr 08:00-16:00; Sa 08:00-11:30,Western Union,Q861042
240c2b15b2650dfcfa9f3587b8544ea5,western_union,FICOHSA TENGO KIELSA K059,,Santa Barbara,SANTA BARBARA,,HN,+504 9907-5523,https://location.westernunion.com/hn/santa-barbara/santa-barbara/240c2b15b2650dfcfa9f3587b8544ea5,Mo-Fr 07:30-21:00; Sa 07:30-22:00; Su 07:00-21:00,Western Union,Q861042
c483bf9e9422e7cd6acedbaa9b44f13e,western_union,FICOHSA TENGO KIELSA K059,,Santa Barbara,SANTA BARBARA,,HN,+504 9907-5523,https://location.westernunion.com/hn/santa-barbara/santa-barbara/c483bf9e9422e7cd6acedbaa9b44f13e,Mo-Fr 07:30-21:00; Sa 07:30-22:00; Su 07:00-21:00,Western Union,Q861042
65cee93a915352605f811ee135681628,western_union,FICOHSA TENGO KIELSA K104,,Santa Barbara,SANTA BARBARA,,HN,+504 9913-6222,https://location.westernunion.com/hn/santa-barbara/santa-barbara/65cee93a915352605f811ee135681628,Mo-Fr 07:30-21:00; Sa 07:30-22:00; Su 07:00-21:00,Western Union,Q861042
546f796c5d5da22b339ec451f1e10b78,western_union,FICOHSA TENGO KIELSA K104,,Santa Barbara,SANTA BARBARA,,HN,+504 9913-6222,https://location.westernunion.com/hn/santa-barbara/santa-barbara/546f796c5d5da22b339ec451f1e10b78,Mo-Fr 07:30-21:00; Sa 07:30-22:00; Su 07:00-21:00,Western Union,Q861042
853cba1717c97397dbf2dc780f2ec653,western_union,563 MICELL,,Azacualpa,SANTA BARBARA,,HN,+504 2658-7311,https://location.westernunion.com/hn/santa-barbara/azacualpa/853cba1717c97397dbf2dc780f2ec653,Mo-Su 08:00-18:00,Western Union,Q861042
7703c09103cc51ef93e1ace17297426e,western_union,471 CABLE LAGAVISION,,Azacualpa,SANTA BARBARA,,HN,+504 9582-0622,https://location.westernunion.com/hn/santa-barbara/azacualpa/7703c09103cc51ef93e1ace17297426e,Mo-Su 06:00-22:00,Western Union,Q861042
4aba67beeba3d78e6e06d609ab95ab58,western_union,BP-CORRESPONSAL HEVER SILVA,,Zacapa,SANTA BARBARA,,HN,+504 2566-2020,https://location.westernunion.com/hn/santa-barbara/zacapa/4aba67beeba3d78e6e06d609ab95ab58,Mo-Sa 07:00-17:00; Su 07:00-14:00,Western Union,Q861042
960fa0b5c91cd0354353781068025664,western_union,BP-CORRESPONSAL HEVER SILVA,,Zacapa,SANTA BARBARA,,HN,+504 2566-2020,https://location.westernunion.com/hn/santa-barbara/zacapa/960fa0b5c91cd0354353781068025664,Mo-Sa 07:00-17:00; Su 07:00-14:00,Western Union,Q861042
ed578eee8b7df5ee5ec83f59fd1dfa28,western_union,FICOHSA TENGO F SIMAN LAS VEGAS,,Las Vegas,SANTA BARBARA,,HN,+504 3175-4456,https://location.westernunion.com/hn/santa-barbara/las-vegas/ed578eee8b7df5ee5ec83f59fd1dfa28,Mo-Fr 07:00-23:00; Sa 07:00-22:00; Su 07:00-21:00,Western Union,Q861042
df877afd6d18dd4bc1c1dba70ac4e32d,western_union,BP CORRESPONSAL DENIS BELTRAN,,Las Vegas,SANTA BARBARA,,HN,+504 2240-1212,https://location.westernunion.com/hn/santa-barbara/las-vegas/df877afd6d18dd4bc1c1dba70ac4e32d,Mo-Sa 08:00-20:00; Su 08:00-17:00,Western Union,Q861042
dbf74cefc22b03df52d9845cf92536b4,western_union,BP CORRESPONSAL DENIS BELTRAN,,Las Vegas,SANTA BARBARA,,HN,+504 2240-1212,https://location.westernunion.com/hn/santa-barbara/las-vegas/dbf74cefc22b03df52d9845cf92536b4,Mo-Sa 08:00-20:00; Su 08:00-17:00,Western Union,Q861042
0be9c8705339287803deab4417ad7512,western_union,BP CORRESPONSAL PEDRO TINOCO,,Las Vegas,SANTA BARBARA,,HN,+504 2509-2020,https://location.westernunion.com/hn/santa-barbara/las-vegas/0be9c8705339287803deab4417ad7512,Mo-Su 07:00-19:00,Western Union,Q861042
28b5db9596975ff8fb0805f63284f35a,western_union,BP CORRESPONSAL PEDRO TINOCO,,Las Vegas,SANTA BARBARA,,HN,+504 2509-2020,https://location.westernunion.com/hn/santa-barbara/las-vegas/28b5db9596975ff8fb0805f63284f35a,Mo-Su 07:00-19:00,Western Union,Q861042
f2bb1303145df2d356fdc84169b8d5cb,western_union,BP CORRESPONSAL ZULMY ORTIZ,,Las Vegas,SANTA BARBARA,,HN,+504 2509-2020,https://location.westernunion.com/hn/santa-barbara/las-vegas/f2bb1303145df2d356fdc84169b8d5cb,Mo-Su 07:00-20:00,Western Union,Q861042
21dd99984d5db8555ff4529f5b17c0f9,western_union,BP CORRESPONSAL ZULMY ORTIZ,,Las Vegas,SANTA BARBARA,,HN,+504 2509-2020,https://location.westernunion.com/hn/santa-barbara/las-vegas/21dd99984d5db8555ff4529f5b17c0f9,Mo-Su 07:00-20:00,Western Union,Q861042
13fcc0d60d4ce554ed575d2c039a58ba,western_union,BP CORRESPONSAL ITALIA CABALLERO,,Las Vegas,SANTA BARBARA,,HN,+504 2240-1212,https://location.westernunion.com/hn/santa-barbara/las-vegas/13fcc0d60d4ce554ed575d2c039a58ba,Mo-Su 08:00-19:00,Western Union,Q861042
0cbd576c524b1a0106f92f7f011bbe79,western_union,BP CORRESPONSAL ITALIA CABALLERO,,Las Vegas,SANTA BARBARA,,HN,+504 2240-1212,https://location.westernunion.com/hn/santa-barbara/las-vegas/0cbd576c524b1a0106f92f7f011bbe79,Mo-Su 08:00-19:00,Western Union,Q861042
05807253233aacee3ad09df4b3dd62c8,western_union,BANCO OCCIDENTE LAS VEGAS,,Las Vegas,SANTA BARBARA,,HN,+504 2290-4100,https://location.westernunion.com/hn/santa-barbara/las-vegas/05807253233aacee3ad09df4b3dd62c8,Mo-Fr 08:45-16:15; Sa 08:30-11:30,Western Union,Q861042
e3640e2a8a478d60cf2d69ab2ee5f0cf,western_union,CUSCATLAN LAS VEGAS,,Las Vegas,SANTA BARBARA,,HN,+504 2232-9500,https://location.westernunion.com/hn/santa-barbara/las-vegas/e3640e2a8a478d60cf2d69ab2ee5f0cf,Mo-Fr 09:00-16:00; Sa 08:30-12:00,Western Union,Q861042
5e57fe3c83a097e54e7854bf3eecc031,western_union,BP CORRESPONSAL GERARDO TREJO,,Las Vegas,SANTA BARBARA,,HN,+504 2509-2020,https://location.westernunion.com/hn/santa-barbara/las-vegas/5e57fe3c83a097e54e7854bf3eecc031,Mo-Fr 08:30-20:00; Sa-Su 09:00-13:00,Western Union,Q861042
b83df361e252a42d7355b2cd806d4526,western_union,BP CORRESPONSAL GERARDO TREJO,,Las Vegas,SANTA BARBARA,,HN,+504 2509-2020,https://location.westernunion.com/hn/santa-barbara/las-vegas/b83df361e252a42d7355b2cd806d4526,Mo-Fr 08:30-20:00; Sa-Su 09:00-13:00,Western Union,Q861042
d909f8789db28507f9d5169b364832a3,western_union,DF LAS VEGAS,,Las Vegas,SANTA BARBARA,,HN,+504 2265-8100,https://location.westernunion.com/hn/santa-barbara/las-vegas/d909f8789db28507f9d5169b364832a3,Mo-Su 08:00-20:00,Western Union,Q861042
04ed039d17b4630ca09649e2b83a5484,western_union,BANPAIS AGENCIA LAS VEGAS,,Las Vegas,SANTA BARBARA,,HN,+504 2566-2020,https://location.westernunion.com/hn/santa-barbara/las-vegas/04ed039d17b4630ca09649e2b83a5484,Mo-Fr 09:00-16:00; Sa 09:00-12:00,Western Union,Q861042
db921d7314fc73bca203d12416da8854,western_union,BANPAIS AGENCIA LAS VEGAS,,Las Vegas,SANTA BARBARA,,HN,+504 2566-2020,https://location.westernunion.com/hn/santa-barbara/las-vegas/db921d7314fc73bca203d12416da8854,Mo-Fr 09:00-16:00; Sa 09:00-12:00,Western Union,Q861042
6af7f4a517d2c69624cfa3af21957713,western_union,BP-CORRESPONSAL GENNY RODRIGUEZ,,El Mochito,SANTA BARBARA,,HN,+504 2566-2020,https://location.westernunion.com/hn/santa-barbara/el-mochito/6af7f4a517d2c69624cfa3af21957713,Mo-Su 07:00-20:00,Western Union,Q861042
90903ed3b01dfd7aa4bdd637c44b577b,western_union,BP-CORRESPONSAL GENNY RODRIGUEZ,,El Mochito,SANTA BARBARA,,HN,+504 2566-2020,https://location.westernunion.com/hn/santa-barbara/el-mochito/90903ed3b01dfd7aa4bdd637c44b577b,Mo-Su 07:00-20:00,Western Union,Q861042
efbc1948d1f27f67a8d6d29a13e82f9b,western_union,BP CORRESPONSAL YESSENIA BELTRAN,,Las Vegas,SANTA BARBARA,,HN,+504 2240-1212,https://location.westernunion.com/hn/santa-barbara/las-vegas/efbc1948d1f27f67a8d6d29a13e82f9b,Mo-Su 07:00-20:00,Western Union,Q861042
7fc40b2f67697e79290f7fa678698fe9,western_union,BP CORRESPONSAL YESSENIA BELTRAN,,Las Vegas,SANTA BARBARA,,HN,+504 2240-1212,https://location.westernunion.com/hn/santa-barbara/las-vegas/7fc40b2f67697e79290f7fa678698fe9,Mo-Su 07:00-20:00,Western Union,Q861042
7d342d4b4f4f5c49c38b38ba9d4b9075,western_union,FICOHSA TENGO F SIMAN LAS VEGAS,,Las Vegas,SANTA BARBARA,,HN,+504 3175-4558,https://location.westernunion.com/hn/santa-barbara/las-vegas/7d342d4b4f4f5c49c38b38ba9d4b9075,Mo-Fr 07:00-23:00; Sa 07:00-22:00; Su 07:00-21:00,Western Union,Q861042
4b8a2dd5c85cdf3a9a633c4ab67d1f07,western_union,552 FARMACIAS LAS VEGAS,,Las Vegas,SANTA BARBARA,,HN,+504 9867-1200,https://location.westernunion.com/hn/santa-barbara/las-vegas/4b8a2dd5c85cdf3a9a633c4ab67d1f07,Mo-Sa 07:30-20:30; Su 09:00-15:00,Western Union,Q861042
491852606aba91c89bcb932e0a78894c,western_union,FICOHSA TENGO LIZANDRO PAZ,,Las Vegas,SANTA BARBARA,,HN,+504 2239-6410,https://location.westernunion.com/hn/santa-barbara/las-vegas/491852606aba91c89bcb932e0a78894c,Mo-Su 07:00-22:00,Western Union,Q861042
e262acf1aa609d03cf35da90e1837717,western_union,FICOHSA TENGO LIZANDRO PAZ,,Las Vegas,SANTA BARBARA,,HN,+504 2239-6410,https://location.westernunion.com/hn/santa-barbara/las-vegas/e262acf1aa609d03cf35da90e1837717,Mo-Su 07:00-22:00,Western Union,Q861042
da3103d94f26e0f2bc64d54ddcef11a0,western_union,BP CORRESPONSAL ISAAC AMADOR,,Las Vegas,SANTA BARBARA,,HN,+504 2240-1212,https://location.westernunion.com/hn/santa-barbara/las-vegas/da3103d94f26e0f2bc64d54ddcef11a0,Mo-Sa 08:00-17:00,Western Union,Q861042
f63aa21ee40381e0dcf9bccf944f11de,western_union,BP CORRESPONSAL ISAAC AMADOR,,Las Vegas,SANTA BARBARA,,HN,+504 2240-1212,https://location.westernunion.com/hn/santa-barbara/las-vegas/f63aa21ee40381e0dcf9bccf944f11de,Mo-Sa 08:00-17:00,Western Union,Q861042
336f516e1a931d19f43d41069ae48791,western_union,BP-CORRESPONSAL JOSE BARAHONA,,Concepcion Del Sur,SANTA BARBARA,,HN,+504 2509-5600,https://location.westernunion.com/hn/santa-barbara/concepcion-del-sur/336f516e1a931d19f43d41069ae48791,Mo-Sa 08:00-20:00; Su 22:00-18:00,Western Union,Q861042
6bcf74b5033469cfed1c5aaf93f614ef,western_union,BP-CORRESPONSAL JOSE BARAHONA,,Concepcion Del Sur,SANTA BARBARA,,HN,+504 2509-5600,https://location.westernunion.com/hn/santa-barbara/concepcion-del-sur/6bcf74b5033469cfed1c5aaf93f614ef,Mo-Sa 08:00-20:00; Su 22:00-18:00,Western Union,Q861042
870931f5b9934654b000765c100a458a,western_union,FICOHSA TENGO CARLOS ROBERTO CASTELLANOS,,Ceguaca,SANTA BARBARA,,HN,+504 2239-6410,https://location.westernunion.com/hn/santa-barbara/ceguaca/870931f5b9934654b000765c100a458a,Mo-Su 07:00-22:00,Western Union,Q861042
75972c7e77e418164c3b3bab6e48914b,western_union,FICOHSA TENGO CARLOS ROBERTO CASTELLANOS,,Ceguaca,SANTA BARBARA,,HN,+504 2239-6410,https://location.westernunion.com/hn/santa-barbara/ceguaca/75972c7e77e418164c3b3bab6e48914b,Mo-Su 07:00-22:00,Western Union,Q861042
7333c0de781919551885347ac1815e18,western_union,BANCO OCCIDENTE LAS VEGAS,,Las Vegas,SANTA BARBARA,,HN,+504 2232-9500,https://location.westernunion.com/hn/santa-barbara/las-vegas/7333c0de781919551885347ac1815e18,Mo-Fr 08:45-16:15; Sa 08:30-11:30,Western Union,Q861042
967fc4c0d0ee2d74ea2cfb54acdb7d93,western_union,JUAN RAMON MEJIA,,Las Vegas,SANTA BARBARA,,HN,+504 2232-9500,https://location.westernunion.com/hn/santa-barbara/las-vegas/967fc4c0d0ee2d74ea2cfb54acdb7d93,Mo-Sa 08:00-20:00; Su 08:00-15:00,Western Union,Q861042
73468647c28d5715ce1de6f00f851464,western_union,BANHCAFE AGENCIA STA BARBARA,,Santa Barbara,SANTA BARBARA,,HN,(+504) 6432006,https://location.westernunion.com/hn/santa-barbara/santa-barbara/73468647c28d5715ce1de6f00f851464,Mo-Su 09:00-20:00,Western Union,Q861042
f76faf1c1f55bdfca9f299aab0049765,western_union,BP CORRESPONSAL MANUEL TROCHEZ,,Santa Barbara,SANTA BARBARA,,HN,+504 2509-2024,https://location.westernunion.com/hn/santa-barbara/santa-barbara/f76faf1c1f55bdfca9f299aab0049765,Mo-Sa 08:00-18:00; Su 08:00-13:00,Western Union,Q861042
a2af7b81a2d52bb41aae2cf0522cbc21,western_union,BP CORRESPONSAL MANUEL TROCHEZ,,Santa Barbara,SANTA BARBARA,,HN,+504 2509-2024,https://location.westernunion.com/hn/santa-barbara/santa-barbara/a2af7b81a2d52bb41aae2cf0522cbc21,Mo-Sa 08:00-18:00; Su 08:00-13:00,Western Union,Q861042
9239524f52baabd33fe80874a6278829,western_union,BP CORRESPONSAL LEONEL PAZ,,Santa Barbara,SANTA BARBARA,,HN,+504 2509-2020,https://location.westernunion.com/hn/santa-barbara/santa-barbara/9239524f52baabd33fe80874a6278829,Mo-Sa 08:30-18:00,Western Union,Q861042
9af77c75e6754fa61d95b24812007246,western_union,BP CORRESPONSAL LEONEL PAZ,,Santa Barbara,SANTA BARBARA,,HN,+504 2509-2020,https://location.westernunion.com/hn/santa-barbara/santa-barbara/9af77c75e6754fa61d95b24812007246,Mo-Sa 08:30-18:00,Western Union,Q861042
4ed216355275e27b9c258ca8ef3dc9bc,western_union,BANCO OCCIDENTE EL JUNCO,,Santa Barbara,SANTA BARBARA,,HN,+504 2232-9500,https://location.westernunion.com/hn/santa-barbara/santa-barbara/4ed216355275e27b9c258ca8ef3dc9bc,Mo-Fr 08:45-16:15; Sa 08:30-11:30,Western Union,Q861042
52de8259d9e9aba27b746aaa6b18eb95,western_union,BANCO OCCIDENTE EL JUNCO,,Santa Barbara,SANTA BARBARA,,HN,+504 2290-4100,https://location.westernunion.com/hn/santa-barbara/santa-barbara/52de8259d9e9aba27b746aaa6b18eb95,Mo-Fr 08:45-16:15; Sa 08:30-11:30,Western Union,Q861042
a8c4d71beb72241ab836840411baf029,western_union,FARMACIAS EL AHORRO NO 31 SANTA BARBARA,,Santa Barbara,SANTA BARBARA,,HN,+504 2232-9500,https://location.westernunion.com/hn/santa-barbara/santa-barbara/a8c4d71beb72241ab836840411baf029,Mo-Fr 08:00-23:00; Sa 10:00-22:00; Su 07:00-19:00,Western Union,Q861042
34ecb3e569c642b3d9e93ba53b98967d,western_union,FICOHSA TENGO F SIMAN SANTA BARBARA 1,,Santa Barbara,SANTA BARBARA,,HN,+504 3175-4607,https://location.westernunion.com/hn/santa-barbara/santa-barbara/34ecb3e569c642b3d9e93ba53b98967d,Mo-Fr 07:00-23:00; Sa 07:00-22:00; Su 07:00-21:00,Western Union,Q861042
a843ad69cc0a90fa082f00eda699adce,western_union,FICOHSA TENGO F SIMAN SAN LUIS 1,,Santa Barbara,SANTA BARBARA,,HN,+504 3175-4456,https://location.westernunion.com/hn/santa-barbara/santa-barbara/a843ad69cc0a90fa082f00eda699adce,Mo-Fr 07:00-23:00; Sa 07:00-22:00; Su 07:00-21:00,Western Union,Q861042
7c910e0d1bf2f33c2fcad163033d123c,western_union,FICOHSA TENGO F SIMAN SANTA BARBARA 1,,Santa Barbara,SANTA BARBARA,,HN,+504 3175-4456,https://location.westernunion.com/hn/santa-barbara/santa-barbara/7c910e0d1bf2f33c2fcad163033d123c,Mo-Fr 07:00-23:00; Sa 07:00-22:00; Su 07:00-21:00,Western Union,Q861042
106195ffdae5bb49cbff1d635c2cdd6a,western_union,FICOHSA TENGO F SIMAN SAN LUIS 1,,Santa Barbara,SANTA BARBARA,,HN,+504 3175-4605,https://location.westernunion.com/hn/santa-barbara/santa-barbara/106195ffdae5bb49cbff1d635c2cdd6a,Mo-Fr 07:00-23:00; Sa 07:00-22:00; Su 07:00-21:00,Western Union,Q861042
adf88539a4ec75ea45b4843656cdae71,western_union,3A07 OCOTEPEQUE STA BARBARA,,Santa Barbara,SANTA BARBARA,,HN,+504 2643-0998,https://location.westernunion.com/hn/santa-barbara/santa-barbara/adf88539a4ec75ea45b4843656cdae71,Mo-Fr 08:00-16:00; Sa 08:00-11:00,Western Union,Q861042
dbdbfbd41d1e44b5aa343635813edfa3,western_union,3A07 OCOTEPEQUE STA BARBARA,,Santa Barbara,SANTA BARBARA,,HN,+504 2643-0998,https://location.westernunion.com/hn/santa-barbara/santa-barbara/dbdbfbd41d1e44b5aa343635813edfa3,Mo-Fr 08:00-16:00; Sa 08:00-11:00,Western Union,Q861042
bd675e7c2d7fe1dbbd4cdab6a44d80b5,western_union,IDH AGENCIA SANTA BARBARA,,Santa B�rbara,SANTA BARBARA,,HN,+504 2232-9500,https://location.westernunion.com/hn/santa-barbara/santa-b�rbara/bd675e7c2d7fe1dbbd4cdab6a44d80b5,Mo-Fr 08:00-16:00; Sa 08:00-12:00,Western Union,Q861042
c68b131e2542a64631366c08af4a8c53,western_union,BANCO OCCIDENTE SANTA BARBARA,,Santa Barbara,SANTA BARBARA,,HN,+504 2232-9500,https://location.westernunion.com/hn/santa-barbara/santa-barbara/c68b131e2542a64631366c08af4a8c53,Mo-Fr 08:45-16:15; Sa 08:30-11:30,Western Union,Q861042
d9c8ded7923bcbcb07c0df74f7014140,western_union,BANCO OCCIDENTE SANTA BARBARA,,Santa Barbara,SANTA BARBARA,,HN,+504 2290-4100,https://location.westernunion.com/hn/santa-barbara/santa-barbara/d9c8ded7923bcbcb07c0df74f7014140,Mo-Fr 08:45-16:15; Sa 08:30-11:30,Western Union,Q861042
e74de6ffb699c7c362055727e98dce13,western_union,4794 BANCO AZTECA ITALIKA SANTA BARBAR,,Santa Barbara,SANTA BARBARA,,HN,+504 2264-1460,https://location.westernunion.com/hn/santa-barbara/santa-barbara/e74de6ffb699c7c362055727e98dce13,Mo-Su 08:00-20:00,Western Union,Q861042
4e2dfab7f729d0dfbdb5ee48ad9247c9,western_union,BP-CORRESPONSAL JAIRON ANDINO,,Santa Barbara,SANTA BARBARA,,HN,+504 2566-2020,https://location.westernunion.com/hn/santa-barbara/santa-barbara/4e2dfab7f729d0dfbdb5ee48ad9247c9,Mo-Su 07:00-20:00,Western Union,Q861042
d8ccb66bfcb91abf17fd3392963de1e4,western_union,BP-CORRESPONSAL JAIRON ANDINO,,Santa Barbara,SANTA BARBARA,,HN,+504 2566-2020,https://location.westernunion.com/hn/santa-barbara/santa-barbara/d8ccb66bfcb91abf17fd3392963de1e4,Mo-Su 07:00-20:00,Western Union,Q861042
20297d44e742bf93091c49fb0ec4ff8b,western_union,BP CORRESPONSAL AAROM BARAHONA,,Santa Barbara,SANTA BARBARA,,HN,+504 2509-2020,https://location.westernunion.com/hn/santa-barbara/santa-barbara/20297d44e742bf93091c49fb0ec4ff8b,Mo-Sa 08:00-17:00; Su 08:00-12:00,Western Union,Q861042
1ad9016ab7517ee733a26ccfb160d1e2,western_union,BP CORRESPONSAL AAROM BARAHONA,,Santa Barbara,SANTA BARBARA,,HN,+504 2509-2020,https://location.westernunion.com/hn/santa-barbara/santa-barbara/1ad9016ab7517ee733a26ccfb160d1e2,Mo-Sa 08:00-17:00; Su 08:00-12:00,Western Union,Q861042
07b09b58eeeff87a948dc05084d072e0,western_union,BP-CORRESPONSAL HECTOR PIDENA,,Santa Barbara,SANTA BARBARA,,HN,+504 2566-2020,https://location.westernunion.com/hn/santa-barbara/santa-barbara/07b09b58eeeff87a948dc05084d072e0,Mo-Su 07:00-20:00,Western Union,Q861042
b1928c1ecfc8994586d428407cff9534,western_union,BP-CORRESPONSAL HECTOR PIDENA,,Santa Barbara,SANTA BARBARA,,HN,+504 2566-2020,https://location.westernunion.com/hn/santa-barbara/santa-barbara/b1928c1ecfc8994586d428407cff9534,Mo-Su 07:00-20:00,Western Union,Q861042
352ba3e9a0f00c29ba214acddc8d9135,western_union,BANPAIS AGENCIA QUIMISTAN,,Quimistan,SANTA BARBARA,,HN,+504 2232-9500,https://location.westernunion.com/hn/santa-barbara/quimistan/352ba3e9a0f00c29ba214acddc8d9135,Mo-Fr 08:00-15:30; Sa 08:00-12:00,Western Union,Q861042
e2d34bbd544095c2ddec025846320e61,western_union,BANPAIS AGENCIA SANTA BARBARA,,Santa Barbara,SANTA BARBARA,,HN,(+504) 22329500-0,https://location.westernunion.com/hn/santa-barbara/santa-barbara/e2d34bbd544095c2ddec025846320e61,Mo-Fr 08:00-15:30; Sa 08:00-12:00,Western Union,Q861042
6c6fb5d9f11aaffe56982a46eaf2e014,western_union,BP CORRESPONSAL ELMER SANTIAGO,,San Nicolas,SANTA BARBARA,,HN,+504 2509-2023,https://location.westernunion.com/hn/santa-barbara/san-nicolas/6c6fb5d9f11aaffe56982a46eaf2e014,Mo-Sa 07:00-18:00; Su 08:00-15:00,Western Union,Q861042
eb603f3daf28120d7c35637b53ef1694,western_union,BP CORRESPONSAL ELMER SANTIAGO,,San Nicolas,SANTA BARBARA,,HN,+504 2509-2023,https://location.westernunion.com/hn/santa-barbara/san-nicolas/eb603f3daf28120d7c35637b53ef1694,Mo-Sa 07:00-18:00; Su 08:00-15:00,Western Union,Q861042
412eb1e27c8945bd79408bff313a3104,western_union,584 AGENCIA SANTA BARBARA,,Santa Barbara,SANTA BARBARA,,HN,+504 2643-2260,https://location.westernunion.com/hn/santa-barbara/santa-barbara/412eb1e27c8945bd79408bff313a3104,Mo-Fr 08:30-15:30; Sa 08:30-11:30,Western Union,Q861042
ab68f808b88dfd9b77264b71427608b3,western_union,510 PLASTICOS Y VARIEDADES CORTES,,Santa Barbara,SANTA BARBARA,,HN,+504 2643-3194,https://location.westernunion.com/hn/santa-barbara/santa-barbara/ab68f808b88dfd9b77264b71427608b3,Mo-Sa 08:00-17:00; Su 08:00-12:00,Western Union,Q861042
81e96696a98e5c61051809eaf0b17fd7,western_union,COOPERATIVA COMIXMUL SANTA BARBARA,,Santa Barbara,SANTA BARBARA,,HN,+504 2705-7859,https://location.westernunion.com/hn/santa-barbara/santa-barbara/81e96696a98e5c61051809eaf0b17fd7,Mo-Fr 08:00-16:00; Sa 08:00-12:00,Western Union,Q861042
5563eb58331cf91a6bbd8a1a2c2266cf,western_union,COOPERATIVA COMIXMUL SANTA BARBARA,,Santa Barbara,SANTA BARBARA,,HN,+504 2705-7859,https://location.westernunion.com/hn/santa-barbara/santa-barbara/5563eb58331cf91a6bbd8a1a2c2266cf,Mo-Fr 08:00-16:00; Sa 08:00-12:00,Western Union,Q861042
f54b088ba783187fec8d9d869440e4a5,western_union,DF SANTA BARBARA,,Santa Barbara,SANTA BARBARA,,HN,+504 2265-8100,https://location.westernunion.com/hn/santa-barbara/santa-barbara/f54b088ba783187fec8d9d869440e4a5,Mo-Su 08:00-20:00,Western Union,Q861042
b4f9c85adfd548ce75a7b233c9d45566,western_union,DF SANTA BARBARA,,Santa Barbara,SANTA BARBARA,,HN,+504 2265-8100,https://location.westernunion.com/hn/santa-barbara/santa-barbara/b4f9c85adfd548ce75a7b233c9d45566,Mo-Su 08:00-20:00,Western Union,Q861042
f41e9285f8b4e060ae9f54d5aaf3b1e2,western_union,FICOHSA TENGO F SIMAN SANTA BARBARA 2,,Santa Barbara,SANTA BARBARA,,HN,+504 3175-4608,https://location.westernunion.com/hn/santa-barbara/santa-barbara/f41e9285f8b4e060ae9f54d5aaf3b1e2,Mo-Fr 07:00-23:00; Sa 07:00-22:00; Su 07:00-21:00,Western Union,Q861042
409c426c24ab4d96aa32979d4d7f1710,western_union,FICOHSA TENGO F SIMAN SANTA BARBARA 2,,Santa Barbara,SANTA BARBARA,,HN,+504 3175-4456,https://location.westernunion.com/hn/santa-barbara/santa-barbara/409c426c24ab4d96aa32979d4d7f1710,Mo-Fr 07:00-23:00; Sa 07:00-22:00; Su 07:00-21:00,Western Union,Q861042
cf49098e8ff4ca9019c1d28d1470466d,western_union,BP CORRESPONSAL JOSE HERRERA 2,,Santa Barbara,SANTA BARBARA,,HN,+504 2509-2020,https://location.westernunion.com/hn/santa-barbara/santa-barbara/cf49098e8ff4ca9019c1d28d1470466d,Mo-Sa 08:00-20:00,Western Union,Q861042
07a7dab6b159256201d8b96d63276600,western_union,BP CORRESPONSAL JOSE HERRERA 2,,Santa Barbara,SANTA BARBARA,,HN,+504 2509-2020,https://location.westernunion.com/hn/santa-barbara/santa-barbara/07a7dab6b159256201d8b96d63276600,Mo-Sa 08:00-20:00,Western Union,Q861042
de80fa68613aaf57511ae0a2d74e904b,western_union,FICOHSA TENGO LUIS DIEGO RODRIGUEZ,,Santa Barbara,SANTA BARBARA,,HN,+504 2239-6410,https://location.westernunion.com/hn/santa-barbara/santa-barbara/de80fa68613aaf57511ae0a2d74e904b,Mo-Su 07:00-22:00,Western Union,Q861042
cba6a606c49ad33f2234002fc8b9fed5,western_union,FICOHSA TENGO LUIS DIEGO RODRIGUEZ,,Santa Barbara,SANTA BARBARA,,HN,+504 2239-6410,https://location.westernunion.com/hn/santa-barbara/santa-barbara/cba6a606c49ad33f2234002fc8b9fed5,Mo-Su 07:00-22:00,Western Union,Q861042
cf9be40078449b4dfc3eb57e6e00a67d,western_union,FICOHSA TENGO HEBER HERNANDEZ HERNANDEZ,,El Nispero,SANTA BARBARA,,HN,+504 2239-6410,https://location.westernunion.com/hn/santa-barbara/el-nispero/cf9be40078449b4dfc3eb57e6e00a67d,Mo-Su 07:00-22:00,Western Union,Q861042
bab889f4f4cca56704e3a3fae3f92e9e,western_union,FICOHSA TENGO HEBER HERNANDEZ HERNANDEZ,,El Nispero,SANTA BARBARA,,HN,+504 2239-6410,https://location.westernunion.com/hn/santa-barbara/el-nispero/bab889f4f4cca56704e3a3fae3f92e9e,Mo-Su 07:00-22:00,Western Union,Q861042
42391ebc74e48ed308930c61d196aff5,western_union,BP-CORRESPONSAL LUIS RODRIGUEZ,,Santa Barbara,SANTA BARBARA,,HN,+504 2566-2020,https://location.westernunion.com/hn/santa-barbara/santa-barbara/42391ebc74e48ed308930c61d196aff5,Mo-Su 07:00-20:00,Western Union,Q861042
9f56e788ebdd499a2438f5023f1e8b63,western_union,BP-CORRESPONSAL LUIS RODRIGUEZ,,Santa Barbara,SANTA BARBARA,,HN,+504 2566-2020,https://location.westernunion.com/hn/santa-barbara/santa-barbara/9f56e788ebdd499a2438f5023f1e8b63,Mo-Su 07:00-20:00,Western Union,Q861042
53ffb80675937460a72df03c08d9e14f,western_union,FICOHSA TENGO MARLENY JUARES REYES,,Santa Barbara,SANTA BARBARA,,HN,+504 2239-6410,https://location.westernunion.com/hn/santa-barbara/santa-barbara/53ffb80675937460a72df03c08d9e14f,Mo-Su 07:00-22:00,Western Union,Q861042
0affe307f052bdc1310e6eed5d7f26ef,western_union,FICOHSA TENGO MARLENY JUARES REYES,,Santa Barbara,SANTA BARBARA,,HN,+504 2239-6410,https://location.westernunion.com/hn/santa-barbara/santa-barbara/0affe307f052bdc1310e6eed5d7f26ef,Mo-Su 07:00-22:00,Western Union,Q861042
b7ecda7a4d829bfdedf154bc6f744c65,western_union,BP CORRESPONSAL JOSE HERRERA,,Santa Barbara,SANTA BARBARA,,HN,+504 2509-2020,https://location.westernunion.com/hn/santa-barbara/santa-barbara/b7ecda7a4d829bfdedf154bc6f744c65,Mo-Sa 08:00-20:00,Western Union,Q861042
556f1a3ed2c9041e6cb0fd1e5f316473,western_union,BP CORRESPONSAL JOSE HERRERA,,Santa Barbara,SANTA BARBARA,,HN,+504 2509-2020,https://location.westernunion.com/hn/santa-barbara/santa-barbara/556f1a3ed2c9041e6cb0fd1e5f316473,Mo-Sa 08:00-20:00,Western Union,Q861042
84b4b8ccb943b3792308952414f02c53,western_union,FICOHSA TENGO INGRID CHAVEZ,,Santa Barbara,SANTA BARBARA,,HN,+504 2239-6410,https://location.westernunion.com/hn/santa-barbara/santa-barbara/84b4b8ccb943b3792308952414f02c53,Mo-Su 07:00-18:00,Western Union,Q861042
268baa81c8314bb3dbd41cd9294c4c40,western_union,FICOHSA TENGO HEVER SILVA MORENO,,El Nispero,SANTA BARBARA,,HN,+504 2239-6410,https://location.westernunion.com/hn/santa-barbara/el-nispero/268baa81c8314bb3dbd41cd9294c4c40,Mo-Su 07:00-22:00,Western Union,Q861042
a0a19702b37354ccab67507ac7e17ed5,western_union,FICOHSA TENGO HEVER SILVA MORENO,,El Nispero,SANTA BARBARA,,HN,+504 2239-6410,https://location.westernunion.com/hn/santa-barbara/el-nispero/a0a19702b37354ccab67507ac7e17ed5,Mo-Su 07:00-22:00,Western Union,Q861042
760decdf193f35f73912b601ffc48548,western_union,468 AGROCOMERCIAL DEL CAMPO,,Arada,SANTA BARBARA,,HN,+504 9742-5222,https://location.westernunion.com/hn/santa-barbara/arada/760decdf193f35f73912b601ffc48548,Mo-Sa 07:30-20:00,Western Union,Q861042
4afd87343c4b2cf6f3b93d340459cf3f,western_union,FICOHSA TENGO MANUEL ANTONIO ALVARADO,,San Vicente Centenario,SANTA BARBARA,,HN,+504 2239-6410,https://location.westernunion.com/hn/santa-barbara/san-vicente-centenario/4afd87343c4b2cf6f3b93d340459cf3f,Mo-Su 07:00-22:00,Western Union,Q861042
356afdae04b6d1581798c07b1b412304,western_union,FICOHSA TENGO MANUEL ANTONIO ALVARADO,,San Vicente Centenario,SANTA BARBARA,,HN,+504 2239-6410,https://location.westernunion.com/hn/santa-barbara/san-vicente-centenario/356afdae04b6d1581798c07b1b412304,Mo-Su 07:00-22:00,Western Union,Q861042
3742ee00675de98696e2570faae52b84,western_union,FICOHSA TENGO HEVER OTONIEL SILVA,,Ilama,SANTA BARBARA,,HN,+504 2239-6410,https://location.westernunion.com/hn/santa-barbara/ilama/3742ee00675de98696e2570faae52b84,Mo-Su 07:00-22:00,Western Union,Q861042
8792c0a40c7d60463fdd75fabfce26ec,western_union,FICOHSA TENGO HEVER OTONIEL SILVA,,Ilama,SANTA BARBARA,,HN,+504 2239-6410,https://location.westernunion.com/hn/santa-barbara/ilama/8792c0a40c7d60463fdd75fabfce26ec,Mo-Su 07:00-22:00,Western Union,Q861042
2dab7a0b7ad06dfa7ad00c7a489c56ce,western_union,FICOHSA TENGO MAYNOR JAVIER SALGUERO,,Ilama,SANTA BARBARA,,HN,+504 2239-6410,https://location.westernunion.com/hn/santa-barbara/ilama/2dab7a0b7ad06dfa7ad00c7a489c56ce,Mo-Su 07:00-22:00,Western Union,Q861042
024fccf0be726f840fc979c2ebfdbe9b,western_union,FICOHSA TENGO MAYNOR JAVIER SALGUERO,,Ilama,SANTA BARBARA,,HN,+504 2239-6410,https://location.westernunion.com/hn/santa-barbara/ilama/024fccf0be726f840fc979c2ebfdbe9b,Mo-Su 07:00-22:00,Western Union,Q861042
af8899cc1805264a21ca97f01d0f0d40,western_union,BP CORRESPONSAL MAYNOR SALGUERO,,Ilama,SANTA BARBARA,,HN,+504 2509-2020,https://location.westernunion.com/hn/santa-barbara/ilama/af8899cc1805264a21ca97f01d0f0d40,Mo-Sa 07:00-21:30,Western Union,Q861042
83010f6d34dde818404387d286d4d7a0,western_union,BP CORRESPONSAL MAYNOR SALGUERO,,Ilama,SANTA BARBARA,,HN,+504 2509-2020,https://location.westernunion.com/hn/santa-barbara/ilama/83010f6d34dde818404387d286d4d7a0,Mo-Sa 07:00-21:30,Western Union,Q861042
e066c61954cacee4404a8fbad3055294,western_union,BP-CORRESPONSAL FERNANDO NUNEZ 1,,Trinidad,SANTA BARBARA,,HN,+504 2566-2020,https://location.westernunion.com/hn/santa-barbara/trinidad/e066c61954cacee4404a8fbad3055294,Mo-Su 07:00-19:00,Western Union,Q861042
b3c2e59da1cba59df3831e21a1af512d,western_union,BP-CORRESPONSAL FERNANDO NUNEZ 1,,Trinidad,SANTA BARBARA,,HN,+504 2566-2020,https://location.westernunion.com/hn/santa-barbara/trinidad/b3c2e59da1cba59df3831e21a1af512d,Mo-Su 07:00-19:00,Western Union,Q861042
cf7649e33224ef1d92f6dcf734f1347d,western_union,FICOHSA TENGO F SIMAN TRINIDAD 1,,Trinidad,SANTA BARBARA,,HN,+504 3175-4456,https://location.westernunion.com/hn/santa-barbara/trinidad/cf7649e33224ef1d92f6dcf734f1347d,Mo-Fr 07:00-23:00; Sa 07:00-22:00; Su 07:00-21:00,Western Union,Q861042
24ebef6f86df4330b60f49ba5c4c292c,western_union,FICOHSA TENGO F SIMAN TRINIDAD 1,,Trinidad,SANTA BARBARA,,HN,+504 3175-4486,https://location.westernunion.com/hn/santa-barbara/trinidad/24ebef6f86df4330b60f49ba5c4c292c,Mo-Fr 07:00-23:00; Sa 07:00-22:00; Su 07:00-21:00,Western Union,Q861042
c8d24fca8fc783fbe4eb27bccd7a2a9f,western_union,BANCO OCCIDENTE SAN NICOLAS,,San Nicolas,SANTA BARBARA,,HN,+504 2290-4100,https://location.westernunion.com/hn/santa-barbara/san-nicolas/c8d24fca8fc783fbe4eb27bccd7a2a9f,Mo-Fr 08:45-16:15; Sa 08:30-11:30,Western Union,Q861042
6149ce5745feb1a3dcf262467fdfa99f,western_union,BANCO OCCIDENTE SAN NICOLAS,,San Nicolas,SANTA BARBARA,,HN,+504 2232-9500,https://location.westernunion.com/hn/santa-barbara/san-nicolas/6149ce5745feb1a3dcf262467fdfa99f,Mo-Fr 08:45-16:15; Sa 08:30-11:30,Western Union,Q861042
4351d5be8ab3321f1cca43cf925780ef,western_union,BP CORRESPONSAL KENIA GALEAS,,San Nicolas,SANTA BARBARA,,HN,+504 2509-2020,https://location.westernunion.com/hn/santa-barbara/san-nicolas/4351d5be8ab3321f1cca43cf925780ef,Mo-Sa 08:00-16:00,Western Union,Q861042
1f5e8ed0ff1455b77e0a3255cb74aa51,western_union,BP CORRESPONSAL KENIA GALEAS,,San Nicolas,SANTA BARBARA,,HN,+504 2509-2020,https://location.westernunion.com/hn/santa-barbara/san-nicolas/1f5e8ed0ff1455b77e0a3255cb74aa51,Mo-Sa 08:00-16:00,Western Union,Q861042
2db7232971bff0ed5f9baf982dae48a3,western_union,559 FASHION YESY,,Trinidad,SANTA BARBARA,,HN,+504 2657-1264,https://location.westernunion.com/hn/santa-barbara/trinidad/2db7232971bff0ed5f9baf982dae48a3,Mo-Sa 09:00-19:00,Western Union,Q861042
15579698a1fe0478c8bbc3ef09f3f68b,western_union,BP CORRESPONSAL DANIBETH GOMEZ,,Trinidad,SANTA BARBARA,,HN,+504 2509-2022,https://location.westernunion.com/hn/santa-barbara/trinidad/15579698a1fe0478c8bbc3ef09f3f68b,Mo-Su 09:00-21:00,Western Union,Q861042
5b8114ce2b8f9817c81823392f38ec25,western_union,BP CORRESPONSAL DANIBETH GOMEZ,,Trinidad,SANTA BARBARA,,HN,+504 2509-2022,https://location.westernunion.com/hn/santa-barbara/trinidad/5b8114ce2b8f9817c81823392f38ec25,Mo-Su 09:00-21:00,Western Union,Q861042
2f0d7280db5265f28c738829b2a8c23d,western_union,FICOHSA TENGO ELENA GOMEZ PINEDA,,Trinidad,SANTA BARBARA,,HN,+504 2239-6410,https://location.westernunion.com/hn/santa-barbara/trinidad/2f0d7280db5265f28c738829b2a8c23d,Mo-Su 07:00-22:00,Western Union,Q861042
4d866dba86b4e04504f4a27f6e328bc7,western_union,FICOHSA TENGO ELENA GOMEZ PINEDA,,Trinidad,SANTA BARBARA,,HN,+504 2239-6410,https://location.westernunion.com/hn/santa-barbara/trinidad/4d866dba86b4e04504f4a27f6e328bc7,Mo-Su 07:00-22:00,Western Union,Q861042
df2af02d1b36b9172918a6ee2bcd333b,western_union,BANHCAFE AGENCIA TRINIDAD,,Trinidad,SANTA BARBARA,,HN,(+504) 6641726,https://location.westernunion.com/hn/santa-barbara/trinidad/df2af02d1b36b9172918a6ee2bcd333b,Mo-Su 09:00-20:00,Western Union,Q861042
68b8d005c23b0769328594b3bc730e82,western_union,FICOHSA TENGO KIELSA K233,,Santa Barbara,SANTA BARBARA,,HN,+504 9512-3341,https://location.westernunion.com/hn/santa-barbara/santa-barbara/68b8d005c23b0769328594b3bc730e82,Mo-Sa 07:00-22:00; Su 07:00-21:00,Western Union,Q861042
271899725b1c39194969cc9bdf35e9bf,western_union,FICOHSA TENGO KIELSA K233,,Santa Barbara,SANTA BARBARA,,HN,+504 9512-3341,https://location.westernunion.com/hn/santa-barbara/santa-barbara/271899725b1c39194969cc9bdf35e9bf,Mo-Sa 07:00-22:00; Su 07:00-21:00,Western Union,Q861042
da9006bd1a18475f09b89939e314e7b8,western_union,BANPAIS AGENCIA GREEN VALEY SPS,,Quimistan,SANTA BARBARA,,HN,+504 2232-9500,https://location.westernunion.com/hn/santa-barbara/quimistan/da9006bd1a18475f09b89939e314e7b8,Mo-Fr 09:00-16:00; Sa 09:00-12:00,Western Union,Q861042
3b0faf12e637fa2a7410f7b23934b172,western_union,BANCO OCCIDENTE COLINAS,,San Jose De Colinas,SANTA BARBARA,,HN,+504 2232-9500,https://location.westernunion.com/hn/santa-barbara/san-jose-de-colinas/3b0faf12e637fa2a7410f7b23934b172,Mo-Fr 08:45-16:15; Sa 08:30-11:30,Western Union,Q861042
5d0c62abf57a12b4f7827b5a28ad44cf,western_union,BANCO OCCIDENTE COLINAS,,San Jose De Colinas,SANTA BARBARA,,HN,+504 2290-4100,https://location.westernunion.com/hn/santa-barbara/san-jose-de-colinas/5d0c62abf57a12b4f7827b5a28ad44cf,Mo-Fr 08:45-16:15; Sa 08:30-11:30,Western Union,Q861042
7ae84a6dd51e8c2bbb068fe25ad90223,western_union,561 FERRETERIA REPAE,,Colinas,SANTA BARBARA,,HN,+504 2657-0038,https://location.westernunion.com/hn/santa-barbara/colinas/7ae84a6dd51e8c2bbb068fe25ad90223,Mo-Sa 07:00-17:00,Western Union,Q861042
69eca95c2891ab1e8a7a1799c7610e91,western_union,BP CORRESPONSAL LUIS EVORA,,San Jose De Colinas,SANTA BARBARA,,HN,+504 2509-2021,https://location.westernunion.com/hn/santa-barbara/san-jose-de-colinas/69eca95c2891ab1e8a7a1799c7610e91,Mo-Sa 07:30-16:30; Su 08:00-12:00,Western Union,Q861042
630bbbdf3d7448523ac50a5b67b8b995,western_union,BP CORRESPONSAL LUIS EVORA,,San Jose De Colinas,SANTA BARBARA,,HN,+504 2509-2021,https://location.westernunion.com/hn/santa-barbara/san-jose-de-colinas/630bbbdf3d7448523ac50a5b67b8b995,Mo-Sa 07:30-16:30; Su 08:00-12:00,Western Union,Q861042
c94e7d8c8aad48de9b0cfed37be5e101,western_union,BANPAIS AGENCIA GREEN VALEY SPS,,Quimistan,SANTA BARBARA,,HN,(+504) 22329500-5122,https://location.westernunion.com/hn/santa-barbara/quimistan/c94e7d8c8aad48de9b0cfed37be5e101,Mo-Fr 09:00-16:00; Sa 09:00-12:00,Western Union,Q861042
a6c917194ab469115779bd574f0e8a32,western_union,AIRPAK HERMANDAD DE HONDURAS O,,Macuelizo,SANTA BARBARA,,HN,+504 2232-9500,https://location.westernunion.com/hn/santa-barbara/macuelizo/a6c917194ab469115779bd574f0e8a32,Mo-Fr 08:00-16:00; Sa 08:00-11:30,Western Union,Q861042
fe44f70efa88313c8d746eddf8073cc0,western_union,BP CORRESPONSAL EDWIN CASTRO,,Quimistan,SANTA BARBARA,,HN,+504 2509-2020,https://location.westernunion.com/hn/santa-barbara/quimistan/fe44f70efa88313c8d746eddf8073cc0,Mo-Su 08:00-17:00,Western Union,Q861042
9d8106ee9a672ba8295ae1691c7813ca,western_union,BP CORRESPONSAL EDWIN CASTRO,,Quimistan,SANTA BARBARA,,HN,+504 2509-2020,https://location.westernunion.com/hn/santa-barbara/quimistan/9d8106ee9a672ba8295ae1691c7813ca,Mo-Su 08:00-17:00,Western Union,Q861042
d5b24efdaa833d31fa478d5bb48259ce,western_union,FICOHSA TENGO SAUL RENE RAMIREZ,,Quimistan,SANTA BARBARA,,HN,+504 2239-6410,https://location.westernunion.com/hn/santa-barbara/quimistan/d5b24efdaa833d31fa478d5bb48259ce,Mo-Su 07:00-22:00,Western Union,Q861042
51feddd41d13de62689adfc58e347cff,western_union,FICOHSA TENGO SAUL RENE RAMIREZ,,Quimistan,SANTA BARBARA,,HN,+504 2239-6410,https://location.westernunion.com/hn/santa-barbara/quimistan/51feddd41d13de62689adfc58e347cff,Mo-Su 07:00-22:00,Western Union,Q861042
c00cfd0c1992a97d473c1b87f9ca183d,western_union,BP CORRESPONSAL VICTOR MORALES,,Quimistan,SANTA BARBARA,,HN,+504 2509-2027,https://location.westernunion.com/hn/santa-barbara/quimistan/c00cfd0c1992a97d473c1b87f9ca183d,Mo-Su 06:00-22:00,Western Union,Q861042
106bc2836e3f4a747c78194bca896b65,western_union,BP CORRESPONSAL VICTOR MORALES,,Quimistan,SANTA BARBARA,,HN,+504 2509-2027,https://location.westernunion.com/hn/santa-barbara/quimistan/106bc2836e3f4a747c78194bca896b65,Mo-Su 06:00-22:00,Western Union,Q861042
ca23f735fcf529a6c7fcfa7d4d901d9a,western_union,FICOHSA TENGO EDIN ELIEL DIAZ DIAZ,,Quimistan,SANTA BARBARA,,HN,+504 2239-6410,https://location.westernunion.com/hn/santa-barbara/quimistan/ca23f735fcf529a6c7fcfa7d4d901d9a,Mo-Su 07:00-22:00,Western Union,Q861042
4e87cf3b76908895ed7adac77c20a4cb,western_union,FICOHSA TENGO EDIN ELIEL DIAZ DIAZ,,Quimistan,SANTA BARBARA,,HN,+504 2239-6410,https://location.westernunion.com/hn/santa-barbara/quimistan/4e87cf3b76908895ed7adac77c20a4cb,Mo-Su 07:00-22:00,Western Union,Q861042
2055f9b5166e8588f0c9e1b284f142c1,western_union,FICOHSA TENGO LESLY HERNANDEZ BARRIENTOS,,San Nicolas,SANTA BARBARA,,HN,+504 2239-6410,https://location.westernunion.com/hn/santa-barbara/san-nicolas/2055f9b5166e8588f0c9e1b284f142c1,Mo-Su 07:00-22:00,Western Union,Q861042
afc35b27dbfaa101823fba5eab43dd0a,western_union,FICOHSA TENGO LESLY HERNANDEZ BARRIENTOS,,San Nicolas,SANTA BARBARA,,HN,+504 2239-6410,https://location.westernunion.com/hn/santa-barbara/san-nicolas/afc35b27dbfaa101823fba5eab43dd0a,Mo-Su 07:00-22:00,Western Union,Q861042
f468d8d53756c65bdba8f32f648959b5,western_union,BANPAIS AIRPAK,,San Marcos,SANTA BARBARA,,HN,+504 2232-9500,https://location.westernunion.com/hn/santa-barbara/san-marcos/f468d8d53756c65bdba8f32f648959b5,Mo-Fr 08:30-15:30; Sa 08:30-12:00,Western Union,Q861042
436cc88c3eded59d8c1d8a55ad6d0afb,western_union,BANCO DEL PAIS AIRPAK,,San Marcos,SANTA BARBARA,,HN,+504 2232-9500,https://location.westernunion.com/hn/santa-barbara/san-marcos/436cc88c3eded59d8c1d8a55ad6d0afb,Mo-Fr 08:30-15:30; Sa 08:30-12:00,Western Union,Q861042
4e15af424ca80b3b3bcad5fdc243a077,western_union,BP CORRESPONSAL SINESIO ALTAMIRANO,,Quimistan,SANTA BARBARA,,HN,+504 2509-2020,https://location.westernunion.com/hn/santa-barbara/quimistan/4e15af424ca80b3b3bcad5fdc243a077,Mo-Su 09:00-18:00,Western Union,Q861042
e3da1f3a8e13737329047327eadbf0e5,western_union,BP CORRESPONSAL VICTOR VASQUEZ,,Quimistan,SANTA BARBARA,,HN,+504 2509-2020,https://location.westernunion.com/hn/santa-barbara/quimistan/e3da1f3a8e13737329047327eadbf0e5,Mo-Su 09:00-18:00,Western Union,Q861042
a98d03f4f20c0d75a424a61d0294636b,western_union,BP CORRESPONSAL SINESIO ALTAMIRANO,,Quimistan,SANTA BARBARA,,HN,+504 2509-2020,https://location.westernunion.com/hn/santa-barbara/quimistan/a98d03f4f20c0d75a424a61d0294636b,Mo-Su 09:00-18:00,Western Union,Q861042
70f26e714419b1f532ae1b6f8fe25dce,western_union,BP CORRESPONSAL VICTOR VASQUEZ,,Quimistan,SANTA BARBARA,,HN,+504 2509-2020,https://location.westernunion.com/hn/santa-barbara/quimistan/70f26e714419b1f532ae1b6f8fe25dce,Mo-Su 09:00-18:00,Western Union,Q861042
08851777dd1d2f446bcf823067e0371c,western_union,FICOHSA TENGO JUAN ECHEVERRIA AYALA,,Quimistan,SANTA BARBARA,,HN,+504 2239-6410,https://location.westernunion.com/hn/santa-barbara/quimistan/08851777dd1d2f446bcf823067e0371c,Mo-Su 07:00-22:00,Western Union,Q861042
2469b1ecb8e2631249cfc86c9b173791,western_union,FICOHSA TENGO NELSON NAHUM FAJARDO,,Petoa,SANTA BARBARA,,HN,+504 2239-6410,https://location.westernunion.com/hn/santa-barbara/petoa/2469b1ecb8e2631249cfc86c9b173791,Mo-Su 07:00-22:00,Western Union,Q861042
98376df45a30f46f71751b31c482d511,western_union,FICOHSA TENGO NELSON NAHUM FAJARDO,,Petoa,SANTA BARBARA,,HN,+504 2239-6410,https://location.westernunion.com/hn/santa-barbara/petoa/98376df45a30f46f71751b31c482d511,Mo-Su 07:00-22:00,Western Union,Q861042
9884c10a489dc90be5610375bd632f58,western_union,BP-CORRESPONSAL GERZAN MORENO,,Petoa,SANTA BARBARA,,HN,+504 2566-2020,https://location.westernunion.com/hn/santa-barbara/petoa/9884c10a489dc90be5610375bd632f58,Mo-Su 07:00-19:00,Western Union,Q861042
b5db451ed5baf4017078b6e811bcb971,western_union,BP-CORRESPONSAL GERZAN MORENO,,Petoa,SANTA BARBARA,,HN,+504 2566-2020,https://location.westernunion.com/hn/santa-barbara/petoa/b5db451ed5baf4017078b6e811bcb971,Mo-Su 07:00-19:00,Western Union,Q861042
cef52feac4910da66c275b37533c3046,western_union,AIRPAK INDEP DARWIN DARIO CUB,,Nueva Frontera,SANTA BARBARA,,HN,+504 2232-9500,https://location.westernunion.com/hn/santa-barbara/nueva-frontera/cef52feac4910da66c275b37533c3046,Mo-Sa 08:00-16:00,Western Union,Q861042
788303b98302b3b4036f8faeed217154,western_union,FAMA LA FLECHA,,Macuelizo,SANTA BARBARA,,HN,+504 2232-9500,https://location.westernunion.com/hn/santa-barbara/macuelizo/788303b98302b3b4036f8faeed217154,Mo-Fr 08:00-16:00; Sa 08:00-12:00,Western Union,Q861042
00446d0a7aa7cde39745ef51f1a8e7f9,western_union,FICOHSA TENGO GROLBIN MANCIA MUNOZ,,Atima,SANTA BARBARA,,HN,+504 2239-6410,https://location.westernunion.com/hn/santa-barbara/atima/00446d0a7aa7cde39745ef51f1a8e7f9,Mo-Su 07:00-22:00,Western Union,Q861042
b7de7d8796f7a0e1852163da96fa917c,western_union,FICOHSA TENGO GROLBIN MANCIA MUNOZ,,Atima,SANTA BARBARA,,HN,+504 2239-6410,https://location.westernunion.com/hn/santa-barbara/atima/b7de7d8796f7a0e1852163da96fa917c,Mo-Su 07:00-22:00,Western Union,Q861042
10d0c7b89ba4bb676875d5cdf1ac9495,western_union,BANCO OCCIDENTE ATIMA,,Atima,SANTA BARBARA,,HN,+504 2290-4100,https://location.westernunion.com/hn/santa-barbara/atima/10d0c7b89ba4bb676875d5cdf1ac9495,Mo-Fr 08:45-16:15; Sa 08:30-11:30,Western Union,Q861042
8eee95a4d8af95dda010a25d89bede5e,western_union,BANCO OCCIDENTE ATIMA,,Atima,SANTA BARBARA,,HN,+504 2232-9500,https://location.westernunion.com/hn/santa-barbara/atima/8eee95a4d8af95dda010a25d89bede5e,Mo-Fr 08:45-16:15; Sa 08:30-11:30,Western Union,Q861042
4f58b93c869b99c2fb01fb63836e9308,western_union,HERMANDA DE HONDURAS ATIMA SANTA BARBARA,,Atima,SANTA BARBARA,,HN,+504 2232-9500,https://location.westernunion.com/hn/santa-barbara/atima/4f58b93c869b99c2fb01fb63836e9308,Mo-Fr 08:00-16:00; Sa 08:00-11:30,Western Union,Q861042
8386c363b95440ec29ab4646477fb162,western_union,3A07 OCOTEPEQUE SAN LUIS,,San Luis,SANTA BARBARA,,HN,+504 9937-8027,https://location.westernunion.com/hn/santa-barbara/san-luis/8386c363b95440ec29ab4646477fb162,Mo-Fr 08:00-16:00; Sa 08:00-12:00,Western Union,Q861042
5cca659e68c8dbffec59416643426c4d,western_union,3A07 OCOTEPEQUE SAN LUIS,,San Luis,SANTA BARBARA,,HN,+504 9937-8027,https://location.westernunion.com/hn/santa-barbara/san-luis/5cca659e68c8dbffec59416643426c4d,Mo-Fr 08:00-16:00; Sa 08:00-12:00,Western Union,Q861042
41b67f3cd64d3682736f29892eea3ea2,western_union,BP CORRESPONSAL ADALINDA SARAVIA,,San Luis,SANTA BARBARA,,HN,+504 2509-2020,https://location.westernunion.com/hn/santa-barbara/san-luis/41b67f3cd64d3682736f29892eea3ea2,Mo-Sa 08:30-16:00,Western Union,Q861042
5a8dc323dacf9625f90d91bcd8bb831f,western_union,BP CORRESPONSAL ADALINDA SARAVIA,,San Luis,SANTA BARBARA,,HN,+504 2509-2020,https://location.westernunion.com/hn/santa-barbara/san-luis/5a8dc323dacf9625f90d91bcd8bb831f,Mo-Sa 08:30-16:00,Western Union,Q861042
29f34076d6472139f72ef548cc36df80,western_union,BANCO POPULAR SAN LUIS SANTA BARBARA,,San Luis,SANTA BARBARA,,HN,+504 2276-8140,https://location.westernunion.com/hn/santa-barbara/san-luis/29f34076d6472139f72ef548cc36df80,Mo-Fr 08:00-17:00; Sa-Su 08:00-15:00,Western Union,Q861042
14b71d2cb3d860b0f0d37769adc64705,western_union,BANCO POPULAR SAN LUIS SANTA BARBARA,,San Luis,SANTA BARBARA,,HN,+504 2276-8140,https://location.westernunion.com/hn/santa-barbara/san-luis/14b71d2cb3d860b0f0d37769adc64705,Mo-Fr 08:00-17:00; Sa-Su 08:00-15:00,Western Union,Q861042
928a29cb54e157734acc602b8e8a9e5e,western_union,BANCO OCCIDENTE SAN LUIS,,San Luis,SANTA BARBARA,,HN,+504 2290-4100,https://location.westernunion.com/hn/santa-barbara/san-luis/928a29cb54e157734acc602b8e8a9e5e,Mo-Fr 08:45-16:15; Sa 08:30-11:30,Western Union,Q861042
f1fe85227080c57b083c5a6be1239a99,western_union,BANCO OCCIDENTE SAN LUIS,,San Luis,SANTA BARBARA,,HN,+504 2232-9500,https://location.westernunion.com/hn/santa-barbara/san-luis/f1fe85227080c57b083c5a6be1239a99,Mo-Fr 08:45-16:15; Sa 08:30-11:30,Western Union,Q861042
79f77976f4443192c0cb7e5ab2377a82,western_union,BP-CORRESPONSAL FERNANDO NUNEZ 2,,San Luis,SANTA BARBARA,,HN,+504 2566-2020,https://location.westernunion.com/hn/santa-barbara/san-luis/79f77976f4443192c0cb7e5ab2377a82,Mo-Su 07:00-19:00,Western Union,Q861042
59913b620a5b0575d9baa9efc1638f71,western_union,BP-CORRESPONSAL FERNANDO NUNEZ 2,,San Luis,SANTA BARBARA,,HN,+504 2566-2020,https://location.westernunion.com/hn/santa-barbara/san-luis/59913b620a5b0575d9baa9efc1638f71,Mo-Su 07:00-19:00,Western Union,Q861042
d18d6ea9d795100f2c177c2a68412022,western_union,FICOHSA TENGO KIELSA K237,,Santa Barbara,SANTA BARBARA,,HN,+504 9476-9148,https://location.westernunion.com/hn/santa-barbara/santa-barbara/d18d6ea9d795100f2c177c2a68412022,Mo-Su 07:00-22:00,Western Union,Q861042
d8d957cb1d6dde900f0e3766d6fca8db,western_union,FICOHSA TENGO KIELSA K237,,Santa Barbara,SANTA BARBARA,,HN,+504 9476-9148,https://location.westernunion.com/hn/santa-barbara/santa-barbara/d8d957cb1d6dde900f0e3766d6fca8db,Mo-Su 07:00-22:00,Western Union,Q861042
114ab9f674dbc811db943a0eaa642b2c,western_union,BP-CORRESPONSAL JESUS JOVEL,,Quimistan,SANTA BARBARA,,HN,+504 2240-1212,https://location.westernunion.com/hn/santa-barbara/quimistan/114ab9f674dbc811db943a0eaa642b2c,Mo-Su 08:00-20:00,Western Union,Q861042
d5db8501262ff8fbaaed66c2caa2dfc4,western_union,BP-CORRESPONSAL JESUS JOVEL,,Quimistan,SANTA BARBARA,,HN,+504 2240-1212,https://location.westernunion.com/hn/santa-barbara/quimistan/d5db8501262ff8fbaaed66c2caa2dfc4,Mo-Su 08:00-20:00,Western Union,Q861042
602083f6d7c556597fe8bf8b93f2009c,western_union,FICOHSA TENGO CEYDI NAVARRO MATEO,,Quimistan,SANTA BARBARA,,HN,+504 2239-6410,https://location.westernunion.com/hn/santa-barbara/quimistan/602083f6d7c556597fe8bf8b93f2009c,Mo-Su 07:00-22:00,Western Union,Q861042
a0e04b0e436a73f9ea904912b5ce2238,western_union,FICOHSA TENGO CEYDI NAVARRO MATEO,,Quimistan,SANTA BARBARA,,HN,+504 2239-6410,https://location.westernunion.com/hn/santa-barbara/quimistan/a0e04b0e436a73f9ea904912b5ce2238,Mo-Su 07:00-22:00,Western Union,Q861042
fcf6d5362d75be8b8a2a9430f437c7a8,western_union,FICOHSA TENGO JOSE DUBON ALTAMIRANO,,San Marcos,SANTA BARBARA,,HN,+504 2239-6410,https://location.westernunion.com/hn/santa-barbara/san-marcos/fcf6d5362d75be8b8a2a9430f437c7a8,Mo-Su 07:00-22:00,Western Union,Q861042
e47fe1bf1f729a7c272598203ed0010e,western_union,FICOHSA TENGO JOSE DUBON ALTAMIRANO,,San Marcos,SANTA BARBARA,,HN,+504 2239-6410,https://location.westernunion.com/hn/santa-barbara/san-marcos/e47fe1bf1f729a7c272598203ed0010e,Mo-Su 07:00-22:00,Western Union,Q861042
ebe3bbc3cd2c7070062e5c5214b71e98,western_union,BP-CORRESPONSAL ALLAN NAVARRO,,San Marcos,SANTA BARBARA,,HN,+504 2566-2020,https://location.westernunion.com/hn/santa-barbara/san-marcos/ebe3bbc3cd2c7070062e5c5214b71e98,Mo-Sa 07:30-18:30; Su 22:00-15:00,Western Union,Q861042
e295e6f66c4a7b376d866e8ea04b091c,western_union,BP-CORRESPONSAL ALLAN NAVARRO,,San Marcos,SANTA BARBARA,,HN,+504 2566-2020,https://location.westernunion.com/hn/santa-barbara/san-marcos/e295e6f66c4a7b376d866e8ea04b091c,Mo-Sa 07:30-18:30; Su 22:00-15:00,Western Union,Q861042
691283100cfc526788a025627d8db63a,western_union,FICOHSA TENGO JUAN RAMON POSAS,,San Marcos,SANTA BARBARA,,HN,+504 2239-6410,https://location.westernunion.com/hn/santa-barbara/san-marcos/691283100cfc526788a025627d8db63a,Mo-Su 07:00-22:00,Western Union,Q861042
2e0b8cc4b29b16db1e2976196cff6609,western_union,FICOHSA TENGO JUAN RAMON POSAS,,San Marcos,SANTA BARBARA,,HN,+504 2239-6410,https://location.westernunion.com/hn/santa-barbara/san-marcos/2e0b8cc4b29b16db1e2976196cff6609,Mo-Su 07:00-22:00,Western Union,Q861042
0f24350c12a56c019fa733227dad75b4,western_union,BP CORRESPONSAL JUAN POSAS,,San Marcos,SANTA BARBARA,,HN,+504 2509-2029,https://location.westernunion.com/hn/santa-barbara/san-marcos/0f24350c12a56c019fa733227dad75b4,Mo-Su 08:00-22:00,Western Union,Q861042
0951b181969b80ac73cbf58e03e0c9ac,western_union,BP CORRESPONSAL JUAN POSAS,,San Marcos,SANTA BARBARA,,HN,+504 2509-2029,https://location.westernunion.com/hn/santa-barbara/san-marcos/0951b181969b80ac73cbf58e03e0c9ac,Mo-Su 08:00-22:00,Western Union,Q861042
bd3d9907c688f3c2a6d3d2c9579c5b33,western_union,FICOHSA TENGO EDER ENRIQUE AGUILAR,,Quimistan,SANTA BARBARA,,HN,+504 2239-6410,https://location.westernunion.com/hn/santa-barbara/quimistan/bd3d9907c688f3c2a6d3d2c9579c5b33,Mo-Su 07:00-22:00,Western Union,Q861042
1b0375e5ef78e1bc1347f1c43c528dfb,western_union,FICOHSA TENGO EDER ENRIQUE AGUILAR,,Quimistan,SANTA BARBARA,,HN,+504 2239-6410,https://location.westernunion.com/hn/santa-barbara/quimistan/1b0375e5ef78e1bc1347f1c43c528dfb,Mo-Su 07:00-22:00,Western Union,Q861042
87b3176cfbc25acc15dcbb88d30e1de5,western_union,BP CORRESPONSAL SAMUEL VALLADARES,,Quimistan,SANTA BARBARA,,HN,+504 2509-2020,https://location.westernunion.com/hn/santa-barbara/quimistan/87b3176cfbc25acc15dcbb88d30e1de5,Mo-Su 06:00-21:00,Western Union,Q861042
27c6c3818caed9d81ef6940a170b8c24,western_union,BP CORRESPONSAL SAMUEL VALLADARES,,Quimistan,SANTA BARBARA,,HN,+504 2509-2020,https://location.westernunion.com/hn/santa-barbara/quimistan/27c6c3818caed9d81ef6940a170b8c24,Mo-Su 06:00-21:00,Western Union,Q861042
29df9da6546c79fb6bb1c672d23c5130,western_union,FICOHSA TENGO ROBERTO ALEXANDER ALVAREZ,,Quimistan,SANTA BARBARA,,HN,+504 2239-6410,https://location.westernunion.com/hn/santa-barbara/quimistan/29df9da6546c79fb6bb1c672d23c5130,Mo-Su 07:00-22:00,Western Union,Q861042
7fba45050ebce5c725dd62e75befa995,western_union,FICOHSA TENGO ROBERTO ALEXANDER ALVAREZ,,Quimistan,SANTA BARBARA,,HN,+504 2239-6410,https://location.westernunion.com/hn/santa-barbara/quimistan/7fba45050ebce5c725dd62e75befa995,Mo-Su 07:00-22:00,Western Union,Q861042
d6bed42b8beb29a607d0447da3ca3c2a,western_union,FICOHSA TENGO LUIS ENRIQUE RAMIREZ,,Quimistan,SANTA BARBARA,,HN,+504 2239-6410,https://location.westernunion.com/hn/santa-barbara/quimistan/d6bed42b8beb29a607d0447da3ca3c2a,Mo-Su 07:00-22:00,Western Union,Q861042
9e532e309cac619db37229384611db53,western_union,FICOHSA TENGO LUIS ENRIQUE RAMIREZ,,Quimistan,SANTA BARBARA,,HN,+504 2239-6410,https://location.westernunion.com/hn/santa-barbara/quimistan/9e532e309cac619db37229384611db53,Mo-Su 07:00-22:00,Western Union,Q861042
a434e29b56cd044f15df81f0ba6d0d65,western_union,FICOHSA TENGO JESUS ALBERTO PORTILLO,,Quimistan,SANTA BARBARA,,HN,+504 2239-6410,https://location.westernunion.com/hn/santa-barbara/quimistan/a434e29b56cd044f15df81f0ba6d0d65,Mo-Su 07:00-22:00,Western Union,Q861042
b5783baf881d3ad6c6f2c81d850579af,western_union,FICOHSA TENGO JESUS ALBERTO PORTILLO,,Quimistan,SANTA BARBARA,,HN,+504 2239-6410,https://location.westernunion.com/hn/santa-barbara/quimistan/b5783baf881d3ad6c6f2c81d850579af,Mo-Su 07:00-22:00,Western Union,Q861042
b47411a2c6bff19459daf7fcf3f4a51f,western_union,3A12 OCOTEPEQUE VENTANILLA QUIMISTAN,,Quimistan,SANTA BARBARA,,HN,+504 9512-2205,https://location.westernunion.com/hn/santa-barbara/quimistan/b47411a2c6bff19459daf7fcf3f4a51f,Mo-Fr 08:00-16:00; Sa 08:00-12:00,Western Union,Q861042
afad207ada8fbe57bee3556c12c45981,western_union,3A12 OCOTEPEQUE VENTANILLA QUIMISTAN,,Quimistan,SANTA BARBARA,,HN,+504 9512-2205,https://location.westernunion.com/hn/santa-barbara/quimistan/afad207ada8fbe57bee3556c12c45981,Mo-Fr 08:00-16:00; Sa 08:00-12:00,Western Union,Q861042
eae5a78eba198fbdeab89a61e06539d8,western_union,7804 BANCO AZTECA DAZ QUIMISTAN,,Quimistan,SANTA BARBARA,,HN,+504 2264-1460,https://location.westernunion.com/hn/santa-barbara/quimistan/eae5a78eba198fbdeab89a61e06539d8,Mo-Su 08:00-20:00,Western Union,Q861042
cb2d5eac533c435b9c5dbb95108fbc38,western_union,FICOHSA TENGO F SIMAN QUIMISTAN 1,,Quimistan,SANTA BARBARA,,HN,+504 3175-4456,https://location.westernunion.com/hn/santa-barbara/quimistan/cb2d5eac533c435b9c5dbb95108fbc38,Mo-Fr 07:00-23:00; Sa 07:00-22:00; Su 07:00-21:00,Western Union,Q861042
cb045517483034f5301cd72409d69213,western_union,FICOHSA TENGO F SIMAN QUIMISTAN 1,,Quimistan,SANTA BARBARA,,HN,+504 3175-4592,https://location.westernunion.com/hn/santa-barbara/quimistan/cb045517483034f5301cd72409d69213,Mo-Fr 07:00-23:00; Sa 07:00-22:00; Su 07:00-21:00,Western Union,Q861042
4c8c36d4e1c9604f49c28d0068574750,western_union,BP-CORRESPONSAL JESUS PORTILLO,,Quimistan,SANTA BARBARA,,HN,+504 2566-2020,https://location.westernunion.com/hn/santa-barbara/quimistan/4c8c36d4e1c9604f49c28d0068574750,Mo-Su 07:00-20:00,Western Union,Q861042
b6e637ad2d094826d7f668775dd771d3,western_union,BP-CORRESPONSAL JESUS PORTILLO,,Quimistan,SANTA BARBARA,,HN,+504 2566-2020,https://location.westernunion.com/hn/santa-barbara/quimistan/b6e637ad2d094826d7f668775dd771d3,Mo-Su 07:00-20:00,Western Union,Q861042
d7a9ccdff76a479804933ad53c88b3b0,western_union,COFISA AGENCIA QUIMISTAN,,Quimistan,SANTA BARBARA,,HN,+504 9465-1371,https://location.westernunion.com/hn/santa-barbara/quimistan/d7a9ccdff76a479804933ad53c88b3b0,Mo-Fr 08:30-17:00; Sa 08:30-12:30,Western Union,Q861042
2dc4251ef775c7cb4f355ad302e3ce38,western_union,COFISA AGENCIA QUIMISTAN,,Quimistan,SANTA BARBARA,,HN,+504 9465-1371,https://location.westernunion.com/hn/santa-barbara/quimistan/2dc4251ef775c7cb4f355ad302e3ce38,Mo-Fr 08:30-17:00; Sa 08:30-12:30,Western Union,Q861042
eaf8802d358d82627632959982d47077,western_union,FICOHSA TENGO JUAN CARLOS PEREZ,,Quimistan,SANTA BARBARA,,HN,+504 2239-6410,https://location.westernunion.com/hn/santa-barbara/quimistan/eaf8802d358d82627632959982d47077,Mo-Su 07:00-22:00,Western Union,Q861042
abb1e3b84ce676ef3a7605bbe4ca0472,western_union,FICOHSA TENGO JUAN CARLOS PEREZ,,Quimistan,SANTA BARBARA,,HN,+504 2239-6410,https://location.westernunion.com/hn/santa-barbara/quimistan/abb1e3b84ce676ef3a7605bbe4ca0472,Mo-Su 07:00-22:00,Western Union,Q861042
7b25504c909d7d241955367bdbad15bb,western_union,FICOHSA TENGO DARWIN SILVA VENTURA,,Quimistan,SANTA BARBARA,,HN,+504 2239-6410,https://location.westernunion.com/hn/santa-barbara/quimistan/7b25504c909d7d241955367bdbad15bb,Mo-Su 07:00-22:00,Western Union,Q861042
3e0e7d2ae5e8cb6c0f54d5adbdf2954d,western_union,FICOHSA TENGO OLVIN GAMALIEL RAPALO,,Quimistan,SANTA BARBARA,,HN,+504 2239-6410,https://location.westernunion.com/hn/santa-barbara/quimistan/3e0e7d2ae5e8cb6c0f54d5adbdf2954d,Mo-Su 07:00-22:00,Western Union,Q861042
08b5fd8576e203ce50403e47836e6601,western_union,FICOHSA TENGO OLVIN GAMALIEL RAPALO,,Quimistan,SANTA BARBARA,,HN,+504 2239-6410,https://location.westernunion.com/hn/santa-barbara/quimistan/08b5fd8576e203ce50403e47836e6601,Mo-Su 07:00-22:00,Western Union,Q861042
ac6449784d29547ce8c008476445036a,western_union,BP-CORRESPONSAL OLVIN G RAPALO PEREZ,,Pinalejo,SANTA BARBARA,,HN,+504 2509-2020,https://location.westernunion.com/hn/santa-barbara/pinalejo/ac6449784d29547ce8c008476445036a,Mo-Sa 07:00-17:30; Su 07:00-15:00,Western Union,Q861042
66abe07554507729cb082b7b3fa73800,western_union,BP-CORRESPONSAL OLVIN G RAPALO PEREZ,,Pinalejo,SANTA BARBARA,,HN,+504 2509-2020,https://location.westernunion.com/hn/santa-barbara/pinalejo/66abe07554507729cb082b7b3fa73800,Mo-Sa 07:00-17:30; Su 07:00-15:00,Western Union,Q861042
26fb7298946168af7cae2854a26c04ea,western_union,FICOHSA TENGO JOSE MARTINEZ,,Quimistan,SANTA BARBARA,,HN,+504 2239-6410,https://location.westernunion.com/hn/santa-barbara/quimistan/26fb7298946168af7cae2854a26c04ea,Mo-Su 07:00-22:00,Western Union,Q861042
12c61247f6514f6e4eb1eca0aa585ef0,western_union,FICOHSA TENGO JOSE MARTINEZ,,Quimistan,SANTA BARBARA,,HN,+504 2239-6410,https://location.westernunion.com/hn/santa-barbara/quimistan/12c61247f6514f6e4eb1eca0aa585ef0,Mo-Su 07:00-22:00,Western Union,Q861042
f2b5c8c41ecd6cb835bdc3fd96b6bc6c,western_union,FICOHSA TENGO DARWIN SILVA VENTURA,,Quimistan,SANTA BARBARA,,HN,+504 2239-6410,https://location.westernunion.com/hn/santa-barbara/quimistan/f2b5c8c41ecd6cb835bdc3fd96b6bc6c,Mo-Su 07:00-22:00,Western Union,Q861042
b9f88c584de96a69657240dba518cf93,western_union,BP-CORRESPONSAL Elsy Torres,,La Flecha,SANTA BARBARA,,HN,+504 2566-2020,https://location.westernunion.com/hn/santa-barbara/la-flecha/b9f88c584de96a69657240dba518cf93,Mo-Sa 08:00-20:00; Su 22:00-18:00,Western Union,Q861042
2fe5ec1c5340510ed0bcc3b192318a68,western_union,BP-CORRESPONSAL Elsy Torres,,La Flecha,SANTA BARBARA,,HN,+504 2566-2020,https://location.westernunion.com/hn/santa-barbara/la-flecha/2fe5ec1c5340510ed0bcc3b192318a68,Mo-Sa 08:00-20:00; Su 22:00-18:00,Western Union,Q861042
91e02589711946093b067a41ad1f4e8c,western_union,425 MINI SUPER SOFIA,,La Flecha,SANTA BARBARA,,HN,+504 2664-1009,https://location.westernunion.com/hn/santa-barbara/la-flecha/91e02589711946093b067a41ad1f4e8c,Mo-Su 07:00-20:00,Western Union,Q861042
929c76936d15407534b483f50b5fdd91,western_union,FINSOL AGENCIA LA FLECHA,,La Flecha,SANTA BARBARA,,HN,+504 2232-9500,https://location.westernunion.com/hn/santa-barbara/la-flecha/929c76936d15407534b483f50b5fdd91,Mo-Fr 08:30-16:30; Sa 08:30-12:00,Western Union,Q861042
d6ee9a57f084ddac6f8a3a7899e717a9,western_union,FINSOL AGENCIA LA FLECHA,,La Flecha,SANTA BARBARA,,HN,+504 2232-9500,https://location.westernunion.com/hn/santa-barbara/la-flecha/d6ee9a57f084ddac6f8a3a7899e717a9,Mo-Fr 08:30-16:30; Sa 08:30-12:00,Western Union,Q861042
8850aff04a5b2a8ce3fa40f88e7bfa0c,western_union,FICOHSA TENGO F SIMAN LA FLECHA 1,,La Flecha,SANTA BARBARA,,HN,+504 3175-4551,https://location.westernunion.com/hn/santa-barbara/la-flecha/8850aff04a5b2a8ce3fa40f88e7bfa0c,Mo-Fr 07:00-23:00; Sa 07:00-22:00; Su 07:00-21:00,Western Union,Q861042
1f8d9ab06d071a95024772e88d4668ce,western_union,BANPAIS AGENCIA LA FLECHA,,La Flecha,SANTA BARBARA,,HN,+504 2232-9500,https://location.westernunion.com/hn/santa-barbara/la-flecha/1f8d9ab06d071a95024772e88d4668ce,Mo-Fr 08:00-15:30; Sa 08:00-12:00,Western Union,Q861042
e9c8ff65085bbbfe3cf8fcfd09e61d05,western_union,FICOHSA TENGO F SIMAN LA FLECHA 1,,La Flecha,SANTA BARBARA,,HN,+504 3175-4456,https://location.westernunion.com/hn/santa-barbara/la-flecha/e9c8ff65085bbbfe3cf8fcfd09e61d05,Mo-Fr 07:00-23:00; Sa 07:00-22:00; Su 07:00-21:00,Western Union,Q861042
c77182722ce2e8315af13ef9842ec52b,western_union,BANCO POPULAR AGENCIA LA FLECHA,,Macuelizo,SANTA BARBARA,,HN,+504 2232-9500,https://location.westernunion.com/hn/santa-barbara/macuelizo/c77182722ce2e8315af13ef9842ec52b,Mo-Fr 08:00-18:00; Sa 08:00-12:00,Western Union,Q861042
0e2c3fceb2bb33f5861f10e31aa92759,western_union,BANCO POPULAR AGENCIA LA FLECHA,,Macuelizo,SANTA BARBARA,,HN,+504 2232-9500,https://location.westernunion.com/hn/santa-barbara/macuelizo/0e2c3fceb2bb33f5861f10e31aa92759,Mo-Fr 08:00-18:00; Sa 08:00-12:00,Western Union,Q861042
a1f8829748dcf6d65c1c48222405ee74,western_union,7515 BANCO AZTECA EKT MOVIL LA FLECHA,,Macuelizo,SANTA BARBARA,,HN,+504 2264-1404,https://location.westernunion.com/hn/santa-barbara/macuelizo/a1f8829748dcf6d65c1c48222405ee74,Mo-Su 08:00-20:00,Western Union,Q861042
8bb69c9c44c2402240f3e114a29646ef,western_union,7515 BANCO AZTECA EKT MOVIL LA FLECHA,,Macuelizo,SANTA BARBARA,,HN,+504 2264-1404,https://location.westernunion.com/hn/santa-barbara/macuelizo/8bb69c9c44c2402240f3e114a29646ef,Mo-Su 08:00-20:00,Western Union,Q861042
000f3fc4866324ca0966aed7c3f2308e,western_union,FICOHSA TENGO MIRIAN ELIZABETH MARIN,,Macuelizo,SANTA BARBARA,,HN,+504 2239-6410,https://location.westernunion.com/hn/santa-barbara/macuelizo/000f3fc4866324ca0966aed7c3f2308e,Mo-Su 07:00-22:00,Western Union,Q861042
c6ded9b580eacc2251baf803775db7da,western_union,FICOHSA TENGO MIRIAN ELIZABETH MARIN,,Macuelizo,SANTA BARBARA,,HN,+504 2239-6410,https://location.westernunion.com/hn/santa-barbara/macuelizo/c6ded9b580eacc2251baf803775db7da,Mo-Su 07:00-22:00,Western Union,Q861042
737a1b54c3d5c3ad7e468ab445b5c41d,western_union,BP CORRESPONSAL SANDRA POLANCO,,Proteccion,SANTA BARBARA,,HN,+504 2509-2020,https://location.westernunion.com/hn/santa-barbara/proteccion/737a1b54c3d5c3ad7e468ab445b5c41d,Mo-Su 07:30-17:00,Western Union,Q861042
6b244adcdd03e364e94316e354c93709,western_union,BP CORRESPONSAL SANDRA POLANCO,,Proteccion,SANTA BARBARA,,HN,+504 2509-2020,https://location.westernunion.com/hn/santa-barbara/proteccion/6b244adcdd03e364e94316e354c93709,Mo-Su 07:30-17:00,Western Union,Q861042
a128e9cdf3df63c2c65dc27d03df5b5b,western_union,BP CORRESPONSAL NELSON VALENTIN,,Proteccion,SANTA BARBARA,,HN,+504 2509-2020,https://location.westernunion.com/hn/santa-barbara/proteccion/a128e9cdf3df63c2c65dc27d03df5b5b,Mo-Su 07:30-17:00,Western Union,Q861042
0d032804c3699b50bf912ff175f622d9,western_union,BP CORRESPONSAL NELSON VALENTIN,,Proteccion,SANTA BARBARA,,HN,+504 2509-2020,https://location.westernunion.com/hn/santa-barbara/proteccion/0d032804c3699b50bf912ff175f622d9,Mo-Su 07:30-17:00,Western Union,Q861042
c3eff0dcc354ffe47b012fdf45dda576,western_union,FICOHSA TENGO NELSON HERNANDEZ,,Proteccion,SANTA BARBARA,,HN,+504 2239-6410,https://location.westernunion.com/hn/santa-barbara/proteccion/c3eff0dcc354ffe47b012fdf45dda576,Mo-Su 07:00-18:00,Western Union,Q861042
5c0c41aa22a2a5c132aa6e8aa9d7c355,western_union,FICOHSA TENGO NELSON HERNANDEZ,,Proteccion,SANTA BARBARA,,HN,+504 2239-6410,https://location.westernunion.com/hn/santa-barbara/proteccion/5c0c41aa22a2a5c132aa6e8aa9d7c355,Mo-Su 07:00-18:00,Western Union,Q861042
b14643f18de2db368151780419f0107c,western_union,BP CORRESPONSAL CRISTIAN MATUTE,,Macuelizo,SANTA BARBARA,,HN,+504 2509-2020,https://location.westernunion.com/hn/santa-barbara/macuelizo/b14643f18de2db368151780419f0107c,Mo-Su 08:00-22:00,Western Union,Q861042
6a51687817d73fb1fba11305f1a38a08,western_union,BP CORRESPONSAL CRISTIAN MATUTE,,Macuelizo,SANTA BARBARA,,HN,+504 2509-2020,https://location.westernunion.com/hn/santa-barbara/macuelizo/6a51687817d73fb1fba11305f1a38a08,Mo-Su 08:00-22:00,Western Union,Q861042
df41e65259de9fcadf6d8ef03049e8fe,western_union,BANCO OCCIDENTE SULA,,Macuelizo,SANTA BARBARA,,HN,+504 2290-4100,https://location.westernunion.com/hn/santa-barbara/macuelizo/df41e65259de9fcadf6d8ef03049e8fe,Mo-Fr 08:45-16:15; Sa 08:30-11:30,Western Union,Q861042
6224511c87d356161c34be4e9d3eccf5,western_union,BANCO OCCIDENTE SULA,,Macuelizo,SANTA BARBARA,,HN,+504 2232-9500,https://location.westernunion.com/hn/santa-barbara/macuelizo/6224511c87d356161c34be4e9d3eccf5,Mo-Fr 08:45-16:15; Sa 08:30-11:30,Western Union,Q861042
c4eaa1f272f4cd570cdf03dcd7ed6398,western_union,3A06 OCOTEPEQUE FILIAL SULA,,Sula,SANTA BARBARA,,HN,+504 2657-4001,https://location.westernunion.com/hn/santa-barbara/sula/c4eaa1f272f4cd570cdf03dcd7ed6398,Mo-Fr 08:00-16:00; Sa 08:00-11:00,Western Union,Q861042
9a612421f4376a630cc6478be76b7d0b,western_union,3A06 OCOTEPEQUE FILIAL SULA,,Sula,SANTA BARBARA,,HN,+504 2657-4001,https://location.westernunion.com/hn/santa-barbara/sula/9a612421f4376a630cc6478be76b7d0b,Mo-Fr 08:00-16:00; Sa 08:00-11:00,Western Union,Q861042
decb2820578e92fd8f34d505b22b7368,western_union,BP-CORRESPONSAL ADELINA VALLADARES,,Macuelizo,SANTA BARBARA,,HN,+504 2566-2020,https://location.westernunion.com/hn/santa-barbara/macuelizo/decb2820578e92fd8f34d505b22b7368,Mo-Sa 08:00-18:00; Su 21:00-24:00,Western Union,Q861042
2354ccd35af0ef5a5a2c30f5fbde42c1,western_union,BP-CORRESPONSAL ADELINA VALLADARES,,Macuelizo,SANTA BARBARA,,HN,+504 2566-2020,https://location.westernunion.com/hn/santa-barbara/macuelizo/2354ccd35af0ef5a5a2c30f5fbde42c1,Mo-Sa 08:00-18:00; Su 21:00-24:00,Western Union,Q861042
bd9a0537838be4af02de90646477a5aa,western_union,FICOHSA TENGO JUAN MARQUEZ RAMOS,,Macuelizo,SANTA BARBARA,,HN,+504 2239-6410,https://location.westernunion.com/hn/santa-barbara/macuelizo/bd9a0537838be4af02de90646477a5aa,Mo-Su 07:00-22:00,Western Union,Q861042
904dd0a0628e2cfa21f0af29434c8f67,western_union,FICOHSA TENGO JUAN MARQUEZ RAMOS,,Macuelizo,SANTA BARBARA,,HN,+504 2239-6410,https://location.westernunion.com/hn/santa-barbara/macuelizo/904dd0a0628e2cfa21f0af29434c8f67,Mo-Su 07:00-22:00,Western Union,Q861042
73c2f1d62d9fabfc9a40bffbae1b14ca,western_union,BP CORRESPONSAL KARLA RODRIGUEZ 2,,Azacualpa,SANTA BARBARA,,HN,+504 2509-2035,https://location.westernunion.com/hn/santa-barbara/azacualpa/73c2f1d62d9fabfc9a40bffbae1b14ca,Mo-Fr 07:00-17:00; Sa 07:00-13:00,Western Union,Q861042
01f14a88438690aa05fead8df79858ef,western_union,BP CORRESPONSAL KARLA RODRIGUEZ 2,,Azacualpa,SANTA BARBARA,,HN,+504 2509-2035,https://location.westernunion.com/hn/santa-barbara/azacualpa/01f14a88438690aa05fead8df79858ef,Mo-Fr 07:00-17:00; Sa 07:00-13:00,Western Union,Q861042
f41295e93c6bd51d9112c6de4e24972c,western_union,BP-CORRESPONSAL YONY EDER,,Azacualpa,SANTA BARBARA,,HN,+504 2566-2020,https://location.westernunion.com/hn/santa-barbara/azacualpa/f41295e93c6bd51d9112c6de4e24972c,Mo-Sa 07:30-18:00; Su 22:00-15:00,Western Union,Q861042
700ca3943acfda7a933114350587cecb,western_union,BP-CORRESPONSAL YONY EDER,,Azacualpa,SANTA BARBARA,,HN,+504 2566-2020,https://location.westernunion.com/hn/santa-barbara/azacualpa/700ca3943acfda7a933114350587cecb,Mo-Sa 07:30-18:00; Su 22:00-15:00,Western Union,Q861042
fdf24298323cbd93d5da36fa5cd178d6,western_union,DF AZACUALPA,,Azacualpa,SANTA BARBARA,,HN,+504 2265-8100,https://location.westernunion.com/hn/santa-barbara/azacualpa/fdf24298323cbd93d5da36fa5cd178d6,Mo-Su 08:00-20:00,Western Union,Q861042
c9f9246f91093f1ccfacc0a45d3d24ce,western_union,BP-CORRESPONSAL MAYRA TABORA,,Azacualpa,SANTA BARBARA,,HN,+504 2566-2020,https://location.westernunion.com/hn/santa-barbara/azacualpa/c9f9246f91093f1ccfacc0a45d3d24ce,Mo-Sa 08:00-18:00; Su 22:00-16:00,Western Union,Q861042
32d1c9c956b8ae2be34137d301c885a3,western_union,BP-CORRESPONSAL MAYRA TABORA,,Azacualpa,SANTA BARBARA,,HN,+504 2566-2020,https://location.westernunion.com/hn/santa-barbara/azacualpa/32d1c9c956b8ae2be34137d301c885a3,Mo-Sa 08:00-18:00; Su 22:00-16:00,Western Union,Q861042
79b9d7b5a7da9c793c73e36c9fe02853,western_union,BP-CORRESPONSAL DUNIA PERDOMO,,Azacualpa,SANTA BARBARA,,HN,+504 2566-2020,https://location.westernunion.com/hn/santa-barbara/azacualpa/79b9d7b5a7da9c793c73e36c9fe02853,Mo-Sa 08:00-18:00; Su 22:00-15:00,Western Union,Q861042
7e792158435d3f879341d61c329f50f4,western_union,BP-CORRESPONSAL DUNIA PERDOMO,,Azacualpa,SANTA BARBARA,,HN,+504 2566-2020,https://location.westernunion.com/hn/santa-barbara/azacualpa/7e792158435d3f879341d61c329f50f4,Mo-Sa 08:00-18:00; Su 22:00-15:00,Western Union,Q861042
0fcefc23387fd8155c4192dd1bc3b63b,western_union,5899 BANCO AZTECA EKT AZACUALPA,,Azacualpa,SANTA BARBARA,,HN,+504 2264-1460,https://location.westernunion.com/hn/santa-barbara/azacualpa/0fcefc23387fd8155c4192dd1bc3b63b,Mo-Sa 08:00-20:00,Western Union,Q861042
69fe7a043bcac51481d5d7230cc986eb,western_union,5899 BANCO AZTECA EKT AZACUALPA,,Azacualpa,SANTA BARBARA,,HN,+504 2264-1460,https://location.westernunion.com/hn/santa-barbara/azacualpa/69fe7a043bcac51481d5d7230cc986eb,Mo-Sa 08:00-20:00,Western Union,Q861042
ed29fa713008908f6910d88d89450a5a,western_union,FICOHSA TENGO NIBIA PORTILLO ANDURAY,,Azacualpa,SANTA BARBARA,,HN,+504 2239-6410,https://location.westernunion.com/hn/santa-barbara/azacualpa/ed29fa713008908f6910d88d89450a5a,Mo-Su 07:00-22:00,Western Union,Q861042
728cfaf5ee5e4aeeac02b1f64a2a9a19,western_union,FICOHSA TENGO NIBIA PORTILLO ANDURAY,,Azacualpa,SANTA BARBARA,,HN,+504 2239-6410,https://location.westernunion.com/hn/santa-barbara/azacualpa/728cfaf5ee5e4aeeac02b1f64a2a9a19,Mo-Su 07:00-22:00,Western Union,Q861042
eb188c0df13fe0b59db9c4363851fe79,western_union,FICOHSA TENGO MARiA SANDRES UMANZOR,,Azacualpa,SANTA BARBARA,,HN,+504 2239-6410,https://location.westernunion.com/hn/santa-barbara/azacualpa/eb188c0df13fe0b59db9c4363851fe79,Mo-Su 07:00-22:00,Western Union,Q861042
19416426feb2e8df2a327f855a86af1f,western_union,FICOHSA TENGO MARiA SANDRES UMANZOR,,Azacualpa,SANTA BARBARA,,HN,+504 2239-6410,https://location.westernunion.com/hn/santa-barbara/azacualpa/19416426feb2e8df2a327f855a86af1f,Mo-Su 07:00-22:00,Western Union,Q861042
20c3b542b0f7726163e18d1ecea75e3f,western_union,2982 BANCO AZTECA ITALIKA AZACUALPA,,Azacualpa,SANTA BARBARA,,HN,+504 2264-1460,https://location.westernunion.com/hn/santa-barbara/azacualpa/20c3b542b0f7726163e18d1ecea75e3f,Mo-Su 08:00-20:00,Western Union,Q861042
be37f1b5ab91b3780927e52946fc51b9,western_union,BP-CORRESPONSAL KARLA RODRIGUEZ,,Azacualpa,SANTA BARBARA,,HN,+504 2566-2020,https://location.westernunion.com/hn/santa-barbara/azacualpa/be37f1b5ab91b3780927e52946fc51b9,Mo-Sa 08:00-17:00; Su 22:00-14:00,Western Union,Q861042
c3b877ce42ae5939d82f308caaa1877a,western_union,BP-CORRESPONSAL KARLA RODRIGUEZ,,Azacualpa,SANTA BARBARA,,HN,+504 2566-2020,https://location.westernunion.com/hn/santa-barbara/azacualpa/c3b877ce42ae5939d82f308caaa1877a,Mo-Sa 08:00-17:00; Su 22:00-14:00,Western Union,Q861042
6b8fbecbc73f1c939b5778af951d979b,western_union,3A06 OCOTEPEQUE AZACUALPA,,Azacualpa,SANTA BARBARA,,HN,+504 9512-2205,https://location.westernunion.com/hn/santa-barbara/azacualpa/6b8fbecbc73f1c939b5778af951d979b,Mo-Fr 08:00-16:00; Sa 08:00-12:00,Western Union,Q861042
5fc70abac89f5cc26ada444c0f499596,western_union,3A06 OCOTEPEQUE AZACUALPA,,Azacualpa,SANTA BARBARA,,HN,+504 9512-2205,https://location.westernunion.com/hn/santa-barbara/azacualpa/5fc70abac89f5cc26ada444c0f499596,Mo-Fr 08:00-16:00; Sa 08:00-12:00,Western Union,Q861042
75a2da96d793411eaad120659a34a441,western_union,FICOHSA TENGO KARLA PATRICIA RODRIGUEZ,,Azacualpa,SANTA BARBARA,,HN,+504 2239-6410,https://location.westernunion.com/hn/santa-barbara/azacualpa/75a2da96d793411eaad120659a34a441,Mo-Su 07:00-22:00,Western Union,Q861042
f2d36a2e6fff9b643eb71b532dcdde09,western_union,FICOHSA TENGO KARLA PATRICIA RODRIGUEZ,,Azacualpa,SANTA BARBARA,,HN,+504 2239-6410,https://location.westernunion.com/hn/santa-barbara/azacualpa/f2d36a2e6fff9b643eb71b532dcdde09,Mo-Su 07:00-22:00,Western Union,Q861042
10b20eb4498cbe972f68992249f4b3ed,western_union,FICOHSA TENGO MELVIN RIVERA ROSA,,Azacualpa,SANTA BARBARA,,HN,+504 2239-6410,https://location.westernunion.com/hn/santa-barbara/azacualpa/10b20eb4498cbe972f68992249f4b3ed,Mo-Su 07:00-22:00,Western Union,Q861042
ec0ab5d6857fe7ea3bbc3aa7130fadd9,western_union,FICOHSA TENGO MELVIN RIVERA ROSA,,Azacualpa,SANTA BARBARA,,HN,+504 2239-6410,https://location.westernunion.com/hn/santa-barbara/azacualpa/ec0ab5d6857fe7ea3bbc3aa7130fadd9,Mo-Su 07:00-22:00,Western Union,Q861042
4441e576e9f48a5635b2b86164a54d1a,western_union,FICOHSA TENGO F SIMAN AZACUALPA 1,,Azacualpa,SANTA BARBARA,,HN,+504 3175-4456,https://location.westernunion.com/hn/santa-barbara/azacualpa/4441e576e9f48a5635b2b86164a54d1a,Mo-Fr 07:00-23:00; Sa 07:00-22:00; Su 07:00-21:00,Western Union,Q861042
aaab996b62749157d95c48bd0eb3f82d,western_union,FICOHSA TENGO F SIMAN AZACUALPA 1,,Azacualpa,SANTA BARBARA,,HN,+504 3175-4464,https://location.westernunion.com/hn/santa-barbara/azacualpa/aaab996b62749157d95c48bd0eb3f82d,Mo-Fr 07:00-23:00; Sa 07:00-22:00; Su 07:00-21:00,Western Union,Q861042
892001288de965210bd0a8c68857f94e,western_union,BP CORRESPONSAL LETICIA LICONA,,Azacualpa,SANTA BARBARA,,HN,+504 2509-2020,https://location.westernunion.com/hn/santa-barbara/azacualpa/892001288de965210bd0a8c68857f94e,Mo-Su 08:00-19:00,Western Union,Q861042
2c5c8b20f69d05b3d3813927f9c1f79f,western_union,BP CORRESPONSAL LETICIA LICONA,,Azacualpa,SANTA BARBARA,,HN,+504 2509-2020,https://location.westernunion.com/hn/santa-barbara/azacualpa/2c5c8b20f69d05b3d3813927f9c1f79f,Mo-Su 08:00-19:00,Western Union,Q861042
fd9bbb01c36a8d624b92056acf3c2620,western_union,BP CORRESPONSAL LUIS AGUILAR,,Azacualpa,SANTA BARBARA,,HN,+504 2509-2020,https://location.westernunion.com/hn/santa-barbara/azacualpa/fd9bbb01c36a8d624b92056acf3c2620,Mo-Su 08:00-19:00,Western Union,Q861042
8522e38d7a69d8f61353ab12147b6c3a,western_union,BP CORRESPONSAL LUIS AGUILAR,,Azacualpa,SANTA BARBARA,,HN,+504 2509-2020,https://location.westernunion.com/hn/santa-barbara/azacualpa/8522e38d7a69d8f61353ab12147b6c3a,Mo-Su 08:00-19:00,Western Union,Q861042
2ce6f46a5bcc3d9ab26281cdc27e3bee,western_union,FICOHSA TENGO HENRY ZELAYA LARA,,Azacualpa,SANTA BARBARA,,HN,+504 2239-6410,https://location.westernunion.com/hn/santa-barbara/azacualpa/2ce6f46a5bcc3d9ab26281cdc27e3bee,Mo-Su 07:00-22:00,Western Union,Q861042
25109913d067123a3961fe0445448d1b,western_union,FICOHSA TENGO HENRY ZELAYA LARA,,Azacualpa,SANTA BARBARA,,HN,+504 2239-6410,https://location.westernunion.com/hn/santa-barbara/azacualpa/25109913d067123a3961fe0445448d1b,Mo-Su 07:00-22:00,Western Union,Q861042
0a8b55c910b212fad7444dee65b2b1b4,western_union,FICOHSA TENGO ERLIN FELICITA PAZ,,Azacualpa,SANTA BARBARA,,HN,+504 2239-6410,https://location.westernunion.com/hn/santa-barbara/azacualpa/0a8b55c910b212fad7444dee65b2b1b4,Mo-Su 07:00-22:00,Western Union,Q861042
d885aa096a1a02ddee2d9882dd4fab16,western_union,FICOHSA TENGO ERLIN FELICITA PAZ,,Azacualpa,SANTA BARBARA,,HN,+504 2239-6410,https://location.westernunion.com/hn/santa-barbara/azacualpa/d885aa096a1a02ddee2d9882dd4fab16,Mo-Su 07:00-22:00,Western Union,Q861042
253e28fbb144cd16f1ad7adf354654ff,western_union,BP-CORRESPONSAL ROLDAN ZUNIGA,,Macuelizo,SANTA BARBARA,,HN,+504 2566-2020,https://location.westernunion.com/hn/santa-barbara/macuelizo/253e28fbb144cd16f1ad7adf354654ff,Mo-Fr 07:00-19:00; Sa 07:00-17:00,Western Union,Q861042
88ed6dfe408f003a36e9bd8db09bbdce,western_union,BP-CORRESPONSAL ROLDAN ZUNIGA,,Macuelizo,SANTA BARBARA,,HN,+504 2566-2020,https://location.westernunion.com/hn/santa-barbara/macuelizo/88ed6dfe408f003a36e9bd8db09bbdce,Mo-Fr 07:00-19:00; Sa 07:00-17:00,Western Union,Q861042
4fb9477efac191862ccaf5e0049b64a1,western_union,FICOHSA TENGO KIELSA K188,,Santa Barbara,SANTA BARBARA,,HN,+504 9688-5013,https://location.westernunion.com/hn/santa-barbara/santa-barbara/4fb9477efac191862ccaf5e0049b64a1,Mo-Su 07:00-22:00,Western Union,Q861042
6e0b653ad9ab472fba7c1afbfdf3e1ff,western_union,FICOHSA TENGO KIELSA K188,,Santa Barbara,SANTA BARBARA,,HN,+504 9688-5013,https://location.westernunion.com/hn/santa-barbara/santa-barbara/6e0b653ad9ab472fba7c1afbfdf3e1ff,Mo-Su 07:00-22:00,Western Union,Q861042
8d9ffda41ce6e5f6d5a4382c0b984624,western_union,BP CORRESPONSAL CESAR RODRIGUEZ,,Nueva Frontera,SANTA BARBARA,,HN,+504 2509-2020,https://location.westernunion.com/hn/santa-barbara/nueva-frontera/8d9ffda41ce6e5f6d5a4382c0b984624,Mo-Fr 07:00-17:00; Sa 07:00-15:00,Western Union,Q861042
0d9ded8e38650a38edb70057e2950f3f,western_union,BP CORRESPONSAL CESAR RODRIGUEZ,,Nueva Frontera,SANTA BARBARA,,HN,+504 2509-2020,https://location.westernunion.com/hn/santa-barbara/nueva-frontera/0d9ded8e38650a38edb70057e2950f3f,Mo-Fr 07:00-17:00; Sa 07:00-15:00,Western Union,Q861042
7bf5997f2e89466e34654dec290e8570,western_union,FICOHSA TENGO CESAR ALBERTO RODRIGUEZ,,Nueva Frontera,SANTA BARBARA,,HN,+504 2239-6410,https://location.westernunion.com/hn/santa-barbara/nueva-frontera/7bf5997f2e89466e34654dec290e8570,Mo-Su 07:00-22:00,Western Union,Q861042
0979806b264cc8dd1c9721b479d57a77,western_union,FICOHSA TENGO CESAR ALBERTO RODRIGUEZ,,Nueva Frontera,SANTA BARBARA,,HN,+504 2239-6410,https://location.westernunion.com/hn/santa-barbara/nueva-frontera/0979806b264cc8dd1c9721b479d57a77,Mo-Su 07:00-22:00,Western Union,Q861042
cd7097cd55c3edd69b7222498e144505,western_union,BP CORRESPONSAL VICTOR PORTILLO,,Nueva Frontera,SANTA BARBARA,,HN,+504 2509-2020,https://location.westernunion.com/hn/santa-barbara/nueva-frontera/cd7097cd55c3edd69b7222498e144505,Mo-Sa 07:00-17:00,Western Union,Q861042
758c7c194143e74438239d8ab390c6ef,western_union,BP CORRESPONSAL VICTOR PORTILLO,,Nueva Frontera,SANTA BARBARA,,HN,+504 2509-2020,https://location.westernunion.com/hn/santa-barbara/nueva-frontera/758c7c194143e74438239d8ab390c6ef,Mo-Sa 07:00-17:00,Western Union,Q861042
71c7b4ef1e1f4eecc224d1976a98bd21,western_union,FICOHSA TENGO VICTOR PORTILLO,,Nueva Frontera,SANTA BARBARA,,HN,+504 2239-6410,https://location.westernunion.com/hn/santa-barbara/nueva-frontera/71c7b4ef1e1f4eecc224d1976a98bd21,Mo-Su 07:00-22:00,Western Union,Q861042
41ce24d16ed1cf3c52190e52a9813bca,western_union,FICOHSA TENGO VICTOR PORTILLO,,Nueva Frontera,SANTA BARBARA,,HN,+504 2239-6410,https://location.westernunion.com/hn/santa-barbara/nueva-frontera/41ce24d16ed1cf3c52190e52a9813bca,Mo-Su 07:00-22:00,Western Union,Q861042
f40c9cccb5d51cab2d148bb156a1ad23,western_union,BP CORRESPONSAL KEIDY SANTOS,,Nueva Frontera,SANTA BARBARA,,HN,+504 2509-2020,https://location.westernunion.com/hn/santa-barbara/nueva-frontera/f40c9cccb5d51cab2d148bb156a1ad23,Mo-Sa 08:00-20:00; Su 10:00-15:00,Western Union,Q861042
b7ca76da0866987fb969d4e679d4eef7,western_union,BP CORRESPONSAL KEIDY SANTOS,,Nueva Frontera,SANTA BARBARA,,HN,+504 2509-2020,https://location.westernunion.com/hn/santa-barbara/nueva-frontera/b7ca76da0866987fb969d4e679d4eef7,Mo-Sa 08:00-20:00; Su 10:00-15:00,Western Union,Q861042
98164fbd0c6b082226520ee38f29695f,western_union,BP CORRESPONSAL NEPTALY AYALA,,Pinalejo,SANTA BARBARA,,HN,+504 2509-2020,https://location.westernunion.com/hn/santa-barbara/pinalejo/98164fbd0c6b082226520ee38f29695f,Mo-Su 07:30-19:00,Western Union,Q861042
0ed99aad393823a09b1d5e74a2aa929d,western_union,BP CORRESPONSAL NEPTALY AYALA,,Pinalejo,SANTA BARBARA,,HN,+504 2509-2020,https://location.westernunion.com/hn/santa-barbara/pinalejo/0ed99aad393823a09b1d5e74a2aa929d,Mo-Su 07:30-19:00,Western Union,Q861042
