Ref,Spider,Name,Address,City,State,Zipcode,Country,Phone,Website,Hours,Brand,WikiData
203052,bluerhino,CASEY'S GENERAL STORE #2547,,CARTHAGE,IL,,US,+1 217-357-9474,,,Blue Rhino,Q65681213
240306,bluerhino,Circle K #4701221,,Carthage,IL,,US,+1 217-357-0000,,,Blue Rhino,Q65681213
85529,citi,ATM UNITED COMMUNITY BANK 07,,Carthage,IL,,US,,,,Citibank,Q857063
85555,citi,ATM UNITED COMMUNITY BANK 07,,Carthage,IL,,US,,,,Citibank,Q857063
43767,citi,ATM Circle K,,Carthage,IL,,US,,,,Citibank,Q857063
55436,citi,ATM FIRST BANKERS TRUST COMPANY NA08,,Carthage,IL,,US,,,,Citibank,Q857063
55416,citi,ATM First Bankers Trust Company,,Carthage,IL,,US,,,,Citibank,Q857063
https://www.efaststop.com/store-locator/pv/3000/id/281,fast_stop_us,Carthage FAST STOP Express,,Carthage,IL,,US,+1 217-357-3996,https://www.efaststop.com/store-locator/pv/3000/id/281,,FAST STOP,Q116734101
https://www.efaststop.com/store-locator/pv/3000/id/280,fast_stop_us,Law Service and Repair,,Carthage,IL,,US,+1 217-357-6034,https://www.efaststop.com/store-locator/pv/3000/id/280,,FAST STOP,Q116734101
https://local.fedex.com/#25228312,fedex,,,Carthage,IL,,US,+1 800-463-3339,https://local.fedex.com/en-us/il/carthage/mpzae,,FedEx,Q459477
Motorcraft3168USAEnglish,ford,"Carson Ford, Inc.",,Illinois,IL,,US,+1 217-357-3154,,,Ford,Q44294
https://www.ford.com/dealerships/dealer-details/il/carthage/carson-ford-inc/,ford_dealers_us,"Carson Ford, Inc.",,Carthage,IL,,US,+1 217-604-2073,https://www.ford.com/dealerships/dealer-details/il/carthage/carson-ford-inc/,Mo-Fr 09:00-17:30; Sa 09:00-13:30,Ford Motor Company,Q44294
1501272,hardees_us,Hardee's,,Carthage,IL,,US,+1 217-340-0155,https://locations.hardees.com/il/carthage/123-n.-madison,,Hardee's,Q1585088
https://restaurants.subway.com/#14911551,subway,Subway,,Carthage Hancock,IL,,US,+1 217-357-3382,https://restaurants.subway.com/united-states/il/carthage/500-buchanan-st,Mo-Su 08:30-21:30,Subway,Q244457
1357153,usps,CARTHAGE,,CARTHAGE,IL,,US,+1 217-357-2725,,"Mo-Fr 09:00-12:30,13:30-16:30; Sa 08:30-11:00",United States Postal Service,Q668687
6232100016,usps_collection_boxes,USPS COLLECTION BOX - PO LOBBY,615 MAIN ST,CARTHAGE,IL,,US,,,,United States Postal Service,Q668687
6232100002,usps_collection_boxes,USPS COLLECTION BOX - BLUE BOX,615 MAIN ST,CARTHAGE,IL,,US,,,,United States Postal Service,Q668687
6232100010,usps_collection_boxes,USPS COLLECTION BOX - PO LOBBY,615 MAIN ST,CARTHAGE,IL,,US,,,,United States Postal Service,Q668687
6232100015,usps_collection_boxes,USPS COLLECTION BOX - BLUE BOX,630 LOCUST ST,CARTHAGE,IL,,US,,,,United States Postal Service,Q668687
6232100005,usps_collection_boxes,USPS COLLECTION BOX - BLUE BOX,500 MAIN ST,CARTHAGE,IL,,US,,,,United States Postal Service,Q668687
,visa,,,CARTHAGE,IL,,US,,,,,
,visa,,,CARTHAGE,IL,,US,,,,,
,visa,,,CARTHAGE,IL,,US,,,,,
,visa,,,CARTHAGE,IL,,US,,,,,
,visa,,,CARTHEGE,IL,,US,,,,,
,visa,,,CARTHAGE,IL,,US,,,,,
,visa,,,CARTHAGE,IL,,US,,,,,
,visa,,,CARTHAGE,IL,,US,,,,,
,visa,,,CARTHAGE,IL,,US,,,,,
,visa,,,CARTHAGE,IL,,US,,,,,
,visa,,,CARTHAGE,IL,,US,,,,,
,visa,,,QUINCY,IL,,US,,,,,
