Ref,Spider,Name,Address,City,State,Zipcode,Country,Phone,Website,Hours,Brand,WikiData
1741,first_cash,First Cash Pawn,,Comitán De Domínguez,Chiapas,,MX,+52 963 632 8409,,,First Cash Pawn,
7532,vertiche_mx,COMITAN,Calle Sur Oriente 5,Comitán,Chiapas,,MX,,,,Vertiche,Q113215945
,visa,,,COMITAN DE DOMINGUEZ,CHIAPAS,,MX,,,,,
,visa,,,COMITAN,CHIAPAS,,MX,,,,,
,visa,,,COMITAN DE DOMINGUEZ,CHIAPAS,,MX,,,,,
,visa,,,COMITAN DE DOMINGUEZ,CHIAPAS,,MX,,,,,
,visa,,,COMITAN DE DOMINGUEZ,CHIAPAS,,MX,,,,,
,visa,,,COMITAN,CHIAPAS,,MX,,,,,
,visa,,,COMITAN DE DOMINGUEZ,CHIAPAS,,MX,,,,,
,visa,,,COMITAN,CHIAPAS,,MX,,,,,
,visa,,,COMITAN,CHIAPAS,,MX,,,,,
,visa,,,COMITAN,CHIAPAS,,MX,,,,,
,visa,,,COMITAN DE DOMINGUEZ,CHIAPAS,,MX,,,,,
,visa,,,COMITAN,CHIAPAS,,MX,,,,,
f045e80213fbf282f2e90de56f67fd8a,western_union,FARM GUAD COMITAN CENTRO,,Comitan,CHIAPAS,,MX,+52 800 833 4700,https://location.westernunion.com/mx/chiapas/comitan/f045e80213fbf282f2e90de56f67fd8a,Mo-Su 08:00-22:00,Western Union,Q861042
dbd2fcb3fd850ea5db7362e0653d3ebb,western_union,FARM GUAD COMITAN CENTRO,,Comitan,CHIAPAS,,MX,+52 800 833 4700,https://location.westernunion.com/mx/chiapas/comitan/dbd2fcb3fd850ea5db7362e0653d3ebb,Mo-Su 08:00-22:00,Western Union,Q861042
7879928ba5da295679714ac9614b7df3,western_union,OXXO LA QUIJA TGZ,,Comitan,CHIAPAS,,MX,+52 81 8389 2121,https://location.westernunion.com/mx/chiapas/comitan/7879928ba5da295679714ac9614b7df3,Mo-Su 08:00-22:00,Western Union,Q861042
9d8374057810ce09c4943c366c9605b0,western_union,ELECZION COMITAN 1098,,Comitan,CHIAPAS,,MX,+52 55 5246 0700,https://location.westernunion.com/mx/chiapas/comitan/9d8374057810ce09c4943c366c9605b0,Mo-Su 06:30-23:30,Western Union,Q861042
44270982a88be4123ce0c8391f68980a,western_union,OXXO LA QUIJA TGZ,,Comitan,CHIAPAS,,MX,+52 81 8389 2121,https://location.westernunion.com/mx/chiapas/comitan/44270982a88be4123ce0c8391f68980a,Mo-Su 08:00-22:00,Western Union,Q861042
ae71c66e20e8a46649b9767b10a6e793,western_union,OXXO LA QUIJA TGZ,,Comitan,CHIAPAS,,MX,+52 81 8389 2121,https://location.westernunion.com/mx/chiapas/comitan/ae71c66e20e8a46649b9767b10a6e793,Mo-Su 08:00-22:00,Western Union,Q861042
a067935ee77243db9c71170fcc0f7e46,western_union,ELECZION COMITAN 1098,,Comitan,CHIAPAS,,MX,+52 55 5246 0700,https://location.westernunion.com/mx/chiapas/comitan/a067935ee77243db9c71170fcc0f7e46,Mo-Su 06:30-23:30,Western Union,Q861042
ae985e84b9835e001d1911d287182f7d,western_union,ELECZION COMITAN 1098,,Comitan,CHIAPAS,,MX,+52 55 5246 0700,https://location.westernunion.com/mx/chiapas/comitan/ae985e84b9835e001d1911d287182f7d,Mo-Su 06:30-23:30,Western Union,Q861042
5b6636079c6f3960c949a94a30c6b92d,western_union,OXXO MONTEBELLO TGZ,,Comitan,CHIAPAS,,MX,+52 81 8389 2121,https://location.westernunion.com/mx/chiapas/comitan/5b6636079c6f3960c949a94a30c6b92d,Mo-Su 08:00-22:00,Western Union,Q861042
9ddf4a1ca779f3294d1d70307934827b,western_union,OXXO MONTEBELLO TGZ,,Comitan,CHIAPAS,,MX,+52 81 8389 2121,https://location.westernunion.com/mx/chiapas/comitan/9ddf4a1ca779f3294d1d70307934827b,Mo-Su 08:00-22:00,Western Union,Q861042
b8c2f5e32e1fd5b91ec00632cd32cd91,western_union,OXXO MONTEBELLO TGZ,,Comitan,CHIAPAS,,MX,+52 81 8389 2121,https://location.westernunion.com/mx/chiapas/comitan/b8c2f5e32e1fd5b91ec00632cd32cd91,Mo-Su 08:00-22:00,Western Union,Q861042
977931c352559c6322bf15463d6b060e,western_union,OXXO COMITAN TGZ,,Comitan,CHIAPAS,,MX,+52 81 8389 2121,https://location.westernunion.com/mx/chiapas/comitan/977931c352559c6322bf15463d6b060e,Mo-Su 08:00-22:00,Western Union,Q861042
c4efd25f2e3aaea12c170d0d62327ac6,western_union,OXXO COMITAN TGZ,,Comitan,CHIAPAS,,MX,+52 81 8389 2121,https://location.westernunion.com/mx/chiapas/comitan/c4efd25f2e3aaea12c170d0d62327ac6,Mo-Su 08:00-22:00,Western Union,Q861042
a9a66ab02e16458cc9647bc57228e662,western_union,OXXO COMITAN TGZ,,Comitan,CHIAPAS,,MX,+52 81 8389 2121,https://location.westernunion.com/mx/chiapas/comitan/a9a66ab02e16458cc9647bc57228e662,Mo-Su 08:00-22:00,Western Union,Q861042
d5fcee5434ad4c40e0ab0325dcd2580d,western_union,ELEKTRA 2969,,Comitan,CHIAPAS,,MX,+52 55 1720 8177,https://location.westernunion.com/mx/chiapas/comitan/d5fcee5434ad4c40e0ab0325dcd2580d,Mo-Su 09:00-20:00,Western Union,Q861042
7e4ba2bc2c72d78d884a0d8e1a2a6cf4,western_union,ELEKTRA 2969,,Comitan,CHIAPAS,,MX,+52 55 1720 8177,https://location.westernunion.com/mx/chiapas/comitan/7e4ba2bc2c72d78d884a0d8e1a2a6cf4,Mo-Su 09:00-21:00,Western Union,Q861042
fc81a723915d0824c350e8a055cd75d5,western_union,ELEKTRA 2969,,Comitan,CHIAPAS,,MX,+52 55 1720 8177,https://location.westernunion.com/mx/chiapas/comitan/fc81a723915d0824c350e8a055cd75d5,Mo-Su 09:00-21:00,Western Union,Q861042
cb22af1084c3dad075d0478d40dec44f,western_union,BANORTE 03161 COMITAN CENTRO,,Comitan,CHIAPAS,,MX,+52 800 833 4700,https://location.westernunion.com/mx/chiapas/comitan/cb22af1084c3dad075d0478d40dec44f,Mo-Sa 09:00-17:00,Western Union,Q861042
0032c256976ce513dea8004b30c32012,western_union,BANORTE 03161 COMITAN CENTRO,,Comitan,CHIAPAS,,MX,+52 800 833 4700,https://location.westernunion.com/mx/chiapas/comitan/0032c256976ce513dea8004b30c32012,Mo-Sa 09:00-17:00,Western Union,Q861042
77742242170428be9d18620957140e22,western_union,FARM GUAD COMITAN CENTRO,,Comitan,CHIAPAS,,MX,+52 800 833 4700,https://location.westernunion.com/mx/chiapas/comitan/77742242170428be9d18620957140e22,Mo-Su 08:00-22:00,Western Union,Q861042
4bd2941802f5ad35eae7e070ea54107c,western_union,OXXO COLONIAL TGZ,,Comitan,CHIAPAS,,MX,+52 81 8389 2121,https://location.westernunion.com/mx/chiapas/comitan/4bd2941802f5ad35eae7e070ea54107c,Mo-Su 08:00-22:00,Western Union,Q861042
b9632a0a99be753c7135170e55f7da39,western_union,OXXO COLONIAL TGZ,,Comitan,CHIAPAS,,MX,+52 81 8389 2121,https://location.westernunion.com/mx/chiapas/comitan/b9632a0a99be753c7135170e55f7da39,Mo-Su 08:00-22:00,Western Union,Q861042
c29ff3b857c31e9e81ded720cc7ec059,western_union,OXXO COLONIAL TGZ,,Comitan,CHIAPAS,,MX,+52 81 8389 2121,https://location.westernunion.com/mx/chiapas/comitan/c29ff3b857c31e9e81ded720cc7ec059,Mo-Su 08:00-22:00,Western Union,Q861042
2919034215ff937b9ec5f546ba24dc40,western_union,ELEKTRA MOTOS COMITAN 2601,,Comitan,CHIAPAS,,MX,+52 55 1720 8177,https://location.westernunion.com/mx/chiapas/comitan/2919034215ff937b9ec5f546ba24dc40,Mo-Su 09:00-21:00,Western Union,Q861042
1b637ee95c70a85b0832051de4123130,western_union,ELEKTRA MOTOS COMITAN 2601,,Comitan,CHIAPAS,,MX,+52 55 1720 8177,https://location.westernunion.com/mx/chiapas/comitan/1b637ee95c70a85b0832051de4123130,Mo-Su 09:00-21:00,Western Union,Q861042
73703fa0e6c30c1bd662fe20638ec485,western_union,ELEKTRA MOTOS COMITAN 2601,,Comitan,CHIAPAS,,MX,+52 55 1720 8177,https://location.westernunion.com/mx/chiapas/comitan/73703fa0e6c30c1bd662fe20638ec485,Mo-Su 09:00-21:00,Western Union,Q861042
ce1cb4982fa4873c5e463399563a001e,western_union,ELECZION COMITAN 1343,,Comitan,CHIAPAS,,MX,+52 55 5246 0700,https://location.westernunion.com/mx/chiapas/comitan/ce1cb4982fa4873c5e463399563a001e,Mo-Su 06:30-23:30,Western Union,Q861042
7108f07eb57c965b0b3f6b63d3793692,western_union,AURRERA COMITAN 1088,,Comitan,CHIAPAS,,MX,+52 800 833 4700,https://location.westernunion.com/mx/chiapas/comitan/7108f07eb57c965b0b3f6b63d3793692,Mo-Su 07:00-23:00,Western Union,Q861042
213f62f5e29ebc26f32eab80ac38ef45,western_union,AURRERA COMITAN 1088,,Comitan,CHIAPAS,,MX,+52 800 833 4700,https://location.westernunion.com/mx/chiapas/comitan/213f62f5e29ebc26f32eab80ac38ef45,Mo-Su 07:00-23:00,Western Union,Q861042
0feaaf3a206ffda553ce2a76ddff3beb,western_union,DUNOSUSA CHIAPAS COMITAN 3,,Comitan,CHIAPAS,,MX,+52 999 940 6060,https://location.westernunion.com/mx/chiapas/comitan/0feaaf3a206ffda553ce2a76ddff3beb,Mo-Su 07:00-21:00,Western Union,Q861042
55a146cdd37dc7d24d3c1a2a079d45eb,western_union,DUNOSUSA CHIAPAS COMITAN 3,,Comitan,CHIAPAS,,MX,+52 999 940 6060,https://location.westernunion.com/mx/chiapas/comitan/55a146cdd37dc7d24d3c1a2a079d45eb,Mo-Su 07:00-21:00,Western Union,Q861042
01988278847470b11af333bc2c9a8220,western_union,MODATELAS 58 AP CASH,,Comitan,CHIAPAS,,MX,+52 961 632 1334,https://location.westernunion.com/mx/chiapas/comitan/01988278847470b11af333bc2c9a8220,Mo-Su 08:00-20:00,Western Union,Q861042
0bff6e6dd6f680ec4e4779c4788ea195,western_union,MODATELAS 58 AP CASH,,Comitan,CHIAPAS,,MX,+52 961 632 1334,https://location.westernunion.com/mx/chiapas/comitan/0bff6e6dd6f680ec4e4779c4788ea195,Mo-Su 08:00-20:00,Western Union,Q861042
fc2ab7254c228fe3bd708817745362d5,western_union,MODATELAS 58 AP CASH,,Comitan,CHIAPAS,,MX,+52 961 632 1334,https://location.westernunion.com/mx/chiapas/comitan/fc2ab7254c228fe3bd708817745362d5,Mo-Su 08:00-20:00,Western Union,Q861042
2ee6a88cfeb76cee0e8b2cd60cba7b25,western_union,OXXO INTERNACIONAL TGZ,,Comitan,CHIAPAS,,MX,+52 81 8389 2121,https://location.westernunion.com/mx/chiapas/comitan/2ee6a88cfeb76cee0e8b2cd60cba7b25,Mo-Su 08:00-22:00,Western Union,Q861042
a3604cd6fb1110e2fc8a79542c29c5a4,western_union,OXXO INTERNACIONAL TGZ,,Comitan,CHIAPAS,,MX,+52 81 8389 2121,https://location.westernunion.com/mx/chiapas/comitan/a3604cd6fb1110e2fc8a79542c29c5a4,Mo-Su 08:00-22:00,Western Union,Q861042
8e75e9da78c0d93d609e6dabf3f2fb49,western_union,OXXO INTERNACIONAL TGZ,,Comitan,CHIAPAS,,MX,+52 81 8389 2121,https://location.westernunion.com/mx/chiapas/comitan/8e75e9da78c0d93d609e6dabf3f2fb49,Mo-Su 08:00-22:00,Western Union,Q861042
38b77b905e539dbfafe84fc6a4373a62,western_union,BANORTE 03160 COMITAN BOULEVARD,,Comitan,CHIAPAS,,MX,+52 800 833 4700,https://location.westernunion.com/mx/chiapas/comitan/38b77b905e539dbfafe84fc6a4373a62,Mo-Fr 09:00-17:00,Western Union,Q861042
f3eb37cce79104fa05298c24f2772332,western_union,BANORTE 03160 COMITAN BOULEVARD,,Comitan,CHIAPAS,,MX,+52 800 833 4700,https://location.westernunion.com/mx/chiapas/comitan/f3eb37cce79104fa05298c24f2772332,Mo-Fr 09:00-17:00,Western Union,Q861042
c8b4b2f90e0f31b3d6728e1725e2f528,western_union,ELECZION COMITAN 1343,,Comitan,CHIAPAS,,MX,+52 55 5246 0700,https://location.westernunion.com/mx/chiapas/comitan/c8b4b2f90e0f31b3d6728e1725e2f528,Mo-Su 06:30-23:30,Western Union,Q861042
6c25a1ee802ec4b8c81da31014304726,western_union,OXXO TENAM TGZ,,Comitan,CHIAPAS,,MX,+52 81 8389 2121,https://location.westernunion.com/mx/chiapas/comitan/6c25a1ee802ec4b8c81da31014304726,Mo-Su 08:00-22:00,Western Union,Q861042
7e450a2a4baa70bb4bb73e7d61109aa3,western_union,OXXO TENAM TGZ,,Comitan,CHIAPAS,,MX,+52 81 8389 2121,https://location.westernunion.com/mx/chiapas/comitan/7e450a2a4baa70bb4bb73e7d61109aa3,Mo-Su 08:00-22:00,Western Union,Q861042
6d400799dca4b84ff31a3b6207d0e79e,western_union,OXXO TENAM TGZ,,Comitan,CHIAPAS,,MX,+52 81 8389 2121,https://location.westernunion.com/mx/chiapas/comitan/6d400799dca4b84ff31a3b6207d0e79e,Mo-Su 08:00-22:00,Western Union,Q861042
301798bd79047e31ee20d968f6368a1f,western_union,ELECZION COMITAN 1343,,Comitan,CHIAPAS,,MX,+52 55 5246 0700,https://location.westernunion.com/mx/chiapas/comitan/301798bd79047e31ee20d968f6368a1f,Mo-Su 06:30-23:30,Western Union,Q861042
