Ref,Spider,Name,Address,City,State,Zipcode,Country,Phone,Website,Hours,Brand,WikiData
https://locations.99only.com/az/lakehavasu/discount-store-314.html,99_cents_only_us,99 Cents Only Stores,,Lake Havasu,AZ,,US,+1 928-505-3099,https://locations.99only.com/az/lakehavasu/discount-store-314.html,Mo 08:00-21:00; Tu 07:00-21:00; We 08:00-21:00; Th 07:00-21:00; Fr-Su 08:00-21:00,99 Cents Only Stores,Q4646294
https://local.pharmacy.albertsons.com/#5672592,albertsons,Albertsons Pharmacy,,Lake Havasu City,AZ,,US,+1 928-854-8281,https://local.pharmacy.albertsons.com/az/lake-havasu-city/1980-mcculloch-blvd.html,,Albertsons,Q2831861
https://local.albertsons.com/#5603312,albertsons,Albertsons,,Lake Havasu City,AZ,,US,+1 928-854-5300,https://local.albertsons.com/az/lake-havasu-city/1980-mcculloch-blvd.html,,Albertsons,Q2831861
/locations/propane-offices/arizona/lake-havasu-city/1101-north-lake-havasu-ave,amerigas,"AmerGas Propane | Lake Havasu City, Arizona",,Lake Havasu City,AZ,,US,+1 800-427-1158,/locations/propane-offices/arizona/lake-havasu-city/1101-north-lake-havasu-ave,,AmeriGas,Q23130318
1077,anytime_fitness,Anytime Fitness,,Lake Havasu City,AZ,,US,+1 928-302-3883,https://www.anytimefitness.com/gyms/1077/lake-havasu-city-az-86403/,,Anytime Fitness,Q4778364
https://locations.arbys.com/az/lakehavasucity/240-swanson-ave.html,arbys_us,"Arby's Fast-Food Drive Through Near You in Lake Havasu City, AZ",,Lake Havasu City,AZ,,US,+1 928-453-2255,https://locations.arbys.com/az/lakehavasucity/240-swanson-ave.html,Mo-Th 09:00-22:30; Fr-Sa 09:00-23:30; Su 10:00-22:00,Arby's,Q630866
https://stores.ashleyfurniture.com/store/us/arizona/lake-havasu-city/7710000024/,ashley_furniture,"Ashley Store Lake Havasu City, AZ",,Lake Havasu City,AZ,,US,+1 928-846-4376,https://stores.ashleyfurniture.com/store/us/arizona/lake-havasu-city/7710000024/,,Ashley Furniture,Q4805437
5303,autozone_us,AutoZone Auto Parts Lake Havasu City,,Lake Havasu City,AZ,,US,+1 928-680-7601,https://www.autozone.com/locations/az/lake-havasu-city/241-lake-havasu-ave-s.html,Mo-Sa 07:00-21:00; Su 07:30-21:00,AutoZone,Q4826087
https://locators.bankofamerica.com/az/lakehavasucity/atm-lake-havasu-city-107510.html,bankofamerica,Bank of America Walk-Up ATM | Lake Havasu City,,Lake Havasu City,AZ,,US,+1 844-401-8500,https://locators.bankofamerica.com/az/lakehavasucity/atm-lake-havasu-city-107510.html,,Bank of America,Q487907
https://locations.baskinrobbins.com/az/lake-havasu-city/85-lake-havasu-ave-n-356018-br,baskin_robbins_us,Baskin-Robbinsâ„¢,,Lake Havasu City,AZ,,US,+1 928-846-8466,https://locations.baskinrobbins.com/az/lake-havasu-city/85-lake-havasu-ave-n-356018-br,Mo-Fr 04:30-21:00; Sa-Su 05:00-21:00,Baskin-Robbins,Q584601
https://local.biglots.com/#13191112,biglots,Big Lots - Lake Havasu City,,Lake Havasu City,AZ,,US,+1 928-453-4967,https://local.biglots.com/az/lake-havasu-city/1799-kiowa-ave,Mo-Sa 09:00-21:00; Su 10:00-19:00,Big Lots,Q4905973
238755,bluerhino,Circle K #2706674,,Lake Havasu City,AZ,,US,+1 928-453-8762,,,Blue Rhino,Q65681213
238753,bluerhino,Circle K #2701473,,Lake Havasu City,AZ,,US,+1 928-680-5679,,,Blue Rhino,Q65681213
204251,bluerhino,Gurudev LLC dba Arco #42409,,Lake Havaus,AZ,,US,+1 760-835-5271,,,Blue Rhino,Q65681213
177377,bluerhino,Zip,,Lake Havasu City,AZ,,US,+1 928-453-6568,,,Blue Rhino,Q65681213
212881,bluerhino,London Bridge Chevron,,Lake Havasu City,AZ,,US,+1 480-209-9677,,,Blue Rhino,Q65681213
156218,bluerhino,Walgreens #5208,,Lake Havasu City,AZ,,US,+1 928-453-2808,,,Blue Rhino,Q65681213
146957,bluerhino,Do It Best - Havasu Hardware #0330,,Lake Havasu City,AZ,,US,+1 928-855-2120,,,Blue Rhino,Q65681213
172405,bluerhino,Family Dollar #06559,,Lake Havasu City,AZ,,US,+1 928-453-1200,,,Blue Rhino,Q65681213
57116,bluerhino,Smiths Food & Drug 188,,Lake Havasu City,AZ,,US,+1 928-680-7277,,,Blue Rhino,Q65681213
186240,bluerhino,Smith's Food & Drug #188 - Fuel Site,,Lake Havasu City,AZ,,US,+1 928-680-7277,,,Blue Rhino,Q65681213
LKHAAZYD,builders_firstsource_us,Lake Havasu City AZ Yard,,Lake Havasu City,AZ,,US,+1 928-855-4061,https://www.bldr.com/location/lake-havasu-city-az-yard/LKHAAZYD,Mo-Fr 06:00-15:00,Builders FirstSource,Q27686100
2043242,chase_us,Lake Havasu Financial - New branch,,Lake Havasu City,AZ,,US,+1 928-855-3031,https://locator.chase.com/az/lake-havasu-city/1895-mcculloch-blvd,Mo-Fr 09:00-17:00; Sa 09:00-13:00,Chase,Q524629
2043243,chase_us,Lake Havasu North - New branch,,Lake Havasu City,AZ,,US,+1 928-855-9101,https://locator.chase.com/az/lake-havasu-city/1799-n-kiowa-blvd,Mo-Fr 09:00-17:00; Sa 09:00-13:00,Chase,Q524629
39287,chevrolet,BRADLEY CHEVROLET,,Lake Havasu City,AZ,,US,+1 888-522-6150,https://www.bradleychevrolet.com,Mo-Fr 08:00-19:00; Sa 08:00-17:00,Chevrolet,Q29570
306078,chevron,Chevron Station #306078,250 SWANSON DRIVE,LAKE HAVASU CITY,AZ,,US,+1 928-453-8746,,,Chevron,Q319642
305657,chevron,Texaco Station #305657,1571 S. PALO VERDE,LAKE HAVASU CITY,AZ,,US,+1 928-453-1101,,,Chevron,Q319642
001.005.1049,chilis,Lake Havasu,,Lake Havasu City,AZ,,US,+1 928-854-5450,https://www.chilis.com/locations/us/arizona/lake-havasu-city/lake-havasu/,Mo-Th 11:00-22:00; Fr-Sa 11:00-23:00; Su 11:00-22:00,Chili's,Q1072948
az_lake-havasu-city_55-lake-havasu-ave-s,chipotle, ,,Lake Havasu City,AZ,,US,+1 928-680-0540,https://locations.chipotle.com/az/lake-havasu-city/55-lake-havasu-ave-s,,Chipotle,Q465751
41075,citi,ATM Circle K,,Lake Havasu,AZ,,US,,,,Citibank,Q857063
41117,citi,ATM Circle K,,Lake Havasu,AZ,,US,,,,Citibank,Q857063
52701,citi,ATM CVS,,Lake Havasu City,AZ,,US,,,,Citibank,Q857063
89370,citi,ATM Walgreens,,Lake Havasu City,AZ,,US,,,,Citibank,Q857063
70235272,cricket_wireless,Cricket Wireless Authorized Retailer,,Lake Havasu City,AZ,,US,+1 928-855-2460,https://www.cricketwireless.com/stores/ll/US/AZ/Lake-Havasu-City/55-Lake-Havasu-Ave-S,Mo-Fr 10:00-19:00; Sa 10:00-18:00; Su 11:00-16:00,Cricket Wireless,Q5184987
579,culvers_us,"Culver's of Lake Havasu City, AZ - Countryshire Ave",,Lake Havasu City,AZ,,US,+1 928-733-6192,http://www.culvers.com/restaurants/lake-havasu-city-az-countryshire-ave,Mo-Fr 10:00-22:00; Su 10:00-22:00,Culver's,Q1143589
7022,cvs_us,CVS Pharmacy,,Lake Havasu City,AZ,,US,+1 928-854-6300,https://www.cvs.com/store-locator/lake-havasu-city-az-pharmacies/75-n-lake-havasu-ave-lake-havasu-city-az-86403/storeid=7022,Mo-Su 07:00-23:00,CVS Pharmacy,Q2078880
247085,dennys,Denny's,,Lake Havasu City,AZ,,US,+1 928-855-4776,https://locations.dennys.com/AZ/LAKE-HAVASU-CITY/247085,24/7,Denny's,Q1189695
vc_0536V,department_veterans_affairs,Lake Havasu Vet Center,,Lake Havasu,AZ,,US,+1 928-505-0394,https://www.va.gov/lake-havasu-vet-center/,,Department Veterans Affairs,Q592576
7682,dominos_pizza_us,Domino's Pizza,,Lake Havasu City,AZ,,US,+1 928-680-1800,https://pizza.dominos.com/arizona/lake-havasu-city/491-n-lake-havasu-ave,Mo-Th 10:00-01:00; Fr-Sa 10:00-02:00; Su 10:00-01:00,Domino's,Q839466
356018,dunkin_us,Dunkin',,Lake Havasu City,AZ,,US,+1 928-846-8466,https://locations.dunkindonuts.com/en/az/lake-havasu-city/85-lake-havasu-ave-n/356018,Mo-Fr 04:30-21:00; Sa-Su 05:00-21:00,Dunkin',Q847743
DB789,dutchbros,McCulloch,,Lake Havasu City,AZ,,US,,https://locations.dutchbros.com/dutch-bros-coffee-f5969774a3eb,Mo-Th 05:00-22:00; Fr-Sa 05:00-23:00; Su 05:00-22:00,Dutch Bros. Coffee,Q5317253
https://www.edwardjones.com/us-en/financial-advisor/scott-hartman,edwardjones,Scott M Hartman,,Lake Havasu City,AZ,,US,+1 928-680-7800,https://www.edwardjones.com/us-en/financial-advisor/scott-hartman,,Edward Jones,Q5343830
3801,elpolloloco,El Pollo Loco,,Lake Havasu,AZ,,US,+1 928-733-6235,,,El Pollo Loco,Q2353849
E150BU,enterprise,Lake Havasu City,,Lake Havasu City,AZ,,US,+1 928-453-0033,,,Enterprise Rent-A-Car,Q17085454
Motorcraft1636USAEnglish,ford,Bradley Ford Lincoln,,Arizona,AZ,,US,+1 928-855-1191,,,Ford,Q44294
https://www.ford.com/dealerships/dealer-details/az/lake-havasu-city/bradley-ford-of-lake-havasu-city/,ford_dealers_us,Bradley Ford of Lake Havasu City,,Lake Havasu City,AZ,,US,+1 760-858-6401,https://www.ford.com/dealerships/dealer-details/az/lake-havasu-city/bradley-ford-of-lake-havasu-city/,Mo-Fr 08:00-19:00; Sa 08:00-17:00,Ford Motor Company,Q44294
6266,fresenius_kidney_care_us,Fresenius Kidney Care Lake Havasu,,Lake Havasu City,AZ,,US,+1 800-881-5101,https://www.freseniuskidneycare.com/dialysis-centers/arizona/6266,Mo-Sa 06:00-17:00,,
f784d499-32cf-e411-b4ab-0050568924e6,goodwill,1990 McCulloch Blvd,,Lake Havasu City,AZ,,US,+1 928-302-3631,https://www.goodwill.org/locator/location/?store=Zjc4NGQ0OTktMzJjZi1lNDExLWI0YWItMDA1MDU2ODkyNGU2&lat=MzQuNDczODI=&lng=LTExNC4zNDQ1OQ==,,Goodwill,Q5583655
88137ce1-458a-e111-8dde-005056934050,goodwill,South Lake Havasu RDC,,Lake Havasu City,AZ,,US,+1 928-453-2772,https://www.goodwill.org/locator/location/?store=ODgxMzdjZTEtNDU4YS1lMTExLThkZGUtMDA1MDU2OTM0MDUw&lat=MzQuNDYwNTc=&lng=LTExNC4zMzIwNw==,,Goodwill,Q5583655
7630004d-f2e5-ed11-810c-00505689ac90,goodwill,3273 Maricopa Ave.,,Lake Havasu City,AZ,,US,(982) 466-7030,https://www.goodwill.org/locator/location/?store=NzYzMDAwNGQtZjJlNS1lZDExLTgxMGMtMDA1MDU2ODlhYzkw&lat=MzQuNDU5MTU=&lng=LTExNC4yNzgwOA==,,Goodwill,Q5583655
https://www.habitburger.com/locations/lake-havasu-dt/,habit_burger,The Habit Burger Grill,,Lake Havasu,AZ,,US,+1 928-302-2939,https://www.habitburger.com/locations/lake-havasu-dt/,Mo-Th 10:30-22:00; Fr-Sa 10:30-23:00; Su 10:30-22:00,The Habit Burger Grill,Q18158741
https://www.harborfreight.com/storelocator/1641-mcculloch-blvd-n-ste-17-lake-havasu-city-86403?number=592,harborfreight,"Harbor Freight Tools Lake Havasu City, AZ",,Lake Havasu City,AZ,,US,+1 928-453-4367,https://www.harborfreight.com/storelocator/1641-mcculloch-blvd-n-ste-17-lake-havasu-city-86403?number=592,Mo-Sa 08:00-20:00; Su 09:00-18:00,Harbor Freight Tools,Q5654601
igmakht-home2-suites-lake-havasu-city,hilton,Home2 Suites by Hilton Lake Havasu City,,,AZ,,US,+1 928-680-8666,https://www.hilton.com/ar/hotels/igmakht-home2-suites-lake-havasu-city/,,Home2 Suites by Hilton,Q5887912
17191,h_r_block,H&R Block,,Lake Havasu City,AZ,,US,+1 928-566-6152,https://www.hrblock.com/local-tax-offices/arizona/lake-havasu-city/55-s-lake-havasu-ave/17191/,,H&R Block,Q5627799
az_lake-havasu-city_breakfast-101-paseo-del-sol-3033,ihop,IHOP Breakfast Restaurants Near You at 101 Paseo Del Sol,,Lake Havasu City,AZ,,US,+1 928-854-6501,https://restaurants.ihop.com/en-us/az/lake-havasu-city/breakfast-101-paseo-del-sol-3033,,IHOP,Q1185675
143,innout,Lake Havasu City,,Lake Havasu City,AZ,,US,,http://locations.in-n-out.com/143,,In-N-Out Burger,Q1205312
https://locations.jackinthebox.com/us/az/lake-havasu-city/30-s-lake-havasu-ave,jackinthebox,Jack in the Box,,Lake Havasu City,AZ,,US,+1 928-855-1145,https://locations.jackinthebox.com/us/az/lake-havasu-city/30-s-lake-havasu-ave,Mo-Th 06:00-22:00; Fr-Sa 06:00-00:00; Su 06:00-22:00,Jack in the Box,Q1538507
https://locations.jimmyjohns.com/az/lakehavasucity/sandwiches-2739.html,jimmy_johns,Jimmy John's,,Lake Havasu City,AZ,,US,+1 928-505-3278,https://locations.jimmyjohns.com/az/lakehavasucity/sandwiches-2739.html,,Jimmy John's,Q1689380
https://locations.kfc.com/#11247767,kfc,Chicken Nuggets Near Lake Havasu City,,Lake Havasu City,AZ,,US,,https://locations.kfc.com/az/lake-havasu-city/195-north-lake-havasu-avenue/chickennugget,Mo-Su 10:00-21:30,KFC,Q524757
241721,marathon_petroleum_us,Oasis Food Mart,,Lake Havasu,AZ,,US,+1 928-453-9000,,,Marathon,Q458363
286025,marathon_petroleum_us,ARCO #42409,,Lake Havasu City,AZ,,US,+1 928-453-3832,,,Arco,Q304769
44747345,moneygram,ACE CASH EXPRESS - #1277,,LAKE HAVASU CITY,AZ,,US,+1 928-854-4447,,Mo-Fr 09:00-19:00; Sa 09:00-17:00; Su 00:00-24:00,MoneyGram,Q1944412
112229,pandaexpress,Lake Havasu & Palo Verde,,Lake Havasu City,AZ,,US,+1 928-453-0012,https://www.pandaexpress.com/locations/az/lake-havasu-city/205-n-lake-havasu-ave,Mo-Sa 09:30-22:00; Su 09:30-21:30,Panda Express,Q1358690
https://locations.papamurphys.com/#15430074,papamurphys,Pizza Takeout & Delivery,,Lake Havasu City,AZ,,US,+1 928-855-9799,https://locations.papamurphys.com/az/lake-havasu-city/2231-mcculloch-boulevard,Mo-Th 10:00-20:00; Fr-Sa 10:00-21:00; Su 10:00-20:00,Papa Murphy's,Q7132349
https://locations.papajohns.com/#10693528,papa_johns,Papa John's,,Lake Havasu City,AZ,,US,+1 928-854-5252,https://locations.papajohns.com/united-states/az/86403/lake-havasu-city/1630-mcculloch-blvd-n,Mo-Th 10:30-23:00; Fr-Sa 10:30-23:30; Su 10:30-23:00,Papa John's Pizza,Q2759586
0000876286,phillips_66_conoco_76,CAMPBELL COVE ONE STOP,,LAKE HAVASU CITY,AZ,,US,+1 928-854-6608,,,U76,Q1658320
0000913253,phillips_66_conoco_76,FAST GAS,,LAKE HAVASU CITY,AZ,,US,+1 760-590-1797,,,U76,Q1658320
2938,rentacenter,Rent-A-Center,,Lake Havasu City,AZ,,US,+1 928-453-6531,https://locations.rentacenter.com/arizona/lake-havasu-city/1641-mcculloch-blvd-n/,Mo-Fr 10:00-18:00; Sa 09:00-18:00,Rent-A-Center,Q7313497
1510,ross_dress_for_less_us,Lake Havasu,,Lake Havasu City,AZ,,US,+1 928-453-1116,,Mo-Sa 08:00-22:00; Su 08:30-21:00,Ross Dress for Less,Q3442791
https://local.pharmacy.safeway.com/#5673470,safeway,Safeway Pharmacy,,Lake Havasu City,AZ,,US,+1 928-855-9200,https://local.pharmacy.safeway.com/safeway/az/lake-havasu-city/1650-mcculloch-blvd-n.html,,Safeway,Q1508234
https://local.safeway.com/#5604357,safeway,Safeway,,Lake Havasu City,AZ,,US,+1 928-855-7760,https://local.safeway.com/safeway/az/lake-havasu-city/1650-mcculloch-blvd-n.html,,Safeway,Q1508234
1851-kiowa-ave,staples,"Staples Lake Havasu City, AZ",,Lake Havasu City,AZ,,US,,https://stores.staples.com/az/lake-havasu-city/1851-kiowa-ave,Mo-Fr 08:00-21:00; Sa 09:00-20:00; Su 10:00-18:00,Staples,Q785943
https://restaurants.subway.com/#14896849,subway,Subway,,Lake Havasu City Mohave,AZ,,US,+1 928-680-0013,https://restaurants.subway.com/united-states/az/lake-havasu-city/20-acoma-blvd,Mo-Su 08:00-21:00,Subway,Q244457
https://restaurants.subway.com/#14896839,subway,Subway Havasu North Shopping Center,,Lake Havasu City Mohave,AZ,,US,+1 928-855-8212,https://restaurants.subway.com/united-states/az/lake-havasu-city/1799-kiowa-avenue,Mo-Su 08:00-21:00,Subway,Q244457
https://locations.tacobell.com/#6143515,taco_bell,Taco Bell,,Lake Havasu City,AZ,,US,+1 928-453-3616,https://locations.tacobell.com/az/lake-havasu-city/44-n-lake-havasu-ave.html,Mo-Th 06:00-01:00; Fr-Sa 06:00-02:00; Su 06:00-01:00,Taco Bell,Q752941
1WSR,tmobile_us,Lake Havasu Ave & AZ 95,,Lake Havasu City,AZ,,US,+1 928-263-6575,https://www.t-mobile.com/store-locator/az/lake-havasu-city/lake-havasu-ave-az-95,,T-Mobile,Q3511885
1037671,uhaul,Essential Lk Havasu LLC,1520 Acoma Lane W,Lake Havasu City,AZ,,US,+1 734-475-8888,,,U-Haul,Q7862902
050040,uhaul,Dawns Auto Repair,681 Lake Havasu Ave N,Lake Havasu City,AZ,,US,+1 928-453-1805,,Mo-Fr 00:00-14:00; Sa 00:00-13:00; Su 00:00-24:00,U-Haul,Q7862902
008588,uhaul,Patriot Swimwear And Apparel,1799 Kiowa Ave Ste 111,Lake Havasu City,AZ,,US,+1 928-846-8538,,Mo-Fr 00:00-17:00; Sa 00:00-14:00,U-Haul,Q7862902
5485,upsstore,Lake Havasu City,55 Lake Havasu Ave S Ste F,Lake Havasu City,AZ,,US,+1 928-854-4877,https://locations.theupsstore.com/az/lake-havasu-city/55-lake-havasu-ave-s,,UPS Store,Q7771029
1369587,usps,LAKE HAVASU CITY,,LAKE HAVASU CITY,AZ,,US,+1 928-855-2361,,Mo-Fr 09:00-17:00; Sa 09:00-13:00,United States Postal Service,Q668687
8640300022,usps_collection_boxes,USPS COLLECTION BOX - BLUE BOX,1799 KIOWA AVE,LK HAVASU CTY,AZ,,US,,,,United States Postal Service,Q668687
8640300033,usps_collection_boxes,USPS COLLECTION BOX - BLUE BOX,2001 COLLEGE DR,LK HAVASU CTY,AZ,,US,,,,United States Postal Service,Q668687
8640300037,usps_collection_boxes,USPS COLLECTION BOX - PO LOBBY,1750 MCCULLOCH BLVD N,LK HAVASU CTY,AZ,,US,,,,United States Postal Service,Q668687
8640300008,usps_collection_boxes,USPS COLLECTION BOX - BLUE BOX,1750 MCCULLOCH BLVD N,LK HAVASU CTY,AZ,,US,,,,United States Postal Service,Q668687
8640300001,usps_collection_boxes,USPS COLLECTION BOX - BLUE BOX,1750 MCCULLOCH BLVD N,LK HAVASU CTY,AZ,,US,,,,United States Postal Service,Q668687
8640300028,usps_collection_boxes,USPS COLLECTION BOX - EXPRESS,1750 MCCULLOCH BLVD N,LK HAVASU CTY,AZ,,US,,,,United States Postal Service,Q668687
8640300029,usps_collection_boxes,USPS COLLECTION BOX - PO LOBBY,1750 MCCULLOCH BLVD N,LK HAVASU CTY,AZ,,US,,,,United States Postal Service,Q668687
8640300005,usps_collection_boxes,USPS COLLECTION BOX - BLUE BOX,80 ACOMA BLVD N,LK HAVASU CTY,AZ,,US,,,,United States Postal Service,Q668687
A00000252830,verizon_us,Victra Lake Havasu City Sunset Plaza,,LAKE HAVASU CITY,AZ,,US,+1 928-505-6772,https://www.verizon.com/stores/details/arizona/lake-havasu-city/gowireless-lake-havasu-city-sunset-plaza-1587222/,Mo-Sa 09:00-19:00; Su 10:00-19:00,Verizon,Q919641
,visa,,,CHANDLER,AZ,,US,,,,,
,visa,,,PHOENIX,AZ,,US,,,,,
,visa,,,LAKE HAVASU,AZ,,US,,,,,
,visa,,,LAKE HAVASU CITY,AZ,,US,,,,,
,visa,,,LAKE HAVASU,AZ,,US,,,,,
,visa,,,LAKE HAVASU,AZ,,US,,,,,
,visa,,,LAKE HAVASU CITY,AZ,,US,,,,,
,visa,,,LAKE HAVASU CITY,AZ,,US,,,,,
,visa,,,LAKE HAVASU CITY,AZ,,US,,,,,
,visa,,,LAKE HAVASU CITY,AZ,,US,,,,,
,visa,,,LAKE HAVASU,AZ,,US,,,,,
,visa,,,LAKE HAVASU,AZ,,US,,,,,
,visa,,,BULLHEAD CITY,AZ,,US,,,,,
,visa,,,LAKE HAVASU CITY,AZ,,US,,,,,
,visa,,,LAKE HAVASU CITY,AZ,,US,,,,,
,visa,,,LAKE HAVASU,AZ,,US,,,,,
,visa,,,LAKE HAVASU CITY,AZ,,US,,,,,
,visa,,,LAKE HAVASU CITY,AZ,,US,,,,,
,visa,,,LAKE HAVASU CITY,AZ,,US,,,,,
,visa,,,LAKE HAVASU CITY,AZ,,US,,,,,
,visa,,,LAKE HAVASU CITY,AZ,,US,,,,,
,visa,,,LAKE HAVASU CITY,AZ,,US,,,,,
,visa,,,LAKE HAVASU CITY,AZ,,US,,,,,
,visa,,,LAKE HAVASU CITY,AZ,,US,,,,,
,visa,,,LAKE HAVASU CITY,AZ,,US,,,,,
,visa,,,LAKE HAVASU,AZ,,US,,,,,
,visa,,,LAKE HAVASU CITY,AZ,,US,,,,,
,visa,,,LAKE HAVASU CITY,AZ,,US,,,,,
,visa,,,LAKE HAVASU CITY,AZ,,US,,,,,
,visa,,,LAKE HAVASU CITY,AZ,,US,,,,,
,visa,,,ARIZONA,AZ,,US,,,,,
,visa,,,ARIZONA,AZ,,US,,,,,
,visa,,,LAKE HAVASU CITY,AZ,,US,,,,,
,visa,,,ARIZONA,AZ,,US,,,,,
,visa,,,LAKE HAVASU CITY,AZ,,US,,,,,
,visa,,,LAKE HAVASU,AZ,,US,,,,,
,visa,,,LAKE HAVASU CITY,AZ,,US,,,,,
,visa,,,LAKE HAVASU,AZ,,US,,,,,
,visa,,,LAKE HAVASU,AZ,,US,,,,,
,visa,,,LAKE HAVASU CITY,AZ,,US,,,,,
,visa,,,LAKE HAVASU CITY,AZ,,US,,,,,
,visa,,,LAKE HAVASU CITY,AZ,,US,,,,,
,visa,,,LAKE HAVASU CITY,AZ,,US,,,,,
,visa,,,LAKE HAVASU C,AZ,,US,,,,,
,visa,,,LAKE HAVASU CITY,AZ,,US,,,,,
,visa,,,LAKE HAVASU CITY,AZ,,US,,,,,
,visa,,,LAKE HAVASU CITY,AZ,,US,,,,,
,visa,,,LAKE HAVASU,AZ,,US,,,,,
,visa,,,LAKE HAVASU CITY,AZ,,US,,,,,
,visa,,,LAKE HAVASU CITY,AZ,,US,,,,,
,visa,,,LAKE HAVASU CITY,AZ,,US,,,,,
,visa,,,LAKE HAVASU,AZ,,US,,,,,
,visa,,,LAKE HAVASU CITY,AZ,,US,,,,,
,visa,,,LAKE HAVASU,AZ,,US,,,,,
,visa,,,LAKE HAVASU CITY,AZ,,US,,,,,
,visa,,,LAKE HAVASU,AZ,,US,,,,,
,visa,,,LAKE HAVASU CITY,AZ,,US,,,,,
,visa,,,LAKE HAVASU,AZ,,US,,,,,
,visa,,,LAKE HAVASU CITY,AZ,,US,,,,,
,visa,,,LAKE HAVASU,AZ,,US,,,,,
,visa,,,LAKE HAVASU CITY,AZ,,US,,,,,
,visa,,,LAKE HAVASU,AZ,,US,,,,,
,visa,,,HAVASU CITY,AZ,,US,,,,,
,visa,,,LAKE HAVASU CITY,AZ,,US,,,,,
,visa,,,LAKE HAVASU CITY,AZ,,US,,,,,
,visa,,,LAKE HAVASU CITY,AZ,,US,,,,,
,visa,,,LAKE HAVASU,AZ,,US,,,,,
https://www.walgreens.com/locator/walgreens-25+lake+havasu+ave+s-lake+havasu+city-az-86403/id=5208,walgreens,Walgreens,,Lake Havasu City,AZ,,US,+1 928-453-2808,https://www.walgreens.com/locator/walgreens-25+lake+havasu+ave+s-lake+havasu+city-az-86403/id=5208,Mo-Su 06:00-24:00,Walgreens,Q1591889
80__ACOMA__BLVD__N_LAKE__HAVASU__CITY_AZ_86403,wellsfargo,,80 ACOMA BLVD N,LAKE HAVASU CITY,AZ,,US,+1 800-869-3557,https://www.wellsfargo.com/locator/bank/80__ACOMA__BLVD__N_LAKE__HAVASU__CITY_AZ_86403/,,Wells Fargo,Q744149
1601__MCCULLOCH__BLVD__N_LAKE__HAVASU__CITY_AZ_86403,wellsfargo,Wells Fargo,1601 MCCULLOCH BLVD N,LAKE HAVASU CITY,AZ,,US,+1 928-453-1888,https://www.wellsfargo.com/locator/bank/1601__MCCULLOCH__BLVD__N_LAKE__HAVASU__CITY_AZ_86403/,Mo-Fr 09:00-17:00,Wells Fargo,Q744149
431284b4460cfb3d881f3db1f24af5f7,western_union,ALBERTSONS #3204,,Lake Havasu City,AZ,,US,+1 928-854-5300,https://location.westernunion.com/us/az/lake-havasu-city/431284b4460cfb3d881f3db1f24af5f7,Mo-Su 08:00-20:00,Western Union,Q861042
