Ref,Spider,Name,Address,City,State,Zipcode,Country,Phone,Website,Hours,Brand,WikiData
203233,bluerhino,CASEY'S GENERAL STORE #2385,,HUNTINGBURG,IN,,US,+1 812-683-3414,,,Blue Rhino,Q65681213
201021,bluerhino,Mor For Less #3388,,Huntingburg,IN,,US,+1 812-683-2405,,,Blue Rhino,Q65681213
52057,citi,ATM CVS,,Huntingburg,IN,,US,,,,Citibank,Q857063
59942,citi,ATM Hucks,,Huntingburg,IN,,US,,,,Citibank,Q857063
6881,cvs_us,CVS Pharmacy,,Huntingburg,IN,,US,+1 812-683-3309,https://www.cvs.com/store-locator/huntingburg-in-pharmacies/610-n-main-st-huntingburg-in-47542/storeid=6881,Mo-Su 08:00-22:00,CVS Pharmacy,Q2078880
https://www.edwardjones.com/us-en/financial-advisor/rick-pflanz,edwardjones,Rick Pflanz,,Huntingburg,IN,,US,+1 812-683-4370,https://www.edwardjones.com/us-en/financial-advisor/rick-pflanz,Mo-Th 08:00-16:30; Fr 08:00-16:00,Edward Jones,Q5343830
2121,extra_space_storage,Huntingburg Self Storage at 405 E 1st St,,Huntingburg,IN,,US,,https://www.extraspace.com/storage-express/storage/facilities/us/indiana/huntingburg/2121/,Mo-Su 06:00-22:00,Extra Space Storage,Q5422162
14931,h_r_block,H&R Block,,Huntingburg,IN,,US,+1 812-683-5719,https://www.hrblock.com/local-tax-offices/indiana/huntingburg/318-n-geiger-st/14931/,,H&R Block,Q5627799
IGA Huntingburg #460,iga,IGA Huntingburg #460,"312 East 12th Street, Huntingburg, IN, 47542",Huntingburg,IN,,US,+1 812-547-3556,http://www.myiga.com,,IGA,Q3146662
161292,marathon_petroleum_us,Circle S Mart 32,,Huntingburg,IN,,US,+1 812-683-5003,,,Marathon,Q458363
161154,marathon_petroleum_us,FASTTRACK 500,,Huntingburg,IN,,US,+1 812-683-1305,,,Marathon,Q458363
1615,mightyflame,FASTTRACK 500 (US OIL GROUP),,Huntingburg,IN,,US,+1 812-683-1305,,,Mighty Flame,
in_huntingburg_701-n-main-st,pizza_hut_us,701 N Main St,,Huntingburg,IN,,US,+1 812-683-0130,https://locations.pizzahut.com/in/huntingburg/701-n-main-st,,Pizza Hut,Q191615
steinkamps-home-center-23614,ppgpaints,STEINKAMP'S HOME CENTER,,"Huntingburg, ",IN,,US,+1 812-683-3860,https://www.ppgpaints.com/store-locator/us/indiana/huntingburg-paint-stores/steinkamps-home-center-23614,,PPG Paints,Q83891559
https://restaurants.subway.com/#14913736,subway,Subway,,Huntingburg Dubois,IN,,US,+1 812-683-4141,https://restaurants.subway.com/united-states/in/huntingburg/609-main-st,Mo-Sa 07:00-21:00; Su 08:00-21:00,Subway,Q244457
https://restaurants.subway.com/#14910174,subway,Subway,,Clinton Vermillion,IN,,US,+1 765-832-6991,https://restaurants.subway.com/united-states/in/clinton/1799-e-state-road-163,Mo-Su 09:00-22:00,Subway,Q244457
1367657,usps,HUNTINGBURG,,HUNTINGBURG,IN,,US,+1 812-683-2706,,Mo-Fr 08:30-16:30; Sa 09:00-12:00,United States Postal Service,Q668687
4754200018,usps_collection_boxes,USPS COLLECTION BOX - PO LOBBY,410 N JACKSON ST,HUNTINGBURG,IN,,US,,,,United States Postal Service,Q668687
4754200011,usps_collection_boxes,USPS COLLECTION BOX - BLUE BOX,410 N JACKSON ST,HUNTINGBURG,IN,,US,,,,United States Postal Service,Q668687
4754200016,usps_collection_boxes,USPS COLLECTION BOX - PO LOBBY,410 N JACKSON ST,HUNTINGBURG,IN,,US,,,,United States Postal Service,Q668687
4754200009,usps_collection_boxes,USPS COLLECTION BOX - BLUE BOX,601 N MAIN ST,HUNTINGBURG,IN,,US,,,,United States Postal Service,Q668687
4754200012,usps_collection_boxes,USPS COLLECTION BOX - BLUE BOX,312 E 12TH ST,HUNTINGBURG,IN,,US,,,,United States Postal Service,Q668687
,visa,,,ORLEANS,IN,,US,,,,,
,visa,,,HUNTINGBURG,IN,,US,,,,,
,visa,,,HUNTINGBURG,IN,,US,,,,,
,visa,,,HUNTINGBURG,IN,,US,,,,,
,visa,,,HUNTINGBURG,IN,,US,,,,,
,visa,,,HUNTINGBURG,IN,,US,,,,,
,visa,,,HUNTINGBURG,IN,,US,,,,,
,visa,,,HUNTINGBURG,IN,,US,,,,,
,visa,,,HUNTINGBURG,IN,,US,,,,,
,visa,,,HUNTINGBURG,IN,,US,,,,,
,visa,,,HUNTINGBURG,IN,,US,,,,,
,visa,,,HUNTINGBURG,IN,,US,,,,,
,visa,,,HUNTINGBURG,IN,,US,,,,,
,visa,,,HUNTINGBURG,IN,,US,,,,,
,visa,,,HUNTINGBURG,IN,,US,,,,,
https://locations.wendys.com/#9253039,wendys,"Wendy's Huntingburg in Huntingburg, IN",,Huntingburg,IN,,US,+1 812-683-5905,https://locations.wendys.com/united-states/in/huntingburg/1209-north-main-street,"Mo-Su 06:30-10:30,07:00-21:00",Wendy's,Q550258
