Ref,Spider,Name,Address,City,State,Zipcode,Country,Phone,Website,Hours,Brand,WikiData
BPM557,bp,BP,,San Luis Rio Colorado,Sonora,,MX,+52 653 517 2100,,24/7,BP,Q152057
,visa,,,SAN LUIS RIO COLORADO,SONORA,,MX,,,,,
,visa,,,SAN LUIS RIO COLORAD,SONORA,,MX,,,,,
,visa,,,SAN LUIS R√çO COLORADO,SONORA,,MX,,,,,
,visa,,,SAN LUIS RIO COLORADO,SONORA,,MX,,,,,
,visa,,,SAN LUIS RIO COLORADO,SONORA,,MX,,,,,
,visa,,,SAN LUIS RIO COLORADO,SONORA,,MX,,,,,
,visa,,,SAN LUIS RIO COLORADO,SONORA,,MX,,,,,
c218ca68395424e4cf6b5ede1e0dd089,western_union,CALIMAX 617 CALLE 27 AP CASH,,San Luis Rio Colorado,SONORA,,MX,+52 653 536 7673,https://location.westernunion.com/mx/sonora/san-luis-rio-colorado/c218ca68395424e4cf6b5ede1e0dd089,Mo-Su 07:00-23:00,Western Union,Q861042
026ec0ad9c9d650c33b754b3be8b2c5e,western_union,CALIMAX 617 CALLE 27 AP CASH,,San Luis Rio Colorado,SONORA,,MX,+52 653 536 7673,https://location.westernunion.com/mx/sonora/san-luis-rio-colorado/026ec0ad9c9d650c33b754b3be8b2c5e,Mo-Su 07:00-23:00,Western Union,Q861042
71c86727a077c0caa13e8c4fc46b88ac,western_union,CALIMAX 617 CALLE 27 AP CASH,,San Luis Rio Colorado,SONORA,,MX,+52 653 536 7673,https://location.westernunion.com/mx/sonora/san-luis-rio-colorado/71c86727a077c0caa13e8c4fc46b88ac,Mo-Su 07:00-23:00,Western Union,Q861042
d21974d081604cf9f6c03f3e42cbc254,western_union,CALIMAX 611 PLAZA FIESTA AP CASH,,San Luis Rio Colorado,SONORA,,MX,+52 653 534 3030,https://location.westernunion.com/mx/sonora/san-luis-rio-colorado/d21974d081604cf9f6c03f3e42cbc254,Mo-Su 07:00-23:00,Western Union,Q861042
f4f29a5ff42bdf4b0cc38121a476efbf,western_union,CALIMAX 611 PLAZA FIESTA AP CASH,,San Luis Rio Colorado,SONORA,,MX,+52 653 534 3030,https://location.westernunion.com/mx/sonora/san-luis-rio-colorado/f4f29a5ff42bdf4b0cc38121a476efbf,Mo-Su 07:00-23:00,Western Union,Q861042
0a233483e6d6bfe144e008084ba909d8,western_union,CALIMAX 611 PLAZA FIESTA AP CASH,,San Luis Rio Colorado,SONORA,,MX,+52 653 534 3030,https://location.westernunion.com/mx/sonora/san-luis-rio-colorado/0a233483e6d6bfe144e008084ba909d8,Mo-Su 07:00-23:00,Western Union,Q861042
058710616030f4a1f39c7e505cdcfeed,western_union,OXXO CLUB DE LEONES MXL,,San Luis Rio Colorado,SONORA,,MX,+52 81 8389 2121,https://location.westernunion.com/mx/sonora/san-luis-rio-colorado/058710616030f4a1f39c7e505cdcfeed,Mo-Su 08:00-22:00,Western Union,Q861042
aa11974a38806256724b60e14ded3a24,western_union,TELECOMM 26070,,San Luis Rio Colorado,SONORA,,MX,+52 800 800 8930,https://location.westernunion.com/mx/sonora/san-luis-rio-colorado/aa11974a38806256724b60e14ded3a24,Mo-Su 09:00-20:00,Western Union,Q861042
0cefe77618c538a9dc1c98912c4cb1ef,western_union,TELECOMM 26070,,San Luis Rio Colorado,SONORA,,MX,+52 800 800 9889,https://location.westernunion.com/mx/sonora/san-luis-rio-colorado/0cefe77618c538a9dc1c98912c4cb1ef,Mo-Fr 09:00-15:00; Sa 09:00-12:30,Western Union,Q861042
95c1630b6f8efd97d150b624542e2c6d,western_union,TELECOMM 26070,,San Luis Rio Colorado,SONORA,,MX,+52 800 800 8930,https://location.westernunion.com/mx/sonora/san-luis-rio-colorado/95c1630b6f8efd97d150b624542e2c6d,Mo-Su 08:00-20:00,Western Union,Q861042
ff0b99685e27c374c870642725cd8a75,western_union,BANCOPPEL 0024 OBREGON II,,San Luis Rio Colorado,SONORA,,MX,(+52) 667-589999,https://location.westernunion.com/mx/sonora/san-luis-rio-colorado/ff0b99685e27c374c870642725cd8a75,Mo-Su 08:30-21:00,Western Union,Q861042
8a50b488df0d1ce7ab31d0978774d178,western_union,BANCOPPEL 0024 OBREGON II,,San Luis Rio Colorado,SONORA,,MX,(+52) 667-589999,https://location.westernunion.com/mx/sonora/san-luis-rio-colorado/8a50b488df0d1ce7ab31d0978774d178,Mo-Su 08:30-21:00,Western Union,Q861042
8cd23488094a381b21aee64fcc05d1c5,western_union,BANCOPPEL 0024 OBREGON II,,San Luis Rio Colorado,SONORA,,MX,(+52) 667-589999,https://location.westernunion.com/mx/sonora/san-luis-rio-colorado/8cd23488094a381b21aee64fcc05d1c5,Mo-Su 08:30-21:00,Western Union,Q861042
efb40b20bf7fb4406f295ff741da45a5,western_union,OXXO CASETA MXL,,San Luis Rio Colorado,SONORA,,MX,+52 81 8389 2121,https://location.westernunion.com/mx/sonora/san-luis-rio-colorado/efb40b20bf7fb4406f295ff741da45a5,Mo-Su 08:00-22:00,Western Union,Q861042
7a496cc82ad4897b43f81a2b7ca93b5d,western_union,OXXO CASETA MXL,,San Luis Rio Colorado,SONORA,,MX,+52 81 8389 2121,https://location.westernunion.com/mx/sonora/san-luis-rio-colorado/7a496cc82ad4897b43f81a2b7ca93b5d,Mo-Su 08:00-22:00,Western Union,Q861042
96320bc2e30420eba5a4b5c73fcd6889,western_union,OXXO CASETA MXL,,San Luis Rio Colorado,SONORA,,MX,+52 81 8389 2121,https://location.westernunion.com/mx/sonora/san-luis-rio-colorado/96320bc2e30420eba5a4b5c73fcd6889,Mo-Su 08:00-22:00,Western Union,Q861042
61014b19c39cf16b6cdb0251254f1540,western_union,OXXO CLUB DE LEONES MXL,,San Luis Rio Colorado,SONORA,,MX,+52 81 8389 2121,https://location.westernunion.com/mx/sonora/san-luis-rio-colorado/61014b19c39cf16b6cdb0251254f1540,Mo-Su 08:00-22:00,Western Union,Q861042
9565799934b6f9483689d59e7ae0fb6f,western_union,OXXO CLUB DE LEONES MXL,,San Luis Rio Colorado,SONORA,,MX,+52 81 8389 2121,https://location.westernunion.com/mx/sonora/san-luis-rio-colorado/9565799934b6f9483689d59e7ae0fb6f,Mo-Su 08:00-22:00,Western Union,Q861042
