Ref,Spider,Name,Address,City,State,Zipcode,Country,Phone,Website,Hours,Brand,WikiData
AU-1642,anytime_fitness,Anytime Fitness,,Weir Views,VIC,,AU,+61 448 909 989,https://anytimefitness.com.au/gyms/au-1642/weir-views-vic-3338/,,Anytime Fitness,Q4778364
RED0009334,australia_post_au,,,MELTON SOUTH,VIC,,AU,,,,Australia Post,Q1142936
337869_PO,australia_post_au,MELTON SOUTH LPO,,MELTON SOUTH,VIC,,AU,+61 131318,,,Australia Post,Q1142936
RED0009336,australia_post_au,,,MELTON SOUTH,VIC,,AU,,,,Australia Post,Q1142936
RED0009338,australia_post_au,,,MELTON SOUTH,VIC,,AU,,,,Australia Post,Q1142936
361631_PO,australia_post_au,EYNESBURY CPA,,EYNESBURY,VIC,,AU,+61 3 9971 0420,,,Australia Post,Q1142936
RED0018295,australia_post_au,,,EYNESBURY,VIC,,AU,,,,Australia Post,Q1142936
21950064,bottlemart_au,Bottlemart Melton South,,,VIC,,AU,+61 3 9971 5067,,,Bottlemart,Q102863175
7619,coles_au,Coles Melton South (station Square),,Melton South,VIC,,AU,+61 3 8871 0700,,,Coles Supermarkets,Q1108172
2442,coles_au,Melton South,,Melton South,VIC,,AU,+61 3 8871 0780,,,Liquorland,Q2283837
6842,coles_au,Coles Express Melton South,,Melton South,VIC,,AU,+61 3 8871 2676,,,Coles Express,Q5144653
2866,coles_au,Cobblebank,,Melton South,VIC,,AU,+61 3 9732 1980,,,Liquorland,Q2283837
7761,coles_au,Coles Cobblebank,,Toolern,VIC,,AU,+61 3 9732 1900,,,Coles Supermarkets,Q1108172
6171409,exxonmobil,7-Eleven Melton South,,Melton South,VIC,,AU,+61 3 8746 5438,https://www.mobil.com.au/en-au/find-station/mobil-meltonsouth-vic-meltonsouth-6171409,24/7,Mobil,Q109676002
9501475,mcdonalds_qstore,Melton South,,Melton South,VIC,,AU,+61 3 8746 3650,,24/7,McDonald's,Q38076
1409,seven_eleven_au,Melton South,,Melton South,VIC,,AU,+61 3 8746 5438,,24/7,7-Eleven,Q259340
10111337,shell,SHELL COLES EXPRESS MELTON SOUTH,,MELTON SOUTH,VIC,,AU,+61 3 8871 2676,https://find.shell.com/au/fuel/10111337-shell-coles-express-melton-south,24/7,Shell,Q110716465
309,the_cheesecake_shop,Weir Views,"Shop R12, Opalia Plaza S/C, 201 Exford Road, Weir Views, VIC, 3338",,VIC,,AU,+61 3 9746 2334,https://www.cheesecake.com.au/find-bakery/weir-views/,Mo-Sa 09:00-20:00; Su 10:00-19:00,The Cheesecake Shop,Q117717103
38be8bbf-f3c3-4dee-ad86-912b13c229fe,thirsty_camel_au,Thirsty Camel Eynesbury,"479 Eynesbury Rd, Eynesbury",,VIC,,AU,+61 3 9971 0420,https://www.thirstycamel.com.au/stores/thirsty-camel-eynesbury,Mo-Sa 12:00-20:30; Su 11:00-20:00,Thirsty Camel,Q113503937
,visa,,,MELTON SOUTH,VIC,,AU,,,,,
,visa,,,MELTON SOUTH,VIC,,AU,,,,,
,visa,,,MELTON SOUTH,VIC,,AU,,,,,
,visa,,,MELTON SOUTH,VIC,,AU,,,,,
d9126b10db2e5049355fa8da8a1d4baf,western_union,COBBLEBANK LUCK & GIFTS,,Cobblebank,VIC,,AU,+61 1800 501 500,https://location.westernunion.com/au/vic/cobblebank/d9126b10db2e5049355fa8da8a1d4baf,Mo-Sa 09:30-18:00; Su 10:00-16:00,Western Union,Q861042
0a689905a4acbb023fabe6facdf3229d,western_union,MARA CHIN GROCERY,,Melton South,VIC,,AU,+61 1800 501 500,https://location.westernunion.com/au/vic/melton-south/0a689905a4acbb023fabe6facdf3229d,Mo-Su 09:00-18:00,Western Union,Q861042
