Ref,Spider,Name,Address,City,State,Zipcode,Country,Phone,Website,Hours,Brand,WikiData
210761,bluerhino,Dollar General #22430,,Prichard,AL,,US,+1 251-460-1201,,,Blue Rhino,Q65681213
308934,chevron,Chevron Station #308934,1651 ST. STEPHENS RD.,PRICHARD,AL,,US,+1 251-456-7857,,,Chevron,Q319642
49255,citi,ATM CVS,,Mobile,AL,,US,,,,Citibank,Q857063
4877,cvs_us,CVS Pharmacy,,Mobile,AL,,US,+1 251-471-6229,https://www.cvs.com/store-locator/mobile-al-pharmacies/2280-mlk-blvd-mobile-al-36610/storeid=4877,Mo-Th 09:00-20:00; Fr-Sa 09:00-21:00; Su 10:00-19:00,CVS Pharmacy,Q2078880
200327430,exxonmobil,AL0127,,PRICHARD,AL,,US,+1 251-586-8228,https://www.exxon.com/en/find-station/exxon-prichard-al-al0127-200327430,24/7,Exxon,Q109675651
https://restaurants.subway.com/#14898952,subway,Subway,,Mobile Mobile,AL,,US,+1 251-456-8655,https://restaurants.subway.com/united-states/al/mobile/512-wilson-ave,Mo-Fr 07:00-22:00; Sa 08:00-22:00; Su 09:00-22:00,Subway,Q244457
010091,uhaul,Eastside Auto Enterprise,901 Telegraph Rd,Prichard,AL,,US,+1 251-545-4004,,Mo-Sa 30:00-16:00,U-Haul,Q7862902
013546,uhaul,Storage Plus,308 N Wilson Ave,Prichard,AL,,US,+1 251-476-8661,,Tu-Fr 00:00-17:00; Sa 00:00-14:00,U-Haul,Q7862902
1437776,usps,PRICHARD,,MOBILE,AL,,US,+1 251-457-4512,,Mo-Fr 08:30-16:30; Sa 09:00-12:00,United States Postal Service,Q668687
3661000025,usps_collection_boxes,USPS COLLECTION BOX - PO LOBBY,130 E PRICHARD AVE,MOBILE,AL,,US,,,,United States Postal Service,Q668687
3661000001,usps_collection_boxes,USPS COLLECTION BOX - PO LOBBY,130 E PRICHARD AVE,MOBILE,AL,,US,,,,United States Postal Service,Q668687
3661000022,usps_collection_boxes,USPS COLLECTION BOX - PO LOBBY,130 E PRICHARD AVE,MOBILE,AL,,US,,,,United States Postal Service,Q668687
,visa,,,DAPHNE,AL,,US,,,,,
,visa,,,MOBILE,AL,,US,,,,,
,visa,,,MOBILE,AL,,US,,,,,
,visa,,,PRICHARD,AL,,US,,,,,
,visa,,,MOBILE,AL,,US,,,,,
,visa,,,PRICHARD,AL,,US,,,,,
,visa,,,PRICHARD,AL,,US,,,,,
,visa,,,MOBILE,AL,,US,,,,,
,visa,,,PRICHARD,AL,,US,,,,,
,visa,,,PRICHARD,AL,,US,,,,,
,visa,,,PRICHARD,AL,,US,,,,,
,visa,,,PRICHARD,AL,,US,,,,,
,visa,,,PRICHARD,AL,,US,,,,,
,visa,,,PRICHARD,AL,,US,,,,,
,visa,,,PRICHARD,AL,,US,,,,,
,visa,,,MOBILE,AL,,US,,,,,
,visa,,,PRICHARD,AL,,US,,,,,
,visa,,,PRITCHARD,AL,,US,,,,,
,visa,,,PRICHARD,AL,,US,,,,,
,visa,,,PRICHARD,AL,,US,,,,,
,visa,,,PRICHARD,AL,,US,,,,,
,visa,,,MOBILE,AL,,US,,,,,
,visa,,,PRICHARD,AL,,US,,,,,
,visa,,,PRICHARD,AL,,US,,,,,
,visa,,,PRICHARD,AL,,US,,,,,
,visa,,,MOBILE,AL,,US,,,,,
,visa,,,PRICHARD,AL,,US,,,,,
,visa,,,PRICHARD,AL,,US,,,,,
,visa,,,PRICHARD,AL,,US,,,,,
,visa,,,PRICHARD,AL,,US,,,,,
,visa,,,PRICHARD,AL,,US,,,,,
,visa,,,PRICHARD,AL,,US,,,,,
,visa,,,PRICHARD,AL,,US,,,,,
,visa,,,PRICHARD,AL,,US,,,,,
,visa,,,PRICHARD,AL,,US,,,,,
,visa,,,PRICHARD,AL,,US,,,,,
,visa,,,MOBILE,AL,,US,,,,,
