Ref,Spider,Name,Address,City,State,Zipcode,Country,Phone,Website,Hours,Brand,WikiData
BPM697,bp,BP,,Tlajomulco De Zuñiga,Jalisco,,MX,+52 33 3914 4447,,24/7,BP,Q152057
BPM706,bp,BP,,Tlajomulco De Zuñiga,Jalisco,,MX,+52 33 3798 1137,,24/7,BP,Q152057
1301,first_cash,Cash America Pawn,,Tlajomulco De Zúñiga,Jalisco,,MX,+52 33 3797 1573,,,Cash America,Q5048636
3659,first_cash,First Cash Pawn,,Tlajomulco De Zúñiga,Jalisco,,MX,+52 33 4545 0214,,,First Cash Pawn,
1207,first_cash,First Cash Pawn,,Tlajomulco De Zúñiga,Jalisco,,MX,+52 33 3161 6648,,,First Cash Pawn,
MEX49,vans,Vans Store - LAS PLAZAS GUADALAJARA,,Tlajomulco,Jalisco,,MX,,https://www.vans.com/en-us/stores/jalisco/tlajomulco/mex49,,Vans,Q1135366
,visa,,,TLAJOMULCO DE ZUÑIGA,JALISCO,,MX,,,,,
,visa,,,TLAJOMULCO DE ZUÑIGA,JALISCO,,MX,,,,,
,visa,,,TLAJOMULCO DE ZUNIGA,JALISCO,,MX,,,,,
,visa,,,TLAJOMULCO,JALISCO,,MX,,,,,
,visa,,,TLAJOMULCO DE ZUÑIGA,JALISCO,,MX,,,,,
,visa,,,GUADALAJARA,JALISCO,,MX,,,,,
,visa,,,TLAJOMULCO DE ZUÑIGA,JALISCO,,MX,,,,,
,visa,,,TLAJOMULCO DE ZUÑIGA,JALISCO,,MX,,,,,
,visa,,,TLAJOMULCO DE ZUÑIGA,JALISCO,,MX,,,,,
,visa,,,TLAJOMULCO DE ZUÑIGA,JALISCO,,MX,,,,,
,visa,,,TLAJOMULCO DE ZUÑIGA,JALISCO,,MX,,,,,
,visa,,,TLAJOMULCO DE ZUÑIGA,JALISCO,,MX,,,,,
,visa,,,TLAJOMULCO DE ZUÑIGA,JALISCO,,MX,,,,,
,visa,,,TLAJOMULCO DE ZUÑIGA,JALISCO,,MX,,,,,
,visa,,,GUADALAJARA,JALISCO,,MX,,,,,
,visa,,,TLAJOMULCO DE ZUNIGA,JALISCO,,MX,,,,,
,visa,,,TLAJOMULCO DE ZUNIGA,JALISCO,,MX,,,,,
,visa,,,TLAJOMULCO DE ZUNIGA,JALISCO,,MX,,,,,
,visa,,,TLAJOMULCO DE ZUNIGA,JALISCO,,MX,,,,,
,visa,,,TLAJOMULCO DE ZUNIGA,JALISCO,,MX,,,,,
,visa,,,TLAJOMULCO DE ZUNIGA,JALISCO,,MX,,,,,
,visa,,,TLAJOMULCO DE ZUNIGA,JALISCO,,MX,,,,,
,visa,,,TLAJOMULCO DE ZUÑIGA,JALISCO,,MX,,,,,
,visa,,,TLAJOMULCO DE ZUNIGA,JALISCO,,MX,,,,,
,visa,,,TLAJOMULCO DE ZUNIGA,JALISCO,,MX,,,,,
,visa,,,TLAJOMULCO DE ZUNIGA,JALISCO,,MX,,,,,
,visa,,,TLAJOMULCO DE ZUNIGA,JALISCO,,MX,,,,,
,visa,,,TLAJOMULCO DE ZUNIGA,JALISCO,,MX,,,,,
,visa,,,TLAJOMULCO DE ZUNIGA,JALISCO,,MX,,,,,
,visa,,,TLAJOMULCO DE ZUÑIGA,JALISCO,,MX,,,,,
,visa,,,TLAJOMULCO DE ZUÑIGA,JALISCO,,MX,,,,,
,visa,,,TLAJOMULCO DE ZUNIGA,JALISCO,,MX,,,,,
,visa,,,TLAJOMULCO DE ZUNIGA,JALISCO,,MX,,,,,
,visa,,,TLAJOMULCO DE ZUÑIGA,JALISCO,,MX,,,,,
,visa,,,TLAJOMULCO DE ZUNIGA,JALISCO,,MX,,,,,
,visa,,,TLAJOMULCO DE ZUNIGA,JALISCO,,MX,,,,,
,visa,,,TLAJOMULCO DE ZUNIGA,JALISCO,,MX,,,,,
,visa,,,TLAJOMULCO DE ZUNIGA,JALISCO,,MX,,,,,
,visa,,,TLAJOMULCO DE ZUÑIGA,JALISCO,,MX,,,,,
,visa,,,TLAJOMULCO DE ZUÑIGA,JALISCO,,MX,,,,,
,visa,,,TLAJOMULCO ZUNIGA,JALISCO,,MX,,,,,
,visa,,,TLAJOMULCO DE ZUNIGA,JALISCO,,MX,,,,,
,visa,,,TLAJOMULCO DE ZUNIGA,JALISCO,,MX,,,,,
,visa,,,TLAJOMULCO DE ZUNIGA,JALISCO,,MX,,,,,
,visa,,,GUADALAJARA,JALISCO,,MX,,,,,
,visa,,,GUADALAJARA,JALISCO,,MX,,,,,
,visa,,,GUADALAJARA,JALISCO,,MX,,,,,
,visa,,,TLAJOMULCO DE ZUNIGA,JALISCO,,MX,,,,,
,visa,,,TLAJOMULCO DE ZUÑIGA,JALISCO,,MX,,,,,
,visa,,,TLAJOMULCO DE ZUNIGA,JALISCO,,MX,,,,,
,visa,,,TLAJOMULCO DE ZUNIGA,JALISCO,,MX,,,,,
,visa,,,TLAJOMULCO DE ZUNIGA,JALISCO,,MX,,,,,
,visa,,,TLAJOMULCO DE ZUÑIGA,JALISCO,,MX,,,,,
,visa,,,TLAJOMULCO DE ZUNIGA,JALISCO,,MX,,,,,
e0a9022b1957d9724cb8aecb214f3e10,western_union,7ELEVEN CAT 1774,,Tlajomulco De Zuniga,JALISCO,,MX,+52 800 833 4700,https://location.westernunion.com/mx/jalisco/tlajomulco-de-zuniga/e0a9022b1957d9724cb8aecb214f3e10,Mo-Su 06:00-22:00,Western Union,Q861042
9ec4d69a92e774d0c7442894840b9e58,western_union,7ELEVEN CAT 1774,,Tlajomulco De Zuniga,JALISCO,,MX,+52 800 833 4700,https://location.westernunion.com/mx/jalisco/tlajomulco-de-zuniga/9ec4d69a92e774d0c7442894840b9e58,Mo-Su 06:00-22:00,Western Union,Q861042
4d50cfd6027faafde56e8e02be0bc437,western_union,7ELEVEN CAT 1774,,Tlajomulco De Zuniga,JALISCO,,MX,+52 800 833 4700,https://location.westernunion.com/mx/jalisco/tlajomulco-de-zuniga/4d50cfd6027faafde56e8e02be0bc437,Mo-Su 06:00-22:00,Western Union,Q861042
8e3f6661b57dd0861f1888f46a9a0d51,western_union,TELECOMM 14107,,San Sebastian El Grande,JALISCO,,MX,+52 33 3694 0447,https://location.westernunion.com/mx/jalisco/san-sebastian-el-grande/8e3f6661b57dd0861f1888f46a9a0d51,Mo-Fr 09:00-15:00; Sa 09:00-12:30,Western Union,Q861042
6c458a8c0105b611087c1d9c02f8b822,western_union,TELECOMM 14107,,San Sebastian El Grande,JALISCO,,MX,+52 33 3694 0447,https://location.westernunion.com/mx/jalisco/san-sebastian-el-grande/6c458a8c0105b611087c1d9c02f8b822,Mo-Su 09:00-20:00,Western Union,Q861042
a377abbab52717e1f49eeea6bafb89ac,western_union,TELECOMM 14107,,San Sebastian El Grande,JALISCO,,MX,+52 33 3694 0447,https://location.westernunion.com/mx/jalisco/san-sebastian-el-grande/a377abbab52717e1f49eeea6bafb89ac,Mo-Fr 09:00-15:00,Western Union,Q861042
7beaa3c99140b7c8535960ac72503f89,western_union,AURRERA EXPRESS PASEOS DEL VALLE 2577,,Tlajomulco De Zuniga,JALISCO,,MX,+52 800 833 4700,https://location.westernunion.com/mx/jalisco/tlajomulco-de-zuniga/7beaa3c99140b7c8535960ac72503f89,Mo-Su 08:00-22:00,Western Union,Q861042
4de6385d909a8f4d8e6dfa9be63c6604,western_union,AURRERA EXPRESS PASEOS DEL VALLE 2577,,Tlajomulco De Zuniga,JALISCO,,MX,+52 800 833 4700,https://location.westernunion.com/mx/jalisco/tlajomulco-de-zuniga/4de6385d909a8f4d8e6dfa9be63c6604,Mo-Su 08:00-22:00,Western Union,Q861042
6f2ebc16015dc34b4758dd2805e574c0,western_union,AURRERA EXPRESS PASEOS DEL VALLE 2577,,Tlajomulco De Zuniga,JALISCO,,MX,+52 800 833 4700,https://location.westernunion.com/mx/jalisco/tlajomulco-de-zuniga/6f2ebc16015dc34b4758dd2805e574c0,Mo-Su 08:00-22:00,Western Union,Q861042
e3e333d5f351e2cf30645a2469844a34,western_union,CAJA CIHUALPILLI DE TONALA - TLAJOMULCO,,Tlajomulco De Zuniga,JALISCO,,MX,+52 81 2133 2160,https://location.westernunion.com/mx/jalisco/tlajomulco-de-zuniga/e3e333d5f351e2cf30645a2469844a34,Mo-Fr 08:00-17:00; Sa 08:00-13:00,Western Union,Q861042
4a876865cbb8df94ff7eea6527703122,western_union,CAJA CIHUALPILLI DE TONALA - TLAJOMULCO,,Tlajomulco De Zuniga,JALISCO,,MX,+52 81 2133 2160,https://location.westernunion.com/mx/jalisco/tlajomulco-de-zuniga/4a876865cbb8df94ff7eea6527703122,Mo-Fr 08:00-17:00; Sa 08:00-13:00,Western Union,Q861042
87ded6e324a45d2257c6b8ec2b47c849,western_union,CAJA CIHUALPILLI DE TONALA - TLAJOMULCO,,Tlajomulco De Zuniga,JALISCO,,MX,+52 81 2133 2160,https://location.westernunion.com/mx/jalisco/tlajomulco-de-zuniga/87ded6e324a45d2257c6b8ec2b47c849,Mo-Fr 08:00-17:00; Sa 08:00-13:00,Western Union,Q861042
74ad36dcbec01b0151b659503bbbf476,western_union,OXXO REAL DEL VALLE GDL,,Tlajomulco De Zuniga,JALISCO,,MX,+52 81 8389 2121,https://location.westernunion.com/mx/jalisco/tlajomulco-de-zuniga/74ad36dcbec01b0151b659503bbbf476,Mo-Su 08:00-22:00,Western Union,Q861042
a42a0809545e0d615a718b128c0e57f2,western_union,OXXO REAL DEL VALLE GDL,,Tlajomulco De Zuniga,JALISCO,,MX,+52 81 8389 2121,https://location.westernunion.com/mx/jalisco/tlajomulco-de-zuniga/a42a0809545e0d615a718b128c0e57f2,Mo-Su 08:00-22:00,Western Union,Q861042
14baa9fe3e1347a155af5115c6340e0b,western_union,OXXO REAL DEL VALLE GDL,,Tlajomulco De Zuniga,JALISCO,,MX,+52 81 8389 2121,https://location.westernunion.com/mx/jalisco/tlajomulco-de-zuniga/14baa9fe3e1347a155af5115c6340e0b,Mo-Su 08:00-22:00,Western Union,Q861042
906a5327d0dd9b9b1d4630039974ecf1,western_union,AURRERA EXPRESS VALLE TEJEDA 2405,,Tlajomulco De Zuniga,JALISCO,,MX,+52 800 833 4700,https://location.westernunion.com/mx/jalisco/tlajomulco-de-zuniga/906a5327d0dd9b9b1d4630039974ecf1,Mo-Su 08:00-22:00,Western Union,Q861042
e8d4f00b6cb1d6dc2358bbbd6ebb5772,western_union,AURRERA EXPRESS VALLE TEJEDA 2405,,Tlajomulco De Zuniga,JALISCO,,MX,+52 800 833 4700,https://location.westernunion.com/mx/jalisco/tlajomulco-de-zuniga/e8d4f00b6cb1d6dc2358bbbd6ebb5772,Mo-Su 08:00-22:00,Western Union,Q861042
57c3c4014c2323ee01df438234df9d42,western_union,OXXO LA FORTUNA BJX,,Tlajomulco De Zuniga,JALISCO,,MX,+52 81 8389 2121,https://location.westernunion.com/mx/jalisco/tlajomulco-de-zuniga/57c3c4014c2323ee01df438234df9d42,Mo-Su 08:00-22:00,Western Union,Q861042
37d4749d3446eda23962bda18b0c7bcd,western_union,OXXO LA FORTUNA BJX,,Tlajomulco De Zuniga,JALISCO,,MX,+52 81 8389 2121,https://location.westernunion.com/mx/jalisco/tlajomulco-de-zuniga/37d4749d3446eda23962bda18b0c7bcd,Mo-Su 08:00-22:00,Western Union,Q861042
75fe1bea6935c42399e57482e253ac49,western_union,OXXO LA FORTUNA BJX,,Tlajomulco De Zuniga,JALISCO,,MX,+52 81 8389 2121,https://location.westernunion.com/mx/jalisco/tlajomulco-de-zuniga/75fe1bea6935c42399e57482e253ac49,Mo-Su 08:00-22:00,Western Union,Q861042
ea3575753420cf9ef17b937c184b0793,western_union,FARM GUAD BLVD LOMAS DEL SUR,,Guadalajara,JALISCO,,MX,+52 800 833 4700,https://location.westernunion.com/mx/jalisco/guadalajara/ea3575753420cf9ef17b937c184b0793,Mo-Su 08:00-20:00,Western Union,Q861042
0bd5c29d260aade1a7df663bc90c3fae,western_union,FARM GUAD BLVD LOMAS DEL SUR,,Guadalajara,JALISCO,,MX,+52 800 833 4700,https://location.westernunion.com/mx/jalisco/guadalajara/0bd5c29d260aade1a7df663bc90c3fae,Mo-Su 08:00-20:00,Western Union,Q861042
347e6b3cab7702802096128ff6adb36b,western_union,FARM GUAD BLVD LOMAS DEL SUR,,Guadalajara,JALISCO,,MX,+52 800 833 4700,https://location.westernunion.com/mx/jalisco/guadalajara/347e6b3cab7702802096128ff6adb36b,Mo-Su 08:00-20:00,Western Union,Q861042
af4548d841fd14e4eafc000fd6d7b994,western_union,AURRERA EXPRESS HACIENDA LA NORIA 1216,,Tlajomulco De Zuniga,JALISCO,,MX,+52 800 833 4700,https://location.westernunion.com/mx/jalisco/tlajomulco-de-zuniga/af4548d841fd14e4eafc000fd6d7b994,Mo-Su 08:00-22:00,Western Union,Q861042
d7e21af2b076ad982782fcab7801b0bc,western_union,AURRERA EXPRESS HACIENDA LA NORIA 1216,,Tlajomulco De Zuniga,JALISCO,,MX,+52 800 833 4700,https://location.westernunion.com/mx/jalisco/tlajomulco-de-zuniga/d7e21af2b076ad982782fcab7801b0bc,Mo-Su 08:00-22:00,Western Union,Q861042
895af063ed70fb0062de83c7be4ac6a8,western_union,AURRERA EXPRESS HACIENDA LA NORIA 1216,,Tlajomulco De Zuniga,JALISCO,,MX,+52 800 833 4700,https://location.westernunion.com/mx/jalisco/tlajomulco-de-zuniga/895af063ed70fb0062de83c7be4ac6a8,Mo-Su 08:00-22:00,Western Union,Q861042
3c4fef4b283cf42167ff0fb09f94eaf5,western_union,FARM GUAD HACIENDA DE LOS EUCALIPTOS,,Guadalajara,JALISCO,,MX,+52 800 833 4700,https://location.westernunion.com/mx/jalisco/guadalajara/3c4fef4b283cf42167ff0fb09f94eaf5,Mo-Su 08:00-20:00,Western Union,Q861042
80dcce58c14003f9609c529e7347d955,western_union,FARM GUAD HACIENDA DE LOS EUCALIPTOS,,Guadalajara,JALISCO,,MX,+52 800 833 4700,https://location.westernunion.com/mx/jalisco/guadalajara/80dcce58c14003f9609c529e7347d955,Mo-Su 08:00-20:00,Western Union,Q861042
2e9c687f8eee0696cb4352e58607a2fe,western_union,FARM GUAD HACIENDA DE LOS EUCALIPTOS,,Guadalajara,JALISCO,,MX,+52 800 833 4700,https://location.westernunion.com/mx/jalisco/guadalajara/2e9c687f8eee0696cb4352e58607a2fe,Mo-Su 08:00-20:00,Western Union,Q861042
4323a90fe3fdbb5709215fb45df88441,western_union,FARM GUAD TLAJOMULCO SAN SEBASTIAN,,Guadalajara,JALISCO,,MX,+52 800 833 4700,https://location.westernunion.com/mx/jalisco/guadalajara/4323a90fe3fdbb5709215fb45df88441,Mo-Su 08:00-20:00,Western Union,Q861042
a37870a2f657421136ae0f7068cc51c7,western_union,FARM GUAD TLAJOMULCO SAN SEBASTIAN,,Guadalajara,JALISCO,,MX,+52 800 833 4700,https://location.westernunion.com/mx/jalisco/guadalajara/a37870a2f657421136ae0f7068cc51c7,Mo-Su 08:00-20:00,Western Union,Q861042
8bb8b447a82e2143d74c1dd13128a4f4,western_union,OXXO LA ESTACION GDL,,Tlajomulco De Zuniga,JALISCO,,MX,+52 81 8389 2121,https://location.westernunion.com/mx/jalisco/tlajomulco-de-zuniga/8bb8b447a82e2143d74c1dd13128a4f4,Mo-Su 08:00-22:00,Western Union,Q861042
9f87a9585b114df7c3ba0c44d1ba4f5d,western_union,OXXO LA ESTACION GDL,,Tlajomulco De Zuniga,JALISCO,,MX,+52 81 8389 2121,https://location.westernunion.com/mx/jalisco/tlajomulco-de-zuniga/9f87a9585b114df7c3ba0c44d1ba4f5d,Mo-Su 08:00-22:00,Western Union,Q861042
b72ee25d9fa2a0d014e5b8404b39c7ec,western_union,OXXO LA ESTACION GDL,,Tlajomulco De Zuniga,JALISCO,,MX,+52 81 8389 2121,https://location.westernunion.com/mx/jalisco/tlajomulco-de-zuniga/b72ee25d9fa2a0d014e5b8404b39c7ec,Mo-Su 08:00-22:00,Western Union,Q861042
c3edc075fb8afa06635ddcb003c55627,western_union,FARM GUAD TLAJOMULCO DE ZUNIGA IV,,Tlajomulco De Zuniga,JALISCO,,MX,+52 800 833 4700,https://location.westernunion.com/mx/jalisco/tlajomulco-de-zuniga/c3edc075fb8afa06635ddcb003c55627,Mo-Su 09:00-22:00,Western Union,Q861042
ef57e4cae63695df250bf9225989fb78,western_union,FARM GUAD TLAJOMULCO DE ZUNIGA IV,,Tlajomulco De Zuniga,JALISCO,,MX,+52 800 833 4700,https://location.westernunion.com/mx/jalisco/tlajomulco-de-zuniga/ef57e4cae63695df250bf9225989fb78,Mo-Su 09:00-22:00,Western Union,Q861042
ea51cf0c495f911996f67765402f96d9,western_union,FARM GUAD TLAJOMULCO DE ZUNIGA IV,,Tlajomulco De Zuniga,JALISCO,,MX,+52 800 833 4700,https://location.westernunion.com/mx/jalisco/tlajomulco-de-zuniga/ea51cf0c495f911996f67765402f96d9,Mo-Su 09:00-22:00,Western Union,Q861042
23c35ecbda43fd82e6c7a8a495bcd65f,western_union,FARM GUAD PROLONGACION ESCOBEDO,,Guadalajara,JALISCO,,MX,+52 800 833 4700,https://location.westernunion.com/mx/jalisco/guadalajara/23c35ecbda43fd82e6c7a8a495bcd65f,Mo-Su 08:00-20:00,Western Union,Q861042
17792c7913516fc18463c7c929aea10e,western_union,FARM GUAD PROLONGACION ESCOBEDO,,Guadalajara,JALISCO,,MX,+52 800 833 4700,https://location.westernunion.com/mx/jalisco/guadalajara/17792c7913516fc18463c7c929aea10e,Mo-Su 08:00-20:00,Western Union,Q861042
ae9c7e49b5cdc3b98634b37fac66fe9f,western_union,FARM GUAD PROLONGACION ESCOBEDO,,Guadalajara,JALISCO,,MX,+52 800 833 4700,https://location.westernunion.com/mx/jalisco/guadalajara/ae9c7e49b5cdc3b98634b37fac66fe9f,Mo-Su 08:00-20:00,Western Union,Q861042
35033c5698d8ef88b57b7d845998b51e,western_union,WALDOS PLAZA TLAJOMULCO,,Tlajomulco De Zuniga,JALISCO,,MX,+52 55 5246 0700,https://location.westernunion.com/mx/jalisco/tlajomulco-de-zuniga/35033c5698d8ef88b57b7d845998b51e,Mo-Su 06:30-23:30,Western Union,Q861042
84bfe55e7f717d59f5c1667687e37cb1,western_union,WALDOS PLAZA TLAJOMULCO,,Tlajomulco De Zuniga,JALISCO,,MX,+52 55 5246 0700,https://location.westernunion.com/mx/jalisco/tlajomulco-de-zuniga/84bfe55e7f717d59f5c1667687e37cb1,Mo-Su 06:30-23:30,Western Union,Q861042
08ff2748750a973d0119e53bd882c209,western_union,OXXO BUFALO GDL,,Tlajomulco De Zuniga,JALISCO,,MX,+52 81 8389 2121,https://location.westernunion.com/mx/jalisco/tlajomulco-de-zuniga/08ff2748750a973d0119e53bd882c209,Mo-Su 08:00-22:00,Western Union,Q861042
e32deefcbcb407cb24fd7d4647ddd02f,western_union,MUEBLES AMERICA 86 AP CASH,,Tlajomulco De Zuniga,JALISCO,,MX,+52 33 1201 1001,https://location.westernunion.com/mx/jalisco/tlajomulco-de-zuniga/e32deefcbcb407cb24fd7d4647ddd02f,Mo-Su 09:30-20:30,Western Union,Q861042
d10133c8373e0f0d535428871094084f,western_union,OXXO ESCOBEDO GDL,,Tlajomulco De Zuniga,JALISCO,,MX,+52 81 8389 2121,https://location.westernunion.com/mx/jalisco/tlajomulco-de-zuniga/d10133c8373e0f0d535428871094084f,Mo-Su 08:00-22:00,Western Union,Q861042
0a6da0f30c45e0be5c911dd836485da6,western_union,OXXO ESCOBEDO GDL,,Tlajomulco De Zuniga,JALISCO,,MX,+52 81 8389 2121,https://location.westernunion.com/mx/jalisco/tlajomulco-de-zuniga/0a6da0f30c45e0be5c911dd836485da6,Mo-Su 08:00-22:00,Western Union,Q861042
c68371277140d7699d598c67c869bc13,western_union,FARM GUAD TLAJOMULCO SAN SEBASTIAN,,Guadalajara,JALISCO,,MX,+52 800 833 4700,https://location.westernunion.com/mx/jalisco/guadalajara/c68371277140d7699d598c67c869bc13,Mo-Su 08:00-20:00,Western Union,Q861042
4b876a79d81756476f62a1f2a7ed906f,western_union,ELEKTRA 4465,,Tlajomulco De Zuniga,JALISCO,,MX,+52 55 1720 8177,https://location.westernunion.com/mx/jalisco/tlajomulco-de-zuniga/4b876a79d81756476f62a1f2a7ed906f,Mo-Su 09:00-21:00,Western Union,Q861042
1205821d91ba227273b2293139edce33,western_union,ELEKTRA 4465,,Tlajomulco De Zuniga,JALISCO,,MX,+52 55 1720 8177,https://location.westernunion.com/mx/jalisco/tlajomulco-de-zuniga/1205821d91ba227273b2293139edce33,Mo-Su 09:00-21:00,Western Union,Q861042
98cefa28e9434ef424b27b4d1bf853a6,western_union,ELEKTRA 4465,,Tlajomulco De Zuniga,JALISCO,,MX,+52 55 1720 8177,https://location.westernunion.com/mx/jalisco/tlajomulco-de-zuniga/98cefa28e9434ef424b27b4d1bf853a6,Mo-Su 09:00-21:00,Western Union,Q861042
cdc6844e795efb45e64479417f0c822b,western_union,SORIANA TLAJOMULCO CENTRO 497,,Tlajomulco De Zuniga,JALISCO,,MX,+52 33 3798 5294,https://location.westernunion.com/mx/jalisco/tlajomulco-de-zuniga/cdc6844e795efb45e64479417f0c822b,Mo-Su 08:00-23:00,Western Union,Q861042
ee42c8c77f088bee16ce31da5ea5df04,western_union,SORIANA TLAJOMULCO CENTRO 497,,Tlajomulco De Zuniga,JALISCO,,MX,+52 33 3798 5294,https://location.westernunion.com/mx/jalisco/tlajomulco-de-zuniga/ee42c8c77f088bee16ce31da5ea5df04,Mo-Su 08:00-23:00,Western Union,Q861042
25cf32dbbd9942b2d529c1478b88337b,western_union,SORIANA TLAJOMULCO CENTRO 497,,Tlajomulco De Zuniga,JALISCO,,MX,+52 33 3798 5294,https://location.westernunion.com/mx/jalisco/tlajomulco-de-zuniga/25cf32dbbd9942b2d529c1478b88337b,Mo-Su 08:00-23:00,Western Union,Q861042
b9d4ad94d3931609703419314bb15771,western_union,MUEBLES AMERICA 86 AP CASH,,Tlajomulco De Zuniga,JALISCO,,MX,+52 33 1201 1001,https://location.westernunion.com/mx/jalisco/tlajomulco-de-zuniga/b9d4ad94d3931609703419314bb15771,Mo-Su 09:30-20:30,Western Union,Q861042
232e825ddba23c94aef573e56e4c0fdc,western_union,MUEBLES AMERICA 86 AP CASH,,Tlajomulco De Zuniga,JALISCO,,MX,+52 33 1201 1001,https://location.westernunion.com/mx/jalisco/tlajomulco-de-zuniga/232e825ddba23c94aef573e56e4c0fdc,Mo-Su 09:30-20:30,Western Union,Q861042
f8bf0d9d084b54ba00033f25944abccb,western_union,OXXO TLAJOMULCO GDL,,Tlajomulco De Zuniga,JALISCO,,MX,+52 81 8389 2121,https://location.westernunion.com/mx/jalisco/tlajomulco-de-zuniga/f8bf0d9d084b54ba00033f25944abccb,Mo-Su 08:00-22:00,Western Union,Q861042
65e20c9dc390a8961b4467d051730747,western_union,OXXO TLAJOMULCO GDL,,Tlajomulco De Zuniga,JALISCO,,MX,+52 81 8389 2121,https://location.westernunion.com/mx/jalisco/tlajomulco-de-zuniga/65e20c9dc390a8961b4467d051730747,Mo-Su 08:00-22:00,Western Union,Q861042
b628495f6835f701a858b03c8e030b15,western_union,OXXO TLAJOMULCO GDL,,Tlajomulco De Zuniga,JALISCO,,MX,+52 81 8389 2121,https://location.westernunion.com/mx/jalisco/tlajomulco-de-zuniga/b628495f6835f701a858b03c8e030b15,Mo-Su 08:00-22:00,Western Union,Q861042
391db716a75e5d9ee36f1b9f92f87c1b,western_union,OXXO BUFALO GDL,,Tlajomulco De Zuniga,JALISCO,,MX,+52 81 8389 2121,https://location.westernunion.com/mx/jalisco/tlajomulco-de-zuniga/391db716a75e5d9ee36f1b9f92f87c1b,Mo-Su 08:00-22:00,Western Union,Q861042
0fdf8cf19bd528c6c81b8c04fdecc14a,western_union,OXXO BUFALO GDL,,Tlajomulco De Zuniga,JALISCO,,MX,+52 81 8389 2121,https://location.westernunion.com/mx/jalisco/tlajomulco-de-zuniga/0fdf8cf19bd528c6c81b8c04fdecc14a,Mo-Su 08:00-22:00,Western Union,Q861042
60dc89cf5dc5e76d15b6dc430ff0d18f,western_union,BANORTE 02711 TLAJOMULCO,,Tlajomulco De Zuniga,JALISCO,,MX,+52 800 833 4700,https://location.westernunion.com/mx/jalisco/tlajomulco-de-zuniga/60dc89cf5dc5e76d15b6dc430ff0d18f,Mo-Fr 08:30-16:00,Western Union,Q861042
5af8cd1fdaebf100dd60ba447c6e8e96,western_union,BANORTE 02711 TLAJOMULCO,,Tlajomulco De Zuniga,JALISCO,,MX,+52 800 833 4700,https://location.westernunion.com/mx/jalisco/tlajomulco-de-zuniga/5af8cd1fdaebf100dd60ba447c6e8e96,Mo-Fr 08:30-16:00,Western Union,Q861042
e823eff7bfcac43d280e534a1447020b,western_union,BANORTE 02711 TLAJOMULCO,,Tlajomulco De Zuniga,JALISCO,,MX,+52 800 833 4700,https://location.westernunion.com/mx/jalisco/tlajomulco-de-zuniga/e823eff7bfcac43d280e534a1447020b,Mo-Fr 08:30-16:00,Western Union,Q861042
a7eb998fdad217f2004752728fd416ea,western_union,FARM GUAD VALLARTA JAL,,Tlajomulco De Zuniga,JALISCO,,MX,+52 800 833 4700,https://location.westernunion.com/mx/jalisco/tlajomulco-de-zuniga/a7eb998fdad217f2004752728fd416ea,Mo-Su 08:00-20:00,Western Union,Q861042
87a29814fe82b348d7ce4184f3c5683b,western_union,FARM GUAD VALLARTA JAL,,Tlajomulco De Zuniga,JALISCO,,MX,+52 800 833 4700,https://location.westernunion.com/mx/jalisco/tlajomulco-de-zuniga/87a29814fe82b348d7ce4184f3c5683b,Mo-Su 08:00-20:00,Western Union,Q861042
e5956f0b88ade26f0aa2516ef28c338f,western_union,FARM GUAD VALLARTA JAL,,Tlajomulco De Zuniga,JALISCO,,MX,+52 800 833 4700,https://location.westernunion.com/mx/jalisco/tlajomulco-de-zuniga/e5956f0b88ade26f0aa2516ef28c338f,Mo-Su 08:00-20:00,Western Union,Q861042
fb754551a4af368e1910ef542c8fba8d,western_union,TELECOMM 14088,,Tlajomulco De Zuniga,JALISCO,,MX,+52 800 800 8930,https://location.westernunion.com/mx/jalisco/tlajomulco-de-zuniga/fb754551a4af368e1910ef542c8fba8d,Mo-Fr 09:00-15:30,Western Union,Q861042
e21a80ec7413e660d2edac30ba2c158a,western_union,TELECOMM 14088,,Tlajomulco De Zuniga,JALISCO,,MX,+52 800 800 8930,https://location.westernunion.com/mx/jalisco/tlajomulco-de-zuniga/e21a80ec7413e660d2edac30ba2c158a,Mo-Su 09:00-20:00,Western Union,Q861042
1e9d6860df3f604726fd763fe4663835,western_union,TELECOMM 14088,,Tlajomulco De Zuniga,JALISCO,,MX,+52 800 800 9889,https://location.westernunion.com/mx/jalisco/tlajomulco-de-zuniga/1e9d6860df3f604726fd763fe4663835,Mo-Fr 09:00-15:00,Western Union,Q861042
59836d333e331fd8585842b401dd082f,western_union,BANCOPPEL 1300 SAN AGUSTIN,,Tlajomulco De Zuniga,JALISCO,,MX,(+52) 667-589999,https://location.westernunion.com/mx/jalisco/tlajomulco-de-zuniga/59836d333e331fd8585842b401dd082f,Mo-Su 08:30-21:00,Western Union,Q861042
7d98eb81ebf2fb4b3f1c4fb35de6f8c8,western_union,BANCOPPEL 1300 SAN AGUSTIN,,Tlajomulco De Zuniga,JALISCO,,MX,(+52) 667-589999,https://location.westernunion.com/mx/jalisco/tlajomulco-de-zuniga/7d98eb81ebf2fb4b3f1c4fb35de6f8c8,Mo-Su 08:30-21:00,Western Union,Q861042
cf50495752f3d134f1b5ef2f37cd101d,western_union,BANCOPPEL 1300 SAN AGUSTIN,,Tlajomulco De Zuniga,JALISCO,,MX,(+52) 667-589999,https://location.westernunion.com/mx/jalisco/tlajomulco-de-zuniga/cf50495752f3d134f1b5ef2f37cd101d,Mo-Su 08:30-21:00,Western Union,Q861042
44e2f6933efae6dac05ce916af802b43,western_union,DAZ 9851 TLAJOMULCO,,Tlajomulco De Zuniga,JALISCO,,MX,+52 55 1720 8177,https://location.westernunion.com/mx/jalisco/tlajomulco-de-zuniga/44e2f6933efae6dac05ce916af802b43,Mo-Su 09:00-21:00,Western Union,Q861042
eb34ad498a0992f7260bd469b32bdd7e,western_union,DAZ 9851 TLAJOMULCO,,Tlajomulco De Zuniga,JALISCO,,MX,+52 55 1720 8177,https://location.westernunion.com/mx/jalisco/tlajomulco-de-zuniga/eb34ad498a0992f7260bd469b32bdd7e,Mo-Su 09:00-21:00,Western Union,Q861042
bac887bbe8d1055ee0814b171c805f5c,western_union,DAZ 9851 TLAJOMULCO,,Tlajomulco De Zuniga,JALISCO,,MX,+52 55 1720 8177,https://location.westernunion.com/mx/jalisco/tlajomulco-de-zuniga/bac887bbe8d1055ee0814b171c805f5c,Mo-Su 09:00-21:00,Western Union,Q861042
7bd96cad2de4c8acb84194b23442d396,western_union,OXXO LERDO DE TEJEDA GDL,,Tlajomulco De Zuniga,JALISCO,,MX,+52 81 8389 2121,https://location.westernunion.com/mx/jalisco/tlajomulco-de-zuniga/7bd96cad2de4c8acb84194b23442d396,Mo-Su 08:00-22:00,Western Union,Q861042
3d9b0f1dc6ff21ccc87adec48091b50e,western_union,OXXO LERDO DE TEJEDA GDL,,Tlajomulco De Zuniga,JALISCO,,MX,+52 81 8389 2121,https://location.westernunion.com/mx/jalisco/tlajomulco-de-zuniga/3d9b0f1dc6ff21ccc87adec48091b50e,Mo-Su 08:00-22:00,Western Union,Q861042
c021794d7a6e7d36fe1b23b016d3146b,western_union,OXXO LERDO DE TEJEDA GDL,,Tlajomulco De Zuniga,JALISCO,,MX,+52 81 8389 2121,https://location.westernunion.com/mx/jalisco/tlajomulco-de-zuniga/c021794d7a6e7d36fe1b23b016d3146b,Mo-Su 08:00-22:00,Western Union,Q861042
e3c0000f79a364eaa0e49a15b26949e3,western_union,OXXO TLAJO JUAREZ GDL,,Tlajomulco De Zuniga,JALISCO,,MX,+52 81 8389 2121,https://location.westernunion.com/mx/jalisco/tlajomulco-de-zuniga/e3c0000f79a364eaa0e49a15b26949e3,Mo-Su 08:00-22:00,Western Union,Q861042
5af292e2e3edb9a08ea6e17c2b837c2e,western_union,OXXO TLAJO JUAREZ GDL,,Tlajomulco De Zuniga,JALISCO,,MX,+52 81 8389 2121,https://location.westernunion.com/mx/jalisco/tlajomulco-de-zuniga/5af292e2e3edb9a08ea6e17c2b837c2e,Mo-Su 08:00-22:00,Western Union,Q861042
73df10a32417935d44ea505c734f4d15,western_union,OXXO TLAJO JUAREZ GDL,,Tlajomulco De Zuniga,JALISCO,,MX,+52 81 8389 2121,https://location.westernunion.com/mx/jalisco/tlajomulco-de-zuniga/73df10a32417935d44ea505c734f4d15,Mo-Su 08:00-22:00,Western Union,Q861042
a3b8406ef968ca470c982e83ee1e0abf,western_union,BANCOPPEL 1346 JUAREZ,,Tlajomulco De Zuniga,JALISCO,,MX,(+52) 667-589999,https://location.westernunion.com/mx/jalisco/tlajomulco-de-zuniga/a3b8406ef968ca470c982e83ee1e0abf,Mo-Su 08:30-21:00,Western Union,Q861042
65eadf2f3848c7ddaee0366849a323db,western_union,BANCOPPEL 1346 JUAREZ,,Tlajomulco De Zuniga,JALISCO,,MX,(+52) 667-589999,https://location.westernunion.com/mx/jalisco/tlajomulco-de-zuniga/65eadf2f3848c7ddaee0366849a323db,Mo-Su 08:30-21:00,Western Union,Q861042
4fa94b98d2081b292b5fd742ea54e397,western_union,BANCOPPEL 1346 JUAREZ,,Tlajomulco De Zuniga,JALISCO,,MX,(+52) 667-589999,https://location.westernunion.com/mx/jalisco/tlajomulco-de-zuniga/4fa94b98d2081b292b5fd742ea54e397,Mo-Su 08:30-21:00,Western Union,Q861042
631a467fe89803c1b74c365426f9e50c,western_union,OXXO TLAJOMULCO CEN GDL,,Tlajomulco De Zuniga,JALISCO,,MX,+52 81 8389 2121,https://location.westernunion.com/mx/jalisco/tlajomulco-de-zuniga/631a467fe89803c1b74c365426f9e50c,Mo-Su 08:00-22:00,Western Union,Q861042
32c06bc6a15285726af9f224039d7b6a,western_union,OXXO TLAJOMULCO CEN GDL,,Tlajomulco De Zuniga,JALISCO,,MX,+52 81 8389 2121,https://location.westernunion.com/mx/jalisco/tlajomulco-de-zuniga/32c06bc6a15285726af9f224039d7b6a,Mo-Su 08:00-22:00,Western Union,Q861042
c0a6457cd752bf19cc6dadb6308bae24,western_union,OXXO TLAJOMULCO CEN GDL,,Tlajomulco De Zuniga,JALISCO,,MX,+52 81 8389 2121,https://location.westernunion.com/mx/jalisco/tlajomulco-de-zuniga/c0a6457cd752bf19cc6dadb6308bae24,Mo-Su 08:00-22:00,Western Union,Q861042
869dba1ffb9efa2458427d60189fc147,western_union,FARM GUAD CAMINO A LA CONCHA,,Tlajomulco De Zuniga,JALISCO,,MX,+52 800 833 4700,https://location.westernunion.com/mx/jalisco/tlajomulco-de-zuniga/869dba1ffb9efa2458427d60189fc147,Mo-Su 08:00-20:00,Western Union,Q861042
c6afa25c722789f9272a8a3ed5657bcd,western_union,FARM GUAD CAMINO A LA CONCHA,,Tlajomulco De Zuniga,JALISCO,,MX,+52 800 833 4700,https://location.westernunion.com/mx/jalisco/tlajomulco-de-zuniga/c6afa25c722789f9272a8a3ed5657bcd,Mo-Su 08:00-20:00,Western Union,Q861042
89995acd070f108a20877d8085f1a62a,western_union,FARM GUAD CAMINO A LA CONCHA,,Tlajomulco De Zuniga,JALISCO,,MX,+52 800 833 4700,https://location.westernunion.com/mx/jalisco/tlajomulco-de-zuniga/89995acd070f108a20877d8085f1a62a,Mo-Su 08:00-20:00,Western Union,Q861042
dd571de4edf02c1bc3c1565241b4ef91,western_union,AURRERA TLAJOMULCO 1716,,Tlajomulco De Zuniga,JALISCO,,MX,+52 800 833 4700,https://location.westernunion.com/mx/jalisco/tlajomulco-de-zuniga/dd571de4edf02c1bc3c1565241b4ef91,Mo-Su 07:00-23:00,Western Union,Q861042
1d34458860d42a138a0588d591361b2c,western_union,AURRERA TLAJOMULCO 1716,,Tlajomulco De Zuniga,JALISCO,,MX,+52 800 833 4700,https://location.westernunion.com/mx/jalisco/tlajomulco-de-zuniga/1d34458860d42a138a0588d591361b2c,Mo-Su 07:00-23:00,Western Union,Q861042
9ed976a4191a44ad37b8415ac0f88a03,western_union,AURRERA TLAJOMULCO 1716,,Tlajomulco De Zuniga,JALISCO,,MX,+52 800 833 4700,https://location.westernunion.com/mx/jalisco/tlajomulco-de-zuniga/9ed976a4191a44ad37b8415ac0f88a03,Mo-Su 07:00-23:00,Western Union,Q861042
851c11f8a766e88c9f09b83934a6c868,western_union,OXXO PEDRO PARRA GDL,,Tlajomulco De Zuniga,JALISCO,,MX,+52 81 8389 2121,https://location.westernunion.com/mx/jalisco/tlajomulco-de-zuniga/851c11f8a766e88c9f09b83934a6c868,Mo-Su 08:00-22:00,Western Union,Q861042
41804a9d2f48565475f2bc776a009721,western_union,OXXO PEDRO PARRA GDL,,Tlajomulco De Zuniga,JALISCO,,MX,+52 81 8389 2121,https://location.westernunion.com/mx/jalisco/tlajomulco-de-zuniga/41804a9d2f48565475f2bc776a009721,Mo-Su 08:00-22:00,Western Union,Q861042
1cdc42527262273a79936dc890e089fe,western_union,OXXO PEDRO PARRA GDL,,Tlajomulco De Zuniga,JALISCO,,MX,+52 81 8389 2121,https://location.westernunion.com/mx/jalisco/tlajomulco-de-zuniga/1cdc42527262273a79936dc890e089fe,Mo-Su 08:00-22:00,Western Union,Q861042
d5c7a7866209c1b56c679eaa0f7c18d8,western_union,OXXO EL TAJO GDL,,Tlajomulco De Zuniga,JALISCO,,MX,+52 81 8389 2121,https://location.westernunion.com/mx/jalisco/tlajomulco-de-zuniga/d5c7a7866209c1b56c679eaa0f7c18d8,Mo-Su 08:00-22:00,Western Union,Q861042
55f28e3cfadf1ab9d5c80383b33c9ff4,western_union,OXXO EL TAJO GDL,,Tlajomulco De Zuniga,JALISCO,,MX,+52 81 8389 2121,https://location.westernunion.com/mx/jalisco/tlajomulco-de-zuniga/55f28e3cfadf1ab9d5c80383b33c9ff4,Mo-Su 08:00-22:00,Western Union,Q861042
0d55c2c66642a9239f6a839116a00f50,western_union,OXXO EL TAJO GDL,,Tlajomulco De Zuniga,JALISCO,,MX,+52 81 8389 2121,https://location.westernunion.com/mx/jalisco/tlajomulco-de-zuniga/0d55c2c66642a9239f6a839116a00f50,Mo-Su 08:00-22:00,Western Union,Q861042
e3fbdb536fce0ee7e39f7b2b2a35ee57,western_union,7ELEVEN LA RIOJA 2405,,Tlajomulco De Zuniga,JALISCO,,MX,+52 800 833 4700,https://location.westernunion.com/mx/jalisco/tlajomulco-de-zuniga/e3fbdb536fce0ee7e39f7b2b2a35ee57,Mo-Su 06:00-22:00,Western Union,Q861042
718c69a01496cfe3df33f8900f68e8f2,western_union,AURRERA EXPRESS VISTA SUR 4870,,Tlajomulco De Zuniga,JALISCO,,MX,+52 800 833 4700,https://location.westernunion.com/mx/jalisco/tlajomulco-de-zuniga/718c69a01496cfe3df33f8900f68e8f2,Mo-Su 08:00-22:00,Western Union,Q861042
fb89e701f279022f3d38cf8654313d21,western_union,AURRERA EXPRESS VISTA SUR 4870,,Tlajomulco De Zuniga,JALISCO,,MX,+52 800 833 4700,https://location.westernunion.com/mx/jalisco/tlajomulco-de-zuniga/fb89e701f279022f3d38cf8654313d21,Mo-Su 08:00-22:00,Western Union,Q861042
c576d90976580ada31dbc71faffccefe,western_union,AURRERA EXPRESS VISTA SUR 4870,,Tlajomulco De Zuniga,JALISCO,,MX,+52 800 833 4700,https://location.westernunion.com/mx/jalisco/tlajomulco-de-zuniga/c576d90976580ada31dbc71faffccefe,Mo-Su 08:00-22:00,Western Union,Q861042
3bcfbc8d14290f7a3220c84adee1fa9e,western_union,7ELEVEN LA RIOJA 2405,,Tlajomulco De Zuniga,JALISCO,,MX,+52 800 833 4700,https://location.westernunion.com/mx/jalisco/tlajomulco-de-zuniga/3bcfbc8d14290f7a3220c84adee1fa9e,Mo-Su 06:00-22:00,Western Union,Q861042
9a369bf9797a0f88700e500ce996dd9e,western_union,OXXO BANUS GDL,,Tlajomulco De Zuniga,JALISCO,,MX,+52 81 8389 2121,https://location.westernunion.com/mx/jalisco/tlajomulco-de-zuniga/9a369bf9797a0f88700e500ce996dd9e,Mo-Su 08:00-22:00,Western Union,Q861042
0f9b757d5440b25a5820891b82bc97a4,western_union,OXXO BANUS GDL,,Tlajomulco De Zuniga,JALISCO,,MX,+52 81 8389 2121,https://location.westernunion.com/mx/jalisco/tlajomulco-de-zuniga/0f9b757d5440b25a5820891b82bc97a4,Mo-Su 08:00-22:00,Western Union,Q861042
5441a0f11c03dc92c37c6ff053648937,western_union,OXXO BANUS GDL,,Tlajomulco De Zuniga,JALISCO,,MX,+52 81 8389 2121,https://location.westernunion.com/mx/jalisco/tlajomulco-de-zuniga/5441a0f11c03dc92c37c6ff053648937,Mo-Su 08:00-22:00,Western Union,Q861042
054dab1393a2b2482b08d462f3bf70ed,western_union,OXXO LAS CUATAS GDL,,Tlajomulco De Zuniga,JALISCO,,MX,+52 81 8389 2121,https://location.westernunion.com/mx/jalisco/tlajomulco-de-zuniga/054dab1393a2b2482b08d462f3bf70ed,Mo-Su 08:00-22:00,Western Union,Q861042
ac99f461c70e02ae930fa478456c50ab,western_union,OXXO LAS CUATAS GDL,,Tlajomulco De Zuniga,JALISCO,,MX,+52 81 8389 2121,https://location.westernunion.com/mx/jalisco/tlajomulco-de-zuniga/ac99f461c70e02ae930fa478456c50ab,Mo-Su 08:00-22:00,Western Union,Q861042
58d20770dda476f595498c1bf026bf30,western_union,OXXO LAS CUATAS GDL,,Tlajomulco De Zuniga,JALISCO,,MX,+52 81 8389 2121,https://location.westernunion.com/mx/jalisco/tlajomulco-de-zuniga/58d20770dda476f595498c1bf026bf30,Mo-Su 08:00-22:00,Western Union,Q861042
c753dfdf3b7aea8fb3ea5f11ad63fe06,western_union,OXXO TRIGO  GDL,,Tlajomulco De Zuniga,JALISCO,,MX,+52 81 8389 2121,https://location.westernunion.com/mx/jalisco/tlajomulco-de-zuniga/c753dfdf3b7aea8fb3ea5f11ad63fe06,Mo-Su 06:00-22:00,Western Union,Q861042
0dad571d918405d7d7970c0fcd8f3535,western_union,7ELEVEN SANTA CRUZ 965,,Tlajomulco De Zuniga,JALISCO,,MX,+52 800 833 4700,https://location.westernunion.com/mx/jalisco/tlajomulco-de-zuniga/0dad571d918405d7d7970c0fcd8f3535,Mo-Su 06:00-22:00,Western Union,Q861042
936800d15e4ad94b693932930b34313e,western_union,7ELEVEN SANTA CRUZ 965,,Tlajomulco De Zuniga,JALISCO,,MX,+52 800 833 4700,https://location.westernunion.com/mx/jalisco/tlajomulco-de-zuniga/936800d15e4ad94b693932930b34313e,Mo-Su 06:00-22:00,Western Union,Q861042
51a3d6258319961804b4f912f3dacd6a,western_union,7ELEVEN SANTA CRUZ 965,,Tlajomulco De Zuniga,JALISCO,,MX,+52 800 833 4700,https://location.westernunion.com/mx/jalisco/tlajomulco-de-zuniga/51a3d6258319961804b4f912f3dacd6a,Mo-Su 06:00-22:00,Western Union,Q861042
784f51093ee9a8c025bea446c38e53bc,western_union,OXXO TRIGO  GDL,,Tlajomulco De Zuniga,JALISCO,,MX,+52 81 8389 2121,https://location.westernunion.com/mx/jalisco/tlajomulco-de-zuniga/784f51093ee9a8c025bea446c38e53bc,Mo-Su 06:00-22:00,Western Union,Q861042
f763c8a424e884e53f39da6a14d494e1,western_union,OXXO TRIGO  GDL,,Tlajomulco De Zuniga,JALISCO,,MX,+52 81 8389 2121,https://location.westernunion.com/mx/jalisco/tlajomulco-de-zuniga/f763c8a424e884e53f39da6a14d494e1,Mo-Su 06:00-22:00,Western Union,Q861042
01217f8339030f840aa3fd5ba29f5cf1,western_union,OXXO SAN ISIDRO MAZAT GDL,,Tlajomulco De Zuniga,JALISCO,,MX,+52 81 8389 2121,https://location.westernunion.com/mx/jalisco/tlajomulco-de-zuniga/01217f8339030f840aa3fd5ba29f5cf1,Mo-Su 08:00-22:00,Western Union,Q861042
62b4f6f37074e61565d1b6783dc33327,western_union,OXXO SAN ISIDRO MAZAT GDL,,Tlajomulco De Zuniga,JALISCO,,MX,+52 81 8389 2121,https://location.westernunion.com/mx/jalisco/tlajomulco-de-zuniga/62b4f6f37074e61565d1b6783dc33327,Mo-Su 08:00-22:00,Western Union,Q861042
87b70c94045ac7101fc15d9f64c9e738,western_union,OXXO SAN ISIDRO MAZAT GDL,,Tlajomulco De Zuniga,JALISCO,,MX,+52 81 8389 2121,https://location.westernunion.com/mx/jalisco/tlajomulco-de-zuniga/87b70c94045ac7101fc15d9f64c9e738,Mo-Su 08:00-22:00,Western Union,Q861042
075ec2bb5b332c66cf4cf4e5139c254d,western_union,OXXO TONILA GDL,,Tlajomulco De Zuniga,JALISCO,,MX,+52 81 8389 2121,https://location.westernunion.com/mx/jalisco/tlajomulco-de-zuniga/075ec2bb5b332c66cf4cf4e5139c254d,Mo-Su 08:00-22:00,Western Union,Q861042
3577b9ec1c1d1b55dbe29722401edd54,western_union,OXXO BUENAVISTA GDL,,Tlajomulco De Zuniga,JALISCO,,MX,+52 81 8389 2121,https://location.westernunion.com/mx/jalisco/tlajomulco-de-zuniga/3577b9ec1c1d1b55dbe29722401edd54,Mo-Su 08:00-22:00,Western Union,Q861042
366b2256df5ffe1dcc953d517bb0fee4,western_union,OXXO BUENAVISTA GDL,,Tlajomulco De Zuniga,JALISCO,,MX,+52 81 8389 2121,https://location.westernunion.com/mx/jalisco/tlajomulco-de-zuniga/366b2256df5ffe1dcc953d517bb0fee4,Mo-Su 08:00-22:00,Western Union,Q861042
041c776e4d836380739915c80664542d,western_union,OXXO BUENAVISTA GDL,,Tlajomulco De Zuniga,JALISCO,,MX,+52 81 8389 2121,https://location.westernunion.com/mx/jalisco/tlajomulco-de-zuniga/041c776e4d836380739915c80664542d,Mo-Su 08:00-22:00,Western Union,Q861042
27e66e8bc60d8e0e7375e0313b476cbd,western_union,OXXO BUENAVISTA II GDL,,Tlajomulco De Zuniga,JALISCO,,MX,+52 81 8389 2121,https://location.westernunion.com/mx/jalisco/tlajomulco-de-zuniga/27e66e8bc60d8e0e7375e0313b476cbd,Mo-Su 08:00-22:00,Western Union,Q861042
92404a47c56e64e908447405ca4322b4,western_union,OXXO BUENAVISTA II GDL,,Tlajomulco De Zuniga,JALISCO,,MX,+52 81 8389 2121,https://location.westernunion.com/mx/jalisco/tlajomulco-de-zuniga/92404a47c56e64e908447405ca4322b4,Mo-Su 08:00-22:00,Western Union,Q861042
61e098cb9cde056feb9efc0f62c7086b,western_union,OXXO BUENAVISTA II GDL,,Tlajomulco De Zuniga,JALISCO,,MX,+52 81 8389 2121,https://location.westernunion.com/mx/jalisco/tlajomulco-de-zuniga/61e098cb9cde056feb9efc0f62c7086b,Mo-Su 08:00-22:00,Western Union,Q861042
758c99d9defde8f1a483a2054f7c8871,western_union,OXXO EL CUARENTA GDL,,Tlajomulco De Zuniga,JALISCO,,MX,+52 81 8389 2121,https://location.westernunion.com/mx/jalisco/tlajomulco-de-zuniga/758c99d9defde8f1a483a2054f7c8871,Mo-Su 08:00-22:00,Western Union,Q861042
c275fb624bc40546206ea7cb38a67580,western_union,OXXO EL CUARENTA GDL,,Tlajomulco De Zuniga,JALISCO,,MX,+52 81 8389 2121,https://location.westernunion.com/mx/jalisco/tlajomulco-de-zuniga/c275fb624bc40546206ea7cb38a67580,Mo-Su 08:00-22:00,Western Union,Q861042
8af190982d512454ec3d8decce9b4615,western_union,OXXO EL CUARENTA GDL,,Tlajomulco De Zuniga,JALISCO,,MX,+52 81 8389 2121,https://location.westernunion.com/mx/jalisco/tlajomulco-de-zuniga/8af190982d512454ec3d8decce9b4615,Mo-Su 08:00-22:00,Western Union,Q861042
d522c70ed7b01f0d32e27f09de970b46,western_union,OXXO LA CURVA GDL,,Tlajomulco De Zuniga,JALISCO,,MX,+52 81 8389 2121,https://location.westernunion.com/mx/jalisco/tlajomulco-de-zuniga/d522c70ed7b01f0d32e27f09de970b46,Mo-Su 08:00-22:00,Western Union,Q861042
00949a051eef13e2cfa5b7ea573f6c1a,western_union,OXXO LA CURVA GDL,,Tlajomulco De Zuniga,JALISCO,,MX,+52 81 8389 2121,https://location.westernunion.com/mx/jalisco/tlajomulco-de-zuniga/00949a051eef13e2cfa5b7ea573f6c1a,Mo-Su 08:00-22:00,Western Union,Q861042
50e2ef35f1e23eab63c97485236fbfc7,western_union,OXXO TONILA GDL,,Tlajomulco De Zuniga,JALISCO,,MX,+52 81 8389 2121,https://location.westernunion.com/mx/jalisco/tlajomulco-de-zuniga/50e2ef35f1e23eab63c97485236fbfc7,Mo-Su 08:00-22:00,Western Union,Q861042
df710021a79c718b43159508c334c615,western_union,OXXO TONILA GDL,,Tlajomulco De Zuniga,JALISCO,,MX,+52 81 8389 2121,https://location.westernunion.com/mx/jalisco/tlajomulco-de-zuniga/df710021a79c718b43159508c334c615,Mo-Su 08:00-22:00,Western Union,Q861042
bd44e6664ad0a31f76b4cd00d68e7115,western_union,OXXO HIGUERAS GDL,,Tlajomulco De Zuniga,JALISCO,,MX,+52 81 8389 2121,https://location.westernunion.com/mx/jalisco/tlajomulco-de-zuniga/bd44e6664ad0a31f76b4cd00d68e7115,Mo-Su 08:00-22:00,Western Union,Q861042
cfdcb67491f1bd33d798c862ed98aab3,western_union,OXXO HIGUERAS GDL,,Tlajomulco De Zuniga,JALISCO,,MX,+52 81 8389 2121,https://location.westernunion.com/mx/jalisco/tlajomulco-de-zuniga/cfdcb67491f1bd33d798c862ed98aab3,Mo-Su 08:00-22:00,Western Union,Q861042
e2998713e8598df32f7c415cf97bd36c,western_union,OXXO HIGUERAS GDL,,Tlajomulco De Zuniga,JALISCO,,MX,+52 81 8389 2121,https://location.westernunion.com/mx/jalisco/tlajomulco-de-zuniga/e2998713e8598df32f7c415cf97bd36c,Mo-Su 08:00-22:00,Western Union,Q861042
