Ref,Spider,Name,Address,City,State,Zipcode,Country,Phone,Website,Hours,Brand,WikiData
https://local.acmemarkets.com/#5602998,albertsons,ACME Markets,,Mohegan Lake,NY,,US,+1 914-526-6688,https://local.acmemarkets.com/ny/mohegan-lake/3071-e-main-st.html,"Mo-Fr 07:00-23:00,09:00-20:00; Sa 07:00-23:00,09:00-17:00; Su 07:00-21:00,09:00-16:00",ACME Markets,Q341975
https://local.pharmacy.acmemarkets.com/#5672371,albertsons,ACME Markets Pharmacy,,Mohegan Lake,NY,,US,+1 914-526-6650,https://local.pharmacy.acmemarkets.com/ny/mohegan-lake/3071-e-main-st.html,Mo-Fr 09:00-20:00; Sa 09:00-17:00; Su 09:00-16:00,ACME Markets,Q341975
https://restaurants.applebees.com/en-us/ny/mohegan-lake/3127-e.-main-street-94014,applebees,Connect with this Applebee's,,Mohegan Lake,NY,,US,+1 914-526-9000,https://restaurants.applebees.com/en-us/ny/mohegan-lake/3127-e.-main-street-94014,Mo-Th 09:00-24:00; Fr-Sa 09:00-01:00; Su 09:00-23:00,Applebees,Q621532
https://stores.ashleyfurniture.com/store/us/new-york/mohegan-lake/9000822595/,ashley_furniture,"Ashley Store Mohegan Lake, NY",,Mohegan Lake,NY,,US,+1 732-548-1200,https://stores.ashleyfurniture.com/store/us/new-york/mohegan-lake/9000822595/,,Ashley Furniture,Q4805437
USAA08A09,audi,Audi Mohegan Lake,"1791 E Main St, Mohegan Lake, NY 10547",Mohegan Lake,NY,,US,+1 914-528-8076,,,Audi,Q23317
https://www.banfield.com/locations/veterinarians/ny/mohegan-lake/crt,banfield_pet_hospital,Cortlandt,,Mohegan Lake,NY,,US,+1 914-526-8600,https://www.banfield.com/locations/veterinarians/ny/mohegan-lake/crt,Mo-Fr 07:00-18:00; Sa 08:00-17:00; Su 00:00-24:00,Banfield Pet Hospital,Q2882416
https://stores.bestbuy.com/ny/mohegan-lake/3105-e-main-st-1029.html,bestbuy,Best Buy Cortlandt,,Mohegan Lake,NY,,US,+1 914-528-3807,https://stores.bestbuy.com/ny/mohegan-lake/3105-e-main-st-1029.html,,Best Buy,Q533415
38947,bluerhino,Walmart #2531,,Mohegan Lake,NY,,US,+1 914-526-1100,,,Blue Rhino,Q65681213
186469,bluerhino,Lakeside Hardware & Building Materials #16989,,Mohegan Lake,NY,,US,+1 914-528-0030,,,Blue Rhino,Q65681213
10895558697701054700100000000000,bp,BP,,Mohegan Lake,NY,,US,+1 914-743-1040,,Mo-Su 06:00-23:00,BP,Q152057
//locations.carters.com/ny/mohegan-lake/carters-mohegan-lake-ny,carters_us,Carter's Mohegan Lake,,Mohegan Lake,NY,,US,+1 914-528-0210,https://locations.carters.com/ny/mohegan-lake/carters-mohegan-lake-ny,Mo-Sa 10:00-19:00; Su 11:00-18:00,Carter's,Q5047083
15613315,chase_us,Mohegan Lake - New branch,,Mohegan Lake,NY,,US,+1 914-528-4221,https://locator.chase.com/ny/mohegan-lake/3129-e-main-st,Mo-Fr 09:00-17:00; Sa 09:00-14:00,Chase,Q524629
ny_mohegan-lake_3144-e-main-street,chipotle, ,,Mohegan Lake,NY,,US,+1 914-528-3281,https://locations.chipotle.com/ny/mohegan-lake/3144-e-main-street,,Chipotle,Q465751
75805,citi,ATM Shop Rite,,Mohegan Lake,NY,,US,,,,Citibank,Q857063
123,citi,Lakeland,,Mohegan Lake,NY,,US,+1 800-627-3999,,,Citibank,Q857063
,credit_union_us,Sunmark CU,,Mohegan Lake,NY,,US,+1 866-786-6275,,Mo-Tu 09:00-04:30; We 10:00-04:30; Th-Fr 09:00-06:00; Sa 09:00-01:00,,
2550,cvs_us,CVS Pharmacy,,Mohegan Lake,NY,,US,+1 914-528-5159,https://www.cvs.com/store-locator/mohegan-lake-ny-pharmacies/1775-e-main-st-mohegan-lake-ny-10547/storeid=2550,Mo-Su 07:00-23:00,CVS Pharmacy,Q2078880
Cortlandt Town Center,dsw,DSW,,Mohegan Lake,NY,,US,+1 914-529-7001,https://stores.dsw.com/usa/ny/moheganlake/dsw-designer-shoe-warehouse-cortlandt-town-center.html,Mo-Sa 10:00-20:00; Su 11:00-19:00,Designer Shoe Warehouse,Q5206207
340671,dunkin_us,Dunkin',,Mohegan Lake,NY,,US,+1 914-526-5560,https://locations.dunkindonuts.com/en/ny/mohegan-lake/1851-e-main-st/340671,Mo-Su 00:00-20:00,Dunkin',Q847743
https://locations.fivebelow.com/ny/mohegan-lake/3123-e-main-street,five_below,Five Below Mohegan Lake,,Mohegan Lake,NY,,US,,https://locations.fivebelow.com/ny/mohegan-lake/3123-e-main-street,Mo-Sa 10:00-20:00; Su 11:00-18:00,Five Below,Q5455836
https://restaurants.fiveguys.com/#15553050,five_guys_us,Five Guys Cortland Town Center,,Mohegan Lake,NY,,US,+1 914-618-4450,https://restaurants.fiveguys.com/3121-e-main-street,"Mo-Su 11:00-21:30,11:00-22:00",Five Guys,Q1131810
2790,gamestop_us,Cortland Town Center,,Mohegan Lake,NY,,US,+1 914-526-3318,https://www.gamestop.com/search/?store=2790,Mo-Th 12:00-19:00; Fr-Sa 11:00-20:00; Su 12:00-19:00,GameStop,Q202210
https://locations.us.homesense.com/#2918,homesense,Homesense,,Mohegan Lake,NY,,US,+1 631-727-5281,https://locations.us.homesense.com//ny/mohegan-lake,Mo-Sa 09:30-21:30; Su 10:00-20:00,HomeSense,Q16844433
30648,h_r_block,H&R Block,,Mohegan Lake,NY,,US,+1 914-528-5072,https://www.hrblock.com/local-tax-offices/new-york/mohegan-lake/cortlandt-town-center/30648/,,H&R Block,Q5627799
ny_mohegan-lake_breakfast-1745-e-main-st-2104,ihop,IHOP Breakfast Restaurants Near You at 1745 E Main St,,Mohegan Lake,NY,,US,+1 914-743-1780,https://restaurants.ihop.com/en-us/ny/mohegan-lake/breakfast-1745-e-main-st-2104,,IHOP,Q1185675
https://office.jacksonhewitt.com/#27578941,jackson_hewitt,Jackson Hewitt,,Mohegan Lake,NY,,US,+1 718-653-1032,https://office.jacksonhewitt.com/tax-preparation-services-locations/en/ny/mohegan-lake/3133-east-main-st/52531,Mo-Sa 10:00-18:00; Su 12:00-17:00,Jackson Hewitt,Q6117132
17195,mattress_firm_us,Mattress Firm Peekskill,,Mohegan Lake,NY,,US,+1 914-526-1926,https://www.mattressfirm.com/en-us/stores/ny/mohegan-lake/180013/,,Mattress Firm,Q6791878
https://locations.mtb.com/#25082980,mt_bank_us,M&T Bank,,,NY,,US,+1 914-528-1117,https://locations.mtb.com/ny/moheganlake/bank-branches-and-atms-mohegan-lake-ny-3421.html,Mo-Th 09:00-16:00; Fr 09:00-17:00; Sa 09:00-12:00,M&T Bank,Q3272257
//locations.oshkosh.com/ny/mohegan-lake/oshkosh-mohegan-lake-ny,oshkosh_us,Oshkosh B'gosh Mohegan Lake,,Mohegan Lake,NY,,US,+1 914-528-0210,https://locations.oshkosh.com/ny/mohegan-lake/oshkosh-mohegan-lake-ny,Mo-Sa 10:00-19:00; Su 11:00-18:00,OshKosh B'gosh,Q1417347
ny_mohegan-lake_1751-east-main-street,pizza_hut_us,1751 East Main Street,,Mohegan Lake,NY,,US,+1 914-528-1111,https://locations.pizzahut.com/ny/mohegan-lake/1751-east-main-street,,Pizza Hut,Q191615
home-depot-1251-14296,ppgpaints,HOME DEPOT 1251,,"Mohegan Lake, ",NY,,US,+1 914-528-1539,https://www.ppgpaints.com/store-locator/us/new-york/mohegan-lake-paint-stores/home-depot-1251-14296,,PPG Paints,Q83891559
278,shoprite,ShopRite of Cortlandt,,Mohegan Lake,NY,,US,+1 914-737-4335,https://www.shoprite.com/sm/planning/rsid/278,Mo-Sa 06:00-00:00,ShopRite,Q7501097
https://restaurants.subway.com/#14898438,subway,Subway Cortlandt Town Center,,Mohegan Lake Westchester,NY,,US,+1 914-743-1450,https://restaurants.subway.com/united-states/ny/mohegan-lake/3087-east-main-street,Mo-Th 08:00-21:00; Fr-Sa 08:00-22:00; Su 08:00-21:00,Subway,Q244457
https://locations.tacobell.com/#1004880365,taco_bell,Taco Bell,,Mohegan Lake,NY,,US,+1 845-284-1277,https://locations.tacobell.com/ny/mohegan-lake/3571-mohegan-avenue.html,Mo-We 08:00-24:00; Th 08:00-01:00; Fr-Sa 08:00-02:00; Su 08:00-24:00,Taco Bell,Q752941
10713,tjx,Mohegan Lake,3165 East Main Street,Mohegan Lake,NY,,US,+1 914-526-2975,,Mo-Sa 09:30-21:30; Su 10:00-20:00,Marshalls,Q15903261
449E,tmobile_us,Main St & West Brook Dr,,Mohegan Lake,NY,,US,+1 914-743-5739,https://www.t-mobile.com/store-locator/ny/mohegan-lake/main-st-west-brook-dr,,T-Mobile,Q3511885
1373462,usps,MOHEGAN LAKE,,MOHEGAN LAKE,NY,,US,+1 914-528-9067,,Mo-Fr 09:00-17:00; Sa 09:00-14:00,United States Postal Service,Q668687
1054700006,usps_collection_boxes,USPS COLLECTION BOX - PO LOBBY,3147 E MAIN ST,MOHEGAN LAKE,NY,,US,,,,United States Postal Service,Q668687
1054700001,usps_collection_boxes,USPS COLLECTION BOX - BLUE BOX,3147 E MAIN ST,MOHEGAN LAKE,NY,,US,,,,United States Postal Service,Q668687
1054700002,usps_collection_boxes,USPS COLLECTION BOX - PO LOBBY,3147 E MAIN ST LBBY DROP,MOHEGAN LAKE,NY,,US,,,,United States Postal Service,Q668687
R00000004811,verizon_us,Mohegan Lake,,Mohegan Lake,NY,,US,+1 914-528-4800,https://www.verizon.com/stores/details/new-york/mohegan-lake/mohegan-lake-203350/,Mo-Fr 10:00-19:00; Sa 09:00-19:00; Su 10:00-17:00,Verizon,Q919641
,visa,,,MOHEGAN LAKE,NY,,US,,,,,
,visa,,,MOHEGAN LAKE,NY,,US,,,,,
,visa,,,MOHEGAN LAKE,NY,,US,,,,,
,visa,,,MOHEGAN LAKE,NY,,US,,,,,
,visa,,,MOHEGAN LAKE,NY,,US,,,,,
,visa,,,MOHEGAN LAKE,NY,,US,,,,,
,visa,,,MOHEGAN LAKE,NY,,US,,,,,
,visa,,,MOHEGAN LAKE,NY,,US,,,,,
,visa,,,MOHEGAN LAKE,NY,,US,,,,,
,visa,,,MOHEGAN LAKE,NY,,US,,,,,
,visa,,,MOHEGAN LAKE,NY,,US,,,,,
,visa,,,MOHEGAN,NY,,US,,,,,
,visa,,,MOHEGEN,NY,,US,,,,,
,visa,,,MOHEGEN,NY,,US,,,,,
,visa,,,MOHEGAN LAKE,NY,,US,,,,,
,visa,,,MOHEGAN LAKE,NY,,US,,,,,
,visa,,,MOHEGAN LAKE,NY,,US,,,,,
,visa,,,MOHEGAN LAKE,NY,,US,,,,,
,visa,,,MOHEGAN LAKE,NY,,US,,,,,
,visa,,,MOHEGAN,NY,,US,,,,,
016664ed5519046f271c49e1ea96a6bc,western_union,WALMART #002531,,Mohegan Lake,NY,,US,+1 914-526-1100,https://location.westernunion.com/us/ny/mohegan-lake/016664ed5519046f271c49e1ea96a6bc,Mo-Su 07:00-21:00,Western Union,Q861042
