Ref,Spider,Name,Address,City,State,Zipcode,Country,Phone,Website,Hours,Brand,WikiData
1249,aaa,South Dennis Branch,,South Dennis,MA,,US,+1 508-760-4778,,,American Automobile Association,Q463436
https://locators.bankofamerica.com/ma/southdennis/financial-centers-south-dennis-14578.html,bankofamerica,Bank of America Financial Center & Walk-Up ATM | South Dennis,,South Dennis,MA,,US,+1 508-398-5021,https://locators.bankofamerica.com/ma/southdennis/financial-centers-south-dennis-14578.html,Mo-Fr 10:00-16:00; Sa 10:00-14:00,Bank of America,Q487907
104041,bluerhino,Baskins Ace Hardware #17075,,South Dennis,MA,,US,+1 508-385-3999,,,Blue Rhino,Q65681213
92636,bluerhino,South Dennis Enterprise,,South Dennis,MA,,US,+1 508-394-0363,,,Blue Rhino,Q65681213
5778,burgerking,Burger King,,SOUTH DENNIS,MA,,US,+1 508-398-3642,https://www.bk.com/store-locator/store/restaurant_3242,Mo-Su 06:00-22:00,Burger King,Q177054
51601,citi,ATM CVS,,South Dennis,MA,,US,,,,Citibank,Q857063
101652,citizens_us,Citizens South Dennis,,South Dennis,MA,,US,+1 508-398-0320,,Mo-Fr 09:00-16:00; Sa 09:00-12:00,Citizens,Q5122694
ATM-1231,citizens_us,,,South Dennis,MA,,US,,,,Citizens,Q5122694
ATM-1246,citizens_us,,,South Dennis,MA,,US,,,24/7,Citizens,Q5122694
ATM-1652,citizens_us,,,South Dennis,MA,,US,,,,Citizens,Q5122694
520201,cumberland_farms_us,Cumberland Farms,,SOUTH DENNIS,MA,,US,+1 508-398-2980,https://www.cumberlandfarms.com/find-us/generic-store-page/?id=002315,,Cumberland Farms,Q1143685
/ma/southdennis/485-ma-134,dangelos_us,Dâ€™Angelo Grilled Sandwiches | Massachusetts/South Dennis Locations,,South Dennis,MA,,US,+1 508-394-2030,https://locations.dangelos.com/ma/southdennis/485-ma-134.html,Mo-Sa 10:30-21:00; Su 11:00-21:00,D'Angelo Grilled Sandwiches,Q5203069
8416,dollartree,DollarTree,,South Dennis,MA,,US,+1 774-352-6041,,Mo-Su 09:00-21:00,Dollar Tree,Q5289230
358384,dunkin_us,Dunkin',,South Dennis,MA,,US,+1 508-619-3998,https://locations.dunkindonuts.com/en/ma/south-dennis/497-route-134/358384,Mo-Su 05:00-22:00,Dunkin',Q847743
345338,dunkin_us,Dunkin',,South Dennis,MA,,US,+1 508-394-9555,https://locations.dunkindonuts.com/en/ma/south-dennis/6-enterprise-rd/345338,Mo-Su 05:00-18:00,Dunkin',Q847743
520201,eg_america_us,Cumberland Farms,,SOUTH DENNIS,MA,,US,+1 508-398-2980,https://www.cumberlandfarms.com/find-us/generic-store-page/?id=002315,,Cumberland Farms,Q1143685
200304786,exxonmobil,SOUTH DENNIS MOBIL,,SOUTH DENNIS,MA,,US,+1 508-394-0363,https://www.exxon.com/en/find-station/mobil-southdennis-ma-southdennismobil-200304786,Mo-Sa 05:00-23:00; Su 06:00-22:00,Mobil,Q109676002
27139,h_r_block,H&R Block,,South Dennis,MA,,US,+1 508-398-9880,https://www.hrblock.com/local-tax-offices/massachusetts/south-dennis/cobblestone-court-ii/27139/,,H&R Block,Q5627799
0461,stop_and_shop,Super Stop & Shop,500 Route 134Patriot Square Mall,South Dennis,MA,,US,,,,Stop and Shop,Q3658429
10460,tjx,South Dennis,500 Rte. 134,South Dennis,MA,,US,+1 508-760-3722,,Mo-Sa 09:30-21:30; Su 10:00-20:00,Marshalls,Q15903261
1382142,usps,SOUTH DENNIS,,SOUTH DENNIS,MA,,US,+1 508-760-1362,,Mo-Fr 09:00-16:30; Sa 10:00-12:00,United States Postal Service,Q668687
0266000006,usps_collection_boxes,USPS COLLECTION BOX - BLUE BOX,516 ROUTE 134,SOUTH DENNIS,MA,,US,,,,United States Postal Service,Q668687
0266000005,usps_collection_boxes,USPS COLLECTION BOX - PO LOBBY,9 MARKET PL,SOUTH DENNIS,MA,,US,,,,United States Postal Service,Q668687
0266000001,usps_collection_boxes,USPS COLLECTION BOX - PO LOBBY,9 MARKET PL,SOUTH DENNIS,MA,,US,,,,United States Postal Service,Q668687
0266000007,usps_collection_boxes,USPS COLLECTION BOX - BLUE BOX,9 MARKET PL,SOUTH DENNIS,MA,,US,,,,United States Postal Service,Q668687
0266000003,usps_collection_boxes,USPS COLLECTION BOX - BLUE BOX,9 MARKET PL,SOUTH DENNIS,MA,,US,,,,United States Postal Service,Q668687
,visa,,,SOUTH DENNIS,MA,,US,,,,,
,visa,,,S DENNIS,MA,,US,,,,,
,visa,,,SOUTH DENNIS,MA,,US,,,,,
,visa,,,SOUTH DENNIS,MA,,US,,,,,
,visa,,,SOUTH DENNIS,MA,,US,,,,,
,visa,,,SOUTH DENNIS,MA,,US,,,,,
,visa,,,SOUTH DENNIS,MA,,US,,,,,
,visa,,,DENNIS,MA,,US,,,,,
,visa,,,SOUTH DENNIS,MA,,US,,,,,
,visa,,,SOUTH DENNIS,MA,,US,,,,,
