Ref,Spider,Name,Address,City,State,Zipcode,Country,Phone,Website,Hours,Brand,WikiData
https://locations.baskinrobbins.com/ca/lebec/5821-dennis-mccarthy-rd-332782-br,baskin_robbins_us,Baskin-Robbinsâ„¢,,Lebec,CA,,US,+1 661-663-4367,https://locations.baskinrobbins.com/ca/lebec/5821-dennis-mccarthy-rd-332782-br,Mo-Th 11:00-19:00; Fr-Su 10:00-21:00,Baskin-Robbins,Q584601
1100660,carlsjr_us,Carl's Jr.,,Gorman,CA,,US,+1 661-248-6738,https://locations.carlsjr.com/ca/gorman/49669-gorman-post-rd,,Carl's Jr.,Q1043486
378784,chevron,Chevron Station #378784,550 WAINRIGHT CT,LEBEC,CA,,US,+1 818-391-4024,,,Chevron,Q319642
ca_lebec_5602-dennis-mccarthy-dr,chipotle, ,,Lebec,CA,,US,+1 661-858-2335,https://locations.chipotle.com/ca/lebec/5602-dennis-mccarthy-dr,,Chipotle,Q465751
81202,citi,ATM Super Star Food Mart,,Lebec,CA,,US,,,,Citibank,Q857063
77117,citi,ATM Speedway,,Lebec,CA,,US,,,,Citibank,Q857063
249348,dennys,Denny's,,Lebec,CA,,US,+1 661-858-2026,https://locations.dennys.com/CA/LEBEC/249348,24/7,Denny's,Q1189695
358473,dunkin_us,Dunkin',,Lebec,CA,,US,+1 661-248-2600,https://locations.dunkindonuts.com/en/ca/lebec/42810-frazier-mountain-rd/358473,24/7,Dunkin',Q847743
ca_lebec_breakfast-5821-dennis-mccarthy-drive-5692,ihop,IHOP Breakfast Restaurants Near You at 5821 Dennis McCarthy Drive,,Lebec,CA,,US,+1 661-663-4341,https://restaurants.ihop.com/en-us/ca/lebec/breakfast-5821-dennis-mccarthy-drive-5692,,IHOP,Q1185675
209,innout,Lebec (Tejon Ranch),,Lebec,CA,,US,,http://locations.in-n-out.com/209,,In-N-Out Burger,Q1205312
https://locations.jackinthebox.com/us/ca/lebec/73-frazier-mountain-park-rd,jackinthebox,Jack in the Box,,Lebec,CA,,US,+1 661-248-2360,https://locations.jackinthebox.com/us/ca/lebec/73-frazier-mountain-park-rd,Mo-Su 06:00-00:00,Jack in the Box,Q1538507
https://locations.jackinthebox.com/us/ca/lebec/8968-grapevine-rd-e,jackinthebox,Jack in the Box,,Lebec,CA,,US,+1 661-248-6807,https://locations.jackinthebox.com/us/ca/lebec/8968-grapevine-rd-e,Mo-Su 06:00-00:00,Jack in the Box,Q1538507
58229,little_free_library,Robin Barrington #58229 Lebec CA,,Lebec,CA,,US,,,,Little Free Library,Q6650101
286490,marathon_petroleum_us,ARCO #42852 AMPM,,Lebec,CA,,US,+1 661-248-6833,,,Arco,Q304769
111523,pandaexpress,Wheeler & Hwy 5,,Lebec,CA,,US,+1 661-858-2380,https://www.pandaexpress.com/locations/ca/lebec/5810-dennis-mccarthy-blvd,Mo-Th 09:00-22:00; Fr 09:00-23:00; Sa-Su 09:00-22:00,Panda Express,Q1358690
0000881200,phillips_66_conoco_76,PETRO WHEELER RIDGE,,LEBEC,CA,,US,+1 661-858-2176,,,U76,Q1658320
0000909935,phillips_66_conoco_76,DBA GORMAN SCHOOL RD,,LEBEC,CA,,US,0000000000,,,U76,Q1658320
616,pilot_flyingj,Flying J Travel Center,,Lebec,CA,,US,+1 661-248-6519,https://locations.pilotflyingj.com/us/ca/lebec/42810-frazier-mountain-park-rd,,Flying J,Q16974822
https://restaurants.subway.com/#14898370,subway,Subway Flyers Energy C-Store,,Lebec Kern,CA,,US,+1 661-248-6020,https://restaurants.subway.com/united-states/ca/lebec/161-frazier-mountain-park-blvd,Mo-Fr 07:00-21:00; Sa-Su 09:00-21:00,Subway,Q244457
https://locations.tacobell.com/#23560459,taco_bell,Taco Bell,,Lebec,CA,,US,+1 661-885-3404,https://locations.tacobell.com/ca/lebec/5941-dennis-mccarthy-drive.html,Mo-Su 07:00-22:00,Taco Bell,Q752941
0327,travelcenters_of_america_us,Petro Wheeler Ridge #0327,,Lebec,CA,,US,+1 661-663-4341,https://www.ta-petro.com/location/ca/petro-wheeler-ridge/,,Petro,Q64051305
056595,uhaul,American Car Co,2081 Lebec Rd,Lebec,CA,,US,+1 661-248-6593,,Mo 00:00-16:00; Tu 00:00-16:00; Th-Fr 00:00-16:00,U-Haul,Q7862902
1370076,usps,LEBEC,,LEBEC,CA,,US,+1 661-248-6712,,"Mo-Fr 09:00-13:00,14:00-16:00",United States Postal Service,Q668687
1440532,usps,GORMAN,,LEBEC,CA,,US,+1 661-248-8501,,Mo-Fr 09:00-12:00; Sa 08:00-10:00,United States Postal Service,Q668687
9324300004,usps_collection_boxes,USPS COLLECTION BOX - BLUE BOX,5821 DENNIS MC CARTHY DR,LEBEC,CA,,US,,,,United States Postal Service,Q668687
9324300002,usps_collection_boxes,USPS COLLECTION BOX - PO LOBBY,2132 LEBEC RD,LEBEC,CA,,US,,,,United States Postal Service,Q668687
9324300006,usps_collection_boxes,USPS COLLECTION BOX - PO LOBBY,2132 LEBEC RD,LEBEC,CA,,US,,,,United States Postal Service,Q668687
,visa,,,PALM SPRINGS,CA,,US,,,,,
,visa,,,GORMAN,CA,,US,,,,,
,visa,,,GORMAN,CA,,US,,,,,
,visa,,,GORMAN,CA,,US,,,,,
,visa,,,GORMAN,CA,,US,,,,,
,visa,,,GORMAN,CA,,US,,,,,
,visa,,,LEBEC,CA,,US,,,,,
,visa,,,LEBEC,CA,,US,,,,,
,visa,,,TEJON,CA,,US,,,,,
,visa,,,LEBEC,CA,,US,,,,,
,visa,,,LEBEC,CA,,US,,,,,
,visa,,,LEBEC,CA,,US,,,,,
,visa,,,LEBEC,CA,,US,,,,,
,visa,,,LEBEC,CA,,US,,,,,
,visa,,,LEBEC,CA,,US,,,,,
,visa,,,LEBEC,CA,,US,,,,,
,visa,,,LEBEC,CA,,US,,,,,
,visa,,,LEBEC,CA,,US,,,,,
,visa,,,LEBEC,CA,,US,,,,,
,visa,,,LEBEC,CA,,US,,,,,
,visa,,,LEBEC,CA,,US,,,,,
,visa,,,LEBEC,CA,,US,,,,,
,visa,,,LEBEC,CA,,US,,,,,
,visa,,,LEBEC,CA,,US,,,,,
,visa,,,LEBEC,CA,,US,,,,,
,visa,,,LEBEC,CA,,US,,,,,
,visa,,,LEBEC,CA,,US,,,,,
,visa,,,LEBEC,CA,,US,,,,,
,visa,,,LEBEC,CA,,US,,,,,
https://locations.wendys.com/#9253577,wendys,"Wendy's Tejon Ranch, Ca in Lebec, CA",,Lebec,CA,,US,+1 661-663-4390,https://locations.wendys.com/united-states/ca/lebec/5821-dennis-mccarthy-drive,"Mo-Th 06:30-10:30,06:30-22:00; Fr-Sa 06:30-10:30,06:30-23:00; Su 06:30-10:30,06:30-22:00",Wendy's,Q550258
aaac13969984e84556e004b31bf61d13,western_union,PETRO #327 WHEELER RIDGE,,Lebec,CA,,US,+1 661-663-4341,https://location.westernunion.com/us/ca/lebec/aaac13969984e84556e004b31bf61d13,Mo-Su 07:00-23:00,Western Union,Q861042
