Ref,Spider,Name,Address,City,State,Zipcode,Country,Phone,Website,Hours,Brand,WikiData
3329,autozone_us,AutoZone Auto Parts Lindsay,,Lindsay,CA,,US,+1 559-562-5767,https://www.autozone.com/locations/ca/lindsay/230-n-hwy-65.html,Mo-Fr 07:30-21:00; Sa 08:00-21:00; Su 08:00-20:00,AutoZone,Q4826087
https://locators.bankofamerica.com/ca/lindsay/atm-lindsay-111118.html,bankofamerica,Bank of America Walk-Up ATM | Savemart Lindsay,,Lindsay,CA,,US,+1 844-401-8500,https://locators.bankofamerica.com/ca/lindsay/atm-lindsay-111118.html,,Bank of America,Q487907
68340,bluerhino,Fastrip Food Store #780,,Lindsay,CA,,US,+1 559-562-0820,,,Blue Rhino,Q65681213
197394,bluerhino,Dollar General #18862,,Lindsay,CA,,US,+1 559-562-0744,,,Blue Rhino,Q65681213
94035,chevron,Chevron Station #94035,206 HONOLULU,LINDSAY,CA,,US,,,,Chevron,Q319642
35106,citi,ATM Ampm,,Lindsay,CA,,US,,,,Citibank,Q857063
73149,citi,ATM Rite Aid,,Lindsay,CA,,US,,,,Citibank,Q857063
80221402,cricket_wireless,Cricket Wireless Authorized Retailer,,Lindsay,CA,,US,+1 559-852-4785,https://www.cricketwireless.com/stores/ll/US/CA/Lindsay/236-N-Highway-65,Mo-Sa 10:00-19:00; Su 11:00-18:00,Cricket Wireless,Q5184987
80221249,cricket_wireless,Cricket Wireless Authorized Retailer,,Lindsay,CA,,US,+1 559-562-6655,https://www.cricketwireless.com/stores/ll/US/CA/Lindsay/234-E-Honolulu-St,Mo-Sa 11:00-18:00,Cricket Wireless,Q5184987
6415,h_r_block,H&R Block,,Lindsay,CA,,US,+1 559-562-5000,https://www.hrblock.com/local-tax-offices/california/lindsay/157-e-honolulu-st/6415/,,H&R Block,Q5627799
https://healthy.kaiserpermanente.org/northern-california/facilities/omni-family-health-174321,kaiser_permanente_us,Omni Family Health,,Lindsay,CA,,US,+1 866-707-6664,https://healthy.kaiserpermanente.org/northern-california/facilities/omni-family-health-174321,,Kaiser Permanente,Q1721601
https://healthy.kaiserpermanente.org/northern-california/facilities/omni-family-health-174281,kaiser_permanente_us,Omni Family Health,,Lindsay,CA,,US,+1 866-707-6664,https://healthy.kaiserpermanente.org/northern-california/facilities/omni-family-health-174281,,Kaiser Permanente,Q1721601
286727,marathon_petroleum_us,ARCO #42700 AMPM,,Lindsay,CA,,US,+1 559-562-8050,,,Arco,Q304769
74365250,moneygram,MI RAZA ES PRIMERO,,LINDSAY,CA,,US,+1 559-338-7024,,Mo-Su 08:00-20:00,MoneyGram,Q1944412
05798,rite_aid_us,Rite Aid #05798 Lindsay,,Lindsay,CA,,US,+1 559-562-4404,https://locations2.riteaid.com.yext-cdn.com/ca/lindsay/262-north-highway-65.html,Mo-Su 08:00-22:00,Rite Aid,Q3433273
https://restaurants.subway.com/#14905343,subway,Subway,,Lindsay Tulare,CA,,US,+1 559-562-0077,https://restaurants.subway.com/united-states/ca/lindsay/246-hwy-65,Mo-Su 08:00-21:00,Subway,Q244457
https://locations.tacobell.com/#6145366,taco_bell,Taco Bell,,Lindsay,CA,,US,+1 559-562-4334,https://locations.tacobell.com/ca/lindsay/202-north-highway-65.html,Mo-Th 07:00-23:00; Fr-Sa 07:00-24:00; Su 07:00-23:00,Taco Bell,Q752941
048497,uhaul,M&J Auto Repair,456 S Mirage Av,Lindsay,CA,,US,+1 559-568-4491,,Mo-Fr 00:00-17:00,U-Haul,Q7862902
1370539,usps,LINDSAY,,LINDSAY,CA,,US,+1 559-562-9295,,Mo-Fr 09:00-16:00,United States Postal Service,Q668687
9324700001,usps_collection_boxes,USPS COLLECTION BOX - PO LOBBY,262 E HONOLULU ST,LINDSAY,CA,,US,,,,United States Postal Service,Q668687
9324700011,usps_collection_boxes,USPS COLLECTION BOX - BLUE BOX,262 E HONOLULU ST,LINDSAY,CA,,US,,,,United States Postal Service,Q668687
9324700012,usps_collection_boxes,USPS COLLECTION BOX - PO LOBBY,262 E HONOLULU ST,LINDSAY,CA,,US,,,,United States Postal Service,Q668687
,visa,,,LINDSAY,CA,,US,,,,,
,visa,,,LINDSAY,CA,,US,,,,,
,visa,,,LINDSAY,CA,,US,,,,,
,visa,,,LINDSAY,CA,,US,,,,,
,visa,,,LINDSAY,CA,,US,,,,,
,visa,,,LINDSAY,CA,,US,,,,,
,visa,,,LINDSAY,CA,,US,,,,,
,visa,,,LINDSAY,CA,,US,,,,,
,visa,,,LINDSAY,CA,,US,,,,,
,visa,,,LINDSAY,CA,,US,,,,,
,visa,,,LINDSAY,CA,,US,,,,,
,visa,,,LINDSAY,CA,,US,,,,,
,visa,,,LINDSAY,CA,,US,,,,,
,visa,,,LINDSAY,CA,,US,,,,,
,visa,,,LINDSAY,CA,,US,,,,,
,visa,,,LINDSAY,CA,,US,,,,,
,visa,,,LINDSAY,CA,,US,,,,,
,visa,,,LINDSAY,CA,,US,,,,,
,visa,,,LINDSAY,CA,,US,,,,,
,visa,,,LINDSAY,CA,,US,,,,,
