Ref,Spider,Name,Address,City,State,Zipcode,Country,Phone,Website,Hours,Brand,WikiData
https://restaurants.applebees.com/en-us/oh/batavia/4440-glen-este-withamsville-rd-87017,applebees,Connect with this Applebee's,,Batavia,OH,,US,+1 513-752-0700,https://restaurants.applebees.com/en-us/oh/batavia/4440-glen-este-withamsville-rd-87017,Mo-Su 11:00-22:00,Applebees,Q621532
https://locations.arbys.com/oh/batavia/2019-hospital-dr.html,arbys_us,"Arby's Fast-Food Drive Through Near You in Batavia, OH",,Batavia,OH,,US,+1 513-732-3390,https://locations.arbys.com/oh/batavia/2019-hospital-dr.html,Mo-Su 10:00-22:00,Arby's,Q630866
819,biggby_coffee_us,Biggby Coffee,1030 Hospital Dr. Batavia OH 45103,Batavia,OH,,US,+1 513-718-0070,,Mo-Sa 06:00-20:00; Su 07:00-20:00,Biggby Coffee,Q4906876
14503,bluerhino,Speedway #9674,,Batavia,OH,,US,+1 513-752-3421,,,Blue Rhino,Q65681213
161215,bluerhino,Shell Batavia,,Batavia,OH,,US,+1 513-724-0235,,,Blue Rhino,Q65681213
197017,bluerhino,Family Dollar #12465,,Batavia,OH,,US,+1 513-685-3939,,,Blue Rhino,Q65681213
171725,bluerhino,Family Dollar #10322,,Batavia,OH,,US,+1 513-456-4478,,,Blue Rhino,Q65681213
128008,bp,Amoco,,Batavia,OH,,US,+1 513-943-4722,,,BP,Q152057
48658632411474510300100000000000,bp,BP,,Batavia,OH,,US,+1 513-753-0720,,Mo-Fr 05:00-23:00; Sa-Su 06:00-23:00,BP,Q152057
128015,bp,BP,,Batavia,OH,,US,+1 513-449-3274,,,BP,Q152057
09691,chevrolet,JEFF WYLER CHEVROLET,,Batavia,OH,,US,+1 513-943-5404,https://jeffwylereastgatechevrolet.com/,Mo-Th 09:00-20:00; Fr-Sa 09:00-19:30; Su 11:00-18:00,Chevrolet,Q29570
oh_batavia_2029-hospital-dr,chipotle, ,,Batavia,OH,,US,+1 513-643-3255,https://locations.chipotle.com/oh/batavia/2029-hospital-dr,,Chipotle,Q465751
85738,citi,ATM United Dairy Farmers,,Batavia,OH,,US,,,,Citibank,Q857063
68889,citi,ATM PNC AT UDF,,Batavia,OH,,US,,,,Citibank,Q857063
66788,citi,ATM Ohio Valley Federal Credit Union,,Batavia,OH,,US,,,,Citibank,Q857063
67531,citi,ATM PEOPLES BANK,,Batavia,OH,,US,,,,Citibank,Q857063
68763,citi,ATM PNC AT UDF,,Batavia,OH,,US,,,,Citibank,Q857063
68781,citi,ATM PNC AT UDF,,Batavia,OH,,US,,,,Citibank,Q857063
85616,citi,ATM United Dairy Farmers,,Batavia,OH,,US,,,,Citibank,Q857063
,credit_union_us,Ohio Valley FCU,,Batavia,OH,,US,+1 513-724-6098,,,,
,credit_union_us,Sharefax CU,,Batavia,OH,,US,+1 513-753-2440,,Mo-Th 09:00-05:30; Fr 08:30-06:00; Sa 09:00-12:30,,
19345,dollar_general,Dollar General,,Batavia,OH,,US,+1 513-286-2015,https://www.dollargeneral.com/store-directory/oh/batavia/19345,Mo-Su 08:00-23:00,Dollar General,Q145168
2126,dominos_pizza_us,Domino's Pizza,,Batavia,OH,,US,+1 513-735-2600,https://pizza.dominos.com/ohio/batavia/600-west-main-st,Mo-Th 10:30-24:00; Fr-Sa 10:30-01:00; Su 10:30-24:00,Domino's,Q839466
30322,family_dollar_us,FAMILY DOLLAR #10322,,Batavia,OH,,US,+1 513-826-3591,https://www.familydollar.com/locations/oh/batavia/30322/,Mo-Su 09:00-21:00,Family Dollar,Q5433101
32465,family_dollar_us,FAMILY DOLLAR #12465,,Batavia,OH,,US,+1 513-286-2228,https://www.familydollar.com/locations/oh/batavia/32465/,Mo-Su 08:00-22:00,Family Dollar,Q5433101
https://locations.53.com/#3033664,fifththirdbank,Fifth Third Bank Batavia,,Batavia,OH,,US,+1 513-732-2500,https://locations.53.com/oh/batavia/380-east-main-street.html,Mo-Th 09:00-17:00; Fr 09:00-18:00,Fifth Third Bank,Q1411810
13708,follett,Clermont College Bookstore,,Batavia,OH,,US,+1 513-558-9607,https://www.bkstr.com/clermontstore/home,,,
Motorcraft2701USAEnglish,ford,"32 Ford-Mercury, Inc.",,Ohio,OH,,US,+1 513-732-2124,,,Ford,Q44294
086008,kindercare,Shayler Road KinderCare,,Batavia,OH,,US,,https://www.kindercare.com/our-centers/batavia/oh/086008,,KinderCare Learning Centers,Q6410551
161289,marathon_petroleum_us,BATAVIA MARATHON,,BATAVIA,OH,,US,+1 513-732-2780,,,Marathon,Q458363
155430,marathon_petroleum_us,GLEN ESTE MARATHON,,BATAVIA,OH,,US,+1 513-752-7517,,,Marathon,Q458363
160699,marathon_petroleum_us,BOARS HEAD MARATHON,,BATAVIA,OH,,US,+1 513-724-1211,,,Marathon,Q458363
https://www.mercy.com/#368474b5-9df9-44a9-b197-2d74de826527,mercy_health_us,Mercy Health — West Clermont HealthPlex,,Batavia,OH,,US,+1 513-943-5050,https://www.mercy.com/locations/fitness-healthplex/cincinnati/mercy-health-west-clermont-healthplex,Mo-Th 05:00-21:00; Fr 05:00-20:00; Sa 07:00-16:00; Su 08:00-16:00,Mercy Health,Q5053169
https://www.mercy.com/#79c4dad6-bf1e-4b5c-919e-b80ef4cbb7e7,mercy_health_us,Mercy Health — Clermont Hospital Wound Care Center,,Batavia,OH,,US,+1 513-735-8924,https://www.mercy.com/locations/specialty-locations/wound-care/mercy-health-clermont-hospital-wound-care-center,,Mercy Health,Q5053169
https://www.mercy.com/#b792c58f-5b1e-4eb3-86bd-8b70e07f6318,mercy_health_us,Mercy Health — Clermont Northeastern School Health Center,,Batavia,OH,,US,+1 513-981-4170,https://www.mercy.com/locations/specialty-locations/school-based-health-clinics/mercy-health-clermont-northeastern-school-health-center,Mo-Fr 07:30-16:30,Mercy Health,Q5053169
https://www.mercy.com/#bdc1f180-1bc6-4108-9d42-09cb40b7151a,mercy_health_us,"Mercy Health — Clermont Pulmonary, Sleep and Critical Care",,Batavia,OH,,US,+1 513-735-1701,https://www.mercy.com/locations/specialty-locations/pulmonary-respiratory-care/mercy-health-clermont-pulmonary-sleep-and-critical-care,,Mercy Health,Q5053169
https://www.mercy.com/#e1b10707-1e72-4753-937f-860b3a9bb33a,mercy_health_us,Mercy Health — Clermont Hospital Outpatient Rehabilitation &amp; Therapy,,Batavia,OH,,US,+1 513-732-8207,https://www.mercy.com/locations/specialty-locations/physical-therapy-rehabilitation/mercy-health-clermont-hospital-outpatient-rehabilitation,Mo-Th 07:30-18:00; Fr 07:30-14:00,Mercy Health,Q5053169
https://www.mercy.com/#b9b94d65-a2e2-4926-9a1b-8ba0bc7281f7,mercy_health_us,Mercy Health — Clermont Neurology,,Batavia,OH,,US,+1 513-732-8377,https://www.mercy.com/locations/specialty-locations/neurology-neurosurgery-neuroscience/mercy-health-clermont-neurology,Mo-Th 08:00-16:30; Fr 08:00-15:00,Mercy Health,Q5053169
https://www.mercy.com/#a3ff4274-7df1-4ff1-9470-62c16c3b7d3a,mercy_health_us,Mercy Health — Clermont Hospital Imaging,,Batavia,OH,,US,+1 513-732-8244,https://www.mercy.com/locations/specialty-locations/lab-and-imaging-centers/mercy-health-clermont-hospital-imaging,,Mercy Health,Q5053169
https://www.mercy.com/#d0d21b10-6680-4a13-a7bc-386db86430ea,mercy_health_us,"Mercy Health — The Heart Institute, Clermont",,Batavia,OH,,US,+1 513-735-7872,https://www.mercy.com/locations/specialty-locations/heart-care-vascular-care/mercy-health-the-heart-institute-clermont,Mo-Fr 08:00-17:00,Mercy Health,Q5053169
https://www.mercy.com/#aeff18d5-dc3f-4ef9-b848-91445f423832,mercy_health_us,Mercy Health — Clermont Gastroenterology,,Batavia,OH,,US,+1 513-924-8817,https://www.mercy.com/locations/specialty-locations/gi-liver-pancreas/mercy-health-clermont-gastroenterology,,Mercy Health,Q5053169
https://www.mercy.com/#d4f98481-0452-4fb5-bc5a-6c8f1c3c5cad,mercy_health_us,"Mercy Health — General and Laparoscopic Surgery, Clermont",,Batavia,OH,,US,+1 513-732-9300,https://www.mercy.com/locations/specialty-locations/general-surgery/mercy-health-east-general-surgery-clermont,,Mercy Health,Q5053169
https://www.mercy.com/#9908698d-c87c-4c20-be8e-845f4831f7f8,mercy_health_us,Mercy Health — Behavioral Health Institute,,Batavia,OH,,US,+1 513-732-8200,https://www.mercy.com/locations/specialty-locations/behavioral-mental-health/mercy-health-behavioral-health-institute,,Mercy Health,Q5053169
https://www.mercy.com/#500322a6-9dcd-41ca-a88c-a940be0e259e,mercy_health_us,Mercy Health — Clermont Audiology,,Batavia,OH,,US,+1 513-624-2450,https://www.mercy.com/locations/specialty-locations/audiology-hearing/mercy-health-clermont-audiology,Mo-Su 08:00-17:00,Mercy Health,Q5053169
https://www.mercy.com/#39bd7a72-484e-477e-8a25-af2dfc5f145b,mercy_health_us,Mercy Health — Clermont Hospital Anticoagulation Clinic,,Batavia,OH,,US,+1 513-732-8719,https://www.mercy.com/locations/specialty-locations/anticoagulation-clinics/mercy-health-clermont-hospital-anticoagulation-clinic,,Mercy Health,Q5053169
https://www.mercy.com/#b70e5dc4-d82d-422c-afea-1bb0e1cc0eb2,mercy_health_us,Mercy Health — Clermont Clinic,,Batavia,OH,,US,+1 513-233-6096,https://www.mercy.com/locations/medical-centers-clinics/cincinnati/mercy-health-clermont-clinic,,Mercy Health,Q5053169
https://www.mercy.com/#34f89d69-867a-42e0-b37a-4d85820795d7,mercy_health_us,Mercy Health — Clermont Hospital Emergency Department,,Batavia,OH,,US,+1 513-732-8200,https://www.mercy.com/locations/emergency-room/cincinnati/mercy-health-clermont-hospital-emergency-department,24/7,Mercy Health,Q5053169
https://www.mercy.com/#7865b0b4-2808-4865-93e7-f08744b59a48,mercy_health_us,Mercy Health — West Clermont Family Medicine,,Batavia,OH,,US,+1 513-215-0150,https://www.mercy.com/locations/primary-care-family-medicine/cincinnati/mercy-health-west-clermont-family-medicine,,Mercy Health,Q5053169
https://www.mercy.com/#4f3cc914-b260-4849-bf58-7d53a1ca8578,mercy_health_us,Mercy Health — Clermont Hospital,,Batavia,OH,,US,+1 513-732-8200,https://www.mercy.com/locations/hospitals/cincinnati/mercy-health-clermont-hospital,24/7,Mercy Health,Q5053169
3726,mightyflame,50 PIT STOP,,BATAVIA,OH,,US,+1 513-735-5050,,,Mighty Flame,
2911,mightyflame,Marathon,,Batavia,OH,,US,+1 513-735-4130,,,Mighty Flame,
NNA2248,nissan_europe,JEFF WYLER NISSAN,,BATAVIA,OH,,US,+1 513-752-3447,https://www.jeffwylereastgatenissan.com,Mo-Th 09:00-20:00; Fr-Sa 09:00-19:30; Su 11:00-17:00,Nissan,Q20165
https://locations.oreillyauto.com/oh/batavia/check-engine-light-testing-4843.html,oreilly,Your Batavia O'Reilly Auto Parts Store,,Batavia,OH,,US,+1 513-549-0911,https://locations.oreillyauto.com/oh/batavia/check-engine-light-testing-4843.html,Mo-Th 07:30-21:00; Fr-Sa 07:30-22:00; Su 08:00-21:00,O'Reilly Auto Parts,Q7071951
https://locations.oreillyauto.com/oh/batavia/wiper-installation-4843.html,oreilly,Your Batavia O'Reilly Auto Parts Store,,Batavia,OH,,US,+1 513-549-0911,https://locations.oreillyauto.com/oh/batavia/wiper-installation-4843.html,Mo-Th 07:30-21:00; Fr-Sa 07:30-22:00; Su 08:00-21:00,O'Reilly Auto Parts,Q7071951
https://locations.oreillyauto.com/oh/batavia/battery-testing-4843.html,oreilly,Your Batavia O'Reilly Auto Parts Store,,Batavia,OH,,US,+1 513-549-0911,https://locations.oreillyauto.com/oh/batavia/battery-testing-4843.html,Mo-Th 07:30-21:00; Fr-Sa 07:30-22:00; Su 08:00-21:00,O'Reilly Auto Parts,Q7071951
https://locations.oreillyauto.com/oh/batavia/autopartes-4843.html,oreilly,Tu tienda O'Reilly Auto Parts en Batavia,,Batavia,OH,,US,+1 513-549-0911,https://locations.oreillyauto.com/oh/batavia/autopartes-4843.html,Mo-Th 07:30-21:00; Fr-Sa 07:30-22:00; Su 08:00-21:00,O'Reilly Auto Parts,Q7071951
https://locations.papajohns.com/#16330281,papa_johns,Papa John's,,Batavia,OH,,US,+1 513-685-0744,https://locations.papajohns.com/united-states/oh/45103/batavia/2234-bauer-rd,Mo-Su 10:30-23:00,Papa John's Pizza,Q2759586
009257,penske,Batavia Eastfork Storage,,BATAVIA,OH,,US,+1 513-724-0427,https://www.pensketruckrental.com/locations/us/ohio/batavia/009257/,,Penske,Q81234570
https://restaurants.subway.com/#14894034,subway,Subway Woodlawn Shell C Store,,Batavia Clermont,OH,,US,+1 513-732-6337,https://restaurants.subway.com/united-states/oh/batavia/2199-winemiller-lane,Mo-Su 08:00-21:00,Subway,Q244457
https://restaurants.subway.com/#14916976,subway,Subway Univ. of Cincinnati Clermont,,Batavia Clermont,OH,,US,+1 513-558-0302,https://restaurants.subway.com/united-states/oh/batavia/4200-clermont-college-drive,Mo-Th 09:00-14:00,Subway,Q244457
8002280101,sunoco_us,Sunoco,,BATAVIA,OH,,US,+1 513-349-1763,,,Sunoco,Q1423218
0364996900,sunoco_us,Sunoco,,BATAVIA,OH,,US,+1 513-536-7450,,Mo-Su 05:00-23:00,Sunoco,Q1423218
1963,united_dairy_farmers_us,United Dairy Farmers,2023 State Route 131,Batavia,OH,,US,+1 513-625-0999,,,United Dairy Farmers,Q7887677
2028,united_dairy_farmers_us,United Dairy Farmers,961 Cinti-Batavia Pike,Batavia,OH,,US,+1 513-752-4039,,,United Dairy Farmers,Q7887677
2020,united_dairy_farmers_us,United Dairy Farmers,2200 Winemiller Lane,Batavia,OH,,US,+1 513-732-0979,,,United Dairy Farmers,Q7887677
2008,united_dairy_farmers_us,United Dairy Farmers,130 Main St,Batavia,OH,,US,+1 513-732-6924,,,United Dairy Farmers,Q7887677
1354169,usps,BATAVIA,,BATAVIA,OH,,US,+1 513-732-1823,,Mo-Fr 08:30-17:30; Sa 08:30-12:30,United States Postal Service,Q668687
4510300005,usps_collection_boxes,USPS COLLECTION BOX - BLUE BOX,2615 BATAVIA WILLIAMSBURG PIKE,BATAVIA,OH,,US,,,,United States Postal Service,Q668687
4510300019,usps_collection_boxes,USPS COLLECTION BOX - BLUE BOX,101 E MAIN ST,BATAVIA,OH,,US,,,,United States Postal Service,Q668687
4510300000,usps_collection_boxes,USPS COLLECTION BOX - BLUE BOX,575 W MAIN ST,BATAVIA,OH,,US,,,,United States Postal Service,Q668687
4510300001,usps_collection_boxes,USPS COLLECTION BOX - BLUE BOX,575 W MAIN ST,BATAVIA,OH,,US,,,,United States Postal Service,Q668687
4510300023,usps_collection_boxes,USPS COLLECTION BOX - PO LOBBY,575 W MAIN ST,BATAVIA,OH,,US,,,,United States Postal Service,Q668687
4510300026,usps_collection_boxes,USPS COLLECTION BOX - PO LOBBY,575 W MAIN ST,BATAVIA,OH,,US,,,,United States Postal Service,Q668687
4510300018,usps_collection_boxes,USPS COLLECTION BOX - BLUE BOX,100 STONELICK WOODS DR,BATAVIA,OH,,US,,,,United States Postal Service,Q668687
4510300016,usps_collection_boxes,USPS COLLECTION BOX - BLUE BOX,4584 WILLOWBROOK PT,BATAVIA,OH,,US,,,,United States Postal Service,Q668687
4510300006,usps_collection_boxes,USPS COLLECTION BOX - BLUE BOX,2 SPOTSWOOD CMN,BATAVIA,OH,,US,,,,United States Postal Service,Q668687
4510300017,usps_collection_boxes,USPS COLLECTION BOX - BLUE BOX,4412 EASTWOOD DR,BATAVIA,OH,,US,,,,United States Postal Service,Q668687
,visa,,,BATAVIA,OH,,US,,,,,
,visa,,,BATAVIA,OH,,US,,,,,
,visa,,,BATAVIA,OH,,US,,,,,
,visa,,,BATAVIA,OH,,US,,,,,
,visa,,,BATAVIA,OH,,US,,,,,
,visa,,,BATAVIA,OH,,US,,,,,
,visa,,,BATAVIA,OH,,US,,,,,
,visa,,,BATAVIA,OH,,US,,,,,
,visa,,,BATAVIA,OH,,US,,,,,
,visa,,,BATAVIA,OH,,US,,,,,
,visa,,,BATAVIA,OH,,US,,,,,
,visa,,,BATAVIA,OH,,US,,,,,
,visa,,,BATAVIA,OH,,US,,,,,
,visa,,,BATAVIA,OH,,US,,,,,
,visa,,,BATAVIA,OH,,US,,,,,
,visa,,,BATAVIA,OH,,US,,,,,
,visa,,,BATAVIA,OH,,US,,,,,
,visa,,,BATAVIA,OH,,US,,,,,
,visa,,,BATAVIA,OH,,US,,,,,
,visa,,,CINCINNATI,OH,,US,,,,,
,visa,,,BATAVIA,OH,,US,,,,,
,visa,,,BATAVIA,OH,,US,,,,,
,visa,,,BATAVIA,OH,,US,,,,,
,visa,,,BATAVIA,OH,,US,,,,,
,visa,,,BATAVIA,OH,,US,,,,,
,visa,,,BATAVIA,OH,,US,,,,,
,visa,,,BATAVIA,OH,,US,,,,,
,visa,,,BATAVIA,OH,,US,,,,,
,visa,,,BATAVIA,OH,,US,,,,,
,visa,,,BATAVIA,OH,,US,,,,,
,visa,,,BATAVIA,OH,,US,,,,,
,visa,,,BATAVIA,OH,,US,,,,,
,visa,,,BATAVIA,OH,,US,,,,,
,visa,,,BATAVIA,OH,,US,,,,,
,visa,,,BATAVIA,OH,,US,,,,,
,visa,,,BATAVIA,OH,,US,,,,,
,visa,,,BATAVIA,OH,,US,,,,,
,visa,,,BATAVIA,OH,,US,,,,,
,visa,,,BATAVIA,OH,,US,,,,,
,visa,,,BATAVIA,OH,,US,,,,,
,visa,,,BATAVIA,OH,,US,,,,,
,visa,,,FAIRFIELD,OH,,US,,,,,
https://locations.wendys.com/#9250822,wendys,"Wendy's 629 Williamsburg in Batavia, OH",,Batavia,OH,,US,+1 513-208-9517,https://locations.wendys.com/united-states/oh/batavia/2108-james-saul-dr,"Mo-Su 06:30-10:30,07:00-22:00",Wendy's,Q550258
https://locations.wendys.com/#9250820,wendys,"Wendy's 640 Elick in Batavia, OH",,Batavia,OH,,US,+1 513-718-2845,https://locations.wendys.com/united-states/oh/batavia/1146-marian-drive,"Mo-Su 06:30-10:30,07:00-22:00",Wendy's,Q550258
