Ref,Spider,Name,Address,City,State,Zipcode,Country,Phone,Website,Hours,Brand,WikiData
Linden,beacon_and_bridge_market_us,Linden,,Linden,MI,,US,+1 810-735-5236,,Mo-Su 05:00-00:00,Beacon & Bridge Market,Q122209684
205979,bluerhino,Rite Aid #03452,,Linden,MI,,US,+1 810-735-1341,,,Blue Rhino,Q65681213
128787,bp,Amoco,,Linden,MI,,US,+1 810-735-9070,,,BP,Q152057
24080051913654845100100000000000,bp,BP,,Linden,MI,,US,+1 810-735-6343,,Mo-Su 06:00-23:00,BP,Q152057
73528,citi,ATM Rite Aid,,Linden,MI,,US,,,,Citibank,Q857063
https://www.edwardjones.com/us-en/financial-advisor/chad-robinson,edwardjones,Chad A Robinson,,Linden,MI,,US,+1 810-735-1678,https://www.edwardjones.com/us-en/financial-advisor/chad-robinson,Mo 08:30-16:30; Tu 08:30-18:00; We 08:30-16:30; Th 08:30-17:00; Fr 08:30-16:30,Edward Jones,Q5343830
https://www.publicstorage.com/self-storage-mi-linden/5924.html,public_storage_us,Public Storage,,Linden,MI,,US,+1 810-880-6091,https://www.publicstorage.com/self-storage-mi-linden/5924.html,,Public Storage,Q1156045
03452,rite_aid_us,Rite Aid #03452 Linden,,Linden,MI,,US,+1 810-735-1341,https://locations2.riteaid.com.yext-cdn.com/mi/linden/602-west-broad-street.html,Mo-Su 08:00-22:00,Rite Aid,Q3433273
https://restaurants.subway.com/#14905660,subway,Subway,,Linden Genesee,MI,,US,+1 810-735-5381,https://restaurants.subway.com/united-states/mi/linden/200-e-broad,Mo-Su 09:00-22:00,Subway,Q244457
https://locations.tacobell.com/#8958196,taco_bell,Taco Bell,,Linden,MI,,US,+1 810-579-2842,https://locations.tacobell.com/mi/linden/605-west-broad-street.html,Mo-Su 08:00-24:00,Taco Bell,Q752941
1370522,usps,LINDEN,,LINDEN,MI,,US,+1 810-735-7072,,Mo-Fr 09:00-17:00; Sa 09:00-12:00,United States Postal Service,Q668687
4845100009,usps_collection_boxes,USPS COLLECTION BOX - PO LOBBY,215 S MAIN ST,LINDEN,MI,,US,,,,United States Postal Service,Q668687
4845100002,usps_collection_boxes,USPS COLLECTION BOX - BLUE BOX,215 S MAIN ST,LINDEN,MI,,US,,,,United States Postal Service,Q668687
4845100004,usps_collection_boxes,USPS COLLECTION BOX - PO LOBBY,215 S MAIN ST,LINDEN,MI,,US,,,,United States Postal Service,Q668687
4845100007,usps_collection_boxes,USPS COLLECTION BOX - PO LOBBY,215 S MAIN ST,LINDEN,MI,,US,,,,United States Postal Service,Q668687
,visa,,,LAPEER,MI,,US,,,,,
,visa,,,LINDEN,MI,,US,,,,,
,visa,,,LINDEN,MI,,US,,,,,
,visa,,,LINDEN,MI,,US,,,,,
,visa,,,LINDEN,MI,,US,,,,,
,visa,,,LINDEN,MI,,US,,,,,
,visa,,,LINDEN,MI,,US,,,,,
,visa,,,LINDEN,MI,,US,,,,,
,visa,,,LINDEN,MI,,US,,,,,
,visa,,,LINDEN,MI,,US,,,,,
,visa,,,LINDEN,MI,,US,,,,,
,visa,,,LINDEN,MI,,US,,,,,
,visa,,,LINDEN,MI,,US,,,,,
,visa,,,LINDEN,MI,,US,,,,,
,visa,,,LINDEN,MI,,US,,,,,
,visa,,,LINDEN,MI,,US,,,,,
