Ref,Spider,Name,Address,City,State,Zipcode,Country,Phone,Website,Hours,Brand,WikiData
https://www.academy.com/storelocator/#8745559,academy_us,Academy Sports + Outdoors,,Owensboro,KY,,US,+1 270-686-6000,https://www.academy.com/storelocator/kentucky/owensboro/store-0207,Mo-Th 09:00-21:00; Fr 09:00-22:00; Sa 08:00-22:00; Su 09:00-21:00,Academy Sports + Outdoors,Q4671380
https://stores.advanceautoparts.com/ky/owensboro/1039-e-18th-st,advance_auto_parts_us,Advance Auto Parts,,Owensboro,KY,,US,+1 270-684-0598,https://stores.advanceautoparts.com/ky/owensboro/1039-e-18th-st,Mo-Sa 07:30-21:00; Su 09:00-20:00,Advance Auto Parts,Q4686051
https://stores.aldi.us/#4420205,aldi_sud_us,ALDI  2945 Highway 54,,Owensboro,KY,,US,+1 844-444-7004,https://stores.aldi.us/ky/owensboro/2945-highway-54,"Mo-Su 08:30-20:00,09:00-20:00",ALDI,Q41171672
https://storelocations.ae.com/#13279489,american_eagle_outfitters,American Eagle Store Gateway Commons,,Owensboro,KY,,US,+1 270-215-3895,https://storelocations.ae.com/us/ky/owensboro/2594-calumet-trace.html,Mo-Sa 10:00-19:00; Su 12:00-18:00,American Eagle Store,Q2842931
https://stores.ashleyfurniture.com/store/us/kentucky/owensboro/7710000144/,ashley_furniture,"Ashley Store Owensboro, KY",,Owensboro,KY,,US,+1 270-240-5544,https://stores.ashleyfurniture.com/store/us/kentucky/owensboro/7710000144/,,Ashley Furniture,Q4805437
12558,asics_us,Academy Sports + Outdoors,3051 Highland Pointe Dr,Owensboro,KY,,US,+1 270-686-6000,,,asics,Q327247
15984,asics_us,Hibbett Sports,3500 Villa Point Drive,Owensboro,KY,,US,+1 270-683-6669,,,asics,Q327247
2442,autozone_us,AutoZone Auto Parts Owensboro,,Owensboro,KY,,US,+1 270-683-4155,https://www.autozone.com/locations/ky/owensboro/3100-alvey-park-dr-e.html,Mo-Sa 07:30-21:00; Su 08:00-20:00,AutoZone,Q4826087
BBW02808,bathandbodyworks_us,GATEWAY COMMONS,,OWENSBORO,KY,,US,+1 270-297-3918,,Mo-Sa 10:00-19:00; Su 12:00-18:00,Bath & Body Works,Q810773
349,bealls_us,Bealls,,Owensboro,KY,,US,+1 270-231-8058,https://stores.bealls.com/ky/owensboro/clothing-store-349.html,Mo-Th 09:00-21:00; Fr-Sa 09:00-21:30; Su 10:00-20:00,Bealls,Q4876153
27794,bluerhino,Lowe's #657,,Owensboro,KY,,US,+1 270-691-9900,,,Blue Rhino,Q65681213
223641,bluerhino,Quality Quick #1,,Owensboro,KY,,US,+1 270-685-0263,,,Blue Rhino,Q65681213
71681,bluerhino,Quality Quick #14,,Owensboro,KY,,US,+1 270-686-7445,,,Blue Rhino,Q65681213
193193,bluerhino,"Keya, Inc  - Marathon",,Owensboro,KY,,US,+1 270-688-8534,,,Blue Rhino,Q65681213
229601,bluerhino,Valor LLC,,Owensboro,KY,,US,+1 859-468-6397,,,Blue Rhino,Q65681213
140449,bluerhino,Rural King Supply #12,,Owensboro,KY,,US,+1 217-273-1101,,,Blue Rhino,Q65681213
201799,bluerhino,Menards - OWENSBORO #3290,,OWENSBORO,KY,,US,+1 270-684-0325,,,Blue Rhino,Q65681213
154005,bluerhino,Walgreens #11198,,Owensboro,KY,,US,+1 270-683-6422,,,Blue Rhino,Q65681213
239529,bluerhino,Circle K #4703353,,Owensboro,KY,,US,+1 270-281-5828,,,Blue Rhino,Q65681213
25053,burgerking,Burger King,,Owensboro,KY,,US,+1 270-689-0032,https://www.bk.com/store-locator/store/restaurant_72257,Mo-Sa 05:30-22:00; Su 06:00-22:00,Burger King,Q177054
1244,burlington_us,Burlington,,Owensboro,KY,,US,+1 270-297-6770,https://stores.burlington.com/ky/owensboro/1244,Mo-Th 08:00-22:00; Fr-Sa 09:00-23:30; Su 09:00-22:00,Burlington,Q4999220
0763,carpet_one_floor_and_home_us,Carpet One Floor & Home,,Owensboro,KY,,US,+1 270-685-5735,https://www.carpetoneowensboro.com/,,Carpet One Floor & Home,Q121335910
2038848,chase_us,Villa Point - New branch,,Owensboro,KY,,US,+1 270-926-5830,https://locator.chase.com/ky/owensboro/3160-highway-54-e,Mo-Fr 09:00-17:00; Sa 09:00-12:00,Chase,Q524629
25419,chevrolet,DON MOORE CHEVROLET GMC,,Owensboro,KY,,US,+1 270-228-4464,https://www.donmoorechevy.com,Mo-Sa 09:00-18:00,Chevrolet,Q29570
82732,citi,ATM Target,,Owensboro,KY,,US,,,,Citibank,Q857063
59887,citi,ATM Hucks,,Owensboro,KY,,US,,,,Citibank,Q857063
72444,citi,ATM REPUBLIC BANK & TRUST COMPANY,,Owensboro,KY,,US,,,,Citibank,Q857063
90255,citi,ATM Walgreens,,Owensboro,KY,,US,,,,Citibank,Q857063
50337,citi,ATM CVS,,Owensboro,KY,,US,,,,Citibank,Q857063
43346,citi,ATM Circle K,,Owensboro,KY,,US,,,,Citibank,Q857063
67583,citi,ATM PEOPLES BANK,,Owensboro,KY,,US,,,,Citibank,Q857063
owensboro/3380,claires,Shop Ear Piercings & Jewelry at Claires Walmart Owensboro,,OWENSBORO,KY,,US,+1 270-683-4163,https://stores.claires.com/us/ky/owensboro/3380.html,Mo-Su 11:00-20:00,Claire's,Q2974996
,credit_union_us,Liberty FCU,,Owensboro,KY,,US,+1 270-240-1520,,Mo-Th 09:00-05:00; Fr 09:00-06:00; Sa 09:00-01:00,,
70202160,cricket_wireless,Cricket Wireless Authorized Retailer,,Owensboro,KY,,US,+1 270-240-1203,https://www.cricketwireless.com/stores/ll/US/KY/Owensboro/3000-Alvey-Park-Dr-W,Mo-Sa 10:00-19:00; Su 12:00-17:00,Cricket Wireless,Q5184987
364,culvers_us,"Culver's of Owensboro, KY - Highland Pointe Dr",,Owensboro,KY,,US,+1 270-689-4040,http://www.culvers.com/restaurants/owensboro,Mo-Fr 10:00-22:00; Su 10:00-22:00,Culver's,Q1143589
18829,dollar_general,Dollar General,,Owensboro,KY,,US,+1 270-297-4919,https://www.dollargeneral.com/store-directory/ky/owensboro/18829,Mo-Su 08:00-22:00,Dollar General,Q145168
1455,dominos_pizza_us,Domino's Pizza,,Owensboro,KY,,US,+1 270-683-8777,https://pizza.dominos.com/kentucky/owensboro/1003-burlew-blvd,Mo-Th 10:30-00:30; Fr-Sa 10:30-02:00; Su 10:30-24:00,Domino's,Q839466
https://www.edwardjones.com/us-en/financial-advisor/nathan-baer,edwardjones,Nathan Baer,,Owensboro,KY,,US,+1 270-926-3626,https://www.edwardjones.com/us-en/financial-advisor/nathan-baer,Mo-Fr 07:00-17:00,Edward Jones,Q5343830
E15843,enterprise,Owensboro Highway 54,,Owensboro,KY,,US,+1 270-926-4477,,,Enterprise Rent-A-Car,Q17085454
E15850,enterprise,Owensboro Salem Dr.,,Owensboro,KY,,US,+1 270-685-2220,,,Enterprise Rent-A-Car,Q17085454
E158ET,enterprise,Owensboro Truck Rental,,Owensboro,KY,,US,+1 270-926-7641,,,Enterprise Rent-A-Car,Q17085454
7848,extra_space_storage,Owensboro Self Storage at 3425 New Hartford Rd,,Owensboro,KY,,US,+1 270-852-6600,https://www.extraspace.com/storage/facilities/us/kentucky/owensboro/7848/,Mo-Fr 09:30-18:00; Sa 09:00-17:30,Extra Space Storage,Q5422162
906090,firestone_auto_care,Firestone Complete Auto Care,,Owensboro,KY,,US,+1 270-297-4369,https://local.firestonecompleteautocare.com/kentucky/owensboro/2400-patriot-run/,,Firestone,Q420837
https://locations.fivebelow.com/ky/owensboro/2480-calumet-trace,five_below,Five Below Gateway Commons,,Owensboro,KY,,US,,https://locations.fivebelow.com/ky/owensboro/2480-calumet-trace,Mo-Sa 10:00-20:00; Su 11:00-18:00,Five Below,Q5455836
https://restaurants.fiveguys.com/#15552737,five_guys_us,Five Guys Owensboro,,Owensboro,KY,,US,+1 270-684-7888,https://restaurants.fiveguys.com/3248-mount-moriah-ave,"Mo-Su 11:00-21:30,11:00-22:00",Five Guys,Q1131810
Motorcraft2358USAEnglish,ford,"Champion Ford Lincoln, Inc.",,Kentucky,KY,,US,+1 270-684-1441,,,Ford,Q44294
https://www.ford.com/dealerships/dealer-details/ky/owensboro/champion-ford-inc/,ford_dealers_us,"Champion Ford, Inc.",,Owensboro,KY,,US,+1 270-215-1996,https://www.ford.com/dealerships/dealer-details/ky/owensboro/champion-ford-inc/,Mo-Fr 09:00-18:00; Sa 09:00-17:00,Ford Motor Company,Q44294
6684,gamestop_us,Paradise Plaza,,Owensboro,KY,,US,+1 270-852-0501,https://www.gamestop.com/search/?store=6684,Mo-Th 12:00-19:00; Fr-Sa 11:00-21:00; Su 12:00-20:00,GameStop,Q202210
5154,gamestop_us,Southtown Plaza,,OWENSBORO,KY,,US,+1 270-684-5365,https://www.gamestop.com/search/?store=5154,Mo-Th 12:00-19:00; Fr-Sa 11:00-21:00; Su 11:00-20:00,GameStop,Q202210
https://stores.gnc.com/#24057696,gnc,GNC Towne Square Mall,,,KY,,US,+1 270-685-1570,https://stores.gnc.com/all-stores-kentucky/owensboro/2594-calumet-trace,Mo-Sa 10:00-19:00; Su 11:00-18:00,GNC,Q4808595
38a8ad11-c3d5-e511-a94f-005056890337,goodwill,Owensboro Kidron Store,,Owensboro,KY,,US,+1 270-240-5501,https://www.goodwill.org/locator/location/?store=MzhhOGFkMTEtYzNkNS1lNTExLWE5NGYtMDA1MDU2ODkwMzM3&lat=MzcuNzU1ODI=&lng=LTg3LjA1OTIx,,Goodwill,Q5583655
https://salons.greatclips.com/us/ky/owensboro/3500-villa-point-dr,greatclips,Great Clips,,Owensboro,KY,,US,+1 270-240-4655,https://salons.greatclips.com/us/ky/owensboro/3500-villa-point-dr,Mo-Fr 09:00-19:00; Sa 09:00-18:00; Su 10:00-17:00,Great Clips,Q5598967
owbhhhx-hampton-owensboro-south,hilton,Hampton Inn Owensboro South,,,KY,,US,+1 270-926-2006,https://www.hilton.com/ar/hotels/owbhhhx-hampton-owensboro-south/,,Hampton by Hilton,Q5646230
934,huddle_house_us,KY - Owensboro,,Owensboro,KY,,US,+1 270-240-2076,https://www.huddlehouse.com/locations/ky/owensboro/3248-mount-moriah-ave,24/7,Huddle House,Q5928324
17730,h_r_block,H&R Block,,Owensboro,KY,,US,+1 270-684-1040,https://www.hrblock.com/local-tax-offices/kentucky/owensboro/3333-frederica-st-ste-9/17730/,,H&R Block,Q5627799
17651,h_r_block,H&R Block,,Owensboro,KY,,US,+1 270-683-5014,https://www.hrblock.com/local-tax-offices/kentucky/owensboro/3189-fairview-dr/17651/,,H&R Block,Q5627799
Owensboro IGA #21,iga,Owensboro IGA #21,"201 Carter Road, Owensboro, KY, 42303",Owensboro,KY,,US,+1 270-651-3911,http://www.myiga.com,,IGA,Q3146662
ky_owensboro_breakfast-3080-highland-pointe-dr-.-3687,ihop,IHOP Breakfast Restaurants Near You at 3080 Highland Pointe Dr .,,Owensboro,KY,,US,+1 270-240-1444,https://restaurants.ihop.com/en-us/ky/owensboro/breakfast-3080-highland-pointe-dr-.-3687,,IHOP,Q1185675
https://office.jacksonhewitt.com/#27578984,jackson_hewitt,Jackson Hewitt,,Owensboro,KY,,US,+1 270-688-9070,https://office.jacksonhewitt.com/tax-preparation-services-locations/en/ky/owensboro/724-time-drive/13872,Mo-Fr 09:00-18:00; Sa 09:00-17:00,Jackson Hewitt,Q6117132
https://office.jacksonhewitt.com/#27578016,jackson_hewitt,Jackson Hewitt,,Owensboro,KY,,US,+1 270-313-8482,https://office.jacksonhewitt.com/tax-preparation-services-locations/en/ky/owensboro/5031-fredrica-st/50701,Mo-Sa 10:00-18:00; Su 13:00-17:00,Jackson Hewitt,Q6117132
https://office.jacksonhewitt.com/#27577924,jackson_hewitt,Jackson Hewitt,,Owensboro,KY,,US,+1 270-313-8508,https://office.jacksonhewitt.com/tax-preparation-services-locations/en/ky/owensboro/3151-leitchfield-rd/53363,Mo-Sa 10:00-18:00; Su 13:00-17:00,Jackson Hewitt,Q6117132
4033,jiffy_lube_us,Hayden Road,,Owensboro,KY,,US,+1 270-240-5823,https://www.jiffylube.com/locations/ky/owensboro/4033,Mo-Fr 08:00-18:00; Sa 08:00-17:00,Jiffy Lube,Q6192247
https://locations.kfc.com/#11246727,kfc,Chicken Nuggets Near Owensboro,,Owensboro,KY,,US,,https://locations.kfc.com/ky/owensboro/3212-highway-54/chickennugget,Mo-Su 10:00-22:00,KFC,Q524757
1012,kohls_us,Kohl's,,Owensboro,KY,,US,+1 270-684-3632,https://www.kohls.com/stores/ky/owensboro-1012.shtml,Mo-Sa 09:00-21:00; Su 09:00-20:00,Kohl's,Q967265
155914,marathon_petroleum_us,JUMPIN JACKS 417,,OWENSBORO,KY,,US,+1 270-683-9940,,,Marathon,Q458363
159912,marathon_petroleum_us,Quality Quick 22,,OWENSBORO,KY,,US,+1 270-683-3226,,,Marathon,Q458363
161481,marathon_petroleum_us,HOP SHOP 1415 HAWESWAY,,OWENSBORO,KY,,US,+1 270-685-6001,,,Marathon,Q458363
OWBCY,marriott,Courtyard Owensboro,,Owensboro,KY,,US,+1 270-685-4140,https://www.marriott.com/OWBCY,,Courtyard by Marriott,Q1053170
OWBFI,marriott,Fairfield Inn Owensboro,,Owensboro,KY,,US,+1 270-688-8887,https://www.marriott.com/OWBFI,,Fairfield by Marriott,Q5430314
OWBTS,marriott,TownePlace Suites Owensboro,,Owensboro,KY,,US,+1 270-231-8222,https://www.marriott.com/OWBTS,,Townplace Suites by Marriott,Q7830092
2065-e-parrish-ave,mcalisters_deli,McAlister's Deli Owensboro ,,Owensboro,KY,,US,+1 270-228-4198,https://locations.mcalistersdeli.com/ky/owensboro/2065-e-parrish-ave,Mo-Su 10:30-21:00,McAlister's Deli,Q17020829
3290,menards,OWENSBORO,"3001 HEARTLAND CROSSING, OWENSBORO, KY 42303",OWENSBORO,KY,,US,,https://www.menards.com/main/storeDetails.html?store=3290,,Menards,Q1639897
1744,mightyflame,FUEL EXPRESS #1,,OWENSBORO,KY,,US,+1 270-684-1060,,,Mighty Flame,
5183,mightyflame,SUPER USA #1-MARATHON,,OWENSBORO,KY,,US,+1 270-683-5566,,,Mighty Flame,
3806,mightyflame,QUALITY QUICK,,OWENSBORO,KY,,US,+1 916-272-4286,,,Mighty Flame,
5184,mightyflame,SUPER USA #3,,OWENSBORO,KY,,US,+1 270-926-0669,,,Mighty Flame,
1289,mightyflame,COUNTRY CUPBOARD #2,,OWENSBORO,KY,,US,+1 270-688-8534,,,Mighty Flame,
858,mightyflame,BUILDERS DISCOUNT LUMBER,,OWENSBORO,KY,,US,+1 270-926-4200,,,Mighty Flame,
2448,mightyflame,LARRYS MARKET,,OWENSBORO,KY,,US,+1 270-684-7090,,,Mighty Flame,
https://locations.modpizza.com/#23558258,modpizza,MOD Pizza Heartland Crossing,,Owensboro,KY,,US,+1 270-240-2646,https://locations.modpizza.com/usa/ky/owensboro/2710-heartland-crossing-blvd,Mo-Th 11:00-21:00; Fr-Sa 11:00-22:00; Su 11:00-21:00,MOD Pizza,Q19903469
48493,orangetheory_fitness,"Owensboro, KY",,Owensboro,KY,,US,+1 270-228-3938,,,Orangetheory Fitness,Q25005163
https://locations.oreillyauto.com/ky/owensboro/check-engine-light-testing-6535.html,oreilly,Your Owensboro O'Reilly Auto Parts Store,,Owensboro,KY,,US,+1 270-344-5311,https://locations.oreillyauto.com/ky/owensboro/check-engine-light-testing-6535.html,Mo-Sa 07:30-22:00; Su 08:30-20:00,O'Reilly Auto Parts,Q7071951
https://locations.oreillyauto.com/ky/owensboro/wiper-installation-6535.html,oreilly,Your Owensboro O'Reilly Auto Parts Store,,Owensboro,KY,,US,+1 270-344-5311,https://locations.oreillyauto.com/ky/owensboro/wiper-installation-6535.html,Mo-Sa 07:30-22:00; Su 08:30-20:00,O'Reilly Auto Parts,Q7071951
https://locations.oreillyauto.com/ky/owensboro/battery-testing-6535.html,oreilly,Your Owensboro O'Reilly Auto Parts Store,,Owensboro,KY,,US,+1 270-344-5311,https://locations.oreillyauto.com/ky/owensboro/battery-testing-6535.html,Mo-Sa 07:30-22:00; Su 08:30-20:00,O'Reilly Auto Parts,Q7071951
https://locations.oreillyauto.com/ky/owensboro/autopartes-6535.html,oreilly,O'Reilly Auto Parts,,Owensboro,KY,,US,+1 270-344-5311,https://locations.oreillyauto.com/ky/owensboro/autopartes-6535.html,Mo-Sa 07:30-22:00; Su 08:30-20:00,O'Reilly Auto Parts,Q7071951
https://locations.oreillyauto.com/ky/owensboro/check-engine-light-testing-1311.html,oreilly,Your Owensboro O'Reilly Auto Parts Store,,Owensboro,KY,,US,+1 270-686-6293,https://locations.oreillyauto.com/ky/owensboro/check-engine-light-testing-1311.html,Mo-Sa 07:30-22:00; Su 08:30-20:00,O'Reilly Auto Parts,Q7071951
https://locations.oreillyauto.com/ky/owensboro/wiper-installation-1311.html,oreilly,Your Owensboro O'Reilly Auto Parts Store,,Owensboro,KY,,US,+1 270-686-6293,https://locations.oreillyauto.com/ky/owensboro/wiper-installation-1311.html,Mo-Sa 07:30-22:00; Su 08:30-20:00,O'Reilly Auto Parts,Q7071951
https://locations.oreillyauto.com/ky/owensboro/battery-testing-1311.html,oreilly,Your Owensboro O'Reilly Auto Parts Store,,Owensboro,KY,,US,+1 270-686-6293,https://locations.oreillyauto.com/ky/owensboro/battery-testing-1311.html,Mo-Sa 07:30-22:00; Su 08:30-20:00,O'Reilly Auto Parts,Q7071951
https://locations.oreillyauto.com/ky/owensboro/autopartes-1311.html,oreilly,Tu tienda O'Reilly Auto Parts en Owensboro,,Owensboro,KY,,US,+1 270-686-6293,https://locations.oreillyauto.com/ky/owensboro/autopartes-1311.html,Mo-Sa 07:30-22:00; Su 08:30-20:00,O'Reilly Auto Parts,Q7071951
161051,pandaexpress,HWY 54 & HWY 60,,Owensboro,KY,,US,+1 270-984-8336,https://www.pandaexpress.com/locations/ky/owensboro/3000-heartland-crossing-blvd,Mo-Th 10:00-22:00; Fr-Sa 10:00-22:30; Su 10:30-22:00,Panda Express,Q1358690
https://locations.papajohns.com/#10691073,papa_johns,Papa John's,,Owensboro,KY,,US,+1 270-663-6333,https://locations.papajohns.com/united-states/ky/42303/owensboro/3332-villa-point-drive-110,Mo-Th 10:00-23:00; Fr-Sa 10:00-24:00; Su 10:00-23:00,Papa John's Pizza,Q2759586
5204,party_city,Villa Point,,Owensboro,KY,,US,+1 270-297-9288,https://stores.partycity.com/us/ky/owensboro/party-store-pc5204.html,,Party City,Q7140896
ky_owensboro_3189-fairview-dr,pizza_hut_us,3189 Fairview Dr.,,Owensboro,KY,,US,+1 270-683-1544,https://locations.pizzahut.com/ky/owensboro/3189-fairview-dr,,Pizza Hut,Q191615
restaurant_85472,popeyes_us_fr,Popeyes,"2906 State Route 54 Owensboro, Kentucky 42303 - USA",Owensboro,KY,,US,+1 270-240-2482,https://www.popeyes.com/store-locator/store/restaurant_85472,Mo-Su 10:00-21:30,Popeyes,Q1330910
2030,ross_dress_for_less_us,Owensboro,,Owensboro,KY,,US,+1 270-852-8999,,Mo-Th 09:00-21:00; Fr-Sa 09:00-22:00; Su 10:30-19:30,Ross Dress for Less,Q3442791
1127,scooters_coffee_us,E Parrish St & Leitchfield Rd,,Owensboro,KY,,US,+1 270-686-7773,,Mo-Fr 05:30-20:00; Sa-Su 06:00-20:00,Scooter's Coffee,Q117280308
701395,sherwin_williams,OWENSBORO-EAST,3500 Villa Point Dr # 112,Owensboro,KY,,US,+1 270-689-2002,https://www.sherwin-williams.com/store-locator/paint-store/owensboro/ky/701395?storeNumber=21819&from=,,Sherwin-Williams Paint Store,Q48881
https://restaurants.subway.com/#14894632,subway,Subway,,Owensboro Daviess,KY,,US,+1 270-683-8613,https://restaurants.subway.com/united-states/ky/owensboro/3470-new-hartford-rd,Mo-Tu 09:00-22:00; We 09:00-20:00; Th-Su 09:00-22:00,Subway,Q244457
https://restaurants.subway.com/#14895626,subway,Subway,,Owensboro Daviess,KY,,US,+1 270-686-1893,https://restaurants.subway.com/united-states/ky/owensboro/3124-leitchfield-rd,Mo-Su 09:00-22:00,Subway,Q244457
https://restaurants.subway.com/#14907745,subway,Subway Owensboro Health Regional Hosp,,Owensboro Daviess,KY,,US,+1 270-688-2957,https://restaurants.subway.com/united-states/ky/owensboro/1201-pleasant-valley-rd,Mo-Fr 11:00-01:00; Sa 00:00-01:00,Subway,Q244457
8002101001,sunoco_us,Sunoco,,OWENSBORO,KY,,US,+1 270-688-8534,,Mo-Su 06:00-00:00,Sunoco,Q1423218
https://locations.tacobell.com/#6144143,taco_bell,Taco Bell,,Owensboro,KY,,US,+1 270-688-7919,https://locations.tacobell.com/ky/owensboro/3335-villa-point.html,Mo-Su 08:00-03:00,Taco Bell,Q752941
https://locations.tccrocks.com/ky/owensboro/3248-mount-moriah-ave.html,tcc_us,TCC Owensboro,,Owensboro,KY,,US,+1 270-689-2404,https://locations.tccrocks.com/ky/owensboro/3248-mount-moriah-ave.html,Mo-Sa 09:00-19:00; Su 12:00-17:00,Verizon,Q919641
5DSR,tmobile_us,St Route 54 & Leitchfield Rd,,Owensboro,KY,,US,+1 270-684-4142,https://www.t-mobile.com/store-locator/ky/owensboro/st-route-54-leitchfield-rd,,T-Mobile,Q3511885
6437,upsstore,Owensboro,636 Southtown Blvd Ste 5,Owensboro,KY,,US,+1 270-685-2073,https://locations.theupsstore.com/ky/owensboro/636-southtown-blvd,,UPS Store,Q7771029
1359313,usps,POSTAL STORE,,OWENSBORO,KY,,US,+1 270-686-8765,,Mo-Fr 08:00-16:30,United States Postal Service,Q668687
owensboro_oil-change-fg0016,valvoline_instant_oil_change,Valvoline,3330 Fairview Drive ,Owensboro,KY,,US,+1 931-919-9257,https://store.vioc.com/ky/owensboro/oil-change-fg0016.html,,Valvoline Instant Oil Change,Q7912852
,visa,,,BOWLING GREEN,KY,,US,,,,,
,visa,,,BEAVER DAM,KY,,US,,,,,
,visa,,,OWENSBORO,KY,,US,,,,,
,visa,,,OWENSBORO,KY,,US,,,,,
,visa,,,OWENSBORO,KY,,US,,,,,
,visa,,,OWENSBORO,KY,,US,,,,,
,visa,,,OWENSBORO,KY,,US,,,,,
,visa,,,OWENSBORO,KY,,US,,,,,
,visa,,,OWENSBORO,KY,,US,,,,,
,visa,,,OWENSBORO,KY,,US,,,,,
,visa,,,OWENSBORO,KY,,US,,,,,
,visa,,,OWENSBORO,KY,,US,,,,,
,visa,,,OWENSBORO,KY,,US,,,,,
,visa,,,OWENSBORO,KY,,US,,,,,
,visa,,,OWENSBORO,KY,,US,,,,,
,visa,,,OWENSBORO,KY,,US,,,,,
,visa,,,OWENSBORO,KY,,US,,,,,
,visa,,,OWENSBORO,KY,,US,,,,,
,visa,,,OWENSBORO,KY,,US,,,,,
,visa,,,OWENSBORO,KY,,US,,,,,
,visa,,,OWENSBORO,KY,,US,,,,,
,visa,,,OWENSBORO,KY,,US,,,,,
,visa,,,OWENSBORO,KY,,US,,,,,
,visa,,,OWENSBORO,KY,,US,,,,,
,visa,,,OWENSBORO,KY,,US,,,,,
,visa,,,OWENSBORO,KY,,US,,,,,
,visa,,,OWENSBORO,KY,,US,,,,,
,visa,,,OWENSBORO,KY,,US,,,,,
,visa,,,OWENSBORO,KY,,US,,,,,
,visa,,,OWENSBORO,KY,,US,,,,,
,visa,,,OWENSBORO,KY,,US,,,,,
,visa,,,OWENSBORO,KY,,US,,,,,
,visa,,,OWENSBORO,KY,,US,,,,,
,visa,,,OWENSBORO,KY,,US,,,,,
,visa,,,OWENSBORO,KY,,US,,,,,
,visa,,,OWENSBORO,KY,,US,,,,,
,visa,,,OWENSBORO,KY,,US,,,,,
,visa,,,OWENSBORO,KY,,US,,,,,
,visa,,,OWENSBORO,KY,,US,,,,,
,visa,,,OWENSBORO,KY,,US,,,,,
,visa,,,OWENSBORO,KY,,US,,,,,
,visa,,,OWENSBORO,KY,,US,,,,,
,visa,,,OWENSBORO,KY,,US,,,,,
,visa,,,OWENSBORO,KY,,US,,,,,
,visa,,,OWENSBORO,KY,,US,,,,,
,visa,,,OWENSBORO,KY,,US,,,,,
,visa,,,OWENSBORO,KY,,US,,,,,
,visa,,,OWENSBORO,KY,,US,,,,,
,visa,,,OWENSBORO,KY,,US,,,,,
,visa,,,OWENSBORO,KY,,US,,,,,
,visa,,,OWENSBORO,KY,,US,,,,,
,visa,,,OWENSBORO,KY,,US,,,,,
,visa,,,OWENSBORO,KY,,US,,,,,
,visa,,,OWENSBORO,KY,,US,,,,,
,visa,,,OWENSBORO,KY,,US,,,,,
,visa,,,OWENSBORO,KY,,US,,,,,
,visa,,,OWENSBORO,KY,,US,,,,,
,visa,,,OWENSBORO,KY,,US,,,,,
,visa,,,OWENSBORO,KY,,US,,,,,
,visa,,,OWENSBORO,KY,,US,,,,,
,visa,,,OWENSBORO,KY,,US,,,,,
,visa,,,OWENSBORO,KY,,US,,,,,
,visa,,,OWENSBORO,KY,,US,,,,,
,visa,,,OWENSBORO,KY,,US,,,,,
,visa,,,OWENSBORO,KY,,US,,,,,
,visa,,,OWENSBORO,KY,,US,,,,,
,visa,,,OWENSBORO,KY,,US,,,,,
,visa,,,OWENSBORO,KY,,US,,,,,
,visa,,,OWENSBORO,KY,,US,,,,,
,visa,,,OWENSBORO,KY,,US,,,,,
,visa,,,OWENSBORO,KY,,US,,,,,
,visa,,,HENDERSON,KY,,US,,,,,
https://www.walgreens.com/locator/walgreens-3312+state+route+54-owensboro-ky-42303/id=11198,walgreens,Walgreens,,Owensboro,KY,,US,+1 270-683-6422,https://www.walgreens.com/locator/walgreens-3312+state+route+54-owensboro-ky-42303/id=11198,Mo-Su 09:00-21:00,Walgreens,Q1591889
https://locations.wendys.com/#9254744,wendys,"Wendy's Owensboro 54 in Owensboro, KY",,Owensboro,KY,,US,+1 270-685-6071,https://locations.wendys.com/united-states/ky/owensboro/2934-highway-54,"Mo-Su 06:00-10:30,08:00-21:00",Wendy's,Q550258
25f3245b4e6b398ff440be39e9fbce66,western_union,WALMART #003363,,Owensboro,KY,,US,+1 270-683-5553,https://location.westernunion.com/us/ky/owensboro/25f3245b4e6b398ff440be39e9fbce66,Mo-Su 07:00-21:00,Western Union,Q861042
