Ref,Spider,Name,Address,City,State,Zipcode,Country,Phone,Website,Hours,Brand,WikiData
https://locations.auntieannes.com/#7013,auntie_annes,Auntie Anne's The Parkway at Gatlinburg,,Gatlinburg,TN,,US,+1 865-325-6055,https://locations.auntieannes.com/tn/gatlinburg/762-parkway,Mo-Th 11:00-19:00; Fr-Sa 11:00-22:00; Su 11:00-19:00,Auntie Anne's,Q4822010
https://locations.baskinrobbins.com/tn/gatlinburg/815-parkway-337880-br,baskin_robbins_us,Baskin-Robbinsâ„¢,,Gatlinburg,TN,,US,+1 865-436-3133,https://locations.baskinrobbins.com/tn/gatlinburg/815-parkway-337880-br,Mo-Su 11:00-22:00,Baskin-Robbins,Q584601
38876304193763773800100000000000,bp,BP,,Gatlinburg,TN,,US,+1 865-430-2161,,24/7,BP,Q152057
TN182-SA3,california_closets_us,California Closets - Knoxville,,Knoxville,TN,,US,+1 865-248-2588,https://www.locations.californiaclosets.com/california-closets-knoxville-2bd22fc830d0,Mo-Fr 08:30-17:00,California Closets,Q5020325
54976,citi,ATM Fastop Market,,Gatlinburg,TN,,US,,,,Citibank,Q857063
93057,citi,ATM Walgreens,,Gatlinburg,TN,,US,,,,Citibank,Q857063
8711,dominos_pizza_us,Domino's Pizza,,Gatlinburg,TN,,US,+1 865-436-2020,https://pizza.dominos.com/tennessee/gatlinburg/951-east-parkway,Mo-Th 10:30-24:00; Fr-Sa 10:30-01:00; Su 10:30-24:00,Domino's,Q839466
https://local.fedex.com/#25228953,fedex,,,Gatlinburg,TN,,US,+1 800-463-3339,https://local.fedex.com/en-us/tn/gatlinburg/rkwaj,,FedEx,Q459477
https://local.fedex.com/#25207329,fedex,,,Gatlinburg,TN,,US,+1 800-463-3339,https://local.fedex.com/en-us/tn/gatlinburg/bbcub,,FedEx,Q459477
https://restaurants.fiveguys.com/#15552391,five_guys_us,Five Guys Gatlinburg,,Gatlinburg,TN,,US,+1 865-430-5700,https://restaurants.fiveguys.com/815-1-parkway,"Mo-Su 11:00-21:30,11:00-22:00",Five Guys,Q1131810
155782,marathon_petroleum_us,GATLINBURG GAS,,GATLINBURG,TN,,US,+1 865-436-4109,,,Marathon,Q458363
GTLCY,marriott,Courtyard Gatlinburg Downtown,,Gatlinburg,TN,,US,+1 865-436-2008,https://www.marriott.com/GTLCY,,Courtyard by Marriott,Q1053170
GTLFG,marriott,Fairfield Inn & Suites Gatlinburg Downtown,,Gatlinburg,TN,,US,+1 865-436-4935,https://www.marriott.com/GTLFG,,Fairfield by Marriott,Q5430314
https://locations.papajohns.com/#10693314,papa_johns,Papa John's,,Gatlinburg,TN,,US,+1 865-430-7777,https://locations.papajohns.com/united-states/tn/37738/gatlinburg/466-brookside-village-way,Mo-Th 11:00-23:00; Fr-Sa 11:00-24:00; Su 11:00-23:00,Papa John's Pizza,Q2759586
https://restaurants.subway.com/#14912286,subway,Subway,,Gatlinburg Sevier,TN,,US,+1 865-430-4690,https://restaurants.subway.com/united-states/tn/gatlinburg/600-parkway,Mo-Th 08:30-23:30; Fr-Sa 08:30-24:00; Su 09:00-23:30,Subway,Q244457
https://restaurants.subway.com/#14906185,subway,Subway,,Gatlinburg Sevier,TN,,US,+1 865-436-8726,https://restaurants.subway.com/united-states/tn/gatlinburg/1359-e-parkway,Mo-Su 09:00-23:00,Subway,Q244457
https://restaurants.subway.com/#14914652,subway,Subway,,Gatlinburg Sevier,TN,,US,+1 865-436-6792,https://restaurants.subway.com/united-states/tn/gatlinburg/223-historical-nature-trail,Mo-Sa 09:00-09:30; Su 09:00-16:00,Subway,Q244457
1364554,usps,GATLINBURG,,GATLINBURG,TN,,US,+1 865-436-3229,,Mo-Fr 09:00-17:00; Sa 09:00-11:00,United States Postal Service,Q668687
3773800021,usps_collection_boxes,USPS COLLECTION BOX - BLUE BOX,812 PARKWAY,GATLINBURG,TN,,US,,,,United States Postal Service,Q668687
3773800020,usps_collection_boxes,USPS COLLECTION BOX - BLUE BOX,626 PARKWAY,GATLINBURG,TN,,US,,,,United States Postal Service,Q668687
3773800010,usps_collection_boxes,USPS COLLECTION BOX - BLUE BOX,500 PARKWAY,GATLINBURG,TN,,US,,,,United States Postal Service,Q668687
3773800013,usps_collection_boxes,USPS COLLECTION BOX - BLUE BOX,1216 E PARKWAY,GATLINBURG,TN,,US,,,,United States Postal Service,Q668687
3773800018,usps_collection_boxes,USPS COLLECTION BOX - PO LOBBY,1216 E PARKWAY,GATLINBURG,TN,,US,,,,United States Postal Service,Q668687
3773800022,usps_collection_boxes,USPS COLLECTION BOX - PO LOBBY,1216 E PARKWAY,GATLINBURG,TN,,US,,,,United States Postal Service,Q668687
,visa,,,GATLINBURG,TN,,US,,,,,
,visa,,,GATLINBURG,TN,,US,,,,,
,visa,,,GATLINBURG,TN,,US,,,,,
,visa,,,GATLINBURG,TN,,US,,,,,
,visa,,,GATLINBURG,TN,,US,,,,,
,visa,,,GATLINBURG,TN,,US,,,,,
,visa,,,GATLINBURG,TN,,US,,,,,
,visa,,,GATLINBURG,TN,,US,,,,,
,visa,,,GATLINBURG,TN,,US,,,,,
,visa,,,GATLINBURG,TN,,US,,,,,
,visa,,,GATLINBURG,TN,,US,,,,,
,visa,,,GATLINBURG,TN,,US,,,,,
,visa,,,GATLINBURG,TN,,US,,,,,
,visa,,,GATLINBURG,TN,,US,,,,,
,visa,,,GATLINBURG,TN,,US,,,,,
,visa,,,GATLINBURG,TN,,US,,,,,
,visa,,,GAITLINBURG,TN,,US,,,,,
,visa,,,GATLINBURG,TN,,US,,,,,
,visa,,,GATLINBURG,TN,,US,,,,,
,visa,,,GATLINBURG,TN,,US,,,,,
,visa,,,GATLINBURG,TN,,US,,,,,
,visa,,,GATLINBURG,TN,,US,,,,,
,visa,,,GATLINBURG,TN,,US,,,,,
,visa,,,GATLINBURG,TN,,US,,,,,
,visa,,,GATLINBURG,TN,,US,,,,,
,visa,,,GATLINBURG,TN,,US,,,,,
,visa,,,GATLINBURG,TN,,US,,,,,
,visa,,,GATLINBURG,TN,,US,,,,,
,visa,,,GATLINBURG,TN,,US,,,,,
,visa,,,GATLINBURG,TN,,US,,,,,
,visa,,,GATLINBURG,TN,,US,,,,,
,visa,,,GATLINBURG,TN,,US,,,,,
,visa,,,GATLINBURG,TN,,US,,,,,
,visa,,,GATLINBURG,TN,,US,,,,,
,visa,,,GATLINBURG,TN,,US,,,,,
,visa,,,GATLINBURG,TN,,US,,,,,
,visa,,,GATLINBURG,TN,,US,,,,,
,visa,,,GATLINBURG,TN,,US,,,,,
,visa,,,GATLINBURG,TN,,US,,,,,
,visa,,,GATLINBURG,TN,,US,,,,,
,visa,,,GATLINBURG,TN,,US,,,,,
,visa,,,GATLINBURG,TN,,US,,,,,
,visa,,,GATLINBURG,TN,,US,,,,,
,visa,,,GATLINBURG,TN,,US,,,,,
,visa,,,GATLINBURG,TN,,US,,,,,
,visa,,,GATLINBURG,TN,,US,,,,,
,visa,,,GATLINBURG,TN,,US,,,,,
,visa,,,GATLINBURG,TN,,US,,,,,
,visa,,,GATLINBURG,TN,,US,,,,,
,visa,,,GATLINBURG,TN,,US,,,,,
,visa,,,GATLINBURG,TN,,US,,,,,
,visa,,,GATLINBURG,TN,,US,,,,,
,visa,,,GATLINBURG,TN,,US,,,,,
,visa,,,GATLINBURG,TN,,US,,,,,
,visa,,,GATLINBURG,TN,,US,,,,,
,visa,,,GATLINBURG,TN,,US,,,,,
,visa,,,GATLINBURG,TN,,US,,,,,
,visa,,,GATLINBURG,TN,,US,,,,,
,visa,,,GATLINBURG,TN,,US,,,,,
,visa,,,GATLINBURG,TN,,US,,,,,
,visa,,,GATLINBURG,TN,,US,,,,,
,visa,,,GATLINBURG,TN,,US,,,,,
,visa,,,GATLINBURG,TN,,US,,,,,
,visa,,,GATLINBURG,TN,,US,,,,,
,visa,,,GATLINBURG,TN,,US,,,,,
,visa,,,GATLINBURG,TN,,US,,,,,
,visa,,,GATLINBURG,TN,,US,,,,,
,visa,,,GATLINBURG,TN,,US,,,,,
,visa,,,GATLINBURG,TN,,US,,,,,
,visa,,,GATLINBURG,TN,,US,,,,,
,visa,,,GATLINBURG,TN,,US,,,,,
,visa,,,GATLINBURG,TN,,US,,,,,
,visa,,,GATLINBURG,TN,,US,,,,,
,visa,,,GATLINBURG,TN,,US,,,,,
,visa,,,GATLINBURG,TN,,US,,,,,
,visa,,,GATLINBURG,TN,,US,,,,,
,visa,,,GATLINBURG,TN,,US,,,,,
,visa,,,GATLINBURG,TN,,US,,,,,
,visa,,,GATLINBURG,TN,,US,,,,,
,visa,,,GATLINBURG,TN,,US,,,,,
,visa,,,GATLINBURG,TN,,US,,,,,
,visa,,,GATLINBURG,TN,,US,,,,,
,visa,,,GATLINBURG,TN,,US,,,,,
,visa,,,GATLINBURG,TN,,US,,,,,
,visa,,,GATLINBURG,TN,,US,,,,,
,visa,,,GATLINBURG,TN,,US,,,,,
,visa,,,GATLINBURG,TN,,US,,,,,
,visa,,,GATLINBURG,TN,,US,,,,,
,visa,,,GATLINBURG,TN,,US,,,,,
,visa,,,GATLINBURG,TN,,US,,,,,
,visa,,,GATLINBURG,TN,,US,,,,,
,visa,,,GATLINBURG,TN,,US,,,,,
,visa,,,GATLINBURG,TN,,US,,,,,
,visa,,,GATLINBURG,TN,,US,,,,,
,visa,,,GATLINBURG,TN,,US,,,,,
,visa,,,GATLINBURG,TN,,US,,,,,
,visa,,,GATLINBURG,TN,,US,,,,,
,visa,,,GATLINBURG,TN,,US,,,,,
,visa,,,SEVIERVILLE,TN,,US,,,,,
https://www.walgreens.com/locator/walgreens-811+parkway-gatlinburg-tn-37738/id=13107,walgreens,Walgreens,,Gatlinburg,TN,,US,+1 865-436-5505,https://www.walgreens.com/locator/walgreens-811+parkway-gatlinburg-tn-37738/id=13107,Mo-Su 07:00-22:00,Walgreens,Q1591889
