Ref,Spider,Name,Address,City,State,Zipcode,Country,Phone,Website,Hours,Brand,WikiData
https://stores.advanceautoparts.com/wv/huntington/430-29th-st,advance_auto_parts_us,Advance Auto Parts,,Huntington,WV,,US,+1 304-529-3402,https://stores.advanceautoparts.com/wv/huntington/430-29th-st,Mo-Sa 07:30-21:00; Su 09:00-20:00,Advance Auto Parts,Q4686051
5721,bluerhino,Speedway #9766,,Huntington,WV,,US,+1 304-522-0770,,,Blue Rhino,Q65681213
5717,bluerhino,Kroger #792 - MidAtlantic,,Huntington,WV,,US,+1 304-529-0670,,,Blue Rhino,Q65681213
5723,bluerhino,Speedway #9791,,Huntington,WV,,US,+1 304-525-4172,,,Blue Rhino,Q65681213
192300,bluerhino,Par Mar #125,,Huntington,WV,,US,+1 304-522-0200,,,Blue Rhino,Q65681213
67554,citi,ATM PEOPLES BANK,,Huntington,WV,,US,,,,Citibank,Q857063
44645,citi,ATM CITIZENS DEPOSIT BANK,,Huntington,WV,,US,,,,Citibank,Q857063
61237,citi,ATM Kroger,,Huntington,WV,,US,,,,Citibank,Q857063
77741,citi,ATM Speedway,,Huntington,WV,,US,,,,Citibank,Q857063
67943,citi,ATM Pioneer West Virginia FCU,,Huntington,WV,,US,,,,Citibank,Q857063
https://www.chghospitals.com/location/cornerstone-specialty-hospitals-huntington/,cornerstone_healthcare_group_us,Cornerstone Specialty Hospitals Huntington,"2900 First Avenue, Two East",Huntington,WV,,US,+1 304-399-2600,https://www.chghospitals.com/location/cornerstone-specialty-hospitals-huntington/,,Cornerstone Healthcare Group,
3391,cvs_us,CVS Pharmacy,,Huntington,WV,,US,+1 304-697-0366,https://www.cvs.com/store-locator/huntington-wv-pharmacies/2901-fifth-ave-huntington-wv-25702/storeid=3391,Mo-Fr 08:00-21:00; Sa-Su 09:00-21:00,CVS Pharmacy,Q2078880
32947,family_dollar_us,FAMILY DOLLAR #12947,,Huntington,WV,,US,+1 681-203-2086,https://www.familydollar.com/locations/wv/huntington/32947/,Mo-Sa 09:00-22:00; Su 09:00-21:00,Family Dollar,Q5433101
6009,firestone_auto_care,Firestone Complete Auto Care,,Huntington,WV,,US,+1 304-521-2229,https://local.firestonecompleteautocare.com/west-virginia/huntington/2630-5th-ave/,,Firestone,Q420837
https://office.jacksonhewitt.com/#27579241,jackson_hewitt,Jackson Hewitt,,Huntington,WV,,US,+1 304-522-3750,https://office.jacksonhewitt.com/tax-preparation-services-locations/en/wv/huntington/501-28th-street/15843,Mo-Fr 09:00-18:00; Sa 09:00-17:00,Jackson Hewitt,Q6117132
158503,marathon_petroleum_us,5TH AVE MARATHON,,HUNTINGTON,WV,,US,+1 304-525-5011,,,Marathon,Q458363
157260,marathon_petroleum_us,CLARKS PNS 24,,HUNTINGTON,WV,,US,+1 304-733-2221,,,Marathon,Q458363
157261,marathon_petroleum_us,CLARKS PNS 54,,HUNTINGTON,WV,,US,+1 304-522-8500,,,Marathon,Q458363
161366,marathon_petroleum_us,RT 2 MINI MART,,HUNTINGTON,WV,,US,+1 304-529-3840,,,Marathon,Q458363
159839,marathon_petroleum_us,CONVENIENT PLUS,,HUNTINGTON,WV,,US,+1 304-525-1754,,,Marathon,Q458363
https://locations.oreillyauto.com/wv/huntington/check-engine-light-testing-4482.html,oreilly,Your Huntington O'Reilly Auto Parts Store,,Huntington,WV,,US,+1 304-523-7568,https://locations.oreillyauto.com/wv/huntington/check-engine-light-testing-4482.html,Mo-Sa 07:30-21:00; Su 09:00-19:00,O'Reilly Auto Parts,Q7071951
https://locations.oreillyauto.com/wv/huntington/wiper-installation-4482.html,oreilly,Your Huntington O'Reilly Auto Parts Store,,Huntington,WV,,US,+1 304-523-7568,https://locations.oreillyauto.com/wv/huntington/wiper-installation-4482.html,Mo-Sa 07:30-21:00; Su 09:00-19:00,O'Reilly Auto Parts,Q7071951
https://locations.oreillyauto.com/wv/huntington/battery-testing-4482.html,oreilly,Your Huntington O'Reilly Auto Parts Store,,Huntington,WV,,US,+1 304-523-7568,https://locations.oreillyauto.com/wv/huntington/battery-testing-4482.html,Mo-Sa 07:30-21:00; Su 09:00-19:00,O'Reilly Auto Parts,Q7071951
https://locations.oreillyauto.com/wv/huntington/autopartes-4482.html,oreilly,Tu tienda O'Reilly Auto Parts en Huntington,,Huntington,WV,,US,+1 304-523-7568,https://locations.oreillyauto.com/wv/huntington/autopartes-4482.html,Mo-Sa 07:30-21:00; Su 09:00-19:00,O'Reilly Auto Parts,Q7071951
8002170902,sunoco_us,Sunoco,,HUNTINGTON,WV,,US,+1 330-722-2031,,Mo-Su 06:00-00:00,Sunoco,Q1423218
1365885,usps,GUYANDOTTE,,HUNTINGTON,WV,,US,+1 304-523-0448,,Mo-Fr 08:30-11:30,United States Postal Service,Q668687
2570200002,usps_collection_boxes,USPS COLLECTION BOX - BLUE BOX,130 BRIDGE ST,HUNTINGTON,WV,,US,,,,United States Postal Service,Q668687
2570200016,usps_collection_boxes,USPS COLLECTION BOX - PO LOBBY,130 BRIDGE ST,HUNTINGTON,WV,,US,,,,United States Postal Service,Q668687
2570200024,usps_collection_boxes,USPS COLLECTION BOX - PO LOBBY,130 BRIDGE ST,HUNTINGTON,WV,,US,,,,United States Postal Service,Q668687
2570200000,usps_collection_boxes,USPS COLLECTION BOX - BLUE BOX,2900 1ST AVE,HUNTINGTON,WV,,US,,,,United States Postal Service,Q668687
2570200001,usps_collection_boxes,USPS COLLECTION BOX - BLUE BOX,2900 1ST AVE,HUNTINGTON,WV,,US,,,,United States Postal Service,Q668687
2570200017,usps_collection_boxes,USPS COLLECTION BOX - BLUE BOX,2860 3RD AVE,HUNTINGTON,WV,,US,,,,United States Postal Service,Q668687
2570200012,usps_collection_boxes,USPS COLLECTION BOX - BLUE BOX,416 MAIN ST,HUNTINGTON,WV,,US,,,,United States Postal Service,Q668687
,visa,,,HUNTINGTON,WV,,US,,,,,
,visa,,,HUNTINGTON,WV,,US,,,,,
,visa,,,HUNTINGTON,WV,,US,,,,,
,visa,,,HUNTINGTON,WV,,US,,,,,
,visa,,,HUNTINGTON,WV,,US,,,,,
,visa,,,HUNTINGTON,WV,,US,,,,,
,visa,,,HUNTINGTON,WV,,US,,,,,
,visa,,,GUYANDOTTE,WV,,US,,,,,
,visa,,,HUNTINGTON,WV,,US,,,,,
,visa,,,HUNTINGTON,WV,,US,,,,,
,visa,,,HUNTINGTON,WV,,US,,,,,
,visa,,,HUNTINGTON,WV,,US,,,,,
,visa,,,HUNTINGTON,WV,,US,,,,,
,visa,,,HUNTINGTON,WV,,US,,,,,
,visa,,,HUNTINGTON,WV,,US,,,,,
,visa,,,HUNTINGTON,WV,,US,,,,,
,visa,,,HUNTINGTON,WV,,US,,,,,
,visa,,,HUNTINGTON,WV,,US,,,,,
,visa,,,HUNTINGTON,WV,,US,,,,,
,visa,,,HUNTINGTON,WV,,US,,,,,
,visa,,,HUNTINGTON,WV,,US,,,,,
,visa,,,HUNTINGTON,WV,,US,,,,,
,visa,,,HUNTINGTON,WV,,US,,,,,
,visa,,,HUNTINGTON,WV,,US,,,,,
,visa,,,HUNTINGTON,WV,,US,,,,,
,visa,,,HUNTINGTON,WV,,US,,,,,
,visa,,,HUNTINGTON,WV,,US,,,,,
,visa,,,HUNTINGTON,WV,,US,,,,,
,visa,,,HUNTINGTON,WV,,US,,,,,
