Ref,Spider,Name,Address,City,State,Zipcode,Country,Phone,Website,Hours,Brand,WikiData
65013430,moneygram,BANCO ECOFUTURO - #21 - PALOS BLANCOS -,,PALOS BLANCOS,,,BO,+591 2 2136195,,Mo-Fr 08:30-18:30; Sa 08:30-12:30; Su 00:00-24:00,MoneyGram,Q1944412
65013618,moneygram,BANCO ECOFUTURO - #27 - MCDO BOLIVAR ORU,,ORURO,,,BO,+591 2 5278635,,Mo-Fr 08:00-15:30; Sa 09:00-12:30; Su 00:00-24:00,MoneyGram,Q1944412
43710153,moneygram,COOP JESUS DE NAZARENO,,SANTA CRUZ,,,BO,+591 3 3366868,,Mo-Fr 08:00-19:00; Sa 08:00-13:00; Su 00:00-24:00,MoneyGram,Q1944412
65013715,moneygram,BANCO ECOFUTURO - #76 - SAN JAVIER,,SAN JAVIER,,,BO,+591 3 9635200,,Mo-Fr 07:30-19:00; Sa 08:30-13:30; Su 00:00-24:00,MoneyGram,Q1944412
43710302,moneygram,COOP JESUS DE NAZARENO,,COBIJA,,,BO,+591 3 8422126,,Mo-Fr 08:00-19:00; Sa 08:00-13:00; Su 00:00-24:00,MoneyGram,Q1944412
43756939,moneygram,MABREND HISPANO TRANSFER - SANTA CRUZ -,,SANTA CRUZ,,,BO,+591 3 3643662,,Mo-Fr 07:45-19:00; Sa 07:45-14:00; Su 00:00-24:00,MoneyGram,Q1944412
43710166,moneygram,COOP JESUS DE NAZARENO,,SANTA CRUZ,,,BO,+591 3 3365959,,Mo-Fr 08:00-19:00; Sa 08:00-13:00; Su 00:00-24:00,MoneyGram,Q1944412
43710276,moneygram,COOP JESUS DE NAZARENO,,SANTA CRUZ,,,BO,+591 3 3466450,,Mo-Fr 08:00-19:00; Sa 08:00-13:00; Su 00:00-24:00,MoneyGram,Q1944412
43713859,moneygram,COOPERATIVA SAN MARTIN ROBORE,,ROBORE,,,BO,+591 3 9742195,,Mo-Fr 08:30-19:00; Sa-Su 08:30-14:30,MoneyGram,Q1944412
43713927,moneygram,COOPERATIVA SAN MARTIN YACUIBA,,YACUIBA,,,BO,+591 4 6824588,,Mo-Fr 08:30-19:00; Sa-Su 08:30-14:30,MoneyGram,Q1944412
43713875,moneygram,COOPERATIVA SAN MARTIN SAN IGNACIO,,SAN IGNACIO DE VELASCO,,,BO,+591 3 9622420,,Mo-Fr 08:30-19:00; Sa-Su 08:30-14:30,MoneyGram,Q1944412
43713820,moneygram,COOPERATIVA SAN MARTIN PLAN 3000,,SANTA CRUZ,,,BO,+591 3 3526677,,Mo-Fr 08:30-19:00; Sa-Su 08:30-14:30,MoneyGram,Q1944412
43713914,moneygram,COOPERATIVA SAN MARTIN VILLAMONTES,,VILLAMONTES,,,BO,34722942,,Mo-Fr 08:30-19:00; Sa-Su 08:30-14:30,MoneyGram,Q1944412
43713930,moneygram,COOPERATIVA SAN MARTIN MONTEAGUDO,,MONTEAGUDO,,,BO,+591 3 4642085,,Mo-Fr 08:30-19:00; Sa-Su 08:30-14:30,MoneyGram,Q1944412
43713749,moneygram,COOPERATIVA SAN MARTIN ALTO SAN PEDRO,,SANTA CRUZ,,,BO,3519292,,Mo-Fr 08:30-19:00; Sa-Su 08:30-14:30,MoneyGram,Q1944412
43710292,moneygram,COOP JESUS DE NAZARENO,,GUAYARAMERIN,,,BO,+591 3 8553039,,Mo-Fr 08:00-19:00; Sa 08:00-13:00; Su 00:00-24:00,MoneyGram,Q1944412
43710247,moneygram,COOP JESUS DE NAZARENO,,SANTA CRUZ,,,BO,+591 3 3538313,,Mo-Fr 08:00-19:00; Sa 08:00-13:00; Su 00:00-24:00,MoneyGram,Q1944412
43971743,moneygram,COOP JESUS DE NAZARENO,,CAMIRI,,,BO,+591 3 9522542,,Mo-Fr 08:00-19:00; Sa 08:00-13:00; Su 00:00-24:00,MoneyGram,Q1944412
43968950,moneygram,COOP COMARAPA,,SAN ISIDRO,,,BO,+591 3 3515140,,Mo-Fr 07:30-19:30; Sa 07:30-13:00; Su 00:00-24:00,MoneyGram,Q1944412
43968934,moneygram,COOP COMARAPA,,COMARAPA,,,BO,+591 3 3862016,,Mo-Fr 07:30-19:30; Sa 07:30-13:00; Su 00:00-24:00,MoneyGram,Q1944412
43968976,moneygram,COOP COMARAPA,,SANTA CRUZ,,,BO,+591 3 3515140,,Mo-Fr 07:30-18:00; Sa 07:30-13:00; Su 00:00-24:00,MoneyGram,Q1944412
43968947,moneygram,COOP COMARAPA,,SAIPINA,,,BO,+591 3 3515140,,Mo-Fr 07:30-19:30; Sa 07:30-13:00; Su 00:00-24:00,MoneyGram,Q1944412
43968963,moneygram,COOP COMARAPA,,LOS NEGROS,,,BO,+591 3 3515140,,Mo-Fr 07:30-19:30; Sa 07:30-13:00; Su 00:00-24:00,MoneyGram,Q1944412
43713778,moneygram,COOP SAN MARTIN LA RAMADA,,SANTA CRUZ,,,BO,+591 3 3585232,,Mo-Fr 08:30-19:00; Sa-Su 08:30-14:30,MoneyGram,Q1944412
43710140,moneygram,COOP JESUS DE NAZARENO,,SANTA CRUZ,,,BO,+591 3 3361112,,Mo-Fr 08:00-19:00; Sa 08:00-13:00; Su 00:00-24:00,MoneyGram,Q1944412
43710205,moneygram,COOP JESUS DE NAZARENO,,SANTA CRUZ,,,BO,+591 3 3524981,,Mo-Fr 08:00-19:00; Sa 08:00-13:00; Su 00:00-24:00,MoneyGram,Q1944412
43713723,moneygram,COOPERATIVA SAN MARTIN SANTA CRUZ,,SANTA CRUZ,,,BO,+591 3 3526677,,Mo-Fr 08:30-19:00; Sa-Su 08:30-14:30,MoneyGram,Q1944412
43710357,moneygram,COOP JESUS DE NAZARENO,,RIBERALTA,,,BO,+591 3 8522431,,Mo-Fr 08:00-19:00; Sa 08:00-13:00; Su 00:00-24:00,MoneyGram,Q1944412
43713888,moneygram,COOPERATIVA SAN MARTIN CAMIRI,,CAMIRI,,,BO,+591 3 9522766,,Mo-Fr 08:30-19:00; Sa-Su 08:30-14:30,MoneyGram,Q1944412
43710195,moneygram,COOP JESUS DE NAZARENO,,SANTA CRUZ,,,BO,+591 3 3492277,,Mo-Fr 08:00-19:00; Sa 08:00-13:00; Su 00:00-24:00,MoneyGram,Q1944412
43710250,moneygram,COOP JESUS DE NAZARENO,,SANTA CRUZ,,,BO,+591 3 3559070,,Mo-Fr 08:30-18:30; Sa 09:00-13:00; Su 00:00-24:00,MoneyGram,Q1944412
43713846,moneygram,COOPERATIVA SAN MARTIN MONTERO,,MONTERO,,,BO,+591 3 9224199,,Mo-Fr 08:30-19:00; Sa-Su 08:30-14:30,MoneyGram,Q1944412
43710289,moneygram,COOP JESUS DE NAZARENO,,MONTERO,,,BO,+591 3 9223801,,Mo-Fr 08:00-19:00; Sa 08:00-13:00; Su 00:00-24:00,MoneyGram,Q1944412
43920150,moneygram,MUTUAL LA PRIMERA,,LA PAZ,,,BO,+591 2 2312255,,Mo-Fr 08:30-19:30; Sa 08:30-14:00; Su 00:00-24:00,MoneyGram,Q1944412
43920244,moneygram,MUTUAL LA PRIMERA,,LA PAZ,,,BO,+591 2 2430680,,Mo-Fr 08:30-19:30; Sa 08:30-14:00; Su 00:00-24:00,MoneyGram,Q1944412
43920396,moneygram,MUTUAL LA PRIMERA,,ALTO,,,BO,+591 2 2814683,,Mo-Fr 08:30-18:00; Sa 08:30-14:00; Su 00:00-24:00,MoneyGram,Q1944412
43920383,moneygram,MUTUAL LA PRIMERA,,LA PAZ,,,BO,+591 2 2243613,,Mo-Fr 08:30-19:30; Sa 08:30-14:00; Su 00:00-24:00,MoneyGram,Q1944412
43927742,moneygram,COOPERATIVA SAN MARTIN MUTUALISTA,,SANTA CRUZ,,,BO,+591 3 3644505,,Mo-Fr 08:30-19:00; Sa-Su 08:30-14:30,MoneyGram,Q1944412
43920435,moneygram,MUTUAL LA PRIMERA,,LA PAZ,,,BO,+591 2 2713397,,Mo-Fr 08:30-19:30; Sa 08:30-14:00; Su 00:00-24:00,MoneyGram,Q1944412
43920325,moneygram,MUTUAL LA PRIMERA,,LA PAZ,,,BO,+591 2 2791894,,Mo-Fr 08:30-19:30; Sa 08:30-14:00; Su 00:00-24:00,MoneyGram,Q1944412
43920163,moneygram,MUTUAL LA PRIMERA,,LA PAZ,,,BO,+591 2 2454588,,Mo-Fr 08:30-19:30; Sa 08:30-14:00; Su 00:00-24:00,MoneyGram,Q1944412
43920419,moneygram,MUTUAL LA PRIMERA,,LA PAZ,,,BO,+591 2 2311615,,Mo-Fr 08:30-19:30; Sa 08:30-14:00; Su 00:00-24:00,MoneyGram,Q1944412
43920875,moneygram,LA PROMOTORA EFV,,COCHABAMBA,,,BO,+591 4 4224393,,Mo-Fr 08:00-16:30; Sa 09:00-12:30; Su 00:00-24:00,MoneyGram,Q1944412
43920723,moneygram,MUTUAL LA PRIMERA,,LA PAZ,,,BO,+591 2 2310414,,Mo-Fr 08:30-19:30; Sa 08:30-14:00; Su 00:00-24:00,MoneyGram,Q1944412
43715051,moneygram,BNB - LP CENTRAL,,LA PAZ,,,BO,+591 2 2313232,,Mo-Sa 09:00-18:30; Su 00:00-24:00,MoneyGram,Q1944412
43715187,moneygram,BNB - SC AG. AROMA,,SANTA CRUZ,,,BO,+591 3 3662820,,Mo-Sa 09:00-18:30; Su 00:00-24:00,MoneyGram,Q1944412
43715239,moneygram,BNB - SC AG. 7 CALLES,,SANTA CRUZ,,,BO,+591 3 3662840,,Mo-Sa 09:00-18:30; Su 00:00-24:00,MoneyGram,Q1944412
43715116,moneygram,BNB - LP AG. MONTES,,LA PAZ,,,BO,+591 2 2621833,,Mo-Sa 09:00-18:30; Su 00:00-24:00,MoneyGram,Q1944412
43715093,moneygram,BNB - LP AG. 20 DE OCTUBRE,,LA PAZ,,,BO,+591 2 2621800,,Mo-Sa 09:00-18:30; Su 00:00-24:00,MoneyGram,Q1944412
43715161,moneygram,BNB - SC CENTRAL,,SANTA CRUZ,,,BO,+591 3 3662777,,Mo-Sa 09:00-18:30; Su 00:00-24:00,MoneyGram,Q1944412
43715103,moneygram,BNB - LP AG. EL ALTO,,LA PAZ,,,BO,+591 2 2621750,,Mo-Sa 09:00-18:30; Su 00:00-24:00,MoneyGram,Q1944412
43715844,moneygram,BNB - PO CENTRAL,,POTOSI,,,BO,+591 2 6223501,,Mo-Sa 09:00-18:30; Su 00:00-24:00,MoneyGram,Q1944412
43715828,moneygram,BNB - OR CENTRAL,,ORURO,,,BO,+591 2 5251381,,Mo-Sa 09:00-18:30; Su 00:00-24:00,MoneyGram,Q1944412
43715556,moneygram,BNB - SC AG. NORTE,,SANTA CRUZ,,,BO,+591 3 3662750,,Mo-Sa 09:00-18:30; Su 00:00-24:00,MoneyGram,Q1944412
43715585,moneygram,BNB - SC AG.UPSA,,SANTA CRUZ,,,BO,+591 3 3662825,,Mo-Sa 09:00-18:30; Su 00:00-24:00,MoneyGram,Q1944412
43715750,moneygram,BNB - SU AG. SAS,,SUCRE,,,BO,+591 4 6461733,,Mo-Sa 09:00-18:30; Su 00:00-24:00,MoneyGram,Q1944412
43715925,moneygram,BNB - TA AG. BERMEJO,,BERMEJO,,,BO,+591 4 6961086,,Mo-Sa 09:00-18:30; Su 00:00-24:00,MoneyGram,Q1944412
43715679,moneygram,BNB - CB AG. NORTE,,COCHABAMBA,,,BO,+591 4 4248719,,Mo-Sa 09:00-18:30; Su 00:00-24:00,MoneyGram,Q1944412
43715637,moneygram,BNB - CB AG. AUTOBANCO,,COCHABAMBA,,,BO,+591 4 4520391,,Mo-Sa 09:00-18:30; Su 00:00-24:00,MoneyGram,Q1944412
43715734,moneygram,BNB - SU CENTRAL,,SUCRE,,,BO,+591 4 6453055,,Mo-Sa 09:00-18:30; Su 00:00-24:00,MoneyGram,Q1944412
43715886,moneygram,BNB - TA CENTRAL,,TARIJA,,,BO,+591 4 6642025,,Mo-Sa 09:00-18:30; Su 00:00-24:00,MoneyGram,Q1944412
43715284,moneygram,BNB - SC AG. RAMADA,,SANTA CRUZ,,,BO,+591 3 3662800,,Mo-Sa 09:00-18:30; Su 00:00-24:00,MoneyGram,Q1944412
43715132,moneygram,BNB - LP AG. SAN MIGUEL,,LA PAZ,,,BO,+591 2 2621840,,Mo-Sa 09:00-18:30; Su 00:00-24:00,MoneyGram,Q1944412
43763524,moneygram,COOP SAN PEDRO,,AIQUILE,,,BO,+591 4 4136075,,Mo-Fr 08:00-19:00; Sa 08:00-13:00; Su 00:00-24:00,MoneyGram,Q1944412
43873168,moneygram,COOP JESUS DE NAZARENO,,SANTA CRUZ,,,BO,3396295,,Mo-Fr 08:00-19:00; Sa 08:00-13:00; Su 00:00-24:00,MoneyGram,Q1944412
44218939,moneygram,COOP CACEF,,COCHABAMBA,,,BO,+591 4 4250722,,Mo-Fr 08:00-19:00; Sa 08:00-13:00; Su 00:00-24:00,MoneyGram,Q1944412
44218968,moneygram,COOP CACEF,,SIPE SIPE,,,BO,+591 4 4380066,,Mo-Fr 08:00-19:00; Sa 08:00-13:00; Su 00:00-24:00,MoneyGram,Q1944412
44218971,moneygram,COOP CACEF,,SACABA,,,BO,+591 4 4701214,,Mo-Fr 08:00-19:00; Sa 08:00-13:00; Su 00:00-24:00,MoneyGram,Q1944412
43996168,moneygram,COOP LOYOLA - #1,,COCHABAMBA,,,BO,4296791,,Mo-Fr 08:00-20:30; Sa 08:00-18:00; Su 00:00-24:00,MoneyGram,Q1944412
43996388,moneygram,COOP LOYOLA - #2,,TINQUIPAYA,,,BO,4504738,,Mo-Fr 08:00-17:30; Sa 08:00-13:00; Su 00:00-24:00,MoneyGram,Q1944412
43996155,moneygram,COOP LOYOLA,,COCHABAMBA,,,BO,4254932,,Mo-Fr 08:00-19:00; Sa 08:00-13:00; Su 00:00-24:00,MoneyGram,Q1944412
44219006,moneygram,COOP CACEF,,TIRAQUE,,,BO,+591 4 4570146,,Mo-Fr 08:00-19:00; Sa 08:00-13:00; Su 00:00-24:00,MoneyGram,Q1944412
44273181,moneygram,BNB - LP AG. MIRAFLORES,,LA PAZ,,,BO,+591 2 2621790,,Mo-Sa 09:00-18:30; Su 00:00-24:00,MoneyGram,Q1944412
44037330,moneygram,COOP FATIMA,,SANTA CRUZ,,,BO,+591 3 3537000,,Mo-Fr 08:00-16:00; Sa-Su 00:00-24:00,MoneyGram,Q1944412
44037178,moneygram,COOP FATIMA - #1,,SANTA CRUZ,,,BO,3595392,,Mo-Fr 08:00-16:00; Sa-Su 00:00-24:00,MoneyGram,Q1944412
44037233,moneygram,COOP FATIMA - #4,,SANTA CRUZ,,,BO,3543473,,Mo-Fr 08:00-16:00; Sa-Su 00:00-24:00,MoneyGram,Q1944412
44037220,moneygram,COOP FATIMA - #3,,SANTA CRUZ,,,BO,+591 3 3430345,,Mo-Fr 08:00-16:00; Sa-Su 00:00-24:00,MoneyGram,Q1944412
44037204,moneygram,COOP FATIMA - #2,,SANTA CRUZ,,,BO,+591 3 3471454,,Mo-Fr 08:00-16:00; Sa-Su 00:00-24:00,MoneyGram,Q1944412
45339066,moneygram,FONDECO,,SAN JAVIER,,,BO,+591 3 9635187,,Mo-Fr 08:00-19:00; Sa 08:00-13:00; Su 00:00-24:00,MoneyGram,Q1944412
44498186,moneygram,MUTUAL PANDO,,COBIJA,,,BO,+591 3 8422055,,Mo-Fr 08:00-16:00; Sa-Su 00:00-24:00,MoneyGram,Q1944412
44494151,moneygram,COOPERATIVA SAN MARTIN 7 CALLES - #14,,SANTA CRUZ,,,BO,3398639,,Mo-Fr 08:30-19:00; Sa-Su 08:30-14:30,MoneyGram,Q1944412
44747811,moneygram,COOP SAN PEDRO - #1,,COCHABAMBA,,,BO,+591 4 4232369,,Mo-Fr 08:00-19:00; Sa 08:00-13:00; Su 00:00-24:00,MoneyGram,Q1944412
44766148,moneygram,BNB - SC AG MUTUALISTA,,SANTA CRUZ,,,BO,+591 3 3662780,,Mo-Sa 09:00-18:30; Su 00:00-24:00,MoneyGram,Q1944412
44814472,moneygram,FONDECO,,GUARAYOS,,,BO,+591 3 9667191,,Mo-Fr 08:00-19:00; Sa 08:00-13:00; Su 00:00-24:00,MoneyGram,Q1944412
44814566,moneygram,FONDECO,,SAN RAMON,,,BO,+591 3 9656080,,Mo-Fr 08:00-19:00; Sa 08:00-13:00; Su 00:00-24:00,MoneyGram,Q1944412
44814582,moneygram,FONDECO,,TARIJA,,,BO,+591 4 6632858,,Mo-Fr 08:00-19:00; Sa 08:00-13:00; Su 00:00-24:00,MoneyGram,Q1944412
44840213,moneygram,COOP SAN PEDRO,,COCHABAMBA,,,BO,+591 4 4232369,,Mo-Fr 08:00-19:00; Sa 08:00-13:00; Su 00:00-24:00,MoneyGram,Q1944412
44937456,moneygram,COOPERATIVA SAN MARTIN SAN JOSE,,SAN JOSE DE CHIQUITOS,,,BO,9722080,,Mo-Fr 08:30-19:00; Sa-Su 08:30-14:30,MoneyGram,Q1944412
44976158,moneygram,BNB - SC AG MONTERO,,SANTA CRUZ,,,BO,+591 3 3662770,,Mo-Sa 09:00-18:30; Su 00:00-24:00,MoneyGram,Q1944412
45068269,moneygram,COOP SAN PEDRO,,OMEREQUE,,,BO,4343041,,Mo-Fr 08:00-19:00; Sa 08:00-13:00; Su 00:00-24:00,MoneyGram,Q1944412
45116470,moneygram,BNB - LP AG. ACHUMANI,,LA PAZ,,,BO,+591 2 2621780,,Mo-Sa 09:00-18:30; Su 00:00-24:00,MoneyGram,Q1944412
64676881,moneygram,COOP CRISTO REY - #1,,COCHABAMBA,,,BO,+591 4 4280211,,Mo-Sa 08:00-19:00; Su 00:00-24:00,MoneyGram,Q1944412
64676917,moneygram,COOP CRISTO REY - #2,,EL PATO,,,BO,+591 4 4319591,,Mo-Sa 08:00-19:00; Su 00:00-24:00,MoneyGram,Q1944412
64676920,moneygram,COOP CRISTO REY - #3,,TOTORA,,,BO,+591 4 4341001,,Mo-Sa 08:00-19:00; Su 00:00-24:00,MoneyGram,Q1944412
65013883,moneygram,BANCO ECOFUTURO - #34 - TUPIZA,,TUPIZA,,,BO,+591 2 6943536,,Mo-Fr 08:30-17:30; Sa 08:30-13:30; Su 00:00-24:00,MoneyGram,Q1944412
65013922,moneygram,BANCO ECOFUTURO - #38 - CENTRAL SUCRE,,SUCRE,,,BO,+591 4 6910102,,Mo-Fr 08:30-17:30; Sa 08:30-13:30; Su 00:00-24:00,MoneyGram,Q1944412
65013427,moneygram,BANCO ECOFUTURO - #67 - CHARAGUA,,CHARAGUA,,,BO,+591 3 9542030,,Mo-Fr 07:30-19:00; Sa 08:30-13:30; Su 00:00-24:00,MoneyGram,Q1944412
65013702,moneygram,BANCO PYME ECOFUTURO - #30 - LLALLAGUA,,LLALLAGUA,,,BO,+591 2 5821158,,Mo-Fr 08:30-17:30; Sa 00:00-24:00; Su 08:30-13:30,MoneyGram,Q1944412
65013757,moneygram,BANCO ECOFUTURO - #32 - UYUNI,,UYUNI,,,BO,+591 2 6932212,,Mo-Fr 08:30-17:30; Sa 08:30-13:30; Su 00:00-24:00,MoneyGram,Q1944412
65202940,moneygram,MUTUAL LA PRIMERA - #1,,TARIJA,,,BO,+591 4 6666838,,Mo-Fr 08:30-18:00; Sa 08:30-14:00; Su 00:00-24:00,MoneyGram,Q1944412
65293153,moneygram,COOP FATIMA,,SANTA CRUZ,,,BO,+591 3 3537000,,Mo-Fr 08:00-16:00; Sa-Su 00:00-24:00,MoneyGram,Q1944412
65322817,moneygram,COOP SAN JOAQUIN - #1,,COCHABAMBA,,,BO,+591 4 4227456,,Mo-Fr 08:00-17:30; Sa 08:00-13:30; Su 00:00-24:00,MoneyGram,Q1944412
65501641,moneygram,BNB - LP AG. MEGA CENTER,,LA PAZ,,,BO,+591 2 2621740,,Mo-Sa 09:00-18:30; Su 00:00-24:00,MoneyGram,Q1944412
65515640,moneygram,BANCO ECOFUTURO - CENTRAL BENI,,TRINIDAD,,,BO,+591 3 4634157,,Mo-Fr 07:30-19:00; Sa 08:30-13:30; Su 00:00-24:00,MoneyGram,Q1944412
65515666,moneygram,BANCO ECOFUTURO - MDO CENTRAL SUCRE,,SUCRE,,,BO,+591 4 6910102,,Mo-Fr 08:30-17:30; Sa 08:30-13:30; Su 00:00-24:00,MoneyGram,Q1944412
65515682,moneygram,BANCO PYME ECOFUTURO - 16 DE JULIO EL AL,,ALTO,,,BO,2829470,,Mo-Fr 09:00-17:30; Sa 09:00-13:00; Su 00:00-24:00,MoneyGram,Q1944412
65515695,moneygram,BANCO ECOFUTURO - VILLA ADELA EL ALTO,,ALTO,,,BO,2829470,,Mo-Fr 08:30-17:30; Sa 08:30-13:30; Su 00:00-24:00,MoneyGram,Q1944412
65515718,moneygram,BANCO ECOFUTURO - RIO SECO EL ALTO,,ALTO,,,BO,2829470,,Mo-Fr 08:30-17:30; Sa 08:30-13:30; Su 00:00-24:00,MoneyGram,Q1944412
65515750,moneygram,BANCO PYME ECOFUTURO - EL TEJAR LP,,LA PAZ,,,BO,2829470,,Mo-Fr 09:00-17:30; Sa 09:00-13:00; Su 00:00-24:00,MoneyGram,Q1944412
65511770,moneygram,COOP COMARAPA,,OMEREQUE,,,BO,4462015,,Mo-Fr 07:30-19:30; Sa 07:30-13:00; Su 00:00-24:00,MoneyGram,Q1944412
65516144,moneygram,BANCO ECOFUTURO - CENTRAL LA PAZ,,LA PAZ,,,BO,2829470,,Mo-Fr 08:30-17:30; Sa 08:30-13:30; Su 00:00-24:00,MoneyGram,Q1944412
65516322,moneygram,BANCO ECOFUTURO - MCDO UYUNI,,POTOSI,,,BO,+591 2 6932212,,Mo-Fr 08:30-17:30; Sa 08:30-13:30; Su 00:00-24:00,MoneyGram,Q1944412
65516377,moneygram,BANCO ECOFUTURO - PLAN 3000,,SANTA CRUZ,,,BO,591333355194,,Mo-Fr 08:30-17:30; Sa 08:30-13:30; Su 00:00-24:00,MoneyGram,Q1944412
65516416,moneygram,BANCO ECOFUTURO - MUTUALISTA,,SANTA CRUZ,,,BO,+591 3 3355194,,Mo-Fr 08:30-17:30; Sa 08:30-13:30; Su 00:00-24:00,MoneyGram,Q1944412
65516429,moneygram,BANCO PYME ECOFUTURO S.A - AG. ABASTO -,,SANTA CRUZ,,,BO,+591 3 3355194,,Mo-Fr 08:30-17:30; Sa 08:30-13:30; Su 00:00-24:00,MoneyGram,Q1944412
65516458,moneygram,BANCO ECOFUTURO - ALTO SAN PEDRO,,SANTA CRUZ,,,BO,+591 3 3355194,,Mo-Fr 08:30-17:30; Sa 08:30-13:30; Su 00:00-24:00,MoneyGram,Q1944412
65601156,moneygram,COOP JESUS DE NAZARENO - SANTA CRUZ,,SANTA CRUZ,,,BO,9232838,,Mo-Fr 08:00-19:00; Sa 08:00-13:00; Su 00:00-24:00,MoneyGram,Q1944412
65773851,moneygram,BANCO ECOFUTURO - CRUCE TAQUINA,,TAQUINA,,,BO,+591 3 3355210,,Mo-Fr 08:30-17:30; Sa 08:30-13:30; Su 00:00-24:00,MoneyGram,Q1944412
65774012,moneygram,BANCO PYME ECOFUTURO - COBIJA,,COBIJA,,,BO,+591 75779456,,Mo-Fr 08:30-17:00; Sa 08:30-13:00; Su 00:00-24:00,MoneyGram,Q1944412
65774067,moneygram,COOP SAN MARTIN COCHABAMBA,,COCHABAMBA,,,BO,+591 4 4583855,,Mo-Fr 08:30-19:00; Sa-Su 08:30-14:30,MoneyGram,Q1944412
43715572,moneygram,BNB - SC AG. SUR,,SANTA CRUZ,,,BO,+591 3 3662790,,Mo-Su 09:00-18:30,MoneyGram,Q1944412
43715611,moneygram,BNB - CB CENTRAL,,COCHABAMBA,,,BO,+591 4 4153999,,Mo-Sa 09:00-18:30; Su 00:00-24:00,MoneyGram,Q1944412
66087313,moneygram,COOP JESUS DE NAZARENO,,MAIRANA,,,BO,9482375,,Mo-Fr 08:00-19:00; Sa 08:00-13:00; Su 00:00-24:00,MoneyGram,Q1944412
66087384,moneygram,COOP JESUS DE NAZARENO,,SANTA CRUZ,,,BO,3488040,,Mo-Fr 08:00-19:00; Sa 08:00-13:00; Su 00:00-24:00,MoneyGram,Q1944412
66140373,moneygram,COOP SAN JOAQUIN,,COCHABAMBA,,,BO,+591 4 4227456,,Mo-Fr 08:00-17:30; Sa 08:00-13:30; Su 00:00-24:00,MoneyGram,Q1944412
65013935,moneygram,BANCO ECOFUTURO - #39 - MONTEAGUDO,,MONTEAGUDO,,,BO,+591 4 6472748,,Mo-Fr 08:30-17:30; Sa 08:30-13:30; Su 00:00-24:00,MoneyGram,Q1944412
65013634,moneygram,BANCO ECOFUTURO - #74 - SANTA CRUZ - MON,,SANTA CRUZ,,,BO,+591 3 9226900,,Mo-Fr 08:00-19:00; Sa 08:00-14:00; Su 00:00-24:00,MoneyGram,Q1944412
