Ref,Spider,Name,Address,City,State,Zipcode,Country,Phone,Website,Hours,Brand,WikiData
https://www.avis.com/en/locations/us/ct/stratford/x8x,avis,Avis U S A Stratford,,Stratford,CT,,US,+1 203-386-8920,https://www.avis.com/en/locations/us/ct/stratford/x8x,Mo-Fr 07:30-18:00; Sa-Su 08:00-16:00,Avis,Q791136
https://locators.bankofamerica.com/ct/stratford/atm-stratford-105074.html,bankofamerica,Bank of America Walk-Up ATM | Shakespeare,,Stratford,CT,,US,+1 844-401-8500,https://locators.bankofamerica.com/ct/stratford/atm-stratford-105074.html,,Bank of America,Q487907
72775,bluerhino,Cumberland Farms #4736,,Stratford,CT,,US,+1 203-375-2287,,,Blue Rhino,Q65681213
52682_50001,bmw_group,"Towne Body Shop, Independent Certified Collision Repair Center of BMW of Bridgeport",,Stratford,CT,,US,+1 203-375-5288,,,BMW,Q26678
ATM-1748,citizens_us,,,Stratford,CT,,US,,,,Citizens,Q5122694
520267,cumberland_farms_us,Cumberland Farms,,STRATFORD,CT,,US,+1 203-375-2287,https://www.cumberlandfarms.com/find-us/generic-store-page/?id=004736,,Cumberland Farms,Q1143685
331992,dunkin_us,Dunkin',,Stratford,CT,,US,+1 203-502-2686,https://locations.dunkindonuts.com/en/ct/stratford/1150-honeyspot-rd/331992,24/7,Dunkin',Q847743
307431,dunkin_us,Dunkin',,Stratford,CT,,US,+1 203-378-5202,https://locations.dunkindonuts.com/en/ct/stratford/60-access-rd/307431,Mo-Su 05:00-21:00,Dunkin',Q847743
520267,eg_america_us,Cumberland Farms,,STRATFORD,CT,,US,+1 203-375-2287,https://www.cumberlandfarms.com/find-us/generic-store-page/?id=004736,,Cumberland Farms,Q1143685
100284,electrify_america,Stratford Square,,Stratford,CT,,US,,,,Electrify America,Q59773555
E124CN,enterprise,Stratford,,Stratford,CT,,US,+1 203-380-6070,,,Enterprise Rent-A-Car,Q17085454
23639,family_dollar_us,FAMILY DOLLAR #3639,,Stratford,CT,,US,+1 475-236-3002,https://www.familydollar.com/locations/ct/stratford/23639/,Mo-Su 08:00-22:00,Family Dollar,Q5433101
1371,gulf_pr_us,HONEYSPOT GULF LLC,,Stratford,CT,,US,+1 203-380-0692,https://www.gulfoil.com/honeyspot-gulf-llc,,Gulf Oil,Q5617505
https://office.jacksonhewitt.com/#27576018,jackson_hewitt,Jackson Hewitt,,Stratford,CT,,US,+1 203-386-0558,https://office.jacksonhewitt.com/tax-preparation-services-locations/en/ct/stratford/2345-barnum-avenue/17541,Mo-Fr 09:00-19:00; Sa 09:00-17:00,Jackson Hewitt,Q6117132
https://locations.mtb.com/#3027787,mt_bank_us,M&T Bank,,,CT,,US,+1 203-375-5704,https://locations.mtb.com/ct/stratford/bank-branches-and-atms-stratford-ct-8180.html,Mo-Th 09:00-16:00; Fr 09:00-17:00; Sa 09:00-12:00,M&T Bank,Q3272257
https://restaurants.subway.com/#14912127,subway,Subway,,Stratford Fairfield,CT,,US,+1 203-378-4020,https://restaurants.subway.com/united-states/ct/stratford/1140-main-st,Mo-Su 08:00-21:00,Subway,Q244457
0847339900,sunoco_us,Sunoco,,STRATFORD,CT,,US,+1 203-261-3123,,Mo-Su 06:00-00:00,Sunoco,Q1423218
022492,uhaul,The Hudson Paper Company,1341 W Broad St,Stratford,CT,,US,+1 203-916-4623,,Mo-Sa 00:00-16:00,U-Haul,Q7862902
0661500034,usps_collection_boxes,USPS COLLECTION BOX - BLUE BOX,355 HOUSATONIC AVE,STRATFORD,CT,,US,,,,United States Postal Service,Q668687
0661500012,usps_collection_boxes,USPS COLLECTION BOX - BLUE BOX,631 STRATFORD RD,STRATFORD,CT,,US,,,,United States Postal Service,Q668687
0661500030,usps_collection_boxes,USPS COLLECTION BOX - BLUE BOX,281 FERRY BLVD,STRATFORD,CT,,US,,,,United States Postal Service,Q668687
0661500023,usps_collection_boxes,USPS COLLECTION BOX - BLUE BOX,1889 MAIN ST,STRATFORD,CT,,US,,,,United States Postal Service,Q668687
0661500009,usps_collection_boxes,USPS COLLECTION BOX - BLUE BOX,241 JEFFERSON ST,STRATFORD,CT,,US,,,,United States Postal Service,Q668687
0661500025,usps_collection_boxes,USPS COLLECTION BOX - BLUE BOX,2220 MAIN ST,STRATFORD,CT,,US,,,,United States Postal Service,Q668687
0661500038,usps_collection_boxes,USPS COLLECTION BOX - BLUE BOX,2505 MAIN ST,STRATFORD,CT,,US,,,,United States Postal Service,Q668687
0661500002,usps_collection_boxes,USPS COLLECTION BOX - BLUE BOX,2725 MAIN ST,STRATFORD,CT,,US,,,,United States Postal Service,Q668687
0661500005,usps_collection_boxes,USPS COLLECTION BOX - BLUE BOX,599 BIRDSEYE ST,STRATFORD,CT,,US,,,,United States Postal Service,Q668687
0661500024,usps_collection_boxes,USPS COLLECTION BOX - BLUE BOX,555 LORDSHIP BLVD,STRATFORD,CT,,US,,,,United States Postal Service,Q668687
0661500026,usps_collection_boxes,USPS COLLECTION BOX - BLUE BOX,2336 BARNUM AVE,STRATFORD,CT,,US,,,,United States Postal Service,Q668687
,visa,,,STRATFORD,CT,,US,,,,,
,visa,,,STRATFORD,CT,,US,,,,,
,visa,,,STATFORD,CT,,US,,,,,
,visa,,,STRATFORD,CT,,US,,,,,
,visa,,,STRATFORD,CT,,US,,,,,
https://locations.wendys.com/#9255870,wendys,"Wendy's Stratford #4 in Stratford, CT",,Stratford,CT,,US,+1 203-386-9330,https://locations.wendys.com/united-states/ct/stratford/1105-main-street,"Mo-Su 06:30-10:30,09:00-23:00",Wendy's,Q550258
