Ref,Spider,Name,Address,City,State,Zipcode,Country,Phone,Website,Hours,Brand,WikiData
https://www.avis.com/en/locations/us/az/sun-city/su7,avis,Avis U S A Sun City,,Sun City,AZ,,US,+1 623-583-6244,https://www.avis.com/en/locations/us/az/sun-city/su7,Mo-Fr 08:00-17:00; Sa-Su 08:00-12:00,Avis,Q791136
https://locators.bankofamerica.com/az/suncity/financial-centers-sun-city-7731.html,bankofamerica,Bank of America Financial Center & Drive-Thru ATM | Bell & Boswell,,Sun City,AZ,,US,+1 623-876-3121,https://locators.bankofamerica.com/az/suncity/financial-centers-sun-city-7731.html,Mo-Fr 10:00-16:00,Bank of America,Q487907
https://www.bannerhealth.com/locations/sun-city/banner-md-anderson-cancer-center-at-banner-boswell-thoracic-surgery-clinic-sun-city,bannerhealth,Banner MD Anderson Cancer Center Thoracic Surgery and Interventional Pulmonology Clinic at Banner Boswell,,Sun City,AZ,,US,+1 623-832-3444,,Mo-Fr 08:00-17:00,Banner Health,Q4856918
https://www.bannerhealth.com/locations/sun-city/banner-boswell-skilled-nursing-rehabilitation-center-santa-fe,bannerhealth,Banner Boswell Skilled Nursing Rehabilitation Center,,Sun City,AZ,,US,+1 623-832-7000,,,Banner Health,Q4856918
https://www.bannerhealth.com/locations/sun-city/banner-boswell-medical-center,bannerhealth,Banner Boswell Medical Center,,Sun City,AZ,,US,+1 623-832-4000,,,Banner Health,Q4856918
https://www.bannerhealth.com/locations/sun-city/banner-md-anderson-cancer-center-at-banner-boswell-medical-oncology-sun-city,bannerhealth,Banner MD Anderson Cancer Center Medical Oncology Clinic,,Sun City,AZ,,US,+1 623-832-0300,,Mo-Fr 08:00-17:00,Banner Health,Q4856918
https://www.bannerhealth.com/locations/sun-city/cleo-roberts-center-santa-fe,bannerhealth,Cleo Roberts Center,,Sun City,AZ,,US,+1 623-832-6530,,Mo-Fr 08:00-17:00,Banner Health,Q4856918
https://www.bannerhealth.com/locations/sun-city/banner-boswell-medical-center-cardiac-and-pulmonary-rehabilitation-thunderbird,bannerhealth,Banner Boswell Medical Center Cardiac and Pulmonary Rehabilitation,,Sun City,AZ,,US,+1 623-832-5390,,Mo-Fr 08:00-17:00,Banner Health,Q4856918
https://www.bannerhealth.com/locations/sun-city/banner-md-anderson-cancer-center-at-banner-boswell-santa-fe-sun-city,bannerhealth,Banner MD Anderson Cancer Center Radiation Oncology Clinic at Banner Boswell,,Sun City,AZ,,US,+1 623-832-3400,,Mo-Fr 08:00-17:00,Banner Health,Q4856918
https://www.bannerhealth.com/locations/sun-city/banner-family-pharmacy-thunderbird,bannerhealth,Banner Family Pharmacy,,Sun City,AZ,,US,+1 623-465-6090,,Mo-Fr 07:00-20:00; Sa-Su 08:00-18:00,Banner Health,Q4856918
https://www.bannerhealth.com/locations/sun-city/banner-olive-branch-senior-center-107th,bannerhealth,Banner Olive Branch Senior Center,,Sun City,AZ,,US,+1 623-465-6000,,Mo-Fr 06:00-15:00,Banner Health,Q4856918
https://www.bannerhealth.com/locations/sun-city/banner-sun-health-research-institute-santa-fe,bannerhealth,Banner Sun Health Research Institute,,Sun City,AZ,,US,+1 623-832-6500,,Mo-Fr 08:00-17:00,Banner Health,Q4856918
https://www.bannerhealth.com/locations/sun-city/banner-cardiovascular-center-west-valley,bannerhealth,Banner Cardiovascular Center - West Valley,,Sun City,AZ,,US,+1 623-248-0327,,Mo-Fr 07:00-17:00,Banner Health,Q4856918
171,bealls_us,Bealls,,Sun City,AZ,,US,+1 623-815-0300,https://stores.bealls.com/az/suncity/clothing-store-171.html,Mo-Th 09:00-21:00; Fr-Sa 09:00-21:30; Su 10:00-20:00,Bealls,Q4876153
128883,bluerhino,Fry's #122,,Sun City,AZ,,US,+1 623-876-8222,,,Blue Rhino,Q65681213
143648,bluerhino,Fry's #122 - Fuel Site,,Sun City,AZ,,US,+1 623-876-8222,,,Blue Rhino,Q65681213
238806,bluerhino,Circle K #2709165,,Sun City,AZ,,US,+1 623-933-1007,,,Blue Rhino,Q65681213
152269,bluerhino,Walgreens #5568,,Sun City,AZ,,US,+1 623-974-3603,,,Blue Rhino,Q65681213
90385,bluerhino,Sun City True Value #17599,,Sun City,AZ,,US,+1 623-815-5200,,,Blue Rhino,Q65681213
https://child-care-preschool.brighthorizons.com/AZ/SunCity/boswell,brighthorizons,Bright Horizons at Banner Boswell,,Sun City,AZ,,US,+1 623-832-5332,https://child-care-preschool.brighthorizons.com/az/suncity/boswell,Mo-Fr 06:00-18:30,Bright Horizons,Q4967421
25542,burgerking,Burger King,,Sun City,AZ,,US,+1 623-298-4655,https://www.bk.com/store-locator/store/restaurant_77426,Mo-Sa 06:00-22:00; Su 07:00-22:00,Burger King,Q177054
2040853,chase_us,Sun City and Lakeview - New branch,,Sun City,AZ,,US,+1 602-589-3639,https://locator.chase.com/az/sun-city/10300-w-thunderbird-blvd,Mo-Fr 09:00-17:00; Sa 09:00-14:00,Chase,Q524629
2040854,chase_us,Sun City Bell - New branch,,Sun City,AZ,,US,+1 602-589-3699,https://locator.chase.com/az/sun-city/10116-w-bell-rd,Mo-Fr 09:00-17:00; Sa 09:00-14:00,Chase,Q524629
44460,citi,ATM Circle K,,Sun City,AZ,,US,,,,Citibank,Q857063
46972,citi,ATM CVS,,Sun City,AZ,,US,,,,Citibank,Q857063
87854,citi,ATM Walgreens,,Sun City,AZ,,US,,,,Citibank,Q857063
53552,citi,ATM CVS,,Sun City,AZ,,US,,,,Citibank,Q857063
93814,citi,ATM WASHINGTON FEDERAL BANK,,Sun City,AZ,,US,,,,Citibank,Q857063
86588,citi,ATM Walgreens,,Sun City,AZ,,US,,,,Citibank,Q857063
80193614,cricket_wireless,Cricket Wireless Authorized Retailer,,Sun City,AZ,,US,+1 623-977-8889,https://www.cricketwireless.com/stores/ll/US/AZ/Sun-City/9827-Grand-Ave,Mo-Sa 10:00-19:00; Su 12:00-18:00,Cricket Wireless,Q5184987
9217,cvs_us,CVS Pharmacy,,Sun City,AZ,,US,+1 623-972-2124,https://www.cvs.com/store-locator/sun-city-az-pharmacies/10720-west-bell-rd-sun-city-az-85351/storeid=9217,Mo-Su 07:00-21:00,CVS Pharmacy,Q2078880
7,cvs_us,CVS Pharmacy,,Sun City,AZ,,US,+1 623-933-7233,https://www.cvs.com/store-locator/sun-city-az-pharmacies/9901b-w-thunderbird-blvd-sun-city-az-85351/storeid=7,Mo-Su 07:00-21:00,CVS Pharmacy,Q2078880
7656,dominos_pizza_us,Domino's Pizza,,Sun City,AZ,,US,+1 623-933-0200,https://pizza.dominos.com/arizona/sun-city/9827-w-grand-ave,Mo-Th 10:00-24:00; Fr-Sa 10:00-01:00; Su 10:00-24:00,Domino's,Q839466
https://www.edwardjones.com/us-en/financial-advisor/todd-polley,edwardjones,Todd Polley,,Sun City,AZ,,US,+1 623-972-7600,https://www.edwardjones.com/us-en/financial-advisor/todd-polley,Mo-Fr 08:00-17:00,Edward Jones,Q5343830
6249,fresenius_kidney_care_us,Fresenius Kidney Care Sun City,,Sun City,AZ,,US,+1 800-881-5101,https://www.freseniuskidneycare.com/dialysis-centers/arizona/6249,Mo 05:00-16:00; Tu 05:00-15:30; We 05:00-16:00; Th 05:00-15:30; Fr 05:00-16:00; Sa 05:00-15:30,,
https://salons.greatclips.com/us/az/sun-city/10748-w-bell-rd,greatclips,Great Clips,,Sun City,AZ,,US,+1 623-977-1996,https://salons.greatclips.com/us/az/sun-city/10748-w-bell-rd,Mo-Fr 08:00-18:00; Sa 09:00-18:00; Su 10:00-16:00,Great Clips,Q5598967
https://salons.greatclips.com/us/az/sun-city/10659-w-grand-ave,greatclips,Great Clips,,Sun City,AZ,,US,+1 623-972-1038,https://salons.greatclips.com/us/az/sun-city/10659-w-grand-ave,Mo-Fr 08:00-18:00; Sa 09:00-18:00; Su 10:00-16:00,Great Clips,Q5598967
2282,h_r_block,H&R Block,,Sun City,AZ,,US,+1 623-933-4915,https://www.hrblock.com/local-tax-offices/arizona/sun-city/10050-w-bell-rd/2282/,,H&R Block,Q5627799
2140,h_r_block,H&R Block,,Sun City,AZ,,US,+1 623-933-6912,https://www.hrblock.com/local-tax-offices/arizona/sun-city/10753-grand-ave/2140/,,H&R Block,Q5627799
https://locations.jackinthebox.com/us/az/sun-city/9906-w-thunderbird-blvd,jackinthebox,Jack in the Box,,Sun City,AZ,,US,+1 623-974-3120,https://locations.jackinthebox.com/us/az/sun-city/9906-w-thunderbird-blvd,Mo-Su 05:00-02:00,Jack in the Box,Q1538507
https://locations.kfc.com/#11250350,kfc,Chicken Nuggets Near Sun City,,Sun City,AZ,,US,,https://locations.kfc.com/az/sun-city/10661-grand-avenue/chickennugget,Mo-Th 09:30-22:00; Fr-Sa 09:30-22:30; Su 09:30-22:00,KFC,Q524757
93154,little_free_library,Oakmont Palms #93154 Sun City AZ,,Sun City,AZ,,US,,,,Little Free Library,Q6650101
10999,little_free_library,Amy Schultz #10999 Sun City AZ,,Sun City,AZ,,US,,,,Little Free Library,Q6650101
90269,little_free_library,The Pleasant Valley Little Free Library #90269 Sun City AZ,,Sun City,AZ,,US,,,,Little Free Library,Q6650101
36656,little_free_library,Kim Summers #36656 Sun City AZ,,Sun City,AZ,,US,,,,Little Free Library,Q6650101
286024,marathon_petroleum_us,ARCO #22659,,Sun City,AZ,,US,+1 909-529-3623,,,Arco,Q304769
286405,marathon_petroleum_us,ARCO #42524 AMPM,,Sun City,AZ,,US,+1 623-933-1362,,,Arco,Q304769
https://locations.papamurphys.com/#15430789,papamurphys,Pizza Takeout & Delivery,,Sun City,AZ,,US,+1 623-972-3230,https://locations.papamurphys.com/az/sun-city/10659-grand-ave-a12,Mo-Su 10:00-20:00,Papa Murphy's,Q7132349
az_sun-city_10050-w-bell-rd,pizza_hut_us,10050 W Bell Rd.,,Sun City,AZ,,US,+1 623-875-8776,https://locations.pizzahut.com/az/sun-city/10050-w-bell-rd,,Pizza Hut,Q191615
restaurant_86563,popeyes_us_fr,Popeyes,"10717 West Grand Ave Sun City, Arizona 85351 - USA",Sun City,AZ,,US,+1 480-377-4953,https://www.popeyes.com/store-locator/store/restaurant_86563,Mo-Su 10:00-00:00,Popeyes,Q1330910
https://local.pharmacy.safeway.com/#5673477,safeway,Safeway Pharmacy,,Sun City,AZ,,US,+1 623-977-0160,https://local.pharmacy.safeway.com/safeway/az/sun-city/10926-w-bell-rd.html,,Safeway,Q1508234
https://local.safeway.com/#5604374,safeway,Safeway,,Sun City,AZ,,US,+1 623-972-1350,https://local.safeway.com/safeway/az/sun-city/10926-w-bell-rd.html,,Safeway,Q1508234
https://restaurants.subway.com/#14904228,subway,Subway Kings Inn Center,,Sun City Maricopa,AZ,,US,+1 623-933-2878,https://restaurants.subway.com/united-states/az/sun-city/10659-nw-grand-ave,Mo-Su 07:00-21:00,Subway,Q244457
https://locations.tacobell.com/#6147184,taco_bell,Taco Bell,,Sun City,AZ,,US,+1 623-583-5436,https://locations.tacobell.com/az/sun-city/10661-grand-avenue.html,Mo-Th 09:30-22:00; Fr-Sa 09:30-23:00; Su 09:30-22:00,Taco Bell,Q752941
https://locations.tccrocks.com/az/sun-city/10001-w--bell-rd-.html,tcc_us,TCC Sun City,,Sun City,AZ,,US,+1 480-769-7700,https://locations.tccrocks.com/az/sun-city/10001-w--bell-rd-.html,Mo-Sa 09:00-18:00; Su 12:00-17:00,Verizon,Q919641
020657,uhaul,Rams Market,10050 W Bell Rd Ste 10 & 11,Sun City,AZ,,US,+1 623-825-7258,,Mo-Th 00:00-21:00; Fr-Sa 00:00-22:00; Su 00:00-20:00,U-Haul,Q7862902
007650,uhaul,Arizona Veteran Security LLC,12621 n 103 RD Ave,Sun City,AZ,,US,+1 623-738-1105,,Mo-Fr 00:00-17:00,U-Haul,Q7862902
030326,uhaul,Sun City True Value,15400 N 99th Ave,Sun City,AZ,,US,+1 623-561-9365,,Mo-Sa 00:00-17:00; Su 00:00-16:00,U-Haul,Q7862902
5360,upsstore,Sun City,9915 W Bell Rd,Sun City,AZ,,US,+1 623-889-0308,https://locations.theupsstore.com/az/sun-city/9915-w-bell-rd,,UPS Store,Q7771029
1383959,usps,SUN CITY,,SUN CITY,AZ,,US,+1 623-933-9887,,Mo-Fr 09:00-17:00; Sa 09:00-13:00,United States Postal Service,Q668687
8535100038,usps_collection_boxes,USPS COLLECTION BOX - BLUE BOX,9400 W HUTTON DR,SUN CITY,AZ,,US,,,,United States Postal Service,Q668687
8535100006,usps_collection_boxes,USPS COLLECTION BOX - BLUE BOX,9802 W BELL RD,SUN CITY,AZ,,US,,,,United States Postal Service,Q668687
8535100004,usps_collection_boxes,USPS COLLECTION BOX - BLUE BOX,9802 W BELL RD,SUN CITY,AZ,,US,,,,United States Postal Service,Q668687
8535100053,usps_collection_boxes,USPS COLLECTION BOX - PO LOBBY,9802 W BELL RD,SUN CITY,AZ,,US,,,,United States Postal Service,Q668687
8535100048,usps_collection_boxes,USPS COLLECTION BOX - APC,9802 W BELL RD,SUN CITY,AZ,,US,,,,United States Postal Service,Q668687
8535100047,usps_collection_boxes,USPS COLLECTION BOX - PO LOBBY,9802 W BELL RD,SUN CITY,AZ,,US,,,,United States Postal Service,Q668687
8535100043,usps_collection_boxes,USPS COLLECTION BOX - BLUE BOX,9802 W BELL RD,SUN CITY,AZ,,US,,,,United States Postal Service,Q668687
8535100037,usps_collection_boxes,USPS COLLECTION BOX - BLUE BOX,9350 W GREENWAY RD,SUN CITY,AZ,,US,,,,United States Postal Service,Q668687
8535100042,usps_collection_boxes,USPS COLLECTION BOX - BLUE BOX,10050 W BELL RD,SUN CITY,AZ,,US,,,,United States Postal Service,Q668687
8535100040,usps_collection_boxes,USPS COLLECTION BOX - BLUE BOX,9949 W BELL RD,SUN CITY,AZ,,US,,,,United States Postal Service,Q668687
8535100044,usps_collection_boxes,USPS COLLECTION BOX - BLUE BOX,10240 W BELL RD,SUN CITY,AZ,,US,,,,United States Postal Service,Q668687
8535100054,usps_collection_boxes,USPS COLLECTION BOX - PO LOBBY,15470 N 99TH AVE,SUN CITY,AZ,,US,,,,United States Postal Service,Q668687
8535100035,usps_collection_boxes,USPS COLLECTION BOX - BLUE BOX,15470 N 99TH AVE,SUN CITY,AZ,,US,,,,United States Postal Service,Q668687
8535100036,usps_collection_boxes,USPS COLLECTION BOX - BLUE BOX,15470 N 99TH AVE,SUN CITY,AZ,,US,,,,United States Postal Service,Q668687
8535100009,usps_collection_boxes,USPS COLLECTION BOX - BLUE BOX,15675 N BOSWELL BLVD,SUN CITY,AZ,,US,,,,United States Postal Service,Q668687
8535100039,usps_collection_boxes,USPS COLLECTION BOX - BLUE BOX,10730 W BELL RD,SUN CITY,AZ,,US,,,,United States Postal Service,Q668687
8535100002,usps_collection_boxes,USPS COLLECTION BOX - BLUE BOX,13632 N 99TH AVE,SUN CITY,AZ,,US,,,,United States Postal Service,Q668687
8535100011,usps_collection_boxes,USPS COLLECTION BOX - BLUE BOX,13632 N 99TH AVE,SUN CITY,AZ,,US,,,,United States Postal Service,Q668687
8535100032,usps_collection_boxes,USPS COLLECTION BOX - BLUE BOX,10233 W PEORIA AVE,SUN CITY,AZ,,US,,,,United States Postal Service,Q668687
8535100012,usps_collection_boxes,USPS COLLECTION BOX - BLUE BOX,13203 N 103RD AVE,SUN CITY,AZ,,US,,,,United States Postal Service,Q668687
8535100010,usps_collection_boxes,USPS COLLECTION BOX - BLUE BOX,10551 W PRAIRIE HILLS CIR,SUN CITY,AZ,,US,,,,United States Postal Service,Q668687
8535100003,usps_collection_boxes,USPS COLLECTION BOX - BLUE BOX,9802 W BELL RD,SUN CITY,AZ,,US,,,,United States Postal Service,Q668687
8535100028,usps_collection_boxes,USPS COLLECTION BOX - BLUE BOX,10615 W PEORIA AVE,SUN CITY,AZ,,US,,,,United States Postal Service,Q668687
8535100019,usps_collection_boxes,USPS COLLECTION BOX - BLUE BOX,10619 W SANTA FE DR,SUN CITY,AZ,,US,,,,United States Postal Service,Q668687
8535100023,usps_collection_boxes,USPS COLLECTION BOX - BLUE BOX,10660 GRAND AVE,SUN CITY,AZ,,US,,,,United States Postal Service,Q668687
8535100027,usps_collection_boxes,USPS COLLECTION BOX - BLUE BOX,10743 W PEORIA AVE,SUN CITY,AZ,,US,,,,United States Postal Service,Q668687
8535100025,usps_collection_boxes,USPS COLLECTION BOX - BLUE BOX,10763 GRAND AVE,SUN CITY,AZ,,US,,,,United States Postal Service,Q668687
8535100024,usps_collection_boxes,USPS COLLECTION BOX - BLUE BOX,10763 GRAND AVE,SUN CITY,AZ,,US,,,,United States Postal Service,Q668687
8535100021,usps_collection_boxes,USPS COLLECTION BOX - BLUE BOX,14625 N DEL WEBB BLVD,SUN CITY,AZ,,US,,,,United States Postal Service,Q668687
8535100001,usps_collection_boxes,USPS COLLECTION BOX - BLUE BOX,10903 W CAMEO DR,SUN CITY,AZ,,US,,,,United States Postal Service,Q668687
8535100022,usps_collection_boxes,USPS COLLECTION BOX - BLUE BOX,14802 N DEL WEBB BLVD,SUN CITY,AZ,,US,,,,United States Postal Service,Q668687
A00000251839,verizon_us,TCC Sun City,,SUN CITY,AZ,,US,+1 623-583-2240,https://www.verizon.com/stores/details/arizona/sun-city/tcc-sun-city-1579722/,Mo-Sa 09:00-18:00; Su 12:00-17:00,Verizon,Q919641
,visa,,,SUN CITY,AZ,,US,,,,,
,visa,,,SUN CITY,AZ,,US,,,,,
,visa,,,SUN CITY,AZ,,US,,,,,
,visa,,,SUN CITY,AZ,,US,,,,,
,visa,,,SUN CITY,AZ,,US,,,,,
,visa,,,SUN CITY,AZ,,US,,,,,
,visa,,,SUN CITY,AZ,,US,,,,,
,visa,,,SUN CITY,AZ,,US,,,,,
,visa,,,SUN CITY,AZ,,US,,,,,
,visa,,,SUN CITY,AZ,,US,,,,,
,visa,,,SUN CITY,AZ,,US,,,,,
,visa,,,SUN CITY,AZ,,US,,,,,
,visa,,,SUN CITY,AZ,,US,,,,,
,visa,,,SUN CITY,AZ,,US,,,,,
,visa,,,SUN CITY,AZ,,US,,,,,
,visa,,,SUN CITY,AZ,,US,,,,,
,visa,,,SUN CITY,AZ,,US,,,,,
,visa,,,SUN CITY,AZ,,US,,,,,
,visa,,,SUN CITY,AZ,,US,,,,,
,visa,,,SUN CITY,AZ,,US,,,,,
,visa,,,PHOENIX,AZ,,US,,,,,
,visa,,,PEORIA,AZ,,US,,,,,
,visa,,,SUN CITY,AZ,,US,,,,,
,visa,,,SUN CITY,AZ,,US,,,,,
,visa,,,SUN CITY,AZ,,US,,,,,
,visa,,,SUN CITY,AZ,,US,,,,,
,visa,,,SUN CITY,AZ,,US,,,,,
,visa,,,SUN CITY,AZ,,US,,,,,
,visa,,,SUN CITY,AZ,,US,,,,,
,visa,,,SUN CITY,AZ,,US,,,,,
,visa,,,SUN CITY,AZ,,US,,,,,
,visa,,,SUN CITY,AZ,,US,,,,,
,visa,,,SUN CITY,AZ,,US,,,,,
,visa,,,SUN CITY,AZ,,US,,,,,
,visa,,,SUN CITY,AZ,,US,,,,,
,visa,,,SUN CITY,AZ,,US,,,,,
,visa,,,EL MIRAGE,AZ,,US,,,,,
https://www.walgreens.com/locator/walgreens-15442+n+99th+ave-sun+city-az-85351/id=813,walgreens,Walgreens,,Sun City,AZ,,US,+1 623-974-2526,https://www.walgreens.com/locator/walgreens-15442+n+99th+ave-sun+city-az-85351/id=813,Mo-Su 07:00-23:00,Walgreens,Q1591889
https://www.walgreens.com/locator/walgreens-10707+w+peoria+ave-sun+city-az-85351/id=5568,walgreens,Walgreens,,Sun City,AZ,,US,+1 623-974-3603,https://www.walgreens.com/locator/walgreens-10707+w+peoria+ave-sun+city-az-85351/id=5568,Mo-Su 07:00-23:00,Walgreens,Q1591889
9928__W__BELL__RD_SUN__CITY_AZ_85351,wellsfargo,Wells Fargo,9928 W BELL RD,SUN CITY,AZ,,US,+1 623-876-5946,https://www.wellsfargo.com/locator/bank/9928__W__BELL__RD_SUN__CITY_AZ_85351/,Mo-Fr 09:00-17:00,Wells Fargo,Q744149
9901__W__THUNDERBIRD__BLVD_SUN__CITY_AZ_85351,wellsfargo,Wells Fargo,9901 W THUNDERBIRD BLVD,SUN CITY,AZ,,US,+1 623-875-0720,https://www.wellsfargo.com/locator/bank/9901__W__THUNDERBIRD__BLVD_SUN__CITY_AZ_85351/,Mo-Fr 09:00-17:00,Wells Fargo,Q744149
10733__W__PEORIA__AVE_SUN__CITY_AZ_85351,wellsfargo,,10733 W PEORIA AVE,SUN CITY,AZ,,US,+1 800-869-3557,https://www.wellsfargo.com/locator/bank/10733__W__PEORIA__AVE_SUN__CITY_AZ_85351/,,Wells Fargo,Q744149
10660__GRAND__AVE_SUN__CITY_AZ_85351,wellsfargo,,10660 GRAND AVE,SUN CITY,AZ,,US,+1 800-869-3557,https://www.wellsfargo.com/locator/bank/10660__GRAND__AVE_SUN__CITY_AZ_85351/,,Wells Fargo,Q744149
