Ref,Spider,Name,Address,City,State,Zipcode,Country,Phone,Website,Hours,Brand,WikiData
28179,citi,ATM 7ELEVEN-FCTI,,Wayland,NY,,US,,,,Citibank,Q857063
46610,citi,ATM CVS,,Wayland,NY,,US,,,,Citibank,Q857063
5074,cvs_us,CVS Pharmacy,,Wayland,NY,,US,+1 585-728-2350,https://www.cvs.com/store-locator/wayland-ny-pharmacies/100-e-naples-st-wayland-ny-14572/storeid=5074,Mo-Sa 08:00-21:00; Su 09:00-19:00,CVS Pharmacy,Q2078880
200321320,exxonmobil,WAYLAND EXPRESS INC.,,WAYLAND,NY,,US,+1 716-374-4467,https://www.exxon.com/en/find-station/exxon-wayland-ny-waylandexpressinc-200321320,Mo-Fr 06:00-22:00; Sa-Su 07:00-22:00,Exxon,Q109675651
200317931,exxonmobil,7-ELEVEN 35084,,WAYLAND,NY,,US,+1 585-728-2322,https://www.exxon.com/en/find-station/mobil-wayland-ny-7eleven35084-200317931,24/7,Mobil,Q109676002
3711,mightyflame,PIPEDREAM DEVELOPMENT CORP.,,WAYLAND,NY,,US,+1 585-728-2360,,,Mighty Flame,
067563,penske,A Masters Touch,,WAYLAND,NY,,US,+1 585-204-3577,https://www.pensketruckrental.com/locations/us/new_york/wayland/067563/,,Penske,Q81234570
35084,seven_eleven_ca_us,Bcp Str    26 E Naples St,,Wayland,NY,,US,+1 585-728-2322,https://www.7-eleven.com/locations/ny/wayland/26-e-naples-st-35084,,7-Eleven,Q259340
0387889900,sunoco_us,Sunoco,,WAYLAND,NY,,US,+1 585-728-2821,,Mo-Su 08:00-22:00,Sunoco,Q1423218
1386718,usps,WAYLAND,,WAYLAND,NY,,US,+1 585-728-2145,,Mo-Fr 09:00-17:00; Sa 09:00-12:00,United States Postal Service,Q668687
1457200008,usps_collection_boxes,USPS COLLECTION BOX - PO LOBBY,23 E NAPLES ST,WAYLAND,NY,,US,,,,United States Postal Service,Q668687
1457200001,usps_collection_boxes,USPS COLLECTION BOX - BLUE BOX,23 E NAPLES ST,WAYLAND,NY,,US,,,,United States Postal Service,Q668687
1457200005,usps_collection_boxes,USPS COLLECTION BOX - PO LOBBY,23 E NAPLES ST,WAYLAND,NY,,US,,,,United States Postal Service,Q668687
1457200002,usps_collection_boxes,USPS COLLECTION BOX - BLUE BOX,31 N MAIN ST,WAYLAND,NY,,US,,,,United States Postal Service,Q668687
,visa,,,NAPLES,NY,,US,,,,,
,visa,,,NAPLES,NY,,US,,,,,
,visa,,,WAYLAND,NY,,US,,,,,
,visa,,,WAYLAND,NY,,US,,,,,
,visa,,,WAYLAND,NY,,US,,,,,
,visa,,,WAYLAND,NY,,US,,,,,
,visa,,,WAYLAND,NY,,US,,,,,
,visa,,,WAYLAND,NY,,US,,,,,
,visa,,,WAYLAND,NY,,US,,,,,
,visa,,,WAYLAND,NY,,US,,,,,
,visa,,,WAYLAND,NY,,US,,,,,
98084a2d62cc85a2b3cc7c74539c71b2,western_union,WAYLAND EXPRESS I,,Wayland,NY,,US,+1 585-213-4189,https://location.westernunion.com/us/ny/wayland/98084a2d62cc85a2b3cc7c74539c71b2,Mo-Su 05:30-22:00,Western Union,Q861042
