Ref,Spider,Name,Address,City,State,Zipcode,Country,Phone,Website,Hours,Brand,WikiData
DOM-6,aldi_sud_ch,ALDI,"Talgut-Zentrum 19, Ittigen, 3063",Ittigen,,,CH,+41 31 922 49 25,,Mo-Th 08:00-19:00; Fr 08:00-20:00; Sa 08:00-17:00,ALDI,Q41171672
d1daa0ba34f773afec4ab0db6363176e3e9bd282,bern_ch,Ski+Velo-Center,,Ittigen,,,CH,,https://www.ski-velo-center.ch/de/ittigen,,,
b06e05ed1f2d7604de736d150e1f0b58e9e567fb,bern_ch,,,Ittigen,,,CH,,,,,
0fbe687f5a110cbade3143c26a963d45b35224d1,bern_ch,,,Ittigen,,,CH,,,,,
b691b624c7e7740858cbaf20643acc85f786d9cf,bern_ch,,,Ittigen,,,CH,,,,,
d49106bf0a3e4d218660bd8440f89e15be1761e2,bern_ch,,,Ittigen,,,CH,,,,,
b0bdd2acfd848d78789988c7f313936989af9f80,bern_ch,,,Ittigen,,,CH,,,,,
einkaufszentrum-talweg-3063-ittigen,denner_ch,Denner,,Ittigen,,,CH,+41 58 999 03 55,https://www.denner.ch/de/filialen/denner-filiale-und-oeffnungszeiten/store/einkaufszentrum-talweg-3063-ittigen/,Mo-Th 08:00-19:00; Fr 08:00-20:00; Sa 08:00-17:00,Denner,Q379911
FordSU52066  CHE,ford,GARAGE GERBSCH GMBH,,ITTIGEN,,,CH,+41 31 921 36 46,www.ford-gerbsch.com,,Ford,Q44294
publibike:3fee040a-a65b-4e90-8f4e-48b2504607c7,gbfs,GVB,,,,,CH,,https://www.publibike.ch,,PubliBike,
publibike:e19f8c45-1f7a-4018-aa92-cb5970ccb1ad,gbfs,Bundesamt für Energie,,,,,CH,,https://www.publibike.ch,,PubliBike,
publibike:ab26130c-dab2-42c7-8fc8-e98670eb87e5,gbfs,UPD Neuhaus,,,,,CH,,https://www.publibike.ch,,PubliBike,
publibike:654bf766-f0f8-4b82-a8f2-7705ccc6bfa0,gbfs,Papiermühle Bahnhof,,,,,CH,,https://www.publibike.ch,,PubliBike,
publibike:d6bdd65c-2861-40d5-a18b-b4af34701a7e,gbfs,Ittigen Bahnhof,,,,,CH,,https://www.publibike.ch,,PubliBike,
4797238_mno,migros_ch,Migrolino,,Ittigen,,,CH,+41 61 512 17 49,https://filialen.migros.ch/de/migrolino-ittigen-grauholz,24/7,Migrolino,Q56745088
0034510_1228_pickmup_smvmpmubox,migros_ch,PickMup Box,,Ittigen,,,CH,+41 58 567 82 00,https://filialen.migros.ch/de/box-m-ittigen-ittigen,Mo-Th 08:00-19:00; Fr 08:00-20:00; Sa 08:00-17:00,PickMup Box,Q115679275
0034510_super,migros_ch,Migros,,Ittigen,,,CH,+41 58 567 82 00,https://filialen.migros.ch/de/migros-supermarkt-ittigen,Mo-Th 08:00-19:00; Fr 08:00-20:00; Sa 08:00-17:00,Migros,Q115661152
0034510_flori,migros_ch,Florissimo,,Ittigen,,,CH,+41 58 567 82 00,https://filialen.migros.ch/de/florissimo-ittigen,Mo-Th 08:00-19:00; Fr 08:00-20:00; Sa 08:00-17:00,Florissimo,Q115659418
2836,valora,Avec,,Ittigen,,,CH,,,,Avec,Q103863974
2835,valora,Avec,,Ittigen-Grauholz,,,CH,,,,Avec,Q103863974
756,valora,k kiosk,,Ittigen,,,CH,,,,k kiosk,Q60381703
