Ref,Spider,Name,Address,City,State,Zipcode,Country,Phone,Website,Hours,Brand,WikiData
4708,autozone_us,AutoZone Auto Parts Washingtonville,,Washingtonville,NY,,US,+1 845-496-8880,https://www.autozone.com/locations/ny/washingtonville/24-w-main-st.html,Mo-Sa 07:30-21:00; Su 08:30-19:00,AutoZone,Q4826087
https://locators.bankofamerica.com/ny/washingtonville/financial-centers-washingtonville-13674.html,bankofamerica,Bank of America Financial Center & Drive-Thru ATM | Washingtonville,,Washingtonville,NY,,US,+1 845-496-9139,https://locators.bankofamerica.com/ny/washingtonville/financial-centers-washingtonville-13674.html,Mo-Fr 10:00-16:00,Bank of America,Q487907
64647,bluerhino,Stop & Shop #524,,Washingtonville,NY,,US,+1 845-496-8656,,,Blue Rhino,Q65681213
20989_50001,bmw_group,"Woodcock Auto Body, Independent Certified Collision Repair Center of Orange County BMW",,Washingtonville,NY,,US,+1 845-496-7598,,,BMW,Q26678
11575060,chase_us,Washingtonville - New branch,,Washingtonville,NY,,US,+1 845-496-3636,https://locator.chase.com/ny/washingtonville/74-e-main-st,Mo-Fr 09:00-17:00; Sa 09:00-14:00,Chase,Q524629
80973,citi,ATM Sunoco,,Washingtonville,NY,,US,,,,Citibank,Q857063
49965,citi,ATM CVS,,Washingtonville,NY,,US,,,,Citibank,Q857063
ATM-2292,citizens_us,,,Washingtonville,NY,,US,,,,Citizens,Q5122694
5050,cvs_us,CVS Pharmacy,,Washingtonville,NY,,US,+1 845-496-8012,https://www.cvs.com/store-locator/washingtonville-ny-pharmacies/30-brotherhood-plaza-dr-washingtonville-ny-10992/storeid=5050,Mo-Su 08:00-22:00,CVS Pharmacy,Q2078880
341835,dunkin_us,Dunkin',,Washingtonville,NY,,US,+1 845-496-4485,https://locations.dunkindonuts.com/en/ny/washingtonville/30-w-main-st/341835,Mo-Su 05:00-19:00,Dunkin',Q847743
322,stewartsshops,Stewart's Shops,,Washingtonville,NY,,US,+1 845-496-4008,https://locations.stewartsshops.com/ll/US/NY/Washingtonville/26-East-Main-Street,Mo-Su 04:30-00:00,Stewart's,Q7615690
0524,stop_and_shop,Super Stop & Shop,60 Brotherhood Plaza Drive,Washingtonville,NY,,US,,,,Stop and Shop,Q3658429
https://restaurants.subway.com/#14902291,subway,Subway,,Washingtonville Orange,NY,,US,+1 845-496-6260,https://restaurants.subway.com/united-states/ny/washingtonville/30-west-main-st,Mo-Su 08:30-20:00,Subway,Q244457
0363218903,sunoco_us,Sunoco,,WASHINGTONVILLE,NY,,US,+1 845-496-4867,,24/7,Sunoco,Q1423218
785D,tmobile_us,Brotherhood Plaza,,Washingtonville,NY,,US,+1 845-614-5163,https://www.t-mobile.com/store-locator/ny/washingtonville/brotherhood-plaza,,T-Mobile,Q3511885
1386550,usps,WASHINGTONVILLE,,WASHINGTONVILLE,NY,,US,+1 845-496-1129,,Mo-Fr 08:30-17:00; Sa 09:00-12:00,United States Postal Service,Q668687
1099200002,usps_collection_boxes,USPS COLLECTION BOX - BLUE BOX,52 W MAIN ST,WASHINGTONVILLE,NY,,US,,,,United States Postal Service,Q668687
1099200009,usps_collection_boxes,USPS COLLECTION BOX - PO LOBBY,22 BROTHERHOOD PLAZA DR,WASHINGTONVILLE,NY,,US,,,,United States Postal Service,Q668687
1099200006,usps_collection_boxes,USPS COLLECTION BOX - BLUE BOX,22 BROTHERHOOD PLAZA DR,WASHINGTONVILLE,NY,,US,,,,United States Postal Service,Q668687
1099200007,usps_collection_boxes,USPS COLLECTION BOX - PO LOBBY,22 BROTHERHOOD PLAZA DR LBBY DROP,WASHINGTONVILLE,NY,,US,,,,United States Postal Service,Q668687
,visa,,,WASHINGTONVILLE,NY,,US,,,,,
,visa,,,WASHINGTONVILLE,NY,,US,,,,,
,visa,,,WASHINGTONVILLE,NY,,US,,,,,
,visa,,,WASHINGTONVILLE,NY,,US,,,,,
,visa,,,WASHINGTONVILLE,NY,,US,,,,,
,visa,,,WASHINGTONVILLE,NY,,US,,,,,
,visa,,,WASHINGTONVILE,NY,,US,,,,,
,visa,,,WASHINGTONVILLE,NY,,US,,,,,
,visa,,,WASHINGTONVIL,NY,,US,,,,,
,visa,,,WASHINGTONVILLE,NY,,US,,,,,
,visa,,,WASHINGTONVILLE,NY,,US,,,,,
,visa,,,WASHINGTONVILLE,NY,,US,,,,,
,visa,,,WASHINGTONVILLE,NY,,US,,,,,
,visa,,,WASHINGTONVILLE,NY,,US,,,,,
,visa,,,WASHINGTONVILLE,NY,,US,,,,,
,visa,,,WASHINGTONVILLE,NY,,US,,,,,
,visa,,,WASHINGTONVIL,NY,,US,,,,,
,visa,,,WASHINGTONVILLE,NY,,US,,,,,
,visa,,,WASHINGTONVILLE,NY,,US,,,,,
,visa,,,WASHINGTONVIL,NY,,US,,,,,
,visa,,,BLOOMING GROVE,NY,,US,,,,,
