Ref,Spider,Name,Address,City,State,Zipcode,Country,Phone,Website,Hours,Brand,WikiData
BPM990,bp,BP,,Cd. Obregón,Sonora,,MX,+52 644 414 6472,,24/7,BP,Q152057
20624,citi,SC CD OBREGON,,Obregon,SONORA,,MX,+52 800 110 3990,,,Citibank,Q857063
18211,citi,CD OBREGON 2,,Cajeme,SONORA,,MX,+52 800 110 3990,,,Citibank,Q857063
20616,citi,SUP NTE CD OBREGON,,Obregon,SONORA,,MX,+52 800 110 3990,,,Citibank,Q857063
18134,citi,SAB PACIF OBREGON,,Cajeme,SONORA,,MX,+52 800 110 3990,,,Citibank,Q857063
20623,citi,SC CARR INT OBREGON,,Obregon,SONORA,,MX,+52 800 110 3990,,,Citibank,Q857063
1398,first_cash,First Cash Pawn,,Ciudad Obregón,Sonora,,MX,+52 644 414 4467,,,First Cash Pawn,
363,nissan_europe,CD OBREGÓN,,Cd. Obregón,SONORA,,MX,+52 644 410 0000,https://www.nissanobregon.com.mx,,Nissan,Q20165
7524,vertiche_mx,CIUDAD OBREGÓN,Calle 5 de Febrero 257,Cd. Obregón,Sonora,,MX,,,,Vertiche,Q113215945
,visa,,,CAJEME,SONORA,,MX,,,,,
,visa,,,CD. OBREGON,SONORA,,MX,,,,,
,visa,,,OBREGON,SONORA,,MX,,,,,
,visa,,,CIUDAD OBREGON,SONORA,,MX,,,,,
,visa,,,OBREGON,SONORA,,MX,,,,,
,visa,,,CD. OBREGÓN,SONORA,,MX,,,,,
,visa,,,CAJEME,SONORA,,MX,,,,,
,visa,,,CIUDAD OBREGON,SONORA,,MX,,,,,
,visa,,,OBREGON,SONORA,,MX,,,,,
,visa,,,CAJEME,SONORA,,MX,,,,,
,visa,,,CD. OBREGON,SONORA,,MX,,,,,
,visa,,,CAJEME,SONORA,,MX,,,,,
,visa,,,CAJEME,SONORA,,MX,,,,,
,visa,,,CAJEME,SONORA,,MX,,,,,
,visa,,,CAJEME,SONORA,,MX,,,,,
,visa,,,OBREGON,SONORA,,MX,,,,,
,visa,,,CIUDAD OBREGON,SONORA,,MX,,,,,
,visa,,,CIUDAD OBREGÓN,SONORA,,MX,,,,,
,visa,,,CD. OBREGÓN,SONORA,,MX,,,,,
,visa,,,CAJEME,SONORA,,MX,,,,,
,visa,,,CIUDAD OBREGON,SONORA,,MX,,,,,
,visa,,,CIUDAD OBREGON,SONORA,,MX,,,,,
,visa,,,OBREGON,SONORA,,MX,,,,,
,visa,,,CIUDAD OBREGON,SONORA,,MX,,,,,
,visa,,,CAJEME,SONORA,,MX,,,,,
,visa,,,CIUDAD OBREGON,SONORA,,MX,,,,,
,visa,,,CD. OBREGÓN,SONORA,,MX,,,,,
,visa,,,CAJEME,SONORA,,MX,,,,,
,visa,,,CAJEME,SONORA,,MX,,,,,
,visa,,,CIUDAD OBREGON,SONORA,,MX,,,,,
,visa,,,CAJEME,SONORA,,MX,,,,,
,visa,,,CIUDAD OBREGON,SONORA,,MX,,,,,
,visa,,,CD. OBREGON,SONORA,,MX,,,,,
,visa,,,CIUDAD OBREGON,SONORA,,MX,,,,,
,visa,,,CAJEME,SONORA,,MX,,,,,
,visa,,,CD. OBREGON,SONORA,,MX,,,,,
,visa,,,CD. OBREGON,SONORA,,MX,,,,,
,visa,,,CD. OBREGON,SONORA,,MX,,,,,
,visa,,,CAJEME,SONORA,,MX,,,,,
3b6e14d67b2fc5c48c584b241fc936a4,western_union,AURRERA PUEBLO YAQUI,,Ciudad Obregon,SONORA,,MX,+52 800 833 4700,https://location.westernunion.com/mx/sonora/ciudad-obregon/3b6e14d67b2fc5c48c584b241fc936a4,Mo-Su 08:00-22:00,Western Union,Q861042
727fe21b56102d4f233ddc2eef5e13e3,western_union,AURRERA PUEBLO YAQUI,,Ciudad Obregon,SONORA,,MX,+52 800 833 4700,https://location.westernunion.com/mx/sonora/ciudad-obregon/727fe21b56102d4f233ddc2eef5e13e3,Mo-Su 08:00-22:00,Western Union,Q861042
951396f79a37dfd38ad72c67c1e266aa,western_union,AURRERA PUEBLO YAQUI,,Ciudad Obregon,SONORA,,MX,+52 800 833 4700,https://location.westernunion.com/mx/sonora/ciudad-obregon/951396f79a37dfd38ad72c67c1e266aa,Mo-Su 08:00-22:00,Western Union,Q861042
629c632dc0dd2bba5e6f7b367f812c6f,western_union,OXXO MISION DEL SOL CEN,,Ciudad Obregon,SONORA,,MX,+52 81 8389 2121,https://location.westernunion.com/mx/sonora/ciudad-obregon/629c632dc0dd2bba5e6f7b367f812c6f,Mo-Su 08:00-22:00,Western Union,Q861042
2431e394888f4107f27a66ce527f8dbf,western_union,OXXO MISION DEL SOL CEN,,Ciudad Obregon,SONORA,,MX,+52 81 8389 2121,https://location.westernunion.com/mx/sonora/ciudad-obregon/2431e394888f4107f27a66ce527f8dbf,Mo-Su 08:00-22:00,Western Union,Q861042
d0db56abac6d217bdc5952a8783fc383,western_union,OXXO MISION DEL SOL CEN,,Ciudad Obregon,SONORA,,MX,+52 81 8389 2121,https://location.westernunion.com/mx/sonora/ciudad-obregon/d0db56abac6d217bdc5952a8783fc383,Mo-Su 08:00-22:00,Western Union,Q861042
dfe72b48bb9d31c0b89fe4b25027b007,western_union,OXXO 1O DE MAYO CEN,,Ciudad Obregon,SONORA,,MX,+52 81 8389 2121,https://location.westernunion.com/mx/sonora/ciudad-obregon/dfe72b48bb9d31c0b89fe4b25027b007,Mo-Su 08:00-22:00,Western Union,Q861042
ca8d8030461e1611be09c2ff6e4a4113,western_union,OXXO 1O DE MAYO CEN,,Ciudad Obregon,SONORA,,MX,+52 81 8389 2121,https://location.westernunion.com/mx/sonora/ciudad-obregon/ca8d8030461e1611be09c2ff6e4a4113,Mo-Su 08:00-22:00,Western Union,Q861042
0f9b217dbc315deafcdc4c75a3e55c7f,western_union,OXXO SERVIAEROPUERTO CEN,,Ciudad Obregon,SONORA,,MX,+52 81 8389 2121,https://location.westernunion.com/mx/sonora/ciudad-obregon/0f9b217dbc315deafcdc4c75a3e55c7f,Mo-Su 08:00-22:00,Western Union,Q861042
7468d27474d2bf7de68a7071033cf876,western_union,OXXO SERVIAEROPUERTO CEN,,Ciudad Obregon,SONORA,,MX,+52 81 8389 2121,https://location.westernunion.com/mx/sonora/ciudad-obregon/7468d27474d2bf7de68a7071033cf876,Mo-Su 08:00-22:00,Western Union,Q861042
d69ab7487686c20672d26c6a6bd07fec,western_union,OXXO SERVIAEROPUERTO CEN,,Ciudad Obregon,SONORA,,MX,+52 81 8389 2121,https://location.westernunion.com/mx/sonora/ciudad-obregon/d69ab7487686c20672d26c6a6bd07fec,Mo-Su 08:00-22:00,Western Union,Q861042
9b90abac2338b286b28413818ab4bbd6,western_union,OXXO QUINTA REAL CEN,,Ciudad Obregon,SONORA,,MX,+52 81 8389 2121,https://location.westernunion.com/mx/sonora/ciudad-obregon/9b90abac2338b286b28413818ab4bbd6,Mo-Su 08:00-22:00,Western Union,Q861042
6f9ab8fc7c130c0313a0094122304e9b,western_union,OXXO QUINTA REAL CEN,,Ciudad Obregon,SONORA,,MX,+52 81 8389 2121,https://location.westernunion.com/mx/sonora/ciudad-obregon/6f9ab8fc7c130c0313a0094122304e9b,Mo-Su 08:00-22:00,Western Union,Q861042
323a1ca4fe35c7377c3329be79a101cd,western_union,OXXO MIRAVALLE CEN,,Ciudad Obregon,SONORA,,MX,+52 81 8389 2121,https://location.westernunion.com/mx/sonora/ciudad-obregon/323a1ca4fe35c7377c3329be79a101cd,Mo-Su 08:00-22:00,Western Union,Q861042
6551d26d4c4c6f140cf26b1138810b90,western_union,OXXO MIRAVALLE CEN,,Ciudad Obregon,SONORA,,MX,+52 81 8389 2121,https://location.westernunion.com/mx/sonora/ciudad-obregon/6551d26d4c4c6f140cf26b1138810b90,Mo-Su 08:00-22:00,Western Union,Q861042
51c36cc81f538ee70bf4577e1400f06b,western_union,OXXO MIRAVALLE CEN,,Ciudad Obregon,SONORA,,MX,+52 81 8389 2121,https://location.westernunion.com/mx/sonora/ciudad-obregon/51c36cc81f538ee70bf4577e1400f06b,Mo-Su 08:00-22:00,Western Union,Q861042
67f6dc7bd73dd904a52498687b9a845a,western_union,OXXO TABASCO CEN,,Ciudad Obregon,SONORA,,MX,+52 81 8389 2121,https://location.westernunion.com/mx/sonora/ciudad-obregon/67f6dc7bd73dd904a52498687b9a845a,Mo-Su 08:00-22:00,Western Union,Q861042
1b17c94decbde03c33ca2ab8b11a64b2,western_union,OXXO TABASCO CEN,,Ciudad Obregon,SONORA,,MX,+52 81 8389 2121,https://location.westernunion.com/mx/sonora/ciudad-obregon/1b17c94decbde03c33ca2ab8b11a64b2,Mo-Su 08:00-22:00,Western Union,Q861042
69050ff89bedd44c5457fd0a88a7e470,western_union,OXXO 300 CEN,,Ciudad Obregon,SONORA,,MX,+52 81 8389 2121,https://location.westernunion.com/mx/sonora/ciudad-obregon/69050ff89bedd44c5457fd0a88a7e470,Mo-Su 08:00-22:00,Western Union,Q861042
f135f97f1cdbabb230a1468b4d96c399,western_union,OXXO 300 CEN,,Ciudad Obregon,SONORA,,MX,+52 81 8389 2121,https://location.westernunion.com/mx/sonora/ciudad-obregon/f135f97f1cdbabb230a1468b4d96c399,Mo-Su 08:00-22:00,Western Union,Q861042
2ef8af08153f3e9a7d3d92793e88f3e1,western_union,OXXO QUINTA REAL CEN,,Ciudad Obregon,SONORA,,MX,+52 81 8389 2121,https://location.westernunion.com/mx/sonora/ciudad-obregon/2ef8af08153f3e9a7d3d92793e88f3e1,Mo-Su 08:00-22:00,Western Union,Q861042
1ea0885cc006cded554359650ac4afec,western_union,WALMART CARR INTERNACIONAL OBREGON 2646,,Ciudad Obregon,SONORA,,MX,+52 800 833 4700,https://location.westernunion.com/mx/sonora/ciudad-obregon/1ea0885cc006cded554359650ac4afec,Mo-Su 07:00-23:00,Western Union,Q861042
13fa5865a10072b380d5840934c8efab,western_union,WALMART CARR INTERNACIONAL OBREGON 2646,,Ciudad Obregon,SONORA,,MX,+52 800 833 4700,https://location.westernunion.com/mx/sonora/ciudad-obregon/13fa5865a10072b380d5840934c8efab,Mo-Su 07:00-23:00,Western Union,Q861042
7ffad21dadf3fe5f87821e0738ff1ea6,western_union,WALMART CARR INTERNACIONAL OBREGON 2646,,Ciudad Obregon,SONORA,,MX,+52 800 833 4700,https://location.westernunion.com/mx/sonora/ciudad-obregon/7ffad21dadf3fe5f87821e0738ff1ea6,Mo-Su 07:00-23:00,Western Union,Q861042
5763a6f86905e291b609b204b6e10745,western_union,OXXO EL JET CEN,,Ciudad Obregon,SONORA,,MX,+52 81 8389 2121,https://location.westernunion.com/mx/sonora/ciudad-obregon/5763a6f86905e291b609b204b6e10745,Mo-Su 08:00-22:00,Western Union,Q861042
8103320aa4181584e8b3feee0dff0485,western_union,OXXO EL JET CEN,,Ciudad Obregon,SONORA,,MX,+52 81 8389 2121,https://location.westernunion.com/mx/sonora/ciudad-obregon/8103320aa4181584e8b3feee0dff0485,Mo-Su 08:00-22:00,Western Union,Q861042
ab5d80829c12a98c61d277f6faaaa94a,western_union,OXXO CALIFORNIA CEN,,Ciudad Obregon,SONORA,,MX,+52 81 8389 2121,https://location.westernunion.com/mx/sonora/ciudad-obregon/ab5d80829c12a98c61d277f6faaaa94a,Mo-Su 08:00-22:00,Western Union,Q861042
bc603dd0a68406b7114255b1dc69dbcf,western_union,OXXO CALIFORNIA CEN,,Ciudad Obregon,SONORA,,MX,+52 81 8389 2121,https://location.westernunion.com/mx/sonora/ciudad-obregon/bc603dd0a68406b7114255b1dc69dbcf,Mo-Su 08:00-22:00,Western Union,Q861042
b56f8d46ff4d6e1a16b759088632ab50,western_union,OXXO CALIFORNIA CEN,,Ciudad Obregon,SONORA,,MX,+52 81 8389 2121,https://location.westernunion.com/mx/sonora/ciudad-obregon/b56f8d46ff4d6e1a16b759088632ab50,Mo-Su 08:00-22:00,Western Union,Q861042
fa8456093a6b6470675ed49462292b88,western_union,OXXO 200 CEN,,Ciudad Obregon,SONORA,,MX,+52 81 8389 2121,https://location.westernunion.com/mx/sonora/ciudad-obregon/fa8456093a6b6470675ed49462292b88,Mo-Su 08:00-22:00,Western Union,Q861042
a1a69cb11636baa3af3b025f3b103e05,western_union,OXXO 200 CEN,,Ciudad Obregon,SONORA,,MX,+52 81 8389 2121,https://location.westernunion.com/mx/sonora/ciudad-obregon/a1a69cb11636baa3af3b025f3b103e05,Mo-Su 08:00-22:00,Western Union,Q861042
165ac9084e7409ccc8f1aef50bf19478,western_union,OXXO 200 CEN,,Ciudad Obregon,SONORA,,MX,+52 81 8389 2121,https://location.westernunion.com/mx/sonora/ciudad-obregon/165ac9084e7409ccc8f1aef50bf19478,Mo-Su 08:00-22:00,Western Union,Q861042
2483b1052bcec99a89fab9403e29c148,western_union,OXXO EL JET CEN,,Ciudad Obregon,SONORA,,MX,+52 81 8389 2121,https://location.westernunion.com/mx/sonora/ciudad-obregon/2483b1052bcec99a89fab9403e29c148,Mo-Su 08:00-22:00,Western Union,Q861042
e5c1b182bfc383057098562a8e24fd97,western_union,OXXO CONSTITUCION CEN,,Ciudad Obregon,SONORA,,MX,+52 81 8389 2121,https://location.westernunion.com/mx/sonora/ciudad-obregon/e5c1b182bfc383057098562a8e24fd97,Mo-Su 08:00-22:00,Western Union,Q861042
0f59136084af80e0f2496cc1bb5a036a,western_union,OXXO CONSTITUCION CEN,,Ciudad Obregon,SONORA,,MX,+52 81 8389 2121,https://location.westernunion.com/mx/sonora/ciudad-obregon/0f59136084af80e0f2496cc1bb5a036a,Mo-Su 08:00-22:00,Western Union,Q861042
b0cfd13dbbad06c86fc51bcdf3e413f6,western_union,OXXO CONSTITUCION CEN,,Ciudad Obregon,SONORA,,MX,+52 81 8389 2121,https://location.westernunion.com/mx/sonora/ciudad-obregon/b0cfd13dbbad06c86fc51bcdf3e413f6,Mo-Su 08:00-22:00,Western Union,Q861042
301cb583cf91285e84beb1d926da49e4,western_union,BANCOPPEL 0012 5 DE FEBRERO,,Ciudad Obregon,SONORA,,MX,(+52) 667-589999,https://location.westernunion.com/mx/sonora/ciudad-obregon/301cb583cf91285e84beb1d926da49e4,Mo-Su 08:30-21:00,Western Union,Q861042
3ffa15c83a2fcd1405d263e4c5ae425a,western_union,BANCOPPEL 0012 5 DE FEBRERO,,Ciudad Obregon,SONORA,,MX,(+52) 667-589999,https://location.westernunion.com/mx/sonora/ciudad-obregon/3ffa15c83a2fcd1405d263e4c5ae425a,Mo-Su 08:30-21:00,Western Union,Q861042
0651098211f1ed31367ae26307c25452,western_union,BANCOPPEL 0012 5 DE FEBRERO,,Ciudad Obregon,SONORA,,MX,(+52) 667-589999,https://location.westernunion.com/mx/sonora/ciudad-obregon/0651098211f1ed31367ae26307c25452,Mo-Su 08:30-21:00,Western Union,Q861042
e8a83fbdb2907d7550b6149e9f06862d,western_union,OXXO TLAXCALA CEN,,Ciudad Obregon,SONORA,,MX,+52 81 8389 2121,https://location.westernunion.com/mx/sonora/ciudad-obregon/e8a83fbdb2907d7550b6149e9f06862d,Mo-Su 08:00-22:00,Western Union,Q861042
2b064b9c321ce3d041b7287329a4130c,western_union,OXXO TLAXCALA CEN,,Ciudad Obregon,SONORA,,MX,+52 81 8389 2121,https://location.westernunion.com/mx/sonora/ciudad-obregon/2b064b9c321ce3d041b7287329a4130c,Mo-Su 08:00-22:00,Western Union,Q861042
252cb667f09fd8747fadad8b4a9a7c25,western_union,OXXO TLAXCALA CEN,,Ciudad Obregon,SONORA,,MX,+52 81 8389 2121,https://location.westernunion.com/mx/sonora/ciudad-obregon/252cb667f09fd8747fadad8b4a9a7c25,Mo-Su 08:00-22:00,Western Union,Q861042
2d911e30cc6196a351143084baa6cdcc,western_union,OXXO PLANO ORIENTE CEN,,Ciudad Obregon,SONORA,,MX,+52 81 8389 2121,https://location.westernunion.com/mx/sonora/ciudad-obregon/2d911e30cc6196a351143084baa6cdcc,Mo-Su 08:00-22:00,Western Union,Q861042
4819ce99fd842d4b7660cd7672c8785f,western_union,OXXO PLANO ORIENTE CEN,,Ciudad Obregon,SONORA,,MX,+52 81 8389 2121,https://location.westernunion.com/mx/sonora/ciudad-obregon/4819ce99fd842d4b7660cd7672c8785f,Mo-Su 08:00-22:00,Western Union,Q861042
dfa255288ab6168e98089193a7abae03,western_union,ELECZION CD OBREGON 2 1084,,Ciudad Obregon,SONORA,,MX,+52 55 5246 0700,https://location.westernunion.com/mx/sonora/ciudad-obregon/dfa255288ab6168e98089193a7abae03,Mo-Su 06:30-23:30,Western Union,Q861042
5995d89f6ab5d01809df3c2606d3d3ed,western_union,ELECZION CD OBREGON 2 1084,,Ciudad Obregon,SONORA,,MX,+52 55 5246 0700,https://location.westernunion.com/mx/sonora/ciudad-obregon/5995d89f6ab5d01809df3c2606d3d3ed,Mo-Su 06:30-23:30,Western Union,Q861042
4d34270cddf7954dceaa2f75bc606f85,western_union,FUNDACION DONDE CIUDAD OBREGON 1 ID246,,Cajeme,SONORA,,MX,+52 999 940 7550,https://location.westernunion.com/mx/sonora/cajeme/4d34270cddf7954dceaa2f75bc606f85,Mo-Su 08:00-20:00,Western Union,Q861042
66d8653a62cedcde38a2e96d0100dfc1,western_union,FUNDACION DONDE CIUDAD OBREGON 1 ID246,,Cajeme,SONORA,,MX,+52 999 940 7550,https://location.westernunion.com/mx/sonora/cajeme/66d8653a62cedcde38a2e96d0100dfc1,Mo-Su 08:00-20:00,Western Union,Q861042
3c23520a7dee4f72bac2a613341c2b9b,western_union,FUNDACION DONDE CIUDAD OBREGON 1 ID246,,Cajeme,SONORA,,MX,+52 999 940 7550,https://location.westernunion.com/mx/sonora/cajeme/3c23520a7dee4f72bac2a613341c2b9b,Mo-Su 08:00-20:00,Western Union,Q861042
cc2f35893c554a658d21f23e678c0f26,western_union,OXXO CENTRAL CEN,,Ciudad Obregon,SONORA,,MX,+52 81 8389 2121,https://location.westernunion.com/mx/sonora/ciudad-obregon/cc2f35893c554a658d21f23e678c0f26,Mo-Su 08:00-22:00,Western Union,Q861042
532df0568e6950867ecde4c8f115c45d,western_union,OXXO CENTRAL CEN,,Ciudad Obregon,SONORA,,MX,+52 81 8389 2121,https://location.westernunion.com/mx/sonora/ciudad-obregon/532df0568e6950867ecde4c8f115c45d,Mo-Su 08:00-22:00,Western Union,Q861042
1eb91ddd5d10ade671ec663eac4f61c0,western_union,OXXO EL DESIERTO CEN,,Ciudad Obregon,SONORA,,MX,+52 81 8389 2121,https://location.westernunion.com/mx/sonora/ciudad-obregon/1eb91ddd5d10ade671ec663eac4f61c0,Mo-Su 08:00-22:00,Western Union,Q861042
578ea4c91a8f2aae0611d5909dc1b6d5,western_union,OXXO EL DESIERTO CEN,,Ciudad Obregon,SONORA,,MX,+52 81 8389 2121,https://location.westernunion.com/mx/sonora/ciudad-obregon/578ea4c91a8f2aae0611d5909dc1b6d5,Mo-Su 08:00-22:00,Western Union,Q861042
50b4a9c8e78bfe55574ffeeec8f0fefe,western_union,OXXO VERACRUZ CEN,,Ciudad Obregon,SONORA,,MX,+52 81 8389 2121,https://location.westernunion.com/mx/sonora/ciudad-obregon/50b4a9c8e78bfe55574ffeeec8f0fefe,Mo-Su 08:00-22:00,Western Union,Q861042
14f2dfea11c49d32f7a3d06c3c945829,western_union,OXXO VERACRUZ CEN,,Ciudad Obregon,SONORA,,MX,+52 81 8389 2121,https://location.westernunion.com/mx/sonora/ciudad-obregon/14f2dfea11c49d32f7a3d06c3c945829,Mo-Su 08:00-22:00,Western Union,Q861042
26a9d142220b1b20af7ca72b39d45945,western_union,OXXO VERACRUZ CEN,,Ciudad Obregon,SONORA,,MX,+52 81 8389 2121,https://location.westernunion.com/mx/sonora/ciudad-obregon/26a9d142220b1b20af7ca72b39d45945,Mo-Su 08:00-22:00,Western Union,Q861042
6e95afcc94290df17068b797f3fe6cb5,western_union,OXXO PARIS CEN,,Ciudad Obregon,SONORA,,MX,+52 81 8389 2121,https://location.westernunion.com/mx/sonora/ciudad-obregon/6e95afcc94290df17068b797f3fe6cb5,Mo-Su 08:00-22:00,Western Union,Q861042
8dad7c621cc952198eea26b3e561aa2b,western_union,OXXO PARIS CEN,,Ciudad Obregon,SONORA,,MX,+52 81 8389 2121,https://location.westernunion.com/mx/sonora/ciudad-obregon/8dad7c621cc952198eea26b3e561aa2b,Mo-Su 08:00-22:00,Western Union,Q861042
242f6d0bff9ef7737c4ef80f66b6dd16,western_union,OXXO PARIS CEN,,Ciudad Obregon,SONORA,,MX,+52 81 8389 2121,https://location.westernunion.com/mx/sonora/ciudad-obregon/242f6d0bff9ef7737c4ef80f66b6dd16,Mo-Su 08:00-22:00,Western Union,Q861042
203cd79ec84f3316836ecdfc11b46ea9,western_union,FARM GUAD 5 DE FEB CD OBREGON,,Ciudad Obregon,SONORA,,MX,+52 800 833 4700,https://location.westernunion.com/mx/sonora/ciudad-obregon/203cd79ec84f3316836ecdfc11b46ea9,Mo-Su 08:00-20:00,Western Union,Q861042
588a466d77872ace13504b8196e17f8c,western_union,FARM GUAD 5 DE FEB CD OBREGON,,Ciudad Obregon,SONORA,,MX,+52 800 833 4700,https://location.westernunion.com/mx/sonora/ciudad-obregon/588a466d77872ace13504b8196e17f8c,Mo-Su 08:00-20:00,Western Union,Q861042
bb5bd24d5391703a87766ef712701726,western_union,FARM GUAD 5 DE FEB CD OBREGON,,Ciudad Obregon,SONORA,,MX,+52 800 833 4700,https://location.westernunion.com/mx/sonora/ciudad-obregon/bb5bd24d5391703a87766ef712701726,Mo-Su 08:00-20:00,Western Union,Q861042
8e97c6e6f34ca0e94646627e2690712a,western_union,ELEKTRA 3081,,Ciudad Obregon,SONORA,,MX,+52 55 1720 8177,https://location.westernunion.com/mx/sonora/ciudad-obregon/8e97c6e6f34ca0e94646627e2690712a,Mo-Su 09:00-20:00,Western Union,Q861042
b8d455185ecfc6ea388c98abe4a5f5db,western_union,ELEKTRA 3081,,Ciudad Obregon,SONORA,,MX,+52 55 1720 8177,https://location.westernunion.com/mx/sonora/ciudad-obregon/b8d455185ecfc6ea388c98abe4a5f5db,Mo-Su 09:00-21:00,Western Union,Q861042
dd29bc57738f18bdec89bc5870a18396,western_union,ELEKTRA 3081,,Ciudad Obregon,SONORA,,MX,+52 55 1720 8177,https://location.westernunion.com/mx/sonora/ciudad-obregon/dd29bc57738f18bdec89bc5870a18396,Mo-Su 09:00-21:00,Western Union,Q861042
a575eb68dc2b0a340cff960aaecd5e06,western_union,OXXO JIMMY CEN,,Ciudad Obregon,SONORA,,MX,+52 81 8389 2121,https://location.westernunion.com/mx/sonora/ciudad-obregon/a575eb68dc2b0a340cff960aaecd5e06,Mo-Su 08:00-22:00,Western Union,Q861042
5254a5b77341eddc863597d4689b03dd,western_union,OXXO JIMMY CEN,,Ciudad Obregon,SONORA,,MX,+52 81 8389 2121,https://location.westernunion.com/mx/sonora/ciudad-obregon/5254a5b77341eddc863597d4689b03dd,Mo-Su 08:00-22:00,Western Union,Q861042
7bf5d1c4b362976e92cc015f17e1e347,western_union,OXXO JIMMY CEN,,Ciudad Obregon,SONORA,,MX,+52 81 8389 2121,https://location.westernunion.com/mx/sonora/ciudad-obregon/7bf5d1c4b362976e92cc015f17e1e347,Mo-Su 08:00-22:00,Western Union,Q861042
99f8c3fd3bd29058678ab518807d87dd,western_union,OXXO MEXICO CEN,,Ciudad Obregon,SONORA,,MX,+52 81 8389 2121,https://location.westernunion.com/mx/sonora/ciudad-obregon/99f8c3fd3bd29058678ab518807d87dd,Mo-Su 08:00-22:00,Western Union,Q861042
49eaab3b87e0bf1f90df6bfc9188c623,western_union,OXXO MEXICO CEN,,Ciudad Obregon,SONORA,,MX,+52 81 8389 2121,https://location.westernunion.com/mx/sonora/ciudad-obregon/49eaab3b87e0bf1f90df6bfc9188c623,Mo-Su 08:00-22:00,Western Union,Q861042
6ac38b7b5c5fda47c871a9221222b6db,western_union,OXXO MEXICO CEN,,Ciudad Obregon,SONORA,,MX,+52 81 8389 2121,https://location.westernunion.com/mx/sonora/ciudad-obregon/6ac38b7b5c5fda47c871a9221222b6db,Mo-Su 08:00-22:00,Western Union,Q861042
a3b125a19fc73deb6b39d6e2512326c7,western_union,CASA LEY 1012 LEY CAJEME,,Ciudad Obregon,SONORA,,MX,+52 800 800 8930,https://location.westernunion.com/mx/sonora/ciudad-obregon/a3b125a19fc73deb6b39d6e2512326c7,Mo-Su 07:00-23:00,Western Union,Q861042
b218332900606f406981b1529d942d49,western_union,CASA LEY 1012 LEY CAJEME,,Ciudad Obregon,SONORA,,MX,+52 800 800 3930,https://location.westernunion.com/mx/sonora/ciudad-obregon/b218332900606f406981b1529d942d49,Mo-Su 07:00-23:00,Western Union,Q861042
6097657076202ffc93690207f264f1bb,western_union,CASA LEY 1012 LEY CAJEME,,Ciudad Obregon,SONORA,,MX,+52 800 800 3930,https://location.westernunion.com/mx/sonora/ciudad-obregon/6097657076202ffc93690207f264f1bb,Mo-Su 07:00-23:00,Western Union,Q861042
1fe45980af29a33aabc7fb96a7df076f,western_union,OXXO FABULA CEN,,Ciudad Obregon,SONORA,,MX,+52 81 8389 2121,https://location.westernunion.com/mx/sonora/ciudad-obregon/1fe45980af29a33aabc7fb96a7df076f,Mo-Su 08:00-22:00,Western Union,Q861042
9f9ca94f9060c15e79baf82db9817548,western_union,OXXO FABULA CEN,,Ciudad Obregon,SONORA,,MX,+52 81 8389 2121,https://location.westernunion.com/mx/sonora/ciudad-obregon/9f9ca94f9060c15e79baf82db9817548,Mo-Su 08:00-22:00,Western Union,Q861042
8b1fb2f1d831ce9ec2f2ea9635820769,western_union,OXXO FABULA CEN,,Ciudad Obregon,SONORA,,MX,+52 81 8389 2121,https://location.westernunion.com/mx/sonora/ciudad-obregon/8b1fb2f1d831ce9ec2f2ea9635820769,Mo-Su 08:00-22:00,Western Union,Q861042
4c41f19fec69a907ca155344565bc68b,western_union,FARM GUAD AV VICENTE GUERRERO,,Ciudad Obregon,SONORA,,MX,+52 800 833 4700,https://location.westernunion.com/mx/sonora/ciudad-obregon/4c41f19fec69a907ca155344565bc68b,Mo-Su 08:00-20:00,Western Union,Q861042
e4c2e048f95fa415ae947a381926f91e,western_union,FARM GUAD AV VICENTE GUERRERO,,Ciudad Obregon,SONORA,,MX,+52 800 833 4700,https://location.westernunion.com/mx/sonora/ciudad-obregon/e4c2e048f95fa415ae947a381926f91e,Mo-Su 08:00-20:00,Western Union,Q861042
89ca75c0c94f3508b3beedc53fdeb531,western_union,FARM GUAD AV VICENTE GUERRERO,,Ciudad Obregon,SONORA,,MX,+52 800 833 4700,https://location.westernunion.com/mx/sonora/ciudad-obregon/89ca75c0c94f3508b3beedc53fdeb531,Mo-Su 08:00-20:00,Western Union,Q861042
3248c2f41cae022081c12dcbe3abccf9,western_union,BANCOPPEL 0010 NO REELECCION,,Ciudad Obregon,SONORA,,MX,(+52) 667-589999,https://location.westernunion.com/mx/sonora/ciudad-obregon/3248c2f41cae022081c12dcbe3abccf9,Mo-Su 08:30-21:00,Western Union,Q861042
12d5297cbe5dbbd3a2893b6f8efc71af,western_union,BANCOPPEL 0010 NO REELECCION,,Ciudad Obregon,SONORA,,MX,(+52) 667-589999,https://location.westernunion.com/mx/sonora/ciudad-obregon/12d5297cbe5dbbd3a2893b6f8efc71af,Mo-Su 08:30-21:00,Western Union,Q861042
a695497bbcbabbe5b13df774bb676a0f,western_union,BANCOPPEL 0010 NO REELECCION,,Ciudad Obregon,SONORA,,MX,(+52) 667-589999,https://location.westernunion.com/mx/sonora/ciudad-obregon/a695497bbcbabbe5b13df774bb676a0f,Mo-Su 08:30-21:00,Western Union,Q861042
37b08c82108c1c017230612062887cd2,western_union,ELEKTRA 3094,,Cajeme,SONORA,,MX,+52 55 1720 8177,https://location.westernunion.com/mx/sonora/cajeme/37b08c82108c1c017230612062887cd2,Mo-Su 09:00-20:00,Western Union,Q861042
8819c54200f0e29b85e2fe4c071942c6,western_union,ELEKTRA 3094,,Cajeme,SONORA,,MX,+52 55 1720 8177,https://location.westernunion.com/mx/sonora/cajeme/8819c54200f0e29b85e2fe4c071942c6,Mo-Su 09:00-21:00,Western Union,Q861042
5f93e18157fda558cf1ade3236dba493,western_union,ELEKTRA 3094,,Cajeme,SONORA,,MX,+52 55 1720 8177,https://location.westernunion.com/mx/sonora/cajeme/5f93e18157fda558cf1ade3236dba493,Mo-Su 09:00-21:00,Western Union,Q861042
c19410785a0bdb5394debff8c97d773b,western_union,ELECZION CD OBREGON 1 1048,,Ciudad Obregon,SONORA,,MX,+52 55 5246 0700,https://location.westernunion.com/mx/sonora/ciudad-obregon/c19410785a0bdb5394debff8c97d773b,Mo-Su 06:30-23:30,Western Union,Q861042
0ceef00f899e8391cd53aa3475daeb96,western_union,ELECZION CD OBREGON 1 1048,,Ciudad Obregon,SONORA,,MX,+52 55 5246 0700,https://location.westernunion.com/mx/sonora/ciudad-obregon/0ceef00f899e8391cd53aa3475daeb96,Mo-Su 06:30-23:30,Western Union,Q861042
bc45a5705c6a35502f169d9072d78116,western_union,OXXO SANTA FE CEN,,Ciudad Obregon,SONORA,,MX,+52 81 8389 2121,https://location.westernunion.com/mx/sonora/ciudad-obregon/bc45a5705c6a35502f169d9072d78116,Mo-Su 08:00-22:00,Western Union,Q861042
fc63cc92633fa0a5179d0957865c9f98,western_union,OXXO SANTA FE CEN,,Ciudad Obregon,SONORA,,MX,+52 81 8389 2121,https://location.westernunion.com/mx/sonora/ciudad-obregon/fc63cc92633fa0a5179d0957865c9f98,Mo-Su 08:00-22:00,Western Union,Q861042
af3b8f884915e4503da07e4b89ae081c,western_union,FARM GUAD CALLE DURANGO,,Ciudad Obregon,SONORA,,MX,+52 800 833 4700,https://location.westernunion.com/mx/sonora/ciudad-obregon/af3b8f884915e4503da07e4b89ae081c,Mo-Su 08:00-20:00,Western Union,Q861042
01aa64a0f963ae3a3da6fa15beaaf624,western_union,FARM GUAD CALLE DURANGO,,Ciudad Obregon,SONORA,,MX,+52 800 833 4700,https://location.westernunion.com/mx/sonora/ciudad-obregon/01aa64a0f963ae3a3da6fa15beaaf624,Mo-Su 08:00-20:00,Western Union,Q861042
51b5978cab4f1e7ea02cf35296e8b26f,western_union,FARM GUAD CALLE DURANGO,,Ciudad Obregon,SONORA,,MX,+52 800 833 4700,https://location.westernunion.com/mx/sonora/ciudad-obregon/51b5978cab4f1e7ea02cf35296e8b26f,Mo-Su 08:00-20:00,Western Union,Q861042
de418c96e7a56ee733b62802bf1a10b3,western_union,OXXO OBREGON CEN,,Ciudad Obregon,SONORA,,MX,+52 81 8389 2121,https://location.westernunion.com/mx/sonora/ciudad-obregon/de418c96e7a56ee733b62802bf1a10b3,Mo-Su 08:00-22:00,Western Union,Q861042
99305545f45d2bd011dcc51d151a4cc9,western_union,OXXO OBREGON CEN,,Ciudad Obregon,SONORA,,MX,+52 81 8389 2121,https://location.westernunion.com/mx/sonora/ciudad-obregon/99305545f45d2bd011dcc51d151a4cc9,Mo-Su 08:00-22:00,Western Union,Q861042
09f0c9c3a09ac3605394f6e31bc56bd4,western_union,OXXO OTANCAHUI CEN,,Ciudad Obregon,SONORA,,MX,+52 81 8389 2121,https://location.westernunion.com/mx/sonora/ciudad-obregon/09f0c9c3a09ac3605394f6e31bc56bd4,Mo-Su 08:00-22:00,Western Union,Q861042
f93e8998ba8f6937cbae0b91c84b17e7,western_union,OXXO OTANCAHUI CEN,,Ciudad Obregon,SONORA,,MX,+52 81 8389 2121,https://location.westernunion.com/mx/sonora/ciudad-obregon/f93e8998ba8f6937cbae0b91c84b17e7,Mo-Su 08:00-22:00,Western Union,Q861042
a883ba7de5504523daa50161209ffb86,western_union,OXXO OTANCAHUI CEN,,Ciudad Obregon,SONORA,,MX,+52 81 8389 2121,https://location.westernunion.com/mx/sonora/ciudad-obregon/a883ba7de5504523daa50161209ffb86,Mo-Su 08:00-22:00,Western Union,Q861042
9fdf12ddd9afece1b16ec68e9412c392,western_union,OXXO ZARAGOZA CEN,,Ciudad Obregon,SONORA,,MX,+52 81 8389 2121,https://location.westernunion.com/mx/sonora/ciudad-obregon/9fdf12ddd9afece1b16ec68e9412c392,Mo-Su 08:00-22:00,Western Union,Q861042
ed2bb048892c96c8fe0accd4ac184e23,western_union,OXXO ZARAGOZA CEN,,Ciudad Obregon,SONORA,,MX,+52 81 8389 2121,https://location.westernunion.com/mx/sonora/ciudad-obregon/ed2bb048892c96c8fe0accd4ac184e23,Mo-Su 08:00-22:00,Western Union,Q861042
3cff127395ae12fe86132c63f5ebae8e,western_union,OXXO ZARAGOZA CEN,,Ciudad Obregon,SONORA,,MX,+52 81 8389 2121,https://location.westernunion.com/mx/sonora/ciudad-obregon/3cff127395ae12fe86132c63f5ebae8e,Mo-Su 08:00-22:00,Western Union,Q861042
a21461061653ae34ba68761d76c00aa0,western_union,OXXO CATEDRAL CEN,,Ciudad Obregon,SONORA,,MX,+52 81 8389 2121,https://location.westernunion.com/mx/sonora/ciudad-obregon/a21461061653ae34ba68761d76c00aa0,Mo-Su 08:00-22:00,Western Union,Q861042
ce3e10a8bfe592dc9949afc07f1da855,western_union,OXXO CATEDRAL CEN,,Ciudad Obregon,SONORA,,MX,+52 81 8389 2121,https://location.westernunion.com/mx/sonora/ciudad-obregon/ce3e10a8bfe592dc9949afc07f1da855,Mo-Su 08:00-22:00,Western Union,Q861042
9d025c26d7f71c121fe49029b831d260,western_union,OXXO CATEDRAL CEN,,Ciudad Obregon,SONORA,,MX,+52 81 8389 2121,https://location.westernunion.com/mx/sonora/ciudad-obregon/9d025c26d7f71c121fe49029b831d260,Mo-Su 08:00-22:00,Western Union,Q861042
d537b0a2de3fc61ef484992ac5e7d5d3,western_union,OXXO JALISCO CEN,,Ciudad Obregon,SONORA,,MX,+52 81 8389 2121,https://location.westernunion.com/mx/sonora/ciudad-obregon/d537b0a2de3fc61ef484992ac5e7d5d3,Mo-Su 08:00-22:00,Western Union,Q861042
e8d22fdb12ecae1b0af6678a82629a88,western_union,OXXO JALISCO CEN,,Ciudad Obregon,SONORA,,MX,+52 81 8389 2121,https://location.westernunion.com/mx/sonora/ciudad-obregon/e8d22fdb12ecae1b0af6678a82629a88,Mo-Su 08:00-22:00,Western Union,Q861042
c901b87fe7c2ee47f525bdf23c441ddf,western_union,OXXO JALISCO CEN,,Ciudad Obregon,SONORA,,MX,+52 81 8389 2121,https://location.westernunion.com/mx/sonora/ciudad-obregon/c901b87fe7c2ee47f525bdf23c441ddf,Mo-Su 08:00-22:00,Western Union,Q861042
60b3f94f162fa16417c2a16cce3a1615,western_union,OXXO CLINICA CEN,,Ciudad Obregon,SONORA,,MX,+52 81 8389 2121,https://location.westernunion.com/mx/sonora/ciudad-obregon/60b3f94f162fa16417c2a16cce3a1615,Mo-Su 08:00-22:00,Western Union,Q861042
defd973984733b446cb26083d1a182c8,western_union,OXXO CLINICA CEN,,Ciudad Obregon,SONORA,,MX,+52 81 8389 2121,https://location.westernunion.com/mx/sonora/ciudad-obregon/defd973984733b446cb26083d1a182c8,Mo-Su 08:00-22:00,Western Union,Q861042
1a8533ec68c4674dc1485f86b74ab0a0,western_union,OXXO NINOS HEROES CEN,,Ciudad Obregon,SONORA,,MX,+52 81 8389 2121,https://location.westernunion.com/mx/sonora/ciudad-obregon/1a8533ec68c4674dc1485f86b74ab0a0,Mo-Su 08:00-22:00,Western Union,Q861042
b2e8c0478625ac97d4206a070eabd787,western_union,OXXO NINOS HEROES CEN,,Ciudad Obregon,SONORA,,MX,+52 81 8389 2121,https://location.westernunion.com/mx/sonora/ciudad-obregon/b2e8c0478625ac97d4206a070eabd787,Mo-Su 08:00-22:00,Western Union,Q861042
aaa666302f76718acda0a998bbc147fd,western_union,OXXO NINOS HEROES CEN,,Ciudad Obregon,SONORA,,MX,+52 81 8389 2121,https://location.westernunion.com/mx/sonora/ciudad-obregon/aaa666302f76718acda0a998bbc147fd,Mo-Su 08:00-22:00,Western Union,Q861042
184ca5bc0366b6b75b86e948b7184e9a,western_union,OXXO MIGUEL ALEMAN CEN,,Ciudad Obregon,SONORA,,MX,+52 81 8389 2121,https://location.westernunion.com/mx/sonora/ciudad-obregon/184ca5bc0366b6b75b86e948b7184e9a,Mo-Su 08:00-22:00,Western Union,Q861042
3f9b7b2332355b3096ed17f1ffebd92b,western_union,OXXO MIGUEL ALEMAN CEN,,Ciudad Obregon,SONORA,,MX,+52 81 8389 2121,https://location.westernunion.com/mx/sonora/ciudad-obregon/3f9b7b2332355b3096ed17f1ffebd92b,Mo-Su 08:00-22:00,Western Union,Q861042
fd8c98ac6ea3c6646b183a99ec6284bf,western_union,OXXO COLIMA CEN,,Ciudad Obregon,SONORA,,MX,+52 81 8389 2121,https://location.westernunion.com/mx/sonora/ciudad-obregon/fd8c98ac6ea3c6646b183a99ec6284bf,Mo-Su 08:00-22:00,Western Union,Q861042
beeff2a0b3cfc41cc5daec3eedee91ca,western_union,OXXO COLIMA CEN,,Ciudad Obregon,SONORA,,MX,+52 81 8389 2121,https://location.westernunion.com/mx/sonora/ciudad-obregon/beeff2a0b3cfc41cc5daec3eedee91ca,Mo-Su 08:00-22:00,Western Union,Q861042
7567e2aad02321233f36efdb556c967a,western_union,OXXO COLIMA CEN,,Ciudad Obregon,SONORA,,MX,+52 81 8389 2121,https://location.westernunion.com/mx/sonora/ciudad-obregon/7567e2aad02321233f36efdb556c967a,Mo-Su 08:00-22:00,Western Union,Q861042
b5ff6d6ba0ffab6f8999541c57c7bf22,western_union,OXXO BELLA VISTA CEN,,Ciudad Obregon,SONORA,,MX,+52 81 8389 2121,https://location.westernunion.com/mx/sonora/ciudad-obregon/b5ff6d6ba0ffab6f8999541c57c7bf22,Mo-Su 08:00-22:00,Western Union,Q861042
26abd7e14ae0a3a8a5d3bd500547c872,western_union,OXXO BELLA VISTA CEN,,Ciudad Obregon,SONORA,,MX,+52 81 8389 2121,https://location.westernunion.com/mx/sonora/ciudad-obregon/26abd7e14ae0a3a8a5d3bd500547c872,Mo-Su 08:00-22:00,Western Union,Q861042
b0a86523ad7dd5adf3dc5725a97c5729,western_union,OXXO BELLA VISTA CEN,,Ciudad Obregon,SONORA,,MX,+52 81 8389 2121,https://location.westernunion.com/mx/sonora/ciudad-obregon/b0a86523ad7dd5adf3dc5725a97c5729,Mo-Su 08:00-22:00,Western Union,Q861042
1b134892ccc9ce530e108c43692b874b,western_union,OXXO MICHOACAN CEN,,Ciudad Obregon,SONORA,,MX,+52 81 8389 2121,https://location.westernunion.com/mx/sonora/ciudad-obregon/1b134892ccc9ce530e108c43692b874b,Mo-Su 08:00-22:00,Western Union,Q861042
da84f9e9d41b0f0703877dbd8addcb79,western_union,OXXO MICHOACAN CEN,,Ciudad Obregon,SONORA,,MX,+52 81 8389 2121,https://location.westernunion.com/mx/sonora/ciudad-obregon/da84f9e9d41b0f0703877dbd8addcb79,Mo-Su 08:00-22:00,Western Union,Q861042
307f389409d3c26134fa3a1d9668d9c1,western_union,OXXO MICHOACAN CEN,,Ciudad Obregon,SONORA,,MX,+52 81 8389 2121,https://location.westernunion.com/mx/sonora/ciudad-obregon/307f389409d3c26134fa3a1d9668d9c1,Mo-Su 08:00-22:00,Western Union,Q861042
981ccdd85176ed1d7628c1d0adccef07,western_union,OXXO QUINTANA ROO CEN,,Ciudad Obregon,SONORA,,MX,+52 81 8389 2121,https://location.westernunion.com/mx/sonora/ciudad-obregon/981ccdd85176ed1d7628c1d0adccef07,Mo-Su 08:00-22:00,Western Union,Q861042
7da9b408fc9ad7d128a8c00749e72527,western_union,OXXO QUINTANA ROO CEN,,Ciudad Obregon,SONORA,,MX,+52 81 8389 2121,https://location.westernunion.com/mx/sonora/ciudad-obregon/7da9b408fc9ad7d128a8c00749e72527,Mo-Su 08:00-22:00,Western Union,Q861042
6ff6964e2014f747fda529ccf8190543,western_union,OXXO VILLA ITSON CEN,,Ciudad Obregon,SONORA,,MX,+52 81 8389 2121,https://location.westernunion.com/mx/sonora/ciudad-obregon/6ff6964e2014f747fda529ccf8190543,Mo-Su 08:00-22:00,Western Union,Q861042
208d8d8b1f71678cc063bae2cbdb2eef,western_union,OXXO VILLA ITSON CEN,,Ciudad Obregon,SONORA,,MX,+52 81 8389 2121,https://location.westernunion.com/mx/sonora/ciudad-obregon/208d8d8b1f71678cc063bae2cbdb2eef,Mo-Su 08:00-22:00,Western Union,Q861042
8d3a395d6549343185dce2197ff9aba0,western_union,OXXO VILLA ITSON CEN,,Ciudad Obregon,SONORA,,MX,+52 81 8389 2121,https://location.westernunion.com/mx/sonora/ciudad-obregon/8d3a395d6549343185dce2197ff9aba0,Mo-Su 08:00-22:00,Western Union,Q861042
b4bfbe690b49e7117d4f1855c806d413,western_union,OXXO REAL DEL NORTE CEN,,Ciudad Obregon,SONORA,,MX,+52 81 8389 2121,https://location.westernunion.com/mx/sonora/ciudad-obregon/b4bfbe690b49e7117d4f1855c806d413,Mo-Su 08:00-22:00,Western Union,Q861042
b94d640f43ff0fa49bb13acc02a41e83,western_union,OXXO REAL DEL NORTE CEN,,Ciudad Obregon,SONORA,,MX,+52 81 8389 2121,https://location.westernunion.com/mx/sonora/ciudad-obregon/b94d640f43ff0fa49bb13acc02a41e83,Mo-Su 08:00-22:00,Western Union,Q861042
6e8ee0cc2fd1ca9d5f0a65ee775fd6e0,western_union,OXXO REAL DEL NORTE CEN,,Ciudad Obregon,SONORA,,MX,+52 81 8389 2121,https://location.westernunion.com/mx/sonora/ciudad-obregon/6e8ee0cc2fd1ca9d5f0a65ee775fd6e0,Mo-Su 08:00-22:00,Western Union,Q861042
e5ae78d148f08df19066359fd3785828,western_union,OXXO TETABIATE CEN,,Ciudad Obregon,SONORA,,MX,+52 81 8389 2121,https://location.westernunion.com/mx/sonora/ciudad-obregon/e5ae78d148f08df19066359fd3785828,Mo-Su 08:00-22:00,Western Union,Q861042
ea3e374306f7e172fdb7bd855f299717,western_union,OXXO TETABIATE CEN,,Ciudad Obregon,SONORA,,MX,+52 81 8389 2121,https://location.westernunion.com/mx/sonora/ciudad-obregon/ea3e374306f7e172fdb7bd855f299717,Mo-Su 08:00-22:00,Western Union,Q861042
9847656794fb310c90b4f2c15bf8309f,western_union,OXXO TETABIATE CEN,,Ciudad Obregon,SONORA,,MX,+52 81 8389 2121,https://location.westernunion.com/mx/sonora/ciudad-obregon/9847656794fb310c90b4f2c15bf8309f,Mo-Su 08:00-22:00,Western Union,Q861042
e7b32f1a20c4ccff8be441f67d578f61,western_union,OXXO HIDALGO CEN,,Ciudad Obregon,SONORA,,MX,+52 81 8389 2121,https://location.westernunion.com/mx/sonora/ciudad-obregon/e7b32f1a20c4ccff8be441f67d578f61,Mo-Su 08:00-22:00,Western Union,Q861042
d4dbe2ff6e123822ffd8bd0eb7b677d0,western_union,OXXO YAQUI CEN,,Ciudad Obregon,SONORA,,MX,+52 81 8389 2121,https://location.westernunion.com/mx/sonora/ciudad-obregon/d4dbe2ff6e123822ffd8bd0eb7b677d0,Mo-Su 08:00-22:00,Western Union,Q861042
c9870a62f2f1f7c17cd7918f88938b7d,western_union,OXXO YAQUI CEN,,Ciudad Obregon,SONORA,,MX,+52 81 8389 2121,https://location.westernunion.com/mx/sonora/ciudad-obregon/c9870a62f2f1f7c17cd7918f88938b7d,Mo-Su 08:00-22:00,Western Union,Q861042
23786bb09c72d01cffa9bad8271f9a91,western_union,OXXO YAQUI CEN,,Ciudad Obregon,SONORA,,MX,+52 81 8389 2121,https://location.westernunion.com/mx/sonora/ciudad-obregon/23786bb09c72d01cffa9bad8271f9a91,Mo-Su 08:00-22:00,Western Union,Q861042
75793f596d6024224b2e35f20c0d1a1c,western_union,OXXO ALLENDE CEN,,Ciudad Obregon,SONORA,,MX,+52 81 8389 2121,https://location.westernunion.com/mx/sonora/ciudad-obregon/75793f596d6024224b2e35f20c0d1a1c,Mo-Su 08:00-22:00,Western Union,Q861042
7ee31eb05e04a235f704dddef07ab511,western_union,OXXO ALLENDE CEN,,Ciudad Obregon,SONORA,,MX,+52 81 8389 2121,https://location.westernunion.com/mx/sonora/ciudad-obregon/7ee31eb05e04a235f704dddef07ab511,Mo-Su 08:00-22:00,Western Union,Q861042
561918f40d19ae6c62e13133ed119ffd,western_union,OXXO ALLENDE CEN,,Ciudad Obregon,SONORA,,MX,+52 81 8389 2121,https://location.westernunion.com/mx/sonora/ciudad-obregon/561918f40d19ae6c62e13133ed119ffd,Mo-Su 08:00-22:00,Western Union,Q861042
321e12702e8e0cd92b51a7836aed4569,western_union,FARM GUAD AV NAINARI,,Cajeme,SONORA,,MX,+52 800 833 4700,https://location.westernunion.com/mx/sonora/cajeme/321e12702e8e0cd92b51a7836aed4569,Mo-Su 09:00-22:00,Western Union,Q861042
f426caeced22013edd47d4272ada3afb,western_union,FARM GUAD AV NAINARI,,Cajeme,SONORA,,MX,+52 800 833 4700,https://location.westernunion.com/mx/sonora/cajeme/f426caeced22013edd47d4272ada3afb,Mo-Su 09:00-22:00,Western Union,Q861042
14196eb80d572eaca7b7f1a85797b30f,western_union,FARM GUAD AV NAINARI,,Cajeme,SONORA,,MX,+52 800 833 4700,https://location.westernunion.com/mx/sonora/cajeme/14196eb80d572eaca7b7f1a85797b30f,Mo-Su 09:00-22:00,Western Union,Q861042
ab7052434f6e602baa99ad325162e3dd,western_union,OXXO LOS SILOS CEN,,Ciudad Obregon,SONORA,,MX,+52 81 8389 2121,https://location.westernunion.com/mx/sonora/ciudad-obregon/ab7052434f6e602baa99ad325162e3dd,Mo-Su 08:00-22:00,Western Union,Q861042
8db6e3fabcb0ed6dbd28d79a29d220ec,western_union,AURRERA OBREGON PONIENTE 4158,,Ciudad Obregon,SONORA,,MX,+52 800 833 4700,https://location.westernunion.com/mx/sonora/ciudad-obregon/8db6e3fabcb0ed6dbd28d79a29d220ec,Mo-Su 07:00-23:00,Western Union,Q861042
be4c249be0b4d33bcd808107163aeb8f,western_union,AURRERA OBREGON PONIENTE 4158,,Ciudad Obregon,SONORA,,MX,+52 800 833 4700,https://location.westernunion.com/mx/sonora/ciudad-obregon/be4c249be0b4d33bcd808107163aeb8f,Mo-Su 07:00-23:00,Western Union,Q861042
97b77013ae2b0ce69a960e3d305f0e7d,western_union,AURRERA OBREGON PONIENTE 4158,,Ciudad Obregon,SONORA,,MX,+52 800 833 4700,https://location.westernunion.com/mx/sonora/ciudad-obregon/97b77013ae2b0ce69a960e3d305f0e7d,Mo-Su 07:00-23:00,Western Union,Q861042
ec89390b1a823b660dc0effbe7dbf6a5,western_union,OXXO HIDALGO CEN,,Ciudad Obregon,SONORA,,MX,+52 81 8389 2121,https://location.westernunion.com/mx/sonora/ciudad-obregon/ec89390b1a823b660dc0effbe7dbf6a5,Mo-Su 08:00-22:00,Western Union,Q861042
add3a87bc65736ec690a9c3693761256,western_union,OXXO CAJEME CEN,,Ciudad Obregon,SONORA,,MX,+52 81 8389 2121,https://location.westernunion.com/mx/sonora/ciudad-obregon/add3a87bc65736ec690a9c3693761256,Mo-Su 08:00-22:00,Western Union,Q861042
fee8dad3077a35006152691a2379dab0,western_union,OXXO CAJEME CEN,,Ciudad Obregon,SONORA,,MX,+52 81 8389 2121,https://location.westernunion.com/mx/sonora/ciudad-obregon/fee8dad3077a35006152691a2379dab0,Mo-Su 08:00-22:00,Western Union,Q861042
6da528575cf21962dd91f7ff581d5a7c,western_union,OXXO CAJEME CEN,,Ciudad Obregon,SONORA,,MX,+52 81 8389 2121,https://location.westernunion.com/mx/sonora/ciudad-obregon/6da528575cf21962dd91f7ff581d5a7c,Mo-Su 08:00-22:00,Western Union,Q861042
b9a6244d6098836a3f1dcb575bb06c47,western_union,OXXO QUINTANA ROO CEN,,Ciudad Obregon,SONORA,,MX,+52 81 8389 2121,https://location.westernunion.com/mx/sonora/ciudad-obregon/b9a6244d6098836a3f1dcb575bb06c47,Mo-Su 08:00-22:00,Western Union,Q861042
80aea0275e96b04e860596110fd02717,western_union,OXXO ESTADIO CEN,,Ciudad Obregon,SONORA,,MX,+52 81 8389 2121,https://location.westernunion.com/mx/sonora/ciudad-obregon/80aea0275e96b04e860596110fd02717,Mo-Su 08:00-22:00,Western Union,Q861042
1b5c811750341a2f0530d80a72a9b61d,western_union,OXXO ESTADIO CEN,,Ciudad Obregon,SONORA,,MX,+52 81 8389 2121,https://location.westernunion.com/mx/sonora/ciudad-obregon/1b5c811750341a2f0530d80a72a9b61d,Mo-Su 08:00-22:00,Western Union,Q861042
707a55e3fc80efd29a5867d51ac24346,western_union,OXXO ESTADIO CEN,,Ciudad Obregon,SONORA,,MX,+52 81 8389 2121,https://location.westernunion.com/mx/sonora/ciudad-obregon/707a55e3fc80efd29a5867d51ac24346,Mo-Su 08:00-22:00,Western Union,Q861042
8d7e1e57fe2fa05fd87231eb557a8102,western_union,OXXO NORTE CEN,,Ciudad Obregon,SONORA,,MX,+52 81 8389 2121,https://location.westernunion.com/mx/sonora/ciudad-obregon/8d7e1e57fe2fa05fd87231eb557a8102,Mo-Su 08:00-22:00,Western Union,Q861042
c4f658527bbce200ab711baf40bcad2b,western_union,OXXO NORTE CEN,,Ciudad Obregon,SONORA,,MX,+52 81 8389 2121,https://location.westernunion.com/mx/sonora/ciudad-obregon/c4f658527bbce200ab711baf40bcad2b,Mo-Su 08:00-22:00,Western Union,Q861042
e1afd6ca29ab3111b81296b329f1e7c2,western_union,OXXO NORTE CEN,,Ciudad Obregon,SONORA,,MX,+52 81 8389 2121,https://location.westernunion.com/mx/sonora/ciudad-obregon/e1afd6ca29ab3111b81296b329f1e7c2,Mo-Su 08:00-22:00,Western Union,Q861042
35a473a0ac0b619398b89704d97193fd,western_union,OXXO CINCUENTENARIO CEN,,Ciudad Obregon,SONORA,,MX,+52 81 8389 2121,https://location.westernunion.com/mx/sonora/ciudad-obregon/35a473a0ac0b619398b89704d97193fd,Mo-Su 08:00-22:00,Western Union,Q861042
593ff4b486342a0a4eb8ab31e98598f3,western_union,OXXO CINCUENTENARIO CEN,,Ciudad Obregon,SONORA,,MX,+52 81 8389 2121,https://location.westernunion.com/mx/sonora/ciudad-obregon/593ff4b486342a0a4eb8ab31e98598f3,Mo-Su 08:00-22:00,Western Union,Q861042
1eb121be0f358973e27405b98d6092ae,western_union,OXXO CINCUENTENARIO CEN,,Ciudad Obregon,SONORA,,MX,+52 81 8389 2121,https://location.westernunion.com/mx/sonora/ciudad-obregon/1eb121be0f358973e27405b98d6092ae,Mo-Su 08:00-22:00,Western Union,Q861042
99896299629738b75a16a692961f72f6,western_union,CASA LEY 1349 SLX TETABIATE,,Ciudad Obregon,SONORA,,MX,+52 667 759 1000,https://location.westernunion.com/mx/sonora/ciudad-obregon/99896299629738b75a16a692961f72f6,Mo-Su 07:00-23:00,Western Union,Q861042
a49b1ef5a422c103c94c18282c85d10f,western_union,CASA LEY 1349 SLX TETABIATE,,Ciudad Obregon,SONORA,,MX,+52 667 759 1000,https://location.westernunion.com/mx/sonora/ciudad-obregon/a49b1ef5a422c103c94c18282c85d10f,Mo-Su 07:00-23:00,Western Union,Q861042
a7ca6f2fe76621550bd4485cbbf6cf3a,western_union,CASA LEY 1349 SLX TETABIATE,,Ciudad Obregon,SONORA,,MX,+52 667 759 1000,https://location.westernunion.com/mx/sonora/ciudad-obregon/a7ca6f2fe76621550bd4485cbbf6cf3a,Mo-Su 07:00-23:00,Western Union,Q861042
9bb8be56c4d8dfae5c3f182f43fa9688,western_union,OXXO NAINARI CEN,,Ciudad Obregon,SONORA,,MX,+52 81 8389 2121,https://location.westernunion.com/mx/sonora/ciudad-obregon/9bb8be56c4d8dfae5c3f182f43fa9688,Mo-Su 08:00-22:00,Western Union,Q861042
0b3f20553278b895a716462e17fa7704,western_union,OXXO NAINARI CEN,,Ciudad Obregon,SONORA,,MX,+52 81 8389 2121,https://location.westernunion.com/mx/sonora/ciudad-obregon/0b3f20553278b895a716462e17fa7704,Mo-Su 08:00-22:00,Western Union,Q861042
6b4053673593e3b0c1790ccecd280b71,western_union,OXXO PLATINO CEN,,Ciudad Obregon,SONORA,,MX,+52 81 8389 2121,https://location.westernunion.com/mx/sonora/ciudad-obregon/6b4053673593e3b0c1790ccecd280b71,Mo-Su 08:00-22:00,Western Union,Q861042
932e58d2e668769cdc5607d509995a02,western_union,OXXO PLATINO CEN,,Ciudad Obregon,SONORA,,MX,+52 81 8389 2121,https://location.westernunion.com/mx/sonora/ciudad-obregon/932e58d2e668769cdc5607d509995a02,Mo-Su 08:00-22:00,Western Union,Q861042
887b16fa8dcb1f29086fead2314dc3e4,western_union,OXXO PLATINO CEN,,Ciudad Obregon,SONORA,,MX,+52 81 8389 2121,https://location.westernunion.com/mx/sonora/ciudad-obregon/887b16fa8dcb1f29086fead2314dc3e4,Mo-Su 08:00-22:00,Western Union,Q861042
e8482d20a2d4431ba0d85c73c682602b,western_union,OXXO PROVIDENCIA CEN,,Ciudad Obregon,SONORA,,MX,+52 81 8389 2121,https://location.westernunion.com/mx/sonora/ciudad-obregon/e8482d20a2d4431ba0d85c73c682602b,Mo-Su 08:00-22:00,Western Union,Q861042
6026bb072a0da8c4eba989d949cfb615,western_union,OXXO PROVIDENCIA CEN,,Ciudad Obregon,SONORA,,MX,+52 81 8389 2121,https://location.westernunion.com/mx/sonora/ciudad-obregon/6026bb072a0da8c4eba989d949cfb615,Mo-Su 08:00-22:00,Western Union,Q861042
26fda55ea756a983426d502d17f366d2,western_union,OXXO PROVIDENCIA CEN,,Ciudad Obregon,SONORA,,MX,+52 81 8389 2121,https://location.westernunion.com/mx/sonora/ciudad-obregon/26fda55ea756a983426d502d17f366d2,Mo-Su 08:00-22:00,Western Union,Q861042
5749a55bccb3175aa885a7ab921770df,western_union,OXXO VILLA CALIFORNIA CEN,,Ciudad Obregon,SONORA,,MX,+52 81 8389 2121,https://location.westernunion.com/mx/sonora/ciudad-obregon/5749a55bccb3175aa885a7ab921770df,Mo-Su 08:00-22:00,Western Union,Q861042
06654564ada6a636059cf5e36b0b7ae1,western_union,OXXO VILLA CALIFORNIA CEN,,Ciudad Obregon,SONORA,,MX,+52 81 8389 2121,https://location.westernunion.com/mx/sonora/ciudad-obregon/06654564ada6a636059cf5e36b0b7ae1,Mo-Su 08:00-22:00,Western Union,Q861042
6e7fdd1239373d1d3e6db752e1a6e871,western_union,OXXO VILLA CALIFORNIA CEN,,Ciudad Obregon,SONORA,,MX,+52 81 8389 2121,https://location.westernunion.com/mx/sonora/ciudad-obregon/6e7fdd1239373d1d3e6db752e1a6e871,Mo-Su 08:00-22:00,Western Union,Q861042
00e79eec820090cb495924b6db518e9b,western_union,OXXO INDUSTRIALES CEN,,Ciudad Obregon,SONORA,,MX,+52 81 8389 2121,https://location.westernunion.com/mx/sonora/ciudad-obregon/00e79eec820090cb495924b6db518e9b,Mo-Su 08:00-22:00,Western Union,Q861042
a17cc142ca2663c24e459f9205287af8,western_union,OXXO INDUSTRIALES CEN,,Ciudad Obregon,SONORA,,MX,+52 81 8389 2121,https://location.westernunion.com/mx/sonora/ciudad-obregon/a17cc142ca2663c24e459f9205287af8,Mo-Su 08:00-22:00,Western Union,Q861042
dc945529e848262eb671a013fb7500bf,western_union,OXXO ESPERANZA CEN,,Ciudad Obregon,SONORA,,MX,+52 81 8389 2121,https://location.westernunion.com/mx/sonora/ciudad-obregon/dc945529e848262eb671a013fb7500bf,Mo-Su 08:00-22:00,Western Union,Q861042
c3fbdb9b1c97cb099ae91486910f73e7,western_union,OXXO ESPERANZA CEN,,Ciudad Obregon,SONORA,,MX,+52 81 8389 2121,https://location.westernunion.com/mx/sonora/ciudad-obregon/c3fbdb9b1c97cb099ae91486910f73e7,Mo-Su 08:00-22:00,Western Union,Q861042
7f866a0c04751f12985286956e1f0360,western_union,OXXO ESPERANZA CEN,,Ciudad Obregon,SONORA,,MX,+52 81 8389 2121,https://location.westernunion.com/mx/sonora/ciudad-obregon/7f866a0c04751f12985286956e1f0360,Mo-Su 08:00-22:00,Western Union,Q861042
8a73b54fa4248b920b02fdc2f0a635fb,western_union,OXXO VILLA BONITA CEN,,Ciudad Obregon,SONORA,,MX,+52 81 8389 2121,https://location.westernunion.com/mx/sonora/ciudad-obregon/8a73b54fa4248b920b02fdc2f0a635fb,Mo-Su 08:00-22:00,Western Union,Q861042
928c8a56e1a91cde42b45702b385b134,western_union,OXXO VILLA BONITA CEN,,Ciudad Obregon,SONORA,,MX,+52 81 8389 2121,https://location.westernunion.com/mx/sonora/ciudad-obregon/928c8a56e1a91cde42b45702b385b134,Mo-Su 08:00-22:00,Western Union,Q861042
2480db25c82f8416deb8bfdb1dd2a31a,western_union,OXXO VILLA BONITA CEN,,Ciudad Obregon,SONORA,,MX,+52 81 8389 2121,https://location.westernunion.com/mx/sonora/ciudad-obregon/2480db25c82f8416deb8bfdb1dd2a31a,Mo-Su 08:00-22:00,Western Union,Q861042
c237057ca997f8a7ce9edabc26197c0a,western_union,OXXO INDUSTRIALES CEN,,Ciudad Obregon,SONORA,,MX,+52 81 8389 2121,https://location.westernunion.com/mx/sonora/ciudad-obregon/c237057ca997f8a7ce9edabc26197c0a,Mo-Su 08:00-22:00,Western Union,Q861042
