Ref,Spider,Name,Address,City,State,Zipcode,Country,Phone,Website,Hours,Brand,WikiData
65714027,moneygram,BOC - #13573 - GDQY QINGXIN SUBBRANCH,,QINGYUAN,,,CN,+86 763 581 4457,,Mo-Fr 09:00-17:00; Sa-Su 10:00-16:00,MoneyGram,Q1944412
65714098,moneygram,BOC - #13569 - GDQY SONGGANG SUBBRANCH,,QINGYUAN,,,CN,+86 763 331 2777,,Mo-Fr 09:00-17:00; Sa-Su 10:00-16:00,MoneyGram,Q1944412
65714218,moneygram,BOC - #13570 - GDQY XINCHENG SUBBRANCH,,QINGYUAN,,,CN,86763581757,,Mo-Fr 09:00-17:00; Sa-Su 10:00-16:00,MoneyGram,Q1944412
65714234,moneygram,BOC - #13571 - GDQY TAIPING SUBBRANCH,,QINGYUAN,,,CN,+86 763 577 0838,,Mo-Fr 09:00-17:00; Sa-Su 10:00-16:00,MoneyGram,Q1944412
65714250,moneygram,BOC - #13560 - GDQY LONGTANG SUBBRANCH,,QINGYUAN,,,CN,+86 763 360 2418,,Mo-Fr 09:00-17:00; Sa-Su 10:00-16:00,MoneyGram,Q1944412
65714289,moneygram,BOC - #13568 - GDQY QINGCHENG SUBBRANCH,,QINGYUAN,,,CN,+86 763 332 0526,,Mo-Fr 09:00-17:00; Sa-Su 10:00-16:00,MoneyGram,Q1944412
65714302,moneygram,BOC - #13559 - GDQY SHIJIAO SUBBRANCH,,QINGYUAN,,,CN,86763322032,,Mo-Fr 09:00-17:00; Sa-Su 10:00-16:00,MoneyGram,Q1944412
65714328,moneygram,BOC - #13557 - GDQY CHENGNAN SUBBRANCH,,QINGYUAN,,,CN,+86 763 333 5460,,Mo-Fr 09:00-17:00; Sa-Su 10:00-16:00,MoneyGram,Q1944412
65714344,moneygram,BOC - #13558 - GDQY BEIMEN SUBBRANCH,,QINGYUAN,,,CN,+86 763 333 2434,,Mo-Fr 09:00-17:00; Sa-Su 10:00-16:00,MoneyGram,Q1944412
65714373,moneygram,BOC - #13563 - GDQY YINQUANLU SUBBRANCH,,QINGYUAN,,,CN,+86 763 338 3397,,Mo-Fr 09:00-17:00; Sa-Su 10:00-16:00,MoneyGram,Q1944412
65714409,moneygram,BOC - #13562 - GDQY SHUGUANGSUBBRANCH,,QINGYUAN,,,CN,+86 763 333 1677,,Mo-Fr 09:00-17:00; Sa-Su 10:00-16:00,MoneyGram,Q1944412
65714454,moneygram,BOC - #13564 - GDQY JINBIWAN SUBBRANCH,,QINGYUAN,,,CN,+86 763 333 0210,,Mo-Fr 09:00-17:00; Sa-Su 10:00-16:00,MoneyGram,Q1944412
65714483,moneygram,BOC - #13554 - GDQY QIAONAN SUBBRANCH,,QINGYUAN,,,CN,+86 763 385 8083,,Mo-Fr 09:00-17:00; Sa-Su 10:00-16:00,MoneyGram,Q1944412
65714535,moneygram,BOC - #13555 - GDQY LUMING SUBBRANCH,,QINGYUAN,,,CN,+86 763 336 4700,,Mo-Fr 09:00-17:00; Sa-Su 10:00-16:00,MoneyGram,Q1944412
65714564,moneygram,BOC - #13561 - GDQY LIANJIANGLU SUBBRANC,,QINGYUAN,,,CN,+86 763 336 5877,,Mo-Fr 09:00-17:00; Sa-Su 10:00-16:00,MoneyGram,Q1944412
65714603,moneygram,BOC - #13566 - GDQY RENMINERLU SUBBRANCH,,QINGYUAN,,,CN,+86 763 336 3672,,Mo-Fr 09:00-17:00; Sa-Su 10:00-16:00,MoneyGram,Q1944412
65714632,moneygram,BOC - #13556 - GDQY HUAQINGSUBBRANCH,,QINGYUAN,,,CN,86763689120,,Mo-Fr 09:00-17:00; Sa-Su 10:00-16:00,MoneyGram,Q1944412
65714674,moneygram,BOC - #33813 - GDQY SUBBRANCH OPERATION,,QINGYUAN,,,CN,+86 763 386 4314,,Mo-Fr 09:00-17:00; Sa-Su 10:00-16:00,MoneyGram,Q1944412
65714690,moneygram,BOC - #13567 - GDQY BIGUIYUAN SUBBRANCH,,QINGYUAN,,,CN,+86 763 383 6113,,Mo-Fr 09:00-17:00; Sa-Su 10:00-16:00,MoneyGram,Q1944412
65715521,moneygram,BOC - #13639 - GDQY RENMINLU SUBBRANCH,,QINGYUAN,,,CN,+86 763 336 3672,,Mo-Fr 09:00-17:00; Sa-Su 10:00-16:00,MoneyGram,Q1944412
