Ref,Spider,Name,Address,City,State,Zipcode,Country,Phone,Website,Hours,Brand,WikiData
https://stores.advanceautoparts.com/il/grayslake/995-e-belvidere-rd,advance_auto_parts_us,Advance Auto Parts,,Grayslake,IL,,US,+1 847-223-2353,https://stores.advanceautoparts.com/il/grayslake/995-e-belvidere-rd,Mo-Sa 07:30-21:00; Su 09:00-20:00,Advance Auto Parts,Q4686051
https://local.pharmacy.jewelosco.com/#5672948,albertsons,Jewel-Osco Pharmacy,,Grayslake,IL,,US,+1 847-543-9082,https://local.pharmacy.jewelosco.com/il/grayslake/885-e-belvidere-rd.html,Mo-Fr 08:00-22:00; Sa 09:00-18:00; Su 09:00-17:00,Jewel-Osco,Q3178470
https://local.jewelosco.com/#5603746,albertsons,Jewel-Osco,,Grayslake,IL,,US,+1 847-543-8976,https://local.jewelosco.com/il/grayslake/885-e-belvidere-rd.html,"Mo-Fr 06:00-24:00,08:00-22:00; Sa 06:00-24:00,09:00-18:00; Su 06:00-24:00,09:00-17:00",Jewel-Osco,Q3178470
https://locations.arbys.com/il/grayslake/1874-belvidere-rd.html,arbys_us,"Arby's Fast-Food Drive Through Near You in Grayslake, IL",,Grayslake,IL,,US,+1 847-548-1742,https://locations.arbys.com/il/grayslake/1874-belvidere-rd.html,Mo-Sa 10:00-23:00; Su 10:00-22:00,Arby's,Q630866
https://locations.atipt.com/grayslake-il,ati_physical_therapy,ATI Physical Therapy Grayslake 1121,,Grayslake,IL,,US,+1 847-665-3018,https://locations.atipt.com/grayslake-il,,ATI Physical Therapy,Q50039703
https://locators.bankofamerica.com/il/grayslake/financial-centers-grayslake-16391.html,bankofamerica,Bank of America Financial Center & Drive-Thru ATM | Grayslake,,Grayslake,IL,,US,+1 847-548-8329,https://locators.bankofamerica.com/il/grayslake/financial-centers-grayslake-16391.html,Mo-Fr 10:00-16:00,Bank of America,Q487907
https://locations.baskinrobbins.com/il/grayslake/817-e-belvidere-rd-342052-br,baskin_robbins_us,Baskin-Robbins™,,Grayslake,IL,,US,+1 847-230-0313,https://locations.baskinrobbins.com/il/grayslake/817-e-belvidere-rd-342052-br,Mo-Su 04:00-22:00,Baskin-Robbins,Q584601
https://locations.baskinrobbins.com/il/third-lake/34484-n-us-highway-45-340378-br,baskin_robbins_us,Baskin-Robbins™,,Third Lake,IL,,US,+1 847-223-5353,https://locations.baskinrobbins.com/il/third-lake/34484-n-us-highway-45-340378-br,Mo-Su 04:00-21:00,Baskin-Robbins,Q584601
209330,bluerhino,Lake County Oil,,Hainesville,IL,,US,+1 847-223-3173,,,Blue Rhino,Q65681213
156140,bluerhino,Walgreens #7824,,Hainesville,IL,,US,+1 847-223-0612,,,Blue Rhino,Q65681213
154952,bluerhino,Walgreens #5106,,GRAYSLAKE,IL,,US,+1 847-231-4122,,,Blue Rhino,Q65681213
240572,bluerhino,Circle K #4706883,,Grayslake,IL,,US,+1 847-543-4137,,,Blue Rhino,Q65681213
169605,bluerhino,Ace Hardware of Grayslake #11220,,Grayslake,IL,,US,+1 847-543-1129,,,Blue Rhino,Q65681213
156128,bluerhino,Walgreens #2985,,Grayslake,IL,,US,+1 847-223-9261,,,Blue Rhino,Q65681213
240571,bluerhino,Circle K #4706743,,Grayslake,IL,,US,+1 847-543-1286,,,Blue Rhino,Q65681213
96418994823206003000100000000000,bp,BP,,Grayslake,IL,,US,+1 847-543-4975,,24/7,BP,Q152057
81835392172756003000100000000000,bp,BP,,Grayslake,IL,,US,+1 847-548-0064,,Mo-Su 07:00-22:00,BP,Q152057
0802,carpet_one_floor_and_home_us,Floor Decor Carpet One Floor & Home,,Grayslake,IL,,US,+1 847-265-7493,https://www.floordecorcarpetonelindenhurst.com/,,Carpet One Floor & Home,Q121335910
2042764,chase_us,Grayslake - New branch,,Grayslake,IL,,US,+1 847-548-8557,https://locator.chase.com/il/grayslake/975-e-belvidere-rd,Mo-Fr 09:00-17:00; Sa 09:00-14:00,Chase,Q524629
55587,chevrolet,CITY CHEVROLET OF GRAYSLAKE,,GRAYSLAKE,IL,,US,+1 847-223-8651,https://www.citychevroletofgrayslake.com/,Mo-Th 09:00-20:00; Fr 09:00-19:00; Sa 09:00-18:00,Chevrolet,Q29570
50433,citi,ATM CVS,,Third Lake,IL,,US,,,,Citibank,Q857063
89822,citi,ATM Walgreens,,Grayslake,IL,,US,,,,Citibank,Q857063
91259,citi,ATM Walgreens,,Grayslake,IL,,US,,,,Citibank,Q857063
25373,citi,ATM 7ELEVEN-FCTI,,Grayslake,IL,,US,,,,Citibank,Q857063
41179,citi,ATM Circle K,,Grayslake,IL,,US,,,,Citibank,Q857063
80756,citi,ATM STATE BANK OF THE LAKES,,Grayslake,IL,,US,,,,Citibank,Q857063
80755,citi,ATM STATE BANK OF THE LAKES,,Grayslake,IL,,US,,,,Citibank,Q857063
44326,citi,ATM Circle K,,Grayslake,IL,,US,,,,Citibank,Q857063
90770,citi,ATM Walgreens,,Hainesville,IL,,US,,,,Citibank,Q857063
33519,citi,ATM 7ELEVEN-FCTI,,Hainesville,IL,,US,,,,Citibank,Q857063
133,culvers_us,"Culver's of Grayslake, IL - N IL Rte 83",,Grayslake,IL,,US,+1 847-548-1025,http://www.culvers.com/restaurants/grayslake,Mo-Th 10:00-22:00; Fr 10:00-23:00; Su 10:00-22:00,Culver's,Q1143589
7436,dollartree,DollarTree,,Grayslake,IL,,US,+1 847-231-1166,,Mo-Sa 09:00-21:00; Su 10:00-21:00,Dollar Tree,Q5289230
2926,dominos_pizza_us,Domino's Pizza,,Grayslake,IL,,US,+1 847-223-3300,https://pizza.dominos.com/illinois/grayslake/229-barron-blvd,Mo-Th 10:30-24:00; Fr-Sa 10:30-01:00; Su 10:30-24:00,Domino's,Q839466
342052,dunkin_us,Dunkin',,Grayslake,IL,,US,+1 847-230-0313,https://locations.dunkindonuts.com/en/il/grayslake/817-e-belvidere-rd/342052,Mo-Su 04:00-22:00,Dunkin',Q847743
340378,dunkin_us,Dunkin',,Third Lake,IL,,US,+1 847-223-5353,https://locations.dunkindonuts.com/en/il/third-lake/34484-n-us-highway-45/340378,Mo-Su 04:00-21:00,Dunkin',Q847743
356800,dunkin_us,Dunkin',,Hainesville,IL,,US,+1 847-772-0143,https://locations.dunkindonuts.com/en/il/hainesville/83-w-belvidere-rd/356800,Mo-Su 04:00-20:00,Dunkin',Q847743
https://www.edwardjones.com/us-en/financial-advisor/rick-melone,edwardjones,Rick J Melone,,Grayslake,IL,,US,+1 847-223-2580,https://www.edwardjones.com/us-en/financial-advisor/rick-melone,Mo-Th 09:00-16:30; Fr 09:00-15:30,Edward Jones,Q5343830
200329256,exxonmobil,GRAYSLAKE GAS,,GRAYSLAKE,IL,,US,+1 224-623-9823,https://www.exxon.com/en/find-station/mobil-grayslake-il-grayslakegas-200329256,Mo-Fr 05:00-00:00; Sa-Su 06:00-00:00,Mobil,Q109676002
200322997,exxonmobil,7-ELEVEN 33131,,HAINESVILLE,IL,,US,+1 847-543-8399,https://www.exxon.com/en/find-station/exxon-hainesville-il-7eleven33131-200322997,24/7,Exxon,Q109675651
200313823,exxonmobil,HAINESVILLE MOBIL,,HAINESVILLE,IL,,US,+1 847-223-3173,https://www.exxon.com/en/find-station/mobil-hainesville-il-hainesvillemobil-200313823,Mo-Th 05:00-23:00; Fr-Sa 05:00-00:00; Su 06:00-23:00,Mobil,Q109676002
https://local.fedex.com/#25199900,fedex,,,Hainesville,IL,,US,+1 800-463-3339,https://local.fedex.com/en-us/il/hainesville/r7hc6,,FedEx,Q459477
https://local.fedex.com/#25204752,fedex,,,Grayslake,IL,,US,+1 800-463-3339,https://local.fedex.com/en-us/il/grayslake/r5ea2,,FedEx,Q459477
https://local.fedex.com/#25197874,fedex,,,Grayslake,IL,,US,+1 800-463-3339,https://local.fedex.com/en-us/il/grayslake/r258s,,FedEx,Q459477
https://local.fedex.com/#25476991,fedex,,,Grayslake,IL,,US,+1 800-463-3339,https://local.fedex.com/en-us/il/grayslake/fepje,,FedEx,Q459477
101006,fresenius_kidney_care_us,Fresenius Kidney Care Grayslake,,Grayslake,IL,,US,+1 800-881-5101,https://www.freseniuskidneycare.com/dialysis-centers/illinois/101006,Mo 05:00-21:00; Tu 09:00-16:00; We 05:00-21:00; Th 09:00-16:00; Fr 05:00-21:00; Sa 09:00-16:00,,
https://salons.greatclips.com/us/il/grayslake/823-center-st,greatclips,Great Clips,,Grayslake,IL,,US,+1 847-548-4084,https://salons.greatclips.com/us/il/grayslake/823-center-st,Mo-Fr 09:00-20:00; Sa 08:00-18:00; Su 09:00-17:00,Great Clips,Q5598967
23568,huntingtonbank,Grayslake,,Grayslake,IL,,US,+1 847-543-7900,https://www.huntington.com/Community/branch-info?locationId=23568,Mo-Fr 09:00-17:00; Sa 09:00-12:00; Su 00:00-00:00,Huntington Bank,Q798819
13324,h_r_block,H&R Block,,Grayslake,IL,,US,+1 847-548-8442,https://www.hrblock.com/local-tax-offices/illinois/grayslake/jewel-shopping-center/13324/,,H&R Block,Q5627799
https://locations.jimmyjohns.com/il/grayslake/sandwiches-388.html,jimmy_johns,Jimmy John's,,Grayslake,IL,,US,+1 847-223-8662,https://locations.jimmyjohns.com/il/grayslake/sandwiches-388.html,,Jimmy John's,Q1689380
000301,kindercare,Grayslake KinderCare,,Grayslake,IL,,US,,https://www.kindercare.com/our-centers/grayslake/il/000301,,KinderCare Learning Centers,Q6410551
157702,marathon_petroleum_us,THIRD LAKE FUELS INC,,THIRD LAKE,IL,,US,+1 847-543-0959,,,Marathon,Q458363
https://locations.massageenvy.com/#6676447,massage_envy,Massage Envy Grayslake,,Grayslake Grayslake,IL,,US,+1 224-259-2200,https://locations.massageenvy.com/illinois/grayslake/811-e-belvidere-rd.html,Mo-Fr 09:00-21:00; Sa-Su 08:00-18:00,Massage Envy,Q10327170
4702,mightyflame,THORNTONS #308,,THIRD LAKE,IL,,US,+1 847-543-4808,,,Mighty Flame,
66008732,moneygram,CVS - #2900,,GRAYSLAKE,IL,,US,+1 847-543-5440,,Mo-Su 08:00-22:00,MoneyGram,Q1944412
146-center-st,my_eye_dr,,,Grayslake,IL,,US,+1 847-548-2770,https://locations.myeyedr.com/il/grayslake/146-center-st,,MyEyeDr.,Q117864710
https://locations.noodles.com/il/grayslake/804-e-belvidere-road.html,noodles_and_company_us,Noodles & Company Grayslake,,Grayslake,IL,,US,+1 224-252-0626,https://locations.noodles.com/il/grayslake/804-e-belvidere-road.html,Mo-We 10:30-21:00; Th-Sa 10:30-22:00; Su 10:30-21:00,Noodles and Company,Q7049673
https://locations.oreillyauto.com/il/grayslake/check-engine-light-testing-6244.html,oreilly,Your Grayslake O'Reilly Auto Parts Store,,Grayslake,IL,,US,+1 847-752-3002,https://locations.oreillyauto.com/il/grayslake/check-engine-light-testing-6244.html,Mo-Sa 07:30-21:00; Su 08:00-20:00,O'Reilly Auto Parts,Q7071951
https://locations.oreillyauto.com/il/grayslake/wiper-installation-6244.html,oreilly,Your Grayslake O'Reilly Auto Parts Store,,Grayslake,IL,,US,+1 847-752-3002,https://locations.oreillyauto.com/il/grayslake/wiper-installation-6244.html,Mo-Sa 07:30-21:00; Su 08:00-20:00,O'Reilly Auto Parts,Q7071951
https://locations.oreillyauto.com/il/grayslake/battery-testing-6244.html,oreilly,Your Grayslake O'Reilly Auto Parts Store,,Grayslake,IL,,US,+1 847-752-3002,https://locations.oreillyauto.com/il/grayslake/battery-testing-6244.html,Mo-Sa 07:30-21:00; Su 08:00-20:00,O'Reilly Auto Parts,Q7071951
https://locations.oreillyauto.com/il/grayslake/autopartes-6244.html,oreilly,O'Reilly Auto Parts,,Grayslake,IL,,US,+1 847-752-3002,https://locations.oreillyauto.com/il/grayslake/autopartes-6244.html,Mo-Sa 07:30-21:00; Su 08:00-20:00,O'Reilly Auto Parts,Q7071951
https://locations.papajohns.com/#10693208,papa_johns,Papa John's,,Grayslake,IL,,US,+1 847-548-7272,https://locations.papajohns.com/united-states/il/60030/grayslake/1276-n-il-route-83,Mo-Th 09:30-24:00; Fr-Sa 09:30-01:00; Su 09:30-24:00,Papa John's Pizza,Q2759586
https://restaurants.subway.com/#14899292,subway,Subway,,Hainesville Lake,IL,,US,+1 847-548-0754,https://restaurants.subway.com/united-states/il/hainesville/13-west-belvidere-rd,Mo-Su 08:30-21:30,Subway,Q244457
https://restaurants.subway.com/#14895546,subway,Subway,,Grayslake Lake,IL,,US,+1 847-548-2556,https://restaurants.subway.com/united-states/il/grayslake/1818-e-belvidere-rd,Mo-Fr 09:00-21:30; Sa 09:00-21:00; Su 09:30-21:00,Subway,Q244457
https://locations.tacobell.com/#6146911,taco_bell,Taco Bell,,Grayslake,IL,,US,+1 847-548-2290,https://locations.tacobell.com/il/grayslake/115-s--state-route-83.html,Mo-Th 07:00-02:00; Fr-Sa 07:00-03:00; Su 07:00-02:00,Taco Bell,Q752941
3882,upsstore,Grayslake,1862 E Belvidere Rd,Grayslake,IL,,US,+1 847-231-5680,https://locations.theupsstore.com/il/grayslake/1862-e-belvidere-rd,,UPS Store,Q7771029
1365481,usps,GRAYSLAKE,,GRAYSLAKE,IL,,US,+1 847-223-2787,,Mo-Fr 08:00-18:00; Sa 09:00-14:00,United States Postal Service,Q668687
6003000025,usps_collection_boxes,USPS COLLECTION BOX - BLUE BOX,1108 E WASHINGTON ST,HAINESVILLE,IL,,US,,,,United States Postal Service,Q668687
6003000008,usps_collection_boxes,USPS COLLECTION BOX - BLUE BOX,19351 W WASHINGTON ST,HAINESVILLE,IL,,US,,,,United States Postal Service,Q668687
6003000030,usps_collection_boxes,USPS COLLECTION BOX - PO LOBBY,75 COMMERCE DR,HAINESVILLE,IL,,US,,,,United States Postal Service,Q668687
6003000011,usps_collection_boxes,USPS COLLECTION BOX - BLUE BOX,1900 COUNTRY DR,HAINESVILLE,IL,,US,,,,United States Postal Service,Q668687
6003000001,usps_collection_boxes,USPS COLLECTION BOX - BLUE BOX,75 COMMERCE DR,HAINESVILLE,IL,,US,,,,United States Postal Service,Q668687
6003000020,usps_collection_boxes,USPS COLLECTION BOX - PO LOBBY,75 COMMERCE DR,HAINESVILLE,IL,,US,,,,United States Postal Service,Q668687
6003000021,usps_collection_boxes,USPS COLLECTION BOX - PO LOBBY,75 COMMERCE DR,HAINESVILLE,IL,,US,,,,United States Postal Service,Q668687
6003000024,usps_collection_boxes,USPS COLLECTION BOX - APC,75 COMMERCE DR,HAINESVILLE,IL,,US,,,,United States Postal Service,Q668687
6003000003,usps_collection_boxes,USPS COLLECTION BOX - BLUE BOX,202 CENTER ST,HAINESVILLE,IL,,US,,,,United States Postal Service,Q668687
6003000013,usps_collection_boxes,USPS COLLECTION BOX - BLUE BOX,888 E BELVIDERE RD,HAINESVILLE,IL,,US,,,,United States Postal Service,Q668687
6003000023,usps_collection_boxes,USPS COLLECTION BOX - BLUE BOX,260 E BELVIDERE RD,HAINESVILLE,IL,,US,,,,United States Postal Service,Q668687
,visa,,,GAGES LAKE,IL,,US,,,,,
,visa,,,GRAYSLAKE,IL,,US,,,,,
,visa,,,GAGES LAKE,IL,,US,,,,,
,visa,,,GAGES LAKE,IL,,US,,,,,
,visa,,,GAGES LAKE,IL,,US,,,,,
,visa,,,GAGES LAKE,IL,,US,,,,,
,visa,,,MUNDELEIN,IL,,US,,,,,
,visa,,,THIRD LAKE,IL,,US,,,,,
,visa,,,THIRD LAKE,IL,,US,,,,,
,visa,,,THIRD LAKE,IL,,US,,,,,
,visa,,,GRAYSLAKE,IL,,US,,,,,
,visa,,,GRAYSLAKE,IL,,US,,,,,
,visa,,,THIRD LAKE,IL,,US,,,,,
,visa,,,THIRD LAKE,IL,,US,,,,,
,visa,,,GRAYSLAKE,IL,,US,,,,,
,visa,,,GRAYSLAKE,IL,,US,,,,,
,visa,,,GRAYSLAKE,IL,,US,,,,,
,visa,,,GRAYSLAKE,IL,,US,,,,,
,visa,,,GRAYSLAKE,IL,,US,,,,,
,visa,,,GRAYSLAKE,IL,,US,,,,,
,visa,,,THIRD LAKE,IL,,US,,,,,
,visa,,,GRAYSLAKE,IL,,US,,,,,
,visa,,,GRAYSLAKE,IL,,US,,,,,
,visa,,,GRAYSLAKE,IL,,US,,,,,
,visa,,,GRAYSLAKE,IL,,US,,,,,
,visa,,,GRAYSLAKE,IL,,US,,,,,
,visa,,,GRAYSLAKE,IL,,US,,,,,
,visa,,,GRAYSLAKE,IL,,US,,,,,
,visa,,,GRAYSLAKE,IL,,US,,,,,
,visa,,,GRAYSLAKE,IL,,US,,,,,
,visa,,,GRAYSLAKE,IL,,US,,,,,
,visa,,,GRAYSLAKE,IL,,US,,,,,
,visa,,,GRAYSLAKE,IL,,US,,,,,
,visa,,,GRAYSLAKE,IL,,US,,,,,
,visa,,,GRAYSLAKE,IL,,US,,,,,
,visa,,,GRAYSLAKE,IL,,US,,,,,
,visa,,,GRAYSLAKE,IL,,US,,,,,
,visa,,,GRAYSLAKE,IL,,US,,,,,
,visa,,,GRAYS LAKE,IL,,US,,,,,
,visa,,,GRAYSLAKE,IL,,US,,,,,
,visa,,,GRAYSLAKE,IL,,US,,,,,
,visa,,,GRAYSLAKE,IL,,US,,,,,
,visa,,,HAINESVILLE,IL,,US,,,,,
,visa,,,GRAYSLAKE,IL,,US,,,,,
,visa,,,GRAYSLAKE,IL,,US,,,,,
,visa,,,GRAYSLAKE,IL,,US,,,,,
,visa,,,HAINESVILLE,IL,,US,,,,,
,visa,,,GRAYSLAKE,IL,,US,,,,,
,visa,,,HAINESVILLE,IL,,US,,,,,
https://www.walgreens.com/locator/walgreens-40+e+belvidere+rd-hainesville-il-60030/id=7824,walgreens,Walgreens,,Hainesville,IL,,US,+1 847-223-0612,https://www.walgreens.com/locator/walgreens-40+e+belvidere+rd-hainesville-il-60030/id=7824,Mo-Fr 07:00-23:00; Sa-Su 07:00-22:00,Walgreens,Q1591889
https://www.walgreens.com/locator/walgreens-295+s+us+highway+45-grayslake-il-60030/id=2985,walgreens,Walgreens,,Grayslake,IL,,US,+1 847-223-9261,https://www.walgreens.com/locator/walgreens-295+s+us+highway+45-grayslake-il-60030/id=2985,Mo-Su 07:00-22:00,Walgreens,Q1591889
https://www.walgreens.com/locator/walgreens-460+e+washington+st-grayslake-il-60030/id=5106,walgreens,Walgreens,,Grayslake,IL,,US,+1 847-231-4122,https://www.walgreens.com/locator/walgreens-460+e+washington+st-grayslake-il-60030/id=5106,Mo-Su 07:00-22:00,Walgreens,Q1591889
