Ref,Spider,Name,Address,City,State,Zipcode,Country,Phone,Website,Hours,Brand,WikiData
19e773cbede9e489d31bac029862c13f,western_union,YA HALA,,Bire,NORTH LEBANON,,LB,(+961) 1262,https://location.westernunion.com/lb/north-lebanon/bire/19e773cbede9e489d31bac029862c13f,Mo-Su 08:00-24:00,Western Union,Q861042
c3d9b471a22d85606f2bac7085550004,western_union,FADI FOR GENERAL TRADING KFARHIM,,Kfarhim,NORTH LEBANON,,LB,+961 1 391 000,https://location.westernunion.com/lb/north-lebanon/kfarhim/c3d9b471a22d85606f2bac7085550004,Mo-Su 08:00-22:00,Western Union,Q861042
3d755d778b1e25a4484ad2db367f7aa2,western_union,ISSA CELL STORE  HADATH,,Hadath,NORTH LEBANON,,LB,+961 1 391 000,https://location.westernunion.com/lb/north-lebanon/hadath/3d755d778b1e25a4484ad2db367f7aa2,Mo-Sa 08:00-22:00; Su 12:00-20:00,Western Union,Q861042
c2e3e03b88f276f9e3e22c443ee3f3f4,western_union,ATTIEH FOR TRADING AND SERVICES STORE,,Batroun,NORTH LEBANON,,LB,(+961) 5-1391000,https://location.westernunion.com/lb/north-lebanon/batroun/c2e3e03b88f276f9e3e22c443ee3f3f4,Mo-Sa 09:00-19:00; Su 11:00-20:00,Western Union,Q861042
ddc5d84aaced230b99ed6bd3430c9091,western_union,B. MOBILE STORE BATROUN,,Batroun,NORTH LEBANON,,LB,+961 70 322 144,https://location.westernunion.com/lb/north-lebanon/batroun/ddc5d84aaced230b99ed6bd3430c9091,Mo-Su 08:00-22:00,Western Union,Q861042
7bad7147b616938a5e5cdbf5487ead81,western_union,J . M TRADING,,Thoum,NORTH LEBANON,,LB,(+961) 5-03484414,https://location.westernunion.com/lb/north-lebanon/thoum/7bad7147b616938a5e5cdbf5487ead81,Mo-Su 08:00-24:00,Western Union,Q861042
18b8d47f99f40fe131c3d328fe2f19c2,western_union,BOB M3 MASTITA   JS,,Jbeit - Mastita,NORTH LEBANON,,LB,(+961) 1262,https://location.westernunion.com/lb/north-lebanon/jbeit---mastita/18b8d47f99f40fe131c3d328fe2f19c2,Mo-Su 08:00-24:00,Western Union,Q861042
bf2e4cc02a9b0e3be4af096de349a2fb,western_union,BOB M3 BATROUN   FD,,Batroun,NORTH LEBANON,,LB,(+961) 1262,https://location.westernunion.com/lb/north-lebanon/batroun/bf2e4cc02a9b0e3be4af096de349a2fb,Mo-Su 08:00-24:00,Western Union,Q861042
5725dc3788f78fd5fc81f20bb6d6f958,western_union,LINK,,Batroun,NORTH LEBANON,,LB,+961 5 955 262,https://location.westernunion.com/lb/north-lebanon/batroun/5725dc3788f78fd5fc81f20bb6d6f958,Mo-Su 09:00-24:00,Western Union,Q861042
ca8454af57689a79f3f7afe233a3f89e,western_union,ESB-LB,,Batroun,NORTH LEBANON,,LB,(+961) 1262,https://location.westernunion.com/lb/north-lebanon/batroun/ca8454af57689a79f3f7afe233a3f89e,Mo-Su 08:00-24:00,Western Union,Q861042
3759874cd12d32235d0305cfda5576c8,western_union,CARLA MAKARY TRADING STORE BATROUN,,Batroun,NORTH LEBANON,,LB,+961 71 424 043,https://location.westernunion.com/lb/north-lebanon/batroun/3759874cd12d32235d0305cfda5576c8,Mo-Su 08:00-22:00,Western Union,Q861042
6caf441731dd354f2042c622a3083c03,western_union,ST JOSEPH LIBRARY,,Batroun,NORTH LEBANON,,LB,+961 5 955 262,https://location.westernunion.com/lb/north-lebanon/batroun/6caf441731dd354f2042c622a3083c03,Mo-Sa 07:00-20:00,Western Union,Q861042
d3fc6de93e03cc6aed449752f8361902,western_union,NAJIB FARAH FOR TRADING AND SERVICES,,Batroun,NORTH LEBANON,,LB,(+961) 1262,https://location.westernunion.com/lb/north-lebanon/batroun/d3fc6de93e03cc6aed449752f8361902,Mo-Su 08:00-24:00,Western Union,Q861042
3c958b625c9d61160025a6a8eadf937c,western_union,JSM STORE BATROUN,,Batroun,NORTH LEBANON,,LB,+961 3 122 704,https://location.westernunion.com/lb/north-lebanon/batroun/3c958b625c9d61160025a6a8eadf937c,Mo-Su 08:00-22:00,Western Union,Q861042
453bac9dcfda5fee76b6b5ed9aef1456,western_union,A D SCRAP STORE BATROUN,,Batroun,NORTH LEBANON,,LB,(+961) 5-3943237,https://location.westernunion.com/lb/north-lebanon/batroun/453bac9dcfda5fee76b6b5ed9aef1456,Mo-Su 08:00-23:00,Western Union,Q861042
f40f12d2bd3434ab83152bbea76f27c8,western_union,QUICK CLEANING S A R L  BATROUN,,Batroun,NORTH LEBANON,,LB,+961 3 481 888,https://location.westernunion.com/lb/north-lebanon/batroun/f40f12d2bd3434ab83152bbea76f27c8,Mo-Su 08:00-22:00,Western Union,Q861042
573d7553fa5de2eefafc5d402a374116,western_union,JOSEPH ELIAS SABA FOR TRADING,,Batroun,NORTH LEBANON,,LB,+961 1 391 000,https://location.westernunion.com/lb/north-lebanon/batroun/573d7553fa5de2eefafc5d402a374116,Mo-Su 00:01-24:00,Western Union,Q861042
7b7b8daeea30212b2dc7a0ca0eb65fbe,western_union,BOB M3 AGROPHYT   JRAN,,Jrane,NORTH LEBANON,,LB,(+961) 1262,https://location.westernunion.com/lb/north-lebanon/jrane/7b7b8daeea30212b2dc7a0ca0eb65fbe,Mo-Su 08:00-24:00,Western Union,Q861042
030a5932b2b9e6b3ccb3366d0f587e60,western_union,DIALA TANNOUS FOR GENERAL TRADING,,Aabrin,NORTH LEBANON,,LB,+961 1 391 000,https://location.westernunion.com/lb/north-lebanon/aabrin/030a5932b2b9e6b3ccb3366d0f587e60,Mo-Su 09:00-23:00,Western Union,Q861042
d46d78c7718d379dac6be41ee4f83a1c,western_union,SECRET PARADISE S.A.R.L MADFOUN,,Madfoun,NORTH LEBANON,,LB,+961 70 666 567,https://location.westernunion.com/lb/north-lebanon/madfoun/d46d78c7718d379dac6be41ee4f83a1c,Mo-Su 08:00-22:00,Western Union,Q861042
a7d6e98b09d9b294a02e9d0b9a66d444,western_union,RAJBIEH PETROLEUM,,Kalamoun,NORTH LEBANON,,LB,(+961) 5-76150450,https://location.westernunion.com/lb/north-lebanon/kalamoun/a7d6e98b09d9b294a02e9d0b9a66d444,Mo-Su 08:00-24:00,Western Union,Q861042
3a8a53e2dddcaa5f88a4da76cbe868a0,western_union,GIL   TECH STORE  DEDDEH,,Deddeh,NORTH LEBANON,,LB,+961 1 391 000,https://location.westernunion.com/lb/north-lebanon/deddeh/3a8a53e2dddcaa5f88a4da76cbe868a0,Mo-Sa 09:00-21:00; Su 15:00-21:00,Western Union,Q861042
1a31133410c150ec9a3957cfb3136cbf,western_union,SFGNET,,Deddeh,NORTH LEBANON,,LB,+961 5 955 262,https://location.westernunion.com/lb/north-lebanon/deddeh/1a31133410c150ec9a3957cfb3136cbf,Mo-Su 08:00-22:00,Western Union,Q861042
c3137bea957232d8ed1bc7946272008a,western_union,BOB M3 ZAKARIA FOR COMMUNICATION   QALAM,,Qalamoun,NORTH LEBANON,,LB,(+961) 1262,https://location.westernunion.com/lb/north-lebanon/qalamoun/c3137bea957232d8ed1bc7946272008a,Mo-Su 08:00-24:00,Western Union,Q861042
09a8bd251935c22629c35a1db43eeca3,western_union,BUILDERS CASE S.A.R.L [FIH],,Fiaa,NORTH LEBANON,,LB,+961 70 413 141,https://location.westernunion.com/lb/north-lebanon/fiaa/09a8bd251935c22629c35a1db43eeca3,Mo-Su 08:00-22:00,Western Union,Q861042
1f6ad3dc50317f19c5d66921930d1aa8,western_union,BOB M3 NOUR GENERAL TRADING   QALAMOUN,,Kalamoun,NORTH LEBANON,,LB,(+961) 1262,https://location.westernunion.com/lb/north-lebanon/kalamoun/1f6ad3dc50317f19c5d66921930d1aa8,Mo-Su 08:00-24:00,Western Union,Q861042
af79fb1f4259f14e24ed3b723404837d,western_union,CARLA MAKARY TRADING IV [KFARHAZIR],,Kfar Hazir,NORTH LEBANON,,LB,+961 70 001 117,https://location.westernunion.com/lb/north-lebanon/kfar-hazir/af79fb1f4259f14e24ed3b723404837d,Mo-Su 08:00-22:00,Western Union,Q861042
2496e4d2ae8af3cdd45789e6949bba8b,western_union,CARLA MAKARY TRADING STORE II BATROUN,,Chekka,NORTH LEBANON,,LB,+961 71 424 043,https://location.westernunion.com/lb/north-lebanon/chekka/2496e4d2ae8af3cdd45789e6949bba8b,Mo-Su 08:00-22:00,Western Union,Q861042
36951a1cee930f3887a74605024d89a0,western_union,EMILE ABDALLAH FOR TRADING EST CHEKKA,,Chekka,NORTH LEBANON,,LB,+961 70 417 441,https://location.westernunion.com/lb/north-lebanon/chekka/36951a1cee930f3887a74605024d89a0,Mo-Su 08:00-22:00,Western Union,Q861042
73592f317d87dd697f100dba8c3bffff,western_union,SKY SERVICES,,Chekka,NORTH LEBANON,,LB,(+961) 5-76646579,https://location.westernunion.com/lb/north-lebanon/chekka/73592f317d87dd697f100dba8c3bffff,Mo-Su 08:00-24:00,Western Union,Q861042
fed9963282a1763197dfb087a85db78d,western_union,AL RAED STORE RAS NHACH,,Ras Nahache,NORTH LEBANON,,LB,+961 70 080 874,https://location.westernunion.com/lb/north-lebanon/ras-nahache/fed9963282a1763197dfb087a85db78d,Mo-Su 08:00-22:00,Western Union,Q861042
953ce2f70168fd9f2e87769287460cb5,western_union,HADDAD SERVICES & MORE S A R L,,Chekka,NORTH LEBANON,,LB,+961 1 391 000,https://location.westernunion.com/lb/north-lebanon/chekka/953ce2f70168fd9f2e87769287460cb5,Mo-Su 08:00-23:30,Western Union,Q861042
bb82b998d22c89d2709ee431ddd75bf2,western_union,BOB M3 WEHBE CELL,,Anfe,NORTH LEBANON,,LB,(+961) 1262,https://location.westernunion.com/lb/north-lebanon/anfe/bb82b998d22c89d2709ee431ddd75bf2,Mo-Su 08:00-24:00,Western Union,Q861042
b0c173b56a963bfcbdf985ac2ed44fd1,western_union,E SHOP EST ANFEH,,Anfeh,NORTH LEBANON,,LB,(+961) 1-391000-9611,https://location.westernunion.com/lb/north-lebanon/anfeh/b0c173b56a963bfcbdf985ac2ed44fd1,Mo-Su 08:00-21:00,Western Union,Q861042
26eb653cead993a41a08dce01bd62bce,western_union,ESKANIAN TRADING,,Chekka,NORTH LEBANON,,LB,+961 5 955 262,https://location.westernunion.com/lb/north-lebanon/chekka/26eb653cead993a41a08dce01bd62bce,Mo-Su 08:00-24:00,Western Union,Q861042
25e6773b745cbd6030e242042bee510d,western_union,MARC ADEL AL MAZRAANI STORE BESHMEZZINE,,Beshmezzin,NORTH LEBANON,,LB,+961 3 254 688,https://location.westernunion.com/lb/north-lebanon/beshmezzin/25e6773b745cbd6030e242042bee510d,Mo-Su 08:00-22:00,Western Union,Q861042
69f3a4e1851b17aca547e7d5e262ac54,western_union,BOB M3 TRIPOLI   IB,,Tripoli,NORTH LEBANON,,LB,(+961) 1262,https://location.westernunion.com/lb/north-lebanon/tripoli/69f3a4e1851b17aca547e7d5e262ac54,Mo-Su 08:00-24:00,Western Union,Q861042
bf43861c921b74da0c7feb0be9d17833,western_union,SOCIETE TELIA S A R L  X  MINA,,Tripoli,NORTH LEBANON,,LB,+961 1 391 000,https://location.westernunion.com/lb/north-lebanon/tripoli/bf43861c921b74da0c7feb0be9d17833,Mo-Sa 11:00-23:00,Western Union,Q861042
d112d628f5048b95790a2198161cf748,western_union,M&L BOOKSHOP,,Bechmezzine,NORTH LEBANON,,LB,+961 5 955 262,https://location.westernunion.com/lb/north-lebanon/bechmezzine/d112d628f5048b95790a2198161cf748,Mo-Su 08:00-22:00,Western Union,Q861042
3c634aaec497b5e5634c0029dc198dd2,western_union,BOB M3  AMIOUN CELL   AMIOUN,,Amioun,NORTH LEBANON,,LB,(+961) 1262,https://location.westernunion.com/lb/north-lebanon/amioun/3c634aaec497b5e5634c0029dc198dd2,Mo-Su 08:00-24:00,Western Union,Q861042
aa4848c37d8809bcd9b7462d10dcd3e4,western_union,STC FOR CONTRACTING AND GENERAL TRADING,,Beshmezzin,NORTH LEBANON,,LB,(+961) 5-3340446,https://location.westernunion.com/lb/north-lebanon/beshmezzin/aa4848c37d8809bcd9b7462d10dcd3e4,Mo-Su 08:00-23:00,Western Union,Q861042
2e3fb9e0520049df1aa365ab5d38d798,western_union,FADICOS STORE MINA,,Mina,NORTH LEBANON,,LB,+961 1 391 000,https://location.westernunion.com/lb/north-lebanon/mina/2e3fb9e0520049df1aa365ab5d38d798,Mo-Sa 08:30-19:30,Western Union,Q861042
9a0343248d72dfdbe2808f2565ef6812,western_union,76 CELL,,Tripoli,NORTH LEBANON,,LB,+961 5 955 262,https://location.westernunion.com/lb/north-lebanon/tripoli/9a0343248d72dfdbe2808f2565ef6812,,Western Union,Q861042
21bb717f118f828633d976a0ac9c7cd2,western_union,UP 2 DATE STORE  MINA TRIPOLI,,Mina,NORTH LEBANON,,LB,+961 1 391 000,https://location.westernunion.com/lb/north-lebanon/mina/21bb717f118f828633d976a0ac9c7cd2,Mo-Th 09:00-18:00; Fr 10:00-18:00; Sa 09:00-18:00; Su 09:00-21:30,Western Union,Q861042
2acdd660c0b34b94b36885cb29bd0f6e,western_union,JIMY STORE CHEKKA,,Chekka,NORTH LEBANON,,LB,+961 1 391 000,https://location.westernunion.com/lb/north-lebanon/chekka/2acdd660c0b34b94b36885cb29bd0f6e,Mo-Su 08:00-20:00,Western Union,Q861042
202b6e06e4b41a525253fa7be0ba449f,western_union,RABIH ZAHRAMEN STORE  BOURJ EL,,Bourj El Arab,NORTH LEBANON,,LB,+961 1 391 000,https://location.westernunion.com/lb/north-lebanon/bourj-el-arab/202b6e06e4b41a525253fa7be0ba449f,Mo-Su 08:00-23:00,Western Union,Q861042
a594a4fc169d0676c7cb21b99f5f80a3,western_union,LINK KFARSAROUN,,Kfarssaroun,NORTH LEBANON,,LB,(+961) 5-70438666,https://location.westernunion.com/lb/north-lebanon/kfarssaroun/a594a4fc169d0676c7cb21b99f5f80a3,Mo-Su 08:00-24:00,Western Union,Q861042
a4d4ab715c6bdde61e63905ea0fefefd,western_union,INAS AL CHAKLEH EST MINA,,Tripoli,NORTH LEBANON,,LB,(+961) 1-391000-9611,https://location.westernunion.com/lb/north-lebanon/tripoli/a4d4ab715c6bdde61e63905ea0fefefd,Mo-Sa 08:30-17:30,Western Union,Q861042
c62df9bbfdf4eaf5ca76b1700da92727,western_union,AFIF TECH EST AL MINA,,Tripoli,NORTH LEBANON,,LB,(+961) 1-391000-9611,https://location.westernunion.com/lb/north-lebanon/tripoli/c62df9bbfdf4eaf5ca76b1700da92727,Mo-Su 08:00-22:00,Western Union,Q861042
f82fda0ee8b5f72cb916b7711bd2129e,western_union,ALOHA CELL STORE  MINA,,Tripoli,NORTH LEBANON,,LB,+961 1 391 000,https://location.westernunion.com/lb/north-lebanon/tripoli/f82fda0ee8b5f72cb916b7711bd2129e,Mo-Sa 09:00-21:00,Western Union,Q861042
13e1bf6036368a28242c0756b23c3eef,western_union,MINI CAR FOOD III STORE  MINA,,Mina,NORTH LEBANON,,LB,+961 1 391 000,https://location.westernunion.com/lb/north-lebanon/mina/13e1bf6036368a28242c0756b23c3eef,Mo-Su 08:00-23:00,Western Union,Q861042
3bf7d7b6d91cd6c9e0a02826676317c2,western_union,EL HALABI CELL,,Tripoli,NORTH LEBANON,,LB,(+961) 5-71842659,https://location.westernunion.com/lb/north-lebanon/tripoli/3bf7d7b6d91cd6c9e0a02826676317c2,Mo-Su 08:00-24:00,Western Union,Q861042
0c0680db9b502237f1f81a0df4c35bba,western_union,SERVICES IN TIME S I T EST II AMIOUN,,Amioun,NORTH LEBANON,,LB,+961 1 391 000,https://location.westernunion.com/lb/north-lebanon/amioun/0c0680db9b502237f1f81a0df4c35bba,Mo-Fr 08:30-18:00; Sa 08:30-17:00,Western Union,Q861042
7def4343eddd2fe22fa4773fd70ec5c9,western_union,DOUMIT EST,,Nt Lb,NORTH LEBANON,,LB,+961 5 955 262,https://location.westernunion.com/lb/north-lebanon/nt-lb/7def4343eddd2fe22fa4773fd70ec5c9,Mo-Su 07:00-24:00,Western Union,Q861042
010be86f0664258ab302cc5f40f91488,western_union,LINK - PETROTRADE,,Tripoli,NORTH LEBANON,,LB,(+961) 1262,https://location.westernunion.com/lb/north-lebanon/tripoli/010be86f0664258ab302cc5f40f91488,Mo-Su 08:00-24:00,Western Union,Q861042
1f710638c57d5d7405db773b49eb4122,western_union,ZAHER GHIYEH AN S.A.R.L [MINA],,Al Mina,NORTH LEBANON,,LB,+961 70 885 859,https://location.westernunion.com/lb/north-lebanon/al-mina/1f710638c57d5d7405db773b49eb4122,Mo-Su 08:00-22:00,Western Union,Q861042
6e9275f7098bf4b1d3b1b84e4520dc2c,western_union,MOHAMAD YAGHI FOR GENERAL TRADING STORE,,Mina,NORTH LEBANON,,LB,+961 76 653 143,https://location.westernunion.com/lb/north-lebanon/mina/6e9275f7098bf4b1d3b1b84e4520dc2c,Mo-Su 08:00-22:00,Western Union,Q861042
da10ee6f40fd47c4a8f8953debacfca0,western_union,SAMIH NACHABE STORE TRIPOLI,,Tripoli,NORTH LEBANON,,LB,+961 1 391 000,https://location.westernunion.com/lb/north-lebanon/tripoli/da10ee6f40fd47c4a8f8953debacfca0,Mo 09:00-18:00; Tu 19:00-18:00; We-Fr 09:00-18:00; Sa 19:00-18:00,Western Union,Q861042
7da0c4b2946930ab7d267f525519c527,western_union,ZEIN EL DINE FOR GENERAL TRADING STORE,,Tripoli,NORTH LEBANON,,LB,+961 70 434 249,https://location.westernunion.com/lb/north-lebanon/tripoli/7da0c4b2946930ab7d267f525519c527,Mo-Su 08:00-22:00,Western Union,Q861042
cb8d3da57f57e12e93814c414ed7390d,western_union,LINK BY ECONN   AL MINA TRIPOLI,,Tripoli,NORTH LEBANON,,LB,+961 70 709 121,https://location.westernunion.com/lb/north-lebanon/tripoli/cb8d3da57f57e12e93814c414ed7390d,Mo-Su 08:00-24:00,Western Union,Q861042
7705a157aa7e57f9dac973b2523530df,western_union,BOB FINANCE   TRIPOLI SQUARE MALL,,Tripoli,NORTH LEBANON,,LB,(+961) 1262,https://location.westernunion.com/lb/north-lebanon/tripoli/7705a157aa7e57f9dac973b2523530df,Mo-Su 08:00-24:00,Western Union,Q861042
e197042ca6ba15b11b333c43acac5407,western_union,OUJAIMI OFFICE FOR REAL ESTATE,,Amioun,NORTH LEBANON,,LB,(+961) 5-03005765,https://location.westernunion.com/lb/north-lebanon/amioun/e197042ca6ba15b11b333c43acac5407,Mo-Su 08:00-24:00,Western Union,Q861042
70dd6c8ec2c19bb376c0f061c33b7e7a,western_union,TWINS TRADING STORE KOURA,,Amioun,NORTH LEBANON,,LB,+961 81 872 000,https://location.westernunion.com/lb/north-lebanon/amioun/70dd6c8ec2c19bb376c0f061c33b7e7a,Mo-Su 08:00-22:00,Western Union,Q861042
11764a6293f197c271245b73e9dd1317,western_union,WASSIM EL ASSAFIRI FOR GENERAL TRADING,,Tripoli,NORTH LEBANON,,LB,(+961) 1262,https://location.westernunion.com/lb/north-lebanon/tripoli/11764a6293f197c271245b73e9dd1317,Mo-Su 08:00-24:00,Western Union,Q861042
e5e2bfe5031472ba98583f46ba8e6b9f,western_union,AL MINA OFFICE FOR GENERAL SER,,Tripoli,NORTH LEBANON,,LB,+961 5 955 262,https://location.westernunion.com/lb/north-lebanon/tripoli/e5e2bfe5031472ba98583f46ba8e6b9f,Mo-Su 08:00-23:00,Western Union,Q861042
f1044f2c9c9f95dc41ac7ff8da1228b4,western_union,CENTRINO CELL STORE TRIPOLI,,Tripoli,NORTH LEBANON,,LB,+961 1 391 000,https://location.westernunion.com/lb/north-lebanon/tripoli/f1044f2c9c9f95dc41ac7ff8da1228b4,Mo-Sa 10:00-21:30; Su 11:00-16:00,Western Union,Q861042
8320a9213dcd2f5af268a5756a698128,western_union,TRUST,,Tripoli,NORTH LEBANON,,LB,(+961) 5-70070007,https://location.westernunion.com/lb/north-lebanon/tripoli/8320a9213dcd2f5af268a5756a698128,Mo-Su 08:00-24:00,Western Union,Q861042
9ab0b0ff28b438e43371223ab49ee286,western_union,BAYTIEH SERVICES STORE  TRIPOL,,Tripoli,NORTH LEBANON,,LB,+961 1 391 000,https://location.westernunion.com/lb/north-lebanon/tripoli/9ab0b0ff28b438e43371223ab49ee286,Mo-Sa 09:00-22:00,Western Union,Q861042
7a80f60b24396de439e222d7d25e335e,western_union,BITAR S TRAVEL AND SERVICES CO,,Tripoli,NORTH LEBANON,,LB,+961 1 391 000,https://location.westernunion.com/lb/north-lebanon/tripoli/7a80f60b24396de439e222d7d25e335e,Mo-Sa 08:00-17:30,Western Union,Q861042
eeda3792f4485c74a5e47ba492549f99,western_union,AHMAD YOUSSEF HAIDAR STORE TRIPOLI,,Tripoli,NORTH LEBANON,,LB,(+961) 5-3295646,https://location.westernunion.com/lb/north-lebanon/tripoli/eeda3792f4485c74a5e47ba492549f99,Mo-Su 08:00-23:00,Western Union,Q861042
bf426f4c98809c1b90c8cc9f176ef87d,western_union,SMART PHONES,,Tripoli,NORTH LEBANON,,LB,+961 5 955 262,https://location.westernunion.com/lb/north-lebanon/tripoli/bf426f4c98809c1b90c8cc9f176ef87d,Mo-Su 09:00-21:00,Western Union,Q861042
847aee737d30069d2c22b7fd049d0774,western_union,MAK STORE,,Tripoli,NORTH LEBANON,,LB,(+961) 5-03381952,https://location.westernunion.com/lb/north-lebanon/tripoli/847aee737d30069d2c22b7fd049d0774,Mo-Su 08:00-24:00,Western Union,Q861042
5a201a845c279710fd45311dc2ec868e,western_union,MIRALLE STORE [TRIPOLI],,Tripoli,NORTH LEBANON,,LB,(+961) 5-1391000,https://location.westernunion.com/lb/north-lebanon/tripoli/5a201a845c279710fd45311dc2ec868e,Mo-Sa 08:00-21:00,Western Union,Q861042
6577296443a57f1ad029acb9b87c6af8,western_union,OMT S.A.L [TRIPOLI],,Trablus,NORTH LEBANON,,LB,+961 1 391 390,https://location.westernunion.com/lb/north-lebanon/trablus/6577296443a57f1ad029acb9b87c6af8,Mo-Su 08:00-22:00,Western Union,Q861042
3adcbdf257564c762661930ddbb92542,western_union,FATAL TELECOM F T C S A R L [MINA],,Tripoli,NORTH LEBANON,,LB,+961 3 960 303,https://location.westernunion.com/lb/north-lebanon/tripoli/3adcbdf257564c762661930ddbb92542,Mo-Su 08:00-22:00,Western Union,Q861042
b727b822f2db587553c98562b3da296c,western_union,MINI CAR FOOD STORE  TRPOLI,,Tripoli,NORTH LEBANON,,LB,+961 1 391 000,https://location.westernunion.com/lb/north-lebanon/tripoli/b727b822f2db587553c98562b3da296c,Mo-Sa 09:00-18:00; Su 07:30-23:00,Western Union,Q861042
5454a87bb15dce13126eb485f97fee0d,western_union,Mohamad Derbas,,Tripoli,NORTH LEBANON,,LB,+961 5 955 262,https://location.westernunion.com/lb/north-lebanon/tripoli/5454a87bb15dce13126eb485f97fee0d,Mo-Su 08:00-24:00,Western Union,Q861042
e43b4142ad2352923df5d2eb2be8eb9d,western_union,NOHAD HAMZEH AND RABIH FARAH,,Tripoli,NORTH LEBANON,,LB,+961 1 391 000,https://location.westernunion.com/lb/north-lebanon/tripoli/e43b4142ad2352923df5d2eb2be8eb9d,,Western Union,Q861042
8f98349f9e6eb5b5a9f5ac02c871166d,western_union,ASIL FOR GENERAL TRADING STORE,,Tripoli,NORTH LEBANON,,LB,+961 1 391 000,https://location.westernunion.com/lb/north-lebanon/tripoli/8f98349f9e6eb5b5a9f5ac02c871166d,Mo-Su 08:00-22:00,Western Union,Q861042
33ba8db2229ec31e32b63b7ff638a6af,western_union,BOB FINANCE TRIPOLI,,Tripoli,NORTH LEBANON,,LB,+961 5 955 262,https://location.westernunion.com/lb/north-lebanon/tripoli/33ba8db2229ec31e32b63b7ff638a6af,Mo-Fr 08:30-15:30; Sa 08:30-12:00,Western Union,Q861042
3fa4bb6dd7b25bd50bf97481daa45062,western_union,BOB  M3 TRIPOLI HH,,Tripoli,NORTH LEBANON,,LB,(+961) 1262,https://location.westernunion.com/lb/north-lebanon/tripoli/3fa4bb6dd7b25bd50bf97481daa45062,Mo-Su 08:00-24:00,Western Union,Q861042
7d1050f86e1a209d02946bf3acb5df2d,western_union,SOUK ALL,,Tripoli,NORTH LEBANON,,LB,+961 5 955 262,https://location.westernunion.com/lb/north-lebanon/tripoli/7d1050f86e1a209d02946bf3acb5df2d,Mo-Sa 09:00-18:00; Su 08:00-22:00,Western Union,Q861042
fd30ee59d953fb6c3a1dad0fc1b7400d,western_union,ABED EL FATTAH SAAD EL DIN FOR,,Tripoli,NORTH LEBANON,,LB,+961 1 391 000,https://location.westernunion.com/lb/north-lebanon/tripoli/fd30ee59d953fb6c3a1dad0fc1b7400d,Mo-Sa 08:00-22:00,Western Union,Q861042
8fcb0b8d060bd9aa2e871bb5252d9266,western_union,A M TRADING STORE II [TRIPOLI],,Tripoli,NORTH LEBANON,,LB,+961 3 258 079,https://location.westernunion.com/lb/north-lebanon/tripoli/8fcb0b8d060bd9aa2e871bb5252d9266,Mo-Su 08:00-22:00,Western Union,Q861042
79ba90725a33bb3612da515401116970,western_union,BOB FINANCE KFARAKKA,,Kfarakka,NORTH LEBANON,,LB,+961 5 955 262,https://location.westernunion.com/lb/north-lebanon/kfarakka/79ba90725a33bb3612da515401116970,Mo-Fr 08:30-15:30; Sa 08:30-12:00,Western Union,Q861042
d1bebbd14719413e5b3fcf60b6ca00ff,western_union,HASSAN MAJDOUB AND KHODER HAMOUD INFO P,,Jabal Mehsen,NORTH LEBANON,,LB,+961 1 391 000,https://location.westernunion.com/lb/north-lebanon/jabal-mehsen/d1bebbd14719413e5b3fcf60b6ca00ff,Mo-Su 09:00-18:30,Western Union,Q861042
ec92e4c3a1c811cd6db36c11191f02ba,western_union,TOBACO AND MONEY,,Tripoli,NORTH LEBANON,,LB,(+961) 1262,https://location.westernunion.com/lb/north-lebanon/tripoli/ec92e4c3a1c811cd6db36c11191f02ba,Mo-Su 08:00-24:00,Western Union,Q861042
d9bd08bd17b2319cb38bff914b696f79,western_union,CYBER SPACE NET,,Tripoli,NORTH LEBANON,,LB,+961 5 955 262,https://location.westernunion.com/lb/north-lebanon/tripoli/d9bd08bd17b2319cb38bff914b696f79,Mo-Su 08:00-23:00,Western Union,Q861042
a7a351c109a48e4b2f502746bca926bf,western_union,ABDULJALIL WAJIH ZAKARIA EST,,Abou Samra,NORTH LEBANON,,LB,(+961) 1-391000-9611,https://location.westernunion.com/lb/north-lebanon/abou-samra/a7a351c109a48e4b2f502746bca926bf,Mo-Sa 08:30-24:00; Su 10:00-21:00,Western Union,Q861042
f777281d2396675ad6c10465d622fc55,western_union,WAJIH ALI FARHA AND PARTNERS,,Tripoli,NORTH LEBANON,,LB,+961 70 646 070,https://location.westernunion.com/lb/north-lebanon/tripoli/f777281d2396675ad6c10465d622fc55,Mo-Su 08:00-22:00,Western Union,Q861042
e3f604f9db06620ea7525a5258d8bf76,western_union,HASSAN AL HUSSEINI TRADING EST TRIPOLI,,Tripoli,NORTH LEBANON,,LB,+961 1 391 000,https://location.westernunion.com/lb/north-lebanon/tripoli/e3f604f9db06620ea7525a5258d8bf76,Mo-Su 08:00-15:30,Western Union,Q861042
535869309ced2b918e02688c8f2fd17b,western_union,MOOATAZ FAKHREDDINE STORE  TALL TRIPOLI,,Tripoli,NORTH LEBANON,,LB,+961 1 391 000,https://location.westernunion.com/lb/north-lebanon/tripoli/535869309ced2b918e02688c8f2fd17b,Mo-Su 08:00-23:00,Western Union,Q861042
02dac07299869da823c03fbba04ddf44,western_union,SULTAN FOR GENERAL SERVICES,,Tripoli,NORTH LEBANON,,LB,+961 5 955 262,https://location.westernunion.com/lb/north-lebanon/tripoli/02dac07299869da823c03fbba04ddf44,Mo-Su 08:00-24:00,Western Union,Q861042
cb4abaa2f76cfdecb69d245aaabf31d9,western_union,GHIO,,Tripoli,NORTH LEBANON,,LB,(+961) 5-06201176,https://location.westernunion.com/lb/north-lebanon/tripoli/cb4abaa2f76cfdecb69d245aaabf31d9,Mo-Su 08:00-24:00,Western Union,Q861042
26e9a751f04e7c2672ff6e909fa010db,western_union,HARIRI HOME PLUS,,Tripoli,NORTH LEBANON,,LB,(+961) 1262,https://location.westernunion.com/lb/north-lebanon/tripoli/26e9a751f04e7c2672ff6e909fa010db,Mo-Su 08:00-24:00,Western Union,Q861042
8028dd5d63c547657f09c3a03dd0f206,western_union,SOCIETE TELIA S A R L   ABOU S,,Abou Samra,NORTH LEBANON,,LB,+961 1 391 000,https://location.westernunion.com/lb/north-lebanon/abou-samra/8028dd5d63c547657f09c3a03dd0f206,Mo-Su 08:00-23:55,Western Union,Q861042
ede603bcb72c8b5cd38faf7cdafde946,western_union,INAS AL CHAKLEH EST II  [TRIPOLI],,Al Tall,NORTH LEBANON,,LB,(+961) 1-391000-9611,https://location.westernunion.com/lb/north-lebanon/al-tall/ede603bcb72c8b5cd38faf7cdafde946,Mo-Sa 06:00-24:00; Su 08:00-24:00,Western Union,Q861042
13ff5bae449a07720856c1e7bcab8ff7,western_union,SOUK ALL - TALL,,Tripoli,NORTH LEBANON,,LB,+961 5 955 262,https://location.westernunion.com/lb/north-lebanon/tripoli/13ff5bae449a07720856c1e7bcab8ff7,Mo-Su 07:00-24:00,Western Union,Q861042
1ca40bb4e197d4f3adfab1c1cdd014c8,western_union,LORD OF CELL STORE AL TALL,,Al Tall,NORTH LEBANON,,LB,+961 71 212 735,https://location.westernunion.com/lb/north-lebanon/al-tall/1ca40bb4e197d4f3adfab1c1cdd014c8,Mo-Su 08:00-22:00,Western Union,Q861042
c801abf86373ec98619d426f7041582f,western_union,ANGIE MISTO EST TRIPOLI,,Al Tall,NORTH LEBANON,,LB,(+961) 1-391000-9611,https://location.westernunion.com/lb/north-lebanon/al-tall/c801abf86373ec98619d426f7041582f,Mo-Su 08:30-24:00,Western Union,Q861042
bb6ec1c0259ee5243650f100d99b4127,western_union,BOB M3 AL TAL   WM,,Tripoli,NORTH LEBANON,,LB,(+961) 1262,https://location.westernunion.com/lb/north-lebanon/tripoli/bb6ec1c0259ee5243650f100d99b4127,Mo-Su 08:00-24:00,Western Union,Q861042
3ef5e4f633fba58a64aeef23ba7b37f7,western_union,KILANI FOR TRAVEL AND TOURISM,,Al Tall,NORTH LEBANON,,LB,(+961) 1-391000-9611,https://location.westernunion.com/lb/north-lebanon/al-tall/3ef5e4f633fba58a64aeef23ba7b37f7,Mo-Su 08:00-23:00,Western Union,Q861042
b7ce7ee4b48e9a797e8b63452b09d6bc,western_union,TRUST 2,,Tripoli,NORTH LEBANON,,LB,+961 1 906 666,https://location.westernunion.com/lb/north-lebanon/tripoli/b7ce7ee4b48e9a797e8b63452b09d6bc,Mo-Su 08:00-24:00,Western Union,Q861042
21a9880802fc746ba9b821f28bb56a4e,western_union,GSTORE STORE (KFARAAKA),,Kfaraaka,NORTH LEBANON,,LB,+961 71 036 063,https://location.westernunion.com/lb/north-lebanon/kfaraaka/21a9880802fc746ba9b821f28bb56a4e,Mo-Su 08:00-22:00,Western Union,Q861042
7c6635ca4b802cb08c89ddf791170cd0,western_union,AL AREF STORE  TRIPOLI,,Tripoli,NORTH LEBANON,,LB,+961 1 391 000,https://location.westernunion.com/lb/north-lebanon/tripoli/7c6635ca4b802cb08c89ddf791170cd0,Mo-Sa 08:00-18:00,Western Union,Q861042
7192e4126bb65e122d40627c2a5fe7dc,western_union,BOB FINANCE   TRIPOLI TALL,,Tripoli,NORTH LEBANON,,LB,(+961) 1262,https://location.westernunion.com/lb/north-lebanon/tripoli/7192e4126bb65e122d40627c2a5fe7dc,Mo-Su 08:00-24:00,Western Union,Q861042
fd695843d0330aafbf10bb59c5ed7660,western_union,ITAWI STORE TALL,,Tripoli,NORTH LEBANON,,LB,+961 3 560 070,https://location.westernunion.com/lb/north-lebanon/tripoli/fd695843d0330aafbf10bb59c5ed7660,Mo-Su 08:00-22:00,Western Union,Q861042
12f49715d2a06839ff947befffb5602e,western_union,BOB M3 ZAKARIA FOR COMMUNICATION 2   AL,,Tripoli,NORTH LEBANON,,LB,(+961) 1262,https://location.westernunion.com/lb/north-lebanon/tripoli/12f49715d2a06839ff947befffb5602e,Mo-Su 08:00-24:00,Western Union,Q861042
a54e3432ba245fcb5260cb46480a5bd2,western_union,INAS AL CHAKLEH EST  VI,,Tripoli,NORTH LEBANON,,LB,+961 1 391 000,https://location.westernunion.com/lb/north-lebanon/tripoli/a54e3432ba245fcb5260cb46480a5bd2,Mo-Su 08:00-22:00,Western Union,Q861042
979ff1a7c0bbf3b2b7adcd96b3f7911f,western_union,TECH ONE STORE TRIPOLI,,Tripoli,NORTH LEBANON,,LB,+961 1 391 000,https://location.westernunion.com/lb/north-lebanon/tripoli/979ff1a7c0bbf3b2b7adcd96b3f7911f,Mo-Sa 10:00-21:00,Western Union,Q861042
c7e8fde55cfabf1e02278bc64004b50d,western_union,Z A GROUP 2,,Tripoli,NORTH LEBANON,,LB,+961 5 955 262,https://location.westernunion.com/lb/north-lebanon/tripoli/c7e8fde55cfabf1e02278bc64004b50d,Mo-Su 08:00-24:00,Western Union,Q861042
3117693648202ac4b96a50db84c9c547,western_union,Z  A GROUP,,Tripoli,NORTH LEBANON,,LB,+961 5 955 262,https://location.westernunion.com/lb/north-lebanon/tripoli/3117693648202ac4b96a50db84c9c547,Mo-Su 09:30-22:00,Western Union,Q861042
696fd0fced8a125fa3db264b120381f5,western_union,ABBAS SERVICE STORE (TRIPOLI),,Tripoli,NORTH LEBANON,,LB,+961 3 727 293,https://location.westernunion.com/lb/north-lebanon/tripoli/696fd0fced8a125fa3db264b120381f5,Mo-Su 08:00-22:00,Western Union,Q861042
69448abd712c8930be9f459ed94e32dd,western_union,AL ZOUABI FOR GENERAL TRADING,,Ras Maska,NORTH LEBANON,,LB,+961 5 955 262,https://location.westernunion.com/lb/north-lebanon/ras-maska/69448abd712c8930be9f459ed94e32dd,Mo-Su 08:00-24:00,Western Union,Q861042
08aff6b702095101d8079c8b0248aed1,western_union,TECHNO SMART STORE [ZGHARTA],,Zgharta,NORTH LEBANON,,LB,(+961) 5-1391000,https://location.westernunion.com/lb/north-lebanon/zgharta/08aff6b702095101d8079c8b0248aed1,Mo-Sa 09:00-22:00,Western Union,Q861042
e89426d1c4b13f1a056b7b456a94b84e,western_union,RANIA FOR TRADE EST     TRIPOLI,,Tripoli,NORTH LEBANON,,LB,(+961) 1-391000-9611,https://location.westernunion.com/lb/north-lebanon/tripoli/e89426d1c4b13f1a056b7b456a94b84e,,Western Union,Q861042
31ce8ca37ce9181f22c0e54fedff8bc2,western_union,APPAREIL FOR GENERAL TRADING STORE TRIPO,,Tripoli,NORTH LEBANON,,LB,+961 3 183 161,https://location.westernunion.com/lb/north-lebanon/tripoli/31ce8ca37ce9181f22c0e54fedff8bc2,Mo-Su 08:00-22:00,Western Union,Q861042
b2e199c012815aa0efcc3424bfcdba06,western_union,ZEMA KABBARA FOR GENERAL TRADING,,Trablus,NORTH LEBANON,,LB,+961 81 042 362,https://location.westernunion.com/lb/north-lebanon/trablus/b2e199c012815aa0efcc3424bfcdba06,Mo-Su 08:00-22:00,Western Union,Q861042
24d5173c644372904dd542b18ed912ec,western_union,TILIA TRAVEL,,Tripoly,NORTH LEBANON,,LB,+961 5 955 262,https://location.westernunion.com/lb/north-lebanon/tripoly/24d5173c644372904dd542b18ed912ec,Mo-Su 08:00-24:00,Western Union,Q861042
6b68ea3f695d63bdfa626c8a32f6f4e4,western_union,FIRAS NAJIB FOR EXCHANGE AND C,,Tripoli,NORTH LEBANON,,LB,+961 1 391 000,https://location.westernunion.com/lb/north-lebanon/tripoli/6b68ea3f695d63bdfa626c8a32f6f4e4,Mo-Sa 08:30-14:30,Western Union,Q861042
6d180b500fcc0a3d8191e310dc4add27,western_union,CLASSY FOR TRADING S A R L KFARSAROUN,,Kfarsaroun,NORTH LEBANON,,LB,+961 1 391 000,https://location.westernunion.com/lb/north-lebanon/kfarsaroun/6d180b500fcc0a3d8191e310dc4add27,Mo-Sa 09:00-21:00,Western Union,Q861042
aea2940034156d26f75413508481c206,western_union,MAALIKI TRAVEL AND TOURISM,,Tripoly,NORTH LEBANON,,LB,+961 5 955 262,https://location.westernunion.com/lb/north-lebanon/tripoly/aea2940034156d26f75413508481c206,Mo-Su 08:00-24:00,Western Union,Q861042
47939ed415e58bb7c6a032d387f3952f,western_union,SAID KHALIL AL SAMMAK STORE AL KOBBEH,,Kobbeh,NORTH LEBANON,,LB,(+961) 5-76060878,https://location.westernunion.com/lb/north-lebanon/kobbeh/47939ed415e58bb7c6a032d387f3952f,Mo-Su 08:00-23:00,Western Union,Q861042
d354f354b9cc8a9d2b5abf6058737cfc,western_union,AL KAMAL FOR TRADE STORE  TRIPOLI,,Jabal Mohsen,NORTH LEBANON,,LB,+961 1 391 000,https://location.westernunion.com/lb/north-lebanon/jabal-mohsen/d354f354b9cc8a9d2b5abf6058737cfc,Mo-Sa 09:00-22:00,Western Union,Q861042
7fc93aa93106cb5ac59fcab4ab8246b5,western_union,DILINK S A R L KOUSBA,,Kosba,NORTH LEBANON,,LB,+961 1 391 000,https://location.westernunion.com/lb/north-lebanon/kosba/7fc93aa93106cb5ac59fcab4ab8246b5,Mo-Sa 10:00-20:00,Western Union,Q861042
7e2a4841cef7268569ec98e2efccb7cf,western_union,SERVICE CELL STORE TRIPOLI,,Al Kobbeh,NORTH LEBANON,,LB,+961 1 391 000,https://location.westernunion.com/lb/north-lebanon/al-kobbeh/7e2a4841cef7268569ec98e2efccb7cf,Mo-Su 08:00-22:00,Western Union,Q861042
25022342aa424a09f53c5182eb3fe656,western_union,INAS AL CHAKLEH EST III   TRIP,,Tripoli,NORTH LEBANON,,LB,(+961) 1-391000-9611,https://location.westernunion.com/lb/north-lebanon/tripoli/25022342aa424a09f53c5182eb3fe656,Mo-Sa 08:00-16:00,Western Union,Q861042
f5a756cf8a33af2f4576b72af715bb06,western_union,LORD OF CELL STORE II  DAHER EL AIN,,Daher El Ein,NORTH LEBANON,,LB,+961 70 033 371,https://location.westernunion.com/lb/north-lebanon/daher-el-ein/f5a756cf8a33af2f4576b72af715bb06,Mo-Sa 08:00-21:00,Western Union,Q861042
aa9b486b30257408c84be5ccc9bd2b61,western_union,KRIKOR BOGHOUS OHANIAN EST,,Koura,NORTH LEBANON,,LB,+961 1 391 000,https://location.westernunion.com/lb/north-lebanon/koura/aa9b486b30257408c84be5ccc9bd2b61,Mo-Su 08:00-20:00,Western Union,Q861042
059193254b948d7d298599f014dad417,western_union,MOHAMAD HOBLOS STORE  KOBEH,,Kobeh,NORTH LEBANON,,LB,+961 1 391 000,https://location.westernunion.com/lb/north-lebanon/kobeh/059193254b948d7d298599f014dad417,Mo-Su 10:00-24:00,Western Union,Q861042
e9f1a6181adede9d6283f9a3bf516a2a,western_union,AHMAD OTHMAN STORE ABOU SAMRA,,Tripoli,NORTH LEBANON,,LB,+961 70 494 570,https://location.westernunion.com/lb/north-lebanon/tripoli/e9f1a6181adede9d6283f9a3bf516a2a,Mo-Su 08:00-22:00,Western Union,Q861042
179a7ad39e5fb33adcc2fbcb8b10d88f,western_union,Sleiman Yaghi For General Trading,,Tripoli,NORTH LEBANON,,LB,+961 5 955 262,https://location.westernunion.com/lb/north-lebanon/tripoli/179a7ad39e5fb33adcc2fbcb8b10d88f,Mo-Su 08:00-24:00,Western Union,Q861042
07f7553a4277ff63ea57aa6e907832d9,western_union,OUDAY STORE BETWARTIJ,,Bet Wartij,NORTH LEBANON,,LB,(+961) 5-1391000,https://location.westernunion.com/lb/north-lebanon/bet-wartij/07f7553a4277ff63ea57aa6e907832d9,Mo-Su 08:00-23:00,Western Union,Q861042
690afa2b0351f1df483de0a77f05eed8,western_union,CHAMI CELL STORE KOURA,,Koura,NORTH LEBANON,,LB,+961 70 802 800,https://location.westernunion.com/lb/north-lebanon/koura/690afa2b0351f1df483de0a77f05eed8,Mo-Su 08:00-22:00,Western Union,Q861042
ff7ec62ca25132b800c26b40867cd570,western_union,WAKILNI 1,,Tripoli,NORTH LEBANON,,LB,(+961) 5-01241102,https://location.westernunion.com/lb/north-lebanon/tripoli/ff7ec62ca25132b800c26b40867cd570,Mo-Su 08:00-24:00,Western Union,Q861042
d25b297de8201a159b1990492723bc5b,western_union,MOBI STORE EST ABOU SAMRA,,Tripoli,NORTH LEBANON,,LB,(+961) 1-391000-9611,https://location.westernunion.com/lb/north-lebanon/tripoli/d25b297de8201a159b1990492723bc5b,Mo-Su 09:00-22:00,Western Union,Q861042
468a43ea5d9bd7dea3ddaebc230e9f60,western_union,ABDALLAH AL BAKRI EST   TRIPOL,,Tripoli,NORTH LEBANON,,LB,(+961) 1-391000-9611,https://location.westernunion.com/lb/north-lebanon/tripoli/468a43ea5d9bd7dea3ddaebc230e9f60,Mo-Su 00:01-24:00,Western Union,Q861042
ab2b2d0ebf265f0c6b75591c63ed8326,western_union,HABIB CELL,,Tripoli,NORTH LEBANON,,LB,+961 5 955 262,https://location.westernunion.com/lb/north-lebanon/tripoli/ab2b2d0ebf265f0c6b75591c63ed8326,Mo-Su 08:00-22:00,Western Union,Q861042
ea34be7cd5c31a14d95f83e369eec94b,western_union,FIRST CLASS STORE ABOU SAMRA,,Abou Samra,NORTH LEBANON,,LB,+961 1 391 000,https://location.westernunion.com/lb/north-lebanon/abou-samra/ea34be7cd5c31a14d95f83e369eec94b,Mo-Su 08:00-20:00,Western Union,Q861042
1cf28092aa6764af1c3d53bd9b310b4e,western_union,ZAHRA TECHNOLOGY STORE ABOU SAMRA,,Tripoli,NORTH LEBANON,,LB,+961 1 391 000,https://location.westernunion.com/lb/north-lebanon/tripoli/1cf28092aa6764af1c3d53bd9b310b4e,Mo-Sa 09:00-20:00,Western Union,Q861042
ab11d6fef6f27774559d6c3e8c864893,western_union,B TELECOM STORE ABOU SAMRA,,Tripoli,NORTH LEBANON,,LB,(+961) 5-71800580,https://location.westernunion.com/lb/north-lebanon/tripoli/ab11d6fef6f27774559d6c3e8c864893,Mo-Su 08:00-23:00,Western Union,Q861042
83e4031ff8f6c6a34e3ce4adfda2a2d5,western_union,INATI CELL STORE BSARMA,,Bsarma,NORTH LEBANON,,LB,+961 71 112 333,https://location.westernunion.com/lb/north-lebanon/bsarma/83e4031ff8f6c6a34e3ce4adfda2a2d5,Mo-Su 08:00-22:00,Western Union,Q861042
3ec6258980a08bec924e29c92721871b,western_union,AMAL NAJIB SINIORA STORE TRIPOLI,,Tripoli,NORTH LEBANON,,LB,+961 71 169 780,https://location.westernunion.com/lb/north-lebanon/tripoli/3ec6258980a08bec924e29c92721871b,Mo-Su 08:00-22:00,Western Union,Q861042
24411c4ea5042f2fd898b624c3bc519d,western_union,WAHAT AL AMAL STORE  ABOU SAMR,,Abou Samra,NORTH LEBANON,,LB,+961 1 391 000,https://location.westernunion.com/lb/north-lebanon/abou-samra/24411c4ea5042f2fd898b624c3bc519d,Mo-Sa 09:00-24:00; Su 08:00-24:00,Western Union,Q861042
5e542d8b5fcae9540cf6de1661718a39,western_union,NORTH CELL STORE KFARAAKA,,Tripoli,NORTH LEBANON,,LB,+961 1 391 000,https://location.westernunion.com/lb/north-lebanon/tripoli/5e542d8b5fcae9540cf6de1661718a39,Mo-Sa 10:00-20:00,Western Union,Q861042
b9aa0a5a89c7bfbd9dded74399365cac,western_union,IBRAHIM ABOU DAOUD FOR GEN TRD,,Tripoli,NORTH LEBANON,,LB,+961 5 391 000,https://location.westernunion.com/lb/north-lebanon/tripoli/b9aa0a5a89c7bfbd9dded74399365cac,Mo-Su 09:00-24:00,Western Union,Q861042
5f07dbb99ac8b4624668def64ff4227b,western_union,IBRAHIM AHMAD CELL STORE BADDAWI,,Badawi,NORTH LEBANON,,LB,+961 1 391 000,https://location.westernunion.com/lb/north-lebanon/badawi/5f07dbb99ac8b4624668def64ff4227b,Mo-Su 09:00-24:00,Western Union,Q861042
4dff0dfe215e293e8ae84a2bd053c069,western_union,JANA FOR GENERAL TRADING II ST,,Baddawi,NORTH LEBANON,,LB,+961 1 391 000,https://location.westernunion.com/lb/north-lebanon/baddawi/4dff0dfe215e293e8ae84a2bd053c069,Mo-Su 08:00-21:00,Western Union,Q861042
68cd9b85a38079588861b162aca41d19,western_union,AL SEDEK WAL AMANA FOR TRADING,,Baddawi,NORTH LEBANON,,LB,+961 1 391 000,https://location.westernunion.com/lb/north-lebanon/baddawi/68cd9b85a38079588861b162aca41d19,Mo-Su 09:00-21:30,Western Union,Q861042
566dffa1ed9c8120b6db2c8c4e9c7fb0,western_union,JANA FOR GENERAL TRADING STORE BADDAWI,,Baddawi,NORTH LEBANON,,LB,+961 1 391 000,https://location.westernunion.com/lb/north-lebanon/baddawi/566dffa1ed9c8120b6db2c8c4e9c7fb0,Mo-Su 08:00-21:00,Western Union,Q861042
5bf3aeac05786edbf4388f3bbd2e03d8,western_union,EL MASRI FOR GENERAL TRDG STORE MAJDLAYA,,Majdalaiya,NORTH LEBANON,,LB,+961 1 391 000,https://location.westernunion.com/lb/north-lebanon/majdalaiya/5bf3aeac05786edbf4388f3bbd2e03d8,Mo-Sa 08:00-18:00,Western Union,Q861042
31a232438a198c42c4f0b36fd146861b,western_union,BAHRI FOR GENERAL TRADING II STORE,,Baddawi,NORTH LEBANON,,LB,+961 1 391 000,https://location.westernunion.com/lb/north-lebanon/baddawi/31a232438a198c42c4f0b36fd146861b,Mo-Sa 08:00-22:30; Su 08:00-19:30,Western Union,Q861042
5920312a4207f61c49ecb70df1b9e234,western_union,LOGO MOBILE PHONE STORE AL TALL,,Al Beddaoui,NORTH LEBANON,,LB,+961 3 228 555,https://location.westernunion.com/lb/north-lebanon/al-beddaoui/5920312a4207f61c49ecb70df1b9e234,Mo-Su 08:00-22:00,Western Union,Q861042
a7aa1402ac633afaf6a2e8c067404d6c,western_union,HANNOUF FOR GENERAL TRADING ES,,Beddawi,NORTH LEBANON,,LB,+961 1 391 000,https://location.westernunion.com/lb/north-lebanon/beddawi/a7aa1402ac633afaf6a2e8c067404d6c,Mo-Su 08:00-22:00,Western Union,Q861042
fced1cc72153d5b63ee7f013ff2389b0,western_union,CHALABI STORE BADDAWI,,Beddawi,NORTH LEBANON,,LB,+961 1 391 000,https://location.westernunion.com/lb/north-lebanon/beddawi/fced1cc72153d5b63ee7f013ff2389b0,Mo-Su 08:00-22:00,Western Union,Q861042
9bbfd54fc304f9fbee82591d7862abc9,western_union,CELLPHONES ON LINE EST AL KOBBEH,,Al Kobbeh,NORTH LEBANON,,LB,+961 1 391 000,https://location.westernunion.com/lb/north-lebanon/al-kobbeh/9bbfd54fc304f9fbee82591d7862abc9,Mo-Su 08:00-22:00,Western Union,Q861042
4050fd24becc71df721bd9f4be7f0134,western_union,BOB M3 TRIPOLI   AD,,Tripoli,NORTH LEBANON,,LB,(+961) 1262,https://location.westernunion.com/lb/north-lebanon/tripoli/4050fd24becc71df721bd9f4be7f0134,Mo-Su 08:00-24:00,Western Union,Q861042
a30eb0cc9d6a8b46777a247ac0eb37ef,western_union,ABDELRAHMAN KHAULA FOR TRADING,,Deir Ammar,NORTH LEBANON,,LB,(+961) 1-391000-9611,https://location.westernunion.com/lb/north-lebanon/deir-ammar/a30eb0cc9d6a8b46777a247ac0eb37ef,Mo-Su 07:00-24:00,Western Union,Q861042
bcb9d7a934d13ec45a81a980276d072c,western_union,SUPERMARKET TANNOURIN,,Tannourin,NORTH LEBANON,,LB,+961 5 955 262,https://location.westernunion.com/lb/north-lebanon/tannourin/bcb9d7a934d13ec45a81a980276d072c,Mo-Su 08:00-22:00,Western Union,Q861042
8dfe88355d05d8d10881d1003586f8a6,western_union,VIA TELECOM STORE  KFARZAINA,,Tripoli,NORTH LEBANON,,LB,(+961) 5-1391000,https://location.westernunion.com/lb/north-lebanon/tripoli/8dfe88355d05d8d10881d1003586f8a6,Mo-Su 09:00-21:00,Western Union,Q861042
bff6369118d79c9f1597c7db5ef52a31,western_union,IYAD EL HAJJ,,Tripoli,NORTH LEBANON,,LB,+961 5 955 262,https://location.westernunion.com/lb/north-lebanon/tripoli/bff6369118d79c9f1597c7db5ef52a31,Mo-Su 08:00-24:00,Western Union,Q861042
08bf91053eb390784053330545ad224c,western_union,JIMMY CELL STORE  MAJDLAYA,,Majdlaya,NORTH LEBANON,,LB,+961 1 391 000,https://location.westernunion.com/lb/north-lebanon/majdlaya/08bf91053eb390784053330545ad224c,Mo-Su 00:01-24:00,Western Union,Q861042
1a2ec6514bd5be218919c7c345af149b,western_union,KHALIL ROBERT EL GEITANI EST  [ZGHARTA],,Zgharta,NORTH LEBANON,,LB,(+961) 1-391000-9611,https://location.westernunion.com/lb/north-lebanon/zgharta/1a2ec6514bd5be218919c7c345af149b,Mo-Sa 08:00-17:00,Western Union,Q861042
5555fc8811b38ef745cdd49322e6b8c1,western_union,ORACELL STORE  MAJDLAYA,,Majdalaiya,NORTH LEBANON,,LB,+961 1 391 000,https://location.westernunion.com/lb/north-lebanon/majdalaiya/5555fc8811b38ef745cdd49322e6b8c1,Mo-Sa 09:00-21:00,Western Union,Q861042
0c09b72ee9401c72b767695f601a2898,western_union,ELIAS SLEIMAN EST  MEJDLAYA,,North,NORTH LEBANON,,LB,(+961) 1-391000-9611,https://location.westernunion.com/lb/north-lebanon/north/0c09b72ee9401c72b767695f601a2898,Mo-Su 08:00-22:00,Western Union,Q861042
895effa1bf9b7421da182062d7ef2c32,western_union,MOUNETNA STORE AARJAS,,Aarjas,NORTH LEBANON,,LB,+961 70 115 189,https://location.westernunion.com/lb/north-lebanon/aarjas/895effa1bf9b7421da182062d7ef2c32,Mo-Su 08:00-22:00,Western Union,Q861042
a5336e178f563b3f718c2d8e48c5177a,western_union,M CELL STORE [BADDAWI],,Al Beddaoui,NORTH LEBANON,,LB,+961 70 754 090,https://location.westernunion.com/lb/north-lebanon/al-beddaoui/a5336e178f563b3f718c2d8e48c5177a,Mo-Su 08:00-22:00,Western Union,Q861042
153210a3f8e58c4a3d60f31b5be21072,western_union,ONLINE MONEY TRANSFER S A L,,Arde,NORTH LEBANON,,LB,+961 1 391 000,https://location.westernunion.com/lb/north-lebanon/arde/153210a3f8e58c4a3d60f31b5be21072,Mo-Fr 09:00-17:00; Sa 09:00-15:00,Western Union,Q861042
d33b1c0b9dc2fa70d2ed0c5f3dae34d8,western_union,MOBYTES,,Kfardlakos,NORTH LEBANON,,LB,(+961) 5-78992690,https://location.westernunion.com/lb/north-lebanon/kfardlakos/d33b1c0b9dc2fa70d2ed0c5f3dae34d8,Mo-Su 08:00-24:00,Western Union,Q861042
2c8c6a0db726f9167111ea707ca54032,western_union,T 2 STORE  ZGHARTA,,Zgharta,NORTH LEBANON,,LB,+961 1 391 000,https://location.westernunion.com/lb/north-lebanon/zgharta/2c8c6a0db726f9167111ea707ca54032,Mo-Sa 08:00-21:00,Western Union,Q861042
c9d65ee65731444d54ec8e83fd844cfa,western_union,BUCKS MONEY TRANSFER,,Zghorta,NORTH LEBANON,,LB,(+961) 5-03586352,https://location.westernunion.com/lb/north-lebanon/zghorta/c9d65ee65731444d54ec8e83fd844cfa,Mo-Su 08:00-24:00,Western Union,Q861042
6953709d63a81978b6720e283997bc56,western_union,GOLDEN GATE STORE KFERHATA,,Zgharta,NORTH LEBANON,,LB,+961 1 391 000,https://location.westernunion.com/lb/north-lebanon/zgharta/6953709d63a81978b6720e283997bc56,Mo-Su 08:00-20:00,Western Union,Q861042
deb8e3805c8a1180e21e18aa29155c29,western_union,GLOBETECH,,Zgharta,NORTH LEBANON,,LB,+961 5 955 262,https://location.westernunion.com/lb/north-lebanon/zgharta/deb8e3805c8a1180e21e18aa29155c29,Mo-Su 08:00-24:00,Western Union,Q861042
097405b2c923922f8751a8d1b8a046e9,western_union,JYM CELL STORE  ZGHARTA,,Zgharta,NORTH LEBANON,,LB,+961 1 391 000,https://location.westernunion.com/lb/north-lebanon/zgharta/097405b2c923922f8751a8d1b8a046e9,Mo-Su 09:00-21:30,Western Union,Q861042
91ac8ed168b0af8067262c637a7ee225,western_union,BOB M3  ZGHARTA CITY   ST,,Zgharta,NORTH LEBANON,,LB,(+961) 1262,https://location.westernunion.com/lb/north-lebanon/zgharta/91ac8ed168b0af8067262c637a7ee225,Mo-Su 08:00-24:00,Western Union,Q861042
c69e86ff6036389cb1dc810587593955,western_union,SMART WAY SERVICES EST ZGHARTA,,Zgharta,NORTH LEBANON,,LB,(+961) 1-391000-9611,https://location.westernunion.com/lb/north-lebanon/zgharta/c69e86ff6036389cb1dc810587593955,Mo-Su 07:30-24:00,Western Union,Q861042
4a62ed6bcde36de498a7ffd1d24f0507,western_union,JOSEPH MOUAWAD FOR GENERAL TRADING STORE,,Zgharta,NORTH LEBANON,,LB,+961 3 230 184,https://location.westernunion.com/lb/north-lebanon/zgharta/4a62ed6bcde36de498a7ffd1d24f0507,Mo-Su 08:00-22:00,Western Union,Q861042
da2955bd4304b34bf010b92279822a07,western_union,JAMAL FOR TRADING AND SERVICES STORE,,Al Kobbeh,NORTH LEBANON,,LB,+961 71 487 979,https://location.westernunion.com/lb/north-lebanon/al-kobbeh/da2955bd4304b34bf010b92279822a07,Mo-Su 08:00-22:00,Western Union,Q861042
07386dfa451f00bd132e060328672122,western_union,SALEH CELL,,Tripoli,NORTH LEBANON,,LB,(+961) 5-71864109,https://location.westernunion.com/lb/north-lebanon/tripoli/07386dfa451f00bd132e060328672122,Mo-Su 08:00-24:00,Western Union,Q861042
0ac30e05c742be97592ee2099f8ff4a8,western_union,NICOLAS CHEHADEH EST   KOUSBA,,Kousba,NORTH LEBANON,,LB,+961 1 391 000,https://location.westernunion.com/lb/north-lebanon/kousba/0ac30e05c742be97592ee2099f8ff4a8,Mo-Sa 08:00-21:00,Western Union,Q861042
022ac6380cf613103a58ccb6d8196a35,western_union,HABIB S IMPORT & EXPORT STORE TRIPOLI,,Tripoli,NORTH LEBANON,,LB,+961 71 155 130,https://location.westernunion.com/lb/north-lebanon/tripoli/022ac6380cf613103a58ccb6d8196a35,Mo-Su 08:00-22:00,Western Union,Q861042
09b638728e9c7d543bf9e6f707f0f5bc,western_union,MOHAMAD YOUNES SLEIMAN STORE,,Al Kobbeh,NORTH LEBANON,,LB,+961 1 391 000,https://location.westernunion.com/lb/north-lebanon/al-kobbeh/09b638728e9c7d543bf9e6f707f0f5bc,Mo-Su 09:00-23:00,Western Union,Q861042
a43a70f945e44b46e619bf25ef4951a6,western_union,I CELL STORE KOUSBA,,Kosba,NORTH LEBANON,,LB,+961 1 391 000,https://location.westernunion.com/lb/north-lebanon/kosba/a43a70f945e44b46e619bf25ef4951a6,Mo-Sa 09:00-23:00; Su 11:00-23:00,Western Union,Q861042
6216a136cb84a982aa3f170b2681d138,western_union,SALEH CELL STORE JABAL MEHSEN,,Tripoli,NORTH LEBANON,,LB,+961 3 624 354,https://location.westernunion.com/lb/north-lebanon/tripoli/6216a136cb84a982aa3f170b2681d138,Mo-Su 08:00-22:00,Western Union,Q861042
2611ebe1f5b6a8b9d9144675b6a32cbe,western_union,NHAYLI CELL STORE TRIPOLI,,Tripoli,NORTH LEBANON,,LB,+961 3 413 901,https://location.westernunion.com/lb/north-lebanon/tripoli/2611ebe1f5b6a8b9d9144675b6a32cbe,Mo-Su 08:00-22:00,Western Union,Q861042
28ebd081f02ad6da6ec80c3bb802281c,western_union,NAZIR FOR TRADING & SERVICES C,,Al Kobbeh,NORTH LEBANON,,LB,+961 1 391 000,https://location.westernunion.com/lb/north-lebanon/al-kobbeh/28ebd081f02ad6da6ec80c3bb802281c,Mo-Su 09:00-23:00,Western Union,Q861042
475fd8ccab8de3835cee7fe189288a1b,western_union,BOB M3 JBAL MOHSN AS,,Tripoli - Jabal Mohessen,NORTH LEBANON,,LB,(+961) 1262,https://location.westernunion.com/lb/north-lebanon/tripoli---jabal-mohessen/475fd8ccab8de3835cee7fe189288a1b,Mo-Su 08:00-24:00,Western Union,Q861042
72354072826abafffb64e9d45587b568,western_union,ALI ABDALLAH FOR CAR TRADING STORE,,Jabal Mehsen,NORTH LEBANON,,LB,+961 1 391 000,https://location.westernunion.com/lb/north-lebanon/jabal-mehsen/72354072826abafffb64e9d45587b568,Mo-Su 08:00-22:00,Western Union,Q861042
5170c7562ce857ff3126c4a40b83d74d,western_union,MAZLOUM CELL,,Tripoli,NORTH LEBANON,,LB,+961 5 955 262,https://location.westernunion.com/lb/north-lebanon/tripoli/5170c7562ce857ff3126c4a40b83d74d,Mo-Su 08:00-24:00,Western Union,Q861042
a8f53dfe2206e5778f5d04886960f778,western_union,ESPER AL HADDAD STORE [MENYE],,Menye,NORTH LEBANON,,LB,+961 71 432 263,https://location.westernunion.com/lb/north-lebanon/menye/a8f53dfe2206e5778f5d04886960f778,Mo-Su 08:00-22:00,Western Union,Q861042
31674deb78361447aab0595b9e343010,western_union,AL KATTAH STORE DANNIEH,,Donieh,NORTH LEBANON,,LB,+961 3 393 103,https://location.westernunion.com/lb/north-lebanon/donieh/31674deb78361447aab0595b9e343010,Mo-Su 08:00-22:00,Western Union,Q861042
fbaba83069a325cc0ed0a22e7391b09e,western_union,ABDALLAH BOU ABDALLAH STORE RACHIIN,,Rachiin,NORTH LEBANON,,LB,+961 1 391 000,https://location.westernunion.com/lb/north-lebanon/rachiin/fbaba83069a325cc0ed0a22e7391b09e,Mo-Sa 09:00-24:00,Western Union,Q861042
73ab93b375e0713dc5e80d475ba98e43,western_union,BAKKOUR CELL,,Zgharta,NORTH LEBANON,,LB,+961 5 955 262,https://location.westernunion.com/lb/north-lebanon/zgharta/73ab93b375e0713dc5e80d475ba98e43,Mo-Su 08:00-22:00,Western Union,Q861042
fe98996f995f60ae08a7feed3afef1ab,western_union,MOHAMAD KASSEM EST  MENNIEH,,Menye,NORTH LEBANON,,LB,(+961) 1-391000-9611,https://location.westernunion.com/lb/north-lebanon/menye/fe98996f995f60ae08a7feed3afef1ab,Mo-Sa 08:00-18:00; Su 08:00-19:00,Western Union,Q861042
4ca0e2e99b4ca2980f61ef75b7e61695,western_union,HELOU TRAVEL,,Tripoli,NORTH LEBANON,,LB,+961 5 955 262,https://location.westernunion.com/lb/north-lebanon/tripoli/4ca0e2e99b4ca2980f61ef75b7e61695,,Western Union,Q861042
1ac2419c24eaba0969418e40c070eb22,western_union,BAKHOS EL NEMER EST KFARDLAKOUS,,Kfardlakos,NORTH LEBANON,,LB,+961 1 391 000,https://location.westernunion.com/lb/north-lebanon/kfardlakos/1ac2419c24eaba0969418e40c070eb22,Mo-Su 09:00-24:00,Western Union,Q861042
11d99bc7fe09268912facb08674120d0,western_union,JALAL CELL,,Ardeh,NORTH LEBANON,,LB,(+961) 1262,https://location.westernunion.com/lb/north-lebanon/ardeh/11d99bc7fe09268912facb08674120d0,Mo-Su 08:00-24:00,Western Union,Q861042
30c145391db6cf53361b1ec19d465fab,western_union,JNEID FOR GENERAL TRADING STORE ARDEH,,Arde,NORTH LEBANON,,LB,+961 71 950 504,https://location.westernunion.com/lb/north-lebanon/arde/30c145391db6cf53361b1ec19d465fab,Mo-Su 08:00-22:00,Western Union,Q861042
281829cf181edd3dd3e978af728e2100,western_union,HUSSEIN TOUFIC ALAM EL DINE FO,,Menye,NORTH LEBANON,,LB,+961 1 391 000,https://location.westernunion.com/lb/north-lebanon/menye/281829cf181edd3dd3e978af728e2100,Mo-Sa 09:00-22:00; Su 10:00-20:00,Western Union,Q861042
57a32f3488f4dcb5701dc115bf407927,western_union,BOB M3 EL MASRI TRADING   MINYEH,,Al Minyeh,NORTH LEBANON,,LB,(+961) 1262,https://location.westernunion.com/lb/north-lebanon/al-minyeh/57a32f3488f4dcb5701dc115bf407927,Mo-Su 08:00-24:00,Western Union,Q861042
fb3cbc2f584c3bcf57665a9c2446c8dc,western_union,VANESSA TRADING STORE MEZYARA,,Mezyara,NORTH LEBANON,,LB,+961 1 391 000,https://location.westernunion.com/lb/north-lebanon/mezyara/fb3cbc2f584c3bcf57665a9c2446c8dc,Mo-Sa 09:00-19:30,Western Union,Q861042
7bbc6d4da75f71b779a25505fe3950f4,western_union,SEIF FOR TRADING STORE [MENNIEH],,Miniyeh,NORTH LEBANON,,LB,+961 1 391 000,https://location.westernunion.com/lb/north-lebanon/miniyeh/7bbc6d4da75f71b779a25505fe3950f4,Mo-Su 08:00-24:00,Western Union,Q861042
6fadd61a019f323c87557bfc38c44195,western_union,M3-KHEIR CELL,,Minyeh,NORTH LEBANON,,LB,(+961) 1262,https://location.westernunion.com/lb/north-lebanon/minyeh/6fadd61a019f323c87557bfc38c44195,Mo-Su 08:00-24:00,Western Union,Q861042
bd1fefdf4b5ee559c5c1fa90f30a545b,western_union,MOHAMAD KASSEM EST II  MINIEH,,Menye,NORTH LEBANON,,LB,+961 1 391 000,https://location.westernunion.com/lb/north-lebanon/menye/bd1fefdf4b5ee559c5c1fa90f30a545b,Mo-Su 08:00-23:00,Western Union,Q861042
5ec0c8a0a4c6c5f3cc6d77c65b926afc,western_union,ATLAS CELL EST  MERAYATA,,Meryata,NORTH LEBANON,,LB,(+961) 1-391000-9611,https://location.westernunion.com/lb/north-lebanon/meryata/5ec0c8a0a4c6c5f3cc6d77c65b926afc,,Western Union,Q861042
d507efee5def4278ba2e002f2f8b86e1,western_union,GHOURANI FOR TRADING STORE MERYATA,,Meryata,NORTH LEBANON,,LB,+961 1 391 000,https://location.westernunion.com/lb/north-lebanon/meryata/d507efee5def4278ba2e002f2f8b86e1,Mo-Sa 09:30-20:30; Su 15:30-20:30,Western Union,Q861042
49913262f6e54224d78f141bfe31192d,western_union,BOB M3 MERYATA  RS2,,Meryata,NORTH LEBANON,,LB,(+961) 1262,https://location.westernunion.com/lb/north-lebanon/meryata/49913262f6e54224d78f141bfe31192d,Mo-Su 08:00-24:00,Western Union,Q861042
b19cb77ca6d81999c46001b84969f944,western_union,BOB  M3 MERYATA  HI,,Meryata,NORTH LEBANON,,LB,(+961) 1262,https://location.westernunion.com/lb/north-lebanon/meryata/b19cb77ca6d81999c46001b84969f944,Mo-Su 08:00-24:00,Western Union,Q861042
ec09735c9dd77555acf935af8ed2a93f,western_union,M AT M MHEICH FOR GENERAL TRADING,,Menye,NORTH LEBANON,,LB,+961 1 391 000,https://location.westernunion.com/lb/north-lebanon/menye/ec09735c9dd77555acf935af8ed2a93f,Mo-Su 08:00-24:00,Western Union,Q861042
ac6477dc0be7fa95bc3e5f55eb4f32a4,western_union,SAMER DIB EST III  ABDEH,,Akkar,NORTH LEBANON,,LB,+961 1 391 000,https://location.westernunion.com/lb/north-lebanon/akkar/ac6477dc0be7fa95bc3e5f55eb4f32a4,Mo-Su 08:00-20:30,Western Union,Q861042
2b0b686feae36e0dae3555efdc670128,western_union,BOB M3 YARA TRADING  ABDEH,,Aabdeh,NORTH LEBANON,,LB,(+961) 1262,https://location.westernunion.com/lb/north-lebanon/aabdeh/2b0b686feae36e0dae3555efdc670128,Mo-Su 08:00-24:00,Western Union,Q861042
43f66e318e55e1deacc3b5790fc1d90f,western_union,SAMER DIB EST II [ABDEH],,Abdeh,NORTH LEBANON,,LB,(+961) 1-391000-9611,https://location.westernunion.com/lb/north-lebanon/abdeh/43f66e318e55e1deacc3b5790fc1d90f,Mo-Su 08:00-24:00,Western Union,Q861042
de6b8d1f7be8e354c6566f97a83c346d,western_union,EL HAJJ FOR GENERAL TRADING & IMPORT & E,,Nahr El Bared,NORTH LEBANON,,LB,+961 3 502 575,https://location.westernunion.com/lb/north-lebanon/nahr-el-bared/de6b8d1f7be8e354c6566f97a83c346d,Mo-Su 09:00-24:00,Western Union,Q861042
bafeaf88ed1330a0ca0c1fbe75a0f162,western_union,TAIBA CELL,,Tripoli,NORTH LEBANON,,LB,(+961) 1262,https://location.westernunion.com/lb/north-lebanon/tripoli/bafeaf88ed1330a0ca0c1fbe75a0f162,Mo-Su 08:00-24:00,Western Union,Q861042
d3daf4b86ed8f4b490a4a5811502a9b6,western_union,WEHBYS TRADING,,Zouk Bhanine,NORTH LEBANON,,LB,(+961) 1262,https://location.westernunion.com/lb/north-lebanon/zouk-bhanine/d3daf4b86ed8f4b490a4a5811502a9b6,Mo-Su 08:00-24:00,Western Union,Q861042
d479ee143abc9cf411f32075e5c81146,western_union,OMAR 4 STORE AKKAR,,Nahr El Bared,NORTH LEBANON,,LB,+961 1 391 000,https://location.westernunion.com/lb/north-lebanon/nahr-el-bared/d479ee143abc9cf411f32075e5c81146,Mo-Su 09:00-24:00,Western Union,Q861042
e8b9c555d6ccac6ba5845cd8f81962f2,western_union,SWEID FOR GENERAL TRADING STORE BHANNIN,,Bhannin,NORTH LEBANON,,LB,+961 70 536 854,https://location.westernunion.com/lb/north-lebanon/bhannin/e8b9c555d6ccac6ba5845cd8f81962f2,Mo-Su 08:00-22:00,Western Union,Q861042
d819a6e51b5fedcf2126920196769ceb,western_union,TALEB SAT,,Tripoli,NORTH LEBANON,,LB,+961 5 955 262,https://location.westernunion.com/lb/north-lebanon/tripoli/d819a6e51b5fedcf2126920196769ceb,Mo-Su 08:00-22:00,Western Union,Q861042
e872fe88f8f2f2ac2b16dc18263a8394,western_union,DOUNIA FOR GENERAL TRADING STORE MENIEH,,Miniyeh,NORTH LEBANON,,LB,+961 70 561 422,https://location.westernunion.com/lb/north-lebanon/miniyeh/e872fe88f8f2f2ac2b16dc18263a8394,Mo-Su 08:00-22:00,Western Union,Q861042
d67cfc76e3dddfa3d0fa0057036ec365,western_union,YOUSSEF STORE IZAL,,Izal,NORTH LEBANON,,LB,+961 1 391 000,https://location.westernunion.com/lb/north-lebanon/izal/d67cfc76e3dddfa3d0fa0057036ec365,Mo-Su 08:00-19:30,Western Union,Q861042
d25a1dc5ecb88ca780024ca06d2119a3,western_union,SUPERMARKET ZAHRAMAN,,Bebnine,NORTH LEBANON,,LB,(+961) 1262,https://location.westernunion.com/lb/north-lebanon/bebnine/d25a1dc5ecb88ca780024ca06d2119a3,Mo-Su 08:00-24:00,Western Union,Q861042
d1feca71d2a1e3eb2386fc8d3cd018af,western_union,M3 MOBILE NET,,Bebnine,NORTH LEBANON,,LB,(+961) 1262,https://location.westernunion.com/lb/north-lebanon/bebnine/d1feca71d2a1e3eb2386fc8d3cd018af,Mo-Su 08:00-24:00,Western Union,Q861042
10238286491789569664e6f1b04a9437,western_union,AHMAD YOUSSEF STORE KFARCHLAN,,Tripoli,NORTH LEBANON,,LB,+961 70 205 690,https://location.westernunion.com/lb/north-lebanon/tripoli/10238286491789569664e6f1b04a9437,Mo-Su 08:00-22:00,Western Union,Q861042
30f100896be3269462c178d55608fe6c,western_union,I K S STORE ABDEH,,Akkar,NORTH LEBANON,,LB,+961 3 318 899,https://location.westernunion.com/lb/north-lebanon/akkar/30f100896be3269462c178d55608fe6c,Mo-Su 08:00-22:00,Western Union,Q861042
176be256f1992ed93656d34265ebbd0f,western_union,MOHAMAD MAHMOUD AL HOMEISI EST,,Donieh,NORTH LEBANON,,LB,+961 1 391 000,https://location.westernunion.com/lb/north-lebanon/donieh/176be256f1992ed93656d34265ebbd0f,Mo-Sa 09:00-24:00; Su 10:00-24:00,Western Union,Q861042
77231ec23a2dbc4c0be3cbf64c77da4b,western_union,AHMAD KASSEM FOR TRADING STORE ABDEH,,Abdeh,NORTH LEBANON,,LB,+961 3 129 218,https://location.westernunion.com/lb/north-lebanon/abdeh/77231ec23a2dbc4c0be3cbf64c77da4b,Mo-Su 08:00-22:00,Western Union,Q861042
ff61d4bc55a8a940b82014391a666c8f,western_union,SAMER DIB EST I [ABDEH],,Abdeh,NORTH LEBANON,,LB,(+961) 1-391000-9611,https://location.westernunion.com/lb/north-lebanon/abdeh/ff61d4bc55a8a940b82014391a666c8f,Mo-Su 08:00-20:30,Western Union,Q861042
0de89995a9604602ccb21ad15a2fed79,western_union,MASRI CELL EST ABDEH,,Abdeh,NORTH LEBANON,,LB,+961 1 391 000,https://location.westernunion.com/lb/north-lebanon/abdeh/0de89995a9604602ccb21ad15a2fed79,Mo-Su 07:00-24:00,Western Union,Q861042
55aee134cb1810a2fff4d77276fa3ba2,western_union,DREAM COMPUTER SOLIDARITY COMP,,Abdeh,NORTH LEBANON,,LB,+961 1 391 000,https://location.westernunion.com/lb/north-lebanon/abdeh/55aee134cb1810a2fff4d77276fa3ba2,Mo-Su 08:00-20:00,Western Union,Q861042
ebdc886f7463875cd6eb22af8c43d900,western_union,MOHAMAD KASSEM AL SAMAD FOR GENERAL TRA,,Bakhoun,NORTH LEBANON,,LB,+961 71 992 863,https://location.westernunion.com/lb/north-lebanon/bakhoun/ebdc886f7463875cd6eb22af8c43d900,Mo-Su 08:00-22:00,Western Union,Q861042
d6f361ec5eaf4f76133918bc7b422852,western_union,KHDEIR CELL,,Hakl El Azimeh,NORTH LEBANON,,LB,+961 5 955 262,https://location.westernunion.com/lb/north-lebanon/hakl-el-azimeh/d6f361ec5eaf4f76133918bc7b422852,Mo-Su 08:00-24:00,Western Union,Q861042
c262def729c275967ab40d5b5b6f87ba,western_union,AYMAN YOUSSEF EST  BAKHOUN,,Bakhoun,NORTH LEBANON,,LB,(+961) 1-391000-9611,https://location.westernunion.com/lb/north-lebanon/bakhoun/c262def729c275967ab40d5b5b6f87ba,Mo-Su 08:00-23:00,Western Union,Q861042
dd402dd4ceb30f0876a8b941c3520415,western_union,SAAD STATION   BCHARREH,,Bsheri,NORTH LEBANON,,LB,(+961) 1-391000-9611,https://location.westernunion.com/lb/north-lebanon/bsheri/dd402dd4ceb30f0876a8b941c3520415,Mo-Su 10:00-21:00,Western Union,Q861042
e6ad6d875d06e2d892f446fd598ca16f,western_union,GMK,,Becharre,NORTH LEBANON,,LB,+961 5 955 262,https://location.westernunion.com/lb/north-lebanon/becharre/e6ad6d875d06e2d892f446fd598ca16f,Mo-Su 08:00-22:00,Western Union,Q861042
67af0dbca85f9f4227ca5e7b7e9e351e,western_union,BOB   M3 BSHERRI  TD,,Bcharre,NORTH LEBANON,,LB,(+961) 1262,https://location.westernunion.com/lb/north-lebanon/bcharre/67af0dbca85f9f4227ca5e7b7e9e351e,Mo-Su 08:00-24:00,Western Union,Q861042
3e10e809f709999530437256a6ec2604,western_union,BOB   BECHARRE,,Becharre,NORTH LEBANON,,LB,+961 5 955 262,https://location.westernunion.com/lb/north-lebanon/becharre/3e10e809f709999530437256a6ec2604,Mo-Su 08:00-24:00,Western Union,Q861042
a4de45b9f64d04314963735d5e548b3f,western_union,OTHMAN FOR GENERAL TRADING STORE,,Mrah El Sraj,NORTH LEBANON,,LB,+961 1 391 000,https://location.westernunion.com/lb/north-lebanon/mrah-el-sraj/a4de45b9f64d04314963735d5e548b3f,Mo-Sa 08:00-23:00; Su 08:00-22:00,Western Union,Q861042
1aa6e1bf95f0bad849686b689698f687,western_union,BEST LIFE   2,,Taran - Bakhoun,NORTH LEBANON,,LB,+961 70 175 953,https://location.westernunion.com/lb/north-lebanon/taran---bakhoun/1aa6e1bf95f0bad849686b689698f687,Mo-Su 08:00-24:00,Western Union,Q861042
c0460018b5967e69413024257a516d55,western_union,HOMEISI CELLER EST   SIR EL DENNIEH,,North,NORTH LEBANON,,LB,(+961) 1-391000-9611,https://location.westernunion.com/lb/north-lebanon/north/c0460018b5967e69413024257a516d55,Mo-Su 09:00-23:00,Western Union,Q861042
7f9c6efffa77a79ff0119138046e03b0,western_union,BEST LIFE,,Nt Lb,NORTH LEBANON,,LB,+961 5 955 262,https://location.westernunion.com/lb/north-lebanon/nt-lb/7f9c6efffa77a79ff0119138046e03b0,Mo-Su 08:00-22:00,Western Union,Q861042
74b1c85df4039cfa7ca526b42ac9b374,western_union,BOB M3 DENNYEH RS,,Sir Dennyeh,NORTH LEBANON,,LB,(+961) 1262,https://location.westernunion.com/lb/north-lebanon/sir-dennyeh/74b1c85df4039cfa7ca526b42ac9b374,Mo-Su 08:00-24:00,Western Union,Q861042
7d971b4ad860d007bd976819c1353f5a,western_union,KHODOR KAMAL AL DIN SIR EL DANNIEH,,Bqaa Safrin,NORTH LEBANON,,LB,(+961) 5-3283227,https://location.westernunion.com/lb/north-lebanon/bqaa-safrin/7d971b4ad860d007bd976819c1353f5a,Mo-Su 08:00-23:00,Western Union,Q861042
c82862b4aac70f874db44ca5f5a0d722,western_union,TOBACO HOUSE,,Akkar,NORTH LEBANON,,LB,+961 5 955 262,https://location.westernunion.com/lb/north-lebanon/akkar/c82862b4aac70f874db44ca5f5a0d722,Mo-Su 08:00-22:00,Western Union,Q861042
9fbb488c88ef8cb5b9afbc3251bfe5dd,western_union,MOHAMAD YOUNIS SLEIMAN II STORE  HISA,,Hisa,NORTH LEBANON,,LB,+961 3 266 056,https://location.westernunion.com/lb/north-lebanon/hisa/9fbb488c88ef8cb5b9afbc3251bfe5dd,Mo-Su 08:00-08:30,Western Union,Q861042
d0652f006505c9d1d3133cbd72027328,western_union,BOB M3 WAJDI MAHMOUD EL HALABI HALBA,,Halba,NORTH LEBANON,,LB,(+961) 1262,https://location.westernunion.com/lb/north-lebanon/halba/d0652f006505c9d1d3133cbd72027328,Mo-Su 08:00-24:00,Western Union,Q861042
a5b75fe95534a0552f70731719ee10d5,western_union,CASTLE SERVICES,,Tripoli,NORTH LEBANON,,LB,+961 5 955 262,https://location.westernunion.com/lb/north-lebanon/tripoli/a5b75fe95534a0552f70731719ee10d5,Mo-Su 08:00-24:00,Western Union,Q861042
0be9b9e001e0df9d384b7067fdf45380,western_union,ZOEBI FOR TRADING AND TRANSFER STORE,,Halba,NORTH LEBANON,,LB,(+961) 5-81236448,https://location.westernunion.com/lb/north-lebanon/halba/0be9b9e001e0df9d384b7067fdf45380,Mo-Su 08:00-23:00,Western Union,Q861042
703d9424642630bfb93d1b0a8ecb4e04,western_union,SUPERMARKET AL DAYAA STORE DANIEH,,Bkarsouna,NORTH LEBANON,,LB,+961 1 391 000,https://location.westernunion.com/lb/north-lebanon/bkarsouna/703d9424642630bfb93d1b0a8ecb4e04,Mo-Su 08:00-22:00,Western Union,Q861042
6bf1e8a08955f6d4e9ffc290d7678602,western_union,MERHEB PETROLEUM,,Kharnoube,NORTH LEBANON,,LB,(+961) 1262,https://location.westernunion.com/lb/north-lebanon/kharnoube/6bf1e8a08955f6d4e9ffc290d7678602,Mo-Su 08:00-24:00,Western Union,Q861042
4a630350c2d9b196a6104a06f1d1e1f7,western_union,KHOURY CELL STORE KOBAYAT,,Kobayat,NORTH LEBANON,,LB,+961 70 411 252,https://location.westernunion.com/lb/north-lebanon/kobayat/4a630350c2d9b196a6104a06f1d1e1f7,Mo-Su 08:00-22:00,Western Union,Q861042
6b27c93e419ac92856f3b5f2be423231,western_union,ABED L KADER TRADING,,Kobayat,NORTH LEBANON,,LB,(+961) 1262,https://location.westernunion.com/lb/north-lebanon/kobayat/6b27c93e419ac92856f3b5f2be423231,Mo-Su 08:00-24:00,Western Union,Q861042
950cc93512ce6174e909d57330d5fd19,western_union,NAHNOU,,Birreh,NORTH LEBANON,,LB,(+961) 1262,https://location.westernunion.com/lb/north-lebanon/birreh/950cc93512ce6174e909d57330d5fd19,Mo-Su 08:00-24:00,Western Union,Q861042
f70117fc24956e9ea1483c5d92ab7032,western_union,MOHAMAD ZAKARIA FOR GENERAL TR,,Fnaydek,NORTH LEBANON,,LB,(+961) 1-391000-9611,https://location.westernunion.com/lb/north-lebanon/fnaydek/f70117fc24956e9ea1483c5d92ab7032,Mo-Su 09:00-24:00,Western Union,Q861042
f4d4420ce814966f5c8cdc258b016870,western_union,EL AMANA FOR GENERAL TRADING,,Wadi Khaled,NORTH LEBANON,,LB,(+961) 1262,https://location.westernunion.com/lb/north-lebanon/wadi-khaled/f4d4420ce814966f5c8cdc258b016870,Mo-Su 08:00-24:00,Western Union,Q861042
7d5531353ea44ba305f1e1ac7405abdb,western_union,SMART PHONE - RAHBEH,,Rahbe,NORTH LEBANON,,LB,(+961) 1262,https://location.westernunion.com/lb/north-lebanon/rahbe/7d5531353ea44ba305f1e1ac7405abdb,Mo-Su 08:00-24:00,Western Union,Q861042
