Ref,Spider,Name,Address,City,State,Zipcode,Country,Phone,Website,Hours,Brand,WikiData
239208,bluerhino,Circle K #2746481,,Ellsworth,WI,,US,+1 715-273-5012,,,Blue Rhino,Q65681213
182317,bluerhino,Speedway #4241,,Ellsworth,WI,,US,+1 715-273-4700,,,Blue Rhino,Q65681213
179453,bluerhino,Nil 9 Ventures #143522,,Ellsworth,WI,,US,+1 715-273-5500,,,Blue Rhino,Q65681213
05782906601015401100100000000000,bp,BP,,Ellsworth,WI,,US,+1 715-273-3408,,Mo-Fr 05:00-23:00; Sa-Su 06:00-22:00,BP,Q152057
13034,cenex,Consumers Cooperative Oil Co,,Ellsworth,WI,,US,+1 715-273-4363,,,Cenex,Q62127191
04552,chevrolet,"QUINN MOTORS OF ELLSWORTH, INC.",,Ellsworth,WI,,US,+1 888-273-4331,https://www.quinnmotorsofellsworth.com,Mo-Fr 08:00-18:00; Sa 08:00-13:00,Chevrolet,Q29570
35552,citi,ATM ASSOCIATED BANK,,Ellsworth,WI,,US,,,,Citibank,Q857063
77203,citi,ATM Speedway,,Ellsworth,WI,,US,,,,Citibank,Q857063
https://www.edwardjones.com/us-en/financial-advisor/hillary-stubbe,edwardjones,Hillary Stubbe,,Ellsworth,WI,,US,+1 715-941-4306,https://www.edwardjones.com/us-en/financial-advisor/hillary-stubbe,Mo-Th 08:00-17:00; Fr 08:00-15:00,Edward Jones,Q5343830
Motorcraft4903USAEnglish,ford,"Ellsworth Ford, Inc.",,Wisconsin,WI,,US,+1 715-273-4319,,,Ford,Q44294
https://www.ford.com/dealerships/dealer-details/wi/ellsworth/ellsworth-ford-inc/,ford_dealers_us,"Ellsworth Ford, Inc.",,Ellsworth,WI,,US,+1 715-941-0730,https://www.ford.com/dealerships/dealer-details/wi/ellsworth/ellsworth-ford-inc/,Mo-Th 09:00-17:30; Fr 09:00-17:00; Sa 09:00-12:00,Ford Motor Company,Q44294
2120,snap_fitness,"Ellsworth, WI",185 E Main St,Ellsworth,WI,,US,+1 715-273-3734,https://www.snapfitness.com/us/gyms/ellsworth-wi,24/7,Snap Fitness,Q7547254
https://restaurants.subway.com/#14897285,subway,Subway,,Ellsworth Pierce,WI,,US,+1 715-273-4713,https://restaurants.subway.com/united-states/wi/ellsworth/372-w-main-st,Mo-Su 08:00-21:00,Subway,Q244457
1362413,usps,ELLSWORTH,,ELLSWORTH,WI,,US,+1 715-273-4705,,Mo-Fr 08:30-16:30; Sa 08:30-10:30,United States Postal Service,Q668687
5401100004,usps_collection_boxes,USPS COLLECTION BOX - BLUE BOX,130 N CHESTNUT ST,ELLSWORTH,WI,,US,,,,United States Postal Service,Q668687
5401100001,usps_collection_boxes,USPS COLLECTION BOX - BLUE BOX,270 N MAPLE ST,ELLSWORTH,WI,,US,,,,United States Postal Service,Q668687
5401100006,usps_collection_boxes,USPS COLLECTION BOX - PO LOBBY,270 N MAPLE ST,ELLSWORTH,WI,,US,,,,United States Postal Service,Q668687
5401100008,usps_collection_boxes,USPS COLLECTION BOX - PO LOBBY,270 N MAPLE ST,ELLSWORTH,WI,,US,,,,United States Postal Service,Q668687
5401100002,usps_collection_boxes,USPS COLLECTION BOX - BLUE BOX,157 E MAIN ST,ELLSWORTH,WI,,US,,,,United States Postal Service,Q668687
,visa,,,ELLSWORTH,WI,,US,,,,,
,visa,,,ELLSWORTH,WI,,US,,,,,
,visa,,,ELLSWORTH,WI,,US,,,,,
,visa,,,ELLSWORTH,WI,,US,,,,,
,visa,,,ELLSWORTH,WI,,US,,,,,
,visa,,,WLSWORTH,WI,,US,,,,,
,visa,,,ELLSWORTH,WI,,US,,,,,
,visa,,,ELSWORTH,WI,,US,,,,,
,visa,,,ELLSWORTH,WI,,US,,,,,
,visa,,,ELLSWORTH,WI,,US,,,,,
,visa,,,ELLSWORTH,WI,,US,,,,,
,visa,,,ELLSWORTH,WI,,US,,,,,
,visa,,,ELLSWORTH,WI,,US,,,,,
,visa,,,ELLSWORTH,WI,,US,,,,,
,visa,,,ELLSWORTH,WI,,US,,,,,
,visa,,,ELLSWORTH,WI,,US,,,,,
,visa,,,ELLSWORTH,WI,,US,,,,,
,visa,,,ELLSWORTH,WI,,US,,,,,
176__W__MAIN__ST_ELLSWORTH_WI_54011,wellsfargo,,176 W MAIN ST,ELLSWORTH,WI,,US,+1 800-869-3557,https://www.wellsfargo.com/locator/bank/176__W__MAIN__ST_ELLSWORTH_WI_54011/,,Wells Fargo,Q744149
