Ref,Spider,Name,Address,City,State,Zipcode,Country,Phone,Website,Hours,Brand,WikiData
855,aaa,Tacoma Office,,Tacoma,WA,,US,+1 253-756-3050,,,American Automobile Association,Q463436
https://locations.atipt.com/tacoma-wa,ati_physical_therapy,ATI Physical Therapy Tacoma 7121,,Tacoma,WA,,US,+1 253-572-8684,https://locations.atipt.com/tacoma-wa,,ATI Physical Therapy,Q50039703
BBW01524,bathandbodyworks_us,TACOMA CENTRAL SHOPPING CENTER,,TACOMA,WA,,US,+1 253-627-4686,,Mo-Sa 10:00-18:00; Su 11:00-18:00,Bath & Body Works,Q810773
65543,bluerhino,Fred Meyer #00390,,Tacoma,WA,,US,+1 253-756-9280,,,Blue Rhino,Q65681213
183040,bluerhino,Agrishop Ace Tacoma #14923,,Tacoma,WA,,US,+1 253-272-9331,,,Blue Rhino,Q65681213
//locations.carters.com/wa/tacoma/carters-tacoma-wa,carters_us,Carter's Tacoma,,Tacoma,WA,,US,+1 253-272-0675,https://locations.carters.com/wa/tacoma/carters-tacoma-wa,Mo-Sa 10:00-19:00; Su 11:00-18:00,Carter's,Q5047083
12297782,chase_us,INDOOR - 265790,,TACOMA,WA,,US,+1 800-935-9935,https://locator.chase.com/wa/tacoma/4505-s-19th-st,,Chase,Q524629
82362,citi,ATM Target,,Tacoma,WA,,US,,,,Citibank,Q857063
59290,citi,ATM HERITAGE BANK,,Tacoma,WA,,US,,,,Citibank,Q857063
59562,citi,ATM HOMESTREET BANK,,Tacoma,WA,,US,,,,Citibank,Q857063
26947,citi,ATM 7ELEVEN-FCTI,,Tacoma,WA,,US,,,,Citibank,Q857063
34676,citi,ATM Ampm,,Tacoma,WA,,US,,,,Citibank,Q857063
36407,citi,ATM Bates Technical - A Main Building- 2nd Floor,,Tacoma,WA,,US,,,,Citibank,Q857063
16123,cvs_us,CVS Pharmacy,,Tacoma,WA,,US,+1 253-414-0303,https://www.cvs.com/store-locator/tacoma-wa-pharmacies/3320-s-23rd-st-tacoma-wa-98405/storeid=16123,"Mo-Fr 09:00-13:30,14:00-20:00; Sa-Su 09:00-13:30,14:00-18:00",CVS Pharmacy,Q2078880
200214,electrify_america,"Walmart 4137 - Tacoma, WA",,Tacoma,WA,,US,,,,Electrify America,Q59773555
https://local.fedex.com/#1027432363,fedex,FedEx Authorized ShipCenter,,Tacoma,WA,,US,+1 253-508-1424,https://local.fedex.com/en-us/wa/tacoma/00w6g,,FedEx,Q459477
https://local.fedex.com/#25457756,fedex,,,Tacoma,WA,,US,+1 800-463-3339,https://local.fedex.com/en-us/wa/tacoma/00j8b,,FedEx,Q459477
0733,gamestop_us,Tacoma Central,,Tacoma,WA,,US,+1 253-383-3367,https://www.gamestop.com/search/?store=0733,Mo-Th 12:00-20:00; Fr-Sa 10:00-21:00; Su 12:00-19:00,GameStop,Q202210
https://stores.gnc.com/#24058877,gnc,GNC Tacoma Central,,,WA,,US,+1 253-627-4794,https://stores.gnc.com/all-stores-washington/tacoma/3208-south-23rd-street,Mo-Sa 10:00-20:00; Su 11:00-18:00,GNC,Q4808595
https://salons.greatclips.com/us/wa/tacoma/3202-s-23rd-st,greatclips,Great Clips,,Tacoma,WA,,US,+1 253-572-3817,https://salons.greatclips.com/us/wa/tacoma/3202-s-23rd-st,Mo-Fr 09:00-19:00; Sa-Su 09:00-18:00,Great Clips,Q5598967
wa_tacoma_breakfast-2323-s-union-ave-3835,ihop,IHOP Breakfast Restaurants Near You at 2323 S Union Ave,,Tacoma,WA,,US,,https://restaurants.ihop.com/en-us/wa/tacoma/breakfast-2323-s-union-ave-3835,,IHOP,Q1185675
https://office.jacksonhewitt.com/#27577096,jackson_hewitt,Jackson Hewitt,,Tacoma,WA,,US,+1 253-666-6488,https://office.jacksonhewitt.com/tax-preparation-services-locations/en/wa/tacoma/4505-south-19th-street/13461,Mo-Sa 11:00-19:00; Su 12:00-16:00,Jackson Hewitt,Q6117132
https://office.jacksonhewitt.com/#27580109,jackson_hewitt,Jackson Hewitt,,Tacoma,WA,,US,+1 253-533-2739,https://office.jacksonhewitt.com/tax-preparation-services-locations/en/wa/tacoma/1965-s-union-ave/54137,Mo-Sa 11:00-19:00; Su 12:00-16:00,Jackson Hewitt,Q6117132
https://locations.jimmyjohns.com/wa/tacoma/sandwiches-2441.html,jimmy_johns,Jimmy John's,,Tacoma,WA,,US,+1 253-272-2022,https://locations.jimmyjohns.com/wa/tacoma/sandwiches-2441.html,,Jimmy John's,Q1689380
https://healthy.kaiserpermanente.org/oregon-washington/facilities/discovery-practice-management-center-for-discovery-tacoma-165679,kaiser_permanente_us,Discovery Practice Management - Center for Discovery - Tacoma,,Tacoma,WA,,US,+1 714-710-1961,https://healthy.kaiserpermanente.org/oregon-washington/facilities/discovery-practice-management-center-for-discovery-tacoma-165679,,Kaiser Permanente,Q1721601
36020,little_free_library,Little library in wonderland #36020 Tacoma WA,,Tacoma,WA,,US,,,,Little Free Library,Q6650101
15016,little_free_library,Cushman Valley Little Free Library #15016 Tacoma WA,,Tacoma,WA,,US,,,,Little Free Library,Q6650101
97841,little_free_library,Kelli Walker #97841 Tacoma WA,,Tacoma,WA,,US,,,,Little Free Library,Q6650101
8411,little_free_library,Wong Leigh #8411 Tacoma WA,,Tacoma,WA,,US,,,,Little Free Library,Q6650101
8410,little_free_library,Sally Perkins #8410 Tacoma WA,,Tacoma,WA,,US,,,,Little Free Library,Q6650101
74790,little_free_library,Altamese's Little Library #74790 Tacoma WA,,Tacoma,WA,,US,,,,Little Free Library,Q6650101
111592,little_free_library,Cooper #111592 Tacoma WA,,Tacoma,WA,,US,,,,Little Free Library,Q6650101
167659,little_free_library,Tacoma Community House Little Free Library #167659 Tacoma WA,,Tacoma,WA,,US,,,,Little Free Library,Q6650101
114016,little_free_library,"JJ Tacoma Teens, TUL, & THA #114016 Tacoma WA",,Tacoma,WA,,US,,,,Little Free Library,Q6650101
143611,little_free_library,LFL@The Rise@19th #143611 Tacoma WA,,Tacoma,WA,,US,,,,Little Free Library,Q6650101
171203,little_free_library,Gallucci Learning Garden #171203 #171203 Tacoma WA,,Tacoma,WA,,US,,,,Little Free Library,Q6650101
116497,little_free_library,Little Free Library #116497 Tacoma WA,,Tacoma,WA,,US,,,,Little Free Library,Q6650101
86107,little_free_library,South Stevens Street Community Library #86107 Tacoma WA,,Tacoma,WA,,US,,,,Little Free Library,Q6650101
27323,little_free_library,Jim Graham #27323 Tacoma WA,,Tacoma,WA,,US,,,,Little Free Library,Q6650101
14393,little_free_library,Lois Stark #14393 Tacoma WA,,Tacoma,WA,,US,,,,Little Free Library,Q6650101
113209,little_free_library,The Lippert Library #113209 Tacoma WA,,Tacoma,WA,,US,,,,Little Free Library,Q6650101
44870,little_free_library,Hayli Walker #44870 Tacoma WA,,Tacoma,WA,,US,,,,Little Free Library,Q6650101
83230,little_free_library,Feed 253 little library #83230 Tacoma WA,,Tacoma,WA,,US,,,,Little Free Library,Q6650101
83228,little_free_library,Lily’s Library #83228 Tacoma WA,,Tacoma,WA,,US,,,,Little Free Library,Q6650101
153065,little_free_library,Zoe’s Little Library #153065 Tacoma WA,,Tacoma,WA,,US,,,,Little Free Library,Q6650101
109831,little_free_library,A&D’s Little Free Library #109831 Tacoma WA,,Tacoma,WA,,US,,,,Little Free Library,Q6650101
136632,little_free_library,Pine Street Library #136632 Tacoma WA,,Tacoma,WA,,US,,,,Little Free Library,Q6650101
19300,little_free_library,Melissa Brodd #19300 Tacoma WA,,Tacoma,WA,,US,,,,Little Free Library,Q6650101
152272,little_free_library,Luca's Little Library #152272 Tacoma WA,,Tacoma,WA,,US,,,,Little Free Library,Q6650101
99457,little_free_library,Robin's Library #99457 Tacoma WA,,Tacoma,WA,,US,,,,Little Free Library,Q6650101
101762,little_free_library,McNeely Family Library #101762 Tacoma WA,,Tacoma,WA,,US,,,,Little Free Library,Q6650101
157417,little_free_library,Troy & Trish Mason #157417 Tacoma WA,,Tacoma,WA,,US,,,,Little Free Library,Q6650101
71500429,moneygram,WAL-MART - #4137,,TACOMA,WA,,US,+1 253-414-9526,,Mo-Sa 08:00-20:00; Su 10:00-18:00,MoneyGram,Q1944412
67990784,moneygram,WAL-MART - #4137,,TACOMA,WA,,US,+1 253-414-9526,,Mo-Sa 08:00-20:00; Su 10:00-18:00,MoneyGram,Q1944412
//locations.oshkosh.com/wa/tacoma/oshkosh-tacoma-wa,oshkosh_us,Oshkosh B'gosh Tacoma,,Tacoma,WA,,US,+1 253-272-0675,https://locations.oshkosh.com/wa/tacoma/oshkosh-tacoma-wa,Mo-Sa 10:00-19:00; Su 11:00-18:00,OshKosh B'gosh,Q1417347
https://locations.papamurphys.com/#15430409,papamurphys,Pizza Takeout & Delivery,,Tacoma,WA,,US,+1 253-272-1000,https://locations.papamurphys.com/wa/tacoma/1201-south-union-avenue,Mo-Su 10:00-21:00,Papa Murphy's,Q7132349
https://www.plannedparenthood.org/health-center/washington/tacoma/98405/tacoma-health-center-4106-91810,planned_parenthood,Planned Parenthood,,Tacoma,WA,,US,,https://www.plannedparenthood.org/health-center/washington/tacoma/98405/tacoma-health-center-4106-91810,,Planned Parenthood,Q2553262
https://www.publicstorage.com/self-storage-wa-tacoma/2069.html,public_storage_us,Public Storage,,Tacoma,WA,,US,+1 253-242-5971,https://www.publicstorage.com/self-storage-wa-tacoma/2069.html,,Public Storage,Q1156045
https://local.pharmacy.safeway.com/#5673641,safeway,Safeway Pharmacy,,Tacoma,WA,,US,+1 253-572-7753,https://local.pharmacy.safeway.com/safeway/wa/tacoma/1112-s-m-st.html,,Safeway,Q1508234
https://local.safeway.com/#5604569,safeway,Safeway,,Tacoma,WA,,US,+1 253-627-8840,https://local.safeway.com/safeway/wa/tacoma/1112-s-m-st.html,,Safeway,Q1508234
https://restaurants.subway.com/#14907501,subway,Subway Walmart,,Tacoma Pierce,WA,,US,+1 253-627-4453,https://restaurants.subway.com/united-states/wa/tacoma/1965-s-union-ave,Mo-Su 08:00-21:00,Subway,Q244457
08604,tjx,Tacoma,3216 South 23rd,Tacoma,WA,,US,+1 253-272-4422,,Mo-Sa 09:30-21:30; Su 10:00-20:00,TJ Maxx,Q10860683
034717,uhaul,19th St Grocery & Deli,1750 S Prospect St,Tacoma,WA,,US,+1 253-472-0470,,Mo-Sa 00:00-17:00,U-Haul,Q7862902
018329,uhaul,Urban Storage South G St,2365 S G St,Tacoma,WA,,US,+1 253-537-0411,,Mo-Sa 00:00-18:00; Su 00:00-15:00,U-Haul,Q7862902
702021,uhaul,U-Haul at 12th & L,1212 Earnest S Brazill St,Tacoma,WA,,US,+1 253-627-6116,,Mo-Th 00:00-19:00; Fr 00:00-20:00; Sa 00:00-19:00; Su 00:00-17:00,U-Haul,Q7862902
1372010,usps,MARTIN LUTHER KING JR,,TACOMA,WA,,US,+1 253-272-3082,,Mo-Fr 09:30-16:00,United States Postal Service,Q668687
9840500004,usps_collection_boxes,USPS COLLECTION BOX - BLUE BOX,715 S G ST,TACOMA,WA,,US,,,,United States Postal Service,Q668687
9840500041,usps_collection_boxes,USPS COLLECTION BOX - BLUE BOX,1302 YAKIMA AVE,TACOMA,WA,,US,,,,United States Postal Service,Q668687
9840500050,usps_collection_boxes,USPS COLLECTION BOX - BLUE BOX,1802 YAKIMA AVE,TACOMA,WA,,US,,,,United States Postal Service,Q668687
9840500011,usps_collection_boxes,USPS COLLECTION BOX - BLUE BOX,1717 S J ST,TACOMA,WA,,US,,,,United States Postal Service,Q668687
9840500037,usps_collection_boxes,USPS COLLECTION BOX - BLUE BOX,1421 S J ST,TACOMA,WA,,US,,,,United States Postal Service,Q668687
9840500055,usps_collection_boxes,USPS COLLECTION BOX - PO LOBBY,1220 MARTIN LUTHER KING JR WAY,TACOMA,WA,,US,,,,United States Postal Service,Q668687
9840500053,usps_collection_boxes,USPS COLLECTION BOX - BLUE BOX,1220 MARTIN LUTHER KING JR WAY,TACOMA,WA,,US,,,,United States Postal Service,Q668687
9840500070,usps_collection_boxes,USPS COLLECTION BOX - PO LOBBY,1220 MARTIN LUTHER KING JR WAY,TACOMA,WA,,US,,,,United States Postal Service,Q668687
9840500013,usps_collection_boxes,USPS COLLECTION BOX - BLUE BOX,1210 6TH AVE,TACOMA,WA,,US,,,,United States Postal Service,Q668687
9840500014,usps_collection_boxes,USPS COLLECTION BOX - BLUE BOX,805 MARTIN LUTHER KING JR WAY,TACOMA,WA,,US,,,,United States Postal Service,Q668687
9840500018,usps_collection_boxes,USPS COLLECTION BOX - BLUE BOX,1210 S 11TH ST,TACOMA,WA,,US,,,,United States Postal Service,Q668687
9840500003,usps_collection_boxes,USPS COLLECTION BOX - BLUE BOX,1702 6TH AVE,TACOMA,WA,,US,,,,United States Postal Service,Q668687
9840500031,usps_collection_boxes,USPS COLLECTION BOX - BLUE BOX,2420 S UNION AVE,TACOMA,WA,,US,,,,United States Postal Service,Q668687
9840500069,usps_collection_boxes,USPS COLLECTION BOX - BLUE BOX,1901 S UNION AVE,TACOMA,WA,,US,,,,United States Postal Service,Q668687
9840500030,usps_collection_boxes,USPS COLLECTION BOX - BLUE BOX,3315 S 23RD ST,TACOMA,WA,,US,,,,United States Postal Service,Q668687
9840500052,usps_collection_boxes,USPS COLLECTION BOX - BLUE BOX,1901 S CEDAR ST,TACOMA,WA,,US,,,,United States Postal Service,Q668687
,visa,,,TACOMA,WA,,US,,,,,
,visa,,,TACOMA,WA,,US,,,,,
,visa,,,TACOMA,WA,,US,,,,,
,visa,,,TACOMA,WA,,US,,,,,
,visa,,,TACOMA,WA,,US,,,,,
,visa,,,TACOMA,WA,,US,,,,,
,visa,,,TACOMA,WA,,US,,,,,
,visa,,,TACOMA,WA,,US,,,,,
,visa,,,TACOMA,WA,,US,,,,,
,visa,,,TACOMA,WA,,US,,,,,
,visa,,,TACOMA,WA,,US,,,,,
,visa,,,TACOMA,WA,,US,,,,,
,visa,,,TACOMA,WA,,US,,,,,
,visa,,,TACOMA,WA,,US,,,,,
,visa,,,TACOMA,WA,,US,,,,,
,visa,,,TACOMA,WA,,US,,,,,
,visa,,,TACOMA,WA,,US,,,,,
,visa,,,TACOMA,WA,,US,,,,,
,visa,,,TACOMA,WA,,US,,,,,
,visa,,,TACOMA,WA,,US,,,,,
,visa,,,TACOMA,WA,,US,,,,,
,visa,,,TACOMA,WA,,US,,,,,
,visa,,,TACOMA,WA,,US,,,,,
,visa,,,TACOMA,WA,,US,,,,,
,visa,,,TACOMA,WA,,US,,,,,
,visa,,,TACOMA,WA,,US,,,,,
,visa,,,TACOMA,WA,,US,,,,,
,visa,,,TACOMA,WA,,US,,,,,
,visa,,,TACOMA,WA,,US,,,,,
,visa,,,TACOMA,WA,,US,,,,,
,visa,,,TACOMA,WA,,US,,,,,
,visa,,,TACOMA,WA,,US,,,,,
,visa,,,TACOMA,WA,,US,,,,,
,visa,,,TACOMA,WA,,US,,,,,
,visa,,,TACOMA,WA,,US,,,,,
,visa,,,TACOMA,WA,,US,,,,,
,visa,,,TACOMA,WA,,US,,,,,
,visa,,,TACOMA,WA,,US,,,,,
,visa,,,TACOMA,WA,,US,,,,,
098d75d767a931ab8ee02577d7e8af1e,western_union,WALMART #004137,,Tacoma,WA,,US,+1 253-414-9526,https://location.westernunion.com/us/wa/tacoma/098d75d767a931ab8ee02577d7e8af1e,Mo-Sa 08:00-20:00; Su 10:00-18:00,Western Union,Q861042
ymca-pierce-and-kitsap-counties,ymca,YMCA of Pierce and Kitsap Counties,4717 S 19th St Ste 201,Tacoma,WA,,US,+1 206-708-3508,https://www.ymca.org/locations/ymca-pierce-and-kitsap-counties,Mo-Fr 08:00-17:00,YMCA,Q157169
