Ref,Spider,Name,Address,City,State,Zipcode,Country,Phone,Website,Hours,Brand,WikiData
STA-17,aldi_sud_de,,"Maarstraße 3, 53227, Bonn, Deutschland",Bonn,,,DE,,,Mo-Sa 08:00-21:00,ALDI Süd,Q41171672
20146700,bp,Martin Orth,,Bonn,,,DE,+49 228 442219,http://tankstelle.aral.de/tankstelle/20146700,Mo-Sa 06:00-23:00; Su 08:00-23:00,BP,Q152057
513,deutsche_telekom_de,Telekom Shop Bonn,,Bonn,,,DE,+49 228 1810,https://shopseite.telekom.de/west/bonn/landgrabenweg-151,Mo-Fr 09:30-18:00,Deutsche Telekom,Q9396
CGNS61,enterprise,Bonn-Beuel,,Bonn,,,DE,+49 228 1843760,,,Enterprise Rent-A-Car,Q17085454
2760915765,gls_de,Augla Autoglas Service GmbH,,Bonn,,,DE,+49 1573 0643361,,Mo-Fr 07:30-17:00,General Logistics Systems,Q46495823
6212,lidl_de,,,Bonn,,,DE,,,Mo-Sa 07:00-21:00,Lidl,Q151954
40974,seat_de,Heinrich Thomas GmbH & Co. KG,,Bonn,,,DE,+49 228 44910,https://auto-thomas-bonn.seat.de,,SEAT,Q188217
24465,sparkasse_de,Sparkasse KölnBonn Geldautomat Oberkassel,,Bonn,,,DE,+49 221 2260,https://www.sparkasse.de/standorte/geldautomaten/sparkasse-koeln-bonn-geldautomat-oberkassel-24465,Mo-Su 06:00-23:00,Sparkasse,Q13601825
34087,sparkasse_de,Sparkasse KölnBonn Filiale Oberkassel,,Bonn,,,DE,+49 221 22634300,https://www.sparkasse.de/standorte/filialen/sparkasse-koeln-bonn-filiale-oberkassel-34087,Mo-We 09:30-12:30; Th 14:00-18:00; Fr 09:30-12:30,Sparkasse,Q13601825
175048,sparkasse_de,Sparkasse KölnBonn mobile Sparkasse Beuel Süd,,Bonn,,,DE,+49 221 2260,https://www.sparkasse.de/standorte/filialen/sparkasse-koeln-bonn-mobile-sparkasse-beuel-sued-175048,Mo 09:30-10:30,Sparkasse,Q13601825
EX_BP_657,totalenergies,"ARAL TANKSTELLE BONN, KÖNIGSWI",,Bonn,,,DE,,https://store.totalenergies.fr/en_EN/EX_BP_657,,Aral,Q565734
,visa,,,BONN,,,DE,,,,,
,visa,,,BONN,,,DE,,,,,
,visa,,,BONN,,,DE,,,,,
,visa,,,BONN,,,DE,,,,,
,visa,,,BONN,,,DE,,,,,
,visa,,,BONN,,,DE,,,,,
,visa,,,BONN,,,DE,,,,,
https://www.vr.de/standorte/B/Bn-Bz/volksbank-koeln-bonn-eg-sb-standort-oberkassel-13355.html,vr_bank,Volksbank Köln Bonn eG - SB-Standort Oberkassel,,Bonn,,,DE,+49 228 7160,https://www.volksbank-koeln-bonn.de,Mo-Su 06:00-23:00,,
https://www.vr.de/standorte/B/Bn-Bz/volksbank-koeln-bonn-eg-sb-standort-kuedinghoven-18484.html,vr_bank,Volksbank Köln Bonn eG - SB-Standort Küdinghoven,,Bonn,,,DE,+49 228 7160,https://www.volksbank-koeln-bonn.de,Mo-Su 06:00-23:00,,
