Ref,Spider,Name,Address,City,State,Zipcode,Country,Phone,Website,Hours,Brand,WikiData
https://stores.advanceautoparts.com/ny/chittenango/431-genesee-st,advance_auto_parts_us,Advance Auto Parts,,Chittenango,NY,,US,+1 315-687-6141,https://stores.advanceautoparts.com/ny/chittenango/431-genesee-st,Mo-Sa 07:30-21:00; Su 09:00-20:00,Advance Auto Parts,Q4686051
186834,bluerhino,Walgreens #17848,,Chittenango,NY,,US,+1 315-687-3841,,,Blue Rhino,Q65681213
243990,bluerhino,Tops Market #359,,CHITTENANGO,NY,,US,+1 315-687-9224,,,Blue Rhino,Q65681213
161382,bluerhino,Chittenango SavOn,,Chittenango,NY,,US,+1 315-606-3240,,,Blue Rhino,Q65681213
15061,chevrolet,SUN CHEVROLET,,Chittenango,NY,,US,+1 315-687-7231 ext. 4954,https://www.sun-chevy.com,Mo-Th 08:45-19:00; Fr 08:45-18:00; Sa 08:45-17:00,Chevrolet,Q29570
39895,citi,ATM Chittenango Service Area,,Chittenango,NY,,US,,,,Citibank,Q857063
87473,citi,ATM Walgreens,,Chittenango,NY,,US,,,,Citibank,Q857063
23829,dollar_general,Dollar General,,Chittenango,NY,,US,+1 615-855-4000,https://www.dollargeneral.com/store-directory/ny/chittenango/23829,Mo-Su 08:00-22:00,Dollar General,Q145168
340239,dunkin_us,Dunkin',,Chittenango,NY,,US,+1 315-687-7700,https://locations.dunkindonuts.com/en/ny/chittenango/900-e-genesee-st/340239,Mo-Su 04:30-20:00,Dunkin',Q847743
31315,h_r_block,H&R Block,,Chittenango,NY,,US,+1 315-687-6028,https://www.hrblock.com/local-tax-offices/new-york/chittenango/248-genesee-st/31315/,,H&R Block,Q5627799
2414,mightyflame,LAKEPORT MARKET,,Chittenango,NY,,US,+1 315-633-1436,,,Mighty Flame,
2315,mightyflame,KINNEY DRUGS INC #46,,Chittenango,NY,,US,+1 315-687-6110,,,Mighty Flame,
2415,mightyflame,LAKEPORT MARKET #2,,CHITTENANGO,NY,,US,+1 315-687-3225,,,Mighty Flame,
3917,mightyflame,REDS CHITTENANGO MARKET,,CHITTENANGO,NY,,US,+1 845-545-9774,,,Mighty Flame,
4903,mightyflame,TOPS MARKET #359,,CHITTENANGO,NY,,US,+1 315-687-9224,,,Mighty Flame,
https://locations.oreillyauto.com/ny/chittenango/wiper-installation-5957.html,oreilly,Your Chittenango O'Reilly Auto Parts Store,,Chittenango,NY,,US,+1 315-510-6316,https://locations.oreillyauto.com/ny/chittenango/wiper-installation-5957.html,Mo-Sa 07:30-21:00; Su 09:00-20:00,O'Reilly Auto Parts,Q7071951
https://locations.oreillyauto.com/ny/chittenango/check-engine-light-testing-5957.html,oreilly,Your Chittenango O'Reilly Auto Parts Store,,Chittenango,NY,,US,+1 315-510-6316,https://locations.oreillyauto.com/ny/chittenango/check-engine-light-testing-5957.html,Mo-Sa 07:30-21:00; Su 09:00-20:00,O'Reilly Auto Parts,Q7071951
https://locations.oreillyauto.com/ny/chittenango/battery-testing-5957.html,oreilly,Your Chittenango O'Reilly Auto Parts Store,,Chittenango,NY,,US,+1 315-510-6316,https://locations.oreillyauto.com/ny/chittenango/battery-testing-5957.html,Mo-Sa 07:30-21:00; Su 09:00-20:00,O'Reilly Auto Parts,Q7071951
https://locations.oreillyauto.com/ny/chittenango/autopartes-5957.html,oreilly,Tu tienda O'Reilly Auto Parts en Chittenango,,Chittenango,NY,,US,+1 315-510-6316,https://locations.oreillyauto.com/ny/chittenango/autopartes-5957.html,Mo-Sa 07:30-21:00; Su 09:00-20:00,O'Reilly Auto Parts,Q7071951
274,stewartsshops,Stewart's Shops,,Chittenango,NY,,US,+1 315-687-8330,https://locations.stewartsshops.com/ll/US/NY/Chittenango/1686-Route-31,Mo-Su 05:00-22:00,Stewart's Shops,Q7615690
https://restaurants.subway.com/#14897743,subway,Subway,,Chittenango Madison,NY,,US,+1 315-687-7532,https://restaurants.subway.com/united-states/ny/chittenango/505-genesee-st,Mo-Su 09:00-22:00,Subway,Q244457
359,tops,Tops,800 W. Genesee Street,Chittenango,NY,,US,+1 315-687-9224,,,Tops,Q7825137
1357982,usps,CHITTENANGO,,CHITTENANGO,NY,,US,+1 315-687-9412,,"Mo-Fr 08:30-13:00,14:00-17:00; Sa 08:30-12:00",United States Postal Service,Q668687
1303700001,usps_collection_boxes,USPS COLLECTION BOX - BLUE BOX,1001 E GENESEE ST,CHITTENANGO,NY,,US,,,,United States Postal Service,Q668687
1303700008,usps_collection_boxes,USPS COLLECTION BOX - PO LOBBY,1001 E GENESEE ST,CHITTENANGO,NY,,US,,,,United States Postal Service,Q668687
1303700009,usps_collection_boxes,USPS COLLECTION BOX - PO LOBBY,1001 E GENESEE ST STE 1,CHITTENANGO,NY,,US,,,,United States Postal Service,Q668687
1303700003,usps_collection_boxes,USPS COLLECTION BOX - BLUE BOX,222 GENESEE ST,CHITTENANGO,NY,,US,,,,United States Postal Service,Q668687
,visa,,,CHITTENANGO,NY,,US,,,,,
,visa,,,CHITTENANGO,NY,,US,,,,,
,visa,,,CHITTENANGO,NY,,US,,,,,
,visa,,,CHITTENANGO,NY,,US,,,,,
,visa,,,CHITTENANGO,NY,,US,,,,,
,visa,,,CHITTENANGO,NY,,US,,,,,
,visa,,,CHITTENANGO,NY,,US,,,,,
,visa,,,CHITTENANGO,NY,,US,,,,,
,visa,,,CHITTENANGO,NY,,US,,,,,
,visa,,,CHITTENANGO,NY,,US,,,,,
,visa,,,CHITTENANGO,NY,,US,,,,,
,visa,,,CHITTENANGO,NY,,US,,,,,
,visa,,,CHITTENANGO,NY,,US,,,,,
,visa,,,CHITTENANGO,NY,,US,,,,,
,visa,,,CHITTENANGO,NY,,US,,,,,
,visa,,,CHITTENANGO,NY,,US,,,,,
,visa,,,CHITTENANGO,NY,,US,,,,,
,visa,,,CHITTANGO,NY,,US,,,,,
https://www.walgreens.com/locator/walgreens-1365+w+genesee+st-chittenango-ny-13037/id=17848,walgreens,Walgreens,,Chittenango,NY,,US,+1 315-687-3841,https://www.walgreens.com/locator/walgreens-1365+w+genesee+st-chittenango-ny-13037/id=17848,Mo-Sa 09:00-21:00; Su 09:00-20:00,Walgreens,Q1591889
72b9f32b83d16ecb979fb085ead4f07b,western_union,WALGREENS #17848,,Chittenango,NY,,US,+1 315-687-3841,https://location.westernunion.com/us/ny/chittenango/72b9f32b83d16ecb979fb085ead4f07b,Mo-Fr 08:00-21:00; Sa 08:00-20:00; Su 08:00-19:00,Western Union,Q861042
