Ref,Spider,Name,Address,City,State,Zipcode,Country,Phone,Website,Hours,Brand,WikiData
7584,aaa,Newcastle OK,,Newcastle,OK,,US,+1 405-387-2318,,,American Automobile Association,Q463436
https://locations.arbys.com/ok/newcastle/901-nw-32nd.html,arbys_us,"Arby's Fast-Food Drive Through Near You in Newcastle, OK",,Newcastle,OK,,US,+1 405-387-4353,https://locations.arbys.com/ok/newcastle/901-nw-32nd.html,Mo-Sa 10:00-23:00; Su 10:00-22:30,Arby's,Q630866
6323,autozone_us,AutoZone Auto Parts Newcastle,,Newcastle,OK,,US,+1 405-392-4300,https://www.autozone.com/locations/ok/newcastle/945-nw-32nd-st.html,Mo-Sa 07:30-21:00; Su 09:00-21:00,AutoZone,Q4826087
242019,bluerhino,Royal Brothers LLC SMG3923,,Newcastle,OK,,US,+1 405-387-2400,,,Blue Rhino,Q65681213
98321,bluerhino,Tri-City Mart,,Newcastle,OK,,US,+1 405-387-4000,,,Blue Rhino,Q65681213
140287,bluerhino,Walmart #1056 - Supercenter,,Newcastle,OK,,US,+1 405-387-3400,,,Blue Rhino,Q65681213
168268,bluerhino,Love's #712,,New Castle,OK,,US,+1 405-501-1922,,,Blue Rhino,Q65681213
155471,bluerhino,Walgreens #10957,,Newcastle,OK,,US,+1 405-387-5006,,,Blue Rhino,Q65681213
https://stores.catofashions.com/#26560261,cato_us,Cato,,,OK,,US,+1 405-387-5596,https://stores.catofashions.com/ok/newcastle/621-nw-32nd-street,Mo-Sa 10:00-19:00; Su 13:00-18:00,Cato,Q16956136
63711,citi,ATM LEGACY BANK,,Newcastle,OK,,US,,,,Citibank,Q857063
63714,citi,ATM LEGACY BANK,,Newcastle,OK,,US,,,,Citibank,Q857063
63713,citi,ATM LEGACY BANK,,Newcastle,OK,,US,,,,Citibank,Q857063
90179,citi,ATM Walgreens,,Newcastle,OK,,US,,,,Citibank,Q857063
,credit_union_us,the Focus FCU,,Newcastle,OK,,US,+1 405-392-3400,,Mo-Fr 09:00-04:30,,
,credit_union_us,True Sky CU,,Newcastle,OK,,US,+1 405-682-1990,,Mo-Tu 08:30-05:00; We 09:30-05:00; Th 08:30-05:00; Fr 08:30-05:30; Sa 09:00-12:00,,
9068,dollartree,DollarTree,,Newcastle,OK,,US,+1 405-256-2804,,Mo-Sa 09:00-21:00; Su 10:00-20:00,Dollar Tree,Q5289230
9665,dominos_pizza_us,Domino's Pizza,,New Castle,OK,,US,+1 405-852-2134,https://pizza.dominos.com/oklahoma/new-castle/661-nw-32nd-ave,Mo-Su 10:00-24:00,Domino's,Q839466
355114,dunkin_us,Dunkin',,Newcastle,OK,,US,+1 405-387-2661,https://locations.dunkindonuts.com/en/ok/newcastle/235-nw-24th-st/355114,24/7,Dunkin',Q847743
https://www.edwardjones.com/us-en/financial-advisor/kimberly-sutton,edwardjones,Kimberly Sutton,,Newcastle,OK,,US,+1 405-992-0945,https://www.edwardjones.com/us-en/financial-advisor/kimberly-sutton,Mo-Fr 08:30-17:00,Edward Jones,Q5343830
https://salons.greatclips.com/us/ok/newcastle/685-nw-32nd-st,greatclips,Great Clips,,Newcastle,OK,,US,+1 405-387-2052,https://salons.greatclips.com/us/ok/newcastle/685-nw-32nd-st,Mo-Fr 09:00-20:00; Sa 08:00-19:00; Su 10:00-18:00,Great Clips,Q5598967
https://office.jacksonhewitt.com/#27579451,jackson_hewitt,Jackson Hewitt,,Newcastle,OK,,US,+1 901-300-3969,https://office.jacksonhewitt.com/tax-preparation-services-locations/en/ok/newcastle/3300-tri-city-dr/51056,Mo 11:00-19:00; Tu-Sa 09:00-17:00; Su 13:00-17:00,Jackson Hewitt,Q6117132
https://locations.kfc.com/#11248592,kfc,Chicken Nuggets Near Newcastle,,Newcastle,OK,,US,,https://locations.kfc.com/ok/newcastle/909-nw-32nd-street/chickennugget,Mo-Su 10:00-24:00,KFC,Q524757
825,loves,Site 712,,Newcastle,OK,,US,+1 405-387-2660,,,Love's,Q1872496
https://locations.oreillyauto.com/ok/newcastle/check-engine-light-testing-832.html,oreilly,Your Newcastle O'Reilly Auto Parts Store,,Newcastle,OK,,US,+1 405-387-5501,https://locations.oreillyauto.com/ok/newcastle/check-engine-light-testing-832.html,Mo-Sa 07:30-21:00; Su 09:00-21:00,O'Reilly Auto Parts,Q7071951
https://locations.oreillyauto.com/ok/newcastle/wiper-installation-832.html,oreilly,Your Newcastle O'Reilly Auto Parts Store,,Newcastle,OK,,US,+1 405-387-5501,https://locations.oreillyauto.com/ok/newcastle/wiper-installation-832.html,Mo-Sa 07:30-21:00; Su 09:00-21:00,O'Reilly Auto Parts,Q7071951
https://locations.oreillyauto.com/ok/newcastle/battery-testing-832.html,oreilly,Your Newcastle O'Reilly Auto Parts Store,,Newcastle,OK,,US,+1 405-387-5501,https://locations.oreillyauto.com/ok/newcastle/battery-testing-832.html,Mo-Sa 07:30-21:00; Su 09:00-21:00,O'Reilly Auto Parts,Q7071951
https://locations.oreillyauto.com/ok/newcastle/autopartes-832.html,oreilly,Tu tienda O'Reilly Auto Parts en Newcastle,,Newcastle,OK,,US,+1 405-387-5501,https://locations.oreillyauto.com/ok/newcastle/autopartes-832.html,Mo-Sa 07:30-21:00; Su 09:00-21:00,O'Reilly Auto Parts,Q7071951
https://locations.papajohns.com/#10690573,papa_johns,Papa John's,,Newcastle,OK,,US,+1 405-676-4040,https://locations.papajohns.com/united-states/ok/73065/newcastle/2110-n-main-street,Mo-Th 09:30-24:00; Fr-Sa 09:30-01:00; Su 09:30-24:00,Papa John's Pizza,Q2759586
717068,penske,Storage R Us Newcastle,,NEWCASTLE,OK,,US,+1 405-265-8440,https://www.pensketruckrental.com/locations/us/oklahoma/newcastle/717068/,,Penske,Q81234570
0000862879,phillips_66_conoco_76,TRI CITY 66,,NEWCASTLE,OK,,US,+1 405-387-2110,,,Phillips 66,Q1656230
0000862880,phillips_66_conoco_76,RB 66 SUPER STORE,,NEWCASTLE,OK,,US,+1 405-387-2400,,24/7,Phillips 66,Q1656230
ok_newcastle_2160-n-main-st,pizza_hut_us,2160 N Main St,,Newcastle,OK,,US,+1 405-310-8881,https://locations.pizzahut.com/ok/newcastle/2160-n-main-st,,Pizza Hut,Q191615
1380,scooters_coffee_us,N Main Street,,Newcastle,OK,,US,+1 405-387-2650,,Mo-Su 05:00-20:00,Scooter's Coffee,Q117280308
https://restaurants.subway.com/#14893813,subway,"Subway Love's Travel Stop, #712",,Newcastle McClain,OK,,US,+1 405-387-2660,https://restaurants.subway.com/united-states/ok/newcastle/235-nw-24th-st,,Subway,Q244457
https://locations.tacobell.com/#6141772,taco_bell,Taco Bell,,Newcastle,OK,,US,+1 405-387-2123,https://locations.tacobell.com/ok/newcastle/909-nw-32nd-street.html,Mo-Su 06:00-23:00,Taco Bell,Q752941
1374960,usps,NEWCASTLE,,NEWCASTLE,OK,,US,+1 405-387-5679,,Mo-Fr 08:30-16:30; Sa 08:30-10:30,United States Postal Service,Q668687
7306500008,usps_collection_boxes,USPS COLLECTION BOX - PO LOBBY,220 N WRIGHT ST,NEWCASTLE,OK,,US,,,,United States Postal Service,Q668687
7306500004,usps_collection_boxes,USPS COLLECTION BOX - BLUE BOX,220 N WRIGHT ST,NEWCASTLE,OK,,US,,,,United States Postal Service,Q668687
7306500006,usps_collection_boxes,USPS COLLECTION BOX - PO LOBBY,220 N WRIGHT ST,NEWCASTLE,OK,,US,,,,United States Postal Service,Q668687
7306500002,usps_collection_boxes,USPS COLLECTION BOX - BLUE BOX,500 NW 32ND ST,NEWCASTLE,OK,,US,,,,United States Postal Service,Q668687
7306500007,usps_collection_boxes,USPS COLLECTION BOX - BLUE BOX,3300 TRI CITY DR,NEWCASTLE,OK,,US,,,,United States Postal Service,Q668687
,visa,,,THACKERVILLE,OK,,US,,,,,
,visa,,,THACKERVILLE,OK,,US,,,,,
,visa,,,NEWCASTLE,OK,,US,,,,,
,visa,,,NEWCASTLE,OK,,US,,,,,
,visa,,,NEWCASTLE,OK,,US,,,,,
,visa,,,NEW CASTLE,OK,,US,,,,,
,visa,,,NEWCASTLE,OK,,US,,,,,
,visa,,,NEWCASTLE,OK,,US,,,,,
,visa,,,NEWCASTLE,OK,,US,,,,,
,visa,,,NEW CASTLE,OK,,US,,,,,
,visa,,,NEWCASTLE,OK,,US,,,,,
,visa,,,NEW CASTLE,OK,,US,,,,,
,visa,,,NEWCASTLE,OK,,US,,,,,
,visa,,,NEWCASTLE,OK,,US,,,,,
,visa,,,NEWCASTLE,OK,,US,,,,,
,visa,,,NEWCASTLE,OK,,US,,,,,
,visa,,,NEWCASTLE,OK,,US,,,,,
,visa,,,NEWCASTLE,OK,,US,,,,,
,visa,,,NEWCASTLE,OK,,US,,,,,
,visa,,,NEWCASTLE,OK,,US,,,,,
,visa,,,NEWCASTLE,OK,,US,,,,,
,visa,,,NEWCASTLE,OK,,US,,,,,
,visa,,,NEWCASTLE,OK,,US,,,,,
,visa,,,NEWCASTLE,OK,,US,,,,,
,visa,,,TUTTLE,OK,,US,,,,,
,visa,,,WEATHERFORD,OK,,US,,,,,
https://www.walgreens.com/locator/walgreens-3232+tri+city+dr-newcastle-ok-73065/id=10957,walgreens,Walgreens,,Newcastle,OK,,US,+1 405-387-5006,https://www.walgreens.com/locator/walgreens-3232+tri+city+dr-newcastle-ok-73065/id=10957,Mo-Su 07:00-22:00,Walgreens,Q1591889
f76b76bff9360f0262a4d463b69a13f0,western_union,WALMART #001056,,Newcastle,OK,,US,+1 405-387-3400,https://location.westernunion.com/us/ok/newcastle/f76b76bff9360f0262a4d463b69a13f0,Mo-Su 07:00-21:00,Western Union,Q861042
