Ref,Spider,Name,Address,City,State,Zipcode,Country,Phone,Website,Hours,Brand,WikiData
RED0010915,australia_post_au,,,RED HILL,QLD,,AU,,,,Australia Post,Q1142936
RED0010927,australia_post_au,,,WINDSOR,QLD,,AU,,,,Australia Post,Q1142936
RED0010926,australia_post_au,,,WINDSOR,QLD,,AU,,,,Australia Post,Q1142936
RED0010925,australia_post_au,,,WINDSOR,QLD,,AU,,,,Australia Post,Q1142936
RED0010921,australia_post_au,,,WINDSOR,QLD,,AU,,,,Australia Post,Q1142936
RED0010916,australia_post_au,,,WINDSOR,QLD,,AU,,,,Australia Post,Q1142936
RED0010919,australia_post_au,,,LUTWYCHE,QLD,,AU,,,,Australia Post,Q1142936
RED0010918,australia_post_au,,,LUTWYCHE,QLD,,AU,,,,Australia Post,Q1142936
91322450_UPL,australia_post_au,Lutwyche Parcel Locker,,LUTWYCHE,QLD,,AU,,,24/7,Australia Post,Q1142936
403651_PO,australia_post_au,LUTWYCHE POST OFFICE,,LUTWYCHE,QLD,,AU,+61 131318,,,Australia Post,Q1142936
RED0010920,australia_post_au,,,WOOLOOWIN,QLD,,AU,,,,Australia Post,Q1142936
RED0010931,australia_post_au,,,WOOLOOWIN,QLD,,AU,,,,Australia Post,Q1142936
RED0010923,australia_post_au,,,WOOLOOWIN,QLD,,AU,,,,Australia Post,Q1142936
RED0010929,australia_post_au,,,WOOLOOWIN,QLD,,AU,,,,Australia Post,Q1142936
RED0010928,australia_post_au,,,WOOLOOWIN,QLD,,AU,,,,Australia Post,Q1142936
RED0010930,australia_post_au,,,KALINGA,QLD,,AU,,,,Australia Post,Q1142936
2734,bakers_delight,Bakers Delight Windsor &#8211; Qld,,Windsor,QLD,,AU,+61 7 3857 0041,https://www.bakersdelight.com.au/bakery-locator/windsor-qld/,Mo-Fr 06:00-18:30; Sa-Su 06:00-17:30,Bakers Delight,Q4849261
7780,bp,BP WINDSOR,,WINDSOR,QLD,,AU,+61 7 3857 3708,,24/7,BP,Q152057
70630,caltex,Caltex Kalinga,,Kalinga,QLD,,AU,+61 7 3857 5149,,,Caltex,Q277470
150,greencross_au,Windsor,,Windsor,QLD,,AU,+61 7 3857 6222,https://www.petbarn.com.au/store-finder/windsor,Mo-Fr 08:30-18:00; Sa 08:30-17:00; Su 09:00-17:00,Petbarn,Q104746468
854,guzmany_gomez,Windsor Homezone,,Windsor,QLD,,AU,+61 7 1234 1234,https://www.guzmanygomez.com.au/locations/Windsor-Homezone/,Mo-We 08:00-21:55; Th-Sa 08:00-22:55; Su 08:00-21:55,Guzman y Gomez,Q23019759
9500730,mcdonalds_qstore,WINDSOR WEST QLD,,Windsor,QLD,,AU,+61 7 3357 3566,,24/7,McDonald's,Q38076
4,nutrition_warehouse_au,Lutwyche,,Lutwyche,QLD,,AU,+61 7 3357 9949,https://www.nutritionwarehouse.com.au/pages/lutwyche-vitamins-and-supplements,Mo-We 09:00-17:30; Th 09:00-18:00; Fr 09:00-17:30; Sa 09:00-16:00; Su 10:00-16:00,Nutrition Warehouse,Q117747424
4094,petstock_au,My Pet Warehouse Windsor,,Windsor,QLD,,AU,+61 7 3073 3830,https://www.petstock.com.au/pages/store/my-pet-warehouse-windsor,Mo-Fr 09:00-18:00; Sa-Su 09:00-17:00,My Pet Warehouse,Q106540728
4004,pillow_talk_au,Windsor,,Windsor,QLD,,AU,+61 7 3857 8506,,Mo-We 09:00-17:30; Th 09:00-19:00; Fr 09:00-17:30; Sa 09:00-05:00; Su 10:00-16:00,Pillow Talk,Q120648495
10111481,shell,SHELL COLES EXPRESS WINDSOR (QLD),,WINDSOR,QLD,,AU,+61 7 3734 0940,https://find.shell.com/au/fuel/10111481-shell-coles-express-windsor-qld,,Shell,Q110716465
959-06675,skoda,Shipstone Accident Repair Specialists,,,QLD,,AU,,,,Skoda,Q29637
1378,terry_white_chemmart_au,TerryWhite Chemmart Lutwyche,,Lutwyche,QLD,,AU,+61 7 3857 2233,https://terrywhitechemmart.com.au/stores/terrywhite-chemmart-lutwyche,Mo-We 08:30-17:30; Th 08:30-19:00; Fr 08:30-17:30; Sa 08:30-17:00; Su 09:00-15:00,Terry White Chemmart,Q24089773
https://www.thegoodguys.com.au/lutwyche,the_good_guys_au,The Good Guys Lutwyche,,Lutwyche,QLD,,AU,+61 7 3866 5666,https://www.thegoodguys.com.au/lutwyche,Mo-We 09:00-17:30; Th 09:00-21:00; Fr 09:00-17:30; Sa 09:00-17:00; Su 10:00-17:00,The Good Guys,Q7737217
471,ultra_tune_au,Ultra Tune Windsor Qld,,WINDSOR,QLD,,AU,+61 7 3861 0055,https://www.ultratune.com.au/store/ultra-tune-windsor-qld,Mo-Fr 08:00-17:30; Sa 08:00-12:00,Ultra Tune,Q29025649
,visa,,,WINDSOR,QLD,,AU,,,,,
,visa,,,WINDSOR,QLD,,AU,,,,,
,visa,,,WINDSOR,QLD,,AU,,,,,
,visa,,,WINDSOR,QLD,,AU,,,,,
,visa,,,LUTWYCHE,QLD,,AU,,,,,
,visa,,,WINDSOR,QLD,,AU,,,,,
ca7ceb6a0c730d1b023f4b58db7465af,western_union,AUSTRALIA POST,,Lutwyche,QLD,,AU,+61 1800 501 500,https://location.westernunion.com/au/qld/lutwyche/ca7ceb6a0c730d1b023f4b58db7465af,Mo-Fr 08:00-18:00; Sa 08:00-16:00,Western Union,Q861042
