Ref,Spider,Name,Address,City,State,Zipcode,Country,Phone,Website,Hours,Brand,WikiData
1776,autozone_us,AutoZone Auto Parts Mount Pleasant,,Mount Pleasant,WI,,US,+1 262-554-7870,https://www.autozone.com/locations/wi/mount-pleasant/2301-durand-ave.html,Mo-Sa 07:30-21:00; Su 08:00-20:00,AutoZone,Q4826087
91813,bluerhino,Taylor Mart,,Racine,WI,,US,+1 262-634-2350,,,Blue Rhino,Q65681213
198896,bluerhino,Open Pantry Food Mart #9570,,Racine,WI,,US,+1 262-598-8807,,,Blue Rhino,Q65681213
199990,bluerhino,Fine Fare Foods,,Mt. Pleasant,WI,,US,+1 262-633-3037,,,Blue Rhino,Q65681213
31502640211305340300100000000000,bp,BP,,RACINE,WI,,US,+1 262-633-4374,,24/7,BP,Q152057
65263,citi,ATM Metro PCS,,Racine,WI,,US,,,,Citibank,Q857063
2085,dominos_pizza_us,Domino's Pizza,,Racine,WI,,US,+1 262-383-3636,https://pizza.dominos.com/wisconsin/racine/2815-durand-ave,Mo-Th 10:00-01:00; Fr-Sa 10:00-03:00; Su 10:00-01:00,Domino's,Q839466
https://www.edwardjones.com/us-en/financial-advisor/michael-mckinney,edwardjones,Michael McKinney,,Mount Pleasant,WI,,US,+1 262-554-7187,https://www.edwardjones.com/us-en/financial-advisor/michael-mckinney,Mo-Th 08:30-16:30; Fr 08:30-15:00,Edward Jones,Q5343830
racgldt-doubletree-racine-harbourwalk,hilton,DoubleTree by Hilton Hotel Racine Harbourwalk,,,WI,,US,+1 262-833-0441,https://www.hilton.com/ar/hotels/racgldt-doubletree-racine-harbourwalk/,,DoubleTree by Hilton,Q2504643
https://office.jacksonhewitt.com/#27577485,jackson_hewitt,Jackson Hewitt,,Racine,WI,,US,+1 262-977-5504,https://office.jacksonhewitt.com/tax-preparation-services-locations/en/wi/racine/1817-taylor-ave/19246,Mo-Fr 11:00-19:00; Sa 11:00-17:00,Jackson Hewitt,Q6117132
https://locations.jimmyjohns.com/wi/racine/sandwiches-1253.html,jimmy_johns,Jimmy John's,,Racine,WI,,US,+1 262-634-6544,https://locations.jimmyjohns.com/wi/racine/sandwiches-1253.html,,Jimmy John's,Q1689380
217-6th-street,my_eye_dr,,,Racine,WI,,US,+1 262-634-4430,https://locations.myeyedr.com/wi/racine/217-6th-street,,MyEyeDr.,Q117864710
767268,penske,Mobile Joe&#39;s Tires,,MOUNT PLEASANT,WI,,US,+1 262-417-9827,https://www.pensketruckrental.com/locations/us/wisconsin/mount_pleasant/767268/,,Penske,Q81234570
https://www.plannedparenthood.org/health-center/wisconsin/racine/53403/racine-health-center-2904-91860,planned_parenthood,Planned Parenthood,,Racine,WI,,US,,https://www.plannedparenthood.org/health-center/wisconsin/racine/53403/racine-health-center-2904-91860,,Planned Parenthood,Q2553262
restaurant_82226,popeyes_us_fr,Popeyes,"920 Washington Ave Racine, Wisconsin 53403 - USA",Racine,WI,,US,+1 262-800-8880,https://www.popeyes.com/store-locator/store/restaurant_82226,Mo-We 10:00-23:00; Th-Sa 10:00-00:00; Su 10:00-23:00,Popeyes,Q1330910
https://restaurants.subway.com/#14915409,subway,Subway BP Gas Station/C-Store,,Racine Racine,WI,,US,+1 262-637-4432,https://restaurants.subway.com/united-states/wi/racine/1130-washington-ave,Mo-Th 08:30-22:00; Fr 08:30-21:30; Sa-Su 08:00-20:00,Subway,Q244457
042457,uhaul,Chicory Road Brothers Storage LLC,1903 Chicory Rd,Racine,WI,,US,+1 262-672-2841,,Mo 00:00-15:00; Tu 00:00-17:00; Th 00:00-17:00; Fr 00:00-16:00; Sa 00:00-14:00,U-Haul,Q7862902
047294,uhaul,C&M Automotive,2423 Racine St,Mount Pleasant,WI,,US,+1 262-456-5095,,Mo-Fr 00:00-17:00; Sa 00:00-13:00,U-Haul,Q7862902
1438341,usps,RACINE,,RACINE,WI,,US,+1 262-632-6214,,"Mo-Fr 10:00-13:30,14:00-17:00",United States Postal Service,Q668687
5340300012,usps_collection_boxes,USPS COLLECTION BOX - BLUE BOX,600 LAKE AVE,MOUNT PLEASANT,WI,,US,,,,United States Postal Service,Q668687
5340300027,usps_collection_boxes,USPS COLLECTION BOX - BLUE BOX,603 MAIN ST,MOUNT PLEASANT,WI,,US,,,,United States Postal Service,Q668687
5340300005,usps_collection_boxes,USPS COLLECTION BOX - BLUE BOX,730 WISCONSIN AVE,MOUNT PLEASANT,WI,,US,,,,United States Postal Service,Q668687
5340300028,usps_collection_boxes,USPS COLLECTION BOX - BLUE BOX,730 WASHINGTON AVE,MOUNT PLEASANT,WI,,US,,,,United States Postal Service,Q668687
5340300010,usps_collection_boxes,USPS COLLECTION BOX - BLUE BOX,1405 16TH ST,MOUNT PLEASANT,WI,,US,,,,United States Postal Service,Q668687
5340300023,usps_collection_boxes,USPS COLLECTION BOX - PO LOBBY,603 MAIN ST,MOUNT PLEASANT,WI,,US,,,,United States Postal Service,Q668687
5340300029,usps_collection_boxes,USPS COLLECTION BOX - PO LOBBY,603 MAIN ST,MOUNT PLEASANT,WI,,US,,,,United States Postal Service,Q668687
5340300022,usps_collection_boxes,USPS COLLECTION BOX - BLUE BOX,6233 BANKERS RD,MOUNT PLEASANT,WI,,US,,,,United States Postal Service,Q668687
,visa,,,RACINE,WI,,US,,,,,
,visa,,,RACINE,WI,,US,,,,,
,visa,,,RACINE,WI,,US,,,,,
,visa,,,RACINE,WI,,US,,,,,
,visa,,,RACINE,WI,,US,,,,,
,visa,,,RACINE,WI,,US,,,,,
,visa,,,RACINE,WI,,US,,,,,
,visa,,,RACINE,WI,,US,,,,,
,visa,,,RACINE,WI,,US,,,,,
,visa,,,RACINE,WI,,US,,,,,
,visa,,,RACINE,WI,,US,,,,,
,visa,,,RACINE,WI,,US,,,,,
,visa,,,RACINE,WI,,US,,,,,
,visa,,,RACINE,WI,,US,,,,,
,visa,,,RACINE,WI,,US,,,,,
,visa,,,RACINE,WI,,US,,,,,
,visa,,,RACINE,WI,,US,,,,,
,visa,,,RACINE,WI,,US,,,,,
,visa,,,RACINE,WI,,US,,,,,
,visa,,,RACINE,WI,,US,,,,,
,visa,,,RACINE,WI,,US,,,,,
,visa,,,RACINE,WI,,US,,,,,
,visa,,,RACINE,WI,,US,,,,,
,visa,,,RACINE,WI,,US,,,,,
,visa,,,RACINE,WI,,US,,,,,
,visa,,,RACINE,WI,,US,,,,,
,visa,,,RACINE,WI,,US,,,,,
,visa,,,RACINE,WI,,US,,,,,
,visa,,,RACINE,WI,,US,,,,,
,visa,,,RACINE,WI,,US,,,,,
,visa,,,RACINE,WI,,US,,,,,
,visa,,,RACINE,WI,,US,,,,,
,visa,,,RACINE,WI,,US,,,,,
,visa,,,RACINE,WI,,US,,,,,
,visa,,,RACINE,WI,,US,,,,,
,visa,,,MOUNT PLEASANT,WI,,US,,,,,
,visa,,,RACINE,WI,,US,,,,,
,visa,,,RACINE,WI,,US,,,,,
,visa,,,RACINE,WI,,US,,,,,
,visa,,,MT PLEASANT,WI,,US,,,,,
,visa,,,RACINE,WI,,US,,,,,
,visa,,,RACINE,WI,,US,,,,,
,visa,,,RACINE,WI,,US,,,,,
,visa,,,RACINE,WI,,US,,,,,
,visa,,,RACINE,WI,,US,,,,,
,visa,,,RACINE,WI,,US,,,,,
,visa,,,RACINE,WI,,US,,,,,
,visa,,,RACINE,WI,,US,,,,,
,visa,,,RACINE,WI,,US,,,,,
,visa,,,RACINE,WI,,US,,,,,
,visa,,,RACINE,WI,,US,,,,,
,visa,,,RACINE,WI,,US,,,,,
,visa,,,MOUNT PLEASANT,WI,,US,,,,,
,visa,,,RACINE,WI,,US,,,,,
,visa,,,RACINE,WI,,US,,,,,
,visa,,,RACINE,WI,,US,,,,,
,visa,,,RACINE,WI,,US,,,,,
,visa,,,RACINE,WI,,US,,,,,
47fcb63dad226db7242ed7dc0635e180,western_union,ODD FELLOWS FOOD AND LIQUOR,,Racine,WI,,US,+1 414-807-7760,https://location.westernunion.com/us/wi/racine/47fcb63dad226db7242ed7dc0635e180,Mo-Fr 06:00-22:00; Sa-Su 06:00-21:00,Western Union,Q861042
68d7e0c6b510a133a5d69645fe101eac,western_union,PANTRY PLUS,,Racine,WI,,US,+1 262-637-1688,https://location.westernunion.com/us/wi/racine/68d7e0c6b510a133a5d69645fe101eac,Mo-Su 07:00-20:00,Western Union,Q861042
riverside-branch-ymca,ymca,Riverside Branch YMCA,141 Main St,Racine,WI,,US,+1 262-634-1994,https://www.ymca.org/locations/riverside-branch-ymca,Mo-Th 05:00-19:00; Fr 05:00-18:00; Sa 07:00-12:00; Su 08:00-11:00,YMCA,Q157169
george-bray-neighborhood-ymca,ymca,George Bray Neighborhood YMCA,924 Center St,Racine,WI,,US,+1 262-634-1994,https://www.ymca.org/locations/george-bray-neighborhood-ymca,Mo-Fr 09:00-18:00; Sa 11:00-19:00,YMCA,Q157169
