Ref,Spider,Name,Address,City,State,Zipcode,Country,Phone,Website,Hours,Brand,WikiData
164595,bluerhino,Family Dollar #07911,,Swansea,SC,,US,+1 803-250-2733,,,Blue Rhino,Q65681213
221403,bluerhino,Dollar General #25226,,SWANSEA,SC,,US,3.881.9859,,,Blue Rhino,Q65681213
118600,bp,BP,,Swansea,SC,,US,+1 803-766-7651,,,BP,Q152057
9537,dollar_general,Dollar General,,Swansea,SC,,US,+1 803-369-3951,https://www.dollargeneral.com/store-directory/sc/swansea/9537,Mo-Su 08:00-22:00,Dollar General,Q145168
200325430,exxonmobil,QUICK PANTRY 2,,SWANSEA,SC,,US,+1 803-568-4086,https://www.exxon.com/en/find-station/exxon-swansea-sc-quickpantry2-200325430,Mo-Su 06:00-00:00,Exxon,Q109675651
27911,family_dollar_us,FAMILY DOLLAR #7911,,Swansea,SC,,US,+1 803-567-6826,https://www.familydollar.com/locations/sc/swansea/27911/,Mo-Su 08:00-21:00,Family Dollar,Q5433101
https://local.fedex.com/#25229278,fedex,,,Swansea,SC,,US,+1 800-463-3339,https://local.fedex.com/en-us/sc/swansea/uscfb,,FedEx,Q459477
1506115,hardees_us,Hardee's,,Swansea,SC,,US,+1 803-568-0202,https://locations.hardees.com/sc/swansea/105-n-church-st,,Hardee's,Q1585088
479,south_carolina,SWANSEA,"199 N. Lawrence Ave. Swansea, SC ",,SC,,US,+1 803-785-3519,,,,Q1456
https://restaurants.subway.com/#14901168,subway,Subway,,Swansea Lexington,SC,,US,+1 803-568-7293,https://restaurants.subway.com/united-states/sc/swansea/1953-a-southbound-rd,Mo-Su 09:00-22:00,Subway,Q244457
0638846600,sunoco_us,Sunoco,,SWANSEA,SC,,US,+1 803-568-3305,,Mo-Sa 05:00-22:00; Su 06:00-21:00,Sunoco,Q1423218
1384094,usps,SWANSEA,,SWANSEA,SC,,US,+1 803-568-2837,,"Mo-Fr 09:00-13:00,14:00-16:00; Sa 09:00-10:00",United States Postal Service,Q668687
2916000000,usps_collection_boxes,USPS COLLECTION BOX - BLUE BOX,295 S CHURCH ST,SWANSEA,SC,,US,,,,United States Postal Service,Q668687
2916000001,usps_collection_boxes,USPS COLLECTION BOX - PO LOBBY,295 S CHURCH ST,SWANSEA,SC,,US,,,,United States Postal Service,Q668687
2916000003,usps_collection_boxes,USPS COLLECTION BOX - PO LOBBY,295 S CHURCH ST,SWANSEA,SC,,US,,,,United States Postal Service,Q668687
,visa,,,SWANSEA,SC,,US,,,,,
,visa,,,SWANSEA,SC,,US,,,,,
,visa,,,SWANSEA,SC,,US,,,,,
,visa,,,SWANSEA,SC,,US,,,,,
,visa,,,SWANSEA,SC,,US,,,,,
,visa,,,SWANSEA,SC,,US,,,,,
,visa,,,SWANSEA,SC,,US,,,,,
,visa,,,SWANSEA,SC,,US,,,,,
,visa,,,SWANSEA,SC,,US,,,,,
,visa,,,SWANSEA,SC,,US,,,,,
,visa,,,SWANSEA,SC,,US,,,,,
,visa,,,SWANSEA,SC,,US,,,,,
28986b957437fb2f4d8ac044a462dc8c,western_union,SCOTCHMAN #3878,,Swansea,SC,,US,+1 803-568-2075,https://location.westernunion.com/us/sc/swansea/28986b957437fb2f4d8ac044a462dc8c,Mo-Su 06:00-22:00,Western Union,Q861042
399baa599ea292b559607f2b9485caaa,western_union,SCOTCHMAN #3878,,Swansea,SC,,US,+1 803-568-2075,https://location.westernunion.com/us/sc/swansea/399baa599ea292b559607f2b9485caaa,Mo-Su 06:00-22:00,Western Union,Q861042
