Ref,Spider,Name,Address,City,State,Zipcode,Country,Phone,Website,Hours,Brand,WikiData
https://stores.advanceautoparts.com/sc/bishopville/301-s-main-st,advance_auto_parts_us,Advance Auto Parts,,Bishopville,SC,,US,+1 803-484-1967,https://stores.advanceautoparts.com/sc/bishopville/301-s-main-st,Mo-Sa 07:30-21:00; Su 09:00-20:00,Advance Auto Parts,Q4686051
198559,bluerhino,High Country BP,,Bishopville,SC,,US,+1 803-428-6234,,,Blue Rhino,Q65681213
197021,bluerhino,Family Dollar #12476,,Bishopville,SC,,US,+1 803-795-1400,,,Blue Rhino,Q65681213
213647,bluerhino,Sambo's Grocery,,Bishopville,SC,,US,+1 803-538-4002,,,Blue Rhino,Q65681213
161124,bluerhino,Pilot Travel #4581,,Bishopville,SC,,US,+1 803-428-2248,,,Blue Rhino,Q65681213
184639,bluerhino,Jared's Ace Hardware #05910,,Bishopville,SC,,US,+1 803-484-5716,,,Blue Rhino,Q65681213
40989,bluerhino,Food Lion #398,,Bishopville,SC,,US,+1 803-484-9477,,,Blue Rhino,Q65681213
116857,bluerhino,Bosmith Furniture,,Bishopville,SC,,US,+1 803-484-6429,,,Blue Rhino,Q65681213
187345,bluerhino,One Stop Foodmart,,Bishopville,SC,,US,+1 803-483-4444,,,Blue Rhino,Q65681213
14468276594402901000100000000000,bp,BP,,Bishopville,SC,,US,+1 803-428-2999,,24/7,BP,Q152057
128522,bp,Amoco,,Bishopville,SC,,US,+1 803-428-9600,,,BP,Q152057
123175,bp,BP,,Bishopville,SC,,US,+1 803-484-5583,,,BP,Q152057
119486,bp,BP,,Bishopville,SC,,US,+1 803-428-6234,,,BP,Q152057
51641,citi,ATM CVS,,Bishopville,SC,,US,,,,Citibank,Q857063
,credit_union_us,SAFE FCU,,Bishopville,SC,,US,+1 803-484-3537,,Mo-Th 09:00-05:00; Fr 09:00-06:00,,
7598,cvs_us,CVS Pharmacy,,Bishopville,SC,,US,+1 803-484-5484,https://www.cvs.com/store-locator/bishopville-sc-pharmacies/523-s-main-st-bishopville-sc-29010/storeid=7598,Mo-Fr 09:00-20:00; Sa 09:00-18:00; Su 10:00-18:00,CVS Pharmacy,Q2078880
347689,dunkin_us,Dunkin',,Bishopville,SC,,US,+1 803-428-2248,https://locations.dunkindonuts.com/en/sc/bishopville/1340-sumter-hwy/347689,24/7,Dunkin',Q847743
32476,family_dollar_us,FAMILY DOLLAR #12476,,Camden,SC,,US,+1 803-310-3992,https://www.familydollar.com/locations/sc/camden/32476/,Mo-Sa 09:00-22:00; Su 09:00-21:00,Family Dollar,Q5433101
https://local.fedex.com/#25230959,fedex,,,Bishopville,SC,,US,+1 800-463-3339,https://local.fedex.com/en-us/sc/bishopville/flocd,,FedEx,Q459477
2389,fresenius_kidney_care_us,Fresenius Kidney Care Lee County Dialysis Center,,Bishopville,SC,,US,+1 800-881-5101,https://www.freseniuskidneycare.com/dialysis-centers/south-carolina/2389,Mo-Sa 06:00-17:00,,
39013,h_r_block,H&R Block,,Bishopville,SC,,US,+1 803-484-6842,https://www.hrblock.com/local-tax-offices/south-carolina/bishopville/318-s-main-st/39013/,,H&R Block,Q5627799
https://locations.kfc.com/#11249899,kfc,Chicken Nuggets Near Bishopville,,Bishopville,SC,,US,,https://locations.kfc.com/sc/bishopville/1073-sumter-highway/chickennugget,Mo-Su 10:30-22:00,KFC,Q524757
299,piggly_wiggly_us,Piggly Wiggly,,Bishopville,SC,,US,+1 803-432-7011,https://www.thepig.net,,Piggly Wiggly,Q3388303
4581,pilot_flyingj,Pilot Travel Center,,Bishopville,SC,,US,+1 803-428-2248,https://locations.pilotflyingj.com/us/sc/bishopville/1340-sumter-hwy,,Pilot,Q7194412
sc_bishopville_1070-sumter-hwy,pizza_hut_us,1070 Sumter Hwy,,Bishopville,SC,,US,+1 803-428-2001,https://locations.pizzahut.com/sc/bishopville/1070-sumter-hwy,,Pizza Hut,Q191615
4177,shellrecharge,City of Bishopville,,Bishopville,SC,,US,,,,Shell Recharge,Q105883058
32,south_carolina,Lee State Park,"487 Loop Rd, Bishopville, SC",,SC,,US,+1 803-428-5307,,,,Q1456
88,south_carolina,Lee County Public Library System,"200 N Main St, Bishopville, SC",,SC,,US,+1 864-839-2630,,,,Q1456
126,south_carolina,Bishopville DMV,"508 South Lee Street, Bishopville, SC",,SC,,US,+1 803-484-4573,,,,Q1456
187,south_carolina,Lee County Courthouse,"113 Gregg St, Bishopville, SC",,SC,,US,+1 803-484-5341,,,,Q1456
249,south_carolina,Lee County Clinic,"817 Brown Street, Bishopville, SC",,SC,,US,+1 803-484-9414,,,,Q1456
294,south_carolina,Bishopville Center,"200 N Main St, Bishopville, SC",,SC,,US,+1 803-484-5921,,,,Q1456
339,south_carolina,Lee County DHHS,"810 Brown St, Bishopville, SC",,SC,,US,+1 803-484-6612,,,,Q1456
https://restaurants.subway.com/#14904491,subway,Subway,,Bishopville Lee,SC,,US,+1 803-484-5176,https://restaurants.subway.com/united-states/sc/bishopville/101-s-main-st,Mo-Su 09:00-21:00,Subway,Q244457
1355028,usps,BISHOPVILLE,,BISHOPVILLE,SC,,US,+1 803-483-0227,,"Mo-Fr 09:00-13:00,14:00-16:30; Sa 09:00-10:00",United States Postal Service,Q668687
2901000004,usps_collection_boxes,USPS COLLECTION BOX - BLUE BOX,105 S MAIN ST,BISHOPVILLE,SC,,US,,,,United States Postal Service,Q668687
2901000002,usps_collection_boxes,USPS COLLECTION BOX - BLUE BOX,228 N MAIN ST,BISHOPVILLE,SC,,US,,,,United States Postal Service,Q668687
2901000007,usps_collection_boxes,USPS COLLECTION BOX - BLUE BOX,451 N MAIN ST,BISHOPVILLE,SC,,US,,,,United States Postal Service,Q668687
2901000018,usps_collection_boxes,USPS COLLECTION BOX - PO LOBBY,451 N MAIN ST,BISHOPVILLE,SC,,US,,,,United States Postal Service,Q668687
,visa,,,BISHOPVILLE,SC,,US,,,,,
,visa,,,BISHOPVILLE,SC,,US,,,,,
,visa,,,BISHOPVILLE,SC,,US,,,,,
,visa,,,BISHOPVILLE,SC,,US,,,,,
,visa,,,BISHOPVILLE,SC,,US,,,,,
,visa,,,BISHOPVILLE,SC,,US,,,,,
,visa,,,BISHOPVILLE,SC,,US,,,,,
,visa,,,BISHOPVILLE,SC,,US,,,,,
,visa,,,BISHOPVILLE,SC,,US,,,,,
,visa,,,BISHOPVILLE,SC,,US,,,,,
,visa,,,BISHOPVILLE,SC,,US,,,,,
,visa,,,BISHOPVILLE,SC,,US,,,,,
,visa,,,BISHOPVILLE,SC,,US,,,,,
,visa,,,BISHOPVILLE,SC,,US,,,,,
,visa,,,BISHOPVILLE,SC,,US,,,,,
,visa,,,BISHOPVILLE,SC,,US,,,,,
,visa,,,BISHOPVILLE,SC,,US,,,,,
,visa,,,MCBEE,SC,,US,,,,,
,visa,,,BISHOPVILLE,SC,,US,,,,,
,visa,,,BISHOPVILLE,SC,,US,,,,,
,visa,,,BISHOPVILLE,SC,,US,,,,,
,visa,,,BISHOPVILLE,SC,,US,,,,,
,visa,,,BISHOPVILLE,SC,,US,,,,,
,visa,,,BISHOPVILLE,SC,,US,,,,,
822,waffle_house_us,Waffle House #822,,BISHOPVILLE,SC,,US,+1 803-853-4045,https://locations.wafflehouse.com/bishopville-sc-822,24/7,Waffle House,Q1701206
https://locations.wendys.com/#9250933,wendys,"Wendy's Bishopville in Bishopville, SC",,Bishopville,SC,,US,+1 803-428-2047,https://locations.wendys.com/united-states/sc/bishopville/1340-sumter-hwy,"Mo-Su 06:00-10:30,06:00-24:00",Wendy's,Q550258
94587e0b4268ef8a7f4f6ebb0673d053,western_union,YOUNG'S #3615,,Bishopville,SC,,US,+1 803-484-4250,https://location.westernunion.com/us/sc/bishopville/94587e0b4268ef8a7f4f6ebb0673d053,Mo-Su 06:00-22:00,Western Union,Q861042
755d447661ff1050bc0507ecb0454c04,western_union,ONE STOP FOOD MART,,Bishopville,SC,,US,+1 803-483-4444,https://location.westernunion.com/us/sc/bishopville/755d447661ff1050bc0507ecb0454c04,Mo-Su 06:00-23:00,Western Union,Q861042
384,world_finance_us,,"620 Sumter Hwy, Bishopville, SC, 29010",Bishopville,SC,,US,+1 803-484-7162,https://www.loansbyworld.com/branches/branch-384,Mo-Fr 09:00-17:30; Sa 09:00-12:00,World Finance,Q3569971
