Ref,Spider,Name,Address,City,State,Zipcode,Country,Phone,Website,Hours,Brand,WikiData
Ahern Sunset,ahern,Ahern Sunset,,Henderson,NV,,US,+1 702-454-7368,,,Ahern Rentals,Q114487657
USAA22G06,audi,Audi Henderson,"7740 Eastgate Rd, Henderson, NV 89011",Henderson,NV,,US,+1 702-982-4600,,,Audi,Q23317
198363,bluerhino,Speedee Mart #128,,Henderson,NV,,US,+1 725-217-1893,,,Blue Rhino,Q65681213
146873,bluerhino,Green Valley Grocery #43,,Henderson,NV,,US,+1 702-454-9300,,,Blue Rhino,Q65681213
239052,bluerhino,Circle K #2701309,,Henderson,NV,,US,+1 702-565-7326,,,Blue Rhino,Q65681213
204809,bluerhino,Green Valley Grocery #71,,Henderson,NV,,US,+1 702-754-1949,,,Blue Rhino,Q65681213
211890,bluerhino,Smiths Food & Drug #331 - Fuel Center,,Henderson,NV,,US,+1 307-856-4931,,,Blue Rhino,Q65681213
211889,bluerhino,Smiths Food & Drug #331,,Henderson,NV,,US,+1 307-856-4931,,,Blue Rhino,Q65681213
382445,chevron,Chevron Station #382445,985 W GALLERIA DR STE 110,HENDERSON,NV,,US,+1 702-565-2626,,,Chevron,Q319642
28769,citi,ATM 7ELEVEN-FCTI,,Henderson,NV,,US,,,,Citibank,Q857063
9029,dominos_pizza_us,Domino's Pizza,,Henderson,NV,,US,+1 725-210-5554,https://pizza.dominos.com/nevada/henderson/815-e-lake-mead-pkwy,Mo-Th 10:00-24:00; Fr-Sa 10:00-01:00; Su 10:00-24:00,Domino's,Q839466
1000000460,extra_space_storage,Henderson Self Storage at 975 Galleria Dr,,Henderson,NV,,US,+1 702-728-4694,https://www.extraspace.com/storage/facilities/us/nevada/henderson/1000000460/,Mo-Fr 09:30-18:00; Sa 09:00-17:30,Extra Space Storage,Q5422162
100825,fresenius_kidney_care_us,Fresenius Kidney Care Union Village,,Henderson,NV,,US,+1 800-881-5101,https://www.freseniuskidneycare.com/dialysis-centers/nevada/100825,Mo-Sa 05:00-18:00,,
302042,kindercare,Union Village KinderCare,,Henderson,NV,,US,,https://www.kindercare.com/our-centers/henderson/nv/302042,,KinderCare Learning Centers,Q6410551
286168,marathon_petroleum_us,ARCO #42853 AMPM,,Henderson,NV,,US,+1 702-487-6088,,,Arco,Q304769
https://locations.oreillyauto.com/nv/henderson/check-engine-light-testing-5568.html,oreilly,Your Henderson O'Reilly Auto Parts Store,,Henderson,NV,,US,+1 702-625-8866,https://locations.oreillyauto.com/nv/henderson/check-engine-light-testing-5568.html,Mo-Sa 07:00-22:00; Su 08:00-21:00,O'Reilly Auto Parts,Q7071951
https://locations.oreillyauto.com/nv/henderson/wiper-installation-5568.html,oreilly,Your Henderson O'Reilly Auto Parts Store,,Henderson,NV,,US,+1 702-625-8866,https://locations.oreillyauto.com/nv/henderson/wiper-installation-5568.html,Mo-Sa 07:00-22:00; Su 08:00-21:00,O'Reilly Auto Parts,Q7071951
https://locations.oreillyauto.com/nv/henderson/battery-testing-5568.html,oreilly,Your Henderson O'Reilly Auto Parts Store,,Henderson,NV,,US,+1 702-625-8866,https://locations.oreillyauto.com/nv/henderson/battery-testing-5568.html,Mo-Sa 07:00-22:00; Su 08:00-21:00,O'Reilly Auto Parts,Q7071951
https://locations.oreillyauto.com/nv/henderson/autopartes-5568.html,oreilly,Tu tienda O'Reilly Auto Parts en Henderson,,Henderson,NV,,US,+1 702-625-8866,https://locations.oreillyauto.com/nv/henderson/autopartes-5568.html,Mo-Sa 07:00-22:00; Su 08:00-21:00,O'Reilly Auto Parts,Q7071951
20145,seven_eleven_ca_us,7-11 Str   1453 N Boulder Hwy,,Henderson,NV,,US,+1 702-565-8342,https://www.7-eleven.com/locations/nv/henderson/1453-n.-boulder-hwy-20145,,7-Eleven,Q259340
38301,seven_eleven_ca_us,7-Eleven Store,,Henderson,NV,,US,+1 702-490-7006,https://www.7-eleven.com/locations/nv/henderson/3005-boulder-hwy-38301,,7-Eleven,Q259340
https://stations.sinclairoil.com/nv/henderson/709-w-sunset-rd,sinclair_us,Sinclair Gas Station,,Henderson,NV,,US,+1 877-704-4404,https://stations.sinclairoil.com/nv/henderson/709-w-sunset-rd,24/7,Sinclair,Q1290900
4374489,teriyaki_madness_us,NV | Teriyaki Madness AM-PM Russell Road,"5749 E Russell Rd, Henderson, NV 89011, USA",Henderson,NV,,US,+1 702-202-2744,,Mo-Su 10:30-21:00,Teriyaki Madness,Q107692862
,visa,,,HENDERSON,NV,,US,,,,,
,visa,,,HENDERSON,NV,,US,,,,,
,visa,,,HENDERSON,NV,,US,,,,,
,visa,,,HENDERSON,NV,,US,,,,,
,visa,,,HENDERSON,NV,,US,,,,,
,visa,,,HENDERSON,NV,,US,,,,,
,visa,,,HENDERSON,NV,,US,,,,,
,visa,,,HENDERSON,NV,,US,,,,,
,visa,,,HENDERSON,NV,,US,,,,,
,visa,,,HENDERSON,NV,,US,,,,,
,visa,,,HENDERSON,NV,,US,,,,,
,visa,,,HENDERSON,NV,,US,,,,,
,visa,,,HENDERSON,NV,,US,,,,,
,visa,,,HENDERSON,NV,,US,,,,,
,visa,,,HENDERSON,NV,,US,,,,,
,visa,,,HENDERSON,NV,,US,,,,,
,visa,,,HENDERSON,NV,,US,,,,,
,visa,,,HENDERSON,NV,,US,,,,,
,visa,,,HENDERSON,NV,,US,,,,,
,visa,,,HENDERSON,NV,,US,,,,,
,visa,,,HENDERSON,NV,,US,,,,,
,visa,,,HENDERSON,NV,,US,,,,,
,visa,,,HENDERSON,NV,,US,,,,,
,visa,,,HENDERSON,NV,,US,,,,,
bf53befc40f1edecec81d9085ed3634d,western_union,SMITHS #331,,Henderson,NV,,US,+1 702-268-2735,https://location.westernunion.com/us/nv/henderson/bf53befc40f1edecec81d9085ed3634d,Mo-Su 09:00-21:00,Western Union,Q861042
c5511a6f54ed402df6ba6c77dd5f45d9,western_union,SMITHS #331,,Henderson,NV,,US,+1 702-268-2735,https://location.westernunion.com/us/nv/henderson/c5511a6f54ed402df6ba6c77dd5f45d9,Mo-Su 09:00-21:00,Western Union,Q861042
f021b17f7bc42a046823af115327d348,western_union,7-ELEVEN #20145,,Henderson,NV,,US,+1 702-565-8342,https://location.westernunion.com/us/nv/henderson/f021b17f7bc42a046823af115327d348,,Western Union,Q861042
