Ref,Spider,Name,Address,City,State,Zipcode,Country,Phone,Website,Hours,Brand,WikiData
21966,asics_us,Bootlegger's Footwear Center,2 N Main St,Wolfeboro,NH,,US,+1 603-569-3560,,Mo-Sa 09:00-20:00; Su 09:00-17:30,asics,Q327247
215031,bluerhino,Bradley's Hardware #7711,,Wolfeboro,NH,,US,+1 603-569-3018,,,Blue Rhino,Q65681213
191074,bluerhino,Walgreens #18268,,Wolfeboro,NH,,US,+1 603-569-3348,,,Blue Rhino,Q65681213
106202,bluerhino,AG #10808 - Harvest Market,,Wolfeboro,NH,,US,+1 603-569-8944,,,Blue Rhino,Q65681213
32021,citi,ATM 7ELEVEN-FCTI,,Wolfeboro,NH,,US,,,,Citibank,Q857063
030424,citizens_us,Citizens Wolfeboro,,Wolfeboro,NH,,US,+1 603-552-2063,,Mo-Fr 09:00-16:00; Sa 09:00-12:00,Citizens,Q5122694
ATM-533,citizens_us,,,Wolfeboro,NH,,US,+1 603-569-7820,,24/7,Citizens,Q5122694
307849,dunkin_us,Dunkin',,Wolfeboro,NH,,US,+1 603-569-9050,https://locations.dunkindonuts.com/en/nh/wolfeboro/23-center-st/307849,Mo-Su 04:00-19:00,Dunkin',Q847743
E110DE,enterprise,Wolfeboro AutoCare Plus,,Wolfeboro,NH,,US,+1 603-569-4742,,,Enterprise Rent-A-Car,Q17085454
https://locations.mtb.com/#49271719,mt_bank_us,,,,NH,,US,+1 800-724-2440,https://locations.mtb.com/nh/wolfeboro/bank-branches-and-atms-wolfeboro-nh-sa7163.html,24/7,M&T Bank,Q3272257
https://locations.mtb.com/#3028016,mt_bank_us,M&T Bank,,,NH,,US,+1 603-569-8400,https://locations.mtb.com/nh/wolfeboro/bank-branches-and-atms-wolfeboro-nh-8137.html,Mo-Th 09:00-16:00; Fr 09:00-17:00; Sa 09:00-12:00,M&T Bank,Q3272257
32506,seven_eleven_ca_us,7-11 Str   670 Center Street,,Wolfeboro,NH,,US,+1 603-569-1968,https://www.7-eleven.com/locations/nh/wolfeboro/670-center-street-32506,,7-Eleven,Q259340
0865645600,sunoco_us,Sunoco,,WOLFEBORO,NH,,US,+1 603-569-6555,,Mo-Su 05:00-22:00,Sunoco,Q1423218
1388126,usps,WOLFEBORO,,WOLFEBORO,NH,,US,+1 603-569-2375,,Mo-Fr 09:00-17:00; Sa 09:00-12:00,United States Postal Service,Q668687
0389400009,usps_collection_boxes,USPS COLLECTION BOX - BLUE BOX,34 S MAIN ST,WOLFEBORO,NH,,US,,,,United States Postal Service,Q668687
0389400007,usps_collection_boxes,USPS COLLECTION BOX - PO LOBBY,34 S MAIN ST,WOLFEBORO,NH,,US,,,,United States Postal Service,Q668687
0389400014,usps_collection_boxes,USPS COLLECTION BOX - PO LOBBY,34 S MAIN ST,WOLFEBORO,NH,,US,,,,United States Postal Service,Q668687
0389400002,usps_collection_boxes,USPS COLLECTION BOX - BLUE BOX,22 GLENDON ST,WOLFEBORO,NH,,US,,,,United States Postal Service,Q668687
,visa,,,WOLFEBORO,NH,,US,,,,,
https://www.walgreens.com/locator/walgreens-50+s+main+st-wolfeboro-nh-03894/id=18268,walgreens,Walgreens,,Wolfeboro,NH,,US,+1 603-569-3348,https://www.walgreens.com/locator/walgreens-50+s+main+st-wolfeboro-nh-03894/id=18268,Mo-Su 07:00-22:00,Walgreens,Q1591889
63241e183a9e8d0de7872b9e03e8accc,western_union,WALGREENS #18268,,Wolfeboro,NH,,US,+1 603-569-3298,https://location.westernunion.com/us/nh/wolfeboro/63241e183a9e8d0de7872b9e03e8accc,Mo-Fr 08:00-21:00; Sa 08:00-20:00; Su 08:00-19:00,Western Union,Q861042
