Ref,Spider,Name,Address,City,State,Zipcode,Country,Phone,Website,Hours,Brand,WikiData
https://locations.99only.com/ca/woodlandhills/discount-store-87.html,99_cents_only_us,99 Cents Only Stores,,Woodland Hills,CA,,US,+1 818-999-5979,https://locations.99only.com/ca/woodlandhills/discount-store-87.html,Mo 08:00-22:00; Tu 07:00-22:00; We 08:00-22:00; Th 07:00-22:00; Fr-Su 08:00-22:00,99 Cents Only Stores,Q4646294
b120ae73-e11d-e611-80c5-005056aa8521,amf_bowling,Bowlero Woodland Hills,,Woodland Hills,CA,,US,+1 818-225-7181,https://www.bowlero.com/location/bowlero-woodland-hills,,Bowlero,Q17102967
22510,asics_us,Sneakerland,22630 Ventura Blvd,Woodland Hills,CA,,US,+1 818-225-7463,,,asics,Q327247
https://locators.bankofamerica.com/ca/woodlandhills/financial-centers-woodland-hills-8139.html,bankofamerica,Bank of America Financial Center & Walk-Up ATM | El Camino Center,,Woodland Hills,CA,,US,+1 818-712-6074,https://locators.bankofamerica.com/ca/woodlandhills/financial-centers-woodland-hills-8139.html,Mo-Fr 10:00-16:00,Bank of America,Q487907
https://locators.bankofamerica.com/ca/woodlandhills/atm-woodland-hills-107024.html,bankofamerica,Bank of America Walk-Up ATM | Winnetka-Ventura,,Woodland Hills,CA,,US,+1 844-401-8500,https://locators.bankofamerica.com/ca/woodlandhills/atm-woodland-hills-107024.html,,Bank of America,Q487907
los-angeles-woodland-hills,barmethod,The Bar Method Woodland Hills ,,Woodland Hills,CA,,US,,https://barmethod.com/locations/los-angeles-woodland-hills/,,The Bar Method,Q117599728
Louisville High School,barnesnoblecollege,Louisville High School,,Hills,CA,,US,,https://www.bncollege.com/campus-stores/,,Barnes & Noble College,Q4861508
181748,bluerhino,Smart & Final #324,,Woodland Hills,CA,,US,+1 818-225-9590,,,Blue Rhino,Q65681213
146098,bluerhino,Kenk USA - Ventura Blvd.,,Woodland Hills,CA,,US,+1 818-591-1473,,,Blue Rhino,Q65681213
183975,bluerhino,United Pacific #228,,Woodland Hills,CA,,US,+1 818-617-2170,,,Blue Rhino,Q65681213
197891,bluerhino,Ralph's #81 - Fuel Site,,Woodland Hills,CA,,US,+1 818-710-1413,,,Blue Rhino,Q65681213
28620,bluerhino,Franklin's Hardware - Ace #16668-A,,Woodland Hills,CA,,US,+1 818-347-6800,,,Blue Rhino,Q65681213
189027,bluerhino,United Pacific #226,,Woodland Hills,CA,,US,+1 818-796-4296,,,Blue Rhino,Q65681213
189021,bluerhino,United Pacific #211,,Woodland Hills,CA,,US,+1 818-646-6031,,,Blue Rhino,Q65681213
189031,bluerhino,United Pacific #241,,Woodland Hills,CA,,US,+1 818-796-4216,,,Blue Rhino,Q65681213
226547,bluerhino,Ralph's #70,,Woodland Hills,CA,,US,+1 818-883-7552,,,Blue Rhino,Q65681213
169126,bluerhino,United Pacific  #176,,Woodland Hills,CA,,US,+1 818-609-9323,,,Blue Rhino,Q65681213
3494042,chase_us,Desoto and Ventura - New branch,,Woodland Hills,CA,,US,+1 818-746-4323,https://locator.chase.com/ca/woodland-hills/20900-ventura-blvd,Mo-Fr 09:00-17:00; Sa 09:00-14:00,Chase,Q524629
2042601,chase_us,Winnetka Woodland Hills - New branch,,Woodland Hills,CA,,US,+1 818-702-6432,https://locator.chase.com/ca/woodland-hills/20040-ventura-blvd,Mo-Fr 09:00-17:00; Sa 09:00-14:00,Chase,Q524629
49329,citi,ATM CVS,,Woodland Hills,CA,,US,,,,Citibank,Q857063
27745,citi,ATM 7ELEVEN-FCTI,,Woodland Hills,CA,,US,,,,Citibank,Q857063
27673,citi,ATM 7ELEVEN-FCTI,,Woodland Hills,CA,,US,,,,Citibank,Q857063
49170,citi,ATM CVS,,Woodland Hills,CA,,US,,,,Citibank,Q857063
23977,citi,ATM 1027 LLC,,Woodland Hills,CA,,US,,,,Citibank,Q857063
624,citi,Woodland Hills-Ventura,,Woodland Hills,CA,,US,+1 800-627-3999,,,Citibank,Q857063
81952,citi,ATM Target,,Woodland Hills,CA,,US,,,,Citibank,Q857063
9613,cvs_us,CVS Pharmacy,,Woodland Hills,CA,,US,+1 818-223-8240,https://www.cvs.com/store-locator/woodland-hills-ca-pharmacies/23357-mulholland-drive-woodland-hills-ca-91364/storeid=9613,24/7,CVS Pharmacy,Q2078880
16091,cvs_us,CVS Pharmacy,,Woodland Hills,CA,,US,+1 818-992-3386,https://www.cvs.com/store-locator/woodland-hills-ca-pharmacies/20801-ventura-blvd-woodland-hills-ca-91364/storeid=16091,"Mo-Fr 10:00-13:30,14:00-19:00; Sa 09:00-13:30,14:00-17:00; Su 11:00-13:30,14:00-17:00",CVS Pharmacy,Q2078880
9627,cvs_us,CVS Pharmacy,,Woodland Hills,CA,,US,+1 818-346-2207,https://www.cvs.com/store-locator/woodland-hills-ca-pharmacies/22050-ventura-blvd-woodland-hills-ca-91364/storeid=9627,Mo-Su 08:00-23:00,CVS Pharmacy,Q2078880
8337,dominos_pizza_us,Domino's Pizza,,Woodland Hills,CA,,US,+1 818-224-3300,https://pizza.dominos.com/california/woodland-hills/22643-ventura-blvd,Mo-Th 10:00-24:00; Fr-Sa 10:00-01:00; Su 10:00-24:00,Domino's,Q839466
357841,dunkin_us,Dunkin',,Woodland Hills,CA,,US,+1 747-230-4444,https://locations.dunkindonuts.com/en/ca/woodland-hills/22020-ventura-boulevard/357841,Mo-Su 05:00-20:00,Dunkin',Q847743
20048-ventura-blvd,einsteinbros,Woodland Hills Einstein Bros. Bagels,,Woodland Hills,CA,,US,+1 818-883-0166,https://locations.einsteinbros.com/us/ca/woodland-hills/20048-ventura-blvd,Mo-Su 06:00-14:30,Einstein Bros. Bagels,Q5349788
3895,elpolloloco,El Pollo Loco,,Woodland Hills,CA,,US,+1 818-970-3288,,,El Pollo Loco,Q2353849
E132K5,enterprise,Calabasas,,Woodland Hills,CA,,US,+1 818-222-7164,,,Enterprise Rent-A-Car,Q17085454
E13208,enterprise,Woodland Hills,,Woodland Hills,CA,,US,+1 818-348-3488,,,Enterprise Rent-A-Car,Q17085454
0097,european_wax_center_us,European Wax Center,,Woodland Hills,CA,,US,+1 818-746-2683,https://locations.waxcenter.com/ca/woodlandhills/woodland-hills-0097.html,Mo-Fr 09:00-21:00; Sa-Su 09:00-18:00,European Wax Center,Q5413426
Motorcraft1567USAEnglish,ford,Vista Ford Lincoln,,California,CA,,US,+1 818-884-7600,,,Ford,Q44294
Motorcraft1568USAEnglish,ford,Vista Lincoln-Mercury,,California,CA,,US,,,,Ford,Q44294
https://www.ford.com/dealerships/dealer-details/ca/woodland-hills/vista-ford/,ford_dealers_us,Vista Ford,,Woodland Hills,CA,,US,+1 747-259-0531,https://www.ford.com/dealerships/dealer-details/ca/woodland-hills/vista-ford/,Mo-Sa 08:30-20:00; Su 09:30-19:00,Ford Motor Company,Q44294
3103,fresenius_kidney_care_us,Fresenius Kidney Care Woodland Hills,,Woodland Hills,CA,,US,+1 800-881-5101,https://www.freseniuskidneycare.com/dialysis-centers/california/3103,Mo-Sa 07:00-17:00,,
https://stores.gnc.com/#24058649,gnc,GNC Gateway Plaza In Woodland Hills,,,CA,,US,+1 818-992-7798,https://stores.gnc.com/all-stores-california/woodland-hills/21927-ventura-plaza,Mo-Sa 10:00-21:00; Su 11:00-19:00,GNC,Q4808595
https://www.habitburger.com/locations/woodland-hills/,habit_burger,The Habit Burger Grill,,Woodland Hills,CA,,US,+1 818-225-2231,https://www.habitburger.com/locations/woodland-hills/,Mo-Su 10:00-23:00,The Habit Burger Grill,Q18158741
6569,h_r_block,H&R Block,,Woodland Hills,CA,,US,+1 818-347-1040,https://www.hrblock.com/local-tax-offices/california/woodland-hills/20956-ventura-blvd/6569/,,H&R Block,Q5627799
505,ikes,Woodland Hills,,Woodland Hills,CA,,US,+1 747-348-7101,https://locations.ikessandwich.com/ca/woodlands/505/,,Ike's Love & Sandwiches,Q112028897
18,innout,Woodland Hills,,Woodland Hills,CA,,US,,http://locations.in-n-out.com/18,,In-N-Out Burger,Q1205312
https://locations.jackinthebox.com/us/ca/woodland-hills/20037-ventura-blvd,jackinthebox,Jack in the Box,,Woodland Hills,CA,,US,+1 818-887-9339,https://locations.jackinthebox.com/us/ca/woodland-hills/20037-ventura-blvd,Mo-Su 04:00-04:00,Jack in the Box,Q1538507
https://locations.jackinthebox.com/us/ca/woodland-hills/22664-ventura-blvd,jackinthebox,Jack in the Box,,Woodland Hills,CA,,US,+1 818-224-3460,https://locations.jackinthebox.com/us/ca/woodland-hills/22664-ventura-blvd,Mo-Su 04:00-04:00,Jack in the Box,Q1538507
https://locations.jamba.com/#8-Jamba,jambajuice,Jamba Woodland Hills,,Woodland Hills,CA,,US,+1 818-912-6665,https://locations.jamba.com/ca/woodland-hills/21915-ventura-blvd,Mo-Sa 07:00-19:00; Su 08:00-19:00,Jamba Juice,Q3088784
https://healthy.kaiserpermanente.org/southern-california/facilities/fmc-dialysis-services-of-woodland-hills-340371,kaiser_permanente_us,FMC Dialysis Services of Woodland Hills,,Woodland Hills,CA,,US,+1 818-713-9040,https://healthy.kaiserpermanente.org/southern-california/facilities/fmc-dialysis-services-of-woodland-hills-340371,,Kaiser Permanente,Q1721601
https://healthy.kaiserpermanente.org/southern-california/facilities/clearview-treatment-programs-21021-ventura-171825,kaiser_permanente_us,Clearview Treatment Programs - 21021 Ventura,,Woodland Hills,CA,,US,+1 818-351-7330,https://healthy.kaiserpermanente.org/southern-california/facilities/clearview-treatment-programs-21021-ventura-171825,,Kaiser Permanente,Q1721601
140064,little_free_library,Heaven Avenue Chapter #140064 Woodland Hills CA,,Woodland Hills,CA,,US,,,,Little Free Library,Q6650101
111187,little_free_library,Hilltop Library #111187 Woodland Hills CA,,Woodland Hills,CA,,US,,,,Little Free Library,Q6650101
145778,little_free_library,#145778 #145778 Woodland Hills CA,,Woodland Hills,CA,,US,,,,Little Free Library,Q6650101
83460,little_free_library,Shuken Library #83460 Woodland Hills CA,,Woodland Hills,CA,,US,,,,Little Free Library,Q6650101
114156,little_free_library,Natoma Avenue Little Free Library #114156 Woodland Hills CA,,Woodland Hills,CA,,US,,,,Little Free Library,Q6650101
285931,marathon_petroleum_us,ARCO #42146,,Woodland Hills,CA,,US,+1 818-225-9303,,,Arco,Q304769
LAXCW,marriott,Courtyard Los Angeles Woodland Hills,,Woodland Hills,CA,,US,+1 818-999-2200,https://www.marriott.com/LAXCW,,Courtyard by Marriott,Q1053170
66034489,moneygram,CVS - #9613,,WOODLAND HILLS,CA,,US,+1 818-223-8240,,Mo-Su 07:00-22:00,MoneyGram,Q1944412
10383184,nick_the_greek_us,Woodland Hills,"21855 Ventura Blvd, Woodland Hills, Ca, 91364, US",Woodland Hills,CA,,US,+1 818-703-0085,,Mo-Th 11:00-21:00; Fr-Sa 11:00-22:00; Su 11:00-21:00,Nick The Greek,Q117222612
21917-ventura-blvd,noahsnybagels,Noah's NY Bagels Woodland Hills,,Woodland Hills,CA,,US,+1 818-999-9577,https://locations.noahs.com/us/ca/woodland-hills/21917-ventura-blvd,Mo-Fr 05:00-14:00; Sa-Su 05:30-14:00,Noah's New York Bagels,Q64517373
112939,pandaexpress,Ventura & Winnetka,,Woodland Hills,CA,,US,+1 818-883-8818,https://www.pandaexpress.com/locations/ca/woodland-hills/20041-ventura-blvd,Mo-Fr 09:00-22:00; Sa 09:30-22:00; Su 10:00-22:00,Panda Express,Q1358690
https://stores.petco.com/#27959897,petco,Petco Woodland Hills,,Woodland Hills,CA,,US,+1 818-346-9397,https://stores.petco.com/ca/woodlandhills/pet-supplies-woodlandhills-ca-552.html,Mo-Sa 09:00-21:00; Su 10:00-19:00,Petco,Q7171798
ca_woodland-hills_20801-ventura-blvd-33023132,pizza_hut_us,20801 Ventura Blvd.,,Woodland Hills,CA,,US,,https://locations.pizzahut.com/ca/woodland-hills/20801-ventura-blvd-33023132,,Pizza Hut,Q191615
ca_woodland-hills_20801-ventura-blvd-80044492,pizza_hut_us,20801 Ventura Blvd,,Woodland Hills,CA,,US,,https://locations.pizzahut.com/ca/woodland-hills/20801-ventura-blvd-80044492,,Pizza Hut,Q191615
https://www.publicstorage.com/self-storage-ca-woodland-hills/2060.html,public_storage_us,Public Storage,,Woodland Hills,CA,,US,+1 747-444-0758,https://www.publicstorage.com/self-storage-ca-woodland-hills/2060.html,,Public Storage,Q1156045
703,pure_barre_us,Woodland Hills,,Woodland Hills,CA,,US,+1 818-712-0353,https://www.purebarre.com/location/woodland-hills-ca,,Pure Barre,Q86707084
997138,rocket_us,Rocket,,Woodland Hills,CA,,US,+1 818-646-6031,,,Rocket,Q121513516
997116,rocket_us,Rocket,,Woodland Hills,CA,,US,+1 818-609-9323,,,Rocket,Q121513516
993369,rocket_us,Rocket,,Woodland Hills,CA,,US,+1 818-796-4216,,,Rocket,Q121513516
993356,rocket_us,Rocket,,Woodland Hills,CA,,US,+1 818-617-2170,,,Rocket,Q121513516
993354,rocket_us,Rocket,,Woodland Hills,CA,,US,+1 818-796-4296,,,Rocket,Q121513516
https://stores.saloncentric.com/#29173443,salon_centric_us,SalonCentric,,,CA,,US,+1 818-883-9640,https://stores.saloncentric.com/ca/woodland-hills/6012,Mo 08:00-19:00; Tu 08:00-18:00; We 08:00-18:30; Th-Fr 08:00-18:00; Sa 08:30-16:00; Su 12:00-16:00,SalonCentric,Q124339481
1269,shellrecharge,20157 Ventura Blvd,,Los Angeles,CA,,US,,,,Shell Recharge,Q105883058
1738,shellrecharge,20774 W VENTURA BLVD,,Los Angeles,CA,,US,,,,Shell Recharge,Q105883058
https://www.sprouts.com/store/ca/woodland-hills/ventura-blvd/,sprouts_farmer_market,Sprouts Farmers Market 255-Woodland Hills,,Woodland Hills,CA,,US,+1 818-887-6473,https://www.sprouts.com/store/ca/woodland-hills/ventura-blvd/,Mo-Su 07:00-22:00,Sprouts Farmer Market,Q7581369
https://restaurants.subway.com/#14904702,subway,Subway Valley Country Market,,Woodland Hills Los Angeles,CA,,US,+1 818-835-9770,https://restaurants.subway.com/united-states/ca/woodland-hills/20929-ventura-boulevard,Mo-Fr 07:00-21:00; Sa-Su 10:00-21:00,Subway,Q244457
https://restaurants.subway.com/#14903611,subway,Subway,,Woodland Hills Los Angeles,CA,,US,+1 818-884-0919,https://restaurants.subway.com/united-states/ca/woodland-hills/20044-ventura-blvd,Mo-Fr 07:30-21:00; Sa 08:00-20:30; Su 09:00-20:00,Subway,Q244457
81037,supercuts,El Camino Shopping Center,23337 Mulholland Dr,Woodland Hills,CA,,US,+1 818-222-8145,https://www.supercuts.com/checkin/81037,Mo-Sa 09:00-18:00; Su 10:00-16:00,Supercuts,Q7643239
https://locations.tacobell.com/#6145009,taco_bell,Taco Bell,,Woodland Hills,CA,,US,+1 818-591-7626,https://locations.tacobell.com/ca/woodland-hills/23275-mulholland-drive.html,Mo-Fr 07:00-02:00; Sa-Su 08:00-02:00,Taco Bell,Q752941
209,trader_joes_us,Trader Joe's Woodland Hills (209),,Woodland Hills,CA,,US,+1 818-712-9475,https://locations.traderjoes.com/ca/woodland-hills/209/,Mo-Su 08:00-21:00,Trader Joe's,Q688825
https://www.trekbikes.com/us/en_US/retail/woodland_hills/,trekbikes,Trek Bicycle Woodland Hills,,Woodland Hills,CA,,US,+1 818-456-4105,https://www.trekbikes.com/us/en_US/retail/woodland_hills/,Tu-Fr 11:00-18:00; Sa 10:00-18:00,Trek,Q1067617
https://www.asurion.com/repairs/tech/locations/woodlandhills,ubreakifix,uBreakiFix by Asurion - Woodland Hills,,Woodland Hills,CA,,US,+1 818-564-4769,https://www.asurion.com/repairs/tech/locations/woodlandhills,Mo-Sa 10:00-19:00; Su 12:00-17:00,Asurion Tech Repair & Solutions,Q4811938
76,ucla_health,MPTF Age Well Primary Care,,Woodland Hills,CA,,US,+1 818-876-4055,https://www.uclahealth.org/locations/mptf-age-well,,UCLA Health,Q18394900
044162,uhaul,Cell Repair Master,19915 Ventura Bl,Woodland Hills,CA,,US,+1 818-705-1971,,Mo-Th 00:00-18:00; Fr 00:00-15:00,U-Haul,Q7862902
002489,uhaul,Box It Plus,22543 Ventura Bl Ste 220,Woodland Hills,CA,,US,+1 818-436-0230,,Mo-Fr 00:00-15:00; Sa 00:00-13:00,U-Haul,Q7862902
088231,uhaul,Woodland Hills 76,20021 Ventura Bl,Woodland Hills,CA,,US,+1 818-887-1625,,Mo-Tu 00:00-16:00; We-Th 00:00-13:00; Fr 00:00-17:00; Sa 00:00-16:00,U-Haul,Q7862902
9136400056,usps_collection_boxes,USPS COLLECTION BOX - BLUE BOX,23347 MULHOLLAND DR,WOODLAND HILLS,CA,,US,,,,United States Postal Service,Q668687
9136400069,usps_collection_boxes,USPS COLLECTION BOX - BLUE BOX,4930 RIGOLETTO ST,WOODLAND HILLS,CA,,US,,,,United States Postal Service,Q668687
9136400010,usps_collection_boxes,USPS COLLECTION BOX - BLUE BOX,21928 VENTURA BLVD,WOODLAND HILLS,CA,,US,,,,United States Postal Service,Q668687
9136400014,usps_collection_boxes,USPS COLLECTION BOX - BLUE BOX,4869 TOPANGA CANYON BLVD,WOODLAND HILLS,CA,,US,,,,United States Postal Service,Q668687
9136400041,usps_collection_boxes,USPS COLLECTION BOX - BLUE BOX,21243 VENTURA BLVD,WOODLAND HILLS,CA,,US,,,,United States Postal Service,Q668687
9136400034,usps_collection_boxes,USPS COLLECTION BOX - BLUE BOX,21021 VENTURA BLVD,WOODLAND HILLS,CA,,US,,,,United States Postal Service,Q668687
9136400035,usps_collection_boxes,USPS COLLECTION BOX - BLUE BOX,21021 VENTURA BLVD,WOODLAND HILLS,CA,,US,,,,United States Postal Service,Q668687
9136400036,usps_collection_boxes,USPS COLLECTION BOX - BLUE BOX,21021 VENTURA BLVD,WOODLAND HILLS,CA,,US,,,,United States Postal Service,Q668687
9136400028,usps_collection_boxes,USPS COLLECTION BOX - BLUE BOX,20720 VENTURA BLVD,WOODLAND HILLS,CA,,US,,,,United States Postal Service,Q668687
9136400030,usps_collection_boxes,USPS COLLECTION BOX - BLUE BOX,20720 VENTURA BLVD,WOODLAND HILLS,CA,,US,,,,United States Postal Service,Q668687
9136400029,usps_collection_boxes,USPS COLLECTION BOX - BLUE BOX,20720 VENTURA BLVD,WOODLAND HILLS,CA,,US,,,,United States Postal Service,Q668687
9136400024,usps_collection_boxes,USPS COLLECTION BOX - BLUE BOX,20501 VENTURA BLVD,WOODLAND HILLS,CA,,US,,,,United States Postal Service,Q668687
9136400068,usps_collection_boxes,USPS COLLECTION BOX - BLUE BOX,20501 VENTURA BLVD,WOODLAND HILLS,CA,,US,,,,United States Postal Service,Q668687
9136400050,usps_collection_boxes,USPS COLLECTION BOX - BLUE BOX,5548 WINNETKA AVE,WOODLAND HILLS,CA,,US,,,,United States Postal Service,Q668687
woodlandhills_oil-change-gn0051,valvoline_instant_oil_change,Valvoline,21000 Ventura Blvd. ,Woodland Hills,CA,,US,+1 818-610-8866,https://store.vioc.com/ca/woodlandhills/oil-change-gn0051.html,,Valvoline Instant Oil Change,Q7912852
https://vcahospitals.com/veterinary-specialists-valley,vca,VCA Veterinary Specialists of the Valley,,Woodland Hills,CA,,US,+1 818-883-8387,https://vcahospitals.com/veterinary-specialists-valley,,VCA,Q7906620
,visa,,,LOS ANGELES,CA,,US,,,,,
,visa,,,WOODLAND HILLS,CA,,US,,,,,
,visa,,,WOODLAND HILLS,CA,,US,,,,,
,visa,,,WOODLAND HILLS,CA,,US,,,,,
,visa,,,"WOODLAND HILLS, CA",CA,,US,,,,,
,visa,,,WOODLAND HILLS,CA,,US,,,,,
,visa,,,WOODLAND HILL,CA,,US,,,,,
,visa,,,WOODLAND HILLS,CA,,US,,,,,
,visa,,,WOODLAND HILLS,CA,,US,,,,,
,visa,,,WOODLAND HILLS,CA,,US,,,,,
,visa,,,WOODLAND HILLS,CA,,US,,,,,
,visa,,,WOODLAND HILLS,CA,,US,,,,,
,visa,,,WOODLAND HILLS,CA,,US,,,,,
,visa,,,WOODLAND HILLS,CA,,US,,,,,
,visa,,,WOODLAND HILLS,CA,,US,,,,,
,visa,,,WOODLAND HILLS,CA,,US,,,,,
,visa,,,WOODLAND HILLS,CA,,US,,,,,
,visa,,,WOODLAND HILLS,CA,,US,,,,,
,visa,,,WOODLAND HILLS,CA,,US,,,,,
,visa,,,WOODLAND HILLS,CA,,US,,,,,
,visa,,,WOODLAND HILLS,CA,,US,,,,,
,visa,,,WOODLAND HILL,CA,,US,,,,,
,visa,,,LOS ANGELES,CA,,US,,,,,
,visa,,,WOODLAND HILLS,CA,,US,,,,,
,visa,,,WOODLAND HILLS,CA,,US,,,,,
,visa,,,WOODLAND HILLS,CA,,US,,,,,
,visa,,,WOODLAND HILLS,CA,,US,,,,,
,visa,,,WOODLAND HILLS,CA,,US,,,,,
,visa,,,WOODLAND HILLS,CA,,US,,,,,
,visa,,,WOODLAND HILLS,CA,,US,,,,,
,visa,,,WOODLAND HILLS,CA,,US,,,,,
,visa,,,WOODLAND HILLS,CA,,US,,,,,
,visa,,,WOODLAND HILLS CA,CA,,US,,,,,
,visa,,,WOODLAND HILL,CA,,US,,,,,
,visa,,,WOODLAND HILLS,CA,,US,,,,,
,visa,,,WOODLAND HILLS,CA,,US,,,,,
,visa,,,WOODLAND HILLS,CA,,US,,,,,
,visa,,,WOODLAND HILLS,CA,,US,,,,,
,visa,,,WOODLAND HILLS,CA,,US,,,,,
,visa,,,WOODLAND HILLS,CA,,US,,,,,
,visa,,,WOODLAND HILLS,CA,,US,,,,,
,visa,,,WOODLAND HILLS,CA,,US,,,,,
,visa,,,WOODLAND HILLS,CA,,US,,,,,
,visa,,,WOODLAND HILLS,CA,,US,,,,,
,visa,,,WOODLAND HILLS,CA,,US,,,,,
,visa,,,WOODLAND HILLS,CA,,US,,,,,
,visa,,,WOODLAND HILLS,CA,,US,,,,,
,visa,,,WOODLAND HILLS,CA,,US,,,,,
,visa,,,CALABASAS,CA,,US,,,,,
,visa,,,CALABASAS,CA,,US,,,,,
23325__MULHOLLAND__DR_WOODLAND__HILLS_CA_91364,wellsfargo,Wells Fargo,23325 MULHOLLAND DR,WOODLAND HILLS,CA,,US,+1 818-222-3873,https://www.wellsfargo.com/locator/bank/23325__MULHOLLAND__DR_WOODLAND__HILLS_CA_91364/,Mo-Fr 09:00-17:00,Wells Fargo,Q744149
21108__VENTURA__BLVD_WOODLAND__HILLS_CA_91364,wellsfargo,Wells Fargo,21108 VENTURA BLVD,WOODLAND HILLS,CA,,US,+1 818-593-6500,https://www.wellsfargo.com/locator/bank/21108__VENTURA__BLVD_WOODLAND__HILLS_CA_91364/,Mo-Fr 09:00-17:00,Wells Fargo,Q744149
20800__VENTURA__BLVD_WOODLAND__HILLS_CA_91364,wellsfargo,Wells Fargo,20800 VENTURA BLVD,WOODLAND HILLS,CA,,US,+1 818-888-5980,https://www.wellsfargo.com/locator/bank/20800__VENTURA__BLVD_WOODLAND__HILLS_CA_91364/,Mo-Fr 09:00-17:00,Wells Fargo,Q744149
19900__VENTURA__BLVD_WOODLAND__HILLS_CA_91364,wellsfargo,Wells Fargo,19900 VENTURA BLVD,WOODLAND HILLS,CA,,US,+1 818-251-1160,https://www.wellsfargo.com/locator/bank/19900__VENTURA__BLVD_WOODLAND__HILLS_CA_91364/,Mo-Fr 09:00-17:00,Wells Fargo,Q744149
https://locations.wendys.com/#9256555,wendys,"Wendy's Woodland Hills in Woodland Hills, CA",,Woodland Hills,CA,,US,+1 818-225-1038,https://locations.wendys.com/united-states/ca/woodland-hills/22611-ventura-blvd,"Mo-Fr 06:00-10:30,08:30-22:00; Sa-Su 06:00-11:00,08:30-22:00",Wendy's,Q550258
ea8912714303d6a740bf19a58ee61088,western_union,7-ELEVEN #29415,,Woodland Hills,CA,,US,+1 818-884-4500,https://location.westernunion.com/us/ca/woodland-hills/ea8912714303d6a740bf19a58ee61088,,Western Union,Q861042
woodlandhills,whole_foods,Woodland Hills,21347 Ventura Blvd,Woodland Hills,CA,,US,+1 818-610-0000,https://www.wholefoodsmarket.com/stores/woodlandhills,Mo-Su 07:00-22:00,Whole Foods,Q1809448
