Ref,Spider,Name,Address,City,State,Zipcode,Country,Phone,Website,Hours,Brand,WikiData
107142,bluerhino,Mike's Bilo Supermarket #64086,,Reynoldsville,PA,,US,+1 814-653-8410,,,Blue Rhino,Q65681213
54910,citi,ATM FARMERS NATIONAL BANK,,Reynoldsville,PA,,US,,,,Citibank,Q857063
8310,dollar_general,Dollar General,,Reynoldsville,PA,,US,+1 814-612-4105,https://www.dollargeneral.com/store-directory/pa/reynoldsville/8310,Mo-Su 08:00-22:00,Dollar General,Q145168
2384e06f-458a-e111-8dde-005056934050,goodwill,5980 Route 322,,Reynoldsville,PA,,US,+1 814-653-9622,https://www.goodwill.org/locator/location/?store=MjM4NGUwNmYtNDU4YS1lMTExLThkZGUtMDA1MDU2OTM0MDUw&lat=NDEuMDg2NA==&lng=LTc4Ljg2MjU2,,Goodwill,Q5583655
1379164,usps,REYNOLDSVILLE,,REYNOLDSVILLE,PA,,US,+1 814-653-8352,,Mo-Fr 08:00-16:45; Sa 09:00-12:00,United States Postal Service,Q668687
1585100006,usps_collection_boxes,USPS COLLECTION BOX - PO LOBBY,350 E MAIN ST,REYNOLDSVILLE,PA,,US,,,,United States Postal Service,Q668687
1585100005,usps_collection_boxes,USPS COLLECTION BOX - BLUE BOX,350 E MAIN ST,REYNOLDSVILLE,PA,,US,,,,United States Postal Service,Q668687
1585100008,usps_collection_boxes,USPS COLLECTION BOX - PO LOBBY,350 E MAIN ST,REYNOLDSVILLE,PA,,US,,,,United States Postal Service,Q668687
,visa,,,REYNOLDSVILLE,PA,,US,,,,,
,visa,,,REYNOLDSVILLE,PA,,US,,,,,
,visa,,,REYNOLDSVILLE,PA,,US,,,,,
,visa,,,REYNOLDSVILLE,PA,,US,,,,,
,visa,,,REYNOLDSVILLE,PA,,US,,,,,
,visa,,,REYNOLDSVILLE,PA,,US,,,,,
,visa,,,REYNOLDSVILLE,PA,,US,,,,,
,visa,,,REYNOLDSVILLE,PA,,US,,,,,
,visa,,,REYNOLDSVILLE,PA,,US,,,,,
,visa,,,REYNOLDSVILLE,PA,,US,,,,,
,visa,,,REYNOLDSVILLE,PA,,US,,,,,
,visa,,,REYNOLDSVILLE,PA,,US,,,,,
,visa,,,PUNXSUTAWNEY,PA,,US,,,,,
4b79f494f4af72f6adda8dfa7bb3a13f,western_union,BI-LO FOODS #702,,Reynoldsville,PA,,US,+1 814-653-8410,https://location.westernunion.com/us/pa/reynoldsville/4b79f494f4af72f6adda8dfa7bb3a13f,Mo-Su 08:00-20:00,Western Union,Q861042
