Ref,Spider,Name,Address,City,State,Zipcode,Country,Phone,Website,Hours,Brand,WikiData
https://vertretung.allianz.de/marcus.zell/,allianz_de,Allianz Versicherung Marcus Zell HAUPTVERTRETUNG,,Espelkamp,,,DE,+49 5772 9360833,https://vertretung.allianz.de/marcus.zell/,,Allianz SE,Q487292
https://vertretung.allianz.de/michaela.johannhardt/,allianz_de,Allianz Versicherung Michaela Johannhardt GENERALVERTRETUNG,,Espelkamp,,,DE,+49 5772 9360830,https://vertretung.allianz.de/michaela.johannhardt/,"Mo 09:00-13:00,15:00-18:00; Tu-We 09:00-13:00; Th 09:00-13:00,15:00-18:00; Fr 09:00-13:00",Allianz SE,Q487292
https://vertretung.allianz.de/jan-hendrik.brinkmeyer/,allianz_de,Allianz Versicherung Vieker Inh. Jan-Hendrik Brinkmeyer e.K. HAUPTVERTRETUNG,,Espelkamp,,,DE,+49 5772 8086,https://vertretung.allianz.de/jan-hendrik.brinkmeyer/,"Mo-Th 08:30-13:00,14:00-17:00; Fr 08:30-14:30",Allianz SE,Q487292
https://vertretung.allianz.de/hadi.haschemi/,allianz_de,Allianz Versicherung Hadi Haschemi GENERALVERTRETUNG,,Espelkamp,,,DE,+49 5772 8087,https://vertretung.allianz.de/hadi.haschemi/,"Mo-Th 08:30-13:00,14:00-17:00; Fr 08:30-14:30",Allianz SE,Q487292
13131600,bp,Daniel Goll,,Espelkamp,,,DE,+49 5772 936176,http://tankstelle.aral.de/tankstelle/13131600,24/7,BP,Q152057
52.377188.62376,dpd_de,Stadt Kiosk,,Espelkamp,,,DE,,,,DPD,Q541030
52.3768.63215,dpd_de,NKD Deutschland GmbH,,Espelkamp,,,DE,,,,DPD,Q541030
1291,jysk,Espelkamp,,Espelkamp,,,DE,+49 5772 979810,https://jysk.de/filialen?storeId=1291,Mo-Th 10:00-19:00; Sa 10:00-18:00,JYSK,Q138913
2399,kik,KiK,,Espelkamp,,,DE,+49 5772 916999,,Mo-Sa 09:00-19:00,KiK,Q883965
5093,lidl_de,,,Espelkamp,,,DE,,,Mo-Sa 07:00-21:00,Lidl,Q151954
3012,mueller,Müller,,Espelkamp,,,DE,+49 5772 9773970,https://www.mueller.de/meine-filiale/espelkamp/breslauer-str-54/,,Müller,Q1958759
132736,sparkasse_de,Sparkasse Minden-Lübbecke Geldautomat Espelkamp WKP,,Espelkamp,,,DE,+49 571 8064230,https://www.sparkasse.de/standorte/geldautomaten/sparkasse-minden-luebbecke-geldautomat-espelkamp-wkp-132736,Mo-Su 06:30-23:30,Sparkasse,Q13601825
16717,sparkasse_de,Sparkasse Minden-Lübbecke Filiale Espelkamp WKP,,Espelkamp,,,DE,+49 571 8064230,https://www.sparkasse.de/standorte/filialen/sparkasse-minden-luebbecke-filiale-espelkamp-wkp-16717,"Mo-Tu 09:00-12:00,14:00-17:00; We 09:00-12:00; Th 09:00-12:00,14:00-18:00; Fr 09:00-12:00,14:00-17:00",Sparkasse,Q13601825
132739,sparkasse_de,Sparkasse Minden-Lübbecke Geldautomat Frotheim,,Espelkamp,,,DE,+49 571 8066730,https://www.sparkasse.de/standorte/geldautomaten/sparkasse-minden-luebbecke-geldautomat-frotheim-132739,Mo-Su 06:30-23:30,Sparkasse,Q13601825
16718,sparkasse_de,Sparkasse Minden-Lübbecke Filiale Frotheim,,Espelkamp,,,DE,+49 571 8066730,https://www.sparkasse.de/standorte/filialen/sparkasse-minden-luebbecke-filiale-frotheim-16718,"Tu 09:00-12:00,14:00-17:00; Fr 09:00-12:00",Sparkasse,Q13601825
https://toom.de/m/espelkamp/,toom_baumarkt_de,toom Baumarkt in Espelkamp,,Espelkamp,,,DE,+49 5772 9166810,https://toom.de/m/espelkamp/,Mo-Sa 08:00-20:00,Toom Baumarkt,Q2442970
EX_BP_1594,totalenergies,"ARAL TANKSTELLE ESPELKAMP, ISE",,Espelkamp,,,DE,,https://store.totalenergies.fr/en_EN/EX_BP_1594,,Aral,Q565734
,visa,,,ESPELKAMP,,,DE,,,,,
,visa,,,ESPELKAMP,,,DE,,,,,
,visa,,,ESPELKAMP,,,DE,,,,,
,visa,,,ESPELKAMP,,,DE,,,,,
,visa,,,ESPELKAMP,,,DE,,,,,
https://www.vr.de/standorte/E/volksbank-plus-eg-gestringen-14647.html,vr_bank,Volksbank PLUS eG Gestringen,,Espelkamp-Gestringen,,,DE,+49 5743 919910,https://www.vbplus.de,"Mo 09:00-12:00,14:00-16:30; Tu 09:00-12:00,14:00-18:00; We 09:00-12:00; Th 09:00-12:00,14:00-18:00; Fr 09:00-12:00",,
https://www.vr.de/standorte/E/volksbank-plus-eg-frotheim-14646.html,vr_bank,Volksbank PLUS eG Frotheim,,Espelkamp-Frotheim,,,DE,+49 5743 919930,https://www.vbplus.de,"Mo 09:00-12:00,14:00-16:30; Tu 09:00-12:00,14:00-18:00; We 09:00-12:00; Th 09:00-12:00,14:00-18:00; Fr 09:00-12:00",,
https://www.vr.de/standorte/E/volksbank-plus-eg-fiestel-14645.html,vr_bank,Volksbank PLUS eG Fiestel,,Espelkamp-Fiestel,,,DE,+49 5743 919920,https://www.vbplus.de,"Mo 09:00-12:00,14:00-16:30; Tu 09:00-12:00,14:00-18:00; We 09:00-12:00; Th 09:00-12:00,14:00-18:00; Fr 09:00-12:00",,
https://www.vr.de/standorte/E/volksbank-plus-eg-espelkamp-14644.html,vr_bank,Volksbank PLUS eG Espelkamp,,Espelkamp,,,DE,+49 5772 5680,https://www.vbplus.de,"Mo 09:00-12:00,14:00-16:30; Tu 09:00-12:00,14:00-18:00; We 09:00-12:00; Th 09:00-12:00,14:00-18:00; Fr 09:00-12:00",,
