Ref,Spider,Name,Address,City,State,Zipcode,Country,Phone,Website,Hours,Brand,WikiData
170459,bluerhino,Kum & Go #975,,Idaho Springs,CO,,US,+1 303-567-2385,,,Blue Rhino,Q65681213
79851,bluerhino,Clear Creek Supply Co.,,Idaho Springs,CO,,US,+1 303-567-2693,,,Blue Rhino,Q65681213
205336,bluerhino,Alta Convenience #6120,,Idaho Springs,CO,,US,+1 303-567-2156,,,Blue Rhino,Q65681213
217969,bluerhino,Everest Colorado Inc,,Idaho Springs,CO,,US,+1 720-253-2153,,,Blue Rhino,Q65681213
88432,bluerhino,Twin Star Energy - Jenny's Market #528,,Idaho Springs,CO,,US,+1 303-567-2152,,,Blue Rhino,Q65681213
200324600,exxonmobil,Exxon,,IDAHO SPRINGS,CO,,US,,https://www.exxon.com/en/find-station/exxon-idahosprings-co-exxon-200324600,Mo-Su 06:00-22:00,Exxon,Q109675651
7523,h_r_block,H&R Block,,Idaho Springs,CO,,US,+1 303-567-1040,https://www.hrblock.com/local-tax-offices/colorado/idaho-springs/1800-colorado-blvd/7523/,,H&R Block,Q5627799
0975,kum_and_go,Kum & Go #0975,,Idaho Springs,CO,,US,+1 303-567-2385,https://www.kumandgo.com/store-locator?details=0975,24/7,Kum & Go,Q6443340
83924,little_free_library,Historic Alice School House #83924 Idaho Springs CO,,Idaho Springs,CO,,US,,,,Little Free Library,Q6650101
83919,little_free_library,CCMRD Little Free Library #83919 Idaho Springs CO,,Idaho Springs,CO,,US,,,,Little Free Library,Q6650101
10509,little_free_library,Wall Street Library #10509 Idaho Springs CO,,Idaho Springs,CO,,US,,,,Little Free Library,Q6650101
83925,little_free_library,Edelweiss Pastry Shop FreeLittle Library #83925 Idaho Springs CO,,Idaho Springs,CO,,US,,,,Little Free Library,Q6650101
https://local.pharmacy.safeway.com/#5673673,safeway,Safeway Pharmacy,,Idaho Springs,CO,,US,+1 303-567-2496,https://local.pharmacy.safeway.com/safeway/co/idaho-springs/2425-miner-st.html,,Safeway,Q1508234
https://local.safeway.com/#5604611,safeway,Safeway,,Idaho Springs,CO,,US,+1 303-567-4471,https://local.safeway.com/safeway/co/idaho-springs/2425-miner-st.html,,Safeway,Q1508234
https://stations.sinclairoil.com/co/idaho-springs/2195-e-idaho-springs-road,sinclair_us,Sinclair Gas Station,,Idaho Springs,CO,,US,+1 720-504-3412,https://stations.sinclairoil.com/co/idaho-springs/2195-e-idaho-springs-road,24/7,Sinclair,Q1290900
https://stations.sinclairoil.com/co/idaho-springs/1246-miner-st,sinclair_us,Sinclair Gas Station,,Idaho Springs,CO,,US,+1 303-567-2073,https://stations.sinclairoil.com/co/idaho-springs/1246-miner-st,24/7,Sinclair,Q1290900
https://restaurants.subway.com/#14909257,subway,Subway,,Idaho Springs Clear Creek,CO,,US,+1 303-567-2670,https://restaurants.subway.com/united-states/co/idaho-springs/2900-colorado-blvd,Mo-Su 08:00-21:00,Subway,Q244457
031433,uhaul,Exxon Idahos Springs,2808 Colorado Blvd,Idaho Springs,CO,,US,+1 303-567-4132,,Mo-Sa 00:00-21:00,U-Haul,Q7862902
1367819,usps,IDAHO SPRINGS,,IDAHO SPRINGS,CO,,US,+1 303-567-2903,,Mo-Fr 08:30-17:00; Sa 09:00-12:00,United States Postal Service,Q668687
8045200002,usps_collection_boxes,USPS COLLECTION BOX - BLUE BOX,2420 COLORADO BLVD,IDAHO SPRINGS,CO,,US,,,,United States Postal Service,Q668687
8045200003,usps_collection_boxes,USPS COLLECTION BOX - PO LOBBY,2420 COLORADO BLVD,IDAHO SPRINGS,CO,,US,,,,United States Postal Service,Q668687
8045200004,usps_collection_boxes,USPS COLLECTION BOX - PO LOBBY,2420 COLORADO BLVD,IDAHO SPRINGS,CO,,US,,,,United States Postal Service,Q668687
,visa,,,IDAHO SPRINGS,CO,,US,,,,,
,visa,,,IDAHO SPRINGS,CO,,US,,,,,
,visa,,,IDAHO SPRINGS,CO,,US,,,,,
,visa,,,IDAHO SPRINGS,CO,,US,,,,,
,visa,,,IDAHO SPRINGS,CO,,US,,,,,
,visa,,,IDAHO SPRINGS,CO,,US,,,,,
,visa,,,IDAHO SPRINGS,CO,,US,,,,,
,visa,,,IDAHO SPRINGS,CO,,US,,,,,
,visa,,,IDAHO SPRINGS,CO,,US,,,,,
,visa,,,IDAHO SPRINGS,CO,,US,,,,,
,visa,,,IDAHO SPRINGS,CO,,US,,,,,
,visa,,,IDAHO SPRINGS,CO,,US,,,,,
,visa,,,IDAHO SPRINGS,CO,,US,,,,,
,visa,,,IDAHO SORINGS,CO,,US,,,,,
,visa,,,IDAHO SPRINGS,CO,,US,,,,,
,visa,,,IDAHO SPRINGS,CO,,US,,,,,
