Ref,Spider,Name,Address,City,State,Zipcode,Country,Phone,Website,Hours,Brand,WikiData
55187287,deichmann,DEICHMANN Filiale Erkelenz Adam-Opel-Straße 1-3,,Erkelenz,Nordrhein-Westfalen,,DE,+49 2431 81680,https://stores.deichmann.com/de-de/de/nordrhein-westfalen/erkelenz/adam-opel-strasse-1-3,Mo-Fr 09:00-19:00; Sa 09:00-18:00,Deichmann,Q664543
8002938,edeka_de,EDEKA Nikolaou,,Erkelenz-Lövenich,Nordrhein-Westfalen,,DE,+49 2435 1090,https://www.edeka.de/eh/rhein-ruhr/edeka-nikolaou-bruchstraße-39/index.jsp,Mo-Fr 07:00-20:00; Sa 07:00-18:00,EDEKA,Q701755
8000220,edeka_de,EDEKA Esser,,Erkelenz,Nordrhein-Westfalen,,DE,+49 2431 8060661,https://www.edeka.de/eh/rhein-ruhr/edeka-esser-karolingerring-24/index.jsp,Mo-Sa 07:00-21:00,EDEKA,Q701755
D181,jacques_wein_depot_de,Erkelenz,,Erkelenz,Nordrhein-Westfalen,,DE,+49 2431 945337,https://www.jacques.de/weindepot/D181/Erkelenz,Mo-We 15:00-19:00; Th-Fr 11:00-19:00; Sa 10:00-16:00,Jacques’ Wein-Depot,Q1678150
GS0000034,mercedes_benz,Autohaus Dreßen GmbH,,Erkelenz,Nordrhein-Westfalen,,DE,+49 2431 96150,https://www.dressen.mercedes-benz.de,,Mercedes-Benz,Q36008
GS0013187,mercedes_benz,Theo Bähr GmbH,,Erkelenz,Nordrhein-Westfalen,,DE,+49 2451 9845993,https://www.mercedes-benz-baehr.de,Mo-Fr 08:30-18:00; Sa 10:00-14:00,Mercedes-Benz,Q36008
5171,netto_de,Netto Marken-Discount,,Erkelenz,Nordrhein-Westfalen,,DE,,https://www.netto-online.de/filialen/erkelenz/atelierstr-7/5171,Mo-Sa 07:00-21:00,Netto Marken-Discount,Q879858
6706,netto_de,Netto Marken-Discount,,Erkelenz,Nordrhein-Westfalen,,DE,,https://www.netto-online.de/filialen/erkelenz/karolingerring-2/6706,Mo-Sa 07:00-21:00,Netto Marken-Discount,Q879858
https://www.obi.de/markt/erkelenz,obi_eu,Obi Markt Erkelenz,,Erkelenz,Nordrhein-Westfalen,,DE,+49 2431 945060,https://www.obi.de/markt/erkelenz,Mo-Sa 08:00-20:00,OBI,Q300518
42dd2b7f-d7a9-301a-a08b-cbd67c9e9d1c,penny_de,Penny Erkelenz,,Erkelenz,Nordrhein-Westfalen,,DE,,https://www.penny.de/markt/erkelenz/1930807/penny-erkelenz-paul-ruettchen-str-15,Mo-Sa 07:00-21:30,Penny,Q284688
12142451,shell,"ERKELENZ, PAUL-RUETTCHEN-STR. 54",,ERKELENZ,Nordrhein-Westfalen,,DE,+49 2431 9439430,https://find.shell.com/de/fuel/12142451-erkelenz-paul-ruettchen-str-54,24/7,Shell,Q110716465
10026792,shell,"ERKELENZ, KREFELDER STR.14.",,ERKELENZ,Nordrhein-Westfalen,,DE,+49 2431 81199,https://find.shell.com/de/fuel/10026792-erkelenz-krefelder-str-14,24/7,Shell,Q110716465
6326,tedi,TEDi GmbH & Co. KG,,Erkelenz,NORDRHEIN-WESTFALEN,,DE,+49 231 555770,https://www.tedi.com/stores/6326/de/NORDRHEIN-WESTFALEN/Erkelenz/August-Horch-Str-11-15,Mo-Sa 00:00-24:00,TEDi,Q1364603
6852,tedi,TEDi GmbH & Co. KG,,Erkelenz,NORDRHEIN-WESTFALEN,,DE,+49 231 555770,https://www.tedi.com/stores/6852/de/NORDRHEIN-WESTFALEN/Erkelenz/Koelner-Str-36,Mo-Sa 00:00-24:00,TEDi,Q1364603
,visa,,,ERKELENZ,NORDRHEIN-WESTFALEN,,DE,,,,,
,visa,,,ERKELENZ,NORDRHEIN-WESTFALEN,,DE,,,,,
,visa,,,ERKELENZ,NORDRHEIN-WESTFALEN,,DE,,,,,
,visa,,,ERKELENZ,NORDRHEIN-WESTFALEN,,DE,,,,,
,visa,,,ERKELENZ,NORDRHEIN-WESTFALEN,,DE,,,,,
,visa,,,ERKELENZ,NORDRHEIN-WESTFALEN,,DE,,,,,
