Ref,Spider,Name,Address,City,State,Zipcode,Country,Phone,Website,Hours,Brand,WikiData
,visa,,,ISLA MUJERES,QUINTANA ROO,,MX,,,,,
,visa,,,ISLA MUJERES,QUINTANA ROO,,MX,,,,,
,visa,,,ISLA MUJERES,QUINTANA ROO,,MX,,,,,
,visa,,,QUINTANA ROO,QUINTANA ROO,,MX,,,,,
,visa,,,ISLA MUJERES,QUINTANA ROO,,MX,,,,,
,visa,,,ISLA MUJERES,QUINTANA ROO,,MX,,,,,
,visa,,,ISLA MUJERES,QUINTANA ROO,,MX,,,,,
,visa,,,ISLA MUJERES,QUINTANA ROO,,MX,,,,,
,visa,,,ISLA MUJERES,QUINTANA ROO,,MX,,,,,
,visa,,,ISLA MUJERES,QUINTANA ROO,,MX,,,,,
,visa,,,ISLA MUJERES,QUINTANA ROO,,MX,,,,,
,visa,,,ISLA MUJERES,QUINTANA ROO,,MX,,,,,
,visa,,,ISLA MUJERES,QUINTANA ROO,,MX,,,,,
,visa,,,ISLA MUJERES,QUINTANA ROO,,MX,,,,,
,visa,,,ISLA MUJERES,QUINTANA ROO,,MX,,,,,
,visa,,,ISLA MUJERES,QUINTANA ROO,,MX,,,,,
,visa,,,ISLA MUJERES,QUINTANA ROO,,MX,,,,,
,visa,,,ISLA MUJERES,QUINTANA ROO,,MX,,,,,
,visa,,,ISLA MUJERES,QUINTANA ROO,,MX,,,,,
,visa,,,ISLA MUJERES,QUINTANA ROO,,MX,,,,,
,visa,,,BENITO JUAREZ,QUINTANA ROO,,MX,,,,,
,visa,,,BENITO JUAREZ,QUINTANA ROO,,MX,,,,,
f53815ab68cc82978e449746e207aef1,western_union,SUPER WILLYS CANCUN 26 AP CASH,,Isla Mujeres,QUINTANA ROO,,MX,(+52) 999-91181000,https://location.westernunion.com/mx/quintana-roo/isla-mujeres/f53815ab68cc82978e449746e207aef1,Mo-Su 08:00-21:00,Western Union,Q861042
b4ccf055db0b852c2795819f4b1f2710,western_union,SUPER WILLYS CANCUN 26 AP CASH,,Isla Mujeres,QUINTANA ROO,,MX,(+52) 999-91181000,https://location.westernunion.com/mx/quintana-roo/isla-mujeres/b4ccf055db0b852c2795819f4b1f2710,Mo-Su 08:00-21:00,Western Union,Q861042
8f28512cd72f82e3bc6fbec2848f32ff,western_union,SUPER WILLYS CANCUN 26 AP CASH,,Isla Mujeres,QUINTANA ROO,,MX,(+52) 999-91181000,https://location.westernunion.com/mx/quintana-roo/isla-mujeres/8f28512cd72f82e3bc6fbec2848f32ff,Mo-Su 08:00-21:00,Western Union,Q861042
07546485442d8eb7261b4ab5aed66af4,western_union,TELECOMM 23008,,Isla Mujeres,QUINTANA ROO,,MX,+52 800 800 8930,https://location.westernunion.com/mx/quintana-roo/isla-mujeres/07546485442d8eb7261b4ab5aed66af4,Mo-Su 09:00-20:00,Western Union,Q861042
c647444201f60d99b124bd59db96e77a,western_union,TELECOMM 23008,,Isla Mujeres,QUINTANA ROO,,MX,+52 800 800 8930,https://location.westernunion.com/mx/quintana-roo/isla-mujeres/c647444201f60d99b124bd59db96e77a,Mo-Fr 09:00-15:00,Western Union,Q861042
3246f429d0c93d941f4c31aa8f759d44,western_union,TELECOMM 23008,,Isla Mujeres,QUINTANA ROO,,MX,+52 800 800 9889,https://location.westernunion.com/mx/quintana-roo/isla-mujeres/3246f429d0c93d941f4c31aa8f759d44,Mo-Fr 08:00-14:00; Sa 08:00-12:00,Western Union,Q861042
10347b2e1b73b7f1ae7dcdabfe4d2ff7,western_union,ELEKTRA 4217,,Isla Mujeres,QUINTANA ROO,,MX,+52 55 1720 8177,https://location.westernunion.com/mx/quintana-roo/isla-mujeres/10347b2e1b73b7f1ae7dcdabfe4d2ff7,Mo-Su 09:00-21:00,Western Union,Q861042
799dfff29fc9245c22ff47c1d55450ce,western_union,ELEKTRA 4217,,Isla Mujeres,QUINTANA ROO,,MX,+52 55 1720 8177,https://location.westernunion.com/mx/quintana-roo/isla-mujeres/799dfff29fc9245c22ff47c1d55450ce,Mo-Su 09:00-21:00,Western Union,Q861042
a18dae37e27bd03d0160a9787df41f77,western_union,ELEKTRA 4217,,Isla Mujeres,QUINTANA ROO,,MX,+52 55 1720 8177,https://location.westernunion.com/mx/quintana-roo/isla-mujeres/a18dae37e27bd03d0160a9787df41f77,Mo-Su 09:00-20:00,Western Union,Q861042
9cd67f84eba793cbbc5746bc788b77c2,western_union,SUPER AKI 66 ISLA MUJE AP CASH,,Isla Mujeres,QUINTANA ROO,,MX,+52 998 877 1092,https://location.westernunion.com/mx/quintana-roo/isla-mujeres/9cd67f84eba793cbbc5746bc788b77c2,Mo-Su 07:00-22:00,Western Union,Q861042
5dba64ba1e54a2bdce5c399a2e674a83,western_union,SUPER AKI 66 ISLA MUJE AP CASH,,Isla Mujeres,QUINTANA ROO,,MX,+52 998 877 1092,https://location.westernunion.com/mx/quintana-roo/isla-mujeres/5dba64ba1e54a2bdce5c399a2e674a83,Mo-Su 07:00-22:00,Western Union,Q861042
3cb8977a962bb7bc6807c4a241001bdf,western_union,OXXO ISLA CENTRO CUN,,Isla Mujeres,QUINTANA ROO,,MX,+52 81 8389 2121,https://location.westernunion.com/mx/quintana-roo/isla-mujeres/3cb8977a962bb7bc6807c4a241001bdf,Mo-Su 08:00-22:00,Western Union,Q861042
1ce19e3db22663d816d746f6576b8da0,western_union,OXXO ISLA CENTRO CUN,,Isla Mujeres,QUINTANA ROO,,MX,+52 81 8389 2121,https://location.westernunion.com/mx/quintana-roo/isla-mujeres/1ce19e3db22663d816d746f6576b8da0,Mo-Su 08:00-22:00,Western Union,Q861042
831af6738a248d2ff6a104e0e963f3f5,western_union,OXXO ISLA CENTRO CUN,,Isla Mujeres,QUINTANA ROO,,MX,+52 81 8389 2121,https://location.westernunion.com/mx/quintana-roo/isla-mujeres/831af6738a248d2ff6a104e0e963f3f5,Mo-Su 08:00-22:00,Western Union,Q861042
db61d013a35aaa5c02a9816be7a7b398,western_union,SUPER WILLYS 156 AP CASH,,Isla Mujeres,QUINTANA ROO,,MX,+52 998 274 0113,https://location.westernunion.com/mx/quintana-roo/isla-mujeres/db61d013a35aaa5c02a9816be7a7b398,Mo-Su 08:00-21:00,Western Union,Q861042
9e2587b725dd0f52a3682156bce7544a,western_union,SUPER WILLYS 156 AP CASH,,Isla Mujeres,QUINTANA ROO,,MX,+52 998 274 0113,https://location.westernunion.com/mx/quintana-roo/isla-mujeres/9e2587b725dd0f52a3682156bce7544a,Mo-Su 08:00-21:00,Western Union,Q861042
