Ref,Spider,Name,Address,City,State,Zipcode,Country,Phone,Website,Hours,Brand,WikiData
1436,autozone_us,AutoZone Auto Parts Battle Creek,,Battle Creek,MI,,US,+1 269-282-7674,https://www.autozone.com/locations/mi/battle-creek/1414-w-michigan-ave.html,Mo-Sa 07:30-21:00; Su 08:30-20:00,AutoZone,Q4826087
800,biggby_coffee_us,Biggby Coffee,30 Hill Brady Rd Battle Creek MI 49037,Battle Creek,MI,,US,+1 269-282-0451,,Mo-Sa 06:00-21:00; Su 07:00-21:00,Biggby Coffee,Q4906876
633,biggby_coffee_us,Biggby Coffee,1525 W Michigan Ave Battle Creek MI 49037,Battle Creek,MI,,US,+1 269-218-6728,,Mo-Sa 06:00-21:00; Su 07:00-21:00,Biggby Coffee,Q4906876
197467,bluerhino,Dollar General #7208,,Battle Creek,MI,,US,+1 269-234-7581,,,Blue Rhino,Q65681213
206962,bluerhino,Rite Aid #01474,,Battle Creek,MI,,US,+1 269-965-5178,,,Blue Rhino,Q65681213
165317,bluerhino,Springfield Do It Center #3295,,Springfield,MI,,US,+1 269-965-6600,,,Blue Rhino,Q65681213
16786117261704903700100000000000,bp,BP,,Battle Creek,MI,,US,+1 269-962-2226,,24/7,BP,Q152057
41685914674104903700100000000000,bp,BP,,Battle Creek,MI,,US,+1 269-962-9533,,24/7,BP,Q152057
52149086157184903700100000000000,bp,BP,,Battle Creek,MI,,US,+1 269-962-9548,,24/7,BP,Q152057
95442840222004903700100000000000,bp,BP,,Battle Creek,MI,,US,+1 269-962-9528,,,BP,Q152057
10528,burgerking,Burger King,,Battle Creek,MI,,US,+1 269-969-0908,https://www.bk.com/store-locator/store/restaurant_5959,Mo-Sa 06:00-22:00; Su 07:00-22:00,Burger King,Q177054
44215,chevrolet,"HERITAGE CHEVROLET, INC.",,Battle Creek,MI,,US,+1 269-964-9431,https://www.heritagechevy.com,Mo 09:00-19:00; Tu 09:00-18:00; We 09:00-19:00; Th-Fr 09:00-18:00; Sa 09:00-15:00,Chevrolet,Q29570
72815,citi,ATM Rite Aid,,Battle Creek,MI,,US,,,,Citibank,Q857063
59835,citi,ATM HS Oil And Gas Inc,,Battle Creek,MI,,US,,,,Citibank,Q857063
vba_329g,department_veterans_affairs,Veteran Readiness and Employment Office at Battle Creek VA Medical Center,,Battle Creek,MI,,US,+1 313-471-3800,,,Department Veterans Affairs,Q592576
18374,dollar_general,Dollar General,,Springfield,MI,,US,+1 269-358-8686,https://www.dollargeneral.com/store-directory/mi/springfield/18374,Mo-Su 08:00-22:00,Dollar General,Q145168
https://www.edwardjones.com/us-en/financial-advisor/keith-corts,edwardjones,Keith Corts,,Springfield,MI,,US,+1 269-660-1067,https://www.edwardjones.com/us-en/financial-advisor/keith-corts,Mo-Th 08:30-16:30; Fr 08:30-16:00,Edward Jones,Q5343830
E120N6,enterprise,Battle Creek,,Battle Creek,MI,,US,+1 269-962-1555,,,Enterprise Rent-A-Car,Q17085454
1972,family_fare_us,Family Fare - Urbandale,,Battle Creek,MI,,US,+1 269-962-3302,https://www.shopfamilyfare.com/stores/family-fare-urbandale,"Mo-Fr 06:00-24:00,09:00-19:00; Sa 06:00-24:00,09:00-17:00; Su 06:00-24:00",Family Fare,Q19868045
Motorcraft4045USAEnglish,ford,Lakeview Ford-Lincoln Inc.,,Michigan,MI,,US,+1 269-965-7771,,,Ford,Q44294
Motorcraft4046USAEnglish,ford,Les Stanford Ford Lincoln Mercury,,Michigan,MI,,US,+1 269-965-7771,,,Ford,Q44294
https://www.ford.com/dealerships/dealer-details/mi/battle-creek/lakeview-ford/,ford_dealers_us,Lakeview Ford,,Battle Creek,MI,,US,+1 269-263-3047,https://www.ford.com/dealerships/dealer-details/mi/battle-creek/lakeview-ford/,Mo 09:00-19:00; Tu 09:00-18:00; We 09:00-19:00; Th-Fr 09:00-18:00; Sa 09:00-15:00,Ford Motor Company,Q44294
4916,fresenius_kidney_care_us,Fresenius Kidney Care Battle Creek North,,Battle Creek,MI,,US,+1 800-881-5101,https://www.freseniuskidneycare.com/dialysis-centers/michigan/4916,Mo 05:00-21:00; Tu 05:30-17:00; We 05:00-21:00; Th 05:30-17:00; Fr 05:00-21:00; Sa 05:30-17:00,,
0d39fc4b-458a-e111-8dde-005056934050,goodwill,Goodwill Industries of Central Michigan's Heartland,,Battle Creek,MI,,US,+1 269-788-6500,https://www.goodwill.org/locator/location/?store=MGQzOWZjNGItNDU4YS1lMTExLThkZGUtMDA1MDU2OTM0MDUw&lat=NDIuMzM2&lng=LTg1LjI3NjEz,,Goodwill,Q5583655
21788,h_r_block,H&R Block,,Battle Creek,MI,,US,+1 269-964-9011,https://www.hrblock.com/local-tax-offices/michigan/battle-creek/1525-w-michigan-ave/21788/,,H&R Block,Q5627799
https://locations.ironmountain.com/mi/battle-creek/346/,iron_mountain,"Iron Mountain in 1961 Base Avenue, Battle Creek, Michigan | Secure Shredding, Scanning, IT Asset Disposition, & Records Management",,Battle Creek,MI,,US,+1 800-899-4766,https://locations.ironmountain.com/mi/battle-creek/346/,,Iron Mountain Incorporated,Q1673079
160335,marathon_petroleum_us,#3 Dickman #692,,Springfield,MI,,US,+1 304-280-6059,,,Marathon,Q458363
160102,marathon_petroleum_us,CUSTER PARTY STORE 2,,Springfield,MI,,US,+1 269-753-1745,,,Marathon,Q458363
159479,marathon_petroleum_us,#9 West Michigan #698,,BATTLE CREEK,MI,,US,+1 304-280-6059,,,Marathon,Q458363
NNA28037,nissan_europe,DEMAAGD GMC-NISSAN,,BATTLE CREEK,MI,,US,+1 269-963-5538,https://www.demaagdnissan.com,Mo 08:30-19:30; Tu 08:30-17:30; We 08:30-18:30; Th-Fr 08:30-17:30; Sa 09:00-14:30,Nissan,Q20165
mi_battle-creek_1449-michigan-ave-w,pizza_hut_us,1449 Michigan Ave W,,Battle Creek,MI,,US,+1 269-965-3700,https://locations.pizzahut.com/mi/battle-creek/1449-michigan-ave-w,,Pizza Hut,Q191615
pro-hardware-39949,ppgpaints,PRO HARDWARE,,"Battle Creek, ",MI,,US,+1 269-969-7971,https://www.ppgpaints.com/store-locator/us/michigan/battle-creek-paint-stores/pro-hardware-39949,,PPG Paints,Q83891559
01474,rite_aid_us,Rite Aid #01474 Battle Creek,,Battle Creek,MI,,US,+1 269-965-5178,https://locations2.riteaid.com.yext-cdn.com/mi/battle-creek/1434-west-michigan-avenue.html,Mo-Su 08:00-22:00,Rite Aid,Q3433273
https://restaurants.subway.com/#14893682,subway,Subway Senior Oil,,Battle Creek Calhoun,MI,,US,+1 269-966-6884,https://restaurants.subway.com/united-states/mi/battle-creek/4200-w-dickman-rd,Mo-Su 07:00-21:00,Subway,Q244457
https://restaurants.subway.com/#14915008,subway,Subway Citgo Gas/C-Store,,Battle Creek Calhoun,MI,,US,+1 269-963-4126,https://restaurants.subway.com/united-states/mi/battle-creek/2718-w-michigan,Mo-Su 08:00-21:00,Subway,Q244457
8002146501,sunoco_us,Sunoco,,SPRINGFIELD,MI,,US,+1 269-234-5380,,Mo-Su 06:00-00:00,Sunoco,Q1423218
0412208100,sunoco_us,Sunoco,,SPRINGFIELD,MI,,US,+1 269-753-0911,,Mo-Su 06:00-00:00,Sunoco,Q1423218
https://locations.tacobell.com/#72863695,taco_bell,Taco Bell,,Battle Creek,MI,,US,+1 269-234-7542,https://locations.tacobell.com/mi/battle-creek/1501-michigan-ave-w.html,Mo-Su 07:00-02:00,Taco Bell,Q752941
,visa,,,BATTLE CREEK,MI,,US,,,,,
,visa,,,BATTLE CREEK,MI,,US,,,,,
,visa,,,BATTLE CREEK,MI,,US,,,,,
,visa,,,BATTLE CREEK,MI,,US,,,,,
,visa,,,BATTLE CREEK,MI,,US,,,,,
,visa,,,BATTLE CREEK,MI,,US,,,,,
,visa,,,BATTLE CREEK,MI,,US,,,,,
,visa,,,BATTLE CREEK,MI,,US,,,,,
,visa,,,SPRINGFIELD,MI,,US,,,,,
,visa,,,BATTLE CREEK,MI,,US,,,,,
,visa,,,BATTLE CREEK,MI,,US,,,,,
,visa,,,SPRINGFIELD,MI,,US,,,,,
,visa,,,BATTLE CREEK,MI,,US,,,,,
,visa,,,BATTLE CREEK,MI,,US,,,,,
,visa,,,BATTLE CREEK,MI,,US,,,,,
,visa,,,BATTLE CREEK,MI,,US,,,,,
,visa,,,BATTLE CREEK,MI,,US,,,,,
,visa,,,BATTLE CREEK,MI,,US,,,,,
,visa,,,SPRINGFIELD,MI,,US,,,,,
,visa,,,BATTLE CREEK,MI,,US,,,,,
,visa,,,BATTLE CREEK,MI,,US,,,,,
,visa,,,SPRINGFIELD,MI,,US,,,,,
,visa,,,SPRINGFIELD,MI,,US,,,,,
,visa,,,BATTLE CREEK,MI,,US,,,,,
,visa,,,SPRINGFIELD,MI,,US,,,,,
e711aef50dd6684f8e527f356da576d0,western_union,EXPRESS STOP #4685,,Battle Creek,MI,,US,+1 269-962-2226,https://location.westernunion.com/us/mi/battle-creek/e711aef50dd6684f8e527f356da576d0,Mo-Su 06:00-22:00,Western Union,Q861042
37572afdf244f7c36e93561ac6ebdf9e,western_union,EXPRESS STOP #4682,,Springfield,MI,,US,+1 269-962-9528,https://location.westernunion.com/us/mi/springfield/37572afdf244f7c36e93561ac6ebdf9e,Mo-Su 06:00-22:00,Western Union,Q861042
7a0762b272a341722a4b54031f7c19bf,western_union,EXPRESS STOP #4678,,Battle Creek,MI,,US,+1 269-962-9533,https://location.westernunion.com/us/mi/battle-creek/7a0762b272a341722a4b54031f7c19bf,Mo-Su 06:00-22:00,Western Union,Q861042
a97de2582e3460bcdd543669e36faed1,western_union,EXPRESS STOP #4679,,Battle Creek,MI,,US,+1 269-962-9548,https://location.westernunion.com/us/mi/battle-creek/a97de2582e3460bcdd543669e36faed1,Mo-Su 06:00-22:00,Western Union,Q861042
