Ref,Spider,Name,Address,City,State,Zipcode,Country,Phone,Website,Hours,Brand,WikiData
72643385,moneygram,BANPAIS - #340 - CHOLUTECA - AGENCIA CHO,,CHOLUTECA,,,HN,+504 2566-2020,,Mo-Su 08:00-20:00,MoneyGram,Q1944412
72643398,moneygram,BANPAIS - #342 - CHOLUTECA - AGENCIA BOU,,CHOLUTECA,,,HN,+504 2566-2020,,Mo-Fr 08:30-18:00; Sa 08:30-01:00; Su 00:00-24:00,MoneyGram,Q1944412
72643453,moneygram,BANPAIS - #353 - CHOLUTECA - AGENCIA UNI,,CHOLUTECA,,,HN,+504 2566-2020,,Mo-Su 08:00-20:00,MoneyGram,Q1944412
73617899,moneygram,PULPERIA L Y R,,CHOLUTECA,,,HN,+504 3245-5809,,Mo-Su 08:00-20:00,MoneyGram,Q1944412
73655893,moneygram,LA FIESTA DE LOS NINOS,,CHOLUTECA,,,HN,+504 3201-7929,,Mo-Su 08:00-17:00,MoneyGram,Q1944412
73673846,moneygram,INVERSIONES MADISON - #23,,CHOLUTECA,,,HN,+504 2280-1049,,Mo-Su 07:00-20:00,MoneyGram,Q1944412
73673859,moneygram,INVERSIONES MADISON - #24,,CHOLUTECA,,,HN,+504 2280-1049,,Mo-Su 07:00-20:00,MoneyGram,Q1944412
73673862,moneygram,INVERSIONES MADISON - #25,,CHOLUTECA,,,HN,+504 2280-1049,,Mo-Su 07:00-20:00,MoneyGram,Q1944412
73673875,moneygram,INVERSIONES MADISON - #26,,CHOLUTECA,,,HN,+504 2280-1049,,Mo-Su 07:00-20:00,MoneyGram,Q1944412
73673888,moneygram,INVERSIONES MADISON - #27,,CHOLUTECA,,,HN,+504 2280-1049,,Mo-Su 07:00-20:00,MoneyGram,Q1944412
73673891,moneygram,INVERSIONES MADISON - #28,,CHOLUTECA,,,HN,+504 2280-1049,,Mo-Su 07:00-20:00,MoneyGram,Q1944412
73673901,moneygram,INVERSIONES MADISON - #29,,CHOLUTECA,,,HN,+504 2280-1049,,Mo-Su 07:00-20:00,MoneyGram,Q1944412
73694168,moneygram,AGROPECUARIA CORRALES,,CHOLUTECA,,,HN,+504 9660-0158,,Mo-Su 07:00-20:00,MoneyGram,Q1944412
73959272,moneygram,EL MERCADITO DE LA ESQUINA - CHOLUTECA -,,CHOLUTECA,,,HN,+504 2706-9709,,Mo-Su 07:00-21:00,MoneyGram,Q1944412
74175835,moneygram,MERCADITO POPULAR - CHOLUTECA - MERCADIT,,CHOLUTECA,,,HN,+504 2780-8010,,Mo-Su 08:00-21:00,MoneyGram,Q1944412
70736595,moneygram,BANCO PROMERICA - #20 - CHOLUTECA - AGEN,,CHOLUTECA,,,HN,+504 2280-8080,,Mo-Fr 10:00-18:00; Sa 10:00-17:00; Su 00:00-24:00,MoneyGram,Q1944412
71039741,moneygram,BANCO LAFISE HONDURAS - AGENCIA CHOLUTEC,,CHOLUTECA,,,HN,+504 2780-3420,,Mo-Fr 09:00-16:00; Sa 09:00-12:00; Su 00:00-24:00,MoneyGram,Q1944412
71098915,moneygram,BANRURAL HONDURAS - #12 - CHOLUTECA - DI,,CHOLUTECA,,,HN,+504 2290-1010,,Mo-Su 07:00-20:00,MoneyGram,Q1944412
71098928,moneygram,BANRURAL HONDURAS - #12 - CHOLUTECA - VE,,CHOLUTECA,,,HN,+504 2290-1010,,Mo-Fr 08:30-18:00; Sa 08:30-13:00; Su 00:00-24:00,MoneyGram,Q1944412
71455781,moneygram,TENGO - #13 - CHOLUTECA - KIOSKO TENGO U,,CHOLUTECA,,,HN,+504 2280-1049,,Mo-Fr 10:00-19:00; Sa 10:00-18:00; Su 13:00-17:00,MoneyGram,Q1944412
71455969,moneygram,TENGO - #29 - CHOLUTECA - KIOSKO TENGO L,,CHOLUTECA,,,HN,+504 2280-1049,,Mo-Su 08:00-21:00,MoneyGram,Q1944412
71455891,moneygram,TENGO - #22 - CHOLUTECA - KIOSKO TENGO C,,CHOLUTECA,,,HN,+504 2280-1049,,Mo-Fr 09:00-16:00; Sa 09:00-12:00; Su 00:00-24:00,MoneyGram,Q1944412
71517001,moneygram,TENGO - CHOLUTECA - KIOSKO TENGO AGN LC,,CHOLUTECA,,,HN,+504 2280-1049,,Mo-Sa 10:00-18:00; Su 00:00-24:00,MoneyGram,Q1944412
71556279,moneygram,BANRURAL HONDURAS - #94 - CHOLUTECA - UN,,CHOLUTECA,,,HN,+504 2290-1010,,Mo-Su 07:00-20:00,MoneyGram,Q1944412
