Ref,Spider,Name,Address,City,State,Zipcode,Country,Phone,Website,Hours,Brand,WikiData
72153024,moneygram,COPPEL TRANSMISORES - TOLUCA - TOTOLTEPE,,TOLUCA,MX,,MX,+52 722 199 4663,,Mo-Sa 10:00-20:00; Su 10:30-19:30,MoneyGram,Q1944412
72370124,moneygram,BANCO AZTECA MEXICO - TOLUCA - ITALIKA T,,TOLUCA,MX,,MX,+52 55 1720 8177,,Mo-Su 09:00-21:00,MoneyGram,Q1944412
72394980,moneygram,BANCO AZTECA MEXICO - TOLUCA DE LERDO -,,TOLUCA DE LERDO,MX,,MX,+52 55 1720 8177,,Mo-Su 09:00-21:00,MoneyGram,Q1944412
72241334,moneygram,FARMACIAS DEL AHORRO - #1823 - TOLUCA -,,TOLUCA,MX,,MX,5253224320,,Mo-Su 07:00-23:00,MoneyGram,Q1944412
72233740,moneygram,FARMACIAS DEL AHORRO - #525 - TOLUCA - F,,TOLUCA,MX,,MX,5253224320,,Mo-Su 07:00-23:00,MoneyGram,Q1944412
69511491,moneygram,MODATELAS - #1118 - 26 MODATELAS TOLUCA,,TOLUCA,MX,,MX,+52 722 214 8310,,Mo-Su 08:00-20:00,MoneyGram,Q1944412
68821441,moneygram,DINERO EXPRESS - #363 - TOLUCA - BANCO A,,TOLUCA,MX,,MX,+52 55 1720 8141,,Mo-Su 09:00-21:00,MoneyGram,Q1944412
68823931,moneygram,DINERO EXPRESS - #2081 - TOLUCA DE LERDO,,TOLUCA DE LERDO,MX,,MX,+52 55 1720 8141,,Mo-Su 09:00-21:00,MoneyGram,Q1944412
68838049,moneygram,DINERO EXPRESS - #3310 - TOLUCA - BANCO,,TOLUCA,MX,,MX,+52 55 1720 8141,,Mo-Su 09:00-21:00,MoneyGram,Q1944412
74712175,moneygram,CADENA COMERCIAL OXXO SA DE CV - #10CTT5,,TOLUCA,MX,,MX,+52 81 8389 2121,,Mo-Su 03:00-24:00,MoneyGram,Q1944412
70688180,moneygram,WALDOS - #6034 - TOLUCA - 6034 - LOPEZ M,,TOLUCA,MX,,MX,5252460700,,Mo-Su 07:00-23:00,MoneyGram,Q1944412
71139133,moneygram,ELEKTRA - #3310 - TOLUCA - DAZ SAN ANDRE,,TOLUCA,MX,,MX,+52 55 1720 7000,,Mo-Su 07:30-21:00,MoneyGram,Q1944412
41340884,moneygram,BANORTE - #2417 - ADOLFO LOPEZ MATEOS ME,,TOLUCA,MX,,MX,+52 722 278 1300,,Mo-Fr 09:00-17:00; Sa-Su 00:00-24:00,MoneyGram,Q1944412
43342796,moneygram,BANORTE - #2423 - TOLUCA PLAZA SANTIN,,TOLUCA,MX,,MX,+52 722 210 0206,,Mo-Fr 09:00-20:00; Sa 09:30-16:30; Su 00:00-24:00,MoneyGram,Q1944412
42575043,moneygram,WAL-MART SANTIN TOLUCA - #5702,,TOLUCA,MX,,MX,+52 722 210 4073,,Mo-Su 08:00-21:00,MoneyGram,Q1944412
71365004,moneygram,OXXO - AHUEHUETES TLC,,TOLUCA,MX,,MX,+52 81 8389 2121,,Mo-Su 03:00-24:00,MoneyGram,Q1944412
71364351,moneygram,OXXO - CALIXTLAHUACA TLC,,TOLUCA,MX,,MX,+52 81 8389 2121,,Mo-Su 03:00-24:00,MoneyGram,Q1944412
71365648,moneygram,OXXO - HACIENDA DELVALLETLC,,TOLUCA,MX,,MX,+52 81 8389 2121,,Mo-Su 03:00-24:00,MoneyGram,Q1944412
71365402,moneygram,OXXO - REAL DE SAN PABLO TLC,,TOLUCA,MX,,MX,+52 81 8389 2121,,Mo-Su 03:00-24:00,MoneyGram,Q1944412
71365512,moneygram,OXXO - S.R.E. TLC,,TOLUCA,MX,,MX,+52 81 8389 2121,,Mo-Su 03:00-24:00,MoneyGram,Q1944412
71366197,moneygram,OXXO - SAN JOSE TLC,,TOLUCA,MX,,MX,+52 81 8389 2121,,Mo-Su 03:00-24:00,MoneyGram,Q1944412
71366032,moneygram,OXXO - SAN MARTIN TLC,,TOLUCA,MX,,MX,+52 81 8389 2121,,Mo-Su 03:00-24:00,MoneyGram,Q1944412
71365664,moneygram,OXXO - SAN PABLO TLC,,TOLUCA,MX,,MX,+52 81 8389 2121,,Mo-Su 03:00-24:00,MoneyGram,Q1944412
71365224,moneygram,OXXO - SAN PEDRO TLC,,TOLUCA,MX,,MX,+52 81 8389 2121,,Mo-Su 03:00-24:00,MoneyGram,Q1944412
71365279,moneygram,OXXO - SAUCES TLC,,TOLUCA,MX,,MX,+52 81 8389 2121,,Mo-Su 03:00-24:00,MoneyGram,Q1944412
71365554,moneygram,OXXO - TORRES TLC,,TOLUCA,MX,,MX,+52 81 8389 2121,,Mo-Su 03:00-24:00,MoneyGram,Q1944412
71363446,moneygram,OXXO - TOTOLTEPEC TLC,,TOLUCA,MX,,MX,+52 81 8389 2121,,Mo-Su 03:00-24:00,MoneyGram,Q1944412
71365295,moneygram,OXXO - VILLA SANTIN I TLC,,TOLUCA,MX,,MX,+52 81 8389 2121,,Mo-Su 03:00-24:00,MoneyGram,Q1944412
