Ref,Spider,Name,Address,City,State,Zipcode,Country,Phone,Website,Hours,Brand,WikiData
3327,action,Schleswig,,Schleswig,,,DE,,https://www.action.com/de-de/laden/schleswig-schubystrabe/,,Action,Q2634111
https://vertretung.allianz.de/marco.witt/,allianz_de,Allianz Versicherung Marco Witt GENERALVERTRETUNG,,Schleswig,,,DE,+49 4621 33068,https://vertretung.allianz.de/marco.witt/,"Mo-Tu 08:30-12:00,14:00-17:00; We 08:30-12:00; Th 08:30-12:00,14:30-17:30; Fr 08:30-12:00",Allianz SE,Q487292
https://vertretung.allianz.de/agentur.jensen/,allianz_de,Allianz Versicherung Ulf Jensen GENERALVERTRETUNG,,Schleswig,,,DE,+49 4621 33064,https://vertretung.allianz.de/agentur.jensen/,"Mo-Tu 08:30-12:00,14:00-17:00; We 08:30-12:00; Th 08:30-12:00,14:30-17:30; Fr 08:30-12:00",Allianz SE,Q487292
https://vertretung.allianz.de/sven-olaf.denzel/,allianz_de,Allianz Versicherung Sven Olaf Denzel HAUPTVERTRETUNG,,Schleswig,,,DE,+49 4621 27855,https://vertretung.allianz.de/sven-olaf.denzel/,Mo-Fr 08:00-12:00,Allianz SE,Q487292
04670_2,bmw_group,Albert Bauer GmbH,,Schleswig,,,DE,+49 4621 95550,https://www.bauer.bmw,,BMW,Q26678
DE2179,c_and_a,Schleswig Stadtweg,"Stadtweg 43, 24837 Schleswig",Schleswig,,,DE,,https://www.c-and-a.com/stores/de-de/schleswig-holstein/schleswig/stadtweg-43.html,Mo 09:00-19:00; Tu 09:00-19:00; We 09:00-19:00; Th 09:00-19:00; Fr 09:00-19:00; Sa 09:00-17:00,C&A,Q701338
2672,deutsche_telekom_de,Telekom Shop Schleswig,,Schleswig,,,DE,+49 4621 304178,https://shopseite.telekom.de/nord-ost/schleswig/stadtweg-52,Mo-Fr 09:30-18:00; Sa 09:30-14:00,Deutsche Telekom,Q9396
de:1664,dm,dm-drogerie markt,,Schleswig,,,DE,+49 4621 290252,https://www.dm.de/store/d2l8/schleswig/lattenkamp-1,Mo-Sa 08:00-20:00,dm,Q266572
34165,dominos_pizza_de,Domino's Pizza Schleswig,,Schleswig,,,DE,,https://www.dominos.de/filiale/de-schleswig-34165,,Domino's,Q839466
54.5295569.526926,dpd_de,Marktkauf Center Schleswig,,Schleswig,,,DE,,,Mo-Sa 08:00-22:00,DPD,Q541030
54.5161929.56126,dpd_de,NKD Deutschland GmbH,,Schleswig,,,DE,,,Mo-Fr 09:00-18:00; Sa 09:00-17:00,DPD,Q541030
100150402,exxonmobil,Esso Station Schleswig,,SCHLESWIG,,,DE,+49 4621 24560,https://www.esso.de/de-de/find-station/esso-schleswig-essostationschleswig-100150402,Mo-Fr 06:00-21:00; Sa 07:00-21:00; Su 07:30-21:00,Esso,Q867662
https://www.fressnapf.de/stores/fressnapf-schleswig/,fressnapf_de,Fressnapf Schleswig,,Schleswig,,,DE,+49 4621 9844600,https://www.fressnapf.de/stores/fressnapf-schleswig/,Mo-Fr 09:00-18:30; Sa 09:00-18:00,Fressnapf,Q875796
2760913851,gls_de,Biggi´s Tüchertruhe und Me(e)hr,,Schleswig,,,DE,+49 1523 6101967,,Mo 10:00-18:00; We-Fr 10:00-18:00; Sa 09:00-14:00,General Logistics Systems,Q46495823
1123,jysk,Schleswig,,Schleswig,,,DE,+49 4621 96390,https://jysk.de/filialen?storeId=1123,Mo-Th 10:00-18:30; Sa 09:30-18:00,JYSK,Q138913
2858,kik,KiK,,Schleswig Friedrichsberg,,,DE,+49 4621 932107,,Mo-Sa 09:00-19:00,KiK,Q883965
6162,kik,KiK,,Schleswig Gewerbegebiet,,,DE,+49 4621 290084,,Mo-Fr 09:00-18:30; Sa 09:00-16:00,KiK,Q883965
7352,lidl_de,,,Schleswig,,,DE,,,Mo-Sa 07:00-21:00,Lidl,Q151954
67010622,moneygram,PIZZA KING - SCHLESWIG,,SCHLESWIG,,,DE,+49 174 4661668,,Mo-Su 11:00-23:00,MoneyGram,Q1944412
https://www.rossmann.de/de/filialen/schleswig-holstein/schleswig/stadtweg-53-55.html,rossmann_de,Rossmann Drogerie-Markt Stadtweg 53-55,,Schleswig,,,DE,+49 4621 305985,https://www.rossmann.de/de/filialen/schleswig-holstein/schleswig/stadtweg-53-55.html,Mo-Fr 08:00-19:00; Sa 08:00-17:00,Rossmann,Q316004
https://www.rossmann.de/de/filialen/schleswig-holstein/schleswig/georg-pfingsten-weg-7.html,rossmann_de,Rossmann Drogerie-Markt Georg-Pfingsten-Weg 7,,Schleswig,,,DE,+49 4621 301900,https://www.rossmann.de/de/filialen/schleswig-holstein/schleswig/georg-pfingsten-weg-7.html,Mo-Sa 08:00-21:00,Rossmann,Q316004
https://www.sixt.co.uk/car-hire/germany/schleswig/schleswig/,sixt,Car Hire Schleswig | SIXT rent a car,,Schleswig,,,DE,,https://www.sixt.co.uk/car-hire/germany/schleswig/schleswig/,Mo-Fr 09:00-17:00; Sa 09:00-12:00,SIXT,Q705664
168601,sparkasse_de,Nord-Ostsee Sparkasse  Immobilienvermittlung Immobilienvermittlung Schleswig-Nord,,Schleswig,,,DE,+49 4621 898721,https://www.sparkasse.de/standorte/filialen/nord-ostsee-sparkasse-immobilienvermittlung-immobilienvermittlung-schleswig-nord-168601,"Mo 09:00-12:00; Tu 09:00-12:00,14:30-16:30; We 09:00-12:00; Th 09:00-12:00,14:00-18:00; Fr 09:00-12:00,14:30-16:30",Sparkasse,Q13601825
171624,sparkasse_de,Nord-Ostsee Sparkasse  Immobilienvermittlung Makler Schleswig-Nord,,Schleswig,,,DE,+49 4621 898721,https://www.sparkasse.de/standorte/filialen/nord-ostsee-sparkasse-immobilienvermittlung-makler-schleswig-nord-171624,"Mo 09:00-12:00; Tu 09:00-12:00,14:30-16:30; We 09:00-12:00; Th 09:00-12:00,14:00-18:00; Fr 09:00-12:00,14:30-16:30",Sparkasse,Q13601825
19141,sparkasse_de,Nord-Ostsee Sparkasse  Geldautomat Schleswig-Stadtweg 49,,Schleswig,,,DE,+49 4621 895555,https://www.sparkasse.de/standorte/geldautomaten/nord-ostsee-sparkasse-geldautomat-schleswig-stadtweg-49-19141,24/7,Sparkasse,Q13601825
19133,sparkasse_de,Nord-Ostsee Sparkasse  Geldautomat Schleswig-Nord,,Schleswig,,,DE,+49 4621 895555,https://www.sparkasse.de/standorte/geldautomaten/nord-ostsee-sparkasse-geldautomat-schleswig-nord-19133,Mo-Su 06:00-23:00,Sparkasse,Q13601825
139789,sparkasse_de,Nord-Ostsee Sparkasse  SB-Filiale Schleswig-Nord,,Schleswig,,,DE,+49 4621 895555,https://www.sparkasse.de/standorte/filialen/nord-ostsee-sparkasse-sb-filiale-schleswig-nord-139789,Mo-Su 06:00-23:00,Sparkasse,Q13601825
10092,sparkasse_de,Nord-Ostsee Sparkasse  Regionaldirektion Schleswig-Nord,,Schleswig,,,DE,+49 4621 895555,https://www.sparkasse.de/standorte/filialen/nord-ostsee-sparkasse-regionaldirektion-schleswig-nord-10092,"Mo 09:00-12:00; Tu 09:00-12:00,14:30-16:30; We 09:00-12:00; Th 09:00-12:00,14:00-18:00; Fr 09:00-12:00,14:30-16:30",Sparkasse,Q13601825
10091,sparkasse_de,Nord-Ostsee Sparkasse  Filiale Schleswig-Friedrichsberg / VideoBanking,,Schleswig,,,DE,+49 4621 895555,https://www.sparkasse.de/standorte/filialen/nord-ostsee-sparkasse-filiale-schleswig-friedrichsberg-video-banking-10091,Mo-Fr 08:30-16:30,Sparkasse,Q13601825
37133,sparkasse_de,Nord-Ostsee Sparkasse  Geldautomat Schleswig-Friedrichsberg,,Schleswig,,,DE,+49 4621 895555,https://www.sparkasse.de/standorte/geldautomaten/nord-ostsee-sparkasse-geldautomat-schleswig-friedrichsberg-37133,Mo-Su 05:00-23:00,Sparkasse,Q13601825
139792,sparkasse_de,Nord-Ostsee Sparkasse  SB-Filiale Schleswig-Friedrichsberg,,Schleswig,,,DE,+49 4621 895555,https://www.sparkasse.de/standorte/filialen/nord-ostsee-sparkasse-sb-filiale-schleswig-friedrichsberg-139792,Mo-Su 05:00-23:00,Sparkasse,Q13601825
151517,sparkasse_de,Nord-Ostsee Sparkasse  Bargeld-Service Schleswig REWE-Markt,,Schleswig,,,DE,+49 461 15005555,https://www.sparkasse.de/standorte/filialen/nord-ostsee-sparkasse-bargeld-service-schleswig-rewe-markt-151517,Mo-Sa 07:00-20:00,Sparkasse,Q13601825
151516,sparkasse_de,Nord-Ostsee Sparkasse  Bargeld-Service Schleswig REWE-Markt,,Schleswig,,,DE,+49 461 15005555,https://www.sparkasse.de/standorte/filialen/nord-ostsee-sparkasse-bargeld-service-schleswig-rewe-markt-151516,Mo-Sa 07:00-21:00,Sparkasse,Q13601825
151515,sparkasse_de,Nord-Ostsee Sparkasse  Bargeld-Service Schleswig REWE-Markt,,Schleswig,,,DE,+49 4621 850190,https://www.sparkasse.de/standorte/filialen/nord-ostsee-sparkasse-bargeld-service-schleswig-rewe-markt-151515,Mo-Th 07:00-20:00; Fr-Sa 07:00-21:00,Sparkasse,Q13601825
151233,sparkasse_de,Nord-Ostsee Sparkasse  Bargeld-Service Schleswig famila,,Schleswig,,,DE,+49 461 15005555,https://www.sparkasse.de/standorte/filialen/nord-ostsee-sparkasse-bargeld-service-schleswig-famila-151233,Mo-Sa 07:00-21:00,Sparkasse,Q13601825
139736,sparkasse_de,Nord-Ostsee Sparkasse  Geldautomat Schleswig,,Schleswig,,,DE,+49 4621 895555,https://www.sparkasse.de/standorte/geldautomaten/nord-ostsee-sparkasse-geldautomat-schleswig-139736,24/7,Sparkasse,Q13601825
139735,sparkasse_de,Nord-Ostsee Sparkasse  SB-Filiale Schleswig,,Schleswig,,,DE,+49 4621 895555,https://www.sparkasse.de/standorte/filialen/nord-ostsee-sparkasse-sb-filiale-schleswig-139735,24/7,Sparkasse,Q13601825
10090,sparkasse_de,Nord-Ostsee Sparkasse  Regionaldirektion Schleswig,,Schleswig,,,DE,+49 4621 895555,https://www.sparkasse.de/standorte/filialen/nord-ostsee-sparkasse-regionaldirektion-schleswig-10090,"Mo-Tu 09:00-12:00,14:30-16:30; We 09:00-12:00; Th 09:00-12:00,14:00-18:00; Fr 09:00-12:00,14:30-16:30",Sparkasse,Q13601825
https://toom.de/m/schleswig/,toom_baumarkt_de,toom Baumarkt in Schleswig,,Schleswig,,,DE,+49 4621 95920,https://toom.de/m/schleswig/,Mo-Fr 08:00-20:00; Sa 08:00-18:00,Toom Baumarkt,Q2442970
3342,valora,k kiosk,,Schleswig,,,DE,,,,k kiosk,Q60381703
https://www.vlh.de/bst/26852/Oeffnungszeiten.html,vhl_de,VLH-Berater Hanspeter Witt in Schleswig,,Schleswig,,,DE,+49 4621 4277510,https://www.vlh.de/bst/26852/,,Vereinigte Lohnsteuerhilfe e.V.,Q15852617
,visa,,,SCHLESWIG,,,DE,,,,,
,visa,,,SCHLESWIG,,,DE,,,,,
,visa,,,SCHLESWIG,,,DE,,,,,
,visa,,,SCHLESWIG,,,DE,,,,,
,visa,,,SCHLESWIG,,,DE,,,,,
,visa,,,SCHLESWIG,,,DE,,,,,
,visa,,,SCHLESWIG,,,DE,,,,,
,visa,,,SCHLESWIG,,,DE,,,,,
,visa,,,SCHLESWIG,,,DE,,,,,
,visa,,,SCHLESWIG,,,DE,,,,,
,visa,,,SCHLESWIG,,,DE,,,,,
,visa,,,SCHLESWIG,,,DE,,,,,
,visa,,,SCHLESWIG,,,DE,,,,,
,visa,,,SCHLESWIG,,,DE,,,,,
,visa,,,SCHLESWIG,,,DE,,,,,
,visa,,,SCHLESWIG,,,DE,,,,,
,visa,,,FLENSBURG,,,DE,,,,,
https://shops.vodafone.de/schleswig/stadtweg-54,vodafone_de,Vodafone-Shop,,Schleswig,,,DE,+49 172 3956485,https://shops.vodafone.de/schleswig/stadtweg-54,Mo-Fr 09:00-18:00; Sa 09:00-14:00,Vodafone,Q122141
6DE07113,volvo,Horst Kiso GmbH,,Schleswig,,,DE,+49 4621 981111,http://www.volvocars-haendler.de/kiso,,Volvo,Q215293
https://www.vr.de/standorte/S/Sa-Sm/vr-bank-schleswig-mittelholstein-eg-sb-filiale-schleswig-stadtwe-19055.html,vr_bank,VR Bank Schleswig-Mittelholstein eG SB-Filiale Schleswig-Stadtweg,,Schleswig,,,DE,+49 4621 3880,https://www.vr-sl-mh.de,Mo-Su 05:00-24:00,,
https://www.vr.de/standorte/S/Sa-Sm/vr-bank-schleswig-mittelholstein-eg-sb-filiale-rewe-schleswig-st-18899.html,vr_bank,VR Bank Schleswig-Mittelholstein eG SB-Filiale REWE Schleswig-Stadtfeld,,Schleswig,,,DE,+49 4621 3880,https://www.vr-sl-mh.de,Mo-Sa 07:00-21:30,,
https://www.vr.de/standorte/S/Sa-Sm/vr-bank-schleswig-mittelholstein-eg-sb-filiale-schleswig-werkhof-18898.html,vr_bank,VR Bank Schleswig-Mittelholstein eG SB-Filiale Schleswig-Werkhof,,Schleswig,,,DE,+49 4621 3880,https://www.vr-sl-mh.de,24/7,,
https://www.vr.de/standorte/S/Sa-Sm/vr-bank-schleswig-mittelholstein-eg-verwaltungssitz-schleswig-18794.html,vr_bank,VR Bank Schleswig-Mittelholstein eG Verwaltungssitz Schleswig,,Schleswig,,,DE,+49 4621 3880,https://www.vr-sl-mh.de,,,
https://www.vr.de/standorte/S/Sa-Sm/vr-bank-schleswig-mittelholstein-eg-filiale-schleswig-friedrichs-18781.html,vr_bank,VR Bank Schleswig-Mittelholstein eG Filiale Schleswig-Friedrichsberg,,Schleswig,,,DE,+49 4621 3880,https://www.vr-sl-mh.de,"Mo 09:00-12:00,14:00-16:00; Tu-We 09:00-12:00; Th 09:00-12:00,14:00-18:00; Fr 09:00-12:00",,
https://www.vr.de/standorte/S/Sa-Sm/vr-bank-nord-eg-verwaltungssitz-schleswig-18580.html,vr_bank,"VR Bank Nord eG, Verwaltungssitz Schleswig",,Schleswig,,,DE,+49 461 402150,https://www.vrbanknord.de,"Mo-Tu 08:00-12:30,13:30-16:00; We 08:00-12:30; Th-Fr 08:00-12:30,13:30-16:00",,
https://www.vr.de/standorte/S/Sa-Sm/vr-bank-nord-eg-filiale-schleswig-8122.html,vr_bank,"VR Bank Nord eG, Filiale Schleswig",,Schleswig,,,DE,+49 461 402150,https://www.vrbanknord.de,"Mo-Tu 09:00-12:30,14:00-16:30; We 09:00-12:30; Th 09:00-12:30,14:00-18:00; Fr 09:00-12:30,14:00-16:30",,
