Ref,Spider,Name,Address,City,State,Zipcode,Country,Phone,Website,Hours,Brand,WikiData
8016,aaa,Lem Insurance Agency,,Portage,MI,,US,,,,American Automobile Association,Q463436
1018856,alamo,Kalamazoo-Battle Creek Intl. Airport,,Portage,MI,,US,+1 269-226-4488,,,ALAMO,Q1429287
https://stores.aldi.us/#4421304,aldi_sud_us,ALDI  6291 S. Westnedge,,Portage,MI,,US,+1 855-955-2534,https://stores.aldi.us/mi/portage/6291-s-westnedge,"Mo-Su 08:30-20:00,09:00-20:00",ALDI,Q41171672
2179 & 2181 S. M-139,allied_universal,Allied Universal,,Benton Harbor,MI,,US,+1 269-382-4800,https://www.aus.com/benton-harbor-security-systems-services,,Allied Universal,Q4732537
https://restaurants.applebees.com/en-us/mi/portage/6675-s-westnedge-avenue-83085,applebees,Connect with this Applebee's,,Portage,MI,,US,+1 269-324-1496,https://restaurants.applebees.com/en-us/mi/portage/6675-s-westnedge-avenue-83085,Mo-Sa 11:00-24:00; Su 11:00-23:00,Applebees,Q621532
12167,asics_us,DICK'S Sporting Goods  - Portage ,6355 S Westnedge Ave,Portage,MI,,US,+1 269-329-1956,,Mo-Sa 09:00-21:00; Su 10:00-19:00,asics,Q327247
117654,att_us,PORTAGE STORE,,Portage,MI,,US,+1 269-385-3272,https://www.att.com/stores/michigan/portage/117654,Mo-Sa 10:00-20:00; Su 10:00-18:00,AT&T,Q298594
2149,autozone_us,AutoZone Auto Parts Portage,,Portage,MI,,US,+1 269-323-7101,https://www.autozone.com/locations/mi/portage/7400-s-westnedge-ave.html,Mo-Sa 07:30-21:00; Su 08:30-20:00,AutoZone,Q4826087
385,batteriesplus,Shop our Temple store today,,Portage,MI,,US,+1 269-553-2355,https://www.batteriesplus.com/store-locator/mi/portage/batteries-plus-385,Mo-Fr 08:00-19:00; Sa 09:00-19:00; Su 10:00-18:00,Batteries Plus Bulbs,Q17005157
https://stores.bestbuy.com/mi/portage/6900-s-westnedge-ave-413.html,bestbuy,Best Buy Kalamazoo,,Portage,MI,,US,+1 269-327-2008,https://stores.bestbuy.com/mi/portage/6900-s-westnedge-ave-413.html,,Best Buy,Q533415
569,biggby_coffee_us,Biggby Coffee,9008 Portage Rd. Portage MI 49002,Portage,MI,,US,+1 269-443-7084,,Mo-Fr 05:00-20:00; Sa 06:00-20:00; Su 07:00-20:00,Biggby Coffee,Q4906876
311,biggby_coffee_us,Biggby Coffee,5132 S Westnedge Ave Portage MI 49002,Portage,MI,,US,+1 269-345-3540,,Mo-Sa 06:00-20:00; Su 07:00-19:00,Biggby Coffee,Q4906876
612,biggby_coffee_us,Biggby Coffee,5401 Portage Rd Suite 1 Portage MI 49002,Portage,MI,,US,+1 269-903-2740,,Mo-Fr 05:00-20:00; Sa 06:00-20:00; Su 07:00-20:00,Biggby Coffee,Q4906876
120,biggby_coffee_us,Biggby Coffee,7501 S Westnedge Ave Portage MI 49002,Portage,MI,,US,+1 269-323-3670,,Mo-Fr 06:00-20:00; Sa 07:00-20:00; Su 07:00-19:00,Biggby Coffee,Q4906876
https://local.biglots.com/#13190057,biglots,Big Lots - Portage,,Portage,MI,,US,+1 269-359-7205,https://local.biglots.com/mi/portage/6207-s-westnedge-ave,Mo-Sa 09:00-21:00; Su 10:00-19:00,Big Lots,Q4905973
57154,bluerhino,Lowe's #1110,,Portage,MI,,US,+1 269-276-0215,,,Blue Rhino,Q65681213
73078,bluerhino,Speedway #2383,,Portage,MI,,US,+1 269-343-8611,,,Blue Rhino,Q65681213
189950,bluerhino,Fresh Thyme Farmer's Market #607,,Portage,MI,,US,+1 269-206-5300,,,Blue Rhino,Q65681213
199894,bluerhino,Hardings Marketplace #423,,Portage,MI,,US,+1 269-327-6733,,,Blue Rhino,Q65681213
73055,bluerhino,Speedway #2275,,Portage,MI,,US,+1 269-349-9803,,,Blue Rhino,Q65681213
58459,bluerhino,Speedway #3582,,Portage,MI,,US,+1 269-329-1837,,,Blue Rhino,Q65681213
126652,bluerhino,H & B Market #342,,Portage,MI,,US,+1 269-327-8807,,,Blue Rhino,Q65681213
46862,bobevans_us,Kalamazoo,,Portage,MI,,US,+1 269-385-5010,https://www.bobevans.com/locations/kalamazoo,Mo-Su 07:00-21:00,Bob Evans,Q4932386
49002870924804900200100000000000,bp,BP,,Portage,MI,,US,+1 734-330-1028,,24/7,BP,Q152057
20118,cadillac,COLE CADILLAC,,Portage,MI,,US,+1 269-906-9038,https://www.cole-cadillac.com,Mo 09:00-20:00; Tu 09:00-18:00; We 09:00-20:00; Th-Fr 09:00-18:00; Sa 09:00-16:00,Cadillac,Q27436
https://locations.carrabbas.com/#15502949,carrabbasitaliangrill,"Carrabba's Portage, MI",,Portage,MI,,US,+1 269-381-0607,https://locations.carrabbas.com/michigan/portage/5690-s-westnedge-ave,Mo-Th 11:00-22:00; Fr-Sa 11:00-23:00; Su 11:00-21:00,Carrabba's Italian Grill,Q5045999
//locations.carters.com/mi/portage/carters-portage-mi,carters_us,Carter's Portage,,Portage,MI,,US,+1 269-324-2412,https://locations.carters.com/mi/portage/carters-portage-mi,Mo-Fr 10:00-19:00; Sa 10:00-20:00; Su 12:00-18:00,Carter's,Q5047083
2409635,chase_us,OFF PREMISE DU - 576104,,PORTAGE,MI,,US,+1 800-935-9935,https://locator.chase.com/mi/portage/5950-s-westnedge-ave,,Chase,Q524629
001.005.1863,chilis,Portage,,Portage,MI,,US,+1 269-324-0560,https://www.chilis.com/locations/us/michigan/portage/portage/,Mo-Th 11:00-22:00; Fr-Sa 11:00-23:00; Su 11:00-22:00,Chili's,Q1072948
mi_portage_5964-s-westnedge-ave,chipotle, ,,Portage,MI,,US,+1 269-337-0599,https://locations.chipotle.com/mi/portage/5964-s-westnedge-ave,,Chipotle,Q465751
https://locations.chuckecheese.com/us/mi/portage/6175-s-westnedge-ave,chuckecheese,Chuck E. Cheese,,Portage,MI,,US,+1 877-581-5732,https://locations.chuckecheese.com/us/mi/portage/6175-s-westnedge-ave,Mo-Th 11:00-21:00; Fr 11:00-22:00; Sa 10:00-22:00; Su 11:00-21:00,Chuck E. Cheese,Q2438391
78853,citi,ATM Speedway,,Kalamazoo,MI,,US,,,,Citibank,Q857063
79637,citi,ATM SPEEDWAY #8777,,Kalamazoo,MI,,US,,,,Citibank,Q857063
79449,citi,ATM SPEEDWAY #2275,,Portage,MI,,US,,,,Citibank,Q857063
79487,citi,ATM SPEEDWAY #2383,,Portage,MI,,US,,,,Citibank,Q857063
78483,citi,ATM Speedway,,Portage,MI,,US,,,,Citibank,Q857063
92001,citi,ATM Walgreens,,Portage,MI,,US,,,,Citibank,Q857063
78509,citi,ATM Speedway,,Portage,MI,,US,,,,Citibank,Q857063
82945,citi,ATM Target,,Portage,MI,,US,,,,Citibank,Q857063
79505,citi,ATM SPEEDWAY #3582,,Portage,MI,,US,,,,Citibank,Q857063
79209,citi,ATM Speedway,,Portage,MI,,US,,,,Citibank,Q857063
78709,citi,ATM Speedway,,Portage,MI,,US,,,,Citibank,Q857063
21383,coldstone_creamery,Cold Stone Creamery,,Portage,MI,,US,+1 269-327-4674,https://www.coldstonecreamery.com/stores/21383,,Cold Stone Creamery,Q1094923
mi_portage_6601-s-westnedge-avenue,costplus_worldmarket,World Market Portage,,Portage,MI,,US,+1 269-329-1631,https://stores.worldmarket.com/mi/portage/6601-s-westnedge-avenue.html,Mo-Sa 10:00-20:00; Su 11:00-18:00,Cost Plus World Market,Q5174750
324,culvers_us,"Culver's of Portage, MI - S Westnedge Ave",,Portage,MI,,US,+1 269-321-1800,http://www.culvers.com/restaurants/portage-mi,Mo 10:15-22:00; Tu-Fr 10:00-22:00; Su 10:00-22:00,Culver's,Q1143589
16150,cvs_us,CVS Pharmacy,,Portage,MI,,US,+1 269-327-9646,https://www.cvs.com/store-locator/portage-mi-pharmacies/6839-s-westnedge-ave-portage-mi-49002/storeid=16150,"Mo-Fr 09:00-13:30,14:00-19:00; Sa 09:00-13:30,14:00-17:00; Su 11:00-13:30,14:00-17:00",CVS Pharmacy,Q2078880
1006,dickssportinggoods,"DICK'S Sporting Goods Store in Portage, MI | 1006",,Portage,MI,,US,+1 269-329-1956,https://stores.dickssportinggoods.com/mi/portage/1006/,Mo-Sa 09:00-21:00; Su 10:00-19:00,Dick's Sporting Goods,Q5272601
18543,dollar_general,Dollar General,,Portage,MI,,US,+1 269-888-1322,https://www.dollargeneral.com/store-directory/mi/portage/18543,Mo-Su 08:00-22:00,Dollar General,Q145168
https://www.edwardjones.com/us-en/financial-advisor/matt-semelbauer,edwardjones,Matt Semelbauer,,Portage,MI,,US,+1 269-321-7573,https://www.edwardjones.com/us-en/financial-advisor/matt-semelbauer,Mo-Fr 08:30-17:00,Edward Jones,Q5343830
100296,electrify_america,"Sams Club 6661 - Portage, MI",,Portage,MI,,US,,,,Electrify America,Q59773555
AZOT61,enterprise,Kalamazoo-Battle Creek Intl. Airport,,Portage,MI,,US,+1 269-226-4488,,,Enterprise Rent-A-Car,Q17085454
E120N8,enterprise,Portage,,Portage,MI,,US,+1 269-383-9900,,,Enterprise Rent-A-Car,Q17085454
https://locations.53.com/#3034748,fifththirdbank,Fifth Third Bank Crossroads MI,,Portage,MI,,US,+1 269-329-5800,https://locations.53.com/mi/portage/6488-south-westnedge-avenue.html,Mo-Th 09:00-17:00; Fr 09:00-18:00; Sa 09:00-12:00,Fifth Third Bank,Q1411810
23779,firestone_auto_care,Firestone Complete Auto Care,,Portage,MI,,US,+1 269-216-9563,https://local.firestonecompleteautocare.com/michigan/portage/6620-s-westnedge-ave/,,Firestone,Q420837
https://restaurants.fiveguys.com/#15553015,five_guys_us,Five Guys Southland Mall,,Portage,MI,,US,+1 269-324-3483,https://restaurants.fiveguys.com/6286-westnedge,"Mo-Su 11:00-21:30,11:00-22:00",Five Guys,Q1131810
0710,gamestop_us,Portage Crossings,,Portage,MI,,US,+1 269-321-9363,https://www.gamestop.com/search/?store=0710,Mo-Th 12:00-20:00; Fr-Sa 10:00-21:00; Su 12:00-19:00,GameStop,Q202210
https://www.goodyearautoservice.com/en_US/location/Portage-MI-49002-US-000906568,goodyear_us,"Goodyear Auto Service - Portage, Portage, MI | Oil, Brakes & Repairs | #000906568",,Portage,MI,,US,+1 269-382-5600,https://www.goodyearautoservice.com/en_US/location/Portage-MI-49002-US-000906568,Mo-Sa 08:00-18:00,Goodyear,Q620875
0614,helzberg_diamonds,Helzberg Diamonds,,Portage,MI,,US,+1 269-327-8771,https://www.helzberg.com/store?storeId=0614,Mo-Sa 10:00-21:00; Su 11:00-19:00,Helzberg Diamonds,Q16995161
azokphw-homewood-suites-kalamazoo-portage,hilton,Homewood Suites by Hilton Kalamazoo-Portage,,,MI,,US,+1 269-382-5817,https://www.hilton.com/ar/hotels/azokphw-homewood-suites-kalamazoo-portage/,,Homewood Suites by Hilton,Q5890701
1707,honey_baked,HoneyBaked of Portage,,Portage,MI,,US,+1 269-345-1199,https://www.honeybaked.com/stores/1707,,Honey Baked Ham,Q5893363
21767,h_r_block,H&R Block,,Portage,MI,,US,+1 269-345-6731,https://www.hrblock.com/local-tax-offices/michigan/portage/5220-s-westnedge-ave/21767/,,H&R Block,Q5627799
https://www.blockadvisors.com/local-tax-offices/michigan/portage/5228-lovers-ln/21776/,h_r_block,H&R Block,,Portage,MI,,US,+1 269-388-2060,https://www.blockadvisors.com/local-tax-offices/michigan/portage/5228-lovers-ln/21776/,,H&R Block,Q5627799
mi_portage_breakfast-5325-s-westnedge-ave-3068,ihop,IHOP Breakfast Restaurants Near You at 5325 S Westnedge Ave,,Portage,MI,,US,+1 269-382-6750,https://restaurants.ihop.com/en-us/mi/portage/breakfast-5325-s-westnedge-ave-3068,,IHOP,Q1185675
kalamazoo-airport-long-term,indigo,Kalamazoo Airport - Long Term,,Portage,MI,,US,,,,Indigo,Q3559970
kalamazoo-airport-short-term,indigo,Kalamazoo Airport - Short Term,,Portage,MI,,US,,,,Indigo,Q3559970
https://locations.jimmyjohns.com/mi/portage/sandwiches-2982.html,jimmy_johns,Jimmy John's,,Portage,MI,,US,+1 269-323-7000,https://locations.jimmyjohns.com/mi/portage/sandwiches-2982.html,,Jimmy John's,Q1689380
https://locations.kfc.com/#12434775,kfc,Chicken Nuggets Near Kalamazoo,,Kalamazoo,MI,,US,,https://locations.kfc.com/mi/kalamazoo/5822-south-westnedge/chickennugget,Mo-Su 10:30-22:00,KFC,Q524757
218,kohls_us,Kohl's,,Portage,MI,,US,+1 269-323-2392,https://www.kohls.com/stores/mi/portage-218.shtml,Mo-Sa 09:00-21:00; Su 09:00-20:00,Kohl's,Q967265
156782,marathon_petroleum_us,ADMIRAL 5726,,Portage,MI,,US,+1 269-343-8319,,,Marathon,Q458363
AZOCY,marriott,Courtyard Kalamazoo Portage,,Portage,MI,,US,+1 269-382-5808,https://www.marriott.com/AZOCY,,Courtyard by Marriott,Q1053170
AZOSP,marriott,SpringHill Suites Kalamazoo Portage,,Portage,MI,,US,+1 269-238-3254,https://www.marriott.com/AZOSP,,SpringHill Suites,Q7580351
239246,mattress_firm_us,Mattress Firm Portage,,Portage,MI,,US,+1 269-327-0471,https://www.mattressfirm.com/en-us/stores/mi/portage/103006/,,Mattress Firm,Q6791878
https://locations.maurices.com/#11688309,maurices,maurices 6040 S Westnedge Ave,,Portage,MI,,US,+1 269-323-3203,https://locations.maurices.com/us/mi/portage/6212-s-westnedge-ave,Mo-Sa 10:00-20:00; Su 11:00-18:00,maurices,Q6793571
5970-s-westnedge-ave,mcalisters_deli,McAlister's Deli Portage ,,Portage,MI,,US,+1 269-350-5072,https://locations.mcalistersdeli.com/mi/portage/5970-s-westnedge-ave,Mo-Su 10:30-21:00,McAlister's Deli,Q17020829
https://locations.moes.com/#1021,moes,Moe's Southwest Grill,,Portage,MI,,US,+1 269-459-1555,https://locations.moes.com/mi/portage/6225-s-westnedge-avenue,Mo-Su 10:30-21:00,Moe's Southwest Grill,Q6889938
6123-s-westnedge-ave,my_eye_dr,,,Portage,MI,,US,+1 269-327-7079,https://locations.myeyedr.com/mi/portage/6123-s-westnedge-ave,,MyEyeDr.,Q117864710
1018855,national,Kalamazoo-Battle Creek Intl. Airport,,Portage,MI,,US,+1 269-226-4488,,,NATIONAL,Q1424142
https://locations.noodles.com/mi/portage/6150-s--westnedge-avenue.html,noodles_and_company_us,Noodles & Company Portage,,Portage,MI,,US,+1 269-359-1350,https://locations.noodles.com/mi/portage/6150-s--westnedge-avenue.html,Mo 10:30-22:00; Tu 10:30-21:00; We-Su 10:30-22:00,Noodles and Company,Q7049673
https://locations.oreillyauto.com/mi/portage/check-engine-light-testing-3432.html,oreilly,Your Portage O'Reilly Auto Parts Store,,Portage,MI,,US,+1 269-329-0641,https://locations.oreillyauto.com/mi/portage/check-engine-light-testing-3432.html,Mo-Sa 07:30-21:00; Su 08:00-20:00,O'Reilly Auto Parts,Q7071951
https://locations.oreillyauto.com/mi/portage/autopartes-3432.html,oreilly,Tu tienda O'Reilly Auto Parts en Portage,,Portage,MI,,US,+1 269-329-0641,https://locations.oreillyauto.com/mi/portage/autopartes-3432.html,Mo-Sa 07:30-21:00; Su 08:00-20:00,O'Reilly Auto Parts,Q7071951
https://locations.oreillyauto.com/mi/portage/wiper-installation-3432.html,oreilly,Your Portage O'Reilly Auto Parts Store,,Portage,MI,,US,+1 269-329-0641,https://locations.oreillyauto.com/mi/portage/wiper-installation-3432.html,Mo-Sa 07:30-21:00; Su 08:00-20:00,O'Reilly Auto Parts,Q7071951
https://locations.oreillyauto.com/mi/portage/battery-testing-3432.html,oreilly,Your Portage O'Reilly Auto Parts Store,,Portage,MI,,US,+1 269-329-0641,https://locations.oreillyauto.com/mi/portage/battery-testing-3432.html,Mo-Sa 07:30-21:00; Su 08:00-20:00,O'Reilly Auto Parts,Q7071951
https://www.orkin.com/locations/michigan-mi/portage-pest-control/branch-554,orkin_us,Orkin,,Portage,MI,,US,+1 269-775-8043,https://www.orkin.com/locations/michigan-mi/portage-pest-control/branch-554,,Orkin,Q7102943
134974,pandaexpress,Westnedge Ave & Boston Ave,,Portage,MI,,US,+1 269-218-9090,https://www.pandaexpress.com/locations/mi/portage/5811-s-westnedge-ave,Mo-Sa 10:00-22:00; Su 10:30-21:30,Panda Express,Q1358690
4109,party_city,Portage Crossings,,Portage,MI,,US,+1 269-364-5461,https://stores.partycity.com/us/mi/portage/party-store-pc4109.html,,Party City,Q7140896
776122,penske,Home Depot #2728,,KALAMAZOO,MI,,US,+1 269-373-8700,https://www.pensketruckrental.com/locations/us/michigan/kalamazoo/776122/,,Penske,Q81234570
rollie-williams-paint-spot-34005,ppgpaints,ROLLIE WILLIAMS PAINT SPOT,,"Portage, ",MI,,US,+1 269-321-3174,https://www.ppgpaints.com/store-locator/us/michigan/portage-paint-stores/rollie-williams-paint-spot-34005,,PPG Paints,Q83891559
home-depot-2728-13651,ppgpaints,HOME DEPOT 2728,,"Portage, ",MI,,US,+1 269-324-8100,https://www.ppgpaints.com/store-locator/us/michigan/portage-paint-stores/home-depot-2728-13651,,PPG Paints,Q83891559
https://locations.qdoba.com/us/mi/portage/6800-s-westnedge-ave.html,qdoba,QDOBA Portage,,Portage,MI,,US,+1 269-323-4500,https://locations.qdoba.com/us/mi/portage/6800-s-westnedge-ave.html,Mo-Sa 10:30-23:00; Su 10:30-22:00,Qdoba,Q1363885
65,rentacenter,Rent-A-Center,,Portage,MI,,US,+1 269-342-0011,https://locations.rentacenter.com/michigan/portage/6185-s-westnedge-ave/,Mo-Sa 10:00-18:00,Rent-A-Center,Q7313497
https://stores.saloncentric.com/#29173635,salon_centric_us,SalonCentric,,,MI,,US,+1 269-323-3497,https://stores.saloncentric.com/mi/portage/2516,Mo 08:00-18:30; Tu-Fr 08:00-18:00; Sa 08:30-16:00; Su 12:00-16:00,SalonCentric,Q124339481
6661,sams_club,Portage Sam's Club,,Portage,MI,,US,+1 269-327-0534,https://www.samsclub.com/club/portage-mi-sams-club/6661,Mo 10:00-20:00; Sa 09:00-20:00; Su 10:00-18:00,Sam's Club,Q1972120
https://locations.scrubsandbeyond.com/mi/portage/scrubs-portage-mi-186.html,scrubs_and_beyond,Nursing Uniforms & Medical Scrubs at 6749 South Westnedge Ave. Suite H | Scrubs & Beyond Near Me,,Portage,MI,,US,+1 269-323-0301,https://locations.scrubsandbeyond.com/mi/portage/scrubs-portage-mi-186.html,Mo-Fr 10:00-20:00; Sa 10:00-18:00; Su 12:00-17:00,Scrubs and Beyond,Q119972011
15824090828195602649,sleep_number_us,Sleep Number,,Portage,MI,,US,,https://www.sleepnumber.com/stores/mi/portage/6409-s-westnedge-ave,Mo-Th 10:00-19:00; Fr-Sa 10:00-20:00; Su 11:00-19:00,Sleep Number,Q7447640
248,steak_n_shake,Steak n Shake,,Portage,MI,,US,+1 269-345-1488,https://www.steaknshake.com/locations/mi-portage-s-westnedge/,,Steak N Shake,Q7605233
https://restaurants.subway.com/#14906150,subway,Subway,,Portage Kalamazoo,MI,,US,+1 269-341-9355,https://restaurants.subway.com/united-states/mi/portage/5252-portage-rd,Mo-We 09:00-21:00; Th-Fr 08:00-21:00; Sa-Su 09:00-20:00,Subway,Q244457
https://restaurants.subway.com/#14898232,subway,Subway,,Portage Kalamazoo,MI,,US,+1 269-324-7827,https://restaurants.subway.com/united-states/mi/portage/1256-e-centre-st,Mo-Su 08:00-21:00,Subway,Q244457
82642,supercuts,Portage Crossings Center,6749 S Westnedge Ave,Portage,MI,,US,+1 269-329-1311,https://www.supercuts.com/checkin/82642,Mo-Fr 09:00-20:00; Sa 09:00-17:00; Su 10:00-17:00,Supercuts,Q7643239
https://locations.tacobell.com/#6142683,taco_bell,Taco Bell,,Portage,MI,,US,+1 269-329-1266,https://locations.tacobell.com/mi/portage/6314-s--westnedge.html,Mo-Su 07:00-01:00,Taco Bell,Q752941
https://locations.tacobell.com/#6143113,taco_bell,Taco Bell,,Kalamazoo,MI,,US,+1 269-385-5972,https://locations.tacobell.com/mi/kalamazoo/5301-portage-road.html,Mo-Su 07:00-24:00,Taco Bell,Q752941
2875,tjx,Portage (Kalamazoo),5050 South Westnedge,Portage (Kalamazoo),MI,,US,+1 269-337-0829,,Mo-Sa 09:30-21:30; Su 10:00-20:00,HomeGoods,Q5887941
5727,tmobile_us,Westnedge Ave & Ruth,,Portage,MI,,US,+1 269-216-7127,https://www.t-mobile.com/store-locator/mi/portage/westnedge-ave-ruth,,T-Mobile,Q3511885
3B70,tmobile_us,Sam's Club Portage MI,,Portage,MI,,US,+1 269-601-9973,https://www.t-mobile.com/store-locator/mi/portage/sams-club-portage-mi,,T-Mobile,Q3511885
0991,upsstore,Portage,6749 S Westnedge Ave Ste K,Portage,MI,,US,+1 269-327-3166,https://locations.theupsstore.com/mi/portage/6749-s-westnedge-ave,,UPS Store,Q7771029
4900200021,usps_collection_boxes,USPS COLLECTION BOX - BLUE BOX,8901 PORTAGE RD,PORTAGE,MI,,US,,,,United States Postal Service,Q668687
4900200044,usps_collection_boxes,USPS COLLECTION BOX - BLUE BOX,7920 PORTAGE RD,PORTAGE,MI,,US,,,,United States Postal Service,Q668687
4900200043,usps_collection_boxes,USPS COLLECTION BOX - BLUE BOX,4169 COMMERCIAL AVE,PORTAGE,MI,,US,,,,United States Postal Service,Q668687
4900200002,usps_collection_boxes,USPS COLLECTION BOX - BLUE BOX,1267 BLUE BROOK LN,PORTAGE,MI,,US,,,,United States Postal Service,Q668687
4900200087,usps_collection_boxes,USPS COLLECTION BOX - BLUE BOX,5419 MEREDITH ST,PORTAGE,MI,,US,,,,United States Postal Service,Q668687
4900200007,usps_collection_boxes,USPS COLLECTION BOX - BLUE BOX,7941 S WESTNEDGE AVE,PORTAGE,MI,,US,,,,United States Postal Service,Q668687
4900200006,usps_collection_boxes,USPS COLLECTION BOX - BLUE BOX,7900 S WESTNEDGE AVE,PORTAGE,MI,,US,,,,United States Postal Service,Q668687
4900200097,usps_collection_boxes,USPS COLLECTION BOX - BLUE BOX,8550 SHAVER RD,PORTAGE,MI,,US,,,,United States Postal Service,Q668687
4900200016,usps_collection_boxes,USPS COLLECTION BOX - BLUE BOX,5124 S SPRINKLE RD,PORTAGE,MI,,US,,,,United States Postal Service,Q668687
4900200005,usps_collection_boxes,USPS COLLECTION BOX - BLUE BOX,7616 S WESTNEDGE AVE,PORTAGE,MI,,US,,,,United States Postal Service,Q668687
4900200098,usps_collection_boxes,USPS COLLECTION BOX - BLUE BOX,951 W CENTRE AVE,PORTAGE,MI,,US,,,,United States Postal Service,Q668687
4900200099,usps_collection_boxes,USPS COLLECTION BOX - BLUE BOX,951 W CENTRE ST,PORTAGE,MI,,US,,,,United States Postal Service,Q668687
4900200008,usps_collection_boxes,USPS COLLECTION BOX - BLUE BOX,7117 S WESTNEDGE AVE,PORTAGE,MI,,US,,,,United States Postal Service,Q668687
4900200092,usps_collection_boxes,USPS COLLECTION BOX - BLUE BOX,5235 PORTAGE RD,PORTAGE,MI,,US,,,,United States Postal Service,Q668687
4900200015,usps_collection_boxes,USPS COLLECTION BOX - BLUE BOX,6749 S WESTNEDGE AVE,PORTAGE,MI,,US,,,,United States Postal Service,Q668687
4900200091,usps_collection_boxes,USPS COLLECTION BOX - BLUE BOX,525 ROMENCE RD,PORTAGE,MI,,US,,,,United States Postal Service,Q668687
4900200028,usps_collection_boxes,USPS COLLECTION BOX - BLUE BOX,1615 W CENTRE AVE,PORTAGE,MI,,US,,,,United States Postal Service,Q668687
4900200012,usps_collection_boxes,USPS COLLECTION BOX - BLUE BOX,6772 S WESTNEDGE AVE,PORTAGE,MI,,US,,,,United States Postal Service,Q668687
4900200018,usps_collection_boxes,USPS COLLECTION BOX - BLUE BOX,425 DELTA CT,PORTAGE,MI,,US,,,,United States Postal Service,Q668687
4900200024,usps_collection_boxes,USPS COLLECTION BOX - BLUE BOX,640 ROMENCE RD,PORTAGE,MI,,US,,,,United States Postal Service,Q668687
4900200069,usps_collection_boxes,USPS COLLECTION BOX - BLUE BOX,800 E MILHAM AVE,PORTAGE,MI,,US,,,,United States Postal Service,Q668687
4900200090,usps_collection_boxes,USPS COLLECTION BOX - BLUE BOX,1950 W CENTRE AVE,PORTAGE,MI,,US,,,,United States Postal Service,Q668687
4900200013,usps_collection_boxes,USPS COLLECTION BOX - BLUE BOX,6650 S WESTNEDGE AVE,PORTAGE,MI,,US,,,,United States Postal Service,Q668687
4900200014,usps_collection_boxes,USPS COLLECTION BOX - BLUE BOX,6330 S WESTNEDGE AVE,PORTAGE,MI,,US,,,,United States Postal Service,Q668687
4900200003,usps_collection_boxes,USPS COLLECTION BOX - BLUE BOX,5084 LOVERS LN,PORTAGE,MI,,US,,,,United States Postal Service,Q668687
4900200037,usps_collection_boxes,USPS COLLECTION BOX - BLUE BOX,5121 S WESTNEDGE AVE,PORTAGE,MI,,US,,,,United States Postal Service,Q668687
4900200019,usps_collection_boxes,USPS COLLECTION BOX - BLUE BOX,3774 W CENTRE AVE,PORTAGE,MI,,US,,,,United States Postal Service,Q668687
portage_oil-change-030030,valvoline_instant_oil_change,Valvoline,6425 s Westnedge Ave ,Portage,MI,,US,+1 269-220-6855,https://store.vioc.com/mi/portage/oil-change-030030.html,,Valvoline Instant Oil Change,Q7912852
https://vcahospitals.com/portage,vca,VCA Portage Animal Hospital,,Portage,MI,,US,+1 269-327-3459,https://vcahospitals.com/portage,Mo-Fr 08:00-17:00,VCA,Q7906620
R00000153612,verizon_us,Portage MI,,Portage,MI,,US,+1 269-327-0402,https://www.verizon.com/stores/details/michigan/portage/portage-325257/,Mo-Fr 10:00-20:00; Sa 09:00-19:00; Su 10:00-17:00,Verizon,Q919641
,visa,,,PORTAGE,MI,,US,,,,,
,visa,,,PORTAGE,MI,,US,,,,,
,visa,,,MACOMB TWNSHP,MI,,US,,,,,
,visa,,,TROY,MI,,US,,,,,
,visa,,,FLINT,MI,,US,,,,,
,visa,,,MIDLAND,MI,,US,,,,,
,visa,,,KALAMAZOO,MI,,US,,,,,
,visa,,,KALAMAZOO,MI,,US,,,,,
,visa,,,KALAMAZOO,MI,,US,,,,,
,visa,,,KALAMAZOO,MI,,US,,,,,
,visa,,,PORTAGE,MI,,US,,,,,
,visa,,,PORTAGE,MI,,US,,,,,
,visa,,,PORTAGE,MI,,US,,,,,
,visa,,,PORTAGE,MI,,US,,,,,
,visa,,,PORTAGE,MI,,US,,,,,
,visa,,,PORTAGE,MI,,US,,,,,
,visa,,,PORTAGE,MI,,US,,,,,
,visa,,,PORTAGE,MI,,US,,,,,
,visa,,,PORTAGE,MI,,US,,,,,
,visa,,,PORTAGE,MI,,US,,,,,
,visa,,,PORTAGE,MI,,US,,,,,
,visa,,,PORTAGE,MI,,US,,,,,
,visa,,,PORTAGE,MI,,US,,,,,
,visa,,,PORTAGE,MI,,US,,,,,
,visa,,,PORTAGE,MI,,US,,,,,
,visa,,,PORTAGE,MI,,US,,,,,
,visa,,,PORTAGE,MI,,US,,,,,
,visa,,,PORTAGE,MI,,US,,,,,
,visa,,,PORTAGE,MI,,US,,,,,
,visa,,,PORTAGE,MI,,US,,,,,
,visa,,,PORTAGE,MI,,US,,,,,
,visa,,,PORTAGE,MI,,US,,,,,
,visa,,,PORTAGE,MI,,US,,,,,
,visa,,,PORTAGE,MI,,US,,,,,
,visa,,,KALAMAZOO,MI,,US,,,,,
,visa,,,PORTAGE,MI,,US,,,,,
,visa,,,PORTAGE,MI,,US,,,,,
,visa,,,PORTAGE,MI,,US,,,,,
,visa,,,PORTAGE,MI,,US,,,,,
,visa,,,PORTAGE,MI,,US,,,,,
,visa,,,PORTAGE,MI,,US,,,,,
,visa,,,KALAMAZOO,MI,,US,,,,,
,visa,,,PORTAGE,MI,,US,,,,,
,visa,,,PORTAGE,MI,,US,,,,,
,visa,,,PORTAGE,MI,,US,,,,,
,visa,,,PORTAGE,MI,,US,,,,,
,visa,,,PORTAGE,MI,,US,,,,,
,visa,,,PORTAGE,MI,,US,,,,,
,visa,,,PORTAGE,MI,,US,,,,,
,visa,,,PORTAGE,MI,,US,,,,,
,visa,,,PORTAGE,MI,,US,,,,,
,visa,,,PORTAGE,MI,,US,,,,,
,visa,,,PORTAGE,MI,,US,,,,,
,visa,,,PORTAGE,MI,,US,,,,,
,visa,,,PORTAGE,MI,,US,,,,,
,visa,,,PORTAGE,MI,,US,,,,,
,visa,,,PORTAGE,MI,,US,,,,,
,visa,,,KALAMAZOO,MI,,US,,,,,
,visa,,,PORTAGE,MI,,US,,,,,
,visa,,,GRAND RAPIDS,MI,,US,,,,,
,visa,,,KALAMAZOO,MI,,US,,,,,
,visa,,,PORTAGE,MI,,US,,,,,
,visa,,,PORTAGE,MI,,US,,,,,
,visa,,,PORTAGE,MI,,US,,,,,
,visa,,,PORTAGE,MI,,US,,,,,
,visa,,,PORTAGE,MI,,US,,,,,
,visa,,,PORTAGA,MI,,US,,,,,
,visa,,,PORTAGE,MI,,US,,,,,
,visa,,,PORTAGE,MI,,US,,,,,
,visa,,,PORTAGE,MI,,US,,,,,
,visa,,,PORTAGE,MI,,US,,,,,
,visa,,,PORTAGE,MI,,US,,,,,
,visa,,,KALAMAZOO,MI,,US,,,,,
,visa,,,PORTAGE,MI,,US,,,,,
,visa,,,PORTAGE,MI,,US,,,,,
,visa,,,PORTAGE,MI,,US,,,,,
https://www.walgreens.com/locator/walgreens-5933+s+westnedge+ave-portage-mi-49002/id=10081,walgreens,Walgreens,,Portage,MI,,US,+1 269-381-4862,https://www.walgreens.com/locator/walgreens-5933+s+westnedge+ave-portage-mi-49002/id=10081,Mo-Sa 07:00-22:00; Su 08:00-22:00,Walgreens,Q1591889
https://locations.wendys.com/#9253242,wendys,"Wendy's Westnedge #3 in Portage, MI",,Portage,MI,,US,+1 269-345-4794,https://locations.wendys.com/united-states/mi/portage/5830-westnedge-ave-south,"Mo-Su 06:30-10:30,06:30-22:00",Wendy's,Q550258
219686,wingstop,Wingstop Portage S. Westnedge Ave,5228B S. Westnedge Ave,Portage,MI,,US,+1 269-224-4346,,,Wingstop,Q8025339
