Ref,Spider,Name,Address,City,State,Zipcode,Country,Phone,Website,Hours,Brand,WikiData
72486908,moneygram,ARYAN HOLIDAYS - DELHI - DELHI,,DELHI,,,IN,+91 92114 22474,,Mo-Su 08:00-22:00,MoneyGram,Q1944412
72591673,moneygram,BHOOMI TRAVELS,,DELHI,,,IN,+91 93101 04777,,Mo-Su 08:00-21:00,MoneyGram,Q1944412
73274313,moneygram,MUTHOOT FINANCE LTD - #2410 - WEST DELHI,,WEST DELHI,,,IN,+91 91278 82371,,Mo-Su 09:00-19:00,MoneyGram,Q1944412
73276890,moneygram,MUTHOOT FINANCE LTD - #2701 - WEST DELHI,,WEST DELHI,,,IN,+91 91278 82711,,Mo-Su 09:00-19:00,MoneyGram,Q1944412
73277129,moneygram,MUTHOOT FINANCE LTD - #2727 - CENTRAL DE,,CENTRAL DELHI,,,IN,+91 91278 12180,,Mo-Su 09:00-19:00,MoneyGram,Q1944412
73318499,moneygram,MUTHOOT FINCORP LIMITED - #F1719 - BADLI,,NORTH DELHI,,,IN,+91 11 2785 0874,,Mo-Sa 09:00-17:30; Su 00:00-24:00,MoneyGram,Q1944412
73337357,moneygram,MUTHOOT FINCORP LIMITED - #F4134 - SWARO,,NORTH DELHI,,,IN,+91 11 2781 2987,,Mo-Sa 09:00-17:30; Su 00:00-24:00,MoneyGram,Q1944412
72975930,moneygram,RUCHIKA,,DELHI,,,IN,+91 85276 31549,,Mo-Su 08:00-21:00,MoneyGram,Q1944412
73412269,moneygram,IRSHAD,,DELHI,,,IN,+91 89294 60207,,Mo-Su 08:00-21:00,MoneyGram,Q1944412
73397151,moneygram,MOHIT GUPTA 22,,DELHI,,,IN,+91 92137 08785,,Mo-Su 08:00-21:00,MoneyGram,Q1944412
73398189,moneygram,NITISH YADAV,,DELHI,,,IN,+91 95551 30046,,Mo-Su 08:00-21:00,MoneyGram,Q1944412
73400860,moneygram,RINKI DEVI,,DELHI,,,IN,+91 97189 69131,,Mo-Su 08:00-21:00,MoneyGram,Q1944412
73440435,moneygram,AMAN GUPTA,,DELHI,,,IN,+91 99673 04867,,Mo-Su 08:00-21:00,MoneyGram,Q1944412
73424477,moneygram,HARSH TELECOM,,DELHI,,,IN,+91 88009 86821,,Mo-Su 08:00-21:00,MoneyGram,Q1944412
73424516,moneygram,SUMEET FINANCIAL SERVICES,,DELHI,,,IN,+91 88022 14148,,Mo-Su 08:00-21:00,MoneyGram,Q1944412
73450328,moneygram,MAHESH KAUSHIK,,DELHI,,,IN,+91 99117 48195,,Mo-Su 08:00-21:00,MoneyGram,Q1944412
73499347,moneygram,MUTHOOT FINCORP LIMITED - #F4249 - SHAHB,,NORTH WEST DELHI,,,IN,+91 95996 03622,,Mo-Sa 09:00-17:30; Su 00:00-24:00,MoneyGram,Q1944412
73536129,moneygram,ARYAN HOLIDAY,,NORTH DELHI,,,IN,+91 98189 81641,,Mo-Su 08:00-21:00,MoneyGram,Q1944412
73543578,moneygram,BHAVESH LALWANI,,DELHI,,,IN,+91 97167 51999,,Mo-Su 08:00-21:00,MoneyGram,Q1944412
73642369,moneygram,HUM TUM MOBILE & GIFT SHOP (DELHI)-IBP,,DELHI,,,IN,+91 98910 23768,,Mo-Su 08:00-21:00,MoneyGram,Q1944412
73647966,moneygram,PATEL ELECTRICALS (NEW DELHI)-IBP,,DELHI,,,IN,+91 98687 92942,,Mo-Su 08:00-21:00,MoneyGram,Q1944412
73747921,moneygram,SANJAY ELECTRICAL,,DELHI,,,IN,+91 98994 39949,,Mo-Su 08:00-21:00,MoneyGram,Q1944412
73815659,moneygram,GALAXY CYBER WORLD,,DELHI,,,IN,+91 95401 73272,,Mo-Su 08:00-21:00,MoneyGram,Q1944412
73828727,moneygram,SAI SAHIB UTILITY SERVICES,,DELHI,,,IN,+91 99113 02260,,Mo-Su 08:00-21:00,MoneyGram,Q1944412
73046790,moneygram,BABBAN,,DELHI,,,IN,+91 93506 21766,,Mo-Su 08:00-21:00,MoneyGram,Q1944412
73046279,moneygram,BRIJESH,,DELHI,,,IN,+91 98919 09210,,Mo-Su 08:00-21:00,MoneyGram,Q1944412
74187548,moneygram,GARG COMMUNICATION,,NEW DELHI,,,IN,+91 99100 11732,,Mo-Su 08:00-21:00,MoneyGram,Q1944412
74198579,moneygram,BETALING FINTECH SOLUTIONS PRIVATE LTD,,DELHI,,,IN,+91 98934 00643,,Mo-Su 08:00-21:00,MoneyGram,Q1944412
74602913,moneygram,TAJ E DOCUMENTS SOLUTION,,NEW DELHI,,,IN,+91 99717 99164,,Mo-Su 08:00-21:00,MoneyGram,Q1944412
