Ref,Spider,Name,Address,City,State,Zipcode,Country,Phone,Website,Hours,Brand,WikiData
72490020,moneygram,NASIR E MITRA - DIDWANA - DIDWANA,,DIDWANA,,,IN,+91 99508 21616,,Mo-Su 09:00-22:00,MoneyGram,Q1944412
72530074,moneygram,SHREE COMMUNICATION,,DIDWANA,,,IN,+91 63765 01438,,Mo-Su 08:00-21:00,MoneyGram,Q1944412
72604599,moneygram,M/S MEHBOOB ALI KHAN,,DIDWANA,,,IN,+91 90011 02500,,Mo-Su 08:00-21:00,MoneyGram,Q1944412
72589180,moneygram,CHAR BHUJA FOREX AND TRAVELS,,NAGAUR,,,IN,+91 98288 35363,,Mo-Su 08:00-21:00,MoneyGram,Q1944412
72591398,moneygram,RAJAK ENTERPRISES,,DIDWANA,,,IN,+91 96805 00213,,Mo-Su 08:00-21:00,MoneyGram,Q1944412
72598016,moneygram,SUMAN PHOTO STUDIO,,DIDWANA,,,IN,+91 97852 63551,,Mo-Su 08:00-21:00,MoneyGram,Q1944412
68914442,moneygram,SAINI ENTERPRISES,,DIDWANA,,,IN,+91 94139 25645,,Mo-Su 08:00-22:00,MoneyGram,Q1944412
72895557,moneygram,M S MOHD JAKIR,,NAGAUR,,,IN,+91 99291 84958,,Mo-Su 08:00-21:00,MoneyGram,Q1944412
72894574,moneygram,SAJID E MITRA,,DIDWANA,,,IN,+91 95656 08226,,Mo-Su 08:00-21:00,MoneyGram,Q1944412
73049292,moneygram,ABUHAFSA TRAVELS - DIDWANA - DIDWANA,,DIDWANA,,,IN,+91 98280 25633,,Mo-Su 09:00-22:00,MoneyGram,Q1944412
73049289,moneygram,DANISH KUTUBKHANA - DIDWANA - NAGAUR,,DIDWANA,,,IN,+91 97853 14986,,Mo-Su 09:00-22:00,MoneyGram,Q1944412
73298674,moneygram,MUTHOOT FINANCE LTD - #5100 - NAGAUR - D,,NAGAUR,,,IN,+91 1580 294 125,,Mo-Su 09:00-19:00,MoneyGram,Q1944412
73410517,moneygram,SHARMA BROTHERS,,DIDWANA,,,IN,+91 99509 73557,,Mo-Su 08:00-21:00,MoneyGram,Q1944412
73411053,moneygram,VISHNU ENTERPRISES,,NAGAUR,,,IN,+91 77374 66907,,Mo-Su 08:00-21:00,MoneyGram,Q1944412
73439381,moneygram,LAXMI MEDICAL STORE,,NAGAUR,,,IN,+91 94131 70245,,Mo-Su 08:00-21:00,MoneyGram,Q1944412
73429469,moneygram,CHOUDHARY GENERAL STORE,,NAGAUR,,,IN,+91 75976 46361,,Mo-Su 08:00-21:00,MoneyGram,Q1944412
73427432,moneygram,GOLDEN EYE,,DIDWANA,,,IN,+91 99823 24989,,Mo-Su 08:00-21:00,MoneyGram,Q1944412
73430199,moneygram,RONAK TELECOM,,NAGAUR,,,IN,+91 77423 81801,,Mo-Su 08:00-21:00,MoneyGram,Q1944412
73499376,moneygram,MUTHOOT FINCORP LIMITED - #F4225 - DIDWA,,NAGAUR,,,IN,+91 1580 294 024,,Mo-Sa 09:00-17:30; Su 00:00-24:00,MoneyGram,Q1944412
73641881,moneygram,FIDA MOBILE & E MITRA SERVICE,,DIDWANA,,,IN,+91 89034 51634,,Mo-Su 08:00-21:00,MoneyGram,Q1944412
73638988,moneygram,SAINI ENTERPRISES,,DIDWANA,,,IN,+91 94139 25645,,Mo-Su 08:00-21:00,MoneyGram,Q1944412
73649032,moneygram,SAJID TRAVELS,,NAGAUR,,,IN,+91 94145 48080,,Mo-Su 08:00-21:00,MoneyGram,Q1944412
73665045,moneygram,AARTI AGENCIES,,DIDWANA,,,IN,+91 98285 73824,,Mo-Su 08:00-21:00,MoneyGram,Q1944412
73799814,moneygram,M.S.COMPUTER CENTRE,,NAGAUR,,,IN,+91 98281 45705,,Mo-Su 08:00-21:00,MoneyGram,Q1944412
73929600,moneygram,KUMAWAT TELECOM,,MAWA,,,IN,+91 99824 47568,,Mo-Su 08:00-21:00,MoneyGram,Q1944412
73799610,moneygram,SHARMA BROTHERS,,NAGAUR,,,IN,+91 99823 57134,,Mo-Su 08:00-21:00,MoneyGram,Q1944412
73666060,moneygram,JAMIL ENTERPRISES,,NAGAUR,,,IN,+91 99828 27586,,Mo-Su 08:00-21:00,MoneyGram,Q1944412
74083875,moneygram,EQUITAS SMALL FINANCE BANK,,NAGAUR,,,IN,+91 98408 15178,,Mo-Sa 10:00-17:00; Su 00:00-24:00,MoneyGram,Q1944412
74084065,moneygram,EQUITAS SMALL FINANCE BANK,,NAGAUR,,,IN,+91 98408 15178,,Mo-Sa 10:00-17:00; Su 00:00-24:00,MoneyGram,Q1944412
74184583,moneygram,KHANDELWAL AGENCIES,,NAGAUR,,,IN,+91 94133 65544,,Mo-Su 08:00-21:00,MoneyGram,Q1944412
74465529,moneygram,SHIVAM COMPUTERS,,DIDWANA,,,IN,+91 97837 52262,,Mo-Su 08:00-21:00,MoneyGram,Q1944412
74590504,moneygram,LUNA E MITRA,,CHHAPRI KALAN,,,IN,+91 95879 50892,,Mo-Su 08:00-21:00,MoneyGram,Q1944412
67280795,moneygram,SAJID TRAVELS,,DIDWANA,,,IN,+91 1580 220 243,,Mo-Su 09:30-23:00,MoneyGram,Q1944412
71453495,moneygram,KOTWAL ENTERPRISES - NAGUAR - NAGUAR,,NAGUAR,,,IN,+91 89638 43786,,Mo-Su 08:00-20:00,MoneyGram,Q1944412
