Ref,Spider,Name,Address,City,State,Zipcode,Country,Phone,Website,Hours,Brand,WikiData
72288986,moneygram,RD PAWNSHOP INC. - #1964 - PANDI 1 BULA,,PANDI,,,PH,+63 977 266 3013,,Mo-Sa 08:00-18:00; Su 09:00-17:00,MoneyGram,Q1944412
72288999,moneygram,RD PAWNSHOP INC. - #1965 - PANDI 2 BULA,,PANDI,,,PH,+63 977 266 3011,,Mo-Sa 08:00-18:00; Su 09:00-17:00,MoneyGram,Q1944412
72309784,moneygram,PALAWAN PAWNSHOP - #ETD - PANDI - BULACA,,PANDI,,,PH,+63 48 433 4110,,Mo-Su 08:00-17:30,MoneyGram,Q1944412
72570979,moneygram,USSC - #10542 - BULACAN - PANDI PUREGOLD,,PANDI,,,PH,+63 44 309 5457,,Mo-Su 08:30-18:30,MoneyGram,Q1944412
69406810,moneygram,M LHUILLIER - BUNSURAN PANDI BULACAN,,PANDI,,,PH,+63 32 348 9400,,Mo-Su 07:00-18:00,MoneyGram,Q1944412
73872511,moneygram,HRV VILLARICA PAWNSHOP - #PSH090 - HRV V,,PANDI,,,PH,87026350,,Mo-Sa 07:00-19:00; Su 08:00-17:00,MoneyGram,Q1944412
73901709,moneygram,VILLARICA PAWNSHOP - #PSE148 - VILLARICA,,PANDI,,,PH,87026350,,Mo-Sa 07:00-19:00; Su 08:00-17:00,MoneyGram,Q1944412
73906568,moneygram,HL VILLARICA PAWNSHOP - #PSG099 - HL VIL,,PANDI,,,PH,87026350,,Mo-Sa 07:00-19:00; Su 08:00-17:00,MoneyGram,Q1944412
70170135,moneygram,CEBUANA LHUILLIER - CLH PANDI,,PANDI,,,PH,27799800,,Mo-Su 08:00-18:00,MoneyGram,Q1944412
72506286,moneygram,LBC - #749 - PANDI - PANDI,,PANDI,,,PH,8527239,,Mo-Sa 08:00-17:00; Su 00:00-24:00,MoneyGram,Q1944412
73778851,moneygram,LBC - #SNM11 - PANDI - BUNSURAN,,PANDI,,,PH,28527239,,Mo-Su 07:00-22:00,MoneyGram,Q1944412
74023505,moneygram,CEBUANA LHUILLIER - #62287 - PANDI - CLH,,PANDI,,,PH,6327799803,,Mo-Su 07:00-23:00,MoneyGram,Q1944412
74098682,moneygram,CEBUANA LHUILLIER - #62311 - PANDI - CLH,,PANDI,,,PH,6327799803,,Mo-Su 07:00-23:00,MoneyGram,Q1944412
74474507,moneygram,CEBUANA LHUILLIER - #62778 - PANDI - CLH,,PANDI,,,PH,6397799803,,Mo-Su 07:00-23:00,MoneyGram,Q1944412
74531372,moneygram,PALAWAN PAWNSHOP - #GVJ - PSB-BULACAN-PA,,PANDI,,,PH,+63 48 433 4110,,Mo-Su 08:00-17:30,MoneyGram,Q1944412
74708707,moneygram,RURAL BANK OF SAN PASCUAL - #1709 - PAND,,PANDI,,,PH,044448122258,,Mo-Sa 08:00-18:00; Su 08:00-17:00,MoneyGram,Q1944412
74960040,moneygram,BANCO DE ORO UNIBANK - #RBA2S - BULACAN,,PANDI,,,PH,87026350,,Mo-Sa 08:00-17:30; Su 00:00-24:00,MoneyGram,Q1944412
74960118,moneygram,BANCO DE ORO UNIBANK - #RBA2N - BULACAN,,PANDI,,,PH,87026350,,Mo-Sa 08:00-17:30; Su 00:00-24:00,MoneyGram,Q1944412
70767645,moneygram,PALAWAN PAWNSHOP - #CVW - BULACAN - PAND,,BULACAN,,,PH,+63 48 433 4110,,Mo-Su 08:00-17:30,MoneyGram,Q1944412
70810592,moneygram,PALAWAN PAWNSHOP - #DFB - PANDI - BUNSUR,,PANDI,,,PH,+63 48 433 4110,,Mo-Su 08:00-17:30,MoneyGram,Q1944412
70994670,moneygram,M LHUILLIER - PANDI 2 BULACAN,,PANDI,,,PH,+63 32 348 9400,,Mo-Su 07:00-18:00,MoneyGram,Q1944412
66873019,moneygram,M LHUILLIER - PANDI BULACAN,,PANDI,,,PH,+63 32 348 9400,,Mo-Su 07:00-19:00,MoneyGram,Q1944412
PH_420,totalenergies,FBT - Pandi,,Pandi,,,PH,,https://store.totalenergies.fr/en_EN/PH_420,,Filoil,
