Ref,Spider,Name,Address,City,State,Zipcode,Country,Phone,Website,Hours,Brand,WikiData
https://stores.advanceautoparts.com/mi/williamsburg/3939-m-72-e,advance_auto_parts_us,Advance Auto Parts,,Williamsburg,MI,,US,+1 231-715-3323,https://stores.advanceautoparts.com/mi/williamsburg/3939-m-72-e,Mo-Sa 07:30-21:00; Su 09:00-20:00,Advance Auto Parts,Q4686051
189808,bluerhino,Ace Hardware-Acme #8811,,Williamsburg,MI,,US,+1 231-938-2021,,,Blue Rhino,Q65681213
TRAVMIMF,builders_firstsource_us,Traverse City Truss,,Williamsburg,MI,,US,+1 231-267-9700,https://www.bldr.com/location/traverse-city-truss/TRAVMIMF,Mo-Fr 08:00-17:00,Builders FirstSource,Q27686100
79600,citi,ATM SPEEDWAY #8700,,Acme,MI,,US,,,,Citibank,Q857063
78711,citi,ATM Speedway,,Acme,MI,,US,,,,Citibank,Q857063
200324980,exxonmobil,TURTLE CREEK MARKET,,WILLIAMSBURG,MI,,US,,https://www.exxon.com/en/find-station/mobil-williamsburg-mi-turtlecreekmarket-200324980,Mo-Su 06:00-23:00,Mobil,Q109676002
e86eb961-d550-e211-90b0-0050568924e6,goodwill,Acme Retail and Donation Center,,Williamsburg,MI,,US,+1 231-938-7042,https://www.goodwill.org/locator/location/?store=ZTg2ZWI5NjEtZDU1MC1lMjExLTkwYjAtMDA1MDU2ODkyNGU2&lat=NDQuNzczNDE=&lng=LTg1LjQ5OTY2,,Goodwill,Q5583655
44454,seven_eleven_ca_us,7-Eleven,,Williamsburg,MI,,US,+1 231-938-1920,https://www.7-eleven.com/locations/mi/williamsburg/5980-us-31-north-44454,,7-Eleven,Q259340
1387736,usps,WILLIAMSBURG,,WILLIAMSBURG,MI,,US,+1 231-267-5071,,"Mo-Fr 09:00-12:00,13:00-16:30",United States Postal Service,Q668687
4969000002,usps_collection_boxes,USPS COLLECTION BOX - BLUE BOX,6042 ACME RD,WILLIAMSBURG,MI,,US,,,,United States Postal Service,Q668687
4969000003,usps_collection_boxes,USPS COLLECTION BOX - PO LOBBY,8344 OLD M 72,WILLIAMSBURG,MI,,US,,,,United States Postal Service,Q668687
4969000006,usps_collection_boxes,USPS COLLECTION BOX - PO LOBBY,8344 OLD M 72,WILLIAMSBURG,MI,,US,,,,United States Postal Service,Q668687
4969000001,usps_collection_boxes,USPS COLLECTION BOX - BLUE BOX,8344 OLD M 72,WILLIAMSBURG,MI,,US,,,,United States Postal Service,Q668687
,visa,,,WILLIAMSBURG,MI,,US,,,,,
,visa,,,WILLIAMSBURG,MI,,US,,,,,
,visa,,,WILLIAMSBURG,MI,,US,,,,,
,visa,,,WILLIAMSBURG,MI,,US,,,,,
,visa,,,WILLIAMSBURG,MI,,US,,,,,
,visa,,,ACME,MI,,US,,,,,
,visa,,,ACME,MI,,US,,,,,
,visa,,,WILLIAMSBURG,MI,,US,,,,,
,visa,,,WILLIAMSBURG,MI,,US,,,,,
47b1500d2879742afc999b85703a0fc6,western_union,7-ELEVEN/SPEEDWAY #44454,,Williamsburg,MI,,US,+1 231-938-1920,https://location.westernunion.com/us/mi/williamsburg/47b1500d2879742afc999b85703a0fc6,,Western Union,Q861042
