Ref,Spider,Name,Address,City,State,Zipcode,Country,Phone,Website,Hours,Brand,WikiData
205906,bluerhino,Rite Aid #01494,,Northern Cambria,PA,,US,+1 814-948-6102,,,Blue Rhino,Q65681213
223296,bluerhino,Giant Eagle #1682,,Northern Cambria,PA,,US,+1 814-948-8360,,,Blue Rhino,Q65681213
72675,citi,ATM Rite Aid,,Northern Cambria,PA,,US,,,,Citibank,Q857063
68486,citi,ATM PNC AT SHEETZ,,Northern Cambria,PA,,US,,,,Citibank,Q857063
44892,citi,ATM CNB BANK,,Northern Cambria,PA,,US,,,,Citibank,Q857063
44891,citi,ATM CNB BANK,,North Cambria,PA,,US,,,,Citibank,Q857063
ATM-990,citizens_us,,,Northern Cambria,PA,,US,,,,Citizens,Q5122694
2062,dollar_general,Dollar General,,Northern Cambria,PA,,US,+1 814-420-4388,https://www.dollargeneral.com/store-directory/pa/northern-cambria/2062,Mo-Su 08:00-23:00,Dollar General,Q145168
/pennsylvania/northern-cambria/northern-cambria-office/920-philadelphia-ave/,fcbanking,First Commonwealth Bank - Northern Cambria Office,,Northern Cambria,PA,,US,+1 814-948-5000,https://www.fcbanking.com/branch-locations/pennsylvania/northern-cambria/northern-cambria-office/920-philadelphia-ave/,Mo-Fr 09:00-17:00; Sa 09:00-12:00,First Commonwealth Bank,Q5452773
1682,gianteagle,Northern Cambria Giant Eagle,,Northern Cambria,PA,,US,+1 814-948-8360,,Mo-Su 07:00-21:00,Giant Eagle,Q1522721
37085,h_r_block,H&R Block,,Northern Cambria,PA,,US,+1 814-948-6353,https://www.hrblock.com/local-tax-offices/pennsylvania/northern-cambria/3909-bigler-ave/37085/,,H&R Block,Q5627799
01494,rite_aid_us,Rite Aid #01494 Northern Cambria,,Northern Cambria,PA,,US,+1 814-948-6102,https://locations2.riteaid.com.yext-cdn.com/pa/northern-cambria/1120-philadelphia-avenue.html,Mo-Fr 09:00-21:00; Sa 09:00-18:00; Su 10:00-18:00,Rite Aid,Q3433273
https://restaurants.subway.com/#14913719,subway,Subway,,Northern Cambria Cambria,PA,,US,+1 814-948-8175,https://restaurants.subway.com/united-states/pa/northern-cambria/2910-bigler-ave,Mo-Sa 08:00-21:00; Su 09:00-21:00,Subway,Q244457
0545159600,sunoco_us,Sunoco,,NORTHERN CAMBRIA,PA,,US,+1 814-948-8806,,24/7,Sunoco,Q1423218
1354058,usps,NORTHERN CAMBRIA,,NORTHERN CAMBRIA,PA,,US,+1 814-948-8500,,Mo-Fr 09:00-16:45; Sa 09:00-12:00,United States Postal Service,Q668687
1571400003,usps_collection_boxes,USPS COLLECTION BOX - BLUE BOX,4025 CRAWFORD AVE,N CAMBRIA,PA,,US,,,,United States Postal Service,Q668687
1571400004,usps_collection_boxes,USPS COLLECTION BOX - BLUE BOX,7 COTTONWOOD ST,N CAMBRIA,PA,,US,,,,United States Postal Service,Q668687
1571400000,usps_collection_boxes,USPS COLLECTION BOX - BLUE BOX,4310 CRAWFORD AVE,N CAMBRIA,PA,,US,,,,United States Postal Service,Q668687
1571400005,usps_collection_boxes,USPS COLLECTION BOX - PO LOBBY,4310 CRAWFORD AVE,N CAMBRIA,PA,,US,,,,United States Postal Service,Q668687
1571400007,usps_collection_boxes,USPS COLLECTION BOX - PO LOBBY,4310 CRAWFORD AVE,N CAMBRIA,PA,,US,,,,United States Postal Service,Q668687
,visa,,,BARNESBORO,PA,,US,,,,,
,visa,,,BARNESBORO,PA,,US,,,,,
,visa,,,NORTHERN CAMBRIA,PA,,US,,,,,
,visa,,,NORTHERN CAMBRIA,PA,,US,,,,,
,visa,,,NORTHERN CAMBRIA,PA,,US,,,,,
,visa,,,NORTHERN CAMBRIA,PA,,US,,,,,
,visa,,,BARNSBORO,PA,,US,,,,,
,visa,,,NORTHERN CAMBRIA,PA,,US,,,,,
,visa,,,NORTHERN CAMBRIA,PA,,US,,,,,
,visa,,,BARNESBORO,PA,,US,,,,,
,visa,,,NORTHERN CAMBRIA,PA,,US,,,,,
,visa,,,NORTH CAMBRIA,PA,,US,,,,,
,visa,,,NORTHERN CAMBRIA,PA,,US,,,,,
,visa,,,NORTHERN CAMBRIA,PA,,US,,,,,
,visa,,,NORTH CAMBRIA,PA,,US,,,,,
,visa,,,N CAMBRIA,PA,,US,,,,,
,visa,,,SPANGLER,PA,,US,,,,,
,visa,,,NORTHERN CAMBRIA,PA,,US,,,,,
6d20222e7e227c897dabe0cd00fcc378,western_union,BI-LO FOODS #9729,,Northern Cambria,PA,,US,+1 814-948-5828,https://location.westernunion.com/us/pa/northern-cambria/6d20222e7e227c897dabe0cd00fcc378,Mo-Su 08:00-20:00,Western Union,Q861042
