Ref,Spider,Name,Address,City,State,Zipcode,Country,Phone,Website,Hours,Brand,WikiData
5176,anytime_fitness,Anytime Fitness,,Glendale,AZ,,US,+1 623-377-8440,https://www.anytimefitness.com/gyms/5176/glendale-az-85310/,,Anytime Fitness,Q4778364
https://locators.bankofamerica.com/az/glendale/financial-centers-glendale-13023.html,bankofamerica,Bank of America Financial Center & Drive-Thru ATM | 67th & Happy Valley,,Glendale,AZ,,US,+1 623-537-2440,https://locators.bankofamerica.com/az/glendale/financial-centers-glendale-13023.html,Mo-Fr 10:00-16:00,Bank of America,Q487907
152235,bluerhino,Walgreens #7110,,Glendale,AZ,,US,+1 623-561-5947,,,Blue Rhino,Q65681213
238795,bluerhino,Circle K #2705576,,Phoenix,AZ,,US,+1 623-825-1127,,,Blue Rhino,Q65681213
128858,bluerhino,Fry's #073,,Phoenix,AZ,,US,+1 623-561-8905,,,Blue Rhino,Q65681213
153845,bluerhino,Walgreens #4434,,Glendale,AZ,,US,+1 623-572-8122,,,Blue Rhino,Q65681213
238794,bluerhino,Circle K #2705322,,Phoenix,AZ,,US,+1 623-580-8890,,,Blue Rhino,Q65681213
10710,brookdale_us,Brookdale North Glendale,,Glendale,AZ,,US,+1 623-572-7400,https://www.brookdale.com/en/communities/brookdale-north-glendale.html,,Brookdale,Q4974387
2041053,chase_us,Happy Valley and 39th Ave - New branch,,Glendale,AZ,,US,+1 623-587-6494,https://locator.chase.com/az/glendale/3880-w-happy-valley-rd,Mo-Fr 09:00-17:00; Sa 09:00-14:00,Chase,Q524629
303767,chevron,Chevron Station #303767,3610 W PINNACLE PEAK RD,GLENDALE,AZ,,US,+1 623-587-0007,,,Chevron,Q319642
84472,citi,ATM TRANSFUND,,Phoenix,AZ,,US,,,,Citibank,Q857063
92402,citi,ATM Walgreens,,Glendale,AZ,,US,,,,Citibank,Q857063
89056,citi,ATM Walgreens,,Glendale,AZ,,US,,,,Citibank,Q857063
10615,cvs_us,CVS Pharmacy,,Glendale,AZ,,US,+1 623-582-7991,https://www.cvs.com/store-locator/glendale-az-pharmacies/5450-west-happy-valley-road-glendale-az-85310/storeid=10615,Mo-Th 08:00-22:00; Fr-Sa 08:00-23:00; Su 08:00-22:00,CVS Pharmacy,Q2078880
7576,dominos_pizza_us,Domino's Pizza,,Glendale,AZ,,US,+1 623-582-3332,https://pizza.dominos.com/arizona/glendale/3632-w-pinnacle-peak-rd-ste-c,Mo-Th 10:00-24:00; Fr-Sa 10:00-01:00; Su 10:00-24:00,Domino's,Q839466
DB621,dutchbros,Happy Valley,,Glendale,AZ,,US,,https://locations.dutchbros.com/dutch-bros-coffee-f5b342d7951d,Mo-Su 05:00-23:00,Dutch Bros. Coffee,Q5317253
https://www.edwardjones.com/us-en/financial-advisor/cody-schrader,edwardjones,Cody Schrader,,Glendale,AZ,,US,+1 623-434-6541,https://www.edwardjones.com/us-en/financial-advisor/cody-schrader,,Edward Jones,Q5343830
784292,firestone_auto_care,Firestone Complete Auto Care,,Glendale,AZ,,US,+1 623-738-0612,https://local.firestonecompleteautocare.com/arizona/glendale/6515-w-happy-valley-rd/,,Firestone,Q420837
3bd5bc97-d4dc-e511-a94f-005056890337,goodwill,23425 N 39th Dr Ste 101,,Phoenix,AZ,,US,+1 602-216-3904,https://www.goodwill.org/locator/location/?store=M2JkNWJjOTctZDRkYy1lNTExLWE5NGYtMDA1MDU2ODkwMzM3&lat=MzMuNjk5MTg=&lng=LTExMi4xNDE3OA==,,Goodwill,Q5583655
https://salons.greatclips.com/us/az/glendale/6635-w-happy-valley-rd,greatclips,Great Clips,,Glendale,AZ,,US,+1 623-537-4557,https://salons.greatclips.com/us/az/glendale/6635-w-happy-valley-rd,Mo-Fr 08:00-20:00; Sa-Su 08:00-18:00,Great Clips,Q5598967
https://salons.greatclips.com/us/az/glendale/3730-w-happy-valley-rd,greatclips,Great Clips,,Glendale,AZ,,US,+1 623-587-1424,https://salons.greatclips.com/us/az/glendale/3730-w-happy-valley-rd,Mo-Fr 08:00-20:00; Sa 08:00-18:00; Su 10:00-17:00,Great Clips,Q5598967
2373,h_r_block,H&R Block,,Glendale,AZ,,US,+1 623-362-0029,https://www.hrblock.com/local-tax-offices/arizona/glendale/6635-w-happy-valley-rd/2373/,,H&R Block,Q5627799
https://locations.kfc.com/#11250280,kfc,Chicken Nuggets Near Glendale,,Glendale,AZ,,US,,https://locations.kfc.com/az/glendale/6708-w-deer-valley-road-D212072/chickennugget,,KFC,Q524757
https://locations.kfc.com/#1001787243,kfc,Chicken Nuggets Near Glendale,,Glendale,AZ,,US,,https://locations.kfc.com/az/glendale/6708-w-deer-valley-road-40476/chickennugget,,KFC,Q524757
61629,little_free_library,Courtney Taylor #61629 Glendale AZ,,Glendale,AZ,,US,,,,Little Free Library,Q6650101
128545,little_free_library,Little Free Library at Q #128545 Glendale AZ,,Glendale,AZ,,US,,,,Little Free Library,Q6650101
97744,little_free_library,Khloeâ€™s Little Free Library #97744 Glendale AZ,,Glendale,AZ,,US,,,,Little Free Library,Q6650101
https://locations.quiktrip.com/#23379832,quiktrip_us,QuikTrip Store #1435 3510 W Happy Valley Rd,,Glendale,AZ,,US,+1 480-606-5694,https://locations.quiktrip.com/az/glendale/3510-w-happy-valley-rd,24/7,QuikTrip,Q7271953
https://local.safeway.com/#5604481,safeway,Safeway,,Glendale,AZ,,US,+1 623-518-1946,https://local.safeway.com/safeway/az/glendale/3800-w-happy-valley-rd.html,,Safeway,Q1508234
https://local.pharmacy.safeway.com/#5673569,safeway,Safeway Pharmacy,,Glendale,AZ,,US,+1 623-518-1951,https://local.pharmacy.safeway.com/safeway/az/glendale/3800-w-happy-valley-rd.html,,Safeway,Q1508234
https://local.fuel.safeway.com/#9073545,safeway,Safeway Fuel Station,,Glendale,AZ,,US,+1 623-518-1946,https://local.fuel.safeway.com/safeway/az/glendale/3770-w-happy-valley-rd.html,Mo-Su 03:00-22:00,Safeway,Q1508234
https://www.sprouts.com/store/az/phoenix/glendale-deer-valley-rd/,sprouts_farmer_market,Sprouts Farmers Market 27-Glendale &#8211; Deer Valley Rd.,,Glendale,AZ,,US,+1 623-385-4430,https://www.sprouts.com/store/az/phoenix/glendale-deer-valley-rd/,Mo-Su 07:00-22:00,Sprouts Farmer Market,Q7581369
https://restaurants.subway.com/#14908528,subway,Subway Happy Valley Marketplace S/C,,Phoenix Maricopa,AZ,,US,+1 623-561-5712,https://restaurants.subway.com/united-states/az/phoenix/6635-w-happy-valley-rd,Mo-Fr 07:00-21:00; Sa 08:00-21:00; Su 09:00-21:00,Subway,Q244457
https://restaurants.subway.com/#14898550,subway,Subway North Canyon Ranch S/C,,Glendale Maricopa,AZ,,US,+1 623-780-1373,https://restaurants.subway.com/united-states/az/glendale/23425-n-39th-dr,Mo-Sa 09:00-21:00; Su 10:00-21:00,Subway,Q244457
https://locations.tacobell.com/#6142552,taco_bell,Taco Bell,,Glendale,AZ,,US,+1 623-537-3560,https://locations.tacobell.com/az/glendale/6708-w--deer-valley-road.html,Mo-Th 07:00-24:00; Fr-Sa 07:00-01:00; Su 07:00-24:00,Taco Bell,Q752941
https://locations.tacobell.com/#6142564,taco_bell,Taco Bell,,Glendale,AZ,,US,+1 623-825-0284,https://locations.tacobell.com/az/glendale/6645-w--happy-valley-rd-.html,Mo-Su 08:00-01:00,Taco Bell,Q752941
https://locations.tacobell.com/#6143957,taco_bell,Taco Bell,,Glendale,AZ,,US,+1 623-879-7215,https://locations.tacobell.com/az/glendale/3626-w--pinnacle-peak-rd-.html,Mo-Th 07:00-24:00; Fr-Sa 07:00-01:00; Su 07:00-24:00,Taco Bell,Q752941
8531000001,usps_collection_boxes,USPS COLLECTION BOX - BLUE BOX,23425 N 39TH DR,GLENDALE,AZ,,US,,,,United States Postal Service,Q668687
8531000002,usps_collection_boxes,USPS COLLECTION BOX - BLUE BOX,24750 N 39TH DR,GLENDALE,AZ,,US,,,,United States Postal Service,Q668687
,visa,,,PHOENIX,AZ,,US,,,,,
,visa,,,PHOENIX,AZ,,US,,,,,
,visa,,,GLENDALE,AZ,,US,,,,,
,visa,,,GLENDALE,AZ,,US,,,,,
,visa,,,GLENDALE,AZ,,US,,,,,
,visa,,,GLENDALE,AZ,,US,,,,,
,visa,,,GLENDALE,AZ,,US,,,,,
,visa,,,GLENDALE,AZ,,US,,,,,
,visa,,,GLENDALE,AZ,,US,,,,,
,visa,,,GLENDALE,AZ,,US,,,,,
,visa,,,GLENDALE,AZ,,US,,,,,
,visa,,,GLENDALE,AZ,,US,,,,,
,visa,,,GLENDALE,AZ,,US,,,,,
,visa,,,GLENDALE,AZ,,US,,,,,
,visa,,,GLENDALE,AZ,,US,,,,,
,visa,,,GLENDALE,AZ,,US,,,,,
,visa,,,GLENDALE,AZ,,US,,,,,
https://www.walgreens.com/locator/walgreens-6640+w+happy+valley+rd-glendale-az-85310/id=7110,walgreens,Walgreens,,Glendale,AZ,,US,+1 623-561-5947,https://www.walgreens.com/locator/walgreens-6640+w+happy+valley+rd-glendale-az-85310/id=7110,Mo-Su 07:00-23:00,Walgreens,Q1591889
https://www.walgreens.com/locator/walgreens-22280+n+67th+ave-glendale-az-85310/id=4434,walgreens,Walgreens,,Glendale,AZ,,US,+1 623-572-8328,https://www.walgreens.com/locator/walgreens-22280+n+67th+ave-glendale-az-85310/id=4434,Mo-Su 08:00-21:00,Walgreens,Q1591889
a2a31436b229723869f13b9959207ddc,western_union,WALMART #004233,,Glendale,AZ,,US,+1 623-566-9754,https://location.westernunion.com/us/az/glendale/a2a31436b229723869f13b9959207ddc,Mo-Su 07:00-21:00,Western Union,Q861042
