Ref,Spider,Name,Address,City,State,Zipcode,Country,Phone,Website,Hours,Brand,WikiData
https://stores.advanceautoparts.com/il/kankakee/1171-e-court-st,advance_auto_parts_us,Advance Auto Parts,,Kankakee,IL,,US,+1 815-929-0485,https://stores.advanceautoparts.com/il/kankakee/1171-e-court-st,Mo-Sa 07:30-21:00; Su 09:00-20:00,Advance Auto Parts,Q4686051
https://local.pharmacy.jewelosco.com/#5672837,albertsons,Jewel-Osco Pharmacy,,Kankakee,IL,,US,+1 815-935-2041,https://local.pharmacy.jewelosco.com/il/kankakee/446-s-washington-ave.html,Mo-Fr 08:00-21:00; Sa 09:00-18:00; Su 09:00-17:00,Jewel-Osco,Q3178470
https://local.jewelosco.com/#5603630,albertsons,Jewel-Osco,,Kankakee,IL,,US,+1 815-935-2040,https://local.jewelosco.com/il/kankakee/446-s-washington-ave.html,"Mo-Fr 06:00-22:00,08:00-21:00; Sa 06:00-22:00,09:00-18:00; Su 06:00-22:00,09:00-17:00",Jewel-Osco,Q3178470
https://stores.aldi.us/#4420011,aldi_sud_us,ALDI  2705 South Schuyler Avenue,,Kankakee,IL,,US,+1 833-468-7038,https://stores.aldi.us/il/kankakee/2705-south-schuyler-avenue,"Mo-Su 08:30-20:00,09:00-20:00",ALDI,Q41171672
656,autozone_us,AutoZone Auto Parts Kankakee,,Kankakee,IL,,US,+1 815-935-0160,https://www.autozone.com/locations/il/kankakee/1390-n-hobbie-ave.html,Mo-Sa 07:30-20:00; Su 08:00-20:00,AutoZone,Q4826087
210950,bluerhino,Dollar General #21257,,Kankakee,IL,,US,+1 779-236-6629,,,Blue Rhino,Q65681213
73683,bluerhino,Speedway #7077,,Kankakee,IL,,US,+1 815-939-4230,,,Blue Rhino,Q65681213
240614,bluerhino,Circle K #4701390,,Kankakee,IL,,US,+1 815-802-0689,,,Blue Rhino,Q65681213
203022,bluerhino,CASEY'S GENERAL STORE #2368,,KANKAKEE,IL,,US,+1 815-802-1343,,,Blue Rhino,Q65681213
199720,bluerhino,Dollar General #21123,,Kankakee,IL,,US,+1 815-216-5530,,,Blue Rhino,Q65681213
152019,bluerhino,Walgreens #4142,,Kankakee,IL,,US,+1 815-932-9615,,,Blue Rhino,Q65681213
127519,bluerhino,Speedway #1415,,Kankakee,IL,,US,+1 815-929-1400,,,Blue Rhino,Q65681213
129060,bluerhino,Love's #395,,Kankakee,IL,,US,+1 815-929-1549,,,Blue Rhino,Q65681213
154113,bluerhino,Walgreens #12468,,Kankakee,IL,,US,+1 815-936-0817,,,Blue Rhino,Q65681213
192418,bluerhino,Murphy's #7511,,Kankakee,IL,,US,+1 815-936-6144,,,Blue Rhino,Q65681213
240613,bluerhino,Circle K #4701388,,Kankakee,IL,,US,+1 815-802-0683,,,Blue Rhino,Q65681213
172087,bluerhino,Family Dollar #01267,,Kankakee,IL,,US,+1 815-932-6295,,,Blue Rhino,Q65681213
189980,bluerhino,Minit Mart #627,,Kankakee,IL,,US,+1 815-939-0216,,,Blue Rhino,Q65681213
240612,bluerhino,Circle K #4700177,,Kankakee,IL,,US,+1 815-935-0054,,,Blue Rhino,Q65681213
80762840198606090100100000000000,bp,BP,,Kankakee,IL,,US,+1 815-939-0216,,24/7,BP,Q152057
77549,citi,ATM Speedway,,Kankakee,IL,,US,,,,Citibank,Q857063
40955,citi,ATM Circle K,,Kankakee,IL,,US,,,,Citibank,Q857063
77786,citi,ATM Speedway,,Kankakee,IL,,US,,,,Citibank,Q857063
86518,citi,ATM Walgreens,,Kankakee,IL,,US,,,,Citibank,Q857063
89047,citi,ATM Walgreens,,Kankakee,IL,,US,,,,Citibank,Q857063
49234,citi,ATM CVS,,Kankakee,IL,,US,,,,Citibank,Q857063
43397,citi,ATM Circle K,,Kankakee,IL,,US,,,,Citibank,Q857063
41310,citi,ATM Circle K,,Kankakee,IL,,US,,,,Citibank,Q857063
om_il_kankakee_13-meadowview-center,cititrends,Citi Trends,,Kankakee,IL,,US,+1 779-201-4556,https://locations.cititrends.com/il/kankakee/13-meadowview-center.html,Mo 10:00-19:00; Tu 10:00-19:00; We 10:00-19:00; Th 10:00-19:00; Fr 10:00-20:00; Sa 10:00-20:00; Su 12:00-18:00,Citi Trends,Q5122438
80045100,cricket_wireless,Cricket Wireless Authorized Retailer,,Kankakee,IL,,US,+1 815-401-5241,https://www.cricketwireless.com/stores/ll/US/IL/Kankakee/678-Henry-St,Mo-Sa 09:00-19:00,Cricket Wireless,Q5184987
2663,cvs_us,CVS Pharmacy,,Kankakee,IL,,US,+1 815-929-3451,https://www.cvs.com/store-locator/kankakee-il-pharmacies/225-west-court-st-kankakee-il-60901/storeid=2663,Mo-Fr 08:00-21:00; Sa 09:00-21:00; Su 09:00-20:00,CVS Pharmacy,Q2078880
2861,dominos_pizza_us,Domino's Pizza,,Kankakee,IL,,US,+1 815-939-4400,https://pizza.dominos.com/illinois/kankakee/1735-e-maple-street,Mo-Th 10:30-24:00; Fr-Sa 10:30-01:00; Su 10:30-24:00,Domino's,Q839466
353537,dunkin_us,Dunkin',,Kankakee,IL,,US,+1 815-802-9969,https://locations.dunkindonuts.com/en/il/kankakee/174-w-court-st/353537,Mo-Su 04:00-18:00,Dunkin',Q847743
359679,dunkin_us,Dunkin',,Kankakee,IL,,US,+1 773-326-9718,https://locations.dunkindonuts.com/en/il/kankakee/454-riverstone-parkway/359679,Mo-Sa 04:00-20:00; Su 05:00-20:00,Dunkin',Q847743
https://www.edwardjones.com/us-en/financial-advisor/adam-elroy,edwardjones,Adam Elroy,,Kankakee,IL,,US,+1 815-932-8484,https://www.edwardjones.com/us-en/financial-advisor/adam-elroy,Mo-Tu 08:00-17:00; We 08:00-19:00; Th 08:00-17:00; Fr 08:00-16:00,Edward Jones,Q5343830
520894,eg_america_us,Minit Mart,,Kankakee,IL,,US,+1 815-939-0216,https://www.minitmart.com/find-us/generic-store-page/?id=600627,,Minit Mart,Q18154470
https://www.efaststop.com/store-locator/pv/3000/id/352,fast_stop_us,Kankakee FAST STOP Express,,Kankakee,IL,,US,+1 815-937-3164,https://www.efaststop.com/store-locator/pv/3000/id/352,,FAST STOP,Q116734101
https://local.fedex.com/#25206546,fedex,,,Kankakee,IL,,US,+1 800-463-3339,https://local.fedex.com/en-us/il/kankakee/srv45,,FedEx,Q459477
https://local.fedex.com/#25206520,fedex,,,Kankakee,IL,,US,+1 800-463-3339,https://local.fedex.com/en-us/il/kankakee/sfva2,,FedEx,Q459477
https://local.fedex.com/#492453,fedex,FedEx Ship Center,,Kankakee,IL,,US,+1 800-463-3339,https://local.fedex.com/en-us/il/kankakee/ikka,,FedEx,Q459477
https://branches.fleetpride.com/il/kankakee/truckparts-kee.html,fleet_pride_us,FleetPride,,Kankakee,IL,,US,+1 815-933-8846,https://branches.fleetpride.com/il/kankakee/truckparts-kee.html,Mo-Fr 07:00-17:00; Sa 08:00-12:00,FleetPride,Q121436710
14128,h_r_block,H&R Block,,Kankakee,IL,,US,+1 815-939-2706,https://www.hrblock.com/local-tax-offices/illinois/kankakee/36-meadowview-ctr/14128/,,H&R Block,Q5627799
https://office.jacksonhewitt.com/#27578341,jackson_hewitt,Jackson Hewitt,,Kankakee,IL,,US,+1 815-932-1038,https://office.jacksonhewitt.com/tax-preparation-services-locations/en/il/kankakee/996-n-5th-ave/10366,Mo-Fr 09:30-17:30; Sa 09:00-17:00,Jackson Hewitt,Q6117132
https://locations.jimmyjohns.com/il/kankakee/sandwiches-1011.html,jimmy_johns,Jimmy John's,,Kankakee,IL,,US,+1 815-932-0130,https://locations.jimmyjohns.com/il/kankakee/sandwiches-1011.html,,Jimmy John's,Q1689380
https://locations.kfc.com/#11250482,kfc,Chicken Nuggets Near Kankakee,,Kankakee,IL,,US,,https://locations.kfc.com/il/kankakee/2942-riverstone-court/chickennugget,,KFC,Q524757
395,loves,Site 395,,Kankakee,IL,,US,+1 815-929-1549,,,Love's,Q1872496
156623,marathon_petroleum_us,KANKAKEE MARATHON,,KANKAKEE,IL,,US,+1 815-939-0419,,,Marathon,Q458363
https://www.monicals.com/locations/monicals-pizza-of-kankakee/,monicals_pizza_us,Monicalâ€™s Pizza of Kankakee,,Kankakee,IL,,US,+1 815-928-8043,https://www.monicals.com/locations/monicals-pizza-of-kankakee/,,Monical's Pizza,Q6900121
7511,murphy_usa_us,,,Kankakee,IL,,US,+1 815-936-6144,,Mo-Sa 05:30-22:30; Su 06:00-22:30,Murphy USA,Q19604459
https://locations.oreillyauto.com/il/kankakee/check-engine-light-testing-4391.html,oreilly,Your Kankakee O'Reilly Auto Parts Store,,Kankakee,IL,,US,+1 815-937-0520,https://locations.oreillyauto.com/il/kankakee/check-engine-light-testing-4391.html,Mo-Sa 07:30-22:00; Su 08:00-21:00,O'Reilly Auto Parts,Q7071951
https://locations.oreillyauto.com/il/kankakee/wiper-installation-4391.html,oreilly,Your Kankakee O'Reilly Auto Parts Store,,Kankakee,IL,,US,+1 815-937-0520,https://locations.oreillyauto.com/il/kankakee/wiper-installation-4391.html,Mo-Sa 07:30-22:00; Su 08:00-21:00,O'Reilly Auto Parts,Q7071951
https://locations.oreillyauto.com/il/kankakee/battery-testing-4391.html,oreilly,Your Kankakee O'Reilly Auto Parts Store,,Kankakee,IL,,US,+1 815-937-0520,https://locations.oreillyauto.com/il/kankakee/battery-testing-4391.html,Mo-Sa 07:30-22:00; Su 08:00-21:00,O'Reilly Auto Parts,Q7071951
https://locations.oreillyauto.com/il/kankakee/autopartes-4391.html,oreilly,Tu tienda O'Reilly Auto Parts en Kankakee,,Kankakee,IL,,US,+1 815-937-0520,https://locations.oreillyauto.com/il/kankakee/autopartes-4391.html,Mo-Sa 07:30-22:00; Su 08:00-21:00,O'Reilly Auto Parts,Q7071951
il_kankakee_375-w-court-st,pizza_hut_us,375 W Court St,,Kankakee,IL,,US,+1 815-932-5198,https://locations.pizzahut.com/il/kankakee/375-w-court-st,,Pizza Hut,Q191615
https://restaurants.subway.com/#14897598,subway,Subway,,Kankakee Kankakee,IL,,US,+1 815-933-1600,https://restaurants.subway.com/united-states/il/kankakee/1588-w-court-st,Mo-Th 08:30-21:30; Fr 08:30-17:00; Sa-Su 08:30-21:30,Subway,Q244457
https://locations.tacobell.com/#6144481,taco_bell,Taco Bell,,Kankakee,IL,,US,+1 815-802-9914,https://locations.tacobell.com/il/kankakee/2942-riverstone-court.html,Mo 10:00-01:00; Tu-Th 08:00-01:00; Fr-Sa 08:00-02:00; Su 08:00-01:00,Taco Bell,Q752941
782E,tmobile_us,Riverstone & Marcotte Rd,,Kankakee,IL,,US,+1 815-936-8550,https://www.t-mobile.com/store-locator/il/kankakee/riverstone-marcotte-rd,,T-Mobile,Q3511885
1368674,usps,KANKAKEE,,KANKAKEE,IL,,US,+1 815-935-7440,,Mo-Fr 08:00-18:00; Sa 08:30-13:00,United States Postal Service,Q668687
1473646,usps,KANKAKEE,,KANKAKEE,IL,,US,+1 815-935-7437,,,United States Postal Service,Q668687
6090100105,usps_collection_boxes,USPS COLLECTION BOX - BLUE BOX,2150 S US HIGHWAY 45 52,KANKAKEE,IL,,US,,,,United States Postal Service,Q668687
6090100038,usps_collection_boxes,USPS COLLECTION BOX - BLUE BOX,100 E JEFFERY ST,KANKAKEE,IL,,US,,,,United States Postal Service,Q668687
6090100015,usps_collection_boxes,USPS COLLECTION BOX - BLUE BOX,580 W JEFFERY ST,KANKAKEE,IL,,US,,,,United States Postal Service,Q668687
6090100032,usps_collection_boxes,USPS COLLECTION BOX - BLUE BOX,304 S INDIANA AVE,KANKAKEE,IL,,US,,,,United States Postal Service,Q668687
6090100036,usps_collection_boxes,USPS COLLECTION BOX - BLUE BOX,446 S WASHINGTON AVE,KANKAKEE,IL,,US,,,,United States Postal Service,Q668687
6090100106,usps_collection_boxes,USPS COLLECTION BOX - BLUE BOX,1 DEARBORN SQ,KANKAKEE,IL,,US,,,,United States Postal Service,Q668687
6090100031,usps_collection_boxes,USPS COLLECTION BOX - BLUE BOX,475 E COURT ST,KANKAKEE,IL,,US,,,,United States Postal Service,Q668687
6090100104,usps_collection_boxes,USPS COLLECTION BOX - PO LOBBY,475 E COURT ST,KANKAKEE,IL,,US,,,,United States Postal Service,Q668687
6090100111,usps_collection_boxes,USPS COLLECTION BOX - PO LOBBY,475 E COURT ST,KANKAKEE,IL,,US,,,,United States Postal Service,Q668687
6090100099,usps_collection_boxes,USPS COLLECTION BOX - BLUE BOX,200 E COURT ST,KANKAKEE,IL,,US,,,,United States Postal Service,Q668687
6090100097,usps_collection_boxes,USPS COLLECTION BOX - EXPRESS,149 N HARRISON AVE,KANKAKEE,IL,,US,,,,United States Postal Service,Q668687
6090100056,usps_collection_boxes,USPS COLLECTION BOX - BLUE BOX,149 N HARRISON AVE,KANKAKEE,IL,,US,,,,United States Postal Service,Q668687
6090100092,usps_collection_boxes,USPS COLLECTION BOX - BLUE BOX,275 E COURT ST,KANKAKEE,IL,,US,,,,United States Postal Service,Q668687
6090100042,usps_collection_boxes,USPS COLLECTION BOX - BLUE BOX,160 N INDIANA AVE,KANKAKEE,IL,,US,,,,United States Postal Service,Q668687
6090100025,usps_collection_boxes,USPS COLLECTION BOX - BLUE BOX,1124 W STATION ST,KANKAKEE,IL,,US,,,,United States Postal Service,Q668687
6090100062,usps_collection_boxes,USPS COLLECTION BOX - BLUE BOX,500 W COURT ST,KANKAKEE,IL,,US,,,,United States Postal Service,Q668687
6090100101,usps_collection_boxes,USPS COLLECTION BOX - BLUE BOX,455 W COURT ST,KANKAKEE,IL,,US,,,,United States Postal Service,Q668687
6090100102,usps_collection_boxes,USPS COLLECTION BOX - BLUE BOX,555 W COURT ST,KANKAKEE,IL,,US,,,,United States Postal Service,Q668687
6090100083,usps_collection_boxes,USPS COLLECTION BOX - BLUE BOX,1557 W COURT ST,KANKAKEE,IL,,US,,,,United States Postal Service,Q668687
6090100108,usps_collection_boxes,USPS COLLECTION BOX - BLUE BOX,375 N WALL ST,KANKAKEE,IL,,US,,,,United States Postal Service,Q668687
6090100044,usps_collection_boxes,USPS COLLECTION BOX - BLUE BOX,401 N WALL ST,KANKAKEE,IL,,US,,,,United States Postal Service,Q668687
6090100107,usps_collection_boxes,USPS COLLECTION BOX - BLUE BOX,350 N WALL ST,KANKAKEE,IL,,US,,,,United States Postal Service,Q668687
6090100045,usps_collection_boxes,USPS COLLECTION BOX - BLUE BOX,500 N WALL ST,KANKAKEE,IL,,US,,,,United States Postal Service,Q668687
6090100065,usps_collection_boxes,USPS COLLECTION BOX - BLUE BOX,1015 N 5TH AVE,KANKAKEE,IL,,US,,,,United States Postal Service,Q668687
6090100072,usps_collection_boxes,USPS COLLECTION BOX - BLUE BOX,10 MEADOWVIEW CTR,KANKAKEE,IL,,US,,,,United States Postal Service,Q668687
6090100071,usps_collection_boxes,USPS COLLECTION BOX - BLUE BOX,10 MEADOWVIEW CTR,KANKAKEE,IL,,US,,,,United States Postal Service,Q668687
https://vcahospitals.com/county-west,vca,VCA County West Animal Hospital,,Kankakee,IL,,US,+1 815-614-3902,https://vcahospitals.com/county-west,Mo 07:30-17:00; Tu-Th 07:30-18:00; Fr 07:30-17:00; Sa 07:30-24:00,VCA,Q7906620
,visa,,,KANKAKEE,IL,,US,,,,,
,visa,,,KANKAKEE,IL,,US,,,,,
,visa,,,KANKAKEE,IL,,US,,,,,
,visa,,,KANKAKEE,IL,,US,,,,,
,visa,,,KANKAKEE,IL,,US,,,,,
,visa,,,KANKAKEE,IL,,US,,,,,
,visa,,,KANKAKEE,IL,,US,,,,,
,visa,,,KANKAKEE,IL,,US,,,,,
,visa,,,KANKAKEE,IL,,US,,,,,
,visa,,,KANKAKEE,IL,,US,,,,,
,visa,,,KANKAKEE,IL,,US,,,,,
,visa,,,KANKAKEE,IL,,US,,,,,
,visa,,,KANKAKEE,IL,,US,,,,,
,visa,,,KANKAKEE,IL,,US,,,,,
,visa,,,KANKAKEE,IL,,US,,,,,
,visa,,,KANKAKEE,IL,,US,,,,,
,visa,,,KANKAKEE,IL,,US,,,,,
,visa,,,KANKAKEE,IL,,US,,,,,
,visa,,,KANKAKEE,IL,,US,,,,,
,visa,,,KANKAKEE,IL,,US,,,,,
,visa,,,KANKAKEE,IL,,US,,,,,
,visa,,,KANKAKEE,IL,,US,,,,,
,visa,,,KANKAKEE,IL,,US,,,,,
,visa,,,KANKAKEE,IL,,US,,,,,
,visa,,,KANKAKEE,IL,,US,,,,,
,visa,,,KANKAKEE,IL,,US,,,,,
,visa,,,KANKAKEE,IL,,US,,,,,
,visa,,,KANKAKEE,IL,,US,,,,,
,visa,,,KANKAKEE,IL,,US,,,,,
,visa,,,KANKAKEE,IL,,US,,,,,
,visa,,,KANKAKEE,IL,,US,,,,,
,visa,,,KANKAKEE,IL,,US,,,,,
,visa,,,KANKAKEE,IL,,US,,,,,
,visa,,,KANKAKEE,IL,,US,,,,,
,visa,,,KANKAKEE,IL,,US,,,,,
,visa,,,KANKAKEE,IL,,US,,,,,
,visa,,,KANKAKEE,IL,,US,,,,,
,visa,,,KANKAKEE,IL,,US,,,,,
,visa,,,KANKAKEE,IL,,US,,,,,
,visa,,,KANKAKEE,IL,,US,,,,,
,visa,,,KANKAKEE,IL,,US,,,,,
,visa,,,KANKAKEE,IL,,US,,,,,
,visa,,,KANKAKEE,IL,,US,,,,,
,visa,,,KANKAKEE,IL,,US,,,,,
,visa,,,KANKAKEE,IL,,US,,,,,
,visa,,,KANKAKEE,IL,,US,,,,,
,visa,,,KANKAKEE,IL,,US,,,,,
,visa,,,KANKAKEE,IL,,US,,,,,
,visa,,,KANKAKEE,IL,,US,,,,,
,visa,,,KANKAKEE,IL,,US,,,,,
,visa,,,KANKAKEE,IL,,US,,,,,
,visa,,,KANKAKEE,IL,,US,,,,,
,visa,,,KANKAKEE,IL,,US,,,,,
,visa,,,KANKAKEE,IL,,US,,,,,
,visa,,,KANKAKEE,IL,,US,,,,,
,visa,,,KANKAKEE,IL,,US,,,,,
,visa,,,KANKAKEE,IL,,US,,,,,
,visa,,,KANKAKEE,IL,,US,,,,,
,visa,,,KANKAKEE,IL,,US,,,,,
,visa,,,KANKAKEE,IL,,US,,,,,
,visa,,,KANKAKEE,IL,,US,,,,,
,visa,,,KANKAKEE,IL,,US,,,,,
,visa,,,KANKAKEE,IL,,US,,,,,
,visa,,,KANKAKEE,IL,,US,,,,,
,visa,,,KANKAKEE,IL,,US,,,,,
,visa,,,KANKAKEE,IL,,US,,,,,
,visa,,,KANKAKEE,IL,,US,,,,,
,visa,,,KANKAKEE,IL,,US,,,,,
,visa,,,KANKAKEE,IL,,US,,,,,
,visa,,,KANKAKEE,IL,,US,,,,,
,visa,,,KANKAKEE,IL,,US,,,,,
,visa,,,KANKAKEE,IL,,US,,,,,
,visa,,,KANKAKEE,IL,,US,,,,,
,visa,,,KANKAKEE,IL,,US,,,,,
,visa,,,KANKAKEE,IL,,US,,,,,
,visa,,,KANKAKEE,IL,,US,,,,,
,visa,,,KANKAKEE,IL,,US,,,,,
,visa,,,KANKAKEE,IL,,US,,,,,
,visa,,,KANKAKEE,IL,,US,,,,,
,visa,,,BOURBONAIS,IL,,US,,,,,
,visa,,,KANKAKEE,IL,,US,,,,,
,visa,,,KANKAKEE,IL,,US,,,,,
,visa,,,KANKAKEE,IL,,US,,,,,
,visa,,,KANKAKEE,IL,,US,,,,,
,visa,,,BOURBONNAIS,IL,,US,,,,,
,visa,,,KANKAKEE,IL,,US,,,,,
,visa,,,KANKAKEE,IL,,US,,,,,
,visa,,,KANKAKEE,IL,,US,,,,,
,visa,,,KANKAKEE,IL,,US,,,,,
,visa,,,KANKAKEE,IL,,US,,,,,
,visa,,,KANKAKEE,IL,,US,,,,,
,visa,,,KANKAKEE,IL,,US,,,,,
,visa,,,LIMESTONE,IL,,US,,,,,
,visa,,,KANKAKEE,IL,,US,,,,,
https://www.walgreens.com/locator/walgreens-222+w+court+st-kankakee-il-60901/id=12468,walgreens,Walgreens,,Kankakee,IL,,US,+1 815-936-0817,https://www.walgreens.com/locator/walgreens-222+w+court+st-kankakee-il-60901/id=12468,Mo-Sa 08:00-21:00; Su 09:00-21:00,Walgreens,Q1591889
https://www.walgreens.com/locator/walgreens-1050+n+kennedy+dr-kankakee-il-60901/id=4142,walgreens,Walgreens,,Kankakee,IL,,US,+1 815-932-9615,https://www.walgreens.com/locator/walgreens-1050+n+kennedy+dr-kankakee-il-60901/id=4142,Mo-Su 07:00-24:00,Walgreens,Q1591889
https://locations.wendys.com/#1033521449,wendys,"Wendy's 2205 E Court in Kankakee, IL",,Kankakee,IL,,US,+1 779-258-0846,https://locations.wendys.com/united-states/il/kankakee/2205-e-court-street,"Mo-Th 05:00-10:30,05:00-22:00; Fr-Sa 05:00-10:30,05:00-23:00; Su 05:00-10:30,05:00-22:00",Wendy's,Q550258
https://locations.wendys.com/#9253251,wendys,"Wendy's Kankakee in Kankakee, IL",,Kankakee,IL,,US,+1 815-939-1638,https://locations.wendys.com/united-states/il/kankakee/1740-w-court-st,"Mo-Su 06:00-10:30,09:00-22:00",Wendy's,Q550258
20bbe634ddf26b2ec42ccce190adb98a,western_union,SMITHSON BANCORP,,Kankakee,IL,,US,+1 815-614-3481,https://location.westernunion.com/us/il/kankakee/20bbe634ddf26b2ec42ccce190adb98a,Mo-Su 08:00-19:00,Western Union,Q861042
620b658db2b14da4048ed656c0426d4a,western_union,ORDER EXPRESS- IL042,,Kankakee,IL,,US,+1 815-932-6921,https://location.westernunion.com/us/il/kankakee/620b658db2b14da4048ed656c0426d4a,Mo-Fr 10:00-20:30; Sa-Su 10:00-20:00,Western Union,Q861042
50b0ae06a705943c3c047261730b5cdf,western_union,ORDER EXPRESS- IL042,,Kankakee,IL,,US,+1 815-932-6921,https://location.westernunion.com/us/il/kankakee/50b0ae06a705943c3c047261730b5cdf,Mo-Fr 10:00-19:30; Sa 10:00-17:00; Su 10:00-16:00,Western Union,Q861042
17e547668260d971c971ef66e3581721,western_union,AMAR MARKET LLC,,Kankakee,IL,,US,+1 815-304-5429,https://location.westernunion.com/us/il/kankakee/17e547668260d971c971ef66e3581721,Mo-Sa 07:00-24:00; Su 09:00-23:00,Western Union,Q861042
860c93563b86d6e37c573e5df9e861da,western_union,WALMART #004323,,Kankakee,IL,,US,+1 815-802-1884,https://location.westernunion.com/us/il/kankakee/860c93563b86d6e37c573e5df9e861da,Mo-Su 07:00-21:00,Western Union,Q861042
155564,wingstop,Wingstop Kankakee Meadowview Center,1 Meadowview Center Unit 8,Kankakee,IL,,US,+1 815-839-9464,,,Wingstop,Q8025339
1029,world_finance_us,,"6 Meadowview Ctr, Kankakee, IL, 60901",Kankakee,IL,,US,+1 815-929-1652,https://www.loansbyworld.com/branches/branch-1029,Mo-Fr 09:00-17:30; Sa 09:00-12:00,World Finance,Q3569971
