Ref,Spider,Name,Address,City,State,Zipcode,Country,Phone,Website,Hours,Brand,WikiData
KLE-23,aldi_sud_de,,"Steinerne Furt 57a, 86167, Augsburg, Deutschland",Augsburg,,,DE,,,Mo-Sa 08:00-20:00,ALDI Süd,Q41171672
30778_1,bmw_group,Reisacher Augsburg GmbH,,Augsburg,,,DE,+49 821 9009666,https://www.reisacher.mini,,BMW,Q26678
19127400,bp,Werner Bartel,,Augsburg,,,DE,+49 821 7472450,http://tankstelle.aral.de/tankstelle/19127400,24/7,BP,Q152057
48.392823810.9334735,dpd_de,Aral Tankstelle Bartel,,Augsburg,,,DE,,,,DPD,Q541030
2760905111,gls_de,Videothek Lechhausen,,Augsburg,,,DE,+49 821 793153,,Mo-Sa 10:00-23:00,General Logistics Systems,Q46495823
2760908179,gls_de,GARANT-Electronic,,Augsburg,,,DE,+49 821 44984127,,Mo-Fr 12:00-19:00; Sa 10:00-16:00,General Logistics Systems,Q46495823
2760911560,gls_de,ARAL Tankstelle,,Augsburg,,,DE,+49 821 7472450,,Mo-Su 06:00-22:00,General Logistics Systems,Q46495823
73658544,moneygram,VIDEOTHEK LECHHAUSEN - AUGSBURG,,AUGSBURG,,,DE,+49 821 793153,,Mo-Sa 09:00-23:00; Su 00:00-24:00,MoneyGram,Q1944412
27613749_001-renault,renault,Autohaus von der Weppen GmbH,,Augsburg,,,DE,+49 821 7476430,,,Renault,Q6686
27613749_001-dacia,renault,Autohaus von der Weppen GmbH,,Augsburg,,,DE,+49 821 7476430,,,Dacia,Q27460
https://www.rossmann.de/de/filialen/bayern/augsburg/neuburger-str--29.html,rossmann_de,Rossmann Drogerie-Markt Neuburger Str. 29,,Augsburg,,,DE,+49 821 4482898,https://www.rossmann.de/de/filialen/bayern/augsburg/neuburger-str--29.html,Mo-Sa 08:00-20:00,Rossmann,Q316004
984bb5cf-3100-46fe-b8ca-611cee413875,scania,"ALNUFA Kfz-Reparatur u. Handels GmbH, Zweigniederlassung Augsburg",,Augsburg,,,DE,+49 821 272850,,Mo-Fr 07:00-17:30; Sa 07:00-13:30,Scania,Q219960
48232,seat_de,Schwaba GmbH Schwaba Autocenter,,Augsburg,,,DE,+49 821 700130,https://schwaba.seat.de,,SEAT,Q188217
https://www.sixt.co.uk/car-hire/germany/augsburg/augsburg/,sixt,Car Hire Augsburg | SIXT rent a car,,Augsburg,,,DE,,https://www.sixt.co.uk/car-hire/germany/augsburg/augsburg/,Mo-Fr 07:00-19:00; Sa 08:00-12:00; Su 09:00-11:00,SIXT,Q705664
109612,sparkasse_de,Stadtsparkasse Augsburg Geldautomat Schlössle,,Augsburg,,,DE,+49 821 32550,https://www.sparkasse.de/standorte/geldautomaten/stadtsparkasse-augsburg-geldautomat-schloessle-109612,Mo-Su 05:00-23:00,Sparkasse,Q13601825
11219,sparkasse_de,Stadtsparkasse Augsburg Beratungs.Center Schlössle,,Augsburg,,,DE,+49 821 32550,https://www.sparkasse.de/standorte/filialen/stadtsparkasse-augsburg-beratungs-center-schloessle-11219,"Mo-We 09:00-13:00,14:00-16:00; Th 09:00-13:00,14:00-18:00; Fr 09:00-14:00",Sparkasse,Q13601825
DE_EXT_01320,totalenergies,"ARAL TANKSTELLE AUGSBURG, AIND",,Augsburg,,,DE,,https://store.totalenergies.fr/en_EN/DE_EXT_01320,,Aral,Q565734
,visa,,,AUGSBURG,,,DE,,,,,
,visa,,,AUGSBURG,,,DE,,,,,
,visa,,,AUGSBURG,,,DE,,,,,
