Ref,Spider,Name,Address,City,State,Zipcode,Country,Phone,Website,Hours,Brand,WikiData
5181ad082a9ff07a7aa70bf6ed829ed8,western_union,RAYMOND ET FILS,,Kpome,MARITIME,,TG,+228 99 61 58 15,https://location.westernunion.com/tg/maritime/kpome/5181ad082a9ff07a7aa70bf6ed829ed8,Mo-Su 07:30-19:00,Western Union,Q861042
ce8dd3255103fe3756f213755b9c0e16,western_union,ECOBANK AGENCE DAPAONG,,Dapaong,MARITIME,,TG,(+228) 2227403,https://location.westernunion.com/tg/maritime/dapaong/ce8dd3255103fe3756f213755b9c0e16,Mo-Fr 07:00-20:00; Sa 07:30-19:00,Western Union,Q861042
6163bdf8e0f3471f4589b6223937edda,western_union,TOUT CLAIR,,Lome,MARITIME,,TG,+228 99 57 90 74,https://location.westernunion.com/tg/maritime/lome/6163bdf8e0f3471f4589b6223937edda,Mo-Sa 07:00-18:30; Su 07:00-12:00,Western Union,Q861042
ab8eb4d68287f3eaa1e8b9300594f1bf,western_union,ECOBANK AGENCE KPALIME,,Kpalime,MARITIME,,TG,+228 22 41 03 30,https://location.westernunion.com/tg/maritime/kpalime/ab8eb4d68287f3eaa1e8b9300594f1bf,Mo-Fr 07:00-20:00; Sa 07:30-19:00,Western Union,Q861042
64f3f80d879d2e566a731a6ceaa15d09,western_union,STE HAMI GROUP TOGO SARL,,Lome,MARITIME,,TG,+228 24 41 06 04,https://location.westernunion.com/tg/maritime/lome/64f3f80d879d2e566a731a6ceaa15d09,Mo-Fr 07:30-18:30; Sa 07:30-15:00,Western Union,Q861042
a9cca1c4998edebca665ef7e00e503a6,western_union,FUCEC AGBELOUVE,,Agbelouve,MARITIME,,TG,+228 90 24 24 13,https://location.westernunion.com/tg/maritime/agbelouve/a9cca1c4998edebca665ef7e00e503a6,Mo-Su 07:30-18:00,Western Union,Q861042
c68ae7cc114cced6101ae862b7761c77,western_union,FUCEC SITSOPE KEVE,,Keve,MARITIME,,TG,+228 90 24 24 13,https://location.westernunion.com/tg/maritime/keve/c68ae7cc114cced6101ae862b7761c77,Mo-Su 07:30-18:00,Western Union,Q861042
654c8796652f8720ab8b230566ee14d2,western_union,JESUS IS ALIVE,,Keve,MARITIME,,TG,+228 92 71 03 00,https://location.westernunion.com/tg/maritime/keve/654c8796652f8720ab8b230566ee14d2,Mo-Su 07:00-20:00,Western Union,Q861042
10edf826730c5455d088cc49bb5b2019,western_union,COOPEC AD KEVE,,Keve,MARITIME,,TG,+228 96 50 33 69,https://location.westernunion.com/tg/maritime/keve/10edf826730c5455d088cc49bb5b2019,Mo-Fr 07:30-16:30; Sa 08:00-12:00,Western Union,Q861042
78111eddd6316651d2307758e239d01f,western_union,AGENCE ASSAHOUN,,Assahoun,MARITIME,,TG,+228 22 21 36 41,https://location.westernunion.com/tg/maritime/assahoun/78111eddd6316651d2307758e239d01f,Mo-Fr 07:45-19:00; Sa 09:00-19:00,Western Union,Q861042
a0ff693c7661b362556c862b238a8a9c,western_union,DBC CONSULTING,,Lome,MARITIME,,TG,+228 90 92 74 73,https://location.westernunion.com/tg/maritime/lome/a0ff693c7661b362556c862b238a8a9c,Mo-Su 07:30-19:00,Western Union,Q861042
d2973c3038717102bb505c10a4725377,western_union,SOGEMEF SA,,Lome,MARITIME,,TG,+228 70 33 56 56,https://location.westernunion.com/tg/maritime/lome/d2973c3038717102bb505c10a4725377,Mo-Su 07:30-19:00,Western Union,Q861042
26f549f6168f9cc5b0f97642dbcd7985,western_union,ALL IN ZION  LEGBASSITO,,Lome,MARITIME,,TG,+228 90 00 14 19,https://location.westernunion.com/tg/maritime/lome/26f549f6168f9cc5b0f97642dbcd7985,Mo-Su 07:30-19:00,Western Union,Q861042
76680c172430ad7b52abf554b90b9f89,western_union,LUDE CONSEILS SARL U,,Lome,MARITIME,,TG,+228 90 09 12 19,https://location.westernunion.com/tg/maritime/lome/76680c172430ad7b52abf554b90b9f89,Mo-Fr 07:00-19:00; Sa 08:00-15:00,Western Union,Q861042
224d8b8ab44cbc5d8ca6081390664d28,western_union,REHOBOTH VOYAGES,,Lome,MARITIME,,TG,+228 90 23 69 29,https://location.westernunion.com/tg/maritime/lome/224d8b8ab44cbc5d8ca6081390664d28,Mo-Su 07:00-21:00,Western Union,Q861042
3bbe3c3a7e531e2f0d9d0304b3c6f94c,western_union,PSDTT SOTED SARL,,Lome,MARITIME,,TG,+228 99 66 92 29,https://location.westernunion.com/tg/maritime/lome/3bbe3c3a7e531e2f0d9d0304b3c6f94c,Mo-Fr 07:30-19:00; Sa 07:30-15:00,Western Union,Q861042
a10d8e3767f455b8ccff508c16afb5f5,western_union,DONYADEL,,Lome,MARITIME,,TG,+228 99 79 58 48,https://location.westernunion.com/tg/maritime/lome/a10d8e3767f455b8ccff508c16afb5f5,Mo-Su 07:00-21:00,Western Union,Q861042
4d8caa69f28310562dd70b487603dfaa,western_union,AY GROUP,,Lome,MARITIME,,TG,+228 92 66 19 55,https://location.westernunion.com/tg/maritime/lome/4d8caa69f28310562dd70b487603dfaa,Mo-Su 07:00-21:00,Western Union,Q861042
da5fa438305c85fb1c1433755dfcedb5,western_union,LABANK,,Lome,MARITIME,,TG,+228 90 16 79 88,https://location.westernunion.com/tg/maritime/lome/da5fa438305c85fb1c1433755dfcedb5,Mo-Su 07:00-21:00,Western Union,Q861042
8af445c0a658bf7013a32e25c752312e,western_union,FUCEC AVE LEGBASSITO,,Lome,MARITIME,,TG,+228 90 24 24 13,https://location.westernunion.com/tg/maritime/lome/8af445c0a658bf7013a32e25c752312e,Mo-Su 07:30-18:00,Western Union,Q861042
ff3965959b131b26c5b5c633b429a0c7,western_union,BLESSING CASH FINANCIAL,,Lome,MARITIME,,TG,+228 98 55 95 85,https://location.westernunion.com/tg/maritime/lome/ff3965959b131b26c5b5c633b429a0c7,Mo-Su 07:00-20:00,Western Union,Q861042
6f92811121c34bd55aaee122944a1b9a,western_union,SWEET ANGEL,,Lome,MARITIME,,TG,+228 90 23 33 05,https://location.westernunion.com/tg/maritime/lome/6f92811121c34bd55aaee122944a1b9a,Mo-Su 07:30-19:00,Western Union,Q861042
bdea19b0f18642c733c7a7b2265878f5,western_union,FUCEC AKEPE SANGUERA,,Akepe,MARITIME,,TG,+228 90 24 24 13,https://location.westernunion.com/tg/maritime/akepe/bdea19b0f18642c733c7a7b2265878f5,Mo-Su 07:30-18:00,Western Union,Q861042
9c94db24fa2bf6436045c70064ebc187,western_union,ROMY TECH,,Lome,MARITIME,,TG,+228 90 13 25 13,https://location.westernunion.com/tg/maritime/lome/9c94db24fa2bf6436045c70064ebc187,Mo-Su 07:30-19:00,Western Union,Q861042
7f986aaae3c9e036b1a9fc9e66e30930,western_union,FUCEC TSEVIE  SIEGE,,Tsevie,MARITIME,,TG,+228 90 24 24 13,https://location.westernunion.com/tg/maritime/tsevie/7f986aaae3c9e036b1a9fc9e66e30930,Mo-Su 07:30-18:00,Western Union,Q861042
b0ff601b61b02fed8680ded838bfa28a,western_union,FUCEC MATURITE AVEPOZO,,Lome,MARITIME,,TG,+228 90 24 24 13,https://location.westernunion.com/tg/maritime/lome/b0ff601b61b02fed8680ded838bfa28a,Mo-Su 07:30-18:00,Western Union,Q861042
0746f1a2ed4df7547e627e32942c0ac8,western_union,ABOLADE,,Lome,MARITIME,,TG,+228 90 87 82 30,https://location.westernunion.com/tg/maritime/lome/0746f1a2ed4df7547e627e32942c0ac8,Mo-Su 07:30-17:30,Western Union,Q861042
49608a736a3b3b4640d0edf3cb7a2d82,western_union,INFORMATIQUES ET COMMUNICATIONS ELECTRON,,Lome,MARITIME,,TG,+228 92 44 18 44,https://location.westernunion.com/tg/maritime/lome/49608a736a3b3b4640d0edf3cb7a2d82,Mo-Su 08:00-20:00,Western Union,Q861042
3ad0b9eb826a1771f92668919fbafea3,western_union,YVANOVICH,,Lome,MARITIME,,TG,+228 92 40 59 91,https://location.westernunion.com/tg/maritime/lome/3ad0b9eb826a1771f92668919fbafea3,Mo-Su 07:30-19:00,Western Union,Q861042
06b820f0187f842cff2133f16b57e273,western_union,LE BINGUISTE SARL U,,Lome,MARITIME,,TG,+228 90 06 45 25,https://location.westernunion.com/tg/maritime/lome/06b820f0187f842cff2133f16b57e273,Mo-Su 07:30-19:30,Western Union,Q861042
f059b1721e24627846d86f01f30dac6e,western_union,AK EXPRESS,,Lome,MARITIME,,TG,+228 90 51 95 06,https://location.westernunion.com/tg/maritime/lome/f059b1721e24627846d86f01f30dac6e,Mo-Su 07:30-19:00,Western Union,Q861042
131698160cc11a815aa7fbda2d9d2cd9,western_union,MAYA TRANSFERT,,Lome,MARITIME,,TG,+228 90 12 82 97,https://location.westernunion.com/tg/maritime/lome/131698160cc11a815aa7fbda2d9d2cd9,Mo-Su 07:00-19:30,Western Union,Q861042
5d62b700695854e843e5eb6909b2eb1f,western_union,FUCEC AKEPE SEGBE,,Akepe,MARITIME,,TG,+228 90 24 24 13,https://location.westernunion.com/tg/maritime/akepe/5d62b700695854e843e5eb6909b2eb1f,Mo-Su 07:30-18:00,Western Union,Q861042
a6efb2ba9fd2954c9ff482c83f97720d,western_union,PLUIES DE GRACE,,Lome,MARITIME,,TG,+228 91 82 21 10,https://location.westernunion.com/tg/maritime/lome/a6efb2ba9fd2954c9ff482c83f97720d,Mo-Fr 08:00-18:00; Sa 08:00-15:00,Western Union,Q861042
43f492cff6fe749c5dfc366f75c3b3da,western_union,B3PC,,Lome,MARITIME,,TG,+228 91 92 81 94,https://location.westernunion.com/tg/maritime/lome/43f492cff6fe749c5dfc366f75c3b3da,Mo-Sa 07:30-22:00; Su 10:00-22:00,Western Union,Q861042
850dcee388cbb92230fd63629bc1ff1f,western_union,MK TRANSCOM,,Zanguera,MARITIME,,TG,+228 92 50 13 84,https://location.westernunion.com/tg/maritime/zanguera/850dcee388cbb92230fd63629bc1ff1f,Mo-Sa 07:30-18:00,Western Union,Q861042
1554d6424da6d0684fde6f452a3bc13a,western_union,COOPEC AD AGENCE TSEVIE,,Tsevie,MARITIME,,TG,+228 22 40 86 91,https://location.westernunion.com/tg/maritime/tsevie/1554d6424da6d0684fde6f452a3bc13a,Mo-Fr 07:00-19:00; Sa 07:00-16:00,Western Union,Q861042
8d1fd1122ae92d0c5a365f07a484894b,western_union,ORABANK AGENCE TSEVIE,,Tsevie,MARITIME,,TG,+228 22 21 36 41,https://location.westernunion.com/tg/maritime/tsevie/8d1fd1122ae92d0c5a365f07a484894b,Mo-Fr 07:45-19:00; Sa 09:00-19:00,Western Union,Q861042
24c8e24aecbcb513cd59a1fbef46faa9,western_union,PHANUEL,,Tsevie,MARITIME,,TG,+228 90 17 11 58,https://location.westernunion.com/tg/maritime/tsevie/24c8e24aecbcb513cd59a1fbef46faa9,Mo-Su 08:00-20:00,Western Union,Q861042
af224b90635a061502b165e03b5f25d5,western_union,BPEC TSEVIE,,Tsevie,MARITIME,,TG,+228 23 30 00 39,https://location.westernunion.com/tg/maritime/tsevie/af224b90635a061502b165e03b5f25d5,Mo-Fr 07:30-17:00; Sa 09:00-14:00,Western Union,Q861042
27bb69a6a2a9164613cc5bc35424ee22,western_union,FUCEC TSEVIE DJAGBLE,,Tsevie,MARITIME,,TG,+228 90 24 24 13,https://location.westernunion.com/tg/maritime/tsevie/27bb69a6a2a9164613cc5bc35424ee22,Mo-Su 07:30-18:00,Western Union,Q861042
171df232524cb00f650cc3e968db1998,western_union,KEYEN,,Lome,MARITIME,,TG,+228 90 18 67 82,https://location.westernunion.com/tg/maritime/lome/171df232524cb00f650cc3e968db1998,Mo-Su 07:30-19:00,Western Union,Q861042
3d9236904bb41b62622b52acfce75a98,western_union,GROWINGUP TRADE,,Lome,MARITIME,,TG,+228 90 12 34 22,https://location.westernunion.com/tg/maritime/lome/3d9236904bb41b62622b52acfce75a98,Mo-Sa 07:30-20:00; Su 10:30-18:30,Western Union,Q861042
31f4f5fba99f1fef9b6e102128e7cddc,western_union,BOUKARI DISMANTLER AND PARTS,,Lome,MARITIME,,TG,+228 90 64 59 49,https://location.westernunion.com/tg/maritime/lome/31f4f5fba99f1fef9b6e102128e7cddc,Mo-Su 08:00-19:30,Western Union,Q861042
0b8bfcf68cbf116cb0e8a2988af48010,western_union,ETS BATRANS TOGO,,Lome,MARITIME,,TG,+228 22 20 53 85,https://location.westernunion.com/tg/maritime/lome/0b8bfcf68cbf116cb0e8a2988af48010,Mo-Fr 07:00-18:30; Sa 08:30-16:00,Western Union,Q861042
1f527a5e1c9890847a95d7160f88901a,western_union,BAYOR KADER DEHENE ZOPOMAHE,,Lome,MARITIME,,TG,+228 90 80 50 11,https://location.westernunion.com/tg/maritime/lome/1f527a5e1c9890847a95d7160f88901a,Mo-Sa 07:30-18:00,Western Union,Q861042
e4ffc79bd75fcd3eeab625939cb4288e,western_union,FAMILY TRANSFERT,,Lome,MARITIME,,TG,+228 90 39 93 95,https://location.westernunion.com/tg/maritime/lome/e4ffc79bd75fcd3eeab625939cb4288e,Mo-Su 07:30-19:00,Western Union,Q861042
dcca87cb1d897fbc7cb4abef25ba91d4,western_union,DSA MBANK ZOPOMAHE,,Lome,MARITIME,,TG,+228 93 00 15 33,https://location.westernunion.com/tg/maritime/lome/dcca87cb1d897fbc7cb4abef25ba91d4,Mo-Sa 07:30-18:00,Western Union,Q861042
d36c02e3d9328213ef1b50645c04a5e8,western_union,BILLIONS MIND,,Lome,MARITIME,,TG,+228 96 67 79 27,https://location.westernunion.com/tg/maritime/lome/d36c02e3d9328213ef1b50645c04a5e8,Mo-Su 07:30-19:00,Western Union,Q861042
58d9a02916ea5f5abc8c49500d0bf798,western_union,COOPEC AD AGENCE ASRAMA,,Asrama,MARITIME,,TG,+228 99 34 16 19,https://location.westernunion.com/tg/maritime/asrama/58d9a02916ea5f5abc8c49500d0bf798,Mo-Fr 07:00-19:00; Sa 07:00-16:00,Western Union,Q861042
556976f97876b9bf9c402bc74fff417a,western_union,ABNET,,Lome,MARITIME,,TG,+228 91 12 27 79,https://location.westernunion.com/tg/maritime/lome/556976f97876b9bf9c402bc74fff417a,Mo-Fr 07:30-20:00; Sa 07:30-14:30,Western Union,Q861042
13b94381fd9cffc7c3e49e808a315563,western_union,KF'S GLORY SARL U,,Lome,MARITIME,,TG,+228 90 34 59 33,https://location.westernunion.com/tg/maritime/lome/13b94381fd9cffc7c3e49e808a315563,Mo-Sa 07:00-19:00; Su 08:00-14:00,Western Union,Q861042
b51baa630efab8b63d7ca80ed50360b6,western_union,KF'S GLORY SARL U,,Lome,MARITIME,,TG,+228 90 34 59 33,https://location.westernunion.com/tg/maritime/lome/b51baa630efab8b63d7ca80ed50360b6,Mo-Sa 07:00-19:00; Su 08:00-14:00,Western Union,Q861042
e6cbec84f6f07feb89642d4ce044ecb0,western_union,NS CORPORATION,,Lome,MARITIME,,TG,+228 92 51 72 58,https://location.westernunion.com/tg/maritime/lome/e6cbec84f6f07feb89642d4ce044ecb0,Mo-Su 07:30-19:00,Western Union,Q861042
ee4e6239ac696d7ba0fdb9efaa43d5f7,western_union,SPT LOME APEDOKOE,,Lome,MARITIME,,TG,+228 22 51 05 67,https://location.westernunion.com/tg/maritime/lome/ee4e6239ac696d7ba0fdb9efaa43d5f7,Mo-Fr 07:30-17:00; Sa 07:30-14:00,Western Union,Q861042
ac1580b7af8eee287f6e1043f4cd1a6b,western_union,ORLIA DIVINE,,Lome,MARITIME,,TG,+228 90 82 77 14,https://location.westernunion.com/tg/maritime/lome/ac1580b7af8eee287f6e1043f4cd1a6b,Mo-Sa 07:00-19:00; Su 07:00-18:00,Western Union,Q861042
99eeb25356dd12a78c5bf88ac37b64c5,western_union,WAGES SAGBADO,,Lome,MARITIME,,TG,+228 70 45 53 83,https://location.westernunion.com/tg/maritime/lome/99eeb25356dd12a78c5bf88ac37b64c5,Mo-Su 07:30-16:00,Western Union,Q861042
b68dc40435636f1e963a8480c40f1a0e,western_union,LOGISTICS AND ENGINEERING SOLUTIONS,,Lome,MARITIME,,TG,+228 92 14 83 86,https://location.westernunion.com/tg/maritime/lome/b68dc40435636f1e963a8480c40f1a0e,Mo-Sa 07:30-20:00; Su 13:00-18:00,Western Union,Q861042
ce4933099a3bdb5711171709e0409dac,western_union,JOEBAKO XPRO,,Lome,MARITIME,,TG,+228 97 65 37 78,https://location.westernunion.com/tg/maritime/lome/ce4933099a3bdb5711171709e0409dac,Mo-Su 07:30-19:00,Western Union,Q861042
df1be4dd930fff8655d2e787e37d62fe,western_union,KADS,,Tsevie,MARITIME,,TG,+228 90 07 44 70,https://location.westernunion.com/tg/maritime/tsevie/df1be4dd930fff8655d2e787e37d62fe,Mo-Su 07:00-19:00,Western Union,Q861042
002260a139a6b45b7b1f1f21384caea2,western_union,FINAM TOGO SA,,Lome,MARITIME,,TG,+228 96 80 14 87,https://location.westernunion.com/tg/maritime/lome/002260a139a6b45b7b1f1f21384caea2,Mo-Su 07:00-23:00,Western Union,Q861042
9cdc256417d431b3b6098f00fb106cf7,western_union,H B,,Lome,MARITIME,,TG,+228 90 06 66 21,https://location.westernunion.com/tg/maritime/lome/9cdc256417d431b3b6098f00fb106cf7,Mo-Su 07:00-20:30,Western Union,Q861042
d29cfa0a4b1fc27826e29e0ae6492e98,western_union,YMATHA,,Lome,MARITIME,,TG,+228 90 05 78 26,https://location.westernunion.com/tg/maritime/lome/d29cfa0a4b1fc27826e29e0ae6492e98,Mo-Su 07:30-19:00,Western Union,Q861042
8f9beb3b24846d278b8dd2fdc1b70974,western_union,FLINAS,,Lome,MARITIME,,TG,+228 99 48 29 77,https://location.westernunion.com/tg/maritime/lome/8f9beb3b24846d278b8dd2fdc1b70974,Mo-Su 07:00-20:00,Western Union,Q861042
32db754f8a084d5f93475e7a1de4c952,western_union,SKF S GLORY,,Lome,MARITIME,,TG,+228 91 44 74 48,https://location.westernunion.com/tg/maritime/lome/32db754f8a084d5f93475e7a1de4c952,Mo-Sa 07:00-19:00,Western Union,Q861042
a84cb94c75f2917d09d97197b1560ad7,western_union,COOPEC GRACE PLUS AGCE PRINCIP,,Lome,MARITIME,,TG,+228 23 36 43 18,https://location.westernunion.com/tg/maritime/lome/a84cb94c75f2917d09d97197b1560ad7,Mo-Fr 06:00-19:00; Sa 06:00-18:00,Western Union,Q861042
540cf35b22f8a7ce429c49a99bffe33b,western_union,HOMAK ET FILS,,Lome,MARITIME,,TG,+228 90 39 98 40,https://location.westernunion.com/tg/maritime/lome/540cf35b22f8a7ce429c49a99bffe33b,Mo-Su 07:30-19:00,Western Union,Q861042
f0067069ce223a36d3b41b0b6587327f,western_union,PHOENIX LA VICTOIRE,,Lome,MARITIME,,TG,+228 90 36 26 05,https://location.westernunion.com/tg/maritime/lome/f0067069ce223a36d3b41b0b6587327f,Mo-Su 07:00-20:00,Western Union,Q861042
989737d314861c969d003d3a0ab075e8,western_union,SOGEMEF ADIDOGOME,,Lome,MARITIME,,TG,+228 22 20 15 95,https://location.westernunion.com/tg/maritime/lome/989737d314861c969d003d3a0ab075e8,Mo-Fr 07:00-17:00; Sa 08:00-13:00,Western Union,Q861042
bd1639f624741f37342f4db494ae31dd,western_union,GOLDEN LINES TOGO,,Lome,MARITIME,,TG,+228 91 98 98 04,https://location.westernunion.com/tg/maritime/lome/bd1639f624741f37342f4db494ae31dd,Mo-Fr 07:00-20:00; Sa 08:00-18:00; Su 07:30-19:00,Western Union,Q861042
8e0e9e1b228b709ccc274711c4b83f5c,western_union,SOGEMEF SA,,Lome,MARITIME,,TG,+228 70 33 56 56,https://location.westernunion.com/tg/maritime/lome/8e0e9e1b228b709ccc274711c4b83f5c,Mo-Su 07:30-19:00,Western Union,Q861042
1c7ae7bd98079e19055e162de2107d9e,western_union,AYABA,,Lome,MARITIME,,TG,+228 96 19 94 84,https://location.westernunion.com/tg/maritime/lome/1c7ae7bd98079e19055e162de2107d9e,Mo-Su 06:45-20:00,Western Union,Q861042
8afbdabdb6e30fe5f34bd17495c40277,western_union,JAUDIMAD CENTER,,Lome,MARITIME,,TG,+228 91 95 95 61,https://location.westernunion.com/tg/maritime/lome/8afbdabdb6e30fe5f34bd17495c40277,Mo-Su 07:30-19:00,Western Union,Q861042
dd2b6ef665c6ec9c6a233224ce1f7146,western_union,ACE UP BLOCKCHAIN,,Lome,MARITIME,,TG,+228 70 46 46 83,https://location.westernunion.com/tg/maritime/lome/dd2b6ef665c6ec9c6a233224ce1f7146,Mo-Su 07:30-19:00,Western Union,Q861042
5d619dc3edaf859b7003b5b4098ca7a3,western_union,F&J VENTURE,,Lome,MARITIME,,TG,+228 91 00 60 02,https://location.westernunion.com/tg/maritime/lome/5d619dc3edaf859b7003b5b4098ca7a3,Mo-Su 07:00-18:30,Western Union,Q861042
4b78414b14735fcb583a06c4bc8a6033,western_union,VISUS COMMUNICATION,,Lome,MARITIME,,TG,+228 90 28 64 01,https://location.westernunion.com/tg/maritime/lome/4b78414b14735fcb583a06c4bc8a6033,Mo-Su 07:00-21:00,Western Union,Q861042
9203125c39c0e253a9d66ce1ab5b2026,western_union,LA GRENAT,,Lome,MARITIME,,TG,+228 91 99 64 62,https://location.westernunion.com/tg/maritime/lome/9203125c39c0e253a9d66ce1ab5b2026,Mo-Su 06:30-22:00,Western Union,Q861042
45b957b0d4ce9ddcf1b83ef0c9aaf46c,western_union,FRELAS,,Lome,MARITIME,,TG,+228 93 23 44 54,https://location.westernunion.com/tg/maritime/lome/45b957b0d4ce9ddcf1b83ef0c9aaf46c,Mo-Su 07:30-19:00,Western Union,Q861042
b2865e15f2e937f583ad321498c0d34b,western_union,COOPEC AD,,Lome,MARITIME,,TG,+228 96 80 32 87,https://location.westernunion.com/tg/maritime/lome/b2865e15f2e937f583ad321498c0d34b,Mo-Su 07:30-19:00,Western Union,Q861042
f0518388a6d1af31b8b060cfebf7fe75,western_union,BAYOR KADER DEHENE AGOE,,Lome,MARITIME,,TG,+228 90 80 50 11,https://location.westernunion.com/tg/maritime/lome/f0518388a6d1af31b8b060cfebf7fe75,Mo-Sa 07:30-18:00,Western Union,Q861042
b2324d075a016d3e28c651099df7f397,western_union,FUCEC AVE VAKPOSSITO,,Lome,MARITIME,,TG,+228 90 24 24 13,https://location.westernunion.com/tg/maritime/lome/b2324d075a016d3e28c651099df7f397,Mo-Su 07:30-18:00,Western Union,Q861042
6f1af882a2e35833716e734fec2ee0c6,western_union,COOPEC GRACE PLUS,,Lome,MARITIME,,TG,+228 90 90 83 43,https://location.westernunion.com/tg/maritime/lome/6f1af882a2e35833716e734fec2ee0c6,Mo-Su 07:30-19:00,Western Union,Q861042
9e46150b2e2a8c6293a0000e5c546d1e,western_union,DAB NEGOCES ADETIKOPE,,Lome,MARITIME,,TG,+228 90 17 65 01,https://location.westernunion.com/tg/maritime/lome/9e46150b2e2a8c6293a0000e5c546d1e,Mo-Sa 07:00-18:30,Western Union,Q861042
332202ce9afc30473e738fe44a8a56a0,western_union,JEHOVAH JIREH TRAVELS AND SERVICES,,Lome,MARITIME,,TG,+228 90 88 58 46,https://location.westernunion.com/tg/maritime/lome/332202ce9afc30473e738fe44a8a56a0,Mo-Fr 07:00-19:00; Sa 07:00-18:00,Western Union,Q861042
2a24da9b4f7cc509ec2fa5cdd592b209,western_union,SALVEZZA,,Lome,MARITIME,,TG,+228 90 05 21 02,https://location.westernunion.com/tg/maritime/lome/2a24da9b4f7cc509ec2fa5cdd592b209,Mo-Fr 07:30-17:00; Sa 07:30-14:30,Western Union,Q861042
7eea3a9be743d8c34a7552c5c6bf5892,western_union,ATIKO TRAVELS,,Lome,MARITIME,,TG,+228 90 22 52 98,https://location.westernunion.com/tg/maritime/lome/7eea3a9be743d8c34a7552c5c6bf5892,Mo-Fr 07:30-17:00; Sa 08:00-17:00,Western Union,Q861042
40a3d9faabeb740d714d42ea76de32bf,western_union,OTG AGENCE AVEDJI,,Lome,MARITIME,,TG,+228 22 50 56 22,https://location.westernunion.com/tg/maritime/lome/40a3d9faabeb740d714d42ea76de32bf,Mo-Fr 08:45-18:00; Sa 09:00-16:00; Su 10:00-14:00,Western Union,Q861042
7f52600ff8710169450bcad5027ce13f,western_union,BTCI ADIDOGOME,,Lome,MARITIME,,TG,+228 22 37 06 48,https://location.westernunion.com/tg/maritime/lome/7f52600ff8710169450bcad5027ce13f,Mo-Sa 07:45-18:00,Western Union,Q861042
714ef454a560702e1e545fba00ea8816,western_union,GOLDEN VIBES,,Lome,MARITIME,,TG,+228 90 08 76 69,https://location.westernunion.com/tg/maritime/lome/714ef454a560702e1e545fba00ea8816,Mo-Su 07:00-20:00,Western Union,Q861042
6d4d7ceb1be8c590ab8c11b55be38a3b,western_union,WWA BIA TOGO ADIDOGOME,,Lome,MARITIME,,TG,+228 90 91 60 25,https://location.westernunion.com/tg/maritime/lome/6d4d7ceb1be8c590ab8c11b55be38a3b,Mo-Fr 08:00-17:00; Sa 08:00-15:00,Western Union,Q861042
f68652547180170dcee4dda75e66a17a,western_union,SIBEM,,Lome,MARITIME,,TG,+228 91 57 94 33,https://location.westernunion.com/tg/maritime/lome/f68652547180170dcee4dda75e66a17a,Mo-Sa 07:00-19:00,Western Union,Q861042
7b3b2c470d14245057f2d77f996b4f16,western_union,BNK TOUR & SERVICES,,Lome,MARITIME,,TG,(+228) 772617-93895353,https://location.westernunion.com/tg/maritime/lome/7b3b2c470d14245057f2d77f996b4f16,Mo-Su 07:00-19:00,Western Union,Q861042
a12182b445a0b05c829b791127b6d654,western_union,BTD TERMINAL DU SAHEL,,Lome,MARITIME,,TG,(+228) 3380815,https://location.westernunion.com/tg/maritime/lome/a12182b445a0b05c829b791127b6d654,Mo-Fr 08:00-16:30; Sa 08:00-12:00,Western Union,Q861042
f28063175a4067f00a83f96808a85557,western_union,SEGAM SARL,,Lome,MARITIME,,TG,+228 93 24 79 65,https://location.westernunion.com/tg/maritime/lome/f28063175a4067f00a83f96808a85557,Mo-Sa 07:30-20:00; Su 14:00-18:00,Western Union,Q861042
a2d403069542982c96c3fdb63c4304be,western_union,HPL ESNAM,,Lome,MARITIME,,TG,+228 70 40 65 60,https://location.westernunion.com/tg/maritime/lome/a2d403069542982c96c3fdb63c4304be,Mo-Su 07:30-19:00,Western Union,Q861042
0f48bf34b52e86e57b61e4837dcb3038,western_union,DAB NEGOCES CAMPS FIR,,Lome,MARITIME,,TG,+228 91 12 86 86,https://location.westernunion.com/tg/maritime/lome/0f48bf34b52e86e57b61e4837dcb3038,Mo-Su 07:00-20:00,Western Union,Q861042
14a0ab14ee44cb47ebaf0b286884b136,western_union,MA KA TRANSFERT  MKT,,Lome,MARITIME,,TG,+228 91 84 54 66,https://location.westernunion.com/tg/maritime/lome/14a0ab14ee44cb47ebaf0b286884b136,Mo-Sa 07:00-22:00; Su 07:00-20:00,Western Union,Q861042
cf009d01f90412246ce98ef90d932d79,western_union,AMED GLORY CENTER,,Lome,MARITIME,,TG,+228 90 04 92 04,https://location.westernunion.com/tg/maritime/lome/cf009d01f90412246ce98ef90d932d79,Mo-Fr 07:30-19:00; Sa 07:30-18:00,Western Union,Q861042
2f0cc45c5c681fa16cb4b88604050717,western_union,KING ASSO CONCEPT,,Lome,MARITIME,,TG,+228 91 26 86 49,https://location.westernunion.com/tg/maritime/lome/2f0cc45c5c681fa16cb4b88604050717,Mo-Su 07:30-19:00,Western Union,Q861042
b267815cab154afbb6560da1d31b50d0,western_union,DIRECT GROUP SARL,,Lome,MARITIME,,TG,+228 90 05 22 71,https://location.westernunion.com/tg/maritime/lome/b267815cab154afbb6560da1d31b50d0,Mo-Su 07:30-19:00,Western Union,Q861042
3b7ff43ebe2caaae66e227d3c1c24402,western_union,DSA MBANK VAKPOSSITO,,Lome,MARITIME,,TG,+228 93 00 15 33,https://location.westernunion.com/tg/maritime/lome/3b7ff43ebe2caaae66e227d3c1c24402,Mo-Sa 07:30-18:00,Western Union,Q861042
1c8a616a1154c39336aa573eb48d54bc,western_union,TOP BUSINESS GROUP,,Lome,MARITIME,,TG,+228 91 24 61 38,https://location.westernunion.com/tg/maritime/lome/1c8a616a1154c39336aa573eb48d54bc,Mo-Su 07:30-19:00,Western Union,Q861042
e36a8efe0b8c063a6b8617035d0b1ce8,western_union,GMS 2017,,Lome,MARITIME,,TG,+228 90 85 66 85,https://location.westernunion.com/tg/maritime/lome/e36a8efe0b8c063a6b8617035d0b1ce8,Mo-Su 07:30-19:00,Western Union,Q861042
bf058655f34245207c4ab5a0644aca12,western_union,BPEC ADIDOGOME,,Lome,MARITIME,,TG,+228 22 50 09 67,https://location.westernunion.com/tg/maritime/lome/bf058655f34245207c4ab5a0644aca12,Mo-Fr 07:30-17:00; Sa 09:00-14:00,Western Union,Q861042
48e2eeee6e0724c9aa1067d082f8bae1,western_union,LA CAPITALE START-UP (ECS),,Lome,MARITIME,,TG,+228 90 86 53 51,https://location.westernunion.com/tg/maritime/lome/48e2eeee6e0724c9aa1067d082f8bae1,Mo-Su 07:30-19:00,Western Union,Q861042
80a0b20f96cee457b34762a86c91ec1c,western_union,2KF,,Lome,MARITIME,,TG,+228 93 77 90 52,https://location.westernunion.com/tg/maritime/lome/80a0b20f96cee457b34762a86c91ec1c,Mo-Su 07:30-19:00,Western Union,Q861042
f11adc386eff57a0888e29b2f17d5968,western_union,EL-EMIRATY,,Lome,MARITIME,,TG,+228 98 72 96 52,https://location.westernunion.com/tg/maritime/lome/f11adc386eff57a0888e29b2f17d5968,Mo-Su 07:30-19:00,Western Union,Q861042
375d90d614c89c9fb84e51762355641e,western_union,WAZA TRANSFERT,,Lome,MARITIME,,TG,+228 91 54 41 28,https://location.westernunion.com/tg/maritime/lome/375d90d614c89c9fb84e51762355641e,Mo-Su 07:30-19:00,Western Union,Q861042
fc6593519c4f7ac688d83b64aa26c24d,western_union,MUTUELLE DIGNITE HUMAINE,,Lome,MARITIME,,TG,+228 99 17 59 03,https://location.westernunion.com/tg/maritime/lome/fc6593519c4f7ac688d83b64aa26c24d,Mo-Su 07:30-19:00,Western Union,Q861042
21c1469fe87a34aeb6c9f6011e6186ee,western_union,ROSY'S DRESS,,Lome,MARITIME,,TG,+228 92 87 91 17,https://location.westernunion.com/tg/maritime/lome/21c1469fe87a34aeb6c9f6011e6186ee,Mo-Su 08:00-20:30,Western Union,Q861042
463a138c35dad9b9d1076bad20f3efd9,western_union,KF'S GLORY SARL U,,Lome,MARITIME,,TG,+228 90 34 59 33,https://location.westernunion.com/tg/maritime/lome/463a138c35dad9b9d1076bad20f3efd9,Mo-Sa 07:00-19:00; Su 08:00-14:00,Western Union,Q861042
6ef406f6f0b1e778b8215eab6826af31,western_union,SKFS GLORY ADETIKOPE,,Lome,MARITIME,,TG,+228 91 44 74 48,https://location.westernunion.com/tg/maritime/lome/6ef406f6f0b1e778b8215eab6826af31,Mo-Sa 07:00-19:00; Su 07:00-17:30,Western Union,Q861042
97afbd9f884c07cfbc261c6b130e381e,western_union,PLAISIRS TROPICAUX,,Lome,MARITIME,,TG,+228 90 86 90 33,https://location.westernunion.com/tg/maritime/lome/97afbd9f884c07cfbc261c6b130e381e,Mo-Su 07:00-21:00,Western Union,Q861042
8da31035fcf7de6e2dde95f11336efe3,western_union,DIGINNOV CO SARL,,Lome,MARITIME,,TG,+228 90 86 90 33,https://location.westernunion.com/tg/maritime/lome/8da31035fcf7de6e2dde95f11336efe3,Mo-Su 07:00-21:00,Western Union,Q861042
8a70d3c727398205e2137a3c5b65533e,western_union,GRAND EXPLOIT,,Lome,MARITIME,,TG,+228 90 33 01 89,https://location.westernunion.com/tg/maritime/lome/8a70d3c727398205e2137a3c5b65533e,Mo-Su 07:00-21:00,Western Union,Q861042
2ae86405d733ab24d864c1e711603546,western_union,KASH,,Lome,MARITIME,,TG,+228 92 00 99 16,https://location.westernunion.com/tg/maritime/lome/2ae86405d733ab24d864c1e711603546,Mo-Su 07:00-22:00,Western Union,Q861042
c510fe700ca673c928721802e778dd87,western_union,ECOBANK AGENCE ADIDOGOME,,Lome,MARITIME,,TG,+228 22 21 72 14,https://location.westernunion.com/tg/maritime/lome/c510fe700ca673c928721802e778dd87,Mo-Fr 07:00-20:00; Sa 07:30-19:00,Western Union,Q861042
c983277be0ca9114ab4abeb1885218e0,western_union,COOPEC AD MADIBA,,Lome,MARITIME,,TG,+228 99 34 72 32,https://location.westernunion.com/tg/maritime/lome/c983277be0ca9114ab4abeb1885218e0,Mo-Fr 07:00-19:00; Sa 07:00-18:00,Western Union,Q861042
62daf2aaa55ad69e6322267d781ba12b,western_union,HOMAK ET FILS,,Lome,MARITIME,,TG,+228 93 54 60 77,https://location.westernunion.com/tg/maritime/lome/62daf2aaa55ad69e6322267d781ba12b,Mo-Su 07:30-19:00,Western Union,Q861042
14fcc29f675ad692c5f791fb20246eb2,western_union,TOGO NOUVELLE IMPRESSION (TNI),,Lome,MARITIME,,TG,+228 90 20 39 80,https://location.westernunion.com/tg/maritime/lome/14fcc29f675ad692c5f791fb20246eb2,Mo-Su 07:30-19:00,Western Union,Q861042
3c930a824f3c327ff455f0de82e6513b,western_union,GBAMFA,,Lome,MARITIME,,TG,+228 70 18 78 66,https://location.westernunion.com/tg/maritime/lome/3c930a824f3c327ff455f0de82e6513b,Mo-Su 06:30-22:30,Western Union,Q861042
3d41a54b8b514fb8923858d86c20df57,western_union,ETS DIEBO AVEDJI,,Lome,MARITIME,,TG,+228 22 56 57 72,https://location.westernunion.com/tg/maritime/lome/3d41a54b8b514fb8923858d86c20df57,Mo-Sa 07:30-19:00; Su 07:30-15:00,Western Union,Q861042
249edf9d0e49c4d0d5c742232f06c11d,western_union,ETS DI EBO SAGBADO,,Lome,MARITIME,,TG,+228 98 02 11 36,https://location.westernunion.com/tg/maritime/lome/249edf9d0e49c4d0d5c742232f06c11d,Mo-Sa 07:30-19:00; Su 07:30-15:00,Western Union,Q861042
8f2908a3ccd25134433daba4cafe85cf,western_union,TIMOTHEE & TITE AGBOKPE,,Lome,MARITIME,,TG,+228 90 09 43 70,https://location.westernunion.com/tg/maritime/lome/8f2908a3ccd25134433daba4cafe85cf,Mo-Su 07:00-21:00,Western Union,Q861042
e2cf508c9990993db69ca7942da221a1,western_union,BELAYONI,,Lome,MARITIME,,TG,+228 90 90 58 53,https://location.westernunion.com/tg/maritime/lome/e2cf508c9990993db69ca7942da221a1,Mo-Su 07:30-19:00,Western Union,Q861042
425e1a97f11331ca90a07f0ea25c49cf,western_union,SOBRYJAY GESTION  S B J,,Lome,MARITIME,,TG,+228 99 87 78 33,https://location.westernunion.com/tg/maritime/lome/425e1a97f11331ca90a07f0ea25c49cf,Mo-Su 07:00-20:00,Western Union,Q861042
c926f6d1497d8536936ebe747580d7b4,western_union,FINTECH 2,,Lome,MARITIME,,TG,+228 90 00 70 65,https://location.westernunion.com/tg/maritime/lome/c926f6d1497d8536936ebe747580d7b4,Mo-Su 07:00-21:00,Western Union,Q861042
7397cd0bf4aec9c652f65ae4ced28304,western_union,PIGUAL ADIDOGOME,,Lome,MARITIME,,TG,+228 92 43 55 90,https://location.westernunion.com/tg/maritime/lome/7397cd0bf4aec9c652f65ae4ced28304,Mo-Su 07:00-21:00,Western Union,Q861042
bcb2c6502d5fd504dae687978c69bb74,western_union,ANSROOM GROUPE UNIQUE,,Lome,MARITIME,,TG,+228 91 46 27 98,https://location.westernunion.com/tg/maritime/lome/bcb2c6502d5fd504dae687978c69bb74,Mo-Su 07:00-20:00,Western Union,Q861042
226d144a6e9ff25a4e40c24ad00ce114,western_union,AKAD TOGO,,Lome,MARITIME,,TG,+228 91 23 99 72,https://location.westernunion.com/tg/maritime/lome/226d144a6e9ff25a4e40c24ad00ce114,Mo-Su 07:30-19:00,Western Union,Q861042
9a692916158765272bef6dad555e0789,western_union,CREANCIER ET ASSOCIEE,,Lome,MARITIME,,TG,+228 93 71 50 31,https://location.westernunion.com/tg/maritime/lome/9a692916158765272bef6dad555e0789,Mo-Sa 07:30-17:00,Western Union,Q861042
854e809676078f609940f5b18f0966f3,western_union,ILEMA DEFI,,Lome,MARITIME,,TG,+228 90 16 78 84,https://location.westernunion.com/tg/maritime/lome/854e809676078f609940f5b18f0966f3,Mo-Fr 07:00-19:00; Sa-Su 07:00-18:00,Western Union,Q861042
3e69f3ef7e0e40d45fcff39dfc2550b0,western_union,ATIKO TRAVEL VAKPOSSITO,,Lome,MARITIME,,TG,+228 90 22 52 98,https://location.westernunion.com/tg/maritime/lome/3e69f3ef7e0e40d45fcff39dfc2550b0,Mo-Fr 07:30-17:30; Sa 08:00-17:00,Western Union,Q861042
1366542071dc6c2aaccfae333234f60c,western_union,ROMY TECH,,Lome,MARITIME,,TG,+228 90 13 25 13,https://location.westernunion.com/tg/maritime/lome/1366542071dc6c2aaccfae333234f60c,Mo-Su 07:30-19:00,Western Union,Q861042
d7b8200065a786074b31acd2db22f1f2,western_union,INVESTMENT BRIDGE,,Lome,MARITIME,,TG,+228 90 54 66 57,https://location.westernunion.com/tg/maritime/lome/d7b8200065a786074b31acd2db22f1f2,Mo-Su 07:30-19:00,Western Union,Q861042
e90df9c0a0d20ef97b01b6dd6d835650,western_union,WAGES AGOE ASSIYEYE,,Lome,MARITIME,,TG,+228 92 14 57 79,https://location.westernunion.com/tg/maritime/lome/e90df9c0a0d20ef97b01b6dd6d835650,Mo-Su 07:30-16:00,Western Union,Q861042
bd6142aa8a7a87a527d0a22d9a0a77cc,western_union,WAGES AGOE,,Lome,MARITIME,,TG,+228 70 44 84 09,https://location.westernunion.com/tg/maritime/lome/bd6142aa8a7a87a527d0a22d9a0a77cc,Mo-Su 07:30-16:00,Western Union,Q861042
b2731ebca020b740c0e4af465b62215f,western_union,EPIPHANIA ET FILS,,Lome,MARITIME,,TG,+228 90 09 43 70,https://location.westernunion.com/tg/maritime/lome/b2731ebca020b740c0e4af465b62215f,Mo-Su 07:00-20:00,Western Union,Q861042
c5fee81dac75fd0126116e6c1bd6a89a,western_union,DIMITRI KOAMI EKLU (DKE),,Lome,MARITIME,,TG,+228 91 33 55 19,https://location.westernunion.com/tg/maritime/lome/c5fee81dac75fd0126116e6c1bd6a89a,Mo-Su 07:30-19:00,Western Union,Q861042
beaf7bd82851621c984f4a74e4a2e6ca,western_union,AYALEX LOGISTICS,,Lome,MARITIME,,TG,+228 93 26 95 94,https://location.westernunion.com/tg/maritime/lome/beaf7bd82851621c984f4a74e4a2e6ca,Mo-Su 07:00-20:00,Western Union,Q861042
52a34bbe78790dfeadb8f1e1240019ae,western_union,BATG ASSIGANTO,,Lome,MARITIME,,TG,+228 22 23 08 00,https://location.westernunion.com/tg/maritime/lome/52a34bbe78790dfeadb8f1e1240019ae,Mo-Fr 07:00-19:00; Sa-Su 07:00-18:00,Western Union,Q861042
a4a93bf1f3847a735cfda449e4e2a8c4,western_union,LA REVELATION DU ROC,,Lome,MARITIME,,TG,+228 91 58 94 66,https://location.westernunion.com/tg/maritime/lome/a4a93bf1f3847a735cfda449e4e2a8c4,Mo-Su 07:30-19:00,Western Union,Q861042
0c55c1b9499a94b24e455237de6d738a,western_union,GS2C,,Lome,MARITIME,,TG,+228 99 48 58 07,https://location.westernunion.com/tg/maritime/lome/0c55c1b9499a94b24e455237de6d738a,Mo-Fr 07:30-17:30; Sa 07:30-15:00,Western Union,Q861042
36846df9eced80b384d65ae0c88d4b42,western_union,LISIERE DES AFFAIRES FINANCIERES,,Adetikope,MARITIME,,TG,+228 93 70 91 00,https://location.westernunion.com/tg/maritime/adetikope/36846df9eced80b384d65ae0c88d4b42,Mo-Sa 07:30-18:00,Western Union,Q861042
92cdfe3e7223b00e1948a7db2ef04523,western_union,DAB NEGOCES,,Lome,MARITIME,,TG,+228 22 54 89 55,https://location.westernunion.com/tg/maritime/lome/92cdfe3e7223b00e1948a7db2ef04523,Mo-Su 07:00-20:00,Western Union,Q861042
33d4cd4c189583fceeecf98eec52ea29,western_union,MILLENIUM & ASSOCIES,,Lome,MARITIME,,TG,+228 93 89 35 96,https://location.westernunion.com/tg/maritime/lome/33d4cd4c189583fceeecf98eec52ea29,Mo-Su 07:30-19:00,Western Union,Q861042
ac390c8c8795fc11f1868714cca12aa3,western_union,LG FINANCE,,Lome,MARITIME,,TG,+228 93 14 16 80,https://location.westernunion.com/tg/maritime/lome/ac390c8c8795fc11f1868714cca12aa3,Mo-Su 07:30-19:00,Western Union,Q861042
ec3b00780f339374eda6da8e5a00e172,western_union,VIRTUAL SERVICES,,Lome,MARITIME,,TG,+228 90 27 19 73,https://location.westernunion.com/tg/maritime/lome/ec3b00780f339374eda6da8e5a00e172,Mo-Su 07:00-21:00,Western Union,Q861042
d9f19c61c6d360edf4283aed1ad25a9e,western_union,CORIS BANK AGENCE ADIDOGOME,,Lome,MARITIME,,TG,+228 22 20 82 82,https://location.westernunion.com/tg/maritime/lome/d9f19c61c6d360edf4283aed1ad25a9e,Mo-Fr 08:00-17:30; Sa-Su 09:00-14:00,Western Union,Q861042
c0dacd8e6e495dc88eba485d45fa3b7f,western_union,ETS RIMOUSKI,,Lome,MARITIME,,TG,+228 22 20 53 85,https://location.westernunion.com/tg/maritime/lome/c0dacd8e6e495dc88eba485d45fa3b7f,Mo-Fr 07:00-18:30; Sa 08:30-16:00,Western Union,Q861042
2ba3bc88ada26fb9b8e706143714dbdf,western_union,GKW TRANSFERT TOGO SARL,,Lome,MARITIME,,TG,+228 90 26 28 23,https://location.westernunion.com/tg/maritime/lome/2ba3bc88ada26fb9b8e706143714dbdf,Mo-Fr 08:00-17:00; Sa 09:00-14:00,Western Union,Q861042
1a2f067d6eb158de7228fbe89dec66b7,western_union,CORIS BANK AGENCE AGOE,,Lome,MARITIME,,TG,+228 22 20 82 82,https://location.westernunion.com/tg/maritime/lome/1a2f067d6eb158de7228fbe89dec66b7,Mo-Su 08:00-17:30,Western Union,Q861042
d65454aede57a3993f85cdfeba3cbc27,western_union,GIFT ROOM KODJOVIAKOPE,,Lome,MARITIME,,TG,+228 90 05 76 23,https://location.westernunion.com/tg/maritime/lome/d65454aede57a3993f85cdfeba3cbc27,Mo-Sa 07:00-20:00; Su 08:00-17:00,Western Union,Q861042
fd5a5e3a121326d8a714cc2485b58cd4,western_union,MAWULIKEM ANNEXE,,Lome,MARITIME,,TG,+228 92 37 38 35,https://location.westernunion.com/tg/maritime/lome/fd5a5e3a121326d8a714cc2485b58cd4,Mo-Sa 07:00-22:00; Su 07:00-20:00,Western Union,Q861042
cc9c91b5e99e83eb03c79bdcd04e6359,western_union,NEW BOSS BUSINESS CENTER (NBBC),,Lome,MARITIME,,TG,+228 98 90 10 32,https://location.westernunion.com/tg/maritime/lome/cc9c91b5e99e83eb03c79bdcd04e6359,Mo-Su 07:30-19:00,Western Union,Q861042
dba1bd1d04a6c61b50521d3a1891bcca,western_union,INOV GLOBAL TRADING IGT,,Lome,MARITIME,,TG,+228 91 35 90 19,https://location.westernunion.com/tg/maritime/lome/dba1bd1d04a6c61b50521d3a1891bcca,Mo-Su 07:00-20:00,Western Union,Q861042
111213600a38d64236889166a8639415,western_union,GRACE LUTHAZ,,Lome,MARITIME,,TG,+228 90 23 12 88,https://location.westernunion.com/tg/maritime/lome/111213600a38d64236889166a8639415,Mo-Su 07:00-20:00,Western Union,Q861042
8c8f995be6ae146794203853b39b8d24,western_union,BUREAU DE REVISION EN IMMIGRATION (BRI),,Lome,MARITIME,,TG,+228 92 04 51 25,https://location.westernunion.com/tg/maritime/lome/8c8f995be6ae146794203853b39b8d24,Mo-Su 07:30-19:00,Western Union,Q861042
e2d867a740ed2a8dd5169f518ef1cedf,western_union,BAREWA,,Lome,MARITIME,,TG,+228 91 80 59 71,https://location.westernunion.com/tg/maritime/lome/e2d867a740ed2a8dd5169f518ef1cedf,Mo-Su 07:00-21:00,Western Union,Q861042
1a9cfc65ea48a8de2331e49d3282c613,western_union,KORNERSTONE DUE DILIGENCE,,Lome,MARITIME,,TG,+228 93 91 81 81,https://location.westernunion.com/tg/maritime/lome/1a9cfc65ea48a8de2331e49d3282c613,Mo-Su 07:00-23:00,Western Union,Q861042
5f78283b342623d4460fe1abb324e974,western_union,DIMITRI KOAMI EKLU (DKE),,Lome,MARITIME,,TG,+228 91 33 55 19,https://location.westernunion.com/tg/maritime/lome/5f78283b342623d4460fe1abb324e974,Mo-Su 07:30-19:00,Western Union,Q861042
251280bfbabbaf88924867c61050a334,western_union,PHARMACIE EPIPHANIA,,Lome,MARITIME,,TG,+228 22 25 02 62,https://location.westernunion.com/tg/maritime/lome/251280bfbabbaf88924867c61050a334,Mo-Su 07:00-21:00,Western Union,Q861042
dfef4cb56733bbc6b67a8e0a03018e34,western_union,CENTRE INFORMATIQUE DJOBO ET FRERES,,Lome,MARITIME,,TG,+228 92 96 66 33,https://location.westernunion.com/tg/maritime/lome/dfef4cb56733bbc6b67a8e0a03018e34,Mo-Su 07:30-18:00,Western Union,Q861042
6df723e78d4a928ddbae2cb572f736dc,western_union,RESEAU POLYVALENT,,Lome,MARITIME,,TG,+228 99 83 00 66,https://location.westernunion.com/tg/maritime/lome/6df723e78d4a928ddbae2cb572f736dc,Mo-Su 07:30-19:00,Western Union,Q861042
dab7d125a04a40085ca365275d68ad74,western_union,LE GEANT DU JOUR AKOIN,,Lome,MARITIME,,TG,+228 91 80 23 64,https://location.westernunion.com/tg/maritime/lome/dab7d125a04a40085ca365275d68ad74,Mo-Su 07:00-20:00,Western Union,Q861042
b0f607a380bc7d8523b316f288ff9af7,western_union,F BESACE,,Lome,MARITIME,,TG,+228 90 51 44 51,https://location.westernunion.com/tg/maritime/lome/b0f607a380bc7d8523b316f288ff9af7,Mo-Su 07:30-19:00,Western Union,Q861042
4c20c84131a2412cf6f34a865cf4c0d6,western_union,GIFT ROOM TOTSI,,Lome,MARITIME,,TG,+228 90 05 76 23,https://location.westernunion.com/tg/maritime/lome/4c20c84131a2412cf6f34a865cf4c0d6,Mo-Su 07:00-21:00,Western Union,Q861042
ee37b9dbbdf8264973be6ca91718157b,western_union,LA REFERENCE PRIX,,Lome,MARITIME,,TG,+228 99 36 22 63,https://location.westernunion.com/tg/maritime/lome/ee37b9dbbdf8264973be6ca91718157b,Mo-Su 07:00-21:00,Western Union,Q861042
b6ed6379dc11ea529386bacf8ce04ba8,western_union,ANNY,,Lome,MARITIME,,TG,+228 90 04 15 92,https://location.westernunion.com/tg/maritime/lome/b6ed6379dc11ea529386bacf8ce04ba8,Mo-Su 07:00-20:00,Western Union,Q861042
dc7f2f32561eecea0d2115548486231f,western_union,DIMITRI KOAMI EKLU (DKE),,Lome,MARITIME,,TG,+228 91 33 55 19,https://location.westernunion.com/tg/maritime/lome/dc7f2f32561eecea0d2115548486231f,Mo-Su 07:30-19:00,Western Union,Q861042
62dd29c6e51e73c236265f9e8ec4ff46,western_union,SOCIETE DES POSTES DU TOGO AGENCE ASJD,,Lome,MARITIME,,TG,(+228) 2253346,https://location.westernunion.com/tg/maritime/lome/62dd29c6e51e73c236265f9e8ec4ff46,Mo-Fr 07:00-17:00; Sa 07:00-12:00; Su 00:01-24:00,Western Union,Q861042
d74fe4ff2de70e2323e77996a0da0bf8,western_union,NAFAARI TRANS,,Lome,MARITIME,,TG,+228 90 92 51 96,https://location.westernunion.com/tg/maritime/lome/d74fe4ff2de70e2323e77996a0da0bf8,Mo-Su 07:00-20:00,Western Union,Q861042
d8627fa3cd5f15b853894303d57d72f7,western_union,MAN BC,,Lome,MARITIME,,TG,+228 90 76 43 03,https://location.westernunion.com/tg/maritime/lome/d8627fa3cd5f15b853894303d57d72f7,Mo-Su 07:30-19:00,Western Union,Q861042
2cc3d2b3a022155fc52ac30741af85b4,western_union,BOA AGENCE ADIDOGOME,,Lome,MARITIME,,TG,+228 22 53 62 13,https://location.westernunion.com/tg/maritime/lome/2cc3d2b3a022155fc52ac30741af85b4,Mo-Fr 07:00-18:30; Sa 08:00-14:00,Western Union,Q861042
02753c8b32f9bb0bf3d743e555b415da,western_union,ROMY TECH,,Lome,MARITIME,,TG,+228 90 13 25 13,https://location.westernunion.com/tg/maritime/lome/02753c8b32f9bb0bf3d743e555b415da,Mo-Su 07:30-19:00,Western Union,Q861042
6dd34ed2d04cf15c228a8278747a8d2f,western_union,AKAD TOGO,,Lome,MARITIME,,TG,+228 91 23 99 72,https://location.westernunion.com/tg/maritime/lome/6dd34ed2d04cf15c228a8278747a8d2f,Mo-Su 07:30-19:00,Western Union,Q861042
3e3805d00ff629ca1635eef74b22ebf2,western_union,TECH LINKS SOLUTIONS (TLS),,Lome,MARITIME,,TG,+228 90 65 82 51,https://location.westernunion.com/tg/maritime/lome/3e3805d00ff629ca1635eef74b22ebf2,Mo-Su 07:30-19:00,Western Union,Q861042
5ca6e4312ec19705510f78b4ef01e5fb,western_union,BENI EXPRESS,,Lome,MARITIME,,TG,+228 90 16 39 21,https://location.westernunion.com/tg/maritime/lome/5ca6e4312ec19705510f78b4ef01e5fb,Mo-Su 07:30-20:00,Western Union,Q861042
14b41dac03250ce0dd763080ae40b0f0,western_union,SCAJFES,,Lome,MARITIME,,TG,+228 97 26 37 68,https://location.westernunion.com/tg/maritime/lome/14b41dac03250ce0dd763080ae40b0f0,Mo-Su 07:30-19:00,Western Union,Q861042
b243414ca28a537bf23b54e22b904571,western_union,BERACA NET,,Lome,MARITIME,,TG,+228 90 99 92 10,https://location.westernunion.com/tg/maritime/lome/b243414ca28a537bf23b54e22b904571,Mo-Su 07:30-20:30,Western Union,Q861042
5cb41e2ecac4516ae2da59cd76e394e7,western_union,SPT LOME AGBALEPEDO,,Lome,MARITIME,,TG,(+228) 2510921,https://location.westernunion.com/tg/maritime/lome/5cb41e2ecac4516ae2da59cd76e394e7,Mo-Fr 07:00-17:00; Sa 07:30-14:00,Western Union,Q861042
5a97448ef26e1b272ac1a2d8f63f7850,western_union,NABOUDJA YINDO FILS ET FILLES,,Lome,MARITIME,,TG,+228 90 03 28 61,https://location.westernunion.com/tg/maritime/lome/5a97448ef26e1b272ac1a2d8f63f7850,Mo-Su 06:30-20:00,Western Union,Q861042
b8d1c5c68ddd4182c7b85a0a254e695f,western_union,ECOBANK SHELL AGOE,,Lome,MARITIME,,TG,(+228) 227403,https://location.westernunion.com/tg/maritime/lome/b8d1c5c68ddd4182c7b85a0a254e695f,Mo-Sa 07:30-20:00,Western Union,Q861042
8e562a8036b05d1bc285bd28f840d421,western_union,POINT BANQUE AGBALEPEDO,,Lome,MARITIME,,TG,+228 22 53 10 65,https://location.westernunion.com/tg/maritime/lome/8e562a8036b05d1bc285bd28f840d421,Mo-Su 07:00-21:00,Western Union,Q861042
228ce943b167c18ae4b3afa53adfeaf9,western_union,NORTON SERVICE,,Lome,MARITIME,,TG,+228 90 31 51 44,https://location.westernunion.com/tg/maritime/lome/228ce943b167c18ae4b3afa53adfeaf9,Mo-Su 07:00-19:00,Western Union,Q861042
424b4b4373ee6a620778a90819d035fb,western_union,BANK OF AFRICA AGENCE AGOE,,Lome,MARITIME,,TG,+228 22 53 62 17,https://location.westernunion.com/tg/maritime/lome/424b4b4373ee6a620778a90819d035fb,Mo-Fr 07:00-18:30; Sa 07:00-14:00,Western Union,Q861042
b69435abccbc7de4bfcfba0a43ca0675,western_union,AGOSSOU LE LEADER  ALL,,Lome,MARITIME,,TG,+228 92 81 98 96,https://location.westernunion.com/tg/maritime/lome/b69435abccbc7de4bfcfba0a43ca0675,Mo-Su 07:30-19:00,Western Union,Q861042
ff2e8e7806a9492ea3056bed864440c2,western_union,SPT LOME AGOE ATCHANVE,,Lome,MARITIME,,TG,(+228) 2422052,https://location.westernunion.com/tg/maritime/lome/ff2e8e7806a9492ea3056bed864440c2,Mo-Fr 07:30-17:00; Sa 07:30-14:00,Western Union,Q861042
ab712a3ffc3aaac79010cd60a60b21a8,western_union,MGA & PARTNERS,,Lome,MARITIME,,TG,+228 90 23 89 17,https://location.westernunion.com/tg/maritime/lome/ab712a3ffc3aaac79010cd60a60b21a8,Mo-Su 07:00-20:00,Western Union,Q861042
d88e1b41d73309a82e5ce99a7c3632f0,western_union,KEYOU ESSONIWA ET TCHILALO-GRACE,,Lome,MARITIME,,TG,+228 92 68 62 15,https://location.westernunion.com/tg/maritime/lome/d88e1b41d73309a82e5ce99a7c3632f0,Mo-Sa 07:00-19:00,Western Union,Q861042
fd90f7a6593c452c35c0ffbb9ab75bbc,western_union,DYNAMIC MANAGEMENT CONSULTING,,Lome,MARITIME,,TG,+228 90 19 30 38,https://location.westernunion.com/tg/maritime/lome/fd90f7a6593c452c35c0ffbb9ab75bbc,Mo-Su 07:30-20:00,Western Union,Q861042
28fb904955f1a102953bf7c189b1830a,western_union,NAGODE TRANSFERT AGBALEPEDO,,Lome,MARITIME,,TG,+228 92 98 99 24,https://location.westernunion.com/tg/maritime/lome/28fb904955f1a102953bf7c189b1830a,Mo-Sa 07:30-18:00,Western Union,Q861042
a6c11a35ec9903ff7d387d5e291bd946,western_union,MOURIDA INTERNATIONAL SARL U,,Lome,MARITIME,,TG,+228 92 43 45 45,https://location.westernunion.com/tg/maritime/lome/a6c11a35ec9903ff7d387d5e291bd946,Mo-Su 07:00-21:00,Western Union,Q861042
6aa198e506fae823b278f3499c3e45cf,western_union,TOUT EST GRACE POUR MOI,,Lome,MARITIME,,TG,+228 70 21 86 86,https://location.westernunion.com/tg/maritime/lome/6aa198e506fae823b278f3499c3e45cf,Mo-Su 07:00-21:00,Western Union,Q861042
d69e8d8133e4a9d3e60f8121cd3767b4,western_union,FUCEC AVE AGOE,,Lome,MARITIME,,TG,+228 90 24 24 13,https://location.westernunion.com/tg/maritime/lome/d69e8d8133e4a9d3e60f8121cd3767b4,Mo-Su 07:30-18:00,Western Union,Q861042
b6005f4442781f207aafe374629be2bc,western_union,YAYRAVIME,,Lome,MARITIME,,TG,+228 92 42 75 50,https://location.westernunion.com/tg/maritime/lome/b6005f4442781f207aafe374629be2bc,Mo-Su 07:00-20:00,Western Union,Q861042
92c8e9af146763564f5a27786b797bde,western_union,BEAUTY SUPPLY,,Lome,MARITIME,,TG,+228 90 11 10 01,https://location.westernunion.com/tg/maritime/lome/92c8e9af146763564f5a27786b797bde,Mo-Su 09:00-19:00,Western Union,Q861042
f2a4eaeb4564f57b4680b1b776b7f3c7,western_union,ELI & FRERES,,Lome,MARITIME,,TG,+228 90 05 18 89,https://location.westernunion.com/tg/maritime/lome/f2a4eaeb4564f57b4680b1b776b7f3c7,Mo-Su 09:00-19:00,Western Union,Q861042
44dfbea2039b2278e26ab7c5f65355c7,western_union,SIAB ZOROBAR,,Lome,MARITIME,,TG,+228 22 25 38 39,https://location.westernunion.com/tg/maritime/lome/44dfbea2039b2278e26ab7c5f65355c7,Mo-Fr 07:30-17:00; Sa 09:00-15:00,Western Union,Q861042
af1faac13650b2b7117f9a0da2642129,western_union,A Y GROUP AGOE,,Lome,MARITIME,,TG,+228 92 66 19 55,https://location.westernunion.com/tg/maritime/lome/af1faac13650b2b7117f9a0da2642129,Mo-Su 07:00-20:00,Western Union,Q861042
3d1efd637b4e0b8a79fd5ad1a7428a91,western_union,QUICK AND SECURE ALL SERVICES (QASAS),,Lome,MARITIME,,TG,+228 90 01 16 63,https://location.westernunion.com/tg/maritime/lome/3d1efd637b4e0b8a79fd5ad1a7428a91,Mo-Su 07:30-19:00,Western Union,Q861042
4878a810b7890a395bb70a5c782be778,western_union,AKOBA,,Lome,MARITIME,,TG,+228 90 82 25 45,https://location.westernunion.com/tg/maritime/lome/4878a810b7890a395bb70a5c782be778,Mo-Su 07:00-20:00,Western Union,Q861042
b6648ebee94cb4e14409e82eb20d31a7,western_union,KORNERSTONE DUE DILIGENCE,,Lome,MARITIME,,TG,+228 93 91 81 81,https://location.westernunion.com/tg/maritime/lome/b6648ebee94cb4e14409e82eb20d31a7,Mo-Su 07:00-23:00,Western Union,Q861042
52b5d94a78d72fd8499f8ecdba76a9ba,western_union,FUCEC AVE ASSIYEYE,,Lome,MARITIME,,TG,+228 90 24 24 13,https://location.westernunion.com/tg/maritime/lome/52b5d94a78d72fd8499f8ecdba76a9ba,Mo-Su 07:30-18:00,Western Union,Q861042
5b357b79189b497f23590cce55fc3955,western_union,PIGUAL MINAMADOU,,Lome,MARITIME,,TG,+228 92 52 96 02,https://location.westernunion.com/tg/maritime/lome/5b357b79189b497f23590cce55fc3955,Mo-Su 07:00-21:00,Western Union,Q861042
3d04e0c6aaf51ac94354aa3ec63a24a9,western_union,MAWUPEDZRO AZIAGBA M A,,Lome,MARITIME,,TG,+228 99 46 25 64,https://location.westernunion.com/tg/maritime/lome/3d04e0c6aaf51ac94354aa3ec63a24a9,Mo-Su 07:00-21:00,Western Union,Q861042
ff7931df996a2ee029d9bee7d3729968,western_union,GIOS KORITSI G K,,Lome,MARITIME,,TG,+228 92 10 06 00,https://location.westernunion.com/tg/maritime/lome/ff7931df996a2ee029d9bee7d3729968,Mo-Su 07:00-21:00,Western Union,Q861042
9aa6c55c77f1e9f809bb1b4cad671e2f,western_union,FINAM TOGO SA,,Lome,MARITIME,,TG,+228 96 80 14 86,https://location.westernunion.com/tg/maritime/lome/9aa6c55c77f1e9f809bb1b4cad671e2f,Mo-Su 07:30-19:00,Western Union,Q861042
ebd13d7ccde6888c2141359568616040,western_union,SPT LOME AVEDJI,,Lome,MARITIME,,TG,(+228) 2500000,https://location.westernunion.com/tg/maritime/lome/ebd13d7ccde6888c2141359568616040,Mo-Fr 07:30-17:00; Sa 07:30-14:00,Western Union,Q861042
99f485070b45f192a59cb5d6fa49169a,western_union,MAGENTA CORPORATION,,Lome,MARITIME,,TG,+228 90 18 89 38,https://location.westernunion.com/tg/maritime/lome/99f485070b45f192a59cb5d6fa49169a,Mo-Su 09:00-19:00,Western Union,Q861042
b02d8da8c9e2244c4be33f29545db5de,western_union,COOPEC AD AGOE ASSIYEYE,,Lome,MARITIME,,TG,+228 96 29 23 11,https://location.westernunion.com/tg/maritime/lome/b02d8da8c9e2244c4be33f29545db5de,Mo-Fr 07:30-16:30; Sa 08:00-12:00,Western Union,Q861042
72d371b66df93d1a127ae6a8b38c079a,western_union,TOGO NOUVELLE IMPRESSION (TNI),,Lome,MARITIME,,TG,+228 90 20 39 80,https://location.westernunion.com/tg/maritime/lome/72d371b66df93d1a127ae6a8b38c079a,Mo-Su 07:30-19:00,Western Union,Q861042
3a8c42eb4a34846e7247ead730f914e3,western_union,EVA GOLD SARL U,,Lome,MARITIME,,TG,+228 93 69 06 13,https://location.westernunion.com/tg/maritime/lome/3a8c42eb4a34846e7247ead730f914e3,Mo-Su 07:30-19:00,Western Union,Q861042
978330f40b607b436bb312feb3c6c6f6,western_union,PSDTT SARL ZONGO,,Lome,MARITIME,,TG,+228 97 09 52 50,https://location.westernunion.com/tg/maritime/lome/978330f40b607b436bb312feb3c6c6f6,Mo-Su 07:00-20:00,Western Union,Q861042
37e591c0b7593b518c076700519d6524,western_union,DEARS,,Lome,MARITIME,,TG,+228 70 40 87 88,https://location.westernunion.com/tg/maritime/lome/37e591c0b7593b518c076700519d6524,Mo-Su 07:30-19:00,Western Union,Q861042
56213f6c21670f0d418b3e45a079119b,western_union,SANDRA DES ANGES PLATEAU,,Lome,MARITIME,,TG,+228 91 16 65 83,https://location.westernunion.com/tg/maritime/lome/56213f6c21670f0d418b3e45a079119b,Mo-Sa 07:00-20:00,Western Union,Q861042
b39acc007e4691d93bef6caef795ce67,western_union,CARFR NVLLES TECHN INFTQ ET COMM (CNTIC),,Lome,MARITIME,,TG,+228 90 16 65 53,https://location.westernunion.com/tg/maritime/lome/b39acc007e4691d93bef6caef795ce67,Mo-Su 07:30-19:00,Western Union,Q861042
7a97ddb54608c24ece140e393fc52279,western_union,KOUDJODJI CONSEILS SARL U,,Lome,MARITIME,,TG,+228 90 20 23 01,https://location.westernunion.com/tg/maritime/lome/7a97ddb54608c24ece140e393fc52279,Mo-Sa 07:00-19:00,Western Union,Q861042
aa4d89fa3a3c1c29ca656a4cd227ca80,western_union,RIMOUSKI  VEGO,,Lome,MARITIME,,TG,+228 92 40 75 20,https://location.westernunion.com/tg/maritime/lome/aa4d89fa3a3c1c29ca656a4cd227ca80,Mo-Su 07:00-22:00,Western Union,Q861042
38fb4655f6e1006ee4deeae4e4324e5f,western_union,MAWOUMOSE,,Lome,MARITIME,,TG,+228 99 40 10 10,https://location.westernunion.com/tg/maritime/lome/38fb4655f6e1006ee4deeae4e4324e5f,Mo-Su 07:30-19:00,Western Union,Q861042
18dae27d9258540b994056c54b571b62,western_union,FUCEC AVE CACAVELI,,Lome,MARITIME,,TG,+228 90 24 24 13,https://location.westernunion.com/tg/maritime/lome/18dae27d9258540b994056c54b571b62,Mo-Su 07:30-18:00,Western Union,Q861042
ec531f12884cf790ec6310c998272a8b,western_union,ECOBANK SITE TOTSI,,Lome,MARITIME,,TG,(+228) 2227403,https://location.westernunion.com/tg/maritime/lome/ec531f12884cf790ec6310c998272a8b,Mo-Sa 07:30-20:00,Western Union,Q861042
02cc47323f21ee799cfe51d828f053ce,western_union,NELIX,,Lome,MARITIME,,TG,+228 91 96 36 26,https://location.westernunion.com/tg/maritime/lome/02cc47323f21ee799cfe51d828f053ce,Mo-Sa 07:30-18:00,Western Union,Q861042
7e6f3c32288abfecab01896c5d40e6c3,western_union,JUSTE QUEEN SERVICE  JQS,,Lome,MARITIME,,TG,+228 90 05 30 69,https://location.westernunion.com/tg/maritime/lome/7e6f3c32288abfecab01896c5d40e6c3,Mo-Su 07:30-19:00,Western Union,Q861042
0a4bbe8411b7db70ac5220e0b350f50c,western_union,AGENCE ADIDOGOME,,Lome,MARITIME,,TG,+228 22 25 74 73,https://location.westernunion.com/tg/maritime/lome/0a4bbe8411b7db70ac5220e0b350f50c,Mo-Fr 07:45-19:00; Sa 09:00-16:00,Western Union,Q861042
94caa375d29d588e3c0d8c17630496c1,western_union,KAYAK,,Lome,MARITIME,,TG,+228 90 03 81 75,https://location.westernunion.com/tg/maritime/lome/94caa375d29d588e3c0d8c17630496c1,Mo-Su 07:30-19:00,Western Union,Q861042
3bbf0e7f969e6683a9b42f46c19bf4bd,western_union,VELDCHART,,Lome,MARITIME,,TG,+228 91 07 34 79,https://location.westernunion.com/tg/maritime/lome/3bbf0e7f969e6683a9b42f46c19bf4bd,Mo-Su 07:30-19:00,Western Union,Q861042
e71878204fc9f87bd2b0be5406c2d390,western_union,AKS GROUP,,Lome,MARITIME,,TG,+228 91 69 41 10,https://location.westernunion.com/tg/maritime/lome/e71878204fc9f87bd2b0be5406c2d390,Mo-Su 08:00-20:00,Western Union,Q861042
9e0ec7740a39d726cbec8b04126220c4,western_union,PIGUAL TOTSI,,Lome,MARITIME,,TG,+228 92 71 18 36,https://location.westernunion.com/tg/maritime/lome/9e0ec7740a39d726cbec8b04126220c4,Mo-Su 07:00-21:00,Western Union,Q861042
234f6d3997efa11fdb08c733742620dd,western_union,SPT AGOE ZONGO,,Lome,MARITIME,,TG,+228 92 22 64 51,https://location.westernunion.com/tg/maritime/lome/234f6d3997efa11fdb08c733742620dd,Mo-Fr 07:30-17:00; Sa 07:30-14:00,Western Union,Q861042
6f8347ad53350ee86718187b3fbfaef3,western_union,PRINCIPE TRANSFERT,,Lome,MARITIME,,TG,+228 90 17 79 71,https://location.westernunion.com/tg/maritime/lome/6f8347ad53350ee86718187b3fbfaef3,Mo-Su 07:00-21:00,Western Union,Q861042
4f3159554c343c94a4aa2b71b87ccf82,western_union,PRINCIPE TRANSFERT,,Lome,MARITIME,,TG,+228 90 17 79 71,https://location.westernunion.com/tg/maritime/lome/4f3159554c343c94a4aa2b71b87ccf82,Mo-Su 07:00-21:00,Western Union,Q861042
81b79ea96f0c69a8c32e38d9b07f3085,western_union,ESPACE DE SERVICES TECHNOLOGIQUE EST,,Lome,MARITIME,,TG,+228 93 41 49 77,https://location.westernunion.com/tg/maritime/lome/81b79ea96f0c69a8c32e38d9b07f3085,Mo-Su 07:00-21:00,Western Union,Q861042
0b0c1957257e37348759340db87f767f,western_union,PIERRE CLAVER FAFADJI ET FILS,,Lome,MARITIME,,TG,+228 90 14 85 89,https://location.westernunion.com/tg/maritime/lome/0b0c1957257e37348759340db87f767f,Mo-Su 07:00-21:00,Western Union,Q861042
205627c2a4a32242919f628cc31e58cf,western_union,SANDRA DES ANGES AGOE,,Lome,MARITIME,,TG,+228 90 89 78 79,https://location.westernunion.com/tg/maritime/lome/205627c2a4a32242919f628cc31e58cf,Mo-Su 07:00-21:00,Western Union,Q861042
73e93f2495c1ffae9a91d99e4961c7c1,western_union,LA LOUANGE,,Lome,MARITIME,,TG,+228 90 11 14 73,https://location.westernunion.com/tg/maritime/lome/73e93f2495c1ffae9a91d99e4961c7c1,Mo-Su 07:00-23:00,Western Union,Q861042
d0c5bfb967611e32da5d3c220f500fff,western_union,LE JERICHO SARL,,Lome,MARITIME,,TG,+228 92 62 85 41,https://location.westernunion.com/tg/maritime/lome/d0c5bfb967611e32da5d3c220f500fff,Mo-Su 07:00-21:00,Western Union,Q861042
f4e6473be4ed20796c29dfaf40214f5a,western_union,DREAM ISLAND SOGBOSSITO,,Lome,MARITIME,,TG,+228 90 14 26 77,https://location.westernunion.com/tg/maritime/lome/f4e6473be4ed20796c29dfaf40214f5a,Mo-Su 07:00-21:00,Western Union,Q861042
64c3e37b4edec79007b970dcfa7567c7,western_union,TECHNOLOGIE FINANCIERE FINTECH,,Lome,MARITIME,,TG,+228 91 98 97 72,https://location.westernunion.com/tg/maritime/lome/64c3e37b4edec79007b970dcfa7567c7,Mo-Su 07:00-21:00,Western Union,Q861042
0059ef2527ca14c82eb3f6a158d01b76,western_union,RACH BOUTIQUE RB,,Lome,MARITIME,,TG,+228 91 50 05 41,https://location.westernunion.com/tg/maritime/lome/0059ef2527ca14c82eb3f6a158d01b76,Mo-Su 07:00-21:00,Western Union,Q861042
9609603d61c1581359465212cba25fc7,western_union,PIERRE CLAVER FAFADJI ET FILS,,Lome,MARITIME,,TG,+228 90 14 85 89,https://location.westernunion.com/tg/maritime/lome/9609603d61c1581359465212cba25fc7,Mo-Su 07:00-21:00,Western Union,Q861042
66b820080ebc37bb5d608317a1f94cdf,western_union,PIERRE CLAVER FAFADJI ET FILS,,Lome,MARITIME,,TG,+228 90 14 85 89,https://location.westernunion.com/tg/maritime/lome/66b820080ebc37bb5d608317a1f94cdf,Mo-Su 07:00-21:00,Western Union,Q861042
5687e1a173c81c001eefad1fb2845de8,western_union,PRINCIPE TRANSFERT,,Lome,MARITIME,,TG,+228 90 17 79 71,https://location.westernunion.com/tg/maritime/lome/5687e1a173c81c001eefad1fb2845de8,Mo-Su 07:00-21:00,Western Union,Q861042
da5b072e76518a1995c65b33e718704b,western_union,SILLAH ET FILS,,Lome,MARITIME,,TG,+228 90 06 38 08,https://location.westernunion.com/tg/maritime/lome/da5b072e76518a1995c65b33e718704b,Mo-Sa 09:00-19:00,Western Union,Q861042
766a2df92f7c86e32415bf477d5fb86a,western_union,BSIC TOGO KLIKAME,,Lome,MARITIME,,TG,+228 22 50 01 33,https://location.westernunion.com/tg/maritime/lome/766a2df92f7c86e32415bf477d5fb86a,Mo-Fr 08:00-16:30; Sa 09:00-14:00,Western Union,Q861042
d1b646fbf23c9a96ec0b6bfd9a3865b0,western_union,STE FAITH SETH SARL,,Lome,MARITIME,,TG,+228 23 38 71 05,https://location.westernunion.com/tg/maritime/lome/d1b646fbf23c9a96ec0b6bfd9a3865b0,Mo-Su 07:30-22:00,Western Union,Q861042
20d55b08e30d5fd6686df51afe5b02e0,western_union,HARODI,,Lome,MARITIME,,TG,+228 92 34 95 94,https://location.westernunion.com/tg/maritime/lome/20d55b08e30d5fd6686df51afe5b02e0,Mo-Fr 07:00-19:00; Sa 07:00-18:00,Western Union,Q861042
25d774ebb2f40434c11e21407be0e1d6,western_union,DI EBO DJIDJOLE DONOU,,Lome,MARITIME,,TG,+228 90 07 27 02,https://location.westernunion.com/tg/maritime/lome/25d774ebb2f40434c11e21407be0e1d6,Mo-Fr 07:30-19:00; Sa 07:30-18:00; Su 07:30-15:00,Western Union,Q861042
b9459b843a517f7d0801dca1ba99710e,western_union,ORABANK AGENCE AGBALEPEDOGAN,,Lome,MARITIME,,TG,+228 22 25 66 75,https://location.westernunion.com/tg/maritime/lome/b9459b843a517f7d0801dca1ba99710e,Mo-Fr 07:45-19:00; Sa 09:00-19:00,Western Union,Q861042
bb6daf4a033ea596774cdb497808be67,western_union,SEFCO INTERNATIONAL TG SARL,,Lome,MARITIME,,TG,+228 90 98 59 73,https://location.westernunion.com/tg/maritime/lome/bb6daf4a033ea596774cdb497808be67,Mo-Su 07:00-20:00,Western Union,Q861042
ebc9d5d737de21373ca965ab192ced27,western_union,MUTUELLE DIGNITE HUMAINE,,Lome,MARITIME,,TG,+228 99 17 59 03,https://location.westernunion.com/tg/maritime/lome/ebc9d5d737de21373ca965ab192ced27,Mo-Su 07:30-19:00,Western Union,Q861042
fee2c2d6874c046bdb35b2b58f98f026,western_union,DI EBO NEW DONOU & HEDZRA,,Lome,MARITIME,,TG,+228 90 07 27 02,https://location.westernunion.com/tg/maritime/lome/fee2c2d6874c046bdb35b2b58f98f026,Mo-Sa 07:30-19:00; Su 07:30-15:00,Western Union,Q861042
c8d5e2ba5f68ba3ed6f0d83266db5a40,western_union,ECHELLE SERVICES,,Lome,MARITIME,,TG,+228 90 24 03 87,https://location.westernunion.com/tg/maritime/lome/c8d5e2ba5f68ba3ed6f0d83266db5a40,Mo-Su 07:30-19:00,Western Union,Q861042
27727f3cc9cad1e2f227cbc45c96fe2d,western_union,REHOBOTH,,Lome,MARITIME,,TG,(+228) 228,https://location.westernunion.com/tg/maritime/lome/27727f3cc9cad1e2f227cbc45c96fe2d,Mo-Sa 07:00-21:00,Western Union,Q861042
52bd069a7bbd735ad0a8c459bddbb24c,western_union,RACH STYLE,,Lome,MARITIME,,TG,+228 91 58 88 14,https://location.westernunion.com/tg/maritime/lome/52bd069a7bbd735ad0a8c459bddbb24c,Mo-Su 07:30-19:00,Western Union,Q861042
d52095caac506620ad0dc3b0a89d3309,western_union,MIA ECLAT,,Lome,MARITIME,,TG,+228 90 82 98 64,https://location.westernunion.com/tg/maritime/lome/d52095caac506620ad0dc3b0a89d3309,Mo-Su 07:00-21:00,Western Union,Q861042
4c33e4cf8b92db98d73627f2c108658e,western_union,CHARLED,,Lome,MARITIME,,TG,+228 90 18 14 11,https://location.westernunion.com/tg/maritime/lome/4c33e4cf8b92db98d73627f2c108658e,Mo-Fr 07:30-18:30; Sa 07:30-15:30,Western Union,Q861042
8f39d3c517ce7ebcdf4b3b0dcef977f0,western_union,ETS DIEBO DJIDJOLE,,Lome,MARITIME,,TG,+228 24 41 06 04,https://location.westernunion.com/tg/maritime/lome/8f39d3c517ce7ebcdf4b3b0dcef977f0,Mo-Sa 07:30-19:00; Su 07:30-15:00,Western Union,Q861042
ab60d131a79ba2f92010b359ed9f8448,western_union,CANADA EN DIRECT SARL,,Lome,MARITIME,,TG,+228 98 62 73 29,https://location.westernunion.com/tg/maritime/lome/ab60d131a79ba2f92010b359ed9f8448,Mo-Su 07:30-19:00,Western Union,Q861042
05b1541adaf259c3046ef4a82767a61a,western_union,INTERNATIONAL TECHNOLOGY SOLUTION,,Lome,MARITIME,,TG,+228 91 59 19 95,https://location.westernunion.com/tg/maritime/lome/05b1541adaf259c3046ef4a82767a61a,Mo-Su 07:00-20:00,Western Union,Q861042
9057745b15df64de694b38bcdaeba0ec,western_union,PSDTT DJIDJOLE,,Lome,MARITIME,,TG,+228 99 66 92 29,https://location.westernunion.com/tg/maritime/lome/9057745b15df64de694b38bcdaeba0ec,Mo-Su 07:00-20:00,Western Union,Q861042
f50abbf157586526bd54ae2eeeea8451,western_union,MAZ HOUSE,,Lome,MARITIME,,TG,+228 90 48 34 04,https://location.westernunion.com/tg/maritime/lome/f50abbf157586526bd54ae2eeeea8451,Mo-Su 07:00-20:00,Western Union,Q861042
46e395b5c7a62075f2bebec40fb26401,western_union,MADIBA,,Lome,MARITIME,,TG,+228 90 05 06 27,https://location.westernunion.com/tg/maritime/lome/46e395b5c7a62075f2bebec40fb26401,Mo-Su 08:00-22:00,Western Union,Q861042
9f4db08dd43c2122dbb26a93b96013ab,western_union,A Y GROUP AKODESSEWA,,Lome,MARITIME,,TG,+228 92 66 19 55,https://location.westernunion.com/tg/maritime/lome/9f4db08dd43c2122dbb26a93b96013ab,Mo-Su 07:00-22:00,Western Union,Q861042
c0bc44752ab3de19417fb1bcc657bfd7,western_union,ROS IDE BUSINESS,,Lome,MARITIME,,TG,+228 90 17 23 08,https://location.westernunion.com/tg/maritime/lome/c0bc44752ab3de19417fb1bcc657bfd7,Mo-Su 07:00-20:00,Western Union,Q861042
f411ec76b151a40e0d49687b1c096232,western_union,DMV SERVICES,,Lome,MARITIME,,TG,+228 90 22 05 22,https://location.westernunion.com/tg/maritime/lome/f411ec76b151a40e0d49687b1c096232,Mo-Su 07:00-20:00,Western Union,Q861042
9971435702ba2c6e86c28eb4e872369f,western_union,FINAM TOGO SA,,Lome,MARITIME,,TG,+228 99 99 86 55,https://location.westernunion.com/tg/maritime/lome/9971435702ba2c6e86c28eb4e872369f,Mo-Su 07:30-19:00,Western Union,Q861042
4f6c3a1d93d3077a372e4374485a6df1,western_union,WWA BIA TOGO BAGUIDA,,Lome,MARITIME,,TG,+228 90 55 94 98,https://location.westernunion.com/tg/maritime/lome/4f6c3a1d93d3077a372e4374485a6df1,Mo-Fr 08:00-17:00; Sa 08:00-15:00,Western Union,Q861042
4b69a8b4292820fdfab4af43d60adadd,western_union,WAGES LEGBASSITO,,Lome,MARITIME,,TG,+228 90 16 21 66,https://location.westernunion.com/tg/maritime/lome/4b69a8b4292820fdfab4af43d60adadd,Mo-Su 07:30-16:00,Western Union,Q861042
8373b0bd92a98bc44173ff1adf0157f0,western_union,ROMY TECH,,Lome,MARITIME,,TG,+228 90 13 25 13,https://location.westernunion.com/tg/maritime/lome/8373b0bd92a98bc44173ff1adf0157f0,Mo-Su 07:30-19:00,Western Union,Q861042
b904fd616b45f81d111acaf3f3b0c2d8,western_union,MAIN DE DIEU COMM CENTER,,Lome,MARITIME,,TG,+228 99 62 63 55,https://location.westernunion.com/tg/maritime/lome/b904fd616b45f81d111acaf3f3b0c2d8,Mo-Su 00:01-24:00,Western Union,Q861042
b8f115932ab4c1543980a68f332de4e8,western_union,FORECAST AGENCY,,Lome,MARITIME,,TG,+228 93 18 95 44,https://location.westernunion.com/tg/maritime/lome/b8f115932ab4c1543980a68f332de4e8,Mo-Su 07:00-20:30,Western Union,Q861042
11cbbfae077806e0f096feed1ece15f2,western_union,AULINAH,,Lome,MARITIME,,TG,+228 98 90 32 85,https://location.westernunion.com/tg/maritime/lome/11cbbfae077806e0f096feed1ece15f2,Mo-Su 07:00-19:00,Western Union,Q861042
fefd5bba99c5439e6baf13494a07ba92,western_union,PRO COMMUNICATION  P C,,Lome,MARITIME,,TG,+228 97 29 62 47,https://location.westernunion.com/tg/maritime/lome/fefd5bba99c5439e6baf13494a07ba92,Mo-Su 07:30-19:00,Western Union,Q861042
8952005129aa10e2a521eb05beb6ed9a,western_union,DIMITRI KOAMI EKLU (DKE),,Lome,MARITIME,,TG,+228 91 33 55 19,https://location.westernunion.com/tg/maritime/lome/8952005129aa10e2a521eb05beb6ed9a,Mo-Su 07:30-19:00,Western Union,Q861042
e5b14178c88b134ff88efc9a79fa4bc8,western_union,CORIS BANK AGENCE ATIKOUME,,Lome,MARITIME,,TG,(+228) 22208282-122,https://location.westernunion.com/tg/maritime/lome/e5b14178c88b134ff88efc9a79fa4bc8,Mo-Fr 08:00-17:30; Sa-Su 09:00-14:00,Western Union,Q861042
67bd3769df887c68d54784f09b026a96,western_union,SICAB,,Lome,MARITIME,,TG,+228 90 96 57 77,https://location.westernunion.com/tg/maritime/lome/67bd3769df887c68d54784f09b026a96,Mo-Su 07:30-19:00,Western Union,Q861042
091e21f08a4ca0fe257700770e8c95fb,western_union,WAGES GBOSSIME,,Lome,MARITIME,,TG,+228 93 16 02 26,https://location.westernunion.com/tg/maritime/lome/091e21f08a4ca0fe257700770e8c95fb,Mo-Su 07:30-16:00,Western Union,Q861042
5eb2ac4187bea6e56a9bae0e75497c18,western_union,DODEAS,,Lome,MARITIME,,TG,+228 90 88 90 99,https://location.westernunion.com/tg/maritime/lome/5eb2ac4187bea6e56a9bae0e75497c18,Mo-Sa 09:00-19:00,Western Union,Q861042
fa6ef080fd37b60d2c68abceffe69223,western_union,MONEY BY MOBILE,,Lome,MARITIME,,TG,+228 90 41 61 11,https://location.westernunion.com/tg/maritime/lome/fa6ef080fd37b60d2c68abceffe69223,Mo-Su 07:00-19:00,Western Union,Q861042
1d8e120bef18442b6ab81be6a1534c87,western_union,DYCANE,,Lome,MARITIME,,TG,+228 70 42 28 30,https://location.westernunion.com/tg/maritime/lome/1d8e120bef18442b6ab81be6a1534c87,Mo-Su 06:00-18:00,Western Union,Q861042
af47e92b73a09869f544e7fab95d487a,western_union,PSDTT CAMPUS,,Lome,MARITIME,,TG,+228 98 17 49 10,https://location.westernunion.com/tg/maritime/lome/af47e92b73a09869f544e7fab95d487a,Mo-Sa 07:00-20:00; Su 07:00-15:00,Western Union,Q861042
e432a0172b52fed6233bddda7cc2e8d8,western_union,ORABANK CAMPUS LOME,,Lome,MARITIME,,TG,+228 22 21 62 21,https://location.westernunion.com/tg/maritime/lome/e432a0172b52fed6233bddda7cc2e8d8,Mo-Fr 06:45-18:30; Sa 09:00-15:00,Western Union,Q861042
143ae224eaaf7ddb4f791be5b34a1d61,western_union,MIMI ET MAYIKA & FILS,,Lome,MARITIME,,TG,+228 92 63 22 91,https://location.westernunion.com/tg/maritime/lome/143ae224eaaf7ddb4f791be5b34a1d61,Mo-Su 07:00-20:00,Western Union,Q861042
c1bdf33640fd3e91c1224e03a4806249,western_union,AFIMESS GBADAGO,,Lome,MARITIME,,TG,+228 90 13 38 50,https://location.westernunion.com/tg/maritime/lome/c1bdf33640fd3e91c1224e03a4806249,Mo-Su 07:00-19:00,Western Union,Q861042
b02f598ff3927c6d6712f0d751c96582,western_union,DOUMAS LA MAIN DIVINE,,Lome,MARITIME,,TG,+228 22 38 95 33,https://location.westernunion.com/tg/maritime/lome/b02f598ff3927c6d6712f0d751c96582,Mo-Su 07:00-22:00,Western Union,Q861042
1e9eef79f996082358d39ef59a36399b,western_union,ETSIAM S GROUP,,Lome,MARITIME,,TG,+228 92 44 39 18,https://location.westernunion.com/tg/maritime/lome/1e9eef79f996082358d39ef59a36399b,Mo-Su 07:00-19:00,Western Union,Q861042
9eb9c0d66237906dcd93a3e996be1498,western_union,G IS G,,Lome,MARITIME,,TG,+228 90 18 37 28,https://location.westernunion.com/tg/maritime/lome/9eb9c0d66237906dcd93a3e996be1498,Mo-Su 07:00-20:00,Western Union,Q861042
6a613e81de1012334f60d382476b5817,western_union,NADIA FASHION,,Lome,MARITIME,,TG,+228 99 47 08 35,https://location.westernunion.com/tg/maritime/lome/6a613e81de1012334f60d382476b5817,Mo-Su 07:30-19:00,Western Union,Q861042
5554b3c63a0493f2a8f77d211b766df3,western_union,WORLD WIDE WEB (LE WEB),,Lome,MARITIME,,TG,+228 90 18 92 58,https://location.westernunion.com/tg/maritime/lome/5554b3c63a0493f2a8f77d211b766df3,Mo-Su 07:30-19:00,Western Union,Q861042
b01b922c5dbf4459af17b1bced7f7891,western_union,SPT LOME CITE,,Lome,MARITIME,,TG,+228 93 65 80 15,https://location.westernunion.com/tg/maritime/lome/b01b922c5dbf4459af17b1bced7f7891,Mo-Fr 07:00-17:00; Sa 07:30-14:00,Western Union,Q861042
95350f46ef3657c8214b03cfd6fd5aaa,western_union,PIGUAL TOKOIN HOPITAL,,Lome,MARITIME,,TG,+228 93 70 62 61,https://location.westernunion.com/tg/maritime/lome/95350f46ef3657c8214b03cfd6fd5aaa,Mo-Su 07:00-21:00,Western Union,Q861042
7fd46e90b33937e47ea7dd30178a9079,western_union,ZEN ATTITUDE,,Lome,MARITIME,,TG,+228 96 56 44 44,https://location.westernunion.com/tg/maritime/lome/7fd46e90b33937e47ea7dd30178a9079,Mo-Sa 07:30-20:00,Western Union,Q861042
82347ba32ff31173d17bda78fbe0ae8f,western_union,GKW TRANSFERT TOGO SARL,,Lome,MARITIME,,TG,+228 91 46 63 63,https://location.westernunion.com/tg/maritime/lome/82347ba32ff31173d17bda78fbe0ae8f,Mo-Fr 08:00-17:00; Sa 09:00-14:00,Western Union,Q861042
9075556a2efa05ff95c07d28e3645deb,western_union,ETS DIEBO WONYOME,,Lome,MARITIME,,TG,+228 98 02 11 36,https://location.westernunion.com/tg/maritime/lome/9075556a2efa05ff95c07d28e3645deb,Mo-Sa 07:30-19:00; Su 07:30-15:00,Western Union,Q861042
8417770ab368af6d9f4ca3e92ba10a41,western_union,LA DIVA SUCCES,,Lome,MARITIME,,TG,+228 99 17 58 98,https://location.westernunion.com/tg/maritime/lome/8417770ab368af6d9f4ca3e92ba10a41,Mo-Su 07:00-20:30,Western Union,Q861042
3a6d579151f4ba51cb1f32937135c473,western_union,ZIX TECHNOLOGIE,,Lome,MARITIME,,TG,+228 90 83 76 60,https://location.westernunion.com/tg/maritime/lome/3a6d579151f4ba51cb1f32937135c473,Mo-Sa 07:00-19:00,Western Union,Q861042
361a036d24ed2cd55121e5c8aa0de01b,western_union,MAG BEAUTY COSMETIC,,Lome,MARITIME,,TG,+228 91 36 92 92,https://location.westernunion.com/tg/maritime/lome/361a036d24ed2cd55121e5c8aa0de01b,Mo-Su 07:00-19:00,Western Union,Q861042
acba69603213f6e0fa5c592fafb6eb98,western_union,MAG BEAUTY COSMETIC,,Lome,MARITIME,,TG,+228 90 06 46 93,https://location.westernunion.com/tg/maritime/lome/acba69603213f6e0fa5c592fafb6eb98,Mo-Sa 08:00-20:00,Western Union,Q861042
0201305e58c1140b2dd247177ddc6aa8,western_union,WAZ EUROPEEN PRESSING (WEP),,Lome,MARITIME,,TG,+228 90 85 30 80,https://location.westernunion.com/tg/maritime/lome/0201305e58c1140b2dd247177ddc6aa8,Mo-Su 07:30-19:00,Western Union,Q861042
bedb2ef6c331fb4ddb7edfcc003484c1,western_union,CYCA,,Lome,MARITIME,,TG,+228 90 39 26 00,https://location.westernunion.com/tg/maritime/lome/bedb2ef6c331fb4ddb7edfcc003484c1,Mo-Su 07:30-19:00,Western Union,Q861042
23ec8a6779bf132ee749433f3bc2e33e,western_union,MAWULIKEM,,Lome,MARITIME,,TG,+228 92 37 38 35,https://location.westernunion.com/tg/maritime/lome/23ec8a6779bf132ee749433f3bc2e33e,Mo-Su 06:30-20:00,Western Union,Q861042
ae79cb31b945ff9cefdbcdcaff4875e5,western_union,ROMY TECH,,Lome,MARITIME,,TG,+228 90 13 25 13,https://location.westernunion.com/tg/maritime/lome/ae79cb31b945ff9cefdbcdcaff4875e5,Mo-Su 07:30-19:00,Western Union,Q861042
1a49606e864f10754001f1497827635b,western_union,WWA BIA TOGO AGOE ASSIYEYE,,Lome,MARITIME,,TG,+228 90 06 24 31,https://location.westernunion.com/tg/maritime/lome/1a49606e864f10754001f1497827635b,Mo-Fr 08:00-17:00; Sa 08:00-15:00,Western Union,Q861042
d055e27081986a5740dee93428fe4789,western_union,CANARI VOYAGES ET TOURS,,Lome,MARITIME,,TG,+228 90 45 85 46,https://location.westernunion.com/tg/maritime/lome/d055e27081986a5740dee93428fe4789,Mo-Su 07:30-19:00,Western Union,Q861042
92ea16c98a3df2a088d7259b28a4af27,western_union,M  TRANSFERTS,,Lome,MARITIME,,TG,+228 98 53 73 86,https://location.westernunion.com/tg/maritime/lome/92ea16c98a3df2a088d7259b28a4af27,Mo-Su 07:00-23:30,Western Union,Q861042
e83ef6e2fa53f65d3f09f76ea8328d2c,western_union,DIMITRI KOAMI EKLU (DKE),,Lome,MARITIME,,TG,+228 91 33 55 19,https://location.westernunion.com/tg/maritime/lome/e83ef6e2fa53f65d3f09f76ea8328d2c,Mo-Su 07:30-19:00,Western Union,Q861042
2fac610e26d51745308c290a5f5ae4cd,western_union,EPU SARLU DOULASSAMEE,,Lome,MARITIME,,TG,+228 93 60 69 60,https://location.westernunion.com/tg/maritime/lome/2fac610e26d51745308c290a5f5ae4cd,Mo-Fr 07:00-19:00; Sa 07:00-18:00,Western Union,Q861042
2a1cf27834f51238aa391c913d3eac4f,western_union,AGENCE CECA CASABLANCA,,Lome,MARITIME,,TG,(+228) 3362512,https://location.westernunion.com/tg/maritime/lome/2a1cf27834f51238aa391c913d3eac4f,Mo-Fr 07:30-18:00; Sa 08:00-12:00,Western Union,Q861042
d711cabf2ded8bc86b4ae99bc0a3b80d,western_union,UTB SGI,,Lome,MARITIME,,TG,+228 22 23 43 00,https://location.westernunion.com/tg/maritime/lome/d711cabf2ded8bc86b4ae99bc0a3b80d,Mo-Sa 07:30-18:00,Western Union,Q861042
d4a812bd6e4f90d8108c558a28b5c88d,western_union,LIDAW MARKET,,Lome,MARITIME,,TG,+228 90 01 67 92,https://location.westernunion.com/tg/maritime/lome/d4a812bd6e4f90d8108c558a28b5c88d,Mo-Su 09:00-21:00,Western Union,Q861042
53c70f34449b7b4988e976d566fd2426,western_union,FUCEC TOGO,,Lome,MARITIME,,TG,+228 90 24 24 13,https://location.westernunion.com/tg/maritime/lome/53c70f34449b7b4988e976d566fd2426,Mo-Su 07:00-19:00,Western Union,Q861042
b6cd863b467b68f3d769628108c09502,western_union,FRIC LUMIERE  F L,,Lome,MARITIME,,TG,+228 92 17 12 39,https://location.westernunion.com/tg/maritime/lome/b6cd863b467b68f3d769628108c09502,Mo-Su 07:00-20:00,Western Union,Q861042
a96360029265d25b6d1061661c69daab,western_union,FUCEC CAISSE CENTRALE,,Lome,MARITIME,,TG,+228 90 24 24 13,https://location.westernunion.com/tg/maritime/lome/a96360029265d25b6d1061661c69daab,Mo-Su 07:30-18:00,Western Union,Q861042
cb8ae2455d44c9b1608263d1eb1825aa,western_union,GOLDEN LINES TOGO,,Lome,MARITIME,,TG,+228 91 98 98 04,https://location.westernunion.com/tg/maritime/lome/cb8ae2455d44c9b1608263d1eb1825aa,Mo-Fr 07:00-20:00; Sa 08:00-19:00; Su 07:30-19:00,Western Union,Q861042
b99a73c13e082b6fc60823d3cbeb02f3,western_union,BSIC DEKON,,Lome,MARITIME,,TG,+228 22 20 21 98,https://location.westernunion.com/tg/maritime/lome/b99a73c13e082b6fc60823d3cbeb02f3,Mo-Fr 08:00-16:30; Sa 09:00-14:00,Western Union,Q861042
bb309acc1bda6cd0196143b86c406738,western_union,STABLE MAN MULTISERVICES,,Lome,MARITIME,,TG,+228 92 41 42 32,https://location.westernunion.com/tg/maritime/lome/bb309acc1bda6cd0196143b86c406738,Mo-Sa 07:30-18:30; Su 08:30-14:30,Western Union,Q861042
1ead89604caedc466108f73ece3c3220,western_union,AMAH AF,,Lome,MARITIME,,TG,+228 98 62 73 29,https://location.westernunion.com/tg/maritime/lome/1ead89604caedc466108f73ece3c3220,Mo-Su 07:30-19:00,Western Union,Q861042
29c767e286e85e7f3c76d493aae05065,western_union,COMPAGNIE FINANCIERE AFRICAINE TOGO,,Lome,MARITIME,,TG,+228 92 68 60 60,https://location.westernunion.com/tg/maritime/lome/29c767e286e85e7f3c76d493aae05065,Mo-Su 08:00-18:00,Western Union,Q861042
1c5eea6c60a6fd2c81a1c79db38ff6a3,western_union,GMVI STORE,,Lome,MARITIME,,TG,+228 93 78 54 75,https://location.westernunion.com/tg/maritime/lome/1c5eea6c60a6fd2c81a1c79db38ff6a3,Mo-Su 07:30-19:00,Western Union,Q861042
6d3a003cbed3864b54265b165cb3b5c0,western_union,COCEC,,Lome,MARITIME,,TG,+228 99 07 70 07,https://location.westernunion.com/tg/maritime/lome/6d3a003cbed3864b54265b165cb3b5c0,Mo-Su 07:30-19:00,Western Union,Q861042
524de33126b3b15134691065c5d3d228,western_union,ML LES BEATITUDES HANOUKOPE,,Lome,MARITIME,,TG,+228 90 72 44 68,https://location.westernunion.com/tg/maritime/lome/524de33126b3b15134691065c5d3d228,Mo-Sa 07:30-20:00; Su 09:00-14:00,Western Union,Q861042
b7240c356182ae18d8fab5cd98cf13d6,western_union,TENS,,Lome,MARITIME,,TG,+228 91 43 06 58,https://location.westernunion.com/tg/maritime/lome/b7240c356182ae18d8fab5cd98cf13d6,Mo-Sa 07:30-18:30; Su 08:30-14:30,Western Union,Q861042
a99f49ac77d1d32f314c5d6730432028,western_union,ECOBANK AGENCE CECA SIEGE,,Lome,MARITIME,,TG,(+228) 2226493,https://location.westernunion.com/tg/maritime/lome/a99f49ac77d1d32f314c5d6730432028,Mo-Fr 07:30-18:00; Sa 08:00-12:00,Western Union,Q861042
d550e9076ac40793fe32a0ab0dfd5f34,western_union,PACIFIQUE VOYAGE SARL,,Lome,MARITIME,,TG,+228 92 21 11 11,https://location.westernunion.com/tg/maritime/lome/d550e9076ac40793fe32a0ab0dfd5f34,Mo-Sa 07:00-20:00; Su 08:00-18:00,Western Union,Q861042
48b8908d589f807ced94b31f893d0c99,western_union,LE GEANT DU JOUR WUITI,,Lome,MARITIME,,TG,+228 90 13 83 99,https://location.westernunion.com/tg/maritime/lome/48b8908d589f807ced94b31f893d0c99,Mo-Su 07:00-20:00,Western Union,Q861042
aa871f4747d1177c8a8db95dc6322aa2,western_union,DECOR BY DAMEEPK,,Lome,MARITIME,,TG,+228 91 53 31 70,https://location.westernunion.com/tg/maritime/lome/aa871f4747d1177c8a8db95dc6322aa2,Mo-Su 07:30-19:00,Western Union,Q861042
d64dbb38a8535c8d0a101fbdf67fe4f3,western_union,MISS KET GRACE,,Lome,MARITIME,,TG,+228 90 06 72 12,https://location.westernunion.com/tg/maritime/lome/d64dbb38a8535c8d0a101fbdf67fe4f3,Mo-Fr 07:00-19:00; Sa-Su 08:00-19:00,Western Union,Q861042
1a93101c7133b2df5051fcedaa3b2dbd,western_union,COFINA AKODESSEWA,,Lome,MARITIME,,TG,+228 70 87 77 77,https://location.westernunion.com/tg/maritime/lome/1a93101c7133b2df5051fcedaa3b2dbd,Mo-Su 07:00-19:00,Western Union,Q861042
572288ce2db66fbcafa81ab1a8c0807f,western_union,GIGA SERVICE INTERNATIONAL PLUS,,Lome,MARITIME,,TG,+228 99 59 99 66,https://location.westernunion.com/tg/maritime/lome/572288ce2db66fbcafa81ab1a8c0807f,Mo-Su 07:30-19:00,Western Union,Q861042
8579053de4ed549197a649584a812766,western_union,BTD SIEGE,,Lome,MARITIME,,TG,(+228) 2213641,https://location.westernunion.com/tg/maritime/lome/8579053de4ed549197a649584a812766,Mo-Fr 07:45-19:00; Sa 09:00-16:00,Western Union,Q861042
f9573abc9d2173c798eb5f410ee19071,western_union,ETS DJAB,,Lome,MARITIME,,TG,+228 22 20 29 34,https://location.westernunion.com/tg/maritime/lome/f9573abc9d2173c798eb5f410ee19071,Mo-Sa 07:00-19:00,Western Union,Q861042
eb9d70398b510335562a73b87473a309,western_union,ROYAL TRANSFERT,,Lome,MARITIME,,TG,+228 90 80 69 78,https://location.westernunion.com/tg/maritime/lome/eb9d70398b510335562a73b87473a309,Mo-Su 07:30-20:00,Western Union,Q861042
ed205aa8d9722a9d206499850d336494,western_union,NAFI ET FRERES SERVICES,,Lome,MARITIME,,TG,+228 90 57 19 25,https://location.westernunion.com/tg/maritime/lome/ed205aa8d9722a9d206499850d336494,Mo-Su 07:00-21:00,Western Union,Q861042
b5c6c7a264d14c9b1239fec8d6da22f5,western_union,DORINA AND FILS,,Lome,MARITIME,,TG,+228 90 04 72 20,https://location.westernunion.com/tg/maritime/lome/b5c6c7a264d14c9b1239fec8d6da22f5,Mo-Su 08:00-20:00,Western Union,Q861042
8782f528744007a80b299ee8a5a22ee9,western_union,GLOBAL NEW TECHNOLOGY  GNT,,Lome,MARITIME,,TG,+228 90 28 57 44,https://location.westernunion.com/tg/maritime/lome/8782f528744007a80b299ee8a5a22ee9,Mo-Su 07:00-20:00,Western Union,Q861042
471b9fceacdde71952d9ed40bf58441f,western_union,ELIOR MULTISERVICES,,Lome,MARITIME,,TG,+228 90 85 59 19,https://location.westernunion.com/tg/maritime/lome/471b9fceacdde71952d9ed40bf58441f,Mo-Sa 07:00-20:00,Western Union,Q861042
b7e2832486711dcc3ced90a758784969,western_union,ORABANK AGENCE PRINCIPALE ORATG,,Lome,MARITIME,,TG,+228 22 21 62 21,https://location.westernunion.com/tg/maritime/lome/b7e2832486711dcc3ced90a758784969,Mo-Fr 07:45-19:00; Sa 09:00-16:00,Western Union,Q861042
56e1760231227882ca47a6a54dbfcbe7,western_union,COOL PLACE E PLACE,,Lome,MARITIME,,TG,+228 22 27 46 86,https://location.westernunion.com/tg/maritime/lome/56e1760231227882ca47a6a54dbfcbe7,Mo-Fr 07:30-18:30; Sa 08:00-14:00; Su 08:00-13:00,Western Union,Q861042
48bc49cbf6a0e5114e9ec01ba508fd35,western_union,WWA BIA TOGO TOKOIN,,Lome,MARITIME,,TG,+228 90 27 83 94,https://location.westernunion.com/tg/maritime/lome/48bc49cbf6a0e5114e9ec01ba508fd35,Mo-Fr 08:00-17:00; Sa 08:00-15:00,Western Union,Q861042
344b455164dc4acefdcd2d5c92ca8d18,western_union,SPT LOME CENTRE,,Lome,MARITIME,,TG,+228 92 49 54 53,https://location.westernunion.com/tg/maritime/lome/344b455164dc4acefdcd2d5c92ca8d18,Mo-Fr 07:00-17:00; Sa 07:30-14:00,Western Union,Q861042
dfedb2e87a260227b737234c04fee5d2,western_union,ECOBANK AGENCE ASSIVITO,,Lome,MARITIME,,TG,(+228) 226566,https://location.westernunion.com/tg/maritime/lome/dfedb2e87a260227b737234c04fee5d2,Mo-Sa 07:30-20:00,Western Union,Q861042
1dbdf1f070ee12afc7513cd21312353f,western_union,E P U SARL ZONGO,,Lome,MARITIME,,TG,+228 93 60 69 60,https://location.westernunion.com/tg/maritime/lome/1dbdf1f070ee12afc7513cd21312353f,Mo-Sa 07:00-22:00; Su 07:00-20:00,Western Union,Q861042
2750bf8d8e1d38e35e68353ada3b81df,western_union,AGENCE DE SERVICES EN KITS MULTIFORMES,,Lome,MARITIME,,TG,+228 90 15 37 65,https://location.westernunion.com/tg/maritime/lome/2750bf8d8e1d38e35e68353ada3b81df,Mo-Su 07:00-19:00,Western Union,Q861042
974dd4fe975d8fb3667c71c913df0b4a,western_union,BANQUE ATLANTIQUE AGENZE HEDZR,,Lome,MARITIME,,TG,(+228) 2615457,https://location.westernunion.com/tg/maritime/lome/974dd4fe975d8fb3667c71c913df0b4a,Mo-Fr 08:00-19:30; Sa 09:00-18:00,Western Union,Q861042
cae12d94e59b37314be86721775c0d7a,western_union,BPEC ANEHO,,Aneho,MARITIME,,TG,+228 23 31 06 67,https://location.westernunion.com/tg/maritime/aneho/cae12d94e59b37314be86721775c0d7a,Mo-Fr 07:30-17:00; Sa 09:00-14:00,Western Union,Q861042
4d93c9cb97e90dc96b200ed4d2eea0fb,western_union,BPEC AGOENYIVE,,Lome,MARITIME,,TG,+228 22 50 83 34,https://location.westernunion.com/tg/maritime/lome/4d93c9cb97e90dc96b200ed4d2eea0fb,Mo-Fr 07:30-17:00; Sa 09:00-14:00,Western Union,Q861042
d68dd6d9751e0f5c0ee8435d8314c38b,western_union,BPEC BE,,Lome,MARITIME,,TG,+228 22 20 02 52,https://location.westernunion.com/tg/maritime/lome/d68dd6d9751e0f5c0ee8435d8314c38b,Mo-Fr 07:30-17:00; Sa 09:00-14:00,Western Union,Q861042
39811a0d9120a9740fc41f5895e46296,western_union,BPEC TABLIGBO,,Tabligbo,MARITIME,,TG,+228 23 34 04 07,https://location.westernunion.com/tg/maritime/tabligbo/39811a0d9120a9740fc41f5895e46296,Mo-Fr 07:30-17:00; Sa 09:00-14:00,Western Union,Q861042
b71d9e0733738cfdffd501ef3ae71fc7,western_union,SPT LOME HEDZRANAWOE,,Lome,MARITIME,,TG,+228 70 59 79 78,https://location.westernunion.com/tg/maritime/lome/b71d9e0733738cfdffd501ef3ae71fc7,Mo-Fr 07:30-17:00; Sa 07:30-14:00,Western Union,Q861042
681f0490e6650e87e832f393aeee6c3b,western_union,OGATHE SARL,,Nsee,MARITIME,,TG,+228 90 05 86 00,https://location.westernunion.com/tg/maritime/nsee/681f0490e6650e87e832f393aeee6c3b,Mo-Su 07:00-21:00,Western Union,Q861042
7451bce3656c0bc0478812a82dfa2b83,western_union,AURORE SHOP,,Lome,MARITIME,,TG,+228 90 05 47 70,https://location.westernunion.com/tg/maritime/lome/7451bce3656c0bc0478812a82dfa2b83,Mo-Su 07:00-21:00,Western Union,Q861042
efb33c36ff4fbcfb9d14c105e86d8062,western_union,AGENCE HEDZRANAWOE,,Lome,MARITIME,,TG,+228 22 61 76 16,https://location.westernunion.com/tg/maritime/lome/efb33c36ff4fbcfb9d14c105e86d8062,Mo-Fr 07:45-19:00; Sa 09:00-16:00,Western Union,Q861042
c3392d3fe1667945e1bc58478d401658,western_union,SOGEMEF HEDZRANAWOE,,Lome,MARITIME,,TG,(+228) 228,https://location.westernunion.com/tg/maritime/lome/c3392d3fe1667945e1bc58478d401658,Mo-Fr 07:00-17:00; Sa 08:00-13:00,Western Union,Q861042
67b2118a21c7a11116ccc6e8d49c7a24,western_union,ECOBANK AGENCE HEDZRANAWOE,,Lome,MARITIME,,TG,(+228) 2227403,https://location.westernunion.com/tg/maritime/lome/67b2118a21c7a11116ccc6e8d49c7a24,Mo-Sa 07:30-20:00,Western Union,Q861042
3196a0461798314b124ee9075b954d8a,western_union,WWA BIA TOGO HEDZRANAWOE,,Lome,MARITIME,,TG,+228 90 03 82 24,https://location.westernunion.com/tg/maritime/lome/3196a0461798314b124ee9075b954d8a,Mo-Fr 08:00-17:00; Sa 08:00-15:00,Western Union,Q861042
a33735f2afcb187e65e3244db754282c,western_union,FUCEC AKEPE SIEGE,,Akepe,MARITIME,,TG,+228 90 24 24 13,https://location.westernunion.com/tg/maritime/akepe/a33735f2afcb187e65e3244db754282c,Mo-Su 07:30-18:00,Western Union,Q861042
aafd7c5dd4beb55eba8fa55714ecad12,western_union,FUCEC AKEPE LOGOTE,,Akepe,MARITIME,,TG,+228 90 24 24 13,https://location.westernunion.com/tg/maritime/akepe/aafd7c5dd4beb55eba8fa55714ecad12,Mo-Su 07:30-18:00,Western Union,Q861042
61bc8b0b1ffcc8d3206c89376b351f4f,western_union,SHARAPH ET AKPE2,,Lome,MARITIME,,TG,+228 98 23 13 88,https://location.westernunion.com/tg/maritime/lome/61bc8b0b1ffcc8d3206c89376b351f4f,Mo-Sa 06:30-21:00; Su 07:00-21:00,Western Union,Q861042
e95a159bcf52f83bd418d8023cd9ffbf,western_union,SOGEMEF TOKOIN SEMINAIRE,,Lome,MARITIME,,TG,+228 90 10 89 28,https://location.westernunion.com/tg/maritime/lome/e95a159bcf52f83bd418d8023cd9ffbf,Mo-Fr 07:00-17:00; Sa 08:00-13:00,Western Union,Q861042
c03b511f67b25c3745df82594750bff9,western_union,KAFUIDEM SERVICES PLUS,,Lome,MARITIME,,TG,+228 92 42 48 64,https://location.westernunion.com/tg/maritime/lome/c03b511f67b25c3745df82594750bff9,Mo-Sa 07:00-19:00,Western Union,Q861042
1819aca6b859eff5bda3e21cb530ecd6,western_union,INNOVATIONS TIME (IN TIM),,Lome,MARITIME,,TG,+228 92 36 43 21,https://location.westernunion.com/tg/maritime/lome/1819aca6b859eff5bda3e21cb530ecd6,Mo-Su 07:30-19:00,Western Union,Q861042
6d024f66bfc48dfa3298f15ce4008c91,western_union,MOBIPOST MARITIME,,Lome,MARITIME,,TG,+228 24 45 52 35,https://location.westernunion.com/tg/maritime/lome/6d024f66bfc48dfa3298f15ce4008c91,Mo-Fr 07:30-16:30; Sa 07:30-12:00,Western Union,Q861042
06b77dc5f411bba41cb2f1d6bf603857,western_union,ML LES BEATITUDES,,Lome,MARITIME,,TG,+228 90 72 44 68,https://location.westernunion.com/tg/maritime/lome/06b77dc5f411bba41cb2f1d6bf603857,Mo-Su 07:00-20:00,Western Union,Q861042
0afa8f2f0cab2b043eb6685daac03f8c,western_union,GIBIFRADO SERVICES,,Lome,MARITIME,,TG,+228 90 14 48 34,https://location.westernunion.com/tg/maritime/lome/0afa8f2f0cab2b043eb6685daac03f8c,Mo-Su 07:30-19:00,Western Union,Q861042
9fe3f8daf0de7227f7553737e7bc1813,western_union,NOOR TRAVELS,,Lome,MARITIME,,TG,+228 90 67 41 47,https://location.westernunion.com/tg/maritime/lome/9fe3f8daf0de7227f7553737e7bc1813,Mo-Fr 07:00-19:00; Sa-Su 08:00-19:00,Western Union,Q861042
b91850ac7fbb6d9952c8323d097b9ff5,western_union,UNION TOGOLAISE DE BANQUE DOUMASSESSE,,Lome,MARITIME,,TG,+228 22 23 43 00,https://location.westernunion.com/tg/maritime/lome/b91850ac7fbb6d9952c8323d097b9ff5,Mo-Fr 07:30-18:00; Sa 08:00-16:00,Western Union,Q861042
c196de833f4ddbeb1de17fd34441bd13,western_union,STABLE MAN MULTISERVICES,,Lome,MARITIME,,TG,+228 70 11 50 40,https://location.westernunion.com/tg/maritime/lome/c196de833f4ddbeb1de17fd34441bd13,Mo-Sa 07:30-18:30; Su 08:30-14:30,Western Union,Q861042
64467c0406e254a62258807dc4f6c793,western_union,COMTE PR LE DEV HUMAIN-TG (CDH TOGO),,Lome,MARITIME,,TG,+228 90 27 89 24,https://location.westernunion.com/tg/maritime/lome/64467c0406e254a62258807dc4f6c793,Mo-Su 07:30-19:00,Western Union,Q861042
7005be09e57e65b74a4670622d81fd43,western_union,ECOBANK AGENCE UNIVERSITE DE LOME,,Lome,MARITIME,,TG,(+228) 2227403,https://location.westernunion.com/tg/maritime/lome/7005be09e57e65b74a4670622d81fd43,Mo-Fr 07:00-19:00; Sa 07:30-18:00,Western Union,Q861042
7191005296fb82482f6833db365dd704,western_union,FUCEC EELO PROTESTANT,,Lome,MARITIME,,TG,+228 90 24 24 13,https://location.westernunion.com/tg/maritime/lome/7191005296fb82482f6833db365dd704,Mo-Su 07:30-18:00,Western Union,Q861042
75972d361a93d416efabf2734550ec4b,western_union,LA NORMANDIE,,Lome,MARITIME,,TG,+228 90 18 56 01,https://location.westernunion.com/tg/maritime/lome/75972d361a93d416efabf2734550ec4b,Mo-Su 07:30-19:00,Western Union,Q861042
c4d936deb0dbb1d600c839a3cc5af3f6,western_union,BLUE & CO,,Lome,MARITIME,,TG,+228 93 67 19 16,https://location.westernunion.com/tg/maritime/lome/c4d936deb0dbb1d600c839a3cc5af3f6,Mo-Su 07:00-20:00,Western Union,Q861042
e912a700f881ef9fa40c21c4c8ce1b3f,western_union,COOPECFI AGOE,,Lome,MARITIME,,TG,+228 22 51 95 64,https://location.westernunion.com/tg/maritime/lome/e912a700f881ef9fa40c21c4c8ce1b3f,Mo-Fr 07:00-19:00; Sa 07:00-18:00,Western Union,Q861042
77b552f2be5952000c20124702b2dccf,western_union,ECOBANK AGENCE CECA NUKAFU,,Lome,MARITIME,,TG,(+228) 2226493,https://location.westernunion.com/tg/maritime/lome/77b552f2be5952000c20124702b2dccf,Mo-Fr 07:30-18:00; Sa 07:30-12:00,Western Union,Q861042
91fc1ae083e849ee41d9f2a6c4c6891e,western_union,BPEC AGENCE CENTRALE,,Lome,MARITIME,,TG,+228 22 21 20 47,https://location.westernunion.com/tg/maritime/lome/91fc1ae083e849ee41d9f2a6c4c6891e,Mo-Fr 07:30-17:00; Sa 09:00-14:00,Western Union,Q861042
ed6806901950e90b781c4553e36a1efd,western_union,LAGLOR BUSINESS CENTER SAGBADO,,Tsevie,MARITIME,,TG,+228 90 05 76 23,https://location.westernunion.com/tg/maritime/tsevie/ed6806901950e90b781c4553e36a1efd,Mo-Su 07:00-22:00,Western Union,Q861042
8e43786d29018b40bc9435cb4c96e772,western_union,MAGIC CLUB VOYAGES,,Lome,MARITIME,,TG,+228 92 66 31 85,https://location.westernunion.com/tg/maritime/lome/8e43786d29018b40bc9435cb4c96e772,Mo-Fr 07:00-19:00; Sa-Su 08:00-18:00,Western Union,Q861042
fb02f679930ec16efc87a6aef3bd2f9d,western_union,PSDTT SARL,,Lome,MARITIME,,TG,+228 99 66 92 29,https://location.westernunion.com/tg/maritime/lome/fb02f679930ec16efc87a6aef3bd2f9d,Mo-Fr 07:30-19:00; Sa 07:30-15:00,Western Union,Q861042
566c3171fa0edebe359f1062c4d5df2f,western_union,SPT LOME WUITI,,Lome Wuiti,MARITIME,,TG,(+228) 2269503,https://location.westernunion.com/tg/maritime/lome-wuiti/566c3171fa0edebe359f1062c4d5df2f,Mo-Fr 07:00-17:00; Sa 07:30-14:00,Western Union,Q861042
e196315abd31fbf9ed717b7396f33e08,western_union,CLE-AM EN DIEU,,Lome,MARITIME,,TG,+228 90 89 43 26,https://location.westernunion.com/tg/maritime/lome/e196315abd31fbf9ed717b7396f33e08,Mo-Su 07:00-21:00,Western Union,Q861042
8a1e65f652de6e7431135779e46ad3b8,western_union,PIGUAL HEDZRANAWOE,,Lome,MARITIME,,TG,+228 97 92 19 80,https://location.westernunion.com/tg/maritime/lome/8a1e65f652de6e7431135779e46ad3b8,Mo-Su 07:00-21:00,Western Union,Q861042
744670fdcb7eb198a9045af9e088eaec,western_union,HEDZRANAWOE,,Lome,MARITIME,,TG,+228 22 53 62 62,https://location.westernunion.com/tg/maritime/lome/744670fdcb7eb198a9045af9e088eaec,Mo-Fr 07:00-19:00; Sa 09:00-14:00,Western Union,Q861042
b70e1f5f40c6b38fb47715845594ab77,western_union,GLAD TRAVELS ET SERVICES,,Lome,MARITIME,,TG,+228 22 61 39 43,https://location.westernunion.com/tg/maritime/lome/b70e1f5f40c6b38fb47715845594ab77,Mo-Sa 07:30-19:00,Western Union,Q861042
15340528ca38c132a86052632b578646,western_union,FINAM TOGO SA,,Lome,MARITIME,,TG,+228 96 80 14 97,https://location.westernunion.com/tg/maritime/lome/15340528ca38c132a86052632b578646,Mo-Su 07:00-23:00,Western Union,Q861042
194c85363b4f13bede56b0acfb14d59f,western_union,FUCEC ECHOPPE NUKAFU,,Lome,MARITIME,,TG,+228 90 24 24 13,https://location.westernunion.com/tg/maritime/lome/194c85363b4f13bede56b0acfb14d59f,Mo-Su 07:30-18:00,Western Union,Q861042
83a7eae43e9b2d5747ee8d28cf5155d7,western_union,WINNERS KO ROL,,Lome,MARITIME,,TG,+228 79 70 15 37,https://location.westernunion.com/tg/maritime/lome/83a7eae43e9b2d5747ee8d28cf5155d7,Mo-Su 07:30-19:00,Western Union,Q861042
2ffe6f967e23684adb5b92bf6f4b3fd2,western_union,OTG BOULEVARD DES ARMEES,,Lome,MARITIME,,TG,+228 22 22 84 56,https://location.westernunion.com/tg/maritime/lome/2ffe6f967e23684adb5b92bf6f4b3fd2,Mo-Tu 07:45-19:00; We-Fr 07:45-17:00; Sa 09:00-16:00,Western Union,Q861042
0048194c969d7ed3a07cbcfaf997a18d,western_union,UNION TOGOLAISE DE BANQUE,,Lome Kodjoviakope,MARITIME,,TG,(+228) 2216073,https://location.westernunion.com/tg/maritime/lome-kodjoviakope/0048194c969d7ed3a07cbcfaf997a18d,Mo-Fr 07:45-16:00; Sa 08:00-13:00,Western Union,Q861042
975dff389eab792c7a375f1625402c3f,western_union,BLESSING HOUSE SERVICES,,Lome,MARITIME,,TG,+228 90 33 75 65,https://location.westernunion.com/tg/maritime/lome/975dff389eab792c7a375f1625402c3f,Mo-Su 07:45-18:00,Western Union,Q861042
57bd02f3272c2ab7084bbaef61f6b190,western_union,LAFIDES,,Lome,MARITIME,,TG,+228 91 31 78 15,https://location.westernunion.com/tg/maritime/lome/57bd02f3272c2ab7084bbaef61f6b190,Mo-Sa 09:00-19:00,Western Union,Q861042
52c2c915cb3b9c97fd1e9398b8415411,western_union,COOPEC AD AGENCE RAMCO,,Lome,MARITIME,,TG,+228 22 45 99 02,https://location.westernunion.com/tg/maritime/lome/52c2c915cb3b9c97fd1e9398b8415411,Mo-Fr 07:00-20:00; Sa 07:00-19:00,Western Union,Q861042
0ae96a27d2835c5ee32c4cff7028bc3d,western_union,ETS CHIFFRE SERVICES,,Lome,MARITIME,,TG,+228 92 28 28 60,https://location.westernunion.com/tg/maritime/lome/0ae96a27d2835c5ee32c4cff7028bc3d,Mo-Su 07:00-22:00,Western Union,Q861042
70358dd2091e9bf0b3226dfdf8e2d5a1,western_union,AKODESSEWA,,Lome,MARITIME,,TG,+228 22 53 10 01,https://location.westernunion.com/tg/maritime/lome/70358dd2091e9bf0b3226dfdf8e2d5a1,Mo-Sa 08:00-17:00,Western Union,Q861042
3883044d2becc75c14c1eb8fa042c445,western_union,HYDE TRANSFERT,,Lome,MARITIME,,TG,+228 90 04 32 60,https://location.westernunion.com/tg/maritime/lome/3883044d2becc75c14c1eb8fa042c445,Mo-Su 08:00-19:00,Western Union,Q861042
e07225720c30c943d9b7b531cc1db182,western_union,KODA PRE,,Lome,MARITIME,,TG,+228 99 59 81 18,https://location.westernunion.com/tg/maritime/lome/e07225720c30c943d9b7b531cc1db182,Mo-Su 07:00-21:00,Western Union,Q861042
b7c7d02e93736816ca31fcba9c1beeab,western_union,BAT AGENCE BE,,Lome,MARITIME,,TG,(+228) 2218574,https://location.westernunion.com/tg/maritime/lome/b7c7d02e93736816ca31fcba9c1beeab,Mo-Fr 07:30-19:00; Sa 08:00-17:00,Western Union,Q861042
40b8d54252db4da4d44355796815439a,western_union,AGENCE AGOE,,Lome,MARITIME,,TG,+228 22 51 35 55,https://location.westernunion.com/tg/maritime/lome/40b8d54252db4da4d44355796815439a,Mo-Fr 07:45-19:00; Sa 09:00-16:00,Western Union,Q861042
3b58eff906ba555901dcc0f60c2f07e4,western_union,BAT AGENCE AGOE,,Lome,MARITIME,,TG,+228 22 23 08 00,https://location.westernunion.com/tg/maritime/lome/3b58eff906ba555901dcc0f60c2f07e4,Mo-Fr 08:00-19:00; Sa 09:00-17:00,Western Union,Q861042
f5d702b68dff7571742ebe94f9ae8c38,western_union,BSIC TOGO SIEGE,,Lome,MARITIME,,TG,+228 22 20 21 98,https://location.westernunion.com/tg/maritime/lome/f5d702b68dff7571742ebe94f9ae8c38,Mo-Fr 07:30-16:30; Sa 09:00-14:00,Western Union,Q861042
2d212de33aabae4c8dbb127697c18b8c,western_union,BTD CHEMIN DE FER,,Lome,MARITIME,,TG,(+228) 2205110,https://location.westernunion.com/tg/maritime/lome/2d212de33aabae4c8dbb127697c18b8c,Mo-Fr 07:45-19:00; Sa 09:00-16:00,Western Union,Q861042
d1d60f34eaf21ab270b0052e8328e687,western_union,ORABANK AGENCE ADOBOUKOME,,Lome,MARITIME,,TG,+228 22 20 02 80,https://location.westernunion.com/tg/maritime/lome/d1d60f34eaf21ab270b0052e8328e687,Mo-Fr 07:45-19:00; Sa 09:00-16:00,Western Union,Q861042
bda2d322f2fbca262e37fe5d748f494e,western_union,SPT MECPIP AVEPOZO,,Lome,MARITIME,,TG,+228 22 57 57 16,https://location.westernunion.com/tg/maritime/lome/bda2d322f2fbca262e37fe5d748f494e,Mo-Fr 08:00-16:00,Western Union,Q861042
77999fc42ef0a56da55a090b0083edd8,western_union,SPT MECIT CACAVELI,,Lome,MARITIME,,TG,+228 22 50 01 91,https://location.westernunion.com/tg/maritime/lome/77999fc42ef0a56da55a090b0083edd8,Mo-Fr 08:00-17:00; Sa 08:00-12:00,Western Union,Q861042
d33db923a196b6275dba1c2a7df3b43d,western_union,SOCIETE DES POSTES DU TOGO ELITE TOUR,,Lome,MARITIME,,TG,+228 22 22 95 95,https://location.westernunion.com/tg/maritime/lome/d33db923a196b6275dba1c2a7df3b43d,Mo-Fr 08:00-20:00; Sa 09:00-18:00; Su 14:00-18:00,Western Union,Q861042
b6eab1f859d0df243da3287252b6cb2d,western_union,BANQUE TOGOLAISE COM ET IND,,Lome,MARITIME,,TG,(+228) 2218442,https://location.westernunion.com/tg/maritime/lome/b6eab1f859d0df243da3287252b6cb2d,Mo-Sa 07:30-18:00,Western Union,Q861042
b15aa21f1518dd1be1e8e8b5867d7438,western_union,EUPHRATA INTELLIGENT TOGO,,Lome,MARITIME,,TG,+228 99 71 99 89,https://location.westernunion.com/tg/maritime/lome/b15aa21f1518dd1be1e8e8b5867d7438,Mo-Su 07:00-20:00,Western Union,Q861042
54cb2709bffe70fa7709c85966b7c172,western_union,ETS ATCHA BUSINESS CENTER(ABC),,Lome,MARITIME,,TG,+228 90 05 33 84,https://location.westernunion.com/tg/maritime/lome/54cb2709bffe70fa7709c85966b7c172,Mo-Su 07:00-21:00,Western Union,Q861042
0e7a25fb07fa3c761ccf3687bc75938a,western_union,M H CASH,,Lome,MARITIME,,TG,+228 90 05 33 84,https://location.westernunion.com/tg/maritime/lome/0e7a25fb07fa3c761ccf3687bc75938a,Mo-Su 07:00-21:00,Western Union,Q861042
3e7d04147cec2a2800b69bbb41bc5ef1,western_union,YESCO BUZ & COM,,Lome,MARITIME,,TG,+228 90 09 34 95,https://location.westernunion.com/tg/maritime/lome/3e7d04147cec2a2800b69bbb41bc5ef1,Mo-Sa 07:30-18:00,Western Union,Q861042
077756752ef27b748320da90be419f46,western_union,WABSAL,,Lome,MARITIME,,TG,+228 90 47 93 94,https://location.westernunion.com/tg/maritime/lome/077756752ef27b748320da90be419f46,Mo-Sa 07:30-18:00,Western Union,Q861042
a02010bb63f43263a63381d35cad9e10,western_union,KONATE OUMAR BAROU,,Lome,MARITIME,,TG,+228 93 51 43 26,https://location.westernunion.com/tg/maritime/lome/a02010bb63f43263a63381d35cad9e10,Mo-Sa 07:30-18:00,Western Union,Q861042
ad6abb212b16811505cc569e67ba20a7,western_union,BSIC TOGO ADAWLATO,,Lome,MARITIME,,TG,+228 22 20 04 84,https://location.westernunion.com/tg/maritime/lome/ad6abb212b16811505cc569e67ba20a7,Mo-Fr 08:00-16:30; Sa 09:00-14:00,Western Union,Q861042
9a693fd46b92a8087e4f5604f04e2298,western_union,BTD ADIDOGOME,,Lome,MARITIME,,TG,+228 22 46 50 52,https://location.westernunion.com/tg/maritime/lome/9a693fd46b92a8087e4f5604f04e2298,Mo-Fr 07:45-19:00; Sa 09:00-19:00,Western Union,Q861042
e242ef8720be8d52a320438e683efebe,western_union,SPT EURO VOYAGES DJIDJOLE,,Lome,MARITIME,,TG,+228 93 50 99 10,https://location.westernunion.com/tg/maritime/lome/e242ef8720be8d52a320438e683efebe,Mo-Sa 07:30-22:00; Su 08:00-22:00,Western Union,Q861042
8090aa8f08b85bedf1341859dbd00fa9,western_union,ASJD ADIDOGOME ATIGANGOME,,Lome,MARITIME,,TG,+228 22 25 33 46,https://location.westernunion.com/tg/maritime/lome/8090aa8f08b85bedf1341859dbd00fa9,Mo-Fr 07:30-17:00; Sa 07:30-12:30,Western Union,Q861042
fbf5742fd24eb232b5df7ca72b1d428e,western_union,AGENCE ADIDOGOME,,Lome,MARITIME,,TG,+228 22 53 10 01,https://location.westernunion.com/tg/maritime/lome/fbf5742fd24eb232b5df7ca72b1d428e,Mo-Sa 08:00-17:00,Western Union,Q861042
e68b779ae52193d3eadf69d5fe6eb7b5,western_union,BTD CASABLANCA,,Lome,MARITIME,,TG,(+228) 2204818,https://location.westernunion.com/tg/maritime/lome/e68b779ae52193d3eadf69d5fe6eb7b5,Mo-Fr 07:45-19:00; Sa 09:00-16:00,Western Union,Q861042
94f2f5a83b98b2d996afba541b5937d7,western_union,COCOAF MONUMENT,,Lome,MARITIME,,TG,+228 90 01 09 23,https://location.westernunion.com/tg/maritime/lome/94f2f5a83b98b2d996afba541b5937d7,Mo-Su 07:00-20:00,Western Union,Q861042
b5e1fac333accaac43ccf75a06b87d22,western_union,BTD BAGUIDA,,Lome,MARITIME,,TG,+228 22 27 29 49,https://location.westernunion.com/tg/maritime/lome/b5e1fac333accaac43ccf75a06b87d22,Mo-Fr 07:45-19:00; Sa 09:00-16:00,Western Union,Q861042
b35a9cb3f5895e7d97b8d37800d33073,western_union,SPT LOME AEROPORT,,Lome,MARITIME,,TG,+228 22 21 44 03,https://location.westernunion.com/tg/maritime/lome/b35a9cb3f5895e7d97b8d37800d33073,Mo-Fr 07:30-22:00; Sa 07:30-14:00,Western Union,Q861042
97f6467bd29d36d70bedc0f17c25da69,western_union,LA COLBYCO SARL U,,Lome,MARITIME,,TG,+228 90 09 19 70,https://location.westernunion.com/tg/maritime/lome/97f6467bd29d36d70bedc0f17c25da69,Mo-Sa 07:00-20:00,Western Union,Q861042
569fb7894da383c7006cbe9140421483,western_union,BATG AGENCE TOTSI,,Lome,MARITIME,,TG,(+228) 223-0800,https://location.westernunion.com/tg/maritime/lome/569fb7894da383c7006cbe9140421483,Mo-Fr 07:30-19:00; Sa 08:00-17:00,Western Union,Q861042
c62cf3d67d4a8859ad2c6f7142bbbe71,western_union,SOCIETE DES POSTES DU TOGO COECEPT,,Lome,MARITIME,,TG,(+228) 3-3354375-03,https://location.westernunion.com/tg/maritime/lome/c62cf3d67d4a8859ad2c6f7142bbbe71,Mo-Fr 07:30-17:00; Sa 08:00-12:00,Western Union,Q861042
239a2463314ec0f355fd0b36eb07ccf0,western_union,RAWOUDA AND RAWOUDIA ZOSSIME,,Lome,MARITIME,,TG,+228 90 97 54 26,https://location.westernunion.com/tg/maritime/lome/239a2463314ec0f355fd0b36eb07ccf0,Mo-Su 07:00-21:00,Western Union,Q861042
90de538ca0a8dee067ba4a31f168d2c3,western_union,J RODI,,Lome,MARITIME,,TG,+228 90 98 52 03,https://location.westernunion.com/tg/maritime/lome/90de538ca0a8dee067ba4a31f168d2c3,Mo-Su 07:00-21:00,Western Union,Q861042
599c6104fdf3164927f1406caa4b235f,western_union,MY SUN,,Lome,MARITIME,,TG,+228 90 12 34 51,https://location.westernunion.com/tg/maritime/lome/599c6104fdf3164927f1406caa4b235f,Mo-Su 07:00-21:00,Western Union,Q861042
1ec2ceed8c6bccbb016ca6001cd153f2,western_union,SANDRA DES ANGES S DES ANGES,,Lome,MARITIME,,TG,+228 90 89 78 79,https://location.westernunion.com/tg/maritime/lome/1ec2ceed8c6bccbb016ca6001cd153f2,Mo-Su 07:00-21:00,Western Union,Q861042
1bb36f186c14b0c8a764866f607e717b,western_union,OPTION PLUS,,Lome,MARITIME,,TG,+228 90 11 26 82,https://location.westernunion.com/tg/maritime/lome/1bb36f186c14b0c8a764866f607e717b,Mo-Su 07:00-22:00,Western Union,Q861042
9b04ab7609d52d1b42596c09b63187b0,western_union,ETAM'S,,Lome,MARITIME,,TG,+228 93 31 63 47,https://location.westernunion.com/tg/maritime/lome/9b04ab7609d52d1b42596c09b63187b0,Mo-Su 07:30-19:00,Western Union,Q861042
41734d5966deb35472a8795ad430b947,western_union,WAGES KELEGOUGAN,,Lome,MARITIME,,TG,+228 22 22 13 26,https://location.westernunion.com/tg/maritime/lome/41734d5966deb35472a8795ad430b947,Mo-Su 07:30-16:00,Western Union,Q861042
62c1595486f620a8321635d313fc9286,western_union,IMF CEF KEGUE,,Lome,MARITIME,,TG,(+228) 3366451-683,https://location.westernunion.com/tg/maritime/lome/62c1595486f620a8321635d313fc9286,Mo-Fr 07:00-19:00; Sa 07:00-15:00,Western Union,Q861042
bf43c87dc12045e370bd9a45755bec6c,western_union,BTD STADE KEGUE,,Lome,MARITIME,,TG,(+228) 2265890,https://location.westernunion.com/tg/maritime/lome/bf43c87dc12045e370bd9a45755bec6c,Mo-Fr 07:45-19:00; Sa 09:00-17:00,Western Union,Q861042
74242715348c6f626a6ea6c211b174c1,western_union,KABRYAN,,Lome,MARITIME,,TG,+228 90 34 27 08,https://location.westernunion.com/tg/maritime/lome/74242715348c6f626a6ea6c211b174c1,Mo-Su 07:00-18:30,Western Union,Q861042
8c70977bb3b57ef242de1f280a4a8987,western_union,SOCIETE DES POSTES DU TOGO LOME KEGUE,,Lome,MARITIME,,TG,(+228) 3353370,https://location.westernunion.com/tg/maritime/lome/8c70977bb3b57ef242de1f280a4a8987,Mo-Fr 07:30-17:00; Sa 07:30-14:00,Western Union,Q861042
aef97ec35a737622916cd4f73a46d215,western_union,DI EBO ECHANGEUR KEGUE,,Lome,MARITIME,,TG,+228 90 07 27 02,https://location.westernunion.com/tg/maritime/lome/aef97ec35a737622916cd4f73a46d215,Mo-Sa 07:30-19:00; Su 07:30-15:00,Western Union,Q861042
158cfd65dd654d40ef0032e62f1cca0f,western_union,CORIS BANK AGENCE BARAKA,,Lome,MARITIME,,TG,+228 22 20 82 82,https://location.westernunion.com/tg/maritime/lome/158cfd65dd654d40ef0032e62f1cca0f,Mo-Sa 08:00-18:00,Western Union,Q861042
614c17efcee183d887b909f2da1c028d,western_union,BETSALEEL BTP SIEGE,,Lome,MARITIME,,TG,+228 90 09 78 79,https://location.westernunion.com/tg/maritime/lome/614c17efcee183d887b909f2da1c028d,Mo-Sa 07:30-19:00,Western Union,Q861042
bd9c8ece5bce280cc36d9a6d162ae10f,western_union,NET XPRESS INTL CI,,Lome,MARITIME,,TG,+228 91 98 97 72,https://location.westernunion.com/tg/maritime/lome/bd9c8ece5bce280cc36d9a6d162ae10f,Mo-Su 07:00-21:00,Western Union,Q861042
204d8bd43f33d4f65143a51c0fbe8e2e,western_union,KONATE OUMAR BAROU (KOB),,Lome,MARITIME,,TG,+228 93 51 43 26,https://location.westernunion.com/tg/maritime/lome/204d8bd43f33d4f65143a51c0fbe8e2e,Mo-Su 07:30-19:00,Western Union,Q861042
a8044545b7b1fbe55a09e36e60b072e8,western_union,B GLORY,,Lome,MARITIME,,TG,+228 99 65 77 39,https://location.westernunion.com/tg/maritime/lome/a8044545b7b1fbe55a09e36e60b072e8,Mo-Sa 07:00-19:00,Western Union,Q861042
6bdead3c3fc8b4daf12d0b80a3c088a8,western_union,ASTUCE SOLUTIONS,,Lome,MARITIME,,TG,+228 90 14 26 00,https://location.westernunion.com/tg/maritime/lome/6bdead3c3fc8b4daf12d0b80a3c088a8,Mo-Sa 07:30-18:00,Western Union,Q861042
ffd55d5f658263fd13ba3ce593a106d3,western_union,BOA AGENCE CENTRALE MAIN OFFICE,,Lome,MARITIME,,TG,+228 22 53 62 62,https://location.westernunion.com/tg/maritime/lome/ffd55d5f658263fd13ba3ce593a106d3,Mo-Fr 07:00-18:30; Sa 08:00-14:00,Western Union,Q861042
1342adadd7c20bddf1b6fdf0110a6bc0,western_union,FUCEC MATURITE TP3,,Lome,MARITIME,,TG,+228 90 24 24 13,https://location.westernunion.com/tg/maritime/lome/1342adadd7c20bddf1b6fdf0110a6bc0,Mo-Su 07:30-18:00,Western Union,Q861042
07ef4cddc1714e9b28406ce721c01745,western_union,MYR MARKET,,Lome,MARITIME,,TG,+228 90 17 72 22,https://location.westernunion.com/tg/maritime/lome/07ef4cddc1714e9b28406ce721c01745,Mo-Su 07:30-21:00,Western Union,Q861042
26959decc7070acaca9c66cca6c83641,western_union,EXPRESS COMPANY,,Lome,MARITIME,,TG,+228 90 26 59 88,https://location.westernunion.com/tg/maritime/lome/26959decc7070acaca9c66cca6c83641,Mo-Su 08:00-19:00,Western Union,Q861042
9b44d346b1c160a0576c55f3a221a8e0,western_union,FUCEC AVE ADIDOGOME,,Lome,MARITIME,,TG,+228 90 24 24 13,https://location.westernunion.com/tg/maritime/lome/9b44d346b1c160a0576c55f3a221a8e0,Mo-Su 07:30-18:00,Western Union,Q861042
bd28f731b552124aa45841c366dc73ee,western_union,COFINA ADIDOGOME,,Lome,MARITIME,,TG,+228 90 02 44 80,https://location.westernunion.com/tg/maritime/lome/bd28f731b552124aa45841c366dc73ee,Mo-Sa 07:00-20:00; Su 07:00-21:00,Western Union,Q861042
c30e1e56d3a29c7d8d6a86ecaf5823e5,western_union,AGOE,,Lome,MARITIME,,TG,+228 22 53 10 01,https://location.westernunion.com/tg/maritime/lome/c30e1e56d3a29c7d8d6a86ecaf5823e5,Mo-Sa 08:00-17:00,Western Union,Q861042
33937a20c4aa3f9f78060953222f98ce,western_union,AGENCE AVEPOZO,,Lome,MARITIME,,TG,+228 22 53 11 45,https://location.westernunion.com/tg/maritime/lome/33937a20c4aa3f9f78060953222f98ce,Mo-Sa 07:00-19:00,Western Union,Q861042
03d71c0669f4c4d34f66579f9d87e9dd,western_union,BSIC TOGO AGOE,,Lome,MARITIME,,TG,+228 22 51 91 95,https://location.westernunion.com/tg/maritime/lome/03d71c0669f4c4d34f66579f9d87e9dd,Mo-Fr 08:00-16:30; Sa 09:00-14:00,Western Union,Q861042
369253945166a83696243b17200b071d,western_union,MICROLINK,,Lome,MARITIME,,TG,+228 90 00 25 55,https://location.westernunion.com/tg/maritime/lome/369253945166a83696243b17200b071d,Mo-Sa 07:30-20:00,Western Union,Q861042
6d0b3dd5bb097050406a0bacdc49571d,western_union,AGBOLETE ET FILS,,Lome,MARITIME,,TG,+228 90 04 60 10,https://location.westernunion.com/tg/maritime/lome/6d0b3dd5bb097050406a0bacdc49571d,Mo-Sa 08:00-18:00,Western Union,Q861042
3bf6dec1e9353b17d0c405c63cb446c5,western_union,ETS BRAINY GROUP,,Lome,MARITIME,,TG,+228 23 20 00 16,https://location.westernunion.com/tg/maritime/lome/3bf6dec1e9353b17d0c405c63cb446c5,Mo-Sa 07:00-20:00,Western Union,Q861042
511584f3f474d3c11a48a62dc8bc8a17,western_union,AGENCE BANQUE ATLANTIQUE SOTED,,Lome,MARITIME,,TG,(+228) 2206895,https://location.westernunion.com/tg/maritime/lome/511584f3f474d3c11a48a62dc8bc8a17,Mo-Fr 07:30-19:00; Sa 08:00-17:00,Western Union,Q861042
d1952f46c1971d1ac190da296c7b51f9,western_union,BTD LOME PORT,,Lome,MARITIME,,TG,(+228) 2277115,https://location.westernunion.com/tg/maritime/lome/d1952f46c1971d1ac190da296c7b51f9,Mo-Fr 07:45-19:00; Sa 09:00-16:00,Western Union,Q861042
b2b53e00e8b4c9c669b39bc026086d8e,western_union,BOULEVARD DE LA PAIX B DOULASSAM,,Lome,MARITIME,,TG,+228 90 13 83 99,https://location.westernunion.com/tg/maritime/lome/b2b53e00e8b4c9c669b39bc026086d8e,Mo-Su 07:30-19:00,Western Union,Q861042
314b90d020589ec91497e1cd811e3206,western_union,BSIC TOGO ADIDOGOME,,Lome,MARITIME,,TG,+228 22 25 21 32,https://location.westernunion.com/tg/maritime/lome/314b90d020589ec91497e1cd811e3206,Mo-Fr 08:00-16:30; Sa 09:00-14:00,Western Union,Q861042
40870b38bb97db459c53bb0336ffae66,western_union,SPT LOME PHILATELIE,,Lome,MARITIME,,TG,(+228) 2224904,https://location.westernunion.com/tg/maritime/lome/40870b38bb97db459c53bb0336ffae66,Mo-Fr 07:00-17:00; Sa 07:30-14:00,Western Union,Q861042
5ce63ca6b5d325585b1c6b6260484311,western_union,WAZA TRANSFERT,,Lome,MARITIME,,TG,+228 91 54 41 28,https://location.westernunion.com/tg/maritime/lome/5ce63ca6b5d325585b1c6b6260484311,Mo-Su 07:30-19:00,Western Union,Q861042
b7fa3d5e660c8997f70c84d29ac1b393,western_union,LILOUS,,Lome,MARITIME,,TG,+228 90 36 68 67,https://location.westernunion.com/tg/maritime/lome/b7fa3d5e660c8997f70c84d29ac1b393,Mo-Su 08:00-19:00,Western Union,Q861042
0441660dbe4a466c80ba2c1dfc0fe912,western_union,DREAM TRAVEL AGENCY,,Lome,MARITIME,,TG,+228 90 00 07 06,https://location.westernunion.com/tg/maritime/lome/0441660dbe4a466c80ba2c1dfc0fe912,Mo-Fr 07:00-19:00; Sa-Su 07:00-18:00,Western Union,Q861042
9804080505fba3b5e05103c9e8994907,western_union,GIFT ROOM,,Lome,MARITIME,,TG,+228 90 05 76 23,https://location.westernunion.com/tg/maritime/lome/9804080505fba3b5e05103c9e8994907,Mo-Su 07:30-20:00,Western Union,Q861042
1c6b753f1f0b42226499d93f71a23f23,western_union,GOLDEN LINES TOGO,,Lome,MARITIME,,TG,+228 91 98 98 04,https://location.westernunion.com/tg/maritime/lome/1c6b753f1f0b42226499d93f71a23f23,Mo-Su 07:30-19:00,Western Union,Q861042
c7cdc04da9cf31ba7378fc3bea468d00,western_union,SOGLONDE ET FILS,,Lome,MARITIME,,TG,+228 90 01 87 83,https://location.westernunion.com/tg/maritime/lome/c7cdc04da9cf31ba7378fc3bea468d00,Mo-Su 07:30-19:00,Western Union,Q861042
499230e42c0fe28688a5bd19e3d4ebce,western_union,SHARAPH ET AKPE,,Lome,MARITIME,,TG,+228 98 23 13 88,https://location.westernunion.com/tg/maritime/lome/499230e42c0fe28688a5bd19e3d4ebce,Mo-Sa 06:30-21:00; Su 07:00-21:00,Western Union,Q861042
551d4bc8808e200049785e8d73fdfe90,western_union,AFIMESS GBADAGO,,Lome,MARITIME,,TG,+228 90 13 38 50,https://location.westernunion.com/tg/maritime/lome/551d4bc8808e200049785e8d73fdfe90,Mo-Su 07:00-18:30,Western Union,Q861042
2ee36a0b83a56181b6e4019400598a05,western_union,BATG ECOMARINE,,Lome,MARITIME,,TG,+228 22 23 08 00,https://location.westernunion.com/tg/maritime/lome/2ee36a0b83a56181b6e4019400598a05,Mo-Fr 07:00-19:00; Sa-Su 07:00-18:00,Western Union,Q861042
9f8c0c57147e3788d42198e3358979ef,western_union,MIN S TRAVEL & SERVICES,,Lome,MARITIME,,TG,+228 70 39 04 03,https://location.westernunion.com/tg/maritime/lome/9f8c0c57147e3788d42198e3358979ef,Mo-Su 07:30-20:00,Western Union,Q861042
4f3962eb4bbe6f7eeb0a10a8d756c6fc,western_union,BARRUCK AGENCE 3,,Lome,MARITIME,,TG,+228 90 35 94 17,https://location.westernunion.com/tg/maritime/lome/4f3962eb4bbe6f7eeb0a10a8d756c6fc,Mo-Su 07:00-19:00,Western Union,Q861042
b45fe70da57304af4d96e428c9db2fab,western_union,VINO SERVICES,,Lome,MARITIME,,TG,+228 90 80 88 35,https://location.westernunion.com/tg/maritime/lome/b45fe70da57304af4d96e428c9db2fab,Mo-Su 07:30-19:00,Western Union,Q861042
c8e79a33620a3d4e52ff20f2af3dd410,western_union,BEBEL SERVICE,,Lome,MARITIME,,TG,+228 70 55 61 87,https://location.westernunion.com/tg/maritime/lome/c8e79a33620a3d4e52ff20f2af3dd410,Mo-Su 07:30-19:00,Western Union,Q861042
8502682e40f051fbafd307a4623e7d57,western_union,ADEX-SERVICES,,Lome,MARITIME,,TG,(+228) 228-96871525,https://location.westernunion.com/tg/maritime/lome/8502682e40f051fbafd307a4623e7d57,Mo-Sa 07:00-19:00,Western Union,Q861042
dc289b1a6635af2b75afec9e6ab73e3c,western_union,FINANCIAL SERVICES AND TRADE  FST,,Lome,MARITIME,,TG,+228 92 60 83 76,https://location.westernunion.com/tg/maritime/lome/dc289b1a6635af2b75afec9e6ab73e3c,Mo-Su 07:30-20:00,Western Union,Q861042
cd07574facb16e95fc542064e9b92805,western_union,MENTAL PLUS,,Lome,MARITIME,,TG,+228 97 87 65 21,https://location.westernunion.com/tg/maritime/lome/cd07574facb16e95fc542064e9b92805,Mo-Su 07:00-20:00,Western Union,Q861042
a492d089f5be3d9625e87e4d41f854b2,western_union,COMPAGNIE FINANCIERE AFRICAINE TOGO AGOE,,Lome,MARITIME,,TG,+228 92 68 60 60,https://location.westernunion.com/tg/maritime/lome/a492d089f5be3d9625e87e4d41f854b2,Mo-Su 08:00-16:00,Western Union,Q861042
c281b2956b77dee6a4f085615af38bec,western_union,HOPE TRAVELS & TOURS  H2T,,Lome,MARITIME,,TG,+228 90 36 68 54,https://location.westernunion.com/tg/maritime/lome/c281b2956b77dee6a4f085615af38bec,Mo-Su 07:00-21:00,Western Union,Q861042
3540b19c181c39a78b9ed08a6d9761b7,western_union,FUCEC MATURITE BE,,Lome,MARITIME,,TG,+228 90 24 24 13,https://location.westernunion.com/tg/maritime/lome/3540b19c181c39a78b9ed08a6d9761b7,Mo-Su 07:30-18:00,Western Union,Q861042
e7a7726fb298c33e99324ce1af611603,western_union,ATIKPODJI,,Lome,MARITIME,,TG,+228 22 53 10 01,https://location.westernunion.com/tg/maritime/lome/e7a7726fb298c33e99324ce1af611603,Mo-Fr 08:00-17:00; Sa 09:00-13:00,Western Union,Q861042
ad0705be0c861824091f90c38513fbdd,western_union,CORIS BANK AGENCE HEDZRANAWOE,,Lome,MARITIME,,TG,(+228) 22208282-122,https://location.westernunion.com/tg/maritime/lome/ad0705be0c861824091f90c38513fbdd,Mo-Fr 08:00-17:30; Sa-Su 09:00-14:00,Western Union,Q861042
e0effae3ad31e0ef15a25c8972c9febd,western_union,CORIS BANK AGENCE DU PORT,,Lome,MARITIME,,TG,(+228) 22208282-122,https://location.westernunion.com/tg/maritime/lome/e0effae3ad31e0ef15a25c8972c9febd,Mo-Fr 08:00-17:30; Sa-Su 09:00-14:00,Western Union,Q861042
1d971037a1a3a448f0f5b4f36cc60808,western_union,CORIS BANK AGENCE GRAND MARCHE,,Lome,MARITIME,,TG,(+228) 22208282-122,https://location.westernunion.com/tg/maritime/lome/1d971037a1a3a448f0f5b4f36cc60808,Mo-Fr 08:00-17:30; Sa-Su 09:00-14:00,Western Union,Q861042
11f0c0620cc5c0a68435050c074c5cf7,western_union,FINAM TOGO SA,,Lome,MARITIME,,TG,+228 96 80 14 88,https://location.westernunion.com/tg/maritime/lome/11f0c0620cc5c0a68435050c074c5cf7,Mo-Su 07:00-23:00,Western Union,Q861042
4964b27c69672fe7429ab6b0d41938cf,western_union,PIGUAL TOGO 2000,,Lome,MARITIME,,TG,+228 90 04 28 12,https://location.westernunion.com/tg/maritime/lome/4964b27c69672fe7429ab6b0d41938cf,Mo-Su 07:00-21:00,Western Union,Q861042
3e6a9ea6a07fefeed834b8f318439fd1,western_union,DEBORAH MAWULOLO,,Lome,MARITIME,,TG,+228 90 52 43 33,https://location.westernunion.com/tg/maritime/lome/3e6a9ea6a07fefeed834b8f318439fd1,Mo-Sa 07:30-20:00,Western Union,Q861042
2c23f4d9c8be853879128dcb1223bab1,western_union,ECOBANK,,Lome,MARITIME,,TG,+228 22 21 72 14,https://location.westernunion.com/tg/maritime/lome/2c23f4d9c8be853879128dcb1223bab1,Mo-Su 07:00-20:00,Western Union,Q861042
02039d43aaeaa4a3bfe14b2a712d7913,western_union,DIAMOND BANK TOGO,,Lome,MARITIME,,TG,+228 22 53 10 66,https://location.westernunion.com/tg/maritime/lome/02039d43aaeaa4a3bfe14b2a712d7913,Mo-Fr 08:00-17:00; Sa 09:00-13:00,Western Union,Q861042
08f55c038990199f649a833fc2b53ac7,western_union,CAREIDAS BUSINESS,,Lome,MARITIME,,TG,+228 70 50 26 94,https://location.westernunion.com/tg/maritime/lome/08f55c038990199f649a833fc2b53ac7,Mo-Su 07:30-19:00,Western Union,Q861042
ba47c22b14670de4eb0735ed47a34ed4,western_union,SIAB SIEGE,,Lome,MARITIME,,TG,+228 22 21 13 41,https://location.westernunion.com/tg/maritime/lome/ba47c22b14670de4eb0735ed47a34ed4,Mo-Fr 07:30-18:00; Sa 09:00-15:00,Western Union,Q861042
ccf25d897faae9dd4e327e6d36e80401,western_union,BENE HOUSE,,Lome,MARITIME,,TG,+228 91 56 90 40,https://location.westernunion.com/tg/maritime/lome/ccf25d897faae9dd4e327e6d36e80401,Mo-Sa 07:30-18:30,Western Union,Q861042
6b4c06f972986857848f9dddae4dd843,western_union,MORIJA SEDINA,,Lome,MARITIME,,TG,+228 90 26 82 82,https://location.westernunion.com/tg/maritime/lome/6b4c06f972986857848f9dddae4dd843,Mo-Su 08:00-20:00,Western Union,Q861042
86eaadf6a09c27022f6f138d243720e3,western_union,TC,,Lome,MARITIME,,TG,+228 96 56 44 44,https://location.westernunion.com/tg/maritime/lome/86eaadf6a09c27022f6f138d243720e3,Mo-Su 07:00-19:00,Western Union,Q861042
8a6a8d97931dc7694243747289ca4191,western_union,N NAH SERVICE,,Lome,MARITIME,,TG,+228 91 35 59 69,https://location.westernunion.com/tg/maritime/lome/8a6a8d97931dc7694243747289ca4191,Mo-Su 07:30-17:30,Western Union,Q861042
29a687fd267add7d636da20447e0c05c,western_union,WAGES ADETICOPE,,Lome,MARITIME,,TG,+228 22 22 54 71,https://location.westernunion.com/tg/maritime/lome/29a687fd267add7d636da20447e0c05c,Mo-Su 07:30-16:00,Western Union,Q861042
7d91daf5645e5aa14dafd819483def6e,western_union,WAGES AGBAVI,,Lome,MARITIME,,TG,+228 22 22 13 26,https://location.westernunion.com/tg/maritime/lome/7d91daf5645e5aa14dafd819483def6e,Mo-Su 07:30-16:00,Western Union,Q861042
11cd762cc5a4ca738ebd760cf6f3cbb3,western_union,YANNEL ZANGUERA,,Lome,MARITIME,,TG,+228 90 72 47 93,https://location.westernunion.com/tg/maritime/lome/11cd762cc5a4ca738ebd760cf6f3cbb3,Mo-Sa 07:30-21:00; Su 11:30-21:00,Western Union,Q861042
8882c2a3d3c60c2d2afcb64bec7aaff5,western_union,GOODMAN ECO NEGOCE,,Lome,MARITIME,,TG,+228 91 25 87 01,https://location.westernunion.com/tg/maritime/lome/8882c2a3d3c60c2d2afcb64bec7aaff5,Mo-Su 06:00-20:00,Western Union,Q861042
012554779ec8415c215e3fb052356817,western_union,WAGES ZOSSIME,,Lome,MARITIME,,TG,+228 93 29 35 29,https://location.westernunion.com/tg/maritime/lome/012554779ec8415c215e3fb052356817,Mo-Su 07:30-16:00,Western Union,Q861042
717c98c4aa3256f0f82222514e9fd399,western_union,GLOBAL AFFAIRS TOGO,,Lome,MARITIME,,TG,+228 92 31 85 45,https://location.westernunion.com/tg/maritime/lome/717c98c4aa3256f0f82222514e9fd399,Mo-Su 08:00-19:00,Western Union,Q861042
3e2247df02ca80faf84b7446e8385e29,western_union,WAGES ZANGUERA,,Lome,MARITIME,,TG,+228 91 39 76 85,https://location.westernunion.com/tg/maritime/lome/3e2247df02ca80faf84b7446e8385e29,Mo-Su 07:30-16:00,Western Union,Q861042
8c729de8a9bc54d7e514192de9ef05e4,western_union,FUCEC ECHOPPE TRESOR,,Lome,MARITIME,,TG,+228 90 24 24 13,https://location.westernunion.com/tg/maritime/lome/8c729de8a9bc54d7e514192de9ef05e4,Mo-Su 07:30-18:00,Western Union,Q861042
46dd2a0808c610bd9222932ed187c68a,western_union,BANQUE ATLANTIQUE TOGO SIEGE,,Lome,MARITIME,,TG,(+228) 22-08891,https://location.westernunion.com/tg/maritime/lome/46dd2a0808c610bd9222932ed187c68a,Mo-Fr 07:30-19:30; Sa 07:30-18:00,Western Union,Q861042
3fc208a6747bccafa9453453f9c8e126,western_union,WWA BIA TOGO ARISTOS,,Lome,MARITIME,,TG,+228 90 11 92 29,https://location.westernunion.com/tg/maritime/lome/3fc208a6747bccafa9453453f9c8e126,Mo-Fr 08:00-17:00; Sa 08:00-15:00,Western Union,Q861042
d1a581bfce86fa9217b5f1cd4d3b401b,western_union,ECOBANK AGENCE CECA AGOE,,Lome,MARITIME,,TG,(+228) 2250114,https://location.westernunion.com/tg/maritime/lome/d1a581bfce86fa9217b5f1cd4d3b401b,Mo-Fr 07:30-18:00; Sa 08:00-12:00,Western Union,Q861042
490143fb1b4070da18e2b30c50e44c29,western_union,ORABANK PLAGE,,Lome,MARITIME,,TG,+228 22 21 62 25,https://location.westernunion.com/tg/maritime/lome/490143fb1b4070da18e2b30c50e44c29,Mo-Su 07:00-19:00,Western Union,Q861042
7447d6badde26d8f2e3d3b960eaedc39,western_union,WWA BIA TOGO AGENCE CENTRE D AFFAIRE,,Lome,MARITIME,,TG,+228 90 08 74 26,https://location.westernunion.com/tg/maritime/lome/7447d6badde26d8f2e3d3b960eaedc39,Mo-Fr 08:00-17:00; Sa 08:00-15:00,Western Union,Q861042
e194700b7683aa487d6ab9f125aa0d9d,western_union,PHILIPPESON,,Lome,MARITIME,,TG,+228 90 15 27 46,https://location.westernunion.com/tg/maritime/lome/e194700b7683aa487d6ab9f125aa0d9d,Mo-Su 07:30-19:00,Western Union,Q861042
4c8024e18a1f7e230198c2a1cbc6dee2,western_union,COCEC,,Lome,MARITIME,,TG,+228 99 07 70 07,https://location.westernunion.com/tg/maritime/lome/4c8024e18a1f7e230198c2a1cbc6dee2,Mo-Su 07:30-19:00,Western Union,Q861042
c9557be1c73b5207b422ad1defd33a0b,western_union,ECOBANK AGENCE CECA AKODESSEWA,,Lome,MARITIME,,TG,(+228) 2277070,https://location.westernunion.com/tg/maritime/lome/c9557be1c73b5207b422ad1defd33a0b,Mo-Fr 07:30-18:00; Sa 08:00-12:00,Western Union,Q861042
ced17d8c1151ba31dcbca5d10e606d77,western_union,ECOBANK AGENCE AKODESSEWA,,Lome,MARITIME,,TG,(+228) 2227403,https://location.westernunion.com/tg/maritime/lome/ced17d8c1151ba31dcbca5d10e606d77,Mo-Fr 07:30-20:00; Sa 07:30-19:00,Western Union,Q861042
940981e88323049bf905f0cdae1c0930,western_union,ANTHONY 7,,Lome,MARITIME,,TG,+228 92 52 02 01,https://location.westernunion.com/tg/maritime/lome/940981e88323049bf905f0cdae1c0930,Mo-Su 07:30-19:00,Western Union,Q861042
31391f715f542004f630fcfff2a24156,western_union,PIGUAL AKODESSEWA,,Lome,MARITIME,,TG,+228 90 04 28 12,https://location.westernunion.com/tg/maritime/lome/31391f715f542004f630fcfff2a24156,Mo-Su 07:00-21:00,Western Union,Q861042
1866f0250ef95304a53cd1b4d125b7a6,western_union,SPT LOME DJIFA KPOTA,,Lome,MARITIME,,TG,(+228) 2710137,https://location.westernunion.com/tg/maritime/lome/1866f0250ef95304a53cd1b4d125b7a6,Mo-Fr 07:00-17:00; Sa 07:30-14:00,Western Union,Q861042
579ab3b784c3a3af0ae0405ba5ffc973,western_union,MED FINANCE,,Lome,MARITIME,,TG,+228 92 55 99 23,https://location.westernunion.com/tg/maritime/lome/579ab3b784c3a3af0ae0405ba5ffc973,Mo-Su 07:30-19:00,Western Union,Q861042
e04d2c4759486e4881a948df90553b1a,western_union,WAGES AKODESSEWA,,Lome,MARITIME,,TG,+228 70 42 65 26,https://location.westernunion.com/tg/maritime/lome/e04d2c4759486e4881a948df90553b1a,Mo-Su 07:30-16:00,Western Union,Q861042
b4ed6f2d54b60d76c8a0a38980dca726,western_union,LAGIS SARL BEKPOTA,,Lome,MARITIME,,TG,+228 90 90 90 12,https://location.westernunion.com/tg/maritime/lome/b4ed6f2d54b60d76c8a0a38980dca726,Mo-Sa 07:30-18:00,Western Union,Q861042
1edac0f5e78c8fe8f6f041917da8e0a1,western_union,FINAM TOGO SA,,Lome,MARITIME,,TG,+228 96 80 14 93,https://location.westernunion.com/tg/maritime/lome/1edac0f5e78c8fe8f6f041917da8e0a1,Mo-Su 07:30-19:00,Western Union,Q861042
c8beb57056476ee3617b25378b98b1d5,western_union,NYVAL S,,Lome,MARITIME,,TG,+228 90 11 54 82,https://location.westernunion.com/tg/maritime/lome/c8beb57056476ee3617b25378b98b1d5,Mo-Su 07:30-19:00,Western Union,Q861042
ba1ee19cfed23f2b030714c92c43e8a6,western_union,ALL BUSINESS GROUP,,Lome,MARITIME,,TG,+228 93 39 28 20,https://location.westernunion.com/tg/maritime/lome/ba1ee19cfed23f2b030714c92c43e8a6,Mo-Su 07:00-21:00,Western Union,Q861042
81314a1473220e02434277d3b52d5890,western_union,2JD-MEC SARL U,,Lome,MARITIME,,TG,+228 90 85 55 60,https://location.westernunion.com/tg/maritime/lome/81314a1473220e02434277d3b52d5890,Mo-Fr 08:00-19:00; Sa-Su 09:00-16:00,Western Union,Q861042
d2ec18ba411f713701f5c4b20ed2a112,western_union,LE GEANT DU JOUR,,Lome,MARITIME,,TG,+228 91 80 23 64,https://location.westernunion.com/tg/maritime/lome/d2ec18ba411f713701f5c4b20ed2a112,Mo-Su 07:00-20:00,Western Union,Q861042
0784a7c8c8ffc87040c9eadde6fa320c,western_union,UTB SEWAFILS,,Lome,MARITIME,,TG,+228 22 21 33 27,https://location.westernunion.com/tg/maritime/lome/0784a7c8c8ffc87040c9eadde6fa320c,Mo-Sa 07:00-20:00,Western Union,Q861042
41e7ca60f1fab21ebf339a362ad8046e,western_union,BENGIS3,,Lome,MARITIME,,TG,+228 90 28 78 84,https://location.westernunion.com/tg/maritime/lome/41e7ca60f1fab21ebf339a362ad8046e,Mo-Su 07:00-21:00,Western Union,Q861042
a83b447e73f769949d197f76a866debb,western_union,SAINT GABRIEL,,Lome,MARITIME,,TG,+228 93 72 83 46,https://location.westernunion.com/tg/maritime/lome/a83b447e73f769949d197f76a866debb,Mo-Su 07:00-22:00,Western Union,Q861042
b8a73f9bdf454165803f5cd40c4c0f5a,western_union,FINAM TOGO SA,,Lome,MARITIME,,TG,+228 99 99 24 06,https://location.westernunion.com/tg/maritime/lome/b8a73f9bdf454165803f5cd40c4c0f5a,Mo-Su 07:30-19:00,Western Union,Q861042
379b4925de662256e2551cad300b48b8,western_union,LASS BOUTIQUE,,Lome,MARITIME,,TG,+228 90 22 20 14,https://location.westernunion.com/tg/maritime/lome/379b4925de662256e2551cad300b48b8,Mo-Su 08:00-20:00,Western Union,Q861042
bc103ebf8bfdd0f445671a47cb835a9f,western_union,COOPEC AD,,Lome,MARITIME,,TG,+228 90 18 17 54,https://location.westernunion.com/tg/maritime/lome/bc103ebf8bfdd0f445671a47cb835a9f,Mo-Su 07:30-19:00,Western Union,Q861042
931dbb1708d72dd0b8518e1b80ca3108,western_union,CASE MICROFINANCE,,Lome,MARITIME,,TG,+228 90 04 49 05,https://location.westernunion.com/tg/maritime/lome/931dbb1708d72dd0b8518e1b80ca3108,Mo-Su 07:30-18:00,Western Union,Q861042
c3697def0d9a23f1781e7c445855d1cc,western_union,WWA BIA TOGO AKODESSEWA,,Lome,MARITIME,,TG,+228 90 19 22 90,https://location.westernunion.com/tg/maritime/lome/c3697def0d9a23f1781e7c445855d1cc,Mo-Fr 08:00-17:00; Sa 08:00-15:00,Western Union,Q861042
855bee2999d5d09b6d7d14309967fb71,western_union,GOLDEN LINES TOGO,,Lome,MARITIME,,TG,+228 91 98 98 04,https://location.westernunion.com/tg/maritime/lome/855bee2999d5d09b6d7d14309967fb71,Mo-Fr 07:00-20:00; Sa 08:00-19:00; Su 07:30-19:00,Western Union,Q861042
ab908b8b16314294b6c18304ed897c2c,western_union,ORABANK AGENCE PORT ORATG,,Lome,MARITIME,,TG,+228 22 27 30 86,https://location.westernunion.com/tg/maritime/lome/ab908b8b16314294b6c18304ed897c2c,Mo-Fr 07:45-19:00; Sa 09:00-16:00,Western Union,Q861042
b6dd430259f1248d043310848f3b865e,western_union,UNION TOGOLAISE DE BANQUE,,Lome,MARITIME,,TG,(+228) 275005,https://location.westernunion.com/tg/maritime/lome/b6dd430259f1248d043310848f3b865e,Mo-Sa 07:30-18:00,Western Union,Q861042
3348e48b18dfc8db35422bd2e3ffbf65,western_union,DI EBO ADAKPAME,,Lome,MARITIME,,TG,+228 90 07 27 02,https://location.westernunion.com/tg/maritime/lome/3348e48b18dfc8db35422bd2e3ffbf65,Mo-Sa 07:30-19:00; Su 07:30-15:00,Western Union,Q861042
f841506781d91cd6e611f73008511b42,western_union,LAGIS SARL DZIFA,,Lome,MARITIME,,TG,+228 22 71 55 76,https://location.westernunion.com/tg/maritime/lome/f841506781d91cd6e611f73008511b42,Mo-Sa 07:00-19:00,Western Union,Q861042
8177f2d3bfcbe172926f8dfead5f81e0,western_union,REJOYCE BUSINESS CENTER,,Lome,MARITIME,,TG,+228 93 82 11 38,https://location.westernunion.com/tg/maritime/lome/8177f2d3bfcbe172926f8dfead5f81e0,Mo-Sa 07:00-22:00,Western Union,Q861042
1c546145318a590ecb7f06fbc29a4a51,western_union,ROOTMAN ENTERPRISE,,Lome,MARITIME,,TG,+228 93 28 81 81,https://location.westernunion.com/tg/maritime/lome/1c546145318a590ecb7f06fbc29a4a51,Mo-Su 07:00-21:00,Western Union,Q861042
893a2fb0362c56c7deb7b57a74eb3efa,western_union,COCOAF SARAKAWA,,Lome,MARITIME,,TG,+228 90 01 09 23,https://location.westernunion.com/tg/maritime/lome/893a2fb0362c56c7deb7b57a74eb3efa,Mo-Su 07:00-19:00,Western Union,Q861042
40042cbe73c13a2475d2885b991ea83e,western_union,COOPECFI AVEPOZO,,Lome,MARITIME,,TG,+228 22 51 95 64,https://location.westernunion.com/tg/maritime/lome/40042cbe73c13a2475d2885b991ea83e,Mo-Fr 07:00-18:30; Sa 07:00-16:00,Western Union,Q861042
32c0d2bb56f81e64f73d1a9896a8c882,western_union,UNICO,,Lome,MARITIME,,TG,+228 97 93 13 13,https://location.westernunion.com/tg/maritime/lome/32c0d2bb56f81e64f73d1a9896a8c882,Mo-Sa 07:00-19:00; Su 09:00-13:00,Western Union,Q861042
b7a3fc7e4130d4df5a1d0f134233b248,western_union,IMF COCEC ANFAME,,Lome,MARITIME,,TG,+228 22 71 41 48,https://location.westernunion.com/tg/maritime/lome/b7a3fc7e4130d4df5a1d0f134233b248,Mo-Fr 07:00-19:00; Sa 07:00-16:00,Western Union,Q861042
6cecac567e34cfdf20eb33a099fd4267,western_union,SO ME CO AKODESSEWA,,Lome,MARITIME,,TG,+228 22 27 91 20,https://location.westernunion.com/tg/maritime/lome/6cecac567e34cfdf20eb33a099fd4267,Mo-Fr 07:00-18:00; Sa 08:00-13:00,Western Union,Q861042
d882d4f8bd42b68dcade0e30549be7e4,western_union,PRESYRAM,,Lome,MARITIME,,TG,+228 98 23 13 88,https://location.westernunion.com/tg/maritime/lome/d882d4f8bd42b68dcade0e30549be7e4,Mo-Sa 07:00-19:00,Western Union,Q861042
5f06796125e4e964265ba3b918e18457,western_union,SPT LOME AKODESSEWA,,Lome,MARITIME,,TG,(+228) 2718586,https://location.westernunion.com/tg/maritime/lome/5f06796125e4e964265ba3b918e18457,Mo-Fr 07:30-17:00; Sa 07:30-14:00,Western Union,Q861042
9b13769896fb1b142d58e5ac28989fb1,western_union,FLODI SERVICES,,Lome,MARITIME,,TG,+228 91 61 55 20,https://location.westernunion.com/tg/maritime/lome/9b13769896fb1b142d58e5ac28989fb1,Mo-Su 08:00-18:30,Western Union,Q861042
b6c561723652ddafee550031aaeccf1a,western_union,GENERATION INFORMATIQUE BUREAUTIQUE  GIB,,Lome,MARITIME,,TG,+228 90 98 29 09,https://location.westernunion.com/tg/maritime/lome/b6c561723652ddafee550031aaeccf1a,Mo-Su 07:30-19:00,Western Union,Q861042
4bb185c5cc63745ad27196a8689d9dc2,western_union,ALT AGENCE PRINCIPALE,,Lome,MARITIME,,TG,+228 22 23 69 00,https://location.westernunion.com/tg/maritime/lome/4bb185c5cc63745ad27196a8689d9dc2,Mo-Fr 07:30-17:00,Western Union,Q861042
c91b726d05ff789517017cce0d122b1b,western_union,WKK GROUP-TOGO,,Lome,MARITIME,,TG,+228 93 49 80 46,https://location.westernunion.com/tg/maritime/lome/c91b726d05ff789517017cce0d122b1b,Mo-Su 07:30-19:00,Western Union,Q861042
b0c64fcb565397dfade2f447509dc6c0,western_union,PADES MICROFINANCE SIEGE,,Lome,MARITIME,,TG,+228 22 20 53 85,https://location.westernunion.com/tg/maritime/lome/b0c64fcb565397dfade2f447509dc6c0,Mo-Sa 07:00-18:00,Western Union,Q861042
60cb16d0f5249deb7c8dbda63ac1b13d,western_union,NC NOUVEAU CIEL,,Lome,MARITIME,,TG,+228 90 05 62 70,https://location.westernunion.com/tg/maritime/lome/60cb16d0f5249deb7c8dbda63ac1b13d,Mo-Fr 07:00-18:30; Sa 07:00-16:00,Western Union,Q861042
373434c9a83fabe3fb563dbe9717e50a,western_union,CECA,,Lome,MARITIME,,TG,+228 90 72 29 73,https://location.westernunion.com/tg/maritime/lome/373434c9a83fabe3fb563dbe9717e50a,Mo-Su 07:30-19:00,Western Union,Q861042
e50587ff872004d984935296af10a8ff,western_union,AGP HALL CAISSES5,,Lome,MARITIME,,TG,+228 22 23 08 00,https://location.westernunion.com/tg/maritime/lome/e50587ff872004d984935296af10a8ff,Mo-Fr 07:00-19:00; Sa 07:00-15:00,Western Union,Q861042
554aabe4776f43aad13b17f0e3afde8f,western_union,FUCEC EELO KOKETIME,,Lome,MARITIME,,TG,+228 90 24 24 13,https://location.westernunion.com/tg/maritime/lome/554aabe4776f43aad13b17f0e3afde8f,Mo-Su 07:30-18:00,Western Union,Q861042
840e487434f4a83e9d449a4cc35338ba,western_union,EPU SARLU ZONGO,,Lome,MARITIME,,TG,+228 93 60 69 60,https://location.westernunion.com/tg/maritime/lome/840e487434f4a83e9d449a4cc35338ba,Mo-Sa 07:00-18:30,Western Union,Q861042
2f1644830137265bd5b894699710780d,western_union,EVDAG BUSINESS CENTER,,Lome,MARITIME,,TG,+228 90 34 01 49,https://location.westernunion.com/tg/maritime/lome/2f1644830137265bd5b894699710780d,Mo-Fr 07:00-19:00; Sa-Su 07:00-18:00,Western Union,Q861042
2b7531a24f1a65f2ffec28f71d91c491,western_union,ETS COCOAF JNP,,Lome,MARITIME,,TG,+228 90 01 09 23,https://location.westernunion.com/tg/maritime/lome/2b7531a24f1a65f2ffec28f71d91c491,Mo-Su 07:00-19:00,Western Union,Q861042
d4875238e98996039ee5f686d8d707bc,western_union,LEO BOUTIQUE,,Lome,MARITIME,,TG,+228 90 05 45 71,https://location.westernunion.com/tg/maritime/lome/d4875238e98996039ee5f686d8d707bc,Mo-Su 07:00-21:00,Western Union,Q861042
b0c2fda387a3ce75c44f8bfc73aaed08,western_union,FUCEC SOLOIDARITE KAGOME,,Lome,MARITIME,,TG,+228 90 24 24 13,https://location.westernunion.com/tg/maritime/lome/b0c2fda387a3ce75c44f8bfc73aaed08,Mo-Su 07:30-18:00,Western Union,Q861042
41e8bdc5340bc90868d259f71f87a696,western_union,FOGAN,,Lome,MARITIME,,TG,+228 90 23 39 95,https://location.westernunion.com/tg/maritime/lome/41e8bdc5340bc90868d259f71f87a696,Mo-Sa 07:00-18:00,Western Union,Q861042
45d99b0b43b8b75cf5dd76ab239331cb,western_union,SPT HAHOTOE,,Hahotoe,MARITIME,,TG,(+228) 3350312,https://location.westernunion.com/tg/maritime/hahotoe/45d99b0b43b8b75cf5dd76ab239331cb,Mo-Fr 07:00-17:00; Sa 07:30-14:00,Western Union,Q861042
51940bd1166241adb3930e5c17bff4b9,western_union,COCEC,,Lome,MARITIME,,TG,(+228) 2714148,https://location.westernunion.com/tg/maritime/lome/51940bd1166241adb3930e5c17bff4b9,Mo-Fr 07:00-19:00; Sa 07:00-16:00,Western Union,Q861042
1533a5f8c6729288e67288c168efd74a,western_union,FUCEC SOLIDARITE AKODESSEWA,,Lome,MARITIME,,TG,+228 90 24 24 13,https://location.westernunion.com/tg/maritime/lome/1533a5f8c6729288e67288c168efd74a,Mo-Su 07:30-18:00,Western Union,Q861042
dcd34ccdd8f67a289885f8b4e81901e5,western_union,DS FELICITAS,,Lome,MARITIME,,TG,+228 91 98 50 30,https://location.westernunion.com/tg/maritime/lome/dcd34ccdd8f67a289885f8b4e81901e5,Mo-Su 07:30-19:00,Western Union,Q861042
0b2ae46fd88a1cfd328bbc3c766349c8,western_union,PIGUAL DAUPHINE PORT,,Lome,MARITIME,,TG,(+228) 772617-90042812,https://location.westernunion.com/tg/maritime/lome/0b2ae46fd88a1cfd328bbc3c766349c8,Mo-Su 07:00-19:00,Western Union,Q861042
77534985e220b54dd657fbde8a274ba8,western_union,AFIMESS MINAMADOU,,Lome,MARITIME,,TG,+228 23 38 71 05,https://location.westernunion.com/tg/maritime/lome/77534985e220b54dd657fbde8a274ba8,Mo-Su 07:00-19:00,Western Union,Q861042
493574697e6b6a5ce562b62138c46fa2,western_union,REMADE GROUP,,Lome,MARITIME,,TG,+228 91 14 46 28,https://location.westernunion.com/tg/maritime/lome/493574697e6b6a5ce562b62138c46fa2,Mo-Su 07:30-19:00,Western Union,Q861042
28a97d83388eb53c30cd0f2c814f421d,western_union,AMAD CONSULTING,,Lome,MARITIME,,TG,+228 90 04 44 56,https://location.westernunion.com/tg/maritime/lome/28a97d83388eb53c30cd0f2c814f421d,Mo-Fr 08:00-17:00; Sa 08:00-14:00,Western Union,Q861042
2709d0f5bd3c8dfc55becc25edbc6965,western_union,COLBYCO ASSIGAME,,Lome,MARITIME,,TG,+228 90 09 19 70,https://location.westernunion.com/tg/maritime/lome/2709d0f5bd3c8dfc55becc25edbc6965,Mo-Su 07:30-19:00,Western Union,Q861042
2eceff0760a14c15ab2c0a6db55e0a63,western_union,LA MIA FAMIGLIA,,Lome,MARITIME,,TG,+228 93 23 78 14,https://location.westernunion.com/tg/maritime/lome/2eceff0760a14c15ab2c0a6db55e0a63,Mo-Su 07:30-19:00,Western Union,Q861042
e74a4c2ef37b9bd1eaaaa453c167b67a,western_union,DKM LE CAPITAL,,Lome,MARITIME,,TG,+228 90 37 39 38,https://location.westernunion.com/tg/maritime/lome/e74a4c2ef37b9bd1eaaaa453c167b67a,Mo-Su 07:00-19:00,Western Union,Q861042
5920ace469f32e5ebbc8827f3e428f0a,western_union,VENUNYE AMAZING GLOBAL,,Lome,MARITIME,,TG,+228 92 95 57 27,https://location.westernunion.com/tg/maritime/lome/5920ace469f32e5ebbc8827f3e428f0a,Mo-Su 07:00-23:00,Western Union,Q861042
32269cdefc506027281f7b7ad373fb3e,western_union,BANQUE TOGOLAISE COM ET IND,,Lome,MARITIME,,TG,(+228) 2218442,https://location.westernunion.com/tg/maritime/lome/32269cdefc506027281f7b7ad373fb3e,Mo-Sa 07:30-18:00,Western Union,Q861042
f3fb5733a348f52dd6867c65053c6407,western_union,SEUL JESUS SAUVE,,Lome,MARITIME,,TG,+228 90 16 24 75,https://location.westernunion.com/tg/maritime/lome/f3fb5733a348f52dd6867c65053c6407,Mo-Su 08:00-20:00,Western Union,Q861042
514ea09387e5554ae2079b1184b1ece8,western_union,WAGES ASSIVITO,,Lome,MARITIME,,TG,+228 70 43 26 37,https://location.westernunion.com/tg/maritime/lome/514ea09387e5554ae2079b1184b1ece8,Mo-Su 07:30-16:00,Western Union,Q861042
333df87298bf1253e98cfb00d07eb904,western_union,TOP EXCHANGE TOGO,,Lome,MARITIME,,TG,+228 90 18 05 96,https://location.westernunion.com/tg/maritime/lome/333df87298bf1253e98cfb00d07eb904,Mo-Su 07:30-19:00,Western Union,Q861042
dbca3d78f94bfcebb74772a642ab72f4,western_union,ECOBANK AGENCE BOULEVARD,,Lome,MARITIME,,TG,+228 22 20 75 67,https://location.westernunion.com/tg/maritime/lome/dbca3d78f94bfcebb74772a642ab72f4,Mo-Fr 07:30-20:00; Sa 07:30-19:00,Western Union,Q861042
5210de8203cbee9608644cd83eb587bd,western_union,BPEC HEDZRANAWOE,,Lome,MARITIME,,TG,+228 22 26 18 33,https://location.westernunion.com/tg/maritime/lome/5210de8203cbee9608644cd83eb587bd,Mo-Fr 07:30-17:00; Sa 09:00-14:00,Western Union,Q861042
ee76ee7fd52479c3ac96e953e3deff18,western_union,CORIS BANK AGENCE PRINCIPALE,,Lome,MARITIME,,TG,(+228) 22208282-122,https://location.westernunion.com/tg/maritime/lome/ee76ee7fd52479c3ac96e953e3deff18,Mo-Fr 08:00-17:30; Sa 09:00-14:00,Western Union,Q861042
0c996fbd4d2c215f78ea699e9ce8d3e6,western_union,DIO MIO,,Lome,MARITIME,,TG,+228 90 33 91 98,https://location.westernunion.com/tg/maritime/lome/0c996fbd4d2c215f78ea699e9ce8d3e6,Mo-Su 07:00-19:00,Western Union,Q861042
c36db951dabb83e4d87959a61dcebc6a,western_union,NID'OR CAISSE SUCCURSALE DU TOGO,,Lome,MARITIME,,TG,+228 92 06 98 58,https://location.westernunion.com/tg/maritime/lome/c36db951dabb83e4d87959a61dcebc6a,Mo-Sa 08:00-20:00; Su 08:30-14:30,Western Union,Q861042
35d836d0a44375c7c4f26047ec37e452,western_union,BCBG SARLU,,Lome,MARITIME,,TG,+228 98 09 44 23,https://location.westernunion.com/tg/maritime/lome/35d836d0a44375c7c4f26047ec37e452,Mo-Fr 07:30-19:00; Sa 07:30-18:00,Western Union,Q861042
470a30467eaa4c069036bb205b0504f5,western_union,WAGES HEDZRANAWOE,,Lome,MARITIME,,TG,+228 70 42 48 67,https://location.westernunion.com/tg/maritime/lome/470a30467eaa4c069036bb205b0504f5,Mo-Su 07:30-16:00,Western Union,Q861042
1893b5001635a22b2795bda0193d77e4,western_union,BTD ROND POINT AEROPORT,,Lome,MARITIME,,TG,(+228) 2265892,https://location.westernunion.com/tg/maritime/lome/1893b5001635a22b2795bda0193d77e4,Mo-Fr 07:45-19:00; Sa 09:00-16:00,Western Union,Q861042
30216362d790626c6fdf27e9e73bd58b,western_union,WWA BIA TOGO BE,,Lome,MARITIME,,TG,+228 91 80 15 59,https://location.westernunion.com/tg/maritime/lome/30216362d790626c6fdf27e9e73bd58b,Mo-Fr 08:00-17:00; Sa 08:00-15:00,Western Union,Q861042
94c4e4ec0d31ed4eeb3485c671557c58,western_union,PAMESSY MARKET LAND,,Lome,MARITIME,,TG,+228 90 32 95 50,https://location.westernunion.com/tg/maritime/lome/94c4e4ec0d31ed4eeb3485c671557c58,Mo-Su 07:00-19:00,Western Union,Q861042
19a2736b07c1f273dac7a360d3aa66ba,western_union,ARDI-MEC,,Lome,MARITIME,,TG,+228 90 01 78 79,https://location.westernunion.com/tg/maritime/lome/19a2736b07c1f273dac7a360d3aa66ba,Mo-Su 07:00-21:00,Western Union,Q861042
25ff49879fb72d4b5a28e258fd886145,western_union,WAGES ADIDOGOME,,Lome,MARITIME,,TG,+228 70 43 25 91,https://location.westernunion.com/tg/maritime/lome/25ff49879fb72d4b5a28e258fd886145,Mo-Su 07:30-16:00,Western Union,Q861042
360fcc8c2a198f1b6c13f3e318d3f857,western_union,WAGES AVEDJI,,Lome,MARITIME,,TG,+228 70 42 48 64,https://location.westernunion.com/tg/maritime/lome/360fcc8c2a198f1b6c13f3e318d3f857,Mo-Su 07:30-16:00,Western Union,Q861042
48033e2d74bc0380d0259f36ac230bc7,western_union,WAGES AGUIARKOME,,Lome,MARITIME,,TG,+228 22 22 54 71,https://location.westernunion.com/tg/maritime/lome/48033e2d74bc0380d0259f36ac230bc7,Mo-Su 07:30-16:00,Western Union,Q861042
774980c2446669c41d95ab097d07f749,western_union,AMADIS FIATA,,Lome,MARITIME,,TG,+228 90 12 69 64,https://location.westernunion.com/tg/maritime/lome/774980c2446669c41d95ab097d07f749,Mo-Su 07:00-20:00,Western Union,Q861042
45c8f7606241252a8f58c801a70974cf,western_union,MICROLINK DEKON,,Lome,MARITIME,,TG,+228 90 00 25 55,https://location.westernunion.com/tg/maritime/lome/45c8f7606241252a8f58c801a70974cf,Mo-Su 07:00-20:00,Western Union,Q861042
9001f6485b9f66e064ede4a26291a888,western_union,OJ2A,,Lome,MARITIME,,TG,+228 92 40 75 20,https://location.westernunion.com/tg/maritime/lome/9001f6485b9f66e064ede4a26291a888,Mo-Su 07:00-22:00,Western Union,Q861042
6149ef06ec73bd324a3cf0ba159eeeb2,western_union,COBLA GROUP,,Lome,MARITIME,,TG,+228 70 56 76 85,https://location.westernunion.com/tg/maritime/lome/6149ef06ec73bd324a3cf0ba159eeeb2,Mo-Su 07:30-19:00,Western Union,Q861042
3065546cbadd43d6056a1db22ef019f3,western_union,LA DOLCEZZA,,Lome,MARITIME,,TG,+228 90 09 97 67,https://location.westernunion.com/tg/maritime/lome/3065546cbadd43d6056a1db22ef019f3,Mo-Su 07:00-20:00,Western Union,Q861042
a8e411038d940f7f1faa59cacbdb2905,western_union,ECOBANK AGENCE BAGUIDA,,Lome,MARITIME,,TG,(+228) 2227403,https://location.westernunion.com/tg/maritime/lome/a8e411038d940f7f1faa59cacbdb2905,Mo-Fr 07:00-19:00; Sa 07:00-18:00,Western Union,Q861042
376c3df8e7112582a4bb0386bd5c8eef,western_union,COCOAF AVEPOZO,,Lome,MARITIME,,TG,+228 90 01 09 23,https://location.westernunion.com/tg/maritime/lome/376c3df8e7112582a4bb0386bd5c8eef,Mo-Su 07:00-22:00,Western Union,Q861042
df689c10c26254e43dda89d6fd646c3d,western_union,WAGES BAGUIDA,,Lome,MARITIME,,TG,+228 70 43 26 03,https://location.westernunion.com/tg/maritime/lome/df689c10c26254e43dda89d6fd646c3d,Mo-Su 07:30-16:00,Western Union,Q861042
bf6cb7042611e64d737c0372eb416664,western_union,BPEC BAGUIDA,,Lome,MARITIME,,TG,+228 22 71 00 18,https://location.westernunion.com/tg/maritime/lome/bf6cb7042611e64d737c0372eb416664,Mo-Fr 07:30-17:00; Sa 09:00-14:00,Western Union,Q861042
50aabed4dee34e4b361e063d4cbf46ac,western_union,VIASSKO SARL,,Lome,MARITIME,,TG,+228 91 95 95 61,https://location.westernunion.com/tg/maritime/lome/50aabed4dee34e4b361e063d4cbf46ac,Mo-Su 07:30-19:00,Western Union,Q861042
a746e2bc047cadc74959b7bef0ffb7b7,western_union,DEMONSTRATION SESSOU,,Lome,MARITIME,,TG,+228 70 55 61 87,https://location.westernunion.com/tg/maritime/lome/a746e2bc047cadc74959b7bef0ffb7b7,Mo-Su 07:30-19:00,Western Union,Q861042
51c95a6d1b27f1e52a620bda06b876a9,western_union,BOA AGENCE BAGUIDA,,Lome,MARITIME,,TG,+228 22 53 62 62,https://location.westernunion.com/tg/maritime/lome/51c95a6d1b27f1e52a620bda06b876a9,Mo-Fr 07:00-18:30; Sa 08:00-14:00,Western Union,Q861042
771aa2d0f1e7d65d0a4e5d32119ac080,western_union,COACH MONUMENT,,Lome,MARITIME,,TG,+228 90 01 09 23,https://location.westernunion.com/tg/maritime/lome/771aa2d0f1e7d65d0a4e5d32119ac080,Mo-Su 07:00-22:00,Western Union,Q861042
50daaffb0f017654fe0a8baf9f6b8425,western_union,COACH JNP,,Lome,MARITIME,,TG,+228 90 01 09 23,https://location.westernunion.com/tg/maritime/lome/50daaffb0f017654fe0a8baf9f6b8425,Mo-Su 07:00-22:00,Western Union,Q861042
29925bbde9ac250e3853aa3bf43373a6,western_union,HORIZON NET (H.N.),,Lome,MARITIME,,TG,+228 91 13 52 61,https://location.westernunion.com/tg/maritime/lome/29925bbde9ac250e3853aa3bf43373a6,Mo-Su 07:30-19:00,Western Union,Q861042
ba51589c893226e1b3e91c55672c8024,western_union,CARGO FRET SIEGE,,Lome,MARITIME,,TG,+228 22 27 14 00,https://location.westernunion.com/tg/maritime/lome/ba51589c893226e1b3e91c55672c8024,Mo-Sa 07:00-19:00,Western Union,Q861042
119b415649b46e26c7589b2373a21fd4,western_union,GOD ENERGY PLUS,,Lome,MARITIME,,TG,+228 91 04 81 54,https://location.westernunion.com/tg/maritime/lome/119b415649b46e26c7589b2373a21fd4,Mo-Su 07:30-19:00,Western Union,Q861042
e54b9be7230716b69f8516673b213b55,western_union,S K B CYGA,,Lome,MARITIME,,TG,+228 91 91 55 81,https://location.westernunion.com/tg/maritime/lome/e54b9be7230716b69f8516673b213b55,Mo-Su 08:00-18:00,Western Union,Q861042
f360ddc5e1d66e5c4c0501958737da86,western_union,LA FORCE TOGOLAISE,,Lome,MARITIME,,TG,+228 90 86 12 66,https://location.westernunion.com/tg/maritime/lome/f360ddc5e1d66e5c4c0501958737da86,Mo-Fr 07:00-19:00; Sa-Su 07:00-18:00,Western Union,Q861042
1226f1829ed7ad1ef8620450a0b8928a,western_union,GREAT-GRACE WAY,,Lome,MARITIME,,TG,+228 97 31 47 50,https://location.westernunion.com/tg/maritime/lome/1226f1829ed7ad1ef8620450a0b8928a,Mo-Su 07:30-19:00,Western Union,Q861042
175e80819f34b963658f911935f80819,western_union,EASY SERVICES SARL,,Lome,MARITIME,,TG,+228 90 13 65 45,https://location.westernunion.com/tg/maritime/lome/175e80819f34b963658f911935f80819,Mo-Su 07:00-21:00,Western Union,Q861042
47c4491783daea2b26ff31df005a39c8,western_union,ECOTRAVEL SARLU,,Lome,MARITIME,,TG,+228 91 60 21 99,https://location.westernunion.com/tg/maritime/lome/47c4491783daea2b26ff31df005a39c8,Mo-Su 07:00-21:00,Western Union,Q861042
be85756f178d2b57c29b27455bb540af,western_union,COFITEL,,Lome,MARITIME,,TG,+228 90 04 59 26,https://location.westernunion.com/tg/maritime/lome/be85756f178d2b57c29b27455bb540af,Mo-Su 07:00-21:00,Western Union,Q861042
bf881ce86da5f6c55bfb82a77970257f,western_union,GROUPE LAUGANE,,Lome,MARITIME,,TG,+228 91 98 98 04,https://location.westernunion.com/tg/maritime/lome/bf881ce86da5f6c55bfb82a77970257f,Mo-Su 07:00-21:00,Western Union,Q861042
89c0849f14344289db75d863ab03ab5b,western_union,E PLACE CHATEAU,,Lome,MARITIME,,TG,+228 22 27 46 86,https://location.westernunion.com/tg/maritime/lome/89c0849f14344289db75d863ab03ab5b,Mo-Sa 07:00-21:00; Su 08:00-14:00,Western Union,Q861042
5a5fa80eb448d7a8afe2d8329ca4fbd8,western_union,SITHIEL DISTRIBUTION,,Aneho,MARITIME,,TG,+228 90 01 86 82,https://location.westernunion.com/tg/maritime/aneho/5a5fa80eb448d7a8afe2d8329ca4fbd8,Mo-Su 07:30-19:00,Western Union,Q861042
63fd1bf919107530ee268411ffb68da9,western_union,TONYE LI,,Aneho,MARITIME,,TG,+228 90 33 22 89,https://location.westernunion.com/tg/maritime/aneho/63fd1bf919107530ee268411ffb68da9,Mo-Sa 07:30-20:00,Western Union,Q861042
87d2403fd775c44462034f9f71afdf2f,western_union,DARIFA CONSULTING SARL,,Lome,MARITIME,,TG,+228 90 89 80 83,https://location.westernunion.com/tg/maritime/lome/87d2403fd775c44462034f9f71afdf2f,Mo-Sa 07:00-19:00,Western Union,Q861042
fb7a81c63ccd253d52b207a04f5fa0a4,western_union,WAGES ADAKPAME,,Lome,MARITIME,,TG,+228 70 43 26 96,https://location.westernunion.com/tg/maritime/lome/fb7a81c63ccd253d52b207a04f5fa0a4,Mo-Su 07:30-16:00,Western Union,Q861042
e225cdb32193f50799f3e5398fbfa6ac,western_union,CLOVIS BUSINESS,,Lome,MARITIME,,TG,+228 91 95 54 18,https://location.westernunion.com/tg/maritime/lome/e225cdb32193f50799f3e5398fbfa6ac,Mo-Su 07:00-21:00,Western Union,Q861042
1f08bcc07e88e7ab2982d698aee8f35b,western_union,FIRST SERVICES,,Lome,MARITIME,,TG,+228 90 25 94 32,https://location.westernunion.com/tg/maritime/lome/1f08bcc07e88e7ab2982d698aee8f35b,Mo-Su 07:00-19:00,Western Union,Q861042
f0a6b52a063cb4b430159c5beaa628e5,western_union,MARINE INTELLIGENCY & TRADE,,Lome,MARITIME,,TG,+228 90 56 07 97,https://location.westernunion.com/tg/maritime/lome/f0a6b52a063cb4b430159c5beaa628e5,Mo-Fr 08:00-17:00; Sa 08:00-14:00,Western Union,Q861042
76b37aae1510ece9cdeaf68b70534c50,western_union,ORABANK ROND POINT PORT,,Lome,MARITIME,,TG,+228 22 21 62 25,https://location.westernunion.com/tg/maritime/lome/76b37aae1510ece9cdeaf68b70534c50,Mo-Su 07:00-19:00,Western Union,Q861042
f5f88779a38a29107ec629cfbec346f9,western_union,ROND POINT PORT,,Lome,MARITIME,,TG,+228 22 53 62 62,https://location.westernunion.com/tg/maritime/lome/f5f88779a38a29107ec629cfbec346f9,Mo-Fr 07:00-18:30; Sa 08:00-14:00,Western Union,Q861042
f5d3dc3ab1241d0c5015a536b0f200ce,western_union,UNION TOGOLAISE DE BANQUE,,Aneho,MARITIME,,TG,(+228) 310115,https://location.westernunion.com/tg/maritime/aneho/f5d3dc3ab1241d0c5015a536b0f200ce,Mo-Fr 07:45-16:30; Sa 07:00-15:00,Western Union,Q861042
f77c8946c49f1f7fd360ba49a6304cce,western_union,ECOBANK CASH POINT OANDO PORT,,Lome,MARITIME,,TG,(+228) 2227403,https://location.westernunion.com/tg/maritime/lome/f77c8946c49f1f7fd360ba49a6304cce,Mo-Fr 07:00-19:00; Sa 07:30-18:00,Western Union,Q861042
b306ce59a43e0664984a094de06379e7,western_union,UNION TOGOLAISE DE BANQUE GUERIN-KOUKA,,Guerin Kouka,MARITIME,,TG,+228 22 23 43 00,https://location.westernunion.com/tg/maritime/guerin-kouka/b306ce59a43e0664984a094de06379e7,Mo-Fr 07:30-18:00; Sa 08:00-16:00,Western Union,Q861042
214e2d0a9e3ac12490ee2518f356fb1f,western_union,SIAB ADIDOADIN,,Lome,MARITIME,,TG,+228 70 44 63 93,https://location.westernunion.com/tg/maritime/lome/214e2d0a9e3ac12490ee2518f356fb1f,Mo-Fr 07:30-17:00; Sa 09:00-15:00,Western Union,Q861042
1bb16231bbba5f6c077cb6351f202f44,western_union,BARRUCK BUSINESS CENTER ENTREP,,Lome,MARITIME,,TG,+228 90 35 94 17,https://location.westernunion.com/tg/maritime/lome/1bb16231bbba5f6c077cb6351f202f44,Mo-Su 07:00-19:00,Western Union,Q861042
6f702ac76e4c93acb395815a52f54306,western_union,WORLD TOUR AGENCY (W.T.A),,Lome,MARITIME,,TG,+228 90 58 47 76,https://location.westernunion.com/tg/maritime/lome/6f702ac76e4c93acb395815a52f54306,Mo-Su 08:00-18:00,Western Union,Q861042
084d4687a2815514eac87ec8f0252711,western_union,SAINT JOSEH GBONFOU,,Lome,MARITIME,,TG,+228 90 10 23 36,https://location.westernunion.com/tg/maritime/lome/084d4687a2815514eac87ec8f0252711,Mo-Sa 07:30-18:00,Western Union,Q861042
a74be5d90fbb1491075f54f385dde3cf,western_union,AGENCE BAGUIDA,,Lome,MARITIME,,TG,+228 22 20 82 82,https://location.westernunion.com/tg/maritime/lome/a74be5d90fbb1491075f54f385dde3cf,Mo-Fr 07:00-18:00; Sa-Su 08:00-17:00,Western Union,Q861042
6152d5b9605f17e16a8823720f3d737f,western_union,INTER POOL BUSINESS PARTNER,,Lome,MARITIME,,TG,+228 90 09 81 00,https://location.westernunion.com/tg/maritime/lome/6152d5b9605f17e16a8823720f3d737f,Mo-Su 07:00-20:00,Western Union,Q861042
b6a480c7b4fdc7db644e78a79d42c751,western_union,BTCI BAGUIDA,,Lome,MARITIME,,TG,+228 22 46 88 63,https://location.westernunion.com/tg/maritime/lome/b6a480c7b4fdc7db644e78a79d42c751,Mo-Fr 07:45-18:00; Sa 09:30-16:00,Western Union,Q861042
3f299cfc7dc2a8343dc37250be4a4d2b,western_union,EL MORACHI & FILS,,Aneho,MARITIME,,TG,+228 90 14 89 81,https://location.westernunion.com/tg/maritime/aneho/3f299cfc7dc2a8343dc37250be4a4d2b,Mo-Su 07:30-19:00,Western Union,Q861042
6324cc833cae270f4e442a9d848e3e85,western_union,BENGIS,,Aneho,MARITIME,,TG,+228 90 28 78 84,https://location.westernunion.com/tg/maritime/aneho/6324cc833cae270f4e442a9d848e3e85,Mo-Su 07:00-21:00,Western Union,Q861042
da82be0545a1e2f221d708d9aab1eb51,western_union,COCEC,,Lome,MARITIME,,TG,+228 99 07 70 07,https://location.westernunion.com/tg/maritime/lome/da82be0545a1e2f221d708d9aab1eb51,Mo-Su 07:30-19:00,Western Union,Q861042
f5ec4a9604704712760f7300ba50cbd4,western_union,AZR EXCHANGE TG (AZRET),,Aneho,MARITIME,,TG,+228 90 27 13 72,https://location.westernunion.com/tg/maritime/aneho/f5ec4a9604704712760f7300ba50cbd4,Mo-Su 07:30-19:00,Western Union,Q861042
ef624a1bd6f305293fd12de46934e4a8,western_union,AGENCE MA GRANDE NUNANA,,Aneho,MARITIME,,TG,+228 90 22 90 96,https://location.westernunion.com/tg/maritime/aneho/ef624a1bd6f305293fd12de46934e4a8,Mo-Su 07:00-18:30,Western Union,Q861042
0c0ce7f79eae64647248881db39118f1,western_union,WAGES ANEHO,,Aneho,MARITIME,,TG,+228 70 42 48 66,https://location.westernunion.com/tg/maritime/aneho/0c0ce7f79eae64647248881db39118f1,Mo-Su 07:30-16:00,Western Union,Q861042
4224ec1a7d3ec25b49b43426824ea528,western_union,WAGES AGBODRAFO,,Aneho,MARITIME,,TG,+228 70 42 48 65,https://location.westernunion.com/tg/maritime/aneho/4224ec1a7d3ec25b49b43426824ea528,Mo-Su 07:30-16:00,Western Union,Q861042
7778ac3cca4d7156f8b82e02e9e2b79b,western_union,BENGIS AGBEDRAFO,,Aneho,MARITIME,,TG,+228 91 16 65 83,https://location.westernunion.com/tg/maritime/aneho/7778ac3cca4d7156f8b82e02e9e2b79b,Mo-Sa 07:00-20:00,Western Union,Q861042
21778e99d3bc830072755a7319a543d8,western_union,ORABANK ANEHO,,Lome,MARITIME,,TG,+228 90 01 87 58,https://location.westernunion.com/tg/maritime/lome/21778e99d3bc830072755a7319a543d8,Mo-Fr 07:00-19:00; Sa 09:00-16:00,Western Union,Q861042
7d39310fbc150ddb7b0c3d9d20ab41af,western_union,FUCEC NYAMENEKO ANEHO,,Aneho,MARITIME,,TG,+228 90 24 24 13,https://location.westernunion.com/tg/maritime/aneho/7d39310fbc150ddb7b0c3d9d20ab41af,Mo-Su 07:30-18:00,Western Union,Q861042
bf2b9193135b461796c2cfccc56f0b35,western_union,SPT ANFOIN,,Anfoin,MARITIME,,TG,(+228) 3394000,https://location.westernunion.com/tg/maritime/anfoin/bf2b9193135b461796c2cfccc56f0b35,Mo-Fr 07:00-17:00; Sa 07:30-14:00,Western Union,Q861042
5ef041c679fb7a83db52dbdc76222ab5,western_union,RAYMOND ET FILS,,Vogan,MARITIME,,TG,+228 99 61 58 15,https://location.westernunion.com/tg/maritime/vogan/5ef041c679fb7a83db52dbdc76222ab5,Mo-Su 07:30-19:00,Western Union,Q861042
58a587794f0cfcda79fd60e338aadebe,western_union,BPEC VOGAN,,Vogan,MARITIME,,TG,+228 23 33 00 00,https://location.westernunion.com/tg/maritime/vogan/58a587794f0cfcda79fd60e338aadebe,Mo-Fr 07:30-17:00; Sa 09:00-14:00,Western Union,Q861042
bb37e66e767eaaea5b8b3f4184943899,western_union,UTB BLITTA,,Blitta,MARITIME,,TG,+228 22 21 84 42,https://location.westernunion.com/tg/maritime/blitta/bb37e66e767eaaea5b8b3f4184943899,Mo-Sa 07:30-18:00,Western Union,Q861042
a924dbb535fca8e479162c63a6375ef6,western_union,BTD VOGAN,,Vogan,MARITIME,,TG,(+228) 3330020,https://location.westernunion.com/tg/maritime/vogan/a924dbb535fca8e479162c63a6375ef6,Mo-Fr 08:00-16:30; Sa 08:00-12:00,Western Union,Q861042
940083b2e9fdab4706ed989c35473cfd,western_union,BTD KPALIME,,Kpalime,MARITIME,,TG,(+228) 4410132,https://location.westernunion.com/tg/maritime/kpalime/940083b2e9fdab4706ed989c35473cfd,Mo-Fr 08:00-16:30; Sa 08:00-12:00,Western Union,Q861042
a036cb03db04660d555972d9af891ccd,western_union,SPT ANEHO,,Aneho,MARITIME,,TG,(+228) 3310003,https://location.westernunion.com/tg/maritime/aneho/a036cb03db04660d555972d9af891ccd,Mo-Fr 07:00-17:00; Sa 07:30-14:00,Western Union,Q861042
c2365d66bc2af1dda120c8b3d9ba02a5,western_union,NAGODE TRANSFERT DIDAOURE,,Sokode,MARITIME,,TG,+228 92 98 99 23,https://location.westernunion.com/tg/maritime/sokode/c2365d66bc2af1dda120c8b3d9ba02a5,Mo-Sa 07:30-18:00,Western Union,Q861042
62c73b54763bd7280819e8d59e57c5d1,western_union,AULINAH TODMAN,,Lome,MARITIME,,TG,+228 91 64 74 04,https://location.westernunion.com/tg/maritime/lome/62c73b54763bd7280819e8d59e57c5d1,Mo-Sa 07:00-19:00,Western Union,Q861042
22c19b9c5efa30a202a9867c298049f5,western_union,ORABANK BASSAR,,Bassar,MARITIME,,TG,+228 22 21 62 21,https://location.westernunion.com/tg/maritime/bassar/22c19b9c5efa30a202a9867c298049f5,Mo-Sa 06:45-18:30,Western Union,Q861042
57a95ac1405bfc9e7c5cbd239c1d2304,western_union,COCEC,,Lome,MARITIME,,TG,+228 99 07 70 07,https://location.westernunion.com/tg/maritime/lome/57a95ac1405bfc9e7c5cbd239c1d2304,Mo-Su 07:30-19:00,Western Union,Q861042
4fa48057bbeed1d3278bf08b28d54413,western_union,WWA BIA TOGO KARA,,Lome,MARITIME,,TG,+228 90 49 14 42,https://location.westernunion.com/tg/maritime/lome/4fa48057bbeed1d3278bf08b28d54413,Mo-Fr 08:00-17:00; Sa 08:00-15:00,Western Union,Q861042
8364930adfb7e437468ce03d17f1ab42,western_union,MAWU AKPE,,Lome,MARITIME,,TG,+228 90 45 85 46,https://location.westernunion.com/tg/maritime/lome/8364930adfb7e437468ce03d17f1ab42,Mo-Su 07:30-19:00,Western Union,Q861042
