Ref,Spider,Name,Address,City,State,Zipcode,Country,Phone,Website,Hours,Brand,WikiData
AU-1534,anytime_fitness,Anytime Fitness,,Glen Waverley,VIC,,AU,+61 420 243 301,https://anytimefitness.com.au/gyms/au-1534/glen-waverley-vic-3150/,,Anytime Fitness,Q4778364
RED0008108,australia_post_au,,,WHEELERS HILL,VIC,,AU,,,,Australia Post,Q1142936
RED0008112,australia_post_au,,,WHEELERS HILL,VIC,,AU,,,,Australia Post,Q1142936
RED0008113,australia_post_au,,,WHEELERS HILL,VIC,,AU,,,,Australia Post,Q1142936
347290_PO,australia_post_au,WHEELERS HILL LPO,,WHEELERS HILL,VIC,,AU,+61 131318,,,Australia Post,Q1142936
RED0008110,australia_post_au,,,WHEELERS HILL,VIC,,AU,,,,Australia Post,Q1142936
RED0008111,australia_post_au,,,WHEELERS HILL,VIC,,AU,,,,Australia Post,Q1142936
RED0008109,australia_post_au,,,WHEELERS HILL,VIC,,AU,,,,Australia Post,Q1142936
RED0008114,australia_post_au,,,WHEELERS HILL,VIC,,AU,,,,Australia Post,Q1142936
RED0008093,australia_post_au,,,WHEELERS HILL,VIC,,AU,,,,Australia Post,Q1142936
RED0008098,australia_post_au,,,WHEELERS HILL,VIC,,AU,,,,Australia Post,Q1142936
RED0008088,australia_post_au,,,WHEELERS HILL,VIC,,AU,,,,Australia Post,Q1142936
RED0008089,australia_post_au,,,GLEN WAVERLEY,VIC,,AU,,,,Australia Post,Q1142936
RED0008101,australia_post_au,,,GLEN WAVERLEY,VIC,,AU,,,,Australia Post,Q1142936
RED0008094,australia_post_au,,,GLEN WAVERLEY,VIC,,AU,,,,Australia Post,Q1142936
RED0008102,australia_post_au,,,GLEN WAVERLEY,VIC,,AU,,,,Australia Post,Q1142936
RED0008099,australia_post_au,,,GLEN WAVERLEY,VIC,,AU,,,,Australia Post,Q1142936
RED0017838,australia_post_au,,,GLEN WAVERLEY,VIC,,AU,,,,Australia Post,Q1142936
RED0008087,australia_post_au,,,GLEN WAVERLEY,VIC,,AU,,,,Australia Post,Q1142936
RED0008116,australia_post_au,,,GLEN WAVERLEY,VIC,,AU,,,,Australia Post,Q1142936
RED0008086,australia_post_au,,,GLEN WAVERLEY,VIC,,AU,,,,Australia Post,Q1142936
RED0008097,australia_post_au,,,GLEN WAVERLEY,VIC,,AU,,,,Australia Post,Q1142936
RED0008117,australia_post_au,,,GLEN WAVERLEY,VIC,,AU,,,,Australia Post,Q1142936
RED0008095,australia_post_au,,,GLEN WAVERLEY,VIC,,AU,,,,Australia Post,Q1142936
RED0008100,australia_post_au,,,GLEN WAVERLEY,VIC,,AU,,,,Australia Post,Q1142936
RED0008090,australia_post_au,,,GLEN WAVERLEY,VIC,,AU,,,,Australia Post,Q1142936
RED0008096,australia_post_au,,,GLEN WAVERLEY,VIC,,AU,,,,Australia Post,Q1142936
333729_PO,australia_post_au,THE GLEN POST SHOP,,GLEN WAVERLEY,VIC,,AU,+61 131318,,,Australia Post,Q1142936
RED0008085,australia_post_au,,,GLEN WAVERLEY,VIC,,AU,,,,Australia Post,Q1142936
RED0008091,australia_post_au,,,GLEN WAVERLEY,VIC,,AU,,,,Australia Post,Q1142936
RED0008106,australia_post_au,,,GLEN WAVERLEY,VIC,,AU,,,,Australia Post,Q1142936
RED0008092,australia_post_au,,,GLEN WAVERLEY,VIC,,AU,,,,Australia Post,Q1142936
RED0008082,australia_post_au,,,GLEN WAVERLEY,VIC,,AU,,,,Australia Post,Q1142936
RED0008084,australia_post_au,,,GLEN WAVERLEY,VIC,,AU,,,,Australia Post,Q1142936
RED0008118,australia_post_au,,,GLEN WAVERLEY,VIC,,AU,,,,Australia Post,Q1142936
RED0008104,australia_post_au,,,GLEN WAVERLEY,VIC,,AU,,,,Australia Post,Q1142936
345009_PO,australia_post_au,SYNDAL LPO,,GLEN WAVERLEY,VIC,,AU,+61 3 9802 8407,,,Australia Post,Q1142936
RED0008081,australia_post_au,,,GLEN WAVERLEY,VIC,,AU,,,,Australia Post,Q1142936
RED0008103,australia_post_au,,,GLEN WAVERLEY,VIC,,AU,,,,Australia Post,Q1142936
RED0008120,australia_post_au,,,GLEN WAVERLEY,VIC,,AU,,,,Australia Post,Q1142936
RED0008107,australia_post_au,,,GLEN WAVERLEY,VIC,,AU,,,,Australia Post,Q1142936
2643,bakers_delight,Bakers Delight Wheelers Hill,,Wheelers Hill,VIC,,AU,+61 3 8578 5553,https://www.bakersdelight.com.au/bakery-locator/wheelers-hill/,Mo-Th 06:00-19:00; Fr-Su 06:00-18:00,Bakers Delight,Q4849261
2633,bakers_delight,Bakers Delight The Glen,,Glen Waverley,VIC,,AU,+61 3 9886 8021,https://www.bakersdelight.com.au/bakery-locator/the-glen/,Mo-We 06:00-19:00; Th-Fr 06:00-20:30; Sa-Su 06:00-19:00,Bakers Delight,Q4849261
184,betts_au,BETTS THE GLEN,,Glen Waverley,VIC,,AU,+61 400 881 359,,Mo-We 09:00-17:30; Th-Fr 09:00-21:00; Sa 09:00-17:00; Su 10:00-17:00,Betts,Q118555401
38435_1,bmw_group,Waverley BMW,,Glen Waverley,VIC,,AU,+61 3 8581 9600,https://www.waverleybmw.com.au,,BMW,Q26678
21950297,bottlemart_au,BOTTLEMART GLEN WAVERLEY,,,VIC,,AU,+61 3 9561 4270,,,Bottlemart,Q102863175
https://www.bridgestone.com.au/stores/vic/bridgestone-select-glen-waverley,bridgestone_select,Bridgestone Select Glen Waverley,,Glen Waverley,VIC,,AU,+61 3 9560 5914,https://www.bridgestone.com.au/stores/vic/bridgestone-select-glen-waverley/,Mo-Fr 08:00-17:00; Sa 08:00-24:00,Bridgestone Select Tyre & Auto,Q122420123
250627,cellarbrations_au,CELLARBRATIONS AT WHEELERS HILL,,WHEELERS HILL,VIC,,AU,,,Mo-Th 10:30-20:00; Fr-Sa 10:30-20:30; Su 10:30-20:00,Cellarbrations,Q109807592
540,coles_au,Coles Brandon Park,,Mulgrave,VIC,,AU,+61 3 9560 5645,,,Coles Supermarkets,Q1108172
6976,coles_au,Coles Express Glen Waverley,,Glen Waverley,VIC,,AU,+61 3 9075 1486,,,Coles Express,Q5144653
6714,coles_au,Coles Express Brandon Park,,Glen Waverley,VIC,,AU,+61 3 8871 2650,,,Coles Express,Q5144653
318203,commonwealth_bank_au,Glen Waverley,,Glen Waverley,VIC,,AU,,,,Commonwealth Bank,Q285328
318202,commonwealth_bank_au,Glen Waverley,,Glen Waverley,VIC,,AU,,,,Commonwealth Bank,Q285328
318201,commonwealth_bank_au,Glen Waverley,,Glen Waverley,VIC,,AU,,,,Commonwealth Bank,Q285328
641,dusk_au,dusk The Glen,,Glen Waverley,VIC,,AU,,https://www.dusk.com.au/store-locator/dusk-the-glen/,,dusk,Q120669167
6171286,exxonmobil,7-Eleven Glen Waverley,,Glen Waverley,VIC,,AU,+61 3 9560 4200,https://www.mobil.com.au/en-au/find-station/mobil-glenwaverley-vic-glenwaverley-6171286,24/7,Mobil,Q109676002
6171008,exxonmobil,7-Eleven Glen Waverley,,Glen Waverley,VIC,,AU,+61 3 9803 7710,https://www.mobil.com.au/en-au/find-station/mobil-glenwaverley-vic-glenwaverley-6171008,24/7,Mobil,Q109676002
/clubs/glen-waverley/,fitness_first_au,Glen Waverley,,Glen Waverley,Vic,,AU,+61 3 8847 4800,https://www.fitnessfirst.com.au/clubs/glen-waverley/,24/7,Fitness First,Q127120
3942591,forcast_au,Forcast Glen Waverley,,Glen Waverley,VIC,,AU,+61 3 8804 0188,,Mo-We 10:00-17:30; Th-Fr 10:00-21:00; Sa-Su 10:00-17:00,Forcast,Q118384540
1161,gloria_jeans_coffees_au,Gloria Jean’s Coffees Kingsway,95 Kingsway,Glen Waverley,VIC,,AU,+61 3 8522 2171,,,Gloria Jean's Coffees,Q2666365
418,gloria_jeans_coffees_au,Gloria Jean’s Coffees Brandon Park Kiosk,"Kiosk 9, Brandon Park Shopping Centre",Wheelers Hill,VIC,,AU,+61 3 9561 7995,,,Gloria Jean's Coffees,Q2666365
183,grilld_au,Grill'd Glen Waverley,,GLEN WAVERLEY,VIC,,AU,+61 3 9561 6904,,Mo-Th 10:30-22:00; Fr-Sa 10:30-22:30; Su 10:30-22:00,Grill'd,Q18165852
174,jbhifi,The Glen,,Glen Waverley,VIC,,AU,+61 3 9894 9100,,Mo-We 09:00-17:30; Th-Fr 09:00-21:00; Sa 09:00-17:00; Su 10:00-17:00,JB Hi-Fi,Q3310113
1170,just_cuts,The Glen,,Glen Waverley,VIC,,AU,+61 3 9886 1920,https://www.justcuts.com.au/Australian-Salons/The-Glen?sid=1170,Mo-We 09:00-17:30; Th-Fr 09:00-21:00; Sa 09:00-17:00; Su 10:00-17:00,Just Cuts,Q116784479
44652,just_group,Peter Alexander The Glen,"Shop G-081 The Glen S/C, 235 Springvale Road, The Glen, Glen Waverley, VIC, 3150, Australia",Glen Waverley,VIC,,AU,+61 3 8845 7779,https://justjeans.jgl.com.au/shop/stores/peteralexander-the-glen,,Peter Alexander,Q118383240
45101,just_group,Just Jeans The Glen,"Shop G-131 The Glen S/C, 235 Springvale Road, The Glen, Glen Waverley, VIC, 3150, Australia",Glen Waverley,VIC,,AU,+61 3 8526 9208,https://justjeans.jgl.com.au/shop/stores/justjeans-the-glen,,Just Jeans,Q6316068
45151,just_group,Portmans The Glen,"Shop G-075 The Glen S/C, 235 Springvale Road, The Glen, Glen Waverley, VIC, 3150, Australia",Glen Waverley,VIC,,AU,+61 3 8845 7771,https://justjeans.jgl.com.au/shop/stores/portmans-the-glen,,Portmans,Q118383252
45253,just_group,Smiggle The Glen,"Shop 099 The Glen S/Ctre, 235 Springvale Road, The Glen, Glen Waverley, VIC, 3150, Australia",Glen Waverley,VIC,,AU,+61 3 8526 9266,https://justjeans.jgl.com.au/shop/stores/smiggle-the-glen,,Smiggle,Q7544536
44,kidstuff_au,The Glen,,Glen Waverley,VIC,,AU,+61 3 9192 8458,,Mo-We 10:00-17:00; Th-Fr 09:00-21:00; Sa 09:00-17:00; Su 10:00-17:00,Kidstuff,Q117746407
11351,lovisa,Lovisa,,Glen Waverley,VIC,,AU,+61 3 7035 5745,,,Lovisa,Q106298409
9500015,mcdonalds_qstore,GLEN WAVERLEY VIC,,Glen Waverley,VIC,,AU,+61 3 9803 3010,,24/7,McDonald's,Q38076
W329,officeworks_au,Glen Waverley Officeworks,,Glen Waverley,VIC,,AU,+61 3 8541 7200,https://www.officeworks.com.au/shop/officeworks/storepage/W329/VIC/Glen Waverley,Mo-Fr 07:00-21:00; Sa 08:00-18:00; Su 09:00-18:00,Officeworks,Q7079486
1008,seven_eleven_au,Glen Waverley,,Glen Waverley,VIC,,AU,+61 3 9803 7710,,24/7,7-Eleven,Q259340
1286,seven_eleven_au,Glen Waverley,,Glen Waverley,VIC,,AU,+61 3 9560 4200,,24/7,7-Eleven,Q259340
The-Glen,shaver_shop,The Glen,,Glen Waverley,VIC,,AU,+61 3 9886 4333,https://www.shavershop.com.au/stores/VIC/The-Glen,Mo-We 09:00-17:30; Th-Fr 09:00-19:00; Sa 09:00-17:00; Su 10:00-17:00,Shaver Shop,Q119443589
10111537,shell,SHELL GLEN WAVERLEY,,GLEN WAVERLEY,VIC,,AU,+61 3 9802 3348,https://find.shell.com/au/fuel/10111537-shell-glen-waverley,,Shell,Q110716465
10110763,shell,SHELL BRANDON PARK,,GLEN WAVERLEY,VIC,,AU,+61 3 8871 2650,https://find.shell.com/au/fuel/10110763-shell-brandon-park,24/7,Shell,Q110716465
10110830,shell,SHELL COLES EXPRESS GLEN WAVERLEY,,GLEN WAVERLEY,VIC,,AU,+61 3 9075 1486,https://find.shell.com/au/fuel/10110830-shell-coles-express-glen-waverley,,Shell,Q110716465
3281,specsavers,Wheelers Hill - Brandon Park,,Wheelers Hill,VIC,,AU,+61 3 9562 5311,https://www.specsavers.com.au/stores/wheelershill,,Specsavers,Q2000610
7281,specsavers,Wheelers Hill - Brandon Park,,Wheelers Hill,VIC,,AU,+61 3 9562 5311,https://www.specsavers.com.au/stores/wheelershill,,Specsavers,Q2000610
3259,specsavers,The Glen,,Glen Waverley,VIC,,AU,+61 3 9803 2977,https://www.specsavers.com.au/stores/theglen,,Specsavers,Q2000610
7259,specsavers,The Glen,,Glen Waverley,VIC,,AU,,https://www.specsavers.com.au/stores/theglen,,Specsavers,Q2000610
13103,sportscraft,David Jones The Glen,,The Glen,VIC,,AU,+61 3 9518 2999,https://www.sportscraft.com.au/store-locator/store-details?id=13103,,Sportscraft,Q7579966
13102,sportscraft,David Jones The Glen,,The Glen,VIC,,AU,+61 3 9518 2999,https://www.sportscraft.com.au/store-locator/store-details?id=13102,,Sportscraft,Q7579966
https://stores.sunglasshut.com/au/vic/glen-waverly/shop-g-095-ground-floor-the-glen-shopping-centre,sunglass_hut_1,Sunglass Hut Glen Waverly,,Glen Waverly,VIC,,AU,+61 3 8354 6274,https://stores.sunglasshut.com/au/vic/glen-waverly/shop-g-095-ground-floor-the-glen-shopping-centre,Mo-We 09:00-17:30; Th-Fr 09:00-21:00; Sa 09:00-17:00; Su 10:00-17:00,Sunglass Hut,Q136311
https://stores.superdry.com/#24979597,superdry,Superdry  The Glen,,Glen Waverley,VIC,,AU,+61 3 8820 6071,https://stores.superdry.com/au/glen-waverley/shop-g091-the-glen-shopping-centre-235-springvale-rd-glen-waverley,Mo-We 09:00-17:30; Th 09:00-18:00; Fr 09:00-21:00; Sa-Su 09:00-17:00,Superdry,Q1684445
3310,sussan_au,Brandon Park,,Wheelers Hill,VIC,,AU,+61 3 9562 0858,/store-locator/vic/brandon-park-3310,Mo-We 09:00-17:30; Th-Fr 09:00-20:00; Sa 09:00-17:00; Su 12:00-15:00,Sussan,Q28184460
3370,suzanne_grae_au,The Glen,,Glen Waverley,VIC,,AU,+61 3 9802 4254,/store-locator/vic/the-glen-3370,Mo-We 09:00-17:30; Th-Fr 09:00-21:00; Sa 09:00-17:00; Su 11:00-17:00,Suzanne Grae,Q117747672
3371,suzanne_grae_au,Brandon Park,,Wheelers Hill,VIC,,AU,+61 3 9590 0578,/store-locator/vic/brandon-park-3371,Mo-We 09:00-17:30; Th-Fr 09:00-19:00; Sa 09:00-17:00; Su 12:00-15:00,Suzanne Grae,Q117747672
K6XR,telstra_au,The Glen,,Glen Waverley,VIC,,AU,+61 1800 728 207,,Mo-We 09:00-17:30; Th-Fr 09:00-21:00; Sa 09:00-17:00; Su 10:00-17:00,Telstra,Q721162
1446,terry_white_chemmart_au,TerryWhite Chemmart The Glen,,Glen Waverley,VIC,,AU,+61 3 9802 3755,https://terrywhitechemmart.com.au/stores/terrywhite-chemmart-the-glen,Mo-We 09:00-18:00; Th-Fr 09:00-21:00; Sa 09:00-17:00; Su 10:00-17:00,Terry White Chemmart,Q24089773
TCCAUS0382,the_coffee_club_au,TCC - The Glen,"Shop G012, The Glen, 235 Springvale Road, Glen Waverley, VIC, Australia, 3150",Glen Waverley,VIC,,AU,+61 3 8877 2001,https://coffeeclub.com.au/pages/store-details?country=Australia&name=the-glen,Mo-We 08:00-17:00; Th-Fr 08:00-19:00; Sa-Su 08:00-17:00,The Coffee Club,Q7726599
cfb240f5-96fe-448f-8546-b2b5f585ffd1,travelex,Glen Waverley,"Shop K030, 235 Springvale Rd, Glen Waverley, 3150",Glen Waverly,VIC,,AU,+61 3 9803 2702,glen-waverley/0314,,Travelex,Q2337964
329,ultra_tune_au,Ultra Tune Brandon Park,,GLEN WAVERLEY,VIC,,AU,+61 3 9562 1022,https://www.ultratune.com.au/store/ultra-tune-brandon-park,Mo-Fr 08:00-17:30; Sa 08:00-12:00,Ultra Tune,Q29025649
332,ultra_tune_au,Ultra Tune Glen Waverley,,GLEN WAVERLEY,VIC,,AU,+61 3 9561 5044,https://www.ultratune.com.au/store/ultra-tune-glen-waverley,Mo-Fr 08:00-17:30; Sa 08:00-12:00,Ultra Tune,Q29025649
,visa,,,GLEN WAVERLEY,VIC,,AU,,,,,
,visa,,,BRANDON PARK,VIC,,AU,,,,,
,visa,,,GLEN WAVERLEY,VIC,,AU,,,,,
,visa,,,GLEN WAVERLEY,VIC,,AU,,,,,
,visa,,,GLEN WAVERLEY,VIC,,AU,,,,,
,visa,,,GLEN WAVERLEY,VIC,,AU,,,,,
,visa,,,WHEELERS HILL,VIC,,AU,,,,,
,visa,,,WHEELERS HILL,VIC,,AU,,,,,
,visa,,,WHEELERS HILL,VIC,,AU,,,,,
,visa,,,GLEN WAVERLEY,VIC,,AU,,,,,
,visa,,,GLEN WAVERLEY,VIC,,AU,,,,,
,visa,,,GLEN WAVERLEY,VIC,,AU,,,,,
,visa,,,GLEN WAVERLEY,VIC,,AU,,,,,
,visa,,,GLEN WAVERLEY,VIC,,AU,,,,,
,visa,,,GLEN WAVERLEY,VIC,,AU,,,,,
,visa,,,GLEN WAVERLEY,VIC,,AU,,,,,
,visa,,,GLEN WAVERLEY,VIC,,AU,,,,,
,visa,,,GLEN WAVERLEY,VIC,,AU,,,,,
,visa,,,GLEN WAVERLEY,VIC,,AU,,,,,
6a4335217e0889615016ca83e088b7fe,western_union,AUSTRALIA POST,,Wheelers Hill,VIC,,AU,+61 1800 501 500,https://location.westernunion.com/au/vic/wheelers-hill/6a4335217e0889615016ca83e088b7fe,Mo-Fr 09:00-17:00; Sa 10:00-13:00,Western Union,Q861042
922322ab1d49cfadc525a215435aef0c,western_union,AUSTRALIA POST,,Wheelers Hill,VIC,,AU,+61 1800 501 500,https://location.westernunion.com/au/vic/wheelers-hill/922322ab1d49cfadc525a215435aef0c,Mo-Fr 09:00-17:00; Sa 09:00-12:00,Western Union,Q861042
c637eee5e6759baa70e4bf768a9eb411,western_union,LUCKY JAYDEN PTY LTD,,Glen Waverly,VIC,,AU,+61 1800 501 500,https://location.westernunion.com/au/vic/glen-waverly/c637eee5e6759baa70e4bf768a9eb411,Mo-Sa 08:00-18:00,Western Union,Q861042
b1637872cdacb13016a4362b788cfb24,western_union,AUSTRALIA POST,,Glen Waverley,VIC,,AU,+61 1800 501 500,https://location.westernunion.com/au/vic/glen-waverley/b1637872cdacb13016a4362b788cfb24,Mo-Fr 09:00-17:00; Sa 09:00-16:00; Su 10:00-16:00,Western Union,Q861042
88c2a03f84380b9f3bdd40b19be0c19d,western_union,AUSTRALIA POST,,Glen Waverley,VIC,,AU,+61 1800 501 500,https://location.westernunion.com/au/vic/glen-waverley/88c2a03f84380b9f3bdd40b19be0c19d,Mo-Fr 09:00-17:00; Sa 09:00-12:00,Western Union,Q861042
d86ae0dd7791d1b9b4d832e138717f5e,western_union,AUSTRALIA POST,,Glen Waverley,VIC,,AU,+61 1800 501 500,https://location.westernunion.com/au/vic/glen-waverley/d86ae0dd7791d1b9b4d832e138717f5e,Mo-Fr 09:00-17:00; Sa 09:00-13:00,Western Union,Q861042
