Ref,Spider,Name,Address,City,State,Zipcode,Country,Phone,Website,Hours,Brand,WikiData
0003027682,g_star_raw,G-Star RAW Rustenburg Mall,,RUSTENBURG,,,ZA,+27 14 523 8922,https://www.g-star.com/en_us/stores/za/g-star-raw-rustenburg-mall,Mo-Su 09:00-09:00,G-Star Raw,Q1484081
70201305,moneygram,FNB BIBLIO PLAZA AGENCY - #00693101 - AT,,NORTH WEST,,,ZA,+27 87 575 9404,,24/7,MoneyGram,Q1944412
70201664,moneygram,FNB ATM-ZA SELF SERVICE GAUTENG SOUTH -,,NORTH WEST,,,ZA,+27 87 575 9404,,24/7,MoneyGram,Q1944412
70204140,moneygram,FNB ATM-ZA SELF SERVICE GAUTENG SOUTH -,,NORTH WEST,,,ZA,+27 87 575 9404,,24/7,MoneyGram,Q1944412
70209608,moneygram,FNB ATM-ZA SELF SERVICE GAUTENG SOUTH -,,NORTH WEST,,,ZA,+27 87 575 9404,,24/7,MoneyGram,Q1944412
70209653,moneygram,FNB ATM-ZA SELF SERVICE GAUTENG SOUTH -,,NORTH WEST,,,ZA,+27 87 575 9404,,24/7,MoneyGram,Q1944412
70209666,moneygram,FNB ATM-ZA SELF SERVICE GAUTENG SOUTH -,,NORTH WEST,,,ZA,+27 87 575 9404,,24/7,MoneyGram,Q1944412
70209679,moneygram,FNB ATM-ZA SELF SERVICE GAUTENG SOUTH -,,GAUTENG,,,ZA,+27 87 575 9404,,24/7,MoneyGram,Q1944412
70223914,moneygram,FNB ATM-ZA SELF SERVICE GAUTENG SOUTH -,,NORTH WEST,,,ZA,+27 87 575 9404,,24/7,MoneyGram,Q1944412
70227130,moneygram,FNB ATM-ZA SELF SERVICE GAUTENG SOUTH -,,LIMPOPO,,,ZA,+27 87 575 9404,,24/7,MoneyGram,Q1944412
70227143,moneygram,FNB ATM-ZA SELF SERVICE GAUTENG SOUTH -,,NORTH WEST,,,ZA,+27 87 575 9404,,24/7,MoneyGram,Q1944412
70229374,moneygram,FNB ATM-ZA SELF SERVICE GAUTENG SOUTH -,,NORTH WEST,,,ZA,+27 87 575 9404,,24/7,MoneyGram,Q1944412
70232099,moneygram,FNB ATM-ZA SELF SERVICE GAUTENG SOUTH -,,NORTH WEST,,,ZA,+27 87 575 9404,,24/7,MoneyGram,Q1944412
70232497,moneygram,FNB ATM-ZA SELF SERVICE GAUTENG SOUTH -,,NORTH WEST,,,ZA,+27 87 575 9404,,24/7,MoneyGram,Q1944412
70237706,moneygram,FNB ATM-ZA SELF SERVICE GAUTENG SOUTH -,,NORTH WEST,,,ZA,+27 87 575 9404,,24/7,MoneyGram,Q1944412
70237719,moneygram,FNB ATM-ZA SELF SERVICE GAUTENG SOUTH -,,NORTH WEST,,,ZA,+27 87 575 9404,,24/7,MoneyGram,Q1944412
70238433,moneygram,FNB ATM-ZA SELF SERVICE GAUTENG SOUTH -,,NORTH WEST,,,ZA,+27 87 575 9404,,24/7,MoneyGram,Q1944412
70240133,moneygram,FNB ATM-ZA SELF SERVICE GAUTENG SOUTH -,,NORTH WEST,,,ZA,+27 87 575 9404,,24/7,MoneyGram,Q1944412
70227156,moneygram,FNB ATM-ZA SELF SERVICE GAUTENG SOUTH -,,NORTH WEST,,,ZA,+27 87 575 9404,,24/7,MoneyGram,Q1944412
70227127,moneygram,FNB ATM-ZA SELF SERVICE GAUTENG SOUTH -,,NORTH WEST,,,ZA,+27 87 575 9404,,24/7,MoneyGram,Q1944412
70229413,moneygram,FNB ATM-ZA SELF SERVICE GAUTENG SOUTH -,,NORTH WEST,,,ZA,+27 87 575 9404,,24/7,MoneyGram,Q1944412
70209598,moneygram,FNB ATM-ZA SELF SERVICE GAUTENG SOUTH -,,NORTH WEST,,,ZA,+27 87 575 9404,,24/7,MoneyGram,Q1944412
70324211,moneygram,FNB - #00010001 - RUSTENBURG SQUARE ATM,,RUSTENBURG,,,ZA,+27 87 575 9404,,24/7,MoneyGram,Q1944412
70326578,moneygram,FNB - #00994105 - WATERFALL MALL ATM,,RUSTENBURG,,,ZA,+27 87 575 9404,,24/7,MoneyGram,Q1944412
70326581,moneygram,FNB - #00360101 - RUSTENBURG ATM,,RUSTENBURG,,,ZA,+27 87 575 9404,,24/7,MoneyGram,Q1944412
65748815,moneygram,STANDARD BANK - BARONGWA BRANCH,,RUSTENBURG,,,ZA,+27 14 591 6028,,Mo-Su 04:00-21:00,MoneyGram,Q1944412
67105799,moneygram,STANDARD BANK - SOUTH AFRICA LIMITED,,RUSTENBURG,,,ZA,+27 14 591 6032,,Mo-Su 04:00-21:00,MoneyGram,Q1944412
ZA111S0184,totalenergies,TOTAL RUSTENBURG,,Rustenburg,,,ZA,+27 14 592 7665,https://store.totalenergies.fr/en_EN/ZA111S0184,,TotalEnergies,Q154037
ZA111S0475,totalenergies,PILANESBERG MOTORS,,Rustenburg,,,ZA,,https://store.totalenergies.fr/en_EN/ZA111S0475,,TotalEnergies,Q154037
ZA111S0790,totalenergies,TOTAL STRUMOSA,,Rustenburg,,,ZA,0270145927167,https://store.totalenergies.fr/en_EN/ZA111S0790,,TotalEnergies,Q154037
,visa,,,RUSTENBURG,,,ZA,,,,,
