Ref,Spider,Name,Address,City,State,Zipcode,Country,Phone,Website,Hours,Brand,WikiData
55185146,deichmann,DEICHMANN Filiale Willich Brauereistraße 4,,Willich,Nordrhein-Westfalen,,DE,+49 2154 911670,https://stores.deichmann.com/de-de/de/nordrhein-westfalen/willich/brauereistrasse-4,Mo-Fr 09:00-19:00; Sa 09:00-18:00,Deichmann,Q664543
8002075,edeka_de,EDEKA Zielke,,Willich,Nordrhein-Westfalen,,DE,+49 2154 950961,https://www.edeka.de/eh/rhein-ruhr/edeka-zielke-bahnstraße-93/index.jsp,Mo-Sa 07:00-21:00,EDEKA,Q701755
4727140,edeka_de,EDEKA Keil,,Willich - Schiefbahn,Nordrhein-Westfalen,,DE,+49 2154 8133812,https://www.edeka.de/eh/rhein-ruhr/edeka-keil-linsellsstraße-30/index.jsp,Mo-Sa 07:00-21:00,EDEKA,Q701755
10003407,edeka_de,EDEKA Willich-Neersen,,Willich,Nordrhein-Westfalen,,DE,+49 2156 4921875,https://www.edeka.de/eh/rhein-ruhr/edeka-willich-neersen-rothweg-3b/index-2.jsp,Mo-Sa 07:00-21:00,EDEKA,Q701755
D355,jacques_wein_depot_de,Willich,,Willich,Nordrhein-Westfalen,,DE,+49 2154 8147777,https://www.jacques.de/weindepot/D355/Willich,Mo 00:00-00:00; Tu-Th 15:00-19:00; Fr 12:00-19:00; Sa 10:00-15:00,Jacques’ Wein-Depot,Q1678150
GS0000086,mercedes_benz,Xaver Schmid GmbH,,Willich,Nordrhein-Westfalen,,DE,+49 2154 94550,https://www.mercedes-benz-sternpark.de,,Mercedes-Benz,Q36008
6733,netto_de,Netto Marken-Discount,,Willich,Nordrhein-Westfalen,,DE,,https://www.netto-online.de/filialen/willich/linsellesstr-136/6733,Mo-Sa 07:00-22:00,Netto Marken-Discount,Q879858
6749,netto_de,Netto Marken-Discount,,Willich,Nordrhein-Westfalen,,DE,,https://www.netto-online.de/filialen/willich/krefelder-str-169/6749,Mo-Sa 07:00-22:00,Netto Marken-Discount,Q879858
9043,netto_de,Netto Marken-Discount,,Willich,Nordrhein-Westfalen,,DE,,https://www.netto-online.de/filialen/willich/de-mülder-gasse-1/9043,Mo-Sa 07:00-22:00,Netto Marken-Discount,Q879858
9044,netto_de,Netto Marken-Discount,,Willich,Nordrhein-Westfalen,,DE,,https://www.netto-online.de/filialen/willich/hülsdonkstr-143/9044,Mo-Sa 07:00-21:30,Netto Marken-Discount,Q879858
10027962,shell,"WILLICH, A52 CLOERBRUCH NORD",,WILLICH,Nordrhein-Westfalen,,DE,+49 2154 80029,https://find.shell.com/de/fuel/10027962-willich-a52-cloerbruch-nord,24/7,Shell,Q110716465
10024897,shell,"WILLICH, WILLICHER STR",,WILLICH,Nordrhein-Westfalen,,DE,+49 2154 5516,https://find.shell.com/de/fuel/10024897-willich-willicher-str,,Shell,Q110716465
10024898,shell,"WILLICH, HAUPTSTR",,WILLICH,Nordrhein-Westfalen,,DE,+49 2156 5273,https://find.shell.com/de/fuel/10024898-willich-hauptstr,,Shell,Q110716465
10026787,shell,"WILLICH, SIEMENSRING 2-6.",,WILLICH,Nordrhein-Westfalen,,DE,+49 2154 92890,https://find.shell.com/de/fuel/10026787-willich-siemensring-2-6,,Shell,Q110716465
,visa,,,WILLICH,NORDRHEIN-WESTFALEN,,DE,,,,,
,visa,,,WILLICH,NORDRHEIN-WESTFALEN,,DE,,,,,
,visa,,,WILLICH,NORDRHEIN-WESTFALEN,,DE,,,,,
,visa,,,WILLICH,NORDRHEIN-WESTFALEN,,DE,,,,,
,visa,,,WILLICH,NORDRHEIN-WESTFALEN,,DE,,,,,
,visa,,,WILLICH,NORDRHEIN-WESTFALEN,,DE,,,,,
,visa,,,WILLICH,NORDRHEIN-WESTFALEN,,DE,,,,,
,visa,,,WILLICH,NORDRHEIN-WESTFALEN,,DE,,,,,
