Ref,Spider,Name,Address,City,State,Zipcode,Country,Phone,Website,Hours,Brand,WikiData
https://stores.advanceautoparts.com/ga/flowery-branch/4022-winder-hwy,advance_auto_parts_us,Advance Auto Parts,,Flowery Branch,GA,,US,+1 770-965-1605,https://stores.advanceautoparts.com/ga/flowery-branch/4022-winder-hwy,Mo-Sa 07:30-21:00; Su 08:30-20:30,Advance Auto Parts,Q4686051
https://stores.advanceautoparts.com/ga/flowery-branch/7341-spout-springs-rd,advance_auto_parts_us,Advance Auto Parts,,Flowery Branch,GA,,US,+1 770-965-7246,https://stores.advanceautoparts.com/ga/flowery-branch/7341-spout-springs-rd,Mo-Sa 07:30-21:00; Su 08:30-20:30,Advance Auto Parts,Q4686051
2061,anytime_fitness,Anytime Fitness,,Flowery Branch,GA,,US,+1 678-450-1120,https://www.anytimefitness.com/gyms/2061/flowery-branch-ga-30542/,,Anytime Fitness,Q4778364
19492,asics_us,Runners Fit,7419 Spout Springs Rd #103,Flowery Branch,GA,,US,+1 770-967-9755,,Mo-Fr 10:00-19:00; Sa 10:00-17:00,asics,Q327247
15860,asics_us,Hibbett Sports,5887 Spout Springs Road,Flowery Branch,GA,,US,+1 770-965-0562,,,asics,Q327247
3452,autozone_us,AutoZone Auto Parts Flowery Branch,,Flowery Branch,GA,,US,+1 770-965-4218,https://www.autozone.com/locations/ga/flowery-branch/7390-spout-springs-rd.html,Mo-Sa 07:30-21:00; Su 08:30-20:00,AutoZone,Q4826087
https://www.banfield.com/locations/veterinarians/ga/flowery-branch/fbr,banfield_pet_hospital,Flowery Branch,,Flowery Branch,GA,,US,+1 770-965-9365,https://www.banfield.com/locations/veterinarians/ga/flowery-branch/fbr,Mo-Sa 08:00-18:00; Su 10:00-17:00,Banfield Pet Hospital,Q2882416
https://locations.baskinrobbins.com/ga/flowery-branch/5915-spout-springs-rd-362647-br,baskin_robbins_us,Baskin-Robbinsâ„¢,,Flowery Branch,GA,,US,+1 678-828-7504,https://locations.baskinrobbins.com/ga/flowery-branch/5915-spout-springs-rd-362647-br,Mo-Su 05:00-21:00,Baskin-Robbins,Q584601
BBW02662,bathandbodyworks_us,STONEBRIDGE VILLAGE,,FLOWERY BRANCH,GA,,US,+1 678-866-4314,,Mo-Sa 10:00-21:00; Su 12:00-18:00,Bath & Body Works,Q810773
154719,bluerhino,Walgreens #12811,,FLOWERY BRANCH,GA,,US,+1 770-965-2371,,,Blue Rhino,Q65681213
186136,bluerhino,Kroger #416 - Atlanta- Fuel Site,,Flowery Branch,GA,,US,+1 770-965-5637,,,Blue Rhino,Q65681213
71378,bluerhino,Kroger #416 - Atlanta,,Flowery Branch,GA,,US,+1 770-965-5640,,,Blue Rhino,Q65681213
186137,bluerhino,Kroger #632 - Atlanta- Fuel Site,,Flowery Branch,GA,,US,+1 770-539-5020,,,Blue Rhino,Q65681213
107624,bluerhino,Kroger #632 - Atlanta,,Flowery Branch,GA,,US,+1 770-539-5020,,,Blue Rhino,Q65681213
ga/flowery-branch/2121-friendship-road,bojangles,"Bojangles Flowery Branch, GA",,Flowery Branch,GA,,US,+1 770-965-6486,https://locations.bojangles.com/ga/flowery-branch/2121-friendship-road.html,,Bojangles',Q891163
77224189585043054200100000000000,bp,BP,,Flowery Branch,GA,,US,+1 770-967-4133,,Mo-Fr 05:30-23:00; Sa 06:00-23:00; Su 07:00-22:00,BP,Q152057
24540465073423054200100000063086,bp,BP,,Flowery Branch,GA,,US,+1 702-688-8396,,24/7,BP,Q152057
26879,burgerking,Burger King,,Flowery Branch,GA,,US,+1 678-972-2196,https://www.bk.com/store-locator/store/restaurant_88756,Mo-Sa 07:00-22:00; Su 07:00-23:00,Burger King,Q177054
2042159,chase_us,Friendship and Spout Springs - New branch,,Flowery Branch,GA,,US,+1 770-965-9479,https://locator.chase.com/ga/flowery-branch/7354-spout-springs-rd,Mo-Fr 09:00-17:00; Sa 09:00-14:00,Chase,Q524629
378589,chevron,Texaco Station #378589,5415 ATLANTA HIGHWAY,FLOWERY BRANCH,GA,,US,+1 404-799-9400,,,Chevron,Q319642
001.005.1444,chilis,Flowery Branch,,Flowery Branch,GA,,US,+1 770-965-3505,https://www.chilis.com/locations/us/georgia/flowery-branch/flowery-branch/,Mo-Th 11:00-23:00; Fr-Sa 11:00-24:00; Su 11:00-23:00,Chili's,Q1072948
61590,citi,ATM Kroger,,Flowery Branch,GA,,US,,,,Citibank,Q857063
52664,citi,ATM CVS,,Flowery Branch,GA,,US,,,,Citibank,Q857063
82823,citi,ATM Target,,Flowery Branch,GA,,US,,,,Citibank,Q857063
92017,citi,ATM Walgreens,,Flowery Branch,GA,,US,,,,Citibank,Q857063
50878,citi,ATM CVS,,Flowery Branch,GA,,US,,,,Citibank,Q857063
61375,citi,ATM Kroger,,Flowery Branch,GA,,US,,,,Citibank,Q857063
90343,citi,ATM Walgreens,,Oakwood,GA,,US,,,,Citibank,Q857063
5995,cvs_us,CVS Pharmacy,,Flowery Branch,GA,,US,+1 770-965-1037,https://www.cvs.com/store-locator/flowery-branch-ga-pharmacies/7395-spout-springs-rd-flowery-branch-ga-30542/storeid=5995,Mo-Su 08:00-22:00,CVS Pharmacy,Q2078880
792,cvs_us,CVS Pharmacy,,Flowery Branch,GA,,US,+1 770-965-1979,https://www.cvs.com/store-locator/flowery-branch-ga-pharmacies/4050-winder-hwy-flowery-branch-ga-30542/storeid=792,Mo-Th 09:00-21:00; Fr-Sa 09:00-22:00; Su 10:00-19:00,CVS Pharmacy,Q2078880
17450,cvs_us,CVS Pharmacy,,Flowery Branch,GA,,US,+1 770-967-1210,https://www.cvs.com/store-locator/flowery-branch-ga-pharmacies/5865-spout-springs-rd-flowery-branch-ga-30542/storeid=17450,"Mo-Fr 09:00-13:30,14:00-19:00; Sa 09:00-13:30,14:00-17:00; Su 11:00-13:30,14:00-17:00",CVS Pharmacy,Q2078880
1055,dickeys_barbecue_pit_us,Flowery Branch - Winder Hwy,,Flowery Branch,GA,,US,+1 678-865-4928,https://www.dickeys.com/locations/georgia/flowery%20branch/flowery-branch,Mo-Su 11:00-21:00,Dickey's Barbecue Pit,Q19880747
6361,dollartree,DollarTree,,Flowery Branch,GA,,US,+1 470-778-5158,,Mo-Sa 09:00-21:00; Su 10:00-20:00,Dollar Tree,Q5289230
3572,dominos_pizza_us,Domino's Pizza,,Flowery Branch,GA,,US,+1 770-965-0061,https://pizza.dominos.com/georgia/flowery-branch/4841-hog-mountain-road,Mo-Th 10:30-24:00; Fr-Sa 10:30-01:00; Su 10:30-24:00,Domino's,Q839466
363606,dunkin_us,Dunkin',,Flowery Branch,GA,,US,+1 678-828-9986,https://locations.dunkindonuts.com/en/ga/flowery-branch/4001-winder-hwy/363606,Mo-Su 05:00-21:00,Dunkin',Q847743
362647,dunkin_us,Dunkin',,Flowery Branch,GA,,US,+1 678-828-7504,https://locations.dunkindonuts.com/en/ga/flowery-branch/5915-spout-springs-rd/362647,Mo-Su 05:00-21:00,Dunkin',Q847743
https://www.edwardjones.com/us-en/financial-advisor/michael-lancaster,edwardjones,Michael K Lancaster,,Flowery Branch,GA,,US,+1 770-967-3947,https://www.edwardjones.com/us-en/financial-advisor/michael-lancaster,Mo-Fr 09:00-17:00,Edward Jones,Q5343830
6360,extra_space_storage,Flowery Branch Self Storage at 3719 Winder Hwy,,Flowery Branch,GA,,US,+1 470-252-5200,https://www.extraspace.com/storage/facilities/us/georgia/flowery_branch/6360/,Mo-Fr 09:30-18:00; Sa 09:00-17:30,Extra Space Storage,Q5422162
200310774,exxonmobil,CHESTNUT MOUNTAIN,,FLOWERY BRANCH,GA,,US,+1 770-965-8814,https://www.exxon.com/en/find-station/exxon-flowerybranch-ga-chestnutmountain-200310774,Mo-Fr 05:00-23:00; Sa 06:00-23:00; Su 05:00-23:00,Exxon,Q109675651
https://local.fedex.com/#25229188,fedex,,,Flowery Branch,GA,,US,+1 800-463-3339,https://local.fedex.com/en-us/ga/flowery-branch/tocbh,,FedEx,Q459477
https://local.fedex.com/#25197224,fedex,,,Flowery Branch,GA,,US,+1 800-463-3339,https://local.fedex.com/en-us/ga/flowery-branch/rbzfu,,FedEx,Q459477
https://local.fedex.com/#25458356,fedex,,,Flowery Branch,GA,,US,+1 800-463-3339,https://local.fedex.com/en-us/ga/flowery-branch/81562,,FedEx,Q459477
https://local.fedex.com/#25145643,fedex,FedEx Authorized ShipCenter,,Flowery Branch,GA,,US,+1 678-828-9902,https://local.fedex.com/en-us/ga/flowery-branch/00t7q,,FedEx,Q459477
906979,firestone_auto_care,Firestone Complete Auto Care,,Flowery Branch,GA,,US,+1 678-235-9640,https://local.firestonecompleteautocare.com/georgia/flowery-branch/3466-winder-highway/,,Firestone,Q420837
6316,gamestop_us,Stonebridge Village,,Flowery Branch,GA,,US,+1 770-965-1155,https://www.gamestop.com/search/?store=6316,Mo-Th 12:00-19:00; Fr-Sa 12:00-21:00; Su 12:00-19:00,GameStop,Q202210
https://salons.greatclips.com/us/ga/flowery-branch/7380-spout-springs-rd,greatclips,Great Clips,,Flowery Branch,GA,,US,+1 770-965-6966,https://salons.greatclips.com/us/ga/flowery-branch/7380-spout-springs-rd,Mo-Fr 08:00-19:00; Sa 09:00-18:00; Su 10:00-17:00,Great Clips,Q5598967
https://salons.greatclips.com/us/ga/flowery-branch/5900-spout-springs-rd,greatclips,Great Clips,,Flowery Branch,GA,,US,+1 770-967-1496,https://salons.greatclips.com/us/ga/flowery-branch/5900-spout-springs-rd,Mo-Fr 08:00-19:00; Sa 09:00-18:00; Su 10:00-17:00,Great Clips,Q5598967
https://salons.greatclips.com/us/ga/flowery-branch/4009-winder-hwy,greatclips,Great Clips,,Flowery Branch,GA,,US,+1 770-534-7059,https://salons.greatclips.com/us/ga/flowery-branch/4009-winder-hwy,Mo-Fr 09:00-19:00; Sa 09:00-18:00; Su 10:00-17:00,Great Clips,Q5598967
gvlfbhx-hampton-suites-flowery-branch-lake-lanier,hilton,Hampton Inn & Suites Flowery Branch Lake Lanier,,,GA,,US,+1 770-965-0357,https://www.hilton.com/ar/hotels/gvlfbhx-hampton-suites-flowery-branch-lake-lanier/,,Hampton by Hilton,Q5646230
12062,h_r_block,H&R Block,,Flowery Branch,GA,,US,+1 770-967-0310,https://www.hrblock.com/local-tax-offices/georgia/flowery-branch/7334-spout-springs-rd/12062/,,H&R Block,Q5627799
11506,h_r_block,H&R Block,,Flowery Branch,GA,,US,+1 770-967-5361,https://www.hrblock.com/local-tax-offices/georgia/flowery-branch/village-shoppes-at-flowery-br/11506/,,H&R Block,Q5627799
412,ingles,Flowery Branch,,Flowery Branch,GA,,US,+1 770-965-3121,https://www.ingles-markets.com/storelocate/storeinfo.php?storenum=412,Mo-Su 06:00-23:00,Ingles,Q6032595
https://healthy.kaiserpermanente.org/georgia/facilities/health-choice-urgent-care-flowery-branch-144003,kaiser_permanente_us,Health Choice Urgent Care - Flowery Branch,,Flowery Branch,GA,,US,+1 605-789-6582,https://healthy.kaiserpermanente.org/georgia/facilities/health-choice-urgent-care-flowery-branch-144003,,Kaiser Permanente,Q1721601
1163,kohls_us,Kohl's,,Flowery Branch,GA,,US,+1 770-965-7797,https://www.kohls.com/stores/ga/flowerybranch-1163.shtml,Mo-Sa 09:00-21:00; Su 09:00-20:00,Kohl's,Q967265
155544,marathon_petroleum_us,FLOWERY BRANCH MARATHON,,Flowery Branch,GA,,US,+1 770-965-7707,,,Marathon,Q458363
https://locations.massageenvy.com/#2580018,massage_envy,Massage Envy Flowery Branch,,Flowery Branch,GA,,US,+1 770-965-8853,https://locations.massageenvy.com/georgia/flowery-branch/7338-spout-springs-rd..html,Mo-Sa 08:00-20:00; Su 10:00-18:00,Massage Envy,Q10327170
17545,mattress_firm_us,Mattress Firm Flowery Branch,,Flowery Branch,GA,,US,+1 770-965-7553,https://www.mattressfirm.com/en-us/stores/ga/flowery-branch/007082/,,Mattress Firm,Q6791878
66018890,moneygram,CVS - #5995,,FLOWERY BRANCH,GA,,US,+1 770-965-1037,,Mo-Su 08:00-23:00,MoneyGram,Q1944412
ca26fc32-de4c-4cdf-881a-f3339bdf2f25,northside_hospital_us,Health Choice Urgent Care - Braselton,,Flowery Branch,GA,,US,+1 470-451-0646,https://www.northside.com/locations/health-choice-urgent-care-braselton,,Northside Hospital,Q7059745
c727159d-c162-4ae6-ba29-30220d9e59d2,northside_hospital_us,Northside Family Medicine Partners,,Flowery Branch,GA,,US,+1 770-965-8166,https://www.northside.com/locations/northside-family-medicine-partners,,Northside Hospital,Q7059745
https://locations.oreillyauto.com/ga/flowerybranch/check-engine-light-testing-2487.html,oreilly,Your Flowery Branch O'Reilly Auto Parts Store,,Flowery Branch,GA,,US,+1 770-287-3187,https://locations.oreillyauto.com/ga/flowerybranch/check-engine-light-testing-2487.html,Mo-Sa 07:30-21:00; Su 08:00-20:00,O'Reilly Auto Parts,Q7071951
https://locations.oreillyauto.com/ga/flowerybranch/wiper-installation-2487.html,oreilly,Your Flowery Branch O'Reilly Auto Parts Store,,Flowery Branch,GA,,US,+1 770-287-3187,https://locations.oreillyauto.com/ga/flowerybranch/wiper-installation-2487.html,Mo-Sa 07:30-21:00; Su 08:00-20:00,O'Reilly Auto Parts,Q7071951
https://locations.oreillyauto.com/ga/flowerybranch/battery-testing-2487.html,oreilly,Your Flowery Branch O'Reilly Auto Parts Store,,Flowery Branch,GA,,US,+1 770-287-3187,https://locations.oreillyauto.com/ga/flowerybranch/battery-testing-2487.html,Mo-Sa 07:30-21:00; Su 08:00-20:00,O'Reilly Auto Parts,Q7071951
https://locations.oreillyauto.com/ga/flowerybranch/autopartes-2487.html,oreilly,Tu tienda O'Reilly Auto Parts en Flowery Branch,,Flowery Branch,GA,,US,+1 770-287-3187,https://locations.oreillyauto.com/ga/flowerybranch/autopartes-2487.html,Mo-Sa 07:30-21:00; Su 08:00-20:00,O'Reilly Auto Parts,Q7071951
https://locations.papajohns.com/#10692883,papa_johns,Papa John's,,Flowery Branch,GA,,US,+1 770-965-2323,https://locations.papajohns.com/united-states/ga/30542/flowery-branch/4605-elk-ridge-court,Mo-Th 10:00-23:00; Fr-Sa 10:00-24:00; Su 10:00-23:00,Papa John's Pizza,Q2759586
004427,penske,Home Depot #1856,,FLOWERY BRANCH,GA,,US,+1 678-975-3147,https://www.pensketruckrental.com/locations/us/georgia/flowery_branch/004427/,,Penske,Q81234570
ga_flowery-branch_7330-spout-springs-rd,pizza_hut_us,7330 Spout Springs Rd.,,Flowery Branch,GA,,US,+1 770-965-2221,https://locations.pizzahut.com/ga/flowery-branch/7330-spout-springs-rd,,Pizza Hut,Q191615
19059,planet_smoothie_us,Planet Smoothie,,Flowery Branch,GA,,US,+1 678-828-7115,https://www.planetsmoothie.com/stores/flowery-branch/19059,,Planet Smoothie,Q7201170
restaurant_238494,popeyes_us_fr,Popeyes,"3474 Winder Highway Flowery Branch, Georgia 30542 - USA",Flowery Branch,GA,,US,+1 470-310-2957,https://www.popeyes.com/store-locator/store/restaurant_238494,Mo-Su 10:00-22:00,Popeyes,Q1330910
home-depot-1856-13398,ppgpaints,HOME DEPOT 1856,,"Flowery Branch, ",GA,,US,+1 770-965-7877,https://www.ppgpaints.com/store-locator/us/georgia/flowery-branch-paint-stores/home-depot-1856-13398,,PPG Paints,Q83891559
https://www.publicstorage.com/self-storage-ga-flowery-branch/6003.html,public_storage_us,Public Storage,,Flowery Branch,GA,,US,+1 770-892-6557,https://www.publicstorage.com/self-storage-ga-flowery-branch/6003.html,,Public Storage,Q1156045
https://www.publicstorage.com/self-storage-ga-flowery-branch/5468.html,public_storage_us,Public Storage,,Flowery Branch,GA,,US,+1 770-249-5030,https://www.publicstorage.com/self-storage-ga-flowery-branch/5468.html,,Public Storage,Q1156045
1228,ross_dress_for_less_us,Flowery Branch,,Flowery Branch,GA,,US,+1 770-965-6844,,Mo-Th 09:30-22:00; Fr-Sa 09:30-22:30; Su 10:00-21:30,Ross Dress for Less,Q3442791
https://restaurants.subway.com/#14896277,subway,Subway,,Flowery Branch Hall,GA,,US,+1 770-965-0980,https://restaurants.subway.com/united-states/ga/flowery-branch/2120-new-friendship-road,Mo-Su 09:00-22:00,Subway,Q244457
https://restaurants.subway.com/#14911899,subway,Subway Royal Lakes Marketplace,,Flowery Branch Hall,GA,,US,+1 770-287-7755,https://restaurants.subway.com/united-states/ga/flowery-branch/4037-winder-highway,Mo-Su 09:00-22:00,Subway,Q244457
081113,tjx,Flowery Branch,5883 Spout Springs Rd,Flowery Branch,GA,,US,+1 770-967-6474,,Mo-Sa 09:30-21:30; Su 10:00-20:00,TJ Maxx,Q10860683
2SFQ,tmobile_us,Spout Springs Rd & Hog Mtn Rd,,Flowery Branch,GA,,US,+1 770-965-4380,https://www.t-mobile.com/store-locator/ga/flowery-branch/spout-springs-rd-hog-mtn-rd,,T-Mobile,Q3511885
1363586,usps,FLOWERY BRANCH,,FLOWERY BRANCH,GA,,US,+1 770-967-6431,,Mo-Fr 08:30-17:00; Sa 08:30-12:00,United States Postal Service,Q668687
3054200004,usps_collection_boxes,USPS COLLECTION BOX - BLUE BOX,3446 WINDER HWY,FLOWERY BRANCH,GA,,US,,,,United States Postal Service,Q668687
3054200006,usps_collection_boxes,USPS COLLECTION BOX - PO LOBBY,4915 ATLANTA HWY,FLOWERY BRANCH,GA,,US,,,,United States Postal Service,Q668687
3054200007,usps_collection_boxes,USPS COLLECTION BOX - PO LOBBY,4915 ATLANTA HWY,FLOWERY BRANCH,GA,,US,,,,United States Postal Service,Q668687
3054200013,usps_collection_boxes,USPS COLLECTION BOX - PO LOBBY,4915 ATLANTA HWY,FLOWERY BRANCH,GA,,US,,,,United States Postal Service,Q668687
3054200003,usps_collection_boxes,USPS COLLECTION BOX - BLUE BOX,4915 ATLANTA HWY,FLOWERY BRANCH,GA,,US,,,,United States Postal Service,Q668687
3054200005,usps_collection_boxes,USPS COLLECTION BOX - BLUE BOX,5900 SPOUT SPRINGS RD,FLOWERY BRANCH,GA,,US,,,,United States Postal Service,Q668687
,visa,,,FLOWERY BRANCH,GA,,US,,,,,
,visa,,,FLOWERY BRANCH,GA,,US,,,,,
,visa,,,FLOWERY BRANCH,GA,,US,,,,,
,visa,,,FLOWERY BRANCH,GA,,US,,,,,
,visa,,,FLOWERY BRANCH,GA,,US,,,,,
,visa,,,GAINESVILLE,GA,,US,,,,,
,visa,,,FLOWERY BRANCH,GA,,US,,,,,
,visa,,,FLOWERY BRANCH,GA,,US,,,,,
,visa,,,FLOWERY BRANCH,GA,,US,,,,,
,visa,,,FLOWERY BRANCH,GA,,US,,,,,
,visa,,,FLOWERY BRANCH,GA,,US,,,,,
,visa,,,FLOWERY BRANCH,GA,,US,,,,,
,visa,,,FLOWERY BRANCH,GA,,US,,,,,
,visa,,,FLOWERY BRANCH,GA,,US,,,,,
,visa,,,FLOWERY BRANCH,GA,,US,,,,,
,visa,,,FLOWERY BRANCH,GA,,US,,,,,
,visa,,,FLOWERY BRANCH,GA,,US,,,,,
,visa,,,FLOWERY BRANCH,GA,,US,,,,,
,visa,,,FLOWERY BRANCH,GA,,US,,,,,
,visa,,,OAKWOOD,GA,,US,,,,,
,visa,,,FLOWERY BRANCH,GA,,US,,,,,
,visa,,,FLOWERY BRANCH,GA,,US,,,,,
,visa,,,FLOWERY BRANCH,GA,,US,,,,,
,visa,,,FLOWERY BRANCH,GA,,US,,,,,
,visa,,,FLOWERY BRANCH,GA,,US,,,,,
,visa,,,FLOWERY BRANCH,GA,,US,,,,,
,visa,,,FLOWERY BRANCH,GA,,US,,,,,
,visa,,,FLOWERY BRANCH,GA,,US,,,,,
,visa,,,FLOWERY BRANCH,GA,,US,,,,,
,visa,,,FLOWERY BRANCH,GA,,US,,,,,
,visa,,,FLOWERY BRANCH,GA,,US,,,,,
,visa,,,FLOWERY BRANCH,GA,,US,,,,,
,visa,,,FLOWERY BRANCH,GA,,US,,,,,
,visa,,,FLOWERY BRANCH,GA,,US,,,,,
,visa,,,FLOWERY BRANCH,GA,,US,,,,,
,visa,,,FLOWERY BRANCH,GA,,US,,,,,
,visa,,,FLOWERY BRANCH,GA,,US,,,,,
,visa,,,FLOWERY BRANCH,GA,,US,,,,,
,visa,,,FLOWERY BRANCH,GA,,US,,,,,
,visa,,,FLOWERY BRANCH,GA,,US,,,,,
,visa,,,FLOWERY BRANCH,GA,,US,,,,,
,visa,,,FLOWERY BRANCH,GA,,US,,,,,
,visa,,,FLOWERY BRANCH,GA,,US,,,,,
,visa,,,FLOWERY BRANCH,GA,,US,,,,,
,visa,,,FLOWERY BRANC,GA,,US,,,,,
,visa,,,FLOWERY BRANCH,GA,,US,,,,,
,visa,,,FLOWERY BRANCH,GA,,US,,,,,
,visa,,,FLOWERY BRANCH,GA,,US,,,,,
,visa,,,FLOWERY BRANCH,GA,,US,,,,,
1764,waffle_house_us,Waffle House #1764,,FLOWERY BRANCH,GA,,US,+1 770-967-0920,https://locations.wafflehouse.com/flowerybranch-ga-1764,24/7,Waffle House,Q1701206
1865,waffle_house_us,Waffle House #1865,,FLOWERY BRANCH,GA,,US,+1 770-965-8202,https://locations.wafflehouse.com/flowerybranch-ga-1865,24/7,Waffle House,Q1701206
2373,waffle_house_us,Waffle House #2373,,FLOWERY BRANCH,GA,,US,+1 678-997-1863,https://locations.wafflehouse.com/flowerybranch-ga-2373,24/7,Waffle House,Q1701206
https://www.walgreens.com/locator/walgreens-5963+spout+springs+rd-flowery+branch-ga-30542/id=12811,walgreens,Walgreens,,Flowery Branch,GA,,US,+1 770-965-2371,https://www.walgreens.com/locator/walgreens-5963+spout+springs+rd-flowery+branch-ga-30542/id=12811,Mo-Su 07:00-22:00,Walgreens,Q1591889
7360__SPOUT__SPRINGS__RD_FLOWERY__BRANCH_GA_30542,wellsfargo,Wells Fargo,7360 SPOUT SPRINGS RD,FLOWERY BRANCH,GA,,US,+1 770-967-4734,https://www.wellsfargo.com/locator/bank/7360__SPOUT__SPRINGS__RD_FLOWERY__BRANCH_GA_30542/,Mo-Fr 09:00-17:00,Wells Fargo,Q744149
4706__HOG__MOUNTAIN__RD_FLOWERY__BRANCH_GA_30542,wellsfargo,Wells Fargo,4706 HOG MOUNTAIN RD,FLOWERY BRANCH,GA,,US,+1 770-965-3791,https://www.wellsfargo.com/locator/bank/4706__HOG__MOUNTAIN__RD_FLOWERY__BRANCH_GA_30542/,Mo-Fr 09:00-17:00,Wells Fargo,Q744149
https://locations.wendys.com/#9252353,wendys,"Wendy's Spout Springs in Flowery Branch, GA",,Flowery Branch,GA,,US,+1 762-533-0037,https://locations.wendys.com/united-states/ga/flowery-branch/7348-spout-spring-rd,"Mo-Su 06:30-10:30,06:30-22:00",Wendy's,Q550258
5c5a27cd90d9b1b587b242ee1516eeb1,western_union,REGIONS #8698,,Florwery Branch,GA,,US,+1 678-960-2150,https://location.westernunion.com/us/ga/florwery-branch/5c5a27cd90d9b1b587b242ee1516eeb1,Mo-Fr 09:00-17:00; Sa 09:00-12:00,Western Union,Q861042
