Ref,Spider,Name,Address,City,State,Zipcode,Country,Phone,Website,Hours,Brand,WikiData
https://stores.aldi.us/#1033724108,aldi_sud_us,ALDI  24 West highlands Dr.,,East Ellijay,GA,,US,+1 855-955-2534,https://stores.aldi.us/ga/east-ellijay/24-west-highlands-dr,Mo-Su 09:00-20:00,ALDI,Q41171672
/locations/propane-offices/georgia/ellijay/331-old-hwy-5-s,amerigas,"AmerGas Propane | Ellijay, Georgia",,Ellijay,GA,,US,+1 706-276-6262,/locations/propane-offices/georgia/ellijay/331-old-hwy-5-s,,AmeriGas,Q23130318
3018,anytime_fitness,Anytime Fitness,,Ellijay,GA,,US,+1 706-697-3488,https://www.anytimefitness.com/gyms/3018/ellijay-ga-30540/,,Anytime Fitness,Q4778364
4995,autozone_us,AutoZone Auto Parts Ellijay,,Ellijay,GA,,US,+1 706-276-1860,https://www.autozone.com/locations/ga/ellijay/437-howard-simmons-rd.html,Mo-Sa 07:30-21:00; Su 08:30-20:00,AutoZone,Q4826087
442,bealls_us,Bealls,,East Ellijay,GA,,US,+1 706-635-1111,https://stores.bealls.com/ga/eastellijay/clothing-store-442.html,Mo-Th 09:00-21:00; Fr-Sa 09:00-21:30; Su 10:00-20:00,Bealls,Q4876153
202152,bluerhino,Airport Citgo,,Ellijay,GA,,US,+1 706-635-1800,,,Blue Rhino,Q65681213
193534,bluerhino,Parks Place Conv & More,,Ellijay,GA,,US,+1 706-276-6564,,,Blue Rhino,Q65681213
72535,bluerhino,Lowe's #1793,,East Ellijay,GA,,US,+1 706-515-1800,,,Blue Rhino,Q65681213
196245,bluerhino,Maddox Circle BP,,East Ellijay,GA,,US,+1 706-276-1414,,,Blue Rhino,Q65681213
194082,bluerhino,Walgreens #17697,,East Ellijay,GA,,US,+1 706-635-2241,,,Blue Rhino,Q65681213
ga/ellijay/301-highland-crossing,bojangles,"Bojangles Ellijay, GA",,Ellijay,GA,,US,+1 762-761-1177,https://locations.bojangles.com/ga/ellijay/301-highland-crossing.html,,Bojangles',Q891163
71931839260113053900100000000000,bp,BP,,East Ellijay,GA,,US,+1 706-276-1414,,24/7,BP,Q152057
45954013359903054000100000961334,bp,BP,,Ellijay,GA,,US,+1 706-276-2815,,Mo-Sa 06:00-21:00; Su 07:00-21:00,BP,Q152057
363628,captaind,Captain D's,,East Ellijay,GA,,US,+1 706-515-2200,https://locations.captainds.com/ll/US/GA/East-Ellijay/253-Highland-Crossing,Mo-Su 10:30-22:00,Captain D's,Q5036616
https://stores.catofashions.com/#26559915,cato_us,Cato,,,GA,,US,+1 706-635-3525,https://stores.catofashions.com/ga/east-ellijay/91-highland-drive,Mo-Sa 10:00-19:00; Su 13:00-18:00,Cato,Q16956136
381189,chevron,Chevron Station #381189,2170 S. MAIN ST.,ELLIJAY,GA,,US,+1 706-635-6333,,,Chevron,Q319642
51996,citi,ATM CVS,,East Ellijay,GA,,US,,,,Citibank,Q857063
88497,citi,ATM Walgreens,,East Ellijay,GA,,US,,,,Citibank,Q857063
80076119,cricket_wireless,Cricket Wireless Authorized Retailer,,East Ellijay,GA,,US,+1 706-276-7030,https://www.cricketwireless.com/stores/ll/US/GA/East%20Ellijay/500-Highland-Crossing,Mo-Fr 10:00-19:00; Sa 10:00-17:00; Su 13:00-17:00,Cricket Wireless,Q5184987
7736,cvs_us,CVS Pharmacy,,East Ellijay,GA,,US,+1 706-635-2500,https://www.cvs.com/store-locator/east-ellijay-ga-pharmacies/601-howard-simmons-rd-east-ellijay-ga-30540/storeid=7736,Mo-Th 08:00-21:00; Fr-Sa 08:00-22:00; Su 08:00-21:00,CVS Pharmacy,Q2078880
23495,dollar_general,Dollar General,,Ellijay,GA,,US,+1 470-531-4023,https://www.dollargeneral.com/store-directory/ga/ellijay/23495,Mo-Su 08:00-22:00,Dollar General,Q145168
3569,dominos_pizza_us,Domino's Pizza,,East Ellijay,GA,,US,+1 706-697-3600,https://pizza.dominos.com/georgia/east-ellijay/91-highland-circle--114,Mo-Th 11:00-23:00; Fr-Sa 11:00-24:00; Su 11:00-23:00,Domino's,Q839466
350603,dunkin_us,Dunkin',,Ellijay,GA,,US,+1 706-636-3865,https://locations.dunkindonuts.com/en/ga/ellijay/600-howard-simmons-rd/350603,Mo-Su 05:00-21:00,Dunkin',Q847743
https://www.edwardjones.com/us-en/financial-advisor/jared-arrant,edwardjones,Jared K Arrant,,Ellijay,GA,,US,+1 706-636-3800,https://www.edwardjones.com/us-en/financial-advisor/jared-arrant,Mo-Fr 08:30-16:30,Edward Jones,Q5343830
200330262,exxonmobil,BOARDTOWN MART,,ELLIJAY,GA,,US,+1 706-635-2827,https://www.exxon.com/en/find-station/exxon-ellijay-ga-boardtownmart-200330262,Mo-Su 07:00-22:00,Exxon,Q109675651
https://local.fedex.com/#25228871,fedex,,,Ellijay,GA,,US,+1 800-463-3339,https://local.fedex.com/en-us/ga/ellijay/dnnmb,,FedEx,Q459477
https://local.fedex.com/#25236400,fedex,,,Ellijay,GA,,US,+1 800-463-3339,https://local.fedex.com/en-us/ga/ellijay/dnnma,,FedEx,Q459477
https://local.fedex.com/#25230540,fedex,,,Ellijay,GA,,US,+1 800-463-3339,https://local.fedex.com/en-us/ga/ellijay/dnnbf,,FedEx,Q459477
https://local.fedex.com/#25199212,fedex,,,East Ellijay,GA,,US,+1 800-463-3339,https://local.fedex.com/en-us/ga/east-ellijay/dnnla,,FedEx,Q459477
https://salons.greatclips.com/us/ga/east-ellijay/91-highland-drive,greatclips,Great Clips,,East Ellijay,GA,,US,+1 706-276-1115,https://salons.greatclips.com/us/ga/east-ellijay/91-highland-drive,Mo-Sa 09:00-17:00; Su 11:00-17:00,Great Clips,Q5598967
1500798,hardees_us,Hardee's,,East Ellijay,GA,,US,+1 706-526-4638,https://locations.hardees.com/ga/east-ellijay/1208-industrial-blvd,,Hardee's,Q1585088
1649,honey_baked,HoneyBaked of Elijay,,Ellijay,GA,,US,+1 706-276-2112,https://www.honeybaked.com/stores/1649,,Honey Baked Ham,Q5893363
11669,h_r_block,H&R Block,,East Ellijay,GA,,US,+1 706-635-5538,https://www.hrblock.com/local-tax-offices/georgia/east-ellijay/709-1st-ave-ste-300/11669/,,H&R Block,Q5627799
ga_ellijay_breakfast-90-highland-xing-s-3241,ihop,IHOP Breakfast Restaurants Near You at 90 Highland Xing S,,Ellijay,GA,,US,+1 706-698-4467,https://restaurants.ihop.com/en-us/ga/ellijay/breakfast-90-highland-xing-s-3241,,IHOP,Q1185675
409,ingles,Ellijay,,Ellijay,GA,,US,+1 706-635-2585,https://www.ingles-markets.com/storelocate/storeinfo.php?storenum=409,Mo-Su 06:00-22:00,Ingles,Q6032595
https://office.jacksonhewitt.com/#27575167,jackson_hewitt,Jackson Hewitt,,East Ellijay,GA,,US,+1 678-535-3504,https://office.jacksonhewitt.com/tax-preparation-services-locations/en/ga/east-ellijay/88-highland-xing/51070,Mo-Fr 09:00-18:00; Sa 09:00-17:00; Su 12:00-17:00,Jackson Hewitt,Q6117132
https://office.jacksonhewitt.com/#27578169,jackson_hewitt,Jackson Hewitt,,East Ellijay,GA,,US,+1 706-635-4545,https://office.jacksonhewitt.com/tax-preparation-services-locations/en/ga/east-ellijay/31-maple-street/18673,Mo-Sa 09:00-17:00,Jackson Hewitt,Q6117132
219279,marathon_petroleum_us,MT EXPRESS 12,,ELLIJAY,GA,,US,+1 706-276-2010,,,Marathon,Q458363
CHAEH,marriott,SpringHill Suites Ellijay,,East Ellijay,GA,,US,+1 762-226-1880,https://www.marriott.com/CHAEH,,SpringHill Suites,Q7580351
https://locations.moes.com/#8519,moes,Moe's Southwest Grill,,Ellijay,GA,,US,+1 706-276-6070,https://locations.moes.com/ga/ellijay/212-highland-parkway-east,Mo-Su 10:30-21:00,Moe's Southwest Grill,Q6889938
6887,murphy_usa_us,,,East Ellijay,GA,,US,+1 706-515-4506,,Mo-Sa 05:00-23:00; Su 05:30-22:30,Murphy USA,Q19604459
2ee677b8-b6aa-4b80-8141-807ffe781bb5,northside_hospital_us,Cherokee Lung & Sleep Specialists - East Ellijay,,East Ellijay,GA,,US,+1 678-493-2527,https://www.northside.com/locations/cherokee-lung-sleep-specialists-east-ellijay,,Northside Hospital,Q7059745
886c747d-edb8-4c4e-8149-917388f40291,northside_hospital_us,Medical Associates of North Georgia - Ellijay,,East Ellijay,GA,,US,+1 706-698-8400,https://www.northside.com/locations/medical-associates-of-north-georgia-ellijay,,Northside Hospital,Q7059745
a094274f-da04-4197-ab40-21b638d7fadd,northside_hospital_us,North Georgia OB/GYN Specialists - Ellijay,,East Ellijay,GA,,US,+1 770-721-9420,https://www.northside.com/locations/north-georgia-obgyn-ellijay,,Northside Hospital,Q7059745
211cee45-aea4-49ed-b05f-4a18a807376b,northside_hospital_us,Northside Hospital Orthopedic Institute-Sports Medicine - Ellijay,,East Ellijay,GA,,US,+1 770-517-6636,https://www.northside.com/locations/northside-hospital-orthopedic-institute-sports-medicine-ellijay,,Northside Hospital,Q7059745
43faab1a-35bd-42c7-b785-b40a38ed622b,northside_hospital_us,Total Joint Specialists - Ellijay,,East Ellijay,GA,,US,+1 770-721-9050,https://www.northside.com/locations/arthritis-total-joint-specialists-ellijay,,Northside Hospital,Q7059745
https://locations.oreillyauto.com/ga/ellijay/check-engine-light-testing-1057.html,oreilly,Your Ellijay O'Reilly Auto Parts Store,,Ellijay,GA,,US,+1 706-635-4165,https://locations.oreillyauto.com/ga/ellijay/check-engine-light-testing-1057.html,Mo-Sa 07:00-21:00; Su 09:00-20:00,O'Reilly Auto Parts,Q7071951
https://locations.oreillyauto.com/ga/ellijay/wiper-installation-1057.html,oreilly,Your Ellijay O'Reilly Auto Parts Store,,Ellijay,GA,,US,+1 706-635-4165,https://locations.oreillyauto.com/ga/ellijay/wiper-installation-1057.html,Mo-Sa 07:00-21:00; Su 09:00-20:00,O'Reilly Auto Parts,Q7071951
https://locations.oreillyauto.com/ga/ellijay/battery-testing-1057.html,oreilly,Your Ellijay O'Reilly Auto Parts Store,,Ellijay,GA,,US,+1 706-635-4165,https://locations.oreillyauto.com/ga/ellijay/battery-testing-1057.html,Mo-Sa 07:00-21:00; Su 09:00-20:00,O'Reilly Auto Parts,Q7071951
https://locations.oreillyauto.com/ga/ellijay/autopartes-1057.html,oreilly,Tu tienda O'Reilly Auto Parts en Ellijay,,Ellijay,GA,,US,+1 706-635-4165,https://locations.oreillyauto.com/ga/ellijay/autopartes-1057.html,Mo-Sa 07:00-21:00; Su 09:00-20:00,O'Reilly Auto Parts,Q7071951
012254,penske,Georgia Party &amp; Tool Rental,,ELLIJAY,GA,,US,+1 706-272-7697,https://www.pensketruckrental.com/locations/us/georgia/ellijay/012254/,,Penske,Q81234570
4786,ruby_tuesday_us,Ruby Tuesday,47 HIGHLAND CROSSING EAST ELLIJAY GA 30540,East Ellijay,GA,,US,+1 706-515-3301,,Mo-Su 11:00-22:00,Ruby Tuesday,Q7376400
https://restaurants.subway.com/#14908583,subway,Subway,,East Ellijay Gilmer,GA,,US,+1 706-635-7827,https://restaurants.subway.com/united-states/ga/east-ellijay/500-highland-crossing,Mo-Su 09:00-22:00,Subway,Q244457
https://locations.tacobell.com/#12314205,taco_bell,Taco Bell,,Ellijay,GA,,US,+1 706-503-3990,https://locations.tacobell.com/ga/ellijay/158-highland-xing-south.html,Mo-We 09:00-24:00; Th 09:00-22:00; Fr-Sa 09:00-01:00; Su 09:00-24:00,Taco Bell,Q752941
4805,upsstore,Ellijay,96 Craig St Ste 112,Ellijay,GA,,US,+1 706-698-4877,https://locations.theupsstore.com/ga/ellijay/96-craig-st,,UPS Store,Q7771029
1362386,usps,ELLIJAY,,ELLIJAY,GA,,US,+1 706-635-4356,,Mo-Fr 08:45-16:45; Sa 09:00-12:00,United States Postal Service,Q668687
3054000013,usps_collection_boxes,USPS COLLECTION BOX - BLUE BOX,9 S SIDE SQ,ELLIJAY,GA,,US,,,,United States Postal Service,Q668687
3054000026,usps_collection_boxes,USPS COLLECTION BOX - PO LOBBY,801 INDUSTRIAL BLVD,ELLIJAY,GA,,US,,,,United States Postal Service,Q668687
3054000017,usps_collection_boxes,USPS COLLECTION BOX - BLUE BOX,801 INDUSTRIAL BLVD,ELLIJAY,GA,,US,,,,United States Postal Service,Q668687
3054000018,usps_collection_boxes,USPS COLLECTION BOX - PO LOBBY,801 INDUSTRIAL BLVD,ELLIJAY,GA,,US,,,,United States Postal Service,Q668687
3054000021,usps_collection_boxes,USPS COLLECTION BOX - BLUE BOX,150 HIGHLAND PKWY,ELLIJAY,GA,,US,,,,United States Postal Service,Q668687
3054000022,usps_collection_boxes,USPS COLLECTION BOX - BLUE BOX,634 BEAVER LAKE DR,ELLIJAY,GA,,US,,,,United States Postal Service,Q668687
https://vcahospitals.com/appalachian,vca,VCA Appalachian Animal Hospital,,East Ellijay,GA,,US,+1 706-635-7357,https://vcahospitals.com/appalachian,Mo-Fr 07:00-18:00; Sa 09:00-16:00,VCA,Q7906620
R00000003192,verizon_us,East Ellijay,,East Ellijay,GA,,US,+1 706-635-8570,https://www.verizon.com/stores/details/georgia/east-ellijay/east-ellijay-278801/,Mo-Sa 10:00-18:00; Su 10:00-17:00,Verizon,Q919641
,visa,,,EAST ELLIJAY,GA,,US,,,,,
,visa,,,ELLIJAY,GA,,US,,,,,
,visa,,,EAST ELLIJAY,GA,,US,,,,,
,visa,,,ELLIJAY,GA,,US,,,,,
,visa,,,ELLIJAY,GA,,US,,,,,
,visa,,,EAST ELLIJAY,GA,,US,,,,,
,visa,,,ELLIJAY,GA,,US,,,,,
,visa,,,ELLIJAY,GA,,US,,,,,
,visa,,,ELLIJAY,GA,,US,,,,,
,visa,,,ELLIJAY,GA,,US,,,,,
,visa,,,EAST ELLIJAY,GA,,US,,,,,
,visa,,,ELLIJAY,GA,,US,,,,,
,visa,,,ELLIJAY,GA,,US,,,,,
,visa,,,ELLIJAY,GA,,US,,,,,
,visa,,,ELLIJAY,GA,,US,,,,,
,visa,,,ELLIJAY,GA,,US,,,,,
,visa,,,ELLIJAY,GA,,US,,,,,
,visa,,,ELLIJAY,GA,,US,,,,,
,visa,,,EAST ELLIJAY,GA,,US,,,,,
,visa,,,ELLIJAY,GA,,US,,,,,
,visa,,,ELIJAY,GA,,US,,,,,
,visa,,,ELIJAY,GA,,US,,,,,
,visa,,,ELLIJAY,GA,,US,,,,,
,visa,,,ELLIJAY,GA,,US,,,,,
,visa,,,ELLIJAY,GA,,US,,,,,
,visa,,,ELIJAY,GA,,US,,,,,
,visa,,,ELLIJAY,GA,,US,,,,,
,visa,,,ELLIJAY,GA,,US,,,,,
,visa,,,ELLIJAY,GA,,US,,,,,
,visa,,,ELLIJAY,GA,,US,,,,,
https://www.walgreens.com/locator/walgreens-192+1st+ave-east+ellijay-ga-30540/id=17697,walgreens,Walgreens,,East Ellijay,GA,,US,+1 706-635-2241,https://www.walgreens.com/locator/walgreens-192+1st+ave-east+ellijay-ga-30540/id=17697,Mo-Su 09:00-21:00,Walgreens,Q1591889
https://locations.wendys.com/#9252195,wendys,"Wendy's Ellijay in Ellijay, GA",,Ellijay,GA,,US,+1 706-636-1181,https://locations.wendys.com/united-states/ga/ellijay/209-highland-xing,"Mo-Th 06:30-10:30,09:00-21:00; Fr-Sa 06:30-10:30,09:00-22:00; Su 06:30-10:30,09:00-21:00",Wendy's,Q550258
13c109027c6fe26649c75983f971544f,western_union,WALMART #001070,,East Ellijay,GA,,US,+1 706-276-1170,https://location.westernunion.com/us/ga/east-ellijay/13c109027c6fe26649c75983f971544f,Mo-Su 07:00-21:00,Western Union,Q861042
37e06b9eeb8cd5cd57bd2e4e18649336,western_union,WALGREENS #17697,,East Ellijay,GA,,US,+1 706-635-2241,https://location.westernunion.com/us/ga/east-ellijay/37e06b9eeb8cd5cd57bd2e4e18649336,Mo-Su 08:00-21:00,Western Union,Q861042
