Ref,Spider,Name,Address,City,State,Zipcode,Country,Phone,Website,Hours,Brand,WikiData
https://awrestaurants.com/locations/wisconsin/princeton/811-green-lake-road/,awrestaurants,A&W Restaurant,,Princeton,WI,,US,+1 920-295-3593,https://awrestaurants.com/locations/wisconsin/princeton/811-green-lake-road/,Mo-Th 10:00-19:00; Fr-Sa 10:00-20:00; Su 11:00-19:00,A&W Restaurants,Q277641
177027,bluerhino,Detjen's Piggly Wiggly,,Princeton,WI,,US,+1 920-295-3981,,,Blue Rhino,Q65681213
25336000558115496800100000000000,bp,BP,,Princeton,WI,,US,+1 920-295-3564,,Mo-Su 06:00-21:00,BP,Q152057
63252,citi,ATM Kwik Trip #786-1,,Princeton,WI,,US,,,,Citibank,Q857063
63253,citi,ATM Kwik Trip #786-2,,Princeton,WI,,US,,,,Citibank,Q857063
66035,citi,ATM NATIONAL EXCHANGE BANK,,Princeton,WI,,US,,,,Citibank,Q857063
12271,dollar_general,Dollar General,,Princeton,WI,,US,+1 920-215-0808,https://www.dollargeneral.com/store-directory/wi/princeton/12271,Mo-Su 08:00-21:00,Dollar General,Q145168
https://local.fedex.com/#25229686,fedex,,,Princeton,WI,,US,+1 800-463-3339,https://local.fedex.com/en-us/wi/princeton/atwcb,,FedEx,Q459477
Motorcraft4647USAEnglish,ford,"Gagne Ford, Inc.",,Wisconsin,WI,,US,+1 920-295-6111,,,Ford,Q44294
https://www.ford.com/dealerships/dealer-details/wi/princeton/gagne-ford-inc/,ford_dealers_us,"Gagne Ford, Inc.",,Princeton,WI,,US,+1 920-481-1008,https://www.ford.com/dealerships/dealer-details/wi/princeton/gagne-ford-inc/,Mo-Fr 08:00-17:30; Sa 08:00-15:00,Ford Motor Company,Q44294
453,piggly_wiggly_us,Piggly Wiggly,,Princeton,WI,,US,+1 920-295-2981,https://www.shopthepig.com/,,Piggly Wiggly,Q3388303
007669,uhaul,Detjens Piggly Wiggly,101 E Main St,Princeton,WI,,US,+1 920-295-3114,,Mo-Sa 00:00-20:00; Su 00:00-19:00,U-Haul,Q7862902
1378431,usps,PRINCETON,,PRINCETON,WI,,US,+1 920-295-3609,,"Mo-Fr 09:00-12:30,13:30-16:30; Sa 09:30-11:30",United States Postal Service,Q668687
5496800000,usps_collection_boxes,USPS COLLECTION BOX - BLUE BOX,111 S PEARL ST,PRINCETON,WI,,US,,,,United States Postal Service,Q668687
5496800001,usps_collection_boxes,USPS COLLECTION BOX - PO LOBBY,111 S PEARL ST,PRINCETON,WI,,US,,,,United States Postal Service,Q668687
5496800004,usps_collection_boxes,USPS COLLECTION BOX - PO LOBBY,111 S PEARL ST,PRINCETON,WI,,US,,,,United States Postal Service,Q668687
,visa,,,PRINCETON,WI,,US,,,,,
,visa,,,PRINCETON,WI,,US,,,,,
,visa,,,PRINCETON,WI,,US,,,,,
,visa,,,PRINCETON,WI,,US,,,,,
,visa,,,PRINCETON,WI,,US,,,,,
,visa,,,PRINCETON,WI,,US,,,,,
,visa,,,PRINCETON,WI,,US,,,,,
,visa,,,PRINCETON,WI,,US,,,,,
,visa,,,PRINCETON,WI,,US,,,,,
,visa,,,PRINCETON,WI,,US,,,,,
,visa,,,PRINCETON,WI,,US,,,,,
,visa,,,PRINCETON,WI,,US,,,,,
,visa,,,PRINCETON,WI,,US,,,,,
,visa,,,PRINCETON,WI,,US,,,,,
,visa,,,PRINCETON,WI,,US,,,,,
