Ref,Spider,Name,Address,City,State,Zipcode,Country,Phone,Website,Hours,Brand,WikiData
d96cfe67e32dd2e2ae6d5f08cee11df1,western_union,SOCIAL ISLAMI BANK LIMITED,,Vatara,DHAKA,,BD,(+880) 1-1829428494,https://location.westernunion.com/bd/dhaka/vatara/d96cfe67e32dd2e2ae6d5f08cee11df1,Mo-Th 10:00-17:00; Su 10:00-17:00,Western Union,Q861042
2dd1f97b712263c0ab773442b450113b,western_union,UNITED COMMERCIAL BANK LIMITED,,Dhaka,DHAKA,,BD,(+880) 02-1811487857,https://location.westernunion.com/bd/dhaka/dhaka/2dd1f97b712263c0ab773442b450113b,Mo-Th 09:30-17:00; Fr 09:30-15:00; Sa-Su 09:30-17:00,Western Union,Q861042
0bfc4721342b4157d3d2ebcb1df63e22,western_union,PRIME BANK LIMITED,,Dhaka,DHAKA,,BD,(+880) 02-29554733,https://location.westernunion.com/bd/dhaka/dhaka/0bfc4721342b4157d3d2ebcb1df63e22,Mo-Th 09:00-17:00; Fr 09:30-15:00; Sa 09:30-17:00; Su 09:00-17:00,Western Union,Q861042
6ae6113196920eade8eed35b26b31c9f,western_union,SOUTHEAST BANK LIMITED,,Dhaka,DHAKA,,BD,(+880) 2-9571115-424,https://location.westernunion.com/bd/dhaka/dhaka/6ae6113196920eade8eed35b26b31c9f,Mo-Th 09:00-17:00; Sa-Su 09:00-17:00,Western Union,Q861042
f9c96fd7a64ac08f762798703598a2bf,western_union,NATIONAL BANK LTD,,Dhaka,DHAKA,,BD,(+880) 02-29563081,https://location.westernunion.com/bd/dhaka/dhaka/f9c96fd7a64ac08f762798703598a2bf,Mo-Fr 09:00-17:00; Sa 09:00-15:30; Su 09:00-17:00,Western Union,Q861042
f8d74352f590f787008f1704ea99d882,western_union,PUBALI BANK LIMITED,,Dhaka,DHAKA,,BD,+880 1714-109143,https://location.westernunion.com/bd/dhaka/dhaka/f8d74352f590f787008f1704ea99d882,Mo-Th 09:00-17:00; Fr 09:30-15:00; Sa 09:30-17:00; Su 09:00-17:00,Western Union,Q861042
2738dc5794eb17b06c8d29be15719a34,western_union,MUTUAL TRUST BANK LTD,,Dhaka,DHAKA,,BD,+880 1712-575157,https://location.westernunion.com/bd/dhaka/dhaka/2738dc5794eb17b06c8d29be15719a34,Mo-Th 10:00-17:00; Su 10:00-17:00,Western Union,Q861042
9583f9a7b3f0ba9d6e68f2f6efb3026e,western_union,MUTUAL TRUST BANK LTD,,Dhaka,DHAKA,,BD,+880 1811-695935,https://location.westernunion.com/bd/dhaka/dhaka/9583f9a7b3f0ba9d6e68f2f6efb3026e,Mo-Th 10:00-17:00; Sa-Su 10:00-17:00,Western Union,Q861042
c9b734872443177caefe9122aed18aff,western_union,EXIM BANK LIMITED,,Dhaka,DHAKA,,BD,(+880) 02-29883883,https://location.westernunion.com/bd/dhaka/dhaka/c9b734872443177caefe9122aed18aff,Mo-Th 09:00-17:00; Fr 09:30-15:00; Sa 09:30-17:00; Su 09:00-17:00,Western Union,Q861042
f2ace7e25289c6e3b92c485c5dcbd36f,western_union,SOCIAL ISLAMI BANK LIMITED,,Dhaka,DHAKA,,BD,+880 1764-869209,https://location.westernunion.com/bd/dhaka/dhaka/f2ace7e25289c6e3b92c485c5dcbd36f,Mo-Th 10:00-17:00; Su 10:00-17:00,Western Union,Q861042
6f87c2d4955d0c38c5e35cc766abe410,western_union,SONALI BANK LIMITED,,Dhaka,DHAKA,,BD,+880 1712-194637,https://location.westernunion.com/bd/dhaka/dhaka/6f87c2d4955d0c38c5e35cc766abe410,Mo-Th 10:00-16:00; Fr-Sa 09:00-16:00; Su 10:00-16:00,Western Union,Q861042
235476230fb1deef522ac16b9bfec675,western_union,MUTUAL TRUST BANK LTD,,Dhaka,DHAKA,,BD,+880 1833-778018,https://location.westernunion.com/bd/dhaka/dhaka/235476230fb1deef522ac16b9bfec675,Mo-Th 09:00-17:00; Sa-Su 09:00-17:00,Western Union,Q861042
39ad0b169ff0b0b8401cbe8813fcf63c,western_union,MERCANTILE BANK LIMITED,,Dhaka,DHAKA,,BD,(+880) 02-29559333,https://location.westernunion.com/bd/dhaka/dhaka/39ad0b169ff0b0b8401cbe8813fcf63c,Mo-Th 09:00-17:00; Fr 09:30-15:00; Sa 09:30-17:00; Su 09:00-17:00,Western Union,Q861042
2568c31c69e23301afc2c6d3d1865e32,western_union,SOCIAL ISLAMI BANK LIMITED,,Dhaka,Dhaka,,BD,(+880) 1-1825264428,https://location.westernunion.com/bd/dhaka/dhaka/2568c31c69e23301afc2c6d3d1865e32,Mo-Th 10:00-17:00; Su 10:00-17:00,Western Union,Q861042
550738efdf1fe7572e7f13363af95193,western_union,PUBALI BANK LIMITED,,Dhaka,DHAKA,,BD,+880 1937-404319,https://location.westernunion.com/bd/dhaka/dhaka/550738efdf1fe7572e7f13363af95193,Mo-Th 09:00-17:00; Fr 09:30-15:00; Sa 09:30-17:00; Su 09:00-17:00,Western Union,Q861042
141e7d0c114eca7d566547c96a4d2953,western_union,THE PREMIER BANK LIMITED,,Dhaka,DHAKA,,BD,(+880) 02-1730000353,https://location.westernunion.com/bd/dhaka/dhaka/141e7d0c114eca7d566547c96a4d2953,Mo-Th 09:00-17:00; Sa-Su 09:00-17:00,Western Union,Q861042
09c81f5759419bcd8485d80e7c890326,western_union,ONE BANK LTD,,Dhaka,DHAKA,,BD,+880 1313-799145,https://location.westernunion.com/bd/dhaka/dhaka/09c81f5759419bcd8485d80e7c890326,Mo-Th 10:00-17:00; Sa-Su 10:00-17:00,Western Union,Q861042
74f22ff6a46d879b49387095d9010730,western_union,MODHUMOTI BANK LIMITED,,Dhaka,DHAKA,,BD,+880 1916-298299,https://location.westernunion.com/bd/dhaka/dhaka/74f22ff6a46d879b49387095d9010730,Mo-Th 10:00-18:00; Sa 10:00-14:00; Su 10:00-18:00,Western Union,Q861042
5db5681c9572dbbb84e2de62dec3448b,western_union,PUBALI BANK LIMITED,,Dhaka,DHAKA,,BD,+880 1713-755893,https://location.westernunion.com/bd/dhaka/dhaka/5db5681c9572dbbb84e2de62dec3448b,Mo-Th 10:00-16:00; Su 10:00-16:00,Western Union,Q861042
1ec920997a400e6a9182c1f4480443ed,western_union,MERCANTILE BANK LIMITED,,Dhaka,DHAKA,,BD,+880 1781-355565,https://location.westernunion.com/bd/dhaka/dhaka/1ec920997a400e6a9182c1f4480443ed,Mo-Th 10:00-18:00; Sa 10:00-14:00; Su 10:00-18:00,Western Union,Q861042
517326a1a01191166f146778dbc08ee7,western_union,UNITED COMMERCIAL BANK LIMITED,,Dhaka,DHAKA,,BD,(+880) 02-1713108769,https://location.westernunion.com/bd/dhaka/dhaka/517326a1a01191166f146778dbc08ee7,Mo-Th 09:45-17:00; Su 09:45-17:00,Western Union,Q861042
1d0c4dd714e3debd82ce9432bc60f1e0,western_union,NATIONAL CREDIT AND COMMERCE B,,Dhaka,DHAKA,,BD,+880 2-9852067,https://location.westernunion.com/bd/dhaka/dhaka/1d0c4dd714e3debd82ce9432bc60f1e0,Mo-Th 10:00-17:00; Fr 09:30-15:00; Sa 09:30-17:00; Su 10:00-17:00,Western Union,Q861042
24678365097efa05fc6f302c23b67d37,western_union,EXIM BANK LIMITED,,Dhaka,DHAKA,,BD,(+880) 02-27613828,https://location.westernunion.com/bd/dhaka/dhaka/24678365097efa05fc6f302c23b67d37,Mo-Th 09:00-17:00; Fr 09:30-15:00; Sa 09:30-17:00; Su 09:00-17:00,Western Union,Q861042
bbbf629223514abcc2db8e978c631db5,western_union,SOUTHEAST BANK LIMITED,,Dhaka,DHAKA,,BD,+880 1711-702363,https://location.westernunion.com/bd/dhaka/dhaka/bbbf629223514abcc2db8e978c631db5,Mo-Th 09:00-17:00; Sa-Su 09:00-17:00,Western Union,Q861042
a09c1ee23d3e739fb56a605f5cb18956,western_union,SONALI BANK LIMITED,,Dhaka,DHAKA,,BD,(+880) 01677-1777719475,https://location.westernunion.com/bd/dhaka/dhaka/a09c1ee23d3e739fb56a605f5cb18956,Mo-Th 10:00-16:00; Fr-Sa 09:00-16:00; Su 10:00-16:00,Western Union,Q861042
b5e5b5a8c164cc7f916ee62e3038ed27,western_union,DHAKA BANK LIMITED,,Dhaka,DHAKA,,BD,(+880) 172829882,https://location.westernunion.com/bd/dhaka/dhaka/b5e5b5a8c164cc7f916ee62e3038ed27,Mo-Th 10:00-18:00; Sa-Su 10:00-18:00,Western Union,Q861042
39b9d3a9ca50459efd3a3d8f02826740,western_union,THE PREMIER BANK LIMITED,,Dhaka,DHAKA,,BD,+880 2-8831732,https://location.westernunion.com/bd/dhaka/dhaka/39b9d3a9ca50459efd3a3d8f02826740,Mo-Th 09:00-17:00; Sa-Su 09:00-17:00,Western Union,Q861042
de4e12d1b9da6946951c050df35c850f,western_union,SOCIAL ISLAMI BANK LIMITED,,Dhaka,DHAKA,,BD,(+880) 01-1973646570,https://location.westernunion.com/bd/dhaka/dhaka/de4e12d1b9da6946951c050df35c850f,Mo-Th 10:00-17:00; Su 10:00-17:00,Western Union,Q861042
837fea119439695a1c3f01a6e1bf5026,western_union,SOUTHEAST BANK LIMITED,,Dhaka,DHAKA,,BD,(+880) 02-29571115,https://location.westernunion.com/bd/dhaka/dhaka/837fea119439695a1c3f01a6e1bf5026,Mo-Th 09:00-17:00; Sa-Su 09:00-17:00,Western Union,Q861042
ab879906343f88ed8b8bfea3e20b07c8,western_union,NATIONAL CREDIT AND COMMERCE BANK LTD,,Gulshan,DHAKA,,BD,+880 1712-834797,https://location.westernunion.com/bd/dhaka/gulshan/ab879906343f88ed8b8bfea3e20b07c8,Mo-Th 10:00-17:00; Fr-Sa 10:00-15:00; Su 10:00-17:00,Western Union,Q861042
513318c341f40257c53fa1dec7d16750,western_union,UNITED COMMERCIAL BANK LIMITED,,Dhaka,DHAKA,,BD,(+880) 02-28824198,https://location.westernunion.com/bd/dhaka/dhaka/513318c341f40257c53fa1dec7d16750,Mo-Th 09:30-17:00; Fr 09:30-15:00; Sa-Su 09:30-17:00,Western Union,Q861042
fa5314f33328f05c0f2ef4f01031c83e,western_union,BRAC SME SERVICE CENTER,,Dhaka,DHAKA,,BD,(+880) 02-29884292-2642,https://location.westernunion.com/bd/dhaka/dhaka/fa5314f33328f05c0f2ef4f01031c83e,Mo-Th 09:00-17:00; Fr 09:30-15:00; Sa 09:30-17:00; Su 09:00-17:00,Western Union,Q861042
321e07e439224c8dfd2656acf2ca45e2,western_union,JANATA BANK LIMITED,,Dhaka,DHAKA,,BD,+880 1673-309031,https://location.westernunion.com/bd/dhaka/dhaka/321e07e439224c8dfd2656acf2ca45e2,Mo-Th 09:00-17:00; Fr 09:30-15:00; Sa 09:30-17:00; Su 09:00-17:00,Western Union,Q861042
e4b7e40142fb1d56c96007b981ac7b84,western_union,NRB BANK LIMITED,,Dhaka,DHAKA,,BD,+880 1322-897570,https://location.westernunion.com/bd/dhaka/dhaka/e4b7e40142fb1d56c96007b981ac7b84,Mo-Th 10:00-16:00; Su 10:00-16:00,Western Union,Q861042
c47207fea803ec8042710e4637387b05,western_union,MERCANTILE BANK LIMITED,,Dhaka,DHAKA,,BD,(+880) 02-28816473,https://location.westernunion.com/bd/dhaka/dhaka/c47207fea803ec8042710e4637387b05,Mo-Th 09:00-17:00; Fr 09:30-15:00; Sa 09:30-17:00; Su 09:00-17:00,Western Union,Q861042
30b278e288cd7243fcce052e79a7481a,western_union,PUBALI BANK LIMITED,,Dhaka,DHAKA,,BD,+880 1714-161269,https://location.westernunion.com/bd/dhaka/dhaka/30b278e288cd7243fcce052e79a7481a,Mo-Th 09:00-17:00; Su 09:00-17:00,Western Union,Q861042
4c31f7a1aa154e1b9903978389922e5f,western_union,PUBALI BANK LIMITED,,Dhaka,DHAKA,,BD,(+880) 02-28820442,https://location.westernunion.com/bd/dhaka/dhaka/4c31f7a1aa154e1b9903978389922e5f,Mo-Th 09:00-17:00; Fr 09:30-15:00; Sa 09:30-17:00; Su 09:00-17:00,Western Union,Q861042
fd52e84b98ab88740fdd0e6048a749b2,western_union,UNITED COMMERCIAL BANK LIMITED,,Dhaka,DHAKA,,BD,(+880) 02-29855074,https://location.westernunion.com/bd/dhaka/dhaka/fd52e84b98ab88740fdd0e6048a749b2,Mo-Th 09:30-17:00; Fr 09:30-15:00; Sa-Su 09:30-17:00,Western Union,Q861042
92e1d5e663f99df37e899a2193e095ea,western_union,SHAHJALAL ISLAMI BANK LIMITED,,Dhaka,DHAKA,,BD,(+880) 02-28828740,https://location.westernunion.com/bd/dhaka/dhaka/92e1d5e663f99df37e899a2193e095ea,Mo-Th 09:00-17:00; Sa-Su 09:00-17:00,Western Union,Q861042
88357d3d323b4e2b8e7cb5bd37ff0c16,western_union,NATIONAL BANK LTD,,Dhaka,DHAKA,,BD,+880 571-62647,https://location.westernunion.com/bd/dhaka/dhaka/88357d3d323b4e2b8e7cb5bd37ff0c16,Mo-Su 09:00-17:00,Western Union,Q861042
86a205331a852c4f4f9204b36cb733d4,western_union,AB BANK LIMITED,,Dhaka,DHAKA,,BD,+880 2222-284365,https://location.westernunion.com/bd/dhaka/dhaka/86a205331a852c4f4f9204b36cb733d4,Mo-Th 09:30-17:00; Su 09:30-17:00,Western Union,Q861042
208e8118457204a43b6b8016883979a6,western_union,TRUST BANK LIMITED,,Dhaka,DHAKA,,BD,(+880) 02-1712006299,https://location.westernunion.com/bd/dhaka/dhaka/208e8118457204a43b6b8016883979a6,Mo-Th 09:00-17:00; Fr 09:30-15:00; Sa 09:30-17:00; Su 09:00-17:00,Western Union,Q861042
1c8b3c3077a7bfe9910b8dd34c4fd948,western_union,SHAHJALAL ISLAMI BANK LIMITED,,Dhaka,DHAKA,,BD,+880 1755-556404,https://location.westernunion.com/bd/dhaka/dhaka/1c8b3c3077a7bfe9910b8dd34c4fd948,Mo-Th 09:00-17:00; Sa-Su 09:00-17:00,Western Union,Q861042
476a91ff4653a54d49236d6bff350996,western_union,SHAHJALAL ISLAMI BANK LIMITED,,Dhaka,DHAKA,,BD,+880 1755-556356,https://location.westernunion.com/bd/dhaka/dhaka/476a91ff4653a54d49236d6bff350996,Mo-Th 09:00-17:00; Sa-Su 09:00-17:00,Western Union,Q861042
cc7c7725059e9e582d32b0c9447821b9,western_union,AL ARAFAH ISLAMI BANK LIMITED,,Dhaka,DHAKA,,BD,+880 1732-201003,https://location.westernunion.com/bd/dhaka/dhaka/cc7c7725059e9e582d32b0c9447821b9,Mo-Th 10:00-17:00; Fr 09:30-15:00; Sa 09:30-17:00; Su 10:00-17:00,Western Union,Q861042
ac5ddb9bf0982ddd3eb0a1c889e683dc,western_union,THE PREMIER BANK LIMITED,,Dhaka,DHAKA,,BD,(+880) 02-1730000353,https://location.westernunion.com/bd/dhaka/dhaka/ac5ddb9bf0982ddd3eb0a1c889e683dc,Mo-Th 09:00-17:00; Sa-Su 09:00-17:00,Western Union,Q861042
1ac5e47bba9a78a92135330632ef7efe,western_union,SOCIAL ISLAMI BANK LIMITED,,Dhaka,DHAKA,,BD,(+880) 01-1713139084,https://location.westernunion.com/bd/dhaka/dhaka/1ac5e47bba9a78a92135330632ef7efe,Mo-Th 10:00-17:00; Sa 09:00-14:00; Su 10:00-17:00,Western Union,Q861042
0a3795d8710ac1b8a21192365131750b,western_union,EXIM BANK LIMITED,,Dhaka,DHAKA,,BD,(+880) 02-29262001,https://location.westernunion.com/bd/dhaka/dhaka/0a3795d8710ac1b8a21192365131750b,Mo-Th 10:00-16:00; Fr 09:30-15:00; Sa 09:30-17:00; Su 10:00-16:00,Western Union,Q861042
d101700b252c5190c2c6b8f3064e6506,western_union,SOUTHEAST BANK LIMITED,,Dhaka,DHAKA,,BD,(+880) 02-29883493,https://location.westernunion.com/bd/dhaka/dhaka/d101700b252c5190c2c6b8f3064e6506,Mo-Th 09:00-17:00; Sa-Su 09:00-17:00,Western Union,Q861042
237b21b72a6e1de79f2739444673f2a6,western_union,AB BANK LIMITED,,Dhaka,DHAKA,,BD,+880 2-9890865,https://location.westernunion.com/bd/dhaka/dhaka/237b21b72a6e1de79f2739444673f2a6,Mo-Th 09:30-17:00; Su 09:30-17:00,Western Union,Q861042
f2a44d498e3caa5b83965d099f07587f,western_union,SHIMANTO BANK LIMITED,,Dhaka,DHAKA,,BD,+880 1716-906090,https://location.westernunion.com/bd/dhaka/dhaka/f2a44d498e3caa5b83965d099f07587f,Mo-Th 10:00-18:00; Fr 09:30-15:00; Sa 09:30-17:00; Su 10:00-18:00,Western Union,Q861042
d303064a4644ade21148424e727dd9a0,western_union,DUTCH BANGLA BANK LIMITED,,Dhaka,DHAKA,,BD,(+880) 02-29891317,https://location.westernunion.com/bd/dhaka/dhaka/d303064a4644ade21148424e727dd9a0,Mo-Th 09:00-17:00; Fr 09:30-15:00; Sa 09:30-17:00; Su 09:00-17:00,Western Union,Q861042
94d955f961027f64dd3ab789846dc985,western_union,UNITED COMMERCIAL BANK LIMITED,,Dhaka,DHAKA,,BD,+880 1730-326198,https://location.westernunion.com/bd/dhaka/dhaka/94d955f961027f64dd3ab789846dc985,Mo-Su 09:30-19:00,Western Union,Q861042
3dfad61c6849b2a02d145ada78fdc80d,western_union,ONE BANK LIMITED,,Dhaka,DHAKA,,BD,(+880) 02-28824423,https://location.westernunion.com/bd/dhaka/dhaka/3dfad61c6849b2a02d145ada78fdc80d,Mo-Th 09:00-17:00; Sa-Su 09:00-17:00,Western Union,Q861042
64dc2eb2d989ffc49a2c879e2a85c5cc,western_union,MUTUAL TRUST BANK LIMITED,,Dhaka,DHAKA,,BD,+880 1820-009933,https://location.westernunion.com/bd/dhaka/dhaka/64dc2eb2d989ffc49a2c879e2a85c5cc,Mo-Th 09:00-17:00; Sa-Su 09:00-17:00,Western Union,Q861042
ebbe3901a6aef5e9ba05f877c4ad820e,western_union,MUTUAL TRUST BANK LIMITED,,Dhaka,DHAKA,,BD,+880 1820-009933,https://location.westernunion.com/bd/dhaka/dhaka/ebbe3901a6aef5e9ba05f877c4ad820e,Mo-Th 09:00-17:00; Sa-Su 09:00-17:00,Western Union,Q861042
962005fc13c70d7670c101332ab9b95f,western_union,FIRST SECURITY ISLAMI BANK LTD,,Dhaka,DHAKA,,BD,+880 1708-160281,https://location.westernunion.com/bd/dhaka/dhaka/962005fc13c70d7670c101332ab9b95f,Mo-Th 10:00-17:00; Sa-Su 10:00-17:00,Western Union,Q861042
0e79d8161894b0a94037b169c51cfe15,western_union,UNION BANK LIMITED,,Dhaka,DHAKA,,BD,+880 1985-508001,https://location.westernunion.com/bd/dhaka/dhaka/0e79d8161894b0a94037b169c51cfe15,Mo-Th 10:00-18:00; Sa 09:00-17:00; Su 10:00-18:00,Western Union,Q861042
f2e37102e1a76b4a182c5c0ad07660b0,western_union,UNION BANK LIMITED,,Dhaka,DHAKA,,BD,(+880) 171337500,https://location.westernunion.com/bd/dhaka/dhaka/f2e37102e1a76b4a182c5c0ad07660b0,Mo 10:00-17:00; Tu-Th 09:00-17:00; Sa-Su 09:00-17:00,Western Union,Q861042
85045e7109fb5427705bdcf460c3c552,western_union,NATIONAL BANK LTD,,Dhaka,DHAKA,,BD,+880 2-9563081,https://location.westernunion.com/bd/dhaka/dhaka/85045e7109fb5427705bdcf460c3c552,Mo-Fr 09:00-17:00; Sa 09:00-15:30; Su 09:00-17:00,Western Union,Q861042
f793499938c96aaf6629d8b6b3e7fcff,western_union,DUTCH BANGLA BANK LIMITED,,Dhaka,DHAKA,,BD,(+880) 02-27113208,https://location.westernunion.com/bd/dhaka/dhaka/f793499938c96aaf6629d8b6b3e7fcff,Mo-Th 09:00-17:00; Fr 09:30-15:00; Sa 09:30-17:00; Su 09:00-17:00,Western Union,Q861042
f8e4d535859ede9748f4c3caee906af0,western_union,JAMUNA BANK LIMITED,,Dhaka,DHAKA,,BD,+880 2-9855167,https://location.westernunion.com/bd/dhaka/dhaka/f8e4d535859ede9748f4c3caee906af0,Mo-Th 09:00-17:00; Sa-Su 09:00-17:00,Western Union,Q861042
ec56241e57280baceffb1d510cdcf194,western_union,AB BANK LIMITED,,Dhaka,DHAKA,,BD,(+880) 967855564,https://location.westernunion.com/bd/dhaka/dhaka/ec56241e57280baceffb1d510cdcf194,Mo-Th 10:00-17:00; Su 10:00-17:00,Western Union,Q861042
43bcd214eadc816e634508352763564c,western_union,JAMUNA BANK LIMITED,,Dhaka,DHAKA,,BD,+880 1730-090078,https://location.westernunion.com/bd/dhaka/dhaka/43bcd214eadc816e634508352763564c,Mo-Th 10:00-16:00; Sa-Su 10:00-16:00,Western Union,Q861042
20d45d16273ea60b5f5429ef44be3da2,western_union,SONALI BANK LIMITED,,Dhaka,DHAKA,,BD,(+880) 02-29897221,https://location.westernunion.com/bd/dhaka/dhaka/20d45d16273ea60b5f5429ef44be3da2,Mo-Th 10:00-16:00; Su 10:00-16:00,Western Union,Q861042
7c98810bf9eea7a0f347d7b4000929c6,western_union,DUTCH BANGLA BANK LIMITED,,Dhaka,DHAKA,,BD,+880 1676-214414,https://location.westernunion.com/bd/dhaka/dhaka/7c98810bf9eea7a0f347d7b4000929c6,Mo-Su 09:00-18:00,Western Union,Q861042
4983cd3cdbf9543a4412da1c79dcb1f1,western_union,SHAHJALAL ISLAMI BANK LIMITED,,Dhaka,DHAKA,,BD,+880 2-8827694,https://location.westernunion.com/bd/dhaka/dhaka/4983cd3cdbf9543a4412da1c79dcb1f1,Mo-Th 09:00-17:00; Sa-Su 09:00-17:00,Western Union,Q861042
578ee8456371b8c730f98b2391fd652c,western_union,SONALI BANK LIMITED,,Dhaka,DHAKA,,BD,+880 1911-141457,https://location.westernunion.com/bd/dhaka/dhaka/578ee8456371b8c730f98b2391fd652c,Mo-Th 10:00-16:00; Fr-Sa 09:00-16:00; Su 10:00-16:00,Western Union,Q861042
003ab326c8bbf649d39eea23c58c97f1,western_union,UTTARA BANK LIMITED,,Dhaka,DHAKA,,BD,(+880) 02-1991144126,https://location.westernunion.com/bd/dhaka/dhaka/003ab326c8bbf649d39eea23c58c97f1,Mo-Th 09:00-17:00; Fr 09:30-15:00; Sa 09:30-17:00; Su 09:00-17:00,Western Union,Q861042
4db42ce87b4151147d65d07b97fae95f,western_union,NRB BANK LIMITED,,Dhaka,DHAKA,,BD,+880 1819-919399,https://location.westernunion.com/bd/dhaka/dhaka/4db42ce87b4151147d65d07b97fae95f,Mo-Th 10:00-18:00; Fr 00:00-10:00; Sa 10:00-14:00; Su 10:00-18:00,Western Union,Q861042
6b95a51d3b4cbe876b6ac0f28279b389,western_union,SOCIAL ISLAMI BANK LIMITED,,Dhaka,DHAKA,,BD,(+880) 01-1713139008,https://location.westernunion.com/bd/dhaka/dhaka/6b95a51d3b4cbe876b6ac0f28279b389,Mo-Th 10:00-17:00; Sa 09:00-14:00; Su 10:00-17:00,Western Union,Q861042
38cce7478afd1d11bd737a644a098a3f,western_union,GLOBAL ISLAMI BANK LTD,,Dhaka,DHAKA,,BD,+880 1955-500798,https://location.westernunion.com/bd/dhaka/dhaka/38cce7478afd1d11bd737a644a098a3f,Mo-Th 10:00-17:00; Su 10:00-17:00,Western Union,Q861042
a514ee8af3aea370779b4f40eef6f441,western_union,ONE BANK LIMITED,,Dhaka,DHAKA,,BD,(+880) 02-29890138,https://location.westernunion.com/bd/dhaka/dhaka/a514ee8af3aea370779b4f40eef6f441,Mo-Th 09:00-17:00; Sa-Su 09:00-17:00,Western Union,Q861042
03d0a6ec797e0820b6c0cb8a3cfc28ad,western_union,SBAC BANK LIMITED,,Dhaka,DHAKA,,BD,+880 1762-290897,https://location.westernunion.com/bd/dhaka/dhaka/03d0a6ec797e0820b6c0cb8a3cfc28ad,Mo-Th 10:00-18:00; Sa 10:00-14:00; Su 10:00-18:00,Western Union,Q861042
95d39480a588238ce3a9a10a006b5547,western_union,SHAHJALAL ISLAMI BANK LIMITED,,Dhaka,DHAKA,,BD,(+880) 02-29890520-110,https://location.westernunion.com/bd/dhaka/dhaka/95d39480a588238ce3a9a10a006b5547,Mo-Th 09:00-17:00; Sa-Su 09:00-17:00,Western Union,Q861042
854267fc7199903786b9d8d546e36c4b,western_union,UTTARA BANK LIMITED,,Dhaka,DHAKA,,BD,+880 1991-144140,https://location.westernunion.com/bd/dhaka/dhaka/854267fc7199903786b9d8d546e36c4b,Mo-Th 10:00-18:00; Su 10:00-18:00,Western Union,Q861042
262429cfcf53f8979c5e022b8060734e,western_union,DHAKA BANK LIMITED,,Dhaka,DHAKA,,BD,+880 1818-418370,https://location.westernunion.com/bd/dhaka/dhaka/262429cfcf53f8979c5e022b8060734e,Mo-Th 10:00-18:00; Su 10:00-18:00,Western Union,Q861042
505b0e8f2779bdb65ccf6d233e3c4e60,western_union,BANGLADESH COMMERCE BANK LIMITED,,Dhaka,DHAKA,,BD,+880 1818-091910,https://location.westernunion.com/bd/dhaka/dhaka/505b0e8f2779bdb65ccf6d233e3c4e60,Mo-Th 10:00-18:00; Sa 10:00-14:00; Su 10:00-18:00,Western Union,Q861042
828c32b392bf0f6186f7b686a457b099,western_union,DUTCH BANGLA BANK LIMITED,,Dhaka,DHAKA,,BD,(+880) 06257-26257794,https://location.westernunion.com/bd/dhaka/dhaka/828c32b392bf0f6186f7b686a457b099,Mo-Th 09:00-17:00; Fr 09:30-15:00; Sa 09:30-17:00; Su 09:00-17:00,Western Union,Q861042
7db56ad4cebd4be75ec06dcc3ffd6b30,western_union,SOUTHEAST BANK LIMITED,,Dhaka,DHAKA,,BD,(+880) 2-9571115-424,https://location.westernunion.com/bd/dhaka/dhaka/7db56ad4cebd4be75ec06dcc3ffd6b30,Mo-Th 09:00-17:00; Sa-Su 09:00-17:00,Western Union,Q861042
1defeeff9b3270186ed2ceef0af2e9dd,western_union,SONALI BANK LIMITED,,Dhaka,DHAKA,,BD,+880 1712-117360,https://location.westernunion.com/bd/dhaka/dhaka/1defeeff9b3270186ed2ceef0af2e9dd,Mo-Th 10:00-16:00; Fr-Sa 09:00-16:00; Su 10:00-16:00,Western Union,Q861042
2557ad703924a1c8863dd67a3a2f5d66,western_union,UTTARA BANK LIMITED,,Dhaka,DHAKA,,BD,(+880) 02-1991144135,https://location.westernunion.com/bd/dhaka/dhaka/2557ad703924a1c8863dd67a3a2f5d66,Mo-Th 09:00-17:00; Fr 09:30-15:00; Sa 09:30-17:00; Su 09:00-17:00,Western Union,Q861042
105f18941ecbc82959c9dde9c09cfa54,western_union,UTTARA BANK LIMITED,,Dhaka,DHAKA,,BD,+880 1991-144118,https://location.westernunion.com/bd/dhaka/dhaka/105f18941ecbc82959c9dde9c09cfa54,Mo-Th 09:00-17:00; Fr 09:30-15:00; Sa 09:30-17:00; Su 09:00-17:00,Western Union,Q861042
fe6682ccb147127d6b393c15b8e5314b,western_union,SOCIAL ISLAMI BANK LIMITED,,Dhaka,DHAKA,,BD,(+880) 01-1713139070,https://location.westernunion.com/bd/dhaka/dhaka/fe6682ccb147127d6b393c15b8e5314b,Mo-Th 10:00-17:00; Sa 09:00-14:00; Su 10:00-17:00,Western Union,Q861042
585ca3c017b2fd3209b69efb3cf27f13,western_union,BANGLADESH KRISHI BANK,,Dhaka,DHAKA,,BD,(+880) 02-29565848,https://location.westernunion.com/bd/dhaka/dhaka/585ca3c017b2fd3209b69efb3cf27f13,Mo-Su 09:00-17:00,Western Union,Q861042
486ccdbc1f3b4d12c62e028da47edefa,western_union,JANATA BANK LIMITED,,Dhaka,DHAKA,,BD,+880 1818-663538,https://location.westernunion.com/bd/dhaka/dhaka/486ccdbc1f3b4d12c62e028da47edefa,Mo-Th 09:00-17:00; Fr 09:30-15:00; Sa 09:30-17:00; Su 09:00-17:00,Western Union,Q861042
4f129e5686e3f8734ff20dab231a31a6,western_union,THE PREMIER BANK LIMITED,,Dhaka,DHAKA,,BD,(+880) 9853503,https://location.westernunion.com/bd/dhaka/dhaka/4f129e5686e3f8734ff20dab231a31a6,Mo-Th 09:00-17:00; Sa-Su 09:00-17:00,Western Union,Q861042
44f9cb511a6cf93f97ed3af878cfe15a,western_union,MUTUAL TRUST BANK LIMITED,,Dhaka,DHAKA,,BD,+880 1711-465250,https://location.westernunion.com/bd/dhaka/dhaka/44f9cb511a6cf93f97ed3af878cfe15a,Mo-Th 09:00-17:00; Sa-Su 09:00-17:00,Western Union,Q861042
38d23555faf156e5d657c19583fd8bb0,western_union,BANK ASIA LIMITED,,Dhaka,DHAKA,,BD,(+880) 02-28824467,https://location.westernunion.com/bd/dhaka/dhaka/38d23555faf156e5d657c19583fd8bb0,Mo-Th 09:45-18:00; Fr 09:30-15:00; Sa 09:30-17:00; Su 09:45-18:00,Western Union,Q861042
bd2c8b0484b46f267c4ca655a3657b2b,western_union,DHAKA BANK LIMITED,,Dhaka,DHAKA,,BD,(+880) 02-28816442,https://location.westernunion.com/bd/dhaka/dhaka/bd2c8b0484b46f267c4ca655a3657b2b,Mo-Th 09:00-17:00; Fr 09:30-15:00; Sa 09:30-17:00; Su 09:00-17:00,Western Union,Q861042
d7dd8ba625fdd3dc2f9f7af95fd83bff,western_union,NRB COMMERCIAL BANK LIMITED,,Dhaka,DHAKA,,BD,+880 1788-866065,https://location.westernunion.com/bd/dhaka/dhaka/d7dd8ba625fdd3dc2f9f7af95fd83bff,Mo-Th 10:00-16:00; Su 10:00-16:00,Western Union,Q861042
a5146cd6f30feba790449eb5b3092bb1,western_union,EXIM BANK LTD,,Dhaka,DHAKA,,BD,+880 1716-878444,https://location.westernunion.com/bd/dhaka/dhaka/a5146cd6f30feba790449eb5b3092bb1,Mo-Th 10:00-17:00; Su 10:00-17:00,Western Union,Q861042
c5ee605bf0daaef3bd22f1af0f219e9d,western_union,AB BANK LIMITED,,Dhaka,DHAKA,,BD,(+880) 09-842567,https://location.westernunion.com/bd/dhaka/dhaka/c5ee605bf0daaef3bd22f1af0f219e9d,Mo-Th 09:30-17:00; Su 09:30-17:00,Western Union,Q861042
b1caa45dd6fe208300e409cb698cc43e,western_union,UNITED COMMERCIAL BANK LIMITED,,Dhaka,DHAKA,,BD,+880 1894-924638,https://location.westernunion.com/bd/dhaka/dhaka/b1caa45dd6fe208300e409cb698cc43e,Mo-Th 09:30-18:00; Su 09:30-18:00,Western Union,Q861042
70f9d9190cad53bc3a905572960f4480,western_union,SHAHJALAL ISLAMI BANK LIMITED,,Dhaka,DHAKA,,BD,+880 2-8827694,https://location.westernunion.com/bd/dhaka/dhaka/70f9d9190cad53bc3a905572960f4480,Mo-Th 09:00-17:00; Sa-Su 09:00-17:00,Western Union,Q861042
d57293b5b60e19da4b061fc438a705d0,western_union,JAMUNA BANK LIMITED,,Dhaka,DHAKA,,BD,+880 2-9887269,https://location.westernunion.com/bd/dhaka/dhaka/d57293b5b60e19da4b061fc438a705d0,Mo-Th 09:00-17:00; Sa-Su 09:00-17:00,Western Union,Q861042
c8a146bd416b3087c1991fdb69896b98,western_union,TRUST BANK LIMITED,,Dhaka,DHAKA,,BD,(+880) 02-1712006299,https://location.westernunion.com/bd/dhaka/dhaka/c8a146bd416b3087c1991fdb69896b98,Mo-Th 09:00-17:00; Fr 09:30-15:00; Sa 09:30-17:00; Su 09:00-17:00,Western Union,Q861042
9a04dbe08ac039bf578de6bf50bec5b2,western_union,JANATA BANK LIMITED,,Dhaka,DHAKA,,BD,+880 1818-718546,https://location.westernunion.com/bd/dhaka/dhaka/9a04dbe08ac039bf578de6bf50bec5b2,Mo-Th 09:00-17:00; Fr 09:30-15:00; Sa 09:30-17:00; Su 09:00-17:00,Western Union,Q861042
1d00a3440063e8d4cd887fa9a93d984f,western_union,PUBALI BANK LIMITED,,Dhaka,DHAKA,,BD,+880 1713-755834,https://location.westernunion.com/bd/dhaka/dhaka/1d00a3440063e8d4cd887fa9a93d984f,Mo-Th 10:00-16:00; Su 10:00-16:00,Western Union,Q861042
042c67bed627753e13742c58e8fdd196,western_union,EXIM BANK LIMITED,,Dhaka,DHAKA,,BD,+880 1712-657399,https://location.westernunion.com/bd/dhaka/dhaka/042c67bed627753e13742c58e8fdd196,Mo-Th 10:00-17:00; Sa-Su 10:00-17:00,Western Union,Q861042
b4efc7e7f8e8efc326c351b02154b5a8,western_union,AGRANI BANK LIMITED,,Dhaka,DHAKA,,BD,+880 1816-068033,https://location.westernunion.com/bd/dhaka/dhaka/b4efc7e7f8e8efc326c351b02154b5a8,Mo-Th 09:00-17:00; Fr 09:30-15:00; Sa 09:30-17:00; Su 09:00-17:00,Western Union,Q861042
f01707c53fe36052788916c728661213,western_union,ASA,,Dhaka,DHAKA,,BD,+880 1730-098191,https://location.westernunion.com/bd/dhaka/dhaka/f01707c53fe36052788916c728661213,Mo-Th 08:00-19:00; Sa-Su 08:00-19:00,Western Union,Q861042
e740c773e6d46cf2179194c683c71f3f,western_union,GLOBAL ISLAMI BANK LTD,,Dhaka,DHAKA,,BD,+880 1711-231690,https://location.westernunion.com/bd/dhaka/dhaka/e740c773e6d46cf2179194c683c71f3f,Mo-Th 10:00-17:00; Fr 09:30-15:00; Sa 09:30-17:00; Su 10:00-17:00,Western Union,Q861042
cb30facd9bd73302c3ae768e0d015132,western_union,UNION BANK LIMITED,,Dhaka,DHAKA,,BD,+880 1711-375188,https://location.westernunion.com/bd/dhaka/dhaka/cb30facd9bd73302c3ae768e0d015132,Mo-Th 10:00-17:00; Sa-Su 10:00-17:00,Western Union,Q861042
49e4bd89413eadad7f023e963f569ba5,western_union,EXIM BANK LIMITED,,Dhaka,DHAKA,,BD,(+880) 06257-6257921,https://location.westernunion.com/bd/dhaka/dhaka/49e4bd89413eadad7f023e963f569ba5,Mo-Th 09:00-17:00; Fr 09:30-15:00; Sa 09:30-17:00; Su 09:00-17:00,Western Union,Q861042
4077d2a9f5bd7b7a4eda91f2ea16a214,western_union,SOUTHEAST BANK LIMITED,,Dhaka,DHAKA,,BD,+880 1912-104764,https://location.westernunion.com/bd/dhaka/dhaka/4077d2a9f5bd7b7a4eda91f2ea16a214,Mo-Th 10:00-16:00; Sa-Su 10:00-16:00,Western Union,Q861042
595c76b1d8048ba677105f820bfb5d11,western_union,BRAC BANK LIMITED,,Dhaka,DHAKA,,BD,(+880) 02-29884292,https://location.westernunion.com/bd/dhaka/dhaka/595c76b1d8048ba677105f820bfb5d11,Mo-Th 09:00-17:00; Fr 09:30-15:00; Sa 09:30-17:00; Su 09:00-17:00,Western Union,Q861042
0dbba25e7f947e209160a30527ebe8fc,western_union,ONE BANK LTD,,Dhaka,DHAKA,,BD,+880 1313-799220,https://location.westernunion.com/bd/dhaka/dhaka/0dbba25e7f947e209160a30527ebe8fc,Mo-Th 10:00-17:00; Sa-Su 10:00-17:00,Western Union,Q861042
4d2c62548cfc7d1989aff513af2483a6,western_union,ONE BANK LTD,,Dhaka,DHAKA,,BD,+880 1313-799134,https://location.westernunion.com/bd/dhaka/dhaka/4d2c62548cfc7d1989aff513af2483a6,Mo-Th 10:00-17:00; Sa-Su 10:00-17:00,Western Union,Q861042
232fdb4101d2a718a37f4ae236d0e63c,western_union,NRB BANK LIMITED,,Dhaka,DHAKA,,BD,+880 1749-590923,https://location.westernunion.com/bd/dhaka/dhaka/232fdb4101d2a718a37f4ae236d0e63c,Mo-Th 10:00-18:00; Sa 10:00-14:00; Su 10:00-18:00,Western Union,Q861042
3fd16a15a8ca4293aac322f8468f2b57,western_union,PUBALI BANK LIMITED,,Dhaka,DHAKA,,BD,+880 1958-364923,https://location.westernunion.com/bd/dhaka/dhaka/3fd16a15a8ca4293aac322f8468f2b57,Mo-Th 10:00-17:00; Su 10:00-17:00,Western Union,Q861042
bd06f068671400d197031c3bd01ee328,western_union,THE PREMIER BANK LTD,,Dhaka,DHAKA,,BD,+880 1712-119827,https://location.westernunion.com/bd/dhaka/dhaka/bd06f068671400d197031c3bd01ee328,Mo-Th 10:00-17:00; Sa-Su 10:00-17:00,Western Union,Q861042
e76259ca81e04e1c0764c9c5781c7999,western_union,GLOBAL ISLAMI BANK LTD,,Dhaka,DHAKA,,BD,+880 1730-325809,https://location.westernunion.com/bd/dhaka/dhaka/e76259ca81e04e1c0764c9c5781c7999,Mo-Th 10:00-17:00; Su 10:00-17:00,Western Union,Q861042
900feb1538a6aa47a6e2008cc4f028c9,western_union,SOCIAL ISLAMI BANK LIMITED,,Dhaka,DHAKA,,BD,(+880) 01-1712912578,https://location.westernunion.com/bd/dhaka/dhaka/900feb1538a6aa47a6e2008cc4f028c9,Mo-Th 10:00-17:00; Su 10:00-17:00,Western Union,Q861042
7d9b7464178ee4cc55bf09b99649a079,western_union,GLOBAL ISLAMI BANK LTD,,Dhaka,DHAKA,,BD,+880 1714-300359,https://location.westernunion.com/bd/dhaka/dhaka/7d9b7464178ee4cc55bf09b99649a079,Mo-Th 10:00-17:00; Sa-Su 10:00-17:00,Western Union,Q861042
db1ee5e7c76d5afa4533a1f347569102,western_union,PUBALI BANK LIMITED,,Dhaka,DHAKA,,BD,+880 1711-401317,https://location.westernunion.com/bd/dhaka/dhaka/db1ee5e7c76d5afa4533a1f347569102,Mo-Th 09:00-17:00; Fr 09:30-15:00; Sa 09:30-17:00; Su 09:00-17:00,Western Union,Q861042
8febb9558234cc565e516dc5c1d88cc6,western_union,UNITED COMMERCIAL BANK LIMITED,,Dhaka,DHAKA,,BD,(+880) 02-1730001211,https://location.westernunion.com/bd/dhaka/dhaka/8febb9558234cc565e516dc5c1d88cc6,Mo-Th 09:30-17:00; Fr 09:30-15:00; Sa-Su 09:30-17:00,Western Union,Q861042
331fc92547fd36fe316ed7fc3c100b19,western_union,BANK ASIA LIMITED,,Dhaka,DHAKA,,BD,(+880) 02-28333978,https://location.westernunion.com/bd/dhaka/dhaka/331fc92547fd36fe316ed7fc3c100b19,Mo-Th 09:45-18:00; Fr 09:30-15:00; Sa 09:30-17:00; Su 09:45-18:00,Western Union,Q861042
6d9288420fbfd05a89f6ba4e0dfbbe18,western_union,PUBALI BANK LIMITED,,Dhaka,DHAKA,,BD,+880 1711-401280,https://location.westernunion.com/bd/dhaka/dhaka/6d9288420fbfd05a89f6ba4e0dfbbe18,Mo-Th 09:00-17:00; Fr 09:30-15:00; Sa 09:30-17:00; Su 09:00-17:00,Western Union,Q861042
a554045ea945fc63991aea777151e2c5,western_union,SHAHJALAL ISLAMI BANK LIMITED,,Dhaka,DHAKA,,BD,(+880) 02-28840199-293,https://location.westernunion.com/bd/dhaka/dhaka/a554045ea945fc63991aea777151e2c5,Mo-Th 09:00-17:00; Sa-Su 09:00-17:00,Western Union,Q861042
d4fb9a9de3f697726a3418defc90990b,western_union,EASTERN BANK LIMITED,,Dhaka,DHAKA,,BD,+880 2-9896073,https://location.westernunion.com/bd/dhaka/dhaka/d4fb9a9de3f697726a3418defc90990b,Mo-Th 10:00-17:00; Fr 09:30-15:00; Sa 09:30-17:00; Su 10:00-17:00,Western Union,Q861042
4d79159dbbd8ec141e78c4a81a35591b,western_union,STANDARD BANK LIMITED,,Dhaka,DHAKA,,BD,(+880) 27546147,https://location.westernunion.com/bd/dhaka/dhaka/4d79159dbbd8ec141e78c4a81a35591b,Mo-Th 09:00-17:00; Fr 09:30-15:00; Sa 09:30-17:00; Su 09:00-17:00,Western Union,Q861042
1266846283622270226c7fb20120c779,western_union,STANDARD BANK LIMITED,,Dhaka,DHAKA,,BD,+880 2-7311243,https://location.westernunion.com/bd/dhaka/dhaka/1266846283622270226c7fb20120c779,Mo-Th 09:00-17:00; Fr 09:30-15:00; Sa 09:30-17:00; Su 09:00-17:00,Western Union,Q861042
61fa8bab96e2bb53ae0e9901a0f5a3e1,western_union,MUTUAL TRUST BANK LIMITED,,Dhaka,DHAKA,,BD,+880 2-9882473,https://location.westernunion.com/bd/dhaka/dhaka/61fa8bab96e2bb53ae0e9901a0f5a3e1,Mo-Th 09:00-17:00; Sa-Su 09:00-17:00,Western Union,Q861042
c3ae2c4dfacf114ba259d1bf67d7cb58,western_union,DHAKA BANK LIMITED,,Dhaka,DHAKA,,BD,(+880) 02-28832063,https://location.westernunion.com/bd/dhaka/dhaka/c3ae2c4dfacf114ba259d1bf67d7cb58,Mo-Th 09:00-17:00; Fr 09:30-15:00; Sa 09:30-17:00; Su 09:00-17:00,Western Union,Q861042
993eb51ef31b175b29899ddea48c9b85,western_union,AL ARAFAH ISLAMI BANK LIMITED,,Narayangonj,DHAKA,,BD,(+880) 27661317,https://location.westernunion.com/bd/dhaka/narayangonj/993eb51ef31b175b29899ddea48c9b85,Mo-Th 09:00-17:00; Fr 09:30-15:00; Sa 09:30-17:00; Su 09:00-17:00,Western Union,Q861042
