Ref,Spider,Name,Address,City,State,Zipcode,Country,Phone,Website,Hours,Brand,WikiData
200207,bluerhino,Kwik Stop Market,,Mojave,CA,,US,+1 661-824-4675,,,Blue Rhino,Q65681213
204764,bluerhino,Mojave Shell And Mini Mart,,Mojave,CA,,US,+1 661-824-2355,,,Blue Rhino,Q65681213
101418,bluerhino,Fastrip #38,,Mojave,CA,,US,+1 661-824-9257,,,Blue Rhino,Q65681213
161230,bluerhino,Karl's Hardware Mojave #3976,,Mojave,CA,,US,+1 661-824-3422,,,Blue Rhino,Q65681213
246451,dennys,Denny's,,Mojave,CA,,US,+1 661-824-1748,https://locations.dennys.com/CA/MOJAVE/246451,Mo-Su 05:00-24:00,Denny's,Q1189695
100037,electrify_america,"Comfort Inn & Suites - Mojave, CA",,Mojave,CA,,US,,,,Electrify America,Q59773555
30107,family_dollar_us,FAMILY DOLLAR #10107,,Mojave,CA,,US,+1 661-754-7000,https://www.familydollar.com/locations/ca/mojave/30107/,Mo-Su 08:00-22:00,Family Dollar,Q5433101
Motorcraft1734USAEnglish,ford,Kieffe & Sons Ford,,California,CA,,US,+1 661-824-2477,,,Ford,Q44294
https://locations.jackinthebox.com/us/ca/mojave/15536-highway-14,jackinthebox,Jack in the Box,,Mojave,CA,,US,+1 661-824-5303,https://locations.jackinthebox.com/us/ca/mojave/15536-highway-14,Mo-Su 05:00-00:00,Jack in the Box,Q1538507
94899,little_free_library,Rose Library #94899 Mojave CA,,Mojave,CA,,US,,,,Little Free Library,Q6650101
286397,marathon_petroleum_us,ARCO #42536 AMPM,,Mojave,CA,,US,+1 661-824-4755,,,Arco,Q304769
102,stater_bros_us,Stater Bros. Markets Mojave,"16920 State Hwy 14, Mojave, CA 93501, USA",Mojave,CA,,US,+1 661-824-2719,https://www.staterbros.com/stores/102,Mo-Su 06:00-23:00,Stater Bros.,Q7604016
https://restaurants.subway.com/#14906631,subway,Subway Shell Gas Station,,Mojave Kern,CA,,US,+1 661-824-9341,https://restaurants.subway.com/united-states/ca/mojave/16048-sierra-highway,Mo-Sa 04:00-22:00; Su 06:00-22:00,Subway,Q244457
048357,uhaul,Freeway Smog & Auto Repair LLC,16158 K St,Mojave,CA,,US,+1 661-584-4218,,Mo-Fr 00:00-17:00,U-Haul,Q7862902
1440437,usps,CANTIL,,MOJAVE,CA,,US,+1 760-373-1146,,Mo-Fr 09:00-16:30,United States Postal Service,Q668687
1373469,usps,MOJAVE,,MOJAVE,CA,,US,+1 661-824-3502,,"Mo-Fr 09:00-13:00,14:00-16:00",United States Postal Service,Q668687
9350100010,usps_collection_boxes,USPS COLLECTION BOX - PO LOBBY,2053 BELSHAW ST,MOJAVE,CA,,US,,,,United States Postal Service,Q668687
9350100001,usps_collection_boxes,USPS COLLECTION BOX - BLUE BOX,2053 BELSHAW ST,MOJAVE,CA,,US,,,,United States Postal Service,Q668687
9350100012,usps_collection_boxes,USPS COLLECTION BOX - PO LOBBY,2053 BELSHAW ST,MOJAVE,CA,,US,,,,United States Postal Service,Q668687
9350100011,usps_collection_boxes,USPS COLLECTION BOX - BLUE BOX,1773 HIGHWAY 58,MOJAVE,CA,,US,,,,United States Postal Service,Q668687
10973,vestis_uniform_services_us,Vestis Mojave,,Mojave,CA,,US,+1 661-232-0490,https://www.vestis.com/our-locations/vestis-mojave,,Vestis,Q122947676
,visa,,,MOJAVE,CA,,US,,,,,
,visa,,,MOJAVE,CA,,US,,,,,
,visa,,,MOJAVE,CA,,US,,,,,
,visa,,,MOJAVE,CA,,US,,,,,
,visa,,,MOJAVE,CA,,US,,,,,
,visa,,,MOJAVE,CA,,US,,,,,
,visa,,,MOJAVE,CA,,US,,,,,
,visa,,,MOJAVE,CA,,US,,,,,
,visa,,,MOJAVE,CA,,US,,,,,
,visa,,,TEHACHAPI,CA,,US,,,,,
9427be6c994fc6900c8d5c0c20b0f1f3,western_union,OASIS TRAVEL STOP,,Mojave,CA,,US,+1 661-232-5040,https://location.westernunion.com/us/ca/mojave/9427be6c994fc6900c8d5c0c20b0f1f3,Mo-Su 04:00-23:00,Western Union,Q861042
c7fa812068a2dfc96402707a9cecc07b,western_union,REGALOS Y MAS,,Mojave,CA,,US,+1 661-824-8645,https://location.westernunion.com/us/ca/mojave/c7fa812068a2dfc96402707a9cecc07b,Mo-Fr 10:00-18:00; Sa 10:00-16:00,Western Union,Q861042
