Ref,Spider,Name,Address,City,State,Zipcode,Country,Phone,Website,Hours,Brand,WikiData
https://stores.aldi.us/#4419882,aldi_sud_us,ALDI  6 Van Dyke Avenue,,New Brunswick,NJ,,US,+1 844-460-7063,https://stores.aldi.us/nj/new-brunswick/6-van-dyke-avenue,"Mo-Su 08:30-20:00,09:00-20:00",ALDI,Q41171672
https://locations.auntieannes.com/#1393535433535334439,auntie_annes,Auntie Anne's New Brunswick,,New Brunswick,NJ,,US,+1 856-535-3856,https://locations.auntieannes.com/nj/new-brunswick/130-easton-avenue,Mo 11:00-19:00; Tu-Th 09:00-19:00; Fr-Su 09:00-22:00,Auntie Anne's,Q4822010
1670,autozone_us,AutoZone Auto Parts New Brunswick,,New Brunswick,NJ,,US,+1 732-249-1574,https://www.autozone.com/locations/nj/new-brunswick/690-somerset-st.html,Mo-Sa 07:30-21:00; Su 08:00-21:00,AutoZone,Q4826087
https://locators.bankofamerica.com/nj/newbrunswick/financial-centers-new-brunswick-15139.html,bankofamerica,Bank of America Financial Center & Drive-Thru ATM | New Brunswick-Livingston,,New Brunswick,NJ,,US,+1 732-447-2846,https://locators.bankofamerica.com/nj/newbrunswick/financial-centers-new-brunswick-15139.html,Mo-Fr 09:00-17:00; Sa 09:00-14:00,Bank of America,Q487907
https://locators.bankofamerica.com/nj/newbrunswick/financial-centers-new-brunswick-14803.html,bankofamerica,Bank of America Financial Center & Walk-Up ATM | New Brunswick Main,,New Brunswick,NJ,,US,+1 732-846-3351,https://locators.bankofamerica.com/nj/newbrunswick/financial-centers-new-brunswick-14803.html,Mo-Fr 10:00-16:00,Bank of America,Q487907
https://locators.bankofamerica.com/nj/newbrunswick/atm-new-brunswick-105695.html,bankofamerica,Bank of America Walk-Up ATM | Rutgers University - New Brunswick,,New Brunswick,NJ,,US,+1 844-401-8500,https://locators.bankofamerica.com/nj/newbrunswick/atm-new-brunswick-105695.html,,Bank of America,Q487907
Rutgers University – New Brunswick,barnesnoblecollege,Rutgers University – New Brunswick,,Brunswick,NJ,,US,,https://www.bncollege.com/campus-stores/,,Barnes & Noble College,Q4861508
152886,bluerhino,Walgreens #6908,,New Brunswick,NJ,,US,+1 732-846-9360,,,Blue Rhino,Q65681213
26697948331870890100100000000000,bp,BP,,New Brunswick,NJ,,US,+1 732-247-4250,,Mo-Su 06:30-23:00,BP,Q152057
7716,careone_us,LTACH CareOne at Saint Peter’s University Hospital,,New Brunswick,NJ,,US,+1 732-561-3800,,,CareOne,Q25108589
19482477,chase_us,George St and Bayard - New branch,,New Brunswick,NJ,,US,+1 732-227-0112,https://locator.chase.com/nj/new-brunswick/349-george-st,Mo-Fr 09:00-17:00,Chase,Q524629
71798649,chase_us,INDOOR - 878469,,NEW BRUNSWICK,NJ,,US,+1 800-935-9935,https://locator.chase.com/nj/new-brunswick/1-robert-wood-johnson-pl,,Chase,Q524629
nj_new-brunswick_387-george-st,chipotle, ,,New Brunswick,NJ,,US,+1 732-993-1601,https://locations.chipotle.com/nj/new-brunswick/387-george-st,,Chipotle,Q465751
350066,dunkin_us,Dunkin',,New Brunswick,NJ,,US,+1 848-932-9775,https://locations.dunkindonuts.com/en/nj/new-brunswick/100-george-st/350066,Mo-Fr 08:00-16:00; Sa-Su 00:00-24:00,Dunkin',Q847743
337570,dunkin_us,Dunkin',,New Brunswick,NJ,,US,+1 732-246-8565,https://locations.dunkindonuts.com/en/nj/new-brunswick/720-somerset-st/337570,24/7,Dunkin',Q847743
345216,dunkin_us,Dunkin',,New Brunswick,NJ,,US,+1 732-249-4929,https://locations.dunkindonuts.com/en/nj/new-brunswick/18a-elizabeth-street/345216,Mo-Su 05:30-21:00,Dunkin',Q847743
340510,dunkin_us,Dunkin',,New Brunswick,NJ,,US,+1 732-246-2070,https://locations.dunkindonuts.com/en/nj/new-brunswick/335-george-st/340510,Mo-Su 05:00-21:00,Dunkin',Q847743
337947,dunkin_us,Dunkin',,New Brunswick,NJ,,US,+1 732-220-1270,https://locations.dunkindonuts.com/en/nj/new-brunswick/1-railroad-plz/337947,Mo-Su 05:00-20:00,Dunkin',Q847743
E12479,enterprise,New Brunswick,,New Brunswick,NJ,,US,+1 732-214-1022,,,Enterprise Rent-A-Car,Q17085454
1969,extra_space_storage,New Brunswick Self Storage at 1007 Jersey Ave,,New Brunswick,NJ,,US,+1 732-543-7152,https://www.extraspace.com/storage/facilities/us/new_jersey/new_brunswick/1969/,Mo-Fr 09:30-18:00; Sa 09:00-17:30,Extra Space Storage,Q5422162
200315987,exxonmobil,NEW BRUNSWICK EXXON,,NEW BRUNSWICK,NJ,,US,+1 732-545-4445,https://www.exxon.com/en/find-station/exxon-newbrunswick-nj-newbrunswickexxon-200315987,24/7,Exxon,Q109675651
200315986,exxonmobil,COMMERCIAL EXXON,,NEW BRUNSWICK,NJ,,US,+1 732-418-0660,https://www.exxon.com/en/find-station/exxon-newbrunswick-nj-commercialexxon-200315986,24/7,Exxon,Q109675651
28809,h_r_block,H&R Block,,New Brunswick,NJ,,US,+1 732-828-2405,https://www.hrblock.com/local-tax-offices/new-jersey/new-brunswick/brunswick-town-center/28809/,,H&R Block,Q5627799
2532,key_food_us,Food Universe,,New Brunswick,NJ,,US,+1 732-545-3031,https://fooduniverse.keyfood.com/store/store/2532,Mo-Sa 07:00-21:00; Su 08:00-20:00,Food Universe,
73856304,moneygram,ENVIOS LOS PAISAS LLC,,NEW BRUNSWICK,NJ,,US,+1 732-253-0353,,Mo-Su 08:00-21:00,MoneyGram,Q1944412
74591888,moneygram,BRUNSWICK BEAUTY SALON,,NEW BRUNSWICK,NJ,,US,+1 732-640-2766,,Mo-Su 08:00-21:00,MoneyGram,Q1944412
74181638,moneygram,SPANISH CORNER DELI,,NEW BRUNSWICK,NJ,,US,+1 732-828-4111,,Mo-Sa 07:00-20:30; Su 08:00-20:00,MoneyGram,Q1944412
74720769,moneygram,LA GUELAGUETZA #2 - NEW BRUNSWICK,,NEW BRUNSWICK,NJ,,US,+1 732-354-3223,,Mo-Su 09:00-20:00,MoneyGram,Q1944412
72867019,moneygram,MI GENTE MULTISERVICE - #214 - NEW BRUNS,,NEW BRUNSWICK,NJ,,US,+1 732-317-8314,,Mo-Fr 08:30-21:30; Sa-Su 09:00-19:00,MoneyGram,Q1944412
45766325,moneygram,BRUNSWICK COMMUNICATION,,NEW BRUNSWICK,NJ,,US,+1 732-545-8383,,Mo-Su 07:30-21:30,MoneyGram,Q1944412
https://locations.mtb.com/#25083312,mt_bank_us,,,,NJ,,US,+1 800-724-2440,https://locations.mtb.com/nj/newbrunswick/bank-branches-and-atms-new-brunswick-nj-lk330658.html,24/7,M&T Bank,Q3272257
648321,penske,Super Tool Automotive,,NEW BRUNSWICK,NJ,,US,+1 732-254-1327,https://www.pensketruckrental.com/locations/us/new_jersey/new_brunswick/648321/,,Penske,Q81234570
restaurant_85372,popeyes_us_fr,Popeyes,"375 George Street New Brunswick, New Jersey 08901 - USA",New Brunswick,NJ,,US,+1 732-253-7315,https://www.popeyes.com/store-locator/store/restaurant_85372,Mo 10:30-23:30; Tu 10:30-23:00; We-Th 10:30-23:30; Fr-Sa 10:30-01:00; Su 10:30-23:30,Popeyes,Q1330910
1848,rentacenter,Rent-A-Center,,New Brunswick,NJ,,US,+1 732-246-2201,https://locations.rentacenter.com/new-jersey/new-brunswick/28-elizabeth-st/,Mo-Sa 10:00-18:00,Rent-A-Center,Q7313497
00407,rite_aid_us,Rite Aid #00407 New Brunswick,,New Brunswick,NJ,,US,+1 732-247-2331,https://locations2.riteaid.com.yext-cdn.com/nj/new-brunswick/366-george-street.html,Mo-Fr 08:00-22:00; Sa 09:00-21:00; Su 09:00-20:00,Rite Aid,Q3433273
35664,seven_eleven_ca_us,7-11 Str   358 George St,,New Brunswick,NJ,,US,+1 732-247-1675,https://www.7-eleven.com/locations/nj/new-brunswick/358-george-st-35664,,7-Eleven,Q259340
https://restaurants.subway.com/#14894051,subway,Subway Rutgers Univ. Rsc Food Court,,New Brunswick Middlesex,NJ,,US,+1 732-296-1122,https://restaurants.subway.com/united-states/nj/new-brunswick/126-college-ave,Mo-Th 08:30-22:00; Fr 08:30-20:00; Sa-Su 11:00-20:00,Subway,Q244457
https://locations.tacobell.com/#6146987,taco_bell,Taco Bell,,New Brunswick,NJ,,US,+1 732-435-1300,https://locations.tacobell.com/nj/new-brunswick/1120-somerset-street.html,Mo-Th 08:00-01:00; Fr-Sa 08:00-02:00; Su 08:00-01:00,Taco Bell,Q752941
304E,tmobile_us,French St & Seaman St,,New Brunswick,NJ,,US,+1 732-317-3841,https://www.t-mobile.com/store-locator/nj/new-brunswick/french-st-seaman-st,,T-Mobile,Q3511885
7200,upsstore,New Brunswick,335 George St Ste 4,New Brunswick,NJ,,US,+1 732-354-4284,https://locations.theupsstore.com/nj/new-brunswick/335-george-st,,UPS Store,Q7771029
1432892,usps,HANDY STREET,,NEW BRUNSWICK,NJ,,US,+1 732-545-8148,,Mo-Fr 10:00-16:00; Sa 09:00-13:00,United States Postal Service,Q668687
1433617,usps,NEW BRUNSWICK,,NEW BRUNSWICK,NJ,,US,+1 732-545-6819,,Mo-Fr 08:00-17:00; Sa 08:00-12:00,United States Postal Service,Q668687
0890100081,usps_collection_boxes,USPS COLLECTION BOX - BLUE BOX,422 JERSEY AVE,NEW BRUNSWICK,NJ,,US,,,,United States Postal Service,Q668687
0890100045,usps_collection_boxes,USPS COLLECTION BOX - BLUE BOX,2 ELIZABETH ST,NEW BRUNSWICK,NJ,,US,,,,United States Postal Service,Q668687
0890100039,usps_collection_boxes,USPS COLLECTION BOX - BLUE BOX,260 REMSEN AVE,NEW BRUNSWICK,NJ,,US,,,,United States Postal Service,Q668687
0890100006,usps_collection_boxes,USPS COLLECTION BOX - BLUE BOX,234 PAUL ROBESON BLVD,NEW BRUNSWICK,NJ,,US,,,,United States Postal Service,Q668687
0890100001,usps_collection_boxes,USPS COLLECTION BOX - BLUE BOX,333 HANDY ST,NEW BRUNSWICK,NJ,,US,,,,United States Postal Service,Q668687
0890100106,usps_collection_boxes,USPS COLLECTION BOX - PO LOBBY,333 HANDY ST,NEW BRUNSWICK,NJ,,US,,,,United States Postal Service,Q668687
0890100112,usps_collection_boxes,USPS COLLECTION BOX - PO LOBBY,333 HANDY ST,NEW BRUNSWICK,NJ,,US,,,,United States Postal Service,Q668687
0890100011,usps_collection_boxes,USPS COLLECTION BOX - BLUE BOX,83 REMSEN AVE,NEW BRUNSWICK,NJ,,US,,,,United States Postal Service,Q668687
0890100073,usps_collection_boxes,USPS COLLECTION BOX - BLUE BOX,253 REDMOND ST,NEW BRUNSWICK,NJ,,US,,,,United States Postal Service,Q668687
0890100071,usps_collection_boxes,USPS COLLECTION BOX - BLUE BOX,167 NEW ST,NEW BRUNSWICK,NJ,,US,,,,United States Postal Service,Q668687
0890100014,usps_collection_boxes,USPS COLLECTION BOX - BLUE BOX,1 LITTLE ALBANY ST,NEW BRUNSWICK,NJ,,US,,,,United States Postal Service,Q668687
0890100072,usps_collection_boxes,USPS COLLECTION BOX - BLUE BOX,51 LIVINGSTON AVE,NEW BRUNSWICK,NJ,,US,,,,United States Postal Service,Q668687
0890100019,usps_collection_boxes,USPS COLLECTION BOX - BLUE BOX,254 EASTON AVE,NEW BRUNSWICK,NJ,,US,,,,United States Postal Service,Q668687
0890100065,usps_collection_boxes,USPS COLLECTION BOX - BLUE BOX,92 BAYARD ST,NEW BRUNSWICK,NJ,,US,,,,United States Postal Service,Q668687
0890100032,usps_collection_boxes,USPS COLLECTION BOX - BLUE BOX,279 GEORGE ST,NEW BRUNSWICK,NJ,,US,,,,United States Postal Service,Q668687
0890100062,usps_collection_boxes,USPS COLLECTION BOX - EXPRESS,86 BAYARD ST,NEW BRUNSWICK,NJ,,US,,,,United States Postal Service,Q668687
0890100108,usps_collection_boxes,USPS COLLECTION BOX - PO LOBBY,86 BAYARD ST,NEW BRUNSWICK,NJ,,US,,,,United States Postal Service,Q668687
0890100111,usps_collection_boxes,USPS COLLECTION BOX - PO LOBBY,86 BAYARD ST,NEW BRUNSWICK,NJ,,US,,,,United States Postal Service,Q668687
0890100068,usps_collection_boxes,USPS COLLECTION BOX - BLUE BOX,67 PATERSON ST,NEW BRUNSWICK,NJ,,US,,,,United States Postal Service,Q668687
0890100090,usps_collection_boxes,USPS COLLECTION BOX - BLUE BOX,303 GEORGE ST,NEW BRUNSWICK,NJ,,US,,,,United States Postal Service,Q668687
0890100105,usps_collection_boxes,USPS COLLECTION BOX - BLUE BOX,245 EASTON AVE,NEW BRUNSWICK,NJ,,US,,,,United States Postal Service,Q668687
0890100034,usps_collection_boxes,USPS COLLECTION BOX - BLUE BOX,366 GEORGE ST,NEW BRUNSWICK,NJ,,US,,,,United States Postal Service,Q668687
0890100101,usps_collection_boxes,USPS COLLECTION BOX - BLUE BOX,120 ALBANY ST,NEW BRUNSWICK,NJ,,US,,,,United States Postal Service,Q668687
0890100055,usps_collection_boxes,USPS COLLECTION BOX - BLUE BOX,390 GEORGE ST,NEW BRUNSWICK,NJ,,US,,,,United States Postal Service,Q668687
0890100096,usps_collection_boxes,USPS COLLECTION BOX - BLUE BOX,29 COLLEGE AVE,NEW BRUNSWICK,NJ,,US,,,,United States Postal Service,Q668687
0890100009,usps_collection_boxes,USPS COLLECTION BOX - BLUE BOX,61 CHURCH ST,NEW BRUNSWICK,NJ,,US,,,,United States Postal Service,Q668687
0890100051,usps_collection_boxes,USPS COLLECTION BOX - BLUE BOX,1 BARTLETT ST,NEW BRUNSWICK,NJ,,US,,,,United States Postal Service,Q668687
0890100074,usps_collection_boxes,USPS COLLECTION BOX - BLUE BOX,155 COLLEGE AVE,NEW BRUNSWICK,NJ,,US,,,,United States Postal Service,Q668687
0890100035,usps_collection_boxes,USPS COLLECTION BOX - BLUE BOX,1 PAULUS BLVD,NEW BRUNSWICK,NJ,,US,,,,United States Postal Service,Q668687
0890100026,usps_collection_boxes,USPS COLLECTION BOX - BLUE BOX,10 TUNISON RD,NEW BRUNSWICK,NJ,,US,,,,United States Postal Service,Q668687
0890100102,usps_collection_boxes,USPS COLLECTION BOX - BLUE BOX,50 REGENCY MANOR DR BLDG 8,NEW BRUNSWICK,NJ,,US,,,,United States Postal Service,Q668687
,visa,,,NEW BRUNSWICK,NJ,,US,,,,,
,visa,,,NEW BRUNSWICK,NJ,,US,,,,,
,visa,,,NEW BRUNSWICK,NJ,,US,,,,,
,visa,,,NEW BRUNSWICK,NJ,,US,,,,,
,visa,,,NEW BRUNSWICK,NJ,,US,,,,,
,visa,,,NEW BRUNSWICK,NJ,,US,,,,,
,visa,,,NEW BRUNSWICK,NJ,,US,,,,,
,visa,,,NEW BRUNSWICK,NJ,,US,,,,,
,visa,,,NEW BRUNSWICK,NJ,,US,,,,,
,visa,,,NEW BRUNSWICK,NJ,,US,,,,,
,visa,,,NEW BRUNSWICK,NJ,,US,,,,,
,visa,,,NEW BURNSWICK,NJ,,US,,,,,
,visa,,,NEW BRUNSWICK,NJ,,US,,,,,
,visa,,,NEW BRUNSWICK,NJ,,US,,,,,
,visa,,,NEW BRUNSWICK,NJ,,US,,,,,
,visa,,,NEW BRUNSWICK,NJ,,US,,,,,
,visa,,,NEW BRUNSWICK,NJ,,US,,,,,
,visa,,,NEW BRUNSWICK,NJ,,US,,,,,
,visa,,,NEW BRUNSWICK,NJ,,US,,,,,
,visa,,,NEW BRUNSWICK,NJ,,US,,,,,
,visa,,,NEW BRUNSWICK,NJ,,US,,,,,
,visa,,,NEW BRUNSWICK,NJ,,US,,,,,
,visa,,,NEW BRUNSWICK,NJ,,US,,,,,
,visa,,,NEW BRUNSWICK,NJ,,US,,,,,
,visa,,,NEW BRUNSWICK,NJ,,US,,,,,
,visa,,,NEW BRUNSWICK,NJ,,US,,,,,
,visa,,,NEW BRUNSWICK,NJ,,US,,,,,
,visa,,,NEW BRUNSWICK,NJ,,US,,,,,
,visa,,,NEW BRUNSWICK,NJ,,US,,,,,
,visa,,,NEW BRUNSWICK,NJ,,US,,,,,
https://www.walgreens.com/locator/walgreens-1+robert+wood+johnson+pl-new+brunswick-nj-08901/id=12097,walgreens,Walgreens,,New Brunswick,NJ,,US,+1 732-246-1745,https://www.walgreens.com/locator/walgreens-1+robert+wood+johnson+pl-new+brunswick-nj-08901/id=12097,Mo-Fr 08:00-20:00; Sa 09:00-18:00; Su 10:00-18:00,Walgreens,Q1591889
https://www.walgreens.com/locator/walgreens-20+jersey+ave-new+brunswick-nj-08901/id=6908,walgreens,Walgreens,,New Brunswick,NJ,,US,+1 732-846-9360,https://www.walgreens.com/locator/walgreens-20+jersey+ave-new+brunswick-nj-08901/id=6908,Mo-Su 08:00-24:00,Walgreens,Q1591889
https://www.walgreens.com/locator/walgreens-254+easton+ave-new+brunswick-nj-08901/id=16329,walgreens,Walgreens,,New Brunswick,NJ,,US,+1 732-509-1963,https://www.walgreens.com/locator/walgreens-254+easton+ave-new+brunswick-nj-08901/id=16329,Mo-Fr 09:00-18:00; Sa-Su 10:00-14:00,Walgreens,Q1591889
120__ALBANY__ST__STE__B_NEW__BRUNSWICK_NJ_08901,wellsfargo,Wells Fargo,120 ALBANY ST STE B,NEW BRUNSWICK,NJ,,US,+1 732-843-4200,https://www.wellsfargo.com/locator/bank/120__ALBANY__ST__STE__B_NEW__BRUNSWICK_NJ_08901/,Mo-Fr 09:00-17:00,Wells Fargo,Q744149
https://locations.wendys.com/#9254420,wendys,"Wendy's Rutgers in New Brunswick, NJ",,New Brunswick,NJ,,US,+1 732-545-5545,https://locations.wendys.com/united-states/nj/new-brunswick/126-college-avenue,,Wendy's,Q550258
8ac4595824cef5f412879f8c4265fd83,western_union,EL RUBIO,,New Brunswick,NJ,,US,+1 732-867-2629,https://location.westernunion.com/us/nj/new-brunswick/8ac4595824cef5f412879f8c4265fd83,Mo-Sa 06:00-22:00; Su 08:00-22:00,Western Union,Q861042
86a86e719010c053e64dc4e305368d37,western_union,MI GENTE MULTISERVICES,,New Brunswick,NJ,,US,+1 732-317-8314,https://location.westernunion.com/us/nj/new-brunswick/86a86e719010c053e64dc4e305368d37,Mo-Fr 08:30-19:30; Sa-Su 09:00-19:00,Western Union,Q861042
85b7bcce271153ef5f4357711fd27fa9,western_union,MI GENTE MULTISERVICES,,New Brunswick,NJ,,US,+1 732-317-8314,https://location.westernunion.com/us/nj/new-brunswick/85b7bcce271153ef5f4357711fd27fa9,Mo-Fr 08:30-19:30; Sa-Su 09:00-19:00,Western Union,Q861042
f7e5b946b42aa6418b089fb8d843cf87,western_union,ENVIOS LOS PAISAS LLC,,New Brunswick,NJ,,US,+1 732-253-0353,https://location.westernunion.com/us/nj/new-brunswick/f7e5b946b42aa6418b089fb8d843cf87,Mo-Sa 09:00-21:00; Su 09:00-19:00,Western Union,Q861042
12cd999fb21ef6444739b7f9683eeba1,western_union,FANNY MULTISERVICES LLC,,New Brunswick,NJ,,US,+1 732-964-3030,https://location.westernunion.com/us/nj/new-brunswick/12cd999fb21ef6444739b7f9683eeba1,Mo-Su 08:00-19:30,Western Union,Q861042
e43bac2cc08ea07eb9db557676524ef6,western_union,FANNY MULTISERVICES LLC,,New Brunswick,NJ,,US,+1 732-964-3030,https://location.westernunion.com/us/nj/new-brunswick/e43bac2cc08ea07eb9db557676524ef6,Mo-Su 08:00-19:30,Western Union,Q861042
de7c91134ea30ba644aa2cc0b24c2af7,western_union,JOYERIA MINOR,,New Brunswick,NJ,,US,+1 732-448-9888,https://location.westernunion.com/us/nj/new-brunswick/de7c91134ea30ba644aa2cc0b24c2af7,Mo-Fr 10:30-19:00; Sa 09:00-19:00; Su 11:00-19:00,Western Union,Q861042
e257a7ed8997cdc6315fdfd473d8e9a6,western_union,D'SOLUTIONS MULTISERVICE,,New Brunswick,NJ,,US,+1 732-253-0912,https://location.westernunion.com/us/nj/new-brunswick/e257a7ed8997cdc6315fdfd473d8e9a6,Mo-Sa 10:00-20:00; Su 10:00-16:00,Western Union,Q861042
fb513d4cd1b8c154aa70ba2369479b8b,western_union,D'SOLUTIONS MULTISERVICE,,New Brunswick,NJ,,US,+1 732-253-0912,https://location.westernunion.com/us/nj/new-brunswick/fb513d4cd1b8c154aa70ba2369479b8b,Mo-Sa 10:00-20:00; Su 10:00-16:00,Western Union,Q861042
746719e524e22265e1b3b23bdf65fc80,western_union,EL RUBIO,,New Brunswick,NJ,,US,+1 732-867-2629,https://location.westernunion.com/us/nj/new-brunswick/746719e524e22265e1b3b23bdf65fc80,Mo-Sa 06:00-22:00; Su 08:00-22:00,Western Union,Q861042
c5706d2f105af5a8da8b4b6383923cd6,western_union,7-ELEVEN #35664,,New Brunswick,NJ,,US,+1 732-247-1675,https://location.westernunion.com/us/nj/new-brunswick/c5706d2f105af5a8da8b4b6383923cd6,,Western Union,Q861042
50ffb79372bb447a646b0fe9f6374c98,western_union,MINIMI WHOLESALE LLC,,New Brunswick,NJ,,US,+1 732-448-7358,https://location.westernunion.com/us/nj/new-brunswick/50ffb79372bb447a646b0fe9f6374c98,Mo-Sa 08:00-19:00; Su 08:00-17:00,Western Union,Q861042
7763b07e93ca774ab78569997d78dbf0,western_union,FOOD UNIVERSE MARKETPLACE,,New Brunswick,NJ,,US,+1 732-545-3031,https://location.westernunion.com/us/nj/new-brunswick/7763b07e93ca774ab78569997d78dbf0,Mo-Sa 07:00-21:00; Su 08:00-20:00,Western Union,Q861042
