Ref,Spider,Name,Address,City,State,Zipcode,Country,Phone,Website,Hours,Brand,WikiData
,visa,,,GUARANDA,SUCRE,,CO,,,,,
,visa,,,MAJAGUAL,SUCRE,,CO,,,,,
,visa,,,SUCRE,SUCRE,,CO,,,,,
,visa,,,SINCELEJO,SUCRE,,CO,,,,,
,visa,,,BUENAVISTA,SUCRE,,CO,,,,,
,visa,,,GALERAS,SUCRE,,CO,,,,,
,visa,,,SAN BENITO ABAD,SUCRE,,CO,,,,,
,visa,,,SAN PEDRO,SUCRE,,CO,,,,,
,visa,,,CAIMITO,SUCRE,,CO,,,,,
,visa,,,SAN MARCOS,SUCRE,,CO,,,,,
,visa,,,SINCE,SUCRE,,CO,,,,,
,visa,,,OVEJAS,SUCRE,,CO,,,,,
,visa,,,SAN JUAN DE BETULIA,SUCRE,,CO,,,,,
,visa,,,LA UNION,SUCRE,,CO,,,,,
,visa,,,LOS PALMITOS,SUCRE,,CO,,,,,
,visa,,,COROZAL,SUCRE,,CO,,,,,
,visa,,,COROZAL,SUCRE,,CO,,,,,
,visa,,,COROZAL,SUCRE,,CO,,,,,
,visa,,,SINCELEJO,SUCRE,,CO,,,,,
,visa,,,COROZAL,SUCRE,,CO,,,,,
,visa,,,SINCELEJO,SUCRE,,CO,,,,,
,visa,,,SINCELEJO,SUCRE,,CO,,,,,
,visa,,,SAMPUES,SUCRE,,CO,,,,,
,visa,,,SAMPUES,SUCRE,,CO,,,,,
,visa,,,SINCELEJO,SUCRE,,CO,,,,,
,visa,,,SINCELEJO,SUCRE,,CO,,,,,
,visa,,,SINCELEJO,SUCRE,,CO,,,,,
,visa,,,SINCELEJO,SUCRE,,CO,,,,,
,visa,,,SINCELEJO,SUCRE,,CO,,,,,
,visa,,,SINCELEJO,SUCRE,,CO,,,,,
,visa,,,SINCELEJO,SUCRE,,CO,,,,,
,visa,,,COROZAL,SUCRE,,CO,,,,,
,visa,,,SINCELEJO,SUCRE,,CO,,,,,
,visa,,,SINCELEJO,SUCRE,,CO,,,,,
,visa,,,SINCELEJO,SUCRE,,CO,,,,,
,visa,,,SINCELEJO,SUCRE,,CO,,,,,
,visa,,,SINCELEJO,SUCRE,,CO,,,,,
,visa,,,SINCELEJO,SUCRE,,CO,,,,,
,visa,,,SINCELEJO,SUCRE,,CO,,,,,
,visa,,,SINCELEJO,SUCRE,,CO,,,,,
,visa,,,SINCELEJO,SUCRE,,CO,,,,,
,visa,,,SINCELEJO,SUCRE,,CO,,,,,
,visa,,,SINCELEJO,SUCRE,,CO,,,,,
,visa,,,SINCELEJO,SUCRE,,CO,,,,,
,visa,,,SINCELEJO,SUCRE,,CO,,,,,
,visa,,,SINCELEJO,SUCRE,,CO,,,,,
,visa,,,SINCELEJO,SUCRE,,CO,,,,,
,visa,,,SINCELEJO,SUCRE,,CO,,,,,
,visa,,,SINCELEJO,SUCRE,,CO,,,,,
,visa,,,SINCELEJO,SUCRE,,CO,,,,,
,visa,,,SINCELEJO,SUCRE,,CO,,,,,
,visa,,,SINCELEJO,SUCRE,,CO,,,,,
,visa,,,SINCELEJO,SUCRE,,CO,,,,,
,visa,,,SINCELEJO,SUCRE,,CO,,,,,
,visa,,,SINCELEJO,SUCRE,,CO,,,,,
,visa,,,SINCELEJO,SUCRE,,CO,,,,,
,visa,,,SINCELEJO,SUCRE,,CO,,,,,
,visa,,,SINCELEJO,SUCRE,,CO,,,,,
,visa,,,SINCELEJO,SUCRE,,CO,,,,,
,visa,,,SINCELEJO,SUCRE,,CO,,,,,
,visa,,,SINCELEJO,SUCRE,,CO,,,,,
,visa,,,SINCELEJO,SUCRE,,CO,,,,,
,visa,,,SINCELEJO,SUCRE,,CO,,,,,
,visa,,,TOLU VIEJO,SUCRE,,CO,,,,,
,visa,,,SAN ONOFRE,SUCRE,,CO,,,,,
,visa,,,SAN ONOFRE,SUCRE,,CO,,,,,
,visa,,,SAN ONOFRE,SUCRE,,CO,,,,,
,visa,,,SANTIAGO DE TOLU,SUCRE,,CO,,,,,
,visa,,,TOLU VIEJO,SUCRE,,CO,,,,,
,visa,,,TOLU,SUCRE,,CO,,,,,
,visa,,,COVENAS,SUCRE,,CO,,,,,
,visa,,,SINCELEJO,SUCRE,,CO,,,,,
,visa,,,COVENAS,SUCRE,,CO,,,,,
62955bf09dcf3e85de7ef9b33bcbd679,western_union,SUPERGIROS OVEJAS PDV TRONCAL DE OVEJA,,San Onofre,SUCRE,,CO,+57 1 800 0111700,https://location.westernunion.com/co/sucre/san-onofre/62955bf09dcf3e85de7ef9b33bcbd679,Mo-Sa 08:00-20:00; Su 10:00-16:00,Western Union,Q861042
f443acecbdb333dc027f66c236be9eea,western_union,SUPERGIROS SAN ONOFRE CPM ALTO PRADO,,San Onofre,SUCRE,,CO,+57 1 800 0111700,https://location.westernunion.com/co/sucre/san-onofre/f443acecbdb333dc027f66c236be9eea,Mo-Sa 08:00-20:00; Su 10:00-16:00,Western Union,Q861042
e32808b3ee9fb1489c82c1c10f461144,western_union,SUPERGIROS SUCRE VARIEDADES LA NINA,,San Onofre,SUCRE,,CO,+57 1 800 0111700,https://location.westernunion.com/co/sucre/san-onofre/e32808b3ee9fb1489c82c1c10f461144,Mo-Sa 08:00-20:00,Western Union,Q861042
8af2fb3a5c9a045f00a96953d2e7719d,western_union,SUPERGIROS SAN ONOFRE PVTA PLAZA S ONOF,,San Onofre,SUCRE,,CO,+57 1 800 0111700,https://location.westernunion.com/co/sucre/san-onofre/8af2fb3a5c9a045f00a96953d2e7719d,Mo-Sa 08:00-20:00; Su 10:00-16:00,Western Union,Q861042
41ac70b773b5ee609e09569697cdd221,western_union,SUPERGIROS SAN MARCOS PDV CANO PRIETO,,San Onofre,SUCRE,,CO,+57 1 800 0111700,https://location.westernunion.com/co/sucre/san-onofre/41ac70b773b5ee609e09569697cdd221,Mo-Sa 08:00-20:00; Su 10:00-16:00,Western Union,Q861042
7b64eaf1b78c1048259d08c46c185dac,western_union,EFECTY CENTRO COMERCIAL LAS PALMAS,,San Onofre,SUCRE,,CO,+57 601 7566027,https://location.westernunion.com/co/sucre/san-onofre/7b64eaf1b78c1048259d08c46c185dac,Mo-Sa 08:00-20:00; Su 08:00-16:00,Western Union,Q861042
db121b29887222c425ba91380a52b790,western_union,BANCO AGRARIO SAN ONOFRE,,San Onofre,SUCRE,,CO,+57 601 5948500,https://location.westernunion.com/co/sucre/san-onofre/db121b29887222c425ba91380a52b790,Mo-Fr 08:00-16:30,Western Union,Q861042
3090bf52455085fef5f9f2e1bfb5855c,western_union,SUPERGIROS SINCELEJO LA POLLITA CSS,,San Onofre,SUCRE,,CO,+57 1 800 0111700,https://location.westernunion.com/co/sucre/san-onofre/3090bf52455085fef5f9f2e1bfb5855c,Mo-Sa 08:00-20:00,Western Union,Q861042
934e3513f8fe8e034a3004132d06801e,western_union,SUPERGIROS COROZAL PDV COROZAL SUCURSAL,,Cove�as,SUCRE,,CO,+57 1 800 0111700,https://location.westernunion.com/co/sucre/cove�as/934e3513f8fe8e034a3004132d06801e,Mo-Sa 08:00-20:00; Su 10:00-16:00,Western Union,Q861042
04952ff6fccdf04a8fe9d5415b1f61c0,western_union,SUPERGIROS COVENAS COMPU GUAYABAL CSS,,Cove�as,SUCRE,,CO,+57 1 800 0111700,https://location.westernunion.com/co/sucre/cove�as/04952ff6fccdf04a8fe9d5415b1f61c0,Mo-Sa 08:00-20:00; Su 10:00-16:00,Western Union,Q861042
d79654d8869c85106d2fedb13510f347,western_union,EFECTY COVE�AS LA COQUERITA,,Covenas,SUCRE,,CO,+57 601 7566027,https://location.westernunion.com/co/sucre/covenas/d79654d8869c85106d2fedb13510f347,Mo-Sa 08:00-20:00; Su 08:00-16:00,Western Union,Q861042
ebfade02f0da37e1a8d4446553e2b086,western_union,SUPERGIROS TOLU NUEVO CENTRO CSS SUCRE,,Tolu,SUCRE,,CO,+57 1 800 0111700,https://location.westernunion.com/co/sucre/tolu/ebfade02f0da37e1a8d4446553e2b086,Mo-Sa 08:00-20:00; Su 10:00-16:00,Western Union,Q861042
4c8ddcee9e42c7fede911fd8037af47d,western_union,SUPERGIROS TOLU NUEVO CENTRO,,Santiago De Tolu,SUCRE,,CO,+57 1 800 0111700,https://location.westernunion.com/co/sucre/santiago-de-tolu/4c8ddcee9e42c7fede911fd8037af47d,Mo-Sa 08:00-20:00,Western Union,Q861042
08921e8a934bc0fd6bacdfb215246673,western_union,EFECTY EL CANGREJO PLAYA,,Tolu,SUCRE,,CO,+57 601 7566027,https://location.westernunion.com/co/sucre/tolu/08921e8a934bc0fd6bacdfb215246673,Mo-Fr 08:00-18:00; Sa 08:00-14:00; Su 08:00-12:00,Western Union,Q861042
b6a7f0d381f703c0f9b58ecb2576cd4f,western_union,SUPERGIROS SANTIAGO DE TOL,,Sincelejo,SUCRE,,CO,+57 1 800 0111700,https://location.westernunion.com/co/sucre/sincelejo/b6a7f0d381f703c0f9b58ecb2576cd4f,Mo-Sa 08:00-20:00,Western Union,Q861042
49caedcf6dd0f675df443e949108dc33,western_union,EFECTY TOLU PARQUE PPAL,,Tolu,SUCRE,,CO,+57 601 7566027,https://location.westernunion.com/co/sucre/tolu/49caedcf6dd0f675df443e949108dc33,Mo-Sa 08:00-20:00; Su 08:00-16:00,Western Union,Q861042
cd5ae969c26219f5f93f7c6de3ff1a9b,western_union,PAGAFACIL SAMPUES,,Sampues,SUCRE,,CO,+57 1 800 0111700,https://location.westernunion.com/co/sucre/sampues/cd5ae969c26219f5f93f7c6de3ff1a9b,Mo-Fr 09:00-18:00; Sa 09:00-14:50,Western Union,Q861042
2bdb53129e66ce40f7fa937242b31e73,western_union,SUPERGIROS TOLU VIEJO CSS,,Tolu Viejo,SUCRE,,CO,+57 1 800 0111700,https://location.westernunion.com/co/sucre/tolu-viejo/2bdb53129e66ce40f7fa937242b31e73,Mo-Sa 08:00-20:00,Western Union,Q861042
b9e27036aa0b510a4fb2aea90a5eb3e0,western_union,SUPERGIROS TOLU VIEJO TRONCAL CSS,,Toluviejo,SUCRE,,CO,+57 1 800 0111700,https://location.westernunion.com/co/sucre/toluviejo/b9e27036aa0b510a4fb2aea90a5eb3e0,Mo-Sa 08:00-20:00; Su 10:00-16:00,Western Union,Q861042
fe17f4a20c0320878cfe4620c86a86c5,western_union,SUPERGIROS TOLU VIEJO LAS PIEDRAS CSS,,Toluviejo,SUCRE,,CO,+57 1 800 0111700,https://location.westernunion.com/co/sucre/toluviejo/fe17f4a20c0320878cfe4620c86a86c5,Mo-Sa 08:00-20:00; Su 10:00-16:00,Western Union,Q861042
bc28cfee008a59c6016f414f5ebf884b,western_union,EFECTY PALMITO,,Palmito,SUCRE,,CO,+57 601 7566027,https://location.westernunion.com/co/sucre/palmito/bc28cfee008a59c6016f414f5ebf884b,Mo-Sa 08:00-20:00; Su 08:00-16:00,Western Union,Q861042
3a55af2945425ee6bdb60ca91db4c456,western_union,SUPERGIROS SAN ANTONIO DE PALMITO,,Sucre,SUCRE,,CO,+57 1 800 0111700,https://location.westernunion.com/co/sucre/sucre/3a55af2945425ee6bdb60ca91db4c456,Mo-Sa 08:00-20:00,Western Union,Q861042
089bce3f19de7bce833fc516bbae2ad8,western_union,SUPERGIROS SINCELEJO PDV BRISAS DEL SINU,,Sincelejo,SUCRE,,CO,+57 1 800 0111700,https://location.westernunion.com/co/sucre/sincelejo/089bce3f19de7bce833fc516bbae2ad8,Mo-Sa 08:00-20:00; Su 10:00-16:00,Western Union,Q861042
e376219edbcd539f579398429ec9a1df,western_union,SUPERGIROS SANTIAGO D TOLU DROGAS REBAJA,,Toluviejo,SUCRE,,CO,+57 1 800 0111700,https://location.westernunion.com/co/sucre/toluviejo/e376219edbcd539f579398429ec9a1df,Mo-Sa 08:00-20:00; Su 10:00-16:00,Western Union,Q861042
88faca4d95d1ed9a7f810a8d308d7d7c,western_union,SUPERGIROS SINCELEJO PUNTO DE VENTA,,Coloso,SUCRE,,CO,+57 1 800 0111700,https://location.westernunion.com/co/sucre/coloso/88faca4d95d1ed9a7f810a8d308d7d7c,Mo-Sa 08:00-20:00,Western Union,Q861042
48537f0c23c52c2828047fc6e3148561,western_union,SUPERGIROS MAJAGUAL PALMITAS CSS,,Sucre,SUCRE,,CO,+57 1 800 0111700,https://location.westernunion.com/co/sucre/sucre/48537f0c23c52c2828047fc6e3148561,Mo-Sa 08:00-20:00,Western Union,Q861042
467d4d4a140df956f6ef85e659acda5e,western_union,SUPERGIROS SINCELEJO PDV VIA TOLU SUCRE,,Sincelejo,SUCRE,,CO,+57 1 800 0111700,https://location.westernunion.com/co/sucre/sincelejo/467d4d4a140df956f6ef85e659acda5e,Mo-Sa 08:00-20:00; Su 10:00-16:00,Western Union,Q861042
aa10361837ecf81fcc562c829e37fdb7,western_union,SUPERGIROS SINCELEJO LA POLLITA,,Sincelejo,SUCRE,,CO,+57 1 800 0111700,https://location.westernunion.com/co/sucre/sincelejo/aa10361837ecf81fcc562c829e37fdb7,Mo-Sa 08:00-20:00; Su 10:00-16:00,Western Union,Q861042
ed8d5ef237bd403510c449e135851584,western_union,SUPERGIROS SINCELEJO PDV VILLA JUANA,,Sincelejo,SUCRE,,CO,+57 1 800 0111700,https://location.westernunion.com/co/sucre/sincelejo/ed8d5ef237bd403510c449e135851584,Mo-Sa 08:00-20:00; Su 10:00-16:00,Western Union,Q861042
cfb8547e264da807c8e4516daac00494,western_union,EFECTY SINCELEJO SEVILLA,,Sincelejo,SUCRE,,CO,+57 601 7566027,https://location.westernunion.com/co/sucre/sincelejo/cfb8547e264da807c8e4516daac00494,Mo-Sa 08:00-20:00; Su 08:00-16:00,Western Union,Q861042
2dc2d09ca1900aefd42ee58e2fc1ecb0,western_union,SUPERGIROS SINCELEJO CPM LOS ANDES,,Sincelejo,SUCRE,,CO,+57 1 800 0111700,https://location.westernunion.com/co/sucre/sincelejo/2dc2d09ca1900aefd42ee58e2fc1ecb0,Mo-Sa 08:00-20:00; Su 10:00-16:00,Western Union,Q861042
146dcf263d32578bcb1aa426e76b74f9,western_union,SUPERGIROS SAN PEDRO PDV SAN PEDRO ARA,,Sincelejo,SUCRE,,CO,+57 1 800 0111700,https://location.westernunion.com/co/sucre/sincelejo/146dcf263d32578bcb1aa426e76b74f9,Mo-Sa 08:00-20:00; Su 10:00-16:00,Western Union,Q861042
9af1e1581520423cb2ac673a29fd99b5,western_union,SUPERGIROS SINCELEJO CPM OF SEVILLA,,Sincelejo,SUCRE,,CO,+57 1 800 0111700,https://location.westernunion.com/co/sucre/sincelejo/9af1e1581520423cb2ac673a29fd99b5,Mo-Sa 08:00-20:00; Su 10:00-16:00,Western Union,Q861042
c7fae4927c43caed17426c6a2f98336a,western_union,SUPERGIROS SINCELEJO SAN C,,Corozal,SUCRE,,CO,+57 1 800 0111700,https://location.westernunion.com/co/sucre/corozal/c7fae4927c43caed17426c6a2f98336a,Mo-Sa 08:00-20:00,Western Union,Q861042
97c6090aa33cdc7b7b31b5376ab7be0d,western_union,SUPERGIROS SINCELEJO PDV VIDA SUCRE,,Sincelejo,SUCRE,,CO,+57 1 800 0111700,https://location.westernunion.com/co/sucre/sincelejo/97c6090aa33cdc7b7b31b5376ab7be0d,Mo-Sa 08:00-20:00; Su 10:00-16:00,Western Union,Q861042
0b15a9bda7091025814bc272fb767b9a,western_union,SUPERGIROS SINCELEJO CAMILO DOS,,Sincelejo,SUCRE,,CO,+57 1 800 0111700,https://location.westernunion.com/co/sucre/sincelejo/0b15a9bda7091025814bc272fb767b9a,Mo-Sa 08:00-20:00; Su 10:00-16:00,Western Union,Q861042
4642f5bda1145c3f68cae284cbce1242,western_union,SUPERGIROS SINCELEJO PDV EL BONGO,,Sincelejo,SUCRE,,CO,+57 1 800 0111700,https://location.westernunion.com/co/sucre/sincelejo/4642f5bda1145c3f68cae284cbce1242,Mo-Sa 08:00-20:00; Su 10:00-16:00,Western Union,Q861042
9204d6cb4a78b1c65305b8675dd09815,western_union,SUPERGIROS SINCELEJO LA SELVA DOS,,San Pedro,SUCRE,,CO,+57 1 800 0111700,https://location.westernunion.com/co/sucre/san-pedro/9204d6cb4a78b1c65305b8675dd09815,Mo-Sa 08:00-20:00,Western Union,Q861042
e4759dcb5120fcbe6d5948eefac509f6,western_union,SUPERGIROS SINCELEJO PDV BITAR SUCRE,,Sincelejo,SUCRE,,CO,+57 1 800 0111700,https://location.westernunion.com/co/sucre/sincelejo/e4759dcb5120fcbe6d5948eefac509f6,Mo-Sa 08:00-20:00; Su 10:00-16:00,Western Union,Q861042
6d90781db6e4dd937b1ce087cf3e52d8,western_union,SUPERGIROS CHALAN CSS SUCRE,,Sincelejo,SUCRE,,CO,+57 1 800 0111700,https://location.westernunion.com/co/sucre/sincelejo/6d90781db6e4dd937b1ce087cf3e52d8,Mo-Sa 08:00-20:00,Western Union,Q861042
c68a41e1bdbba037281606c188f0f807,western_union,SUPERGIROS TOLU VIEJO PDV LA MEJOR ESQUI,,Toluviejo,SUCRE,,CO,+57 1 800 0111700,https://location.westernunion.com/co/sucre/toluviejo/c68a41e1bdbba037281606c188f0f807,Mo-Sa 08:00-20:00; Su 10:00-16:00,Western Union,Q861042
08d6c71c3ce95001cd858bc6fa14f67b,western_union,EFECTY COLOSO SUCRE,,Coloso,SUCRE,,CO,+57 601 7566027,https://location.westernunion.com/co/sucre/coloso/08d6c71c3ce95001cd858bc6fa14f67b,Mo-Sa 08:00-20:00; Su 08:00-16:00,Western Union,Q861042
9269c7041c54ac6a9b95063a1404ea5c,western_union,SUPERGIROS PUNTO VENTA PARQUE BUENAVISTA,,Coloso,SUCRE,,CO,+57 1 800 0111700,https://location.westernunion.com/co/sucre/coloso/9269c7041c54ac6a9b95063a1404ea5c,Mo-Sa 08:00-20:00; Su 10:00-16:00,Western Union,Q861042
97e54327e0f137ead8378c931131ba70,western_union,SUPERGIROS COLOSO CL REAL CSS SUCRE,,Buenavista,SUCRE,,CO,+57 1 800 0111700,https://location.westernunion.com/co/sucre/buenavista/97e54327e0f137ead8378c931131ba70,Mo-Sa 08:00-20:00,Western Union,Q861042
9c6ab96f8ab986d8144339af3cea84c3,western_union,SUPERGIROS SINCELEJO PIONEROS CSS S,,San Benito Abad,SUCRE,,CO,+57 1 800 0111700,https://location.westernunion.com/co/sucre/san-benito-abad/9c6ab96f8ab986d8144339af3cea84c3,Mo-Sa 08:00-20:00,Western Union,Q861042
c5082415e7ed9b122dcdd69480b95796,western_union,SUPERGIROS SINCELEJO PDV 6 DE FEBRERO,,Sincelejo,SUCRE,,CO,+57 1 800 0111700,https://location.westernunion.com/co/sucre/sincelejo/c5082415e7ed9b122dcdd69480b95796,Mo-Sa 08:00-20:00; Su 10:00-16:00,Western Union,Q861042
cdd506f53ca080adf5533ec6319353d8,western_union,SUPERGIROS BUENAVISTA CSS,,Buenavista,SUCRE,,CO,+57 1 800 0111700,https://location.westernunion.com/co/sucre/buenavista/cdd506f53ca080adf5533ec6319353d8,Mo-Sa 08:00-20:00,Western Union,Q861042
620fa1d0176e54bace693ce8cbf7aa05,western_union,EFECTY SINCELEJO EL BONGO,,Sincelejo,SUCRE,,CO,+57 601 7566027,https://location.westernunion.com/co/sucre/sincelejo/620fa1d0176e54bace693ce8cbf7aa05,Mo-Fr 07:00-18:00; Sa 08:00-16:00,Western Union,Q861042
33722e00fc5d132f6f9b1f4735db6260,western_union,SUPERGIROS SINCELEJO SAN LUIS,,Sincelejo,SUCRE,,CO,+57 1 800 0111700,https://location.westernunion.com/co/sucre/sincelejo/33722e00fc5d132f6f9b1f4735db6260,Mo-Sa 08:00-20:00,Western Union,Q861042
ae42e928cfd825fc6215ac4e1d7e7635,western_union,SUPERGIROS SINCELEJO COMP M Y E SUCRE,,Sincelejo,SUCRE,,CO,+57 1 800 0111700,https://location.westernunion.com/co/sucre/sincelejo/ae42e928cfd825fc6215ac4e1d7e7635,Mo-Sa 08:00-20:00; Su 10:00-16:00,Western Union,Q861042
140bcc505292bfa095e2c1de2ef9c32b,western_union,SUPERGIROS SINCELEJO EL PARAISO DOS,,Ovejas,SUCRE,,CO,+57 1 800 0111700,https://location.westernunion.com/co/sucre/ovejas/140bcc505292bfa095e2c1de2ef9c32b,Mo-Sa 08:00-20:00,Western Union,Q861042
2f1370b3478c86db0fdb1782c0b869ac,western_union,SUPERGIROS S LUIS DE SINCE PDV EL TREBOL,,Sincelejo,SUCRE,,CO,+57 1 800 0111700,https://location.westernunion.com/co/sucre/sincelejo/2f1370b3478c86db0fdb1782c0b869ac,Mo-Sa 08:00-20:00; Su 10:00-16:00,Western Union,Q861042
07eb89439e3de58fa5d8f9b17b9a73a9,western_union,SUPERGIROS SINCELEJO EL PARAISO DOS,,Sincelejo,SUCRE,,CO,+57 1 800 0111700,https://location.westernunion.com/co/sucre/sincelejo/07eb89439e3de58fa5d8f9b17b9a73a9,Mo-Sa 08:00-20:00; Su 10:00-16:00,Western Union,Q861042
ff104813ce0ab8e9ea58fbfa2d3cb0be,western_union,EFECTY PCC SINCELEJO PUERTA ROJA,,Sincelejo,SUCRE,,CO,+57 601 7566027,https://location.westernunion.com/co/sucre/sincelejo/ff104813ce0ab8e9ea58fbfa2d3cb0be,Mo-Sa 08:00-20:00; Su 08:00-16:00,Western Union,Q861042
16a0abf31a2d590f651e824d344acc96,western_union,SUPERGIROS SINCELEJO PDV LA FORD SUCRE,,Sincelejo,SUCRE,,CO,+57 1 800 0111700,https://location.westernunion.com/co/sucre/sincelejo/16a0abf31a2d590f651e824d344acc96,Mo-Sa 08:00-20:00; Su 10:00-16:00,Western Union,Q861042
0cd5a27f3de270ccff0f805652704854,western_union,SUPERGIROS SINCELEJO COMPU DOCTOR GOOGLE,,Sincelejo,SUCRE,,CO,+57 1 800 0111700,https://location.westernunion.com/co/sucre/sincelejo/0cd5a27f3de270ccff0f805652704854,Mo-Sa 08:00-20:00; Su 10:00-16:00,Western Union,Q861042
ef353695cc9153fa13cadd686f1f8db6,western_union,SUPERGIROS SINCELEJO ELIZA STILO,,Sincelejo,SUCRE,,CO,+57 1 800 0111700,https://location.westernunion.com/co/sucre/sincelejo/ef353695cc9153fa13cadd686f1f8db6,Mo-Sa 08:00-20:00,Western Union,Q861042
068e9cee03fd4a4a4e3f404469a4ca87,western_union,EFECTY LA CANCHA DEL OCHO,,Sincelejo,SUCRE,,CO,+57 601 7566027,https://location.westernunion.com/co/sucre/sincelejo/068e9cee03fd4a4a4e3f404469a4ca87,Mo-Sa 08:00-20:00; Su 08:00-16:00,Western Union,Q861042
2aee400cb4eff4f8d3ef1620efd07907,western_union,BANCO AGRARIO SINCELEJO,,Sincelejo,SUCRE,,CO,+57 601 5948500,https://location.westernunion.com/co/sucre/sincelejo/2aee400cb4eff4f8d3ef1620efd07907,Mo-Fr 08:00-16:30,Western Union,Q861042
ba5ac58055697fdf33f2b935ec98743b,western_union,SUPERGIROS SINCELEJO CENTRO,,Sincelejo,SUCRE,,CO,+57 1 800 0111700,https://location.westernunion.com/co/sucre/sincelejo/ba5ac58055697fdf33f2b935ec98743b,Mo-Sa 08:00-20:00,Western Union,Q861042
4fd4b0fb21885fb4c4593f3aa62be872,western_union,SUPERGIROS SINCELEJO DOS CSS SUCRE,,Buenavista,SUCRE,,CO,+57 1 800 0111700,https://location.westernunion.com/co/sucre/buenavista/4fd4b0fb21885fb4c4593f3aa62be872,Mo-Sa 08:00-20:00,Western Union,Q861042
56be9f7905241a463f16dc279215b894,western_union,SUPERGIROS SINCELEJO TRES,,Sincelejo,SUCRE,,CO,+57 1 800 0111700,https://location.westernunion.com/co/sucre/sincelejo/56be9f7905241a463f16dc279215b894,Mo-Sa 08:00-20:00,Western Union,Q861042
08aea4c3cb80a5ff927c7f665320278c,western_union,SUPERGIROS SINCELEJO PPAL,,Buenavista,SUCRE,,CO,+57 1 800 0111700,https://location.westernunion.com/co/sucre/buenavista/08aea4c3cb80a5ff927c7f665320278c,Mo-Sa 08:00-20:00,Western Union,Q861042
64e7e7a3337051f0d71de5545d5f9ad9,western_union,EFECTY OLIMPICA LA PAJUELA SINCELEJO,,Sincelejo,SUCRE,,CO,+57 601 7566027,https://location.westernunion.com/co/sucre/sincelejo/64e7e7a3337051f0d71de5545d5f9ad9,Mo-Fr 07:00-20:00; Sa 08:00-19:00; Su 09:00-16:00,Western Union,Q861042
2e6408a881d4e2221b365460b031579a,western_union,GIROS Y FINANZAS-BANCO UNION,,Sincelejo,SUCRE,,CO,(+57) 1800011199,https://location.westernunion.com/co/sucre/sincelejo/2e6408a881d4e2221b365460b031579a,Mo-Su 09:00-20:00,Western Union,Q861042
97e9ed9651033b87665f4716a944020a,western_union,SUPERGIROS SINCELEJO CG TIENDA LAS VEGAS,,Sincelejo,SUCRE,,CO,+57 1 800 0111700,https://location.westernunion.com/co/sucre/sincelejo/97e9ed9651033b87665f4716a944020a,Mo-Sa 08:00-20:00; Su 10:00-16:00,Western Union,Q861042
a601ad12fc4e9bc08d2f957428352724,western_union,SUPERGIROS SINCELEJO LA NARCIZA,,Sincelejo,SUCRE,,CO,+57 1 800 0111700,https://location.westernunion.com/co/sucre/sincelejo/a601ad12fc4e9bc08d2f957428352724,Mo-Sa 08:00-20:00,Western Union,Q861042
046307a3065a046c79b30cbbedd185fd,western_union,SUPERGIROS SUCRE CSS SUCRE,,Sincelejo,SUCRE,,CO,+57 1 800 0111700,https://location.westernunion.com/co/sucre/sincelejo/046307a3065a046c79b30cbbedd185fd,Mo-Sa 08:00-20:00,Western Union,Q861042
87efeccc8a3ccfc833ed78a50c651a0a,western_union,SUPERGIROS SINCE CEMENTERIO,,Sincelejo,SUCRE,,CO,+57 1 800 0111700,https://location.westernunion.com/co/sucre/sincelejo/87efeccc8a3ccfc833ed78a50c651a0a,Mo-Sa 08:00-20:00,Western Union,Q861042
fb869304ae7e9d7d869c1aa8934d39ca,western_union,SUPERGIROS SINCELEJO PVT BUCARAMANGA,,Sincelejo,SUCRE,,CO,+57 1 800 0111700,https://location.westernunion.com/co/sucre/sincelejo/fb869304ae7e9d7d869c1aa8934d39ca,Mo-Sa 08:00-20:00; Su 10:00-16:00,Western Union,Q861042
3aea9aaec22f7b112fed44f87158bf8c,western_union,SUPERGIROS SINCELEJO SAN FRANCISCO SUCRE,,Sincelejo,SUCRE,,CO,+57 1 800 0111700,https://location.westernunion.com/co/sucre/sincelejo/3aea9aaec22f7b112fed44f87158bf8c,Mo-Sa 08:00-20:00; Su 10:00-16:00,Western Union,Q861042
f828cb1d8eb877d1894b8bf407069049,western_union,SUPERGIROS SINCELEJO PDV PARQUE COLINAS,,Sincelejo,SUCRE,,CO,+57 1 800 0111700,https://location.westernunion.com/co/sucre/sincelejo/f828cb1d8eb877d1894b8bf407069049,Mo-Sa 08:00-20:00; Su 10:00-16:00,Western Union,Q861042
21de8d32d6d4f136195e141346d43bda,western_union,EFECTY SINCELEJO BARRIO LA FE,,Sincelejo,SUCRE,,CO,+57 601 7566027,https://location.westernunion.com/co/sucre/sincelejo/21de8d32d6d4f136195e141346d43bda,Mo-Fr 08:00-20:00; Sa 08:00-18:00; Su 08:00-12:00,Western Union,Q861042
71ddaffd264e51668bffd41ad2077d2d,western_union,SUPERGIROS SINCELEJO PDV LA FE SUCRE,,Sincelejo,SUCRE,,CO,+57 1 800 0111700,https://location.westernunion.com/co/sucre/sincelejo/71ddaffd264e51668bffd41ad2077d2d,Mo-Sa 08:00-20:00; Su 10:00-16:00,Western Union,Q861042
f81d50664355a7c3cb0f23b6ee2fc057,western_union,SUPERGIROS SINCELEJO PDV LAS ESTRE ROJA,,Sincelejo,SUCRE,,CO,+57 1 800 0111700,https://location.westernunion.com/co/sucre/sincelejo/f81d50664355a7c3cb0f23b6ee2fc057,Mo-Sa 08:00-20:00; Su 10:00-16:00,Western Union,Q861042
c5f2d8120620b4c1487f68ae620d0487,western_union,SUPERGIROS SINCELEJO SPORTBOOK PAJUELA,,Sincelejo,SUCRE,,CO,+57 1 800 0111700,https://location.westernunion.com/co/sucre/sincelejo/c5f2d8120620b4c1487f68ae620d0487,Mo-Sa 08:00-20:00; Su 10:00-16:00,Western Union,Q861042
1100b73c709b9abcb9ca89a7e7da1d50,western_union,EFECTY CIUDADELA UNIVERSITARIA,,Sincelejo,SUCRE,,CO,+57 601 7566027,https://location.westernunion.com/co/sucre/sincelejo/1100b73c709b9abcb9ca89a7e7da1d50,Mo-Sa 08:00-20:00; Su 08:00-16:00,Western Union,Q861042
ea1a8c8ee147a8363a9d3303c79de04f,western_union,SUPERGIROS SINCELEJO LAS COLINAS,,Sincelejo,SUCRE,,CO,+57 1 800 0111700,https://location.westernunion.com/co/sucre/sincelejo/ea1a8c8ee147a8363a9d3303c79de04f,Mo-Sa 08:00-20:00,Western Union,Q861042
43a2d0fae225fbe068cc525e9733dc24,western_union,SUPERGIROS SINCELEJO PDV VENECIA VIEJA,,Sincelejo,SUCRE,,CO,+57 1 800 0111700,https://location.westernunion.com/co/sucre/sincelejo/43a2d0fae225fbe068cc525e9733dc24,Mo-Sa 08:00-20:00; Su 10:00-16:00,Western Union,Q861042
e0901825ac36d3d041bcccbea8926bcc,western_union,EFECTY SINCELEJO PIONERO LAS NIEVES,,Sincelejo,SUCRE,,CO,+57 601 7566027,https://location.westernunion.com/co/sucre/sincelejo/e0901825ac36d3d041bcccbea8926bcc,Mo-Sa 08:00-20:00; Su 08:00-16:00,Western Union,Q861042
4a6cd23694ab3e8aca7bdaf97eec0e8d,western_union,SUPERGIROS SINCELEJO CALLE,,Sincelejo,SUCRE,,CO,+57 1 800 0111700,https://location.westernunion.com/co/sucre/sincelejo/4a6cd23694ab3e8aca7bdaf97eec0e8d,Mo-Sa 08:00-20:00,Western Union,Q861042
5577ee83189f6978fb071433729b0c75,western_union,SUPERGIROS SINCELEJO CALLE 19 SUCRE,,Sincelejo,SUCRE,,CO,+57 1 800 0111700,https://location.westernunion.com/co/sucre/sincelejo/5577ee83189f6978fb071433729b0c75,Mo-Sa 08:00-20:00; Su 10:00-16:00,Western Union,Q861042
4dc6b5d76f0c1f57cf1f7eda361f43d7,western_union,SUPERGIROS SINCELEJO PVT SPORTBOOKS,,Sincelejo,SUCRE,,CO,+57 1 800 0111700,https://location.westernunion.com/co/sucre/sincelejo/4dc6b5d76f0c1f57cf1f7eda361f43d7,Mo-Sa 08:00-20:00,Western Union,Q861042
254205105f7d1bdedd381e86930b5f21,western_union,SUPERGIROS SINCELEJO PDV TAURO SUCRE,,Sincelejo,SUCRE,,CO,+57 1 800 0111700,https://location.westernunion.com/co/sucre/sincelejo/254205105f7d1bdedd381e86930b5f21,Mo-Sa 08:00-20:00; Su 10:00-16:00,Western Union,Q861042
5232e94201cfb3bd0f37f2068a9331e8,western_union,SUPERGIROS SINCELEJO COMPU OF 20 ENERO,,Sincelejo,SUCRE,,CO,+57 1 800 0111700,https://location.westernunion.com/co/sucre/sincelejo/5232e94201cfb3bd0f37f2068a9331e8,Mo-Sa 08:00-20:00; Su 10:00-16:00,Western Union,Q861042
1f7eac5da469889bcf63cadfbc0b2659,western_union,SUPERGIROS SINCELEJO PVT R,,Cove�as,SUCRE,,CO,+57 1 800 0111700,https://location.westernunion.com/co/sucre/cove�as/1f7eac5da469889bcf63cadfbc0b2659,Mo-Sa 08:00-20:00,Western Union,Q861042
225eef0cc9646e3b74ddd81800b564ca,western_union,SUPERGIROS SAMPUES CSS SUCRE,,Sincelejo,SUCRE,,CO,+57 1 800 0111700,https://location.westernunion.com/co/sucre/sincelejo/225eef0cc9646e3b74ddd81800b564ca,Mo-Sa 08:00-20:00,Western Union,Q861042
9fed882f44be069be3a859798c758d11,western_union,SUPERGIROS SINCELEJO PRINCIPAL PARQU,,Cove�as,SUCRE,,CO,+57 1 800 0111700,https://location.westernunion.com/co/sucre/cove�as/9fed882f44be069be3a859798c758d11,Mo-Sa 08:00-20:00,Western Union,Q861042
20ab0ac1e0add5ed067f217c3aae5f5d,western_union,MULTIPAGAS SINCELEJO,,Sincelejo,SUCRE,,CO,+57 602 6510101,https://location.westernunion.com/co/sucre/sincelejo/20ab0ac1e0add5ed067f217c3aae5f5d,Mo-Fr 08:00-16:00; Sa 08:00-12:00,Western Union,Q861042
e66d23f4119f28dd4bf508b7e6ab4b86,western_union,SUPERGIROS SINCELEJO OFICINA CORREGI,,Coloso,SUCRE,,CO,+57 1 800 0111700,https://location.westernunion.com/co/sucre/coloso/e66d23f4119f28dd4bf508b7e6ab4b86,Mo-Sa 08:00-20:00,Western Union,Q861042
1c087f50b535eb9272fd6333df9985d4,western_union,SUPERGIROS SINCELEJO PTV �XITO CENTRO,,Sincelejo,SUCRE,,CO,+57 1 800 0111700,https://location.westernunion.com/co/sucre/sincelejo/1c087f50b535eb9272fd6333df9985d4,Mo-Sa 08:00-20:00; Su 10:00-16:00,Western Union,Q861042
f2b365ff535ad2e97169dcf17e7de1f6,western_union,SUPERGIROS SINCELEJO PUERTA ROJA SUCRE,,Sincelejo,SUCRE,,CO,+57 1 800 0111700,https://location.westernunion.com/co/sucre/sincelejo/f2b365ff535ad2e97169dcf17e7de1f6,Mo-Sa 08:00-20:00; Su 10:00-16:00,Western Union,Q861042
48c9053555df820e93a3fcc8989b3772,western_union,SUPERGIROS SINCELEJO EL BOSQUE,,Sincelejo,SUCRE,,CO,+57 1 800 0111700,https://location.westernunion.com/co/sucre/sincelejo/48c9053555df820e93a3fcc8989b3772,Mo-Sa 08:00-20:00,Western Union,Q861042
899ff49557d2e9c4fc422379ab37dc93,western_union,SUPERGIROS SINCELEJO MAJAGUAL,,El Roble,SUCRE,,CO,+57 1 800 0111700,https://location.westernunion.com/co/sucre/el-roble/899ff49557d2e9c4fc422379ab37dc93,Mo-Sa 08:00-20:00,Western Union,Q861042
bb5c54dd77ff2941482d1632f2fcef3b,western_union,SUPERGIROS SINCELEJO TELEC,,El Roble,SUCRE,,CO,+57 1 800 0111700,https://location.westernunion.com/co/sucre/el-roble/bb5c54dd77ff2941482d1632f2fcef3b,Mo-Sa 08:00-20:00,Western Union,Q861042
903319ac7fbae451e1eefc6f9b5f1332,western_union,SUPERGIROS SINCELEJO PVD FLOR DE BONCHE,,Sincelejo,SUCRE,,CO,+57 1 800 0111700,https://location.westernunion.com/co/sucre/sincelejo/903319ac7fbae451e1eefc6f9b5f1332,Mo-Sa 08:00-20:00; Su 10:00-16:00,Western Union,Q861042
1aaf8a46ab9b0af9e4849a1fa11af941,western_union,EFECTY FARMABET CLL 20 SINCELEJO,,Sincelejo,SUCRE,,CO,+57 601 7566027,https://location.westernunion.com/co/sucre/sincelejo/1aaf8a46ab9b0af9e4849a1fa11af941,Mo-Sa 08:00-20:00; Su 08:00-16:00,Western Union,Q861042
e02f3c5d0a69074f0d22ec5ccd4bb5b7,western_union,SUPERGIROS SINCELEJO ROBER MOTOS SUCRE,,Sincelejo,SUCRE,,CO,+57 1 800 0111700,https://location.westernunion.com/co/sucre/sincelejo/e02f3c5d0a69074f0d22ec5ccd4bb5b7,Mo-Sa 08:00-20:00; Su 10:00-16:00,Western Union,Q861042
560cd98b9f18c4cc93e0819e71938645,western_union,SUPERGIROS SINCELEJO COMPU DONDE DIANA,,Sincelejo,SUCRE,,CO,+57 1 800 0111700,https://location.westernunion.com/co/sucre/sincelejo/560cd98b9f18c4cc93e0819e71938645,Mo-Sa 08:00-20:00; Su 10:00-16:00,Western Union,Q861042
6491339980b876438355ca6ea0951716,western_union,SUPERGIROS SINCELEJO CACHARRERIA DUQ,,Sincelejo,SUCRE,,CO,+57 1 800 0111700,https://location.westernunion.com/co/sucre/sincelejo/6491339980b876438355ca6ea0951716,Mo-Sa 08:00-20:00,Western Union,Q861042
837906c2171b8e680dfc9b951ec46529,western_union,SUPERGIROS SINCELEJO CALLE EL COMERCIO,,Sincelejo,SUCRE,,CO,+57 1 800 0111700,https://location.westernunion.com/co/sucre/sincelejo/837906c2171b8e680dfc9b951ec46529,Mo-Sa 08:00-20:00; Su 10:00-16:00,Western Union,Q861042
47168adcfa73a868fde2f97a9ffd73b7,western_union,SUPERGIROS SINCELEJO ALTOS DE SABANA DOS,,Sincelejo,SUCRE,,CO,+57 1 800 0111700,https://location.westernunion.com/co/sucre/sincelejo/47168adcfa73a868fde2f97a9ffd73b7,Mo-Sa 08:00-20:00; Su 10:00-16:00,Western Union,Q861042
2c257ffeac996ca4abb2909aa2f649c7,western_union,SUPERGIROS SINCELEJO PDV EL MIRADOR,,Sincelejo,SUCRE,,CO,+57 1 800 0111700,https://location.westernunion.com/co/sucre/sincelejo/2c257ffeac996ca4abb2909aa2f649c7,Mo-Sa 08:00-20:00; Su 10:00-16:00,Western Union,Q861042
957b0ccdafb530f81d5e11cb68f023bb,western_union,SUPERGIROS SINCELEJO SAN CARLOS CSS,,Corozal,SUCRE,,CO,+57 1 800 0111700,https://location.westernunion.com/co/sucre/corozal/957b0ccdafb530f81d5e11cb68f023bb,Mo-Sa 08:00-20:00,Western Union,Q861042
9f0677f28d224fba118d38c0a6a5043c,western_union,SUPERGIROS SINCELEJO VIA COVENAS,,Sincelejo,SUCRE,,CO,+57 1 800 0111700,https://location.westernunion.com/co/sucre/sincelejo/9f0677f28d224fba118d38c0a6a5043c,Mo-Sa 08:00-20:00,Western Union,Q861042
a6a050727db61bacd4581845449a2228,western_union,SUPERGIROS SINCELEJO BRASILIA,,Sincelejo,SUCRE,,CO,+57 1 800 0111700,https://location.westernunion.com/co/sucre/sincelejo/a6a050727db61bacd4581845449a2228,Mo-Sa 08:00-20:00; Su 10:00-16:00,Western Union,Q861042
4cdcb3a0205e0a6a924a0fccfb452390,western_union,SUPERGIROS SINCELEJO PDV BOMBA PETROMIL,,Sincelejo,SUCRE,,CO,+57 1 800 0111700,https://location.westernunion.com/co/sucre/sincelejo/4cdcb3a0205e0a6a924a0fccfb452390,Mo-Sa 08:00-20:00; Su 10:00-16:00,Western Union,Q861042
66a5da9448a3f79d1f41339c48075916,western_union,SUPERGIROS SINCELEJO PLAZA MERCADO,,Sincelejo,SUCRE,,CO,+57 1 800 0111700,https://location.westernunion.com/co/sucre/sincelejo/66a5da9448a3f79d1f41339c48075916,Mo-Sa 08:00-20:00; Su 10:00-16:00,Western Union,Q861042
9c011be40d32996967bf36ccda66f360,western_union,EFECTY OLIMPICA CENTRO COMERCIAL GUACAR,,Sincelejo,SUCRE,,CO,+57 601 7566027,https://location.westernunion.com/co/sucre/sincelejo/9c011be40d32996967bf36ccda66f360,Mo-Sa 08:00-20:00; Su 08:00-16:00,Western Union,Q861042
b0f07aed7be84a34859a21b3fec54cdd,western_union,PAGAFACIL GUACARI PARQUE COMERCIAL,,Sincelejo,SUCRE,,CO,+57 1 800 0111700,https://location.westernunion.com/co/sucre/sincelejo/b0f07aed7be84a34859a21b3fec54cdd,Mo-Fr 08:00-18:00; Sa 09:00-14:50,Western Union,Q861042
d2a17d261626bb03d9f356ac07aaa432,western_union,SUPERGIROS SINCELEJO PVT BURBUJA GUA,,Sincelejo,SUCRE,,CO,+57 1 800 0111700,https://location.westernunion.com/co/sucre/sincelejo/d2a17d261626bb03d9f356ac07aaa432,Mo-Sa 08:00-20:00,Western Union,Q861042
42a913fe2ebf3d0b9de65b2986bca2a5,western_union,SUPERGIROS SINCELEJO PVT GUACARI CSS,,Galeras,SUCRE,,CO,+57 1 800 0111700,https://location.westernunion.com/co/sucre/galeras/42a913fe2ebf3d0b9de65b2986bca2a5,Mo-Sa 08:00-20:00,Western Union,Q861042
104c4417d79909bd4fce9e94108ebd31,western_union,SUPERGIROS SINCELEJO PUNTO DE NEREIDA,,Sincelejo,SUCRE,,CO,+57 1 800 0111700,https://location.westernunion.com/co/sucre/sincelejo/104c4417d79909bd4fce9e94108ebd31,Mo-Sa 08:00-20:00; Su 10:00-16:00,Western Union,Q861042
e454a0a43a389c63f1e22fa54a601846,western_union,SUPERGIROS SINCELEJO NUEVO MERCADO DOS,,Sincelejo,SUCRE,,CO,+57 1 800 0111700,https://location.westernunion.com/co/sucre/sincelejo/e454a0a43a389c63f1e22fa54a601846,Mo-Sa 08:00-20:00; Su 10:00-16:00,Western Union,Q861042
f2a80ed2c62e1059b581b7e2c9188578,western_union,SUPERGIROS SINCELEJO PDV LA GALLERA PPAL,,Sincelejo,SUCRE,,CO,+57 1 800 0111700,https://location.westernunion.com/co/sucre/sincelejo/f2a80ed2c62e1059b581b7e2c9188578,Mo-Sa 08:00-20:00; Su 10:00-16:00,Western Union,Q861042
68132b5cd30eb178867ded6ff4df046c,western_union,SUPERGIROS SINCELEJO PDV SALUD TOTAL,,Sincelejo,SUCRE,,CO,+57 1 800 0111700,https://location.westernunion.com/co/sucre/sincelejo/68132b5cd30eb178867ded6ff4df046c,Mo-Sa 08:00-20:00,Western Union,Q861042
dace370a370f542dc0c81fb92dc37d29,western_union,EFECTY SINCELEJO AV ALFONSO LOPEZ,,Sincelejo,SUCRE,,CO,+57 601 7566027,https://location.westernunion.com/co/sucre/sincelejo/dace370a370f542dc0c81fb92dc37d29,Mo-Sa 08:00-20:00; Su 08:00-16:00,Western Union,Q861042
27c24f765dae92458bb1b604bb611c69,western_union,SUPERGIROS SINCELEJO ALFONSO LOPEZ,,Sincelejo,SUCRE,,CO,+57 1 800 0111700,https://location.westernunion.com/co/sucre/sincelejo/27c24f765dae92458bb1b604bb611c69,Mo-Sa 08:00-20:00,Western Union,Q861042
b31a131fd47f6fc18914c2fedbf4b445,western_union,SUPERGIROS SINCELEJO PDV PORVENIR SUCRE,,Sincelejo,SUCRE,,CO,+57 1 800 0111700,https://location.westernunion.com/co/sucre/sincelejo/b31a131fd47f6fc18914c2fedbf4b445,Mo-Sa 08:00-20:00; Su 10:00-16:00,Western Union,Q861042
2983d7b18b8e9fea317fe215625d718a,western_union,MULTIPAGAS LAS PE�ITAS,,Sincelejo,SUCRE,,CO,+57 602 6510101,https://location.westernunion.com/co/sucre/sincelejo/2983d7b18b8e9fea317fe215625d718a,Mo-Fr 09:00-18:30; Sa 09:00-15:00,Western Union,Q861042
911dc0eb142ffdfe5e8a23613e5fae55,western_union,SUPERGIROS SINCELEJO ESTAD,,Guaranda,SUCRE,,CO,+57 1 800 0111700,https://location.westernunion.com/co/sucre/guaranda/911dc0eb142ffdfe5e8a23613e5fae55,Mo-Sa 08:00-20:00,Western Union,Q861042
5892cb3ea5b501169f2edbc1d6944fe6,western_union,SUPERGIROS SINCELEJO VIVA,,Sampues,SUCRE,,CO,+57 1 800 0111700,https://location.westernunion.com/co/sucre/sampues/5892cb3ea5b501169f2edbc1d6944fe6,Mo-Sa 08:00-20:00,Western Union,Q861042
670256d707db3f9fd5568915931ab822,western_union,SUPERGIROS SINCELEJO DULCE NOMBRE SUCRE,,Sincelejo,SUCRE,,CO,+57 1 800 0111700,https://location.westernunion.com/co/sucre/sincelejo/670256d707db3f9fd5568915931ab822,Mo-Sa 08:00-20:00; Su 10:00-16:00,Western Union,Q861042
509a63f5201fe14516de35349a7da8c5,western_union,SUPERGIROS SINCELEJO PDV VILLA NATALIA,,Sincelejo,SUCRE,,CO,+57 1 800 0111700,https://location.westernunion.com/co/sucre/sincelejo/509a63f5201fe14516de35349a7da8c5,Mo-Sa 08:00-20:00; Su 10:00-16:00,Western Union,Q861042
6b652212cd1e83573c5882e47052697f,western_union,SUPERGIROS SINCELEJO PDV NUEVO MEXICO,,Sincelejo,SUCRE,,CO,+57 1 800 0111700,https://location.westernunion.com/co/sucre/sincelejo/6b652212cd1e83573c5882e47052697f,Mo-Sa 08:00-20:00; Su 10:00-16:00,Western Union,Q861042
e9b3cf5ae7059258700450dffa4c55d0,western_union,MULTIPAGAS PLAZA MAJAGUAL,,Majagual,SUCRE,,CO,+57 602 6510101,https://location.westernunion.com/co/sucre/majagual/e9b3cf5ae7059258700450dffa4c55d0,Mo-Fr 08:00-19:00; Sa 08:00-14:00,Western Union,Q861042
c468f5cc400a5936bddd483e298697f5,western_union,SUPERGIROS SAN ONOFRE PDV ESQUINAZO,,San Pedro,SUCRE,,CO,+57 1 800 0111700,https://location.westernunion.com/co/sucre/san-pedro/c468f5cc400a5936bddd483e298697f5,Mo-Sa 08:00-20:00; Su 10:00-16:00,Western Union,Q861042
c688ff2c7194dbe70811023867814bf0,western_union,SUPERGIROS OVEJAS COMP VARIEDADES CSS,,Ovejas,SUCRE,,CO,+57 1 800 0111700,https://location.westernunion.com/co/sucre/ovejas/c688ff2c7194dbe70811023867814bf0,Mo-Sa 08:00-20:00; Su 10:00-16:00,Western Union,Q861042
7f62acb260697856e668da950c75c610,western_union,SUPERGIROS SAN ONOFRE PDV PARQUE S ONOFR,,San Onofre,SUCRE,,CO,+57 1 800 0111700,https://location.westernunion.com/co/sucre/san-onofre/7f62acb260697856e668da950c75c610,Mo-Sa 08:00-20:00; Su 10:00-16:00,Western Union,Q861042
16d6071b7520fc940205a4bca31bd4a1,western_union,EFECTY PCC SINCELEJO BRR LA TRINIDAD,,Sincelejo,SUCRE,,CO,+57 601 7566027,https://location.westernunion.com/co/sucre/sincelejo/16d6071b7520fc940205a4bca31bd4a1,Mo-Sa 08:00-20:00; Su 08:00-16:00,Western Union,Q861042
636b762c9d12ff88d0c1b65f570bc618,western_union,SUPERGIROS SINCELEJO WM COMPU NET SUCRE,,Sincelejo,SUCRE,,CO,+57 1 800 0111700,https://location.westernunion.com/co/sucre/sincelejo/636b762c9d12ff88d0c1b65f570bc618,Mo-Sa 08:00-20:00; Su 10:00-16:00,Western Union,Q861042
e248ccefffea379f55de7c05f4642064,western_union,SUPERGIROS SINCELEJO GRAN,,Morroa,SUCRE,,CO,+57 1 800 0111700,https://location.westernunion.com/co/sucre/morroa/e248ccefffea379f55de7c05f4642064,Mo-Sa 08:00-20:00,Western Union,Q861042
8c263c31c50b7bab0155806ae37e8c24,western_union,SUPERGIROS COROZAL PDV VEOLIA CSS SUCRE,,Ovejas,SUCRE,,CO,+57 1 800 0111700,https://location.westernunion.com/co/sucre/ovejas/8c263c31c50b7bab0155806ae37e8c24,Mo-Sa 08:00-20:00; Su 10:00-16:00,Western Union,Q861042
906f114dfbe2d2e04c05cccd03d982b4,western_union,SUPERGIROS SINCELEJO PDV LA VICTORIA,,Sincelejo,SUCRE,,CO,+57 1 800 0111700,https://location.westernunion.com/co/sucre/sincelejo/906f114dfbe2d2e04c05cccd03d982b4,Mo-Sa 08:00-20:00; Su 10:00-16:00,Western Union,Q861042
37126b9d4e5852086b18df8c74572016,western_union,SUPERGIROS SINCELEJO TIENDA EL OASIS,,Sincelejo,SUCRE,,CO,+57 1 800 0111700,https://location.westernunion.com/co/sucre/sincelejo/37126b9d4e5852086b18df8c74572016,Mo-Sa 08:00-20:00,Western Union,Q861042
290f5d9db05819980f3c6c183338337e,western_union,SUPERGIROS SINCELEJO CANCHA EL PROGRESO,,Sincelejo,SUCRE,,CO,+57 1 800 0111700,https://location.westernunion.com/co/sucre/sincelejo/290f5d9db05819980f3c6c183338337e,Mo-Sa 08:00-20:00; Su 10:00-16:00,Western Union,Q861042
c32c0859680c3fe011f8068b2d8a4285,western_union,SUPERGIROS OVEJAS CSS SUCRE,,Sincelejo,SUCRE,,CO,+57 1 800 0111700,https://location.westernunion.com/co/sucre/sincelejo/c32c0859680c3fe011f8068b2d8a4285,Mo-Sa 08:00-20:00,Western Union,Q861042
982ab491ad232fd4b3a4a21c27728605,western_union,SUPERGIROS SINCELEJO HOTEL BRASILIA,,Sincelejo,SUCRE,,CO,+57 1 800 0111700,https://location.westernunion.com/co/sucre/sincelejo/982ab491ad232fd4b3a4a21c27728605,Mo-Sa 08:00-20:00; Su 10:00-16:00,Western Union,Q861042
38521f9cc2f6bab3fcb4b4cd850ac28e,western_union,SUPERGIROS COROZAL CDA PRINCIPAL,,Sincelejo,SUCRE,,CO,+57 1 800 0111700,https://location.westernunion.com/co/sucre/sincelejo/38521f9cc2f6bab3fcb4b4cd850ac28e,Mo-Sa 08:00-20:00,Western Union,Q861042
96cc70331ddb5433495ac6ebae78e580,western_union,EFECTY LA PLAZA OVEJAS,,Ovejas,SUCRE,,CO,+57 601 7566027,https://location.westernunion.com/co/sucre/ovejas/96cc70331ddb5433495ac6ebae78e580,Mo-Sa 08:00-20:00; Su 08:00-16:00,Western Union,Q861042
a9cc98dfc5ae12e5ea91eb26497d34b0,western_union,SUPERGIROS SINCELEJO PDV ABARROTES No 2,,Sincelejo,SUCRE,,CO,+57 1 800 0111700,https://location.westernunion.com/co/sucre/sincelejo/a9cc98dfc5ae12e5ea91eb26497d34b0,Mo-Sa 08:00-20:00; Su 10:00-16:00,Western Union,Q861042
7ac9407264fbdc6a962e503a508f88ed,western_union,SUPERGIROS SINCELEJO PDV EL EDEN SUCRE,,Sincelejo,SUCRE,,CO,+57 1 800 0111700,https://location.westernunion.com/co/sucre/sincelejo/7ac9407264fbdc6a962e503a508f88ed,Mo-Sa 08:00-20:00; Su 10:00-16:00,Western Union,Q861042
6f5dcd1831b30f0143405d656a2dc14d,western_union,SUPERGIROS SINCELEJO PDV TORRES GUACARY,,Sincelejo,SUCRE,,CO,+57 1 800 0111700,https://location.westernunion.com/co/sucre/sincelejo/6f5dcd1831b30f0143405d656a2dc14d,Mo-Sa 08:00-20:00; Su 10:00-16:00,Western Union,Q861042
d9f21b515cf9b784412343609ceb66d8,western_union,SUPERGIROS SINCELEJO PVT MONASTERIO,,Sincelejo,SUCRE,,CO,+57 1 800 0111700,https://location.westernunion.com/co/sucre/sincelejo/d9f21b515cf9b784412343609ceb66d8,Mo-Sa 08:00-20:00; Su 10:00-16:00,Western Union,Q861042
7ea545c0619903ff3730a5f7d70f4489,western_union,SUPERGIROS SINCELEJO PDV SANTA CECILIA,,Sincelejo,SUCRE,,CO,+57 1 800 0111700,https://location.westernunion.com/co/sucre/sincelejo/7ea545c0619903ff3730a5f7d70f4489,Mo-Sa 08:00-20:00; Su 10:00-16:00,Western Union,Q861042
1b5d076e3432ab32c0b342d0282bed5d,western_union,SUPERGIROS SINCELEJO GRANE,,Chalan,SUCRE,,CO,+57 1 800 0111700,https://location.westernunion.com/co/sucre/chalan/1b5d076e3432ab32c0b342d0282bed5d,Mo-Sa 08:00-20:00,Western Union,Q861042
bc07d7f3462215b703e2b60e8a0d0cd4,western_union,SUPERGIROS SAMPUES PVT ZONA ARTEZANA,,Sincelejo,SUCRE,,CO,+57 1 800 0111700,https://location.westernunion.com/co/sucre/sincelejo/bc07d7f3462215b703e2b60e8a0d0cd4,Mo-Sa 08:00-20:00,Western Union,Q861042
cc8d8baecb9f043f8e6be4dbfd3d4c81,western_union,SUPERGIROS SINCELEJO PDV LAS MARGARITAS,,Sincelejo,SUCRE,,CO,+57 1 800 0111700,https://location.westernunion.com/co/sucre/sincelejo/cc8d8baecb9f043f8e6be4dbfd3d4c81,Mo-Sa 08:00-20:00; Su 10:00-16:00,Western Union,Q861042
8fa38878bf3ebab032089d11cd6cbf2b,western_union,SUPERGIROS SINCELEJO GOBERNACION,,San Pedro,SUCRE,,CO,+57 1 800 0111700,https://location.westernunion.com/co/sucre/san-pedro/8fa38878bf3ebab032089d11cd6cbf2b,Mo-Sa 08:00-20:00,Western Union,Q861042
ac09661ed89f61f135d0d18cc65e7e9c,western_union,SUPERGIROS SINCELEJO BRASILIA,,Sincelejo,SUCRE,,CO,+57 1 800 0111700,https://location.westernunion.com/co/sucre/sincelejo/ac09661ed89f61f135d0d18cc65e7e9c,Mo-Sa 08:00-20:00,Western Union,Q861042
2ae08dbda69cca0a5f5e2f4e5c19b9b7,western_union,SUPERGIROS SINCELEJO PDV PF LOS LAURELES,,Sincelejo,SUCRE,,CO,+57 1 800 0111700,https://location.westernunion.com/co/sucre/sincelejo/2ae08dbda69cca0a5f5e2f4e5c19b9b7,Mo-Sa 08:00-20:00; Su 10:00-16:00,Western Union,Q861042
ea6d11fabc934211d44415eee2b47661,western_union,SUPERGIROS SINCELEJO DROGAS NEW YORK,,Sincelejo,SUCRE,,CO,+57 1 800 0111700,https://location.westernunion.com/co/sucre/sincelejo/ea6d11fabc934211d44415eee2b47661,Mo-Sa 08:00-20:00,Western Union,Q861042
219a61f068e1b6caf32ab0ddce9fb521,western_union,SUPERGIROS SINCELEJO EL PROGRESO CSS,,Sincelejo,SUCRE,,CO,+57 1 800 0111700,https://location.westernunion.com/co/sucre/sincelejo/219a61f068e1b6caf32ab0ddce9fb521,Mo-Sa 08:00-20:00,Western Union,Q861042
aff326a9efcba8e08423e8636c767ef5,western_union,SUPERGIROS SINCELEJO LA LIBERTAD SUCRE,,Sincelejo,SUCRE,,CO,+57 1 800 0111700,https://location.westernunion.com/co/sucre/sincelejo/aff326a9efcba8e08423e8636c767ef5,Mo-Sa 08:00-20:00; Su 10:00-16:00,Western Union,Q861042
a0ab803c31e66bf7ffc21423eb963382,western_union,SUPERGIROS SINCELEJO AVENIDA CHOCHO,,Sincelejo,SUCRE,,CO,+57 1 800 0111700,https://location.westernunion.com/co/sucre/sincelejo/a0ab803c31e66bf7ffc21423eb963382,Mo-Sa 08:00-20:00; Su 10:00-16:00,Western Union,Q861042
7dbafffca25d853cb6cc7787645a52ad,western_union,EFECTY SAMPUES LA TRONCAL,,Sampues,SUCRE,,CO,+57 601 7566027,https://location.westernunion.com/co/sucre/sampues/7dbafffca25d853cb6cc7787645a52ad,Mo-Fr 08:00-20:00; Sa 08:00-18:00; Su 08:00-12:00,Western Union,Q861042
1e3d7e8071bff8cbb91495ce181d98fb,western_union,EFECTY COROZAL CALLE DEL ESTADIO,,Corozal,SUCRE,,CO,+57 601 7566027,https://location.westernunion.com/co/sucre/corozal/1e3d7e8071bff8cbb91495ce181d98fb,Mo-Sa 08:00-20:00; Su 08:00-16:00,Western Union,Q861042
f25dfb3e113c65fe73d3aece6bf90b53,western_union,SUPERGIROS SAN ONOFRE PDV LA TRONCAL,,San Onofre,SUCRE,,CO,+57 1 800 0111700,https://location.westernunion.com/co/sucre/san-onofre/f25dfb3e113c65fe73d3aece6bf90b53,Mo-Sa 08:00-20:00; Su 10:00-16:00,Western Union,Q861042
7a2c2df7c68ca768139435aec08383f8,western_union,EFECTY CORREGIMIENTO SABANAS DE BELTRAN,,Los Palmitos,SUCRE,,CO,+57 601 7566027,https://location.westernunion.com/co/sucre/los-palmitos/7a2c2df7c68ca768139435aec08383f8,Mo-Fr 08:00-20:00; Sa 08:00-18:00; Su 08:00-13:00,Western Union,Q861042
bf4e6b9e24e47bfd6c7fe9030218d3ae,western_union,SUPERGIROS SAMPUES SUCURSA,,Sampues,SUCRE,,CO,+57 1 800 0111700,https://location.westernunion.com/co/sucre/sampues/bf4e6b9e24e47bfd6c7fe9030218d3ae,Mo-Sa 08:00-20:00,Western Union,Q861042
9e491591976955ee76c138ddd5a018c4,western_union,EFECTY SAMPUES TERMINAL,,Sampues,SUCRE,,CO,+57 601 7566027,https://location.westernunion.com/co/sucre/sampues/9e491591976955ee76c138ddd5a018c4,Mo-Fr 08:00-20:00; Sa 08:00-16:00,Western Union,Q861042
461eb190fb81a4aada4ff66c9069280b,western_union,SUPERGIROS LOS PALMITOS CSS SUCRE,,Los Palmitos,SUCRE,,CO,+57 1 800 0111700,https://location.westernunion.com/co/sucre/los-palmitos/461eb190fb81a4aada4ff66c9069280b,Mo-Sa 08:00-20:00,Western Union,Q861042
7967b2992a491e7aa1e4eb3a1a9844cb,western_union,SUPERGIROS SINCELEJO AVENIDA CHOCHO,,Los Palmitos,SUCRE,,CO,+57 1 800 0111700,https://location.westernunion.com/co/sucre/los-palmitos/7967b2992a491e7aa1e4eb3a1a9844cb,Mo-Sa 08:00-20:00,Western Union,Q861042
066292717f8e1a37f611e62c39861954,western_union,SUPERGIROS MORROA CSS SUCRE,,San Onofre,SUCRE,,CO,+57 1 800 0111700,https://location.westernunion.com/co/sucre/san-onofre/066292717f8e1a37f611e62c39861954,Mo-Sa 08:00-20:00,Western Union,Q861042
bc6a016bfd32685ea599d7b71896d3cc,western_union,SUPERGIROS COROZAL LA TREINTA,,Galeras,SUCRE,,CO,+57 1 800 0111700,https://location.westernunion.com/co/sucre/galeras/bc6a016bfd32685ea599d7b71896d3cc,Mo-Sa 08:00-20:00,Western Union,Q861042
fb80cc3ed97187da7abfc41af53487d3,western_union,SUPERGIROS COLOSO PDV ENTRADA COLOSO,,Corozal,SUCRE,,CO,+57 1 800 0111700,https://location.westernunion.com/co/sucre/corozal/fb80cc3ed97187da7abfc41af53487d3,Mo-Sa 08:00-20:00; Su 10:00-16:00,Western Union,Q861042
fb53fb3d953e6c00a4fea0b2af61bda3,western_union,EFECTY EXPRESS EFECTY EL CAMPANO,,Sampues,SUCRE,,CO,+57 601 7566027,https://location.westernunion.com/co/sucre/sampues/fb53fb3d953e6c00a4fea0b2af61bda3,Mo-Sa 08:00-20:00; Su 08:00-16:00,Western Union,Q861042
7b7d36d6acae9d1c57bb2584cdfe96ee,western_union,SUPERGIROS SAN ONOFRE ISLOTE CSS,,Sampues,SUCRE,,CO,+57 1 800 0111700,https://location.westernunion.com/co/sucre/sampues/7b7d36d6acae9d1c57bb2584cdfe96ee,Mo-Sa 08:00-20:00; Su 10:00-16:00,Western Union,Q861042
d52965a8e72b9de7a3418166076cab76,western_union,SUPERGIROS MAJAGUAL CPM GUAYABALITO 2,,Morroa,SUCRE,,CO,+57 1 800 0111700,https://location.westernunion.com/co/sucre/morroa/d52965a8e72b9de7a3418166076cab76,Mo-Sa 08:00-20:00; Su 10:00-16:00,Western Union,Q861042
e1f3cedbc975ca124a0e21ee834cb1ed,western_union,SUPERGIROS SAMPUES HOSPITAL CSS,,Sampues,SUCRE,,CO,+57 1 800 0111700,https://location.westernunion.com/co/sucre/sampues/e1f3cedbc975ca124a0e21ee834cb1ed,Mo-Sa 08:00-20:00; Su 10:00-16:00,Western Union,Q861042
21663f717f974c67fea77cff394b84ec,western_union,EFECTY SAMPUES CALLE PRINCIPAL CENTRO,,Sampues,SUCRE,,CO,+57 601 7566027,https://location.westernunion.com/co/sucre/sampues/21663f717f974c67fea77cff394b84ec,Mo-Sa 08:00-20:00; Su 08:00-16:00,Western Union,Q861042
996c14017f4840921798e4efc54b40d6,western_union,SUPERGIROS SINCELEJO CORTIJO CSS SUC,,Sampues,SUCRE,,CO,+57 1 800 0111700,https://location.westernunion.com/co/sucre/sampues/996c14017f4840921798e4efc54b40d6,Mo-Sa 08:00-20:00,Western Union,Q861042
b64c843abaf3f8c47eaf2d6f9c948ec5,western_union,EFECTY COROZAL BRR CARTAGENA DE INDIAS,,Corozal,SUCRE,,CO,+57 601 7566027,https://location.westernunion.com/co/sucre/corozal/b64c843abaf3f8c47eaf2d6f9c948ec5,Mo-Sa 08:00-20:00; Su 08:00-16:00,Western Union,Q861042
97b97004b6032d4ee160f683bd8926a4,western_union,SUPERGIROS COROZAL VARIEDADES IMPERIAL,,Corozal,SUCRE,,CO,+57 1 800 0111700,https://location.westernunion.com/co/sucre/corozal/97b97004b6032d4ee160f683bd8926a4,Mo-Sa 08:00-20:00; Su 10:00-16:00,Western Union,Q861042
0e164650d17de63fa605986931e9a780,western_union,SUPERGIROS COROZAL DROGUERIA LA ECONOMIA,,Corozal,SUCRE,,CO,+57 1 800 0111700,https://location.westernunion.com/co/sucre/corozal/0e164650d17de63fa605986931e9a780,Mo-Sa 08:00-20:00; Su 10:00-16:00,Western Union,Q861042
778b7d4ae66fcd9087de83eb9357957b,western_union,PAGAFACIL COROZAL,,Corozal,SUCRE,,CO,+57 1 800 0111700,https://location.westernunion.com/co/sucre/corozal/778b7d4ae66fcd9087de83eb9357957b,Mo-Fr 09:00-18:00; Sa 09:00-14:50,Western Union,Q861042
2c51c0c214882b69664ca4fa5ae6bf60,western_union,SUPERGIROS COROZAL PVTA COROCENTRO,,Corozal,SUCRE,,CO,+57 1 800 0111700,https://location.westernunion.com/co/sucre/corozal/2c51c0c214882b69664ca4fa5ae6bf60,Mo-Sa 08:00-20:00,Western Union,Q861042
99bb41994537d264c86bb0b1e0e419ad,western_union,SUPERGIROS COROZAL PVTA HOSPITAL CSS,,Corozal,SUCRE,,CO,+57 1 800 0111700,https://location.westernunion.com/co/sucre/corozal/99bb41994537d264c86bb0b1e0e419ad,Mo-Sa 08:00-20:00; Su 10:00-16:00,Western Union,Q861042
20504a2d26afad10dda5fba0ca104d06,western_union,SUPERGIROS SAN PEDRO SAN JAIME CSS S,,San Juan De Betulia,SUCRE,,CO,+57 1 800 0111700,https://location.westernunion.com/co/sucre/san-juan-de-betulia/20504a2d26afad10dda5fba0ca104d06,Mo-Sa 08:00-20:00,Western Union,Q861042
fd89aff738eca4d6a78b4f24f665c49d,western_union,SUPERGIROS SAN JUAN DE BETULIA PUNTO,,San Benito Abad,SUCRE,,CO,+57 1 800 0111700,https://location.westernunion.com/co/sucre/san-benito-abad/fd89aff738eca4d6a78b4f24f665c49d,Mo-Sa 08:00-20:00,Western Union,Q861042
cd87ffc2c72fc8bf07344fcc896a4b6d,western_union,EFECTY SINCE CENTRO CRA 11,,San Luis De Since,SUCRE,,CO,+57 601 7566027,https://location.westernunion.com/co/sucre/san-luis-de-since/cd87ffc2c72fc8bf07344fcc896a4b6d,Mo-Sa 08:00-20:00; Su 08:00-16:00,Western Union,Q861042
b7d854bd065a13eb80abe071c21c7f35,western_union,SUPERGIROS SAN LUIS DE SIN,,Sincelejo,SUCRE,,CO,+57 1 800 0111700,https://location.westernunion.com/co/sucre/sincelejo/b7d854bd065a13eb80abe071c21c7f35,Mo-Sa 08:00-20:00,Western Union,Q861042
bc035f1d0268dcdd86863b2ee442f557,western_union,SUPERGIROS SINCELEJO DROGAS LA REBAJA 1,,Sincelejo,SUCRE,,CO,+57 1 800 0111700,https://location.westernunion.com/co/sucre/sincelejo/bc035f1d0268dcdd86863b2ee442f557,Mo-Sa 08:00-20:00; Su 10:00-16:00,Western Union,Q861042
9803f67b07eee104c49e653cbaa4a6a9,western_union,SUPERGIROS S JUAN DE BETULIA CALLE ROJA,,Albania,SUCRE,,CO,+57 1 800 0111700,https://location.westernunion.com/co/sucre/albania/9803f67b07eee104c49e653cbaa4a6a9,Mo-Sa 08:00-20:00; Su 10:00-16:00,Western Union,Q861042
fbe4b8a31cf5dd25ef63c88629364153,western_union,SUPERGIROS COROZAL DROGUER,,Tolu Viejo,SUCRE,,CO,+57 1 800 0111700,https://location.westernunion.com/co/sucre/tolu-viejo/fbe4b8a31cf5dd25ef63c88629364153,Mo-Sa 08:00-20:00,Western Union,Q861042
52aef2111762c1dee97ca16179b1829f,western_union,EFECTY EL ROBLE PRINCIPAL,,El Roble,SUCRE,,CO,+57 601 7566027,https://location.westernunion.com/co/sucre/el-roble/52aef2111762c1dee97ca16179b1829f,Mo-Sa 08:00-20:00; Su 08:00-16:00,Western Union,Q861042
51f9b5e74ff447bfcda7bcd04ed3da02,western_union,SUPERGIROS EL ROBLE CSS SUCRE,,Los Palmitos,SUCRE,,CO,+57 1 800 0111700,https://location.westernunion.com/co/sucre/los-palmitos/51f9b5e74ff447bfcda7bcd04ed3da02,Mo-Sa 08:00-20:00,Western Union,Q861042
1b637266c724b100d31b84653bb693f4,western_union,EFECTY CORREGIMIENTO EL SITIO,,El Roble,SUCRE,,CO,+57 601 7566027,https://location.westernunion.com/co/sucre/el-roble/1b637266c724b100d31b84653bb693f4,Mo-Sa 08:00-20:00; Su 08:00-16:00,Western Union,Q861042
a819ece23c05046fb86ca0efe0d54325,western_union,SUPERGIROS LA UNION CSS SUCRE,,La Union,SUCRE,,CO,+57 1 800 0111700,https://location.westernunion.com/co/sucre/la-union/a819ece23c05046fb86ca0efe0d54325,Mo-Sa 08:00-20:00,Western Union,Q861042
fe9d00230ae33819e89a619d8ae21ce9,western_union,SUPERGIROS GUARANDA EL CONONDERO CSS,,La Union,SUCRE,,CO,+57 1 800 0111700,https://location.westernunion.com/co/sucre/la-union/fe9d00230ae33819e89a619d8ae21ce9,Mo-Sa 08:00-20:00; Su 10:00-16:00,Western Union,Q861042
7a62672acc9b733c0d10b3a9cf41fb28,western_union,SUPERGIROS SINCELEJO BARRIO BOLIVAR,,La Union,SUCRE,,CO,+57 1 800 0111700,https://location.westernunion.com/co/sucre/la-union/7a62672acc9b733c0d10b3a9cf41fb28,Mo-Sa 08:00-20:00,Western Union,Q861042
a5345d6ee21604ab20477bab09b26be5,western_union,SUPERGIROS SINCELEJO NORMANDIA CSS S,,La Union,SUCRE,,CO,+57 1 800 0111700,https://location.westernunion.com/co/sucre/la-union/a5345d6ee21604ab20477bab09b26be5,Mo-Sa 08:00-20:00,Western Union,Q861042
46b29646a6d59a0eb5c99ece064dba23,western_union,SUPERGIROS SINCE CSS SUCRE,,Majagual,SUCRE,,CO,+57 1 800 0111700,https://location.westernunion.com/co/sucre/majagual/46b29646a6d59a0eb5c99ece064dba23,Mo-Sa 08:00-20:00,Western Union,Q861042
b8dccbe2bda5e5dd9a15f9c8d69df7e5,western_union,EFECTY CL COMERCIO,,San Pedro,SUCRE,,CO,+57 601 7566027,https://location.westernunion.com/co/sucre/san-pedro/b8dccbe2bda5e5dd9a15f9c8d69df7e5,Mo-Fr 08:00-18:00; Sa 08:00-15:00,Western Union,Q861042
39b4ace8294f4ac256b43bb3029399af,western_union,SUPERGIROS SAN PEDRO PDV LA TRONCAL,,San Pedro,SUCRE,,CO,+57 1 800 0111700,https://location.westernunion.com/co/sucre/san-pedro/39b4ace8294f4ac256b43bb3029399af,Mo-Sa 08:00-20:00; Su 10:00-16:00,Western Union,Q861042
e9f25d350fbf0222511c3e603da0a43e,western_union,EFECTY SAN PEDRO AV LOS ESTUDIANTES,,San Pedro,SUCRE,,CO,+57 601 7566027,https://location.westernunion.com/co/sucre/san-pedro/e9f25d350fbf0222511c3e603da0a43e,Mo-Sa 08:00-20:00; Su 08:00-16:00,Western Union,Q861042
3c8c7b57cc16b5f0d5d4e2b7b14c9eee,western_union,SUPERGIROS GALERAS CSS SUCRE,,Sincelejo,SUCRE,,CO,+57 1 800 0111700,https://location.westernunion.com/co/sucre/sincelejo/3c8c7b57cc16b5f0d5d4e2b7b14c9eee,Mo-Sa 08:00-20:00,Western Union,Q861042
b148d23599d2cac673a9f8f6a7434169,western_union,SUPERGIROS SAN MARCOS PDV ARTESANAL,,San Marcos,SUCRE,,CO,+57 1 800 0111700,https://location.westernunion.com/co/sucre/san-marcos/b148d23599d2cac673a9f8f6a7434169,Mo-Sa 08:00-20:00; Su 10:00-16:00,Western Union,Q861042
6578ae644ce6187a041a59651b0891e4,western_union,SUPERGIROS COVENAS BATALLON DOS CSS,,Galeras,SUCRE,,CO,+57 1 800 0111700,https://location.westernunion.com/co/sucre/galeras/6578ae644ce6187a041a59651b0891e4,Mo-Sa 08:00-20:00; Su 10:00-16:00,Western Union,Q861042
10842144c0029c6f4667d5ea95d96ac2,western_union,SUPERGIROS TOLU VIEJO VARSOVIA CSS S,,Galeras,SUCRE,,CO,+57 1 800 0111700,https://location.westernunion.com/co/sucre/galeras/10842144c0029c6f4667d5ea95d96ac2,Mo-Sa 08:00-20:00,Western Union,Q861042
262d61b8dcb138943880c8fc555320df,western_union,SUPERGIROS GUARANDA CSS SUCRE,,Buenavista   Sucre,SUCRE,,CO,+57 1 800 0111700,https://location.westernunion.com/co/sucre/buenavista---sucre/262d61b8dcb138943880c8fc555320df,Mo-Sa 08:00-20:00,Western Union,Q861042
77e5b760df6a84542a312b1c6f25b1c8,western_union,SUPERGIROS COVENAS CSS SUCRE,,Buenavista   Sucre,SUCRE,,CO,+57 1 800 0111700,https://location.westernunion.com/co/sucre/buenavista---sucre/77e5b760df6a84542a312b1c6f25b1c8,Mo-Sa 08:00-20:00,Western Union,Q861042
90981fe48e424430265eb09c80062474,western_union,BANCO AGRARIO BUENAVISTA,,Buenavista,SUCRE,,CO,+57 601 5948500,https://location.westernunion.com/co/sucre/buenavista/90981fe48e424430265eb09c80062474,Mo-Fr 08:00-16:30,Western Union,Q861042
3f17012a65fa0489ddc6c72c71d0ac66,western_union,SUPERGIROS SINCELEJO LA ALCALDIA DOS,,Buenavista,SUCRE,,CO,+57 1 800 0111700,https://location.westernunion.com/co/sucre/buenavista/3f17012a65fa0489ddc6c72c71d0ac66,Mo-Sa 08:00-20:00,Western Union,Q861042
72cfa8d989aa5b95846a5a24ea4efdb8,western_union,SUPERGIROS BUENAVISTA PDV PARQUE BUENAVI,,Buenavista,SUCRE,,CO,+57 1 800 0111700,https://location.westernunion.com/co/sucre/buenavista/72cfa8d989aa5b95846a5a24ea4efdb8,Mo-Sa 08:00-20:00; Su 10:00-16:00,Western Union,Q861042
42529a1959033872ca141708d9f865d3,western_union,SUPERGIROS SAN MARCOS COMPUG BUENAVISTA,,San Marcos,SUCRE,,CO,+57 1 800 0111700,https://location.westernunion.com/co/sucre/san-marcos/42529a1959033872ca141708d9f865d3,Mo-Sa 08:00-20:00; Su 10:00-16:00,Western Union,Q861042
209e9de0759bbde32580e54434e6b376,western_union,EFECTY SAN MARCOS VRD PALO ALTO,,San Marcos,SUCRE,,CO,+57 601 7566027,https://location.westernunion.com/co/sucre/san-marcos/209e9de0759bbde32580e54434e6b376,Mo-Sa 08:00-20:00; Su 08:00-16:00,Western Union,Q861042
5cb3f770b1ad5ad4bbe73938c0cf4deb,western_union,EFECTY CORREGIMIENTO SIETE PALMAS,,Caimito,SUCRE,,CO,+57 601 7566027,https://location.westernunion.com/co/sucre/caimito/5cb3f770b1ad5ad4bbe73938c0cf4deb,Mo-Sa 08:00-20:00; Su 08:00-16:00,Western Union,Q861042
8ef2d02da17d76f12bd3b894429562d6,western_union,SUPERGIROS CAIMITO CSS SUCRE,,Sincelejo,SUCRE,,CO,+57 1 800 0111700,https://location.westernunion.com/co/sucre/sincelejo/8ef2d02da17d76f12bd3b894429562d6,Mo-Sa 08:00-20:00,Western Union,Q861042
3ce8001c7f1dd6e3e7ee3a4115ff165e,western_union,SUPERGIROS SAMPUES PDV ARA SAMPUES CSS,,San Benito,SUCRE,,CO,+57 1 800 0111700,https://location.westernunion.com/co/sucre/san-benito/3ce8001c7f1dd6e3e7ee3a4115ff165e,Mo-Sa 08:00-20:00; Su 10:00-16:00,Western Union,Q861042
752a96cc753bf209ad4cfdd07eeaf4bc,western_union,BANCO AGRARIO SAN MARCOS,,San Marcos,SUCRE,,CO,+57 601 5948500,https://location.westernunion.com/co/sucre/san-marcos/752a96cc753bf209ad4cfdd07eeaf4bc,Mo-Fr 08:00-16:30,Western Union,Q861042
7ba0d8f8f79de4df7f2f7291d79eadb7,western_union,SUPERGIROS SAN BENITO ABAD P LA AVENTURA,,San Marcos,SUCRE,,CO,+57 1 800 0111700,https://location.westernunion.com/co/sucre/san-marcos/7ba0d8f8f79de4df7f2f7291d79eadb7,Mo-Sa 08:00-20:00; Su 10:00-16:00,Western Union,Q861042
2ff1bc67ec151ff5f4b55e8e9356f089,western_union,EFECTY SAN MARCOS PABLO SEXTO,,San Marcos,SUCRE,,CO,+57 601 7566027,https://location.westernunion.com/co/sucre/san-marcos/2ff1bc67ec151ff5f4b55e8e9356f089,Mo-Sa 08:00-20:00; Su 08:00-16:00,Western Union,Q861042
c471dbab9ea6ffb38a0fe175d2c8dfee,western_union,SUPERGIROS SAN MARCOS PDV SAN MARCOS,,San Marcos,SUCRE,,CO,+57 1 800 0111700,https://location.westernunion.com/co/sucre/san-marcos/c471dbab9ea6ffb38a0fe175d2c8dfee,Mo-Sa 08:00-20:00; Su 10:00-16:00,Western Union,Q861042
3aa962a37d0d391e7cf2d85d1c4d346e,western_union,EFECTY SAN MARCOS BRR SAN JOSE,,San Marcos,SUCRE,,CO,+57 601 7566027,https://location.westernunion.com/co/sucre/san-marcos/3aa962a37d0d391e7cf2d85d1c4d346e,Mo-Sa 08:00-20:00; Su 08:00-16:00,Western Union,Q861042
1da503ddbedc17aac9fe4f33cfb05019,western_union,SUPERGIROS SAN MARCOS PDV LA CARPA,,San Marcos,SUCRE,,CO,+57 1 800 0111700,https://location.westernunion.com/co/sucre/san-marcos/1da503ddbedc17aac9fe4f33cfb05019,Mo-Sa 08:00-20:00; Su 10:00-16:00,Western Union,Q861042
390890d9bd9d221934e8f89f7a0732f9,western_union,SUPERGIROS SAN BENITO CSS,,Sincelejo,SUCRE,,CO,+57 1 800 0111700,https://location.westernunion.com/co/sucre/sincelejo/390890d9bd9d221934e8f89f7a0732f9,Mo-Sa 08:00-20:00,Western Union,Q861042
bcd1c8d6d3bff33217eb55c17c5f4527,western_union,SUPERGIROS SAN MARCOS CSS,,Tolu Viejo,SUCRE,,CO,+57 1 800 0111700,https://location.westernunion.com/co/sucre/tolu-viejo/bcd1c8d6d3bff33217eb55c17c5f4527,Mo-Sa 08:00-20:00,Western Union,Q861042
4e16939f13b6634607e0ffe97a423a3c,western_union,SUPERGIROS SAN MARCOS CPM DANY LA 18,,San Marcos,SUCRE,,CO,+57 1 800 0111700,https://location.westernunion.com/co/sucre/san-marcos/4e16939f13b6634607e0ffe97a423a3c,Mo-Sa 08:00-20:00; Su 10:00-16:00,Western Union,Q861042
e43eed4f63152a50f3caf794eb3edf17,western_union,SUPERGIROS LA UNION FRE CASA LA CULTURA,,Majagual,SUCRE,,CO,+57 1 800 0111700,https://location.westernunion.com/co/sucre/majagual/e43eed4f63152a50f3caf794eb3edf17,Mo-Sa 08:00-20:00; Su 10:00-16:00,Western Union,Q861042
e3f26de529a0517743a3703f11b6c3d8,western_union,SUPERGIROS MAJAGUAL CPM DONDE KAREN,,Majagual,SUCRE,,CO,+57 1 800 0111700,https://location.westernunion.com/co/sucre/majagual/e3f26de529a0517743a3703f11b6c3d8,Mo-Sa 08:00-20:00; Su 10:00-16:00,Western Union,Q861042
a5d2bb1d38c7fe59cc8c590286c88c46,western_union,BANCO AGRARIO MAJAGUAL,,Majagual,SUCRE,,CO,+57 601 5948500,https://location.westernunion.com/co/sucre/majagual/a5d2bb1d38c7fe59cc8c590286c88c46,Mo-Fr 08:00-16:30,Western Union,Q861042
6f0e54a06ccd5fd525d939d0c644dff2,western_union,SUPERGIROS MAJAGUAL CSS SUCRE,,Majagual,SUCRE,,CO,+57 1 800 0111700,https://location.westernunion.com/co/sucre/majagual/6f0e54a06ccd5fd525d939d0c644dff2,Mo-Sa 08:00-20:00,Western Union,Q861042
f7edf229c42b24008ce3de1d35c7a390,western_union,SUPERGIROS GUARANDA LA ALCALDIA CSS,,Guaranda,SUCRE,,CO,+57 1 800 0111700,https://location.westernunion.com/co/sucre/guaranda/f7edf229c42b24008ce3de1d35c7a390,Mo-Sa 08:00-20:00; Su 10:00-16:00,Western Union,Q861042
c062412ee1dcd4377d1481b5b420318e,western_union,BANCO AGRARIO GUARANDA,,Guaranda,SUCRE,,CO,+57 601 5948500,https://location.westernunion.com/co/sucre/guaranda/c062412ee1dcd4377d1481b5b420318e,Mo-Fr 08:00-16:30,Western Union,Q861042
a2f308300649e9336a51eab1617aa9f4,western_union,SUPERGIROS SINCELEJO PVT BOMBA ARGEL,,Guaranda,SUCRE,,CO,+57 1 800 0111700,https://location.westernunion.com/co/sucre/guaranda/a2f308300649e9336a51eab1617aa9f4,Mo-Sa 08:00-20:00,Western Union,Q861042
47afbe7f19adfee6c521050f3b20cfe9,western_union,SUPERGIROS GALERAS PDV SPORTBOOK GALERA,,Guaranda,SUCRE,,CO,+57 1 800 0111700,https://location.westernunion.com/co/sucre/guaranda/47afbe7f19adfee6c521050f3b20cfe9,Mo-Sa 08:00-20:00; Su 10:00-16:00,Western Union,Q861042
0afee8b2223617a07d9cebd6a8e2541a,western_union,EFECTY SAN MARCOS VRD EL OASIS,,San Marcos,SUCRE,,CO,+57 601 7566027,https://location.westernunion.com/co/sucre/san-marcos/0afee8b2223617a07d9cebd6a8e2541a,Mo-Sa 08:00-20:00; Su 08:00-16:00,Western Union,Q861042
