Ref,Spider,Name,Address,City,State,Zipcode,Country,Phone,Website,Hours,Brand,WikiData
https://locations.baskinrobbins.com/ny/floral-park/25420-hillside-ave-302530-br,baskin_robbins_us,Baskin-Robbinsâ„¢,,Floral Park,NY,,US,+1 347-216-6547,https://locations.baskinrobbins.com/ny/floral-park/25420-hillside-ave-302530-br,Mo-Su 05:00-22:00,Baskin-Robbins,Q584601
429,burlington_us,Burlington,,Glen Oaks,NY,,US,+1 516-352-0005,https://stores.burlington.com/ny/glen-oaks/429,Mo-Sa 08:00-24:00; Su 08:00-22:00,Burlington,Q4999220
A35D,capital_one_us,HILLSIDE AVENUE,,FLORAL PARK,NY,,US,,https://locations.capitalone.com/atm/NY/floral-park-atm-A35D,24/7,Capital One,Q1034654
46534,capital_one_us,Hillside Avenue,,Floral Park,NY,,US,+1 718-831-5590,https://locations.capitalone.com/bank/NY/Floral-Park-Hillside-Avenue-branch-46534,Mo-Fr 09:00-17:00; Sa 09:00-12:00,Capital One,Q1034654
2041875,chase_us,Glen Oaks - New branch,,Glen Oaks,NY,,US,+1 718-962-2501,https://locator.chase.com/ny/glen-oaks/256-21-union-tpke,Mo-Fr 09:00-17:00; Sa 09:00-14:00,Chase,Q524629
880363,citizens_us,Citizens,,Glen Oaks,NY,,US,+1 718-807-3563,,Mo-Fr 09:00-17:00; Sa 09:00-13:00,Citizens,Q5122694
ATM-1168,citizens_us,,,Glen Oaks,NY,,US,+1 718-807-3563,,Mo-Fr 09:00-17:00; Sa 09:00-13:00,Citizens,Q5122694
ATM-2711,citizens_us,,,Glen Oaks,NY,,US,+1 718-807-3564,,24/7,Citizens,Q5122694
302530,dunkin_us,Dunkin',,Floral Park,NY,,US,+1 347-216-6547,https://locations.dunkindonuts.com/en/ny/floral-park/25420-hillside-ave/302530,Mo-Su 05:00-22:00,Dunkin',Q847743
339910,dunkin_us,Dunkin',,Glen Oaks,NY,,US,+1 718-343-3611,https://locations.dunkindonuts.com/en/ny/glen-oaks/25609-union-turnpike/339910,Mo-Fr 05:00-21:00; Sa 05:30-21:00; Su 05:00-21:00,Dunkin',Q847743
200321393,exxonmobil,HILLSIDE AVENUE,,FLORAL PARK,NY,,US,+1 718-347-0629,https://www.exxon.com/en/find-station/mobil-floralpark-ny-hillsideavenue-200321393,Mo-Su 06:00-22:00,Mobil,Q109676002
35026,seven_eleven_ca_us,7-Eleven Store,,Glen Oaks,NY,,US,+1 718-831-5439,https://www.7-eleven.com/locations/ny/glen-oaks/253-02-union-tpke-35026,,7-Eleven,Q259340
https://restaurants.subway.com/#14898414,subway,Subway Glen Oaks Shopping Center,,Glen Oaks Queens,NY,,US,+1 718-343-0790,https://restaurants.subway.com/united-states/ny/glen-oaks/259-19-union-turnpike,Mo-We 09:00-22:00; Th-Fr 09:00-22:30; Sa 09:00-22:00; Su 09:30-21:30,Subway,Q244457
1218,tmobile_us,Glen Oaks Shopping Center,,Glen Oaks,NY,,US,+1 718-831-1100,https://www.t-mobile.com/store-locator/ny/glen-oaks/glen-oaks-shopping-center,,T-Mobile,Q3511885
1433762,usps,GLEN OAKS,,GLEN OAKS,NY,,US,+1 718-347-3764,,Mo-Fr 09:00-17:00; Sa 08:30-15:30,United States Postal Service,Q668687
1100400001,usps_collection_boxes,USPS COLLECTION BOX - PO LOBBY,25629 UNION TPKE,GLEN OAKS,NY,,US,,,,United States Postal Service,Q668687
A00000248374,verizon_us,Best Wireless Glen Oaks,,Glen Oaks,NY,,US,+1 718-343-8300,https://www.verizon.com/stores/details/new-york/glen-oaks/best-wireless-glen-oaks-1749522/,Mo-Sa 10:00-20:00; Su 11:00-18:00,Verizon,Q919641
,visa,,,GLEN OAKS,NY,,US,,,,,
,visa,,,FLORAL PARK,NY,,US,,,,,
,visa,,,FLORAL PARK,NY,,US,,,,,
,visa,,,FLORAL PARK,NY,,US,,,,,
,visa,,,QUEENS,NY,,US,,,,,
,visa,,,FLORAL PARK,NY,,US,,,,,
,visa,,,FLORAL PARK,NY,,US,,,,,
,visa,,,QUEENS,NY,,US,,,,,
,visa,,,GLEN OAKS,NY,,US,,,,,
,visa,,,FLORAL PARK,NY,,US,,,,,
,visa,,,GLEN OAKS,NY,,US,,,,,
,visa,,,GLEN OAKS,NY,,US,,,,,
,visa,,,GLEN OAKS,NY,,US,,,,,
,visa,,,GLEN OAKS,NY,,US,,,,,
,visa,,,GLEN OAKS,NY,,US,,,,,
,visa,,,GLENOAKS,NY,,US,,,,,
,visa,,,FLORAL PARK,NY,,US,,,,,
,visa,,,FLORAL PARK,NY,,US,,,,,
,visa,,,GLEN OAKS,NY,,US,,,,,
,visa,,,GLEN OAKS,NY,,US,,,,,
,visa,,,GLENOAKS,NY,,US,,,,,
,visa,,,GLEN OAKS,NY,,US,,,,,
,visa,,,GLEN OAKS,NY,,US,,,,,
,visa,,,FLUSHING,NY,,US,,,,,
https://www.walgreens.com/locator/walgreens-25501+union+tpke-glen+oaks-ny-11004/id=19224,walgreens,Walgreens,,Glen Oaks,NY,,US,+1 718-470-6100,https://www.walgreens.com/locator/walgreens-25501+union+tpke-glen+oaks-ny-11004/id=19224,Mo-Su 07:00-22:00,Walgreens,Q1591889
5ec157ea8419dbbf62574aa4033d3f23,western_union,DOSEPACK PHARMACY LLC,,Glen Oaks,NY,,US,+1 845-558-3688,https://location.westernunion.com/us/ny/glen-oaks/5ec157ea8419dbbf62574aa4033d3f23,Mo-Su 09:00-19:00,Western Union,Q861042
da62e079f00d7337ebfee56f00161338,western_union,7-ELEVEN #27690,,Glen Oaks,NY,,US,+1 718-343-2257,https://location.westernunion.com/us/ny/glen-oaks/da62e079f00d7337ebfee56f00161338,,Western Union,Q861042
1395614c265744583f5ee73b90201408,western_union,WALGREENS #19224,,Glen Oaks,NY,,US,+1 718-470-6100,https://location.westernunion.com/us/ny/glen-oaks/1395614c265744583f5ee73b90201408,Mo-Sa 08:00-21:00; Su 08:00-18:00,Western Union,Q861042
317cb6cef4709ab27ad4b53167d37512,western_union,7-ELEVEN #35026,,Glen Oaks,NY,,US,+1 718-831-5439,https://location.westernunion.com/us/ny/glen-oaks/317cb6cef4709ab27ad4b53167d37512,,Western Union,Q861042
