Ref,Spider,Name,Address,City,State,Zipcode,Country,Phone,Website,Hours,Brand,WikiData
200315251,exxonmobil,CROWN FOOD MART #1710,,EAST SAINT LOUIS,IL,,US,+1 618-332-7255,https://www.exxon.com/en/find-station/mobil-eastsaintlouis-il-crownfoodmart1710-200315251,Mo-Su 06:00-02:00,Mobil,Q109676002
1610,mightyflame,FASTRIP,,East Saint Louis,IL,,US,+1 618-979-4040,,,Mighty Flame,
1275,mightyflame,CROWN FOOD MART-CENTREVILLE,,CENTREVILLE,IL,,US,+1 618-332-7255,,,Mighty Flame,
642,pilot_flyingj,Flying J Travel Center,,Alorton,IL,,US,+1 618-337-4579,https://locations.pilotflyingj.com/us/il/alorton/140-racehorse-dr.,,Flying J,Q16974822
1434824,usps,ALORTON,,EAST SAINT LOUIS,IL,,US,+1 618-874-3736,,Mo-Fr 09:30-13:30; Sa 09:30-11:30,United States Postal Service,Q668687
,visa,,,EAST ST. LOUIS,IL,,US,,,,,
,visa,,,CENTREVILLE,IL,,US,,,,,
,visa,,,CENTREVILLE,IL,,US,,,,,
,visa,,,CENTERVILLE,IL,,US,,,,,
,visa,,,CENTERVILLE,IL,,US,,,,,
,visa,,,CENERVILLE,IL,,US,,,,,
,visa,,,CENTREVILLE,IL,,US,,,,,
,visa,,,ALORTON,IL,,US,,,,,
,visa,,,EAST SAINT LOUIS,IL,,US,,,,,
,visa,,,EAST ST. LOUIS,IL,,US,,,,,
,visa,,,EAST ST. LOUIS,IL,,US,,,,,
,visa,,,ALORTON,IL,,US,,,,,
,visa,,,ALORTON,IL,,US,,,,,
,visa,,,CENTERVILLE,IL,,US,,,,,
,visa,,,EAST ST LOUIS,IL,,US,,,,,
,visa,,,ST LOUIS,IL,,US,,,,,
,visa,,,EAST ST LOUIS,IL,,US,,,,,
,visa,,,EAST ST. LOUIS-,IL,,US,,,,,
,visa,,,EAST ST. LOUIS,IL,,US,,,,,
,visa,,,E ST LUIS,IL,,US,,,,,
