Ref,Spider,Name,Address,City,State,Zipcode,Country,Phone,Website,Hours,Brand,WikiData
https://stores.ashleyfurniture.com/store/au/victoria/chirnside-park/9000779931/,ashley_furniture,"Ashley Chirnside Park, VIC",,Chirnside Park,VIC,,AU,+61 3 9767 4400,https://stores.ashleyfurniture.com/store/au/victoria/chirnside-park/9000779931/,,Ashley Furniture,Q4805437
RED0007434,australia_post_au,,,CHIRNSIDE PARK,VIC,,AU,,,,Australia Post,Q1142936
329471_PO,australia_post_au,CHIRNSIDE PARK LPO,,CHIRNSIDE PARK,VIC,,AU,+61 3 9726 5771,,,Australia Post,Q1142936
RED0007436,australia_post_au,,,CHIRNSIDE PARK,VIC,,AU,,,,Australia Post,Q1142936
RED0007435,australia_post_au,,,CHIRNSIDE PARK,VIC,,AU,,,,Australia Post,Q1142936
169,baby_bunting,Chirnside Park,"Tenancy 4, 266-268 Maroondah Hwy",ChirnsidePark,VIC,,AU,+61 3 9294 4700,https://www.babybunting.com.au/find-a-store/chirnside,Mo-Fr 09:00-17:30; Sa 09:00-17:00; Su 10:00-17:00,Baby Bunting,Q109626935
2522,bakers_delight,Bakers Delight Chirnside Park,,Chirnside Park,VIC,,AU,+61 3 9727 3233,https://www.bakersdelight.com.au/bakery-locator/chirnside-park/,Mo-We 08:00-18:00; Th-Fr 08:00-19:00; Sa 07:30-18:00; Su 08:00-18:00,Bakers Delight,Q4849261
3358,bp,BP CHIRNSIDE PARK,,CHIRNSIDE PARK,VIC,,AU,+61 3 9727 1855,,24/7,BP,Q152057
622,coles_au,Coles Chirnside Park,,Chirnside Park,VIC,,AU,+61 3 8709 1500,,,Coles Supermarkets,Q1108172
3852,coles_au,Chirnside Park,,Chirnside Park,VIC,,AU,+61 3 9084 9293,,,Liquorland,Q2283837
325201,commonwealth_bank_au,Chirnside Park,,Chirnside Park,VIC,,AU,,,,Commonwealth Bank,Q285328
325202,commonwealth_bank_au,Chirnside Park,,Chirnside Park,VIC,,AU,,,,Commonwealth Bank,Q285328
325203,commonwealth_bank_au,Chirnside Park,,Chirnside Park,VIC,,AU,,,,Commonwealth Bank,Q285328
325204,commonwealth_bank_au,Chirnside Park,,Chirnside Park,VIC,,AU,,,,Commonwealth Bank,Q285328
8994,donut_king_au,Donut King Chirnside Park,"Shop K04 Chirnside Park, Maroondah Highway",Chirnside Park,VIC,,AU,+61 3 9727 2662,,,Donut King,Q5296921
623,dusk_au,dusk Chirnside Park,,Chirnside Park,VIC,,AU,,https://www.dusk.com.au/store-locator/dusk-chirnside-park/,,dusk,Q120669167
82,early_settler,Chirnside,,Chirnside Park,VIC,,AU,+61 3 9894 3944,https://earlysettler.com.au/pages/store-locator?store=chirnside&code=82,Mo-Fr 09:00-17:30; Sa 09:00-17:00; Su 10:00-17:00,Early Settler,Q111080173
6171260,exxonmobil,7-Eleven Chirnside Park,,Chirnside Park,VIC,,AU,+61 3 9726 0165,https://www.mobil.com.au/en-au/find-station/mobil-chirnsidepark-vic-chirnsidepark-6171260,24/7,Mobil,Q109676002
85511,gloria_jeans_coffees_au,Gloria Jeanâ€™s Chirnside Park,239-241 Maroondah Hwy,Chirnside Park,VIC,,AU,,,,Gloria Jean's Coffees,Q2666365
177,greencross_au,Chirnside Park,,Chirnside Park,VIC,,AU,+61 3 9727 4933,https://www.petbarn.com.au/store-finder/chirnside-park,Mo-Th 08:30-18:00; Fr 08:30-19:00; Sa 08:30-17:00; Su 09:00-17:00,Petbarn,Q104746468
157,grilld_au,Grill'd Chirnside Park,,CHIRNSIDE PARK,VIC,,AU,+61 3 8682 1880,,Mo-Th 10:30-22:00; Fr-Sa 10:30-22:30; Su 10:30-22:00,Grill'd,Q18165852
5350,hungry_jacks,Chirnside Park,,Chirnside Park,VIC,,AU,+61 3 8799 4933,,,Hungry Jack's,Q3036373
167,jbhifi,Chirnside Park HOME,,Chirnside Park,VIC,,AU,+61 3 9753 7100,,Mo-We 09:00-18:00; Th-Fr 09:00-21:00; Sa 09:00-17:00; Su 10:00-17:00,JB Hi-Fi,Q3310113
42006,just_group,Smiggle Chirnside,"Shop 513 Chirnside S/C., 239-241 Maroondah Highway, Chirnside, Chirnside Park, VIC, 3116, Australia",Chirnside Park,VIC,,AU,+61 3 9736 9818,https://justjeans.jgl.com.au/shop/stores/smiggle-chirnside,,Smiggle,Q7544536
42548,just_group,Just Jeans Chirnside,"Shop 609,Chirnside S/C., 239-241 Maroondah Highway, Chirnside, Chirnside Park, VIC, 3116, Australia",Chirnside Park,VIC,,AU,+61 3 9726 5838,https://justjeans.jgl.com.au/shop/stores/justjeans-chirnside,,Just Jeans,Q6316068
42971,just_group,Jay Jays Chirnside,"Shop 615 Chirnside Park, 239 - 241 Maroondah Hwy, Chirnside, Chirnside Park, VIC, 3116, Australia",Chirnside Park,VIC,,AU,+61 3 9726 7249,https://justjeans.jgl.com.au/shop/stores/jayjays-chirnside,,Jay Jays,Q6166759
11314,lovisa,Lovisa,,Chirnside Park,VIC,,AU,+61 3 7020 7300,,,Lovisa,Q106298409
https://marketplacefresh.com.au/store/marketplace-fresh-chirnside-park/,marketplace_fresh_au,MarketPlace Fresh Chirnside Park,"239-241 Maroondah Hwy, Chirnside Park VIC 3116, Australia",Chirnside Park,VIC,,AU,,https://marketplacefresh.com.au/store/marketplace-fresh-chirnside-park/,We 07:00-19:00; Th-Fr 07:00-21:00,MarketPlace Fresh,Q117847717
9501712,mcdonalds_qstore,Chirnside Park,,Chirnside Park,VIC,,AU,+61 3 9294 4300,,24/7,McDonald's,Q38076
W351,officeworks_au,Chirnside Park Officeworks,,Chirnside Park,VIC,,AU,+61 3 9727 7300,https://www.officeworks.com.au/shop/officeworks/storepage/W351/VIC/Chirnside Park,Mo-Fr 07:00-21:00; Sa 08:00-18:00; Su 09:00-18:00,Officeworks,Q7079486
326,rsea_safety_au,RSEA Safety Chirnside Park,,Chirnside Park,VIC,,AU,+61 3 9552 7904,https://www.rsea.com.au/store-locator/vic/chirnside-park,Mo-Fr 08:00-17:30; Sa 09:00-16:00; Su 10:00-16:00,RSEA Safety,Q122418895
1260,seven_eleven_au,Chirnside Park,,Chirnside Park,VIC,,AU,+61 3 9726 0165,,24/7,7-Eleven,Q259340
3401,specsavers,Chirnside Park S/C,,Chirnside Park,VIC,,AU,+61 3 9727 1111,https://www.specsavers.com.au/stores/chirnsidepark,,Specsavers,Q2000610
7401,specsavers,Chirnside Park S/C,,Chirnside Park,VIC,,AU,+61 3 9727 1111,https://www.specsavers.com.au/stores/chirnsidepark,,Specsavers,Q2000610
VCSD,spendless_au,Chirnside,,Chirnside Park,VIC,,AU,+61 3 9726 6836,,Mo-We 09:00-17:30; Th-Fr 09:00-21:00; Sa 09:00-17:00; Su 10:00-17:00,Spendless,Q120668938
AM0G,telstra_au,Chirnside Park,,Chirnside Park,VIC,,AU,+61 1800 344 129,,Mo-Fr 09:00-17:30; Sa 09:00-17:00; Su 10:00-16:00,Telstra,Q721162
1332,terry_white_chemmart_au,TerryWhite Chemmart Chirnside Park,,Chirnside Park,VIC,,AU,+61 3 9727 1555,https://terrywhitechemmart.com.au/stores/terrywhite-chemmart-chirnside-park,Mo-We 08:30-18:00; Th-Fr 08:30-21:00; Sa 09:00-17:00; Su 09:30-17:00,Terry White Chemmart,Q24089773
https://www.thegoodguys.com.au/chirnside-park,the_good_guys_au,The Good Guys Chirnside Park,,Chirnside Park,VIC,,AU,+61 3 8727 0100,https://www.thegoodguys.com.au/chirnside-park,Mo-We 09:00-17:30; Th-Fr 09:00-19:00; Sa 09:00-17:00; Su 10:00-17:00,The Good Guys,Q7737217
,visa,,,CHIRNSIDE PARK,VIC,,AU,,,,,
,visa,,,CHIRNSIDE PARK,VIC,,AU,,,,,
,visa,,,CHIRNSIDE PARK,VIC,,AU,,,,,
,visa,,,CHIRNSIDE PARK,VIC,,AU,,,,,
,visa,,,CHIRNSIDE PARK,VIC,,AU,,,,,
aefa03878cc728c82d8701cb3fdd129e,western_union,AUSTRALIA POST,,Chirnside Park,VIC,,AU,+61 1800 501 500,https://location.westernunion.com/au/vic/chirnside-park/aefa03878cc728c82d8701cb3fdd129e,Mo-Fr 09:00-17:00; Sa 09:00-13:00,Western Union,Q861042
