Ref,Spider,Name,Address,City,State,Zipcode,Country,Phone,Website,Hours,Brand,WikiData
213272,bluerhino,Kent Kwik - BountyLand #701,,Seneca,SC,,US,+1 864-882-4599,,,Blue Rhino,Q65681213
128246,bluerhino,Food Lion #2209,,Seneca,SC,,US,+1 864-654-1741,,,Blue Rhino,Q65681213
SSESYD,builders_firstsource_us,Seneca SC Yard,,Seneca,SC,,US,+1 864-888-2807,https://www.bldr.com/location/seneca-sc-yard/SSESYD,Mo-Fr 07:00-16:00,Builders FirstSource,Q27686100
48049,citi,ATM CVS,,Seneca,SC,,US,,,,Citibank,Q857063
24609,citi,ATM 7ELEVEN-FCTI,,Seneca,SC,,US,,,,Citibank,Q857063
4693,cvs_us,CVS Pharmacy,,Seneca,SC,,US,+1 864-888-4022,https://www.cvs.com/store-locator/seneca-sc-pharmacies/1504-blue-ridge-blvd-seneca-sc-29672/storeid=4693,Mo-Sa 08:00-22:00; Su 08:00-20:00,CVS Pharmacy,Q2078880
https://www.edwardjones.com/us-en/financial-advisor/david-adrian,edwardjones,David Adrian Jr,,Seneca,SC,,US,+1 864-882-5763,https://www.edwardjones.com/us-en/financial-advisor/david-adrian,Mo-Th 08:30-17:00; Fr 08:30-16:00,Edward Jones,Q5343830
200319475,exxonmobil,Mobil,,SENECA,SC,,US,,https://www.exxon.com/en/find-station/mobil-seneca-sc-mobil-200319475,Mo-Su 06:00-21:00,Mobil,Q109676002
https://local.fedex.com/#25145616,fedex,FedEx Authorized ShipCenter,,Seneca,SC,,US,+1 864-654-1717,https://local.fedex.com/en-us/sc/seneca/51894,,FedEx,Q459477
sc_seneca_205-applewood-center-place,pizza_hut_us,205 Applewood Center Place.,,Seneca,SC,,US,+1 864-888-8855,https://locations.pizzahut.com/sc/seneca/205-applewood-center-place,,Pizza Hut,Q191615
265,south_carolina,Seneca Center,"104 Vocational Dr, Seneca, SC",,SC,,US,+1 864-646-1741,,,,Q1456
https://restaurants.subway.com/#14904591,subway,Subway,,Seneca Oconee,SC,,US,+1 864-882-7827,https://restaurants.subway.com/united-states/sc/seneca/209-ingles-place,Mo-Sa 08:00-22:00; Su 09:00-22:00,Subway,Q244457
https://restaurants.subway.com/#14901044,subway,Subway,,Seneca Oconee,SC,,US,+1 864-882-0777,https://restaurants.subway.com/united-states/sc/seneca/407-sheep-farm-road,Mo-Fr 07:00-22:00; Sa 08:00-22:00; Su 09:00-22:00,Subway,Q244457
,visa,,,SENECA,SC,,US,,,,,
,visa,,,SENECA,SC,,US,,,,,
,visa,,,SENECA,SC,,US,,,,,
,visa,,,SENECA,SC,,US,,,,,
,visa,,,SENECA,SC,,US,,,,,
,visa,,,SENECA,SC,,US,,,,,
,visa,,,SENECA,SC,,US,,,,,
,visa,,,SALEM,SC,,US,,,,,
,visa,,,SALEM,SC,,US,,,,,
cottingham-campus-ymca,ymca,Cottingham Campus YMCA,370 Memorial Dr,Seneca,SC,,US,+1 864-571-9622,https://www.ymca.org/locations/cottingham-campus-ymca,,YMCA,Q157169
foothills-ymca,ymca,Foothills YMCA,370 Memorial Drive,Seneca,SC,,US,+1 864-571-9622,https://www.ymca.org/locations/foothills-ymca,Mo-Th 05:30-21:00; Fr 05:30-20:30; Sa 07:00-17:00; Su 13:00-17:00,YMCA,Q157169
