Ref,Spider,Name,Address,City,State,Zipcode,Country,Phone,Website,Hours,Brand,WikiData
22818,citi,AYUNTAMIENTO DE SLRC,,San Luis Rio Colorad,SONORA,,MX,+52 800 110 3990,,,Citibank,Q857063
18284,citi,SAN LUIS RIO COLORAD,,San Luis Rio Colorad,SONORA,,MX,+52 800 110 3990,,,Citibank,Q857063
11188,dominos_pizza_mx,Domino's,,San Luis Rio Colorado,Sonora,,MX,+52 653 534 5850,,,Domino's Pizza,Q839466
43306,vertiche_mx,SAN LUIS RÍO COLORADO,Av Francisco I. Madero 203 Col. Centro,San Luis Río Colorado,Sonora,,MX,,,,Vertiche,Q113215945
,visa,,,SAN LUIS RIO COLORAD,SONORA,,MX,,,,,
,visa,,,SAN LUIS RIO COLORAD,SONORA,,MX,,,,,
,visa,,,SAN LUIS RIO COLORADO,SONORA,,MX,,,,,
,visa,,,SAN LUIS RIO COLORADO,SONORA,,MX,,,,,
,visa,,,SAN LUIS RIO COLORADO,SONORA,,MX,,,,,
,visa,,,SAN LUIS RIO COLORAD,SONORA,,MX,,,,,
,visa,,,SAN LUIS RIO COLORADO,SONORA,,MX,,,,,
83fdea670ef5042e0be664e3f369616e,western_union,ELEKTRA 5241,,San Luis Rio Colorado,SONORA,,MX,+52 55 1720 8177,https://location.westernunion.com/mx/sonora/san-luis-rio-colorado/83fdea670ef5042e0be664e3f369616e,Mo-Su 09:00-20:00,Western Union,Q861042
4d5f9e653806abec88d501301bd943af,western_union,ELEKTRA 5241,,San Luis Rio Colorado,SONORA,,MX,+52 55 1720 8177,https://location.westernunion.com/mx/sonora/san-luis-rio-colorado/4d5f9e653806abec88d501301bd943af,Mo-Su 09:00-21:00,Western Union,Q861042
9e1d6e1fa0de789feb6a4a99e4a0d95d,western_union,CASA LEY 1263 EXPRESS REVOLUC,,San Luis Rio Colorado,SONORA,,MX,+52 653 534 2348,https://location.westernunion.com/mx/sonora/san-luis-rio-colorado/9e1d6e1fa0de789feb6a4a99e4a0d95d,Mo-Su 07:00-22:00,Western Union,Q861042
d22aab7d2d6743aa9fb8073bd6d61c93,western_union,CASA LEY 1263 EXPRESS REVOLUC,,San Luis Rio Colorado,SONORA,,MX,+52 653 534 2348,https://location.westernunion.com/mx/sonora/san-luis-rio-colorado/d22aab7d2d6743aa9fb8073bd6d61c93,Mo-Su 07:00-22:00,Western Union,Q861042
5b6a16b1cf2bfced8d216bb234e6ead2,western_union,CASA LEY 1263 EXPRESS REVOLUC,,San Luis Rio Colorado,SONORA,,MX,+52 653 534 2348,https://location.westernunion.com/mx/sonora/san-luis-rio-colorado/5b6a16b1cf2bfced8d216bb234e6ead2,Mo-Su 07:00-22:00,Western Union,Q861042
09dd2422d9eb27de6a948ca07f7eb035,western_union,OXXO SEXTA MXL,,San Luis Rio Colorado,SONORA,,MX,+52 81 8389 2121,https://location.westernunion.com/mx/sonora/san-luis-rio-colorado/09dd2422d9eb27de6a948ca07f7eb035,Mo-Su 08:00-22:00,Western Union,Q861042
1d1077cda7fd9192e393fe3e667e33fd,western_union,OXXO SEXTA MXL,,San Luis Rio Colorado,SONORA,,MX,+52 81 8389 2121,https://location.westernunion.com/mx/sonora/san-luis-rio-colorado/1d1077cda7fd9192e393fe3e667e33fd,Mo-Su 08:00-22:00,Western Union,Q861042
cba1fa3ee5abb9e2531f9732ec33d6dd,western_union,OXXO SEXTA MXL,,San Luis Rio Colorado,SONORA,,MX,+52 81 8389 2121,https://location.westernunion.com/mx/sonora/san-luis-rio-colorado/cba1fa3ee5abb9e2531f9732ec33d6dd,Mo-Su 08:00-22:00,Western Union,Q861042
fdd50f76794d9d93a4d22ed00ac5236a,western_union,BANCOPPEL 0695 FCO I MADERO,,San Luis Rio Colorado,SONORA,,MX,(+52) 667-589999,https://location.westernunion.com/mx/sonora/san-luis-rio-colorado/fdd50f76794d9d93a4d22ed00ac5236a,Mo-Su 08:30-21:00,Western Union,Q861042
2fb5c306d7c5d53f4d5cb6f8e00e3436,western_union,BANCOPPEL 0695 FCO I MADERO,,San Luis Rio Colorado,SONORA,,MX,(+52) 667-589999,https://location.westernunion.com/mx/sonora/san-luis-rio-colorado/2fb5c306d7c5d53f4d5cb6f8e00e3436,Mo-Su 08:30-21:00,Western Union,Q861042
373408c6efe444c0eb1def92cb749208,western_union,BANCOPPEL 0695 FCO I MADERO,,San Luis Rio Colorado,SONORA,,MX,(+52) 667-589999,https://location.westernunion.com/mx/sonora/san-luis-rio-colorado/373408c6efe444c0eb1def92cb749208,Mo-Su 08:30-21:00,Western Union,Q861042
9c72677dd1bc94ebd74e7af4c92d426b,western_union,FUNDACION DONDE S LUIS RIOCOLORADO ID399,,San Luis Rio Colorado,SONORA,,MX,+52 999 940 7550,https://location.westernunion.com/mx/sonora/san-luis-rio-colorado/9c72677dd1bc94ebd74e7af4c92d426b,Mo-Su 08:00-20:00,Western Union,Q861042
711bbb1ea46452a01747bdbb8ed0af3e,western_union,FUNDACION DONDE S LUIS RIOCOLORADO ID399,,San Luis Rio Colorado,SONORA,,MX,+52 999 940 7550,https://location.westernunion.com/mx/sonora/san-luis-rio-colorado/711bbb1ea46452a01747bdbb8ed0af3e,Mo-Su 08:00-20:00,Western Union,Q861042
bf6a83f8067c0f54684a1334c6e56187,western_union,FUNDACION DONDE S LUIS RIOCOLORADO ID399,,San Luis Rio Colorado,SONORA,,MX,+52 999 940 7550,https://location.westernunion.com/mx/sonora/san-luis-rio-colorado/bf6a83f8067c0f54684a1334c6e56187,Mo-Su 08:00-20:00,Western Union,Q861042
9938440a1e3a9fc6e3b10109f6e95828,western_union,ELEKTRA 5526,,San Luis Rio Colorado,SONORA,,MX,+52 55 1720 8177,https://location.westernunion.com/mx/sonora/san-luis-rio-colorado/9938440a1e3a9fc6e3b10109f6e95828,Mo-Su 09:00-20:00,Western Union,Q861042
a1c57b630803587c7a322547c7ae1403,western_union,ELEKTRA 5526,,San Luis Rio Colorado,SONORA,,MX,+52 55 1720 8177,https://location.westernunion.com/mx/sonora/san-luis-rio-colorado/a1c57b630803587c7a322547c7ae1403,Mo-Su 09:00-21:00,Western Union,Q861042
2a4da550cf0791e7b397ce2608f567bb,western_union,FARM GUAD CALLE 22,,San Luis Rio Colorado,SONORA,,MX,+52 800 833 4700,https://location.westernunion.com/mx/sonora/san-luis-rio-colorado/2a4da550cf0791e7b397ce2608f567bb,Mo-Su 09:00-22:00,Western Union,Q861042
84d5c8c615907973b0ef164fa17eab36,western_union,FARM GUAD CALLE 22,,San Luis Rio Colorado,SONORA,,MX,+52 800 833 4700,https://location.westernunion.com/mx/sonora/san-luis-rio-colorado/84d5c8c615907973b0ef164fa17eab36,Mo-Su 09:00-22:00,Western Union,Q861042
0976f829e01f144138e4ece6bcba5e0a,western_union,FARM GUAD CALLE 22,,San Luis Rio Colorado,SONORA,,MX,+52 800 833 4700,https://location.westernunion.com/mx/sonora/san-luis-rio-colorado/0976f829e01f144138e4ece6bcba5e0a,Mo-Su 09:00-22:00,Western Union,Q861042
9dd7490af7696fda3616ac1180c64a56,western_union,ELEKTRA 5241,,San Luis Rio Colorado,SONORA,,MX,+52 55 1720 8177,https://location.westernunion.com/mx/sonora/san-luis-rio-colorado/9dd7490af7696fda3616ac1180c64a56,Mo-Su 09:00-21:00,Western Union,Q861042
b0e8d78693d6e5a31fff537ce41dfc14,western_union,SORIANA OBREGON 650,,San Luis Rio Colorado,SONORA,,MX,+52 800 555 6555,https://location.westernunion.com/mx/sonora/san-luis-rio-colorado/b0e8d78693d6e5a31fff537ce41dfc14,Mo-Su 08:00-22:00,Western Union,Q861042
b6dca26a3ed9350d61ffa912572d465b,western_union,OXXO MUNICIPAL MXL,,San Luis Rio Colorado,SONORA,,MX,+52 81 8389 2121,https://location.westernunion.com/mx/sonora/san-luis-rio-colorado/b6dca26a3ed9350d61ffa912572d465b,Mo-Su 08:00-22:00,Western Union,Q861042
3d2dff657510789d8ee60d81d138a10c,western_union,OXXO MUNICIPAL MXL,,San Luis Rio Colorado,SONORA,,MX,+52 81 8389 2121,https://location.westernunion.com/mx/sonora/san-luis-rio-colorado/3d2dff657510789d8ee60d81d138a10c,Mo-Su 08:00-22:00,Western Union,Q861042
e6f5a17c07d8aacb62de269680d399af,western_union,OXXO MUNICIPAL MXL,,San Luis Rio Colorado,SONORA,,MX,+52 81 8389 2121,https://location.westernunion.com/mx/sonora/san-luis-rio-colorado/e6f5a17c07d8aacb62de269680d399af,Mo-Su 08:00-22:00,Western Union,Q861042
472c9cebb372e581c23d61cae6163339,western_union,WALDOS LA PALOM SN LUIS RIO COL SON 4007,,San Luis Rio Colorado,SONORA,,MX,+52 55 5246 0700,https://location.westernunion.com/mx/sonora/san-luis-rio-colorado/472c9cebb372e581c23d61cae6163339,Mo-Su 06:30-23:30,Western Union,Q861042
caf098abe0d8ff4524d64a306d82d23d,western_union,FARM GUAD ALVARO OBREGON II,,San Luis Rio Colorado,SONORA,,MX,+52 800 833 4700,https://location.westernunion.com/mx/sonora/san-luis-rio-colorado/caf098abe0d8ff4524d64a306d82d23d,Mo-Su 09:00-22:00,Western Union,Q861042
c7fb8e75b658c8db9cbebeaaceec1c1b,western_union,FARM GUAD ALVARO OBREGON II,,San Luis Rio Colorado,SONORA,,MX,+52 800 833 4700,https://location.westernunion.com/mx/sonora/san-luis-rio-colorado/c7fb8e75b658c8db9cbebeaaceec1c1b,Mo-Su 09:00-22:00,Western Union,Q861042
33faa36131d365cfd544f47cc9e12b55,western_union,FARM GUAD ALVARO OBREGON II,,San Luis Rio Colorado,SONORA,,MX,+52 800 833 4700,https://location.westernunion.com/mx/sonora/san-luis-rio-colorado/33faa36131d365cfd544f47cc9e12b55,Mo-Su 09:00-22:00,Western Union,Q861042
5422ea1cd0b4a50819b626bf72735929,western_union,FARM GUAD 5 DE MAYO SON,,San Luis Rio Colorado,SONORA,,MX,+52 800 833 4700,https://location.westernunion.com/mx/sonora/san-luis-rio-colorado/5422ea1cd0b4a50819b626bf72735929,Mo-Su 09:00-22:00,Western Union,Q861042
3bd7790436b17b7a594c72c7385895be,western_union,FARM GUAD 5 DE MAYO SON,,San Luis Rio Colorado,SONORA,,MX,+52 800 833 4700,https://location.westernunion.com/mx/sonora/san-luis-rio-colorado/3bd7790436b17b7a594c72c7385895be,Mo-Su 09:00-22:00,Western Union,Q861042
af8d16f6a550b9f4d4a7eb180aa38223,western_union,FARM GUAD 5 DE MAYO SON,,San Luis Rio Colorado,SONORA,,MX,+52 800 833 4700,https://location.westernunion.com/mx/sonora/san-luis-rio-colorado/af8d16f6a550b9f4d4a7eb180aa38223,Mo-Su 09:00-22:00,Western Union,Q861042
a13f7112075af79854f5b25f7859b805,western_union,OXXO JUAREZ MXL,,San Luis Rio Colorado,SONORA,,MX,+52 81 8389 2121,https://location.westernunion.com/mx/sonora/san-luis-rio-colorado/a13f7112075af79854f5b25f7859b805,Mo-Su 08:00-22:00,Western Union,Q861042
3ac348232b747af2173b2b7078a190ba,western_union,OXXO JUAREZ MXL,,San Luis Rio Colorado,SONORA,,MX,+52 81 8389 2121,https://location.westernunion.com/mx/sonora/san-luis-rio-colorado/3ac348232b747af2173b2b7078a190ba,Mo-Su 08:00-22:00,Western Union,Q861042
62c7c052e95b7e9be9ec7b5ce4f55c13,western_union,OXXO JUAREZ MXL,,San Luis Rio Colorado,SONORA,,MX,+52 81 8389 2121,https://location.westernunion.com/mx/sonora/san-luis-rio-colorado/62c7c052e95b7e9be9ec7b5ce4f55c13,Mo-Su 08:00-22:00,Western Union,Q861042
68a486fbc005d360e3c8b3071fe40ac2,western_union,OXXO CARRANZA CUARTA MXL,,San Luis Rio Colorado,SONORA,,MX,+52 81 8389 2121,https://location.westernunion.com/mx/sonora/san-luis-rio-colorado/68a486fbc005d360e3c8b3071fe40ac2,Mo-Su 08:00-22:00,Western Union,Q861042
38e567cf6f98e0dd4f297cc5e28d5e9e,western_union,OXXO VAQUERO MXL,,San Luis Rio Colorado,SONORA,,MX,+52 81 8389 2121,https://location.westernunion.com/mx/sonora/san-luis-rio-colorado/38e567cf6f98e0dd4f297cc5e28d5e9e,Mo-Su 08:00-22:00,Western Union,Q861042
8a923dc4924df5ab6b960889c553aab2,western_union,OXXO VAQUERO MXL,,San Luis Rio Colorado,SONORA,,MX,+52 81 8389 2121,https://location.westernunion.com/mx/sonora/san-luis-rio-colorado/8a923dc4924df5ab6b960889c553aab2,Mo-Su 08:00-22:00,Western Union,Q861042
6dd26be7826c85751a73726cfa2b5b22,western_union,OXXO VAQUERO MXL,,San Luis Rio Colorado,SONORA,,MX,+52 81 8389 2121,https://location.westernunion.com/mx/sonora/san-luis-rio-colorado/6dd26be7826c85751a73726cfa2b5b22,Mo-Su 08:00-22:00,Western Union,Q861042
969dbc26c8487823364c08dc05b32e0a,western_union,OXXO OBREGON MXL,,San Luis Rio Colorado,SONORA,,MX,+52 81 8389 2121,https://location.westernunion.com/mx/sonora/san-luis-rio-colorado/969dbc26c8487823364c08dc05b32e0a,Mo-Su 08:00-22:00,Western Union,Q861042
835e9731b128a6dfef013b84e28f020b,western_union,OXXO OBREGON MXL,,San Luis Rio Colorado,SONORA,,MX,+52 81 8389 2121,https://location.westernunion.com/mx/sonora/san-luis-rio-colorado/835e9731b128a6dfef013b84e28f020b,Mo-Su 08:00-22:00,Western Union,Q861042
2c80407a20068b550a86e159e0b42697,western_union,OXXO OBREGON MXL,,San Luis Rio Colorado,SONORA,,MX,+52 81 8389 2121,https://location.westernunion.com/mx/sonora/san-luis-rio-colorado/2c80407a20068b550a86e159e0b42697,Mo-Su 08:00-22:00,Western Union,Q861042
b0ad5af35ec2ccea536d5b63879b0cda,western_union,BANORTE 08790 SAN LUIS RIO COLORADO,,San Luis Rio Colorado,SONORA,,MX,+52 800 833 4700,https://location.westernunion.com/mx/sonora/san-luis-rio-colorado/b0ad5af35ec2ccea536d5b63879b0cda,Mo-Fr 09:00-17:00,Western Union,Q861042
04ad958aa3aefd50d189ad4f778a99cd,western_union,OXXO CARRANZA CUARTA MXL,,San Luis Rio Colorado,SONORA,,MX,+52 81 8389 2121,https://location.westernunion.com/mx/sonora/san-luis-rio-colorado/04ad958aa3aefd50d189ad4f778a99cd,Mo-Su 08:00-22:00,Western Union,Q861042
1eafe9cc6c9f70d47a340d90fe223252,western_union,SORIANA CONSTITUCION 649,,San Luis Rio Colorado,SONORA,,MX,+52 800 555 6555,https://location.westernunion.com/mx/sonora/san-luis-rio-colorado/1eafe9cc6c9f70d47a340d90fe223252,Mo-Su 08:00-22:00,Western Union,Q861042
fdd97c9b168d86892fcde3421df33314,western_union,FARM GUAD 2520 COMERCIAL,,San Luis Rio Colorado,SONORA,,MX,+52 800 833 4700,https://location.westernunion.com/mx/sonora/san-luis-rio-colorado/fdd97c9b168d86892fcde3421df33314,Mo-Su 08:00-22:00,Western Union,Q861042
051dc964dc92960de0b6854e1b4fe1c2,western_union,FARM GUAD 2520 COMERCIAL,,San Luis Rio Colorado,SONORA,,MX,+52 800 833 4700,https://location.westernunion.com/mx/sonora/san-luis-rio-colorado/051dc964dc92960de0b6854e1b4fe1c2,Mo-Su 08:00-22:00,Western Union,Q861042
fca6e9cbe2c621fb5ee3fdcdd21a52c5,western_union,FARM GUAD 2520 COMERCIAL,,San Luis Rio Colorado,SONORA,,MX,+52 800 833 4700,https://location.westernunion.com/mx/sonora/san-luis-rio-colorado/fca6e9cbe2c621fb5ee3fdcdd21a52c5,Mo-Su 08:00-22:00,Western Union,Q861042
