Ref,Spider,Name,Address,City,State,Zipcode,Country,Phone,Website,Hours,Brand,WikiData
411 Maple Avenue,allied_universal,Allied Universal,,Nashville,TN,,US,,https://www.aus.com/nashville-security-systems-services,,Allied Universal,Q4732537
USAA07S08,audi,Audi Downtown Nashville,"15 Lindsley Ave, Nashville, TN 37210",Nashville,TN,,US,+1 629-221-4470,,,Audi,Q23317
159405,bluerhino,GC Mart,,Nashville,TN,,US,+1 615-818-0495,,,Blue Rhino,Q65681213
200163,bluerhino,El Gallito Supermercado,,Nashville,TN,,US,+1 615-732-1090,,,Blue Rhino,Q65681213
102789,bluerhino,"Buy & Save, Inc.",,Nashville,TN,,US,+1 615-244-0042,,,Blue Rhino,Q65681213
139526,bluerhino,Speedway #7136,,Nashville,TN,,US,+1 615-742-6404,,,Blue Rhino,Q65681213
17098,chevrolet,CARL BLACK CHEVROLET,,Nashville,TN,,US,+1 888-509-5199,https://www.carlblackchevy.com/,Mo-Sa 09:00-20:00,Chevrolet,Q29570
64520,citi,ATM Mapco,,Nashville,TN,,US,,,,Citibank,Q857063
78962,citi,ATM Speedway,,Nashville,TN,,US,,,,Citibank,Q857063
64623,citi,ATM Mapco,,Nashville,TN,,US,,,,Citibank,Q857063
33544,citi,ATM 7ELEVEN-FCTI,,Nashville,TN,,US,,,,Citibank,Q857063
57368,citi,ATM FOURTH CAPITAL BANK,,Nashville,TN,,US,,,,Citibank,Q857063
,credit_union_us,US Community CU,,Nashville,TN,,US,+1 615-256-8712,,Mo-Tu 08:30-05:00; We 08:30-04:00; Th-Fr 08:30-05:00,,
8713,dominos_pizza_us,Domino's Pizza,,Nashville,TN,,US,+1 615-244-3232,https://pizza.dominos.com/tennessee/nashville/835-4th-ave-s,Mo-Th 10:00-24:00; Fr-Sa 10:00-01:00; Su 10:00-24:00,Domino's,Q839466
E156W1,enterprise,Nashville Truck Rental,,Nashville,TN,,US,+1 615-749-3101,,,Enterprise Rent-A-Car,Q17085454
E15602,enterprise,Nashville Hermitage Ave.,,Nashville,TN,,US,+1 615-238-0685,,,Enterprise Rent-A-Car,Q17085454
https://local.fedex.com/#491698,fedex,FedEx Ship Center,,Nashville,TN,,US,+1 800-463-3339,https://local.fedex.com/en-us/tn/nashville/bnaa,,FedEx,Q459477
https://branches.fleetpride.com/tn/nashville/truckparts-nas.html,fleet_pride_us,FleetPride,,Nashville,TN,,US,+1 615-244-2853,https://branches.fleetpride.com/tn/nashville/truckparts-nas.html,Mo-Fr 07:30-17:00; Sa 08:00-12:00,FleetPride,Q121436710
Motorcraft2033USAEnglish,ford,"Mid-Tenn Ford Truck Sales, Inc.",,Tennessee,TN,,US,+1 615-259-2050,,,Ford,Q44294
Motorcraft2040USAEnglish,ford,"PalFleet Truck Equipment, Inc.",,Tennessee,TN,,US,,,,Ford,Q44294
https://www.ford.com/dealerships/dealer-details/tn/nashville/mid_tenn-ford-truck-sales-inc/,ford_dealers_us,"Mid-Tenn Ford Truck Sales, Inc.",,Nashville,TN,,US,+1 800-476-5184,https://www.ford.com/dealerships/dealer-details/tn/nashville/mid_tenn-ford-truck-sales-inc/,Mo-Fr 08:00-17:00,Ford Motor Company,Q44294
1501876,hardees_us,Hardee's,,Nashville,TN,,US,+1 615-872-9672,https://locations.hardees.com/tn/nashville/1000-acorn-drive,,Hardee's,Q1585088
156999,marathon_petroleum_us,FOSTERS MARKET,,NASHVILLE,TN,,US,+1 615-499-4263,,,Marathon,Q458363
2660,mightyflame,MAPCO EXPRESS #3311,,Nashville,TN,,US,+1 615-255-8036,,,Mighty Flame,
2622,mightyflame,MAPCO EXPRESS #3193,,Nashville,TN,,US,,,,Mighty Flame,
44773047,moneygram,NOLENSVILLE RD SHELL - #0001,,NASHVILLE,TN,,US,+1 615-781-1647,,Mo-Su 06:00-24:00,MoneyGram,Q1944412
048910,penske,Penske Nashville,,NASHVILLE,TN,,US,+1 615-254-5526,https://www.pensketruckrental.com/locations/us/tennessee/nashville/048910/,,Penske,Q81234570
0000902014,phillips_66_conoco_76,SAI 66,,NASHVILLE,TN,,US,+1 615-833-4233,,,Phillips 66,Q1656230
0000902025,phillips_66_conoco_76,BUY & SAVE MARKET,,NASHVILLE,TN,,US,+1 615-244-0042,,,Phillips 66,Q1656230
https://www.publicstorage.com/self-storage-tn-nashville/5620.html,public_storage_us,Public Storage,,Nashville,TN,,US,+1 629-204-3981,https://www.publicstorage.com/self-storage-tn-nashville/5620.html,,Public Storage,Q1156045
https://www.publicstorage.com/self-storage-tn-nashville/955.html,public_storage_us,Public Storage,,Nashville,TN,,US,+1 615-457-8648,https://www.publicstorage.com/self-storage-tn-nashville/955.html,,Public Storage,Q1156045
11962,quiznos,Peabody Corner Marketplace,,Nashville,TN,,US,+1 615-988-8848,https://order.quiznos.com/menu/peabody-corner-marketplace-2?handoff=delivery,Mo-Fr 09:00-17:00; Sa 10:00-15:00,Quizno's,Q1936229
42174,seven_eleven_ca_us,7-Eleven,,Nashville,TN,,US,+1 629-333-8020,https://www.7-eleven.com/locations/tn/nashville/925-lebanon-pk-42174,,7-Eleven,Q259340
https://restaurants.subway.com/#14912346,subway,Subway,,Nashville Davidson,TN,,US,+1 615-256-7827,https://restaurants.subway.com/united-states/tn/nashville/353-murfreesboro-rd,Mo-Fr 07:00-21:00; Sa-Su 09:00-20:00,Subway,Q244457
https://restaurants.subway.com/#14899905,subway,Subway,,Nashville Davidson,TN,,US,+1 615-891-1454,https://restaurants.subway.com/united-states/tn/nashville/1-hermitage-ave,Mo-Fr 07:00-19:00; Sa 10:00-17:00; Su 10:00-16:00,Subway,Q244457
https://restaurants.subway.com/#14900157,subway,Subway Shell C-Store,,Nashville Davidson,TN,,US,+1 615-391-5900,https://restaurants.subway.com/united-states/tn/nashville/1631-elm-hill-pike,Mo-Fr 06:00-21:00; Sa 08:30-15:00,Subway,Q244457
100020,two_men_and_truck,Nashville,1007 Elm Hill Pike,Nashville,TN,,US,+1 615-595-5929,https://twomenandatruck.com/movers/tn/nashville,,Two Men and a Truck,Q7859087
1382289,usps,SOUTH NASHVILLE,,NASHVILLE,TN,,US,+1 615-251-4956,,Mo-Fr 08:30-17:00; Sa 09:00-12:00,United States Postal Service,Q668687
3721000032,usps_collection_boxes,USPS COLLECTION BOX - BLUE BOX,1717 ELM HILL PIKE,NASHVILLE,TN,,US,,,,United States Postal Service,Q668687
3721000052,usps_collection_boxes,USPS COLLECTION BOX - PO LOBBY,714 FESSLERS LN,NASHVILLE,TN,,US,,,,United States Postal Service,Q668687
3721000065,usps_collection_boxes,USPS COLLECTION BOX - PO LOBBY,714 FESSLERS LN,NASHVILLE,TN,,US,,,,United States Postal Service,Q668687
,visa,,,HENDERSONVILLE,TN,,US,,,,,
,visa,,,NASHVILLE,TN,,US,,,,,
,visa,,,NASHVILLE,TN,,US,,,,,
,visa,,,NASHVILLE,TN,,US,,,,,
,visa,,,NASHVILLE,TN,,US,,,,,
,visa,,,NASHVILLE,TN,,US,,,,,
,visa,,,NASHVILLE,TN,,US,,,,,
,visa,,,NASHVILLE,TN,,US,,,,,
,visa,,,NASHVILLE,TN,,US,,,,,
,visa,,,NASHVILLE,TN,,US,,,,,
,visa,,,NASHVILLE,TN,,US,,,,,
,visa,,,NASHVILLE,TN,,US,,,,,
,visa,,,NASHVILLE,TN,,US,,,,,
,visa,,,NASHVILLE,TN,,US,,,,,
,visa,,,NASHVILLE,TN,,US,,,,,
,visa,,,NASHVILLE,TN,,US,,,,,
,visa,,,NASHVILLE,TN,,US,,,,,
,visa,,,NASHVILLE,TN,,US,,,,,
,visa,,,NASHVILLE,TN,,US,,,,,
,visa,,,NASHVILLE,TN,,US,,,,,
,visa,,,NASHVILLE,TN,,US,,,,,
,visa,,,NASHVILLE,TN,,US,,,,,
,visa,,,NASHVILLE,TN,,US,,,,,
,visa,,,NASHVILLE,TN,,US,,,,,
,visa,,,NASHVILLE,TN,,US,,,,,
,visa,,,NASHVILLE,TN,,US,,,,,
,visa,,,NASHVILLE,TN,,US,,,,,
,visa,,,NASHVILLE,TN,,US,,,,,
,visa,,,NASHVILLE,TN,,US,,,,,
,visa,,,NASHVILLE,TN,,US,,,,,
,visa,,,NASHVILLE,TN,,US,,,,,
,visa,,,NASHVILLE,TN,,US,,,,,
,visa,,,NASHVILLE,TN,,US,,,,,
,visa,,,NASHVILLE,TN,,US,,,,,
,visa,,,NASHVILLE,TN,,US,,,,,
,visa,,,NASHVILLE,TN,,US,,,,,
,visa,,,NASHVILLE,TN,,US,,,,,
,visa,,,NASHVILLE,TN,,US,,,,,
,visa,,,NASHVILLE,TN,,US,,,,,
,visa,,,NASHVILLE,TN,,US,,,,,
,visa,,,NASHVILLE,TN,,US,,,,,
,visa,,,NASHVILLE,TN,,US,,,,,
,visa,,,NASHVILLE,TN,,US,,,,,
81f67db12c790bade2b406e9db04f257,western_union,BUY N SAVE,,Nashville,TN,,US,+1 615-244-0042,https://location.westernunion.com/us/tn/nashville/81f67db12c790bade2b406e9db04f257,Mo-Su 05:00-22:00,Western Union,Q861042
6278854e10a131e73e2cfbae4e7fc637,western_union,EL GALLITO,,Nashville,TN,,US,+1 615-732-1090,https://location.westernunion.com/us/tn/nashville/6278854e10a131e73e2cfbae4e7fc637,Mo-Su 07:00-22:00,Western Union,Q861042
2a791041296e20d111c73cf3b0fdd3cb,western_union,EL GALLITO,,Nashville,TN,,US,+1 615-732-1090,https://location.westernunion.com/us/tn/nashville/2a791041296e20d111c73cf3b0fdd3cb,Mo-Su 07:00-22:00,Western Union,Q861042
