Ref,Spider,Name,Address,City,State,Zipcode,Country,Phone,Website,Hours,Brand,WikiData
320,aaa,Nashville,,Nashville,TN,,US,+1 615-297-7700,,,American Automobile Association,Q463436
https://locators.bankofamerica.com/tn/nashville/financial-centers-nashville-10377.html,bankofamerica,Bank of America Financial Center & Drive-Thru ATM | Hillsboro Village,,Nashville,TN,,US,+1 615-291-2890,https://locators.bankofamerica.com/tn/nashville/financial-centers-nashville-10377.html,Mo-Fr 10:00-16:00,Bank of America,Q487907
150501,bluerhino,Kroger #567 - Nashville,,Nashville,TN,,US,+1 615-981-8847,,,Blue Rhino,Q65681213
41377,citi,ATM Circle K,,Nashville,TN,,US,,,,Citibank,Q857063
64549,citi,ATM Mapco,,Nashville,TN,,US,,,,Citibank,Q857063
64522,citi,ATM Mapco,,Nashville,TN,,US,,,,Citibank,Q857063
5422,dominos_pizza_us,Domino's Pizza,,Nashville,TN,,US,+1 615-297-3000,https://pizza.dominos.com/tennessee/nashville/2004-belcourt-ave,Mo-Th 10:00-24:00; Fr-Sa 10:00-01:00; Su 10:00-24:00,Domino's,Q839466
350049,dunkin_us,Dunkin',,Nashville,TN,,US,+1 615-915-3850,https://locations.dunkindonuts.com/en/tn/nashville/1500-21st-ave-s/350049,Mo-Fr 05:00-19:00; Sa-Su 06:00-19:00,Dunkin',Q847743
2001-belmont-blvd,einsteinbros,Belmont University Einstein Bros. Bagels,,Nashville,TN,,US,+1 615-460-6912,https://locations.einsteinbros.com/us/tn/nashville/2001-belmont-blvd,Mo-Fr 07:00-19:00,Einstein Bros. Bagels,Q5349788
https://locations.53.com/#3033917,fifththirdbank,Fifth Third Bank Music Row,,Nashville,TN,,US,+1 615-320-4950,https://locations.53.com/tn/nashville/2000-wedgewood-avenue.html,Mo-Th 09:00-17:00; Fr 09:00-18:00; Sa 09:00-12:00,Fifth Third Bank,Q1411810
46740,hopdoddy_burger_bar,Nashville Belcourt,,Nashville,TN,,US,+1 615-823-2337,,,HopDoddy Burger Bar,Q123689179
hillsboro-village-parking,indigo,Hillsboro Village Parking,,Nashville,TN,,US,+1 615-862-8775,,,Indigo,Q3559970
edgehill-parking,indigo,Edgehill Parking,,Nashville,TN,,US,+1 615-862-8775,,,Indigo,Q3559970
belcourt-district-parking,indigo,Belcourt District Parking,,Nashville,TN,,US,+1 615-862-8775,,,Indigo,Q3559970
157183,marathon_petroleum_us,Polly's Service Center,,Nashville,TN,,US,+1 615-297-4901,,,Marathon,Q458363
BNAOV,marriott,Moxy Nashville Vanderbilt Area,,Nashville,TN,,US,+1 615-385-1911,https://www.marriott.com/BNAOV,,Moxy Hotels,Q70287020
2004-belmont-blvd,mcalisters_deli,McAlister's Deli Belmont University ,,Nashville,TN,,US,+1 615-460-8561,https://locations.mcalistersdeli.com/tn/nashville/2004-belmont-blvd,Mo-Fr 11:00-21:00; Sa 11:00-19:00; Su 11:00-20:00,McAlister's Deli,Q17020829
2659,mightyflame,MAPCO #3307,,Nashville,TN,,US,+1 615-298-5875,,,Mighty Flame,
2626,mightyflame,MAPCO EXPRESS #3201,,Nashville,TN,,US,+1 615-329-2003,,,Mighty Flame,
https://restaurants.subway.com/#15298582,subway,Subway,,Nashville,TN,,US,+1 615-385-2545,https://restaurants.subway.com/united-states/tn/nashville/1703-portland-ave,Mo-Sa 09:00-20:00; Su 10:00-20:00,Subway,Q244457
1352316,usps,ACKLEN,,NASHVILLE,TN,,US,+1 615-383-5396,,Mo-Fr 08:30-17:00; Sa 09:00-12:00,United States Postal Service,Q668687
3721200046,usps_collection_boxes,USPS COLLECTION BOX - BLUE BOX,1226 16TH AVE S,NASHVILLE,TN,,US,,,,United States Postal Service,Q668687
3721200044,usps_collection_boxes,USPS COLLECTION BOX - BLUE BOX,1207 17TH AVE S,NASHVILLE,TN,,US,,,,United States Postal Service,Q668687
3721200008,usps_collection_boxes,USPS COLLECTION BOX - BLUE BOX,2200 21ST AVE S,NASHVILLE,TN,,US,,,,United States Postal Service,Q668687
3721200017,usps_collection_boxes,USPS COLLECTION BOX - BLUE BOX,2006 ACKLEN AVE,NASHVILLE,TN,,US,,,,United States Postal Service,Q668687
3721200067,usps_collection_boxes,USPS COLLECTION BOX - PO LOBBY,2006 ACKLEN AVE,NASHVILLE,TN,,US,,,,United States Postal Service,Q668687
3721200080,usps_collection_boxes,USPS COLLECTION BOX - APC,2006 ACKLEN AVE,NASHVILLE,TN,,US,,,,United States Postal Service,Q668687
3721200085,usps_collection_boxes,USPS COLLECTION BOX - PO LOBBY,2006 ACKLEN AVE,NASHVILLE,TN,,US,,,,United States Postal Service,Q668687
3721200012,usps_collection_boxes,USPS COLLECTION BOX - BLUE BOX,1701 21ST AVE S,NASHVILLE,TN,,US,,,,United States Postal Service,Q668687
3721200082,usps_collection_boxes,USPS COLLECTION BOX - BLUE BOX,2209 GARLAND AVE,NASHVILLE,TN,,US,,,,United States Postal Service,Q668687
3721200002,usps_collection_boxes,USPS COLLECTION BOX - BLUE BOX,2209 GARLAND AVE,NASHVILLE,TN,,US,,,,United States Postal Service,Q668687
3721200072,usps_collection_boxes,USPS COLLECTION BOX - BLUE BOX,2220 PIERCE AVE,NASHVILLE,TN,,US,,,,United States Postal Service,Q668687
3721200006,usps_collection_boxes,USPS COLLECTION BOX - BLUE BOX,2501 21ST AVE S,NASHVILLE,TN,,US,,,,United States Postal Service,Q668687
,visa,,,NASHVILLE,TN,,US,,,,,
,visa,,,NASHVILLE,TN,,US,,,,,
,visa,,,NASHVILLE,TN,,US,,,,,
,visa,,,NASHVILLE,TN,,US,,,,,
,visa,,,NASHVILLE,TN,,US,,,,,
,visa,,,NASHVILLE,TN,,US,,,,,
,visa,,,NASHVILLE,TN,,US,,,,,
,visa,,,NASHVILLE,TN,,US,,,,,
,visa,,,NASHVILLE,TN,,US,,,,,
,visa,,,NASHVILLE,TN,,US,,,,,
,visa,,,NASHVILLE,TN,,US,,,,,
,visa,,,NASHVILLE,TN,,US,,,,,
,visa,,,NASHVILLE,TN,,US,,,,,
,visa,,,NASHVILLE,TN,,US,,,,,
,visa,,,NASHVILLE,TN,,US,,,,,
,visa,,,NASHVILLE,TN,,US,,,,,
,visa,,,NASHVILLE,TN,,US,,,,,
,visa,,,NASHVILLE,TN,,US,,,,,
,visa,,,NASHVILLE,TN,,US,,,,,
,visa,,,NASHVILLE,TN,,US,,,,,
