Ref,Spider,Name,Address,City,State,Zipcode,Country,Phone,Website,Hours,Brand,WikiData
240875,bluerhino,Brookshire Grocery #002,,Van,TX,,US,+1 903-963-8334,,,Blue Rhino,Q65681213
207213,bluerhino,Family Dollar #12610,,Van,TX,,US,+1 903-467-9019,,,Blue Rhino,Q65681213
158175,bluerhino,Love's #651,,Van,TX,,US,+1 903-963-1122,,,Blue Rhino,Q65681213
59372,bluerhino,Love's #287,,Van,TX,,US,+1 903-963-7341,,,Blue Rhino,Q65681213
37247,citi,ATM Brookshires,,Van,TX,,US,,,,Citibank,Q857063
200329178,exxonmobil,GATEWAY OF VAN,,VAN,TX,,US,,https://www.exxon.com/en/find-station/exxon-van-tx-gatewayofvan-200329178,24/7,Exxon,Q109675651
200315828,exxonmobil,GRAB N GO #6,,VAN,TX,,US,+1 903-963-7723,https://www.exxon.com/en/find-station/exxon-van-tx-grabngo6-200315828,Mo-Fr 05:00-22:00; Sa 06:00-22:00; Su 06:00-21:00,Exxon,Q109675651
32610,family_dollar_us,FAMILY DOLLAR #12610,,Van,TX,,US,+1 903-405-6359,https://www.familydollar.com/locations/tx/van/32610/,Mo-Su 09:00-21:00,Family Dollar,Q5433101
https://local.fedex.com/#25232480,fedex,,,Van,TX,,US,+1 800-463-3339,https://local.fedex.com/en-us/tx/van/tyrbb,,FedEx,Q459477
66515,h_r_block,H&R Block,,Van,TX,,US,+1 903-963-8866,https://www.hrblock.com/local-tax-offices/texas/van/414-w-main/66515/,,H&R Block,Q5627799
171042,little_free_library,Van Junior High #171042 Van Texas,,Van,TX,,US,,,,Little Free Library,Q6650101
596,loves,Site 651,,Van,TX,,US,+1 903-963-1122,,,Love's,Q1872496
953,loves,Site 7651,,Van,TX,,US,+1 903-963-1037,,,Love's,Q1872496
287,loves,Site 287,,Van,TX,,US,+1 903-502-6008,,,Love's,Q1872496
TYRVT,marriott,Fairfield Inn & Suites Van Canton Area,,Van,TX,,US,+1 903-963-1037,https://www.marriott.com/TYRVT,,Fairfield by Marriott,Q5430314
https://locations.oreillyauto.com/tx/van/check-engine-light-testing-6269.html,oreilly,Your Van O'Reilly Auto Parts Store,,Van,TX,,US,+1 903-963-6106,https://locations.oreillyauto.com/tx/van/check-engine-light-testing-6269.html,Mo-Sa 07:30-21:00; Su 09:00-19:00,O'Reilly Auto Parts,Q7071951
https://locations.oreillyauto.com/tx/van/wiper-installation-6269.html,oreilly,Your Van O'Reilly Auto Parts Store,,Van,TX,,US,+1 903-963-6106,https://locations.oreillyauto.com/tx/van/wiper-installation-6269.html,Mo-Sa 07:30-21:00; Su 09:00-19:00,O'Reilly Auto Parts,Q7071951
https://locations.oreillyauto.com/tx/van/battery-testing-6269.html,oreilly,Your Van O'Reilly Auto Parts Store,,Van,TX,,US,+1 903-963-6106,https://locations.oreillyauto.com/tx/van/battery-testing-6269.html,Mo-Sa 07:30-21:00; Su 09:00-19:00,O'Reilly Auto Parts,Q7071951
https://locations.oreillyauto.com/tx/van/autopartes-6269.html,oreilly,O'Reilly Auto Parts,,Van,TX,,US,+1 903-963-6106,https://locations.oreillyauto.com/tx/van/autopartes-6269.html,Mo-Sa 07:30-21:00; Su 09:00-19:00,O'Reilly Auto Parts,Q7071951
1287,pilot_flyingj,Pilot Dealer,,Van,TX,,US,+1 903-963-2300,https://locations.pilotflyingj.com/us/tx/van/133-fm-314,,Pilot,Q7194412
https://restaurants.subway.com/#14908514,subway,Subway,,Van Van Zandt,TX,,US,+1 903-963-7280,https://restaurants.subway.com/united-states/tx/van/1031-s-oak-st,Mo-Su 08:00-21:00,Subway,Q244457
https://locations.tacobell.com/#29440648,taco_bell,Taco Bell,,Van,TX,,US,+1 903-963-1274,https://locations.tacobell.com/tx/van/1100-s-oak-st.html,Mo-Th 09:00-01:00; Fr-Sa 09:00-02:00; Su 09:00-01:00,Taco Bell,Q752941
1385717,usps,VAN,,VAN,TX,,US,+1 903-963-7346,,"Mo-Fr 08:30-12:00,13:00-16:00",United States Postal Service,Q668687
7579000004,usps_collection_boxes,USPS COLLECTION BOX - BLUE BOX,1221 S OAK ST,VAN,TX,,US,,,,United States Postal Service,Q668687
7579000000,usps_collection_boxes,USPS COLLECTION BOX - BLUE BOX,770 W MAIN ST,VAN,TX,,US,,,,United States Postal Service,Q668687
7579000001,usps_collection_boxes,USPS COLLECTION BOX - PO LOBBY,770 W MAIN ST,VAN,TX,,US,,,,United States Postal Service,Q668687
7579000002,usps_collection_boxes,USPS COLLECTION BOX - PO LOBBY,770 W MAIN ST,VAN,TX,,US,,,,United States Postal Service,Q668687
7579000005,usps_collection_boxes,USPS COLLECTION BOX - PO LOBBY,770 W MAIN ST,VAN,TX,,US,,,,United States Postal Service,Q668687
,visa,,,VAN,TX,,US,,,,,
,visa,,,VAN,TX,,US,,,,,
https://locations.wendys.com/#1022501429,wendys,"Wendy's Sec Of I-20 / Fm 314 in Van, TX",,Van,TX,,US,+1 903-963-2010,https://locations.wendys.com/united-states/tx/van/133-fm-314-ste-100,Mo-Su 04:05-10:30,Wendy's,Q550258
