Ref,Spider,Name,Address,City,State,Zipcode,Country,Phone,Website,Hours,Brand,WikiData
206540,chevron,Chevron Station #206540,6779 CRATER LAKE HWY,WHITE CITY,OR,,US,,,,Chevron,Q319642
93872,citi,ATM WASHINGTON FEDERAL BANK,,White City,OR,,US,,,,Citibank,Q857063
27947,citi,ATM 7ELEVEN-FCTI,,White City,OR,,US,,,,Citibank,Q857063
73895,citi,ATM Rogue Cc,,White City,OR,,US,,,,Citibank,Q857063
70235627,cricket_wireless,Cricket Wireless Authorized Retailer,,White City,OR,,US,+1 541-879-0427,https://www.cricketwireless.com/stores/ll/US/OR/White-City/8336-Hwy-62,Mo-Fr 10:00-19:00; Sa 10:00-18:00; Su 11:00-16:00,Cricket Wireless,Q5184987
DB011,dutchbros,"White City, OR (VA 8380 Crater Lake Hwy)",,White City,OR,,US,,https://locations.dutchbros.com/dutch-bros-coffee-9c1a7fffaa61,Mo-Fr 05:00-22:00; Sa-Su 05:00-23:00,Dutch Bros. Coffee,Q5317253
DB064,dutchbros,"White City, OR (White City)",,White City,OR,,US,,https://locations.dutchbros.com/dutch-bros-coffee-6f04863d0909,Mo-Th 05:00-22:00; Fr-Sa 05:00-23:00; Su 05:00-22:00,Dutch Bros. Coffee,Q5317253
875ea7b1-458a-e111-8dde-005056934050,goodwill,White City Retail Store,,White City,OR,,US,+1 541-826-4900,https://www.goodwill.org/locator/location/?store=ODc1ZWE3YjEtNDU4YS1lMTExLThkZGUtMDA1MDU2OTM0MDUw&lat=NDIuNDI2NTk=&lng=LTEyMi44NDk5Mw==,,Goodwill,Q5583655
36239,h_r_block,H&R Block,,White City,OR,,US,+1 541-830-3600,https://www.hrblock.com/local-tax-offices/oregon/white-city/lakewood-center-shop-ctr/36239/,,H&R Block,Q5627799
https://locations.papamurphys.com/#15431029,papamurphys,Pizza Takeout & Delivery,,White City,OR,,US,+1 541-830-4000,https://locations.papamurphys.com/or/white-city/7413-crater-lake-highway,Mo-Th 11:00-20:30; Fr-Sa 11:00-21:30; Su 11:00-20:30,Papa Murphy's,Q7132349
0000894661,phillips_66_conoco_76,RAINEYS CORNER MARKET,,WHITE CITY,OR,,US,+1 541-826-5421,,,U76,Q1658320
https://restaurants.subway.com/#14903032,subway,Subway Antelope Center,,White City Jackson,OR,,US,+1 541-826-9109,https://restaurants.subway.com/united-states/or/white-city/7584-hwy-62,Mo-Su 09:00-23:00,Subway,Q244457
https://locations.tacobell.com/#6142249,taco_bell,Taco Bell,,White City,OR,,US,+1 541-826-4817,https://locations.tacobell.com/or/white-city/7511-crater-lake-hwy.html,Mo-Th 07:00-02:00; Fr-Sa 07:00-03:00; Su 07:00-02:00,Taco Bell,Q752941
1439997,usps,WHITE CITY,,WHITE CITY,OR,,US,+1 541-826-4903,,Mo-Fr 09:30-17:00,United States Postal Service,Q668687
9750300005,usps_collection_boxes,USPS COLLECTION BOX - PO LOBBY,7561 CRATER LAKE HWY STE A,MEDFORD,OR,,US,,,,United States Postal Service,Q668687
9750300000,usps_collection_boxes,USPS COLLECTION BOX - PO LOBBY,7561 CRATER LAKE HWY,MEDFORD,OR,,US,,,,United States Postal Service,Q668687
9750300001,usps_collection_boxes,USPS COLLECTION BOX - BLUE BOX,7561 CRATER LAKE HWY,MEDFORD,OR,,US,,,,United States Postal Service,Q668687
9750300003,usps_collection_boxes,USPS COLLECTION BOX - BLUE BOX,7561 CRATER LAKE HWY,MEDFORD,OR,,US,,,,United States Postal Service,Q668687
9750300004,usps_collection_boxes,USPS COLLECTION BOX - BLUE BOX,4000 HIGHWAY 234,MEDFORD,OR,,US,,,,United States Postal Service,Q668687
,visa,,,WHITE CITY,OR,,US,,,,,
,visa,,,WHITE CITY,OR,,US,,,,,
,visa,,,WHITE CITY,OR,,US,,,,,
,visa,,,WHITE CITY,OR,,US,,,,,
,visa,,,WHITE CITY,OR,,US,,,,,
,visa,,,WHITE CITY,OR,,US,,,,,
,visa,,,WHITE CITY,OR,,US,,,,,
,visa,,,WHITE CITY,OR,,US,,,,,
,visa,,,WHITE CITY,OR,,US,,,,,
,visa,,,WHITE CITY,OR,,US,,,,,
,visa,,,WHITE CITY,OR,,US,,,,,
,visa,,,WHITE CITY,OR,,US,,,,,
,visa,,,WHITE CITY,OR,,US,,,,,
,visa,,,WHITE CITY,OR,,US,,,,,
,visa,,,WHITE CITY,OR,,US,,,,,
,visa,,,WHITE CITY,OR,,US,,,,,
,visa,,,WHITE CITY,OR,,US,,,,,
,visa,,,WHITE CITY,OR,,US,,,,,
,visa,,,WHITE CITY,OR,,US,,,,,
,visa,,,WHITE CITY,OR,,US,,,,,
,visa,,,WHITE CITY,OR,,US,,,,,
,visa,,,WHITE CITY,OR,,US,,,,,
,visa,,,MEDFORD,OR,,US,,,,,
7445__CRATER__LAKE__HWY_WHITE__CITY_OR_97503,wellsfargo,Wells Fargo,7445 CRATER LAKE HWY,WHITE CITY,OR,,US,+1 541-830-2400,https://www.wellsfargo.com/locator/bank/7445__CRATER__LAKE__HWY_WHITE__CITY_OR_97503/,Mo-Fr 09:00-17:00,Wells Fargo,Q744149
