Ref,Spider,Name,Address,City,State,Zipcode,Country,Phone,Website,Hours,Brand,WikiData
CHNA10767,audi,"Qingyuan Aoze Automotive Sales&Service Co., Ltd.","No.9 Residential Quarter, Economic and Technological Development Zone, Qingyuan, 511500 Qingyuan",Qingyuan,Guangdong,,CN,+86 763 311 3666,,,Audi,Q23317
198d7ec5ed3e78614538eb035a4662bf,western_union,CHINA CONSTRUCTION BANK,,Qingyuan,GUANGDONG,,CN,+86 763 222 2603,https://location.westernunion.com/cn/guangdong/qingyuan/198d7ec5ed3e78614538eb035a4662bf,Mo-Fr 09:00-17:00; Sa 10:00-16:00,Western Union,Q861042
133fd3f2ae6eedf3774c9de4c1ed9fcf,western_union,CHINA CONSTRUCTION BANK,,Qingyuan,GUANGDONG,,CN,+86 763 789 3198,https://location.westernunion.com/cn/guangdong/qingyuan/133fd3f2ae6eedf3774c9de4c1ed9fcf,Mo-Fr 09:00-17:00; Sa 10:00-16:00,Western Union,Q861042
cd04cb34b3a6ca6cb5a5357651e1e7aa,western_union,CHINA CONSTRUCTION BANK,,Qingyuan,GUANGDONG,,CN,+86 763 866 1651,https://location.westernunion.com/cn/guangdong/qingyuan/cd04cb34b3a6ca6cb5a5357651e1e7aa,Mo-Fr 09:00-17:00; Sa 10:00-16:00,Western Union,Q861042
08de806fd0ef5ebca11e70b4db82d2f5,western_union,CHINA CONSTRUCTION BANK,,Qingyuan,GUANGDONG,,CN,+86 763 662 3499,https://location.westernunion.com/cn/guangdong/qingyuan/08de806fd0ef5ebca11e70b4db82d2f5,Mo-Fr 09:00-17:00; Sa 10:00-16:00,Western Union,Q861042
c6b8e972a08eef1ecd364f612f2da375,western_union,CHINA CONSTRUCTION BANK,,Qingyuan,GUANGDONG,,CN,+86 763 662 3053,https://location.westernunion.com/cn/guangdong/qingyuan/c6b8e972a08eef1ecd364f612f2da375,Mo-Fr 09:00-17:00; Sa 10:00-16:00,Western Union,Q861042
fe1a11656eb5f62ef102c02e761c41ea,western_union,CHINA CONSTRUCTION BANK,,Qingyuan,GUANGDONG,,CN,+86 763 581 4773,https://location.westernunion.com/cn/guangdong/qingyuan/fe1a11656eb5f62ef102c02e761c41ea,Mo-Fr 09:00-17:00; Su 10:00-16:00,Western Union,Q861042
57706cae78a4b638fadd410eff005ca1,western_union,BANK OF CHINA,,Qingyuan,GUANGDONG,,CN,+86 763 581 4457,https://location.westernunion.com/cn/guangdong/qingyuan/57706cae78a4b638fadd410eff005ca1,Mo-Su 09:00-17:00,Western Union,Q861042
8e2188f54a77eea4a2ab40eeb75c7125,western_union,CHINA CONSTRUCTION BANK,,Qingyuan,GUANGDONG,,CN,+86 763 332 5734,https://location.westernunion.com/cn/guangdong/qingyuan/8e2188f54a77eea4a2ab40eeb75c7125,Mo-Fr 09:00-17:00; Su 10:00-16:00,Western Union,Q861042
e7f49abba46a479fafc30b1a869fbdc9,western_union,BANK OF CHINA,,Qingyuan,GUANGDONG,,CN,+86 763 333 0210,https://location.westernunion.com/cn/guangdong/qingyuan/e7f49abba46a479fafc30b1a869fbdc9,Mo-Su 09:00-17:00,Western Union,Q861042
544eeb0718b854a458283d1dab2fa60e,western_union,BANK OF CHINA,,Qingyuan,GUANGDONG,,CN,+86 763 332 0526,https://location.westernunion.com/cn/guangdong/qingyuan/544eeb0718b854a458283d1dab2fa60e,Mo-Su 09:00-17:00,Western Union,Q861042
3ca4de7b4fb7eeaa0a0033ed5389bcab,western_union,BANK OF CHINA,,Qingyuan,GUANGDONG,,CN,+86 763 330 7007,https://location.westernunion.com/cn/guangdong/qingyuan/3ca4de7b4fb7eeaa0a0033ed5389bcab,Mo-Su 09:00-17:00,Western Union,Q861042
f56d6121fa8b236bf9503dd0ecef6a6e,western_union,BANK OF CHINA,,Qingyuan,GUANGDONG,,CN,+86 763 577 0838,https://location.westernunion.com/cn/guangdong/qingyuan/f56d6121fa8b236bf9503dd0ecef6a6e,Mo-Su 09:00-17:00,Western Union,Q861042
cd762261419c3c308d2c80c57d71122c,western_union,POSTAL SAVINGS BANK OF CHINA,,Qingyuan,GUANGDONG,,CN,+86 763 366 6348,https://location.westernunion.com/cn/guangdong/qingyuan/cd762261419c3c308d2c80c57d71122c,Mo-Fr 08:30-17:30; Sa-Su 09:30-16:30,Western Union,Q861042
66a14dd1e85c90afcdd27f7b3c27ce29,western_union,BANK OF CHINA,,Qingyuan,GUANGDONG,,CN,+86 763 581 0757,https://location.westernunion.com/cn/guangdong/qingyuan/66a14dd1e85c90afcdd27f7b3c27ce29,Mo-Su 09:00-17:00,Western Union,Q861042
284666fc7a345c7616420a156d30f992,western_union,CHINA CONSTRUCTION BANK,,Qingyuan,GUANGDONG,,CN,+86 763 428 8378,https://location.westernunion.com/cn/guangdong/qingyuan/284666fc7a345c7616420a156d30f992,Mo-Fr 09:00-17:00; Sa 10:00-16:00,Western Union,Q861042
b2d36802b55bfa6affe51baec32b968b,western_union,CHINA CONSTRUCTION BANK,,Qingyuan,GUANGDONG,,CN,+86 763 320 2077,https://location.westernunion.com/cn/guangdong/qingyuan/b2d36802b55bfa6affe51baec32b968b,Mo-Fr 09:00-17:00; Su 10:00-16:00,Western Union,Q861042
4f7fcade0ac46038441a13692132e519,western_union,BANK OF CHINA,,Qingyuan,GUANGDONG,,CN,+86 763 689 1020,https://location.westernunion.com/cn/guangdong/qingyuan/4f7fcade0ac46038441a13692132e519,Mo-Su 09:00-17:00,Western Union,Q861042
e156f679bbfc4d7a3c93740b1599dcd9,western_union,CHINA CONSTRUCTION BANK,,Qingyuan,GUANGDONG,,CN,+86 763 333 6779,https://location.westernunion.com/cn/guangdong/qingyuan/e156f679bbfc4d7a3c93740b1599dcd9,Mo-Fr 09:00-17:00; Su 10:00-16:00,Western Union,Q861042
6322e1c1c013fc538536638deec28711,western_union,CHINA CONSTRUCTION BANK,,Qingyuan,GUANGDONG,,CN,+86 763 581 0236,https://location.westernunion.com/cn/guangdong/qingyuan/6322e1c1c013fc538536638deec28711,Mo-Fr 09:00-17:00; Su 10:00-16:00,Western Union,Q861042
0f852515bffa9dffe15d66fef419d447,western_union,CHINA CONSTRUCTION BANK,,Qingyuan,GUANGDONG,,CN,+86 763 428 6480,https://location.westernunion.com/cn/guangdong/qingyuan/0f852515bffa9dffe15d66fef419d447,Mo-Fr 09:00-17:00; Sa 10:00-16:00,Western Union,Q861042
5cb59d189fecdcb2fb7661aee5f0cdb0,western_union,POSTAL SAVINGS BANK OF CHINA,,Qingyuan,GUANGDONG,,CN,+86 763 333 6301,https://location.westernunion.com/cn/guangdong/qingyuan/5cb59d189fecdcb2fb7661aee5f0cdb0,Mo-Fr 08:30-17:30; Sa-Su 09:30-16:30,Western Union,Q861042
be6dbcba559123ad3fa4db68f985d542,western_union,CHINA CONSTRUCTION BANK,,Qingyuan,GUANGDONG,,CN,+86 763 348 3988,https://location.westernunion.com/cn/guangdong/qingyuan/be6dbcba559123ad3fa4db68f985d542,Mo-Fr 09:00-17:00; Su 10:00-15:00,Western Union,Q861042
0cbb1afa0d84a659807119659eb22bf1,western_union,CHINA CONSTRUCTION BANK,,Qingyuan,GUANGDONG,,CN,+86 763 336 9333,https://location.westernunion.com/cn/guangdong/qingyuan/0cbb1afa0d84a659807119659eb22bf1,Mo-Fr 09:00-17:00; Su 10:00-16:00,Western Union,Q861042
d8a705fca5e0b6be9dc7b8013d1fcdfe,western_union,CHINA CONSTRUCTION BANK,,Qingyuan,GUANGDONG,,CN,+86 763 387 5761,https://location.westernunion.com/cn/guangdong/qingyuan/d8a705fca5e0b6be9dc7b8013d1fcdfe,Mo-Fr 09:00-17:00; Su 10:00-16:00,Western Union,Q861042
16a6aca0ef5e9acbb338bb1c57b71ba4,western_union,CHINA CONSTRUCTION BANK,,Qingyuan,GUANGDONG,,CN,+86 763 386 2207,https://location.westernunion.com/cn/guangdong/qingyuan/16a6aca0ef5e9acbb338bb1c57b71ba4,Mo-Fr 09:00-17:00; Su 10:00-16:00,Western Union,Q861042
