Ref,Spider,Name,Address,City,State,Zipcode,Country,Phone,Website,Hours,Brand,WikiData
,visa,,,SPRINGFIELD,MA,,US,,,,,
,visa,,,SPRINGFIELD,MA,,US,,,,,
,visa,,,SPRINGFIELD,MA,,US,,,,,
,visa,,,SPRINGFIELD,MA,,US,,,,,
,visa,,,SPRINGFIELD,MA,,US,,,,,
,visa,,,SPRINGFIELD,MA,,US,,,,,
,visa,,,SPRINGFIELD,MA,,US,,,,,
,visa,,,SPRINGFIELD,MA,,US,,,,,
,visa,,,SPRINGFIELD,MA,,US,,,,,
,visa,,,SPRINGFIELD,MA,,US,,,,,
,visa,,,SPRINGFIELD,MA,,US,,,,,
,visa,,,SPRINGFIELD,MA,,US,,,,,
,visa,,,SPRINGFIELD,MA,,US,,,,,
,visa,,,SPRINGFIELD,MA,,US,,,,,
,visa,,,SPRINGFIELD,MA,,US,,,,,
,visa,,,SPRINGFIELD,MA,,US,,,,,
,visa,,,SPRINGFIELD,MA,,US,,,,,
,visa,,,SPRINGFIELD,MA,,US,,,,,
,visa,,,SPRINGFIELD,MA,,US,,,,,
,visa,,,SPRINGFIELD,MA,,US,,,,,
,visa,,,SPRINGFIELD,MA,,US,,,,,
,visa,,,SPRINGFIELD,MA,,US,,,,,
,visa,,,SPRINGFIELD,MA,,US,,,,,
,visa,,,SPRINGFIELD,MA,,US,,,,,
,visa,,,SPRINGFIELD,MA,,US,,,,,
,visa,,,SPRINGFIELD,MA,,US,,,,,
,visa,,,SPRINGFIELD,MA,,US,,,,,
,visa,,,SPRINGFIELD,MA,,US,,,,,
,visa,,,SPRINGFIELD,MA,,US,,,,,
,visa,,,SPRINGFIELD,MA,,US,,,,,
,visa,,,SPRINGFIELD,MA,,US,,,,,
,visa,,,SPRINGFIELD,MA,,US,,,,,
,visa,,,SPRINGFIELD,MA,,US,,,,,
,visa,,,SPRINGFIELD,MA,,US,,,,,
,visa,,,SPRINGFIELD,MA,,US,,,,,
,visa,,,SPRINGFIELD,MA,,US,,,,,
,visa,,,SPRINGFIELD,MA,,US,,,,,
,visa,,,SPRINGFIELD,MA,,US,,,,,
,visa,,,SPRINGFILED,MA,,US,,,,,
,visa,,,SPRINGFIELD,MA,,US,,,,,
,visa,,,SPRINGFIELD,MA,,US,,,,,
,visa,,,SPRINGFIELD,MA,,US,,,,,
,visa,,,SPRINGFIELD,MA,,US,,,,,
,visa,,,SPRINGFIELD,MA,,US,,,,,
,visa,,,SPRINGFIELD,MA,,US,,,,,
,visa,,,SPRINGFIELD,MA,,US,,,,,
,visa,,,SPRINGFIELD,MA,,US,,,,,
,visa,,,SPRINGFIELD,MA,,US,,,,,
,visa,,,SPRINGFIELD,MA,,US,,,,,
,visa,,,SPRINGFIELD,MA,,US,,,,,
,visa,,,SPRINGFIELD,MA,,US,,,,,
,visa,,,SPRINGFIELD,MA,,US,,,,,
,visa,,,SPRINGFIELD,MA,,US,,,,,
,visa,,,SPRINGFIELD,MA,,US,,,,,
,visa,,,SPRINGFIELD,MA,,US,,,,,
,visa,,,SPRINGFIELD,MA,,US,,,,,
,visa,,,SPRINGFIELD,MA,,US,,,,,
,visa,,,SPRINGFIELD,MA,,US,,,,,
,visa,,,SPRINGFIELD,MA,,US,,,,,
,visa,,,SPRINGFIELD,MA,,US,,,,,
,visa,,,SPRINGFIELD,MA,,US,,,,,
,visa,,,SPRINGFIELD,MA,,US,,,,,
,visa,,,SPRINGFIELD,MA,,US,,,,,
,visa,,,SPRINGFIELD,MA,,US,,,,,
,visa,,,SPRINGFIELD,MA,,US,,,,,
,visa,,,SPRINGFIELD,MA,,US,,,,,
,visa,,,SPRINGFIELD,MA,,US,,,,,
,visa,,,SPRINGFIELD,MA,,US,,,,,
,visa,,,SPRINGFIELD,MA,,US,,,,,
,visa,,,SPRINGFIELD,MA,,US,,,,,
,visa,,,SPRINGFIELD,MA,,US,,,,,
,visa,,,SPRINGFIELD,MA,,US,,,,,
,visa,,,SPRINGFIELD,MA,,US,,,,,
,visa,,,NORTHAMPTON,MA,,US,,,,,
,visa,,,SOUTHWICK,MA,,US,,,,,
,visa,,,SOUTHWICK,MA,,US,,,,,
