Ref,Spider,Name,Address,City,State,Zipcode,Country,Phone,Website,Hours,Brand,WikiData
72553145,moneygram,KHUSHBU MITTAL,,DELHI,,,IN,+91 98704 18098,,Mo-Su 08:00-21:00,MoneyGram,Q1944412
72554652,moneygram,PREM STD NET SHOPPE,,DELHI,,,IN,+91 98182 41767,,Mo-Su 08:00-21:00,MoneyGram,Q1944412
72556265,moneygram,RAVI JINDAL,,DELHI,,,IN,+91 92127 95281,,Mo-Su 08:00-21:00,MoneyGram,Q1944412
72537080,moneygram,SURBHI COMMUNICATION,,DELHI,,,IN,+91 92125 24726,,Mo-Su 08:00-21:00,MoneyGram,Q1944412
72619979,moneygram,AMAN MITTAL,,DELHI,,,IN,+91 92120 88800,,Mo-Su 08:00-21:00,MoneyGram,Q1944412
73258517,moneygram,MUTHOOT FINANCE LTD - #1072 - DELHI - DE,,DELHI,,,IN,+91 91273 84285,,Mo-Su 09:00-19:00,MoneyGram,Q1944412
73259817,moneygram,MUTHOOT FINANCE LTD - #1236 - WEST DELHI,,WEST DELHI,,,IN,+91 11 2504 3536,,Mo-Su 09:00-19:00,MoneyGram,Q1944412
73263201,moneygram,MUTHOOT FINANCE LTD - #1607 - CENTRAL DE,,CENTRAL DELHI,,,IN,+91 91273 87421,,Mo-Su 09:00-19:00,MoneyGram,Q1944412
73275312,moneygram,MUTHOOT FINANCE LTD - #2522 - WEST DELHI,,WEST DELHI,,,IN,+91 91273 96380,,Mo-Su 09:00-19:00,MoneyGram,Q1944412
73315078,moneygram,MUTHOOT FINCORP LIMITED - #F1373 - TRI N,,NORTH DELHI,,,IN,+91 11 2739 2986,,Mo-Sa 09:00-17:30; Su 00:00-24:00,MoneyGram,Q1944412
73397494,moneygram,MUZAMMIL AHMED,,DELHI,,,IN,+91 98106 14988,,Mo-Su 08:00-21:00,MoneyGram,Q1944412
73400077,moneygram,RAJESH BEHL,,DELHI,,,IN,+91 99117 78370,,Mo-Su 08:00-21:00,MoneyGram,Q1944412
73400420,moneygram,RAMESHWAR DAYAL MALIK,,DELHI,,,IN,+91 99530 48427,,Mo-Su 08:00-21:00,MoneyGram,Q1944412
73421632,moneygram,SRI RAM TRANSPORT CO. (DELHI)-IBP,,DELHI,,,IN,+91 98910 92027,,Mo-Su 08:00-21:00,MoneyGram,Q1944412
73450302,moneygram,KUNAL MITTAL,,DELHI,,,IN,+91 98111 47212,,Mo-Su 08:00-21:00,MoneyGram,Q1944412
73541156,moneygram,JINDAL SERVICES,,DELHI,,,IN,+91 98110 61328,,Mo-Su 08:00-21:00,MoneyGram,Q1944412
73744869,moneygram,JEEVAN SERVICE CITIZEN,,DELHI,,,IN,+91 92507 97980,,Mo-Su 08:00-21:00,MoneyGram,Q1944412
73730080,moneygram,SHRI GIRIRAJ TRAVELS,,DELHI,,,IN,+91 98101 78991,,Mo-Su 08:00-21:00,MoneyGram,Q1944412
73736068,moneygram,TIWARI CYBER CAFE,,DELHI,,,IN,+91 80101 03043,,Mo-Su 08:00-21:00,MoneyGram,Q1944412
73825953,moneygram,APEX TRAVELS DELHI IBP,,DELHI,,,IN,+91 98114 47754,,Mo-Su 08:00-21:00,MoneyGram,Q1944412
73822192,moneygram,DARPANS TOUR AND TRAVELS NEW DELHI IBP,,NEW DELHI,,,IN,+91 98102 67388,,Mo-Su 08:00-21:00,MoneyGram,Q1944412
72972962,moneygram,CHERISH HOLIDAYS,,DELHI,,,IN,+91 99992 08250,,Mo-Su 08:00-21:00,MoneyGram,Q1944412
74342639,moneygram,DK TELECOM,,DELHI,,,IN,+91 80103 54338,,Mo-Su 08:00-21:00,MoneyGram,Q1944412
74336263,moneygram,GURU KIRPA COMMUNICATION,,DELHI,,,IN,+91 99535 75304,,Mo-Su 08:00-21:00,MoneyGram,Q1944412
71572363,moneygram,KAALHARI TRAVELS - DELHI - GANESH PURA,,DELHI,,,IN,119818386690,,Mo-Su 10:00-20:00,MoneyGram,Q1944412
,visa,,,NEW DELHI,,,IN,,,,,
,visa,,,NEW DELHI,,,IN,,,,,
,visa,,,NEW DELHI,,,IN,,,,,
,visa,,,NEW DELHI,,,IN,,,,,
,visa,,,DELHI,,,IN,,,,,
,visa,,,NEW DELHI,,,IN,,,,,
