Ref,Spider,Name,Address,City,State,Zipcode,Country,Phone,Website,Hours,Brand,WikiData
HEL-24,aldi_sud_de,,"Wassertrüdinger Straße 53, 91550, Dinkelsbühl, Deutschland",Dinkelsbühl,,,DE,,,Mo-Sa 08:00-20:00,ALDI Süd,Q41171672
https://vertretung.allianz.de/agentur.siebachmeyer/,allianz_de,Allianz Versicherung Siebachmeyer OHG UNKNOWN,,Dinkelsbühl,,,DE,+49 9851 3694,https://vertretung.allianz.de/agentur.siebachmeyer/,"Mo-Tu 09:00-12:00; We 09:00-13:00; Th 09:00-12:00,16:00-18:00; Fr 09:00-12:00",Allianz SE,Q487292
de:2272,dm,dm-drogerie markt,,Dinkelsbühl,,,DE,+49 9851 5549307,https://www.dm.de/store/d3mg/dinkelsbuehl/bahnhofsplatz-1,Mo-Sa 08:00-20:00,dm,Q266572
49.0750710.3253,dpd_de,Wilhelm Reulein GmbH & Co.KG,,Dinkelsbühl,,,DE,,,,DPD,Q541030
49.068138210.3309572,dpd_de,AWG Mode Center,,Dinkelsbühl,,,DE,,,,DPD,Q541030
49.068779344710.3199891786,dpd_de,NKD Deutschland GmbH,,Dinkelsbühl,,,DE,,,,DPD,Q541030
49.06394210.325978,dpd_de,Kupsch Markt Dinkelsbühl,,Dinkelsbühl,,,DE,,,,DPD,Q541030
2760909939,gls_de,Hausertsmühle,,Dinkelsbühl,,,DE,+49 9851 2701,,Mo-Fr 08:00-18:00,General Logistics Systems,Q46495823
2604,kik,KiK,,Dinkelsbühl,,,DE,+49 9851 582721,,Mo-Fr 09:00-19:00; Sa 09:00-18:00,KiK,Q883965
1082,lidl_de,,,Dinkelsbühl,,,DE,,,Mo-Sa 07:00-20:00,Lidl,Q151954
74447479,moneygram,PIZZA PLUS - #1 - DINKELSBUEHL,,DINKELSBUEHL,,,DE,+49 9851 5549976,,Mo-Su 11:00-23:00,MoneyGram,Q1944412
1475,mueller,Müller,,Dinkelsbühl,,,DE,+49 9851 5899870,https://www.mueller.de/meine-filiale/dinkelsbuehl/wassertruedinger-str-57/,,Müller,Q1958759
49.06794_10.33103,norma_de,NORMA,,Dinkelsbühl,,,DE,,,Mo-Sa 07:00-20:00,Norma,Q450180
27614968_001-renault,renault,"Auto-Kraus GmbH & Co.KG,Fil. Dinkelsbühl",,Dinkelsbühl,,,DE,+49 9851 7777,,,Renault,Q6686
27614968_001-dacia,renault,"Auto-Kraus GmbH & Co.KG,Fil. Dinkelsbühl",,Dinkelsbühl,,,DE,+49 9851 7777,,,Dacia,Q27460
27681622_001-dacia,renault,Auto-Kraus GmbH & Co.KG,,Dinkelsbühl,,,DE,+49 9851 7777,,,Dacia,Q27460
31217,sparkasse_de,Sparkasse Ansbach Geldautomat Dinkelsbühl-Stadtmühle,,Dinkelsbühl,,,DE,+49 981 1893800,https://www.sparkasse.de/standorte/geldautomaten/sparkasse-ansbach-geldautomat-dinkelsbuehl-stadtmuehle-31217,24/7,Sparkasse,Q13601825
172386,sparkasse_de,Sparkasse Ansbach Geldautomat Dinkelsbühl-Ledermarkt,,Dinkelsbühl,,,DE,+49 981 1893800,https://www.sparkasse.de/standorte/geldautomaten/sparkasse-ansbach-geldautomat-dinkelsbuehl-ledermarkt-172386,24/7,Sparkasse,Q13601825
102887,sparkasse_de,Sparkasse Ansbach BeratungsCenter Dinkelsbühl,,Dinkelsbühl,,,DE,+49 981 1893800,https://www.sparkasse.de/standorte/filialen/sparkasse-ansbach-beratungs-center-dinkelsbuehl-102887,"Mo-Tu 08:30-12:30,13:30-16:30; We 08:30-12:30; Th 08:30-12:30,13:30-17:30; Fr 08:30-12:30,13:30-16:30",Sparkasse,Q13601825
,visa,,,DINKELSBUEHL,,,DE,,,,,
,visa,,,DINKELSBUEHL,,,DE,,,,,
,visa,,,DINKELSBUEHL,,,DE,,,,,
https://www.vr.de/standorte/D/vr-bank-im-suedlichen-franken-eg-vr-immocenter-dinkelsbuehl-feuc-18417.html,vr_bank,VR Bank im südlichen Franken eG VR ImmoCenter Dinkelsbühl-Feuchtwangen,,Dinkelsbühl,,,DE,+49 9851 5807100,https://www.vr-sf.de,"Mo-Tu 09:00-12:30,14:00-17:00; We 09:00-12:30; Th-Fr 09:00-12:30,14:00-17:00",,
https://www.vr.de/standorte/D/vr-bank-im-suedlichen-franken-eg-hauptstelle-dinkelsbuehl-19671.html,vr_bank,VR Bank im südlichen Franken eG Hauptstelle Dinkelsbühl,,Dinkelsbühl,,,DE,+49 9851 5808000,https://www.vr-sf.de,"Mo-Tu 08:30-12:30,14:00-17:00; We 08:30-12:30; Th 08:30-12:30,14:00-18:00; Fr 08:30-12:30,14:00-17:00",,
https://www.vr.de/standorte/D/vr-bank-im-suedlichen-franken-eg-mediale-beratung-19075.html,vr_bank,VR Bank im südlichen Franken eG Mediale Beratung,,Dinkelsbühl,,,DE,+49 9851 5808000,https://www.vr-sf.de,Mo-Fr 08:00-18:00,,
https://www.vr.de/standorte/D/vr-bank-im-suedlichen-franken-eg-geschaeftsstelle-dinkelsbuehl-w-13988.html,vr_bank,VR Bank im südlichen Franken eG Geschäftsstelle Dinkelsbühl-Weinmarkt,,Dinkelsbühl,,,DE,+49 9851 5808000,https://www.vr-sf.de,"Mo-Tu 08:30-12:30,14:00-17:00; We 08:30-12:30; Th-Fr 08:30-12:30,14:00-17:00",,
