Ref,Spider,Name,Address,City,State,Zipcode,Country,Phone,Website,Hours,Brand,WikiData
https://stores.advanceautoparts.com/la/marrero/7150-westbank-expy,advance_auto_parts_us,Advance Auto Parts,,Marrero,LA,,US,+1 504-371-8860,https://stores.advanceautoparts.com/la/marrero/7150-westbank-expy,Mo-Sa 07:00-21:00; Su 08:30-20:00,Advance Auto Parts,Q4686051
https://stores.aldi.us/#1009180504,aldi_sud_us,ALDI  4957 Promenade Blvd,,Marrero,LA,,US,+1 855-482-1068,https://stores.aldi.us/la/marrero/4957-promenade-blvd,Mo-Su 09:00-20:00,ALDI,Q41171672
424,anytime_fitness,Anytime Fitness,,Marrero,LA,,US,+1 504-267-0856,https://www.anytimefitness.com/gyms/424/marrero-la-70072/,,Anytime Fitness,Q4778364
4429,anytime_fitness,Anytime Fitness,,Marrero,LA,,US,+1 504-605-1200,https://www.anytimefitness.com/gyms/4429/marrero-la-70072/,,Anytime Fitness,Q4778364
3012,autozone_us,AutoZone Auto Parts Marrero,,Marrero,LA,,US,+1 504-341-0011,https://www.autozone.com/locations/la/marrero/6240-westbank-expy.html,Mo-Sa 07:00-22:00; Su 07:00-21:00,AutoZone,Q4826087
3041,autozone_us,AutoZone Auto Parts Marrero,,Marrero,LA,,US,+1 504-340-3330,https://www.autozone.com/locations/la/marrero/2546-barataria-blvd.html,Mo-Sa 07:00-22:00; Su 07:00-21:00,AutoZone,Q4826087
https://www.avis.com/en/locations/us/la/marrero/m7a,avis,Avis U S A Marrero,,Marrero,LA,,US,+1 504-349-2810,https://www.avis.com/en/locations/us/la/marrero/m7a,Mo-Fr 09:00-17:00; Sa-Su 09:00-13:00,Avis,Q791136
https://locations.baskinrobbins.com/la/marrero/5013-lapalco-blvd-360945-br,baskin_robbins_us,Baskin-Robbinsâ„¢,,Marrero,LA,,US,+1 504-341-9831,https://locations.baskinrobbins.com/la/marrero/5013-lapalco-blvd-360945-br,Mo-Su 11:00-22:00,Baskin-Robbins,Q584601
https://local.biglots.com/#13189988,biglots,Big Lots - Marrero,,Marrero,LA,,US,+1 504-340-9771,https://local.biglots.com/la/marrero/5005-lapalco-blvd,Mo-Sa 09:00-21:00; Su 10:00-19:00,Big Lots,Q4905973
173867,bluerhino,Family Dollar #08718,,Marrero,LA,,US,+1 504-347-3195,,,Blue Rhino,Q65681213
57562,bluerhino,Westwood Spur Inc.,,Marrero,LA,,US,+1 504-328-1444,,,Blue Rhino,Q65681213
172791,bluerhino,Family Dollar #10608,,Marrero,LA,,US,+1 504-208-2486,,,Blue Rhino,Q65681213
172031,bluerhino,Family Dollar #08192,,Marrero,LA,,US,+1 504-348-1842,,,Blue Rhino,Q65681213
236862,bluerhino,Circle K #2707667,,Marrero,LA,,US,+1 504-340-3470,,,Blue Rhino,Q65681213
236861,bluerhino,Circle K #2707666,,Marrero,LA,,US,+1 504-341-9515,,,Blue Rhino,Q65681213
173583,bluerhino,Family Dollar #07028,,Marrero,LA,,US,+1 504-349-9073,,,Blue Rhino,Q65681213
150816,bluerhino,Walgreens #5633,,Marrero,LA,,US,+1 504-348-7100,,,Blue Rhino,Q65681213
152798,bluerhino,Walgreens #5516,,Marrero,LA,,US,+1 504-340-6337,,,Blue Rhino,Q65681213
176059,bluerhino,Winn Dixie #1440 - New Orleans,,Marrero,LA,,US,+1 504-340-9898,,,Blue Rhino,Q65681213
150809,bluerhino,Walgreens #3199,,Marrero,LA,,US,+1 504-340-2211,,,Blue Rhino,Q65681213
113551,bluerhino,Lowe's #2975,,Marrero,LA,,US,+1 504-613-1830,,,Blue Rhino,Q65681213
121249,bluerhino,"SLFM, Inc. dba Budget Saver #6623",,Marrero,LA,,US,+1 504-349-9075,,,Blue Rhino,Q65681213
1534,burgerking,Burger King,,Marrero,LA,,US,+1 504-681-9354,https://www.bk.com/store-locator/store/restaurant_795,Mo-Th 07:00-20:00; Fr-Sa 07:00-21:00; Su 07:00-20:00,Burger King,Q177054
A00F,capital_one_us,BELLE PROMENADE,,MARRERO,LA,,US,,https://locations.capitalone.com/atm/LA/marrero-atm-A00F,24/7,Capital One,Q1034654
41467,capital_one_us,Belle Promenade,,Marrero,LA,,US,+1 504-533-2470,https://locations.capitalone.com/bank/LA/Marrero-Belle-Promenade-branch-41467,Mo-Fr 09:00-17:00; Sa 09:00-12:00,Capital One,Q1034654
https://stores.catofashions.com/#26560297,cato_us,Cato,,,LA,,US,+1 504-348-1138,https://stores.catofashions.com/la/marrero/1700-promenade-boulevard,Mo-Sa 10:00-20:00; Su 13:00-18:00,Cato,Q16956136
2040222,chase_us,Marrero - New branch,,Marrero,LA,,US,+1 504-347-9792,https://locator.chase.com/la/marrero/4100-lapalco-blvd,Mo-Fr 09:00-17:00; Sa 09:00-13:00,Chase,Q524629
379968,chevron,Texaco Station #379968,7101 WEST BANK EXPY,MARRERO,LA,,US,+1 504-348-1550,,,Chevron,Q319642
7020-westbank-expressway,churchs_chicken,Westbank Expressway,,Marrero,LA,,US,+1 504-341-1839,https://locations.churchs.com/la/marrero/7020-westbank-expressway,,Church's Chicken,Q1089932
41899,citi,ATM Circle K,,Marrero,LA,,US,,,,Citibank,Q857063
89461,citi,ATM Walgreens,,Marrero,LA,,US,,,,Citibank,Q857063
49600,citi,ATM CVS,,Marrero,LA,,US,,,,Citibank,Q857063
64198,citi,ATM M& S FUEL LLC,,Marrero,LA,,US,,,,Citibank,Q857063
64197,citi,ATM M& S FUEL LLC,,Marrero,LA,,US,,,,Citibank,Q857063
64196,citi,ATM M& S Fuel Llc,,Marrero,LA,,US,,,,Citibank,Q857063
64199,citi,ATM M& S Fuel Llc 2,,Marrero,LA,,US,,,,Citibank,Q857063
43116,citi,ATM Circle K,,Marrero,LA,,US,,,,Citibank,Q857063
95589,citi,ATM Winn Dixie,,Marrero,LA,,US,,,,Citibank,Q857063
66347,citi,ATM NOFFCU -MEDICAL CENTER VENDING,,Marrero,LA,,US,,,,Citibank,Q857063
60421,citi,ATM Jefferson Financial Federal Credit Union,,Marrero,LA,,US,,,,Citibank,Q857063
60422,citi,ATM Jefferson Financial Federal Credit Union,,Marrero,LA,,US,,,,Citibank,Q857063
48708,citi,ATM CVS,,Marrero,LA,,US,,,,Citibank,Q857063
37786,citi,ATM Capital One Branch - BELLE PROMENADE,,Marrero,LA,,US,,,,Citibank,Q857063
37791,citi,ATM Capital One Branch - BELLE PROMENADE,,Marrero,LA,,US,,,,Citibank,Q857063
37788,citi,ATM Capital One Branch - Belle Promenade,,Marrero,LA,,US,,,,Citibank,Q857063
37792,citi,ATM Capital One Branch - BELLE PROMENADE,,Marrero,LA,,US,,,,Citibank,Q857063
37789,citi,ATM Capital One Branch - Belle Promenade,,Marrero,LA,,US,,,,Citibank,Q857063
37787,citi,ATM Capital One Branch - BELLE PROMENADE,,Marrero,LA,,US,,,,Citibank,Q857063
37790,citi,ATM Capital One Branch - BELLE PROMENADE,,Marrero,LA,,US,,,,Citibank,Q857063
88436,citi,ATM Walgreens,,Marrero,LA,,US,,,,Citibank,Q857063
om_la_marrero_5975b-lapalco-blvd,cititrends,Citi Trends,,Marrero,LA,,US,+1 504-221-2393,https://locations.cititrends.com/la/marrero/5975b-lapalco-blvd.html,Mo 11:00-20:00; Tu 11:00-20:00; We 11:00-20:00; Th 11:00-20:00; Fr 10:00-21:00; Sa 10:00-21:00; Su 12:00-18:00,Citi Trends,Q5122438
334985575,clinical_pathology_laboratories,Marrero,,Marrero,LA,,US,,,,Clinical Pathology Laboratories,Q91911320
,credit_union_us,Jefferson Financial CU,,Marrero,LA,,US,+1 800-259-2471,,Mo-Fr 09:00-05:00,,
,credit_union_us,New Orleans Firemens FCU,,Marrero,LA,,US,+1 504-889-9090,,Mo-Fr 07:00-03:30,,
11427,cvs_us,CVS Pharmacy,,Marrero,LA,,US,+1 504-582-0323,https://www.cvs.com/store-locator/marrero-la-pharmacies/2564-barataria-blvd-marrero-la-70072/storeid=11427,Mo-Fr 09:00-20:00; Sa 09:00-18:00; Su 10:00-18:00,CVS Pharmacy,Q2078880
5409,cvs_us,CVS Pharmacy,,Marrero,LA,,US,+1 504-349-9949,https://www.cvs.com/store-locator/marrero-la-pharmacies/1950-barataria-blvd-marrero-la-70072/storeid=5409,Mo-Su 07:00-21:00,CVS Pharmacy,Q2078880
5233,dominos_pizza_us,Domino's Pizza,,Marrero,LA,,US,+1 504-349-4600,https://pizza.dominos.com/louisiana/marrero/2466-barataria-blvd,Mo-Th 10:30-24:00; Fr-Sa 10:30-01:00; Su 10:30-24:00,Domino's,Q839466
https://www.edwardjones.com/us-en/financial-advisor/allie-breaux,edwardjones,Allie Breaux,,Marrero,LA,,US,+1 504-340-8715,https://www.edwardjones.com/us-en/financial-advisor/allie-breaux,,Edward Jones,Q5343830
200319231,exxonmobil,LAPALCO FUEL MART,,MARRERO,LA,,US,+1 504-347-3077,https://www.exxon.com/en/find-station/exxon-marrero-la-lapalcofuelmart-200319231,24/7,Exxon,Q109675651
28192,family_dollar_us,FAMILY DOLLAR #8192,,Marrero,LA,,US,+1 504-493-6451,https://www.familydollar.com/locations/la/marrero/28192/,Mo-Su 08:00-22:00,Family Dollar,Q5433101
30608,family_dollar_us,FAMILY DOLLAR #10608,,Marrero,LA,,US,+1 504-224-6094,https://www.familydollar.com/locations/la/marrero/30608/,Mo-Su 08:00-22:00,Family Dollar,Q5433101
4642,firestone_auto_care,Firestone Complete Auto Care,,Marrero,LA,,US,+1 504-708-5126,https://local.firestonecompleteautocare.com/louisiana/marrero/4800-westbank-expy/,,Firestone,Q420837
2788,first_cash,Cash America Pawn,,Marrero,LA,,US,+1 504-340-9462,,,Cash America,Q5048636
4780,fresenius_kidney_care_us,Fresenius Kidney Care Westbank,,Marrero,LA,,US,+1 800-881-5101,https://www.freseniuskidneycare.com/dialysis-centers/louisiana/4780,Mo 05:30-20:30; Tu 05:30-16:00; We 05:30-20:30; Th 05:30-16:00; Fr 05:30-20:30; Sa 05:30-16:00,,
5426,fresenius_kidney_care_us,Fresenius Kidney Care Barataria,,Marrero,LA,,US,+1 800-881-5101,https://www.freseniuskidneycare.com/dialysis-centers/louisiana/5426,Mo 05:00-16:30; Tu 05:00-16:00; We 05:00-16:30; Th 05:00-16:00; Fr 05:00-16:30; Sa 05:00-16:00,,
1191,fresenius_kidney_care_us,Fresenius Kidney Care Marrero,,Marrero,LA,,US,+1 800-881-5101,https://www.freseniuskidneycare.com/dialysis-centers/louisiana/1191,Mo 05:30-19:00; Tu 05:30-13:00; We 05:30-19:00; Th 05:30-13:00; Fr 05:30-19:00; Sa 05:30-13:00,,
2917,gamestop_us,Barataria Shopping Center,,Marrero,LA,,US,+1 504-328-1764,https://www.gamestop.com/search/?store=2917,Mo-Th 12:00-20:00; Fr-Sa 10:00-21:00; Su 12:00-19:00,GameStop,Q202210
https://stores.gnc.com/#24058703,gnc,GNC Belle Promenade,,,LA,,US,+1 504-347-3585,https://stores.gnc.com/all-stores-louisiana/marrero/1700-belle-promenade-blvd,Mo-Fr 10:00-19:00; Sa 10:00-17:00; Su 11:00-16:00,GNC,Q4808595
d73add29-8cc9-ed11-810a-00505689ac90,goodwill,4800 Lapalco Blvd.,,Marrero,LA,,US,+1 504-302-7830,https://www.goodwill.org/locator/location/?store=ZDczYWRkMjktOGNjOS1lZDExLTgxMGEtMDA1MDU2ODlhYzkw&lat=MjkuODc1OTQ=&lng=LTkwLjA5MTk5,,Goodwill,Q5583655
https://www.harborfreight.com/storelocator/4908-lapalco-blvd-marrero-70072?number=3496,harborfreight,"Harbor Freight Tools Marrero, LA",,Marrero,LA,,US,+1 504-429-8191,https://www.harborfreight.com/storelocator/4908-lapalco-blvd-marrero-70072?number=3496,Mo-Sa 08:00-20:00; Su 09:00-18:00,Harbor Freight Tools,Q5654601
18239,h_r_block,H&R Block,,Marrero,LA,,US,+1 504-328-0072,https://www.hrblock.com/local-tax-offices/louisiana/marrero/oak-ridge-plaza-shopping-ctr/18239/,,H&R Block,Q5627799
la_marrero_breakfast-5025-lapalco-blvd-3429,ihop,IHOP Breakfast Restaurants Near You at 5025 Lapalco Blvd,,Marrero,LA,,US,+1 800-606-1456,https://restaurants.ihop.com/en-us/la/marrero/breakfast-5025-lapalco-blvd-3429,,IHOP,Q1185675
https://office.jacksonhewitt.com/#27576991,jackson_hewitt,Jackson Hewitt,,Marrero,LA,,US,+1 866-680-1040,https://office.jacksonhewitt.com/tax-preparation-services-locations/en/la/marrero/4810-lapalco-blvd/50911,Mo-Fr 11:00-19:00; Sa 10:00-17:00; Su 13:00-17:00,Jackson Hewitt,Q6117132
https://locations.jimmyjohns.com/la/marrero/sandwiches-2303.html,jimmy_johns,Jimmy John's,,Marrero,LA,,US,+1 504-249-5292,https://locations.jimmyjohns.com/la/marrero/sandwiches-2303.html,,Jimmy John's,Q1689380
18075,mattress_firm_us,Mattress Firm Marrero,,Marrero,LA,,US,+1 504-347-1888,https://www.mattressfirm.com/en-us/stores/la/marrero/022018/,,Mattress Firm,Q6791878
67744561,moneygram,GOIN POSTAL OF MARRERO,,MARRERO,LA,,US,+1 504-875-4080,,Mo-Su 08:00-20:00,MoneyGram,Q1944412
71492896,moneygram,WAL-MART - #911,,MARRERO,LA,,US,+1 504-341-0075,,Mo-Sa 08:00-20:00; Su 10:00-18:00,MoneyGram,Q1944412
44085764,moneygram,ACE CASH EXPRESS - #734,,MARRERO,LA,,US,+1 504-371-0445,,Mo-Fr 08:00-20:00; Sa 09:00-17:00; Su 00:00-24:00,MoneyGram,Q1944412
6906,murphy_usa_us,,,Marrero,LA,,US,+1 504-347-4054,,Mo-Su 05:00-00:00,Murphy USA,Q19604459
https://locations.oreillyauto.com/la/marrero/check-engine-light-testing-1785.html,oreilly,Your Marrero O'Reilly Auto Parts Store,,Marrero,LA,,US,+1 504-371-7691,https://locations.oreillyauto.com/la/marrero/check-engine-light-testing-1785.html,Mo-Sa 07:00-21:00; Su 07:00-20:00,O'Reilly Auto Parts,Q7071951
https://locations.oreillyauto.com/la/marrero/wiper-installation-1785.html,oreilly,Your Marrero O'Reilly Auto Parts Store,,Marrero,LA,,US,+1 504-371-7691,https://locations.oreillyauto.com/la/marrero/wiper-installation-1785.html,Mo-Sa 07:00-21:00; Su 07:00-20:00,O'Reilly Auto Parts,Q7071951
https://locations.oreillyauto.com/la/marrero/battery-testing-1785.html,oreilly,Your Marrero O'Reilly Auto Parts Store,,Marrero,LA,,US,+1 504-371-7691,https://locations.oreillyauto.com/la/marrero/battery-testing-1785.html,Mo-Sa 07:00-21:00; Su 07:00-20:00,O'Reilly Auto Parts,Q7071951
https://locations.oreillyauto.com/la/marrero/autopartes-1785.html,oreilly,Tu tienda O'Reilly Auto Parts en Marrero,,Marrero,LA,,US,+1 504-371-7691,https://locations.oreillyauto.com/la/marrero/autopartes-1785.html,Mo-Sa 07:00-21:00; Su 07:00-20:00,O'Reilly Auto Parts,Q7071951
https://locations.oreillyauto.com/la/marrero/check-engine-light-testing-1369.html,oreilly,Your Marrero O'Reilly Auto Parts Store,,Marrero,LA,,US,+1 504-341-4714,https://locations.oreillyauto.com/la/marrero/check-engine-light-testing-1369.html,Mo-Sa 07:00-22:00; Su 07:00-21:00,O'Reilly Auto Parts,Q7071951
https://locations.oreillyauto.com/la/marrero/wiper-installation-1369.html,oreilly,Your Marrero O'Reilly Auto Parts Store,,Marrero,LA,,US,+1 504-341-4714,https://locations.oreillyauto.com/la/marrero/wiper-installation-1369.html,Mo-Sa 07:00-22:00; Su 07:00-21:00,O'Reilly Auto Parts,Q7071951
https://locations.oreillyauto.com/la/marrero/battery-testing-1369.html,oreilly,Your Marrero O'Reilly Auto Parts Store,,Marrero,LA,,US,+1 504-341-4714,https://locations.oreillyauto.com/la/marrero/battery-testing-1369.html,Mo-Sa 07:00-22:00; Su 07:00-21:00,O'Reilly Auto Parts,Q7071951
https://locations.oreillyauto.com/la/marrero/autopartes-1369.html,oreilly,Tu tienda O'Reilly Auto Parts en Marrero,,Marrero,LA,,US,+1 504-341-4714,https://locations.oreillyauto.com/la/marrero/autopartes-1369.html,Mo-Sa 07:00-22:00; Su 07:00-21:00,O'Reilly Auto Parts,Q7071951
https://locations.outback.com/#15502017,outbacksteakhouse,Outback Steakhouse,,Marrero,LA,,US,+1 504-341-5544,https://locations.outback.com/louisiana/marrero/1601-barataria-boulevard,Mo-Th 11:00-22:00; Fr-Sa 11:00-23:00; Su 11:00-21:00,Outback Steakhouse,Q1064893
https://locations.papajohns.com/#10691912,papa_johns,Papa John's,,Marrero,LA,,US,+1 504-349-0155,https://locations.papajohns.com/united-states/la/70072/marrero/5009-lapalco-blvd,Mo-Su 10:00-24:00,Papa John's Pizza,Q2759586
la_marrero_1963b-barataira-blvd,pizza_hut_us,1963B Barataira Blvd.,,Marrero,LA,,US,+1 504-347-2345,https://locations.pizzahut.com/la/marrero/1963b-barataira-blvd,,Pizza Hut,Q191615
la0155,pjs_coffee_us,PJ's Coffee of New Orleans,,Marrero,LA,,US,+1 504-354-1301,https://locations.pjscoffee.com/la/marrero/coffee-shop-la0155.html,Mo-Su 05:00-20:00,PJ's Coffee of New Orleans,Q7119454
la0094,pjs_coffee_us,PJ's Coffee of New Orleans,,Marrero,LA,,US,+1 504-349-1156,https://locations.pjscoffee.com/la/marrero/coffee-shop-la0094.html,Mo-Fr 06:30-21:00,PJ's Coffee of New Orleans,Q7119454
restaurant_81666,popeyes_us_fr,Popeyes,"1009 Barataria Boulevard Marrero, Louisiana 70072 - USA",Marrero,LA,,US,+1 504-340-1003,https://www.popeyes.com/store-locator/store/restaurant_81666,Mo-Su 10:00-20:00,Popeyes,Q1330910
restaurant_81714,popeyes_us_fr,Popeyes,"7100 Westbank Expy Marrero, Louisiana 70072 - USA",Marrero,LA,,US,+1 504-347-3206,https://www.popeyes.com/store-locator/store/restaurant_81714,Mo-Su 10:00-23:00,Popeyes,Q1330910
restaurant_82039,popeyes_us_fr,Popeyes,"5950 Lapalco Blvd Marrero, Louisiana 70072 - USA",Marrero,LA,,US,+1 504-348-2636,https://www.popeyes.com/store-locator/store/restaurant_82039,Mo-Su 10:00-20:00,Popeyes,Q1330910
the-paint-and-decorating-center-28912,ppgpaints,THE PAINT & DECORATING CENTER,,"Marrero, ",LA,,US,+1 504-348-8262,https://www.ppgpaints.com/store-locator/us/louisiana/marrero-paint-stores/the-paint-and-decorating-center-28912,,PPG Paints,Q83891559
home-depot-0368-13961,ppgpaints,HOME DEPOT 0368,,"Marrero, ",LA,,US,+1 504-341-3682,https://www.ppgpaints.com/store-locator/us/louisiana/marrero-paint-stores/home-depot-0368-13961,,PPG Paints,Q83891559
6170,quiznos,Barataria,,Marrero,LA,,US,+1 504-340-0887,https://order.quiznos.com/menu/barataria-2?handoff=delivery,Mo-Sa 10:00-21:00; Su 11:00-20:00,Quizno's,Q1936229
1532,rentacenter,Rent-A-Center,,Marrero,LA,,US,+1 504-340-9753,https://locations.rentacenter.com/louisiana/marrero/4899-westbank-expy/,Mo-Sa 10:00-18:00,Rent-A-Center,Q7313497
https://restaurants.subway.com/#14913729,subway,Subway,,Marrero Jefferson,LA,,US,+1 504-340-1195,https://restaurants.subway.com/united-states/la/marrero/4901-westbank-expy,Mo-Su 08:00-21:00,Subway,Q244457
https://restaurants.subway.com/#14900679,subway,Subway Barataria Bazaar Shopping Ctr,,Marrero Jefferson,LA,,US,+1 504-348-2325,https://restaurants.subway.com/united-states/la/marrero/5015-lapalco-blvd,Mo-Su 08:00-21:00,Subway,Q244457
https://restaurants.subway.com/#14904131,subway,Subway Wal-Mart #911,,Marrero Jefferson,LA,,US,+1 504-341-0833,https://restaurants.subway.com/united-states/la/marrero/4810-la-palco-blvd,Mo-Th 09:00-20:00; Fr 09:00-21:00; Sa-Su 09:00-20:00,Subway,Q244457
https://restaurants.subway.com/#14899269,subway,Subway,,Marrero Jefferson,LA,,US,+1 504-328-7757,https://restaurants.subway.com/united-states/la/marrero/2420-barataria-blvd,Mo-Fr 07:30-21:00; Sa 07:00-21:00; Su 09:00-20:00,Subway,Q244457
8477,supercuts,Oak Ridge Plaza,1804 Barataria Blvd Ste C,Marrero,LA,,US,+1 504-347-0311,https://www.supercuts.com/checkin/8477,Mo-Sa 09:00-18:00; Su 10:00-15:00,Supercuts,Q7643239
https://locations.tacobell.com/#6143167,taco_bell,Taco Bell,,Marrero,LA,,US,+1 504-341-5367,https://locations.tacobell.com/la/marrero/5141-lapalco-blvd.html,Mo-Th 09:00-04:00; Fr-Sa 09:00-05:00; Su 09:00-04:00,Taco Bell,Q752941
9265,tmobile_us,Barataria Blvd & Lapalco Blvd,,Marrero,LA,,US,+1 504-349-2630,https://www.t-mobile.com/store-locator/la/marrero/barataria-blvd-lapalco-blvd,,T-Mobile,Q3511885
1371947,usps,MARRERO,,MARRERO,LA,,US,+1 504-341-5786,,Mo-Fr 08:30-16:30; Sa 09:00-12:00,United States Postal Service,Q668687
7007200001,usps_collection_boxes,USPS COLLECTION BOX - PO LOBBY,5351 LAPALCO BLVD,MARRERO,LA,,US,,,,United States Postal Service,Q668687
7007200002,usps_collection_boxes,USPS COLLECTION BOX - PO LOBBY,5351 LAPALCO BLVD,MARRERO,LA,,US,,,,United States Postal Service,Q668687
7007200003,usps_collection_boxes,USPS COLLECTION BOX - PO LOBBY,5351 LAPALCO BLVD,MARRERO,LA,,US,,,,United States Postal Service,Q668687
7007200005,usps_collection_boxes,USPS COLLECTION BOX - BLUE BOX,5351 LAPALCO BLVD,MARRERO,LA,,US,,,,United States Postal Service,Q668687
7007200025,usps_collection_boxes,USPS COLLECTION BOX - PO LOBBY,5351 LAPALCO BLVD,MARRERO,LA,,US,,,,United States Postal Service,Q668687
7007200026,usps_collection_boxes,USPS COLLECTION BOX - BLUE BOX,5351 LAPALCO BLVD,MARRERO,LA,,US,,,,United States Postal Service,Q668687
7007200027,usps_collection_boxes,USPS COLLECTION BOX - BLUE BOX,5351 LAPALCO BLVD,MARRERO,LA,,US,,,,United States Postal Service,Q668687
7007200028,usps_collection_boxes,USPS COLLECTION BOX - BLUE BOX,5351 LAPALCO BLVD,MARRERO,LA,,US,,,,United States Postal Service,Q668687
7007200035,usps_collection_boxes,USPS COLLECTION BOX - PO LOBBY,5351 LAPALCO BLVD,MARRERO,LA,,US,,,,United States Postal Service,Q668687
7007200030,usps_collection_boxes,USPS COLLECTION BOX - BLUE BOX,4606 10TH ST,MARRERO,LA,,US,,,,United States Postal Service,Q668687
7007200022,usps_collection_boxes,USPS COLLECTION BOX - BLUE BOX,4535 WESTBANK EXPY,MARRERO,LA,,US,,,,United States Postal Service,Q668687
7007200031,usps_collection_boxes,USPS COLLECTION BOX - BLUE BOX,5001 WESTBANK EXPY,MARRERO,LA,,US,,,,United States Postal Service,Q668687
7007200029,usps_collection_boxes,USPS COLLECTION BOX - BLUE BOX,4701 WESTBANK EXPY,MARRERO,LA,,US,,,,United States Postal Service,Q668687
A00000235565,verizon_us,Cellular Sales Marrero,,Marrero,LA,,US,+1 504-644-4306,https://www.verizon.com/stores/details/louisiana/marrero/cellular-sales-marrero-1384022/,Mo-Sa 09:00-20:00; Su 12:00-18:00,Verizon,Q919641
,visa,,,GRETNA,LA,,US,,,,,
,visa,,,MARRERO,LA,,US,,,,,
,visa,,,MARRERO,LA,,US,,,,,
,visa,,,MARRERO,LA,,US,,,,,
,visa,,,MARRERO,LA,,US,,,,,
,visa,,,MARRERO,LA,,US,,,,,
,visa,,,MARRERO,LA,,US,,,,,
,visa,,,MARRERO,LA,,US,,,,,
,visa,,,MARRERO,LA,,US,,,,,
,visa,,,MARRERO,LA,,US,,,,,
,visa,,,MARRERO,LA,,US,,,,,
,visa,,,MARRERO,LA,,US,,,,,
,visa,,,MARRERO,LA,,US,,,,,
,visa,,,MARRERO,LA,,US,,,,,
,visa,,,MARRERO,LA,,US,,,,,
,visa,,,MARRERO,LA,,US,,,,,
,visa,,,MARRERO,LA,,US,,,,,
,visa,,,MARRERO,LA,,US,,,,,
,visa,,,MARRERO,LA,,US,,,,,
,visa,,,MARRERO,LA,,US,,,,,
,visa,,,MARRERO,LA,,US,,,,,
,visa,,,MARRERO,LA,,US,,,,,
,visa,,,MARRERO,LA,,US,,,,,
,visa,,,MARRERO,LA,,US,,,,,
,visa,,,MARRERO,LA,,US,,,,,
,visa,,,MARRERO,LA,,US,,,,,
,visa,,,MARRERO,LA,,US,,,,,
,visa,,,MARRERO,LA,,US,,,,,
,visa,,,MARRERO,LA,,US,,,,,
,visa,,,MARRERO,LA,,US,,,,,
,visa,,,MARRERO,LA,,US,,,,,
,visa,,,MARRERO,LA,,US,,,,,
,visa,,,MARRERO,LA,,US,,,,,
,visa,,,MARRERO,LA,,US,,,,,
,visa,,,MARRERO,LA,,US,,,,,
,visa,,,MARRERO,LA,,US,,,,,
,visa,,,MARRERO,LA,,US,,,,,
,visa,,,MARRERO,LA,,US,,,,,
,visa,,,MARRERO,LA,,US,,,,,
,visa,,,MARRERO,LA,,US,,,,,
,visa,,,MARRERO,LA,,US,,,,,
,visa,,,MARRERO,LA,,US,,,,,
,visa,,,MARRERO,LA,,US,,,,,
,visa,,,MARRERO,LA,,US,,,,,
,visa,,,MARRERO,LA,,US,,,,,
,visa,,,MARRERO,LA,,US,,,,,
,visa,,,MARRERO,LA,,US,,,,,
,visa,,,MARRERO,LA,,US,,,,,
,visa,,,MARRERO,LA,,US,,,,,
,visa,,,MARRERO,LA,,US,,,,,
,visa,,,MARRERO,LA,,US,,,,,
,visa,,,MARRERO,LA,,US,,,,,
,visa,,,MARRERO,LA,,US,,,,,
,visa,,,MARRERO,LA,,US,,,,,
,visa,,,MARRERO,LA,,US,,,,,
,visa,,,MARRERO,LA,,US,,,,,
,visa,,,MARRERO,LA,,US,,,,,
,visa,,,MARRERO,LA,,US,,,,,
,visa,,,MARRERO,LA,,US,,,,,
,visa,,,MARRERO,LA,,US,,,,,
,visa,,,MARRERO,LA,,US,,,,,
,visa,,,MARRERO,LA,,US,,,,,
,visa,,,MARRERO,LA,,US,,,,,
,visa,,,MARRERO,LA,,US,,,,,
,visa,,,MARRERO,LA,,US,,,,,
,visa,,,MARRERO,LA,,US,,,,,
,visa,,,MARRERO,LA,,US,,,,,
,visa,,,MARRERO,LA,,US,,,,,
,visa,,,MARRERO,LA,,US,,,,,
,visa,,,MARRERO,LA,,US,,,,,
,visa,,,MARRERO,LA,,US,,,,,
,visa,,,MARRERO,LA,,US,,,,,
,visa,,,MARRERO,LA,,US,,,,,
,visa,,,MARRERO,LA,,US,,,,,
,visa,,,MARRERO,LA,,US,,,,,
,visa,,,NEW ORLEANS,LA,,US,,,,,
,visa,,,NEW ORLEANS,LA,,US,,,,,
,visa,,,MARRERO,LA,,US,,,,,
,visa,,,MARRERO,LA,,US,,,,,
,visa,,,MARRERO,LA,,US,,,,,
,visa,,,MARRERO,LA,,US,,,,,
,visa,,,MARRERO,LA,,US,,,,,
,visa,,,MARRERO,LA,,US,,,,,
,visa,,,MARRERO,LA,,US,,,,,
,visa,,,MARRERO,LA,,US,,,,,
,visa,,,MARRERO,LA,,US,,,,,
,visa,,,MARRERO,LA,,US,,,,,
,visa,,,MARRERO,LA,,US,,,,,
,visa,,,MARRERO,LA,,US,,,,,
,visa,,,MARRERO,LA,,US,,,,,
,visa,,,MARRERO,LA,,US,,,,,
,visa,,,MARRERO,LA,,US,,,,,
,visa,,,MARRERO,LA,,US,,,,,
,visa,,,MARRERO,LA,,US,,,,,
,visa,,,MARRERO,LA,,US,,,,,
,visa,,,MARRERO,LA,,US,,,,,
,visa,,,MARRERO,LA,,US,,,,,
,visa,,,MARRERO,LA,,US,,,,,
,visa,,,MARREO,LA,,US,,,,,
,visa,,,MARRERO,LA,,US,,,,,
,visa,,,MARRERO,LA,,US,,,,,
,visa,,,MARRERO,LA,,US,,,,,
https://www.walgreens.com/locator/walgreens-1891+barataria+blvd-marrero-la-70072/id=3199,walgreens,Walgreens,,Marrero,LA,,US,+1 504-340-2211,https://www.walgreens.com/locator/walgreens-1891+barataria+blvd-marrero-la-70072/id=3199,24/7,Walgreens,Q1591889
https://www.walgreens.com/locator/walgreens-1111+medical+center+blvd-marrero-la-70072/id=15198,walgreens,Walgreens,,Marrero,LA,,US,+1 504-349-6185,https://www.walgreens.com/locator/walgreens-1111+medical+center+blvd-marrero-la-70072/id=15198,Mo-Fr 09:00-18:00; Sa-Su 00:00-24:00,Walgreens,Q1591889
https://www.walgreens.com/locator/walgreens-4600+westbank+expy-marrero-la-70072/id=5516,walgreens,Walgreens,,Marrero,LA,,US,+1 504-340-6337,https://www.walgreens.com/locator/walgreens-4600+westbank+expy-marrero-la-70072/id=5516,24/7,Walgreens,Q1591889
https://www.walgreens.com/locator/walgreens-2570+barataria+blvd-marrero-la-70072/id=5633,walgreens,Walgreens,,Marrero,LA,,US,+1 504-341-0005,https://www.walgreens.com/locator/walgreens-2570+barataria+blvd-marrero-la-70072/id=5633,Mo-Su 07:00-23:00,Walgreens,Q1591889
https://locations.wendys.com/#9253896,wendys,"Wendy's 211 Westwood in Marrero, LA",,Marrero,LA,,US,+1 504-323-8036,https://locations.wendys.com/united-states/la/marrero/7021-w-bank-expressway,"Mo-Su 06:00-10:30,07:00-22:00",Wendy's,Q550258
https://locations.wendys.com/#9253895,wendys,"Wendy's 207 Lapalco in Marrero, LA",,Marrero,LA,,US,+1 504-356-8669,https://locations.wendys.com/united-states/la/marrero/4959-lapalco-blvd,"Mo-Su 06:00-10:30,07:00-22:00",Wendy's,Q550258
c7d702222855ec235992cf33cde69ec5,western_union,GMG AVENUE A LLC,,Marrero,LA,,US,+1 504-265-7500,https://location.westernunion.com/us/la/marrero/c7d702222855ec235992cf33cde69ec5,Mo-Su 08:00-20:00,Western Union,Q861042
7030b098ad1b5c25f1cd7fae9311170b,western_union,LABORIES 3,,Marrero,LA,,US,+1 504-349-9075,https://location.westernunion.com/us/la/marrero/7030b098ad1b5c25f1cd7fae9311170b,Mo-Su 07:00-21:00,Western Union,Q861042
fdb2a8292c83d6c89ad47015dfa68d44,western_union,ADVANCE AMERICA #00292,,Marrero,LA,,US,+1 504-340-0136,https://location.westernunion.com/us/la/marrero/fdb2a8292c83d6c89ad47015dfa68d44,Mo-Th 10:00-18:00; Fr 09:00-18:00; Sa 09:00-13:00,Western Union,Q861042
6f0c11bc9c654c6c8764522f52f3e6db,western_union,SUPERMARKET EXITO LATINO,,Marrero,LA,,US,+1 504-518-0508,https://location.westernunion.com/us/la/marrero/6f0c11bc9c654c6c8764522f52f3e6db,Mo-Su 07:00-21:00,Western Union,Q861042
43d5ac7d6a8de802cad0ae03febb0786,western_union,WALMART #000911,,Marrero,LA,,US,+1 504-341-0075,https://location.westernunion.com/us/la/marrero/43d5ac7d6a8de802cad0ae03febb0786,Mo-Sa 08:00-20:00; Su 10:00-18:00,Western Union,Q861042
1440,winndixie,MARRERO SHOPPING CENTER,4627 WESTBANK EXPRESSWAY,MARRERO,LA,,US,+1 504-340-9898,https://www.winndixie.com/storedetails/marrero/la?search=1440,,Winn Dixie,Q1264366
