Ref,Spider,Name,Address,City,State,Zipcode,Country,Phone,Website,Hours,Brand,WikiData
https://locations.arbys.com/md/belcamp/1323-policy-dr.html,arbys_us,"Arby's Fast-Food Drive Through Near You in Belcamp, MD",,Belcamp,MD,,US,+1 410-272-1892,https://locations.arbys.com/md/belcamp/1323-policy-dr.html,Mo-Su 10:00-22:30,Arby's,Q630866
https://locations.atipt.com/belcamp-md,ati_physical_therapy,ATI Physical Therapy Belcamp 484,,Belcamp,MD,,US,+1 443-760-3971,https://locations.atipt.com/belcamp-md,,ATI Physical Therapy,Q50039703
189531,bluerhino,Walgreens #18096,,Belcamp,MD,,US,+1 410-272-8741,,,Blue Rhino,Q65681213
113778,bluerhino,ShopRite #551 - Riverside Shopping Center,,Bel Camp,MD,,US,+1 410-272-3900,,,Blue Rhino,Q65681213
10769,burgerking,Burger King,,Belcamp ,MD,,US,+1 410-273-2077,https://www.bk.com/store-locator/store/restaurant_6113,Mo-Fr 05:30-22:00; Sa 06:00-22:00; Su 07:00-22:00,Burger King,Q177054
200330470,exxonmobil,"ALL IN ONE CONVENIENCE STORES, LLC",,BELCAMP,MD,,US,+1 410-272-4030,https://www.exxon.com/en/find-station/exxon-belcamp-md-allinoneconveniencestoresllc-200330470,Mo-Su 07:00-22:00,Exxon,Q109675651
19547,h_r_block,H&R Block,,Belcamp,MD,,US,+1 410-272-3182,https://www.hrblock.com/local-tax-offices/maryland/belcamp/riverside-shopping-center/19547/,,H&R Block,Q5627799
BWIAT,marriott,TownePlace Suites Edgewood Aberdeen,,Belcamp,MD,,US,+1 443-558-4000,https://www.marriott.com/BWIAT,,Townplace Suites by Marriott,Q7830092
548410,penske,Penske Aberdeen,,BELCAMP,MD,,US,+1 410-272-5461,https://www.pensketruckrental.com/locations/us/maryland/belcamp/548410/,,Penske,Q81234570
41146,seven_eleven_ca_us,7-Eleven,,Belcamp,MD,,US,+1 410-652-9432,https://www.7-eleven.com/locations/md/belcamp/1343-belcamp-rd-41146,,7-Eleven,Q259340
551,shoprite,ShopRite of Riverside,,Belcamp,MD,,US,+1 410-272-3900,https://www.shoprite.com/sm/planning/rsid/551,Mo-Su 07:00-23:00,ShopRite,Q7501097
https://restaurants.subway.com/#14903427,subway,Subway Riverside Shopping Center,,Belcamp Harford,MD,,US,+1 410-306-6625,https://restaurants.subway.com/united-states/md/belcamp/1321-riverside-parkway,Mo-Su 08:00-21:00,Subway,Q244457
0915021002,sunoco_us,Sunoco,,BELCAMP,MD,,US,+1 410-272-0085,,24/7,Sunoco,Q1423218
1354452,usps,BELCAMP,,BELCAMP,MD,,US,+1 410-272-3525,,"Mo-Fr 08:30-12:45,14:00-17:00; Sa 09:00-12:00",United States Postal Service,Q668687
2101700001,usps_collection_boxes,USPS COLLECTION BOX - BLUE BOX,4405 PULASKI HWY,BELCAMP,MD,,US,,,,United States Postal Service,Q668687
2101700012,usps_collection_boxes,USPS COLLECTION BOX - PO LOBBY,4405 PULASKI HWY,BELCAMP,MD,,US,,,,United States Postal Service,Q668687
2101700006,usps_collection_boxes,USPS COLLECTION BOX - PO LOBBY,"4405 PULASKI HWY, BAY A",BELCAMP,MD,,US,,,,United States Postal Service,Q668687
2101700007,usps_collection_boxes,USPS COLLECTION BOX - PO LOBBY,"4405 PULASKI HWY, BAY A",BELCAMP,MD,,US,,,,United States Postal Service,Q668687
2101700002,usps_collection_boxes,USPS COLLECTION BOX - BLUE BOX,5 CHURCH CREEK RD,BELCAMP,MD,,US,,,,United States Postal Service,Q668687
2101700004,usps_collection_boxes,USPS COLLECTION BOX - BLUE BOX,4600 BANEBERRY DR,BELCAMP,MD,,US,,,,United States Postal Service,Q668687
2101700003,usps_collection_boxes,USPS COLLECTION BOX - BLUE BOX,1321E RIVERSIDE PKWY,BELCAMP,MD,,US,,,,United States Postal Service,Q668687
,visa,,,BELCAMP,MD,,US,,,,,
,visa,,,BELLCAMP,MD,,US,,,,,
,visa,,,BELCAMP,MD,,US,,,,,
,visa,,,BELCAMP,MD,,US,,,,,
,visa,,,BELCAMP,MD,,US,,,,,
,visa,,,BELCAMP,MD,,US,,,,,
,visa,,,BELCAMP,MD,,US,,,,,
,visa,,,BELCAMP,MD,,US,,,,,
,visa,,,BEL CAMP,MD,,US,,,,,
1451,waffle_house_us,Waffle House #1451,,BELCAMP,MD,,US,+1 410-272-5202,https://locations.wafflehouse.com/belcamp-md-1451,24/7,Waffle House,Q1701206
https://www.walgreens.com/locator/walgreens-1321+riverside+pkwy-belcamp-md-21017/id=18096,walgreens,Walgreens,,Belcamp,MD,,US,+1 410-272-8741,https://www.walgreens.com/locator/walgreens-1321+riverside+pkwy-belcamp-md-21017/id=18096,Mo-Su 09:00-21:00,Walgreens,Q1591889
