Ref,Spider,Name,Address,City,State,Zipcode,Country,Phone,Website,Hours,Brand,WikiData
00332_1,bmw_group,Bobrink GmbH,,Bremerhaven,,,DE,+49 471 982800,https://www.bmw-bobrink.de,,BMW,Q26678
28617300,bp,Jean-Paul Binek,,Bremerhaven,,,DE,+49 471 85150,http://tankstelle.aral.de/tankstelle/28617300,24/7,BP,Q152057
https://www.biomarkt.de/bremerhaven-langener-landstrasse-28,denns_de,ALECO Bremerhaven,,Bremerhaven,,,DE,+49 471 48388961,https://www.biomarkt.de/bremerhaven-langener-landstrasse-28/marktseite,,Denns BioMarkt,Q48883773
33989,dominos_pizza_de,Domino's Pizza Bremerhaven Nord,,BREMERHAVEN,,,DE,,https://www.dominos.de/filiale/de-bremerhavennord-33989,,Domino's,Q839466
53.5801018.595916,dpd_de,Sonyas Nähstube,,Bremerhaven,,,DE,,,,DPD,Q541030
2760907246,gls_de,Sonyas Nähstube,,Bremerhaven,,,DE,+49 471 80999410,,Mo-Fr 09:00-18:00; Sa 09:30-13:30,General Logistics Systems,Q46495823
DE4113,kaufland,Kaufland Bremerhaven-Lehe,,Bremerhaven,,,DE,+49 471 8094500,https://filiale.kaufland.de/service/filiale/frankfurt-oder-spitzkrug-multi-center-bremerhaven-lehe-4113.html,Mo-Sa 07:00-22:00,Kaufland,Q685967
5990,kik,KiK,,Bremerhaven,,,DE,+49 471 98189172,,Mo-Fr 09:00-19:00; Sa 09:00-18:00,KiK,Q883965
5109,lidl_de,,,Bremerhaven,,,DE,,,Mo-Sa 07:00-22:00,Lidl,Q151954
74810417,moneygram,AFRICA & ASIA SUPERMARKT - BREMERHAVEN,,BREMERHAVEN,,,DE,+49 471 41887576,,Mo-Sa 10:00-20:00; Su 00:00-24:00,MoneyGram,Q1944412
3885,mueller,Müller,,Bremerhaven,,,DE,+49 471 95268396,https://www.mueller.de/meine-filiale/bremerhaven/pferdebade-6/,,Müller,Q1958759
https://www.rossmann.de/de/filialen/bremen/bremerhaven/twischlehe-25.html,rossmann_de,Rossmann Drogerie-Markt Twischlehe 25,,Bremerhaven,,,DE,+49 471 94812568,https://www.rossmann.de/de/filialen/bremen/bremerhaven/twischlehe-25.html,Mo-Sa 08:00-20:00,Rossmann,Q316004
HB006,rsg_group,McFIT Bremerhaven Lehe,,Bremerhaven,,,DE,+49 471 48388948,https://www.mcfit.com/de/studio/bremerhaven-lehe/,24/7,McFit,Q871302
60376,sparkasse_de,Weser-Elbe Sparkasse Geldautomat Flötenkiel,,Bremerhaven,,,DE,+49 471 48000,https://www.sparkasse.de/standorte/geldautomaten/weser-elbe-sparkasse-geldautomat-floetenkiel-60376,Mo-Su 05:00-23:00,Sparkasse,Q13601825
40687,sparkasse_de,Weser-Elbe Sparkasse SB-Standort Flötenkiel,,Bremerhaven,,,DE,+49 471 48000,https://www.sparkasse.de/standorte/filialen/weser-elbe-sparkasse-sb-standort-floetenkiel-40687,Mo-Su 05:00-23:00,Sparkasse,Q13601825
EX_BP_831,totalenergies,"ARAL TANKSTELLE BREMERHAVEN, S",,Bremerhaven,,,DE,,https://store.totalenergies.fr/en_EN/EX_BP_831,,Aral,Q565734
,visa,,,BREMERHAVEN,,,DE,,,,,
,visa,,,BREMERHAVEN,,,DE,,,,,
https://www.vr.de/standorte/B/Bn-Bz/volksbank-im-elbe-weser-dreieck-eg-13503.html,vr_bank,Volksbank im Elbe-Weser-Dreieck eG,,Bremerhaven-Speckenbüttel,,,DE,+49 4747 94980,https://www.volksbankeg.de,"Mo-Tu 09:00-12:00,14:00-16:00; We 09:00-12:00; Th 09:00-12:00,14:00-18:00; Fr 09:00-13:30",,
