Ref,Spider,Name,Address,City,State,Zipcode,Country,Phone,Website,Hours,Brand,WikiData
ATM-1878,citizens_us,,,Guilderland,NY,,US,,,,Citizens,Q5122694
,credit_union_us,SEFCU  a division of BroadviewU,,Altamont,NY,,US,+1 518-861-6176,,Mo-Fr 08:30-05:00,,
520062,cumberland_farms_us,Cumberland Farms,,GUILDERLAND,NY,,US,+1 518-464-2677,https://www.cumberlandfarms.com/find-us/generic-store-page/?id=001707,,Cumberland Farms,Q1143685
362990,dunkin_us,Dunkin',,Altamont,NY,,US,+1 518-595-4599,https://locations.dunkindonuts.com/en/ny/altamont/6495-new-york-158/362990,Mo-Su 05:00-19:00,Dunkin',Q847743
520062,eg_america_us,Cumberland Farms,,GUILDERLAND,NY,,US,+1 518-464-2677,https://www.cumberlandfarms.com/find-us/generic-store-page/?id=001707,,Cumberland Farms,Q1143685
200328890,exxonmobil,PHILIPS 5,,ALTAMONT,NY,,US,+1 518-281-2505,https://www.exxon.com/en/find-station/mobil-altamont-ny-philips5-200328890,Mo-Su 05:30-22:00,Mobil,Q109676002
https://stores.hannaford.com/#8905470,hannaford,Hannaford - Guilderland 5239 Western Trnpike - Altamont,,Albany County,NY,,US,+1 518-355-5814,https://stores.hannaford.com/ny/altamont/8393,Mo-Su 07:00-23:00,Hannaford,Q5648760
159510,marathon_petroleum_us,Brothers Convenient Mart,,Altamont,NY,,US,+1 518-355-7177,,,Marathon,Q458363
827,mightyflame,BROTHERS CORNER MART,,ALTAMONT,NY,,US,+1 518-355-7177,,,Mighty Flame,
195,mightyflame,STEWARTS SHOPS #167,,ALTAMONT,NY,,US,+1 518-456-9726,,,Mighty Flame,
214,mightyflame,STEWART'S SHOP #203,,ALTAMONT,NY,,US,+1 518-861-5708,,,Mighty Flame,
167,stewartsshops,Stewart's Shops,,Altamont,NY,,US,+1 518-456-9726,https://locations.stewartsshops.com/ll/US/NY/Altamont/2446-Western-Avenue,Mo-Su 04:30-00:00,Stewart's Shops,Q7615690
203,stewartsshops,Stewart's Shops,,Altamont,NY,,US,+1 518-861-5708,https://locations.stewartsshops.com/ll/US/NY/Altamont/1001-Altamont-Boulevard,Mo-Su 04:30-00:00,Stewart's Shops,Q7615690
250,stewartsshops,Stewart's Shops,,Altamont,NY,,US,+1 518-895-8845,https://locations.stewartsshops.com/ll/US/NY/Altamont/5020-Western-Tpke,Mo-Su 04:00-23:00,Stewart's Shops,Q7615690
https://restaurants.subway.com/#14900471,subway,Subway,,Altamont Albany,NY,,US,+1 518-355-2784,https://restaurants.subway.com/united-states/ny/altamont/2568-western-ave,Mo-Sa 09:30-20:30; Su 09:30-19:00,Subway,Q244457
0436127500,sunoco_us,Sunoco,,ALTAMONT,NY,,US,+1 518-861-5106,,Mo-Su 06:00-23:00,Sunoco,Q1423218
1352844,usps,ALTAMONT,,ALTAMONT,NY,,US,+1 518-861-6953,,"Mo-Fr 08:00-12:30,14:00-17:00; Sa 08:00-12:00",United States Postal Service,Q668687
1200900008,usps_collection_boxes,USPS COLLECTION BOX - PO LOBBY,108 PARK ST,ALTAMONT,NY,,US,,,,United States Postal Service,Q668687
1200900001,usps_collection_boxes,USPS COLLECTION BOX - BLUE BOX,108 PARK ST,ALTAMONT,NY,,US,,,,United States Postal Service,Q668687
1200900005,usps_collection_boxes,USPS COLLECTION BOX - PO LOBBY,108 PARK ST,ALTAMONT,NY,,US,,,,United States Postal Service,Q668687
1200900007,usps_collection_boxes,USPS COLLECTION BOX - BLUE BOX,15 VAN EVERA DR,ALTAMONT,NY,,US,,,,United States Postal Service,Q668687
1200900003,usps_collection_boxes,USPS COLLECTION BOX - BLUE BOX,2568 WESTERN AVE,ALTAMONT,NY,,US,,,,United States Postal Service,Q668687
1200900006,usps_collection_boxes,USPS COLLECTION BOX - BLUE BOX,5239 WESTERN TPKE,ALTAMONT,NY,,US,,,,United States Postal Service,Q668687
guilderland_oil-change-ae6216,valvoline_instant_oil_change,Valvoline,2448 Western Avenue ,Guilderland,NY,,US,+1 518-452-8457,https://store.vioc.com/ny/guilderland/oil-change-ae6216.html,,Valvoline Instant Oil Change,Q7912852
,visa,,,ALTAMONT,NY,,US,,,,,
,visa,,,GUILDERLAND,NY,,US,,,,,
,visa,,,GUILDERLAND,NY,,US,,,,,
,visa,,,GUILDERLAND,NY,,US,,,,,
,visa,,,VOORHEESVILLE,NY,,US,,,,,
,visa,,,ALTAMONT,NY,,US,,,,,
,visa,,,ALTAMONT,NY,,US,,,,,
,visa,,,ALTAMONT,NY,,US,,,,,
,visa,,,ALTAMONT,NY,,US,,,,,
,visa,,,ALTAMONT,NY,,US,,,,,
,visa,,,ALTAMONT,NY,,US,,,,,
,visa,,,ALTAMONT,NY,,US,,,,,
,visa,,,ALTAMONT,NY,,US,,,,,
,visa,,,ALTAMONT,NY,,US,,,,,
