Ref,Spider,Name,Address,City,State,Zipcode,Country,Phone,Website,Hours,Brand,WikiData
6772,aaa,Hulverson Insurance Agency LLC,,Northville,MI,,US,+1 248-349-2110,,,American Automobile Association,Q463436
https://www.benihana.com/locations/farmington-hills-mi-fh/,benihana,"FARMINGTON HILLS, MI",, Northville,MI,,US,+1 248-348-7900,https://www.benihana.com/locations/farmington-hills-mi-fh/,,Benihana,Q4887996
121556,bp,BP,,Northville,MI,,US,+1 248-348-0077,,,BP,Q152057
121032,bp,BP,,Northville,MI,,US,+1 248-349-0700,,,BP,Q152057
2038691,chase_us,West Seven Mile Northville - New branch,,Northville,MI,,US,+1 248-349-7100,https://locator.chase.com/mi/northville/42901-w-seven-mile-rd,Mo-Fr 09:00-17:00; Sa 09:00-14:00,Chase,Q524629
2038692,chase_us,West Eight Mile Haggerty - New branch,,Northville,MI,,US,+1 248-349-7300,https://locator.chase.com/mi/northville/39820-w-eight-mile-rd,Mo-Fr 09:00-17:00; Sa 09:00-14:00,Chase,Q524629
79482,citi,ATM SPEEDWAY #2368,,Ypsilanti,MI,,US,,,,Citibank,Q857063
77463,citi,ATM Speedway,,Ypsilanti,MI,,US,,,,Citibank,Q857063
61389,citi,ATM Kroger,,Northville,MI,,US,,,,Citibank,Q857063
47751,citi,ATM CVS,,Northville,MI,,US,,,,Citibank,Q857063
51139,citi,ATM CVS,,Northville Township,MI,,US,,,,Citibank,Q857063
50751,citi,ATM CVS,,Northville,MI,,US,,,,Citibank,Q857063
48332,citi,ATM CVS,,Northville Township,MI,,US,,,,Citibank,Q857063
ATM-2470,citizens_us,,,Northville,MI,,US,,,,Citizens,Q5122694
ATM-2361,citizens_us,,,Northville,MI,,US,,,,Citizens,Q5122694
8262,cvs_us,CVS Pharmacy,,Northville,MI,,US,+1 248-735-6081,https://www.cvs.com/store-locator/northville-mi-pharmacies/39350-nine-mile-rd-northville-mi-48167/storeid=8262,24/7,CVS Pharmacy,Q2078880
8009,cvs_us,CVS Pharmacy,,Northville,MI,,US,+1 248-348-2010,https://www.cvs.com/store-locator/northville-mi-pharmacies/133-east-dunlap-northville-mi-48167/storeid=8009,Mo-Fr 07:00-23:00; Sa-Su 08:00-22:00,CVS Pharmacy,Q2078880
https://www.edwardjones.com/us-en/financial-advisor/dan-delano,edwardjones,Dan DeLano,,Northville,MI,,US,+1 248-348-9815,https://www.edwardjones.com/us-en/financial-advisor/dan-delano,Mo-Fr 08:00-16:00,Edward Jones,Q5343830
200314165,exxonmobil,MICHIGAN FUELS MOBIL # 6,,NORTHVILLE,MI,,US,+1 248-349-2115,https://www.exxon.com/en/find-station/mobil-northville-mi-michiganfuelsmobil6-200314165,Mo-Su 05:30-23:00,Mobil,Q109676002
200314164,exxonmobil,MICHIGAN FUELS MOBIL # 5,,NORTHVILLE,MI,,US,+1 734-420-0088,https://www.exxon.com/en/find-station/mobil-northville-mi-michiganfuelsmobil5-200314164,Mo-Su 06:00-11:00,Mobil,Q109676002
200309351,exxonmobil,8 MILE & TAFT MOBIL,,NORTHVILLE,MI,,US,+1 248-349-5222,https://www.exxon.com/en/find-station/mobil-northville-mi-8miletaftmobil-200309351,Mo-Su 05:30-23:00,Mobil,Q109676002
https://locations.53.com/#3034450,fifththirdbank,Fifth Third Bank 8 Mile and Haggerty,,Northville,MI,,US,+1 248-380-3234,https://locations.53.com/mi/northville/20205-haggerty-road.html,Mo-Th 09:00-17:00; Fr 09:00-18:00; Sa 09:00-13:00,Fifth Third Bank,Q1411810
599298,firestone_auto_care,Firestone Complete Auto Care,,Northville,MI,,US,+1 248-504-4015,https://local.firestonecompleteautocare.com/michigan/northville/20175-haggerty-rd/,,Firestone,Q420837
https://restaurants.fiveguys.com/#15552307,five_guys_us,Five Guys Haggerty Eight Center,,Northville,MI,,US,+1 248-349-6400,https://restaurants.fiveguys.com/20571-haggerty-rd,"Mo-Su 11:00-21:30,11:00-22:00",Five Guys,Q1131810
23718,huntingtonbank,Northville 8 Mile Rd,,Northville,MI,,US,+1 248-735-0775,https://www.huntington.com/Community/branch-info?locationId=23718,Mo-Fr 09:00-17:00; Sa 09:00-12:00; Su 00:00-00:00,Huntington Bank,Q798819
20933,h_r_block,H&R Block,,Northville,MI,,US,+1 248-374-4450,https://www.hrblock.com/local-tax-offices/michigan/northville/northville-village/20933/,,H&R Block,Q5627799
300056,kindercare,Silver Spring KinderCare,,Northville,MI,,US,,https://www.kindercare.com/our-centers/northville/mi/300056,,KinderCare Learning Centers,Q6410551
323,kohls_us,Kohl's,,Northville,MI,,US,+1 248-348-5779,https://www.kohls.com/stores/mi/northville-323.shtml,Mo-Sa 09:00-22:00; Su 09:00-21:00,Kohl's,Q967265
161496,marathon_petroleum_us,JUDEH CORP,,NORTHVILLE,MI,,US,+1 248-344-1083,,,Marathon,Q458363
https://locations.massageenvy.com/#1773595,massage_envy,Massage Envy Northville,,Northville,MI,,US,+1 248-662-0396,https://locations.massageenvy.com/michigan/northville/17909-haggerty-road.html,Mo-Sa 09:00-21:00; Su 10:00-18:00,Massage Envy,Q10327170
https://locations.noodles.com/mi/northville/17931-haggerty-road.html,noodles_and_company_us,Noodles & Company Northville,,Northville,MI,,US,+1 248-916-9777,https://locations.noodles.com/mi/northville/17931-haggerty-road.html,Mo 10:30-22:00; Tu 10:30-21:00; We-Su 10:30-22:00,Noodles and Company,Q7049673
https://locations.papajohns.com/#10690537,papa_johns,Papa John's,,Northville,MI,,US,+1 248-348-7272,https://locations.papajohns.com/united-states/mi/48167/northville/540-south-main,Mo-Su 11:00-23:00,Papa John's Pizza,Q2759586
home-depot-2704-14330,ppgpaints,HOME DEPOT 2704,,"Northville, ",MI,,US,+1 248-347-9600,https://www.ppgpaints.com/store-locator/us/michigan/northville-paint-stores/home-depot-2704-14330,,PPG Paints,Q83891559
https://locations.qdoba.com/us/mi/northville/20561-haggerty-rd.html,qdoba,QDOBA 8th & Haggerty,,Northville,MI,,US,+1 248-449-5848,https://locations.qdoba.com/us/mi/northville/20561-haggerty-rd.html,Mo-Su 10:30-22:00,Qdoba,Q1363885
2556,shellrecharge,54 - Northville,,Northville,MI,,US,,,,Shell Recharge,Q105883058
https://restaurants.subway.com/#14903544,subway,Subway,,Northville Wayne,MI,,US,+1 248-349-6070,https://restaurants.subway.com/united-states/mi/northville/42971-seven-mile-rd,Mo-Su 09:00-22:00,Subway,Q244457
125,the_exercise_coach_us,The Exercise Coach,,Northville,MI,,US,+1 734-338-2626,https://exercisecoach.com/northville/,,The Exercise Coach,Q121502262
2SQS,tmobile_us,Haggerty Rd & Danielle Dr,,Northville,MI,,US,+1 248-735-4100,https://www.t-mobile.com/store-locator/mi/northville/haggerty-rd-danielle-dr,,T-Mobile,Q3511885
667,trader_joes_us,Trader Joe's Northville (667),,Northville,MI,,US,+1 248-349-4909,https://locations.traderjoes.com/mi/northville/667/,Mo-Su 08:00-21:00,Trader Joe's,Q688825
1375563,usps,NORTHVILLE,,NORTHVILLE,MI,,US,+1 248-349-2062,,Mo-Fr 08:30-17:30; Sa 09:30-16:00,United States Postal Service,Q668687
4816700043,usps_collection_boxes,USPS COLLECTION BOX - BLUE BOX,9706 6 MILE RD,NORTHVILLE,MI,,US,,,,United States Postal Service,Q668687
4816700003,usps_collection_boxes,USPS COLLECTION BOX - BLUE BOX,340 N CENTER ST,NORTHVILLE,MI,,US,,,,United States Postal Service,Q668687
4816700028,usps_collection_boxes,USPS COLLECTION BOX - BLUE BOX,133 W MAIN ST,NORTHVILLE,MI,,US,,,,United States Postal Service,Q668687
4816700008,usps_collection_boxes,USPS COLLECTION BOX - BLUE BOX,133 E DUNLAP ST,NORTHVILLE,MI,,US,,,,United States Postal Service,Q668687
4816700032,usps_collection_boxes,USPS COLLECTION BOX - BLUE BOX,200 S WING ST,NORTHVILLE,MI,,US,,,,United States Postal Service,Q668687
4816700001,usps_collection_boxes,USPS COLLECTION BOX - BLUE BOX,200 S WING ST,NORTHVILLE,MI,,US,,,,United States Postal Service,Q668687
4816700064,usps_collection_boxes,USPS COLLECTION BOX - PO LOBBY,200 S WING ST,NORTHVILLE,MI,,US,,,,United States Postal Service,Q668687
4816700009,usps_collection_boxes,USPS COLLECTION BOX - BLUE BOX,1051 NOVI RD,NORTHVILLE,MI,,US,,,,United States Postal Service,Q668687
4816700014,usps_collection_boxes,USPS COLLECTION BOX - BLUE BOX,670 GRISWOLD ST,NORTHVILLE,MI,,US,,,,United States Postal Service,Q668687
4816700005,usps_collection_boxes,USPS COLLECTION BOX - BLUE BOX,20301 SILVER SPGS,NORTHVILLE,MI,,US,,,,United States Postal Service,Q668687
4816700027,usps_collection_boxes,USPS COLLECTION BOX - BLUE BOX,43079 7 MILE RD,NORTHVILLE,MI,,US,,,,United States Postal Service,Q668687
4816700011,usps_collection_boxes,USPS COLLECTION BOX - BLUE BOX,21100 E GLENHAVEN CIR,NORTHVILLE,MI,,US,,,,United States Postal Service,Q668687
4816700010,usps_collection_boxes,USPS COLLECTION BOX - BLUE BOX,18850 JAMESTOWN CIR,NORTHVILLE,MI,,US,,,,United States Postal Service,Q668687
4816700045,usps_collection_boxes,USPS COLLECTION BOX - BLUE BOX,44405 6 MILE RD,NORTHVILLE,MI,,US,,,,United States Postal Service,Q668687
4816700025,usps_collection_boxes,USPS COLLECTION BOX - BLUE BOX,19100 NORTHRIDGE DR,NORTHVILLE,MI,,US,,,,United States Postal Service,Q668687
4816700044,usps_collection_boxes,USPS COLLECTION BOX - BLUE BOX,41000 7 MILE RD,NORTHVILLE,MI,,US,,,,United States Postal Service,Q668687
4816700018,usps_collection_boxes,USPS COLLECTION BOX - BLUE BOX,41700 W SIX MILE RD,NORTHVILLE,MI,,US,,,,United States Postal Service,Q668687
4816700015,usps_collection_boxes,USPS COLLECTION BOX - BLUE BOX,20401 HAGGERTY RD,NORTHVILLE,MI,,US,,,,United States Postal Service,Q668687
4816700038,usps_collection_boxes,USPS COLLECTION BOX - BLUE BOX,21800 HAGGERTY RD,NORTHVILLE,MI,,US,,,,United States Postal Service,Q668687
4816700042,usps_collection_boxes,USPS COLLECTION BOX - BLUE BOX,17066 COUNTRY KNOLL DR,NORTHVILLE,MI,,US,,,,United States Postal Service,Q668687
4816700058,usps_collection_boxes,USPS COLLECTION BOX - BLUE BOX,21500 HAGGERTY RD,NORTHVILLE,MI,,US,,,,United States Postal Service,Q668687
4816700022,usps_collection_boxes,USPS COLLECTION BOX - BLUE BOX,22260 HAGGERTY RD,NORTHVILLE,MI,,US,,,,United States Postal Service,Q668687
R00000244706,verizon_us,Northville,,Northville,MI,,US,+1 734-779-0143,https://www.verizon.com/stores/details/michigan/northville/northville-356814/,Mo-Sa 10:00-19:00; Su 10:00-17:00,Verizon,Q919641
,visa,,,NORTHVILLE,MI,,US,,,,,
,visa,,,NORTHVILLE TOWNSH,MI,,US,,,,,
,visa,,,NORTHVILLE TWP,MI,,US,,,,,
,visa,,,NORTHVILLE,MI,,US,,,,,
,visa,,,NORTHVILLE,MI,,US,,,,,
,visa,,,NORTHVILLE,MI,,US,,,,,
,visa,,,NORTHVILLE,MI,,US,,,,,
,visa,,,NORTHVILLE,MI,,US,,,,,
,visa,,,NORTHVILLE,MI,,US,,,,,
,visa,,,NORTHVILLE,MI,,US,,,,,
,visa,,,NORTHVILLE,MI,,US,,,,,
,visa,,,NORTHVILLE,MI,,US,,,,,
,visa,,,NORTHVILLE TWP,MI,,US,,,,,
,visa,,,NORTHVILLE,MI,,US,,,,,
,visa,,,SALEM TOWNSHIP,MI,,US,,,,,
,visa,,,NORTHVILLE,MI,,US,,,,,
,visa,,,NORTHVILLE,MI,,US,,,,,
,visa,,,NORTHVILLE,MI,,US,,,,,
,visa,,,NORTHVILLE,MI,,US,,,,,
,visa,,,NORTHVILLE,MI,,US,,,,,
,visa,,,NORTHVILLE,MI,,US,,,,,
,visa,,,NORTHVILLE,MI,,US,,,,,
,visa,,,NORTHVILLE,MI,,US,,,,,
,visa,,,NORTHVILLE,MI,,US,,,,,
,visa,,,NORTHVILLE,MI,,US,,,,,
,visa,,,NORTHVILLE,MI,,US,,,,,
,visa,,,NORTHVILLE,MI,,US,,,,,
,visa,,,NORTHVILLE,MI,,US,,,,,
,visa,,,NORTHVILLE,MI,,US,,,,,
,visa,,,NORTHVILLE,MI,,US,,,,,
,visa,,,NORTHVILLE,MI,,US,,,,,
,visa,,,NORTHVILLE,MI,,US,,,,,
,visa,,,NORTHVILLE,MI,,US,,,,,
,visa,,,COUNTY,MI,,US,,,,,
,visa,,,NORTHVILLE,MI,,US,,,,,
,visa,,,NORTHVILLE,MI,,US,,,,,
,visa,,,NORTHVILLE,MI,,US,,,,,
,visa,,,NORTHVILLE,MI,,US,,,,,
,visa,,,NORTHVILLE,MI,,US,,,,,
,visa,,,NORTHVILLE,MI,,US,,,,,
,visa,,,NORTHVILLE,MI,,US,,,,,
,visa,,,NORTHVILLE,MI,,US,,,,,
,visa,,,NORTHVILLE,MI,,US,,,,,
,visa,,,NORTHVILLE,MI,,US,,,,,
,visa,,,NORTHVILLE,MI,,US,,,,,
,visa,,,NORTHVILLE,MI,,US,,,,,
,visa,,,NORTHVILLE,MI,,US,,,,,
,visa,,,NORTHVILLE,MI,,US,,,,,
,visa,,,NORTHVILLE,MI,,US,,,,,
,visa,,,NORTHVILLE,MI,,US,,,,,
,visa,,,NORTHVILLE,MI,,US,,,,,
,visa,,,NORTHVILLE,MI,,US,,,,,
,visa,,,NORTHVILLE,MI,,US,,,,,
,visa,,,NORTHVILLE,MI,,US,,,,,
,visa,,,NORTHVILLE TWP,MI,,US,,,,,
,visa,,,NORTHVILLE,MI,,US,,,,,
,visa,,,NORTHVILLE,MI,,US,,,,,
,visa,,,NORTHVILLE,MI,,US,,,,,
,visa,,,NORTHVILLE,MI,,US,,,,,
,visa,,,YPSILANTI,MI,,US,,,,,
,visa,,,YPSILANTI,MI,,US,,,,,
https://locations.vitaminshoppe.com/mi/northville/vitamins-supplements-northville-mi-632.html,vitamin_shoppe,The Vitamin ShoppeÂ® Northville ,20580 Haggerty Road ,Northville,MI,,US,+1 734-462-4064,https://locations.vitaminshoppe.com/mi/northville/vitamins-supplements-northville-mi-632.html,Su 10:30-19:00; Mo 10:30-20:00; Tu 10:30-20:00; We 10:30-20:00; Th 10:30-20:00; Fr 10:30-20:00; Sa 10:30-19:30,The Vitamin Shoppe,Q7772938
223403,wingstop,Wingstop Northville Haggerty Rd,20570 Haggerty Rd,Northville,MI,,US,+1 947-218-3282,,,Wingstop,Q8025339
