Ref,Spider,Name,Address,City,State,Zipcode,Country,Phone,Website,Hours,Brand,WikiData
1686,first_cash,First Cash Pawn,,Canc√∫n,Quintana Roo,,MX,+52 998 132 0037,,,First Cash Pawn,
,visa,,,CANCUN,QUINTANA ROO,,MX,,,,,
,visa,,,CANCUN,QUINTANA ROO,,MX,,,,,
,visa,,,CANCUN,QUINTANA ROO,,MX,,,,,
,visa,,,CANCUN,QUINTANA ROO,,MX,,,,,
,visa,,,CANCUN,QUINTANA ROO,,MX,,,,,
,visa,,,CANCUN,QUINTANA ROO,,MX,,,,,
,visa,,,BENITO JUAREZ,QUINTANA ROO,,MX,,,,,
945f061d8c95c973a1b8a276050fb5b2,western_union,OXXO KINIK CUN,,Cancun,QUINTANA ROO,,MX,+52 81 8389 2121,https://location.westernunion.com/mx/quintana-roo/cancun/945f061d8c95c973a1b8a276050fb5b2,Mo-Su 08:00-22:00,Western Union,Q861042
84f417f77725fe12ac0a497d75274247,western_union,OXXO KINIK CUN,,Cancun,QUINTANA ROO,,MX,+52 81 8389 2121,https://location.westernunion.com/mx/quintana-roo/cancun/84f417f77725fe12ac0a497d75274247,Mo-Su 08:00-22:00,Western Union,Q861042
42660ed02e5683e1834e03e0b4256eb8,western_union,OXXO KINIK CUN,,Cancun,QUINTANA ROO,,MX,+52 81 8389 2121,https://location.westernunion.com/mx/quintana-roo/cancun/42660ed02e5683e1834e03e0b4256eb8,Mo-Su 08:00-22:00,Western Union,Q861042
1c076ef73dc4e96f475264fdf3323e3b,western_union,MODATELAS 248 AP CASH,,Cancun,QUINTANA ROO,,MX,+52 998 206 8522,https://location.westernunion.com/mx/quintana-roo/cancun/1c076ef73dc4e96f475264fdf3323e3b,Mo-Su 08:00-20:00,Western Union,Q861042
2fe8380c3d4b3a553efbb7aa348a1e41,western_union,MODATELAS 248 AP CASH,,Cancun,QUINTANA ROO,,MX,+52 998 206 8522,https://location.westernunion.com/mx/quintana-roo/cancun/2fe8380c3d4b3a553efbb7aa348a1e41,Mo-Su 08:00-20:00,Western Union,Q861042
956adf5918fc684f7ba5fde699d9c4ae,western_union,WALMART CANCUN II 3632,,Cancun,QUINTANA ROO,,MX,+52 800 833 4700,https://location.westernunion.com/mx/quintana-roo/cancun/956adf5918fc684f7ba5fde699d9c4ae,Mo-Su 07:00-23:00,Western Union,Q861042
63f9099c9aed23c8070f2dcc962650c2,western_union,WALMART CANCUN II 3632,,Cancun,QUINTANA ROO,,MX,+52 800 833 4700,https://location.westernunion.com/mx/quintana-roo/cancun/63f9099c9aed23c8070f2dcc962650c2,Mo-Su 07:00-23:00,Western Union,Q861042
c867daaa120267b49871952f378dbe30,western_union,WALMART CANCUN II 3632,,Cancun,QUINTANA ROO,,MX,+52 800 833 4700,https://location.westernunion.com/mx/quintana-roo/cancun/c867daaa120267b49871952f378dbe30,Mo-Su 07:00-23:00,Western Union,Q861042
a524e90b23de3503e2052a602be1a4c8,western_union,OXXO KEMA GAS CUN,,Cancun,QUINTANA ROO,,MX,+52 81 8389 2121,https://location.westernunion.com/mx/quintana-roo/cancun/a524e90b23de3503e2052a602be1a4c8,Mo-Su 08:00-22:00,Western Union,Q861042
71245d6d000eb46da6072003f2451bc6,western_union,OXXO KEMA GAS CUN,,Cancun,QUINTANA ROO,,MX,+52 81 8389 2121,https://location.westernunion.com/mx/quintana-roo/cancun/71245d6d000eb46da6072003f2451bc6,Mo-Su 08:00-22:00,Western Union,Q861042
62ef92223af404aee7f9ce0a9648b194,western_union,OXXO KEMA GAS CUN,,Cancun,QUINTANA ROO,,MX,+52 81 8389 2121,https://location.westernunion.com/mx/quintana-roo/cancun/62ef92223af404aee7f9ce0a9648b194,Mo-Su 08:00-22:00,Western Union,Q861042
17372623982c39a8d40a9cc43f6f5d88,western_union,DUNOSUSA 106 AP CASH,,Cancun,QUINTANA ROO,,MX,+52 999 994 0606,https://location.westernunion.com/mx/quintana-roo/cancun/17372623982c39a8d40a9cc43f6f5d88,Mo-Su 09:00-21:00,Western Union,Q861042
5138544323209c85e607791dc9cc1893,western_union,DUNOSUSA 106 AP CASH,,Cancun,QUINTANA ROO,,MX,+52 999 994 0606,https://location.westernunion.com/mx/quintana-roo/cancun/5138544323209c85e607791dc9cc1893,Mo-Su 09:00-21:00,Western Union,Q861042
b8fa150876f2af2d7fb0c88afe8c7c5a,western_union,OXXO ECLIPSE CUN,,Cancun,QUINTANA ROO,,MX,+52 81 8389 2121,https://location.westernunion.com/mx/quintana-roo/cancun/b8fa150876f2af2d7fb0c88afe8c7c5a,Mo-Su 08:00-22:00,Western Union,Q861042
6b9a6a077a833408b3bf34a65a993217,western_union,OXXO ECLIPSE CUN,,Cancun,QUINTANA ROO,,MX,+52 81 8389 2121,https://location.westernunion.com/mx/quintana-roo/cancun/6b9a6a077a833408b3bf34a65a993217,Mo-Su 08:00-22:00,Western Union,Q861042
e93da0230f80f381567618ec665ab179,western_union,OXXO ECLIPSE CUN,,Cancun,QUINTANA ROO,,MX,+52 81 8389 2121,https://location.westernunion.com/mx/quintana-roo/cancun/e93da0230f80f381567618ec665ab179,Mo-Su 08:00-22:00,Western Union,Q861042
