Ref,Spider,Name,Address,City,State,Zipcode,Country,Phone,Website,Hours,Brand,WikiData
,visa,,,MONTERREY,NUEVO LEON,,MX,,,,,
,visa,,,MONTERREY,NUEVO LEON,,MX,,,,,
,visa,,,MONTERREY,NUEVO LEON,,MX,,,,,
,visa,,,MONTERREY,NUEVO LEON,,MX,,,,,
,visa,,,MONTERREY,NUEVO LEON,,MX,,,,,
,visa,,,MONTERREY,NUEVO LEON,,MX,,,,,
,visa,,,MONTERREY,NUEVO LEON,,MX,,,,,
,visa,,,MONTERREY,NUEVO LEON,,MX,,,,,
,visa,,,MONTERREY,NUEVO LEON,,MX,,,,,
,visa,,,MONTERREY,NUEVO LEON,,MX,,,,,
,visa,,,MONTERREY,NUEVO LEON,,MX,,,,,
,visa,,,GARCIA,NUEVO LEON,,MX,,,,,
,visa,,,MONTERREY,NUEVO LEON,,MX,,,,,
1c6ffa20659144fc13fbc527ed266f70,western_union,OXXO CUMBRESSANAGUSTINMTY,,Monterrey,NUEVO LEON,,MX,+52 81 8389 2121,https://location.westernunion.com/mx/nuevo-leon/monterrey/1c6ffa20659144fc13fbc527ed266f70,Mo-Su 08:00-22:00,Western Union,Q861042
fdde1e7a9f12b90ec4830eb8b46f81c8,western_union,OXXO CUMBRESSANAGUSTINMTY,,Monterrey,NUEVO LEON,,MX,+52 81 8389 2121,https://location.westernunion.com/mx/nuevo-leon/monterrey/fdde1e7a9f12b90ec4830eb8b46f81c8,Mo-Su 08:00-22:00,Western Union,Q861042
cd7801128fbc047f5e2e5c35a567f742,western_union,OXXO CUMBRESSANAGUSTINMTY,,Monterrey,NUEVO LEON,,MX,+52 81 8389 2121,https://location.westernunion.com/mx/nuevo-leon/monterrey/cd7801128fbc047f5e2e5c35a567f742,Mo-Su 08:00-22:00,Western Union,Q861042
2da4ebc1d04b1d9cef4bfc54705fa389,western_union,BANCOPPEL 0148 PLAZA LINCON,,Monterrey,NUEVO LEON,,MX,(+52) 667-589999,https://location.westernunion.com/mx/nuevo-leon/monterrey/2da4ebc1d04b1d9cef4bfc54705fa389,Mo-Su 08:30-21:00,Western Union,Q861042
1b1ae1a11112cda02376f78cae1d5122,western_union,BANCOPPEL 0148 PLAZA LINCON,,Monterrey,NUEVO LEON,,MX,(+52) 667-589999,https://location.westernunion.com/mx/nuevo-leon/monterrey/1b1ae1a11112cda02376f78cae1d5122,Mo-Su 08:30-21:00,Western Union,Q861042
b6fac8e0cbdde31ca3d6ce3ff7037332,western_union,BANCOPPEL 0148 PLAZA LINCON,,Monterrey,NUEVO LEON,,MX,(+52) 667-589999,https://location.westernunion.com/mx/nuevo-leon/monterrey/b6fac8e0cbdde31ca3d6ce3ff7037332,Mo-Su 08:30-21:00,Western Union,Q861042
9e30b5317a7217b91775545a3cbd639b,western_union,7ELEVEN CUMBRES SAN AGUSTIN II 1661,,Monterrey,NUEVO LEON,,MX,+52 800 833 4700,https://location.westernunion.com/mx/nuevo-leon/monterrey/9e30b5317a7217b91775545a3cbd639b,Mo-Su 06:00-22:00,Western Union,Q861042
1cadce12125be2093e7cd5905251b5b2,western_union,7ELEVEN CUMBRES SAN AGUSTIN II 1661,,Monterrey,NUEVO LEON,,MX,+52 800 833 4700,https://location.westernunion.com/mx/nuevo-leon/monterrey/1cadce12125be2093e7cd5905251b5b2,Mo-Su 06:00-22:00,Western Union,Q861042
6343e9569f20774785039081f0a94819,western_union,7ELEVEN CUMBRES SAN AGUSTIN II 1661,,Monterrey,NUEVO LEON,,MX,+52 800 833 4700,https://location.westernunion.com/mx/nuevo-leon/monterrey/6343e9569f20774785039081f0a94819,Mo-Su 06:00-22:00,Western Union,Q861042
a180cb509c302c0cbee670affebfc345,western_union,BANORTE 01922 PLAZA SENDERO LINCOLN,,Monterrey,NUEVO LEON,,MX,+52 800 833 4700,https://location.westernunion.com/mx/nuevo-leon/monterrey/a180cb509c302c0cbee670affebfc345,Mo-Fr 09:00-17:00,Western Union,Q861042
63071f594c2ce08e5e49cd80b42bc16b,western_union,SOL MONTERREY,,Monterrey,NUEVO LEON,,MX,+52 800 833 4700,https://location.westernunion.com/mx/nuevo-leon/monterrey/63071f594c2ce08e5e49cd80b42bc16b,Mo-Su 09:00-21:00,Western Union,Q861042
da16a4d534c47ce9202fa76d1c41d5a7,western_union,SOL MONTERREY,,Monterrey,NUEVO LEON,,MX,+52 800 833 4700,https://location.westernunion.com/mx/nuevo-leon/monterrey/da16a4d534c47ce9202fa76d1c41d5a7,Mo-Su 09:00-21:00,Western Union,Q861042
bdb35fd7dd107101e89dd4043792595a,western_union,7ELEVEN CUMBRES DEL SOL Y VERONA 2519,,Monterrey,NUEVO LEON,,MX,+52 800 833 4700,https://location.westernunion.com/mx/nuevo-leon/monterrey/bdb35fd7dd107101e89dd4043792595a,Mo-Su 06:00-22:00,Western Union,Q861042
16afea0bc526f5c8b42a953fed3f01a0,western_union,7ELEVEN CUMBRES DEL SOL Y VERONA 2519,,Monterrey,NUEVO LEON,,MX,+52 800 833 4700,https://location.westernunion.com/mx/nuevo-leon/monterrey/16afea0bc526f5c8b42a953fed3f01a0,Mo-Su 06:00-22:00,Western Union,Q861042
74c6d39aa3d9ddb0e6b32b01f523c816,western_union,7ELEVEN CUMBRES DEL SOL Y VERONA 2519,,Monterrey,NUEVO LEON,,MX,+52 800 833 4700,https://location.westernunion.com/mx/nuevo-leon/monterrey/74c6d39aa3d9ddb0e6b32b01f523c816,Mo-Su 06:00-22:00,Western Union,Q861042
a0f977b9053c334d5ef5395576764d6e,western_union,OXXO VERONA MTY,,Monterrey,NUEVO LEON,,MX,+52 81 8389 2121,https://location.westernunion.com/mx/nuevo-leon/monterrey/a0f977b9053c334d5ef5395576764d6e,Mo 08:00-20:00; Tu-We 08:00-22:00; Th 08:00-20:00; Fr-Su 08:00-22:00,Western Union,Q861042
17a272387a17c1070157480b99fbf4f6,western_union,OXXO VERONA MTY,,Monterrey,NUEVO LEON,,MX,+52 81 8389 2121,https://location.westernunion.com/mx/nuevo-leon/monterrey/17a272387a17c1070157480b99fbf4f6,Mo-Su 08:00-22:00,Western Union,Q861042
59a613a23b186015fb389d60d3db6e37,western_union,OXXO VERONA MTY,,Monterrey,NUEVO LEON,,MX,+52 81 8389 2121,https://location.westernunion.com/mx/nuevo-leon/monterrey/59a613a23b186015fb389d60d3db6e37,Mo-Su 08:00-22:00,Western Union,Q861042
d1a5016df7753a6533a6e467055eb9cc,western_union,7ELEVEN CASERTA 1797,,Monterrey,NUEVO LEON,,MX,+52 800 833 4700,https://location.westernunion.com/mx/nuevo-leon/monterrey/d1a5016df7753a6533a6e467055eb9cc,Mo-Su 06:00-22:00,Western Union,Q861042
21b2216e9a34599f65105321f7bf84bc,western_union,7ELEVEN CASERTA 1797,,Monterrey,NUEVO LEON,,MX,+52 800 833 4700,https://location.westernunion.com/mx/nuevo-leon/monterrey/21b2216e9a34599f65105321f7bf84bc,Mo-Su 06:00-22:00,Western Union,Q861042
258df0b9fcaf99b2f3b3df18e376b98f,western_union,7ELEVEN CASERTA 1797,,Monterrey,NUEVO LEON,,MX,+52 800 833 4700,https://location.westernunion.com/mx/nuevo-leon/monterrey/258df0b9fcaf99b2f3b3df18e376b98f,Mo-Su 06:00-22:00,Western Union,Q861042
efb475fa07baf29b9658eab9800c3537,western_union,WALMART PASEO REAL 3239,,Monterrey,NUEVO LEON,,MX,+52 800 833 4700,https://location.westernunion.com/mx/nuevo-leon/monterrey/efb475fa07baf29b9658eab9800c3537,Mo-Su 07:00-23:00,Western Union,Q861042
afd2b0752c17e5548d439754a7aec175,western_union,WALMART PASEO REAL 3239,,Monterrey,NUEVO LEON,,MX,+52 800 833 4700,https://location.westernunion.com/mx/nuevo-leon/monterrey/afd2b0752c17e5548d439754a7aec175,Mo-Su 07:00-23:00,Western Union,Q861042
3f09f539c3101abf09c111bd4083953a,western_union,WALMART PASEO REAL 3239,,Monterrey,NUEVO LEON,,MX,+52 800 833 4700,https://location.westernunion.com/mx/nuevo-leon/monterrey/3f09f539c3101abf09c111bd4083953a,Mo-Su 07:00-23:00,Western Union,Q861042
7b8b99369c7d1c1fd7e5ffcd57475420,western_union,OXXO EVEREST MTY,,Monterrey,NUEVO LEON,,MX,+52 81 8389 2121,https://location.westernunion.com/mx/nuevo-leon/monterrey/7b8b99369c7d1c1fd7e5ffcd57475420,Mo-Su 06:00-22:00,Western Union,Q861042
98c8306922ab18b4e5c04cdf3b2ab2b8,western_union,OXXO EVEREST MTY,,Monterrey,NUEVO LEON,,MX,+52 81 8389 2121,https://location.westernunion.com/mx/nuevo-leon/monterrey/98c8306922ab18b4e5c04cdf3b2ab2b8,Mo-Su 06:00-22:00,Western Union,Q861042
f0135a66904f27d54e0e1697c21dc523,western_union,OXXO EVEREST MTY,,Monterrey,NUEVO LEON,,MX,+52 81 8389 2121,https://location.westernunion.com/mx/nuevo-leon/monterrey/f0135a66904f27d54e0e1697c21dc523,Mo-Su 06:00-22:00,Western Union,Q861042
cce9e2bb7a0f50bdb32bbc27ff65d2a7,western_union,OXXO FORUM LINCOLN MTY,,Monterrey,NUEVO LEON,,MX,+52 81 8389 2121,https://location.westernunion.com/mx/nuevo-leon/monterrey/cce9e2bb7a0f50bdb32bbc27ff65d2a7,Mo-Su 06:00-22:00,Western Union,Q861042
3fd2c41ce9310c394b340ebd6699bbf3,western_union,OXXO FORUM LINCOLN MTY,,Monterrey,NUEVO LEON,,MX,+52 81 8389 2121,https://location.westernunion.com/mx/nuevo-leon/monterrey/3fd2c41ce9310c394b340ebd6699bbf3,Mo-Su 06:00-22:00,Western Union,Q861042
50397333d94cc8fa11316ae2819387d4,western_union,7ELEVEN PASEO CUMBRES 2635,,Monterrey,NUEVO LEON,,MX,+52 800 833 4700,https://location.westernunion.com/mx/nuevo-leon/monterrey/50397333d94cc8fa11316ae2819387d4,Mo-Su 06:00-22:00,Western Union,Q861042
2d229d24418f0ee22eab065662f90abf,western_union,7ELEVEN PASEO CUMBRES 2635,,Monterrey,NUEVO LEON,,MX,+52 800 833 4700,https://location.westernunion.com/mx/nuevo-leon/monterrey/2d229d24418f0ee22eab065662f90abf,Mo-Su 06:00-22:00,Western Union,Q861042
5506caae33988b638788e532c9a43c55,western_union,7ELEVEN PASEO CUMBRES 2635,,Monterrey,NUEVO LEON,,MX,+52 800 833 4700,https://location.westernunion.com/mx/nuevo-leon/monterrey/5506caae33988b638788e532c9a43c55,Mo-Su 06:00-22:00,Western Union,Q861042
c8ef0a6deb2702d9bb60df40e526b4a9,western_union,FARM GUAD PASEO DE LAS CUMBRES,,Monterrey,NUEVO LEON,,MX,+52 800 833 4700,https://location.westernunion.com/mx/nuevo-leon/monterrey/c8ef0a6deb2702d9bb60df40e526b4a9,Mo-Su 08:00-20:00,Western Union,Q861042
090cfea3e5266556f12bcf102b381220,western_union,FARM GUAD PASEO DE LAS CUMBRES,,Monterrey,NUEVO LEON,,MX,+52 800 833 4700,https://location.westernunion.com/mx/nuevo-leon/monterrey/090cfea3e5266556f12bcf102b381220,Mo-Su 08:00-20:00,Western Union,Q861042
b81a30b86c729f4e3b0d26223a43ffe6,western_union,FARM GUAD PASEO DE LAS CUMBRES,,Monterrey,NUEVO LEON,,MX,+52 800 833 4700,https://location.westernunion.com/mx/nuevo-leon/monterrey/b81a30b86c729f4e3b0d26223a43ffe6,Mo-Su 08:00-20:00,Western Union,Q861042
80686034a757b33858beac8d965c9213,western_union,OXXO MADEIRA MTY,,Monterrey,NUEVO LEON,,MX,+52 81 8389 2121,https://location.westernunion.com/mx/nuevo-leon/monterrey/80686034a757b33858beac8d965c9213,Mo-Su 08:00-22:00,Western Union,Q861042
0651c79b037c99eeac98cd41159ecb5d,western_union,OXXO MADEIRA MTY,,Monterrey,NUEVO LEON,,MX,+52 81 8389 2121,https://location.westernunion.com/mx/nuevo-leon/monterrey/0651c79b037c99eeac98cd41159ecb5d,Mo-Su 08:00-22:00,Western Union,Q861042
5418e46b0df937693d2749f0b85859db,western_union,OXXO MADEIRA MTY,,Monterrey,NUEVO LEON,,MX,+52 81 8389 2121,https://location.westernunion.com/mx/nuevo-leon/monterrey/5418e46b0df937693d2749f0b85859db,Mo-Su 08:00-22:00,Western Union,Q861042
ba2c8dda82c23e12180168d7442e0893,western_union,7ELEVEN PUERTA DE HIERRO ESQ VERONA,,Monterrey,NUEVO LEON,,MX,+52 800 833 4700,https://location.westernunion.com/mx/nuevo-leon/monterrey/ba2c8dda82c23e12180168d7442e0893,Mo-Su 06:00-22:00,Western Union,Q861042
6d17fe084ab8f1416f6cbaa4f73db372,western_union,7ELEVEN PUERTA DE HIERRO ESQ VERONA,,Monterrey,NUEVO LEON,,MX,+52 800 833 4700,https://location.westernunion.com/mx/nuevo-leon/monterrey/6d17fe084ab8f1416f6cbaa4f73db372,Mo-Su 06:00-22:00,Western Union,Q861042
d4ee04d916189232198702a08c43a3e4,western_union,7ELEVEN PUERTA DE HIERRO ESQ VERONA,,Monterrey,NUEVO LEON,,MX,+52 800 833 4700,https://location.westernunion.com/mx/nuevo-leon/monterrey/d4ee04d916189232198702a08c43a3e4,Mo-Su 06:00-22:00,Western Union,Q861042
8c859836830a984f5af5e5c710cacdb5,western_union,7ELEVEN CASTELLANA Y MADEIRA 2566,,Monterrey,NUEVO LEON,,MX,+52 800 833 4700,https://location.westernunion.com/mx/nuevo-leon/monterrey/8c859836830a984f5af5e5c710cacdb5,Mo-Su 06:00-22:00,Western Union,Q861042
dd1b6bb04a26eb21a8eadb7ee7420489,western_union,7ELEVEN CASTELLANA Y MADEIRA 2566,,Monterrey,NUEVO LEON,,MX,+52 800 833 4700,https://location.westernunion.com/mx/nuevo-leon/monterrey/dd1b6bb04a26eb21a8eadb7ee7420489,Mo-Su 06:00-22:00,Western Union,Q861042
6f09dc321081d610dae8a1064a013895,western_union,7ELEVEN CASTELLANA Y MADEIRA 2566,,Monterrey,NUEVO LEON,,MX,+52 800 833 4700,https://location.westernunion.com/mx/nuevo-leon/monterrey/6f09dc321081d610dae8a1064a013895,Mo-Su 06:00-22:00,Western Union,Q861042
583d1a67cc1cdc4def5f5a07ba766841,western_union,OXXO FORUM LINCOLN MTY,,Monterrey,NUEVO LEON,,MX,+52 81 8389 2121,https://location.westernunion.com/mx/nuevo-leon/monterrey/583d1a67cc1cdc4def5f5a07ba766841,Mo-Su 06:00-22:00,Western Union,Q861042
49a4a0243ab394b01e168ac87bcf58a6,western_union,OXXO FORUM CUMBRES MTY,,Monterrey,NUEVO LEON,,MX,+52 81 8389 2121,https://location.westernunion.com/mx/nuevo-leon/monterrey/49a4a0243ab394b01e168ac87bcf58a6,Mo-Su 08:00-22:00,Western Union,Q861042
fc5088d842d2763d78ac6867b8a6d95e,western_union,FARM GUAD AV PUERTA DE HIERRO,,Monterrey,NUEVO LEON,,MX,+52 800 833 4700,https://location.westernunion.com/mx/nuevo-leon/monterrey/fc5088d842d2763d78ac6867b8a6d95e,Mo-Su 09:00-22:00,Western Union,Q861042
390b3e5dcdb912c7f983cf76b4165af3,western_union,FARM GUAD AV PUERTA DE HIERRO,,Monterrey,NUEVO LEON,,MX,+52 800 833 4700,https://location.westernunion.com/mx/nuevo-leon/monterrey/390b3e5dcdb912c7f983cf76b4165af3,Mo-Su 09:00-22:00,Western Union,Q861042
15d1e89c71f67822ed208b42db427eb8,western_union,FARM GUAD AV PUERTA DE HIERRO,,Monterrey,NUEVO LEON,,MX,+52 800 833 4700,https://location.westernunion.com/mx/nuevo-leon/monterrey/15d1e89c71f67822ed208b42db427eb8,Mo-Su 09:00-22:00,Western Union,Q861042
88492d85912b90e321784ce4638ca7b4,western_union,7ELEVEN HAMILTON 2516,,Monterrey,NUEVO LEON,,MX,+52 800 833 4700,https://location.westernunion.com/mx/nuevo-leon/monterrey/88492d85912b90e321784ce4638ca7b4,Mo-Su 06:00-22:00,Western Union,Q861042
be9f9ef5d2683631dc5b375208809f76,western_union,7ELEVEN HAMILTON 2516,,Monterrey,NUEVO LEON,,MX,+52 800 833 4700,https://location.westernunion.com/mx/nuevo-leon/monterrey/be9f9ef5d2683631dc5b375208809f76,Mo-Su 06:00-22:00,Western Union,Q861042
ae770240acbcf6c6b7db3430e4c0340b,western_union,7ELEVEN HAMILTON 2516,,Monterrey,NUEVO LEON,,MX,+52 800 833 4700,https://location.westernunion.com/mx/nuevo-leon/monterrey/ae770240acbcf6c6b7db3430e4c0340b,Mo-Su 06:00-22:00,Western Union,Q861042
987013b50974589cfed9a50bdac4c7db,western_union,7ELEVEN AVE REAL CUMBRES 1545,,Monterrey,NUEVO LEON,,MX,+52 800 833 4700,https://location.westernunion.com/mx/nuevo-leon/monterrey/987013b50974589cfed9a50bdac4c7db,Mo-Su 06:00-22:00,Western Union,Q861042
c76f92f469bdbfd54d3f53cc853cbc87,western_union,7ELEVEN AVE REAL CUMBRES 1545,,Monterrey,NUEVO LEON,,MX,+52 800 833 4700,https://location.westernunion.com/mx/nuevo-leon/monterrey/c76f92f469bdbfd54d3f53cc853cbc87,Mo-Su 06:00-22:00,Western Union,Q861042
6e5e07962ea3ede7e21b8e822f0fb7f7,western_union,7ELEVEN AVE REAL CUMBRES 1545,,Monterrey,NUEVO LEON,,MX,+52 800 833 4700,https://location.westernunion.com/mx/nuevo-leon/monterrey/6e5e07962ea3ede7e21b8e822f0fb7f7,Mo-Su 06:00-22:00,Western Union,Q861042
f6b05a25c33094dab29c3ae70e1b547f,western_union,FARM GUAD PASEO DE CUMBRES II,,Monterrey,NUEVO LEON,,MX,+52 800 833 4700,https://location.westernunion.com/mx/nuevo-leon/monterrey/f6b05a25c33094dab29c3ae70e1b547f,Mo-Su 08:00-22:00,Western Union,Q861042
4ef9d70203c9d6eb50082303fac395f9,western_union,FARM GUAD PASEO DE CUMBRES II,,Monterrey,NUEVO LEON,,MX,+52 800 833 4700,https://location.westernunion.com/mx/nuevo-leon/monterrey/4ef9d70203c9d6eb50082303fac395f9,Mo-Su 08:00-22:00,Western Union,Q861042
5522f5ebc5da96f383e57fa6f88eb6e5,western_union,FARM GUAD PASEO DE CUMBRES II,,Monterrey,NUEVO LEON,,MX,+52 800 833 4700,https://location.westernunion.com/mx/nuevo-leon/monterrey/5522f5ebc5da96f383e57fa6f88eb6e5,Mo-Su 08:00-22:00,Western Union,Q861042
d7b33a8e51d01aee744ffff56a7b7b87,western_union,7ELEVEN PASEO DE CUMBRES 845,,Monterrey,NUEVO LEON,,MX,+52 800 833 4700,https://location.westernunion.com/mx/nuevo-leon/monterrey/d7b33a8e51d01aee744ffff56a7b7b87,Mo-Su 06:00-22:00,Western Union,Q861042
41fd9619417b9f32d615b87f42558fc6,western_union,7ELEVEN PASEO DE CUMBRES 845,,Monterrey,NUEVO LEON,,MX,+52 800 833 4700,https://location.westernunion.com/mx/nuevo-leon/monterrey/41fd9619417b9f32d615b87f42558fc6,Mo-Su 06:00-22:00,Western Union,Q861042
ad14f153173d361485776760e837b18b,western_union,7ELEVEN PASEO DE CUMBRES 845,,Monterrey,NUEVO LEON,,MX,+52 800 833 4700,https://location.westernunion.com/mx/nuevo-leon/monterrey/ad14f153173d361485776760e837b18b,Mo-Su 06:00-22:00,Western Union,Q861042
eed3e44f348dcb2f73bb07821ca892fd,western_union,OXXO PEDRO INFANTE MTY,,Monterrey,NUEVO LEON,,MX,+52 81 8389 2121,https://location.westernunion.com/mx/nuevo-leon/monterrey/eed3e44f348dcb2f73bb07821ca892fd,Mo-Su 08:00-22:00,Western Union,Q861042
26ff360d0fca9cdf3b9ac10ccfe96163,western_union,OXXO PEDRO INFANTE MTY,,Monterrey,NUEVO LEON,,MX,+52 81 8389 2121,https://location.westernunion.com/mx/nuevo-leon/monterrey/26ff360d0fca9cdf3b9ac10ccfe96163,Mo-Su 08:00-22:00,Western Union,Q861042
e3962bde07786f4b36a878f29542025a,western_union,OXXO PEDRO INFANTE MTY,,Monterrey,NUEVO LEON,,MX,+52 81 8389 2121,https://location.westernunion.com/mx/nuevo-leon/monterrey/e3962bde07786f4b36a878f29542025a,Mo-Su 08:00-22:00,Western Union,Q861042
b637972425ce6d150e30436f6bd50549,western_union,7ELEVEN RUIZ CORTINEZ Y PUERTA DE HIERRO,,Monterrey,NUEVO LEON,,MX,+52 800 833 4700,https://location.westernunion.com/mx/nuevo-leon/monterrey/b637972425ce6d150e30436f6bd50549,Mo-Su 06:00-22:00,Western Union,Q861042
35e59ac68da56d3470e51222fef90945,western_union,7ELEVEN RUIZ CORTINEZ Y PUERTA DE HIERRO,,Monterrey,NUEVO LEON,,MX,+52 800 833 4700,https://location.westernunion.com/mx/nuevo-leon/monterrey/35e59ac68da56d3470e51222fef90945,Mo-Su 06:00-22:00,Western Union,Q861042
f07bda78d70375ecb35b76a63f896b77,western_union,7ELEVEN RUIZ CORTINEZ Y PUERTA DE HIERRO,,Monterrey,NUEVO LEON,,MX,+52 800 833 4700,https://location.westernunion.com/mx/nuevo-leon/monterrey/f07bda78d70375ecb35b76a63f896b77,Mo-Su 06:00-22:00,Western Union,Q861042
6543c8a3b60021d163c960003d5834e0,western_union,7ELEVEN PUERTA DE HIERRO Y ALEJNDRO DE R,,Monterrey,NUEVO LEON,,MX,+52 800 833 4700,https://location.westernunion.com/mx/nuevo-leon/monterrey/6543c8a3b60021d163c960003d5834e0,Mo-Su 06:00-22:00,Western Union,Q861042
fd89cc59db3396c69b3938b5ec5389b0,western_union,7ELEVEN PUERTA DE HIERRO Y ALEJNDRO DE R,,Monterrey,NUEVO LEON,,MX,+52 800 833 4700,https://location.westernunion.com/mx/nuevo-leon/monterrey/fd89cc59db3396c69b3938b5ec5389b0,Mo-Su 06:00-22:00,Western Union,Q861042
5639576edbbe56a0a6d6be78d7057883,western_union,7ELEVEN PUERTA DE HIERRO Y ALEJNDRO DE R,,Monterrey,NUEVO LEON,,MX,+52 800 833 4700,https://location.westernunion.com/mx/nuevo-leon/monterrey/5639576edbbe56a0a6d6be78d7057883,Mo-Su 06:00-22:00,Western Union,Q861042
a4e97c49b28b7118bb5cf093a7303eca,western_union,7ELEVEN ALEJANDRO DE RODAS 656,,Monterrey,NUEVO LEON,,MX,+52 800 833 4700,https://location.westernunion.com/mx/nuevo-leon/monterrey/a4e97c49b28b7118bb5cf093a7303eca,Mo-Su 06:00-22:00,Western Union,Q861042
ff88ed94181ebc7b942cbb7c58fcc9bb,western_union,7ELEVEN ALEJANDRO DE RODAS 656,,Monterrey,NUEVO LEON,,MX,+52 800 833 4700,https://location.westernunion.com/mx/nuevo-leon/monterrey/ff88ed94181ebc7b942cbb7c58fcc9bb,Mo-Su 06:00-22:00,Western Union,Q861042
0d2b9cedc5ac651feb68e064b3cc52a9,western_union,7ELEVEN ALEJANDRO DE RODAS 656,,Monterrey,NUEVO LEON,,MX,+52 800 833 4700,https://location.westernunion.com/mx/nuevo-leon/monterrey/0d2b9cedc5ac651feb68e064b3cc52a9,Mo-Su 06:00-22:00,Western Union,Q861042
db9b1962f430abce19d431e2960dc33e,western_union,OXXO RODAS MTY,,Monterrey,NUEVO LEON,,MX,+52 81 8389 2121,https://location.westernunion.com/mx/nuevo-leon/monterrey/db9b1962f430abce19d431e2960dc33e,Mo-Su 06:00-22:00,Western Union,Q861042
81e26753b322ac4d45ae40241cc1a0d4,western_union,OXXO RODAS MTY,,Monterrey,NUEVO LEON,,MX,+52 81 8389 2121,https://location.westernunion.com/mx/nuevo-leon/monterrey/81e26753b322ac4d45ae40241cc1a0d4,Mo-Su 06:00-22:00,Western Union,Q861042
091056576f6c2cdeb736503e0a5f88c3,western_union,BANORTE 02975 PUERTA DE HIERRO,,Monterrey,NUEVO LEON,,MX,+52 800 833 4700,https://location.westernunion.com/mx/nuevo-leon/monterrey/091056576f6c2cdeb736503e0a5f88c3,Mo-Su 08:30-16:00,Western Union,Q861042
42ac70a65d918419ce07f8f1e41c043b,western_union,OXXO OCEANOPACIFICO IIMTY,,Monterrey,NUEVO LEON,,MX,+52 81 8389 2121,https://location.westernunion.com/mx/nuevo-leon/monterrey/42ac70a65d918419ce07f8f1e41c043b,Mo-Su 08:00-22:00,Western Union,Q861042
3776bf047ecebc918cdaeba6a147669b,western_union,OXXO OCEANOPACIFICO IIMTY,,Monterrey,NUEVO LEON,,MX,+52 81 8389 2121,https://location.westernunion.com/mx/nuevo-leon/monterrey/3776bf047ecebc918cdaeba6a147669b,Mo-Su 08:00-22:00,Western Union,Q861042
c70d26947e8933f41d17bd76eb490737,western_union,OXXO OCEANOPACIFICO IIMTY,,Monterrey,NUEVO LEON,,MX,+52 81 8389 2121,https://location.westernunion.com/mx/nuevo-leon/monterrey/c70d26947e8933f41d17bd76eb490737,Mo-Su 08:00-22:00,Western Union,Q861042
