Ref,Spider,Name,Address,City,State,Zipcode,Country,Phone,Website,Hours,Brand,WikiData
72157758,moneygram,CADENA COMERCIAL OXXO SA DE CV - #10DCU5,,BAHIA DE BANDERAS,NA,,MX,+52 81 8389 2121,,Mo-Su 03:00-24:00,MoneyGram,Q1944412
72184420,moneygram,DINERO EXPRESS - BAHIA DE BANDERAS - BA,,BAHIA DE BANDERAS,NA,,MX,+52 55 1720 8177,,Mo-Su 09:00-21:00,MoneyGram,Q1944412
72789485,moneygram,CADENA COMERCIAL OXXO SA DE CV - #10DCU5,,BAHIA DE BANDERAS,NA,,MX,+52 81 8389 2121,,Mo-Su 03:00-24:00,MoneyGram,Q1944412
72241101,moneygram,FARMACIAS DEL AHORRO - #1770 - BAHIA DE,,BAHIA DE BANDERAS,NA,,MX,5253224320,,Mo-Su 07:00-23:00,MoneyGram,Q1944412
69511132,moneygram,MODATELAS - #1189 - 194 MODATELAS NUEVO,,BAHIA DE BANDERAS,NA,,MX,+52 322 297 6232,,Mo-Su 08:00-20:00,MoneyGram,Q1944412
74221682,moneygram,FARMACIAS GUADALAJARA - #2456 - BAHIA DE,,BAHIA DE BANDERAS,NA,,MX,+52 800 555 6559,,Mo-Su 08:00-22:00,MoneyGram,Q1944412
68824736,moneygram,DINERO EXPRESS - #6090 - BAHIA DE BANDER,,BAHIA DE BANDERAS,NA,,MX,+52 55 1720 8141,,Mo-Su 09:00-21:00,MoneyGram,Q1944412
70397235,moneygram,FARMACIAS GUADALAJARA - NUEVO VALLARTA -,,NUEVO VALLARTA,NA,,MX,+52 713 278 5436,,Mo-Su 08:00-22:00,MoneyGram,Q1944412
70389829,moneygram,FARMACIAS GUADALAJARA - BAHIA DE BANDERA,,BAHIA DE BANDERAS,NA,,MX,+52 713 278 5436,,Mo-Su 08:00-22:00,MoneyGram,Q1944412
70454770,moneygram,SORIANA - NUEVO VALLARTA - BAHIA DE BAND,,BAHIA DE BANDERAS,NA,,MX,+52 81 1112 0003,,Mo-Su 08:00-22:00,MoneyGram,Q1944412
71150426,moneygram,ELEKTRA - #9665 - BAHIA DE BANDERAS - BA,,BAHIA DE BANDERAS,NA,,MX,+52 55 1720 7000,,Mo-Su 09:00-21:00,MoneyGram,Q1944412
65484111,moneygram,WAL-MART BAHIA DE BANDERAS - #1425,,BAHIA DE BANDERAS,NA,,MX,+52 322 297 2959,,Mo-Su 08:00-21:00,MoneyGram,Q1944412
66343950,moneygram,CAJA POPULAR MEX - #723 - MEZCALES,,BAHIA DE BANDERAS,NA,,MX,7888039,,Mo-Fr 09:00-16:00; Sa 09:00-14:00; Su 00:00-24:00,MoneyGram,Q1944412
71261959,moneygram,OXXO - BUCERIAS PVA,,BAHIA DE BANDERAS,NA,,MX,+52 81 8389 2121,,Mo-Su 03:00-24:00,MoneyGram,Q1944412
71262314,moneygram,OXXO - CASA BLANCA PVA,,BAHIA DE BANDERAS,NA,,MX,+52 81 8389 2121,,Mo-Su 03:00-24:00,MoneyGram,Q1944412
71262259,moneygram,OXXO - CLUB FLAMINGOS PVA,,BAHIA DE BANDERAS,NA,,MX,+52 81 8389 2121,,Mo-Su 03:00-24:00,MoneyGram,Q1944412
71262589,moneygram,OXXO - DECAMERON PVA,,BAHIA DE BANDERAS,NA,,MX,+52 81 8389 2121,,Mo-Su 03:00-24:00,MoneyGram,Q1944412
71262026,moneygram,OXXO - FLAMINGOS PVA,,BAHIA DE BANDERAS,NA,,MX,+52 81 8389 2121,,Mo-Su 03:00-24:00,MoneyGram,Q1944412
71261221,moneygram,OXXO - HOSPITAL PVA,,BAHIA DE BANDERAS,NA,,MX,+52 81 8389 2121,,Mo-Su 03:00-24:00,MoneyGram,Q1944412
71262343,moneygram,OXXO - NUEVO VALLARTA PVA,,BAHIA DE BANDERAS,NA,,MX,+52 81 8389 2121,,Mo-Su 03:00-24:00,MoneyGram,Q1944412
71262042,moneygram,OXXO - PLAYA BUCERIAS PVA,,BAHIA DE BANDERAS,NA,,MX,+52 81 8389 2121,,Mo-Su 03:00-24:00,MoneyGram,Q1944412
71261182,moneygram,OXXO - PUNTA ESMERALDA PVA,,BAHIA DE BANDERAS,NA,,MX,+52 81 8389 2121,,Mo-Su 03:00-24:00,MoneyGram,Q1944412
71262220,moneygram,OXXO - RINCON DEL CIELO PVA,,BAHIA DE BANDERAS,NA,,MX,+52 81 8389 2121,,Mo-Su 03:00-24:00,MoneyGram,Q1944412
71262754,moneygram,OXXO - SAYULITA PVA,,BAHIA DE BANDERAS,NA,,MX,+52 81 8389 2121,,Mo-Su 03:00-24:00,MoneyGram,Q1944412
71262615,moneygram,OXXO - TERRA ALTA PVA,,BAHIA DE BANDERAS,NA,,MX,+52 81 8389 2121,,Mo-Su 03:00-24:00,MoneyGram,Q1944412
71262602,moneygram,OXXO - TERRAGAS PVA,,BAHIA DE BANDERAS,NA,,MX,+52 81 8389 2121,,Mo-Su 03:00-24:00,MoneyGram,Q1944412
71261263,moneygram,OXXO - TONDOROQUE PVA,,BAHIA DE BANDERAS,NA,,MX,+52 81 8389 2121,,Mo-Su 03:00-24:00,MoneyGram,Q1944412
71767107,moneygram,CADENA COMERCIAL OXXO SA DE CV - #10DCU5,,BAHIA DE BANDERAS,NA,,MX,+52 81 8389 2121,,Mo-Su 03:00-24:00,MoneyGram,Q1944412
