Ref,Spider,Name,Address,City,State,Zipcode,Country,Phone,Website,Hours,Brand,WikiData
KLE-78,aldi_sud_de,,"Prinzstraße 51a, 86153, Augsburg, Deutschland",Augsburg,,,DE,,,Mo-Sa 07:00-20:00,ALDI Süd,Q41171672
KLE-34,aldi_sud_de,,"Lechhauser Straße 15a, 86153, Augsburg, Deutschland",Augsburg,,,DE,,,Mo-Sa 08:00-20:00,ALDI Süd,Q41171672
https://vertretung.allianz.de/agentur.trenkenschuh/,allianz_de,Allianz Versicherung Adrian Trenkenschuh GENERALVERTRETUNG,,Augsburg,,,DE,+49 821 56773670,https://vertretung.allianz.de/agentur.trenkenschuh/,"Mo-Tu 09:00-12:00,14:00-17:00; We 09:00-12:00; Th 09:00-12:00,14:00-17:00; Fr 09:00-12:00",Allianz SE,Q487292
https://www.biomarkt.de/augsburg-oberbuergermeister-hohner-str-1-a,denns_de,Denns BioMarkt Augsburg,,Augsburg,,,DE,+49 821 56752010,https://www.biomarkt.de/augsburg-oberbuergermeister-hohner-str-1-a/marktseite,,Denns BioMarkt,Q48883773
206,deutsche_telekom_de,Telekom Shop Augsburg,,Augsburg,,,DE,+49 821 50877540,https://shopseite.telekom.de/sued-ost/augsburg/willy-brandt-platz-1,Mo-Sa 09:30-20:00,Deutsche Telekom,Q9396
de:2398,dm,dm-drogerie markt,,Augsburg,,,DE,+49 821 31986873,https://www.dm.de/store/d43m/augsburg/lechhauser-strasse-13,Mo-Sa 08:00-20:00,dm,Q266572
de:821,dm,dm-drogerie markt,,Augsburg,,,DE,+49 821 3463207,https://www.dm.de/store/d1a5/augsburg/willy-brandt-platz-1,Mo-Sa 08:00-20:00,dm,Q266572
15185575,esprit,Esprit Store Augsburg,,Augsburg,,,DE,+49 821 4207940,"https://www.esprit.com/storefinder?storeid=15185575&location=48.36560000,10.90720000",Tu-Su 09:30-20:00,Esprit,Q532746
31353436HndR82,eyes_and_more,"eyes + more Augsburg, City-Galerie","Willy-Brandt-Platz   1, Augsburg, 86153",,,,DE,+49 821 31949751,https://www.eyesandmore.de/termin-vereinbaren/?storeId=31353436HndR82,Mo-Sa 09:30-20:00,eyes + more,Q1385775
2760917161,gls_de,Kiosk am Senkelbach,,Augsburg,,,DE,+49 162 7422893,,Mo-Fr 07:00-17:00,General Logistics Systems,Q46495823
0003029485,g_star_raw,G-Star RAW Store Augsburg,,AUGSBURG,,,DE,+49 821 31986903,https://www.g-star.com/en_us/stores/de/g-star-raw-store-augsburg,Mo-Sa 10:00-10:00,G-Star Raw,Q1484081
DE0055,hm,City-Galerie,,Augsburg,,,DE,+49 800 6655900,,Mo-Sa 09:30-20:00,H&M,Q188326
2619,jack_and_jones,Augsburg - City Galerie,,Augsburg,,,DE,+49 821 5080461,,,Jack & Jones,Q6077665
4699,lidl_de,,,Augsburg-Innenstadt,,,DE,,,Mo-Sa 07:00-20:00,Lidl,Q151954
5b3cb3fac00458481b437636,newyorker,NEW YORKER | City Galerie Augsburg,"Willy-Brandt-Platz 1, 86153 Augsburg",Augsburg,,,DE,+49 821 50893883,,Mo-Sa 10:00-20:00,New Yorker,Q706421
2754,ovs,OVS Kids FC Augsburg DS Modepark,,Augsburg,,,DE,+49 791 946009173,,,OVS,Q2042514
https://www.rossmann.de/de/filialen/bayern/augsburg/oberbuergermeister-hohner-str--1.html,rossmann_de,Rossmann Drogerie-Markt Oberbürgermeister-Hohner-Str. 1,,Augsburg,,,DE,+49 821 89949870,https://www.rossmann.de/de/filialen/bayern/augsburg/oberbuergermeister-hohner-str--1.html,Mo-Sa 08:00-20:00,Rossmann,Q316004
A0002,rsg_group,McFIT Augsburg Innenstadt,,Augsburg,,,DE,+49 821 2795056,https://www.mcfit.com/de/studio/augsburg-innenstadt/,24/7,McFit,Q871302
166273,sparkasse_de,Stadtsparkasse Augsburg Geldautomat Textilviertel,,Augsburg,,,DE,+49 821 32550,https://www.sparkasse.de/standorte/geldautomaten/stadtsparkasse-augsburg-geldautomat-textilviertel-166273,24/7,Sparkasse,Q13601825
109598,sparkasse_de,Stadtsparkasse Augsburg Geldautomat Wertachbrücke,,Augsburg,,,DE,+49 821 32550,https://www.sparkasse.de/standorte/geldautomaten/stadtsparkasse-augsburg-geldautomat-wertachbruecke-109598,Mo-Su 05:00-23:00,Sparkasse,Q13601825
11047,sparkasse_de,Stadtsparkasse Augsburg Beratungs.Center Wertachbrücke,,Augsburg,,,DE,+49 821 32550,https://www.sparkasse.de/standorte/filialen/stadtsparkasse-augsburg-beratungs-center-wertachbruecke-11047,"Mo-We 09:00-13:00,14:00-16:00; Th 09:00-13:00,14:00-18:00; Fr 09:00-14:00",Sparkasse,Q13601825
154798,sparkasse_de,Stadtsparkasse Augsburg Geldautomat City Galerie,,Augsburg,,,DE,+49 821 32550,https://www.sparkasse.de/standorte/geldautomaten/stadtsparkasse-augsburg-geldautomat-city-galerie-154798,Mo-Su 05:00-23:00,Sparkasse,Q13601825
154797,sparkasse_de,Stadtsparkasse Augsburg Geldautomat City Galerie,,Augsburg,,,DE,+49 821 32550,https://www.sparkasse.de/standorte/geldautomaten/stadtsparkasse-augsburg-geldautomat-city-galerie-154797,Mo-Sa 05:00-23:00,Sparkasse,Q13601825
109701,sparkasse_de,Stadtsparkasse Augsburg Beratungs.Center City Galerie,,Augsburg,,,DE,+49 821 32550,https://www.sparkasse.de/standorte/filialen/stadtsparkasse-augsburg-beratungs-center-city-galerie-109701,"Mo-We 09:00-13:00,14:00-16:00; Th 09:00-13:00,14:00-18:00; Fr 09:00-14:00",Sparkasse,Q13601825
8796395569175,thebodyshop,Augsburg,,AUGSBURG,,,DE,,https://www.thebodyshop.com/de-de/store-details/augsburg/3215,,The Body Shop,Q837851
https://www.vlh.de/bst/8650/Oeffnungszeiten.html,vhl_de,VLH-Berater Lukas Sousek in Augsburg,,Augsburg,,,DE,+49 176 83409271,https://www.vlh.de/bst/8650/,,Vereinigte Lohnsteuerhilfe e.V.,Q15852617
,visa,,,AUGSBURG,,,DE,,,,,
,visa,,,AUGSBURG,,,DE,,,,,
,visa,,,AUGSBURG,,,DE,,,,,
,visa,,,AUGSBURG,,,DE,,,,,
,visa,,,AUGSBURG,,,DE,,,,,
,visa,,,AUGSBURG,,,DE,,,,,
,visa,,,AUGSBURG,,,DE,,,,,
https://shops.vodafone.de/augsburg/willy-brandt-platz-1,vodafone_de,Vodafone-Shop,,Augsburg,,,DE,+49 172 8385505,https://shops.vodafone.de/augsburg/willy-brandt-platz-1,Mo-Sa 09:30-20:00,Vodafone,Q122141
