Ref,Spider,Name,Address,City,State,Zipcode,Country,Phone,Website,Hours,Brand,WikiData
1350700118,banque_populaire_fr,MARCQ EN BAROEUL CROISE,,MARCQ EN BAROEUL,,,FR,+33 3 66 33 35 00,https://agences.banquepopulaire.fr/banque-assurance/agence-marcq-en-baroeul-croise-id1350700118,"Tu 09:00-12:45,13:30-18:00; We 09:00-12:15,13:30-18:00; Th 09:00-12:15,15:00-18:00; Fr 09:00-12:15,13:30-18:00; Sa 09:00-12:30",Banque Populaire,Q846647
1350700015,banque_populaire_fr,MARCQ EN BAROEUL CLEMENCEAU,,MARCQ EN BAROEUL,,,FR,+33 3 66 33 30 00,https://agences.banquepopulaire.fr/banque-assurance/agence-marcq-en-baroeul-clemenceau-id1350700015,Tu 14:00-18:00; Fr 09:00-12:00,Banque Populaire,Q846647
1350700145,banque_populaire_fr,MARCQ EN BAROEUL CENTRALE,,MARCQ EN BAROEUL,,,FR,+33 3 66 33 30 00,https://agences.banquepopulaire.fr/banque-assurance/agence-marcq-en-baroeul-centrale-id1350700145,"Tu 09:00-12:45,13:30-18:00; We 09:00-12:15,13:30-18:00; Th 09:00-12:15,14:30-18:00; Fr 09:00-12:15,13:30-18:00; Sa 09:00-12:30",Banque Populaire,Q846647
1937,carrefour_fr,Carrefour Contact,,Marcq En Baroeul,,,FR,+33 3 20 89 87 42,https://www.carrefour.fr/magasin/contact-marcq-en-baroeul-gabriel,Mo-Sa 08:00-21:00; Su 09:00-13:00,Carrefour Contact,Q2940188
7807,carrefour_fr,Carrefour City,,Marcq En Baroeul,,,FR,+33 3 20 20 08 62,https://www.carrefour.fr/magasin/city-marcq-en-baroeul,Mo-Sa 07:00-22:00; Su 09:00-13:00,Carrefour City,Q2940187
https://www.credit-agricole.fr/particulier/agence/nord-de-france/marcq-en-baroeul-3355.html,credit_agricole,Crédit Agricole,,MARCQ EN BAROEUL,,,FR,+33 3 20 20 00 69,https://www.credit-agricole.fr/particulier/agence/nord-de-france/marcq-en-baroeul-3355.html,"Tu-We 08:45-12:30,13:45-18:00; Th 08:45-12:30,14:30-18:00; Fr 08:45-12:30,13:45-18:00; Sa 08:45-12:45",Credit Agricole,Q590952
https://www.credit-agricole.fr/particulier/agence/nord-de-france/marcq-clemenceau-3354.html,credit_agricole,Crédit Agricole,,MARCQ EN BAROEUL,,,FR,+33 3 20 06 00 26,https://www.credit-agricole.fr/particulier/agence/nord-de-france/marcq-clemenceau-3354.html,"Tu-We 08:45-12:30,13:45-18:00; Th 08:45-12:30,14:30-18:00; Fr 08:45-12:30,13:45-18:00; Sa 08:45-12:45",Credit Agricole,Q590952
0070043700437,decathlon_fr,Marcq-en-Baroeul - INESIS Golf Park,,MARCQ EN BAROEUL,,,FR,+33 3 28 33 49 90,https://www.decathlon.fr/store-view/magasin-de-sports-marcq-en-baroeul-inesis-golf-park-0070043700437,Mo-Fr 10:00-19:00; Sa 10:00-18:30,Decathlon,Q509349
0070051800518,decathlon_fr,Fitness Experience Center,,Marcq en Baroeul,,,FR,+33 3 62 72 27 00,https://www.decathlon.fr/store-view/magasin-de-sports-fitness-experience-center-0070051800518,Mo-Sa 09:30-19:30,Decathlon,Q509349
https://www.dominos.fr/magasin/marcq-en-baroeul_59700,dominos_pizza_fr,Domino's,,MARCQ-EN-BAROEUL,,,FR,,https://www.dominos.fr/magasin/marcq-en-baroeul_59700,,Domino's,Q839466
167,jardiland_fr,Marcq-en-Barœul,,Marcq-en-Barœul,,,FR,+33 3 28 09 90 10,https://www.jardiland.com/magasins/lille-marcq-en-baroeul,Mo-Su 09:30-19:00,Jardiland,Q3162276
https://bureaux.kpmg.fr/#location-109,kpmg_fr,KPMG Avocats Marcq-en-Baroeul - Lille,,Marcq-en-Baroeul,,,FR,+33 3 20 20 65 00,https://bureaux.kpmg.fr/fr/france-FR/109/kpmg-avocats-marcq-en-baroeul-lille/details,Mo-Fr 08:30-18:00,KPMG,Q493751
https://bureaux.kpmg.fr/#location-303,kpmg_fr,KPMG Marcq-en-Baroeul - Lille,,Marcq-en-Baroeul,,,FR,+33 3 20 20 65 00,https://bureaux.kpmg.fr/fr/france-FR/303/kpmg-marcq-en-baroeul-lille/details,Mo-Fr 08:30-18:00,KPMG,Q493751
54,match_fr,Supermarché Match (Marcq en Baroeul),,MARCQ-EN-BAROEUL,,,FR,+33 3 20 06 83 32,,Mo-Th 08:00-20:00; Fr-Sa 08:00-20:30; Su 08:30-12:45,Match,Q513977
00050281_001-renault,renault,GARAGE SAINT MAUR,,MARCQ EN BAROEUL,,,FR,+33 3 20 55 02 02,,,Renault,Q6686
00050281_001-dacia,renault,GARAGE SAINT MAUR,,MARCQ EN BAROEUL,,,FR,+33 3 20 55 02 02,,,Dacia,Q27460
00018225_001-renault,renault,MARCQ AUTO,,MARCQ EN BAROEUL,,,FR,+33 3 20 72 67 57,,,Renault,Q6686
00018225_001-dacia,renault,MARCQ AUTO,,MARCQ EN BAROEUL,,,FR,+33 3 20 72 67 57,,,Dacia,Q27460
00018228_001-renault,renault,GARAGE LACOCHE,,MARCQ EN BAROEUL,,,FR,+33 3 20 55 24 30,,,Renault,Q6686
00018228_001-dacia,renault,GARAGE LACOCHE,,MARCQ EN BAROEUL,,,FR,+33 3 20 55 24 30,,,Dacia,Q27460
https://www.sixt.co.uk/car-hire/france/lille/lille-marcq-en-baroeul/,sixt,Car Hire Marcq-en-Baroeul | SIXT rent a car,,Marcq en Baroeul,,,FR,,https://www.sixt.co.uk/car-hire/france/lille/lille-marcq-en-baroeul/,Mo-Fr 07:00-19:00; Sa 08:00-13:00; Su 09:00-13:00,SIXT,Q705664
NF064018,totalenergies,RELAIS MARCQ EN BAR. CROISE LAROCHE,,MARCQ EN BAROEUL,,,FR,+33 3 20 72 14 30,https://store.totalenergies.fr/en_EN/NF064018,Mo-Sa 07:00-21:00; Su 08:00-21:00,TotalEnergies,Q154037
NF088605,totalenergies,RELAIS MARCQ-EN-BAROEUL,,MARCQ EN BAROEUL,,,FR,+33 3 20 20 74 13,https://store.totalenergies.fr/en_EN/NF088605,Mo-Sa 07:00-19:30,Total Access,Q154037
,visa,,,MARCQ EN BAROEUL,,,FR,,,,,
,visa,,,MARCQ EN BAROEUL,,,FR,,,,,
,visa,,,MARCQ EN BAROEUL,,,FR,,,,,
,visa,,,MARCQ EN BAROEUL,,,FR,,,,,
,visa,,,MARCQ BAROEUL,,,FR,,,,,
,visa,,,MARCQ EN BAROEUL,,,FR,,,,,
,visa,,,MARCQ EN BAROEUL,,,FR,,,,,
,visa,,,MARCQ EN BAROEUL,,,FR,,,,,
,visa,,,MARCQ EN BAROEUIL,,,FR,,,,,
,visa,,,MARCQ EN BAROEUL,,,FR,,,,,
,visa,,,MARCQ EN BAROEUL,,,FR,,,,,
,visa,,,MARCQ-EN-BAROEUL,,,FR,,,,,
,visa,,,MARCQ-EN-BAROEUL,,,FR,,,,,
,visa,,,MARCQ-EN BAROEUL,,,FR,,,,,
,visa,,,MARCQ EN BAROEUL,,,FR,,,,,
,visa,,,MARCQ-EN-BAROEUL,,,FR,,,,,
,visa,,,MARCQ EN BAROEUL,,,FR,,,,,
,visa,,,MARCQ EN BAROEUL,,,FR,,,,,
,visa,,,MARCQ EN BAROEUL,,,FR,,,,,
,visa,,,MARCQ-EN-BAROEUL,,,FR,,,,,
,visa,,,MARCQ-EN-BAROEUL,,,FR,,,,,
