Ref,Spider,Name,Address,City,State,Zipcode,Country,Phone,Website,Hours,Brand,WikiData
72059856,moneygram,BANGLADESH KRISHI BANK - #207 - SHARIATP,,SHARIATPUR,,,BD,+880 1730-708898,,24/7,MoneyGram,Q1944412
72059869,moneygram,BANGLADESH KRISHI BANK - #208 - SHARIATP,,SHARIATPUR,,,BD,+880 1730-708896,,24/7,MoneyGram,Q1944412
72059872,moneygram,BANGLADESH KRISHI BANK - #209 - SHARIATP,,SHARIATPUR,,,BD,+880 1730-708888,,24/7,MoneyGram,Q1944412
72059885,moneygram,BANGLADESH KRISHI BANK - #210 - SHARIATP,,SHARIATPUR,,,BD,+880 1730-708899,,24/7,MoneyGram,Q1944412
72059898,moneygram,BANGLADESH KRISHI BANK - #211 - SHARIATP,,SHARIATPUR,,,BD,+880 1730-708894,,24/7,MoneyGram,Q1944412
72059908,moneygram,BANGLADESH KRISHI BANK - #212 - SHARIATP,,SHARIATPUR,,,BD,+880 1730-708889,,24/7,MoneyGram,Q1944412
72059911,moneygram,BANGLADESH KRISHI BANK - #213 - SHARIATP,,SHARIATPUR,,,BD,+880 1730-708893,,24/7,MoneyGram,Q1944412
72059924,moneygram,BANGLADESH KRISHI BANK - #214 - SHARIATP,,SHARIATPUR,,,BD,+880 1730-708895,,24/7,MoneyGram,Q1944412
72059937,moneygram,BANGLADESH KRISHI BANK - #215 - SHARIATP,,SHARIATPUR,,,BD,+880 1730-708884,,24/7,MoneyGram,Q1944412
72059940,moneygram,BANGLADESH KRISHI BANK - #216 - SHARIATP,,SHARIATPUR,,,BD,+880 6023-56134,,24/7,MoneyGram,Q1944412
72059953,moneygram,BANGLADESH KRISHI BANK - #217 - SHARIATP,,SHARIATPUR,,,BD,+880 1730-708891,,24/7,MoneyGram,Q1944412
72059966,moneygram,BANGLADESH KRISHI BANK - #218 - SHARIATP,,SHARIATPUR,,,BD,+880 1730-708885,,24/7,MoneyGram,Q1944412
72059979,moneygram,BANGLADESH KRISHI BANK - #219 - SHARIATP,,SHARIATPUR,,,BD,+880 1730-708897,,24/7,MoneyGram,Q1944412
72059982,moneygram,BANGLADESH KRISHI BANK - #220 - SHARIATP,,SHARIATPUR,,,BD,+880 1730-708890,,24/7,MoneyGram,Q1944412
72059995,moneygram,BANGLADESH KRISHI BANK - #221 - SHARIATP,,SHARIATPUR,,,BD,+880 1730-708892,,24/7,MoneyGram,Q1944412
72060007,moneygram,BANGLADESH KRISHI BANK - #222 - SHARIATP,,SHARIATPUR,,,BD,+880 1730-708887,,24/7,MoneyGram,Q1944412
72060010,moneygram,BANGLADESH KRISHI BANK - #223 - SHARIATP,,SHARIATPUR,,,BD,+880 1730-708898,,24/7,MoneyGram,Q1944412
72060023,moneygram,BANGLADESH KRISHI BANK - #224 - SHARIATP,,SHARIATPUR,,,BD,+880 1755-510970,,24/7,MoneyGram,Q1944412
72324950,moneygram,SHAHJALAL ISLAMI BANK LIMITED - #4069 -,,SHARIATPUR,,,BD,+880 1755-556426,,Mo-Th 10:00-18:00; Fr 00:00-24:00; Sa 10:00-15:00; Su 10:00-18:00,MoneyGram,Q1944412
72418167,moneygram,EXIM BANK LTD - #63127 - SHARIATPUR - SA,,SHARIATPUR,,,BD,+880 1712-822540,,Mo-Th 10:00-18:00; Fr 00:00-24:00; Sa 10:00-15:00; Su 10:00-18:00,MoneyGram,Q1944412
68167503,moneygram,JBL - SHARIATPUR-0489,,SHARIATPUR SADAR,,,BD,+880 601-61546,,24/7,MoneyGram,Q1944412
68910637,moneygram,AIBL - #116 - KAZIRHAT,,SHARIATPUR,,,BD,+880 1750-024499,,24/7,MoneyGram,Q1944412
72935310,moneygram,DUTCH-BANGLA BANK LIMITED - SHARIATPUR B,,SHARIATPUR,,,BD,+880 1810-025602,,Mo-Th 09:30-17:00; Fr-Sa 00:00-24:00; Su 09:30-17:00,MoneyGram,Q1944412
68845456,moneygram,PBL - NARIA SME KRISHI BRANCH,,SHARIATPUR,,,BD,+880 1917-704749,,Mo-Th 09:00-18:00; Fr 00:00-24:00; Sa-Su 09:00-18:00,MoneyGram,Q1944412
68843296,moneygram,PBL - SHARIATPUR TOWN BRANCH,,SHARIATPUR,,,BD,+880 1714-016087,,Mo-Th 09:00-18:00; Fr 00:00-24:00; Sa-Su 09:00-18:00,MoneyGram,Q1944412
73270320,moneygram,BRAC BANK LTD - #22984 - SHARIATPUR - SH,,SHARIATPUR,,,BD,+880 1712-153700,,24/7,MoneyGram,Q1944412
69518452,moneygram,SIBL - ANGARIA BAZAR BRANCH,,SHARIATPUR,,,BD,+880 1710-030293,,24/7,MoneyGram,Q1944412
73995919,moneygram,IFIC BANK - #451092 - SHARIATPUR BRANCH-,,SHARIATPUR,,,BD,+880 9666-716250,,Mo-Th 10:00-18:00; Fr-Sa 00:00-24:00; Su 10:00-17:00,MoneyGram,Q1944412
69947803,moneygram,NBL - SHARIATPUR - ANGARIA BRANCH,,SHARIATPUR,,,BD,+880 1730-330300,,24/7,MoneyGram,Q1944412
74558229,moneygram,BANK ASIA AGENT BANKING - SHARIATPUR - B,,SHARIATPUR,,,BD,+880 1789-999910,,Mo-Th 09:30-17:00; Fr-Sa 00:00-24:00; Su 09:30-17:00,MoneyGram,Q1944412
75001283,moneygram,PRANTIK SEBA - #3166 - SHARIATPUR,,SHARIATPUR,,,BD,+880 1716-036932,,Mo-Su 08:00-20:00,MoneyGram,Q1944412
65018639,moneygram,IBBL -  SHARIATPUR   BRANCH,,SHARIATPUR,,,BD,+880 1714-041437,,24/7,MoneyGram,Q1944412
65017083,moneygram,IBBL - DAMODYA   BRANCH,,SHARIATPUR,,,BD,3425964,,24/7,MoneyGram,Q1944412
65239573,moneygram,AGRANI BANK,,SHARIATPUR,,,BD,2356216,,Mo-Th 09:00-16:00; Fr 00:00-24:00; Sa-Su 09:00-16:00,MoneyGram,Q1944412
65239609,moneygram,AGRANI BANK,,SHARIATPUR,,,BD,2756008,,Mo-Th 09:00-16:00; Fr 00:00-24:00; Sa-Su 09:00-16:00,MoneyGram,Q1944412
65239612,moneygram,AGRANI BANK,,SHARIATPUR,,,BD,+880 601-59122,,Mo-Th 09:00-16:00; Fr 00:00-24:00; Sa-Su 09:00-16:00,MoneyGram,Q1944412
65239719,moneygram,AGRANI BANK,,SHARIATPUR,,,BD,+880 601-59146,,Mo-Th 09:00-16:00; Fr 00:00-24:00; Sa-Su 09:00-16:00,MoneyGram,Q1944412
65239777,moneygram,AGRANI BANK,,SHARIATPUR,,,BD,+880 601-55642,,Mo-Th 09:00-16:00; Fr 00:00-24:00; Sa-Su 09:00-16:00,MoneyGram,Q1944412
66892430,moneygram,EXIM - SHARIATPUR - NARIA BR,,SHARIATPUR,,,BD,+880 1711-224931,,24/7,MoneyGram,Q1944412
67069903,moneygram,MERCANTILE BANK LIMITED - #138 - SHARIAT,,SHARIATPUR,,,BD,+880 1713-384497,,24/7,MoneyGram,Q1944412
67122507,moneygram,MERCANTILE BANK LIMITED - #166 - DAMUDYA,,SHARIATPUR,,,BD,+880 6023-56204,,24/7,MoneyGram,Q1944412
67218055,moneygram,NBL - Kartikpur Branch,,SHARIATPUR,,,BD,+880 1730-329007,,24/7,MoneyGram,Q1944412
67218712,moneygram,NBL - Bhojeshwar SME Service Centre,,SHARIATPUR,,,BD,+880 1730-319993,,24/7,MoneyGram,Q1944412
67219122,moneygram,NBL - Naria Branch,,SHARIATPUR,,,BD,+880 1713-336385,,24/7,MoneyGram,Q1944412
67219287,moneygram,NBL - Gharishar Branch,,SHARIATPUR,,,BD,+880 1730-729170,,24/7,MoneyGram,Q1944412
67219313,moneygram,NBL - Bhedergonj Branch,,SHARIATPUR,,,BD,+880 1730-729172,,24/7,MoneyGram,Q1944412
67219326,moneygram,NBL - Kazirhat Branch,,SHARIATPUR,,,BD,+880 1755-538434,,24/7,MoneyGram,Q1944412
67219290,moneygram,NBL - Shariatpur Branch,,SHARIATPUR,,,BD,+880 1730-738362,,24/7,MoneyGram,Q1944412
67497915,moneygram,NCC - NARIA SME SERVICE CENTRE,,SHARIATPUR,,,BD,+880 1758-175707,,24/7,MoneyGram,Q1944412
67430079,moneygram,FSIBL - Noria Branch,,SHARIATPUR,,,BD,26168547,,24/7,MoneyGram,Q1944412
67500776,moneygram,IBBL - MAA COMPLEX   BRANCH,,SHARIATPUR,,,BD,+880 1755-629469,,24/7,MoneyGram,Q1944412
67430066,moneygram,FSIBL - Damodya Branch,,SHARIATPUR,,,BD,21711002167,,24/7,MoneyGram,Q1944412
67646669,moneygram,NBL - GOSHAIRHAT BRANCH,,SHARIATPUR,,,BD,+880 1712-081000,,24/7,MoneyGram,Q1944412
67771709,moneygram,NBL - ZH SIKDER UNIVERSITY OF SCIENCE &,,SHARIATPUR,,,BD,+880 1730-339807,,24/7,MoneyGram,Q1944412
