Ref,Spider,Name,Address,City,State,Zipcode,Country,Phone,Website,Hours,Brand,WikiData
5051,autozone_us,AutoZone Auto Parts Colville,,Colville,WA,,US,+1 509-563-6031,https://www.autozone.com/locations/wa/colville/1000-n-highway-395.html,Mo-Sa 07:30-20:00; Su 09:00-19:00,AutoZone,Q4826087
175018,bluerhino,Super 1 Foods - Colville #135,,Colville,WA,,US,+1 509-684-9788,,,Blue Rhino,Q65681213
2040272,chase_us,Colville - New branch,,Colville,WA,,US,+1 509-684-5284,https://locator.chase.com/wa/colville/298-s-main-st-Branch-10120,Mo-Fr 09:00-17:00,Chase,Q524629
12293286,chase_us,DRIVE UP KIOSK OUTSIDE TELLER L - 160198,,COLVILLE,WA,,US,+1 800-935-9935,https://locator.chase.com/wa/colville/298-s-main-st-ATM-WA2634,,Chase,Q524629
36647,chevrolet,COUNTRY CHEVROLET,,COLVILLE,WA,,US,+1 509-684-8400,https://www.countrychevy.com,Mo-Fr 08:00-18:00; Sa 09:00-17:00,Chevrolet,Q29570
93867,citi,ATM WASHINGTON FEDERAL BANK,,Coville,WA,,US,,,,Citibank,Q857063
70235409,cricket_wireless,Cricket Wireless Authorized Retailer,,Colville,WA,,US,+1 509-640-8936,https://www.cricketwireless.com/stores/ll/US/WA/Colville/120-Ponderosa-Rd,Mo-Fr 10:00-19:00; Sa 10:00-18:00; Su 11:00-16:00,Cricket Wireless,Q5184987
https://www.edwardjones.com/us-en/financial-advisor/ron-eck,edwardjones,Ron Eck,,Colville,WA,,US,+1 509-685-7326,https://www.edwardjones.com/us-en/financial-advisor/ron-eck,Mo-Fr 08:00-17:00,Edward Jones,Q5343830
517,empres_us,Buena Vista Healthcare,,Colville,WA,,US,+1 509-684-4539,https://www.empres.com/location/buena-vista-healthcare/,,EmpRes,Q123370276
https://local.fedex.com/#25476712,fedex,,,Colville,WA,,US,+1 800-463-3339,https://local.fedex.com/en-us/wa/colville/gegbb,,FedEx,Q459477
https://local.fedex.com/#27760151,fedex,FedEx Authorized ShipCenter,,Colville,WA,,US,+1 509-684-2050,https://local.fedex.com/en-us/wa/colville/00k8t,,FedEx,Q459477
6135,fresenius_kidney_care_us,Fresenius Kidney Care Colville WA,,Colville,WA,,US,+1 800-881-5101,https://www.freseniuskidneycare.com/dialysis-centers/washington/6135,Mo 06:00-17:00; Tu 07:00-16:30; We 06:00-17:00; Th 07:00-16:30; Fr 06:00-17:00; Sa 07:00-16:30,,
e083e06f-458a-e111-8dde-005056934050,goodwill,168 N Main St Store,,Colville,WA,,US,+1 509-684-6162,https://www.goodwill.org/locator/location/?store=ZTA4M2UwNmYtNDU4YS1lMTExLThkZGUtMDA1MDU2OTM0MDUw&lat=NDguNTQ1MTI=&lng=LTExNy45MDU4OQ==,,Goodwill,Q5583655
25745,h_r_block,H&R Block,,Colville,WA,,US,+1 509-563-6047,https://www.hrblock.com/local-tax-offices/washington/colville/526-s-main-st/25745/,,H&R Block,Q5627799
https://locations.kfc.com/#11247276,kfc,Chicken Nuggets Near Colville,,Colville,WA,,US,,https://locations.kfc.com/wa/colville/1520-n-highway-395/chickennugget,Mo-Th 10:00-22:00; Fr-Sa 10:00-23:00; Su 10:00-22:00,KFC,Q524757
https://locations.oreillyauto.com/wa/colville/check-engine-light-testing-3733.html,oreilly,Your Colville O'Reilly Auto Parts Store,,Colville,WA,,US,+1 509-684-1181,https://locations.oreillyauto.com/wa/colville/check-engine-light-testing-3733.html,Mo-Sa 07:30-21:00; Su 08:00-20:00,O'Reilly Auto Parts,Q7071951
https://locations.oreillyauto.com/wa/colville/wiper-installation-3733.html,oreilly,Your Colville O'Reilly Auto Parts Store,,Colville,WA,,US,+1 509-684-1181,https://locations.oreillyauto.com/wa/colville/wiper-installation-3733.html,Mo-Sa 07:30-21:00; Su 08:00-20:00,O'Reilly Auto Parts,Q7071951
https://locations.oreillyauto.com/wa/colville/autopartes-3733.html,oreilly,Tu tienda O'Reilly Auto Parts en Colville,,Colville,WA,,US,+1 509-684-1181,https://locations.oreillyauto.com/wa/colville/autopartes-3733.html,Mo-Sa 07:30-21:00; Su 08:00-20:00,O'Reilly Auto Parts,Q7071951
https://locations.oreillyauto.com/wa/colville/battery-testing-3733.html,oreilly,Your Colville O'Reilly Auto Parts Store,,Colville,WA,,US,+1 509-684-1181,https://locations.oreillyauto.com/wa/colville/battery-testing-3733.html,Mo-Sa 07:30-21:00; Su 08:00-20:00,O'Reilly Auto Parts,Q7071951
https://locations.papamurphys.com/#15430555,papamurphys,Pizza Takeout & Delivery,,Colville,WA,,US,+1 509-684-7662,https://locations.papamurphys.com/wa/colville/128-ponderosa-road,Mo-Su 10:00-21:00,Papa Murphy's,Q7132349
haney-lumber-and-supply-33304,ppgpaints,HANEY LUMBER & SUPPLY,,"Colville, ",WA,,US,+1 509-684-2150,https://www.ppgpaints.com/store-locator/us/washington/colville-paint-stores/haney-lumber-and-supply-33304,,PPG Paints,Q83891559
https://www.providence.org/locations/wa/mount-carmel-hospital,providence_us,Mount Carmel Hospital,,Colville,WA,,US,+1 509-685-5100,https://www.providence.org/locations/wa/mount-carmel-hospital,,Providence,Q7252430
https://www.providence.org/locations/wa/northeast-washington-medical-group-garden-homes,providence_us,Northeast Washington Medical Group Garden Homes,,Colville,WA,,US,+1 509-684-3701,https://www.providence.org/locations/wa/northeast-washington-medical-group-garden-homes,Mo-Fr 08:00-17:00,Providence,Q7252430
https://www.providence.org/locations/wa/cardiology-colville,providence_us,Cardiology Colville,,Colville,WA,,US,+1 509-455-8820,https://www.providence.org/locations/wa/cardiology-colville,,Providence,Q7252430
https://www.providence.org/locations/wa/mount-carmel-hospital/outpatient-day-surgery,providence_us,Outpatient Day Surgery,,Colville,WA,,US,+1 509-685-5100,https://www.providence.org/locations/wa/mount-carmel-hospital/outpatient-day-surgery,,Providence,Q7252430
https://www.providence.org/locations/wa/mount-carmel-hospital/orthopedics,providence_us,Orthopedics,,Colville,WA,,US,+1 509-685-5100,https://www.providence.org/locations/wa/mount-carmel-hospital/orthopedics,,Providence,Q7252430
https://www.providence.org/locations/wa/mount-carmel-hospital/maternity,providence_us,Maternity,,Colville,WA,,US,+1 509-685-5100,https://www.providence.org/locations/wa/mount-carmel-hospital/maternity,,Providence,Q7252430
https://www.providence.org/locations/wa/mount-carmel-hospital/laboratory,providence_us,Laboratory,,Colville,WA,,US,+1 509-685-5100,https://www.providence.org/locations/wa/mount-carmel-hospital/laboratory,,Providence,Q7252430
https://www.providence.org/locations/wa/mount-carmel-hospital/emergency-and-trauma-services,providence_us,Emergency and Trauma Services,,Colville,WA,,US,+1 509-685-5100,https://www.providence.org/locations/wa/mount-carmel-hospital/emergency-and-trauma-services,,Providence,Q7252430
https://www.providence.org/locations/wa/mount-carmel-hospital/critical-care,providence_us,Critical Care,,Colville,WA,,US,+1 509-685-5100,https://www.providence.org/locations/wa/mount-carmel-hospital/critical-care,,Providence,Q7252430
https://www.providence.org/locations/wa/mount-carmel-hospital/cardiovascular-and-nuclear-medicine,providence_us,Cardiovascular and Nuclear Medicine,,Colville,WA,,US,+1 509-685-5100,https://www.providence.org/locations/wa/mount-carmel-hospital/cardiovascular-and-nuclear-medicine,Mo-Fr 08:00-16:00,Providence,Q7252430
https://www.providence.org/locations/wa/mount-carmel-hospital/acute-care,providence_us,Acute Care,,Colville,WA,,US,+1 509-685-5100,https://www.providence.org/locations/wa/mount-carmel-hospital/acute-care,,Providence,Q7252430
https://www.providence.org/credena-health/locations/colville,providence_us,Credena Health Pharmacy Colville,,Colville,WA,,US,+1 509-684-7727,https://www.providence.org/credena-health/locations/colville,Mo-Fr 08:30-17:00,Providence,Q7252430
https://www.providence.org/locations/wa/providence-northeast-washington-medical-group-colville,providence_us,Northeast Washington Medical Group Colville,,Colville,WA,,US,+1 509-684-3701,https://www.providence.org/locations/wa/providence-northeast-washington-medical-group-colville,Mo-Fr 08:00-17:00,Providence,Q7252430
https://www.providence.org/locations/wa/mount-carmel-hospital/diagnostic-imaging,providence_us,Diagnostic Imaging,,Colville,WA,,US,+1 509-685-5280,https://www.providence.org/locations/wa/mount-carmel-hospital/diagnostic-imaging,Mo-Fr 07:00-18:00,Providence,Q7252430
https://www.providence.org/locations/wa/mount-carmel-hospital/sleep-center,providence_us,Sleep Center,,Colville,WA,,US,+1 509-685-5572,https://www.providence.org/locations/wa/mount-carmel-hospital/sleep-center,,Providence,Q7252430
https://www.providence.org/locations/wa/mount-carmel-hospital/rehabilitation,providence_us,Rehabilitation,,Colville,WA,,US,+1 509-685-5362,https://www.providence.org/locations/wa/mount-carmel-hospital/rehabilitation,Mo-Fr 07:15-17:30,Providence,Q7252430
https://local.pharmacy.safeway.com/#5673671,safeway,Safeway Pharmacy,,Colville,WA,,US,+1 509-684-8481,https://local.pharmacy.safeway.com/safeway/wa/colville/391-n-main-st.html,,Safeway,Q1508234
https://local.safeway.com/#5604609,safeway,Safeway,,Colville,WA,,US,+1 509-684-3782,https://local.safeway.com/safeway/wa/colville/391-n-main-st.html,,Safeway,Q1508234
https://local.fuel.safeway.com/#9073490,safeway,Safeway Fuel Station,,Colville,WA,,US,+1 509-684-3782,https://local.fuel.safeway.com/safeway/wa/colville/391-n-main-st.html,Mo-Su 07:00-22:00,Safeway,Q1508234
1354,shellrecharge,Colville City Hall,,Colville,WA,,US,,,,Shell Recharge,Q105883058
1174,shellrecharge,City of Colville,,Colville,WA,,US,,,,Shell Recharge,Q105883058
https://restaurants.subway.com/#14905394,subway,Subway,,Colville Stevens,WA,,US,+1 509-684-1585,https://restaurants.subway.com/united-states/wa/colville/148-ponderosa-rd,Mo-Sa 09:00-20:30; Su 10:00-20:00,Subway,Q244457
https://locations.tacobell.com/#6146140,taco_bell,Taco Bell,,Colville,WA,,US,+1 509-684-2112,https://locations.tacobell.com/wa/colville/1520-n--highway-395.html,,Taco Bell,Q752941
6394,taco_time,Taco Time Store 6394,,Colville,WA,,US,+1 509-684-8640,https://www.tacotime.com/stores/6394,,Taco Time,Q7673969
108G,tmobile_us,US 395 & Canning Dr,,Colville,WA,,US,+1 509-563-0062,https://www.t-mobile.com/store-locator/wa/colville/us-395-canning-dr,,T-Mobile,Q3511885
027648,uhaul,Sun Rental Center,380 S Main St,Colville,WA,,US,+1 509-563-4045,,Mo-Fr 00:00-17:00; Sa 00:00-16:00,U-Haul,Q7862902
4352,upsstore,Colville,1250 N Hwy,Colville,WA,,US,+1 509-684-3340,https://locations.theupsstore.com/wa/colville/1250-n-hwy,,UPS Store,Q7771029
1358824,usps,COLVILLE,,COLVILLE,WA,,US,+1 509-684-2241,,Mo-Fr 08:30-17:00; Sa 10:00-12:00,United States Postal Service,Q668687
9911400006,usps_collection_boxes,USPS COLLECTION BOX - BLUE BOX,1250 NORTH HIGHWAY,COLVILLE,WA,,US,,,,United States Postal Service,Q668687
9911400004,usps_collection_boxes,USPS COLLECTION BOX - BLUE BOX,982 S MAIN ST,COLVILLE,WA,,US,,,,United States Postal Service,Q668687
9911400005,usps_collection_boxes,USPS COLLECTION BOX - BLUE BOX,810 NORTH HIGHWAY,COLVILLE,WA,,US,,,,United States Postal Service,Q668687
9911400007,usps_collection_boxes,USPS COLLECTION BOX - BLUE BOX,298 S MAIN ST,COLVILLE,WA,,US,,,,United States Postal Service,Q668687
9911400010,usps_collection_boxes,USPS COLLECTION BOX - BLUE BOX,204 S OAK ST,COLVILLE,WA,,US,,,,United States Postal Service,Q668687
9911400008,usps_collection_boxes,USPS COLLECTION BOX - PO LOBBY,204 S OAK ST,COLVILLE,WA,,US,,,,United States Postal Service,Q668687
9911400012,usps_collection_boxes,USPS COLLECTION BOX - BLUE BOX,204 S OAK ST,COLVILLE,WA,,US,,,,United States Postal Service,Q668687
9911400014,usps_collection_boxes,USPS COLLECTION BOX - PO LOBBY,204 S OAK ST,COLVILLE,WA,,US,,,,United States Postal Service,Q668687
9911400003,usps_collection_boxes,USPS COLLECTION BOX - BLUE BOX,391 N MAIN ST,COLVILLE,WA,,US,,,,United States Postal Service,Q668687
,visa,,,COLVILLE,WA,,US,,,,,
,visa,,,COLVILLE,WA,,US,,,,,
,visa,,,COLVILLE,WA,,US,,,,,
,visa,,,COLVILLE,WA,,US,,,,,
,visa,,,COLVILLE,WA,,US,,,,,
,visa,,,COLVILLE,WA,,US,,,,,
,visa,,,COLVILLE,WA,,US,,,,,
,visa,,,COLVILLE,WA,,US,,,,,
,visa,,,COLVILLE,WA,,US,,,,,
,visa,,,COLVILLE,WA,,US,,,,,
,visa,,,COLVILLE,WA,,US,,,,,
,visa,,,COLVILLE,WA,,US,,,,,
,visa,,,COLVILLE,WA,,US,,,,,
,visa,,,COLVILLE,WA,,US,,,,,
,visa,,,COLVILLE,WA,,US,,,,,
0197bd49fdbbcde2797187b5180b8f86,western_union,WALMART #002016,,Colville,WA,,US,+1 509-684-3209,https://location.westernunion.com/us/wa/colville/0197bd49fdbbcde2797187b5180b8f86,Mo-Su 07:00-21:00,Western Union,Q861042
