Ref,Spider,Name,Address,City,State,Zipcode,Country,Phone,Website,Hours,Brand,WikiData
3501,action,Cottbus,,Cottbus,,,DE,,https://www.action.com/de-de/laden/cottbus/,,Action,Q2634111
https://vertretung.allianz.de/reiner.ernst/,allianz_de,Allianz Versicherung Reiner Ernst HAUPTVERTRETUNG,,Cottbus,,,DE,+49 355 710062,https://vertretung.allianz.de/reiner.ernst/,"Mo 10:00-13:00; Tu 10:00-13:00,14:00-18:00; Th 10:00-13:00,14:00-18:00; Fr 10:00-13:00",Allianz SE,Q487292
https://vertretung.allianz.de/robert.reinke/,allianz_de,Allianz Versicherung Robert Reinke HAUPTVERTRETUNG,,Cottbus,,,DE,+49 355 49498322,https://vertretung.allianz.de/robert.reinke/,"Mo 09:00-12:00,13:00-16:00; Tu 09:00-12:00,13:00-18:00; We 09:00-12:00,13:00-16:00; Th 09:00-12:00,13:00-18:00; Fr 09:00-15:00",Allianz SE,Q487292
https://vertretung.allianz.de/uwe.reinhold/,allianz_de,Allianz Versicherung Uwe Reinhold GENERALVERTRETUNG,,Cottbus,,,DE,+49 355 878080,https://vertretung.allianz.de/uwe.reinhold/,"Mo 10:00-13:00; Tu 10:00-13:00,15:00-18:00; Th 10:00-13:00,15:00-18:00; Fr 10:00-13:00",Allianz SE,Q487292
04119_4,bmw_group,Wernecke GmbH,,Cottbus,,,DE,+49 355 494490,https://www.bmw-motorrad.de/wernecke-cottbus,,BMW,Q26678
51.76890114.334706,dpd_de,dieDruckerProfis,,Cottbus,,,DE,,,,DPD,Q541030
51.77309614.340679,dpd_de,Motorrad Konzack,,Cottbus,,,DE,,,,DPD,Q541030
51.775393114.3451552,dpd_de,AWG Mode Center,,Cottbus,,,DE,,,,DPD,Q541030
51.78335514.317086,dpd_de,Adler Modemärkte GmbH,,Cottbus,,,DE,,,,DPD,Q541030
100150638,exxonmobil,Esso Station Cottbus,,COTTBUS,,,DE,+49 355 870086,https://www.esso.de/de-de/find-station/esso-cottbus-essostationcottbus-100150638,24/7,Esso,Q867662
FordGK1SA90  DEU,ford,Frahnow GmbH - Cottbus,,Cottbus,,,DE,+49 355 2901320,ford-frahnow-cottbus.de,,Ford,Q44294
https://www.fressnapf.de/stores/fressnapf-xxl-cottbus/,fressnapf_de,Fressnapf XXL Cottbus,,Cottbus,,,DE,+49 355 4936978,https://www.fressnapf.de/stores/fressnapf-xxl-cottbus/,Mo-Sa 09:00-20:00,Fressnapf,Q875796
flotte-brandenburg:Stadtteilladen Neu-Schmellwitz,gbfs,Stadtteilladen Neu-Schmellwitz,,Cottbus,,,DE,,http://www.flotte-brandenburg.de/,,fLotte Brandenburg,
2760915783,gls_de,die DruckerProfis,,Cottbus,,,DE,+49 355 4777100,,Mo-Tu 09:00-16:00; We 09:00-14:30; Th 09:00-16:00; Fr 09:00-15:30,General Logistics Systems,Q46495823
2760914657,gls_de,expert ESC Cottbus GmbH,,Cottbus,,,DE,+49 355 58807316,,Mo-Sa 09:30-18:00,General Logistics Systems,Q46495823
10326,jack_and_jones,Cottbus - Karl-Liebknecht-str.,,Cottbus,,,DE,+49 355 7843742,,,Jack & Jones,Q6077665
DE3160,kaufland,Kaufland Cottbus-Schmellwitz,,Cottbus,,,DE,+49 355 8820,https://filiale.kaufland.de/service/filiale/frankfurt-oder-spitzkrug-multi-center-cottbus-schmellwitz-cottbus-center-3160.html,Mo-Sa 06:00-22:00,Kaufland,Q685967
6235,kik,KiK,,Cottbus,,,DE,+49 355 4866860,,Mo-Sa 09:00-19:00,KiK,Q883965
6421,kik,KiK,,Cottbus,,,DE,+49 355 4837728,,Mo-Sa 09:00-19:00,KiK,Q883965
1745,lidl_de,Brunschwig,,Cottbus,,,DE,,,Mo-Sa 07:00-21:00,Lidl,Q151954
27611402_001-renault,renault,Autohaus Härtel & Söhne GmbH,,Cottbus,,,DE,+49 355 48642790,,,Renault,Q6686
27611402_001-dacia,renault,Autohaus Härtel & Söhne GmbH,,Cottbus,,,DE,+49 355 48642790,,,Dacia,Q27460
https://www.rossmann.de/de/filialen/brandenburg/cottbus/sielower-chaussee-38.html,rossmann_de,Rossmann Drogerie-Markt Sielower Chaussee 38,,Cottbus,,,DE,+49 355 87549996,https://www.rossmann.de/de/filialen/brandenburg/cottbus/sielower-chaussee-38.html,Mo-Sa 08:00-20:00,Rossmann,Q316004
https://www.rossmann.de/de/filialen/brandenburg/cottbus/gerhart-hauptmann-str--15.html,rossmann_de,Rossmann Drogerie-Markt Gerhart-Hauptmann-Str. 15,,Cottbus,,,DE,+49 355 4944086,https://www.rossmann.de/de/filialen/brandenburg/cottbus/gerhart-hauptmann-str--15.html,Mo-Sa 08:00-20:00,Rossmann,Q316004
111944,sparkasse_de,Sparkasse Spree-Neiße Geldautomat Zuschka,,Cottbus,,,DE,+49 355 874992,https://www.sparkasse.de/standorte/geldautomaten/sparkasse-spree-neisse-geldautomat-zuschka-111944,Mo-Su 06:00-24:00,Sparkasse,Q13601825
35367,sparkasse_de,Sparkasse Spree-Neiße Geschäftsstelle Zuschka,,Cottbus,,,DE,+49 355 874992,https://www.sparkasse.de/standorte/filialen/sparkasse-spree-neisse-geschaeftsstelle-zuschka-35367,"Mo-We 08:30-12:30,13:00-16:00; Th 08:30-12:30,13:00-18:00; Fr 08:30-12:30",Sparkasse,Q13601825
20057,sparkasse_de,Sparkasse Spree-Neiße Geldautomat Am TKC,,Cottbus,,,DE,+49 355 700356,https://www.sparkasse.de/standorte/geldautomaten/sparkasse-spree-neisse-geldautomat-am-tkc-20057,24/7,Sparkasse,Q13601825
5128,sparkasse_de,Sparkasse Spree-Neiße Geschäftsstelle Am TKC,,Cottbus,,,DE,+49 355 700356,https://www.sparkasse.de/standorte/filialen/sparkasse-spree-neisse-geschaeftsstelle-am-tkc-5128,"Mo-We 08:30-12:30,13:00-16:00; Th 08:30-12:30,13:00-18:00; Fr 08:30-12:30",Sparkasse,Q13601825
32662,sparkasse_de,Sparkasse Spree-Neiße Geldautomat Cottbus-Center,,Cottbus,,,DE,+49 355 872983,https://www.sparkasse.de/standorte/geldautomaten/sparkasse-spree-neisse-geldautomat-cottbus-center-32662,24/7,Sparkasse,Q13601825
5123,sparkasse_de,Sparkasse Spree-Neiße Geschäftsstelle Cottbus-Center,,Cottbus,,,DE,+49 355 872983,https://www.sparkasse.de/standorte/filialen/sparkasse-spree-neisse-geschaeftsstelle-cottbus-center-5123,"Mo-Fr 09:00-13:00,14:00-18:00",Sparkasse,Q13601825
https://toom.de/m/cottbus/,toom_baumarkt_de,toom Baumarkt in Cottbus,,Cottbus,,,DE,+49 355 3834260,https://toom.de/m/cottbus/,Mo-Sa 07:00-20:00,Toom Baumarkt,Q2442970
3713,valora,k kiosk,,Cottbus,,,DE,,,,k kiosk,Q60381703
https://www.vlh.de/bst/9822/Oeffnungszeiten.html,vhl_de,VLH-Beraterin Petra Schirgott in Cottbus,,Cottbus,,,DE,+49 355 870074,https://www.vlh.de/bst/9822/,,Vereinigte Lohnsteuerhilfe e.V.,Q15852617
https://www.vlh.de/bst/20862/Oeffnungszeiten.html,vhl_de,VLH-Berater Martin Rabes in Cottbus,,Cottbus,,,DE,+49 355 32494,https://www.vlh.de/bst/20862/,"Mo 09:00-12:00,14:00-16:00; We 09:00-12:00,14:00-16:00",Vereinigte Lohnsteuerhilfe e.V.,Q15852617
https://www.vlh.de/bst/1515/Oeffnungszeiten.html,vhl_de,VLH-Beraterin Andrea Pöllmann in Cottbus,,Cottbus,,,DE,+49 355 700550,https://www.vlh.de/bst/1515/,Mo-Tu 10:00-16:00; Th 10:00-16:00,Vereinigte Lohnsteuerhilfe e.V.,Q15852617
,visa,,,COTTBUS,,,DE,,,,,
,visa,,,COTTBUS,,,DE,,,,,
,visa,,,COTTBUS,,,DE,,,,,
,visa,,,COTTBUS,,,DE,,,,,
https://shops.vodafone.de/cottbus/gerhart-hauptmann-str.-15,vodafone_de,Vodafone-Shop,,Cottbus,,,DE,+49 355 87939969,https://shops.vodafone.de/cottbus/gerhart-hauptmann-str.-15,Mo-Fr 09:30-18:00; Sa 09:30-14:00,Vodafone,Q122141
https://shops.vodafone.de/cottbus/sielower-chaussee-38,vodafone_de,Vodafone-Shop,,Cottbus,,,DE,+49 355 75232928,https://shops.vodafone.de/cottbus/sielower-chaussee-38,Mo-Fr 09:30-18:00; Sa 09:30-13:00,Vodafone,Q122141
https://www.vr.de/standorte/C/vr-bank-lausitz-eg-11275.html,vr_bank,VR Bank Lausitz eG,,Cottbus,,,DE,+49 355 78330,https://www.vrblausitz.de,Mo 10:00-14:00; Tu 10:00-16:00; We 10:00-14:00; Th 10:00-16:00; Fr 10:00-13:00,,
https://www.vr.de/standorte/C/vr-bank-lausitz-eg-13795.html,vr_bank,VR Bank Lausitz eG,,Cottbus,,,DE,+49 355 78330,https://www.vrblausitz.de,"Mo 10:00-12:00; Tu 10:00-12:00,14:00-18:00; We 10:00-12:00; Th 10:00-12:00,14:00-16:00; Fr 10:00-12:00",,
