Ref,Spider,Name,Address,City,State,Zipcode,Country,Phone,Website,Hours,Brand,WikiData
20782,citi,HEB PABLO LYVAS,,Guadalupe,NUEVO LEON,,MX,+52 800 110 3990,,,Citibank,Q857063
20687,citi,SORIANA SANTA MARIA,,Monterrey,NUEVO LEON,,MX,+52 800 110 3990,,,Citibank,Q857063
20708,citi,7-ELEVEN SANTA ROSA,,Guadalupe,NUEVO LEON,,MX,+52 800 110 3990,,,Citibank,Q857063
20688,citi,SORIANA LA PASTORA,,Guadalupe,NUEVO LEON,,MX,+52 800 110 3990,,,Citibank,Q857063
,visa,,,BENITO JUAREZ,NUEVO LEON,,MX,,,,,
,visa,,,GUADALUPE,NUEVO LEON,,MX,,,,,
,visa,,,GUADALUPE,NUEVO LEON,,MX,,,,,
,visa,,,GUADALUPE,NUEVO LEON,,MX,,,,,
,visa,,,GUADALUPE,NUEVO LEON,,MX,,,,,
,visa,,,GUADALUPE,NUEVO LEON,,MX,,,,,
,visa,,,GUADALUPE,NUEVO LEON,,MX,,,,,
,visa,,,GUADALUPE,NUEVO LEON,,MX,,,,,
,visa,,,GUADALUPE,NUEVO LEON,,MX,,,,,
,visa,,,GUADALUPE,NUEVO LEON,,MX,,,,,
,visa,,,GUADALUPE,NUEVO LEON,,MX,,,,,
,visa,,,GUADALUPE,NUEVO LEON,,MX,,,,,
,visa,,,GUADALUPE,NUEVO LEON,,MX,,,,,
,visa,,,GUADALUPE,NUEVO LEON,,MX,,,,,
,visa,,,GUADALUPE,NUEVO LEON,,MX,,,,,
,visa,,,GUADALUPE,NUEVO LEON,,MX,,,,,
,visa,,,GUADALUPE,NUEVO LEON,,MX,,,,,
,visa,,,GUADALUPE,NUEVO LEON,,MX,,,,,
,visa,,,GUADALUPE,NUEVO LEON,,MX,,,,,
,visa,,,GUADALUPE,NUEVO LEON,,MX,,,,,
,visa,,,GUADALUPE,NUEVO LEON,,MX,,,,,
,visa,,,CIUDAD GUADALUPE,NUEVO LEON,,MX,,,,,
,visa,,,GUADALUPE,NUEVO LEON,,MX,,,,,
,visa,,,GUADALUPE,NUEVO LEON,,MX,,,,,
,visa,,,GUADALUPE,NUEVO LEON,,MX,,,,,
,visa,,,GUADALUPE,NUEVO LEON,,MX,,,,,
,visa,,,MONTERREY,NUEVO LEON,,MX,,,,,
,visa,,,GUADALUPE,NUEVO LEON,,MX,,,,,
,visa,,,GUADALUPE,NUEVO LEON,,MX,,,,,
,visa,,,GUADALUPE,NUEVO LEON,,MX,,,,,
,visa,,,GUADALUPE,NUEVO LEON,,MX,,,,,
,visa,,,GUADALUPE,NUEVO LEON,,MX,,,,,
,visa,,,CIUDAD GUADALUPE,NUEVO LEON,,MX,,,,,
,visa,,,GUADALUPE,NUEVO LEON,,MX,,,,,
,visa,,,GUADALUPE,NUEVO LEON,,MX,,,,,
,visa,,,CIUDAD GUADALUPE,NUEVO LEON,,MX,,,,,
,visa,,,GUADALUPE,NUEVO LEON,,MX,,,,,
,visa,,,GUADALUPE,NUEVO LEON,,MX,,,,,
,visa,,,GUADALUPE,NUEVO LEON,,MX,,,,,
eb68c21e797efc1c202169f629286118,western_union,OXXO RINCON DELASIERRAMTY,,Guadalupe,NUEVO LEON,,MX,+52 81 8389 2121,https://location.westernunion.com/mx/nuevo-leon/guadalupe/eb68c21e797efc1c202169f629286118,Mo-Su 08:00-22:00,Western Union,Q861042
9f05424d4d9a916c74814620634ac442,western_union,7ELEVEN COAHUILA 363,,Guadalupe,NUEVO LEON,,MX,+52 800 833 4700,https://location.westernunion.com/mx/nuevo-leon/guadalupe/9f05424d4d9a916c74814620634ac442,Mo-Su 06:00-22:00,Western Union,Q861042
b03759b512fc9b7126f1da4369b4e597,western_union,7ELEVEN COAHUILA 363,,Guadalupe,NUEVO LEON,,MX,+52 800 833 4700,https://location.westernunion.com/mx/nuevo-leon/guadalupe/b03759b512fc9b7126f1da4369b4e597,Mo-Su 06:00-22:00,Western Union,Q861042
378bdd4944085e0111a0b08216b0a572,western_union,AURRERA EXPRESS PLAZA AVANTE 3427,,Guadalupe,NUEVO LEON,,MX,+52 800 833 4700,https://location.westernunion.com/mx/nuevo-leon/guadalupe/378bdd4944085e0111a0b08216b0a572,Mo-Su 08:00-22:00,Western Union,Q861042
bd2d30e5a93e303d35ba03ff766441d6,western_union,AURRERA EXPRESS PRIV DE SAN CARLOS 3460,,Guadalupe,NUEVO LEON,,MX,+52 800 833 4700,https://location.westernunion.com/mx/nuevo-leon/guadalupe/bd2d30e5a93e303d35ba03ff766441d6,Mo-Su 08:00-22:00,Western Union,Q861042
e4a7718917915f1810c0aad25a4350a3,western_union,AURRERA EXPRESS PRIV DE SAN CARLOS 3460,,Guadalupe,NUEVO LEON,,MX,+52 800 833 4700,https://location.westernunion.com/mx/nuevo-leon/guadalupe/e4a7718917915f1810c0aad25a4350a3,Mo-Su 08:00-22:00,Western Union,Q861042
5ca4bba1376424bd6c2632e941f3dda6,western_union,AURRERA EXPRESS PRIV DE SAN CARLOS 3460,,Guadalupe,NUEVO LEON,,MX,+52 800 833 4700,https://location.westernunion.com/mx/nuevo-leon/guadalupe/5ca4bba1376424bd6c2632e941f3dda6,Mo-Su 08:00-22:00,Western Union,Q861042
74b5945b8f1322d80db8f7dd78077c8d,western_union,OXXO SAN CARLOS MTY,,Guadalupe,NUEVO LEON,,MX,+52 81 8389 2121,https://location.westernunion.com/mx/nuevo-leon/guadalupe/74b5945b8f1322d80db8f7dd78077c8d,Mo-Su 08:00-22:00,Western Union,Q861042
ab02b6856063a379e4aa56e669710699,western_union,OXXO SAN CARLOS MTY,,Guadalupe,NUEVO LEON,,MX,+52 81 8389 2121,https://location.westernunion.com/mx/nuevo-leon/guadalupe/ab02b6856063a379e4aa56e669710699,Mo-Su 08:00-22:00,Western Union,Q861042
8c1d875225de6697caf9e2d3ca28835c,western_union,OXXO SAN CARLOS MTY,,Guadalupe,NUEVO LEON,,MX,+52 81 8389 2121,https://location.westernunion.com/mx/nuevo-leon/guadalupe/8c1d875225de6697caf9e2d3ca28835c,Mo-Su 08:00-22:00,Western Union,Q861042
e4538f4ef9decbb8d8f40100ef60ea93,western_union,OXXO LOS LERMAS MTY,,Guadalupe,NUEVO LEON,,MX,+52 81 8389 2121,https://location.westernunion.com/mx/nuevo-leon/guadalupe/e4538f4ef9decbb8d8f40100ef60ea93,Mo-Su 08:00-22:00,Western Union,Q861042
8b34cd0a8220d3f13882353a7dac9a5c,western_union,OXXO LOS LERMAS MTY,,Guadalupe,NUEVO LEON,,MX,+52 81 8389 2121,https://location.westernunion.com/mx/nuevo-leon/guadalupe/8b34cd0a8220d3f13882353a7dac9a5c,Mo-Su 08:00-22:00,Western Union,Q861042
1ef16d99e376c4c68778c1f79f131172,western_union,OXXO LOS LERMAS MTY,,Guadalupe,NUEVO LEON,,MX,+52 81 8389 2121,https://location.westernunion.com/mx/nuevo-leon/guadalupe/1ef16d99e376c4c68778c1f79f131172,Mo-Su 08:00-22:00,Western Union,Q861042
1b605721654139bf2ff7311aeeeea4f1,western_union,7ELEVEN SABINOS Y OLMO 2010,,Guadalupe,NUEVO LEON,,MX,+52 800 833 4700,https://location.westernunion.com/mx/nuevo-leon/guadalupe/1b605721654139bf2ff7311aeeeea4f1,Mo-Su 06:00-22:00,Western Union,Q861042
958b53a3f6e7069950033c51444d1be3,western_union,7ELEVEN SABINOS Y OLMO 2010,,Guadalupe,NUEVO LEON,,MX,+52 800 833 4700,https://location.westernunion.com/mx/nuevo-leon/guadalupe/958b53a3f6e7069950033c51444d1be3,Mo-Su 06:00-22:00,Western Union,Q861042
df9b100d4abd98a8adc180beb3f41cf4,western_union,7ELEVEN SABINOS Y OLMO 2010,,Guadalupe,NUEVO LEON,,MX,+52 800 833 4700,https://location.westernunion.com/mx/nuevo-leon/guadalupe/df9b100d4abd98a8adc180beb3f41cf4,Mo-Su 06:00-22:00,Western Union,Q861042
3606cb4746cb5fa5db95bc4696a18c3d,western_union,OXXO CERRO DE LA SILLA MTY,,Guadalupe,NUEVO LEON,,MX,+52 81 8389 2121,https://location.westernunion.com/mx/nuevo-leon/guadalupe/3606cb4746cb5fa5db95bc4696a18c3d,Mo-Su 08:00-22:00,Western Union,Q861042
4153b1f036efc170bce2e250a9dd0d4e,western_union,OXXO CERRO DE LA SILLA MTY,,Guadalupe,NUEVO LEON,,MX,+52 81 8389 2121,https://location.westernunion.com/mx/nuevo-leon/guadalupe/4153b1f036efc170bce2e250a9dd0d4e,Mo-Su 08:00-22:00,Western Union,Q861042
08e46e4a4d757152a07478397a981605,western_union,OXXO CERRO DE LA SILLA MTY,,Guadalupe,NUEVO LEON,,MX,+52 81 8389 2121,https://location.westernunion.com/mx/nuevo-leon/guadalupe/08e46e4a4d757152a07478397a981605,Mo-Su 08:00-22:00,Western Union,Q861042
3bd110ef12fc2471ca229dec62d77374,western_union,FARM GUAD AV BENITO JUAREZ GDL,,Guadalupe,NUEVO LEON,,MX,+52 800 833 4700,https://location.westernunion.com/mx/nuevo-leon/guadalupe/3bd110ef12fc2471ca229dec62d77374,Mo-Su 08:00-20:00,Western Union,Q861042
4a9015873eab97b03ee1165ae50355e8,western_union,FARM GUAD AV BENITO JUAREZ GDL,,Guadalupe,NUEVO LEON,,MX,+52 800 833 4700,https://location.westernunion.com/mx/nuevo-leon/guadalupe/4a9015873eab97b03ee1165ae50355e8,Mo-Su 08:00-20:00,Western Union,Q861042
5fb73703cfba1209c594d5ba23771938,western_union,FARM GUAD AV BENITO JUAREZ GDL,,Guadalupe,NUEVO LEON,,MX,+52 800 833 4700,https://location.westernunion.com/mx/nuevo-leon/guadalupe/5fb73703cfba1209c594d5ba23771938,Mo-Su 08:00-20:00,Western Union,Q861042
5a870a1a05caa5e759e74669935484bd,western_union,OXXO SAN ANTONIO III MTY,,Guadalupe,NUEVO LEON,,MX,+52 81 8389 2121,https://location.westernunion.com/mx/nuevo-leon/guadalupe/5a870a1a05caa5e759e74669935484bd,Mo-Su 08:00-22:00,Western Union,Q861042
826855f973c87638c834632fd7098c56,western_union,OXXO SAN ANTONIO III MTY,,Guadalupe,NUEVO LEON,,MX,+52 81 8389 2121,https://location.westernunion.com/mx/nuevo-leon/guadalupe/826855f973c87638c834632fd7098c56,Mo-Su 08:00-22:00,Western Union,Q861042
d0aaf0494f95a7707300be57c88962a4,western_union,OXXO SAN ANTONIO III MTY,,Guadalupe,NUEVO LEON,,MX,+52 81 8389 2121,https://location.westernunion.com/mx/nuevo-leon/guadalupe/d0aaf0494f95a7707300be57c88962a4,Mo-Su 08:00-22:00,Western Union,Q861042
ce12aea136d6182d694d5ae240b6e50b,western_union,AURRERA EXPRESS 31 DE DICIEMBRE 3450,,Guadalupe,NUEVO LEON,,MX,+52 800 833 4700,https://location.westernunion.com/mx/nuevo-leon/guadalupe/ce12aea136d6182d694d5ae240b6e50b,Mo-Su 08:00-22:00,Western Union,Q861042
b5224869b8e4f6e940c25a61fb9fe3ef,western_union,AURRERA EXPRESS 31 DE DICIEMBRE 3450,,Guadalupe,NUEVO LEON,,MX,+52 800 833 4700,https://location.westernunion.com/mx/nuevo-leon/guadalupe/b5224869b8e4f6e940c25a61fb9fe3ef,Mo-Su 08:00-22:00,Western Union,Q861042
8b72d405eae009ebba2669babd414e7a,western_union,OXXO CRISPIN TREVINO MTY,,Guadalupe,NUEVO LEON,,MX,+52 81 8389 2121,https://location.westernunion.com/mx/nuevo-leon/guadalupe/8b72d405eae009ebba2669babd414e7a,Mo-Su 08:00-22:00,Western Union,Q861042
2bd51cfb3b540cab928ba8f6f3e28e9d,western_union,OXXO CRISPIN TREVINO MTY,,Guadalupe,NUEVO LEON,,MX,+52 81 8389 2121,https://location.westernunion.com/mx/nuevo-leon/guadalupe/2bd51cfb3b540cab928ba8f6f3e28e9d,Mo-Su 08:00-22:00,Western Union,Q861042
4cc36dc2d944ff99c70f82ba9f908b4e,western_union,OXXO CRISPIN TREVINO MTY,,Guadalupe,NUEVO LEON,,MX,+52 81 8389 2121,https://location.westernunion.com/mx/nuevo-leon/guadalupe/4cc36dc2d944ff99c70f82ba9f908b4e,Mo-Su 08:00-22:00,Western Union,Q861042
c90108ec21cbe514637d4c5a6baf1b43,western_union,FARM GUAD CARR A REYNOSA,,Guadalupe,NUEVO LEON,,MX,+52 800 833 4700,https://location.westernunion.com/mx/nuevo-leon/guadalupe/c90108ec21cbe514637d4c5a6baf1b43,Mo-Su 09:00-22:00,Western Union,Q861042
758a5121771bb9517c77ef5b343ca6d6,western_union,FARM GUAD CARR A REYNOSA,,Guadalupe,NUEVO LEON,,MX,+52 800 833 4700,https://location.westernunion.com/mx/nuevo-leon/guadalupe/758a5121771bb9517c77ef5b343ca6d6,Mo-Su 09:00-22:00,Western Union,Q861042
a0f976093ea6e751e478ac5ba52f07f0,western_union,FARM GUAD CARR A REYNOSA,,Guadalupe,NUEVO LEON,,MX,+52 800 833 4700,https://location.westernunion.com/mx/nuevo-leon/guadalupe/a0f976093ea6e751e478ac5ba52f07f0,Mo-Su 09:00-22:00,Western Union,Q861042
bf36c9d7bbb00293e31c75140a22e4a9,western_union,OXXO ENREDADERA MTY,,Guadalupe,NUEVO LEON,,MX,+52 81 8389 2121,https://location.westernunion.com/mx/nuevo-leon/guadalupe/bf36c9d7bbb00293e31c75140a22e4a9,Mo-Su 08:00-22:00,Western Union,Q861042
ec64018c31ecd8fc03166ee94ce87b8b,western_union,OXXO PARQUE INDUSTRIAL GUADALUPE MTY,,Guadalupe,NUEVO LEON,,MX,+52 81 8389 2121,https://location.westernunion.com/mx/nuevo-leon/guadalupe/ec64018c31ecd8fc03166ee94ce87b8b,Mo-Su 08:00-22:00,Western Union,Q861042
ba305c3e5e906e037fd84e810bc31f3b,western_union,OXXO ENREDADERA MTY,,Guadalupe,NUEVO LEON,,MX,+52 81 8389 2121,https://location.westernunion.com/mx/nuevo-leon/guadalupe/ba305c3e5e906e037fd84e810bc31f3b,Mo-Su 08:00-22:00,Western Union,Q861042
2c4f96e6497979598107ef2e2d0964ca,western_union,OXXO ENREDADERA MTY,,Guadalupe,NUEVO LEON,,MX,+52 81 8389 2121,https://location.westernunion.com/mx/nuevo-leon/guadalupe/2c4f96e6497979598107ef2e2d0964ca,Mo-Su 08:00-22:00,Western Union,Q861042
d63f06b6d27ae69b7cd5f368de497c43,western_union,OXXO TRES CAMINOS MTY,,Guadalupe,NUEVO LEON,,MX,+52 81 8389 2121,https://location.westernunion.com/mx/nuevo-leon/guadalupe/d63f06b6d27ae69b7cd5f368de497c43,Mo-Su 08:00-22:00,Western Union,Q861042
21dbef28b1adc7fcfb500356b0d5f847,western_union,OXXO TRES CAMINOS MTY,,Guadalupe,NUEVO LEON,,MX,+52 81 8389 2121,https://location.westernunion.com/mx/nuevo-leon/guadalupe/21dbef28b1adc7fcfb500356b0d5f847,Mo-Su 08:00-22:00,Western Union,Q861042
4a1e25ad5a6beb746e09fb0b2b8b33c7,western_union,OXXO TRES CAMINOS MTY,,Guadalupe,NUEVO LEON,,MX,+52 81 8389 2121,https://location.westernunion.com/mx/nuevo-leon/guadalupe/4a1e25ad5a6beb746e09fb0b2b8b33c7,Mo-Su 08:00-22:00,Western Union,Q861042
12a9864e56f224accd36a64a1950f010,western_union,OXXO NICOLAS BRAVO MTY,,Guadalupe,NUEVO LEON,,MX,+52 81 8389 2121,https://location.westernunion.com/mx/nuevo-leon/guadalupe/12a9864e56f224accd36a64a1950f010,Mo-Su 08:00-22:00,Western Union,Q861042
059a8993a4a2266d767ac5978e8cf8af,western_union,OXXO NICOLAS BRAVO MTY,,Guadalupe,NUEVO LEON,,MX,+52 81 8389 2121,https://location.westernunion.com/mx/nuevo-leon/guadalupe/059a8993a4a2266d767ac5978e8cf8af,Mo-Su 08:00-22:00,Western Union,Q861042
19c0a6dc1cc5ce24b12a67aca45c7e24,western_union,OXXO NICOLAS BRAVO MTY,,Guadalupe,NUEVO LEON,,MX,+52 81 8389 2121,https://location.westernunion.com/mx/nuevo-leon/guadalupe/19c0a6dc1cc5ce24b12a67aca45c7e24,Mo-Su 08:00-22:00,Western Union,Q861042
51d09fafaa598a3d67afc339096b8666,western_union,FARM GUAD AV PABLO LIVAS III,,Guadalupe,NUEVO LEON,,MX,+52 800 833 4700,https://location.westernunion.com/mx/nuevo-leon/guadalupe/51d09fafaa598a3d67afc339096b8666,Mo-Su 09:00-22:00,Western Union,Q861042
e39eb3d9bd06cccd93ea4a7ea32bbabd,western_union,FARM GUAD AV PABLO LIVAS III,,Guadalupe,NUEVO LEON,,MX,+52 800 833 4700,https://location.westernunion.com/mx/nuevo-leon/guadalupe/e39eb3d9bd06cccd93ea4a7ea32bbabd,Mo-Su 09:00-22:00,Western Union,Q861042
79ef9f89dffa401744400631fea03462,western_union,FARM GUAD AV PABLO LIVAS III,,Guadalupe,NUEVO LEON,,MX,+52 800 833 4700,https://location.westernunion.com/mx/nuevo-leon/guadalupe/79ef9f89dffa401744400631fea03462,Mo-Su 09:00-22:00,Western Union,Q861042
fbead8f0f0c7d704566f097e869a721d,western_union,ELEKTRA 835,,Guadalupe,NUEVO LEON,,MX,+52 55 1720 8177,https://location.westernunion.com/mx/nuevo-leon/guadalupe/fbead8f0f0c7d704566f097e869a721d,Mo-Su 09:00-21:00,Western Union,Q861042
1883f803007b2d037b540d532626423c,western_union,BANORTE 00153 MTY PABLO LIVAS,,Guadalupe,NUEVO LEON,,MX,+52 800 833 4700,https://location.westernunion.com/mx/nuevo-leon/guadalupe/1883f803007b2d037b540d532626423c,Mo-Fr 09:00-17:00,Western Union,Q861042
b03ac723c8429dd9cadf7f281a718a7f,western_union,AURRERA EXPRESS LA PLAYA 3139,,Guadalupe,NUEVO LEON,,MX,+52 800 833 4700,https://location.westernunion.com/mx/nuevo-leon/guadalupe/b03ac723c8429dd9cadf7f281a718a7f,Mo-Su 08:00-22:00,Western Union,Q861042
8ad4f112744b1c6c82d2204ead8d71ac,western_union,AURRERA EXPRESS LA PLAYA 3139,,Guadalupe,NUEVO LEON,,MX,+52 800 833 4700,https://location.westernunion.com/mx/nuevo-leon/guadalupe/8ad4f112744b1c6c82d2204ead8d71ac,Mo-Su 08:00-22:00,Western Union,Q861042
bb4b8ef290ebb98683a4a96477761878,western_union,AURRERA EXPRESS LA PLAYA 3139,,Guadalupe,NUEVO LEON,,MX,+52 800 833 4700,https://location.westernunion.com/mx/nuevo-leon/guadalupe/bb4b8ef290ebb98683a4a96477761878,Mo-Su 08:00-22:00,Western Union,Q861042
be3d4f5622382abff79d15c0fd55b387,western_union,OXXO EVOLUCION MTY,,Guadalupe,NUEVO LEON,,MX,+52 81 8389 2121,https://location.westernunion.com/mx/nuevo-leon/guadalupe/be3d4f5622382abff79d15c0fd55b387,Mo-Su 08:00-22:00,Western Union,Q861042
61535f3ac35d3257723e2edb61b207ee,western_union,OXXO EVOLUCION MTY,,Guadalupe,NUEVO LEON,,MX,+52 81 8389 2121,https://location.westernunion.com/mx/nuevo-leon/guadalupe/61535f3ac35d3257723e2edb61b207ee,Mo-Su 08:00-22:00,Western Union,Q861042
70753345b2b753e9eff8defa755bd33e,western_union,OXXO EVOLUCION MTY,,Guadalupe,NUEVO LEON,,MX,+52 81 8389 2121,https://location.westernunion.com/mx/nuevo-leon/guadalupe/70753345b2b753e9eff8defa755bd33e,Mo-Su 08:00-22:00,Western Union,Q861042
6c79746c30c3558686f63ec881d28913,western_union,OXXO CHAPULTEPEC II MTY,,Guadalupe,NUEVO LEON,,MX,+52 81 8389 2121,https://location.westernunion.com/mx/nuevo-leon/guadalupe/6c79746c30c3558686f63ec881d28913,Mo-Su 08:00-22:00,Western Union,Q861042
d7c6844f8e87743a7592efdfc07aeed9,western_union,OXXO CHAPULTEPEC II MTY,,Guadalupe,NUEVO LEON,,MX,+52 81 8389 2121,https://location.westernunion.com/mx/nuevo-leon/guadalupe/d7c6844f8e87743a7592efdfc07aeed9,Mo-Su 08:00-22:00,Western Union,Q861042
b02825cd55fc6aa796006a094fc87057,western_union,OXXO CHAPULTEPEC II MTY,,Guadalupe,NUEVO LEON,,MX,+52 81 8389 2121,https://location.westernunion.com/mx/nuevo-leon/guadalupe/b02825cd55fc6aa796006a094fc87057,Mo-Su 08:00-22:00,Western Union,Q861042
964ef17316282ed7a952bc24e5df841d,western_union,7ELEVEN PEDRO INFANTE 617,,Guadalupe,NUEVO LEON,,MX,+52 800 833 4700,https://location.westernunion.com/mx/nuevo-leon/guadalupe/964ef17316282ed7a952bc24e5df841d,Mo-Su 06:00-22:00,Western Union,Q861042
cfe3ee3dee50d814d2ec82cdcbed4b85,western_union,7ELEVEN PEDRO INFANTE 617,,Guadalupe,NUEVO LEON,,MX,+52 800 833 4700,https://location.westernunion.com/mx/nuevo-leon/guadalupe/cfe3ee3dee50d814d2ec82cdcbed4b85,Mo-Su 06:00-22:00,Western Union,Q861042
c485bda8784d61001c8b9cca0a4ccf3a,western_union,7ELEVEN PEDRO INFANTE 617,,Guadalupe,NUEVO LEON,,MX,+52 800 833 4700,https://location.westernunion.com/mx/nuevo-leon/guadalupe/c485bda8784d61001c8b9cca0a4ccf3a,Mo-Su 06:00-22:00,Western Union,Q861042
72d4589f2234a013c16666b4c5a771ee,western_union,FARM GUAD AV MEXICO NVL,,Guadalupe,NUEVO LEON,,MX,+52 800 833 4700,https://location.westernunion.com/mx/nuevo-leon/guadalupe/72d4589f2234a013c16666b4c5a771ee,Mo-Su 08:00-20:00,Western Union,Q861042
22a880edbbdec9421cbcf859daa4cc30,western_union,FARM GUAD AV MEXICO NVL,,Guadalupe,NUEVO LEON,,MX,+52 800 833 4700,https://location.westernunion.com/mx/nuevo-leon/guadalupe/22a880edbbdec9421cbcf859daa4cc30,Mo-Su 08:00-20:00,Western Union,Q861042
bf6e564b44cdc7eeaf175262b80b8903,western_union,FARM GUAD AV MEXICO NVL,,Guadalupe,NUEVO LEON,,MX,+52 800 833 4700,https://location.westernunion.com/mx/nuevo-leon/guadalupe/bf6e564b44cdc7eeaf175262b80b8903,Mo-Su 08:00-20:00,Western Union,Q861042
1b7447e275695586e130f455f35a69aa,western_union,OXXO LILA MTY,,Guadalupe,NUEVO LEON,,MX,+52 81 8389 2121,https://location.westernunion.com/mx/nuevo-leon/guadalupe/1b7447e275695586e130f455f35a69aa,Mo-Su 08:00-22:00,Western Union,Q861042
b47f7325cb52bacf736a5b592d9f1f91,western_union,OXXO LILA MTY,,Guadalupe,NUEVO LEON,,MX,+52 81 8389 2121,https://location.westernunion.com/mx/nuevo-leon/guadalupe/b47f7325cb52bacf736a5b592d9f1f91,Mo-Su 08:00-22:00,Western Union,Q861042
22e57f57ac813e0b961ac7f4a03b16af,western_union,OXXO LILA MTY,,Guadalupe,NUEVO LEON,,MX,+52 81 8389 2121,https://location.westernunion.com/mx/nuevo-leon/guadalupe/22e57f57ac813e0b961ac7f4a03b16af,Mo-Su 08:00-22:00,Western Union,Q861042
f148c2782fafc6cd4dd504a4b8ce9403,western_union,FUNDACION DONDE PABLO LIVAS ID529,,Guadalupe,NUEVO LEON,,MX,+52 81 2188 4782,https://location.westernunion.com/mx/nuevo-leon/guadalupe/f148c2782fafc6cd4dd504a4b8ce9403,Mo-Sa 10:00-19:00; Su 11:00-13:00,Western Union,Q861042
b9eefc0f6315f04b1b10ef565c9ee6de,western_union,FUNDACION DONDE PABLO LIVAS ID529,,Guadalupe,NUEVO LEON,,MX,+52 81 2188 4782,https://location.westernunion.com/mx/nuevo-leon/guadalupe/b9eefc0f6315f04b1b10ef565c9ee6de,Mo-Sa 10:00-19:00; Su 11:00-13:00,Western Union,Q861042
4c7496be6d2b9fa8a92eb714f202a6bd,western_union,FUNDACION DONDE PABLO LIVAS ID529,,Guadalupe,NUEVO LEON,,MX,+52 81 2188 4782,https://location.westernunion.com/mx/nuevo-leon/guadalupe/4c7496be6d2b9fa8a92eb714f202a6bd,Mo-Sa 10:00-19:00; Su 11:00-13:00,Western Union,Q861042
48519689b6428cd0c1b295d787fa1af5,western_union,OXXO ROBLES MTY,,Guadalupe,NUEVO LEON,,MX,+52 81 8389 2121,https://location.westernunion.com/mx/nuevo-leon/guadalupe/48519689b6428cd0c1b295d787fa1af5,Mo-Su 08:00-22:00,Western Union,Q861042
cce6d39efec9227bd7d394543c5219e1,western_union,OXXO ROBLES MTY,,Guadalupe,NUEVO LEON,,MX,+52 81 8389 2121,https://location.westernunion.com/mx/nuevo-leon/guadalupe/cce6d39efec9227bd7d394543c5219e1,Mo-Su 08:00-22:00,Western Union,Q861042
de18f33654cdfa78c04bb6418ddf9026,western_union,OXXO ROBLES MTY,,Guadalupe,NUEVO LEON,,MX,+52 81 8389 2121,https://location.westernunion.com/mx/nuevo-leon/guadalupe/de18f33654cdfa78c04bb6418ddf9026,Mo-Su 08:00-22:00,Western Union,Q861042
25051147ecae6ab34d3e450cb6ea62d7,western_union,SOL MONTERREY PABLO LIVAS,,Guadalupe,NUEVO LEON,,MX,+52 800 833 4700,https://location.westernunion.com/mx/nuevo-leon/guadalupe/25051147ecae6ab34d3e450cb6ea62d7,Mo-Su 09:00-21:00,Western Union,Q861042
9ae1b1ecae7de70c25c96c68c1b5236b,western_union,SOL MONTERREY PABLO LIVAS,,Guadalupe,NUEVO LEON,,MX,+52 800 833 4700,https://location.westernunion.com/mx/nuevo-leon/guadalupe/9ae1b1ecae7de70c25c96c68c1b5236b,Mo-Su 09:00-21:00,Western Union,Q861042
11d96bab92c24e07c5202a5922703cbb,western_union,SOL MONTERREY PABLO LIVAS,,Guadalupe,NUEVO LEON,,MX,+52 800 833 4700,https://location.westernunion.com/mx/nuevo-leon/guadalupe/11d96bab92c24e07c5202a5922703cbb,Mo-Su 09:00-21:00,Western Union,Q861042
a8bd11646365dd747b792d2ddfc176eb,western_union,OXXO ANTONIO L RDZ MTY,,Guadalupe,NUEVO LEON,,MX,+52 81 8389 2121,https://location.westernunion.com/mx/nuevo-leon/guadalupe/a8bd11646365dd747b792d2ddfc176eb,Mo-Su 08:00-22:00,Western Union,Q861042
81d38cf2daecc1db09f8bda2fc2b14af,western_union,OXXO ANTONIO L RDZ MTY,,Guadalupe,NUEVO LEON,,MX,+52 81 8389 2121,https://location.westernunion.com/mx/nuevo-leon/guadalupe/81d38cf2daecc1db09f8bda2fc2b14af,Mo-Su 08:00-22:00,Western Union,Q861042
84d9f267b98de9ffba7c5617da725220,western_union,OXXO LA PRIMAVERA MTY,,Guadalupe,NUEVO LEON,,MX,+52 81 8389 2121,https://location.westernunion.com/mx/nuevo-leon/guadalupe/84d9f267b98de9ffba7c5617da725220,Mo-Su 08:00-22:00,Western Union,Q861042
a3e75eeb479100426200f971d47be0a0,western_union,OXXO LA PRIMAVERA MTY,,Guadalupe,NUEVO LEON,,MX,+52 81 8389 2121,https://location.westernunion.com/mx/nuevo-leon/guadalupe/a3e75eeb479100426200f971d47be0a0,Mo-Su 08:00-22:00,Western Union,Q861042
ecdc81bbc57b634426534907279f0224,western_union,OXXO LA PRIMAVERA MTY,,Guadalupe,NUEVO LEON,,MX,+52 81 8389 2121,https://location.westernunion.com/mx/nuevo-leon/guadalupe/ecdc81bbc57b634426534907279f0224,Mo-Su 08:00-22:00,Western Union,Q861042
9a0907e090ad82d5c8284fcb8e2369a9,western_union,OXXO XOCHIMILCO MTY,,Guadalupe,NUEVO LEON,,MX,+52 81 8389 2121,https://location.westernunion.com/mx/nuevo-leon/guadalupe/9a0907e090ad82d5c8284fcb8e2369a9,Mo-Su 08:00-22:00,Western Union,Q861042
d9158971f8baac3ddcf46e50758adaa4,western_union,OXXO XOCHIMILCO MTY,,Guadalupe,NUEVO LEON,,MX,+52 81 8389 2121,https://location.westernunion.com/mx/nuevo-leon/guadalupe/d9158971f8baac3ddcf46e50758adaa4,Mo-Su 08:00-22:00,Western Union,Q861042
873838fb1a24764abc319c95ecba6abe,western_union,OXXO XOCHIMILCO MTY,,Guadalupe,NUEVO LEON,,MX,+52 81 8389 2121,https://location.westernunion.com/mx/nuevo-leon/guadalupe/873838fb1a24764abc319c95ecba6abe,Mo-Su 08:00-22:00,Western Union,Q861042
2d84a4e1791574f5a3a9bf9e6bb45d82,western_union,HEB MTY GUADALUPE LIVAS 2977,,Guadalupe,NUEVO LEON,,MX,+52 81 2133 2160,https://location.westernunion.com/mx/nuevo-leon/guadalupe/2d84a4e1791574f5a3a9bf9e6bb45d82,Mo-Su 10:00-21:00,Western Union,Q861042
e45da4e695e46e5fa50b6bf830872514,western_union,HEB MTY GUADALUPE LIVAS 2977,,Guadalupe,NUEVO LEON,,MX,+52 81 2133 2160,https://location.westernunion.com/mx/nuevo-leon/guadalupe/e45da4e695e46e5fa50b6bf830872514,Mo-Su 10:00-21:00,Western Union,Q861042
50361bc68ece18d10fb4823573171a83,western_union,HEB MTY GUADALUPE LIVAS 2977,,Guadalupe,NUEVO LEON,,MX,+52 81 2133 2160,https://location.westernunion.com/mx/nuevo-leon/guadalupe/50361bc68ece18d10fb4823573171a83,Mo-Su 10:00-21:00,Western Union,Q861042
a9d8f1693b6ade32180f2ae0936cef40,western_union,7ELEVEN PABLO LIVAS 162,,Guadalupe,NUEVO LEON,,MX,+52 800 833 4700,https://location.westernunion.com/mx/nuevo-leon/guadalupe/a9d8f1693b6ade32180f2ae0936cef40,Mo-Su 06:00-22:00,Western Union,Q861042
06431173252640c8aac26878cb9cd999,western_union,7ELEVEN PABLO LIVAS 162,,Guadalupe,NUEVO LEON,,MX,+52 800 833 4700,https://location.westernunion.com/mx/nuevo-leon/guadalupe/06431173252640c8aac26878cb9cd999,Mo-Su 06:00-22:00,Western Union,Q861042
21526d3b4888d6b11221f835f92e9971,western_union,7ELEVEN PABLO LIVAS 162,,Guadalupe,NUEVO LEON,,MX,+52 800 833 4700,https://location.westernunion.com/mx/nuevo-leon/guadalupe/21526d3b4888d6b11221f835f92e9971,Mo-Su 06:00-22:00,Western Union,Q861042
e270fa949cc4ec3f8a1dde52ba1299e9,western_union,BANORTE 01059 SANTA MARIA,,Guadalupe,NUEVO LEON,,MX,+52 800 833 4700,https://location.westernunion.com/mx/nuevo-leon/guadalupe/e270fa949cc4ec3f8a1dde52ba1299e9,Mo-Sa 09:00-17:00,Western Union,Q861042
21f73bf0b6217af4ac53dd515059677e,western_union,BANCOPPEL 0103 SANTA MARIA,,Guadalupe,NUEVO LEON,,MX,(+52) 667-589999,https://location.westernunion.com/mx/nuevo-leon/guadalupe/21f73bf0b6217af4ac53dd515059677e,Mo-Su 08:30-21:00,Western Union,Q861042
fe2e286c1881ea8d948434489121267c,western_union,SORIANA STA  MARIA 27,,Guadalupe,NUEVO LEON,,MX,+52 800 555 6555,https://location.westernunion.com/mx/nuevo-leon/guadalupe/fe2e286c1881ea8d948434489121267c,Mo-Su 08:00-22:00,Western Union,Q861042
35133fffaa22b7efc3a87b10f57af4b8,western_union,BANCOPPEL 0103 SANTA MARIA,,Guadalupe,NUEVO LEON,,MX,(+52) 667-589999,https://location.westernunion.com/mx/nuevo-leon/guadalupe/35133fffaa22b7efc3a87b10f57af4b8,Mo-Su 08:30-21:00,Western Union,Q861042
5d86d754b62edda9b32db561c2bbb9fe,western_union,BANCOPPEL 0103 SANTA MARIA,,Guadalupe,NUEVO LEON,,MX,(+52) 667-589999,https://location.westernunion.com/mx/nuevo-leon/guadalupe/5d86d754b62edda9b32db561c2bbb9fe,Mo-Su 08:30-21:00,Western Union,Q861042
b490c14e9edd8eace89234eb2643f38d,western_union,WALDOS PABLO LIVAS GUADALUPE MTY 6306,,Guadalupe,NUEVO LEON,,MX,+52 55 5246 0700,https://location.westernunion.com/mx/nuevo-leon/guadalupe/b490c14e9edd8eace89234eb2643f38d,Mo-Su 06:30-23:30,Western Union,Q861042
35797ce9876da34f6332076c7571e8ef,western_union,OXXO FATIMA MTY,,Guadalupe,NUEVO LEON,,MX,+52 81 8389 2121,https://location.westernunion.com/mx/nuevo-leon/guadalupe/35797ce9876da34f6332076c7571e8ef,Mo-Su 08:00-22:00,Western Union,Q861042
14b2d04b96f955350c1436d1e6da9dbd,western_union,OXXO FATIMA MTY,,Guadalupe,NUEVO LEON,,MX,+52 81 8389 2121,https://location.westernunion.com/mx/nuevo-leon/guadalupe/14b2d04b96f955350c1436d1e6da9dbd,Mo-Su 08:00-22:00,Western Union,Q861042
80ca6e3e347c1a43a12277f20af14006,western_union,OXXO FATIMA MTY,,Guadalupe,NUEVO LEON,,MX,+52 81 8389 2121,https://location.westernunion.com/mx/nuevo-leon/guadalupe/80ca6e3e347c1a43a12277f20af14006,Mo-Su 08:00-22:00,Western Union,Q861042
a804039a3bc698faf73ecc10d05ce61c,western_union,OXXO ROSA DE LIMA MTY,,Guadalupe,NUEVO LEON,,MX,+52 81 8389 2121,https://location.westernunion.com/mx/nuevo-leon/guadalupe/a804039a3bc698faf73ecc10d05ce61c,Mo-Su 08:00-22:00,Western Union,Q861042
c974d7af69a178561956d66bc5186c0a,western_union,FARM GUAD AV PABLO LIVAS II,,Guadalupe,NUEVO LEON,,MX,+52 800 833 4700,https://location.westernunion.com/mx/nuevo-leon/guadalupe/c974d7af69a178561956d66bc5186c0a,Mo-Su 09:00-22:00,Western Union,Q861042
79c511dfad7b708757e8032774982cf8,western_union,7ELEVEN SANTA ROSA DE LIMA 223,,Guadalupe,NUEVO LEON,,MX,+52 800 833 4700,https://location.westernunion.com/mx/nuevo-leon/guadalupe/79c511dfad7b708757e8032774982cf8,Mo-Su 06:00-22:00,Western Union,Q861042
42d188e9d56ee9faafc76c2bfe198c5f,western_union,7ELEVEN SANTA ROSA DE LIMA 223,,Guadalupe,NUEVO LEON,,MX,+52 800 833 4700,https://location.westernunion.com/mx/nuevo-leon/guadalupe/42d188e9d56ee9faafc76c2bfe198c5f,Mo-Su 06:00-22:00,Western Union,Q861042
a8fdded0a95648dc7c128ffb503c1652,western_union,7ELEVEN SANTA ROSA DE LIMA 223,,Guadalupe,NUEVO LEON,,MX,+52 800 833 4700,https://location.westernunion.com/mx/nuevo-leon/guadalupe/a8fdded0a95648dc7c128ffb503c1652,Mo-Su 06:00-22:00,Western Union,Q861042
7d4b3f509db4e36203b5fb5a6716dd97,western_union,FARM GUAD AV PABLO LIVAS II,,Guadalupe,NUEVO LEON,,MX,+52 800 833 4700,https://location.westernunion.com/mx/nuevo-leon/guadalupe/7d4b3f509db4e36203b5fb5a6716dd97,Mo-Su 09:00-22:00,Western Union,Q861042
6630dd85fbf115e79dffaa91086e3f04,western_union,FARM GUAD AV ELOY CAVAZOS,,Guadalupe,NUEVO LEON,,MX,+52 800 833 4700,https://location.westernunion.com/mx/nuevo-leon/guadalupe/6630dd85fbf115e79dffaa91086e3f04,Mo-Su 08:00-20:00,Western Union,Q861042
4216283006670052e1218c263d18d7c7,western_union,FARM GUAD AV ELOY CAVAZOS,,Guadalupe,NUEVO LEON,,MX,+52 800 833 4700,https://location.westernunion.com/mx/nuevo-leon/guadalupe/4216283006670052e1218c263d18d7c7,Mo-Su 08:00-20:00,Western Union,Q861042
e4e2815a067ce214c89b870c16f7005a,western_union,FARM GUAD AV ELOY CAVAZOS,,Guadalupe,NUEVO LEON,,MX,+52 800 833 4700,https://location.westernunion.com/mx/nuevo-leon/guadalupe/e4e2815a067ce214c89b870c16f7005a,Mo-Su 08:00-20:00,Western Union,Q861042
806e15828a06dc526d041763b3c5ac3d,western_union,AURRERA EXPRESS SANTA ROSA DE LIMA 2189,,Guadalupe,NUEVO LEON,,MX,+52 800 833 4700,https://location.westernunion.com/mx/nuevo-leon/guadalupe/806e15828a06dc526d041763b3c5ac3d,Mo-Su 08:00-22:00,Western Union,Q861042
0ff5f70028cd5683cd3947a6d7bc3c2c,western_union,AURRERA EXPRESS SANTA ROSA DE LIMA 2189,,Guadalupe,NUEVO LEON,,MX,+52 800 833 4700,https://location.westernunion.com/mx/nuevo-leon/guadalupe/0ff5f70028cd5683cd3947a6d7bc3c2c,Mo-Su 08:00-22:00,Western Union,Q861042
6716da1fa585f1a57c8b3d9a0eef4c0a,western_union,AURRERA EXPRESS SANTA ROSA DE LIMA 2189,,Guadalupe,NUEVO LEON,,MX,+52 800 833 4700,https://location.westernunion.com/mx/nuevo-leon/guadalupe/6716da1fa585f1a57c8b3d9a0eef4c0a,Mo-Su 08:00-22:00,Western Union,Q861042
acece111e6964b47f0b91efdbde697f7,western_union,OXXO ELOY CAVAZOS MTY,,Guadalupe,NUEVO LEON,,MX,+52 81 8389 2121,https://location.westernunion.com/mx/nuevo-leon/guadalupe/acece111e6964b47f0b91efdbde697f7,Mo-Su 08:00-22:00,Western Union,Q861042
96496f2ce045702b017dfbfb631d09af,western_union,OXXO ROSA DE LIMA MTY,,Guadalupe,NUEVO LEON,,MX,+52 81 8389 2121,https://location.westernunion.com/mx/nuevo-leon/guadalupe/96496f2ce045702b017dfbfb631d09af,Mo-Su 08:00-22:00,Western Union,Q861042
a9cea92fc758b3ac306c7fa09397c422,western_union,OXXO ROSA DE LIMA MTY,,Guadalupe,NUEVO LEON,,MX,+52 81 8389 2121,https://location.westernunion.com/mx/nuevo-leon/guadalupe/a9cea92fc758b3ac306c7fa09397c422,Mo-Su 08:00-22:00,Western Union,Q861042
3a993e44b93bcb164860c2b87ea65469,western_union,OXXO ELOY CAVAZOS MTY,,Guadalupe,NUEVO LEON,,MX,+52 81 8389 2121,https://location.westernunion.com/mx/nuevo-leon/guadalupe/3a993e44b93bcb164860c2b87ea65469,Mo-Su 08:00-22:00,Western Union,Q861042
c736ec1eac3c6e3d77fa257efe862c48,western_union,OXXO ELOY CAVAZOS MTY,,Guadalupe,NUEVO LEON,,MX,+52 81 8389 2121,https://location.westernunion.com/mx/nuevo-leon/guadalupe/c736ec1eac3c6e3d77fa257efe862c48,Mo-Su 08:00-22:00,Western Union,Q861042
a8a2bc0b5885585ecfea79cace7ad303,western_union,OXXO RINCON DELASIERRAMTY,,Guadalupe,NUEVO LEON,,MX,+52 81 8389 2121,https://location.westernunion.com/mx/nuevo-leon/guadalupe/a8a2bc0b5885585ecfea79cace7ad303,Mo-Su 08:00-22:00,Western Union,Q861042
54a98fb90c823b5bc771cf8872c00250,western_union,OXXO RINCON DELASIERRAMTY,,Guadalupe,NUEVO LEON,,MX,+52 81 8389 2121,https://location.westernunion.com/mx/nuevo-leon/guadalupe/54a98fb90c823b5bc771cf8872c00250,Mo-Su 08:00-22:00,Western Union,Q861042
a055384186afc32cb4349a3d525e7d61,western_union,7ELEVEN SIERRA DE LAMPAZOS 754,,Guadalupe,NUEVO LEON,,MX,+52 800 833 4700,https://location.westernunion.com/mx/nuevo-leon/guadalupe/a055384186afc32cb4349a3d525e7d61,Mo-Su 06:00-22:00,Western Union,Q861042
0818f5028b5714f27a6c4594fbb14566,western_union,7ELEVEN SIERRA DE LAMPAZOS 754,,Guadalupe,NUEVO LEON,,MX,+52 800 833 4700,https://location.westernunion.com/mx/nuevo-leon/guadalupe/0818f5028b5714f27a6c4594fbb14566,Mo-Su 06:00-22:00,Western Union,Q861042
0cf0eeba0e50b4c414fd33627af606a7,western_union,7ELEVEN SIERRA DE LAMPAZOS 754,,Guadalupe,NUEVO LEON,,MX,+52 800 833 4700,https://location.westernunion.com/mx/nuevo-leon/guadalupe/0cf0eeba0e50b4c414fd33627af606a7,Mo-Su 06:00-22:00,Western Union,Q861042
26475068fff787377c20a773fad4bf25,western_union,OXXO JARDINES DE LA SILLA MTY,,Guadalupe,NUEVO LEON,,MX,+52 81 8389 2121,https://location.westernunion.com/mx/nuevo-leon/guadalupe/26475068fff787377c20a773fad4bf25,Mo-Su 08:00-22:00,Western Union,Q861042
3539eb23f31a87c7fc3d283e81feb3fe,western_union,OXXO JARDINES DE LA SILLA MTY,,Guadalupe,NUEVO LEON,,MX,+52 81 8389 2121,https://location.westernunion.com/mx/nuevo-leon/guadalupe/3539eb23f31a87c7fc3d283e81feb3fe,Mo-Su 08:00-22:00,Western Union,Q861042
470c4f84a60f569b10e292d2d0523077,western_union,OXXO JARDINES DE LA SILLA MTY,,Guadalupe,NUEVO LEON,,MX,+52 81 8389 2121,https://location.westernunion.com/mx/nuevo-leon/guadalupe/470c4f84a60f569b10e292d2d0523077,Mo-Su 08:00-22:00,Western Union,Q861042
2b759ad03b9fd6e1aa7b447bfcb6b951,western_union,AURRERA EXPRESS JARDINES LA SILLA 3462,,Guadalupe,NUEVO LEON,,MX,+52 800 833 4700,https://location.westernunion.com/mx/nuevo-leon/guadalupe/2b759ad03b9fd6e1aa7b447bfcb6b951,Mo-Su 08:00-22:00,Western Union,Q861042
3ae03ccb9f51ae52b328d1d888f8072e,western_union,AURRERA EXPRESS JARDINES LA SILLA 3462,,Guadalupe,NUEVO LEON,,MX,+52 800 833 4700,https://location.westernunion.com/mx/nuevo-leon/guadalupe/3ae03ccb9f51ae52b328d1d888f8072e,Mo-Su 08:00-22:00,Western Union,Q861042
a7a3fbb057fdb94f6938ba3b1841cf4d,western_union,AURRERA EXPRESS JARDINES LA SILLA 3462,,Guadalupe,NUEVO LEON,,MX,+52 800 833 4700,https://location.westernunion.com/mx/nuevo-leon/guadalupe/a7a3fbb057fdb94f6938ba3b1841cf4d,Mo-Su 08:00-22:00,Western Union,Q861042
c55cc9ebfb15e25909971723d6988baf,western_union,SORIANA TIERRA PROPIA   VINMSA   570,,Guadalupe,NUEVO LEON,,MX,+52 800 555 6555,https://location.westernunion.com/mx/nuevo-leon/guadalupe/c55cc9ebfb15e25909971723d6988baf,Mo-Su 08:00-22:00,Western Union,Q861042
52144f9880a9fd688e9bee04a98bf6e7,western_union,FARM GUAD AV MAESTRO ISRAEL C,,Guadalupe,NUEVO LEON,,MX,+52 800 833 4700,https://location.westernunion.com/mx/nuevo-leon/guadalupe/52144f9880a9fd688e9bee04a98bf6e7,Mo-Su 08:00-20:00,Western Union,Q861042
f2efe3460ac2ce45ddf36bb28a280dd6,western_union,FARM GUAD AV MAESTRO ISRAEL C,,Guadalupe,NUEVO LEON,,MX,+52 800 833 4700,https://location.westernunion.com/mx/nuevo-leon/guadalupe/f2efe3460ac2ce45ddf36bb28a280dd6,Mo-Su 08:00-20:00,Western Union,Q861042
5158062fdd21310bed1e7976f6906c10,western_union,FARM GUAD AV MAESTRO ISRAEL C,,Guadalupe,NUEVO LEON,,MX,+52 800 833 4700,https://location.westernunion.com/mx/nuevo-leon/guadalupe/5158062fdd21310bed1e7976f6906c10,Mo-Su 08:00-20:00,Western Union,Q861042
5c2f82137cefb9badf0b85d98cf1edf2,western_union,OXXO CD GUZMAN MTY,,Guadalupe,NUEVO LEON,,MX,+52 81 8389 2121,https://location.westernunion.com/mx/nuevo-leon/guadalupe/5c2f82137cefb9badf0b85d98cf1edf2,Mo-Su 08:00-22:00,Western Union,Q861042
a53a7bc198f3bfa682c191c4882cb3c1,western_union,OXXO CD GUZMAN MTY,,Guadalupe,NUEVO LEON,,MX,+52 81 8389 2121,https://location.westernunion.com/mx/nuevo-leon/guadalupe/a53a7bc198f3bfa682c191c4882cb3c1,Mo-Su 08:00-22:00,Western Union,Q861042
aa928e5a149f344e8a159b22efe446ba,western_union,OXXO CD GUZMAN MTY,,Guadalupe,NUEVO LEON,,MX,+52 81 8389 2121,https://location.westernunion.com/mx/nuevo-leon/guadalupe/aa928e5a149f344e8a159b22efe446ba,Mo-Su 08:00-22:00,Western Union,Q861042
614e66f4c9a0046807dc70b942ba3899,western_union,FARM GUAD JARDIN DE LA SILLA,,Guadalupe,NUEVO LEON,,MX,+52 800 833 4700,https://location.westernunion.com/mx/nuevo-leon/guadalupe/614e66f4c9a0046807dc70b942ba3899,Mo-Su 08:00-20:00,Western Union,Q861042
09175f1aae36326c4618e25c1ed2c335,western_union,FARM GUAD JARDIN DE LA SILLA,,Guadalupe,NUEVO LEON,,MX,+52 800 833 4700,https://location.westernunion.com/mx/nuevo-leon/guadalupe/09175f1aae36326c4618e25c1ed2c335,Mo-Su 08:00-20:00,Western Union,Q861042
d264df69beaf7b78c4058cdca151785a,western_union,FARM GUAD JARDIN DE LA SILLA,,Guadalupe,NUEVO LEON,,MX,+52 800 833 4700,https://location.westernunion.com/mx/nuevo-leon/guadalupe/d264df69beaf7b78c4058cdca151785a,Mo-Su 08:00-20:00,Western Union,Q861042
167479383599455aceaaa6082aa3f4ea,western_union,AURRERA EXPRESS MISION LA SILLA 3522,,Guadalupe,NUEVO LEON,,MX,+52 800 833 4700,https://location.westernunion.com/mx/nuevo-leon/guadalupe/167479383599455aceaaa6082aa3f4ea,Mo-Su 08:00-22:00,Western Union,Q861042
d7f8afacc7a183fd16a92e4816d6d7e6,western_union,AURRERA EXPRESS MISION LA SILLA 3522,,Guadalupe,NUEVO LEON,,MX,+52 800 833 4700,https://location.westernunion.com/mx/nuevo-leon/guadalupe/d7f8afacc7a183fd16a92e4816d6d7e6,Mo-Su 08:00-22:00,Western Union,Q861042
a1de28e98b4bb34a1502a0da586439bd,western_union,OXXO MISION LA SILLA MTY,,Guadalupe,NUEVO LEON,,MX,+52 81 8389 2121,https://location.westernunion.com/mx/nuevo-leon/guadalupe/a1de28e98b4bb34a1502a0da586439bd,Mo-Su 08:00-22:00,Western Union,Q861042
7fe2c4e29838342385b2dc25ed0adf41,western_union,OXXO MISION LA SILLA MTY,,Guadalupe,NUEVO LEON,,MX,+52 81 8389 2121,https://location.westernunion.com/mx/nuevo-leon/guadalupe/7fe2c4e29838342385b2dc25ed0adf41,Mo-Su 08:00-22:00,Western Union,Q861042
5ab2e0c2056cbf1afe448b3d35ebccf5,western_union,OXXO MISION LA SILLA MTY,,Guadalupe,NUEVO LEON,,MX,+52 81 8389 2121,https://location.westernunion.com/mx/nuevo-leon/guadalupe/5ab2e0c2056cbf1afe448b3d35ebccf5,Mo-Su 08:00-22:00,Western Union,Q861042
51e4a933af0cf8150639d2daa89bb65a,western_union,7ELEVEN CADEREYTA ALLENDE 2418,,Cadereyta De Jimenez,NUEVO LEON,,MX,+52 800 833 4700,https://location.westernunion.com/mx/nuevo-leon/cadereyta-de-jimenez/51e4a933af0cf8150639d2daa89bb65a,Mo-Su 06:00-22:00,Western Union,Q861042
66539d5fac611a90fb229380c7e36523,western_union,7ELEVEN CADEREYTA ALLENDE 2418,,Cadereyta De Jimenez,NUEVO LEON,,MX,+52 800 833 4700,https://location.westernunion.com/mx/nuevo-leon/cadereyta-de-jimenez/66539d5fac611a90fb229380c7e36523,Mo-Su 06:00-22:00,Western Union,Q861042
558038c89403b8984cd9f15369e4ee2f,western_union,7ELEVEN CADEREYTA ALLENDE 2418,,Cadereyta De Jimenez,NUEVO LEON,,MX,+52 800 833 4700,https://location.westernunion.com/mx/nuevo-leon/cadereyta-de-jimenez/558038c89403b8984cd9f15369e4ee2f,Mo-Su 06:00-22:00,Western Union,Q861042
cd475d234a43d9b4388999ac5415adea,western_union,ELECZION PABLO LIVAS 1264,,Monterrey,NUEVO LEON,,MX,+52 55 5246 0700,https://location.westernunion.com/mx/nuevo-leon/monterrey/cd475d234a43d9b4388999ac5415adea,Mo-Su 06:30-23:30,Western Union,Q861042
0e873ce55ffa69639b4050a76cd09b10,western_union,ELECZION PABLO LIVAS 1264,,Monterrey,NUEVO LEON,,MX,+52 55 5246 0700,https://location.westernunion.com/mx/nuevo-leon/monterrey/0e873ce55ffa69639b4050a76cd09b10,Mo-Su 06:30-23:30,Western Union,Q861042
