Ref,Spider,Name,Address,City,State,Zipcode,Country,Phone,Website,Hours,Brand,WikiData
ed3daf272994d2cf9a7b56d69c7d5235,western_union,BNDA PRAGUE,,Nioro Du Sahel,KAYES,,ML,+223 76 24 45 49,https://location.westernunion.com/ml/kayes/nioro-du-sahel/ed3daf272994d2cf9a7b56d69c7d5235,Mo-Sa 07:30-20:00; Su 07:30-15:00,Western Union,Q861042
fd4754dc9609320013334cbe9c66739b,western_union,BMS SA HALLES DE BAMAKO VI,,Bamako,KAYES,,ML,+223 20 23 31 16,https://location.westernunion.com/ml/kayes/bamako/fd4754dc9609320013334cbe9c66739b,Mo-Fr 07:30-18:30; Sa 07:30-16:00,Western Union,Q861042
360b3d71ce454ce54cdddacb039c16fa,western_union,OFFICINE JACOCO PHARMA,,Diema,KAYES,,ML,+223 74 00 64 36,https://location.westernunion.com/ml/kayes/diema/360b3d71ce454ce54cdddacb039c16fa,Mo-Fr 07:00-19:00; Sa 08:30-17:00; Su 09:00-12:00,Western Union,Q861042
6e5d5f49cb61fbc583dde2b8035774c9,western_union,BNDA PHARMACIE  OFFICINE NIAMOYE TOURE,,Kayes,KAYES,,ML,+223 79 31 92 15,https://location.westernunion.com/ml/kayes/kayes/6e5d5f49cb61fbc583dde2b8035774c9,Mo-Su 07:30-20:00,Western Union,Q861042
546ac752db16683b0272571c62416cfd,western_union,AGENCE DE KITA,,Kita,KAYES,,ML,+223 20 70 05 00,https://location.westernunion.com/ml/kayes/kita/546ac752db16683b0272571c62416cfd,Mo-Th 07:30-18:00; Fr-Sa 07:30-13:00,Western Union,Q861042
7b2c2885383eda58fb5a315510d9814d,western_union,BDM SA,,Manantali,KAYES,,ML,(+223) 576005,https://location.westernunion.com/ml/kayes/manantali/7b2c2885383eda58fb5a315510d9814d,Mo-Fr 08:00-17:00; Sa 08:00-16:00,Western Union,Q861042
5c1ad81d2465d15957a34d09a0af95a4,western_union,ORABANK KAYES,,Kayes,KAYES,,ML,+223 20 70 61 00,https://location.westernunion.com/ml/kayes/kayes/5c1ad81d2465d15957a34d09a0af95a4,Mo-Sa 08:00-17:00,Western Union,Q861042
2f19c03eba999c60162ecd78e1e000a2,western_union,BDM SA,,Yelimane,KAYES,,ML,+223 77 22 60 16,https://location.westernunion.com/ml/kayes/yelimane/2f19c03eba999c60162ecd78e1e000a2,Mo-Sa 08:00-18:00,Western Union,Q861042
0c740cc3f7461e738b9b0a8a39b69eb9,western_union,KEYEBA,,Keyeba,KAYES,,ML,+223 20 21 05 36,https://location.westernunion.com/ml/kayes/keyeba/0c740cc3f7461e738b9b0a8a39b69eb9,Mo-Fr 08:00-18:00; Sa 08:00-13:00,Western Union,Q861042
066bb40ba5a70654cfe75dfa11e3af17,western_union,BANQUE DE DEVELOPPEMENT DU MALI  SA,,Gangonteri,KAYES,,ML,+223 20 72 68 60,https://location.westernunion.com/ml/kayes/gangonteri/066bb40ba5a70654cfe75dfa11e3af17,Mo-Fr 07:00-19:00; Sa 08:30-17:00; Su 09:00-12:00,Western Union,Q861042
3ed26781f3007f8da4fdbdcbeb1268cb,western_union,BUREAU DE MAHINA,,Mahina,KAYES,,ML,+223 20 20 36 14,https://location.westernunion.com/ml/kayes/mahina/3ed26781f3007f8da4fdbdcbeb1268cb,Mo-Sa 07:30-19:00; Su 07:30-12:30,Western Union,Q861042
7079de4c95eeb75e097e269134cee90c,western_union,DIALLO ALPHA OUMAR,,Kita,KAYES,,ML,+223 21 57 31 87,https://location.westernunion.com/ml/kayes/kita/7079de4c95eeb75e097e269134cee90c,Mo-Fr 08:00-18:00; Sa 08:00-17:00,Western Union,Q861042
3175b9acce71bd1366c2f09fe44066cc,western_union,ECOBANK TRAORE KADIATOU,,Bamako,KAYES,,ML,+223 66 76 41 49,https://location.westernunion.com/ml/kayes/bamako/3175b9acce71bd1366c2f09fe44066cc,Mo-Su 08:00-23:00,Western Union,Q861042
12bc935ec18e362b7dfff325149e6ce3,western_union,DJIARA SIBY,,Kayes,KAYES,,ML,+223 76 08 64 76,https://location.westernunion.com/ml/kayes/kayes/12bc935ec18e362b7dfff325149e6ce3,Mo-Su 08:00-21:00,Western Union,Q861042
56ead51e6584a3ab4883606eaa618801,western_union,BMS SA DOUMBIA MULTI SERVICES I,,Kayes,KAYES,,ML,+223 20 23 31 16,https://location.westernunion.com/ml/kayes/kayes/56ead51e6584a3ab4883606eaa618801,Mo-Fr 07:30-18:30; Sa 07:30-16:00; Su 09:30-15:30,Western Union,Q861042
7f962f92372a2d4dd85dc24d2ef21f14,western_union,BCI AGENCE DE KAYES,,Kayes,KAYES,,ML,+223 21 52 11 23,https://location.westernunion.com/ml/kayes/kayes/7f962f92372a2d4dd85dc24d2ef21f14,Mo-Th 07:30-16:30; Fr 07:30-14:00; Sa 09:00-14:00,Western Union,Q861042
3654b32ed85fdbdc13076b5e9236cd47,western_union,BNDA PHRCIE OFFI NIAMOYE TOU,,Kayes,KAYES,,ML,+223 66 94 98 37,https://location.westernunion.com/ml/kayes/kayes/3654b32ed85fdbdc13076b5e9236cd47,Mo-Sa 08:00-22:00; Su 08:00-20:00,Western Union,Q861042
696180f4cbefcd6393cd20f4bd33edc6,western_union,BNDA PHRCIE OFFI NIAMOYE TO,,Kayes,KAYES,,ML,+223 66 94 98 37,https://location.westernunion.com/ml/kayes/kayes/696180f4cbefcd6393cd20f4bd33edc6,Mo-Sa 08:00-20:00; Su 08:00-15:00,Western Union,Q861042
9b504fb5ca3f46354cf74fe3c3b18331,western_union,BMS SA OUMOU CISSE II,,Kayes,KAYES,,ML,+223 20 20 31 34,https://location.westernunion.com/ml/kayes/kayes/9b504fb5ca3f46354cf74fe3c3b18331,Mo-Fr 07:30-16:30; Sa 08:00-16:00,Western Union,Q861042
4193cd05c374bfaf8568a2fd519f6d13,western_union,LES MULTI -SERVICES DE OMMA,,Kayes,KAYES,,ML,+223 68 32 99 99,https://location.westernunion.com/ml/kayes/kayes/4193cd05c374bfaf8568a2fd519f6d13,Mo-Sa 08:00-20:00; Su 08:00-15:00,Western Union,Q861042
b8488cd03d4ac124424caf1b315d2bf9,western_union,BMS SA DJIME SACKO XIV,,Kayes,KAYES,,ML,+223 20 23 31 16,https://location.westernunion.com/ml/kayes/kayes/b8488cd03d4ac124424caf1b315d2bf9,Mo-Sa 07:30-20:30; Su 08:00-18:30,Western Union,Q861042
45931fb55a168d55fff7059efe285bab,western_union,BNDA VIMOSA SERVICES KITA,,Kita Bafoulabe,KAYES,,ML,+223 20 71 82 72,https://location.westernunion.com/ml/kayes/kita-bafoulabe/45931fb55a168d55fff7059efe285bab,Mo-Su 07:30-20:00,Western Union,Q861042
e6b82540b86572c06307e2cfb0cd2664,western_union,ETS M H B,,Kayes,KAYES,,ML,+223 66 19 11 15,https://location.westernunion.com/ml/kayes/kayes/e6b82540b86572c06307e2cfb0cd2664,Mo-Fr 08:00-18:00; Sa-Su 09:00-17:00,Western Union,Q861042
24e96981d0c8057421b055c0fdc8a3e4,western_union,ORABANK KITA,,Kita,KAYES,,ML,+223 20 76 10 00,https://location.westernunion.com/ml/kayes/kita/24e96981d0c8057421b055c0fdc8a3e4,Mo-Fr 08:00-17:00; Sa 08:00-16:00,Western Union,Q861042
50cab6586cdba6b182dc26cf40f5cc5d,western_union,TOUNKARA BACOU MADY,,Kita,KAYES,,ML,+223 78 00 34 66,https://location.westernunion.com/ml/kayes/kita/50cab6586cdba6b182dc26cf40f5cc5d,Mo-Fr 07:00-19:00; Sa 08:30-17:00; Su 09:00-12:00,Western Union,Q861042
8fc3ea09297593214bced5a48822a9eb,western_union,CHEICK ABDOUL KHADRE DRAME,,Kayes,KAYES,,ML,+223 66 77 46 45,https://location.westernunion.com/ml/kayes/kayes/8fc3ea09297593214bced5a48822a9eb,Mo-Su 08:00-23:00,Western Union,Q861042
bb29aabfd1362de6f508694ea997218f,western_union,LAGARE COM,,Kayes,KAYES,,ML,+223 91 55 05 28,https://location.westernunion.com/ml/kayes/kayes/bb29aabfd1362de6f508694ea997218f,Mo-Su 08:00-23:00,Western Union,Q861042
7059574148ddce4230b283615b5b6a3b,western_union,ECOBANK DOUMBIA MOUSSA,,Kayes,KAYES,,ML,+223 79 18 21 04,https://location.westernunion.com/ml/kayes/kayes/7059574148ddce4230b283615b5b6a3b,Mo-Su 08:00-23:00,Western Union,Q861042
f866d13f922dbbd77454afca53c97cbe,western_union,CORIS BANK AGENCE KAYES,,Kayes,KAYES,,ML,+223 20 70 59 19,https://location.westernunion.com/ml/kayes/kayes/f866d13f922dbbd77454afca53c97cbe,Mo-Th 07:00-17:30; Fr-Sa 07:00-13:00,Western Union,Q861042
921f38fa2fbd256ff1e6cbb1789a60db,western_union,BDM SA KAYES I,,Kayes,KAYES,,ML,+223 21 52 35 82,https://location.westernunion.com/ml/kayes/kayes/921f38fa2fbd256ff1e6cbb1789a60db,Mo-Th 07:30-17:30; Fr 08:00-17:30; Sa 08:00-16:30,Western Union,Q861042
e476aaaaa69af103cd96211ff6df7744,western_union,BMS SA DJIME SACKO XII,,Kayes,KAYES,,ML,+223 20 23 31 16,https://location.westernunion.com/ml/kayes/kayes/e476aaaaa69af103cd96211ff6df7744,Mo-Sa 07:30-19:00; Su 08:30-18:30,Western Union,Q861042
a31a75c8984e6142f963abb82d94be00,western_union,BDM KENIEBA,,Kenieba,KAYES,,ML,+223 20 20 36 12,https://location.westernunion.com/ml/kayes/kenieba/a31a75c8984e6142f963abb82d94be00,Mo-Fr 08:00-18:00; Sa 08:00-15:00,Western Union,Q861042
28e63a9a05b0ac593aae71328fc18037,western_union,BMS SA DJIME SACKO VI,,Segala,KAYES,,ML,+223 20 20 31 16,https://location.westernunion.com/ml/kayes/segala/28e63a9a05b0ac593aae71328fc18037,Mo-Th 07:30-17:30; Fr 08:00-16:30; Sa 08:00-16:00,Western Union,Q861042
0ff4108d5122ac0ed72c0a9b0f6e369b,western_union,BMS SA GENERAL SERVVICE II,,Kayes,KAYES,,ML,(+223) 202,https://location.westernunion.com/ml/kayes/kayes/0ff4108d5122ac0ed72c0a9b0f6e369b,Mo-Fr 07:30-19:30; Sa 07:30-18:00; Su 08:30-17:30,Western Union,Q861042
