Ref,Spider,Name,Address,City,State,Zipcode,Country,Phone,Website,Hours,Brand,WikiData
1111,kfc_amrest,KFC Delta Planet Niš,,Niš,Central Serbia,,RS,+381 64 8730019,,Mo-Su 10:00-22:00,KFC,Q524757
9105,lukoil,Mediana,"Bulevar Cara Konstantina, nn, 18000, Nis",Nis,Central Serbia,,RS,,,24/7,Lukoil,Q329347
9027,lukoil,Jastrebac,"12. Februara, nn, 18000, Nis",Nis,Central Serbia,,RS,,,24/7,Lukoil,Q329347
4437,lukoil,Nis autoput,"road Vrane - Nis, nn, 18000, Nis",Nis,Central Serbia,,RS,,,24/7,Lukoil,Q329347
4433,lukoil,Bozidara Adzije,"Bozidara Adzije, nn, 18000, Nis",Nis,Central Serbia,,RS,,,24/7,Lukoil,Q329347
f42c8d90b86e3b4d1e82e85de335d4af,western_union,MENJACNICA EURO 5,,Nis,Central Serbia,,RS,+381 18 240099,https://location.westernunion.com/yu/state/nis/f42c8d90b86e3b4d1e82e85de335d4af,Mo-Su 08:00-22:00,Western Union,Q861042
29435a6fffe445391048d68c9e026c33,western_union,CEKIN 3,,Nis,Central Serbia,,RS,+381 11 3334999,https://location.westernunion.com/yu/state/nis/29435a6fffe445391048d68c9e026c33,Mo-Sa 08:00-16:00,Western Union,Q861042
664c4a0945c18d05cf682cba19163add,western_union,MENJACNICA EURO 5,,Nis,Central Serbia,,RS,+381 18 4200999,https://location.westernunion.com/yu/state/nis/664c4a0945c18d05cf682cba19163add,Mo-Sa 08:00-22:00; Su 10:00-22:00,Western Union,Q861042
bbff98960e9706069a4f06f311ffa693,western_union,ELDORADO 19,,Nis,Central Serbia,,RS,+381 11 3334999,https://location.westernunion.com/yu/state/nis/bbff98960e9706069a4f06f311ffa693,Mo-Su 07:00-23:00,Western Union,Q861042
cfbcff393e81d7816b9bcb7f422c3d15,western_union,MENJACNICA EURO 5,,Nis,Central Serbia,,RS,+381 18 240099,https://location.westernunion.com/yu/state/nis/cfbcff393e81d7816b9bcb7f422c3d15,Mo-Sa 08:00-22:00; Su 10:00-22:00,Western Union,Q861042
813fc943cc30f50cb2d27240453da63e,western_union,MENJACNICA EURO 5,,Nis,Central Serbia,,RS,+381 18 4200999,https://location.westernunion.com/yu/state/nis/813fc943cc30f50cb2d27240453da63e,Mo-Sa 08:00-22:00; Su 10:00-22:00,Western Union,Q861042
e2fb55131e8940a45ee724348682f023,western_union,ELDORADO 19,,Nis,Central Serbia,,RS,+381 11 3334999,https://location.westernunion.com/yu/state/nis/e2fb55131e8940a45ee724348682f023,Mo-Su 07:00-23:00,Western Union,Q861042
0d8051e44d7ebae33039087249356a16,western_union,MENJACNICA EURO 5,,Nis,Central Serbia,,RS,+381 18 240099,https://location.westernunion.com/yu/state/nis/0d8051e44d7ebae33039087249356a16,Mo-Sa 08:00-22:00; Su 10:00-22:00,Western Union,Q861042
3015dfb26b22e5e4335920ac2064a759,western_union,EURO 5,,Nis,Central Serbia,,RS,+381 18 240099,https://location.westernunion.com/yu/state/nis/3015dfb26b22e5e4335920ac2064a759,Mo-Fr 07:30-21:00; Sa 08:00-21:00; Su 10:00-21:00,Western Union,Q861042
4b49cc1ac35a0fcc09fb24d816191fca,western_union,MENJACNICA NINA 22,,Nis,Central Serbia,,RS,+381 11 3334999,https://location.westernunion.com/yu/state/nis/4b49cc1ac35a0fcc09fb24d816191fca,Mo-Fr 09:00-20:00; Sa 10:00-14:00,Western Union,Q861042
9aad0845f79897787298eba07a7bbf69,western_union,MENJACNICA EURO ENTER,,Nis,Central Serbia,,RS,+381 11 3334999,https://location.westernunion.com/yu/state/nis/9aad0845f79897787298eba07a7bbf69,Mo-Sa 08:00-21:00; Su 09:00-15:00,Western Union,Q861042
6fea92a7e3c790264f3ad2820c4ed858,western_union,MENJACNICA EURO 5,,Nis,Central Serbia,,RS,+381 63 492092,https://location.westernunion.com/yu/state/nis/6fea92a7e3c790264f3ad2820c4ed858,Mo-Sa 08:00-22:00; Su 10:00-22:00,Western Union,Q861042
b710a403e028bb427403cdfd37ebc449,western_union,ELDORADO 17,,Nis,Central Serbia,,RS,+381 11 3334999,https://location.westernunion.com/yu/state/nis/b710a403e028bb427403cdfd37ebc449,Mo-Su 07:00-24:00,Western Union,Q861042
4773695115737dc1392c752b41c1be6e,western_union,BOZUR 2,,Nis,Central Serbia,,RS,+381 11 3334999,https://location.westernunion.com/yu/state/nis/4773695115737dc1392c752b41c1be6e,Mo-Sa 07:30-23:30; Su 10:00-19:00,Western Union,Q861042
d96fdb268a0cfd6f307d6a7d2f0e4917,western_union,RAIFFEISEN BANK AD BEOGRAD,,Nis,Central Serbia,,RS,+381 11 3300300,https://location.westernunion.com/yu/state/nis/d96fdb268a0cfd6f307d6a7d2f0e4917,Mo-Fr 09:00-13:00,Western Union,Q861042
5e7af212926a2cb3fc5f0125be6c5a83,western_union,MENJACNICA OPTIMUM RATE,,Nis,Central Serbia,,RS,+381 18 523272,https://location.westernunion.com/yu/state/nis/5e7af212926a2cb3fc5f0125be6c5a83,Mo-Fr 09:00-20:00; Sa 09:00-15:00,Western Union,Q861042
1c1f17e039a0474e0224f988c7cd9e0e,western_union,MENJACNICA EURO 5,,Nis,Central Serbia,,RS,+381 18 4580800,https://location.westernunion.com/yu/state/nis/1c1f17e039a0474e0224f988c7cd9e0e,Mo-Sa 08:00-22:00; Su 10:00-22:00,Western Union,Q861042
6812cf5bc17dd48f4306b87a9b85e5cb,western_union,MENJACNICA EASY CASH,,Nis,Central Serbia,,RS,+381 11 3334999,https://location.westernunion.com/yu/state/nis/6812cf5bc17dd48f4306b87a9b85e5cb,Mo-Su 08:00-22:00,Western Union,Q861042
63b25a1343cd8e119344d78b5571efc7,western_union,MENJACNICA DENIKO KIDS,,Nis,Central Serbia,,RS,+381 18 526244,https://location.westernunion.com/yu/state/nis/63b25a1343cd8e119344d78b5571efc7,Mo-Fr 08:00-20:00; Sa 08:00-17:00; Su 10:00-13:00,Western Union,Q861042
3da7877b8484d3b26c5ad84d1f54cb26,western_union,MENJACNICA STARA PALILULA,,Nis,Central Serbia,,RS,+381 18 512721,https://location.westernunion.com/yu/state/nis/3da7877b8484d3b26c5ad84d1f54cb26,Mo-Fr 08:00-20:00; Sa 08:00-15:00,Western Union,Q861042
eb8b844764e1df6e680a2f4ed03f7491,western_union,MENJACNICA SKOR,,Nis,Central Serbia,,RS,+381 18 528120,https://location.westernunion.com/yu/state/nis/eb8b844764e1df6e680a2f4ed03f7491,Mo-Fr 07:30-20:30; Sa 08:00-17:00,Western Union,Q861042
883dcb9e226c51f60dfdb1ec0b64a727,western_union,MENJACNICA TEA TRADE,,Nis,Central Serbia,,RS,+381 18 522912,https://location.westernunion.com/yu/state/nis/883dcb9e226c51f60dfdb1ec0b64a727,Mo-Fr 08:30-20:30; Sa 09:00-17:00,Western Union,Q861042
07dcf1d81b94b7f8f6930c1944a2b770,western_union,MENJACNICA DINAR DVA,,Nis,Central Serbia,,RS,+381 11 3334999,https://location.westernunion.com/yu/state/nis/07dcf1d81b94b7f8f6930c1944a2b770,Mo-Fr 06:30-21:00; Sa 06:30-20:00; Su 06:30-19:00,Western Union,Q861042
465101cf488c6be9cf3fe5cf6a977491,western_union,MENJACNICA DENIKO KIDS,,Nis,Central Serbia,,RS,+381 64 2209787,https://location.westernunion.com/yu/state/nis/465101cf488c6be9cf3fe5cf6a977491,Mo-Sa 08:00-17:00; Su 10:00-15:00,Western Union,Q861042
880e87de69e6f7d1e7e43dd06a423129,western_union,MENJACNICA EURO 5,,Nis,Central Serbia,,RS,+381 18 240099,https://location.westernunion.com/yu/state/nis/880e87de69e6f7d1e7e43dd06a423129,Mo-Sa 08:00-22:00; Su 10:00-22:00,Western Union,Q861042
0b4776c0e690a03b8331c0925f405c7c,western_union,Heppening Plus 1,,Nis,Central Serbia,,RS,+381 11 3334999,https://location.westernunion.com/yu/state/nis/0b4776c0e690a03b8331c0925f405c7c,Mo-Su 08:00-22:00,Western Union,Q861042
61d73bb69ed8f4783869481338c139ad,western_union,EXCLUSIVE CHANGE 18,,Nis,Central Serbia,,RS,+381 11 3334999,https://location.westernunion.com/yu/state/nis/61d73bb69ed8f4783869481338c139ad,Mo-Su 10:00-22:00,Western Union,Q861042
49896dabaa41441ed5966456ecfc4a37,western_union,MENJACNICA STOP NIS,,Nis,Central Serbia,,RS,+381 18 4561888,https://location.westernunion.com/yu/state/nis/49896dabaa41441ed5966456ecfc4a37,Mo-Fr 08:00-20:00; Sa 08:00-18:00,Western Union,Q861042
ff58c2bcb3757ddae00ebfdba087a564,western_union,TRIJUMF LJ AND M,,Nis,Central Serbia,,RS,+381 11 3334999,https://location.westernunion.com/yu/state/nis/ff58c2bcb3757ddae00ebfdba087a564,Mo-Fr 09:00-17:00; Sa 09:00-13:00,Western Union,Q861042
4c7d8e1d24909a54e0f7c56658ede8d5,western_union,MENJACNICA EURO 5,,Nis,Central Serbia,,RS,+381 18 536449,https://location.westernunion.com/yu/state/nis/4c7d8e1d24909a54e0f7c56658ede8d5,Mo-Sa 08:00-22:00; Su 10:00-22:00,Western Union,Q861042
f1383f28b4eb8cdf05402be65f9529d9,western_union,BANKA POSTANSKA STEDIONICA,,Nis,Central Serbia,,RS,+381 11 3024662,https://location.westernunion.com/yu/state/nis/f1383f28b4eb8cdf05402be65f9529d9,Mo-Fr 07:30-20:00; Sa 08:00-15:00,Western Union,Q861042
521a10389a906434036937c0bca14710,western_union,EURO 5,,Nis,Central Serbia,,RS,+381 18 240099,https://location.westernunion.com/yu/state/nis/521a10389a906434036937c0bca14710,Mo-Sa 08:00-22:00; Su 10:00-22:00,Western Union,Q861042
01e3e957652093eb6e772bb4b42dc73e,western_union,MENJACNICA EURO 5,,Nis,Central Serbia,,RS,+381 18 210275,https://location.westernunion.com/yu/state/nis/01e3e957652093eb6e772bb4b42dc73e,Mo-Tu 08:00-22:00; We 08:00-02:20; Th-Sa 08:00-22:00; Su 10:00-22:00,Western Union,Q861042
acb816d1161cdcb820641b9e0f4e392d,western_union,MENJACNICA EURO 5,,Nis,Central Serbia,,RS,+381 18 206278,https://location.westernunion.com/yu/state/nis/acb816d1161cdcb820641b9e0f4e392d,Mo-Sa 08:00-22:00; Su 10:00-22:00,Western Union,Q861042
d14b831902785a581a5552d4234d9b78,western_union,MENJACNICA EURO 5,,Nis,Central Serbia,,RS,+381 63 492092,https://location.westernunion.com/yu/state/nis/d14b831902785a581a5552d4234d9b78,Mo-Sa 08:00-22:00; Su 10:00-22:00,Western Union,Q861042
8820369f14b1507327ec1b783366ac0f,western_union,MENJACNICA EURO 5,,Nis,Central Serbia,,RS,+381 63 492092,https://location.westernunion.com/yu/state/nis/8820369f14b1507327ec1b783366ac0f,Mo-Sa 08:00-22:00; Su 10:00-22:00,Western Union,Q861042
fa0c5190752c7f5e5a5cdf17255171d3,western_union,MENJACNICA EURO 5,,Nis,Central Serbia,,RS,+381 63 492092,https://location.westernunion.com/yu/state/nis/fa0c5190752c7f5e5a5cdf17255171d3,Mo-Sa 08:00-22:00; Su 10:00-22:00,Western Union,Q861042
a259f78828dbf1e5395f09f3bfd92b92,western_union,MENJACNICA EURO 5,,Nis,Central Serbia,,RS,+381 18 520033,https://location.westernunion.com/yu/state/nis/a259f78828dbf1e5395f09f3bfd92b92,Mo-Sa 08:00-22:00; Su 10:00-22:00,Western Union,Q861042
0e4686ff2e89b47baf2728832810be39,western_union,BOZUR 3,,Nis,Central Serbia,,RS,+381 11 3334999,https://location.westernunion.com/yu/state/nis/0e4686ff2e89b47baf2728832810be39,Mo-Sa 07:30-22:00,Western Union,Q861042
0a893dd45f21ed131a3fcaa7b7619c55,western_union,MENJACNICA MPS TREND,,Nis,Central Serbia,,RS,+381 64 1118216,https://location.westernunion.com/yu/state/nis/0a893dd45f21ed131a3fcaa7b7619c55,Mo-Fr 08:30-20:00; Sa 09:00-15:00,Western Union,Q861042
1170dbc019e6555fb77e0123c85309da,western_union,BANCA INTESA AD BEOGRAD,,Nis,Central Serbia,,RS,+381 11 3341190,https://location.westernunion.com/yu/state/nis/1170dbc019e6555fb77e0123c85309da,Mo-Fr 08:00-19:00; Sa 08:00-12:00,Western Union,Q861042
5aa8f0ab062f1a51a3e7c88414ade343,western_union,MENJACNICA DINAR DVA,,Nis,Central Serbia,,RS,+381 11 3334999,https://location.westernunion.com/yu/state/nis/5aa8f0ab062f1a51a3e7c88414ade343,Mo-Sa 08:00-23:00,Western Union,Q861042
4d02df288c79883f963bb934ebf5081c,western_union,MENJACNICA EURO 5,,Nis,Central Serbia,,RS,+381 18 514091,https://location.westernunion.com/yu/state/nis/4d02df288c79883f963bb934ebf5081c,Mo-Sa 08:00-22:00; Su 10:00-22:00,Western Union,Q861042
7d077ded799660dd7bc2c0cacce73457,western_union,MENJACNICA PINE,,Nis,Central Serbia,,RS,+381 11 3334999,https://location.westernunion.com/yu/state/nis/7d077ded799660dd7bc2c0cacce73457,Mo-Fr 08:00-20:00; Sa 08:30-14:00,Western Union,Q861042
2624db401b2f5471d8b48c7945274cd5,western_union,MENJACNICA EURO 5,,Nis,Central Serbia,,RS,+381 18 240099,https://location.westernunion.com/yu/state/nis/2624db401b2f5471d8b48c7945274cd5,Mo-Su 08:00-22:00,Western Union,Q861042
a85e0e16a5493aceefe3e1cef9f80f06,western_union,HB SISTEM,,Nis,Central Serbia,,RS,+381 11 3334999,https://location.westernunion.com/yu/state/nis/a85e0e16a5493aceefe3e1cef9f80f06,Mo-Sa 08:00-20:00; Su 09:00-15:00,Western Union,Q861042
29187450a937df0a3d5afd57245d2ac6,western_union,AIK BANKA AD BEOGRAD,,Nis,Central Serbia,,RS,+381 11 3300300,https://location.westernunion.com/yu/state/nis/29187450a937df0a3d5afd57245d2ac6,Mo-Fr 09:00-19:00; Sa 08:00-13:00,Western Union,Q861042
ed43a9b9849dd09daf3e1613a6eb52da,western_union,MENJACNICA EURO 5,,Nis,Central Serbia,,RS,+381 18 532777,https://location.westernunion.com/yu/state/nis/ed43a9b9849dd09daf3e1613a6eb52da,Mo-Sa 08:00-22:00; Su 10:00-22:00,Western Union,Q861042
925dfad711335791e0f7468c0629d669,western_union,MINESTA,,Nis,Central Serbia,,RS,+381 11 3334999,https://location.westernunion.com/yu/state/nis/925dfad711335791e0f7468c0629d669,Mo-Su 07:00-23:00,Western Union,Q861042
9e688f64511063cdad7b5added2ce40c,western_union,EASY CASH 1,,Nis,Central Serbia,,RS,+381 11 3334999,https://location.westernunion.com/yu/state/nis/9e688f64511063cdad7b5added2ce40c,Mo-Fr 09:00-20:00; Sa 09:00-16:00,Western Union,Q861042
e1564524ab14ab60a2b4e9bbb9fff329,western_union,VIP DELTA PLANET,,Nis,Central Serbia,,RS,+381 11 3334999,https://location.westernunion.com/yu/state/nis/e1564524ab14ab60a2b4e9bbb9fff329,Mo-Su 10:00-22:00,Western Union,Q861042
ad005c014b809ed7caed47d025797eb8,western_union,MENJACNICA BRAND CHANGE,,Nis,Central Serbia,,RS,+381 11 3334999,https://location.westernunion.com/yu/state/nis/ad005c014b809ed7caed47d025797eb8,Mo-Fr 08:00-20:00; Sa 08:00-14:00,Western Union,Q861042
116d1de08ee1009ae6bfb2822f66097d,western_union,DAB DUKI,,Nis,Central Serbia,,RS,+381 11 3334999,https://location.westernunion.com/yu/state/nis/116d1de08ee1009ae6bfb2822f66097d,Mo-Sa 08:00-20:00,Western Union,Q861042
73591a88072082b00aa23da4965b975d,western_union,MENJACNICA EURO 5,,Nis,Central Serbia,,RS,+381 18 278200,https://location.westernunion.com/yu/state/nis/73591a88072082b00aa23da4965b975d,Mo-Sa 08:00-22:00; Su 10:00-22:00,Western Union,Q861042
029995b413ad46ed39632c83b3769379,western_union,CEKIN 2,,Nis,Central Serbia,,RS,+381 11 3334999,https://location.westernunion.com/yu/state/nis/029995b413ad46ed39632c83b3769379,Mo-Su 00:01-24:00,Western Union,Q861042
e3975acf34bb376d21e9e3cb4ff2638c,western_union,CEKIN DOO,,Nis,Central Serbia,,RS,+381 11 3334999,https://location.westernunion.com/yu/state/nis/e3975acf34bb376d21e9e3cb4ff2638c,Mo-Su 07:00-24:00,Western Union,Q861042
ea0eaaceee7d5439c3cc665be04dce60,western_union,CEKIN DOO,,Nis,Central Serbia,,RS,+381 11 3334999,https://location.westernunion.com/yu/state/nis/ea0eaaceee7d5439c3cc665be04dce60,Mo-Sa 08:00-20:00,Western Union,Q861042
538be5073b5cf6cde564e55ca2d58221,western_union,MENJACNICA IKA NENA,,Nis,Central Serbia,,RS,+381 11 3334999,https://location.westernunion.com/yu/state/nis/538be5073b5cf6cde564e55ca2d58221,Mo-Fr 08:00-18:00; Sa 09:00-16:00,Western Union,Q861042
5bebcc7fbbac9091b7ac8b1baa24a834,western_union,IKA NENA 2,,Nis,Central Serbia,,RS,+381 11 3334999,https://location.westernunion.com/yu/state/nis/5bebcc7fbbac9091b7ac8b1baa24a834,Mo-Fr 09:00-17:00; Sa 09:00-13:00,Western Union,Q861042
922e4dbd25a748554ef7980e4454f62f,western_union,MENJACNICA EURO 5,,Nis,Central Serbia,,RS,+381 18 300731,https://location.westernunion.com/yu/state/nis/922e4dbd25a748554ef7980e4454f62f,Mo-Sa 08:00-22:00; Su 10:00-22:00,Western Union,Q861042
c7d76578581080f386d204bb4bb421f2,western_union,MENJACNICA EURO 5,,Brzi Brod Nis,Central Serbia,,RS,+381 18 206278,https://location.westernunion.com/yu/state/brzi-brod-nis/c7d76578581080f386d204bb4bb421f2,Mo-Sa 08:00-22:00; Su 10:00-22:00,Western Union,Q861042
2dcc6343bbd6d2b49148b3dd7ec4c59f,western_union,MENJACNICA EURO 5,,Nis,Central Serbia,,RS,+381 18 210275,https://location.westernunion.com/yu/state/nis/2dcc6343bbd6d2b49148b3dd7ec4c59f,Mo-Sa 08:00-22:00; Su 10:00-22:00,Western Union,Q861042
593270ebacd1c7a4b388dbbaed6d1d36,western_union,CEKIN LUX,,Nis,Central Serbia,,RS,+381 11 3334999,https://location.westernunion.com/yu/state/nis/593270ebacd1c7a4b388dbbaed6d1d36,Mo-Sa 08:00-20:00,Western Union,Q861042
71cffa619a0ea1465638a07a6a2cd097,western_union,MENJACNICA EURO 5,,Nis,Central Serbia,,RS,+381 18 240099,https://location.westernunion.com/yu/state/nis/71cffa619a0ea1465638a07a6a2cd097,Mo-Sa 08:00-22:00; Su 10:00-22:00,Western Union,Q861042
