Ref,Spider,Name,Address,City,State,Zipcode,Country,Phone,Website,Hours,Brand,WikiData
https://stores.advanceautoparts.com/va/lynchburg/3200-old-forest-rd,advance_auto_parts_us,Advance Auto Parts,,Lynchburg,VA,,US,+1 434-200-8005,https://stores.advanceautoparts.com/va/lynchburg/3200-old-forest-rd,Mo-Sa 07:30-21:00; Su 09:00-20:00,Advance Auto Parts,Q4686051
https://stores.advanceautoparts.com/va/lynchburg/3806-campbell-ave,advance_auto_parts_us,Advance Auto Parts,,Lynchburg,VA,,US,+1 434-847-6748,https://stores.advanceautoparts.com/va/lynchburg/3806-campbell-ave,Mo-Sa 07:30-21:00; Su 09:00-20:00,Advance Auto Parts,Q4686051
https://stores.aldi.us/#4420904,aldi_sud_us,ALDI  2617 Lakeside Dr,,Lynchburg,VA,,US,+1 833-480-7070,https://stores.aldi.us/va/lynchburg/2617-lakeside-dr,"Mo-Su 08:00-20:00,09:00-20:00",ALDI,Q41171672
946,autozone_us,AutoZone Auto Parts Lynchburg,,Lynchburg,VA,,US,+1 434-847-0694,https://www.autozone.com/locations/va/lynchburg/2525-fort-ave.html,Mo-Sa 07:30-21:00; Su 09:00-20:00,AutoZone,Q4826087
189311,bluerhino,Overstreet Hardware and Rental #17053,,Lynchburg,VA,,US,+1 434-385-5150,,,Blue Rhino,Q65681213
121339,bluerhino,Walmart #4697 - Supercenter,,Lynchburg,VA,,US,+1 434-200-9132,,,Blue Rhino,Q65681213
148675,bluerhino,Speedway #4639,,Lynchburg,VA,,US,+1 434-237-0759,,,Blue Rhino,Q65681213
74274,bluerhino,Food Lion #2579,,Lynchburg,VA,,US,+1 434-237-9063,,,Blue Rhino,Q65681213
221480,bluerhino,Dollar General #4018,,LYNCHBURG,VA,,US,+1 434-515-2931,,,Blue Rhino,Q65681213
187846,bluerhino,Family Dollar #00812,,Lynchburg,VA,,US,+1 434-846-1152,,,Blue Rhino,Q65681213
164325,bluerhino,Family Dollar #05188,,LYNCHBURG,VA,,US,+1 434-847-1266,,,Blue Rhino,Q65681213
148678,bluerhino,Speedway #4640,,Lynchburg,VA,,US,+1 434-528-4375,,,Blue Rhino,Q65681213
12147,bluerhino,Food Lion #0992,,Lynchburg,VA,,US,+1 434-845-0150,,,Blue Rhino,Q65681213
39741_01,bmw_group,BMW of Lynchburg,,Lynchburg,VA,,US,+1 434-385-6226,https://www.bmwoflynchburg.com,,BMW,Q26678
va/lynchburg/3280-old-forest-road,bojangles,"Bojangles Lynchburg, VA",,Lynchburg,VA,,US,+1 434-316-5359,https://locations.bojangles.com/va/lynchburg/3280-old-forest-road.html,,Bojangles',Q891163
va_lynchburg_3901-old-forest-rd,chipotle, ,,Lynchburg,VA,,US,+1 434-385-0328,https://locations.chipotle.com/va/lynchburg/3901-old-forest-rd,,Chipotle,Q465751
49243,citi,ATM CVS,,Lynchburg,VA,,US,,,,Citibank,Q857063
27842,citi,ATM 7ELEVEN-FCTI,,Lynchburg,VA,,US,,,,Citibank,Q857063
78113,citi,ATM Speedway,,Lynchburg,VA,,US,,,,Citibank,Q857063
50732,citi,ATM CVS,,Lynchburg,VA,,US,,,,Citibank,Q857063
39388,citi,ATM CENTRAL VIRGINIA FEDERAL CREDIT UNION,,Lynchburg,VA,,US,,,,Citibank,Q857063
88677,citi,ATM Walgreens,,Lynchburg,VA,,US,,,,Citibank,Q857063
68361,citi,ATM PNC AT SHEETZ,,Lynchburg,VA,,US,,,,Citibank,Q857063
om_va_lynchburg_2323-memorial-ave,cititrends,Citi Trends,,Lynchburg,VA,,US,+1 434-299-8994,https://locations.cititrends.com/va/lynchburg/2323-memorial-ave.html,Mo 11:00-20:00; Tu 11:00-20:00; We 11:00-20:00; Th 11:00-20:00; Fr 10:00-21:00; Sa 10:00-21:00; Su 12:00-18:00,Citi Trends,Q5122438
70232409,cricket_wireless,Cricket Wireless Authorized Retailer,,Lynchburg,VA,,US,+1 434-616-6089,https://www.cricketwireless.com/stores/ll/US/VA/Lynchburg/3207-Forest-Brook-Rd,Mo-Sa 10:00-19:00; Su 11:00-18:00,Cricket Wireless,Q5184987
3502,cvs_us,CVS Pharmacy,,Lynchburg,VA,,US,+1 434-846-8481,https://www.cvs.com/store-locator/lynchburg-va-pharmacies/3908-campbell-ave-lynchburg-va-24501/storeid=3502,Mo-Sa 08:00-21:00; Su 09:00-21:00,CVS Pharmacy,Q2078880
3512,cvs_us,CVS Pharmacy,,Lynchburg,VA,,US,+1 434-845-5953,https://www.cvs.com/store-locator/lynchburg-va-pharmacies/2259-langhorne-road-lynchburg-va-24501/storeid=3512,Mo-Fr 08:00-21:00; Sa 09:00-21:00; Su 09:00-20:00,CVS Pharmacy,Q2078880
8088,dominos_pizza_us,Domino's Pizza,,Lynchburg,VA,,US,+1 434-544-8115,https://pizza.dominos.com/virginia/lynchburg/1501-lakeside-dr,Mo-Th 10:30-01:00; Fr-Sa 10:30-02:00; Su 10:30-01:00,Domino's,Q839466
8397,dominos_pizza_us,Domino's Pizza,,Lynchburg,VA,,US,+1 434-385-1100,https://pizza.dominos.com/virginia/lynchburg/3207-forest-brook-road,Mo-Th 10:00-24:00; Fr-Sa 10:00-01:00; Su 10:00-24:00,Domino's,Q839466
355668,dunkin_us,Dunkin',,Lynchburg,VA,,US,+1 434-385-0142,https://locations.dunkindonuts.com/en/va/lynchburg/3309-old-forest-rd/355668,Mo-Fr 05:00-20:00; Sa-Su 06:00-20:00,Dunkin',Q847743
https://www.edwardjones.com/us-en/financial-advisor/tim-talley,edwardjones,Tim Talley,,Lynchburg,VA,,US,+1 434-385-5613,https://www.edwardjones.com/us-en/financial-advisor/tim-talley,Mo-Th 08:00-16:30; Fr 08:00-16:00,Edward Jones,Q5343830
E12121,enterprise,Lynchburg Lakeside & Old Forest,,Lynchburg,VA,,US,+1 434-385-7511,,,Enterprise Rent-A-Car,Q17085454
200328406,exxonmobil,VA0259,,LYNCHBURG,VA,,US,+1 434-385-0575,https://www.exxon.com/en/find-station/exxon-lynchburg-va-va0259-200328406,Mo-Su 07:00-23:00,Exxon,Q109675651
https://local.fedex.com/#492766,fedex,FedEx Ship Center,,Lynchburg,VA,,US,+1 800-463-3339,https://local.fedex.com/en-us/va/lynchburg/lyha,,FedEx,Q459477
https://branches.fleetpride.com/va/lynchburg/truckparts-lyn.html,fleet_pride_us,FleetPride,,Lynchburg,VA,,US,+1 434-845-3302,https://branches.fleetpride.com/va/lynchburg/truckparts-lyn.html,Mo-Fr 07:30-17:00; Sa 08:00-12:00,FleetPride,Q121436710
Motorcraft2279USAEnglish,ford,Crossroads Lincoln,,Virginia,VA,,US,+1 434-385-6226,,,Ford,Q44294
Motorcraft2282USAEnglish,ford,"Apple Ford of Lynchburg, Inc.",,Virginia,VA,,US,+1 434-385-5012,,,Ford,Q44294
https://www.ford.com/dealerships/dealer-details/va/lynchburg/apple-ford-of-lynchburg-inc/,ford_dealers_us,"Apple Ford of Lynchburg, Inc.",,Lynchburg,VA,,US,+1 434-300-5032,https://www.ford.com/dealerships/dealer-details/va/lynchburg/apple-ford-of-lynchburg-inc/,Mo-Th 09:00-19:00; Fr-Sa 09:00-18:00,Ford Motor Company,Q44294
100189,fresenius_kidney_care_us,Fresenius Kidney Care Lynchburg Dialysis Center,,Lynchburg,VA,,US,+1 800-881-5101,https://www.freseniuskidneycare.com/dialysis-centers/virginia/100189,Mo 05:00-15:00; We 05:00-15:00; Fr 05:00-15:00,,
6930,gamestop_us,Forest Brook Rd Lynchburg,,Lynchburg,VA,,US,+1 434-385-8059,https://www.gamestop.com/search/?store=6930,Mo-Th 12:00-19:00; Fr-Sa 11:00-21:00; Su 12:00-18:00,GameStop,Q202210
056eafd7-83a3-e311-9471-0050568924e6,goodwill,Lynchburg Store and Donation Center - Old Forest,,Lynchburg,VA,,US,+1 434-385-5375,https://www.goodwill.org/locator/location/?store=MDU2ZWFmZDctODNhMy1lMzExLTk0NzEtMDA1MDU2ODkyNGU2&lat=MzcuNDA5NTY=&lng=LTc5LjIxMTI0,,Goodwill,Q5583655
https://salons.greatclips.com/us/va/lynchburg/3207-forrest-brook-rd,greatclips,Great Clips,,Lynchburg,VA,,US,+1 434-385-8034,https://salons.greatclips.com/us/va/lynchburg/3207-forrest-brook-rd,Mo-Fr 10:00-19:00; Sa 09:00-18:00; Su 12:00-17:00,Great Clips,Q5598967
44216,h_r_block,H&R Block,,Lynchburg,VA,,US,+1 434-846-1387,https://www.hrblock.com/local-tax-offices/virginia/lynchburg/2323-memorial-ave/44216/,,H&R Block,Q5627799
44650,h_r_block,H&R Block,,Lynchburg,VA,,US,+1 434-237-2386,https://www.hrblock.com/local-tax-offices/virginia/lynchburg/airport-plaza-shopping-center/44650/,,H&R Block,Q5627799
https://office.jacksonhewitt.com/#27577921,jackson_hewitt,Jackson Hewitt,,Lynchburg,VA,,US,+1 434-237-9285,https://office.jacksonhewitt.com/tax-preparation-services-locations/en/va/lynchburg/19-wadsworth-street/19834,Mo-Fr 10:00-18:00; Sa 10:00-17:00,Jackson Hewitt,Q6117132
155860,marathon_petroleum_us,QUIK E FOOD STORES 7,,LYNCHBURG,VA,,US,+1 434-845-3102,,,Marathon,Q458363
155864,marathon_petroleum_us,QUIK E FOOD STORES 2,,LYNCHBURG,VA,,US,+1 434-385-5035,,,Marathon,Q458363
155866,marathon_petroleum_us,FORT FOOD MART,,LYNCHBURG,VA,,US,+1 434-845-2227,,,Marathon,Q458363
155872,marathon_petroleum_us,555 Express Market,,LYNCHBURG,VA,,US,+1 434-845-2733,,,Marathon,Q458363
https://locations.massageenvy.com/#1774418,massage_envy,Massage Envy Lynchburg,,Lynchburg Lynchburg,VA,,US,+1 434-385-8600,https://locations.massageenvy.com/virginia/lynchburg/3901-old-forest-rd.html,Mo-Fr 08:00-21:00; Sa 08:00-18:00; Su 10:00-18:00,Massage Envy,Q10327170
0200,mattress_warehouse_us,Mattress Warehouse,,Lynchburg,VA,,US,+1 434-771-5532,https://mattresswarehouse.com/store-locator/mattress-warehouse-of-lynchburg_lakeside-0200-lynchburg-va,Mo-Fr 10:00-21:00; Sa 10:00-20:00; Su 11:00-18:00,Mattress Warehouse,Q61995079
2514-langhorne-road,my_eye_dr,,,Lynchburg,VA,,US,+1 434-845-6086,https://locations.myeyedr.com/va/lynchburg/2514-langhorne-road,,MyEyeDr.,Q117864710
https://locations.oreillyauto.com/va/lynchburg/check-engine-light-testing-4026.html,oreilly,Your Lynchburg O'Reilly Auto Parts Store,,Lynchburg,VA,,US,+1 434-385-5965,https://locations.oreillyauto.com/va/lynchburg/check-engine-light-testing-4026.html,Mo-Sa 07:30-21:00; Su 09:00-20:00,O'Reilly Auto Parts,Q7071951
https://locations.oreillyauto.com/va/lynchburg/battery-testing-4026.html,oreilly,Your Lynchburg O'Reilly Auto Parts Store,,Lynchburg,VA,,US,+1 434-385-5965,https://locations.oreillyauto.com/va/lynchburg/battery-testing-4026.html,Mo-Sa 07:30-21:00; Su 09:00-20:00,O'Reilly Auto Parts,Q7071951
https://locations.oreillyauto.com/va/lynchburg/wiper-installation-4026.html,oreilly,Your Lynchburg O'Reilly Auto Parts Store,,Lynchburg,VA,,US,+1 434-385-5965,https://locations.oreillyauto.com/va/lynchburg/wiper-installation-4026.html,Mo-Sa 07:30-21:00; Su 09:00-20:00,O'Reilly Auto Parts,Q7071951
https://locations.oreillyauto.com/va/lynchburg/autopartes-4026.html,oreilly,Tu tienda O'Reilly Auto Parts en Lynchburg,,Lynchburg,VA,,US,+1 434-385-5965,https://locations.oreillyauto.com/va/lynchburg/autopartes-4026.html,Mo-Sa 07:30-21:00; Su 09:00-20:00,O'Reilly Auto Parts,Q7071951
https://locations.outback.com/#15502495,outbacksteakhouse,Outback Steakhouse,,Lynchburg,VA,,US,+1 434-847-3646,https://locations.outback.com/virginia/lynchburg/3121-albert-lankford-drive,Mo-Th 15:00-21:30; Fr-Sa 11:00-22:00; Su 11:00-21:00,Outback Steakhouse,Q1064893
https://locations.papajohns.com/#10691787,papa_johns,Papa John's,,Lynchburg,VA,,US,+1 434-384-3800,https://locations.papajohns.com/united-states/va/24501/lynchburg/2812-old-forest-road,Mo-Th 10:30-23:00; Fr-Sa 10:30-24:00; Su 10:30-23:00,Papa John's Pizza,Q2759586
https://stores.petco.com/#27959477,petco,Petco Lynchburg,,Lynchburg,VA,,US,+1 434-316-7072,https://stores.petco.com/va/lynchburg/pet-supplies-lynchburg-va-2879.html,Mo-Sa 09:00-20:00; Su 10:00-19:00,Petco,Q7171798
va_lynchburg_2413-memorial-ave,pizza_hut_us,2413 Memorial Ave,,Lynchburg,VA,,US,+1 434-845-1433,https://locations.pizzahut.com/va/lynchburg/2413-memorial-ave,,Pizza Hut,Q191615
2326,rentacenter,Rent-A-Center,,Lynchburg,VA,,US,+1 434-845-3300,https://locations.rentacenter.com/virginia/lynchburg/2323-memorial-ave/,Mo-Sa 10:00-18:00,Rent-A-Center,Q7313497
21117,seven_eleven_ca_us,7-11 Str   2337 Fort Ave,,Lynchburg,VA,,US,+1 434-363-7558,https://www.7-eleven.com/locations/va/lynchburg/2337-fort-ave-21117,,7-Eleven,Q259340
https://restaurants.subway.com/#14908898,subway,Subway,,Lynchburg Lynchburg City,VA,,US,+1 434-385-7294,https://restaurants.subway.com/united-states/va/lynchburg/3035-old-forest-rd,Mo-Sa 08:00-23:00; Su 09:00-23:00,Subway,Q244457
https://restaurants.subway.com/#14905858,subway,Subway,,Lynchburg Lynchburg City,VA,,US,+1 434-847-4631,https://restaurants.subway.com/united-states/va/lynchburg/2509-memorial-ave,Mo-Fr 07:00-24:00; Sa 08:00-24:00; Su 09:00-23:00,Subway,Q244457
https://restaurants.subway.com/#14902277,subway,Subway Wal-Mart #4697,,Lynchburg Lynchburg City,VA,,US,+1 434-455-5999,https://restaurants.subway.com/united-states/va/lynchburg/3227-old-forest-road,Mo-Su 09:00-22:00,Subway,Q244457
0924356900,sunoco_us,Sunoco,,LYNCHBURG,VA,,US,+1 434-528-1389,,,Sunoco,Q1423218
81149,supercuts,Fresh Market Crossing,3901 Old Forest Rd Ste 104,Lynchburg,VA,,US,+1 434-385-5993,https://www.supercuts.com/checkin/81149,Mo-Fr 09:00-18:00; Sa 09:00-17:00,Supercuts,Q7643239
https://locations.tacobell.com/#9477643,taco_bell,Taco Bell,,Lynchburg,VA,,US,+1 434-941-1453,https://locations.tacobell.com/va/lynchburg/3270-old-forest-rd.html,Mo-Th 07:00-01:00; Fr-Sa 07:00-02:00; Su 07:00-01:00,Taco Bell,Q752941
5579,tmobile_us,Old Forest Rd & Lakeside Dr,,Lynchburg,VA,,US,+1 434-616-3285,https://www.t-mobile.com/store-locator/va/lynchburg/old-forest-rd-lakeside-dr,,T-Mobile,Q3511885
921023,uhaul,U-Haul Moving & Storage of Downtown Lynchburg,1760 Park Ave,Lynchburg,VA,,US,+1 434-528-3115,,Mo-Th 00:00-19:00; Fr 00:00-20:00; Sa 00:00-19:00; Su 00:00-17:00,U-Haul,Q7862902
2450100002,usps_collection_boxes,USPS COLLECTION BOX - BLUE BOX,3900 CAMPBELL AVE,LYNCHBURG,VA,,US,,,,United States Postal Service,Q668687
2450100031,usps_collection_boxes,USPS COLLECTION BOX - BLUE BOX,2007 TATE SPRINGS RD,LYNCHBURG,VA,,US,,,,United States Postal Service,Q668687
2450100027,usps_collection_boxes,USPS COLLECTION BOX - BLUE BOX,2323 MEMORIAL AVE,LYNCHBURG,VA,,US,,,,United States Postal Service,Q668687
2450100028,usps_collection_boxes,USPS COLLECTION BOX - BLUE BOX,2323 MEMORIAL AVE,LYNCHBURG,VA,,US,,,,United States Postal Service,Q668687
2450100012,usps_collection_boxes,USPS COLLECTION BOX - BLUE BOX,2500 LANGHORNE RD,LYNCHBURG,VA,,US,,,,United States Postal Service,Q668687
2450100032,usps_collection_boxes,USPS COLLECTION BOX - BLUE BOX,2007 TATE SPRINGS RD,LYNCHBURG,VA,,US,,,,United States Postal Service,Q668687
2450100033,usps_collection_boxes,USPS COLLECTION BOX - BLUE BOX,300 WEEPING WILLOW DR,LYNCHBURG,VA,,US,,,,United States Postal Service,Q668687
lynchburg_oil-change-080032,valvoline_instant_oil_change,Valvoline,3033 Old Forest Road ,Lynchburg,VA,,US,+1 434-439-3466,https://store.vioc.com/va/lynchburg/oil-change-080032.html,,Valvoline Instant Oil Change,Q7912852
A00000245256,verizon_us,Victra Lynchburg Forest Brook Rd,,LYNCHBURG,VA,,US,+1 434-439-3462,https://www.verizon.com/stores/details/virginia/lynchburg/victra-lynchburg-forest-brook-rd-1562622/,Mo-Sa 10:00-20:00; Su 11:00-18:00,Verizon,Q919641
,visa,,,LYNCHBURG,VA,,US,,,,,
,visa,,,LYNCHBURG,VA,,US,,,,,
,visa,,,LYNCHBURG,VA,,US,,,,,
,visa,,,LYNCHBURG,VA,,US,,,,,
,visa,,,LYNCHBURG,VA,,US,,,,,
,visa,,,LYNCHBURG,VA,,US,,,,,
,visa,,,LYNCHBURG,VA,,US,,,,,
,visa,,,LYNCHBURG,VA,,US,,,,,
,visa,,,LYNCHBURG,VA,,US,,,,,
,visa,,,LYNCHBURG,VA,,US,,,,,
,visa,,,LYNCHBURG,VA,,US,,,,,
,visa,,,LYNCHBURG,VA,,US,,,,,
,visa,,,LYNCHBURG,VA,,US,,,,,
,visa,,,LYNCHBURG,VA,,US,,,,,
,visa,,,LYNCHBURG,VA,,US,,,,,
,visa,,,LYNCHBURG,VA,,US,,,,,
,visa,,,LYNCHBURG,VA,,US,,,,,
,visa,,,LYNCHBURG,VA,,US,,,,,
,visa,,,LYNCHBURG,VA,,US,,,,,
,visa,,,LYNCHBURG,VA,,US,,,,,
,visa,,,LYNCHBURG,VA,,US,,,,,
,visa,,,LYNCHBURG,VA,,US,,,,,
,visa,,,LYNCHBURG,VA,,US,,,,,
,visa,,,LYNCHBURG,VA,,US,,,,,
,visa,,,LYNCHBURG,VA,,US,,,,,
,visa,,,LYNCHBURG,VA,,US,,,,,
,visa,,,LYNCHBURG,VA,,US,,,,,
,visa,,,LYNCHBURG,VA,,US,,,,,
,visa,,,LYNCHBURG,VA,,US,,,,,
,visa,,,LYNCHBURG,VA,,US,,,,,
,visa,,,LYNCHBURG,VA,,US,,,,,
,visa,,,LYNCHBURG,VA,,US,,,,,
,visa,,,LYNCHBURG,VA,,US,,,,,
,visa,,,LYNCHBURG,VA,,US,,,,,
,visa,,,LYNCHBURG,VA,,US,,,,,
,visa,,,LYNCHBURG,VA,,US,,,,,
,visa,,,LYNCHBURG,VA,,US,,,,,
,visa,,,LYNCHBURG,VA,,US,,,,,
,visa,,,LYNCHBURG,VA,,US,,,,,
,visa,,,LYNCHBURG,VA,,US,,,,,
,visa,,,LYNCHBURG,VA,,US,,,,,
,visa,,,LYNCHBURG,VA,,US,,,,,
,visa,,,LYNCHBURG,VA,,US,,,,,
,visa,,,LYNCHBURG,VA,,US,,,,,
,visa,,,LYNCHBURG,VA,,US,,,,,
,visa,,,LYNCHBURG,VA,,US,,,,,
,visa,,,LYNCHBURG,VA,,US,,,,,
,visa,,,LYNCHBURG,VA,,US,,,,,
,visa,,,LYNCHBURG,VA,,US,,,,,
,visa,,,LYNCHBURG,VA,,US,,,,,
,visa,,,LYNCHBURG,VA,,US,,,,,
,visa,,,LYNCHBURG,VA,,US,,,,,
,visa,,,LYNCHBURG,VA,,US,,,,,
,visa,,,LYNCHBURG,VA,,US,,,,,
,visa,,,LYNCHBURG,VA,,US,,,,,
,visa,,,LYNCHBURG,VA,,US,,,,,
,visa,,,LYNCHBURG,VA,,US,,,,,
,visa,,,LYNCHBURG,VA,,US,,,,,
,visa,,,LYNCHBURG,VA,,US,,,,,
,visa,,,LYNCHBURG,VA,,US,,,,,
,visa,,,LYNCHBURG,VA,,US,,,,,
,visa,,,ALTA VISTA,VA,,US,,,,,
3408__OLD__FOREST__RD_LYNCHBURG_VA_24501,wellsfargo,,3408 OLD FOREST RD,LYNCHBURG,VA,,US,+1 800-869-3557,https://www.wellsfargo.com/locator/bank/3408__OLD__FOREST__RD_LYNCHBURG_VA_24501/,,Wells Fargo,Q744149
2304__LANGHORNE__RD_LYNCHBURG_VA_24501,wellsfargo,Wells Fargo,2304 LANGHORNE RD,LYNCHBURG,VA,,US,+1 434-528-6824,https://www.wellsfargo.com/locator/bank/2304__LANGHORNE__RD_LYNCHBURG_VA_24501/,Mo-Fr 09:00-17:00,Wells Fargo,Q744149
https://locations.wendys.com/#9253780,wendys,"Wendy's Memorial in Lynchburg, VA",,Lynchburg,VA,,US,+1 434-528-1383,https://locations.wendys.com/united-states/va/lynchburg/2510-memorial-ave,"Mo-Su 06:30-10:30,09:00-22:00",Wendy's,Q550258
b73a54de55ffb964ad22c5ee17f01c3a,western_union,7-ELEVEN/SPEEDWAY #45985,,Lynchburg,VA,,US,+1 434-528-4375,https://location.westernunion.com/us/va/lynchburg/b73a54de55ffb964ad22c5ee17f01c3a,,Western Union,Q861042
fdb839e93f6722f1f78e77b0a8ab88cf,western_union,WALMART #004697,,Lynchburg,VA,,US,+1 434-200-9132,https://location.westernunion.com/us/va/lynchburg/fdb839e93f6722f1f78e77b0a8ab88cf,Mo-Su 07:00-21:00,Western Union,Q861042
youth-developmentchild-care,ymca,Youth Development/Child Care,3408 Old Forest Road,Lynchburg,VA,,US,+1 434-847-8750,https://www.ymca.org/locations/youth-developmentchild-care,Mo-Fr 00:00-00:00,YMCA,Q157169
ymca-old-forest-road,ymca,YMCA on Old Forest Road,3408 Old Forest Road,Lynchburg,VA,,US,+1 434-455-5996,https://www.ymca.org/locations/ymca-old-forest-road,Mo-Th 05:30-20:00; Fr 05:30-18:30; Sa 07:00-16:00; Su 12:00-16:00,YMCA,Q157169
