Ref,Spider,Name,Address,City,State,Zipcode,Country,Phone,Website,Hours,Brand,WikiData
232,aaa,Lynchburg VA,,Lynchburg,VA,,US,+1 434-385-0091,,,American Automobile Association,Q463436
https://stores.advanceautoparts.com/va/lynchburg/21270-timberlake-rd,advance_auto_parts_us,Advance Auto Parts,,Lynchburg,VA,,US,+1 434-239-0193,https://stores.advanceautoparts.com/va/lynchburg/21270-timberlake-rd,Mo-Sa 07:30-21:00; Su 09:00-20:00,Advance Auto Parts,Q4686051
https://stores.advanceautoparts.com/va/lynchburg/5504-fort-ave,advance_auto_parts_us,Advance Auto Parts,,Lynchburg,VA,,US,+1 434-237-6661,https://stores.advanceautoparts.com/va/lynchburg/5504-fort-ave,Mo-Sa 07:30-21:00; Su 09:00-20:00,Advance Auto Parts,Q4686051
https://stores.aldi.us/#1005807118,aldi_sud_us,ALDI  4026 Wards Rd,,Lynchburg,VA,,US,+1 855-955-2534,https://stores.aldi.us/va/lynchburg/4026-wards-rd,"Mo-Su 08:00-20:00,09:00-20:00",ALDI,Q41171672
https://storelocations.ae.com/#48964429,american_eagle_outfitters,Aerie Store River Ridge Mall,,Lynchburg,VA,,US,+1 434-209-6033,https://storelocations.ae.com/us/va/lynchburg/3405-candlers-mountain-ro.html,Mo-Sa 10:00-20:00; Su 12:00-18:00,Aerie Store,Q2842931
https://storelocations.ae.com/#1727611,american_eagle_outfitters,American Eagle Store River Ridge Mall,,Lynchburg,VA,,US,+1 434-239-4250,https://storelocations.ae.com/us/va/lynchburg/3405-candlers-mountain-rd.html,Mo-Sa 10:00-20:00; Su 12:00-18:00,American Eagle Store,Q2842931
0b1fae73-e11d-e611-80c5-005056aa8521,amf_bowling,AMF Lynchburg Lanes,,Lynchburg,VA,,US,+1 434-528-2695,https://www.amf.com/location/amf-lynchburg-lanes,,AMF Bowling Center,Q4652616
https://restaurants.applebees.com/en-us/va/lynchburg/3624-candlers-mountain-road-83030,applebees,Connect with this Applebee's,,Lynchburg,VA,,US,+1 434-528-2626,https://restaurants.applebees.com/en-us/va/lynchburg/3624-candlers-mountain-road-83030,Mo-Th 11:00-23:00; Fr-Sa 11:00-24:00; Su 11:00-23:00,Applebees,Q621532
https://locations.arbys.com/va/lynchburg/2806-candlers-mountain-rd.html,arbys_us,"Arby's Fast-Food Drive Through Near You in Lynchburg, VA",,Lynchburg,VA,,US,+1 434-237-4202,https://locations.arbys.com/va/lynchburg/2806-candlers-mountain-rd.html,Mo-Th 10:00-23:00; Fr-Sa 10:00-01:00; Su 10:00-23:00,Arby's,Q630866
https://locations.arbys.com/va/lynchburg/21717-timberlake-rd.html,arbys_us,"Arby's Fast-Food Drive Through Near You in Lynchburg, VA",,Lynchburg,VA,,US,+1 434-582-1902,https://locations.arbys.com/va/lynchburg/21717-timberlake-rd.html,Mo-We 10:00-23:00; Th-Sa 10:00-24:00; Su 10:00-23:00,Arby's,Q630866
https://stores.ashleyfurniture.com/store/us/virginia/lynchburg/7710000461/,ashley_furniture,"Ashley Store Lynchburg, VA",,Lynchburg,VA,,US,+1 434-239-5550,https://stores.ashleyfurniture.com/store/us/virginia/lynchburg/7710000461/,,Ashley Furniture,Q4805437
11988,asics_us,DICK'S Sporting Goods  - Lynchburg,4026-C Wards Rd,Lynchburg,VA,,US,+1 434-832-5666,,Mo-Sa 09:00-21:00; Su 10:00-19:00,asics,Q327247
62408,asics_us,Finish Line,3405 Candlers Mountain Rd,Lynchburg,VA,,US,+1 434-239-4737,,,asics,Q327247
https://locations.auntieannes.com/#5483,auntie_annes,"Auntie Anne's Liberty University, Jerry Falwell Library (Sodexo)",,Lynchburg,VA,,US,+1 434-582-3079,https://locations.auntieannes.com/va/lynchburg/demoss-dr,Mo-Fr 11:00-20:00,Auntie Anne's,Q4822010
https://locations.auntieannes.com/#4696252023931862145,auntie_annes,Auntie Anne's River Ridge Mall,,Lynchburg,VA,,US,+1 703-674-8119,https://locations.auntieannes.com/va/lynchburg/3405-candlers-mountain-rd,Mo-Sa 10:00-20:00; Su 12:00-18:00,Auntie Anne's,Q4822010
934,autozone_us,AutoZone Auto Parts Lynchburg,,Lynchburg,VA,,US,+1 434-832-0360,https://www.autozone.com/locations/va/lynchburg/21255-timberlake-rd.html,Mo-Sa 07:30-22:00; Su 08:00-21:00,AutoZone,Q4826087
https://www.avis.com/en/locations/us/va/lynchburg/lyh,avis,Avis U S A Lynchburg Airport,,Lynchburg,VA,,US,+1 434-239-9826,https://www.avis.com/en/locations/us/va/lynchburg/lyh,Mo-Fr 08:00-23:00; Sa 08:00-21:00; Su 08:00-23:00,Avis,Q791136
https://locators.bankofamerica.com/va/lynchburg/financial-centers-lynchburg-9764.html,bankofamerica,Bank of America Financial Center & Drive-Thru ATM | Wards Road,,Lynchburg,VA,,US,+1 434-832-6410,https://locators.bankofamerica.com/va/lynchburg/financial-centers-lynchburg-9764.html,Mo-Fr 09:00-17:00; Sa 09:00-14:00,Bank of America,Q487907
https://locators.bankofamerica.com/va/lynchburg/atm-lynchburg-110962.html,bankofamerica,Bank of America Walk-Up ATM | Timbrook Square,,Lynchburg,VA,,US,+1 844-401-8500,https://locators.bankofamerica.com/va/lynchburg/atm-lynchburg-110962.html,,Bank of America,Q487907
https://locations.baskinrobbins.com/va/lynchburg/1-champion-circle-353725-br,baskin_robbins_us,Baskin-Robbins™,,Lynchburg,VA,,US,+1 434-592-4745,https://locations.baskinrobbins.com/va/lynchburg/1-champion-circle-353725-br,Mo-Fr 07:00-23:00; Sa-Su 09:00-23:00,Baskin-Robbins,Q584601
BBW00968,bathandbodyworks_us,RIVER RIDGE MALL,,LYNCHBURG,VA,,US,+1 434-237-4603,,Mo-Sa 10:00-20:00; Su 12:00-18:00,Bath & Body Works,Q810773
554,batteriesplus,Visit us in Lynchburg today,,Lynchburg,VA,,US,+1 434-237-1325,https://www.batteriesplus.com/store-locator/va/lynchburg/batteries-plus-554,Mo-Sa 08:00-20:00; Su 10:00-18:00,Batteries Plus Bulbs,Q17005157
https://stores.bestbuy.com/va/lynchburg/4024-wards-rd-444.html,bestbuy,Best Buy Lynchburg,,Lynchburg,VA,,US,+1 434-239-9885,https://stores.bestbuy.com/va/lynchburg/4024-wards-rd-444.html,,Best Buy,Q533415
https://local.biglots.com/#41460748,biglots,Big Lots - Lynchburg,,Lynchburg,VA,,US,+1 434-338-6658,https://local.biglots.com/va/lynchburg/2110-wards-rd,Mo-Th 10:00-21:00; Fr-Sa 09:00-21:00; Su 10:00-19:00,Big Lots,Q4905973
https://local.biglots.com/#13190799,biglots,Big Lots - Lynchburg,,Lynchburg,VA,,US,+1 434-832-0311,https://local.biglots.com/va/lynchburg/20722-timberlake-rd,Mo-Sa 09:00-21:00; Su 10:00-19:00,Big Lots,Q4905973
35587,blaze_pizza,Blaze Pizza Lynchburg,,Lynchburg,VA,,US,+1 434-226-8052,https://blazepizza.olo.com/menu/blaze-pizza-lynchburg/,,Blaze Pizza,Q23016666
12148,bluerhino,Food Lion #0108,,Lynchburg,VA,,US,+1 434-237-6655,,,Blue Rhino,Q65681213
151856,bluerhino,Walgreens #7619,,Lynchburg,VA,,US,+1 434-239-5750,,,Blue Rhino,Q65681213
78406,bluerhino,Big Lots #0411,,Lynchburg,VA,,US,+1 434-832-0311,,,Blue Rhino,Q65681213
5510,bluerhino,Lowe's #437,,Lynchburg,VA,,US,+1 434-239-7600,,,Blue Rhino,Q65681213
5509,bluerhino,Kroger #327 - MidAtlantic,,Lynchburg,VA,,US,+1 434-237-5738,,,Blue Rhino,Q65681213
107494,bluerhino,Kroger #327 - MidAtlantic- Fuel Site,,Lynchburg,VA,,US,+1 434-832-1049,,,Blue Rhino,Q65681213
143917,bluerhino,Kroger #326 - MidAtlantic - Fuel Site,,Lynchburg,VA,,US,+1 434-239-6018,,,Blue Rhino,Q65681213
150985,bluerhino,Walgreens #7115,,Lynchburg,VA,,US,+1 434-832-0935,,,Blue Rhino,Q65681213
5508,bluerhino,Kroger #326 - MidAtlantic,,Lynchburg,VA,,US,+1 434-239-6018,,,Blue Rhino,Q65681213
5511,bluerhino,Walmart #1350 - Supercenter,,Lynchburg,VA,,US,+1 434-832-0304,,,Blue Rhino,Q65681213
va/lynchburg/7819-timberlake-road,bojangles,"Bojangles Lynchburg, VA",,Lynchburg,VA,,US,+1 434-485-7016,https://locations.bojangles.com/va/lynchburg/7819-timberlake-road.html,,Bojangles',Q891163
55334947542372450200100000000000,bp,BP,,Lynchburg,VA,,US,+1 434-832-1113,,24/7,BP,Q152057
62862907111022450200100000000000,bp,BP,,Lynchburg,VA,,US,+1 434-237-1728,,Mo-Su 06:00-23:00,BP,Q152057
LYNCVAYD,builders_firstsource_us,Lynchburg VA Yard,,Lynchburg,VA,,US,+1 434-239-3402,https://www.bldr.com/location/lynchburg-va-yard/LYNCVAYD,Mo-Fr 07:00-16:00,Builders FirstSource,Q27686100
482,burlington_us,Burlington,,Lynchburg,VA,,US,+1 434-239-0710,https://stores.burlington.com/va/lynchburg/482,Mo-Th 08:00-23:00; Fr-Sa 09:00-23:30; Su 09:00-23:00,Burlington,Q4999220
3777,captaind,Captain D's,,Lynchburg,VA,,US,+1 434-237-2421,https://locations.captainds.com/ll/US/VA/Lynchburg/7801-Timberlake-Rd,Mo-Su 10:30-22:00,Captain D's,Q5036616
https://stores.catofashions.com/#26559889,cato_us,Cato,,,VA,,US,+1 434-528-9349,https://stores.catofashions.com/va/lynchburg/3700-candlers-mountain-rd.,Mo-Sa 10:00-20:00; Su 13:00-18:00,Cato,Q16956136
14446,chevrolet,PINKERTON CHEVROLET GMC,,Lynchburg,VA,,US,+1 434-338-7085,https://www.pinkertonlynchburg.com,Mo-Fr 09:00-19:00; Sa 09:00-18:00,Chevrolet,Q29570
001.005.1836,chilis,Lynchburg,,Lynchburg,VA,,US,+1 434-237-1252,https://www.chilis.com/locations/us/virginia/lynchburg/lynchburg/,Mo-Th 11:00-22:00; Fr-Sa 11:00-23:00; Su 11:00-22:00,Chili's,Q1072948
va_lynchburg_7920-timberlake-rd,chipotle, ,,Lynchburg,VA,,US,+1 434-771-5722,https://locations.chipotle.com/va/lynchburg/7920-timberlake-rd,,Chipotle,Q465751
va_lynchburg_4010-wards-rd,chipotle, ,,Lynchburg,VA,,US,+1 434-237-6931,https://locations.chipotle.com/va/lynchburg/4010-wards-rd,,Chipotle,Q465751
48849,citi,ATM CVS,,Lynchburg,VA,,US,,,,Citibank,Q857063
57691,citi,ATM GE Credit Union,,Lynchburg,VA,,US,,,,Citibank,Q857063
77826,citi,ATM Speedway,,Lynchburg,VA,,US,,,,Citibank,Q857063
63788,citi,ATM Liberty - Tilley Student Union,,Lynchburg,VA,,US,,,,Citibank,Q857063
39389,citi,ATM CENTRAL VIRGINIA FEDERAL CREDIT UNION,,Lynchburg,VA,,US,,,,Citibank,Q857063
48585,citi,ATM CVS,,Lynchburg,VA,,US,,,,Citibank,Q857063
68465,citi,ATM PNC AT SHEETZ,,Lynchburg,VA,,US,,,,Citibank,Q857063
82525,citi,ATM Target,,Lynchburg,VA,,US,,,,Citibank,Q857063
61601,citi,ATM Kroger,,Lynchburg,VA,,US,,,,Citibank,Q857063
68673,citi,ATM PNC AT SHEETZ,,Lynchburg,VA,,US,,,,Citibank,Q857063
27215,citi,ATM 7ELEVEN-FCTI,,Lynchburg,VA,,US,,,,Citibank,Q857063
36819,citi,ATM BLUE EAGLE CREDIT UNION,,Lynchburg,VA,,US,,,,Citibank,Q857063
36820,citi,ATM BLUE EAGLE CREDIT UNION,,Lynchburg,VA,,US,,,,Citibank,Q857063
39391,citi,ATM CENTRAL VIRGINIA FEDERAL CREDIT UNION,,Lynchburg,VA,,US,,,,Citibank,Q857063
88930,citi,ATM Walgreens,,Lynchburg,VA,,US,,,,Citibank,Q857063
49105,citi,ATM CVS,,Lynchburg,VA,,US,,,,Citibank,Q857063
38934,citi,ATM CARTER BANK AND TRUST,,Lynchburg,VA,,US,,,,Citibank,Q857063
27255,citi,ATM 7ELEVEN-FCTI,,Lynchburg,VA,,US,,,,Citibank,Q857063
lynchburg/6751,claires,Shop Ear Piercings & Jewelry at River Ridge Mall,,LYNCHBURG,VA,,US,+1 434-832-0829,https://stores.claires.com/us/va/lynchburg/6751.html,Mo-Sa 10:00-20:00; Su 11:00-18:00,Claire's,Q2974996
21908,coldstone_creamery,Cold Stone Creamery,,Lynchburg,VA,,US,+1 434-237-8383,https://www.coldstonecreamery.com/stores/21908,,Cold Stone Creamery,Q1094923
440,cookout,Lynchburg,,Lynchburg,VA,,US,,https://www.facebook.com/Cook-Out-Lynchburg-257636287658988/,Mo-Th 10:30-03:00; Fr-Sa 10:30-04:00; Su 10:30-03:00,Cookout,Q5166992
70232325,cricket_wireless,Cricket Wireless Authorized Retailer,,Lynchburg,VA,,US,+1 434-616-3355,https://www.cricketwireless.com/stores/ll/US/VA/Lynchburg/7803-Timberlake-Rd,Mo-Sa 10:00-19:00; Su 11:00-18:00,Cricket Wireless,Q5184987
16622,cvs_us,CVS Pharmacy,,Lynchburg,VA,,US,+1 434-239-7092,https://www.cvs.com/store-locator/lynchburg-va-pharmacies/4028-wards-rd-lynchburg-va-24502/storeid=16622,"Mo-Fr 09:00-13:30,14:00-19:00; Sa 10:00-13:30,14:00-18:00; Su 11:00-13:30,14:00-17:00",CVS Pharmacy,Q2078880
3548,cvs_us,CVS Pharmacy,,Lynchburg,VA,,US,+1 434-239-2696,https://www.cvs.com/store-locator/lynchburg-va-pharmacies/2009-wards-road-lynchburg-va-24502/storeid=3548,Mo-Su 08:00-22:00,CVS Pharmacy,Q2078880
7028,cvs_us,CVS Pharmacy,,Lynchburg,VA,,US,+1 434-385-8610,https://www.cvs.com/store-locator/lynchburg-va-pharmacies/18665-forest-road-lynchburg-va-24502/storeid=7028,Mo-Th 09:00-21:00; Fr-Sa 09:00-22:00; Su 10:00-20:00,CVS Pharmacy,Q2078880
4285,cvs_us,CVS Pharmacy,,Lynchburg,VA,,US,+1 434-239-0311,https://www.cvs.com/store-locator/lynchburg-va-pharmacies/21550-timberlake-rd-lynchburg-va-24502/storeid=4285,Mo-Su 07:00-00:00,CVS Pharmacy,Q2078880
1503,dickssportinggoods,"DICK'S Sporting Goods Store in Lynchburg, VA | 1503",,Lynchburg,VA,,US,+1 434-200-9081,https://stores.dickssportinggoods.com/va/lynchburg/1503/,Mo-Sa 09:00-21:00; Su 10:00-19:00,Dick's Sporting Goods,Q5272601
9778,dollartree,DollarTree,,Lynchburg,VA,,US,+1 434-515-1056,,Mo-Sa 09:00-21:00; Su 10:00-20:00,Dollar Tree,Q5289230
4294,dominos_pizza_us,Domino's Pizza,,Lynchburg,VA,,US,+1 434-237-7788,https://pizza.dominos.com/virginia/lynchburg/3920-wards-rd,Mo-Th 10:00-02:00; Fr-Sa 10:00-03:00; Su 10:00-02:00,Domino's,Q839466
353725,dunkin_us,Dunkin',,Lynchburg,VA,,US,+1 434-592-4745,https://locations.dunkindonuts.com/en/va/lynchburg/1-champion-circle/353725,Mo-Fr 07:00-23:00; Sa-Su 09:00-23:00,Dunkin',Q847743
364361,dunkin_us,Dunkin',,Lynchburg,VA,,US,+1 434-316-8093,https://locations.dunkindonuts.com/en/va/lynchburg/7916-timberlake-road/364361,Mo-Su 06:00-20:00,Dunkin',Q847743
https://www.edwardjones.com/us-en/financial-advisor/ben-abraham,edwardjones,Ben Abraham,,Lynchburg,VA,,US,+1 434-616-4616,https://www.edwardjones.com/us-en/financial-advisor/ben-abraham,,Edward Jones,Q5343830
E121M3,enterprise,Lynchburg Forest & Graves Mill,,Lynchburg,VA,,US,+1 434-385-4880,,,Enterprise Rent-A-Car,Q17085454
E121N1,enterprise,Lynchburg Wards Rd.,,Lynchburg,VA,,US,+1 434-237-5656,,,Enterprise Rent-A-Car,Q17085454
E121Z7,enterprise,Truck Lynchburg,,Lynchburg,VA,,US,+1 434-385-4901,,,Enterprise Rent-A-Car,Q17085454
200329277,exxonmobil,Exxon,,LYNCHBURG,VA,,US,,https://www.exxon.com/en/find-station/exxon-lynchburg-va-exxon-200329277,Mo-Su 06:00-23:00,Exxon,Q109675651
200327711,exxonmobil,7-ELEVEN 41882,,LYNCHBURG,VA,,US,,https://www.exxon.com/en/find-station/exxon-lynchburg-va-7eleven41882-200327711,24/7,Exxon,Q109675651
200323647,exxonmobil,Mobil,,LYNCHBURG,VA,,US,,https://www.exxon.com/en/find-station/mobil-lynchburg-va-mobil-200323647,Mo-Fr 05:00-23:00; Sa-Su 06:00-22:00,Mobil,Q109676002
https://local.fedex.com/#25204259,fedex,,,Lynchburg,VA,,US,+1 800-463-3339,https://local.fedex.com/en-us/va/lynchburg/aadcm,,FedEx,Q459477
https://local.fedex.com/#25201538,fedex,,,Lynchburg,VA,,US,+1 800-463-3339,https://local.fedex.com/en-us/va/lynchburg/aacbw,,FedEx,Q459477
https://locations.fivebelow.com/va/lynchburg/475-a-simons-run,five_below,Five Below Wards Crossing West,,Lynchburg,VA,,US,,https://locations.fivebelow.com/va/lynchburg/475-a-simons-run,Mo-Sa 10:00-20:00; Su 11:00-18:00,Five Below,Q5455836
https://restaurants.fiveguys.com/#15553574,five_guys_us,Five Guys Wards Crossing  - Lynchburg,,Lynchburg,VA,,US,+1 434-237-6000,https://restaurants.fiveguys.com/4026-wards-road,"Mo-Su 11:00-21:30,11:00-22:00",Five Guys,Q1131810
368905,follett,Central Virginia Community College Bookstore,,Lynchburg,VA,,US,+1 434-832-7653,https://www.bkstr.com/cvccstore/home,Mo 09:00-05:00; We-Th 09:00-05:00; Fr 09:00-01:00,,
https://stores.footlocker.com/va/lynchburg/3405-candlers-mt-rd-7206.html,footlocker,"Foot Locker in River Ridge Mall: Lynchburg, Virginia | Approved | Own It",,Lynchburg,VA,,US,+1 434-237-5587,https://stores.footlocker.com/va/lynchburg/3405-candlers-mt-rd-7206.html,Mo-Sa 10:00-20:00; Su 12:00-18:00,Foot Locker,Q63335
4828,gamestop_us,Wards Crossing,,LYNCHBURG,VA,,US,+1 434-832-0715,https://www.gamestop.com/search/?store=4828,Mo-Th 12:00-20:00; Fr-Sa 10:00-21:00; Su 12:00-20:00,GameStop,Q202210
https://stores.gnc.com/#24057595,gnc,GNC River Ridge Mall,,,VA,,US,+1 434-239-7262,https://stores.gnc.com/all-stores-virginia/lynchburg/3405-chandlers-mt-rd,Mo-Sa 10:00-20:00; Su 12:00-18:00,GNC,Q4808595
https://www.goldencorral.com/locations/location-detail/894/golden-corral-wards-road/,golden_corral,"Golden Corral 894, Lynchburg, VA",,Lynchburg,VA,,US,+1 434-832-6440,https://www.goldencorral.com/locations/location-detail/894/golden-corral-wards-road/,,Golden Corral,Q4039560
fdcb18c5-8e81-e211-87d7-0050568924e6,goodwill,Lynchburg Store and Donation Center - Timberlake,,Lynchburg,VA,,US,+1 434-237-5470,https://www.goodwill.org/locator/location/?store=ZmRjYjE4YzUtOGU4MS1lMjExLTg3ZDctMDA1MDU2ODkyNGU2&lat=MzcuMzQyNDk=&lng=LTc5LjIzNTcx,,Goodwill,Q5583655
8a6c7be7-458a-e111-8dde-005056934050,goodwill,Lynchburg Store and Donation Center - Wards Road,,Lynchburg,VA,,US,+1 434-239-6637,https://www.goodwill.org/locator/location/?store=OGE2YzdiZTctNDU4YS1lMTExLThkZGUtMDA1MDU2OTM0MDUw&lat=MzcuMzU0MTc=&lng=LTc5LjIxOTAy,,Goodwill,Q5583655
https://salons.greatclips.com/us/va/lynchburg/120-simons-run,greatclips,Great Clips,,Lynchburg,VA,,US,+1 434-832-1117,https://salons.greatclips.com/us/va/lynchburg/120-simons-run,Mo-Fr 08:30-19:30; Sa 08:00-17:30; Su 11:00-17:00,Great Clips,Q5598967
https://www.harborfreight.com/storelocator/7621-timberlake-rd-lynchburg-24502?number=227,harborfreight,"Harbor Freight Tools Lynchburg, VA",,Lynchburg,VA,,US,+1 434-237-9485,https://www.harborfreight.com/storelocator/7621-timberlake-rd-lynchburg-24502?number=227,Mo-Sa 08:00-20:00; Su 09:00-18:00,Harbor Freight Tools,Q5654601
lyhruru-tru-lynchburg,hilton,Tru by Hilton Lynchburg,,,VA,,US,+1 434-772-1610,https://www.hilton.com/ar/hotels/lyhruru-tru-lynchburg/,,Tru by Hilton,Q24907770
lyhwlhx-hampton-suites-lynchburg,hilton,Hampton Inn & Suites Lynchburg,,,VA,,US,+1 434-608-1224,https://www.hilton.com/ar/hotels/lyhwlhx-hampton-suites-lynchburg/,,Hampton by Hilton,Q5646230
2224,honey_baked,HoneyBaked of Lynchburg,,Lynchburg,VA,,US,+1 434-846-4267,https://www.honeybaked.com/stores/2224,,Honey Baked Ham,Q5893363
44219,h_r_block,H&R Block,,Lynchburg,VA,,US,+1 434-237-4358,https://www.hrblock.com/local-tax-offices/virginia/lynchburg/brookville-plaza-shop-ctr/44219/,,H&R Block,Q5627799
va_lynchburg_breakfast-5500-fort-ave-581,ihop,IHOP Breakfast Restaurants Near You at 5500 Fort Ave,,Lynchburg,VA,,US,+1 434-239-9725,https://restaurants.ihop.com/en-us/va/lynchburg/breakfast-5500-fort-ave-581,,IHOP,Q1185675
https://office.jacksonhewitt.com/#27580302,jackson_hewitt,Jackson Hewitt,,Lynchburg,VA,,US,+1 434-237-9285,https://office.jacksonhewitt.com/tax-preparation-services-locations/en/va/lynchburg/7412-timberlake-rd/11109,Mo-Fr 10:00-18:00; Sa 10:00-17:00; Su 12:00-16:00,Jackson Hewitt,Q6117132
https://office.jacksonhewitt.com/#27580224,jackson_hewitt,Jackson Hewitt,,Lynchburg,VA,,US,+1 434-237-9285,https://office.jacksonhewitt.com/tax-preparation-services-locations/en/va/lynchburg/3900-wards-road/51350,Mo-Fr 10:00-18:00; Sa 10:00-17:00; Su 12:00-16:00,Jackson Hewitt,Q6117132
https://stores.jdsports.com/va/lynchburg/river-ridge-mall.html,jdsports_us,JD Sports,,Lynchburg,VA,,US,+1 434-239-4737,https://stores.jdsports.com/va/lynchburg/river-ridge-mall.html,Mo-Sa 10:00-20:00; Su 12:00-18:00,JD Sports,Q6108019
2309,joann_us,JOANN Fabrics and Crafts,,Lynchburg,VA,,US,+1 434-239-3109,https://stores.joann.com/va/lynchburg/2309/,Mo-Sa 10:00-20:00; Su 12:00-18:00,JOANN,Q6203968
https://locations.kfc.com/#11248127,kfc,Chicken Nuggets Near Lynchburg,,Lynchburg,VA,,US,,https://locations.kfc.com/va/lynchburg/2301-wards-road/chickennugget,Mo-Su 10:00-22:00,KFC,Q524757
https://locations.kfc.com/#11248089,kfc,Chicken Nuggets Near Lynchburg,,Lynchburg,VA,,US,,https://locations.kfc.com/va/lynchburg/20250-timberlake-road/chickennugget,Mo-Su 10:00-22:00,KFC,Q524757
193,kohls_us,Kohl's,,Lynchburg,VA,,US,+1 434-239-3505,https://www.kohls.com/stores/va/lynchburg-193.shtml,Mo-Sa 09:00-21:00; Su 09:00-20:00,Kohl's,Q967265
155857,marathon_petroleum_us,QUIK E FOOD STORES 12,,LYNCHBURG,VA,,US,+1 434-239-8801,,,Marathon,Q458363
155862,marathon_petroleum_us,QUIK E FOOD STORES 5,,LYNCHBURG,VA,,US,+1 434-237-4957,,,Marathon,Q458363
155870,marathon_petroleum_us,BURLEYS MARKET,,LYNCHBURG,VA,,US,+1 434-237-1771,,,Marathon,Q458363
LYHCY,marriott,Courtyard Lynchburg,,Lynchburg,VA,,US,+1 434-846-7900,https://www.marriott.com/LYHCY,,Courtyard by Marriott,Q1053170
LYHFI,marriott,Fairfield Inn & Suites Lynchburg Liberty University,,Lynchburg,VA,,US,+1 434-845-1700,https://www.marriott.com/LYHFI,,Fairfield by Marriott,Q5430314
LYHRI,marriott,Residence Inn Lynchburg,,Lynchburg,VA,,US,+1 434-616-4000,https://www.marriott.com/LYHRI,,Residence Inn by Marriott,Q7315394
LYHSH,marriott,SpringHill Suites Lynchburg Airport/University Area,,Lynchburg,VA,,US,+1 434-237-5848,https://www.marriott.com/LYHSH,,SpringHill Suites,Q7580351
0044,mattress_warehouse_us,Mattress Warehouse,,Lynchburg,VA,,US,+1 434-300-5508,https://mattresswarehouse.com/store-locator/mattress-warehouse-of-lynchburg-0044-lynchburg-va,Mo-Fr 10:00-21:00; Sa 10:00-20:00; Su 11:00-18:00,Mattress Warehouse,Q61995079
https://locations.maurices.com/#11688056,maurices,maurices Wards Crossing West,,Lynchburg,VA,,US,+1 434-239-5949,https://locations.maurices.com/us/va/lynchburg/475-c-simons-run,Mo-Th 11:00-19:00; Fr-Sa 10:00-19:00; Su 12:00-17:00,maurices,Q6793571
717-wards-ferry-road,mcalisters_deli,McAlister's Deli Lynchburg ,,Lynchburg,VA,,US,+1 434-439-4310,https://locations.mcalistersdeli.com/va/lynchburg/717-wards-ferry-road,Mo-Su 10:30-21:00,McAlister's Deli,Q17020829
oQp7Q,medexpress,MedExpress Urgent Care,,Lynchburg,VA,,US,+1 434-239-0627,https://www.medexpress.com/location/va/lynchburg/tlv/,Mo-Su 08:00-20:00,MedExpress,Q102183820
66130668,moneygram,TIENDA XPRESS - #0001,,LYNCHBURG,VA,,US,+1 434-480-4533,,Mo-Sa 10:00-21:00; Su 10:00-16:00,MoneyGram,Q1944412
73373395,moneygram,TIENDA XPRESS - #434 - LYNCHBURG - TIEND,,LYNCHBURG,VA,,US,+1 434-214-0326,,Mo-Su 09:00-21:00,MoneyGram,Q1944412
20838-a-timberlake-road,my_eye_dr,,,Lynchburg,VA,,US,+1 434-239-2800,https://locations.myeyedr.com/va/lynchburg/20838-a-timberlake-road,,MyEyeDr.,Q117864710
1032989,national,Lynchburg Regional Airport,,Lynchburg,VA,,US,+1 434-239-5785,,,NATIONAL,Q1424142
https://locations.noodles.com/va/lynchburg/3919-wards-road.html,noodles_and_company_us,Noodles & Company Wards Road,,Lynchburg,VA,,US,+1 434-993-8026,https://locations.noodles.com/va/lynchburg/3919-wards-road.html,Mo-We 10:30-21:00; Th-Sa 10:30-22:00; Su 10:30-21:00,Noodles and Company,Q7049673
77,ollies_bargain_outlet,Ollie's Bargain Outlet,,Lynchburg,VA,,US,+1 434-847-4792,https://www.ollies.us/locations/3700-candlers-mountain-road-lynchburg-va/,Mo-Sa 09:00-21:00; Su 10:00-19:00,Ollie's Bargain Outlet,Q7088304
https://locations.oreillyauto.com/va/lynchburg/check-engine-light-testing-3881.html,oreilly,Your Lynchburg O'Reilly Auto Parts Store,,Lynchburg,VA,,US,+1 434-239-6700,https://locations.oreillyauto.com/va/lynchburg/check-engine-light-testing-3881.html,Mo-Sa 07:30-22:00; Su 09:00-21:00,O'Reilly Auto Parts,Q7071951
https://locations.oreillyauto.com/va/lynchburg/wiper-installation-3881.html,oreilly,Your Lynchburg O'Reilly Auto Parts Store,,Lynchburg,VA,,US,+1 434-239-6700,https://locations.oreillyauto.com/va/lynchburg/wiper-installation-3881.html,Mo-Sa 07:30-22:00; Su 09:00-21:00,O'Reilly Auto Parts,Q7071951
https://locations.oreillyauto.com/va/lynchburg/battery-testing-3881.html,oreilly,Your Lynchburg O'Reilly Auto Parts Store,,Lynchburg,VA,,US,+1 434-239-6700,https://locations.oreillyauto.com/va/lynchburg/battery-testing-3881.html,Mo-Sa 07:30-22:00; Su 09:00-21:00,O'Reilly Auto Parts,Q7071951
https://locations.oreillyauto.com/va/lynchburg/autopartes-3881.html,oreilly,Tu tienda O'Reilly Auto Parts en Lynchburg,,Lynchburg,VA,,US,+1 434-239-6700,https://locations.oreillyauto.com/va/lynchburg/autopartes-3881.html,Mo-Sa 07:30-22:00; Su 09:00-21:00,O'Reilly Auto Parts,Q7071951
112816,pandaexpress,Wards & Wards Ferry,,Lynchburg,VA,,US,+1 434-832-7009,https://www.pandaexpress.com/locations/va/lynchburg/4010-wards-rd,Mo-Th 10:00-22:30; Fr-Sa 10:00-23:00; Su 10:00-22:30,Panda Express,Q1358690
us49d45ff4,pandora,About Pandora Jewelry Authorized Retailer - Penelope / Lynchburg,,Lynchburg,VA,,US,+1 434-237-5120,https://stores.pandora.net/va/lynchburg/pandora-jewelry-us49d45ff4.html,,Pandora,Q2241604
https://locations.papajohns.com/#10691782,papa_johns,Papa John's,,Lynchburg,VA,,US,+1 434-239-8000,https://locations.papajohns.com/united-states/va/24502/lynchburg/7703-timberlake-road,Mo-Th 10:30-24:00; Fr-Sa 10:30-01:00; Su 10:30-24:00,Papa John's Pizza,Q2759586
5522,party_city,Candlers Station,,Lynchburg,VA,,US,+1 434-473-7637,https://stores.partycity.com/us/va/lynchburg/party-store-pc5522.html,,Party City,Q7140896
046339,penske,Bill Dye Auto Sales,,LYNCHBURG,VA,,US,+1 434-237-8085,https://www.pensketruckrental.com/locations/us/virginia/lynchburg/046339/,,Penske,Q81234570
va_lynchburg_8131-timberlake-road,pizza_hut_us,8131 Timberlake Road,,Lynchburg,VA,,US,,https://locations.pizzahut.com/va/lynchburg/8131-timberlake-road,,Pizza Hut,Q191615
va_lynchburg_3412-waterlick-rd,pizza_hut_us,3412 Waterlick Rd,,Lynchburg,VA,,US,+1 434-237-5222,https://locations.pizzahut.com/va/lynchburg/3412-waterlick-rd,,Pizza Hut,Q191615
va_lynchburg_1971-university-blvd-14047289,pizza_hut_us,1971 University Blvd.,,Lynchburg,VA,,US,,https://locations.pizzahut.com/va/lynchburg/1971-university-blvd-14047289,,Pizza Hut,Q191615
va_lynchburg_1971-university-blvd-80044470,pizza_hut_us,1971 University Blvd,,Lynchburg,VA,,US,,https://locations.pizzahut.com/va/lynchburg/1971-university-blvd-80044470,,Pizza Hut,Q191615
restaurant_240285,popeyes_us_fr,Popeyes,"2802 Candlers Mountain Road Lynchburg, Virginia 24502 - USA",Lynchburg,VA,,US,+1 434-439-2569,https://www.popeyes.com/store-locator/store/restaurant_240285,Mo-Su 10:00-22:00,Popeyes,Q1330910
james-t-davis-paint-35580,ppgpaints,JAMES T DAVIS PAINT,,"Lynchburg, ",VA,,US,+1 434-846-2721,https://www.ppgpaints.com/store-locator/us/virginia/lynchburg-paint-stores/james-t-davis-paint-35580,,PPG Paints,Q83891559
1103,ross_dress_for_less_us,Lynchburg,,Lynchburg,VA,,US,+1 434-237-5803,,Mo-Th 09:00-22:00; Fr-Sa 09:00-22:30; Su 09:30-22:00,Ross Dress for Less,Q3442791
475-b-simons-run,rue21,Wards Crossing,,Lynchburg,VA,,US,,https://stores.rue21.com/va/lynchburg/475-b-simons-run.html,Mo-Sa 10:00-20:00; Su 12:00-18:00,rue21,Q7377762
https://stores.saloncentric.com/#29173324,salon_centric_us,SalonCentric,,,VA,,US,+1 434-846-2832,https://stores.saloncentric.com/va/lynchburg/2817,Mo 08:00-18:30; Tu-Fr 08:00-18:00; Sa 08:30-16:00,SalonCentric,Q124339481
6458,sams_club,Lynchburg Sam's Club,,Lynchburg,VA,,US,+1 434-237-5234,https://www.samsclub.com/club/lynchburg-va-sams-club/6458,Mo 10:00-20:00; Sa 09:00-20:00; Su 10:00-18:00,Sam's Club,Q1972120
41882,seven_eleven_ca_us,7-Eleven,,Lynchburg,VA,,US,+1 434-221-6055,https://www.7-eleven.com/locations/va/lynchburg/20061-timberlake-rd-41882,,7-Eleven,Q259340
265,sheetz,Sheetz,,LYNCHBURG,VA,,US,+1 434-237-0929,https://orders.sheetz.com/findASheetz/store/265,24/7,Sheetz,Q7492551
684,sheetz,Sheetz,,LYNCHBURG,VA,,US,+1 434-534-3255,https://orders.sheetz.com/findASheetz/store/684,24/7,Sheetz,Q7492551
9381407332914037308,sleep_number_us,Sleep Number,,Lynchburg,VA,,US,,https://www.sleepnumber.com/stores/va/lynchburg/3911-wards-road,Mo-Th 10:00-19:00; Fr-Sa 10:00-20:00; Su 11:00-19:00,Sleep Number,Q7447640
3730-candler-mountain-rd,staples,"Staples Lynchburg, VA",,Lynchburg,VA,,US,,https://stores.staples.com/va/lynchburg/3730-candler-mountain-rd,Mo-Fr 08:00-20:00; Sa 09:00-21:00; Su 10:00-18:00,Staples,Q785943
https://restaurants.subway.com/#14916461,subway,Subway Wards Crossing Shopping Center,,Lynchburg Lynchburg City,VA,,US,+1 434-239-6900,https://restaurants.subway.com/united-states/va/lynchburg/4026-wards-rd,Mo-Su 08:00-22:00,Subway,Q244457
https://restaurants.subway.com/#14905427,subway,Subway Brookville Plaza Shopping Ctr,,Lynchburg Lynchburg City,VA,,US,+1 434-455-2507,https://restaurants.subway.com/united-states/va/lynchburg/7224-7807-timberlake-road,Mo-Fr 09:00-23:00; Sa 09:00-22:00; Su 09:00-23:00,Subway,Q244457
https://restaurants.subway.com/#14911937,subway,Subway,,Lynchburg Lynchburg City,VA,,US,+1 434-237-2028,https://restaurants.subway.com/united-states/va/lynchburg/18707-forest-rd,Mo-Sa 09:00-23:00; Su 10:00-23:00,Subway,Q244457
https://restaurants.subway.com/#14908791,subway,Subway Waterlick Plaza,,Lynchburg Lynchburg City,VA,,US,+1 434-237-6579,https://restaurants.subway.com/united-states/va/lynchburg/3412-waterlick-rd,Mo-Su 09:00-22:00,Subway,Q244457
https://restaurants.subway.com/#14916147,subway,Subway Lynchburg Hills Plaza,,Lynchburg Lynchburg City,VA,,US,+1 434-237-4287,https://restaurants.subway.com/united-states/va/lynchburg/2154-wards-rd,Mo-Sa 09:00-23:00; Su 10:00-23:00,Subway,Q244457
35113,sweetfrog_us,sweetFrog Store 35113,,Lynchburg,VA,,US,+1 434-237-7003,https://www.sweetfrog.com/stores/frozen-yogurt-lynchburg/35113,Mo-Th 12:00-21:30; Fr-Sa 12:00-22:00; Su 12:00-21:30,sweetFrog,Q16952110
https://locations.tacobell.com/#6142046,taco_bell,Taco Bell,,Lynchburg,VA,,US,+1 434-239-0566,https://locations.tacobell.com/va/lynchburg/8131-timberlake-road.html,Mo-Th 07:00-01:00; Fr-Sa 07:00-03:00; Su 07:00-01:00,Taco Bell,Q752941
https://locations.tacobell.com/#12086512,taco_bell,Taco Bell,,Lynchburg,VA,,US,+1 434-333-6139,https://locations.tacobell.com/va/lynchburg/3351-candlers-mntn-rd.html,Mo-Th 07:00-01:00; Fr-Sa 07:00-02:00; Su 07:00-01:00,Taco Bell,Q752941
281145,tjx,Lynchburg,3385 Candlers Mountain Road,Lynchburg,VA,,US,+1 434-582-4861,,Mo-Sa 09:30-21:30; Su 10:00-20:00,HomeGoods,Q5887941
08797,tjx,Lynchburg,3405 Candlers Mtn Rd ,Lynchburg,VA,,US,+1 434-237-1503,,Mo-Sa 09:30-21:30; Su 10:00-20:00,TJ Maxx,Q10860683
5PSD,tmobile_us,Timberlake Rd & Sunny Bank Dr,,Lynchburg,VA,,US,+1 434-832-8000,https://www.t-mobile.com/store-locator/va/lynchburg/timberlake-rd-sunny-bank-dr,,T-Mobile,Q3511885
628F,tmobile_us,Wards Rd & Delta St,,Lynchburg,VA,,US,+1 434-401-2908,https://www.t-mobile.com/store-locator/va/lynchburg/wards-rd-delta-st,,T-Mobile,Q3511885
3B56,tmobile_us,Sam's Club Lynchburg VA,,Lynchburg,VA,,US,+1 434-760-5482,https://www.t-mobile.com/store-locator/va/lynchburg/sams-club-lynchburg-va,,T-Mobile,Q3511885
1363785,usps,FORT HILL,,LYNCHBURG,VA,,US,+1 434-239-4875,,Mo-Fr 08:30-17:00,United States Postal Service,Q668687
2450200028,usps_collection_boxes,USPS COLLECTION BOX - BLUE BOX,3412 WATERLICK RD,LYNCHBURG,VA,,US,,,,United States Postal Service,Q668687
2450200027,usps_collection_boxes,USPS COLLECTION BOX - BLUE BOX,3412 WATERLICK RD,LYNCHBURG,VA,,US,,,,United States Postal Service,Q668687
2450200033,usps_collection_boxes,USPS COLLECTION BOX - BLUE BOX,21430 TIMBERLAKE RD,LYNCHBURG,VA,,US,,,,United States Postal Service,Q668687
2450200001,usps_collection_boxes,USPS COLLECTION BOX - BLUE BOX,21430 TIMBERLAKE RD,LYNCHBURG,VA,,US,,,,United States Postal Service,Q668687
2450200040,usps_collection_boxes,USPS COLLECTION BOX - BLUE BOX,21039 TIMBERLAKE RD,LYNCHBURG,VA,,US,,,,United States Postal Service,Q668687
2450200044,usps_collection_boxes,USPS COLLECTION BOX - BLUE BOX,14074 WARDS RD,LYNCHBURG,VA,,US,,,,United States Postal Service,Q668687
2450200026,usps_collection_boxes,USPS COLLECTION BOX - BLUE BOX,20722 TIMBERLAKE RD,LYNCHBURG,VA,,US,,,,United States Postal Service,Q668687
2450200025,usps_collection_boxes,USPS COLLECTION BOX - BLUE BOX,7805 TIMBERLAKE RD,LYNCHBURG,VA,,US,,,,United States Postal Service,Q668687
2450200030,usps_collection_boxes,USPS COLLECTION BOX - BLUE BOX,7335 TIMBERLAKE RD,LYNCHBURG,VA,,US,,,,United States Postal Service,Q668687
2450200036,usps_collection_boxes,USPS COLLECTION BOX - BLUE BOX,3700 CANDLERS MOUNTAIN RD,LYNCHBURG,VA,,US,,,,United States Postal Service,Q668687
2450200006,usps_collection_boxes,USPS COLLECTION BOX - BLUE BOX,6020 FORT AVE,LYNCHBURG,VA,,US,,,,United States Postal Service,Q668687
2450200007,usps_collection_boxes,USPS COLLECTION BOX - BLUE BOX,6020 FORT AVE,LYNCHBURG,VA,,US,,,,United States Postal Service,Q668687
2450200032,usps_collection_boxes,USPS COLLECTION BOX - BLUE BOX,6020 FORT AVE,LYNCHBURG,VA,,US,,,,United States Postal Service,Q668687
2450200041,usps_collection_boxes,USPS COLLECTION BOX - PO LOBBY,6020 FORT AVE,LYNCHBURG,VA,,US,,,,United States Postal Service,Q668687
2450200054,usps_collection_boxes,USPS COLLECTION BOX - PO LOBBY,6020 FORT AVE,LYNCHBURG,VA,,US,,,,United States Postal Service,Q668687
0000028897,valero,Timberlake valero,,Lynchburg,VA,,US,+1 971-452-9877,https://locations.valero.com/en-us/LocationDetails/Index/8201-TIMBERLAKE-RD/0000028897,,Valero,Q1283291
0000032173,valero,SNJ Food Mart BH 1,,Lynchburg,VA,,US,+1 540-798-5581,https://locations.valero.com/en-us/LocationDetails/Index/612-LEESVILLE-RD/0000032173,,Valero,Q1283291
lynchburg_oil-change-080054,valvoline_instant_oil_change,Valvoline,7814 Timberlake Rd ,Lynchburg,VA,,US,+1 434-515-0266,https://store.vioc.com/va/lynchburg/oil-change-080054.html,,Valvoline Instant Oil Change,Q7912852
R00000185554,verizon_us,Wards Road,,Lynchburg,VA,,US,+1 434-237-1729,https://www.verizon.com/stores/details/virginia/lynchburg/wards-road-331579/,Mo-Fr 10:00-20:00; Sa 09:00-19:00; Su 11:00-18:00,Verizon,Q919641
A00000246187,verizon_us,Victra Lynchburg Timberlake Rd,,Lynchburg,VA,,US,+1 434-439-3461,https://www.verizon.com/stores/details/virginia/lynchburg/victra-lynchburg-timberlake-rd-1562222/,Mo-Fr 10:00-19:00; Sa 10:00-18:00; Su 12:00-17:00,Verizon,Q919641
,visa,,,LYNCHBURG,VA,,US,,,,,
,visa,,,LYNCHBURG,VA,,US,,,,,
,visa,,,LYNCHBURG,VA,,US,,,,,
,visa,,,LYNCHBURG,VA,,US,,,,,
,visa,,,LYNCHBURG,VA,,US,,,,,
,visa,,,LYNCHBURG,VA,,US,,,,,
,visa,,,LYNCHBURG,VA,,US,,,,,
,visa,,,LYNCHBURG,VA,,US,,,,,
,visa,,,LYNCHBURG,VA,,US,,,,,
,visa,,,LYNCHBURG,VA,,US,,,,,
,visa,,,LYNCHBURG,VA,,US,,,,,
,visa,,,LYNCHBURG,VA,,US,,,,,
,visa,,,LYNCHBURG,VA,,US,,,,,
,visa,,,LYNCHBURG,VA,,US,,,,,
,visa,,,LYNCHBURG,VA,,US,,,,,
,visa,,,LYNCHBURG,VA,,US,,,,,
,visa,,,LYNCHBURG,VA,,US,,,,,
,visa,,,LYNCHBURG,VA,,US,,,,,
,visa,,,LYNCHBURG,VA,,US,,,,,
,visa,,,LYNCHBURG,VA,,US,,,,,
,visa,,,LYNCHBURG,VA,,US,,,,,
,visa,,,LYNCHBURG,VA,,US,,,,,
,visa,,,LYNCHBURG,VA,,US,,,,,
,visa,,,LYNCHBURG,VA,,US,,,,,
,visa,,,LYNCHBURG,VA,,US,,,,,
,visa,,,LYNCHBURG,VA,,US,,,,,
,visa,,,LYNCHBURG,VA,,US,,,,,
,visa,,,LYNCHBURG,VA,,US,,,,,
,visa,,,LYNCHBURG,VA,,US,,,,,
,visa,,,LYNCHBURG,VA,,US,,,,,
,visa,,,LYNCHBURG,VA,,US,,,,,
,visa,,,LYNCHBURG,VA,,US,,,,,
,visa,,,LYNCHBURG,VA,,US,,,,,
,visa,,,LYNCHBURG,VA,,US,,,,,
,visa,,,LYNCHBURG,VA,,US,,,,,
,visa,,,LYNCHBURG,VA,,US,,,,,
,visa,,,LYNCHBURG,VA,,US,,,,,
,visa,,,LYNCHBURG,VA,,US,,,,,
,visa,,,LYNCHBURG,VA,,US,,,,,
,visa,,,LYNCHBURG,VA,,US,,,,,
,visa,,,LYNCHBURG,VA,,US,,,,,
,visa,,,LYNCHBURG,VA,,US,,,,,
,visa,,,LYNCHBURG,VA,,US,,,,,
,visa,,,LYNCHBURG,VA,,US,,,,,
,visa,,,LYNCHBURG,VA,,US,,,,,
,visa,,,LYNCHBURG,VA,,US,,,,,
,visa,,,LYNCHBURG,VA,,US,,,,,
,visa,,,LYNCHBURG,VA,,US,,,,,
,visa,,,LYNCHBURG,VA,,US,,,,,
,visa,,,LYNCHBURG,VA,,US,,,,,
,visa,,,LYNCHBURG,VA,,US,,,,,
,visa,,,LYNCHBURG,VA,,US,,,,,
,visa,,,LYNCHBURG,VA,,US,,,,,
,visa,,,LYNCHBURG,VA,,US,,,,,
,visa,,,LYNCHBURG,VA,,US,,,,,
,visa,,,LYNCHBURG,VA,,US,,,,,
,visa,,,LYNCHBURG,VA,,US,,,,,
,visa,,,LYNCHBURG,VA,,US,,,,,
,visa,,,LYNCHBURG,VA,,US,,,,,
,visa,,,LYNCHBURG,VA,,US,,,,,
,visa,,,LYNCHBURG,VA,,US,,,,,
,visa,,,LYNCHBURG,VA,,US,,,,,
,visa,,,LYNCHBURG,VA,,US,,,,,
,visa,,,LYNCHBURG,VA,,US,,,,,
,visa,,,LYNCHBURG,VA,,US,,,,,
,visa,,,LYNCHBURG,VA,,US,,,,,
,visa,,,LYNCHBURG,VA,,US,,,,,
,visa,,,LYNCHBURG,VA,,US,,,,,
,visa,,,LYNCHBURG,VA,,US,,,,,
,visa,,,LYNCHBURG,VA,,US,,,,,
,visa,,,LYNCHBURG,VA,,US,,,,,
,visa,,,LYNCHBURG,VA,,US,,,,,
,visa,,,LYNCHBURG,VA,,US,,,,,
,visa,,,FOREST,VA,,US,,,,,
https://locations.vitaminshoppe.com/va/lynchburg/vitamins-supplements-lynchburg-va-377.html,vitamin_shoppe,The Vitamin Shoppe® Lynchburg ,3919 Wards Rd A,Lynchburg,VA,,US,+1 434-239-5417,https://locations.vitaminshoppe.com/va/lynchburg/vitamins-supplements-lynchburg-va-377.html,Su 10:00-19:00; Mo 09:30-20:30; Tu 09:30-20:30; We 09:30-20:30; Th 09:30-20:30; Fr 09:30-20:30; Sa 09:30-20:00,The Vitamin Shoppe,Q7772938
2124,waffle_house_us,Waffle House #2124,,LYNCHBURG,VA,,US,+1 434-237-0140,https://locations.wafflehouse.com/lynchburg-va-2124,24/7,Waffle House,Q1701206
2269,waffle_house_us,Waffle House #2269,,LYNCHBURG,VA,,US,+1 434-515-3532,https://locations.wafflehouse.com/lynchburg-va-2269,24/7,Waffle House,Q1701206
https://www.walgreens.com/locator/walgreens-21400+timberlake+rd-lynchburg-va-24502/id=7619,walgreens,Walgreens,,Lynchburg,VA,,US,+1 434-239-5752,https://www.walgreens.com/locator/walgreens-21400+timberlake+rd-lynchburg-va-24502/id=7619,Mo-Su 08:00-22:00,Walgreens,Q1591889
https://www.walgreens.com/locator/walgreens-2004+wards+rd-lynchburg-va-24502/id=7115,walgreens,Walgreens,,Lynchburg,VA,,US,+1 434-832-0935,https://www.walgreens.com/locator/walgreens-2004+wards+rd-lynchburg-va-24502/id=7115,Mo-Su 07:00-22:00,Walgreens,Q1591889
3408__CANDLERS__MOUNTAIN__RD_LYNCHBURG_VA_24502,wellsfargo,Wells Fargo,3408 CANDLERS MOUNTAIN RD,LYNCHBURG,VA,,US,+1 434-528-6834,https://www.wellsfargo.com/locator/bank/3408__CANDLERS__MOUNTAIN__RD_LYNCHBURG_VA_24502/,Mo-Fr 09:00-17:00,Wells Fargo,Q744149
21513__TIMBERLAKE__RD_LYNCHBURG_VA_24502,wellsfargo,Wells Fargo,21513 TIMBERLAKE RD,LYNCHBURG,VA,,US,+1 434-832-1500,https://www.wellsfargo.com/locator/bank/21513__TIMBERLAKE__RD_LYNCHBURG_VA_24502/,Mo-Fr 09:00-17:00,Wells Fargo,Q744149
https://locations.wendys.com/#9253781,wendys,"Wendy's Timberlake in Lynchburg, VA",,Lynchburg,VA,,US,+1 434-237-4543,https://locations.wendys.com/united-states/va/lynchburg/7909-timberlake,"Mo-Su 06:30-10:30,09:00-22:00",Wendy's,Q550258
https://locations.wendys.com/#9253779,wendys,"Wendy's Wards Road in Lynchburg, VA",,Lynchburg,VA,,US,+1 434-237-0029,https://locations.wendys.com/united-states/va/lynchburg/2109-wards-rd,"Mo-Su 06:30-10:30,09:00-22:00",Wendy's,Q550258
https://locations.wendys.com/#9253778,wendys,"Wendy's Airport in Lynchburg, VA",,Lynchburg,VA,,US,+1 434-266-1008,https://locations.wendys.com/united-states/va/lynchburg/14620-wards-road,"Mo-Su 06:30-10:30,09:00-22:00",Wendy's,Q550258
e4dc7a4e29584ccd6692291f5c3b92b4,western_union,7-ELEVEN/SPEEDWAY #45984,,Lynchburg,VA,,US,+1 434-237-0759,https://location.westernunion.com/us/va/lynchburg/e4dc7a4e29584ccd6692291f5c3b92b4,,Western Union,Q861042
addc90e29d75fa7ccdee12955aefcb28,western_union,WALMART #001350,,Lynchburg,VA,,US,+1 434-832-0304,https://location.westernunion.com/us/va/lynchburg/addc90e29d75fa7ccdee12955aefcb28,Mo-Sa 08:00-20:00; Su 10:00-18:00,Western Union,Q861042
d7d2afaa8675a7785adde1781f6b9b7b,western_union,WALMART #003605,,Lynchburg,VA,,US,+1 434-439-3142,https://location.westernunion.com/us/va/lynchburg/d7d2afaa8675a7785adde1781f6b9b7b,Mo-Su 07:00-21:00,Western Union,Q861042
318,windsor_us,River Ridge Mall,,Lynchburg,VA,,US,+1 434-219-5313,https://www.windsorstore.com/pages/va-lynchburg-river-ridge-mall,,Windsor,Q72981668
75514,wingstop,Wingstop Lynchburg Wards Rd,4010 Wards Rd Ste B,Lynchburg,VA,,US,+1 434-333-4520,,,Wingstop,Q8025339
4104,xfinity,Xfinity,,Lynchburg,VA,,US,,https://www.xfinity.com/local/va/lynchburg/4010-wards-road.html,Mo-Sa 10:00-20:00; Su 10:00-18:00,Xfinity,Q5151002
