Ref,Spider,Name,Address,City,State,Zipcode,Country,Phone,Website,Hours,Brand,WikiData
https://locations.arbys.com/il/jerseyville/1302-south-state-street.html,arbys_us,"Arby's Fast-Food Drive Through Near You in Jerseyville, IL",,Jerseyville,IL,,US,+1 618-498-1199,https://locations.arbys.com/il/jerseyville/1302-south-state-street.html,Mo-Su 10:00-23:00,Arby's,Q630866
2621,autozone_us,AutoZone Auto Parts Jerseyville,,Jerseyville,IL,,US,+1 618-498-7900,https://www.autozone.com/locations/il/jerseyville/1150-s-state-st.html,Mo-Sa 08:00-20:00; Su 09:00-19:00,AutoZone,Q4826087
203015,bluerhino,CASEY'S GENERAL STORE #2332,,JERSEYVILLE,IL,,US,+1 618-498-4913,,,Blue Rhino,Q65681213
151955,bluerhino,Walgreens #9824,,Jerseyville,IL,,US,+1 618-498-4989,,,Blue Rhino,Q65681213
202859,bluerhino,CASEY'S GENERAL STORE #1758,,JERSEYVILLE,IL,,US,+1 618-498-7624,,,Blue Rhino,Q65681213
210982,bluerhino,Dollar General #22677,,Jerseyville,IL,,US,+1 618-494-4997,,,Blue Rhino,Q65681213
122310,bp,BP,,Jerseyville,IL,,US,+1 618-498-2682,,Mo-Th 05:00-23:00; Fr-Sa 05:00-24:00; Su 05:00-23:00,BP,Q152057
122307,bp,BP,,Jerseyville,IL,,US,+1 618-498-5003,,Mo-Fr 07:00-17:00; Sa 08:00-15:00,BP,Q152057
10298,burgerking,Burger King,,Jerseyville,IL,,US,+1 618-498-7169,https://www.bk.com/store-locator/store/restaurant_5818,Mo-Su 07:00-21:00,Burger King,Q177054
58747,chevrolet,"MARSHALL CHEVROLET GMC, INC.",,Jerseyville,IL,,US,+1 618-498-6868,https://www.marshallchevygmc.com,Mo-Fr 08:30-17:30; Sa 08:30-12:00,Chevrolet,Q29570
65120,citi,ATM Medford Food Mart (Game Room),,Jerseyville,IL,,US,,,,Citibank,Q857063
38904,citi,ATM CARROLLTON BANK,,Jerseyville,IL,,US,,,,Citibank,Q857063
38903,citi,ATM CARROLLTON BANK,,Jerseyville,IL,,US,,,,Citibank,Q857063
50066,citi,ATM CVS,,Jerseyville,IL,,US,,,,Citibank,Q857063
44958,citi,"ATM CNB Bank & Trust, N.A.",,Jerseyville,IL,,US,,,,Citibank,Q857063
60435,citi,ATM JERSEY STATE BANK,,Jerseyville,IL,,US,,,,Citibank,Q857063
38897,citi,ATM CARROLLTON BANK,,Jerseyville,IL,,US,,,,Citibank,Q857063
38898,citi,ATM CARROLLTON BANK,,Jerseyville,IL,,US,,,,Citibank,Q857063
60437,citi,ATM JERSEY STATE BANK,,Jerseyvile,IL,,US,,,,Citibank,Q857063
,credit_union_us,1st MidAmerica CU,,Jerseyville,IL,,US,+1 618-498-6546,,Mo-Fr 08:00-06:00; Sa 08:00-12:00,,
10759,cvs_us,CVS Pharmacy,,Jerseyville,IL,,US,+1 618-498-1144,https://www.cvs.com/store-locator/jerseyville-il-pharmacies/303-south-state-street-jerseyville-il-62052/storeid=10759,Mo-Su 08:00-22:00,CVS Pharmacy,Q2078880
7351,dollartree,DollarTree,,Jerseyville,IL,,US,+1 618-556-6007,,Mo-Sa 09:00-21:00; Su 10:00-20:00,Dollar Tree,Q5289230
22677,dollar_general,Dollar General,,Jerseyville,IL,,US,+1 618-494-4997,https://www.dollargeneral.com/store-directory/il/jerseyville/22677,Mo-Su 08:00-22:00,Dollar General,Q145168
2848,dominos_pizza_us,Domino's Pizza,,Jerseyville,IL,,US,+1 618-498-2111,https://pizza.dominos.com/illinois/jerseyville/218-s-state-st,Mo-Th 10:30-24:00; Fr-Sa 10:30-01:00; Su 10:30-24:00,Domino's,Q839466
https://www.edwardjones.com/us-en/financial-advisor/jeremy-laplant,edwardjones,Jeremy T LaPlant,,Jerseyville,IL,,US,+1 618-498-8113,https://www.edwardjones.com/us-en/financial-advisor/jeremy-laplant,Mo-Fr 08:00-16:30,Edward Jones,Q5343830
E10185,enterprise,Jerseyville Marshall Chevrolet,,Jerseyville,IL,,US,+1 618-498-8546,,,Enterprise Rent-A-Car,Q17085454
https://www.efaststop.com/store-locator/pv/3000/id/350,fast_stop_us,Tri-County FS Service Station,,Jerseyville,IL,,US,+1 618-498-2175,https://www.efaststop.com/store-locator/pv/3000/id/350,,FAST STOP,Q116734101
https://local.fedex.com/#25203703,fedex,,,Jerseyville,IL,,US,+1 800-463-3339,https://local.fedex.com/en-us/il/jerseyville/y7r8n,,FedEx,Q459477
Motorcraft2710USAEnglish,ford,"Jerseyville Motor Company, Inc.",,Illinois,IL,,US,+1 618-498-2139,,,Ford,Q44294
https://www.ford.com/dealerships/dealer-details/il/jerseyville/jerseyville-motor-company-inc/,ford_dealers_us,"Jerseyville Motor Company, Inc.",,Jerseyville,IL,,US,+1 618-494-4409,https://www.ford.com/dealerships/dealer-details/il/jerseyville/jerseyville-motor-company-inc/,Mo-Fr 08:00-17:00; Sa 08:00-12:00,Ford Motor Company,Q44294
https://salons.greatclips.com/us/il/jerseyville/1600-s-state-st,greatclips,Great Clips,,Jerseyville,IL,,US,+1 618-498-1377,https://salons.greatclips.com/us/il/jerseyville/1600-s-state-st,Mo-Fr 10:00-18:00; Sa 08:30-16:30; Su 10:00-16:00,Great Clips,Q5598967
1500251,hardees_us,Hardee's,,Jerseyville,IL,,US,+1 618-498-3412,https://locations.hardees.com/il/jerseyville/528-s-state-st,,Hardee's,Q1585088
26639,h_r_block,H&R Block,,Jerseyville,IL,,US,+1 618-498-6892,https://www.hrblock.com/local-tax-offices/illinois/jerseyville/120-n-state-st/26639/,,H&R Block,Q5627799
https://locations.kfc.com/#79576472,kfc,Chicken Nuggets Near JERSEYVILLE,,JERSEYVILLE,IL,,US,,https://locations.kfc.com/il/jerseyville/1303-south-state-st/chickennugget,Mo-Su 10:00-22:00,KFC,Q524757
71473653,moneygram,WAL-MART - #253,,JERSEYVILLE,IL,,US,+1 618-498-7744,,Mo-Su 07:00-21:00,MoneyGram,Q1944412
https://locations.oreillyauto.com/il/jerseyville/check-engine-light-testing-1776.html,oreilly,Your Jerseyville O'Reilly Auto Parts Store,,Jerseyville,IL,,US,+1 618-639-7278,https://locations.oreillyauto.com/il/jerseyville/check-engine-light-testing-1776.html,Mo-Sa 07:30-21:00; Su 08:30-20:00,O'Reilly Auto Parts,Q7071951
https://locations.oreillyauto.com/il/jerseyville/wiper-installation-1776.html,oreilly,Your Jerseyville O'Reilly Auto Parts Store,,Jerseyville,IL,,US,+1 618-639-7278,https://locations.oreillyauto.com/il/jerseyville/wiper-installation-1776.html,Mo-Sa 07:30-21:00; Su 08:30-20:00,O'Reilly Auto Parts,Q7071951
https://locations.oreillyauto.com/il/jerseyville/battery-testing-1776.html,oreilly,Your Jerseyville O'Reilly Auto Parts Store,,Jerseyville,IL,,US,+1 618-639-7278,https://locations.oreillyauto.com/il/jerseyville/battery-testing-1776.html,Mo-Sa 07:30-21:00; Su 08:30-20:00,O'Reilly Auto Parts,Q7071951
https://locations.oreillyauto.com/il/jerseyville/autopartes-1776.html,oreilly,Tu tienda O'Reilly Auto Parts en Jerseyville,,Jerseyville,IL,,US,+1 618-639-7278,https://locations.oreillyauto.com/il/jerseyville/autopartes-1776.html,Mo-Sa 07:30-21:00; Su 08:30-20:00,O'Reilly Auto Parts,Q7071951
1054,scooters_coffee_us,S State St & W Barr Ave,,Jerseyville,IL,,US,+1 618-639-2326,,Mo-Fr 05:30-19:00; Sa 06:00-19:00; Su 07:00-19:00,Scooter's Coffee,Q117280308
2251,snap_fitness,"Jerseyville, IL",1404 Windy Ln,Jerseyville,IL,,US,+1 618-498-7330,https://www.snapfitness.com/us/gyms/jerseyville-il,24/7,Snap Fitness,Q7547254
https://restaurants.subway.com/#14906739,subway,Subway Desherlia Mall,,Jerseyville Jersey,IL,,US,+1 618-498-9214,https://restaurants.subway.com/united-states/il/jerseyville/1600-s-state-street,Mo-Th 09:00-22:00; Fr 09:00-16:00; Sa-Su 09:00-22:00,Subway,Q244457
https://locations.tacobell.com/#6146380,taco_bell,Taco Bell,,Jerseyville,IL,,US,+1 618-498-4883,https://locations.tacobell.com/il/jerseyville/1400-s--state-st-.html,Mo-Th 07:00-01:00; Fr-Sa 07:00-02:00; Su 07:00-01:00,Taco Bell,Q752941
319G,tmobile_us,SavvyTech Jerseyville IL,,Jerseyville,IL,,US,+1 618-639-8324,https://www.t-mobile.com/store-locator/il/jerseyville/savvytech-jerseyville-il,,T-Mobile,Q3511885
1368419,usps,JERSEYVILLE,,JERSEYVILLE,IL,,US,+1 618-498-6713,,Mo-Fr 08:30-17:00; Sa 09:00-12:00,United States Postal Service,Q668687
6205200015,usps_collection_boxes,USPS COLLECTION BOX - BLUE BOX,1316 S STATE ST,JERSEYVILLE,IL,,US,,,,United States Postal Service,Q668687
6205200004,usps_collection_boxes,USPS COLLECTION BOX - BLUE BOX,115 N WASHINGTON ST,JERSEYVILLE,IL,,US,,,,United States Postal Service,Q668687
6205200005,usps_collection_boxes,USPS COLLECTION BOX - BLUE BOX,115 N WASHINGTON ST,JERSEYVILLE,IL,,US,,,,United States Postal Service,Q668687
6205200016,usps_collection_boxes,USPS COLLECTION BOX - PO LOBBY,115 N WASHINGTON ST,JERSEYVILLE,IL,,US,,,,United States Postal Service,Q668687
6205200017,usps_collection_boxes,USPS COLLECTION BOX - PO LOBBY,115 N WASHINGTON ST,JERSEYVILLE,IL,,US,,,,United States Postal Service,Q668687
6205200001,usps_collection_boxes,USPS COLLECTION BOX - BLUE BOX,115 N WASHINGTON ST,JERSEYVILLE,IL,,US,,,,United States Postal Service,Q668687
6205200020,usps_collection_boxes,USPS COLLECTION BOX - PO LOBBY,115 N WASHINGTON ST,JERSEYVILLE,IL,,US,,,,United States Postal Service,Q668687
6205200010,usps_collection_boxes,USPS COLLECTION BOX - BLUE BOX,935 S STATE ST,JERSEYVILLE,IL,,US,,,,United States Postal Service,Q668687
,visa,,,JERSEYVILLE,IL,,US,,,,,
,visa,,,JERSEYVILLE,IL,,US,,,,,
,visa,,,JERSEYVILLE,IL,,US,,,,,
,visa,,,JERSEYVILLE,IL,,US,,,,,
,visa,,,JERSEYVILLE,IL,,US,,,,,
,visa,,,JERSEYVILLE,IL,,US,,,,,
,visa,,,JERSEYVILLE,IL,,US,,,,,
,visa,,,JERSEYVILLE,IL,,US,,,,,
,visa,,,JERSEYVILLE,IL,,US,,,,,
,visa,,,JERSEYVILLE,IL,,US,,,,,
,visa,,,JERSEYVILLE,IL,,US,,,,,
,visa,,,JERSEYVILLE,IL,,US,,,,,
,visa,,,JERSEYVILLE,IL,,US,,,,,
,visa,,,JERSEYVILLE,IL,,US,,,,,
,visa,,,JERSEYVILLE,IL,,US,,,,,
,visa,,,JERSEYVILLE,IL,,US,,,,,
,visa,,,JERSEYVILLE,IL,,US,,,,,
,visa,,,JERSEYVILLE,IL,,US,,,,,
,visa,,,JERSEYVILLE,IL,,US,,,,,
,visa,,,JERSEYVILLE,IL,,US,,,,,
,visa,,,JERSEYVILLE,IL,,US,,,,,
,visa,,,JERSEYVILLE,IL,,US,,,,,
,visa,,,JERSEYVILLE,IL,,US,,,,,
,visa,,,JERSEYVILLE,IL,,US,,,,,
,visa,,,JERSEYVILLE,IL,,US,,,,,
,visa,,,JERSEYVILLE,IL,,US,,,,,
,visa,,,JERSEYVILLE,IL,,US,,,,,
,visa,,,JERSEYVILLE,IL,,US,,,,,
,visa,,,JERSEYVILLE,IL,,US,,,,,
,visa,,,JERSEYVILLE,IL,,US,,,,,
,visa,,,JERSEYVILLE,IL,,US,,,,,
,visa,,,JERSEYVILLE,IL,,US,,,,,
,visa,,,JERSEYVILLE,IL,,US,,,,,
,visa,,,JERSEYVILLE,IL,,US,,,,,
,visa,,,JERSEYVILLE,IL,,US,,,,,
,visa,,,JERSEYVILLE,IL,,US,,,,,
,visa,,,JERSEYVILLE,IL,,US,,,,,
,visa,,,JERSEYVILLE,IL,,US,,,,,
,visa,,,JERSEYVILLE,IL,,US,,,,,
,visa,,,JERSEYVILLE,IL,,US,,,,,
,visa,,,JERSEYVILE,IL,,US,,,,,
,visa,,,JERSEYVILLE,IL,,US,,,,,
,visa,,,JERSEYVILLE,IL,,US,,,,,
,visa,,,JERSEYVILLE,IL,,US,,,,,
,visa,,,JERSEYVILLE,IL,,US,,,,,
,visa,,,JERSEYVILLE,IL,,US,,,,,
,visa,,,JERSEYVILLE,IL,,US,,,,,
,visa,,,JERSEYVILLE,IL,,US,,,,,
https://www.walgreens.com/locator/walgreens-705+s+state+st-jerseyville-il-62052/id=9824,walgreens,Walgreens,,Jerseyville,IL,,US,+1 618-498-4989,https://www.walgreens.com/locator/walgreens-705+s+state+st-jerseyville-il-62052/id=9824,Mo-Su 08:00-21:00,Walgreens,Q1591889
c1003879c3fcbd661807419b347f3b98,western_union,WALMART #000253,,Jerseyville,IL,,US,+1 618-498-7744,https://location.westernunion.com/us/il/jerseyville/c1003879c3fcbd661807419b347f3b98,Mo-Su 07:00-21:00,Western Union,Q861042
1064,world_finance_us,,"216 S State St, Jerseyville, IL, 62052",Jerseyville,IL,,US,+1 618-498-9892,https://www.loansbyworld.com/branches/branch-1064,Mo-Fr 09:00-17:30; Sa 09:00-12:00,World Finance,Q3569971
