Ref,Spider,Name,Address,City,State,Zipcode,Country,Phone,Website,Hours,Brand,WikiData
https://stores.advanceautoparts.com/ok/del-city/4329-se-29th-st,advance_auto_parts_us,Advance Auto Parts,,Del City,OK,,US,+1 405-672-6015,https://stores.advanceautoparts.com/ok/del-city/4329-se-29th-st,Mo-Sa 07:30-21:00; Su 09:00-20:00,Advance Auto Parts,Q4686051
https://locations.arbys.com/ok/delcity/4801-se-29th-st.html,arbys_us,"Arby's Fast-Food Drive Through Near You in Del City, OK",,Del City,OK,,US,+1 405-672-1727,https://locations.arbys.com/ok/delcity/4801-se-29th-st.html,Mo-Sa 10:00-23:00; Su 10:00-22:00,Arby's,Q630866
5081,autozone_us,AutoZone Auto Parts Del City,,Del City,OK,,US,+1 405-871-6408,https://www.autozone.com/locations/ok/del-city/4329-se-15th-st.html,Mo-Sa 07:30-21:00; Su 09:00-21:00,AutoZone,Q4826087
112467,bluerhino,7-Eleven Stores #41467,,Del City,OK,,US,+1 405-670-5348,,,Blue Rhino,Q65681213
164266,bluerhino,Family Dollar #04652,,OKLAHOMA CITY,OK,,US,+1 405-803-6679,,,Blue Rhino,Q65681213
150714,bluerhino,Walgreens #3748,,Del City,OK,,US,+1 405-677-5519,,,Blue Rhino,Q65681213
221316,bluerhino,Dollar General #2825,,DEL CITY,OK,,US,+1 405-446-8057,,,Blue Rhino,Q65681213
137253,bluerhino,7-Eleven Stores #41484,,Del City,OK,,US,+1 405-604-9144,,,Blue Rhino,Q65681213
207287,bluerhino,S'mart - OK13771,,Del City,OK,,US,+1 405-605-5455,,,Blue Rhino,Q65681213
140272,bluerhino,Walmart #0544 - Supercenter,,Oklahoma City,OK,,US,+1 405-670-1007,,,Blue Rhino,Q65681213
84888,citi,ATM TRANSFUND - 7-ELEVEN,,Dell City,OK,,US,,,,Citibank,Q857063
84877,citi,ATM TRANSFUND - 7-ELEVEN,,Dell City,OK,,US,,,,Citibank,Q857063
91062,citi,ATM Walgreens,,Del City,OK,,US,,,,Citibank,Q857063
84890,citi,ATM TRANSFUND - 7-ELEVEN,,Del City,OK,,US,,,,Citibank,Q857063
84891,citi,ATM TRANSFUND - 7-ELEVEN,,Del City,OK,,US,,,,Citibank,Q857063
71871,citi,ATM R M FOOD MART,,Oklahoma City,OK,,US,,,,Citibank,Q857063
84878,citi,ATM TRANSFUND - 7-ELEVEN,,Del City,OK,,US,,,,Citibank,Q857063
6420,dominos_pizza_us,Domino's Pizza,,Del City,OK,,US,+1 405-670-5767,https://pizza.dominos.com/oklahoma/del-city/5101-se-29th-street,Mo-Th 10:00-24:00; Fr-Sa 10:00-01:00; Su 10:00-24:00,Domino's,Q839466
301171,dunkin_us,Dunkin',,Del City,OK,,US,+1 405-672-4919,https://locations.dunkindonuts.com/en/ok/del-city/1600-s-sunnylane-rd/301171,Mo-Su 05:00-19:00,Dunkin',Q847743
23108,family_dollar_us,FAMILY DOLLAR #3108,,Del City,OK,,US,+1 405-778-2867,https://www.familydollar.com/locations/ok/del-city/23108/,Mo-Sa 09:00-22:00; Su 09:00-21:00,Family Dollar,Q5433101
32342,family_dollar_us,FAMILY DOLLAR #12342,,Del City,OK,,US,+1 405-778-3102,https://www.familydollar.com/locations/ok/del-city/32342/,Mo-Sa 09:00-22:00; Su 09:00-21:00,Family Dollar,Q5433101
4069,gulf_pr_us,AD'S GULF,,Oklahoma City,OK,,US,+1 405-670-1980,https://www.gulfoil.com/ads-gulf,,Gulf Oil,Q5617505
https://www.harborfreight.com/storelocator/4717-southeast-15th-st-del-city-73115?number=472,harborfreight,"Harbor Freight Tools Del City, OK",,Del City,OK,,US,+1 405-677-3972,https://www.harborfreight.com/storelocator/4717-southeast-15th-st-del-city-73115?number=472,Mo-Sa 08:00-20:00; Su 09:00-18:00,Harbor Freight Tools,Q5654601
35668,h_r_block,H&R Block,,Del City,OK,,US,+1 405-677-1477,https://www.hrblock.com/local-tax-offices/oklahoma/del-city/4711-se-29th/35668/,,H&R Block,Q5627799
35678,h_r_block,H&R Block,,Del City,OK,,US,+1 405-672-8014,https://www.hrblock.com/local-tax-offices/oklahoma/del-city/4330-se-29th-st/35678/,,H&R Block,Q5627799
https://office.jacksonhewitt.com/#27576016,jackson_hewitt,Jackson Hewitt,,Del City,OK,,US,+1 615-649-0057,https://office.jacksonhewitt.com/tax-preparation-services-locations/en/ok/del-city/5401-tinker-diagonal-street/50544,Mo-Th 11:00-19:00; Fr 10:00-18:00; Sa 09:00-17:00; Su 13:00-17:00,Jackson Hewitt,Q6117132
https://office.jacksonhewitt.com/#27579575,jackson_hewitt,Jackson Hewitt,,Del City,OK,,US,+1 423-405-4966,https://office.jacksonhewitt.com/tax-preparation-services-locations/en/ok/del-city/4701-se-29th-st/16560,Mo-Th 10:00-19:00; Fr 10:00-18:00; Sa 09:00-17:00; Su 13:00-17:00,Jackson Hewitt,Q6117132
https://locations.kfc.com/#11249377,kfc,Chicken Nuggets Near Oklahoma City,,Oklahoma City,OK,,US,,https://locations.kfc.com/ok/oklahoma-city/5008-se-29th-st/chickennugget,Mo-Su 10:30-22:30,KFC,Q524757
OKCDC,marriott,SpringHill Suites Oklahoma City Midwest City/Del City,,Del City,OK,,US,+1 405-604-0552,https://www.marriott.com/OKCDC,,SpringHill Suites,Q7580351
NNA5724,nissan_europe,ORR NISSAN EAST,,DEL CITY,OK,,US,+1 405-600-7900,https://www.orrnissaneast.com,Mo-Sa 09:00-20:00,Nissan,Q20165
https://locations.papajohns.com/#10691598,papa_johns,Papa John's,,Del City,OK,,US,+1 405-619-9500,https://locations.papajohns.com/united-states/ok/73115/del-city/4755-se-29th-st,Mo-Th 09:30-24:00; Fr-Sa 09:30-01:00; Su 09:30-24:00,Papa John's Pizza,Q2759586
0000879496,phillips_66_conoco_76,ONCUE 0107,,DEL CITY,OK,,US,+1 405-672-3420,,,Phillips 66,Q1656230
ok_del-city_4436-s-sunnylane-rd,pizza_hut_us,4436 S Sunnylane Rd,,Del City,OK,,US,+1 405-672-2762,https://locations.pizzahut.com/ok/del-city/4436-s-sunnylane-rd,,Pizza Hut,Q191615
818,rentacenter,Rent-A-Center,,Del City,OK,,US,+1 405-677-3411,https://locations.rentacenter.com/oklahoma/del-city/4736-se-29th-st/,Mo-Sa 10:00-18:00,Rent-A-Center,Q7313497
41484,seven_eleven_ca_us,7-Eleven,,Del City,OK,,US,+1 405-604-9144,https://www.7-eleven.com/locations/ok/del-city/4309-se-29th-st.-41484,,7-Eleven,Q259340
41467,seven_eleven_ca_us,7-Eleven,,Del City,OK,,US,+1 405-670-5348,https://www.7-eleven.com/locations/ok/del-city/4300-s.-bryant-41467,,7-Eleven,Q259340
41403,seven_eleven_ca_us,7-Eleven,,Del City,OK,,US,+1 405-672-3925,https://www.7-eleven.com/locations/ok/del-city/3200-tinker-diagonal-41403,,7-Eleven,Q259340
https://restaurants.subway.com/#14901619,subway,Subway Wal-Mart #544,,Del City Oklahoma,OK,,US,+1 405-672-2588,https://restaurants.subway.com/united-states/ok/del-city/5401-tinker-diagonal-st,Mo-Su 10:00-20:30,Subway,Q244457
https://restaurants.subway.com/#14901654,subway,Subway,,Del City Oklahoma,OK,,US,+1 405-601-1366,https://restaurants.subway.com/united-states/ok/del-city/4375-se-29th-st,Mo-Su 10:00-21:00,Subway,Q244457
https://locations.tacobell.com/#6143383,taco_bell,Taco Bell,,Del City,OK,,US,+1 405-677-6393,https://locations.tacobell.com/ok/del-city/4700-se-29th-st-.html,Mo-Su 07:00-03:00,Taco Bell,Q752941
1360555,usps,DEL CITY FINANCE,,DEL CITY,OK,,US,+1 405-670-8564,,Mo-Fr 08:30-17:00,United States Postal Service,Q668687
7311500003,usps_collection_boxes,USPS COLLECTION BOX - BLUE BOX,4600 SE 29TH ST,DEL CITY,OK,,US,,,,United States Postal Service,Q668687
7311500018,usps_collection_boxes,USPS COLLECTION BOX - PO LOBBY,4500 SE 28TH ST,DEL CITY,OK,,US,,,,United States Postal Service,Q668687
7311500019,usps_collection_boxes,USPS COLLECTION BOX - PO LOBBY,4500 SE 28TH ST,DEL CITY,OK,,US,,,,United States Postal Service,Q668687
7311500000,usps_collection_boxes,USPS COLLECTION BOX - BLUE BOX,4520 SE 28TH ST,DEL CITY,OK,,US,,,,United States Postal Service,Q668687
delcity_oil-change-aq5107,valvoline_instant_oil_change,Valvoline,4219 S.E. 29TH ,Del City,OK,,US,+1 405-677-8727,https://store.vioc.com/ok/delcity/oil-change-aq5107.html,,Valvoline Instant Oil Change,Q7912852
,visa,,,DEL CITY,OK,,US,,,,,
,visa,,,DEL CITY,OK,,US,,,,,
,visa,,,DEL CITY,OK,,US,,,,,
,visa,,,DEL CITY,OK,,US,,,,,
,visa,,,DEL CITY,OK,,US,,,,,
,visa,,,DEL CITY,OK,,US,,,,,
,visa,,,OKLAHOMA CITY,OK,,US,,,,,
,visa,,,DEL CITY,OK,,US,,,,,
,visa,,,DEL CITY,OK,,US,,,,,
,visa,,,DEL CITY,OK,,US,,,,,
,visa,,,DEL CITY,OK,,US,,,,,
,visa,,,DEL CITY,OK,,US,,,,,
,visa,,,DEL CITY,OK,,US,,,,,
,visa,,,OKLAHOMA CITY,OK,,US,,,,,
,visa,,,DEL CITY,OK,,US,,,,,
,visa,,,DEL CITY,OK,,US,,,,,
,visa,,,DEL CITY,OK,,US,,,,,
,visa,,,DEL CITY,OK,,US,,,,,
,visa,,,DEL CITY,OK,,US,,,,,
,visa,,,DEL CITY,OK,,US,,,,,
,visa,,,DEL CITY,OK,,US,,,,,
,visa,,,DEL CITY,OK,,US,,,,,
,visa,,,DEL CITY,OK,,US,,,,,
,visa,,,DEL CITY,OK,,US,,,,,
,visa,,,DEL CITY,OK,,US,,,,,
,visa,,,DEL CITY,OK,,US,,,,,
,visa,,,DEL CITY,OK,,US,,,,,
,visa,,,OKLAHOMA CITY,OK,,US,,,,,
,visa,,,DEL CITY,OK,,US,,,,,
,visa,,,DEL CITY,OK,,US,,,,,
,visa,,,DEL CITY,OK,,US,,,,,
,visa,,,DELL CITY,OK,,US,,,,,
,visa,,,DEL CITY,OK,,US,,,,,
1679,waffle_house_us,Waffle House #1679,,DEL CITY,OK,,US,+1 405-670-1679,https://locations.wafflehouse.com/delcity-ok-1679,24/7,Waffle House,Q1701206
https://www.walgreens.com/locator/walgreens-4300+se+29th+st-del+city-ok-73115/id=3748,walgreens,Walgreens,,Del City,OK,,US,+1 405-677-5519,https://www.walgreens.com/locator/walgreens-4300+se+29th+st-del+city-ok-73115/id=3748,Mo-Su 08:00-22:00,Walgreens,Q1591889
https://locations.wendys.com/#9254626,wendys,"Wendy's Del City in Oklahoma City, OK",,Oklahoma City,OK,,US,+1 405-446-8652,https://locations.wendys.com/united-states/ok/oklahoma-city/4518-southeast-29th-st,"Mo-Su 06:30-10:30,06:30-22:00",Wendy's,Q550258
936245249b04dbc6c055b49506301ec4,western_union,7-ELEVEN / SUNOCO #41467,,Del City,OK,,US,+1 405-670-5348,https://location.westernunion.com/us/ok/del-city/936245249b04dbc6c055b49506301ec4,,Western Union,Q861042
24b6681e39d693ba956fb010f56daa08,western_union,7-ELEVEN / SUNOCO #41403,,Del City,OK,,US,+1 405-672-3925,https://location.westernunion.com/us/ok/del-city/24b6681e39d693ba956fb010f56daa08,,Western Union,Q861042
357686ec27abf340dd02af18202cbba5,western_union,7-ELEVEN / SUNOCO #41484,,Oklahoma City,OK,,US,+1 405-604-9144,https://location.westernunion.com/us/ok/oklahoma-city/357686ec27abf340dd02af18202cbba5,,Western Union,Q861042
9bc68585cb0fed03166a9570bdac88e2,western_union,WALMART #000544,,Del City,OK,,US,+1 405-670-1007,https://location.westernunion.com/us/ok/del-city/9bc68585cb0fed03166a9570bdac88e2,Mo-Sa 08:00-20:00; Su 10:00-18:00,Western Union,Q861042
