Ref,Spider,Name,Address,City,State,Zipcode,Country,Phone,Website,Hours,Brand,WikiData
https://stores.advanceautoparts.com/sc/darlington/109-advance-ln,advance_auto_parts_us,Advance Auto Parts,,Darlington,SC,,US,+1 843-393-4812,https://stores.advanceautoparts.com/sc/darlington/109-advance-ln,Mo-Sa 07:30-21:00; Su 09:00-20:00,Advance Auto Parts,Q4686051
1016,autozone_us,AutoZone Auto Parts Darlington,,Darlington,SC,,US,+1 843-393-3372,https://www.autozone.com/locations/sc/darlington/209-s-main-st.html,Mo-Fr 07:30-21:00; Sa 07:30-20:00; Su 09:00-20:00,AutoZone,Q4826087
210386,bluerhino,Quick Shop,,Darlington,SC,,US,+1 843-944-0773,,,Blue Rhino,Q65681213
164438,bluerhino,Family Dollar #06697,,DARLINGTON,SC,,US,+1 843-393-6392,,,Blue Rhino,Q65681213
235973,bluerhino,Circle K #2723149,,Darlington,SC,,US,+1 843-395-2219,,,Blue Rhino,Q65681213
40824,bluerhino,Food Lion #1428,,Darlington,SC,,US,+1 843-395-6376,,,Blue Rhino,Q65681213
152262,bluerhino,Walgreens #9737,,Darlington,SC,,US,+1 843-393-1605,,,Blue Rhino,Q65681213
222820,bluerhino,Walmart #7188  - Fuel Site - Vending,,Darlington,SC,,US,+1 843-393-2067,,,Blue Rhino,Q65681213
222819,bluerhino,Walmart #7188 - Supercenter - Vending,,Darlington,SC,,US,+1 843-393-2067,,,Blue Rhino,Q65681213
sc/darlington/1524-s--main-street,bojangles,"Bojangles Darlington, SC",,Darlington,SC,,US,+1 843-393-3500,https://locations.bojangles.com/sc/darlington/1524-s--main-street.html,,Bojangles',Q891163
05614762245012953200100000000000,bp,BP,,Darlington,SC,,US,+1 843-393-7767,,Mo-Fr 05:00-21:00; Sa-Su 08:00-21:00,BP,Q152057
40294537977042953200100000000000,bp,Amoco,,Darlington,SC,,US,+1 843-944-0116,,,BP,Q152057
35917936331012953200100000000000,bp,Amoco,,Darlington,SC,,US,+1 843-968-8016,,24/7,BP,Q152057
74397331166012953200100000000000,bp,BP,,Darlington,SC,,US,+1 843-393-2539,,Mo-Su 06:00-24:00,BP,Q152057
71105871043102953200100000000000,bp,BP,,Darlington,SC,,US,+1 843-393-6900,,Mo-Sa 06:00-22:00; Su 07:00-20:00,BP,Q152057
16328,chevrolet,"PATRIOT CHEVROLET OF DARLINGTON, INC.",,DARLINGTON,SC,,US,+1 843-393-4046,https://www.gopatriotchevrolet.com,Mo-Th 09:00-19:00; Fr 09:00-18:00; Sa 09:00-17:00,Chevrolet,Q29570
76429,citi,ATM SPC CREDIT UNION,,Darlington,SC,,US,,,,Citibank,Q857063
76428,citi,ATM SPC CREDIT UNION,,Darlington,SC,,US,,,,Citibank,Q857063
54742,citi,ATM FAMILY DOLLAR #3614,,Darlington,SC,,US,,,,Citibank,Q857063
86297,citi,ATM Walgreens,,Darlington,SC,,US,,,,Citibank,Q857063
46794,citi,ATM CVS,,Darlington,SC,,US,,,,Citibank,Q857063
40022,citi,ATM Circle K,,Darlington,SC,,US,,,,Citibank,Q857063
54747,citi,ATM FAMILY DOLLAR #6697,,Darlington,SC,,US,,,,Citibank,Q857063
om_sc_darlington_512-lamar-hwy--ste-c,cititrends,Citi Trends,,Darlington,SC,,US,+1 803-728-4586,https://locations.cititrends.com/sc/darlington/512-lamar-hwy--ste-c.html,Mo 11:00-20:00; Tu 11:00-20:00; We 11:00-20:00; Th 11:00-20:00; Fr 10:00-21:00; Sa 10:00-21:00; Su 12:00-18:00,Citi Trends,Q5122438
70232461,cricket_wireless,Cricket Wireless Authorized Retailer,,Darlington,SC,,US,+1 843-968-8771,https://www.cricketwireless.com/stores/ll/US/SC/Darlington/1512-S-Main-St,Mo-Fr 10:00-19:00; Sa 10:00-18:00; Su 12:00-17:00,Cricket Wireless,Q5184987
4657,cvs_us,CVS Pharmacy,,Darlington,SC,,US,+1 843-395-6448,https://www.cvs.com/store-locator/darlington-sc-pharmacies/102-express-lane-darlington-sc-29532/storeid=4657,Mo-Fr 09:00-21:00; Sa 09:00-19:00; Su 10:00-18:00,CVS Pharmacy,Q2078880
20068,dollar_general,Dollar General,,Darlington,SC,,US,+1 843-968-3686,https://www.dollargeneral.com/store-directory/sc/darlington/20068,Mo-Su 08:00-22:00,Dollar General,Q145168
5615,dominos_pizza_us,Domino's Pizza,,Darlington,SC,,US,+1 843-395-1414,https://pizza.dominos.com/south-carolina/darlington/116-express-ln,Mo-Th 10:30-24:00; Fr-Sa 10:30-02:00; Su 10:30-24:00,Domino's,Q839466
https://www.edwardjones.com/us-en/financial-advisor/nancy-matthews,edwardjones,Nancy Matthews,,Darlington,SC,,US,+1 843-398-5991,https://www.edwardjones.com/us-en/financial-advisor/nancy-matthews,Mo-We 08:30-17:00; Th 09:00-17:00; Fr 08:30-16:00,Edward Jones,Q5343830
200327518,exxonmobil,REFUEL 65,,DARLINGTON,SC,,US,,https://www.exxon.com/en/find-station/exxon-darlington-sc-refuel65-200327518,24/7,Exxon,Q109675651
200326108,exxonmobil,REFUEL 36,,DARLINGTON,SC,,US,+1 843-395-1939,https://www.exxon.com/en/find-station/exxon-darlington-sc-refuel36-200326108,Mo-Su 06:00-00:00,Exxon,Q109675651
26697,family_dollar_us,FAMILY DOLLAR #6697,,Darlington,SC,,US,+1 843-702-9656,https://www.familydollar.com/locations/sc/darlington/26697/,Mo-Sa 09:00-22:00; Su 09:00-21:00,Family Dollar,Q5433101
https://local.fedex.com/#25204800,fedex,,,Darlington,SC,,US,+1 800-463-3339,https://local.fedex.com/en-us/sc/darlington/ajjzk,,FedEx,Q459477
Motorcraft1604USAEnglish,ford,Raceway Ford,,South Carolina,SC,,US,+1 843-393-5000,,,Ford,Q44294
https://www.ford.com/dealerships/dealer-details/sc/darlington/raceway-ford-of-darlington/,ford_dealers_us,Raceway Ford of Darlington,,Darlington,SC,,US,+1 854-204-3073,https://www.ford.com/dealerships/dealer-details/sc/darlington/raceway-ford-of-darlington/,Mo-Fr 09:00-18:30; Sa 09:00-16:00,Ford Motor Company,Q44294
1552,fresenius_kidney_care_us,Fresenius Kidney Care Darlington Dialysis Center,,Darlington,SC,,US,+1 800-881-5101,https://www.freseniuskidneycare.com/dialysis-centers/south-carolina/1552,Mo-Sa 05:30-17:00,,
38970,h_r_block,H&R Block,,Darlington,SC,,US,+1 843-393-4721,https://www.hrblock.com/local-tax-offices/south-carolina/darlington/114-pearl-st/38970/,,H&R Block,Q5627799
Darlington IGA #37,iga,Darlington IGA #37,"207 S. Main Street, Darlington, SC, 29532",Darlington,SC,,US,+1 843-358-3761,http://www.igaguy.com,,IGA,Q3146662
https://locations.kfc.com/#11248944,kfc,Chicken Nuggets Near Darlington,,Darlington,SC,,US,,https://locations.kfc.com/sc/darlington/979-governor-williams-highway/chickennugget,Mo-Sa 10:30-22:00; Su 10:30-21:00,KFC,Q524757
https://locations.oreillyauto.com/sc/darlington/check-engine-light-testing-4712.html,oreilly,Your Darlington O'Reilly Auto Parts Store,,Darlington,SC,,US,+1 843-395-1835,https://locations.oreillyauto.com/sc/darlington/check-engine-light-testing-4712.html,Mo-Sa 07:30-21:00; Su 09:00-20:00,O'Reilly Auto Parts,Q7071951
https://locations.oreillyauto.com/sc/darlington/battery-testing-4712.html,oreilly,Your Darlington O'Reilly Auto Parts Store,,Darlington,SC,,US,+1 843-395-1835,https://locations.oreillyauto.com/sc/darlington/battery-testing-4712.html,Mo-Sa 07:30-21:00; Su 09:00-20:00,O'Reilly Auto Parts,Q7071951
https://locations.oreillyauto.com/sc/darlington/wiper-installation-4712.html,oreilly,Your Darlington O'Reilly Auto Parts Store,,Darlington,SC,,US,+1 843-395-1835,https://locations.oreillyauto.com/sc/darlington/wiper-installation-4712.html,Mo-Sa 07:30-21:00; Su 09:00-20:00,O'Reilly Auto Parts,Q7071951
https://locations.oreillyauto.com/sc/darlington/autopartes-4712.html,oreilly,Tu tienda O'Reilly Auto Parts en Darlington,,Darlington,SC,,US,+1 843-395-1835,https://locations.oreillyauto.com/sc/darlington/autopartes-4712.html,Mo-Sa 07:30-21:00; Su 09:00-20:00,O'Reilly Auto Parts,Q7071951
307,piggly_wiggly_us,Piggly Wiggly,,Darlington,SC,,US,+1 843-393-2872,https://www.thepig.net,,Piggly Wiggly,Q3388303
sc_darlington_1502-s-main-st,pizza_hut_us,1502 S Main St,,Darlington,SC,,US,+1 843-393-5201,https://locations.pizzahut.com/sc/darlington/1502-s-main-st,,Pizza Hut,Q191615
2110,rentacenter,Rent-A-Center,,Darlington,SC,,US,+1 843-393-5242,https://locations.rentacenter.com/south-carolina/darlington/514-lamar-hwy/,Mo-Sa 10:00-18:00,Rent-A-Center,Q7313497
57,south_carolina,Darlington County Library System,"204 N Main St, Darlington, SC ",,SC,,US,+1 843-398-4940,,,,Q1456
172,south_carolina,Darlington County Courthouse,"1 Public Square #210, Darlington, SC",,SC,,US,+1 843-398-4100,,,,Q1456
322,south_carolina,Darlington County DHHS,"305 Russell St, Darlington, SC",,SC,,US,+1 843-398-4400,,,,Q1456
https://restaurants.subway.com/#14897989,subway,Subway,,Darlington Darlington,SC,,US,+1 843-393-6529,https://restaurants.subway.com/united-states/sc/darlington/1001-pearl-st,Mo 07:00-22:00; Tu-We 09:00-22:00; Th 07:00-22:00; Fr-Sa 09:00-22:00; Su 10:00-21:00,Subway,Q244457
https://locations.tacobell.com/#6141669,taco_bell,Taco Bell,,Darlington,SC,,US,+1 843-944-0277,https://locations.tacobell.com/sc/darlington/939-s-governor-williams-hwy.html,Mo-Su 09:00-24:00,Taco Bell,Q752941
1360310,usps,DARLINGTON,,DARLINGTON,SC,,US,+1 843-393-3223,,Mo-Fr 09:30-17:00; Sa 10:00-12:00,United States Postal Service,Q668687
2953200024,usps_collection_boxes,USPS COLLECTION BOX - BLUE BOX,1104 S MAIN ST,DARLINGTON,SC,,US,,,,United States Postal Service,Q668687
2953200020,usps_collection_boxes,USPS COLLECTION BOX - BLUE BOX,805 S MAIN ST,DARLINGTON,SC,,US,,,,United States Postal Service,Q668687
2953200011,usps_collection_boxes,USPS COLLECTION BOX - BLUE BOX,300 RUSSELL ST,DARLINGTON,SC,,US,,,,United States Postal Service,Q668687
2953200003,usps_collection_boxes,USPS COLLECTION BOX - BLUE BOX,413 PEARL ST,DARLINGTON,SC,,US,,,,United States Postal Service,Q668687
2953200016,usps_collection_boxes,USPS COLLECTION BOX - EXPRESS,52 PUBLIC SQ,DARLINGTON,SC,,US,,,,United States Postal Service,Q668687
2953200017,usps_collection_boxes,USPS COLLECTION BOX - BLUE BOX,52 PUBLIC SQ,DARLINGTON,SC,,US,,,,United States Postal Service,Q668687
2953200007,usps_collection_boxes,USPS COLLECTION BOX - BLUE BOX,105 DARGAN ST SE,DARLINGTON,SC,,US,,,,United States Postal Service,Q668687
2953200004,usps_collection_boxes,USPS COLLECTION BOX - BLUE BOX,264 CASHUA ST,DARLINGTON,SC,,US,,,,United States Postal Service,Q668687
2953200025,usps_collection_boxes,USPS COLLECTION BOX - PO LOBBY,115 E SMITH AVE,DARLINGTON,SC,,US,,,,United States Postal Service,Q668687
2953200027,usps_collection_boxes,USPS COLLECTION BOX - PO LOBBY,115 E SMITH AVE,DARLINGTON,SC,,US,,,,United States Postal Service,Q668687
2953200029,usps_collection_boxes,USPS COLLECTION BOX - BLUE BOX,115 E SMITH AVE,DARLINGTON,SC,,US,,,,United States Postal Service,Q668687
2953200033,usps_collection_boxes,USPS COLLECTION BOX - PO LOBBY,115 E SMITH AVE,DARLINGTON,SC,,US,,,,United States Postal Service,Q668687
,visa,,,DARLINGTON,SC,,US,,,,,
,visa,,,FLORENCE,SC,,US,,,,,
,visa,,,FLORENCE,SC,,US,,,,,
,visa,,,DARLINGTON,SC,,US,,,,,
,visa,,,DARLINGTON,SC,,US,,,,,
,visa,,,DARLINGTON,SC,,US,,,,,
,visa,,,DARLINGTON,SC,,US,,,,,
,visa,,,DARLINGTON,SC,,US,,,,,
,visa,,,DARLINGTON,SC,,US,,,,,
,visa,,,DARLINGTON,SC,,US,,,,,
,visa,,,DARLINGTON,SC,,US,,,,,
,visa,,,DARLINGTON,SC,,US,,,,,
,visa,,,DARLINGTON,SC,,US,,,,,
,visa,,,DARLINGTON,SC,,US,,,,,
,visa,,,DARLINGTON,SC,,US,,,,,
,visa,,,DARLINGTON,SC,,US,,,,,
,visa,,,DARLINGTON,SC,,US,,,,,
,visa,,,DARLINGTON,SC,,US,,,,,
,visa,,,DARLINGTON,SC,,US,,,,,
,visa,,,DARLINGTON,SC,,US,,,,,
,visa,,,DARLINGTON,SC,,US,,,,,
,visa,,,DARLINGTON,SC,,US,,,,,
,visa,,,DARLINGTON,SC,,US,,,,,
,visa,,,DARLINGTON,SC,,US,,,,,
,visa,,,DARLINGTON,SC,,US,,,,,
,visa,,,DARLINGTON,SC,,US,,,,,
,visa,,,DARLINGTON,SC,,US,,,,,
,visa,,,DARLINGTON,SC,,US,,,,,
,visa,,,DARLINGTON,SC,,US,,,,,
,visa,,,DARLINGTON,SC,,US,,,,,
,visa,,,DARLINGTON,SC,,US,,,,,
,visa,,,DARLINGTON,SC,,US,,,,,
,visa,,,DARLINGTON,SC,,US,,,,,
,visa,,,DARLINGTON,SC,,US,,,,,
,visa,,,DARLINGTON,SC,,US,,,,,
,visa,,,DARLINGTON,SC,,US,,,,,
,visa,,,DARLINGTON,SC,,US,,,,,
,visa,,,DARLINGTON,SC,,US,,,,,
,visa,,,DARLINGTON,SC,,US,,,,,
,visa,,,DARLINGTON,SC,,US,,,,,
,visa,,,DARLINGTON,SC,,US,,,,,
,visa,,,DARLINGTON,SC,,US,,,,,
,visa,,,DARLINGTON,SC,,US,,,,,
,visa,,,DARLINGTON,SC,,US,,,,,
,visa,,,DARLINGTON,SC,,US,,,,,
,visa,,,DARLINGTON,SC,,US,,,,,
,visa,,,DARLINGTON,SC,,US,,,,,
,visa,,,DARLINGTON,SC,,US,,,,,
,visa,,,DARLINGTON,SC,,US,,,,,
,visa,,,DARLINGTON,SC,,US,,,,,
,visa,,,DARLINGTON,SC,,US,,,,,
,visa,,,DARLINGTON,SC,,US,,,,,
,visa,,,DARLINGTON,SC,,US,,,,,
,visa,,,DARLINGTON,SC,,US,,,,,
,visa,,,DARLINGTON,SC,,US,,,,,
,visa,,,DARLINGTON,SC,,US,,,,,
,visa,,,DARLINGTON,SC,,US,,,,,
,visa,,,DARLINGTON,SC,,US,,,,,
,visa,,,DARLINGTON,SC,,US,,,,,
,visa,,,DARLINGTON,SC,,US,,,,,
,visa,,,DARLINGTON,SC,,US,,,,,
,visa,,,DARLINGTON,SC,,US,,,,,
,visa,,,DARLINGTON,SC,,US,,,,,
,visa,,,DARLINGTON,SC,,US,,,,,
,visa,,,DARLINGTON,SC,,US,,,,,
,visa,,,DARLINGTON,SC,,US,,,,,
,visa,,,DARLINGTON,SC,,US,,,,,
,visa,,,DARLINGTON,SC,,US,,,,,
,visa,,,DARLINGTON,SC,,US,,,,,
,visa,,,DARLINGTON,SC,,US,,,,,
,visa,,,DARLINGTON,SC,,US,,,,,
1950,waffle_house_us,Waffle House #1950,,DARLINGTON,SC,,US,+1 843-398-5068,https://locations.wafflehouse.com/darlington-sc-1950,24/7,Waffle House,Q1701206
https://www.walgreens.com/locator/walgreens-1005+s+governor+williams+hwy-darlington-sc-29532/id=9737,walgreens,Walgreens,,Darlington,SC,,US,+1 843-393-2679,https://www.walgreens.com/locator/walgreens-1005+s+governor+williams+hwy-darlington-sc-29532/id=9737,Mo-Su 09:00-21:00,Walgreens,Q1591889
202__LAMAR__HWY_DARLINGTON_SC_29532,wellsfargo,,202 LAMAR HWY,DARLINGTON,SC,,US,+1 800-869-3557,https://www.wellsfargo.com/locator/bank/202__LAMAR__HWY_DARLINGTON_SC_29532/,,Wells Fargo,Q744149
https://locations.wendys.com/#9251896,wendys,"Wendy's Darlington in Darlington, SC",,Darlington,SC,,US,+1 843-395-0042,https://locations.wendys.com/united-states/sc/darlington/989-s-governor-williams-hwy,"Mo-Su 06:30-10:30,09:00-22:00",Wendy's,Q550258
6d35008768605dc48a65c797574866cd,western_union,YOUNG'S #3609,,Darlington,SC,,US,+1 843-393-2539,https://location.westernunion.com/us/sc/darlington/6d35008768605dc48a65c797574866cd,Mo-Su 06:00-22:00,Western Union,Q861042
85a868a4193acc21b4f8c2edb7a2c55e,western_union,PIGGLY WIGGLY #170,,Darlington,SC,,US,+1 843-393-2872,https://location.westernunion.com/us/sc/darlington/85a868a4193acc21b4f8c2edb7a2c55e,Mo-Su 07:00-19:00,Western Union,Q861042
17601179fced0ece2c952a2cf68c21b0,western_union,WALMART #007188,,Darlington,SC,,US,+1 843-393-2067,https://location.westernunion.com/us/sc/darlington/17601179fced0ece2c952a2cf68c21b0,Mo-Su 07:00-21:00,Western Union,Q861042
386,world_finance_us,,"106 Express Lane, Darlington, SC, 29532",Darlington,SC,,US,+1 843-395-0243,https://www.loansbyworld.com/branches/branch-386,Mo-Fr 09:00-17:30; Sa 09:00-12:00,World Finance,Q3569971
darlington-family-ymca,ymca,Darlington Family YMCA,123 Exchange St,Darlington,SC,,US,+1 843-398-0844,https://www.ymca.org/locations/darlington-family-ymca,24/7,YMCA,Q157169
