Ref,Spider,Name,Address,City,State,Zipcode,Country,Phone,Website,Hours,Brand,WikiData
5172,bluerhino,Walmart #0516 - Supercenter,,Gun Barrel City,TX,,US,+1 903-887-4180,,,Blue Rhino,Q65681213
240927,bluerhino,Brookshire Grocery #064,,Mabank,TX,,US,+1 903-887-0126,,,Blue Rhino,Q65681213
222562,bluerhino,Cefco #1115,,Mabank,TX,,US,+1 903-666-4460,,,Blue Rhino,Q65681213
215036,bluerhino,Break Time Corner Market 1064,,Mabank,TX,,US,+1 903-887-7218,,,Blue Rhino,Q65681213
165259,bluerhino,Family Dollar #02843,,Mabank,TX,,US,+1 903-910-4409,,,Blue Rhino,Q65681213
176472,bluerhino,Gateway #5 (Altima Foods),,Mabank,TX,,US,+1 954-591-4946,,,Blue Rhino,Q65681213
226183,bluerhino,Atwoods Ranch & Home Goods #73,,Mabank,TX,,US,+1 903-603-9637,,,Blue Rhino,Q65681213
DEFOTXMF,builders_firstsource_us,DeFord Truss,,Mabank,TX,,US,+1 215-239-2549,https://www.bldr.com/location/deford-truss/DEFOTXMF,Mo-Fr 08:00-17:00,Builders FirstSource,Q27686100
07769,chevrolet,"TEAGUE CHEVROLET, INC.",,Mabank,TX,,US,+1 903-603-9508,https://www.teaguechevybuick.com,Mo-Fr 08:00-18:00; Sa 09:00-16:00,Chevrolet,Q29570
202924,chevron,Chevron Station #202924,794 W MAIN ST,GUN BARREL CITY,TX,,US,,,,Chevron,Q319642
75937,citi,ATM SIMMONS BANK,,Mabank,TX,,US,,,,Citibank,Q857063
37177,citi,ATM Brookshires,,Mabank,TX,,US,,,,Citibank,Q857063
https://www.edwardjones.com/us-en/financial-advisor/hunter-greene,edwardjones,Hunter W Greene,,Mabank,TX,,US,+1 903-887-2870,https://www.edwardjones.com/us-en/financial-advisor/hunter-greene,Mo-Th 08:00-17:00; Fr 08:00-15:00,Edward Jones,Q5343830
E109MB,enterprise,Mabank Teague Chevrolet,,Mabank,TX,,US,+1 903-887-6040,,,Enterprise Rent-A-Car,Q17085454
200319612,exxonmobil,GOLD BUCKLE,,MABANK,TX,,US,+1 903-880-1062,https://www.exxon.com/en/find-station/exxon-mabank-tx-goldbuckle-200319612,Mo-Fr 06:00-23:00; Sa-Su 06:00-00:00,Exxon,Q109675651
https://local.fedex.com/#25235658,fedex,,,Mabank,TX,,US,+1 800-463-3339,https://local.fedex.com/en-us/tx/mabank/crsak,,FedEx,Q459477
Motorcraft1128USAEnglish,ford,Tri-County Ford,,Texas,TX,,US,+1 903-887-2121,,,Ford,Q44294
https://www.ford.com/dealerships/dealer-details/tx/mabank/tri_county-ford/,ford_dealers_us,Tri-County Ford,,Mabank,TX,,US,+1 430-272-2094,https://www.ford.com/dealerships/dealer-details/tx/mabank/tri_county-ford/,Mo-Fr 08:00-18:00; Sa 08:00-15:00,Ford Motor Company,Q44294
af6478ed-458a-e111-8dde-005056934050,goodwill,12 Mabank (Retail Store),,Mabank,TX,,US,+1 903-887-5039,https://www.goodwill.org/locator/location/?store=YWY2NDc4ZWQtNDU4YS1lMTExLThkZGUtMDA1MDU2OTM0MDUw&lat=MzIuMzU5NTI=&lng=LTk2LjEwMzI5,,Goodwill,Q5583655
https://locations.jackinthebox.com/us/tx/mabank/509-n-1st-st,jackinthebox,Jack in the Box,,Mabank,TX,,US,+1 903-887-1888,https://locations.jackinthebox.com/us/tx/mabank/509-n-1st-st,Mo-Th 06:00-00:00; Fr-Sa 06:00-02:00; Su 06:00-00:00,Jack in the Box,Q1538507
7121,rentacenter,Rent-A-Center,,Mabank,TX,,US,+1 903-887-3033,https://locations.rentacenter.com/texas/mabank/1403-s-3rd-st/,Mo-Sa 09:00-18:00,Rent-A-Center,Q7313497
https://restaurants.subway.com/#14902609,subway,Subway,,Mabank Kaufman,TX,,US,+1 903-887-5506,https://restaurants.subway.com/united-states/tx/mabank/107-w-mason,Mo-Su 09:00-22:00,Subway,Q244457
0178602900,sunoco_us,Sunoco,,GUN BARREL CITY,TX,,US,+1 903-887-2537,,Mo-Sa 06:00-00:00; Su 07:00-21:00,Sunoco,Q1423218
4503,upsstore,Gun Barrel City,1307 West Main St Ste B,Gun Barrel City,TX,,US,+1 903-887-8770,https://locations.theupsstore.com/tx/gun-barrel-city/1307-west-main-st,,UPS Store,Q7771029
1371290,usps,MABANK,,MABANK,TX,,US,+1 903-887-5171,,Mo-Fr 08:00-16:30,United States Postal Service,Q668687
7514700889,usps_collection_boxes,USPS COLLECTION BOX - BLUE BOX,1716 W MAIN ST,MABANK,TX,,US,,,,United States Postal Service,Q668687
7514700886,usps_collection_boxes,USPS COLLECTION BOX - BLUE BOX,1200 W MAIN ST,MABANK,TX,,US,,,,United States Postal Service,Q668687
7514700890,usps_collection_boxes,USPS COLLECTION BOX - BLUE BOX,1401 S 3RD ST,MABANK,TX,,US,,,,United States Postal Service,Q668687
7514706204,usps_collection_boxes,USPS COLLECTION BOX - BLUE BOX,131 E MARKET ST,MABANK,TX,,US,,,,United States Postal Service,Q668687
7514706205,usps_collection_boxes,USPS COLLECTION BOX - PO LOBBY,1401 S 3RD ST,MABANK,TX,,US,,,,United States Postal Service,Q668687
7514706203,usps_collection_boxes,USPS COLLECTION BOX - PO LOBBY,1401 S 3RD ST,MABANK,TX,,US,,,,United States Postal Service,Q668687
7514705925,usps_collection_boxes,USPS COLLECTION BOX - PO LOBBY,1401 S 3RD ST,MABANK,TX,,US,,,,United States Postal Service,Q668687
,visa,,,MABANK,TX,,US,,,,,
,visa,,,MABANK,TX,,US,,,,,
,visa,,,MABANK,TX,,US,,,,,
,visa,,,MABANK,TX,,US,,,,,
,visa,,,MABANK,TX,,US,,,,,
,visa,,,MABANK,TX,,US,,,,,
,visa,,,MABANK,TX,,US,,,,,
,visa,,,MABANK,TX,,US,,,,,
,visa,,,MABANK,TX,,US,,,,,
,visa,,,MABANK,TX,,US,,,,,
,visa,,,MABANK,TX,,US,,,,,
,visa,,,MABANK,TX,,US,,,,,
,visa,,,GUN BARREL CITY,TX,,US,,,,,
,visa,,,GUN BARREL CITY,TX,,US,,,,,
,visa,,,GUN BARREL CITY,TX,,US,,,,,
,visa,,,GUN BARREL CITY,TX,,US,,,,,
,visa,,,MABANK,TX,,US,,,,,
,visa,,,GUN BARREL CITY,TX,,US,,,,,
,visa,,,PAYNE SPRINGS,TX,,US,,,,,
,visa,,,GUN BARREL CITY,TX,,US,,,,,
,visa,,,GUN BARREL CITY,TX,,US,,,,,
,visa,,,GUN BARREL CITY,TX,,US,,,,,
caca4f3c00b1e0157c50bdd8b83b5cc6,western_union,CORNER MARKET MABANK,,Mabank,TX,,US,+1 903-877-0018,https://location.westernunion.com/us/tx/mabank/caca4f3c00b1e0157c50bdd8b83b5cc6,Mo-Su 06:00-19:00,Western Union,Q861042
