Ref,Spider,Name,Address,City,State,Zipcode,Country,Phone,Website,Hours,Brand,WikiData
baf8a1a960c24bb0b0e8721a133b93fa,atrium_health,Atrium Health Primary Care Cabarrus Family Medicine,,Mt. Pleasant,NC,,US,+1 704-436-6521,https://atriumhealth.org/locations/detail/atrium-health-primary-care-cabarrus-family-medicine-mt-pleasant,,Atrium Health,Q5044932
12554,bluerhino,Food Lion #740,,Mount Pleasant,NC,,US,+1 704-436-2073,,,Blue Rhino,Q65681213
165201,bluerhino,Family Dollar #01798,,Mount Pleasant,NC,,US,+1 980-922-6001,,,Blue Rhino,Q65681213
210411,bluerhino,MP Food Mart,,Mt Pleasant,NC,,US,+1 704-436-9812,,,Blue Rhino,Q65681213
236178,bluerhino,Circle K #2708387,,Mount Pleasant,NC,,US,+1 704-436-9673,,,Blue Rhino,Q65681213
44155,citi,ATM Circle K,,Mount Pleasant,NC,,US,,,,Citibank,Q857063
8844,dominos_pizza_us,Domino's Pizza,,Mt. Pleasant,NC,,US,+1 704-436-1117,https://pizza.dominos.com/north-carolina/mt.-pleasant/7602-nc-hwy-73-e,Mo-Th 10:30-24:00; Fr-Sa 10:30-01:00; Su 10:30-24:00,Domino's,Q839466
https://www.edwardjones.com/us-en/financial-advisor/bruce-lau,edwardjones,Bruce J Lau,,Mt Pleasant,NC,,US,+1 704-436-9455,https://www.edwardjones.com/us-en/financial-advisor/bruce-lau,,Edward Jones,Q5343830
156178,marathon_petroleum_us,AJS FOOD MART,,MOUNT PLEASANT,NC,,US,+1 704-436-8092,,,Marathon,Q458363
https://restaurants.subway.com/#14895235,subway,Subway,,Mt Pleasant Cabarrus,NC,,US,+1 704-436-2281,https://restaurants.subway.com/united-states/nc/mt-pleasant/8354-hwy-49-n,Mo-Su 08:30-21:30,Subway,Q244457
1374056,usps,MOUNT PLEASANT,,MOUNT PLEASANT,NC,,US,+1 704-436-9707,,"Mo-Fr 09:00-12:00,12:30-16:30",United States Postal Service,Q668687
2812400007,usps_collection_boxes,USPS COLLECTION BOX - BLUE BOX,8285 BARRINGER DR,MOUNT PLEASANT,NC,,US,,,,United States Postal Service,Q668687
2812400009,usps_collection_boxes,USPS COLLECTION BOX - PO LOBBY,8285 BARRINGER DR,MOUNT PLEASANT,NC,,US,,,,United States Postal Service,Q668687
2812400013,usps_collection_boxes,USPS COLLECTION BOX - PO LOBBY,1498 S MAIN ST,MOUNT PLEASANT,NC,,US,,,,United States Postal Service,Q668687
,visa,,,MT. PLEASANT,NC,,US,,,,,
,visa,,,MOUNT PLEASANT,NC,,US,,,,,
,visa,,,MT. PLEASANT,NC,,US,,,,,
,visa,,,MOUNT PLEASANT,NC,,US,,,,,
,visa,,,MT PLEASANT,NC,,US,,,,,
,visa,,,MT PLEASANT,NC,,US,,,,,
,visa,,,MOUNT PLEASANT,NC,,US,,,,,
,visa,,,MOUNT PLEASANT,NC,,US,,,,,
,visa,,,MT PLEASANT,NC,,US,,,,,
,visa,,,MOUNT PLEASANT,NC,,US,,,,,
