Ref,Spider,Name,Address,City,State,Zipcode,Country,Phone,Website,Hours,Brand,WikiData
68316383,moneygram,M LHUILLIER - CAPAS 2 TARLAC,,CAPAS,,,PH,+63 32 348 9400,,Mo-Su 07:00-18:00,MoneyGram,Q1944412
68323318,moneygram,M LHUILLIER - CARIG CAGAYAN VALLEY,,TUGUEGARAO CITY,,,PH,+63 32 348 9400,,Mo-Su 07:00-19:00,MoneyGram,Q1944412
68451662,moneygram,METROBANK - TARLAC - CAPAS,,CAPAS,,,PH,28700700,,Mo-Fr 09:00-16:30; Sa-Su 00:00-24:00,MoneyGram,Q1944412
72253937,moneygram,RD PAWNSHOP INC. - #1578 - TARLAC - CAP,,TARLAC,,,PH,+63 966 721 3043,,Mo-Sa 08:00-18:00; Su 09:00-17:00,MoneyGram,Q1944412
72256471,moneygram,RD PAWNSHOP INC. - #1833 - CAPAS - CAPA,,CAPAS,,,PH,+63 977 633 9320,,Mo-Sa 08:00-18:00; Su 09:00-17:00,MoneyGram,Q1944412
72270091,moneygram,M LHUILLIER - TARLAC - CRISTO REY TARLAC,,TARLAC,,,PH,3489400,,Mo-Sa 07:00-18:00; Su 07:00-17:00,MoneyGram,Q1944412
72570115,moneygram,USSC - #10337 - TARLAC - CAPAS DGPI,,CAPAS,,,PH,+63 45 923 1466,,Mo-Su 08:00-18:00,MoneyGram,Q1944412
72569964,moneygram,USSC - #10321 - TARLAC - CAPAS PUREGOLD,,CAPAS,,,PH,+63 45 491 6092,,Mo-Su 08:00-18:00,MoneyGram,Q1944412
73048439,moneygram,BDO - #1338 - WALTERMART - CAPAS TARLAC,,CAPAS,,,PH,7026350,,Mo-Su 09:00-18:00,MoneyGram,Q1944412
73697369,moneygram,PALAWAN PAWNSHOP - #FBE - CAPAS - TARLAC,,CAPAS,,,PH,+63 48 433 4110,,Mo-Su 08:00-17:30,MoneyGram,Q1944412
73697398,moneygram,PALAWAN PAWNSHOP - #FCU - CAPAS - TARLAC,,CAPAS,,,PH,+63 48 433 4110,,Mo-Su 08:00-17:30,MoneyGram,Q1944412
73858991,moneygram,RD PAWNSHOP INC - TARLAC CAMP O'DONNELL,,CAPAS,,,PH,+63 927 835 0836,,Mo-Sa 08:00-17:30; Su 09:00-17:00,MoneyGram,Q1944412
73871923,moneygram,HRV VILLARICA PAWNSHOP - #PSH033 - HRV V,,CAPAS,,,PH,87026350,,Mo-Sa 07:00-19:00; Su 08:00-17:00,MoneyGram,Q1944412
73871936,moneygram,HRV VILLARICA PAWNSHOP - #PSH034 - HRV V,,CAPAS,,,PH,87026350,,Mo-Sa 07:00-19:00; Su 08:00-17:00,MoneyGram,Q1944412
72042782,moneygram,A.Z SIGUA ENTERPRISES - TARLAC - A.Z SIG,,TARLAC,,,PH,+63 45 491 3540,,Mo-Fr 07:00-19:00; Sa 07:00-18:00; Su 07:00-16:00,MoneyGram,Q1944412
73904434,moneygram,CEBUANA LHUILLIER - #62245 - CAPAS - CLH,,CAPAS,,,PH,6327799803,,Mo-Su 07:00-23:00,MoneyGram,Q1944412
70163993,moneygram,CEBUANA LHUILLIER - CLH CAPAS,,CAPAS,,,PH,27799800,,Mo-Su 07:30-17:30,MoneyGram,Q1944412
70372218,moneygram,CEBUANA LHUILLIER - CLH CAPAS STO DOMING,,CAPAS,,,PH,27799800,,Mo-Su 08:00-17:00,MoneyGram,Q1944412
73786209,moneygram,EBIZ - #24 - CAPAS - EBIZ CAPAS,,CAPAS,,,PH,6325345492,,Mo-Su 08:00-18:00,MoneyGram,Q1944412
72508297,moneygram,LBC - #950 - CAPAS - PUREGOLD-CAPAS,,CAPAS,,,PH,8527239,,Mo-Sa 08:00-20:00; Su 08:00-19:00,MoneyGram,Q1944412
72508307,moneygram,LBC - #951 - CAPAS - CAPAS,,CAPAS,,,PH,8527239,,Mo-Sa 07:00-19:00; Su 08:00-18:00,MoneyGram,Q1944412
74128895,moneygram,WALTERMART - #WM379 - WALTERMART CAPAS,,CAPAS,,,PH,+63 2 8702 6350,,Mo-Su 10:00-19:00,MoneyGram,Q1944412
74176669,moneygram,CEBUANA LHUILLIER - #62487 - CAPAS - CLH,,CAPAS,,,PH,6337799803,,Mo-Su 07:00-23:00,MoneyGram,Q1944412
74225507,moneygram,CEBUANA LHUILLIER - #62330 - CAPAS - CLH,,CAPAS,,,PH,6327799803,,Mo-Su 07:00-23:00,MoneyGram,Q1944412
74729676,moneygram,SINAG PAWNSHOP CORPORATION - #45368 - TA,,TARLAC,,,PH,449998461933,,Mo-Su 07:30-18:00,MoneyGram,Q1944412
71094935,moneygram,PALAWAN PAWNSHOP - TARLAC - CAPAS,,CAPAS,,,PH,+63 48 433 4110,,Mo-Su 08:00-17:30,MoneyGram,Q1944412
65048625,moneygram,BANK OF FLORIDA,,CAPAS,,,PH,+63 45 925 0173,,Mo-Fr 08:00-16:00; Sa-Su 00:00-24:00,MoneyGram,Q1944412
65278453,moneygram,M LHUILLIER - CAPAS TARLAC,,CAPAS,,,PH,+63 32 348 9400,,Mo-Su 07:00-19:00,MoneyGram,Q1944412
67784178,moneygram,BDO - #784 - CAPAS - TARLAC  CAPAS,,CAPAS,,,PH,+63 45 925 0232,,Mo-Sa 08:30-18:00; Su 00:00-24:00,MoneyGram,Q1944412
71779807,moneygram,PALAWAN PAWNSHOP - #EEY - CAPAS - TARLAC,,CAPAS,,,PH,+63 48 433 4110,,Mo-Su 08:00-17:30,MoneyGram,Q1944412
