Ref,Spider,Name,Address,City,State,Zipcode,Country,Phone,Website,Hours,Brand,WikiData
CH*ECUEP32MX4X9HS66A5Y7SNMRW9DYSA,ich_tanke_strom,,"Am Kirchpl. 4 , 54552 Brockscheid",,Rheinland-Pfalz,,DE,,,,,
CH*ECUE3SY2XAKY6X7HWHX9GCZJ2TVZKS,ich_tanke_strom,,"Karl-Heinz-Kipp-Straße , 55232 Alzey",,Rheinland-Pfalz,,DE,,,,,
CH*ECUE5E5ENRNVCS7NYGZSKAXCFT6RNX,ich_tanke_strom,,"Karl-Heinz-Kipp-Straße , 55232 Alzey",,Rheinland-Pfalz,,DE,,,,,
CH*ECUEH3KQFVKXJCH2AFWL636DXXTLHZ,ich_tanke_strom,,"Am Straßenfeld 26 , 51597 Morsbach",,Rheinland-Pfalz,,DE,,,,,
CH*ECUEGEDXXQY3S5ALJCVZJLQL2P2QHX,ich_tanke_strom,,"32 Allée des Peupliers Altenstadt , 67160 Wissembourg",,Rheinland-Pfalz,,DE,,,,,
CH*ECUE9EWBFWHV236S5PAHCAQDCDZPC3,ich_tanke_strom,,"Wiesenstraße 8b , 67259 Großniedesheim",,Rheinland-Pfalz,,DE,,,,,
CH*ECUEZNJYA358F3DHPCG2CFP735ZNL2,ich_tanke_strom,,"Werkstraße 28 , 56410 Montabaur",,Rheinland-Pfalz,,DE,,,,,
CH*ECUEMN2ZBBLC39WFHTV2CSVMN22BH3,ich_tanke_strom,,"Hauptstraße 24 , 56254 Müden (Mosel)",,Rheinland-Pfalz,,DE,,,,,
CH*ECUERU7S779DLDQXVTYKB7V38X2JGS,ich_tanke_strom,,"Uferallee 3 , 54470 Bernkastel-Kues",,Rheinland-Pfalz,,DE,,,,,
CH*ECUECLLPCY8QHNA227B3M5XF87FDES,ich_tanke_strom,,"Dahlienweg 6 , 53489 Sinzig",,Rheinland-Pfalz,,DE,,,,,
CH*ECUE6ZLQ6AL5RWQL88XNWBJC97W8KX,ich_tanke_strom,,"Binger Weg 3A , 65391 Lorch",,Rheinland-Pfalz,,DE,,,,,
CH*ECUECNU2DEABMG8KWPPMTGMK9NMZMA,ich_tanke_strom,,"Neustadt an der Weinstraße , - Deutschland",,Rheinland-Pfalz,,DE,,,,,
CH*ECUEWM587T7GRJ2A8XYHEXKVLGNHYX,ich_tanke_strom,,"Moselbahnstraße 2 , 54470 Bernkastel-Kues",,Rheinland-Pfalz,,DE,,,,,
CH*ECUESLQSF4ECHE3S4G5ZHARCY5KTZX,ich_tanke_strom,,"Binger Weg 3A , 65391 Lorch",,Rheinland-Pfalz,,DE,,,,,
CH*ECUEVJYKPT6QMH5B7NFJWSXWBLSAN2,ich_tanke_strom,,"Schulstraße 4 , 54655 Orsfeld",,Rheinland-Pfalz,,DE,,,,,
,ionity,Brohltal Ost,,,Rheinland-Pfalz,,DE,,,24/7,Ionity,Q42717773
,ionity,Brohltal West,,,Rheinland-Pfalz,,DE,,,24/7,Ionity,Q42717773
,ionity,Polch,,,Rheinland-Pfalz,,DE,,,24/7,Ionity,Q42717773
,ionity,Bad Honnef,,,Rheinland-Pfalz,,DE,,,24/7,Ionity,Q42717773
,ionity,Eifel Ost,,,Rheinland-Pfalz,,DE,,,24/7,Ionity,Q42717773
,ionity,Kaiserslautern,,Kaiserslautern,Rheinland-Pfalz,,DE,,,24/7,Ionity,Q42717773
,ionity,Eifel West,,,Rheinland-Pfalz,,DE,,,24/7,Ionity,Q42717773
,ionity,Wittlich,,,Rheinland-Pfalz,,DE,,,24/7,Ionity,Q42717773
,ionity,Nahetal,,,Rheinland-Pfalz,,DE,,,24/7,Ionity,Q42717773
MANNHEIM-LUDWIGSHAFEN-PARKING-GLOBUS,tier,Tier,,,Rheinland-Pfalz,,DE,,,,,
KAISERSLAUTERN-PARKPLATZ-HBF,tier,Tier,,,Rheinland-Pfalz,,DE,,,,,
MANNHEIM-LUDWIGSHAFEN-PARKING-ZONE-CUSTOMER-RESTAURANT,tier,Tier,,,Rheinland-Pfalz,,DE,,,,,
KAISERSLAUTERN-OPS-PARKZONE-BETZE-1,tier,Tier,,,Rheinland-Pfalz,,DE,,,,,
KAISERSLAUTERN-OPS-PARKZONE-BETZE-2,tier,Tier,,,Rheinland-Pfalz,,DE,,,,,
KAISERSLAUTERN-PARKZONE-MOBILITY-HUB-KL,tier,Tier,,,Rheinland-Pfalz,,DE,,,,,
MAINZ-OPEL-ARENA-PARKING,tier,Tier,,,Rheinland-Pfalz,,DE,,,,,
KAISERSLAUTERN-PARKZONE-BBS-1-TECHNIK,tier,Tier,,,Rheinland-Pfalz,,DE,,,,,
KAISERSLAUTERN-OPA-IKEA-PARKZONE,tier,Tier,,,Rheinland-Pfalz,,DE,,,,,
MANNHEIM-LUDWIGSHAFEN-PARKZONEN-LUDWIGSHAFEN-189,tier,Tier,,,Rheinland-Pfalz,,DE,,,,,
MANNHEIM-LUDWIGSHAFEN-PARKZONEN-LUDWIGSHAFEN-187,tier,Tier,,,Rheinland-Pfalz,,DE,,,,,
MANNHEIM-LUDWIGSHAFEN-PARKZONEN-LUDWIGSHAFEN-185,tier,Tier,,,Rheinland-Pfalz,,DE,,,,,
MANNHEIM-LUDWIGSHAFEN-PARKZONEN-LUDWIGSHAFEN-182,tier,Tier,,,Rheinland-Pfalz,,DE,,,,,
MANNHEIM-LUDWIGSHAFEN-PARKZONEN-LUDWIGSHAFEN-160,tier,Tier,,,Rheinland-Pfalz,,DE,,,,,
MANNHEIM-LUDWIGSHAFEN-PARKZONEN-LUDWIGSHAFEN-157,tier,Tier,,,Rheinland-Pfalz,,DE,,,,,
MANNHEIM-LUDWIGSHAFEN-PARKZONEN-LUDWIGSHAFEN-154,tier,Tier,,,Rheinland-Pfalz,,DE,,,,,
MANNHEIM-LUDWIGSHAFEN-PARKZONEN-LUDWIGSHAFEN-148,tier,Tier,,,Rheinland-Pfalz,,DE,,,,,
MANNHEIM-LUDWIGSHAFEN-PARKZONEN-LUDWIGSHAFEN-184,tier,Tier,,,Rheinland-Pfalz,,DE,,,,,
MANNHEIM-LUDWIGSHAFEN-PARKZONEN-LUDWIGSHAFEN-158,tier,Tier,,,Rheinland-Pfalz,,DE,,,,,
MANNHEIM-LUDWIGSHAFEN-PARKZONEN-LUDWIGSHAFEN-183,tier,Tier,,,Rheinland-Pfalz,,DE,,,,,
MANNHEIM-LUDWIGSHAFEN-PARKZONEN-LUDWIGSHAFEN-181,tier,Tier,,,Rheinland-Pfalz,,DE,,,,,
MANNHEIM-LUDWIGSHAFEN-PARKZONEN-LUDWIGSHAFEN-180,tier,Tier,,,Rheinland-Pfalz,,DE,,,,,
MANNHEIM-LUDWIGSHAFEN-PARKZONEN-LUDWIGSHAFEN-176,tier,Tier,,,Rheinland-Pfalz,,DE,,,,,
MANNHEIM-LUDWIGSHAFEN-PARKZONEN-LUDWIGSHAFEN-178,tier,Tier,,,Rheinland-Pfalz,,DE,,,,,
MANNHEIM-LUDWIGSHAFEN-PARKZONEN-LUDWIGSHAFEN-175,tier,Tier,,,Rheinland-Pfalz,,DE,,,,,
MANNHEIM-LUDWIGSHAFEN-PARKZONEN-LUDWIGSHAFEN-177,tier,Tier,,,Rheinland-Pfalz,,DE,,,,,
MANNHEIM-LUDWIGSHAFEN-PARKZONEN-LUDWIGSHAFEN-173,tier,Tier,,,Rheinland-Pfalz,,DE,,,,,
MANNHEIM-LUDWIGSHAFEN-PARKZONEN-LUDWIGSHAFEN-174,tier,Tier,,,Rheinland-Pfalz,,DE,,,,,
MANNHEIM-LUDWIGSHAFEN-PARKZONEN-LUDWIGSHAFEN-172,tier,Tier,,,Rheinland-Pfalz,,DE,,,,,
MANNHEIM-LUDWIGSHAFEN-PARKZONEN-LUDWIGSHAFEN-168,tier,Tier,,,Rheinland-Pfalz,,DE,,,,,
MANNHEIM-LUDWIGSHAFEN-PARKZONEN-LUDWIGSHAFEN-171,tier,Tier,,,Rheinland-Pfalz,,DE,,,,,
MANNHEIM-LUDWIGSHAFEN-PARKZONEN-LUDWIGSHAFEN-170,tier,Tier,,,Rheinland-Pfalz,,DE,,,,,
MANNHEIM-LUDWIGSHAFEN-PARKZONEN-LUDWIGSHAFEN-169,tier,Tier,,,Rheinland-Pfalz,,DE,,,,,
MANNHEIM-LUDWIGSHAFEN-PARKZONEN-LUDWIGSHAFEN-155,tier,Tier,,,Rheinland-Pfalz,,DE,,,,,
MANNHEIM-LUDWIGSHAFEN-PARKZONEN-LUDWIGSHAFEN-151,tier,Tier,,,Rheinland-Pfalz,,DE,,,,,
MANNHEIM-LUDWIGSHAFEN-PARKZONEN-LUDWIGSHAFEN-167,tier,Tier,,,Rheinland-Pfalz,,DE,,,,,
MANNHEIM-LUDWIGSHAFEN-PARKZONEN-LUDWIGSHAFEN-166,tier,Tier,,,Rheinland-Pfalz,,DE,,,,,
MANNHEIM-LUDWIGSHAFEN-PARKZONEN-LUDWIGSHAFEN-125,tier,Tier,,,Rheinland-Pfalz,,DE,,,,,
MANNHEIM-LUDWIGSHAFEN-PARKZONEN-LUDWIGSHAFEN-122,tier,Tier,,,Rheinland-Pfalz,,DE,,,,,
MANNHEIM-LUDWIGSHAFEN-PARKZONEN-LUDWIGSHAFEN-165,tier,Tier,,,Rheinland-Pfalz,,DE,,,,,
MANNHEIM-LUDWIGSHAFEN-PARKZONEN-LUDWIGSHAFEN-164,tier,Tier,,,Rheinland-Pfalz,,DE,,,,,
MANNHEIM-LUDWIGSHAFEN-PARKZONEN-LUDWIGSHAFEN-163,tier,Tier,,,Rheinland-Pfalz,,DE,,,,,
MANNHEIM-LUDWIGSHAFEN-PARKZONEN-LUDWIGSHAFEN-161,tier,Tier,,,Rheinland-Pfalz,,DE,,,,,
MANNHEIM-LUDWIGSHAFEN-PARKZONEN-LUDWIGSHAFEN-162,tier,Tier,,,Rheinland-Pfalz,,DE,,,,,
MANNHEIM-LUDWIGSHAFEN-PARKZONEN-LUDWIGSHAFEN-159,tier,Tier,,,Rheinland-Pfalz,,DE,,,,,
MANNHEIM-LUDWIGSHAFEN-PARKZONEN-LUDWIGSHAFEN-156,tier,Tier,,,Rheinland-Pfalz,,DE,,,,,
MANNHEIM-LUDWIGSHAFEN-PARKZONEN-LUDWIGSHAFEN-152,tier,Tier,,,Rheinland-Pfalz,,DE,,,,,
MANNHEIM-LUDWIGSHAFEN-PARKZONEN-LUDWIGSHAFEN-150,tier,Tier,,,Rheinland-Pfalz,,DE,,,,,
MANNHEIM-LUDWIGSHAFEN-PARKZONEN-LUDWIGSHAFEN-149,tier,Tier,,,Rheinland-Pfalz,,DE,,,,,
MANNHEIM-LUDWIGSHAFEN-PARKZONEN-LUDWIGSHAFEN-147,tier,Tier,,,Rheinland-Pfalz,,DE,,,,,
MANNHEIM-LUDWIGSHAFEN-PARKZONEN-LUDWIGSHAFEN-146,tier,Tier,,,Rheinland-Pfalz,,DE,,,,,
MANNHEIM-LUDWIGSHAFEN-PARKZONEN-LUDWIGSHAFEN-145,tier,Tier,,,Rheinland-Pfalz,,DE,,,,,
MANNHEIM-LUDWIGSHAFEN-PARKZONEN-LUDWIGSHAFEN-144,tier,Tier,,,Rheinland-Pfalz,,DE,,,,,
MANNHEIM-LUDWIGSHAFEN-PARKZONEN-LUDWIGSHAFEN-143,tier,Tier,,,Rheinland-Pfalz,,DE,,,,,
MANNHEIM-LUDWIGSHAFEN-PARKZONEN-LUDWIGSHAFEN-142,tier,Tier,,,Rheinland-Pfalz,,DE,,,,,
MANNHEIM-LUDWIGSHAFEN-PARKZONEN-LUDWIGSHAFEN-114,tier,Tier,,,Rheinland-Pfalz,,DE,,,,,
MANNHEIM-LUDWIGSHAFEN-PARKZONEN-LUDWIGSHAFEN-141,tier,Tier,,,Rheinland-Pfalz,,DE,,,,,
MANNHEIM-LUDWIGSHAFEN-PARKZONEN-LUDWIGSHAFEN-139,tier,Tier,,,Rheinland-Pfalz,,DE,,,,,
MANNHEIM-LUDWIGSHAFEN-PARKZONEN-LUDWIGSHAFEN-140,tier,Tier,,,Rheinland-Pfalz,,DE,,,,,
MANNHEIM-LUDWIGSHAFEN-PARKZONEN-LUDWIGSHAFEN-136,tier,Tier,,,Rheinland-Pfalz,,DE,,,,,
MANNHEIM-LUDWIGSHAFEN-PARKZONEN-LUDWIGSHAFEN-138,tier,Tier,,,Rheinland-Pfalz,,DE,,,,,
MANNHEIM-LUDWIGSHAFEN-PARKZONEN-LUDWIGSHAFEN-137,tier,Tier,,,Rheinland-Pfalz,,DE,,,,,
MANNHEIM-LUDWIGSHAFEN-PARKZONEN-LUDWIGSHAFEN-135,tier,Tier,,,Rheinland-Pfalz,,DE,,,,,
MANNHEIM-LUDWIGSHAFEN-PARKZONEN-LUDWIGSHAFEN-134,tier,Tier,,,Rheinland-Pfalz,,DE,,,,,
MANNHEIM-LUDWIGSHAFEN-PARKZONEN-LUDWIGSHAFEN-133,tier,Tier,,,Rheinland-Pfalz,,DE,,,,,
MANNHEIM-LUDWIGSHAFEN-PARKZONEN-LUDWIGSHAFEN-132,tier,Tier,,,Rheinland-Pfalz,,DE,,,,,
MANNHEIM-LUDWIGSHAFEN-PARKZONEN-LUDWIGSHAFEN-129,tier,Tier,,,Rheinland-Pfalz,,DE,,,,,
MANNHEIM-LUDWIGSHAFEN-PARKZONEN-LUDWIGSHAFEN-131,tier,Tier,,,Rheinland-Pfalz,,DE,,,,,
MANNHEIM-LUDWIGSHAFEN-PARKZONEN-LUDWIGSHAFEN-128,tier,Tier,,,Rheinland-Pfalz,,DE,,,,,
MANNHEIM-LUDWIGSHAFEN-PARKZONEN-LUDWIGSHAFEN-130,tier,Tier,,,Rheinland-Pfalz,,DE,,,,,
MANNHEIM-LUDWIGSHAFEN-PARKZONEN-LUDWIGSHAFEN-127,tier,Tier,,,Rheinland-Pfalz,,DE,,,,,
MANNHEIM-LUDWIGSHAFEN-PARKZONEN-LUDWIGSHAFEN-126,tier,Tier,,,Rheinland-Pfalz,,DE,,,,,
MANNHEIM-LUDWIGSHAFEN-PARKZONEN-LUDWIGSHAFEN-124,tier,Tier,,,Rheinland-Pfalz,,DE,,,,,
MANNHEIM-LUDWIGSHAFEN-PARKZONEN-LUDWIGSHAFEN-121,tier,Tier,,,Rheinland-Pfalz,,DE,,,,,
MANNHEIM-LUDWIGSHAFEN-PARKZONEN-LUDWIGSHAFEN-119,tier,Tier,,,Rheinland-Pfalz,,DE,,,,,
MANNHEIM-LUDWIGSHAFEN-PARKZONEN-LUDWIGSHAFEN-120,tier,Tier,,,Rheinland-Pfalz,,DE,,,,,
MANNHEIM-LUDWIGSHAFEN-PARKZONEN-LUDWIGSHAFEN-89,tier,Tier,,,Rheinland-Pfalz,,DE,,,,,
MANNHEIM-LUDWIGSHAFEN-PARKZONEN-LUDWIGSHAFEN-118,tier,Tier,,,Rheinland-Pfalz,,DE,,,,,
MANNHEIM-LUDWIGSHAFEN-PARKZONEN-LUDWIGSHAFEN-115,tier,Tier,,,Rheinland-Pfalz,,DE,,,,,
MANNHEIM-LUDWIGSHAFEN-PARKZONEN-LUDWIGSHAFEN-116,tier,Tier,,,Rheinland-Pfalz,,DE,,,,,
MANNHEIM-LUDWIGSHAFEN-PARKZONEN-LUDWIGSHAFEN-113,tier,Tier,,,Rheinland-Pfalz,,DE,,,,,
MANNHEIM-LUDWIGSHAFEN-PARKZONEN-LUDWIGSHAFEN-111,tier,Tier,,,Rheinland-Pfalz,,DE,,,,,
MANNHEIM-LUDWIGSHAFEN-PARKZONEN-LUDWIGSHAFEN-110,tier,Tier,,,Rheinland-Pfalz,,DE,,,,,
MANNHEIM-LUDWIGSHAFEN-PARKZONEN-LUDWIGSHAFEN-105,tier,Tier,,,Rheinland-Pfalz,,DE,,,,,
MANNHEIM-LUDWIGSHAFEN-PARKZONEN-LUDWIGSHAFEN-108,tier,Tier,,,Rheinland-Pfalz,,DE,,,,,
MANNHEIM-LUDWIGSHAFEN-PARKZONEN-LUDWIGSHAFEN-107,tier,Tier,,,Rheinland-Pfalz,,DE,,,,,
MANNHEIM-LUDWIGSHAFEN-PARKZONEN-LUDWIGSHAFEN-106,tier,Tier,,,Rheinland-Pfalz,,DE,,,,,
MANNHEIM-LUDWIGSHAFEN-PARKZONEN-LUDWIGSHAFEN-104,tier,Tier,,,Rheinland-Pfalz,,DE,,,,,
MANNHEIM-LUDWIGSHAFEN-PARKZONEN-LUDWIGSHAFEN-103,tier,Tier,,,Rheinland-Pfalz,,DE,,,,,
MANNHEIM-LUDWIGSHAFEN-PARKZONEN-LUDWIGSHAFEN-101,tier,Tier,,,Rheinland-Pfalz,,DE,,,,,
MANNHEIM-LUDWIGSHAFEN-PARKZONEN-LUDWIGSHAFEN-102,tier,Tier,,,Rheinland-Pfalz,,DE,,,,,
MANNHEIM-LUDWIGSHAFEN-PARKZONEN-LUDWIGSHAFEN-100,tier,Tier,,,Rheinland-Pfalz,,DE,,,,,
MANNHEIM-LUDWIGSHAFEN-PARKZONEN-LUDWIGSHAFEN-99,tier,Tier,,,Rheinland-Pfalz,,DE,,,,,
MANNHEIM-LUDWIGSHAFEN-PARKZONEN-LUDWIGSHAFEN-97,tier,Tier,,,Rheinland-Pfalz,,DE,,,,,
MANNHEIM-LUDWIGSHAFEN-PARKZONEN-LUDWIGSHAFEN-96,tier,Tier,,,Rheinland-Pfalz,,DE,,,,,
MANNHEIM-LUDWIGSHAFEN-PARKZONEN-LUDWIGSHAFEN-95,tier,Tier,,,Rheinland-Pfalz,,DE,,,,,
MANNHEIM-LUDWIGSHAFEN-PARKZONEN-LUDWIGSHAFEN-71,tier,Tier,,,Rheinland-Pfalz,,DE,,,,,
MANNHEIM-LUDWIGSHAFEN-PARKZONEN-LUDWIGSHAFEN-93,tier,Tier,,,Rheinland-Pfalz,,DE,,,,,
MANNHEIM-LUDWIGSHAFEN-PARKZONEN-LUDWIGSHAFEN-92,tier,Tier,,,Rheinland-Pfalz,,DE,,,,,
MANNHEIM-LUDWIGSHAFEN-PARKZONEN-LUDWIGSHAFEN-79,tier,Tier,,,Rheinland-Pfalz,,DE,,,,,
MANNHEIM-LUDWIGSHAFEN-PARKZONEN-LUDWIGSHAFEN-76,tier,Tier,,,Rheinland-Pfalz,,DE,,,,,
MANNHEIM-LUDWIGSHAFEN-PARKZONEN-LUDWIGSHAFEN-90,tier,Tier,,,Rheinland-Pfalz,,DE,,,,,
MANNHEIM-LUDWIGSHAFEN-PARKZONEN-LUDWIGSHAFEN-88,tier,Tier,,,Rheinland-Pfalz,,DE,,,,,
MANNHEIM-LUDWIGSHAFEN-PARKZONEN-LUDWIGSHAFEN-78,tier,Tier,,,Rheinland-Pfalz,,DE,,,,,
MANNHEIM-LUDWIGSHAFEN-PARKZONEN-LUDWIGSHAFEN-87,tier,Tier,,,Rheinland-Pfalz,,DE,,,,,
MANNHEIM-LUDWIGSHAFEN-PARKZONEN-LUDWIGSHAFEN-86,tier,Tier,,,Rheinland-Pfalz,,DE,,,,,
MANNHEIM-LUDWIGSHAFEN-PARKZONEN-LUDWIGSHAFEN-85,tier,Tier,,,Rheinland-Pfalz,,DE,,,,,
MANNHEIM-LUDWIGSHAFEN-PARKZONEN-LUDWIGSHAFEN-84,tier,Tier,,,Rheinland-Pfalz,,DE,,,,,
MANNHEIM-LUDWIGSHAFEN-PARKZONEN-LUDWIGSHAFEN-83,tier,Tier,,,Rheinland-Pfalz,,DE,,,,,
MANNHEIM-LUDWIGSHAFEN-PARKZONEN-LUDWIGSHAFEN-82,tier,Tier,,,Rheinland-Pfalz,,DE,,,,,
MANNHEIM-LUDWIGSHAFEN-PARKZONEN-LUDWIGSHAFEN-49,tier,Tier,,,Rheinland-Pfalz,,DE,,,,,
MANNHEIM-LUDWIGSHAFEN-PARKZONEN-LUDWIGSHAFEN-81,tier,Tier,,,Rheinland-Pfalz,,DE,,,,,
MANNHEIM-LUDWIGSHAFEN-PARKZONEN-LUDWIGSHAFEN-80,tier,Tier,,,Rheinland-Pfalz,,DE,,,,,
MANNHEIM-LUDWIGSHAFEN-PARKZONEN-LUDWIGSHAFEN-77,tier,Tier,,,Rheinland-Pfalz,,DE,,,,,
MANNHEIM-LUDWIGSHAFEN-PARKZONEN-LUDWIGSHAFEN-73,tier,Tier,,,Rheinland-Pfalz,,DE,,,,,
MANNHEIM-LUDWIGSHAFEN-PARKZONEN-LUDWIGSHAFEN-70,tier,Tier,,,Rheinland-Pfalz,,DE,,,,,
MANNHEIM-LUDWIGSHAFEN-PARKZONEN-LUDWIGSHAFEN-74,tier,Tier,,,Rheinland-Pfalz,,DE,,,,,
MANNHEIM-LUDWIGSHAFEN-PARKZONEN-LUDWIGSHAFEN-69,tier,Tier,,,Rheinland-Pfalz,,DE,,,,,
MANNHEIM-LUDWIGSHAFEN-PARKZONEN-LUDWIGSHAFEN-72,tier,Tier,,,Rheinland-Pfalz,,DE,,,,,
MANNHEIM-LUDWIGSHAFEN-PARKZONEN-LUDWIGSHAFEN-67,tier,Tier,,,Rheinland-Pfalz,,DE,,,,,
MANNHEIM-LUDWIGSHAFEN-PARKZONEN-LUDWIGSHAFEN-68,tier,Tier,,,Rheinland-Pfalz,,DE,,,,,
MANNHEIM-LUDWIGSHAFEN-PARKZONEN-LUDWIGSHAFEN-66,tier,Tier,,,Rheinland-Pfalz,,DE,,,,,
MANNHEIM-LUDWIGSHAFEN-PARKZONEN-LUDWIGSHAFEN-65,tier,Tier,,,Rheinland-Pfalz,,DE,,,,,
MANNHEIM-LUDWIGSHAFEN-PARKZONEN-LUDWIGSHAFEN-64,tier,Tier,,,Rheinland-Pfalz,,DE,,,,,
MANNHEIM-LUDWIGSHAFEN-PARKZONEN-LUDWIGSHAFEN-63,tier,Tier,,,Rheinland-Pfalz,,DE,,,,,
MANNHEIM-LUDWIGSHAFEN-PARKZONEN-LUDWIGSHAFEN-62,tier,Tier,,,Rheinland-Pfalz,,DE,,,,,
MANNHEIM-LUDWIGSHAFEN-PARKZONEN-LUDWIGSHAFEN-38,tier,Tier,,,Rheinland-Pfalz,,DE,,,,,
MANNHEIM-LUDWIGSHAFEN-PARKZONEN-LUDWIGSHAFEN-36,tier,Tier,,,Rheinland-Pfalz,,DE,,,,,
MANNHEIM-LUDWIGSHAFEN-PARKZONEN-LUDWIGSHAFEN-34,tier,Tier,,,Rheinland-Pfalz,,DE,,,,,
MANNHEIM-LUDWIGSHAFEN-PARKZONEN-LUDWIGSHAFEN-32,tier,Tier,,,Rheinland-Pfalz,,DE,,,,,
MANNHEIM-LUDWIGSHAFEN-PARKZONEN-LUDWIGSHAFEN-61,tier,Tier,,,Rheinland-Pfalz,,DE,,,,,
MANNHEIM-LUDWIGSHAFEN-PARKZONEN-LUDWIGSHAFEN-58,tier,Tier,,,Rheinland-Pfalz,,DE,,,,,
MANNHEIM-LUDWIGSHAFEN-PARKZONEN-LUDWIGSHAFEN-60,tier,Tier,,,Rheinland-Pfalz,,DE,,,,,
MANNHEIM-LUDWIGSHAFEN-PARKZONEN-LUDWIGSHAFEN-56,tier,Tier,,,Rheinland-Pfalz,,DE,,,,,
MANNHEIM-LUDWIGSHAFEN-PARKZONEN-LUDWIGSHAFEN-31,tier,Tier,,,Rheinland-Pfalz,,DE,,,,,
MANNHEIM-LUDWIGSHAFEN-PARKZONEN-LUDWIGSHAFEN-29,tier,Tier,,,Rheinland-Pfalz,,DE,,,,,
MANNHEIM-LUDWIGSHAFEN-PARKZONEN-LUDWIGSHAFEN-27,tier,Tier,,,Rheinland-Pfalz,,DE,,,,,
MANNHEIM-LUDWIGSHAFEN-PARKZONEN-LUDWIGSHAFEN-59,tier,Tier,,,Rheinland-Pfalz,,DE,,,,,
MANNHEIM-LUDWIGSHAFEN-PARKZONEN-LUDWIGSHAFEN-55,tier,Tier,,,Rheinland-Pfalz,,DE,,,,,
MANNHEIM-LUDWIGSHAFEN-PARKZONEN-LUDWIGSHAFEN-57,tier,Tier,,,Rheinland-Pfalz,,DE,,,,,
MANNHEIM-LUDWIGSHAFEN-PARKZONEN-LUDWIGSHAFEN-53,tier,Tier,,,Rheinland-Pfalz,,DE,,,,,
MANNHEIM-LUDWIGSHAFEN-PARKZONEN-LUDWIGSHAFEN-54,tier,Tier,,,Rheinland-Pfalz,,DE,,,,,
MANNHEIM-LUDWIGSHAFEN-PARKZONEN-LUDWIGSHAFEN-21,tier,Tier,,,Rheinland-Pfalz,,DE,,,,,
MANNHEIM-LUDWIGSHAFEN-PARKZONEN-LUDWIGSHAFEN-52,tier,Tier,,,Rheinland-Pfalz,,DE,,,,,
MANNHEIM-LUDWIGSHAFEN-PARKZONEN-LUDWIGSHAFEN-51,tier,Tier,,,Rheinland-Pfalz,,DE,,,,,
MANNHEIM-LUDWIGSHAFEN-PARKZONEN-LUDWIGSHAFEN-45,tier,Tier,,,Rheinland-Pfalz,,DE,,,,,
MANNHEIM-LUDWIGSHAFEN-PARKZONEN-LUDWIGSHAFEN-50,tier,Tier,,,Rheinland-Pfalz,,DE,,,,,
MANNHEIM-LUDWIGSHAFEN-PARKZONEN-LUDWIGSHAFEN-47,tier,Tier,,,Rheinland-Pfalz,,DE,,,,,
MANNHEIM-LUDWIGSHAFEN-PARKZONEN-LUDWIGSHAFEN-44,tier,Tier,,,Rheinland-Pfalz,,DE,,,,,
MANNHEIM-LUDWIGSHAFEN-PARKZONEN-LUDWIGSHAFEN-43,tier,Tier,,,Rheinland-Pfalz,,DE,,,,,
MANNHEIM-LUDWIGSHAFEN-PARKZONEN-LUDWIGSHAFEN-42,tier,Tier,,,Rheinland-Pfalz,,DE,,,,,
MANNHEIM-LUDWIGSHAFEN-PARKZONEN-LUDWIGSHAFEN-39,tier,Tier,,,Rheinland-Pfalz,,DE,,,,,
MANNHEIM-LUDWIGSHAFEN-PARKZONEN-LUDWIGSHAFEN-37,tier,Tier,,,Rheinland-Pfalz,,DE,,,,,
MANNHEIM-LUDWIGSHAFEN-PARKZONEN-LUDWIGSHAFEN-35,tier,Tier,,,Rheinland-Pfalz,,DE,,,,,
MANNHEIM-LUDWIGSHAFEN-PARKZONEN-LUDWIGSHAFEN-30,tier,Tier,,,Rheinland-Pfalz,,DE,,,,,
MANNHEIM-LUDWIGSHAFEN-PARKZONEN-LUDWIGSHAFEN-28,tier,Tier,,,Rheinland-Pfalz,,DE,,,,,
MANNHEIM-LUDWIGSHAFEN-PARKZONEN-LUDWIGSHAFEN-25,tier,Tier,,,Rheinland-Pfalz,,DE,,,,,
MANNHEIM-LUDWIGSHAFEN-PARKZONEN-LUDWIGSHAFEN-24,tier,Tier,,,Rheinland-Pfalz,,DE,,,,,
MANNHEIM-LUDWIGSHAFEN-PARKZONEN-LUDWIGSHAFEN-23,tier,Tier,,,Rheinland-Pfalz,,DE,,,,,
MANNHEIM-LUDWIGSHAFEN-PARKZONEN-LUDWIGSHAFEN-20,tier,Tier,,,Rheinland-Pfalz,,DE,,,,,
MANNHEIM-LUDWIGSHAFEN-PARKZONEN-LUDWIGSHAFEN-14,tier,Tier,,,Rheinland-Pfalz,,DE,,,,,
MANNHEIM-LUDWIGSHAFEN-PARKZONEN-LUDWIGSHAFEN-12,tier,Tier,,,Rheinland-Pfalz,,DE,,,,,
MANNHEIM-LUDWIGSHAFEN-PARKZONEN-LUDWIGSHAFEN-19,tier,Tier,,,Rheinland-Pfalz,,DE,,,,,
MANNHEIM-LUDWIGSHAFEN-PARKZONEN-LUDWIGSHAFEN-18,tier,Tier,,,Rheinland-Pfalz,,DE,,,,,
MANNHEIM-LUDWIGSHAFEN-PARKZONEN-LUDWIGSHAFEN-16,tier,Tier,,,Rheinland-Pfalz,,DE,,,,,
MANNHEIM-LUDWIGSHAFEN-PARKZONEN-LUDWIGSHAFEN-11,tier,Tier,,,Rheinland-Pfalz,,DE,,,,,
MANNHEIM-LUDWIGSHAFEN-PARKZONEN-LUDWIGSHAFEN-10,tier,Tier,,,Rheinland-Pfalz,,DE,,,,,
MANNHEIM-LUDWIGSHAFEN-PARKZONEN-LUDWIGSHAFEN-9,tier,Tier,,,Rheinland-Pfalz,,DE,,,,,
MANNHEIM-LUDWIGSHAFEN-PARKZONEN-LUDWIGSHAFEN-8,tier,Tier,,,Rheinland-Pfalz,,DE,,,,,
MANNHEIM-LUDWIGSHAFEN-PARKZONEN-LUDWIGSHAFEN-7,tier,Tier,,,Rheinland-Pfalz,,DE,,,,,
MANNHEIM-LUDWIGSHAFEN-PARKZONEN-LUDWIGSHAFEN-6,tier,Tier,,,Rheinland-Pfalz,,DE,,,,,
MANNHEIM-LUDWIGSHAFEN-PARKZONEN-LUDWIGSHAFEN-5,tier,Tier,,,Rheinland-Pfalz,,DE,,,,,
MANNHEIM-LUDWIGSHAFEN-PARKZONEN-LUDWIGSHAFEN-4,tier,Tier,,,Rheinland-Pfalz,,DE,,,,,
MANNHEIM-LUDWIGSHAFEN-PARKZONEN-LUDWIGSHAFEN-1,tier,Tier,,,Rheinland-Pfalz,,DE,,,,,
MANNHEIM-LUDWIGSHAFEN-PARKZONEN-LUDWIGSHAFEN-3,tier,Tier,,,Rheinland-Pfalz,,DE,,,,,
MANNHEIM-LUDWIGSHAFEN-PARKZONEN-LUDWIGSHAFEN-2,tier,Tier,,,Rheinland-Pfalz,,DE,,,,,
MAINZ-MAINZ-HBF-PARKING-DROPOFF-POINT,tier,Tier,,,Rheinland-Pfalz,,DE,,,,,
KAISERSLAUTERN-OPS-PARKZONE-BETZE-1-TLC0UUOKHG,tier,Tier,,,Rheinland-Pfalz,,DE,,,,,
MANNHEIM-LUDWIGSHAFEN-PARKING-ZONE-A1,tier,Tier,,,Rheinland-Pfalz,,DE,,,,,
