Ref,Spider,Name,Address,City,State,Zipcode,Country,Phone,Website,Hours,Brand,WikiData
,visa,,,IXTAPALUCA,ESTADO DE MEXICO,,MX,,,,,
,visa,,,IXTAPALUCA,ESTADO DE MEXICO,,MX,,,,,
,visa,,,IXTAPALUCA,ESTADO DE MEXICO,,MX,,,,,
,visa,,,IXTAPALUCA,ESTADO DE MEXICO,,MX,,,,,
,visa,,,IXTAPALUCA,ESTADO DE MEXICO,,MX,,,,,
,visa,,,IXTAPALUCA,ESTADO DE MEXICO,,MX,,,,,
292f2a9c1991e86c6948793fdd173b50,western_union,CAJA ATEMAJAC 8203 AYOTLA IMX,,Ixtapaluca,ESTADO DE MEXICO,,MX,+52 800 733 3300,https://location.westernunion.com/mx/estado-de-mexico/ixtapaluca/292f2a9c1991e86c6948793fdd173b50,Mo-Fr 09:00-18:00; Sa 09:00-14:00,Western Union,Q861042
3ce3eab14919fd710f16fab8e2bd1eee,western_union,CAJA ATEMAJAC 8203 AYOTLA IMX,,Ixtapaluca,ESTADO DE MEXICO,,MX,+52 800 733 3300,https://location.westernunion.com/mx/estado-de-mexico/ixtapaluca/3ce3eab14919fd710f16fab8e2bd1eee,Mo-Fr 09:00-18:00; Sa 09:00-14:00,Western Union,Q861042
a9c3564ce5010be40c403b8092ec79e2,western_union,CAJA ATEMAJAC 8203 AYOTLA IMX,,Ixtapaluca,ESTADO DE MEXICO,,MX,+52 800 733 3300,https://location.westernunion.com/mx/estado-de-mexico/ixtapaluca/a9c3564ce5010be40c403b8092ec79e2,Mo-Fr 09:00-18:00; Sa 09:00-14:00,Western Union,Q861042
a096d2cf2d386f419c9a2f9f2c871d15,western_union,OXXO PATIO AYOTLA MEX,,Ixtapaluca,ESTADO DE MEXICO,,MX,+52 81 8389 2121,https://location.westernunion.com/mx/estado-de-mexico/ixtapaluca/a096d2cf2d386f419c9a2f9f2c871d15,Mo-Su 08:00-22:00,Western Union,Q861042
1f006b446455738a85bb9621e69c4410,western_union,OXXO PATIO AYOTLA MEX,,Ixtapaluca,ESTADO DE MEXICO,,MX,+52 81 8389 2121,https://location.westernunion.com/mx/estado-de-mexico/ixtapaluca/1f006b446455738a85bb9621e69c4410,Mo-Su 08:00-22:00,Western Union,Q861042
eec063eeb4f94d2b1001d16eb492ffc0,western_union,BANCOPPEL 894 PATIO AYOTLA,,Ixtapaluca,ESTADO DE MEXICO,,MX,+52 55 5974 2200,https://location.westernunion.com/mx/estado-de-mexico/ixtapaluca/eec063eeb4f94d2b1001d16eb492ffc0,Mo-Sa 10:00-20:00; Su 11:00-20:00,Western Union,Q861042
88e81a7d31e3c0535be97363757b59ae,western_union,ELEKTRA 3162,,Ixtapaluca,ESTADO DE MEXICO,,MX,+52 55 1720 8177,https://location.westernunion.com/mx/estado-de-mexico/ixtapaluca/88e81a7d31e3c0535be97363757b59ae,Mo-Su 09:00-21:00,Western Union,Q861042
3929a0a05237ce47bfd2a8a06c7db1dd,western_union,ELEKTRA 3162,,Ixtapaluca,ESTADO DE MEXICO,,MX,+52 55 1720 8177,https://location.westernunion.com/mx/estado-de-mexico/ixtapaluca/3929a0a05237ce47bfd2a8a06c7db1dd,Mo-Su 09:00-20:00,Western Union,Q861042
1760aee19604fd2b59dab94770b5b787,western_union,ELEKTRA 3162,,Ixtapaluca,ESTADO DE MEXICO,,MX,+52 55 1720 8177,https://location.westernunion.com/mx/estado-de-mexico/ixtapaluca/1760aee19604fd2b59dab94770b5b787,Mo-Su 09:00-21:00,Western Union,Q861042
a33c8efc3ace87332a6d2b806028b443,western_union,ITALIKA 1165 IXTAPALUCA,,Ixtapaluca,ESTADO DE MEXICO,,MX,+52 55 1720 8177,https://location.westernunion.com/mx/estado-de-mexico/ixtapaluca/a33c8efc3ace87332a6d2b806028b443,Mo-Su 09:00-21:00,Western Union,Q861042
c27f6bb5867b95f5560893c51344c8f7,western_union,ITALIKA 1165 IXTAPALUCA,,Ixtapaluca,ESTADO DE MEXICO,,MX,+52 55 1720 8177,https://location.westernunion.com/mx/estado-de-mexico/ixtapaluca/c27f6bb5867b95f5560893c51344c8f7,Mo-Su 09:00-21:00,Western Union,Q861042
403ff7d2001c71308a97b0d491145d08,western_union,ITALIKA 1165 IXTAPALUCA,,Ixtapaluca,ESTADO DE MEXICO,,MX,+52 55 1720 8177,https://location.westernunion.com/mx/estado-de-mexico/ixtapaluca/403ff7d2001c71308a97b0d491145d08,Mo-Su 09:00-21:00,Western Union,Q861042
15f27687f51eefc00f43f202e01e6ab7,western_union,BANCOPPEL 894 PATIO AYOTLA,,Ixtapaluca,ESTADO DE MEXICO,,MX,+52 55 5974 2200,https://location.westernunion.com/mx/estado-de-mexico/ixtapaluca/15f27687f51eefc00f43f202e01e6ab7,Mo-Sa 10:00-20:00; Su 11:00-20:00,Western Union,Q861042
e75463d566f4b4ef5d70c4b80670c8d0,western_union,BANCOPPEL 894 PATIO AYOTLA,,Ixtapaluca,ESTADO DE MEXICO,,MX,+52 55 5974 2200,https://location.westernunion.com/mx/estado-de-mexico/ixtapaluca/e75463d566f4b4ef5d70c4b80670c8d0,Mo-Sa 10:00-20:00; Su 11:00-20:00,Western Union,Q861042
