Ref,Spider,Name,Address,City,State,Zipcode,Country,Phone,Website,Hours,Brand,WikiData
,visa,,,PUEBLA,PUEBLA,,MX,,,,,
,visa,,,HEROICA PUEBLA DE ZARAGOZA,PUEBLA,,MX,,,,,
,visa,,,PUEBLA,PUEBLA,,MX,,,,,
,visa,,,PUEBLA,PUEBLA,,MX,,,,,
,visa,,,PUEBLA,PUEBLA,,MX,,,,,
,visa,,,PUEBLA,PUEBLA,,MX,,,,,
,visa,,,PUEBLA,PUEBLA,,MX,,,,,
,visa,,,PUEBLA,PUEBLA,,MX,,,,,
,visa,,,HEROICA PUEBLA DE ZARAGOZA,PUEBLA,,MX,,,,,
,visa,,,PUEBLA,PUEBLA,,MX,,,,,
,visa,,,PUEBLA,PUEBLA,,MX,,,,,
f5f7d8cdef8eea379db4c380be139aa3,western_union,BANORTE 01169 PUEBLA MAZARIK,,Puebla,PUEBLA,,MX,+52 800 833 4700,https://location.westernunion.com/mx/puebla/puebla/f5f7d8cdef8eea379db4c380be139aa3,Mo-Fr 09:00-17:00,Western Union,Q861042
6f5b4694ce24840111b9cde59c9c851f,western_union,BANORTE 01169 PUEBLA MAZARIK,,Puebla,PUEBLA,,MX,+52 800 833 4700,https://location.westernunion.com/mx/puebla/puebla/6f5b4694ce24840111b9cde59c9c851f,Mo-Fr 09:00-17:00,Western Union,Q861042
bcdf39233ea8644c3e295d050828d3d3,western_union,7ELEVEN ENCINOS CIRCUITO 2213,,Puebla,PUEBLA,,MX,+52 800 833 4700,https://location.westernunion.com/mx/puebla/puebla/bcdf39233ea8644c3e295d050828d3d3,Mo-Su 06:00-22:00,Western Union,Q861042
932698bf522010fc8f112d306b5d3be6,western_union,7ELEVEN ENCINOS CIRCUITO 2213,,Puebla,PUEBLA,,MX,+52 800 833 4700,https://location.westernunion.com/mx/puebla/puebla/932698bf522010fc8f112d306b5d3be6,Mo-Su 06:00-22:00,Western Union,Q861042
4bb3975271bbd329c3933ee489147f49,western_union,7ELEVEN ENCINOS CIRCUITO 2213,,Puebla,PUEBLA,,MX,+52 800 833 4700,https://location.westernunion.com/mx/puebla/puebla/4bb3975271bbd329c3933ee489147f49,Mo-Su 06:00-22:00,Western Union,Q861042
7b7e6a1dcb6d487829994e0503ea0234,western_union,SORIANA ANIMAS 278,,Puebla,PUEBLA,,MX,(+52) 81-1112009,https://location.westernunion.com/mx/puebla/puebla/7b7e6a1dcb6d487829994e0503ea0234,Mo-Su 08:00-23:00,Western Union,Q861042
655c964013ec83b16e6988375f6d37bf,western_union,SORIANA ANIMAS 278,,Puebla,PUEBLA,,MX,(+52) 81-1112009,https://location.westernunion.com/mx/puebla/puebla/655c964013ec83b16e6988375f6d37bf,Mo-Su 08:00-23:00,Western Union,Q861042
bed6d564b6e1dbe0f53eb246d914dc5a,western_union,OXXO JUAN PABLO II PBF,,Puebla,PUEBLA,,MX,+52 81 8389 2121,https://location.westernunion.com/mx/puebla/puebla/bed6d564b6e1dbe0f53eb246d914dc5a,Mo-Su 08:00-22:00,Western Union,Q861042
99f665fc26d1eb89b3f2e8835807067b,western_union,OXXO JUAN PABLO II PBF,,Puebla,PUEBLA,,MX,+52 81 8389 2121,https://location.westernunion.com/mx/puebla/puebla/99f665fc26d1eb89b3f2e8835807067b,Mo-Su 08:00-22:00,Western Union,Q861042
139de7e7d5ebe13b1b1a3b23c9b3f8fd,western_union,OXXO VERGEL II PBF,,Puebla,PUEBLA,,MX,+52 81 8389 2121,https://location.westernunion.com/mx/puebla/puebla/139de7e7d5ebe13b1b1a3b23c9b3f8fd,Mo-Su 08:00-22:00,Western Union,Q861042
813980c1edb350666c482bb91f41dc2e,western_union,OXXO JUAN PABLO II PBF,,Puebla,PUEBLA,,MX,+52 81 8389 2121,https://location.westernunion.com/mx/puebla/puebla/813980c1edb350666c482bb91f41dc2e,Mo-Su 08:00-22:00,Western Union,Q861042
5a360e1562aedb652d3eab58bbb89252,western_union,AZULEMEX PUEBLA 33 SUR 1451,,Puebla,PUEBLA,,MX,+52 55 1720 8177,https://location.westernunion.com/mx/puebla/puebla/5a360e1562aedb652d3eab58bbb89252,Mo-Su 09:00-21:00,Western Union,Q861042
6977823e17a0ef6db04aaa22d9e7b83d,western_union,AZULEMEX PUEBLA 33 SUR 1451,,Puebla,PUEBLA,,MX,+52 55 1720 8177,https://location.westernunion.com/mx/puebla/puebla/6977823e17a0ef6db04aaa22d9e7b83d,Mo-Su 09:00-21:00,Western Union,Q861042
bf5662ca9ef88c272a6dea4eb6704613,western_union,AZULEMEX PUEBLA 33 SUR 1451,,Puebla,PUEBLA,,MX,+52 55 1720 8177,https://location.westernunion.com/mx/puebla/puebla/bf5662ca9ef88c272a6dea4eb6704613,Mo-Su 09:00-21:00,Western Union,Q861042
272c06182ad3d4aebe91440429b95516,western_union,OXXO AMERICANO PBF,,Puebla,PUEBLA,,MX,+52 81 8389 2121,https://location.westernunion.com/mx/puebla/puebla/272c06182ad3d4aebe91440429b95516,Mo-Su 08:00-22:00,Western Union,Q861042
bce9d1483c9a555278ed00dc9950646c,western_union,OXXO AMERICANO PBF,,Puebla,PUEBLA,,MX,+52 81 8389 2121,https://location.westernunion.com/mx/puebla/puebla/bce9d1483c9a555278ed00dc9950646c,Mo-Su 08:00-22:00,Western Union,Q861042
89dbfc1d6f629a9daacaa48817928fe8,western_union,OXXO VERGEL II PBF,,Puebla,PUEBLA,,MX,+52 81 8389 2121,https://location.westernunion.com/mx/puebla/puebla/89dbfc1d6f629a9daacaa48817928fe8,Mo-Su 08:00-22:00,Western Union,Q861042
6df1fdca5c997e4985805ea311c20a72,western_union,FARM GUAD EL VERGEL,,Puebla,PUEBLA,,MX,+52 800 833 4700,https://location.westernunion.com/mx/puebla/puebla/6df1fdca5c997e4985805ea311c20a72,Mo-Su 09:00-22:00,Western Union,Q861042
edafeb597f9a1d11c8dd78e8c740ede9,western_union,FARM GUAD EL VERGEL,,Puebla,PUEBLA,,MX,+52 800 833 4700,https://location.westernunion.com/mx/puebla/puebla/edafeb597f9a1d11c8dd78e8c740ede9,Mo-Su 09:00-22:00,Western Union,Q861042
56252716c42421a1bba54cf825044ba5,western_union,FARM GUAD EL VERGEL,,Puebla,PUEBLA,,MX,+52 800 833 4700,https://location.westernunion.com/mx/puebla/puebla/56252716c42421a1bba54cf825044ba5,Mo-Su 09:00-22:00,Western Union,Q861042
c82c8d339bca9ef0529ecfbcca074150,western_union,BANORTE 00989 PUEBLA LAS ANIMAS,,Puebla,PUEBLA,,MX,+52 800 833 4700,https://location.westernunion.com/mx/puebla/puebla/c82c8d339bca9ef0529ecfbcca074150,Mo-Sa 09:00-17:00,Western Union,Q861042
9392b4edbcd37feab0d02b4e0f8ccd15,western_union,BANORTE 00989 PUEBLA LAS ANIMAS,,Puebla,PUEBLA,,MX,+52 800 833 4700,https://location.westernunion.com/mx/puebla/puebla/9392b4edbcd37feab0d02b4e0f8ccd15,Mo-Sa 09:00-17:00,Western Union,Q861042
86d5878737b89b2fc2e20aa0c5f31759,western_union,OXXO CONCEPCION PBF,,Puebla,PUEBLA,,MX,+52 81 8389 2121,https://location.westernunion.com/mx/puebla/puebla/86d5878737b89b2fc2e20aa0c5f31759,Mo-Su 08:00-22:00,Western Union,Q861042
d7312d319eeb4a0b6c7dd6e4b16090fc,western_union,OXXO CONCEPCION PBF,,Puebla,PUEBLA,,MX,+52 81 8389 2121,https://location.westernunion.com/mx/puebla/puebla/d7312d319eeb4a0b6c7dd6e4b16090fc,Mo-Su 08:00-22:00,Western Union,Q861042
7d915eaa099b31571f71359e0d19e1d3,western_union,OXXO CONCEPCION PBF,,Puebla,PUEBLA,,MX,+52 81 8389 2121,https://location.westernunion.com/mx/puebla/puebla/7d915eaa099b31571f71359e0d19e1d3,Mo-Su 08:00-22:00,Western Union,Q861042
76141ba9561215a69c5fd2c7218e3da2,western_union,BANORTE 00722 PUEBLA DIAGONAL,,Puebla,PUEBLA,,MX,+52 800 833 4700,https://location.westernunion.com/mx/puebla/puebla/76141ba9561215a69c5fd2c7218e3da2,Mo-Su 09:00-20:00,Western Union,Q861042
1ee580908677d989f4ff5cdaf6fb0aa2,western_union,BANORTE 01472 PUEBLA CENTRAL DE ABASTOS,,Puebla,PUEBLA,,MX,+52 800 833 4700,https://location.westernunion.com/mx/puebla/puebla/1ee580908677d989f4ff5cdaf6fb0aa2,Mo-Su 09:00-20:00,Western Union,Q861042
