Ref,Spider,Name,Address,City,State,Zipcode,Country,Phone,Website,Hours,Brand,WikiData
92f6fb9659f280dc535064d5f5e57132,western_union,EQUITY BANK NORFRAX FOREX BUREAU,,Kampala,KAMPALA,,UG,+256 772 228690,https://location.westernunion.com/ug/kampala/kampala/92f6fb9659f280dc535064d5f5e57132,Mo-Sa 08:30-18:00; Su 10:00-12:00,Western Union,Q861042
9ce5150397231d198f96e07ae2a555cd,western_union,DHAHAB BWEBAJA,,Kampala,KAMPALA,,UG,+256 752 540865,https://location.westernunion.com/ug/kampala/kampala/9ce5150397231d198f96e07ae2a555cd,Mo-Sa 08:00-21:00; Su 09:00-15:00,Western Union,Q861042
4ad0528f6d4f5462f1a7b91691a1abbf,western_union,GUILD FRANK KITENDE,,Kampala,KAMPALA,,UG,+256 41 4231168,https://location.westernunion.com/ug/kampala/kampala/4ad0528f6d4f5462f1a7b91691a1abbf,Mo-Su 07:00-00:30,Western Union,Q861042
a60fa5b7c13d93041508c80e0cfe469f,western_union,CENTENARY RURAL DEVELOPMENT BA,,Kampala,KAMPALA,,UG,+256 41 4506008,https://location.westernunion.com/ug/kampala/kampala/a60fa5b7c13d93041508c80e0cfe469f,Mo-Fr 08:30-19:30; Sa 08:30-17:00,Western Union,Q861042
5408e8bb71d5273c674d5443f762bf79,western_union,EQUITY BANK WESTSIDE BANK SHELL MUNYONYO,,Kampala,KAMPALA,,UG,+256 756 624050,https://location.westernunion.com/ug/kampala/kampala/5408e8bb71d5273c674d5443f762bf79,Mo-Su 08:00-21:00,Western Union,Q861042
be6511a1b49ce4ab7d8d200e6ec080a4,western_union,ECOBANK ENTEBBE  BRANCH,,Kampala,KAMPALA,,UG,(+256) 312354100-210,https://location.westernunion.com/ug/kampala/kampala/be6511a1b49ce4ab7d8d200e6ec080a4,Mo-Fr 08:30-22:00; Sa-Su 09:00-22:00,Western Union,Q861042
d96f179e98ac875cb750b9057a8333f2,western_union,EQUITY BANK NORFRAX KAJANSI,,Kampala,KAMPALA,,UG,+256 775 151853,https://location.westernunion.com/ug/kampala/kampala/d96f179e98ac875cb750b9057a8333f2,Mo-Sa 08:00-18:00; Su 09:00-16:00,Western Union,Q861042
1617eb4d55d73c2872cbbb1ee7e8bcb0,western_union,CENTENARY RURAL DEVELOPMENT BA,,Kampala,KAMPALA,,UG,+256 41 4506008,https://location.westernunion.com/ug/kampala/kampala/1617eb4d55d73c2872cbbb1ee7e8bcb0,Mo-Fr 08:00-19:00; Sa 08:00-15:00,Western Union,Q861042
9177095852a43b819714b9b78b506fa3,western_union,EQUITY BANK GULU BRANCH,,Kampala,KAMPALA,,UG,+256 31 2327000,https://location.westernunion.com/ug/kampala/kampala/9177095852a43b819714b9b78b506fa3,Mo-Fr 08:30-18:30; Sa 08:30-15:30,Western Union,Q861042
8f10fc420deaf61a5751352b8f2e4a9f,western_union,DFCU BUGOLOBI BRANCH,,Kampala,KAMPALA,,UG,(+256) 772-778171247,https://location.westernunion.com/ug/kampala/kampala/8f10fc420deaf61a5751352b8f2e4a9f,Mo-Fr 08:30-18:00; Sa 08:30-13:00,Western Union,Q861042
2c04c6ea5d34a45b2cc7223fceaecaac,western_union,POST BANK PAKWACH BRANCH,,Kampala,KAMPALA,,UG,+256 41 4340657,https://location.westernunion.com/ug/kampala/kampala/2c04c6ea5d34a45b2cc7223fceaecaac,Mo-Fr 08:00-18:00; Sa 08:00-14:00,Western Union,Q861042
cadf90cd60b9733c7fa17924fb5456c8,western_union,POST BANK ANAKA BRANCH,,Kampala,KAMPALA,,UG,+256 41 4340657,https://location.westernunion.com/ug/kampala/kampala/cadf90cd60b9733c7fa17924fb5456c8,Mo-We 08:00-18:00; Th 08:30-17:00; Fr 08:00-18:00; Sa 08:00-13:00,Western Union,Q861042
75a2980d1b715536476fd8a4eb54ce7e,western_union,DFCU ACACIA BRANCH,,Kampala,KAMPALA,,UG,(+256) 772-778171247,https://location.westernunion.com/ug/kampala/kampala/75a2980d1b715536476fd8a4eb54ce7e,Mo-Fr 08:30-18:00; Sa 08:30-13:00,Western Union,Q861042
746d4d459916a655c5bc45cfe4b19a46,western_union,DFCU NSAMBYA BRANCH,,Kampala,KAMPALA,,UG,(+256) 772-778171247,https://location.westernunion.com/ug/kampala/kampala/746d4d459916a655c5bc45cfe4b19a46,Mo-Fr 08:30-18:00; Sa 08:30-13:00,Western Union,Q861042
08cc1e807931f454f72a41b361c0cfa3,western_union,POST BANK UGANDA LT,,Kampala,KAMPALA,,UG,+256 41 7157774,https://location.westernunion.com/ug/kampala/kampala/08cc1e807931f454f72a41b361c0cfa3,Mo-Fr 08:00-17:00; Sa-Su 08:00-14:00,Western Union,Q861042
21543bb187fe5d367a839522762b59c6,western_union,CENTENARY RURAL DEV,,Kampala,KAMPALA,,UG,(+256) 392-751730-256,https://location.westernunion.com/ug/kampala/kampala/21543bb187fe5d367a839522762b59c6,Mo-Fr 08:30-18:00; Sa 08:30-15:30,Western Union,Q861042
97a3fec8259b1f29a40f3e048745ff52,western_union,POST BANK UGANDA LT,,Kampala,KAMPALA,,UG,+256 704 122853,https://location.westernunion.com/ug/kampala/kampala/97a3fec8259b1f29a40f3e048745ff52,Mo-Su 20:00-18:00,Western Union,Q861042
ccc084d3eeab06e84fa0351551e66f60,western_union,DFCU NTINDA 2 BRANCH,,Kampala,KAMPALA,,UG,(+256) 772-778171247,https://location.westernunion.com/ug/kampala/kampala/ccc084d3eeab06e84fa0351551e66f60,Mo-Fr 08:30-18:00; Sa 08:30-13:00,Western Union,Q861042
26bd21c9e60a6358aa3c7ecf7ec61222,western_union,EQUITY BANK HOIMA BRANCH,,Kampala,KAMPALA,,UG,+256 36 2274155,https://location.westernunion.com/ug/kampala/kampala/26bd21c9e60a6358aa3c7ecf7ec61222,Mo-Fr 08:30-18:30; Sa 08:30-15:30,Western Union,Q861042
e15c859a81ea3c5a2f1af311287c19c4,western_union,EQUITY BANK KASANGATI BRANCH,,Kampala,KAMPALA,,UG,+256 772 895381,https://location.westernunion.com/ug/kampala/kampala/e15c859a81ea3c5a2f1af311287c19c4,Mo-Fr 08:30-18:30; Sa 08:30-15:30,Western Union,Q861042
bb3102c21a0e5a45ead8165b4f15a9b1,western_union,EQUITY BANK MBARARA BRANCH,,Kampala,KAMPALA,,UG,+256 39 2260071,https://location.westernunion.com/ug/kampala/kampala/bb3102c21a0e5a45ead8165b4f15a9b1,Mo-Fr 08:30-17:30; Sa 08:30-14:30,Western Union,Q861042
8b300e5d737aa23b3fdfc354e1db177e,western_union,EQUITY BANK JINJA BRANCH,,Kampala,KAMPALA,,UG,+256 774 960233,https://location.westernunion.com/ug/kampala/kampala/8b300e5d737aa23b3fdfc354e1db177e,Mo-Fr 08:30-18:30; Sa 08:30-15:30,Western Union,Q861042
a742d38f20c2dc3deac25a144d4bbb2e,western_union,EQUITY BANK ADJUMANI BRANCH,,Kampala,KAMPALA,,UG,+256 772 895385,https://location.westernunion.com/ug/kampala/kampala/a742d38f20c2dc3deac25a144d4bbb2e,Mo-Fr 08:30-18:30; Sa 08:30-15:30,Western Union,Q861042
98a7399de5e20562828bfda9c972124f,western_union,EQUITY BANK MBALE BRANCH,,Kampala,KAMPALA,,UG,+256 783 225295,https://location.westernunion.com/ug/kampala/kampala/98a7399de5e20562828bfda9c972124f,Mo-Fr 08:30-18:30; Sa 08:30-15:30,Western Union,Q861042
892c44b06d4fbd698eb9e794f2d92257,western_union,EQUITY BANK LUWERO BRANCH,,Kampala,KAMPALA,,UG,+256 772 871194,https://location.westernunion.com/ug/kampala/kampala/892c44b06d4fbd698eb9e794f2d92257,Mo-Fr 08:30-18:30; Sa 08:30-15:30,Western Union,Q861042
e69b4dab02b122ddc4fdf6915e2527bb,western_union,EQUITY BANK BUSIA BRANCH,,Kampala,KAMPALA,,UG,+256 45 4443620,https://location.westernunion.com/ug/kampala/kampala/e69b4dab02b122ddc4fdf6915e2527bb,Mo-Fr 08:30-18:30; Sa 08:30-15:30,Western Union,Q861042
60e0fca7400b891df2dc1f5c311bd09f,western_union,EQUITY BANK KAYUNGA BRANCH,,Kampala,KAMPALA,,UG,+256 772 504064,https://location.westernunion.com/ug/kampala/kampala/60e0fca7400b891df2dc1f5c311bd09f,Mo-Fr 08:30-18:30; Sa 08:30-15:30,Western Union,Q861042
9f66ceda1710da9b18f23714e22c3be6,western_union,DFCU ABAYITA ABABIRI BRANCH,,Kampala,KAMPALA,,UG,(+256) 772-778171247,https://location.westernunion.com/ug/kampala/kampala/9f66ceda1710da9b18f23714e22c3be6,Mo-Fr 08:30-18:00; Sa 08:30-13:00,Western Union,Q861042
1efbe4922c23c026db3e8cedbfcfcfb5,western_union,EQUITY BANK LIRA BRANCH,,Kampala,KAMPALA,,UG,+256 773 901444,https://location.westernunion.com/ug/kampala/kampala/1efbe4922c23c026db3e8cedbfcfcfb5,Mo-Fr 08:30-18:30; Sa 08:30-15:30,Western Union,Q861042
e5b4a3348d0ec5be649aa07d21a891e0,western_union,EQUITY BANK KABALE BRANCH,,Kampala,KAMPALA,,UG,+256 782 737429,https://location.westernunion.com/ug/kampala/kampala/e5b4a3348d0ec5be649aa07d21a891e0,Mo-Fr 08:30-18:30; Sa 08:30-15:30,Western Union,Q861042
845fac72db2de93a916e30b0f61fc980,western_union,EQUITY BANK MITYANA BRANCH,,Kampala,KAMPALA,,UG,+256 464 442032,https://location.westernunion.com/ug/kampala/kampala/845fac72db2de93a916e30b0f61fc980,Mo-Fr 08:30-18:30; Sa 08:30-15:30,Western Union,Q861042
79402f6093c2122ce4ad894eff043d6e,western_union,EQUITY BANK MUBENDE BRANCH,,Kampala,KAMPALA,,UG,+256 785 694286,https://location.westernunion.com/ug/kampala/kampala/79402f6093c2122ce4ad894eff043d6e,Mo-Fr 08:30-18:30; Sa 08:30-15:30,Western Union,Q861042
b3318ac83886933976e4e9520b34c0a5,western_union,DFCU NATEETE BRANCH,,Kampala,KAMPALA,,UG,(+256) 772-778171247,https://location.westernunion.com/ug/kampala/kampala/b3318ac83886933976e4e9520b34c0a5,Mo-Fr 08:30-18:00; Sa 08:30-13:00,Western Union,Q861042
383710c6f79248e8af3f1c85d78723f3,western_union,POST BANK AMOLATAR PLOT22 APWONY KALI R,,Kampala,KAMPALA,,UG,+256 41 4340657,https://location.westernunion.com/ug/kampala/kampala/383710c6f79248e8af3f1c85d78723f3,Mo-We 08:00-18:00; Th 08:30-17:00; Fr 08:00-18:00; Sa 08:00-13:00,Western Union,Q861042
6b42254bb2ad7136a69e36d9d03a7d53,western_union,KYAKA11,,Kampala,KAMPALA,,UG,+256 785 587006,https://location.westernunion.com/ug/kampala/kampala/6b42254bb2ad7136a69e36d9d03a7d53,Mo-Sa 08:00-18:00; Su 08:00-17:00,Western Union,Q861042
4d69f0cc553229c826e5cc4cf6640233,western_union,EQUITY BANK KAWEMPE BRANCH,,Kampala,KAMPALA,,UG,+256 785 587185,https://location.westernunion.com/ug/kampala/kampala/4d69f0cc553229c826e5cc4cf6640233,Mo-Fr 08:30-18:30; Sa 08:30-15:30,Western Union,Q861042
2527aa22508ec7666b3ec16b9bb82a4b,western_union,TAL FOREX BUREAU LIMITED KYANJA,,Kampala,KAMPALA,,UG,+256 31 4387211,https://location.westernunion.com/ug/kampala/kampala/2527aa22508ec7666b3ec16b9bb82a4b,Mo-Su 08:00-19:30,Western Union,Q861042
0746869209d9a331a8d78a7d61df09dd,western_union,OPPORTUNITY UGANDA LTD KAWEMPE,,Kampala,KAMPALA,,UG,+256 41 4231168,https://location.westernunion.com/ug/kampala/kampala/0746869209d9a331a8d78a7d61df09dd,Mo-Fr 08:30-19:00; Sa 08:30-17:00,Western Union,Q861042
10fea43d27fad75b88e43e69a89701b2,western_union,ORIENT BANK LIMITED,,Kampala,KAMPALA,,UG,(+256) 417-719331-331,https://location.westernunion.com/ug/kampala/kampala/10fea43d27fad75b88e43e69a89701b2,Mo-Fr 08:00-18:00; Sa 09:00-14:00,Western Union,Q861042
f9e8e4fae31ae330cc836af6a48a5dfc,western_union,POST BANK UGANDA LT,,Kampala,KAMPALA,,UG,(+256) 414-258551-3,https://location.westernunion.com/ug/kampala/kampala/f9e8e4fae31ae330cc836af6a48a5dfc,Mo-Su 08:00-18:30,Western Union,Q861042
4d53066964855313c2d2e415b4a45a42,western_union,DTB SEETA,,Kampala,KAMPALA,,UG,+256 41 4231168,https://location.westernunion.com/ug/kampala/kampala/4d53066964855313c2d2e415b4a45a42,Mo-Fr 08:00-18:00; Sa 09:00-16:00; Su 10:00-15:00,Western Union,Q861042
2040d4bc41bc5a1d516eb7b050b03f32,western_union,POST BANK UGANDA LT,,Kampala,KAMPALA,,UG,+256 779 459387,https://location.westernunion.com/ug/kampala/kampala/2040d4bc41bc5a1d516eb7b050b03f32,Mo-Fr 08:00-17:00; Sa-Su 08:00-14:00,Western Union,Q861042
4fa4221db5de6261c5cc1a58499352a5,western_union,DTB BWAISE,,Bwaise,KAMPALA,,UG,+256 41 4231168,https://location.westernunion.com/ug/kampala/bwaise/4fa4221db5de6261c5cc1a58499352a5,Mo-Fr 08:30-18:00; Sa 09:00-16:00,Western Union,Q861042
2da613369829e44cfeab55f40170365c,western_union,GTBANK KYALIWAJALA BRANCH,,Kampala,KAMPALA,,UG,+256 200 710500,https://location.westernunion.com/ug/kampala/kampala/2da613369829e44cfeab55f40170365c,Mo-Fr 08:30-17:00; Sa 09:00-13:00,Western Union,Q861042
f75f8786e5ca2fa3be611a5513fcf58a,western_union,TROPICAL BANK  U  LTD KAWEMPE,,Kawempe,KAMPALA,,UG,+256 41 4231168,https://location.westernunion.com/ug/kampala/kawempe/f75f8786e5ca2fa3be611a5513fcf58a,Mo-Fr 08:30-17:30; Sa 09:00-13:30,Western Union,Q861042
d0e94382d5a6a40d49c81ef558a4f50f,western_union,CENTENARY RURAL DEVELOPMENT BA,,Kampala,KAMPALA,,UG,+256 41 4506008,https://location.westernunion.com/ug/kampala/kampala/d0e94382d5a6a40d49c81ef558a4f50f,Mo-Fr 08:00-19:00; Sa 08:00-15:00,Western Union,Q861042
83c7ccca8a0f1a51e398f9438b95423e,western_union,PRIDE NANSANA,,Kampala,KAMPALA,,UG,+256 39 3262365,https://location.westernunion.com/ug/kampala/kampala/83c7ccca8a0f1a51e398f9438b95423e,Mo-Fr 08:30-16:30; Sa 09:00-13:30,Western Union,Q861042
ff12d5df6ef659cd9cbe9ec9e52e0aab,western_union,NURM FOREX BUREAU NASANA BRANCH,,Kampala,KAMPALA,,UG,+256 772 304220,https://location.westernunion.com/ug/kampala/kampala/ff12d5df6ef659cd9cbe9ec9e52e0aab,Mo-Sa 08:00-21:00; Su 10:00-14:00,Western Union,Q861042
9a319ba0e8c0b5a60f7c8df88e0f086f,western_union,NASANA  BRANCH,,Kampala,KAMPALA,,UG,+256 31 2327000,https://location.westernunion.com/ug/kampala/kampala/9a319ba0e8c0b5a60f7c8df88e0f086f,Mo-Sa 08:30-18:00,Western Union,Q861042
2e0a113d81def9c4f6da1e2755f00833,western_union,OPPORTUNITY UGANDA LTD CITY CE,,Kampala,KAMPALA,,UG,+256 41 4231168,https://location.westernunion.com/ug/kampala/kampala/2e0a113d81def9c4f6da1e2755f00833,Mo-Fr 08:30-19:00; Sa 08:30-17:00,Western Union,Q861042
ee11bbec59453f533c9ba9c16c976208,western_union,GUARANTY TRUST BANK,,Kampala,KAMPALA,,UG,+256 200 710500,https://location.westernunion.com/ug/kampala/kampala/ee11bbec59453f533c9ba9c16c976208,Mo-Fr 08:30-17:00; Sa 09:00-13:00,Western Union,Q861042
1c40bc9ee10a7365a2391c303bedc816,western_union,DFCU BWAISE BRANCH,,Kampala,KAMPALA,,UG,(+256) 772-778171247,https://location.westernunion.com/ug/kampala/kampala/1c40bc9ee10a7365a2391c303bedc816,Mo-Fr 08:30-18:00; Sa 08:30-13:00,Western Union,Q861042
e00a78b7be240ba8c66bfaf6ac4a46d8,western_union,TAL FOREX BUREAU LIMITED,,Kampala,KAMPALA,,UG,(+256) 414-231168-168,https://location.westernunion.com/ug/kampala/kampala/e00a78b7be240ba8c66bfaf6ac4a46d8,Mo-Sa 07:30-21:30; Su 07:30-19:00,Western Union,Q861042
536564be43cc127fceb80cd124f02241,western_union,TAL FOREX BUREAU LIMITED KYALIWAJJ,,Kampala,KAMPALA,,UG,+256 41 4231168,https://location.westernunion.com/ug/kampala/kampala/536564be43cc127fceb80cd124f02241,Mo-Sa 07:30-21:30; Su 08:00-21:30,Western Union,Q861042
ee21f2ea1103ff98995661b7bfcbe09f,western_union,DFCU ENTEBBE ROAD BRANCH,,Kampala,KAMPALA,,UG,(+256) 772-778171247,https://location.westernunion.com/ug/kampala/kampala/ee21f2ea1103ff98995661b7bfcbe09f,Mo-Fr 08:30-18:00; Sa 08:30-13:00,Western Union,Q861042
43421ed968978c4109f08f4ca19a2540,western_union,ORIENT BANK NTINDA BRANCH,,Kampala,KAMPALA,,UG,+256 41 4289533,https://location.westernunion.com/ug/kampala/kampala/43421ed968978c4109f08f4ca19a2540,Mo-Fr 10:00-20:00; Sa 10:00-15:00; Su 12:00-15:00,Western Union,Q861042
65d6dd8cfda7037d3917b8f5cd209d32,western_union,BANK OF AFRICA KAWEMPE BRANCH,,Kampala,KAMPALA,,UG,+256 41 4302199,https://location.westernunion.com/ug/kampala/kampala/65d6dd8cfda7037d3917b8f5cd209d32,Mo-Fr 08:30-17:00; Sa 09:00-13:00,Western Union,Q861042
351f00bd177f96a1ed4255ab887f21ef,western_union,CITY FOREX BUREAU LTD MUKONO,,Kampala,KAMPALA,,UG,+256 41 4231168,https://location.westernunion.com/ug/kampala/kampala/351f00bd177f96a1ed4255ab887f21ef,Mo-Su 08:00-21:00,Western Union,Q861042
7574ca5a0192a6630a74293fd9dd884b,western_union,UNITED BANK FOR AFRICA,,Kampala,KAMPALA,,UG,+256 41 7715100,https://location.westernunion.com/ug/kampala/kampala/7574ca5a0192a6630a74293fd9dd884b,Mo-Fr 08:00-17:00; Sa 08:00-13:00,Western Union,Q861042
a92ad3ea955d2b09c4eea0a7f5e03517,western_union,BANK OF AFRICA WANDEGEYA BRANCH,,Kampala,KAMPALA,,UG,+256 41 4530057,https://location.westernunion.com/ug/kampala/kampala/a92ad3ea955d2b09c4eea0a7f5e03517,Mo-Fr 08:30-17:00; Sa 09:00-13:00,Western Union,Q861042
d72e8a69c4393c40ff989b57c693d495,western_union,KIBOGA,,Kampala,KAMPALA,,UG,+256 31 2327000,https://location.westernunion.com/ug/kampala/kampala/d72e8a69c4393c40ff989b57c693d495,Mo-Fr 08:30-18:00; Sa 08:30-15:00,Western Union,Q861042
f735bb76f1b1b2ec52048fec94b1d023,western_union,UGAFODE KYOTERA,,Kyotera,KAMPALA,,UG,+256 41 4231168,https://location.westernunion.com/ug/kampala/kyotera/f735bb76f1b1b2ec52048fec94b1d023,Mo-Fr 08:30-17:30; Sa 09:00-15:30,Western Union,Q861042
2cbc1b79c7e1b06a35096c5ee61bc34b,western_union,POST BANK UGANDA,,Wandegeya,KAMPALA,,UG,+256 41 4530874,https://location.westernunion.com/ug/kampala/wandegeya/2cbc1b79c7e1b06a35096c5ee61bc34b,Mo-Fr 08:30-17:00; Sa 08:00-15:00,Western Union,Q861042
36f52024737852acecb172a6e4bd1a4d,western_union,ECOBANK WANDEGEYA BRANCH,,Kampala,KAMPALA,,UG,(+256) 312354100-233,https://location.westernunion.com/ug/kampala/kampala/36f52024737852acecb172a6e4bd1a4d,Mo-Fr 08:30-17:00; Sa 09:00-14:00,Western Union,Q861042
744f99a155cbe5bb7a16772248750617,western_union,OPPORTUNITY UGANDA LTD NATEETE,,Kampala,KAMPALA,,UG,+256 41 4231168,https://location.westernunion.com/ug/kampala/kampala/744f99a155cbe5bb7a16772248750617,Mo-Fr 08:30-19:00; Sa 08:30-17:00,Western Union,Q861042
dd6d5c7560943b1af7f151bdb010c32b,western_union,ECOBANK NDEEBA BRANCH,,Kampala,KAMPALA,,UG,(+256) 312354100-287,https://location.westernunion.com/ug/kampala/kampala/dd6d5c7560943b1af7f151bdb010c32b,Mo-Fr 08:30-16:00; Sa 09:00-14:00,Western Union,Q861042
0a29699524e7c434a6068267b1edf03e,western_union,FINCA  U  LTD   ACCACIA,,Kampala,KAMPALA,,UG,+256 41 4231168,https://location.westernunion.com/ug/kampala/kampala/0a29699524e7c434a6068267b1edf03e,Mo-Fr 08:30-18:00; Sa 09:00-15:00,Western Union,Q861042
938ea29c6ba7de079b6ba8c80aff4ac9,western_union,EQUITY BANK WANDEGEYA BRANCH,,Kampala,KAMPALA,,UG,+256 785 604070,https://location.westernunion.com/ug/kampala/kampala/938ea29c6ba7de079b6ba8c80aff4ac9,Mo-Fr 08:30-18:30; Sa 08:30-15:30,Western Union,Q861042
422df2eab0b3fd6f3c9986e0a593c462,western_union,DIAMOND TRUST BANK,,Kampala,KAMPALA,,UG,(+256) 414-231168-157,https://location.westernunion.com/ug/kampala/kampala/422df2eab0b3fd6f3c9986e0a593c462,Mo-Sa 08:30-18:30,Western Union,Q861042
9386a7b23934a4b905aad5815f62ef80,western_union,MAKERERE SERVICE CENTRE,,Kampala,KAMPALA,,UG,+256 41 4506008,https://location.westernunion.com/ug/kampala/kampala/9386a7b23934a4b905aad5815f62ef80,Mo-Fr 08:30-19:00; Sa 08:30-16:00,Western Union,Q861042
cc5d86d40a96176357c9a021ee3c7f1c,western_union,ACACIA MALL BRANCH,,Kampala,KAMPALA,,UG,+256 31 2320400,https://location.westernunion.com/ug/kampala/kampala/cc5d86d40a96176357c9a021ee3c7f1c,Mo-Su 08:00-21:00,Western Union,Q861042
184e550b2bd9c49fa37566e79ebf3d1b,western_union,UNITED BANK FOR AFRICA MAKERERE BRANCH,,Kampala,KAMPALA,,UG,+256 200 506812,https://location.westernunion.com/ug/kampala/kampala/184e550b2bd9c49fa37566e79ebf3d1b,Mo-Fr 08:00-17:00; Sa 08:00-13:00,Western Union,Q861042
31407c6121588944d4fd987a27655b92,western_union,OPPORTUNITY UGANDA LTD KIRA,,Kampala,KAMPALA,,UG,+256 41 4231168,https://location.westernunion.com/ug/kampala/kampala/31407c6121588944d4fd987a27655b92,Mo-Fr 08:30-19:00; Sa 08:30-17:00,Western Union,Q861042
4380ac480014b7afcc0279619c665311,western_union,GUILD FRANK FOREX BUREAU HARUNA TOWERS,,Kampala,KAMPALA,,UG,+256 41 4231168,https://location.westernunion.com/ug/kampala/kampala/4380ac480014b7afcc0279619c665311,Mo-Su 01:00-24:00,Western Union,Q861042
265d3158b923e447ea9618369f1444f9,western_union,ECOBANK JINJA BRANCH,,Kampala,KAMPALA,,UG,(+256) 414-312354100-100,https://location.westernunion.com/ug/kampala/kampala/265d3158b923e447ea9618369f1444f9,Mo-Fr 08:30-17:00; Sa 09:00-14:00,Western Union,Q861042
35f93a4e1de5036eb24e4a65420f1640,western_union,UGAFODE SSEMBABULE,,Kampala,KAMPALA,,UG,+256 41 4231168,https://location.westernunion.com/ug/kampala/kampala/35f93a4e1de5036eb24e4a65420f1640,Mo-Fr 08:30-17:30; Sa 09:00-13:30,Western Union,Q861042
0a8a3337def2a5b19499f06eb5c4b629,western_union,UGAFODE RUSHERE,,Kampala,KAMPALA,,UG,+256 41 4231168,https://location.westernunion.com/ug/kampala/kampala/0a8a3337def2a5b19499f06eb5c4b629,Mo-Fr 08:30-17:30; Sa 09:00-13:30,Western Union,Q861042
b86203277a2135f75a1fa43c88656a4c,western_union,BANK OF AFRICA NATEETE BRANCH,,Kampala,KAMPALA,,UG,+256 41 4302706,https://location.westernunion.com/ug/kampala/kampala/b86203277a2135f75a1fa43c88656a4c,Mo-Fr 08:30-17:00; Sa 09:00-13:00,Western Union,Q861042
866fd8037a6c45feffb484782d2f3ec7,western_union,BANK OF AFRICA KOLOLO BRANCH,,Kampala,KAMPALA,,UG,+256 41 4255417,https://location.westernunion.com/ug/kampala/kampala/866fd8037a6c45feffb484782d2f3ec7,Mo-Fr 08:30-17:00; Sa 09:00-13:00,Western Union,Q861042
2d3285e44ace8d6940c0572795fe16c7,western_union,UGAFODE BOMBO ROAD,,Wandegeya,KAMPALA,,UG,(+256) 414-23116872,https://location.westernunion.com/ug/kampala/wandegeya/2d3285e44ace8d6940c0572795fe16c7,Mo-Fr 08:30-18:00; Sa 09:00-14:00,Western Union,Q861042
0dfe2e13757a347fa4f8bcd8c565fe40,western_union,BANK OF AFRICA OASIS BRANCH,,Kampala,KAMPALA,,UG,+256 41 7130113,https://location.westernunion.com/ug/kampala/kampala/0dfe2e13757a347fa4f8bcd8c565fe40,Mo-Fr 08:30-20:30; Sa 09:00-13:00,Western Union,Q861042
4ff9517b5ed4f3e63fa6466af16410b7,western_union,EQUITY BANK KYENGERA BRANCH,,Kampala,KAMPALA,,UG,+256 772 978382,https://location.westernunion.com/ug/kampala/kampala/4ff9517b5ed4f3e63fa6466af16410b7,Mo-Fr 08:30-18:30; Sa 08:30-15:30,Western Union,Q861042
68b927752b990b49680839771f9e0051,western_union,OPPORTUNITY MITYANA,,Kampala,KAMPALA,,UG,+256 41 4231168,https://location.westernunion.com/ug/kampala/kampala/68b927752b990b49680839771f9e0051,Mo-Fr 08:30-17:30; Sa 09:00-14:30,Western Union,Q861042
f5a483d6a3234a0ed5e44b52428a15c4,western_union,KIREKA MALUM FX,,Kampala,KAMPALA,,UG,+256 705 385748,https://location.westernunion.com/ug/kampala/kampala/f5a483d6a3234a0ed5e44b52428a15c4,Mo-Su 08:00-21:00,Western Union,Q861042
57cda5b87b1d3e9c5a2176f0e1afc528,western_union,KIREKA BWEYOGERERE,,Kampala,KAMPALA,,UG,+256 31 2327000,https://location.westernunion.com/ug/kampala/kampala/57cda5b87b1d3e9c5a2176f0e1afc528,Mo-Fr 08:30-18:00; Sa 08:30-16:00,Western Union,Q861042
5b222fa9f00d61184390e59007fe5d6d,western_union,EQUITY BANK NAKULABYE BRANCH,,Kampala,KAMPALA,,UG,+256 784 024207,https://location.westernunion.com/ug/kampala/kampala/5b222fa9f00d61184390e59007fe5d6d,Mo-Fr 08:30-18:30; Sa 08:30-15:30,Western Union,Q861042
578b5d2bc82feb9c46f4a0cf0f4ac13e,western_union,CAPITAL FOREX BUREAU LTD NANKU,,Kampala,KAMPALA,,UG,+256 41 4231168,https://location.westernunion.com/ug/kampala/kampala/578b5d2bc82feb9c46f4a0cf0f4ac13e,Mo-Su 00:01-24:00,Western Union,Q861042
28270bacff38c265f35117541e89266f,western_union,DFCU NTINDA BRANCH,,Kampala,KAMPALA,,UG,(+256) 772-778171247,https://location.westernunion.com/ug/kampala/kampala/28270bacff38c265f35117541e89266f,Mo-Fr 08:30-18:00; Sa 08:30-13:00,Western Union,Q861042
86f0e0f42602933d81273a245fe980c4,western_union,POST BANK UGANDA LTD. FOREST MALL,,Kampala,KAMPALA,,UG,+256 41 7157200,https://location.westernunion.com/ug/kampala/kampala/86f0e0f42602933d81273a245fe980c4,Mo-Sa 08:00-17:00,Western Union,Q861042
06cb64525e2d0e824d5003b2558ceac1,western_union,LOMS FOREX BUREAU KYAGWE ROAD,,Kampala,KAMPALA,,UG,+256 41 4231168,https://location.westernunion.com/ug/kampala/kampala/06cb64525e2d0e824d5003b2558ceac1,Mo-Su 08:00-20:30,Western Union,Q861042
7cd91d06ed0d71232b35ec4c2b4080eb,western_union,FOREST MALL,,Kampala,KAMPALA,,UG,+256 41 7715100,https://location.westernunion.com/ug/kampala/kampala/7cd91d06ed0d71232b35ec4c2b4080eb,Mo-Fr 08:00-17:00; Sa 08:00-13:00,Western Union,Q861042
81551a6ada89ca996be2e4290367cfa5,western_union,DTB EQUATORIAL,,Kampala,KAMPALA,,UG,+256 41 4231168,https://location.westernunion.com/ug/kampala/kampala/81551a6ada89ca996be2e4290367cfa5,Mo-Fr 08:30-20:00; Sa 09:00-21:00; Su 09:00-20:00,Western Union,Q861042
5e13a92b43764fdc1b7982603b637d88,western_union,EPIC FOREX BUREAU,,Kampala,KAMPALA,,UG,+256 41 4231168,https://location.westernunion.com/ug/kampala/kampala/5e13a92b43764fdc1b7982603b637d88,Mo-Su 08:00-21:00,Western Union,Q861042
8520e106f5de05f00a2a05714aced9a9,western_union,ADW250367,,Kampala,KAMPALA,,UG,(+256) 256-0782203295,https://location.westernunion.com/ug/kampala/kampala/8520e106f5de05f00a2a05714aced9a9,Mo-Su 08:30-18:00,Western Union,Q861042
b4137ac89f98ea8d5a6989de378c57e7,western_union,6TH STREET,,Kampala,KAMPALA,,UG,(+256) 772-778171247,https://location.westernunion.com/ug/kampala/kampala/b4137ac89f98ea8d5a6989de378c57e7,Mo-Su 08:30-18:00,Western Union,Q861042
8eb11a23626f9013322639d1ec75d72f,western_union,FINANCE TRUST BANK CENTRAL,,Kampala,KAMPALA,,UG,(+256) 791333003,https://location.westernunion.com/ug/kampala/kampala/8eb11a23626f9013322639d1ec75d72f,Mo-Fr 08:20-18:30; Sa 08:50-17:30,Western Union,Q861042
1e7010b91906c831bd41b0d3a175b8c1,western_union,DFCU KYADONDO ROAD BRANCH,,Kampala,KAMPALA,,UG,(+256) 772-778171247,https://location.westernunion.com/ug/kampala/kampala/1e7010b91906c831bd41b0d3a175b8c1,Mo-Fr 08:30-18:00; Sa 08:30-13:00,Western Union,Q861042
5d7fd7e01fcb29a3fe1989f39cd038f1,western_union,POST BANK UGANDA,,Kampala,KAMPALA,,UG,+256 41 4258619,https://location.westernunion.com/ug/kampala/kampala/5d7fd7e01fcb29a3fe1989f39cd038f1,Mo-Fr 08:30-17:00; Sa 08:00-18:00,Western Union,Q861042
3e7757a695fa0229dcb1ea70b64bed07,western_union,EQUITY BANK  1013   FORT PORTA,,Kampala,KAMPALA,,UG,+256 31 3114000,https://location.westernunion.com/ug/kampala/kampala/3e7757a695fa0229dcb1ea70b64bed07,Mo-Fr 08:30-17:50; Sa 08:30-15:00,Western Union,Q861042
995ba11d34eb5bff4da66287c4a5a6b5,western_union,AMA ARUA PARK MALL BRANCH,,Kampala,KAMPALA,,UG,+256 753 604489,https://location.westernunion.com/ug/kampala/kampala/995ba11d34eb5bff4da66287c4a5a6b5,Mo-Fr 08:00-18:00; Sa 08:00-15:00,Western Union,Q861042
38079764f277bf3b7550da1b9293db9f,western_union,FINCA  NAKULABYE,,Kampala,KAMPALA,,UG,+256 41 4231168,https://location.westernunion.com/ug/kampala/kampala/38079764f277bf3b7550da1b9293db9f,Mo-Fr 08:30-19:00; Sa 08:30-17:00,Western Union,Q861042
14cb1186fdcd70de88182b33afabadc2,western_union,DFCU OWINO BRANCH,,Kampala,KAMPALA,,UG,(+256) 772-778171247,https://location.westernunion.com/ug/kampala/kampala/14cb1186fdcd70de88182b33afabadc2,Mo-Fr 08:30-18:00; Sa 08:30-13:00,Western Union,Q861042
5196f2b035e4a979be20e4c668293c33,western_union,DFCU KYAMBOGO BANDA BRANCH,,Kampala,KAMPALA,,UG,(+256) 772-778171247,https://location.westernunion.com/ug/kampala/kampala/5196f2b035e4a979be20e4c668293c33,Mo-Fr 06:00-18:00; Sa 08:30-13:00,Western Union,Q861042
8002cb2574abd8f46ce51ad8760c4178,western_union,HIGH SAVINGS FOREX BUREAU LIMITED,,Kampala,KAMPALA,,UG,+256 41 4231168,https://location.westernunion.com/ug/kampala/kampala/8002cb2574abd8f46ce51ad8760c4178,Mo-Su 08:30-19:30,Western Union,Q861042
fd6455d7444a0da82644a56a4712c179,western_union,DFCU NAKIVUBO NABUGABO 2 BRANCH,,Kampala,KAMPALA,,UG,(+256) 772-778171247,https://location.westernunion.com/ug/kampala/kampala/fd6455d7444a0da82644a56a4712c179,Mo-Fr 08:30-18:00; Sa 08:30-13:00,Western Union,Q861042
486186e32da82762e5d991dad025485a,western_union,MIDWEST FOREX BUREAU KING FAHD,,Kampala,KAMPALA,,UG,+256 41 4231168,https://location.westernunion.com/ug/kampala/kampala/486186e32da82762e5d991dad025485a,Mo-Sa 07:00-19:30; Su 09:00-15:30,Western Union,Q861042
69d1e5e63aa1643c0a05c42279176f53,western_union,PRIDE NAKAWA,,Kampala,KAMPALA,,UG,+256 41 4231932,https://location.westernunion.com/ug/kampala/kampala/69d1e5e63aa1643c0a05c42279176f53,Mo-Fr 08:00-16:30; Sa 09:00-13:30,Western Union,Q861042
03a2df2c1910e9bb52fda9d7e46a4937,western_union,HOUSING FINANCE BANK GARDEN CI,,Kampala,KAMPALA,,UG,+256 41 4236671,https://location.westernunion.com/ug/kampala/kampala/03a2df2c1910e9bb52fda9d7e46a4937,Mo-Fr 09:30-21:00; Sa 09:30-18:00; Su 09:30-15:00,Western Union,Q861042
30fb8f3e59e7394668cf1d87abbeaa58,western_union,GTBANK BUGANDA ROAD BRANCH,,Kampala,KAMPALA,,UG,+256 200 710500,https://location.westernunion.com/ug/kampala/kampala/30fb8f3e59e7394668cf1d87abbeaa58,Mo-Fr 08:30-17:00; Sa 09:00-13:00,Western Union,Q861042
b946b5e298fde8ee9a3cbfe8b0770b50,western_union,FINANCE TRUST BANK KIKUUBO,,Kampala,KAMPALA,,UG,(+256) 791333105,https://location.westernunion.com/ug/kampala/kampala/b946b5e298fde8ee9a3cbfe8b0770b50,Mo-Fr 08:20-21:00; Sa 08:50-19:30,Western Union,Q861042
fcd6bee9c997fbc6719deb21c8830d33,western_union,UWEZO FINANCIAL SERVICES LIMITED,,Kampala,KAMPALA,,UG,(+256) 41-414231168,https://location.westernunion.com/ug/kampala/kampala/fcd6bee9c997fbc6719deb21c8830d33,Mo-Sa 08:30-18:30,Western Union,Q861042
1ab248aade46ff98b63de82f483afc23,western_union,DTB GEORGE STREET,,Kampala,KAMPALA,,UG,+256 41 4231168,https://location.westernunion.com/ug/kampala/kampala/1ab248aade46ff98b63de82f483afc23,Mo-Fr 08:30-20:00; Sa 08:30-17:00; Su 10:00-17:00,Western Union,Q861042
4e2f5a654ccec5859f512c83e6516578,western_union,GUARANTY TRUST BANK,,Kampala,KAMPALA,,UG,+256 200 710500,https://location.westernunion.com/ug/kampala/kampala/4e2f5a654ccec5859f512c83e6516578,Mo-Fr 08:30-17:00; Sa 09:00-13:00,Western Union,Q861042
e56d684ee91b738644e0c958add243a9,western_union,POST BANK UGANDA UNIMONI  NABUGABO ROAD,,Kampala,KAMPALA,,UG,+256 41 4340657,https://location.westernunion.com/ug/kampala/kampala/e56d684ee91b738644e0c958add243a9,Mo-Su 08:30-21:30,Western Union,Q861042
5cdb5dc1356d2f6b99f13ce1e2b67a36,western_union,POST BANK UNIMONI  LUGOGO SHOPRITE MALL,,Kampala,KAMPALA,,UG,+256 41 4340657,https://location.westernunion.com/ug/kampala/kampala/5cdb5dc1356d2f6b99f13ce1e2b67a36,Mo 08:30-20:00; Tu-Fr 08:30-21:00; Sa 09:00-19:00; Su 09:00-15:00,Western Union,Q861042
5247b642cdc4e421781f8eabda73fc78,western_union,EQUITY BANK NEW TAXI PARK BRAN,,Kampala,KAMPALA,,UG,+256 41 4237747,https://location.westernunion.com/ug/kampala/kampala/5247b642cdc4e421781f8eabda73fc78,Mo-Fr 08:30-17:30; Sa 08:30-14:30,Western Union,Q861042
6bdf86cced1ae89661b4e16379048654,western_union,DIAMOND TRUST BANK,,Kampala,KAMPALA,,UG,(+256) 414-231168-157,https://location.westernunion.com/ug/kampala/kampala/6bdf86cced1ae89661b4e16379048654,Mo-Fr 08:30-20:00; Sa-Su 09:00-20:00,Western Union,Q861042
94d95b085a03ba053fa4e1af6dcd3495,western_union,DOT COM KAMPALA,,Kampala,KAMPALA,,UG,+256 41 4231168,https://location.westernunion.com/ug/kampala/kampala/94d95b085a03ba053fa4e1af6dcd3495,Mo-Fr 08:00-18:30; Sa-Su 08:30-17:30,Western Union,Q861042
06a3b7a8a93853833148000a73a6a304,western_union,OLOMPIC MONEY TRANSFER,,Kampala,KAMPALA,,UG,+256 41 4231168,https://location.westernunion.com/ug/kampala/kampala/06a3b7a8a93853833148000a73a6a304,Mo-Su 08:00-19:00,Western Union,Q861042
7ef2a3ce93cfb0c70b70faf27c0e033e,western_union,KIKUUBO BRANCH,,Kampala,KAMPALA,,UG,+256 31 2320400,https://location.westernunion.com/ug/kampala/kampala/7ef2a3ce93cfb0c70b70faf27c0e033e,Mo-Sa 08:00-20:00; Su 08:00-14:00,Western Union,Q861042
794f67e627563ee8b7e161fec2efba51,western_union,EQUITY BANK FOLKESTON FOREX BUREAU,,Kampala,KAMPALA,,UG,+256 706 810315,https://location.westernunion.com/ug/kampala/kampala/794f67e627563ee8b7e161fec2efba51,Mo-Fr 08:30-18:30; Sa 08:30-18:00; Su 09:00-18:00,Western Union,Q861042
c9d3e24db8a1d2199f967ae3e0330e2f,western_union,FINANCE TRUST BANK NAKIVUBO,,Kampala,KAMPALA,,UG,(+256) 791333046,https://location.westernunion.com/ug/kampala/kampala/c9d3e24db8a1d2199f967ae3e0330e2f,Mo-Fr 08:20-18:30; Sa 08:50-17:30,Western Union,Q861042
023ab945fa1b92fb468d5289d85c9650,western_union,POST BANK KAMWE ANNEX BRANCH,,Kampala,KAMPALA,,UG,+256 41 4340657,https://location.westernunion.com/ug/kampala/kampala/023ab945fa1b92fb468d5289d85c9650,Mo-We 08:00-18:00; Th 08:30-17:00; Fr 08:00-18:00; Sa 08:00-13:00,Western Union,Q861042
d2778164f9952da8c57830f621162477,western_union,BANK OF AFRICA EQUATORIA BRANCH,,Kampala,KAMPALA,,UG,+256 41 4255842,https://location.westernunion.com/ug/kampala/kampala/d2778164f9952da8c57830f621162477,Mo-Fr 08:30-17:00; Sa 09:00-13:00,Western Union,Q861042
b6011f20f3013bf7c01f5846fc5105ca,western_union,POST BANK UGANDA KAMWE,,Kampala,KAMPALA,,UG,+256 41 4252918,https://location.westernunion.com/ug/kampala/kampala/b6011f20f3013bf7c01f5846fc5105ca,Mo-Su 07:00-20:00,Western Union,Q861042
71cfc48f45b6f4bac7476ba8348b9a06,western_union,EXIM BANK KYAGGWE BRANCH,,Kampala,KAMPALA,,UG,+256 31 2400500,https://location.westernunion.com/ug/kampala/kampala/71cfc48f45b6f4bac7476ba8348b9a06,Mo-Fr 08:00-19:00; Sa-Su 08:00-15:00,Western Union,Q861042
2b5affaa2a0c3d16b07df94e186e8e7a,western_union,EQUITY BANK ARUA BRANCH,,Kampala,KAMPALA,,UG,+256 31 3114000,https://location.westernunion.com/ug/kampala/kampala/2b5affaa2a0c3d16b07df94e186e8e7a,Mo-Fr 08:30-18:30; Sa 08:30-15:30,Western Union,Q861042
0f5fe3674240ea5a2bd58cbd60d106ea,western_union,EQUITY BANK MUKONO BRANCH,,Kampala,KAMPALA,,UG,+256 31 3114000,https://location.westernunion.com/ug/kampala/kampala/0f5fe3674240ea5a2bd58cbd60d106ea,Mo-Fr 08:30-18:30; Sa 08:30-15:30,Western Union,Q861042
83e323238e065c09123319bb0489c9be,western_union,FINANCE TRUST BANK LIMITED,,Kampala,KAMPALA,,UG,+256 740 002770,https://location.westernunion.com/ug/kampala/kampala/83e323238e065c09123319bb0489c9be,Mo-Fr 08:20-19:00; Sa 08:50-18:30,Western Union,Q861042
257e11bb132344e22dd90ee712177f8a,western_union,FINANCE TRUST BANK CORPORATE BRANCH,,Kampala,KAMPALA,,UG,+256 740 002770,https://location.westernunion.com/ug/kampala/kampala/257e11bb132344e22dd90ee712177f8a,Mo-Fr 08:20-18:30; Sa 08:50-17:30,Western Union,Q861042
d8c5d4a5699e94262c0640d3101cde94,western_union,PRIDE WANDEGEYA,,Kampala,KAMPALA,,UG,+256 41 4231932,https://location.westernunion.com/ug/kampala/kampala/d8c5d4a5699e94262c0640d3101cde94,Mo-Fr 08:00-16:30; Sa 09:00-13:30,Western Union,Q861042
0cd5e955c8896441dc111d1ad2d4148c,western_union,I AND M BANK KOLOLO BRANCH,,Kampala,KAMPALA,,UG,+256 41 7719229,https://location.westernunion.com/ug/kampala/kampala/0cd5e955c8896441dc111d1ad2d4148c,Mo-Fr 08:00-17:30; Sa-Su 08:00-15:00,Western Union,Q861042
b2d38bac57aa254277c11a673300b7e0,western_union,NAKAWA BRANCH,,Kampala,KAMPALA,,UG,+256 31 2320400,https://location.westernunion.com/ug/kampala/kampala/b2d38bac57aa254277c11a673300b7e0,Mo-Sa 08:00-19:00,Western Union,Q861042
8b483f905aba0769546bcb93369c9e5b,western_union,GUILD FRANK FOREX BUREAU NTINDA COMPLEX,,Kampala,KAMPALA,,UG,+256 41 4231168,https://location.westernunion.com/ug/kampala/kampala/8b483f905aba0769546bcb93369c9e5b,Mo-Su 08:00-21:30,Western Union,Q861042
9507cb41137e2d6fd9f6532ec7c33e49,western_union,TROPICAL BANK  U  LTD NTINDA,,Ntinda,KAMPALA,,UG,+256 41 4231168,https://location.westernunion.com/ug/kampala/ntinda/9507cb41137e2d6fd9f6532ec7c33e49,Mo-Fr 08:30-17:30; Sa 09:00-13:30,Western Union,Q861042
0441ac2eb36bda3cdef2b908851ecc05,western_union,TAL FOREX BUREAU LIMITED,,Ntinda,KAMPALA,,UG,+256 41 4231168,https://location.westernunion.com/ug/kampala/ntinda/0441ac2eb36bda3cdef2b908851ecc05,Mo-Su 08:00-19:30,Western Union,Q861042
d846273e50d7be72ca0359306429ec90,western_union,FINCA UGANDA BEN KIWANUKA,,Kampala,KAMPALA,,UG,+256 41 4231168,https://location.westernunion.com/ug/kampala/kampala/d846273e50d7be72ca0359306429ec90,Mo-Fr 08:30-18:00; Sa 09:00-16:00,Western Union,Q861042
dc687c5c2c2141edab37e6458169b371,western_union,DFCU LUGOGO BRANCH,,Kampala,KAMPALA,,UG,(+256) 772-778171247,https://location.westernunion.com/ug/kampala/kampala/dc687c5c2c2141edab37e6458169b371,Mo-Fr 08:30-18:00; Sa 08:30-13:00,Western Union,Q861042
fc2c67e6e9365dccc4ac1b55ed3c4198,western_union,HOUSING FINANCE BANK NAKASERO,,Kampala,KAMPALA,,UG,+256 41 4236673,https://location.westernunion.com/ug/kampala/kampala/fc2c67e6e9365dccc4ac1b55ed3c4198,Mo-Fr 08:00-19:00; Sa 09:00-19:00,Western Union,Q861042
3ef92fe358028f453f2143e7c7d9be29,western_union,TROPICAL BANK  U  LTD OASIS,,Oasis,KAMPALA,,UG,+256 41 4231168,https://location.westernunion.com/ug/kampala/oasis/3ef92fe358028f453f2143e7c7d9be29,Mo-Sa 08:30-21:30,Western Union,Q861042
713e035e0977a66c3b7345680f1549d4,western_union,DTB ISBAT,,Lugogo,KAMPALA,,UG,+256 41 4231168,https://location.westernunion.com/ug/kampala/lugogo/713e035e0977a66c3b7345680f1549d4,Mo-Fr 08:30-17:30; Sa 08:30-16:00,Western Union,Q861042
c6e10c6e696a3b35d79bd92d97607a86,western_union,DTB NAMANVE,,Kampala,KAMPALA,,UG,+256 41 4231168,https://location.westernunion.com/ug/kampala/kampala/c6e10c6e696a3b35d79bd92d97607a86,Mo-Fr 08:00-18:00; Sa 08:00-16:00; Su 10:00-15:00,Western Union,Q861042
8242d7834c6e5fbfc485a31510fe82a2,western_union,ZAIN FOREX BUREAU NTINDA,,Kampala,KAMPALA,,UG,+256 41 4231168,https://location.westernunion.com/ug/kampala/kampala/8242d7834c6e5fbfc485a31510fe82a2,Mo-Fr 08:30-19:45; Sa 09:00-19:00; Su 10:00-17:00,Western Union,Q861042
92a75665205fb4f90d8bda13c682d09b,western_union,VIRAH FOREX BUREAU,,Kampala,KAMPALA,,UG,+256 41 4231168,https://location.westernunion.com/ug/kampala/kampala/92a75665205fb4f90d8bda13c682d09b,Mo-Su 07:00-20:30,Western Union,Q861042
54c36ca7c0813c534c2875e708f0872a,western_union,NTINDA,,Kampala,KAMPALA,,UG,+256 31 3114000,https://location.westernunion.com/ug/kampala/kampala/54c36ca7c0813c534c2875e708f0872a,Mo-Fr 08:30-18:00; Sa 08:30-16:00,Western Union,Q861042
f3a671a17a7f265777d216981cc50745,western_union,TONISH FOREX BUREAU LTD,,Kampala,KAMPALA,,UG,+256 701 822211,https://location.westernunion.com/ug/kampala/kampala/f3a671a17a7f265777d216981cc50745,Mo-Sa 08:00-21:00; Su 09:00-21:00,Western Union,Q861042
b2ec0704ced3e57de0e791c19699eb61,western_union,BANK OF AFRICA NTINDA BRANCH,,Kampala,KAMPALA,,UG,+256 41 4288779,https://location.westernunion.com/ug/kampala/kampala/b2ec0704ced3e57de0e791c19699eb61,Mo-Fr 08:30-17:00; Sa 09:00-13:00,Western Union,Q861042
af1e140f0c478b21762d04d32c7af453,western_union,JETSET FOREX BUREAU   NTINDA,,Kampala,KAMPALA,,UG,+256 41 4231168,https://location.westernunion.com/ug/kampala/kampala/af1e140f0c478b21762d04d32c7af453,,Western Union,Q861042
dacb12247246314d68acb3c7418c3722,western_union,ABC CAPITAL BANK LTD  COLLIN H,,Kampala,KAMPALA,,UG,+256 41 4231168,https://location.westernunion.com/ug/kampala/kampala/dacb12247246314d68acb3c7418c3722,Mo-Fr 08:30-17:30; Sa 09:00-14:00,Western Union,Q861042
70defa1ad6c9bb0e684798dc3ed379e1,western_union,CAPITAL FOREX BUREAU   KASANGA,,Kansanga,KAMPALA,,UG,+256 41 4231168,https://location.westernunion.com/ug/kampala/kansanga/70defa1ad6c9bb0e684798dc3ed379e1,Mo-Su 06:00-24:00,Western Union,Q861042
aa7ab1a7e2432e6d9c7009a1674c7de3,western_union,PRIDE MICROFINANCE,,Bukoto,KAMPALA,,UG,+256 39 3262365,https://location.westernunion.com/ug/kampala/bukoto/aa7ab1a7e2432e6d9c7009a1674c7de3,Mo-Fr 08:00-16:30; Sa 09:00-13:30,Western Union,Q861042
5036abb90af52d75588007fb7434fd2c,western_union,YAKO BANK UGANDA LIMITED,,Kampala,KAMPALA,,UG,+256 41 4231168,https://location.westernunion.com/ug/kampala/kampala/5036abb90af52d75588007fb7434fd2c,Mo-Fr 08:30-18:30; Sa 09:30-14:00,Western Union,Q861042
026492efbc654ba75e81d8a7f683331b,western_union,DOLLAR HOUSE SHOP FOUR,,Kampala,KAMPALA,,UG,+256 772 122454,https://location.westernunion.com/ug/kampala/kampala/026492efbc654ba75e81d8a7f683331b,Mo-Fr 08:00-18:00; Sa 08:00-15:00,Western Union,Q861042
f2724b00d4c991b2e0f880e39786a883,western_union,DOLLAR HOUSE SHOP TWO,,Kampala,KAMPALA,,UG,+256 772 122454,https://location.westernunion.com/ug/kampala/kampala/f2724b00d4c991b2e0f880e39786a883,Mo-Fr 08:00-18:00; Sa 08:00-15:00,Western Union,Q861042
4c0e7cc211fac5e58f199ef9ac4e92ce,western_union,ECOBANK KIKUUBO BRANCH,,Kampala,KAMPALA,,UG,(+256) 312354100-318,https://location.westernunion.com/ug/kampala/kampala/4c0e7cc211fac5e58f199ef9ac4e92ce,Mo-Fr 09:00-20:00; Sa 09:00-18:00,Western Union,Q861042
4db1b06398eeaaf0aab64fee74294e9f,western_union,MIDWEST FOREX BUREAU,,Kampala,KAMPALA,,UG,+256 41 4231168,https://location.westernunion.com/ug/kampala/kampala/4db1b06398eeaaf0aab64fee74294e9f,Mo-Sa 07:30-20:00; Su 09:00-17:00,Western Union,Q861042
60c813598f5c888c17e1bff86ddd4809,western_union,LOMS FOREX BUREAU LIMITED,,Kampala,KAMPALA,,UG,+256 41 4231168,https://location.westernunion.com/ug/kampala/kampala/60c813598f5c888c17e1bff86ddd4809,Mo-Fr 08:00-18:00; Sa 08:00-16:30,Western Union,Q861042
9dacf424399c42649bbaeb137a499cc1,western_union,EQUITYBANK KAMPALA BUGANDA ROA,,Kampala,KAMPALA,,UG,+256 31 3114000,https://location.westernunion.com/ug/kampala/kampala/9dacf424399c42649bbaeb137a499cc1,Mo-Fr 08:30-18:30; Sa 08:30-15:30,Western Union,Q861042
c8958d6178b8b161cac9dadc8af49bba,western_union,HOUSING FINANCE BANK KIKUUBO B,,Kampala,KAMPALA,,UG,+256 41 7707725,https://location.westernunion.com/ug/kampala/kampala/c8958d6178b8b161cac9dadc8af49bba,Mo-Fr 08:00-20:00; Sa 08:00-18:00; Su 09:00-15:00,Western Union,Q861042
26b4a43d12b58252985648fd94bf232f,western_union,HOUSING FINANCE BANK NTINDA BR,,Kampala,KAMPALA,,UG,+256 41 4289118,https://location.westernunion.com/ug/kampala/kampala/26b4a43d12b58252985648fd94bf232f,Mo-Fr 08:00-20:00; Sa 09:00-19:00,Western Union,Q861042
92be887190a3e04e12e450e3e4891b76,western_union,HOUSING FINANCE BANK NDEEBA BR,,Kampala,KAMPALA,,UG,+256 41 4271156,https://location.westernunion.com/ug/kampala/kampala/92be887190a3e04e12e450e3e4891b76,Mo-Fr 08:00-18:00; Sa 08:30-16:00,Western Union,Q861042
091c2e3f68d59fabb88db55814dba74a,western_union,FINANCE TRUST BANK CSC,,Kampala,KAMPALA,,UG,+256 41 4341275,https://location.westernunion.com/ug/kampala/kampala/091c2e3f68d59fabb88db55814dba74a,Mo-Fr 08:30-18:30; Sa 08:30-17:30,Western Union,Q861042
0612e63ff04fe88469e9ca27283350b6,western_union,BEST FOREX BUREAU LTD   MUKWAN,,Kampala,KAMPALA,,UG,+256 41 4231168,https://location.westernunion.com/ug/kampala/kampala/0612e63ff04fe88469e9ca27283350b6,Mo-Fr 08:30-18:00; Sa 08:30-14:30,Western Union,Q861042
acb36a6bec0852502b8623b74a4b4051,western_union,QUEEN FOREX BUREAU LIMITED,,Kampala,KAMPALA,,UG,+256 41 4231168,https://location.westernunion.com/ug/kampala/kampala/acb36a6bec0852502b8623b74a4b4051,Mo-Su 08:00-18:30,Western Union,Q861042
b843f07bfb80cba0968821b268816116,western_union,DOTCOM FOREX BUREAU  SHOP 1 &2,,Kampala,KAMPALA,,UG,+256 41 4231168,https://location.westernunion.com/ug/kampala/kampala/b843f07bfb80cba0968821b268816116,Mo-Sa 08:00-18:30; Su 08:00-16:30,Western Union,Q861042
2ef39c175362cab6ae7e749e23c8ee4c,western_union,EQUITY BANK KING FAHD PLAZA KAMPALA,,Kampala,KAMPALA,,UG,+256 781 129777,https://location.westernunion.com/ug/kampala/kampala/2ef39c175362cab6ae7e749e23c8ee4c,Mo-Sa 08:30-18:00; Su 09:00-12:00,Western Union,Q861042
ab34702b328916bf0cbbb2d5b5d9385b,western_union,ARUA PARK MALL,,Kampala,KAMPALA,,UG,+256 703 622146,https://location.westernunion.com/ug/kampala/kampala/ab34702b328916bf0cbbb2d5b5d9385b,Mo-Sa 08:00-19:00; Su 10:00-15:00,Western Union,Q861042
cbef32fa54041e6bdeea718f6e0aa118,western_union,BUDDU FOREX BUREAU LTD,,Kampala,KAMPALA,,UG,+256 41 4231168,https://location.westernunion.com/ug/kampala/kampala/cbef32fa54041e6bdeea718f6e0aa118,Mo-Fr 08:00-18:00; Sa 09:00-14:00,Western Union,Q861042
19fe6a43f9fc2f87e139b70dc32ef646,western_union,GTBANK INDUSTRIAL AREA BRANCH,,Kampala,KAMPALA,,UG,+256 200 710500,https://location.westernunion.com/ug/kampala/kampala/19fe6a43f9fc2f87e139b70dc32ef646,Mo-Fr 08:30-17:00; Sa 09:00-13:00,Western Union,Q861042
8b5a99a49861f9b624cb8d8cfd0b97a2,western_union,METROPOLITAN FOREX BUREAU OASIS MALL,,Kampala,KAMPALA,,UG,+256 41 4231168,https://location.westernunion.com/ug/kampala/kampala/8b5a99a49861f9b624cb8d8cfd0b97a2,Mo-Fr 09:00-20:00; Sa-Su 10:00-18:00,Western Union,Q861042
50593955d33bba1f926d9cee8dfb6882,western_union,HOUSING FINANCE BANK KOLOLO BR,,Kampala,KAMPALA,,UG,+256 41 7707611,https://location.westernunion.com/ug/kampala/kampala/50593955d33bba1f926d9cee8dfb6882,Mo-Fr 08:00-19:00; Sa 09:00-19:00,Western Union,Q861042
c399ea0f7472c3bc825cfd9d42d536b6,western_union,ZION FOREX BUREAU LIMITED,,Kampala,KAMPALA,,UG,+256 41 4231168,https://location.westernunion.com/ug/kampala/kampala/c399ea0f7472c3bc825cfd9d42d536b6,Mo-Sa 08:00-18:30,Western Union,Q861042
c171a9a32f9a91c5c77883e5b7a2fb02,western_union,ECOBANK OASIS MALL BRANCH,,Kampala,KAMPALA,,UG,(+256) 312354100-233,https://location.westernunion.com/ug/kampala/kampala/c171a9a32f9a91c5c77883e5b7a2fb02,Mo-Fr 08:30-20:00; Sa 09:30-16:00,Western Union,Q861042
7dcb40333d714787d842411bb42c07d5,western_union,DFCU KIKUUBO 1 BRANCH,,Kampala,KAMPALA,,UG,(+256) 772-778171247,https://location.westernunion.com/ug/kampala/kampala/7dcb40333d714787d842411bb42c07d5,Mo-Fr 08:30-18:00; Sa 08:30-13:00,Western Union,Q861042
40e9391f63f89ee68ce5fb2763c22ea2,western_union,LA CEDRI FOREX BUREAU LTD,,Kampala,KAMPALA,,UG,+256 41 4231168,https://location.westernunion.com/ug/kampala/kampala/40e9391f63f89ee68ce5fb2763c22ea2,Mo-Sa 08:00-21:00; Su 08:00-20:00,Western Union,Q861042
88af316bf5a01fc852fae71cff679157,western_union,DIAMOND TRUST BANK UGANDA,,Kampala,KAMPALA,,UG,+256 41 4231168,https://location.westernunion.com/ug/kampala/kampala/88af316bf5a01fc852fae71cff679157,Mo-Sa 08:00-22:00; Su 10:00-15:00,Western Union,Q861042
405b1814289d24077fe45d8f9c90b058,western_union,EQUITY BANK SKY FOREX BUREAU LTD,,Kampala,KAMPALA,,UG,+256 705 725012,https://location.westernunion.com/ug/kampala/kampala/405b1814289d24077fe45d8f9c90b058,Mo-Sa 08:00-18:00; Su 09:00-18:00,Western Union,Q861042
f932b36667b3d3bc1e79c8c45f815314,western_union,WALL STREETWAY FOREX BUREAU LIMITED,,Kampala,KAMPALA,,UG,+256 750 777758,https://location.westernunion.com/ug/kampala/kampala/f932b36667b3d3bc1e79c8c45f815314,Mo-Sa 08:00-18:00; Su 09:00-12:00,Western Union,Q861042
24a89efdfe179c18e598819301c320fb,western_union,ELBA FOREX BUREAU SHOP NO 15 1,,Kampala,KAMPALA,,UG,+256 41 4231168,https://location.westernunion.com/ug/kampala/kampala/24a89efdfe179c18e598819301c320fb,Mo-Sa 08:00-19:30; Su 08:30-16:00,Western Union,Q861042
3eee0dfada4b3e80299b63e046058d08,western_union,UBA WILLIAM STREET BRANCH,,Kampala,KAMPALA,,UG,+256 41 7715206,https://location.westernunion.com/ug/kampala/kampala/3eee0dfada4b3e80299b63e046058d08,Mo-Fr 08:30-17:30; Sa 09:00-14:30,Western Union,Q861042
596287566bc977ce70ccebdda67f0386,western_union,BANK OF AFRICA NAKIVUBO BRANCH,,Kampala,KAMPALA,,UG,+256 41 4252050,https://location.westernunion.com/ug/kampala/kampala/596287566bc977ce70ccebdda67f0386,Mo-Fr 08:30-20:00; Sa 09:00-13:00,Western Union,Q861042
b5360f9a56e507a5ac7b66c366462ab6,western_union,TAL FOREX BUREAU LIMITED KANSANGA,,Kampala,KAMPALA,,UG,+256 31 4387211,https://location.westernunion.com/ug/kampala/kampala/b5360f9a56e507a5ac7b66c366462ab6,Mo-Su 08:00-19:30,Western Union,Q861042
87a116ad54e5d61d725fccf605d448b4,western_union,TROPICAL BANK U LIMITED,,Kampala,KAMPALA,,UG,+256 41 4231168,https://location.westernunion.com/ug/kampala/kampala/87a116ad54e5d61d725fccf605d448b4,Mo-Su 08:30-17:30,Western Union,Q861042
782546cae2a567deea7cc31cdd189422,western_union,ECOBANK FOREST MALL BRANCH,,Kampala,KAMPALA,,UG,(+256) 417-312354100,https://location.westernunion.com/ug/kampala/kampala/782546cae2a567deea7cc31cdd189422,Mo-Fr 09:00-19:00; Sa 09:00-17:00; Su 10:00-16:00,Western Union,Q861042
925ccec7cdb0b5e42179af5a1c409ef0,western_union,SUPERIOR EXCHANGE FOREX BUREAU,,Kampala,KAMPALA,,UG,+256 41 4231168,https://location.westernunion.com/ug/kampala/kampala/925ccec7cdb0b5e42179af5a1c409ef0,Mo-Sa 08:30-19:00,Western Union,Q861042
fae31e4df0947e8b42781d41900d4cd6,western_union,ABEDIS FOREX BUREAU LTD,,Kampala,KAMPALA,,UG,+256 750 544567,https://location.westernunion.com/ug/kampala/kampala/fae31e4df0947e8b42781d41900d4cd6,Mo-Fr 08:00-19:00; Sa 08:00-18:00; Su 09:00-16:00,Western Union,Q861042
8d38fbc44c3cf053e811c58e2b0b3928,western_union,ECOBANK KAFU BRANCH,,Kampala,KAMPALA,,UG,(+256) 417-312354100-324,https://location.westernunion.com/ug/kampala/kampala/8d38fbc44c3cf053e811c58e2b0b3928,Mo-Fr 09:00-19:00; Sa 09:00-17:00,Western Union,Q861042
17a4aa092e5c7c68d8566c6386191272,western_union,HAREKRISHNA FOREX BUREAU LIMITED,,Kampala,KAMPALA,,UG,+256 41 4231168,https://location.westernunion.com/ug/kampala/kampala/17a4aa092e5c7c68d8566c6386191272,Mo-Fr 08:30-17:00; Sa 09:30-14:00,Western Union,Q861042
fa3eee7719c9c755b72d9c3fe84bb70e,western_union,EXIM BANK HANNINGTON RD BRANCH,,Kampala,KAMPALA,,UG,+256 31 2320400,https://location.westernunion.com/ug/kampala/kampala/fa3eee7719c9c755b72d9c3fe84bb70e,Mo-Fr 08:00-18:00; Sa 08:00-14:00,Western Union,Q861042
87dbbac53a6980650dd9458e853f8b11,western_union,BEVAR FOREX BUREAU LIMITED,,Kampala,KAMPALA,,UG,+256 705 110671,https://location.westernunion.com/ug/kampala/kampala/87dbbac53a6980650dd9458e853f8b11,Mo-Sa 08:00-18:00; Su 08:30-16:00,Western Union,Q861042
4372902c798d91b7455f2c1ddf8609aa,western_union,POST BANK UGANDA LTD. UNIMONI  NAKIVUBO,,Kampala,KAMPALA,,UG,+256 41 4340657,https://location.westernunion.com/ug/kampala/kampala/4372902c798d91b7455f2c1ddf8609aa,Mo-Sa 08:30-19:00; Su 00:00-18:00,Western Union,Q861042
60f33b33d2af29a60f09112cf2e1d41b,western_union,DOLLAR HOUSE SHOP ONE,,Kampala,KAMPALA,,UG,+256 772 122454,https://location.westernunion.com/ug/kampala/kampala/60f33b33d2af29a60f09112cf2e1d41b,Mo-Fr 08:00-18:00; Sa 08:00-15:00,Western Union,Q861042
a658d0c34b80130c2dc7cbaa58fda6bb,western_union,DOLLAR HOUSE SHOP THREE,,Kampala,KAMPALA,,UG,+256 772 122454,https://location.westernunion.com/ug/kampala/kampala/a658d0c34b80130c2dc7cbaa58fda6bb,Mo-Fr 08:00-18:00; Sa 08:00-15:00,Western Union,Q861042
5bd55701a6bad50cd133569ff42068e8,western_union,HOPE KING FAHD PLAZA,,Kampala,KAMPALA,,UG,+256 756 968683,https://location.westernunion.com/ug/kampala/kampala/5bd55701a6bad50cd133569ff42068e8,Mo-Sa 08:00-19:00; Su 10:00-15:00,Western Union,Q861042
82bbc5f43b0f6ad8ea94fe905b2da753,western_union,GTBANK COLVILLE STREET BRANCH,,Kampala,KAMPALA,,UG,+256 200 710500,https://location.westernunion.com/ug/kampala/kampala/82bbc5f43b0f6ad8ea94fe905b2da753,Mo-Fr 08:30-17:00; Sa 09:00-13:00,Western Union,Q861042
f9781cc1c28769b3173ad1d76e3d3fa3,western_union,PRIDE CITY CENTRE,,Kampala,KAMPALA,,UG,+256 41 4231932,https://location.westernunion.com/ug/kampala/kampala/f9781cc1c28769b3173ad1d76e3d3fa3,Mo-Fr 08:00-16:30; Sa 09:00-13:30,Western Union,Q861042
4b9db3d0b77b02f2871c96881b76e6ce,western_union,EQUITY BANK OVINO BRANCH,,Kampala,KAMPALA,,UG,+256 784 309036,https://location.westernunion.com/ug/kampala/kampala/4b9db3d0b77b02f2871c96881b76e6ce,Mo-Fr 08:30-18:30; Sa 08:30-15:30,Western Union,Q861042
9ed441483cb9527c14cb1f9b9af03b75,western_union,EQUITY BANK CHURCH HOUSE BRANCH,,Kampala,KAMPALA,,UG,+256 31 2327000,https://location.westernunion.com/ug/kampala/kampala/9ed441483cb9527c14cb1f9b9af03b75,Mo-Su 08:30-21:30,Western Union,Q861042
f071082b42933c6b6ccaf6f484cb7f75,western_union,EQUITY BANK KREM RELIABLE FX,,Kampala,KAMPALA,,UG,+256 753 589958,https://location.westernunion.com/ug/kampala/kampala/f071082b42933c6b6ccaf6f484cb7f75,Mo-Sa 08:30-18:00,Western Union,Q861042
8035e215b8dd85fb5610a2ce9aca0c55,western_union,DFCU KAMPALA ROAD CRANE CHAMBERS,,Kampala,KAMPALA,,UG,(+256) 772-778171247,https://location.westernunion.com/ug/kampala/kampala/8035e215b8dd85fb5610a2ce9aca0c55,Mo-Fr 08:30-18:00; Sa 08:30-13:00,Western Union,Q861042
3f1977aaeca65f0ae74ff45bc3d2d6fa,western_union,DAVINNETTE FOREX BUREAU LTD,,Kampala,KAMPALA,,UG,+256 41 4231168,https://location.westernunion.com/ug/kampala/kampala/3f1977aaeca65f0ae74ff45bc3d2d6fa,Mo-Su 00:01-24:00,Western Union,Q861042
0de13d3dc4ff05a75defdd14bb070db6,western_union,EQUITY BANK OASIS BRANCH,,Kampala,KAMPALA,,UG,+256 785 634540,https://location.westernunion.com/ug/kampala/kampala/0de13d3dc4ff05a75defdd14bb070db6,Mo-Su 08:30-21:30,Western Union,Q861042
3e6d933c90ec11f353690f305bed8ea3,western_union,KCB UGANDA BEN KIWANUKA BRANCH,,Kampala,KAMPALA,,UG,+256 41 4234173,https://location.westernunion.com/ug/kampala/kampala/3e6d933c90ec11f353690f305bed8ea3,Mo-Fr 08:30-16:00; Sa 09:00-12:00,Western Union,Q861042
a891ce1c87762ac55291fc2d75358c21,western_union,EQUITY BANK SKY FOREX BUREAU LTD,,Kampala,KAMPALA,,UG,+256 705 725012,https://location.westernunion.com/ug/kampala/kampala/a891ce1c87762ac55291fc2d75358c21,Mo-Sa 08:00-18:00,Western Union,Q861042
dd3a19b5c3031b999fd01bf1fe284e99,western_union,SHUMUK FOREX GRAND IMPERIAL,,Kampala,KAMPALA,,UG,+256 41 4231168,https://location.westernunion.com/ug/kampala/kampala/dd3a19b5c3031b999fd01bf1fe284e99,Mo-Sa 08:30-19:00; Su 09:00-18:00,Western Union,Q861042
0d3f00ab99f39494c269bfba186866af,western_union,I AND M BANK KINGDOM KAMPALA BRANCH,,Kampala,KAMPALA,,UG,(+256) 256417719311,https://location.westernunion.com/ug/kampala/kampala/0d3f00ab99f39494c269bfba186866af,Mo-Fr 08:00-19:00; Sa 08:00-17:00; Su 09:00-16:00,Western Union,Q861042
fbf025b698edb6ea180d33c1ed47d4e1,western_union,DTB OASIS  U  LTD,,Kampala,KAMPALA,,UG,+256 41 4231168,https://location.westernunion.com/ug/kampala/kampala/fbf025b698edb6ea180d33c1ed47d4e1,Mo-Su 08:00-23:00,Western Union,Q861042
3929cf9d71fe0ce7c8378b451bc5361c,western_union,TAL FOREX BUREAU LIMITED TRANS,,Kampala,KAMPALA,,UG,+256 41 4231168,https://location.westernunion.com/ug/kampala/kampala/3929cf9d71fe0ce7c8378b451bc5361c,Mo-Su 08:00-19:30,Western Union,Q861042
2e6f5243d7234f5791dcf75c9c5cadec,western_union,LLOYDS FOREX BUREAU  PARLIAMEN,,Kampala,KAMPALA,,UG,+256 41 4231168,https://location.westernunion.com/ug/kampala/kampala/2e6f5243d7234f5791dcf75c9c5cadec,Mo-Sa 08:00-17:30,Western Union,Q861042
4e77cb19c39a5c4e7fd63343dbfca9c3,western_union,YAKO BANK UGANDA LIMITED   RAJA CHAMBERS,,Kampala,KAMPALA,,UG,+256 41 4231163,https://location.westernunion.com/ug/kampala/kampala/4e77cb19c39a5c4e7fd63343dbfca9c3,Mo-Fr 08:30-18:30; Sa 09:30-14:00,Western Union,Q861042
ca22ccf9e656565e126888954916153a,western_union,DTB PARLIAMENT AVENUE,,Kampala,KAMPALA,,UG,+256 41 4231168,https://location.westernunion.com/ug/kampala/kampala/ca22ccf9e656565e126888954916153a,Mo-Fr 08:00-18:00; Sa 08:00-16:00; Su 10:00-15:00,Western Union,Q861042
d22111b8bfb1240afd572c9936112add,western_union,MONEYBAG FOREX BUREAU,,Kampala,KAMPALA,,UG,+256 41 4231168,https://location.westernunion.com/ug/kampala/kampala/d22111b8bfb1240afd572c9936112add,Mo-Sa 07:00-19:30; Su 09:00-15:30,Western Union,Q861042
4c89c2d4fb08d12bb9fc5a336afe60ed,western_union,UBA JINJA ROAD BRANCH,,Kampala,KAMPALA,,UG,+256 41 7715152,https://location.westernunion.com/ug/kampala/kampala/4c89c2d4fb08d12bb9fc5a336afe60ed,Mo-Fr 08:30-18:15; Sa 09:00-14:30,Western Union,Q861042
ce7eb96a55d94c1094d332960dc1d614,western_union,ABC CAPITAL BANK LTD  LUWUM ST,,Kampala,KAMPALA,,UG,+256 41 4231168,https://location.westernunion.com/ug/kampala/kampala/ce7eb96a55d94c1094d332960dc1d614,Mo-Fr 09:00-17:30; Sa 09:00-14:00,Western Union,Q861042
32d0b618d21d759b85a5bcbc96a8710b,western_union,AMAS  V MARKET PLAZA SHOP UG2 3,,Kampala,KAMPALA,,UG,+256 702 765044,https://location.westernunion.com/ug/kampala/kampala/32d0b618d21d759b85a5bcbc96a8710b,Mo-Sa 08:00-18:30; Su 10:00-13:00,Western Union,Q861042
4784ec65980c97b1023b675cab639425,western_union,DFCU IMPALA BRANCH,,Kampala,KAMPALA,,UG,(+256) 772-778171247,https://location.westernunion.com/ug/kampala/kampala/4784ec65980c97b1023b675cab639425,Mo-Fr 08:30-18:00; Sa 08:30-13:00,Western Union,Q861042
3d4008845310d969b155206a1614d72d,western_union,DFCU MARKET STREET BRANCH,,Kampala,KAMPALA,,UG,(+256) 772-778171247,https://location.westernunion.com/ug/kampala/kampala/3d4008845310d969b155206a1614d72d,Mo-Fr 08:30-18:00; Sa 08:30-13:00,Western Union,Q861042
1c2b661491fb61115bfe3060afcf7358,western_union,POST BANK UGANDA UNIMONI KAMPALA ROAD,,Kampala,KAMPALA,,UG,+256 41 4233285,https://location.westernunion.com/ug/kampala/kampala/1c2b661491fb61115bfe3060afcf7358,Mo-Fr 08:00-18:00; Sa 08:30-15:00,Western Union,Q861042
a1cf9133868f2d48b64d00c6790f2954,western_union,BANK OF AFRICA MAIN BRANCH,,Kampala,KAMPALA,,UG,(+256) 48142933,https://location.westernunion.com/ug/kampala/kampala/a1cf9133868f2d48b64d00c6790f2954,Mo-Fr 08:30-17:00; Sa 09:00-13:00,Western Union,Q861042
8e955b5df260268668edae21434ee2bf,western_union,EQUITY BANK MARKET STREET BRAN,,Kampala,KAMPALA,,UG,+256 783 197644,https://location.westernunion.com/ug/kampala/kampala/8e955b5df260268668edae21434ee2bf,Mo-Fr 08:30-18:30; Sa 08:30-15:30,Western Union,Q861042
e18c4c26ad5694d2e728bc3877fa4628,western_union,DFCU KIREKA BRANCH,,Kampala,KAMPALA,,UG,(+256) 772-778171247,https://location.westernunion.com/ug/kampala/kampala/e18c4c26ad5694d2e728bc3877fa4628,Mo-Fr 08:30-18:00; Sa 08:30-13:00,Western Union,Q861042
b106010d027d399e2149f78b1395c06e,western_union,SUPER GATE FOREX BUREAU,,Kampala,KAMPALA,,UG,+256 41 4231168,https://location.westernunion.com/ug/kampala/kampala/b106010d027d399e2149f78b1395c06e,Mo-Sa 06:00-19:00; Su 10:00-18:00,Western Union,Q861042
1ca4b3e0913f7362330d010cc63aeaa2,western_union,NYUMBA KUBWA HOUSE,,Kampala,KAMPALA,,UG,+256 772 422102,https://location.westernunion.com/ug/kampala/kampala/1ca4b3e0913f7362330d010cc63aeaa2,Mo-Fr 08:30-18:00; Sa 08:30-16:00; Su 00:00-14:00,Western Union,Q861042
1063165c7a59c107ce5cfdc3f293d0f9,western_union,KAMPALA BOULEVARD BRANCH,,Kampala,KAMPALA,,UG,+256 41 7715100,https://location.westernunion.com/ug/kampala/kampala/1063165c7a59c107ce5cfdc3f293d0f9,Mo-Fr 08:00-17:00; Sa 08:00-13:00,Western Union,Q861042
001da61c2aaa9294c7357d1d0f609be7,western_union,PRIME FOREX BUREAU LTD   MARKE,,Kampala,KAMPALA,,UG,+256 41 4231168,https://location.westernunion.com/ug/kampala/kampala/001da61c2aaa9294c7357d1d0f609be7,Mo-Fr 08:00-18:00; Sa 09:00-16:00,Western Union,Q861042
826f665ae311b29b4b5daf3ff5230f8e,western_union,DESERT EXCHANGE FOREX BUREAU,,Kampala,KAMPALA,,UG,+256 41 4231168,https://location.westernunion.com/ug/kampala/kampala/826f665ae311b29b4b5daf3ff5230f8e,Mo-Sa 07:00-18:30,Western Union,Q861042
dbc162367b699170518e96522d57fafd,western_union,MONEYWORLD FOREX BUREAU,,Kampala,KAMPALA,,UG,+256 41 4231168,https://location.westernunion.com/ug/kampala/kampala/dbc162367b699170518e96522d57fafd,Mo-Fr 08:00-19:30; Sa 08:00-17:30; Su 10:00-14:30,Western Union,Q861042
2e9951bd40869cf63ed80acd1b84e840,western_union,RUBAGA SERVICE CENTREOPMENT BA,,Rubaga,KAMPALA,,UG,+256 31 2517085,https://location.westernunion.com/ug/kampala/rubaga/2e9951bd40869cf63ed80acd1b84e840,Mo-Fr 08:30-17:00; Sa 08:30-13:30,Western Union,Q861042
b34e57b1dd7332d34e1a3ac584d55cbc,western_union,POST BANK UGANDA CAIRO,,Kampala,KAMPALA,,UG,+256 41 7157284,https://location.westernunion.com/ug/kampala/kampala/b34e57b1dd7332d34e1a3ac584d55cbc,Mo-Sa 08:00-19:00,Western Union,Q861042
794b45b5156899de53604dd70f582f16,western_union,DTB NAKIVUBO,,Kampala,KAMPALA,,UG,+256 41 4231168,https://location.westernunion.com/ug/kampala/kampala/794b45b5156899de53604dd70f582f16,Mo-Fr 08:30-17:30; Sa 09:00-15:30,Western Union,Q861042
a729d16a9e422202c7f5137f1bbec2cc,western_union,JETSET FOREX BUREAU LIMITED,,Kampala,KAMPALA,,UG,+256 41 4231168,https://location.westernunion.com/ug/kampala/kampala/a729d16a9e422202c7f5137f1bbec2cc,Mo-Su 00:01-24:00,Western Union,Q861042
bd9307289852e069089886870a0c8352,western_union,EQUITY BANK SKY FOREX BUREAU LTD,,Kampala,KAMPALA,,UG,+256 772 429251,https://location.westernunion.com/ug/kampala/kampala/bd9307289852e069089886870a0c8352,Mo-Su 08:30-21:30,Western Union,Q861042
d8f062b8556f8dc3b2be741fa24a2b29,western_union,MERCANTILE CREDIT BANK LIMITED,,Kampala,KAMPALA,,UG,+256 41 4235967,https://location.westernunion.com/ug/kampala/kampala/d8f062b8556f8dc3b2be741fa24a2b29,Mo-Fr 08:30-18:00; Sa 08:30-15:30,Western Union,Q861042
09ec26758ce91b32dc3ac6268b936f8d,western_union,EPIC FOREX BUREAU LIMITED RUBAGA ROAD,,Kampala,KAMPALA,,UG,+256 41 4231168,https://location.westernunion.com/ug/kampala/kampala/09ec26758ce91b32dc3ac6268b936f8d,Mo-Su 08:00-20:30,Western Union,Q861042
2033f2ab6b18eb06e6ff8c593426ba70,western_union,BANK OF AFRICA KABALAGALA BRANCH,,Kampala,KAMPALA,,UG,+256 41 4501212,https://location.westernunion.com/ug/kampala/kampala/2033f2ab6b18eb06e6ff8c593426ba70,Mo-Fr 08:30-17:00; Sa 09:00-13:00,Western Union,Q861042
ba24a8bd076b6d643b09025ee6ad66d6,western_union,HOUSING FINANCE BANK NAMUWONGO,,Kampala,KAMPALA,,UG,+256 41 4255692,https://location.westernunion.com/ug/kampala/kampala/ba24a8bd076b6d643b09025ee6ad66d6,Mo-Fr 08:00-19:00; Sa 09:00-19:00,Western Union,Q861042
31cc97909936c55ce4ce7fd05e21cd92,western_union,DIAMOND TRUST BANK KITINTALE,,Kampala,KAMPALA,,UG,+256 41 4231168,https://location.westernunion.com/ug/kampala/kampala/31cc97909936c55ce4ce7fd05e21cd92,Mo-Fr 08:30-17:30; Sa 09:00-15:30,Western Union,Q861042
c6421651e926b3005a64656e7e3330e2,western_union,ORIENT BANK KABALAGALA BRANCH,,Kampala,KAMPALA,,UG,+256 41 4510726,https://location.westernunion.com/ug/kampala/kampala/c6421651e926b3005a64656e7e3330e2,Mo-Fr 08:30-17:00; Sa 09:00-14:00,Western Union,Q861042
842c11d20ec0342b2e8412b1322bcfab,western_union,PRIDE KATWE,,Kampala,KAMPALA,,UG,+256 41 4231932,https://location.westernunion.com/ug/kampala/kampala/842c11d20ec0342b2e8412b1322bcfab,Mo-Fr 08:00-16:30; Sa 09:00-13:30,Western Union,Q861042
2c810275b6a4c94dc8c85e5930dfc688,western_union,EQUITY BANK ARUA PARK BRANCH,,Kampala,KAMPALA,,UG,+256 41 4341533,https://location.westernunion.com/ug/kampala/kampala/2c810275b6a4c94dc8c85e5930dfc688,Mo-Fr 08:30-18:30; Sa 08:30-15:30,Western Union,Q861042
505ec2d0baf6870a22eca860d05d02c4,western_union,EQUITY BANK VENUS PLAZA BRANCH,,Kampala,KAMPALA,,UG,+256 776 931493,https://location.westernunion.com/ug/kampala/kampala/505ec2d0baf6870a22eca860d05d02c4,Mo-Fr 08:30-18:30; Sa 08:30-15:30,Western Union,Q861042
8410d1a432ab930f85693aecd7e3dc66,western_union,EQUITY BANK KAJJANSI BRANCH,,Kampala,KAMPALA,,UG,+256 772 978344,https://location.westernunion.com/ug/kampala/kampala/8410d1a432ab930f85693aecd7e3dc66,Mo-Fr 08:30-18:30; Sa 08:30-15:30,Western Union,Q861042
c5553f40f0ac6bb863ac53fe73e823d8,western_union,EQUITY BANK KATWE BRANCH,,Kampala,KAMPALA,,UG,+256 712 671114,https://location.westernunion.com/ug/kampala/kampala/c5553f40f0ac6bb863ac53fe73e823d8,Mo-Fr 08:30-18:30; Sa 08:30-15:30,Western Union,Q861042
6387807d09e784f25c545b0cbb3e4aac,western_union,EQUITY BANK NDEEBA BRANCH,,Kampala,KAMPALA,,UG,+256 785 592772,https://location.westernunion.com/ug/kampala/kampala/6387807d09e784f25c545b0cbb3e4aac,Mo-Fr 08:30-18:30; Sa 08:30-15:30,Western Union,Q861042
5ef5b8c5aba286b3d83327ced817f83f,western_union,EQUITY BANK BUGOLOBI BRANCH,,Kampala,KAMPALA,,UG,+256 31 2327000,https://location.westernunion.com/ug/kampala/kampala/5ef5b8c5aba286b3d83327ced817f83f,Mo-Fr 08:30-18:30; Sa 08:30-15:30,Western Union,Q861042
b47e5ec0045aa5d51ac264bf01280399,western_union,FINANCE TRUST BANK KATWE,,Kampala,KAMPALA,,UG,(+256) 791333035,https://location.westernunion.com/ug/kampala/kampala/b47e5ec0045aa5d51ac264bf01280399,Mo-Fr 08:20-18:30; Sa 08:50-17:30,Western Union,Q861042
f59c66c1f331318c0770109484f6ceb2,western_union,DIAMOND TRUST BANK UGANDA INDU,,Kampala,KAMPALA,,UG,+256 31 2261167,https://location.westernunion.com/ug/kampala/kampala/f59c66c1f331318c0770109484f6ceb2,Mo-Fr 08:30-20:00; Sa 09:00-20:00; Su 09:00-17:00,Western Union,Q861042
fe50fc3a2e8f334a55fa89ee5ec8d8d4,western_union,ZAIN FOREX BUREAU LIMITED ARENA MALL,,Kampala,KAMPALA,,UG,+256 41 4231168,https://location.westernunion.com/ug/kampala/kampala/fe50fc3a2e8f334a55fa89ee5ec8d8d4,Mo-Fr 09:00-19:30; Sa 09:00-18:30; Su 10:00-16:30,Western Union,Q861042
7594dac7fd8e53d100f646f4060aab63,western_union,DFCU NDEEBA BRANCH,,Kampala,KAMPALA,,UG,(+256) 772-778171247,https://location.westernunion.com/ug/kampala/kampala/7594dac7fd8e53d100f646f4060aab63,Mo-Fr 08:30-18:00; Sa 08:30-13:00,Western Union,Q861042
df09364a3229cab1ceb8691ef4af954b,western_union,OPPORTUNITY UGANDA LTD OWINO,,Kampala,KAMPALA,,UG,+256 41 4231168,https://location.westernunion.com/ug/kampala/kampala/df09364a3229cab1ceb8691ef4af954b,Mo-Fr 08:30-19:00; Sa 08:30-17:00,Western Union,Q861042
d41bc3b79f8ad8a89b8301656b4514e7,western_union,ULTIMATE FOREX ENTEBBE,,Entebbe,KAMPALA,,UG,+256 41 4231168,https://location.westernunion.com/ug/kampala/entebbe/d41bc3b79f8ad8a89b8301656b4514e7,Mo-Sa 08:00-17:30,Western Union,Q861042
64b1ff84ad1debd78c6c5508fdcddb9f,western_union,ENTEBBE ROAD KAMPALA,,Kampala,KAMPALA,,UG,(+256) 414-506008-256,https://location.westernunion.com/ug/kampala/kampala/64b1ff84ad1debd78c6c5508fdcddb9f,Mo-Fr 07:00-19:00; Sa 07:00-16:30,Western Union,Q861042
4fecc606326f1de48d08ba23fd52d5e7,western_union,NURM FOREX BUREAU  KIYEMBE LANE,,Kampala,KAMPALA,,UG,+256 772 304220,https://location.westernunion.com/ug/kampala/kampala/4fecc606326f1de48d08ba23fd52d5e7,Mo-Sa 08:00-21:00; Su 09:00-15:00,Western Union,Q861042
abff338cf6a9d575214fa89011d9ec46,western_union,SKY FOREX PARLIAMENTARY AVENUE,,Kampala,KAMPALA,,UG,(+256) 77-429251,https://location.westernunion.com/ug/kampala/kampala/abff338cf6a9d575214fa89011d9ec46,Mo-Fr 08:30-19:00; Sa 08:30-18:00; Su 00:00-14:00,Western Union,Q861042
a93949375cccab3f38373bc4704ab4c5,western_union,DOLLAR HOUSE SHOP FIVE,,Kampala,KAMPALA,,UG,+256 772 122454,https://location.westernunion.com/ug/kampala/kampala/a93949375cccab3f38373bc4704ab4c5,Mo-Fr 08:00-18:00; Sa 08:00-15:00,Western Union,Q861042
a7c4144394fad891b22e065ad838d143,western_union,PRIDE MICROFINANCE LTD,,Kampala,KAMPALA,,UG,+256 41 4346930,https://location.westernunion.com/ug/kampala/kampala/a7c4144394fad891b22e065ad838d143,Mo-Fr 08:00-16:30; Sa 08:00-13:00,Western Union,Q861042
524e68ce391aef79720214c0f7b5ed9e,western_union,POST BANK UGANDA,,Nkurumah,KAMPALA,,UG,+256 41 4258551,https://location.westernunion.com/ug/kampala/nkurumah/524e68ce391aef79720214c0f7b5ed9e,Mo-Fr 08:30-17:00; Sa 08:00-15:00,Western Union,Q861042
a8f96628469d144d493d56ba62204621,western_union,CENTENARY RURAL DEVELOPMENT BA,,Kampala,KAMPALA,,UG,+256 41 4506008,https://location.westernunion.com/ug/kampala/kampala/a8f96628469d144d493d56ba62204621,Mo-Fr 08:00-19:00; Sa 08:00-14:30,Western Union,Q861042
bf81ca7157156c58815fbc74427c0722,western_union,SENTEWORLD TRANSFER SERVICES LIMITED,,Kampala,KAMPALA,,UG,+256 782 012519,https://location.westernunion.com/ug/kampala/kampala/bf81ca7157156c58815fbc74427c0722,Mo-Fr 08:00-18:00; Sa 08:00-15:00,Western Union,Q861042
fa17283bf1fc6cfc614a100fb4b55b8c,western_union,LACRUCHE FOREX BUREAU LIMITED,,Kampala,KAMPALA,,UG,+256 708 879005,https://location.westernunion.com/ug/kampala/kampala/fa17283bf1fc6cfc614a100fb4b55b8c,Mo-Sa 08:00-18:00; Su 09:00-12:00,Western Union,Q861042
2ea4a4d3b5850c232a9c3743fcfd22bb,western_union,ECOBANK PARLIAMENT BRANCH,,Kampala,KAMPALA,,UG,(+256) 312354100-231,https://location.westernunion.com/ug/kampala/kampala/2ea4a4d3b5850c232a9c3743fcfd22bb,Mo-Fr 08:30-16:00; Sa 09:00-14:00,Western Union,Q861042
de69aff57eb58cc9302f928dc2a809fa,western_union,DIAMOND TRUST BANK,,Kampala,KAMPALA,,UG,+256 41 4231168,https://location.westernunion.com/ug/kampala/kampala/de69aff57eb58cc9302f928dc2a809fa,Mo-Sa 08:00-22:00; Su 09:00-22:00,Western Union,Q861042
9002e53ee53c3a8140edd9543d331240,western_union,DIAMOND TRUST BANK,,Kampala,KAMPALA,,UG,+256 41 4231168,https://location.westernunion.com/ug/kampala/kampala/9002e53ee53c3a8140edd9543d331240,Mo-Fr 08:00-17:30,Western Union,Q861042
691e7beafac9a2567659f12418f866b0,western_union,GUILD FRANK LUBOWA,,Kampala,KAMPALA,,UG,+256 41 4231168,https://location.westernunion.com/ug/kampala/kampala/691e7beafac9a2567659f12418f866b0,Mo-Su 07:00-23:00,Western Union,Q861042
dc822b562a04f9f221451c5cfad086d0,western_union,EXPRESS EXC PARK FOREX BUREAU UGANDA LMT,,Kampala,KAMPALA,,UG,+256 41 4231168,https://location.westernunion.com/ug/kampala/kampala/dc822b562a04f9f221451c5cfad086d0,Mo-Fr 07:30-22:30; Sa-Su 07:30-21:30,Western Union,Q861042
8c0c84eaff5c9187c754053f44f7887e,western_union,ULTIMATE FOREX BUREAU  LIMITED,,Kampala,KAMPALA,,UG,+256 41 4231168,https://location.westernunion.com/ug/kampala/kampala/8c0c84eaff5c9187c754053f44f7887e,Mo-Su 08:00-22:00,Western Union,Q861042
544d6ce776d5d49fd7dc4b3e7f6229c4,western_union,DAWIT,,Dawit Teklu Gebrenguse Gebreng,KAMPALA,,UG,+256 706 259719,https://location.westernunion.com/ug/kampala/dawit-teklu-gebrenguse-gebreng/544d6ce776d5d49fd7dc4b3e7f6229c4,Mo-Su 08:30-21:30,Western Union,Q861042
e6647f6d4cb207ceddd2f3d4d45c37fe,western_union,DON FOREX BUREAU LIMITED,,Kampala,KAMPALA,,UG,(+256) 256-231168,https://location.westernunion.com/ug/kampala/kampala/e6647f6d4cb207ceddd2f3d4d45c37fe,Mo-Sa 08:00-20:30; Su 09:00-17:30,Western Union,Q861042
5406ada95ca25dd8b62997178c41830e,western_union,GUILD FRANK FOREX BUREAU  KANSANGA,,Kampala,KAMPALA,,UG,+256 31 4387211,https://location.westernunion.com/ug/kampala/kampala/5406ada95ca25dd8b62997178c41830e,Mo-Sa 08:00-21:30; Su 08:30-20:30,Western Union,Q861042
300b05de2be5fc4222890a98feadeefb,western_union,DFCU NAALYA BRANCH,,Kampala,KAMPALA,,UG,(+256) 772-778171247,https://location.westernunion.com/ug/kampala/kampala/300b05de2be5fc4222890a98feadeefb,Mo-Fr 08:30-18:00; Sa 08:30-13:00,Western Union,Q861042
9c3166ce53631f9b3f9788672c92262e,western_union,KOINE FX Timber king building,,Kampala,KAMPALA,,UG,+256 755 066895,https://location.westernunion.com/ug/kampala/kampala/9c3166ce53631f9b3f9788672c92262e,Mo-Fr 07:30-22:00; Sa-Su 08:00-22:00,Western Union,Q861042
9446d10706d50dc826bd14f1e6a28de2,western_union,BANK OF AFRICA LUZIRA BRANCH,,Kampala,KAMPALA,,UG,+256 41 4220380,https://location.westernunion.com/ug/kampala/kampala/9446d10706d50dc826bd14f1e6a28de2,Mo-Fr 08:30-17:00; Sa 09:00-13:00,Western Union,Q861042
e9e9cd2949fdf024caa9ecce2c43ed59,western_union,HOPE KASANGA BRANCH,,Kampala,KAMPALA,,UG,(+256) 75698683,https://location.westernunion.com/ug/kampala/kampala/e9e9cd2949fdf024caa9ecce2c43ed59,Mo-Tu 08:00-21:00; We-Sa 08:00-18:00,Western Union,Q861042
2a7358ffc0bcfad49283f7e583c613e2,western_union,DON FOREX  BUREAU LTD KATATUMB,,Kampala,KAMPALA,,UG,+256 41 4231168,https://location.westernunion.com/ug/kampala/kampala/2a7358ffc0bcfad49283f7e583c613e2,Mo-Sa 08:30-22:30; Su 09:00-22:00,Western Union,Q861042
b6fabce1fdea40251adac8d09c67052c,western_union,CAPITAL FOREX BUREAU LTD   MAK,,Makindye,KAMPALA,,UG,+256 41 4231168,https://location.westernunion.com/ug/kampala/makindye/b6fabce1fdea40251adac8d09c67052c,Mo-Su 00:01-24:00,Western Union,Q861042
b2181c00ec77de52a8a8655568b9d27e,western_union,DON FOREX BUREAU LIMITED,,Kampala,KAMPALA,,UG,+256 41 4231168,https://location.westernunion.com/ug/kampala/kampala/b2181c00ec77de52a8a8655568b9d27e,Mo-Fr 08:00-22:30; Sa-Su 08:30-22:00,Western Union,Q861042
14fb0342bd65b23e149a7c70b6d4b41a,western_union,EQUITY BANK KABALAGALA BRANCH,,Kampala,KAMPALA,,UG,+256 783 702510,https://location.westernunion.com/ug/kampala/kampala/14fb0342bd65b23e149a7c70b6d4b41a,Mo-Fr 08:30-18:30; Sa 08:30-15:30,Western Union,Q861042
b06a4d343a5172d49bba0b0b0b6b3407,western_union,CAPITAL FOREX BUREAU LTD   KAB,,Kampala,KAMPALA,,UG,+256 41 4231168,https://location.westernunion.com/ug/kampala/kampala/b06a4d343a5172d49bba0b0b0b6b3407,Mo-Su 00:01-24:00,Western Union,Q861042
1a1bd56908f9506017df3976ab29edff,western_union,JETSET FOREX BUREAU   KABALAGA,,Kampala,KAMPALA,,UG,+256 41 4231168,https://location.westernunion.com/ug/kampala/kampala/1a1bd56908f9506017df3976ab29edff,Mo-Su 00:01-24:00,Western Union,Q861042
08ddfa1ed20cb8f21dfc8a6901612492,western_union,ACCESS FOREX BUREAU  U  LTD,,Kampala,KAMPALA,,UG,+256 41 4231168,https://location.westernunion.com/ug/kampala/kampala/08ddfa1ed20cb8f21dfc8a6901612492,Mo-Su 07:00-21:00,Western Union,Q861042
538a288d24bec4740e00d1aec8613e11,western_union,ABISELOM FOREX BUREAU LTD,,Kampala,KAMPALA,,UG,+256 705 221584,https://location.westernunion.com/ug/kampala/kampala/538a288d24bec4740e00d1aec8613e11,Mo-Sa 08:00-18:00; Su 08:00-14:00,Western Union,Q861042
6dad189e6c1b0d2effab4cec87e93b8f,western_union,MOBUTU ROAD FUELEX STATION,,Kampala,KAMPALA,,UG,+256 775 151853,https://location.westernunion.com/ug/kampala/kampala/6dad189e6c1b0d2effab4cec87e93b8f,Mo-Su 08:00-19:00,Western Union,Q861042
0d71dc5c857ca3b6ef13f3cdf1fe48b3,western_union,GUILD FRANK KABALAGALA,,Kampala,KAMPALA,,UG,+256 41 4231168,https://location.westernunion.com/ug/kampala/kampala/0d71dc5c857ca3b6ef13f3cdf1fe48b3,,Western Union,Q861042
f86eb27afdb47b0752374f96fcc2cea9,western_union,DTB KABALAGALA,,Kabalagala,KAMPALA,,UG,+256 41 4231168,https://location.westernunion.com/ug/kampala/kabalagala/f86eb27afdb47b0752374f96fcc2cea9,Mo-Sa 09:00-19:30,Western Union,Q861042
7b9af790c5039a306ac739b412857776,western_union,VIRAH FOREX BUREAU KANSANGA,,Kampala,KAMPALA,,UG,+256 41 4231168,https://location.westernunion.com/ug/kampala/kampala/7b9af790c5039a306ac739b412857776,Mo-Su 07:30-24:00,Western Union,Q861042
279405cc9afa289d54979db5edf50ab6,western_union,EPIC FOREX BUREAU LIMITED,,Kampala,KAMPALA,,UG,+256 41 4231163,https://location.westernunion.com/ug/kampala/kampala/279405cc9afa289d54979db5edf50ab6,Mo-Su 08:00-20:30,Western Union,Q861042
2b4e486553c62911b465c1b6d151fed8,western_union,EPIC FOREX BUREAU KIBUYE,,Kampala,KAMPALA,,UG,+256 41 4231168,https://location.westernunion.com/ug/kampala/kampala/2b4e486553c62911b465c1b6d151fed8,Mo-Su 08:00-20:30,Western Union,Q861042
18eb6b199ae575990c271a7801ca19ee,western_union,MAKINDYE MT BUILDING,,Kampala,KAMPALA,,UG,+256 752 781553,https://location.westernunion.com/ug/kampala/kampala/18eb6b199ae575990c271a7801ca19ee,Mo-Fr 08:30-19:00; Sa 08:30-18:00; Su 08:30-14:00,Western Union,Q861042
10fddc7e1ac5aaeb40ff54645c464d47,western_union,DESTINY FOREX BUREAU,,Kampala,KAMPALA,,UG,+256 41 4231168,https://location.westernunion.com/ug/kampala/kampala/10fddc7e1ac5aaeb40ff54645c464d47,Mo-Sa 08:00-21:00; Su 09:00-19:30,Western Union,Q861042
e71d287ce81229853af6e60434e7fc33,western_union,ZEAL FOREX BUREAU LIMITED,,Kampala,KAMPALA,,UG,+256 41 4231168,https://location.westernunion.com/ug/kampala/kampala/e71d287ce81229853af6e60434e7fc33,Mo-Sa 08:00-17:30; Su 09:00-15:30,Western Union,Q861042
eed61b21d2a7dac386073da8738c0a2d,western_union,ULTIMATE FOREX KABALAGALA,,Ggaba,KAMPALA,,UG,+256 41 4231168,https://location.westernunion.com/ug/kampala/ggaba/eed61b21d2a7dac386073da8738c0a2d,Mo-Su 08:00-22:30,Western Union,Q861042
25d9feff97a6e5dd34583f58518838b3,western_union,KCB 6TH STREET BRANCH,,Kampala,KAMPALA,,UG,+256 41 7130058,https://location.westernunion.com/ug/kampala/kampala/25d9feff97a6e5dd34583f58518838b3,Mo-Fr 08:30-18:00; Sa 09:00-14:00,Western Union,Q861042
6f9c2505d237f766f9108c941b718062,western_union,POST BANK UGANDA,,Bugolobi,KAMPALA,,UG,+256 41 4223227,https://location.westernunion.com/ug/kampala/bugolobi/6f9c2505d237f766f9108c941b718062,Mo-Fr 08:30-17:00; Sa 08:00-15:00,Western Union,Q861042
6af43e06ac033f9a58ef3ec97900bdfc,western_union,POST BANK BUGOLOBI,,Kampala,KAMPALA,,UG,+256 41 4340657,https://location.westernunion.com/ug/kampala/kampala/6af43e06ac033f9a58ef3ec97900bdfc,Mo-Sa 08:00-21:00; Su 08:00-20:00,Western Union,Q861042
6c2d2439062a5e5bd25a510834cd0d87,western_union,ZAIN FOREX BUREAU BUGOLOBI,,Kampala,KAMPALA,,UG,+256 41 4231168,https://location.westernunion.com/ug/kampala/kampala/6c2d2439062a5e5bd25a510834cd0d87,Mo-Sa 08:30-20:00; Su 10:00-18:00,Western Union,Q861042
f7333d5db9a9322ba095b760c91efed2,western_union,EXIM BANK INDUSTRIAL AREA BRANCH,,Kampala,KAMPALA,,UG,+256 31 2202888,https://location.westernunion.com/ug/kampala/kampala/f7333d5db9a9322ba095b760c91efed2,Mo-Sa 08:00-20:00; Su 08:00-15:00,Western Union,Q861042
a73fec72909593a5c37f11db392a562c,western_union,GUILD FRANK FOREX BUREAU,,Kampala,KAMPALA,,UG,+256 41 4231168,https://location.westernunion.com/ug/kampala/kampala/a73fec72909593a5c37f11db392a562c,Mo-Su 08:00-22:30,Western Union,Q861042
6b2d7d24e62b06e1d28e5616fdf0e4ba,western_union,LLOYDS FOREX BUREAU   EDD ROAD,,Kampala,KAMPALA,,UG,+256 41 4343448,https://location.westernunion.com/ug/kampala/kampala/6b2d7d24e62b06e1d28e5616fdf0e4ba,Mo-Fr 08:30-17:15; Sa 09:00-15:00,Western Union,Q861042
3e7b7e490857c629f0e12748d5bd7958,western_union,POST BANK UGANDA LTD. ORIENT HOUSE,,Kampala,KAMPALA,,UG,+256 41 4340657,https://location.westernunion.com/ug/kampala/kampala/3e7b7e490857c629f0e12748d5bd7958,Mo-Fr 08:30-17:00; Sa 08:00-15:00,Western Union,Q861042
f03569817c6fc82fa578991ff97bc7c3,western_union,FINANCE TRUST BANK KAMPALA ROAD,,Kampala,KAMPALA,,UG,(+256) 791333030,https://location.westernunion.com/ug/kampala/kampala/f03569817c6fc82fa578991ff97bc7c3,Mo-Fr 08:20-18:30; Sa 08:50-17:30,Western Union,Q861042
e0549e1b50d531bd8470fa5b2fccd638,western_union,UGAFODE NAKASERO,,Kampala,KAMPALA,,UG,(+256) 414-23116872,https://location.westernunion.com/ug/kampala/kampala/e0549e1b50d531bd8470fa5b2fccd638,Mo-Fr 08:30-18:00; Sa 09:00-14:00,Western Union,Q861042
e63f14e5783c7ab6aae55140c6d7ef84,western_union,KCB UGANDA KAMPALA ROAD BRANCH,,Kampala,KAMPALA,,UG,+256 31 2266233,https://location.westernunion.com/ug/kampala/kampala/e63f14e5783c7ab6aae55140c6d7ef84,Mo-Fr 08:30-18:00; Sa 09:00-14:00,Western Union,Q861042
e390ba3122288e2765f4ab684a3454a6,western_union,KAMPALA ROAD BRANCH,,Kampala,KAMPALA,,UG,+256 31 2320400,https://location.westernunion.com/ug/kampala/kampala/e390ba3122288e2765f4ab684a3454a6,Mo-Sa 08:00-19:00,Western Union,Q861042
bff8eeb2240bb2a8dbe52b5c99a38b2b,western_union,ORIENT BANK MAIN BRANCH,,Kampala,KAMPALA,,UG,(+256) 417-719100-101,https://location.westernunion.com/ug/kampala/kampala/bff8eeb2240bb2a8dbe52b5c99a38b2b,Mo-Fr 08:30-17:00; Sa 09:00-13:00,Western Union,Q861042
e9c58fd3d8417c9a911b30ac53e9f1b8,western_union,ECONOMIC EXCHANGE FOREX BUREAU,,Kampala,KAMPALA,,UG,+256 41 4231168,https://location.westernunion.com/ug/kampala/kampala/e9c58fd3d8417c9a911b30ac53e9f1b8,Mo-Fr 08:30-16:30; Sa 09:00-14:00,Western Union,Q861042
