Ref,Spider,Name,Address,City,State,Zipcode,Country,Phone,Website,Hours,Brand,WikiData
185773,asics_us,Darien Running Company,14 Brook St,Darien,CT,,US,+1 203-202-7492,,Mo 12:00-18:00; Tu-Fr 10:00-18:00; Sa 09:00-17:00; Su 11:00-16:00,asics,Q327247
16493,asics_us,Runner's Roost - Darien,25 Old Kings Hwy N,Darien,CT,,US,+1 203-655-9937,,,asics,Q327247
https://locators.bankofamerica.com/ct/darien/financial-centers-darien-17099.html,bankofamerica,Bank of America Financial Center & Drive-Thru ATM | Darien,,Darien,CT,,US,+1 203-202-8486,https://locators.bankofamerica.com/ct/darien/financial-centers-darien-17099.html,Mo-Fr 10:00-16:00,Bank of America,Q487907
darien,barmethod,The Bar Method Darien,,Darien,CT,,US,+1 203-202-7975,https://barmethod.com/locations/darien/,,The Bar Method,Q117599728
119561,bluerhino,Stop & Shop #2610,,Darien,CT,,US,+1 203-662-1227,,,Blue Rhino,Q65681213
23200_01,bmw_group,Continental BMW of Darien,,Darien,CT,,US,+1 203-656-1804,https://www.bmwdarien.com/bmw-service-center/schedule-appointment/,,BMW,Q26678
23200_03,bmw_group,MINI of Fairfield County,,Darien,CT,,US,+1 203-348-4700,https://www.minifairfieldcounty.com,,Mini,Q116232
77050796274980682000100000000000,bp,BP,,Darien,CT,,US,+1 203-655-1936,,Mo-Su 07:00-22:00,BP,Q152057
2038186,chase_us,Darien - New branch,,Darien,CT,,US,+1 203-655-8344,https://locator.chase.com/ct/darien/454-post-rd,Mo-Fr 09:00-17:00; Sa 09:00-14:00,Chase,Q524629
2038189,chase_us,Noroton Heights - New branch,,Darien,CT,,US,+1 203-662-0828,https://locator.chase.com/ct/darien/165-noroton-ave,Mo-Fr 09:00-17:00; Sa 09:00-14:00,Chase,Q524629
02243,chevrolet,H & L CHEVROLET INC,,DARIEN,CT,,US,+1 203-655-2551 ext. 21,,Mo-Th 08:30-18:30; Fr 08:30-18:00; Sa 08:30-17:00,Chevrolet,Q29570
ct_darien_i-95-darien-nb-service-plaza,chipotle, ,,Darien,CT,,US,+1 203-309-5714,https://locations.chipotle.com/ct/darien/i-95-darien-nb-service-plaza,,Chipotle,Q465751
ct_darien_71-post-rd,chipotle, ,,Darien,CT,,US,+1 203-662-9228,https://locations.chipotle.com/ct/darien/71-post-rd,,Chipotle,Q465751
ATM-2328,citizens_us,,,Darien,CT,,US,,,,Citizens,Q5122694
918,cvs_us,CVS Pharmacy,,Darien,CT,,US,+1 203-655-6335,https://www.cvs.com/store-locator/darien-ct-pharmacies/964-post-road-darien-ct-06820/storeid=918,Mo-Th 07:00-22:00; Fr-Sa 07:00-23:00; Su 08:00-22:00,CVS Pharmacy,Q2078880
nca_s1020,department_veterans_affairs,Spring Grove Veterans Cemetery (Closed),,Darien,CT,,US,+1 203-655-0682,https://www.ctgenweb.org/county/cofairfield/pages/cemetery/cm_darien/springgrove.htm,,Department Veterans Affairs,Q592576
310189,dunkin_us,Dunkin',,Darien,CT,,US,+1 203-656-3208,https://locations.dunkindonuts.com/en/ct/darien/967-post-rd/310189,Mo-Su 05:00-21:00,Dunkin',Q847743
349421,dunkin_us,Dunkin',,Darien,CT,,US,+1 203-202-3744,https://locations.dunkindonuts.com/en/ct/darien/1-ct-turnpike-east/349421,24/7,Dunkin',Q847743
349420,dunkin_us,Dunkin',,Darien,CT,,US,+1 203-633-0242,https://locations.dunkindonuts.com/en/ct/darien/1-ct-turnpike-west/349420,24/7,Dunkin',Q847743
https://www.edwardjones.com/us-en/financial-advisor/dave-piersol,edwardjones,Dave Piersol,,Darien,CT,,US,+1 203-655-1149,https://www.edwardjones.com/us-en/financial-advisor/dave-piersol,Mo-Fr 08:30-17:00,Edward Jones,Q5343830
141,equinox,Equinox Darien,,Darien,CT,,US,+1 203-655-2300,https://cdn.contentful.com/clubs/connecticut/darien,,Equinox Fitness,Q5384535
200319518,exxonmobil,NOROTON SERVICE STATION,,DARIEN,CT,,US,+1 203-656-3819,https://www.exxon.com/en/find-station/mobil-darien-ct-norotonservicestation-200319518,Mo-Sa 06:00-21:00; Su 07:00-20:00,Mobil,Q109676002
200311189,exxonmobil,DARIEN CONVENIENCE,,DARIEN,CT,,US,+1 203-655-4477,https://www.exxon.com/en/find-station/exxon-darien-ct-darienconvenience-200311189,Mo-Sa 05:00-23:00; Su 05:00-22:00,Exxon,Q109675651
4886,gulf_pr_us,NOROTON AVE GULF,,Darien,CT,,US,+1 203-656-1639,https://www.gulfoil.com/noroton-ave-gulf,,Gulf Oil,Q5617505
Palmer's Supermarket IGA - #1227,iga,Palmer's Supermarket IGA - #1227,"264 Heights Rd., Darien, CT, 06820",Darien,CT,,US,+1 203-655-2077,http://www.palmersmarket.com,,IGA,Q3146662
193,jmclaughlin_us,J. McLaughlin,,Darien,CT,,US,+1 203-621-8562,https://www.jmclaughlin.com/store-details?store=US/CT/Darien/1020-Boston-Post-Rd/Darien,Mo-Sa 10:00-18:00; Su 12:00-17:00,J. McLaughlin,Q111230943
US068,longchamp_us,Darien Sport Shop,,DARIEN,CT,,US,+1 203-655-2575,,,Longchamp,Q1869471
https://locations.mtb.com/#3027805,mt_bank_us,M&T Bank,,,CT,,US,+1 203-655-9748,https://locations.mtb.com/ct/darien/bank-branches-and-atms-darien-ct-8196.html,Mo-Th 09:00-16:00; Fr 09:00-17:00,M&T Bank,Q3272257
https://locations.mtb.com/#3027801,mt_bank_us,M&T Bank,,,CT,,US,+1 203-655-7617,https://locations.mtb.com/ct/darien/bank-branches-and-atms-darien-ct-8192.html,Mo-Th 09:00-16:00; Fr 09:00-17:00; Sa 09:00-12:00,M&T Bank,Q3272257
18194,orangetheory_fitness,Darien,,Darien,CT,,US,+1 203-309-1669,,,Orangetheory Fitness,Q25005163
691,pure_barre_us,Darien,,Darien,CT,,US,+1 203-309-5690,https://www.purebarre.com/location/darien-ct,,Pure Barre,Q86707084
https://www.solidcore.co/ct/connecticut/darien/,solidcore_us,[solidcore],,Darien,CT,,US,+1 203-344-7822,https://www.solidcore.co/ct/connecticut/darien/,,[solidcore],Q124429271
2610,stop_and_shop,Stop & Shop,25 Old King's Highway N,Darien,CT,,US,,,,Stop and Shop,Q3658429
https://restaurants.subway.com/#14910222,subway,Subway,,Darien Fairfield,CT,,US,+1 203-655-0078,https://restaurants.subway.com/united-states/ct/darien/22-26-heights-road,Mo-Th 09:30-21:00; Fr 09:00-21:00; Sa 09:30-20:00; Su 09:30-19:00,Subway,Q244457
https://restaurants.subway.com/#14983962,subway,Subway Darien Southbound Service Pl,,Darien Fairfield,CT,,US,+1 203-595-5048,https://restaurants.subway.com/united-states/ct/darien/i-95-southbound,Mo-Sa 07:00-21:00; Su 08:00-21:00,Subway,Q244457
https://restaurants.subway.com/#14983828,subway,Subway Darien Northbound Service Pl,,Darien Fairfield,CT,,US,+1 203-202-7056,https://restaurants.subway.com/united-states/ct/darien/i-95-northbound,Mo-Fr 07:00-23:00; Sa 07:30-23:00; Su 07:30-22:30,Subway,Q244457
0713560100,sunoco_us,Sunoco,,DARIEN,CT,,US,+1 203-655-1927,,Mo-Su 06:00-00:00,Sunoco,Q1423218
0188897300,sunoco_us,Sunoco,,DARIEN,CT,,US,+1 203-655-8783,,,Sunoco,Q1423218
171,sur_la_table_us,Sur La Table,,Darien,CT,,US,+1 203-541-1451,https://www.surlatable.com/locations/ct/darien/store-171.html,Mo-Sa 10:00-20:00; Su 11:00-18:00,Sur La Table,Q7645220
3102,sweetgreen_us,Darien,,Darien,CT,,US,+1 475-330-3500,https://order.sweetgreen.com/darien/,Mo-Fr 10:30-21:00; Sa-Su 10:30-20:00,Sweetgreen,Q18636413
522,trader_joes_us,Trader Joe's Darien (522),,Darien,CT,,US,+1 203-656-1414,https://locations.traderjoes.com/ct/darien/522/,Mo-Su 08:00-21:00,Trader Joe's,Q688825
0883,upsstore,The Goodwives Shopping Center,25 Old Kings Hwy N Ste 13,Darien,CT,,US,+1 203-655-6543,https://locations.theupsstore.com/ct/darien/25-old-kings-hwy-n,,UPS Store,Q7771029
1542815,usps,NOROTON HEIGHTS,,DARIEN,CT,,US,+1 203-655-0631,,"Mo-Fr 08:45-11:30,12:30-16:30",United States Postal Service,Q668687
1360304,usps,DARIEN,,DARIEN,CT,,US,+1 203-655-2595,,Mo-Fr 08:30-17:00; Sa 09:00-12:30,United States Postal Service,Q668687
0682000018,usps_collection_boxes,USPS COLLECTION BOX - BLUE BOX,2 RENSHAW RD,DARIEN,CT,,US,,,,United States Postal Service,Q668687
0682000017,usps_collection_boxes,USPS COLLECTION BOX - BLUE BOX,1441 POST RD,DARIEN,CT,,US,,,,United States Postal Service,Q668687
0682000014,usps_collection_boxes,USPS COLLECTION BOX - BLUE BOX,1001 POST RD,DARIEN,CT,,US,,,,United States Postal Service,Q668687
0682000015,usps_collection_boxes,USPS COLLECTION BOX - BLUE BOX,950 POST RD,DARIEN,CT,,US,,,,United States Postal Service,Q668687
0682000021,usps_collection_boxes,USPS COLLECTION BOX - BLUE BOX,264 HEIGHTS RD,DARIEN,CT,,US,,,,United States Postal Service,Q668687
0682000037,usps_collection_boxes,USPS COLLECTION BOX - PO LOBBY,264A HEIGHTS RD,DARIEN,CT,,US,,,,United States Postal Service,Q668687
0682000038,usps_collection_boxes,USPS COLLECTION BOX - PO LOBBY,264A HEIGHTS RD,DARIEN,CT,,US,,,,United States Postal Service,Q668687
0682000043,usps_collection_boxes,USPS COLLECTION BOX - PO LOBBY,25 OLD KINGS HWY N,DARIEN,CT,,US,,,,United States Postal Service,Q668687
0682000010,usps_collection_boxes,USPS COLLECTION BOX - BLUE BOX,800 POST RD,DARIEN,CT,,US,,,,United States Postal Service,Q668687
0682000041,usps_collection_boxes,USPS COLLECTION BOX - PO LOBBY,25 OLD KINGS HWY N,DARIEN,CT,,US,,,,United States Postal Service,Q668687
0682000042,usps_collection_boxes,USPS COLLECTION BOX - BLUE BOX,25 OLD KINGS HWY N,DARIEN,CT,,US,,,,United States Postal Service,Q668687
https://vcahospitals.com/darien,vca,VCA Darien Animal Hospital,,Darien,CT,,US,+1 203-655-1449,https://vcahospitals.com/darien,Mo-Th 07:30-18:00; Fr 07:30-17:00; Sa 08:00-14:00,VCA,Q7906620
A00000169645,verizon_us,Wireless Zone Darien,,DARIEN,CT,,US,+1 203-202-2966,https://www.verizon.com/stores/details/connecticut/darien/wireless-zone-darien-1803322/,Mo-Sa 10:00-19:00; Su 11:00-17:00,Verizon,Q919641
,visa,,,DARIEN,CT,,US,,,,,
,visa,,,DARIEN,CT,,US,,,,,
,visa,,,DARIEN,CT,,US,,,,,
,visa,,,DARIEN,CT,,US,,,,,
,visa,,,DARIEN,CT,,US,,,,,
,visa,,,DARIEN,CT,,US,,,,,
,visa,,,DARIEN,CT,,US,,,,,
,visa,,,DARIEN,CT,,US,,,,,
,visa,,,DARIEN,CT,,US,,,,,
,visa,,,DARIEN,CT,,US,,,,,
,visa,,,DARIEN,CT,,US,,,,,
,visa,,,DARIEN,CT,,US,,,,,
,visa,,,DARIEN,CT,,US,,,,,
,visa,,,DARIEN,CT,,US,,,,,
,visa,,,DARIEN,CT,,US,,,,,
,visa,,,DARIEN,CT,,US,,,,,
,visa,,,DARIEN,CT,,US,,,,,
,visa,,,DARIEN,CT,,US,,,,,
,visa,,,DARIEN,CT,,US,,,,,
,visa,,,DARIEN,CT,,US,,,,,
https://www.walgreens.com/locator/walgreens-76+heights+rd-darien-ct-06820/id=21268,walgreens,Walgreens,,Darien,CT,,US,+1 203-655-8904,https://www.walgreens.com/locator/walgreens-76+heights+rd-darien-ct-06820/id=21268,Mo-Fr 07:00-23:00; Sa-Su 07:00-22:00,Walgreens,Q1591889
938__POST__RD_DARIEN_CT_06820,wellsfargo,,938 POST RD,DARIEN,CT,,US,+1 800-869-3557,https://www.wellsfargo.com/locator/bank/938__POST__RD_DARIEN_CT_06820/,,Wells Fargo,Q744149
310__HEIGHTS__RD_DARIEN_CT_06820,wellsfargo,Wells Fargo,310 HEIGHTS RD,DARIEN,CT,,US,+1 203-655-3455,https://www.wellsfargo.com/locator/bank/310__HEIGHTS__RD_DARIEN_CT_06820/,Mo-Fr 09:00-17:00,Wells Fargo,Q744149
adcc3e67ac443cc5976fdfbaa90f0312,western_union,WALGREENS #21268,,Darien,CT,,US,+1 203-655-8904,https://location.westernunion.com/us/ct/darien/adcc3e67ac443cc5976fdfbaa90f0312,Mo-Su 08:00-21:00,Western Union,Q861042
darien,whole_foods,Darien,150 Ledge Rd,Darien,CT,,US,+1 203-662-0577,https://www.wholefoodsmarket.com/stores/darien,Mo-Su 08:00-21:00,Whole Foods,Q1809448
