Ref,Spider,Name,Address,City,State,Zipcode,Country,Phone,Website,Hours,Brand,WikiData
67743,bluerhino,Cumberland Farms #1541,,Greenwood Lake,NY,,US,+1 845-477-3851,,,Blue Rhino,Q65681213
2042696,chase_us,Greenwood Lake - New branch,,Greenwood Lake,NY,,US,+1 845-477-2434,https://locator.chase.com/ny/greenwood-lake/138-windermere-ave,Mo-Fr 09:00-17:00; Sa 09:00-14:00,Chase,Q524629
47528,citi,ATM CVS,,Greenwood Lake,NY,,US,,,,Citibank,Q857063
ATM-1668,citizens_us,,,Greenwood Lake,NY,,US,,,,Citizens,Q5122694
520039,cumberland_farms_us,Cumberland Farms,,GREENWOOD LAKE,NY,,US,+1 845-477-3851,https://www.cumberlandfarms.com/find-us/generic-store-page/?id=001541,,Cumberland Farms,Q1143685
356928,dunkin_us,Dunkin',,Greenwood Lake,NY,,US,+1 845-595-1795,https://locations.dunkindonuts.com/en/ny/greenwood-lake/70-ten-eyck-ave/356928,Mo-Su 04:00-20:00,Dunkin',Q847743
520039,eg_america_us,Cumberland Farms,,GREENWOOD LAKE,NY,,US,+1 845-477-3851,https://www.cumberlandfarms.com/find-us/generic-store-page/?id=001541,,Cumberland Farms,Q1143685
1262,mightyflame,COUNTRY GROCERY,,GREENWOOD LAKE,NY,,US,+1 845-477-0100,,,Mighty Flame,
2386,mightyflame,KWIK MART,,GREENWOOD LAKE,NY,,US,+1 845-477-3118,,,Mighty Flame,
5228,mightyflame,THE VILLAGE MARKET,,Greenwood Lake,NY,,US,+1 845-477-0362,,,Mighty Flame,
0755434800,sunoco_us,Sunoco,,GREENWOOD LAKE,NY,,US,+1 781-395-1700,,Mo-Su 06:00-22:00,Sunoco,Q1423218
17648,true_value_us,Greenwood True Value,,Greenwood Lake,NY,,US,+1 845-477-3327,http://www.truevalue.com/greenwood,,True Value,Q7847545
1365688,usps,GREENWOOD LAKE,,GREENWOOD LAKE,NY,,US,+1 845-477-7328,,Mo-Fr 08:00-17:00; Sa 09:00-12:00,United States Postal Service,Q668687
1092500002,usps_collection_boxes,USPS COLLECTION BOX - BLUE BOX,123 WINDERMERE AVE,GREENWOOD LAKE,NY,,US,,,,United States Postal Service,Q668687
1092500004,usps_collection_boxes,USPS COLLECTION BOX - PO LOBBY,123 WINDERMERE AVE LBBY DROP,GREENWOOD LAKE,NY,,US,,,,United States Postal Service,Q668687
1092500006,usps_collection_boxes,USPS COLLECTION BOX - PO LOBBY,123 WINDERMERE AVE,GREENWOOD LAKE,NY,,US,,,,United States Postal Service,Q668687
,visa,,,PEARL RIVER,NY,,US,,,,,
,visa,,,GREENWOOD LAKE,NY,,US,,,,,
,visa,,,GREEDWOOD LAKE,NY,,US,,,,,
,visa,,,GREENWOOD LAKE,NY,,US,,,,,
,visa,,,GREENWOOD LAKE,NY,,US,,,,,
,visa,,,GREENWOOD LAKE,NY,,US,,,,,
,visa,,,GREENWOOD LAKE,NY,,US,,,,,
,visa,,,GREENWOOD LAKE,NY,,US,,,,,
,visa,,,GREENWOOD LAKE,NY,,US,,,,,
,visa,,,GREENWOOD LAKE,NY,,US,,,,,
,visa,,,GREENWOOD LAKE,NY,,US,,,,,
,visa,,,GREENWOOD LAKE,NY,,US,,,,,
,visa,,,GREENWOOD LAKE,NY,,US,,,,,
,visa,,,GREENWOOD LAKE,NY,,US,,,,,
,visa,,,GREENWOOD LAKE,NY,,US,,,,,
,visa,,,GREENWOOD LAKE,NY,,US,,,,,
,visa,,,GREENWOOD LAKE,NY,,US,,,,,
,visa,,,GREENWOOD LAKE,NY,,US,,,,,
,visa,,,GREENWOOD LAKE,NY,,US,,,,,
,visa,,,GREENWOOD LAKE,NY,,US,,,,,
