Ref,Spider,Name,Address,City,State,Zipcode,Country,Phone,Website,Hours,Brand,WikiData
32095,family_dollar_us,FAMILY DOLLAR #12095,,Sebastian,TX,,US,+1 956-347-8105,https://www.familydollar.com/locations/tx/sebastian/32095/,Mo-Sa 09:00-22:00; Su 09:00-21:00,Family Dollar,Q5433101
https://local.fedex.com/#25230303,fedex,,,Lyford,TX,,US,+1 800-463-3339,https://local.fedex.com/en-us/tx/lyford/hrlai,,FedEx,Q459477
https://www.ford.com/dealerships/dealer-details/tx/lyford/bert-ogden-ford/,ford_dealers_us,Bert Ogden Ford,,Lyford,TX,,US,+1 956-300-1778,https://www.ford.com/dealerships/dealer-details/tx/lyford/bert-ogden-ford/,Mo-Sa 08:30-20:00,Ford Motor Company,Q44294
https://restaurants.subway.com/#14913470,subway,Subway,,Lyford Willacy,TX,,US,+1 956-349-2008,https://restaurants.subway.com/united-states/tx/lyford/8318-north-business,Mo-Su 09:00-22:00,Subway,Q244457
1371210,usps,LYFORD,,LYFORD,TX,,US,+1 956-347-3537,,"Mo-Fr 08:30-12:30,13:30-16:30",United States Postal Service,Q668687
7856900000,usps_collection_boxes,USPS COLLECTION BOX - BLUE BOX,13461 W BROADWAY,LYFORD,TX,,US,,,,United States Postal Service,Q668687
7856900001,usps_collection_boxes,USPS COLLECTION BOX - PO LOBBY,13461 W BROADWAY,LYFORD,TX,,US,,,,United States Postal Service,Q668687
7856900003,usps_collection_boxes,USPS COLLECTION BOX - PO LOBBY,13461 W BROADWAY,LYFORD,TX,,US,,,,United States Postal Service,Q668687
,visa,,,LYFORD,TX,,US,,,,,
,visa,,,LYFORD,TX,,US,,,,,
,visa,,,LYFORD,TX,,US,,,,,
,visa,,,LYFORD,TX,,US,,,,,
,visa,,,LYFORD,TX,,US,,,,,
,visa,,,LYFORD,TX,,US,,,,,
,visa,,,LYFORD,TX,,US,,,,,
,visa,,,LYFORD,TX,,US,,,,,
,visa,,,LYFORD,TX,,US,,,,,
,visa,,,LYFORD,TX,,US,,,,,
,visa,,,LYFORD,TX,,US,,,,,
,visa,,,LYFORD,TX,,US,,,,,
,visa,,,LYFORD,TX,,US,,,,,
,visa,,,LYFORD,TX,,US,,,,,
,visa,,,LYFORD,TX,,US,,,,,
,visa,,,LYFORD,TX,,US,,,,,
