Ref,Spider,Name,Address,City,State,Zipcode,Country,Phone,Website,Hours,Brand,WikiData
322,aaa,Tri-Cities Regional Office,,Johnson City,TN,,US,+1 423-928-7671,,,American Automobile Association,Q463436
https://www.academy.com/storelocator/#8745441,academy_us,Academy Sports + Outdoors,,Johnson City,TN,,US,+1 423-434-1300,https://www.academy.com/storelocator/tennessee/johnson-city/store-0235,Mo-Th 09:00-21:00; Fr 09:00-22:00; Sa 08:00-22:00; Su 09:00-21:00,Academy Sports + Outdoors,Q4671380
https://stores.advanceautoparts.com/tn/johnson-city/925-w-market-st,advance_auto_parts_us,Advance Auto Parts,,Johnson City,TN,,US,+1 423-928-8225,https://stores.advanceautoparts.com/tn/johnson-city/925-w-market-st,Mo-Sa 07:30-21:00; Su 09:00-20:00,Advance Auto Parts,Q4686051
https://stores.advanceautoparts.com/tn/johnson-city/108-university-pkwy,advance_auto_parts_us,Advance Auto Parts,,Johnson City,TN,,US,+1 423-926-9004,https://stores.advanceautoparts.com/tn/johnson-city/108-university-pkwy,Mo-Sa 07:30-21:00; Su 09:00-20:00,Advance Auto Parts,Q4686051
https://stores.aldi.us/#4420460,aldi_sud_us,ALDI  1400 W Market St,,Johnson City,TN,,US,+1 833-466-1066,https://stores.aldi.us/tn/johnson-city/1400-w-market-st,"Mo-Su 08:30-20:00,09:00-20:00",ALDI,Q41171672
https://stores.ashleyfurniture.com/store/us/tennessee/johnson-city/7710000393/,ashley_furniture,"Ashley Store Johnson City, TN",,Johnson City,TN,,US,+1 423-283-0102,https://stores.ashleyfurniture.com/store/us/tennessee/johnson-city/7710000393/,,Ashley Furniture,Q4805437
42810,asics_us,Academy Sports + Outdoors,925 Hamilton Pl Dr,Johnson City,TN,,US,+1 423-434-1300,,,asics,Q327247
69797,asics_us,Fleet Feet Johnson City,1735 W State of Franklin Rd Unit 4,Johnson City,TN,,US,+1 423-461-0550,,Mo-Fr 10:00-19:00; Sa 09:00-17:00; Su 13:00-17:00,asics,Q327247
62292,asics_us,Shoe Carnival,3211 Peoples St,Johnson City,TN,,US,+1 423-282-5819,,,asics,Q327247
233,autozone_us,AutoZone Auto Parts Johnson City,,Johnson City,TN,,US,+1 423-929-1177,https://www.autozone.com/locations/tn/johnson-city/1017-w-market-st.html,Mo-Fr 07:30-21:00; Sa 07:30-20:00; Su 09:00-20:00,AutoZone,Q4826087
551,batteriesplus,"Get your batteries, light bulbs &amp; more in Johnson City",,Johnson City,TN,,US,+1 423-282-3007,https://www.batteriesplus.com/store-locator/tn/johnsoncity/batteries-plus-551,Mo-Fr 08:00-20:00; Sa 09:00-19:00; Su 10:00-18:00,Batteries Plus Bulbs,Q17005157
https://stores.bestbuy.com/tn/johnson-city/3222-peoples-st-899.html,bestbuy,Best Buy Johnson City,,Johnson City,TN,,US,+1 423-262-0329,https://stores.bestbuy.com/tn/johnson-city/3222-peoples-st-899.html,,Best Buy,Q533415
192383,bluerhino,Murphy's #7425,,Johnson City,TN,,US,+1 423-926-0764,,,Blue Rhino,Q65681213
95477,bluerhino,Walmart #3829 - Supercenter,,Johnson City,TN,,US,+1 423-434-2250,,,Blue Rhino,Q65681213
4844,bluerhino,Walmart #1080 - Supercenter,,Johnson City,TN,,US,+1 423-282-5376,,,Blue Rhino,Q65681213
161185,bluerhino,Kroger #367 - MidAtlantic-Fuel Site,,Johnson City,TN,,US,+1 423-929-1408,,,Blue Rhino,Q65681213
42774,bluerhino,Kroger #367 - MidAtlantic,,Johnson City,TN,,US,+1 423-929-1408,,,Blue Rhino,Q65681213
tn/johnson-city/2108-w-mountcastle-drive,bojangles,"Bojangles Johnson City, TN",,Johnson City,TN,,US,+1 423-232-2884,https://locations.bojangles.com/tn/johnson-city/2108-w-mountcastle-drive.html,,Bojangles',Q891163
87632511358323760400100000000000,bp,BP,,JOHNSON CITY,TN,,US,+1 423-434-2224,,24/7,BP,Q152057
39223705829013760400100000000000,bp,BP,,Johnson City,TN,,US,+1 423-929-1061,,24/7,BP,Q152057
10508,brookdale_us,Brookdale Johnson City,,Johnson City,TN,,US,+1 423-915-0110,https://www.brookdale.com/en/communities/brookdale-johnson-city.html,,Brookdale,Q4974387
https://locations.carrabbas.com/#15502926,carrabbasitaliangrill,"Carrabba's Johnson City, TN",,Johnson City,TN,,US,+1 423-232-2858,https://locations.carrabbas.com/tennessee/johnson-city/175-market-place-blvd,Mo-Th 11:00-22:00; Fr-Sa 11:00-23:00; Su 11:00-21:00,Carrabba's Italian Grill,Q5045999
https://stores.catofashions.com/#26560828,cato_us,Cato,,,TN,,US,+1 423-928-1612,https://stores.catofashions.com/tn/johnson-city/3101-west-market-street,Mo-Sa 10:00-19:00; Su 13:00-18:00,Cato,Q16956136
001.005.0798,chilis,Johnson City,,Johnson City,TN,,US,+1 423-283-4229,https://www.chilis.com/locations/us/tennessee/johnson-city/johnson-city/,Mo-Th 11:00-22:00; Fr-Sa 11:00-23:00; Su 11:00-22:00,Chili's,Q1072948
https://locations.chuckecheese.com/us/tn/johnsoncity/3020-peoples-st.,chuckecheese,Chuck E. Cheese,,Johnson City,TN,,US,+1 423-282-3069,https://locations.chuckecheese.com/us/tn/johnsoncity/3020-peoples-st.,Mo-Th 11:00-21:00; Fr 11:00-22:00; Sa 10:00-22:00; Su 11:00-21:00,Chuck E. Cheese,Q2438391
75605,citi,ATM SELECT SEVEN CREDIT UNION,,Johnson City,TN,,US,,,,Citibank,Q857063
75608,citi,ATM SELECT SEVEN CREDIT UNION,,Johnson City,TN,,US,,,,Citibank,Q857063
53067,citi,ATM CVS,,Johnson City,TN,,US,,,,Citibank,Q857063
66518,citi,ATM Northeast Community CU,,Johnson City,TN,,US,,,,Citibank,Q857063
91043,citi,ATM Walgreens,,Johnson City,TN,,US,,,,Citibank,Q857063
73821,citi,ATM Roadrunner Market,,Johnson City,TN,,US,,,,Citibank,Q857063
61109,citi,ATM Kroger,,Johnson City,TN,,US,,,,Citibank,Q857063
73845,citi,ATM Roadrunner Market,,Johnson City,TN,,US,,,,Citibank,Q857063
395,cookout,Johnson City,,Johnson City,TN,,US,,https://www.facebook.com/Cook-Out-Johnson-City-161469887286294/,Mo-Th 10:30-03:00; Fr-Sa 10:30-04:00; Su 10:30-03:00,Cookout,Q5166992
,credit_union_us,The Tennessee CU,,Johnson City,TN,,US,+1 423-915-0222,,Mo-Th 09:00-05:00; Fr 09:00-06:00,,
80193240,cricket_wireless,Cricket Wireless Authorized Retailer,,Johnson City,TN,,US,+1 423-430-6275,https://www.cricketwireless.com/stores/ll/US/TN/Johnson-City/612-Lyle-St,Mo-Sa 10:00-19:00; Su 12:00-18:00,Cricket Wireless,Q5184987
80193467,cricket_wireless,Cricket Wireless Authorized Retailer,,Johnson City,TN,,US,+1 423-430-8250,https://www.cricketwireless.com/stores/ll/US/TN/Johnson-City/3101-W-Market-St,Mo-Sa 10:00-19:00; Su 12:00-18:00,Cricket Wireless,Q5184987
5636,cvs_us,CVS Pharmacy,,Johnson City,TN,,US,+1 423-979-2200,https://www.cvs.com/store-locator/johnson-city-tn-pharmacies/840-w-market-st-johnson-city-tn-37604/storeid=5636,Mo-Fr 08:00-21:00; Sa-Su 09:00-21:00,CVS Pharmacy,Q2078880
vc_0701V,department_veterans_affairs,Johnson City Vet Center,,Johnson City,TN,,US,+1 423-928-8387,https://www.va.gov/johnson-city-vet-center/,,Department Veterans Affairs,Q592576
5470,dominos_pizza_us,Domino's Pizza,,Johnson City,TN,,US,+1 423-928-2020,https://pizza.dominos.com/tennessee/johnson-city/745-w-walnut-st,Mo-Th 10:00-02:00; Fr-Sa 10:00-03:00; Su 10:00-02:00,Domino's,Q839466
349201,dunkin_us,Dunkin',,Johnson City,TN,,US,+1 423-282-9447,https://locations.dunkindonuts.com/en/tn/johnson-city/900-sunset-dr/349201,24/7,Dunkin',Q847743
359502,dunkin_us,Dunkin',,Johnson City,TN,,US,+1 423-650-6452,https://locations.dunkindonuts.com/en/tn/johnson-city/344-j-l-seehorn-jr-rd/359502,Mo-Th 07:30-21:00; Fr 07:30-18:00; Sa-Su 00:00-24:00,Dunkin',Q847743
https://www.edwardjones.com/us-en/financial-advisor/rebekah-rockett,edwardjones,Rebekah L Rockett,,Johnson City,TN,,US,+1 423-929-9093,https://www.edwardjones.com/us-en/financial-advisor/rebekah-rockett,Mo-Th 09:00-17:00,Edward Jones,Q5343830
https://local.fedex.com/#25197609,fedex,,,Johnson City,TN,,US,+1 800-463-3339,https://local.fedex.com/en-us/tn/johnson-city/bbjzk,,FedEx,Q459477
https://local.fedex.com/#25145185,fedex,FedEx Authorized ShipCenter,,Johnson City,TN,,US,+1 423-926-9995,https://local.fedex.com/en-us/tn/johnson-city/51467,,FedEx,Q459477
https://locations.fivebelow.com/tn/johnson-city/3211-peoples-street,five_below,Five Below Johnson City Crossing,,Johnson City,TN,,US,,https://locations.fivebelow.com/tn/johnson-city/3211-peoples-street,Mo-Sa 10:00-20:00; Su 11:00-18:00,Five Below,Q5455836
1391,fresenius_kidney_care_us,Fresenius Kidney Care Johnson City,,Johnson City,TN,,US,+1 800-881-5101,https://www.freseniuskidneycare.com/dialysis-centers/tennessee/1391,Mo-Sa 06:00-17:00,,
3554,gamestop_us,Shoppes on West Mark,,Johnson City,TN,,US,+1 423-926-0449,https://www.gamestop.com/search/?store=3554,Mo-Th 12:00-19:00; Fr-Sa 11:00-21:00; Su 12:00-19:00,GameStop,Q202210
4892,gamestop_us,Johnson City Crossings,,JOHNSON CITY,TN,,US,+1 423-282-3652,https://www.gamestop.com/search/?store=4892,Mo-Th 12:00-20:00; Fr-Sa 11:00-21:00; Su 12:00-19:00,GameStop,Q202210
tri-cities_kathryn-robinson,geico,Katie Robinson,,Johnson City,TN,,US,+1 423-549-6154,https://www.geico.com/insurance-agents/tennessee/tri-cities/kathryn-robinson/,,GEICO,Q1498689
https://www.goldencorral.com/locations/location-detail/904/golden-corral-browns-mill-road/,golden_corral,"Golden Corral 904, Johnson city, TN",,Johnson city,TN,,US,+1 423-854-9400,https://www.goldencorral.com/locations/location-detail/904/golden-corral-browns-mill-road/,,Golden Corral,Q4039560
https://salons.greatclips.com/us/tn/johnson-city/3120-peoples-st,greatclips,Great Clips,,Johnson City,TN,,US,+1 423-328-0423,https://salons.greatclips.com/us/tn/johnson-city/3120-peoples-st,Mo-Fr 09:00-19:00; Sa 09:00-18:00; Su 12:00-18:00,Great Clips,Q5598967
https://salons.greatclips.com/us/tn/johnson-city/3101-w-market-st,greatclips,Great Clips,,Johnson City,TN,,US,+1 423-328-0244,https://salons.greatclips.com/us/tn/johnson-city/3101-w-market-st,Mo-Fr 09:00-19:00; Sa 09:00-18:00; Su 12:00-18:00,Great Clips,Q5598967
https://www.harborfreight.com/storelocator/3302-w-market-st-ste-5-johnson-city-37604?number=192,harborfreight,"Harbor Freight Tools Johnson City, TN",,Johnson City,TN,,US,+1 423-926-0616,https://www.harborfreight.com/storelocator/3302-w-market-st-ste-5-johnson-city-37604?number=192,Mo-Sa 08:00-20:00; Su 09:00-18:00,Harbor Freight Tools,Q5654601
1501864,hardees_us,Hardee's,,Johnson City,TN,,US,+1 423-929-7667,https://locations.hardees.com/tn/johnson-city/2102-west-market-st,,Hardee's,Q1585088
tridtdt-doubletree-johnson-city,hilton,DoubleTree by Hilton Hotel Johnson City,,,TN,,US,+1 423-929-2000,https://www.hilton.com/ar/hotels/tridtdt-doubletree-johnson-city/,,DoubleTree by Hilton,Q2504643
trijchx-hampton-johnson-city,hilton,Hampton Inn Johnson City,,,TN,,US,+1 423-929-8000,https://www.hilton.com/ar/hotels/trijchx-hampton-johnson-city/,,Hampton by Hilton,Q5646230
1538,honey_baked,HoneyBaked of Johnson City,,Johnson City,TN,,US,+1 423-854-9414,https://www.honeybaked.com/stores/1538,,Honey Baked Ham,Q5893363
39874,h_r_block,H&R Block,,Johnson City,TN,,US,+1 423-434-2155,https://www.hrblock.com/local-tax-offices/tennessee/johnson-city/center-west-shopping-center/39874/,,H&R Block,Q5627799
tn_johnson-city_breakfast-3214-peoples-st-4440,ihop,IHOP Breakfast Restaurants Near You at 3214 Peoples St,,Johnson City,TN,,US,+1 423-427-2550,https://restaurants.ihop.com/en-us/tn/johnson-city/breakfast-3214-peoples-st-4440,,IHOP,Q1185675
372,ingles,Johnson City,,Johnson City,TN,,US,+1 423-952-0815,https://www.ingles-markets.com/storelocate/storeinfo.php?storenum=372,Mo-Su 06:00-23:00,Ingles,Q6032595
https://office.jacksonhewitt.com/#27580296,jackson_hewitt,Jackson Hewitt,,Johnson City,TN,,US,+1 423-610-1009,https://office.jacksonhewitt.com/tax-preparation-services-locations/en/tn/johnson-city/3111-browns-mill-rd/51080,Mo-Fr 09:00-19:00; Sa 09:00-18:00; Su 13:00-18:00,Jackson Hewitt,Q6117132
https://locations.jimmyjohns.com/tn/johnsoncity/sandwiches-1788.html,jimmy_johns,Jimmy John's,,Johnson City,TN,,US,+1 423-232-4090,https://locations.jimmyjohns.com/tn/johnsoncity/sandwiches-1788.html,,Jimmy John's,Q1689380
300641,kindercare,Johnson City KinderCare,,Johnson City,TN,,US,,https://www.kindercare.com/our-centers/johnson-city/tn/300641,,KinderCare Learning Centers,Q6410551
191,kohls_us,Kohl's,,Johnson City,TN,,US,+1 423-282-1107,https://www.kohls.com/stores/tn/johnsoncity-191.shtml,Mo-Sa 09:00-21:00; Su 09:00-20:00,Kohl's,Q967265
157793,marathon_petroleum_us,QUICK STOP MARKET,,JOHNSON CITY,TN,,US,+1 423-929-9100,,,Marathon,Q458363
TRIJC,marriott,Courtyard Johnson City,,Johnson City,TN,,US,+1 423-262-0275,https://www.marriott.com/TRIJC,,Courtyard by Marriott,Q1053170
TRITN,marriott,Fairfield Inn & Suites Johnson City,,Johnson City,TN,,US,+1 423-900-8640,https://www.marriott.com/TRITN,,Fairfield by Marriott,Q5430314
https://locations.moes.com/#895,moes,Moe's Southwest Grill,,Johnson City,TN,,US,+1 423-232-1930,https://locations.moes.com/tn/johnson-city/421-n-state-of-franklin-road,Mo-Th 11:00-21:30; Fr-Sa 11:00-22:00; Su 11:00-21:00,Moe's Southwest Grill,Q6889938
71448439,moneygram,WAL-MART - #1080,,JOHNSON CITY,TN,,US,+1 423-282-5376,,Mo-Sa 08:00-20:00; Su 10:00-18:00,MoneyGram,Q1944412
7425,murphy_usa_us,,,Johnson City,TN,,US,+1 423-251-1603,,Mo-Sa 05:30-00:00; Su 06:00-23:30,Murphy USA,Q19604459
5822,murphy_usa_us,,,Johnson City,TN,,US,+1 423-282-3206,,Mo-Sa 05:30-00:00; Su 06:00-23:30,Murphy USA,Q19604459
48061,orangetheory_fitness,"Johnson City, TN",,Johnson City,TN,,US,+1 423-497-3461,,,Orangetheory Fitness,Q25005163
https://locations.oreillyauto.com/tn/johnsoncity/check-engine-light-testing-2245.html,oreilly,Your Johnson City O'Reilly Auto Parts Store,,Johnson City,TN,,US,+1 423-434-2137,https://locations.oreillyauto.com/tn/johnsoncity/check-engine-light-testing-2245.html,Mo-Sa 07:30-21:00; Su 08:00-20:00,O'Reilly Auto Parts,Q7071951
https://locations.oreillyauto.com/tn/johnsoncity/wiper-installation-2245.html,oreilly,Your Johnson City O'Reilly Auto Parts Store,,Johnson City,TN,,US,+1 423-434-2137,https://locations.oreillyauto.com/tn/johnsoncity/wiper-installation-2245.html,Mo-Sa 07:30-21:00; Su 08:00-20:00,O'Reilly Auto Parts,Q7071951
https://locations.oreillyauto.com/tn/johnsoncity/battery-testing-2245.html,oreilly,Your Johnson City O'Reilly Auto Parts Store,,Johnson City,TN,,US,+1 423-434-2137,https://locations.oreillyauto.com/tn/johnsoncity/battery-testing-2245.html,Mo-Sa 07:30-21:00; Su 08:00-20:00,O'Reilly Auto Parts,Q7071951
https://locations.oreillyauto.com/tn/johnsoncity/autopartes-2245.html,oreilly,Tu tienda O'Reilly Auto Parts en Johnson City,,Johnson City,TN,,US,+1 423-434-2137,https://locations.oreillyauto.com/tn/johnsoncity/autopartes-2245.html,Mo-Sa 07:30-21:00; Su 08:00-20:00,O'Reilly Auto Parts,Q7071951
https://locations.outback.com/#15502277,outbacksteakhouse,Outback Steakhouse,,Johnson City,TN,,US,+1 423-283-9222,https://locations.outback.com/tennessee/johnson-city/3101-browns-mill-road,Mo-Sa 11:00-22:00; Su 11:00-21:00,Outback Steakhouse,Q1064893
112984,pandaexpress,State of Franklin & Sunset,,Johnson City,TN,,US,+1 423-262-0337,https://www.pandaexpress.com/locations/tn/johnson-city/922-n-state-of-franklin-road,Mo-Sa 10:00-22:00; Su 10:30-22:00,Panda Express,Q1358690
usfa2a655c,pandora,About Pandora Jewelry Authorized Retailer - Dempsey&#039;s Jewelers,,Johnson City,TN,,US,+1 423-282-5510,https://stores.pandora.net/tn/johnsoncity/pandora-jewelry-usfa2a655c.html,Mo 10:00-17:30; Tu 10:00-17:00; We-Fr 10:00-17:30; Sa 10:00-15:00,Pandora,Q2241604
https://locations.papajohns.com/#10691745,papa_johns,Papa John's,,Johnson City,TN,,US,+1 423-434-2424,https://locations.papajohns.com/united-states/tn/37604/johnson-city/801-west-walnut-street,Mo-Th 10:00-23:00; Fr-Sa 10:00-24:00; Su 10:00-23:00,Papa John's Pizza,Q2759586
075431,penske,Just Store It,,JOHNSON CITY,TN,,US,+1 423-282-1867,https://www.pensketruckrental.com/locations/us/tennessee/johnson_city/075431/,,Penske,Q81234570
075437,penske,Home Depot #0701,,JOHNSON CITY,TN,,US,+1 423-952-4378,https://www.pensketruckrental.com/locations/us/tennessee/johnson_city/075437/,,Penske,Q81234570
tn_johnson-city_827-w-walnut-st,pizza_hut_us,827 W Walnut St,,Johnson City,TN,,US,+1 423-794-5020,https://locations.pizzahut.com/tn/johnson-city/827-w-walnut-st,,Pizza Hut,Q191615
home-depot-0701-9222,ppgpaints,HOME DEPOT 0701,,"Johnson City, ",TN,,US,+1 423-915-1111,https://www.ppgpaints.com/store-locator/us/tennessee/johnson-city-paint-stores/home-depot-0701-9222,,PPG Paints,Q83891559
688,ross_dress_for_less_us,Johnson City,,Johnson City,TN,,US,+1 423-232-1231,,Mo-Th 09:30-21:30; Fr-Sa 09:00-23:00; Su 10:00-21:00,Ross Dress for Less,Q3442791
https://stores.saloncentric.com/#29173623,salon_centric_us,SalonCentric,,,TN,,US,+1 423-975-9999,https://stores.saloncentric.com/tn/johnson-city/2206,Mo 08:00-18:30; Tu-Fr 08:00-18:00; Sa 08:30-16:00,SalonCentric,Q124339481
8222,sams_club,Johnson City Sam's Club,,Johnson City,TN,,US,+1 423-282-2303,https://www.samsclub.com/club/johnson-city-tn-sams-club/8222,Mo 10:00-20:00; Sa 09:00-20:00; Su 10:00-18:00,Sam's Club,Q1972120
346,shoe_carnival_us,Shoe Carnival,,Johnson City,TN,,US,+1 423-282-5819,https://stores.shoecarnival.com/tn/johnsoncity/shoe-store-johnson-city-tn-346.html,Mo-Sa 10:00-21:00; Su 11:00-19:00,Shoe Carnival,Q7500007
https://restaurants.subway.com/#14911261,subway,Subway Roadrunner,,Johnson City Washington,TN,,US,+1 423-926-3544,https://restaurants.subway.com/united-states/tn/johnson-city/1702-1/2-w-market-st,Mo-Su 09:00-23:00,Subway,Q244457
https://restaurants.subway.com/#14903487,subway,Subway,,Johnson City Washington,TN,,US,+1 423-610-0700,https://restaurants.subway.com/united-states/tn/johnson-city/520-w-oakland-ave,Mo-Su 09:00-22:30,Subway,Q244457
https://restaurants.subway.com/#14900468,subway,Subway,,Johnson City Washington,TN,,US,+1 423-672-1755,https://restaurants.subway.com/united-states/tn/johnson-city/1120-w-state-of-franklin-road,Mo-Su 09:00-23:00,Subway,Q244457
0927085100,sunoco_us,Sunoco,,JOHNSON CITY,TN,,US,+1 423-929-0923,,24/7,Sunoco,Q1423218
https://locations.tacobell.com/#6145258,taco_bell,Taco Bell,,Johnson City,TN,,US,+1 423-929-2644,https://locations.tacobell.com/tn/johnson-city/2100-west-market-street.html,Mo-Su 08:00-04:00,Taco Bell,Q752941
5B28,tmobile_us,Sam's Club Johnson City TN,,Johnson City,TN,,US,+1 423-504-7550,https://www.t-mobile.com/store-locator/tn/johnson-city/sams-club-johnson-city-tn,,T-Mobile,Q3511885
https://www.trekbikes.com/us/en_US/retail/johnson_city/,trekbikes,Trek Bicycle Johnson City,,Johnson City,TN,,US,+1 423-797-8735,https://www.trekbikes.com/us/en_US/retail/johnson_city/,Mo-Fr 11:00-18:00; Sa 10:00-18:00; Su 12:00-17:00,Trek,Q1067617
https://www.ubreakifix.com/locations/johnsoncity,ubreakifix,uBreakiFix Johnson City,,Johnson City,TN,,US,+1 423-431-8077,https://www.ubreakifix.com/locations/johnsoncity,Mo 10:00-19:00; We-Sa 10:00-19:00; Su 12:00-17:00,uBreakiFix,Q53685733
"Mountain Empire Surgery Center, Johnson City, Tennessee",united_surgical_partners_international,Mountain Empire Surgery Center,601 Med Tech Parkway ,Johnson City,TN,,US,+1 423-610-1020,na,,United Surgical Partners International,Q7893575
1357113,usps,CARROLL REECE,,JOHNSON CITY,TN,,US,+1 423-283-4966,,Mo-Fr 08:30-19:00; Sa 09:00-13:00,United States Postal Service,Q668687
3760400088,usps_collection_boxes,USPS COLLECTION BOX - PO LOBBY,1100 N STATE OF FRANKLIN RD,JOHNSON CITY,TN,,US,,,,United States Postal Service,Q668687
3760400082,usps_collection_boxes,USPS COLLECTION BOX - BLUE BOX,2203 MCKINLEY RD,JOHNSON CITY,TN,,US,,,,United States Postal Service,Q668687
3760400067,usps_collection_boxes,USPS COLLECTION BOX - BLUE BOX,325 N STATE OF FRANKLIN RD,JOHNSON CITY,TN,,US,,,,United States Postal Service,Q668687
3760400073,usps_collection_boxes,USPS COLLECTION BOX - BLUE BOX,2 PROFESSIONAL PARK DR,JOHNSON CITY,TN,,US,,,,United States Postal Service,Q668687
3760400071,usps_collection_boxes,USPS COLLECTION BOX - PO LOBBY,1100 N STATE OF FRANKLIN RD,JOHNSON CITY,TN,,US,,,,United States Postal Service,Q668687
3760400064,usps_collection_boxes,USPS COLLECTION BOX - BLUE BOX,1100 N STATE OF FRANKLIN RD,JOHNSON CITY,TN,,US,,,,United States Postal Service,Q668687
3760400028,usps_collection_boxes,USPS COLLECTION BOX - BLUE BOX,310 N STATE OF FRANKLIN RD,JOHNSON CITY,TN,,US,,,,United States Postal Service,Q668687
3760400078,usps_collection_boxes,USPS COLLECTION BOX - BLUE BOX,310 N STATE OF FRANKLIN RD,JOHNSON CITY,TN,,US,,,,United States Postal Service,Q668687
3760400033,usps_collection_boxes,USPS COLLECTION BOX - BLUE BOX,400 N STATE OF FRANKLIN RD,JOHNSON CITY,TN,,US,,,,United States Postal Service,Q668687
3760400080,usps_collection_boxes,USPS COLLECTION BOX - BLUE BOX,101 MED TECH PKWY,JOHNSON CITY,TN,,US,,,,United States Postal Service,Q668687
3760400035,usps_collection_boxes,USPS COLLECTION BOX - BLUE BOX,408 N STATE OF FRANKLIN RD,JOHNSON CITY,TN,,US,,,,United States Postal Service,Q668687
3760400077,usps_collection_boxes,USPS COLLECTION BOX - BLUE BOX,1019 W OAKLAND AVE,JOHNSON CITY,TN,,US,,,,United States Postal Service,Q668687
3760400051,usps_collection_boxes,USPS COLLECTION BOX - BLUE BOX,1611 W MARKET ST,JOHNSON CITY,TN,,US,,,,United States Postal Service,Q668687
3760400075,usps_collection_boxes,USPS COLLECTION BOX - BLUE BOX,1113 SUNSET CT,JOHNSON CITY,TN,,US,,,,United States Postal Service,Q668687
3760400057,usps_collection_boxes,USPS COLLECTION BOX - BLUE BOX,926 W OAKLAND AVE,JOHNSON CITY,TN,,US,,,,United States Postal Service,Q668687
3760400037,usps_collection_boxes,USPS COLLECTION BOX - BLUE BOX,1735 W STATE OF FRANKLIN RD,JOHNSON CITY,TN,,US,,,,United States Postal Service,Q668687
3760400042,usps_collection_boxes,USPS COLLECTION BOX - BLUE BOX,805 SUNSET DR,JOHNSON CITY,TN,,US,,,,United States Postal Service,Q668687
3760400036,usps_collection_boxes,USPS COLLECTION BOX - BLUE BOX,1500 W STATE OF FRANKLIN RD,JOHNSON CITY,TN,,US,,,,United States Postal Service,Q668687
3760400060,usps_collection_boxes,USPS COLLECTION BOX - BLUE BOX,3300 BROWNS MILL RD,JOHNSON CITY,TN,,US,,,,United States Postal Service,Q668687
3760400005,usps_collection_boxes,USPS COLLECTION BOX - BLUE BOX,1310 CHEROKEE RD,JOHNSON CITY,TN,,US,,,,United States Postal Service,Q668687
3760400038,usps_collection_boxes,USPS COLLECTION BOX - BLUE BOX,208 SUNSET DR,JOHNSON CITY,TN,,US,,,,United States Postal Service,Q668687
3760400006,usps_collection_boxes,USPS COLLECTION BOX - BLUE BOX,2311 BROWNS MILL RD,JOHNSON CITY,TN,,US,,,,United States Postal Service,Q668687
3760400056,usps_collection_boxes,USPS COLLECTION BOX - BLUE BOX,405 MONTGOMERY ST,JOHNSON CITY,TN,,US,,,,United States Postal Service,Q668687
3760400030,usps_collection_boxes,USPS COLLECTION BOX - BLUE BOX,428 W WALNUT ST,JOHNSON CITY,TN,,US,,,,United States Postal Service,Q668687
3760400001,usps_collection_boxes,USPS COLLECTION BOX - BLUE BOX,300 N BOONE ST,JOHNSON CITY,TN,,US,,,,United States Postal Service,Q668687
3760400058,usps_collection_boxes,USPS COLLECTION BOX - BLUE BOX,100 W MILLARD ST,JOHNSON CITY,TN,,US,,,,United States Postal Service,Q668687
3760400021,usps_collection_boxes,USPS COLLECTION BOX - BLUE BOX,202 E MAIN ST,JOHNSON CITY,TN,,US,,,,United States Postal Service,Q668687
3760400046,usps_collection_boxes,USPS COLLECTION BOX - BLUE BOX,210 W MAPLE ST,JOHNSON CITY,TN,,US,,,,United States Postal Service,Q668687
3760400059,usps_collection_boxes,USPS COLLECTION BOX - BLUE BOX,103 W KING ST,JOHNSON CITY,TN,,US,,,,United States Postal Service,Q668687
johnsoncity_oil-change-040142,valvoline_instant_oil_change,Valvoline,1413 Sunset Drive ,Johnson City,TN,,US,+1 423-491-4382,https://store.vioc.com/tn/johnsoncity/oil-change-040142.html,,Valvoline Instant Oil Change,Q7912852
R00000000690,verizon_us,Johnson City,,Johnson City,TN,,US,+1 423-926-9296,https://www.verizon.com/stores/details/tennessee/johnson-city/johnson-city-308496/,Mo-Sa 10:00-20:00; Su 11:00-18:00,Verizon,Q919641
A00000251811,verizon_us,Russell Cellular Johnson City,,JOHNSON CITY,TN,,US,+1 423-926-2009,https://www.verizon.com/stores/details/tennessee/johnson-city/russell-cellular-johnson-city-1563122/,Mo-Sa 09:00-19:00; Su 11:00-17:00,Verizon,Q919641
,visa,,,JOHNSON CITY,TN,,US,,,,,
,visa,,,JOHNSON CITY,TN,,US,,,,,
,visa,,,JOHNSON CITY,TN,,US,,,,,
,visa,,,JOHNSON CITY,TN,,US,,,,,
,visa,,,JOHNSON CITY,TN,,US,,,,,
,visa,,,JOHNSON CITY,TN,,US,,,,,
,visa,,,JOHNSON CITY,TN,,US,,,,,
,visa,,,JOHNSON CITY,TN,,US,,,,,
,visa,,,JOHNSON CITY,TN,,US,,,,,
,visa,,,JOHNSON CITY,TN,,US,,,,,
,visa,,,JOHNSON CITY,TN,,US,,,,,
,visa,,,JOHNSON CITY,TN,,US,,,,,
,visa,,,JOHNSON CITY,TN,,US,,,,,
,visa,,,JOHNSON CITY,TN,,US,,,,,
,visa,,,JOHNSON CITY,TN,,US,,,,,
,visa,,,JOHNSON CITY,TN,,US,,,,,
,visa,,,JOHNSON CITY,TN,,US,,,,,
,visa,,,JOHNSON CITY,TN,,US,,,,,
,visa,,,JOHNSON CITY,TN,,US,,,,,
,visa,,,JOHNSON CITY,TN,,US,,,,,
,visa,,,JOHNSON CITY,TN,,US,,,,,
,visa,,,JOHNSON CITY,TN,,US,,,,,
,visa,,,JOHNSON CITY,TN,,US,,,,,
,visa,,,JOHNSON CITY,TN,,US,,,,,
,visa,,,JOHNSON CITY,TN,,US,,,,,
,visa,,,JOHNSON CITY,TN,,US,,,,,
,visa,,,JOHNSON CITY,TN,,US,,,,,
,visa,,,JOHNSON CITY,TN,,US,,,,,
,visa,,,JOHNSON CITY,TN,,US,,,,,
,visa,,,JOHNSON CITY,TN,,US,,,,,
,visa,,,JOHNSON CITY,TN,,US,,,,,
,visa,,,JOHNSON CITY,TN,,US,,,,,
,visa,,,JOHNSON CITY,TN,,US,,,,,
,visa,,,JOHNSON CITY,TN,,US,,,,,
,visa,,,JOHNSON CITY,TN,,US,,,,,
,visa,,,JOHNSON CITY,TN,,US,,,,,
,visa,,,JOHNSON CITY,TN,,US,,,,,
,visa,,,JOHNSON CITY,TN,,US,,,,,
,visa,,,JOHNSON CITY,TN,,US,,,,,
,visa,,,JOHNSON CITY,TN,,US,,,,,
,visa,,,JOHNSON CITY,TN,,US,,,,,
,visa,,,JOHNSON CITY,TN,,US,,,,,
,visa,,,JOHNSON CITY,TN,,US,,,,,
,visa,,,JOHNSON CITY,TN,,US,,,,,
,visa,,,JOHNSON CITY,TN,,US,,,,,
,visa,,,JOHNSON CITY,TN,,US,,,,,
,visa,,,JOHNSON CITY,TN,,US,,,,,
,visa,,,JOHNSON CITY,TN,,US,,,,,
,visa,,,JOHNSON CITY,TN,,US,,,,,
,visa,,,JOHNSON CITY,TN,,US,,,,,
,visa,,,JOHNSON CITY,TN,,US,,,,,
,visa,,,JOHNSON CITY,TN,,US,,,,,
,visa,,,JOHNSON CITY,TN,,US,,,,,
,visa,,,JOHNSON CITY,TN,,US,,,,,
,visa,,,JOHNSON CITY,TN,,US,,,,,
,visa,,,JOHNSON CITY,TN,,US,,,,,
,visa,,,JOHNSON CITY,TN,,US,,,,,
,visa,,,JOHNSON CITY,TN,,US,,,,,
,visa,,,JOHNSON CITY,TN,,US,,,,,
,visa,,,JOHNSON CITY,TN,,US,,,,,
,visa,,,JOHNSON CITY,TN,,US,,,,,
,visa,,,JOHNSON CITY,TN,,US,,,,,
,visa,,,JONESBOROUGH,TN,,US,,,,,
,visa,,,JOHNSON CITY,TN,,US,,,,,
https://locations.vitaminshoppe.com/tn/johnsoncity/vitamins-supplements-johnson-city-tn-253.html,vitamin_shoppe,The Vitamin ShoppeÂ® Johnson City ,3120 Peoples St ,Johnson City,TN,,US,+1 423-282-2507,https://locations.vitaminshoppe.com/tn/johnsoncity/vitamins-supplements-johnson-city-tn-253.html,Su 10:00-19:00; Mo 09:00-20:30; Tu 09:00-20:30; We 09:00-20:30; Th 09:00-20:30; Fr 09:00-20:30; Sa 09:00-20:00,The Vitamin Shoppe,Q7772938
1121,waffle_house_us,Waffle House #1121,,JOHNSON CITY,TN,,US,+1 423-928-0144,https://locations.wafflehouse.com/johnsoncity-tn-1121,24/7,Waffle House,Q1701206
https://www.walgreens.com/locator/walgreens-429+n+state+of+franklin+rd-johnson+city-tn-37604/id=13891,walgreens,Walgreens,,Johnson City,TN,,US,+1 423-975-0068,https://www.walgreens.com/locator/walgreens-429+n+state+of+franklin+rd-johnson+city-tn-37604/id=13891,24/7,Walgreens,Q1591889
https://locations.wendys.com/#9253218,wendys,"Wendy's Peoples Street in Johnson City, TN",,Johnson City,TN,,US,+1 423-282-1625,https://locations.wendys.com/united-states/tn/johnson-city/3201-peoples-street,"Mo-Sa 06:00-10:30,09:00-21:00; Su 07:00-10:30,09:00-21:00",Wendy's,Q550258
https://locations.wendys.com/#9253217,wendys,"Wendy's Etsu Univ in Johnson City, TN",,Johnson City,TN,,US,+1 423-928-4169,https://locations.wendys.com/united-states/tn/johnson-city/1204-w-state-of-franklin-rd,"Mo-Sa 06:00-10:30,09:00-21:00; Su 07:00-10:30,09:00-21:00",Wendy's,Q550258
7fcd916032309dc25354d2826d6956cb,western_union,WALMART #001080,,Johnson City,TN,,US,+1 423-282-5376,https://location.westernunion.com/us/tn/johnson-city/7fcd916032309dc25354d2826d6956cb,Mo-Sa 08:00-20:00; Su 10:00-18:00,Western Union,Q861042
e19f3d827a94f7ee3caee56f1be87639,western_union,PUBLIX #1633,,Johnson City,TN,,US,+1 423-926-1260,https://location.westernunion.com/us/tn/johnson-city/e19f3d827a94f7ee3caee56f1be87639,Mo-Su 07:00-22:00,Western Union,Q861042
504fd8b123b2cf500ac24cdb8dea4dc8,western_union,ADVANCE AMERICA #04493,,Johnson City,TN,,US,+1 423-926-7413,https://location.westernunion.com/us/tn/johnson-city/504fd8b123b2cf500ac24cdb8dea4dc8,Mo-Fr 09:00-18:00; Sa 10:00-14:00,Western Union,Q861042
66d48df5b23f00628a7ff5699f78cb39,western_union,ADVANCE FINANCIAL #78,,Johnson City,TN,,US,+1 423-425-9038,https://location.westernunion.com/us/tn/johnson-city/66d48df5b23f00628a7ff5699f78cb39,Mo-Fr 09:00-18:00; Sa-Su 10:00-16:00,Western Union,Q861042
4d7d3904e70050df1a02d5f9e9ba73bc,western_union,WALMART #003829,,Johnson City,TN,,US,+1 423-434-2250,https://location.westernunion.com/us/tn/johnson-city/4d7d3904e70050df1a02d5f9e9ba73bc,Mo-Sa 08:00-20:00; Su 10:00-18:00,Western Union,Q861042
224528,wingstop,Wingstop Johnson City W Mountcastle Dr,2104 W. Mountcastle Dr,Johnson City,TN,,US,+1 423-930-9464,,,Wingstop,Q8025339
811,world_finance_us,,"1012 W Market St Ste 1 & 2, Johnson City, TN, 37604",Johnson City,TN,,US,+1 423-928-8139,https://www.loansbyworld.com/branches/branch-811,Mo-Fr 09:00-17:30; Sa 09:00-12:00,World Finance,Q3569971
