Ref,Spider,Name,Address,City,State,Zipcode,Country,Phone,Website,Hours,Brand,WikiData
3652,biedronka_pl,Biedronka,,Białogard,,,PL,,"https://www.biedronka.pl/pl/shop,id,3652",Mo-Sa 06:00-22:30,Biedronka,Q857182
599,biedronka_pl,Biedronka,,Białogard,,,PL,,"https://www.biedronka.pl/pl/shop,id,599",,Biedronka,Q857182
1315,biedronka_pl,Biedronka,,Białogard,,,PL,,"https://www.biedronka.pl/pl/shop,id,1315",Mo-Sa 06:00-22:00,Biedronka,Q857182
503,biedronka_pl,Biedronka,,Białogard,,,PL,,"https://www.biedronka.pl/pl/shop,id,503",Mo-Sa 06:00-22:30,Biedronka,Q857182
357,ccc,Białogard CCC Galeria Hosso 1865,,Białogard,,,PL,+48 94 312 23 16,https://ccc.eu/pl/market/bialogard-ccc-galeria-hosso-1865,Mo-Sa 09:00-21:00; Su 10:00-20:00,CCC,Q11788344
593,dealz_pl,Dealz,,Białogard,,,PL,,,Mo-Sa 09:00-21:00,Dealz,Q16942585
55186620,deichmann,DEICHMANN sklep Białogard Ul. Szosa Połczyńska 1D,,Białogard,,,PL,+48 668 685 278,https://stores.deichmann.com/pl-pl/pl/zachodniopomorskie/białogard/ul-szosa-połczynska-1d,Mo-Sa 09:00-20:00; Su 10:00-18:00,Deichmann,Q664543
R432,hebe_pl,Drogeria Hebe nr 432,,Białogard,,,PL,,https://www.hebe.pl/sklep?StoreID=R432,,Hebe,Q113093841
P389,jysk,"Białogard, Prima",,Białogard,,,PL,+48 786 920 652,https://jysk.pl/znajdz-sklep?storeId=P389,Mo-Sa 10:00-20:00,JYSK,Q138913
PL6261,kaufland,Kaufland Białogard,,Białogard,,,PL,+48 800 300 062,https://www.kaufland.pl/dla-klienta/sklepy/bialogard-6261.html,Mo-Sa 06:00-22:00,Kaufland,Q685967
1082,lidl_pl,Lidl,,Białogard,,,PL,,,Mo-Sa 06:00-22:00; Su 08:00-20:00,Lidl,Q151954
RCDW0C45,millennium_bank_pl,RCDW0C45,,Białogard,,,PL,,,,Bank Millennium,Q4855947
RCNW0C8Y,millennium_bank_pl,RCNW0C8Y,,Białogard,,,PL,,,,Bank Millennium,Q4855947
RNET6729,millennium_bank_pl,RNET6729,,Białogard,,,PL,,,,Bank Millennium,Q4855947
RNET6184,millennium_bank_pl,RNET6184,,Białogard,,,PL,,,,Bank Millennium,Q4855947
RNETA326,millennium_bank_pl,RNETA326,,Białogard,,,PL,,,,Bank Millennium,Q4855947
RNETA084,millennium_bank_pl,RNETA084,,Białogard,,,PL,,,,Bank Millennium,Q4855947
65059656,moneygram,UP BIALOGARD 1 - POCZTA POLSKA,,BIALOGARD,,,PL,+48 94 312 23 03,,Mo-Fr 06:00-22:00; Sa 08:00-20:00; Su 00:00-24:00,MoneyGram,Q1944412
70963643,moneygram,FUP BIALOGARD 1 - POCZTA POLSKA,,BIALOGARD,,,PL,+48 94 312 34 33,,Mo-Fr 06:00-22:00; Sa 08:00-20:00; Su 00:00-24:00,MoneyGram,Q1944412
70970047,moneygram,FUP BIALOGARD 1 - POCZTA POLSKA,,BIALOGARD,,,PL,+48 94 312 88 99,,Mo-Fr 06:00-22:00; Sa 08:00-20:00; Su 00:00-24:00,MoneyGram,Q1944412
39191,neonet_pl,NEONET,,Białogard,,,PL,+48 691 413 423,https://sklepydw.neonet.pl/polska/bialogard/neonet-bialogard-szosa-polczynska-1d-39191,Mo-Sa 09:00-19:00,Neonet,Q11790622
https://www.netto.pl/sklepy/bialogard/drzymaly-31/073e17fbe14a4c20b20b6afbebcf43bb/,netto_salling,Netto Białogard,,Białogard,,,PL,+48 531 994 994,https://www.netto.pl/sklepy/bialogard/drzymaly-31/073e17fbe14a4c20b20b6afbebcf43bb/,Mo-Th 06:00-21:00; Fr-Sa 06:00-22:00,Netto,Q552652
https://www.netto.pl/sklepy/bialogard/1-maja-9/0177c2e2da8f4c37b80e773da40a19c6/,netto_salling,Netto Białogard,,Białogard,,,PL,+48 531 994 994,https://www.netto.pl/sklepy/bialogard/1-maja-9/0177c2e2da8f4c37b80e773da40a19c6/,Mo-Th 06:00-21:00; Fr-Sa 06:00-22:00,Netto,Q552652
27003,orange_pl,Orange Białogard,,Białogard,,,PL,+48 501 420 002,https://salony.orange.pl/pl/orange-bia%C5%82ogard-27003,Mo-Fr 09:00-17:00; Sa 10:00-14:00,Orange,Q1431486
955100,orlen_paczka_pl,,,Białogard,,,PL,,,Mo-Fr 09:00-17:00; Sa 09:00-13:00,Orlen Paczka,Q110457879
492082,orlen_paczka_pl,,,Białogard,,,PL,,,,Orlen Paczka,Q110457879
463406,orlen_paczka_pl,,,Białogard,,,PL,,,Mo-Fr 09:30-17:00,Orlen Paczka,Q110457879
804316,orlen_paczka_pl,,,Białogard,,,PL,,,,Orlen Paczka,Q110457879
1522067,santander_pl,1 Oddział w Białogardzie,,Białogard,,,PL,+48 61 811 99 99,,Mo-Fr 09:00-16:00,Santander,Q806653
https://stokrotka.pl/nasze-sklepy/bialogard-ul-1-maja-3-5161.html,stokrotka_pl,Stokrotka Market,,Białogard,,,PL,+48 81 888 92 00,https://stokrotka.pl/nasze-sklepy/bialogard-ul-1-maja-3-5161.html,Mo-Sa 07:00-22:00; Su 08:30-20:00,Stokrotka Market,Q110801183
50,tmobile_pl,T-Mobile,,Białogard,,,PL,+48 602 397 971,,Mo-Fr 10:00-18:00; Sa 10:00-14:00,T-Mobile,Q327634
,visa,,,BIAŁOGARD,,,PL,,,,,
,visa,,,BIAŁOGARD,,,PL,,,,,
,visa,,,BIAŁOGARD,,,PL,,,,,
,visa,,,BIAŁOGARD,,,PL,,,,,
,visa,,,BIAŁOGARD,,,PL,,,,,
,visa,,,BIAŁOGARD,,,PL,,,,,
,visa,,,BIAŁOGARD,,,PL,,,,,
,visa,,,BIAŁOGARD,,,PL,,,,,
ID02374,zabka_pl,Żabka,,Białogard,,,PL,,,Mo-Sa 06:00-23:00; Su 10:00-20:00,Żabka,Q2589061
ID02437,zabka_pl,Żabka,,Białogard,,,PL,,,Mo-Sa 06:00-23:00; Su 10:00-20:00,Żabka,Q2589061
ID02486,zabka_pl,Żabka,,Białogard,,,PL,,,Mo-Sa 06:00-23:00; Su 10:00-20:00,Żabka,Q2589061
ID03024,zabka_pl,Żabka,,Białogard,,,PL,,,Mo-Sa 06:00-23:00; Su 10:00-20:00,Żabka,Q2589061
ID03287,zabka_pl,Żabka,,Białogard,,,PL,,,Mo-Sa 06:00-23:00; Su 10:00-20:00,Żabka,Q2589061
ID03609,zabka_pl,Żabka,,Białogard,,,PL,,,Mo-Sa 06:00-23:00; Su 11:00-21:00,Żabka,Q2589061
ID04965,zabka_pl,Żabka,,Białogard,,,PL,,,Mo-Sa 06:00-23:00; Su 11:00-21:00,Żabka,Q2589061
ID05366,zabka_pl,Żabka,,Białogard,,,PL,,,Mo-Sa 06:00-23:00,Żabka,Q2589061
ID05684,zabka_pl,Żabka,,Białogard,,,PL,,,Mo-Sa 06:00-23:00; Su 11:00-21:00,Żabka,Q2589061
ID06574,zabka_pl,Żabka,,Białogard,,,PL,,,Mo-Sa 06:00-23:00,Żabka,Q2589061
ID07031,zabka_pl,Żabka,,Białogard,,,PL,,,Mo-Sa 06:00-23:00; Su 10:00-20:00,Żabka,Q2589061
