Ref,Spider,Name,Address,City,State,Zipcode,Country,Phone,Website,Hours,Brand,WikiData
1045023,alamo,Salt Lake City International Airport,,Salt Lake City,UT,,US,+1 844-942-0335,,,ALAMO,Q1429287
https://www.avis.com/en/locations/us/ut/salt-lake-city/slc,avis,Avis U S A Salt Lake City Airport,,Salt Lake City,UT,,US,+1 801-258-5238,https://www.avis.com/en/locations/us/ut/salt-lake-city/slc,Mo-Su 05:00-02:00,Avis,Q791136
31272,burgerking,Burger King,,Salt Lake City,UT,,US,+1 801-350-1274,https://www.bk.com/store-locator/store/restaurant_882473,Mo-Su 05:00-23:00,Burger King,Q177054
SLCT61,enterprise,Salt Lake City International Airport,,Salt Lake City,UT,,US,+1 801-537-7433,,,Enterprise Rent-A-Car,Q17085454
SLCC62,enterprise,Salt Lake City Airport Exotics,,Salt Lake City,UT,,US,+1 844-942-0337,,,Enterprise Rent-A-Car,Q17085454
https://locations.jimmyjohns.com/ut/saltlakecity/sandwiches-4524.html,jimmy_johns,Jimmy John's,,Salt Lake City,UT,,US,,https://locations.jimmyjohns.com/ut/saltlakecity/sandwiches-4524.html,,Jimmy John's,Q1689380
1045024,national,Salt Lake City International Airport,,Salt Lake City,UT,,US,+1 844-942-0336,,,NATIONAL,Q1424142
1440001,usps,AIRPORT,,SALT LAKE CITY,UT,,US,+1 801-359-0089,,,United States Postal Service,Q668687
8412200004,usps_collection_boxes,USPS COLLECTION BOX - PO LOBBY,320 N 3700 W,SALT LAKE CITY,UT,,US,,,,United States Postal Service,Q668687
8412200005,usps_collection_boxes,USPS COLLECTION BOX - BLUE BOX,320 N 3700 W,SALT LAKE CITY,UT,,US,,,,United States Postal Service,Q668687
8412200006,usps_collection_boxes,USPS COLLECTION BOX - PO LOBBY,320 N 3700 W,SALT LAKE CITY,UT,,US,,,,United States Postal Service,Q668687
,visa,,,SALT LAKE,UT,,US,,,,,
,visa,,,SALT LAKE,UT,,US,,,,,
,visa,,,SALT LAKE CITY,UT,,US,,,,,
,visa,,,SALT LAKE CITY,UT,,US,,,,,
,visa,,,SALT LAKE CITY,UT,,US,,,,,
,visa,,,SALT LAKE CITY,UT,,US,,,,,
,visa,,,SALT LAKE,UT,,US,,,,,
,visa,,,SALT LAKE CITY,UT,,US,,,,,
,visa,,,SALT LAKE CIT,UT,,US,,,,,
,visa,,,SALT LAKE,UT,,US,,,,,
,visa,,,SALT LAKE CITY,UT,,US,,,,,
,visa,,,SALT LAKE CITY,UT,,US,,,,,
,visa,,,SALT LAKE CITY,UT,,US,,,,,
,visa,,,SALT LAKE CITY,UT,,US,,,,,
