Ref,Spider,Name,Address,City,State,Zipcode,Country,Phone,Website,Hours,Brand,WikiData
https://stores.advanceautoparts.com/pa/north-east/139-w-main-st,advance_auto_parts_us,Advance Auto Parts,,North East,PA,,US,+1 814-347-7064,https://stores.advanceautoparts.com/pa/north-east/139-w-main-st,Mo-Sa 07:30-21:00; Su 09:00-20:00,Advance Auto Parts,Q4686051
187937,bluerhino,Sanders Market SV #211248,,North East,PA,,US,+1 814-725-8697,,,Blue Rhino,Q65681213
52436,bluerhino,Kwik Fill #M0157,,North East,PA,,US,+1 814-725-5946,,,Blue Rhino,Q65681213
229414,bluerhino,Circle K #4704215,,North East,PA,,US,+1 814-725-2036,,,Blue Rhino,Q65681213
29140,bluerhino,Kwik Fill #M0207,,North East,PA,,US,+1 814-725-9661,,,Blue Rhino,Q65681213
29131,bluerhino,Kwik Fill #M0143,,North East,PA,,US,+1 814-725-8216,,,Blue Rhino,Q65681213
70640,citi,ATM PNC BANK,,North East,PA,,US,,,,Citibank,Q857063
47326,citi,ATM CVS,,North East,PA,,US,,,,Citibank,Q857063
43218,citi,ATM Circle K,,North East,PA,,US,,,,Citibank,Q857063
5088,cvs_us,CVS Pharmacy,,North East,PA,,US,+1 814-725-9684,https://www.cvs.com/store-locator/north-east-pa-pharmacies/118-w-main-st-north-east-pa-16428/storeid=5088,Mo-Su 08:00-22:00,CVS Pharmacy,Q2078880
https://www.edwardjones.com/us-en/financial-advisor/eli-nelson,edwardjones,Eli Nelson,,North East,PA,,US,+1 814-725-6919,https://www.edwardjones.com/us-en/financial-advisor/eli-nelson,Mo-Th 09:30-16:30; Fr 09:30-14:30,Edward Jones,Q5343830
1244,mightyflame,COUNTRY FAIR #102,,NORTHEAST,PA,,US,+1 814-725-4672,,,Mighty Flame,
https://locations.northwest.bank/#35176976,northwest_bank,35 E Main St North East,,North East,PA,,US,+1 814-725-4528,https://locations.northwest.bank/pa/north-east/35-e-main-st,Mo-Th 09:00-16:00; Fr 09:00-17:00; Sa 09:00-12:00,Northwest Bank,Q7060191
11006,rite_aid_us,Rite Aid #11006 North East,,North East,PA,,US,+1 814-725-3076,https://locations2.riteaid.com.yext-cdn.com/pa/north-east/105-west-main-street.html,Tu-Fr 08:30-20:00; Sa 10:00-17:00; Su 09:00-14:00,Rite Aid,Q3433273
2132,snap_fitness,"North East, PA",69 E. Main,North East,PA,,US,+1 814-725-2000,https://www.snapfitness.com/us/gyms/north-east-pa,24/7,Snap Fitness,Q7547254
https://restaurants.subway.com/#14902962,subway,Subway,,North East Erie,PA,,US,+1 814-725-8773,https://restaurants.subway.com/united-states/pa/north-east/19-e-main-st,Mo-Su 09:00-22:00,Subway,Q244457
https://restaurants.subway.com/#14909664,subway,Subway Truck Stop,,North East Erie,PA,,US,+1 814-725-3381,https://restaurants.subway.com/united-states/pa/north-east/12271-e-main-st,Mo-Su 10:30-20:30,Subway,Q244457
22779,true_value_us,North East True Value,,North East,PA,,US,+1 814-347-5602,https://truevalue.com,,True Value,Q7847545
1375301,usps,NORTH EAST,,NORTH EAST,PA,,US,+1 814-725-4009,,Mo-Fr 09:00-17:00; Sa 09:00-12:00,United States Postal Service,Q668687
1642800009,usps_collection_boxes,USPS COLLECTION BOX - BLUE BOX,31 W MAIN ST,NORTH EAST,PA,,US,,,,United States Postal Service,Q668687
1642800013,usps_collection_boxes,USPS COLLECTION BOX - PO LOBBY,38 S LAKE ST,NORTH EAST,PA,,US,,,,United States Postal Service,Q668687
1642800014,usps_collection_boxes,USPS COLLECTION BOX - BLUE BOX,38 S LAKE ST,NORTH EAST,PA,,US,,,,United States Postal Service,Q668687
1642800015,usps_collection_boxes,USPS COLLECTION BOX - BLUE BOX,38 S LAKE ST,NORTH EAST,PA,,US,,,,United States Postal Service,Q668687
1642800018,usps_collection_boxes,USPS COLLECTION BOX - PO LOBBY,38 S LAKE ST,NORTH EAST,PA,,US,,,,United States Postal Service,Q668687
,visa,,,NORTH EAST,PA,,US,,,,,
,visa,,,NORTH EAST,PA,,US,,,,,
,visa,,,NORTHEAST,PA,,US,,,,,
,visa,,,NORTH EAST,PA,,US,,,,,
,visa,,,NORTHEAST,PA,,US,,,,,
,visa,,,NORTH EAST,PA,,US,,,,,
,visa,,,NORTH EAST,PA,,US,,,,,
,visa,,,NORTH EAST,PA,,US,,,,,
,visa,,,NORTH EAST,PA,,US,,,,,
,visa,,,NORTH EAST,PA,,US,,,,,
,visa,,,NORTH EAST,PA,,US,,,,,
,visa,,,N EAST,PA,,US,,,,,
,visa,,,NORTH EAST,PA,,US,,,,,
,visa,,,NORTH EAST,PA,,US,,,,,
,visa,,,NORTH EAST,PA,,US,,,,,
,visa,,,NORTH EAST,PA,,US,,,,,
,visa,,,NORTHEAST,PA,,US,,,,,
,visa,,,NORTH EAST,PA,,US,,,,,
,visa,,,NORTH EAST,PA,,US,,,,,
,visa,,,NORTH EAST,PA,,US,,,,,
,visa,,,NORTH EAST,PA,,US,,,,,
,visa,,,NORTH EAST,PA,,US,,,,,
,visa,,,NORTHEAST,PA,,US,,,,,
,visa,,,NORTH EAST,PA,,US,,,,,
,visa,,,HARBORCREEK,PA,,US,,,,,
8655561c14e9e41158175dc61d0e2892,western_union,DOLLAR GENERAL#24932,,North East,PA,,US,+1 615-855-4000,https://location.westernunion.com/us/pa/north-east/8655561c14e9e41158175dc61d0e2892,Mo-Su 08:00-22:00,Western Union,Q861042
