Ref,Spider,Name,Address,City,State,Zipcode,Country,Phone,Website,Hours,Brand,WikiData
https://locators.bankofamerica.com/va/aldie/financial-centers-aldie-15802.html,bankofamerica,Bank of America Financial Center & Drive-Thru ATM | Stone Ridge,,Aldie,VA,,US,+1 703-957-4171,https://locators.bankofamerica.com/va/aldie/financial-centers-aldie-15802.html,Mo-Fr 10:00-16:00; Sa 10:00-14:00,Bank of America,Q487907
209910,bluerhino,Harris Teeter #238,,Aldie,VA,,US,+1 703-542-8340,,,Blue Rhino,Q65681213
153773,bluerhino,Walgreens #09949,,Aldie,VA,,US,+1 703-722-2829,,,Blue Rhino,Q65681213
58923,citi,ATM Harris Teeter,,Aldie,VA,,US,,,,Citibank,Q857063
90997,citi,ATM Walgreens,,Aldie,VA,,US,,,,Citibank,Q857063
30104,citi,ATM 7ELEVEN-FCTI,,Aldie,VA,,US,,,,Citibank,Q857063
ATM-2080,citizens_us,,,Aldie,VA,,US,,,,Citizens,Q5122694
1000001584,extra_space_storage,Aldie Self Storage at 24195 Millstream Dr,,Aldie,VA,,US,+1 703-844-0489,https://www.extraspace.com/storage/facilities/us/virginia/aldie/1000001584/,Mo-Fr 09:30-18:00; Sa 09:00-17:30,Extra Space Storage,Q5422162
https://local.fedex.com/#25145480,fedex,FedEx Authorized ShipCenter,,Stone Ridge,VA,,US,+1 703-327-5570,https://local.fedex.com/en-us/va/stone-ridge/45110,,FedEx,Q459477
https://local.fedex.com/#25206743,fedex,,,Aldie,VA,,US,+1 800-463-3339,https://local.fedex.com/en-us/va/aldie/bkbbw,,FedEx,Q459477
0106,mattress_warehouse_us,Mattress Warehouse,,Aldie,VA,,US,+1 571-639-3042,https://mattresswarehouse.com/store-locator/mattress-warehouse-of-stone_ridge-0106-stone_ridge-va,Mo-Fr 10:00-21:00; Sa 10:00-20:00; Su 11:00-18:00,Mattress Warehouse,Q61995079
42015-village-center-plaza,my_eye_dr,,,Stone Ridge,VA,,US,+1 703-542-8888,https://locations.myeyedr.com/va/stone-ridge/42015-village-center-plaza,,MyEyeDr.,Q117864710
374,primrose_schools,Primrose School of Aldie,,Aldie,VA,,US,+1 703-348-5615,https://www.primroseschools.com/schools/aldie/,,Primrose Schools,Q7243677
33651,seven_eleven_ca_us,7-11 Str   42040 Village Ctr Plaza,,Aldie,VA,,US,+1 703-327-6519,https://www.7-eleven.com/locations/va/aldie/42040-village-ctr-plaza-33651,,7-Eleven,Q259340
https://restaurants.subway.com/#14902792,subway,Subway Stone Ridge Village Center,,Stone Ridge Loudoun,VA,,US,+1 703-542-8090,https://restaurants.subway.com/united-states/va/stone-ridge/42010-village-center-plaza,Mo-Su 08:00-21:00,Subway,Q244457
1352644,usps,ALDIE,,ALDIE,VA,,US,+1 703-327-6975,,"Mo-Fr 09:00-13:00,14:00-17:00; Sa 09:00-12:00",United States Postal Service,Q668687
2010500003,usps_collection_boxes,USPS COLLECTION BOX - PO LOBBY,39344 JOHN MOSBY HWY,ALDIE,VA,,US,,,,United States Postal Service,Q668687
2010500002,usps_collection_boxes,USPS COLLECTION BOX - PO LOBBY,39344 JOHN MOSBY HWY,ALDIE,VA,,US,,,,United States Postal Service,Q668687
2010500000,usps_collection_boxes,USPS COLLECTION BOX - BLUE BOX,39344 JOHN MOSBY HWY,ALDIE,VA,,US,,,,United States Postal Service,Q668687
,visa,,,ALDIE,VA,,US,,,,,
,visa,,,ALDIE,VA,,US,,,,,
,visa,,,ALDIE,VA,,US,,,,,
,visa,,,ALDIA,VA,,US,,,,,
,visa,,,ALDIE,VA,,US,,,,,
,visa,,,ALDIA,VA,,US,,,,,
https://www.vocellipizza.com/stoneridge_va,vocelli_pizza_us,Stone Ridge/ South Riding/ Brambleton/ Lenah/ Kirkpatrick Farms,,South Loudoun,VA,,US,,https://www.vocellipizza.com/stoneridge_va,,Vocelli Pizza,Q7939247
https://www.walgreens.com/locator/walgreens-42025+village+center+plz-aldie-va-20105/id=9949,walgreens,Walgreens,,Aldie,VA,,US,+1 703-722-2829,https://www.walgreens.com/locator/walgreens-42025+village+center+plz-aldie-va-20105/id=9949,Mo-Su 07:00-22:00,Walgreens,Q1591889
https://locations.wendys.com/#9255861,wendys,"Wendy's Stone Ridge in Stone Ridge, VA",,Stone Ridge,VA,,US,+1 703-327-2119,https://locations.wendys.com/united-states/va/stone-ridge/42035-village-center-plz,"Mo-Su 06:30-10:30,07:00-22:00",Wendy's,Q550258
a70b3bd1c2be7231e85d07108d3857e0,western_union,7-ELEVEN #33651,,Aldie,VA,,US,+1 703-327-6519,https://location.westernunion.com/us/va/aldie/a70b3bd1c2be7231e85d07108d3857e0,,Western Union,Q861042
