Ref,Spider,Name,Address,City,State,Zipcode,Country,Phone,Website,Hours,Brand,WikiData
https://stores.advanceautoparts.com/ny/hampton-bays/73-w-montauk-hwy,advance_auto_parts_us,Advance Auto Parts,,Hampton Bays,NY,,US,+1 631-728-1450,https://stores.advanceautoparts.com/ny/hampton-bays/73-w-montauk-hwy,Mo-Fr 07:30-18:00; Sa 07:30-17:00; Su 09:00-16:00,Advance Auto Parts,Q4686051
https://locations.baskinrobbins.com/ny/hampton-bays/127-e-montauk-hwy-301726-br,baskin_robbins_us,Baskin-Robbinsâ„¢,,Hampton Bays,NY,,US,+1 631-594-1928,https://locations.baskinrobbins.com/ny/hampton-bays/127-e-montauk-hwy-301726-br,Mo-Th 05:00-19:00; Fr-Su 05:00-20:00,Baskin-Robbins,Q584601
34521_50001,bmw_group,"Village Auto Body, Independent Certified Collision Repair Center of BMW of Southampton",,Hampton Bays,NY,,US,+1 631-728-1500,,,BMW,Q26678
2041236,chase_us,Hampton Bays - New branch,,Hampton Bays,NY,,US,+1 631-728-0100,https://locator.chase.com/ny/hampton-bays/47-w-montauk-hwy,Mo-Fr 09:00-17:00; Sa 09:00-14:00,Chase,Q524629
73420,citi,ATM Rite Aid,,Hampton Bays,NY,,US,,,,Citibank,Q857063
31056,citi,ATM 7ELEVEN-FCTI,,Hampton Bays,NY,,US,,,,Citibank,Q857063
880322,citizens_us,Citizens,,Hampton Bays,NY,,US,+1 631-887-2015,,Mo-Fr 09:00-17:00; Sa 09:00-13:00,Citizens,Q5122694
ATM-1170,citizens_us,,,Hampton Bays,NY,,US,+1 631-887-2015,,24/7,Citizens,Q5122694
ATM-2719,citizens_us,,,Hampton Bays,NY,,US,+1 631-887-2016,,Mo-Su 08:00-20:00,Citizens,Q5122694
3495,dominos_pizza_us,Domino's Pizza,,Hampton Bays,NY,,US,+1 631-856-4500,https://pizza.dominos.com/new-york/hampton-bays/260-w-montauk-hwy,Mo-We 11:00-23:00; Th 11:00-23:30; Fr-Sa 11:00-24:00; Su 11:00-23:30,Domino's,Q839466
301726,dunkin_us,Dunkin',,Hampton Bays,NY,,US,+1 631-594-1928,https://locations.dunkindonuts.com/en/ny/hampton-bays/127-e-montauk-hwy/301726,Mo-Th 05:00-19:00; Fr-Su 05:00-20:00,Dunkin',Q847743
200324254,exxonmobil,51063 SERVICE STATION CORP,,HAMPTON BAYS,NY,,US,+1 613-594-3772,https://www.exxon.com/en/find-station/mobil-hamptonbays-ny-51063servicestationcorp-200324254,24/7,Mobil,Q109676002
74208951,moneygram,MUNDOTECH MULTISERVICES INC,,HAMPTON BAYS,NY,,US,+1 631-594-3888,,Mo-Fr 10:00-20:00; Sa 10:00-19:00; Su 12:00-16:00,MoneyGram,Q1944412
45160662,moneygram,LATIN CENTER STORE - #0001,,HAMPTON BAYS,NY,,US,+1 631-728-7055,,Mo-Su 08:00-22:00,MoneyGram,Q1944412
https://locations.mtb.com/#5832545,mt_bank_us,M&T Bank,,,NY,,US,+1 631-728-2700,https://locations.mtb.com/ny/hamptonbays/bank-branches-and-atms-hampton-bays-ny-8066.html,Mo-Th 09:00-16:00; Fr 09:00-17:00; Sa 09:00-12:00,M&T Bank,Q3272257
riverhead-bldg-supply-36740,ppgpaints,RIVERHEAD BLDG SUPPLY,,"Hampton Bays, ",NY,,US,+1 800-378-3650,https://www.ppgpaints.com/store-locator/us/new-york/hampton-bays-paint-stores/riverhead-bldg-supply-36740,,PPG Paints,Q83891559
10669,rite_aid_us,Rite Aid #10669 Hampton Bays,,Hampton Bays,NY,,US,+1 631-728-2566,https://locations2.riteaid.com.yext-cdn.com/ny/hampton-bays/50-east-montauk-highway.html,,Rite Aid,Q3433273
2551,stop_and_shop,Stop & Shop,194 West Montauk Highway,Hampton Bays,NY,,US,,,,Stop and Shop,Q3658429
4948,upsstore,Hampton Bays,15 W Montauk Hwy,Hampton Bays,NY,,US,+1 631-728-6100,https://locations.theupsstore.com/ny/hampton-bays/15-w-montauk-hwy,,UPS Store,Q7771029
1366094,usps,HAMPTON BAYS,,HAMPTON BAYS,NY,,US,+1 631-728-6994,,Mo-Fr 09:00-17:00; Sa 09:00-13:00,United States Postal Service,Q668687
1194600007,usps_collection_boxes,USPS COLLECTION BOX - BLUE BOX,250 W MONTAUK HWY,HAMPTON BAYS,NY,,US,,,,United States Postal Service,Q668687
1194600006,usps_collection_boxes,USPS COLLECTION BOX - BLUE BOX,188 MONTAUK HWY,HAMPTON BAYS,NY,,US,,,,United States Postal Service,Q668687
1194600009,usps_collection_boxes,USPS COLLECTION BOX - BLUE BOX,16 PONQUOGUE AVE,HAMPTON BAYS,NY,,US,,,,United States Postal Service,Q668687
1194600013,usps_collection_boxes,USPS COLLECTION BOX - BLUE BOX,16 PONQUOGUE AVE,HAMPTON BAYS,NY,,US,,,,United States Postal Service,Q668687
1194600017,usps_collection_boxes,USPS COLLECTION BOX - BLUE BOX,16 PONQUOGUE AVE,HAMPTON BAYS,NY,,US,,,,United States Postal Service,Q668687
1194600019,usps_collection_boxes,USPS COLLECTION BOX - PO LOBBY,16 PONQUOGUE AVE,HAMPTON BAYS,NY,,US,,,,United States Postal Service,Q668687
1194600001,usps_collection_boxes,USPS COLLECTION BOX - BLUE BOX,16 PONQUOGUE AVE,HAMPTON BAYS,NY,,US,,,,United States Postal Service,Q668687
,visa,,,HAMPTON BAYS,NY,,US,,,,,
,visa,,,HAMPTON BAYS,NY,,US,,,,,
,visa,,,HAMPTON BAYS,NY,,US,,,,,
,visa,,,HAMPTON BAYS,NY,,US,,,,,
,visa,,,HAMPTON BAYS,NY,,US,,,,,
,visa,,,HAMPTON BAYS,NY,,US,,,,,
,visa,,,HAMPTON BAYS,NY,,US,,,,,
,visa,,,HAMPTON BAYS,NY,,US,,,,,
,visa,,,HAMPTON BAYS,NY,,US,,,,,
,visa,,,WESTHAMPTON B,NY,,US,,,,,
,visa,,,HAMPTON BAYS,NY,,US,,,,,
,visa,,,HAMPTON BAYS,NY,,US,,,,,
,visa,,,HAMPTON BAYS,NY,,US,,,,,
,visa,,,HAMPTON BAYS,NY,,US,,,,,
,visa,,,HAMPTON BAYS,NY,,US,,,,,
,visa,,,HAMPTON BAYS,NY,,US,,,,,
,visa,,,HAMPTON BAYS,NY,,US,,,,,
,visa,,,HAMPTON BAYS,NY,,US,,,,,
,visa,,,HAMPTON BAYS,NY,,US,,,,,
,visa,,,HAMPTON BAYS,NY,,US,,,,,
,visa,,,HAMPTON BAYS,NY,,US,,,,,
,visa,,,HAMPTON BAYS,NY,,US,,,,,
,visa,,,HAMPTON BAYS,NY,,US,,,,,
,visa,,,HAMPTON BAYS,NY,,US,,,,,
,visa,,,HAMPTON BAYS,NY,,US,,,,,
,visa,,,HAMPTON BAYS,NY,,US,,,,,
,visa,,,HAMPTON BAYS,NY,,US,,,,,
,visa,,,HAMPTON BAYS,NY,,US,,,,,
,visa,,,HAMPTON BAY,NY,,US,,,,,
,visa,,,HAMPTON BAYS,NY,,US,,,,,
,visa,,,HAMPTON BAYS,NY,,US,,,,,
,visa,,,HAMPTON BAYS,NY,,US,,,,,
,visa,,,HAMPTON BAYS,NY,,US,,,,,
,visa,,,HAMPTON BAYS,NY,,US,,,,,
,visa,,,HAMPTON BAYS,NY,,US,,,,,
,visa,,,HAMPTON BAYS,NY,,US,,,,,
,visa,,,HAMPTON BAYS,NY,,US,,,,,
,visa,,,HAMPTON BAYS,NY,,US,,,,,
,visa,,,HAMPTON BAYS,NY,,US,,,,,
,visa,,,HAMPTON BAYS,NY,,US,,,,,
,visa,,,HAMPTON BAYS,NY,,US,,,,,
,visa,,,HAMPTON BAYS,NY,,US,,,,,
,visa,,,HAMPTON BAYS,NY,,US,,,,,
,visa,,,HAMPTON BAYS,NY,,US,,,,,
,visa,,,HAMPTON BAYS,NY,,US,,,,,
,visa,,,HAMPTON BAY,NY,,US,,,,,
,visa,,,HAMPTON BAY,NY,,US,,,,,
,visa,,,HAMPTON BAYS,NY,,US,,,,,
,visa,,,HAMPTON BAYS,NY,,US,,,,,
,visa,,,HAMPTON BAYS,NY,,US,,,,,
,visa,,,W.HAMPTON BEACH,NY,,US,,,,,
d4f51a73d9f3e4580b4600160c697eea,western_union,RITE AID #10669,,Hampton Bays,NY,,US,+1 631-728-2566,https://location.westernunion.com/us/ny/hampton-bays/d4f51a73d9f3e4580b4600160c697eea,Mo-Fr 08:00-21:00; Sa 08:00-19:30; Su 09:00-18:00,Western Union,Q861042
