Ref,Spider,Name,Address,City,State,Zipcode,Country,Phone,Website,Hours,Brand,WikiData
DE018083,aldi_nord_de,ALDI Nord,,Löhne-Mennighüffen,Nordrhein-Westfalen,,DE,+49 800 7234870,,Mo-Sa 07:00-20:00,ALDI Nord,Q41171373
DE018014,aldi_nord_de,ALDI Nord,,Löhne,Nordrhein-Westfalen,,DE,+49 800 7234870,,Mo-Sa 08:00-20:00,ALDI Nord,Q41171373
55184852,deichmann,DEICHMANN Filiale Löhne Albert-Schweitzer-Straße 37,,Löhne,Nordrhein-Westfalen,,DE,+49 5732 683377,https://stores.deichmann.com/de-de/de/nordrhein-westfalen/loehne/albert-schweitzer-strasse-37,Mo-Fr 09:00-19:00; Sa 09:00-18:00,Deichmann,Q664543
4477385,edeka_de,EDEKA Brinkmann,,Löhne,Nordrhein-Westfalen,,DE,+49 5732 12978,https://www.edeka.de/eh/minden-hannover/edeka-brinkmann-königstr.-78/index.jsp,Mo-Sa 08:00-21:00,EDEKA,Q701755
8000754,edeka_de,EDEKA Brinkmann und Petzold,,Löhne,Nordrhein-Westfalen,,DE,+49 5732 7710,https://www.edeka.de/eh/minden-hannover/edeka-brinkmann-und-petzold-lübbecker-str.-161/index.jsp,Mo-Sa 07:00-21:00,EDEKA,Q701755
1040858,edeka_de,MARKTKAUF Löhne,,Löhne,Nordrhein-Westfalen,,DE,+49 5732 9460,http://www.marktkauf.de/loehne,Mo-Sa 08:00-22:00,MARKTKAUF,Q1533254
10003423,edeka_de,EDEKA WEZ,,Löhne,Nordrhein-Westfalen,,DE,+49 5731 844477,https://wez.de/edeka-wez-maerkte/wez-loehne/,Mo-Sa 07:00-22:00,EDEKA,Q701755
2165,netto_de,Netto Marken-Discount,,Löhne,Nordrhein-Westfalen,,DE,,https://www.netto-online.de/filialen/löhne/königsstr-82---86/2165,Mo-Sa 07:00-21:00,Netto Marken-Discount,Q879858
2452,netto_de,Netto Marken-Discount,,Löhne,Nordrhein-Westfalen,,DE,,https://www.netto-online.de/filialen/löhne/werster-str-106/2452,Mo-Sa 07:00-21:00,Netto Marken-Discount,Q879858
39c7100e-42ab-3ed3-bd11-dd6c4dc533fd,penny_de,Penny Gohfeld,,Löhne,Nordrhein-Westfalen,,DE,,https://www.penny.de/markt/loehne/530863/penny-gohfeld-weihestr-15-17,Mo-Sa 07:00-22:00,Penny,Q284688
4631,tedi,TEDi GmbH & Co. KG,,Löhne,NORDRHEIN-WESTFALEN,,DE,+49 231 555770,https://www.tedi.com/stores/4631/de/NORDRHEIN-WESTFALEN/Loehne/Gohfeld/Albert-Schweitzer-Str-37,Mo-Sa 00:00-24:00,TEDi,Q1364603
,visa,,,LOHNE,NORDRHEIN-WESTFALEN,,DE,,,,,
,visa,,,LOHNE,NORDRHEIN-WESTFALEN,,DE,,,,,
,visa,,,LOHNE,NORDRHEIN-WESTFALEN,,DE,,,,,
,visa,,,LOHNE,NORDRHEIN-WESTFALEN,,DE,,,,,
,visa,,,LOHNE,NORDRHEIN-WESTFALEN,,DE,,,,,
,visa,,,LOHNE,NORDRHEIN-WESTFALEN,,DE,,,,,
,visa,,,LOHNE,NORDRHEIN-WESTFALEN,,DE,,,,,
,visa,,,LOHNE,NORDRHEIN-WESTFALEN,,DE,,,,,
,visa,,,LOHNE,NORDRHEIN-WESTFALEN,,DE,,,,,
,visa,,,LOHNE,NORDRHEIN-WESTFALEN,,DE,,,,,
