Ref,Spider,Name,Address,City,State,Zipcode,Country,Phone,Website,Hours,Brand,WikiData
https://stores.advanceautoparts.com/wv/weston/368-market-place-mall,advance_auto_parts_us,Advance Auto Parts,,Weston,WV,,US,+1 304-269-1191,https://stores.advanceautoparts.com/wv/weston/368-market-place-mall,Mo-Sa 07:30-21:00; Su 08:00-20:00,Advance Auto Parts,Q4686051
https://locations.arbys.com/wv/weston/595-us-highway-33-east.html,arbys_us,"Arby's Fast-Food Drive Through Near You in Weston, WV",,Weston,WV,,US,+1 304-997-8585,https://locations.arbys.com/wv/weston/595-us-highway-33-east.html,Mo-Su 10:00-22:00,Arby's,Q630866
198424,bluerhino,Mountaineer Mart #134,,Salem,WV,,US,+1 304-782-4068,,,Blue Rhino,Q65681213
197555,bluerhino,Dollar General #20215,,Weston,WV,,US,+1 681-495-1442,,,Blue Rhino,Q65681213
198426,bluerhino,Mountaineer Mart #136,,Weston,WV,,US,+1 304-269-1480,,,Blue Rhino,Q65681213
108670,bluerhino,Weston Shop N Save Express #211050,,Weston,WV,,US,+1 304-269-5830,,,Blue Rhino,Q65681213
209198,bluerhino,Family Dollar #12773,,Weston,WV,,US,+1 681-495-6044,,,Blue Rhino,Q65681213
196292,bluerhino,Weston Go-Mart #4,,Weston,WV,,US,+1 304-269-4986,,,Blue Rhino,Q65681213
126635,bluerhino,Little General #5320,,Weston,WV,,US,+1 304-997-8567,,,Blue Rhino,Q65681213
109584,bluerhino,BFS Foods #14,,Weston,WV,,US,+1 304-269-1278,,,Blue Rhino,Q65681213
149643,bluerhino,Walmart #1653 - Supercenter - Fuel Site,,Weston,WV,,US,+1 304-269-1549,,,Blue Rhino,Q65681213
10462,bluerhino,Walmart #1653,,Weston,WV,,US,+1 304-269-1549,,,Blue Rhino,Q65681213
16793,burgerking,Burger King,,Weston,WV,,US,+1 304-244-2729,https://www.bk.com/store-locator/store/restaurant_10537,Mo-Th 07:00-21:00; Fr-Sa 07:00-22:00; Su 07:00-21:00,Burger King,Q177054
https://stores.catofashions.com/#26560569,cato_us,Cato,,,WV,,US,+1 304-269-6218,https://stores.catofashions.com/wv/weston/298-market-place-mall,Mo-Sa 10:00-20:00; Su 13:00-18:00,Cato,Q16956136
68463,citi,ATM PNC AT SHEETZ,,Weston,WV,,US,,,,Citibank,Q857063
5947,cvs_us,CVS Pharmacy,,Weston,WV,,US,+1 304-269-1125,https://www.cvs.com/store-locator/weston-wv-pharmacies/250-court-street-weston-wv-26452/storeid=5947,Mo-Th 09:00-21:00; Fr-Sa 09:00-22:00; Su 10:00-20:00,CVS Pharmacy,Q2078880
3ee2da00-e7ca-461a-9865-e14c7cd2a23c,dairy_queen_us,57 Bfs Blvd,,Weston,WV,,US,+1 304-269-1734,https://www.dairyqueen.com/locations/wv/weston/57-bfs-blvd/11469,,Dairy Queen,Q1141226
1308,dominos_pizza_us,Domino's Pizza,,Weston,WV,,US,+1 304-269-3030,https://pizza.dominos.com/west-virginia/weston/535-third-st,Mo-Th 10:30-24:00; Fr-Sa 10:30-01:00; Su 10:30-24:00,Domino's,Q839466
https://www.edwardjones.com/us-en/financial-advisor/tiffany-elliott,edwardjones,Tiffany C Elliott,,Weston,WV,,US,+1 304-269-5903,https://www.edwardjones.com/us-en/financial-advisor/tiffany-elliott,,Edward Jones,Q5343830
200313736,exxonmobil,LG #5320 WESTON,,WESTON,WV,,US,+1 304-997-8567,https://www.exxon.com/en/find-station/exxon-weston-wv-lg5320weston-200313736,Mo-Fr 05:00-00:00; Sa-Su 06:00-00:00,Exxon,Q109675651
32773,family_dollar_us,FAMILY DOLLAR #12773,,Weston,WV,,US,+1 681-495-6044,https://www.familydollar.com/locations/wv/weston/32773/,Mo-Su 08:00-22:00,Family Dollar,Q5433101
https://local.fedex.com/#27757201,fedex,FedEx Authorized ShipCenter,,Weston,WV,,US,+1 304-269-1030,https://local.fedex.com/en-us/wv/weston/38353,,FedEx,Q459477
Motorcraft2690USAEnglish,ford,"Weston Ford, Inc.",,West Virginia,WV,,US,+1 304-269-6564,,,Ford,Q44294
4072,fresenius_kidney_care_us,Fresenius Kidney Care - Weston,,Weston,WV,,US,+1 800-881-5101,https://www.freseniuskidneycare.com/dialysis-centers/west-virginia/4072,Mo 06:00-16:00; We 06:00-16:00; Fr 06:00-16:00,,
1503622,hardees_us,Hardee's,,Weston,WV,,US,+1 304-269-7392,https://locations.hardees.com/wv/weston/598-us-highway-33e,,Hardee's,Q1585088
ckbwehx-hampton-weston,hilton,Hampton Inn Weston,,,WV,,US,+1 304-997-8750,https://www.hilton.com/ar/hotels/ckbwehx-hampton-weston/,,Hampton by Hilton,Q5646230
21,huntingtonbank,Weston ,,Weston,WV,,US,+1 304-269-6152,https://www.huntington.com/Community/branch-info?locationId=21,Mo-Th 09:00-16:00; Fr 09:00-17:00; Sa 09:00-12:00; Su 00:00-00:00,Huntington Bank,Q798819
46203,h_r_block,H&R Block,,Weston,WV,,US,+1 304-269-1840,https://www.hrblock.com/local-tax-offices/west-virginia/weston/146-john-st/46203/,,H&R Block,Q5627799
https://locations.kfc.com/#11249856,kfc,Chicken Nuggets Near Weston,,Weston,WV,,US,,https://locations.kfc.com/wv/weston/339-u-s-highway-33/chickennugget,Mo-Su 10:00-23:00,KFC,Q524757
161529,marathon_petroleum_us,BFS FOODS NO 14,,Weston,WV,,US,+1 304-269-1278,,,Marathon,Q458363
206,sheetz,Sheetz,,Weston,WV,,US,+1 304-269-4852,https://orders.sheetz.com/findASheetz/store/206,24/7,Sheetz,Q7492551
https://restaurants.subway.com/#14896976,subway,Subway Weston WV,,Weston Lewis,WV,,US,+1 304-269-3274,https://restaurants.subway.com/united-states/wv/weston/678-us-highway-33e,Mo-Th 07:00-21:00; Fr 07:00-22:00; Sa 08:00-22:00; Su 09:00-21:00,Subway,Q244457
https://restaurants.subway.com/#14908455,subway,Subway Market Place Plaza,,Weston Lewis,WV,,US,+1 304-269-1100,https://restaurants.subway.com/united-states/wv/weston/344-market-place-plaza-mall,Mo-Th 08:00-21:00; Fr-Sa 08:00-22:00; Su 09:00-21:00,Subway,Q244457
https://locations.tacobell.com/#14320635,taco_bell,Taco Bell,,Weston,WV,,US,+1 304-997-4920,https://locations.tacobell.com/wv/weston/100-market-place-mall.html,Mo-Su 08:00-24:00,Taco Bell,Q752941
6ASY,tmobile_us,Market Place Mall,,Weston,WV,,US,+1 304-269-8600,https://www.t-mobile.com/store-locator/wv/weston/market-place-mall,,T-Mobile,Q3511885
053035,uhaul,JB's Self Storage & Rental,190 Vineyard Dr,Weston,WV,,US,+1 304-269-2001,,Mo-Fr 00:00-17:00; Sa 00:00-17:00,U-Haul,Q7862902
1387333,usps,WESTON,,WESTON,WV,,US,+1 304-269-1475,,"Mo-Fr 08:30-13:00,14:00-16:30; Sa 09:00-11:00",United States Postal Service,Q668687
2645200034,usps_collection_boxes,USPS COLLECTION BOX - BLUE BOX,119 CENTER AVE,WESTON,WV,,US,,,,United States Postal Service,Q668687
2645200035,usps_collection_boxes,USPS COLLECTION BOX - PO LOBBY,119 CENTER AVE,WESTON,WV,,US,,,,United States Postal Service,Q668687
2645200038,usps_collection_boxes,USPS COLLECTION BOX - PO LOBBY,119 CENTER AVE,WESTON,WV,,US,,,,United States Postal Service,Q668687
2645200030,usps_collection_boxes,USPS COLLECTION BOX - BLUE BOX,100 MARKET PLACE MALL,WESTON,WV,,US,,,,United States Postal Service,Q668687
2645200007,usps_collection_boxes,USPS COLLECTION BOX - BLUE BOX,21 GARTON PLZ,WESTON,WV,,US,,,,United States Postal Service,Q668687
2645200004,usps_collection_boxes,USPS COLLECTION BOX - BLUE BOX,401 JOHN ST,WESTON,WV,,US,,,,United States Postal Service,Q668687
,visa,,,WESTON,WV,,US,,,,,
,visa,,,WESTON,WV,,US,,,,,
,visa,,,WESTON,WV,,US,,,,,
,visa,,,WESTON,WV,,US,,,,,
,visa,,,WESTON,WV,,US,,,,,
,visa,,,WESTON,WV,,US,,,,,
,visa,,,WESTON,WV,,US,,,,,
,visa,,,WESTON,WV,,US,,,,,
,visa,,,WESTON,WV,,US,,,,,
,visa,,,WESTON,WV,,US,,,,,
,visa,,,WESTON,WV,,US,,,,,
,visa,,,WESTON,WV,,US,,,,,
,visa,,,WESTON,WV,,US,,,,,
,visa,,,WESTON,WV,,US,,,,,
,visa,,,WESTON,WV,,US,,,,,
,visa,,,WESTON,WV,,US,,,,,
,visa,,,WESTON,WV,,US,,,,,
,visa,,,WESTON,WV,,US,,,,,
,visa,,,WESTON,WV,,US,,,,,
,visa,,,WESTON,WV,,US,,,,,
,visa,,,WESTON,WV,,US,,,,,
,visa,,,WESTON,WV,,US,,,,,
,visa,,,WESTON,WV,,US,,,,,
,visa,,,WESTON,WV,,US,,,,,
,visa,,,WESTON,WV,,US,,,,,
,visa,,,WESTON,WV,,US,,,,,
,visa,,,WESTON,WV,,US,,,,,
,visa,,,WESTON,WV,,US,,,,,
,visa,,,WESTON,WV,,US,,,,,
,visa,,,IRELAND,WV,,US,,,,,
https://locations.wendys.com/#9256432,wendys,"Wendy's Weston in Weston, WV",,Weston,WV,,US,+1 304-269-4187,https://locations.wendys.com/united-states/wv/weston/673-us-highway-33-east,"Mo-Su 06:30-10:30,08:00-22:00",Wendy's,Q550258
71e8f7fb1853cb9fd1b6b4feb999c7b2,western_union,WALMART #001653,,Weston,WV,,US,+1 304-269-1549,https://location.westernunion.com/us/wv/weston/71e8f7fb1853cb9fd1b6b4feb999c7b2,Mo-Su 07:00-21:00,Western Union,Q861042
