Ref,Spider,Name,Address,City,State,Zipcode,Country,Phone,Website,Hours,Brand,WikiData
72485886,moneygram,NATIONAL ELECTRIC - AZAMGARH - AZAMGARH,,AZAMGARH,,,IN,+91 99367 02473,,Mo-Su 08:00-22:00,MoneyGram,Q1944412
72607651,moneygram,SANA MOBAILE CARE,,AZAMGARH,,,IN,+91 91255 31119,,Mo-Su 08:00-21:00,MoneyGram,Q1944412
72597907,moneygram,ASIA TOUR & TRAVELS,,AZAMGARH,,,IN,+91 96218 29292,,Mo-Su 08:00-21:00,MoneyGram,Q1944412
72591110,moneygram,INDIAN TOUR AND TRAVELS,,AZAMGARH,,,IN,+91 99841 51015,,Mo-Su 08:00-21:00,MoneyGram,Q1944412
72595077,moneygram,SHUBHAM CLINIC,,AZAMGARH,,,IN,+91 94500 72783,,Mo-Su 08:00-21:00,MoneyGram,Q1944412
72587852,moneygram,SAHARA COMPUTER CENTRE,,AZAMGARH,,,IN,+91 94500 30770,,Mo-Su 08:00-21:00,MoneyGram,Q1944412
72884539,moneygram,AL HIND TOUR AND TRAVELS - AZAMGARH,,AZAMGARH,,,IN,+91 94537 53369,,Mo-Su 08:00-20:00,MoneyGram,Q1944412
72892916,moneygram,GUPTA AND COMPANY,,AZAMGARH,,,IN,+91 94152 08457,,Mo-Su 08:00-21:00,MoneyGram,Q1944412
72893957,moneygram,SAHARA TOURS AND TRAVEL,,PHOOLPUR,,,IN,+91 99199 66022,,Mo-Su 08:00-21:00,MoneyGram,Q1944412
72934748,moneygram,AL-SHOAIB TOUR AND TRAVELS - AZAMGARH,,AZAMGARH,,,IN,+91 97957 68143,,Mo-Su 08:00-20:00,MoneyGram,Q1944412
73413886,moneygram,JANTA TOUR AND TRAVELS,,AZAMGARH,,,IN,+91 99843 52856,,Mo-Su 08:00-21:00,MoneyGram,Q1944412
73437943,moneygram,A K TOURS AND TRAVELS,,AZAMGARH,,,IN,+91 95545 53838,,Mo-Su 08:00-21:00,MoneyGram,Q1944412
73446727,moneygram,UNIQUE ELECTRONIC,,AZAMGARH,,,IN,+91 99841 75288,,Mo-Su 08:00-21:00,MoneyGram,Q1944412
73540461,moneygram,A F KHAN TYRE SERVICE,,AZAMGARH,,,IN,+91 99184 06051,,Mo-Su 08:00-21:00,MoneyGram,Q1944412
73540526,moneygram,AJAFAR PCO,,AZAMGARH,,,IN,+91 98386 19263,,Mo-Su 08:00-21:00,MoneyGram,Q1944412
73540539,moneygram,GRAHAK SEWA KENDRA,,AZAMGARH,,,IN,+91 78007 07045,,Mo-Su 08:00-21:00,MoneyGram,Q1944412
73637293,moneygram,ZAHRIS TOURS AND TRAVELS,,AZAMGARH,,,IN,+91 97865 26320,,Mo-Su 08:00-21:00,MoneyGram,Q1944412
73713764,moneygram,ZARA TOURS AND TRAVELS - AZAMGARH,,AZAMGARH,,,IN,+91 70545 91318,,Mo-Su 08:00-20:00,MoneyGram,Q1944412
73738338,moneygram,AYAN TORS&TRAVELS,,AZAMGARH,,,IN,+91 94524 03907,,Mo-Su 08:00-21:00,MoneyGram,Q1944412
73808857,moneygram,KHAN ONLINE SERVICES - AZAMGARH,,AZAMGARH,,,IN,+91 63877 19350,,Mo-Su 08:00-20:00,MoneyGram,Q1944412
74183814,moneygram,MS MAA SHARDA PRINTERS,,PHOOL PUR,,,IN,+91 94532 01036,,Mo-Su 08:00-21:00,MoneyGram,Q1944412
