Ref,Spider,Name,Address,City,State,Zipcode,Country,Phone,Website,Hours,Brand,WikiData
https://www.ameripriseadvisors.com/team/quest-wealth-management/contact/,ameriprise_us,Quest Wealth Management,,Spencer,IA,,US,+1 712-262-1777,https://www.ameripriseadvisors.com/team/quest-wealth-management/,"Mo-Th 08:00-04:00,08:00-05:00,09:00-05:00; Fr 08:00-03:00,08:00-05:00,09:00-05:00",Ameriprise Financial,Q2843129
1699,anytime_fitness,Anytime Fitness,,Spencer,IA,,US,+1 712-580-3788,https://www.anytimefitness.com/gyms/1699/spencer-ia-51301/,,Anytime Fitness,Q4778364
https://locations.arbys.com/ia/spencer/706-11th-st-sw.html,arbys_us,"Arby's Fast-Food Drive Through Near You in Spencer, IA",,Spencer,IA,,US,+1 712-262-4960,https://locations.arbys.com/ia/spencer/706-11th-st-sw.html,Mo-Su 10:00-23:00,Arby's,Q630866
22006,asics_us,Brown's Shoe Fit Spencer,415 Grand Ave,Spencer,IA,,US,+1 712-262-2857,,Mo-We 09:00-17:30; Th 09:00-19:00; Fr 09:00-17:30; Sa 09:00-17:00,asics,Q327247
77974,asics_us,Dunham's Sports,901 11th St SW,Spencer,IA,,US,+1 712-262-6222,,,asics,Q327247
https://awrestaurants.com/locations/iowa/spencer/1804-highway-boulevard/,awrestaurants,A&W Restaurant,,Spencer,IA,,US,+1 712-262-0409,https://awrestaurants.com/locations/iowa/spencer/1804-highway-boulevard/,Mo-Sa 11:00-20:00,A&W Restaurants,Q277641
202614,bluerhino,CASEY'S GENERAL STORE #2902,,SPENCER,IA,,US,+1 712-262-2542,,,Blue Rhino,Q65681213
152793,bluerhino,Walgreens #11153,,Spencer,IA,,US,+1 712-262-0231,,,Blue Rhino,Q65681213
201831,bluerhino,Menards - SPENCER #3202,,SPENCER,IA,,US,+1 712-262-2022,,,Blue Rhino,Q65681213
119350,bluerhino,Bomgaar's #037,,Spencer,IA,,US,+1 712-262-4583,,,Blue Rhino,Q65681213
202603,bluerhino,CASEY'S GENERAL STORE #2877,,SPENCER,IA,,US,+1 712-262-7301,,,Blue Rhino,Q65681213
202387,bluerhino,CASEY'S GENERAL STORE #1894,,SPENCER,IA,,US,+1 712-262-0106,,,Blue Rhino,Q65681213
https://local.buckle.com/ia/spencer/clothing-19.html,buckle_us,Spencer Men’s & Women’s Clothing,,Spencer,IA,,US,+1 712-262-8839,https://local.buckle.com/ia/spencer/clothing-19.html,Mo-Sa 11:00-18:00; Su 12:00-17:00,Buckle,Q4983306
18302,chevrolet,H & N CHEVROLET-BUICK CO.,,Spencer,IA,,US,+1 877-668-0545,https://www.hnchevy.com,Mo-Fr 08:00-17:00; Sa 08:00-12:00,Chevrolet,Q29570
66641,citi,ATM NORTHWEST BANK27,,Lemars,IA,,US,,,,Citibank,Q857063
66661,citi,ATM NORTHWEST BANK27,,Spencer,IA,,US,,,,Citibank,Q857063
92964,citi,ATM Walgreens,,Spencer,IA,,US,,,,Citibank,Q857063
66657,citi,ATM NORTHWEST BANK27,,Spencer,IA,,US,,,,Citibank,Q857063
55607,citi,ATM FIRST FED CU ITM #3 91,,Spencer,IA,,US,,,,Citibank,Q857063
66663,citi,ATM NORTHWEST BANK27,,Spencer,IA,,US,,,,Citibank,Q857063
66662,citi,ATM NORTHWEST BANK27,,Spencer,IA,,US,,,,Citibank,Q857063
70189621,cricket_wireless,Cricket Wireless Authorized Retailer,,Spencer,IA,,US,+1 712-584-5799,https://www.cricketwireless.com/stores/ll/US/IA/Spencer/700-11th-St-SW,Mo-Fr 11:00-18:00; Sa 10:00-18:00; Su 12:00-17:00,Cricket Wireless,Q5184987
1791,dominos_pizza_us,Domino's Pizza,,Spencer,IA,,US,+1 712-346-5555,https://pizza.dominos.com/iowa/spencer/1721-1st-ave-w,Mo-Th 10:30-24:00; Fr-Sa 10:30-01:00; Su 10:30-24:00,Domino's,Q839466
082,dunhams_sports_us,SPENCER IA,,SPENCER,IA,,US,+1 712-262-6222,https://www.dunhamssports.com/store-details?storeID=082,Mo-Sa 09:00-21:00; Su 10:00-19:00,Dunham's Sports,Q5315238
https://www.edwardjones.com/us-en/financial-advisor/jen-irvine,edwardjones,Jen Irvine,,Spencer,IA,,US,+1 712-262-0142,https://www.edwardjones.com/us-en/financial-advisor/jen-irvine,,Edward Jones,Q5343830
https://www.efaststop.com/store-locator/pv/3000/id/203,fast_stop_us,Spencer East FAST STOP Express,,Spencer,IA,,US,+1 888-437-3835,https://www.efaststop.com/store-locator/pv/3000/id/203,,FAST STOP,Q116734101
https://www.efaststop.com/store-locator/pv/3000/id/204,fast_stop_us,Spencer West FAST STOP Express,,Spencer,IA,,US,+1 888-437-3835,https://www.efaststop.com/store-locator/pv/3000/id/204,,FAST STOP,Q116734101
https://local.fedex.com/#25205666,fedex,,,Spencer,IA,,US,+1 800-463-3339,https://local.fedex.com/en-us/ia/spencer/u8cpx,,FedEx,Q459477
Motorcraft4419USAEnglish,ford,"Don Pierson Ford-Lincoln, Inc.",,Iowa,IA,,US,+1 712-262-5750,,,Ford,Q44294
Motorcraft4431USAEnglish,ford,Johnston Auto Stores,,Iowa,IA,,US,+1 712-262-2605,,,Ford,Q44294
https://www.ford.com/dealerships/dealer-details/ia/spencer/don-pierson-ford_lincoln-inc/,ford_dealers_us,"Don Pierson Ford-Lincoln, Inc.",,Spencer,IA,,US,+1 712-264-5098,https://www.ford.com/dealerships/dealer-details/ia/spencer/don-pierson-ford_lincoln-inc/,Mo-Fr 08:00-17:30; Sa 08:00-13:00,Ford Motor Company,Q44294
c3a20146-458a-e111-8dde-005056934050,goodwill,1108 4th Ave Sw Store,,Spencer,IA,,US,+1 712-264-1175,https://www.goodwill.org/locator/location/?store=YzNhMjAxNDYtNDU4YS1lMTExLThkZGUtMDA1MDU2OTM0MDUw&lat=NDMuMTI2NTk=&lng=LTk1LjE1MDcy,,Goodwill,Q5583655
26635,h_r_block,H&R Block,,Spencer,IA,,US,+1 712-262-2623,https://www.hrblock.com/local-tax-offices/iowa/spencer/712-11th-st-sw/26635/,,H&R Block,Q5627799
https://office.jacksonhewitt.com/#27575847,jackson_hewitt,Jackson Hewitt,,Spencer,IA,,US,+1 712-266-5090,https://office.jacksonhewitt.com/tax-preparation-services-locations/en/ia/spencer/500-11th-st-sw/52714,Mo-Fr 10:00-19:00; Sa 10:00-16:00; Su 12:00-16:00,Jackson Hewitt,Q6117132
https://locations.jimmyjohns.com/ia/spencer/sandwiches-2074.html,jimmy_johns,Jimmy John's,,Spencer,IA,,US,+1 712-580-3100,https://locations.jimmyjohns.com/ia/spencer/sandwiches-2074.html,,Jimmy John's,Q1689380
https://locations.kfc.com/#11250176,kfc,Chicken Nuggets Near Spencer,,Spencer,IA,,US,,https://locations.kfc.com/ia/spencer/921-south-grand-avenue/chickennugget,Mo-Su 11:00-20:00,KFC,Q524757
https://locations.maurices.com/#11688359,maurices,maurices Pine Tree Plaza Ste 6F,,Spencer,IA,,US,+1 712-262-4614,https://locations.maurices.com/us/ia/spencer/700-11th-street-sw,Mo-Fr 10:00-20:00; Sa 10:00-18:00; Su 11:00-17:00,maurices,Q6793571
3202,menards,SPENCER,"1301 12TH AVE SW, SPENCER, IA 51301",SPENCER,IA,,US,,https://www.menards.com/main/storeDetails.html?store=3202,,Menards,Q1639897
https://locations.oreillyauto.com/ia/spencer/check-engine-light-testing-5040.html,oreilly,Your Spencer O'Reilly Auto Parts Store,,Spencer,IA,,US,+1 712-264-2074,https://locations.oreillyauto.com/ia/spencer/check-engine-light-testing-5040.html,Mo-Sa 07:30-20:00; Su 09:00-19:00,O'Reilly Auto Parts,Q7071951
https://locations.oreillyauto.com/ia/spencer/wiper-installation-5040.html,oreilly,Your Spencer O'Reilly Auto Parts Store,,Spencer,IA,,US,+1 712-264-2074,https://locations.oreillyauto.com/ia/spencer/wiper-installation-5040.html,Mo-Sa 07:30-20:00; Su 09:00-19:00,O'Reilly Auto Parts,Q7071951
https://locations.oreillyauto.com/ia/spencer/battery-testing-5040.html,oreilly,Your Spencer O'Reilly Auto Parts Store,,Spencer,IA,,US,+1 712-264-2074,https://locations.oreillyauto.com/ia/spencer/battery-testing-5040.html,Mo-Sa 07:30-20:00; Su 09:00-19:00,O'Reilly Auto Parts,Q7071951
https://locations.oreillyauto.com/ia/spencer/autopartes-5040.html,oreilly,Tu tienda O'Reilly Auto Parts en Spencer,,Spencer,IA,,US,+1 712-264-2074,https://locations.oreillyauto.com/ia/spencer/autopartes-5040.html,Mo-Sa 07:30-20:00; Su 09:00-19:00,O'Reilly Auto Parts,Q7071951
https://locations.papamurphys.com/#15429740,papamurphys,Pizza Takeout & Delivery,,Spencer,IA,,US,+1 712-580-2112,https://locations.papamurphys.com/ia/spencer/1019-south-grand-ave,Mo-Su 11:00-20:00,Papa Murphy's,Q7132349
3141,rentacenter,Rent-A-Center,,Spencer,IA,,US,+1 712-584-3169,https://locations.rentacenter.com/iowa/spencer/700-11th-st-sw/,Mo-Sa 10:00-18:00,Rent-A-Center,Q7313497
204,scooters_coffee_us,E 8th & 1st Ave,,Spencer,IA,,US,+1 712-580-6006,,Mo-Su 06:00-20:00,Scooter's Coffee,Q117280308
https://stations.sinclairoil.com/ia/spencer/1804-highway-blvd,sinclair_us,Sinclair Gas Station,,Spencer,IA,,US,+1 712-262-6517,https://stations.sinclairoil.com/ia/spencer/1804-highway-blvd,Mo-Sa 06:00-22:00; Su 07:00-22:00,Sinclair,Q1290900
https://stations.sinclairoil.com/ia/spencer/1001-s-grand-ave,sinclair_us,Sinclair Gas Station,,Spencer,IA,,US,+1 712-262-2088,https://stations.sinclairoil.com/ia/spencer/1001-s-grand-ave,Mo-Fr 05:00-23:00; Sa-Su 06:00-23:00,Sinclair,Q1290900
https://stations.sinclairoil.com/ia/spencer/4318-highway-blvd,sinclair_us,Sinclair Gas Station,,Spencer,IA,,US,+1 712-262-7006,https://stations.sinclairoil.com/ia/spencer/4318-highway-blvd,24/7,Sinclair,Q1290900
https://stations.sinclairoil.com/ia/spencer/15-grand-ave,sinclair_us,Sinclair Gas Station,,Spencer,IA,,US,+1 712-262-8652,https://stations.sinclairoil.com/ia/spencer/15-grand-ave,24/7,Sinclair,Q1290900
https://restaurants.subway.com/#14908574,subway,Subway,,Spencer Clay,IA,,US,+1 712-262-6549,https://restaurants.subway.com/united-states/ia/spencer/603-s-grand,Mo-Su 09:00-22:00,Subway,Q244457
https://restaurants.subway.com/#14903741,subway,Subway,,Spencer Clay,IA,,US,+1 712-262-5162,https://restaurants.subway.com/united-states/ia/spencer/1919-hwy-blvd-n,Mo-Sa 08:00-21:00; Su 09:00-21:00,Subway,Q244457
https://locations.tacobell.com/#6144262,taco_bell,Taco Bell,,Spencer,IA,,US,+1 712-262-7155,https://locations.tacobell.com/ia/spencer/320-11th-st-sw-plaza.html,Mo-Th 08:00-24:00; Fr-Sa 07:00-01:00; Su 08:00-24:00,Taco Bell,Q752941
081606,tjx,Spencer,700 11th Street SW,Spencer,IA,,US,+1 712-262-0038,,Mo-Sa 10:00-21:00; Su 10:00-19:00,TJ Maxx,Q10860683
247G,tmobile_us,The Commons,,Spencer,IA,,US,+1 712-264-2452,https://www.t-mobile.com/store-locator/ia/spencer/the-commons,,T-Mobile,Q3511885
1382466,usps,SPENCER,,SPENCER,IA,,US,+1 712-264-8815,,Mo-Fr 08:30-17:00; Sa 08:30-11:30,United States Postal Service,Q668687
5130100021,usps_collection_boxes,USPS COLLECTION BOX - BLUE BOX,1019 S GRAND AVE,SPENCER,IA,,US,,,,United States Postal Service,Q668687
5130100018,usps_collection_boxes,USPS COLLECTION BOX - BLUE BOX,126 GRAND AVE,SPENCER,IA,,US,,,,United States Postal Service,Q668687
5130100017,usps_collection_boxes,USPS COLLECTION BOX - BLUE BOX,501 GRAND AVE,SPENCER,IA,,US,,,,United States Postal Service,Q668687
5130100004,usps_collection_boxes,USPS COLLECTION BOX - BLUE BOX,1200 1ST AVE E,SPENCER,IA,,US,,,,United States Postal Service,Q668687
5130100002,usps_collection_boxes,USPS COLLECTION BOX - BLUE BOX,125 W 4TH ST,SPENCER,IA,,US,,,,United States Postal Service,Q668687
5130100008,usps_collection_boxes,USPS COLLECTION BOX - BLUE BOX,11 E 18TH ST,SPENCER,IA,,US,,,,United States Postal Service,Q668687
5130100019,usps_collection_boxes,USPS COLLECTION BOX - PO LOBBY,11 E 18TH ST,SPENCER,IA,,US,,,,United States Postal Service,Q668687
5130100022,usps_collection_boxes,USPS COLLECTION BOX - PO LOBBY,11 E 18TH ST,SPENCER,IA,,US,,,,United States Postal Service,Q668687
5130100000,usps_collection_boxes,USPS COLLECTION BOX - BLUE BOX,300 W 4TH ST,SPENCER,IA,,US,,,,United States Postal Service,Q668687
5130100020,usps_collection_boxes,USPS COLLECTION BOX - BLUE BOX,500 11TH ST SW,SPENCER,IA,,US,,,,United States Postal Service,Q668687
A00000250978,verizon_us,BeMobile Spencer,,Spencer,IA,,US,+1 712-346-0040,https://www.verizon.com/stores/details/iowa/spencer/bemobile-spencer-1889022/,Mo-Fr 09:00-20:00; Sa 09:00-19:00; Su 10:00-17:00,Verizon,Q919641
,visa,,,SPENCER,IA,,US,,,,,
,visa,,,SPENCER,IA,,US,,,,,
,visa,,,SPENCER,IA,,US,,,,,
,visa,,,SPENCER,IA,,US,,,,,
,visa,,,SPENCER,IA,,US,,,,,
,visa,,,SPENCER,IA,,US,,,,,
,visa,,,SPENCER,IA,,US,,,,,
,visa,,,SPENCER,IA,,US,,,,,
,visa,,,SPENCER,IA,,US,,,,,
,visa,,,FOSTORIA,IA,,US,,,,,
,visa,,,SPENCER,IA,,US,,,,,
,visa,,,SPENCER,IA,,US,,,,,
,visa,,,SPENCER,IA,,US,,,,,
,visa,,,SPENCER,IA,,US,,,,,
,visa,,,SPENCER,IA,,US,,,,,
,visa,,,SPENCER,IA,,US,,,,,
,visa,,,SPENCER,IA,,US,,,,,
,visa,,,SPENCER,IA,,US,,,,,
,visa,,,SPENCER,IA,,US,,,,,
,visa,,,SPENCER,IA,,US,,,,,
,visa,,,SPENCER,IA,,US,,,,,
,visa,,,SPENCER,IA,,US,,,,,
,visa,,,SPENCER,IA,,US,,,,,
,visa,,,SPENCER,IA,,US,,,,,
,visa,,,SPENCER,IA,,US,,,,,
,visa,,,SPENCER,IA,,US,,,,,
,visa,,,SPENCER,IA,,US,,,,,
,visa,,,SPENCER,IA,,US,,,,,
,visa,,,SPENCER,IA,,US,,,,,
,visa,,,SPENCER,IA,,US,,,,,
,visa,,,SPENCER,IA,,US,,,,,
,visa,,,SPENCER,IA,,US,,,,,
https://www.walgreens.com/locator/walgreens-800+grand+ave-spencer-ia-51301/id=11153,walgreens,Walgreens,,Spencer,IA,,US,+1 712-262-0231,https://www.walgreens.com/locator/walgreens-800+grand+ave-spencer-ia-51301/id=11153,Mo-Su 07:00-22:00,Walgreens,Q1591889
f5ef22ddce1fd9015332068c5a029dac,western_union,WALMART #002714,,Spencer,IA,,US,+1 712-262-5001,https://location.westernunion.com/us/ia/spencer/f5ef22ddce1fd9015332068c5a029dac,Mo-Su 07:00-21:00,Western Union,Q861042
