Ref,Spider,Name,Address,City,State,Zipcode,Country,Phone,Website,Hours,Brand,WikiData
19552,asics_us,Fleet Feet Fayetteville NC,1221 Hay St,Fayetteville,NC,,US,+1 910-758-9127,,Mo-Sa 10:00-18:00; Su 13:00-17:00,asics,Q327247
41106,bluerhino,Food Lion #721,,Fayetteville,NC,,US,+1 910-323-3132,,,Blue Rhino,Q65681213
236001,bluerhino,Circle K #2723007,,Fayetteville,NC,,US,+1 910-485-7666,,,Blue Rhino,Q65681213
76561255599022830500100000000000,bp,BP,,Fayetteville,NC,,US,+1 910-323-9223,,Mo-Th 06:00-24:00; Fr-Sa 06:00-02:00; Su 06:00-24:00,BP,Q152057
SFANYD,builders_firstsource_us,Fayetteville NC Yard,,Fayetteville,NC,,US,+1 910-485-1111,https://www.bldr.com/location/fayetteville-nc-yard/SFANYD,Mo-Fr 07:00-16:00,Builders FirstSource,Q27686100
40611,citi,ATM Circle K,,Fayetteville,NC,,US,,,,Citibank,Q857063
vc_0315V,department_veterans_affairs,"Fayetteville, NC Vet Center",,Fayetteville,NC,,US,+1 910-488-6252,https://www.va.gov/fayetteville-nc-vet-center/,,Department Veterans Affairs,Q592576
https://www.edwardjones.com/us-en/financial-advisor/megan-tate,edwardjones,Megan Tate,,Fayetteville,NC,,US,+1 910-485-3635,https://www.edwardjones.com/us-en/financial-advisor/megan-tate,Mo-Th 09:00-17:00; Fr 09:00-16:00,Edward Jones,Q5343830
https://www.fleetfeet.com/s/fayettevillenc,fleet_feet_us,Fleet Feet,,Fayetteville,NC,,US,,https://www.fleetfeet.com/s/fayettevillenc,,Fleet Feet,Q117062761
1366552,usps,HAYMOUNT,,FAYETTEVILLE,NC,,US,+1 910-486-8981,,Mo-Fr 08:00-16:30; Sa 10:00-12:00,United States Postal Service,Q668687
2830500003,usps_collection_boxes,USPS COLLECTION BOX - BLUE BOX,106 OAKRIDGE AVE,FAYETTEVILLE,NC,,US,,,,United States Postal Service,Q668687
2830500004,usps_collection_boxes,USPS COLLECTION BOX - BLUE BOX,106 OAKRIDGE AVE,FAYETTEVILLE,NC,,US,,,,United States Postal Service,Q668687
2830500009,usps_collection_boxes,USPS COLLECTION BOX - BLUE BOX,106 OAKRIDGE AVE,FAYETTEVILLE,NC,,US,,,,United States Postal Service,Q668687
2830500017,usps_collection_boxes,USPS COLLECTION BOX - PO LOBBY,106 OAKRIDGE AVE,FAYETTEVILLE,NC,,US,,,,United States Postal Service,Q668687
2830500018,usps_collection_boxes,USPS COLLECTION BOX - PO LOBBY,106 OAKRIDGE AVE,FAYETTEVILLE,NC,,US,,,,United States Postal Service,Q668687
2830500019,usps_collection_boxes,USPS COLLECTION BOX - BLUE BOX,106 OAKRIDGE AVE,FAYETTEVILLE,NC,,US,,,,United States Postal Service,Q668687
2830500020,usps_collection_boxes,USPS COLLECTION BOX - BLUE BOX,106 OAKRIDGE AVE,FAYETTEVILLE,NC,,US,,,,United States Postal Service,Q668687
2830500021,usps_collection_boxes,USPS COLLECTION BOX - PO LOBBY,106 OAKRIDGE AVE,FAYETTEVILLE,NC,,US,,,,United States Postal Service,Q668687
,visa,,,FAYETTEVILLE,NC,,US,,,,,
,visa,,,FAYETTEVILLE,NC,,US,,,,,
,visa,,,FAYETTEVILLE,NC,,US,,,,,
,visa,,,FAYETTEVILLE,NC,,US,,,,,
,visa,,,FAYETTEVILLE,NC,,US,,,,,
,visa,,,FAYETTEVILLE,NC,,US,,,,,
,visa,,,FAYETTEVILLE,NC,,US,,,,,
,visa,,,FAYETTEVILLE,NC,,US,,,,,
,visa,,,FAYETTEVILLE,NC,,US,,,,,
,visa,,,FAYETTEVILLE,NC,,US,,,,,
,visa,,,FAYETTEVILLE,NC,,US,,,,,
,visa,,,FAYETTEVILLE,NC,,US,,,,,
