Ref,Spider,Name,Address,City,State,Zipcode,Country,Phone,Website,Hours,Brand,WikiData
72136591,moneygram,COPPEL TRANSMISORES - ACAPULCO - BAHIA,,ACAPULCO,GE,,MX,+52 744 483 3089,,Mo-Sa 10:00-20:00; Su 11:00-20:00,MoneyGram,Q1944412
72136740,moneygram,COPPEL TRANSMISORES - ACAPULCO - CUAUHTE,,ACAPULCO,GE,,MX,+52 744 482 7567,,Mo-Sa 10:00-20:00; Su 11:00-20:00,MoneyGram,Q1944412
72136672,moneygram,COPPEL TRANSMISORES - ACAPULCO - ESPINAL,,ACAPULCO,GE,,MX,+52 744 483 9728,,Mo-Sa 10:00-20:00; Su 11:00-20:00,MoneyGram,Q1944412
72406182,moneygram,BANORTE - #BANORTE-02990 - ACAPULCO DE J,,ACAPULCO DE JUAREZ,GE,,MX,+52 800 833 4700,,Mo-Fr 09:00-16:00; Sa-Su 00:00-24:00,MoneyGram,Q1944412
72230316,moneygram,FARMACIAS DEL AHORRO - #38 - ACAPULCO DE,,ACAPULCO DE JUAREZ,GE,,MX,5253224320,,Mo-Su 07:00-23:00,MoneyGram,Q1944412
72230390,moneygram,FARMACIAS DEL AHORRO - #47 - ACAPULCO DE,,ACAPULCO DE JUAREZ,GE,,MX,5253224320,,Mo-Su 07:00-23:00,MoneyGram,Q1944412
69509869,moneygram,MODATELAS - #1076 - 14 MODATELAS ACAPULC,,ACAPULCO DE JUAREZ,GE,,MX,+52 744 482 0628,,Mo-Su 08:00-20:00,MoneyGram,Q1944412
69510832,moneygram,MODATELAS - #1077 - 189 MODATELAS ACAPUL,,ACAPULCO DE JUAREZ,GE,,MX,+52 744 483 6177,,Mo-Su 08:00-20:00,MoneyGram,Q1944412
68811707,moneygram,DINERO EXPRESS - #8187 - ACAPULCO DE JUA,,ACAPULCO DE JUAREZ,GE,,MX,+52 55 1720 8141,,Mo-Su 09:00-21:00,MoneyGram,Q1944412
68825049,moneygram,DINERO EXPRESS - #2008 - ACAPULCO DE JUA,,ACAPULCO DE JUAREZ,GE,,MX,+52 55 1720 8141,,Mo-Su 09:00-21:00,MoneyGram,Q1944412
70392845,moneygram,FARMACIAS GUADALAJARA - ACAPULCO GUERRE,,ACAPULCO DE JUAREZ,GE,,MX,+52 713 278 5436,,Mo-Su 08:00-22:00,MoneyGram,Q1944412
70391765,moneygram,FARMACIAS GUADALAJARA - ACAPULCO GUERRE,,ACAPULCO DE JUAREZ,GE,,MX,+52 713 278 5436,,Mo-Su 08:00-22:00,MoneyGram,Q1944412
70455614,moneygram,TIENDAS SORIANA - #858 - ACAPULCO - ACAP,,ACAPULCO,GE,,MX,+52 81 1112 0003,,Mo-Su 08:00-22:00,MoneyGram,Q1944412
70752553,moneygram,ELECZION - #1023 - ACAPULCO - ACAPULCO,,ACAPULCO,GE,,MX,5263180635,,Mo-Su 07:00-23:00,MoneyGram,Q1944412
70755709,moneygram,ELECZION - #1237 - ACAPULCO - ACAPULCO 3,,ACAPULCO,GE,,MX,5263180635,,Mo-Su 07:00-23:00,MoneyGram,Q1944412
71117906,moneygram,TELECOMM - #TELECOMM 12050 - ACAPULCO DE,,ACAPULCO DE JUAREZ,GE,,MX,55118008334700,,Mo-Fr 09:00-15:00; Sa-Su 00:00-24:00,MoneyGram,Q1944412
71117414,moneygram,TELECOMM - #TELECOMM 12001 - ACAPULCO DE,,ACAPULCO DE JUAREZ,GE,,MX,55118008334700,,Mo-Fr 09:00-15:00; Sa-Su 00:00-24:00,MoneyGram,Q1944412
71136071,moneygram,ELEKTRA - #2008 - ACAPULCO DE JUAREZ - B,,ACAPULCO DE JUAREZ,GE,,MX,+52 55 1720 7000,,Mo-Su 09:00-21:00,MoneyGram,Q1944412
71147471,moneygram,ELEKTRA - #8187 - ACAPULCO DE JUAREZ - B,,ACAPULCO DE JUAREZ,GE,,MX,+52 55 1720 7000,,Mo-Su 09:00-21:00,MoneyGram,Q1944412
71139683,moneygram,ELEKTRA - #3960 - ACAPULCO DE JUAREZ - B,,ACAPULCO DE JUAREZ,GE,,MX,+52 55 1720 7000,,Mo-Su 07:30-21:00,MoneyGram,Q1944412
44929532,moneygram,CAJA POPULAR MEX - #2120 - CENTRO ACAPUL,,ACAPULCO DE JUAREZ,GE,,MX,+52 744 482 9765,,Mo-Fr 09:00-16:00; Sa 09:00-14:00; Su 00:00-24:00,MoneyGram,Q1944412
45832369,moneygram,SORIANA - #398,,ACAPULCO DE JUAREZ,GE,,MX,+52 713 278 5436,,Mo-Su 08:00-22:00,MoneyGram,Q1944412
66286525,moneygram,WOOLWORTH - #2517,,ACAPULCO,GE,,MX,+52 800 833 4700,,Mo-Su 09:00-21:00,MoneyGram,Q1944412
71535876,moneygram,ELECZION - #1338 - ACAPULCO DE JUAREZ -,,ACAPULCO DE JUAREZ,GE,,MX,555563180635,,Mo-Su 07:00-23:00,MoneyGram,Q1944412
71239046,moneygram,OXXO - 7 ESQUINAS ACA,,ACAPULCO DE JUAREZ,GE,,MX,+52 81 8389 2121,,Mo-Su 03:00-24:00,MoneyGram,Q1944412
71238445,moneygram,OXXO - CAPAMA ACA,,ACAPULCO DE JUAREZ,GE,,MX,+52 81 8389 2121,,Mo-Su 03:00-24:00,MoneyGram,Q1944412
71237268,moneygram,OXXO - CINCO DE MAYO ACA,,ACAPULCO DE JUAREZ,GE,,MX,+52 81 8389 2121,,Mo-Su 03:00-24:00,MoneyGram,Q1944412
71237925,moneygram,OXXO - CLINICA 9 ACA,,ACAPULCO DE JUAREZ,GE,,MX,+52 81 8389 2121,,Mo-Su 03:00-24:00,MoneyGram,Q1944412
71238759,moneygram,OXXO - CORREOS ACA,,ACAPULCO DE JUAREZ,GE,,MX,+52 81 8389 2121,,Mo-Su 03:00-24:00,MoneyGram,Q1944412
71237365,moneygram,OXXO - EL VAQUERO ACA,,ACAPULCO DE JUAREZ,GE,,MX,+52 81 8389 2121,,Mo-Su 03:00-24:00,MoneyGram,Q1944412
71238788,moneygram,OXXO - JESUS CARRANZA ACA,,ACAPULCO DE JUAREZ,GE,,MX,+52 81 8389 2121,,Mo-Su 03:00-24:00,MoneyGram,Q1944412
71238678,moneygram,OXXO - LA QUEBRADA ACA,,ACAPULCO DE JUAREZ,GE,,MX,+52 81 8389 2121,,Mo-Su 03:00-24:00,MoneyGram,Q1944412
71237420,moneygram,OXXO - LERDO DE TEJADA ACA,,ACAPULCO DE JUAREZ,GE,,MX,+52 81 8389 2121,,Mo-Su 03:00-24:00,MoneyGram,Q1944412
71238348,moneygram,OXXO - LIMA ACA,,ACAPULCO DE JUAREZ,GE,,MX,+52 81 8389 2121,,Mo-Su 03:00-24:00,MoneyGram,Q1944412
71238898,moneygram,OXXO - MALECON ACA,,ACAPULCO DE JUAREZ,GE,,MX,+52 81 8389 2121,,Mo-Su 03:00-24:00,MoneyGram,Q1944412
71238843,moneygram,OXXO - OVIEDO ACA,,ACAPULCO DE JUAREZ,GE,,MX,+52 81 8389 2121,,Mo-Su 03:00-24:00,MoneyGram,Q1944412
71237242,moneygram,OXXO - PARIAN ACA,,ACAPULCO DE JUAREZ,GE,,MX,+52 81 8389 2121,,Mo-Su 03:00-24:00,MoneyGram,Q1944412
71765950,moneygram,CADENA COMERCIAL OXXO SA DE CV - #10CUE5,,ACAPULCO DE JUAREZ,GE,,MX,+52 81 8389 2121,,Mo-Su 03:00-24:00,MoneyGram,Q1944412
