Ref,Spider,Name,Address,City,State,Zipcode,Country,Phone,Website,Hours,Brand,WikiData
,visa,,,APASEO EL GRANDE,GUANAJUATO,,MX,,,,,
,visa,,,APASEO EL GRANDE,GUANAJUATO,,MX,,,,,
,visa,,,APASEO EL GRANDE,GUANAJUATO,,MX,,,,,
,visa,,,APASEO EL GRANDE,GUANAJUATO,,MX,,,,,
,visa,,,APASEO EL GRANDE,GUANAJUATO,,MX,,,,,
,visa,,,APASEO EL GRANDE,GUANAJUATO,,MX,,,,,
,visa,,,APASEO EL GRANDE,GUANAJUATO,,MX,,,,,
,visa,,,APASEO EL GRANDE,GUANAJUATO,,MX,,,,,
,visa,,,APASEO EL GRANDE,GUANAJUATO,,MX,,,,,
,visa,,,APASEO EL GRANDE,GUANAJUATO,,MX,,,,,
,visa,,,APASEO EL GRANDE,GUANAJUATO,,MX,,,,,
,visa,,,APASEO EL GRANDE,GUANAJUATO,,MX,,,,,
,visa,,,APASEO EL GRANDE,GUANAJUATO,,MX,,,,,
,visa,,,APASEO EL GRANDE,GUANAJUATO,,MX,,,,,
,visa,,,CELAYA,GUANAJUATO,,MX,,,,,
,visa,,,APASEO EL GRANDE,GUANAJUATO,,MX,,,,,
,visa,,,APASEO EL GRANDE,GUANAJUATO,,MX,,,,,
,visa,,,APASEO EL GRANDE,GUANAJUATO,,MX,,,,,
795fe842ebe3b14dccdf04729fff516f,western_union,OXXO MATADOR JARDIN ITURBIDE QRF,,Apaseo El Grande,GUANAJUATO,,MX,+52 81 8389 2121,https://location.westernunion.com/mx/guanajuato/apaseo-el-grande/795fe842ebe3b14dccdf04729fff516f,Mo-Su 08:00-22:00,Western Union,Q861042
0620c3aeaf942d9c28d41901148a6269,western_union,FARM GUAD 2658 ANTONIO PLAZA,,Celaya,GUANAJUATO,,MX,(+52) 81-018008334700,https://location.westernunion.com/mx/guanajuato/celaya/0620c3aeaf942d9c28d41901148a6269,Mo-Su 08:00-22:00,Western Union,Q861042
9c451d8b58e4e812506ab5d9968b6096,western_union,FARM GUAD 2658 ANTONIO PLAZA,,Celaya,GUANAJUATO,,MX,(+52) 81-018008334700,https://location.westernunion.com/mx/guanajuato/celaya/9c451d8b58e4e812506ab5d9968b6096,Mo-Su 08:00-22:00,Western Union,Q861042
1035b12e797d43d48c548d38531393d8,western_union,FARM GUAD JUAN ALDAMA,,Apaseo El Grande,GUANAJUATO,,MX,+52 800 833 4700,https://location.westernunion.com/mx/guanajuato/apaseo-el-grande/1035b12e797d43d48c548d38531393d8,Mo-Su 09:00-22:00,Western Union,Q861042
a37ffcf581eef476246cb638db85e8f5,western_union,FARM GUAD JUAN ALDAMA,,Apaseo El Grande,GUANAJUATO,,MX,+52 800 833 4700,https://location.westernunion.com/mx/guanajuato/apaseo-el-grande/a37ffcf581eef476246cb638db85e8f5,Mo-Su 09:00-22:00,Western Union,Q861042
bc3b39e8b50f832139cabf25c8e267c4,western_union,FARM GUAD JUAN ALDAMA,,Apaseo El Grande,GUANAJUATO,,MX,+52 800 833 4700,https://location.westernunion.com/mx/guanajuato/apaseo-el-grande/bc3b39e8b50f832139cabf25c8e267c4,Mo-Su 09:00-22:00,Western Union,Q861042
3133b33beaec3923a0de3ca024f1c930,western_union,AURRERA APASEO EL GRANDE 4080,,Apaseo El Grande,GUANAJUATO,,MX,+52 800 833 4700,https://location.westernunion.com/mx/guanajuato/apaseo-el-grande/3133b33beaec3923a0de3ca024f1c930,Mo-Su 07:00-23:00,Western Union,Q861042
81e5bb2e4c8d151dc85fc4c9397fb511,western_union,AURRERA APASEO EL GRANDE 4080,,Apaseo El Grande,GUANAJUATO,,MX,+52 800 833 4700,https://location.westernunion.com/mx/guanajuato/apaseo-el-grande/81e5bb2e4c8d151dc85fc4c9397fb511,Mo-Su 07:00-23:00,Western Union,Q861042
c90f7cf6e129e12337c42d6a512a51b7,western_union,AURRERA APASEO EL GRANDE 4080,,Apaseo El Grande,GUANAJUATO,,MX,+52 800 833 4700,https://location.westernunion.com/mx/guanajuato/apaseo-el-grande/c90f7cf6e129e12337c42d6a512a51b7,Mo-Su 07:00-23:00,Western Union,Q861042
87a21bf124741d4304f5e372c43ae4f1,western_union,BANCOPPEL 1001 APASEO,,Apaseo El Grande,GUANAJUATO,,MX,+52 55 5825 4022,https://location.westernunion.com/mx/guanajuato/apaseo-el-grande/87a21bf124741d4304f5e372c43ae4f1,Mo-Su 10:00-20:00,Western Union,Q861042
c1521dd61de9ec5c17fb46d0b68f0cbd,western_union,BANCOPPEL 1001 APASEO,,Apaseo El Grande,GUANAJUATO,,MX,+52 55 5825 4022,https://location.westernunion.com/mx/guanajuato/apaseo-el-grande/c1521dd61de9ec5c17fb46d0b68f0cbd,Mo-Su 10:00-20:00,Western Union,Q861042
666933abfd4f77f8e015804f66dd93f7,western_union,BANCOPPEL 1001 APASEO,,Apaseo El Grande,GUANAJUATO,,MX,+52 55 5825 4022,https://location.westernunion.com/mx/guanajuato/apaseo-el-grande/666933abfd4f77f8e015804f66dd93f7,Mo-Su 10:00-20:00,Western Union,Q861042
98a1660d829a335969cb4ef3128c64f4,western_union,CAJA POPULARES ALIANZA   APASEO EL GRAND,,Apaseo El Grande,GUANAJUATO,,MX,+52 81 2133 2160,https://location.westernunion.com/mx/guanajuato/apaseo-el-grande/98a1660d829a335969cb4ef3128c64f4,Mo-Fr 08:00-17:00; Sa 08:00-13:00,Western Union,Q861042
ede37fc4046135c1194dc8ac4c1f2732,western_union,CAJA POPULARES ALIANZA   APASEO EL GRAND,,Apaseo El Grande,GUANAJUATO,,MX,+52 81 2133 2160,https://location.westernunion.com/mx/guanajuato/apaseo-el-grande/ede37fc4046135c1194dc8ac4c1f2732,Mo-Fr 08:00-17:00; Sa 08:00-13:00,Western Union,Q861042
41e9a291f6b167d61d68975a521d2e7e,western_union,CAJA POPULARES ALIANZA   APASEO EL GRAND,,Apaseo El Grande,GUANAJUATO,,MX,+52 81 2133 2160,https://location.westernunion.com/mx/guanajuato/apaseo-el-grande/41e9a291f6b167d61d68975a521d2e7e,Mo-Fr 08:00-17:00; Sa 08:00-13:00,Western Union,Q861042
bc1d3905b7e9a7aba4e993e70baee2c6,western_union,ISSEG APASEO EL GRANDE FCO I MADERO 004,,Apaseo El Grande,GUANAJUATO,,MX,+52 800 224 7734,https://location.westernunion.com/mx/guanajuato/apaseo-el-grande/bc1d3905b7e9a7aba4e993e70baee2c6,Mo-Su 07:00-21:00,Western Union,Q861042
e47fc02403794efe4430438d9614b983,western_union,ISSEG APASEO EL GRANDE FCO I MADERO 004,,Apaseo El Grande,GUANAJUATO,,MX,+52 800 224 7734,https://location.westernunion.com/mx/guanajuato/apaseo-el-grande/e47fc02403794efe4430438d9614b983,Mo-Su 07:00-21:00,Western Union,Q861042
12b19b80f542866b713da3e6267ef3cf,western_union,ISSEG APASEO EL GRANDE FCO I MADERO 004,,Apaseo El Grande,GUANAJUATO,,MX,+52 800 224 7734,https://location.westernunion.com/mx/guanajuato/apaseo-el-grande/12b19b80f542866b713da3e6267ef3cf,Mo-Su 07:00-21:00,Western Union,Q861042
63be732504f693fb0c556d4aacdbc666,western_union,EL BODEGON APASEO EL GRANDE,,Apaseo El Grande,GUANAJUATO,,MX,+52 312 316 3500,https://location.westernunion.com/mx/guanajuato/apaseo-el-grande/63be732504f693fb0c556d4aacdbc666,Mo-Sa 10:00-20:30; Su 10:00-14:00,Western Union,Q861042
9678718a9b98c3272cb019d8109699e8,western_union,EL BODEGON APASEO EL GRANDE,,Apaseo El Grande,GUANAJUATO,,MX,+52 312 316 3500,https://location.westernunion.com/mx/guanajuato/apaseo-el-grande/9678718a9b98c3272cb019d8109699e8,Mo-Sa 10:00-20:30; Su 10:00-14:00,Western Union,Q861042
e723ca0f38fd9010fc7772814bc9653d,western_union,FARMACIA CANCUN AP CASH,,Apaseo El Grande,GUANAJUATO,,MX,+52 413 158 3880,https://location.westernunion.com/mx/guanajuato/apaseo-el-grande/e723ca0f38fd9010fc7772814bc9653d,Mo-Fr 09:00-21:00; Sa-Su 09:00-15:00,Western Union,Q861042
b8757d86dcf41e5cb43e7d4018e31b68,western_union,ELEKTRA 974,,Apaseo El Grande,GUANAJUATO,,MX,+52 55 1720 8177,https://location.westernunion.com/mx/guanajuato/apaseo-el-grande/b8757d86dcf41e5cb43e7d4018e31b68,Mo-Su 09:00-20:00,Western Union,Q861042
a3d9301ed8261266bd42b0dce0a3211a,western_union,ELEKTRA 974,,Apaseo El Grande,GUANAJUATO,,MX,+52 55 1720 8177,https://location.westernunion.com/mx/guanajuato/apaseo-el-grande/a3d9301ed8261266bd42b0dce0a3211a,Mo-Su 09:00-21:00,Western Union,Q861042
728d60d3f3a731460d7e7f8ccc5bb05b,western_union,ELEKTRA 974,,Apaseo El Grande,GUANAJUATO,,MX,+52 55 1720 8177,https://location.westernunion.com/mx/guanajuato/apaseo-el-grande/728d60d3f3a731460d7e7f8ccc5bb05b,Mo-Su 08:00-24:00,Western Union,Q861042
854db9fbbfd3ca9609e69d2ed044928a,western_union,TELECOMM 11004,,Apaseo El Grande,GUANAJUATO,,MX,+52 800 800 8930,https://location.westernunion.com/mx/guanajuato/apaseo-el-grande/854db9fbbfd3ca9609e69d2ed044928a,Mo-Su 09:00-20:00,Western Union,Q861042
900f3d6c772b6cc8815b7323372cbcef,western_union,TELECOMM 11004,,Apaseo El Grande,GUANAJUATO,,MX,+52 800 800 9889,https://location.westernunion.com/mx/guanajuato/apaseo-el-grande/900f3d6c772b6cc8815b7323372cbcef,Mo-Fr 09:00-15:00,Western Union,Q861042
dd5df95e07dda38f676b45511a60ef01,western_union,TELECOMM 11004,,Apaseo El Grande,GUANAJUATO,,MX,+52 800 800 8930,https://location.westernunion.com/mx/guanajuato/apaseo-el-grande/dd5df95e07dda38f676b45511a60ef01,Mo-Fr 09:00-15:30,Western Union,Q861042
a2f18df5bf5ccdfc46369ba84713d3c1,western_union,SUPER Q APASEO PIPILA,,Apaseo El Grande,GUANAJUATO,,MX,+52 413 158 3035,https://location.westernunion.com/mx/guanajuato/apaseo-el-grande/a2f18df5bf5ccdfc46369ba84713d3c1,Mo-Su 08:00-24:00,Western Union,Q861042
5b6d8004b11d2c547f06d143f3784e15,western_union,SUPER Q APASEO PIPILA,,Apaseo El Grande,GUANAJUATO,,MX,+52 413 158 3035,https://location.westernunion.com/mx/guanajuato/apaseo-el-grande/5b6d8004b11d2c547f06d143f3784e15,Mo-Su 08:00-24:00,Western Union,Q861042
88e1447f1a9d6115272b12c6274e5fd4,western_union,SORIANA APASEO EL GRANDE 504,,Apaseo El Grande,GUANAJUATO,,MX,(+52) 81-1112009,https://location.westernunion.com/mx/guanajuato/apaseo-el-grande/88e1447f1a9d6115272b12c6274e5fd4,Mo-Su 08:00-23:00,Western Union,Q861042
cc006a27fe0a43ed53bea6cedf726e54,western_union,SORIANA APASEO EL GRANDE 504,,Apaseo El Grande,GUANAJUATO,,MX,(+52) 81-1112009,https://location.westernunion.com/mx/guanajuato/apaseo-el-grande/cc006a27fe0a43ed53bea6cedf726e54,Mo-Su 08:00-23:00,Western Union,Q861042
cc4e24382d6e9fb2d9c12e110dcae872,western_union,SORIANA APASEO EL GRANDE 504,,Apaseo El Grande,GUANAJUATO,,MX,(+52) 81-1112009,https://location.westernunion.com/mx/guanajuato/apaseo-el-grande/cc4e24382d6e9fb2d9c12e110dcae872,Mo-Su 08:00-23:00,Western Union,Q861042
b938f286df81ac36ac60258480c7ed7e,western_union,FARM GUAD LA ESTANCIA APASEO EL GRANDE,,Apaseo El Grande,GUANAJUATO,,MX,+52 800 833 4700,https://location.westernunion.com/mx/guanajuato/apaseo-el-grande/b938f286df81ac36ac60258480c7ed7e,Mo-Su 08:00-22:00,Western Union,Q861042
b98dd09a4fe203837fffd5dfec3d73f5,western_union,FARM GUAD LA ESTANCIA APASEO EL GRANDE,,Apaseo El Grande,GUANAJUATO,,MX,+52 800 833 4700,https://location.westernunion.com/mx/guanajuato/apaseo-el-grande/b98dd09a4fe203837fffd5dfec3d73f5,Mo-Su 08:00-22:00,Western Union,Q861042
165865fef6f47985e6733e33ae4dcfe3,western_union,FARM GUAD LA ESTANCIA APASEO EL GRANDE,,Apaseo El Grande,GUANAJUATO,,MX,+52 800 833 4700,https://location.westernunion.com/mx/guanajuato/apaseo-el-grande/165865fef6f47985e6733e33ae4dcfe3,Mo-Su 08:00-22:00,Western Union,Q861042
3ddb5136af5081c011698861f4441ced,western_union,FARM GUAD 2658 ANTONIO PLAZA,,Celaya,GUANAJUATO,,MX,(+52) 81-018008334700,https://location.westernunion.com/mx/guanajuato/celaya/3ddb5136af5081c011698861f4441ced,Mo-Su 08:00-22:00,Western Union,Q861042
2ae09c88bbab5f9f7838700edda66af5,western_union,AURRERA APASEO EL GRANDE SUR 5109,,Apaseo El Grande,GUANAJUATO,,MX,+52 800 833 4700,https://location.westernunion.com/mx/guanajuato/apaseo-el-grande/2ae09c88bbab5f9f7838700edda66af5,Mo-Su 08:00-22:00,Western Union,Q861042
0824d2a87dbc13fd4a903f616247ebcf,western_union,AURRERA APASEO EL GRANDE SUR 5109,,Apaseo El Grande,GUANAJUATO,,MX,+52 800 833 4700,https://location.westernunion.com/mx/guanajuato/apaseo-el-grande/0824d2a87dbc13fd4a903f616247ebcf,Mo-Su 08:00-22:00,Western Union,Q861042
e209f6d0efa2fab814caa7d9718b4d46,western_union,AURRERA APASEO EL GRANDE SUR 5109,,Apaseo El Grande,GUANAJUATO,,MX,+52 800 833 4700,https://location.westernunion.com/mx/guanajuato/apaseo-el-grande/e209f6d0efa2fab814caa7d9718b4d46,Mo-Su 08:00-22:00,Western Union,Q861042
da075d60d7393a607175a08c9ee62308,western_union,SUPER Q SINYUKU TD,,Apaseo El Grande,GUANAJUATO,,MX,+52 442 192 9800,https://location.westernunion.com/mx/guanajuato/apaseo-el-grande/da075d60d7393a607175a08c9ee62308,Mo-Su 08:00-23:00,Western Union,Q861042
da05c47eae0998758d7444c4609beeb8,western_union,SUPER Q SINYUKU TD,,Apaseo El Grande,GUANAJUATO,,MX,+52 442 192 9800,https://location.westernunion.com/mx/guanajuato/apaseo-el-grande/da05c47eae0998758d7444c4609beeb8,Mo-Su 08:00-23:00,Western Union,Q861042
b8911513c1837b8207c203c66676cf7d,western_union,OXXO MALDONADO BJX,,Apaseo El Grande,GUANAJUATO,,MX,+52 81 8389 2121,https://location.westernunion.com/mx/guanajuato/apaseo-el-grande/b8911513c1837b8207c203c66676cf7d,Mo-Su 06:00-22:00,Western Union,Q861042
d4d6c9c7c41c03bb8ab2a2f71d9c1870,western_union,OXXO MALDONADO BJX,,Apaseo El Grande,GUANAJUATO,,MX,+52 81 8389 2121,https://location.westernunion.com/mx/guanajuato/apaseo-el-grande/d4d6c9c7c41c03bb8ab2a2f71d9c1870,Mo-Su 06:00-22:00,Western Union,Q861042
8f4165b57affe0283e69e8a820538260,western_union,OXXO VILLAS DE REY BJX,,Apaseo El Grande,GUANAJUATO,,MX,+52 81 8389 2121,https://location.westernunion.com/mx/guanajuato/apaseo-el-grande/8f4165b57affe0283e69e8a820538260,Mo-Su 06:00-22:00,Western Union,Q861042
f9ca7b1d6e3a64391b95a90352e82b2c,western_union,OXXO VILLAS DE REY BJX,,Apaseo El Grande,GUANAJUATO,,MX,+52 81 8389 2121,https://location.westernunion.com/mx/guanajuato/apaseo-el-grande/f9ca7b1d6e3a64391b95a90352e82b2c,Mo-Su 06:00-22:00,Western Union,Q861042
5ac5d0b0c8b2a82929aace883b382b89,western_union,FARMACIA CANCUN AP CASH,,Apaseo El Grande,GUANAJUATO,,MX,+52 413 158 3880,https://location.westernunion.com/mx/guanajuato/apaseo-el-grande/5ac5d0b0c8b2a82929aace883b382b89,Mo-Fr 09:00-21:00; Sa-Su 09:00-15:00,Western Union,Q861042
db1bd786d190a3d5e495806cbc19fed7,western_union,OXXO MATADOR JARDIN ITURBIDE QRF,,Apaseo El Grande,GUANAJUATO,,MX,+52 81 8389 2121,https://location.westernunion.com/mx/guanajuato/apaseo-el-grande/db1bd786d190a3d5e495806cbc19fed7,Mo-Su 08:00-22:00,Western Union,Q861042
