Ref,Spider,Name,Address,City,State,Zipcode,Country,Phone,Website,Hours,Brand,WikiData
https://stores.advanceautoparts.com/nc/belhaven/926-us-highway-264-byp,advance_auto_parts_us,Advance Auto Parts,,Belhaven,NC,,US,+1 252-943-2752,https://stores.advanceautoparts.com/nc/belhaven/926-us-highway-264-byp,Mo-Sa 07:30-21:00; Su 09:00-20:00,Advance Auto Parts,Q4686051
/locations/propane-offices/north-carolina/belhaven/342-king-st,amerigas,"AmerGas Propane | Belhaven, North Carolina",,Belhaven,NC,,US,+1 252-943-3547,/locations/propane-offices/north-carolina/belhaven/342-king-st,,AmeriGas,Q23130318
194864,bluerhino,BJ's Mini Mart & Grill,,Belhaven,NC,,US,+1 252-964-7270,,,Blue Rhino,Q65681213
146645,bluerhino,Speedway #6969,,Belhaven,NC,,US,+1 252-943-2483,,,Blue Rhino,Q65681213
156822,bluerhino,Walgreens #16155,,Belhaven,NC,,US,+1 252-943-2280,,,Blue Rhino,Q65681213
12446,bluerhino,Food Lion #671,,Belhaven,NC,,US,+1 252-943-3094,,,Blue Rhino,Q65681213
77434,citi,ATM Speedway,,Wilson,NC,,US,,,,Citibank,Q857063
79204,citi,ATM Speedway,,Belhaven,NC,,US,,,,Citibank,Q857063
78616,citi,ATM Speedway,,Belhaven,NC,,US,,,,Citibank,Q857063
90974,citi,ATM Walgreens,,Belhaven,NC,,US,,,,Citibank,Q857063
https://www.edwardjones.com/us-en/financial-advisor/mike-goodwin,edwardjones,Mike Goodwin,,Belhaven,NC,,US,+1 252-943-2372,https://www.edwardjones.com/us-en/financial-advisor/mike-goodwin,Mo-Th 09:30-16:00; Fr 09:30-14:00,Edward Jones,Q5343830
1438115,usps,BELHAVEN,,BELHAVEN,NC,,US,+1 252-943-2364,,"Mo-Fr 09:00-13:00,14:30-16:30; Sa 09:00-11:00",United States Postal Service,Q668687
2781000001,usps_collection_boxes,USPS COLLECTION BOX - PO LOBBY,614 W OLD COUNTY RD,BELHAVEN,NC,,US,,,,United States Postal Service,Q668687
2781000004,usps_collection_boxes,USPS COLLECTION BOX - BLUE BOX,614 W OLD COUNTY RD,BELHAVEN,NC,,US,,,,United States Postal Service,Q668687
2781000007,usps_collection_boxes,USPS COLLECTION BOX - PO LOBBY,614 W OLD COUNTY RD,BELHAVEN,NC,,US,,,,United States Postal Service,Q668687
0000030493,valero,Farmers Market,,Belhaven,NC,,US,+1 252-943-2464,https://locations.valero.com/en-us/LocationDetails/Index/39365-US-264-E/0000030493,,Valero,Q1283291
,visa,,,BELHAVEN,NC,,US,,,,,
,visa,,,BELHAVEN,NC,,US,,,,,
,visa,,,BELHAVEN,NC,,US,,,,,
,visa,,,BELHAVEN,NC,,US,,,,,
,visa,,,BELHAVEN,NC,,US,,,,,
,visa,,,BELHAVEN,NC,,US,,,,,
,visa,,,BELHAVEN,NC,,US,,,,,
,visa,,,BELHAVEN,NC,,US,,,,,
,visa,,,BELHAVEN,NC,,US,,,,,
,visa,,,BELHAVEN,NC,,US,,,,,
,visa,,,BELHAVEN,NC,,US,,,,,
,visa,,,BELHAVEN,NC,,US,,,,,
,visa,,,BELHAVEN,NC,,US,,,,,
,visa,,,BELHAVEN,NC,,US,,,,,
,visa,,,BELHAVEN,NC,,US,,,,,
,visa,,,WILSON,NC,,US,,,,,
https://www.walgreens.com/locator/walgreens-418+us+highway+264+byp-belhaven-nc-27810/id=16155,walgreens,Walgreens,,Belhaven,NC,,US,+1 252-943-6260,https://www.walgreens.com/locator/walgreens-418+us+highway+264+byp-belhaven-nc-27810/id=16155,Mo-Sa 08:00-20:00; Su 10:00-18:00,Walgreens,Q1591889
365__PAMLICO__ST_BELHAVEN_NC_27810,wellsfargo,,365 PAMLICO ST,BELHAVEN,NC,,US,+1 800-869-3557,https://www.wellsfargo.com/locator/bank/365__PAMLICO__ST_BELHAVEN_NC_27810/,,Wells Fargo,Q744149
38511efd7a0e5906ca194f2ee65a8f44,western_union,FOOD LION #671,,Belhaven,NC,,US,+1 252-943-3094,https://location.westernunion.com/us/nc/belhaven/38511efd7a0e5906ca194f2ee65a8f44,Mo-Su 07:00-23:00,Western Union,Q861042
