Ref,Spider,Name,Address,City,State,Zipcode,Country,Phone,Website,Hours,Brand,WikiData
https://stores.advanceautoparts.com/ny/schenectady/1225-curry-rd,advance_auto_parts_us,Advance Auto Parts,,Schenectady,NY,,US,+1 518-355-1583,https://stores.advanceautoparts.com/ny/schenectady/1225-curry-rd,Mo-Fr 07:30-17:00; Sa 07:30-14:00; Su 00:00-24:00,Advance Auto Parts,Q4686051
https://stores.aldi.us/#50841291,aldi_sud_us,ALDI  3075 Broadway,,Rotterdam,NY,,US,+1 855-465-1235,https://stores.aldi.us/ny/rotterdam/3075-broadway,Mo-Su 09:00-20:00,ALDI,Q41171672
62596,asics_us,Finish Line,93 W Campbell Rd,Schenectady,NY,,US,+1 518-374-2700,,,asics,Q327247
0079,bjswholesale,Rotterdam,,Rotterdam,NY,,US,+1 518-382-1900,https://www.bjs.com/mapDetail;city=0079,Mo-Sa 08:00-21:00,BJ's Wholesale,Q4835754
112660,bluerhino,Pilot Travel #494,,Rotterdam,NY,,US,+1 518-356-5616,,,Blue Rhino,Q65681213
142215,bluerhino,BJ's Wholesale Club #79,,Schenectady,NY,,US,+1 518-382-1900,,,Blue Rhino,Q65681213
96723,bluerhino,Cumberland Farms #1542,,Schenectady,NY,,US,+1 518-356-5824,,,Blue Rhino,Q65681213
132389,bluerhino,Ace - Bellevue Builders Supply LLC #15206,,Schenectady,NY,,US,+1 518-355-7190,,,Blue Rhino,Q65681213
182380,bluerhino,Walgreens #19611,,Rotterdam,NY,,US,+1 321-269-6426,,,Blue Rhino,Q65681213
166913,bluerhino,Country Farm Convenience LLC,,Rotterdam,NY,,US,+1 518-393-6433,,,Blue Rhino,Q65681213
149493,bluerhino,Speedway #7865,,Rotterdam,NY,,US,+1 518-356-2581,,,Blue Rhino,Q65681213
118786,bluerhino,Bozzuto's - Gabriel's Supermarket,,Schenectady,NY,,US,+1 518-355-2230,,,Blue Rhino,Q65681213
77293,citi,ATM Speedway,,Rotterdam,NY,,US,,,,Citibank,Q857063
93591,citi,ATM Walgreens,,Rotterdam,NY,,US,,,,Citibank,Q857063
49818,citi,ATM CVS,,Rotterdam,NY,,US,,,,Citibank,Q857063
81012,citi,ATM Sunoco,,Rotterdam,NY,,US,,,,Citibank,Q857063
ATM-1474,citizens_us,,,Schenectady,NY,,US,,,,Citizens,Q5122694
,credit_union_us,SEFCU  a division of Broadview,,Schenecta State,NY,,US,+1 518-831-2049,,Mo 09:00-02:00; Tu-Fr 08:00-06:00; Sa 09:00-02:00,,
,credit_union_us,Sunmark CU,,Schenectady,NY,,US,+1 866-786-6275,,Mo-Tu 09:00-04:30; We 10:00-04:30; Th-Fr 09:00-06:00; Sa 09:00-01:00,,
,credit_union_us,Sunmark CU,,Schenectady,NY,,US,+1 518-382-2597,,Mo-Tu 09:00-04:30; We 10:00-04:30; Th-Fr 09:00-06:00; Sa 09:00-01:00,,
520517,cumberland_farms_us,Cumberland Farms,,ROTTERDAM,NY,,US,+1 518-688-0109,https://www.cumberlandfarms.com/find-us/generic-store-page/?id=001699,,Cumberland Farms,Q1143685
520040,cumberland_farms_us,Cumberland Farms,,SCHENECTADY,NY,,US,+1 518-356-5824,https://www.cumberlandfarms.com/find-us/generic-store-page/?id=001542,,Cumberland Farms,Q1143685
4610,cvs_us,CVS Pharmacy,,Rotterdam,NY,,US,+1 518-357-2495,https://www.cvs.com/store-locator/rotterdam-ny-pharmacies/2801-guilderland-ave-rotterdam-ny-12306/storeid=4610,Mo-Su 07:00-23:00,CVS Pharmacy,Q2078880
3304,dominos_pizza_us,Domino's Pizza,,Schenectady,NY,,US,+1 518-372-4441,https://pizza.dominos.com/new-york/schenectady/1441-broadway,Mo-Su 10:30-01:00,Domino's,Q839466
344070,dunkin_us,Dunkin',,Schenectady,NY,,US,+1 518-374-2761,https://locations.dunkindonuts.com/en/ny/schenectady/3045-broadway/344070,Mo-Su 04:00-19:00,Dunkin',Q847743
340586,dunkin_us,Dunkin',,Schenectady,NY,,US,+1 518-346-3528,https://locations.dunkindonuts.com/en/ny/schenectady/1420-broadway/340586,Mo-Su 04:00-20:00,Dunkin',Q847743
304948,dunkin_us,Dunkin',,Schenectady,NY,,US,+1 518-355-9929,https://locations.dunkindonuts.com/en/ny/schenectady/1900-curry-rd/304948,Mo-Su 04:00-19:00,Dunkin',Q847743
332874,dunkin_us,Dunkin',,Rotterdam,NY,,US,+1 518-355-0753,https://locations.dunkindonuts.com/en/ny/rotterdam/1128-duanesburg-rd/332874,Mo-Su 05:00-21:00,Dunkin',Q847743
520517,eg_america_us,Cumberland Farms,,ROTTERDAM,NY,,US,+1 518-688-0109,https://www.cumberlandfarms.com/find-us/generic-store-page/?id=001699,,Cumberland Farms,Q1143685
520040,eg_america_us,Cumberland Farms,,SCHENECTADY,NY,,US,+1 518-356-5824,https://www.cumberlandfarms.com/find-us/generic-store-page/?id=001542,,Cumberland Farms,Q1143685
200328181,exxonmobil,KHANDA FOOD MART,,ROTTERDAM,NY,,US,+1 518-901-0020,https://www.exxon.com/en/find-station/mobil-rotterdam-ny-khandafoodmart-200328181,24/7,Mobil,Q109676002
Gabriel's Supermarket IGA - #2219,iga,Gabriel's Supermarket IGA - #2219,"1924 Curry Road, Rotterdam, NY, 12306",Rotterdam,NY,,US,+1 518-325-4341,http://www.gabfoods.com,,IGA,Q3146662
https://office.jacksonhewitt.com/#27577956,jackson_hewitt,Jackson Hewitt,,Schenectady,NY,,US,+1 518-370-3979,https://office.jacksonhewitt.com/tax-preparation-services-locations/en/ny/schenectady/93-w-campbell-road/11061,Mo-Fr 11:00-19:00; Sa 11:00-17:00,Jackson Hewitt,Q6117132
72365,lukoil,58877,"2246 Broadway, Schenectady, NY, 12306",Schenectady,NY,,US,,,Mo-Su 05:00-24:00,Lukoil,Q329347
3698,mightyflame,QUICK PICK,,SCHENECTADY,NY,,US,+1 518-355-3142,,,Mighty Flame,
385,mightyflame,STEWART'S SHOP #465,,ROTTERDAM,NY,,US,+1 518-557-4950,,,Mighty Flame,
247,mightyflame,STEWARTS SHOPS #269,,SCHENECTADY,NY,,US,+1 518-370-9850,,,Mighty Flame,
2530,mightyflame,LUKE OIL INC,,SCHENECTADY,NY,,US,+1 518-256-0679,,,Mighty Flame,
1246,mightyflame,COUNTRY FARM,,ROTTERDAM,NY,,US,+1 724-981-2721,,,Mighty Flame,
1245,mightyflame,COUNTRY FARMS,,ROTTERDAM,NY,,US,+1 518-356-1082,,,Mighty Flame,
225,mightyflame,STEWARTS SHOPS #226,,ROTTERDAM,NY,,US,+1 518-355-1858,,,Mighty Flame,
https://locations.oreillyauto.com/ny/rotterdam/check-engine-light-testing-6170.html,oreilly,Your Rotterdam O'Reilly Auto Parts Store,,Rotterdam,NY,,US,+1 518-688-1010,https://locations.oreillyauto.com/ny/rotterdam/check-engine-light-testing-6170.html,Mo-Sa 07:30-21:00; Su 08:00-20:00,O'Reilly Auto Parts,Q7071951
https://locations.oreillyauto.com/ny/rotterdam/wiper-installation-6170.html,oreilly,Your Rotterdam O'Reilly Auto Parts Store,,Rotterdam,NY,,US,+1 518-688-1010,https://locations.oreillyauto.com/ny/rotterdam/wiper-installation-6170.html,Mo-Sa 07:30-21:00; Su 08:00-20:00,O'Reilly Auto Parts,Q7071951
https://locations.oreillyauto.com/ny/rotterdam/autopartes-6170.html,oreilly,O'Reilly Auto Parts,,Rotterdam,NY,,US,+1 518-688-1010,https://locations.oreillyauto.com/ny/rotterdam/autopartes-6170.html,Mo-Sa 07:30-21:00; Su 08:00-20:00,O'Reilly Auto Parts,Q7071951
https://locations.oreillyauto.com/ny/rotterdam/battery-testing-6170.html,oreilly,Your Rotterdam O'Reilly Auto Parts Store,,Rotterdam,NY,,US,+1 518-688-1010,https://locations.oreillyauto.com/ny/rotterdam/battery-testing-6170.html,Mo-Sa 07:30-21:00; Su 08:00-20:00,O'Reilly Auto Parts,Q7071951
494,pilot_flyingj,Pilot Travel Center,,Rotterdam,NY,,US,+1 518-356-5616,https://locations.pilotflyingj.com/us/ny/rotterdam/1128-duanesburg-road,,Pilot,Q7194412
226,stewartsshops,Stewart's Shops,,Rotterdam,NY,,US,+1 518-355-1858,https://locations.stewartsshops.com/ll/US/NY/Rotterdam/647-Mariaville-Road,Mo-Su 04:00-00:00,Stewart's Shops,Q7615690
269,stewartsshops,Stewart's Shops,,Schenectady,NY,,US,+1 518-370-9850,https://locations.stewartsshops.com/ll/US/NY/Schenectady/2140-Broadway,Mo-Su 04:30-00:00,Stewart's Shops,Q7615690
465,stewartsshops,Stewart's Shops,,Rotterdam,NY,,US,+1 518-557-4950,https://locations.stewartsshops.com/ll/US/NY/Rotterdam/2970-Guilderland-Avenue,Mo-Su 04:30-00:00,Stewart's Shops,Q7615690
https://restaurants.subway.com/#14898662,subway,Subway,,Rotterdam Schenectady,NY,,US,+1 518-344-7827,https://restaurants.subway.com/united-states/ny/rotterdam/3059-broadway,Mo-Su 09:00-22:00,Subway,Q244457
https://restaurants.subway.com/#14917075,subway,Subway Pilot Travel Center #494,,Rotterdam Schenectady,NY,,US,+1 518-356-5617,https://restaurants.subway.com/united-states/ny/rotterdam/1128-duanesburg-road,Mo-Su 09:00-22:00,Subway,Q244457
0734888104,sunoco_us,Sunoco,,ROTTERDAM,NY,,US,+1 518-370-1120,,24/7,Sunoco,Q1423218
0647780600,sunoco_us,Sunoco,,SCHENECTADY,NY,,US,+1 518-372-2906,,Mo-Su 05:00-23:00,Sunoco,Q1423218
0448951400,sunoco_us,Sunoco,,ROTTERDAM,NY,,US,+1 518-649-6537,,Mo-Sa 06:00-22:00; Su 07:00-22:00,Sunoco,Q1423218
1433975,usps,ROTTERDAM SQUARE,,SCHENECTADY,NY,,US,+1 518-370-1726,,"Mo-We 10:00-14:00,15:00-18:00; Th 10:00-13:45,15:00-18:00; Fr 10:00-14:00,15:00-18:00; Sa 09:30-14:00,15:00-17:00",United States Postal Service,Q668687
1230600031,usps_collection_boxes,USPS COLLECTION BOX - PO LOBBY,93 W CAMPBELL RD,SCHENECTADY,NY,,US,,,,United States Postal Service,Q668687
1230600032,usps_collection_boxes,USPS COLLECTION BOX - BLUE BOX,93 W CAMPBELL RD,SCHENECTADY,NY,,US,,,,United States Postal Service,Q668687
1230600039,usps_collection_boxes,USPS COLLECTION BOX - PO LOBBY,93 W CAMPBELL RD,SCHENECTADY,NY,,US,,,,United States Postal Service,Q668687
1230600017,usps_collection_boxes,USPS COLLECTION BOX - BLUE BOX,1675 BROADWAY,SCHENECTADY,NY,,US,,,,United States Postal Service,Q668687
1230600018,usps_collection_boxes,USPS COLLECTION BOX - BLUE BOX,2009 BROADWAY,SCHENECTADY,NY,,US,,,,United States Postal Service,Q668687
1230600011,usps_collection_boxes,USPS COLLECTION BOX - BLUE BOX,2525 BROADWAY,SCHENECTADY,NY,,US,,,,United States Postal Service,Q668687
1230600033,usps_collection_boxes,USPS COLLECTION BOX - BLUE BOX,1 LENT CT,SCHENECTADY,NY,,US,,,,United States Postal Service,Q668687
1230600030,usps_collection_boxes,USPS COLLECTION BOX - BLUE BOX,672 MARIAVILLE RD,SCHENECTADY,NY,,US,,,,United States Postal Service,Q668687
1230600015,usps_collection_boxes,USPS COLLECTION BOX - BLUE BOX,345 PRINCETOWN RD,SCHENECTADY,NY,,US,,,,United States Postal Service,Q668687
1230600026,usps_collection_boxes,USPS COLLECTION BOX - BLUE BOX,1029 PAUL AVE,SCHENECTADY,NY,,US,,,,United States Postal Service,Q668687
1230600005,usps_collection_boxes,USPS COLLECTION BOX - BLUE BOX,1100 VINEWOOD AVE,SCHENECTADY,NY,,US,,,,United States Postal Service,Q668687
1230600012,usps_collection_boxes,USPS COLLECTION BOX - BLUE BOX,2996 GUILDERLAND AVE,SCHENECTADY,NY,,US,,,,United States Postal Service,Q668687
1230600003,usps_collection_boxes,USPS COLLECTION BOX - BLUE BOX,21 PURITAN DR,SCHENECTADY,NY,,US,,,,United States Postal Service,Q668687
,visa,,,SCHENECTADY,NY,,US,,,,,
,visa,,,ROTTEDUM,NY,,US,,,,,
,visa,,,SCHENECTADY,NY,,US,,,,,
,visa,,,ROTTERDAM,NY,,US,,,,,
,visa,,,SCHENECTADY,NY,,US,,,,,
,visa,,,SCHENECTADY,NY,,US,,,,,
,visa,,,SCHENECTADY,NY,,US,,,,,
,visa,,,ROTTERDAM,NY,,US,,,,,
,visa,,,SCHENECTADY,NY,,US,,,,,
,visa,,,SCHENECTADY,NY,,US,,,,,
,visa,,,SCHENECTADY,NY,,US,,,,,
,visa,,,SCHENECTADY,NY,,US,,,,,
,visa,,,SCHENECTADY,NY,,US,,,,,
,visa,,,SCHENECTADY,NY,,US,,,,,
,visa,,,SCHENECTADY,NY,,US,,,,,
,visa,,,SCHENECTADY,NY,,US,,,,,
,visa,,,SCHENECTADY,NY,,US,,,,,
,visa,,,ROTTERDAM,NY,,US,,,,,
,visa,,,ROTTERDAM JUNCTION,NY,,US,,,,,
,visa,,,SCHENECTADY,NY,,US,,,,,
,visa,,,ROTTERDAM,NY,,US,,,,,
,visa,,,SCHENECTADY,NY,,US,,,,,
,visa,,,ROTTERDAM,NY,,US,,,,,
,visa,,,SCHENECTADY,NY,,US,,,,,
,visa,,,SCHENECTADY,NY,,US,,,,,
,visa,,,ROTTERDAM,NY,,US,,,,,
,visa,,,ROTTERDAM,NY,,US,,,,,
,visa,,,SCHENECTADY,NY,,US,,,,,
,visa,,,SCHENECTADY,NY,,US,,,,,
,visa,,,ROTTERDAM,NY,,US,,,,,
,visa,,,ROTTERDAM,NY,,US,,,,,
,visa,,,SCHENECTADY,NY,,US,,,,,
,visa,,,SCHENECTADY,NY,,US,,,,,
,visa,,,SCHENECTADY,NY,,US,,,,,
,visa,,,SCHENECTADY,NY,,US,,,,,
,visa,,,SCHENECTADY,NY,,US,,,,,
,visa,,,ROTTERDAM,NY,,US,,,,,
,visa,,,ROTTERDAM,NY,,US,,,,,
,visa,,,SCHENECTADY,NY,,US,,,,,
,visa,,,SCHENECTADY,NY,,US,,,,,
,visa,,,SCHENECTADY,NY,,US,,,,,
,visa,,,ROTTERDAM,NY,,US,,,,,
,visa,,,SCHENECTDAY,NY,,US,,,,,
,visa,,,SCHENECTADY,NY,,US,,,,,
,visa,,,SCHENECTADY,NY,,US,,,,,
,visa,,,SCHENECTADY,NY,,US,,,,,
,visa,,,SCHENECTADY,NY,,US,,,,,
,visa,,,SCHENECTADY,NY,,US,,,,,
,visa,,,SCHENECTADY,NY,,US,,,,,
,visa,,,ROTTERDAM,NY,,US,,,,,
,visa,,,SCHENECTADY,NY,,US,,,,,
,visa,,,ROTTERDAM,NY,,US,,,,,
,visa,,,ROTTERDAM,NY,,US,,,,,
,visa,,,SCHENECTADY,NY,,US,,,,,
,visa,,,ROTTERDAM,NY,,US,,,,,
,visa,,,SCHENECTADY,NY,,US,,,,,
,visa,,,ROTTERDAM,NY,,US,,,,,
,visa,,,SCHENECTADY,NY,,US,,,,,
,visa,,,ROTTERDAM,NY,,US,,,,,
,visa,,,SCHENECTADY,NY,,US,,,,,
,visa,,,ROTTERDAM,NY,,US,,,,,
,visa,,,ROTTERDAM,NY,,US,,,,,
,visa,,,SCHENECTADY,NY,,US,,,,,
,visa,,,SCHENECTADY,NY,,US,,,,,
,visa,,,SCHENECTADY,NY,,US,,,,,
,visa,,,SCHENECTADY,NY,,US,,,,,
,visa,,,SCHENECTADY,NY,,US,,,,,
https://www.walgreens.com/locator/walgreens-957+curry+rd-rotterdam-ny-12306/id=19611,walgreens,Walgreens,,Rotterdam,NY,,US,+1 518-356-6310,https://www.walgreens.com/locator/walgreens-957+curry+rd-rotterdam-ny-12306/id=19611,Mo-Sa 08:00-21:00; Su 09:00-17:00,Walgreens,Q1591889
https://locations.wendys.com/#29039602,wendys,"Wendy's 330 Becker in Schenectady, NY",,Schenectady,NY,,US,+1 518-280-3590,https://locations.wendys.com/united-states/ny/schenectady/330-becker-dr,"Mo-Su 06:30-10:30,07:00-22:00",Wendy's,Q550258
ed589e117ad4f369ff60c01cd6e7387b,western_union,WALGREENS #19611,,Rotterdam,NY,,US,+1 518-356-6310,https://location.westernunion.com/us/ny/rotterdam/ed589e117ad4f369ff60c01cd6e7387b,Mo-Sa 08:00-21:00; Su 08:00-17:00,Western Union,Q861042
