Ref,Spider,Name,Address,City,State,Zipcode,Country,Phone,Website,Hours,Brand,WikiData
165158,bluerhino,Family Dollar #11668,,Schenectady,NY,,US,+1 518-348-3677,,,Blue Rhino,Q65681213
148100,bluerhino,Speedway #7587,,Schenectady,NY,,US,+1 518-393-1671,,,Blue Rhino,Q65681213
77519,citi,ATM Speedway,,Schenectady,NY,,US,,,,Citibank,Q857063
,credit_union_us,SEFCU  a division of Broadview,,Schenectady,NY,,US,+1 518-395-9130,,Mo-Fr 08:00-04:00,,
31668,family_dollar_us,FAMILY DOLLAR #11668,,Schenectady,NY,,US,+1 518-243-5905,https://www.familydollar.com/locations/ny/schenectady/31668/,Mo-Su 08:00-22:00,Family Dollar,Q5433101
https://office.jacksonhewitt.com/#27579115,jackson_hewitt,Jackson Hewitt,,Schenectady,NY,,US,+1 518-372-4941,https://office.jacksonhewitt.com/tax-preparation-services-locations/en/ny/schenectady/939-state-street/10415,Mo 10:00-19:00; Tu 10:00-15:30; We-Fr 10:00-19:00; Sa 10:00-16:00,Jackson Hewitt,Q6117132
https://www.plannedparenthood.org/health-center/new-york/schenectady/12307/schenectady-center-4192-91110,planned_parenthood,Planned Parenthood,,Schenectady,NY,,US,,https://www.plannedparenthood.org/health-center/new-york/schenectady/12307/schenectady-center-4192-91110,,Planned Parenthood,Q2553262
182,stewartsshops,Stewart's Shops,,Schenectady,NY,,US,+1 518-357-3985,https://locations.stewartsshops.com/ll/US/NY/Schenectady/100-South-Brandywine-Avenue,Mo-Su 05:00-23:00,Stewart's Shops,Q7615690
1230700003,usps_collection_boxes,USPS COLLECTION BOX - BLUE BOX,720 ALBANY ST,SCHENECTADY,NY,,US,,,,United States Postal Service,Q668687
,visa,,,SCHENECTADY,NY,,US,,,,,
,visa,,,SCHENECTADY,NY,,US,,,,,
,visa,,,SCHENECTADY,NY,,US,,,,,
,visa,,,SCHENECTADY,NY,,US,,,,,
,visa,,,SCHENECTADY,NY,,US,,,,,
,visa,,,SCHENECTADY,NY,,US,,,,,
,visa,,,SCHENECTADY,NY,,US,,,,,
,visa,,,SCHENECTADY,NY,,US,,,,,
,visa,,,SCHENECTADY,NY,,US,,,,,
,visa,,,SCHENECTADY,NY,,US,,,,,
,visa,,,SCHENECTADY,NY,,US,,,,,
,visa,,,SCHENECTADY,NY,,US,,,,,
,visa,,,SCHENECTADY,NY,,US,,,,,
,visa,,,SCHENECTADY,NY,,US,,,,,
,visa,,,SCHENECTADY,NY,,US,,,,,
,visa,,,SCHENECTADY,NY,,US,,,,,
,visa,,,SCHENECTADY,NY,,US,,,,,
,visa,,,SCHENECTADY,NY,,US,,,,,
,visa,,,SCHENECTADY,NY,,US,,,,,
,visa,,,SCHENECTADY,NY,,US,,,,,
,visa,,,SCHENECTADY,NY,,US,,,,,
,visa,,,SCHENECTADY,NY,,US,,,,,
,visa,,,SCHENECTADY,NY,,US,,,,,
,visa,,,SCHENECTADY,NY,,US,,,,,
,visa,,,SCHENECTADY,NY,,US,,,,,
,visa,,,SCHENECTADY,NY,,US,,,,,
,visa,,,SCHENECTADY,NY,,US,,,,,
,visa,,,SCHENECTADY,NY,,US,,,,,
,visa,,,SCHENECTADY,NY,,US,,,,,
,visa,,,SCHENECTADY,NY,,US,,,,,
,visa,,,SCHENECTADY,NY,,US,,,,,
,visa,,,SCHENECTADY,NY,,US,,,,,
