Ref,Spider,Name,Address,City,State,Zipcode,Country,Phone,Website,Hours,Brand,WikiData
70551385,moneygram,TBC BANK - BORJOMI SC 3,,TBILISI,,,GE,9952272727,,Mo-Sa 09:00-20:00; Su 00:00-24:00,MoneyGram,Q1944412
70551398,moneygram,TBC BANK - SERVICE CENTER 18 IN LILO MAL,,TBILISI,,,GE,9952272727,,Mo-Sa 09:00-20:00; Su 00:00-24:00,MoneyGram,Q1944412
70551408,moneygram,TBC BANK - TBILISI 21 SC EAST POINT,,TBILISI,,,GE,9952272727,,Mo-Sa 09:00-20:00; Su 00:00-24:00,MoneyGram,Q1944412
70551547,moneygram,TBC BANK - LILO SERVICE-CENTER 1,,TBILISI,,,GE,9952272727,,Mo-Sa 09:00-20:00; Su 00:00-24:00,MoneyGram,Q1944412
70551602,moneygram,TBC BANK - SADGURI SERVICE-CENTER 2,,TBILISI,,,GE,9952272727,,Mo-Sa 09:00-20:00; Su 00:00-24:00,MoneyGram,Q1944412
70551628,moneygram,TBC BANK - TBILISI 19 SC IN GLDANI MALL,,TBILISI,,,GE,9952272727,,Mo-Sa 09:00-20:00; Su 00:00-24:00,MoneyGram,Q1944412
70551644,moneygram,TBC BANK - TSERETELI AVE. SERVICE-CENTER,,TBILISI,,,GE,9952272727,,Mo-Sa 09:00-20:00; Su 00:00-24:00,MoneyGram,Q1944412
70551686,moneygram,TBC BANK - SC 22 TBILISI CITY HALL,,TBILISI,,,GE,9952272727,,Mo-Sa 09:00-20:00; Su 00:00-24:00,MoneyGram,Q1944412
70551709,moneygram,TBC BANK - SERVICE CENTER16 IN KARVASLA,,TBILISI,,,GE,9952272727,,Mo-Sa 09:00-20:00; Su 00:00-24:00,MoneyGram,Q1944412
70551806,moneygram,TBC BANK - GLDANI SERVICE-CENTER 2,,TBILISI,,,GE,9952272727,,Mo-Sa 09:00-20:00; Su 00:00-24:00,MoneyGram,Q1944412
70551835,moneygram,TBC BANK - ISANI SERVICE-CENTER 2,,TBILISI,,,GE,9952272727,,Mo-Sa 09:00-20:00; Su 00:00-24:00,MoneyGram,Q1944412
70551929,moneygram,TBC BANK - MARJANISHVILI BRANCH,,TBILISI,,,GE,9952272727,,Mo-Sa 09:00-20:00; Su 00:00-24:00,MoneyGram,Q1944412
70552009,moneygram,TBC BANK - SADGURI SERVICE-CENTER 1,,TBILISI,,,GE,9952272727,,Mo-Sa 09:00-20:00; Su 00:00-24:00,MoneyGram,Q1944412
70552038,moneygram,TBC BANK - SERVICE CENTER 15 IN IASHVILI,,TBILISI,,,GE,9952272727,,Mo-Sa 09:00-20:00; Su 00:00-24:00,MoneyGram,Q1944412
70552083,moneygram,TBC BANK - VARKETILI SERVICE-CENTER 2,,TBILISI,,,GE,9952272727,,Mo-Sa 09:00-20:00; Su 00:00-24:00,MoneyGram,Q1944412
70552106,moneygram,TBC BANK - SERVICE CENTER 20 IN EXHIBITI,,TBILISI,,,GE,9952272727,,Mo-Sa 09:00-20:00; Su 00:00-24:00,MoneyGram,Q1944412
70552119,moneygram,TBC BANK - TBC - BANK CALL CENTER,,TBILISI,,,GE,9952272727,,Mo-Sa 09:00-20:00; Su 00:00-24:00,MoneyGram,Q1944412
70551550,moneygram,TBC BANK - LILO SERVICE-CENTER 2,,TBILISI,,,GE,9952272727,,Mo-Sa 09:00-20:00; Su 00:00-24:00,MoneyGram,Q1944412
70552096,moneygram,TBC BANK - VAZHA-PSHAVELA AVE. SERVICE-C,,TBILISI,,,GE,9952272727,,Mo-Sa 09:00-20:00; Su 00:00-24:00,MoneyGram,Q1944412
70552012,moneygram,TBC BANK - SANZONA SERVICE-CENTER 1,,TBILISI,,,GE,9952272727,,Mo-Sa 09:00-20:00; Su 00:00-24:00,MoneyGram,Q1944412
