Ref,Spider,Name,Address,City,State,Zipcode,Country,Phone,Website,Hours,Brand,WikiData
https://www.avis.com/en/locations/mx/aguascalientes/agu,avis,Avis Mexico Aguascalientes Airport,,Aguascalientes,Aguascalientes,,MX,+52 449 238 0908,https://www.avis.com/en/locations/mx/aguascalientes/agu,Mo-Su 05:00-23:00,Avis,Q791136
,visa,,,AGUASCALIENTES,AGUASCALIENTES,,MX,,,,,
,visa,,,AGUASCALIENTES,AGUASCALIENTES,,MX,,,,,
,visa,,,AGUASCALIENTES,AGUASCALIENTES,,MX,,,,,
,visa,,,AGUASCALIENTES,AGUASCALIENTES,,MX,,,,,
,visa,,,AGUASCALIENTES,AGUASCALIENTES,,MX,,,,,
,visa,,,AGUASCALIENTES,AGUASCALIENTES,,MX,,,,,
,visa,,,AGUASCALIENTES,AGUASCALIENTES,,MX,,,,,
,visa,,,AGUASCALIENTES,AGUASCALIENTES,,MX,,,,,
,visa,,,AGUASCALIENTES,AGUASCALIENTES,,MX,,,,,
,visa,,,AGUASCALIENTES,AGUASCALIENTES,,MX,,,,,
,visa,,,AGUASCALIENTES,AGUASCALIENTES,,MX,,,,,
,visa,,,AGUASCALIENTES,AGUASCALIENTES,,MX,,,,,
,visa,,,AGUASCALIENTES,AGUASCALIENTES,,MX,,,,,
,visa,,,AGUASCALIENTES,AGUASCALIENTES,,MX,,,,,
,visa,,,AGUASCALIENTES,AGUASCALIENTES,,MX,,,,,
,visa,,,AGUASCALIENTES,AGUASCALIENTES,,MX,,,,,
,visa,,,PENUELAS,AGUASCALIENTES,,MX,,,,,
,visa,,,AGUASCALIENTES,AGUASCALIENTES,,MX,,,,,
,visa,,,AGUASCALIENTES,AGUASCALIENTES,,MX,,,,,
,visa,,,AGUASCALIENTES,AGUASCALIENTES,,MX,,,,,
,visa,,,AGUASCALIENTES,AGUASCALIENTES,,MX,,,,,
,visa,,,AGUASCALIENTES,AGUASCALIENTES,,MX,,,,,
,visa,,,AGUASCALIENTES,AGUASCALIENTES,,MX,,,,,
d49f0f33add2a923aa601db1708e23f1,western_union,OXXO JATCO 2 AGU,,Aguascalientes,AGUASCALIENTES,,MX,+52 81 8389 2121,https://location.westernunion.com/mx/aguascalientes/aguascalientes/d49f0f33add2a923aa601db1708e23f1,Mo-Su 06:00-22:00,Western Union,Q861042
a4a5f7990cb40ade6b7c380f4f8e96e4,western_union,OXXO JATCO 2 AGU,,Aguascalientes,AGUASCALIENTES,,MX,+52 81 8389 2121,https://location.westernunion.com/mx/aguascalientes/aguascalientes/a4a5f7990cb40ade6b7c380f4f8e96e4,Mo-Su 06:00-22:00,Western Union,Q861042
f739c1e8007d61a4e331716b745fc3bb,western_union,OXXO JATCO 1 AGU,,Aguascalientes,AGUASCALIENTES,,MX,+52 81 8389 2121,https://location.westernunion.com/mx/aguascalientes/aguascalientes/f739c1e8007d61a4e331716b745fc3bb,Mo-Su 06:00-22:00,Western Union,Q861042
80b15ce23e2e7c738762618238210c5b,western_union,OXXO JATCO 1 AGU,,Aguascalientes,AGUASCALIENTES,,MX,+52 81 8389 2121,https://location.westernunion.com/mx/aguascalientes/aguascalientes/80b15ce23e2e7c738762618238210c5b,Mo-Su 06:00-22:00,Western Union,Q861042
cbce10afa34f9cf61b9522783aa2f751,western_union,OXXO JATCO 1 AGU,,Aguascalientes,AGUASCALIENTES,,MX,+52 81 8389 2121,https://location.westernunion.com/mx/aguascalientes/aguascalientes/cbce10afa34f9cf61b9522783aa2f751,Mo-Su 06:00-22:00,Western Union,Q861042
238ceb74497a934180c6c6dff7bda48b,western_union,OXXO NISSAN MOTOR AGU,,Aguascalientes,AGUASCALIENTES,,MX,+52 81 8389 2121,https://location.westernunion.com/mx/aguascalientes/aguascalientes/238ceb74497a934180c6c6dff7bda48b,Mo-Su 06:00-22:00,Western Union,Q861042
c22b4f082eae2419acc2d015b2b79308,western_union,OXXO NISSAN MOTOR AGU,,Aguascalientes,AGUASCALIENTES,,MX,+52 81 8389 2121,https://location.westernunion.com/mx/aguascalientes/aguascalientes/c22b4f082eae2419acc2d015b2b79308,Mo-Su 06:00-22:00,Western Union,Q861042
1e3725cda3130ffcace7052270003cdc,western_union,OXXO NISSAN MOTOR AGU,,Aguascalientes,AGUASCALIENTES,,MX,+52 81 8389 2121,https://location.westernunion.com/mx/aguascalientes/aguascalientes/1e3725cda3130ffcace7052270003cdc,Mo-Su 06:00-22:00,Western Union,Q861042
919b611170cf382c0ae0361a109ef15f,western_union,OXXO NISSAN CARROCERIAS AGU,,Aguascalientes,AGUASCALIENTES,,MX,+52 81 8389 2121,https://location.westernunion.com/mx/aguascalientes/aguascalientes/919b611170cf382c0ae0361a109ef15f,Mo-Su 06:00-22:00,Western Union,Q861042
13f5bc680ba2554de97d293f9eaacbca,western_union,OXXO NISSAN CARROCERIAS AGU,,Aguascalientes,AGUASCALIENTES,,MX,+52 81 8389 2121,https://location.westernunion.com/mx/aguascalientes/aguascalientes/13f5bc680ba2554de97d293f9eaacbca,Mo-Su 06:00-22:00,Western Union,Q861042
a3aa446c622185faf9da6b820807697c,western_union,OXXO NISSAN ENSAMBLE AGU,,Aguascalientes,AGUASCALIENTES,,MX,+52 81 8389 2121,https://location.westernunion.com/mx/aguascalientes/aguascalientes/a3aa446c622185faf9da6b820807697c,Mo-Su 06:00-22:00,Western Union,Q861042
d362b4e83e64cc8d65f65d2ebd0a4b07,western_union,OXXO NISSAN ENSAMBLE AGU,,Aguascalientes,AGUASCALIENTES,,MX,+52 81 8389 2121,https://location.westernunion.com/mx/aguascalientes/aguascalientes/d362b4e83e64cc8d65f65d2ebd0a4b07,Mo-Su 06:00-22:00,Western Union,Q861042
8a09ee269b5d3a1de73a02467828b8a7,western_union,FARMACIA SANTA MARIA POCITOS,,Aguascalientes,AGUASCALIENTES,,MX,+52 81 2133 2160,https://location.westernunion.com/mx/aguascalientes/aguascalientes/8a09ee269b5d3a1de73a02467828b8a7,Mo-Su 08:00-23:00,Western Union,Q861042
ab72d145de8d0672c7da3e1969a9cd80,western_union,FARMACIA SANTA MARIA POCITOS,,Aguascalientes,AGUASCALIENTES,,MX,+52 81 2133 2160,https://location.westernunion.com/mx/aguascalientes/aguascalientes/ab72d145de8d0672c7da3e1969a9cd80,Mo-Su 08:00-23:00,Western Union,Q861042
