Ref,Spider,Name,Address,City,State,Zipcode,Country,Phone,Website,Hours,Brand,WikiData
f837b30417e0586304da9dba9f53475e,western_union,DNTN TV HUNG LOAN,,Can Tho,CAN THO,,VN,+84 292 3858 211,https://location.westernunion.com/vn/can-tho/can-tho/f837b30417e0586304da9dba9f53475e,Mo-Su 06:00-21:00,Western Union,Q861042
72c8d22cc665817fa3fa7369b258b40a,western_union,KIEN LONG BANK VINH THANH,,Can Tho,CAN THO,,VN,+84 292 3641 992,https://location.westernunion.com/vn/can-tho/can-tho/72c8d22cc665817fa3fa7369b258b40a,Mo-Sa 07:30-17:00,Western Union,Q861042
4176d7d94c536f9e5ab017ec59e33767,western_union,NHNO AND PTNT CAN THO CN QUAN THOT NOT,,Can Tho,CAN THO,,VN,+84 292 3851 097,https://location.westernunion.com/vn/can-tho/can-tho/4176d7d94c536f9e5ab017ec59e33767,Mo-Fr 07:00-17:00; Sa 08:00-11:30; Su 07:30-17:00,Western Union,Q861042
e15a449ea1b60b40545f328a5d58af0a,western_union,CTY TNHH MTV VB CAI AN,,Can Tho,CAN THO,,VN,+84 292 3851 426,https://location.westernunion.com/vn/can-tho/can-tho/e15a449ea1b60b40545f328a5d58af0a,Mo-Su 06:00-21:00,Western Union,Q861042
66e2e1ca7386febc11cbf49f3294c9aa,western_union,DNTN TV GIANG SAN,,Can Tho,CAN THO,,VN,+84 292 3854 148,https://location.westernunion.com/vn/can-tho/can-tho/66e2e1ca7386febc11cbf49f3294c9aa,Mo-Su 06:00-21:00,Western Union,Q861042
d3a7675628b476ce4924a6d8f747d6eb,western_union,NHNO CAN THO II CN VINH THANH,,Can Tho,CAN THO,,VN,+84 292 3856 060,https://location.westernunion.com/vn/can-tho/can-tho/d3a7675628b476ce4924a6d8f747d6eb,Mo-Fr 07:00-17:00; Sa 08:00-11:30; Su 07:30-17:00,Western Union,Q861042
2847a6d79cabfe5cfd063ff17373f1f3,western_union,DNTN TV HIEU HAU,,Can Tho,CAN THO,,VN,+84 292 3644 747,https://location.westernunion.com/vn/can-tho/can-tho/2847a6d79cabfe5cfd063ff17373f1f3,Mo-Su 06:00-21:00,Western Union,Q861042
28f02b80d48a788772337f30a56397db,western_union,CTY TNHH MTV TV NHAN LOAN,,Can Tho,CAN THO,,VN,+84 292 3656 357,https://location.westernunion.com/vn/can-tho/can-tho/28f02b80d48a788772337f30a56397db,Mo-Su 06:00-21:00,Western Union,Q861042
abd4e3a7adaf5d5fafac986d788d1c83,western_union,DNTN TV UT Y LUOM,,Can Tho,CAN THO,,VN,+84 292 3851 610,https://location.westernunion.com/vn/can-tho/can-tho/abd4e3a7adaf5d5fafac986d788d1c83,Mo-Su 06:00-21:00,Western Union,Q861042
b1ed57eea5cbba3f0ce50d4b0f518c7a,western_union,DNTN TV VIET THUY,,Can Tho,CAN THO,,VN,+84 292 3858 118,https://location.westernunion.com/vn/can-tho/can-tho/b1ed57eea5cbba3f0ce50d4b0f518c7a,Mo-Su 06:00-21:00,Western Union,Q861042
930911fc30ab841dd1a2ee8c840cb89a,western_union,DNTN TV HA KIM KHANH,,Can Tho,CAN THO,,VN,+84 292 3694 454,https://location.westernunion.com/vn/can-tho/can-tho/930911fc30ab841dd1a2ee8c840cb89a,Mo-Su 06:00-21:00,Western Union,Q861042
f9ccb35ab8ed3203ebc7a31bbecdf2e8,western_union,CTY TNHH MTV TV LY PHU,,Can Tho,CAN THO,,VN,+84 292 3695 439,https://location.westernunion.com/vn/can-tho/can-tho/f9ccb35ab8ed3203ebc7a31bbecdf2e8,Mo-Su 06:00-21:00,Western Union,Q861042
65ab473f1a10909a499de39b460498ce,western_union,CTY TNHH MTV KDV KHAI HANG 75,,Can Tho,CAN THO,,VN,+84 292 3686 868,https://location.westernunion.com/vn/can-tho/can-tho/65ab473f1a10909a499de39b460498ce,Mo-Su 06:00-21:00,Western Union,Q861042
c49a898ee8f8c52feb639997b8e16ce7,western_union,DNTN TV KIM NGOC SON MINH,,Can Tho,CAN THO,,VN,+84 292 3861 469,https://location.westernunion.com/vn/can-tho/can-tho/c49a898ee8f8c52feb639997b8e16ce7,Mo-Su 06:00-21:00,Western Union,Q861042
39db6cb283913a4398515881de4d9304,western_union,NHNO CAN THO II CN THOI LAI,,Can Tho,CAN THO,,VN,+84 292 3680 789,https://location.westernunion.com/vn/can-tho/can-tho/39db6cb283913a4398515881de4d9304,Mo-Fr 07:00-17:00; Sa 08:00-11:30; Su 07:30-17:00,Western Union,Q861042
fd37e72106a34a970b8c2d95c0eca58b,western_union,CTY TNHH MTV TV THANH LAP 24,,Can Tho,CAN THO,,VN,+84 292 3689 326,https://location.westernunion.com/vn/can-tho/can-tho/fd37e72106a34a970b8c2d95c0eca58b,Mo-Su 06:00-21:00,Western Union,Q861042
5280cde9a916ca15b9b71ac11aa4c528,western_union,DNTN KDV HOANG KIM SON 24,,Can Tho,CAN THO,,VN,+84 292 3861 863,https://location.westernunion.com/vn/can-tho/can-tho/5280cde9a916ca15b9b71ac11aa4c528,Mo-Su 06:00-21:00,Western Union,Q861042
00ab69710268b511ebc83058b4d69fca,western_union,KIEN LONG BANK_CN O MON,,Can Tho,CAN THO,,VN,+84 292 3665 657,https://location.westernunion.com/vn/can-tho/can-tho/00ab69710268b511ebc83058b4d69fca,Mo-Sa 07:30-17:00,Western Union,Q861042
a39f34321939eeecf5a5bf0998b5cc5c,western_union,ACB PGD TAY DO,,Can Tho,CAN THO,,VN,+84 290 3816 818,https://location.westernunion.com/vn/can-tho/can-tho/a39f34321939eeecf5a5bf0998b5cc5c,Mo-Fr 07:30-19:00; Sa 07:30-17:00,Western Union,Q861042
5797b3f37ebaa65682930f500351957b,western_union,DNTN TV LE DANG,,Can Tho,CAN THO,,VN,+84 292 3693 745,https://location.westernunion.com/vn/can-tho/can-tho/5797b3f37ebaa65682930f500351957b,Mo-Su 06:00-21:00,Western Union,Q861042
40b51243043cc7cc618f78f57ac1f63d,western_union,ACB PGD THOT NOT,,Can Tho,CAN THO,,VN,+84 290 3611 999,https://location.westernunion.com/vn/can-tho/can-tho/40b51243043cc7cc618f78f57ac1f63d,Mo-Fr 07:30-19:00; Sa 07:30-17:00,Western Union,Q861042
b03896b8fe81ef5307c9243e61eba61a,western_union,KIEN LONG BANK BINH THUY,,Can Tho,CAN THO,,VN,+84 292 3881 841,https://location.westernunion.com/vn/can-tho/can-tho/b03896b8fe81ef5307c9243e61eba61a,Mo-Sa 07:30-17:00,Western Union,Q861042
923ee5febb992927d931397be4509081,western_union,NHNO AND PTNT CAN THO CN BINH THUY,,Can Tho,CAN THO,,VN,+84 292 3887 656,https://location.westernunion.com/vn/can-tho/can-tho/923ee5febb992927d931397be4509081,Mo-Fr 07:00-17:00; Sa 08:00-11:30; Su 07:30-17:00,Western Union,Q861042
36261eecc989d0e7a6a49cb24157cda4,western_union,NHNO AND PTNT CAN THO PGD SO 1,,Can Tho,CAN THO,,VN,+84 292 3888 018,https://location.westernunion.com/vn/can-tho/can-tho/36261eecc989d0e7a6a49cb24157cda4,Mo-Fr 07:00-17:00; Sa 07:00-12:00,Western Union,Q861042
253e9b1b28480df7f6a1ddb0bdd8afe7,western_union,CTY TNHH MTV TIN QUYEN,,Can Tho,CAN THO,,VN,+84 292 3863 102,https://location.westernunion.com/vn/can-tho/can-tho/253e9b1b28480df7f6a1ddb0bdd8afe7,Mo-Su 06:00-21:00,Western Union,Q861042
85d9df73d2a83bb7d893a35cd8d08542,western_union,NHNO CAN THO II PGD AN HOA,,Can Tho,CAN THO,,VN,+84 292 3897 132,https://location.westernunion.com/vn/can-tho/can-tho/85d9df73d2a83bb7d893a35cd8d08542,Mo-Fr 07:00-17:00; Sa 08:00-12:00,Western Union,Q861042
e3970107313902308b7edd672b5d457b,western_union,DNTN TV MINH HANH,,Can Tho,CAN THO,,VN,+84 292 3864 258,https://location.westernunion.com/vn/can-tho/can-tho/e3970107313902308b7edd672b5d457b,Mo-Su 06:00-21:00,Western Union,Q861042
dc9d5bfc59893d9de22970bea857847c,western_union,DNTN TV HUNG THUY,,Can Tho,CAN THO,,VN,+84 292 3692 424,https://location.westernunion.com/vn/can-tho/can-tho/dc9d5bfc59893d9de22970bea857847c,Mo-Su 06:00-21:00,Western Union,Q861042
2c83f4a9e4a0dc23d462ad306faab7b2,western_union,DNTN VBDQ TIEN LIEN CHKD,,Can Tho,CAN THO,,VN,(+84) 3763544,https://location.westernunion.com/vn/can-tho/can-tho/2c83f4a9e4a0dc23d462ad306faab7b2,Mo-Su 06:00-21:00,Western Union,Q861042
f28f869e89e6b532d9a4dfdec48827de,western_union,DNTN VANG DQ DUC TIN,,Can Tho,CAN THO,,VN,+84 292 3850 211,https://location.westernunion.com/vn/can-tho/can-tho/f28f869e89e6b532d9a4dfdec48827de,Mo-Su 06:00-21:00,Western Union,Q861042
05769384e660a4ec9eaf515621c8b845,western_union,NHNO CAN THO II CN CO DO,,Can Tho,CAN THO,,VN,+84 292 3695 255,https://location.westernunion.com/vn/can-tho/can-tho/05769384e660a4ec9eaf515621c8b845,Mo-Fr 07:30-16:30; Sa 08:00-11:30; Su 07:30-17:00,Western Union,Q861042
c6160ed9304e77c380fe3f7e3022597f,western_union,CTY TNHH MTV PHUC NGUYEN,,Can Tho,CAN THO,,VN,+84 292 3863 145,https://location.westernunion.com/vn/can-tho/can-tho/c6160ed9304e77c380fe3f7e3022597f,Mo-Su 06:00-21:00,Western Union,Q861042
3c9856ef7bb3a3ed13b3e2eb270574ec,western_union,ACB PGD AN THOI,,Can Tho,CAN THO,,VN,+84 290 3880 998,https://location.westernunion.com/vn/can-tho/can-tho/3c9856ef7bb3a3ed13b3e2eb270574ec,Mo-Fr 07:30-19:00; Sa 07:30-17:00,Western Union,Q861042
74c68960a27c5bf4bf42bea019e9f985,western_union,DNTN TV PHUOC HIEN GX,,Can Tho,CAN THO,,VN,+84 292 3747 927,https://location.westernunion.com/vn/can-tho/can-tho/74c68960a27c5bf4bf42bea019e9f985,Mo-Su 06:00-21:00,Western Union,Q861042
a1426a0a22bd10347213741286642624,western_union,VP BANK LY TU TRONG,,Can Tho,CAN THO,,VN,(+84) 710-3768788,https://location.westernunion.com/vn/can-tho/can-tho/a1426a0a22bd10347213741286642624,Mo-Fr 07:00-18:00; Sa 08:00-12:00,Western Union,Q861042
5a5a67a23585f993b6d033cfdf25f62a,western_union,CTY TNHH MOT THANH VIEN KIM TI,,Can Tho,CAN THO,,VN,+84 292 3896 730,https://location.westernunion.com/vn/can-tho/can-tho/5a5a67a23585f993b6d033cfdf25f62a,Mo-Su 07:00-20:00,Western Union,Q861042
535c551c1eaefae17c8719e974af555e,western_union,DNTN TUYET NHAN,,Can Tho,CAN THO,,VN,+84 292 3823 658,https://location.westernunion.com/vn/can-tho/can-tho/535c551c1eaefae17c8719e974af555e,Mo-Su 06:00-21:00,Western Union,Q861042
12866a4aff69ea9498f5f5a601a615b8,western_union,CTY TNHH KDV MINH PHAT,,Can Tho,CAN THO,,VN,+84 292 3819 048,https://location.westernunion.com/vn/can-tho/can-tho/12866a4aff69ea9498f5f5a601a615b8,Mo-Su 06:00-21:00,Western Union,Q861042
381656fce8615021c1c4763e2a3e34a4,western_union,DNTN VBDQ TIEN LIEN,,Can Tho,CAN THO,,VN,+84 292 3823 603,https://location.westernunion.com/vn/can-tho/can-tho/381656fce8615021c1c4763e2a3e34a4,Mo-Su 06:00-21:00,Western Union,Q861042
df13f2e52bcd32af00c41d8494b0e7a6,western_union,NHNO AND PTNT CAN THO CN QUAN CAI RANG,,Can Tho,CAN THO,,VN,+84 292 3846 849,https://location.westernunion.com/vn/can-tho/can-tho/df13f2e52bcd32af00c41d8494b0e7a6,Mo-Fr 07:00-17:00; Sa 08:00-11:30; Su 07:30-17:00,Western Union,Q861042
5f42596e74153e2c50c71c123f83d2f6,western_union,NHNO AND PTNT CAN THO HOI SO,,Can Tho,CAN THO,,VN,+84 292 3829 186,https://location.westernunion.com/vn/can-tho/can-tho/5f42596e74153e2c50c71c123f83d2f6,Mo-Fr 08:00-17:00,Western Union,Q861042
14d49af22f9d9f354fe236214632a28a,western_union,NHNO CAN THO II CN PHONG DIEN,,Can Tho,CAN THO,,VN,+84 292 3942 083,https://location.westernunion.com/vn/can-tho/can-tho/14d49af22f9d9f354fe236214632a28a,Mo-Fr 07:00-17:00; Sa 08:00-11:30; Su 07:30-17:00,Western Union,Q861042
b6748001a57ead96d70725c3a328f5f3,western_union,NHNO AND PTNT CAN THO PGD03,,Can Tho,CAN THO,,VN,+84 292 3832 000,https://location.westernunion.com/vn/can-tho/can-tho/b6748001a57ead96d70725c3a328f5f3,Mo-Fr 07:00-17:00; Sa 08:00-11:30; Su 07:30-17:00,Western Union,Q861042
dfcd2247962948c70b970be6fe9b5e89,western_union,NHNO CAN THO II HOI SO,,Can Tho,CAN THO,,VN,+84 292 3827 732,https://location.westernunion.com/vn/can-tho/can-tho/dfcd2247962948c70b970be6fe9b5e89,Mo-Fr 08:00-17:00,Western Union,Q861042
526e2d14c7949b9f4255bed851fcc70a,western_union,NGAN HANG NONG NGHIEP VA PT NONG THON,,Can Tho,CAN THO,,VN,+84 292 3821 207,https://location.westernunion.com/vn/can-tho/can-tho/526e2d14c7949b9f4255bed851fcc70a,Mo-Fr 07:00-17:00; Sa 08:00-11:30; Su 07:30-17:00,Western Union,Q861042
0528ab1cfba5c8409055e4f17f11ae5a,western_union,NHNO AND PTNT CAN THO CN QUAN O MON,,Can Tho,CAN THO,,VN,+84 292 3861 983,https://location.westernunion.com/vn/can-tho/can-tho/0528ab1cfba5c8409055e4f17f11ae5a,Mo-Fr 07:00-17:00; Sa 08:00-11:30; Su 07:30-17:00,Western Union,Q861042
f9ac9f5908ed1787f429a337968f93a2,western_union,DNTN TV KIM YEN,,Can Tho,CAN THO,,VN,+84 292 3658 610,https://location.westernunion.com/vn/can-tho/can-tho/f9ac9f5908ed1787f429a337968f93a2,Mo-Su 06:00-21:00,Western Union,Q861042
17f653dacc48493eef600a965012b2b9,western_union,DNTN DV CAM DO KIM PHUOC,,Can Tho,CAN THO,,VN,(+84) 710-3825201,https://location.westernunion.com/vn/can-tho/can-tho/17f653dacc48493eef600a965012b2b9,Mo-Su 07:00-20:00,Western Union,Q861042
1540f1a73a9a702b43e6dc7e7f6be898,western_union,DNTN THANH HUONG,,Can Tho,CAN THO,,VN,+84 292 3825 966,https://location.westernunion.com/vn/can-tho/can-tho/1540f1a73a9a702b43e6dc7e7f6be898,Mo-Su 06:00-21:00,Western Union,Q861042
bb8cdb038680df85977924eef7c01f3c,western_union,CTY TNHH MTV TV LE PHAT TUNG,,Can Tho,CAN THO,,VN,+84 292 3823 978,https://location.westernunion.com/vn/can-tho/can-tho/bb8cdb038680df85977924eef7c01f3c,Mo-Su 06:00-21:00,Western Union,Q861042
7a820b3e9df21350ea9de4ad1ca0dd88,western_union,DNTN KIM HOA,,Can Tho,CAN THO,,VN,+84 292 3846 361,https://location.westernunion.com/vn/can-tho/can-tho/7a820b3e9df21350ea9de4ad1ca0dd88,Mo-Su 06:00-21:00,Western Union,Q861042
2474bfd66bcf4b0ea1407a11de16cb9c,western_union,ACB PGD XUAN KHANH,,Can Tho,CAN THO,,VN,+84 290 3782 777,https://location.westernunion.com/vn/can-tho/can-tho/2474bfd66bcf4b0ea1407a11de16cb9c,Mo-Fr 07:30-19:00; Sa 07:30-17:00,Western Union,Q861042
