Ref,Spider,Name,Address,City,State,Zipcode,Country,Phone,Website,Hours,Brand,WikiData
207427,chevron,Chevron Station #207427,150 MAIN STREET,LOVELOCK,NV,,US,,,,Chevron,Q319642
374804,chevron,Chevron Station #374804,1305 RYE PATCH RESERVOIR RD,LOVELOCK,NV,,US,,,,Chevron,Q319642
110055,electrify_america,"Safeway 4160 (Lovelock, NV)",,Lovelock,NV,,US,,,,Electrify America,Q59773555
28858,family_dollar_us,FAMILY DOLLAR #8858,,Lovelock,NV,,US,+1 775-442-2853,https://www.familydollar.com/locations/nv/lovelock/28858/,Mo-Su 08:00-22:00,Family Dollar,Q5433101
https://local.safeway.com/#5604623,safeway,Safeway,,Lovelock,NV,,US,+1 775-273-2418,https://local.safeway.com/safeway/nv/lovelock/400-dartmouth-ave.html,Mo-Su 07:00-22:00,Safeway,Q1508234
1371041,usps,LOVELOCK,,LOVELOCK,NV,,US,+1 775-273-7862,,Mo-Fr 08:30-17:00,United States Postal Service,Q668687
8941900003,usps_collection_boxes,USPS COLLECTION BOX - BLUE BOX,1305 RYE PATCH RESERVOIR RD,LOVELOCK,NV,,US,,,,United States Postal Service,Q668687
8941900001,usps_collection_boxes,USPS COLLECTION BOX - PO LOBBY,390 MAIN ST,LOVELOCK,NV,,US,,,,United States Postal Service,Q668687
8941900000,usps_collection_boxes,USPS COLLECTION BOX - BLUE BOX,390 MAIN ST,LOVELOCK,NV,,US,,,,United States Postal Service,Q668687
0000027361,valero,LOVELOCK VALERO,,LOVELOCK,NV,,US,+1 775-273-2031,https://locations.valero.com/en-us/LocationDetails/Index/415-CORNELL-AVE/0000027361,,Valero,Q1283291
,visa,,,LOVELOCK,NV,,US,,,,,
,visa,,,LOVELOCK,NV,,US,,,,,
,visa,,,LOVELOCK,NV,,US,,,,,
,visa,,,LOVELOCK,NV,,US,,,,,
,visa,,,LOVELOCK,NV,,US,,,,,
,visa,,,LOVELOCK,NV,,US,,,,,
,visa,,,LOVELOCK,NV,,US,,,,,
,visa,,,LOVELOCK,NV,,US,,,,,
,visa,,,LOVELAND,NV,,US,,,,,
,visa,,,LOVELOCK,NV,,US,,,,,
,visa,,,LOVELOCK,NV,,US,,,,,
920__CORNELL__AVE_LOVELOCK_NV_89419,wellsfargo,,920 CORNELL AVE,LOVELOCK,NV,,US,+1 800-869-3557,https://www.wellsfargo.com/locator/bank/920__CORNELL__AVE_LOVELOCK_NV_89419/,,Wells Fargo,Q744149
c27e55452eaa9dc93d8794d11a44db97,western_union,SAFEWAY #4160,,Lovelock,NV,,US,+1 775-273-2418,https://location.westernunion.com/us/nv/lovelock/c27e55452eaa9dc93d8794d11a44db97,Mo-Su 08:00-19:00,Western Union,Q861042
