Ref,Spider,Name,Address,City,State,Zipcode,Country,Phone,Website,Hours,Brand,WikiData
1020700017,banque_populaire_fr,CHOISY LE ROI,,CHOISY LE ROI,,,FR,+33 1 71 33 87 66,https://agences.banquepopulaire.fr/banque-assurance/agence-choisy-le-roi-id1020700017,"Tu-We 09:00-13:00,14:00-17:30; Th 09:00-13:00,14:00-16:30; Fr-Sa 09:00-13:00,14:00-17:30",Banque Populaire,Q846647
https://laboratoires.biogroup.fr/#25701802,biogroup_fr,BIOGROUP BPO BIOEPINE Laboratoire Choisy Les Gondoles,,,,,FR,+33 1 48 92 14 15,https://laboratoires.biogroup.fr/val-de-marne/choisy-le-roi/25-avenue-victor-hugo,Mo-Fr 07:30-13:00,Biogroup,Q101559741
https://laboratoires.biogroup.fr/#25701809,biogroup_fr,BIOGROUP BPO BIOEPINE Laboratoire Choisy Gare,,,,,FR,+33 1 48 52 56 66,https://laboratoires.biogroup.fr/val-de-marne/choisy-le-roi/2-rue-de-la-liberte,Mo-Fr 07:00-17:00; Sa 07:00-12:00,Biogroup,Q101559741
https://magasins.supercasino.fr/supermarche/pont-de-choisy/CS299,casino_fr,Pont-de-choisy,,CHOISY LE ROI,,,FR,+33 1 48 53 61 30,https://magasins.supercasino.fr/supermarche/pont-de-choisy/CS299,Mo-Sa 07:30-20:30; Su 09:00-21:00,Casino Supermarchés,Q89029184
785028935,century_21_fr,CENTURY 21 ACV,,CHOISY LE ROI,,,FR,+33 1 46 81 21 21,https://www.century21.fr/trouver_agence/agence/785028935/,,Century 21,Q1054480
https://www.credit-agricole.fr/particulier/agence/paris/choisy-le-roi-2631.html,credit_agricole,Crédit Agricole,,CHOISY LE ROI,,,FR,+33 1 48 84 72 96,https://www.credit-agricole.fr/particulier/agence/paris/choisy-le-roi-2631.html,"Tu-We 09:00-13:00,14:00-17:30; Th 09:00-13:00,15:00-17:30; Fr 09:00-13:00,14:00-18:00; Sa 09:00-13:00,14:00-16:00",Credit Agricole,Q590952
1221,croix_rouge_francaise_fr,UNITE LOCALE DE CHOISY LE ROI-THIAIS,,CHOISY LE ROI,,,FR,,https://www.croix-rouge.fr/unite-locale-de-choisy-le-roi-thiais,,Croix-Rouge française,Q3003244
https://www.dominos.fr/magasin/choisy-le-roi_94600,dominos_pizza_fr,Domino's,,CHOISY-LE-ROI,,,FR,,https://www.dominos.fr/magasin/choisy-le-roi_94600,,Domino's,Q839466
3948,lidl_fr,CHOISY LE ROI Newburn,,CHOISY LE ROI,,,FR,,,Mo-Sa 08:30-20:00; Su 08:30-12:00,Lidl,Q151954
3348,lidl_fr,CHOISY LE ROI Villeneuve,,Choisy-le-Roi,,,FR,,,Mo-Sa 08:30-20:00; Su 08:30-12:00,Lidl,Q151954
2405,lidl_fr,CHOISY LE ROI,,CHOISY LE ROI,,,FR,,,Mo-Sa 08:30-20:00; Su 08:30-12:00,Lidl,Q151954
638,mcdonalds_fr,CHOISY LE ROI,,CHOISY LE ROI,,,FR,+33 1 82 39 00 10,https://www.mcdonalds.fr/restaurants/mcdonalds-choisy-le-roi/638,Mo-Th 09:30-01:00; Fr-Sa 09:30-02:00; Su 09:30-01:00,McDonald's,Q38076
66556750,moneygram,OPHIR - CHOISY LE ROI,,CHOISY LE ROI,,,FR,+33 9 53 46 00 60,,Mo-Su 09:00-20:30,MoneyGram,Q1944412
68898940,moneygram,SAS CALL - CHOISY LE ROI,,CHOISY LE ROI,,,FR,+33 1 48 84 86 94,,Mo-Su 08:00-21:00,MoneyGram,Q1944412
73299521,moneygram,MULTI SERVICE - CHOISY LE ROI,,CHOISY LE ROI,,,FR,+33 6 65 48 17 56,,Mo-Su 08:30-20:00,MoneyGram,Q1944412
73905446,moneygram,DIGIZY - CHOISY LE ROI,,CHOISY LE ROI,,,FR,+33 9 74 97 29 15,,Mo-Su 09:00-21:00,MoneyGram,Q1944412
74061826,moneygram,NRJ PHONE,,CHOISY-LE-ROI,,,FR,+33 6 65 09 73 38,,Mo-Su 09:00-20:00,MoneyGram,Q1944412
74318388,moneygram,PHONELABS,,CHOISY-LE-ROI,,,FR,+33 9 51 23 87 57,,Mo-Su 09:00-21:00,MoneyGram,Q1944412
73519078,moneygram,CHEZ MAMAN - CHOISY-LE-ROI,,CHOISY-LE-ROI,,,FR,+33 7 68 73 36 56,,Mo-Sa 09:30-19:30; Su 10:00-19:00,MoneyGram,Q1944412
74961586,moneygram,BAY ALIMENTATION - CHOISY LE ROI,,CHOISY LE ROI,,,FR,+33 6 51 66 47 70,,Mo-Su 08:30-22:00,MoneyGram,Q1944412
00029127_001-renault,renault,AMC AUTOMOBILES - SOVREV,,CHOISY LE ROI,,,FR,+33 1 48 90 95 50,,,Renault,Q6686
00029127_001-dacia,renault,AMC AUTOMOBILES - SOVREV,,CHOISY LE ROI,,,FR,+33 1 48 90 95 50,,,Dacia,Q27460
NF059785,totalenergies,RELAIS DU LUGO,,CHOISY LE ROI,,,FR,+33 1 46 80 56 57,https://store.totalenergies.fr/en_EN/NF059785,Mo-Fr 06:30-21:00; Sa-Su 07:00-21:00,TotalEnergies,Q154037
NF980518,totalenergies,GARAGE DES GONDOLES,,CHOISY LE ROI,,,FR,,https://store.totalenergies.fr/en_EN/NF980518,,,
,visa,,,CHOISY LE ROI,,,FR,,,,,
,visa,,,CHOISY LE ROI,,,FR,,,,,
,visa,,,CHOISY LE ROI,,,FR,,,,,
,visa,,,CHOISY LE ROI,,,FR,,,,,
,visa,,,CHOISY-LE-ROI,,,FR,,,,,
,visa,,,CHOISY-LE-ROI,,,FR,,,,,
,visa,,,CHOISY LE ROI,,,FR,,,,,
,visa,,,CHOISY LE ROI,,,FR,,,,,
,visa,,,CHOISY LE ROI,,,FR,,,,,
,visa,,,CHOISY LE ROI,,,FR,,,,,
d4d76a0b44f342b15b4423000357088f,western_union,COMFORT SERVICES,,Choisy Le Roi,,,FR,+33 9 87 37 66 56,https://location.westernunion.com/fr/state/choisy-le-roi/d4d76a0b44f342b15b4423000357088f,Mo-Sa 09:00-21:00; Su 09:00-20:00,Western Union,Q861042
