Ref,Spider,Name,Address,City,State,Zipcode,Country,Phone,Website,Hours,Brand,WikiData
1020965,alamo,Eagle County Regional Airport,,Gypsum,CO,,US,+1 844-917-0962,,,ALAMO,Q1429287
3776,autozone_us,AutoZone Auto Parts Gypsum,,Gypsum,CO,,US,+1 970-328-5344,https://www.autozone.com/locations/co/gypsum/100-cooley-mesa-rd.html,Mo-Sa 08:00-21:00; Su 09:00-20:00,AutoZone,Q4826087
https://www.avis.com/en/locations/us/co/gypsum/ege,avis,Avis U S A Gypsum Airport,,Gypsum,CO,,US,+1 970-524-7571,https://www.avis.com/en/locations/us/co/gypsum/ege,Mo-Tu 08:00-20:00; We-Su 08:00-22:00,Avis,Q791136
160242,bluerhino,Ridley's #1137,,Gypsum,CO,,US,+1 970-524-3663,,,Blue Rhino,Q65681213
170438,bluerhino,Kum & Go #935,,Gypsum,CO,,US,+1 970-524-1833,,,Blue Rhino,Q65681213
163160,bluerhino,Family Dollar #08539,,Gypsum,CO,,US,+1 970-524-2160,,,Blue Rhino,Q65681213
185053,bluerhino,Gypsum Eagle Ace #17057,,Gypsum,CO,,US,+1 970-524-2230,,,Blue Rhino,Q65681213
45901,citi,ATM Costco,,Gypsum,CO,,US,,,,Citibank,Q857063
8656,dominos_pizza_us,Domino's Pizza,,Gypsum,CO,,US,+1 970-777-0330,https://pizza.dominos.com/colorado/gypsum/150-cooley-mesa-rd,Mo-Th 10:30-24:00; Fr-Sa 10:30-01:00; Su 10:30-24:00,Domino's,Q839466
https://www.edwardjones.com/us-en/financial-advisor/charlie-wick,edwardjones,Charlie Wick,,Gypsum,CO,,US,+1 970-328-4959,https://www.edwardjones.com/us-en/financial-advisor/charlie-wick,Mo-Th 08:00-17:00; Fr 08:00-15:00,Edward Jones,Q5343830
EGET61,enterprise,Eagle Airport,,Gypsum,CO,,US,+1 844-917-0963,,,Enterprise Rent-A-Car,Q17085454
28539,family_dollar_us,FAMILY DOLLAR #8539,,Gypsum,CO,,US,+1 970-230-4087,https://www.familydollar.com/locations/co/gypsum/28539/,Mo-Su 08:00-21:00,Family Dollar,Q5433101
eagle-vail-airport-short-term-lot,indigo,Eagle Vail Airport - Short Term Lot,,Gypsum,CO,,US,+1 510-705-3725,,,Indigo,Q3559970
eagle-vail-airport-long-term-lot,indigo,Eagle Vail Airport - Long Term Lot,,Gypsum,CO,,US,+1 510-705-3725,,,Indigo,Q3559970
0935,kum_and_go,Kum & Go #0935,,Gypsum,CO,,US,+1 970-524-1833,https://www.kumandgo.com/store-locator?details=0935,24/7,Kum & Go,Q6443340
1020960,national,Eagle County Regional Airport,,Gypsum,CO,,US,+1 844-917-0963,,,NATIONAL,Q1424142
https://locations.oreillyauto.com/co/gypsum/check-engine-light-testing-4957.html,oreilly,Your Gypsum O'Reilly Auto Parts Store,,Gypsum,CO,,US,+1 970-431-2188,https://locations.oreillyauto.com/co/gypsum/check-engine-light-testing-4957.html,Mo-Sa 07:30-21:00; Su 08:00-20:00,O'Reilly Auto Parts,Q7071951
https://locations.oreillyauto.com/co/gypsum/wiper-installation-4957.html,oreilly,Your Gypsum O'Reilly Auto Parts Store,,Gypsum,CO,,US,+1 970-431-2188,https://locations.oreillyauto.com/co/gypsum/wiper-installation-4957.html,Mo-Sa 07:30-21:00; Su 08:00-20:00,O'Reilly Auto Parts,Q7071951
https://locations.oreillyauto.com/co/gypsum/battery-testing-4957.html,oreilly,Your Gypsum O'Reilly Auto Parts Store,,Gypsum,CO,,US,+1 970-431-2188,https://locations.oreillyauto.com/co/gypsum/battery-testing-4957.html,Mo-Sa 07:30-21:00; Su 08:00-20:00,O'Reilly Auto Parts,Q7071951
https://locations.oreillyauto.com/co/gypsum/autopartes-4957.html,oreilly,Tu tienda O'Reilly Auto Parts en Gypsum,,Gypsum,CO,,US,+1 970-431-2188,https://locations.oreillyauto.com/co/gypsum/autopartes-4957.html,Mo-Sa 07:30-21:00; Su 08:00-20:00,O'Reilly Auto Parts,Q7071951
666221,penske,On Call Mountain Movers,,GYPSUM,CO,,US,+1 970-404-3047,https://www.pensketruckrental.com/locations/us/colorado/gypsum/666221/,,Penske,Q81234570
1137,ridleys,Gypsum Market,,Gypsum,CO,,US,+1 970-524-3663,,,Ridley's Family Markets,Q7332999
https://restaurants.subway.com/#14896539,subway,Subway,,Gypsum Eagle,CO,,US,+1 970-987-9896,https://restaurants.subway.com/united-states/co/gypsum/101-oak-ridge-court,Mo-Fr 08:00-21:00; Sa 09:00-21:00; Su 09:00-20:00,Subway,Q244457
044246,uhaul,Werks Auto & Diesel Repair LLC,695 Lindbergh Dr,Gypsum,CO,,US,+1 970-524-2120,,Mo-Fr 00:00-17:00; Sa 00:00-13:00,U-Haul,Q7862902
004417,uhaul,Eagle Airport Car and Mini Storage,340 Airpark,Gypsum,CO,,US,+1 970-524-1516,,Tu-Sa 00:00-15:00,U-Haul,Q7862902
1365900,usps,GYPSUM,,GYPSUM,CO,,US,+1 970-524-9686,,Mo-Fr 07:30-16:00; Sa 10:00-12:00,United States Postal Service,Q668687
8163700001,usps_collection_boxes,USPS COLLECTION BOX - PO LOBBY,100 OAKRIDGE CT,GYPSUM,CO,,US,,,,United States Postal Service,Q668687
8163700002,usps_collection_boxes,USPS COLLECTION BOX - PO LOBBY,100 OAKRIDGE CT,GYPSUM,CO,,US,,,,United States Postal Service,Q668687
8163700000,usps_collection_boxes,USPS COLLECTION BOX - BLUE BOX,100 OAKRIDGE CT,GYPSUM,CO,,US,,,,United States Postal Service,Q668687
,visa,,,GYPSUM,CO,,US,,,,,
,visa,,,GYPSUM,CO,,US,,,,,
,visa,,,GYPSUM,CO,,US,,,,,
,visa,,,GYPSUM,CO,,US,,,,,
,visa,,,GYPSUM,CO,,US,,,,,
,visa,,,GYPSUM,CO,,US,,,,,
,visa,,,GYPSUM,CO,,US,,,,,
,visa,,,GYPSUM,CO,,US,,,,,
,visa,,,GYPSUM,CO,,US,,,,,
,visa,,,GYPSUM,CO,,US,,,,,
,visa,,,GYPSUM,CO,,US,,,,,
,visa,,,GYPSUM,CO,,US,,,,,
,visa,,,GYPSUM,CO,,US,,,,,
,visa,,,GYPSUM,CO,,US,,,,,
,visa,,,GYPSUM,CO,,US,,,,,
,visa,,,GYPSUM,CO,,US,,,,,
,visa,,,GYPSUM,CO,,US,,,,,
a5430c909aab2d5d211eddea58ff6463,western_union,RIDLEY'S #1137,,Gypsum,CO,,US,+1 970-524-3663,https://location.westernunion.com/us/co/gypsum/a5430c909aab2d5d211eddea58ff6463,Mo-Su 07:00-23:00,Western Union,Q861042
