Ref,Spider,Name,Address,City,State,Zipcode,Country,Phone,Website,Hours,Brand,WikiData
305536,chevron,Chevron Station #305536,1605 NE 223RD AVENUE,FAIRVIEW,OR,,US,+1 503-666-8970,,,Chevron,Q319642
81988,citi,ATM Target,,Fairview,OR,,US,,,,Citibank,Q857063
16745,cvs_us,CVS Pharmacy,,Fairview,OR,,US,+1 503-491-8953,https://www.cvs.com/store-locator/fairview-or-pharmacies/21500-ne-halsey-st-fairview-or-97024/storeid=16745,"Mo-Fr 09:00-13:30,14:00-19:00; Sa 10:00-13:30,14:00-18:00; Su 11:00-13:30,14:00-17:00",CVS Pharmacy,Q2078880
https://www.edwardjones.com/us-en/financial-advisor/jeff-m-perry,edwardjones,Jeff Perry,,Fairview,OR,,US,+1 503-766-3270,https://www.edwardjones.com/us-en/financial-advisor/jeff-m-perry,Mo-Th 08:30-17:00; Fr 08:30-16:00,Edward Jones,Q5343830
113871,little_free_library,Truly Tiny Library #113871 Fairview OR,,Fairview,OR,,US,,,,Little Free Library,Q6650101
180335,little_free_library,Kathryn Bourn #180335 Fairview OR,,Fairview,OR,,US,,,,Little Free Library,Q6650101
1363045,usps,FAIRVIEW,,FAIRVIEW,OR,,US,+1 503-669-3010,,Mo-Fr 09:00-17:00,United States Postal Service,Q668687
9702400003,usps_collection_boxes,USPS COLLECTION BOX - PO LOBBY,1700 NE MARKET DR,FAIRVIEW,OR,,US,,,,United States Postal Service,Q668687
9702400004,usps_collection_boxes,USPS COLLECTION BOX - PO LOBBY,1700 NE MARKET DR,FAIRVIEW,OR,,US,,,,United States Postal Service,Q668687
,visa,,,FAIRVIEW,OR,,US,,,,,
,visa,,,FAIRVIEW,OR,,US,,,,,
,visa,,,FAIRVIEW,OR,,US,,,,,
,visa,,,FAIRVIEW,OR,,US,,,,,
,visa,,,FAIRVIEW,OR,,US,,,,,
,visa,,,FAIRVIEW,OR,,US,,,,,
,visa,,,FAIRVIEW,OR,,US,,,,,
,visa,,,FAIRVIEW,OR,,US,,,,,
,visa,,,FAIRVIEW,OR,,US,,,,,
,visa,,,FAIRVIEW,OR,,US,,,,,
