Ref,Spider,Name,Address,City,State,Zipcode,Country,Phone,Website,Hours,Brand,WikiData
72585472,moneygram,JAIN INTERNATIONAL,,BEAWAR,,,IN,+91 94142 38009,,Mo-Su 08:00-21:00,MoneyGram,Q1944412
72895764,moneygram,KRISHNA ELECTRONICS,,BEAWER,,,IN,+91 98280 52308,,Mo-Su 08:00-21:00,MoneyGram,Q1944412
72892013,moneygram,M S GANPATI ENTERPRISES,,AJMER,,,IN,+91 98281 72088,,Mo-Su 08:00-21:00,MoneyGram,Q1944412
73200510,moneygram,SUMAIYYA ENTERPRISES - BEAWAR - BEAWAR,,BEAWAR,,,IN,+91 70629 37777,,Mo-Su 09:00-22:00,MoneyGram,Q1944412
73260262,moneygram,MUTHOOT FINANCE LTD - #1286 - AJMER - BE,,AJMER,,,IN,+91 1462 258 915,,Mo-Su 09:00-19:00,MoneyGram,Q1944412
73319715,moneygram,MUTHOOT FINCORP LIMITED - #F1618 - PALI,,AJMER,,,IN,+91 1462 251 075,,Mo-Sa 09:00-17:30; Su 00:00-24:00,MoneyGram,Q1944412
72971581,moneygram,NAKODA FOREX AND TRAVELS,,BEAWAR,,,IN,+91 94145 73377,,Mo-Su 08:00-21:00,MoneyGram,Q1944412
73392936,moneygram,GANESH XEROX,,BEAWAR,,,IN,+91 94603 20009,,Mo-Su 08:00-21:00,MoneyGram,Q1944412
73426378,moneygram,KUMAR BROTHERS & COMPANY,,AJMER,,,IN,+91 98280 72327,,Mo-Su 08:00-21:00,MoneyGram,Q1944412
73439417,moneygram,NATIONAL TRAVEL SERVICE,,AJMER,,,IN,+91 98284 78451,,Mo-Su 08:00-21:00,MoneyGram,Q1944412
73426695,moneygram,NEW STAR E MITRA & TELECOM,,AJMER,,,IN,+91 77408 75796,,Mo-Su 08:00-21:00,MoneyGram,Q1944412
73426776,moneygram,SHREE MONEY,,AJMER,,,IN,+91 91468 60001,,Mo-Su 08:00-21:00,MoneyGram,Q1944412
73428282,moneygram,DOUBLE A TELECOME,,AJMER,,,IN,+91 95493 27464,,Mo-Su 08:00-21:00,MoneyGram,Q1944412
73429087,moneygram,GOVIND INFOTECH,,AJMER,,,IN,+91 96806 26926,,Mo-Su 08:00-21:00,MoneyGram,Q1944412
73428460,moneygram,SHREE SATGURU TRAVELS,,AJMER,,,IN,+91 79764 55106,,Mo-Su 08:00-21:00,MoneyGram,Q1944412
73737601,moneygram,RM TRAVEL AGENCY & HOLIDAY PLANNER,,BEAWAR,,,IN,+91 90799 25230,,Mo-Su 08:00-21:00,MoneyGram,Q1944412
73739706,moneygram,SPICE CYBER & COMPUTERS,,BEAWAR,,,IN,+91 90012 49330,,Mo-Su 08:00-21:00,MoneyGram,Q1944412
73819859,moneygram,MANAN MONEY,,BEAWAR,,,IN,+91 95302 14403,,Mo-Su 08:00-21:00,MoneyGram,Q1944412
73798006,moneygram,M/S L K ENTERPRISES,,BEAWAR,,,IN,+91 97991 89335,,Mo-Su 08:00-21:00,MoneyGram,Q1944412
73929419,moneygram,YASH ENTERPRISES,,BEAWER,,,IN,+91 72968 58052,,Mo-Su 08:00-21:00,MoneyGram,Q1944412
74153190,moneygram,KHUSHI MOBILE,,JHANK,,,IN,+91 98289 85868,,Mo-Su 08:00-21:00,MoneyGram,Q1944412
74198252,moneygram,KATHAT EMITRA,,BEAWER,,,IN,+91 74259 09412,,Mo-Su 08:00-21:00,MoneyGram,Q1944412
74271522,moneygram,ASHOK KUMAR PANKAJ KUMAR LODHA,,AJMER,,,IN,+91 94142 11477,,Mo-Su 08:00-21:00,MoneyGram,Q1944412
74465516,moneygram,RAJASTHAN EMITRA,,BAYLA,,,IN,+91 88905 17850,,Mo-Su 08:00-21:00,MoneyGram,Q1944412
74560288,moneygram,KRISHNA MOBILE AND MONEY TRANSFER,,BEAWAR,,,IN,+91 96100 89461,,Mo-Su 08:00-21:00,MoneyGram,Q1944412
70729230,moneygram,MANAPPURAM FINANCE - #3551 - AJMER,,AJMER,,,IN,+91 1462 258 699,,Mo-Sa 10:00-18:00; Su 00:00-24:00,MoneyGram,Q1944412
71228837,moneygram,RAMA AIRTEL - AJMER - AJMER,,AJMER,,,IN,+91 99503 53505,,Mo-Su 09:00-21:00,MoneyGram,Q1944412
71453592,moneygram,B K BROTHERS - AJMER - AJMER,,AJMER,,,IN,+91 98286 24480,,Mo-Su 09:00-21:00,MoneyGram,Q1944412
,visa,,,BEAWAR,,,IN,,,,,
