Ref,Spider,Name,Address,City,State,Zipcode,Country,Phone,Website,Hours,Brand,WikiData
5579,autozone_us,AutoZone Auto Parts Pea Ridge,,Pea Ridge,AR,,US,+1 479-488-8005,https://www.autozone.com/locations/ar/pea-ridge/225-slack-street.html,Mo-Sa 07:30-21:00; Su 09:00-18:00,AutoZone,Q4826087
24935,dollar_general,Dollar General,,Pea Ridge,AR,,US,+1 479-326-8045,https://www.dollargeneral.com/store-directory/ar/pea-ridge/24935,Mo-Su 08:00-22:00,Dollar General,Q145168
5351,dominos_pizza_us,Domino's Pizza,,Pea Ridge,AR,,US,+1 479-342-2010,https://pizza.dominos.com/arkansas/pea-ridge/207-slack-street,Mo-Th 10:00-24:00; Fr-Sa 10:00-01:00; Su 10:00-24:00,Domino's,Q839466
https://www.edwardjones.com/us-en/financial-advisor/chris-donovan,edwardjones,Chris Donovan,,Pea Ridge,AR,,US,+1 479-855-1309,https://www.edwardjones.com/us-en/financial-advisor/chris-donovan,,Edward Jones,Q5343830
https://www.mercy.net/content/mercy/us/en/practice/pea-ridge/mercy-clinic-primary-care-pea-ridge.html,mercy,Mercy Clinic Primary Care - Pea Ridge,,Pea Ridge,AR,,US,+1 479-488-6415,https://www.mercy.net/practice/mercy-clinic-primary-care-pea-ridge,Mo-Fr 08:00-17:00,Mercy,Q30289045
https://locations.oreillyauto.com/ar/pearidge/check-engine-light-testing-1819.html,oreilly,Your Pea Ridge O'Reilly Auto Parts Store,,Pea Ridge,AR,,US,+1 479-451-0555,https://locations.oreillyauto.com/ar/pearidge/check-engine-light-testing-1819.html,Mo-Sa 07:30-21:00; Su 09:00-20:00,O'Reilly Auto Parts,Q7071951
https://locations.oreillyauto.com/ar/pearidge/wiper-installation-1819.html,oreilly,Your Pea Ridge O'Reilly Auto Parts Store,,Pea Ridge,AR,,US,+1 479-451-0555,https://locations.oreillyauto.com/ar/pearidge/wiper-installation-1819.html,Mo-Sa 07:30-21:00; Su 09:00-20:00,O'Reilly Auto Parts,Q7071951
https://locations.oreillyauto.com/ar/pearidge/battery-testing-1819.html,oreilly,Your Pea Ridge O'Reilly Auto Parts Store,,Pea Ridge,AR,,US,+1 479-451-0555,https://locations.oreillyauto.com/ar/pearidge/battery-testing-1819.html,Mo-Sa 07:30-21:00; Su 09:00-20:00,O'Reilly Auto Parts,Q7071951
https://locations.oreillyauto.com/ar/pearidge/autopartes-1819.html,oreilly,Tu tienda O'Reilly Auto Parts en Pea Ridge,,Pea Ridge,AR,,US,+1 479-451-0555,https://locations.oreillyauto.com/ar/pearidge/autopartes-1819.html,Mo-Sa 07:30-21:00; Su 09:00-20:00,O'Reilly Auto Parts,Q7071951
ar_pea-ridge_150-south-curtis-a,pizza_hut_us,150 South Curtis  A,,Pea Ridge,AR,,US,+1 479-451-8175,https://locations.pizzahut.com/ar/pea-ridge/150-south-curtis-a,,Pizza Hut,Q191615
https://restaurants.subway.com/#14901829,subway,Subway,,Pea Ridge Benton,AR,,US,+1 479-451-8451,https://restaurants.subway.com/united-states/ar/pea-ridge/281-townsend-way,Mo-Th 07:00-21:00; Fr 07:00-22:00; Sa 10:00-22:00; Su 10:00-21:00,Subway,Q244457
https://locations.tacobell.com/#57666443,taco_bell,Taco Bell,,Pea Ridge,AR,,US,+1 479-485-0311,https://locations.tacobell.com/ar/pea-ridge/179-lee-town-road.html,Mo-Su 08:00-01:00,Taco Bell,Q752941
1029907,uhaul,Pea Ridge Self Storage,452 Weston St,Pea Ridge,AR,,US,+1 479-451-3279,,,U-Haul,Q7862902
1377026,usps,PEA RIDGE,,PEA RIDGE,AR,,US,+1 479-451-1636,,"Mo-Fr 08:30-12:00,13:00-16:30; Sa 09:00-11:00",United States Postal Service,Q668687
7275100000,usps_collection_boxes,USPS COLLECTION BOX - BLUE BOX,468 N CURTIS AVE,PEA RIDGE,AR,,US,,,,United States Postal Service,Q668687
7275100001,usps_collection_boxes,USPS COLLECTION BOX - PO LOBBY,468 N CURTIS AVE,PEA RIDGE,AR,,US,,,,United States Postal Service,Q668687
7275100003,usps_collection_boxes,USPS COLLECTION BOX - PO LOBBY,468 N CURTIS AVE,PEA RIDGE,AR,,US,,,,United States Postal Service,Q668687
7275100004,usps_collection_boxes,USPS COLLECTION BOX - PO LOBBY,468 N CURTIS AVE,PEA RIDGE,AR,,US,,,,United States Postal Service,Q668687
7275100005,usps_collection_boxes,USPS COLLECTION BOX - PO LOBBY,468 N CURTIS AVE,PEA RIDGE,AR,,US,,,,United States Postal Service,Q668687
7275100006,usps_collection_boxes,USPS COLLECTION BOX - PO LOBBY,468 N CURTIS AVE,PEA RIDGE,AR,,US,,,,United States Postal Service,Q668687
,visa,,,PEA RIDGE,AR,,US,,,,,
,visa,,,PEA RIDGE,AR,,US,,,,,
,visa,,,PEA RIDGE,AR,,US,,,,,
,visa,,,PEA RIDGE,AR,,US,,,,,
,visa,,,ROGERS,AR,,US,,,,,
,visa,,,ROGERS,AR,,US,,,,,
https://locations.wendys.com/#53153471,wendys,"Wendy's 301 Slack in Pea Ridge, AR",,Pea Ridge,AR,,US,+1 479-488-6094,https://locations.wendys.com/united-states/ar/pea-ridge/301-slack-street,"Mo-Su 06:30-10:30,08:00-22:00",Wendy's,Q550258
29755b11e3f446167d4f9eab940ef17a,western_union,WALMART #006971,,Pea Ridge,AR,,US,+1 479-451-9002,https://location.westernunion.com/us/ar/pea-ridge/29755b11e3f446167d4f9eab940ef17a,Mo-Su 07:00-21:00,Western Union,Q861042
ceda704ba073d96ace7b695f09f0c853,western_union,E-Z MART #4309,,Pea Ridge,AR,,US,+1 479-451-1330,https://location.westernunion.com/us/ar/pea-ridge/ceda704ba073d96ace7b695f09f0c853,Mo-Su 08:00-20:00,Western Union,Q861042
74f2ff2d45e2a46c6599c28330fffec2,western_union,DOLLAR GENERAL #24935,,Pea Ridge,AR,,US,+1 479-326-8045,https://location.westernunion.com/us/ar/pea-ridge/74f2ff2d45e2a46c6599c28330fffec2,Mo-Su 08:00-22:00,Western Union,Q861042
