Ref,Spider,Name,Address,City,State,Zipcode,Country,Phone,Website,Hours,Brand,WikiData
https://www.academy.com/storelocator/#8745451,academy_us,Academy Sports + Outdoors,,Dalton,GA,,US,+1 706-270-6160,https://www.academy.com/storelocator/georgia/dalton/store-0179,Mo-Th 09:00-21:00; Fr 09:00-22:00; Sa 08:00-22:00; Su 09:00-21:00,Academy Sports + Outdoors,Q4671380
https://stores.advanceautoparts.com/ga/dalton/1005-s-thornton-ave,advance_auto_parts_us,Advance Auto Parts,,Dalton,GA,,US,+1 706-229-6931,https://stores.advanceautoparts.com/ga/dalton/1005-s-thornton-ave,Mo-Sa 07:30-21:00; Su 09:00-20:00,Advance Auto Parts,Q4686051
632141,afcurgentcare,American Family Care Dalton,,Dalton,GA,,US,+1 762-344-3323,https://www.afcurgentcare.com/dalton-ga/,Mo-Fr 08:00-20:00; Sa-Su 08:00-17:00,AFC Urgent Care,Q110552174
https://restaurants.applebees.com/en-us/ga/dalton/1322-west-walnut-avenue-86036,applebees,Connect with this Applebee's,,Dalton,GA,,US,+1 706-278-5776,https://restaurants.applebees.com/en-us/ga/dalton/1322-west-walnut-avenue-86036,Mo-Th 11:00-23:00; Fr-Sa 11:00-24:00; Su 11:00-22:00,Applebees,Q621532
12370,asics_us,Academy Sports + Outdoors,865 Shugart Road,Dalton,GA,,US,+1 706-270-6160,,,asics,Q327247
15511,asics_us,Hibbett Sports,2150 Walnut Avenue,Dalton,GA,,US,+1 706-226-8335,,,asics,Q327247
161789,att_us,DALTON STORE 8959 22CHA,,Dalton,GA,,US,+1 706-226-9353,https://www.att.com/stores/georgia/dalton/161789,Mo-Sa 09:00-20:00; Su 11:00-18:00,AT&T,Q298594
https://locators.bankofamerica.com/ga/dalton/financial-centers-dalton-7959.html,bankofamerica,Bank of America Financial Center with Drive-Thru ATM & Teller Services | Dalton,,Dalton,GA,,US,+1 706-226-3000,https://locators.bankofamerica.com/ga/dalton/financial-centers-dalton-7959.html,Mo-Fr 09:00-16:00,Bank of America,Q487907
BBW02581,bathandbodyworks_us,WALNUT SQUARE SHOPPING CENTER,,DALTON,GA,,US,+1 706-459-3202,,Mo-Sa 10:00-21:00; Su 11:00-18:00,Bath & Body Works,Q810773
https://local.biglots.com/#13190988,biglots,Big Lots - Dalton,,Dalton,GA,,US,+1 706-272-3925,https://local.biglots.com/ga/dalton/1335-w-walnut-ave,Mo-Sa 09:00-21:00; Su 11:00-19:00,Big Lots,Q4905973
144236,bluerhino,Pilot Corp #31900,,Dalton,GA,,US,+1 706-277-7934,,,Blue Rhino,Q65681213
236477,bluerhino,Circle K #2723656,,Dalton,GA,,US,+1 706-270-9987,,,Blue Rhino,Q65681213
45783,bluerhino,Kroger #458 - Atlanta,,Dalton,GA,,US,+1 706-270-0843,,,Blue Rhino,Q65681213
69163,bluerhino,Walmart #5173 - Supercenter,,Dalton (W),GA,,US,+1 706-281-2855,,,Blue Rhino,Q65681213
151675,bluerhino,Walgreens #5954,,Dalton,GA,,US,+1 706-428-9003,,,Blue Rhino,Q65681213
213319,bluerhino,Murphy's #7812,,Dalton,GA,,US,+1 706-278-0261,,,Blue Rhino,Q65681213
189184,bluerhino,Access Food Mart - ARA #3809,,Dalton,GA,,US,+1 678-907-1926,,,Blue Rhino,Q65681213
13220,bluerhino,Kroger #265 - Atlanta,,Dalton,GA,,US,+1 706-226-7998,,,Blue Rhino,Q65681213
1075,bluerhino,Walmart #0669 - Supercenter,,Dalton,GA,,US,+1 706-279-1905,,,Blue Rhino,Q65681213
ga/dalton/884-college-drive,bojangles,"Bojangles Dalton, GA",,Dalton,GA,,US,+1 706-529-6695,https://locations.bojangles.com/ga/dalton/884-college-drive.html,,Bojangles',Q891163
23684096015223072000100000000000,bp,BP,,Dalton,GA,,US,+1 706-226-3733,,Mo-Su 05:00-22:00,BP,Q152057
82030785464003072000100000000000,bp,BP,,Dalton,GA,,US,+1 706-671-1400,,Mo-Su 05:00-23:00,BP,Q152057
23692,burgerking,Burger King,,Dalton,GA,,US,+1 706-666-3010,https://www.bk.com/store-locator/store/restaurant_65979,Mo-Su 07:00-21:00,Burger King,Q177054
821,burgerking,Burger King,,Dalton,GA,,US,+1 706-400-6348,https://www.bk.com/store-locator/store/restaurant_416,Mo-Th 07:00-21:00; Fr-Sa 07:00-22:00; Su 07:00-21:00,Burger King,Q177054
001.005.1087,chilis,Dalton,,Dalton,GA,,US,+1 706-226-1011,https://www.chilis.com/locations/us/georgia/dalton/dalton/,Mo-Su 11:00-23:00,Chili's,Q1072948
ga_dalton_1518-w-walnut-ave,chipotle, ,,Dalton,GA,,US,+1 303-595-4000,https://locations.chipotle.com/ga/dalton/1518-w-walnut-ave,,Chipotle,Q465751
64550,citi,ATM Mapco,,Dalton,GA,,US,,,,Citibank,Q857063
41371,citi,ATM Circle K,,Dalton,GA,,US,,,,Citibank,Q857063
64496,citi,ATM Mapco,,Dalton,GA,,US,,,,Citibank,Q857063
64513,citi,ATM Mapco,,Dalton,GA,,US,,,,Citibank,Q857063
55366,citi,ATM FIRST BANK,,Dalton,GA,,US,,,,Citibank,Q857063
55355,citi,ATM FIRST BANK,,Dalton,GA,,US,,,,Citibank,Q857063
55352,citi,ATM FIRST BANK,,Dalton,GA,,US,,,,Citibank,Q857063
57165,citi,ATM Food City,,Dalton,GA,,US,,,,Citibank,Q857063
61010,citi,ATM Kroger,,Dalton,GA,,US,,,,Citibank,Q857063
87178,citi,ATM Walgreens,,Dalton,GA,,US,,,,Citibank,Q857063
55367,citi,ATM FIRST BANK,,Dalton,GA,,US,,,,Citibank,Q857063
40090,citi,ATM Circle K,,Dalton,GA,,US,,,,Citibank,Q857063
41557,citi,ATM Circle K,,Dalton,GA,,US,,,,Citibank,Q857063
55356,citi,ATM FIRST BANK,,Calhoun,GA,,US,,,,Citibank,Q857063
dalton/680,claires,Shop Ear Piercings & Jewelry at Claires Walmart Dalton,,DALTON,GA,,US,+1 706-712-0918,https://stores.claires.com/us/ga/dalton/680.html,Mo-Su 12:00-20:00,Claire's,Q2974996
5764,dominos_pizza_us,Domino's Pizza,,Dalton,GA,,US,+1 706-226-1008,https://pizza.dominos.com/georgia/dalton/222-w-cuyler-st,Mo-Th 10:00-24:00; Fr-Sa 10:00-01:00; Su 10:00-24:00,Domino's,Q839466
https://www.edwardjones.com/us-en/financial-advisor/dennis-steele,edwardjones,Dennis F Steele Jr,,Dalton,GA,,US,+1 706-847-4056,https://www.edwardjones.com/us-en/financial-advisor/dennis-steele,Mo-Th 09:00-17:00; Fr 09:00-16:00,Edward Jones,Q5343830
200324986,exxonmobil,Exxon,,DALTON,GA,,US,,https://www.exxon.com/en/find-station/exxon-dalton-ga-exxon-200324986,Mo-Fr 07:00-22:00; Sa-Su 08:00-21:00,Exxon,Q109675651
https://local.fedex.com/#25230860,fedex,,,Dalton,GA,,US,+1 800-463-3339,https://local.fedex.com/en-us/ga/dalton/dnnea,,FedEx,Q459477
https://local.fedex.com/#25206659,fedex,,,Dalton,GA,,US,+1 800-463-3339,https://local.fedex.com/en-us/ga/dalton/aihkx,,FedEx,Q459477
https://local.fedex.com/#25458215,fedex,,,Dalton,GA,,US,+1 800-463-3339,https://local.fedex.com/en-us/ga/dalton/00h8v,,FedEx,Q459477
https://restaurants.fiveguys.com/#15553340,five_guys_us,Five Guys Dalton Crossing,,Dalton,GA,,US,+1 706-229-9147,https://restaurants.fiveguys.com/1303-w-walnut-ave,"Mo-Th 10:00-21:30,10:00-22:00; Fr-Sa 10:00-22:30,10:00-23:00; Su 10:00-21:30,10:00-22:00",Five Guys,Q1131810
https://branches.fleetpride.com/ga/dalton/truckparts-dal.html,fleet_pride_us,FleetPride,,Dalton,GA,,US,+1 706-277-7782,https://branches.fleetpride.com/ga/dalton/truckparts-dal.html,Mo-Fr 07:30-17:00; Sa 08:00-12:00,FleetPride,Q121436710
Motorcraft1682USAEnglish,ford,Brooker Ford Lincoln,,Georgia,GA,,US,+1 706-278-1151,,,Ford,Q44294
https://www.ford.com/dealerships/dealer-details/ga/dalton/ford-of-dalton/,ford_dealers_us,Ford of Dalton,,Dalton,GA,,US,+1 470-849-7803,https://www.ford.com/dealerships/dealer-details/ga/dalton/ford-of-dalton/,Mo-Fr 09:00-19:00; Sa 09:00-18:00,Ford Motor Company,Q44294
5461,gamestop_us,Shops on Shugart,,DALTON,GA,,US,+1 706-279-1650,https://www.gamestop.com/search/?store=5461,Mo-Th 12:00-20:00; Fr-Sa 11:00-21:00; Su 12:00-19:00,GameStop,Q202210
https://www.goodyearautoservice.com/en_US/location/Dalton-GA-30720-US-000903529,goodyear_us,"Goodyear Auto Service - Dalton, Dalton, GA | Oil, Brakes & Repairs | #000903529",,Dalton,GA,,US,+1 706-278-4045,https://www.goodyearautoservice.com/en_US/location/Dalton-GA-30720-US-000903529,Mo-Sa 08:00-19:00,Goodyear,Q620875
https://salons.greatclips.com/us/ga/dalton/785-shugart-rd,greatclips,Great Clips,,Dalton,GA,,US,+1 706-260-2547,https://salons.greatclips.com/us/ga/dalton/785-shugart-rd,Mo-Fr 09:00-19:00; Sa 08:00-18:00; Su 10:00-18:00,Great Clips,Q5598967
dnndaht-home2-suites-dalton,hilton,Home2 Suites by Hilton Dalton,,,GA,,US,+1 706-226-9500,https://www.hilton.com/ar/hotels/dnndaht-home2-suites-dalton/,,Home2 Suites by Hilton,Q5887912
dnncdgi-hilton-garden-inn-dalton,hilton,Hilton Garden Inn Dalton,,,GA,,US,+1 706-529-6000,https://www.hilton.com/ar/hotels/dnncdgi-hilton-garden-inn-dalton/,,Hilton Garden Inn,Q1162859
dnnwshx-hampton-dalton,hilton,Hampton Inn Dalton,,,GA,,US,+1 706-226-4333,https://www.hilton.com/ar/hotels/dnnwshx-hampton-dalton/,,Hampton by Hilton,Q5646230
1612,honey_baked,HoneyBaked of Dalton,,Dalton,GA,,US,+1 706-277-4966,https://www.honeybaked.com/stores/1612,,Honey Baked Ham,Q5893363
11110,h_r_block,H&R Block,,Dalton,GA,,US,+1 706-278-1776,https://www.hrblock.com/local-tax-offices/georgia/dalton/dalton-shopping-center/11110/,,H&R Block,Q5627799
ga_dalton_breakfast-1510-walnut-ave-4401,ihop,IHOP Breakfast Restaurants Near You at 1510 Walnut Ave,,Dalton,GA,,US,+1 706-226-2862,https://restaurants.ihop.com/en-us/ga/dalton/breakfast-1510-walnut-ave-4401,,IHOP,Q1185675
https://office.jacksonhewitt.com/#27575557,jackson_hewitt,Jackson Hewitt,,Dalton,GA,,US,+1 706-438-2441,https://office.jacksonhewitt.com/tax-preparation-services-locations/en/ga/dalton/815-shugart-road/55173,Mo-Sa 10:00-18:00; Su 12:00-16:00,Jackson Hewitt,Q6117132
https://healthy.kaiserpermanente.org/georgia/facilities/convacare-services-inc-340503,kaiser_permanente_us,Convacare Services Inc,,Dalton,GA,,US,+1 706-278-1900,https://healthy.kaiserpermanente.org/georgia/facilities/convacare-services-inc-340503,,Kaiser Permanente,Q1721601
https://locations.kfc.com/#11247988,kfc,Chicken Nuggets Near Dalton,,Dalton,GA,,US,,https://locations.kfc.com/ga/dalton/1433-w-walnut-ave/chickennugget,Mo-Su 10:00-22:00,KFC,Q524757
1439,kohls_us,Kohl's,,Dalton,GA,,US,+1 706-272-0015,https://www.kohls.com/stores/ga/dalton-1439.shtml,Mo-Sa 09:00-21:00; Su 09:00-20:00,Kohl's,Q967265
157674,marathon_petroleum_us,Dalton Convenience,,Dalton,GA,,US,+1 706-229-9899,,,Marathon,Q458363
CHADL,marriott,Courtyard Dalton,,Dalton,GA,,US,+1 706-275-7215,https://www.marriott.com/CHADL,,Courtyard by Marriott,Q1053170
CHAFL,marriott,Fairfield Inn & Suites Dalton,,Dalton,GA,,US,+1 706-529-4634,https://www.marriott.com/CHAFL,,Fairfield by Marriott,Q5430314
17397,mattress_firm_us,Mattress Firm Dalton,,Dalton,GA,,US,+1 706-277-7771,https://www.mattressfirm.com/en-us/stores/ga/dalton/057005/,,Mattress Firm,Q6791878
2716,mightyflame,MAPCO EXPRESS #3510,,Dalton,GA,,US,+1 706-275-6380,,,Mighty Flame,
2738,mightyflame,MAPCO EXPRESS #3615,,Dalton,GA,,US,+1 706-278-0226,,,Mighty Flame,
2737,mightyflame,MAPCO EXPRESS #3612,,Dalton,GA,,US,+1 706-278-3603,,,Mighty Flame,
2717,mightyflame,MAPCO EXPRESS #3513,,Dalton,GA,,US,+1 706-278-8966,,,Mighty Flame,
2136,mightyflame,RAPIDS,,DALTON,GA,,US,+1 706-229-9331,,,Mighty Flame,
2713,mightyflame,MAPCO EXPRESS #3507,,Dalton,GA,,US,+1 706-259-6237,,,Mighty Flame,
2740,mightyflame,MAPCO EXPRESS #3620,,Dalton,GA,,US,+1 706-259-9565,,,Mighty Flame,
2742,mightyflame,MAPCO EXPRESS #3627,,Dalton,GA,,US,+1 706-259-7914,,,Mighty Flame,
7812,murphy_usa_us,,,Dalton,GA,,US,+1 762-253-0501,,Mo-Su 05:30-22:00,Murphy USA,Q19604459
https://locations.oreillyauto.com/ga/dalton/check-engine-light-testing-937.html,oreilly,Your Dalton O'Reilly Auto Parts Store,,Dalton,GA,,US,+1 706-278-5422,https://locations.oreillyauto.com/ga/dalton/check-engine-light-testing-937.html,Mo-Sa 07:00-21:00; Su 08:00-20:00,O'Reilly Auto Parts,Q7071951
https://locations.oreillyauto.com/ga/dalton/battery-testing-937.html,oreilly,Your Dalton O'Reilly Auto Parts Store,,Dalton,GA,,US,+1 706-278-5422,https://locations.oreillyauto.com/ga/dalton/battery-testing-937.html,Mo-Sa 07:00-21:00; Su 08:00-20:00,O'Reilly Auto Parts,Q7071951
https://locations.oreillyauto.com/ga/dalton/wiper-installation-937.html,oreilly,Your Dalton O'Reilly Auto Parts Store,,Dalton,GA,,US,+1 706-278-5422,https://locations.oreillyauto.com/ga/dalton/wiper-installation-937.html,Mo-Sa 07:00-21:00; Su 08:00-20:00,O'Reilly Auto Parts,Q7071951
https://locations.oreillyauto.com/ga/dalton/autopartes-937.html,oreilly,Tu tienda O'Reilly Auto Parts en Dalton,,Dalton,GA,,US,+1 706-278-5422,https://locations.oreillyauto.com/ga/dalton/autopartes-937.html,Mo-Sa 07:00-21:00; Su 08:00-20:00,O'Reilly Auto Parts,Q7071951
https://locations.outback.com/#15502351,outbacksteakhouse,Outback Steakhouse,,Dalton,GA,,US,+1 706-277-9600,https://locations.outback.com/georgia/dalton/955-market-street,Mo-Th 11:00-22:00; Fr-Sa 11:00-23:00; Su 11:00-21:00,Outback Steakhouse,Q1064893
112335,pandaexpress,Walnut Ave & Market St,,Dalton,GA,,US,+1 706-529-6688,https://www.pandaexpress.com/locations/ga/dalton/1521-w-walnut-ave,Mo-Th 10:00-22:00; Fr-Sa 10:00-22:30; Su 10:00-22:00,Panda Express,Q1358690
us1a85d07c,pandora,About Pandora Jewelry Authorized Retailer - Maryville Jewelers,,Dalton,GA,,US,+1 706-278-1030,https://stores.pandora.net/ga/dalton/pandora-jewelry-us1a85d07c.html,,Pandora,Q2241604
https://locations.papajohns.com/#10692544,papa_johns,Papa John's,,Dalton,GA,,US,+1 706-278-8181,https://locations.papajohns.com/united-states/ga/30720/dalton/100-west-walnut-ave,Mo-Th 09:30-24:00; Fr-Sa 09:30-01:00; Su 09:30-23:00,Papa John's Pizza,Q2759586
012210,penske,Penske Dalton,,DALTON,GA,,US,+1 706-277-9477,https://www.pensketruckrental.com/locations/us/georgia/dalton/012210/,,Penske,Q81234570
https://stores.petco.com/#27959674,petco,Petco Dalton,,Dalton,GA,,US,+1 706-259-6244,https://stores.petco.com/ga/dalton/pet-supplies-dalton-ga-1555.html,Mo-Sa 09:00-20:00; Su 10:00-19:00,Petco,Q7171798
72082,petland_us,Petland of Dalton,1349 West Walnut Ave.,Dalton,GA,,US,+1 706-226-7387,https://www.petland-dalton.com/,,Petland,Q17111474
319,pilot_flyingj,ONE9 Travel Center,,Dalton,GA,,US,+1 706-277-7934,https://locations.pilotflyingj.com/us/ga/dalton/243-connector-3-sw,,ONE9 Travel Center,Q1434601
home-depot-0137-13266,ppgpaints,HOME DEPOT 0137,,"Dalton, ",GA,,US,+1 706-278-8881,https://www.ppgpaints.com/store-locator/us/georgia/dalton-paint-stores/home-depot-0137-13266,,PPG Paints,Q83891559
https://www.racetrac.com/locations/georgia/dalton/rocky-face,racetrac_us,RaceTrac,,Dalton,GA,,US,+1 706-270-0005,https://www.racetrac.com/locations/georgia/dalton/rocky-face,,RaceTrac,Q735942
https://www.racetrac.com/locations/georgia/dalton/dalton,racetrac_us,RaceTrac,,Dalton,GA,,US,+1 706-277-1270,https://www.racetrac.com/locations/georgia/dalton/dalton,,RaceTrac,Q735942
2144,ross_dress_for_less_us,Dalton,,Dalton,GA,,US,+1 706-217-1162,,Mo-Th 09:30-22:00; Fr-Sa 09:30-23:00; Su 10:00-22:00,Ross Dress for Less,Q3442791
https://stores.saloncentric.com/#29173597,salon_centric_us,SalonCentric,,,GA,,US,+1 706-259-6105,https://stores.saloncentric.com/ga/dalton/1217,Mo 08:00-18:30; Tu-Fr 08:00-18:00; Sa 08:30-16:00,SalonCentric,Q124339481
https://locations.schlotzskys.com/#2255,schlotzskys,Schlotzsky's,,Whitfield County,GA,,US,+1 706-217-2867,https://locations.schlotzskys.com/ga/dalton/1325-w-walnut-ave,Mo-Su 10:30-21:00,Schlotzsky's,Q2244796
2303,steak_n_shake,Steak n Shake,,Dalton,GA,,US,+1 706-272-3300,https://www.steaknshake.com/locations/ga-dalton-w-walnut-avenue/,,Steak N Shake,Q7605233
https://restaurants.subway.com/#14902053,subway,Subway,,Dalton Whitfield,GA,,US,+1 706-275-6067,https://restaurants.subway.com/united-states/ga/dalton/906-s-thornton-ave,Mo-Su 09:00-22:00,Subway,Q244457
https://restaurants.subway.com/#14901663,subway,Subway,,Dalton Whitfield,GA,,US,+1 706-229-9027,https://restaurants.subway.com/united-states/ga/dalton/920-market-street,Mo-Su 10:00-21:00,Subway,Q244457
https://restaurants.subway.com/#14897590,subway,Subway Wal-Mart #5173,,Dalton Whitfield,GA,,US,+1 706-270-0060,https://restaurants.subway.com/united-states/ga/dalton/815-shugart-road,Mo-Su 09:00-22:00,Subway,Q244457
https://restaurants.subway.com/#14908059,subway,Subway Northside Plaza S/C,,Dalton Whitfield,GA,,US,+1 706-272-9095,https://restaurants.subway.com/united-states/ga/dalton/1281-cleveland-hwy,Mo-Su 09:00-22:00,Subway,Q244457
081106,tjx,Dalton,1325 W Walnut Ave,Dalton,GA,,US,+1 706-277-1262,,Mo-Sa 09:30-21:30; Su 10:00-20:00,TJ Maxx,Q10860683
2HSH,tmobile_us,W Walnut Ave & S Tibbs Rd,,Dalton,GA,,US,+1 706-529-7999,https://www.t-mobile.com/store-locator/ga/dalton/w-walnut-ave-s-tibbs-rd,,T-Mobile,Q3511885
6179,upsstore,Dalton,1323 W Walnut Ave Ste 2,Dalton,GA,,US,+1 706-278-1153,https://locations.theupsstore.com/ga/dalton/1323-w-walnut-ave,,UPS Store,Q7771029
1360214,usps,DALTON,,DALTON,GA,,US,+1 706-279-0751,,Mo-Fr 08:00-17:00; Sa 09:00-12:00,United States Postal Service,Q668687
3072000027,usps_collection_boxes,USPS COLLECTION BOX - BLUE BOX,1504 N THORNTON AVE,DALTON,GA,,US,,,,United States Postal Service,Q668687
3072000029,usps_collection_boxes,USPS COLLECTION BOX - BLUE BOX,301 POINT NORTH PL,DALTON,GA,,US,,,,United States Postal Service,Q668687
3072000024,usps_collection_boxes,USPS COLLECTION BOX - BLUE BOX,650 COLLEGE DR,DALTON,GA,,US,,,,United States Postal Service,Q668687
3072000023,usps_collection_boxes,USPS COLLECTION BOX - APC,100 S THORNTON AVE,DALTON,GA,,US,,,,United States Postal Service,Q668687
3072000022,usps_collection_boxes,USPS COLLECTION BOX - PO LOBBY,100 S THORNTON AVE,DALTON,GA,,US,,,,United States Postal Service,Q668687
3072000036,usps_collection_boxes,USPS COLLECTION BOX - PO LOBBY,100 S THORNTON AVE,DALTON,GA,,US,,,,United States Postal Service,Q668687
3072000021,usps_collection_boxes,USPS COLLECTION BOX - BLUE BOX,100 S THORNTON AVE,DALTON,GA,,US,,,,United States Postal Service,Q668687
3072000008,usps_collection_boxes,USPS COLLECTION BOX - BLUE BOX,1001 MARKET ST,DALTON,GA,,US,,,,United States Postal Service,Q668687
3072000006,usps_collection_boxes,USPS COLLECTION BOX - BLUE BOX,1305 W WALNUT AVE,DALTON,GA,,US,,,,United States Postal Service,Q668687
3072000033,usps_collection_boxes,USPS COLLECTION BOX - BLUE BOX,100 W WALNUT AVE,DALTON,GA,,US,,,,United States Postal Service,Q668687
3072000013,usps_collection_boxes,USPS COLLECTION BOX - BLUE BOX,1100 S HAMILTON ST,DALTON,GA,,US,,,,United States Postal Service,Q668687
3072000009,usps_collection_boxes,USPS COLLECTION BOX - BLUE BOX,2800 S DIXIE HWY,DALTON,GA,,US,,,,United States Postal Service,Q668687
R00000251432,verizon_us,Dalton,,Dalton,GA,,US,+1 706-278-3579,https://www.verizon.com/stores/details/georgia/dalton/dalton-1156006/,Mo-Sa 10:00-20:00; Su 11:00-18:00,Verizon,Q919641
,visa,,,DALTON,GA,,US,,,,,
,visa,,,DALTON,GA,,US,,,,,
,visa,,,DALTON,GA,,US,,,,,
,visa,,,DALTON,GA,,US,,,,,
,visa,,,DALTON,GA,,US,,,,,
,visa,,,DALTON,GA,,US,,,,,
,visa,,,DALTON,GA,,US,,,,,
,visa,,,DALTON,GA,,US,,,,,
,visa,,,DALTON,GA,,US,,,,,
,visa,,,DALTON,GA,,US,,,,,
,visa,,,DALTON,GA,,US,,,,,
,visa,,,DALTON,GA,,US,,,,,
,visa,,,DALTON,GA,,US,,,,,
,visa,,,DALTON,GA,,US,,,,,
,visa,,,DALTON,GA,,US,,,,,
,visa,,,DALTON,GA,,US,,,,,
,visa,,,DALTON,GA,,US,,,,,
,visa,,,DALTON,GA,,US,,,,,
,visa,,,DALTON,GA,,US,,,,,
,visa,,,DALTON,GA,,US,,,,,
,visa,,,DALTON,GA,,US,,,,,
,visa,,,DALTON,GA,,US,,,,,
,visa,,,DALTON,GA,,US,,,,,
,visa,,,DALTON,GA,,US,,,,,
,visa,,,DALTON,GA,,US,,,,,
,visa,,,DALTON,GA,,US,,,,,
,visa,,,DALTON,GA,,US,,,,,
,visa,,,DALTON,GA,,US,,,,,
,visa,,,DALTON,GA,,US,,,,,
,visa,,,DALTON,GA,,US,,,,,
,visa,,,DALTON,GA,,US,,,,,
,visa,,,DALTON,GA,,US,,,,,
,visa,,,DALTON,GA,,US,,,,,
,visa,,,DALTON,GA,,US,,,,,
,visa,,,DALTON,GA,,US,,,,,
,visa,,,DALTON,GA,,US,,,,,
,visa,,,DALTON,GA,,US,,,,,
,visa,,,DALTON,GA,,US,,,,,
,visa,,,DALTON,GA,,US,,,,,
,visa,,,DALTON,GA,,US,,,,,
,visa,,,DALTON,GA,,US,,,,,
,visa,,,DALTON,GA,,US,,,,,
,visa,,,DALTON,GA,,US,,,,,
,visa,,,DALTON,GA,,US,,,,,
,visa,,,DALTON,GA,,US,,,,,
,visa,,,DALTON,GA,,US,,,,,
,visa,,,DALTON,GA,,US,,,,,
,visa,,,DALTON,GA,,US,,,,,
,visa,,,DALTON,GA,,US,,,,,
,visa,,,DALTON,GA,,US,,,,,
,visa,,,DALTON,GA,,US,,,,,
,visa,,,DALTON,GA,,US,,,,,
,visa,,,DALTON,GA,,US,,,,,
,visa,,,DALTON,GA,,US,,,,,
,visa,,,DALTON,GA,,US,,,,,
,visa,,,DALTON,GA,,US,,,,,
,visa,,,DALTON,GA,,US,,,,,
,visa,,,DALTON,GA,,US,,,,,
,visa,,,DALTON,GA,,US,,,,,
,visa,,,DALTON,GA,,US,,,,,
,visa,,,DALTON,GA,,US,,,,,
,visa,,,DALTON,GA,,US,,,,,
1128,waffle_house_us,Waffle House #1128,,DALTON,GA,,US,+1 706-217-6257,https://locations.wafflehouse.com/dalton-ga-1128,24/7,Waffle House,Q1701206
445,waffle_house_us,Waffle House #445,,DALTON,GA,,US,+1 706-226-2751,https://locations.wafflehouse.com/dalton-ga-445,24/7,Waffle House,Q1701206
95,waffle_house_us,Waffle House #95,,DALTON,GA,,US,+1 706-278-2330,https://locations.wafflehouse.com/dalton-ga-95,24/7,Waffle House,Q1701206
https://www.walgreens.com/locator/walgreens-1247+w+walnut+ave-dalton-ga-30720/id=5954,walgreens,Walgreens,,Dalton,GA,,US,+1 706-428-9003,https://www.walgreens.com/locator/walgreens-1247+w+walnut+ave-dalton-ga-30720/id=5954,Mo-Su 07:00-22:00,Walgreens,Q1591889
940__SHUGART__RD_DALTON_GA_30720,wellsfargo,,940 SHUGART RD,DALTON,GA,,US,+1 800-869-3557,https://www.wellsfargo.com/locator/bank/940__SHUGART__RD_DALTON_GA_30720/,,Wells Fargo,Q744149
201__S__HAMILTON__ST_DALTON_GA_30720,wellsfargo,Wells Fargo,201 S HAMILTON ST,DALTON,GA,,US,+1 706-275-8207,https://www.wellsfargo.com/locator/bank/201__S__HAMILTON__ST_DALTON_GA_30720/,Mo-Fr 09:00-17:00,Wells Fargo,Q744149
1305__W__WALNUT__AVE_DALTON_GA_30720,wellsfargo,Wells Fargo,1305 W WALNUT AVE,DALTON,GA,,US,+1 706-275-8272,https://www.wellsfargo.com/locator/bank/1305__W__WALNUT__AVE_DALTON_GA_30720/,Mo-Fr 09:00-17:00,Wells Fargo,Q744149
https://locations.wendys.com/#9251881,wendys,"Wendy's 214 Connector #3 in Dalton, GA",,Dalton,GA,,US,+1 706-428-0608,https://locations.wendys.com/united-states/ga/dalton/214-connector-3,"Mo-Th 06:00-10:30,06:00-22:00; Fr-Sa 06:00-10:30,06:00-23:00; Su 06:00-10:30,06:00-22:00",Wendy's,Q550258
https://locations.wendys.com/#9251879,wendys,"Wendy's 2080 Chattanooga Road in Dalton, GA",,Dalton,GA,,US,+1 706-281-1885,https://locations.wendys.com/united-states/ga/dalton/2080-chattanooga-road,"Mo-Th 06:30-10:30,08:00-21:00; Fr-Sa 06:30-10:30,08:00-22:00; Su 06:30-10:30,08:00-21:00",Wendy's,Q550258
407ed80bdc63757dfe39554a0d47080e,western_union,WALMART #005173,,Dalton,GA,,US,+1 706-281-2855,https://location.westernunion.com/us/ga/dalton/407ed80bdc63757dfe39554a0d47080e,Mo-Sa 08:00-20:00; Su 10:00-18:00,Western Union,Q861042
c984d7e25231d08ee455a937602760e7,western_union,WALMART #004528,,Dalton,GA,,US,+1 762-209-5010,https://location.westernunion.com/us/ga/dalton/c984d7e25231d08ee455a937602760e7,Mo-Su 07:00-21:00,Western Union,Q861042
29147ef37aa669697a74ddff7c43e327,western_union,TAX USA,,Dalton,GA,,US,+1 706-264-0802,https://location.westernunion.com/us/ga/dalton/29147ef37aa669697a74ddff7c43e327,Mo-Tu 17:00-20:00; Th-Fr 17:00-20:00; Sa 10:00-14:00,Western Union,Q861042
212932,wingstop,Wingstop Dalton W. Walnut Ave,"100 W. Walnut Ave, Suite 108",Dalton,GA,,US,+1 706-807-5515,,,Wingstop,Q8025339
196,world_finance_us,,"110 N Hamilton St, Dalton, GA, 30720",Dalton,GA,,US,+1 706-278-7600,https://www.loansbyworld.com/branches/branch-196,Mo-Fr 09:00-17:30; Sa 09:00-12:00,World Finance,Q3569971
