Ref,Spider,Name,Address,City,State,Zipcode,Country,Phone,Website,Hours,Brand,WikiData
,visa,,,ENSENADA,BAJA CALIFORNIA NORTE,,MX,,,,,
,visa,,,ENSENADA,BAJA CALIFORNIA NORTE,,MX,,,,,
,visa,,,ENSENADA,BAJA CALIFORNIA NORTE,,MX,,,,,
,visa,,,ROSARITO,BAJA CALIFORNIA NORTE,,MX,,,,,
cd6a7a1fcc9092c1af264f43573992fc,western_union,OXXO EL SAUZAL TIJ,,Ensenada,BAJA CALIFORNIA NORTE,,MX,+52 81 8389 2121,https://location.westernunion.com/mx/baja-california-norte/ensenada/cd6a7a1fcc9092c1af264f43573992fc,Mo-Su 08:00-22:00,Western Union,Q861042
ca57a4dce77f489b29d84508468806f8,western_union,OXXO EL SAUZAL TIJ,,Ensenada,BAJA CALIFORNIA NORTE,,MX,+52 81 8389 2121,https://location.westernunion.com/mx/baja-california-norte/ensenada/ca57a4dce77f489b29d84508468806f8,Mo-Su 08:00-22:00,Western Union,Q861042
b42dca4c8cf29d0f5799408ce1a09701,western_union,OXXO EL SAUZAL TIJ,,Ensenada,BAJA CALIFORNIA NORTE,,MX,+52 81 8389 2121,https://location.westernunion.com/mx/baja-california-norte/ensenada/b42dca4c8cf29d0f5799408ce1a09701,Mo-Su 08:00-22:00,Western Union,Q861042
d003dc2f37f2ec8c0955696a5706660d,western_union,OXXO ATUNERAS TIJ,,Ensenada,BAJA CALIFORNIA NORTE,,MX,+52 81 8389 2121,https://location.westernunion.com/mx/baja-california-norte/ensenada/d003dc2f37f2ec8c0955696a5706660d,Mo-Su 08:00-22:00,Western Union,Q861042
594943917c958e3aed15a88affae5461,western_union,OXXO ATUNERAS TIJ,,Ensenada,BAJA CALIFORNIA NORTE,,MX,+52 81 8389 2121,https://location.westernunion.com/mx/baja-california-norte/ensenada/594943917c958e3aed15a88affae5461,Mo-Su 08:00-22:00,Western Union,Q861042
50c4cf03bb750f45c1644fdf17cf912e,western_union,OXXO ATUNERAS TIJ,,Ensenada,BAJA CALIFORNIA NORTE,,MX,+52 81 8389 2121,https://location.westernunion.com/mx/baja-california-norte/ensenada/50c4cf03bb750f45c1644fdf17cf912e,Mo-Su 08:00-22:00,Western Union,Q861042
ba8bf6d913f2d8bde58dc9437c8eb8e8,western_union,7ELEVEN CIBOLAS Y CARR ENSENADA 1277,,Ensenada,BAJA CALIFORNIA NORTE,,MX,+52 800 833 4700,https://location.westernunion.com/mx/baja-california-norte/ensenada/ba8bf6d913f2d8bde58dc9437c8eb8e8,Mo-Su 06:00-22:00,Western Union,Q861042
873a8452467e63b047b63b4be0445a0a,western_union,7ELEVEN CIBOLAS Y CARR ENSENADA 1277,,Ensenada,BAJA CALIFORNIA NORTE,,MX,+52 800 833 4700,https://location.westernunion.com/mx/baja-california-norte/ensenada/873a8452467e63b047b63b4be0445a0a,Mo-Su 06:00-22:00,Western Union,Q861042
a6ecfab68843b6f611708ce4b0dca27c,western_union,7ELEVEN CIBOLAS Y CARR ENSENADA 1277,,Ensenada,BAJA CALIFORNIA NORTE,,MX,+52 800 833 4700,https://location.westernunion.com/mx/baja-california-norte/ensenada/a6ecfab68843b6f611708ce4b0dca27c,Mo-Su 06:00-22:00,Western Union,Q861042
0915ead01571a6ffadaeab6348c47bbc,western_union,CALIMAX 717 SAUZAL AP CASH,,Ensenada,BAJA CALIFORNIA NORTE,,MX,+52 646 174 6256,https://location.westernunion.com/mx/baja-california-norte/ensenada/0915ead01571a6ffadaeab6348c47bbc,Mo-Su 07:00-23:00,Western Union,Q861042
c7ab89f8ca36d246bd66c69830574a28,western_union,CALIMAX 717 SAUZAL AP CASH,,Ensenada,BAJA CALIFORNIA NORTE,,MX,+52 646 174 6256,https://location.westernunion.com/mx/baja-california-norte/ensenada/c7ab89f8ca36d246bd66c69830574a28,Mo-Su 07:00-23:00,Western Union,Q861042
5bc476ac8c63f6436830ca93e76dbc55,western_union,CALIMAX 717 SAUZAL AP CASH,,Ensenada,BAJA CALIFORNIA NORTE,,MX,+52 646 174 6256,https://location.westernunion.com/mx/baja-california-norte/ensenada/5bc476ac8c63f6436830ca93e76dbc55,Mo-Su 07:00-23:00,Western Union,Q861042
9f6fe14cb98fa8683c63e5d74b8d56ad,western_union,OXXO COLINAS DEL SAUZAL TIJ,,Ensenada,BAJA CALIFORNIA NORTE,,MX,+52 81 8389 2121,https://location.westernunion.com/mx/baja-california-norte/ensenada/9f6fe14cb98fa8683c63e5d74b8d56ad,Mo-Su 08:00-22:00,Western Union,Q861042
bcf16796f36269e1dda14d1b3ea9535b,western_union,OXXO COLINAS DEL SAUZAL TIJ,,Ensenada,BAJA CALIFORNIA NORTE,,MX,+52 81 8389 2121,https://location.westernunion.com/mx/baja-california-norte/ensenada/bcf16796f36269e1dda14d1b3ea9535b,Mo-Su 08:00-22:00,Western Union,Q861042
863101bacd532db6e38d87aa0a5351b8,western_union,OXXO COLINAS DEL SAUZAL TIJ,,Ensenada,BAJA CALIFORNIA NORTE,,MX,+52 81 8389 2121,https://location.westernunion.com/mx/baja-california-norte/ensenada/863101bacd532db6e38d87aa0a5351b8,Mo-Su 08:00-22:00,Western Union,Q861042
ed0753f84bfc93942c97db53d843b60c,western_union,TELECOMM 02015,,El Sauzal,BAJA CALIFORNIA NORTE,,MX,+52 800 800 9889,https://location.westernunion.com/mx/baja-california-norte/el-sauzal/ed0753f84bfc93942c97db53d843b60c,Mo-Fr 09:00-15:00; Sa 09:00-12:30,Western Union,Q861042
1a9ea5fbb42e30c574cdb306c95839f4,western_union,TELECOMM 02015,,El Sauzal,BAJA CALIFORNIA NORTE,,MX,+52 800 800 8930,https://location.westernunion.com/mx/baja-california-norte/el-sauzal/1a9ea5fbb42e30c574cdb306c95839f4,Mo-Su 09:00-20:00,Western Union,Q861042
