Ref,Spider,Name,Address,City,State,Zipcode,Country,Phone,Website,Hours,Brand,WikiData
BPM698,bp,BP,,Guadalajara,Jalisco,,MX,+52 33 3614 9619,,24/7,BP,Q152057
7550,vertiche_mx,GUADALAJARA III,Pedro Moreno 495 Locales 4 y 5 Esq. Melchor Ocampo,Guadalajara,Jalisco,,MX,,,,Vertiche,Q113215945
7548,vertiche_mx,GUADALAJARA,Calle Galeana 36,Guadalajara,Jalisco,,MX,,,,Vertiche,Q113215945
7549,vertiche_mx,GUADALAJARA II,Pedro Moreno 153,Guadalajara,Jalisco,,MX,,,,Vertiche,Q113215945
,visa,,,GUADALAJARA,JALISCO,,MX,,,,,
,visa,,,GUADALAJARA,JALISCO,,MX,,,,,
,visa,,,GUADALAJARA,JALISCO,,MX,,,,,
,visa,,,GUADALAJARA,JALISCO,,MX,,,,,
,visa,,,GUADALAJARA,JALISCO,,MX,,,,,
,visa,,,GUADALAJARA,JALISCO,,MX,,,,,
,visa,,,GUADALAJARA,JALISCO,,MX,,,,,
,visa,,,GUADALAJARA,JALISCO,,MX,,,,,
,visa,,,GUADALAJARA,JALISCO,,MX,,,,,
,visa,,,GUADALAJARA,JALISCO,,MX,,,,,
,visa,,,GUADALAJARA,JALISCO,,MX,,,,,
,visa,,,GUADALAJARA,JALISCO,,MX,,,,,
,visa,,,GUADALAJARA,JALISCO,,MX,,,,,
,visa,,,GUADALAJARA,JALISCO,,MX,,,,,
,visa,,,GUADALAJARA,JALISCO,,MX,,,,,
,visa,,,GUADALAJARA,JALISCO,,MX,,,,,
,visa,,,GUADALAJARA,JALISCO,,MX,,,,,
,visa,,,GUADALAJARA,JALISCO,,MX,,,,,
,visa,,,GUADALAJARA,JALISCO,,MX,,,,,
,visa,,,GUADALAJARA,JALISCO,,MX,,,,,
,visa,,,GUADALAJARA,JALISCO,,MX,,,,,
,visa,,,GUADALAJARA,JALISCO,,MX,,,,,
,visa,,,GUADALAJARA,JALISCO,,MX,,,,,
,visa,,,GUADALAJARA,JALISCO,,MX,,,,,
,visa,,,GUADALAJARA,JALISCO,,MX,,,,,
,visa,,,GUADALAJARA,JALISCO,,MX,,,,,
,visa,,,GUADALAJARA,JALISCO,,MX,,,,,
,visa,,,GUADALAJARA,JALISCO,,MX,,,,,
,visa,,,GUADALAJARA,JALISCO,,MX,,,,,
,visa,,,GUADALAJARA,JALISCO,,MX,,,,,
,visa,,,GUADALAJARA,JALISCO,,MX,,,,,
,visa,,,GUADALAJARA,JALISCO,,MX,,,,,
,visa,,,GUADALAJARA,JALISCO,,MX,,,,,
,visa,,,GUADALAJARA,JALISCO,,MX,,,,,
,visa,,,GUADALAJARA,JALISCO,,MX,,,,,
,visa,,,GUADALAJARA,JALISCO,,MX,,,,,
,visa,,,GUADALAJARA,JALISCO,,MX,,,,,
,visa,,,GUADALAJARA,JALISCO,,MX,,,,,
,visa,,,GUADALAJARA,JALISCO,,MX,,,,,
,visa,,,GUADALAJARA JAL,JALISCO,,MX,,,,,
,visa,,,GUADALAJARA,JALISCO,,MX,,,,,
,visa,,,GUADALAJARA,JALISCO,,MX,,,,,
,visa,,,GUADALAJARA,JALISCO,,MX,,,,,
,visa,,,GUADALAJARA,JALISCO,,MX,,,,,
,visa,,,GUADALAJARA,JALISCO,,MX,,,,,
,visa,,,GUADALAJARA,JALISCO,,MX,,,,,
,visa,,,GUADALAJARA,JALISCO,,MX,,,,,
,visa,,,GUADALAJARA,JALISCO,,MX,,,,,
,visa,,,GUADALAJARA,JALISCO,,MX,,,,,
,visa,,,GUADALAJARA,JALISCO,,MX,,,,,
,visa,,,GUADALAJARA,JALISCO,,MX,,,,,
,visa,,,GUADALAJARA,JALISCO,,MX,,,,,
,visa,,,GUADALAJARA,JALISCO,,MX,,,,,
,visa,,,GUADALAJARA,JALISCO,,MX,,,,,
,visa,,,GUADALAJARA,JALISCO,,MX,,,,,
,visa,,,GUADALAJARA,JALISCO,,MX,,,,,
,visa,,,ZAPOPAN,JALISCO,,MX,,,,,
c02a4c1a86c7e16ae0449458fc211bf0,western_union,SUBURBIA 896 GUADALAJARA FRAY ANTONIO,,Guadalajara,JALISCO,,MX,+52 800 733 3300,https://location.westernunion.com/mx/jalisco/guadalajara/c02a4c1a86c7e16ae0449458fc211bf0,Mo-Su 11:00-21:00,Western Union,Q861042
ff3879eec7f9e9bd51db88ce4db1bc69,western_union,SUBURBIA 896 GUADALAJARA FRAY ANTONIO,,Guadalajara,JALISCO,,MX,+52 800 733 3300,https://location.westernunion.com/mx/jalisco/guadalajara/ff3879eec7f9e9bd51db88ce4db1bc69,Mo-Su 11:00-21:00,Western Union,Q861042
86e8ac38785548c90a6d24a8df6b0f2a,western_union,OXXO REHILETE ALCALDE GDL,,Guadalajara,JALISCO,,MX,+52 81 8389 2121,https://location.westernunion.com/mx/jalisco/guadalajara/86e8ac38785548c90a6d24a8df6b0f2a,Mo-Su 08:00-22:00,Western Union,Q861042
1f931d6f2d2f7bf28c16a1c6d1546282,western_union,OXXO REHILETE ALCALDE GDL,,Guadalajara,JALISCO,,MX,+52 81 8389 2121,https://location.westernunion.com/mx/jalisco/guadalajara/1f931d6f2d2f7bf28c16a1c6d1546282,Mo-Su 08:00-22:00,Western Union,Q861042
e9f6eccd882ddea8d9f3516801a40618,western_union,SORIANA JUAREZ 324,,Guadalajara,JALISCO,,MX,(+52) 81-1112009,https://location.westernunion.com/mx/jalisco/guadalajara/e9f6eccd882ddea8d9f3516801a40618,Mo-Su 08:00-23:00,Western Union,Q861042
415d0745725fc717f4069f3f1c1358bb,western_union,SORIANA JUAREZ 324,,Guadalajara,JALISCO,,MX,(+52) 81-1112009,https://location.westernunion.com/mx/jalisco/guadalajara/415d0745725fc717f4069f3f1c1358bb,Mo-Su 08:00-23:00,Western Union,Q861042
3abb392a6e90919815feff937ba94436,western_union,CAJA POPULAR JOSE MA MERCADO GUADALAJARA,,Guadalajara,JALISCO,,MX,+52 33 3638 8977,https://location.westernunion.com/mx/jalisco/guadalajara/3abb392a6e90919815feff937ba94436,Mo-Su 09:00-19:30,Western Union,Q861042
2af812050747b3a58ad5ea892525ed6a,western_union,FARM GUAD JAVIER MINA,,Guadalajara,JALISCO,,MX,+52 800 833 4700,https://location.westernunion.com/mx/jalisco/guadalajara/2af812050747b3a58ad5ea892525ed6a,Mo-Su 08:00-20:00,Western Union,Q861042
a5c2ca6a8b1ca99b5f9deb4f48b53fe8,western_union,FARM GUAD JAVIER MINA,,Guadalajara,JALISCO,,MX,+52 800 833 4700,https://location.westernunion.com/mx/jalisco/guadalajara/a5c2ca6a8b1ca99b5f9deb4f48b53fe8,Mo-Su 08:00-20:00,Western Union,Q861042
80efe9f34a542602cb507accb6e2f9da,western_union,FARM GUAD JAVIER MINA,,Guadalajara,JALISCO,,MX,+52 800 833 4700,https://location.westernunion.com/mx/jalisco/guadalajara/80efe9f34a542602cb507accb6e2f9da,Mo-Su 08:00-20:00,Western Union,Q861042
c65fdbc493200019037c25a8a427607e,western_union,MUEBLES AMERICA 23 AP CASH,,Guadalajara,JALISCO,,MX,+52 33 1200 9949,https://location.westernunion.com/mx/jalisco/guadalajara/c65fdbc493200019037c25a8a427607e,Mo-Su 09:30-20:30,Western Union,Q861042
8e379dab49f3536b1dfbd10bff70b1dc,western_union,OXXO ESCUDO GDL,,Guadalajara,JALISCO,,MX,+52 81 8389 2121,https://location.westernunion.com/mx/jalisco/guadalajara/8e379dab49f3536b1dfbd10bff70b1dc,Mo-Su 08:00-22:00,Western Union,Q861042
95e0588648963f0742d7aa7940b547a2,western_union,OXXO ESCUDO GDL,,Guadalajara,JALISCO,,MX,+52 81 8389 2121,https://location.westernunion.com/mx/jalisco/guadalajara/95e0588648963f0742d7aa7940b547a2,Mo-Su 08:00-22:00,Western Union,Q861042
55c8100b24952067d7f3d6d5989db4a6,western_union,OXXO ESCUDO GDL,,Guadalajara,JALISCO,,MX,+52 81 8389 2121,https://location.westernunion.com/mx/jalisco/guadalajara/55c8100b24952067d7f3d6d5989db4a6,Mo-Su 08:00-22:00,Western Union,Q861042
b325e440d48157f3fbd5cd2069ff64b3,western_union,OXXO CIUDAD DIGITAL GDL,,Guadalajara,JALISCO,,MX,+52 81 8389 2121,https://location.westernunion.com/mx/jalisco/guadalajara/b325e440d48157f3fbd5cd2069ff64b3,Mo-Su 08:00-22:00,Western Union,Q861042
274b52c1eb3a1869fe23b1dce13a44df,western_union,OXXO CIUDAD DIGITAL GDL,,Guadalajara,JALISCO,,MX,+52 81 8389 2121,https://location.westernunion.com/mx/jalisco/guadalajara/274b52c1eb3a1869fe23b1dce13a44df,Mo-Su 08:00-22:00,Western Union,Q861042
fffd804be98eb518ba08a9efff71d233,western_union,MUEBLES AMERICA 23 AP CASH,,Guadalajara,JALISCO,,MX,+52 33 1200 9949,https://location.westernunion.com/mx/jalisco/guadalajara/fffd804be98eb518ba08a9efff71d233,Mo-Su 09:30-20:30,Western Union,Q861042
69b1ea78f43cd79c64f4abca9aa1c57c,western_union,MUEBLES AMERICA 23 AP CASH,,Guadalajara,JALISCO,,MX,+52 33 1200 9949,https://location.westernunion.com/mx/jalisco/guadalajara/69b1ea78f43cd79c64f4abca9aa1c57c,Mo-Su 09:30-20:30,Western Union,Q861042
4a71b995249a806918055b15740dc15f,western_union,OXXO FEDERACION GDL,,Guadalajara,JALISCO,,MX,+52 81 8389 2121,https://location.westernunion.com/mx/jalisco/guadalajara/4a71b995249a806918055b15740dc15f,Mo-Su 08:00-22:00,Western Union,Q861042
4739ec3deed2392f54baa18cc5cf44b9,western_union,OXXO FEDERACION GDL,,Guadalajara,JALISCO,,MX,+52 81 8389 2121,https://location.westernunion.com/mx/jalisco/guadalajara/4739ec3deed2392f54baa18cc5cf44b9,Mo-Su 08:00-22:00,Western Union,Q861042
0223807e6089dfb22c15cb8859861281,western_union,OXXO FEDERACION GDL,,Guadalajara,JALISCO,,MX,+52 81 8389 2121,https://location.westernunion.com/mx/jalisco/guadalajara/0223807e6089dfb22c15cb8859861281,Mo-Su 08:00-22:00,Western Union,Q861042
277a4bf7c3737a733700cf01f31c6cbc,western_union,FARM GUAD ANGELA PERALTA,,Guadalajara,JALISCO,,MX,+52 800 833 4700,https://location.westernunion.com/mx/jalisco/guadalajara/277a4bf7c3737a733700cf01f31c6cbc,Mo-Su 09:00-22:00,Western Union,Q861042
23732e344423e7e885b501517f5b27f2,western_union,FARM GUAD ANGELA PERALTA,,Guadalajara,JALISCO,,MX,+52 800 833 4700,https://location.westernunion.com/mx/jalisco/guadalajara/23732e344423e7e885b501517f5b27f2,Mo-Su 09:00-22:00,Western Union,Q861042
27a51f12a59182526da8c7ea9830d1a8,western_union,FARM GUAD ANGELA PERALTA,,Guadalajara,JALISCO,,MX,+52 800 833 4700,https://location.westernunion.com/mx/jalisco/guadalajara/27a51f12a59182526da8c7ea9830d1a8,Mo-Su 09:00-22:00,Western Union,Q861042
72a242e735e0148d7d5d092ac57a0635,western_union,OXXO R MICHEL GDL,,Guadalajara,JALISCO,,MX,+52 81 8389 2121,https://location.westernunion.com/mx/jalisco/guadalajara/72a242e735e0148d7d5d092ac57a0635,Mo-Su 08:00-22:00,Western Union,Q861042
67238d0533c7f8d682357552d8e174d2,western_union,OXXO R MICHEL GDL,,Guadalajara,JALISCO,,MX,+52 81 8389 2121,https://location.westernunion.com/mx/jalisco/guadalajara/67238d0533c7f8d682357552d8e174d2,Mo-Su 08:00-22:00,Western Union,Q861042
e4a4d739761a082d95b28985a670edb4,western_union,OXXO R MICHEL GDL,,Guadalajara,JALISCO,,MX,+52 81 8389 2121,https://location.westernunion.com/mx/jalisco/guadalajara/e4a4d739761a082d95b28985a670edb4,Mo-Su 08:00-22:00,Western Union,Q861042
ee5dfa7ce98d92020df04f5b9256357d,western_union,OXXO JUAREZ GDL,,Guadalajara,JALISCO,,MX,+52 81 8389 2121,https://location.westernunion.com/mx/jalisco/guadalajara/ee5dfa7ce98d92020df04f5b9256357d,Mo-Su 08:00-22:00,Western Union,Q861042
3ab35c0abb5a9ee4c9e7c9881f4adfb8,western_union,OXXO JUAREZ GDL,,Guadalajara,JALISCO,,MX,+52 81 8389 2121,https://location.westernunion.com/mx/jalisco/guadalajara/3ab35c0abb5a9ee4c9e7c9881f4adfb8,Mo-Su 08:00-22:00,Western Union,Q861042
725768e2058f6f1024f3bd83fedf2c31,western_union,OXXO 5 DE FEBRERO GDL,,Guadalajara,JALISCO,,MX,+52 81 8389 2121,https://location.westernunion.com/mx/jalisco/guadalajara/725768e2058f6f1024f3bd83fedf2c31,Mo-Su 08:00-22:00,Western Union,Q861042
dc5c6a564d968648f67d0251b8b3aa2c,western_union,OXXO 5 DE FEBRERO GDL,,Guadalajara,JALISCO,,MX,+52 81 8389 2121,https://location.westernunion.com/mx/jalisco/guadalajara/dc5c6a564d968648f67d0251b8b3aa2c,Mo-Su 08:00-22:00,Western Union,Q861042
818fda112147d963d8bfdd1a0de9ad36,western_union,OXXO 5 DE FEBRERO GDL,,Guadalajara,JALISCO,,MX,+52 81 8389 2121,https://location.westernunion.com/mx/jalisco/guadalajara/818fda112147d963d8bfdd1a0de9ad36,Mo-Su 08:00-22:00,Western Union,Q861042
15ec1a7c3b710ae51006fefbdf65f59d,western_union,OXXO PLAZA TAPATIA GDL,,Guadalajara,JALISCO,,MX,+52 81 8389 2121,https://location.westernunion.com/mx/jalisco/guadalajara/15ec1a7c3b710ae51006fefbdf65f59d,Mo-Su 08:00-22:00,Western Union,Q861042
ba8d420e9da6c01e9db284c265fb8b2b,western_union,OXXO PLAZA TAPATIA GDL,,Guadalajara,JALISCO,,MX,+52 81 8389 2121,https://location.westernunion.com/mx/jalisco/guadalajara/ba8d420e9da6c01e9db284c265fb8b2b,Mo-Su 08:00-22:00,Western Union,Q861042
00c59c6c10c39d267c3a5052199ef23d,western_union,OXXO JUAREZ 120 GDL,,Guadalajara,JALISCO,,MX,+52 81 8389 2121,https://location.westernunion.com/mx/jalisco/guadalajara/00c59c6c10c39d267c3a5052199ef23d,Mo-Su 08:00-22:00,Western Union,Q861042
34a1ef1405783ca75741f9913872d9ed,western_union,OXXO JUAREZ 120 GDL,,Guadalajara,JALISCO,,MX,+52 81 8389 2121,https://location.westernunion.com/mx/jalisco/guadalajara/34a1ef1405783ca75741f9913872d9ed,Mo-Su 08:00-22:00,Western Union,Q861042
d85829f46c00fe9796016a0a765ff705,western_union,FARM GUAD PEDRO MORENO,,Guadalajara,JALISCO,,MX,+52 800 833 4700,https://location.westernunion.com/mx/jalisco/guadalajara/d85829f46c00fe9796016a0a765ff705,Mo-Su 08:00-20:00,Western Union,Q861042
2ff00d138159f87a586eb6293353d82c,western_union,FARM GUAD PEDRO MORENO,,Guadalajara,JALISCO,,MX,+52 800 833 4700,https://location.westernunion.com/mx/jalisco/guadalajara/2ff00d138159f87a586eb6293353d82c,Mo-Su 08:00-20:00,Western Union,Q861042
b1b9ec980c38f634c5942e05f66a9462,western_union,FARM GUAD PEDRO MORENO,,Guadalajara,JALISCO,,MX,+52 800 833 4700,https://location.westernunion.com/mx/jalisco/guadalajara/b1b9ec980c38f634c5942e05f66a9462,Mo-Su 08:00-20:00,Western Union,Q861042
cea9167a0c28e6c247929f2bb48e9e38,western_union,OXXO JUAREZ REAL INN GDL,,Guadalajara,JALISCO,,MX,+52 81 8389 2121,https://location.westernunion.com/mx/jalisco/guadalajara/cea9167a0c28e6c247929f2bb48e9e38,Mo-Su 08:00-22:00,Western Union,Q861042
78a21dd23ef920c812ebb37596fb5eb3,western_union,OXXO JUAREZ REAL INN GDL,,Guadalajara,JALISCO,,MX,+52 81 8389 2121,https://location.westernunion.com/mx/jalisco/guadalajara/78a21dd23ef920c812ebb37596fb5eb3,Mo-Su 08:00-22:00,Western Union,Q861042
dbbfb3f2fc2a637495db5cca0ff3b3fc,western_union,OXXO JUAREZ REAL INN GDL,,Guadalajara,JALISCO,,MX,+52 81 8389 2121,https://location.westernunion.com/mx/jalisco/guadalajara/dbbfb3f2fc2a637495db5cca0ff3b3fc,Mo-Su 08:00-22:00,Western Union,Q861042
ebbef17409e51c50b5c866ef7864cea6,western_union,7ELEVEN SAN FERNANDO 2589,,Guadalajara,JALISCO,,MX,+52 800 833 4700,https://location.westernunion.com/mx/jalisco/guadalajara/ebbef17409e51c50b5c866ef7864cea6,Mo-Su 06:00-22:00,Western Union,Q861042
5129eccfc4c334e3445b07fddd4ee34e,western_union,7ELEVEN SAN FERNANDO 2589,,Guadalajara,JALISCO,,MX,+52 800 833 4700,https://location.westernunion.com/mx/jalisco/guadalajara/5129eccfc4c334e3445b07fddd4ee34e,Mo-Su 06:00-22:00,Western Union,Q861042
f66c25c3af325b8704abdf3fa3cec143,western_union,7ELEVEN SAN FERNANDO 2589,,Guadalajara,JALISCO,,MX,+52 800 833 4700,https://location.westernunion.com/mx/jalisco/guadalajara/f66c25c3af325b8704abdf3fa3cec143,Mo-Su 06:00-22:00,Western Union,Q861042
ad86b97c3f4a7bf2e8589c742a21ac96,western_union,7ELEVEN HEROES 1547,,Guadalajara,JALISCO,,MX,+52 800 833 4700,https://location.westernunion.com/mx/jalisco/guadalajara/ad86b97c3f4a7bf2e8589c742a21ac96,Mo-Su 06:00-22:00,Western Union,Q861042
398371049fd1f6f28c7d6176c52bcfb7,western_union,7ELEVEN HEROES 1547,,Guadalajara,JALISCO,,MX,+52 800 833 4700,https://location.westernunion.com/mx/jalisco/guadalajara/398371049fd1f6f28c7d6176c52bcfb7,Mo-Su 06:00-22:00,Western Union,Q861042
89f716154f312bee82c42bb1ea5d739d,western_union,7ELEVEN PLAZA LIBERACION 1644,,Guadalajara,JALISCO,,MX,+52 800 833 4700,https://location.westernunion.com/mx/jalisco/guadalajara/89f716154f312bee82c42bb1ea5d739d,Mo-Su 06:00-22:00,Western Union,Q861042
193f7bb72c06aa455ab1cc9114e030f0,western_union,7ELEVEN PLAZA LIBERACION 1644,,Guadalajara,JALISCO,,MX,+52 800 833 4700,https://location.westernunion.com/mx/jalisco/guadalajara/193f7bb72c06aa455ab1cc9114e030f0,Mo-Su 06:00-22:00,Western Union,Q861042
919f683f556377cf9d20571162bc26f4,western_union,7ELEVEN PLAZA LIBERACION 1644,,Guadalajara,JALISCO,,MX,+52 800 833 4700,https://location.westernunion.com/mx/jalisco/guadalajara/919f683f556377cf9d20571162bc26f4,Mo-Su 06:00-22:00,Western Union,Q861042
ffcb3c0dd19cd4fd191b15ed70189c81,western_union,FUNDACION DONDE GUADALAJARA1 ID24,,Guadalajara,JALISCO,,MX,+52 999 940 7550,https://location.westernunion.com/mx/jalisco/guadalajara/ffcb3c0dd19cd4fd191b15ed70189c81,Mo-Su 08:00-20:00,Western Union,Q861042
1c097458b24cf47fb61f6bd4a9277354,western_union,FUNDACION DONDE GUADALAJARA1 ID24,,Guadalajara,JALISCO,,MX,+52 999 940 7550,https://location.westernunion.com/mx/jalisco/guadalajara/1c097458b24cf47fb61f6bd4a9277354,Mo-Su 08:00-20:00,Western Union,Q861042
eef8007e9bebf104f65798cc021e1782,western_union,FUNDACION DONDE GUADALAJARA1 ID24,,Guadalajara,JALISCO,,MX,+52 999 940 7550,https://location.westernunion.com/mx/jalisco/guadalajara/eef8007e9bebf104f65798cc021e1782,Mo-Su 08:00-20:00,Western Union,Q861042
062ca0171534c5bd112659edea22e080,western_union,OXXO ARENA COLISEO GDL,,Guadalajara,JALISCO,,MX,+52 81 8389 2121,https://location.westernunion.com/mx/jalisco/guadalajara/062ca0171534c5bd112659edea22e080,Mo-Su 08:00-22:00,Western Union,Q861042
c4c44cd3eefac2ab47127e072f9caacd,western_union,OXXO ARENA COLISEO GDL,,Guadalajara,JALISCO,,MX,+52 81 8389 2121,https://location.westernunion.com/mx/jalisco/guadalajara/c4c44cd3eefac2ab47127e072f9caacd,Mo-Su 08:00-22:00,Western Union,Q861042
c8bd9702d8defc75a86475cc4a3e0436,western_union,OXXO ARENA COLISEO GDL,,Guadalajara,JALISCO,,MX,+52 81 8389 2121,https://location.westernunion.com/mx/jalisco/guadalajara/c8bd9702d8defc75a86475cc4a3e0436,Mo-Su 08:00-22:00,Western Union,Q861042
7c674812119c205b6ec08a60bff85c8e,western_union,WALDOS PEDRO MORENO GUADALAJARAJAL 6633,,Guadalajara,JALISCO,,MX,+52 55 5246 0700,https://location.westernunion.com/mx/jalisco/guadalajara/7c674812119c205b6ec08a60bff85c8e,Mo-Su 06:30-23:30,Western Union,Q861042
e7b66e6d7bc677de3aa39f205159caa8,western_union,OXXO JUAN MANUEL GDL,,Guadalajara,JALISCO,,MX,+52 81 8389 2121,https://location.westernunion.com/mx/jalisco/guadalajara/e7b66e6d7bc677de3aa39f205159caa8,Mo-Su 08:00-22:00,Western Union,Q861042
b94f1cf6e753df418525dc58ad7ad895,western_union,OXXO JUAN MANUEL GDL,,Guadalajara,JALISCO,,MX,+52 81 8389 2121,https://location.westernunion.com/mx/jalisco/guadalajara/b94f1cf6e753df418525dc58ad7ad895,Mo-Su 08:00-22:00,Western Union,Q861042
d70f3596a230a3d26c119337832488c7,western_union,BANORTE 00020 GDL CENTRO,,Guadalajara,JALISCO,,MX,+52 800 833 4700,https://location.westernunion.com/mx/jalisco/guadalajara/d70f3596a230a3d26c119337832488c7,Mo-Fr 09:00-17:00,Western Union,Q861042
e6b5b740ee673bf4e48c54847211a80f,western_union,BANORTE 00020 GDL CENTRO,,Guadalajara,JALISCO,,MX,+52 800 833 4700,https://location.westernunion.com/mx/jalisco/guadalajara/e6b5b740ee673bf4e48c54847211a80f,Mo-Su 09:00-20:00,Western Union,Q861042
ab86d5bf799e87e93f397a36571a3783,western_union,BANORTE 00020 GDL CENTRO,,Guadalajara,JALISCO,,MX,+52 800 833 4700,https://location.westernunion.com/mx/jalisco/guadalajara/ab86d5bf799e87e93f397a36571a3783,Mo-Fr 09:00-17:00,Western Union,Q861042
1d289c7b50512073b48c925a1f0f23e2,western_union,OXXO CENTRAL VIEJA GDL,,Guadalajara,JALISCO,,MX,+52 81 8389 2121,https://location.westernunion.com/mx/jalisco/guadalajara/1d289c7b50512073b48c925a1f0f23e2,Mo-Su 08:00-22:00,Western Union,Q861042
e5fade6e18d09cb64b78b481100e7bef,western_union,OXXO CENTRAL VIEJA GDL,,Guadalajara,JALISCO,,MX,+52 81 8389 2121,https://location.westernunion.com/mx/jalisco/guadalajara/e5fade6e18d09cb64b78b481100e7bef,Mo-Su 08:00-22:00,Western Union,Q861042
80a47d6fee71316503a5bfba06322e3a,western_union,7ELEVEN FERROCARRIL 407,,Guadalajara,JALISCO,,MX,+52 800 833 4700,https://location.westernunion.com/mx/jalisco/guadalajara/80a47d6fee71316503a5bfba06322e3a,Mo-Su 06:00-22:00,Western Union,Q861042
e79de6713d4b5ee995c50bf8a5589893,western_union,7ELEVEN FERROCARRIL 407,,Guadalajara,JALISCO,,MX,+52 800 833 4700,https://location.westernunion.com/mx/jalisco/guadalajara/e79de6713d4b5ee995c50bf8a5589893,Mo-Su 06:00-22:00,Western Union,Q861042
5e3e64f0dd5f062454255ecdf0ce3ce9,western_union,7ELEVEN FERROCARRIL 407,,Guadalajara,JALISCO,,MX,+52 800 833 4700,https://location.westernunion.com/mx/jalisco/guadalajara/5e3e64f0dd5f062454255ecdf0ce3ce9,Mo-Su 06:00-22:00,Western Union,Q861042
8834446eeb3190152e2b3a26f2d62904,western_union,7ELEVEN GOBIERNO ESTATAL 689,,Guadalajara,JALISCO,,MX,+52 800 833 4700,https://location.westernunion.com/mx/jalisco/guadalajara/8834446eeb3190152e2b3a26f2d62904,Mo-Su 06:00-22:00,Western Union,Q861042
700c0b6db89ee2a8e29566a09c779de9,western_union,7ELEVEN GOBIERNO ESTATAL 689,,Guadalajara,JALISCO,,MX,+52 800 833 4700,https://location.westernunion.com/mx/jalisco/guadalajara/700c0b6db89ee2a8e29566a09c779de9,Mo-Su 06:00-22:00,Western Union,Q861042
72560b0f1fdf4f2b6a950ac6e44a78dd,western_union,7ELEVEN GOBIERNO ESTATAL 689,,Guadalajara,JALISCO,,MX,+52 800 833 4700,https://location.westernunion.com/mx/jalisco/guadalajara/72560b0f1fdf4f2b6a950ac6e44a78dd,Mo-Su 06:00-22:00,Western Union,Q861042
b8108024142017d8ea7d765731a4eddd,western_union,OXXO CATEDRAL GDL,,Guadalajara,JALISCO,,MX,+52 81 8389 2121,https://location.westernunion.com/mx/jalisco/guadalajara/b8108024142017d8ea7d765731a4eddd,Mo-Su 08:00-22:00,Western Union,Q861042
5773dc357b61ae4710e07116e1e75487,western_union,OXXO CATEDRAL GDL,,Guadalajara,JALISCO,,MX,+52 81 8389 2121,https://location.westernunion.com/mx/jalisco/guadalajara/5773dc357b61ae4710e07116e1e75487,Mo-Su 08:00-22:00,Western Union,Q861042
ed0e03b6d3306e13712da8c2a0948c04,western_union,OXXO CATEDRAL GDL,,Guadalajara,JALISCO,,MX,+52 81 8389 2121,https://location.westernunion.com/mx/jalisco/guadalajara/ed0e03b6d3306e13712da8c2a0948c04,Mo-Su 08:00-22:00,Western Union,Q861042
d14c0858ad2954acdc7855a55e43eea8,western_union,OXXO LEANDRO VALLE GDL,,Guadalajara,JALISCO,,MX,+52 81 8389 2121,https://location.westernunion.com/mx/jalisco/guadalajara/d14c0858ad2954acdc7855a55e43eea8,Mo-Su 08:00-22:00,Western Union,Q861042
07cff52a8f4ffb9cd2f0eaa6a4cc1249,western_union,OXXO LEANDRO VALLE GDL,,Guadalajara,JALISCO,,MX,+52 81 8389 2121,https://location.westernunion.com/mx/jalisco/guadalajara/07cff52a8f4ffb9cd2f0eaa6a4cc1249,Mo-Su 08:00-22:00,Western Union,Q861042
b2c4270bd6bfa8b23c0e1e50f9074cce,western_union,OXXO LEANDRO VALLE GDL,,Guadalajara,JALISCO,,MX,+52 81 8389 2121,https://location.westernunion.com/mx/jalisco/guadalajara/b2c4270bd6bfa8b23c0e1e50f9074cce,Mo-Su 08:00-22:00,Western Union,Q861042
5aaab3b9e6934dbc46d73537cad6f78a,western_union,MUEBLES AMERICA 21 16 DE SEPTIEMBRE,,Guadalajara,JALISCO,,MX,+52 33 1200 6548,https://location.westernunion.com/mx/jalisco/guadalajara/5aaab3b9e6934dbc46d73537cad6f78a,Mo-Su 09:30-20:30,Western Union,Q861042
a1ae6fadc294bab9e7092b641c8044bf,western_union,MUEBLES AMERICA 21 16 DE SEPTIEMBRE,,Guadalajara,JALISCO,,MX,+52 33 1200 6548,https://location.westernunion.com/mx/jalisco/guadalajara/a1ae6fadc294bab9e7092b641c8044bf,Mo-Su 09:30-20:30,Western Union,Q861042
6c7ac51a2c3d78367c6c5fea69b22f2f,western_union,MUEBLES AMERICA 21 16 DE SEPTIEMBRE,,Guadalajara,JALISCO,,MX,+52 33 1200 6548,https://location.westernunion.com/mx/jalisco/guadalajara/6c7ac51a2c3d78367c6c5fea69b22f2f,Mo-Su 09:30-20:30,Western Union,Q861042
783767bb661b99d57838a155be0532e7,western_union,OXXO SAN FELIPE GDL,,Guadalajara,JALISCO,,MX,+52 81 8389 2121,https://location.westernunion.com/mx/jalisco/guadalajara/783767bb661b99d57838a155be0532e7,Mo-Su 08:00-22:00,Western Union,Q861042
115d85835a2631b2277bce4963a33fcd,western_union,OXXO SAN FELIPE GDL,,Guadalajara,JALISCO,,MX,+52 81 8389 2121,https://location.westernunion.com/mx/jalisco/guadalajara/115d85835a2631b2277bce4963a33fcd,Mo-Su 08:00-22:00,Western Union,Q861042
eeb353a4dbd8255751c0e83e38eda24e,western_union,OXXO PORTALES JUAREZ GDL,,Guadalajara,JALISCO,,MX,+52 81 8389 2121,https://location.westernunion.com/mx/jalisco/guadalajara/eeb353a4dbd8255751c0e83e38eda24e,Mo-Su 08:00-22:00,Western Union,Q861042
8c4c480ec057277f085112862d8c8cbb,western_union,OXXO PORTALES JUAREZ GDL,,Guadalajara,JALISCO,,MX,+52 81 8389 2121,https://location.westernunion.com/mx/jalisco/guadalajara/8c4c480ec057277f085112862d8c8cbb,Mo-Su 08:00-22:00,Western Union,Q861042
fb28feb0c6c303150aa0bbf985a29be6,western_union,OXXO PORTALES JUAREZ GDL,,Guadalajara,JALISCO,,MX,+52 81 8389 2121,https://location.westernunion.com/mx/jalisco/guadalajara/fb28feb0c6c303150aa0bbf985a29be6,Mo-Su 08:00-22:00,Western Union,Q861042
aff9f3842367a1d9a44e95f3ec27ed26,western_union,OXXO 16 DE SEPTIEMBRE GDL,,Guadalajara,JALISCO,,MX,+52 81 8389 2121,https://location.westernunion.com/mx/jalisco/guadalajara/aff9f3842367a1d9a44e95f3ec27ed26,Mo-Su 08:00-22:00,Western Union,Q861042
9ed94c0a5db211f34d8c220cd84a48bf,western_union,OXXO 16 DE SEPTIEMBRE GDL,,Guadalajara,JALISCO,,MX,+52 81 8389 2121,https://location.westernunion.com/mx/jalisco/guadalajara/9ed94c0a5db211f34d8c220cd84a48bf,Mo-Su 08:00-22:00,Western Union,Q861042
a72a3caf516a0b4f9888019cf9747373,western_union,BANCOPPEL 84 16 DE SEPTIEMBRE,,Guadalajara,JALISCO,,MX,+52 55 5441 6691,https://location.westernunion.com/mx/jalisco/guadalajara/a72a3caf516a0b4f9888019cf9747373,Mo-Sa 10:00-20:30; Su 10:00-18:00,Western Union,Q861042
48b072fc1e388ae7a8425b8276f14117,western_union,BANCOPPEL 84 16 DE SEPTIEMBRE,,Guadalajara,JALISCO,,MX,+52 55 5441 6691,https://location.westernunion.com/mx/jalisco/guadalajara/48b072fc1e388ae7a8425b8276f14117,Mo-Sa 10:00-20:30; Su 10:00-18:00,Western Union,Q861042
b517ebd3088a9d5c1a8a2397fdb0685c,western_union,BANCOPPEL 84 16 DE SEPTIEMBRE,,Guadalajara,JALISCO,,MX,+52 55 5441 6691,https://location.westernunion.com/mx/jalisco/guadalajara/b517ebd3088a9d5c1a8a2397fdb0685c,Mo-Sa 10:00-20:30; Su 10:00-18:00,Western Union,Q861042
4e6b34e69260caa2dd0519c4b4ae462c,western_union,OXXO ARANZAZU GDL,,Guadalajara,JALISCO,,MX,+52 81 8389 2121,https://location.westernunion.com/mx/jalisco/guadalajara/4e6b34e69260caa2dd0519c4b4ae462c,Mo-Su 08:00-22:00,Western Union,Q861042
173114f784a7e11a0a39bdd11cb971f3,western_union,OXXO ARANZAZU GDL,,Guadalajara,JALISCO,,MX,+52 81 8389 2121,https://location.westernunion.com/mx/jalisco/guadalajara/173114f784a7e11a0a39bdd11cb971f3,Mo-Su 08:00-22:00,Western Union,Q861042
83090872c80903cf230bc6731e70c7c4,western_union,OXXO ARANZAZU GDL,,Guadalajara,JALISCO,,MX,+52 81 8389 2121,https://location.westernunion.com/mx/jalisco/guadalajara/83090872c80903cf230bc6731e70c7c4,Mo-Su 08:00-22:00,Western Union,Q861042
574a0857f825c913bf66bd6e1985478e,western_union,ELEKTRA 9596,,Guadalajara,JALISCO,,MX,+52 55 1720 8177,https://location.westernunion.com/mx/jalisco/guadalajara/574a0857f825c913bf66bd6e1985478e,Mo-Su 09:00-21:00,Western Union,Q861042
ce237832452b0286c4b465c813b5d8e1,western_union,7ELEVEN CORONA 425,,Guadalajara,JALISCO,,MX,+52 800 833 4700,https://location.westernunion.com/mx/jalisco/guadalajara/ce237832452b0286c4b465c813b5d8e1,Mo-Su 06:00-22:00,Western Union,Q861042
8e4092b410721e90084e93d4fcb4a61c,western_union,7ELEVEN CORONA 425,,Guadalajara,JALISCO,,MX,+52 800 833 4700,https://location.westernunion.com/mx/jalisco/guadalajara/8e4092b410721e90084e93d4fcb4a61c,Mo-Su 06:00-22:00,Western Union,Q861042
13fde4aa148331d4ffea7afdc1a7f4c5,western_union,7ELEVEN CORONA 425,,Guadalajara,JALISCO,,MX,+52 800 833 4700,https://location.westernunion.com/mx/jalisco/guadalajara/13fde4aa148331d4ffea7afdc1a7f4c5,Mo-Su 06:00-22:00,Western Union,Q861042
0e74acd33c6d0bc8f381a9c8dfebfa85,western_union,OXXO MULBAR GDL,,Guadalajara,JALISCO,,MX,+52 81 8389 2121,https://location.westernunion.com/mx/jalisco/guadalajara/0e74acd33c6d0bc8f381a9c8dfebfa85,Mo-Su 08:00-22:00,Western Union,Q861042
6fb54bc64b85ebfb6dacf727bfa76bd1,western_union,OXXO MULBAR GDL,,Guadalajara,JALISCO,,MX,+52 81 8389 2121,https://location.westernunion.com/mx/jalisco/guadalajara/6fb54bc64b85ebfb6dacf727bfa76bd1,Mo-Su 08:00-22:00,Western Union,Q861042
9eaea5f18c363b1c252ccfb06c825f22,western_union,FARM GUAD PEDRO LOZA,,Guadalajara,JALISCO,,MX,+52 800 833 4700,https://location.westernunion.com/mx/jalisco/guadalajara/9eaea5f18c363b1c252ccfb06c825f22,Mo-Su 08:00-20:00,Western Union,Q861042
bbad552da4acec58b48e5e932128efe3,western_union,FARM GUAD PEDRO LOZA,,Guadalajara,JALISCO,,MX,+52 800 833 4700,https://location.westernunion.com/mx/jalisco/guadalajara/bbad552da4acec58b48e5e932128efe3,Mo-Su 08:00-20:00,Western Union,Q861042
b70f7295c2b60595b02b05d664c98a2a,western_union,FARM GUAD PEDRO LOZA,,Guadalajara,JALISCO,,MX,+52 800 833 4700,https://location.westernunion.com/mx/jalisco/guadalajara/b70f7295c2b60595b02b05d664c98a2a,Mo-Su 08:00-20:00,Western Union,Q861042
9cc6bc66cf94d54c6d76d607dcc7bca1,western_union,WALDOS JUAN MANUEL GUADALA CENT JAL 6607,,Guadalajara,JALISCO,,MX,+52 55 5246 0700,https://location.westernunion.com/mx/jalisco/guadalajara/9cc6bc66cf94d54c6d76d607dcc7bca1,Mo-Su 06:30-23:30,Western Union,Q861042
8806b656ddb0790faf65da012cdcd89e,western_union,7ELEVEN TATO 1850,,Guadalajara,JALISCO,,MX,+52 800 833 4700,https://location.westernunion.com/mx/jalisco/guadalajara/8806b656ddb0790faf65da012cdcd89e,Mo-Su 06:00-22:00,Western Union,Q861042
a5d56c650d256a8afe2ee037c5a05d68,western_union,7ELEVEN TATO 1850,,Guadalajara,JALISCO,,MX,+52 800 833 4700,https://location.westernunion.com/mx/jalisco/guadalajara/a5d56c650d256a8afe2ee037c5a05d68,Mo-Su 06:00-22:00,Western Union,Q861042
b6c47471194217ff6678cb9e9482038f,western_union,7ELEVEN TATO 1850,,Guadalajara,JALISCO,,MX,+52 800 833 4700,https://location.westernunion.com/mx/jalisco/guadalajara/b6c47471194217ff6678cb9e9482038f,Mo-Su 06:00-22:00,Western Union,Q861042
709b7f6a456e806e23511a42fde525a0,western_union,SUBURBIA 896 GUADALAJARA FRAY ANTONIO,,Guadalajara,JALISCO,,MX,+52 800 733 3300,https://location.westernunion.com/mx/jalisco/guadalajara/709b7f6a456e806e23511a42fde525a0,Mo-Su 11:00-21:00,Western Union,Q861042
7c85031a133c7b23734f9a3e531b7833,western_union,7ELEVEN AV 16 DE SEPTIEMBRE,,Guadalajara,JALISCO,,MX,+52 800 833 4700,https://location.westernunion.com/mx/jalisco/guadalajara/7c85031a133c7b23734f9a3e531b7833,Mo-Su 06:00-22:00,Western Union,Q861042
98893802680af7c01ede5a7e4573b53e,western_union,7ELEVEN AV 16 DE SEPTIEMBRE,,Guadalajara,JALISCO,,MX,+52 800 833 4700,https://location.westernunion.com/mx/jalisco/guadalajara/98893802680af7c01ede5a7e4573b53e,Mo-Su 06:00-22:00,Western Union,Q861042
53d501bbdff27437ad3ab12b0dea43e7,western_union,7ELEVEN AV 16 DE SEPTIEMBRE,,Guadalajara,JALISCO,,MX,+52 800 833 4700,https://location.westernunion.com/mx/jalisco/guadalajara/53d501bbdff27437ad3ab12b0dea43e7,Mo-Su 06:00-22:00,Western Union,Q861042
28aeb09e8a3b3a0a105760371669985d,western_union,ELEKTRA 9596,,Guadalajara,JALISCO,,MX,+52 55 1720 8177,https://location.westernunion.com/mx/jalisco/guadalajara/28aeb09e8a3b3a0a105760371669985d,Mo-Su 09:00-21:00,Western Union,Q861042
98a84df768b66527622e050c73ee3a09,western_union,ELEKTRA 9596,,Guadalajara,JALISCO,,MX,+52 55 1720 8177,https://location.westernunion.com/mx/jalisco/guadalajara/98a84df768b66527622e050c73ee3a09,Mo-Su 09:00-21:00,Western Union,Q861042
af9d301278ed624dd7cabddaa409f1f7,western_union,OXXO CENTRAL VIEJA GDL,,Guadalajara,JALISCO,,MX,+52 81 8389 2121,https://location.westernunion.com/mx/jalisco/guadalajara/af9d301278ed624dd7cabddaa409f1f7,Mo-Su 08:00-22:00,Western Union,Q861042
3a0c1d079a82f2335e86197c1269c9c5,western_union,OXXO MADERO GDL,,Guadalajara,JALISCO,,MX,+52 81 8389 2121,https://location.westernunion.com/mx/jalisco/guadalajara/3a0c1d079a82f2335e86197c1269c9c5,Mo-Su 08:00-22:00,Western Union,Q861042
26b8e818d26d81e1673b4d274d553428,western_union,OXXO MADERO GDL,,Guadalajara,JALISCO,,MX,+52 81 8389 2121,https://location.westernunion.com/mx/jalisco/guadalajara/26b8e818d26d81e1673b4d274d553428,Mo-Su 08:00-22:00,Western Union,Q861042
d44391a25d99750e84e3e3ef9111ce5b,western_union,7ELEVEN PRICILIANO SANCHEZ 376,,Guadalajara,JALISCO,,MX,+52 800 833 4700,https://location.westernunion.com/mx/jalisco/guadalajara/d44391a25d99750e84e3e3ef9111ce5b,Mo-Su 06:00-22:00,Western Union,Q861042
7d549b8544409208abb564e5f386b1f8,western_union,7ELEVEN PRICILIANO SANCHEZ 376,,Guadalajara,JALISCO,,MX,+52 800 833 4700,https://location.westernunion.com/mx/jalisco/guadalajara/7d549b8544409208abb564e5f386b1f8,Mo-Su 06:00-22:00,Western Union,Q861042
e35668963cb36d472698d722b5d437a8,western_union,7ELEVEN PRICILIANO SANCHEZ 376,,Guadalajara,JALISCO,,MX,+52 800 833 4700,https://location.westernunion.com/mx/jalisco/guadalajara/e35668963cb36d472698d722b5d437a8,Mo-Su 06:00-22:00,Western Union,Q861042
d4d17847b8047d914d5c1f2bdd71132c,western_union,FARM GUAD ALCALDE,,Guadalajara,JALISCO,,MX,+52 800 833 4700,https://location.westernunion.com/mx/jalisco/guadalajara/d4d17847b8047d914d5c1f2bdd71132c,Mo-Su 09:00-22:00,Western Union,Q861042
8ca91ec2c55984c4aef2d3d6d0a32364,western_union,FARM GUAD ALCALDE,,Guadalajara,JALISCO,,MX,+52 800 833 4700,https://location.westernunion.com/mx/jalisco/guadalajara/8ca91ec2c55984c4aef2d3d6d0a32364,Mo-Su 09:00-22:00,Western Union,Q861042
8c4d36be30d479fdeeb81bbe93c330ef,western_union,FARM GUAD ALCALDE,,Guadalajara,JALISCO,,MX,+52 800 833 4700,https://location.westernunion.com/mx/jalisco/guadalajara/8c4d36be30d479fdeeb81bbe93c330ef,Mo-Su 09:00-22:00,Western Union,Q861042
0e8e976af234706bf1db9a058335a270,western_union,WALDOS COLON GUADALAJARAJAL 6618,,Guadalajara,JALISCO,,MX,+52 55 5246 0700,https://location.westernunion.com/mx/jalisco/guadalajara/0e8e976af234706bf1db9a058335a270,Mo-Su 06:30-23:30,Western Union,Q861042
48709d6fca19ca237934bfb40d67f23a,western_union,OXXO LAS 9 ESQUINAS GDL,,Guadalajara,JALISCO,,MX,+52 81 8389 2121,https://location.westernunion.com/mx/jalisco/guadalajara/48709d6fca19ca237934bfb40d67f23a,Mo-Su 08:00-22:00,Western Union,Q861042
375ccd056743a5fbf470e64cf57e773b,western_union,OXXO LAS 9 ESQUINAS GDL,,Guadalajara,JALISCO,,MX,+52 81 8389 2121,https://location.westernunion.com/mx/jalisco/guadalajara/375ccd056743a5fbf470e64cf57e773b,Mo-Su 08:00-22:00,Western Union,Q861042
e29bca134e491a1cfd204705a0fd5039,western_union,OXXO LAS 9 ESQUINAS GDL,,Guadalajara,JALISCO,,MX,+52 81 8389 2121,https://location.westernunion.com/mx/jalisco/guadalajara/e29bca134e491a1cfd204705a0fd5039,Mo-Su 08:00-22:00,Western Union,Q861042
6a959c88ef202d923a008948d2ee8c66,western_union,OXXO ROTONDA GDL,,Guadalajara,JALISCO,,MX,+52 81 8389 2121,https://location.westernunion.com/mx/jalisco/guadalajara/6a959c88ef202d923a008948d2ee8c66,Mo-Su 08:00-22:00,Western Union,Q861042
c5b4bc3c5d16a55c1a9380d1f7737295,western_union,OXXO ROTONDA GDL,,Guadalajara,JALISCO,,MX,+52 81 8389 2121,https://location.westernunion.com/mx/jalisco/guadalajara/c5b4bc3c5d16a55c1a9380d1f7737295,Mo-Su 08:00-22:00,Western Union,Q861042
c8b5eee44cee7f17e3332ed39cb796be,western_union,OXXO MADERO GDL,,Guadalajara,JALISCO,,MX,+52 81 8389 2121,https://location.westernunion.com/mx/jalisco/guadalajara/c8b5eee44cee7f17e3332ed39cb796be,Mo-Su 08:00-22:00,Western Union,Q861042
a11725abdc8b51f5039c5ca786d01385,western_union,BANCOPPEL 82 JUAREZ,,Guadalajara,JALISCO,,MX,+52 612 166 5062,https://location.westernunion.com/mx/jalisco/guadalajara/a11725abdc8b51f5039c5ca786d01385,Mo-Sa 10:00-20:30; Su 10:00-18:00,Western Union,Q861042
d33388a6a71d7b8b71ac9616e73d8f03,western_union,BANCOPPEL 82 JUAREZ,,Guadalajara,JALISCO,,MX,+52 612 166 5062,https://location.westernunion.com/mx/jalisco/guadalajara/d33388a6a71d7b8b71ac9616e73d8f03,Mo-Sa 10:00-20:30; Su 10:00-18:00,Western Union,Q861042
42091ae2372bffc2cb319f33d0f52cfe,western_union,OXXO CAIRO GDL,,Guadalajara,JALISCO,,MX,+52 81 8389 2121,https://location.westernunion.com/mx/jalisco/guadalajara/42091ae2372bffc2cb319f33d0f52cfe,Mo-Su 08:00-22:00,Western Union,Q861042
e6ce7b61c8cc8b0a19f5341fa6190fe2,western_union,OXXO CAIRO GDL,,Guadalajara,JALISCO,,MX,+52 81 8389 2121,https://location.westernunion.com/mx/jalisco/guadalajara/e6ce7b61c8cc8b0a19f5341fa6190fe2,Mo-Su 08:00-22:00,Western Union,Q861042
8a13f69830de696148c92b479ceb8943,western_union,OXXO REHILETE ALCALDE GDL,,Guadalajara,JALISCO,,MX,+52 81 8389 2121,https://location.westernunion.com/mx/jalisco/guadalajara/8a13f69830de696148c92b479ceb8943,Mo-Su 08:00-22:00,Western Union,Q861042
c3bfa752a23ae623de61f39b29dc6491,western_union,BANORTE 01508 GDL MORELOS,,Guadalajara,JALISCO,,MX,+52 800 833 4700,https://location.westernunion.com/mx/jalisco/guadalajara/c3bfa752a23ae623de61f39b29dc6491,Mo-Sa 09:00-17:00,Western Union,Q861042
beda146872a5469884dcf91b2afb5267,western_union,BANORTE 01508 GDL MORELOS,,Guadalajara,JALISCO,,MX,+52 800 833 4700,https://location.westernunion.com/mx/jalisco/guadalajara/beda146872a5469884dcf91b2afb5267,Mo-Sa 09:00-17:00,Western Union,Q861042
3d5e628a6ade6cf0cf858d7ec7e06649,western_union,BANCOPPEL 822 SANTA MONICA,,Guadalajara,JALISCO,,MX,+52 595 952 9744,https://location.westernunion.com/mx/jalisco/guadalajara/3d5e628a6ade6cf0cf858d7ec7e06649,Mo-Sa 10:00-20:00; Su 10:00-18:00,Western Union,Q861042
c76d944ff75a69caefb25fc8018f3144,western_union,BANCOPPEL 822 SANTA MONICA,,Guadalajara,JALISCO,,MX,+52 595 952 9744,https://location.westernunion.com/mx/jalisco/guadalajara/c76d944ff75a69caefb25fc8018f3144,Mo-Sa 10:00-20:00; Su 10:00-18:00,Western Union,Q861042
4210ac208e8048391b0a5934bcbac584,western_union,BANCOPPEL 822 SANTA MONICA,,Guadalajara,JALISCO,,MX,+52 595 952 9744,https://location.westernunion.com/mx/jalisco/guadalajara/4210ac208e8048391b0a5934bcbac584,Mo-Sa 10:00-20:00; Su 10:00-18:00,Western Union,Q861042
9b83f4bf5c5b22ffe0ac4dd0496e7f31,western_union,OXXO ANDADOR ZARAGOZA GDL,,Guadalajara,JALISCO,,MX,+52 81 8389 2121,https://location.westernunion.com/mx/jalisco/guadalajara/9b83f4bf5c5b22ffe0ac4dd0496e7f31,Mo-Su 08:00-22:00,Western Union,Q861042
e675a88366d0da80722b143a9c6dbbdc,western_union,OXXO ANDADOR ZARAGOZA GDL,,Guadalajara,JALISCO,,MX,+52 81 8389 2121,https://location.westernunion.com/mx/jalisco/guadalajara/e675a88366d0da80722b143a9c6dbbdc,Mo-Su 08:00-22:00,Western Union,Q861042
665f58b438d0335671d6efb518c3ff5d,western_union,OXXO ANDADOR ZARAGOZA GDL,,Guadalajara,JALISCO,,MX,+52 81 8389 2121,https://location.westernunion.com/mx/jalisco/guadalajara/665f58b438d0335671d6efb518c3ff5d,Mo-Su 08:00-22:00,Western Union,Q861042
e3644b2abb2467326e63fdb9368d4a11,western_union,WALDOS GUADALAJARA 9 4205,,Guadalajara,JALISCO,,MX,+52 55 5246 0700,https://location.westernunion.com/mx/jalisco/guadalajara/e3644b2abb2467326e63fdb9368d4a11,Mo-Su 06:30-23:30,Western Union,Q861042
305111cf1577b6cc7b8ef4f73b576b05,western_union,OXXO OCAMPO GDL,,Guadalajara,JALISCO,,MX,+52 81 8389 2121,https://location.westernunion.com/mx/jalisco/guadalajara/305111cf1577b6cc7b8ef4f73b576b05,Mo-Su 08:00-22:00,Western Union,Q861042
8a476178b672c3409dbcfd492917825c,western_union,OXXO OCAMPO GDL,,Guadalajara,JALISCO,,MX,+52 81 8389 2121,https://location.westernunion.com/mx/jalisco/guadalajara/8a476178b672c3409dbcfd492917825c,Mo-Su 08:00-22:00,Western Union,Q861042
3299858d7913bb6ec467b5f0dd5fe038,western_union,OXXO OCAMPO GDL,,Guadalajara,JALISCO,,MX,+52 81 8389 2121,https://location.westernunion.com/mx/jalisco/guadalajara/3299858d7913bb6ec467b5f0dd5fe038,Mo-Su 08:00-22:00,Western Union,Q861042
8bb855cbff025301aae0845cc9deda2b,western_union,FARM GUAD LOPEZ COTILLA,,Guadalajara,JALISCO,,MX,+52 800 833 4700,https://location.westernunion.com/mx/jalisco/guadalajara/8bb855cbff025301aae0845cc9deda2b,Mo-Su 08:00-20:00,Western Union,Q861042
4600e4d77afb10c7ae9546d0bff70a37,western_union,FARM GUAD LOPEZ COTILLA,,Guadalajara,JALISCO,,MX,+52 800 833 4700,https://location.westernunion.com/mx/jalisco/guadalajara/4600e4d77afb10c7ae9546d0bff70a37,Mo-Su 08:00-20:00,Western Union,Q861042
9fc692177bd442c653ca01584760be2d,western_union,FARM GUAD LOPEZ COTILLA,,Guadalajara,JALISCO,,MX,+52 800 833 4700,https://location.westernunion.com/mx/jalisco/guadalajara/9fc692177bd442c653ca01584760be2d,Mo-Su 08:00-20:00,Western Union,Q861042
562de8c762b278b3e99bf87955e01f72,western_union,OXXO CLINICA 1 GDL,,Guadalajara,JALISCO,,MX,+52 81 8389 2121,https://location.westernunion.com/mx/jalisco/guadalajara/562de8c762b278b3e99bf87955e01f72,Mo-Su 08:00-22:00,Western Union,Q861042
95a8d01ef9a78d8e2f8c528a6c38a467,western_union,OXXO CLINICA 1 GDL,,Guadalajara,JALISCO,,MX,+52 81 8389 2121,https://location.westernunion.com/mx/jalisco/guadalajara/95a8d01ef9a78d8e2f8c528a6c38a467,Mo-Su 08:00-22:00,Western Union,Q861042
a638791a4c8d373943c706dd3230f243,western_union,OXXO CLINICA 1 GDL,,Guadalajara,JALISCO,,MX,+52 81 8389 2121,https://location.westernunion.com/mx/jalisco/guadalajara/a638791a4c8d373943c706dd3230f243,Mo-Su 08:00-22:00,Western Union,Q861042
3c43b489431d0ee68605eaed01be3752,western_union,7ELEVEN GONZALEZ ORTEGA 967,,Guadalajara,JALISCO,,MX,+52 800 833 4700,https://location.westernunion.com/mx/jalisco/guadalajara/3c43b489431d0ee68605eaed01be3752,Mo-Su 06:00-22:00,Western Union,Q861042
d2f57c35d3340aeb2210449db884e097,western_union,OXXO BARCENAS GDL,,Guadalajara,JALISCO,,MX,+52 81 8389 2121,https://location.westernunion.com/mx/jalisco/guadalajara/d2f57c35d3340aeb2210449db884e097,Mo-Su 08:00-22:00,Western Union,Q861042
3d3c5e69a1dbb6fbba3403383666b860,western_union,OXXO PREPA 1 GDL,,Guadalajara,JALISCO,,MX,+52 81 8389 2121,https://location.westernunion.com/mx/jalisco/guadalajara/3d3c5e69a1dbb6fbba3403383666b860,Mo-Su 08:00-22:00,Western Union,Q861042
5eabd5007f2c65b43ec56405d4fb9dd3,western_union,OXXO PREPA 1 GDL,,Guadalajara,JALISCO,,MX,+52 81 8389 2121,https://location.westernunion.com/mx/jalisco/guadalajara/5eabd5007f2c65b43ec56405d4fb9dd3,Mo-Su 08:00-22:00,Western Union,Q861042
432bfe544b55373a9b75f927deeb78c6,western_union,7ELEVEN JUAN MANUEL 947,,Guadalajara,JALISCO,,MX,+52 800 833 4700,https://location.westernunion.com/mx/jalisco/guadalajara/432bfe544b55373a9b75f927deeb78c6,Mo-Su 06:00-22:00,Western Union,Q861042
b898fe363365233cb276abf14d173a91,western_union,7ELEVEN JUAN MANUEL 947,,Guadalajara,JALISCO,,MX,+52 800 833 4700,https://location.westernunion.com/mx/jalisco/guadalajara/b898fe363365233cb276abf14d173a91,Mo-Su 06:00-22:00,Western Union,Q861042
a41c22bf04bd1b8781cdfb2fa48418f8,western_union,7ELEVEN JUAN MANUEL 947,,Guadalajara,JALISCO,,MX,+52 800 833 4700,https://location.westernunion.com/mx/jalisco/guadalajara/a41c22bf04bd1b8781cdfb2fa48418f8,Mo-Su 06:00-22:00,Western Union,Q861042
d103da349a52e0733830da76326704cc,western_union,7ELEVEN GONZALEZ ORTEGA 967,,Guadalajara,JALISCO,,MX,+52 800 833 4700,https://location.westernunion.com/mx/jalisco/guadalajara/d103da349a52e0733830da76326704cc,Mo-Su 06:00-22:00,Western Union,Q861042
a57166993de7cb3e4fdc147417dcbcc7,western_union,7ELEVEN GONZALEZ ORTEGA 967,,Guadalajara,JALISCO,,MX,+52 800 833 4700,https://location.westernunion.com/mx/jalisco/guadalajara/a57166993de7cb3e4fdc147417dcbcc7,Mo-Su 06:00-22:00,Western Union,Q861042
e79bd415b10cda72cb7559f3093e5c62,western_union,OXXO PAVO GDL,,Guadalajara,JALISCO,,MX,+52 81 8389 2121,https://location.westernunion.com/mx/jalisco/guadalajara/e79bd415b10cda72cb7559f3093e5c62,Mo-Su 08:00-22:00,Western Union,Q861042
20a01d5fa6da45a0f77c4208daff0ab1,western_union,OXXO PAVO GDL,,Guadalajara,JALISCO,,MX,+52 81 8389 2121,https://location.westernunion.com/mx/jalisco/guadalajara/20a01d5fa6da45a0f77c4208daff0ab1,Mo-Su 08:00-22:00,Western Union,Q861042
9d4f6f45ee4234e8f84cc245327ca806,western_union,SORIANA JUAREZ 324,,Guadalajara,JALISCO,,MX,(+52) 81-1112009,https://location.westernunion.com/mx/jalisco/guadalajara/9d4f6f45ee4234e8f84cc245327ca806,Mo-Su 08:00-23:00,Western Union,Q861042
a3cc1aee5f1c48b4439507e05d69cb2e,western_union,OXXO AZULEJERA GDL,,Guadalajara,JALISCO,,MX,+52 81 8389 2121,https://location.westernunion.com/mx/jalisco/guadalajara/a3cc1aee5f1c48b4439507e05d69cb2e,Mo-Su 08:00-22:00,Western Union,Q861042
ed99db9fccae1892c5cce92d5cbb0663,western_union,OXXO AZULEJERA GDL,,Guadalajara,JALISCO,,MX,+52 81 8389 2121,https://location.westernunion.com/mx/jalisco/guadalajara/ed99db9fccae1892c5cce92d5cbb0663,Mo-Su 08:00-22:00,Western Union,Q861042
e70139e4604a37c77321cd91c410da55,western_union,OXXO AZULEJERA GDL,,Guadalajara,JALISCO,,MX,+52 81 8389 2121,https://location.westernunion.com/mx/jalisco/guadalajara/e70139e4604a37c77321cd91c410da55,Mo-Su 08:00-22:00,Western Union,Q861042
00a1a6e63e8864830859eab80838b7ca,western_union,7ELEVEN FEDERALISMO 306,,Guadalajara,JALISCO,,MX,+52 800 833 4700,https://location.westernunion.com/mx/jalisco/guadalajara/00a1a6e63e8864830859eab80838b7ca,Mo-Su 06:00-22:00,Western Union,Q861042
e3883422c6b871dd42856d27f6bc8606,western_union,7ELEVEN FEDERALISMO 306,,Guadalajara,JALISCO,,MX,+52 800 833 4700,https://location.westernunion.com/mx/jalisco/guadalajara/e3883422c6b871dd42856d27f6bc8606,Mo-Su 06:00-22:00,Western Union,Q861042
c589bd1b72c2490a0f270f169411de96,western_union,7ELEVEN FEDERALISMO 306,,Guadalajara,JALISCO,,MX,+52 800 833 4700,https://location.westernunion.com/mx/jalisco/guadalajara/c589bd1b72c2490a0f270f169411de96,Mo-Su 06:00-22:00,Western Union,Q861042
ca8418616e07fff689a121bb0942643f,western_union,OXXO MEXICALTZINGO GDL,,Guadalajara,JALISCO,,MX,+52 81 8389 2121,https://location.westernunion.com/mx/jalisco/guadalajara/ca8418616e07fff689a121bb0942643f,Mo-Su 08:00-22:00,Western Union,Q861042
1a00709201e3f604fb9c3da59bf8d846,western_union,OXXO MEXICALTZINGO GDL,,Guadalajara,JALISCO,,MX,+52 81 8389 2121,https://location.westernunion.com/mx/jalisco/guadalajara/1a00709201e3f604fb9c3da59bf8d846,Mo-Su 08:00-22:00,Western Union,Q861042
a2f7cc2a30c1af166afbfcbd2ddbe1fc,western_union,OXXO MEXICALTZINGO GDL,,Guadalajara,JALISCO,,MX,+52 81 8389 2121,https://location.westernunion.com/mx/jalisco/guadalajara/a2f7cc2a30c1af166afbfcbd2ddbe1fc,Mo-Su 08:00-22:00,Western Union,Q861042
ae2a8a5fa24c067cbb16f6ed25b42513,western_union,OXXO PEDRO MORENO GDL,,Guadalajara,JALISCO,,MX,+52 81 8389 2121,https://location.westernunion.com/mx/jalisco/guadalajara/ae2a8a5fa24c067cbb16f6ed25b42513,Mo-Su 08:00-22:00,Western Union,Q861042
4b275d6c4875818b3c78ba4a6db83eb3,western_union,OXXO PEDRO MORENO GDL,,Guadalajara,JALISCO,,MX,+52 81 8389 2121,https://location.westernunion.com/mx/jalisco/guadalajara/4b275d6c4875818b3c78ba4a6db83eb3,Mo-Su 08:00-22:00,Western Union,Q861042
7d47990ab167ea61c012e9908f0dbfdc,western_union,OXXO PEDRO MORENO GDL,,Guadalajara,JALISCO,,MX,+52 81 8389 2121,https://location.westernunion.com/mx/jalisco/guadalajara/7d47990ab167ea61c012e9908f0dbfdc,Mo-Su 08:00-22:00,Western Union,Q861042
81277adf42ea8008b72256e95a04e14d,western_union,OXXO FEDERALISMO GDL,,Guadalajara,JALISCO,,MX,+52 81 8389 2121,https://location.westernunion.com/mx/jalisco/guadalajara/81277adf42ea8008b72256e95a04e14d,Mo-Su 08:00-22:00,Western Union,Q861042
e5ac3d0cbc041c29c0416d01b96ca838,western_union,OXXO FEDERALISMO GDL,,Guadalajara,JALISCO,,MX,+52 81 8389 2121,https://location.westernunion.com/mx/jalisco/guadalajara/e5ac3d0cbc041c29c0416d01b96ca838,Mo-Su 08:00-22:00,Western Union,Q861042
edb0bee5a73aae40ac2d78725f37ad1f,western_union,OXXO FEDERALISMO GDL,,Guadalajara,JALISCO,,MX,+52 81 8389 2121,https://location.westernunion.com/mx/jalisco/guadalajara/edb0bee5a73aae40ac2d78725f37ad1f,Mo-Su 08:00-22:00,Western Union,Q861042
8ef8ceaa8e11360a091b8b6fe47c221e,western_union,OXXO BARCENAS GDL,,Guadalajara,JALISCO,,MX,+52 81 8389 2121,https://location.westernunion.com/mx/jalisco/guadalajara/8ef8ceaa8e11360a091b8b6fe47c221e,Mo-Su 08:00-22:00,Western Union,Q861042
71b7e3629fae9f5b0eb64fb632678676,western_union,OXXO PAVO GDL,,Guadalajara,JALISCO,,MX,+52 81 8389 2121,https://location.westernunion.com/mx/jalisco/guadalajara/71b7e3629fae9f5b0eb64fb632678676,Mo-Su 08:00-22:00,Western Union,Q861042
b8a71a82c78fadb84050725385eaa028,western_union,7ELEVEN FEDERALISMO Y MORELOS 1285,,Guadalajara,JALISCO,,MX,+52 800 833 4700,https://location.westernunion.com/mx/jalisco/guadalajara/b8a71a82c78fadb84050725385eaa028,Mo-Su 06:00-22:00,Western Union,Q861042
a4fa583eb30ed8bd96897cd9e425d804,western_union,7ELEVEN FEDERALISMO Y MORELOS 1285,,Guadalajara,JALISCO,,MX,+52 800 833 4700,https://location.westernunion.com/mx/jalisco/guadalajara/a4fa583eb30ed8bd96897cd9e425d804,Mo-Su 06:00-22:00,Western Union,Q861042
131829548e2650cf2b22fe041e574f5f,western_union,7ELEVEN FEDERALISMO Y MORELOS 1285,,Guadalajara,JALISCO,,MX,+52 800 833 4700,https://location.westernunion.com/mx/jalisco/guadalajara/131829548e2650cf2b22fe041e574f5f,Mo-Su 06:00-22:00,Western Union,Q861042
5a6d92e7dd277abdbc360f403cfd6b6a,western_union,OXXO FEDERALISMO HIDALGO GDL,,Guadalajara,JALISCO,,MX,+52 81 8389 2121,https://location.westernunion.com/mx/jalisco/guadalajara/5a6d92e7dd277abdbc360f403cfd6b6a,Mo-Su 06:00-22:00,Western Union,Q861042
0d8887368f245d6eed2ae1665086cd9a,western_union,OXXO EST JUAREZ GDL,,Guadalajara,JALISCO,,MX,+52 81 8389 2121,https://location.westernunion.com/mx/jalisco/guadalajara/0d8887368f245d6eed2ae1665086cd9a,Mo-Su 08:00-22:00,Western Union,Q861042
32db96f8817e46af4b130d4ead93cea8,western_union,OXXO EST JUAREZ GDL,,Guadalajara,JALISCO,,MX,+52 81 8389 2121,https://location.westernunion.com/mx/jalisco/guadalajara/32db96f8817e46af4b130d4ead93cea8,Mo-Su 08:00-22:00,Western Union,Q861042
f0177d34f824ac029a7335f30df6e07f,western_union,ELECZION GUADALAJARA 4 1116,,Guadalajara,JALISCO,,MX,+52 55 5246 0700,https://location.westernunion.com/mx/jalisco/guadalajara/f0177d34f824ac029a7335f30df6e07f,Mo-Su 06:30-23:30,Western Union,Q861042
c8d03ee5a5e5111dd1a5355665c94271,western_union,ELECZION GUADALAJARA 4 1116,,Guadalajara,JALISCO,,MX,+52 55 5246 0700,https://location.westernunion.com/mx/jalisco/guadalajara/c8d03ee5a5e5111dd1a5355665c94271,Mo-Su 06:30-23:30,Western Union,Q861042
10b1407e78e52e62816c11c9cd79646c,western_union,ELECZION GUADALAJARA 7 1188,,Guadalajara,JALISCO,,MX,+52 55 5246 0700,https://location.westernunion.com/mx/jalisco/guadalajara/10b1407e78e52e62816c11c9cd79646c,Mo-Su 06:30-23:30,Western Union,Q861042
60c3a0925d0dbe0e6a6241efc5eeadfc,western_union,ELECZION GUADALAJARA 8 1219,,Guadalajara,JALISCO,,MX,+52 55 5246 0700,https://location.westernunion.com/mx/jalisco/guadalajara/60c3a0925d0dbe0e6a6241efc5eeadfc,Mo-Su 06:30-23:30,Western Union,Q861042
fd98f89a8cc138bd1c7bfbac698a0618,western_union,WALDOS GUADALAJARA 9 4205,,Guadalajara,JALISCO,,MX,+52 55 5246 0700,https://location.westernunion.com/mx/jalisco/guadalajara/fd98f89a8cc138bd1c7bfbac698a0618,Mo-Su 06:30-23:30,Western Union,Q861042
f63b0bdb10807255b255167155269224,western_union,ELECZION GUADALAJARA 3 1105,,Guadalajara,JALISCO,,MX,+52 55 5246 0700,https://location.westernunion.com/mx/jalisco/guadalajara/f63b0bdb10807255b255167155269224,Mo-Su 06:30-23:30,Western Union,Q861042
8ba0732b2f9116d4701b4fe799c5c256,western_union,WALDOS GUADALAJARA 9 4205,,Guadalajara,JALISCO,,MX,+52 55 5246 0700,https://location.westernunion.com/mx/jalisco/guadalajara/8ba0732b2f9116d4701b4fe799c5c256,Mo-Su 06:30-23:30,Western Union,Q861042
a8e4626d4493fc8d1401ae7b72ff5de7,western_union,ELECZION GUADALAJARA 3 1105,,Guadalajara,JALISCO,,MX,+52 55 5246 0700,https://location.westernunion.com/mx/jalisco/guadalajara/a8e4626d4493fc8d1401ae7b72ff5de7,Mo-Su 06:30-23:30,Western Union,Q861042
1009e7cb4be2b09e5e9cac68f40ac2fc,western_union,OXXO PLAZA EXPIATORIO GDL,,Guadalajara,JALISCO,,MX,+52 81 8389 2121,https://location.westernunion.com/mx/jalisco/guadalajara/1009e7cb4be2b09e5e9cac68f40ac2fc,Mo-Su 08:00-22:00,Western Union,Q861042
aa89e3c549d5c3e09ffc621cbfd4e114,western_union,OXXO PLAZA EXPIATORIO GDL,,Guadalajara,JALISCO,,MX,+52 81 8389 2121,https://location.westernunion.com/mx/jalisco/guadalajara/aa89e3c549d5c3e09ffc621cbfd4e114,Mo-Su 08:00-22:00,Western Union,Q861042
4e07882fe758c3f12f55b31130f824b5,western_union,OXXO PLAZA EXPIATORIO GDL,,Guadalajara,JALISCO,,MX,+52 81 8389 2121,https://location.westernunion.com/mx/jalisco/guadalajara/4e07882fe758c3f12f55b31130f824b5,Mo-Su 08:00-22:00,Western Union,Q861042
c5510834d6a8841ab747535d7342d840,western_union,OXXO ESCORZA GDL,,Guadalajara,JALISCO,,MX,+52 81 8389 2121,https://location.westernunion.com/mx/jalisco/guadalajara/c5510834d6a8841ab747535d7342d840,Mo-Su 08:00-22:00,Western Union,Q861042
b7e22f2b0029bc4f042093b3b299d595,western_union,OXXO ESCORZA GDL,,Guadalajara,JALISCO,,MX,+52 81 8389 2121,https://location.westernunion.com/mx/jalisco/guadalajara/b7e22f2b0029bc4f042093b3b299d595,Mo-Su 08:00-22:00,Western Union,Q861042
f1d6f09cf41451c12a9ce8026d154d77,western_union,OXXO ESCORZA GDL,,Guadalajara,JALISCO,,MX,+52 81 8389 2121,https://location.westernunion.com/mx/jalisco/guadalajara/f1d6f09cf41451c12a9ce8026d154d77,Mo-Su 08:00-22:00,Western Union,Q861042
bd075cba6e3f2e83cc4ef3aaf8208694,western_union,OXXO PARQUE ROJO GDL,,Guadalajara,JALISCO,,MX,+52 81 8389 2121,https://location.westernunion.com/mx/jalisco/guadalajara/bd075cba6e3f2e83cc4ef3aaf8208694,Mo-Su 08:00-22:00,Western Union,Q861042
e2575bae0d00b7b95f7fe860fb5cf42f,western_union,OXXO PARQUE ROJO GDL,,Guadalajara,JALISCO,,MX,+52 81 8389 2121,https://location.westernunion.com/mx/jalisco/guadalajara/e2575bae0d00b7b95f7fe860fb5cf42f,Mo-Su 08:00-22:00,Western Union,Q861042
c450be6efa0048a09ee8010c033cc4c3,western_union,BANORTE 00166 GDL ZONA INDUSTRIAL,,Guadalajara,JALISCO,,MX,+52 800 833 4700,https://location.westernunion.com/mx/jalisco/guadalajara/c450be6efa0048a09ee8010c033cc4c3,Mo-Su 09:00-20:00,Western Union,Q861042
350d62122ec4451cbfe242d1a46f9cc0,western_union,OXXO HOSPITAL AYALA GDL,,Guadalajara,JALISCO,,MX,+52 81 8389 2121,https://location.westernunion.com/mx/jalisco/guadalajara/350d62122ec4451cbfe242d1a46f9cc0,Mo-Su 06:00-22:00,Western Union,Q861042
883002c7deb6480d4ce76c3c3d6be84b,western_union,OXXO HOSPITAL AYALA GDL,,Guadalajara,JALISCO,,MX,+52 81 8389 2121,https://location.westernunion.com/mx/jalisco/guadalajara/883002c7deb6480d4ce76c3c3d6be84b,Mo-Su 06:00-22:00,Western Union,Q861042
a24c9d6207050f441505a897cc7e2406,western_union,OXXO HOSPITAL AYALA GDL,,Guadalajara,JALISCO,,MX,+52 81 8389 2121,https://location.westernunion.com/mx/jalisco/guadalajara/a24c9d6207050f441505a897cc7e2406,Mo-Su 06:00-22:00,Western Union,Q861042
f3e6abd3f5773c517b8fbaafdf996c5d,western_union,OXXO MARSELLA GDL,,Guadalajara,JALISCO,,MX,+52 81 8389 2121,https://location.westernunion.com/mx/jalisco/guadalajara/f3e6abd3f5773c517b8fbaafdf996c5d,Mo-Su 08:00-22:00,Western Union,Q861042
b0a96aa13ae0cf5490c4f3e07d95d023,western_union,OXXO MARSELLA GDL,,Guadalajara,JALISCO,,MX,+52 81 8389 2121,https://location.westernunion.com/mx/jalisco/guadalajara/b0a96aa13ae0cf5490c4f3e07d95d023,Mo-Su 08:00-22:00,Western Union,Q861042
72ed2288ffe908e80fcd408c24370cb1,western_union,OXXO MARSELLA GDL,,Guadalajara,JALISCO,,MX,+52 81 8389 2121,https://location.westernunion.com/mx/jalisco/guadalajara/72ed2288ffe908e80fcd408c24370cb1,Mo-Su 08:00-22:00,Western Union,Q861042
ec26465202e047656f7d8e5f602739d0,western_union,MUEBLES AMERICA 10 AP CASH,,Zapopan,JALISCO,,MX,+52 33 1199 4912,https://location.westernunion.com/mx/jalisco/zapopan/ec26465202e047656f7d8e5f602739d0,Mo-Su 09:30-20:30,Western Union,Q861042
0729359ea59b4f35be7ae1fc35e0d858,western_union,MUEBLES AMERICA 10 AP CASH,,Zapopan,JALISCO,,MX,+52 33 1199 4912,https://location.westernunion.com/mx/jalisco/zapopan/0729359ea59b4f35be7ae1fc35e0d858,Mo-Su 09:30-20:30,Western Union,Q861042
331e42391a48f1d24d1a258e8a6af625,western_union,MUEBLES AMERICA 10 AP CASH,,Zapopan,JALISCO,,MX,+52 33 1199 4912,https://location.westernunion.com/mx/jalisco/zapopan/331e42391a48f1d24d1a258e8a6af625,Mo-Su 09:30-20:30,Western Union,Q861042
9500353d1994595077eaa89e3cf601fd,western_union,SUBURBIA 520 GUADALAJARA CENTRO,,Guadalajara,JALISCO,,MX,+52 800 733 3300,https://location.westernunion.com/mx/jalisco/guadalajara/9500353d1994595077eaa89e3cf601fd,Mo-Su 11:00-21:00,Western Union,Q861042
183b1bbc630f6a47224509b0774e6e50,western_union,SUBURBIA 520 GUADALAJARA CENTRO,,Guadalajara,JALISCO,,MX,+52 800 733 3300,https://location.westernunion.com/mx/jalisco/guadalajara/183b1bbc630f6a47224509b0774e6e50,Mo-Su 11:00-21:00,Western Union,Q861042
d7f2f6188c842b255a13fbe472632954,western_union,OXXO ANGULO GDL,,Guadalajara,JALISCO,,MX,+52 81 8389 2121,https://location.westernunion.com/mx/jalisco/guadalajara/d7f2f6188c842b255a13fbe472632954,Mo-Su 08:00-22:00,Western Union,Q861042
3de142cdea3a4c61271062df262326ae,western_union,OXXO ANGULO GDL,,Guadalajara,JALISCO,,MX,+52 81 8389 2121,https://location.westernunion.com/mx/jalisco/guadalajara/3de142cdea3a4c61271062df262326ae,Mo-Su 08:00-22:00,Western Union,Q861042
696c3b01af724105c6c3fa7d59e48b9d,western_union,OXXO ANGULO GDL,,Guadalajara,JALISCO,,MX,+52 81 8389 2121,https://location.westernunion.com/mx/jalisco/guadalajara/696c3b01af724105c6c3fa7d59e48b9d,Mo-Su 08:00-22:00,Western Union,Q861042
ca04293212afd454d0a8070a59567303,western_union,CAJA POPULAR JOSE MA MERCADO GUADALAJARA,,Guadalajara,JALISCO,,MX,+52 33 3638 8977,https://location.westernunion.com/mx/jalisco/guadalajara/ca04293212afd454d0a8070a59567303,Mo-Su 09:00-19:30,Western Union,Q861042
