Ref,Spider,Name,Address,City,State,Zipcode,Country,Phone,Website,Hours,Brand,WikiData
https://local.acmemarkets.com/#5603065,albertsons,ACME Markets,,Wayne,PA,,US,+1 610-341-6073,https://local.acmemarkets.com/pa/wayne/700-w-lancaster-ave.html,"Mo-Fr 07:00-23:00,09:00-20:00; Sa 07:00-23:00,09:00-17:00; Su 07:00-23:00,09:00-16:00",ACME Markets,Q341975
https://local.pharmacy.acmemarkets.com/#5672407,albertsons,ACME Markets Pharmacy,,Wayne,PA,,US,+1 610-341-0951,https://local.pharmacy.acmemarkets.com/pa/wayne/700-w-lancaster-ave.html,Mo-Fr 09:00-20:00; Sa 09:00-17:00; Su 09:00-16:00,ACME Markets,Q341975
1339,anthonys,"Wayne, PA","321 East Lancaster Avenue, Wayne, PA 19087",Wayne,PA,,US,+1 484-580-8022,https://acfp.com/locations/wayne-pa,,Anthony's Coal Fired Pizza,Q117536208
https://locators.bankofamerica.com/pa/wayne/financial-centers-wayne-15913.html,bankofamerica,Bank of America Financial Center & Drive-Thru ATM | Wayne,,Wayne,PA,,US,+1 610-688-6791,https://locators.bankofamerica.com/pa/wayne/financial-centers-wayne-15913.html,Mo-Fr 10:00-16:00,Bank of America,Q487907
https://locators.bankofamerica.com/pa/wayne/financial-centers-wayne-15852.html,bankofamerica,Bank of America Financial Center & Drive-Thru ATM | Strafford,,Wayne,PA,,US,+1 610-687-1145,https://locators.bankofamerica.com/pa/wayne/financial-centers-wayne-15852.html,Mo-Fr 10:00-16:00,Bank of America,Q487907
74624,bluerhino,Gateway Mobil,,Wayne,PA,,US,+1 610-687-4235,,,Blue Rhino,Q65681213
127156,bluerhino,Strafford Sunoco,,Strafford,PA,,US,+1 610-688-8838,,,Blue Rhino,Q65681213
PA128-M1-SR1,california_closets_us,California Closets - Wayne,,Wayne,PA,,US,+1 610-337-3377,https://www.locations.californiaclosets.com/california-closets-wayne-c9fe6379d04d,Mo-Fr 11:00-17:30; Sa 11:00-15:00,California Closets,Q5020325
18950803,chase_us,Devon Square - New branch,,Wayne,PA,,US,+1 610-386-3265,https://locator.chase.com/pa/wayne/708-lancaster-ave,Mo-Fr 09:00-17:00; Sa 09:00-13:00,Chase,Q524629
pa_wayne_323-e-lancaster-ave,chipotle, ,,Wayne,PA,,US,+1 484-367-0057,https://locations.chipotle.com/pa/wayne/323-e-lancaster-ave,,Chipotle,Q465751
pa_wayne_239-e-swedesford-rd,chipotle, ,,Wayne,PA,,US,+1 610-688-0639,https://locations.chipotle.com/pa/wayne/239-e-swedesford-rd,,Chipotle,Q465751
060529,citizens_us,Citizens Wayne,,Wayne,PA,,US,+1 610-688-5454,,Mo-Fr 09:00-16:00; Sa 09:00-12:00,Citizens,Q5122694
ATM-2201,citizens_us,,,Saint Davids,PA,,US,,,,Citizens,Q5122694
ATM-2162,citizens_us,,,Wayne,PA,,US,,,,Citizens,Q5122694
ATM-1118,citizens_us,,,Chesterbrook,PA,,US,,,,Citizens,Q5122694
ATM-607,citizens_us,,,Wayne,PA,,US,+1 610-688-5454,,24/7,Citizens,Q5122694
,credit_union_us,Ardent Credit Union,,Strafford,PA,,US,+1 215-569-3700,,Mo-We 09:00-05:00; Th-Fr 09:00-06:00; Sa 09:00-02:00,,
,credit_union_us,TruMark Financial CU,,Wayne,PA,,US,+1 610-688-9119,,Mo-Fr 08:30-05:00; Sa 09:00-01:00,,
370,cvs_us,CVS Pharmacy,,Wayne,PA,,US,+1 610-688-8852,https://www.cvs.com/store-locator/wayne-pa-pharmacies/316-east-lancaster-avenue-wayne-pa-19087/storeid=370,Mo-Su 07:00-22:00,CVS Pharmacy,Q2078880
10896,cvs_us,CVS Pharmacy,,Wayne,PA,,US,+1 610-688-8583,https://www.cvs.com/store-locator/wayne-pa-pharmacies/629-west-lancaster-ave-wayne-pa-19087/storeid=10896,Mo-Su 08:00-22:00,CVS Pharmacy,Q2078880
4806,dominos_pizza_us,Domino's Pizza,,Wayne,PA,,US,+1 610-293-0980,https://pizza.dominos.com/pennsylvania/wayne/128-w-lancaster-ave,Mo-Th 10:30-24:00; Fr-Sa 10:30-01:00; Su 10:30-24:00,Domino's,Q839466
351048,dunkin_us,Dunkin',,Wayne,PA,,US,+1 484-580-6264,https://locations.dunkindonuts.com/en/pa/wayne/110-e-lancaster-ave/351048,Mo-Su 05:30-19:00,Dunkin',Q847743
https://www.edwardjones.com/us-en/financial-advisor/jake-szulinski,edwardjones,Jake Szulinski,,Wayne,PA,,US,+1 484-580-8567,https://www.edwardjones.com/us-en/financial-advisor/jake-szulinski,Mo 08:00-21:00; Tu-Fr 08:00-17:00,Edward Jones,Q5343830
E11765,enterprise,Wayne,,Wayne,PA,,US,+1 610-989-9924,,,Enterprise Rent-A-Car,Q17085454
0398,european_wax_center_us,European Wax Center,,Wayne,PA,,US,+1 610-688-8200,https://locations.waxcenter.com/pa/wayne/wayne-gateway-0398.html,Mo-Fr 09:00-20:00; Sa 08:00-18:00; Su 10:00-18:00,European Wax Center,Q5413426
200318145,exxonmobil,DELANOY ENTERPRISES,,WAYNE,PA,,US,+1 610-687-4235,https://www.exxon.com/en/find-station/mobil-wayne-pa-delanoyenterprises-200318145,Mo-Fr 06:00-22:00; Sa-Su 07:00-22:00,Mobil,Q109676002
https://locations.fivebelow.com/pa/wayne/309-lancaster-ave,five_below,Five Below Wayne Square,,Wayne,PA,,US,,https://locations.fivebelow.com/pa/wayne/309-lancaster-ave,Mo-Sa 10:00-20:00; Su 11:00-18:00,Five Below,Q5455836
https://locations.fivebelow.com/pa/wayne/147-e-swedesford-road,five_below,Five Below Gateway Shopping Center,,Wayne,PA,,US,,https://locations.fivebelow.com/pa/wayne/147-e-swedesford-road,Mo-Sa 10:00-20:00; Su 11:00-18:00,Five Below,Q5455836
https://restaurants.fiveguys.com/#15553665,five_guys_us,Five Guys Gateway Shopping Center (Swedesford Rd),,Wayne,PA,,US,+1 610-964-0214,https://restaurants.fiveguys.com/253-e-swedesford-rd,"Mo-Su 11:00-21:30,11:00-22:00",Five Guys,Q1131810
#6507,giantfoodstores,GIANT Saint Davids,,Saint Davids,PA,,US,+1 610-989-0781,https://stores.giantfoodstores.com/pa/saint-davids/550-e-lancaster-ave,Mo-Su 06:00-22:00,Giant,Q5558332
https://salons.greatclips.com/us/pa/wayne/219-e-swedesford-rd,greatclips,Great Clips,,Wayne,PA,,US,+1 610-254-8404,https://salons.greatclips.com/us/pa/wayne/219-e-swedesford-rd,Mo-Fr 10:00-19:00; Sa 09:00-18:00; Su 10:00-16:00,Great Clips,Q5598967
3875,gulf_pr_us,STRAFFORD AUTO CENTER,,Wayne,PA,,US,+1 610-688-8838,https://www.gulfoil.com/strafford-auto-center,,Gulf Oil,Q5617505
https://locations.us.homesense.com/#2931,homesense,Homesense,,Radnor,PA,,US,+1 631-727-5281,https://locations.us.homesense.com//pa/radnor,Mo-Sa 09:30-21:30; Su 10:00-20:00,HomeSense,Q16844433
L2NvbnRlbnQvZGFtL2psbC1jb20vbW9kZWxzL2xvY2F0aW9ucy9lbi9iZXJ3eW4,jll,Wayne,,Philadelphia,PA,,US,+1 610-249-2255,https://www.us.jll.com/en/locations/northeast/philadelphia,,JLL,Q1703389
50,jmclaughlin_us,J. McLaughlin,,Wayne,PA,,US,+1 484-367-0204,https://www.jmclaughlin.com/store-details?store=US/PA/Wayne/503-W-Lancaster-Ave/Wayne,Mo-Sa 09:30-17:30; Su 11:00-16:00,J. McLaughlin,Q111230943
1185,joann_us,JOANN Fabric and Crafts,,Wayne,PA,,US,+1 610-688-1370,https://stores.joann.com/pa/wayne/1185/,Mo-Sa 09:00-20:00; Su 10:00-18:00,JOANN,Q6203968
PAKOP,life_time,King of Prussia,,Wayne,PA,,US,+1 484-254-7000,https://my.lifetime.life/clubs/pa/king-of-prussia.html,Mo-Fr 04:00-24:00; Sa-Su 05:00-22:00,Life Time,Q6545004
72426,lukoil,69711,"501 W Lancaster Ave, Strafford, PA, 19087",Strafford,PA,,US,,,Mo-Su 05:00-24:00,Lukoil,Q329347
PHLVA,marriott,Courtyard Philadelphia Valley Forge/King of Prussia,,Wayne,PA,,US,+1 610-687-6700,https://www.marriott.com/PHLVA,,Courtyard by Marriott,Q1053170
PHLDV,marriott,Courtyard Philadelphia Devon/Villanova,,Wayne,PA,,US,+1 610-687-6633,https://www.marriott.com/PHLDV,,Courtyard by Marriott,Q1053170
https://locations.massageenvy.com/#1773775,massage_envy,Massage Envy Wayne-PA,,Wayne,PA,,US,+1 484-584-4997,https://locations.massageenvy.com/pennsylvania/wayne/283-e-swedesford-road.html,Mo-Fr 09:00-20:00; Sa 09:00-18:00; Su 09:00-17:00,Massage Envy,Q10327170
17728,mattress_firm_us,Mattress Firm Swedesford Road,,Wayne,PA,,US,+1 610-687-1188,https://www.mattressfirm.com/en-us/stores/pa/wayne/168030/,,Mattress Firm,Q6791878
https://www.microcenter.com/site/stores/st-davids.aspx,micro_center,Micro Center - St. Davids,,St Davids,PA,,US,,https://www.microcenter.com/site/stores/st-davids.aspx,Mo-Sa 10:00-21:00; Su 11:00-18:00,Micro Center,Q6839153
https://locations.modpizza.com/#23557965,modpizza,MOD Pizza Gateway,,Wayne,PA,,US,+1 484-581-1235,https://locations.modpizza.com/usa/pa/wayne/289-e-swedesford-rd,Mo-Th 10:30-22:00; Fr-Sa 10:30-23:00; Su 10:30-22:00,MOD Pizza,Q19903469
https://locations.mtb.com/#25082513,mt_bank_us,M&T Bank,,,PA,,US,+1 610-687-8906,https://locations.mtb.com/pa/wayne/bank-branches-and-atms-wayne-pa-4127.html,Mo-Th 09:00-16:00; Fr 09:00-17:00,M&T Bank,Q3272257
2051,orangetheory_fitness,"Devon, PA",,Wayne,PA,,US,+1 610-572-4789,,,Orangetheory Fitness,Q25005163
422,pure_barre_us,Main Line,,Wayne,PA,,US,+1 484-588-2628,https://www.purebarre.com/location/main-line-pa,,Pure Barre,Q86707084
00995,rite_aid_us,Rite Aid #00995 Wayne,,Wayne,PA,,US,+1 610-293-1496,https://locations2.riteaid.com.yext-cdn.com/pa/wayne/237-east-lancaster-avenue.html,Mo-Fr 08:00-22:00; Sa 08:00-21:00; Su 09:00-21:00,Rite Aid,Q3433273
01144,rite_aid_us,Rite Aid #01144 Chesterbrook,,Chesterbrook,PA,,US,+1 610-647-4490,https://locations2.riteaid.com.yext-cdn.com/pa/chesterbrook/500-chesterbrook-blvd.html,Mo-Fr 08:00-22:00; Sa 08:00-21:00; Su 08:00-20:00,Rite Aid,Q3433273
40287,seven_eleven_ca_us,7-Eleven,,Wayne,PA,,US,+1 610-687-9964,https://www.7-eleven.com/locations/pa/wayne/1495-valley-forge-rd-40287,,7-Eleven,Q259340
40150,seven_eleven_ca_us,7-Eleven,,WAYNE,PA,,US,+1 610-688-2188,https://www.7-eleven.com/locations/pa/wayne/301-e-lancaster-ave.-40150,,7-Eleven,Q259340
https://smashburger.com/locations/#64506920,smashburger,Smashburger,,Radnor,PA,,US,+1 484-584-4926,https://smashburger.com/locations/us/pa/radnor/550-e-lancaster-ave,Mo-Th 11:00-21:00; Fr-Sa 11:00-22:00; Su 11:00-21:00,Smashburger,Q17061332
570,sola_salon_studios,Wayne - Devon Square,,Wayne,PA,,US,+1 267-627-8214,https://www.solasalonstudios.com/locations/wayne-devon-sq,,Sola Salon Studios,Q64337426
145-east-swedesford-rd,staples,"Staples Wayne, PA",,Wayne,PA,,US,,https://stores.staples.com/pa/wayne/145-east-swedesford-rd,Mo-Fr 08:00-21:00; Sa 10:00-19:00; Su 10:00-18:00,Staples,Q785943
0425760600,sunoco_us,Sunoco,,WAYNE,PA,,US,+1 610-688-2188,,,Sunoco,Q1423218
0367996600,sunoco_us,Sunoco,,WAYNE,PA,,US,+1 610-687-9964,,,Sunoco,Q1423218
0271111701,sunoco_us,Sunoco,,WAYNE,PA,,US,+1 610-688-4546,,Mo-Su 06:00-00:00,Sunoco,Q1423218
80417,supercuts,Devon Square Shopping Center,704 W Lancaster Ave,Wayne,PA,,US,+1 610-687-9800,https://www.supercuts.com/checkin/80417,Mo-Fr 09:00-19:00; Sa 09:00-18:00; Su 10:00-17:00,Supercuts,Q7643239
177,the_exercise_coach_us,The Exercise Coach,,Wayne,PA,,US,+1 484-580-6557,https://exercisecoach.com/wayne/,,The Exercise Coach,Q121502262
08189,tjx,Wayne,225 East Swedesford Road,Wayne,PA,,US,+1 610-995-2375,,Mo-Sa 09:30-21:30; Su 10:00-20:00,TJ Maxx,Q10860683
28447,tjx,St. Davids,550 E. Lancaster Ave,St. Davids,PA,,US,+1 610-293-8061,,Mo-Sa 09:30-21:30; Su 10:00-20:00,HomeGoods,Q5887941
08779,tjx,St. Davids,550 E. Lancaster Ave. ,St. Davids,PA,,US,+1 610-989-9545,,Mo-Sa 09:30-21:30; Su 10:00-20:00,TJ Maxx,Q10860683
5754,tmobile_us,E Swedesford Rd & Vly Forge Rd,,Wayne,PA,,US,+1 610-910-8072,https://www.t-mobile.com/store-locator/pa/wayne/e-swedesford-rd-vly-forge-rd,,T-Mobile,Q3511885
632,trader_joes_us,Trader Joe's Wayne (632),,Wayne,PA,,US,+1 610-225-0925,https://locations.traderjoes.com/pa/wayne/632/,Mo-Su 08:00-21:00,Trader Joe's,Q688825
https://www.trekbikes.com/us/en_US/retail/wayne/,trekbikes,Trek Bicycle Wayne,,Wayne,PA,,US,+1 610-687-1110,https://www.trekbikes.com/us/en_US/retail/wayne/,Tu-Sa 10:00-18:00; Su 12:00-17:00,Trek,Q1067617
https://www.asurion.com/repairs/tech/locations/kingofprussia,ubreakifix,uBreakiFix by Asurion - King Of Prussia,,Wayne,PA,,US,+1 484-580-6115,https://www.asurion.com/repairs/tech/locations/kingofprussia,Mo-Sa 10:00-19:00; Su 12:00-17:00,Asurion Tech Repair & Solutions,Q4811938
1386730,usps,WAYNE,,WAYNE,PA,,US,+1 610-964-0208,,Mo-Fr 09:00-17:00; Sa 08:00-13:00,United States Postal Service,Q668687
1908700192,usps_collection_boxes,USPS COLLECTION BOX - BLUE BOX,1200 LIBERTY DR,WAYNE,PA,,US,,,,United States Postal Service,Q668687
1908700147,usps_collection_boxes,USPS COLLECTION BOX - BLUE BOX,955 CHESTERBROOK BLVD,WAYNE,PA,,US,,,,United States Postal Service,Q668687
1908700195,usps_collection_boxes,USPS COLLECTION BOX - BLUE BOX,1500 LIBERTY RIDGE DR,WAYNE,PA,,US,,,,United States Postal Service,Q668687
1908700183,usps_collection_boxes,USPS COLLECTION BOX - BLUE BOX,735 CHESTERBROOK BLVD,WAYNE,PA,,US,,,,United States Postal Service,Q668687
1908700150,usps_collection_boxes,USPS COLLECTION BOX - BLUE BOX,701 LEE RD,WAYNE,PA,,US,,,,United States Postal Service,Q668687
1908700155,usps_collection_boxes,USPS COLLECTION BOX - BLUE BOX,640 LEE RD,WAYNE,PA,,US,,,,United States Postal Service,Q668687
1908700132,usps_collection_boxes,USPS COLLECTION BOX - BLUE BOX,243 E SWEDESFORD RD,WAYNE,PA,,US,,,,United States Postal Service,Q668687
1908700131,usps_collection_boxes,USPS COLLECTION BOX - BLUE BOX,900 W VALLEY RD,WAYNE,PA,,US,,,,United States Postal Service,Q668687
1908700126,usps_collection_boxes,USPS COLLECTION BOX - BLUE BOX,219 SUGARTOWN RD,WAYNE,PA,,US,,,,United States Postal Service,Q668687
1908700153,usps_collection_boxes,USPS COLLECTION BOX - BLUE BOX,110 GALLAGHER RD,WAYNE,PA,,US,,,,United States Postal Service,Q668687
1908700190,usps_collection_boxes,USPS COLLECTION BOX - BLUE BOX,150 STRAFFORD AVE,WAYNE,PA,,US,,,,United States Postal Service,Q668687
1908700173,usps_collection_boxes,USPS COLLECTION BOX - BLUE BOX,125 STRAFFORD AVE,WAYNE,PA,,US,,,,United States Postal Service,Q668687
1908700123,usps_collection_boxes,USPS COLLECTION BOX - BLUE BOX,107 BLOOMINGDALE AVE,WAYNE,PA,,US,,,,United States Postal Service,Q668687
1908700122,usps_collection_boxes,USPS COLLECTION BOX - BLUE BOX,724 W LANCASTER AVE,WAYNE,PA,,US,,,,United States Postal Service,Q668687
1908700180,usps_collection_boxes,USPS COLLECTION BOX - BLUE BOX,104 S WAYNE AVE,WAYNE,PA,,US,,,,United States Postal Service,Q668687
1908700119,usps_collection_boxes,USPS COLLECTION BOX - PO LOBBY,104 S WAYNE AVE,WAYNE,PA,,US,,,,United States Postal Service,Q668687
1908700206,usps_collection_boxes,USPS COLLECTION BOX - PO LOBBY,104 S WAYNE AVE,WAYNE,PA,,US,,,,United States Postal Service,Q668687
1908700121,usps_collection_boxes,USPS COLLECTION BOX - BLUE BOX,134 N WAYNE AVE,WAYNE,PA,,US,,,,United States Postal Service,Q668687
1908700152,usps_collection_boxes,USPS COLLECTION BOX - BLUE BOX,435 DEVON PARK DR,WAYNE,PA,,US,,,,United States Postal Service,Q668687
1908700198,usps_collection_boxes,USPS COLLECTION BOX - BLUE BOX,555 E LANCASTER AVE,WAYNE,PA,,US,,,,United States Postal Service,Q668687
1908700187,usps_collection_boxes,USPS COLLECTION BOX - BLUE BOX,455 DEVON PARK DR,WAYNE,PA,,US,,,,United States Postal Service,Q668687
1908700139,usps_collection_boxes,USPS COLLECTION BOX - BLUE BOX,440 E SWEDESFORD RD,WAYNE,PA,,US,,,,United States Postal Service,Q668687
1908700197,usps_collection_boxes,USPS COLLECTION BOX - BLUE BOX,150 N RADNOR CHESTER RD,WAYNE,PA,,US,,,,United States Postal Service,Q668687
1908700135,usps_collection_boxes,USPS COLLECTION BOX - BLUE BOX,992 OLD EAGLE SCHOOL RD,WAYNE,PA,,US,,,,United States Postal Service,Q668687
1908700134,usps_collection_boxes,USPS COLLECTION BOX - BLUE BOX,485 DEVON PARK DR,WAYNE,PA,,US,,,,United States Postal Service,Q668687
1908700172,usps_collection_boxes,USPS COLLECTION BOX - BLUE BOX,259 N RADNOR CHESTER RD,WAYNE,PA,,US,,,,United States Postal Service,Q668687
1908700168,usps_collection_boxes,USPS COLLECTION BOX - BLUE BOX,993 OLD EAGLE SCHOOL RD,WAYNE,PA,,US,,,,United States Postal Service,Q668687
1908700141,usps_collection_boxes,USPS COLLECTION BOX - BLUE BOX,656 E SWEDESFORD RD,WAYNE,PA,,US,,,,United States Postal Service,Q668687
1908700143,usps_collection_boxes,USPS COLLECTION BOX - BLUE BOX,290 KING OF PRUSSIA RD,WAYNE,PA,,US,,,,United States Postal Service,Q668687
1908700151,usps_collection_boxes,USPS COLLECTION BOX - BLUE BOX,565 E SWEDESFORD RD,WAYNE,PA,,US,,,,United States Postal Service,Q668687
1908700193,usps_collection_boxes,USPS COLLECTION BOX - BLUE BOX,201 KING OF PRUSSIA RD,WAYNE,PA,,US,,,,United States Postal Service,Q668687
1908700140,usps_collection_boxes,USPS COLLECTION BOX - BLUE BOX,575 E SWEDESFORD RD,WAYNE,PA,,US,,,,United States Postal Service,Q668687
1908700154,usps_collection_boxes,USPS COLLECTION BOX - BLUE BOX,595 E SWEDESFORD RD,WAYNE,PA,,US,,,,United States Postal Service,Q668687
1908700157,usps_collection_boxes,USPS COLLECTION BOX - BLUE BOX,100 MATSONFORD RD BULD 1,WAYNE,PA,,US,,,,United States Postal Service,Q668687
1908700144,usps_collection_boxes,USPS COLLECTION BOX - BLUE BOX,100 MATSONFORD RD BLDG 3,WAYNE,PA,,US,,,,United States Postal Service,Q668687
1908700146,usps_collection_boxes,USPS COLLECTION BOX - BLUE BOX,100 W MATSONFORD RD BLDG 5,WAYNE,PA,,US,,,,United States Postal Service,Q668687
1908700184,usps_collection_boxes,USPS COLLECTION BOX - BLUE BOX,151 S WARNER RD,WAYNE,PA,,US,,,,United States Postal Service,Q668687
1908700145,usps_collection_boxes,USPS COLLECTION BOX - BLUE BOX,100 MATSONFORD RD BLDG 2,WAYNE,PA,,US,,,,United States Postal Service,Q668687
1908700186,usps_collection_boxes,USPS COLLECTION BOX - BLUE BOX,1275 DRUMMERS LN,WAYNE,PA,,US,,,,United States Postal Service,Q668687
A00000246119,verizon_us,Cellular Sales Wayne,,WAYNE,PA,,US,+1 610-687-2580,https://www.verizon.com/stores/details/pennsylvania/wayne/cellular-sales-wayne-1701822/,Mo-Sa 09:00-19:00; Su 11:00-18:00,Verizon,Q919641
,visa,,,RADNOR,PA,,US,,,,,
,visa,,,RADNOR,PA,,US,,,,,
,visa,,,RADNOR,PA,,US,,,,,
,visa,,,RADNOR,PA,,US,,,,,
,visa,,,RADNOR,PA,,US,,,,,
,visa,,,RADNOR,PA,,US,,,,,
,visa,,,RADNOR,PA,,US,,,,,
,visa,,,SAINT DAVIDS,PA,,US,,,,,
,visa,,,ST DAVIDS,PA,,US,,,,,
,visa,,,ST DAVIDS,PA,,US,,,,,
,visa,,,RADNOR,PA,,US,,,,,
,visa,,,WAYNE,PA,,US,,,,,
,visa,,,WAYNE,PA,,US,,,,,
,visa,,,WAYNE,PA,,US,,,,,
,visa,,,WAYNE,PA,,US,,,,,
,visa,,,WAYNE,PA,,US,,,,,
,visa,,,WAYNE,PA,,US,,,,,
,visa,,,WAYNE,PA,,US,,,,,
,visa,,,WAYNE,PA,,US,,,,,
,visa,,,WAYNE,PA,,US,,,,,
,visa,,,WAYNE,PA,,US,,,,,
,visa,,,WAYNE,PA,,US,,,,,
,visa,,,WAYNE,PA,,US,,,,,
,visa,,,WAYNE,PA,,US,,,,,
,visa,,,WAYNE,PA,,US,,,,,
,visa,,,WAYNE,PA,,US,,,,,
,visa,,,WAYNE,PA,,US,,,,,
,visa,,,WAYNE,PA,,US,,,,,
,visa,,,WAYNE,PA,,US,,,,,
,visa,,,WAYNE,PA,,US,,,,,
,visa,,,WAYNE,PA,,US,,,,,
,visa,,,WAYNE,PA,,US,,,,,
,visa,,,WAYNE,PA,,US,,,,,
,visa,,,WAYNE,PA,,US,,,,,
,visa,,,WAYNE,PA,,US,,,,,
,visa,,,WAYNE,PA,,US,,,,,
,visa,,,STRAFFORD,PA,,US,,,,,
,visa,,,STRATFORD,PA,,US,,,,,
,visa,,,WAYNE,PA,,US,,,,,
,visa,,,WAYNE,PA,,US,,,,,
,visa,,,WAYNE,PA,,US,,,,,
,visa,,,WAYNE,PA,,US,,,,,
,visa,,,WAYNE,PA,,US,,,,,
,visa,,,WAYNE,PA,,US,,,,,
,visa,,,WAYNE,PA,,US,,,,,
,visa,,,STRAFFRD WAY,PA,,US,,,,,
,visa,,,WAYNE,PA,,US,,,,,
,visa,,,DEVON,PA,,US,,,,,
,visa,,,STRAFFORD,PA,,US,,,,,
,visa,,,WAYNE,PA,,US,,,,,
,visa,,,WAYNE,PA,,US,,,,,
,visa,,,WAYNE,PA,,US,,,,,
,visa,,,WAYNE,PA,,US,,,,,
,visa,,,WAYNE,PA,,US,,,,,
,visa,,,WAYNE,PA,,US,,,,,
,visa,,,WAYNE,PA,,US,,,,,
,visa,,,WAYNE,PA,,US,,,,,
,visa,,,WAYNE,PA,,US,,,,,
,visa,,,CHESTERBROOK,PA,,US,,,,,
,visa,,,WAYNE,PA,,US,,,,,
,visa,,,WAYNE,PA,,US,,,,,
,visa,,,CHESTERBROOK,PA,,US,,,,,
,visa,,,WAYNE,PA,,US,,,,,
,visa,,,CHESTERBROOK,PA,,US,,,,,
,visa,,,MALVERN,PA,,US,,,,,
681,visionworks,Visionworks St. David's Square,,Radnor,PA,,US,+1 610-687-0364,https://locations.visionworks.com/ll/US/PA/Radnor/550-E-Lancaster-Ave,Mo-Sa 09:00-19:00,Visionworks,Q5422607
702__W__LANCASTER__AVE_WAYNE_PA_19087,wellsfargo,Wells Fargo,702 W LANCASTER AVE,WAYNE,PA,,US,+1 610-293-4380,https://www.wellsfargo.com/locator/bank/702__W__LANCASTER__AVE_WAYNE_PA_19087/,Mo-Fr 09:00-17:00,Wells Fargo,Q744149
305__E__LANCASTER__AVE_WAYNE_PA_19087,wellsfargo,Wells Fargo,305 E LANCASTER AVE,WAYNE,PA,,US,+1 610-687-3705,https://www.wellsfargo.com/locator/bank/305__E__LANCASTER__AVE_WAYNE_PA_19087/,Mo-Fr 09:00-17:00,Wells Fargo,Q744149
36f115cba5be1846d7162e11a03866ce,western_union,7 ELEVEN/SUNOCO #40150,,Wayne,PA,,US,+1 610-688-2188,https://location.westernunion.com/us/pa/wayne/36f115cba5be1846d7162e11a03866ce,,Western Union,Q861042
devon,whole_foods,Devon,821 Lancaster Ave,Wayne,PA,,US,+1 610-688-9400,https://www.wholefoodsmarket.com/stores/devon,Mo-Su 08:00-21:00,Whole Foods,Q1809448
