Ref,Spider,Name,Address,City,State,Zipcode,Country,Phone,Website,Hours,Brand,WikiData
68310499,moneygram,METROBANK - CEBU BOGO,,BOGO,,,PH,28700700,,Mo-Fr 09:00-16:30; Sa 10:00-14:30; Su 00:00-24:00,MoneyGram,Q1944412
72574739,moneygram,USSC - #40106 - CEBU - BOGO,,BOGO,,,PH,+63 32 434 8676,,Mo-Su 08:00-06:00,MoneyGram,Q1944412
72888551,moneygram,MLHUILLIER - BOGO - BINABAG,,BOGO,,,PH,+63 32 348 9400,,Mo-Su 08:00-18:00,MoneyGram,Q1944412
72888467,moneygram,MLHUILLIER - BOGO - TAYTAYAN,,BOGO,,,PH,+63 32 348 9400,,Mo-Su 08:00-18:00,MoneyGram,Q1944412
73523093,moneygram,RD PAWNSHOP INC - BOGO 4,,BOGO,,,PH,+63 945 684 5399,,Mo-Sa 08:00-18:00; Su 09:00-17:00,MoneyGram,Q1944412
73523103,moneygram,RD PAWNSHOP INC - BOGO 5,,BOGO,,,PH,+63 945 684 6235,,Mo-Sa 08:00-18:00; Su 09:00-17:00,MoneyGram,Q1944412
73692461,moneygram,PALAWAN PAWNSHOP - #FCB - BOGO - CEBU-BO,,BOGO,,,PH,+63 48 433 4110,,Mo-Su 08:00-17:30,MoneyGram,Q1944412
73775430,moneygram,GEMMARY PAWNSHOP & JEWELLERY - #82031 -,,BOGO,,,PH,+63 32 434 8001,,Mo-Su 08:00-18:00,MoneyGram,Q1944412
72398672,moneygram,CEBUANA LHUILLIER - #62053 - BOGO - CLH,,BOGO,,,PH,7799803,,Mo-Su 07:00-23:00,MoneyGram,Q1944412
70164992,moneygram,CEBUANA LHUILLIER - CLH BOGO 1,,BOGO,,,PH,27799800,,Mo-Su 08:30-17:30,MoneyGram,Q1944412
70165001,moneygram,CEBUANA LHUILLIER - CLH BOGO 2,,BOGO,,,PH,27799800,,Mo-Su 07:30-18:30,MoneyGram,Q1944412
72509186,moneygram,LBC - #1039 - BOGO CITY - BOGO,,BOGO CITY,,,PH,8527239,,Mo-Sa 08:00-19:00; Su 08:00-17:00,MoneyGram,Q1944412
69751329,moneygram,PALAWAN PAWNSHOP - BOGO RODRIQUEZ ST,,BOGO CITY CEBU,,,PH,+63 48 433 4110,,Mo-Su 08:00-17:30,MoneyGram,Q1944412
69751552,moneygram,PALAWAN PAWNSHOP - BOGO HOSPITAL,,BOGO CITY CEBU,,,PH,+63 48 433 4110,,Mo-Su 08:00-17:30,MoneyGram,Q1944412
69751358,moneygram,PALAWAN PAWNSHOP - BOGO MARKET,,BOGO CITY CEBU,,,PH,+63 48 433 4110,,Mo-Su 08:00-17:30,MoneyGram,Q1944412
70452358,moneygram,M LHUILLIER - CANTECSON,,BOGO,,,PH,+63 32 348 9400,,Mo-Su 08:00-18:00,MoneyGram,Q1944412
70766691,moneygram,PALAWAN PAWNSHOP - #CUJ - BOGO CITY - BO,,BOGO CITY,,,PH,+63 48 433 4110,,Mo-Su 08:00-17:30,MoneyGram,Q1944412
65280205,moneygram,M LHUILLIER - BOGO 1,,BOGO,,,PH,+63 32 348 9400,,Mo-Su 07:00-20:00,MoneyGram,Q1944412
65280218,moneygram,M LHUILLIER - BOGO 2,,BOGO,,,PH,+63 32 348 9400,,Mo-Su 07:00-20:00,MoneyGram,Q1944412
65529403,moneygram,RD PAWNSHOP - #091,,BOGO,,,PH,+63 916 719 6072,,Mo-Sa 08:00-18:00; Su 09:00-17:30,MoneyGram,Q1944412
65529416,moneygram,RD PAWNSHOP - #238,,BOGO,,,PH,+63 916 719 6072,,Mo-Sa 08:00-18:00; Su 09:00-17:30,MoneyGram,Q1944412
65529445,moneygram,RD PAWNSHOP - #375,,BOGO,,,PH,+63 916 719 6072,,Mo-Sa 08:00-18:00; Su 09:00-17:30,MoneyGram,Q1944412
