Ref,Spider,Name,Address,City,State,Zipcode,Country,Phone,Website,Hours,Brand,WikiData
518d42248b46ebde445f9263a38ad5af,western_union,UANGKITA INDRAMAYU,,Indramayu,JAWA BARAT,,ID,+62 811-8182-618,https://location.westernunion.com/id/jawa-barat/indramayu/518d42248b46ebde445f9263a38ad5af,Mo-Su 08:00-20:00,Western Union,Q861042
9eb78dbdcb692aba980019fe4df622a9,western_union,KOPERASI PAYU 21,,Sukabumi,JAWA BARAT,,ID,+62 858-1157-5383,https://location.westernunion.com/id/jawa-barat/sukabumi/9eb78dbdcb692aba980019fe4df622a9,Mo-Su 08:00-21:00,Western Union,Q861042
162747c682c30b0925a1018ecdf1e271,western_union,PT REKSA MITRA INDONESIA,,Bogor,JAWA BARAT,,ID,+62 858-1157-5383,https://location.westernunion.com/id/jawa-barat/bogor/162747c682c30b0925a1018ecdf1e271,Mo-Fr 08:30-15:00; Sa 08:00-12:00,Western Union,Q861042
caae8587653c8920581b5ce17e88bbe0,western_union,KOPERASI PAYU 553,,Sukabumi,JAWA BARAT,,ID,+62 21 29475518,https://location.westernunion.com/id/jawa-barat/sukabumi/caae8587653c8920581b5ce17e88bbe0,Mo-Su 08:00-19:00,Western Union,Q861042
1824b02e84dfb32efb8fd592bf53576f,western_union,POS HARMONI JAYA ABADI LELES,,Cianjur,JAWA BARAT,,ID,+62 263 260630,https://location.westernunion.com/id/jawa-barat/cianjur/1824b02e84dfb32efb8fd592bf53576f,Mo-Fr 09:00-15:00; Sa 09:00-12:00; Su 06:00-20:00,Western Union,Q861042
d89fc6879952724e474e3da9ea861e0d,western_union,KOPERASI PAYU 323,,Sukabumi,JAWA BARAT,,ID,+62 821-2983-2555,https://location.westernunion.com/id/jawa-barat/sukabumi/d89fc6879952724e474e3da9ea861e0d,Mo-Su 08:00-21:00,Western Union,Q861042
f5d5588db54dcadbd49eefca722e1668,western_union,BSI KC GANDANEGARA,,Purwakarta,JAWA BARAT,,ID,+62 264 8227010,https://location.westernunion.com/id/jawa-barat/purwakarta/f5d5588db54dcadbd49eefca722e1668,Mo-Fr 08:00-15:00,Western Union,Q861042
e7d586554e93a0420edba4858bf48f26,western_union,BSI KC GANDANEGARA,,Purwakarta,JAWA BARAT,,ID,+62 264 8227010,https://location.westernunion.com/id/jawa-barat/purwakarta/e7d586554e93a0420edba4858bf48f26,Mo-Fr 08:00-15:00,Western Union,Q861042
f3b57165fad6c820745474fb69286340,western_union,JNE TASIKMALAYA,,Tasikmalaya,JAWA BARAT,,ID,+62 263 27671,https://location.westernunion.com/id/jawa-barat/tasikmalaya/f3b57165fad6c820745474fb69286340,Mo-Fr 08:00-22:00; Sa-Su 08:00-17:00,Western Union,Q861042
86720a9d1b5952683911b62b4645d71f,western_union,PEGADAIAN UPC PASAR PAL,,Depok,JAWA BARAT,,ID,+62 21 87716612,https://location.westernunion.com/id/jawa-barat/depok/86720a9d1b5952683911b62b4645d71f,Mo-Fr 07:30-15:00; Sa 07:30-12:00,Western Union,Q861042
22677f2dae98b9197d9a8c6e5372bef8,western_union,PEGADAIAN UPC PASAR LOSARI,,Cirebon,JAWA BARAT,,ID,+62 22 4230178,https://location.westernunion.com/id/jawa-barat/cirebon/22677f2dae98b9197d9a8c6e5372bef8,Mo-Fr 07:30-15:00; Sa 07:30-12:00,Western Union,Q861042
c6fbdde170c5bfd3e95c374ac0cf206d,western_union,KOPERASI PAYU 555,,Cirebon,JAWA BARAT,,ID,+62 21 29475518,https://location.westernunion.com/id/jawa-barat/cirebon/c6fbdde170c5bfd3e95c374ac0cf206d,Mo-Su 08:00-19:00,Western Union,Q861042
a4d6a27f88d350a1d17dd0f896f30ab8,western_union,PEGADAIAN CPS PASARBARU,,Indramayu,JAWA BARAT,,ID,+62 234 273742,https://location.westernunion.com/id/jawa-barat/indramayu/a4d6a27f88d350a1d17dd0f896f30ab8,Mo-Fr 07:30-15:00; Sa 07:30-12:00,Western Union,Q861042
53bb9bcfd44fd0e5293a799b4ec77b90,western_union,BANK BJB KK WAROENG JUNTINYUAT,,Indramayu,JAWA BARAT,,ID,+62 234 428861,https://location.westernunion.com/id/jawa-barat/indramayu/53bb9bcfd44fd0e5293a799b4ec77b90,Mo-Fr 08:00-15:00,Western Union,Q861042
55cf9f3e6d1758c97b1870593f4ea7c8,western_union,BANK BJB KK WAROENG LOHBENER,,Indramayu,JAWA BARAT,,ID,+62 234 5744867,https://location.westernunion.com/id/jawa-barat/indramayu/55cf9f3e6d1758c97b1870593f4ea7c8,Mo-Fr 08:00-15:00,Western Union,Q861042
4bda2a305a80f3a1106dcd34b57e2463,western_union,KOPERASI PAYU 557,,Indramayu,JAWA BARAT,,ID,+62 21 29475518,https://location.westernunion.com/id/jawa-barat/indramayu/4bda2a305a80f3a1106dcd34b57e2463,Mo-Su 08:00-19:00,Western Union,Q861042
f1500a929c4ac54bba10843194b0a86f,western_union,CIPTA HEMAT LEMAHABANG,,Indramayu,JAWA BARAT,,ID,+62 234 277536,https://location.westernunion.com/id/jawa-barat/indramayu/f1500a929c4ac54bba10843194b0a86f,Mo-Su 07:00-21:00,Western Union,Q861042
d985a975517d9e2973924111ae9e0378,western_union,CIPTA HEMAT LOMBANG,,Indramayu,JAWA BARAT,,ID,+62 813-2400-2112,https://location.westernunion.com/id/jawa-barat/indramayu/d985a975517d9e2973924111ae9e0378,Mo-Su 07:00-21:00,Western Union,Q861042
84e4b3e992fed7f084b41a1c6266d5bf,western_union,CIPTA HEMAT LEMAHMEKAR 7,,Indramayu,JAWA BARAT,,ID,+62 234 274224,https://location.westernunion.com/id/jawa-barat/indramayu/84e4b3e992fed7f084b41a1c6266d5bf,Mo-Su 07:00-21:00,Western Union,Q861042
fa34a08ba722a841a3fd2c02c23e76ea,western_union,PT POS MPS INDRAMAYU 1,,Indramayu,JAWA BARAT,,ID,+62 234 271200,https://location.westernunion.com/id/jawa-barat/indramayu/fa34a08ba722a841a3fd2c02c23e76ea,Mo-Fr 09:00-15:00; Sa 09:00-12:00,Western Union,Q861042
f65d0d436e0dd6b5f6febd34609d0b59,western_union,KOPERASI PAYU 127,,Indramayu,JAWA BARAT,,ID,+62 878-3003-6236,https://location.westernunion.com/id/jawa-barat/indramayu/f65d0d436e0dd6b5f6febd34609d0b59,Mo-Su 08:00-21:00,Western Union,Q861042
2389ce344a4bdcc0faf4924cc88ee539,western_union,BANK BJB KCP BANGKIR,,Indramayu,JAWA BARAT,,ID,+62 234 276729,https://location.westernunion.com/id/jawa-barat/indramayu/2389ce344a4bdcc0faf4924cc88ee539,Mo-Fr 08:00-15:00,Western Union,Q861042
d9293fbbea1b79a0557b17efa932bacc,western_union,CIPTA HEMAT RAMBATA,,Indramayu,JAWA BARAT,,ID,+62 234 276678,https://location.westernunion.com/id/jawa-barat/indramayu/d9293fbbea1b79a0557b17efa932bacc,Mo-Su 07:00-21:00,Western Union,Q861042
5481a0f077a94fc4928a156b9025ab3c,western_union,PEGADAIAN UPC BANGKIR,,Indramayu,JAWA BARAT,,ID,+62 234 276526,https://location.westernunion.com/id/jawa-barat/indramayu/5481a0f077a94fc4928a156b9025ab3c,Mo-Fr 07:30-15:00; Sa 07:30-12:00,Western Union,Q861042
cffd435fbb211a76cbde983b34d3a30b,western_union,PEGADAIAN UPC KEDOKAN BUNDER,,Indramayu,JAWA BARAT,,ID,+62 234 869262,https://location.westernunion.com/id/jawa-barat/indramayu/cffd435fbb211a76cbde983b34d3a30b,Mo-Fr 07:30-15:00; Sa 07:30-12:00,Western Union,Q861042
e121baa758ef15bf12ff45a20db72a96,western_union,PEGADAIAN UPC PANGKALAN,,Cirebon,JAWA BARAT,,ID,+62 231 8228617,https://location.westernunion.com/id/jawa-barat/cirebon/e121baa758ef15bf12ff45a20db72a96,Mo-Fr 08:00-17:00; Sa 08:00-14:00,Western Union,Q861042
d53a81acf503610602def029e1b66f26,western_union,KOPERASI PAYU 26,,Cirebon,JAWA BARAT,,ID,+62 821-2726-2864,https://location.westernunion.com/id/jawa-barat/cirebon/d53a81acf503610602def029e1b66f26,Mo-Su 08:00-21:00,Western Union,Q861042
7705713b84116c23c52673b81f679247,western_union,BSI KCP INDRAMAYU SUDIRMAN,,Indramayu,JAWA BARAT,,ID,+62 21 66693079,https://location.westernunion.com/id/jawa-barat/indramayu/7705713b84116c23c52673b81f679247,Mo-Fr 07:00-18:00,Western Union,Q861042
455c5cca66459571b579b820e0fe5642,western_union,KOPERASI PAYU 121,,Indramayu,Jawa Barat,,ID,+62 234 275130,https://location.westernunion.com/id/jawa-barat/indramayu/455c5cca66459571b579b820e0fe5642,Mo-Su 08:00-21:00,Western Union,Q861042
3f226bbc52533928ec795b4d073a367c,western_union,PEGADAIAN UPC JUNTINYUAT,,Indramayu,JAWA BARAT,,ID,+62 22 4230178,https://location.westernunion.com/id/jawa-barat/indramayu/3f226bbc52533928ec795b4d073a367c,Mo-Fr 07:30-15:00; Sa 07:30-12:00,Western Union,Q861042
68bbcdd2117c677bc52e507b84568a86,western_union,CIPTA HEMAT KARANGANYAR 41,,Indramayu,JAWA BARAT,,ID,+62 234 277745,https://location.westernunion.com/id/jawa-barat/indramayu/68bbcdd2117c677bc52e507b84568a86,Mo-Su 07:00-21:00,Western Union,Q861042
e571a6c90dcf1688a2c2b931a01b1b17,western_union,KOPERASI PAYU 558,,Indramayu,JAWA BARAT,,ID,+62 21 29475518,https://location.westernunion.com/id/jawa-barat/indramayu/e571a6c90dcf1688a2c2b931a01b1b17,Mo-Su 08:00-19:00,Western Union,Q861042
349bc54ad396f159761bb77eff0950c8,western_union,PEGADAIAN UPS YOS SUDARSO,,Indramayu,JAWA BARAT,,ID,+62 234 273197,https://location.westernunion.com/id/jawa-barat/indramayu/349bc54ad396f159761bb77eff0950c8,Mo-Fr 07:30-15:00; Sa 07:30-12:00,Western Union,Q861042
87879633c97fc2ec9348bfa3a83561e8,western_union,KOPERASI PAYU 566,,Cirebon,JAWA BARAT,,ID,+62 21 29475518,https://location.westernunion.com/id/jawa-barat/cirebon/87879633c97fc2ec9348bfa3a83561e8,Mo-Su 08:00-19:00,Western Union,Q861042
6156219013e833666d44f3cc35c4ed37,western_union,BANK BJB KCP PAGONGAN,,Cirebon,JAWA BARAT,,ID,+62 231 8308544,https://location.westernunion.com/id/jawa-barat/cirebon/6156219013e833666d44f3cc35c4ed37,Mo-Fr 08:00-15:00,Western Union,Q861042
39996f43c2bcc99499e12f9fea351345,western_union,PEGADAIAN UPC PGC CIREBON,,Cirebon,JAWA BARAT,,ID,+62 231 869262,https://location.westernunion.com/id/jawa-barat/cirebon/39996f43c2bcc99499e12f9fea351345,Mo-Fr 07:30-15:00; Sa 07:30-12:00,Western Union,Q861042
f595540f579b64faa8d019a408da6a67,western_union,PEGADAIAN UPC PABUARAN,,Cirebon,JAWA BARAT,,ID,(+62) 23-662916,https://location.westernunion.com/id/jawa-barat/cirebon/f595540f579b64faa8d019a408da6a67,Mo-Fr 07:30-15:00; Sa 07:30-12:00,Western Union,Q861042
04525e64c522170ef0951d474d13d0cc,western_union,KOPERASI PAYU 313,,Indramayu,JAWA BARAT,,ID,+62 818-0227-6196,https://location.westernunion.com/id/jawa-barat/indramayu/04525e64c522170ef0951d474d13d0cc,Mo-Su 08:00-21:00,Western Union,Q861042
68150e79ddd3dc615813307f8b9ad8c2,western_union,KOPERASI PAYU 15,,Indramayu,JAWA BARAT,,ID,+62 877-1777-7563,https://location.westernunion.com/id/jawa-barat/indramayu/68150e79ddd3dc615813307f8b9ad8c2,Mo-Su 08:00-21:00,Western Union,Q861042
eac07685e1ed128cdbee6bd8a64912a9,western_union,KOPERASI PAYU 29,,Cirebon,JAWA BARAT,,ID,+62 813-1249-2924,https://location.westernunion.com/id/jawa-barat/cirebon/eac07685e1ed128cdbee6bd8a64912a9,Mo-Su 08:00-21:00,Western Union,Q861042
9fcf6bfb8a4ce69f1eae8e3111a8ca57,western_union,BANK BJB KK WAROENG KEDOKANBUNDER,,Indramayu,JAWA BARAT,,ID,+62 234 486521,https://location.westernunion.com/id/jawa-barat/indramayu/9fcf6bfb8a4ce69f1eae8e3111a8ca57,Mo-Fr 08:00-15:00,Western Union,Q861042
1c5d56a7ef6ac3b0ae71f9ca5e195e10,western_union,PEGADAIAN UPC BABAKAN,,Bandung,JAWA BARAT,,ID,+62 22 76484871,https://location.westernunion.com/id/jawa-barat/bandung/1c5d56a7ef6ac3b0ae71f9ca5e195e10,Mo-Fr 07:30-15:00; Sa 07:30-12:00,Western Union,Q861042
b094db086d627a03b0faf16030960dd1,western_union,KOPERASI PAYU 131,,Indramayu,JAWA BARAT,,ID,+62 817-9070-705,https://location.westernunion.com/id/jawa-barat/indramayu/b094db086d627a03b0faf16030960dd1,Mo-Su 08:00-21:00,Western Union,Q861042
279bf02b30881e71d455f1b54384b216,western_union,PEGADAIAN CPS CIPTO,,Cirebon,JAWA BARAT,,ID,+62 813-2282-1358,https://location.westernunion.com/id/jawa-barat/cirebon/279bf02b30881e71d455f1b54384b216,Mo-Fr 07:30-15:00; Sa 07:30-12:00,Western Union,Q861042
e00eec9df546dcf48712ea918683fae1,western_union,PEGADAIAN UPC KARANG SEMBUNG,,Cirebon,JAWA BARAT,,ID,+62 231 8629128,https://location.westernunion.com/id/jawa-barat/cirebon/e00eec9df546dcf48712ea918683fae1,Mo-Fr 08:00-17:00; Sa 08:00-14:00,Western Union,Q861042
68da5fcc7243f715c0a5be3fd0f34908,western_union,PEGADAIAN UPS CIREBON BISNIS CENTER,,Cirebon,JAWA BARAT,,ID,+62 232 31232181,https://location.westernunion.com/id/jawa-barat/cirebon/68da5fcc7243f715c0a5be3fd0f34908,Mo-Fr 07:30-15:00; Sa 07:30-12:00,Western Union,Q861042
7c2b1a171323777608ddbef9b542f80e,western_union,PEGADAIAN UPS PEKALIPAN,,Cirebon,JAWA BARAT,,ID,+62 853-8006-111,https://location.westernunion.com/id/jawa-barat/cirebon/7c2b1a171323777608ddbef9b542f80e,Mo-Su 07:30-21:00,Western Union,Q861042
4bb4dd20c789869eac2768feed3fff4f,western_union,PEGADAIAN UPS WIDASARI,,Indramayu,JAWA BARAT,,ID,+62 234 351621,https://location.westernunion.com/id/jawa-barat/indramayu/4bb4dd20c789869eac2768feed3fff4f,Mo-Fr 07:30-15:00; Sa 07:30-12:00,Western Union,Q861042
08ba9e88d41111fc66308a277a7b0024,western_union,KOPERASI PAYU 563,,Indramayu,JAWA BARAT,,ID,+62 21 29475518,https://location.westernunion.com/id/jawa-barat/indramayu/08ba9e88d41111fc66308a277a7b0024,Mo-Su 08:00-19:00,Western Union,Q861042
66bec672e33789ed6d61affa346aa157,western_union,KOPERASI PAYU 307,,Indramayu,JAWA BARAT,,ID,+62 813-9572-7227,https://location.westernunion.com/id/jawa-barat/indramayu/66bec672e33789ed6d61affa346aa157,Mo-Su 08:00-21:00,Western Union,Q861042
cffbbe10e12ba8329b4891d668b6bbc0,western_union,PEGADAIAN UPC SEDONG,,Cirebon,JAWA BARAT,,ID,(+62) 23-636361,https://location.westernunion.com/id/jawa-barat/cirebon/cffbbe10e12ba8329b4891d668b6bbc0,Mo-Fr 07:30-15:00; Sa 07:30-12:00,Western Union,Q861042
42ee67eeccf3aba9274d2133e1e683af,western_union,KOPERASI PAYU 562,,Indramayu,JAWA BARAT,,ID,+62 21 29475518,https://location.westernunion.com/id/jawa-barat/indramayu/42ee67eeccf3aba9274d2133e1e683af,Mo-Su 08:00-19:00,Western Union,Q861042
9296953395abfd236f5eaf65aea54169,western_union,PEGADAIAN UPC KANGGRAKSAN,,Cirebon,JAWA BARAT,,ID,+62 231 847135,https://location.westernunion.com/id/jawa-barat/cirebon/9296953395abfd236f5eaf65aea54169,Mo-Fr 07:30-15:00; Sa 07:30-12:00,Western Union,Q861042
e344212248c67c79dff64894af71aab5,western_union,BRI UNIT CIAWI KOTA,,Tasikmalaya,JAWA BARAT,,ID,+62 265 455037,https://location.westernunion.com/id/jawa-barat/tasikmalaya/e344212248c67c79dff64894af71aab5,Mo-Fr 08:00-15:00,Western Union,Q861042
acd334800bfb9957b7419e708f35c9fb,western_union,PEGADAIAN UPC CIREMAI,,Cirebon,JAWA BARAT,,ID,+62 231 323607,https://location.westernunion.com/id/jawa-barat/cirebon/acd334800bfb9957b7419e708f35c9fb,Mo-Fr 07:30-15:00; Sa 07:30-12:00,Western Union,Q861042
462a0cbd72a001b2036f0d90be8f0878,western_union,BANK BJB KK UNSWAGATI,,Cirebon,JAWA BARAT,,ID,+62 231 202584,https://location.westernunion.com/id/jawa-barat/cirebon/462a0cbd72a001b2036f0d90be8f0878,Mo-Fr 07:00-19:00,Western Union,Q861042
0139c246d489e0cc991e3da15c5310ae,western_union,PEGADAIAN UPC PASAR WERU,,Cirebon,JAWA BARAT,,ID,+62 233 22510,https://location.westernunion.com/id/jawa-barat/cirebon/0139c246d489e0cc991e3da15c5310ae,Mo-Fr 07:30-15:00; Sa 07:30-12:00,Western Union,Q861042
25166f79dc506d258781fb4cbf244896,western_union,BRI UNIT PAMEUNGPEUK GARUT,,Garut,JAWA BARAT,,ID,+62 262 521128,https://location.westernunion.com/id/jawa-barat/garut/25166f79dc506d258781fb4cbf244896,Mo-Fr 08:00-15:00,Western Union,Q861042
c3e67bcca3225e623441527532fb0993,western_union,PEGADAIAN UPS PERJUANGAN,,Cirebon,JAWA BARAT,,ID,+62 231 8491667,https://location.westernunion.com/id/jawa-barat/cirebon/c3e67bcca3225e623441527532fb0993,Mo-Fr 07:30-15:00; Sa 07:30-12:00,Western Union,Q861042
ed67eec1cd1703df9bb0159c7c9f831a,western_union,PT POS KPC PANGURAGAN,,Cirebon,JAWA BARAT,,ID,+62 21 3511523,https://location.westernunion.com/id/jawa-barat/cirebon/ed67eec1cd1703df9bb0159c7c9f831a,Mo-Fr 09:00-15:00; Sa 09:00-12:00,Western Union,Q861042
128a6e646589ca93c59e72831ebe485e,western_union,PEGADAIAN UPC GEUGESIK,,Cirebon,JAWA BARAT,,ID,+62 22 4230178,https://location.westernunion.com/id/jawa-barat/cirebon/128a6e646589ca93c59e72831ebe485e,Mo-Fr 07:30-15:00; Sa 07:30-12:00,Western Union,Q861042
a306eab8ce0b52eeabb575c6354bc399,western_union,BANK BJB KK WAROENG SLIYENG,,Indramayu,JAWA BARAT,,ID,+62 234 355240,https://location.westernunion.com/id/jawa-barat/indramayu/a306eab8ce0b52eeabb575c6354bc399,Mo-Fr 08:00-15:00,Western Union,Q861042
4290b3de8eedbf23c03eaf6f5356d4e3,western_union,PEGADAIAN UPC GUNUNG JATI,,Cirebon,JAWA BARAT,,ID,+62 231 458186,https://location.westernunion.com/id/jawa-barat/cirebon/4290b3de8eedbf23c03eaf6f5356d4e3,Mo-Fr 07:30-15:00; Sa 07:30-12:00,Western Union,Q861042
6aab931a73f5ae3e95e0127f5e117d88,western_union,CIPTA HEMAT SINDANGKERTA,,Indramayu,JAWA BARAT,,ID,+62 811-2417-110,https://location.westernunion.com/id/jawa-barat/indramayu/6aab931a73f5ae3e95e0127f5e117d88,Mo-Su 07:00-21:00,Western Union,Q861042
4bb8c60b99d0403acc3d78e63945e2dc,western_union,PEGADAIAN UPC CELANCANG,,Cirebon,JAWA BARAT,,ID,+62 22 4230178,https://location.westernunion.com/id/jawa-barat/cirebon/4bb8c60b99d0403acc3d78e63945e2dc,Mo-Fr 07:30-15:00; Sa 07:30-12:00,Western Union,Q861042
6828d7d6b171e7e2bd2740e030f33cd2,western_union,PT POS KPC JAMANIS,,Tasikmalaya,JAWA BARAT,,ID,+62 231 200511,https://location.westernunion.com/id/jawa-barat/tasikmalaya/6828d7d6b171e7e2bd2740e030f33cd2,Mo-Fr 09:00-15:00; Sa 09:00-12:00,Western Union,Q861042
6c33df8a16534780124bce274f783488,western_union,PEGADAIAN UPC SAMADIKUN,,Cirebon,JAWA BARAT,,ID,+62 22 4230178,https://location.westernunion.com/id/jawa-barat/cirebon/6c33df8a16534780124bce274f783488,Mo-Fr 07:30-15:00; Sa 07:30-12:00,Western Union,Q861042
5e989a2e4d17cb03ad08f0cad8fff442,western_union,PEGADAIAN UPC KEDAWUNG,,Cirebon,JAWA BARAT,,ID,+62 231 452044,https://location.westernunion.com/id/jawa-barat/cirebon/5e989a2e4d17cb03ad08f0cad8fff442,Mo-Fr 07:30-15:00; Sa 07:30-12:00,Western Union,Q861042
754203ba41896dde11f203d2554bbb17,western_union,PEGADAIAN UPC TAMBI,,Indramayu,JAWA BARAT,,ID,+62 234 3128702,https://location.westernunion.com/id/jawa-barat/indramayu/754203ba41896dde11f203d2554bbb17,Mo-Fr 07:30-15:00; Sa 07:30-12:00,Western Union,Q861042
03909ccef961ab834e528c0e50a2ef08,western_union,BANK BJB KCP PERUMNAS,,Cirebon,JAWA BARAT,,ID,+62 231 490203,https://location.westernunion.com/id/jawa-barat/cirebon/03909ccef961ab834e528c0e50a2ef08,Mo-Fr 07:00-19:00,Western Union,Q861042
cae8f08621b238d0db002e05e3acf6ed,western_union,BANK BJB KCP MAJASEM,,Cirebon,JAWA BARAT,,ID,+62 231 485028,https://location.westernunion.com/id/jawa-barat/cirebon/cae8f08621b238d0db002e05e3acf6ed,Mo-Fr 08:00-15:00,Western Union,Q861042
cf5dcb5550528ec861a81e4e9b0b0d92,western_union,BANK BJB KCP LOSARI,,Cirebon,JAWA BARAT,,ID,+62 231 322426,https://location.westernunion.com/id/jawa-barat/cirebon/cf5dcb5550528ec861a81e4e9b0b0d92,Mo-Fr 08:00-15:00,Western Union,Q861042
728d08e5c7c6f41c6384c7f4912a19fd,western_union,BANK BJB KCP LEMAH ABANG,,Cirebon,JAWA BARAT,,ID,+62 231 8639444,https://location.westernunion.com/id/jawa-barat/cirebon/728d08e5c7c6f41c6384c7f4912a19fd,Mo-Fr 08:00-15:00,Western Union,Q861042
09111f3f080cc0e426f868435a54055b,western_union,BANK BJB KK RSU GUNUNG JATI,,Cirebon,JAWA BARAT,,ID,+62 231 230225,https://location.westernunion.com/id/jawa-barat/cirebon/09111f3f080cc0e426f868435a54055b,Mo-Fr 08:00-15:00,Western Union,Q861042
7f020432b62360cf42fa77674b2659a4,western_union,PEGADAIAN UPS TUKMUDAL,,Cirebon,JAWA BARAT,,ID,+62 231 8330637,https://location.westernunion.com/id/jawa-barat/cirebon/7f020432b62360cf42fa77674b2659a4,Mo-Fr 07:30-15:00; Sa 07:30-12:00,Western Union,Q861042
5d844b0b329e300a17454b5aa869f664,western_union,BANK BJB KK WAROENG TUKDANA,,Indramayu,JAWA BARAT,,ID,+62 234 356288,https://location.westernunion.com/id/jawa-barat/indramayu/5d844b0b329e300a17454b5aa869f664,Mo-Fr 08:00-15:00,Western Union,Q861042
da489dd97b1742eaa6ea931ee81e03ba,western_union,BANK BJB KC SUMBER,,Cirebon,JAWA BARAT,,ID,+62 231 322426,https://location.westernunion.com/id/jawa-barat/cirebon/da489dd97b1742eaa6ea931ee81e03ba,Mo-Fr 08:00-15:00,Western Union,Q861042
510b0612c90dbf999a88f07521b1a210,western_union,PEGADAIAN UPC SUSUKAN,,Cirebon,JAWA BARAT,,ID,+62 231 869262,https://location.westernunion.com/id/jawa-barat/cirebon/510b0612c90dbf999a88f07521b1a210,Mo-Fr 07:30-15:00; Sa 07:30-12:00,Western Union,Q861042
98c0f8cd8a516b4f00146fc8457f0da6,western_union,PEGADAIAN UPC SUMBER,,Cirebon,JAWA BARAT,,ID,+62 231 452044,https://location.westernunion.com/id/jawa-barat/cirebon/98c0f8cd8a516b4f00146fc8457f0da6,Mo-Fr 07:30-15:00; Sa 07:30-12:00,Western Union,Q861042
f7c72319d5de108d34b459cd99294c97,western_union,BANK BJB KCP KARANGSINOM,,Indramayu,JAWA BARAT,,ID,+62 234 272344,https://location.westernunion.com/id/jawa-barat/indramayu/f7c72319d5de108d34b459cd99294c97,Mo-Fr 08:00-15:00,Western Union,Q861042
bbd1e6461754a6bfa9eac26e6b717566,western_union,PEGADAIAN UPC TUKDANA,,Indramayu,JAWA BARAT,,ID,+62 234 869262,https://location.westernunion.com/id/jawa-barat/indramayu/bbd1e6461754a6bfa9eac26e6b717566,Mo-Fr 07:30-15:00; Sa 07:30-12:00,Western Union,Q861042
260d219f414bc18fe6c4963dccdde323,western_union,PEGADAIAN UPC KANDANGHAUR,,Indramayu,JAWA BARAT,,ID,+62 234 2629727,https://location.westernunion.com/id/jawa-barat/indramayu/260d219f414bc18fe6c4963dccdde323,Mo-Fr 07:30-15:00; Sa 07:30-12:00,Western Union,Q861042
519994f143cddcf075118dec90352ee6,western_union,PEGADAIAN UPS KARANGSINOM,,Indramayu,JAWA BARAT,,ID,+62 234 5508869,https://location.westernunion.com/id/jawa-barat/indramayu/519994f143cddcf075118dec90352ee6,Mo-Fr 07:30-15:00; Sa 07:30-12:00,Western Union,Q861042
b5091953b011c016250776da2f59a289,western_union,PEGADAIAN UPC PLUMBON,,Cirebon,JAWA BARAT,,ID,(+62) 23-8330184,https://location.westernunion.com/id/jawa-barat/cirebon/b5091953b011c016250776da2f59a289,Mo-Fr 07:30-15:00; Sa 07:30-12:00,Western Union,Q861042
c9c6732df25126a959647b7fb919d3b5,western_union,BANK BJB KK KERTASEMAYA,,Indramayu,JAWA BARAT,,ID,+62 234 271046,https://location.westernunion.com/id/jawa-barat/indramayu/c9c6732df25126a959647b7fb919d3b5,Mo-Fr 08:00-15:00,Western Union,Q861042
27731b3edbbf14a46d5a132a92894433,western_union,PT POS KPC KALIWEDI,,Cirebon,JAWA BARAT,,ID,+62 21 3511523,https://location.westernunion.com/id/jawa-barat/cirebon/27731b3edbbf14a46d5a132a92894433,Mo-Fr 09:00-15:00; Sa 09:00-12:00,Western Union,Q861042
a3ef3b038cb43f5140472e6c6f315823,western_union,KOPERASI PAYU 308,,Cirebon,JAWA BARAT,,ID,+62 812-1471-846,https://location.westernunion.com/id/jawa-barat/cirebon/a3ef3b038cb43f5140472e6c6f315823,Mo-Su 08:00-21:00,Western Union,Q861042
9714c454a3eef87af49e487d3bd5f24c,western_union,KOPERASI PAYU 552,,Cirebon,JAWA BARAT,,ID,+62 21 29475518,https://location.westernunion.com/id/jawa-barat/cirebon/9714c454a3eef87af49e487d3bd5f24c,Mo-Su 08:00-19:00,Western Union,Q861042
90b87eea21133ca78e6f1a6f31765412,western_union,KOPERASI PAYU 140,,Cirebon,JAWA BARAT,,ID,+62 823-2393-3333,https://location.westernunion.com/id/jawa-barat/cirebon/90b87eea21133ca78e6f1a6f31765412,Mo-Su 08:00-21:00,Western Union,Q861042
e6cea02778ca763db44eed2e00654f02,western_union,KOPERASI PAYU 145,,Cirebon,JAWA BARAT,,ID,+62 898-2011-133,https://location.westernunion.com/id/jawa-barat/cirebon/e6cea02778ca763db44eed2e00654f02,Mo-Su 08:00-21:00,Western Union,Q861042
b0462ce029166551211092cafe7a0b26,western_union,PEGADAIAN UPC PANJALIN,,Majalengka,JAWA BARAT,,ID,+62 233 373119,https://location.westernunion.com/id/jawa-barat/majalengka/b0462ce029166551211092cafe7a0b26,Mo-Fr 07:30-15:00; Sa 07:30-12:00,Western Union,Q861042
bdffd33d41fad1c13e659fdf19fd51fe,western_union,PEGADAIAN UPC GABUS WETAN,,Indramayu,JAWA BARAT,,ID,+62 234 5508527,https://location.westernunion.com/id/jawa-barat/indramayu/bdffd33d41fad1c13e659fdf19fd51fe,Mo-Fr 07:30-15:00; Sa 07:30-12:00,Western Union,Q861042
207a3dedc0bbe6f458e25d539ae9fcdd,western_union,PEGADAIAN UPC PALIMANAN,,Cirebon,JAWA BARAT,,ID,+62 231 869262,https://location.westernunion.com/id/jawa-barat/cirebon/207a3dedc0bbe6f458e25d539ae9fcdd,Mo-Fr 07:30-15:00; Sa 07:30-12:00,Western Union,Q861042
139e02a52e7035d81dbc2fc9268a8583,western_union,PEGADAIAN UPC PATROL,,Indramayu,JAWA BARAT,,ID,+62 22 4230178,https://location.westernunion.com/id/jawa-barat/indramayu/139e02a52e7035d81dbc2fc9268a8583,Mo-Fr 07:30-15:00; Sa 07:30-12:00,Western Union,Q861042
cd5fa0e462e49dd9ba78fd9620ea48e1,western_union,BANK BJB KCP CILIMUS,,Kuningan,JAWA BARAT,,ID,+62 232 613408,https://location.westernunion.com/id/jawa-barat/kuningan/cd5fa0e462e49dd9ba78fd9620ea48e1,Mo-Fr 08:00-15:00,Western Union,Q861042
f5d7a6483a01ffcb90b786a285c40508,western_union,KOPERASI PAYU 311,,Indramayu,JAWA BARAT,,ID,+62 896-6672-0068,https://location.westernunion.com/id/jawa-barat/indramayu/f5d7a6483a01ffcb90b786a285c40508,Mo-Su 08:00-21:00,Western Union,Q861042
3fd02c3f0ea1f57e39c7cbde2500beb9,western_union,PEGADAIAN UPC TERISI,,Indramayu,JAWA BARAT,,ID,+62 813-869-262,https://location.westernunion.com/id/jawa-barat/indramayu/3fd02c3f0ea1f57e39c7cbde2500beb9,Mo-Fr 07:30-15:00; Sa 07:30-12:00,Western Union,Q861042
0c3596578d2f1e1b792a4f0711b6edfc,western_union,PEGADAIAN UPC KRAMAT MULYA,,Kuningan,JAWA BARAT,,ID,+62 232 859565,https://location.westernunion.com/id/jawa-barat/kuningan/0c3596578d2f1e1b792a4f0711b6edfc,Mo-Fr 07:30-15:00; Sa 07:30-12:00,Western Union,Q861042
8e07964baf035b665f72de22b801724e,western_union,BANK BJB KK PUSAKANAGARA,,Subang,JAWA BARAT,,ID,(+62) 60-415142,https://location.westernunion.com/id/jawa-barat/subang/8e07964baf035b665f72de22b801724e,Mo-Fr 08:00-15:00,Western Union,Q861042
ef2234da711f486c271640900a3ccf31,western_union,PT REYHAN PUTRA MANDIRI REMITPRO,,Subang,JAWA BARAT,,ID,+62 823-1620-1331,https://location.westernunion.com/id/jawa-barat/subang/ef2234da711f486c271640900a3ccf31,Mo-Su 00:01-24:00,Western Union,Q861042
0959474c09dbf4a30bbeddf6974d1ddc,western_union,PEGADAIAN UPC RAJA GALUH,,Majalengka,JAWA BARAT,,ID,+62 22 4230178,https://location.westernunion.com/id/jawa-barat/majalengka/0959474c09dbf4a30bbeddf6974d1ddc,Mo-Fr 07:30-15:00; Sa 07:30-12:00,Western Union,Q861042
39054a4e9e8958ea7c7c2fbecc16a11c,western_union,PEGADAIAN UPC RANCASARI,,Subang,JAWA BARAT,,ID,+62 22 4230178,https://location.westernunion.com/id/jawa-barat/subang/39054a4e9e8958ea7c7c2fbecc16a11c,Mo-Fr 07:30-15:00; Sa 07:30-12:00,Western Union,Q861042
902f5fa0a338f98cadc0dc7c7a93777e,western_union,BANK BJB KK ERETAN,,Indramayu,JAWA BARAT,,ID,+62 234 5508595,https://location.westernunion.com/id/jawa-barat/indramayu/902f5fa0a338f98cadc0dc7c7a93777e,Mo-Fr 08:00-15:00,Western Union,Q861042
6e3e06bf56323eeda85240f6c377ab57,western_union,PEGADAIAN UPC KEMANTREN,,Cirebon,JAWA BARAT,,ID,+62 22 4230178,https://location.westernunion.com/id/jawa-barat/cirebon/6e3e06bf56323eeda85240f6c377ab57,Mo-Fr 07:30-15:00; Sa 07:30-12:00,Western Union,Q861042
86dbfac8d387026fbdd6d10a912a8aa6,western_union,PEGADAIAN UPC ANCARAN,,Kuningan,JAWA BARAT,,ID,+62 232 869262,https://location.westernunion.com/id/jawa-barat/kuningan/86dbfac8d387026fbdd6d10a912a8aa6,Mo-Fr 08:00-17:00; Sa 08:00-14:00,Western Union,Q861042
c48cb24be599a5a9fa073db1970ec1b8,western_union,KOPERASI PAYU 569,,Subang,JAWA BARAT,,ID,+62 21 29475518,https://location.westernunion.com/id/jawa-barat/subang/c48cb24be599a5a9fa073db1970ec1b8,Mo-Su 08:00-19:00,Western Union,Q861042
2e8fef10ac041d5570c191bdd97dfa75,western_union,PEGADAIAN UPS AWIRARANGAN,,Kuningan,JAWA BARAT,,ID,+62 232 879421,https://location.westernunion.com/id/jawa-barat/kuningan/2e8fef10ac041d5570c191bdd97dfa75,Mo-Fr 07:30-15:00; Sa 07:30-12:00,Western Union,Q861042
297e96b342a3b0c7cf178b67b748036b,western_union,BANK BJB KK WAROENG KROYA,,Indramayu,JAWA BARAT,,ID,+62 234 7100232,https://location.westernunion.com/id/jawa-barat/indramayu/297e96b342a3b0c7cf178b67b748036b,Mo-Fr 08:00-15:00,Western Union,Q861042
eaa6e39f4783cedbb6bdd4a9edf1fddc,western_union,PT POS KPC CABANG BUNGIN,,Bekasi,JAWA BARAT,,ID,+62 21 89180521,https://location.westernunion.com/id/jawa-barat/bekasi/eaa6e39f4783cedbb6bdd4a9edf1fddc,Mo-Fr 09:00-15:00; Sa 09:00-12:00,Western Union,Q861042
99047b6a889721f5d5d058ab42dc87f0,western_union,PEGADAIAN UPC HAURGEULIS,,Indramayu,JAWA BARAT,,ID,+62 234 2629727,https://location.westernunion.com/id/jawa-barat/indramayu/99047b6a889721f5d5d058ab42dc87f0,Mo-Fr 07:30-15:00; Sa 07:30-12:00,Western Union,Q861042
fde07704bfffb6f3be406041474d322c,western_union,KOPERASI PAYU 31,,Indramayu,JAWA BARAT,,ID,+62 818-0423-4534,https://location.westernunion.com/id/jawa-barat/indramayu/fde07704bfffb6f3be406041474d322c,Mo-Su 08:00-21:00,Western Union,Q861042
8c1e8e501c93ed34b37cee223b70d1d6,western_union,PT POS LE CIBOGO,,Subang,JAWA BARAT,,ID,+62 260 411606,https://location.westernunion.com/id/jawa-barat/subang/8c1e8e501c93ed34b37cee223b70d1d6,Mo-Fr 09:00-15:00; Sa 09:00-12:00,Western Union,Q861042
698063a3ab79a27692adc93062e046a5,western_union,BINA PUTRA SADAYA RENGASDENGKLOK,,Karawang,JAWA BARAT,,ID,+62 265 53164,https://location.westernunion.com/id/jawa-barat/karawang/698063a3ab79a27692adc93062e046a5,Mo-Su 06:00-24:00,Western Union,Q861042
b3939cce12fdc3f75e128c3aed96b69a,western_union,PEGADAIAN UPC LAMARAN,,Karawang,JAWA BARAT,,ID,(+62) 569718650,https://location.westernunion.com/id/jawa-barat/karawang/b3939cce12fdc3f75e128c3aed96b69a,Mo-Fr 07:30-15:00; Sa 07:30-12:00,Western Union,Q861042
55683933b4a8d6063360e2d46e6892ee,western_union,PEGADAIAN UPC CIKALONG PASAR,,Bandung,JAWA BARAT,,ID,+62 22 4230178,https://location.westernunion.com/id/jawa-barat/bandung/55683933b4a8d6063360e2d46e6892ee,Mo-Fr 07:30-15:00; Sa 07:30-12:00,Western Union,Q861042
8a30eaa236560c1e40383a4366d97bd5,western_union,PT MADAME EXPRESS REMITINDO KRW RENGAS,,Karawang,JAWA BARAT,,ID,+62 856-9237-3279,https://location.westernunion.com/id/jawa-barat/karawang/8a30eaa236560c1e40383a4366d97bd5,Mo-Su 08:00-21:00,Western Union,Q861042
302924096ff59e16bee1fb839cc61eab,western_union,PT POS MPS SUBANG 1,,Subang,JAWA BARAT,,ID,+62 260 453319,https://location.westernunion.com/id/jawa-barat/subang/302924096ff59e16bee1fb839cc61eab,Mo-Fr 09:00-15:00; Sa 09:00-12:00,Western Union,Q861042
e94f3776cf1c018ed4b52412009b1950,western_union,KOPERASI PAYU 560,,Indramayu,JAWA BARAT,,ID,+62 21 29475518,https://location.westernunion.com/id/jawa-barat/indramayu/e94f3776cf1c018ed4b52412009b1950,Mo-Su 08:00-19:00,Western Union,Q861042
935a938e3c2d0da1cfe90564ad87d806,western_union,PT POS KPC MUARA GEMBONG,,Bekasi,JAWA BARAT,,ID,+62 251 648242,https://location.westernunion.com/id/jawa-barat/bekasi/935a938e3c2d0da1cfe90564ad87d806,Mo-Fr 09:00-15:00; Sa 09:00-12:00,Western Union,Q861042
6ce1d528b89604e382fd51a2bca020ba,western_union,KOPERASI PAYU 565,,Karawang,JAWA BARAT,,ID,+62 21 29475518,https://location.westernunion.com/id/jawa-barat/karawang/6ce1d528b89604e382fd51a2bca020ba,Mo-Su 08:00-19:00,Western Union,Q861042
b6e707a0d8db6fb27db19c50ceb37134,western_union,TSURAYA DEPO GOSELLPAY BOLANG,,Karawang,JAWA BARAT,,ID,+62 856-9719-1979,https://location.westernunion.com/id/jawa-barat/karawang/b6e707a0d8db6fb27db19c50ceb37134,Mo-Su 07:00-21:00,Western Union,Q861042
5f4642e35ec09063eba1b41fe901dc46,western_union,KOPERASI PAYU 65,,Sukabumi,JAWA BARAT,,ID,+62 812-8885-0574,https://location.westernunion.com/id/jawa-barat/sukabumi/5f4642e35ec09063eba1b41fe901dc46,Mo-Su 08:00-21:00,Western Union,Q861042
5950e18c8c5a40db6bf6913e876a3057,western_union,KOPERASI PAYU 322,,Karawang,JAWA BARAT,,ID,+62 812-3456-1456,https://location.westernunion.com/id/jawa-barat/karawang/5950e18c8c5a40db6bf6913e876a3057,Mo-Su 08:00-21:00,Western Union,Q861042
c83579df4ae6c89c7100c444e252fdbb,western_union,PEGADAIAN UPC BLANAKAN,,Subang,JAWA BARAT,,ID,+62 260 892667,https://location.westernunion.com/id/jawa-barat/subang/c83579df4ae6c89c7100c444e252fdbb,Mo-Fr 07:30-15:00; Sa 07:30-12:00,Western Union,Q861042
73dfa52ee1f5bad9d48fc298b71c7f8d,western_union,PT POS KPC KUTAWALUYA,,Karawang,JAWA BARAT,,ID,+62 856-8715-410,https://location.westernunion.com/id/jawa-barat/karawang/73dfa52ee1f5bad9d48fc298b71c7f8d,Mo-Fr 09:00-15:00; Sa 09:00-12:00,Western Union,Q861042
29dc3222c700743d5897b53ec35636df,western_union,KOPERASI PAYU 4,,Karawang,JAWA BARAT,,ID,+62 858-9012-8813,https://location.westernunion.com/id/jawa-barat/karawang/29dc3222c700743d5897b53ec35636df,Mo-Su 08:00-21:00,Western Union,Q861042
2dee4a6355e0787b64bfa37ad8ffe378,western_union,KOPERASI PAYU 302,,Karawang,JAWA BARAT,,ID,+62 812-8440-3705,https://location.westernunion.com/id/jawa-barat/karawang/2dee4a6355e0787b64bfa37ad8ffe378,Mo-Su 08:00-21:00,Western Union,Q861042
7fd9ede4caecf634f833b876c999cd3c,western_union,KOPERASI PAYU 304,,Karawang,JAWA BARAT,,ID,+62 813-2408-7048,https://location.westernunion.com/id/jawa-barat/karawang/7fd9ede4caecf634f833b876c999cd3c,Mo-Su 08:00-21:00,Western Union,Q861042
2a8e9ebec7fdb13a3fcd1ea115364594,western_union,TSURAYA DEPO GOSELLPAY RENGASJY,,Karawang,JAWA BARAT,,ID,+62 895-3428-44881,https://location.westernunion.com/id/jawa-barat/karawang/2a8e9ebec7fdb13a3fcd1ea115364594,Mo-Su 07:00-21:00,Western Union,Q861042
b998869ac874b483be202811d70be188,western_union,KOPERASI PAYU 368,,Karawang,JAWA BARAT,,ID,+62 21 29475518,https://location.westernunion.com/id/jawa-barat/karawang/b998869ac874b483be202811d70be188,Mo-Su 08:00-21:00,Western Union,Q861042
c5c2ea8867dd0872a36b20a21df04868,western_union,KOPERASI PAYU 572,,Serang,JAWA BARAT,,ID,+62 21 29475518,https://location.westernunion.com/id/jawa-barat/serang/c5c2ea8867dd0872a36b20a21df04868,Mo-Su 08:00-19:00,Western Union,Q861042
077ff12e781ab152cf4e656bfd26c4b2,western_union,KOPERASI PAYU 299,,Subang,JAWA BARAT,,ID,+62 896-3030-6455,https://location.westernunion.com/id/jawa-barat/subang/077ff12e781ab152cf4e656bfd26c4b2,Mo-Su 08:00-21:00,Western Union,Q861042
c6546801b2bd4b46806f2cb32b190b2d,western_union,KOPERASI PAYU 11,,Karawang,JAWA BARAT,,ID,+62 821-2086-9199,https://location.westernunion.com/id/jawa-barat/karawang/c6546801b2bd4b46806f2cb32b190b2d,Mo-Su 08:00-21:00,Western Union,Q861042
12b7ccd7cf2c26d1ee4b6197585308b1,western_union,PT POS KPC BANYUSARI,,Karawang,JAWA BARAT,,ID,+62 857-1421-5066,https://location.westernunion.com/id/jawa-barat/karawang/12b7ccd7cf2c26d1ee4b6197585308b1,Mo-Fr 09:00-15:00; Sa 09:00-12:00,Western Union,Q861042
836ae36cdf6510b3ec26b32633b2632e,western_union,PEGADAIAN UPC CIASEM,,Subang,JAWA BARAT,,ID,+62 22 4230178,https://location.westernunion.com/id/jawa-barat/subang/836ae36cdf6510b3ec26b32633b2632e,Mo-Fr 07:30-15:00; Sa 07:30-12:00,Western Union,Q861042
0d7cd266d82376fb1f6bee41bea4f9bf,western_union,KOPERASI PAYU 571,,Tangerang,JAWA BARAT,,ID,+62 21 29475518,https://location.westernunion.com/id/jawa-barat/tangerang/0d7cd266d82376fb1f6bee41bea4f9bf,Mo-Su 08:00-19:00,Western Union,Q861042
6f5b7b22efc45d94032321433bf4f1b2,western_union,KOPERASI PAYU 10,,Karawang,JAWA BARAT,,ID,+62 812-8520-5608,https://location.westernunion.com/id/jawa-barat/karawang/6f5b7b22efc45d94032321433bf4f1b2,Mo-Su 08:00-21:00,Western Union,Q861042
9e29512bb2e6c36e09ffb99690e0fc11,western_union,KOPERASI PAYU 570,,Tangerang,JAWA BARAT,,ID,+62 21 29475518,https://location.westernunion.com/id/jawa-barat/tangerang/9e29512bb2e6c36e09ffb99690e0fc11,Mo-Su 08:00-19:00,Western Union,Q861042
101cf2ffba08a651091eee026d3562b7,western_union,BSI KCP BANJAR SUWARTO,,Banjar,JAWA BARAT,,ID,+62 21 70332098,https://location.westernunion.com/id/jawa-barat/banjar/101cf2ffba08a651091eee026d3562b7,Mo-Fr 07:00-18:00,Western Union,Q861042
3f55cf6ed2bd1a1a7dfa469b0ebdb45d,western_union,PEGADAIAN UPC GEMPOL,,Karawang,JAWA BARAT,,ID,+62 856-8611-969,https://location.westernunion.com/id/jawa-barat/karawang/3f55cf6ed2bd1a1a7dfa469b0ebdb45d,Mo-Fr 07:30-15:00; Sa 07:30-12:00,Western Union,Q861042
22f98cb481972ec83e87b14a1b20586a,western_union,PEGADAIAN UPS CIKIJING,,Majalengka,JAWA BARAT,,ID,+62 233 318408,https://location.westernunion.com/id/jawa-barat/majalengka/22f98cb481972ec83e87b14a1b20586a,Mo-Fr 07:30-15:00; Sa 07:30-12:00,Western Union,Q861042
ba5f3e1f1ab4ff1cfa2f23871f8bd6dd,western_union,PT POS MPS 02 MAJALENGKA,,Majalengka,JAWA BARAT,,ID,+62 822-1420-4474,https://location.westernunion.com/id/jawa-barat/majalengka/ba5f3e1f1ab4ff1cfa2f23871f8bd6dd,Mo-Sa 08:00-16:00,Western Union,Q861042
171b67e248751fe5bc94a0e407cc7d54,western_union,KOPERASI PAYU 16,,Indramayu,JAWA BARAT,,ID,+62 812-2259-705,https://location.westernunion.com/id/jawa-barat/indramayu/171b67e248751fe5bc94a0e407cc7d54,Mo-Su 08:00-21:00,Western Union,Q861042
c572f2de19e413d5fefd43bcf1e93d01,western_union,BANK BJB KC MAJALENGKA,,Majalengka,JAWA BARAT,,ID,+62 233 511227,https://location.westernunion.com/id/jawa-barat/majalengka/c572f2de19e413d5fefd43bcf1e93d01,Mo-Fr 08:00-15:00,Western Union,Q861042
c1505a293af2c7e6d3610e4c8be9985f,western_union,PEGADAIAN UPC PASAR WADAS,,Karawang,JAWA BARAT,,ID,+62 21 3505151,https://location.westernunion.com/id/jawa-barat/karawang/c1505a293af2c7e6d3610e4c8be9985f,Mo-Fr 07:30-15:00; Sa 07:30-12:00,Western Union,Q861042
9bebe63b3772d8f1a025cc38dc77befa,western_union,PEGADAIAN UPC PURI HARAPAN,,Bekasi,JAWA BARAT,,ID,+62 21 3840229,https://location.westernunion.com/id/jawa-barat/bekasi/9bebe63b3772d8f1a025cc38dc77befa,Mo-Fr 08:00-17:00; Sa 08:00-14:00,Western Union,Q861042
5740e75185e0408d10488fd4695f8928,western_union,BANK BJB KCP BABELAN,,Bekasi,JAWA BARAT,,ID,+62 21 8903128,https://location.westernunion.com/id/jawa-barat/bekasi/5740e75185e0408d10488fd4695f8928,Mo-Fr 07:00-19:00,Western Union,Q861042
023ff8016b760d53cceb479716747d51,western_union,KOPERASI PAYU 98,,Karawang,JAWA BARAT,,ID,+62 878-8885-5355,https://location.westernunion.com/id/jawa-barat/karawang/023ff8016b760d53cceb479716747d51,Mo-Su 08:00-21:00,Western Union,Q861042
83d6cd467fa6742ff119d279dab30ee8,western_union,KOPERASI PAYU 100,,Bandung Barat,JAWA BARAT,,ID,+62 896-4400-0087,https://location.westernunion.com/id/jawa-barat/bandung-barat/83d6cd467fa6742ff119d279dab30ee8,Mo-Su 08:00-21:00,Western Union,Q861042
a41d98cfc96aeb6de9c21d897a928622,western_union,BINA PUTRA SADAYA CIANJUR,,Karawang,JAWA BARAT,,ID,+62 852-9580-7089,https://location.westernunion.com/id/jawa-barat/karawang/a41d98cfc96aeb6de9c21d897a928622,Mo-Su 06:00-24:00,Western Union,Q861042
55978cb03c1aeb34656f914cc094e166,western_union,BANK BJB KK PAMARICAN,,Banjar,JAWA BARAT,,ID,+62 265 743216,https://location.westernunion.com/id/jawa-barat/banjar/55978cb03c1aeb34656f914cc094e166,Mo-Fr 07:00-19:00,Western Union,Q861042
3009e2a84cc9c60cd2750f0242b2d8b8,western_union,PT POS KPC SETIAASIH,,Bekasi,JAWA BARAT,,ID,+62 21 3511523,https://location.westernunion.com/id/jawa-barat/bekasi/3009e2a84cc9c60cd2750f0242b2d8b8,Mo-Fr 09:00-15:00; Sa 09:00-12:00,Western Union,Q861042
097c4f4a935d586ea2166d9e36f2d08e,western_union,BRI UNIT SUKRA INDRAMAYU,,Indramayu,JAWA BARAT,,ID,+62 234 610400,https://location.westernunion.com/id/jawa-barat/indramayu/097c4f4a935d586ea2166d9e36f2d08e,Mo-Fr 08:00-15:00,Western Union,Q861042
108703b53612d4d8a8736c060b8d2480,western_union,PEGADAIAN UPC TAMAN HARAPAN,,Bekasi,JAWA BARAT,,ID,+62 21 88983875,https://location.westernunion.com/id/jawa-barat/bekasi/108703b53612d4d8a8736c060b8d2480,Mo-Fr 07:30-15:00; Sa 07:30-12:00,Western Union,Q861042
cb4e560fd2534666841b14112682ccdc,western_union,PEGADAIAN UPC CIKALONG SARI,,Karawang,JAWA BARAT,,ID,+62 813-3019-2793,https://location.westernunion.com/id/jawa-barat/karawang/cb4e560fd2534666841b14112682ccdc,Mo-Fr 07:30-15:00; Sa 07:30-12:00,Western Union,Q861042
4283196fa56c560d180fb8fb04c27a00,western_union,KOPERASI PAYU 296,,Karawang,JAWA BARAT,,ID,+62 878-6519-0531,https://location.westernunion.com/id/jawa-barat/karawang/4283196fa56c560d180fb8fb04c27a00,Mo-Su 08:00-21:00,Western Union,Q861042
3ddde39cca708b65f85f4dfd727d43fa,western_union,PEGADAIAN UPC PASAR PURWADADI,,Subang,JAWA BARAT,,ID,+62 260 328188,https://location.westernunion.com/id/jawa-barat/subang/3ddde39cca708b65f85f4dfd727d43fa,Mo-Fr 07:30-15:00; Sa 07:30-12:00,Western Union,Q861042
09b43dc646f2b27e892daa34a753a31a,western_union,PEGADAIAN UPC UNGU PERMAI,,Bekasi,JAWA BARAT,,ID,+62 21 3507075,https://location.westernunion.com/id/jawa-barat/bekasi/09b43dc646f2b27e892daa34a753a31a,Mo-Fr 07:30-15:00; Sa 07:30-12:00,Western Union,Q861042
00eb05e20ef2641e5e29f6b55c7a9886,western_union,PEGADAIAN UPC MARRAKASH,,Bekasi,JAWA BARAT,,ID,+62 21 88983404,https://location.westernunion.com/id/jawa-barat/bekasi/00eb05e20ef2641e5e29f6b55c7a9886,Mo-Fr 07:30-15:00; Sa 07:30-12:00,Western Union,Q861042
b5fca45405c04bba4da2a55ea446423a,western_union,BANK BJB KCP MEDAN SATRIA,,Bekasi,JAWA BARAT,,ID,+62 21 88882304,https://location.westernunion.com/id/jawa-barat/bekasi/b5fca45405c04bba4da2a55ea446423a,Mo-Fr 08:00-15:00,Western Union,Q861042
e70e46b3a48ad46845c556759e3d8f22,western_union,BANK BJB KCP MEDAN SATRIA,,Bekasi,JAWA BARAT,,ID,+62 21 88882305,https://location.westernunion.com/id/jawa-barat/bekasi/e70e46b3a48ad46845c556759e3d8f22,Mo-Fr 07:00-19:00,Western Union,Q861042
ea9e9b0659c55b7ae19ebf257d288159,western_union,PEGADAIAN UPC PEJUANG,,Bekasi,JAWA BARAT,,ID,+62 21 88882190,https://location.westernunion.com/id/jawa-barat/bekasi/ea9e9b0659c55b7ae19ebf257d288159,Mo-Fr 07:30-15:00; Sa 07:30-12:00,Western Union,Q861042
9d21f82e92068978bcaae5841d4b97f0,western_union,PEGADAIAN CPS PLAZA THB,,Bekasi,JAWA BARAT,,ID,+62 21 88879549,https://location.westernunion.com/id/jawa-barat/bekasi/9d21f82e92068978bcaae5841d4b97f0,Mo-Fr 07:30-15:00; Sa 07:30-12:30,Western Union,Q861042
f46226a3cc5368ebbace29383e1908a6,western_union,PT POS LE TARUMAJAYA,,Bogor,JAWA BARAT,,ID,+62 21 8808166,https://location.westernunion.com/id/jawa-barat/bogor/f46226a3cc5368ebbace29383e1908a6,Mo-Fr 09:00-15:00; Sa 09:00-12:00,Western Union,Q861042
f47700772c6001cd721d313e6a738ef3,western_union,PT POS LE TAMBUNUTARA,,Bekasi,JAWA BARAT,,ID,+62 21 3511523,https://location.westernunion.com/id/jawa-barat/bekasi/f47700772c6001cd721d313e6a738ef3,Mo-Fr 09:00-15:00; Sa 09:00-12:00,Western Union,Q861042
c4ccb10f282a02844812dd7ead4f1857,western_union,KOPERASI PAYU 564,,Cirebon,JAWA BARAT,,ID,+62 21 29475518,https://location.westernunion.com/id/jawa-barat/cirebon/c4ccb10f282a02844812dd7ead4f1857,Mo-Su 08:00-19:00,Western Union,Q861042
909649d0647f48831dc48be519d172de,western_union,PEGADAIAN UPC WIBAWA MUKTI,,Bekasi,JAWA BARAT,,ID,+62 21 91304203,https://location.westernunion.com/id/jawa-barat/bekasi/909649d0647f48831dc48be519d172de,Mo-Fr 07:30-15:00; Sa 07:30-12:00,Western Union,Q861042
50678084031bd2a4311ddeae02278f72,western_union,PEGADAIAN UPC TELAGASARI,,Karawang,JAWA BARAT,,ID,+62 21 3505151,https://location.westernunion.com/id/jawa-barat/karawang/50678084031bd2a4311ddeae02278f72,Mo-Fr 07:30-15:00; Sa 07:30-12:30,Western Union,Q861042
fe9586262d5ddd831f0a9b8c3ed62c2b,western_union,PT POS KPC KEDUNG WARINGIN,,Bekasi,JAWA BARAT,,ID,+62 21 89143106,https://location.westernunion.com/id/jawa-barat/bekasi/fe9586262d5ddd831f0a9b8c3ed62c2b,Mo-Fr 09:00-15:00; Sa 09:00-12:00,Western Union,Q861042
73a554fda5aec5a7bdd0ca284d146405,western_union,PEGADAIAN UPC JATISARI,,Karawang,JAWA BARAT,,ID,+62 21 3505151,https://location.westernunion.com/id/jawa-barat/karawang/73a554fda5aec5a7bdd0ca284d146405,Mo-Fr 07:30-15:00; Sa 07:30-12:00,Western Union,Q861042
87c7f71bbafcc2bd9bc04dc5772c0622,western_union,MAYBANK KCP HARAPAN INDAH,,Bekasi,JAWA BARAT,,ID,+62 21 88387039,https://location.westernunion.com/id/jawa-barat/bekasi/87c7f71bbafcc2bd9bc04dc5772c0622,Mo-Fr 08:00-17:00,Western Union,Q861042
2e6ae4757a279cdf6be47f9086fbdf2c,western_union,PEGADAIAN UPC BOULEVARD HIJAU,,Bekasi,JAWA BARAT,,ID,+62 21 88386857,https://location.westernunion.com/id/jawa-barat/bekasi/2e6ae4757a279cdf6be47f9086fbdf2c,Mo-Fr 07:30-15:00; Sa 07:30-12:00,Western Union,Q861042
8504a25d74ad1bc7966d39b167feeb1a,western_union,PEGADAIAN UPC KEBALEN,,Bekasi,JAWA BARAT,,ID,+62 21 89137358,https://location.westernunion.com/id/jawa-barat/bekasi/8504a25d74ad1bc7966d39b167feeb1a,Mo-Fr 07:30-15:00; Sa 07:30-12:00,Western Union,Q861042
273f870ee2bf798536c7cac37095cedb,western_union,PEGADAIAN UPC TANJUNG PURA,,Karawang,JAWA BARAT,,ID,+62 21 3840229,https://location.westernunion.com/id/jawa-barat/karawang/273f870ee2bf798536c7cac37095cedb,Mo-Fr 07:30-15:00; Sa 07:30-12:00,Western Union,Q861042
5b54126c741f87fd005a2f2b1e6b1c98,western_union,PEGADAIAN UPC VILA NUSA INDAH,,Bekasi,JAWA BARAT,,ID,+62 21 3505151,https://location.westernunion.com/id/jawa-barat/bekasi/5b54126c741f87fd005a2f2b1e6b1c98,Mo-Fr 07:30-15:00; Sa 07:30-12:00,Western Union,Q861042
475b06331cf6ad3aa1dd18b5412d54ab,western_union,PEGADAIAN UPC TELUK PUCUNG,,Bekasi,JAWA BARAT,,ID,+62 21 88882283,https://location.westernunion.com/id/jawa-barat/bekasi/475b06331cf6ad3aa1dd18b5412d54ab,Mo-Fr 07:30-15:00; Sa 07:30-12:00,Western Union,Q861042
918f06ad532fe753937114085d0054b7,western_union,PEGADAIAN UPC SUKAMANTRI,,Bekasi,JAWA BARAT,,ID,+62 21 3840229,https://location.westernunion.com/id/jawa-barat/bekasi/918f06ad532fe753937114085d0054b7,Mo-Fr 07:30-15:00; Sa 07:30-12:00,Western Union,Q861042
7398989e3e855a8c40affafc18107004,western_union,PEGADAIAN UPC KAWALI,,Ciamis,JAWA BARAT,,ID,+62 265 373119,https://location.westernunion.com/id/jawa-barat/ciamis/7398989e3e855a8c40affafc18107004,Mo-Fr 07:30-15:00; Sa 07:30-12:00,Western Union,Q861042
8ad912f6e506f0986055bccb022ef1cf,western_union,PEGADAIAN UPC RAWA SILEM,,Bekasi,JAWA BARAT,,ID,+62 21 88882407,https://location.westernunion.com/id/jawa-barat/bekasi/8ad912f6e506f0986055bccb022ef1cf,Mo-Fr 07:30-15:00; Sa 07:30-12:00,Western Union,Q861042
2242e19e82e8ee8c0861f0380bdaa7a4,western_union,KOPERASI PAYU 137,,Subang,JAWA BARAT,,ID,+62 877-7888-6317,https://location.westernunion.com/id/jawa-barat/subang/2242e19e82e8ee8c0861f0380bdaa7a4,Mo-Su 08:00-21:00,Western Union,Q861042
13611a46f4f9b67ef97a9311deae929f,western_union,BRI UNIT KESAMBI CIREBON,,Cirebon,JAWA BARAT,,ID,+62 231 202136,https://location.westernunion.com/id/jawa-barat/cirebon/13611a46f4f9b67ef97a9311deae929f,Mo-Fr 08:00-15:00,Western Union,Q861042
d08df233703fe4ec23cd832e066ed334,western_union,PEGADAIAN CP HARAPAN INDAH,,Bekasi,JAWA BARAT,,ID,+62 21 88881103,https://location.westernunion.com/id/jawa-barat/bekasi/d08df233703fe4ec23cd832e066ed334,Mo-Fr 07:30-15:00; Sa 07:30-12:30,Western Union,Q861042
cfd121d4f9c35ea78a6e0fc0954adeb3,western_union,PT POS KPC BEKASI JAYA,,Bekasi,JAWA BARAT,,ID,+62 21 88350763,https://location.westernunion.com/id/jawa-barat/bekasi/cfd121d4f9c35ea78a6e0fc0954adeb3,Mo-Fr 09:00-15:00; Sa 09:00-12:00,Western Union,Q861042
3fd70e260ef0ae476b581fe4f081fdfc,western_union,PEGADAIAN UPS GRAHA MAS,,Bekasi,JAWA BARAT,,ID,+62 21 89845310,https://location.westernunion.com/id/jawa-barat/bekasi/3fd70e260ef0ae476b581fe4f081fdfc,Mo-Fr 07:30-15:00; Sa 07:30-12:00,Western Union,Q861042
d48f26e3066d572b2b1ed5350a666722,western_union,PEGADAIAN UPC VILA INDAH PERMAI,,Bekasi,JAWA BARAT,,ID,+62 21 88882182,https://location.westernunion.com/id/jawa-barat/bekasi/d48f26e3066d572b2b1ed5350a666722,Mo-Fr 07:30-15:00; Sa 07:30-12:00,Western Union,Q861042
e3267b4d75e24f745485b659b92ae169,western_union,PT POS KPC BEKASI PONDOK UNGU,,Bekasi,JAWA BARAT,,ID,+62 21 3511523,https://location.westernunion.com/id/jawa-barat/bekasi/e3267b4d75e24f745485b659b92ae169,Mo-Fr 09:00-15:00; Sa 09:00-12:00,Western Union,Q861042
7c109a9a7c52c8fb5e7a02ec617e32e9,western_union,PEGADAIAN UPC KALIABANG PAKU,,Bekasi,JAWA BARAT,,ID,+62 21 88982906,https://location.westernunion.com/id/jawa-barat/bekasi/7c109a9a7c52c8fb5e7a02ec617e32e9,Mo-Fr 07:30-15:00; Sa 07:30-12:00,Western Union,Q861042
8fdf99a4d1f5293cb64b4bfda5df7950,western_union,PEGADAIAN UPC SEROJA,,Bekasi,JAWA BARAT,,ID,+62 21 3840229,https://location.westernunion.com/id/jawa-barat/bekasi/8fdf99a4d1f5293cb64b4bfda5df7950,Mo-Fr 07:30-15:00; Sa 07:30-12:00,Western Union,Q861042
e0865eed5ba75d18cd6f306b5da88631,western_union,PEGADAIAN UPS ALAMANDA,,Bekasi,JAWA BARAT,,ID,+62 21 88375717,https://location.westernunion.com/id/jawa-barat/bekasi/e0865eed5ba75d18cd6f306b5da88631,Mo-Su 07:30-21:00,Western Union,Q861042
da8021053d7e984f9732856349612ec6,western_union,PEGADAIAN UPC KALIABANG NANGKA,,Bekasi,JAWA BARAT,,ID,+62 21 3505151,https://location.westernunion.com/id/jawa-barat/bekasi/da8021053d7e984f9732856349612ec6,Mo-Fr 07:30-15:00; Sa 07:30-12:00,Western Union,Q861042
12bde5a5d1484f4927257443d8b43193,western_union,PEGADAIAN UPC HARAPAN JAYA,,Bekasi,JAWA BARAT,,ID,+62 21 3505151,https://location.westernunion.com/id/jawa-barat/bekasi/12bde5a5d1484f4927257443d8b43193,Mo-Fr 07:30-15:00; Sa 07:30-12:00,Western Union,Q861042
efea383ce54ea8cf39da73b0a98b02e9,western_union,PEGADAIAN UPC HARAPAN BARU,,Bekasi,JAWA BARAT,,ID,+62 21 88851996,https://location.westernunion.com/id/jawa-barat/bekasi/efea383ce54ea8cf39da73b0a98b02e9,Mo-Fr 07:30-15:00; Sa 07:30-12:00,Western Union,Q861042
94d32e094b1859f2142327d9844c1d0b,western_union,PEGADAIAN UPC PASAR PAMOR,,Bekasi,JAWA BARAT,,ID,+62 21 3840229,https://location.westernunion.com/id/jawa-barat/bekasi/94d32e094b1859f2142327d9844c1d0b,Mo-Fr 07:30-15:00; Sa 07:30-12:00,Western Union,Q861042
18e3a011aead36b69ae4879f0ee79d61,western_union,BANK BJB KCP SUKATANI,,Bekasi,JAWA BARAT,,ID,+62 21 89160270,https://location.westernunion.com/id/jawa-barat/bekasi/18e3a011aead36b69ae4879f0ee79d61,Mo-Fr 08:00-15:00,Western Union,Q861042
c1e81ebef155d1bada81c5b6ada266df,western_union,PEGADAIAN UPC VILA MUTIARA GADING,,Bekasi,JAWA BARAT,,ID,+62 21 93738672,https://location.westernunion.com/id/jawa-barat/bekasi/c1e81ebef155d1bada81c5b6ada266df,Mo-Fr 07:30-15:00; Sa 07:30-12:00,Western Union,Q861042
612331edf2bc444084ac35ca2686ce41,western_union,PEGADAIAN UPS SYARIAH JOHAR,,Karawang,JAWA BARAT,,ID,+62 267 404700,https://location.westernunion.com/id/jawa-barat/karawang/612331edf2bc444084ac35ca2686ce41,Mo-Su 07:00-21:00,Western Union,Q861042
a88263908765a13ac3d07657a8970bde,western_union,PEGADAIAN UPC TABRANI,,Bekasi,JAWA BARAT,,ID,+62 21 88984702,https://location.westernunion.com/id/jawa-barat/bekasi/a88263908765a13ac3d07657a8970bde,Mo-Fr 07:30-15:00; Sa 07:30-12:00,Western Union,Q861042
c81279d690779efcdeba98c12363425f,western_union,PEGADAIAN UPC KARANG SATRIA,,Bekasi,JAWA BARAT,,ID,+62 21 3505151,https://location.westernunion.com/id/jawa-barat/bekasi/c81279d690779efcdeba98c12363425f,Mo-Fr 07:30-15:00; Sa 07:30-12:00,Western Union,Q861042
ed1077ae2ae49f2fe22949680d688288,western_union,PEGADAIAN UPC TRIDAYA,,Bekasi,JAWA BARAT,,ID,+62 21 88338927,https://location.westernunion.com/id/jawa-barat/bekasi/ed1077ae2ae49f2fe22949680d688288,Mo-Fr 07:30-15:00; Sa 07:30-12:00,Western Union,Q861042
53c0932ff79a7c86a5dbf89320f7b39b,western_union,PEGADAIAN UPC NAGASARI,,Karawang,JAWA BARAT,,ID,+62 813-881-134,https://location.westernunion.com/id/jawa-barat/karawang/53c0932ff79a7c86a5dbf89320f7b39b,Mo-Fr 08:00-17:00; Sa 08:00-14:00,Western Union,Q861042
ea2427187b33914d448c20e62b689423,western_union,PEGADAIAN UPC WISMA ASRI,,Bekasi,JAWA BARAT,,ID,+62 21 88983946,https://location.westernunion.com/id/jawa-barat/bekasi/ea2427187b33914d448c20e62b689423,Mo-Fr 07:30-15:00; Sa 07:30-12:00,Western Union,Q861042
f528045637d74c9c9fe8746369e8fb28,western_union,PEGADAIAN UPS PERJUANGAN BARU,,Bekasi,JAWA BARAT,,ID,+62 21 88967100,https://location.westernunion.com/id/jawa-barat/bekasi/f528045637d74c9c9fe8746369e8fb28,Mo-Su 07:30-21:00,Western Union,Q861042
724458cc4b0b24c8560af63d2d080e15,western_union,PT POS KPC BEKASI PERWIRA,,Bekasi,JAWA BARAT,,ID,+62 21 3511523,https://location.westernunion.com/id/jawa-barat/bekasi/724458cc4b0b24c8560af63d2d080e15,Mo-Fr 09:00-15:00; Sa 09:00-12:00,Western Union,Q861042
3cc6a34ad64c6a8418d06cea7949a354,western_union,PEGADAIAN UPS KARTINI,,Bekasi,JAWA BARAT,,ID,+62 21 88347663,https://location.westernunion.com/id/jawa-barat/bekasi/3cc6a34ad64c6a8418d06cea7949a354,Mo-Fr 07:30-15:00; Sa 07:30-12:00,Western Union,Q861042
7287905aa97d3825b8c9e0e436746a08,western_union,PEGADAIAN UPC PASAR WATES,,Subang,JAWA BARAT,,ID,+62 260 892667,https://location.westernunion.com/id/jawa-barat/subang/7287905aa97d3825b8c9e0e436746a08,Mo-Fr 07:30-15:00; Sa 07:30-12:00,Western Union,Q861042
d36cf3c70e6bc162b9e1e9d194817847,western_union,PT POS KPC LEMAHABANG,,Bekasi,JAWA BARAT,,ID,+62 21 8900027,https://location.westernunion.com/id/jawa-barat/bekasi/d36cf3c70e6bc162b9e1e9d194817847,Mo-Fr 09:00-15:00; Sa 09:00-12:00,Western Union,Q861042
7b7ff0b19b535e2b70dea060385b0f7a,western_union,PT POS LE SIMPANG JOMIN,,Karawang,JAWA BARAT,,ID,+62 22 4207081,https://location.westernunion.com/id/jawa-barat/karawang/7b7ff0b19b535e2b70dea060385b0f7a,Mo-Fr 09:00-15:00; Sa 09:00-12:00,Western Union,Q861042
6e5dff87104d545a21a98160a5d93393,western_union,PEGADAIAN UPS TUPAREV KARAWANG,,Karawang,JAWA BARAT,,ID,+62 267 8451657,https://location.westernunion.com/id/jawa-barat/karawang/6e5dff87104d545a21a98160a5d93393,Mo-Fr 07:30-15:00; Sa 07:30-12:00,Western Union,Q861042
fd9a51f3e2e93e8a7b1513088ca9673a,western_union,PEGADAIAN UPC NIAGA,,Karawang,JAWA BARAT,,ID,+62 813-941-688,https://location.westernunion.com/id/jawa-barat/karawang/fd9a51f3e2e93e8a7b1513088ca9673a,Mo-Fr 07:30-15:00; Sa 07:30-12:00,Western Union,Q861042
ee8dfde7e296a457b18c0187c92be2e7,western_union,PEGADAIAN UPC PASAR JOHAR,,Karawang,JAWA BARAT,,ID,+62 812-3154-990,https://location.westernunion.com/id/jawa-barat/karawang/ee8dfde7e296a457b18c0187c92be2e7,Mo-Fr 07:30-15:00; Sa 07:30-12:00,Western Union,Q861042
bb3f0443e5d8e518ff4afb23ebfdc78c,western_union,BANK BJB KK SAMSAT SUBANG,,Subang,JAWA BARAT,,ID,+62 260 416683,https://location.westernunion.com/id/jawa-barat/subang/bb3f0443e5d8e518ff4afb23ebfdc78c,Mo-Fr 08:00-15:00,Western Union,Q861042
99185eb1aae6a48a81fb869d932a5543,western_union,PEGADAIAN UPC JEJALEN,,Bekasi,JAWA BARAT,,ID,+62 21 3840229,https://location.westernunion.com/id/jawa-barat/bekasi/99185eb1aae6a48a81fb869d932a5543,Mo-Fr 07:30-15:00; Sa 07:30-12:00,Western Union,Q861042
3bcabb292760d70a998c09692ccd7b4a,western_union,JNE SUBANG,,Subang,JAWA BARAT,,ID,+62 260 417770,https://location.westernunion.com/id/jawa-barat/subang/3bcabb292760d70a998c09692ccd7b4a,Mo-Fr 08:00-24:00; Sa-Su 08:00-20:00,Western Union,Q861042
1ea77a6db8be7ee9c33b71defe245317,western_union,PEGADAIAN UPC PASAR BARU,,Karawang,JAWA BARAT,,ID,+62 852-277-661,https://location.westernunion.com/id/jawa-barat/karawang/1ea77a6db8be7ee9c33b71defe245317,Mo-Fr 07:30-15:00; Sa 07:30-12:00,Western Union,Q861042
8e0c1330e4fa4eb2aa61399ccb3c1d2c,western_union,PT POS MPS KARAWANG 4,,Karawang,JAWA BARAT,,ID,+62 811-128-933,https://location.westernunion.com/id/jawa-barat/karawang/8e0c1330e4fa4eb2aa61399ccb3c1d2c,Mo-Fr 09:00-15:00; Sa 09:00-12:00,Western Union,Q861042
ee7143997199c50ce937f5f20ca2a2df,western_union,PEGADAIAN UPC MEKAR SARI,,Bekasi,JAWA BARAT,,ID,+62 21 8827964,https://location.westernunion.com/id/jawa-barat/bekasi/ee7143997199c50ce937f5f20ca2a2df,Mo-Fr 07:30-15:00; Sa 07:30-12:00,Western Union,Q861042
73c64d9af853a40482eb365e889ea997,western_union,JNE BEKASI,,Bekasi,JAWA BARAT,,ID,+62 21 88959411,https://location.westernunion.com/id/jawa-barat/bekasi/73c64d9af853a40482eb365e889ea997,Mo-Fr 09:30-17:00,Western Union,Q861042
b7819b38f4936b9148e488804e1c4226,western_union,BANK BJB KK KPP PRATAMA SUBANG,,Subang,JAWA BARAT,,ID,+62 260 411185,https://location.westernunion.com/id/jawa-barat/subang/b7819b38f4936b9148e488804e1c4226,Mo-Fr 08:00-15:00,Western Union,Q861042
a1cd91b05dd5a5df6c77ffe019ffc072,western_union,PT POS LE MANGUNJAYA,,Bekasi,JAWA BARAT,,ID,+62 21 3511523,https://location.westernunion.com/id/jawa-barat/bekasi/a1cd91b05dd5a5df6c77ffe019ffc072,Mo-Fr 09:00-15:00; Sa 09:00-12:00,Western Union,Q861042
9ebf7e9dde6787469002507a828b2e2c,western_union,PEGADAIAN UPC PASAR MANGUN JAYA,,Bekasi,JAWA BARAT,,ID,+62 21 3505151,https://location.westernunion.com/id/jawa-barat/bekasi/9ebf7e9dde6787469002507a828b2e2c,Mo-Fr 07:30-15:00; Sa 07:30-12:00,Western Union,Q861042
e9ec05b3ba43e36f8616f6f7f385d579,western_union,PEGADAIAN UPS OTISTA,,Subang,JAWA BARAT,,ID,+62 264 11671,https://location.westernunion.com/id/jawa-barat/subang/e9ec05b3ba43e36f8616f6f7f385d579,Mo-Fr 07:30-15:00; Sa 07:30-12:00,Western Union,Q861042
250db7d86c98966764a0a4cbc5896d9e,western_union,PEGADAIAN UPC BUMI SANI,,Bekasi,JAWA BARAT,,ID,+62 21 88346303,https://location.westernunion.com/id/jawa-barat/bekasi/250db7d86c98966764a0a4cbc5896d9e,Mo-Fr 07:30-15:00; Sa 07:30-12:00,Western Union,Q861042
63d766792c46f553fe0a96b60e22372a,western_union,PT POS KPC BEKASI KRANJI,,Bekasi,JAWA BARAT,,ID,+62 21 8875088,https://location.westernunion.com/id/jawa-barat/bekasi/63d766792c46f553fe0a96b60e22372a,Mo-Fr 09:00-15:00; Sa 09:00-12:00,Western Union,Q861042
40b68107889b8b7b64efd187e4f82d5c,western_union,PEGADAIAN UPC GRAMAPURI,,Bekasi,JAWA BARAT,,ID,+62 21 3505151,https://location.westernunion.com/id/jawa-barat/bekasi/40b68107889b8b7b64efd187e4f82d5c,Mo-Fr 07:30-15:00; Sa 07:30-12:00,Western Union,Q861042
5bbf85bdfc783dd43a1d009fb4f409fb,western_union,PEGADAIAN UPC DUREN JAYA,,Bekasi,JAWA BARAT,,ID,+62 21 3505151,https://location.westernunion.com/id/jawa-barat/bekasi/5bbf85bdfc783dd43a1d009fb4f409fb,Mo-Fr 07:30-15:00; Sa 07:30-12:00,Western Union,Q861042
2ef45797b53f13987e5b8a80c4f81c04,western_union,PEGADAIAN UPC KONDANG JAYA,,Karawang,JAWA BARAT,,ID,+62 813-848-044,https://location.westernunion.com/id/jawa-barat/karawang/2ef45797b53f13987e5b8a80c4f81c04,Mo-Fr 07:30-15:00; Sa 07:30-12:00,Western Union,Q861042
9e362ed483bbe2c032cfd00cdc86e093,western_union,PEGADAIAN UPC AGUS SALIM,,Bekasi,JAWA BARAT,,ID,+62 21 88357890,https://location.westernunion.com/id/jawa-barat/bekasi/9e362ed483bbe2c032cfd00cdc86e093,Mo-Fr 08:00-17:00; Sa 08:00-14:00,Western Union,Q861042
6c4b89f5054e36cfbd83f8380b678720,western_union,PEGADAIAN UPC JAYAKARTA,,Bekasi,JAWA BARAT,,ID,+62 21 3505151,https://location.westernunion.com/id/jawa-barat/bekasi/6c4b89f5054e36cfbd83f8380b678720,Mo-Fr 08:00-17:00; Sa 08:00-14:00,Western Union,Q861042
8c3fa4a6afe24ac6767a151e514bb92e,western_union,PEGADAIAN UPC PASAR KOMPAS,,Bekasi,JAWA BARAT,,ID,+62 21 88331304,https://location.westernunion.com/id/jawa-barat/bekasi/8c3fa4a6afe24ac6767a151e514bb92e,Mo-Fr 07:30-15:00; Sa 07:30-12:00,Western Union,Q861042
3d5f33243b21077a7f05f9e36a6592e0,western_union,BANK BJB KK PEMKOT BEKASI,,Bekasi,JAWA BARAT,,ID,+62 21 88855505,https://location.westernunion.com/id/jawa-barat/bekasi/3d5f33243b21077a7f05f9e36a6592e0,Mo-Fr 07:00-19:00,Western Union,Q861042
c6a1fe9943a44e0d6620e1afab1c4ae5,western_union,PEGADAIAN CP SETIA MEKAR,,Bekasi,JAWA BARAT,,ID,+62 21 88358849,https://location.westernunion.com/id/jawa-barat/bekasi/c6a1fe9943a44e0d6620e1afab1c4ae5,Mo-Fr 07:30-15:00; Sa 07:30-12:00,Western Union,Q861042
eb793d9286856cc22ec726270fa99b22,western_union,BANK BJB KCP PEMDA SUBANG,,Subang,JAWA BARAT,,ID,+62 260 415985,https://location.westernunion.com/id/jawa-barat/subang/eb793d9286856cc22ec726270fa99b22,Mo-Fr 07:00-19:00,Western Union,Q861042
b482c4f1132773b13f38008fd3474121,western_union,PT POS MPS SERDANG 1,,Subang,JAWA BARAT,,ID,+62 260 411606,https://location.westernunion.com/id/jawa-barat/subang/b482c4f1132773b13f38008fd3474121,Mo-Fr 09:00-15:00; Sa 09:00-12:00,Western Union,Q861042
aff22d9d09623f6c23f64344442dd29f,western_union,PEGADAIAN UPC BINTARA JAYA,,Bekasi,JAWA BARAT,,ID,+62 21 86905753,https://location.westernunion.com/id/jawa-barat/bekasi/aff22d9d09623f6c23f64344442dd29f,Mo-Fr 07:30-15:00; Sa 07:30-12:00,Western Union,Q861042
af41accbf0c2e7ad8f992f0faa1f9976,western_union,PEGADAIAN UPC BINTARA RAYA,,Bekasi,JAWA BARAT,,ID,+62 21 3505151,https://location.westernunion.com/id/jawa-barat/bekasi/af41accbf0c2e7ad8f992f0faa1f9976,Mo-Fr 08:00-17:00; Sa 08:00-14:00,Western Union,Q861042
10894b5dcd7e0e7e6d327e27819780c4,western_union,PEGADAIAN UPS GALUH MAS,,Kuningan,JAWA BARAT,,ID,+62 267 8455933,https://location.westernunion.com/id/jawa-barat/kuningan/10894b5dcd7e0e7e6d327e27819780c4,Mo-Fr 07:30-15:00; Sa 07:30-12:00,Western Union,Q861042
440f21c700972b21cdc65eefff1ae0d7,western_union,PT POS KPC BELENDUNG,,Karawang,JAWA BARAT,,ID,+62 812-2248-9998,https://location.westernunion.com/id/jawa-barat/karawang/440f21c700972b21cdc65eefff1ae0d7,Mo-Fr 09:00-15:00; Sa 09:00-12:00; Su 07:00-12:00,Western Union,Q861042
0e37691571ca1624c55b3d9a9f73c014,western_union,PEGADAIAN CP KRANJI,,Bekasi,JAWA BARAT,,ID,+62 21 8854340,https://location.westernunion.com/id/jawa-barat/bekasi/0e37691571ca1624c55b3d9a9f73c014,Mo-Fr 07:30-15:00; Sa 07:30-12:00,Western Union,Q861042
81748368d502e4b3d7eb0960a6dcccda,western_union,BANK BJB KCP KRANJI,,Bekasi,JAWA BARAT,,ID,+62 21 88964961,https://location.westernunion.com/id/jawa-barat/bekasi/81748368d502e4b3d7eb0960a6dcccda,Mo-Fr 08:00-15:00,Western Union,Q861042
171d33c1de923803a7638f1f90331526,western_union,PEGADAIAN UPC GABUS RAYA,,Bekasi,JAWA BARAT,,ID,+62 21 37349510,https://location.westernunion.com/id/jawa-barat/bekasi/171d33c1de923803a7638f1f90331526,Mo-Fr 07:30-15:00; Sa 07:30-12:00,Western Union,Q861042
f1e4f4ecacea888075acfc828111fa03,western_union,PEGADAIAN CPS ISLAMIC CENTRE,,Bekasi,JAWA BARAT,,ID,+62 21 8853992,https://location.westernunion.com/id/jawa-barat/bekasi/f1e4f4ecacea888075acfc828111fa03,Mo-Fr 07:30-15:00; Sa 07:30-12:00,Western Union,Q861042
5cf301feb52e75eaf183195cb37bb42a,western_union,BANK BJB KK BPN,,Bandung,JAWA BARAT,,ID,+62 22 7503821,https://location.westernunion.com/id/jawa-barat/bandung/5cf301feb52e75eaf183195cb37bb42a,Mo-Fr 07:00-19:00,Western Union,Q861042
9593146e04d055a609e7b044827e0ec2,western_union,PEGADAIAN UPC KALIJAYA,,Bekasi,JAWA BARAT,,ID,+62 21 3505151,https://location.westernunion.com/id/jawa-barat/bekasi/9593146e04d055a609e7b044827e0ec2,Mo-Fr 07:30-15:00; Sa 07:30-12:00,Western Union,Q861042
bf9c23da9b0b7e61d7ab9683ca0d08df,western_union,BANK BJB KK WAROENG PURWADADI,,Subang,JAWA BARAT,,ID,(+62) 60-460602,https://location.westernunion.com/id/jawa-barat/subang/bf9c23da9b0b7e61d7ab9683ca0d08df,Mo-Fr 08:00-15:00,Western Union,Q861042
ac749a3e1600b42612bed991e254cc9b,western_union,PEGADAIAN UPC RAJAWALI PERUMNAS I,,Bekasi,JAWA BARAT,,ID,+62 21 59315622,https://location.westernunion.com/id/jawa-barat/bekasi/ac749a3e1600b42612bed991e254cc9b,Mo-Fr 07:30-15:00; Sa 07:30-12:00,Western Union,Q861042
345b7f4be2d48648cf8787adb4acac27,western_union,PEGADAIAN UPC PAPAN MAS,,Bekasi,JAWA BARAT,,ID,+62 21 3840229,https://location.westernunion.com/id/jawa-barat/bekasi/345b7f4be2d48648cf8787adb4acac27,Mo-Fr 07:30-15:00; Sa 07:30-12:00,Western Union,Q861042
0fb450750b89372fb74145b49567e6f4,western_union,PEGADAIAN UPC PS INDUK CLUSTER CIBITUNG,,Bekasi,JAWA BARAT,,ID,+62 21 91214009,https://location.westernunion.com/id/jawa-barat/bekasi/0fb450750b89372fb74145b49567e6f4,Mo-Fr 07:30-15:00; Sa 07:30-12:00,Western Union,Q861042
228e4e5ed2db481a9fbe3c174bc8a73e,western_union,PEGADAIAN UPC KALIJATI,,Subang,JAWA BARAT,,ID,+62 260 869262,https://location.westernunion.com/id/jawa-barat/subang/228e4e5ed2db481a9fbe3c174bc8a73e,Mo-Fr 07:30-15:00; Sa 07:30-12:00,Western Union,Q861042
c1466c177a73e0c369f1187d5d553b78,western_union,PT POS MPS BEKASI 3,,Bekasi,JAWA BARAT,,ID,+62 21 8824181,https://location.westernunion.com/id/jawa-barat/bekasi/c1466c177a73e0c369f1187d5d553b78,Mo-Fr 09:00-15:00; Sa 09:00-12:00,Western Union,Q861042
6c55d73f015965ee8ae661ceb25373eb,western_union,PEGADAIAN UPC TELUK JAMBE,,Karawang,JAWA BARAT,,ID,+62 812-494-759,https://location.westernunion.com/id/jawa-barat/karawang/6c55d73f015965ee8ae661ceb25373eb,Mo-Fr 07:30-15:00; Sa 07:30-12:00,Western Union,Q861042
095ebe90bff05b60651641d8aafbb75e,western_union,PEGADAIAN UPC PATRIOT KP DUA,,Bekasi,JAWA BARAT,,ID,+62 21 3505151,https://location.westernunion.com/id/jawa-barat/bekasi/095ebe90bff05b60651641d8aafbb75e,Mo-Fr 08:00-17:00; Sa 08:00-14:00,Western Union,Q861042
9aee1b3c898ce5eee48db5121bbd7d26,western_union,PEGADAIAN UPC PERUMNAS TELUK JAMBE,,Karawang,JAWA BARAT,,ID,+62 21 3840229,https://location.westernunion.com/id/jawa-barat/karawang/9aee1b3c898ce5eee48db5121bbd7d26,Mo-Fr 07:30-15:00; Sa 07:30-12:00,Western Union,Q861042
b00fe8de58daa63ef6b79163c1ca2f0c,western_union,PT POS KPC CIBITUNG,,Bekasi,JAWA BARAT,,ID,+62 21 8831288,https://location.westernunion.com/id/jawa-barat/bekasi/b00fe8de58daa63ef6b79163c1ca2f0c,Mo-Fr 09:00-15:00; Sa 09:00-12:00,Western Union,Q861042
43ff1eb640be524ae0c28cf2ec6430c7,western_union,PEGADAIAN UPC DAWUAN,,Karawang,JAWA BARAT,,ID,+62 22 4230178,https://location.westernunion.com/id/jawa-barat/karawang/43ff1eb640be524ae0c28cf2ec6430c7,Mo-Fr 08:00-15:00; Sa 07:30-12:00,Western Union,Q861042
a1289f39b92be6b284db4774265ddff4,western_union,PEGADAIAN UPS BTC,,Bekasi,JAWA BARAT,,ID,+62 21 8809962,https://location.westernunion.com/id/jawa-barat/bekasi/a1289f39b92be6b284db4774265ddff4,Mo-Fr 07:30-15:00; Sa 07:30-12:00,Western Union,Q861042
82a7e6a129613c2232a87fd156240001,western_union,PEGADAIAN UPC KOSAMBI,,Bekasi,JAWA BARAT,,ID,+62 21 3505151,https://location.westernunion.com/id/jawa-barat/bekasi/82a7e6a129613c2232a87fd156240001,Mo-Fr 07:30-15:00; Sa 07:30-12:00,Western Union,Q861042
462922da189e4d5ce5eefeb54818896f,western_union,MAYBANK KCP CIKAMPEK,,Karawang,JAWA BARAT,,ID,+62 264 311761,https://location.westernunion.com/id/jawa-barat/karawang/462922da189e4d5ce5eefeb54818896f,Mo-Fr 08:00-17:00,Western Union,Q861042
43a36b4f58cec3bfd5dba410003603ee,western_union,PT POS KPC BEKASI BINTARA JAYA,,Bekasi,JAWA BARAT,,ID,+62 21 3511523,https://location.westernunion.com/id/jawa-barat/bekasi/43a36b4f58cec3bfd5dba410003603ee,Mo-Fr 09:00-15:00; Sa 09:00-12:00,Western Union,Q861042
18b443e396ba67c897d28a8d046acf34,western_union,PEGADAIAN UPC GINTUNG KERTA,,Karawang,JAWA BARAT,,ID,+62 268 617348,https://location.westernunion.com/id/jawa-barat/karawang/18b443e396ba67c897d28a8d046acf34,Mo-Fr 08:00-17:00; Sa 08:00-14:00,Western Union,Q861042
aefaa3ae7584eb1af0d736a4e5c71e90,western_union,PEGADAIAN UPC MEGA BEKASI,,Bekasi,JAWA BARAT,,ID,+62 21 88852785,https://location.westernunion.com/id/jawa-barat/bekasi/aefaa3ae7584eb1af0d736a4e5c71e90,Mo-Fr 10:00-17:00; Sa 10:00-14:00,Western Union,Q861042
4d8a771d1dbecc01eb96e7998079bcd2,western_union,PEGADAIAN UPC HAJI NAMAN,,Bekasi,JAWA BARAT,,ID,+62 21 3505151,https://location.westernunion.com/id/jawa-barat/bekasi/4d8a771d1dbecc01eb96e7998079bcd2,Mo-Fr 08:00-17:00; Sa 08:00-14:00,Western Union,Q861042
2aef63df1f8cfefed692a466672f3545,western_union,PT POS KPC PURWASARI,,Karawang,JAWA BARAT,,ID,+62 856-1631-845,https://location.westernunion.com/id/jawa-barat/karawang/2aef63df1f8cfefed692a466672f3545,Mo-Fr 09:00-15:00; Sa 09:00-12:00,Western Union,Q861042
e0d71f13d2a98e3590846a7084b62260,western_union,PT POS MPS PANDEGLANG 1,,Bekasi,JAWA BARAT,,ID,+62 21 3511523,https://location.westernunion.com/id/jawa-barat/bekasi/e0d71f13d2a98e3590846a7084b62260,Mo-Fr 09:00-15:00; Sa 09:00-12:00,Western Union,Q861042
341f422986c6d1ec6af085a660d391e6,western_union,PT POS KPC BEKASI PONDOK HIJAU,,Bekasi,JAWA BARAT,,ID,+62 21 3511523,https://location.westernunion.com/id/jawa-barat/bekasi/341f422986c6d1ec6af085a660d391e6,Mo-Fr 09:00-15:00; Sa 09:00-12:00,Western Union,Q861042
3f55f64022cd16fcfcd1c1963aabca54,western_union,PEGADAIAN UPC JOMIN BARAT,,Karawang,JAWA BARAT,,ID,+62 22 4230178,https://location.westernunion.com/id/jawa-barat/karawang/3f55f64022cd16fcfcd1c1963aabca54,Mo-Fr 07:30-15:00; Sa 07:30-12:00,Western Union,Q861042
758b88f7ef603dd711c43067c1720b85,western_union,ADISENA PONDOK HIJAU,,Bekasi,JAWA BARAT,,ID,+62 858-8897-5540,https://location.westernunion.com/id/jawa-barat/bekasi/758b88f7ef603dd711c43067c1720b85,Mo-Fr 08:00-21:00; Sa 08:00-18:00; Su 08:00-21:00,Western Union,Q861042
0154da3006939b21ea0fd2609b71916c,western_union,PEGADAIAN UPC CIKOPO,,Purwakarta,JAWA BARAT,,ID,+62 264 845714,https://location.westernunion.com/id/jawa-barat/purwakarta/0154da3006939b21ea0fd2609b71916c,Mo-Fr 07:30-15:00; Sa 07:30-12:00,Western Union,Q861042
c52b406e0c4ffe83057d7be9af9df9ab,western_union,PEGADAIAN UPC JABABEKA,,Bekasi,JAWA BARAT,,ID,+62 21 3505151,https://location.westernunion.com/id/jawa-barat/bekasi/c52b406e0c4ffe83057d7be9af9df9ab,Mo-Fr 07:30-15:00; Sa 07:30-12:00,Western Union,Q861042
79233abe8571b49980a6df63ee9beda2,western_union,JNE PURWAKARTA,,Purwakarta,JAWA BARAT,,ID,+62 267 005678,https://location.westernunion.com/id/jawa-barat/purwakarta/79233abe8571b49980a6df63ee9beda2,Mo-Fr 07:00-24:00; Sa-Su 08:00-20:00,Western Union,Q861042
8bf49d9aead0a39e27f81970b8932ca2,western_union,PEGADAIAN UPC TAMAN RAFLESIA,,Bekasi,JAWA BARAT,,ID,+62 21 82426925,https://location.westernunion.com/id/jawa-barat/bekasi/8bf49d9aead0a39e27f81970b8932ca2,Mo-Fr 07:30-15:00; Sa 07:30-12:00,Western Union,Q861042
bd2c4c2ab5ca083047c5c7cf1cc93478,western_union,PEGADAIAN UPC VILA PEKAYON,,Bekasi,JAWA BARAT,,ID,+62 21 3840229,https://location.westernunion.com/id/jawa-barat/bekasi/bd2c4c2ab5ca083047c5c7cf1cc93478,Mo-Fr 07:30-15:00; Sa 07:30-12:00,Western Union,Q861042
a254c4d8723f4c73056fb0988c3dcb3d,western_union,PEGADAIAN UPC KINCAN RAYA,,Bekasi,JAWA BARAT,,ID,+62 21 86901309,https://location.westernunion.com/id/jawa-barat/bekasi/a254c4d8723f4c73056fb0988c3dcb3d,Mo-Fr 07:30-15:00; Sa 07:30-12:00,Western Union,Q861042
7524cf47e02f2066700bd4bb7c8f23a4,western_union,PEGADAIAN UPC PONDOK HIJAU,,Bekasi,JAWA BARAT,,ID,+62 21 3840229,https://location.westernunion.com/id/jawa-barat/bekasi/7524cf47e02f2066700bd4bb7c8f23a4,Mo-Fr 08:00-17:00; Sa 08:00-14:00,Western Union,Q861042
3d5d94393c6ca2e0682407dbc9f1acf9,western_union,PEGADAIAN UPC GALAXY NUSA INDAH,,Bekasi,JAWA BARAT,,ID,+62 21 8218225,https://location.westernunion.com/id/jawa-barat/bekasi/3d5d94393c6ca2e0682407dbc9f1acf9,Mo-Fr 07:30-15:00; Sa 07:30-12:00,Western Union,Q861042
02c1f715e682c9ed779003226db24c02,western_union,PEGADAIAN UPC RAWA PANJANG,,Bekasi,JAWA BARAT,,ID,+62 21 96684152,https://location.westernunion.com/id/jawa-barat/bekasi/02c1f715e682c9ed779003226db24c02,Mo-Fr 07:30-15:00; Sa 07:30-12:00,Western Union,Q861042
b9bd278514dac8dca16a701e1ec061a2,western_union,PEGADAIAN UPC SEPANJANG JAYA,,Bekasi,JAWA BARAT,,ID,+62 21 3840229,https://location.westernunion.com/id/jawa-barat/bekasi/b9bd278514dac8dca16a701e1ec061a2,Mo-Fr 07:30-15:00; Sa 07:30-12:00,Western Union,Q861042
ce5cf48ade9c5aa77713dedde7e358dd,western_union,BANK BJB KK RSUD BEKASI,,Bekasi,JAWA BARAT,,ID,+62 21 88963935,https://location.westernunion.com/id/jawa-barat/bekasi/ce5cf48ade9c5aa77713dedde7e358dd,Mo-Fr 07:00-19:00,Western Union,Q861042
427559e347a1d4d5c77ac334e7070c4f,western_union,PEGADAIAN UPS MALL PEKAYON,,Bekasi,JAWA BARAT,,ID,+62 21 8210679,https://location.westernunion.com/id/jawa-barat/bekasi/427559e347a1d4d5c77ac334e7070c4f,Mo-Fr 07:30-15:00; Sa 07:30-12:00,Western Union,Q861042
66cf926c031dc83d4387d5f99cda93be,western_union,PEGADAIAN CP PEKAYON,,Bekasi,JAWA BARAT,,ID,+62 21 82407597,https://location.westernunion.com/id/jawa-barat/bekasi/66cf926c031dc83d4387d5f99cda93be,Mo-Fr 07:30-15:00; Sa 07:30-12:00,Western Union,Q861042
7ae9621a612ea6c2cdea4c8acb91dc8b,western_union,PEGADAIAN UPC PONDOK TIMUR,,Bekasi,JAWA BARAT,,ID,+62 21 3840229,https://location.westernunion.com/id/jawa-barat/bekasi/7ae9621a612ea6c2cdea4c8acb91dc8b,Mo-Fr 08:00-17:00; Sa 08:00-14:00,Western Union,Q861042
ad36194f89046c346eeb0f9531e0f09e,western_union,PEGADAIAN UPC CENDRAWASIH,,Bekasi,JAWA BARAT,,ID,+62 21 37360512,https://location.westernunion.com/id/jawa-barat/bekasi/ad36194f89046c346eeb0f9531e0f09e,Mo-Fr 07:30-15:00; Sa 07:30-12:00,Western Union,Q861042
67092028f74c1628921766b11673f12a,western_union,PEGADAIAN UPC JATI CEMPAKA,,Bekasi,JAWA BARAT,,ID,+62 21 97914192,https://location.westernunion.com/id/jawa-barat/bekasi/67092028f74c1628921766b11673f12a,Mo-Fr 07:30-15:00; Sa 07:30-12:00,Western Union,Q861042
5cdb7d20f06ef7eaa78be7997ab9ce96,western_union,PEGADAIAN CP KEMANG PRATAMA,,Bekasi,JAWA BARAT,,ID,+62 21 82425857,https://location.westernunion.com/id/jawa-barat/bekasi/5cdb7d20f06ef7eaa78be7997ab9ce96,Mo-Fr 07:30-15:00; Sa 07:30-12:30,Western Union,Q861042
8f86378f531e9d2f45240f9c9f3ebdfc,western_union,PEGADAIAN UPC RATNA,,Bekasi,JAWA BARAT,,ID,+62 21 93731448,https://location.westernunion.com/id/jawa-barat/bekasi/8f86378f531e9d2f45240f9c9f3ebdfc,Mo-Fr 07:30-15:00; Sa 07:30-12:00,Western Union,Q861042
4cace29c44baf6bcc02f12d48df69dc7,western_union,PT POS KPC BEKASI JATIBENING,,Bekasi,JAWA BARAT,,ID,+62 21 84971260,https://location.westernunion.com/id/jawa-barat/bekasi/4cace29c44baf6bcc02f12d48df69dc7,Mo-Fr 09:00-15:00; Sa 09:00-12:00,Western Union,Q861042
41b40747e218db4da8a899675e8e9ae1,western_union,PEGADAIAN UPC PEMDA JATIASIH,,Bekasi,JAWA BARAT,,ID,+62 21 3840229,https://location.westernunion.com/id/jawa-barat/bekasi/41b40747e218db4da8a899675e8e9ae1,Mo-Fr 07:30-15:00; Sa 07:30-12:00,Western Union,Q861042
f2ae735493820ed318a55224caa00b67,western_union,BANK BJB KCP KAWALI,,Ciamis,JAWA BARAT,,ID,+62 265 791919,https://location.westernunion.com/id/jawa-barat/ciamis/f2ae735493820ed318a55224caa00b67,Mo-Fr 07:00-19:00,Western Union,Q861042
b340a0389c9ca3d02b6026df7d041446,western_union,PEGADAIAN UPC MUTIARA GADING TIMUR,,Bekasi,JAWA BARAT,,ID,+62 21 82613738,https://location.westernunion.com/id/jawa-barat/bekasi/b340a0389c9ca3d02b6026df7d041446,Mo-Fr 08:00-17:00; Sa 08:00-14:00,Western Union,Q861042
59d396210fbc4b73385de1a1b15c5c5e,western_union,PEGADAIAN UPC VILLA ASRI,,Bekasi,JAWA BARAT,,ID,+62 21 82614991,https://location.westernunion.com/id/jawa-barat/bekasi/59d396210fbc4b73385de1a1b15c5c5e,Mo-Fr 07:30-15:00; Sa 07:30-12:00,Western Union,Q861042
f3aed195d18647965345a65449b11575,western_union,PEGADAIAN UPS AHMAD DAHLAN,,Ciamis,JAWA BARAT,,ID,+62 265 778428,https://location.westernunion.com/id/jawa-barat/ciamis/f3aed195d18647965345a65449b11575,Mo-Fr 07:30-15:00; Sa 07:30-12:00,Western Union,Q861042
97fbc4a79df3330b731ff5d2efc18749,western_union,MAYBANK KCP SENTRA KIIC KARAWANG,,Karawang,JAWA BARAT,,ID,+62 21 8905404,https://location.westernunion.com/id/jawa-barat/karawang/97fbc4a79df3330b731ff5d2efc18749,Mo-Fr 08:00-17:00,Western Union,Q861042
aa65f1da952b24d9b2dbba57b2a23b6b,western_union,PT POS KPC SURYACIPTA,,Karawang,JAWA BARAT,,ID,+62 877-7938-0486,https://location.westernunion.com/id/jawa-barat/karawang/aa65f1da952b24d9b2dbba57b2a23b6b,Mo-Fr 09:00-15:00; Sa 09:00-12:00,Western Union,Q861042
9329fa9ecf6270b3d066ae57e8376efd,western_union,PEGADAIAN UPC CIJULANG,,Ciamis,JAWA BARAT,,ID,+62 265 834738,https://location.westernunion.com/id/jawa-barat/ciamis/9329fa9ecf6270b3d066ae57e8376efd,Mo-Fr 07:30-15:00; Sa 07:30-12:00,Western Union,Q861042
2f8ff843beb39d04fcc67892a37bccf9,western_union,PEGADAIAN UPC GAMPRIT,,Bekasi,JAWA BARAT,,ID,+62 21 37564629,https://location.westernunion.com/id/jawa-barat/bekasi/2f8ff843beb39d04fcc67892a37bccf9,Mo-Fr 07:30-15:00; Sa 07:30-12:00,Western Union,Q861042
82c8d552966a00e60b2d969a2ba3ae6d,western_union,PEGADAIAN CP JATIWARINGIN,,Bekasi,JAWA BARAT,,ID,(+62) 21-849996542,https://location.westernunion.com/id/jawa-barat/bekasi/82c8d552966a00e60b2d969a2ba3ae6d,Mo-Fr 07:30-15:00; Sa 07:30-12:00,Western Union,Q861042
d55a6570dc550f311b4377ca871e201d,western_union,PT POS KPC BEKASI JATIWARINGIN,,Bekasi,JAWA BARAT,,ID,+62 21 3511523,https://location.westernunion.com/id/jawa-barat/bekasi/d55a6570dc550f311b4377ca871e201d,Mo-Fr 09:00-15:00; Sa 09:00-12:00,Western Union,Q861042
ec8cf7b4b219b921e6c01fdd9f9af3ea,western_union,PEGADAIAN UPC JATIMAKMUR 2,,Bekasi,JAWA BARAT,,ID,+62 21 84979990,https://location.westernunion.com/id/jawa-barat/bekasi/ec8cf7b4b219b921e6c01fdd9f9af3ea,Mo-Fr 07:30-15:00; Sa 07:30-12:00,Western Union,Q861042
a93c196de521cccc6ad4d8718359a92f,western_union,PEGADAIAN UPC JATIMAKMUR,,Bekasi,JAWA BARAT,,ID,+62 21 3505151,https://location.westernunion.com/id/jawa-barat/bekasi/a93c196de521cccc6ad4d8718359a92f,Mo-Fr 07:30-15:00; Sa 07:30-12:00,Western Union,Q861042
a1df91a0c9e8151bc52a75eea63ef0d9,western_union,PEGADAIAN UPC GRAHA,,Bogor,JAWA BARAT,,ID,+62 21 3840229,https://location.westernunion.com/id/jawa-barat/bogor/a1df91a0c9e8151bc52a75eea63ef0d9,Mo-Fr 07:30-15:00; Sa 07:30-12:00,Western Union,Q861042
ac92e0baa851b6b34233e98faa5ff8a7,western_union,PT POS LE JATINUNGGAL,,Sumedang,JAWA BARAT,,ID,+62 261 202006,https://location.westernunion.com/id/jawa-barat/sumedang/ac92e0baa851b6b34233e98faa5ff8a7,Mo-Fr 09:00-15:00; Sa 09:00-12:00,Western Union,Q861042
a1295e24d4a3a7aee837a4c4f0b8edea,western_union,TIKI JNE CIAMIS,,Ciamis,JAWA BARAT,,ID,+62 265 771292,https://location.westernunion.com/id/jawa-barat/ciamis/a1295e24d4a3a7aee837a4c4f0b8edea,Mo-Fr 08:00-22:00; Sa-Su 08:00-17:00,Western Union,Q861042
9e589e09c28055693ee27c160c65a3e9,western_union,PEGADAIAN UPC MUSTIKA JAYA,,Bekasi,JAWA BARAT,,ID,+62 21 3840229,https://location.westernunion.com/id/jawa-barat/bekasi/9e589e09c28055693ee27c160c65a3e9,Mo-Fr 07:30-15:00; Sa 07:30-12:00,Western Union,Q861042
f4000f0c14baef017c0da63b0f6d5a65,western_union,PEGADAIAN CP PLAZA PONDOK GEDE,,Bekasi,JAWA BARAT,,ID,+62 21 3840229,https://location.westernunion.com/id/jawa-barat/bekasi/f4000f0c14baef017c0da63b0f6d5a65,Mo-Fr 07:30-15:00; Sa 07:30-12:00,Western Union,Q861042
0e666624ede434bd0e35a945fea01a6c,western_union,PEGADAIAN UPC CIMALAKA,,Sumedang,JAWA BARAT,,ID,+62 261 869262,https://location.westernunion.com/id/jawa-barat/sumedang/0e666624ede434bd0e35a945fea01a6c,Mo-Fr 07:30-15:00; Sa 07:30-12:00,Western Union,Q861042
6ae3a6980e4f3b6e2324298cb93e17ca,western_union,PEGADAIAN UPC BUMYAGARA,,Bekasi,JAWA BARAT,,ID,+62 21 3840229,https://location.westernunion.com/id/jawa-barat/bekasi/6ae3a6980e4f3b6e2324298cb93e17ca,Mo-Fr 07:30-15:00; Sa 07:30-12:00,Western Union,Q861042
0332576bf993f580ccfc418b0c233dd5,western_union,PEGADAIAN UPC SUKARESMI,,Bekasi,JAWA BARAT,,ID,+62 21 89677341,https://location.westernunion.com/id/jawa-barat/bekasi/0332576bf993f580ccfc418b0c233dd5,Mo-Fr 07:30-15:00; Sa 07:30-12:00,Western Union,Q861042
ddb4da590530aaeed1015574dc21683f,western_union,JNE BEKASI DELTAMAS,,Bekasi,JAWA BARAT,,ID,+62 21 5665262,https://location.westernunion.com/id/jawa-barat/bekasi/ddb4da590530aaeed1015574dc21683f,Mo-Fr 09:00-17:00; Sa 09:00-13:00,Western Union,Q861042
f97c7719ce0064ea6339be5f0adac115,western_union,PEGADAIAN UPC RAYA BOJONG,,Bekasi,JAWA BARAT,,ID,+62 21 68586045,https://location.westernunion.com/id/jawa-barat/bekasi/f97c7719ce0064ea6339be5f0adac115,Mo-Fr 07:30-15:00; Sa 07:30-12:00,Western Union,Q861042
ee6b7a8ea399f5094bc14c0347ea4f9a,western_union,PEGADAIAN UPC JATIWARINGIN,,Bekasi,JAWA BARAT,,ID,+62 21 91309838,https://location.westernunion.com/id/jawa-barat/bekasi/ee6b7a8ea399f5094bc14c0347ea4f9a,Mo-Fr 07:30-15:00; Sa 07:30-12:00,Western Union,Q861042
58c923e7db7c655b3f254ce90ea74207,western_union,PEGADAIAN UPC DUKUH ZAMRUD,,Bekasi,JAWA BARAT,,ID,+62 21 8250433,https://location.westernunion.com/id/jawa-barat/bekasi/58c923e7db7c655b3f254ce90ea74207,Mo-Fr 07:30-15:00; Sa 07:30-12:00,Western Union,Q861042
45b5b8826a8683ba6ff776c372a49d63,western_union,PEGADAIAN UPC KODAU,,Bekasi,JAWA BARAT,,ID,+62 21 3840229,https://location.westernunion.com/id/jawa-barat/bekasi/45b5b8826a8683ba6ff776c372a49d63,Mo-Fr 07:30-15:00; Sa 07:30-12:00,Western Union,Q861042
573cb67b665f96f98e32507bc490d996,western_union,PEGADAIAN UPC PASAR SETU,,Bekasi,JAWA BARAT,,ID,+62 21 82606456,https://location.westernunion.com/id/jawa-barat/bekasi/573cb67b665f96f98e32507bc490d996,Mo-Fr 07:30-15:00; Sa 07:30-12:00,Western Union,Q861042
643bee32ef5c8a68ee7d2188372df576,western_union,PEGADAIAN UPC MANONJAYA,,Tasikmalaya,JAWA BARAT,,ID,+62 265 869262,https://location.westernunion.com/id/jawa-barat/tasikmalaya/643bee32ef5c8a68ee7d2188372df576,Mo-Fr 07:30-15:00; Sa 07:30-12:00,Western Union,Q861042
419d131caef969dcfa6bcd954fead73b,western_union,PEGADAIAN UPC PASAR KECAPI,,Bekasi,JAWA BARAT,,ID,+62 21 33401653,https://location.westernunion.com/id/jawa-barat/bekasi/419d131caef969dcfa6bcd954fead73b,Mo-Fr 07:30-15:00; Sa 07:30-12:00,Western Union,Q861042
a570341a3e536329a23bfb8e6593c542,western_union,PEGADAIAN UPC CILEUNGSI HIJAU,,Bogor,JAWA BARAT,,ID,+62 21 8235765,https://location.westernunion.com/id/jawa-barat/bogor/a570341a3e536329a23bfb8e6593c542,Mo-Fr 08:00-17:00; Sa 08:00-14:00,Western Union,Q861042
e48141e5e33bbb3670ae72d4a33ca568,western_union,PEGADAIAN UPC BANTAR GEBANG,,Bekasi,JAWA BARAT,,ID,+62 21 95386604,https://location.westernunion.com/id/jawa-barat/bekasi/e48141e5e33bbb3670ae72d4a33ca568,Mo-Fr 07:30-15:00; Sa 07:30-12:00,Western Union,Q861042
59d0de6acbca4364bbc4d2d7a6a05ee7,western_union,PEGADAIAN UPS BANTAR GEBANG,,Bekasi,JAWA BARAT,,ID,+62 21 82610172,https://location.westernunion.com/id/jawa-barat/bekasi/59d0de6acbca4364bbc4d2d7a6a05ee7,Mo-Fr 07:30-15:00; Sa 07:30-12:00,Western Union,Q861042
88cb9c852f90a833f86a586f00bea2da,western_union,PEGADAIAN UPC PASAR VILA NUSA INDAH,,Bogor,JAWA BARAT,,ID,+62 21 96580161,https://location.westernunion.com/id/jawa-barat/bogor/88cb9c852f90a833f86a586f00bea2da,Mo-Fr 07:30-15:00; Sa 07:30-12:00,Western Union,Q861042
d8a978a3a05c19bbf94db76a848d6362,western_union,PEGADAIAN UPC JATIWARNA,,Bekasi,JAWA BARAT,,ID,+62 21 84312339,https://location.westernunion.com/id/jawa-barat/bekasi/d8a978a3a05c19bbf94db76a848d6362,Mo-Fr 07:30-15:00; Sa 07:30-12:00,Western Union,Q861042
cd7e2ba6eb5a1d91170c57582b46b5da,western_union,PEGADAIAN UPC SERANG CIKARANG,,Bekasi,JAWA BARAT,,ID,+62 21 89677330,https://location.westernunion.com/id/jawa-barat/bekasi/cd7e2ba6eb5a1d91170c57582b46b5da,Mo-Fr 07:30-15:00; Sa 07:30-12:00,Western Union,Q861042
9665c97f5ffb4a4eb43c1fe4f2a09c1f,western_union,PEGADAIAN UPC JATILUHUR,,Bekasi,JAWA BARAT,,ID,+62 21 3505151,https://location.westernunion.com/id/jawa-barat/bekasi/9665c97f5ffb4a4eb43c1fe4f2a09c1f,Mo-Fr 07:30-15:00; Sa 07:30-12:00,Western Union,Q861042
f494144a6f3dd0190dea49fbb1acda64,western_union,PEGADAIAN UPC BOJONG KULUR,,Bogor,JAWA BARAT,,ID,+62 21 3840229,https://location.westernunion.com/id/jawa-barat/bogor/f494144a6f3dd0190dea49fbb1acda64,Mo-Fr 08:00-17:00; Sa 08:00-14:00,Western Union,Q861042
c148e6b4300e67980afcb4c1062ab876,western_union,JNE BANDUNG SUMEDANG,,Bandung,JAWA BARAT,,ID,+62 22 2020811,https://location.westernunion.com/id/jawa-barat/bandung/c148e6b4300e67980afcb4c1062ab876,Mo-Fr 08:00-24:00; Sa-Su 08:00-21:00,Western Union,Q861042
994dc300db467bf6d2eec3c06257d481,western_union,PT POS LE UNIVERSITAS MERCUBUANA,,Bekasi,JAWA BARAT,,ID,+62 21 8808166,https://location.westernunion.com/id/jawa-barat/bekasi/994dc300db467bf6d2eec3c06257d481,Mo-Fr 09:00-15:00; Sa 09:00-12:00,Western Union,Q861042
d6888c1dbedc151e282e9a09222ae6bc,western_union,PT POS KPC MARACANG,,Purwakarta,JAWA BARAT,,ID,+62 264 200150,https://location.westernunion.com/id/jawa-barat/purwakarta/d6888c1dbedc151e282e9a09222ae6bc,Mo-Fr 07:30-15:00; Sa 07:30-13:00,Western Union,Q861042
6b00616b6907b7352f1e53792bcb5e8d,western_union,PEGADAIAN UPS CAMPAKA,,Purwakarta,JAWA BARAT,,ID,+62 264 201823,https://location.westernunion.com/id/jawa-barat/purwakarta/6b00616b6907b7352f1e53792bcb5e8d,Mo-Fr 07:30-15:00; Sa 07:30-12:00,Western Union,Q861042
271ba6d303c1a2fe4417d6116f7fa9ec,western_union,PT POS LE JATIMURNI,,Bekasi,JAWA BARAT,,ID,+62 21 8808166,https://location.westernunion.com/id/jawa-barat/bekasi/271ba6d303c1a2fe4417d6116f7fa9ec,Mo-Fr 09:00-15:00; Sa 09:00-12:00,Western Union,Q861042
b6501b1932da8f5ab273b419206f47f3,western_union,BRI UNIT CINERE RADIO DALAM,,Depok,JAWA BARAT,,ID,+62 21 7534337,https://location.westernunion.com/id/jawa-barat/depok/b6501b1932da8f5ab273b419206f47f3,Mo-Fr 08:00-15:00,Western Union,Q861042
153aec6d84605bd64f5baa772ca81df6,western_union,PEGADAIAN UPC RAJAPOLAH,,Tasikmalaya,JAWA BARAT,,ID,+62 22 4230178,https://location.westernunion.com/id/jawa-barat/tasikmalaya/153aec6d84605bd64f5baa772ca81df6,Mo-Fr 07:30-15:00; Sa 07:30-12:00,Western Union,Q861042
f15b21539bb5793c7ca253f897c78c00,western_union,JNE BANDUNG TOMO SUMEDANG,,Sumedang,JAWA BARAT,,ID,+62 233 8666274,https://location.westernunion.com/id/jawa-barat/sumedang/f15b21539bb5793c7ca253f897c78c00,Mo-Fr 08:00-16:00; Sa 08:00-14:00,Western Union,Q861042
c17485c00ad685bb77c366692f4a1eb2,western_union,PEGADAIAN UPC MUNJUL JAYA,,Purwakarta,JAWA BARAT,,ID,+62 22 4230178,https://location.westernunion.com/id/jawa-barat/purwakarta/c17485c00ad685bb77c366692f4a1eb2,Mo-Fr 07:30-15:00; Sa 07:30-12:00,Western Union,Q861042
a26933b95ba0c629dd761383792441df,western_union,PEGADAIAN UPC SINDANGKASIH,,Tasikmalaya,JAWA BARAT,,ID,+62 265 458134,https://location.westernunion.com/id/jawa-barat/tasikmalaya/a26933b95ba0c629dd761383792441df,Mo-Fr 07:30-15:00; Sa 07:30-12:00,Western Union,Q861042
0cd65db461ffb7f6c6920f5026f52c86,western_union,PT POS LE JATISARI,,Bekasi,JAWA BARAT,,ID,+62 21 8808166,https://location.westernunion.com/id/jawa-barat/bekasi/0cd65db461ffb7f6c6920f5026f52c86,Mo-Fr 09:00-15:00; Sa 09:00-12:00,Western Union,Q861042
0a9ee661adaff275c55b60036ec1ab12,western_union,PEGADAIAN UPC SADANG,,Purwakarta,JAWA BARAT,,ID,+62 264 869262,https://location.westernunion.com/id/jawa-barat/purwakarta/0a9ee661adaff275c55b60036ec1ab12,Mo-Fr 07:30-15:00; Sa 07:30-12:00,Western Union,Q861042
facf4b7ed1e8faf1ba7655602d59706d,western_union,PEGADAIAN CPS VETERAN,,Purwakarta,JAWA BARAT,,ID,+62 264 219396,https://location.westernunion.com/id/jawa-barat/purwakarta/facf4b7ed1e8faf1ba7655602d59706d,Mo-Fr 07:30-15:00; Sa 07:30-12:00,Western Union,Q861042
4f8e9cd46e1dcea68d397fd7f7d37fc4,western_union,PEGADAIAN UPC HANKAM,,Depok,JAWA BARAT,,ID,+62 21 5305522,https://location.westernunion.com/id/jawa-barat/depok/4f8e9cd46e1dcea68d397fd7f7d37fc4,Mo-Fr 07:30-15:00; Sa 07:30-12:00,Western Union,Q861042
339f1ac24f1e8419553e7d2cbf6ba7f2,western_union,PEGADAIAN UPC CINERE,,Depok,JAWA BARAT,,ID,+62 21 91304163,https://location.westernunion.com/id/jawa-barat/depok/339f1ac24f1e8419553e7d2cbf6ba7f2,Mo-Fr 08:00-17:00; Sa 08:00-14:00,Western Union,Q861042
38e0073cfa6fa7ca1cc2e5338e3e0779,western_union,PT POS KPC PANGKALAN,,Karawang,JAWA BARAT,,ID,+62 852-1322-883,https://location.westernunion.com/id/jawa-barat/karawang/38e0073cfa6fa7ca1cc2e5338e3e0779,Mo-Fr 09:00-15:00; Sa 09:00-12:00,Western Union,Q861042
c322e3224bc070e24d4f331ca0229527,western_union,PEGADAIAN CP KRANGGAN,,Bekasi,JAWA BARAT,,ID,+62 21 84592889,https://location.westernunion.com/id/jawa-barat/bekasi/c322e3224bc070e24d4f331ca0229527,Mo-Fr 07:30-15:00; Sa 07:30-12:00,Western Union,Q861042
16cdeaf3435e1bcf45dcdced3e4a40bb,western_union,PT POS KPC DEPOK MEKARSARI,,Depok,JAWA BARAT,,ID,+62 21 3511523,https://location.westernunion.com/id/jawa-barat/depok/16cdeaf3435e1bcf45dcdced3e4a40bb,Mo-Fr 09:00-15:00; Sa 09:00-12:00,Western Union,Q861042
3a21ab5e9c403e90c3012a1114f54190,western_union,PEGADAIAN CP KELAPA DUA,,Depok,JAWA BARAT,,ID,+62 21 87711177,https://location.westernunion.com/id/jawa-barat/depok/3a21ab5e9c403e90c3012a1114f54190,Mo-Fr 07:30-15:00; Sa 07:30-12:00,Western Union,Q861042
3316ea09676ccc7637772cb543b6c862,western_union,PEGADAIAN UPS GUNUNG SABEULAH,,Tasikmalaya,JAWA BARAT,,ID,+62 265 332873,https://location.westernunion.com/id/jawa-barat/tasikmalaya/3316ea09676ccc7637772cb543b6c862,Mo-Fr 07:30-15:00; Sa 07:30-12:00,Western Union,Q861042
233f5f157fb62056f0101a92892140b0,western_union,BANK BJB KCP MITRA BATIK,,Tasikmalaya,JAWA BARAT,,ID,+62 265 314993,https://location.westernunion.com/id/jawa-barat/tasikmalaya/233f5f157fb62056f0101a92892140b0,Mo-Fr 08:00-15:00,Western Union,Q861042
25b8a6dbcb0f3a70642b37f2aa087873,western_union,PEGADAIAN UPS HARJAMUKTI,,Depok,JAWA BARAT,,ID,+62 21 84596946,https://location.westernunion.com/id/jawa-barat/depok/25b8a6dbcb0f3a70642b37f2aa087873,Mo-Su 07:30-21:00,Western Union,Q861042
b1d195960cc27787d18cc93aaa56a832,western_union,PEGADAIAN UPS PONDOK DUTA,,Depok,JAWA BARAT,,ID,+62 21 8710670,https://location.westernunion.com/id/jawa-barat/depok/b1d195960cc27787d18cc93aaa56a832,Mo-Fr 07:30-15:00; Sa 07:30-12:00,Western Union,Q861042
b893c85f57074a3899ad1798036458a8,western_union,PT POS LE CBI CIKEAS,,Bogor,JAWA BARAT,,ID,+62 21 87908578,https://location.westernunion.com/id/jawa-barat/bogor/b893c85f57074a3899ad1798036458a8,Mo-Fr 09:00-15:00; Sa 09:00-12:00,Western Union,Q861042
b9693b151258fdfb1241cad6689ed51d,western_union,MAYBANK KCP CITRA GRAND CIBUBUR,,Bekasi,JAWA BARAT,,ID,+62 21 29060515,https://location.westernunion.com/id/jawa-barat/bekasi/b9693b151258fdfb1241cad6689ed51d,Mo-Fr 08:00-17:00,Western Union,Q861042
a59b8f7f869f39d2cceea4c59dad08c6,western_union,PEGADAIAN UPC MAYASARI PLASA,,Tasikmalaya,JAWA BARAT,,ID,+62 265 458134,https://location.westernunion.com/id/jawa-barat/tasikmalaya/a59b8f7f869f39d2cceea4c59dad08c6,Mo-Fr 07:30-15:00; Sa 07:30-12:00,Western Union,Q861042
b1c827773574c274012138d6196e58b1,western_union,PEGADAIAN UPC CIKURUBUK,,Tasikmalaya,JAWA BARAT,,ID,+62 265 834738,https://location.westernunion.com/id/jawa-barat/tasikmalaya/b1c827773574c274012138d6196e58b1,Mo-Fr 07:30-15:00; Sa 07:30-12:00,Western Union,Q861042
02b502e3459689bcca2a4d6c762e0c11,western_union,JNE BOGOR JONGGOL,,Bogor,JAWA BARAT,,ID,+62 251 8656341,https://location.westernunion.com/id/jawa-barat/bogor/02b502e3459689bcca2a4d6c762e0c11,Mo-Sa 09:00-17:00,Western Union,Q861042
b7f889e1662274cbc7acdc5c285fce5d,western_union,PEGADAIAN CPS MARGONDA,,Depok,JAWA BARAT,,ID,+62 21 77212293,https://location.westernunion.com/id/jawa-barat/depok/b7f889e1662274cbc7acdc5c285fce5d,Mo-Fr 07:30-15:00; Sa 07:30-12:00,Western Union,Q861042
b4a0da7957f48b2358765f36d5a645e3,western_union,PEGADAIAN UPC PONDOK PETIR,,Bogor,JAWA BARAT,,ID,(+62) 21-813834377,https://location.westernunion.com/id/jawa-barat/bogor/b4a0da7957f48b2358765f36d5a645e3,Mo-Fr 07:30-15:00; Sa 07:30-12:00,Western Union,Q861042
b1e5609048aa365e3d435f11cdae6263,western_union,PEGADAIAN CPS PADAYUNGAN,,Tasikmalaya,JAWA BARAT,,ID,+62 265 326372,https://location.westernunion.com/id/jawa-barat/tasikmalaya/b1e5609048aa365e3d435f11cdae6263,Mo-Fr 07:30-15:00; Sa 07:30-12:00,Western Union,Q861042
56926e5491384038adc9913938174dc9,western_union,PT POS KPC DEPOK KEMIRIMUKA,,Depok,JAWA BARAT,,ID,+62 21 77213463,https://location.westernunion.com/id/jawa-barat/depok/56926e5491384038adc9913938174dc9,Mo-Fr 09:00-15:00; Sa 09:00-12:00,Western Union,Q861042
1193d3f580c38e4aea771c4a5f89d3a4,western_union,BANK BJB KK SALAWU,,Tasikmalaya,JAWA BARAT,,ID,+62 265 547881,https://location.westernunion.com/id/jawa-barat/tasikmalaya/1193d3f580c38e4aea771c4a5f89d3a4,Mo-Fr 08:00-15:00,Western Union,Q861042
d2f0a0b864585a57440ab8e57af2d2c5,western_union,BANK BJB KK PEMKAB TASIKMALAYA,,Tasikmalaya,JAWA BARAT,,ID,+62 265 542968,https://location.westernunion.com/id/jawa-barat/tasikmalaya/d2f0a0b864585a57440ab8e57af2d2c5,Mo-Fr 08:00-15:00,Western Union,Q861042
71778d54dc5454bd9d2bf8e8856aa55e,western_union,BANK BJB KCP PEMKOT TASIKMALAYA,,Tasikmalaya,JAWA BARAT,,ID,+62 265 320492,https://location.westernunion.com/id/jawa-barat/tasikmalaya/71778d54dc5454bd9d2bf8e8856aa55e,Mo-Fr 08:00-15:00,Western Union,Q861042
352d89a3e19e964ac6c426cbda096b5c,western_union,PEGADAIAN CP KOTA WISATA,,Bogor,JAWA BARAT,,ID,+62 21 3505151,https://location.westernunion.com/id/jawa-barat/bogor/352d89a3e19e964ac6c426cbda096b5c,Mo-Fr 07:30-15:00; Sa 07:30-12:00,Western Union,Q861042
2039d4c3b70f9dad25b7517d23d54387,western_union,PEGADAIAN UPS CIPAISAN,,Purwakarta,JAWA BARAT,,ID,+62 268 226569,https://location.westernunion.com/id/jawa-barat/purwakarta/2039d4c3b70f9dad25b7517d23d54387,Mo-Su 07:30-21:00,Western Union,Q861042
8e0ce34c4862c25742a94b66c269c395,western_union,PEGADAIAN UPC PLAZA CIBUBUR,,Bekasi,JAWA BARAT,,ID,+62 21 84310389,https://location.westernunion.com/id/jawa-barat/bekasi/8e0ce34c4862c25742a94b66c269c395,Mo-Fr 10:00-17:30; Sa-Su 10:00-15:00,Western Union,Q861042
9e95b3a921a74d4813f38ce8e86ab3b8,western_union,BANK BJB KCP INDIHIANG,,Tasikmalaya,JAWA BARAT,,ID,+62 265 320891,https://location.westernunion.com/id/jawa-barat/tasikmalaya/9e95b3a921a74d4813f38ce8e86ab3b8,Mo-Fr 08:00-15:00,Western Union,Q861042
398beb3e175f32bbd24731fb87486a35,western_union,PT POS KPC KERSAMANAH,,Garut,JAWA BARAT,,ID,+62 898-7743-935,https://location.westernunion.com/id/jawa-barat/garut/398beb3e175f32bbd24731fb87486a35,Mo-Sa 07:30-16:00,Western Union,Q861042
f628cd295d20eed323237a752eafd7d3,western_union,PEGADAIAN UPS DEPOK TIMUR,,Depok,JAWA BARAT,,ID,+62 21 7703417,https://location.westernunion.com/id/jawa-barat/depok/f628cd295d20eed323237a752eafd7d3,Mo-Fr 07:30-15:00; Sa 07:30-12:00,Western Union,Q861042
12e12a1e1f267eefab6d7a4b61469676,western_union,PEGADAIAN UPC PASAR JUMAT,,Purwakarta,JAWA BARAT,,ID,+62 264 22133,https://location.westernunion.com/id/jawa-barat/purwakarta/12e12a1e1f267eefab6d7a4b61469676,Mo-Fr 07:30-15:00; Sa 07:30-12:00,Western Union,Q861042
325448ba71c241a639bccbc9594f5a90,western_union,PEGADAIAN CP CISALAK,,Bogor,JAWA BARAT,,ID,+62 21 8730248,https://location.westernunion.com/id/jawa-barat/bogor/325448ba71c241a639bccbc9594f5a90,Mo-Fr 07:30-15:00; Sa 07:30-12:00,Western Union,Q861042
3cfedf4dc91cf746086a43b0e1118840,western_union,BRI UNIT MAJA MAJALENGKA,,Majalengka,JAWA BARAT,,ID,+62 233 282393,https://location.westernunion.com/id/jawa-barat/majalengka/3cfedf4dc91cf746086a43b0e1118840,Mo-Fr 08:00-15:00,Western Union,Q861042
434908e0be307e3410a8795a2ba433c8,western_union,TIKI JNE APIPAH TASIKMALAYA,,Tasikmalaya,JAWA BARAT,,ID,+62 265 2353555,https://location.westernunion.com/id/jawa-barat/tasikmalaya/434908e0be307e3410a8795a2ba433c8,Mo-Fr 08:00-22:00; Sa-Su 08:00-17:00,Western Union,Q861042
41738f77e7c11acf3da65b19d6db8c59,western_union,PEGADAIAN UPC SAWANGAN,,Depok,JAWA BARAT,,ID,+62 772 77216518,https://location.westernunion.com/id/jawa-barat/depok/41738f77e7c11acf3da65b19d6db8c59,Mo-Fr 07:30-15:00; Sa 07:30-12:00,Western Union,Q861042
5d5199911811c9fdd4b73e44520ff8eb,western_union,PT POS LE PARUNG BINGUNG,,Depok,JAWA BARAT,,ID,+62 21 77822932,https://location.westernunion.com/id/jawa-barat/depok/5d5199911811c9fdd4b73e44520ff8eb,Mo-Fr 09:00-15:00; Sa 09:00-12:00,Western Union,Q861042
e581a40b45f0408016efd53adc2a55f6,western_union,PEGADAIAN UPC CIKEAS,,Bogor,JAWA BARAT,,ID,+62 21 3840229,https://location.westernunion.com/id/jawa-barat/bogor/e581a40b45f0408016efd53adc2a55f6,Mo-Fr 07:30-15:00; Sa 07:30-12:00,Western Union,Q861042
a60695741eeb6724b3964d1e3a679310,western_union,PEGADAIAN UPC LEUWINANGGUNG,,Depok,JAWA BARAT,,ID,+62 21 3155550,https://location.westernunion.com/id/jawa-barat/depok/a60695741eeb6724b3964d1e3a679310,Mo-Fr 07:30-15:00; Sa 07:30-12:00,Western Union,Q861042
ff32fb0c3ad8bc7846c5283d8b5a69a6,western_union,PEGADAIAN UPS SENTOSA,,Depok,JAWA BARAT,,ID,+62 21 77821752,https://location.westernunion.com/id/jawa-barat/depok/ff32fb0c3ad8bc7846c5283d8b5a69a6,Mo-Fr 07:30-15:00; Sa 07:30-12:00,Western Union,Q861042
ec9fab9c398bf3507265777c22716743,western_union,PEGADAIAN UPC CITRA INDAH,,Bogor,JAWA BARAT,,ID,+62 21 3505151,https://location.westernunion.com/id/jawa-barat/bogor/ec9fab9c398bf3507265777c22716743,Mo-Fr 07:30-15:00; Sa 07:30-12:00,Western Union,Q861042
5f5cf2eff53ec2e452ba84ef3983081f,western_union,PT POS KPC GUNUNG SINDUR,,Bogor,JAWA BARAT,,ID,+62 251 618479,https://location.westernunion.com/id/jawa-barat/bogor/5f5cf2eff53ec2e452ba84ef3983081f,Mo-Fr 09:00-15:00; Sa 09:00-12:00,Western Union,Q861042
704567164f089b7e004a44980b244d42,western_union,PEGADAIAN UPC PONDOK DAMAI,,Bogor,JAWA BARAT,,ID,+62 21 3840229,https://location.westernunion.com/id/jawa-barat/bogor/704567164f089b7e004a44980b244d42,Mo-Fr 08:00-17:00; Sa 08:00-14:00,Western Union,Q861042
e30ec168ad56ca884af8c207c70298bb,western_union,PEGADAIAN UPC PASAR AGUNG,,Depok,JAWA BARAT,,ID,+62 21 74635130,https://location.westernunion.com/id/jawa-barat/depok/e30ec168ad56ca884af8c207c70298bb,Mo-Fr 07:30-15:00; Sa 07:30-12:00,Western Union,Q861042
258ef50b1ef1ca5108573a12f11042a6,western_union,PEGADAIAN UPC LIMBANGAN,,Garut,JAWA BARAT,,ID,+62 262 869262,https://location.westernunion.com/id/jawa-barat/garut/258ef50b1ef1ca5108573a12f11042a6,Mo-Fr 07:30-15:00; Sa 07:30-12:00,Western Union,Q861042
237f7a27375b2681ef71f9c0103e364e,western_union,MAYBANK KCP DEPOK,,Depok,JAWA BARAT,,ID,+62 21 7751368,https://location.westernunion.com/id/jawa-barat/depok/237f7a27375b2681ef71f9c0103e364e,Mo-Fr 08:00-17:00,Western Union,Q861042
bdd5f56b812480446190d55b9ee49fb7,western_union,PEGADAIAN UPC MARGO CITY,,Depok,JAWA BARAT,,ID,+62 21 78871065,https://location.westernunion.com/id/jawa-barat/depok/bdd5f56b812480446190d55b9ee49fb7,Mo-Fr 10:00-17:00; Sa 10:00-15:00,Western Union,Q861042
0a12dbdcfd41a513ac495ac0e91b9fd1,western_union,PT POS KPC CIBARUSAH,,Bekasi,JAWA BARAT,,ID,+62 21 89950897,https://location.westernunion.com/id/jawa-barat/bekasi/0a12dbdcfd41a513ac495ac0e91b9fd1,Mo-Fr 09:00-15:00; Sa 09:00-12:00,Western Union,Q861042
c6dbddd7f980f1cf4b37973cf7a57f58,western_union,PEGADAIAN UPC MERUYUNG,,Depok,JAWA BARAT,,ID,+62 21 77884822,https://location.westernunion.com/id/jawa-barat/depok/c6dbddd7f980f1cf4b37973cf7a57f58,Mo-Fr 07:30-15:00; Sa 07:30-12:00,Western Union,Q861042
057227be84192184e3c81de97c646107,western_union,PEGADAIAN UPC CILEUNGSI,,Bogor,JAWA BARAT,,ID,+62 21 82484664,https://location.westernunion.com/id/jawa-barat/bogor/057227be84192184e3c81de97c646107,Mo-Fr 07:30-15:00; Sa 07:30-12:00,Western Union,Q861042
573361585fa4aaeb163e9a4cd63eae3f,western_union,PT POS LE MEKARJAYADEPOK,,Depok,JAWA BARAT,,ID,+62 21 77822932,https://location.westernunion.com/id/jawa-barat/depok/573361585fa4aaeb163e9a4cd63eae3f,Mo-Fr 09:00-15:00; Sa 09:00-12:00,Western Union,Q861042
b93aa4bc635b068ec74844abbe6a3500,western_union,PT POS LE KERSAMANAH,,Garut,JAWA BARAT,,ID,+62 262 233832,https://location.westernunion.com/id/jawa-barat/garut/b93aa4bc635b068ec74844abbe6a3500,Mo-Fr 09:00-15:00; Sa 09:00-12:00,Western Union,Q861042
eff812fd8651fcb4d1f6768da9a8c1e1,western_union,PEGADAIAN UPS NUSANTARA,,Depok,JAWA BARAT,,ID,+62 21 77218410,https://location.westernunion.com/id/jawa-barat/depok/eff812fd8651fcb4d1f6768da9a8c1e1,Mo-Fr 07:30-15:00; Sa 07:30-12:00,Western Union,Q861042
43359d23d92246a474d84b9fc4bb2804,western_union,BSI KCP TANJUNG SARI 2,,Sumedang,JAWA BARAT,,ID,+62 22 87831001,https://location.westernunion.com/id/jawa-barat/sumedang/43359d23d92246a474d84b9fc4bb2804,Mo-Fr 08:00-15:00,Western Union,Q861042
f1f2f656b6face20a5283c6ffd673d3a,western_union,BSI KCP TANJUNG SARI 2,,Sumedang,JAWA BARAT,,ID,+62 22 87831001,https://location.westernunion.com/id/jawa-barat/sumedang/f1f2f656b6face20a5283c6ffd673d3a,Mo-Fr 08:00-15:00,Western Union,Q861042
ebe23dbf552bf520ab09ee3c10bb0b63,western_union,PT POS KPC SODONGHILIR SUKARAJA,,Tasikmalaya,JAWA BARAT,,ID,+62 265 566856,https://location.westernunion.com/id/jawa-barat/tasikmalaya/ebe23dbf552bf520ab09ee3c10bb0b63,Mo-Fr 09:00-15:00; Sa 09:00-12:00,Western Union,Q861042
c3a0d5d3afd7e89f9af6613cff16787d,western_union,PT POS KPC PARUNG,,Depok,JAWA BARAT,,ID,(+62) 21-600934,https://location.westernunion.com/id/jawa-barat/depok/c3a0d5d3afd7e89f9af6613cff16787d,Mo-Fr 09:00-15:00; Sa 09:00-12:00,Western Union,Q861042
a59fb1483365f122db23de3a26fb007f,western_union,PEGADAIAN UPC CIRIUNG,,Bogor,JAWA BARAT,,ID,+62 21 87900482,https://location.westernunion.com/id/jawa-barat/bogor/a59fb1483365f122db23de3a26fb007f,Mo-Fr 07:30-15:00; Sa 07:30-12:00,Western Union,Q861042
7c1e21c9138f8e51eea303b836c20635,western_union,PEGADAIAN UPC PARAKAN MUNCANG,,Bandung,JAWA BARAT,,ID,(+62) 22-34250,https://location.westernunion.com/id/jawa-barat/bandung/7c1e21c9138f8e51eea303b836c20635,Mo-Fr 07:30-15:00; Sa 07:30-12:00,Western Union,Q861042
79c8fdbfb89a3cf9d17f17a83d7f33cc,western_union,BANK BJB KK CIBALONG,,Tasikmalaya,JAWA BARAT,,ID,+62 265 566442,https://location.westernunion.com/id/jawa-barat/tasikmalaya/79c8fdbfb89a3cf9d17f17a83d7f33cc,Mo-Fr 08:00-15:00,Western Union,Q861042
32a9a4d6a44df1a4052698c15639909f,western_union,PEGADAIAN UPC KOTA KEMBANG,,Depok,JAWA BARAT,,ID,+62 21 97734804,https://location.westernunion.com/id/jawa-barat/depok/32a9a4d6a44df1a4052698c15639909f,Mo-Fr 07:30-15:00; Sa 07:30-12:00,Western Union,Q861042
b22db7f1adfe0e458df8cc41821021a5,western_union,PEGADAIAN UPC MANGKUBUMI,,Tasikmalaya,JAWA BARAT,,ID,+62 262 355544,https://location.westernunion.com/id/jawa-barat/tasikmalaya/b22db7f1adfe0e458df8cc41821021a5,Mo-Fr 08:00-17:00; Sa 08:00-14:00,Western Union,Q861042
a495dcbd72fff47af0951997a62cc5c9,western_union,PEGADAIAN UPC MANGKUBUMI,,Tasikmalaya,JAWA BARAT,,ID,+62 22 4230178,https://location.westernunion.com/id/jawa-barat/tasikmalaya/a495dcbd72fff47af0951997a62cc5c9,Mo-Fr 07:30-15:00; Sa 07:30-12:00,Western Union,Q861042
c45f6a9e67b4b53da9c44217a4d03c8e,western_union,BANK BJB KCP SAWANGAN,,Depok,JAWA BARAT,,ID,+62 251 8612518,https://location.westernunion.com/id/jawa-barat/depok/c45f6a9e67b4b53da9c44217a4d03c8e,Mo-Su 08:00-17:00,Western Union,Q861042
42d3295d01e3997961c9cc21087327f2,western_union,PEGADAIAN UPS INDIHIANG,,Tasikmalaya,JAWA BARAT,,ID,+62 265 2345950,https://location.westernunion.com/id/jawa-barat/tasikmalaya/42d3295d01e3997961c9cc21087327f2,Mo-Fr 07:30-15:00; Sa 07:30-12:00,Western Union,Q861042
6915740b2de4de9401c8701e1a8b31bf,western_union,PEGADAIAN UPC GRIYA DEPOK ASRI,,Depok,JAWA BARAT,,ID,+62 21 77827904,https://location.westernunion.com/id/jawa-barat/depok/6915740b2de4de9401c8701e1a8b31bf,Mo-Fr 07:30-15:00; Sa 07:30-12:00,Western Union,Q861042
9749570806d8ecc3491591226f7d73bf,western_union,PT POS KPC DEPOK PERUMNAS SATU,,Depok,JAWA BARAT,,ID,+62 21 7520493,https://location.westernunion.com/id/jawa-barat/depok/9749570806d8ecc3491591226f7d73bf,Mo-Fr 09:00-15:00; Sa 09:00-12:00,Western Union,Q861042
d6cafb6c267e25c0fa65ff106970a877,western_union,BSI KCP SINGAPARNA,,Tasikmalaya,JAWA BARAT,,ID,+62 659 93388,https://location.westernunion.com/id/jawa-barat/tasikmalaya/d6cafb6c267e25c0fa65ff106970a877,Mo-Fr 07:00-18:00,Western Union,Q861042
e7b83ac985ee06b335651aab8565d40e,western_union,BANK BJB KK PASAR CIBINONG,,Bogor,JAWA BARAT,,ID,+62 21 87902788,https://location.westernunion.com/id/jawa-barat/bogor/e7b83ac985ee06b335651aab8565d40e,Mo-Fr 08:00-15:00,Western Union,Q861042
5df4b835187881514389896ca3b9de82,western_union,PT POS LE NAGREG,,Bandung,JAWA BARAT,,ID,+62 22 4207081,https://location.westernunion.com/id/jawa-barat/bandung/5df4b835187881514389896ca3b9de82,Mo-Fr 09:00-15:00; Sa 09:00-12:00,Western Union,Q861042
2ccdaf7d4d189c48e1f9c8dad91a5127,western_union,PT POS KPC LEUWIGOONG,,Garut,JAWA BARAT,,ID,+62 812-2092-167,https://location.westernunion.com/id/jawa-barat/garut/2ccdaf7d4d189c48e1f9c8dad91a5127,Mo-Sa 07:30-16:00,Western Union,Q861042
bd25efef531b42fcc181211d1325395b,western_union,PT POS KPC BOJONGGEDE,,Bogor,JAWA BARAT,,ID,+62 21 3511523,https://location.westernunion.com/id/jawa-barat/bogor/bd25efef531b42fcc181211d1325395b,Mo-Fr 09:00-15:00; Sa 09:00-12:00,Western Union,Q861042
bc26d482518e70879d8953bb1ec058a9,western_union,MAYBANK KCP CIBINONG,,Bogor,JAWA BARAT,,ID,+62 21 8753692,https://location.westernunion.com/id/jawa-barat/bogor/bc26d482518e70879d8953bb1ec058a9,Mo-Fr 08:00-17:00,Western Union,Q861042
8803b771f06024424afb796b5cb808c6,western_union,PEGADAIAN UPS GRAND DEPOK CITY,,Depok,JAWA BARAT,,ID,+62 21 77832104,https://location.westernunion.com/id/jawa-barat/depok/8803b771f06024424afb796b5cb808c6,Mo-Fr 07:30-15:00; Sa 07:30-12:00,Western Union,Q861042
b200e87c5d497caf892553020f44bafc,western_union,KOPERASI PAYU 144,,Karawang,JAWA BARAT,,ID,+62 852-9490-0900,https://location.westernunion.com/id/jawa-barat/karawang/b200e87c5d497caf892553020f44bafc,Mo-Su 08:00-21:00,Western Union,Q861042
a6052d89c0a63b6747c1164d9cc022fb,western_union,PEGADAIAN UPC RAYA MUCHTAR,,Depok,JAWA BARAT,,ID,+62 21 8615713,https://location.westernunion.com/id/jawa-barat/depok/a6052d89c0a63b6747c1164d9cc022fb,Mo-Fr 08:00-17:00; Sa 08:00-14:00,Western Union,Q861042
53c774b7ea97eff184a8822f85a49278,western_union,PEGADAIAN UPC RAYA PITARA,,Depok,JAWA BARAT,,ID,+62 21 3840229,https://location.westernunion.com/id/jawa-barat/depok/53c774b7ea97eff184a8822f85a49278,Mo-Fr 08:00-17:00; Sa 08:00-14:00,Western Union,Q861042
9fb27bc7e690627f39dbb9cff481869c,western_union,PEGADAIAN CP BOJONGSARI,,Depok,JAWA BARAT,,ID,+62 251 8614588,https://location.westernunion.com/id/jawa-barat/depok/9fb27bc7e690627f39dbb9cff481869c,Mo-Fr 07:30-15:00; Sa 07:30-12:00,Western Union,Q861042
0e316d34d7fc048651a70823f385667f,western_union,PT POS LE CILODONG,,Depok,JAWA BARAT,,ID,+62 21 77822932,https://location.westernunion.com/id/jawa-barat/depok/0e316d34d7fc048651a70823f385667f,Mo-Fr 09:00-15:00; Sa 09:00-12:00,Western Union,Q861042
d29892531f597baa3d11acf6f9af4a8a,western_union,PEGADAIAN UPC TLAJUNG UDIK,,Bogor,JAWA BARAT,,ID,+62 878-4478-1110,https://location.westernunion.com/id/jawa-barat/bogor/d29892531f597baa3d11acf6f9af4a8a,Mo-Fr 07:30-15:00; Sa 07:30-12:00,Western Union,Q861042
8676c1bbea80a01d796a73a85344fa29,western_union,PEGADAIAN UPC PASAR RAYA PARUNG,,Bogor,JAWA BARAT,,ID,+62 251 7330153,https://location.westernunion.com/id/jawa-barat/bogor/8676c1bbea80a01d796a73a85344fa29,Mo-Fr 07:30-15:00; Sa 07:30-12:00,Western Union,Q861042
fbfbe53e86c90ff3b22e7bf7c907bd30,western_union,JNE BOGOR CIBINONG PEMDA,,Bogor,JAWA BARAT,,ID,+62 251 8656341,https://location.westernunion.com/id/jawa-barat/bogor/fbfbe53e86c90ff3b22e7bf7c907bd30,Mo-Fr 09:00-17:00; Sa 09:00-13:00,Western Union,Q861042
cf698d1ffeedd75b06588b93ececb659,western_union,PT REKSA MITRA INDONESIA,,Purwakarta,JAWA BARAT,,ID,+62 878-3483-0382,https://location.westernunion.com/id/jawa-barat/purwakarta/cf698d1ffeedd75b06588b93ececb659,Mo-Fr 08:30-15:00; Sa 08:00-12:00,Western Union,Q861042
ec5dc9f854ead4bf3d61b9a0768f71ca,western_union,KOPERASI PAYU 52,,Cianjur,JAWA BARAT,,ID,+62 878-3483-0382,https://location.westernunion.com/id/jawa-barat/cianjur/ec5dc9f854ead4bf3d61b9a0768f71ca,Mo-Su 08:00-21:00,Western Union,Q861042
947ec2bf3e842fd8f62de9fec1fb9fed,western_union,BANK BJB KCP SUDIRMAN BOGOR,,Bogor,JAWA BARAT,,ID,+62 251 8324132,https://location.westernunion.com/id/jawa-barat/bogor/947ec2bf3e842fd8f62de9fec1fb9fed,Mo-Fr 08:00-15:00,Western Union,Q861042
99e05fa09cd79fcf5e817c2d5ebdb926,western_union,KOPERASI PAYU 282,,Bogor,JAWA BARAT,,ID,+62 857-3719-1857,https://location.westernunion.com/id/jawa-barat/bogor/99e05fa09cd79fcf5e817c2d5ebdb926,Mo-Su 08:00-21:00,Western Union,Q861042
cbb2399c266d9e79dbff2c8ad4b4738f,western_union,BANK BJB KCP CICALENGKA,,Bandung,JAWA BARAT,,ID,+62 22 5953058,https://location.westernunion.com/id/jawa-barat/bandung/cbb2399c266d9e79dbff2c8ad4b4738f,Mo-Fr 08:00-15:00,Western Union,Q861042
cfd337fb1bfb5c1f440a435e67305e7d,western_union,PEGADAIAN UPC CITEREUP,,Bogor,JAWA BARAT,,ID,+62 21 87909466,https://location.westernunion.com/id/jawa-barat/bogor/cfd337fb1bfb5c1f440a435e67305e7d,Mo-Fr 07:30-15:00; Sa 07:30-12:00,Western Union,Q861042
c221cf924c1bdc1ae793a7144b3e7e4c,western_union,PEGADAIAN UPS GRIYA PLERED INDAH,,Purwakarta,JAWA BARAT,,ID,+62 268 280104,https://location.westernunion.com/id/jawa-barat/purwakarta/c221cf924c1bdc1ae793a7144b3e7e4c,Mo-Fr 07:30-15:00; Sa 07:30-12:00,Western Union,Q861042
86eb3701d1aff68c9fd20dc172df5856,western_union,BINA PUTRA SADAYA PLERED,,Purwakarta,JAWA BARAT,,ID,+62 265 53164,https://location.westernunion.com/id/jawa-barat/purwakarta/86eb3701d1aff68c9fd20dc172df5856,Mo-Su 06:00-24:00,Western Union,Q861042
0fafce6a6f796fac40aa6fef6bfed844,western_union,KOPERASI PAYU 101,,Purwakarta,JAWA BARAT,,ID,+62 877-7997-9000,https://location.westernunion.com/id/jawa-barat/purwakarta/0fafce6a6f796fac40aa6fef6bfed844,Mo-Su 08:00-21:00,Western Union,Q861042
930582859d8646c418e5d85a8d599158,western_union,PT POS MPS CICALENGKA,,Bandung,JAWA BARAT,,ID,+62 22 79489333,https://location.westernunion.com/id/jawa-barat/bandung/930582859d8646c418e5d85a8d599158,Mo-Fr 09:00-15:00; Sa 09:00-12:00,Western Union,Q861042
02fd9bc703981dd684a044ddd683dc63,western_union,PT POS LE CITAYEM,,Bogor,JAWA BARAT,,ID,+62 21 77822932,https://location.westernunion.com/id/jawa-barat/bogor/02fd9bc703981dd684a044ddd683dc63,Mo-Fr 09:00-15:00; Sa 09:00-12:00,Western Union,Q861042
b61ead6155badb92170f712291608d7a,western_union,PEGADAIAN UPC ARCO,,Bogor,JAWA BARAT,,ID,+62 251 8612982,https://location.westernunion.com/id/jawa-barat/bogor/b61ead6155badb92170f712291608d7a,Mo-Fr 08:00-17:00; Sa 08:00-14:00,Western Union,Q861042
973d3932cc427534065e5ff8fef17983,western_union,PEGADAIAN UPC PASAR PUCUNG,,Depok,JAWA BARAT,,ID,+62 21 98284223,https://location.westernunion.com/id/jawa-barat/depok/973d3932cc427534065e5ff8fef17983,Mo-Fr 07:30-15:00; Sa 07:30-12:00,Western Union,Q861042
35689feaaa9d2ac0d6d1ebfd28e70041,western_union,PEGADAIAN UPC JATI MULYA,,Bekasi,JAWA BARAT,,ID,+62 21 98267463,https://location.westernunion.com/id/jawa-barat/bekasi/35689feaaa9d2ac0d6d1ebfd28e70041,Mo-Fr 07:30-15:00; Sa 07:30-12:00,Western Union,Q861042
a2029b0181938cee300e2e3d12565437,western_union,PEGADAIAN UPC CILANGKAP,,Bogor,JAWA BARAT,,ID,+62 21 87911168,https://location.westernunion.com/id/jawa-barat/bogor/a2029b0181938cee300e2e3d12565437,Mo-Fr 07:30-15:00; Sa 07:30-12:00,Western Union,Q861042
4c176316b145c466a0ddc3f55f6f2d74,western_union,PEGADAIAN UPC SAYANG,,Sumedang,JAWA BARAT,,ID,+62 22 4230178,https://location.westernunion.com/id/jawa-barat/sumedang/4c176316b145c466a0ddc3f55f6f2d74,Mo-Fr 08:00-17:00; Sa 08:00-14:00,Western Union,Q861042
047de6c9b8d35512b4556468434f41d1,western_union,PEGADAIAN UPS RANCAEKEK,,Bandung,JAWA BARAT,,ID,+62 22 7796144,https://location.westernunion.com/id/jawa-barat/bandung/047de6c9b8d35512b4556468434f41d1,Mo-Fr 07:30-15:00; Sa 07:30-12:00,Western Union,Q861042
3950b02e179c6864d08ab0cd9d903428,western_union,BANK BJB KCP CIKERUH,,Sumedang,JAWA BARAT,,ID,+62 22 7798321,https://location.westernunion.com/id/jawa-barat/sumedang/3950b02e179c6864d08ab0cd9d903428,Mo-Fr 08:00-15:00,Western Union,Q861042
0ab769e195ed03d4f9a2791c5c2b00c3,western_union,BSI KK LEMBANG,,Bandung Barat,JAWA BARAT,,ID,+62 22 2784902,https://location.westernunion.com/id/jawa-barat/bandung-barat/0ab769e195ed03d4f9a2791c5c2b00c3,Mo-Fr 08:00-15:00,Western Union,Q861042
bf86328ac7ed0a7e065d2879b928d2c9,western_union,BSI KK LEMBANG,,Bandung Barat,JAWA BARAT,,ID,+62 22 2784902,https://location.westernunion.com/id/jawa-barat/bandung-barat/bf86328ac7ed0a7e065d2879b928d2c9,Mo-Fr 08:00-15:00,Western Union,Q861042
4435a769d3dd26dea26a6af5dff62477,western_union,PEGADAIAN UPS BOJONG GEDE,,Bogor,JAWA BARAT,,ID,+62 21 87988340,https://location.westernunion.com/id/jawa-barat/bogor/4435a769d3dd26dea26a6af5dff62477,Mo-Su 07:30-21:00,Western Union,Q861042
ebcab6192ea0e687e4fb808132b02a98,western_union,BRI UNIT BOJONG GEDE CIBINONG,,Bogor,JAWA BARAT,,ID,+62 21 8780821,https://location.westernunion.com/id/jawa-barat/bogor/ebcab6192ea0e687e4fb808132b02a98,Mo-Fr 08:00-15:00,Western Union,Q861042
9dc3e323fbbcb13ef795a331f5535811,western_union,PT POS KPC JASINGA,,Bogor,JAWA BARAT,,ID,+62 251 688222,https://location.westernunion.com/id/jawa-barat/bogor/9dc3e323fbbcb13ef795a331f5535811,Mo-Fr 09:00-15:00; Sa 09:00-12:00,Western Union,Q861042
613af99927d4067fc7ca64fdd9e091ce,western_union,PT POS LE SUKASARI,,Sumedang,JAWA BARAT,,ID,+62 261 202006,https://location.westernunion.com/id/jawa-barat/sumedang/613af99927d4067fc7ca64fdd9e091ce,Mo-Fr 09:00-15:00; Sa 09:00-12:00,Western Union,Q861042
39be664e0f78eb1929eddbe4055b0a4c,western_union,BANK BJB KK PASAR LEMBANG,,Bandung Barat,JAWA BARAT,,ID,+62 22 6809730,https://location.westernunion.com/id/jawa-barat/bandung-barat/39be664e0f78eb1929eddbe4055b0a4c,Mo-Fr 08:00-15:00,Western Union,Q861042
0ed0a28d54b82b954590cd1f45ddc3b2,western_union,BANK BJB KCP CICAHEUM,,Bandung,JAWA BARAT,,ID,+62 22 87242862,https://location.westernunion.com/id/jawa-barat/bandung/0ed0a28d54b82b954590cd1f45ddc3b2,Mo-Fr 08:00-15:00,Western Union,Q861042
92ce790f46715588f7eaa3e4f3703f39,western_union,PEGADAIAN CPS PADASUKA,,Bandung,JAWA BARAT,,ID,+62 22 7106504,https://location.westernunion.com/id/jawa-barat/bandung/92ce790f46715588f7eaa3e4f3703f39,Mo-Fr 07:30-15:00; Sa 07:30-12:00,Western Union,Q861042
e3e03b06d4b213c31513d8ab6a3fc912,western_union,PEGADAIAN UPC SINDANG LAYA,,Bandung,JAWA BARAT,,ID,+62 22 869262,https://location.westernunion.com/id/jawa-barat/bandung/e3e03b06d4b213c31513d8ab6a3fc912,Mo-Fr 07:30-15:00; Sa 07:30-12:00,Western Union,Q861042
a08389b49546f2b5f2e1605460b41a66,western_union,PEGADAIAN UPC CISARANTEN KULON,,Bandung,JAWA BARAT,,ID,+62 22 4230178,https://location.westernunion.com/id/jawa-barat/bandung/a08389b49546f2b5f2e1605460b41a66,Mo-Fr 07:30-15:00; Sa 07:30-12:00,Western Union,Q861042
b14469c8af7363a8ce5f17499d812cef,western_union,BANK BJB KCP WANARAJA,,Garut,JAWA BARAT,,ID,+62 262 232738,https://location.westernunion.com/id/jawa-barat/garut/b14469c8af7363a8ce5f17499d812cef,Mo-Fr 08:00-15:00,Western Union,Q861042
4a7caed8c18f73d98c58498a6d314130,western_union,PT POS LE MAGUNREJA,,Tasikmalaya,JAWA BARAT,,ID,+62 22 4207081,https://location.westernunion.com/id/jawa-barat/tasikmalaya/4a7caed8c18f73d98c58498a6d314130,Mo-Fr 09:00-15:00; Sa 09:00-12:00,Western Union,Q861042
9f9dce7b324ea1cc804dbf5e40b538ef,western_union,PEGADAIAN UPC PERMATA BIRU,,Bandung,JAWA BARAT,,ID,+62 22 869262,https://location.westernunion.com/id/jawa-barat/bandung/9f9dce7b324ea1cc804dbf5e40b538ef,Mo-Fr 07:30-15:00; Sa 07:30-12:00,Western Union,Q861042
2992e5ea7ce1dc877687d9c489dd85e2,western_union,KOPERASI PAYU 51,,Purwakarta,JAWA BARAT,,ID,+62 816-1736-6799,https://location.westernunion.com/id/jawa-barat/purwakarta/2992e5ea7ce1dc877687d9c489dd85e2,Mo-Su 08:00-21:00,Western Union,Q861042
3e06839339e9ef418e211acbfea91ac4,western_union,PEGADAIAN UPC DANGDEUR,,Bandung,JAWA BARAT,,ID,+62 22 822707,https://location.westernunion.com/id/jawa-barat/bandung/3e06839339e9ef418e211acbfea91ac4,Mo-Fr 07:30-15:00; Sa 07:30-12:00,Western Union,Q861042
50a581b9cac88867edd2d8a0ac848f80,western_union,BSI KCP BANDUNG UJUNG BERUNG 1,,Bandung,JAWA BARAT,,ID,+62 22 7200775,https://location.westernunion.com/id/jawa-barat/bandung/50a581b9cac88867edd2d8a0ac848f80,Mo-Fr 08:00-15:00,Western Union,Q861042
88b61e02aa3fd4480abd3baf87a91f38,western_union,BSI KCP UJUNG BERUNG 1,,Bandung,JAWA BARAT,,ID,+62 22 7200775,https://location.westernunion.com/id/jawa-barat/bandung/88b61e02aa3fd4480abd3baf87a91f38,Mo-Fr 08:00-15:00,Western Union,Q861042
b0222affe3bafe3e749b124eacc9dd4c,western_union,PEGADAIAN UPS ARCAMANIK,,Bandung,JAWA BARAT,,ID,+62 22 7275535,https://location.westernunion.com/id/jawa-barat/bandung/b0222affe3bafe3e749b124eacc9dd4c,Mo-Fr 07:30-15:00; Sa 07:30-12:00,Western Union,Q861042
b42e3f5b7fd0f839a33a80971aa6387b,western_union,PEGADAIAN UPC PANYILEUKAN,,Bandung,JAWA BARAT,,ID,+62 22 591847,https://location.westernunion.com/id/jawa-barat/bandung/b42e3f5b7fd0f839a33a80971aa6387b,Mo-Fr 07:30-15:00; Sa 07:30-12:00,Western Union,Q861042
0d4b1b3fe94b39079cc56ca527942260,western_union,PEGADAIAN UPC CIBIRU,,Bandung,JAWA BARAT,,ID,+62 22 869262,https://location.westernunion.com/id/jawa-barat/bandung/0d4b1b3fe94b39079cc56ca527942260,Mo-Fr 07:30-15:00; Sa 07:30-12:00,Western Union,Q861042
bb5c982321a2d5237232838ff61f2fc8,western_union,PEGADAIAN UPC PANGHEGAR,,Bandung,JAWA BARAT,,ID,+62 22 2628124,https://location.westernunion.com/id/jawa-barat/bandung/bb5c982321a2d5237232838ff61f2fc8,Mo-Fr 07:30-15:00; Sa 07:30-12:00,Western Union,Q861042
5c3ec8fa074503638a5e273aa125704f,western_union,BANK BJB KK AH NASUTION,,Bandung,JAWA BARAT,,ID,+62 22 7802710,https://location.westernunion.com/id/jawa-barat/bandung/5c3ec8fa074503638a5e273aa125704f,Mo-Fr 08:00-15:00,Western Union,Q861042
b35acf4b2c8130031d1f040c4bf0c9d2,western_union,JNE BANDUNG CILEUNYI,,Bandung,JAWA BARAT,,ID,+62 22 7816009,https://location.westernunion.com/id/jawa-barat/bandung/b35acf4b2c8130031d1f040c4bf0c9d2,Mo-Fr 07:00-24:00; Sa-Su 08:00-20:00,Western Union,Q861042
1715e7cdc559746bbffe54642ceb6775,western_union,BANK BJB KCP BOJONG GEDE,,Bogor,JAWA BARAT,,ID,+62 21 87987676,https://location.westernunion.com/id/jawa-barat/bogor/1715e7cdc559746bbffe54642ceb6775,Mo-Fr 07:00-19:00,Western Union,Q861042
3d24c84c0822fbb72fbd0947f17270f0,western_union,PT POS KPC BANYURESMI,,Garut,JAWA BARAT,,ID,+62 813-2189-0333,https://location.westernunion.com/id/jawa-barat/garut/3d24c84c0822fbb72fbd0947f17270f0,Mo-Sa 07:30-16:00,Western Union,Q861042
be8a8bec566f2cd71738ffe43ed70278,western_union,BANK BJB KCP STPDN,,Sumedang,JAWA BARAT,,ID,+62 22 7798029,https://location.westernunion.com/id/jawa-barat/sumedang/be8a8bec566f2cd71738ffe43ed70278,Mo-Fr 07:00-19:00,Western Union,Q861042
277226f862d8d53294e0e44a836c10d7,western_union,PEGADAIAN UPS KADUNGORA,,Garut,JAWA BARAT,,ID,(+62) 21-622458666,https://location.westernunion.com/id/jawa-barat/garut/277226f862d8d53294e0e44a836c10d7,Mo-Fr 07:30-15:00; Sa 07:30-12:00,Western Union,Q861042
a14120025233d053e68e2013abe1bbc9,western_union,PEGADAIAN UPC WANARAJA,,Garut,JAWA BARAT,,ID,+62 262 30490,https://location.westernunion.com/id/jawa-barat/garut/a14120025233d053e68e2013abe1bbc9,Mo-Fr 07:30-15:00; Sa 07:30-12:00,Western Union,Q861042
c5181c2878dd4293ff661cc056db06f4,western_union,BANK BJB KC JATINANGOR,,Sumedang,JAWA BARAT,,ID,+62 22 7781619,https://location.westernunion.com/id/jawa-barat/sumedang/c5181c2878dd4293ff661cc056db06f4,Mo-Fr 08:00-15:00,Western Union,Q861042
601e12b61cd13f24e1ea9f8c3305be7b,western_union,BANK BJB KCP RANCAEKEK,,Sumedang,JAWA BARAT,,ID,+62 22 7792678,https://location.westernunion.com/id/jawa-barat/sumedang/601e12b61cd13f24e1ea9f8c3305be7b,Mo-Fr 08:00-15:00,Western Union,Q861042
990410ce0eb6d59866f97f41b718fc79,western_union,BANK BJB KCP UJUNGBERUNG,,Bandung,JAWA BARAT,,ID,+62 22 7814428,https://location.westernunion.com/id/jawa-barat/bandung/990410ce0eb6d59866f97f41b718fc79,Mo-Fr 07:00-19:00,Western Union,Q861042
278f6be87809478256380e41bed4e6cc,western_union,PEGADAIAN UPS JATINANGOR,,Sumedang,JAWA BARAT,,ID,+62 852-9405-5779,https://location.westernunion.com/id/jawa-barat/sumedang/278f6be87809478256380e41bed4e6cc,Mo-Fr 07:30-15:00; Sa 07:30-12:00,Western Union,Q861042
880d1605c07e198b6c9f4dd22dd7ae15,western_union,PT POS KPC BANDUNG UNPAR,,Bandung,JAWA BARAT,,ID,+62 21 4207081,https://location.westernunion.com/id/jawa-barat/bandung/880d1605c07e198b6c9f4dd22dd7ae15,Mo-Fr 09:00-15:00; Sa 09:00-12:00,Western Union,Q861042
7edc9f7e5a6c20356c64cb72527a83e9,western_union,PEGADAIAN UPC SADANG SERANG,,Bandung,JAWA BARAT,,ID,+62 22 869262,https://location.westernunion.com/id/jawa-barat/bandung/7edc9f7e5a6c20356c64cb72527a83e9,Mo-Fr 07:30-15:00; Sa 07:30-12:00,Western Union,Q861042
aebc7365f0d246c183a5f2b6e5f68846,western_union,BANK BJB KCP ANTAPANI,,Bandung,JAWA BARAT,,ID,+62 22 7278841,https://location.westernunion.com/id/jawa-barat/bandung/aebc7365f0d246c183a5f2b6e5f68846,Mo-Fr 08:00-15:00,Western Union,Q861042
9bcfbcb003fa904ce4fab9b6d35106dc,western_union,PEGADAIAN UPS TUBAGUS ISMAIL,,Bandung,JAWA BARAT,,ID,+62 22 2508370,https://location.westernunion.com/id/jawa-barat/bandung/9bcfbcb003fa904ce4fab9b6d35106dc,Mo-Fr 07:30-15:00; Sa 07:30-12:00,Western Union,Q861042
8273044b538142078187b0f654618d3c,western_union,PEGADAIAN UPS BUBULAK,,Bogor,JAWA BARAT,,ID,+62 251 8624883,https://location.westernunion.com/id/jawa-barat/bogor/8273044b538142078187b0f654618d3c,Mo-Fr 07:30-15:00; Sa 07:30-12:00,Western Union,Q861042
cfb049c705fed48810593bb5099d7bcc,western_union,PEGADAIAN CP METRO,,Bandung,JAWA BARAT,,ID,+62 22 2628124,https://location.westernunion.com/id/jawa-barat/bandung/cfb049c705fed48810593bb5099d7bcc,Mo-Fr 07:30-15:00; Sa 07:30-12:00,Western Union,Q861042
88e33f0ce22c73279702f6f90df0915b,western_union,BANK BJB KK GEDUNG SATE,,Bandung,JAWA BARAT,,ID,+62 22 4216702,https://location.westernunion.com/id/jawa-barat/bandung/88e33f0ce22c73279702f6f90df0915b,Mo-Fr 07:00-19:00,Western Union,Q861042
6244287c7dc068470fc7f23fdaa77878,western_union,PEGADAIAN UPS BABAKAN SARI,,Bandung,JAWA BARAT,,ID,+62 22 87240661,https://location.westernunion.com/id/jawa-barat/bandung/6244287c7dc068470fc7f23fdaa77878,Mo-Fr 07:30-15:00; Sa 07:30-12:00,Western Union,Q861042
4f214087b350e0a6d6e265f5f00ef539,western_union,BANK BJB KCP CICADAS,,Bandung,JAWA BARAT,,ID,+62 22 7213394,https://location.westernunion.com/id/jawa-barat/bandung/4f214087b350e0a6d6e265f5f00ef539,Mo-Fr 08:00-15:00,Western Union,Q861042
968f840526c2148a3e14ddd854df1076,western_union,BSI KCP BANDUNG SETIABUDI 2,,Bandung,JAWA BARAT,,ID,+62 22 2031122,https://location.westernunion.com/id/jawa-barat/bandung/968f840526c2148a3e14ddd854df1076,Mo-Fr 08:00-15:00,Western Union,Q861042
89d213621830c22c5118c7bfb4c6da48,western_union,BSI KCP SETIABUDI 2,,Bandung,JAWA BARAT,,ID,+62 22 2031122,https://location.westernunion.com/id/jawa-barat/bandung/89d213621830c22c5118c7bfb4c6da48,Mo-Fr 08:00-15:00,Western Union,Q861042
9ea15118879856be4bb6c89d3d418133,western_union,PT POS KPC MANIIS,,Purwakarta,JAWA BARAT,,ID,+62 21 3511523,https://location.westernunion.com/id/jawa-barat/purwakarta/9ea15118879856be4bb6c89d3d418133,Mo-Fr 09:00-15:00; Sa 09:00-12:00,Western Union,Q861042
dbb21ba8f6c711afaed21e81063c8bd1,western_union,PEGADAIAN UPC ANTAPANI,,Bandung,JAWA BARAT,,ID,+62 22 869290,https://location.westernunion.com/id/jawa-barat/bandung/dbb21ba8f6c711afaed21e81063c8bd1,Mo-Fr 07:30-15:00; Sa 07:30-12:00,Western Union,Q861042
d5472b299fe7cf2545c867da0de95d34,western_union,PEGADAIAN UPS PARAKAN SAAT,,Bandung,JAWA BARAT,,ID,+62 22 7216504,https://location.westernunion.com/id/jawa-barat/bandung/d5472b299fe7cf2545c867da0de95d34,Mo-Fr 07:30-15:00; Sa 07:30-12:00,Western Union,Q861042
51ac731235f206cec9fcc17f56ab91d0,western_union,PEGADAIAN UPC SALABENDA,,Bogor,JAWA BARAT,,ID,+62 21 3840229,https://location.westernunion.com/id/jawa-barat/bogor/51ac731235f206cec9fcc17f56ab91d0,Mo-Fr 07:30-15:00; Sa 07:30-12:00,Western Union,Q861042
3df11a70ebd89576c58b3d65c1855292,western_union,PT POS KPC SUKAREGANG,,Garut,JAWA BARAT,,ID,+62 852-2420-8740,https://location.westernunion.com/id/jawa-barat/garut/3df11a70ebd89576c58b3d65c1855292,Mo-Sa 07:30-16:00,Western Union,Q861042
32ae2cad2174374d6f3334327887dd64,western_union,PEGADAIAN UPC CIKUTRA,,Bandung,JAWA BARAT,,ID,+62 22 869262,https://location.westernunion.com/id/jawa-barat/bandung/32ae2cad2174374d6f3334327887dd64,Mo-Fr 07:30-15:00; Sa 07:30-12:00,Western Union,Q861042
1ef4b0173ee25b2880df7dd03bd20ce6,western_union,MAYBANK KCP AHMAD YANI,,Bandung,JAWA BARAT,,ID,+62 22 723978,https://location.westernunion.com/id/jawa-barat/bandung/1ef4b0173ee25b2880df7dd03bd20ce6,Mo-Fr 08:00-17:00,Western Union,Q861042
03fc9b63aa0a56fc5772046095a462eb,western_union,PEGADAIAN UPS SUKA MULYA,,Bandung,JAWA BARAT,,ID,+62 22 87775256,https://location.westernunion.com/id/jawa-barat/bandung/03fc9b63aa0a56fc5772046095a462eb,Mo-Su 07:30-21:00,Western Union,Q861042
12ec83fc8ae3c90186617c4367f7edf7,western_union,PEGADAIAN UPC METRO TRADE CENTRE,,Bandung,JAWA BARAT,,ID,+62 22 7536290,https://location.westernunion.com/id/jawa-barat/bandung/12ec83fc8ae3c90186617c4367f7edf7,Mo-Fr 08:00-15:30; Sa 08:00-12:00,Western Union,Q861042
12d048fbacfc99bb56f0df9192e9270a,western_union,PEGADAIAN UPC RANCABOLAN,,Bandung,JAWA BARAT,,ID,+62 22 4230178,https://location.westernunion.com/id/jawa-barat/bandung/12d048fbacfc99bb56f0df9192e9270a,Mo-Fr 07:30-15:00; Sa 07:30-12:00,Western Union,Q861042
b18e921164d3cfa59de6262e7053219a,western_union,KOPERASI PAYU 575,,Sukabumi,JAWA BARAT,,ID,+62 21 29475518,https://location.westernunion.com/id/jawa-barat/sukabumi/b18e921164d3cfa59de6262e7053219a,Mo-Su 08:00-19:00,Western Union,Q861042
8397d35e1530642b9afb0b19d2d878b7,western_union,BSI KCP BANDUNG SOETTA,,Bandung,JAWA BARAT,,ID,+62 22 7567636,https://location.westernunion.com/id/jawa-barat/bandung/8397d35e1530642b9afb0b19d2d878b7,Mo-Fr 08:00-15:00,Western Union,Q861042
a5f409444f9610a10b8b2eaec1c244cb,western_union,BSI KCP BANDUNG SOETTA,,Bandung,JAWA BARAT,,ID,+62 22 7567636,https://location.westernunion.com/id/jawa-barat/bandung/a5f409444f9610a10b8b2eaec1c244cb,Mo-Fr 08:00-15:00,Western Union,Q861042
47eadb11e7b906662a06f4893cae4850,western_union,PEGADAIAN UPS SARIASIH,,Bandung,JAWA BARAT,,ID,+62 22 2017171,https://location.westernunion.com/id/jawa-barat/bandung/47eadb11e7b906662a06f4893cae4850,Mo-Fr 07:30-15:00; Sa 07:30-12:00,Western Union,Q861042
a83c50fbe0f99b338a2bdcae0788ea85,western_union,PEGADAIAN UPC YASMIN,,Bogor,JAWA BARAT,,ID,+62 21 3840229,https://location.westernunion.com/id/jawa-barat/bogor/a83c50fbe0f99b338a2bdcae0788ea85,Mo-Fr 07:30-15:00; Sa 07:30-12:00,Western Union,Q861042
8780b13bf4da06ddeca6a30a8a8cbea4,western_union,PEGADAIAN UPC BALUBUR,,Bandung,JAWA BARAT,,ID,+62 22 4230178,https://location.westernunion.com/id/jawa-barat/bandung/8780b13bf4da06ddeca6a30a8a8cbea4,Mo-Fr 08:00-17:00; Sa 08:00-14:00,Western Union,Q861042
eb7a6be41f5d37ac0d730afb7afffba5,western_union,PEGADAIAN UPC CIAWI TALI,,Garut,JAWA BARAT,,ID,+62 262 458134,https://location.westernunion.com/id/jawa-barat/garut/eb7a6be41f5d37ac0d730afb7afffba5,Mo-Fr 07:30-15:00; Sa 07:30-12:00,Western Union,Q861042
fc4c8b73d76f7667176338a528ac9808,western_union,BANK BJB KK UNPAS,,Bandung,JAWA BARAT,,ID,+62 22 61627638,https://location.westernunion.com/id/jawa-barat/bandung/fc4c8b73d76f7667176338a528ac9808,Mo-Fr 08:00-15:00,Western Union,Q861042
6beac3f6052fe5d6de3195c2c091e728,western_union,PEGADAIAN UPS AHMAD YANI,,Garut,JAWA BARAT,,ID,+62 21 62239312,https://location.westernunion.com/id/jawa-barat/garut/6beac3f6052fe5d6de3195c2c091e728,Mo-Fr 07:30-15:00; Sa 07:30-12:00,Western Union,Q861042
3b7d66068b5e20a187b88cc8224324eb,western_union,BSI KK BANDUNG UNISBA 2,,Bandung,JAWA BARAT,,ID,+62 22 84469227,https://location.westernunion.com/id/jawa-barat/bandung/3b7d66068b5e20a187b88cc8224324eb,Mo-Fr 08:00-15:00,Western Union,Q861042
c23dd123e52e24f8601dddd3f48427e1,western_union,BSI KK BANDUNG UNISBA 2,,Bandung,JAWA BARAT,,ID,+62 22 84469227,https://location.westernunion.com/id/jawa-barat/bandung/c23dd123e52e24f8601dddd3f48427e1,Mo-Fr 08:00-15:00,Western Union,Q861042
6461d47578a65872d4368f3eace64af8,western_union,BANK BJB KCP IR H JUANDA,,Bandung,JAWA BARAT,,ID,+62 22 4261414,https://location.westernunion.com/id/jawa-barat/bandung/6461d47578a65872d4368f3eace64af8,Mo-Fr 08:00-15:00,Western Union,Q861042
29e9ab047dc5a5ff4d751673bd3e3ff5,western_union,JNE BANDUNG KAWALUYAN,,Bandung,JAWA BARAT,,ID,+62 22 7335455,https://location.westernunion.com/id/jawa-barat/bandung/29e9ab047dc5a5ff4d751673bd3e3ff5,Mo-Sa 00:01-24:00; Su 08:00-24:00,Western Union,Q861042
2bf7efc0bea46bf29da7c9d64232c24f,western_union,PT POS KPC BOGOR KEDUNG HALANG,,Bogor,JAWA BARAT,,ID,+62 251 664671,https://location.westernunion.com/id/jawa-barat/bogor/2bf7efc0bea46bf29da7c9d64232c24f,Mo-Fr 09:00-15:00; Sa 09:00-12:00,Western Union,Q861042
1a6da2a6cbc51c0fd3152ad8d82e5cc9,western_union,PEGADAIAN UPC TURANGGA,,Bandung,JAWA BARAT,,ID,+62 22 7303320,https://location.westernunion.com/id/jawa-barat/bandung/1a6da2a6cbc51c0fd3152ad8d82e5cc9,Mo-Fr 07:30-15:00; Sa 07:30-12:00,Western Union,Q861042
9e6386b594c05de75061cc59a416551c,western_union,PT POS LE SIMPANGDAGO,,Bandung,JAWA BARAT,,ID,+62 22 4207081,https://location.westernunion.com/id/jawa-barat/bandung/9e6386b594c05de75061cc59a416551c,Mo-Fr 09:00-15:00; Sa 09:00-12:00,Western Union,Q861042
154c4cfaf913b3076bd545cab6dff2da,western_union,PEGADAIAN UPS GUNTURSARI,,Garut,JAWA BARAT,,ID,+62 21 62233607,https://location.westernunion.com/id/jawa-barat/garut/154c4cfaf913b3076bd545cab6dff2da,Mo-Su 07:30-21:00,Western Union,Q861042
429a007104f1b1252cc971aea608c951,western_union,PEGADAIAN CPS BOGOR BARU,,Bogor,JAWA BARAT,,ID,+62 251 8346331,https://location.westernunion.com/id/jawa-barat/bogor/429a007104f1b1252cc971aea608c951,Mo-Fr 07:30-15:00; Sa 07:30-12:00,Western Union,Q861042
e4b024911c0e8a72fce58076eb4c539d,western_union,BANK BJB KK CIWALK,,Bandung,JAWA BARAT,,ID,+62 22 8202404,https://location.westernunion.com/id/jawa-barat/bandung/e4b024911c0e8a72fce58076eb4c539d,Mo-Fr 07:00-19:00,Western Union,Q861042
2380f090379f6f4577381ab2907c4625,western_union,PEGADAIAN UPC DARWATI,,Bandung,JAWA BARAT,,ID,+62 22 847135,https://location.westernunion.com/id/jawa-barat/bandung/2380f090379f6f4577381ab2907c4625,Mo-Fr 07:30-15:00; Sa 07:30-12:00,Western Union,Q861042
a37bb55398df9c9a50827290ef39da40,western_union,JNE BOGOR SHOLEH ISKANDAR,,Bogor,JAWA BARAT,,ID,+62 251 8376536,https://location.westernunion.com/id/jawa-barat/bogor/a37bb55398df9c9a50827290ef39da40,Mo-Fr 09:00-17:00; Sa 09:00-13:00,Western Union,Q861042
efdcb37cb14db30081f7960cc9f41981,western_union,JNE BANDUNG AHMAD YANI,,Bandung,JAWA BARAT,,ID,+62 22 61709108,https://location.westernunion.com/id/jawa-barat/bandung/efdcb37cb14db30081f7960cc9f41981,Mo-Su 00:01-24:00,Western Union,Q861042
8d4cba8bb0c2acd3b952af0b1c5955a3,western_union,BANK BJB KK YANTAP,,Bandung,JAWA BARAT,,ID,+62 22 7217587,https://location.westernunion.com/id/jawa-barat/bandung/8d4cba8bb0c2acd3b952af0b1c5955a3,Mo-Fr 07:00-19:00,Western Union,Q861042
e67b2455536453d4530353946349176a,western_union,PEGADAIAN UPC CIHANJUANG,,Cimahi,JAWA BARAT,,ID,(+62) 22-66423,https://location.westernunion.com/id/jawa-barat/cimahi/e67b2455536453d4530353946349176a,Mo-Fr 07:30-15:00; Sa 07:30-12:00,Western Union,Q861042
1b0bf519e748682148b369e940acde70,western_union,PEGADAIAN UPC SUKADANA,,Garut,JAWA BARAT,,ID,+62 262 34250,https://location.westernunion.com/id/jawa-barat/garut/1b0bf519e748682148b369e940acde70,Mo-Fr 07:30-15:00; Sa 07:30-12:00,Western Union,Q861042
ebf838855947dcc9ff9117484d1738f5,western_union,PEGADAIAN UPC BAYONGBONG,,Garut,JAWA BARAT,,ID,+62 262 34250,https://location.westernunion.com/id/jawa-barat/garut/ebf838855947dcc9ff9117484d1738f5,Mo-Fr 07:30-15:00; Sa 07:30-12:00,Western Union,Q861042
69eef865a63e1c2a9ba9fe033497277b,western_union,BSI KC GARUT,,Garut,JAWA BARAT,,ID,+62 263 284648,https://location.westernunion.com/id/jawa-barat/garut/69eef865a63e1c2a9ba9fe033497277b,Mo-Fr 07:00-18:00,Western Union,Q861042
0d79985048622a936caf1c36772e6e4e,western_union,PEGADAIAN UPC TAROGONG,,Garut,JAWA BARAT,,ID,+62 262 458134,https://location.westernunion.com/id/jawa-barat/garut/0d79985048622a936caf1c36772e6e4e,Mo-Fr 07:30-15:00; Sa 07:30-12:00,Western Union,Q861042
51502026e19586d5f9a7c3d201f24208,western_union,BSI KCP BANDUNG MAJALAYA,,Bandung,JAWA BARAT,,ID,+62 22 85963200,https://location.westernunion.com/id/jawa-barat/bandung/51502026e19586d5f9a7c3d201f24208,Mo-Fr 08:00-15:00,Western Union,Q861042
4836e94a7b13cc9cc58bbc280bd2dd13,western_union,BANK BJB KCP PASTEUR,,Bandung,JAWA BARAT,,ID,+62 22 2020875,https://location.westernunion.com/id/jawa-barat/bandung/4836e94a7b13cc9cc58bbc280bd2dd13,Mo-Fr 08:00-15:00,Western Union,Q861042
2dc2cd8e6a2606275442ca33a6727190,western_union,PEGADAIAN UPS MAJASETRA,,Bandung,JAWA BARAT,,ID,+62 22 8590245,https://location.westernunion.com/id/jawa-barat/bandung/2dc2cd8e6a2606275442ca33a6727190,Mo-Su 07:30-21:00,Western Union,Q861042
8e63e61c947dcc53df01750ba3a7c2eb,western_union,PEGADAIAN UPS GURUMINDA,,Bandung,JAWA BARAT,,ID,+62 22 97882662,https://location.westernunion.com/id/jawa-barat/bandung/8e63e61c947dcc53df01750ba3a7c2eb,Mo-Fr 07:30-15:00; Sa 07:30-12:00,Western Union,Q861042
fc9f24de07371964075c487eb1af187b,western_union,BANK BJB KK CIJENUK,,Bandung Barat,JAWA BARAT,,ID,+62 22 6809731,https://location.westernunion.com/id/jawa-barat/bandung-barat/fc9f24de07371964075c487eb1af187b,Mo-Fr 08:00-15:00,Western Union,Q861042
d97cd5546b6b6b042706a979c0df9555,western_union,BANK BJB KK CIPEUNDEUY,,Bandung Barat,JAWA BARAT,,ID,+62 22 6805493,https://location.westernunion.com/id/jawa-barat/bandung-barat/d97cd5546b6b6b042706a979c0df9555,Mo-Fr 08:00-15:00,Western Union,Q861042
f0eb262a61c44dfc127dacff9f801522,western_union,PEGADAIAN UPS SATURNUS,,Bandung,JAWA BARAT,,ID,+62 22 7560470,https://location.westernunion.com/id/jawa-barat/bandung/f0eb262a61c44dfc127dacff9f801522,Mo-Fr 07:30-15:00; Sa 07:30-12:00,Western Union,Q861042
c15e074d6056fc50d37af40d3536e07b,western_union,BANK BJB KCP IPB DARMAGA,,Bogor,JAWA BARAT,,ID,+62 251 8626813,https://location.westernunion.com/id/jawa-barat/bogor/c15e074d6056fc50d37af40d3536e07b,Mo-Fr 08:00-15:00,Western Union,Q861042
033336c5ce72853fa50c0ee3ba3f2248,western_union,PEGADAIAN UPC CEMPALA,,Bogor,JAWA BARAT,,ID,(+62) 25-8345804,https://location.westernunion.com/id/jawa-barat/bogor/033336c5ce72853fa50c0ee3ba3f2248,Mo-Fr 08:00-17:00; Sa 08:00-14:00,Western Union,Q861042
fc3a40fdf8a306c6fe6b06caed8e7393,western_union,PEGADAIAN UPC PLAZA JAMBU DUA,,Bogor,JAWA BARAT,,ID,+62 21 91214071,https://location.westernunion.com/id/jawa-barat/bogor/fc3a40fdf8a306c6fe6b06caed8e7393,Mo-Fr 08:00-17:00; Sa 08:00-14:00,Western Union,Q861042
e1e3334fefcf8d3e1bcdd27354b8007e,western_union,BANK BJB KCP PAJAJARAN BOGOR,,Bogor,JAWA BARAT,,ID,+62 251 7523149,https://location.westernunion.com/id/jawa-barat/bogor/e1e3334fefcf8d3e1bcdd27354b8007e,Mo-Fr 07:00-19:00,Western Union,Q861042
95fc442056f6a39135463747cbd0d2e2,western_union,BANK BJB KCP ASIA AFRIKA,,Bandung,JAWA BARAT,,ID,+62 22 4235073,https://location.westernunion.com/id/jawa-barat/bandung/95fc442056f6a39135463747cbd0d2e2,Mo-Fr 08:00-15:00,Western Union,Q861042
ef4272e5ebd0fff61d6894b6c3c6cf4a,western_union,BANK BJB KK PEMKOT CIMAHI,,Cimahi,JAWA BARAT,,ID,+62 22 6632913,https://location.westernunion.com/id/jawa-barat/cimahi/ef4272e5ebd0fff61d6894b6c3c6cf4a,Mo-Fr 08:00-15:00,Western Union,Q861042
bd1f68fe0c6dadea2f963a36d5bcfe38,western_union,PEGADAIAN UPC SUKA PADANG,,Garut,JAWA BARAT,,ID,+62 22 4230178,https://location.westernunion.com/id/jawa-barat/garut/bd1f68fe0c6dadea2f963a36d5bcfe38,Mo-Fr 07:30-15:00; Sa 07:30-12:00,Western Union,Q861042
a92e7225af8410d4d8565b40005a4b44,western_union,BPR SUPRA KC BANDUNG,,Bandung,JAWA BARAT,,ID,+62 22 6120399,https://location.westernunion.com/id/jawa-barat/bandung/a92e7225af8410d4d8565b40005a4b44,Mo-Fr 08:00-15:00,Western Union,Q861042
92eacd6a03fc3644886d996769e83100,western_union,PEGADAIAN UPC BANGBARU 1 WARU,,Bogor,JAWA BARAT,,ID,(+62) 25-8320784,https://location.westernunion.com/id/jawa-barat/bogor/92eacd6a03fc3644886d996769e83100,Mo-Fr 07:30-15:00; Sa 07:30-12:00,Western Union,Q861042
8a0bff63516fd17c5d51c68bc73d09f2,western_union,BANK BJB KK RSU GARUT,,Garut,JAWA BARAT,,ID,+62 262 242475,https://location.westernunion.com/id/jawa-barat/garut/8a0bff63516fd17c5d51c68bc73d09f2,Mo-Fr 07:00-19:00,Western Union,Q861042
3f023e38b5bb842c740f3dfa74de0e29,western_union,PEGADAIAN UPC LENGKONG,,Bandung,JAWA BARAT,,ID,+62 22 4230178,https://location.westernunion.com/id/jawa-barat/bandung/3f023e38b5bb842c740f3dfa74de0e29,Mo-Fr 08:00-17:00; Sa 08:00-14:00,Western Union,Q861042
b97d47f5489fa326d5e7604880e9c0d7,western_union,JNE BANDUNG SETRASARI,,Bandung,JAWA BARAT,,ID,+62 22 2018812,https://location.westernunion.com/id/jawa-barat/bandung/b97d47f5489fa326d5e7604880e9c0d7,Mo-Sa 00:01-24:00; Su 08:00-24:00,Western Union,Q861042
b8294d9f8c3a05581b60c52315e02bef,western_union,PEGADAIAN CPS GUNTUR GARUT,,Garut,JAWA BARAT,,ID,(+62) 21-622245600,https://location.westernunion.com/id/jawa-barat/garut/b8294d9f8c3a05581b60c52315e02bef,Mo-Fr 07:30-15:00; Sa 07:30-12:00,Western Union,Q861042
e588db3cf4e3e624fd3c01463b243bff,western_union,PEGADAIAN CPS MAJALAYA,,Bandung,JAWA BARAT,,ID,+62 22 85960244,https://location.westernunion.com/id/jawa-barat/bandung/e588db3cf4e3e624fd3c01463b243bff,Mo-Fr 07:30-15:00; Sa 07:30-12:00,Western Union,Q861042
edc974fc94a342b690a1c5fdc820857d,western_union,BSI KCP BANDUNG BUAH BATU 2,,Bandung,JAWA BARAT,,ID,+62 22 7303898,https://location.westernunion.com/id/jawa-barat/bandung/edc974fc94a342b690a1c5fdc820857d,Mo-Fr 08:00-15:00,Western Union,Q861042
9c205730a94cd6a3daf4b2d4c7860e19,western_union,BSI KCP BUAH BATU 2,,Bandung,JAWA BARAT,,ID,+62 22 7303898,https://location.westernunion.com/id/jawa-barat/bandung/9c205730a94cd6a3daf4b2d4c7860e19,Mo-Fr 08:00-15:00,Western Union,Q861042
3c64e2b9eb35d62e52a13feb6096171a,western_union,PEGADAIAN UPS CIBABAT,,Cimahi,JAWA BARAT,,ID,+62 22 6633998,https://location.westernunion.com/id/jawa-barat/cimahi/3c64e2b9eb35d62e52a13feb6096171a,Mo-Fr 07:30-15:00; Sa 07:30-12:00,Western Union,Q861042
7af2344a505ffe9a3f136d5e9cc6666d,western_union,PT POS KPC CIBUNG BULANG,,Bogor,JAWA BARAT,,ID,+62 251 648242,https://location.westernunion.com/id/jawa-barat/bogor/7af2344a505ffe9a3f136d5e9cc6666d,Mo-Fr 09:00-15:00; Sa 09:00-12:00,Western Union,Q861042
8b66de573c17ce7444c941886911e2c6,western_union,PEGADAIAN CP BUAH BATU,,Bandung,JAWA BARAT,,ID,+62 22 7313693,https://location.westernunion.com/id/jawa-barat/bandung/8b66de573c17ce7444c941886911e2c6,Mo-Fr 07:30-15:00; Sa 07:30-12:00,Western Union,Q861042
5af4191c29e5e8b82224ea7bb3cb7ecd,western_union,BSI KCP BANDUNG MAJALAYA,,Bandung,JAWA BARAT,,ID,+62 22 85963200,https://location.westernunion.com/id/jawa-barat/bandung/5af4191c29e5e8b82224ea7bb3cb7ecd,Mo-Fr 08:00-15:00,Western Union,Q861042
d22902b98d4b36db3b279c9cdadc494a,western_union,JNE BOGOR,,Bogor,JAWA BARAT,,ID,+62 251 2156156,https://location.westernunion.com/id/jawa-barat/bogor/d22902b98d4b36db3b279c9cdadc494a,Mo-Fr 09:00-16:00,Western Union,Q861042
941f7cd3ad1d9c12f05ae9c95e0c7834,western_union,BRI UNIT KARANGWANGI CIREBON,,Cirebon,JAWA BARAT,,ID,+62 231 341692,https://location.westernunion.com/id/jawa-barat/cirebon/941f7cd3ad1d9c12f05ae9c95e0c7834,Mo-Fr 08:00-15:00,Western Union,Q861042
de9f7564b745cc90bc7596dae975a95b,western_union,PEGADAIAN UPC CIPAGERAN,,Cimahi,JAWA BARAT,,ID,+62 22 4230178,https://location.westernunion.com/id/jawa-barat/cimahi/de9f7564b745cc90bc7596dae975a95b,Mo-Fr 07:30-15:00; Sa 07:30-12:00,Western Union,Q861042
1292dbfbe78795331e25e9053e5ca586,western_union,BANK BJB KK PEMDA KOTA BANDUNG,,Bandung,JAWA BARAT,,ID,+62 22 42119881,https://location.westernunion.com/id/jawa-barat/bandung/1292dbfbe78795331e25e9053e5ca586,Mo-Fr 07:00-19:00,Western Union,Q861042
fa4db2f7f8aa0c83b1e51444aa31280d,western_union,BANK BJB KK KODYA TAMANSARI,,Bandung,JAWA BARAT,,ID,+62 22 4219882,https://location.westernunion.com/id/jawa-barat/bandung/fa4db2f7f8aa0c83b1e51444aa31280d,Mo-Fr 08:00-15:00,Western Union,Q861042
a109e187a6846364e3ce534c7d166307,western_union,PEGADAIAN UPS JATI,,Cimahi,JAWA BARAT,,ID,+62 22 86617658,https://location.westernunion.com/id/jawa-barat/cimahi/a109e187a6846364e3ce534c7d166307,Mo-Fr 07:30-15:00; Sa 07:30-12:00,Western Union,Q861042
e9439325ed9cc7bc09e6fea5af331a43,western_union,PEGADAIAN UPC CIWASTRA,,Bandung,JAWA BARAT,,ID,+62 22 4230178,https://location.westernunion.com/id/jawa-barat/bandung/e9439325ed9cc7bc09e6fea5af331a43,Mo-Fr 07:30-15:00; Sa 07:30-12:00,Western Union,Q861042
fef2e2907534e307298fa52ae605dd36,western_union,BANK BJB KK SAMSAT,,Bandung,JAWA BARAT,,ID,+62 22 7505024,https://location.westernunion.com/id/jawa-barat/bandung/fef2e2907534e307298fa52ae605dd36,Mo-Fr 07:00-19:00,Western Union,Q861042
2ed6eb3c03e8d64ce66c7d6f437e601a,western_union,PEGADAIAN UPS MARGACINTA,,Bandung,JAWA BARAT,,ID,+62 22 7563940,https://location.westernunion.com/id/jawa-barat/bandung/2ed6eb3c03e8d64ce66c7d6f437e601a,Mo-Fr 07:30-15:00; Sa 07:30-12:00,Western Union,Q861042
ecfd20fb98bf22dc242a241e309fd8d6,western_union,JNE BOGOR GRIYA KENARI MAS,,Bogor,JAWA BARAT,,ID,+62 251 8656341,https://location.westernunion.com/id/jawa-barat/bogor/ecfd20fb98bf22dc242a241e309fd8d6,Mo-Sa 09:00-17:00,Western Union,Q861042
04cb848e146d2c0cada5f5c90615c452,western_union,JNE BANDUNG NARIPAN,,Bandung,JAWA BARAT,,ID,+62 22 4202818,https://location.westernunion.com/id/jawa-barat/bandung/04cb848e146d2c0cada5f5c90615c452,Mo-Sa 00:01-24:00; Su 08:00-24:00,Western Union,Q861042
2d2a2fe0da677628e464575462c3d411,western_union,BANK BJB KK RSU CIBABAT,,Bandung,JAWA BARAT,,ID,+62 22 6644136,https://location.westernunion.com/id/jawa-barat/bandung/2d2a2fe0da677628e464575462c3d411,Mo-Fr 07:00-19:00,Western Union,Q861042
d7bef7a0a7268329dfbb8b1a873085f6,western_union,PEGADAIAN UPC PASIR KOJA,,Bandung,JAWA BARAT,,ID,+62 22 210486,https://location.westernunion.com/id/jawa-barat/bandung/d7bef7a0a7268329dfbb8b1a873085f6,Mo-Fr 07:30-15:00; Sa 07:30-12:00,Western Union,Q861042
2a325ce35e5256ebd3910ac968eb0a65,western_union,PEGADAIAN UPC ASTANA ANYAR,,Bandung,JAWA BARAT,,ID,+62 22 210486,https://location.westernunion.com/id/jawa-barat/bandung/2a325ce35e5256ebd3910ac968eb0a65,Mo-Fr 07:30-15:00; Sa 07:30-12:00,Western Union,Q861042
ef27ce23b27c7d9a937008994e4c87b5,western_union,PEGADAIAN UPC PASAR ANDIR,,Bandung,JAWA BARAT,,ID,(+62) 22-25518,https://location.westernunion.com/id/jawa-barat/bandung/ef27ce23b27c7d9a937008994e4c87b5,Mo-Fr 07:30-15:00; Sa 07:30-12:00,Western Union,Q861042
fe92090b65f4e89e3770584f23915163,western_union,PEGADAIAN UPS PERMATA,,Bandung Barat,JAWA BARAT,,ID,+62 22 87774922,https://location.westernunion.com/id/jawa-barat/bandung-barat/fe92090b65f4e89e3770584f23915163,Mo-Fr 07:30-15:00; Sa 07:30-12:00,Western Union,Q861042
61dfd2f182732feedd4cf0fbb4924745,western_union,BANK BJB KK CIMAHI MALL,,Cimahi,JAWA BARAT,,ID,+62 22 86615827,https://location.westernunion.com/id/jawa-barat/cimahi/61dfd2f182732feedd4cf0fbb4924745,Mo-Fr 08:00-15:00,Western Union,Q861042
1c54349209bf24e4a8ff0d48240bcbc5,western_union,BANK BJB KK IBUN,,Bandung,JAWA BARAT,,ID,+62 22 85964330,https://location.westernunion.com/id/jawa-barat/bandung/1c54349209bf24e4a8ff0d48240bcbc5,Mo-Fr 07:00-19:00,Western Union,Q861042
760182ad1477dc6ecc0e3f413aad9501,western_union,BPR SUPRA KC CIMAHI,,Bandung,JAWA BARAT,,ID,+62 22 5550842,https://location.westernunion.com/id/jawa-barat/bandung/760182ad1477dc6ecc0e3f413aad9501,Mo-Fr 08:00-15:00,Western Union,Q861042
82947021ed7105521ff138edb60899c9,western_union,BANK BJB KK SAMSAT CIMAHI,,Cimahi,JAWA BARAT,,ID,+62 22 6649269,https://location.westernunion.com/id/jawa-barat/cimahi/82947021ed7105521ff138edb60899c9,Mo-Fr 08:00-15:00,Western Union,Q861042
e6001e48639dac4177948c024ac1cd55,western_union,BANK BJB KK DISPENDA CIBINONG,,Bogor,JAWA BARAT,,ID,+62 21 87902788,https://location.westernunion.com/id/jawa-barat/bogor/e6001e48639dac4177948c024ac1cd55,Mo-Fr 08:00-15:00,Western Union,Q861042
c38478e6ef2bf9787ed14c397b865d0d,western_union,BANK BJB KCP SURYA KENCANA,,Bogor,JAWA BARAT,,ID,+62 251 8331663,https://location.westernunion.com/id/jawa-barat/bogor/c38478e6ef2bf9787ed14c397b865d0d,Mo-Fr 08:00-15:00,Western Union,Q861042
650f683dca610713fdb46325e43d584e,western_union,BANK BJB KK ITC CIBINONG,,Bogor,JAWA BARAT,,ID,+62 21 87920249,https://location.westernunion.com/id/jawa-barat/bogor/650f683dca610713fdb46325e43d584e,Mo-Fr 08:00-15:00,Western Union,Q861042
54c02b166f64c38cdf010129e0d79504,western_union,PEGADAIAN CP GUNUNG BATU,,Bogor,JAWA BARAT,,ID,+62 251 7190444,https://location.westernunion.com/id/jawa-barat/bogor/54c02b166f64c38cdf010129e0d79504,Mo-Fr 07:30-15:00; Sa 07:30-12:00,Western Union,Q861042
5b08ce466820cccf26aaf8c13677a8d1,western_union,BANK BJB KCP KOPO,,Bandung,JAWA BARAT,,ID,+62 22 6075828,https://location.westernunion.com/id/jawa-barat/bandung/5b08ce466820cccf26aaf8c13677a8d1,Mo-Fr 08:00-15:00,Western Union,Q861042
b9ed28fac514782785030a875484a229,western_union,BANK BJB KCP ABDURAHMAN,,Bandung,JAWA BARAT,,ID,+62 22 6020792,https://location.westernunion.com/id/jawa-barat/bandung/b9ed28fac514782785030a875484a229,Mo-Su 08:00-17:00,Western Union,Q861042
fefc0fd1d1f0c9fecbcc4cf58331ebff,western_union,BANK BJB KK SODONGHILIR,,Tasikmalaya,JAWA BARAT,,ID,+62 265 5605001,https://location.westernunion.com/id/jawa-barat/tasikmalaya/fefc0fd1d1f0c9fecbcc4cf58331ebff,Mo-Fr 07:00-19:00,Western Union,Q861042
174b32a0412b0dae92e67fe01870647a,western_union,PT POS KPC BOGOR CIOMAS,,Bogor,JAWA BARAT,,ID,+62 21 8677364,https://location.westernunion.com/id/jawa-barat/bogor/174b32a0412b0dae92e67fe01870647a,Mo-Fr 09:00-15:00; Sa 09:00-12:00,Western Union,Q861042
59915302d7339092aefa59146c5a6bd1,western_union,PEGADAIAN CP PUNGKUR,,Bandung,JAWA BARAT,,ID,+62 22 4230178,https://location.westernunion.com/id/jawa-barat/bandung/59915302d7339092aefa59146c5a6bd1,Mo-Fr 07:30-15:00; Sa 07:30-12:00,Western Union,Q861042
7d45d4fe1c672eecb10f9bb311eb234e,western_union,PT POS MPS BOGOR 5,,Bogor,JAWA BARAT,,ID,+62 251 321460,https://location.westernunion.com/id/jawa-barat/bogor/7d45d4fe1c672eecb10f9bb311eb234e,Mo-Fr 09:00-15:00; Sa 09:00-12:00,Western Union,Q861042
730c1186acda0cb50aa478a9a98cd1ad,western_union,PEGADAIAN UPS KEBON KOPI,,Cimahi,JAWA BARAT,,ID,+62 22 6025132,https://location.westernunion.com/id/jawa-barat/cimahi/730c1186acda0cb50aa478a9a98cd1ad,Mo-Fr 07:30-15:00; Sa 07:30-12:00,Western Union,Q861042
6b5f31cb3bf40ced9c1180f76f754d7c,western_union,PEGADAIAN UPS SAMARANG,,Garut,JAWA BARAT,,ID,(+02) 62-544057,https://location.westernunion.com/id/jawa-barat/garut/6b5f31cb3bf40ced9c1180f76f754d7c,Mo-Fr 07:30-15:00; Sa 07:30-12:00,Western Union,Q861042
699c3ea306d9ff24ceeb64617dbd1558,western_union,PEGADAIAN UPC RANCABALI,,Bandung,JAWA BARAT,,ID,+62 22 869262,https://location.westernunion.com/id/jawa-barat/bandung/699c3ea306d9ff24ceeb64617dbd1558,Mo-Fr 07:30-15:00; Sa 07:30-12:00,Western Union,Q861042
e6b4c1717488a3f434e951f6815f2f49,western_union,BANK BJB KCP MOHAMMAD TOHA,,Bandung,JAWA BARAT,,ID,+62 22 5208420,https://location.westernunion.com/id/jawa-barat/bandung/e6b4c1717488a3f434e951f6815f2f49,Mo-Fr 08:00-15:00,Western Union,Q861042
10af027e58c0ea13440aad5d691b2896,western_union,PEGADAIAN UPS MOH TOHA,,Bandung,JAWA BARAT,,ID,+62 22 5228161,https://location.westernunion.com/id/jawa-barat/bandung/10af027e58c0ea13440aad5d691b2896,Mo-Fr 07:30-15:00; Sa 07:30-12:00,Western Union,Q861042
579775e5ca7ef95762e6c53479ac793a,western_union,PT POS LE TAMANTOPI,,Bogor,JAWA BARAT,,ID,+62 251 321460,https://location.westernunion.com/id/jawa-barat/bogor/579775e5ca7ef95762e6c53479ac793a,Mo-Fr 09:00-15:00; Sa 09:00-12:00,Western Union,Q861042
1c91d39709431e61518b22434c5bc834,western_union,JNE BANDUNG CIMAREME,,Bandung Barat,JAWA BARAT,,ID,+62 22 2020811,https://location.westernunion.com/id/jawa-barat/bandung-barat/1c91d39709431e61518b22434c5bc834,Mo-Fr 07:00-24:00; Sa 08:00-19:00; Su 08:00-16:00,Western Union,Q861042
fdad7f4e47e4577d1d03581eaa876b77,western_union,MAYBANK KCP DEWI SARTIKA,,Bogor,JAWA BARAT,,ID,+62 251 8333728,https://location.westernunion.com/id/jawa-barat/bogor/fdad7f4e47e4577d1d03581eaa876b77,Mo-Fr 08:00-17:00,Western Union,Q861042
20568a3be7fec87d0ced9596b5a0cb02,western_union,PEGADAIAN UPC JAMIKA,,Bandung,JAWA BARAT,,ID,+62 22 869262,https://location.westernunion.com/id/jawa-barat/bandung/20568a3be7fec87d0ced9596b5a0cb02,Mo-Fr 07:30-15:00; Sa 07:30-12:00,Western Union,Q861042
21683a5bba34096f9e7b936b4bb0d758,western_union,PEGADAIAN CPS SITUSAEUR,,Bandung,JAWA BARAT,,ID,+62 22 5202604,https://location.westernunion.com/id/jawa-barat/bandung/21683a5bba34096f9e7b936b4bb0d758,Mo-Fr 07:30-15:00; Sa 07:30-12:00,Western Union,Q861042
0dda3b4a121cc45734c5e3d0f3aa22c3,western_union,BANK BJB KK RSUD CIBINONG,,Bogor,JAWA BARAT,,ID,+62 21 87906844,https://location.westernunion.com/id/jawa-barat/bogor/0dda3b4a121cc45734c5e3d0f3aa22c3,Mo-Fr 08:00-15:00,Western Union,Q861042
18c65c1f07f68db405e28be1c42676ac,western_union,BSI KCP CIMAHI CIBABAT,,Cimahi,JAWA BARAT,,ID,+62 22 6645546,https://location.westernunion.com/id/jawa-barat/cimahi/18c65c1f07f68db405e28be1c42676ac,Mo-Fr 08:00-15:00,Western Union,Q861042
d36dcee252b0673d19f0ea659693c262,western_union,BSI KCP CIMAHI CIBABAT,,Cimahi,JAWA BARAT,,ID,+62 22 6645546,https://location.westernunion.com/id/jawa-barat/cimahi/d36dcee252b0673d19f0ea659693c262,Mo-Fr 08:00-15:00,Western Union,Q861042
1ebf6438ae7834f32a9f0fd37332a877,western_union,PEGADAIAN CPS PAJAJARAN,,Bandung,JAWA BARAT,,ID,+62 22 6022087,https://location.westernunion.com/id/jawa-barat/bandung/1ebf6438ae7834f32a9f0fd37332a877,Mo-Fr 07:30-15:00; Sa 07:30-12:00,Western Union,Q861042
512245486875532cc2c419d57c37ac0d,western_union,JNE BOGOR SUDIRMAN,,Bogor,JAWA BARAT,,ID,+62 251 8656341,https://location.westernunion.com/id/jawa-barat/bogor/512245486875532cc2c419d57c37ac0d,Mo-Fr 09:00-17:00; Sa 09:00-13:00,Western Union,Q861042
91feddc6676cf69a6d034f664fa1a5f0,western_union,PT POS MPS BANDUNG 3,,Bandung,JAWA BARAT,,ID,+62 22 4207081,https://location.westernunion.com/id/jawa-barat/bandung/91feddc6676cf69a6d034f664fa1a5f0,Mo-Fr 09:00-15:00; Sa 09:00-12:00,Western Union,Q861042
51460f49d7704f102d6d4ce0f0444e65,western_union,BANK BJB KCP LEUWIPANJANG,,Bandung,JAWA BARAT,,ID,+62 22 5233801,https://location.westernunion.com/id/jawa-barat/bandung/51460f49d7704f102d6d4ce0f0444e65,Mo-Fr 08:00-15:00,Western Union,Q861042
9db6bc30063e9cf23daf04b551ec1a2d,western_union,KOPERASI PAYU 310,,Cianjur,JAWA BARAT,,ID,+62 858-7774-156,https://location.westernunion.com/id/jawa-barat/cianjur/9db6bc30063e9cf23daf04b551ec1a2d,Mo-Su 08:00-21:00,Western Union,Q861042
96735daafc4e3e2638599dd75cb06a77,western_union,PEGADAIAN UPC PAL 3,,Bandung,JAWA BARAT,,ID,+62 22 869262,https://location.westernunion.com/id/jawa-barat/bandung/96735daafc4e3e2638599dd75cb06a77,Mo-Fr 08:00-17:00; Sa 08:00-14:00,Western Union,Q861042
4a4e6ab53b73239d9b6d7ca54978f5bc,western_union,PEGADAIAN UPC CIJERAH,,Bandung,JAWA BARAT,,ID,+62 22 869262,https://location.westernunion.com/id/jawa-barat/bandung/4a4e6ab53b73239d9b6d7ca54978f5bc,Mo-Fr 07:30-15:00; Sa 07:30-12:00,Western Union,Q861042
f5765a15c83e790a1e84a0b658c217cc,western_union,BANK BJB KK BOTANI SQUARE,,Bogor,JAWA BARAT,,ID,+62 251 8400867,https://location.westernunion.com/id/jawa-barat/bogor/f5765a15c83e790a1e84a0b658c217cc,Mo-Fr 08:00-15:00,Western Union,Q861042
0140c77cd60c17d967d5c9d754127409,western_union,PEGADAIAN UPC BOJONG SOAN,,Bandung,JAWA BARAT,,ID,+62 22 4230178,https://location.westernunion.com/id/jawa-barat/bandung/0140c77cd60c17d967d5c9d754127409,Mo-Fr 07:30-15:00; Sa 07:30-12:00,Western Union,Q861042
3e4a071ce4287a132904db279e964efb,western_union,PEGADAIAN UPC MELONG,,Cimahi,JAWA BARAT,,ID,+62 22 4230178,https://location.westernunion.com/id/jawa-barat/cimahi/3e4a071ce4287a132904db279e964efb,Mo-Fr 08:00-17:00; Sa 08:00-14:00,Western Union,Q861042
afdacbafdececd93179317af746432bf,western_union,PEGADAIAN UPC CIGERELENG,,Bandung,JAWA BARAT,,ID,+62 22 322978,https://location.westernunion.com/id/jawa-barat/bandung/afdacbafdececd93179317af746432bf,Mo-Fr 07:30-15:00; Sa 07:30-12:00,Western Union,Q861042
12f4f63d7512aab97663bf1e7771b427,western_union,PEGADAIAN UPC BOJONG RAWA LUMBU,,Bekasi,JAWA BARAT,,ID,+62 21 82435756,https://location.westernunion.com/id/jawa-barat/bekasi/12f4f63d7512aab97663bf1e7771b427,Mo-Fr 07:30-15:00; Sa 07:30-12:00,Western Union,Q861042
e55316e01811a7dca3950c59aa8b77ee,western_union,PEGADAIAN UPC BOGOR TRADE MALL,,Bogor,JAWA BARAT,,ID,(+62) 21-508396,https://location.westernunion.com/id/jawa-barat/bogor/e55316e01811a7dca3950c59aa8b77ee,Mo-Fr 08:00-17:00; Sa 08:00-14:00,Western Union,Q861042
266cface145731700647641f13e1921b,western_union,BSI KCP BANDUNG CIJERAH,,Bandung,JAWA BARAT,,ID,+62 22 86067565,https://location.westernunion.com/id/jawa-barat/bandung/266cface145731700647641f13e1921b,Mo-Fr 08:00-15:00,Western Union,Q861042
ff44ff35720531648a4ce1bf9a8757ff,western_union,BSI KCP BANDUNG CIJERAH,,Bandung,JAWA BARAT,,ID,+62 22 86067565,https://location.westernunion.com/id/jawa-barat/bandung/ff44ff35720531648a4ce1bf9a8757ff,Mo-Fr 08:00-15:00,Western Union,Q861042
bab5ef966659394cdb03299a2f3df100,western_union,BANK BJB KK LEUWIGAJAH,,Cimahi,JAWA BARAT,,ID,+62 22 6629515,https://location.westernunion.com/id/jawa-barat/cimahi/bab5ef966659394cdb03299a2f3df100,Mo-Fr 08:00-15:00,Western Union,Q861042
d858e6d7bf9247826a723e5c1d0456ce,western_union,JNE BEKASI KRANJI,,Bekasi,JAWA BARAT,,ID,+62 21 5665262,https://location.westernunion.com/id/jawa-barat/bekasi/d858e6d7bf9247826a723e5c1d0456ce,Mo-Fr 09:00-17:00; Sa 09:00-13:00,Western Union,Q861042
9c45f9db7f33bd76b8efcb7112ffd920,western_union,PEGADAIAN UPC SRIWIJAYA,,Bandung,JAWA BARAT,,ID,+62 819-869-262,https://location.westernunion.com/id/jawa-barat/bandung/9c45f9db7f33bd76b8efcb7112ffd920,Mo-Fr 07:30-15:00; Sa 07:30-12:00,Western Union,Q861042
1be7651d28be32b9600ec861186c774e,western_union,BANK BJB KK PASAR ANTRI,,Cimahi,JAWA BARAT,,ID,+62 22 6646169,https://location.westernunion.com/id/jawa-barat/cimahi/1be7651d28be32b9600ec861186c774e,Mo-Fr 08:00-15:00,Western Union,Q861042
ea8890c5019db9151d892fcc85a0743f,western_union,PEGADAIAN UPC BALEENDAH,,Bandung,JAWA BARAT,,ID,+62 22 85936281,https://location.westernunion.com/id/jawa-barat/bandung/ea8890c5019db9151d892fcc85a0743f,Mo-Fr 07:30-15:00; Sa 07:30-12:00,Western Union,Q861042
8b351d81088d1a405083b64960fa59be,western_union,PEGADAIAN UPS CIGONDEWAH,,Bandung,JAWA BARAT,,ID,+62 22 5423854,https://location.westernunion.com/id/jawa-barat/bandung/8b351d81088d1a405083b64960fa59be,Mo-Fr 07:30-15:00; Sa 07:30-12:00,Western Union,Q861042
073c52168b93e6e45fafa79ba898b28d,western_union,JNE BOGOR TAJUR,,Bogor,JAWA BARAT,,ID,+62 251 8656341,https://location.westernunion.com/id/jawa-barat/bogor/073c52168b93e6e45fafa79ba898b28d,Mo-Fr 09:00-17:00; Sa 09:00-13:00,Western Union,Q861042
0e5d6414ac11a3abb7506b392fdf2047,western_union,PEGADAIAN UPC CIAWI,,Bogor,JAWA BARAT,,ID,+62 251 97914380,https://location.westernunion.com/id/jawa-barat/bogor/0e5d6414ac11a3abb7506b392fdf2047,Mo-Fr 07:30-15:00; Sa 07:30-12:00,Western Union,Q861042
78eeada54ec05ebe75c3711c81ccbbea,western_union,PEGADAIAN UPC TAJUR,,Bogor,JAWA BARAT,,ID,+62 251 8242449,https://location.westernunion.com/id/jawa-barat/bogor/78eeada54ec05ebe75c3711c81ccbbea,Mo-Fr 07:30-15:00; Sa 07:30-12:00,Western Union,Q861042
1930c52b9921f84feefec424d501f747,western_union,BSI KCP KOPO SAYATI,,Bandung,JAWA BARAT,,ID,+62 22 5419446,https://location.westernunion.com/id/jawa-barat/bandung/1930c52b9921f84feefec424d501f747,Mo-Fr 08:00-15:00,Western Union,Q861042
2e982136a7bce07472270e119dfea8fd,western_union,BSI KCP KOPO SAYATI,,Bandung,JAWA BARAT,,ID,+62 22 5419446,https://location.westernunion.com/id/jawa-barat/bandung/2e982136a7bce07472270e119dfea8fd,Mo-Fr 08:00-15:00,Western Union,Q861042
3a19754bff15768b20c6b1dfcc0836d5,western_union,MAYBANK KCP KOPO SAYATI,,Bandung,JAWA BARAT,,ID,+62 22 5415858,https://location.westernunion.com/id/jawa-barat/bandung/3a19754bff15768b20c6b1dfcc0836d5,Mo-Fr 08:00-17:00,Western Union,Q861042
81ad0f748392631a047c05b422aad71f,western_union,PEGADAIAN UPC NANJUNG,,Cimahi,JAWA BARAT,,ID,+62 22 532519,https://location.westernunion.com/id/jawa-barat/cimahi/81ad0f748392631a047c05b422aad71f,Mo-Fr 08:00-17:00; Sa 08:00-14:00,Western Union,Q861042
20171508b8efe77f3edab5e691a64e66,western_union,KOPERASI PAYU 573,,Tasikmalaya,JAWA BARAT,,ID,+62 21 29475518,https://location.westernunion.com/id/jawa-barat/tasikmalaya/20171508b8efe77f3edab5e691a64e66,Mo-Su 08:00-19:00,Western Union,Q861042
f2e754ba4924f7cb26aaa40a2a8f48c0,western_union,BPR KERTA RAHARJA KK MARGAHAYU,,Bandung,JAWA BARAT,,ID,+62 22 7949648,https://location.westernunion.com/id/jawa-barat/bandung/f2e754ba4924f7cb26aaa40a2a8f48c0,Mo-Fr 08:00-15:00,Western Union,Q861042
361269d326c9e2abd47d391fe861559a,western_union,ADISENA CISARUA BOGOR,,Bogor,JAWA BARAT,,ID,(+62) 22-518251742,https://location.westernunion.com/id/jawa-barat/bogor/361269d326c9e2abd47d391fe861559a,Mo-Su 08:00-21:00,Western Union,Q861042
2d95182521dcfe4ee6ac709596a0ad5c,western_union,PEGADAIAN UPC CISARUA,,Bogor,JAWA BARAT,,ID,+62 251 869262,https://location.westernunion.com/id/jawa-barat/bogor/2d95182521dcfe4ee6ac709596a0ad5c,Mo-Fr 07:30-15:00; Sa 07:30-12:00,Western Union,Q861042
9ec3bd35aebdf33c01b3d54bfa0be884,western_union,PEGADAIAN UPC CIAPUS,,Bogor,JAWA BARAT,,ID,(+62) 25-8487988,https://location.westernunion.com/id/jawa-barat/bogor/9ec3bd35aebdf33c01b3d54bfa0be884,Mo-Fr 07:30-15:00; Sa 07:30-12:00,Western Union,Q861042
a5aa80df90fe1ec2c20cfa0b4aabbe38,western_union,BANK BJB KCP CIPATAT,,Bandung,JAWA BARAT,,ID,+62 22 6805493,https://location.westernunion.com/id/jawa-barat/bandung/a5aa80df90fe1ec2c20cfa0b4aabbe38,Mo-Fr 08:00-15:00,Western Union,Q861042
41747a8d2679cf28be849fcb8d3962ab,western_union,PEGADAIAN UPC RANCAMANYAR,,Bandung,JAWA BARAT,,ID,+62 22 869262,https://location.westernunion.com/id/jawa-barat/bandung/41747a8d2679cf28be849fcb8d3962ab,Mo-Fr 07:30-15:00; Sa 07:30-12:00,Western Union,Q861042
06192d830ac0a28f5cba5fee83c6620e,western_union,PEGADAIAN UPC TAMAN KOPO INDAH,,Bandung,JAWA BARAT,,ID,+62 22 821339,https://location.westernunion.com/id/jawa-barat/bandung/06192d830ac0a28f5cba5fee83c6620e,Mo-Fr 07:30-15:00; Sa 07:30-12:00,Western Union,Q861042
fdbe66038a889afb833524f4101cd59e,western_union,BANK BJB KCP CIBEUREUM,,Cimahi,JAWA BARAT,,ID,+62 22 6078407,https://location.westernunion.com/id/jawa-barat/cimahi/fdbe66038a889afb833524f4101cd59e,Mo-Fr 08:00-15:00,Western Union,Q861042
cd69fa5c6c95c3345830a635a3541011,western_union,FLAGSHIP SOEKARNO HATTA BANDUN,,Bandung,JAWA BARAT,,ID,+62 22 7503278,https://location.westernunion.com/id/jawa-barat/bandung/cd69fa5c6c95c3345830a635a3541011,Mo-Su 00:01-24:00,Western Union,Q861042
abea38b5c0a1f5ac4244c18b4d3a5003,western_union,PEGADAIAN UPC BATUNUNGGAL,,Bandung,JAWA BARAT,,ID,+62 22 7567685,https://location.westernunion.com/id/jawa-barat/bandung/abea38b5c0a1f5ac4244c18b4d3a5003,Mo-Fr 07:30-15:00; Sa 07:30-12:00,Western Union,Q861042
d4c025e7616a835859af67413a22c031,western_union,JNE SOEKARNO HATTA,,Bandung,JAWA BARAT,,ID,+62 22 60991990,https://location.westernunion.com/id/jawa-barat/bandung/d4c025e7616a835859af67413a22c031,Mo-Sa 00:01-24:00; Su 08:00-24:00,Western Union,Q861042
61d65ad0a6d862ea9ac38d2404bc28e4,western_union,PEGADAIAN UPC CIPANAS,,Cianjur,JAWA BARAT,,ID,+62 265 17788,https://location.westernunion.com/id/jawa-barat/cianjur/61d65ad0a6d862ea9ac38d2404bc28e4,Mo-Fr 07:30-15:00; Sa 07:30-12:00,Western Union,Q861042
470a49e71c15f38088fbe547ffbcad8b,western_union,KOPERASI PAYU 297,,Cianjur,JAWA BARAT,,ID,+62 812-2749-6415,https://location.westernunion.com/id/jawa-barat/cianjur/470a49e71c15f38088fbe547ffbcad8b,Mo-Su 08:00-21:00,Western Union,Q861042
e3d174bc2d252c659046915b057faa18,western_union,PEGADAIAN UPC KATAPANG,,Bandung,JAWA BARAT,,ID,(+62) 22-21270,https://location.westernunion.com/id/jawa-barat/bandung/e3d174bc2d252c659046915b057faa18,Mo-Fr 07:30-15:00; Sa 07:30-12:00,Western Union,Q861042
3ac554dda569fb32305270a6d57f34cd,western_union,KOPERASI PAYU 326,,Cianjur,JAWA BARAT,,ID,+62 21 29475518,https://location.westernunion.com/id/jawa-barat/cianjur/3ac554dda569fb32305270a6d57f34cd,Mo-Su 08:00-21:00,Western Union,Q861042
c8b604b652bc9f486d8366b3515ad34b,western_union,PEGADAIAN UPS SENTOSA,,Bekasi,JAWA BARAT,,ID,+62 812-8282-7060,https://location.westernunion.com/id/jawa-barat/bekasi/c8b604b652bc9f486d8366b3515ad34b,Mo-Su 07:30-21:00,Western Union,Q861042
eee702c41e8853463531bf4f39510736,western_union,POS HARMONI JAYA ABADI SUKARESMI,,Cianjur,JAWA BARAT,,ID,+62 263 260630,https://location.westernunion.com/id/jawa-barat/cianjur/eee702c41e8853463531bf4f39510736,Mo-Fr 09:00-15:00; Sa 09:00-12:00; Su 07:00-20:00,Western Union,Q861042
685fb98abc61ab3801d3bbd71d64d66d,western_union,PEGADAIAN UPC KOPO CIRANGRANG,,Bandung,JAWA BARAT,,ID,+62 22 5400803,https://location.westernunion.com/id/jawa-barat/bandung/685fb98abc61ab3801d3bbd71d64d66d,Mo-Fr 07:30-15:00; Sa 07:30-12:00,Western Union,Q861042
7b31efc8c2117fc4727556f6d8610fa9,western_union,PT POS KPC BOGOR SELATAN,,Bogor,JAWA BARAT,,ID,+62 251 355446,https://location.westernunion.com/id/jawa-barat/bogor/7b31efc8c2117fc4727556f6d8610fa9,Mo-Fr 09:00-15:00; Sa 09:00-12:00,Western Union,Q861042
6bd126f6e26910bf7ccbb37300983117,western_union,PEGADAIAN UPS PASAR NANJUNG,,Cimahi,JAWA BARAT,,ID,+62 22 88886863,https://location.westernunion.com/id/jawa-barat/cimahi/6bd126f6e26910bf7ccbb37300983117,Mo-Fr 07:30-15:00; Sa 07:30-12:00,Western Union,Q861042
7069e517dd66628c5090c1717b3adc55,western_union,BANK BJB KK JAMPANGTENGAH,,Sukabumi,JAWA BARAT,,ID,+62 266 460400,https://location.westernunion.com/id/jawa-barat/sukabumi/7069e517dd66628c5090c1717b3adc55,Mo-Fr 07:00-19:00,Western Union,Q861042
efb800c026943a28fcba3c43feddab3b,western_union,PEGADAIAN UPC BOJONG HERANG,,Cianjur,JAWA BARAT,,ID,+62 263 869262,https://location.westernunion.com/id/jawa-barat/cianjur/efb800c026943a28fcba3c43feddab3b,Mo-Fr 07:30-15:00; Sa 07:30-12:00,Western Union,Q861042
56112f831e8dba9b36c934cee967aa09,western_union,PT POS LE CIRACAS,,Subang,JAWA BARAT,,ID,+62 254 200419,https://location.westernunion.com/id/jawa-barat/subang/56112f831e8dba9b36c934cee967aa09,Mo-Fr 09:00-15:00; Sa 09:00-12:00,Western Union,Q861042
aeb62b30ed65a2857f16a9a19bc6cd09,western_union,PEGADAIAN UPC PASAR MUKA,,Cianjur,JAWA BARAT,,ID,+62 263 22133,https://location.westernunion.com/id/jawa-barat/cianjur/aeb62b30ed65a2857f16a9a19bc6cd09,Mo-Fr 07:30-15:00; Sa 07:30-12:00,Western Union,Q861042
79c81911c91641d437e61e19b0a0381a,western_union,PT POS MPS SOREANG 1,,Bandung,JAWA BARAT,,ID,+62 22 5891052,https://location.westernunion.com/id/jawa-barat/bandung/79c81911c91641d437e61e19b0a0381a,Mo-Fr 09:00-15:00; Sa 09:00-12:00,Western Union,Q861042
4ec0f864051671210fa1ac0fb9b0ac18,western_union,JNE BANDUNG SOREANG,,Bandung,JAWA BARAT,,ID,+62 22 88885982,https://location.westernunion.com/id/jawa-barat/bandung/4ec0f864051671210fa1ac0fb9b0ac18,Mo-Fr 07:00-16:00; Sa 07:00-13:00,Western Union,Q861042
db5ba7680ea2cbbf5e8504ebe8148c13,western_union,KOPERASI PAYU 550,,Cianjur,JAWA BARAT,,ID,+62 21 29475518,https://location.westernunion.com/id/jawa-barat/cianjur/db5ba7680ea2cbbf5e8504ebe8148c13,Mo-Su 08:00-19:00,Western Union,Q861042
2f17425d727a2c2e3f13cd67dc69b1dc,western_union,KOPERASI PAYU 3,,Bogor,JAWA BARAT,,ID,+62 812-2358-4071,https://location.westernunion.com/id/jawa-barat/bogor/2f17425d727a2c2e3f13cd67dc69b1dc,Mo-Su 08:00-21:00,Western Union,Q861042
15094a6c7b741bfca4c37e113bc6b577,western_union,PEGADAIAN UPC CIPANJI,,Bandung,JAWA BARAT,,ID,+62 813-869-262,https://location.westernunion.com/id/jawa-barat/bandung/15094a6c7b741bfca4c37e113bc6b577,Mo-Fr 07:30-15:00; Sa 07:30-12:00,Western Union,Q861042
6439bf1dde23739de0c2056f0f317640,western_union,PT REKSA MITRA INDONESIA,,Bandung Barat,JAWA BARAT,,ID,+62 857-0323-7340,https://location.westernunion.com/id/jawa-barat/bandung-barat/6439bf1dde23739de0c2056f0f317640,Mo-Fr 08:30-15:00; Sa 08:00-12:00,Western Union,Q861042
c2ad3d630ba0f33529b40def5779ecfd,western_union,KOPERASI PAYU 103,,Cianjur,JAWA BARAT,,ID,+62 895-1466-2121,https://location.westernunion.com/id/jawa-barat/cianjur/c2ad3d630ba0f33529b40def5779ecfd,Mo-Su 08:00-21:00,Western Union,Q861042
78f2d2a3fd2eb0c74e106f009161bedc,western_union,PT POS LE CISARUA,,Sumedang,JAWA BARAT,,ID,+62 261 202006,https://location.westernunion.com/id/jawa-barat/sumedang/78f2d2a3fd2eb0c74e106f009161bedc,Mo-Fr 09:00-15:00; Sa 09:00-12:00,Western Union,Q861042
5e457fe7e6918e4a6c13ec864a77c930,western_union,KOPERASI PAYU 317,,Cianjur,JAWA BARAT,,ID,+62 877-2145-5409,https://location.westernunion.com/id/jawa-barat/cianjur/5e457fe7e6918e4a6c13ec864a77c930,Mo-Su 08:00-21:00,Western Union,Q861042
4080f898dd969326f991b830e503672d,western_union,BRI UNIT CISARUA,,Bogor,JAWA BARAT,,ID,+62 251 8255005,https://location.westernunion.com/id/jawa-barat/bogor/4080f898dd969326f991b830e503672d,Mo-Fr 08:00-15:00,Western Union,Q861042
a3ee8acd1412b0617b10fd53ae8b2d9e,western_union,BRI UNIT CISARUA BANDUNG SETIABUDI,,Bandung,JAWA BARAT,,ID,+62 22 2795534,https://location.westernunion.com/id/jawa-barat/bandung/a3ee8acd1412b0617b10fd53ae8b2d9e,Mo-Fr 08:00-15:00,Western Union,Q861042
6503a02d23b590d2f6a9613ac654b48b,western_union,BANK BJB KK PACET,,Bandung,JAWA BARAT,,ID,+62 22 85963460,https://location.westernunion.com/id/jawa-barat/bandung/6503a02d23b590d2f6a9613ac654b48b,Mo-Su 08:00-17:00,Western Union,Q861042
42cd7884640da01e85f951e5741860ec,western_union,KOPERASI PAYU 1,,Bandung Barat,JAWA BARAT,,ID,+62 815-4635-330,https://location.westernunion.com/id/jawa-barat/bandung-barat/42cd7884640da01e85f951e5741860ec,Mo-Su 08:00-21:00,Western Union,Q861042
c8192eb7448e210700e22e23884885aa,western_union,BANK BJB KCP PEMKAB CIANJUR,,Cianjur,JAWA BARAT,,ID,+62 263 2292424,https://location.westernunion.com/id/jawa-barat/cianjur/c8192eb7448e210700e22e23884885aa,Mo-Fr 08:00-15:00,Western Union,Q861042
6e2cc5314dad480b430ece157eb55871,western_union,BSI KCP ABDULLAH BIN NUH,,Cianjur,JAWA BARAT,,ID,+62 263 2292525,https://location.westernunion.com/id/jawa-barat/cianjur/6e2cc5314dad480b430ece157eb55871,Mo-Fr 08:00-15:00,Western Union,Q861042
41260c45f84e875061a6739fcf04e9ca,western_union,BSI KCP ABDULLAH BIN NUH,,Cianjur,JAWA BARAT,,ID,+62 263 2292525,https://location.westernunion.com/id/jawa-barat/cianjur/41260c45f84e875061a6739fcf04e9ca,Mo-Fr 08:00-15:00,Western Union,Q861042
4f52aef664c5aaa030b3257e109911e5,western_union,BSI KC ABDULLAH BIN NUH,,Cianjur,JAWA BARAT,,ID,+62 263 270097,https://location.westernunion.com/id/jawa-barat/cianjur/4f52aef664c5aaa030b3257e109911e5,Mo-Fr 08:00-15:00,Western Union,Q861042
4e9e570e934004050e23bac1e3f80a56,western_union,BSI KC ABDULLAH BIN NUH,,Cianjur,JAWA BARAT,,ID,+62 263 270097,https://location.westernunion.com/id/jawa-barat/cianjur/4e9e570e934004050e23bac1e3f80a56,Mo-Fr 08:00-15:00,Western Union,Q861042
3f8007a7721f8f985088c597c43c7f9c,western_union,BPR SUPRA KC CIANJUR,,Cianjur,JAWA BARAT,,ID,+62 263 260811,https://location.westernunion.com/id/jawa-barat/cianjur/3f8007a7721f8f985088c597c43c7f9c,Mo-Fr 08:00-15:00,Western Union,Q861042
2e70389e5a561b22e5a32a4220ea7a45,western_union,KOPERASI PAYU 22,,Cianjur,JAWA BARAT,,ID,+62 838-1798-9000,https://location.westernunion.com/id/jawa-barat/cianjur/2e70389e5a561b22e5a32a4220ea7a45,Mo-Su 08:00-21:00,Western Union,Q861042
67d773f9cb4b6833b0be2c4c2c9f821c,western_union,BSI KCP SOREANG WAHID HASYIM,,Bandung,JAWA BARAT,,ID,+62 22 5895003,https://location.westernunion.com/id/jawa-barat/bandung/67d773f9cb4b6833b0be2c4c2c9f821c,Mo-Fr 08:00-15:00,Western Union,Q861042
98512cce1d8708e7ef7c1ff72805d620,western_union,BSI KCP WAHID HASYIM,,Bandung,JAWA BARAT,,ID,+62 22 5895003,https://location.westernunion.com/id/jawa-barat/bandung/98512cce1d8708e7ef7c1ff72805d620,Mo-Fr 08:00-15:00,Western Union,Q861042
fb2b054f70c9c6feea6e3d37e861cfc2,western_union,BRI UNIT BANJARAN SOREANG,,Bandung,JAWA BARAT,,ID,+62 22 5947007,https://location.westernunion.com/id/jawa-barat/bandung/fb2b054f70c9c6feea6e3d37e861cfc2,Mo-Fr 08:00-15:00,Western Union,Q861042
2c4535af87d87d70b5193741d8c71c86,western_union,BPR SUPRA KC CICURUG,,Sukabumi,JAWA BARAT,,ID,+62 266 731999,https://location.westernunion.com/id/jawa-barat/sukabumi/2c4535af87d87d70b5193741d8c71c86,Mo-Fr 08:00-15:00,Western Union,Q861042
50491798539d1725feaa151309a21f3f,western_union,POS HARMONI JAYA ABADI SIRNAGALIH CILAKU,,Cianjur,JAWA BARAT,,ID,+62 263 260630,https://location.westernunion.com/id/jawa-barat/cianjur/50491798539d1725feaa151309a21f3f,Mo-Fr 09:00-15:00; Sa 09:00-12:00; Su 07:00-20:00,Western Union,Q861042
bd6a1b6e52b851c4bc61159a0f4b87c1,western_union,PEGADAIAN UPC WARUNG KONDANG,,Cianjur,JAWA BARAT,,ID,+62 263 869262,https://location.westernunion.com/id/jawa-barat/cianjur/bd6a1b6e52b851c4bc61159a0f4b87c1,Mo-Fr 07:30-15:00; Sa 07:30-12:00,Western Union,Q861042
410cc1e683f13c8fa551a589cac0e85d,western_union,PT POS KPC CISOMPET,,Garut,JAWA BARAT,,ID,+62 853-1880-6704,https://location.westernunion.com/id/jawa-barat/garut/410cc1e683f13c8fa551a589cac0e85d,Mo-Sa 07:30-16:00,Western Union,Q861042
c66d716656b938cf1422d6f68c80b883,western_union,POS HARMONI JAYA ABADI CIBEBER,,Cianjur,JAWA BARAT,,ID,+62 263 260630,https://location.westernunion.com/id/jawa-barat/cianjur/c66d716656b938cf1422d6f68c80b883,Mo-Fr 09:00-15:00; Sa 09:00-12:00; Su 06:00-20:00,Western Union,Q861042
01e28f5ffe4d47f846a34ff7c124c612,western_union,PEGADAIAN UPC PASAR PELITA,,Sukabumi,JAWA BARAT,,ID,+62 266 43931335,https://location.westernunion.com/id/jawa-barat/sukabumi/01e28f5ffe4d47f846a34ff7c124c612,Mo-Fr 07:30-15:00; Sa 07:30-12:00,Western Union,Q861042
52f748a490b572b968084af7c0e21092,western_union,PEGADAIAN UPC CIKOLE,,Sukabumi,JAWA BARAT,,ID,+62 266 97924309,https://location.westernunion.com/id/jawa-barat/sukabumi/52f748a490b572b968084af7c0e21092,Mo-Fr 07:30-15:00; Sa 07:30-12:00,Western Union,Q861042
c24bb1a361e8f6d3ae619f2ccb78dded,western_union,BPR SUPRA KC CIWANGI,,Sukabumi,JAWA BARAT,,ID,+62 266 223229,https://location.westernunion.com/id/jawa-barat/sukabumi/c24bb1a361e8f6d3ae619f2ccb78dded,Mo-Fr 08:00-15:00,Western Union,Q861042
5423e01bd6c500438a800a835c62ec7f,western_union,PEGADAIAN UPS SUKARAJA,,Sukabumi,JAWA BARAT,,ID,+62 266 252333,https://location.westernunion.com/id/jawa-barat/sukabumi/5423e01bd6c500438a800a835c62ec7f,Mo-Fr 07:30-15:00; Sa 07:30-12:00,Western Union,Q861042
1f4dd962cebaef66a6c00ad41d45b382,western_union,PEGADAIAN UPC SAPAN,,Bandung,JAWA BARAT,,ID,+62 851-0554-8897,https://location.westernunion.com/id/jawa-barat/bandung/1f4dd962cebaef66a6c00ad41d45b382,Mo-Fr 07:30-15:00; Sa 07:30-12:00,Western Union,Q861042
0d3e352d277a9533fd9d9d09f90d9b0f,western_union,PT REKSA MITRA INDONESIA,,Bandung Barat,JAWA BARAT,,ID,+62 813-2160-0227,https://location.westernunion.com/id/jawa-barat/bandung-barat/0d3e352d277a9533fd9d9d09f90d9b0f,Mo-Fr 08:30-15:00; Sa 08:00-12:00,Western Union,Q861042
07dfe8737b656b7f1555366e37ee24f6,western_union,KOPERASI PAYU 12,,Bandung Barat,JAWA BARAT,,ID,+62 813-2160-0227,https://location.westernunion.com/id/jawa-barat/bandung-barat/07dfe8737b656b7f1555366e37ee24f6,Mo-Su 08:00-21:00,Western Union,Q861042
2d78c5ca39fccfddf2e2477db6954992,western_union,PEGADAIAN CPS KEBONJATI SUKABUMI,,Sukabumi,JAWA BARAT,,ID,+62 262 19235,https://location.westernunion.com/id/jawa-barat/sukabumi/2d78c5ca39fccfddf2e2477db6954992,Mo-Fr 07:30-15:00; Sa 07:30-12:00,Western Union,Q861042
4e049f4f09de27eac04ab7611ac65ea9,western_union,BPR SUPRA KANTOR PUSAT,,Sukabumi,JAWA BARAT,,ID,+62 266 223388,https://location.westernunion.com/id/jawa-barat/sukabumi/4e049f4f09de27eac04ab7611ac65ea9,Mo-Fr 08:00-15:00,Western Union,Q861042
cf0588ce08bd86360506a59e4a50011f,western_union,BANK BJB KCP CIAWUL,,Sukabumi,JAWA BARAT,,ID,+62 266 6249399,https://location.westernunion.com/id/jawa-barat/sukabumi/cf0588ce08bd86360506a59e4a50011f,Mo-Fr 08:00-15:00,Western Union,Q861042
ed9d7c29a7a34cc23e116ca54381ab3a,western_union,PEGADAIAN UPC KADUDAMPIT,,Sukabumi,JAWA BARAT,,ID,+62 22 4230178,https://location.westernunion.com/id/jawa-barat/sukabumi/ed9d7c29a7a34cc23e116ca54381ab3a,Mo-Fr 07:30-15:00; Sa 07:30-12:30,Western Union,Q861042
18a2961cc9ac11fb3c8678ab9974ee42,western_union,PEGADAIAN UPS CIBATU,,Sukabumi,JAWA BARAT,,ID,+62 262 45075,https://location.westernunion.com/id/jawa-barat/sukabumi/18a2961cc9ac11fb3c8678ab9974ee42,Mo-Fr 07:30-15:00; Sa 07:30-12:00,Western Union,Q861042
5a5b1a4cbc76e6df42da92693613a4e8,western_union,BPR SUPRA KK BHAYANGKARA,,Sukabumi,JAWA BARAT,,ID,+62 266 213388,https://location.westernunion.com/id/jawa-barat/sukabumi/5a5b1a4cbc76e6df42da92693613a4e8,Mo-Fr 08:00-15:00,Western Union,Q861042
bcc5b8668839d5023ce5dd9eeafb5cb6,western_union,KOPERASI PAYU 567,,Sukabumi,JAWA BARAT,,ID,+62 21 29475518,https://location.westernunion.com/id/jawa-barat/sukabumi/bcc5b8668839d5023ce5dd9eeafb5cb6,Mo-Su 08:00-19:00,Western Union,Q861042
1fd3e9e1c5638007f52cd486005f1075,western_union,PT REKSA MITRA INDONESIA,,Cianjur,JAWA BARAT,,ID,+62 856-2441-8711,https://location.westernunion.com/id/jawa-barat/cianjur/1fd3e9e1c5638007f52cd486005f1075,Mo-Fr 08:30-15:00; Sa 08:00-12:00,Western Union,Q861042
03dbeca0e91820de283872eedcd5f776,western_union,BANK BJB KK RSUD PALABUHANRATU,,Sukabumi,JAWA BARAT,,ID,+62 266 7160628,https://location.westernunion.com/id/jawa-barat/sukabumi/03dbeca0e91820de283872eedcd5f776,Mo-Fr 08:00-15:00,Western Union,Q861042
c935794a433af8695730f32df262c182,western_union,BANK BJB KK CISOLOK,,Sukabumi,JAWA BARAT,,ID,+62 266 6442180,https://location.westernunion.com/id/jawa-barat/sukabumi/c935794a433af8695730f32df262c182,Mo-Fr 08:00-15:00,Western Union,Q861042
d71324839c7d085d5cd51957d265a299,western_union,BANK BJB KK LEMBUR SITU,,Sukabumi,JAWA BARAT,,ID,+62 266 245324,https://location.westernunion.com/id/jawa-barat/sukabumi/d71324839c7d085d5cd51957d265a299,Mo-Fr 08:00-15:00,Western Union,Q861042
3d528762717345958647a396ca938985,western_union,BANK BJB KK WARUNGKIARA,,Sukabumi,JAWA BARAT,,ID,+62 266 321257,https://location.westernunion.com/id/jawa-barat/sukabumi/3d528762717345958647a396ca938985,Mo-Fr 08:00-15:00,Western Union,Q861042
f8ad0d9e86043b74732a14136764f174,western_union,PEGADAIAN UPC PANGLESERAN,,Sukabumi,JAWA BARAT,,ID,+62 266 7408919,https://location.westernunion.com/id/jawa-barat/sukabumi/f8ad0d9e86043b74732a14136764f174,Mo-Fr 13:00-20:00; Sa-Su 13:00-17:00,Western Union,Q861042
679f50ee3f1596b6f27af90a63a3b896,western_union,KOPERASI PAYU 370,,Sukabumi,JAWA BARAT,,ID,+62 21 29475518,https://location.westernunion.com/id/jawa-barat/sukabumi/679f50ee3f1596b6f27af90a63a3b896,Mo-Su 08:00-21:00,Western Union,Q861042
5ec550df0da575f926fb5ab1634de123,western_union,KOPERASI PAYU 568,,Sukabumi,JAWA BARAT,,ID,+62 21 29475518,https://location.westernunion.com/id/jawa-barat/sukabumi/5ec550df0da575f926fb5ab1634de123,Mo-Su 08:00-19:00,Western Union,Q861042
2a6e9aea732ade3d8c5c74af82a21e8f,western_union,BANK BJB KCP CIBEBER,,Cianjur,JAWA BARAT,,ID,+62 263 2337400,https://location.westernunion.com/id/jawa-barat/cianjur/2a6e9aea732ade3d8c5c74af82a21e8f,Mo-Fr 08:00-15:00,Western Union,Q861042
e901ec484f9d1442554c3f45d2f56f2b,western_union,PT POS KPC NYALINDUNG,,Sukabumi,JAWA BARAT,,ID,+62 266 480208,https://location.westernunion.com/id/jawa-barat/sukabumi/e901ec484f9d1442554c3f45d2f56f2b,Mo-Fr 09:00-15:00; Sa 09:00-12:00,Western Union,Q861042
21fe705170d223b302bd72d32000cae0,western_union,PEGADAIAN UPC PELABUHAN RATU,,Sukabumi,JAWA BARAT,,ID,+62 266 7815235,https://location.westernunion.com/id/jawa-barat/sukabumi/21fe705170d223b302bd72d32000cae0,Mo-Fr 07:30-15:00; Sa 07:30-12:00,Western Union,Q861042
9a426855a9f0441de4d5cc227dbc3700,western_union,PT POS KPC SUKANEGARA,,Cianjur,JAWA BARAT,,ID,+62 263 340066,https://location.westernunion.com/id/jawa-barat/cianjur/9a426855a9f0441de4d5cc227dbc3700,Mo-Fr 09:00-15:00; Sa 09:00-12:00,Western Union,Q861042
3f00d3e157c6f85e56eaf50b69e29308,western_union,BANK BJB KK JAMPANGKULON,,Sukabumi,JAWA BARAT,,ID,+62 266 6494180,https://location.westernunion.com/id/jawa-barat/sukabumi/3f00d3e157c6f85e56eaf50b69e29308,Mo-Fr 07:00-19:00,Western Union,Q861042
f2dacd6458666917592c11e5ed66de75,western_union,KOPERASI PAYU 13,,Cianjur,JAWA BARAT,,ID,+62 856-5959-5555,https://location.westernunion.com/id/jawa-barat/cianjur/f2dacd6458666917592c11e5ed66de75,Mo-Su 08:00-21:00,Western Union,Q861042
64afe36917e3a03f4d29b32418452399,western_union,KOPERASI PAYU 102,,Sukabumi,JAWA BARAT,,ID,+62 815-7292-2009,https://location.westernunion.com/id/jawa-barat/sukabumi/64afe36917e3a03f4d29b32418452399,Mo-Su 08:00-21:00,Western Union,Q861042
6aa9eb5b9de8f7dc9b5e6d7b77c02862,western_union,KOPERASI PAYU 327,,Sukabumi,JAWA BARAT,,ID,(+62) 021-6285797593990,https://location.westernunion.com/id/jawa-barat/sukabumi/6aa9eb5b9de8f7dc9b5e6d7b77c02862,Mo-Su 08:00-21:00,Western Union,Q861042
d4e33652824d35f6ab6c759f17fb10cb,western_union,KOPERASI PAYU 2,,Sukabumi,JAWA BARAT,,ID,+62 857-2200-8844,https://location.westernunion.com/id/jawa-barat/sukabumi/d4e33652824d35f6ab6c759f17fb10cb,Mo-Su 08:00-21:00,Western Union,Q861042
7bbea3717950948c90b2083fac6ea71e,western_union,PT REKSA MITRA INDONESIA,,Sukabumi,JAWA BARAT,,ID,+62 855-2454-2225,https://location.westernunion.com/id/jawa-barat/sukabumi/7bbea3717950948c90b2083fac6ea71e,Mo-Fr 08:30-15:00; Sa 08:00-12:00,Western Union,Q861042
40cd1d338fb32972e85381447919dafc,western_union,KOPERASI PAYU 583,,Sukabumi,JAWA BARAT,,ID,+62 21 29475518,https://location.westernunion.com/id/jawa-barat/sukabumi/40cd1d338fb32972e85381447919dafc,Mo-Su 08:00-19:00,Western Union,Q861042
2eff697f2b90d31c48e4e4ca29e3acc2,western_union,PT REKSA MITRA INDONESIA,,Cianjur,JAWA BARAT,,ID,+62 858-6453-7948,https://location.westernunion.com/id/jawa-barat/cianjur/2eff697f2b90d31c48e4e4ca29e3acc2,Mo-Fr 08:30-15:00; Sa 08:00-12:00,Western Union,Q861042
da359727d98056aae40020e0ead44efa,western_union,PT REKSA MITRA INDONESIA,,Cianjur,JAWA BARAT,,ID,+62 853-1484-1863,https://location.westernunion.com/id/jawa-barat/cianjur/da359727d98056aae40020e0ead44efa,Mo-Fr 08:30-15:00; Sa 08:00-12:00,Western Union,Q861042
6fd29bb1cfae97b08d7b6edefe184a58,western_union,KOPERASI PAYU 55,,Cianjur,JAWA BARAT,,ID,+62 815-1995-6647,https://location.westernunion.com/id/jawa-barat/cianjur/6fd29bb1cfae97b08d7b6edefe184a58,Mo-Su 08:00-21:00,Western Union,Q861042
a8785b8f273a2efb33dc96756f8edabe,western_union,PT POS KPC KADUPANDAK,,Cianjur,JAWA BARAT,,ID,+62 21 3511523,https://location.westernunion.com/id/jawa-barat/cianjur/a8785b8f273a2efb33dc96756f8edabe,Mo-Fr 09:00-15:00; Sa 09:00-12:00,Western Union,Q861042
70f9dc6dfc0f106769793bad70f02af2,western_union,KOPERASI PAYU 28,,Sukabumi,JAWA BARAT,,ID,+62 856-2441-8711,https://location.westernunion.com/id/jawa-barat/sukabumi/70f9dc6dfc0f106769793bad70f02af2,Mo-Su 08:00-21:00,Western Union,Q861042
616c8de2bc067a60818dd4315d95b96f,western_union,KOPERASI PAYU 17,,Cianjur,JAWA BARAT,,ID,+62 853-2066-5063,https://location.westernunion.com/id/jawa-barat/cianjur/616c8de2bc067a60818dd4315d95b96f,Mo-Su 08:00-21:00,Western Union,Q861042
332c4d845e11cfe86f79c625f321e405,western_union,KOPERASI PAYU 53,,Cianjur,JAWA BARAT,,ID,+62 853-1533-6481,https://location.westernunion.com/id/jawa-barat/cianjur/332c4d845e11cfe86f79c625f321e405,Mo-Su 08:00-21:00,Western Union,Q861042
8c8d1f300f13bff2a53a154374a611aa,western_union,KOPERASI PAYU 30,,Cianjur,JAWA BARAT,,ID,+62 856-2441-8711,https://location.westernunion.com/id/jawa-barat/cianjur/8c8d1f300f13bff2a53a154374a611aa,Mo-Su 08:00-21:00,Western Union,Q861042
e87d8bc293534041b86b5fab078cb351,western_union,KOPERASI PAYU 23,,Cianjur,JAWA BARAT,,ID,+62 812-1429-5995,https://location.westernunion.com/id/jawa-barat/cianjur/e87d8bc293534041b86b5fab078cb351,Mo-Su 08:00-21:00,Western Union,Q861042
60138fdabca92342ea3b68758495b408,western_union,PT POS KPC PURABAYA,,Sukabumi,JAWA BARAT,,ID,+62 21 3511523,https://location.westernunion.com/id/jawa-barat/sukabumi/60138fdabca92342ea3b68758495b408,Mo-Fr 09:00-15:00; Sa 09:00-12:00,Western Union,Q861042
14fad93d0badd351bc8235f55abc25db,western_union,KOPERASI PAYU 561,,Cianjur,JAWA BARAT,,ID,+62 21 29475518,https://location.westernunion.com/id/jawa-barat/cianjur/14fad93d0badd351bc8235f55abc25db,Mo-Su 08:00-19:00,Western Union,Q861042
6d440a5278544f29ca7040f7fe493b9f,western_union,POS HARMONI JAYA ABADI PASIR KUDA,,Cianjur,JAWA BARAT,,ID,+62 263 260630,https://location.westernunion.com/id/jawa-barat/cianjur/6d440a5278544f29ca7040f7fe493b9f,Mo-Fr 09:00-15:00; Sa 09:00-12:00; Su 06:00-20:00,Western Union,Q861042
0eb822e5ce85f3bc05f6dabf50e106cc,western_union,KOPERASI PAYU 61,,Karawang,JAWA BARAT,,ID,+62 857-3719-1626,https://location.westernunion.com/id/jawa-barat/karawang/0eb822e5ce85f3bc05f6dabf50e106cc,Mo-Su 08:00-21:00,Western Union,Q861042
0e7416d34a98998d7d2c0d8bcf15ada6,western_union,ADISENA SEGARANTEN SUKABUMI,,Sukabumi,JAWA BARAT,,ID,+62 851-0278-8576,https://location.westernunion.com/id/jawa-barat/sukabumi/0e7416d34a98998d7d2c0d8bcf15ada6,Mo-Su 08:00-21:00,Western Union,Q861042
6f41e6e92fb0d2c58e135873c8074e95,western_union,BRI UNIT GEMPOL CIKAMPEK,,Karawang,JAWA BARAT,,ID,+62 264 8380961,https://location.westernunion.com/id/jawa-barat/karawang/6f41e6e92fb0d2c58e135873c8074e95,Mo-Fr 08:00-15:00,Western Union,Q861042
ae4d46bc945cfcb55baf5f876e7311ce,western_union,BRI UNIT CURUG CIKAMPEK,,Karawang,JAWA BARAT,,ID,+62 267 432062,https://location.westernunion.com/id/jawa-barat/karawang/ae4d46bc945cfcb55baf5f876e7311ce,Mo-Fr 08:00-15:00,Western Union,Q861042
fce99526d595c53e15f8e21ca123b404,western_union,PT POS KPC SUKAREGANG,,Garut,JAWA BARAT,,ID,+62 22 4207081,https://location.westernunion.com/id/jawa-barat/garut/fce99526d595c53e15f8e21ca123b404,Mo-Fr 09:00-15:00; Sa 09:00-12:00,Western Union,Q861042
