Ref,Spider,Name,Address,City,State,Zipcode,Country,Phone,Website,Hours,Brand,WikiData
21971,asics_us,BootLegger's Footwear Center,59 Gonic Rd,Rochester,NH,,US,+1 603-332-3506,,Mo-We 09:00-18:00; Th-Fr 09:00-20:00; Sa 09:00-18:00; Su 10:00-17:00,asics,Q327247
102080,bluerhino,Lowe's #2449,,Rochester,NH,,US,+1 603-833-4000,,,Blue Rhino,Q65681213
240215,bluerhino,Circle K #4707244,,Rochester,NH,,US,+1 603-335-3598,,,Blue Rhino,Q65681213
3628,buffalo_wild_wings_us,"Rochester, NH",,Rochester,NH,,US,+1 603-335-3455,"https://www.buffalowildwings.com/locations/us/nh/rochester/160-washington-street,-suite-103/sports-bar-1317",Mo-Su 11:00-23:00,Buffalo Wild Wings,Q509255
41391,citi,ATM Circle K,,Rochester,NH,,US,,,,Citibank,Q857063
331981,dunkin_us,Dunkin',,Rochester,NH,,US,+1 603-335-3969,https://locations.dunkindonuts.com/en/nh/rochester/377-gonic-rd/331981,Mo-Su 04:00-20:00,Dunkin',Q847743
339325,dunkin_us,Dunkin',,Rochester,NH,,US,+1 603-330-0359,https://locations.dunkindonuts.com/en/nh/rochester/130-washington-st/339325,Mo-Su 04:00-19:00,Dunkin',Q847743
https://www.edwardjones.com/us-en/financial-advisor/randall-briolat,edwardjones,Randall A Briolat Jr,,Rochester,NH,,US,+1 603-332-9584,https://www.edwardjones.com/us-en/financial-advisor/randall-briolat,Mo 08:00-20:00; Tu-Th 08:00-17:00; Fr 08:00-15:00,Edward Jones,Q5343830
6235,gamestop_us,Rochester Crossing,,Rochester,NH,,US,+1 603-330-0253,https://www.gamestop.com/search/?store=6235,Mo-Th 12:00-20:00; Fr-Sa 10:00-21:00; Su 12:00-18:00,GameStop,Q202210
https://salons.greatclips.com/us/nh/rochester/160-washington-st,greatclips,Great Clips,,Rochester,NH,,US,+1 603-948-1145,https://salons.greatclips.com/us/nh/rochester/160-washington-st,Mo-Fr 09:00-20:00; Sa 08:00-18:00; Su 09:00-17:00,Great Clips,Q5598967
nh_rochester_breakfast-160-washington-st-3501,ihop,IHOP Breakfast Restaurants Near You at 160 Washington St,,Rochester,NH,,US,+1 603-948-1238,https://restaurants.ihop.com/en-us/nh/rochester/breakfast-160-washington-st-3501,,IHOP,Q1185675
2301,joann_us,JOANN Fabric and Crafts,,Rochester,NH,,US,+1 603-330-7512,https://stores.joann.com/nh/rochester/2301/,Mo-Sa 09:00-19:00; Su 10:00-18:00,JOANN,Q6203968
1137,kohls_us,Kohl's,,Rochester,NH,,US,+1 603-330-9646,https://www.kohls.com/stores/nh/rochester-1137.shtml,Mo-Th 09:00-20:00; Fr-Sa 09:00-21:00; Su 09:00-20:00,Kohl's,Q967265
239168,mattress_firm_us,Mattress Firm Rochester,,Rochester,NH,,US,+1 603-330-0321,https://www.mattressfirm.com/en-us/stores/nh/rochester/120182/,,Mattress Firm,Q6791878
125-washington-street,staples,"Staples Rochester, NH",,Rochester,NH,,US,,https://stores.staples.com/nh/rochester/125-washington-street,Mo-Fr 08:00-19:00; Sa 09:00-18:00; Su 10:00-18:00,Staples,Q785943
1434545,usps,GONIC,,ROCHESTER,NH,,US,+1 603-332-1429,,,United States Postal Service,Q668687
0383900002,usps_collection_boxes,USPS COLLECTION BOX - BLUE BOX,36 MAIN ST,ROCHESTER,NH,,US,,,,United States Postal Service,Q668687
0383900003,usps_collection_boxes,USPS COLLECTION BOX - PO LOBBY,36 MAIN ST,ROCHESTER,NH,,US,,,,United States Postal Service,Q668687
0383900006,usps_collection_boxes,USPS COLLECTION BOX - PO LOBBY,36 MAIN ST,ROCHESTER,NH,,US,,,,United States Postal Service,Q668687
0383900001,usps_collection_boxes,USPS COLLECTION BOX - BLUE BOX,357 GONIC RD,ROCHESTER,NH,,US,,,,United States Postal Service,Q668687
A00000170989,verizon_us,BeMobile Rochester,,Rochester,NH,,US,+1 603-335-9200,https://www.verizon.com/stores/details/new-hampshire/rochester/amcomm-wireless-rochester-1801622/,Mo-Sa 10:00-18:00; Su 11:00-16:00,Verizon,Q919641
,visa,,,ROCHESTER,NH,,US,,,,,
