Ref,Spider,Name,Address,City,State,Zipcode,Country,Phone,Website,Hours,Brand,WikiData
https://locations.99only.com/nv/sparks/discount-store-349.html,99_cents_only_us,99 Cents Only Stores,,Sparks,NV,,US,+1 775-331-3890,https://locations.99only.com/nv/sparks/discount-store-349.html,Mo 08:00-21:00; Tu 07:00-21:00; We 08:00-21:00; Th 07:00-21:00; Fr-Su 08:00-21:00,99 Cents Only Stores,Q4646294
/locations/propane-offices/nevada/sparks/720-glendale-ave,amerigas,"AmerGas Propane | Sparks, Nevada",,Sparks,NV,,US,+1 775-331-3100,/locations/propane-offices/nevada/sparks/720-glendale-ave,,AmeriGas,Q23130318
https://restaurants.applebees.com/en-us/nv/sparks/693-north-mccarran-blvd.-82064,applebees,Connect with this Applebee's,,Sparks,NV,,US,+1 775-358-5811,https://restaurants.applebees.com/en-us/nv/sparks/693-north-mccarran-blvd.-82064,Mo-Th 11:00-24:00; Fr-Sa 11:00-01:00; Su 11:00-24:00,Applebees,Q621532
2224,autozone_us,AutoZone Auto Parts Sparks,,Sparks,NV,,US,+1 775-359-5111,https://www.autozone.com/locations/nv/sparks/825-roberta-lane.html,Mo-Sa 07:30-21:00; Su 08:00-20:00,AutoZone,Q4826087
4163,autozone_us,AutoZone Auto Parts Sparks,,Sparks,NV,,US,+1 775-358-0347,https://www.autozone.com/locations/nv/sparks/473-east-prater-way.html,Mo-Sa 06:00-22:00; Su 07:30-22:00,AutoZone,Q4826087
https://www.avis.com/en/locations/us/nv/sparks/q3s,avis,Avis U S A Sparks,,Sparks,NV,,US,+1 775-356-2490,https://www.avis.com/en/locations/us/nv/sparks/q3s,Mo-Fr 08:00-17:00; Sa 08:00-16:00; Su 08:00-12:30,Avis,Q791136
https://locators.bankofamerica.com/nv/sparks/financial-centers-sparks-10924.html,bankofamerica,Bank of America Financial Center & Drive-Thru ATM | Prater / McCarran,,Sparks,NV,,US,+1 775-685-5910,https://locators.bankofamerica.com/nv/sparks/financial-centers-sparks-10924.html,Mo-Fr 09:00-17:00; Sa 09:00-14:00,Bank of America,Q487907
https://locators.bankofamerica.com/nv/sparks/financial-centers-sparks-8628.html,bankofamerica,Bank of America Financial Center & Drive-Thru ATM | Oddie,,Sparks,NV,,US,+1 775-685-5062,https://locators.bankofamerica.com/nv/sparks/financial-centers-sparks-8628.html,Mo-Fr 10:00-16:00,Bank of America,Q487907
https://locations.baskinrobbins.com/nv/sparks/1145-n-mccarran-blvd-347880-br,baskin_robbins_us,Baskin-Robbinsâ„¢,,Sparks,NV,,US,+1 775-359-3555,https://locations.baskinrobbins.com/nv/sparks/1145-n-mccarran-blvd-347880-br,Mo-Su 11:00-22:00,Baskin-Robbins,Q584601
474,batteriesplus,Visit our Sparks store today,,Sparks,NV,,US,+1 775-331-0566,https://www.batteriesplus.com/store-locator/nv/sparks/batteries-plus-474,Mo-Sa 08:00-19:00; Su 10:00-18:00,Batteries Plus Bulbs,Q17005157
153721,bluerhino,Walgreens #11227,,Sparks,NV,,US,+1 775-358-4721,,,Blue Rhino,Q65681213
223930,bluerhino,Jashan Market #2,,Sparks,NV,,US,+1 775-359-1117,,,Blue Rhino,Q65681213
34479,bluerhino,TruServ - Shelley's True Value #18511-9,,Sparks,NV,,US,+1 775-358-1841,,,Blue Rhino,Q65681213
57075,bluerhino,Smiths Food & Drug 357,,Sparks,NV,,US,+1 775-359-6800,,,Blue Rhino,Q65681213
167988,bluerhino,Nicks Enterprises,,Sparks,NV,,US,+1 775-356-5868,,,Blue Rhino,Q65681213
177997,bluerhino,Quik Stop #550170,,Sparks,NV,,US,+1 775-331-6855,,,Blue Rhino,Q65681213
21973_1,bmw_group,Sierra BMW Motorcycle,,Sparks,NV,,US,+1 775-355-0655,https://www.sierrabmw.com,,BMW Motorrad,Q249173
301419,chevron,Chevron Station #301419,12155 EAST I-80,SPARKS,NV,,US,+1 775-342-6405,,,Chevron,Q319642
31343,citi,ATM 7ELEVEN-FCTI,,Sun Valley,NV,,US,,,,Citibank,Q857063
30145,citi,ATM 7ELEVEN-FCTI,,Sparks,NV,,US,,,,Citibank,Q857063
28066,citi,ATM 7ELEVEN-FCTI,,Sparks,NV,,US,,,,Citibank,Q857063
31521,citi,ATM 7ELEVEN-FCTI,,Sparks,NV,,US,,,,Citibank,Q857063
26352,citi,ATM 7ELEVEN-FCTI,,Sparks,NV,,US,,,,Citibank,Q857063
34772,citi,ATM Ampm,,Sparks,NV,,US,,,,Citibank,Q857063
89131,citi,ATM Walgreens,,Sparks,NV,,US,,,,Citibank,Q857063
27759,citi,ATM 7ELEVEN-FCTI,,Sparks,NV,,US,,,,Citibank,Q857063
1200 Marietta WaySparksNV,clean_harbors,Clean Harbors,,Sparks,NV,,US,+1 775-624-8060,,,Clean Harbors,Q5130494
191 Coney Island DriveSparksNV,clean_harbors,Clean Harbors,,Sparks,NV,,US,+1 775-331-9400,,,Clean Harbors,Q5130494
80193654,cricket_wireless,Cricket Wireless Authorized Retailer,,Sparks,NV,,US,+1 775-356-2060,https://www.cricketwireless.com/stores/ll/US/NV/Sparks/205-N-McCarran-Blvd,Mo-Sa 10:00-19:00; Su 12:00-18:00,Cricket Wireless,Q5184987
70125102,cricket_wireless,Cricket Wireless Authorized Retailer,,Sparks,NV,,US,+1 775-379-1000,https://www.cricketwireless.com/stores/ll/US/NV/Sparks/1151-N-Rock-Blvd,Mo-Sa 10:00-19:00,Cricket Wireless,Q5184987
8792,cvs_us,CVS Pharmacy,,Sparks,NV,,US,+1 775-359-6808,https://www.cvs.com/store-locator/sparks-nv-pharmacies/680-n-mccarran-blvd-sparks-nv-89431/storeid=8792,24/7,CVS Pharmacy,Q2078880
248734,dennys,Denny's,,Sparks,NV,,US,+1 775-359-9053,https://locations.dennys.com/NV/SPARKS/248734,24/7,Denny's,Q1189695
7400,dominos_pizza_us,Domino's Pizza,,Sparks,NV,,US,+1 775-359-5353,https://pizza.dominos.com/nevada/sparks/1145-n-mccarren-blvd,Mo-Th 10:30-24:00; Fr-Sa 10:30-01:00; Su 10:30-24:00,Domino's,Q839466
https://www.edwardjones.com/us-en/financial-advisor/jennifer-ramsey,edwardjones,Jennifer N Ramsey,,Sparks,NV,,US,+1 775-674-3300,https://www.edwardjones.com/us-en/financial-advisor/jennifer-ramsey,Mo-Th 08:30-16:30; Fr 08:30-13:30,Edward Jones,Q5343830
3349,elpolloloco,El Pollo Loco,,Sparks,NV,,US,+1 775-355-7488,,,El Pollo Loco,Q2353849
200324136,exxonmobil,PETRO SPARKS,,SPARKS,NV,,US,+1 775-355-8888,https://www.exxon.com/en/find-station/mobil-sparks-nv-petrosparks-200324136,24/7,Mobil,Q109676002
200324135,exxonmobil,TA SPARKS,,SPARKS,NV,,US,+1 775-359-0550,https://www.exxon.com/en/find-station/mobil-sparks-nv-tasparks-200324135,24/7,Mobil,Q109676002
2028,first_cash,Cash America Pawn,,Sparks,NV,,US,+1 775-331-4044,,,Cash America,Q5048636
https://branches.fleetpride.com/nv/sparks/truckparts-spa.html,fleet_pride_us,FleetPride,,Sparks,NV,,US,+1 775-331-0344,https://branches.fleetpride.com/nv/sparks/truckparts-spa.html,Mo-Fr 08:00-17:00; Sa 08:00-12:00,FleetPride,Q121436710
Motorcraft2852USAEnglish,ford,Factory Motor Parts,,Nevada,NV,,US,+1 775-353-4477,,,Ford,Q44294
2548,gamestop_us,Silver State,,Sparks,NV,,US,+1 775-355-0100,https://www.gamestop.com/search/?store=2548,Mo-Th 12:00-19:00; Fr-Sa 10:00-20:00; Su 12:00-18:00,GameStop,Q202210
https://salons.greatclips.com/us/nv/sparks/1495-e-prater-way,greatclips,Great Clips,,Sparks,NV,,US,+1 775-501-5368,https://salons.greatclips.com/us/nv/sparks/1495-e-prater-way,Mo-Fr 10:00-19:00; Sa-Su 08:00-17:00,Great Clips,Q5598967
https://www.harborfreight.com/storelocator/495-e-prater-way-sparks-89431?number=2945,harborfreight,"Harbor Freight Tools Sparks, NV",,Sparks,NV,,US,+1 775-473-9091,https://www.harborfreight.com/storelocator/495-e-prater-way-sparks-89431?number=2945,Mo-Sa 08:00-20:00; Su 09:00-18:00,Harbor Freight Tools,Q5654601
27611,h_r_block,H&R Block,,Sparks,NV,,US,+1 775-359-2036,https://www.hrblock.com/local-tax-offices/nevada/sparks/pyramid-park-shopping-center/27611/,,H&R Block,Q5627799
27619,h_r_block,H&R Block,,Sparks,NV,,US,+1 775-331-1040,https://www.hrblock.com/local-tax-offices/nevada/sparks/paradise-plaza/27619/,,H&R Block,Q5627799
188,innout,Sparks,,Sparks,NV,,US,,http://locations.in-n-out.com/188,,In-N-Out Burger,Q1205312
https://locations.jackinthebox.com/us/nv/sparks/2289-oddie-blvd,jackinthebox,Jack in the Box,,Sparks,NV,,US,+1 775-360-2603,https://locations.jackinthebox.com/us/nv/sparks/2289-oddie-blvd,Mo-Th 06:00-23:00; Fr-Sa 06:00-01:00; Su 06:00-23:00,Jack in the Box,Q1538507
https://locations.jackinthebox.com/us/nv/sparks/655-e-prater-way,jackinthebox,Jack in the Box,,Sparks,NV,,US,+1 775-360-2606,https://locations.jackinthebox.com/us/nv/sparks/655-e-prater-way,Mo-Th 06:00-00:00; Fr-Sa 06:00-01:00; Su 06:00-00:00,Jack in the Box,Q1538507
https://office.jacksonhewitt.com/#27576556,jackson_hewitt,Jackson Hewitt,,Sparks,NV,,US,+1 775-339-3300,https://office.jacksonhewitt.com/tax-preparation-services-locations/en/nv/sparks/673-n-mccarran-blvd/11861,Mo-Sa 11:00-19:00; Su 12:00-16:00,Jackson Hewitt,Q6117132
https://office.jacksonhewitt.com/#27578808,jackson_hewitt,Jackson Hewitt,,Sparks,NV,,US,+1 775-339-3018,https://office.jacksonhewitt.com/tax-preparation-services-locations/en/nv/sparks/1570-sullivan-lane/14121,Mo-Fr 11:00-19:00; Su 12:00-16:00,Jackson Hewitt,Q6117132
https://locations.kfc.com/#11248179,kfc,Chicken Nuggets Near Sparks,,Sparks,NV,,US,,https://locations.kfc.com/nv/sparks/275-n-mccarran-st/chickennugget,Mo-Su 10:30-22:00,KFC,Q524757
301073,kindercare,McCarran KinderCare,,Sparks,NV,,US,,https://www.kindercare.com/our-centers/sparks/nv/301073,,KinderCare Learning Centers,Q6410551
172843,little_free_library,Summit Lake Paiute Tribes Indoor Little Free Library Indigenous Library Program #172843 Sparks NV,,Sparks,NV,,US,,,,Little Free Library,Q6650101
72593,little_free_library,Junior League Of Reno Library #72593 #72593 Sparks NV,,Sparks,NV,,US,,,,Little Free Library,Q6650101
285900,marathon_petroleum_us,ARCO #42754 AMPM,,Sparks,NV,,US,+1 775-284-7442,,,Arco,Q304769
286702,marathon_petroleum_us,ARCO #42361,,Sparks,NV,,US,+1 775-352-9445,,,Arco,Q304769
286459,marathon_petroleum_us,ARCO #42724 AMPM,,Sparks,NV,,US,+1 775-358-7529,,,Arco,Q304769
74444074,moneygram,CARNICERIA MI RANCHO - #1 - SPARKS,,SPARKS,NV,,US,+1 775-683-9446,,Mo-Su 08:00-20:00,MoneyGram,Q1944412
66032151,moneygram,CVS - #8792,,SPARKS,NV,,US,+1 775-359-6808,,Mo-Su 08:00-22:00,MoneyGram,Q1944412
https://locations.oreillyauto.com/nv/sparks/check-engine-light-testing-3466.html,oreilly,Your Sparks O'Reilly Auto Parts Store,,Sparks,NV,,US,+1 775-358-9440,https://locations.oreillyauto.com/nv/sparks/check-engine-light-testing-3466.html,Mo-Sa 07:30-22:00; Su 08:00-21:00,O'Reilly Auto Parts,Q7071951
https://locations.oreillyauto.com/nv/sparks/wiper-installation-3466.html,oreilly,Your Sparks O'Reilly Auto Parts Store,,Sparks,NV,,US,+1 775-358-9440,https://locations.oreillyauto.com/nv/sparks/wiper-installation-3466.html,Mo-Sa 07:30-22:00; Su 08:00-21:00,O'Reilly Auto Parts,Q7071951
https://locations.oreillyauto.com/nv/sparks/battery-testing-3466.html,oreilly,Your Sparks O'Reilly Auto Parts Store,,Sparks,NV,,US,+1 775-358-9440,https://locations.oreillyauto.com/nv/sparks/battery-testing-3466.html,Mo-Sa 07:30-22:00; Su 08:00-21:00,O'Reilly Auto Parts,Q7071951
https://locations.oreillyauto.com/nv/sparks/autopartes-3466.html,oreilly,Tu tienda O'Reilly Auto Parts en Sparks,,Sparks,NV,,US,+1 775-358-9440,https://locations.oreillyauto.com/nv/sparks/autopartes-3466.html,Mo-Sa 07:30-22:00; Su 08:00-21:00,O'Reilly Auto Parts,Q7071951
https://locations.oreillyauto.com/nv/sparks/check-engine-light-testing-2569.html,oreilly,Your Sparks O'Reilly Auto Parts Store,,Sparks,NV,,US,+1 775-331-7550,https://locations.oreillyauto.com/nv/sparks/check-engine-light-testing-2569.html,Mo-Sa 07:30-21:00; Su 08:00-20:00,O'Reilly Auto Parts,Q7071951
https://locations.oreillyauto.com/nv/sparks/battery-testing-2569.html,oreilly,Your Sparks O'Reilly Auto Parts Store,,Sparks,NV,,US,+1 775-331-7550,https://locations.oreillyauto.com/nv/sparks/battery-testing-2569.html,Mo-Sa 07:30-21:00; Su 08:00-20:00,O'Reilly Auto Parts,Q7071951
https://locations.oreillyauto.com/nv/sparks/wiper-installation-2569.html,oreilly,Your Sparks O'Reilly Auto Parts Store,,Sparks,NV,,US,+1 775-331-7550,https://locations.oreillyauto.com/nv/sparks/wiper-installation-2569.html,Mo-Sa 07:30-21:00; Su 08:00-20:00,O'Reilly Auto Parts,Q7071951
https://locations.oreillyauto.com/nv/sparks/autopartes-2569.html,oreilly,Tu tienda O'Reilly Auto Parts en Sparks,,Sparks,NV,,US,+1 775-331-7550,https://locations.oreillyauto.com/nv/sparks/autopartes-2569.html,Mo-Sa 07:30-21:00; Su 08:00-20:00,O'Reilly Auto Parts,Q7071951
https://locations.papamurphys.com/#15429956,papamurphys,Pizza Takeout & Delivery,,Sparks,NV,,US,+1 775-331-7500,https://locations.papamurphys.com/nv/sparks/2955-north-mccarran-blvd.,Mo-Su 11:00-20:00,Papa Murphy's,Q7132349
777710,penske,Penske Reno,,SPARKS,NV,,US,+1 775-359-6226,https://www.pensketruckrental.com/locations/us/nevada/sparks/777710/,,Penske,Q81234570
nv_sparks_632-e-prater-way,pizza_hut_us,632 E Prater Way,,Sparks,NV,,US,+1 775-358-1400,https://locations.pizzahut.com/nv/sparks/632-e-prater-way,,Pizza Hut,Q191615
4031,rentacenter,Rent-A-Center,,Sparks,NV,,US,+1 775-359-1059,https://locations.rentacenter.com/nevada/sparks/205-e-prater-way/,Mo-Sa 10:00-18:00,Rent-A-Center,Q7313497
1414,ross_dress_for_less_us,Sparks,,Sparks,NV,,US,+1 775-358-1479,,Mo-Th 10:00-21:30; Fr-Sa 09:00-22:00; Su 10:00-21:00,Ross Dress for Less,Q3442791
1330-scheels-dr,rue21,Legends of Sparks,,Sparks,NV,,US,,https://stores.rue21.com/nv/sparks/1330-scheels-dr.html,Mo-Sa 10:00-21:00; Su 11:00-18:00,rue21,Q7377762
https://stations.sinclairoil.com/nv/sparks/11-e-victorian-ave,sinclair_us,Sinclair Gas Station,,Sparks,NV,,US,+1 775-356-5868,https://stations.sinclairoil.com/nv/sparks/11-e-victorian-ave,Mo-Sa 05:30-23:00; Su 05:30-22:00,Sinclair,Q1290900
https://stations.sinclairoil.com/nv/sparks/187-e-greg-st,sinclair_us,Sinclair Gas Station,,Sparks,NV,,US,+1 775-682-4114,https://stations.sinclairoil.com/nv/sparks/187-e-greg-st,Mo-Su 05:00-24:00,Sinclair,Q1290900
https://stations.sinclairoil.com/nv/sparks/800-prater-way,sinclair_us,Sinclair Gas Station,,Sparks,NV,,US,+1 775-236-0511,https://stations.sinclairoil.com/nv/sparks/800-prater-way,24/7,Sinclair,Q1290900
https://restaurants.subway.com/#14897494,subway,Subway South McCarran Square S/C,,Sparks Washoe,NV,,US,+1 775-359-1200,https://restaurants.subway.com/united-states/nv/sparks/970-south-mccarran,Mo-Fr 07:00-20:00; Sa 09:00-17:00; Su 10:00-16:00,Subway,Q244457
https://restaurants.subway.com/#14897554,subway,Subway Marina Marketplace Shop Ctr,,Sparks Washoe,NV,,US,+1 775-384-9960,https://restaurants.subway.com/united-states/nv/sparks/1495-east-prater-way,Mo-Su 09:00-22:00,Subway,Q244457
82507,supercuts,Sparks Center,408 N Mccarran Blvd,Sparks,NV,,US,+1 775-359-5275,https://www.supercuts.com/checkin/82507,Mo-Sa 08:00-19:00; Su 10:00-17:00,Supercuts,Q7643239
https://locations.tacobell.com/#6145440,taco_bell,Taco Bell,,Sparks,NV,,US,+1 775-475-4257,https://locations.tacobell.com/nv/sparks/200-east-prater-way.html,Mo-We 08:00-02:00; Th 10:00-02:00; Fr-Sa 08:00-03:00; Su 08:00-02:00,Taco Bell,Q752941
https://locations.tacobell.com/#6146397,taco_bell,Taco Bell,,Sparks,NV,,US,+1 775-387-1310,https://locations.tacobell.com/nv/sparks/1395-big-fish-drive.html,Mo-Th 07:00-24:00; Fr 07:00-01:00; Sa 08:00-01:00; Su 08:00-24:00,Taco Bell,Q752941
981E,tmobile_us,N Mccarran Blvd & E Prater Way,,Sparks,NV,,US,+1 775-391-6001,https://www.t-mobile.com/store-locator/nv/sparks/n-mccarran-blvd-e-prater-way,,T-Mobile,Q3511885
0338,travelcenters_of_america_us,Petro Sparks #0338,,Sparks,NV,,US,+1 775-355-8888,https://www.ta-petro.com/location/nv/petro-sparks/,,Petro,Q64051305
https://www.ubreakifix.com/locations/sparks,ubreakifix,uBreakiFix Sparks,,Sparks,NV,,US,+1 775-499-7777,https://www.ubreakifix.com/locations/sparks,Mo-Su 10:00-19:00,uBreakiFix,Q53685733
1382429,usps,SPARKS,,SPARKS,NV,,US,+1 775-359-1043,,Mo-Fr 09:00-17:30,United States Postal Service,Q668687
8943100091,usps_collection_boxes,USPS COLLECTION BOX - BLUE BOX,9732 PYRAMID WAY,SPARKS,NV,,US,,,,United States Postal Service,Q668687
8943100088,usps_collection_boxes,USPS COLLECTION BOX - BLUE BOX,2215 GREEN VISTA DR,SPARKS,NV,,US,,,,United States Postal Service,Q668687
8943100085,usps_collection_boxes,USPS COLLECTION BOX - EXPRESS,2215 GREEN VISTA DR,SPARKS,NV,,US,,,,United States Postal Service,Q668687
8943100086,usps_collection_boxes,USPS COLLECTION BOX - BLUE BOX,2215 GREEN VISTA DR,SPARKS,NV,,US,,,,United States Postal Service,Q668687
8943100084,usps_collection_boxes,USPS COLLECTION BOX - BLUE BOX,2215 GREEN VISTA DR,SPARKS,NV,,US,,,,United States Postal Service,Q668687
8943100014,usps_collection_boxes,USPS COLLECTION BOX - BLUE BOX,1855 EL RANCHO DR,SPARKS,NV,,US,,,,United States Postal Service,Q668687
8943100029,usps_collection_boxes,USPS COLLECTION BOX - BLUE BOX,2300 ODDIE BLVD,SPARKS,NV,,US,,,,United States Postal Service,Q668687
8943100027,usps_collection_boxes,USPS COLLECTION BOX - BLUE BOX,2225 ODDIE BLVD,SPARKS,NV,,US,,,,United States Postal Service,Q668687
8943100017,usps_collection_boxes,USPS COLLECTION BOX - BLUE BOX,950 HOLMAN WAY,SPARKS,NV,,US,,,,United States Postal Service,Q668687
8943100009,usps_collection_boxes,USPS COLLECTION BOX - BLUE BOX,690 GREENBRAE DR,SPARKS,NV,,US,,,,United States Postal Service,Q668687
8943100004,usps_collection_boxes,USPS COLLECTION BOX - BLUE BOX,1125 12TH ST,SPARKS,NV,,US,,,,United States Postal Service,Q668687
8943100046,usps_collection_boxes,USPS COLLECTION BOX - BLUE BOX,1305 PYRAMID WAY,SPARKS,NV,,US,,,,United States Postal Service,Q668687
8943100095,usps_collection_boxes,USPS COLLECTION BOX - PO LOBBY,750 4TH ST,SPARKS,NV,,US,,,,United States Postal Service,Q668687
8943100089,usps_collection_boxes,USPS COLLECTION BOX - PO LOBBY,740 4TH ST,SPARKS,NV,,US,,,,United States Postal Service,Q668687
8943100058,usps_collection_boxes,USPS COLLECTION BOX - PO LOBBY,750 4TH ST,SPARKS,NV,,US,,,,United States Postal Service,Q668687
8943100053,usps_collection_boxes,USPS COLLECTION BOX - BLUE BOX,750 4TH ST,SPARKS,NV,,US,,,,United States Postal Service,Q668687
8943100055,usps_collection_boxes,USPS COLLECTION BOX - BLUE BOX,750 4TH ST,SPARKS,NV,,US,,,,United States Postal Service,Q668687
8943100054,usps_collection_boxes,USPS COLLECTION BOX - BLUE BOX,750 4TH ST,SPARKS,NV,,US,,,,United States Postal Service,Q668687
8943100052,usps_collection_boxes,USPS COLLECTION BOX - BLUE BOX,750 4TH ST,SPARKS,NV,,US,,,,United States Postal Service,Q668687
8943100024,usps_collection_boxes,USPS COLLECTION BOX - BLUE BOX,650 E PRATER WAY,SPARKS,NV,,US,,,,United States Postal Service,Q668687
8943100001,usps_collection_boxes,USPS COLLECTION BOX - BLUE BOX,1002 C ST,SPARKS,NV,,US,,,,United States Postal Service,Q668687
8943100035,usps_collection_boxes,USPS COLLECTION BOX - BLUE BOX,620 N MCCARRAN BLVD,SPARKS,NV,,US,,,,United States Postal Service,Q668687
8943100034,usps_collection_boxes,USPS COLLECTION BOX - BLUE BOX,200 N MCCARRAN BLVD,SPARKS,NV,,US,,,,United States Postal Service,Q668687
8943100087,usps_collection_boxes,USPS COLLECTION BOX - BLUE BOX,800 MARIETTA WAY,SPARKS,NV,,US,,,,United States Postal Service,Q668687
8943100049,usps_collection_boxes,USPS COLLECTION BOX - BLUE BOX,835 BERGIN WAY,SPARKS,NV,,US,,,,United States Postal Service,Q668687
8943100045,usps_collection_boxes,USPS COLLECTION BOX - BLUE BOX,1950 E GREG ST,SPARKS,NV,,US,,,,United States Postal Service,Q668687
0000030477,valero,ASK NEVADA,,SPARKS,NV,,US,-,https://locations.valero.com/en-us/LocationDetails/Index/400-GREENBRAE-DR/0000030477,24/7,Valero,Q1283291
10811,vestis_uniform_services_us,Vestis Sparks,,Sparks,NV,,US,+1 775-200-0459,https://www.vestis.com/our-locations/vestis-sparks,,Vestis,Q122947676
,visa,,,SPARKS,NV,,US,,,,,
,visa,,,SPARKS,NV,,US,,,,,
,visa,,,SPARKS,NV,,US,,,,,
,visa,,,SPARKS,NV,,US,,,,,
,visa,,,SPARKS,NV,,US,,,,,
,visa,,,SPARKS,NV,,US,,,,,
,visa,,,SPARKS,NV,,US,,,,,
,visa,,,SPARKS,NV,,US,,,,,
,visa,,,SPARKS,NV,,US,,,,,
,visa,,,SPARKS,NV,,US,,,,,
,visa,,,SPARKS,NV,,US,,,,,
,visa,,,SPARKS,NV,,US,,,,,
,visa,,,SPARKS,NV,,US,,,,,
,visa,,,SPARKS,NV,,US,,,,,
,visa,,,SPARKS,NV,,US,,,,,
,visa,,,SPARKS,NV,,US,,,,,
,visa,,,SPARKS,NV,,US,,,,,
,visa,,,SPARKS,NV,,US,,,,,
,visa,,,SPARKS,NV,,US,,,,,
,visa,,,SPARKS,NV,,US,,,,,
,visa,,,SPARKS,NV,,US,,,,,
,visa,,,SPARKS,NV,,US,,,,,
,visa,,,SPARKS,NV,,US,,,,,
,visa,,,SPARKS,NV,,US,,,,,
,visa,,,SPARKS,NV,,US,,,,,
,visa,,,SPARKS,NV,,US,,,,,
,visa,,,SPARKS,NV,,US,,,,,
,visa,,,SPARKS,NV,,US,,,,,
,visa,,,SPARKS,NV,,US,,,,,
,visa,,,SPARKS,NV,,US,,,,,
,visa,,,SPARKS,NV,,US,,,,,
,visa,,,SPARKS,NV,,US,,,,,
,visa,,,SPARKS,NV,,US,,,,,
,visa,,,SPARKS,NV,,US,,,,,
,visa,,,SPARKS,NV,,US,,,,,
,visa,,,SPARKS,NV,,US,,,,,
,visa,,,SPARKS,NV,,US,,,,,
,visa,,,SPARKS,NV,,US,,,,,
,visa,,,SPARKS,NV,,US,,,,,
,visa,,,SPARKS,NV,,US,,,,,
,visa,,,SPARKS,NV,,US,,,,,
,visa,,,SPARKS,NV,,US,,,,,
,visa,,,SPARKS,NV,,US,,,,,
,visa,,,SPARKS,NV,,US,,,,,
,visa,,,SPARKS,NV,,US,,,,,
,visa,,,SPARKS,NV,,US,,,,,
,visa,,,SPARKS,NV,,US,,,,,
,visa,,,SPARKS,NV,,US,,,,,
,visa,,,SPARKS,NV,,US,,,,,
,visa,,,SPARKS,NV,,US,,,,,
,visa,,,SPARKS,NV,,US,,,,,
,visa,,,SPARKS,NV,,US,,,,,
,visa,,,SPARKS,NV,,US,,,,,
,visa,,,SPARKS,NV,,US,,,,,
,visa,,,SPARKS,NV,,US,,,,,
,visa,,,SPARKS,NV,,US,,,,,
,visa,,,SUN VALLEY,NV,,US,,,,,
,visa,,,SUN VALLEY,NV,,US,,,,,
,visa,,,SPARKS,NV,,US,,,,,
,visa,,,SPARKS,NV,,US,,,,,
,visa,,,SPARKS,NV,,US,,,,,
,visa,,,SPARKS,NV,,US,,,,,
,visa,,,SPARKS,NV,,US,,,,,
,visa,,,SPARKS,NV,,US,,,,,
,visa,,,SPARKS,NV,,US,,,,,
,visa,,,SPARKS,NV,,US,,,,,
,visa,,,SPARKS,NV,,US,,,,,
,visa,,,SPARKS,NV,,US,,,,,
,visa,,,SPARKS,NV,,US,,,,,
,visa,,,SPARKS,NV,,US,,,,,
,visa,,,SPARKS,NV,,US,,,,,
,visa,,,SPARKS,NV,,US,,,,,
,visa,,,SPARKS,NV,,US,,,,,
,visa,,,SPARKS,NV,,US,,,,,
,visa,,,SPARKS,NV,,US,,,,,
,visa,,,SPARKS,NV,,US,,,,,
,visa,,,SPARKS,NV,,US,,,,,
,visa,,,SPARKS,NV,,US,,,,,
,visa,,,SPARKS,NV,,US,,,,,
,visa,,,SPARKS,NV,,US,,,,,
,visa,,,SPARKS,NV,,US,,,,,
,visa,,,SPARKS,NV,,US,,,,,
,visa,,,SPARKS,NV,,US,,,,,
,visa,,,SPARKS,NV,,US,,,,,
,visa,,,SPARKS,NV,,US,,,,,
,visa,,,SPARKS,NV,,US,,,,,
,visa,,,SPARKS,NV,,US,,,,,
,visa,,,SPARKS,NV,,US,,,,,
,visa,,,SPARKS,NV,,US,,,,,
,visa,,,SPARKS,NV,,US,,,,,
,visa,,,SPARKS,NV,,US,,,,,
,visa,,,SPARKS,NV,,US,,,,,
,visa,,,SPARKS,NV,,US,,,,,
,visa,,,SPARKS,NV,,US,,,,,
,visa,,,SPARKS,NV,,US,,,,,
,visa,,,SPARKS,NV,,US,,,,,
,visa,,,SPARKS,NV,,US,,,,,
,visa,,,SPARKS,NV,,US,,,,,
,visa,,,SPARKS,NV,,US,,,,,
,visa,,,SPARKS,NV,,US,,,,,
,visa,,,SPARKS,NV,,US,,,,,
,visa,,,SPARKS,NV,,US,,,,,
,visa,,,SPARKS,NV,,US,,,,,
,visa,,,SPARKS,NV,,US,,,,,
,visa,,,SPARKS,NV,,US,,,,,
,visa,,,SPARKS,NV,,US,,,,,
,visa,,,SPARKS,NV,,US,,,,,
,visa,,,SPARKS,NV,,US,,,,,
,visa,,,SPARKS,NV,,US,,,,,
,visa,,,SPARKS,NV,,US,,,,,
,visa,,,SPARKS,NV,,US,,,,,
,visa,,,SPARKS,NV,,US,,,,,
,visa,,,SPARKS,NV,,US,,,,,
,visa,,,SPARKS,NV,,US,,,,,
,visa,,,SPARKS,NV,,US,,,,,
,visa,,,SPARKS,NV,,US,,,,,
,visa,,,SPARKS,NV,,US,,,,,
,visa,,,SPARKS,NV,,US,,,,,
,visa,,,SPARKS,NV,,US,,,,,
,visa,,,SPARKS,NV,,US,,,,,
,visa,,,SPARKS,NV,,US,,,,,
,visa,,,SPARKS,NV,,US,,,,,
,visa,,,SPARKS,NV,,US,,,,,
,visa,,,SPARKS,NV,,US,,,,,
,visa,,,SPARKS,NV,,US,,,,,
,visa,,,SPARKS,NV,,US,,,,,
,visa,,,SPARKS,NV,,US,,,,,
,visa,,,SPARKS,NV,,US,,,,,
,visa,,,SPARKS,NV,,US,,,,,
,visa,,,SPARKS,NV,,US,,,,,
,visa,,,SPARKS,NV,,US,,,,,
,visa,,,SPARKS,NV,,US,,,,,
,visa,,,MINDEN,NV,,US,,,,,
https://www.walgreens.com/locator/walgreens-2299+oddie+blvd-sparks-nv-89431/id=11227,walgreens,Walgreens,,Sparks,NV,,US,+1 775-358-4721,https://www.walgreens.com/locator/walgreens-2299+oddie+blvd-sparks-nv-89431/id=11227,Mo-Su 08:00-22:00,Walgreens,Q1591889
400__N__MCCARRAN__BLVD_SPARKS_NV_89431,wellsfargo,Wells Fargo,400 N MCCARRAN BLVD,SPARKS,NV,,US,+1 775-352-5160,https://www.wellsfargo.com/locator/bank/400__N__MCCARRAN__BLVD_SPARKS_NV_89431/,Mo-Fr 09:00-17:00,Wells Fargo,Q744149
2221__PYRAMID__WAY_SPARKS_NV_89431,wellsfargo,,2221 PYRAMID WAY,SPARKS,NV,,US,+1 800-869-3557,https://www.wellsfargo.com/locator/bank/2221__PYRAMID__WAY_SPARKS_NV_89431/,,Wells Fargo,Q744149
2105__ODDIE__BLVD_SPARKS_NV_89431,wellsfargo,Wells Fargo,2105 ODDIE BLVD,SPARKS,NV,,US,+1 775-353-7733,https://www.wellsfargo.com/locator/bank/2105__ODDIE__BLVD_SPARKS_NV_89431/,Mo-Fr 09:00-17:00,Wells Fargo,Q744149
https://locations.wendys.com/#9255718,wendys,"Wendy's Mccarran in Sparks, NV",,Sparks,NV,,US,+1 775-359-9549,https://locations.wendys.com/united-states/nv/sparks/440-n-mccarran-blvd,"Mo-Su 06:00-10:30,06:00-22:00",Wendy's,Q550258
a73a73d87fc94dfda1378d906b1e7b6c,western_union,CARNICERIA SAMBER,,Sparks,NV,,US,+1 775-358-3232,https://location.westernunion.com/us/nv/sparks/a73a73d87fc94dfda1378d906b1e7b6c,Mo-Su 09:00-18:00,Western Union,Q861042
b00da3ab683b64d5e60e69d851d29566,western_union,7-ELEVEN #20272,,Sparks,NV,,US,+1 775-358-0711,https://location.westernunion.com/us/nv/sparks/b00da3ab683b64d5e60e69d851d29566,,Western Union,Q861042
82598b846bc5ff44f6d267acf8bbdc01,western_union,TORO DE ORO MARKET,,Sparks,NV,,US,+1 775-622-3919,https://location.westernunion.com/us/nv/sparks/82598b846bc5ff44f6d267acf8bbdc01,Mo-Su 08:00-21:00,Western Union,Q861042
af10ce67133c1d7b211f1713fd0ee28a,western_union,TORO DE ORO MARKET,,Sparks,NV,,US,+1 775-622-3919,https://location.westernunion.com/us/nv/sparks/af10ce67133c1d7b211f1713fd0ee28a,Mo-Su 08:00-21:00,Western Union,Q861042
9494782bd828a66437b942df9ed6ce40,western_union,TRES AMIGOS CARNICERIA,,Sparks,NV,,US,+1 775-284-2275,https://location.westernunion.com/us/nv/sparks/9494782bd828a66437b942df9ed6ce40,Mo-Su 08:00-21:00,Western Union,Q861042
372f838ccae275624e952af8ac11e1e5,western_union,TRES AMIGOS CARNICERIA,,Sparks,NV,,US,+1 775-284-2275,https://location.westernunion.com/us/nv/sparks/372f838ccae275624e952af8ac11e1e5,Mo-Su 08:00-21:00,Western Union,Q861042
d4d906704dd1b47a1697fb44a97f3693,western_union,7-ELEVEN #32339,,Sparks,NV,,US,+1 775-358-7711,https://location.westernunion.com/us/nv/sparks/d4d906704dd1b47a1697fb44a97f3693,,Western Union,Q861042
a7542047071f7949244a549d1ba58166,western_union,PETRO #338 SPARKS,,Sparks,NV,,US,+1 775-355-8888,https://location.westernunion.com/us/nv/sparks/a7542047071f7949244a549d1ba58166,Mo-Su 07:00-23:00,Western Union,Q861042
65d192f3c3a4b99939e91ca4cd94c6ab,western_union,7-ELEVEN #14079,,Sparks,NV,,US,+1 775-358-7311,https://location.westernunion.com/us/nv/sparks/65d192f3c3a4b99939e91ca4cd94c6ab,,Western Union,Q861042
689dbe2c43e86d2eacc4d10c71074909,western_union,ADVANCE AMERICA #04484,,Sparks,NV,,US,+1 775-331-7201,https://location.westernunion.com/us/nv/sparks/689dbe2c43e86d2eacc4d10c71074909,Mo-Fr 10:00-18:00; Sa 10:30-14:30,Western Union,Q861042
8b557e195aeb6aefd16a1d6fb13e7fe9,western_union,MORELOS WIRELESS,,Sparks,NV,,US,+1 775-356-5556,https://location.westernunion.com/us/nv/sparks/8b557e195aeb6aefd16a1d6fb13e7fe9,Mo-Sa 10:00-20:00; Su 10:00-16:00,Western Union,Q861042
