Ref,Spider,Name,Address,City,State,Zipcode,Country,Phone,Website,Hours,Brand,WikiData
https://stores.advanceautoparts.com/ny/east-greenbush/563-columbia-tpke,advance_auto_parts_us,Advance Auto Parts,,East Greenbush,NY,,US,+1 518-477-2765,https://stores.advanceautoparts.com/ny/east-greenbush/563-columbia-tpke,Mo-Sa 07:30-21:00; Su 09:00-20:00,Advance Auto Parts,Q4686051
5063,autozone_us,AutoZone Auto Parts East Greenbush,,East Greenbush,NY,,US,+1 518-477-2761,https://www.autozone.com/locations/ny/east-greenbush/598-columbia-tpke.html,Mo-Fr 08:00-20:00; Sa 08:00-21:00; Su 08:30-19:00,AutoZone,Q4826087
92169,citi,ATM Walgreens,,East Greenbush,NY,,US,,,,Citibank,Q857063
51944,citi,ATM CVS,,East Greenbush,NY,,US,,,,Citibank,Q857063
880026,citizens_us,Citizens East Greenbush,,East Greenbush,NY,,US,+1 518-477-2774,,Mo-Th 09:00-16:00; Fr 09:00-17:00; Sa 09:00-12:00,Citizens,Q5122694
ATM-1142,citizens_us,,,East Greenbush,NY,,US,,,24/7,Citizens,Q5122694
,credit_union_us,SEFCU  a division of Broadview,,East Greenbush,NY,,US,+1 518-477-2812,,Mo-Fr 08:30-05:00; Sa 09:00-01:00,,
5031,cvs_us,CVS Pharmacy,,East Greenbush,NY,,US,+1 518-477-8526,https://www.cvs.com/store-locator/east-greenbush-ny-pharmacies/598-columbia-turnpike-east-greenbush-ny-12061/storeid=5031,Mo-Fr 08:00-21:00; Sa-Su 09:00-19:00,CVS Pharmacy,Q2078880
247153,dennys,Denny's,,East Greenbush,NY,,US,+1 518-477-8441,https://locations.dennys.com/NY/EAST-GREENBUSH/247153,24/7,Denny's,Q1189695
340554,dunkin_us,Dunkin',,East Greenbush,NY,,US,+1 518-477-4087,https://locations.dunkindonuts.com/en/ny/east-greenbush/97-troy-rd/340554,Mo-Su 04:30-20:00,Dunkin',Q847743
349691,dunkin_us,Dunkin',,East Greenbush,NY,,US,+1 518-477-9691,https://locations.dunkindonuts.com/en/ny/east-greenbush/557-columbia-tpke/349691,Mo-Su 04:00-19:30,Dunkin',Q847743
E124IH,enterprise,East Greenbush,,E.greenbush,NY,,US,+1 518-479-0606,,,Enterprise Rent-A-Car,Q17085454
200311525,exxonmobil,EAST GREENBUSH MOBIL,,EAST GREENBUSH,NY,,US,+1 518-477-2179,https://www.exxon.com/en/find-station/mobil-eastgreenbush-ny-eastgreenbushmobil-200311525,Mo-Th 05:00-00:30; Fr-Sa 00:00-24:00; Su 05:00-00:30,Mobil,Q109676002
https://www.ford.com/dealerships/dealer-details/ny/east-greenbush/wally%27s-ford-of-east-greenbush/,ford_dealers_us,Wally's Ford of East Greenbush,,East Greenbush,NY,,US,+1 518-310-7401,https://www.ford.com/dealerships/dealer-details/ny/east-greenbush/wally's-ford-of-east-greenbush/,Mo-Fr 09:00-19:00; Sa 09:00-17:00,Ford Motor Company,Q44294
https://stores.hannaford.com/#8905482,hannaford,Hannaford - East Greenbush 592 Columbia Turnpike - East Greenbush,,Rensselaer County,NY,,US,+1 518-477-6483,https://stores.hannaford.com/ny/east-greenbush/8361,Mo-Su 06:00-23:00,Hannaford,Q5648760
albeghx-hampton-suites-albany-east-greenbush,hilton,Hampton Inn & Suites Albany-East Greenbush,,,NY,,US,+1 518-477-9700,https://www.hilton.com/ar/hotels/albeghx-hampton-suites-albany-east-greenbush/,,Hampton by Hilton,Q5646230
ALBEG,marriott,Fairfield Inn & Suites Albany East Greenbush,,East Greenbush,NY,,US,+1 518-477-7984,https://www.marriott.com/ALBEG,,Fairfield by Marriott,Q5430314
ALBRI,marriott,Residence Inn Albany East Greenbush/Tech Valley,,East Greenbush,NY,,US,+1 518-720-3600,https://www.marriott.com/ALBRI,,Residence Inn by Marriott,Q7315394
305,mightyflame,STEWARTS SHOPS #352,,E. GREENBUSH,NY,,US,+1 518-477-6431,,,Mighty Flame,
1902,rentacenter,Rent-A-Center,,East Greenbush,NY,,US,+1 518-479-2400,https://locations.rentacenter.com/new-york/east-greenbush/596-columbia-turnpike/,Mo-Sa 10:00-18:00,Rent-A-Center,Q7313497
352,stewartsshops,Stewart's Shops,,East Greenbush,NY,,US,+1 518-477-6431,https://locations.stewartsshops.com/ll/US/NY/East-Greenbush/95-Troy-Road,Mo-Su 04:30-00:00,Stewart's Shops,Q7615690
https://restaurants.subway.com/#14904809,subway,Subway,,East Greenbush Rensselaer,NY,,US,+1 518-477-5895,https://restaurants.subway.com/united-states/ny/east-greenbush/600-columbia-turnpike,Mo-Th 08:00-21:00; Fr-Sa 08:00-22:00; Su 09:00-21:00,Subway,Q244457
0267864700,sunoco_us,Sunoco,,EAST GREENBUSH,NY,,US,+1 518-477-9129,,Mo-Su 06:00-00:00,Sunoco,Q1423218
1361731,usps,EAST GREENBUSH,,EAST GREENBUSH,NY,,US,+1 518-477-5212,,Mo-Fr 08:30-17:00; Sa 08:00-12:00,United States Postal Service,Q668687
1206100007,usps_collection_boxes,USPS COLLECTION BOX - BLUE BOX,596 COLUMBIA TPKE,EAST GREENBUSH,NY,,US,,,,United States Postal Service,Q668687
1206100005,usps_collection_boxes,USPS COLLECTION BOX - BLUE BOX,10 GREENWOOD DR,EAST GREENBUSH,NY,,US,,,,United States Postal Service,Q668687
1206100009,usps_collection_boxes,USPS COLLECTION BOX - PO LOBBY,10 GREENWOOD DR,EAST GREENBUSH,NY,,US,,,,United States Postal Service,Q668687
1206100010,usps_collection_boxes,USPS COLLECTION BOX - PO LOBBY,10 GREENWOOD DR,EAST GREENBUSH,NY,,US,,,,United States Postal Service,Q668687
1206100004,usps_collection_boxes,USPS COLLECTION BOX - BLUE BOX,10 GREENWOOD DR,EAST GREENBUSH,NY,,US,,,,United States Postal Service,Q668687
1206100014,usps_collection_boxes,USPS COLLECTION BOX - PO LOBBY,10 GREENWOOD DR,EAST GREENBUSH,NY,,US,,,,United States Postal Service,Q668687
1206100011,usps_collection_boxes,USPS COLLECTION BOX - BLUE BOX,1 FORREST POINTE DR,EAST GREENBUSH,NY,,US,,,,United States Postal Service,Q668687
eastgreenbush_oil-change-ae6218,valvoline_instant_oil_change,Valvoline,618 Columbia Turnpike ,East Greenbush,NY,,US,+1 518-477-4805,https://store.vioc.com/ny/eastgreenbush/oil-change-ae6218.html,,Valvoline Instant Oil Change,Q7912852
,visa,,,POUGHKEEPSIE,NY,,US,,,,,
,visa,,,E GREEN BUSH,NY,,US,,,,,
,visa,,,EAST GREENBUSH,NY,,US,,,,,
,visa,,,EAST GREENBUSH,NY,,US,,,,,
,visa,,,GREENBUSH,NY,,US,,,,,
,visa,,,POUGHKEEPSIE,NY,,US,,,,,
,visa,,,EAST GREENBUSH,NY,,US,,,,,
,visa,,,EAST GREENBUSH,NY,,US,,,,,
,visa,,,EAST GREENBUSH,NY,,US,,,,,
,visa,,,EAST GREENBUSH,NY,,US,,,,,
,visa,,,EAST GREENBUSH,NY,,US,,,,,
,visa,,,EAST GREENBUSH,NY,,US,,,,,
,visa,,,EAST GREENBUSH,NY,,US,,,,,
,visa,,,EAST GREENBUSG,NY,,US,,,,,
,visa,,,EAST GREENBUSG,NY,,US,,,,,
,visa,,,E GREENBUSH,NY,,US,,,,,
,visa,,,E. GREENBUSH,NY,,US,,,,,
,visa,,,EAST GREENBUSH,NY,,US,,,,,
,visa,,,E GREENBUSH,NY,,US,,,,,
,visa,,,EAST GREENBUSH,NY,,US,,,,,
,visa,,,EAST GREENBUSH,NY,,US,,,,,
,visa,,,EAST GREENBUSH,NY,,US,,,,,
,visa,,,E GREENBUSH,NY,,US,,,,,
,visa,,,E GREENBUSH,NY,,US,,,,,
,visa,,,E GREENBUSH,NY,,US,,,,,
,visa,,,EAST GREENBUSH,NY,,US,,,,,
,visa,,,LOUDNVILLE,NY,,US,,,,,
1024,visionworks,Empire Visionworks,,East Greenbush,NY,,US,+1 518-477-8700,https://locations.visionworks.com/ll/US/NY/East-Greenbush/622-Columbia-Turnpike,Mo-Fr 09:00-19:00; Sa 09:00-18:00,Visionworks,Q5422607
https://www.walgreens.com/locator/walgreens-614+columbia+tpke-east+greenbush-ny-12061/id=17434,walgreens,Walgreens,,East Greenbush,NY,,US,+1 518-479-4230,https://www.walgreens.com/locator/walgreens-614+columbia+tpke-east+greenbush-ny-12061/id=17434,Mo-Sa 09:00-21:00; Su 09:00-17:00,Walgreens,Q1591889
https://locations.wendys.com/#9252094,wendys,"Wendy's E Greenbush, Ny in East Greenbush, NY",,East Greenbush,NY,,US,+1 518-477-7639,https://locations.wendys.com/united-states/ny/east-greenbush/612-columbia-turnpike,"Mo-Su 06:30-10:30,07:00-22:00",Wendy's,Q550258
c40feb3ee88b7d9969ba912a83400610,western_union,WALGREENS #17434,,East Greenbush,NY,,US,+1 518-479-4230,https://location.westernunion.com/us/ny/east-greenbush/c40feb3ee88b7d9969ba912a83400610,Mo-Fr 08:00-21:00; Sa 08:00-20:00; Su 08:00-19:00,Western Union,Q861042
