Ref,Spider,Name,Address,City,State,Zipcode,Country,Phone,Website,Hours,Brand,WikiData
https://www.ameripriseadvisors.com/jason.lambert/contact/,ameriprise_us,Jason Townsend Lambert,,Vancouver,WA,,US,+1 360-828-1469,https://www.ameripriseadvisors.com/jason.lambert/,Mo-Fr 08:00-05:00,Ameriprise Financial,Q2843129
https://www.ameripriseadvisors.com/jeffrey.p.bloomquist/contact/,ameriprise_us,Jeff Bloomquist,,Vancouver,WA,,US,+1 360-713-5487,https://www.ameripriseadvisors.com/jeffrey.p.bloomquist/,Mo-Fr 08:00-05:00,Ameriprise Financial,Q2843129
https://www.ameripriseadvisors.com/team/precept-wealth-solutions/contact/,ameriprise_us,Precept Wealth Solutions,,Vancouver,WA,,US,+1 360-713-5509,https://www.ameripriseadvisors.com/team/precept-wealth-solutions/,Mo-Fr 08:00-05:00,Ameriprise Financial,Q2843129
https://www.ameripriseadvisors.com/team/westbrook-bloomquist-associates/contact/,ameriprise_us,"Westbrook, Bloomquist & Associates",,Vancouver,WA,,US,+1 360-882-7488,https://www.ameripriseadvisors.com/team/westbrook-bloomquist-associates/,Mo-Fr 08:00-05:00,Ameriprise Financial,Q2843129
https://www.ameripriseadvisors.com/todd.swan/contact/,ameriprise_us,Todd Swan,,Vancouver,WA,,US,+1 360-882-7488,https://www.ameripriseadvisors.com/todd.swan/,Mo-Fr 08:00-05:00,Ameriprise Financial,Q2843129
https://www.ameripriseadvisors.com/team/full-stride-wealth-advisors/contact/,ameriprise_us,Ameriprise Financial,,Vancouver,WA,,US,+1 360-882-7488,https://www.ameripriseadvisors.com/team/full-stride-wealth-advisors/,Mo-Fr 08:00-05:00,Ameriprise Financial,Q2843129
https://www.ameripriseadvisors.com/team/northwest-financial-solutions/contact/,ameriprise_us,Ameriprise Financial,,Vancouver,WA,,US,+1 360-828-1469,https://www.ameripriseadvisors.com/team/northwest-financial-solutions/,Mo-Fr 08:00-05:00,Ameriprise Financial,Q2843129
https://www.ameripriseadvisors.com/rebecca.rooks/contact/,ameriprise_us,Rebecca Rooks,,Vancouver,WA,,US,+1 503-205-4573,https://www.ameripriseadvisors.com/rebecca.rooks/,Mo-Fr 08:00-04:00,Ameriprise Financial,Q2843129
https://www.ameripriseadvisors.com/robert.m.katsuno/contact/,ameriprise_us,Robert Katsuno,,Vancouver,WA,,US,+1 360-713-5485,https://www.ameripriseadvisors.com/robert.m.katsuno/,Mo-Fr 08:00-05:00,Ameriprise Financial,Q2843129
https://www.ameripriseadvisors.com/ryan.x.piwowarski/contact/,ameriprise_us,Ryan Piwowarski,,Vancouver,WA,,US,+1 360-713-5503,https://www.ameripriseadvisors.com/ryan.x.piwowarski/,Mo-Fr 08:00-05:00,Ameriprise Financial,Q2843129
https://www.ameripriseadvisors.com/shane.b.weisman/contact/,ameriprise_us,Shane Weisman,,Vancouver,WA,,US,+1 360-713-5494,https://www.ameripriseadvisors.com/shane.b.weisman/,Mo-Fr 08:00-05:00,Ameriprise Financial,Q2843129
https://www.ameripriseadvisors.com/skye.t.dahl/contact/,ameriprise_us,Skye Thomas Dahl,,Vancouver,WA,,US,+1 360-713-5509,https://www.ameripriseadvisors.com/skye.t.dahl/,Mo-Fr 08:00-05:00,Ameriprise Financial,Q2843129
https://www.ameripriseadvisors.com/megan.l.westbrook/contact/,ameriprise_us,Megan Westbrook,,Vancouver,WA,,US,+1 360-713-5481,https://www.ameripriseadvisors.com/megan.l.westbrook/,Mo-Fr 08:00-05:00,Ameriprise Financial,Q2843129
https://www.ameripriseadvisors.com/otto.m.guardado/contact/,ameriprise_us,Otto Guardado,,Vancouver,WA,,US,+1 360-713-5484,https://www.ameripriseadvisors.com/otto.m.guardado/,Mo-Fr 08:00-05:00,Ameriprise Financial,Q2843129
https://www.ameripriseadvisors.com/katiejo.swasey/contact/,ameriprise_us,Katie Jo Swasey,,Vancouver,WA,,US,+1 360-713-5522,https://www.ameripriseadvisors.com/katiejo.swasey/,Mo-Fr 08:00-05:00,Ameriprise Financial,Q2843129
https://www.ameripriseadvisors.com/kirk.h.tambara/contact/,ameriprise_us,Kirk Tambara,,Vancouver,WA,,US,+1 360-713-5493,https://www.ameripriseadvisors.com/kirk.h.tambara/,Mo-Fr 08:00-05:00,Ameriprise Financial,Q2843129
https://www.ameripriseadvisors.com/dan.adams/contact/,ameriprise_us,Daniel J Adams,,Vancouver,WA,,US,+1 360-713-5492,https://www.ameripriseadvisors.com/dan.adams/,Mo-Fr 08:00-05:00,Ameriprise Financial,Q2843129
https://www.ameripriseadvisors.com/debbie.2.nelson/contact/,ameriprise_us,Debbie Rainey,,Vancouver,WA,,US,+1 360-713-5474,https://www.ameripriseadvisors.com/debbie.2.nelson/,Mo-Fr 08:00-05:00,Ameriprise Financial,Q2843129
https://www.ameripriseadvisors.com/david.welch/contact/,ameriprise_us,David Welch,,Vancouver,WA,,US,+1 360-882-7488,https://www.ameripriseadvisors.com/david.welch/,Mo-Fr 08:00-05:00,Ameriprise Financial,Q2843129
https://www.ameripriseadvisors.com/david.topper/contact/,ameriprise_us,David Robert Topper,,Vancouver,WA,,US,+1 360-713-5520,https://www.ameripriseadvisors.com/david.topper/,Mo-Fr 08:00-05:00,Ameriprise Financial,Q2843129
https://www.ameripriseadvisors.com/dustin.martin/contact/,ameriprise_us,Dustin Guy Martin,,Vancouver,WA,,US,+1 360-713-5521,https://www.ameripriseadvisors.com/dustin.martin/,Mo-Fr 08:00-05:00,Ameriprise Financial,Q2843129
https://www.ameripriseadvisors.com/eleanor.lucero/contact/,ameriprise_us,Eleanor Lucero,,Vancouver,WA,,US,+1 360-868-8552,https://www.ameripriseadvisors.com/eleanor.lucero/,Mo-Fr 08:00-05:00,Ameriprise Financial,Q2843129
https://www.ameripriseadvisors.com/eric.a.greif/contact/,ameriprise_us,Eric Greif,,Vancouver,WA,,US,+1 360-713-5510,https://www.ameripriseadvisors.com/eric.a.greif/,Mo-Fr 09:00-06:00,Ameriprise Financial,Q2843129
https://www.ameripriseadvisors.com/amanda.r.becker/contact/,ameriprise_us,Amanda Rose Becker,,Vancouver,WA,,US,+1 360-713-5495,https://www.ameripriseadvisors.com/amanda.r.becker/,Mo-Fr 08:00-05:00,Ameriprise Financial,Q2843129
https://www.ameripriseadvisors.com/andrew.jae.lee/contact/,ameriprise_us,Andrew Lee,,Vancouver,WA,,US,+1 971-366-3133,https://www.ameripriseadvisors.com/andrew.jae.lee/,Mo-Fr 08:00-05:00,Ameriprise Financial,Q2843129
https://www.ameripriseadvisors.com/briana.blocker/contact/,ameriprise_us,Briana Blocker,,Vancouver,WA,,US,+1 360-713-5530,https://www.ameripriseadvisors.com/briana.blocker/,Mo-Fr 09:00-05:00,Ameriprise Financial,Q2843129
