Ref,Spider,Name,Address,City,State,Zipcode,Country,Phone,Website,Hours,Brand,WikiData
7239,aaa,Mahmoud Ijbara Insurance Agy LLC,,Dearborn,MI,,US,+1 313-543-2234,,,American Automobile Association,Q463436
https://stores.advanceautoparts.com/mi/dearborn/3845-s-telegraph-rd,advance_auto_parts_us,Advance Auto Parts,,Dearborn,MI,,US,+1 313-274-6549,https://stores.advanceautoparts.com/mi/dearborn/3845-s-telegraph-rd,Mo-Sa 07:30-21:00; Su 09:00-20:00,Advance Auto Parts,Q4686051
81364,att_us,DEARBORN STORE,,Dearborn,MI,,US,+1 313-277-4111,https://www.att.com/stores/michigan/dearborn/81364,Mo-Sa 10:00-19:00; Su 11:00-18:00,AT&T,Q298594
https://www.barlouie.com/locations/us/mi/dearborn/dearborn,barlouie,Dearborn,,Dearborn,MI,,US,+1 313-394-1000,https://www.barlouie.com/locations/us/mi/dearborn/dearborn,Mo-Th 11:00-24:00; Fr-Sa 11:00-02:00; Su 11:00-24:00,Barlouie,Q16935493
https://locations.baskinrobbins.com/mi/dearborn/24235-michigan-ave-340300-br,baskin_robbins_us,Baskin-Robbinsâ„¢,,Dearborn,MI,,US,+1 313-400-2287,https://locations.baskinrobbins.com/mi/dearborn/24235-michigan-ave-340300-br,Mo-Su 05:00-24:00,Baskin-Robbins,Q584601
535,biggby_coffee_us,Biggby Coffee,22445 Michigan Ave Dearborn MI 48124,Dearborn,MI,,US,+1 313-228-5342,,Mo-Sa 05:30-22:00; Su 07:00-21:00,Biggby Coffee,Q4906876
185837,bluerhino,Kroger #697- Fuel Site,,Dearborn,MI,,US,+1 313-562-1762,,,Blue Rhino,Q65681213
54567,bluerhino,Kroger #697,,Dearborn,MI,,US,+1 313-562-1762,,,Blue Rhino,Q65681213
189875,bluerhino,Great Lakes Ace #18299,,Dearborn,MI,,US,+1 313-274-2121,,,Blue Rhino,Q65681213
94421,bluerhino,Speedway #2311,,Dearborn,MI,,US,+1 313-278-4302,,,Blue Rhino,Q65681213
46910,bobevans_us,Dearborn,,Dearborn,MI,,US,+1 313-274-6062,https://www.bobevans.com/locations/dearborn,Mo-Su 07:00-21:00,Bob Evans,Q4932386
25561105657314812400100000000000,bp,BP,,Dearborn,MI,,US,+1 313-562-8777,,Mo-Th 05:00-24:00; Fr-Sa 00:00-24:00; Su 05:00-24:00,BP,Q152057
40337523067404812400100000000000,bp,Amoco,,Dearborn,MI,,US,+1 313-406-4990,,24/7,BP,Q152057
128033,bp,BP,,Dearborn,MI,,US,+1 313-277-4553,,,BP,Q152057
20070,cadillac,LES STANFORD CADILLAC,,Dearborn,MI,,US,+1 313-565-6000,https://www.lesstanfordcadillac.com,Mo 09:00-20:00; Tu-We 09:00-18:00; Th 09:00-20:00; Fr 09:00-18:00,Cadillac,Q27436
2039301,chase_us,Monroe Beech - New branch,,Dearborn,MI,,US,+1 313-271-7861,https://locator.chase.com/mi/dearborn/1324-monroe-st,Mo-Fr 09:00-17:00; Sa 09:00-14:00,Chase,Q524629
44447,chevrolet,LES STANFORD CHEVROLET CADILLAC INC.,,Dearborn,MI,,US,+1 313-565-6000,https://www.lesstanfordchevrolet.com,Mo 09:00-20:00; Tu-We 09:00-18:00; Th 09:00-20:00; Fr 09:00-18:00,Chevrolet,Q29570
https://locations.chuckecheese.com/us/mi/dearborn/24399-michigan,chuckecheese,Chuck E. Cheese,,Dearborn,MI,,US,+1 313-274-5310,https://locations.chuckecheese.com/us/mi/dearborn/24399-michigan,Mo-Th 11:00-21:00; Fr 11:00-22:00; Sa 10:00-22:00; Su 11:00-21:00,Chuck E. Cheese,Q2438391
54735,citi,ATM FALLS SPORTS BAR,,Dearborn,MI,,US,,,,Citibank,Q857063
49171,citi,ATM CVS,,Dearborn,MI,,US,,,,Citibank,Q857063
77367,citi,ATM Speedway,,Dearborn,MI,,US,,,,Citibank,Q857063
79462,citi,ATM SPEEDWAY #2311,,Dearborn,MI,,US,,,,Citibank,Q857063
95157,citi,ATM WESTBORN PARTY STORE,,Dearborn,MI,,US,,,,Citibank,Q857063
29717,citi,ATM 7ELEVEN-FCTI,,Dearborn,MI,,US,,,,Citibank,Q857063
49729,citi,ATM CVS,,Dearborn,MI,,US,,,,Citibank,Q857063
28202,citi,ATM 7ELEVEN-FCTI,,Dearborn,MI,,US,,,,Citibank,Q857063
800811,citizens_us,Citizens Dearborn,,Dearborn,MI,,US,+1 313-274-1100,,Mo-Fr 09:00-16:00; Sa 09:00-12:00,Citizens,Q5122694
ATM-157,citizens_us,,,Dearborn,MI,,US,+1 313-274-1100,,24/7,Citizens,Q5122694
ATM-2507,citizens_us,,,Dearborn,MI,,US,,,,Citizens,Q5122694
ATM-2434,citizens_us,,,Dearborn,MI,,US,,,,Citizens,Q5122694
ATM-2488,citizens_us,,,Dearborn,MI,,US,,,,Citizens,Q5122694
8128,cvs_us,CVS Pharmacy,,Dearborn,MI,,US,+1 313-562-5003,https://www.cvs.com/store-locator/dearborn-mi-pharmacies/2701-s-telegraph-rd-dearborn-mi-48124/storeid=8128,Mo-Sa 09:00-22:00; Su 10:00-20:00,CVS Pharmacy,Q2078880
8152,cvs_us,CVS Pharmacy,,Dearborn,MI,,US,+1 313-274-7651,https://www.cvs.com/store-locator/dearborn-mi-pharmacies/22060-outer-drive-dearborn-mi-48124/storeid=8152,Mo-Su 08:00-23:00,CVS Pharmacy,Q2078880
vc_0401V,department_veterans_affairs,Dearborn Vet Center,,Dearborn,MI,,US,+1 313-277-1428,https://www.va.gov/dearborn-vet-center/,,Department Veterans Affairs,Q592576
1025,dominos_pizza_us,Domino's Pizza,,Dearborn,MI,,US,+1 313-637-1010,https://pizza.dominos.com/michigan/dearborn/23960-carlysle-st,Mo-Th 10:30-24:00; Fr-Sa 10:30-01:00; Su 10:30-24:00,Domino's,Q839466
340300,dunkin_us,Dunkin',,Dearborn,MI,,US,+1 313-400-2287,https://locations.dunkindonuts.com/en/mi/dearborn/24235-michigan-ave/340300,Mo-Su 05:00-24:00,Dunkin',Q847743
https://www.edwardjones.com/us-en/financial-advisor/charles-turfe,edwardjones,Charles Turfe,,Dearborn,MI,,US,+1 313-565-1899,https://www.edwardjones.com/us-en/financial-advisor/charles-turfe,,Edward Jones,Q5343830
E12021,enterprise,Dearborn Kean St.,,Dearborn,MI,,US,+1 313-277-1122,,,Enterprise Rent-A-Car,Q17085454
200320755,exxonmobil,WESTBORN FLEX MART,,DEARBORN,MI,,US,+1 313-277-2047,https://www.exxon.com/en/find-station/mobil-dearborn-mi-westbornflexmart-200320755,Mo-Sa 06:00-00:00; Su 07:00-23:00,Mobil,Q109676002
200314941,exxonmobil,CARLYSLE MOBIL,,DEARBORN,MI,,US,+1 313-563-9515,https://www.exxon.com/en/find-station/mobil-dearborn-mi-carlyslemobil-200314941,24/7,Mobil,Q109676002
https://locations.fivebelow.com/mi/dearborn/23115-michigan-avenue,five_below,Five Below Westborn Mall,,Dearborn,MI,,US,,https://locations.fivebelow.com/mi/dearborn/23115-michigan-avenue,,Five Below,Q5455836
Motorcraft4035USAEnglish,ford,Village Ford Inc,,Indiana,MI,,US,+1 313-565-3900,,,Ford,Q44294
Motorcraft4038USAEnglish,ford,"Jack Demmer Lincoln, Inc.",,Michigan,MI,,US,+1 313-274-8800,,,Ford,Q44294
https://www.ford.com/dealerships/dealer-details/mi/dearborn/village-ford-inc/,ford_dealers_us,Village Ford Inc,,Dearborn,MI,,US,+1 313-528-0905,https://www.ford.com/dealerships/dealer-details/mi/dearborn/village-ford-inc/,Mo 09:00-19:00; Tu-We 09:00-18:00; Th 09:00-19:00; Fr 09:00-18:00,Ford Motor Company,Q44294
09ac2f91-fa32-e211-bd7d-005056934050,goodwill,Dearborn Donated Goods,,Dearborn,MI,,US,+1 313-228-5927,https://www.goodwill.org/locator/location/?store=MDlhYzJmOTEtZmEzMi1lMjExLWJkN2QtMDA1MDU2OTM0MDUw&lat=NDIuMzA0MTI=&lng=LTgzLjI1MzA4,,Goodwill,Q5583655
https://salons.greatclips.com/us/mi/dearborn/23100-michigan-ave,greatclips,Great Clips,,Dearborn,MI,,US,+1 313-278-9400,https://salons.greatclips.com/us/mi/dearborn/23100-michigan-ave,Mo-Fr 10:00-18:00; Sa 09:00-18:00; Su 10:00-17:00,Great Clips,Q5598967
https://www.harborfreight.com/storelocator/22541-newman-st-dearborn-48124?number=588,harborfreight,"Harbor Freight Tools Dearborn, MI",,Dearborn,MI,,US,+1 313-277-3281,https://www.harborfreight.com/storelocator/22541-newman-st-dearborn-48124?number=588,Mo-Sa 08:00-20:00; Su 09:00-18:00,Harbor Freight Tools,Q5654601
17960,huntingtonbank,Dearborn Michigan Ave,,Dearborn,MI,,US,+1 313-274-1000,https://www.huntington.com/Community/branch-info?locationId=17960,Mo-Fr 09:00-17:00; Sa-Su 00:00-00:00,Huntington Bank,Q798819
20838,h_r_block,H&R Block,,Dearborn,MI,,US,+1 313-565-1511,https://www.hrblock.com/local-tax-offices/michigan/dearborn/23954-michigan-ave/20838/,,H&R Block,Q5627799
21732,h_r_block,H&R Block,,Dearborn,MI,,US,+1 313-359-1770,https://www.hrblock.com/local-tax-offices/michigan/dearborn/westborn-mall/21732/,,H&R Block,Q5627799
https://locations.jimmyjohns.com/mi/dearborn/sandwiches-866.html,jimmy_johns,Jimmy John's,,Dearborn,MI,,US,+1 313-274-4530,https://locations.jimmyjohns.com/mi/dearborn/sandwiches-866.html,,Jimmy John's,Q1689380
157493,marathon_petroleum_us,PELHAM SERVICE LLC,,DEARBORN,MI,,US,+1 313-381-9900,,,Marathon,Q458363
157684,marathon_petroleum_us,OAKWOOD GAS AND GO,,DEARBORN,MI,,US,+1 313-271-4159,,,Marathon,Q458363
NNA5756,nissan_europe,NISSAN OF DEARBORN,,DEARBORN,MI,,US,+1 313-749-3200,https://www.nissanofdearborn.com,Mo 09:00-20:00; Tu-We 09:00-18:00; Th 09:00-20:00; Fr 09:00-18:00; Sa 10:00-15:00,Nissan,Q20165
mi_dearborn_2941-s-telegraph-rd,pizza_hut_us,2941 S Telegraph Rd,,Dearborn,MI,,US,+1 313-562-0549,https://locations.pizzahut.com/mi/dearborn/2941-s-telegraph-rd,,Pizza Hut,Q191615
136722,potbelly_sandwich,Dearborn,,Dearborn,MI,,US,+1 313-274-1801,,Mo-Su 10:00-21:00,Potbelly Sandwich Shop,Q7234777
https://www.publicstorage.com/self-storage-mi-dearborn/2134.html,public_storage_us,Public Storage,,Dearborn,MI,,US,+1 313-451-7630,https://www.publicstorage.com/self-storage-mi-dearborn/2134.html,,Public Storage,Q1156045
04543,rite_aid_us,Rite Aid #04543 Dearborn,,Dearborn,MI,,US,+1 313-278-1515,https://locations2.riteaid.com.yext-cdn.com/mi/dearborn/22521-michigan-avenue.html,Mo-Su 08:00-22:00,Rite Aid,Q3433273
https://stores.saloncentric.com/#29173646,salon_centric_us,SalonCentric,,,MI,,US,+1 313-565-3925,https://stores.saloncentric.com/mi/dearborn/2526,Mo 08:00-18:00; Tu-Fr 08:30-17:30; Sa 08:30-16:00,SalonCentric,Q124339481
23131-michigan-ave,staples,"Staples Dearborn, MI",,Dearborn,MI,,US,,https://stores.staples.com/mi/dearborn/23131-michigan-ave,Mo-Fr 08:00-21:00; Sa 09:00-21:00; Su 10:00-18:00,Staples,Q785943
https://restaurants.subway.com/#14904800,subway,Subway,,Dearborn Wayne,MI,,US,+1 313-307-4175,https://restaurants.subway.com/united-states/mi/dearborn/22905-michigan-avenue,Mo-Fr 08:30-22:00; Sa 09:00-22:00; Su 10:00-21:00,Subway,Q244457
0795293000,sunoco_us,Sunoco,,DEARBORN,MI,,US,+1 313-561-7322,,,Sunoco,Q1423218
0944924000,sunoco_us,Sunoco,,DEARBORN,MI,,US,+1 313-277-9228,,24/7,Sunoco,Q1423218
https://locations.tacobell.com/#3916924,taco_bell,Taco Bell,,Dearborn,MI,,US,+1 313-563-9299,https://locations.tacobell.com/mi/dearborn/25120-michigan.html,Mo-Th 09:00-01:30; Fr-Sa 09:00-02:30; Su 09:00-01:30,Taco Bell,Q752941
10828,tjx,Dearborn,23001 Michigan Avenue,Dearborn,MI,,US,+1 313-563-6387,,Mo-Sa 09:30-21:30; Su 10:00-20:00,Marshalls,Q15903261
2SQR,tmobile_us,Michigan & Telegraph,,Dearborn,MI,,US,+1 313-724-3200,https://www.t-mobile.com/store-locator/mi/dearborn/michigan-telegraph,,T-Mobile,Q3511885
https://www.ubreakifix.com/locations/dearborn,ubreakifix,uBreakiFix Dearborn,,Dearborn,MI,,US,+1 313-650-3300,https://www.ubreakifix.com/locations/dearborn,Mo-Sa 10:00-19:00; Su 12:00-17:00,uBreakiFix,Q53685733
1363760,usps,FORT DEARBORN,,DEARBORN,MI,,US,+1 313-277-1324,,Mo-Fr 09:30-18:00; Sa 10:00-18:00,United States Postal Service,Q668687
1438542,usps,FT DEARBORN ANNEX,,DEARBORN,MI,,US,+1 313-274-6784,,,United States Postal Service,Q668687
4812400011,usps_collection_boxes,USPS COLLECTION BOX - BLUE BOX,3700 MONROE ST,DEARBORN,MI,,US,,,,United States Postal Service,Q668687
4812400032,usps_collection_boxes,USPS COLLECTION BOX - BLUE BOX,3300 HERITAGE PKWY,DEARBORN,MI,,US,,,,United States Postal Service,Q668687
4812400013,usps_collection_boxes,USPS COLLECTION BOX - BLUE BOX,20300 CARLYSLE ST,DEARBORN,MI,,US,,,,United States Postal Service,Q668687
4812400017,usps_collection_boxes,USPS COLLECTION BOX - BLUE BOX,2841 MONROE ST,DEARBORN,MI,,US,,,,United States Postal Service,Q668687
4812400018,usps_collection_boxes,USPS COLLECTION BOX - BLUE BOX,22491 OUTER DR,DEARBORN,MI,,US,,,,United States Postal Service,Q668687
4812400029,usps_collection_boxes,USPS COLLECTION BOX - BLUE BOX,1850 GRINDLEY PARK ST,DEARBORN,MI,,US,,,,United States Postal Service,Q668687
4812400066,usps_collection_boxes,USPS COLLECTION BOX - BLUE BOX,24308 MICHIGAN AVE,DEARBORN,MI,,US,,,,United States Postal Service,Q668687
4812400045,usps_collection_boxes,USPS COLLECTION BOX - BLUE BOX,2012 MONROE ST,DEARBORN,MI,,US,,,,United States Postal Service,Q668687
4812400001,usps_collection_boxes,USPS COLLECTION BOX - BLUE BOX,23169 MICHIGAN AVE,DEARBORN,MI,,US,,,,United States Postal Service,Q668687
4812400027,usps_collection_boxes,USPS COLLECTION BOX - BLUE BOX,19855 OUTER DR,DEARBORN,MI,,US,,,,United States Postal Service,Q668687
4812400063,usps_collection_boxes,USPS COLLECTION BOX - APC,23169 MICHIGAN AVE,DEARBORN,MI,,US,,,,United States Postal Service,Q668687
4812400071,usps_collection_boxes,USPS COLLECTION BOX - PO LOBBY,23169 MICHIGAN AVE,DEARBORN,MI,,US,,,,United States Postal Service,Q668687
4812400005,usps_collection_boxes,USPS COLLECTION BOX - BLUE BOX,1410 BEECH,DEARBORN,MI,,US,,,,United States Postal Service,Q668687
4812400024,usps_collection_boxes,USPS COLLECTION BOX - BLUE BOX,835 MASON ST,DEARBORN,MI,,US,,,,United States Postal Service,Q668687
4812400015,usps_collection_boxes,USPS COLLECTION BOX - BLUE BOX,23054 CHERRY HILL ST,DEARBORN,MI,,US,,,,United States Postal Service,Q668687
dearborn_oil-change-030034,valvoline_instant_oil_change,Valvoline,2905 South Telegraph Road ,Dearborn,MI,,US,+1 313-565-7887,https://store.vioc.com/mi/dearborn/oil-change-030034.html,,Valvoline Instant Oil Change,Q7912852
,visa,,,DETROIT,MI,,US,,,,,
,visa,,,MACOMB TOWNSHIP,MI,,US,,,,,
,visa,,,DEARBORN,MI,,US,,,,,
,visa,,,DEARBORN,MI,,US,,,,,
,visa,,,DEARBORN,MI,,US,,,,,
,visa,,,DEARBORN,MI,,US,,,,,
,visa,,,DEARBORN,MI,,US,,,,,
,visa,,,DEARBORN,MI,,US,,,,,
,visa,,,DEARBORN,MI,,US,,,,,
,visa,,,DEARBORN,MI,,US,,,,,
,visa,,,DEARBORN,MI,,US,,,,,
,visa,,,DEARBORN,MI,,US,,,,,
,visa,,,DEARBORN,MI,,US,,,,,
,visa,,,DEARBORN,MI,,US,,,,,
,visa,,,DEARBORN,MI,,US,,,,,
,visa,,,DEARBORN,MI,,US,,,,,
,visa,,,DEARBORN,MI,,US,,,,,
,visa,,,DEARBORN,MI,,US,,,,,
,visa,,,DEARBORN,MI,,US,,,,,
,visa,,,DEARBORN,MI,,US,,,,,
,visa,,,DEARBORN,MI,,US,,,,,
,visa,,,DEARBORN,MI,,US,,,,,
,visa,,,DEARBORN,MI,,US,,,,,
,visa,,,DEARBORN,MI,,US,,,,,
,visa,,,DEARBORN,MI,,US,,,,,
,visa,,,DEARBORN,MI,,US,,,,,
,visa,,,DEARBORN,MI,,US,,,,,
,visa,,,DEARBORN,MI,,US,,,,,
,visa,,,DEARBORN,MI,,US,,,,,
,visa,,,DEARBORN,MI,,US,,,,,
,visa,,,DEARBORN,MI,,US,,,,,
,visa,,,DEARBORN,MI,,US,,,,,
,visa,,,DEARBORN,MI,,US,,,,,
,visa,,,DEARBORN,MI,,US,,,,,
,visa,,,DEARBORN,MI,,US,,,,,
,visa,,,DEARBORN,MI,,US,,,,,
,visa,,,DETROIT,MI,,US,,,,,
,visa,,,DEARBORN,MI,,US,,,,,
,visa,,,DEARBORN,MI,,US,,,,,
,visa,,,DEARBORN,MI,,US,,,,,
,visa,,,DEARBORN,MI,,US,,,,,
,visa,,,DEARBORN,MI,,US,,,,,
,visa,,,DEARBORN,MI,,US,,,,,
,visa,,,DEARBORN,MI,,US,,,,,
,visa,,,DEARBORN HGTS,MI,,US,,,,,
,visa,,,DEARBORN,MI,,US,,,,,
,visa,,,DEARBORN,MI,,US,,,,,
,visa,,,DEARBORN,MI,,US,,,,,
,visa,,,DEARBORN,MI,,US,,,,,
,visa,,,DEARBORN,MI,,US,,,,,
,visa,,,DEARBORN,MI,,US,,,,,
,visa,,,DEARBORN,MI,,US,,,,,
,visa,,,DEARBONR,MI,,US,,,,,
,visa,,,DEARBORN,MI,,US,,,,,
,visa,,,DEARBORN,MI,,US,,,,,
,visa,,,DEARBORN,MI,,US,,,,,
,visa,,,DEARBORN,MI,,US,,,,,
,visa,,,DEARBORN,MI,,US,,,,,
,visa,,,DEARBORN,MI,,US,,,,,
,visa,,,DEARBORN,MI,,US,,,,,
,visa,,,DEARBORN,MI,,US,,,,,
,visa,,,DEARBORN,MI,,US,,,,,
,visa,,,DEARBORN,MI,,US,,,,,
,visa,,,DEARBORN,MI,,US,,,,,
,visa,,,DEARBORN,MI,,US,,,,,
,visa,,,DEARBORN,MI,,US,,,,,
,visa,,,DEARBORN,MI,,US,,,,,
,visa,,,DEARBORN,MI,,US,,,,,
,visa,,,DEARBORN,MI,,US,,,,,
,visa,,,DEARBORN,MI,,US,,,,,
,visa,,,DEARBORN,MI,,US,,,,,
,visa,,,DEARBORN,MI,,US,,,,,
,visa,,,DEARBORN,MI,,US,,,,,
,visa,,,DEARBORN,MI,,US,,,,,
,visa,,,DEARBORN,MI,,US,,,,,
,visa,,,DEARBORN,MI,,US,,,,,
,visa,,,DEARBORN,MI,,US,,,,,
,visa,,,DEARBORN,MI,,US,,,,,
,visa,,,DEARBORN,MI,,US,,,,,
,visa,,,DEARBORN,MI,,US,,,,,
,visa,,,DEARBORN,MI,,US,,,,,
,visa,,,DEARBORN,MI,,US,,,,,
,visa,,,DEARBORN,MI,,US,,,,,
1b81c2a81db4b8e4aaed1e4042301158,western_union,DAILY FRESH SUPERMARKET,,Dearborn,MI,,US,+1 313-512-6606,https://location.westernunion.com/us/mi/dearborn/1b81c2a81db4b8e4aaed1e4042301158,,Western Union,Q861042
