Ref,Spider,Name,Address,City,State,Zipcode,Country,Phone,Website,Hours,Brand,WikiData
7311,aaa,East Dearborn Insurance Agency,,Dearborn,MI,,US,+1 313-945-1901,,,American Automobile Association,Q463436
https://stores.advanceautoparts.com/mi/dearborn/5524-schaefer-rd,advance_auto_parts_us,Advance Auto Parts,,Dearborn,MI,,US,+1 313-945-6646,https://stores.advanceautoparts.com/mi/dearborn/5524-schaefer-rd,Mo-Sa 07:30-21:00; Su 09:00-20:00,Advance Auto Parts,Q4686051
6 Park Lane Boulevard,allied_universal,Allied Universal,,Dearborn,MI,,US,+1 734-285-7772,https://www.aus.com/detroit-security-systems-services,,Allied Universal,Q4732537
https://stores.ashleyfurniture.com/store/us/michigan/dearborn/9000740512/,ashley_furniture,"Ashley Store Dearborn, MI",,Dearborn,MI,,US,+1 313-524-9350,https://stores.ashleyfurniture.com/store/us/michigan/dearborn/9000740512/,,Ashley Furniture,Q4805437
62546,asics_us,Finish Line,18900 Michigan Ave,Dearborn,MI,,US,+1 313-996-0908,,,asics,Q327247
https://locations.auntieannes.com/#5737,auntie_annes,Auntie Anne's Fairlane Town Center,,Dearborn,MI,,US,+1 313-441-1905,https://locations.auntieannes.com/mi/dearborn/18900-michigan-ave,Mo-Sa 11:00-20:00; Su 12:00-18:00,Auntie Anne's,Q4822010
https://locations.auntieannes.com/#2403130720407216895,auntie_annes,Auntie Anne's Michigan Ave,,DEARBORN,MI,,US,+1 313-706-7777,https://locations.auntieannes.com/mi/dearborn/12921-michigan-ave,,Auntie Anne's,Q4822010
2269,autozone_us,AutoZone Auto Parts Dearborn,,Dearborn,MI,,US,+1 313-931-9446,https://www.autozone.com/locations/mi/dearborn/8947-tireman-ave.html,Mo-Sa 08:00-21:00; Su 09:00-20:00,AutoZone,Q4826087
4308,autozone_us,AutoZone Auto Parts Dearborn,,Dearborn,MI,,US,+1 313-846-0553,https://www.autozone.com/locations/mi/dearborn/5801-schaefer-rd.html,Mo-Sa 08:00-21:00; Su 09:00-20:00,AutoZone,Q4826087
https://www.avis.com/en/locations/us/mi/dearborn/z1m,avis,Avis U S A Dearborn,,Dearborn,MI,,US,+1 313-982-3327,https://www.avis.com/en/locations/us/mi/dearborn/z1m,Mo-Fr 09:00-18:00; Sa-Su 09:00-13:00,Avis,Q791136
https://awrestaurants.com/locations/michigan/dearborn/210-town-center-drive/,awrestaurants,A&W Restaurant,,Dearborn,MI,,US,+1 313-271-1676,https://awrestaurants.com/locations/michigan/dearborn/210-town-center-drive/,Mo-Sa 10:00-22:00; Su 11:00-21:00,A&W Restaurants,Q277641
https://locators.bankofamerica.com/mi/dearborn/financial-centers-dearborn-16206.html,bankofamerica,Bank of America Financial Center & Drive-Thru ATM | Warren / Hartwell,,Dearborn,MI,,US,+1 313-846-3691,https://locators.bankofamerica.com/mi/dearborn/financial-centers-dearborn-16206.html,Mo-Fr 10:00-16:00,Bank of America,Q487907
https://locators.bankofamerica.com/mi/dearborn/financial-centers-dearborn-16204.html,bankofamerica,Bank of America Financial Center & Drive-Thru ATM | Michigan / Hartwell,,Dearborn,MI,,US,+1 313-846-4720,https://locators.bankofamerica.com/mi/dearborn/financial-centers-dearborn-16204.html,Mo-Fr 09:00-17:00; Sa 09:00-14:00,Bank of America,Q487907
https://locators.bankofamerica.com/mi/dearborn/atm-dearborn-109323.html,bankofamerica,Bank of America Walk-Up ATM | Midwest Medical Center,,Dearborn,MI,,US,+1 844-401-8500,https://locators.bankofamerica.com/mi/dearborn/atm-dearborn-109323.html,,Bank of America,Q487907
https://locations.baskinrobbins.com/mi/dearborn/12951-michigan-ave-359386-br,baskin_robbins_us,Baskin-Robbinsâ„¢,,Dearborn,MI,,US,+1 313-406-5384,https://locations.baskinrobbins.com/mi/dearborn/12951-michigan-ave-359386-br,Mo-Sa 05:00-23:00; Su 06:00-23:00,Baskin-Robbins,Q584601
BBW00346,bathandbodyworks_us,FAIRLANE TOWN CENTER,,DEARBORN,MI,,US,+1 313-982-0669,,Mo-Th 11:00-19:00; Fr-Sa 11:00-20:00; Su 12:00-18:00,Bath & Body Works,Q810773
BBW02800,bathandbodyworks_us,FAIRLANE MEADOWS,,DEARBORN,MI,,US,+1 313-768-0503,,Mo-Sa 10:00-21:00; Su 11:00-18:00,Bath & Body Works,Q810773
https://www.benihana.com/locations/dearborn-mi-db/,benihana,"DEARBORN, MI",, Dearborn,MI,,US,+1 313-593-3200,https://www.benihana.com/locations/dearborn-mi-db/,,Benihana,Q4887996
https://stores.bestbuy.com/mi/dearborn/16221-ford-rd-410.html,bestbuy,Best Buy Dearborn,,Dearborn,MI,,US,+1 313-240-6655,https://stores.bestbuy.com/mi/dearborn/16221-ford-rd-410.html,,Best Buy,Q533415
https://local.biglots.com/#13190564,biglots,Big Lots - Dearborn,,Dearborn,MI,,US,+1 313-982-0875,https://local.biglots.com/mi/dearborn/5600-mercury-dr,Mo-Sa 09:00-21:00; Su 10:00-21:00,Big Lots,Q4905973
152450,bluerhino,Walgreens #5032,,Dearborn,MI,,US,+1 313-624-9375,,,Blue Rhino,Q65681213
103162,bluerhino,Walmart #4383,,Dearborn,MI,,US,+1 313-441-0194,,,Blue Rhino,Q65681213
152613,bluerhino,Walgreens #4992,,Dearborn,MI,,US,+1 313-584-5820,,,Blue Rhino,Q65681213
09002091850014812600100000000000,bp,BP,,Dearborn,MI,,US,+1 313-945-9200,,24/7,BP,Q152057
121543,bp,BP,,Dearborn,MI,,US,+1 313-584-5854,,,BP,Q152057
85394711362004812600100000000000,bp,Amoco,,DEARBORN,MI,,US,+1 313-996-9484,,24/7,BP,Q152057
126945,bp,Amoco,,Dearborn,MI,,US,+1 313-406-4804,,,BP,Q152057
125267,bp,BP,,Dearborn,MI,,US,+1 313-846-9218,,,BP,Q152057
2039313,chase_us,Warren Wyoming - New branch,,Dearborn,MI,,US,+1 313-491-6945,https://locator.chase.com/mi/dearborn/7301-wyoming-ave,Mo-Fr 09:00-17:00; Sa 09:00-14:00,Chase,Q524629
2039298,chase_us,Ford Rd Steadman - New branch,,Dearborn,MI,,US,+1 313-271-7736,https://locator.chase.com/mi/dearborn/14901-ford-rd,Mo-Fr 09:00-17:00; Sa 09:00-14:00,Chase,Q524629
46857,citi,ATM CVS,,Dearborn,MI,,US,,,,Citibank,Q857063
87463,citi,ATM Walgreens,,Dearborn,MI,,US,,,,Citibank,Q857063
81701,citi,ATM Target,,Dearborn,MI,,US,,,,Citibank,Q857063
61049,citi,ATM Kroger,,Dearborn,MI,,US,,,,Citibank,Q857063
87855,citi,ATM Walgreens,,Dearborn,MI,,US,,,,Citibank,Q857063
48116,citi,ATM CVS,,Dearborn,MI,,US,,,,Citibank,Q857063
om_mi_dearborn_16101-ford-road,cititrends,Citi Trends,,Dearborn,MI,,US,+1 313-217-0932,https://locations.cititrends.com/mi/dearborn/16101-ford-road.html,Mo 10:00-21:00; Tu 10:00-21:00; We 10:00-21:00; Th 10:00-21:00; Fr 10:00-21:00; Sa 10:00-21:00; Su 12:00-18:00,Citi Trends,Q5122438
800843,citizens_us,Citizens Dearborn Oakman,,Dearborn,MI,,US,+1 313-943-4825,,Mo-Fr 09:00-16:00; Sa 09:00-12:00,Citizens,Q5122694
800844,citizens_us,Citizens Dearborn - Greenfield,,Dearborn,MI,,US,+1 313-943-4814,,Mo-Fr 09:00-16:00; Sa 09:00-12:00,Citizens,Q5122694
ATM-166,citizens_us,,,Dearborn,MI,,US,+1 313-943-4814,,24/7,Citizens,Q5122694
ATM-1271,citizens_us,,,Dearborn,MI,,US,,,24/7,Citizens,Q5122694
ATM-2357,citizens_us,,,Dearborn,MI,,US,,,,Citizens,Q5122694
ATM-2370,citizens_us,,,Dearborn,MI,,US,,,,Citizens,Q5122694
dearborn/6175,claires,Shop Ear Piercings & Jewelry at Fairlane Town Center,,DEARBORN,MI,,US,+1 313-441-2364,https://stores.claires.com/us/mi/dearborn/6175.html,Mo-Th 11:00-19:00; Fr-Sa 11:00-20:00; Su 12:00-18:00,Claire's,Q2974996
23009,coldstone_creamery,Cold Stone Creamery,,Dearborn,MI,,US,+1 313-581-6648,https://www.coldstonecreamery.com/stores/23009,,Cold Stone Creamery,Q1094923
80444106,cricket_wireless,Cricket Wireless Authorized Retailer,,Dearborn,MI,,US,+1 313-451-8403,https://www.cricketwireless.com/stores/ll/US/MI/Dearborn/12900-W-Warren-Ave,Mo-Sa 10:00-19:00; Su 12:00-17:00,Cricket Wireless,Q5184987
254,crunch_fitness,Crunch Fitness,,Dearborn,MI,,US,+1 313-982-9711,https://www.crunch.com/locations/dearborn,,Crunch Fitness,Q5190093
8027,cvs_us,CVS Pharmacy,,Dearborn,MI,,US,+1 313-581-4010,https://www.cvs.com/store-locator/dearborn-mi-pharmacies/10335-west-warren-dearborn-mi-48126/storeid=8027,Mo-Su 08:00-23:00,CVS Pharmacy,Q2078880
16086,cvs_us,CVS Pharmacy,,Dearborn,MI,,US,+1 313-768-0293,https://www.cvs.com/store-locator/dearborn-mi-pharmacies/15901-ford-rd-dearborn-mi-48126/storeid=16086,"Mo-Fr 09:00-13:30,14:00-19:00; Sa 09:00-13:30,14:00-17:00; Su 11:00-13:30,14:00-17:00",CVS Pharmacy,Q2078880
8001,cvs_us,CVS Pharmacy,,Dearborn,MI,,US,+1 313-582-9422,https://www.cvs.com/store-locator/dearborn-mi-pharmacies/15325-michigan-ave-dearborn-mi-48126/storeid=8001,24/7,CVS Pharmacy,Q2078880
7455,dollartree,DollarTree,,Dearborn,MI,,US,+1 313-203-2097,,Mo-Sa 09:00-21:00; Su 10:00-20:00,Dollar Tree,Q5289230
359386,dunkin_us,Dunkin',,Dearborn,MI,,US,+1 313-406-5384,https://locations.dunkindonuts.com/en/mi/dearborn/12951-michigan-ave/359386,Mo-Sa 05:00-23:00; Su 06:00-23:00,Dunkin',Q847743
5700-mercury-dr,einsteinbros,Ford & Mercury Einstein Bros. Bagels,,Dearborn,MI,,US,+1 313-271-9788,https://locations.einsteinbros.com/us/mi/dearborn/5700-mercury-dr,Mo-Fr 06:00-14:00; Sa-Su 07:00-14:00,Einstein Bros. Bagels,Q5349788
E12055,enterprise,Dearborn Greenfield Rd.,,Dearborn,MI,,US,+1 313-584-9500,,,Enterprise Rent-A-Car,Q17085454
18900-michigan-ave,express,Fairlane Town Center,,Dearborn,MI,,US,+1 313-441-1236,https://stores.expressfactoryoutlet.com/us/mi/dearborn/18900-michigan-ave,Mo-Th 11:00-19:00; Fr-Sa 11:00-20:00; Su 12:00-18:00,Express Factory Outlet,Q1384784
200329721,exxonmobil,WARREN AND GREENFIELD,,DEARBORN,MI,,US,+1 313-888-1515,https://www.exxon.com/en/find-station/exxon-dearborn-mi-warrenandgreenfield-200329721,24/7,Exxon,Q109675651
200329526,exxonmobil,10001 EXPRESS INC,,DEARBORN,MI,,US,+1 313-340-2784,https://www.exxon.com/en/find-station/mobil-dearborn-mi-10001expressinc-200329526,24/7,Mobil,Q109676002
200329525,exxonmobil,7954 EXPRESS INC,,DEARBORN,MI,,US,+1 313-624-8888,https://www.exxon.com/en/find-station/mobil-dearborn-mi-7954expressinc-200329525,24/7,Mobil,Q109676002
200313838,exxonmobil,"A & N GAS, INC",,DEARBORN,MI,,US,+1 313-843-2610,https://www.exxon.com/en/find-station/mobil-dearborn-mi-angasinc-200313838,24/7,Mobil,Q109676002
200313150,exxonmobil,NS2 INVESTMENTS,,DEARBORN,MI,,US,+1 313-846-9011,https://www.exxon.com/en/find-station/mobil-dearborn-mi-ns2investments-200313150,24/7,Mobil,Q109676002
200312146,exxonmobil,FORD RD PETRO,,DEARBORN,MI,,US,+1 313-945-8259,https://www.exxon.com/en/find-station/mobil-dearborn-mi-fordrdpetro-200312146,24/7,Mobil,Q109676002
200311220,exxonmobil,FORD RD & CHASE,,DEARBORN,MI,,US,+1 318-747-5555,https://www.exxon.com/en/find-station/exxon-dearborn-mi-fordrdchase-200311220,24/7,Exxon,Q109675651
200309516,exxonmobil,WEST WARREN MOBIL,,DEARBORN,MI,,US,+1 313-581-2021,https://www.exxon.com/en/find-station/mobil-dearborn-mi-westwarrenmobil-200309516,24/7,Mobil,Q109676002
https://locations.53.com/#3034790,fifththirdbank,Fifth Third Bank East Dearborn,,Dearborn,MI,,US,+1 313-581-2655,https://locations.53.com/mi/dearborn/7041-schafer-road.html,Mo-Th 09:00-17:00; Fr 09:00-18:00; Sa 09:00-13:00,Fifth Third Bank,Q1411810
https://locations.fivebelow.com/mi/dearborn/16001-ford-road,five_below,Five Below Fairlane Meadows,,Dearborn,MI,,US,,https://locations.fivebelow.com/mi/dearborn/16001-ford-road,Mo-Sa 10:00-20:00; Su 11:00-18:00,Five Below,Q5455836
https://stores.footlocker.com/mi/dearborn/18900-michigan-avenue-7242.html,footlocker,"Foot Locker in Dearborn: Dearborn, Michigan | Approved | Own It",,Dearborn,MI,,US,+1 313-336-0127,https://stores.footlocker.com/mi/dearborn/18900-michigan-avenue-7242.html,Mo-Th 11:00-19:00; Fr-Sa 11:00-20:00; Su 12:00-18:00,Foot Locker,Q63335
Motorcraft4047USAEnglish,ford,"Fairlane Ford Sales, Inc.",,Michigan,MI,,US,+1 313-846-5000,,,Ford,Q44294
https://www.ford.com/dealerships/dealer-details/mi/dearborn/mission-ford-of-dearborn-inc/,ford_dealers_us,"Mission Ford of Dearborn, Inc.",,Dearborn,MI,,US,+1 313-435-2006,https://www.ford.com/dealerships/dealer-details/mi/dearborn/mission-ford-of-dearborn-inc/,Mo-Fr 09:00-18:00,Ford Motor Company,Q44294
https://locations.forever21.com/#35647149,forever21_us,Fairlane Town Center,,Dearborn,MI,,US,+1 313-425-0270,https://locations.forever21.com/us/stores/mi/dearborn/18900-michigan-ave,Mo-Sa 11:00-19:00; Su 12:00-18:00,Forever 21,Q1060537
100656,fresenius_kidney_care_us,Fresenius Kidney Care Dearborn,,Dearborn,MI,,US,+1 800-881-5101,https://www.freseniuskidneycare.com/dialysis-centers/michigan/100656,Mo-Fr 09:00-17:00,,
0580,gamestop_us,Shops at Fairlane,,DEARBORN,MI,,US,+1 313-271-6700,https://www.gamestop.com/search/?store=0580,Mo-Th 11:00-20:00; Fr-Sa 10:00-21:00; Su 11:00-20:00,GameStop,Q202210
0033,gamestop_us,Fairlane Town Center Mall,,Dearborn,MI,,US,+1 313-271-2910,https://www.gamestop.com/search/?store=0033,Mo-Sa 11:00-20:00; Su 12:00-18:00,GameStop,Q202210
https://stores.gnc.com/#24058880,gnc,GNC Fairlane Meadows,,,MI,,US,+1 313-271-5295,https://stores.gnc.com/all-stores-michigan/dearborn/16201-ford-road,Mo-Sa 10:00-20:00; Su 12:00-18:00,GNC,Q4808595
US0136,hm,Fairlane Town Center,,Dearborn,MI,,US,+1 855-466-7467,,Mo-Sa 11:00-20:00; Su 12:00-18:00,H&M,Q188326
9925611,hugo_boss,BOSS Menswear Shop,,Dearborn,MI,,US,,https://www.hugoboss.com/us/storedetail?storeid=9925611,,Hugo Boss,Q491627
212,huntingtonbank,Oakman ,,Dearborn,MI,,US,+1 313-846-4781,https://www.huntington.com/Community/branch-info?locationId=212,Mo-Fr 09:00-17:00; Sa 09:00-12:00; Su 00:00-00:00,Huntington Bank,Q798819
22548,h_r_block,H&R Block,,Dearborn,MI,,US,+1 313-584-0242,https://www.hrblock.com/local-tax-offices/michigan/dearborn/schaefer-shopping-center/22548/,,H&R Block,Q5627799
boa-merrill-lynch-290-town-center,indigo,BOA - Merrill Lynch - 290 Town Center,,Dearborn,MI,,US,+1 313-594-9217,,,Indigo,Q3559970
https://stores.jdsports.com/mi/dearborn/fairlane-town-center.html,jdsports_us,JD Sports,,Dearborn,MI,,US,+1 313-996-0908,https://stores.jdsports.com/mi/dearborn/fairlane-town-center.html,Mo-Sa 11:00-19:00; Su 12:00-18:00,JD Sports,Q6108019
https://locations.jimmyjohns.com/mi/dearborn/sandwiches-580.html,jimmy_johns,Jimmy John's,,Dearborn,MI,,US,+1 313-982-9884,https://locations.jimmyjohns.com/mi/dearborn/sandwiches-580.html,,Jimmy John's,Q1689380
https://locations.kfc.com/#11249936,kfc,Chicken Nuggets Near Dearborn,,Dearborn,MI,,US,,https://locations.kfc.com/mi/dearborn/12721-michigan-ave/chickennugget,Mo-Fr 10:30-22:00; Sa 11:00-22:00; Su 11:00-21:00,KFC,Q524757
https://locations.kfc.com/#11247837,kfc,Chicken Nuggets Near Dearborn,,Dearborn,MI,,US,,https://locations.kfc.com/mi/dearborn/10120-w-warren-avenue/chickennugget,Mo-Fr 10:30-22:00; Sa-Su 11:00-22:00,KFC,Q524757
161566,marathon_petroleum_us,MARATHON FORD OIL LLC,,DEARBORN,MI,,US,+1 313-406-2980,,,Marathon,Q458363
161157,marathon_petroleum_us,MAUDYS INVESTMENTS INC,,DEARBORN,MI,,US,+1 313-581-4379,,,Marathon,Q458363
155567,marathon_petroleum_us,H AND M VETERAN,,DEARBORN,MI,,US,+1 313-996-9484,,,Marathon,Q458363
157931,marathon_petroleum_us,F AND E OIL INC,,DEARBORN,MI,,US,+1 313-706-7777,,,Marathon,Q458363
DTTDB,marriott,Courtyard Detroit Dearborn,,Dearborn,MI,,US,+1 313-271-1400,https://www.marriott.com/DTTDB,,Courtyard by Marriott,Q1053170
DTTSD,marriott,SpringHill Suites Detroit Dearborn,,Dearborn,MI,,US,+1 313-336-3900,https://www.marriott.com/DTTSD,,SpringHill Suites,Q7580351
DTWTD,marriott,TownePlace Suites Detroit Dearborn,,Dearborn,MI,,US,+1 313-271-0200,https://www.marriott.com/DTWTD,,Townplace Suites by Marriott,Q7830092
71486488,moneygram,WAL-MART - #4383,,DEARBORN,MI,,US,+1 313-441-0194,,Mo-Sa 08:00-20:00; Su 10:00-18:00,MoneyGram,Q1944412
74911400,moneygram,ALYAMANIYA IMPORT AND EXPORT - DEARBORN,,DEARBORN,MI,,US,+1 313-438-6078,,Mo-Su 09:00-19:00,MoneyGram,Q1944412
45198265,moneygram,WAL-MART - #4383,,DEARBORN,MI,,US,+1 313-441-0194,,Mo-Sa 08:00-20:00; Su 10:00-18:00,MoneyGram,Q1944412
3089,orangetheory_fitness,"Dearborn, MI",,Dearborn,MI,,US,+1 313-986-1000,,,Orangetheory Fitness,Q25005163
https://locations.oreillyauto.com/mi/dearborn/check-engine-light-testing-3324.html,oreilly,Your Dearborn O'Reilly Auto Parts Store,,Dearborn,MI,,US,+1 313-846-8200,https://locations.oreillyauto.com/mi/dearborn/check-engine-light-testing-3324.html,Mo-Sa 07:30-21:00; Su 08:30-20:00,O'Reilly Auto Parts,Q7071951
https://locations.oreillyauto.com/mi/dearborn/battery-testing-3324.html,oreilly,Your Dearborn O'Reilly Auto Parts Store,,Dearborn,MI,,US,+1 313-846-8200,https://locations.oreillyauto.com/mi/dearborn/battery-testing-3324.html,Mo-Sa 07:30-21:00; Su 08:30-20:00,O'Reilly Auto Parts,Q7071951
https://locations.oreillyauto.com/mi/dearborn/wiper-installation-3324.html,oreilly,Your Dearborn O'Reilly Auto Parts Store,,Dearborn,MI,,US,+1 313-846-8200,https://locations.oreillyauto.com/mi/dearborn/wiper-installation-3324.html,Mo-Sa 07:30-21:00; Su 08:30-20:00,O'Reilly Auto Parts,Q7071951
https://locations.oreillyauto.com/mi/dearborn/autopartes-3324.html,oreilly,Tu tienda O'Reilly Auto Parts en Dearborn,,Dearborn,MI,,US,+1 313-846-8200,https://locations.oreillyauto.com/mi/dearborn/autopartes-3324.html,Mo-Sa 07:30-21:00; Su 08:30-20:00,O'Reilly Auto Parts,Q7071951
use10ba38f,pandora,About Pandora Jewelry Authorized Retailer - MJ Diamonds @ Fairlane Town Centry / Dearborn,,Dearborn,MI,,US,+1 313-441-9620,https://stores.pandora.net/mi/dearborn/pandora-jewelry-use10ba38f.html,,Pandora,Q2241604
us7f038443,pandora,About Pandora Jewelry Authorized Retailer - XS Diamonds @ Fairlane Town Center,,Dearborn,MI,,US,+1 313-271-8707,https://stores.pandora.net/mi/dearborn/pandora-jewelry-us7f038443.html,Mo-Sa 10:00-21:00; Su 11:00-18:00,Pandora,Q2241604
https://locations.papajohns.com/#10690554,papa_johns,Papa John's,,Dearborn,MI,,US,+1 313-846-7272,https://locations.papajohns.com/united-states/mi/48126/dearborn/12841-michigan-ave,Mo-Th 10:30-21:00; Fr-Sa 10:30-21:40; Su 10:30-21:00,Papa John's Pizza,Q2759586
https://www.pfchangs.com/locations/#5265320,pf_changs,P.F. Chang's Dearborn,,Dearborn,MI,,US,+1 313-429-2030,https://www.pfchangs.com/locations/us/mi/dearborn/18900-michigan-ave/9853-dearborn.html,"Mo-Th 11:00-21:00,15:00-18:00; Fr 11:00-22:00,15:00-18:00; Sa 11:00-22:00; Su 11:00-21:00",P. F. Chang's China Bistro,Q5360181
home-depot-2757-14364,ppgpaints,HOME DEPOT 2757,,"Dearborn, ",MI,,US,+1 313-593-4644,https://www.ppgpaints.com/store-locator/us/michigan/dearborn-paint-stores/home-depot-2757-14364,,PPG Paints,Q83891559
3872,rentacenter,Rent-A-Center,,Dearborn,MI,,US,+1 313-982-1138,https://locations.rentacenter.com/michigan/dearborn/16001-ford-rd/,Mo-Sa 10:00-18:00,Rent-A-Center,Q7313497
04520,rite_aid_us,Rite Aid #04520 Dearborn,,Dearborn,MI,,US,+1 313-581-3280,https://locations2.riteaid.com.yext-cdn.com/mi/dearborn/5650-schaefer-road.html,Mo-Su 08:00-24:00,Rite Aid,Q3433273
location-9185,sbarro,Fairlane Town Center,18900 MICHIGAN AVENUE,DEARBORN,MI,,US,,https://sbarro.com/locations/mi/dearborn/fairlane-town-center/,,Sbarro,Q2589409
https://restaurants.subway.com/#14983907,subway,Subway Fairlane Town Center,,Dearborn Wayne,MI,,US,+1 313-425-0000,https://restaurants.subway.com/united-states/mi/dearborn/fc-309,Mo-Sa 09:00-21:00; Su 10:00-18:00,Subway,Q244457
https://restaurants.subway.com/#14984104,subway,Subway Wal-Mart #4383,,Dearborn Wayne,MI,,US,+1 313-271-7600,https://restaurants.subway.com/united-states/mi/dearborn/ford-rd-&-mercury-dr,Mo-Fr 08:00-21:00; Sa 10:00-21:00; Su 08:00-21:00,Subway,Q244457
https://restaurants.subway.com/#14905272,subway,Subway,,Dearborn Wayne,MI,,US,+1 313-931-0555,https://restaurants.subway.com/united-states/mi/dearborn/7340-wyoming,Mo-Th 08:00-22:00; Fr 09:00-22:00; Sa 10:00-22:00; Su 10:00-20:00,Subway,Q244457
https://restaurants.subway.com/#14908838,subway,Subway,,Dearborn Wayne,MI,,US,+1 313-581-1977,https://restaurants.subway.com/united-states/mi/dearborn/5929-schaefer-road,Mo-Fr 09:00-24:00; Sa-Su 10:00-24:00,Subway,Q244457
0939717500,sunoco_us,Sunoco,,DEARBORN,MI,,US,+1 313-690-6868,,Mo-Su 06:00-23:00,Sunoco,Q1423218
0523689800,sunoco_us,Sunoco,,DEARBORN,MI,,US,+1 313-220-5576,,,Sunoco,Q1423218
0259191500,sunoco_us,Sunoco,,DEARBORN,MI,,US,+1 313-433-6682,,Mo-Su 06:00-23:00,Sunoco,Q1423218
https://locations.tacobell.com/#3917262,taco_bell,Taco Bell,,Dearborn,MI,,US,+1 313-934-0218,https://locations.tacobell.com/mi/dearborn/8956-warren.html,,Taco Bell,Q752941
https://locations.tacobell.com/#23560465,taco_bell,Taco Bell,,Dearborn,MI,,US,+1 313-271-1922,https://locations.tacobell.com/mi/dearborn/18900-michigan-ave.html,,Taco Bell,Q752941
4162,tmobile_us,Schaefer & Blesser,,Dearborn,MI,,US,+1 313-581-1000,https://www.t-mobile.com/store-locator/mi/dearborn/schaefer-blesser,,T-Mobile,Q3511885
4812600021,usps_collection_boxes,USPS COLLECTION BOX - BLUE BOX,18900 MICHIGAN AVE,DEARBORN,MI,,US,,,,United States Postal Service,Q668687
4812600063,usps_collection_boxes,USPS COLLECTION BOX - BLUE BOX,400 TOWN CENTER DR,DEARBORN,MI,,US,,,,United States Postal Service,Q668687
4812600041,usps_collection_boxes,USPS COLLECTION BOX - BLUE BOX,16099 MICHIGAN AVE,DEARBORN,MI,,US,,,,United States Postal Service,Q668687
4812600027,usps_collection_boxes,USPS COLLECTION BOX - BLUE BOX,5521 FAIRLANE WOODS DR,DEARBORN,MI,,US,,,,United States Postal Service,Q668687
4812600077,usps_collection_boxes,USPS COLLECTION BOX - BLUE BOX,1 AUTO CLUB DR,DEARBORN,MI,,US,,,,United States Postal Service,Q668687
4812600035,usps_collection_boxes,USPS COLLECTION BOX - BLUE BOX,15325 MICHIGAN AVE,DEARBORN,MI,,US,,,,United States Postal Service,Q668687
4812600053,usps_collection_boxes,USPS COLLECTION BOX - BLUE BOX,1 PARKLANE BLVD,DEARBORN,MI,,US,,,,United States Postal Service,Q668687
4812600032,usps_collection_boxes,USPS COLLECTION BOX - BLUE BOX,6 PARKLANE BLVD,DEARBORN,MI,,US,,,,United States Postal Service,Q668687
4812600025,usps_collection_boxes,USPS COLLECTION BOX - BLUE BOX,15340 MICHIGAN AVE,DEARBORN,MI,,US,,,,United States Postal Service,Q668687
4812600009,usps_collection_boxes,USPS COLLECTION BOX - BLUE BOX,5700 CHASE RD,DEARBORN,MI,,US,,,,United States Postal Service,Q668687
4812600062,usps_collection_boxes,USPS COLLECTION BOX - BLUE BOX,4500 MAPLE ST,DEARBORN,MI,,US,,,,United States Postal Service,Q668687
4812600045,usps_collection_boxes,USPS COLLECTION BOX - BLUE BOX,13700 MICHIGAN AVE,DEARBORN,MI,,US,,,,United States Postal Service,Q668687
4812600010,usps_collection_boxes,USPS COLLECTION BOX - BLUE BOX,6403 CHASE RD,DEARBORN,MI,,US,,,,United States Postal Service,Q668687
4812600016,usps_collection_boxes,USPS COLLECTION BOX - BLUE BOX,5203 SCHAEFER RD,DEARBORN,MI,,US,,,,United States Postal Service,Q668687
4812600071,usps_collection_boxes,USPS COLLECTION BOX - BLUE BOX,15101 FORD RD,DEARBORN,MI,,US,,,,United States Postal Service,Q668687
4812600075,usps_collection_boxes,USPS COLLECTION BOX - BLUE BOX,15301 FORD RD,DEARBORN,MI,,US,,,,United States Postal Service,Q668687
4812600014,usps_collection_boxes,USPS COLLECTION BOX - BLUE BOX,5650 SCHAEFER RD,DEARBORN,MI,,US,,,,United States Postal Service,Q668687
4812600054,usps_collection_boxes,USPS COLLECTION BOX - BLUE BOX,15111 W WARREN AVE,DEARBORN,MI,,US,,,,United States Postal Service,Q668687
4812600012,usps_collection_boxes,USPS COLLECTION BOX - BLUE BOX,5101 OAKMAN BLVD,DEARBORN,MI,,US,,,,United States Postal Service,Q668687
4812600011,usps_collection_boxes,USPS COLLECTION BOX - BLUE BOX,14544 W WARREN AVE,DEARBORN,MI,,US,,,,United States Postal Service,Q668687
4812600028,usps_collection_boxes,USPS COLLECTION BOX - BLUE BOX,6500 SCHAEFER RD,DEARBORN,MI,,US,,,,United States Postal Service,Q668687
4812600006,usps_collection_boxes,USPS COLLECTION BOX - BLUE BOX,13335 W WARREN AVE,DEARBORN,MI,,US,,,,United States Postal Service,Q668687
4812600029,usps_collection_boxes,USPS COLLECTION BOX - BLUE BOX,6501 THEISEN ST,DEARBORN,MI,,US,,,,United States Postal Service,Q668687
4812600057,usps_collection_boxes,USPS COLLECTION BOX - BLUE BOX,10503 W WARREN AVE,DEARBORN,MI,,US,,,,United States Postal Service,Q668687
4812600030,usps_collection_boxes,USPS COLLECTION BOX - BLUE BOX,13020 W WARREN AVE,DEARBORN,MI,,US,,,,United States Postal Service,Q668687
4812600034,usps_collection_boxes,USPS COLLECTION BOX - BLUE BOX,7235 INDIANA ST,DEARBORN,MI,,US,,,,United States Postal Service,Q668687
4812600058,usps_collection_boxes,USPS COLLECTION BOX - BLUE BOX,7551 WYOMING ST,DEARBORN,MI,,US,,,,United States Postal Service,Q668687
4812600007,usps_collection_boxes,USPS COLLECTION BOX - BLUE BOX,7930 CALHOUN ST,DEARBORN,MI,,US,,,,United States Postal Service,Q668687
,visa,,,DETROIT,MI,,US,,,,,
,visa,,,DEARBORN,MI,,US,,,,,
,visa,,,DEARBORN,MI,,US,,,,,
,visa,,,DEARBORN,MI,,US,,,,,
,visa,,,DEARBORN,MI,,US,,,,,
,visa,,,DEARBORN,MI,,US,,,,,
,visa,,,DEARBORN,MI,,US,,,,,
,visa,,,DEARBORN HEIGHTS,MI,,US,,,,,
,visa,,,DEARBORN,MI,,US,,,,,
,visa,,,DEARBORN,MI,,US,,,,,
,visa,,,DEARBORN,MI,,US,,,,,
,visa,,,DEARBORN,MI,,US,,,,,
,visa,,,DEARBORN,MI,,US,,,,,
,visa,,,DEARBORN,MI,,US,,,,,
,visa,,,DEARBORN,MI,,US,,,,,
,visa,,,DEARBORN,MI,,US,,,,,
,visa,,,PARMA,MI,,US,,,,,
,visa,,,DEARBORN,MI,,US,,,,,
,visa,,,DEARBORN,MI,,US,,,,,
,visa,,,DEARBORN,MI,,US,,,,,
,visa,,,DEARBORN,MI,,US,,,,,
,visa,,,DEARBORN,MI,,US,,,,,
,visa,,,DEARBORN,MI,,US,,,,,
,visa,,,DEARBORN,MI,,US,,,,,
,visa,,,DEARBORN,MI,,US,,,,,
,visa,,,DEARBORN,MI,,US,,,,,
,visa,,,DEARBORN,MI,,US,,,,,
,visa,,,DEARBORN,MI,,US,,,,,
,visa,,,DEARBORN,MI,,US,,,,,
,visa,,,DEARBORN,MI,,US,,,,,
,visa,,,DEARBORN,MI,,US,,,,,
,visa,,,DEARBORN,MI,,US,,,,,
,visa,,,DEARBORN,MI,,US,,,,,
,visa,,,DEARBORN,MI,,US,,,,,
,visa,,,DEARBORN,MI,,US,,,,,
,visa,,,DEARBORN,MI,,US,,,,,
,visa,,,DEARBORN,MI,,US,,,,,
,visa,,,DEARBORN,MI,,US,,,,,
,visa,,,DEARBORN,MI,,US,,,,,
,visa,,,DEARBORN,MI,,US,,,,,
,visa,,,DEARBORN,MI,,US,,,,,
,visa,,,DEARBORN,MI,,US,,,,,
,visa,,,DEARBORN,MI,,US,,,,,
,visa,,,DEARBOR,MI,,US,,,,,
,visa,,,DEARBORN,MI,,US,,,,,
,visa,,,DEARBORN,MI,,US,,,,,
,visa,,,DEARBORN,MI,,US,,,,,
,visa,,,DEARBORN,MI,,US,,,,,
,visa,,,DEARBORN,MI,,US,,,,,
,visa,,,DEARBORN,MI,,US,,,,,
,visa,,,DEARBORN,MI,,US,,,,,
,visa,,,DEARBORN,MI,,US,,,,,
,visa,,,DEARBORN,MI,,US,,,,,
,visa,,,DEARBORN,MI,,US,,,,,
,visa,,,STERLING HGTS.,MI,,US,,,,,
,visa,,,DEARBORN,MI,,US,,,,,
,visa,,,DEARBORN,MI,,US,,,,,
,visa,,,DEARBORN,MI,,US,,,,,
,visa,,,DEARBORN,MI,,US,,,,,
,visa,,,DEARBORN,MI,,US,,,,,
,visa,,,DEARBORN,MI,,US,,,,,
,visa,,,DEARBORN,MI,,US,,,,,
,visa,,,DEARBORN,MI,,US,,,,,
,visa,,,DEARBORN,MI,,US,,,,,
,visa,,,DEARBORN,MI,,US,,,,,
,visa,,,DEARBORN,MI,,US,,,,,
,visa,,,DETROIT,MI,,US,,,,,
,visa,,,DEARBORN,MI,,US,,,,,
,visa,,,DEARBORN,MI,,US,,,,,
,visa,,,DEARBORN,MI,,US,,,,,
,visa,,,DEARBORN,MI,,US,,,,,
,visa,,,DEARBORN,MI,,US,,,,,
,visa,,,DEARBORN,MI,,US,,,,,
,visa,,,DEARBORN,MI,,US,,,,,
,visa,,,DEARBORN,MI,,US,,,,,
,visa,,,DEARBORN,MI,,US,,,,,
,visa,,,DEARBORN,MI,,US,,,,,
,visa,,,DEARBORN,MI,,US,,,,,
,visa,,,DEARBORN,MI,,US,,,,,
,visa,,,DEARBORN,MI,,US,,,,,
,visa,,,DEARBORN,MI,,US,,,,,
,visa,,,DEARBORN,MI,,US,,,,,
,visa,,,DEARBORN,MI,,US,,,,,
,visa,,,DEARBORN,MI,,US,,,,,
,visa,,,DEARBORN,MI,,US,,,,,
,visa,,,DEARBORN,MI,,US,,,,,
,visa,,,DEARBORN,MI,,US,,,,,
,visa,,,DEARBORN,MI,,US,,,,,
,visa,,,DEARBORN,MI,,US,,,,,
,visa,,,DEARBORN,MI,,US,,,,,
,visa,,,DEARBORN,MI,,US,,,,,
,visa,,,DEARBORN,MI,,US,,,,,
,visa,,,DEARBORN,MI,,US,,,,,
,visa,,,DEARBORN,MI,,US,,,,,
,visa,,,DEARBORN,MI,,US,,,,,
,visa,,,DEARBORN,MI,,US,,,,,
,visa,,,DEARBORN,MI,,US,,,,,
,visa,,,DEARBORN,MI,,US,,,,,
,visa,,,DEARBORN,MI,,US,,,,,
,visa,,,DEARBORN,MI,,US,,,,,
,visa,,,DEARBORN,MI,,US,,,,,
,visa,,,DEARBORN,MI,,US,,,,,
,visa,,,DEARBORN,MI,,US,,,,,
,visa,,,DEARBORN,MI,,US,,,,,
,visa,,,DEARBORN,MI,,US,,,,,
,visa,,,DEARBORN,MI,,US,,,,,
,visa,,,DEARBORN,MI,,US,,,,,
,visa,,,DEARBORN,MI,,US,,,,,
,visa,,,DEARBORN,MI,,US,,,,,
,visa,,,DEARBORN,MI,,US,,,,,
,visa,,,DEARBORN,MI,,US,,,,,
,visa,,,DEARBORN,MI,,US,,,,,
,visa,,,DEARBORN,MI,,US,,,,,
,visa,,,DEARBORN,MI,,US,,,,,
,visa,,,DEARBORN,MI,,US,,,,,
,visa,,,DEARBORN,MI,,US,,,,,
,visa,,,DEARBORN,MI,,US,,,,,
,visa,,,DEARBORN,MI,,US,,,,,
,visa,,,DEARBORN,MI,,US,,,,,
,visa,,,DEARBORN,MI,,US,,,,,
,visa,,,DEARBORN,MI,,US,,,,,
,visa,,,DEARBORN,MI,,US,,,,,
,visa,,,DEARBORN,MI,,US,,,,,
,visa,,,DEARBORN,MI,,US,,,,,
,visa,,,DEARBORN,MI,,US,,,,,
,visa,,,DEARBORN,MI,,US,,,,,
,visa,,,DEARBORN,MI,,US,,,,,
,visa,,,DEARBORN,MI,,US,,,,,
,visa,,,DEARBORN,MI,,US,,,,,
,visa,,,DEARBORN,MI,,US,,,,,
,visa,,,DEARBORN,MI,,US,,,,,
,visa,,,DEARBORN,MI,,US,,,,,
,visa,,,DEARBORN,MI,,US,,,,,
,visa,,,DEARBORN,MI,,US,,,,,
,visa,,,DEARBORN,MI,,US,,,,,
,visa,,,DEARBORN,MI,,US,,,,,
,visa,,,DEARBORN,MI,,US,,,,,
,visa,,,DEARBORN,MI,,US,,,,,
,visa,,,DETROIT,MI,,US,,,,,
,visa,,,DEARBORN,MI,,US,,,,,
,visa,,,DEARBORN,MI,,US,,,,,
,visa,,,DEARBORN,MI,,US,,,,,
,visa,,,DEARBORN,MI,,US,,,,,
,visa,,,DEARBORN,MI,,US,,,,,
,visa,,,DEARBORN,MI,,US,,,,,
,visa,,,DEARBORN,MI,,US,,,,,
,visa,,,DEARBORN,MI,,US,,,,,
,visa,,,DEARBORN,MI,,US,,,,,
,visa,,,DEARBORN,MI,,US,,,,,
,visa,,,DEARBORN,MI,,US,,,,,
,visa,,,DEARBORN,MI,,US,,,,,
,visa,,,LIVONIA,MI,,US,,,,,
https://www.walgreens.com/locator/walgreens-15450+michigan+ave-dearborn-mi-48126/id=4992,walgreens,Walgreens,,Dearborn,MI,,US,+1 313-584-5820,https://www.walgreens.com/locator/walgreens-15450+michigan+ave-dearborn-mi-48126/id=4992,Mo-Su 09:00-21:00,Walgreens,Q1591889
https://www.walgreens.com/locator/walgreens-13601+w+warren+ave-dearborn-mi-48126/id=5032,walgreens,Walgreens,,Dearborn,MI,,US,+1 313-624-9530,https://www.walgreens.com/locator/walgreens-13601+w+warren+ave-dearborn-mi-48126/id=5032,Mo-Sa 08:00-22:00; Su 09:00-23:00,Walgreens,Q1591889
a552b1157e62303d58979b75c99353e8,western_union,THE HOOKAH SHOP,,Dearborn,MI,,US,+1 313-768-5500,https://location.westernunion.com/us/mi/dearborn/a552b1157e62303d58979b75c99353e8,Mo-Su 10:00-02:00,Western Union,Q861042
c318fa256bc4b752e0b9f33eea9f4ad5,western_union,INSTACARE PHARMACY,,Dearborn,MI,,US,+1 313-800-1111,https://location.westernunion.com/us/mi/dearborn/c318fa256bc4b752e0b9f33eea9f4ad5,Mo-Fr 10:00-18:00; Sa 10:00-14:00,Western Union,Q861042
dc2668d8a192edd56df37791289c7358,western_union,ADVANCE AMERICA #01303,,Dearborn,MI,,US,+1 313-624-9109,https://location.westernunion.com/us/mi/dearborn/dc2668d8a192edd56df37791289c7358,Mo-Th 10:00-18:00; Fr 09:00-18:00; Sa 10:00-14:00,Western Union,Q861042
819b0ca4b2839f5082cefaba77124ae1,western_union,DOLLAR PRINCE,,Dearborn,MI,,US,+1 313-581-5633,https://location.westernunion.com/us/mi/dearborn/819b0ca4b2839f5082cefaba77124ae1,Mo 09:00-20:00; Tu-Sa 08:00-20:00; Su 10:00-19:00,Western Union,Q861042
b11a77a49295b46e85d19a0aa0ae2c84,western_union,WALMART #004383,,Dearborn,MI,,US,+1 313-441-0194,https://location.westernunion.com/us/mi/dearborn/b11a77a49295b46e85d19a0aa0ae2c84,Mo-Sa 08:00-20:00; Su 10:00-18:00,Western Union,Q861042
2aaa84d9eed384411603ca53a633ba31,western_union,TABARAK MONEY TRANSFER,,Dearborn,MI,,US,+1 248-938-9999,https://location.westernunion.com/us/mi/dearborn/2aaa84d9eed384411603ca53a633ba31,Mo-Su 08:00-24:00,Western Union,Q861042
fefcab847a7da48ff38f38c51049f299,western_union,FAST LINE IMPORTS EXPORTS,,Dearborn,MI,,US,+1 313-438-6078,https://location.westernunion.com/us/mi/dearborn/fefcab847a7da48ff38f38c51049f299,Mo-Su 07:00-24:00,Western Union,Q861042
83547b546fc77591eb7619486c4b378c,western_union,MONEYCENTER,,Dearborn,MI,,US,+1 313-457-0280,https://location.westernunion.com/us/mi/dearborn/83547b546fc77591eb7619486c4b378c,Mo-Fr 09:00-18:00,Western Union,Q861042
4cb52450ec4b888a53ad796bd825fae1,western_union,SANA A EXPRESS MART,,Dearborn,MI,,US,+1 313-438-0043,https://location.westernunion.com/us/mi/dearborn/4cb52450ec4b888a53ad796bd825fae1,Mo-Su 09:30-22:00,Western Union,Q861042
7cf757b332c0d51ff047889fcd97b34d,western_union,1TAX,,Dearborn,MI,,US,+1 313-818-8100,https://location.westernunion.com/us/mi/dearborn/7cf757b332c0d51ff047889fcd97b34d,Mo-Su 10:00-22:00,Western Union,Q861042
125155,wingstop,Wingstop Dearborn Ford Rd,16351 Ford Rd,Dearborn,MI,,US,+1 313-771-9464,,,Wingstop,Q8025339
