Ref,Spider,Name,Address,City,State,Zipcode,Country,Phone,Website,Hours,Brand,WikiData
gdps_vst-0651143,activ_fitness_ch,Activ Fitness,,Aigle,,,CH,+41 24 466 40 85,https://www.activfitness.ch/studios/activ-fitness-aigle/,,Activ Fitness,Q123747318
1576535737,bp,BP Station Aigle,,Aigle,,,CH,,,,BP,Q152057
place-de-la-gare-5-1860-aigle,denner_ch,Denner,,Aigle,,,CH,+41 58 999 07 60,https://www.denner.ch/de/filialen/denner-filiale-und-oeffnungszeiten/store/place-de-la-gare-5-1860-aigle/,Mo-We 07:00-18:30; Th 07:00-21:30; Fr 07:00-18:30; Sa 07:00-17:00,Denner,Q379911
einkaufszentrum-chablais-sous-le-grand-pre-4-1860-aigle,denner_ch,Denner,,Aigle,,,CH,+41 58 999 07 82,https://www.denner.ch/de/filialen/denner-filiale-und-oeffnungszeiten/store/einkaufszentrum-chablais-sous-le-grand-pre-4-1860-aigle/,Mo-Th 08:00-18:30; Fr 08:00-21:00; Sa 08:00-17:00,Denner,Q379911
sharedmobility.ch:carvelo2go:398f5f13-fe83-4b3f-d2f1-e6396c0372ed,gbfs,Centre Mondial du Cyclisme UCI,,,,,CH,,https://www.sharedmobility.ch/info,,sharedmobility.ch,
6109,jysk,Aigle,,Aigle,,,CH,+41 24 468 08 00,https://jysk.ch/de/filialen?storeId=6109,Mo-Fr 09:00-18:30; Sa 09:00-17:00,JYSK,Q138913
landi-aigle,landi_ch,Landi,,Aigle,,,CH,+41 58 476 53 30,http://www.landichablaislavaux.ch,Mo-Fr 08:30-18:30; Sa 08:00-17:00,Landi,Q1803010
223,lidl_ch,Lidl,,Aigle,,,CH,,,Mo-Th 07:30-18:30; Fr 07:30-21:00; Sa 07:30-17:00,Lidl,Q151954
0063665_super,migros_ch,Migros,,Aigle,,,CH,+41 58 573 68 35,https://filialen.migros.ch/de/migros-supermarkt-aigle-gare,Mo-Th 07:00-18:30; Fr 07:00-21:00; Sa 07:00-17:00,Migros,Q115661152
0065100_1294_pickmup_247pmubox,migros_ch,PickMup Box,,Aigle,,,CH,+41 58 573 51 00,https://filialen.migros.ch/de/24-7-box-m-chablais-centre-aigle-chablais-centre,24/7,PickMup Box,Q115679275
0065680_res,migros_ch,Migros Restaurant,,Aigle,,,CH,+41 58 573 51 80,https://filialen.migros.ch/de/migros-restaurant-aigle-chablais-centre,Mo-Th 08:00-18:30; Fr 08:00-21:00; Sa 08:00-17:00,Migros Restaurant,Q111803848
0065680_gour,migros_ch,Migros Take Away,,Aigle,,,CH,+41 58 573 51 80,https://filialen.migros.ch/de/take-away-aigle-chablais-centre,Mo-Th 08:00-18:30; Fr 08:00-21:00; Sa 08:00-17:00,Migros Take Away,Q111826610
0065230_spx,migros_ch,SportXX,,Aigle,,,CH,+41 58 573 51 50,https://filialen.migros.ch/de/sportx-aigle-chablais-centre,Mo 09:00-18:30; Tu-Th 08:30-18:30; Fr 08:30-21:00; Sa 08:00-17:00,SportXX,Q19309319
0065100_super,migros_ch,Migros,,Aigle,,,CH,+41 58 573 51 00,https://filialen.migros.ch/de/migros-supermarkt-aigle-chablais-centre,Mo-Th 08:00-18:30; Fr 08:00-21:00; Sa 08:00-17:00,Migros,Q115661152
0065100_flori,migros_ch,Florissimo,,Aigle,,,CH,+41 58 573 51 00,https://filialen.migros.ch/de/florissimo-aigle-chablais-centre,Mo-Th 08:00-18:30; Fr 08:00-21:00; Sa 08:00-17:00,Florissimo,Q115659418
CHH01860,neuroth,Neuroth,"Place du March√© 3, 1860 Aigle, CH",Aigle,,,CH,+41 24 466 68 13,https://ch.neuroth.com/filialen/place-du-marche-3-aigle/,"Mo-Fr 08:30-12:00,13:00-17:30",Neuroth,Q15836645
bb2868b3-e2a3-4d00-afc2-d853592692fd,scania,KOLLY Aigle SA,,Aigle,,,CH,+41 24 424 33 00,,"Mo-Fr 07:00-12:00,13:15-17:00",Scania,Q219960
4169,valora,k kiosk,,Aigle,,,CH,,,,k kiosk,Q60381703
4112,valora,k kiosk,,Aigle,,,CH,,,,k kiosk,Q60381703
4110,valora,k kiosk,,Aigle,,,CH,,,,k kiosk,Q60381703
