Ref,Spider,Name,Address,City,State,Zipcode,Country,Phone,Website,Hours,Brand,WikiData
8037,aaa,Howell NJ,,Howell Township,NJ,,US,+1 732-780-7889,,,American Automobile Association,Q463436
https://stores.advanceautoparts.com/nj/howell/5139-us-highway-9,advance_auto_parts_us,Advance Auto Parts,,Howell,NJ,,US,+1 732-363-9363,https://stores.advanceautoparts.com/nj/howell/5139-us-highway-9,Mo-Sa 07:30-21:00; Su 09:00-20:00,Advance Auto Parts,Q4686051
https://stores.aldi.us/#4419855,aldi_sud_us,ALDI  6679 US Hwy 9,,Howell,NJ,,US,+1 888-460-7035,https://stores.aldi.us/nj/howell/6679-us-hwy-9,"Mo-Su 08:00-20:00,09:00-20:00",ALDI,Q41171672
https://restaurants.applebees.com/en-us/nj/howell/4721-us-hwy.-9-north-96067,applebees,Connect with this Applebee's,,Howell,NJ,,US,+1 732-961-9400,https://restaurants.applebees.com/en-us/nj/howell/4721-us-hwy.-9-north-96067,Mo-Th 11:00-24:00; Fr-Sa 11:00-01:00; Su 11:00-24:00,Applebees,Q621532
6441,autozone_us,AutoZone Auto Parts Howell,,Howell,NJ,,US,+1 848-299-0000,https://www.autozone.com/locations/nj/howell/4545-u-s--hwy-9.html,Mo-Sa 08:00-21:00; Su 08:00-20:00,AutoZone,Q4826087
https://locators.bankofamerica.com/nj/howell/financial-centers-howell-15010.html,bankofamerica,Bank of America Financial Center & Drive-Thru ATM | Howell,,Howell,NJ,,US,+1 732-942-7905,https://locators.bankofamerica.com/nj/howell/financial-centers-howell-15010.html,Mo-Fr 10:00-16:00,Bank of America,Q487907
BBW02604,bathandbodyworks_us,HOWELL COMMONS,,HOWELL,NJ,,US,+1 848-373-2034,,Mo-Sa 10:00-21:00; Su 11:00-19:00,Bath & Body Works,Q810773
0371,bjswholesale,Howell,,Howell,NJ,,US,+1 732-886-3240,https://www.bjs.com/mapDetail;city=0371,Mo-Fr 08:00-21:00,BJ's Wholesale,Q4835754
37452,bluerhino,Howell Exxon,,Howell,NJ,,US,+1 732-367-0672,,,Blue Rhino,Q65681213
207901,bluerhino,Quick Chek #151,,Howell,NJ,,US,+1 732-370-1869,,,Blue Rhino,Q65681213
8366,bluerhino,Walmart #2195,,Howell,NJ,,US,+1 732-886-9100,,,Blue Rhino,Q65681213
68536,bluerhino,Lowe's #1676,,Howell,NJ,,US,+1 732-987-7050,,,Blue Rhino,Q65681213
50406958498700773100100000000000,bp,BP,,Howell,NJ,,US,+1 732-961-1722,,Mo-Su 05:00-23:00,BP,Q152057
1207,burlington_us,Burlington,,Howell,NJ,,US,+1 732-751-4166,https://stores.burlington.com/nj/howell/1207,Mo-Th 09:00-22:00; Fr-Sa 09:00-23:30; Su 09:00-22:00,Burlington,Q4999220
24796723,chase_us,Howell Rte 9 Aldrich - New branch,,Howell,NJ,,US,+1 732-462-7143,https://locator.chase.com/nj/howell/4001-us-highway-9,Mo-Fr 09:00-17:00; Sa 09:00-14:00,Chase,Q524629
nj_howell_4733-us-highway-9,chipotle, ,,Howell,NJ,,US,+1 732-364-3937,https://locations.chipotle.com/nj/howell/4733-us-highway-9,,Chipotle,Q465751
86416,citi,ATM Walgreens,,Howell,NJ,,US,,,,Citibank,Q857063
NJ145,citizens_us,Citizens Howell,,Howell,NJ,,US,+1 732-965-5804,,Mo-Fr 09:00-16:00; Sa 09:00-12:00,Citizens,Q5122694
ATM-2723,citizens_us,,,Howell,NJ,,US,+1 848-299-0813,,24/7,Citizens,Q5122694
howell/728,claires,Shop Ear Piercings & Jewelry at Howell Commons,,HOWELL,NJ,,US,+1 732-364-2133,https://stores.claires.com/us/nj/howell/728.html,Mo-Th 11:00-19:00; Fr-Sa 11:00-20:00; Su 12:00-18:00,Claire's,Q2974996
6166,dollartree,DollarTree,,Howell,NJ,,US,+1 848-299-0706,,Mo-Sa 09:00-21:00; Su 10:00-20:00,Dollar Tree,Q5289230
14675,dollar_general,Dollar General,,Howell,NJ,,US,+1 732-835-2570,https://www.dollargeneral.com/store-directory/nj/howell/14675,Mo-Su 08:00-21:00,Dollar General,Q145168
3968,dominos_pizza_us,Domino's Pizza,,Howell,NJ,,US,+1 732-901-7300,https://pizza.dominos.com/new-jersey/howell/4318-highway-9,Mo-Th 10:00-02:00; Fr-Sa 10:00-03:00; Su 10:00-02:00,Domino's,Q839466
336715,dunkin_us,Dunkin',,Howell,NJ,,US,+1 732-431-3249,https://locations.dunkindonuts.com/en/nj/howell/1994-route-9/336715,Mo-Su 05:00-20:00,Dunkin',Q847743
339301,dunkin_us,Dunkin',,Howell,NJ,,US,+1 732-886-6600,https://locations.dunkindonuts.com/en/nj/howell/4862-route-9/339301,Mo-Su 05:30-20:00,Dunkin',Q847743
335955,dunkin_us,Dunkin',,Howell,NJ,,US,+1 732-942-9948,https://locations.dunkindonuts.com/en/nj/howell/4199-route-9-n/335955,Mo-Su 04:00-21:00,Dunkin',Q847743
0667,european_wax_center_us,European Wax Center,,Howell,NJ,,US,+1 732-730-3929,https://locations.waxcenter.com/nj/howell/howell-0667.html,Mo-Tu 09:00-19:00; We-Th 09:00-21:00; Fr 09:00-19:00; Sa 09:00-17:00; Su 09:00-16:00,European Wax Center,Q5413426
320246,extra_space_storage,Howell Self Storage at 5440 US-9,,Howell,NJ,,US,+1 732-364-5800,https://www.extraspace.com/storage/facilities/us/new_jersey/howell/320246/,Mo-Fr 09:30-18:00; Sa 09:00-17:30,Extra Space Storage,Q5422162
200318265,exxonmobil,HOWELL FUEL LLC,,HOWELL,NJ,,US,+1 732-367-0672,https://www.exxon.com/en/find-station/exxon-howell-nj-howellfuelllc-200318265,Mo-Sa 06:00-23:00; Su 07:00-22:00,Exxon,Q109675651
https://locations.fivebelow.com/nj/howell/4921-us-rt-9,five_below,Five Below Lanes Mill Marketplace,,Howell,NJ,,US,,https://locations.fivebelow.com/nj/howell/4921-us-rt-9,Mo-Sa 10:00-20:00; Su 11:00-18:00,Five Below,Q5455836
https://restaurants.fiveguys.com/#15552690,five_guys_us,Five Guys Candlewood Shopping Center,,Howell,NJ,,US,+1 732-364-6805,https://restaurants.fiveguys.com/4220-route-9-south,"Mo-Su 11:00-21:30,11:00-22:00",Five Guys,Q1131810
3084,gamestop_us,Lanes Mill Marketplace,,Howell,NJ,,US,+1 732-370-6894,https://www.gamestop.com/search/?store=3084,Mo-Th 12:00-20:00; Fr-Sa 11:00-21:00; Su 11:00-20:00,GameStop,Q202210
https://stores.gnc.com/#24059485,gnc,GNC Aldrich Shopping Center,,,NJ,,US,+1 732-367-7778,https://stores.gnc.com/all-stores-new-jersey/howell/4063-route-9-north,Mo-Fr 09:00-21:00; Sa 09:00-19:00; Su 10:00-17:00,GNC,Q4808595
https://salons.greatclips.com/us/nj/howell/4707-us-hwy-9,greatclips,Great Clips,,Howell,NJ,,US,+1 732-730-1003,https://salons.greatclips.com/us/nj/howell/4707-us-hwy-9,Mo-Fr 09:00-19:00; Sa 09:00-18:00; Su 10:00-17:00,Great Clips,Q5598967
https://www.harborfreight.com/storelocator/4004-route-9-s-howell-07731?number=3050,harborfreight,"Harbor Freight Tools Howell, NJ",,Howell,NJ,,US,+1 732-863-2838,https://www.harborfreight.com/storelocator/4004-route-9-s-howell-07731?number=3050,Mo-Sa 08:00-20:00; Su 09:00-18:00,Harbor Freight Tools,Q5654601
28262,h_r_block,H&R Block,,Howell,NJ,,US,+1 732-364-3000,https://www.hrblock.com/local-tax-offices/new-jersey/howell/howell-commons/28262/,,H&R Block,Q5627799
nj_howell_breakfast-4731-route-9-3386,ihop,IHOP Breakfast Restaurants Near You at 4731 Route 9,,Howell,NJ,,US,+1 732-961-1000,https://restaurants.ihop.com/en-us/nj/howell/breakfast-4731-route-9-3386,,IHOP,Q1185675
https://locations.kfc.com/#11250158,kfc,Chicken Nuggets Near Howell,,Howell,NJ,,US,,https://locations.kfc.com/nj/howell/1466-route-9-south/chickennugget,,KFC,Q524757
476,kohls_us,Kohl's,,Howell,NJ,,US,+1 732-886-0101,https://www.kohls.com/stores/nj/howell-476.shtml,Mo-Sa 09:00-22:00; Su 09:00-21:00,Kohl's,Q967265
72346,lukoil,57739,"2510 Route 9, Howell, NJ, 07731",Howell,NJ,,US,,,24/7,Lukoil,Q329347
72338,lukoil,57724,"3401 Route 9 N, Howell, NJ, 07731",Howell,NJ,,US,,,Mo-Su 05:00-24:00,Lukoil,Q329347
18361,mattress_firm_us,Mattress Firm Howell Route 9 North,,Howell Township,NJ,,US,+1 732-901-0171,https://www.mattressfirm.com/en-us/stores/nj/howell/166070/,,Mattress Firm,Q6791878
0398,mattress_warehouse_us,Mattress Warehouse,,Howell,NJ,,US,+1 732-800-0880,https://mattresswarehouse.com/store-locator/mattress-warehouse-of-howell-0398-howell-nj,Mo-Fr 10:00-21:00; Sa 10:00-20:00; Su 11:00-18:00,Mattress Warehouse,Q61995079
975,party_city,Howell Commons,,Howell,NJ,,US,+1 732-835-7778,https://stores.partycity.com/us/nj/howell/party-store-pc975.html,,Party City,Q7140896
648322,penske,Home Depot #933,,HOWELL,NJ,,US,+1 732-984-6831,https://www.pensketruckrental.com/locations/us/new_jersey/howell/648322/,,Penske,Q81234570
restaurant_85387,popeyes_us_fr,Popeyes,"4270 U.S. Highway 9 Howell, New Jersey 07731 - USA",Howell,NJ,,US,+1 732-994-7324,https://www.popeyes.com/store-locator/store/restaurant_85387,Mo-Su 10:30-21:00,Popeyes,Q1330910
home-depot-0933-13154,ppgpaints,HOME DEPOT 0933,,"Howell, ",NJ,,US,+1 732-409-9996,https://www.ppgpaints.com/store-locator/us/new-jersey/howell-paint-stores/home-depot-0933-13154,,PPG Paints,Q83891559
https://www.publicstorage.com/self-storage-nj-howell/1033.html,public_storage_us,Public Storage,,Howell,NJ,,US,+1 848-863-8887,https://www.publicstorage.com/self-storage-nj-howell/1033.html,,Public Storage,Q1156045
81134,ritasitalianice,Ritaâ€™s of Howell NJ,,Howell,NJ,,US,+1 848-777-4827,https://www.ritasice.com/location/ritas-of-howell-nj/,,Rita's Italian Ice,Q7336456
https://stores.saloncentric.com/#39956546,salon_centric_us,SalonCentric,,,NJ,,US,+1 732-210-0056,https://stores.saloncentric.com/nj/howell/3222,Mo 08:00-18:30; Tu-Fr 08:00-18:00; Sa 08:00-16:00; Su 12:00-16:00,SalonCentric,Q124339481
631,shoprite,ShopRite of Howell,,Howell,NJ,,US,+1 848-299-0080,https://www.shoprite.com/sm/planning/rsid/631,Mo-Sa 07:00-23:00,ShopRite,Q7501097
4514-rt-9-south,staples,"Staples Howell, NJ",,Howell,NJ,,US,,https://stores.staples.com/nj/howell/4514-rt-9-south,Mo-Fr 09:00-20:00; Sa 09:00-18:00; Su 11:00-18:00,Staples,Q785943
0815,stop_and_shop,Super Stop & Shop,4861 US Highway 9,Howell,NJ,,US,,,,Stop and Shop,Q3658429
https://locations.tacobell.com/#6143879,taco_bell,Taco Bell,,Howell,NJ,,US,+1 732-364-0015,https://locations.tacobell.com/nj/howell/3810-rt-9-s.html,Mo-Th 08:00-02:00; Fr-Sa 08:00-03:00; Su 08:00-02:00,Taco Bell,Q752941
08264,tjx,Howell,4773 Route 9 North,Howell,NJ,,US,+1 732-730-2860,,Mo-Sa 09:30-21:30; Su 10:00-20:00,TJ Maxx,Q10860683
4234,tmobile_us,US Highway 9 & Lanes Mill Rd,,Howell,NJ,,US,+1 732-276-1698,https://www.t-mobile.com/store-locator/nj/howell/us-highway-9-lanes-mill-rd,,T-Mobile,Q3511885
1367511,usps,HOWELL,,HOWELL,NJ,,US,+1 732-364-5288,,Mo-Fr 10:00-17:00; Sa 08:00-12:00,United States Postal Service,Q668687
0773100012,usps_collection_boxes,USPS COLLECTION BOX - BLUE BOX,99 WILLOW POND DR,HOWELL,NJ,,US,,,,United States Postal Service,Q668687
0773100026,usps_collection_boxes,USPS COLLECTION BOX - BLUE BOX,2228 US HIGHWAY 9,HOWELL,NJ,,US,,,,United States Postal Service,Q668687
0773100002,usps_collection_boxes,USPS COLLECTION BOX - BLUE BOX,3001 US HIGHWAY 9,HOWELL,NJ,,US,,,,United States Postal Service,Q668687
0773100036,usps_collection_boxes,USPS COLLECTION BOX - BLUE BOX,4059 US HIGHWAY 9,HOWELL,NJ,,US,,,,United States Postal Service,Q668687
0773100038,usps_collection_boxes,USPS COLLECTION BOX - APC,4170 US HIGHWAY 9,HOWELL,NJ,,US,,,,United States Postal Service,Q668687
0773100017,usps_collection_boxes,USPS COLLECTION BOX - BLUE BOX,4170 US HIGHWAY 9,HOWELL,NJ,,US,,,,United States Postal Service,Q668687
0773100039,usps_collection_boxes,USPS COLLECTION BOX - PO LOBBY,4170 US HIGHWAY 9,HOWELL,NJ,,US,,,,United States Postal Service,Q668687
0773100037,usps_collection_boxes,USPS COLLECTION BOX - BLUE BOX,4170 US HIGHWAY 9,HOWELL,NJ,,US,,,,United States Postal Service,Q668687
0773100046,usps_collection_boxes,USPS COLLECTION BOX - PO LOBBY,4170 US HIGHWAY 9,HOWELL,NJ,,US,,,,United States Postal Service,Q668687
0773100001,usps_collection_boxes,USPS COLLECTION BOX - BLUE BOX,4261 US HIGHWAY 9,HOWELL,NJ,,US,,,,United States Postal Service,Q668687
0773100024,usps_collection_boxes,USPS COLLECTION BOX - BLUE BOX,305 CANDLEWOOD COMMONS,HOWELL,NJ,,US,,,,United States Postal Service,Q668687
0773100023,usps_collection_boxes,USPS COLLECTION BOX - BLUE BOX,4689 US HIGHWAY 9,HOWELL,NJ,,US,,,,United States Postal Service,Q668687
0773100016,usps_collection_boxes,USPS COLLECTION BOX - BLUE BOX,125 NEWTONS CORNER RD,HOWELL,NJ,,US,,,,United States Postal Service,Q668687
0773100015,usps_collection_boxes,USPS COLLECTION BOX - BLUE BOX,20 RAMTOWN GREENVILLE RD,HOWELL,NJ,,US,,,,United States Postal Service,Q668687
R00000149154,verizon_us,Howell,,Howell,NJ,,US,+1 732-730-8501,https://www.verizon.com/stores/details/new-jersey/howell/howell-231622/,Mo-Sa 09:00-19:00; Su 10:00-17:00,Verizon,Q919641
,visa,,,HOWELL,NJ,,US,,,,,
,visa,,,HOWELL,NJ,,US,,,,,
,visa,,,HOWELL,NJ,,US,,,,,
,visa,,,HOWELL,NJ,,US,,,,,
,visa,,,HOWELL,NJ,,US,,,,,
,visa,,,HOWELL,NJ,,US,,,,,
,visa,,,HOWELL,NJ,,US,,,,,
,visa,,,HOWELL,NJ,,US,,,,,
,visa,,,HOWELL,NJ,,US,,,,,
,visa,,,HOWELL,NJ,,US,,,,,
,visa,,,HOWELL,NJ,,US,,,,,
,visa,,,HOWELL,NJ,,US,,,,,
,visa,,,HOWELL,NJ,,US,,,,,
,visa,,,HOWELL,NJ,,US,,,,,
,visa,,,HOWELL,NJ,,US,,,,,
,visa,,,HOWELL,NJ,,US,,,,,
,visa,,,HOWELL,NJ,,US,,,,,
,visa,,,HOWELL,NJ,,US,,,,,
,visa,,,HOWELL,NJ,,US,,,,,
https://www.walgreens.com/locator/walgreens-1020+us+highway+9-howell-nj-07731/id=10861,walgreens,Walgreens,,Howell,NJ,,US,+1 732-414-3821,https://www.walgreens.com/locator/walgreens-1020+us+highway+9-howell-nj-07731/id=10861,Mo-Su 07:00-22:00,Walgreens,Q1591889
https://www.walgreens.com/locator/walgreens-4011+us+highway+9-howell-nj-07731/id=13722,walgreens,Walgreens,,Howell,NJ,,US,+1 732-414-3617,https://www.walgreens.com/locator/walgreens-4011+us+highway+9-howell-nj-07731/id=13722,Mo-Su 08:00-22:00,Walgreens,Q1591889
3001__US__HWY__9_HOWELL_NJ_07731,wellsfargo,Wells Fargo,3001 US HWY 9,HOWELL,NJ,,US,+1 732-730-2021,https://www.wellsfargo.com/locator/bank/3001__US__HWY__9_HOWELL_NJ_07731/,Mo-Fr 09:00-17:00,Wells Fargo,Q744149
https://locations.wendys.com/#9253028,wendys,"Wendy's Howell in Howell, NJ",,Howell,NJ,,US,+1 732-987-4704,https://locations.wendys.com/united-states/nj/howell/4510-us-9,"Mo-Su 06:30-10:30,06:30-22:00",Wendy's,Q550258
4a334ddb72892fdf10626cfd2524e6b1,western_union,7-ELEVEN #33216,,Howell,NJ,,US,+1 732-761-9661,https://location.westernunion.com/us/nj/howell/4a334ddb72892fdf10626cfd2524e6b1,,Western Union,Q861042
d64ecbb4367d6d78b5f5a6d381d35092,western_union,WALMART #002195,,Howell,NJ,,US,+1 732-886-9100,https://location.westernunion.com/us/nj/howell/d64ecbb4367d6d78b5f5a6d381d35092,Mo-Su 07:00-21:00,Western Union,Q861042
699b10afd8b6db75cdafe98c0b4cd34b,western_union,FRIENDZ FINANCIAL INC,,Howell,NJ,,US,+1 732-431-4269,https://location.westernunion.com/us/nj/howell/699b10afd8b6db75cdafe98c0b4cd34b,Mo-Sa 10:00-19:00,Western Union,Q861042
