Ref,Spider,Name,Address,City,State,Zipcode,Country,Phone,Website,Hours,Brand,WikiData
Ford13090INDen,ford,"Venus Ford, Moradabad",,Moradabad,,,IN,+91 86575 68878,,,Ford,Q44294
68362188,moneygram,MANAPPURAM FINANCE - #3223 - MORADABAD,,MORADABAD,,,IN,+91 591 245 5424,,Mo-Sa 09:30-18:30; Su 00:00-24:00,MoneyGram,Q1944412
68363624,moneygram,MANAPPURAM FINANCE - #3222 - MORADABAD,,MORADABAD,,,IN,+91 591 249 7605,,Mo-Sa 09:30-18:30; Su 00:00-24:00,MoneyGram,Q1944412
68363886,moneygram,MANAPPURAM FINANCE - #3333 - MORADABAD,,MORADABAD,,,IN,+91 591 249 1366,,Mo-Sa 09:30-18:30; Su 00:00-24:00,MoneyGram,Q1944412
72428649,moneygram,GHIRAK SEVA KENDRA - MORADABAD - MORADAB,,MORADABAD,,,IN,+91 89388 31365,,Mo-Su 09:00-21:00,MoneyGram,Q1944412
72482834,moneygram,AL YAMAAN TOURS AND TRAVELS - MORADABAD,,MORADABAD,,,IN,+91 97191 78609,,Mo-Su 09:00-21:00,MoneyGram,Q1944412
72483655,moneygram,AL-SALMAN TRAVELS & TOURS - MORADABAD -,,MORADABAD,,,IN,+91 94580 80786,,Mo-Su 09:00-21:00,MoneyGram,Q1944412
72545616,moneygram,ABHINAV RASTOGI,,MORADABAD,,,IN,+91 97190 05346,,Mo-Su 08:00-21:00,MoneyGram,Q1944412
72563669,moneygram,AKHILESH RASTOGI,,MORADABAD,,,IN,+91 98375 70122,,Mo-Su 08:00-21:00,MoneyGram,Q1944412
72606283,moneygram,HOME CITY SERVICES,,MORADABAD,,,IN,+91 78951 00222,,Mo-Su 08:00-21:00,MoneyGram,Q1944412
72604939,moneygram,HONEY TRADERS,,MORADABAD,,,IN,+91 94121 47773,,Mo-Su 08:00-21:00,MoneyGram,Q1944412
72595433,moneygram,ADNAN PHOTO STUDIO PHOTO STATE,,MORADABAD,,,IN,+91 98372 82826,,Mo-Su 08:00-21:00,MoneyGram,Q1944412
72589012,moneygram,HARSHIT DIGITAL PHOTO CENTER,,MORADABAD,,,IN,+91 94571 89703,,Mo-Su 08:00-21:00,MoneyGram,Q1944412
72592627,moneygram,MS GEEAAR TRAVELS,,MORADABAD,,,IN,+91 78307 07086,,Mo-Su 08:00-21:00,MoneyGram,Q1944412
72594544,moneygram,MS MKCOMPUTER CENTER,,MORADABAD,,,IN,+91 93581 61793,,Mo-Su 08:00-21:00,MoneyGram,Q1944412
72596115,moneygram,WARSI ASSOCIATES,,MORADABAD,,,IN,+91 90122 37600,,Mo-Su 08:00-21:00,MoneyGram,Q1944412
72658480,moneygram,Z.A TOUR & TRAVELS - MORADABAD,,MORADABAD,,,IN,+91 72948 17421,,Mo-Su 09:00-21:00,MoneyGram,Q1944412
72673041,moneygram,AANSHI COMMUNICATIONS - MORADABAD,,MORADABAD,,,IN,+91 99175 74958,,Mo-Su 09:00-21:00,MoneyGram,Q1944412
72677788,moneygram,FASHION GEMS & JEWELLERY HUB - MORADABAD,,MORADABAD,,,IN,+91 93589 65754,,Mo-Su 08:00-20:00,MoneyGram,Q1944412
72684849,moneygram,S.H DESTINY TRAVEL - MORADABAD,,MORADABAD,,,IN,+91 98973 41158,,Mo-Su 09:00-21:00,MoneyGram,Q1944412
72769447,moneygram,MOBEEN MOBILE CENTER - MORADABAD,,MORADABAD,,,IN,+91 99272 41044,,Mo-Su 09:00-21:00,MoneyGram,Q1944412
72769395,moneygram,TRAVEL SOLUTION - MORADABAD,,MORADABAD,,,IN,+91 96534 24786,,Mo-Su 09:00-21:00,MoneyGram,Q1944412
72811201,moneygram,JAN SUVIDHA KENDRA - MORADABAD,,MORADABAD,,,IN,+91 97569 24143,,Mo-Su 08:00-20:00,MoneyGram,Q1944412
72895159,moneygram,ABDULLAH MONEY TRANSFAR,,MORADABAD,,,IN,+91 74094 87372,,Mo-Su 08:00-21:00,MoneyGram,Q1944412
72898020,moneygram,KALAM ENTERPRISES - MORADABAD,,MORADABAD,,,IN,+91 94118 97919,,Mo-Su 08:00-20:00,MoneyGram,Q1944412
72921379,moneygram,RUDRA TRAVELS AGENCY - MORADABAD,,MORADABAD,,,IN,+91 98370 40005,,Mo-Su 08:00-20:00,MoneyGram,Q1944412
72921353,moneygram,SAFAR ETIHAD TOUR AND TRAVELS - MORADABA,,MORADABAD,,,IN,+91 98113 72284,,Mo-Su 08:00-20:00,MoneyGram,Q1944412
72932407,moneygram,ALAM MOBILE REPAIRING CENTER - MORADABAD,,MORADABAD,,,IN,+91 98370 94249,,Mo-Su 08:00-20:00,MoneyGram,Q1944412
72932834,moneygram,ALIZA JAN SEWA KENDRA - MORADABAD,,MORADABAD,,,IN,+91 70558 46957,,Mo-Su 08:00-20:00,MoneyGram,Q1944412
72977307,moneygram,M S COMUNICATION - MORADABAD,,MORADABAD,,,IN,+91 74178 46414,,Mo-Su 08:00-20:00,MoneyGram,Q1944412
73224635,moneygram,MAROOF TOUR & TRAVELS - MORADABAD,,MORADABAD,,,IN,+91 88818 88195,,Mo-Su 06:00-20:00,MoneyGram,Q1944412
73260178,moneygram,MUTHOOT FINANCE LTD - #1276 - MORADABAD,,MORADABAD,,,IN,+91 591 241 0624,,Mo-Su 09:00-19:00,MoneyGram,Q1944412
73264174,moneygram,MUTHOOT FINANCE LTD - #1714 - MORADABAD,,MORADABAD,,,IN,+91 591 241 0851,,Mo-Su 09:00-19:00,MoneyGram,Q1944412
73275639,moneygram,MUTHOOT FINANCE LTD - #2556 - MORADABAD,,MORADABAD,,,IN,+91 591 249 2890,,Mo-Su 09:00-19:00,MoneyGram,Q1944412
73332475,moneygram,MUTHOOT FINCORP LIMITED - #F2572 - RAMPU,,MORADABAD,,,IN,+91 591 249 9666,,Mo-Sa 09:00-17:30; Su 00:00-24:00,MoneyGram,Q1944412
73041164,moneygram,GOTA HAR CORNER,,MORADABAD,,,IN,+91 99974 55656,,Mo-Su 08:00-21:00,MoneyGram,Q1944412
72973916,moneygram,ROOHI JAIN,,MORADABAD,,,IN,+91 94580 94577,,Mo-Su 08:00-21:00,MoneyGram,Q1944412
73411451,moneygram,CHOUDHARY TRAVELS,,MORADABAD,,,IN,+91 97596 83631,,Mo-Su 08:00-21:00,MoneyGram,Q1944412
73411448,moneygram,LIMRA TOUR & TRAVELS,,MORADABAD,,,IN,+91 90127 17624,,Mo-Su 08:00-21:00,MoneyGram,Q1944412
73438188,moneygram,GAURI TRAVELS,,MORADABAD,,,IN,+91 80579 56125,,Mo-Su 08:00-21:00,MoneyGram,Q1944412
73439064,moneygram,ROYAL TOURS TRAVELS,,MORADABAD,,,IN,+91 97611 22441,,Mo-Su 08:00-21:00,MoneyGram,Q1944412
73426187,moneygram,SUDISH KUMAR VISHNOI,,MORADABAD,,,IN,+91 97591 10434,,Mo-Su 08:00-21:00,MoneyGram,Q1944412
73540063,moneygram,CHOUDHARY COMMUNICATION,,MORADABAD,,,IN,+91 70604 57502,,Mo-Su 08:00-21:00,MoneyGram,Q1944412
73538664,moneygram,GRAHAK SEVA KENDRA,,MORADABAD,,,IN,+91 88815 06804,,Mo-Su 08:00-21:00,MoneyGram,Q1944412
73540034,moneygram,M/S FANCY CROCKERY EMPORIUM,,MORADABAD,,,IN,+91 93593 91104,,Mo-Su 08:00-21:00,MoneyGram,Q1944412
73538635,moneygram,SAMEER TRADERS,,MORADABAD,,,IN,+91 93196 93742,,Mo-Su 08:00-21:00,MoneyGram,Q1944412
73552682,moneygram,RUBI TRADERS,,MORADABAD,,,IN,+91 94124 75553,,Mo-Su 08:00-21:00,MoneyGram,Q1944412
73638933,moneygram,BOOK PLANET,,MORADABAD,,,IN,+91 97192 02893,,Mo-Su 08:00-21:00,MoneyGram,Q1944412
73703004,moneygram,MASTER MOBILE AND CSC CENTER - MORADABAD,,MORADABAD,,,IN,+91 99173 40924,,Mo-Su 08:00-20:00,MoneyGram,Q1944412
73714653,moneygram,AK TOURS & TRAVELS - MORADABAD,,MORADABAD,,,IN,+91 90583 33201,,Mo-Su 08:00-20:00,MoneyGram,Q1944412
73736408,moneygram,BUDDYS CYBER CAFE,,MORADABAD,,,IN,+91 92196 02065,,Mo-Su 08:00-21:00,MoneyGram,Q1944412
73774185,moneygram,VISION COMPUTER CENTER - MORADABAD,,MORADABAD,,,IN,+91 80557 60959,,Mo-Su 08:00-20:00,MoneyGram,Q1944412
72973314,moneygram,VIJENDRA KUMAR JAIN,,MORADABAD,,,IN,+91 98972 66263,,Mo-Su 08:00-21:00,MoneyGram,Q1944412
73038151,moneygram,THE UNIQUE CYBER CAFE,,MORADABAD,,,IN,+91 88650 52376,,Mo-Su 08:00-21:00,MoneyGram,Q1944412
74107722,moneygram,FAIZ UNIQUE CYBER CAFE,,MORADABAD,,,IN,+91 82728 53828,,Mo-Su 08:00-21:00,MoneyGram,Q1944412
73039419,moneygram,AZAM TRAVELS & TOURS,,MORADABAD,,,IN,+91 94121 47983,,Mo-Su 08:00-21:00,MoneyGram,Q1944412
74186879,moneygram,APEX CYBER CAFE,,MORADBAD,,,IN,+91 94569 39869,,Mo-Su 08:00-21:00,MoneyGram,Q1944412
74180781,moneygram,XEROX POINT - MORADABAD,,MORADABAD,,,IN,+91 84457 92550,,Mo-Su 06:00-23:00,MoneyGram,Q1944412
74323988,moneygram,M/S AMIRA TRADERS,,MORADABAD,,,IN,+91 89549 87867,,Mo-Su 08:00-21:00,MoneyGram,Q1944412
74413843,moneygram,SAMAIRA TOUR AND TRAVELS,,MORADABAD,,,IN,+91 93680 26623,,Mo-Su 04:00-24:00,MoneyGram,Q1944412
74529708,moneygram,J.K. MULTI SERVICES,,MORADABAD,,,IN,+91 90454 43333,,Mo-Su 08:00-21:00,MoneyGram,Q1944412
74590452,moneygram,ASNA MOBILE,,MORADABAD,,,IN,+91 88997 77786,,Mo-Su 08:00-21:00,MoneyGram,Q1944412
74590960,moneygram,SAIFI DIGITAL PHOTO STUDIO & CYBER POINT,,MORADABAD,,,IN,+91 97565 42031,,Mo-Su 08:00-21:00,MoneyGram,Q1944412
74696877,moneygram,TRAVEL HOUZ,,AMROHA,,,IN,+91 96542 43208,,Mo-Su 08:00-22:00,MoneyGram,Q1944412
74689004,moneygram,TRAVEL HOUZ,,MORADABAD,,,IN,+91 96542 43208,,Mo-Su 08:00-21:00,MoneyGram,Q1944412
74762882,moneygram,BHARAT TOUR AND TRAVEL,,MORADABAD,,,IN,+91 97561 44391,,Mo-Su 08:00-22:00,MoneyGram,Q1944412
74792807,moneygram,NICE SHADI CARDS,,MORADABAD,,,IN,+91 80060 02071,,Mo-Su 08:00-22:00,MoneyGram,Q1944412
74809033,moneygram,MUZEEM JAN SEVA KENDRA,,MORADABAD,,,IN,+91 79060 37296,,Mo-Su 08:00-22:00,MoneyGram,Q1944412
74967153,moneygram,CR CYBER CAFE,,MORADABAD,,,IN,+91 97192 53715,,Mo-Su 08:00-22:00,MoneyGram,Q1944412
67334997,moneygram,MANAPPURAM FINANCE - #2784 - MORADABAD,,MORADABAD,,,IN,+91 591 248 6500,,Mo-Su 09:30-18:30,MoneyGram,Q1944412
71609650,moneygram,GOURI TOUR AND TRAVELS - MORADABAD - MOR,,MORADABAD,,,IN,+91 98371 32231,,Mo-Su 09:00-21:00,MoneyGram,Q1944412
71584885,moneygram,SAMEENA TOUR & TRAVELS - MORADABAD - MOR,,MORADABAD,,,IN,+91 96343 69407,,Mo-Su 09:00-21:00,MoneyGram,Q1944412
71608949,moneygram,CARVAN TRAVELS - MORADABAD - MORADABAD,,MORADABAD,,,IN,+91 98972 33347,,Mo-Su 09:00-21:00,MoneyGram,Q1944412
663-1036701A,skoda,Commercial Automotives Pvt Ltd,,,,,IN,,,,Skoda,Q29637
N232460,united_colors_of_benetton,Benetton Moradabad,,MORADABAD,,,IN,+91 96501 21314,,,United Colors of Benetton,Q817139
N234527,united_colors_of_benetton,Benetton Moradabad,,MORADABAD,,,IN,+91 84496 01188,,,United Colors of Benetton,Q817139
,visa,,,MORADABAD,,,IN,,,,,
,visa,,,MORADABAD,,,IN,,,,,
,visa,,,MORADABAD,,,IN,,,,,
,visa,,,MORADABAD,,,IN,,,,,
,visa,,,MORADABAD,,,IN,,,,,
,visa,,,"MORADABAD, UTTAR PRADESH",,,IN,,,,,
,visa,,,MORADABAD,,,IN,,,,,
,visa,,,MORADABAD,,,IN,,,,,
,visa,,,MORADABAD,,,IN,,,,,
,visa,,,MORADABAD,,,IN,,,,,
,visa,,,MORADABAD,,,IN,,,,,
,visa,,,MORADABAD,,,IN,,,,,
,visa,,,MORADABAD,,,IN,,,,,
