Ref,Spider,Name,Address,City,State,Zipcode,Country,Phone,Website,Hours,Brand,WikiData
20552,citi,SUPER NORTE SN FORD,,Hermosillo,SONORA,,MX,+52 800 110 3990,,,Citibank,Q857063
,visa,,,HERMOSILLO,SONORA,,MX,,,,,
,visa,,,HERMOSILLO,SONORA,,MX,,,,,
,visa,,,HERMOSILLO,SONORA,,MX,,,,,
c477c66e4169d1eaadf6bf5beef22de8,western_union,WALDOS 6686 NUEVO HERMOSILLO SON,,Hermosillo,SONORA,,MX,+52 55 5246 0700,https://location.westernunion.com/mx/sonora/hermosillo/c477c66e4169d1eaadf6bf5beef22de8,Mo-Su 06:30-23:30,Western Union,Q861042
d9cfee4eaa5b53f49ec139037f0ffcdd,western_union,WALDOS 6686 NUEVO HERMOSILLO SON,,Hermosillo,SONORA,,MX,+52 55 5246 0700,https://location.westernunion.com/mx/sonora/hermosillo/d9cfee4eaa5b53f49ec139037f0ffcdd,Mo-Su 06:30-23:30,Western Union,Q861042
df2d6613fd7171cfb143026b2c5b86e3,western_union,WALDOS 6686 NUEVO HERMOSILLO SON,,Hermosillo,SONORA,,MX,+52 55 5246 0700,https://location.westernunion.com/mx/sonora/hermosillo/df2d6613fd7171cfb143026b2c5b86e3,Mo-Su 06:30-23:30,Western Union,Q861042
a9c699574c328360fa3cc4e454d293bb,western_union,OXXO MALLORCA HMO,,Hermosillo,SONORA,,MX,+52 81 8389 2121,https://location.westernunion.com/mx/sonora/hermosillo/a9c699574c328360fa3cc4e454d293bb,Mo-Su 08:00-22:00,Western Union,Q861042
c7773da88c5a0fbf1eab34f8786c9cbd,western_union,OXXO MALLORCA HMO,,Hermosillo,SONORA,,MX,+52 81 8389 2121,https://location.westernunion.com/mx/sonora/hermosillo/c7773da88c5a0fbf1eab34f8786c9cbd,Mo-Su 08:00-22:00,Western Union,Q861042
8856bb1fc7aef37de715758e2161576d,western_union,OXXO MALLORCA HMO,,Hermosillo,SONORA,,MX,+52 81 8389 2121,https://location.westernunion.com/mx/sonora/hermosillo/8856bb1fc7aef37de715758e2161576d,Mo-Su 08:00-22:00,Western Union,Q861042
b70dd3128ca982155e2e04f1249ef045,western_union,OXXO INDUSTRIAL HMO,,Hermosillo,SONORA,,MX,+52 81 8389 2121,https://location.westernunion.com/mx/sonora/hermosillo/b70dd3128ca982155e2e04f1249ef045,Mo-Su 08:00-22:00,Western Union,Q861042
e8cbb4cb7e6578cd9ed6cd1cdba63758,western_union,OXXO INDUSTRIAL HMO,,Hermosillo,SONORA,,MX,+52 81 8389 2121,https://location.westernunion.com/mx/sonora/hermosillo/e8cbb4cb7e6578cd9ed6cd1cdba63758,Mo-Su 08:00-22:00,Western Union,Q861042
9b327fdd12bcc8fb49ed19f8cb3cf4e9,western_union,OXXO INDUSTRIAL HMO,,Hermosillo,SONORA,,MX,+52 81 8389 2121,https://location.westernunion.com/mx/sonora/hermosillo/9b327fdd12bcc8fb49ed19f8cb3cf4e9,Mo-Su 08:00-22:00,Western Union,Q861042
ba9721d8ea11cbca1c26fa3ab076692f,western_union,OXXO PLANETARIO HMO,,Hermosillo,SONORA,,MX,+52 81 8389 2121,https://location.westernunion.com/mx/sonora/hermosillo/ba9721d8ea11cbca1c26fa3ab076692f,Mo-Su 08:00-22:00,Western Union,Q861042
520c33432773b39a45dd8105c45e8602,western_union,OXXO PLANETARIO HMO,,Hermosillo,SONORA,,MX,+52 81 8389 2121,https://location.westernunion.com/mx/sonora/hermosillo/520c33432773b39a45dd8105c45e8602,Mo-Su 08:00-22:00,Western Union,Q861042
dc021ab522f9b3e074e6778148915653,western_union,OXXO PLANETARIO HMO,,Hermosillo,SONORA,,MX,+52 81 8389 2121,https://location.westernunion.com/mx/sonora/hermosillo/dc021ab522f9b3e074e6778148915653,Mo-Su 08:00-22:00,Western Union,Q861042
5f9eab4a6c850130f8e16741857b7ab8,western_union,OXXO MUZARO HMO,,Hermosillo,SONORA,,MX,+52 81 8389 2121,https://location.westernunion.com/mx/sonora/hermosillo/5f9eab4a6c850130f8e16741857b7ab8,Mo-Su 08:00-22:00,Western Union,Q861042
3a63640851679390b4e5586314b21d53,western_union,OXXO MUZARO HMO,,Hermosillo,SONORA,,MX,+52 81 8389 2121,https://location.westernunion.com/mx/sonora/hermosillo/3a63640851679390b4e5586314b21d53,Mo-Su 08:00-22:00,Western Union,Q861042
60865b8c08c2c5da707c10fd4b6c22a1,western_union,OXXO MUZARO HMO,,Hermosillo,SONORA,,MX,+52 81 8389 2121,https://location.westernunion.com/mx/sonora/hermosillo/60865b8c08c2c5da707c10fd4b6c22a1,Mo-Su 08:00-22:00,Western Union,Q861042
e812a4ed0ed8c5b71641838c28696b6a,western_union,AURRERA MUSARO 4669,,Hermosillo,SONORA,,MX,+52 800 833 4700,https://location.westernunion.com/mx/sonora/hermosillo/e812a4ed0ed8c5b71641838c28696b6a,Mo-Su 07:00-22:00,Western Union,Q861042
b97f0b36454fff7671e8b88c9f7639bb,western_union,AURRERA MUSARO 4669,,Hermosillo,SONORA,,MX,+52 800 833 4700,https://location.westernunion.com/mx/sonora/hermosillo/b97f0b36454fff7671e8b88c9f7639bb,Mo-Su 07:00-22:00,Western Union,Q861042
f226627535dcd125c7ad9a55b06cbf01,western_union,AURRERA MUSARO 4669,,Hermosillo,SONORA,,MX,+52 800 833 4700,https://location.westernunion.com/mx/sonora/hermosillo/f226627535dcd125c7ad9a55b06cbf01,Mo-Su 07:00-22:00,Western Union,Q861042
6bc2582a2087c3b45c6bce3b3b3b932f,western_union,OXXO CLINICA 68 HMO,,Hermosillo,SONORA,,MX,+52 81 8389 2121,https://location.westernunion.com/mx/sonora/hermosillo/6bc2582a2087c3b45c6bce3b3b3b932f,Mo-Su 08:00-22:00,Western Union,Q861042
3edf32deed79c9d4f38fd9421e1df712,western_union,OXXO CLINICA 68 HMO,,Hermosillo,SONORA,,MX,+52 81 8389 2121,https://location.westernunion.com/mx/sonora/hermosillo/3edf32deed79c9d4f38fd9421e1df712,Mo-Su 08:00-22:00,Western Union,Q861042
c8a65689015374b77e8b2ee5a3f02016,western_union,OXXO CLINICA 68 HMO,,Hermosillo,SONORA,,MX,+52 81 8389 2121,https://location.westernunion.com/mx/sonora/hermosillo/c8a65689015374b77e8b2ee5a3f02016,Mo-Su 08:00-22:00,Western Union,Q861042
4e4799932f72d2c208e3139f6a5e359f,western_union,FARM GUAD BLVD MUSARO,,Hermosillo,SONORA,,MX,+52 800 833 4700,https://location.westernunion.com/mx/sonora/hermosillo/4e4799932f72d2c208e3139f6a5e359f,Mo-Su 09:00-22:00,Western Union,Q861042
89dd59de681c389dcc58bbef5eecd1b8,western_union,FARM GUAD BLVD MUSARO,,Hermosillo,SONORA,,MX,+52 800 833 4700,https://location.westernunion.com/mx/sonora/hermosillo/89dd59de681c389dcc58bbef5eecd1b8,Mo-Su 09:00-22:00,Western Union,Q861042
8258f3abb33c1640132f72a74614c84d,western_union,FARM GUAD BLVD MUSARO,,Hermosillo,SONORA,,MX,+52 800 833 4700,https://location.westernunion.com/mx/sonora/hermosillo/8258f3abb33c1640132f72a74614c84d,Mo-Su 09:00-22:00,Western Union,Q861042
23922d797d705dd433045f39a9a38f6b,western_union,OXXO NUEVO HERMOSILLO HMO,,Hermosillo,SONORA,,MX,+52 81 8389 2121,https://location.westernunion.com/mx/sonora/hermosillo/23922d797d705dd433045f39a9a38f6b,Mo-Su 08:00-22:00,Western Union,Q861042
8725072f2ad557ae28345437d743854e,western_union,OXXO NUEVO HERMOSILLO HMO,,Hermosillo,SONORA,,MX,+52 81 8389 2121,https://location.westernunion.com/mx/sonora/hermosillo/8725072f2ad557ae28345437d743854e,Mo-Su 08:00-22:00,Western Union,Q861042
352b9131b8aa0af830c630a20d4aeb45,western_union,OXXO NUEVO HERMOSILLO HMO,,Hermosillo,SONORA,,MX,+52 81 8389 2121,https://location.westernunion.com/mx/sonora/hermosillo/352b9131b8aa0af830c630a20d4aeb45,Mo-Su 08:00-22:00,Western Union,Q861042
