Ref,Spider,Name,Address,City,State,Zipcode,Country,Phone,Website,Hours,Brand,WikiData
https://stores.advanceautoparts.com/ia/fort-dodge/2824-5th-ave-s,advance_auto_parts_us,Advance Auto Parts,,Fort Dodge,IA,,US,+1 515-955-3323,https://stores.advanceautoparts.com/ia/fort-dodge/2824-5th-ave-s,Mo-Sa 07:30-21:00; Su 09:00-20:00,Advance Auto Parts,Q4686051
https://stores.aldi.us/#4420085,aldi_sud_us,ALDI  2736 1st Avenue South,,Fort Dodge,IA,,US,+1 833-472-7059,https://stores.aldi.us/ia/fort-dodge/2736-1st-avenue-south,Mo-Su 09:00-20:00,ALDI,Q41171672
1338,anytime_fitness,Anytime Fitness,,Fort Dodge,IA,,US,+1 515-576-1348,https://www.anytimefitness.com/gyms/1338/fort-dodge-ia-50501/,,Anytime Fitness,Q4778364
https://restaurants.applebees.com/en-us/ia/fort-dodge/2810-5th-avenue-south-92044,applebees,Connect with this Applebee's,,Fort Dodge,IA,,US,+1 515-576-7881,https://restaurants.applebees.com/en-us/ia/fort-dodge/2810-5th-avenue-south-92044,Mo-Th 11:00-22:00; Fr-Sa 11:00-23:00; Su 11:00-22:00,Applebees,Q621532
https://locations.arbys.com/ia/fortdodge/2908-5th-ave-s.html,arbys_us,"Arby's Fast-Food Drive Through Near You in Fort Dodge, IA",,Fort Dodge,IA,,US,+1 515-735-3013,https://locations.arbys.com/ia/fortdodge/2908-5th-ave-s.html,Mo-Th 10:00-22:00; Fr-Sa 10:00-23:00; Su 10:00-22:00,Arby's,Q630866
21996,asics_us,Brown's Shoe Fit Fort Dodge,210 S 25th St,Fort Dodge,IA,,US,+1 515-955-8200,,Mo-Fr 09:00-18:00; Sa 09:00-16:00,asics,Q327247
77982,asics_us,Dunham's Sports,217 S 25th St,Fort Dodge,IA,,US,+1 515-576-7755,,,asics,Q327247
62430,asics_us,Decker Sporting Goods Inc,3012 5th Ave S,Fort Dodge,IA,,US,+1 515-576-7573,,,asics,Q327247
214828,bluerhino,Lizard Creek Ranch,,Fort Dodge,IA,,US,+1 515-890-4090,,,Blue Rhino,Q65681213
202587,bluerhino,CASEY'S GENERAL STORE #2813,,FORT DODGE,IA,,US,+1 515-217-5442,,,Blue Rhino,Q65681213
202417,bluerhino,CASEY'S GENERAL STORE #2211,,FORT DODGE,IA,,US,+1 515-573-5207,,,Blue Rhino,Q65681213
202607,bluerhino,CASEY'S GENERAL STORE #2891,,FORT DODGE,IA,,US,+1 515-576-1237,,,Blue Rhino,Q65681213
202400,bluerhino,CASEY'S GENERAL STORE #2014,,FORT DODGE,IA,,US,+1 515-576-6670,,,Blue Rhino,Q65681213
151937,bluerhino,Walgreens #5361,,Fort Dodge,IA,,US,+1 515-576-7111,,,Blue Rhino,Q65681213
136912,bluerhino,Bomgaar's #061,,Fort Dodge,IA,,US,+1 515-955-1727,,,Blue Rhino,Q65681213
202308,bluerhino,CASEY'S GENERAL STORE #1280,,FORT DODGE,IA,,US,+1 515-573-3314,,,Blue Rhino,Q65681213
202547,bluerhino,CASEY'S GENERAL STORE #2686,,FORT DODGE,IA,,US,+1 515-576-5354,,,Blue Rhino,Q65681213
201697,bluerhino,Menards - FORT DODGE #3134,,FORT DODGE,IA,,US,+1 515-955-3500,,,Blue Rhino,Q65681213
https://local.buckle.com/ia/fortdodge/clothing-200.html,buckle_us,Fort Dodge Men’s & Women’s Clothing,,Fort Dodge,IA,,US,+1 515-573-1023,https://local.buckle.com/ia/fortdodge/clothing-200.html,Mo-Sa 10:00-19:00; Su 12:00-17:00,Buckle,Q4983306
0384,carpet_one_floor_and_home_us,Jims Carpet One Floor & Home,,Fort Dodge,IA,,US,+1 515-955-2207,https://www.jimscarpetonefortdodge.com/,,Carpet One Floor & Home,Q121335910
https://stores.catofashions.com/#26560339,cato_us,Cato,,,IA,,US,+1 515-576-4066,https://stores.catofashions.com/ia/fort-dodge/3029-first-avenue-south,Mo-Sa 10:00-19:00; Su 13:00-18:00,Cato,Q16956136
3857,cenex,W & H Co-op,,Fort Dodge,IA,,US,+1 515-573-7512,,24/7,Cenex,Q62127191
10679,cenex,W & H Cooperative Oil Company,,Fort Dodge,IA,,US,+1 515-576-1230,,,Cenex,Q62127191
18035,chevrolet,KEMNA AUTO OF FORT DODGE,,Fort Dodge,IA,,US,+1 800-588-8458,https://www.kemnafd.com/,Mo-Th 08:00-19:00; Fr 08:00-18:00; Sa 08:00-17:00,Chevrolet,Q29570
66634,citi,ATM NORTHWEST BANK27,,Fort Dodge,IA,,US,,,,Citibank,Q857063
62068,citi,ATM Kwik Star #927-1,,Fort Dodge,IA,,US,,,,Citibank,Q857063
62069,citi,ATM Kwik Star #927-2,,Fort Dodge,IA,,US,,,,Citibank,Q857063
66659,citi,ATM NORTHWEST BANK27,,Fort Dodge,IA,,US,,,,Citibank,Q857063
61896,citi,ATM Kwik Star #116,,Fort Dodge,IA,,US,,,,Citibank,Q857063
61818,citi,ATM Kwik Spirits #1191,,Fort Dodge,IA,,US,,,,Citibank,Q857063
48897,citi,ATM CVS,,Fort Dodge,IA,,US,,,,Citibank,Q857063
55845,citi,ATM FIRST INTERSTATE BANK,,Fort Dodge,IA,,US,,,,Citibank,Q857063
89407,citi,ATM Walgreens,,Fort Dodge,IA,,US,,,,Citibank,Q857063
35714,citi,ATM AVAILA BANK,,Fort Dodge,IA,,US,,,,Citibank,Q857063
66635,citi,ATM NORTHWEST BANK27,,Fort Dodge,IA,,US,,,,Citibank,Q857063
82234,citi,ATM Target,,Fort Dodge,IA,,US,,,,Citibank,Q857063
61988,citi,ATM Kwik Star #509-1,,Fort Dodge,IA,,US,,,,Citibank,Q857063
61989,citi,ATM Kwik Star #509-2,,Fort Dodge,IA,,US,,,,Citibank,Q857063
70088497,cricket_wireless,Cricket Wireless Authorized Retailer,,Fort Dodge,IA,,US,+1 515-206-1043,https://www.cricketwireless.com/stores/ll/US/IA/Fort-Dodge/3037-1st-Ave-S,Mo-Sa 10:00-19:00; Su 12:00-17:00,Cricket Wireless,Q5184987
325,culvers_us,"Culver's of Fort Dodge, IA - 5th Ave S",,Fort Dodge,IA,,US,+1 515-576-3500,http://www.culvers.com/restaurants/fort-dodge,Mo-Fr 10:30-22:00; Su 10:30-22:00,Culver's,Q1143589
16315,cvs_us,CVS Pharmacy,,Fort Dodge,IA,,US,+1 515-573-7202,https://www.cvs.com/store-locator/fort-dodge-ia-pharmacies/2910-1st-ave-s-fort-dodge-ia-50501/storeid=16315,"Mo-Fr 10:00-13:30,14:00-20:00; Sa 10:00-13:30,14:00-18:00; Su 11:00-13:30,14:00-17:00",CVS Pharmacy,Q2078880
10282,cvs_us,CVS Pharmacy,,Fort Dodge,IA,,US,+1 515-955-6453,https://www.cvs.com/store-locator/fort-dodge-ia-pharmacies/2029-5th-ave-south-fort-dodge-ia-50501/storeid=10282,Mo-Sa 08:00-21:00; Su 09:00-20:00,CVS Pharmacy,Q2078880
1730,dominos_pizza_us,Domino's Pizza,,Fort Dodge,IA,,US,+1 515-576-1111,https://pizza.dominos.com/iowa/fort-dodge/1430-5th-ave-s,Mo-Th 10:00-24:00; Fr-Sa 10:00-02:00; Su 10:00-24:00,Domino's,Q839466
353491,dunkin_us,Dunkin',,Fort Dodge,IA,,US,+1 515-955-1554,https://locations.dunkindonuts.com/en/ia/fort-dodge/2520-5th-ave-s/353491,Mo-Su 05:00-19:00,Dunkin',Q847743
https://www.edwardjones.com/us-en/financial-advisor/gabe-pettit,edwardjones,Gabe Pettit,,Fort Dodge,IA,,US,+1 515-576-8387,https://www.edwardjones.com/us-en/financial-advisor/gabe-pettit,Mo-Th 08:00-16:30; Fr 08:00-15:00,Edward Jones,Q5343830
E16228,enterprise,Fort Dodge,,Fort Dodge,IA,,US,+1 515-573-3000,,,Enterprise Rent-A-Car,Q17085454
https://www.efaststop.com/store-locator/pv/3000/id/420,fast_stop_us,Coalville Stop-N-Shop,,Fort Dodge,IA,,US,+1 515-571-1787,https://www.efaststop.com/store-locator/pv/3000/id/420,,FAST STOP,Q116734101
https://www.efaststop.com/store-locator/pv/3000/id/319,fast_stop_us,Fort Dodge FAST STOP Express,,Fort Dodge,IA,,US,+1 888-437-3835,https://www.efaststop.com/store-locator/pv/3000/id/319,,FAST STOP,Q116734101
https://local.fedex.com/#25201775,fedex,,,Fort Dodge,IA,,US,+1 800-463-3339,https://local.fedex.com/en-us/ia/fort-dodge/u72wr,,FedEx,Q459477
https://stores.footlocker.com/ia/fortdodge/217-south-25th-street-7696.html,footlocker,"Foot Locker in Crossroads Mall: Fort Dodge, Iowa | Approved | Own It",,Fort Dodge,IA,,US,+1 515-955-2819,https://stores.footlocker.com/ia/fortdodge/217-south-25th-street-7696.html,Mo-Sa 10:00-20:00; Su 11:00-17:00,Foot Locker,Q63335
Motorcraft4123USAEnglish,ford,Fort Dodge Ford Lincoln,,Iowa,IA,,US,+1 515-576-7505,,,Ford,Q44294
https://www.ford.com/dealerships/dealer-details/ia/fort-dodge/fort-dodge-ford-lincoln/,ford_dealers_us,Fort Dodge Ford Lincoln,,Fort Dodge,IA,,US,+1 515-308-3006,https://www.ford.com/dealerships/dealer-details/ia/fort-dodge/fort-dodge-ford-lincoln/,Mo-Th 08:00-19:00; Fr 08:00-18:00; Sa 08:00-17:00,Ford Motor Company,Q44294
2653,gamestop_us,1st Avenue South Fort Dodge,,Fort Dodge,IA,,US,+1 515-576-7750,https://www.gamestop.com/search/?store=2653,Mo-Th 11:00-20:00; Fr-Sa 10:00-21:00; Su 11:00-20:00,GameStop,Q202210
c7bd77f3-458a-e111-8dde-005056934050,goodwill,2735 5th Ave S Store,,Fort Dodge,IA,,US,+1 515-955-4688,https://www.goodwill.org/locator/location/?store=YzdiZDc3ZjMtNDU4YS1lMTExLThkZGUtMDA1MDU2OTM0MDUw&lat=NDIuNTAxMjI=&lng=LTk0LjE1OTY3,,Goodwill,Q5583655
https://salons.greatclips.com/us/ia/fort-dodge/3007-1st-ave-s,greatclips,Great Clips,,Fort Dodge,IA,,US,+1 515-573-4775,https://salons.greatclips.com/us/ia/fort-dodge/3007-1st-ave-s,Mo-Fr 09:00-20:00; Sa 08:00-17:00; Su 10:00-16:00,Great Clips,Q5598967
https://www.harborfreight.com/storelocator/2950-5th-avenue-south-fort-dodge-50501?number=3306,harborfreight,"Harbor Freight Tools Fort Dodge, IA",,Fort Dodge,IA,,US,+1 515-417-9696,https://www.harborfreight.com/storelocator/2950-5th-avenue-south-fort-dodge-50501?number=3306,Mo-Sa 08:00-20:00; Su 09:00-18:00,Harbor Freight Tools,Q5654601
15964,h_r_block,H&R Block,,Fort Dodge,IA,,US,+1 515-955-1040,https://www.hrblock.com/local-tax-offices/iowa/fort-dodge/1310-central-ave/15964/,,H&R Block,Q5627799
https://office.jacksonhewitt.com/#27577487,jackson_hewitt,Jackson Hewitt,,Fort Dodge,IA,,US,+1 515-619-5305,https://office.jacksonhewitt.com/tax-preparation-services-locations/en/ia/fort-dodge/3036-1st-ave-s/50886,Mo-Sa 11:00-19:00; Su 12:00-16:00,Jackson Hewitt,Q6117132
https://locations.jimmyjohns.com/ia/fortdodge/sandwiches-2461.html,jimmy_johns,Jimmy John's,,Fort Dodge,IA,,US,+1 515-955-5588,https://locations.jimmyjohns.com/ia/fortdodge/sandwiches-2461.html,,Jimmy John's,Q1689380
https://locations.kfc.com/#11247330,kfc,Chicken Nuggets Near Fort Dodge,,Fort Dodge,IA,,US,,https://locations.kfc.com/ia/fort-dodge/3057-first-avenue-s/chickennugget,Mo-Su 10:00-24:00,KFC,Q524757
1440,kohls_us,Kohl's,,Fort Dodge,IA,,US,+1 515-573-1991,https://www.kohls.com/stores/ia/fortdodge-1440.shtml,Mo-Sa 09:00-21:00; Su 09:00-20:00,Kohl's,Q967265
17856,mattress_firm_us,Mattress Firm 2921 5th Ave S,,Fort Dodge,IA,,US,+1 515-532-5294,https://www.mattressfirm.com/en-us/stores/ia/fort-dodge/679003/,,Mattress Firm,Q6791878
3134,menards,FORT DODGE,"3319 5TH AVE S, FORT DODGE, IA 50501",FORT DODGE,IA,,US,,https://www.menards.com/main/storeDetails.html?store=3134,,Menards,Q1639897
71455325,moneygram,WAL-MART - #886,,FORT DODGE,IA,,US,+1 515-576-7400,,Mo-Su 07:00-21:00,MoneyGram,Q1944412
70714672,moneygram,HOMETOWN CASH ADVANCE - #153 - FORT DODG,,FORT DODGE,IA,,US,+1 515-573-2274,,Mo-Fr 10:00-18:00; Sa 10:00-14:00; Su 00:00-24:00,MoneyGram,Q1944412
6538,murphy_usa_us,,,Fort Dodge,IA,,US,+1 515-955-1866,,Mo-Sa 05:30-23:00; Su 06:00-22:30,Murphy USA,Q19604459
https://locations.oreillyauto.com/ia/fortdodge/check-engine-light-testing-384.html,oreilly,Your Fort Dodge O'Reilly Auto Parts Store,,Fort Dodge,IA,,US,+1 515-573-4959,https://locations.oreillyauto.com/ia/fortdodge/check-engine-light-testing-384.html,Mo-Sa 07:30-21:00; Su 09:00-20:00,O'Reilly Auto Parts,Q7071951
https://locations.oreillyauto.com/ia/fortdodge/wiper-installation-384.html,oreilly,Your Fort Dodge O'Reilly Auto Parts Store,,Fort Dodge,IA,,US,+1 515-573-4959,https://locations.oreillyauto.com/ia/fortdodge/wiper-installation-384.html,Mo-Sa 07:30-21:00; Su 09:00-20:00,O'Reilly Auto Parts,Q7071951
https://locations.oreillyauto.com/ia/fortdodge/battery-testing-384.html,oreilly,Your Fort Dodge O'Reilly Auto Parts Store,,Fort Dodge,IA,,US,+1 515-573-4959,https://locations.oreillyauto.com/ia/fortdodge/battery-testing-384.html,Mo-Sa 07:30-21:00; Su 09:00-20:00,O'Reilly Auto Parts,Q7071951
https://locations.oreillyauto.com/ia/fortdodge/autopartes-384.html,oreilly,Tu tienda O'Reilly Auto Parts en Fort Dodge,,Fort Dodge,IA,,US,+1 515-573-4959,https://locations.oreillyauto.com/ia/fortdodge/autopartes-384.html,Mo-Sa 07:30-21:00; Su 09:00-20:00,O'Reilly Auto Parts,Q7071951
https://locations.papamurphys.com/#15429722,papamurphys,Pizza Takeout & Delivery,,Fort Dodge,IA,,US,+1 515-576-0100,https://locations.papamurphys.com/ia/fort-dodge/2813-5th-avenue-south,Mo-Su 11:00-20:00,Papa Murphy's,Q7132349
ia_fort-dodge_2516-5th-ave-s,pizza_hut_us,2516 5th Ave S,,Fort Dodge,IA,,US,+1 515-576-7255,https://locations.pizzahut.com/ia/fort-dodge/2516-5th-ave-s,,Pizza Hut,Q191615
2679,rentacenter,Rent-A-Center,,Fort Dodge,IA,,US,+1 515-576-7368,https://locations.rentacenter.com/iowa/fort-dodge/3033-first-ave-south/,Mo-Sa 10:00-18:00,Rent-A-Center,Q7313497
285,scooters_coffee_us,5th Ave & 30th St,,Fort Dodge,IA,,US,+1 515-576-3706,,Mo-Sa 05:00-20:00; Su 06:00-20:00,Scooter's Coffee,Q117280308
2632,shellrecharge,Fort Dodge Kwikstar,,Fort Dodge,IA,,US,,,,Shell Recharge,Q105883058
2201,shellrecharge,Fort Dodge,,Fort Dodge,IA,,US,,,,Shell Recharge,Q105883058
https://stations.sinclairoil.com/ia/fort-dodge/1435-2nd-ave-n,sinclair_us,Sinclair Gas Station,,Fort Dodge,IA,,US,+1 515-955-3994,https://stations.sinclairoil.com/ia/fort-dodge/1435-2nd-ave-n,24/7,Sinclair,Q1290900
https://stations.sinclairoil.com/ia/fort-dodge/315-2nd-ave-s,sinclair_us,Sinclair Gas Station,,Fort Dodge,IA,,US,+1 515-955-3994,https://stations.sinclairoil.com/ia/fort-dodge/315-2nd-ave-s,Mo-Su 06:00-23:00,Sinclair,Q1290900
https://restaurants.subway.com/#14916951,subway,Subway,,Fort Dodge Webster,IA,,US,+1 515-576-7827,https://restaurants.subway.com/united-states/ia/fort-dodge/109-avenue-o-west,Mo-Sa 08:00-22:00; Su 09:00-21:00,Subway,Q244457
https://restaurants.subway.com/#14914125,subway,Subway,,Fort Dodge Webster,IA,,US,+1 515-576-7969,https://restaurants.subway.com/united-states/ia/fort-dodge/2323-5th-ave-s,Mo-Fr 08:00-21:00; Sa 08:00-19:30; Su 08:00-21:00,Subway,Q244457
https://locations.tacobell.com/#6144362,taco_bell,Taco Bell,,Fort Dodge,IA,,US,+1 515-576-7133,https://locations.tacobell.com/ia/fort-dodge/3057-first-avenue-s-.html,Mo-Su 10:30-24:00,Taco Bell,Q752941
5980971,teriyaki_madness_us,IA | Teriyaki Madness Fort Dodge,"3rd Ave S, Fort Dodge, IA 50501, USA",Fort Dodge,IA,,US,+1 515-206-1179,,Mo-Su 11:00-21:00,Teriyaki Madness,Q107692862
101273,tjx,Fort Dodge,275 South 29th St,Fort Dodge,IA,,US,+1 515-576-3402,,Mo-Sa 09:30-21:30; Su 10:00-20:00,Marshalls,Q15903261
357G,tmobile_us,29th & 3rd,,Fort Dodge,IA,,US,+1 515-417-6009,https://www.t-mobile.com/store-locator/ia/ft-dodge/29th-3rd,,T-Mobile,Q3511885
1434743,usps,FORT DODGE,,FORT DODGE,IA,,US,+1 515-573-4130,,Mo-Fr 07:00-17:00; Sa 07:00-12:00,United States Postal Service,Q668687
1473642,usps,FORT DODGE,,FORT DODGE,IA,,US,+1 515-573-4130,,,United States Postal Service,Q668687
5050100054,usps_collection_boxes,USPS COLLECTION BOX - BLUE BOX,1338 3RD AVE NW,FORT DODGE,IA,,US,,,,United States Postal Service,Q668687
5050100004,usps_collection_boxes,USPS COLLECTION BOX - BLUE BOX,231 5TH AVE N,FORT DODGE,IA,,US,,,,United States Postal Service,Q668687
5050100028,usps_collection_boxes,USPS COLLECTION BOX - BLUE BOX,330 1ST AVE N,FORT DODGE,IA,,US,,,,United States Postal Service,Q668687
5050100077,usps_collection_boxes,USPS COLLECTION BOX - BLUE BOX,605 CENTRAL AVE,FORT DODGE,IA,,US,,,,United States Postal Service,Q668687
5050100073,usps_collection_boxes,USPS COLLECTION BOX - BLUE BOX,2320 N 15TH ST,FORT DODGE,IA,,US,,,,United States Postal Service,Q668687
5050100039,usps_collection_boxes,USPS COLLECTION BOX - BLUE BOX,702 1ST AVE S,FORT DODGE,IA,,US,,,,United States Postal Service,Q668687
5050100026,usps_collection_boxes,USPS COLLECTION BOX - BLUE BOX,420 KENYON RD,FORT DODGE,IA,,US,,,,United States Postal Service,Q668687
5050100002,usps_collection_boxes,USPS COLLECTION BOX - BLUE BOX,801 CENTRAL AVE,FORT DODGE,IA,,US,,,,United States Postal Service,Q668687
5050100037,usps_collection_boxes,USPS COLLECTION BOX - BLUE BOX,819 1ST AVE S,FORT DODGE,IA,,US,,,,United States Postal Service,Q668687
5050100000,usps_collection_boxes,USPS COLLECTION BOX - BLUE BOX,1210 1ST AVE N,FORT DODGE,IA,,US,,,,United States Postal Service,Q668687
5050100040,usps_collection_boxes,USPS COLLECTION BOX - BLUE BOX,804 KENYON RD,FORT DODGE,IA,,US,,,,United States Postal Service,Q668687
5050100056,usps_collection_boxes,USPS COLLECTION BOX - BLUE BOX,804 KENYON RD,FORT DODGE,IA,,US,,,,United States Postal Service,Q668687
5050100034,usps_collection_boxes,USPS COLLECTION BOX - BLUE BOX,1207 CENTRAL AVE,FORT DODGE,IA,,US,,,,United States Postal Service,Q668687
5050100016,usps_collection_boxes,USPS COLLECTION BOX - BLUE BOX,201 N 15TH ST,FORT DODGE,IA,,US,,,,United States Postal Service,Q668687
5050100032,usps_collection_boxes,USPS COLLECTION BOX - BLUE BOX,1728 CENTRAL AVE,FORT DODGE,IA,,US,,,,United States Postal Service,Q668687
5050100052,usps_collection_boxes,USPS COLLECTION BOX - BLUE BOX,2012 1ST AVE S,FORT DODGE,IA,,US,,,,United States Postal Service,Q668687
5050100029,usps_collection_boxes,USPS COLLECTION BOX - BLUE BOX,117 S 25TH ST,FORT DODGE,IA,,US,,,,United States Postal Service,Q668687
5050100023,usps_collection_boxes,USPS COLLECTION BOX - BLUE BOX,115 S 29TH ST,FORT DODGE,IA,,US,,,,United States Postal Service,Q668687
5050100074,usps_collection_boxes,USPS COLLECTION BOX - BLUE BOX,3036 1ST AVE S,FORT DODGE,IA,,US,,,,United States Postal Service,Q668687
5050100035,usps_collection_boxes,USPS COLLECTION BOX - BLUE BOX,3319 5TH AVE S,FORT DODGE,IA,,US,,,,United States Postal Service,Q668687
5050100067,usps_collection_boxes,USPS COLLECTION BOX - BLUE BOX,3440 MAPLE DR,FORT DODGE,IA,,US,,,,United States Postal Service,Q668687
5050100081,usps_collection_boxes,USPS COLLECTION BOX - PO LOBBY,3440 MAPLE DR,FORT DODGE,IA,,US,,,,United States Postal Service,Q668687
5050100084,usps_collection_boxes,USPS COLLECTION BOX - PO LOBBY,3440 MAPLE DR,FORT DODGE,IA,,US,,,,United States Postal Service,Q668687
R00000238745,verizon_us,Fort Dodge,,Fort Dodge,IA,,US,+1 515-955-4076,https://www.verizon.com/stores/details/iowa/fort-dodge/fort-dodge-356821/,Mo-Sa 09:00-19:00; Su 10:00-17:00,Verizon,Q919641
10764,vestis_uniform_services_us,Vestis Fort Dodge,,Fort Dodge,IA,,US,+1 515-417-0117,https://www.vestis.com/our-locations/vestis-fort-dodge,,Vestis,Q122947676
,visa,,,FORT DODGE,IA,,US,,,,,
,visa,,,FORT DODGE,IA,,US,,,,,
,visa,,,FORT DODGE,IA,,US,,,,,
,visa,,,FORT DODGE,IA,,US,,,,,
,visa,,,FORT DODGE,IA,,US,,,,,
,visa,,,FORT DODGE,IA,,US,,,,,
,visa,,,FORT DODGE,IA,,US,,,,,
,visa,,,FORT DODGE,IA,,US,,,,,
,visa,,,FORT DODGE,IA,,US,,,,,
,visa,,,FORT DODGE,IA,,US,,,,,
,visa,,,FORT DODGE,IA,,US,,,,,
,visa,,,FORT DODGE,IA,,US,,,,,
,visa,,,FORT DODGE,IA,,US,,,,,
,visa,,,FT DODGE,IA,,US,,,,,
,visa,,,FT DODGE,IA,,US,,,,,
,visa,,,FT DODGE,IA,,US,,,,,
,visa,,,FORT DODGE,IA,,US,,,,,
,visa,,,FORT DODGE,IA,,US,,,,,
,visa,,,FORT DODGE,IA,,US,,,,,
,visa,,,FORT DODGE,IA,,US,,,,,
,visa,,,FORT DODGE,IA,,US,,,,,
,visa,,,FORT DODGE,IA,,US,,,,,
,visa,,,FORT DODGE,IA,,US,,,,,
,visa,,,FORT DODGE,IA,,US,,,,,
,visa,,,FORT DODGE,IA,,US,,,,,
,visa,,,FORT DODGE,IA,,US,,,,,
,visa,,,FORT DODGE,IA,,US,,,,,
,visa,,,FORT DODGE,IA,,US,,,,,
,visa,,,FORT DODGE,IA,,US,,,,,
,visa,,,FORT DODGE,IA,,US,,,,,
,visa,,,FORT DODGE,IA,,US,,,,,
,visa,,,FORT DODGE,IA,,US,,,,,
,visa,,,FT DODGE,IA,,US,,,,,
,visa,,,FORT DODGE,IA,,US,,,,,
,visa,,,FORT DODGE,IA,,US,,,,,
,visa,,,FORT DODGE,IA,,US,,,,,
,visa,,,FORT DODGE,IA,,US,,,,,
,visa,,,FT. DODGE,IA,,US,,,,,
,visa,,,FORT DODGE,IA,,US,,,,,
,visa,,,FORT DODGE,IA,,US,,,,,
,visa,,,FORT DODGE,IA,,US,,,,,
,visa,,,FORT DODGE,IA,,US,,,,,
,visa,,,FORT DODGE,IA,,US,,,,,
,visa,,,FORT DODGE,IA,,US,,,,,
,visa,,,FORT DODGE,IA,,US,,,,,
,visa,,,FORT DODGE,IA,,US,,,,,
,visa,,,FORT DODGE,IA,,US,,,,,
,visa,,,FORT DODGE,IA,,US,,,,,
,visa,,,FORT DODGE,IA,,US,,,,,
,visa,,,FORT DODGE,IA,,US,,,,,
,visa,,,FORT DODGE,IA,,US,,,,,
,visa,,,FORT DODGE,IA,,US,,,,,
,visa,,,FORT DODGE,IA,,US,,,,,
,visa,,,FORT DODGE,IA,,US,,,,,
,visa,,,FORT DODGE,IA,,US,,,,,
,visa,,,FORT DODGE,IA,,US,,,,,
,visa,,,FORT DODGE,IA,,US,,,,,
,visa,,,FORT DODGE,IA,,US,,,,,
,visa,,,FORT DODGE,IA,,US,,,,,
,visa,,,FORT DODGE,IA,,US,,,,,
,visa,,,FORT DODGE,IA,,US,,,,,
,visa,,,FORT DODGE,IA,,US,,,,,
,visa,,,FORT DODGE,IA,,US,,,,,
,visa,,,FORT DODGE,IA,,US,,,,,
,visa,,,FT DODGE,IA,,US,,,,,
,visa,,,FORT DODGE,IA,,US,,,,,
,visa,,,FORT DODGE,IA,,US,,,,,
,visa,,,FORT DODGE,IA,,US,,,,,
,visa,,,FORT DODGE,IA,,US,,,,,
,visa,,,FT. DODGE,IA,,US,,,,,
,visa,,,FORT DODGE,IA,,US,,,,,
,visa,,,FORT DODGE,IA,,US,,,,,
,visa,,,FORT DODGE,IA,,US,,,,,
,visa,,,FT. DODGE,IA,,US,,,,,
,visa,,,FORT DODGE,IA,,US,,,,,
,visa,,,FORT DODGE,IA,,US,,,,,
,visa,,,FORT DODGE,IA,,US,,,,,
,visa,,,FT. DODGE,IA,,US,,,,,
,visa,,,FT. DODGE,IA,,US,,,,,
,visa,,,FORT DODGE,IA,,US,,,,,
,visa,,,FORT DODGE,IA,,US,,,,,
,visa,,,FORT DODGE,IA,,US,,,,,
,visa,,,FORT DODGE,IA,,US,,,,,
,visa,,,FORT DODGE,IA,,US,,,,,
,visa,,,FORT DODGE,IA,,US,,,,,
,visa,,,FORT DODGE,IA,,US,,,,,
,visa,,,FORT DODGE,IA,,US,,,,,
,visa,,,FORT DODGE,IA,,US,,,,,
,visa,,,FORT DODGE,IA,,US,,,,,
,visa,,,COUNCIL BLUFFS,IA,,US,,,,,
https://www.walgreens.com/locator/walgreens-2503+5th+ave+s-fort+dodge-ia-50501/id=5361,walgreens,Walgreens,,Fort Dodge,IA,,US,+1 515-576-7113,https://www.walgreens.com/locator/walgreens-2503+5th+ave+s-fort+dodge-ia-50501/id=5361,Mo-Sa 07:00-22:00; Su 08:00-22:00,Walgreens,Q1591889
822__CENTRAL__AVE_FORT__DODGE_IA_50501,wellsfargo,Wells Fargo,822 CENTRAL AVE,FORT DODGE,IA,,US,+1 515-573-6100,https://www.wellsfargo.com/locator/bank/822__CENTRAL__AVE_FORT__DODGE_IA_50501/,Mo-Fr 09:00-17:00,Wells Fargo,Q744149
406__S__25TH__ST_FORT__DODGE_IA_50501,wellsfargo,,406 S 25TH ST,FORT DODGE,IA,,US,+1 800-869-3557,https://www.wellsfargo.com/locator/bank/406__S__25TH__ST_FORT__DODGE_IA_50501/,,Wells Fargo,Q744149
https://locations.wendys.com/#9254468,wendys,"Wendy's Ft. Dodge in Fort Dodge, IA",,Fort Dodge,IA,,US,+1 515-576-8274,https://locations.wendys.com/united-states/ia/fort-dodge/2313-5th-aves,"Mo-Su 06:30-10:30,06:30-22:00",Wendy's,Q550258
bbafcd937c5246b21c8922fa52f99a26,western_union,WALMART #000886,,Fort Dodge,IA,,US,+1 515-576-7400,https://location.westernunion.com/us/ia/fort-dodge/bbafcd937c5246b21c8922fa52f99a26,Mo-Sa 08:00-20:00; Su 10:00-18:00,Western Union,Q861042
fe9c059f9194b7a7c900c75c9c102609,western_union,ADVANCE AMERICA #05690,,Fort Dodge,IA,,US,+1 515-576-2155,https://location.westernunion.com/us/ia/fort-dodge/fe9c059f9194b7a7c900c75c9c102609,Mo-Th 10:00-17:00; Fr 09:30-17:30; Sa 09:00-12:00,Western Union,Q861042
