Ref,Spider,Name,Address,City,State,Zipcode,Country,Phone,Website,Hours,Brand,WikiData
44037_1,bmw_group,K-moto s.r.o.,,Kosice,,,SK,+421 917 797 568,https://www.bmw-motorrad.sk/k-moto-kosice,,BMW Motorrad,Q249173
531,ccc,Košice CCC Galéria 1473,,Košice,,,SK,+421 55/789 50 41,https://ccc.eu/sk/market/kosice-ccc-galeria-1473,Su 09:00-21:00,CCC,Q11788344
581,ccc,Košice CCC Aupark 1899,,Košice,,,SK,+421 55/622 33 40,https://ccc.eu/sk/market/kosice-ccc-aupark-1899,Su 09:00-21:00,CCC,Q11788344
SK0710,c_and_a,Kosice Aupark,"Namestie osloboditelov 1, 040 01 Kosice",Kosice,,,SK,,https://www.c-and-a.com/stores/sk-sk/kosicky-kraj/kosice/namestie-osloboditelov-1.html,Mo 09:00-21:00; Tu 09:00-21:00; We 09:00-21:00; Th 09:00-21:00; Fr 09:00-21:00; Sa 09:00-21:00; Su 09:00-21:00,C&A,Q701338
sk:142,dm,dm drogerie markt,,Košice,,,SK,+421 55/326 05 11,https://www.mojadm.sk/store/b05m/kosice/oc-galeria-toryska-ulica-5,Mo-Su 09:00-21:00,dm,Q266572
sk:272,dm,dm-drogerie markt,,Košice,,,SK,+421 55/326 05 16,https://www.mojadm.sk/store/b0b8/kosice/stanicne-namestie-11,Mo-Su 08:00-20:00,dm,Q266572
sk:213,dm,dm drogerie markt,,Košice,,,SK,+421 55/326 05 12,https://www.mojadm.sk/store/b08l/kosice/hlavna-56,Mo-Fr 08:00-19:00; Sa 08:00-13:00,dm,Q266572
sk:338,dm,dm drogerie markt,,Košice,,,SK,+421 55/326 05 19,https://www.mojadm.sk/store/b0e2/kosice/hlavna-111,Mo-Sa 09:00-21:00; Su 09:00-20:00,dm,Q266572
slovakia#kosice,ernst_young,EY,Sturova 27,Kosice,,,SK,+421 55/230 41 11,https://www.ey.com/locations/slovakia#kosice,,EY,Q489097
kscdtdi-doubletree-kosice,hilton,DoubleTree by Hilton Kosice,"Hlavna 1, Kosice, 040 01, Slovakia",,,,SK,+421 55/325 11 00,https://www.hilton.com/ar/hotels/kscdtdi-doubletree-kosice/,,DoubleTree by Hilton,Q2504643
SK0415,hm,Aupark Kosice,,Kosice,,,SK,+421 55/281 05 10,,Mo-Su 09:00-21:00,H&M,Q188326
SK0426,hm,Tesco Košice,,Kosice,,,SK,+421 55/281 05 20,,Mo-Su 10:00-20:00,H&M,Q188326
K924,jysk,"Džungla, Košice",,Košice,,,SK,+421 948 185 924,https://jysk.sk/predajne?storeId=K924,Mo-Sa 09:00-19:00; Su 10:00-19:00,JYSK,Q138913
4427,kik,KiK,,Kosice,,,SK,+421 55/642 50 45,,Mo-Su 09:00-20:00,KiK,Q883965
4338,kik,KiK,,Košice,,,SK,+421 55/685 35 22,,Mo-Su 09:00-21:00,KiK,Q883965
4350,kik,KiK,,Košice,,,SK,+421 55/694 10 17,,Mo-Fr 09:00-18:30; Sa 09:00-14:30,KiK,Q883965
190,lidl_sk,Lidl,,Košice,,,SK,,,,Lidl,Q151954
211,lidl_sk,Lidl,,Košice,,,SK,,,,Lidl,Q151954
277,lidl_sk,Lidl,,Košice,,,SK,,,,Lidl,Q151954
70664748,moneygram,TESCO STORES SR A.S. - KOSICE - KOSICE,,KOSICE,,,SK,+421 800 222 333,,Mo-Fr 07:00-20:00; Sa-Su 08:00-18:00,MoneyGram,Q1944412
70675915,moneygram,TESCO STORES SR A.S. - KOSICE - KOSICE,,KOSICE,,,SK,9520010000,,Mo-Su 06:00-22:00,MoneyGram,Q1944412
5b3cb3fac00458481b437c7c,newyorker,NEW YORKER | AUPARK,"Namestie osvobeditelou, 04001 Košice",Košice,,,SK,+421 55/321 35 10,,Mo-Su 09:00-21:00,New Yorker,Q706421
SK.2312.8,omv,OMV,,Košice,,,SK,+421 55/632 33 60,,24/7,OMV,Q168238
SK.2382.8,omv,OMV,,Košice,,,SK,+421 55/729 59 35,,24/7,OMV,Q168238
SK.2332.8,omv,OMV,,Košice,,,SK,+421 55/799 47 85,,24/7,OMV,Q168238
70300003_001-renault,renault,Tempus - Car s.r.o.,,Košice,,,SK,+421 915 911 508,,,Renault,Q6686
70300003_001-dacia,renault,Tempus - Car s.r.o.,,Košice,,,SK,+421 915 911 508,,,Dacia,Q27460
https://restaurants.subway.com/#14929629,subway,Subway Aupark,,Košice,,,SK,+421 951 206 995,https://restaurants.subway.com/slovakia/kosice/namestie-osloboditelov-1,Mo-Su 09:00-21:00,Subway,Q244457
THSK0006,tommy_hilfiger,Tommy Hilfiger,,Kosice,,,SK,+421 55/321 33 21,,,Tommy Hilfiger,Q634881
SK_EXT_00086,totalenergies,Košice 2,,Košice,,,SK,,https://store.totalenergies.fr/en_EN/SK_EXT_00086,,Slovnaft,Q1587563
SK_EXT_00089,totalenergies,Košice 5,,Košice,,,SK,,https://store.totalenergies.fr/en_EN/SK_EXT_00089,,Slovnaft,Q1587563
SK_EXT_00090,totalenergies,Košice 6,,Košice,,,SK,,https://store.totalenergies.fr/en_EN/SK_EXT_00090,,Slovnaft,Q1587563
SK_EXT_00099,totalenergies,Košice 15,,Košice,,,SK,,https://store.totalenergies.fr/en_EN/SK_EXT_00099,,Slovnaft,Q1587563
N592454,united_colors_of_benetton,Benetton Kosice,,KOSICE,,,SK,+421 911 435 280,,,United Colors of Benetton,Q817139
,visa,,,KOSICE - SIDLISKO KVP,,,SK,,,,,
,visa,,,KOSICE,,,SK,,,,,
,visa,,,KOŠICE,,,SK,,,,,
,visa,,,KOŠICE,,,SK,,,,,
,visa,,,KOSICE,,,SK,,,,,
,visa,,,KOŠICE,,,SK,,,,,
,visa,,,KOŠICE,,,SK,,,,,
,visa,,,KOŠICE,,,SK,,,,,
,visa,,,KOŠICE,,,SK,,,,,
,visa,,,KOSICE,,,SK,,,,,
,visa,,,KOSICE,,,SK,,,,,
,visa,,,KOSICE - STAREMESTO,,,SK,,,,,
,visa,,,KOŠICE,,,SK,,,,,
,visa,,,KOSICE,,,SK,,,,,
,visa,,,KOSICE - DZUNGLA,,,SK,,,,,
,visa,,,KOSICE,,,SK,,,,,
