Ref,Spider,Name,Address,City,State,Zipcode,Country,Phone,Website,Hours,Brand,WikiData
6292,aaa,South Elgin,,South Elgin,IL,,US,+1 847-931-6820,,,American Automobile Association,Q463436
https://stores.advanceautoparts.com/il/south-elgin/435-n-mclean-blvd,advance_auto_parts_us,Advance Auto Parts,,South Elgin,IL,,US,+1 847-608-2653,https://stores.advanceautoparts.com/il/south-elgin/435-n-mclean-blvd,Mo-Sa 07:30-21:00; Su 09:00-20:00,Advance Auto Parts,Q4686051
https://local.pharmacy.jewelosco.com/#5672916,albertsons,Jewel-Osco Pharmacy,,South Elgin,IL,,US,+1 847-622-1220,https://local.pharmacy.jewelosco.com/il/south-elgin/375-randall-rd.html,Mo-Fr 08:00-22:00; Sa 09:00-18:00; Su 09:00-17:00,Jewel-Osco,Q3178470
https://local.jewelosco.com/#5603712,albertsons,Jewel-Osco,,South Elgin,IL,,US,+1 847-608-1460,https://local.jewelosco.com/il/south-elgin/375-randall-rd.html,"Mo-Fr 06:00-24:00,08:00-22:00; Sa 06:00-24:00,09:00-18:00; Su 06:00-24:00,09:00-17:00",Jewel-Osco,Q3178470
79538,att_us,SOUTH ELGIN,,South Elgin,IL,,US,+1 847-841-7315,https://www.att.com/stores/illinois/south-elgin/79538,Mo-Fr 10:00-20:00; Sa 10:00-19:00; Su 10:00-18:00,AT&T,Q298594
1699,autozone_us,AutoZone Auto Parts South Elgin,,South Elgin,IL,,US,+1 847-429-1095,https://www.autozone.com/locations/il/south-elgin/209-randall-rd.html,Mo-Sa 07:30-20:00; Su 08:00-19:00,AutoZone,Q4826087
https://www.banfield.com/locations/veterinarians/il/south-elgin/slg,banfield_pet_hospital,South Elgin,,South Elgin,IL,,US,+1 847-488-9259,https://www.banfield.com/locations/veterinarians/il/south-elgin/slg,Mo-Fr 08:00-18:00; Sa 08:00-17:00; Su 00:00-24:00,Banfield Pet Hospital,Q2882416
https://stores.bestbuy.com/il/south-elgin/424-randall-rd-607.html,bestbuy,Best Buy South Elgin,,South Elgin,IL,,US,+1 847-695-1492,https://stores.bestbuy.com/il/south-elgin/424-randall-rd-607.html,,Best Buy,Q533415
151189,bluerhino,Walgreens #6796,,South Elgin,IL,,US,+1 847-289-1095,,,Blue Rhino,Q65681213
240603,bluerhino,Circle K #4706828,,South Elgin,IL,,US,+1 847-468-0526,,,Blue Rhino,Q65681213
179401,bluerhino,Caputo's New Farm Produce - South Elgin AWG #1904,,South Elgin,IL,,US,+1 847-289-0600,,,Blue Rhino,Q65681213
156065,bluerhino,Walgreens #4463,,South Elgin,IL,,US,+1 847-695-0556,,,Blue Rhino,Q65681213
210212,bluerhino,CASEY'S GENERAL STORE #6545,,South Elgin,IL,,US,+1 847-398-7359,,,Blue Rhino,Q65681213
168275,bluerhino,Speedway #8851,,South Elgin,IL,,US,+1 847-717-0903,,,Blue Rhino,Q65681213
24644276852456017700100000000000,bp,BP,,South Elgin,IL,,US,+1 847-841-8320,,24/7,BP,Q152057
2042752,chase_us,South Elgin Randall Rd - New branch,,South Elgin,IL,,US,+1 847-468-7434,https://locator.chase.com/il/south-elgin/536-randall-rd,Mo-Fr 09:00-17:00; Sa 09:00-14:00,Chase,Q524629
001.005.1776,chilis,South Elgin,,S. Elgin,IL,,US,+1 847-841-8708,https://www.chilis.com/locations/us/illinois/s-elgin/south-elgin/,Mo-Th 11:00-22:00; Fr-Sa 11:00-23:00; Su 11:00-22:00,Chili's,Q1072948
il_south-elgin_348-randall-rd,chipotle, ,,South Elgin,IL,,US,+1 847-931-4172,https://locations.chipotle.com/il/south-elgin/348-randall-rd,,Chipotle,Q465751
34548,citi,ATM American Eagle Bank,,South Elgin,IL,,US,,,,Citibank,Q857063
82747,citi,ATM Target,,South Elgin,IL,,US,,,,Citibank,Q857063
42567,citi,ATM Circle K,,South Elgin,IL,,US,,,,Citibank,Q857063
89767,citi,ATM Walgreens,,South Elgin,IL,,US,,,,Citibank,Q857063
87032,citi,ATM Walgreens,,South Elgin,IL,,US,,,,Citibank,Q857063
25229,citi,ATM 7ELEVEN-FCTI,,South Elgin,IL,,US,,,,Citibank,Q857063
49588,citi,ATM CVS,,South Elgin,IL,,US,,,,Citibank,Q857063
35533,citi,ATM ASSOCIATED BANK,,South Elgin,IL,,US,,,,Citibank,Q857063
,credit_union_us,KCT Credit Union,,South Elgin,IL,,US,+1 847-741-3344,,Mo-Tu 09:00-06:00; We 11:00-06:00; Th-Fr 09:00-06:00; Sa 09:00-02:00,,
223,culvers_us,"Culver's of South Elgin, IL - Randall Rd",,South Elgin,IL,,US,+1 847-697-8980,http://www.culvers.com/restaurants/south-elgin,Mo-Fr 10:00-22:00; Su 10:00-22:00,Culver's,Q1143589
17016,cvs_us,CVS Pharmacy,,South Elgin,IL,,US,+1 847-697-1056,https://www.cvs.com/store-locator/south-elgin-il-pharmacies/530-randall-rd-south-elgin-il-60177/storeid=17016,"Mo-Fr 10:00-13:30,14:00-20:00; Sa 10:00-13:30,14:00-18:00; Su 11:00-13:30,14:00-17:00",CVS Pharmacy,Q2078880
2786,cvs_us,CVS Pharmacy,,South Elgin,IL,,US,+1 847-695-7193,https://www.cvs.com/store-locator/south-elgin-il-pharmacies/255-n-mclean-blvd-south-elgin-il-60177/storeid=2786,Mo-Su 08:00-21:00,CVS Pharmacy,Q2078880
8588,dollartree,DollarTree,,South Elgin,IL,,US,+1 630-503-2229,,Mo-Sa 09:00-21:00; Su 10:00-20:00,Dollar Tree,Q5289230
2797,dominos_pizza_us,Domino's Pizza,,South Elgin,IL,,US,+1 847-289-2200,https://pizza.dominos.com/illinois/south-elgin/1944-mcdonald-road,Mo-Th 10:30-24:00; Fr-Sa 10:30-01:00; Su 10:30-24:00,Domino's,Q839466
352424,dunkin_us,Dunkin',,South Elgin,IL,,US,+1 847-589-6978,https://locations.dunkindonuts.com/en/il/south-elgin/245-randall-rd/352424,Mo-Su 05:00-19:00,Dunkin',Q847743
345579,dunkin_us,Dunkin',,South Elgin,IL,,US,+1 847-214-3602,https://locations.dunkindonuts.com/en/il/south-elgin/514-randall-rd/345579,Mo-Su 04:30-20:00,Dunkin',Q847743
355120,dunkin_us,Dunkin',,South Elgin,IL,,US,+1 224-227-6944,https://locations.dunkindonuts.com/en/il/south-elgin/405-n-mclean-blvd/355120,Mo-Su 04:00-22:00,Dunkin',Q847743
358639,dunkin_us,Dunkin',,South Elgin,IL,,US,+1 224-339-6021,https://locations.dunkindonuts.com/en/il/south-elgin/14-route-25/358639,Mo-Su 03:30-20:00,Dunkin',Q847743
https://www.edwardjones.com/us-en/financial-advisor/rick-poole,edwardjones,Rick Poole,,South Elgin,IL,,US,+1 847-289-6186,https://www.edwardjones.com/us-en/financial-advisor/rick-poole,,Edward Jones,Q5343830
1177,european_wax_center_us,European Wax Center,,South Elgin,IL,,US,+1 331-272-8400,https://locations.waxcenter.com/il/southelgin/south-elgin-randall-point-shopping-center-1177.html,Mo-Fr 09:00-20:00; Sa 09:00-16:00; Su 10:00-16:00,European Wax Center,Q5413426
200326139,exxonmobil,RICKY ROCKETS SOUTH ELGIN,,SOUTH ELGIN,IL,,US,,https://www.exxon.com/en/find-station/mobil-southelgin-il-rickyrocketssouthelgin-200326139,Mo-Su 06:00-00:00,Mobil,Q109676002
200323006,exxonmobil,7-ELEVEN 32821,,SOUTH ELGIN,IL,,US,+1 847-695-0240,https://www.exxon.com/en/find-station/exxon-southelgin-il-7eleven32821-200323006,24/7,Exxon,Q109675651
https://local.fedex.com/#25206449,fedex,,,South Elgin,IL,,US,+1 800-463-3339,https://local.fedex.com/en-us/il/south-elgin/rv8nr,,FedEx,Q459477
https://local.fedex.com/#25205693,fedex,,,South Elgin,IL,,US,+1 800-463-3339,https://local.fedex.com/en-us/il/south-elgin/ruj7z,,FedEx,Q459477
https://locations.53.com/#3033848,fifththirdbank,Fifth Third Bank South Elgin,,South Elgin,IL,,US,+1 847-289-3490,https://locations.53.com/il/south-elgin/460-randall-road.html,Mo-Th 09:00-17:30; Fr 09:00-18:00; Sa 09:00-14:00,Fifth Third Bank,Q1411810
https://locations.fivebelow.com/il/south-elgin/482-randall-rd,five_below,Five Below South Elgin Commons,,South Elgin,IL,,US,,https://locations.fivebelow.com/il/south-elgin/482-randall-rd,,Five Below,Q5455836
https://branches.fleetpride.com/il/southelgin/truckparts-elg.html,fleet_pride_us,FleetPride,,South Elgin,IL,,US,+1 847-741-1101,https://branches.fleetpride.com/il/southelgin/truckparts-elg.html,Mo-Fr 08:00-17:00; Sa 08:00-12:00,FleetPride,Q121436710
100767,fresenius_kidney_care_us,Fresenius Kidney Care South Elgin,,South Elgin,IL,,US,+1 800-881-5101,https://www.freseniuskidneycare.com/dialysis-centers/illinois/100767,Mo 05:00-21:30; Tu 05:00-16:30; We 05:00-21:30; Th 05:00-16:30; Fr 05:00-21:30; Sa 05:00-16:30,,
7538,gamestop_us,South Elgin Commons,,South Elgin,IL,,US,+1 847-888-0746,https://www.gamestop.com/search/?store=7538,Mo-Th 12:00-19:00; Fr-Sa 10:00-21:00; Su 12:00-18:00,GameStop,Q202210
https://stores.gnc.com/#24058195,gnc,GNC Prairie Crossing Shopping Center,,,IL,,US,+1 847-214-8781,https://stores.gnc.com/all-stores-illinois/south-elgin/624-randall-rd,Mo-Sa 09:00-20:00; Su 10:00-18:00,GNC,Q4808595
25de83db-458a-e111-8dde-005056934050,goodwill,South Elgin Store,,South Elgin,IL,,US,+1 847-741-0236,https://www.goodwill.org/locator/location/?store=MjVkZTgzZGItNDU4YS1lMTExLThkZGUtMDA1MDU2OTM0MDUw&lat=NDEuOTg5NTc=&lng=LTg4LjM0MDgy,,Goodwill,Q5583655
https://salons.greatclips.com/us/il/south-elgin/626-randall-rd,greatclips,Great Clips,,South Elgin,IL,,US,+1 847-214-9080,https://salons.greatclips.com/us/il/south-elgin/626-randall-rd,Mo-Fr 09:00-19:00; Sa 09:00-17:00; Su 10:00-16:00,Great Clips,Q5598967
https://locations.jimmyjohns.com/il/southelgin/sandwiches-584.html,jimmy_johns,Jimmy John's,,South Elgin,IL,,US,+1 847-289-5646,https://locations.jimmyjohns.com/il/southelgin/sandwiches-584.html,,Jimmy John's,Q1689380
000097,kindercare,Spring Street KinderCare,,South Elgin,IL,,US,,https://www.kindercare.com/our-centers/south-elgin/il/000097,,KinderCare Learning Centers,Q6410551
506,kohls_us,Kohl's,,South Elgin,IL,,US,+1 847-608-0741,https://www.kohls.com/stores/il/southelgin-506.shtml,Mo-Sa 09:00-22:00; Su 09:00-21:00,Kohl's,Q967265
https://locations.massageenvy.com/#1774046,massage_envy,Massage Envy South Elgin,,South Elgin,IL,,US,+1 847-888-8500,https://locations.massageenvy.com/illinois/south-elgin/600-randall-road.html,Mo-Fr 08:00-21:00; Sa 08:00-18:00; Su 10:00-18:00,Massage Envy,Q10327170
16757,mattress_firm_us,Mattress Firm Randall Road,,South Elgin,IL,,US,+1 847-289-8910,https://www.mattressfirm.com/en-us/stores/il/south-elgin/119272/,,Mattress Firm,Q6791878
1383,michaels,CHI-SOUTH ELGIN,,South Elgin,IL,,US,+1 847-450-0004,https://locations.michaels.com/il/south-elgin/1383,Mo-Sa 09:00-21:00; Su 10:00-19:00,Michaels,Q6835667
4667,mightyflame,THORNTONS #117,,SOUTH ELGIN,IL,,US,+1 847-608-8295,,,Mighty Flame,
784,mightyflame,BP GAS STATION,,SOUTH ELGIN,IL,,US,+1 312-505-7272,,,Mighty Flame,
1264,orangetheory_fitness,"South Elgin, IL",,South Elgin,IL,,US,+1 847-565-6300,,,Orangetheory Fitness,Q25005163
https://locations.oreillyauto.com/il/southelgin/wiper-installation-4910.html,oreilly,Your South Elgin O'Reilly Auto Parts Store,,South Elgin,IL,,US,+1 224-856-3088,https://locations.oreillyauto.com/il/southelgin/wiper-installation-4910.html,Mo-Sa 07:30-22:00; Su 08:00-21:00,O'Reilly Auto Parts,Q7071951
https://locations.oreillyauto.com/il/southelgin/battery-testing-4910.html,oreilly,Your South Elgin O'Reilly Auto Parts Store,,South Elgin,IL,,US,+1 224-856-3088,https://locations.oreillyauto.com/il/southelgin/battery-testing-4910.html,Mo-Sa 07:30-22:00; Su 08:00-21:00,O'Reilly Auto Parts,Q7071951
https://locations.oreillyauto.com/il/southelgin/check-engine-light-testing-4910.html,oreilly,Your South Elgin O'Reilly Auto Parts Store,,South Elgin,IL,,US,+1 224-856-3088,https://locations.oreillyauto.com/il/southelgin/check-engine-light-testing-4910.html,Mo-Sa 07:30-22:00; Su 08:00-21:00,O'Reilly Auto Parts,Q7071951
https://locations.oreillyauto.com/il/southelgin/autopartes-4910.html,oreilly,Tu tienda O'Reilly Auto Parts en South Elgin,,South Elgin,IL,,US,+1 224-856-3088,https://locations.oreillyauto.com/il/southelgin/autopartes-4910.html,Mo-Sa 07:30-22:00; Su 08:00-21:00,O'Reilly Auto Parts,Q7071951
112030,pandaexpress,Randall & McDonald,,South Elgin,IL,,US,+1 847-841-1877,https://www.pandaexpress.com/locations/il/south-elgin/388-south-randall-rd,Mo-Th 10:30-21:00; Fr-Sa 10:30-21:30; Su 10:30-20:30,Panda Express,Q1358690
609026,penske,Home Depot #6923,,SOUTH ELGIN,IL,,US,+1 847-468-0426,https://www.pensketruckrental.com/locations/us/illinois/south_elgin/609026/,,Penske,Q81234570
il_south-elgin_530-randall-road,pizza_hut_us,530 Randall Road,,South Elgin,IL,,US,,https://locations.pizzahut.com/il/south-elgin/530-randall-road,,Pizza Hut,Q191615
136840,potbelly_sandwich,South Elgin,,South Elgin,IL,,US,+1 847-429-9299,,Mo-Su 10:00-21:00,Potbelly Sandwich Shop,Q7234777
home-depot-6923-13602,ppgpaints,HOME DEPOT 6923,,"South Elgin, ",IL,,US,+1 847-214-8717,https://www.ppgpaints.com/store-locator/us/illinois/south-elgin-paint-stores/home-depot-6923-13602,,PPG Paints,Q83891559
235,primrose_schools,Primrose School of South Elgin,,South Elgin,IL,,US,+1 847-468-1630,https://www.primroseschools.com/schools/south-elgin/,,Primrose Schools,Q7243677
2140,pure_barre_us,South Elgin,,South Elgin,IL,,US,+1 224-535-8053,https://www.purebarre.com/location/south-elgin-il,,Pure Barre,Q86707084
1497,ross_dress_for_less_us,South Elgin,,South Elgin,IL,,US,+1 847-888-9015,,Mo-Sa 09:30-21:30; Su 09:30-21:00,Ross Dress for Less,Q3442791
507,shoe_carnival_us,Shoe Carnival,,South Elgin,IL,,US,+1 847-628-6200,https://stores.shoecarnival.com/il/southelgin/shoe-store-south-elgin-il-507.html,Mo-Sa 10:00-21:00; Su 11:00-19:00,Shoe Carnival,Q7500007
https://restaurants.subway.com/#14909732,subway,Subway Country Corners S/C,,South Elgin Kane,IL,,US,+1 847-741-8400,https://restaurants.subway.com/united-states/il/south-elgin/1115-spring-st,Mo-Sa 07:00-21:00; Su 07:30-20:00,Subway,Q244457
8853,supercuts,Plaisance Center,326 Randall Rd,South Elgin,IL,,US,+1 847-741-1592,https://www.supercuts.com/checkin/8853,Mo-Th 09:00-19:00; Fr 10:00-18:00; Sa 09:00-17:00; Su 09:00-16:00,Supercuts,Q7643239
https://locations.tacobell.com/#6143313,taco_bell,Taco Bell,,South Elgin,IL,,US,+1 847-741-5275,https://locations.tacobell.com/il/south-elgin/490-randall-road.html,Mo-Th 09:00-02:00; Fr 09:00-24:00; Sa-Su 09:00-02:00,Taco Bell,Q752941
281153,tjx,South Elgin,432 Randall Road,South Elgin,IL,,US,+1 224-238-6882,,Mo-Sa 09:30-21:30; Su 10:00-20:00,HomeGoods,Q5887941
08831,tjx,South Elgin,486 Randall Road,South Elgin,IL,,US,+1 847-717-5345,,Mo-Sa 09:30-21:30; Su 10:00-20:00,TJ Maxx,Q10860683
3NSZ,tmobile_us,Randall Rd & Whispering Trl,,South Elgin,IL,,US,+1 847-841-8600,https://www.t-mobile.com/store-locator/il/south-elgin/randall-rd-whispering-trl,,T-Mobile,Q3511885
1382152,usps,SOUTH ELGIN,,SOUTH ELGIN,IL,,US,+1 847-695-7119,,Mo-Fr 08:00-17:00; Sa 08:00-13:00,United States Postal Service,Q668687
6017700015,usps_collection_boxes,USPS COLLECTION BOX - BLUE BOX,364 MILL ST,SOUTH ELGIN,IL,,US,,,,United States Postal Service,Q668687
6017700019,usps_collection_boxes,USPS COLLECTION BOX - PO LOBBY,310 N LAFOX ST,SOUTH ELGIN,IL,,US,,,,United States Postal Service,Q668687
6017700012,usps_collection_boxes,USPS COLLECTION BOX - BLUE BOX,10 N WATER ST,SOUTH ELGIN,IL,,US,,,,United States Postal Service,Q668687
6017700011,usps_collection_boxes,USPS COLLECTION BOX - BLUE BOX,310 N LA FOX ST,SOUTH ELGIN,IL,,US,,,,United States Postal Service,Q668687
6017700008,usps_collection_boxes,USPS COLLECTION BOX - PO LOBBY,310 N LA FOX ST,SOUTH ELGIN,IL,,US,,,,United States Postal Service,Q668687
6017700013,usps_collection_boxes,USPS COLLECTION BOX - PO LOBBY,310 N LA FOX ST,SOUTH ELGIN,IL,,US,,,,United States Postal Service,Q668687
6017700005,usps_collection_boxes,USPS COLLECTION BOX - BLUE BOX,888 N LA FOX ST,SOUTH ELGIN,IL,,US,,,,United States Postal Service,Q668687
6017700006,usps_collection_boxes,USPS COLLECTION BOX - BLUE BOX,746 W SPRING ST,SOUTH ELGIN,IL,,US,,,,United States Postal Service,Q668687
6017700010,usps_collection_boxes,USPS COLLECTION BOX - BLUE BOX,665 SCHNEIDER DR,SOUTH ELGIN,IL,,US,,,,United States Postal Service,Q668687
6017700007,usps_collection_boxes,USPS COLLECTION BOX - BLUE BOX,1175 W SPRING ST,SOUTH ELGIN,IL,,US,,,,United States Postal Service,Q668687
6017700009,usps_collection_boxes,USPS COLLECTION BOX - BLUE BOX,1275 JENNA DR,SOUTH ELGIN,IL,,US,,,,United States Postal Service,Q668687
6017700014,usps_collection_boxes,USPS COLLECTION BOX - BLUE BOX,375 RANDALL RD,SOUTH ELGIN,IL,,US,,,,United States Postal Service,Q668687
southelgin_oil-change-fc0003,valvoline_instant_oil_change,Valvoline,71 S Mclean Blvd ,South Elgin,IL,,US,+1 847-841-7030,https://store.vioc.com/il/southelgin/oil-change-fc0003.html,,Valvoline Instant Oil Change,Q7912852
R00000002635,verizon_us,South Elgin,,South Elgin,IL,,US,+1 847-695-1667,https://www.verizon.com/stores/details/illinois/south-elgin/south-elgin-203166/,Mo-Fr 10:00-19:00; Sa 10:00-18:00; Su 10:00-17:00,Verizon,Q919641
,visa,,,INDIAN HEAD PAR,IL,,US,,,,,
,visa,,,ELK GROVE VILLAGE,IL,,US,,,,,
,visa,,,SOUTH ELGIN,IL,,US,,,,,
,visa,,,SOUTH ELGIN,IL,,US,,,,,
,visa,,,SOUTH ELGIN,IL,,US,,,,,
,visa,,,SOUTH ELGIN,IL,,US,,,,,
,visa,,,SOUTH ELGIN,IL,,US,,,,,
,visa,,,SOUTH ELGIN,IL,,US,,,,,
,visa,,,SOUTH ELGIN,IL,,US,,,,,
,visa,,,SOUTH ELGIN,IL,,US,,,,,
,visa,,,SOUTH ELGIN,IL,,US,,,,,
,visa,,,SOUTH ELGIN,IL,,US,,,,,
,visa,,,SOUTH ELGIN,IL,,US,,,,,
,visa,,,SOUTH ELGIN,IL,,US,,,,,
,visa,,,ELGIN,IL,,US,,,,,
,visa,,,SOUTH ELGIN,IL,,US,,,,,
,visa,,,SOUTH ELGIN,IL,,US,,,,,
,visa,,,SOUTH ELGIN,IL,,US,,,,,
,visa,,,ELGIN,IL,,US,,,,,
,visa,,,SOUTH ELGIN,IL,,US,,,,,
,visa,,,SOUTH ELGIN,IL,,US,,,,,
,visa,,,SOUTH ELGIN,IL,,US,,,,,
,visa,,,S. ELGIN,IL,,US,,,,,
,visa,,,SOUTH ELGIN,IL,,US,,,,,
,visa,,,SOUTH ELGIN,IL,,US,,,,,
,visa,,,SOUTH ELGIN,IL,,US,,,,,
,visa,,,SOUTH ELGIN,IL,,US,,,,,
,visa,,,SOUTH ELGIN,IL,,US,,,,,
,visa,,,SOUTH ELGIN,IL,,US,,,,,
,visa,,,SOUTH ELGIN,IL,,US,,,,,
,visa,,,SOUTH ELGIN,IL,,US,,,,,
,visa,,,SOUTH GLEN,IL,,US,,,,,
,visa,,,SOUTH ELGIN,IL,,US,,,,,
,visa,,,SOUTH ELGIN,IL,,US,,,,,
,visa,,,SOUTH ELGIN,IL,,US,,,,,
,visa,,,SOUTH ELGIN,IL,,US,,,,,
,visa,,,SOUTH ELGIN,IL,,US,,,,,
,visa,,,SOUTH ELGIN,IL,,US,,,,,
,visa,,,ELGIN,IL,,US,,,,,
,visa,,,SOUTH ELGIN,IL,,US,,,,,
,visa,,,SOUTH ELGIN,IL,,US,,,,,
,visa,,,SOUTH ELGIN,IL,,US,,,,,
,visa,,,SOUTH ELGIN,IL,,US,,,,,
,visa,,,SOUTH ELGIN,IL,,US,,,,,
,visa,,,SOUTH ELGIN,IL,,US,,,,,
,visa,,,SOUTH ELGIN,IL,,US,,,,,
,visa,,,SOUTH ELGIN,IL,,US,,,,,
,visa,,,SOUTH ELGIN,IL,,US,,,,,
,visa,,,SOUTH ELGIN,IL,,US,,,,,
,visa,,,SOUTH ELGIN,IL,,US,,,,,
,visa,,,SOUTH ELGIN,IL,,US,,,,,
,visa,,,SOUTH ELGIN,IL,,US,,,,,
,visa,,,S ELIGN,IL,,US,,,,,
,visa,,,S ELIGN,IL,,US,,,,,
,visa,,,SOUTH ELGIN,IL,,US,,,,,
841,visionworks,Visionworks South Elgin Crossing,,South Elgin,IL,,US,+1 847-695-3354,https://locations.visionworks.com/ll/US/IL/South-Elgin/384-S-Randall-Rd,Mo-Sa 10:00-18:30,Visionworks,Q5422607
https://locations.vitaminshoppe.com/il/southelgin/vitamins-supplements-south-elgin-il-722.html,vitamin_shoppe,The Vitamin ShoppeÂ® South Elgin ,414 Randall Road ,South Elgin,IL,,US,+1 847-468-1447,https://locations.vitaminshoppe.com/il/southelgin/vitamins-supplements-south-elgin-il-722.html,Su 10:00-18:00; Mo 10:00-18:00; Tu 10:00-18:00; We 10:00-18:00; Th 10:00-18:00; Fr 10:00-18:00; Sa 10:00-18:00,The Vitamin Shoppe,Q7772938
https://www.walgreens.com/locator/walgreens-290+randall+rd-south+elgin-il-60177/id=6796,walgreens,Walgreens,,South Elgin,IL,,US,+1 847-289-1095,https://www.walgreens.com/locator/walgreens-290+randall+rd-south+elgin-il-60177/id=6796,Mo-Fr 07:00-23:00; Sa-Su 07:00-22:00,Walgreens,Q1591889
https://www.walgreens.com/locator/walgreens-1201+w+spring+st-south+elgin-il-60177/id=4463,walgreens,Walgreens,,South Elgin,IL,,US,+1 847-695-0556,https://www.walgreens.com/locator/walgreens-1201+w+spring+st-south+elgin-il-60177/id=4463,Mo-Su 07:00-23:00,Walgreens,Q1591889
