Ref,Spider,Name,Address,City,State,Zipcode,Country,Phone,Website,Hours,Brand,WikiData
https://stores.aldi.us/#4419752,aldi_sud_us,ALDI  9310 Irving Park Road,,Schiller Park,IL,,US,+1 833-440-1005,https://stores.aldi.us/il/schiller-park/9310-irving-park-road,"Mo-Su 08:30-20:00,09:00-20:00",ALDI,Q41171672
https://locations.baskinrobbins.com/il/schiller-park/4740-n-river-road-342442-br,baskin_robbins_us,Baskin-Robbinsâ„¢,,Schiller Park,IL,,US,+1 847-671-9588,https://locations.baskinrobbins.com/il/schiller-park/4740-n-river-road-342442-br,Mo-Su 04:00-22:00,Baskin-Robbins,Q584601
155341,bluerhino,Walgreens #4826,,Schiller Park,IL,,US,+1 847-233-0576,,,Blue Rhino,Q65681213
215247,bluerhino,"Breakthru, Inc #8373",,Schiller Park,IL,,US,+1 847-678-6233,,,Blue Rhino,Q65681213
41806671292016017600100000063086,bp,BP,,Schiller Park,IL,,US,+1 847-671-0453,,24/7,BP,Q152057
95399367601116017600100000000000,bp,BP,,Schiller Park,IL,,US,+1 847-678-5480,,24/7,BP,Q152057
2042779,chase_us,Schiller Park Commons - New branch,,Schiller Park,IL,,US,+1 847-678-0030,https://locator.chase.com/il/schiller-park/9320-irving-park-rd,Mo-Fr 09:00-17:00; Sa 09:00-14:00,Chase,Q524629
248818,dennys,Denny's,,Schiller Park,IL,,US,+1 847-678-5556,https://locations.dennys.com/IL/SCHILLER-PARK/248818,24/7,Denny's,Q1189695
8887,dollartree,DollarTree,,Schiller Park,IL,,US,+1 847-737-2217,,Mo-Sa 09:00-21:00; Su 10:00-20:00,Dollar Tree,Q5289230
308781,dunkin_us,Dunkin',,Schiller Park,IL,,US,+1 847-447-3298,https://locations.dunkindonuts.com/en/il/schiller-park/9280-irving-park-rd/308781,Mo-Sa 04:00-18:00; Su 05:00-18:00,Dunkin',Q847743
348499,dunkin_us,Dunkin',,Schiller Park,IL,,US,+1 847-671-8027,https://locations.dunkindonuts.com/en/il/schiller-park/4121-n-mannheim-rd/348499,24/7,Dunkin',Q847743
342442,dunkin_us,Dunkin',,Schiller Park,IL,,US,+1 847-671-9588,https://locations.dunkindonuts.com/en/il/schiller-park/4740-n-river-road/342442,Mo-Su 04:00-22:00,Dunkin',Q847743
E115CZ,enterprise,Schiller Park,,Schiller Park,IL,,US,+1 847-233-7600,,,Enterprise Rent-A-Car,Q17085454
200327889,exxonmobil,SCHILLER PARK MOBIL,,SCHILLER PARK,IL,,US,+1 847-671-7887,https://www.exxon.com/en/find-station/mobil-schillerpark-il-schillerparkmobil-200327889,24/7,Mobil,Q109676002
https://local.fedex.com/#25199730,fedex,,,Schiller Park,IL,,US,+1 800-463-3339,https://local.fedex.com/en-us/il/schiller-park/nt6mj,,FedEx,Q459477
29736,huntingtonbank,Schiller Park,,Schiller Park,IL,,US,+1 847-928-6830,https://www.huntington.com/Community/branch-info?locationId=29736,Mo-Fr 09:00-17:00; Sa-Su 00:00-00:00,Huntington Bank,Q798819
https://office.jacksonhewitt.com/#27575965,jackson_hewitt,Jackson Hewitt,,Schiller Park,IL,,US,+1 847-928-2024,https://office.jacksonhewitt.com/tax-preparation-services-locations/en/il/schiller-park/9276-irving-park-rd/10214,Mo-Fr 10:00-19:00; Sa 10:00-17:00,Jackson Hewitt,Q6117132
https://locations.jimmyjohns.com/il/schillerpark/sandwiches-2522.html,jimmy_johns,Jimmy John's,,Schiller Park,IL,,US,+1 847-260-5210,https://locations.jimmyjohns.com/il/schillerpark/sandwiches-2522.html,,Jimmy John's,Q1689380
CHIFP,marriott,Four Points by Sheraton Chicago O'Hare Airport,,Schiller Park,IL,,US,+1 847-671-6000,https://www.marriott.com/CHIFP,,Four Points by Sheraton,Q1439966
2900,mightyflame,MARATHON,,SCHILLER PARK,IL,,US,+1 847-260-5747,,,Mighty Flame,
https://www.publicstorage.com/self-storage-il-schiller-park/1349.html,public_storage_us,Public Storage,,Schiller Park,IL,,US,+1 847-260-7827,https://www.publicstorage.com/self-storage-il-schiller-park/1349.html,,Public Storage,Q1156045
https://www.publicstorage.com/self-storage-il-schiller-park/1355.html,public_storage_us,Public Storage,,Schiller Park,IL,,US,+1 847-920-7038,https://www.publicstorage.com/self-storage-il-schiller-park/1355.html,,Public Storage,Q1156045
https://restaurants.subway.com/#14903232,subway,Subway River Road Plaza,,Schiller Park Cook,IL,,US,+1 847-233-0280,https://restaurants.subway.com/united-states/il/schiller-park/4738-river-road,Mo-Fr 08:00-22:00; Sa 09:00-21:00; Su 09:00-20:00,Subway,Q244457
https://restaurants.subway.com/#14898077,subway,Subway,,Schiller Park Cook,IL,,US,+1 847-678-6547,https://restaurants.subway.com/united-states/il/schiller-park/9282-w-irving-park-rd,Mo-Fr 07:00-21:30; Sa 08:00-21:30; Su 09:00-21:00,Subway,Q244457
https://restaurants.subway.com/#20717072,subway,Subway O'Hare Oasis,,Schiller Park,IL,,US,+1 630-272-4075,https://restaurants.subway.com/united-states/il/schiller-park/10201-belle-plaine-ave,Mo-Th 07:00-23:00; Fr-Sa 07:00-24:00; Su 07:00-23:00,Subway,Q244457
https://restaurants.subway.com/#14900024,subway,Subway Shell Gas/C-Store,,Schiller Park Cook,IL,,US,+1 847-928-2100,https://restaurants.subway.com/united-states/il/schiller-park/4131-n-mannheim-road,,Subway,Q244457
1434907,usps,SCHILLER PARK,,SCHILLER PARK,IL,,US,+1 847-678-1308,,Mo-Fr 09:30-16:00; Sa 09:00-12:00,United States Postal Service,Q668687
6017600011,usps_collection_boxes,USPS COLLECTION BOX - EXPRESS,10509 UNITED PKWY,SCHILLER PARK,IL,,US,,,,United States Postal Service,Q668687
6017600015,usps_collection_boxes,USPS COLLECTION BOX - BLUE BOX,10509 UNITED PKWY,SCHILLER PARK,IL,,US,,,,United States Postal Service,Q668687
6017600002,usps_collection_boxes,USPS COLLECTION BOX - BLUE BOX,9760 FRANKLIN AVE,SCHILLER PARK,IL,,US,,,,United States Postal Service,Q668687
6017600014,usps_collection_boxes,USPS COLLECTION BOX - BLUE BOX,4300 UNITED PKWY,SCHILLER PARK,IL,,US,,,,United States Postal Service,Q668687
6017600006,usps_collection_boxes,USPS COLLECTION BOX - BLUE BOX,10050 SEYMOUR AVE,SCHILLER PARK,IL,,US,,,,United States Postal Service,Q668687
6017600005,usps_collection_boxes,USPS COLLECTION BOX - BLUE BOX,9806 MONTROSE AVE,SCHILLER PARK,IL,,US,,,,United States Postal Service,Q668687
6017600004,usps_collection_boxes,USPS COLLECTION BOX - BLUE BOX,9651 IRVING PARK RD,SCHILLER PARK,IL,,US,,,,United States Postal Service,Q668687
6017600008,usps_collection_boxes,USPS COLLECTION BOX - BLUE BOX,3916 25TH AVE,SCHILLER PARK,IL,,US,,,,United States Postal Service,Q668687
6017600012,usps_collection_boxes,USPS COLLECTION BOX - BLUE BOX,9607 LAWRENCE AVE,SCHILLER PARK,IL,,US,,,,United States Postal Service,Q668687
6017600017,usps_collection_boxes,USPS COLLECTION BOX - BLUE BOX,9225 IVANHOE ST,SCHILLER PARK,IL,,US,,,,United States Postal Service,Q668687
6017600019,usps_collection_boxes,USPS COLLECTION BOX - BLUE BOX,9460 IRVING PARK RD,SCHILLER PARK,IL,,US,,,,United States Postal Service,Q668687
6017600026,usps_collection_boxes,USPS COLLECTION BOX - PO LOBBY,9460 IRVING PARK RD,SCHILLER PARK,IL,,US,,,,United States Postal Service,Q668687
6017600027,usps_collection_boxes,USPS COLLECTION BOX - PO LOBBY,9460 IRVING PARK RD,SCHILLER PARK,IL,,US,,,,United States Postal Service,Q668687
6017600029,usps_collection_boxes,USPS COLLECTION BOX - PO LOBBY,9460 IRVING PARK RD,SCHILLER PARK,IL,,US,,,,United States Postal Service,Q668687
6017600020,usps_collection_boxes,USPS COLLECTION BOX - BLUE BOX,9460 IRVING PARK RD,SCHILLER PARK,IL,,US,,,,United States Postal Service,Q668687
6017600021,usps_collection_boxes,USPS COLLECTION BOX - BLUE BOX,9526 IRVING PARK RD,SCHILLER PARK,IL,,US,,,,United States Postal Service,Q668687
6017600001,usps_collection_boxes,USPS COLLECTION BOX - BLUE BOX,9320 IRVING PARK RD,SCHILLER PARK,IL,,US,,,,United States Postal Service,Q668687
6017600016,usps_collection_boxes,USPS COLLECTION BOX - BLUE BOX,9202 SUSY LN,SCHILLER PARK,IL,,US,,,,United States Postal Service,Q668687
6017600007,usps_collection_boxes,USPS COLLECTION BOX - BLUE BOX,4625 WESLEY TER,SCHILLER PARK,IL,,US,,,,United States Postal Service,Q668687
6017600013,usps_collection_boxes,USPS COLLECTION BOX - BLUE BOX,4848 RIVER RD,SCHILLER PARK,IL,,US,,,,United States Postal Service,Q668687
,visa,,,SCHILLER PARK,IL,,US,,,,,
,visa,,,SCHILLER PARK,IL,,US,,,,,
,visa,,,SCHILLER PARK,IL,,US,,,,,
,visa,,,SCHILLER PARK,IL,,US,,,,,
,visa,,,SCHILLER PARK,IL,,US,,,,,
,visa,,,SCHILLER PARK,IL,,US,,,,,
,visa,,,SCHILLER,IL,,US,,,,,
,visa,,,SCHILLER PARK,IL,,US,,,,,
,visa,,,SCHILLER PARK,IL,,US,,,,,
,visa,,,SCHILLER PARK,IL,,US,,,,,
,visa,,,SCHILLER PARK,IL,,US,,,,,
,visa,,,SCHILLER PARK,IL,,US,,,,,
,visa,,,SCHILLER PARK,IL,,US,,,,,
,visa,,,SCHILLER PARK,IL,,US,,,,,
,visa,,,SCHILLER PARK,IL,,US,,,,,
,visa,,,SCHILLER PARK,IL,,US,,,,,
,visa,,,SCHILLER PARK,IL,,US,,,,,
,visa,,,SCHILLER PARK,IL,,US,,,,,
,visa,,,SCHILLER PARK,IL,,US,,,,,
,visa,,,SCHILLER PARK,IL,,US,,,,,
,visa,,,SCHILLER PARK,IL,,US,,,,,
,visa,,,SCHILLER PARK,IL,,US,,,,,
,visa,,,SCHILLER PARK,IL,,US,,,,,
,visa,,,SCHILLER PARK,IL,,US,,,,,
,visa,,,SCHILLER PARK,IL,,US,,,,,
,visa,,,SCHILLER PARK,IL,,US,,,,,
,visa,,,SCHILLER PARK,IL,,US,,,,,
,visa,,,SCHILLER PARK,IL,,US,,,,,
,visa,,,SCHILLER PARK,IL,,US,,,,,
,visa,,,SCHILLER PARK,IL,,US,,,,,
,visa,,,SHILLER PARK,IL,,US,,,,,
,visa,,,SCHILLER PARK,IL,,US,,,,,
,visa,,,SCHILLER PARK,IL,,US,,,,,
,visa,,,SCHILLER PART,IL,,US,,,,,
,visa,,,SCHILLER PARK,IL,,US,,,,,
,visa,,,SCHILLER PARK,IL,,US,,,,,
,visa,,,SCHILLER PARK,IL,,US,,,,,
,visa,,,SCHILLER PARK,IL,,US,,,,,
,visa,,,SCHILLER PARK,IL,,US,,,,,
,visa,,,SCHILLER PARK,IL,,US,,,,,
,visa,,,SCHILLER PARK,IL,,US,,,,,
,visa,,,SCHILLER PARK,IL,,US,,,,,
,visa,,,SCHULLER PARK,IL,,US,,,,,
,visa,,,SCHILLER PARK,IL,,US,,,,,
https://www.walgreens.com/locator/walgreens-9800+irving+park+rd-schiller+park-il-60176/id=4826,walgreens,Walgreens,,Schiller Park,IL,,US,+1 847-233-0576,https://www.walgreens.com/locator/walgreens-9800+irving+park+rd-schiller+park-il-60176/id=4826,Mo-Su 07:00-24:00,Walgreens,Q1591889
https://locations.wendys.com/#9255567,wendys,"Wendy's Schiller Park in Schiller Park, IL",,Schiller Park,IL,,US,+1 847-671-9669,https://locations.wendys.com/united-states/il/schiller-park/9335-irving-park-rd,"Mo-Fr 05:30-10:30,05:30-22:00; Sa-Su 06:00-10:30,06:00-22:00",Wendy's,Q550258
5b2496e5e57be171e9c5ccb79095623d,western_union,SCHILLER PARK CHECK EXCHANGE,,Schiller Park,IL,,US,+1 847-678-5277,https://location.westernunion.com/us/il/schiller-park/5b2496e5e57be171e9c5ccb79095623d,Mo-Sa 10:00-18:00,Western Union,Q861042
b53285629435a1ed3f75d8253d345ae3,western_union,7-ELEVEN #33771,,Schiller Park,IL,,US,+1 847-671-1995,https://location.westernunion.com/us/il/schiller-park/b53285629435a1ed3f75d8253d345ae3,,Western Union,Q861042
dd6de859b22495a7b9d561787935b30d,western_union,7-ELEVEN #33858,,Schiller Park,IL,,US,+1 847-678-4422,https://location.westernunion.com/us/il/schiller-park/dd6de859b22495a7b9d561787935b30d,,Western Union,Q861042
150340,wingstop,Wingstop Schiller Park Irving Park Road,9732 Irving Park Road,Schiller Park,IL,,US,+1 224-414-2644,,,Wingstop,Q8025339
