Ref,Spider,Name,Address,City,State,Zipcode,Country,Phone,Website,Hours,Brand,WikiData
https://locators.bankofamerica.com/ma/norton/atm-norton-102795.html,bankofamerica,Bank of America Walk-Up ATM | Great Woods Remote,,Norton,MA,,US,+1 844-401-8500,https://locators.bankofamerica.com/ma/norton/atm-norton-102795.html,,Bank of America,Q487907
217305,bluerhino,Cumberland Farms #6788,,Norton,MA,,US,+1 508-270-1592,,,Blue Rhino,Q65681213
58872,bluerhino,Cumberland Farms #150,,Norton,MA,,US,+1 508-285-7129,,,Blue Rhino,Q65681213
199416,bluerhino,Speedway #2411,,Norton,MA,,US,+1 508-285-2735,,,Blue Rhino,Q65681213
154541,bluerhino,Walgreens #02781,,Norton,MA,,US,+1 508-285-4961,,,Blue Rhino,Q65681213
76817,citi,ATM Speedway,,Norton,MA,,US,,,,Citibank,Q857063
90620,citi,ATM Walgreens,,Norton,MA,,US,,,,Citibank,Q857063
50470,citi,ATM CVS,,Norton,MA,,US,,,,Citibank,Q857063
ATM-1942,citizens_us,,,Norton,MA,,US,,,,Citizens,Q5122694
ATM-1684,citizens_us,,,Norton,MA,,US,,,,Citizens,Q5122694
520021,cumberland_farms_us,Cumberland Farms,,NORTON,MA,,US,+1 508-285-7129,https://www.cumberlandfarms.com/find-us/generic-store-page/?id=000150,,Cumberland Farms,Q1143685
521552,cumberland_farms_us,Cumberland Farms,,NORTON,MA,,US,+1 508-270-1482,https://www.cumberlandfarms.com/find-us/generic-store-page/?id=006788,,Cumberland Farms,Q1143685
1877,cvs_us,CVS Pharmacy,,Norton,MA,,US,+1 508-285-4032,https://www.cvs.com/store-locator/norton-ma-pharmacies/35-w-main-st-norton-ma-02766/storeid=1877,Mo-Su 07:00-22:00,CVS Pharmacy,Q2078880
336802,dunkin_us,Dunkin',,Norton,MA,,US,+1 508-285-7253,https://locations.dunkindonuts.com/en/ma/norton/246-e-main-st/336802,Mo-Su 04:00-20:00,Dunkin',Q847743
308711,dunkin_us,Dunkin',,Norton,MA,,US,+1 508-285-6963,https://locations.dunkindonuts.com/en/ma/norton/175-mansfield-ave/308711,Mo-Su 04:00-21:00,Dunkin',Q847743
330400,dunkin_us,Dunkin',,Norton,MA,,US,+1 508-223-4212,https://locations.dunkindonuts.com/en/ma/norton/420-old-colony-rd/330400,Mo-Su 04:00-21:00,Dunkin',Q847743
520021,eg_america_us,Cumberland Farms,,NORTON,MA,,US,+1 508-285-7129,https://www.cumberlandfarms.com/find-us/generic-store-page/?id=000150,,Cumberland Farms,Q1143685
521552,eg_america_us,Cumberland Farms,,NORTON,MA,,US,+1 508-270-1482,https://www.cumberlandfarms.com/find-us/generic-store-page/?id=006788,,Cumberland Farms,Q1143685
10338,follett,Wheaton Campus Bookstore | Official Wheaton College (MA) Store,,Norton,MA,,US,+1 508-286-3430,https://www.bkstr.com/wheatonstore/home,,,
607310,penske,Penske Norton,,NORTON,MA,,US,+1 508-622-3222,https://www.pensketruckrental.com/locations/us/massachusetts/norton/607310/,,Penske,Q81234570
https://restaurants.subway.com/#14898849,subway,Subway,,Norton Bristol,MA,,US,+1 508-286-0086,https://restaurants.subway.com/united-states/ma/norton/130-mansfield-ave,Mo-Fr 09:00-21:00; Sa-Su 09:00-20:00,Subway,Q244457
1375597,usps,NORTON,,NORTON,MA,,US,+1 508-285-8537,,Mo-Fr 08:00-17:00; Sa 08:00-12:00,United States Postal Service,Q668687
0276600010,usps_collection_boxes,USPS COLLECTION BOX - BLUE BOX,250 E MAIN ST,NORTON,MA,,US,,,,United States Postal Service,Q668687
0276600007,usps_collection_boxes,USPS COLLECTION BOX - BLUE BOX,175 MANSFIELD AVE,NORTON,MA,,US,,,,United States Postal Service,Q668687
0276600002,usps_collection_boxes,USPS COLLECTION BOX - BLUE BOX,6 TAUNTON AVE,NORTON,MA,,US,,,,United States Postal Service,Q668687
,visa,,,RAYNHAM,MA,,US,,,,,
,visa,,,NORTON,MA,,US,,,,,
,visa,,,NORTON,MA,,US,,,,,
,visa,,,NORTON,MA,,US,,,,,
,visa,,,NORTON,MA,,US,,,,,
,visa,,,NORTON,MA,,US,,,,,
,visa,,,NORTON,MA,,US,,,,,
,visa,,,NORTON,MA,,US,,,,,
,visa,,,NORTON,MA,,US,,,,,
,visa,,,NORTON,MA,,US,,,,,
,visa,,,NORTON,MA,,US,,,,,
,visa,,,NORTON,MA,,US,,,,,
,visa,,,NORTON,MA,,US,,,,,
,visa,,,NORTON,MA,,US,,,,,
,visa,,,NORTON,MA,,US,,,,,
,visa,,,NORTON,MA,,US,,,,,
,visa,,,NORTON,MA,,US,,,,,
,visa,,,NORTON,MA,,US,,,,,
,visa,,,NORTON,MA,,US,,,,,
,visa,,,NORTON,MA,,US,,,,,
,visa,,,NORTON,MA,,US,,,,,
,visa,,,NORTON,MA,,US,,,,,
,visa,,,NORTON,MA,,US,,,,,
,visa,,,NORTON,MA,,US,,,,,
,visa,,,NORTON,MA,,US,,,,,
,visa,,,NORTON,MA,,US,,,,,
https://www.walgreens.com/locator/walgreens-38+w+main+st-norton-ma-02766/id=2781,walgreens,Walgreens,,Norton,MA,,US,+1 508-285-4961,https://www.walgreens.com/locator/walgreens-38+w+main+st-norton-ma-02766/id=2781,Mo-Su 09:00-21:00,Walgreens,Q1591889
