Ref,Spider,Name,Address,City,State,Zipcode,Country,Phone,Website,Hours,Brand,WikiData
https://local.fedex.com/#27765151,fedex,FedEx Station,,,Bali,,ID,,https://local.fedex.com/en-id/denpasar/dpst8,,FedEx,Q459477
,visa,,,DENPASAR,BALI,,ID,,,,,
,visa,,,DENPASAR,BALI,,ID,,,,,
,visa,,,DENPASAR,BALI,,ID,,,,,
,visa,,,DENPASAR,BALI,,ID,,,,,
,visa,,,DENPASAR,BALI,,ID,,,,,
,visa,,,DENPASAR,BALI,,ID,,,,,
,visa,,,DENPASAR,BALI,,ID,,,,,
,visa,,,DENPASAR,BALI,,ID,,,,,
,visa,,,DENPASAR,BALI,,ID,,,,,
,visa,,,DENPASAR,BALI,,ID,,,,,
,visa,,,DENPASAR,BALI,,ID,,,,,
,visa,,,DENPASAR,BALI,,ID,,,,,
,visa,,,DENPASAR,BALI,,ID,,,,,
,visa,,,DENPASAR,BALI,,ID,,,,,
,visa,,,DENPASAR,BALI,,ID,,,,,
,visa,,,DENPASAR,BALI,,ID,,,,,
,visa,,,DENPASAR,BALI,,ID,,,,,
,visa,,,DENPASAR,BALI,,ID,,,,,
,visa,,,DENPASAR,BALI,,ID,,,,,
,visa,,,DENPASAR,BALI,,ID,,,,,
,visa,,,DENPASAR,BALI,,ID,,,,,
,visa,,,DENPASAR,BALI,,ID,,,,,
,visa,,,DENPASAR,BALI,,ID,,,,,
,visa,,,DENPASAR,BALI,,ID,,,,,
,visa,,,DENPASAR,BALI,,ID,,,,,
,visa,,,DENPASAR,BALI,,ID,,,,,
,visa,,,DENPASAR,BALI,,ID,,,,,
,visa,,,DENPASAR,BALI,,ID,,,,,
,visa,,,DENPASAR,BALI,,ID,,,,,
,visa,,,DENPASAR,BALI,,ID,,,,,
,visa,,,DENPASAR,BALI,,ID,,,,,
,visa,,,DENPASAR,BALI,,ID,,,,,
,visa,,,DENPASAR,BALI,,ID,,,,,
,visa,,,DENPASAR,BALI,,ID,,,,,
,visa,,,DENPASAR,BALI,,ID,,,,,
,visa,,,DENPASAR,BALI,,ID,,,,,
,visa,,,DENPASAR,BALI,,ID,,,,,
,visa,,,DENPASAR,BALI,,ID,,,,,
,visa,,,DENPASAR,BALI,,ID,,,,,
,visa,,,DENPASAR,BALI,,ID,,,,,
,visa,,,DENPASAR,BALI,,ID,,,,,
,visa,,,DENPASAR,BALI,,ID,,,,,
,visa,,,DENPASAR,BALI,,ID,,,,,
,visa,,,DENPASAR,BALI,,ID,,,,,
,visa,,,DENPASAR,BALI,,ID,,,,,
,visa,,,DENPASAR,BALI,,ID,,,,,
,visa,,,DENPASAR,BALI,,ID,,,,,
,visa,,,DENPASAR,BALI,,ID,,,,,
,visa,,,DENPASAR,BALI,,ID,,,,,
,visa,,,DENPASAR,BALI,,ID,,,,,
,visa,,,DENPASAR,BALI,,ID,,,,,
,visa,,,DENPASAR,BALI,,ID,,,,,
,visa,,,DENPASAR,BALI,,ID,,,,,
,visa,,,DENPASAR,BALI,,ID,,,,,
,visa,,,DENPASAR,BALI,,ID,,,,,
,visa,,,DENPASAR,BALI,,ID,,,,,
,visa,,,DENPASAR,BALI,,ID,,,,,
7886777f2774307e0096660694c7b57d,western_union,BSI KCP SINGARAJA A YANI,,Buleleng,BALI,,ID,+62 362 3308477,https://location.westernunion.com/id/bali/buleleng/7886777f2774307e0096660694c7b57d,Mo-Fr 08:00-15:00,Western Union,Q861042
a543601fc6641b9295ed2caa568ef755,western_union,KOPERASI PAYU 337,,Gianyar,BALI,,ID,+62 21 29475518,https://location.westernunion.com/id/bali/gianyar/a543601fc6641b9295ed2caa568ef755,Mo-Su 08:00-21:00,Western Union,Q861042
1f1e7821fecbec73073eaba9a4edbb65,western_union,BSI KCP SINGARAJA UDAYANA,,Buleleng,BALI,,ID,+62 362 3303047,https://location.westernunion.com/id/bali/buleleng/1f1e7821fecbec73073eaba9a4edbb65,Mo-Fr 08:00-15:00,Western Union,Q861042
622011bc9250088696685f24cd2748ee,western_union,PEGADAIAN UPC MELAYA,,Jembrana,BALI,,ID,+62 361 728728,https://location.westernunion.com/id/bali/jembrana/622011bc9250088696685f24cd2748ee,Mo-Fr 07:30-15:00; Sa 07:30-12:00,Western Union,Q861042
d135c6dd33452f3fa9599b9535b3f777,western_union,PT POS KPC MELAYA,,Jembrana,BALI,,ID,+62 365 61525,https://location.westernunion.com/id/bali/jembrana/d135c6dd33452f3fa9599b9535b3f777,Mo-Fr 09:00-15:00; Sa 09:00-12:00,Western Union,Q861042
b7e160fb2faa14dd535645af9e68f59d,western_union,BPD BALI KCP GILIMANUK,,Jembrana,BALI,,ID,+62 365 61085,https://location.westernunion.com/id/bali/jembrana/b7e160fb2faa14dd535645af9e68f59d,Mo-Fr 06:00-19:00,Western Union,Q861042
1e407de10b2470e3ffec44e3e63a861a,western_union,PEGADAIAN UPC PEKUTATAN,,Denpasar,BALI,,ID,(+62) 36-43328,https://location.westernunion.com/id/bali/denpasar/1e407de10b2470e3ffec44e3e63a861a,Mo-Fr 07:30-15:00; Sa 07:30-12:00,Western Union,Q861042
8573325b225c4ec6c7308eecae994a86,western_union,BRI UNIT GEROKGAK,,Buleleng,BALI,,ID,+62 362 93580,https://location.westernunion.com/id/bali/buleleng/8573325b225c4ec6c7308eecae994a86,Mo-Fr 08:00-15:00,Western Union,Q861042
74d8cf9703797869c29305937300d4b8,western_union,PT POS KPC PEKUTATAN,,Jembrana,BALI,,ID,+62 21 3511524,https://location.westernunion.com/id/bali/jembrana/74d8cf9703797869c29305937300d4b8,Mo-Fr 09:00-15:00; Sa 09:00-12:00,Western Union,Q861042
488a2417108eb499cea9996bf526db49,western_union,PEGADAIAN UPC PASAR TEGAL CANGKRING,,Jembrana,BALI,,ID,+62 365 41092,https://location.westernunion.com/id/bali/jembrana/488a2417108eb499cea9996bf526db49,Mo-Fr 07:30-15:00; Sa 07:30-12:00,Western Union,Q861042
9d7a2b986e217562cfd59005b16c39dd,western_union,PEGADAIAN UPC PASAR UMUM NEGARA,,Jembrana,BALI,,ID,+62 365 41092,https://location.westernunion.com/id/bali/jembrana/9d7a2b986e217562cfd59005b16c39dd,Mo-Fr 07:30-15:00; Sa 07:30-12:00,Western Union,Q861042
3926a1cbd082c32e6ff213c11ae35fb6,western_union,PT POS KPC NEGARA,,Tabanan,BALI,,ID,+62 365 41203,https://location.westernunion.com/id/bali/tabanan/3926a1cbd082c32e6ff213c11ae35fb6,Mo-Fr 09:00-15:00; Sa 09:00-12:00,Western Union,Q861042
58b3ab80bdeec32c77f8519cfb69429a,western_union,PEGADAIAN UPC GILIMANUK,,Jembrana,BALI,,ID,+62 361 728728,https://location.westernunion.com/id/bali/jembrana/58b3ab80bdeec32c77f8519cfb69429a,Mo-Fr 07:30-15:00; Sa 07:30-12:00,Western Union,Q861042
adb1cb5b3756d44a0814110e37e1f4c7,western_union,PEGADAIAN UPC PAHLAWAN,,Jembrana,BALI,,ID,+62 361 728728,https://location.westernunion.com/id/bali/jembrana/adb1cb5b3756d44a0814110e37e1f4c7,Mo-Fr 07:30-15:00; Sa 07:30-12:00,Western Union,Q861042
9561b54ec72a6e99384a73fb58091592,western_union,BRI KK PEMKAB JEMBRANA,,Jembrana,BALI,,ID,+62 1 500 017,https://location.westernunion.com/id/bali/jembrana/9561b54ec72a6e99384a73fb58091592,Mo-Fr 08:00-15:00,Western Union,Q861042
80346b845c20ff51a90cde0859dc24f5,western_union,PEGADAIAN UPC PASAR SERIRIT,,Buleleng,BALI,,ID,+62 361 728728,https://location.westernunion.com/id/bali/buleleng/80346b845c20ff51a90cde0859dc24f5,Mo-Fr 07:30-15:00; Sa 07:30-12:00,Western Union,Q861042
92d02fb63e0aa094c7d108d6bd422f2c,western_union,BPD BALI KC SERIRIT,,Buleleng,BALI,,ID,+62 362 92060,https://location.westernunion.com/id/bali/buleleng/92d02fb63e0aa094c7d108d6bd422f2c,Mo-Fr 08:00-15:00,Western Union,Q861042
988cba8569de4d5f544aac428d2c949b,western_union,BPD BALI KCP PEKUTATAN,,Jembrana,BALI,,ID,+62 365 41984,https://location.westernunion.com/id/bali/jembrana/988cba8569de4d5f544aac428d2c949b,Mo-Fr 06:00-19:00,Western Union,Q861042
e43f5aea29a7347c729c3fb848791c1b,western_union,REMITEN DEWI SARTIKA 1,,Badung,BALI,,ID,+62 361 750065,https://location.westernunion.com/id/bali/badung/e43f5aea29a7347c729c3fb848791c1b,Mo-Su 08:45-21:00,Western Union,Q861042
8fdb013cbcb4ef7b453f21899c2dad50,western_union,PEGADAIAN UPC TAMAN GRIYA,,Badung,BALI,,ID,+62 851-3900-0692,https://location.westernunion.com/id/bali/badung/8fdb013cbcb4ef7b453f21899c2dad50,Mo-Fr 08:00-15:00; Sa 08:00-12:00,Western Union,Q861042
bbb1d65c5c0ebd9b64143448c75f7a88,western_union,PEGADAIAN CP JIMBARAN,,Badung,BALI,,ID,+62 361 728728,https://location.westernunion.com/id/bali/badung/bbb1d65c5c0ebd9b64143448c75f7a88,Mo-Fr 07:30-15:00; Sa 07:30-12:00,Western Union,Q861042
69277b9c0577ca1c97570e93588cf272,western_union,PEGADAIAN UPC KERAMBITAN,,Tabanan,BALI,,ID,+62 361 728728,https://location.westernunion.com/id/bali/tabanan/69277b9c0577ca1c97570e93588cf272,Mo-Fr 07:30-15:00; Sa 07:30-12:00,Western Union,Q861042
459753063eb4c8efbd6df0228d192304,western_union,PEGADAIAN UPC PASAR JIMBARAN,,Denpasar,BALI,,ID,+62 361 765608,https://location.westernunion.com/id/bali/denpasar/459753063eb4c8efbd6df0228d192304,Mo-Fr 07:30-15:00; Sa 07:30-12:00,Western Union,Q861042
72c617c225a749748d71fc62358f9123,western_union,KOPERASI PAYU 625,,Badung,BALI,,ID,+62 21 29475518,https://location.westernunion.com/id/bali/badung/72c617c225a749748d71fc62358f9123,Mo-Su 08:00-19:00,Western Union,Q861042
ca51f92ef26c49ff13f635398a5d4845,western_union,KOPERASI PAYU 622,,Badung,BALI,,ID,+62 21 29475518,https://location.westernunion.com/id/bali/badung/ca51f92ef26c49ff13f635398a5d4845,Mo-Su 08:00-19:00,Western Union,Q861042
73787371c0ec587acdb06f7a9c0aff4a,western_union,PEGADAIAN UPC MELILING,,Tabanan,BALI,,ID,+62 368 13902,https://location.westernunion.com/id/bali/tabanan/73787371c0ec587acdb06f7a9c0aff4a,Mo-Fr 07:30-15:00; Sa 07:30-12:00,Western Union,Q861042
3373da2290822baaa221732d57393256,western_union,REMITEN KALIMAS,,Badung,BALI,,ID,+62 361 4741948,https://location.westernunion.com/id/bali/badung/3373da2290822baaa221732d57393256,Mo-Su 09:15-20:45,Western Union,Q861042
f87e2e4ba615ac44d6b79f858c8d7dc8,western_union,PEGADAIAN UPC TANAH LOT,,Tabanan,BALI,,ID,(+62) 36-7962917,https://location.westernunion.com/id/bali/tabanan/f87e2e4ba615ac44d6b79f858c8d7dc8,Mo-Fr 08:00-17:00; Sa 08:00-14:00,Western Union,Q861042
402da1a013a5b8cdaaa35b967dc3a8e3,western_union,KOPERASI PAYU 626,,Badung,BALI,,ID,+62 21 29475518,https://location.westernunion.com/id/bali/badung/402da1a013a5b8cdaaa35b967dc3a8e3,Mo-Su 08:00-19:00,Western Union,Q861042
6a5e6b4c7c07c04ac8e746810bfc0e0b,western_union,BPD BALI KC NEGARA,,Jembrana,BALI,,ID,+62 365 41120,https://location.westernunion.com/id/bali/jembrana/6a5e6b4c7c07c04ac8e746810bfc0e0b,Mo-Fr 06:00-19:00,Western Union,Q861042
ad73c8bc25b2200048d206e4e0000178,western_union,PEGADAIAN UPC KENDAI II,,Jembrana,BALI,,ID,+62 877-6674-2136,https://location.westernunion.com/id/bali/jembrana/ad73c8bc25b2200048d206e4e0000178,Mo-Fr 07:30-15:00; Sa 07:30-12:00,Western Union,Q861042
f5d6a5ec63c55b43bf3146beead0c2bf,western_union,PEGADAIAN UPC LELATENG,,Jembrana,BALI,,ID,+62 21 3155550,https://location.westernunion.com/id/bali/jembrana/f5d6a5ec63c55b43bf3146beead0c2bf,Mo-Fr 07:30-15:00; Sa 07:30-12:00,Western Union,Q861042
7759302d86a8a55f0508f0f8f9618d13,western_union,BRI UNIT BALUK,,Jembrana,BALI,,ID,+62 365 41191,https://location.westernunion.com/id/bali/jembrana/7759302d86a8a55f0508f0f8f9618d13,Mo-Fr 08:00-15:00,Western Union,Q861042
ed3c09be38b674f5bfb86ae8f17fdf95,western_union,PEGADAIAN UPC PASAR KUTA,,Denpasar,BALI,,ID,+62 361 765608,https://location.westernunion.com/id/bali/denpasar/ed3c09be38b674f5bfb86ae8f17fdf95,Mo-Fr 07:30-15:00; Sa 07:30-12:00,Western Union,Q861042
d145958e6db5a3f9b008559e3551cfc0,western_union,ADISENA BUNISARI KUTA,,Badung,BALI,,ID,+62 821-4744-4882,https://location.westernunion.com/id/bali/badung/d145958e6db5a3f9b008559e3551cfc0,Mo-Sa 08:00-18:00,Western Union,Q861042
27954cdba1e6d88c3c8e9150c7266d30,western_union,REMITEN KUTA RAYA II,,Badung,BALI,,ID,+62 361 767684,https://location.westernunion.com/id/bali/badung/27954cdba1e6d88c3c8e9150c7266d30,Mo-Su 08:30-21:00,Western Union,Q861042
5fa088b884f8e280b6fa54e6b930da3f,western_union,REMITEN KUTA SQUARE 2,,Badung,BALI,,ID,+62 361 4741948,https://location.westernunion.com/id/bali/badung/5fa088b884f8e280b6fa54e6b930da3f,Mo-Sa 08:30-21:30; Su 08:30-20:30,Western Union,Q861042
4d1f9833b705a2439f4cdab5c0c35e03,western_union,BPD BALI KK BANDARA NGURAH RAI,,Badung,BALI,,ID,+62 361 766086,https://location.westernunion.com/id/bali/badung/4d1f9833b705a2439f4cdab5c0c35e03,Mo-Fr 06:00-19:00,Western Union,Q861042
96fade2b08dda8d60c7f05bc836f7933,western_union,KOPERASI PAYU 621,,Badung,BALI,,ID,+62 21 29475518,https://location.westernunion.com/id/bali/badung/96fade2b08dda8d60c7f05bc836f7933,Mo-Su 08:00-19:00,Western Union,Q861042
9854ac132635e45b077df059a933cf0a,western_union,PEGADAIAN UPC KEDIRI KUTA,,Badung,BALI,,ID,+62 361 728728,https://location.westernunion.com/id/bali/badung/9854ac132635e45b077df059a933cf0a,Mo-Fr 07:30-15:00; Sa 07:30-12:00,Western Union,Q861042
56f220bcefcb3cef7822543806283632,western_union,JNE DENPASAR TUBAN,,Denpasar,BALI,,ID,+62 361 765417,https://location.westernunion.com/id/bali/denpasar/56f220bcefcb3cef7822543806283632,Mo-Fr 09:00-17:00; Sa 09:00-13:00,Western Union,Q861042
5cda7dc3c8714b56b3c7853fd8ddc54d,western_union,KOPERASI PAYU 627,,Kuta,BALI,,ID,+62 21 29475518,https://location.westernunion.com/id/bali/kuta/5cda7dc3c8714b56b3c7853fd8ddc54d,Mo-Su 08:00-19:00,Western Union,Q861042
55fd39f13235cbbe0581c6240225016a,western_union,PEGADAIAN UPC HARDYS TABANAN,,Tabanan,BALI,,ID,+62 361 728728,https://location.westernunion.com/id/bali/tabanan/55fd39f13235cbbe0581c6240225016a,Mo-Fr 07:30-15:00; Sa 07:30-12:00,Western Union,Q861042
1fdcb56b09a289c0e9f31cbea6a27440,western_union,PEGADAIAN UPC SEMINYAK,,Badung,BALI,,ID,+62 361 728728,https://location.westernunion.com/id/bali/badung/1fdcb56b09a289c0e9f31cbea6a27440,Mo-Fr 07:30-15:00; Sa 07:30-12:00,Western Union,Q861042
a04b0c6c9b30efa5bccd5ad401ef110b,western_union,KOPERASI PAYU 88,,Badung,BALI,,ID,+62 857-2437-7773,https://location.westernunion.com/id/bali/badung/a04b0c6c9b30efa5bccd5ad401ef110b,Mo-Su 08:00-21:00,Western Union,Q861042
ae78de214c5677cf73ff491b24c083f4,western_union,PEGADAIAN UPC CENTRAL PARKIR,,Denpasar,BALI,,ID,+62 361 765608,https://location.westernunion.com/id/bali/denpasar/ae78de214c5677cf73ff491b24c083f4,Mo-Fr 07:30-15:00; Sa 07:30-12:00,Western Union,Q861042
a5eaa4b3b940d7dfa8a572992d7eabf4,western_union,KOPERASI PAYU 90,,Denpasar,BALI,,ID,+62 857-3719-1626,https://location.westernunion.com/id/bali/denpasar/a5eaa4b3b940d7dfa8a572992d7eabf4,Mo-Su 08:00-21:00,Western Union,Q861042
00eea1bf1844e23f4bb5b4ae5aba5994,western_union,BPD BALI KCP NGURAH RAI,,Badung,BALI,,ID,+62 361 757911,https://location.westernunion.com/id/bali/badung/00eea1bf1844e23f4bb5b4ae5aba5994,Mo-Fr 06:00-19:00,Western Union,Q861042
9f2839a2dd3ea8dabb59de50a3da8c79,western_union,PT REMITEN INDONESIA,,Badung,BALI,,ID,+62 361 4741948,https://location.westernunion.com/id/bali/badung/9f2839a2dd3ea8dabb59de50a3da8c79,Mo-Su 08:00-21:30,Western Union,Q861042
40d64f3d5a44a119538a67511ac198d4,western_union,PEGADAIAN UPC BANYUATIS,,Buleleng,BALI,,ID,+62 362 92014,https://location.westernunion.com/id/bali/buleleng/40d64f3d5a44a119538a67511ac198d4,Mo-Fr 07:30-15:00; Sa 07:30-12:00,Western Union,Q861042
e84595c8c0445a0ad1f521dde2c8088b,western_union,PEGADAIAN UPC UNGASAN,,Badung,BALI,,ID,+62 361 728728,https://location.westernunion.com/id/bali/badung/e84595c8c0445a0ad1f521dde2c8088b,Mo-Fr 07:30-15:00; Sa 07:30-12:00,Western Union,Q861042
a79d39bd192f02b8738c3c7d1767fe5c,western_union,BRI UNIT KERAMBITAN KOTA,,Tabanan,BALI,,ID,+62 361 815091,https://location.westernunion.com/id/bali/tabanan/a79d39bd192f02b8738c3c7d1767fe5c,Mo-Fr 08:00-15:00,Western Union,Q861042
57145d744937538123bf39325147bf3e,western_union,BPD BALI KK KERAMBITAN,,Tabanan,BALI,,ID,+62 361 7809068,https://location.westernunion.com/id/bali/tabanan/57145d744937538123bf39325147bf3e,Mo-Fr 06:00-19:00,Western Union,Q861042
ba7eedf0bdb1e6d55a3f8811a3b98b12,western_union,PEGADAIAN UPC PUPUAN,,Tabanan,BALI,,ID,+62 361 728728,https://location.westernunion.com/id/bali/tabanan/ba7eedf0bdb1e6d55a3f8811a3b98b12,Mo-Fr 07:30-15:00; Sa 07:30-12:00,Western Union,Q861042
9033c1d9df6e1120bfd08420214a9ea1,western_union,BPD BALI KK LEGIAN,,Badung,BALI,,ID,+62 361 757371,https://location.westernunion.com/id/bali/badung/9033c1d9df6e1120bfd08420214a9ea1,Mo-Fr 06:00-19:00,Western Union,Q861042
d2fc096aa25bbfe92379006a939fe12a,western_union,REMITEN KEROBOKAN 2,,Badung,BALI,,ID,+62 361 738471,https://location.westernunion.com/id/bali/badung/d2fc096aa25bbfe92379006a939fe12a,Mo-Su 08:30-21:15,Western Union,Q861042
db0c7653bd54df4f3a678bfecff8fa0b,western_union,PEGADAIAN UPC KEDIRI TABANAN,,Tabanan,BALI,,ID,+62 361 728728,https://location.westernunion.com/id/bali/tabanan/db0c7653bd54df4f3a678bfecff8fa0b,Mo-Fr 07:30-15:00; Sa 07:30-12:00,Western Union,Q861042
85246163d4ca3a40e54489ccaa346767,western_union,PEGADAIAN UPC LEGIAN,,Denpasar,BALI,,ID,+62 361 765608,https://location.westernunion.com/id/bali/denpasar/85246163d4ca3a40e54489ccaa346767,Mo-Fr 07:30-15:00; Sa 07:30-12:00,Western Union,Q861042
8671479912b24e4859f20fc5d10dba2e,western_union,BRI KC KUTA,,Badung,BALI,,ID,+62 1 500 017,https://location.westernunion.com/id/bali/badung/8671479912b24e4859f20fc5d10dba2e,Mo-Fr 08:00-15:00,Western Union,Q861042
6d93d111bcca854ab70127aa4c2bdff3,western_union,PEGADAIAN UPC PASAR TABANAN,,Tabanan,BALI,,ID,+62 361 728728,https://location.westernunion.com/id/bali/tabanan/6d93d111bcca854ab70127aa4c2bdff3,Mo-Fr 07:30-15:00; Sa 07:30-12:00,Western Union,Q861042
17dde492b2f25f9d0cfe8dfdcb934d05,western_union,PEGADAIAN UPC LOVINA,,Buleleng,BALI,,ID,+62 361 728728,https://location.westernunion.com/id/bali/buleleng/17dde492b2f25f9d0cfe8dfdcb934d05,Mo-Fr 07:30-15:00; Sa 07:30-12:00,Western Union,Q861042
ca91f777fa7fc2581c3a800eaae46c59,western_union,BPD BALI KC TABANAN,,Tabanan,BALI,,ID,+62 361 811253,https://location.westernunion.com/id/bali/tabanan/ca91f777fa7fc2581c3a800eaae46c59,Mo-Fr 06:00-19:00,Western Union,Q861042
7fb5a76352742ff9b6b63c7781c2a288,western_union,KOPERASI PAYU 617,,Badung,BALI,,ID,+62 21 29475518,https://location.westernunion.com/id/bali/badung/7fb5a76352742ff9b6b63c7781c2a288,Mo-Su 08:00-19:00,Western Union,Q861042
20ef459e115914c8dd132e2b8934ef82,western_union,BRI UNIT LEGIAN,,Badung,BALI,,ID,+62 361 751773,https://location.westernunion.com/id/bali/badung/20ef459e115914c8dd132e2b8934ef82,Mo-Fr 08:00-15:00,Western Union,Q861042
a7e071d5d43cf7f16924c27dabdb2fa9,western_union,BRI UNIT DENBANTAS,,Tabanan,BALI,,ID,+62 21 1500017,https://location.westernunion.com/id/bali/tabanan/a7e071d5d43cf7f16924c27dabdb2fa9,Mo-Fr 08:00-15:00,Western Union,Q861042
3f5b5a85232488a47dc066262da81586,western_union,REMITEN LEGIAN 1,,Badung,BALI,,ID,+62 361 4741948,https://location.westernunion.com/id/bali/badung/3f5b5a85232488a47dc066262da81586,Mo-Su 08:30-15:00,Western Union,Q861042
4212815a35e641983a40c17ba4f8be26,western_union,BPD BALI KC BADUNG,,Badung,BALI,,ID,+62 361 751351,https://location.westernunion.com/id/bali/badung/4212815a35e641983a40c17ba4f8be26,Mo-Fr 06:00-19:00,Western Union,Q861042
b89149dc33879f4367579a420c06e50f,western_union,PT POS KPC SINGARAJA BANYUASRI,,Buleleng,BALI,,ID,+62 362 21788,https://location.westernunion.com/id/bali/buleleng/b89149dc33879f4367579a420c06e50f,Mo-Fr 09:00-15:00; Sa 09:00-12:00,Western Union,Q861042
4eb953dd8aed77f4809cd7b48a3a4307,western_union,PEGADAIAN UPC BANYUASRI,,Buleleng,BALI,,ID,+62 21 3155550,https://location.westernunion.com/id/bali/buleleng/4eb953dd8aed77f4809cd7b48a3a4307,Mo-Fr 07:30-15:00; Sa 07:30-12:00,Western Union,Q861042
a86175b0349a45dc00b8dab132abc76b,western_union,PT POS KPC DALUNG,,Badung,BALI,,ID,+62 451 422336,https://location.westernunion.com/id/bali/badung/a86175b0349a45dc00b8dab132abc76b,Mo-Fr 09:00-15:00; Sa 09:00-12:00,Western Union,Q861042
89f6292e1a1bdffb1642d078be79aa62,western_union,PEGADAIAN UPC NUSA DUA,,Badung,BALI,,ID,+62 361 728728,https://location.westernunion.com/id/bali/badung/89f6292e1a1bdffb1642d078be79aa62,Mo-Fr 07:30-15:00; Sa 07:30-12:00,Western Union,Q861042
40c88cb80326041c9d62800a987b7065,western_union,BPD BALI KCP KEDIRI,,Tabanan,BALI,,ID,+62 361 811646,https://location.westernunion.com/id/bali/tabanan/40c88cb80326041c9d62800a987b7065,Mo-Fr 06:00-19:00,Western Union,Q861042
c40f310cb4c8f75e92e8413431ceebb5,western_union,BPD BALI KCP BAJERA,,Tabanan,BALI,,ID,+62 361 813914,https://location.westernunion.com/id/bali/tabanan/c40f310cb4c8f75e92e8413431ceebb5,Mo-Fr 06:00-19:00,Western Union,Q861042
7343e3eb4b392c5870735a5fec01906c,western_union,PEGADAIAN UPC TANGKUBAN PERAHU,,Badung,BALI,,ID,(+62) 36-7831197,https://location.westernunion.com/id/bali/badung/7343e3eb4b392c5870735a5fec01906c,Mo-Fr 07:30-15:00; Sa 07:30-12:00,Western Union,Q861042
dd25f80e51cf57792ac16dc73a6ccbf3,western_union,BPD BALI KCP NUSA DUA,,Badung,BALI,,ID,+62 361 775688,https://location.westernunion.com/id/bali/badung/dd25f80e51cf57792ac16dc73a6ccbf3,Mo-Fr 06:00-19:00,Western Union,Q861042
cbc9f3c144168e838881303e9f65439d,western_union,MAYBANK KCP SINGARAJA,,Buleleng,BALI,,ID,+62 362 21234,https://location.westernunion.com/id/bali/buleleng/cbc9f3c144168e838881303e9f65439d,Mo-Fr 07:00-16:00,Western Union,Q861042
08a231ebaee3139dc5bd005809082153,western_union,PEGADAIAN UPC MUDING,,Denpasar,BALI,,ID,+62 361 8445774,https://location.westernunion.com/id/bali/denpasar/08a231ebaee3139dc5bd005809082153,Mo-Fr 07:30-15:00; Sa 07:30-12:00,Western Union,Q861042
b4fb1f23986ae59411c3fcc003b10f9b,western_union,BRI UNIT PAMOGAN,,Denpasar,BALI,,ID,+62 361 8473332,https://location.westernunion.com/id/bali/denpasar/b4fb1f23986ae59411c3fcc003b10f9b,Mo-Fr 08:00-15:00,Western Union,Q861042
4450e1456779b92b1bfb4ae73f7adc51,western_union,BPD BALI KC SINGARAJA,,Buleleng,BALI,,ID,+62 362 212451,https://location.westernunion.com/id/bali/buleleng/4450e1456779b92b1bfb4ae73f7adc51,Mo-Fr 06:00-19:00,Western Union,Q861042
64860f2e336d24d9200c5fd469f61183,western_union,PEGADAIAN UPC SARI WINANGUN,,Denpasar,BALI,,ID,+62 361 8445774,https://location.westernunion.com/id/bali/denpasar/64860f2e336d24d9200c5fd469f61183,Mo-Fr 07:30-15:00; Sa 07:30-12:00,Western Union,Q861042
fb60592269f4869230316e689bc38b8c,western_union,PEGADAIAN UPC GELOGOR CARIK,,Denpasar,BALI,,ID,+62 361 728728,https://location.westernunion.com/id/bali/denpasar/fb60592269f4869230316e689bc38b8c,Mo-Fr 07:30-15:00; Sa 07:30-12:00,Western Union,Q861042
aa9a0c6045b367b5238f1484671d8a34,western_union,PEGADAIAN UPC DALUNG PERMAI,,Badung,BALI,,ID,+62 361 728728,https://location.westernunion.com/id/bali/badung/aa9a0c6045b367b5238f1484671d8a34,Mo-Fr 07:30-15:00; Sa 07:30-12:00,Western Union,Q861042
88244d3d309e997e7eba5795c8b7ef7a,western_union,PEGADAIAN UPC PERUM BUMI DALUNG,,Denpasar,BALI,,ID,+62 361 8445774,https://location.westernunion.com/id/bali/denpasar/88244d3d309e997e7eba5795c8b7ef7a,Mo-Fr 07:30-15:00; Sa 07:30-12:00,Western Union,Q861042
327d819b9d3aecee9a7d501979dfd780,western_union,PEGADAIAN UPC SUKASADA,,Buleleng,BALI,,ID,+62 362 21844,https://location.westernunion.com/id/bali/buleleng/327d819b9d3aecee9a7d501979dfd780,Mo-Fr 07:30-15:00; Sa 07:30-12:00,Western Union,Q861042
1dcf79e8c3562e9207d96e5385bfbc79,western_union,PEGADAIAN UPC PASAR UMA ANYAR,,Denpasar,BALI,,ID,+62 361 728728,https://location.westernunion.com/id/bali/denpasar/1dcf79e8c3562e9207d96e5385bfbc79,Mo-Fr 07:30-15:00; Sa 07:30-12:00,Western Union,Q861042
f225bee780e29d46dc1acd7a6cf676ab,western_union,PEGADAIAN UPC LEMPUYANG,,Denpasar,BALI,,ID,(+62) 36-7834649,https://location.westernunion.com/id/bali/denpasar/f225bee780e29d46dc1acd7a6cf676ab,Mo-Fr 07:30-15:00; Sa 07:30-12:00,Western Union,Q861042
9dc5e0262d5d5c1d97aa7f35a93b8e79,western_union,PEGADAIAN UPS BATANTA,,Denpasar,BALI,,ID,+62 361 9132983,https://location.westernunion.com/id/bali/denpasar/9dc5e0262d5d5c1d97aa7f35a93b8e79,Mo-Fr 07:30-15:00; Sa 07:30-12:00,Western Union,Q861042
0f2be28cb38156464fc80d550dbc5703,western_union,BPD BALI KCP TEUKU UMAR,,Denpasar,BALI,,ID,+62 361 245766,https://location.westernunion.com/id/bali/denpasar/0f2be28cb38156464fc80d550dbc5703,Mo-Fr 06:00-19:00,Western Union,Q861042
6367c21f53cc5af0420d1a473e82844a,western_union,PEGADAIAN UPC PENEBEL,,Tabanan,BALI,,ID,+62 361 728728,https://location.westernunion.com/id/bali/tabanan/6367c21f53cc5af0420d1a473e82844a,Mo-Fr 07:30-15:00; Sa 07:30-12:00,Western Union,Q861042
768ebbd5e0d8d119b611d1d1d4cc6da9,western_union,PEGADAIAN UPC GATSU BARAT,,Badung,BALI,,ID,+62 368 729783,https://location.westernunion.com/id/bali/badung/768ebbd5e0d8d119b611d1d1d4cc6da9,Mo-Fr 07:30-15:00; Sa 07:30-12:00,Western Union,Q861042
6577452e81fec7bd8509d44023ccd45d,western_union,PEGADAIAN UPC ABIAN BASE,,Badung,BALI,,ID,+62 361 728728,https://location.westernunion.com/id/bali/badung/6577452e81fec7bd8509d44023ccd45d,Mo-Fr 07:30-15:00; Sa 07:30-12:00,Western Union,Q861042
90c7773fdd946046e9fe6f9460bd6a03,western_union,BPD BALI KCP PENEBEL,,Tabanan,BALI,,ID,+62 361 819434,https://location.westernunion.com/id/bali/tabanan/90c7773fdd946046e9fe6f9460bd6a03,Mo-Fr 06:00-19:00,Western Union,Q861042
8d90925d2eb5c53176c7e056f3fade25,western_union,BRI UNIT LUKLUK,,Badung,BALI,,ID,+62 21 1500017,https://location.westernunion.com/id/bali/badung/8d90925d2eb5c53176c7e056f3fade25,Mo-Fr 08:00-15:00,Western Union,Q861042
64f17a0ca0778779837f180004c1a6cb,western_union,KOPERASI PAYU 620,,Denpasar,BALI,,ID,+62 21 29475518,https://location.westernunion.com/id/bali/denpasar/64f17a0ca0778779837f180004c1a6cb,Mo-Su 08:00-19:00,Western Union,Q861042
341918baca0ca1b3999e892b01f6135f,western_union,PEGADAIAN UPC KAPAL,,Badung,BALI,,ID,+62 361 728728,https://location.westernunion.com/id/bali/badung/341918baca0ca1b3999e892b01f6135f,Mo-Fr 07:30-15:00; Sa 07:30-12:00,Western Union,Q861042
f60160b50314d92ec6c61689d54cd7c5,western_union,BRI KCP MANGUPURA,,Badung,BALI,,ID,+62 1 500 017,https://location.westernunion.com/id/bali/badung/f60160b50314d92ec6c61689d54cd7c5,Mo-Fr 08:00-15:00,Western Union,Q861042
95336992a4b2cf8b04929888a070a805,western_union,PEGADAIAN UPC SEMPIDI,,Badung,BALI,,ID,(+62) 36-424135,https://location.westernunion.com/id/bali/badung/95336992a4b2cf8b04929888a070a805,Mo-Fr 07:30-15:00; Sa 07:30-12:00,Western Union,Q861042
6f5a620f6d1736001c1f22e6ca10d5d5,western_union,PEGADAIAN UPC TEUKU UMAR,,Denpasar,BALI,,ID,+62 361 728728,https://location.westernunion.com/id/bali/denpasar/6f5a620f6d1736001c1f22e6ca10d5d5,Mo-Fr 07:30-15:00; Sa 07:30-12:00,Western Union,Q861042
fc5b23e752e9df7e0ec90ef0c3d2d8cc,western_union,PEGADAIAN UPC TEUKU UMAR BARAT,,Denpasar,BALI,,ID,(+62) 36-9109535,https://location.westernunion.com/id/bali/denpasar/fc5b23e752e9df7e0ec90ef0c3d2d8cc,Mo-Fr 07:30-15:00; Sa 07:30-12:00,Western Union,Q861042
2137375314fa914094a079a9806e3350,western_union,BPD BALI KCP MONANG MANING,,Denpasar,BALI,,ID,+62 361 7446331,https://location.westernunion.com/id/bali/denpasar/2137375314fa914094a079a9806e3350,Mo-Fr 06:00-19:00,Western Union,Q861042
181bb53366819b232b3db7b54ab99db8,western_union,PEGADAIAN UPC GUNUNG AGUNG2,,Denpasar,BALI,,ID,+62 368 871842,https://location.westernunion.com/id/bali/denpasar/181bb53366819b232b3db7b54ab99db8,Mo-Fr 07:30-15:00; Sa 07:30-12:00,Western Union,Q861042
3ea9d3f8bdd1cdeba1a95f9687127bc1,western_union,PEGADAIAN UPS MONANG MANING,,Denpasar,BALI,,ID,+62 361 9132982,https://location.westernunion.com/id/bali/denpasar/3ea9d3f8bdd1cdeba1a95f9687127bc1,Mo-Su 07:30-21:00,Western Union,Q861042
c64aa7a6da0e9174a9e5281e9c4583f7,western_union,BPD BALI KCP MENGWI,,Badung,BALI,,ID,+62 361 411223,https://location.westernunion.com/id/bali/badung/c64aa7a6da0e9174a9e5281e9c4583f7,Mo-Fr 06:00-19:00,Western Union,Q861042
852e3e122995dc04e58a3b6279548d7d,western_union,PEGADAIAN UPS SUCI,,Denpasar,BALI,,ID,+62 822-4754-6666,https://location.westernunion.com/id/bali/denpasar/852e3e122995dc04e58a3b6279548d7d,Mo-Su 07:30-21:00,Western Union,Q861042
8a713634aafba10743f62d46d828c9dc,western_union,PEGADAIAN UPC PEDUNGAN,,Denpasar,BALI,,ID,+62 361 728728,https://location.westernunion.com/id/bali/denpasar/8a713634aafba10743f62d46d828c9dc,Mo-Fr 07:30-15:00; Sa 07:30-12:00,Western Union,Q861042
ad894e6ee53ca269fe0a189383dcecd3,western_union,PT POS LE BULUHINDAH,,Denpasar,BALI,,ID,+62 361 223565,https://location.westernunion.com/id/bali/denpasar/ad894e6ee53ca269fe0a189383dcecd3,Mo-Fr 09:00-15:00; Sa 09:00-12:00,Western Union,Q861042
830ce5c42c47e0f8123e0c365cdb830c,western_union,PEGADAIAN UPC GUNUNG SUBUR,,Denpasar,BALI,,ID,+62 361 728728,https://location.westernunion.com/id/bali/denpasar/830ce5c42c47e0f8123e0c365cdb830c,Mo-Fr 07:30-15:00; Sa 07:30-12:00,Western Union,Q861042
7bb1b0c2d756c4ed783e8927e544c7a9,western_union,PEGADAIAN UPC MONANG MANING,,Denpasar,BALI,,ID,+62 361 728728,https://location.westernunion.com/id/bali/denpasar/7bb1b0c2d756c4ed783e8927e544c7a9,Mo-Fr 07:30-15:00; Sa 07:30-12:00,Western Union,Q861042
5d5565e74f18443fcb15d2f63a6acf2f,western_union,PEGADAIAN UPC PASAR SANGLAH,,Denpasar,BALI,,ID,(+62) 36-789307,https://location.westernunion.com/id/bali/denpasar/5d5565e74f18443fcb15d2f63a6acf2f,Mo-Fr 07:30-15:00; Sa 07:30-12:00,Western Union,Q861042
d229862aa30f8a7a5b571930fdf30f93,western_union,REMITEN LEVEL 21,,Denpasar,BALI,,ID,+62 361 4741948,https://location.westernunion.com/id/bali/denpasar/d229862aa30f8a7a5b571930fdf30f93,Mo-Su 10:00-20:45,Western Union,Q861042
c43f5a362b8d1211f1fa9d5faf313a10,western_union,PEGADAIAN CP HARDYS,,Denpasar,BALI,,ID,+62 361 728728,https://location.westernunion.com/id/bali/denpasar/c43f5a362b8d1211f1fa9d5faf313a10,Mo-Fr 07:30-15:00; Sa 07:30-12:00,Western Union,Q861042
e2498ab750288c5268f92bdef8b9b282,western_union,PEGADAIAN UPC BATANKENDAL,,Denpasar,BALI,,ID,+62 361 728728,https://location.westernunion.com/id/bali/denpasar/e2498ab750288c5268f92bdef8b9b282,Mo-Fr 07:30-15:00; Sa 07:30-12:00,Western Union,Q861042
e6d2afe59d9eed383665b0d153a8dd04,western_union,BPD BALI KK SANGLAH,,Denpasar,BALI,,ID,+62 361 257421,https://location.westernunion.com/id/bali/denpasar/e6d2afe59d9eed383665b0d153a8dd04,Mo-Fr 06:00-19:00,Western Union,Q861042
5f370e360242a94719281486f72370ca,western_union,PEGADAIAN UPC BANYUNING,,Buleleng,BALI,,ID,+62 362 21844,https://location.westernunion.com/id/bali/buleleng/5f370e360242a94719281486f72370ca,Mo-Fr 07:30-15:00; Sa 07:30-12:00,Western Union,Q861042
770928e0ba187479d2052de6957a84a5,western_union,BPD BALI KCP GATSU BARAT,,Badung,BALI,,ID,+62 361 417025,https://location.westernunion.com/id/bali/badung/770928e0ba187479d2052de6957a84a5,Mo-Fr 06:00-19:00,Western Union,Q861042
8eda8d951c2fc0f9996692395747cf39,western_union,PEGADAIAN CP SESETAN I,,Denpasar,BALI,,ID,(+62) 36-721621,https://location.westernunion.com/id/bali/denpasar/8eda8d951c2fc0f9996692395747cf39,Mo-Fr 07:30-15:00; Sa 07:30-12:00,Western Union,Q861042
ae2afa381d1338de7a74bac11fd93551,western_union,MAYBANK KC DENPASAR,,Denpasar,BALI,,ID,(+62) 361-237250-0442,https://location.westernunion.com/id/bali/denpasar/ae2afa381d1338de7a74bac11fd93551,Mo-Fr 07:00-16:00,Western Union,Q861042
0b300ba754718f4c94d4694dc0774e85,western_union,PEGADAIAN UPC KUBUTAMBAHAN,,Buleleng,BALI,,ID,+62 361 728728,https://location.westernunion.com/id/bali/buleleng/0b300ba754718f4c94d4694dc0774e85,Mo-Fr 07:30-15:00; Sa 07:30-12:00,Western Union,Q861042
315a4b75c4120097708266500844da8e,western_union,BRI KC DENPASAR GAJAH MADA,,Denpasar,BALI,,ID,+62 21 1500017,https://location.westernunion.com/id/bali/denpasar/315a4b75c4120097708266500844da8e,Mo-Fr 08:00-15:00,Western Union,Q861042
94c43db29ec7c01f97fc138ddf92b6bc,western_union,BPD BALI KC DENPASAR,,Denpasar,BALI,,ID,+62 361 224981,https://location.westernunion.com/id/bali/denpasar/94c43db29ec7c01f97fc138ddf92b6bc,Mo-Fr 06:00-19:00,Western Union,Q861042
c92e8d65caf43f9e3f8a590afb0539e5,western_union,PEGADAIAN UPC DR SUTOMO,,Denpasar,BALI,,ID,+62 361 728728,https://location.westernunion.com/id/bali/denpasar/c92e8d65caf43f9e3f8a590afb0539e5,Mo-Fr 07:30-15:00; Sa 07:30-12:00,Western Union,Q861042
40cd03338e7689d8cf963a6736793421,western_union,PEGADAIAN UPC DIPONEGORO,,Denpasar,BALI,,ID,(+62) 36-7984543,https://location.westernunion.com/id/bali/denpasar/40cd03338e7689d8cf963a6736793421,Mo-Fr 07:30-15:00; Sa 07:30-12:00,Western Union,Q861042
f5a1dd198398919fe73522043903f4e8,western_union,PEGADAIAN UPC TERMINAL UBUNG,,Denpasar,BALI,,ID,+62 361 728728,https://location.westernunion.com/id/bali/denpasar/f5a1dd198398919fe73522043903f4e8,Mo-Fr 07:30-15:00; Sa 07:30-12:00,Western Union,Q861042
affc03d1cd8fd7df78a738664a6610da,western_union,KOPERASI PAYU 623,,Denpasar,BALI,,ID,+62 21 29475518,https://location.westernunion.com/id/bali/denpasar/affc03d1cd8fd7df78a738664a6610da,Mo-Su 08:00-19:00,Western Union,Q861042
7b595c7c19e5c523e4cf3bb8d2cd7c46,western_union,BPD BALI KCP KAMBOJA,,Denpasar,BALI,,ID,+62 361 261359,https://location.westernunion.com/id/bali/denpasar/7b595c7c19e5c523e4cf3bb8d2cd7c46,Mo-Fr 06:00-19:00,Western Union,Q861042
c2d8233418789836e3719ad0e621c4ab,western_union,BPD BALI KK DISPENDA,,Denpasar,BALI,,ID,+62 361 243267,https://location.westernunion.com/id/bali/denpasar/c2d8233418789836e3719ad0e621c4ab,Mo-Fr 06:00-19:00,Western Union,Q861042
42e0883ec868af6d3b225405b4df45f7,western_union,PEGADAIAN UPC JO GADING,,Denpasar,BALI,,ID,+62 362 56277,https://location.westernunion.com/id/bali/denpasar/42e0883ec868af6d3b225405b4df45f7,Mo-Fr 07:30-15:00; Sa 07:30-12:00,Western Union,Q861042
8e8dd8dcfddd9beb5dd5929b0da75cef,western_union,PEGADAIAN CP RENON,,Denpasar,BALI,,ID,+62 362 40677,https://location.westernunion.com/id/bali/denpasar/8e8dd8dcfddd9beb5dd5929b0da75cef,Mo-Fr 07:30-15:00; Sa 07:30-12:00,Western Union,Q861042
5b9840bb23186a65d44a52be45357dd7,western_union,PEGADAIAN UPC PASAR SATRIA,,Denpasar,BALI,,ID,+62 361 728728,https://location.westernunion.com/id/bali/denpasar/5b9840bb23186a65d44a52be45357dd7,Mo-Fr 07:30-15:00; Sa 07:30-12:00,Western Union,Q861042
ed96a2632b8889bd0b447218d8468d6e,western_union,PEGADAIAN UPC MARGA,,Tabanan,BALI,,ID,+62 361 728728,https://location.westernunion.com/id/bali/tabanan/ed96a2632b8889bd0b447218d8468d6e,Mo-Fr 07:30-15:00; Sa 07:30-12:00,Western Union,Q861042
e3c61e5042de9a21b83602377a1bc097,western_union,BPD BALI KCP MARGA,,Tabanan,BALI,,ID,+62 361 8946014,https://location.westernunion.com/id/bali/tabanan/e3c61e5042de9a21b83602377a1bc097,Mo-Fr 06:00-19:00,Western Union,Q861042
7c181705ef2e08eac4c7c4b26d6ac867,western_union,PEGADAIAN UPC BATURITI,,Tabanan,BALI,,ID,+62 361 728728,https://location.westernunion.com/id/bali/tabanan/7c181705ef2e08eac4c7c4b26d6ac867,Mo-Fr 07:30-15:00; Sa 07:30-12:00,Western Union,Q861042
9bddd4980886ea819b54abea7609230f,western_union,BPD BALI KK GUBERNUR,,Denpasar,BALI,,ID,+62 361 224671,https://location.westernunion.com/id/bali/denpasar/9bddd4980886ea819b54abea7609230f,Mo-Fr 06:00-19:00,Western Union,Q861042
7018695d8ac83127ef369354315f41c0,western_union,PT POS KPC SAWAN,,Buleleng,BALI,,ID,+62 362 21788,https://location.westernunion.com/id/bali/buleleng/7018695d8ac83127ef369354315f41c0,Mo-Fr 09:00-15:00; Sa 09:00-12:00,Western Union,Q861042
b3c8dfc8c83bab460977d218bd03a60b,western_union,BPD BALI KC RENON,,Denpasar,BALI,,ID,+62 361 223301,https://location.westernunion.com/id/bali/denpasar/b3c8dfc8c83bab460977d218bd03a60b,Mo-Fr 06:00-19:00,Western Union,Q861042
b526ce878905ccfcfadbaadfe37b9e53,western_union,PEGADAIAN UPC PASAR INTARAN,,Denpasar,BALI,,ID,+62 368 854046,https://location.westernunion.com/id/bali/denpasar/b526ce878905ccfcfadbaadfe37b9e53,Mo-Fr 07:30-15:00; Sa 07:30-12:00,Western Union,Q861042
f86e3ac478686267e2367bf5e85825d9,western_union,BPD BALI KCP WARMADEWA,,Denpasar,BALI,,ID,+62 361 224230,https://location.westernunion.com/id/bali/denpasar/f86e3ac478686267e2367bf5e85825d9,Mo-Fr 06:00-19:00,Western Union,Q861042
3d26b02e5182e915b9012e1f456b53e4,western_union,PEGADAIAN UPC SANUR,,Denpasar,BALI,,ID,(+62) 36-7801085,https://location.westernunion.com/id/bali/denpasar/3d26b02e5182e915b9012e1f456b53e4,Mo-Fr 07:30-15:00; Sa 07:30-12:00,Western Union,Q861042
988ed676e001272140696dcda80b71d4,western_union,PEGADAIAN UPC SIBANG,,Denpasar,BALI,,ID,+62 361 421855,https://location.westernunion.com/id/bali/denpasar/988ed676e001272140696dcda80b71d4,Mo-Fr 07:30-15:00; Sa 07:30-12:00,Western Union,Q861042
06bee8199061003d8041f8394be62073,western_union,PEGADAIAN UPC HAYAM WURUK,,Denpasar,BALI,,ID,+62 361 226111,https://location.westernunion.com/id/bali/denpasar/06bee8199061003d8041f8394be62073,Mo-Fr 07:30-15:00; Sa 07:30-12:00,Western Union,Q861042
0ced8ab2bbf1d88cb3fdeee4c59505f9,western_union,PT POS KPC PANCASARI,,Buleleng,BALI,,ID,+62 21 3511523,https://location.westernunion.com/id/bali/buleleng/0ced8ab2bbf1d88cb3fdeee4c59505f9,Mo-Fr 09:00-15:00; Sa 09:00-12:00,Western Union,Q861042
ebdb92a54992fa47fb83d7bedbf3bc9a,western_union,PEGADAIAN UPC PASAR KATRANGAN,,Denpasar,BALI,,ID,+62 361 728728,https://location.westernunion.com/id/bali/denpasar/ebdb92a54992fa47fb83d7bedbf3bc9a,Mo-Fr 07:30-15:00; Sa 07:30-12:00,Western Union,Q861042
5406daa124052e1b00cbdc55888bcceb,western_union,KOPERASI PAYU 624,,Gianyar,BALI,,ID,+62 21 29475518,https://location.westernunion.com/id/bali/gianyar/5406daa124052e1b00cbdc55888bcceb,Mo-Su 08:00-19:00,Western Union,Q861042
790325ea3caacdd0cc9aeb105605db0a,western_union,PEGADAIAN UPC SINGAPADU,,Gianyar,BALI,,ID,+62 361 728728,https://location.westernunion.com/id/bali/gianyar/790325ea3caacdd0cc9aeb105605db0a,Mo-Fr 08:00-17:00; Sa 08:00-14:00,Western Union,Q861042
2581c3a5ec358b2aa9a21557613a6faa,western_union,PEGADAIAN UPC BATUBULAN,,Gianyar,BALI,,ID,+62 361 7472402,https://location.westernunion.com/id/bali/gianyar/2581c3a5ec358b2aa9a21557613a6faa,Mo-Fr 08:00-17:00; Sa 08:00-14:00,Western Union,Q861042
7cdb50624601ce7e065cf1e622c109d1,western_union,BPD BALI KCP BATURITI,,Tabanan,BALI,,ID,+62 368 21242,https://location.westernunion.com/id/bali/tabanan/7cdb50624601ce7e065cf1e622c109d1,Mo-Fr 06:00-19:00,Western Union,Q861042
2528d7ae73ac695289833297a2525d30,western_union,PT POS KPC DENPASAR TOHPATI,,Denpasar,BALI,,ID,+62 21 3511523,https://location.westernunion.com/id/bali/denpasar/2528d7ae73ac695289833297a2525d30,Mo-Fr 09:00-15:00; Sa 09:00-12:00,Western Union,Q861042
f0112d21323f8f1c4b00f2757ee3e7b1,western_union,BPD BALI KCP TOHPATI,,Denpasar,BALI,,ID,+62 361 466086,https://location.westernunion.com/id/bali/denpasar/f0112d21323f8f1c4b00f2757ee3e7b1,Mo-Fr 06:00-19:00,Western Union,Q861042
2a39a780e0953b65a929951f1f761406,western_union,PEGADAIAN CP TOHPATI,,Denpasar,BALI,,ID,+62 361 728728,https://location.westernunion.com/id/bali/denpasar/2a39a780e0953b65a929951f1f761406,Mo-Fr 07:30-15:00; Sa 07:30-12:00,Western Union,Q861042
f27238ccf043864f2ccce68c82adfac7,western_union,PEGADAIAN UPC PEREAN,,Tabanan,BALI,,ID,+62 361 880498,https://location.westernunion.com/id/bali/tabanan/f27238ccf043864f2ccce68c82adfac7,Mo-Fr 07:30-15:00; Sa 07:30-12:00,Western Union,Q861042
8be6579ce0b94ccfe1a4a833db71147d,western_union,PEGADAIAN UPC KESIMAN,,Denpasar,BALI,,ID,+62 361 226111,https://location.westernunion.com/id/bali/denpasar/8be6579ce0b94ccfe1a4a833db71147d,Mo-Fr 07:30-15:00; Sa 07:30-12:00,Western Union,Q861042
b9f334d76e5b10d00580963bea6b66bb,western_union,BRI KCP SANUR,,Denpasar,BALI,,ID,+62 1 500 017,https://location.westernunion.com/id/bali/denpasar/b9f334d76e5b10d00580963bea6b66bb,Mo-Fr 08:00-15:00,Western Union,Q861042
26fa6d1f82115ba4c8d25ed243c14d41,western_union,JNE DENPASAR SANUR,,Denpasar,BALI,,ID,+62 361 286294,https://location.westernunion.com/id/bali/denpasar/26fa6d1f82115ba4c8d25ed243c14d41,Mo-Fr 09:00-17:00; Sa 09:00-13:00,Western Union,Q861042
6c8570192e92fa34321648d7cf2f7bf1,western_union,BPD BALI KCP SANUR,,Denpasar,BALI,,ID,+62 361 285362,https://location.westernunion.com/id/bali/denpasar/6c8570192e92fa34321648d7cf2f7bf1,Mo-Fr 06:00-19:00,Western Union,Q861042
266de0fddccdeac472069e9fdfaab8a4,western_union,BPD BALI KCP ABIANSEMAL,,Badung,BALI,,ID,+62 361 890780,https://location.westernunion.com/id/bali/badung/266de0fddccdeac472069e9fdfaab8a4,Mo-Fr 06:00-19:00,Western Union,Q861042
342762de54d216b42e2db08885d276d7,western_union,PEGADAIAN UPC PENATIH,,Denpasar,BALI,,ID,+62 362 173890,https://location.westernunion.com/id/bali/denpasar/342762de54d216b42e2db08885d276d7,Mo-Fr 07:30-15:00; Sa 07:30-12:00,Western Union,Q861042
353022712600d7acd9bef78a7648fc92,western_union,PEGADAIAN UPC DANAU BUYAN,,Denpasar,BALI,,ID,+62 362 752835,https://location.westernunion.com/id/bali/denpasar/353022712600d7acd9bef78a7648fc92,Mo-Fr 07:30-15:00; Sa 07:30-12:00,Western Union,Q861042
4c5e0542f34a597323f3aeae30512a90,western_union,PEGADAIAN UPC ABIANSEMAL,,Badung,BALI,,ID,+62 361 728728,https://location.westernunion.com/id/bali/badung/4c5e0542f34a597323f3aeae30512a90,Mo-Fr 07:30-15:00; Sa 07:30-12:00,Western Union,Q861042
cccfbc6591f1026c5c5e3fa2ae4dad07,western_union,PEGADAIAN UPC MAMBAL,,Badung,BALI,,ID,+62 361 728728,https://location.westernunion.com/id/bali/badung/cccfbc6591f1026c5c5e3fa2ae4dad07,Mo-Fr 07:30-15:00; Sa 07:30-12:00,Western Union,Q861042
5361907b63458ea5c26d17c3833fdb4f,western_union,JNE DENPASAR,,Denpasar,BALI,,ID,+62 361 289013,https://location.westernunion.com/id/bali/denpasar/5361907b63458ea5c26d17c3833fdb4f,Mo-Fr 09:00-16:00,Western Union,Q861042
8d4840f11fbeb11b009d423ad0a86d05,western_union,PEGADAIAN UPC SANGSIT,,Buleleng,BALI,,ID,+62 362 21844,https://location.westernunion.com/id/bali/buleleng/8d4840f11fbeb11b009d423ad0a86d05,Mo-Fr 07:30-15:00; Sa 07:30-12:00,Western Union,Q861042
3b5cb8da9426c5e61c4568fe57c6fa9f,western_union,BRI KC BANGLI,,Bangli,BALI,,ID,+62 1 500 017,https://location.westernunion.com/id/bali/bangli/3b5cb8da9426c5e61c4568fe57c6fa9f,Mo-Fr 08:00-15:00,Western Union,Q861042
abd8041b8ecce1349817f0a5e53e3ffd,western_union,PEGADAIAN UPC NGURAH RAI,,Bangli,BALI,,ID,+62 366 91056,https://location.westernunion.com/id/bali/bangli/abd8041b8ecce1349817f0a5e53e3ffd,Mo-Fr 07:30-15:00; Sa 07:30-12:00,Western Union,Q861042
1c4b0c507ba292b5bf088173ae54626a,western_union,PEGADAIAN UPC PASAR TAMPAK SIRING,,Gianyar,BALI,,ID,+62 361 728728,https://location.westernunion.com/id/bali/gianyar/1c4b0c507ba292b5bf088173ae54626a,Mo-Fr 07:30-15:00; Sa 07:30-12:00,Western Union,Q861042
a7d72bd7a84d90c113da9f80ef32dc2a,western_union,BRI KC GIANYAR,,Gianyar,BALI,,ID,+62 1 500 017,https://location.westernunion.com/id/bali/gianyar/a7d72bd7a84d90c113da9f80ef32dc2a,Mo-Fr 08:00-15:00,Western Union,Q861042
bfb3de7ae7427d3225aa32dbf597115a,western_union,BPD BALI KC GIANYAR,,Gianyar,BALI,,ID,+62 361 942341,https://location.westernunion.com/id/bali/gianyar/bfb3de7ae7427d3225aa32dbf597115a,Mo-Fr 06:00-19:00,Western Union,Q861042
0fccc8d7ff46cc2fdfc5d07800c93e26,western_union,KOPERASI PAYU 619,,Gianyar,BALI,,ID,+62 21 29475518,https://location.westernunion.com/id/bali/gianyar/0fccc8d7ff46cc2fdfc5d07800c93e26,Mo-Su 08:00-19:00,Western Union,Q861042
12b65a9fc0f63d6eeb6ed83e7682001e,western_union,KOPERASI PAYU 610,,Gianyar,BALI,,ID,+62 21 29475518,https://location.westernunion.com/id/bali/gianyar/12b65a9fc0f63d6eeb6ed83e7682001e,Mo-Su 08:00-19:00,Western Union,Q861042
e7a4504c176936c538ed131ee08ecead,western_union,PEGADAIAN UPC PAYANGAN,,Bangli,BALI,,ID,+62 361 728728,https://location.westernunion.com/id/bali/bangli/e7a4504c176936c538ed131ee08ecead,Mo-Fr 07:30-15:00; Sa 07:30-12:00,Western Union,Q861042
4c70cf08a0c8eb0d333bb690217d87ff,western_union,BPD BALI KCP PAYANGAN,,Gianyar,BALI,,ID,+62 361 978838,https://location.westernunion.com/id/bali/gianyar/4c70cf08a0c8eb0d333bb690217d87ff,Mo-Fr 06:00-19:00,Western Union,Q861042
2191c9c0a111b7ec1612dc3ceb83b02a,western_union,BPD BALI KCP SUKAWATI,,Gianyar,BALI,,ID,+62 361 298936,https://location.westernunion.com/id/bali/gianyar/2191c9c0a111b7ec1612dc3ceb83b02a,Mo-Fr 06:00-19:00,Western Union,Q861042
6924f4a7b4b0229f42d98db1ae912061,western_union,BPD BALI KK TEJAKULA,,Buleleng,BALI,,ID,+62 362 3436337,https://location.westernunion.com/id/bali/buleleng/6924f4a7b4b0229f42d98db1ae912061,Mo-Fr 06:00-19:00,Western Union,Q861042
335fa6f6d5f9244d708b6fcb503914ce,western_union,BPD BALI KCP TAMBLANG,,Buleleng,BALI,,ID,+62 362 24033,https://location.westernunion.com/id/bali/buleleng/335fa6f6d5f9244d708b6fcb503914ce,Mo-Fr 06:00-19:00,Western Union,Q861042
d778003fde1b30f819fb22e74073ea23,western_union,KOPERASI PAYU 267,,Gianyar,BALI,,ID,+62 818-0573-7382,https://location.westernunion.com/id/bali/gianyar/d778003fde1b30f819fb22e74073ea23,Mo-Su 08:00-21:00,Western Union,Q861042
5606993f70fe2bcc8e5ac0cba780acc5,western_union,PT POS KPC SELAT,,Gianyar,BALI,,ID,+62 363 21010,https://location.westernunion.com/id/bali/gianyar/5606993f70fe2bcc8e5ac0cba780acc5,Mo-Fr 09:00-15:00; Sa 09:00-12:00,Western Union,Q861042
34391280d105b85dbd6be68072f4698d,western_union,PEGADAIAN UPC NUSA PENIDA,,Klungkung,BALI,,ID,+62 812-5596-724,https://location.westernunion.com/id/bali/klungkung/34391280d105b85dbd6be68072f4698d,Mo-Fr 07:30-15:00; Sa 07:30-12:00,Western Union,Q861042
b0dab2453c650be1f50776d46c7bb712,western_union,PT POS KPC PADANGBAI,,Karangasem,BALI,,ID,+62 363 41401,https://location.westernunion.com/id/bali/karangasem/b0dab2453c650be1f50776d46c7bb712,Mo-Fr 09:00-15:00; Sa 09:00-12:00,Western Union,Q861042
337c47e39b1d879f04730a126594e492,western_union,PEGADAIAN UPC SELAT,,Karangasem,BALI,,ID,+62 21 3155550,https://location.westernunion.com/id/bali/karangasem/337c47e39b1d879f04730a126594e492,Mo-Fr 07:30-15:00; Sa 07:30-12:00,Western Union,Q861042
809f3e2d705fc25935698376658fd461,western_union,PEGADAIAN UPC RENDANG,,Bangli,BALI,,ID,+62 361 728728,https://location.westernunion.com/id/bali/bangli/809f3e2d705fc25935698376658fd461,Mo-Fr 07:30-15:00; Sa 07:30-12:00,Western Union,Q861042
2c28f023e4d572c5a637a5d48832a858,western_union,BRI UNIT PENELOKAN,,Bangli,BALI,,ID,+62 366 51055,https://location.westernunion.com/id/bali/bangli/2c28f023e4d572c5a637a5d48832a858,Mo-Fr 08:00-15:00,Western Union,Q861042
f9a3d3fe2e2ad08ea228974502fc7a41,western_union,PEGADAIAN UPC PENELOKAN,,Bangli,BALI,,ID,(+62) 36-91056,https://location.westernunion.com/id/bali/bangli/f9a3d3fe2e2ad08ea228974502fc7a41,Mo-Fr 07:30-15:00; Sa 07:30-12:00,Western Union,Q861042
559d888bff9b0b8ee03a09a658da9fa5,western_union,PEGADAIAN UPC TEJAKULA,,Buleleng,BALI,,ID,+62 361 728728,https://location.westernunion.com/id/bali/buleleng/559d888bff9b0b8ee03a09a658da9fa5,Mo-Fr 07:30-15:00; Sa 07:30-12:00,Western Union,Q861042
a10d9e20627b3398892febf12957e7ba,western_union,PEGADAIAN UPC MAHENDRADATA,,Gianyar,BALI,,ID,+62 361 955450,https://location.westernunion.com/id/bali/gianyar/a10d9e20627b3398892febf12957e7ba,Mo-Fr 07:30-15:00; Sa 07:30-12:00,Western Union,Q861042
13ecf46fd9aafc55a63575c6792e8be4,western_union,PEGADAIAN UPC TEGALLALANG,,Gianyar,BALI,,ID,+62 361 728728,https://location.westernunion.com/id/bali/gianyar/13ecf46fd9aafc55a63575c6792e8be4,Mo-Fr 07:30-15:00; Sa 07:30-12:00,Western Union,Q861042
852e76552b65dc7d33b15d77c8db655d,western_union,PEGADAIAN UPC PEJENG,,Gianyar,BALI,,ID,+62 361 972520,https://location.westernunion.com/id/bali/gianyar/852e76552b65dc7d33b15d77c8db655d,Mo-Fr 07:30-15:00; Sa 07:30-12:00,Western Union,Q861042
f53b232fe156d53cabf32ebc9ecad7e1,western_union,PEGADAIAN UPC BLAHBATUH,,Gianyar,BALI,,ID,(+62) 36-7953927,https://location.westernunion.com/id/bali/gianyar/f53b232fe156d53cabf32ebc9ecad7e1,Mo-Fr 07:30-15:00; Sa 07:30-12:00,Western Union,Q861042
df522e2299b1f65e2deb1192b90e2ee2,western_union,PEGADAIAN UPC PASAR PELIATAN,,Gianyar,BALI,,ID,+62 361 972520,https://location.westernunion.com/id/bali/gianyar/df522e2299b1f65e2deb1192b90e2ee2,Mo-Fr 07:30-15:00; Sa 07:30-12:00,Western Union,Q861042
96b62a57f88d28e7b01755d933df7989,western_union,PEGADAIAN UPC ABANG,,Karangasem,BALI,,ID,+62 813-3849-9551,https://location.westernunion.com/id/bali/karangasem/96b62a57f88d28e7b01755d933df7989,Mo-Fr 07:30-15:00; Sa 07:30-12:00,Western Union,Q861042
825803cb97ffdb9bf21b57400c67d3e4,western_union,BRI KC AMLAPURA,,Karangasem,BALI,,ID,+62 1 500 017,https://location.westernunion.com/id/bali/karangasem/825803cb97ffdb9bf21b57400c67d3e4,Mo-Fr 08:00-15:00,Western Union,Q861042
3ea9c52abdc21a24ff45145e787852a1,western_union,PT POS KPC ABANG,,Karangasem,BALI,,ID,+62 21 3511523,https://location.westernunion.com/id/bali/karangasem/3ea9c52abdc21a24ff45145e787852a1,Mo-Fr 09:00-15:00; Sa 09:00-12:00,Western Union,Q861042
804286489a57aedfb5b589f46d6d721f,western_union,PEGADAIAN UPC PASAR AMLAPURA,,Karangasem,BALI,,ID,+62 361 728728,https://location.westernunion.com/id/bali/karangasem/804286489a57aedfb5b589f46d6d721f,Mo-Fr 07:30-15:00; Sa 07:30-12:00,Western Union,Q861042
c439b589dbffa5bd5610039b8b85df1c,western_union,PEGADAIAN UPC BEBANDEM,,Karangasem,BALI,,ID,+62 361 728728,https://location.westernunion.com/id/bali/karangasem/c439b589dbffa5bd5610039b8b85df1c,Mo-Fr 07:30-15:00; Sa 07:30-12:00,Western Union,Q861042
db95659bd54c12693f65189877546943,western_union,BPD BALI KC KARANGASEM,,Karangasem,BALI,,ID,+62 363 21014,https://location.westernunion.com/id/bali/karangasem/db95659bd54c12693f65189877546943,Mo-Fr 06:00-19:00,Western Union,Q861042
f9b4e0658e9a699ac2e4f248f7ec3abd,western_union,BPD BALI KK BEBANDEM,,Karangasem,BALI,,ID,+62 363 22664,https://location.westernunion.com/id/bali/karangasem/f9b4e0658e9a699ac2e4f248f7ec3abd,Mo-Fr 06:00-19:00,Western Union,Q861042
eb97b01cdaff6956bb871b1b59e7f510,western_union,BRI KK CANDIDASA,,Karangasem,BALI,,ID,+62 1 500 017,https://location.westernunion.com/id/bali/karangasem/eb97b01cdaff6956bb871b1b59e7f510,Mo-Fr 08:00-15:00,Western Union,Q861042
4b7f816b9cf26043d99b28bb233f7014,western_union,BPD BALI KCP CANDIDASA,,Karangasem,BALI,,ID,+62 363 41141,https://location.westernunion.com/id/bali/karangasem/4b7f816b9cf26043d99b28bb233f7014,Mo-Fr 06:00-19:00,Western Union,Q861042
86566765e83f0422fea01426d9cc5afe,western_union,PT POS KPC MANGGIS,,Gianyar,BALI,,ID,+62 363 41910,https://location.westernunion.com/id/bali/gianyar/86566765e83f0422fea01426d9cc5afe,Mo-Fr 09:00-15:00; Sa 09:00-12:00,Western Union,Q861042
653a769278bcf9b6dd5264a7d975f832,western_union,BPD BALI KCP SELAT,,Karangasem,BALI,,ID,+62 363 21014,https://location.westernunion.com/id/bali/karangasem/653a769278bcf9b6dd5264a7d975f832,Mo-Fr 06:00-19:00,Western Union,Q861042
795dd823f22c6ffba55dec9261ffa97b,western_union,BRI KC SEMARAPURA,,Klungkung,BALI,,ID,+62 1 500 017,https://location.westernunion.com/id/bali/klungkung/795dd823f22c6ffba55dec9261ffa97b,Mo-Fr 08:00-15:00,Western Union,Q861042
c1bf4f649e5cb0217704a7ef3d098eaa,western_union,BPD BALI KC KLUNGKUNG,,Klungkung,BALI,,ID,+62 366 21772,https://location.westernunion.com/id/bali/klungkung/c1bf4f649e5cb0217704a7ef3d098eaa,Mo-Fr 08:00-15:00,Western Union,Q861042
dbc8323ef5e61e41bd3282b3e4cd4fd1,western_union,PEGADAIAN UPC PASAR GALIRAN,,Klungkung,BALI,,ID,+62 361 728728,https://location.westernunion.com/id/bali/klungkung/dbc8323ef5e61e41bd3282b3e4cd4fd1,Mo-Fr 07:30-15:00; Sa 07:30-12:00,Western Union,Q861042
4ec7198fd8acb892df9af387d23abf2f,western_union,PEGADAIAN UPC KAYUAMBUA,,Bangli,BALI,,ID,+62 361 728728,https://location.westernunion.com/id/bali/bangli/4ec7198fd8acb892df9af387d23abf2f,Mo-Fr 07:30-15:00; Sa 07:30-12:00,Western Union,Q861042
88ba1bbc394ebbeb63f383c1d3ec39b8,western_union,BRI UNIT KINTAMANI,,Bangli,BALI,,ID,+62 366 51051,https://location.westernunion.com/id/bali/bangli/88ba1bbc394ebbeb63f383c1d3ec39b8,Mo-Fr 08:00-15:00,Western Union,Q861042
a1dfb2bb560eb0b9b5033b26cf4de205,western_union,BPD BALI KCP KINTAMANI,,Bangli,BALI,,ID,+62 366 51022,https://location.westernunion.com/id/bali/bangli/a1dfb2bb560eb0b9b5033b26cf4de205,Mo-Fr 06:00-19:00,Western Union,Q861042
f65ca6a4f491575148fb47c4e81cd8e8,western_union,PEGADAIAN UPC PASAR ALAS,,Denpasar,BALI,,ID,+62 372 91726,https://location.westernunion.com/id/bali/denpasar/f65ca6a4f491575148fb47c4e81cd8e8,Mo-Fr 07:30-15:00; Sa 07:30-12:00,Western Union,Q861042
7cc0612e2aff92b4874c1be992e8bbe6,western_union,PEGADAIAN UPC BRANG REA,,Tabanan,BALI,,ID,+62 374 81106,https://location.westernunion.com/id/bali/tabanan/7cc0612e2aff92b4874c1be992e8bbe6,Mo-Fr 07:30-15:00; Sa 07:30-12:00,Western Union,Q861042
a0f0b707d437073db663ad525257d8ae,western_union,PT POS KPC DENPASAR PENATIH,,Denpasar,BALI,,ID,+62 451 422336,https://location.westernunion.com/id/bali/denpasar/a0f0b707d437073db663ad525257d8ae,Mo-Fr 09:00-15:00; Sa 09:00-12:00,Western Union,Q861042
17075e945ea91da5d6aed7556ae5babe,western_union,PT POS KPC GIANYAR CIUNGWANARA,,Gianyar,BALI,,ID,+62 451 422336,https://location.westernunion.com/id/bali/gianyar/17075e945ea91da5d6aed7556ae5babe,Mo-Fr 09:00-15:00; Sa 09:00-12:00,Western Union,Q861042
01036ca1389ac8a2458098eaf2d5648b,western_union,PT POS KPC PAMUTERAN,,Buleleng,BALI,,ID,+62 451 422336,https://location.westernunion.com/id/bali/buleleng/01036ca1389ac8a2458098eaf2d5648b,Mo-Fr 09:00-15:00; Sa 09:00-12:00,Western Union,Q861042
