Ref,Spider,Name,Address,City,State,Zipcode,Country,Phone,Website,Hours,Brand,WikiData
https://www.dominos.co.in/store-locations/faridkot/faridkot-punjab,dominos_pizza_in,Dominos Pizza FARIDKOT PUNJAB,"GROUND FLOOR, KHASRA NO. 3253, MUNICIPAL NO. B-X 613 (B 10 613), CIRCULAR ROAD, JUBILEE CINEMA CHOWK, FARIDKOT, PUNJAB, FARIDKOT, Punjab - 151203",Faridkot,Punjab,,IN,+91 22 2632 6699,https://www.dominos.co.in/store-locations/faridkot/faridkot-punjab,,Domino's Pizza,Q839466
1cef9bafd3c77ea736ec3f8eb828fa04,western_union,BF MOBILE CARE,,Faridkot,PUNJAB,,IN,+91 90233 30087,https://location.westernunion.com/in/punjab/faridkot/1cef9bafd3c77ea736ec3f8eb828fa04,Mo-Su 08:00-20:00,Western Union,Q861042
f8b0ee5ee8874de3e2a3a1b1dc0af1b7,western_union,VISHAL TELECOM,,Faridkot,PUNJAB,,IN,+91 95015 38141,https://location.westernunion.com/in/punjab/faridkot/f8b0ee5ee8874de3e2a3a1b1dc0af1b7,Mo-Su 06:30-21:00,Western Union,Q861042
4ddeb86c89e99f63d75b56fde87c095c,western_union,DIAMOND FOREX,,Faridkot,PUNJAB,,IN,+91 96530 51051,https://location.westernunion.com/in/punjab/faridkot/4ddeb86c89e99f63d75b56fde87c095c,Mo-Su 09:00-20:00,Western Union,Q861042
fe52bc431c6c3422c9a2938b6db0e6e3,western_union,ADVANCE VISA,,Faridkot,PUNJAB,,IN,+91 95016 00146,https://location.westernunion.com/in/punjab/faridkot/fe52bc431c6c3422c9a2938b6db0e6e3,Mo-Su 09:00-21:00,Western Union,Q861042
c3513b87d0321087155866c683cfc829,western_union,WELL WORN,,Faridkot,PUNJAB,,IN,+91 94171 02520,https://location.westernunion.com/in/punjab/faridkot/c3513b87d0321087155866c683cfc829,Mo-Su 08:00-20:00,Western Union,Q861042
2d2a5eaf60be4a80dd3f9bbd99f34639,western_union,PAUL MERCHANTS LIMITED,,Faridkot,PUNJAB,,IN,+91 93177 14277,https://location.westernunion.com/in/punjab/faridkot/2d2a5eaf60be4a80dd3f9bbd99f34639,Mo-Su 08:00-21:00,Western Union,Q861042
20495f6161f0aa3eb4e9b86b8bf75152,western_union,RJ TOUR AND TRAVELS,,Faridkot,PUNJAB,,IN,+91 79865 63038,https://location.westernunion.com/in/punjab/faridkot/20495f6161f0aa3eb4e9b86b8bf75152,Mo-Su 09:30-21:30,Western Union,Q861042
c91a2f01e19a6bb7df1b4ab1ca0718f4,western_union,GOYAL INTERNATIONAL TRAVEL SERVICES,,Faridkot,PUNJAB,,IN,+91 98728 40701,https://location.westernunion.com/in/punjab/faridkot/c91a2f01e19a6bb7df1b4ab1ca0718f4,Mo-Su 07:30-22:30,Western Union,Q861042
889bfebdb22146e0882270417d49a444,western_union,R V ENTERPRISES,,Faridkot,PUNJAB,,IN,+91 96466 32266,https://location.westernunion.com/in/punjab/faridkot/889bfebdb22146e0882270417d49a444,Mo-Su 09:00-21:00,Western Union,Q861042
188311ba2718a21dd366fc866998753e,western_union,J B MONEY CHANGER,,Faridkot,PUNJAB,,IN,+91 94175 09266,https://location.westernunion.com/in/punjab/faridkot/188311ba2718a21dd366fc866998753e,Mo-Su 08:00-21:00,Western Union,Q861042
d104220a6a181eead87833dda1d550dd,western_union,VOHRA ENTERPRISES,,Faridkot,PUNJAB,,IN,+91 94645 16000,https://location.westernunion.com/in/punjab/faridkot/d104220a6a181eead87833dda1d550dd,Mo-Su 05:00-24:00,Western Union,Q861042
a2c6208a1d9b415f6d054b05816e6b7c,western_union,BUNKIM TRADERS,,Faridkot,PUNJAB,,IN,+91 98552 40466,https://location.westernunion.com/in/punjab/faridkot/a2c6208a1d9b415f6d054b05816e6b7c,Mo-Su 08:00-20:00,Western Union,Q861042
fbfac5b94c4337ca2f5dd9350af3a3fb,western_union,COMMON SERVICE CENTRE,,Faridkot,PUNJAB,,IN,+91 84274 02406,https://location.westernunion.com/in/punjab/faridkot/fbfac5b94c4337ca2f5dd9350af3a3fb,Mo-Su 09:00-21:00,Western Union,Q861042
168787575e8e935bb2b11bfb3a7edaf0,western_union,MANIT HOLIDAYS,,Faridkot,PUNJAB,,IN,+91 97811 77000,https://location.westernunion.com/in/punjab/faridkot/168787575e8e935bb2b11bfb3a7edaf0,Mo-Su 09:00-21:00,Western Union,Q861042
ed32eaa981a07f4d4c510a4e69b96785,western_union,V K PHOTO PLAZA,,Faridkot,PUNJAB,,IN,+91 70099 08519,https://location.westernunion.com/in/punjab/faridkot/ed32eaa981a07f4d4c510a4e69b96785,Mo-Su 09:00-21:00,Western Union,Q861042
53b1364df0c259bbb4e1212887856c6d,western_union,GOLDEN FEATHER IMMIGRATION AND CONSULTAN,,Faridkot,PUNJAB,,IN,+91 95019 00086,https://location.westernunion.com/in/punjab/faridkot/53b1364df0c259bbb4e1212887856c6d,Mo-Su 09:00-21:00,Western Union,Q861042
a6dfed8f0966b274592ac6a92f3beebb,western_union,CHARDHIKALA CONSULTANCY,,Faridkot,PUNJAB,,IN,+91 98775 09280,https://location.westernunion.com/in/punjab/faridkot/a6dfed8f0966b274592ac6a92f3beebb,Mo-Su 08:00-20:00,Western Union,Q861042
bbfa7beb63ef95ca6ec680bc755de569,western_union,CIVIL CANTEEN,,Faridkot,PUNJAB,,IN,+91 81460 00333,https://location.westernunion.com/in/punjab/faridkot/bbfa7beb63ef95ca6ec680bc755de569,Mo-Sa 08:00-21:30; Su 09:00-20:30,Western Union,Q861042
5115ca7551af965ec751c557a1342d13,western_union,DASHMESH CLOTH HOUSE,,Faridkot,PUNJAB,,IN,+91 163 925 0861,https://location.westernunion.com/in/punjab/faridkot/5115ca7551af965ec751c557a1342d13,Mo-Su 08:00-20:00,Western Union,Q861042
e471eed33c0e75c3165a0c0fd4b5d259,western_union,MAHA LAXMI TRADERS,,Faridkot,PUNJAB,,IN,+91 81466 80700,https://location.westernunion.com/in/punjab/faridkot/e471eed33c0e75c3165a0c0fd4b5d259,Mo-Su 09:00-21:00,Western Union,Q861042
677157170c150f8bf5b1b534eacaae5f,western_union,J B JEWELLERS,,Faridkot,PUNJAB,,IN,+91 99882 81905,https://location.westernunion.com/in/punjab/faridkot/677157170c150f8bf5b1b534eacaae5f,Mo-Su 09:00-21:00,Western Union,Q861042
7f4b891272f3f8dd849f96cc53f8a07c,western_union,SK COMPUTERS,,Faridkot,PUNJAB,,IN,+91 98767 56127,https://location.westernunion.com/in/punjab/faridkot/7f4b891272f3f8dd849f96cc53f8a07c,Mo-Su 08:00-20:00,Western Union,Q861042
f413359f05ed6d61a77f3288867823b5,western_union,DILTAJ REAL ESTATE,,Faridkot,PUNJAB,,IN,+91 94633 50607,https://location.westernunion.com/in/punjab/faridkot/f413359f05ed6d61a77f3288867823b5,Mo-Su 08:00-22:00,Western Union,Q861042
926b271410f1357886a835c0393cbb04,western_union,STAR ENTERPRISES,,Faridkot,PUNJAB,,IN,+91 70266 00009,https://location.westernunion.com/in/punjab/faridkot/926b271410f1357886a835c0393cbb04,Mo-Su 09:00-21:00,Western Union,Q861042
3bd4044cf3050c06ce61487f96217296,western_union,CAPITAL SMALL FINANCE BANK LIMITED,,Faridkot,PUNJAB,,IN,+91 163 950 0200,https://location.westernunion.com/in/punjab/faridkot/3bd4044cf3050c06ce61487f96217296,Mo-Su 08:00-22:00,Western Union,Q861042
ae3fd221a973f213b2e5930645696e3a,western_union,CHARDHIKALA CONSULTANCY,,Faridkot,PUNJAB,,IN,+91 98775 09280,https://location.westernunion.com/in/punjab/faridkot/ae3fd221a973f213b2e5930645696e3a,Mo-Su 07:00-22:00,Western Union,Q861042
c334a894b342a3b752cfcb7c43e845f4,western_union,HARASH FINANCE SERVICES,,Faridkot,PUNJAB,,IN,+91 98884 45000,https://location.westernunion.com/in/punjab/faridkot/c334a894b342a3b752cfcb7c43e845f4,Mo-Su 09:00-21:00,Western Union,Q861042
21405fae8765067b5449f2f779334450,western_union,S B ASSOCIATES,,Faridkot,PUNJAB,,IN,+91 90411 68903,https://location.westernunion.com/in/punjab/faridkot/21405fae8765067b5449f2f779334450,Mo-Su 08:00-20:00,Western Union,Q861042
e0820f554e11d7df0027a6503e37c281,western_union,SHRI KRISHNA ENTERPRISES,,Faridkot,PUNJAB,,IN,+91 98789 90001,https://location.westernunion.com/in/punjab/faridkot/e0820f554e11d7df0027a6503e37c281,Mo-Sa 08:00-21:00; Su 09:00-20:30,Western Union,Q861042
e4721b91b06f04db05ae47c0df0f5826,western_union,OVERSEAS TRAVELS,,Faridkot,PUNJAB,,IN,+91 79860 07943,https://location.westernunion.com/in/punjab/faridkot/e4721b91b06f04db05ae47c0df0f5826,Mo-Su 09:00-21:00,Western Union,Q861042
e232cf1bea6172c4a1c70d8a270565d9,western_union,SHIVA INTERNATIONAL SERVICES,,Faridkot,PUNJAB,,IN,+91 97853 00027,https://location.westernunion.com/in/punjab/faridkot/e232cf1bea6172c4a1c70d8a270565d9,Mo-Su 08:00-20:00,Western Union,Q861042
ee2e2c69cd62d7896386d9dff740f94c,western_union,LAXMI FOREX,,Faridkot,PUNJAB,,IN,+91 98764 00069,https://location.westernunion.com/in/punjab/faridkot/ee2e2c69cd62d7896386d9dff740f94c,Mo-Su 08:00-20:00,Western Union,Q861042
4d4d9fcb7bdff1becc3367b57cbbc407,western_union,PURBA PHOTOSTAT AND TELECOM CENTRE,,Faridkot,PUNJAB,,IN,+91 85668 88222,https://location.westernunion.com/in/punjab/faridkot/4d4d9fcb7bdff1becc3367b57cbbc407,Mo-Su 07:00-22:00,Western Union,Q861042
0d88ec5da0bb66d3cd35a7203b44ab63,western_union,FARID SALES CORPORATION,,Faridkot,PUNJAB,,IN,+91 81980 00099,https://location.westernunion.com/in/punjab/faridkot/0d88ec5da0bb66d3cd35a7203b44ab63,Mo-Su 09:00-21:00,Western Union,Q861042
6118d8d6d81eb7a733fe8176b5cd6264,western_union,H D TOUR AND TRAVEL ADVISOR,,Faridkot,PUNJAB,,IN,+91 98140 59869,https://location.westernunion.com/in/punjab/faridkot/6118d8d6d81eb7a733fe8176b5cd6264,Mo-Su 07:00-21:00,Western Union,Q861042
691ae235c020a69dcd898e37c37b8c2b,western_union,KANDHARI TRAVEL STUDIO,,Faridkot,PUNJAB,,IN,+91 96467 00075,https://location.westernunion.com/in/punjab/faridkot/691ae235c020a69dcd898e37c37b8c2b,Mo-Su 09:00-21:00,Western Union,Q861042
