Ref,Spider,Name,Address,City,State,Zipcode,Country,Phone,Website,Hours,Brand,WikiData
https://local.pharmacy.jewelosco.com/#5672847,albertsons,Jewel-Osco Pharmacy,,Chicago,IL,,US,+1 773-775-3777,https://local.pharmacy.jewelosco.com/il/chicago/7342-w-foster-ave.html,Mo-Fr 08:00-20:00; Sa-Su 09:00-17:00,Jewel-Osco,Q3178470
https://local.pharmacy.jewelosco.com/#5672956,albertsons,Jewel-Osco Pharmacy,,Chicago,IL,,US,+1 773-625-5525,https://local.pharmacy.jewelosco.com/il/chicago/4734-n-cumberland-ave.html,Mo-Fr 08:00-22:00; Sa-Su 09:00-17:00,Jewel-Osco,Q3178470
https://local.jewelosco.com/#5603642,albertsons,Jewel-Osco,,Chicago,IL,,US,+1 773-775-6866,https://local.jewelosco.com/il/chicago/7342-w-foster-ave.html,"Mo-Fr 06:00-24:00,08:00-20:00; Sa-Su 06:00-24:00,09:00-17:00",Jewel-Osco,Q3178470
https://local.jewelosco.com/#5603755,albertsons,Jewel-Osco,,Chicago,IL,,US,+1 773-625-2055,https://local.jewelosco.com/il/chicago/4734-n-cumberland-ave.html,"Mo-Fr 06:00-24:00,08:00-22:00; Sa-Su 06:00-24:00,09:00-17:00",Jewel-Osco,Q3178470
4428,autozone_us,AutoZone Auto Parts Chicago,,Chicago,IL,,US,+1 773-775-6238,https://www.autozone.com/locations/il/chicago/5415-n-harlem-ave.html,Mo-Sa 07:30-21:00; Su 09:00-20:00,AutoZone,Q4826087
https://locators.bankofamerica.com/il/chicago/financial-centers-chicago-16429.html,bankofamerica,Bank of America Financial Center & Drive-Thru ATM | Foster,,Chicago,IL,,US,+1 773-775-6800,https://locators.bankofamerica.com/il/chicago/financial-centers-chicago-16429.html,Mo-Fr 10:00-16:00,Bank of America,Q487907
https://locations.baskinrobbins.com/il/chicago/5401-n-harlem-ave-350881-br,baskin_robbins_us,Baskin-Robbinsâ„¢,,Chicago,IL,,US,+1 708-831-4209,https://locations.baskinrobbins.com/il/chicago/5401-n-harlem-ave-350881-br,Mo-Su 04:00-21:00,Baskin-Robbins,Q584601
213372,bluerhino,JC Licht Ace Hardware - Oriole Park #18248,,Chicago,IL,,US,+1 773-763-7117,,,Blue Rhino,Q65681213
155527,bluerhino,Walgreens #7515,,Chicago,IL,,US,+1 773-631-3927,,,Blue Rhino,Q65681213
52226,citi,ATM CVS,,Chicago,IL,,US,,,,Citibank,Q857063
63792,citi,ATM LIBERTY BANK FOR SAVIN,,Chicago,IL,,US,,,,Citibank,Q857063
92669,citi,ATM Walgreens,,Chicago,IL,,US,,,,Citibank,Q857063
31081,citi,ATM 7ELEVEN-FCTI,,Chicago,IL,,US,,,,Citibank,Q857063
,credit_union_us,Chicago Patrolmens FCU,,Chicago,IL,,US,+1 312-726-8814,,,,
3170,cvs_us,CVS Pharmacy,,Chicago,IL,,US,+1 773-631-5906,https://www.cvs.com/store-locator/chicago-il-pharmacies/6417-w-higgins-ave-chicago-il-60656/storeid=3170,24/7,CVS Pharmacy,Q2078880
2948,dominos_pizza_us,Domino's Pizza,,Harwood Heights,IL,,US,+1 708-867-4900,https://pizza.dominos.com/illinois/harwood-heights/4707-n-harlem-ave,Mo-Th 10:30-24:00; Fr-Sa 10:30-01:00; Su 10:30-24:00,Domino's,Q839466
350881,dunkin_us,Dunkin',,Chicago,IL,,US,+1 708-831-4209,https://locations.dunkindonuts.com/en/il/chicago/5401-n-harlem-ave/350881,Mo-Su 04:00-21:00,Dunkin',Q847743
200322161,exxonmobil,TNT FUELS INC,,CHICAGO,IL,,US,,https://www.exxon.com/en/find-station/mobil-chicago-il-tntfuelsinc-200322161,24/7,Mobil,Q109676002
200315487,exxonmobil,NORRIDGE MOBIL,,NORRIDGE,IL,,US,+1 708-456-3127,https://www.exxon.com/en/find-station/mobil-norridge-il-norridgemobil-200315487,24/7,Mobil,Q109676002
200312683,exxonmobil,HARLEM & FOSTER,,HARWOOD HEIGHTS,IL,,US,+1 708-867-8900,https://www.exxon.com/en/find-station/mobil-harwoodheights-il-harlemfoster-200312683,24/7,Mobil,Q109676002
https://local.fedex.com/#25202088,fedex,,,Chicago,IL,,US,+1 800-463-3339,https://local.fedex.com/en-us/il/chicago/nzips,,FedEx,Q459477
https://local.fedex.com/#25477294,fedex,,,Chicago,IL,,US,+1 800-463-3339,https://local.fedex.com/en-us/il/chicago/bdfjw,,FedEx,Q459477
https://local.fedex.com/#25476790,fedex,,,Chicago,IL,,US,+1 800-463-3339,https://local.fedex.com/en-us/il/chicago/bdfjp,,FedEx,Q459477
12692,h_r_block,H&R Block,,Chicago,IL,,US,+1 773-594-0155,https://www.hrblock.com/local-tax-offices/illinois/chicago/7212-w-foster-ave/12692/,,H&R Block,Q5627799
https://locations.oreillyauto.com/il/chicago/check-engine-light-testing-3381.html,oreilly,Your Chicago O'Reilly Auto Parts Store,,Chicago,IL,,US,+1 773-763-1573,https://locations.oreillyauto.com/il/chicago/check-engine-light-testing-3381.html,Mo-Sa 07:30-22:00; Su 08:00-20:00,O'Reilly Auto Parts,Q7071951
https://locations.oreillyauto.com/il/chicago/wiper-installation-3381.html,oreilly,Your Chicago O'Reilly Auto Parts Store,,Chicago,IL,,US,+1 773-763-1573,https://locations.oreillyauto.com/il/chicago/wiper-installation-3381.html,Mo-Sa 07:30-22:00; Su 08:00-20:00,O'Reilly Auto Parts,Q7071951
https://locations.oreillyauto.com/il/chicago/battery-testing-3381.html,oreilly,Your Chicago O'Reilly Auto Parts Store,,Chicago,IL,,US,+1 773-763-1573,https://locations.oreillyauto.com/il/chicago/battery-testing-3381.html,Mo-Sa 07:30-22:00; Su 08:00-20:00,O'Reilly Auto Parts,Q7071951
https://locations.oreillyauto.com/il/chicago/autopartes-3381.html,oreilly,Tu tienda O'Reilly Auto Parts en Chicago,,Chicago,IL,,US,+1 773-763-1573,https://locations.oreillyauto.com/il/chicago/autopartes-3381.html,Mo-Sa 07:30-22:00; Su 08:00-20:00,O'Reilly Auto Parts,Q7071951
restaurant_83762,popeyes_us_fr,Popeyes,"5353 N Harlem Ave Chicago, Illinois 60656 - USA",Chicago,IL,,US,+1 773-792-9105,https://www.popeyes.com/store-locator/store/restaurant_83762,Mo-Fr 10:00-22:00; Sa 10:00-23:00; Su 10:00-22:00,Popeyes,Q1330910
32230,smilebrands,Higgins Family Dental,7134 West Higgins Avenue,Chicago,IL,,US,+1 773-736-5151,https://higginsfamilydental.com,,Smile Brands Inc.,Q108286823
10129,tjx,Harwood Heights,4725 N. Harlem Avenue,Harwood Heights,IL,,US,+1 708-867-4230,,Mo-Sa 09:30-21:30; Su 10:00-20:00,Marshalls,Q15903261
6065600070,usps_collection_boxes,USPS COLLECTION BOX - BLUE BOX,4500 N CUMBERLAND AVE,CHICAGO,IL,,US,,,,United States Postal Service,Q668687
6065600000,usps_collection_boxes,USPS COLLECTION BOX - BLUE BOX,4411 N CUMBERLAND AVE,CHICAGO,IL,,US,,,,United States Postal Service,Q668687
6065600054,usps_collection_boxes,USPS COLLECTION BOX - BLUE BOX,4701 N CUMBERLAND SW,CHICAGO,IL,,US,,,,United States Postal Service,Q668687
6065600032,usps_collection_boxes,USPS COLLECTION BOX - BLUE BOX,5159 N EAST RIVER RD,CHICAGO,IL,,US,,,,United States Postal Service,Q668687
6065600026,usps_collection_boxes,USPS COLLECTION BOX - BLUE BOX,8654 W BERWYN AVE,CHICAGO,IL,,US,,,,United States Postal Service,Q668687
6065600080,usps_collection_boxes,USPS COLLECTION BOX - BLUE BOX,5135 N CUMBERLAND SE,CHICAGO,IL,,US,,,,United States Postal Service,Q668687
6065600076,usps_collection_boxes,USPS COLLECTION BOX - BLUE BOX,4600 N OSAGE AVE NW,CHICAGO,IL,,US,,,,United States Postal Service,Q668687
6065600003,usps_collection_boxes,USPS COLLECTION BOX - BLUE BOX,5431 N EAST RIVER RD,CHICAGO,IL,,US,,,,United States Postal Service,Q668687
6065600006,usps_collection_boxes,USPS COLLECTION BOX - BLUE BOX,5457 N EAST RIVER RD,CHICAGO,IL,,US,,,,United States Postal Service,Q668687
6065600002,usps_collection_boxes,USPS COLLECTION BOX - BLUE BOX,5346 N CUMBERLAND AVE,CHICAGO,IL,,US,,,,United States Postal Service,Q668687
6065600038,usps_collection_boxes,USPS COLLECTION BOX - BLUE BOX,8454 W GREGORY ST,CHICAGO,IL,,US,,,,United States Postal Service,Q668687
6065600069,usps_collection_boxes,USPS COLLECTION BOX - BLUE BOX,8000 W SUMMERDALE AVE,CHICAGO,IL,,US,,,,United States Postal Service,Q668687
6065600031,usps_collection_boxes,USPS COLLECTION BOX - BLUE BOX,5200 N CANFIELD AVE,CHICAGO,IL,,US,,,,United States Postal Service,Q668687
6065600057,usps_collection_boxes,USPS COLLECTION BOX - BLUE BOX,7830 W LAWRENCE NW,CHICAGO,IL,,US,,,,United States Postal Service,Q668687
6065600066,usps_collection_boxes,USPS COLLECTION BOX - BLUE BOX,4945 N OZANAM SE,CHICAGO,IL,,US,,,,United States Postal Service,Q668687
6065600077,usps_collection_boxes,USPS COLLECTION BOX - BLUE BOX,4601 N OZANAM AVE NE,CHICAGO,IL,,US,,,,United States Postal Service,Q668687
6065600087,usps_collection_boxes,USPS COLLECTION BOX - BLUE BOX,7350 W AGATITE AVE,CHICAGO,IL,,US,,,,United States Postal Service,Q668687
6065600056,usps_collection_boxes,USPS COLLECTION BOX - BLUE BOX,7300 W WILSON AVE,CHICAGO,IL,,US,,,,United States Postal Service,Q668687
6065600044,usps_collection_boxes,USPS COLLECTION BOX - BLUE BOX,4756 N RONALD ST,CHICAGO,IL,,US,,,,United States Postal Service,Q668687
6065600063,usps_collection_boxes,USPS COLLECTION BOX - BLUE BOX,4756 N RONALD ST,CHICAGO,IL,,US,,,,United States Postal Service,Q668687
6065600041,usps_collection_boxes,USPS COLLECTION BOX - BLUE BOX,4756 N RONALD ST,CHICAGO,IL,,US,,,,United States Postal Service,Q668687
6065600001,usps_collection_boxes,USPS COLLECTION BOX - BLUE BOX,4747 N HARLEM,CHICAGO,IL,,US,,,,United States Postal Service,Q668687
6065600040,usps_collection_boxes,USPS COLLECTION BOX - BLUE BOX,4760 N OAK PARK AVE,CHICAGO,IL,,US,,,,United States Postal Service,Q668687
6065600065,usps_collection_boxes,USPS COLLECTION BOX - BLUE BOX,4901 N NOTTINGHAM AVE,CHICAGO,IL,,US,,,,United States Postal Service,Q668687
6065600018,usps_collection_boxes,USPS COLLECTION BOX - BLUE BOX,4859 N OKETO SE,CHICAGO,IL,,US,,,,United States Postal Service,Q668687
6065600007,usps_collection_boxes,USPS COLLECTION BOX - BLUE BOX,7342 W FOSTER AVE,CHICAGO,IL,,US,,,,United States Postal Service,Q668687
6065600011,usps_collection_boxes,USPS COLLECTION BOX - BLUE BOX,5523 N CUMBERLAND AVE,CHICAGO,IL,,US,,,,United States Postal Service,Q668687
6065600012,usps_collection_boxes,USPS COLLECTION BOX - BLUE BOX,7220 W FOSTER AVE,CHICAGO,IL,,US,,,,United States Postal Service,Q668687
6065600015,usps_collection_boxes,USPS COLLECTION BOX - BLUE BOX,8337 W LAWRENCE,CHICAGO,IL,,US,,,,United States Postal Service,Q668687
6065600016,usps_collection_boxes,USPS COLLECTION BOX - BLUE BOX,8437 W LAWRENCE AVE,CHICAGO,IL,,US,,,,United States Postal Service,Q668687
6065600019,usps_collection_boxes,USPS COLLECTION BOX - BLUE BOX,4924 N RIDGEWOOD AVE SW,CHICAGO,IL,,US,,,,United States Postal Service,Q668687
6065600020,usps_collection_boxes,USPS COLLECTION BOX - BLUE BOX,4950 N CUMBERLAND SW,CHICAGO,IL,,US,,,,United States Postal Service,Q668687
6065600029,usps_collection_boxes,USPS COLLECTION BOX - BLUE BOX,5104 N CANFIELD AVE,CHICAGO,IL,,US,,,,United States Postal Service,Q668687
6065600033,usps_collection_boxes,USPS COLLECTION BOX - BLUE BOX,6758 W FOSTER AVE,CHICAGO,IL,,US,,,,United States Postal Service,Q668687
6065600035,usps_collection_boxes,USPS COLLECTION BOX - BLUE BOX,6700 W FOSTER AVE,CHICAGO,IL,,US,,,,United States Postal Service,Q668687
6065600058,usps_collection_boxes,USPS COLLECTION BOX - BLUE BOX,4771 N REDWOOD AVE E,CHICAGO,IL,,US,,,,United States Postal Service,Q668687
6065600060,usps_collection_boxes,USPS COLLECTION BOX - BLUE BOX,8700 W LELAND AVE,CHICAGO,IL,,US,,,,United States Postal Service,Q668687
6065600062,usps_collection_boxes,USPS COLLECTION BOX - BLUE BOX,5437 N CANFIELD AVE,CHICAGO,IL,,US,,,,United States Postal Service,Q668687
6065600071,usps_collection_boxes,USPS COLLECTION BOX - BLUE BOX,4458 N OAK PARK SW,CHICAGO,IL,,US,,,,United States Postal Service,Q668687
6065600088,usps_collection_boxes,USPS COLLECTION BOX - APC,7101 W GUNNISON ST,CHICAGO,IL,,US,,,,United States Postal Service,Q668687
6065600102,usps_collection_boxes,USPS COLLECTION BOX - BLUE BOX,8350 W LAWRENCE AVE,CHICAGO,IL,,US,,,,United States Postal Service,Q668687
6065600034,usps_collection_boxes,USPS COLLECTION BOX - BLUE BOX,5201 N OLCOTT AVE,CHICAGO,IL,,US,,,,United States Postal Service,Q668687
6065600048,usps_collection_boxes,USPS COLLECTION BOX - BLUE BOX,6835 W HIGGINS AVE,CHICAGO,IL,,US,,,,United States Postal Service,Q668687
6065600023,usps_collection_boxes,USPS COLLECTION BOX - BLUE BOX,5410 N OKETO AVE,CHICAGO,IL,,US,,,,United States Postal Service,Q668687
6065600050,usps_collection_boxes,USPS COLLECTION BOX - BLUE BOX,7036 W HIGGINS AVE,CHICAGO,IL,,US,,,,United States Postal Service,Q668687
6065600047,usps_collection_boxes,USPS COLLECTION BOX - BLUE BOX,7124 W HIGGINS AVE,CHICAGO,IL,,US,,,,United States Postal Service,Q668687
6065600049,usps_collection_boxes,USPS COLLECTION BOX - BLUE BOX,6630 W HIGGINS AVE,CHICAGO,IL,,US,,,,United States Postal Service,Q668687
6065600046,usps_collection_boxes,USPS COLLECTION BOX - BLUE BOX,6540 W HIGGINS AVE,CHICAGO,IL,,US,,,,United States Postal Service,Q668687
6065600024,usps_collection_boxes,USPS COLLECTION BOX - BLUE BOX,5350 N ORIOLE AVE,CHICAGO,IL,,US,,,,United States Postal Service,Q668687
,visa,,,CHICAGO,IL,,US,,,,,
,visa,,,CHICAGO,IL,,US,,,,,
,visa,,,CHICAGO,IL,,US,,,,,
,visa,,,CHICAGO,IL,,US,,,,,
,visa,,,CHICAGO,IL,,US,,,,,
,visa,,,CHICAGO,IL,,US,,,,,
,visa,,,CHICAGO,IL,,US,,,,,
,visa,,,CHICAGO,IL,,US,,,,,
,visa,,,CHICAGO,IL,,US,,,,,
,visa,,,CHICAGO,IL,,US,,,,,
,visa,,,NORRIDGE,IL,,US,,,,,
,visa,,,CHICAGO,IL,,US,,,,,
,visa,,,CHICAGO,IL,,US,,,,,
,visa,,,CHICAGO,IL,,US,,,,,
,visa,,,CHICAGO,IL,,US,,,,,
,visa,,,CHICAGO,IL,,US,,,,,
,visa,,,CHICAGO,IL,,US,,,,,
,visa,,,CHICAGO,IL,,US,,,,,
,visa,,,CHICAGO,IL,,US,,,,,
,visa,,,CHICAGO,IL,,US,,,,,
,visa,,,CHICAGO,IL,,US,,,,,
,visa,,,NOORIDGE,IL,,US,,,,,
,visa,,,CHICAGO,IL,,US,,,,,
,visa,,,CHICAGO,IL,,US,,,,,
,visa,,,CHICAGO,IL,,US,,,,,
,visa,,,CHICAGO,IL,,US,,,,,
,visa,,,CHICAGO,IL,,US,,,,,
,visa,,,NORRIDGE,IL,,US,,,,,
,visa,,,CHICAGO,IL,,US,,,,,
,visa,,,LINCOLN,IL,,US,,,,,
https://www.walgreens.com/locator/walgreens-7155+w+foster+pl-chicago-il-60656/id=7515,walgreens,Walgreens,,Chicago,IL,,US,+1 773-631-3927,https://www.walgreens.com/locator/walgreens-7155+w+foster+pl-chicago-il-60656/id=7515,Mo-Fr 07:00-22:00; Sa-Su 08:00-23:00,Walgreens,Q1591889
https://locations.wendys.com/#9251466,wendys,"Wendy's 5472 N Harlem Ave in Chicago, IL",,Chicago,IL,,US,+1 773-763-6754,https://locations.wendys.com/united-states/il/chicago/5472-n-harlem-ave,"Mo-We 06:30-02:00,06:30-10:30; Th-Fr 06:30-03:00,06:30-10:30; Sa 06:30-03:00,06:30-11:00; Su 06:30-02:00,06:30-11:00",Wendy's,Q550258
196999e032c293b59562f6f974574798,western_union,UKRAINE EXPRESS CHICAGO,,Chicago,IL,,US,+1 312-900-3880,https://location.westernunion.com/us/il/chicago/196999e032c293b59562f6f974574798,Mo-Fr 10:00-19:00; Sa-Su 10:00-17:00,Western Union,Q861042
