Ref,Spider,Name,Address,City,State,Zipcode,Country,Phone,Website,Hours,Brand,WikiData
1640,att_us,KINGWOOD STORE,,Kingwood,TX,,US,+1 281-361-8051,https://www.att.com/stores/texas/kingwood/1640,Mo-Sa 10:00-20:00; Su 11:00-18:00,AT&T,Q298594
https://www.banfield.com/locations/veterinarians/tx/kingwood/kin,banfield_pet_hospital,Kingwood,,Kingwood,TX,,US,+1 281-312-4247,https://www.banfield.com/locations/veterinarians/tx/kingwood/kin,Mo-Sa 08:00-18:00; Su 00:00-24:00,Banfield Pet Hospital,Q2882416
227227,bluerhino,Timewise #880811,,Kingwood,TX,,US,+1 281-361-4773,,,Blue Rhino,Q65681213
196832,bluerhino,H-E-B #720,,KINGWOOD,TX,,US,+1 281-361-0342,,,Blue Rhino,Q65681213
220054,bluerhino,K and M Hardware of Kingwood #17974,,Kingwood,TX,,US,+1 281-913-5565,,,Blue Rhino,Q65681213
30059,bluerhino,Kroger #310 - Southwest,,Kingwood,TX,,US,+1 281-361-7343,,,Blue Rhino,Q65681213
tx_kingwood_4554-kingwood-dr,chipotle, ,,Kingwood,TX,,US,+1 281-973-4076,https://locations.chipotle.com/tx/kingwood/4554-kingwood-dr,,Chipotle,Q465751
31356,citi,ATM 7ELEVEN-FCTI,,Kingwood,TX,,US,,,,Citibank,Q857063
51201,citi,ATM CVS,,Kingwood,TX,,US,,,,Citibank,Q857063
59208,citi,ATM Heb,,Kingwood,TX,,US,,,,Citibank,Q857063
https://www.edwardjones.com/us-en/financial-advisor/felicia-cumby,edwardjones,Felicia A Cumby,,Kingwood,TX,,US,+1 281-359-3815,https://www.edwardjones.com/us-en/financial-advisor/felicia-cumby,Mo-Fr 08:00-16:30,Edward Jones,Q5343830
200320697,exxonmobil,PRIME STOP,,KINGWOOD,TX,,US,+1 281-358-2202,https://www.exxon.com/en/find-station/exxon-kingwood-tx-primestop-200320697,Mo-Sa 05:00-00:00; Su 05:00-01:00,Exxon,Q109675651
https://salons.greatclips.com/us/tx/kingwood/4521-kingwood-dr,greatclips,Great Clips,,Kingwood,TX,,US,+1 281-973-9543,https://salons.greatclips.com/us/tx/kingwood/4521-kingwood-dr,Mo-Fr 09:00-18:00; Sa 10:00-18:00; Su 11:00-18:00,Great Clips,Q5598967
https://locations.jimmyjohns.com/tx/kingwood/sandwiches-3961.html,jimmy_johns,Jimmy John's,,Kingwood,TX,,US,+1 281-623-5973,https://locations.jimmyjohns.com/tx/kingwood/sandwiches-3961.html,,Jimmy John's,Q1689380
173237,little_free_library,Vessel Library #173237 Kingwood TX,,Kingwood,TX,,US,,,,Little Free Library,Q6650101
157215,little_free_library,SkylarRose Mann #157215 kingwood TX,,kingwood,TX,,US,,,,Little Free Library,Q6650101
17087,mattress_firm_us,Mattress Firm Kings Crossing,,Kingwood,TX,,US,+1 281-312-4600,https://www.mattressfirm.com/en-us/stores/tx/kingwood/001149/,,Mattress Firm,Q6791878
https://locations.modpizza.com/#23558303,modpizza,MOD Pizza Kingwood East,,Kingwood,TX,,US,+1 281-360-0036,https://locations.modpizza.com/usa/tx/kingwood/4537-kingwood-dr,Mo-We 10:30-22:00; Th-Sa 10:30-23:00; Su 10:30-22:00,MOD Pizza,Q19903469
1143,orangetheory_fitness,"Kingwood, TX",,Kingwood,TX,,US,+1 281-516-5787,,,Orangetheory Fitness,Q25005163
246,pinch_a_penny_us,Pinch A Penny,,Kingwood,TX,,US,+1 281-360-3535,https://pinchapenny.com/stores/kingwood-tx-246,Mo-Sa 09:00-18:00; Su 10:00-17:00,Pinch A Penny,Q121436109
137044,potbelly_sandwich,Kingwood - Drive Thru,,Kingwood,TX,,US,+1 281-312-4295,,Mo-Su 10:00-22:00,Potbelly Sandwich Shop,Q7234777
374,pure_barre_us,Kingwood,,Kingwood,TX,,US,+1 832-777-6934,https://www.purebarre.com/location/kingwood-tx,,Pure Barre,Q86707084
2270,snap_fitness,"Kingwood, TX",2510 Mills Branch Dr,Kingwood,TX,,US,+1 281-360-2198,https://www.snapfitness.com/us/gyms/kingwood-tx,24/7,Snap Fitness,Q7547254
https://restaurants.subway.com/#14897959,subway,Subway,,Kingwood Harris,TX,,US,+1 281-360-1158,https://restaurants.subway.com/united-states/tx/kingwood/2510-mills-branch-road,Mo-Su 08:00-21:00,Subway,Q244457
Kingwood,torchys_tacos,Torchy's Tacos,"4529 Kingwood Dr, Suite 180",Houston,TX,,US,+1 346-251-0742,https://torchystacos.com/location/kingwood/,Mo-Th 10:00-22:00; Fr 10:00-23:00; Sa 09:00-23:00; Su 09:00-22:00,Torchy's Tacos,Q106769573
R00000256139,verizon_us,Kingwood,,Kingwood,TX,,US,+1 346-603-4599,https://www.verizon.com/stores/details/texas/kingwood/kingwood-1283122/,Mo-Sa 10:00-19:00; Su 11:00-18:00,Verizon,Q919641
,visa,,,HOUSTON,TX,,US,,,,,
,visa,,,KINGWOOD,TX,,US,,,,,
,visa,,,KINGWOOD,TX,,US,,,,,
,visa,,,KINGWOOD,TX,,US,,,,,
,visa,,,KINGWOOD,TX,,US,,,,,
,visa,,,KINGWOOD,TX,,US,,,,,
,visa,,,KINGWOOD,TX,,US,,,,,
,visa,,,KINGWOOD,TX,,US,,,,,
4510__KINGWOOD__DR_KINGWOOD_TX_77345,wellsfargo,Wells Fargo,4510 KINGWOOD DR,KINGWOOD,TX,,US,+1 281-361-6616,https://www.wellsfargo.com/locator/bank/4510__KINGWOOD__DR_KINGWOOD_TX_77345/,Mo-Fr 09:00-17:00,Wells Fargo,Q744149
https://locations.whataburger.com/tx/kingwood/4545-kingwood-dr-ste-404.html,whataburger,Kingwood & Lake Houston,4545 KINGWOOD DR STE 404,KINGWOOD,TX,,US,,https://locations.whataburger.com/tx/kingwood/4545-kingwood-dr-ste-404.html,,Whataburger,Q376627
