Ref,Spider,Name,Address,City,State,Zipcode,Country,Phone,Website,Hours,Brand,WikiData
https://locators.bankofamerica.com/ct/bridgeport/atm-bridgeport-110181.html,bankofamerica,Bank of America Walk-Up ATM | Bridgeport East Main,,Bridgeport,CT,,US,+1 844-401-8500,https://locators.bankofamerica.com/ct/bridgeport/atm-bridgeport-110181.html,,Bank of America,Q487907
https://stores.basspro.com/us/ct/bridgeport/1-bass-pro-dr.html,bassproshops,"Bass Pro Shops Bridgeport, CT",,Bridgeport,CT,,US,+1 203-362-4200,https://stores.basspro.com/us/ct/bridgeport/1-bass-pro-dr.html,Mo-Sa 09:00-20:00; Su 10:00-18:00,Bass Pro Shops,Q4867953
ct_bridgeport_275-e-main-st,chipotle, ,,Bridgeport,CT,,US,+1 203-330-9419,https://locations.chipotle.com/ct/bridgeport/275-e-main-st,,Chipotle,Q465751
200315687,exxonmobil,SABA MOBIL,,BRIDGEPORT,CT,,US,+1 203-334-3397,https://www.exxon.com/en/find-station/mobil-bridgeport-ct-sabamobil-200315687,24/7,Mobil,Q109676002
7686,h_r_block,H&R Block,,Bridgeport,CT,,US,+1 203-333-8189,https://www.hrblock.com/local-tax-offices/connecticut/bridgeport/1217-e-main-st/7686/,,H&R Block,Q5627799
74726019,moneygram,ECUAEXPRESS - BRIDGEPORT,,BRIDGEPORT,CT,,US,+1 203-502-3248,,Mo-Su 09:00-21:00,MoneyGram,Q1944412
https://locations.mtb.com/#49271722,mt_bank_us,,,,CT,,US,+1 800-724-2440,https://locations.mtb.com/ct/bridgeport/bank-branches-and-atms-bridgeport-ct-sa7058.html,24/7,M&T Bank,Q3272257
03619,rite_aid_us,Rite Aid #03619 Bridgeport,,Bridgeport,CT,,US,+1 203-382-0009,https://locations2.riteaid.com.yext-cdn.com/ct/bridgeport/1060-east-main-street.html,Mo-Fr 08:00-20:00; Sa-Su 08:00-18:00,Rite Aid,Q3433273
https://restaurants.subway.com/#14912150,subway,Subway,,Bridgeport Fairfield,CT,,US,+1 203-502-1528,https://restaurants.subway.com/united-states/ct/bridgeport/926-east-main-street,Mo-Fr 08:30-22:00; Sa 09:00-22:00; Su 10:00-21:00,Subway,Q244457
0187497300,sunoco_us,Sunoco,,BRIDGEPORT,CT,,US,+1 347-589-4343,,Mo-Su 06:00-23:00,Sunoco,Q1423218
4179,tmobile_us,Stratford Ave & E Main St,,Bridgeport,CT,,US,+1 203-993-8276,https://www.t-mobile.com/store-locator/ct/bridgeport/stratford-ave-e-main-st,,T-Mobile,Q3511885
1375148,usps,NOBLE,,BRIDGEPORT,CT,,US,+1 203-333-5688,,"Mo-Fr 08:30-13:00,14:00-16:30",United States Postal Service,Q668687
0660800021,usps_collection_boxes,USPS COLLECTION BOX - BLUE BOX,934 E MAIN ST,BRIDGEPORT,CT,,US,,,,United States Postal Service,Q668687
0660800027,usps_collection_boxes,USPS COLLECTION BOX - PO LOBBY,934 E MAIN ST,BRIDGEPORT,CT,,US,,,,United States Postal Service,Q668687
0660800002,usps_collection_boxes,USPS COLLECTION BOX - BLUE BOX,1071 E MAIN ST,BRIDGEPORT,CT,,US,,,,United States Postal Service,Q668687
,visa,,,BRIDGEPORT,CT,,US,,,,,
,visa,,,BRIDGEPORT,CT,,US,,,,,
,visa,,,BRIDGEPORT,CT,,US,,,,,
4972e87848e2ab7e2a30eb5a9b99c614,western_union,ECUAEXPRESS GROCERY,,Bridgeport,CT,,US,+1 203-502-3248,https://location.westernunion.com/us/ct/bridgeport/4972e87848e2ab7e2a30eb5a9b99c614,Mo-Su 08:00-21:00,Western Union,Q861042
a94b7784a7b254f1cef46f58174084f4,western_union,LYNN BEAUTY SUPPLY,,Bridgeport,CT,,US,+1 203-332-1566,https://location.westernunion.com/us/ct/bridgeport/a94b7784a7b254f1cef46f58174084f4,Mo-Fr 10:00-19:00; Sa 11:00-20:00; Su 13:00-16:00,Western Union,Q861042
8d9b8598871bf7627e5d169562a49824,western_union,ALL BILL PAYMENT SYSTEM,,Bridgeport,CT,,US,+1 203-685-3468,https://location.westernunion.com/us/ct/bridgeport/8d9b8598871bf7627e5d169562a49824,Mo-Fr 09:00-17:00; Sa 10:00-15:00,Western Union,Q861042
d812b25a64c94ae12b6ef8bc56d4095d,western_union,LISTA RED,,Bridgeport,CT,,US,+1 203-366-9394,https://location.westernunion.com/us/ct/bridgeport/d812b25a64c94ae12b6ef8bc56d4095d,Mo-Fr 09:00-18:00; Sa 09:00-17:00,Western Union,Q861042
