Ref,Spider,Name,Address,City,State,Zipcode,Country,Phone,Website,Hours,Brand,WikiData
https://stores.advanceautoparts.com/nj/barnegat/860-w-bay-ave,advance_auto_parts_us,Advance Auto Parts,,Barnegat,NJ,,US,+1 609-660-1060,https://stores.advanceautoparts.com/nj/barnegat/860-w-bay-ave,Mo-Sa 07:30-21:00; Su 09:00-20:00,Advance Auto Parts,Q4686051
https://local.acmemarkets.com/#5603079,albertsons,ACME Markets,,Barnegat,NJ,,US,+1 609-607-5909,https://local.acmemarkets.com/nj/barnegat/912-w-bay-ave.html,Mo-Su 06:00-22:00,ACME Markets,Q341975
6888,autozone_us,AutoZone Auto Parts Barnegat,,Barnegat,NJ,,US,+1 609-549-7251,https://www.autozone.com/locations/nj/barnegat/907-w-bay-ave.html,Mo-Su 07:30-21:00,AutoZone,Q4826087
https://local.biglots.com/#13189837,biglots,Big Lots - Barnegat,,Barnegat,NJ,,US,+1 609-698-0783,https://local.biglots.com/nj/barnegat/580-n-main-st,Mo-Sa 09:00-21:00; Su 09:00-19:00,Big Lots,Q4905973
ATM-2211,citizens_us,,,Barnegat,NJ,,US,,,,Citizens,Q5122694
5675,cvs_us,CVS Pharmacy,,Barnegat,NJ,,US,+1 609-660-7699,https://www.cvs.com/store-locator/barnegat-nj-pharmacies/955-west-bay-ave-barnegat-nj-08005/storeid=5675,Mo-Su 08:00-22:00,CVS Pharmacy,Q2078880
7412,dollartree,DollarTree,,Barnegat,NJ,,US,+1 609-549-7213,,Mo-Sa 09:00-21:00; Su 10:00-20:00,Dollar Tree,Q5289230
21544,dollar_general,Dollar General,,Barnegat,NJ,,US,+1 609-994-0407,https://www.dollargeneral.com/store-directory/nj/barnegat/21544,Mo-Su 08:00-22:00,Dollar General,Q145168
3940,dominos_pizza_us,Domino's Pizza,,BARNEGAT,NJ,,US,+1 609-978-1333,https://pizza.dominos.com/new-jersey/barnegat/905-west-bay-avenue,Mo-Th 10:30-24:00; Fr-Sa 10:30-01:00; Su 10:30-24:00,Domino's,Q839466
357459,dunkin_us,Dunkin',,Barnegat,NJ,,US,+1 609-891-0493,https://locations.dunkindonuts.com/en/nj/barnegat/770-lighthouse-dr/357459,Mo-Su 04:00-21:00,Dunkin',Q847743
28832,h_r_block,H&R Block,,Barnegat,NJ,,US,+1 609-698-4923,https://www.hrblock.com/local-tax-offices/new-jersey/barnegat/gunning-river-mall/28832/,,H&R Block,Q5627799
0371,mattress_warehouse_us,Mattress Warehouse,,Barnegat,NJ,,US,+1 640-666-0515,https://stores.mattresswarehouse.com/mattress-warehouse-of-barnegat-722cb70dde1e?utm_campaign=yext&utm_medium=organic&utm_source=local,Mo-Sa 10:00-20:00; Su 11:00-18:00,Mattress Warehouse,Q61995079
https://www.publicstorage.com/self-storage-nj-barnegat/5935.html,public_storage_us,Public Storage,,Barnegat,NJ,,US,+1 609-900-0227,https://www.publicstorage.com/self-storage-nj-barnegat/5935.html,,Public Storage,Q1156045
02529,rite_aid_us,Rite Aid #02529 Barnegat,,Barnegat,NJ,,US,+1 609-698-2329,https://locations2.riteaid.com.yext-cdn.com/nj/barnegat/895-west-bay-avenue.html,Mo-Sa 08:00-22:00; Su 08:00-20:00,Rite Aid,Q3433273
0498072800,sunoco_us,Sunoco,,BARNEGAT,NJ,,US,+1 617-599-9181,,,Sunoco,Q1423218
https://locations.tacobell.com/#22680650,taco_bell,Taco Bell,,Barnegat,NJ,,US,+1 609-812-2249,https://locations.tacobell.com/nj/barnegat/770-light-house-drive-pad-b.html,Mo-Su 09:00-24:00,Taco Bell,Q752941
665D,tmobile_us,W Bay Ave & Gunning River Rd,,Barnegat,NJ,,US,+1 609-489-4341,https://www.t-mobile.com/store-locator/nj/barnegat/w-bay-ave-gunning-river-rd,,T-Mobile,Q3511885
1354054,usps,BARNEGAT,,BARNEGAT,NJ,,US,+1 609-660-5734,,Mo-Fr 09:00-17:00; Sa 09:00-13:00,United States Postal Service,Q668687
1450655,usps,BARNEGAT CARRIER ANNEX,,BARNEGAT,NJ,,US,+1 609-698-0101,,,United States Postal Service,Q668687
0800500003,usps_collection_boxes,USPS COLLECTION BOX - BLUE BOX,570 N MAIN ST,BARNEGAT,NJ,,US,,,,United States Postal Service,Q668687
0800500001,usps_collection_boxes,USPS COLLECTION BOX - BLUE BOX,685 E BAY AVE,BARNEGAT,NJ,,US,,,,United States Postal Service,Q668687
0800500014,usps_collection_boxes,USPS COLLECTION BOX - PO LOBBY,830 W BAY AVE UNIT 1,BARNEGAT,NJ,,US,,,,United States Postal Service,Q668687
0800500002,usps_collection_boxes,USPS COLLECTION BOX - BLUE BOX,830 W BAY AVE,BARNEGAT,NJ,,US,,,,United States Postal Service,Q668687
0800500006,usps_collection_boxes,USPS COLLECTION BOX - PO LOBBY,830 W BAY AVE,BARNEGAT,NJ,,US,,,,United States Postal Service,Q668687
0800500008,usps_collection_boxes,USPS COLLECTION BOX - BLUE BOX,912 W BAY AVE,BARNEGAT,NJ,,US,,,,United States Postal Service,Q668687
,visa,,,BARNEGAT,NJ,,US,,,,,
,visa,,,BARNEGAT,NJ,,US,,,,,
,visa,,,BARNEGAT,NJ,,US,,,,,
,visa,,,BARNEGAT,NJ,,US,,,,,
,visa,,,BARNEGAT,NJ,,US,,,,,
,visa,,,BARNEGAT,NJ,,US,,,,,
,visa,,,BARNEGAT,NJ,,US,,,,,
,visa,,,BARNEGAT,NJ,,US,,,,,
,visa,,,BARNEGAT,NJ,,US,,,,,
,visa,,,BARNEGAT,NJ,,US,,,,,
,visa,,,BARNEGAT,NJ,,US,,,,,
,visa,,,BARNEGAT,NJ,,US,,,,,
https://www.walgreens.com/locator/walgreens-879+w+bay+ave-barnegat-nj-08005/id=9503,walgreens,Walgreens,,Barnegat,NJ,,US,+1 609-698-7035,https://www.walgreens.com/locator/walgreens-879+w+bay+ave-barnegat-nj-08005/id=9503,Mo-Su 07:00-22:00,Walgreens,Q1591889
242__S__MAIN__ST_BARNEGAT_NJ_08005,wellsfargo,Wells Fargo,242 S MAIN ST,BARNEGAT,NJ,,US,+1 609-698-2121,https://www.wellsfargo.com/locator/bank/242__S__MAIN__ST_BARNEGAT_NJ_08005/,Mo-Fr 09:00-17:00,Wells Fargo,Q744149
d54f06936fdbd1719eb0cf2e7b436b66,western_union,DOLLAR GENERAL #21544,,Barnegat,NJ,,US,+1 609-660-5790,https://location.westernunion.com/us/nj/barnegat/d54f06936fdbd1719eb0cf2e7b436b66,Mo-Su 08:00-22:00,Western Union,Q861042
