Ref,Spider,Name,Address,City,State,Zipcode,Country,Phone,Website,Hours,Brand,WikiData
https://vertretung.allianz.de/eike.sander/,allianz_de,Allianz Versicherung Eike Sander GENERALVERTRETUNG,,Wolfenbüttel,,,DE,+49 5331 9053620,https://vertretung.allianz.de/eike.sander/,Mo-Fr 09:00-13:00,Allianz SE,Q487292
https://vertretung.allianz.de/agentur.piscitelli/,allianz_de,Allianz Versicherung Daniel Piscitelli GENERALVERTRETUNG,,Wolfenbüttel,,,DE,+49 5331 1218,https://vertretung.allianz.de/agentur.piscitelli/,Mo-Tu 08:15-14:00; Th-Fr 08:15-14:00,Allianz SE,Q487292
13135100,bp,Thorsten Galgonek,,Wolfenbüttel,,,DE,+49 5331 1235,http://tankstelle.aral.de/tankstelle/13135100,24/7,BP,Q152057
2290,deutsche_telekom_de,Telekom Shop Wolfenbüttel Stadtgebiet,,Wolfenbüttel,,,DE,+49 5331 881005,https://shopseite.telekom.de/nord-ost/wolfenbuettel/lange-herzogstr-18,Mo-Fr 09:30-18:00; Sa 09:30-14:00,Deutsche Telekom,Q9396
52.1635210.53528,dpd_de,NKD Deutschland GmbH,,Wolfenbüttel,,,DE,,,,DPD,Q541030
52.1585110.533,dpd_de,Oppermann Sicherheitsfachgesch,,Wolfenbüttel,,,DE,,,,DPD,Q541030
384071,endlich_ohne_de,FILIALE WOLFENBÜTTEL – ENDLICH OHNE TATTOOENTFERNUNG,Reichsstr. 7,Wolfenbüttel,,,DE,+49 176 51097442,https://www.endlich-ohne.de/standorte/filiale-wolfenbuettel/,,Endlich Ohne,Q119982663
3135323135HndR82,eyes_and_more,eyes + more Wolfenbüttel,"Lange Herzogstraße   7, Wolfenbüttel, 38300",,,,DE,+49 5331 9923801,https://www.eyesandmore.de/termin-vereinbaren/?storeId=3135323135HndR82,Mo-Fr 09:00-18:30; Sa 09:00-16:00,eyes + more,Q1385775
2760226919,gls_de,Passbild De... Studio,,Wolfenbüttel,,,DE,+49 5331 8852739,,Mo-Fr 10:00-17:00,General Logistics Systems,Q46495823
2760918373,gls_de,Back2Smoke,,Wolfenbüttel,,,DE,+49 170 8242550,,Mo-Sa 12:00-20:00,General Logistics Systems,Q46495823
5876,kik,KiK,,Wolfenbüttel,,,DE,+49 5331 8559237,,Mo-Fr 09:30-19:00; Sa 09:30-16:00,KiK,Q883965
74811296,moneygram,INTERNET-CAFE CALL-CENTER - WOLFENBUETTE,,WOLFENBUETTEL,,,DE,+49 5331 886966,,Mo-Sa 09:30-21:00; Su 00:00-24:00,MoneyGram,Q1944412
https://www.rossmann.de/de/filialen/niedersachsen/wolfenbuettel/okerstr--17.html,rossmann_de,Rossmann Drogerie-Markt Okerstr. 17,,Wolfenbüttel,,,DE,+49 5331 887025,https://www.rossmann.de/de/filialen/niedersachsen/wolfenbuettel/okerstr--17.html,Mo-Fr 08:30-19:00; Sa 08:30-16:00,Rossmann,Q316004
https://www.rossmann.de/de/filialen/niedersachsen/wolfenbuettel/bahnhofstr--6-6-a-goslarsche-str--2.html,rossmann_de,"Rossmann Drogerie-Markt Bahnhofstr. 6, 6 a/Goslarsche Str. 2",,Wolfenbüttel,,,DE,+49 5331 8561171,https://www.rossmann.de/de/filialen/niedersachsen/wolfenbuettel/bahnhofstr--6-6-a-goslarsche-str--2.html,Mo-Sa 08:00-20:00,Rossmann,Q316004
111044,sparkasse_de,Braunschweigische Landessparkasse SB-Center Im Forum,,Wolfenbüttel,,,DE,+49 5331 981220,https://www.sparkasse.de/standorte/filialen/braunschweigische-landessparkasse-sb-center-im-forum-111044,Mo-Fr 09:00-20:00; Sa 08:00-16:00,Sparkasse,Q13601825
34218,sparkasse_de,Braunschweigische Landessparkasse Immobilienzentrum NORD/OST,,Wolfenbüttel,,,DE,+49 5331 981282,https://www.sparkasse.de/standorte/filialen/braunschweigische-landessparkasse-immobilienzentrum-nord-ost-34218,"Mo 09:00-13:00,14:00-16:00; Tu 09:00-13:00,14:00-18:00; We 09:00-13:00; Th 09:00-13:00,14:00-18:00; Fr 09:00-13:00",Sparkasse,Q13601825
34216,sparkasse_de,Braunschweigische Landessparkasse Filiale Wolfenbüttel S-Welt,,Wolfenbüttel,,,DE,+49 5331 981219,https://www.sparkasse.de/standorte/filialen/braunschweigische-landessparkasse-filiale-wolfenbuettel-s-welt-34216,"Mo 09:00-13:00; Tu 09:00-13:00,14:00-18:00; We 09:00-13:00; Th 09:00-13:00,14:00-18:00; Fr 09:00-13:00",Sparkasse,Q13601825
172854,sparkasse_de,Braunschweigische Landessparkasse Geldautomat Wolfenbüttel Löwenstr.,,Wolfenbüttel,,,DE,+49 5331 981219,https://www.sparkasse.de/standorte/geldautomaten/braunschweigische-landessparkasse-geldautomat-wolfenbuettel-loewenstr-172854,24/7,Sparkasse,Q13601825
172853,sparkasse_de,Braunschweigische Landessparkasse SB-Center Wolfenbüttel Löwenstr.,,Wolfenbüttel,,,DE,+49 5331 981219,https://www.sparkasse.de/standorte/filialen/braunschweigische-landessparkasse-sb-center-wolfenbuettel-loewenstr-172853,24/7,Sparkasse,Q13601825
60750,sparkasse_de,Braunschweigische Landessparkasse Geldautomat Wolfenbüttel Lindener Str.,,Wolfenbüttel,,,DE,+49 5331 981219,https://www.sparkasse.de/standorte/geldautomaten/braunschweigische-landessparkasse-geldautomat-wolfenbuettel-lindener-str-60750,Mo-Su 06:00-22:00,Sparkasse,Q13601825
34035,sparkasse_de,Braunschweigische Landessparkasse SB-Center Wolfenbüttel Lindener Str.,,Wolfenbüttel,,,DE,+49 5331 981219,https://www.sparkasse.de/standorte/filialen/braunschweigische-landessparkasse-sb-center-wolfenbuettel-lindener-str-34035,Mo-Su 06:00-22:00,Sparkasse,Q13601825
128387,sparkasse_de,Braunschweigische Landessparkasse Private Banking Wolfenbüttel,,Wolfenbüttel,,,DE,+49 531 4870,https://www.sparkasse.de/standorte/filialen/braunschweigische-landessparkasse-private-banking-wolfenbuettel-128387,"Mo 09:00-13:00,14:00-16:00; Tu 09:00-13:00,14:00-18:00; We 09:00-13:00; Th 09:00-13:00,14:00-18:00; Fr 09:00-13:00",Sparkasse,Q13601825
60745,sparkasse_de,Braunschweigische Landessparkasse Geldautomat Wolfenbüttel,,Wolfenbüttel,,,DE,+49 5331 981219,https://www.sparkasse.de/standorte/geldautomaten/braunschweigische-landessparkasse-geldautomat-wolfenbuettel-60745,24/7,Sparkasse,Q13601825
34217,sparkasse_de,Braunschweigische Landessparkasse Firmenkunden Wolfenbüttel,,Wolfenbüttel,,,DE,+49 5331 9810,https://www.sparkasse.de/standorte/filialen/braunschweigische-landessparkasse-firmenkunden-wolfenbuettel-34217,"Mo 09:00-13:00,14:00-16:00; Tu 09:00-13:00,14:00-18:00; We 09:00-13:00; Th 09:00-13:00,14:00-18:00; Fr 09:00-13:00",Sparkasse,Q13601825
DE_EXT_00009,totalenergies,"Aral Tankstelle Wolfenbüttel,",,Wolfenbüttel,,,DE,,https://store.totalenergies.fr/en_EN/DE_EXT_00009,,Aral,Q565734
3890,valora,k kiosk,,Wolfenbüttel,,,DE,,,,k kiosk,Q60381703
https://www.vlh.de/bst/3688/Oeffnungszeiten.html,vhl_de,VLH-Beraterin Annika Hesse in Wolfenbüttel,,Wolfenbüttel,,,DE,+49 1523 5895545,https://www.vlh.de/bst/3688/,,Vereinigte Lohnsteuerhilfe e.V.,Q15852617
,visa,,,WOLFENBUTTEL,,,DE,,,,,
,visa,,,WOLFENBUETTEL,,,DE,,,,,
,visa,,,WOLFENBUETTEL,,,DE,,,,,
,visa,,,WOLFENBUETTEL,,,DE,,,,,
,visa,,,WOLFENBUETTEL,,,DE,,,,,
,visa,,,WOLFENBUETTEL,,,DE,,,,,
,visa,,,WOLFENBUETTEL,,,DE,,,,,
,visa,,,WOLFENBUETTEL,,,DE,,,,,
,visa,,,WOLFENBUETTEL,,,DE,,,,,
,visa,,,WOLFENBUETTEL,,,DE,,,,,
https://shops.vodafone.de/wolfenbuettel/lange-herzogstr.-4,vodafone_de,Vodafone-Shop,,Wolfenbüttel,,,DE,+49 5331 7033427,https://shops.vodafone.de/wolfenbuettel/lange-herzogstr.-4,Mo-Fr 10:00-18:00; Sa 10:00-14:00,Vodafone,Q122141
https://www.vr.de/standorte/W/Wn-Wz/sb-center-lindener-strasse-9742.html,vr_bank,SB-Center Lindener Straße,,Wolfenbüttel,,,DE,+49 5331 8890,https://www.volksbank-mit-herz.de,Mo-Su 06:00-22:00,,
https://www.vr.de/standorte/W/Wn-Wz/volksbank-eg-wolfenbuettel-9741.html,vr_bank,"Volksbank eG, Wolfenbüttel",,Wolfenbüttel,,,DE,+49 5331 8890,https://www.volksbank-mit-herz.de,"Mo-Tu 09:00-12:30,14:00-18:00; We 09:00-12:30; Th 09:00-12:30,14:00-18:00; Fr 09:00-12:30",,
