Ref,Spider,Name,Address,City,State,Zipcode,Country,Phone,Website,Hours,Brand,WikiData
,visa,,,SIDI SLIMANE,SIDI SLIMANE,,MA,,,,,
,visa,,,SIDI SLIMANE,SIDI SLIMANE,,MA,,,,,
,visa,,,SIDI SLIMANE,SIDI SLIMANE,,MA,,,,,
,visa,,,SIDI SLIMANE,SIDI SLIMANE,,MA,,,,,
,visa,,,SIDI SLIMANE,SIDI SLIMANE,,MA,,,,,
,visa,,,SIDI SLIMANE,SIDI SLIMANE,,MA,,,,,
,visa,,,SIDI SLIMANE,SIDI SLIMANE,,MA,,,,,
,visa,,,SIDI SLIMANE,SIDI SLIMANE,,MA,,,,,
f2d077586e2229d4a38195b4f7c5ac12,western_union,CASH PLUS DR BRAHMA SAHEL,,Brahma,SIDI SLIMANE,,MA,+212 620-655603,https://location.westernunion.com/ma/sidi-slimane/brahma/f2d077586e2229d4a38195b4f7c5ac12,Mo-Su 00:01-24:00,Western Union,Q861042
8f5acc8b6a35514a6620e5e0fdcae07b,western_union,CASH PLUS BD HASSAN 2,,Sidi Slimane,SIDI SLIMANE,,MA,+212 644-541680,https://location.westernunion.com/ma/sidi-slimane/sidi-slimane/8f5acc8b6a35514a6620e5e0fdcae07b,Mo-Su 08:00-24:00,Western Union,Q861042
aae809a70822201c4615c0d81a043dab,western_union,SIDI SLIMANE AGDAL,,Sidi Slimane,SIDI SLIMANE,,MA,+212 660-304027,https://location.westernunion.com/ma/sidi-slimane/sidi-slimane/aae809a70822201c4615c0d81a043dab,Mo-Su 00:01-24:00,Western Union,Q861042
981b64499566a69e4d8338b83e29522e,western_union,ELGHOBARI BENAISSA,,Sidi Slimane,SIDI SLIMANE,,MA,+212 676-499698,https://location.westernunion.com/ma/sidi-slimane/sidi-slimane/981b64499566a69e4d8338b83e29522e,Mo-Tu 08:00-24:00; We 08:00-23:00; Th-Su 08:00-24:00,Western Union,Q861042
bfffe6e8a4b8a8c0ad0ed9afdac43b6d,western_union,LC SIDI SLIMANE SIDI ABDELAZIZ,,Sidi Slimane,SIDI SLIMANE,,MA,+212 644-771084,https://location.westernunion.com/ma/sidi-slimane/sidi-slimane/bfffe6e8a4b8a8c0ad0ed9afdac43b6d,Mo-Su 00:08-24:00,Western Union,Q861042
28f5f3c85a6c2fb9519fafb12246febf,western_union,BOUGHADACH ABDELILAH,,Sidi Slimane,SIDI SLIMANE,,MA,+212 662-141064,https://location.westernunion.com/ma/sidi-slimane/sidi-slimane/28f5f3c85a6c2fb9519fafb12246febf,Mo-Tu 08:00-24:00; We 08:00-23:00; Th-Su 08:00-24:00,Western Union,Q861042
686f247b2aaeec8522b5ac0aa1d6379f,western_union,STE HAFSA CASH,,Sidi Slimane,SIDI SLIMANE,,MA,+212 661-892643,https://location.westernunion.com/ma/sidi-slimane/sidi-slimane/686f247b2aaeec8522b5ac0aa1d6379f,Mo-Tu 08:00-24:00; We 08:00-23:00; Th-Su 08:00-24:00,Western Union,Q861042
196b43dc50662397ee33406b28a9fda4,western_union,DC SIDI SLIMANE OULED EL GHAZI,,Sidi Slimane,SIDI SLIMANE,,MA,+212 5375-01633,https://location.westernunion.com/ma/sidi-slimane/sidi-slimane/196b43dc50662397ee33406b28a9fda4,Mo-Su 08:00-24:00,Western Union,Q861042
1eb4af46bad44dd02cc55350f1817837,western_union,SIDI SLIMANE HY LAGHMARYENE,,Sidi Slimane,SIDI SLIMANE,,MA,+212 617-391783,https://location.westernunion.com/ma/sidi-slimane/sidi-slimane/1eb4af46bad44dd02cc55350f1817837,Mo-Su 00:01-24:00,Western Union,Q861042
a103432752101d77fa93a86758ae2ba7,western_union,SD SLIMANE DOUAR JDID,,Sidi Slimane,SIDI SLIMANE,,MA,+212 601-788241,https://location.westernunion.com/ma/sidi-slimane/sidi-slimane/a103432752101d77fa93a86758ae2ba7,Mo-Su 08:00-24:00,Western Union,Q861042
31d4726acf7e934b4c9c2cee143b16f5,western_union,SIDI SLIMANE IBN KHALDOUNE,,Sidi Slimane,SIDI SLIMANE,,MA,+212 5375-05523,https://location.westernunion.com/ma/sidi-slimane/sidi-slimane/31d4726acf7e934b4c9c2cee143b16f5,Mo-Sa 08:00-20:00,Western Union,Q861042
91e7206ff91ec20de2b8f10d1034bf0b,western_union,SD SLIMANE HASSAN II,,Sidi Slimane,SIDI SLIMANE,,MA,+212 661-291769,https://location.westernunion.com/ma/sidi-slimane/sidi-slimane/91e7206ff91ec20de2b8f10d1034bf0b,Mo-Su 08:00-24:00,Western Union,Q861042
2f4c8f38df1a034b055d33a5ac4abdd8,western_union,SIDI SLIMANE ESSALAM 2,,Sidi Slimane,SIDI SLIMANE,,MA,+212 682-460717,https://location.westernunion.com/ma/sidi-slimane/sidi-slimane/2f4c8f38df1a034b055d33a5ac4abdd8,Mo-Su 00:01-24:00,Western Union,Q861042
10213aabf07e058b907b746ea3236705,western_union,SIDI SLIMAN II,,Sidi Slimane,SIDI SLIMANE,,MA,+212 5375-04300,https://location.westernunion.com/ma/sidi-slimane/sidi-slimane/10213aabf07e058b907b746ea3236705,Mo-Su 00:01-24:00,Western Union,Q861042
970ba86ffabe15fe75a8bb7e576927a2,western_union,SFAFAA DR LEMRADESSA,,Sidi Slimane,SIDI SLIMANE,,MA,+212 661-280334,https://location.westernunion.com/ma/sidi-slimane/sidi-slimane/970ba86ffabe15fe75a8bb7e576927a2,Mo-Su 00:01-24:00,Western Union,Q861042
7393472c84725370a4fe94ee3f0d2ec8,western_union,OULED  HANNOUN,,Sidi Slimane,SIDI SLIMANE,,MA,+212 601-788241,https://location.westernunion.com/ma/sidi-slimane/sidi-slimane/7393472c84725370a4fe94ee3f0d2ec8,Mo-Su 08:00-24:00,Western Union,Q861042
d90c39d08c4c9279ce3c6f52c04515f4,western_union,DAR GUEDDARI AMER CHAMALIA,,Sidi Yahya El Gharb,SIDI SLIMANE,,MA,+212 667-345224,https://location.westernunion.com/ma/sidi-slimane/sidi-yahya-el-gharb/d90c39d08c4c9279ce3c6f52c04515f4,Mo-Su 00:01-24:00,Western Union,Q861042
2d665699f9078b327980dcb3122fc30f,western_union,CASH PLUS BD MOHAMED V,,Sidi Yahya Elgharb,SIDI SLIMANE,,MA,+212 613-061450,https://location.westernunion.com/ma/sidi-slimane/sidi-yahya-elgharb/2d665699f9078b327980dcb3122fc30f,Mo-Su 08:00-24:00,Western Union,Q861042
0d5d20793db8662866c56e2220e8e82e,western_union,BOUZID ZOUGGARI,,Sidi Slimane,SIDI SLIMANE,,MA,+212 640-580007,https://location.westernunion.com/ma/sidi-slimane/sidi-slimane/0d5d20793db8662866c56e2220e8e82e,Mo-Tu 08:00-24:00; We 08:00-23:00; Th-Su 08:00-24:00,Western Union,Q861042
