Ref,Spider,Name,Address,City,State,Zipcode,Country,Phone,Website,Hours,Brand,WikiData
,visa,,,HEROICA PUEBLA DE ZA,PUEBLA,,MX,,,,,
,visa,,,HEROICA PUEBLA DE ZARAGOZA,PUEBLA,,MX,,,,,
,visa,,,PUEBLA,PUEBLA,,MX,,,,,
,visa,,,HEROICA PUEBLA DE ZARAGOZA,PUEBLA,,MX,,,,,
,visa,,,HEROICA PUEBLA DE ZARAGOZA,PUEBLA,,MX,,,,,
,visa,,,PUEBLA,PUEBLA,,MX,,,,,
,visa,,,PUEBLA,PUEBLA,,MX,,,,,
,visa,,,HEROICA PUEBLA DE ZARAGOZA,PUEBLA,,MX,,,,,
1a1027a060c0d877fcc6076bc3ce54bf,western_union,OXXO SAN MANUEL PBF,,Puebla,PUEBLA,,MX,+52 81 8389 2121,https://location.westernunion.com/mx/puebla/puebla/1a1027a060c0d877fcc6076bc3ce54bf,Mo-Su 08:00-22:00,Western Union,Q861042
8f7b4e031f2bd96d978441eada374071,western_union,FARM GUAD BLVD D 14 SUR,,Puebla,PUEBLA,,MX,+52 800 833 4700,https://location.westernunion.com/mx/puebla/puebla/8f7b4e031f2bd96d978441eada374071,Mo-Su 08:00-20:00,Western Union,Q861042
53b2475d818c4eebb7cb2b0e91df72c7,western_union,FARM GUAD BLVD D 14 SUR,,Puebla,PUEBLA,,MX,+52 800 833 4700,https://location.westernunion.com/mx/puebla/puebla/53b2475d818c4eebb7cb2b0e91df72c7,Mo-Su 08:00-20:00,Western Union,Q861042
666e663aeb756964808be7bec1506d48,western_union,FARM GUAD BLVD D 14 SUR,,Puebla,PUEBLA,,MX,+52 800 833 4700,https://location.westernunion.com/mx/puebla/puebla/666e663aeb756964808be7bec1506d48,Mo-Su 08:00-20:00,Western Union,Q861042
44548b309d8f0b9130e616568f398a0f,western_union,OXXO SAN CLAUDIO PBF,,Puebla,PUEBLA,,MX,+52 81 8389 2121,https://location.westernunion.com/mx/puebla/puebla/44548b309d8f0b9130e616568f398a0f,Mo-Su 08:00-22:00,Western Union,Q861042
f83ca2ac8eb169a02d5a3adf58796eb1,western_union,OXXO SAN CLAUDIO PBF,,Puebla,PUEBLA,,MX,+52 81 8389 2121,https://location.westernunion.com/mx/puebla/puebla/f83ca2ac8eb169a02d5a3adf58796eb1,Mo-Su 08:00-22:00,Western Union,Q861042
3dc116a1ffc57600a56bc1c75dc8f4b0,western_union,OXXO SAN CLAUDIO PBF,,Puebla,PUEBLA,,MX,+52 81 8389 2121,https://location.westernunion.com/mx/puebla/puebla/3dc116a1ffc57600a56bc1c75dc8f4b0,Mo-Su 08:00-22:00,Western Union,Q861042
a7609fbb35da99a48863662d325d59d5,western_union,OXXO SAN MANUEL PBF,,Puebla,PUEBLA,,MX,+52 81 8389 2121,https://location.westernunion.com/mx/puebla/puebla/a7609fbb35da99a48863662d325d59d5,Mo-Su 08:00-22:00,Western Union,Q861042
6fd403ddb918677843972931155900ad,western_union,OXXO SAN MANUEL PBF,,Puebla,PUEBLA,,MX,+52 81 8389 2121,https://location.westernunion.com/mx/puebla/puebla/6fd403ddb918677843972931155900ad,Mo-Su 08:00-22:00,Western Union,Q861042
fbed48af1d408a125f5e5296f49411e2,western_union,OXXO SAN BALTAZAR PBF,,Puebla,PUEBLA,,MX,+52 81 8389 2121,https://location.westernunion.com/mx/puebla/puebla/fbed48af1d408a125f5e5296f49411e2,Mo-Su 08:00-22:00,Western Union,Q861042
06a0e1f5a43e7029430afa74aafbdc5e,western_union,OXXO RIO SABINAS PBF,,Puebla,PUEBLA,,MX,+52 81 8389 2121,https://location.westernunion.com/mx/puebla/puebla/06a0e1f5a43e7029430afa74aafbdc5e,Mo-Su 08:00-22:00,Western Union,Q861042
60cd0740114bc41fbcc6104eb2b474e5,western_union,AURRERA PLAZA DORADA,,Puebla,PUEBLA,,MX,+52 800 833 4700,https://location.westernunion.com/mx/puebla/puebla/60cd0740114bc41fbcc6104eb2b474e5,Mo-Su 07:00-23:00,Western Union,Q861042
d8c0c3bea38a3687ba0c76390c3b735b,western_union,AURRERA PLAZA DORADA,,Puebla,PUEBLA,,MX,+52 800 833 4700,https://location.westernunion.com/mx/puebla/puebla/d8c0c3bea38a3687ba0c76390c3b735b,Mo-Su 07:00-23:00,Western Union,Q861042
a1e71fab4c56099ffd85fe49c99f6a9d,western_union,AURRERA PLAZA DORADA,,Puebla,PUEBLA,,MX,+52 800 833 4700,https://location.westernunion.com/mx/puebla/puebla/a1e71fab4c56099ffd85fe49c99f6a9d,Mo-Su 07:00-23:00,Western Union,Q861042
5d9ad2edbb489e5f1583526af513cd2a,western_union,WALMART SAN MANUEL 3853,,Puebla,PUEBLA,,MX,+52 800 833 4700,https://location.westernunion.com/mx/puebla/puebla/5d9ad2edbb489e5f1583526af513cd2a,Mo-Su 07:00-23:00,Western Union,Q861042
74a53e41d3f5b579101518f302a789e3,western_union,WALMART SAN MANUEL 3853,,Puebla,PUEBLA,,MX,+52 800 833 4700,https://location.westernunion.com/mx/puebla/puebla/74a53e41d3f5b579101518f302a789e3,Mo-Su 07:00-23:00,Western Union,Q861042
0441f0d0cde061b8573e1f152f9e0c18,western_union,WALMART SAN MANUEL 3853,,Puebla,PUEBLA,,MX,+52 800 833 4700,https://location.westernunion.com/mx/puebla/puebla/0441f0d0cde061b8573e1f152f9e0c18,Mo-Su 07:00-23:00,Western Union,Q861042
cf9435f1133732944d925db8084d0674,western_union,OXXO RIO SABINAS PBF,,Puebla,PUEBLA,,MX,+52 81 8389 2121,https://location.westernunion.com/mx/puebla/puebla/cf9435f1133732944d925db8084d0674,Mo-Su 08:00-22:00,Western Union,Q861042
33bb4a33881117d35641d01cd5b84393,western_union,FARM GUAD BLVD CIRCUNVALACION,,Puebla,PUEBLA,,MX,+52 800 833 4700,https://location.westernunion.com/mx/puebla/puebla/33bb4a33881117d35641d01cd5b84393,Mo-Su 09:00-22:00,Western Union,Q861042
ec51ed96eb684c8be7b4e456845978e7,western_union,FARM GUAD BLVD CIRCUNVALACION,,Puebla,PUEBLA,,MX,+52 800 833 4700,https://location.westernunion.com/mx/puebla/puebla/ec51ed96eb684c8be7b4e456845978e7,Mo-Su 09:00-22:00,Western Union,Q861042
0ff96dc20ac131c322b106b3d705c10f,western_union,FARM GUAD BLVD CIRCUNVALACION,,Puebla,PUEBLA,,MX,+52 800 833 4700,https://location.westernunion.com/mx/puebla/puebla/0ff96dc20ac131c322b106b3d705c10f,Mo-Su 09:00-22:00,Western Union,Q861042
68236a115fd6d0aec189806658fbef65,western_union,OXXO PAPAGAYO PBF,,Puebla,PUEBLA,,MX,+52 81 8389 2121,https://location.westernunion.com/mx/puebla/puebla/68236a115fd6d0aec189806658fbef65,Mo-Su 08:00-22:00,Western Union,Q861042
e79afe2b55708dbbebcd31a07e05fcc8,western_union,OXXO PAPAGAYO PBF,,Puebla,PUEBLA,,MX,+52 81 8389 2121,https://location.westernunion.com/mx/puebla/puebla/e79afe2b55708dbbebcd31a07e05fcc8,Mo-Su 08:00-22:00,Western Union,Q861042
e057402b0ce03df1ac49aab88e90495f,western_union,OXXO PAPAGAYO PBF,,Puebla,PUEBLA,,MX,+52 81 8389 2121,https://location.westernunion.com/mx/puebla/puebla/e057402b0ce03df1ac49aab88e90495f,Mo-Su 08:00-22:00,Western Union,Q861042
9292b37539db40fd1fcf7ebd2cf5ee90,western_union,OXXO SAN BALTAZAR PBF,,Puebla,PUEBLA,,MX,+52 81 8389 2121,https://location.westernunion.com/mx/puebla/puebla/9292b37539db40fd1fcf7ebd2cf5ee90,Mo-Su 08:00-22:00,Western Union,Q861042
d80b88091a6486a9ba591e3129b1edac,western_union,OXXO SAN BALTAZAR PBF,,Puebla,PUEBLA,,MX,+52 81 8389 2121,https://location.westernunion.com/mx/puebla/puebla/d80b88091a6486a9ba591e3129b1edac,Mo-Su 08:00-22:00,Western Union,Q861042
d8d9356c91782cee3b7b74396d283166,western_union,OXXO RIO SABINAS PBF,,Puebla,PUEBLA,,MX,+52 81 8389 2121,https://location.westernunion.com/mx/puebla/puebla/d8d9356c91782cee3b7b74396d283166,Mo-Su 08:00-22:00,Western Union,Q861042
