Ref,Spider,Name,Address,City,State,Zipcode,Country,Phone,Website,Hours,Brand,WikiData
,visa,,,CD. MÉXICO,DISTRITO FEDERAL,,MX,,,,,
,visa,,,CD. MÉXICO,DISTRITO FEDERAL,,MX,,,,,
,visa,,,CD. MÉXICO,DISTRITO FEDERAL,,MX,,,,,
,visa,,,CD. MÉXICO,DISTRITO FEDERAL,,MX,,,,,
,visa,,,CD. MÉXICO,DISTRITO FEDERAL,,MX,,,,,
,visa,,,CD. MÉXICO,DISTRITO FEDERAL,,MX,,,,,
ada3c3ca487a6ca5a4396f00b932c4d2,western_union,OXXO AMBERES MEX,,Mexico,DISTRITO FEDERAL,,MX,+52 81 8389 2121,https://location.westernunion.com/mx/distrito-federal/mexico/ada3c3ca487a6ca5a4396f00b932c4d2,Mo-Su 08:00-22:00,Western Union,Q861042
c1ad91f9b06de4c228e43814d77cc0cb,western_union,OXXO PASEOS MEX,,Mexico,DISTRITO FEDERAL,,MX,+52 81 8389 2121,https://location.westernunion.com/mx/distrito-federal/mexico/c1ad91f9b06de4c228e43814d77cc0cb,Mo-Su 08:00-22:00,Western Union,Q861042
292576db667b18dd2914df82028fb6d9,western_union,OXXO PASEOS MEX,,Mexico,DISTRITO FEDERAL,,MX,+52 81 8389 2121,https://location.westernunion.com/mx/distrito-federal/mexico/292576db667b18dd2914df82028fb6d9,Mo-Su 08:00-22:00,Western Union,Q861042
474c099e737c72816f0c209530e168ed,western_union,OXXO ABRAHAM GONZALEZ MEX,,Mexico,DISTRITO FEDERAL,,MX,+52 81 8389 2121,https://location.westernunion.com/mx/distrito-federal/mexico/474c099e737c72816f0c209530e168ed,Mo-Su 08:00-22:00,Western Union,Q861042
d005f402d652444ead5597b77495465f,western_union,OXXO ABRAHAM GONZALEZ MEX,,Mexico,DISTRITO FEDERAL,,MX,+52 81 8389 2121,https://location.westernunion.com/mx/distrito-federal/mexico/d005f402d652444ead5597b77495465f,Mo-Su 08:00-22:00,Western Union,Q861042
b9e8c71090f8a616ee49c55b8078dab7,western_union,OXXO REFORMA MEX,,Mexico,DISTRITO FEDERAL,,MX,+52 81 8389 2121,https://location.westernunion.com/mx/distrito-federal/mexico/b9e8c71090f8a616ee49c55b8078dab7,Mo-Su 08:00-22:00,Western Union,Q861042
08d9cab8eeeeccf22b0026a7161dfeb7,western_union,OXXO REFORMA MEX,,Mexico,DISTRITO FEDERAL,,MX,+52 81 8389 2121,https://location.westernunion.com/mx/distrito-federal/mexico/08d9cab8eeeeccf22b0026a7161dfeb7,Mo-Su 08:00-22:00,Western Union,Q861042
8c5a793edd66a28cd41f5f8be8f43213,western_union,OXXO ATENAS I MEX,,Mexico,DISTRITO FEDERAL,,MX,+52 81 8389 2121,https://location.westernunion.com/mx/distrito-federal/mexico/8c5a793edd66a28cd41f5f8be8f43213,Mo-Su 08:00-22:00,Western Union,Q861042
9790a67d2a33bd7495863db52c838a36,western_union,OXXO GENERAL VERSALLES MEX,,Mexico,DISTRITO FEDERAL,,MX,+52 81 8389 2121,https://location.westernunion.com/mx/distrito-federal/mexico/9790a67d2a33bd7495863db52c838a36,Mo-Su 08:00-22:00,Western Union,Q861042
4347572caaa5a07b7aeb4594aa1c1639,western_union,OXXO GENERAL VERSALLES MEX,,Mexico,DISTRITO FEDERAL,,MX,+52 81 8389 2121,https://location.westernunion.com/mx/distrito-federal/mexico/4347572caaa5a07b7aeb4594aa1c1639,Mo-Su 08:00-22:00,Western Union,Q861042
a61f94204184147beae39faaefc06095,western_union,OXXO GENERAL VERSALLES MEX,,Mexico,DISTRITO FEDERAL,,MX,+52 81 8389 2121,https://location.westernunion.com/mx/distrito-federal/mexico/a61f94204184147beae39faaefc06095,Mo-Su 08:00-22:00,Western Union,Q861042
801f7f402ea4f9985190febfc7c5a32a,western_union,OXXO LISBOA MEX,,Mexico,DISTRITO FEDERAL,,MX,+52 81 8389 2121,https://location.westernunion.com/mx/distrito-federal/mexico/801f7f402ea4f9985190febfc7c5a32a,Mo-Su 08:00-22:00,Western Union,Q861042
908a4eb84e33d08a8424e9910074eee5,western_union,OXXO ATENAS I MEX,,Mexico,DISTRITO FEDERAL,,MX,+52 81 8389 2121,https://location.westernunion.com/mx/distrito-federal/mexico/908a4eb84e33d08a8424e9910074eee5,Mo-Su 08:00-22:00,Western Union,Q861042
a09ffd6727f301b285cb610924f1193d,western_union,BANORTE 02368 PASEO DE LA REFORMA,,Mexico,DISTRITO FEDERAL,,MX,+52 800 833 4700,https://location.westernunion.com/mx/distrito-federal/mexico/a09ffd6727f301b285cb610924f1193d,Mo-Fr 09:00-17:00,Western Union,Q861042
29a85808dcde2eb68a00cca7d3504de4,western_union,BANORTE 02368 PASEO DE LA REFORMA,,Mexico,DISTRITO FEDERAL,,MX,+52 800 833 4700,https://location.westernunion.com/mx/distrito-federal/mexico/29a85808dcde2eb68a00cca7d3504de4,Mo-Fr 09:00-17:00,Western Union,Q861042
fc2c51c974e59cb584590c8d4f98b99b,western_union,OXXO MILAN MEX,,Mexico,DISTRITO FEDERAL,,MX,+52 81 8389 2121,https://location.westernunion.com/mx/distrito-federal/mexico/fc2c51c974e59cb584590c8d4f98b99b,Mo-Su 08:00-22:00,Western Union,Q861042
a5a86ae3cc1bc478cbe4769b9ff05bd1,western_union,OXXO MILAN MEX,,Mexico,DISTRITO FEDERAL,,MX,+52 81 8389 2121,https://location.westernunion.com/mx/distrito-federal/mexico/a5a86ae3cc1bc478cbe4769b9ff05bd1,Mo-Su 08:00-22:00,Western Union,Q861042
d6b2825b718997b33a3b2cc37c60c5ce,western_union,OXXO MILAN MEX,,Mexico,DISTRITO FEDERAL,,MX,+52 81 8389 2121,https://location.westernunion.com/mx/distrito-federal/mexico/d6b2825b718997b33a3b2cc37c60c5ce,Mo-Su 08:00-22:00,Western Union,Q861042
e9482b35d3ce117c28deda9005ee9084,western_union,OXXO VIENA MEX,,Mexico,DISTRITO FEDERAL,,MX,+52 81 8389 2121,https://location.westernunion.com/mx/distrito-federal/mexico/e9482b35d3ce117c28deda9005ee9084,Mo-Su 08:00-22:00,Western Union,Q861042
909937e5fc6bd9a752d07927359b60cc,western_union,OXXO VIENA MEX,,Mexico,DISTRITO FEDERAL,,MX,+52 81 8389 2121,https://location.westernunion.com/mx/distrito-federal/mexico/909937e5fc6bd9a752d07927359b60cc,Mo-Su 08:00-22:00,Western Union,Q861042
1bbde0669e1854340b7fe2179ed49c3f,western_union,OXXO VIENA MEX,,Mexico,DISTRITO FEDERAL,,MX,+52 81 8389 2121,https://location.westernunion.com/mx/distrito-federal/mexico/1bbde0669e1854340b7fe2179ed49c3f,Mo-Su 08:00-22:00,Western Union,Q861042
9d84e2ba2cc09e303e4eceb9d42c20c9,western_union,OXXO Barcelona MEX,,Mexico,DISTRITO FEDERAL,,MX,+52 81 8389 2121,https://location.westernunion.com/mx/distrito-federal/mexico/9d84e2ba2cc09e303e4eceb9d42c20c9,Mo-Su 08:00-22:00,Western Union,Q861042
d8bcbf8049d20f7bfc854b14b39120a0,western_union,OXXO BARCELONA MEX,,Mexico,DISTRITO FEDERAL,,MX,+52 81 8389 2121,https://location.westernunion.com/mx/distrito-federal/mexico/d8bcbf8049d20f7bfc854b14b39120a0,Mo-Su 08:00-22:00,Western Union,Q861042
e733234edca8a17cb73520f9ef9fd6c6,western_union,OXXO BARCELONA MEX,,Mexico,DISTRITO FEDERAL,,MX,+52 81 8389 2121,https://location.westernunion.com/mx/distrito-federal/mexico/e733234edca8a17cb73520f9ef9fd6c6,Mo-Su 08:00-22:00,Western Union,Q861042
0d437f31e94d2f0c0ca02d3dbed46525,western_union,OXXO DINAMARCA MEX,,Mexico,DISTRITO FEDERAL,,MX,+52 81 8389 2121,https://location.westernunion.com/mx/distrito-federal/mexico/0d437f31e94d2f0c0ca02d3dbed46525,Mo-Su 08:00-22:00,Western Union,Q861042
b030fc5670375757fd4854ff78ba5c32,western_union,OXXO DINAMARCA MEX,,Mexico,DISTRITO FEDERAL,,MX,+52 81 8389 2121,https://location.westernunion.com/mx/distrito-federal/mexico/b030fc5670375757fd4854ff78ba5c32,Mo-Su 08:00-22:00,Western Union,Q861042
fc00935d06f34e8037dfcb72b0defd04,western_union,OXXO VERSALLES MEX,,Mexico,DISTRITO FEDERAL,,MX,+52 81 8389 2121,https://location.westernunion.com/mx/distrito-federal/mexico/fc00935d06f34e8037dfcb72b0defd04,Mo-Su 08:00-22:00,Western Union,Q861042
fbb5e2ea67cc763434d725f11149029e,western_union,OXXO VERSALLES MEX,,Mexico,DISTRITO FEDERAL,,MX,+52 81 8389 2121,https://location.westernunion.com/mx/distrito-federal/mexico/fbb5e2ea67cc763434d725f11149029e,Mo-Su 08:00-22:00,Western Union,Q861042
6a400e4ccb78c86451d873ea76c84591,western_union,OXXO VERSALLES MEX,,Mexico,DISTRITO FEDERAL,,MX,+52 81 8389 2121,https://location.westernunion.com/mx/distrito-federal/mexico/6a400e4ccb78c86451d873ea76c84591,Mo-Su 08:00-22:00,Western Union,Q861042
64ac8aee8414a5ddab7e7371b1e9c982,western_union,OXXO DINAMARCA MEX,,Mexico,DISTRITO FEDERAL,,MX,+52 81 8389 2121,https://location.westernunion.com/mx/distrito-federal/mexico/64ac8aee8414a5ddab7e7371b1e9c982,Mo-Su 08:00-22:00,Western Union,Q861042
31d2a4d05233452c50ec35f4288ed772,western_union,OXXO NAPOLES MEX,,Mexico,DISTRITO FEDERAL,,MX,(+52) 83892121,https://location.westernunion.com/mx/distrito-federal/mexico/31d2a4d05233452c50ec35f4288ed772,Mo-Su 06:00-22:00,Western Union,Q861042
29268f46f95de9a5ff306e3987b62125,western_union,OXXO NAPOLES MEX,,Mexico,DISTRITO FEDERAL,,MX,+52 81 8389 2121,https://location.westernunion.com/mx/distrito-federal/mexico/29268f46f95de9a5ff306e3987b62125,Mo-Su 06:00-22:00,Western Union,Q861042
7b7c766d5d9054f95c2d8c49ea31bf72,western_union,OXXO LIVERPOOL MEX,,Mexico,DISTRITO FEDERAL,,MX,+52 81 8389 2121,https://location.westernunion.com/mx/distrito-federal/mexico/7b7c766d5d9054f95c2d8c49ea31bf72,Mo-Su 08:00-22:00,Western Union,Q861042
3ab16afe906151453f4e8940e2eb2618,western_union,OXXO MARSELLA MEX,,Mexico,DISTRITO FEDERAL,,MX,+52 81 8389 2121,https://location.westernunion.com/mx/distrito-federal/mexico/3ab16afe906151453f4e8940e2eb2618,Mo-Su 08:00-22:00,Western Union,Q861042
b64ca6e708bdb384ac3c59263e59d535,western_union,OXXO MARSELLA MEX,,Mexico,DISTRITO FEDERAL,,MX,+52 81 8389 2121,https://location.westernunion.com/mx/distrito-federal/mexico/b64ca6e708bdb384ac3c59263e59d535,Mo-Su 08:00-22:00,Western Union,Q861042
17f2b29d161b4dccb50c4dbed217f212,western_union,OXXO Copenhague MEX,,Mexico,DISTRITO FEDERAL,,MX,+52 81 8389 2121,https://location.westernunion.com/mx/distrito-federal/mexico/17f2b29d161b4dccb50c4dbed217f212,Mo-Su 08:00-22:00,Western Union,Q861042
881f7bf2501b0b560248fa1ad73b4ac0,western_union,OXXO COPENHAGUE MEX,,Mexico,DISTRITO FEDERAL,,MX,+52 81 8389 2121,https://location.westernunion.com/mx/distrito-federal/mexico/881f7bf2501b0b560248fa1ad73b4ac0,Mo-Su 08:00-22:00,Western Union,Q861042
d6aa15018c2dfb761c001b5c41ba7c32,western_union,OXXO COPENHAGUE MEX,,Mexico,DISTRITO FEDERAL,,MX,+52 81 8389 2121,https://location.westernunion.com/mx/distrito-federal/mexico/d6aa15018c2dfb761c001b5c41ba7c32,Mo-Su 08:00-22:00,Western Union,Q861042
be4083fbd3f0fdd95ec3940ddaaad2df,western_union,OXXO NIZA MEX,,Mexico,DISTRITO FEDERAL,,MX,+52 81 8389 2121,https://location.westernunion.com/mx/distrito-federal/mexico/be4083fbd3f0fdd95ec3940ddaaad2df,Mo-Su 08:00-22:00,Western Union,Q861042
d7720efc981e23b669d7174be88a2152,western_union,OXXO NIZA MEX,,Mexico,DISTRITO FEDERAL,,MX,+52 81 8389 2121,https://location.westernunion.com/mx/distrito-federal/mexico/d7720efc981e23b669d7174be88a2152,Mo-Su 08:00-22:00,Western Union,Q861042
6a65d82afcaadde69563f9c2f92753e0,western_union,OXXO NIZA MEX,,Mexico,DISTRITO FEDERAL,,MX,+52 81 8389 2121,https://location.westernunion.com/mx/distrito-federal/mexico/6a65d82afcaadde69563f9c2f92753e0,Mo-Su 08:00-22:00,Western Union,Q861042
62bff52139e409e71bc346aba2b07baa,western_union,OXXO AMBERES MEX,,Mexico,DISTRITO FEDERAL,,MX,+52 81 8389 2121,https://location.westernunion.com/mx/distrito-federal/mexico/62bff52139e409e71bc346aba2b07baa,Mo-Su 08:00-22:00,Western Union,Q861042
01f4e1db979a8c5c020e7274d524cc12,western_union,BANORTE 00693 NIZA,,Mexico,DISTRITO FEDERAL,,MX,+52 800 833 4700,https://location.westernunion.com/mx/distrito-federal/mexico/01f4e1db979a8c5c020e7274d524cc12,Mo-Fr 09:00-17:00,Western Union,Q861042
009a037850a06b11ea9027fc4bbab865,western_union,BANORTE 00693 NIZA,,Mexico,DISTRITO FEDERAL,,MX,+52 800 833 4700,https://location.westernunion.com/mx/distrito-federal/mexico/009a037850a06b11ea9027fc4bbab865,Mo-Fr 09:00-17:00,Western Union,Q861042
e0abc85cac1114e3c759e22f1288eb50,western_union,BANORTE 03778 REFORMA 333,,Mexico,DISTRITO FEDERAL,,MX,+52 800 833 4700,https://location.westernunion.com/mx/distrito-federal/mexico/e0abc85cac1114e3c759e22f1288eb50,Mo-Su 08:30-16:00,Western Union,Q861042
c554ec43ef166d81da299947fa6d9d8d,western_union,BANORTE 01928 ANGEL DE LA INDEPENDENCIA,,Mexico,DISTRITO FEDERAL,,MX,+52 800 833 4700,https://location.westernunion.com/mx/distrito-federal/mexico/c554ec43ef166d81da299947fa6d9d8d,Mo-Fr 09:00-17:00,Western Union,Q861042
cc5d99c04ed3ff28caf992bdc25640d1,western_union,OXXO ESTOCOLMO MEX,,Mexico,DISTRITO FEDERAL,,MX,+52 81 8389 2121,https://location.westernunion.com/mx/distrito-federal/mexico/cc5d99c04ed3ff28caf992bdc25640d1,Mo-Su 08:00-22:00,Western Union,Q861042
972215106a31dc3a8fca44032c30eeaa,western_union,OXXO ESTOCOLMO MEX,,Mexico,DISTRITO FEDERAL,,MX,+52 81 8389 2121,https://location.westernunion.com/mx/distrito-federal/mexico/972215106a31dc3a8fca44032c30eeaa,Mo-Su 08:00-22:00,Western Union,Q861042
b8466c295b0c93ebb57b67db5e4f9267,western_union,BANORTE 01928 ANGEL DE LA INDEPENDENCIA,,Mexico,DISTRITO FEDERAL,,MX,+52 800 833 4700,https://location.westernunion.com/mx/distrito-federal/mexico/b8466c295b0c93ebb57b67db5e4f9267,Mo-Fr 09:00-17:00,Western Union,Q861042
20fcc3468e8ccd8e506b3eeea5eddc25,western_union,OXXO HAMBURGO MEX,,Mexico,DISTRITO FEDERAL,,MX,+52 81 8389 2121,https://location.westernunion.com/mx/distrito-federal/mexico/20fcc3468e8ccd8e506b3eeea5eddc25,Mo-Su 08:00-22:00,Western Union,Q861042
56f9f1c654f002a4ec669527835e4ed9,western_union,OXXO LONDRES MEX,,Mexico,DISTRITO FEDERAL,,MX,+52 81 8389 2121,https://location.westernunion.com/mx/distrito-federal/mexico/56f9f1c654f002a4ec669527835e4ed9,Mo-Su 08:00-22:00,Western Union,Q861042
7c3c21d8eaf6963f69c3b6575caa3aea,western_union,OXXO LONDRES MEX,,Mexico,DISTRITO FEDERAL,,MX,+52 81 8389 2121,https://location.westernunion.com/mx/distrito-federal/mexico/7c3c21d8eaf6963f69c3b6575caa3aea,Mo-Su 08:00-22:00,Western Union,Q861042
270632b6c534fbec23788836b9f19ca4,western_union,OXXO AMBERES MEX,,Mexico,DISTRITO FEDERAL,,MX,+52 81 8389 2121,https://location.westernunion.com/mx/distrito-federal/mexico/270632b6c534fbec23788836b9f19ca4,Mo-Su 08:00-22:00,Western Union,Q861042
93c97d5f3336f34e64a02e8eb3371398,western_union,OXXO FLORENCIA MEX,,Mexico,DISTRITO FEDERAL,,MX,+52 81 8389 2121,https://location.westernunion.com/mx/distrito-federal/mexico/93c97d5f3336f34e64a02e8eb3371398,Mo-Su 08:00-22:00,Western Union,Q861042
1da8a1c42d21bc52c20df6588e156dca,western_union,OXXO FLORENCIA MEX,,Mexico,DISTRITO FEDERAL,,MX,+52 81 8389 2121,https://location.westernunion.com/mx/distrito-federal/mexico/1da8a1c42d21bc52c20df6588e156dca,Mo-Su 08:00-22:00,Western Union,Q861042
9c26d4bdfa6f5a120e8f33910948bbbb,western_union,FUNDACION DONDE REFORMA MEXICO ID196,,Mexico,DISTRITO FEDERAL,,MX,+52 999 940 7550,https://location.westernunion.com/mx/distrito-federal/mexico/9c26d4bdfa6f5a120e8f33910948bbbb,Mo-Su 08:00-20:00,Western Union,Q861042
b0ba2c752933bfd64729a2b7f32ad654,western_union,FUNDACION DONDE REFORMA MEXICO ID196,,Mexico,DISTRITO FEDERAL,,MX,+52 999 940 7550,https://location.westernunion.com/mx/distrito-federal/mexico/b0ba2c752933bfd64729a2b7f32ad654,Mo-Su 08:00-20:00,Western Union,Q861042
b2995ba9e46d88f0f307a7a8c5f76f51,western_union,FUNDACION DONDE REFORMA MEXICO ID196,,Mexico,DISTRITO FEDERAL,,MX,+52 999 940 7550,https://location.westernunion.com/mx/distrito-federal/mexico/b2995ba9e46d88f0f307a7a8c5f76f51,Mo-Su 08:00-20:00,Western Union,Q861042
8bcc6cc550fea762e7b767b73fcec2ae,western_union,OXXO SAN ANGEL II MEX,,Mexico,DISTRITO FEDERAL,,MX,+52 81 8389 2121,https://location.westernunion.com/mx/distrito-federal/mexico/8bcc6cc550fea762e7b767b73fcec2ae,Mo-Su 08:00-22:00,Western Union,Q861042
99ee3d40d930754f8b0848cf9e095c07,western_union,OXXO SAN ANGEL II MEX,,Mexico,DISTRITO FEDERAL,,MX,+52 81 8389 2121,https://location.westernunion.com/mx/distrito-federal/mexico/99ee3d40d930754f8b0848cf9e095c07,Mo-Su 08:00-22:00,Western Union,Q861042
e0f182e0d97998b9a40a8509e0adf260,western_union,OXXO SAN ANGEL II MEX,,Mexico,DISTRITO FEDERAL,,MX,+52 81 8389 2121,https://location.westernunion.com/mx/distrito-federal/mexico/e0f182e0d97998b9a40a8509e0adf260,Mo-Su 08:00-22:00,Western Union,Q861042
b1389b163b25c5197cdf7aaa38ceeb2d,western_union,OXXO TOLEDO MEX,,Mexico,DISTRITO FEDERAL,,MX,+52 81 8389 2121,https://location.westernunion.com/mx/distrito-federal/mexico/b1389b163b25c5197cdf7aaa38ceeb2d,Mo-Su 08:00-22:00,Western Union,Q861042
5c329c77981c8ba0920abb9d55d08835,western_union,OXXO TOLEDO MEX,,Mexico,DISTRITO FEDERAL,,MX,+52 81 8389 2121,https://location.westernunion.com/mx/distrito-federal/mexico/5c329c77981c8ba0920abb9d55d08835,Mo-Su 08:00-22:00,Western Union,Q861042
b8abddf71f0554b55c392ac51c90577a,western_union,OXXO BBVA TERRAZA MEX,,Mexico,DISTRITO FEDERAL,,MX,+52 81 8389 2121,https://location.westernunion.com/mx/distrito-federal/mexico/b8abddf71f0554b55c392ac51c90577a,Mo-Su 06:00-22:00,Western Union,Q861042
52c499e6709a71e0af7444d4d491aaa4,western_union,OXXO BBVA TERRAZA MEX,,Mexico,DISTRITO FEDERAL,,MX,+52 81 8389 2121,https://location.westernunion.com/mx/distrito-federal/mexico/52c499e6709a71e0af7444d4d491aaa4,Mo-Su 06:00-22:00,Western Union,Q861042
5abbc3025f0b899d37bfcf3e544f057a,western_union,OXXO BBVA TERRAZA MEX,,Mexico,DISTRITO FEDERAL,,MX,+52 81 8389 2121,https://location.westernunion.com/mx/distrito-federal/mexico/5abbc3025f0b899d37bfcf3e544f057a,Mo-Su 06:00-22:00,Western Union,Q861042
