Ref,Spider,Name,Address,City,State,Zipcode,Country,Phone,Website,Hours,Brand,WikiData
8395,dollartree,DollarTree,,Allendale,SC,,US,+1 803-621-6252,,Mo-Sa 09:00-20:00; Su 10:00-20:00,Dollar Tree,Q5289230
25578,dollar_general,Dollar General,,Allendale,SC,,US,+1 803-969-0865,https://www.dollargeneral.com/store-directory/sc/allendale/25578,Mo-Su 08:00-22:00,Dollar General,Q145168
17219,dollar_general,Dollar General,,Allendale,SC,,US,+1 803-573-2437,https://www.dollargeneral.com/store-directory/sc/allendale/17219,Mo-Su 08:00-22:00,Dollar General,Q145168
Allendale IGA #71,iga,Allendale IGA #71,"5387 Allendale - Fairfax Hwy., Allendale, SC, 29810",Allendale,SC,,US,+1 803-492-7515,http://www.igaguy.com,,IGA,Q3146662
52,south_carolina,Allendale County Library,"McNair St, Allendale, SC ",,SC,,US,+1 803-584-2371,,,,Q1456
53,south_carolina,Allendale-Hampton-Jasper Regional Library,"McNair St, Allendale, SC ",,SC,,US,+1 803-584-3513,,,,Q1456
160,south_carolina,Allendale County Courthouse,"292 Barnwell Rd, Allendale, SC",,SC,,US,+1 803-584-2737,,,,Q1456
223,south_carolina,Allendale County Mental Health Clinic,"603 Barnwell Road, Allendale, SC",,SC,,US,+1 803-584-4636,,,,Q1456
284,south_carolina,Allendale Center,"398 Barnwell Hwy # 115, Allendale, SC",,SC,,US,+1 803-584-3263,,,,Q1456
309,south_carolina,Allendale County DHHS,"571 Memorial Ave N, Allendale, SC",,SC,,US,+1 803-584-3818,,,,Q1456
https://restaurants.subway.com/#14899384,subway,Subway,,Allendale Allendale,SC,,US,+1 803-584-0910,https://restaurants.subway.com/united-states/sc/allendale/337-main-street-north,Mo-Su 08:00-21:00,Subway,Q244457
8002241801,sunoco_us,Sunoco,,ALLENDALE,SC,,US,,,,Sunoco,Q1423218
1352729,usps,ALLENDALE,,ALLENDALE,SC,,US,+1 803-584-4413,,Mo-Tu 08:30-16:30; We 08:30-13:00; Th-Fr 08:30-16:30; Sa 09:30-11:30,United States Postal Service,Q668687
2981000001,usps_collection_boxes,USPS COLLECTION BOX - BLUE BOX,315 AUGUSTA HWY,ALLENDALE,SC,,US,,,,United States Postal Service,Q668687
2981000002,usps_collection_boxes,USPS COLLECTION BOX - BLUE BOX,315 AUGUSTA HWY,ALLENDALE,SC,,US,,,,United States Postal Service,Q668687
2981000007,usps_collection_boxes,USPS COLLECTION BOX - PO LOBBY,315 AUGUSTA HWY,ALLENDALE,SC,,US,,,,United States Postal Service,Q668687
2981000013,usps_collection_boxes,USPS COLLECTION BOX - PO LOBBY,315 AUGUSTA HWY,ALLENDALE,SC,,US,,,,United States Postal Service,Q668687
,visa,,,ALLENDALE,SC,,US,,,,,
,visa,,,ALLENDALE,SC,,US,,,,,
,visa,,,ALLENDALE,SC,,US,,,,,
,visa,,,ALLENDALE,SC,,US,,,,,
,visa,,,ALLENDALE,SC,,US,,,,,
,visa,,,ALLENDALE,SC,,US,,,,,
,visa,,,ALLENDALE,SC,,US,,,,,
,visa,,,ALLENDALE,SC,,US,,,,,
