Ref,Spider,Name,Address,City,State,Zipcode,Country,Phone,Website,Hours,Brand,WikiData
https://stores.advanceautoparts.com/va/richmond/7216-brook-rd,advance_auto_parts_us,Advance Auto Parts,,Richmond,VA,,US,+1 804-264-3433,https://stores.advanceautoparts.com/va/richmond/7216-brook-rd,Mo-Sa 07:30-21:00; Su 08:00-20:00,Advance Auto Parts,Q4686051
https://locations.arbys.com/va/richmond/5205-brook-rd.html,arbys_us,"Arby's Fast-Food Drive Through Near You in Richmond, VA",,Richmond,VA,,US,+1 804-266-6579,https://locations.arbys.com/va/richmond/5205-brook-rd.html,Mo-Su 10:00-22:00,Arby's,Q630866
972,autozone_us,AutoZone Auto Parts Richmond,,Richmond,VA,,US,+1 804-262-5944,https://www.autozone.com/locations/va/richmond/7207-brook-rd.html,Mo-Fr 08:00-21:00; Sa-Su 08:00-20:00,AutoZone,Q4826087
https://local.biglots.com/#13190450,biglots,Big Lots - Richmond: Chamberlayne,,Richmond,VA,,US,+1 804-261-6120,https://local.biglots.com/va/richmond/8151-brook-rd,Mo-Sa 09:00-21:00; Su 10:00-19:00,Big Lots,Q4905973
5552,bluerhino,Walmart #2295 - Supercenter,,Richmond,VA,,US,+1 804-360-9777,,,Blue Rhino,Q65681213
225159,bluerhino,Dash In #1617,,Richmond,VA,,US,+1 804-266-4407,,,Blue Rhino,Q65681213
5550,bluerhino,Lowe's #247,,Richmond,VA,,US,+1 804-261-4501,,,Blue Rhino,Q65681213
36034,bluerhino,Food Lion #1626,,Richmond,VA,,US,+1 804-266-2644,,,Blue Rhino,Q65681213
216788,bluerhino,Family Dollar #12859,,Richmond,VA,,US,+1 804-335-3979,,,Blue Rhino,Q65681213
va/richmond/5207-brook-road,bojangles,"Bojangles Richmond, VA",,Richmond,VA,,US,+1 804-264-6180,https://locations.bojangles.com/va/richmond/5207-brook-road.html,,Bojangles',Q891163
83075474596092322700100000000000,bp,BP,,Richmond,VA,,US,+1 804-264-1414,,24/7,BP,Q152057
88270,citi,ATM Walgreens,,Richmond,VA,,US,,,,Citibank,Q857063
53720,citi,ATM DASH IN #1617 - NORTH PARK,,Richmond,VA,,US,,,,Citibank,Q857063
30831,citi,ATM 7ELEVEN-FCTI,,Richmond,VA,,US,,,,Citibank,Q857063
70022,citi,ATM PNC AT WAWA,,Richmond,VA,,US,,,,Citibank,Q857063
70021,citi,ATM PNC AT WAWA,,Richmond,VA,,US,,,,Citibank,Q857063
47440,citi,ATM CVS,,Richmond,VA,,US,,,,Citibank,Q857063
30991,citi,ATM 7ELEVEN-FCTI,,Richmond,VA,,US,,,,Citibank,Q857063
58320,citi,ATM Gpm Investments Llc,,Richmond,VA,,US,,,,Citibank,Q857063
om_va_richmond_5226-chamberlayne-rd,cititrends,Citi Trends,,Richmond,VA,,US,+1 804-439-9364,https://locations.cititrends.com/va/richmond/5226-chamberlayne-rd.html,Mo 11:00-20:00; Tu 11:00-20:00; We 11:00-20:00; Th 11:00-20:00; Fr 10:00-21:00; Sa 10:00-21:00; Su 12:00-18:00,Citi Trends,Q5122438
80293150,cricket_wireless,Cricket Wireless Authorized Retailer,,Richmond,VA,,US,+1 804-477-6343,https://www.cricketwireless.com/stores/ll/US/VA/Richmond/5300-Chamberlayne-Rd,Mo-Sa 10:00-20:00; Su 12:00-18:00,Cricket Wireless,Q5184987
18,crunch_fitness,Crunch Fitness,,Richmond,VA,,US,+1 804-261-6700,https://www.crunch.com/locations/brook-rd,,Crunch Fitness,Q5190093
516,cvs_us,CVS Pharmacy,,Richmond,VA,,US,+1 804-264-7995,https://www.cvs.com/store-locator/richmond-va-pharmacies/1205-bellevue-ave-richmond-va-23227/storeid=516,Mo-Sa 08:00-21:00; Su 08:00-19:00,CVS Pharmacy,Q2078880
16527,dollar_general,Dollar General,,Henrico,VA,,US,+1 434-362-9010,https://www.dollargeneral.com/store-directory/va/henrico/16527,Mo-Su 08:00-21:00,Dollar General,Q145168
357010,dunkin_us,Dunkin',,Richmond,VA,,US,+1 804-562-7576,https://locations.dunkindonuts.com/en/va/richmond/7721-brook-road/357010,Mo-Su 06:00-20:00,Dunkin',Q847743
100272,electrify_america,"Walmart 2295 - Richmond, VA",,Richmond,VA,,US,,,,Electrify America,Q59773555
200317579,exxonmobil,A-PLUS #25,,RICHMOND,VA,,US,+1 804-864-5499,https://www.exxon.com/en/find-station/exxon-richmond-va-aplus25-200317579,24/7,Exxon,Q109675651
200309644,exxonmobil,ARSHAD MARKET,,RICHMOND,VA,,US,+1 804-321-3962,https://www.exxon.com/en/find-station/exxon-richmond-va-arshadmarket-200309644,24/7,Exxon,Q109675651
6060,gamestop_us,Northpark Shopping Center,,Richmond,VA,,US,+1 804-261-0294,https://www.gamestop.com/search/?store=6060,Mo-Th 12:00-19:00; Fr-Sa 11:00-21:00; Su 12:00-18:00,GameStop,Q202210
44276,h_r_block,H&R Block,,Richmond,VA,,US,+1 804-262-5001,https://www.hrblock.com/local-tax-offices/virginia/richmond/brook-run-shopping-center/44276/,,H&R Block,Q5627799
https://office.jacksonhewitt.com/#27577351,jackson_hewitt,Jackson Hewitt,,Richmond,VA,,US,+1 804-264-3036,https://office.jacksonhewitt.com/tax-preparation-services-locations/en/va/richmond/8191-c-brook-rd/19913,Mo-Th 10:00-19:00; Fr 10:00-18:00; Sa 10:00-17:00,Jackson Hewitt,Q6117132
https://office.jacksonhewitt.com/#27578244,jackson_hewitt,Jackson Hewitt,,Richmond,VA,,US,+1 804-264-2085,https://office.jacksonhewitt.com/tax-preparation-services-locations/en/va/richmond/5320-chamberlayne-road/15945,Mo-Th 10:00-19:00; Fr 10:00-18:00; Sa 10:00-17:00,Jackson Hewitt,Q6117132
https://locations.kfc.com/#11249015,kfc,Chicken Nuggets Near Richmond,,Richmond,VA,,US,,https://locations.kfc.com/va/richmond/1006-azalea-ave/chickennugget,Mo-Th 10:30-22:30; Fr-Sa 10:30-23:00; Su 10:30-22:30,KFC,Q524757
160324,marathon_petroleum_us,Quick N Easy,,Richmond,VA,,US,+1 804-264-2750,,,Marathon,Q458363
https://locations.oreillyauto.com/va/richmond/check-engine-light-testing-5428.html,oreilly,Your Richmond O'Reilly Auto Parts Store,,Richmond,VA,,US,+1 804-200-6024,https://locations.oreillyauto.com/va/richmond/check-engine-light-testing-5428.html,Mo-Sa 07:30-21:00; Su 09:00-20:00,O'Reilly Auto Parts,Q7071951
https://locations.oreillyauto.com/va/richmond/wiper-installation-5428.html,oreilly,Your Richmond O'Reilly Auto Parts Store,,Richmond,VA,,US,+1 804-200-6024,https://locations.oreillyauto.com/va/richmond/wiper-installation-5428.html,Mo-Sa 07:30-21:00; Su 09:00-20:00,O'Reilly Auto Parts,Q7071951
https://locations.oreillyauto.com/va/richmond/battery-testing-5428.html,oreilly,Your Richmond O'Reilly Auto Parts Store,,Richmond,VA,,US,+1 804-200-6024,https://locations.oreillyauto.com/va/richmond/battery-testing-5428.html,Mo-Sa 07:30-21:00; Su 09:00-20:00,O'Reilly Auto Parts,Q7071951
https://locations.oreillyauto.com/va/richmond/autopartes-5428.html,oreilly,O'Reilly Auto Parts,,Richmond,VA,,US,+1 804-200-6024,https://locations.oreillyauto.com/va/richmond/autopartes-5428.html,Mo-Sa 07:30-21:00; Su 09:00-20:00,O'Reilly Auto Parts,Q7071951
restaurant_84966,popeyes_us_fr,Popeyes,"8121 Brook Road Richmond, Virginia 23227 - USA",Richmond,VA,,US,+1 804-266-6656,https://www.popeyes.com/store-locator/store/restaurant_84966,Mo-Su 10:00-23:00,Popeyes,Q1330910
5574,rentacenter,Rent-A-Center,,Richmond,VA,,US,+1 804-262-7000,https://locations.rentacenter.com/virginia/richmond/5212-chamberlayne-rd/,Mo-Sa 10:00-18:00,Rent-A-Center,Q7313497
38444,seven_eleven_ca_us,7-11 Str   5201 Chamberlayne Rd,,Richmond,VA,,US,+1 804-929-3156,https://www.7-eleven.com/locations/va/richmond/5201-chamberlayne-rd-38444,,7-Eleven,Q259340
40015,seven_eleven_ca_us,0025sunoco 5024 Brook Rd,,Richmond,VA,,US,+1 804-864-5499,https://www.7-eleven.com/locations/va/richmond/5024-brook-rd-40015,,7-Eleven,Q259340
https://restaurants.subway.com/#14907547,subway,Subway Brookhill Azalea SC,,Richmond Henrico,VA,,US,+1 804-266-2242,https://restaurants.subway.com/united-states/va/richmond/1108-azalea-ave,Mo-Fr 07:30-21:00; Sa 08:00-21:00; Su 09:00-20:00,Subway,Q244457
8002287701,sunoco_us,Sunoco,,RICHMOND,VA,,US,+1 804-895-3857,,,Sunoco,Q1423218
0663300200,sunoco_us,Sunoco,,RICHMOND,VA,,US,+1 804-798-9463,,,Sunoco,Q1423218
0513789800,sunoco_us,Sunoco,,RICHMOND,VA,,US,+1 804-261-4017,,24/7,Sunoco,Q1423218
https://locations.tacobell.com/#6146775,taco_bell,Taco Bell,,Richmond,VA,,US,+1 804-553-3177,https://locations.tacobell.com/va/richmond/1208-azalea-avenue.html,Mo-Th 09:00-01:00; Fr-Sa 09:00-02:00; Su 09:00-01:00,Taco Bell,Q752941
491D,tmobile_us,Brook Rd & Brook Run Dr,,Richmond,VA,,US,+1 804-308-1415,https://www.t-mobile.com/store-locator/va/richmond/brook-rd-brook-run-dr,,T-Mobile,Q3511885
053663,uhaul,Richmond Geeks,1206 Azalea Ave,Richmond,VA,,US,+1 804-477-1645,,Mo-Sa 00:00-20:00,U-Haul,Q7862902
1437262,usps,BELLEVUE,,RICHMOND,VA,,US,+1 804-266-4863,,Mo-Fr 09:00-17:00; Sa 09:00-13:00,United States Postal Service,Q668687
2322700022,usps_collection_boxes,USPS COLLECTION BOX - BLUE BOX,8161 BROOK RD,RICHMOND,VA,,US,,,,United States Postal Service,Q668687
2322700035,usps_collection_boxes,USPS COLLECTION BOX - BLUE BOX,5710 BROOK RD,RICHMOND,VA,,US,,,,United States Postal Service,Q668687
2322700037,usps_collection_boxes,USPS COLLECTION BOX - BLUE BOX,1144 WILKINSON RD,RICHMOND,VA,,US,,,,United States Postal Service,Q668687
2322700030,usps_collection_boxes,USPS COLLECTION BOX - BLUE BOX,8550 MAGELLAN PKWY,RICHMOND,VA,,US,,,,United States Postal Service,Q668687
2322700038,usps_collection_boxes,USPS COLLECTION BOX - BLUE BOX,1500 WESTBROOK CT,RICHMOND,VA,,US,,,,United States Postal Service,Q668687
2322700027,usps_collection_boxes,USPS COLLECTION BOX - BLUE BOX,1600 WESTBROOK AVE,RICHMOND,VA,,US,,,,United States Postal Service,Q668687
2322700039,usps_collection_boxes,USPS COLLECTION BOX - PO LOBBY,5327 CHAMBERLAYNE RD,RICHMOND,VA,,US,,,,United States Postal Service,Q668687
2322700043,usps_collection_boxes,USPS COLLECTION BOX - PO LOBBY,5327 CHAMBERLAYNE RD,RICHMOND,VA,,US,,,,United States Postal Service,Q668687
2322700032,usps_collection_boxes,USPS COLLECTION BOX - BLUE BOX,5327 CHAMBERLAYNE RD,RICHMOND,VA,,US,,,,United States Postal Service,Q668687
2322700034,usps_collection_boxes,USPS COLLECTION BOX - BLUE BOX,1717 BELLEVUE AVE STE A,RICHMOND,VA,,US,,,,United States Postal Service,Q668687
2322700004,usps_collection_boxes,USPS COLLECTION BOX - BLUE BOX,1711 BELLEVUE AVE STE D,RICHMOND,VA,,US,,,,United States Postal Service,Q668687
2322700016,usps_collection_boxes,USPS COLLECTION BOX - BLUE BOX,2112 W LABURNUM AVE,RICHMOND,VA,,US,,,,United States Postal Service,Q668687
2322700014,usps_collection_boxes,USPS COLLECTION BOX - BLUE BOX,2112 W LABURNUM AVE,RICHMOND,VA,,US,,,,United States Postal Service,Q668687
2322700009,usps_collection_boxes,USPS COLLECTION BOX - BLUE BOX,1201 BELLEVUE AVE,RICHMOND,VA,,US,,,,United States Postal Service,Q668687
2322700024,usps_collection_boxes,USPS COLLECTION BOX - BLUE BOX,3701 SAUNDERS AVE,RICHMOND,VA,,US,,,,United States Postal Service,Q668687
2322700023,usps_collection_boxes,USPS COLLECTION BOX - BLUE BOX,3701 SAUNDERS AVE,RICHMOND,VA,,US,,,,United States Postal Service,Q668687
2322700012,usps_collection_boxes,USPS COLLECTION BOX - BLUE BOX,1600 WESTWOOD AVE,RICHMOND,VA,,US,,,,United States Postal Service,Q668687
A00000199414,verizon_us,Wireless Zone Richmond Brook Rd,,RICHMOND,VA,,US,+1 804-553-1153,https://www.verizon.com/stores/details/virginia/richmond/wireless-zone-richmond-brook-rd-1565122/,Mo-Sa 10:00-20:00; Su 11:00-17:00,Verizon,Q919641
,visa,,,RICHMOND,VA,,US,,,,,
,visa,,,RICHMOND,VA,,US,,,,,
,visa,,,RICHMOND,VA,,US,,,,,
,visa,,,RICHMOND,VA,,US,,,,,
,visa,,,RICHMOND,VA,,US,,,,,
,visa,,,RICHMOND,VA,,US,,,,,
,visa,,,RICHMOND,VA,,US,,,,,
,visa,,,RICHMOND,VA,,US,,,,,
,visa,,,RICHMOND,VA,,US,,,,,
,visa,,,RICHMOND,VA,,US,,,,,
,visa,,,RICHMOND,VA,,US,,,,,
,visa,,,RICHMOND,VA,,US,,,,,
,visa,,,RICHMOND,VA,,US,,,,,
,visa,,,RICHMOND,VA,,US,,,,,
,visa,,,RICHMOND,VA,,US,,,,,
,visa,,,RICHMOND,VA,,US,,,,,
,visa,,,RICHMOND,VA,,US,,,,,
,visa,,,RICHMOND,VA,,US,,,,,
,visa,,,HENRICO,VA,,US,,,,,
,visa,,,RICHMOND,VA,,US,,,,,
,visa,,,RICHMOND,VA,,US,,,,,
,visa,,,RICHMOND,VA,,US,,,,,
,visa,,,RICHMOND,VA,,US,,,,,
,visa,,,RICHMOND,VA,,US,,,,,
,visa,,,RICHMOND,VA,,US,,,,,
,visa,,,RICHMOND,VA,,US,,,,,
,visa,,,RICHMOND,VA,,US,,,,,
,visa,,,RICHMOND,VA,,US,,,,,
,visa,,,RICHMOND,VA,,US,,,,,
,visa,,,RICHMOND,VA,,US,,,,,
,visa,,,RICHMOND,VA,,US,,,,,
,visa,,,RICHMOND,VA,,US,,,,,
8101__BROOK__RD_RICHMOND_VA_23227,wellsfargo,Wells Fargo,8101 BROOK RD,RICHMOND,VA,,US,+1 804-264-4100,https://www.wellsfargo.com/locator/bank/8101__BROOK__RD_RICHMOND_VA_23227/,Mo-Fr 09:00-17:00,Wells Fargo,Q744149
5100__RICHMOND__HENRICO__TPKE_RICHMOND_VA_23227,wellsfargo,,5100 RICHMOND HENRICO TPKE,RICHMOND,VA,,US,+1 800-869-3557,https://www.wellsfargo.com/locator/bank/5100__RICHMOND__HENRICO__TPKE_RICHMOND_VA_23227/,,Wells Fargo,Q744149
https://locations.wendys.com/#9255247,wendys,"Wendy's Brook Rd in Richmond, VA",,Richmond,VA,,US,+1 804-447-9866,https://locations.wendys.com/united-states/va/richmond/8300-brook-road,"Mo-Su 06:30-10:30,09:00-22:00",Wendy's,Q550258
https://locations.wendys.com/#9255242,wendys,"Wendy's Brook Rd in Richmond, VA",,Richmond,VA,,US,+1 804-447-9829,https://locations.wendys.com/united-states/va/richmond/5212-brook-road,"Mo-Su 06:30-10:30,09:00-22:00",Wendy's,Q550258
a7150279c9907d046dae8c15e58c5387,western_union,WALMART #002295,,Richmond,VA,,US,+1 804-553-8432,https://location.westernunion.com/us/va/richmond/a7150279c9907d046dae8c15e58c5387,Mo-Sa 08:00-20:00; Su 10:00-18:00,Western Union,Q861042
5a2483d226bcc2f59dcadb32063993b0,western_union,7 ELEVEN #40015,,Richmond,VA,,US,+1 804-864-5499,https://location.westernunion.com/us/va/richmond/5a2483d226bcc2f59dcadb32063993b0,,Western Union,Q861042
3e7b167d7c6d57c21ca949001659ae57,western_union,FAS MART #80,,Richmond,VA,,US,+1 804-329-1734,https://location.westernunion.com/us/va/richmond/3e7b167d7c6d57c21ca949001659ae57,Mo-Su 06:00-22:00,Western Union,Q861042
