Ref,Spider,Name,Address,City,State,Zipcode,Country,Phone,Website,Hours,Brand,WikiData
/locations/propane-offices/virginia/richmond/1701-brook-rd,amerigas,"AmerGas Propane | Richmond, Virginia",,Richmond,VA,,US,+1 804-783-9500,/locations/propane-offices/virginia/richmond/1701-brook-rd,,AmeriGas,Q23130318
37,andpizza,VCU,,Richmond,VA,,US,+1 202-450-5059,,Mo-Th 11:00-00:00; Fr-Sa 11:00-01:30; Su 11:00-00:00,&pizza,Q21189222
https://locators.bankofamerica.com/va/richmond/financial-centers-richmond-8128.html,bankofamerica,Bank of America Financial Center & Drive-Thru ATM | Robinson & Broad,,Richmond,VA,,US,+1 804-342-9201,https://locators.bankofamerica.com/va/richmond/financial-centers-richmond-8128.html,Mo-Fr 10:00-16:00,Bank of America,Q487907
https://locators.bankofamerica.com/va/richmond/atm-richmond-107434.html,bankofamerica,Bank of America Walk-Up ATM | West Broad Shoppes,,Richmond,VA,,US,+1 844-401-8500,https://locators.bankofamerica.com/va/richmond/atm-richmond-107434.html,,Bank of America,Q487907
50426,bluerhino,Lowe's #1037,,Richmond,VA,,US,+1 804-219-0640,,,Blue Rhino,Q65681213
50960198326422322000100000000000,bp,BP,,RICHMOND,VA,,US,+1 804-355-0646,,Mo-Sa 06:00-24:00; Su 07:00-24:00,BP,Q152057
69952932979202322000100000000000,bp,BP,,Richmond,VA,,US,+1 804-355-2355,,Mo-Th 06:00-23:00; Fr-Sa 06:00-24:00; Su 06:00-23:00,BP,Q152057
va_richmond_810-west-grace-street,chipotle, ,,Richmond,VA,,US,+1 804-254-9425,https://locations.chipotle.com/va/richmond/810-west-grace-street,,Chipotle,Q465751
28412,citi,ATM 7ELEVEN-FCTI,,Richmond,VA,,US,,,,Citibank,Q857063
49771,citi,ATM CVS,,Richmond,VA,,US,,,,Citibank,Q857063
27614,citi,ATM 7ELEVEN-FCTI,,Richmond,VA,,US,,,,Citibank,Q857063
27202,citi,ATM 7ELEVEN-FCTI,,Richmond,VA,,US,,,,Citibank,Q857063
24716,citi,ATM 7ELEVEN-FCTI,,Richmond,VA,,US,,,,Citibank,Q857063
61645,citi,ATM Kroger,,Richmond,VA,,US,,,,Citibank,Q857063
24238,citi,ATM 7ELEVEN-FCTI,,Richmond,VA,,US,,,,Citibank,Q857063
25192,citi,ATM 7ELEVEN-FCTI,,Richmond,VA,,US,,,,Citibank,Q857063
27628,citi,ATM 7ELEVEN-FCTI,,Richmond,VA,,US,,,,Citibank,Q857063
73451,citi,ATM Rite Aid,,Richmond,VA,,US,,,,Citibank,Q857063
21244,coldstone_creamery,Cold Stone Creamery,,Richmond,VA,,US,+1 804-342-6006,https://www.coldstonecreamery.com/stores/21244,,Cold Stone Creamery,Q1094923
,credit_union_us,Credit Union of Richmond Inc,,Richmond,VA,,US,+1 804-355-9684,,Mo-Fr 08:00-04:00,,
70088557,cricket_wireless,Cricket Wireless Authorized Retailer,,Richmond,VA,,US,+1 804-447-8729,https://www.cricketwireless.com/stores/ll/US/VA/Richmond/1343-W-Broad-St,Mo-Sa 10:00-20:00; Su 12:00-17:00,Cricket Wireless,Q5184987
1530,cvs_us,CVS Pharmacy,,Richmond,VA,,US,+1 804-359-2497,https://www.cvs.com/store-locator/richmond-va-pharmacies/2738-west-broad-street-richmond-va-23220/storeid=1530,Mo-Su 07:00-01:00,CVS Pharmacy,Q2078880
4250,dominos_pizza_us,Domino's Pizza,,Richmond,VA,,US,+1 804-644-3030,https://pizza.dominos.com/virginia/richmond/111-n-belvidere-st,Mo-Th 10:00-01:00; Fr-Sa 10:00-02:00; Su 10:00-24:00,Domino's,Q839466
354286,dunkin_us,Dunkin',,Richmond,VA,,US,+1 804-644-0853,https://locations.dunkindonuts.com/en/va/richmond/900-w-broad-st/354286,Mo-Su 06:00-20:00,Dunkin',Q847743
200317535,exxonmobil,UPPY'S #17,,RICHMOND,VA,,US,+1 804-213-9746,https://www.exxon.com/en/find-station/exxon-richmond-va-uppys17-200317535,24/7,Exxon,Q109675651
https://restaurants.fiveguys.com/#15553645,five_guys_us,Five Guys West Broad Shoppes - Richmond VCU,,Richmond,VA,,US,+1 804-359-0059,https://restaurants.fiveguys.com/931-west-broad-street,"Mo-Su 11:00-21:30,11:00-22:00",Five Guys,Q1131810
https://stores.footlocker.com/va/richmond/1510-w-broad-street-29520.html,footlocker,"Foot Locker in Richmond: Richmond, Virginia | Approved | Own It",,Richmond,VA,,US,+1 804-456-1745,https://stores.footlocker.com/va/richmond/1510-w-broad-street-29520.html,Mo-Sa 11:00-19:00; Su 12:00-18:00,Foot Locker,Q63335
2410,gamestop_us,Broad and Bowe Center,,Richmond,VA,,US,+1 804-358-7630,https://www.gamestop.com/search/?store=2410,Mo-Th 12:00-20:00; Fr-Sa 12:00-21:00; Su 12:00-19:00,GameStop,Q202210
https://stores.gnc.com/#24059176,gnc,GNC Kroger Shops At Broad,,,VA,,US,+1 804-354-1545,https://stores.gnc.com/all-stores-virginia/richmond/711-north-lombardy,Mo-Sa 10:00-19:00; Su 11:00-18:00,GNC,Q4808595
https://www.goldsgym.com/richmondfanva/,goldsgym,Gold's Gym Richmond (The Fan),,Richmond,VA,,US,+1 804-249-4653,https://www.goldsgym.com/richmondfanva/,24/7,Gold's Gym,Q1536234
https://locations.jimmyjohns.com/va/richmond/sandwiches-1740.html,jimmy_johns,Jimmy John's,,Richmond,VA,,US,+1 804-447-3581,https://locations.jimmyjohns.com/va/richmond/sandwiches-1740.html,,Jimmy John's,Q1689380
https://locations.papajohns.com/#10692989,papa_johns,Papa John's,,Richmond,VA,,US,+1 804-354-6262,https://locations.papajohns.com/united-states/va/23220/richmond/1200-w-main-st,Mo-Th 10:30-01:00; Fr-Sa 10:30-01:30; Su 11:00-24:00,Papa John's Pizza,Q2759586
va_richmond_810-cathedral-place,pizza_hut_us,810 Cathedral Place,,Richmond,VA,,US,,https://locations.pizzahut.com/va/richmond/810-cathedral-place,,Pizza Hut,Q191615
https://locations.qdoba.com/us/va/richmond/935-w-broad-st.html,qdoba,QDOBA Broad,,Richmond,VA,,US,+1 804-213-0047,https://locations.qdoba.com/us/va/richmond/935-w-broad-st.html,Mo-Su 10:30-22:00,Qdoba,Q1363885
03715,rite_aid_us,Rite Aid #03715 Richmond,,Richmond,VA,,US,+1 804-225-1340,https://locations2.riteaid.com.yext-cdn.com/va/richmond/520-west-broad-street.html,Mo-Fr 08:00-24:00; Sa-Su 09:00-24:00,Rite Aid,Q3433273
34547,seven_eleven_ca_us,7-11 Str   221 W Main,,Richmond,VA,,US,+1 804-344-0787,https://www.7-eleven.com/locations/va/richmond/221-w-main-34547,,7-Eleven,Q259340
40034,seven_eleven_ca_us,7-Eleven Store,,Richmond,VA,,US,+1 804-204-1534,https://www.7-eleven.com/locations/va/richmond/2206-w-main-st-40034,,7-Eleven,Q259340
40009,seven_eleven_ca_us,7-Eleven,,RICHMOND,VA,,US,+1 804-213-9746,https://www.7-eleven.com/locations/va/richmond/2753-w.-broad-st.-40009,,7-Eleven,Q259340
https://restaurants.subway.com/#14905978,subway,Subway Virginia Commonwealth Univ,,Richmond Richmond City,VA,,US,+1 804-355-0433,https://restaurants.subway.com/united-states/va/richmond/1110-w-broad-st,Mo-Su 08:30-21:30,Subway,Q244457
040382,uhaul,Brook Road Auto Care,1615 Brook Rd,Richmond,VA,,US,+1 804-226-1055,,We-Fr 00:00-24:00,U-Haul,Q7862902
824027,uhaul,U-Haul Moving & Storage of Lombardy at VCU,900 N Lombardy,Richmond,VA,,US,+1 804-358-4978,,Mo-Th 00:00-19:00; Fr 00:00-20:00; Sa 00:00-19:00; Su 00:00-17:00,U-Haul,Q7862902
1476296,usps,SAUNDERS,,RICHMOND,VA,,US,+1 804-353-4759,,Mo-Fr 09:00-17:00,United States Postal Service,Q668687
2322000053,usps_collection_boxes,USPS COLLECTION BOX - BLUE BOX,1210 W MAIN ST,RICHMOND,VA,,US,,,,United States Postal Service,Q668687
2322000056,usps_collection_boxes,USPS COLLECTION BOX - BLUE BOX,1920 W MAIN ST,RICHMOND,VA,,US,,,,United States Postal Service,Q668687
2322000043,usps_collection_boxes,USPS COLLECTION BOX - BLUE BOX,1801 HANOVER AVE,RICHMOND,VA,,US,,,,United States Postal Service,Q668687
2322000008,usps_collection_boxes,USPS COLLECTION BOX - BLUE BOX,1 W CARY ST,RICHMOND,VA,,US,,,,United States Postal Service,Q668687
2322000055,usps_collection_boxes,USPS COLLECTION BOX - BLUE BOX,300 W MAIN ST,RICHMOND,VA,,US,,,,United States Postal Service,Q668687
2322000084,usps_collection_boxes,USPS COLLECTION BOX - BLUE BOX,2621 GROVE AVE,RICHMOND,VA,,US,,,,United States Postal Service,Q668687
2322000026,usps_collection_boxes,USPS COLLECTION BOX - BLUE BOX,901 W FRANKLIN ST,RICHMOND,VA,,US,,,,United States Postal Service,Q668687
2322000025,usps_collection_boxes,USPS COLLECTION BOX - BLUE BOX,319 W FRANKLIN ST,RICHMOND,VA,,US,,,,United States Postal Service,Q668687
2322000017,usps_collection_boxes,USPS COLLECTION BOX - BLUE BOX,1213 W FRANKLIN ST,RICHMOND,VA,,US,,,,United States Postal Service,Q668687
2322000034,usps_collection_boxes,USPS COLLECTION BOX - BLUE BOX,616 W GRACE ST,RICHMOND,VA,,US,,,,United States Postal Service,Q668687
2322000074,usps_collection_boxes,USPS COLLECTION BOX - BLUE BOX,2701 STUART AVE,RICHMOND,VA,,US,,,,United States Postal Service,Q668687
2322000111,usps_collection_boxes,USPS COLLECTION BOX - BLUE BOX,1625 W BROAD ST,RICHMOND,VA,,US,,,,United States Postal Service,Q668687
2322000062,usps_collection_boxes,USPS COLLECTION BOX - BLUE BOX,2038 MONUMENT AVE,RICHMOND,VA,,US,,,,United States Postal Service,Q668687
2322000110,usps_collection_boxes,USPS COLLECTION BOX - PO LOBBY,1625 W BROAD ST,RICHMOND,VA,,US,,,,United States Postal Service,Q668687
2322000116,usps_collection_boxes,USPS COLLECTION BOX - PO LOBBY,1645 W BROAD ST,RICHMOND,VA,,US,,,,United States Postal Service,Q668687
2322000005,usps_collection_boxes,USPS COLLECTION BOX - BLUE BOX,2001 W BROAD ST,RICHMOND,VA,,US,,,,United States Postal Service,Q668687
2322000065,usps_collection_boxes,USPS COLLECTION BOX - BLUE BOX,2701 PARK AVE,RICHMOND,VA,,US,,,,United States Postal Service,Q668687
2322000078,usps_collection_boxes,USPS COLLECTION BOX - BLUE BOX,1613 OWNBY LN,RICHMOND,VA,,US,,,,United States Postal Service,Q668687
2322000086,usps_collection_boxes,USPS COLLECTION BOX - BLUE BOX,1500 N LOMBARDY ST,RICHMOND,VA,,US,,,,United States Postal Service,Q668687
2322000052,usps_collection_boxes,USPS COLLECTION BOX - BLUE BOX,1500 N LOMBARDY ST,RICHMOND,VA,,US,,,,United States Postal Service,Q668687
,visa,,,CHESAPEAKE,VA,,US,,,,,
,visa,,,RICHMOND,VA,,US,,,,,
,visa,,,RICHMOND,VA,,US,,,,,
,visa,,,RICHMOND,VA,,US,,,,,
,visa,,,RICHMOND,VA,,US,,,,,
,visa,,,RICHMOND,VA,,US,,,,,
,visa,,,RICHMOND,VA,,US,,,,,
,visa,,,RICHMOND,VA,,US,,,,,
,visa,,,RICHMOND,VA,,US,,,,,
,visa,,,RICHMOND,VA,,US,,,,,
,visa,,,RICHMOND,VA,,US,,,,,
,visa,,,RICHMOND,VA,,US,,,,,
,visa,,,RICHMOND,VA,,US,,,,,
,visa,,,RICHMOND,VA,,US,,,,,
,visa,,,RICHMOND,VA,,US,,,,,
,visa,,,RICHMOND,VA,,US,,,,,
,visa,,,RICHMOND,VA,,US,,,,,
,visa,,,RICHMOND,VA,,US,,,,,
,visa,,,RICHMOND,VA,,US,,,,,
,visa,,,RICHMOND,VA,,US,,,,,
,visa,,,RICHMOND,VA,,US,,,,,
,visa,,,RICHMOND,VA,,US,,,,,
,visa,,,RICHMOND,VA,,US,,,,,
,visa,,,RICHMOND,VA,,US,,,,,
,visa,,,RICHMOND,VA,,US,,,,,
,visa,,,RICHMOND,VA,,US,,,,,
,visa,,,RICHMOND,VA,,US,,,,,
,visa,,,RICHMOND,VA,,US,,,,,
,visa,,,RICHMOND,VA,,US,,,,,
,visa,,,RICHMOND,VA,,US,,,,,
,visa,,,RICHMOND,VA,,US,,,,,
,visa,,,RICHMOND,VA,,US,,,,,
,visa,,,RICHMOND,VA,,US,,,,,
,visa,,,RICHMOND,VA,,US,,,,,
,visa,,,RICHMOND,VA,,US,,,,,
,visa,,,RICHMOND,VA,,US,,,,,
,visa,,,RICHMOND,VA,,US,,,,,
,visa,,,RICHMOND,VA,,US,,,,,
,visa,,,RICHMOND,VA,,US,,,,,
,visa,,,RICHMOND,VA,,US,,,,,
,visa,,,RICHMOND,VA,,US,,,,,
,visa,,,RICHMOND,VA,,US,,,,,
,visa,,,RICHMOND,VA,,US,,,,,
,visa,,,RICHMOND,VA,,US,,,,,
,visa,,,RICHMOND,VA,,US,,,,,
,visa,,,RICHMOND,VA,,US,,,,,
,visa,,,RICHMOND,VA,,US,,,,,
,visa,,,RICHMOND,VA,,US,,,,,
,visa,,,RICHMOND,VA,,US,,,,,
,visa,,,RICHMOND,VA,,US,,,,,
,visa,,,RICHMOND,VA,,US,,,,,
,visa,,,RICHMOND,VA,,US,,,,,
,visa,,,RICHMOND,VA,,US,,,,,
,visa,,,RICHMOND,VA,,US,,,,,
,visa,,,RICHMOND,VA,,US,,,,,
,visa,,,RICHMOND,VA,,US,,,,,
,visa,,,RICHMOND,VA,,US,,,,,
,visa,,,RICHMOND,VA,,US,,,,,
,visa,,,RICHMOND,VA,,US,,,,,
,visa,,,RICHMOND,VA,,US,,,,,
,visa,,,RICHMOND,VA,,US,,,,,
,visa,,,RICHMOND,VA,,US,,,,,
,visa,,,RICHMOND,VA,,US,,,,,
,visa,,,RICHMOND,VA,,US,,,,,
,visa,,,RICHMOND,VA,,US,,,,,
,visa,,,RICHMOND,VA,,US,,,,,
,visa,,,RICHMOND,VA,,US,,,,,
,visa,,,RICHMOND,VA,,US,,,,,
,visa,,,RICHMOND,VA,,US,,,,,
,visa,,,RICHMOND,VA,,US,,,,,
,visa,,,RICHMOND,VA,,US,,,,,
,visa,,,RICHMOND,VA,,US,,,,,
,visa,,,RICHMOND,VA,,US,,,,,
,visa,,,RICHMOND,VA,,US,,,,,
,visa,,,RICHMOND,VA,,US,,,,,
,visa,,,RICHMOND,VA,,US,,,,,
,visa,,,RICHMOND,VA,,US,,,,,
,visa,,,RICHMOND,VA,,US,,,,,
,visa,,,RICHMOND,VA,,US,,,,,
,visa,,,RICHMOND,VA,,US,,,,,
,visa,,,RICHMOND,VA,,US,,,,,
,visa,,,RICHMOND,VA,,US,,,,,
,visa,,,RICHMOND,VA,,US,,,,,
,visa,,,RICHMOND,VA,,US,,,,,
,visa,,,CHESTERFIELD,VA,,US,,,,,
,visa,,,DOSWELL,VA,,US,,,,,
,visa,,,RICHMOND,VA,,US,,,,,
,visa,,,RICHMOND,VA,,US,,,,,
1500__N__LOMBARDY__ST_RICHMOND_VA_23220,wellsfargo,,1500 N LOMBARDY ST,RICHMOND,VA,,US,+1 800-869-3557,https://www.wellsfargo.com/locator/bank/1500__N__LOMBARDY__ST_RICHMOND_VA_23220/,,Wells Fargo,Q744149
5bb30209f307052d3eae6b92771be817,western_union,7-ELEVEN #34547,,Richmond,VA,,US,+1 804-344-0787,https://location.westernunion.com/us/va/richmond/5bb30209f307052d3eae6b92771be817,,Western Union,Q861042
richmond-va,whole_foods,Richmond VA,2024 W Broad St,Richmond,VA,,US,+1 804-956-3750,https://www.wholefoodsmarket.com/stores/richmond-va,Mo-Su 08:00-21:00,Whole Foods,Q1809448
