Ref,Spider,Name,Address,City,State,Zipcode,Country,Phone,Website,Hours,Brand,WikiData
e61cae5b-a9cf-eb11-80fd-005056bd9ae6,amf_bowling,Bowl America Shirley,,Alexandria,VA,,US,+1 703-354-3300,https://www.bowlero.com/location/bowl-america-shirley,,Bowlero,Q17102967
https://locations.arbys.com/va/alexandria/4817-beauregard-st.html,arbys_us,"Arby's Fast-Food Drive Through Near You in Alexandria, VA",,Alexandria,VA,,US,+1 703-354-4988,https://locations.arbys.com/va/alexandria/4817-beauregard-st.html,Mo-Th 10:00-23:00; Fr 10:00-24:00; Sa-Su 10:00-23:00,Arby's,Q630866
1156,autozone_us,AutoZone Auto Parts Alexandria,,Alexandria,VA,,US,+1 703-256-1510,https://www.autozone.com/locations/va/alexandria/6198-little-river-tpke.html,Mo-Sa 07:30-21:00; Su 08:00-20:00,AutoZone,Q4826087
https://locators.bankofamerica.com/va/alexandria/financial-centers-alexandria-11298.html,bankofamerica,Bank of America Financial Center & Walk-Up ATM | Lake Barcroft,,Alexandria,VA,,US,+1 703-658-8265,https://locators.bankofamerica.com/va/alexandria/financial-centers-alexandria-11298.html,Mo-Fr 10:00-16:00,Bank of America,Q487907
https://locations.baskinrobbins.com/va/alexandria/6451-edsall-rd-344265-br,baskin_robbins_us,Baskin-Robbinsâ„¢,,Alexandria,VA,,US,+1 703-256-4534,https://locations.baskinrobbins.com/va/alexandria/6451-edsall-rd-344265-br,Mo-Su 05:00-22:00,Baskin-Robbins,Q584601
09777243475402231200100000000000,bp,BP,,ALEXANDRIA,VA,,US,+1 703-642-2141,,Mo-Sa 06:00-23:00; Su 07:00-21:00,BP,Q152057
va_alexandria_6242-little-river-tpke,chipotle, ,,Alexandria,VA,,US,+1 703-750-0434,https://locations.chipotle.com/va/alexandria/6242-little-river-tpke,,Chipotle,Q465751
bcc39be9-8a43-4fe8-a431-f3fb43ebcb78,concentra_us,Alexandria,,Alexandria,VA,,US,,https://www.concentra.com/urgent-care-centers/virginia/alexandria/alexandria-urgent-care/,,Concentra,Q5158304
,credit_union_us,InFirst FCU,,Alexandria,VA,,US,+1 703-914-8700,,Mo-Fr 09:00-04:00,,
344265,dunkin_us,Dunkin',,Alexandria,VA,,US,+1 703-256-4534,https://locations.dunkindonuts.com/en/va/alexandria/6451-edsall-rd/344265,Mo-Su 05:00-22:00,Dunkin',Q847743
6057,extra_space_storage,Alexandria Self Storage at 5765 General Washington Dr,,Alexandria,VA,,US,+1 703-263-1358,https://www.extraspace.com/storage/facilities/us/virginia/alexandria/6057/,Mo-Fr 09:30-18:00; Sa 09:00-17:30,Extra Space Storage,Q5422162
200321397,exxonmobil,BRADDOCK ROAD,,ALEXANDRIA,VA,,US,+1 703-623-3662,https://www.exxon.com/en/find-station/mobil-alexandria-va-braddockroad-200321397,Mo-Su 05:00-23:00,Mobil,Q109676002
200314599,exxonmobil,EDSALL PARK EXXON,,ALEXANDRIA,VA,,US,+1 703-752-1111,https://www.exxon.com/en/find-station/exxon-alexandria-va-edsallparkexxon-200314599,24/7,Exxon,Q109675651
200312517,exxonmobil,LINCOLNIA EXXON,,ALEXANDRIA,VA,,US,+1 703-752-5875,https://www.exxon.com/en/find-station/exxon-alexandria-va-lincolniaexxon-200312517,24/7,Exxon,Q109675651
https://locations.fivebelow.com/va/alexandria/6214-little-river-turnpike,five_below,Five Below Plaza at Landmark,,Alexandria,VA,,US,,https://locations.fivebelow.com/va/alexandria/6214-little-river-turnpike,Mo-Sa 10:00-20:00; Su 11:00-18:00,Five Below,Q5455836
https://restaurants.fiveguys.com/#15553378,five_guys_us,Five Guys Pinecrest Plaza,,Annandale,VA,,US,+1 703-914-4555,https://restaurants.fiveguys.com/6546-little-river-turnpike,"Mo-Su 11:00-21:30,11:00-22:00",Five Guys,Q1131810
https://stores.footlocker.com/va/alexandria/6198-little-river-turnpk-9414.html,footlocker,"Foot Locker in Alexandria: Alexandria, Virginia | Approved | Own It",,Alexandria,VA,,US,,https://stores.footlocker.com/va/alexandria/6198-little-river-turnpk-9414.html,Mo-Th 11:00-19:00; Fr-Sa 11:00-20:00; Su 12:00-18:00,Foot Locker,Q63335
Motorcraft2626USAEnglish,ford,Jerrys Ford Sales Inc,,Virginia,VA,,US,+1 703-256-5000,,,Ford,Q44294
https://www.ford.com/dealerships/dealer-details/va/alexandria/malloy-ford/,ford_dealers_us,Malloy Ford,,Alexandria,VA,,US,+1 571-506-1449,https://www.ford.com/dealerships/dealer-details/va/alexandria/malloy-ford/,Mo-Fr 09:00-21:00; Sa 09:00-20:00; Su 11:00-17:00,Ford Motor Company,Q44294
6382,gamestop_us,Plaza at Landmark,,Alexandria,VA,,US,+1 703-256-0405,https://www.gamestop.com/search/?store=6382,Mo-Th 12:00-20:00; Fr-Sa 11:00-21:00; Su 12:00-20:00,GameStop,Q202210
2747,giantfood,Giant Food Alexandria,,Alexandria,VA,,US,+1 703-370-4856,https://stores.giantfood.com/va/alexandria/6200-little-river-turnpike,Mo-Su 06:00-22:00,Giant Food,Q5558336
va_alexandria_breakfast-6254-duke-st-478,ihop,IHOP Breakfast Restaurants Near You at 6254 Duke St,,Alexandria,VA,,US,+1 703-658-2163,https://restaurants.ihop.com/en-us/va/alexandria/breakfast-6254-duke-st-478,,IHOP,Q1185675
https://locations.kfc.com/#11249250,kfc,Chicken Nuggets Near Alexandria,,Alexandria,VA,,US,,https://locations.kfc.com/va/alexandria/6227-little-river-turnpike/chickennugget,Mo-Su 11:00-22:00,KFC,Q524757
000002,kindercare,Alexandria KinderCare,,Alexandria,VA,,US,,https://www.kindercare.com/our-centers/alexandria/va/000002,,KinderCare Learning Centers,Q6410551
1446,lidl_us,Alexandria VA - Pinecrest Plaza,,Alexandria,VA,,US,+1 844-747-5435,,,Lidl,Q151954
WASFA,marriott,Fairfield Inn & Suites Alexandria West/Mark Center,,Alexandria,VA,,US,+1 703-642-3422,https://www.marriott.com/WASFA,,Fairfield by Marriott,Q5430314
https://www.publicstorage.com/self-storage-va-alexandria/5556.html,public_storage_us,Public Storage,,Alexandria,VA,,US,+1 571-660-4867,https://www.publicstorage.com/self-storage-va-alexandria/5556.html,,Public Storage,Q1156045
https://www.publicstorage.com/self-storage-va-alexandria/971.html,public_storage_us,Public Storage,,Alexandria,VA,,US,+1 571-356-9850,https://www.publicstorage.com/self-storage-va-alexandria/971.html,,Public Storage,Q1156045
2319,rentacenter,Rent-A-Center,,Alexandria,VA,,US,+1 703-914-0384,https://locations.rentacenter.com/virginia/alexandria/6244-l-little-river-turnpike/,Mo-Sa 10:00-18:00,Rent-A-Center,Q7313497
193,ross_dress_for_less_us,Landmark,,Alexandria,VA,,US,+1 703-658-1660,,Mo-Th 09:30-23:00; Fr-Sa 09:00-23:00; Su 09:00-22:00,Ross Dress for Less,Q3442791
https://restaurants.subway.com/#14905312,subway,Subway Plaza at Landmark,,Alexandria Fairfax,VA,,US,+1 703-941-2200,https://restaurants.subway.com/united-states/va/alexandria/6224-little-river-turnpike,Mo-Sa 08:00-22:00; Su 09:00-22:00,Subway,Q244457
https://restaurants.subway.com/#14900677,subway,Subway Build America 5,,Alexandria Fairfax,VA,,US,+1 703-639-0549,https://restaurants.subway.com/united-states/va/alexandria/5601-general-washington-drive,Mo-Fr 06:00-20:00; Sa 08:00-19:00; Su 10:00-20:00,Subway,Q244457
0896047802,sunoco_us,Sunoco,,ALEXANDRIA,VA,,US,+1 703-606-3356,,24/7,Sunoco,Q1423218
1042,tjx,Alexandria,6200 Little River Turnpike ,Alexandria,VA,,US,+1 703-354-1770,,Mo-Sa 09:30-21:30; Su 10:00-20:00,Marshalls,Q15903261
4SDE,tmobile_us,Ltl River Tpke & Braddock Rd,,Alexandria,VA,,US,+1 703-658-6250,https://www.t-mobile.com/store-locator/va/alexandria/ltl-river-tpke-braddock-rd,,T-Mobile,Q3511885
203,total_wine_and_more_us,Alexandria,,Alexandria,VA,,US,+1 703-941-1133,https://www.totalwine.com/store-info/203,Mo-Sa 09:00-22:00; Su 09:00-20:00,Total Wine & More,Q7828084
1370497,usps,LINCOLNIA,,ALEXANDRIA,VA,,US,+1 703-658-8762,,Mo-Fr 09:00-17:00; Sa 09:00-14:00,United States Postal Service,Q668687
2231200022,usps_collection_boxes,USPS COLLECTION BOX - BLUE BOX,5501 CHEROKEE AVE,ALEXANDRIA,VA,,US,,,,United States Postal Service,Q668687
2231200003,usps_collection_boxes,USPS COLLECTION BOX - BLUE BOX,5501 CHEROKEE AVE,ALEXANDRIA,VA,,US,,,,United States Postal Service,Q668687
2231200043,usps_collection_boxes,USPS COLLECTION BOX - BLUE BOX,5350 SHAWNEE RD,ALEXANDRIA,VA,,US,,,,United States Postal Service,Q668687
2231200023,usps_collection_boxes,USPS COLLECTION BOX - BLUE BOX,5350 SHAWNEE RD,ALEXANDRIA,VA,,US,,,,United States Postal Service,Q668687
2231200052,usps_collection_boxes,USPS COLLECTION BOX - PO LOBBY,6137 LINCOLNIA RD,ALEXANDRIA,VA,,US,,,,United States Postal Service,Q668687
2231200049,usps_collection_boxes,USPS COLLECTION BOX - EXPRESS,6137 LINCOLNIA RD,ALEXANDRIA,VA,,US,,,,United States Postal Service,Q668687
2231200047,usps_collection_boxes,USPS COLLECTION BOX - BLUE BOX,6137 LINCOLNIA RD,ALEXANDRIA,VA,,US,,,,United States Postal Service,Q668687
2231200051,usps_collection_boxes,USPS COLLECTION BOX - PO LOBBY,6137 LINCOLNIA RD,ALEXANDRIA,VA,,US,,,,United States Postal Service,Q668687
2231200050,usps_collection_boxes,USPS COLLECTION BOX - PO LOBBY,6137 LINCOLNIA RD,ALEXANDRIA,VA,,US,,,,United States Postal Service,Q668687
2231200024,usps_collection_boxes,USPS COLLECTION BOX - BLUE BOX,6301 LITTLE RIVER TPKE,ALEXANDRIA,VA,,US,,,,United States Postal Service,Q668687
2231200030,usps_collection_boxes,USPS COLLECTION BOX - BLUE BOX,601 N ARMISTEAD ST,ALEXANDRIA,VA,,US,,,,United States Postal Service,Q668687
2231200018,usps_collection_boxes,USPS COLLECTION BOX - BLUE BOX,4902 SOUTHLAND AVE,ALEXANDRIA,VA,,US,,,,United States Postal Service,Q668687
2231200015,usps_collection_boxes,USPS COLLECTION BOX - BLUE BOX,6491 FRENCHMENS DR,ALEXANDRIA,VA,,US,,,,United States Postal Service,Q668687
2231200038,usps_collection_boxes,USPS COLLECTION BOX - BLUE BOX,1225 N CHAMBLISS ST,ALEXANDRIA,VA,,US,,,,United States Postal Service,Q668687
2231200006,usps_collection_boxes,USPS COLLECTION BOX - BLUE BOX,5655 GENERAL WASHINGTON DR,ALEXANDRIA,VA,,US,,,,United States Postal Service,Q668687
2231200046,usps_collection_boxes,USPS COLLECTION BOX - BLUE BOX,6137 LINCOLNIA RD,ALEXANDRIA,VA,,US,,,,United States Postal Service,Q668687
2231200048,usps_collection_boxes,USPS COLLECTION BOX - BLUE BOX,6137 LINCOLNIA RD,ALEXANDRIA,VA,,US,,,,United States Postal Service,Q668687
2231200001,usps_collection_boxes,USPS COLLECTION BOX - BLUE BOX,4609 PINECREST OFFICE PARK DR,ALEXANDRIA,VA,,US,,,,United States Postal Service,Q668687
2231200036,usps_collection_boxes,USPS COLLECTION BOX - BLUE BOX,6222 YOSEMITE DR,ALEXANDRIA,VA,,US,,,,United States Postal Service,Q668687
2231200011,usps_collection_boxes,USPS COLLECTION BOX - BLUE BOX,6464 LINCOLNIA RD,ALEXANDRIA,VA,,US,,,,United States Postal Service,Q668687
,visa,,,ALEXANDRIA,VA,,US,,,,,
,visa,,,ALEXANDRIA,VA,,US,,,,,
,visa,,,ALEXANDRIA,VA,,US,,,,,
,visa,,,ALEXANDRIA,VA,,US,,,,,
,visa,,,ALEXANDRIA,VA,,US,,,,,
,visa,,,ALEXANDRIA,VA,,US,,,,,
,visa,,,ALEXANDRIA,VA,,US,,,,,
,visa,,,ALEXANDRIA,VA,,US,,,,,
,visa,,,ALEXANDRIA,VA,,US,,,,,
,visa,,,ALEXANDRIA,VA,,US,,,,,
,visa,,,ALEXANDRIA,VA,,US,,,,,
,visa,,,ALEXANDRIA,VA,,US,,,,,
,visa,,,ALEXANDRIA,VA,,US,,,,,
,visa,,,ALEXANDRIA,VA,,US,,,,,
,visa,,,ALEXANDRIA,VA,,US,,,,,
,visa,,,ALEXANDRIA,VA,,US,,,,,
,visa,,,ALEXANDRIA,VA,,US,,,,,
,visa,,,ALEXANDRIA,VA,,US,,,,,
,visa,,,ALEXANDRIA,VA,,US,,,,,
,visa,,,ALEXANDRIA,VA,,US,,,,,
,visa,,,ALEXANDRIA,VA,,US,,,,,
,visa,,,ALEXANDRIA,VA,,US,,,,,
,visa,,,SPRINGFIELD,VA,,US,,,,,
,visa,,,ALEXANDRIA,VA,,US,,,,,
,visa,,,ALEXANDRIA,VA,,US,,,,,
,visa,,,ALEXANDRIA,VA,,US,,,,,
,visa,,,ALEXANDRIA,VA,,US,,,,,
,visa,,,ALEXANDRIA,VA,,US,,,,,
,visa,,,ALEXANDRIA,VA,,US,,,,,
,visa,,,ALEXANDRIA,VA,,US,,,,,
,visa,,,ALEXANDRIA,VA,,US,,,,,
,visa,,,ALEXANDRIA,VA,,US,,,,,
,visa,,,ALEXANDRIA,VA,,US,,,,,
,visa,,,ALEXANDRIA,VA,,US,,,,,
,visa,,,ALEXANDRIA,VA,,US,,,,,
,visa,,,ALEXANDRIA,VA,,US,,,,,
,visa,,,ALEXANDRIA,VA,,US,,,,,
6565__LITTLE__RIVER__TPKE_ALEXANDRIA_VA_22312,wellsfargo,Wells Fargo,6565 LITTLE RIVER TPKE,ALEXANDRIA,VA,,US,+1 703-739-3519,https://www.wellsfargo.com/locator/bank/6565__LITTLE__RIVER__TPKE_ALEXANDRIA_VA_22312/,Mo-Fr 09:00-17:00,Wells Fargo,Q744149
402d253c10430abd9df17d30be38dc47,western_union,ALEYDA FASHION LLC,,Alexandria,VA,,US,+1 571-378-1744,https://location.westernunion.com/us/va/alexandria/402d253c10430abd9df17d30be38dc47,Mo-Su 08:00-21:00,Western Union,Q861042
d62ace1a3e897bac69fdc0ef7b0fc38e,western_union,E & C #2245,,Alexandria,VA,,US,+1 703-256-4534,https://location.westernunion.com/us/va/alexandria/d62ace1a3e897bac69fdc0ef7b0fc38e,Mo-Su 08:00-20:00,Western Union,Q861042
