Ref,Spider,Name,Address,City,State,Zipcode,Country,Phone,Website,Hours,Brand,WikiData
e63429c3761db0a981e4806a63cc185e,western_union,NASAMAZA  JOLI BEZAE- KAMEMBE,,Kamembe,WESTERN PROVINCE,,RW,+250 787 189 057,https://location.westernunion.com/rw/western-province/kamembe/e63429c3761db0a981e4806a63cc185e,Mo-Su 07:00-20:00,Western Union,Q861042
5bc407f12bf490c86a9a86e055bf53fc,western_union,UOB RUSIZI,,Rusizi,WESTERN PROVINCE,,RW,+250 252 500 160,https://location.westernunion.com/rw/western-province/rusizi/5bc407f12bf490c86a9a86e055bf53fc,Mo-Su 08:00-22:00,Western Union,Q861042
0238956bbdfed6278c0eb65b6aeee31d,western_union,UOB RUSIZI,,Rusizi,WESTERN PROVINCE,,RW,+250 252 500 160,https://location.westernunion.com/rw/western-province/rusizi/0238956bbdfed6278c0eb65b6aeee31d,Mo-Su 08:00-22:00,Western Union,Q861042
e4fbb2ccb2eb11cd5a134147dfb35d28,western_union,UNGUKA BANK RUSIZI,,Rusizi,WESTERN PROVINCE,,RW,+250 788 875 218,https://location.westernunion.com/rw/western-province/rusizi/e4fbb2ccb2eb11cd5a134147dfb35d28,Mo-Su 08:00-20:00,Western Union,Q861042
6cbdf1124f85c1b4ee190cb1300a635d,western_union,UNGUKA BANK RUSIZI,,Rusizi,WESTERN PROVINCE,,RW,+250 788 875 218,https://location.westernunion.com/rw/western-province/rusizi/6cbdf1124f85c1b4ee190cb1300a635d,Mo-Su 08:00-20:00,Western Union,Q861042
8c68285c46b4acb21eb894b1d9cca9dd,western_union,ERIC UWAMAHORO,,Karongi,WESTERN PROVINCE,,RW,+250 787 856 007,https://location.westernunion.com/rw/western-province/karongi/8c68285c46b4acb21eb894b1d9cca9dd,Mo-Su 07:00-20:00,Western Union,Q861042
0c9217637c56f586aaa4d9cd0dc5d20c,western_union,AUGUSTIN RWAGIRAMUNGU -KARONGI,,Karongi,WESTERN PROVINCE,,RW,+250 788 818 442,https://location.westernunion.com/rw/western-province/karongi/0c9217637c56f586aaa4d9cd0dc5d20c,Mo-Su 07:00-20:00,Western Union,Q861042
566f998dcfe51f5f709554542cd1c785,western_union,AUGUSTIN RWAGIRAMUNGU -KARONGI,,Karongi,WESTERN PROVINCE,,RW,+250 788 818 442,https://location.westernunion.com/rw/western-province/karongi/566f998dcfe51f5f709554542cd1c785,Mo-Su 07:00-20:00,Western Union,Q861042
4b0ad638a846fcb4ec5ff0a8cbd67910,western_union,KARAMBE COMPANY  LTD,,Karongi,WESTERN PROVINCE,,RW,+250 788 864 452,https://location.westernunion.com/rw/western-province/karongi/4b0ad638a846fcb4ec5ff0a8cbd67910,Mo-Su 07:00-20:00,Western Union,Q861042
23b3434480483c475d8a910c0e4c4e7c,western_union,GASABATO BUSINESS COMPANY LTD,,Karongi,WESTERN PROVINCE,,RW,+250 725 754 431,https://location.westernunion.com/rw/western-province/karongi/23b3434480483c475d8a910c0e4c4e7c,Mo-Su 07:00-20:00,Western Union,Q861042
3af03e3d5db7b910017b656ad62588b3,western_union,KARAMBE COMPANY  LTD,,Karongi,WESTERN PROVINCE,,RW,+250 788 864 452,https://location.westernunion.com/rw/western-province/karongi/3af03e3d5db7b910017b656ad62588b3,Mo-Su 07:00-20:00,Western Union,Q861042
b9b15d29e68dcf98fb3719d0dfc8545f,western_union,GASABATO BUSINESS COMPANY  LTD,,Karongi,WESTERN PROVINCE,,RW,+250 725 754 431,https://location.westernunion.com/rw/western-province/karongi/b9b15d29e68dcf98fb3719d0dfc8545f,Mo-Su 07:00-20:00,Western Union,Q861042
d4d4e33f03ddbcf49301f85541b73189,western_union,HABIPATRICK  LTD,,Karongi,WESTERN PROVINCE,,RW,+250 788 694 533,https://location.westernunion.com/rw/western-province/karongi/d4d4e33f03ddbcf49301f85541b73189,Mo-Su 07:00-20:00,Western Union,Q861042
b76f0936f4ba8a4923b06d0988ddc088,western_union,EQUITY BANK RUSIZI BRANCH,,Rusizi,WESTERN PROVINCE,,RW,+250 788 314 997,https://location.westernunion.com/rw/western-province/rusizi/b76f0936f4ba8a4923b06d0988ddc088,Mo-Fr 08:00-20:00; Sa 08:00-17:00,Western Union,Q861042
b7164247c0649e6e8da03865974b5277,western_union,EQUITY BANK RUSIZI BRANCH,,Rusizi,WESTERN PROVINCE,,RW,+250 788 314 997,https://location.westernunion.com/rw/western-province/rusizi/b7164247c0649e6e8da03865974b5277,Mo-Fr 08:00-20:00; Sa 08:00-17:00,Western Union,Q861042
e3e7927c805a1be0dc469db989046419,western_union,BANK OF AFRICA RUSIZI,,Cyangugu,WESTERN PROVINCE,,RW,(+250) 59-3154,https://location.westernunion.com/rw/western-province/cyangugu/e3e7927c805a1be0dc469db989046419,Mo-Su 08:00-20:00,Western Union,Q861042
62c0f4603dbaf948e1dcd74484e38364,western_union,BANK OF AFRICA RUSIZI,,Cyangugu,WESTERN PROVINCE,,RW,(+250) 59-3154,https://location.westernunion.com/rw/western-province/cyangugu/62c0f4603dbaf948e1dcd74484e38364,Mo-Su 08:00-20:00,Western Union,Q861042
151aa6cfbc8e3dad2e87b9ee1d8f621a,western_union,HAC COMPANY LTD,,Rusizi,WESTERN PROVINCE,,RW,+250 788 295 858,https://location.westernunion.com/rw/western-province/rusizi/151aa6cfbc8e3dad2e87b9ee1d8f621a,Mo-Su 07:00-20:00,Western Union,Q861042
dea49ac0f4e4b46c57f0e754f3279af0,western_union,UKURI&FAIR LTD,,Nyamasheke,WESTERN PROVINCE,,RW,+250 788 774 148,https://location.westernunion.com/rw/western-province/nyamasheke/dea49ac0f4e4b46c57f0e754f3279af0,Mo-Su 07:00-20:00,Western Union,Q861042
4c6bf33e8ee1c05a8f170800e608c436,western_union,NGORORERO BRANCH,,Ngororero,WESTERN PROVINCE,,RW,+250 252 593 154,https://location.westernunion.com/rw/western-province/ngororero/4c6bf33e8ee1c05a8f170800e608c436,Mo-Fr 08:00-20:00; Sa 08:00-18:00; Su 09:00-16:00,Western Union,Q861042
858bd3d0a5ee50da8643f2a56506d096,western_union,NGORORERO BRANCH,,Ngororero,WESTERN PROVINCE,,RW,+250 252 593 154,https://location.westernunion.com/rw/western-province/ngororero/858bd3d0a5ee50da8643f2a56506d096,Mo-Fr 08:00-20:00; Sa 08:00-18:00; Su 09:00-16:00,Western Union,Q861042
6f47481b564462bc5474f29d4444e04a,western_union,ERIC SENGABIRE,,Rusizi,WESTERN PROVINCE,,RW,+250 785 164 591,https://location.westernunion.com/rw/western-province/rusizi/6f47481b564462bc5474f29d4444e04a,Mo-Su 07:00-20:00,Western Union,Q861042
bb57d4bca87793395b5dda43cfa12d6d,western_union,ERIC SENGABIRE,,Rusizi,WESTERN PROVINCE,,RW,+250 785 164 591,https://location.westernunion.com/rw/western-province/rusizi/bb57d4bca87793395b5dda43cfa12d6d,Mo-Su 07:00-20:00,Western Union,Q861042
370f76a194137c55a96ee6b2a36ea428,western_union,BANQUE POP MUBUGA,,Karongi,WESTERN PROVINCE,,RW,+250 788 505 656,https://location.westernunion.com/rw/western-province/karongi/370f76a194137c55a96ee6b2a36ea428,Mo-Su 07:00-22:00,Western Union,Q861042
a2dca4952bf1cbffdcf1922d49e6c7d0,western_union,BANQUE POP MUBUGA,,Karongi,WESTERN PROVINCE,,RW,+250 788 505 656,https://location.westernunion.com/rw/western-province/karongi/a2dca4952bf1cbffdcf1922d49e6c7d0,Mo-Su 07:00-22:00,Western Union,Q861042
b858e2f3fdb04cf421ef3838cbaabbe6,western_union,EMMANUEL KWIZERA,,Nyamasheke,WESTERN PROVINCE,,RW,+250 788 501 951,https://location.westernunion.com/rw/western-province/nyamasheke/b858e2f3fdb04cf421ef3838cbaabbe6,Mo-Su 07:00-20:00,Western Union,Q861042
62e24b942814bef3fcaa3e323c666648,western_union,EMMANUEL KWIZERA,,Nyamasheke,WESTERN PROVINCE,,RW,+250 788 501 951,https://location.westernunion.com/rw/western-province/nyamasheke/62e24b942814bef3fcaa3e323c666648,Mo-Su 07:00-20:00,Western Union,Q861042
381bd350170976bf91b5a2fee9b4420e,western_union,AGENCY WORK LTD,,Karongi,WESTERN PROVINCE,,RW,+250 787 023 188,https://location.westernunion.com/rw/western-province/karongi/381bd350170976bf91b5a2fee9b4420e,Mo-Su 07:00-20:00,Western Union,Q861042
b9516c56688db64471a7fdb4b875afa3,western_union,HATEGEKIMANA UZABAKIRIHO,,Rutsiro,WESTERN PROVINCE,,RW,+250 786 180 931,https://location.westernunion.com/rw/western-province/rutsiro/b9516c56688db64471a7fdb4b875afa3,Mo-Su 07:00-20:00,Western Union,Q861042
0ee72ece7162197ed7bc08b6524cf249,western_union,KARONGI BRANCH,,Karongi,WESTERN PROVINCE,,RW,+250 252 593 100,https://location.westernunion.com/rw/western-province/karongi/0ee72ece7162197ed7bc08b6524cf249,Mo-Su 08:00-18:00,Western Union,Q861042
fd58b956db780f5b769f4e6f7cef9f82,western_union,KARONGI BRANCH,,Karongi,WESTERN PROVINCE,,RW,+250 252 593 100,https://location.westernunion.com/rw/western-province/karongi/fd58b956db780f5b769f4e6f7cef9f82,Mo-Su 08:00-18:00,Western Union,Q861042
87207c8b9d0c24bf892773cae5c8e666,western_union,VUGANEZA PASCAL,,Karongi,WESTERN PROVINCE,,RW,+250 787 635 690,https://location.westernunion.com/rw/western-province/karongi/87207c8b9d0c24bf892773cae5c8e666,Mo-Su 07:00-20:00,Western Union,Q861042
8816e7b0210c1a5cfb18973d0f70f871,western_union,NZITONDA   BIGATI,,Rubavu,WESTERN PROVINCE,,RW,(+250) 78880119,https://location.westernunion.com/rw/western-province/rubavu/8816e7b0210c1a5cfb18973d0f70f871,Mo-Su 07:00-20:00,Western Union,Q861042
5a1d69c1c136259786332e47bf899f90,western_union,ERIC SAFARI,,Rubavu,WESTERN PROVINCE,,RW,+250 786 290 798,https://location.westernunion.com/rw/western-province/rubavu/5a1d69c1c136259786332e47bf899f90,Mo-Su 07:00-20:00,Western Union,Q861042
d1f757391195db4cf947bd364b5a2a67,western_union,NZITONDA   BIGATI,,Rubavu,WESTERN PROVINCE,,RW,(+250) 78880119,https://location.westernunion.com/rw/western-province/rubavu/d1f757391195db4cf947bd364b5a2a67,Mo-Su 07:00-20:00,Western Union,Q861042
992c376dd1fa593178d6951a443d681d,western_union,WIDE BUSINESS INVESTMENT AND C,,Rubavu,WESTERN PROVINCE,,RW,+250 788 830 376,https://location.westernunion.com/rw/western-province/rubavu/992c376dd1fa593178d6951a443d681d,Mo-Su 07:00-20:00,Western Union,Q861042
1a1b7b4175ed6717fd0aa4c726256602,western_union,NIYITEGEKA AIMABLE,,Rubavu,WESTERN PROVINCE,,RW,+250 788 346 257,https://location.westernunion.com/rw/western-province/rubavu/1a1b7b4175ed6717fd0aa4c726256602,Mo-Su 07:00-20:00,Western Union,Q861042
f1a51069d050d4f53ff03ba14c8b8b23,western_union,MUSHAMBOKAZI FELICITE,,Rubavu,WESTERN PROVINCE,,RW,+250 788 523 024,https://location.westernunion.com/rw/western-province/rubavu/f1a51069d050d4f53ff03ba14c8b8b23,Mo-Su 07:00-20:00,Western Union,Q861042
75d42de5d5988f8377fbaa1ba44a848e,western_union,NIYITEGEKA AIMABLE,,Rubavu,WESTERN PROVINCE,,RW,+250 788 346 257,https://location.westernunion.com/rw/western-province/rubavu/75d42de5d5988f8377fbaa1ba44a848e,Mo-Su 07:00-20:00,Western Union,Q861042
8fe8e91600f24802e80544f783d6adb6,western_union,RUGAGAZA  ERIC  NSHIMIYE,,Rubavu,WESTERN PROVINCE,,RW,+250 791 750 147,https://location.westernunion.com/rw/western-province/rubavu/8fe8e91600f24802e80544f783d6adb6,Mo-Su 07:00-20:00,Western Union,Q861042
41785c31d77643d83feadc6b4738d4fa,western_union,RUGAGAZA  ERIC  NSHIMIYE,,Rubavu,WESTERN PROVINCE,,RW,+250 791 750 147,https://location.westernunion.com/rw/western-province/rubavu/41785c31d77643d83feadc6b4738d4fa,Mo-Su 07:00-20:00,Western Union,Q861042
6231b6204e6a7391accdea197a25e080,western_union,CATHERINE UWINEZA,,Rubavu,WESTERN PROVINCE,,RW,+250 788 507 710,https://location.westernunion.com/rw/western-province/rubavu/6231b6204e6a7391accdea197a25e080,Mo-Su 07:00-20:00,Western Union,Q861042
3f3fbc12be9f41d80056612693280f6e,western_union,NAPHTAL TUYIHIMBAZE,,Rubavu,WESTERN PROVINCE,,RW,+250 788 618 521,https://location.westernunion.com/rw/western-province/rubavu/3f3fbc12be9f41d80056612693280f6e,Mo-Su 07:00-20:00,Western Union,Q861042
6d5159abc69685f35422afda5b97be17,western_union,MUKAKALISA VESTINE,,Rubavu,WESTERN PROVINCE,,RW,+250 782 867 767,https://location.westernunion.com/rw/western-province/rubavu/6d5159abc69685f35422afda5b97be17,Mo-Su 07:00-20:00,Western Union,Q861042
7e2cd01fbf842e27d8c5dd944923d5bf,western_union,MUKAKALISA VESTINE,,Rubavu,WESTERN PROVINCE,,RW,+250 782 867 767,https://location.westernunion.com/rw/western-province/rubavu/7e2cd01fbf842e27d8c5dd944923d5bf,Mo-Su 07:00-20:00,Western Union,Q861042
dcc909ca034dbff42279097554830936,western_union,BANQUE POP GAKERI,,Gisenyi,WESTERN PROVINCE,,RW,+250 788 187 200,https://location.westernunion.com/rw/western-province/gisenyi/dcc909ca034dbff42279097554830936,Mo-Su 07:00-22:00,Western Union,Q861042
843443f612d20c6f37d40455009651df,western_union,PATRICK NIZEYIMANA,,Rubavu,WESTERN PROVINCE,,RW,+250 788 952 200,https://location.westernunion.com/rw/western-province/rubavu/843443f612d20c6f37d40455009651df,Mo-Su 07:00-20:00,Western Union,Q861042
80ec587b3862f1f40eaf28b62f0385dc,western_union,PATRICK NIZEYIMANA,,Rubavu,WESTERN PROVINCE,,RW,+250 788 952 200,https://location.westernunion.com/rw/western-province/rubavu/80ec587b3862f1f40eaf28b62f0385dc,Mo-Su 07:00-20:00,Western Union,Q861042
2ecbe263813cb63a28bf7d2f1a415b4b,western_union,STAR AFRICAN BUSINESS&TECHNOLOGY LTD,,Rubavu,WESTERN PROVINCE,,RW,+250 783 668 809,https://location.westernunion.com/rw/western-province/rubavu/2ecbe263813cb63a28bf7d2f1a415b4b,Mo-Su 08:00-20:00,Western Union,Q861042
547bdc734c819c557553a08bc348b203,western_union,STAR AFRICAN BUSINESS&TECHNOLOGY LTD,,Rubavu,WESTERN PROVINCE,,RW,+250 783 668 809,https://location.westernunion.com/rw/western-province/rubavu/547bdc734c819c557553a08bc348b203,Mo-Su 08:00-20:00,Western Union,Q861042
6b4e94f690bf91d4ec86300ecba9cfe6,western_union,BK RUBAVU MAIN BRANCH,,Gisenyi,WESTERN PROVINCE,,RW,(+250) 593154,https://location.westernunion.com/rw/western-province/gisenyi/6b4e94f690bf91d4ec86300ecba9cfe6,Mo-Fr 08:00-20:00; Sa 08:00-16:00; Su 08:00-19:00,Western Union,Q861042
d0211a863baab87faf1eb730cee6ac10,western_union,TUYISHIME YVETTE,,Rubavu,WESTERN PROVINCE,,RW,+250 784 025 810,https://location.westernunion.com/rw/western-province/rubavu/d0211a863baab87faf1eb730cee6ac10,Mo-Su 07:00-20:00,Western Union,Q861042
2c626f8f3d34ff0199ac6cb279e30ee1,western_union,BK KORA BRANCH,,Rubavu,WESTERN PROVINCE,,RW,+250 788 143 032,https://location.westernunion.com/rw/western-province/rubavu/2c626f8f3d34ff0199ac6cb279e30ee1,Mo-Fr 07:30-20:00; Sa 09:00-15:00; Su 11:30-20:00,Western Union,Q861042
f872fa8ee95032940280cfd161169ce2,western_union,BK KORA BRANCH,,Rubavu,WESTERN PROVINCE,,RW,+250 788 143 032,https://location.westernunion.com/rw/western-province/rubavu/f872fa8ee95032940280cfd161169ce2,Mo-Fr 07:30-20:00; Sa 09:00-15:00; Su 11:30-20:00,Western Union,Q861042
9d7822bbad5b1d49805e9bf6682c7760,western_union,NAPHTAL TUYIHIMBAZE,,Rubavu,WESTERN PROVINCE,,RW,+250 788 618 521,https://location.westernunion.com/rw/western-province/rubavu/9d7822bbad5b1d49805e9bf6682c7760,Mo-Su 07:00-20:00,Western Union,Q861042
23b7771f37305fe12f696fd7686cb5f4,western_union,CATHERINE UWINEZA,,Rubavu,WESTERN PROVINCE,,RW,+250 788 507 710,https://location.westernunion.com/rw/western-province/rubavu/23b7771f37305fe12f696fd7686cb5f4,Mo-Su 07:00-20:00,Western Union,Q861042
4a77f97a3ab7cecdae78dbfdedc4d7da,western_union,LOUAN CENTER LTD,,Rubavu,WESTERN PROVINCE,,RW,+250 784 289 407,https://location.westernunion.com/rw/western-province/rubavu/4a77f97a3ab7cecdae78dbfdedc4d7da,Mo-Su 07:00-20:00,Western Union,Q861042
57f94927fa73bc1b3a8ecf5882230fa0,western_union,RUTH UMUTESI,,Rubavu,WESTERN PROVINCE,,RW,+250 789 084 462,https://location.westernunion.com/rw/western-province/rubavu/57f94927fa73bc1b3a8ecf5882230fa0,Mo-Su 07:00-20:00,Western Union,Q861042
ce6553948b09ae5697b6a04ac8860fda,western_union,RUTH UMUTESI,,Rubavu,WESTERN PROVINCE,,RW,+250 789 084 462,https://location.westernunion.com/rw/western-province/rubavu/ce6553948b09ae5697b6a04ac8860fda,Mo-Su 07:00-20:00,Western Union,Q861042
c016276be8ab69491eba2b8225f99bbe,western_union,MAHOKO BRANCH,,Rubavu,WESTERN PROVINCE,,RW,+250 788 422 554,https://location.westernunion.com/rw/western-province/rubavu/c016276be8ab69491eba2b8225f99bbe,Mo-Su 08:00-22:00,Western Union,Q861042
ee51ab63024662df85a5099ec206f94f,western_union,BANQUE POP KABAYA,,Rubavu,WESTERN PROVINCE,,RW,+250 252 573 579,https://location.westernunion.com/rw/western-province/rubavu/ee51ab63024662df85a5099ec206f94f,Mo-Su 07:00-22:00,Western Union,Q861042
0175f419300fe25e7ca2a100cedc9006,western_union,ERIC NSHIMIYE RUGAGAZA,,Rubavu,WESTERN PROVINCE,,RW,+250 790 004 625,https://location.westernunion.com/rw/western-province/rubavu/0175f419300fe25e7ca2a100cedc9006,Mo-Su 08:00-20:00,Western Union,Q861042
4e7df8146b2adad6ac747b0be4f89543,western_union,ERIC NSHIMIYE RUGAGAZA,,Rubavu,WESTERN PROVINCE,,RW,+250 790 004 625,https://location.westernunion.com/rw/western-province/rubavu/4e7df8146b2adad6ac747b0be4f89543,Mo-Su 08:00-20:00,Western Union,Q861042
26cb2f355e085a97bc29d354d4966648,western_union,UNGUKA MAHOKA,,Rubavu,WESTERN PROVINCE,,RW,+250 782 000 000,https://location.westernunion.com/rw/western-province/rubavu/26cb2f355e085a97bc29d354d4966648,Mo-Su 08:00-21:00,Western Union,Q861042
7e66c49799ab81bf4437ee476250ad1b,western_union,UNGUKA MAHOKA,,Rubavu,WESTERN PROVINCE,,RW,+250 782 000 000,https://location.westernunion.com/rw/western-province/rubavu/7e66c49799ab81bf4437ee476250ad1b,Mo-Su 08:00-21:00,Western Union,Q861042
b4e2d835db7a24aa00578a847d30b517,western_union,GISENYI TOWN BRANCH BK,,Rubavu,WESTERN PROVINCE,,RW,(+250) 59-3154,https://location.westernunion.com/rw/western-province/rubavu/b4e2d835db7a24aa00578a847d30b517,Mo-Fr 08:00-18:00; Sa-Su 08:00-17:00,Western Union,Q861042
a91ef8c7c118878b626521c2348195bf,western_union,GISENYI TOWN BRANCH BK,,Rubavu,WESTERN PROVINCE,,RW,(+250) 59-3154,https://location.westernunion.com/rw/western-province/rubavu/a91ef8c7c118878b626521c2348195bf,Mo-Fr 08:00-18:00; Sa-Su 08:00-17:00,Western Union,Q861042
1f42049f198269c0436438104b0b3272,western_union,OLIVIER TWIZERIMANA,,Rubavu,WESTERN PROVINCE,,RW,+250 788 728 446,https://location.westernunion.com/rw/western-province/rubavu/1f42049f198269c0436438104b0b3272,Mo-Su 08:00-20:00,Western Union,Q861042
5863ed401a7e7e51f37fbf23ca2e3007,western_union,ACCESS BANK RWANDA GISENYI BRANCH,,Gisenyi,WESTERN PROVINCE,,RW,+250 252 540 120,https://location.westernunion.com/rw/western-province/gisenyi/5863ed401a7e7e51f37fbf23ca2e3007,Mo-Fr 08:00-20:30; Sa 09:00-16:00; Su 08:00-20:30,Western Union,Q861042
2b91e6f648a0faa0cbaeb2c5f133a89b,western_union,ACCESS BANK RWANDA GISENYI BRANCH,,Gisenyi,WESTERN PROVINCE,,RW,+250 252 540 120,https://location.westernunion.com/rw/western-province/gisenyi/2b91e6f648a0faa0cbaeb2c5f133a89b,Mo-Fr 08:00-20:30; Sa 09:00-16:00; Su 08:00-20:30,Western Union,Q861042
5c9739bec54736e5f9ebc97d9a0fae67,western_union,ITECH LINK LTD,,Rubavu,WESTERN PROVINCE,,RW,+250 788 700 718,https://location.westernunion.com/rw/western-province/rubavu/5c9739bec54736e5f9ebc97d9a0fae67,Mo-Su 07:00-20:00,Western Union,Q861042
a7fac4a7ac055c33ebc8cf54485066f1,western_union,ITECH LINK LTD,,Rubavu,WESTERN PROVINCE,,RW,+250 788 700 718,https://location.westernunion.com/rw/western-province/rubavu/a7fac4a7ac055c33ebc8cf54485066f1,Mo-Su 07:00-20:00,Western Union,Q861042
7d891ca39e399517cd5c552c7038ce87,western_union,HABIYAMBERE JULES,,Rubavu,WESTERN PROVINCE,,RW,+250 788 615 235,https://location.westernunion.com/rw/western-province/rubavu/7d891ca39e399517cd5c552c7038ce87,Mo-Su 07:00-20:00,Western Union,Q861042
b3f256b3a5e72dccce3bd6651d803b72,western_union,WIDE BUSINESS INVESTMENT AND C,,Rubavu,WESTERN PROVINCE,,RW,+250 788 830 376,https://location.westernunion.com/rw/western-province/rubavu/b3f256b3a5e72dccce3bd6651d803b72,Mo-Su 07:00-20:00,Western Union,Q861042
cf6cefb2c33ac35276cf9b6e0af033a0,western_union,UWIMANA JOYCE,,Rubavu,WESTERN PROVINCE,,RW,+250 786 511 988,https://location.westernunion.com/rw/western-province/rubavu/cf6cefb2c33ac35276cf9b6e0af033a0,Mo-Su 07:00-20:00,Western Union,Q861042
edede08b1c4e4d0f0f98584c4cb42696,western_union,UWIMANA JOYCE,,Rubavu,WESTERN PROVINCE,,RW,+250 786 511 988,https://location.westernunion.com/rw/western-province/rubavu/edede08b1c4e4d0f0f98584c4cb42696,Mo-Su 07:00-20:00,Western Union,Q861042
3092222b6912cc0475a50de123da41ab,western_union,BK LA CORNICHE BRANCH,,Rubavu,WESTERN PROVINCE,,RW,+250 788 143 000,https://location.westernunion.com/rw/western-province/rubavu/3092222b6912cc0475a50de123da41ab,Mo-Su 06:00-22:00,Western Union,Q861042
59c1ebc460fb7d57c9358501ec02a069,western_union,RACHEL E BUSINESS LTD,,Gisenyi,WESTERN PROVINCE,,RW,+250 786 463 604,https://location.westernunion.com/rw/western-province/gisenyi/59c1ebc460fb7d57c9358501ec02a069,Mo-Su 08:00-20:00,Western Union,Q861042
055c78c3b0afefa63f8daee01559649c,western_union,REAGAN MUSORE,,Rubavu,WESTERN PROVINCE,,RW,+250 782 984 112,https://location.westernunion.com/rw/western-province/rubavu/055c78c3b0afefa63f8daee01559649c,Mo-Su 07:00-20:00,Western Union,Q861042
b3042daa7b786fc36721bffe7cd16ad1,western_union,REAGAN MUSORE,,Rubavu,WESTERN PROVINCE,,RW,+250 782 984 112,https://location.westernunion.com/rw/western-province/rubavu/b3042daa7b786fc36721bffe7cd16ad1,Mo-Su 07:00-20:00,Western Union,Q861042
582db0cf5e2284a990da679b2df625a9,western_union,NSHIMIYE RUGAGAZA ERIC,,Kiglai,WESTERN PROVINCE,,RW,+250 787 787 940,https://location.westernunion.com/rw/western-province/kiglai/582db0cf5e2284a990da679b2df625a9,Mo-Su 08:00-20:00,Western Union,Q861042
7879c000e61e2c68cdf16d6dbf0719cd,western_union,BANQUE POP BIGOGWE,,Gisenyi,WESTERN PROVINCE,,RW,+250 788 187 200,https://location.westernunion.com/rw/western-province/gisenyi/7879c000e61e2c68cdf16d6dbf0719cd,Mo-Su 07:00-22:00,Western Union,Q861042
8ed7690ad7c49fee263949b00c788dd7,western_union,BANQUE POP BIGOGWE,,Gisenyi,WESTERN PROVINCE,,RW,+250 788 187 200,https://location.westernunion.com/rw/western-province/gisenyi/8ed7690ad7c49fee263949b00c788dd7,Mo-Su 07:00-22:00,Western Union,Q861042
3ef92c06d49b0e3f05e8c95eed0d37dc,western_union,UOB RUBAVU BRANCH,,Gisenyi,WESTERN PROVINCE,,RW,+250 788 568 097,https://location.westernunion.com/rw/western-province/gisenyi/3ef92c06d49b0e3f05e8c95eed0d37dc,Mo-Su 08:00-22:00,Western Union,Q861042
2ba67e8fedc9f747cbbbc1e02ad60209,western_union,UOB RUBAVU BRANCH,,Gisenyi,WESTERN PROVINCE,,RW,+250 788 568 097,https://location.westernunion.com/rw/western-province/gisenyi/2ba67e8fedc9f747cbbbc1e02ad60209,Mo-Su 08:00-22:00,Western Union,Q861042
