Ref,Spider,Name,Address,City,State,Zipcode,Country,Phone,Website,Hours,Brand,WikiData
155,abc_pl,abc,,Kurowice,dolnośląskie,,PL,,,,abc,Q11683985
136,abc_pl,abc,,Serby,dolnośląskie,,PL,,,,abc,Q11683985
10613,abc_pl,abc,,Przedmoście,dolnośląskie,,PL,,,,abc,Q11683985
4675,abc_pl,abc,,Borek,dolnośląskie,,PL,,,,abc,Q11683985
8998,groszek_pl,Groszek,,Przedmoście,dolnośląskie,,PL,,,,Groszek,Q9280965
GLO01HO,paczkomat_inpost_pl,Po lewej stronie wewnętrznego wejścia do Stokrotki,,Głogów,dolnośląskie,,PL,,https://inpost.pl/paczkomat-glogow-glo01ho-jednosci-robotniczej-paczkomaty-dolnoslaskie,Mo-Sa 06:30-21:00,Paczkomat,Q110970254
GLO13M,paczkomat_inpost_pl,Przy placu zabaw.,,Głogów,dolnośląskie,,PL,,https://inpost.pl/paczkomat-glogow-glo13m-boleslawa-smialego-paczkomaty-dolnoslaskie,24/7,Paczkomat,Q110970254
GLO18M,paczkomat_inpost_pl,Przy markecie PSS Społem.,,Głogów,dolnośląskie,,PL,,https://inpost.pl/paczkomat-glogow-glo18m-obroncow-pokoju-paczkomaty-dolnoslaskie,24/7,Paczkomat,Q110970254
JAC02M,paczkomat_inpost_pl,Po prawej stronie od sceny plenerowej.,,Jaczów,dolnośląskie,,PL,,https://inpost.pl/paczkomat-jaczow-jac02m-glowna-paczkomaty-dolnoslaskie,24/7,Paczkomat,Q110970254
POP-GLO16,paczkomat_inpost_pl,STACJA CIRCLE K,,Głogów,dolnośląskie,,PL,,https://inpost.pl/paczkomat-glogow-pop-glo16-aleje-wolnosci-paczkomaty-dolnoslaskie,Mo-Su 08:00-18:00,Paczkomat,Q110970254
POP-GLO17,paczkomat_inpost_pl,KIOSK GŁOGÓW,,Głogów,dolnośląskie,,PL,,https://inpost.pl/paczkomat-glogow-pop-glo17-gwiazdzista-paczkomaty-dolnoslaskie,Mo-Fr 06:00-18:00; Sa 07:00-12:00,Paczkomat,Q110970254
POP-GLO21,paczkomat_inpost_pl,HAPPY PACK - TELEFONIK,,Głogów,dolnośląskie,,PL,,https://inpost.pl/paczkomat-glogow-pop-glo21-obroncow-pokoju-paczkomaty-dolnoslaskie,Mo-Fr 10:00-18:00; Sa 10:00-15:00,Paczkomat,Q110970254
PZM01M,paczkomat_inpost_pl,Przy wejściu do sklepu Groszek.,,Przedmoście,dolnośląskie,,PL,,https://inpost.pl/paczkomat-przedmoscie-pzm01m-dluga-paczkomaty-dolnoslaskie,24/7,Paczkomat,Q110970254
SEB01M,paczkomat_inpost_pl,Przy stacji paliw.,,Serby,dolnośląskie,,PL,,https://inpost.pl/paczkomat-serby-seb01m-glowna-paczkomaty-dolnoslaskie,24/7,Paczkomat,Q110970254
SEB01N,paczkomat_inpost_pl,Po prawej stronie od wejścia do sklepu.,,Serby,dolnośląskie,,PL,,https://inpost.pl/paczkomat-serby-seb01n-glowna-paczkomaty-dolnoslaskie,24/7,Paczkomat,Q110970254
101,play_pl,Salon Play,Ul. Piłsudskiego 19,Głogów,dolnośląskie,,PL,+48 790 030 206,,Mo-Sa 09:00-21:00; Su 10:00-20:00,Play,Q7202998
240136,poczta_polska_pl,UP Głogów 2,,Głogów,DOLNOŚLĄSKIE,,PL,+48 76 831 36 05;+48 76 831 36 06,,,Poczta Polska,Q168833
283340,poczta_polska_pl,AP Głogów,,Głogów,DOLNOŚLĄSKIE,,PL,+48 601 456 416,,,Poczta Polska,Q168833
283364,poczta_polska_pl,AP Głogów,,Głogów,DOLNOŚLĄSKIE,,PL,+48 76 833 28 08,,,Poczta Polska,Q168833
560069,poczta_polska_pl,FUP Głogów 2,,Kotla,DOLNOŚLĄSKIE,,PL,+48 76 831 36 20,,,Poczta Polska,Q168833
560395,poczta_polska_pl,FUP Głogów 2,,Żukowice,DOLNOŚLĄSKIE,,PL,+48 76 831 36 21,,,Poczta Polska,Q168833
,visa,,,GŁOGOW,DOLNOŚLĄSKIE,,PL,,,,,
