Ref,Spider,Name,Address,City,State,Zipcode,Country,Phone,Website,Hours,Brand,WikiData
72344192,moneygram,FARMACIAS GUADALAJARA - #1783 - ZAPOPAN,,ZAPOPAN,JA,,MX,+52 800 555 6559,,Mo-Su 08:00-22:00,MoneyGram,Q1944412
73849256,moneygram,COPPEL TRANSMISORES - ZAPOPAN - LA PERLA,,ZAPOPAN,JA,,MX,7594335,,Mo-Su 10:00-20:00,MoneyGram,Q1944412
73947640,moneygram,WALDOS - #6588 - MARIANO OTERO,,ZAPOPAN,JA,,MX,+52 55 5246 0700,,Mo-Su 09:00-21:00,MoneyGram,Q1944412
74010741,moneygram,CADENA COMERCIAL OXXO SA DE CV - #10GUD5,,ZAPOPAN,JA,,MX,5283892121,,Mo-Su 03:00-24:00,MoneyGram,Q1944412
69692022,moneygram,MAXILANA - COPRNICO,,ZAPOPAN,JA,,MX,+52 33 3628 0062,,Mo-Fr 08:45-19:00; Sa 09:00-17:00; Su 09:00-15:00,MoneyGram,Q1944412
69698848,moneygram,MAXILANA - PLAZA DEL SOL,,ZAPOPAN,JA,,MX,+52 33 3121 6680,,Mo-Fr 08:45-19:00; Sa 09:00-17:00; Su 00:00-24:00,MoneyGram,Q1944412
74541375,moneygram,WALDOS - #6410 - PLAZA DEL SOL,,ZAPOPAN,JA,,MX,+52 55 5246 0700,,Mo-Su 09:00-21:00,MoneyGram,Q1944412
74603271,moneygram,CAJA TECOLOTLAN - ZAPOPAN - ZAPOPAN,,ZAPOPAN,JA,,MX,+52 81 2133 2160,,Mo-Fr 09:00-15:00; Sa-Su 00:00-24:00,MoneyGram,Q1944412
71049061,moneygram,FARMACIAS GUADALAJARA - #1783 - ZAPOPAN,,ZAPOPAN,JA,,MX,+52 800 555 6555,,Mo-Su 08:00-22:00,MoneyGram,Q1944412
40743864,moneygram,WAL-MART NINO OBRERO - #3878,,GUADALAJARA,JA,,MX,+52 33 3121 0885,,Mo-Su 08:00-21:00,MoneyGram,Q1944412
41314056,moneygram,BANORTE - #1512 - GDL NINO OBRERO,,ZAPOPAN,JA,,MX,+52 33 3122 1795,,Mo-Fr 09:00-20:00; Sa 09:30-16:30; Su 00:00-24:00,MoneyGram,Q1944412
41286951,moneygram,BANORTE - #313 - GDL PLAZA DEL SOL,,ZAPOPAN,JA,,MX,+52 33 3123 0391,,Mo-Fr 09:00-20:00; Sa 09:30-16:30; Su 00:00-24:00,MoneyGram,Q1944412
45827170,moneygram,SORIANA - #61,,ZAPOPAN,JA,,MX,+52 713 278 5436,,Mo-Su 08:00-22:00,MoneyGram,Q1944412
45831470,moneygram,SORIANA - #312,,ZAPOPAN,JA,,MX,+52 713 278 5436,,Mo-Su 08:00-22:00,MoneyGram,Q1944412
65101753,moneygram,WAL-MART JARDINES DEL SOL - #4012,,ZAPOPAN,JA,,MX,+52 33 3632 2579,,Mo-Su 08:00-21:00,MoneyGram,Q1944412
71269757,moneygram,OXXO - CHIMALHUACAN GDL,,ZAPOPAN,JA,,MX,+52 81 8389 2121,,Mo-Su 03:00-24:00,MoneyGram,Q1944412
71273170,moneygram,OXXO - CIUDAD DEL SOL GDL,,ZAPOPAN,JA,,MX,+52 81 8389 2121,,Mo-Su 03:00-24:00,MoneyGram,Q1944412
71269278,moneygram,OXXO - CLUB DE LEONES GDL,,ZAPOPAN,JA,,MX,+52 81 8389 2121,,Mo-Su 03:00-24:00,MoneyGram,Q1944412
71267526,moneygram,OXXO - DEL SOL GDL,,ZAPOPAN,JA,,MX,+52 81 8389 2121,,Mo-Su 03:00-24:00,MoneyGram,Q1944412
71269692,moneygram,OXXO - HOLIDAY INN GDL,,ZAPOPAN,JA,,MX,+52 81 8389 2121,,Mo-Su 03:00-24:00,MoneyGram,Q1944412
71270445,moneygram,OXXO - JARDINES DEL SOL GDL,,ZAPOPAN,JA,,MX,+52 81 8389 2121,,Mo-Su 03:00-24:00,MoneyGram,Q1944412
71271350,moneygram,OXXO - MIXCOATL GDL,,ZAPOPAN,JA,,MX,+52 81 8389 2121,,Mo-Su 03:00-24:00,MoneyGram,Q1944412
71268774,moneygram,OXXO - PLAZA AZTLAN GDL,,ZAPOPAN,JA,,MX,+52 81 8389 2121,,Mo-Su 03:00-24:00,MoneyGram,Q1944412
71273727,moneygram,OXXO - PLAZADELSOLCENTRAL GDL,,ZAPOPAN,JA,,MX,+52 81 8389 2121,,Mo-Su 03:00-24:00,MoneyGram,Q1944412
71269171,moneygram,OXXO - PMI GDL,,ZAPOPAN,JA,,MX,+52 81 8389 2121,,Mo-Su 03:00-24:00,MoneyGram,Q1944412
71274027,moneygram,OXXO - UNIVA GDL,,ZAPOPAN,JA,,MX,+52 81 8389 2121,,Mo-Su 03:00-24:00,MoneyGram,Q1944412
71275262,moneygram,OXXO - XOCHITL GDL,,ZAPOPAN,JA,,MX,+52 81 8389 2121,,Mo-Su 03:00-24:00,MoneyGram,Q1944412
71767822,moneygram,CADENA COMERCIAL OXXO SA DE CV - #10GUD5,,ZAPOPAN,JA,,MX,+52 81 8389 2121,,Mo-Su 03:00-24:00,MoneyGram,Q1944412
