Ref,Spider,Name,Address,City,State,Zipcode,Country,Phone,Website,Hours,Brand,WikiData
2399,anytime_fitness,Anytime Fitness,,Amarillo,TX,,US,+1 806-372-2000,https://www.anytimefitness.com/gyms/2399/amarillo-tx-79118/,,Anytime Fitness,Q4778364
219139,bluerhino,Dollar General #11828,,AMARILLO,TX,,US,+1 806-680-0604,,,Blue Rhino,Q65681213
219098,bluerhino,Dollar General #11485,,AMARILLO,TX,,US,+1 806-310-7018,,,Blue Rhino,Q65681213
3448,buffalo_wild_wings_us,"Amarillo, TX - I-40 E",,Amarillo,TX,,US,+1 806-335-2204,https://www.buffalowildwings.com/locations/us/tx/amarillo/9511-i-40-east/sports-bar-653,Mo-Su 11:00-02:00,Buffalo Wild Wings,Q509255
56278,citi,ATM First National Bank,,Amarillo,TX,,US,,,,Citibank,Q857063
83617,citi,ATM THE PEOPLES FEDERAL CREDIT UNION,,Amarillo,TX,,US,,,,Citibank,Q857063
56723,citi,ATM FIRST UNITED BANK,,Amarillo,TX,,US,,,,Citibank,Q857063
83628,citi,ATM THE PEOPLES FEDERAL CREDIT UNION,,Amarillo,TX,,US,,,,Citibank,Q857063
70189564,cricket_wireless,Cricket Wireless Authorized Retailer,,Amarillo,TX,,US,+1 806-803-9185,https://www.cricketwireless.com/stores/ll/US/TX/Amarillo/1900-SE-34th-Ave,Mo-Sa 10:00-20:00; Su 12:00-17:00,Cricket Wireless,Q5184987
6997,dominos_pizza_us,Domino's Pizza,,Amarillo,TX,,US,+1 806-641-2414,https://pizza.dominos.com/texas/amarillo/5895-south-georgia-street,Mo-Th 10:30-24:00; Fr-Sa 10:30-01:00; Su 10:30-24:00,Domino's,Q839466
https://local.fedex.com/#25228883,fedex,,,Amarillo,TX,,US,+1 800-463-3339,https://local.fedex.com/en-us/tx/amarillo/amaac,,FedEx,Q459477
101042,fresenius_kidney_care_us,Fresenius Kidney Care Palo Duro,,Amarillo,TX,,US,+1 800-881-5101,https://www.freseniuskidneycare.com/dialysis-centers/texas/101042,Mo-Sa 05:00-18:00,,
https://salons.greatclips.com/us/tx/amarillo/2200-se-34th-ave,greatclips,Great Clips,,Amarillo,TX,,US,+1 806-350-7540,https://salons.greatclips.com/us/tx/amarillo/2200-se-34th-ave,Mo-Fr 09:00-20:00; Sa 09:00-18:00; Su 12:00-18:00,Great Clips,Q5598967
851,loves,Site 901,,Amarillo,TX,,US,+1 806-335-1200,,,Love's,Q1872496
AMAAP,marriott,Fairfield Inn & Suites Amarillo Airport,,Amarillo,TX,,US,+1 806-322-6777,https://www.marriott.com/AMAAP,,Fairfield by Marriott,Q5430314
71499323,moneygram,WAL-MART - #7362,,AMARILLO,TX,,US,+1 806-513-6390,,24/7,MoneyGram,Q1944412
0000868675,phillips_66_conoco_76,PAK A SAK 19,,AMARILLO,TX,,US,+1 806-322-2490,,,Phillips 66,Q1656230
0000824345,phillips_66_conoco_76,PAK A SAK  12,,AMARILLO,TX,,US,+1 806-342-0376,,24/7,Phillips 66,Q1656230
723,pilot_flyingj,Flying J Travel Center,,Amarillo,TX,,US,+1 806-335-1475,https://locations.pilotflyingj.com/us/tx/amarillo/9601-i-40-e-exit-76,,Flying J,Q16974822
436,pilot_flyingj,Pilot Travel Center,,Amarillo,TX,,US,+1 806-335-3323,https://locations.pilotflyingj.com/us/tx/amarillo/715-south-lakeside-drive,,Pilot,Q7194412
tx_amarillo_7000-i-40-east,pizza_hut_us,7000 I-40 East,,Amarillo,TX,,US,,https://locations.pizzahut.com/tx/amarillo/7000-i-40-east,,Pizza Hut,Q191615
restaurant_82925,popeyes_us_fr,Popeyes,"7000 I-40 East Amarillo, Texas 79118 - USA",Amarillo,TX,,US,+1 806-342-3080,https://www.popeyes.com/store-locator/store/restaurant_82925,Mo-Su 09:00-23:00,Popeyes,Q1330910
https://restaurants.subway.com/#14913907,subway,Subway Pilot Travel Center #436,,Amarillo Randall,TX,,US,+1 806-335-3993,https://restaurants.subway.com/united-states/tx/amarillo/715-s-lakeside-dr,Mo-Su 09:00-22:00,Subway,Q244457
https://restaurants.subway.com/#14895117,subway,Subway Tradewind Village,,Amarillo Randall,TX,,US,+1 806-373-1770,https://restaurants.subway.com/united-states/tx/amarillo/1900-se-34th-street,Mo-Su 08:00-21:00,Subway,Q244457
https://locations.tacobell.com/#15352297,taco_bell,Taco Bell,,Amarillo,TX,,US,+1 806-356-0415,https://locations.tacobell.com/tx/amarillo/6255-hollywood-rd.html,Mo-Th 09:00-01:00; Fr-Sa 09:00-03:00; Su 09:00-01:00,Taco Bell,Q752941
0307,travelcenters_of_america_us,Petro Amarillo #0307,,Amarillo,TX,,US,+1 806-372-4899,https://www.ta-petro.com/location/tx/petro-amarillo/,,Petro,Q64051305
0055,travelcenters_of_america_us,TA Amarillo #0055,,Amarillo,TX,,US,+1 806-342-3080,https://www.ta-petro.com/location/tx/ta-amarillo/,,TA,Q7835892
7911800016,usps_collection_boxes,USPS COLLECTION BOX - PO LOBBY,841 MARTIN RD,AMARILLO,TX,,US,,,,United States Postal Service,Q668687
A00000244718,verizon_us,Wireless Zone T/A Amarillo,,AMARILLO,TX,,US,+1 806-342-3080,https://www.verizon.com/stores/details/texas/amarillo/t-a-ultra-mobile-amarillo-8500-e-i-40-307-1498622/,Mo-Fr 10:00-20:00,Verizon,Q919641
,visa,,,AMARILLO,TX,,US,,,,,
,visa,,,AMARILLO,TX,,US,,,,,
,visa,,,AMARILLO,TX,,US,,,,,
,visa,,,AMARILLO,TX,,US,,,,,
,visa,,,AMARILLO,TX,,US,,,,,
,visa,,,AMARILLO,TX,,US,,,,,
,visa,,,AMARILLO,TX,,US,,,,,
,visa,,,AMARILLO,TX,,US,,,,,
,visa,,,AMARILLO,TX,,US,,,,,
,visa,,,AMARILLO,TX,,US,,,,,
,visa,,,AMARILLO,TX,,US,,,,,
,visa,,,AMARILLO,TX,,US,,,,,
https://locations.wendys.com/#22620699,wendys,"Wendy's Lakeside At I-40 in Amarillo, TX",,Amarillo,TX,,US,+1 806-220-0964,https://locations.wendys.com/united-states/tx/amarillo/8507-e-i-40,"Mo-Su 06:00-01:00,06:00-10:30",Wendy's,Q550258
b0c1212f75a9b62ffb8a95f4ac3d5b5e,western_union,WALMART #007362,,Amarillo,TX,,US,+1 806-513-6390,https://location.westernunion.com/us/tx/amarillo/b0c1212f75a9b62ffb8a95f4ac3d5b5e,Mo-Su 07:00-21:00,Western Union,Q861042
b83e7aa8cf0edf44b131abda3bb89962,western_union,TA #055 AMARILLO,,Amarillo,TX,,US,+1 806-342-3080,https://location.westernunion.com/us/tx/amarillo/b83e7aa8cf0edf44b131abda3bb89962,Mo-Su 07:00-23:00,Western Union,Q861042
9feaa168bba64443eb793172a86a05a4,western_union,TOOT N TOTUM #99,,Amarillo,TX,,US,+1 806-220-0990,https://location.westernunion.com/us/tx/amarillo/9feaa168bba64443eb793172a86a05a4,,Western Union,Q861042
https://locations.whataburger.com/tx/amarillo/6120-hollywood-rd.html,whataburger,I27 & Hollywood,6120 HOLLYWOOD RD,AMARILLO,TX,,US,,https://locations.whataburger.com/tx/amarillo/6120-hollywood-rd.html,,Whataburger,Q376627
436,world_finance_us,,"1900 SE 34th Ave Unit 1600, Amarillo, TX, 79118",Amarillo,TX,,US,+1 806-371-8900,https://www.loansbyworld.com/branches/branch-436,Mo-Fr 09:00-17:30; Sa 09:00-12:00,World Finance,Q3569971
