Ref,Spider,Name,Address,City,State,Zipcode,Country,Phone,Website,Hours,Brand,WikiData
67506835,moneygram,ASSOCIATION AL AMANA POUR LA PROMOTION D,,TETOUAN,,,MA,+212 5224-35050,,Mo-Sa 06:00-24:00; Su 09:00-16:00,MoneyGram,Q1944412
67509340,moneygram,ASSOCIATION AL AMANA POUR LA PROMOTION D,,TETOUAN,,,MA,+212 5224-35050,,Mo-Sa 06:00-24:00; Su 09:00-16:00,MoneyGram,Q1944412
67750238,moneygram,ASSOCIATION AL AMANA POUR LA PROMOTION D,,TETOUAN,,,MA,+212 5224-35050,,Mo-Sa 06:00-24:00; Su 09:00-16:00,MoneyGram,Q1944412
67509308,moneygram,ASSOCIATION AL AMANA POUR LA PROMOTION D,,TETOUAN,,,MA,+212 5224-35050,,Mo-Sa 06:00-24:00; Su 09:00-16:00,MoneyGram,Q1944412
68018830,moneygram,ASSOCIATION AL AMANA POUR LA PROMOTION D,,TETOUAN,,,MA,+212 5224-35050,,Mo-Sa 06:00-24:00; Su 09:00-16:00,MoneyGram,Q1944412
67506822,moneygram,ASSOCIATION AL AMANA POUR LA PROMOTION D,,TETOUAN,,,MA,+212 5224-35050,,Mo-Sa 06:00-24:00; Su 09:00-16:00,MoneyGram,Q1944412
67506903,moneygram,ASSOCIATION AL AMANA POUR LA PROMOTION D,,TETOUAN,,,MA,+212 5224-35050,,Mo-Sa 06:00-24:00; Su 09:00-16:00,MoneyGram,Q1944412
72102664,moneygram,CANAL M - #487 - TETOUAN,,TETOUAN,,,MA,+212 5224-29030,,Mo-Su 07:00-23:00,MoneyGram,Q1944412
72197734,moneygram,DAMANE CASH - #532301 - DC TETOUANE TOUT,,TETOUAN,,,MA,+212 632-463807,,Mo-Su 08:00-24:00,MoneyGram,Q1944412
72247176,moneygram,IMPULTION SERVICE - #361101 - DC TETOUAN,,TETOUAN,,,MA,+212 5399-69171,,Mo-Su 08:00-24:00,MoneyGram,Q1944412
67759527,moneygram,ESPACES SERVICES - TETOUAN,,TETOUAN,,,MA,+212 5228-70464,,Mo-Su 08:00-21:00,MoneyGram,Q1944412
68946287,moneygram,CASH PLUS - TETOUAN,,TETOUAN,,,MA,+212 5397-16941,,Mo-Su 08:00-23:30,MoneyGram,Q1944412
72841488,moneygram,CASHPLUS - #39909 - AJANIF,,TETOUAN,,,MA,+212 5393-99090,,Mo-Su 08:00-24:00,MoneyGram,Q1944412
68937953,moneygram,CASHPLUS - TETOUAN,,TETOUAN,,,MA,+212 5397-01254,,Mo-Su 08:00-23:30,MoneyGram,Q1944412
72949296,moneygram,CHAABI CASH - #2350 - TETOUAN,,TETOUAN,,,MA,+212 661-094985,,Mo-Su 08:00-23:00,MoneyGram,Q1944412
72978597,moneygram,CHAABI CASH - #2349 - TETOUAN,,TETOUAN,,,MA,+212 667-631765,,Mo-Su 08:00-23:00,MoneyGram,Q1944412
73126966,moneygram,CASHPLUS - #423001 - BOUSSAFO SEFLIYA,,TETOUAN,,,MA,+212 623-258288,,Mo-Su 08:00-24:00,MoneyGram,Q1944412
73360829,moneygram,CASHPLUS - #2213 - TETOUAN - A COTE CINE,,TETOUAN,,,MA,+212 662-187625,,Mo-Su 08:00-24:00,MoneyGram,Q1944412
73495778,moneygram,M'DIQ - #79104 - CASHPLUS,,M'DIQ,,,MA,+212 5396-63687,,Mo-Su 08:00-24:00,MoneyGram,Q1944412
69311468,moneygram,TETOUAN TRANSFERT - #291 - TETOUAN,,TETOUAN,,,MA,+212 5224-29030,,Mo-Su 07:00-23:50,MoneyGram,Q1944412
73691705,moneygram,CASHPLUS - #446401 - EDDOUKS CASH PLUS,,TETOUAN,,,MA,+212 5397-19469,,Mo-Su 08:00-24:00,MoneyGram,Q1944412
73700230,moneygram,BMCE CASH - #551901 - DC TETOUAN SADRAOU,,TETOUAN,,,MA,+212 5399-95318,,Mo-Su 08:00-24:00,MoneyGram,Q1944412
73703392,moneygram,CASHPLUS - #450801 - TABOULA,,TETOUAN,,,MA,+212 661-468886,,Mo-Su 08:00-24:00,MoneyGram,Q1944412
73763633,moneygram,CANAL M - #569 - TANGER-TETOUAN-AL HOCEI,,TANGER-TETOUAN-AL HOCEIMA,,,MA,+212 638-977375,,Mo-Su 07:00-23:00,MoneyGram,Q1944412
73763659,moneygram,CANAL M - #572 - TANGER-TETOUAN-AL HOCEI,,TANGER-TETOUAN-AL HOCEIMA,,,MA,+212 668-133950,,Mo-Su 07:00-23:00,MoneyGram,Q1944412
73767972,moneygram,TETOUAN BAB TOUT - #79105 - CASHPLUS,,TETOUAN,,,MA,+212 5397-10071,,Mo-Su 08:00-24:00,MoneyGram,Q1944412
73776617,moneygram,CASHPLUS - #432501 - DIAR TAMOUDA,,TETOUAN,,,MA,+212 674-597400,,Mo-Su 08:00-24:00,MoneyGram,Q1944412
73776691,moneygram,CANAL M - #578 - TETOUAN,,TETOUAN,,,MA,+212 5224-29030,,Mo-Su 07:00-23:00,MoneyGram,Q1944412
73790114,moneygram,CANAL M - #587 - TETOUAN,,TETOUAN,,,MA,+212 5224-29030,,Mo-Su 07:00-23:00,MoneyGram,Q1944412
73790172,moneygram,CANAL M - #593 - TETOUAN,,TETOUAN,,,MA,+212 651-085934,,Mo-Su 07:00-23:00,MoneyGram,Q1944412
73801087,moneygram,CANAL M - #602 - TANGER,,TANGER,,,MA,+212 5224-29030,,Mo-Su 07:00-23:00,MoneyGram,Q1944412
73790127,moneygram,CANAL M - #588 - FNIDEQ,,FNIDEQ,,,MA,+212 5224-29030,,Mo-Su 07:00-23:00,MoneyGram,Q1944412
73803441,moneygram,CASHPLUS - #428401 - AIN KHABAZ,,TETOUAN,,,MA,+212 663-260789,,Mo-Su 08:00-24:00,MoneyGram,Q1944412
73804068,moneygram,CASHPLUS - #435001 - AV RIFF JAMAA MEZOU,,TETOUAN,,,MA,+212 655-558557,,Mo-Su 08:00-24:00,MoneyGram,Q1944412
73803933,moneygram,BMCE CASH - #537801 - DC TETOUANE AV KSA,,TETOUAN,,,MA,+212 626-746829,,Mo-Su 08:00-24:00,MoneyGram,Q1944412
73829027,moneygram,TETO BEN KARRICH - #454302 - CASHPLUS,,TETOUAN,,,MA,+212 531-031365,,Mo-Su 08:00-24:00,MoneyGram,Q1944412
73842088,moneygram,TETOUAN BOUSAFO - #454303 - CASHPLUS,,TETOUAN,,,MA,+212 531-031365,,Mo-Su 08:00-24:00,MoneyGram,Q1944412
73841775,moneygram,CHAABI CASH - #2363 - TETOUAN,,TETOUAN,,,MA,+212 677-803482,,Mo-Su 08:00-23:00,MoneyGram,Q1944412
66644510,moneygram,ABB,,TETOUAN,,,MA,+212 5397-03401,,Mo-Su 07:00-24:00,MoneyGram,Q1944412
66638416,moneygram,ABB,,TETOUAN,,,MA,+212 5399-60301,,Mo-Su 07:00-24:00,MoneyGram,Q1944412
66635817,moneygram,ABB,,TETOUAN,,,MA,+212 80-2006060,,Mo-Su 07:00-24:00,MoneyGram,Q1944412
66651150,moneygram,ABB,,TETOUAN,,,MA,+212 5399-72513,,Mo-Su 07:00-24:00,MoneyGram,Q1944412
66638403,moneygram,ABB,,TETOUAN,,,MA,+212 5399-70580,,Mo-Su 07:00-24:00,MoneyGram,Q1944412
66647724,moneygram,ABB,,TETOUAN,,,MA,+212 5397-12787,,Mo-Su 07:00-24:00,MoneyGram,Q1944412
66637637,moneygram,ABB,,TETOUAN,,,MA,+212 5397-07686,,Mo-Su 07:00-24:00,MoneyGram,Q1944412
66643883,moneygram,ABB,,TETOUAN,,,MA,+212 5399-61846,,Mo-Su 07:00-24:00,MoneyGram,Q1944412
73861302,moneygram,BMCE CASH - #550401 - DC TETOUAN LOUADA,,TETOUAN,,,MA,+212 670-717969,,Mo-Su 08:00-24:00,MoneyGram,Q1944412
73873170,moneygram,BMCE CASH - #561101 - DC TETOUAN KHANDAK,,TETOUAN,,,MA,+212 625-021565,,Mo-Su 08:00-24:00,MoneyGram,Q1944412
73876601,moneygram,CHAABI CASH - #2382 - TETOUAN,,TETOUAN,,,MA,+212 662-666131,,Mo-Su 08:00-23:00,MoneyGram,Q1944412
73881560,moneygram,CASHPLUS - #429201 - LARBAA BNI HASSANE,,TETOUAN,,,MA,+212 674-907906,,Mo-Su 08:00-24:00,MoneyGram,Q1944412
73912400,moneygram,CASHPLUS - #427501 - JAMAA MEZOUAK,,TETOUAN,,,MA,+212 661-536013,,Mo-Su 08:00-24:00,MoneyGram,Q1944412
73946191,moneygram,CASHPLUS - #437001 - HOTEL NEJMA,,MARTIL,,,MA,+212 631-530099,,Mo-Su 08:00-24:00,MoneyGram,Q1944412
70745120,moneygram,DAMANE CASH - #302801 - DC CASABLANCA SB,,CASABLANCA,,,MA,+212 5397-02234,,Mo-Su 08:00-24:00,MoneyGram,Q1944412
70808737,moneygram,DAMANE CASH - #304601 - DC TANGER HAKAMA,,TANGER,,,MA,+212 670-929216,,Mo-Su 08:00-24:00,MoneyGram,Q1944412
73955962,moneygram,TETOUAN AIN MELLOUL - #644 - TETOUAN,,TETOUAN,,,MA,+212 5224-29030,,Mo-Su 07:00-23:00,MoneyGram,Q1944412
73974228,moneygram,MARTIL AL BAYT AL ATIQ - #79106 - CASHPL,,MARTIL,,,MA,+212 608-113149,,Mo-Su 08:00-24:00,MoneyGram,Q1944412
73989938,moneygram,CASHPLUS - #472601 - MARTIL RIAD SOFIA,,MARTIL,,,MA,+212 661-305625,,Mo-Su 08:00-24:00,MoneyGram,Q1944412
74033689,moneygram,CASHPLUS - #68703 - TETOUAN JOULANE,,TETOUAN,,,MA,+212 693-939343,,Mo-Su 08:00-24:00,MoneyGram,Q1944412
74032884,moneygram,CHAABI CASH - #2305 - TETOUAN,,TETOUAN,,,MA,+212 668-486807,,Mo-Su 08:00-23:00,MoneyGram,Q1944412
74060542,moneygram,BOUJERAH CASH CHANGE,,TETOUAN,,,MA,+212 662-802234,,Mo-Su 08:00-24:00,MoneyGram,Q1944412
74065181,moneygram,CASHPLUS - #483101 - TETOUAN WILAYA,,TETOUAN,,,MA,+212 5399-91480,,Mo-Su 08:00-24:00,MoneyGram,Q1944412
74106176,moneygram,CASHPLUS - #478701 - TANGER AOUAMA 2,,TANGER,,,MA,+212 620-605662,,Mo-Su 08:00-24:00,MoneyGram,Q1944412
74141665,moneygram,CANAL M - #656 - TETOUAN,,TETOUAN,,,MA,+212 661-208960,,Mo-Su 07:00-23:00,MoneyGram,Q1944412
74142813,moneygram,CHAABI CASH - #23316 - TETOUAN,,TETOUAN,,,MA,+212 676-780785,,Mo-Su 08:00-23:00,MoneyGram,Q1944412
74183348,moneygram,CHAABI CASH - #23318 - TETOUAN,,TETOUAN,,,MA,+212 661-784583,,Mo-Su 08:00-23:00,MoneyGram,Q1944412
74193312,moneygram,EZZOUADA - #173103 - CASHPLUS,,EZZOUADA,,,MA,+212 675-797480,,Mo-Su 08:00-24:00,MoneyGram,Q1944412
74197062,moneygram,DAMANE CASH - #561901 - DC TETOUAN INARA,,TETOUAN,,,MA,+212 661-618744,,Mo-Su 08:00-24:00,MoneyGram,Q1944412
74211045,moneygram,CASHPLUS - #493601 - AVENUE EL MAMOUN,,TETOUAN,,,MA,+212 698-004154,,Mo-Su 08:00-24:00,MoneyGram,Q1944412
74318537,moneygram,CANAL M - #674 - TETOUAN,,TETOUAN,,,MA,+212 5224-29030,,Mo-Su 07:00-23:00,MoneyGram,Q1944412
74319086,moneygram,CANAL M - #676 - TETOUAN,,TETOUAN,,,MA,+212 5224-29030,,Mo-Su 07:00-23:00,MoneyGram,Q1944412
74286986,moneygram,CASH PLUS - #495501 - CASHPLUS,,TETOUAN,,,MA,+212 623-063012,,Mo-Su 08:00-24:00,MoneyGram,Q1944412
74282207,moneygram,CASHPLUS - #487301 - TETOUAN AV MEKNES,,TETOUAN,,,MA,+212 661-493612,,Mo-Su 08:00-24:00,MoneyGram,Q1944412
74317703,moneygram,CASHPLUS - #501301 - TETOUAN RES MARJANE,,TETOUAN,,,MA,+212 661-405696,,Mo-Su 08:00-24:00,MoneyGram,Q1944412
74293199,moneygram,CASHPLUS - #68702 - SEDRAOUIA,,TETOUAN,,,MA,+212 5397-16621,,Mo-Su 08:00-24:00,MoneyGram,Q1944412
74297399,moneygram,CHAABI CASH - #10332 - TETOUAN - AKACHAR,,TETOUAN,,,MA,+212 663-157762,,Mo-Su 08:00-23:00,MoneyGram,Q1944412
74293571,moneygram,CHAABI CASH - #23302 - TETOUAN,,TETOUAN,,,MA,+212 642-662568,,Mo-Su 08:00-23:00,MoneyGram,Q1944412
74340039,moneygram,CHAABI CASH - #23324 - TETOUAN - EURO TE,,TETOUAN,,,MA,+212 655-250679,,Mo-Su 08:00-23:00,MoneyGram,Q1944412
74358393,moneygram,CASHPLUS - #503201 - TETOUAN MOHAMED BEN,,TETOUAN,,,MA,+212 661-470256,,Mo-Su 08:00-24:00,MoneyGram,Q1944412
74364387,moneygram,CASHPLUS - #504601 - TETOUAN HAY BOUSSAF,,TETOUAN,,,MA,+212 662-880955,,Mo-Su 08:00-24:00,MoneyGram,Q1944412
74368312,moneygram,DAMANE CASH - #590501 - DC TETOUAN JAMAA,,TETOUAN,,,MA,+212 669-648889,,Mo-Su 08:00-24:00,MoneyGram,Q1944412
74416510,moneygram,CASH PLUS - #503601 - TETOUAN MOHAMED BE,,TETOUAN,,,MA,+212 662-231092,,Mo-Su 08:00-24:00,MoneyGram,Q1944412
74415621,moneygram,CASH PLUS - #506801 - TETOUAN MOSQUEE AL,,TETOUAN,,,MA,+212 661-382535,,Mo-Su 08:00-24:00,MoneyGram,Q1944412
74450039,moneygram,CANAL M - #682 - TETOUAN,,TETOUAN,,,MA,+212 5224-29030,,Mo-Su 07:00-23:00,MoneyGram,Q1944412
74450301,moneygram,CASHPLUS - #454304 - TETOUAN AV HOUMANE,,TETOUAN,,,MA,+212 663-143468,,Mo-Su 08:00-24:00,MoneyGram,Q1944412
74450259,moneygram,TETOUAN ROUTE SAMSA - #493602,,TETOUAN,,,MA,+212 698-004154,,Mo-Su 08:00-24:00,MoneyGram,Q1944412
74466890,moneygram,CASHPLUS - #493603 - TETOUAN AV MAMOUN,,TETOUAN,,,MA,+212 698-004154,,Mo-Su 08:00-24:00,MoneyGram,Q1944412
74481286,moneygram,CHAABI CASH - #2092 - TETOUAN - EL AKEL,,TETOUAN,,,MA,+212 661-396816,,Mo-Su 08:00-23:00,MoneyGram,Q1944412
74509016,moneygram,LC TETOUAN AHMED BAKKALI,,TETOUAN,,,MA,+212 661-693181,,Mo-Su 08:00-24:00,MoneyGram,Q1944412
70418305,moneygram,GSM-AL MAGHRIB - #2722 - TETOUAN SOUKNA,,TETOUAN,,,MA,+212 5224-35050,,Mo-Fr 08:00-20:00; Sa-Su 09:00-16:00,MoneyGram,Q1944412
74535624,moneygram,CHAABI CASH - #23334 - TETOUAN - AMMA CA,,TETOUAN,,,MA,+212 678-046262,,Mo-Su 08:00-23:00,MoneyGram,Q1944412
74546901,moneygram,CHAABI CASH - #23331 - TETOUAN - YASSINE,,TETOUAN,,,MA,+212 611-051593,,Mo-Su 08:00-23:00,MoneyGram,Q1944412
74550159,moneygram,TETOUAN COELMA (GSM) - #5362 - TETOUAN -,,TETOUAN,,,MA,+212 5224-35050,,Mo-Fr 08:00-23:00; Sa 09:00-17:00; Su 10:00-16:00,MoneyGram,Q1944412
74570168,moneygram,CASH PLUS - #525601 - TETOUAN AV RIF,,TETOUAN,,,MA,+212 671-566503,,Mo-Su 08:00-24:00,MoneyGram,Q1944412
74573686,moneygram,BMCE CASH - #702501 - DC TETOUAN MATAR,,TETOUAN,,,MA,+212 623-258288,,Mo-Su 08:00-24:00,MoneyGram,Q1944412
74602201,moneygram,CASHPLUS - #506802 - TETOUAN AV MOHAMED,,TETOUAN,,,MA,+212 661-382535,,Mo-Su 08:00-24:00,MoneyGram,Q1944412
74602463,moneygram,CHAABI CASH - #23345 - FNIDEQ - ISM MONE,,FNIDEQ,,,MA,+212 668-402679,,Mo-Su 08:00-23:00,MoneyGram,Q1944412
74593996,moneygram,DC TETOUAN SOKNA TAAMIR - #670301,,TETOUAN,,,MA,+212 709-624366,,Mo-Su 08:00-24:00,MoneyGram,Q1944412
74609974,moneygram,DAMANE CASH - #707201 - DC TETOUAN TOUAB,,TETOUAN,,,MA,+212 702-141566,,Mo-Su 08:00-24:00,MoneyGram,Q1944412
74630257,moneygram,WILAYA CENTRE CASH SARL AU - #99335 - TE,,TETOUAN,,,MA,+212 662-380970,,Mo-Su 07:00-24:00,MoneyGram,Q1944412
74632718,moneygram,CASHPLUS - #450802 - TETOUAN AV JAMIAA A,,TETOUANE,,,MA,+212 661-468886,,Mo-Su 08:00-24:00,MoneyGram,Q1944412
74635951,moneygram,RAPIDO TRANSFERT - #636901 - DC TETOUANE,,TETOUAN,,,MA,+212 636-500090,,Mo-Su 08:00-24:00,MoneyGram,Q1944412
74648362,moneygram,RAPIDO TRANSFERT - #637001 - DC TETOUAN,,TETOUAN,,,MA,+212 661-547357,,Mo-Su 08:00-24:00,MoneyGram,Q1944412
74654521,moneygram,LC TETOUANE AV MED V,,TETOUANE,,,MA,+212 664-069458,,Mo-Su 08:00-24:00,MoneyGram,Q1944412
74688665,moneygram,ABATEL INVEST - #670801 - DC TETOUAN TOU,,TETOUAN,,,MA,+212 643-944861,,Mo-Su 08:00-24:00,MoneyGram,Q1944412
74680582,moneygram,BMCE CASH - #706901 - DC TETOUAN HOPITAL,,TETOUAN,,,MA,+212 661-555929,,Mo-Su 08:00-24:00,MoneyGram,Q1944412
74695250,moneygram,DAMANE CASH - #711001 - DC TETOUAN TOUIL,,TETOUAN,,,MA,+212 620-786858,,Mo-Su 08:00-24:00,MoneyGram,Q1944412
74686777,moneygram,LC TETOUAN AV FAR,,TETOUANE,,,MA,+212 661-265533,,Mo-Su 08:00-24:00,MoneyGram,Q1944412
74686874,moneygram,LC TETOUAN AV OMAR MOKHTAR,,TETOUANE,,,MA,+212 661-265533,,Mo-Su 08:00-24:00,MoneyGram,Q1944412
74686861,moneygram,LC TETOUAN AVENUE RABAT,,TETOUANE,,,MA,+212 661-265533,,Mo-Su 08:00-24:00,MoneyGram,Q1944412
74696301,moneygram,CASHPLUS - #531101 - TETOUAN RIAD BOUJER,,TETOUAN,,,MA,+212 661-833028,,Mo-Su 08:00-24:00,MoneyGram,Q1944412
74688597,moneygram,CASHPLUS - #546201 - TETOUAN AV BNI AHME,,TETOUAN,,,MA,+212 665-653700,,Mo-Su 08:00-24:00,MoneyGram,Q1944412
74687844,moneygram,CHAABI CASH - #23352 - TETOUAN - MULTISE,,TETOUAN,,,MA,+212 663-455549,,Mo-Su 08:00-23:00,MoneyGram,Q1944412
74690873,moneygram,CHAABI CASH - #23338 - TETOUAN - KDH CAR,,TETOUAN,,,MA,+212 661-732768,,Mo-Su 08:00-23:00,MoneyGram,Q1944412
74687857,moneygram,CHAABI CASH - #2098 - TETOUAN - TRANSF D,,TETOUAN,,,MA,+212 629-595086,,Mo-Su 08:00-23:00,MoneyGram,Q1944412
74722932,moneygram,LANA CASH,,TETOUAN,,,MA,+212 663-797540,,Mo-Su 08:00-24:00,MoneyGram,Q1944412
74725858,moneygram,ABATEL INVEST - #670701 - DC TETOUAN MHA,,TETOUANE,,,MA,+212 604-610130,,Mo-Su 08:00-24:00,MoneyGram,Q1944412
74730542,moneygram,CHAABI CASH - #2306 - TETOUAN - PAYERROU,,TETOUAN,,,MA,+212 662-396592,,Mo-Su 08:00-23:00,MoneyGram,Q1944412
74753066,moneygram,DC TETOUAN BEJAYA - #670601 - ABATEL INV,,TETOUANE,,,MA,+212 661-304574,,Mo-Su 08:00-24:00,MoneyGram,Q1944412
74784417,moneygram,LC TETOUANE MHANACHE 2,,TETOUAN,,,MA,+212 767-158799,,Mo-Su 08:00-24:00,MoneyGram,Q1944412
74784404,moneygram,LC TETOUAN ABDELKHALEK TORRES,,TETOUAN,,,MA,+212 615-251168,,Mo-Su 08:00-24:00,MoneyGram,Q1944412
74788293,moneygram,CHAABI CASH - #2086 - TETOUAN,,TETOUAN,,,MA,+212 650-198351,,Mo-Su 08:00-23:00,MoneyGram,Q1944412
74806382,moneygram,CHAABI CASH - #23359 - TETOUAN,,TETOUAN,,,MA,+212 661-819023,,Mo-Su 08:00-23:00,MoneyGram,Q1944412
74809253,moneygram,CASHPLUS - #551601 - TETOUAN AV TAHRAN,,TETOUAN,,,MA,+212 699-707972,,Mo-Su 08:00-24:00,MoneyGram,Q1944412
74833481,moneygram,CHAABI CASH - #23361 - TETOUAN - STAR FL,,TETOUAN,,,MA,+212 603-546662,,Mo-Su 08:00-23:00,MoneyGram,Q1944412
74841363,moneygram,TETOUAN RIAD BOUJARAH PR - #39942 - CASH,,TETOUAN,,,MA,+212 639-043942,,Mo-Su 08:00-24:00,MoneyGram,Q1944412
74877971,moneygram,CHAABI CASH - #6635 - TETOUAN - EL BEJAU,,TETOUAN,,,MA,+212 668-426225,,Mo-Su 08:00-23:00,MoneyGram,Q1944412
74880544,moneygram,L.B.C CASH,,TETOUAN,,,MA,+212 667-587127,,Mo-Fr 08:00-23:00; Sa 09:00-23:00; Su 10:00-18:00,MoneyGram,Q1944412
74889354,moneygram,CASHPLUS - #519801 - EL MAASSEM,,TETOUAN,,,MA,+212 639-079994,,Mo-Su 08:00-24:00,MoneyGram,Q1944412
74932560,moneygram,DAMANE CASH - #710401 - DC TETOUAN ZIANA,,TETOUAN,,,MA,+212 603-083319,,Mo-Su 08:00-24:00,MoneyGram,Q1944412
70731707,moneygram,BARID CASH - #83978 - BC TETOUANE PPAL,,TETOUAN,,,MA,+212 5396-58741,,Mo-Su 07:00-24:00,MoneyGram,Q1944412
74958117,moneygram,DAMANE CASH - #724801 - DC TETOUAN HAWMA,,TETOUAN,,,MA,+212 610-419631,,Mo-Su 08:00-24:00,MoneyGram,Q1944412
74958094,moneygram,CASH PLUS - #557101 - TETOUAN AVENUE DIM,,TETOUAN,,,MA,+212 642-117181,,Mo-Su 08:00-24:00,MoneyGram,Q1944412
74958492,moneygram,CASH PLUS - #508501 - TETOUAN AV CHEIKH,,TETOUAN,,,MA,+212 652-156562,,Mo-Su 08:00-24:00,MoneyGram,Q1944412
74958926,moneygram,CASH PLUS - #91101 - TETOUANSOKNA,,TETOUAN,,,MA,+212 5399-96040,,Mo-Su 08:00-24:00,MoneyGram,Q1944412
74961337,moneygram,CANAL M - #699 - TETOUAN - TETOUAN AV KH,,TETOUAN,,,MA,+212 667-170022,,Mo-Su 07:00-23:00,MoneyGram,Q1944412
74966882,moneygram,CHAABI CASH - #23364 - TETOUAN - SOUPRA,,TETOUAN,,,MA,+212 662-187625,,Mo-Su 08:00-23:00,MoneyGram,Q1944412
74968026,moneygram,CHAABI CASH - #23366 - TETOUAN - RIF CH,,TETOUAN,,,MA,+212 662-723617,,Mo-Su 08:00-23:00,MoneyGram,Q1944412
74977334,moneygram,CASH PLUS - #572801 - TETOUAN AV MOHAMED,,TETOUAN,,,MA,+212 632-732332,,Mo-Su 08:00-24:00,MoneyGram,Q1944412
74979934,moneygram,CASH PLUS - #559501 - TETOUAN HAY NAKATA,,TETOUAN,,,MA,+212 668-752540,,Mo-Su 08:00-24:00,MoneyGram,Q1944412
74978728,moneygram,ABATEL INVEST - #671601 - TETOUAN - DC T,,TETOUAN,,,MA,+212 661-489241,,Mo-Su 08:00-24:00,MoneyGram,Q1944412
66173379,moneygram,BANQUE CENTRALE POPULAIRE - #6467,,TETOUAN,,,MA,9973070,,Mo-Su 08:00-19:00,MoneyGram,Q1944412
66173324,moneygram,BANQUE CENTRALE POPULAIRE - #6464,,TETOUAN,,,MA,9967002,,Mo-Su 08:00-19:00,MoneyGram,Q1944412
66173405,moneygram,BANQUE CENTRALE POPULAIRE - #6468,,TETOUAN,,,MA,9994911,,Mo-Su 08:00-19:00,MoneyGram,Q1944412
66174323,moneygram,BANQUE CENTRALE POPULAIRE - #6482,,TETOUAN,,,MA,9991040,,Mo-Su 08:00-19:00,MoneyGram,Q1944412
74991637,moneygram,CASH PLUS - #96704 - FNIDEQ AV MOHAMED V,,TETOUAN,,,MA,+212 606-944281,,Mo-Su 08:00-24:00,MoneyGram,Q1944412
70814161,moneygram,WAFACASH,,OUED LAOU,,,MA,+212 5224-35050,,Mo-Fr 08:00-20:00; Sa-Su 09:00-16:00,MoneyGram,Q1944412
71183037,moneygram,WAFACASH - #2907 - TETOUAN JBEL ATLAS,,TETOUAN,,,MA,+212 5224-35035,,Mo-Fr 08:00-23:00; Sa 09:00-23:00; Su 09:00-16:00,MoneyGram,Q1944412
71183024,moneygram,WAFACASH - #2906 - TETOUAN JAMAA AFILAL,,TETOUAN,,,MA,+212 5224-35035,,Mo-Fr 08:00-23:00; Sa 09:00-23:00; Su 09:00-16:00,MoneyGram,Q1944412
71183011,moneygram,WAFACASH - #2905 - TETOUAN AV KHALID IBN,,TETOUAN,,,MA,+212 5224-35035,,Mo-Fr 08:00-23:00; Sa 09:00-23:00; Su 09:00-16:00,MoneyGram,Q1944412
65647534,moneygram,CANAL M - #4,,TETOUAN,,,MA,+212 5224-29030,,Mo-Sa 07:00-22:00; Su 00:00-24:00,MoneyGram,Q1944412
65647550,moneygram,CANAL M - #132,,TETOUAN,,,MA,+212 5224-29030,,Mo-Sa 07:00-22:00; Su 00:00-24:00,MoneyGram,Q1944412
65720105,moneygram,WAFACASH - #1020,,TETOUAN,,,MA,1915428,,Mo-Sa 06:00-24:00; Su 09:00-16:00,MoneyGram,Q1944412
65726549,moneygram,ESPACE CASH - #2258,,TETOUAN,,,MA,9701288,,Mo-Sa 06:00-24:00; Su 09:00-16:00,MoneyGram,Q1944412
65728107,moneygram,ESPACE CASH - #2229,,TETOUAN,,,MA,9994508,,Mo-Sa 06:00-24:00; Su 09:00-16:00,MoneyGram,Q1944412
66089625,moneygram,GSM-AL MAGHRIB - #2362,,TETOUAN,,,MA,2435050,,Mo-Sa 06:00-24:00; Su 09:00-16:00,MoneyGram,Q1944412
66172804,moneygram,BANQUE CENTRALE POPULAIRE - #6439,,TETOUAN,,,MA,9992266,,Mo-Su 08:00-19:00,MoneyGram,Q1944412
66173308,moneygram,BANQUE CENTRALE POPULAIRE - #6463,,TETOUAN,,,MA,9992333,,Mo-Su 08:00-19:00,MoneyGram,Q1944412
66513609,moneygram,CASH PLUS - #39972 - TETOUAN,,TETOUAN,,,MA,+212 5399-72998,,Mo-Su 07:00-24:00,MoneyGram,Q1944412
67115420,moneygram,WAFACASH,,TETOUAN,,,MA,+212 5224-35050,,Mo-Sa 06:00-24:00; Su 09:00-16:00,MoneyGram,Q1944412
67474857,moneygram,ALILTI CASH SARL - TETOUAN,,TETOUAN,,,MA,+212 5224-29030,,Mo-Su 07:00-24:00,MoneyGram,Q1944412
71108384,moneygram,WAFACASH - #1309 - LARACHE OKBA BNOU NAF,,LARACHE,,,MA,+212 5224-35035,,Mo-Fr 08:00-23:00; Sa 09:00-23:00; Su 09:00-16:00,MoneyGram,Q1944412
71227922,moneygram,WAFACASH - #2918 - TETOUAN ABDELKHALEK T,,TETOUAN,,,MA,+212 5224-35050,,Mo-Fr 08:00-23:00; Sa 09:00-23:00; Su 09:00-16:00,MoneyGram,Q1944412
71434948,moneygram,DAMANE CASH - #334601 - DC TETEOUAN COUI,,TETOUAN,,,MA,+212 5399-97940,,Mo-Su 08:00-24:00,MoneyGram,Q1944412
71743891,moneygram,CASH PLUS - #199201 - FAR TETOUAN,,TETOUAN,,,MA,+212 5397-23286,,Mo-Su 08:00-24:00,MoneyGram,Q1944412
71823766,moneygram,CASHPLUS - #203201 - KHANDAQ ZERBOUH,,TETOUAN,,,MA,+212 5397-04250,,Mo-Su 08:00-24:00,MoneyGram,Q1944412
68023896,moneygram,MOUSTAFA AL HARAK - TETOUAN - TOUILAAFR,,TETOUAN,,,MA,+212 5399-91940,,Mo-Su 07:00-23:30,MoneyGram,Q1944412
50420058_001-renault,renault,TETOUAN AUTOMOBILE,,TETOUAN,,,MA,+212 5397-05698,,,Renault,Q6686
50420058_001-dacia,renault,TETOUAN AUTOMOBILE,,TETOUAN,,,MA,+212 5397-05698,,,Dacia,Q27460
