Ref,Spider,Name,Address,City,State,Zipcode,Country,Phone,Website,Hours,Brand,WikiData
https://stores.advanceautoparts.com/tn/etowah/725-n-tennessee-ave,advance_auto_parts_us,Advance Auto Parts,,Etowah,TN,,US,+1 423-263-7707,https://stores.advanceautoparts.com/tn/etowah/725-n-tennessee-ave,Mo-Sa 07:30-21:00; Su 09:00-20:00,Advance Auto Parts,Q4686051
2296,autozone_us,AutoZone Auto Parts Etowah,,Etowah,TN,,US,+1 423-263-7955,https://www.autozone.com/locations/tn/etowah/325-s-tennessee-ave.html,Mo-Sa 07:30-21:00; Su 09:00-20:00,AutoZone,Q4826087
191975,bluerhino,Quick Stop,,Etowah,TN,,US,+1 423-263-5365,,,Blue Rhino,Q65681213
226106,bluerhino,Hari Krishna LLC dba Etowah Conoco,,Etowah,TN,,US,+1 615-943-8835,,,Blue Rhino,Q65681213
188647,bluerhino,Piggly Wiggly #2 - AWG #5202,,Etowah,TN,,US,+1 423-263-6465,,,Blue Rhino,Q65681213
184601,bluerhino,Family Dollar #01328,,Etowah,TN,,US,+1 423-263-3319,,,Blue Rhino,Q65681213
239793,bluerhino,Circle K #4703623,,Etowah,TN,,US,+1 423-263-2022,,,Blue Rhino,Q65681213
44145,citi,ATM Circle K,,Etowah,TN,,US,,,,Citibank,Q857063
212,dollar_general,Dollar General,,Etowah,TN,,US,+1 423-781-6520,https://www.dollargeneral.com/store-directory/tn/etowah/212,Mo-Su 08:00-22:00,Dollar General,Q145168
6117,dominos_pizza_us,Domino's Pizza,,Etowah,TN,,US,+1 423-263-4323,https://pizza.dominos.com/tennessee/etowah/119-cooper-st,Mo-Th 11:00-23:00; Fr-Sa 11:00-24:00; Su 11:00-23:00,Domino's,Q839466
https://local.fedex.com/#1019981239,fedex,,,Etowah,TN,,US,+1 800-463-3339,https://local.fedex.com/en-us/tn/etowah/mmian,,FedEx,Q459477
1504323,hardees_us,Hardee's,,Etowah,TN,,US,+1 423-263-1979,https://locations.hardees.com/tn/etowah/859-highway-411-north,,Hardee's,Q1585088
158022,marathon_petroleum_us,ETOWAH MARATHON,,ETOWAH,TN,,US,+1 423-263-9083,,,Marathon,Q458363
3835,mightyflame,QUICK STOP,,ETOWAH,TN,,US,+1 423-263-5365,,,Mighty Flame,
https://restaurants.subway.com/#14903885,subway,Subway,,Etowah McMinn,TN,,US,+1 423-263-3247,https://restaurants.subway.com/united-states/tn/etowah/861-n-tennessee-ave,Mo-Su 09:00-22:00,Subway,Q244457
1362789,usps,ETOWAH,,ETOWAH,TN,,US,+1 423-263-7339,,Mo-Tu 09:00-16:30; We 09:00-12:00; Th-Fr 09:00-16:30; Sa 09:00-11:00,United States Postal Service,Q668687
3733100001,usps_collection_boxes,USPS COLLECTION BOX - BLUE BOX,517 TENNESSEE AVE,ETOWAH,TN,,US,,,,United States Postal Service,Q668687
3733100021,usps_collection_boxes,USPS COLLECTION BOX - PO LOBBY,517 TENNESSEE AVE,ETOWAH,TN,,US,,,,United States Postal Service,Q668687
3733100002,usps_collection_boxes,USPS COLLECTION BOX - PO LOBBY,517 TENNESSEE AVE,ETOWAH,TN,,US,,,,United States Postal Service,Q668687
3733100003,usps_collection_boxes,USPS COLLECTION BOX - PO LOBBY,517 TENNESSEE AVE,ETOWAH,TN,,US,,,,United States Postal Service,Q668687
3733100019,usps_collection_boxes,USPS COLLECTION BOX - BLUE BOX,NA HIGHWAY 411 NORTH,ETOWAH,TN,,US,,,,United States Postal Service,Q668687
,visa,,,ETOWAH,TN,,US,,,,,
,visa,,,ETOWAH,TN,,US,,,,,
,visa,,,ETOWAH,TN,,US,,,,,
,visa,,,ETOWAH,TN,,US,,,,,
,visa,,,ETOWAH,TN,,US,,,,,
,visa,,,ETOWAH,TN,,US,,,,,
,visa,,,ETOWAH,TN,,US,,,,,
,visa,,,ETOWAH,TN,,US,,,,,
,visa,,,ETOWAH,TN,,US,,,,,
,visa,,,ETOWAH,TN,,US,,,,,
2389,waffle_house_us,Waffle House #2389,,ETOWAH,TN,,US,+1 423-920-4878,https://locations.wafflehouse.com/etowah-tn-2389,24/7,Waffle House,Q1701206
https://www.walgreens.com/locator/walgreens-1011+highway+411+n-etowah-tn-37331/id=17590,walgreens,Walgreens,,Etowah,TN,,US,+1 423-263-5656,https://www.walgreens.com/locator/walgreens-1011+highway+411+n-etowah-tn-37331/id=17590,Mo-Fr 08:00-20:00; Sa 09:00-18:00; Su 12:00-18:00,Walgreens,Q1591889
