Ref,Spider,Name,Address,City,State,Zipcode,Country,Phone,Website,Hours,Brand,WikiData
193557,bluerhino,Carpenters Paint & Hardware,,Camden,NY,,US,+1 315-245-2720,,,Blue Rhino,Q65681213
196958,bluerhino,Fastrac #235,,Camden,NY,,US,+1 315-245-0539,,,Blue Rhino,Q65681213
352006,dunkin_us,Dunkin',,Camden,NY,,US,+1 315-820-4343,https://locations.dunkindonuts.com/en/ny/camden/6-harden-blvd/352006,Mo-Su 04:30-20:00,Dunkin',Q847743
520745,eg_america_us,Fastrac,,Camden,NY,,US,+1 315-245-0539,https://www.fastraccafe.com/find-us/generic-store-page/?id=500235,,Fastrac,Q117324848
520745,fastrac_cafe_us,Fastrac,,Camden,NY,,US,+1 315-245-0539,https://fastraccafe.com/find-us/generic-store-page/?id=500235,,Fastrac Cafe,Q117324848
Motorcraft4483USAEnglish,ford,Fenton Ford,,New York,NY,,US,+1 315-245-0320,,,Ford,Q44294
https://www.ford.com/dealerships/dealer-details/ny/camden/fenton-ford/,ford_dealers_us,Fenton Ford,,Camden,NY,,US,+1 315-820-5279,https://www.ford.com/dealerships/dealer-details/ny/camden/fenton-ford/,Mo-Fr 09:00-17:00; Sa 09:00-15:00,Ford Motor Company,Q44294
2287,mightyflame,KINNEY DRUGS INC #03,,Camden,NY,,US,+1 315-245-1224,,,Mighty Flame,
4255,mightyflame,BYRNE DAIRY #16,,CAMDEN,NY,,US,+1 315-245-0517,,,Mighty Flame,
4947,mightyflame,TOPS MARKET #586,,CAMDEN,NY,,US,+1 315-245-4745,,,Mighty Flame,
https://locations.mtb.com/#25081383,mt_bank_us,M&T Bank,,,NY,,US,+1 315-245-2240,https://locations.mtb.com/ny/camden/bank-branches-and-atms-camden-ny-2049.html,Mo-Th 09:00-16:00; Fr 09:00-17:00,M&T Bank,Q3272257
carpenters-pro-hdwe-39198,ppgpaints,CARPENTER'S PRO HDWE   **,,"Camden, ",NY,,US,,https://www.ppgpaints.com/store-locator/us/new-york/camden-paint-stores/carpenters-pro-hdwe-39198,,PPG Paints,Q83891559
https://restaurants.subway.com/#14893694,subway,Subway,,Camden Oneida,NY,,US,+1 315-245-1607,https://restaurants.subway.com/united-states/ny/camden/13-main-st,Mo 12:00-21:30; Tu-Su 08:30-21:30,Subway,Q244457
586,tops,Tops,9554 Harden Blvd/State Rt 13,Camden,NY,,US,+1 315-245-4745,,,Tops,Q7825137
1356736,usps,CAMDEN,,CAMDEN,NY,,US,+1 315-245-0430,,Mo-Fr 08:00-17:00; Sa 08:00-12:00,United States Postal Service,Q668687
1331600009,usps_collection_boxes,USPS COLLECTION BOX - BLUE BOX,9554 STATE ROUTE 13,CAMDEN,NY,,US,,,,United States Postal Service,Q668687
1331600003,usps_collection_boxes,USPS COLLECTION BOX - BLUE BOX,2 PRESTON HILL ST,CAMDEN,NY,,US,,,,United States Postal Service,Q668687
1331600004,usps_collection_boxes,USPS COLLECTION BOX - BLUE BOX,35 MAIN ST,CAMDEN,NY,,US,,,,United States Postal Service,Q668687
1331600001,usps_collection_boxes,USPS COLLECTION BOX - BLUE BOX,100 MAIN ST,CAMDEN,NY,,US,,,,United States Postal Service,Q668687
1331600010,usps_collection_boxes,USPS COLLECTION BOX - PO LOBBY,100 MAIN ST,CAMDEN,NY,,US,,,,United States Postal Service,Q668687
1331600007,usps_collection_boxes,USPS COLLECTION BOX - PO LOBBY,100 MAIN ST,CAMDEN,NY,,US,,,,United States Postal Service,Q668687
1331600008,usps_collection_boxes,USPS COLLECTION BOX - BLUE BOX,15 OSWEGO ST,CAMDEN,NY,,US,,,,United States Postal Service,Q668687
1331600006,usps_collection_boxes,USPS COLLECTION BOX - BLUE BOX,57 2ND ST,CAMDEN,NY,,US,,,,United States Postal Service,Q668687
https://vcahospitals.com/queen-village,vca,Queen Village Animal Hospital,,Camden,NY,,US,+1 315-245-3001,https://vcahospitals.com/queen-village,Mo-Tu 09:00-18:00; Th 09:00-18:00; Fr 09:00-14:00,VCA,Q7906620
,visa,,,CAMDYEN,NY,,US,,,,,
,visa,,,CAMDEN,NY,,US,,,,,
,visa,,,CAMDEN,NY,,US,,,,,
,visa,,,CAMDEN,NY,,US,,,,,
,visa,,,CAMDEN,NY,,US,,,,,
,visa,,,CAMDEN,NY,,US,,,,,
,visa,,,CAMDEN,NY,,US,,,,,
,visa,,,CAMBDEN,NY,,US,,,,,
,visa,,,CAMDEN,NY,,US,,,,,
,visa,,,CAMDEN,NY,,US,,,,,
,visa,,,CAMDEN,NY,,US,,,,,
,visa,,,CAMDEN,NY,,US,,,,,
,visa,,,CAMDEN,NY,,US,,,,,
,visa,,,CAMDEN,NY,,US,,,,,
,visa,,,CAMDEN,NY,,US,,,,,
,visa,,,CAMDEN,NY,,US,,,,,
,visa,,,CAMDEN,NY,,US,,,,,
,visa,,,CAMDEN,NY,,US,,,,,
