Ref,Spider,Name,Address,City,State,Zipcode,Country,Phone,Website,Hours,Brand,WikiData
2335,anytime_fitness,Anytime Fitness,,Leesburg,GA,,US,+1 229-435-6300,https://www.anytimefitness.com/gyms/2335/leesburg-ga-31763/,,Anytime Fitness,Q4778364
3826,autozone_us,AutoZone Auto Parts Leesburg,,Leesburg,GA,,US,+1 229-883-5238,https://www.autozone.com/locations/ga/leesburg/1507-us-hwy-19-s.html,Mo-Sa 07:30-21:00; Su 08:00-20:00,AutoZone,Q4826087
197380,bluerhino,Dollar General #21379,,Leesburg,GA,,US,+1 229-392-6190,,,Blue Rhino,Q65681213
238253,bluerhino,Circle K #2745160,,Leesburg,GA,,US,+1 229-431-0052,,,Blue Rhino,Q65681213
238254,bluerhino,Circle K #2745161,,Leesburg,GA,,US,+1 229-759-9810,,,Blue Rhino,Q65681213
171856,bluerhino,Family Dollar #06065,,Leesburg,GA,,US,+1 229-518-1348,,,Blue Rhino,Q65681213
26726_50001,bmw_group,"Master Body Works, Independent Certified Collision Repair Center of BMW of Albany",,Leesburg,GA,,US,+1 229-439-8833,,,BMW,Q26678
89983478312503176300100000000000,bp,BP,,Leesburg,GA,,US,+1 229-888-2145,,24/7,BP,Q152057
96816419024203176300100000000000,bp,BP,,Leesburg,GA,,US,+1 229-496-1077,,24/7,BP,Q152057
40951,citi,ATM Circle K,,Leesburg,GA,,US,,,,Citibank,Q857063
64312,citi,ATM MAA,,Leesburg,GA,,US,,,,Citibank,Q857063
47365,citi,ATM CVS,,Leesburg,GA,,US,,,,Citibank,Q857063
64315,citi,ATM MAA,,Leesburg,GA,,US,,,,Citibank,Q857063
41943,citi,ATM Circle K,,Leesburg,GA,,US,,,,Citibank,Q857063
21379,dollar_general,Dollar General,,Leesburg,GA,,US,+1 571-491-4340,https://www.dollargeneral.com/store-directory/ga/leesburg/21379,Mo-Su 08:00-22:00,Dollar General,Q145168
13498,dollar_general,Dollar General,,Leesburg,GA,,US,+1 762-354-4427,https://www.dollargeneral.com/store-directory/ga/leesburg/13498,Mo-Su 08:00-22:00,Dollar General,Q145168
https://www.edwardjones.com/us-en/financial-advisor/zachery-cave,edwardjones,Zachery H Cave,,Leesburg,GA,,US,+1 229-883-8650,https://www.edwardjones.com/us-en/financial-advisor/zachery-cave,Mo-Fr 09:00-17:00,Edward Jones,Q5343830
https://local.fedex.com/#25234386,fedex,,,Leesburg,GA,,US,+1 800-463-3339,https://local.fedex.com/en-us/ga/leesburg/abybh,,FedEx,Q459477
https://local.fedex.com/#25232624,fedex,,,Leesburg,GA,,US,+1 800-463-3339,https://local.fedex.com/en-us/ga/leesburg/abyad,,FedEx,Q459477
0766aaab-458a-e111-8dde-005056934050,goodwill,Albany Donation Center - Lee Crossing,,Leesburg,GA,,US,+1 706-324-4366,https://www.goodwill.org/locator/location/?store=MDc2NmFhYWItNDU4YS1lMTExLThkZGUtMDA1MDU2OTM0MDUw&lat=MzEuNjU2MDk=&lng=LTg0LjE3NTEy,,Goodwill,Q5583655
https://salons.greatclips.com/us/ga/leesburg/1208-us-19,greatclips,Great Clips,,Leesburg,GA,,US,+1 229-405-1973,https://salons.greatclips.com/us/ga/leesburg/1208-us-19,Mo-Fr 09:00-19:00; Sa 09:00-18:00; Su 10:00-16:00,Great Clips,Q5598967
1503450,hardees_us,Hardee's,,Leesburg,GA,,US,+1 229-759-2150,https://locations.hardees.com/ga/leesburg/258-us-19-s,,Hardee's,Q1585088
10919,h_r_block,H&R Block,,Leesburg,GA,,US,+1 229-446-9734,https://www.hrblock.com/local-tax-offices/georgia/leesburg/lee-market-shopping-center/10919/,,H&R Block,Q5627799
Local Supermarket IGA,iga,Local Supermarket IGA,"216 Walnut Street, Leesburg, GA, 31763",Leesburg,GA,,US,+1 229-226-0992,https://leesburg.iga.com,,IGA,Q3146662
https://locations.oreillyauto.com/ga/leesburg/check-engine-light-testing-4871.html,oreilly,Your Leesburg O'Reilly Auto Parts Store,,Leesburg,GA,,US,+1 229-518-6189,https://locations.oreillyauto.com/ga/leesburg/check-engine-light-testing-4871.html,Mo-Sa 07:30-21:00; Su 09:00-18:00,O'Reilly Auto Parts,Q7071951
https://locations.oreillyauto.com/ga/leesburg/autopartes-4871.html,oreilly,Tu tienda O'Reilly Auto Parts en Leesburg,,Leesburg,GA,,US,+1 229-518-6189,https://locations.oreillyauto.com/ga/leesburg/autopartes-4871.html,Mo-Sa 07:30-21:00; Su 09:00-18:00,O'Reilly Auto Parts,Q7071951
https://locations.oreillyauto.com/ga/leesburg/wiper-installation-4871.html,oreilly,Your Leesburg O'Reilly Auto Parts Store,,Leesburg,GA,,US,+1 229-518-6189,https://locations.oreillyauto.com/ga/leesburg/wiper-installation-4871.html,Mo-Sa 07:30-21:00; Su 09:00-18:00,O'Reilly Auto Parts,Q7071951
https://locations.oreillyauto.com/ga/leesburg/battery-testing-4871.html,oreilly,Your Leesburg O'Reilly Auto Parts Store,,Leesburg,GA,,US,+1 229-518-6189,https://locations.oreillyauto.com/ga/leesburg/battery-testing-4871.html,Mo-Sa 07:30-21:00; Su 09:00-18:00,O'Reilly Auto Parts,Q7071951
ga_leesburg_1206-us-highway-19-s,pizza_hut_us,1206 US Highway 19 S,,Leesburg,GA,,US,+1 229-888-3050,https://locations.pizzahut.com/ga/leesburg/1206-us-highway-19-s,,Pizza Hut,Q191615
https://restaurants.subway.com/#14895824,subway,Subway,,Leesburg Lee,GA,,US,+1 229-435-7999,https://restaurants.subway.com/united-states/ga/leesburg/1543-us-highway-19-n,Mo-Su 09:00-22:00,Subway,Q244457
https://restaurants.subway.com/#14913894,subway,Subway,,Leesburg Dougherty,GA,,US,+1 229-759-1833,https://restaurants.subway.com/united-states/ga/leesburg/227-walnut-ave,Mo-Su 09:00-22:00,Subway,Q244457
https://restaurants.subway.com/#14916733,subway,Subway Double Gate EE-ZZ Mart,,Leesburg Lee,GA,,US,+1 229-888-2145,https://restaurants.subway.com/united-states/ga/leesburg/1250-highway-82-west,Mo-Th 07:00-22:00; Fr 07:00-23:00; Sa 08:00-23:00; Su 08:00-21:00,Subway,Q244457
https://restaurants.subway.com/#14905899,subway,Subway Express Lane,,Leesburg Lee,GA,,US,+1 229-430-9020,https://restaurants.subway.com/united-states/ga/leesburg/1505-philema-rd,Mo-Th 09:00-23:00; Fr-Sa 09:00-24:00; Su 09:00-22:00,Subway,Q244457
1370130,usps,LEESBURG,,LEESBURG,GA,,US,+1 229-759-0929,,Mo-Fr 08:30-17:00; Sa 09:00-11:15,United States Postal Service,Q668687
3176300010,usps_collection_boxes,USPS COLLECTION BOX - BLUE BOX,1553 US HIGHWAY 19 S,LEESBURG,GA,,US,,,,United States Postal Service,Q668687
3176300000,usps_collection_boxes,USPS COLLECTION BOX - BLUE BOX,152 ROBERT B LEE DR,LEESBURG,GA,,US,,,,United States Postal Service,Q668687
3176300005,usps_collection_boxes,USPS COLLECTION BOX - PO LOBBY,152 ROBERT B LEE DR,LEESBURG,GA,,US,,,,United States Postal Service,Q668687
3176300006,usps_collection_boxes,USPS COLLECTION BOX - BLUE BOX,152 ROBERT B LEE DR,LEESBURG,GA,,US,,,,United States Postal Service,Q668687
3176300015,usps_collection_boxes,USPS COLLECTION BOX - PO LOBBY,152 ROBERT B LEE DR,LEESBURG,GA,,US,,,,United States Postal Service,Q668687
,visa,,,LEESBURG,GA,,US,,,,,
,visa,,,LEESBURG,GA,,US,,,,,
,visa,,,LEESBURG,GA,,US,,,,,
,visa,,,LEESBURG,GA,,US,,,,,
,visa,,,ALBANY,GA,,US,,,,,
,visa,,,LEESBURG,GA,,US,,,,,
,visa,,,LEESBURG,GA,,US,,,,,
,visa,,,LEESBURG,GA,,US,,,,,
,visa,,,LEESBURG,GA,,US,,,,,
,visa,,,LEESBURG,GA,,US,,,,,
,visa,,,LEESBURG,GA,,US,,,,,
,visa,,,LEESBURG,GA,,US,,,,,
,visa,,,LEESBURG,GA,,US,,,,,
,visa,,,LEESBURG,GA,,US,,,,,
,visa,,,LEESBURG,GA,,US,,,,,
,visa,,,LEESBURG,GA,,US,,,,,
,visa,,,LEESBURG,GA,,US,,,,,
,visa,,,LEESBURG,GA,,US,,,,,
,visa,,,LEESBURG,GA,,US,,,,,
,visa,,,LEESBURG,GA,,US,,,,,
,visa,,,LEESBURG,GA,,US,,,,,
,visa,,,LEESBURG,GA,,US,,,,,
,visa,,,LEESBURG,GA,,US,,,,,
,visa,,,LEESBURG,GA,,US,,,,,
,visa,,,LEESBURG,GA,,US,,,,,
,visa,,,LEESBURG,GA,,US,,,,,
,visa,,,LEESBURG,GA,,US,,,,,
,visa,,,LEESBURG,GA,,US,,,,,
,visa,,,LEESBURG,GA,,US,,,,,
1547,waffle_house_us,Waffle House #1547,,LEESBURG,GA,,US,+1 229-420-7920,https://locations.wafflehouse.com/leesburg-ga-1547,24/7,Waffle House,Q1701206
