Ref,Spider,Name,Address,City,State,Zipcode,Country,Phone,Website,Hours,Brand,WikiData
https://stores.advanceautoparts.com/wi/hartford/1219-e-sumner-st,advance_auto_parts_us,Advance Auto Parts,,Hartford,WI,,US,+1 262-670-9393,https://stores.advanceautoparts.com/wi/hartford/1219-e-sumner-st,Mo-Sa 07:30-21:00; Su 09:00-20:00,Advance Auto Parts,Q4686051
https://stores.aldi.us/#4420597,aldi_sud_us,ALDI  1589 E Sumner St,,Hartford,WI,,US,+1 855-464-1024,https://stores.aldi.us/wi/hartford/1589-e-sumner-st,Mo-Su 09:00-20:00,ALDI,Q41171672
2566,anytime_fitness,Anytime Fitness,,Hartford,WI,,US,+1 262-673-7300,https://www.anytimefitness.com/gyms/2566/hartford-wi-53027/,,Anytime Fitness,Q4778364
22696,asics_us,Hibbett Sports,49 Liberty Ave,Hartford,WI,,US,+1 262-670-6960,,,asics,Q327247
4322,autozone_us,AutoZone Auto Parts Hartford,,Hartford,WI,,US,+1 262-670-5053,https://www.autozone.com/locations/wi/hartford/1268-e-sumner-st.html,Mo-Fr 07:30-21:00; Sa 07:30-20:00; Su 09:00-20:00,AutoZone,Q4826087
103186,bluerhino,Walmart #5463,,Hartford,WI,,US,+1 262-670-5803,,,Blue Rhino,Q65681213
204201,bluerhino,CASEY'S GENERAL STORE #3768,,HARTFORD,WI,,US,+1 262-670-8644,,,Blue Rhino,Q65681213
50925,bluerhino,United Cooperative-Hartford #361,,Hartford,WI,,US,+1 262-673-8960,,,Blue Rhino,Q65681213
213194,bluerhino,Festival Foods - Hartford #18-2696,,Hartford,WI,,US,+1 262-457-2772,,,Blue Rhino,Q65681213
155741,bluerhino,Walgreens #6960,,Hartford,WI,,US,+1 262-670-1137,,,Blue Rhino,Q65681213
05086252347125302700100000000000,bp,BP,,Hartford,WI,,US,+1 262-673-6079,,Mo-Fr 04:00-21:00; Sa 05:00-21:00; Su 06:00-21:00,BP,Q152057
33723116117435302700100000000000,bp,Amoco,,Hartford,WI,,US,+1 262-670-5034,,24/7,BP,Q152057
04305461285295302700100000000000,bp,BP,,Hartford,WI,,US,+1 262-673-9150,,Mo-Fr 06:00-23:00; Sa-Su 07:00-22:00,BP,Q152057
96497509227175302700100000000000,bp,BP,,Hartford,WI,,US,+1 262-673-7001,,Mo-Fr 04:00-21:00; Sa 05:00-21:00; Su 06:00-21:00,BP,Q152057
95093,citi,ATM West Side Mart,,Hartford,WI,,US,,,,Citibank,Q857063
87533,citi,ATM Walgreens,,Hartford,WI,,US,,,,Citibank,Q857063
63093,citi,ATM Kwik Trip #655-1,,Hartford,WI,,US,,,,Citibank,Q857063
63094,citi,ATM Kwik Trip #655-2,,Hartford,WI,,US,,,,Citibank,Q857063
35455,citi,ATM ASSOCIATED BANK,,Hartford,WI,,US,,,,Citibank,Q857063
62468,citi,ATM Kwik Trip #1528,,Hartford,WI,,US,,,,Citibank,Q857063
8364,cousins_subs_us,Hartford - Sumner St. (Hwy. 60),,Hartford,WI,,US,+1 262-670-9945,https://www.cousinssubs.com/order/cousins-subs-hartford-sumner-st-hwy-60,,Cousins Subs,Q5178843
,credit_union_us,Glacier Hills CU,,Hartford,WI,,US,+1 262-673-6065,,,,
212,culvers_us,"Culver's of Hartford, WI - E Sumner St",,Hartford,WI,,US,+1 262-670-6093,http://www.culvers.com/restaurants/hartford,Mo-Fr 10:00-23:00; Su 10:00-23:00,Culver's,Q1143589
2197,dominos_pizza_us,Domino's Pizza,,Hartford,WI,,US,+1 262-670-8811,https://pizza.dominos.com/wisconsin/hartford/46-s-main-street,Mo-Th 10:30-24:00; Fr-Sa 10:30-01:00; Su 10:30-24:00,Domino's,Q839466
354496,dunkin_us,Dunkin',,Hartford,WI,,US,+1 262-788-3088,https://locations.dunkindonuts.com/en/wi/hartford/1595-e-sumner-st/354496,Mo-Su 05:00-20:00,Dunkin',Q847743
https://www.edwardjones.com/us-en/financial-advisor/ryan-gonzalez,edwardjones,Ryan Gonzalez,,Hartford,WI,,US,+1 262-457-6001,https://www.edwardjones.com/us-en/financial-advisor/ryan-gonzalez,Mo-Fr 07:30-17:00; Sa 08:30-12:00,Edward Jones,Q5343830
200309432,exxonmobil,ADDISON STATION,,HARTFORD,WI,,US,+1 262-644-7878,https://www.exxon.com/en/find-station/mobil-hartford-wi-addisonstation-200309432,Mo-Th 04:00-23:00; Fr 04:00-00:00; Sa 05:00-00:00; Su 06:00-22:00,Mobil,Q109676002
https://local.fedex.com/#25207132,fedex,,,Hartford,WI,,US,+1 800-463-3339,https://local.fedex.com/en-us/wi/hartford/t5emr,,FedEx,Q459477
https://local.fedex.com/#27752823,fedex,FedEx Authorized ShipCenter,,Hartford,WI,,US,+1 262-673-2217,https://local.fedex.com/en-us/wi/hartford/46272,,FedEx,Q459477
2696,festival_foods_us,Hartford,,Hartford,WI,,US,"[262-457-2772](+12624572772)
Click N Go: [262-328-7084](+12623287084)",https://www.festfoods.com/stores/hartford,"Mo-Su 06:00-22:00,08:00-21:00",Festival Foods,Q5445707
Motorcraft4482USAEnglish,ford,"Ewald's Hartford Ford, LLC",,Wisconsin,WI,,US,+1 262-673-5180,,,Ford,Q44294
https://www.ford.com/dealerships/dealer-details/wi/hartford/ewald%27s-hartford-ford-llc/,ford_dealers_us,"Ewald's Hartford Ford, LLC",,Hartford,WI,,US,+1 262-709-2638,https://www.ford.com/dealerships/dealer-details/wi/hartford/ewald's-hartford-ford-llc/,Mo-Th 09:00-20:00; Fr 09:00-18:00; Sa 09:00-17:00,Ford Motor Company,Q44294
e39371dd-1cc2-ee11-8117-00505689ac90,goodwill,Hartford Goodwill Store & Donation Center,,Hartford,WI,,US,,https://www.goodwill.org/locator/location/?store=ZTM5MzcxZGQtMWNjMi1lZTExLTgxMTctMDA1MDU2ODlhYzkw&lat=NDMuMzE1ODE=&lng=LTg4LjM1OTA2,,Goodwill,Q5583655
https://salons.greatclips.com/us/wi/hartford/45-liberty-ave,greatclips,Great Clips,,Hartford,WI,,US,+1 262-397-8850,https://salons.greatclips.com/us/wi/hartford/45-liberty-ave,Mo-Fr 09:00-18:30; Sa 08:00-16:00; Su 09:00-15:00,Great Clips,Q5598967
46918,h_r_block,H&R Block,,Hartford,WI,,US,+1 262-673-4803,https://www.hrblock.com/local-tax-offices/wisconsin/hartford/1595-e-sumner-st/46918/,,H&R Block,Q5627799
https://office.jacksonhewitt.com/#27577859,jackson_hewitt,Jackson Hewitt,,Hartford,WI,,US,+1 262-802-9136,https://office.jacksonhewitt.com/tax-preparation-services-locations/en/wi/hartford/1220-theil-street/55463,Mo-Sa 11:00-19:00; Su 12:00-16:00,Jackson Hewitt,Q6117132
https://locations.jimmyjohns.com/wi/hartford/sandwiches-1482.html,jimmy_johns,Jimmy John's,,Hartford,WI,,US,+1 262-670-0555,https://locations.jimmyjohns.com/wi/hartford/sandwiches-1482.html,,Jimmy John's,Q1689380
https://locations.maurices.com/#11688376,maurices,maurices Shoppes At Hartford,,Hartford,WI,,US,+1 262-670-6044,https://locations.maurices.com/us/wi/hartford/67-liberty-avenue,Mo-Fr 10:00-19:00; Sa 10:00-18:00; Su 11:00-17:00,maurices,Q6793571
https://locations.noodles.com/wi/hartford/1303-bell-ave.html,noodles_and_company_us,Noodles & Company Hartford,,Hartford,WI,,US,+1 262-228-8135,https://locations.noodles.com/wi/hartford/1303-bell-ave.html,Mo-We 10:30-21:00; Th-Sa 10:30-22:00; Su 10:30-21:00,Noodles and Company,Q7049673
https://locations.papamurphys.com/#15430412,papamurphys,Pizza Takeout & Delivery,,Hartford,WI,,US,+1 262-397-8600,https://locations.papamurphys.com/wi/hartford/1595-east-sumner-street,Mo 12:00-19:00; Tu-Su 11:00-19:00,Papa Murphy's,Q7132349
400,piggly_wiggly_us,Piggly Wiggly,,Hartford,WI,,US,+1 262-673-9055,https://www.shopthepig.com/,,Piggly Wiggly,Q3388303
wi_hartford_1505-e-sumner-st,pizza_hut_us,1505 E. Sumner St.,,Hartford,WI,,US,+1 262-673-7206,https://locations.pizzahut.com/wi/hartford/1505-e-sumner-st,,Pizza Hut,Q191615
https://locations.qdoba.com/us/wi/hartford/1574-e-sumner-st.html,qdoba,QDOBA E Sumner St,,Hartford,WI,,US,+1 262-333-3432,https://locations.qdoba.com/us/wi/hartford/1574-e-sumner-st.html,Mo-Su 10:30-22:00,Qdoba,Q1363885
1218,scooters_coffee_us,Summer St & Plaza Dr,,Hartford,WI,,US,+1 920-669-0719,,Mo-Fr 05:00-20:00; Sa-Su 06:00-20:00,Scooter's Coffee,Q117280308
238,shopko,Shopko Optical Hartford,,Hartford,WI,,US,+1 262-709-8211,https://www.shopko.com/eye-care/wi/hartford/store-238/,Mo-Fr 09:00-19:00; Sa 09:00-15:00,Shopko Optical,Q109228833
2289,snap_fitness,"Hartford, WI",1532 E Sumner St,Hartford,WI,,US,+1 262-397-8726,https://www.snapfitness.com/us/gyms/hartford-wi,24/7,Snap Fitness,Q7547254
https://restaurants.subway.com/#14913771,subway,Subway Sumner Centre,,Hartford Washington,WI,,US,+1 262-673-7827,https://restaurants.subway.com/united-states/wi/hartford/1509-east-sumner-st,Mo-Th 08:00-21:00; Fr 07:30-21:00; Sa-Su 08:00-21:00,Subway,Q244457
https://restaurants.subway.com/#14910607,subway,Subway Walmart #5463,,Hartford Washington,WI,,US,+1 262-670-6686,https://restaurants.subway.com/united-states/wi/hartford/1220-thiel-st,Mo-Su 08:00-21:00,Subway,Q244457
https://locations.tacobell.com/#6146147,taco_bell,Taco Bell,,Hartford,WI,,US,+1 262-673-7993,https://locations.tacobell.com/wi/hartford/1516-e-sumner-st.html,Mo-Tu 09:00-01:00; We-Th 09:00-02:00; Fr-Sa 09:00-03:00; Su 09:00-01:00,Taco Bell,Q752941
047359,uhaul,A&B Mart,743 E Sumner St,Hartford,WI,,US,+1 262-709-0167,,Mo-Sa 00:00-17:00,U-Haul,Q7862902
1366364,usps,HARTFORD,,HARTFORD,WI,,US,+1 262-670-6974,,Mo-Fr 08:30-17:00; Sa 09:00-12:00,United States Postal Service,Q668687
5302700021,usps_collection_boxes,USPS COLLECTION BOX - PO LOBBY,45 E WISCONSIN ST,HARTFORD,WI,,US,,,,United States Postal Service,Q668687
5302700015,usps_collection_boxes,USPS COLLECTION BOX - BLUE BOX,45 E WISCONSIN ST,HARTFORD,WI,,US,,,,United States Postal Service,Q668687
5302700017,usps_collection_boxes,USPS COLLECTION BOX - PO LOBBY,45 E WISCONSIN ST,HARTFORD,WI,,US,,,,United States Postal Service,Q668687
5302700019,usps_collection_boxes,USPS COLLECTION BOX - BLUE BOX,1008 RIVERBEND DR,HARTFORD,WI,,US,,,,United States Postal Service,Q668687
5302700020,usps_collection_boxes,USPS COLLECTION BOX - BLUE BOX,1532 E SUMNER ST,HARTFORD,WI,,US,,,,United States Postal Service,Q668687
,visa,,,HARTFORD,WI,,US,,,,,
,visa,,,HARTFORD,WI,,US,,,,,
,visa,,,HARTFORD,WI,,US,,,,,
,visa,,,HARTFORD,WI,,US,,,,,
,visa,,,HARTFORD,WI,,US,,,,,
,visa,,,HARTFORD,WI,,US,,,,,
,visa,,,HARTFORD,WI,,US,,,,,
,visa,,,HARTFORD,WI,,US,,,,,
,visa,,,HARTFORD,WI,,US,,,,,
,visa,,,HARTFORD,WI,,US,,,,,
,visa,,,HARTFORD,WI,,US,,,,,
,visa,,,HARTFORD,WI,,US,,,,,
,visa,,,HARTFORD,WI,,US,,,,,
,visa,,,HARTFORD,WI,,US,,,,,
,visa,,,HARTFORD,WI,,US,,,,,
,visa,,,HARTFORD,WI,,US,,,,,
,visa,,,HARTFORD,WI,,US,,,,,
,visa,,,HARTFORD,WI,,US,,,,,
,visa,,,HARTFORD,WI,,US,,,,,
,visa,,,HARTFORD,WI,,US,,,,,
,visa,,,HARTFORD.,WI,,US,,,,,
,visa,,,HARTFORD,WI,,US,,,,,
,visa,,,HARTFORD,WI,,US,,,,,
,visa,,,HARTFORD,WI,,US,,,,,
,visa,,,HARTFORD,WI,,US,,,,,
,visa,,,HARTFORD,WI,,US,,,,,
,visa,,,HARTFORD,WI,,US,,,,,
,visa,,,HARTFORD,WI,,US,,,,,
,visa,,,HARTFORD,WI,,US,,,,,
,visa,,,HARTFORD,WI,,US,,,,,
,visa,,,HARTFORD,WI,,US,,,,,
,visa,,,HARTFORD,WI,,US,,,,,
,visa,,,HARTFORD,WI,,US,,,,,
,visa,,,HARTFORD,WI,,US,,,,,
,visa,,,HARTFORD,WI,,US,,,,,
,visa,,,HARTFORD,WI,,US,,,,,
,visa,,,HARTFORD,WI,,US,,,,,
,visa,,,HARTFORD,WI,,US,,,,,
,visa,,,HARTFORD,WI,,US,,,,,
,visa,,,HARTFORD,WI,,US,,,,,
,visa,,,HARTFORD,WI,,US,,,,,
,visa,,,HARTFORD,WI,,US,,,,,
,visa,,,HARTFORD,WI,,US,,,,,
,visa,,,HARTFORD,WI,,US,,,,,
,visa,,,HARTFORD,WI,,US,,,,,
,visa,,,HARTFORD,WI,,US,,,,,
,visa,,,HARTFORD,WI,,US,,,,,
,visa,,,HARTFORD,WI,,US,,,,,
,visa,,,HARTFORD,WI,,US,,,,,
,visa,,,NEOSHO,WI,,US,,,,,
https://www.walgreens.com/locator/walgreens-1400+e+sumner+st-hartford-wi-53027/id=6960,walgreens,Walgreens,,Hartford,WI,,US,+1 262-670-1137,https://www.walgreens.com/locator/walgreens-1400+e+sumner+st-hartford-wi-53027/id=6960,Mo-Fr 07:00-23:00; Sa-Su 07:00-22:00,Walgreens,Q1591889
61c54d1a4c452da569926dadecef27bf,western_union,WALMART #005463,,Hartford,WI,,US,+1 262-670-5803,https://location.westernunion.com/us/wi/hartford/61c54d1a4c452da569926dadecef27bf,Mo-Su 07:00-21:00,Western Union,Q861042
