Ref,Spider,Name,Address,City,State,Zipcode,Country,Phone,Website,Hours,Brand,WikiData
9479,bank_of_hawaii_us,McDonald's Haleiwa,,Haleiwa,HI,,US,,,,Bank of Hawaii,Q4856124
8640,bank_of_hawaii_us,Haleiwa Branch,,Haleiwa,HI,,US,+1 808-637-6235,,Mo-Fr 08:00-16:00; Sa 09:00-13:00,Bank of Hawaii,Q4856124
85942,bluerhino,Foodland #27,,Haleiwa,HI,,US,+1 808-638-8081,,,Blue Rhino,Q65681213
64109,citi,ATM Longs Drugs,,Haleiwa,HI,,US,,,,Citibank,Q857063
3070,cvs_us,Longs Drugs,,Haleiwa,HI,,US,+1 808-637-9393,https://www.cvs.com/store-locator/haleiwa-hi-pharmacies/66-197-kamehameha-hwy-1-haleiwa-hi-96712/storeid=3070,Mo-Th 07:00-23:00; Fr-Sa 07:00-00:00; Su 07:00-23:00,Longs Drugs,Q16931196
FH2566,first_hawaiian_bank,"First Hawaiian Bank ATM, 7-Eleven Haleiwa #2",,Haleiwa,HI,,US,,,24/7,First Hawaiian Bank,Q3072937
FH2144,first_hawaiian_bank,"First Hawaiian Bank ATM, Whaler's General Store Haleiwa",,Haleiwa,HI,,US,,,24/7,First Hawaiian Bank,Q3072937
26,first_hawaiian_bank,First Hawaiian Bank Haleiwa Branch,,Haleiwa,HI,,US,+1 808-637-5034,,Mo-Fr 08:30-16:00,First Hawaiian Bank,Q3072937
FH2228,first_hawaiian_bank,"First Hawaiian Bank ATM, Malama Market",,Haleiwa,HI,,US,,,24/7,First Hawaiian Bank,Q3072937
FH2545,first_hawaiian_bank,"First Hawaiian Bank ATM, 7-Eleven Haleiwa",,Haleiwa,HI,,US,,,24/7,First Hawaiian Bank,Q3072937
https://healthy.kaiserpermanente.org/hawaii/facilities/longs-drugs-haleiwa-300330,kaiser_permanente_us,Longs Drugs - Haleiwa,,Haleiwa,HI,,US,+1 808-637-9393,https://healthy.kaiserpermanente.org/hawaii/facilities/longs-drugs-haleiwa-300330,,Kaiser Permanente,Q1721601
https://healthy.kaiserpermanente.org/hawaii/facilities/larissa-a-cordeira-psyd-llc-141245,kaiser_permanente_us,"Larissa A. Cordeira, PsyD LLC",,Haleiwa,HI,,US,+1 808-721-7481,https://healthy.kaiserpermanente.org/hawaii/facilities/larissa-a-cordeira-psyd-llc-141245,,Kaiser Permanente,Q1721601
https://healthy.kaiserpermanente.org/hawaii/facilities/julia-kiehl-lcsw-dcsw-julia-kiehl-llc-140989,kaiser_permanente_us,"Julia Kiehl, LCSW, DCSW, Julia Kiehl, LLC",,Haleiwa,HI,,US,+1 808-277-8499,https://healthy.kaiserpermanente.org/hawaii/facilities/julia-kiehl-lcsw-dcsw-julia-kiehl-llc-140989,,Kaiser Permanente,Q1721601
https://healthy.kaiserpermanente.org/hawaii/facilities/donna-g-goodwin-psyd-llc-140549,kaiser_permanente_us,"Donna G. Goodwin, Psy.D., LLC",,Haleiwa,HI,,US,+1 808-492-6779,https://healthy.kaiserpermanente.org/hawaii/facilities/donna-g-goodwin-psyd-llc-140549,,Kaiser Permanente,Q1721601
66237914,moneygram,LONGS DRUGS - #3070,,HALEIWA,HI,,US,+1 808-637-9393,,Mo-Su 07:00-21:00,MoneyGram,Q1944412
0000907445,phillips_66_conoco_76,HALEIWA,,HALEIWA,HI,,US,+1 808-637-9879,,,U76,Q1658320
1365966,usps,HALEIWA,,HALEIWA,HI,,US,+1 808-637-1711,,Mo-Fr 09:00-16:00; Sa 09:00-12:00,United States Postal Service,Q668687
9671200010,usps_collection_boxes,USPS COLLECTION BOX - BLUE BOX,59-720 KAMEHAMEHA HWY,HALEIWA,HI,,US,,,,United States Postal Service,Q668687
9671200001,usps_collection_boxes,USPS COLLECTION BOX - BLUE BOX,66-437 KAMEHAMEHA HWY,HALEIWA,HI,,US,,,,United States Postal Service,Q668687
9671200007,usps_collection_boxes,USPS COLLECTION BOX - PO LOBBY,66-437 KAMEHAMEHA HWY,HALEIWA,HI,,US,,,,United States Postal Service,Q668687
9671200008,usps_collection_boxes,USPS COLLECTION BOX - PO LOBBY,66-437 KAMEHAMEHA HWY,HALEIWA,HI,,US,,,,United States Postal Service,Q668687
9671200013,usps_collection_boxes,USPS COLLECTION BOX - PO LOBBY,66-437 KAMEHAMEHA HWY,HALEIWA,HI,,US,,,,United States Postal Service,Q668687
,visa,,,HALEIWA,HI,,US,,,,,
,visa,,,HALEIWA,HI,,US,,,,,
,visa,,,HALEIAWA,HI,,US,,,,,
,visa,,,HALEIWA,HI,,US,,,,,
,visa,,,HALEIWA,HI,,US,,,,,
,visa,,,HALEIWA,HI,,US,,,,,
,visa,,,HALEIWA,HI,,US,,,,,
,visa,,,HALEIWA,HI,,US,,,,,
,visa,,,HALEIWA,HI,,US,,,,,
,visa,,,HALEIWA,HI,,US,,,,,
,visa,,,HALEIWA,HI,,US,,,,,
,visa,,,HALEIWA,HI,,US,,,,,
,visa,,,HALEIWA,HI,,US,,,,,
,visa,,,HALEIWA,HI,,US,,,,,
,visa,,,HALEIWA,HI,,US,,,,,
