Ref,Spider,Name,Address,City,State,Zipcode,Country,Phone,Website,Hours,Brand,WikiData
BPM014,bp,BP,,Cuautitlan Izcalli,Estado de Mexico,,MX,+52 55 2075 2681,,24/7,BP,Q152057
,visa,,,CUAUT IZCALLI,ESTADO DE MEXICO,,MX,,,,,
,visa,,,CUAUT IZCALLI,ESTADO DE MEXICO,,MX,,,,,
,visa,,,CUAUTITLAN IZCALLI,ESTADO DE MEXICO,,MX,,,,,
,visa,,,CUAUTITLAN IZCALLI,ESTADO DE MEXICO,,MX,,,,,
,visa,,,CUAUT IZCALLI,ESTADO DE MEXICO,,MX,,,,,
,visa,,,CUAUTITLAN IZCALLI,ESTADO DE MEXICO,,MX,,,,,
,visa,,,CUAUT IZCALLI,ESTADO DE MEXICO,,MX,,,,,
,visa,,,CUAUTITLAN IZCALLI,ESTADO DE MEXICO,,MX,,,,,
,visa,,,CUAUT IZCALLI,ESTADO DE MEXICO,,MX,,,,,
,visa,,,CUAUTITLAN IZCALLI,ESTADO DE MEXICO,,MX,,,,,
52623c1f71127d57b50e775ee834b89c,western_union,OXXO MONTE ALBAN MEX,,Cuautitlan Izcalli,ESTADO DE MEXICO,,MX,+52 81 8389 2121,https://location.westernunion.com/mx/estado-de-mexico/cuautitlan-izcalli/52623c1f71127d57b50e775ee834b89c,Mo-Su 08:00-22:00,Western Union,Q861042
d6ddb0ca8b48771a76132cad897833d3,western_union,OXXO MONTE ALBAN MEX,,Cuautitlan Izcalli,ESTADO DE MEXICO,,MX,+52 81 8389 2121,https://location.westernunion.com/mx/estado-de-mexico/cuautitlan-izcalli/d6ddb0ca8b48771a76132cad897833d3,Mo-Su 08:00-22:00,Western Union,Q861042
17290ca349188477f12346616505259b,western_union,OXXO MONTE ALBAN MEX,,Cuautitlan Izcalli,ESTADO DE MEXICO,,MX,+52 81 8389 2121,https://location.westernunion.com/mx/estado-de-mexico/cuautitlan-izcalli/17290ca349188477f12346616505259b,Mo-Su 08:00-22:00,Western Union,Q861042
75f466c80ce6bf5b101c1380706cc28c,western_union,AURRERA EXPRESS INFONAVIT IZCALLI 3543,,Cuautitlan,ESTADO DE MEXICO,,MX,+52 800 833 4700,https://location.westernunion.com/mx/estado-de-mexico/cuautitlan/75f466c80ce6bf5b101c1380706cc28c,Mo-Su 08:00-22:00,Western Union,Q861042
0b339e97d0f2c1b8a537b957c244cf71,western_union,AURRERA EXPRESS INFONAVIT IZCALLI 3543,,Cuautitlan,ESTADO DE MEXICO,,MX,+52 800 833 4700,https://location.westernunion.com/mx/estado-de-mexico/cuautitlan/0b339e97d0f2c1b8a537b957c244cf71,Mo-Su 08:00-22:00,Western Union,Q861042
b008ea201973394fdc018d88ac3380c1,western_union,AURRERA EXPRESS INFONAVIT IZCALLI 3543,,Cuautitlan,ESTADO DE MEXICO,,MX,+52 800 833 4700,https://location.westernunion.com/mx/estado-de-mexico/cuautitlan/b008ea201973394fdc018d88ac3380c1,Mo-Su 08:00-22:00,Western Union,Q861042
606f2caad7a6e709bc9ad0fac5644e54,western_union,WALMART PERINORTE 4154,,Cuautitlan Izcalli,ESTADO DE MEXICO,,MX,+52 800 833 4700,https://location.westernunion.com/mx/estado-de-mexico/cuautitlan-izcalli/606f2caad7a6e709bc9ad0fac5644e54,Mo-Su 07:00-23:00,Western Union,Q861042
4078c6935c649129ff6290aa33a2767b,western_union,BANCOPPEL 1419 ARKANA,,Cuautitlan Izcalli,ESTADO DE MEXICO,,MX,(+52) 667-589999,https://location.westernunion.com/mx/estado-de-mexico/cuautitlan-izcalli/4078c6935c649129ff6290aa33a2767b,Mo-Su 08:30-21:00,Western Union,Q861042
b3703982f6cef3930db33d555e6088c1,western_union,BANCOPPEL 1419 ARKANA,,Cuautitlan Izcalli,ESTADO DE MEXICO,,MX,(+52) 667-589999,https://location.westernunion.com/mx/estado-de-mexico/cuautitlan-izcalli/b3703982f6cef3930db33d555e6088c1,Mo-Su 08:30-21:00,Western Union,Q861042
92e831cef514381e8cabca35228a2a3a,western_union,BANCOPPEL 1419 ARKANA,,Cuautitlan Izcalli,ESTADO DE MEXICO,,MX,(+52) 667-589999,https://location.westernunion.com/mx/estado-de-mexico/cuautitlan-izcalli/92e831cef514381e8cabca35228a2a3a,Mo-Su 08:30-21:00,Western Union,Q861042
f391dbe3ea4242a83d6f8ef1a10347d3,western_union,WALMART PERINORTE 4154,,Cuautitlan Izcalli,ESTADO DE MEXICO,,MX,+52 800 833 4700,https://location.westernunion.com/mx/estado-de-mexico/cuautitlan-izcalli/f391dbe3ea4242a83d6f8ef1a10347d3,Mo-Su 07:00-23:00,Western Union,Q861042
3566e1684eb0c058ec922739b5258aef,western_union,WALMART PERINORTE 4154,,Cuautitlan Izcalli,ESTADO DE MEXICO,,MX,+52 800 833 4700,https://location.westernunion.com/mx/estado-de-mexico/cuautitlan-izcalli/3566e1684eb0c058ec922739b5258aef,Mo-Su 07:00-23:00,Western Union,Q861042
8a79df69b4ff6ddcf7ac961f787ca37f,western_union,OXXO GALEANA III MEX,,Cuautitlan Izcalli,ESTADO DE MEXICO,,MX,+52 81 8389 2121,https://location.westernunion.com/mx/estado-de-mexico/cuautitlan-izcalli/8a79df69b4ff6ddcf7ac961f787ca37f,Mo-Su 08:00-22:00,Western Union,Q861042
b75d41812e508a995100724ea379baf0,western_union,OXXO GALEANA III MEX,,Cuautitlan Izcalli,ESTADO DE MEXICO,,MX,+52 81 8389 2121,https://location.westernunion.com/mx/estado-de-mexico/cuautitlan-izcalli/b75d41812e508a995100724ea379baf0,Mo-Su 08:00-22:00,Western Union,Q861042
cd21db7ec449f8b207dce50a390b6d7e,western_union,OXXO GALEANA III MEX,,Cuautitlan Izcalli,ESTADO DE MEXICO,,MX,+52 81 8389 2121,https://location.westernunion.com/mx/estado-de-mexico/cuautitlan-izcalli/cd21db7ec449f8b207dce50a390b6d7e,Mo-Su 08:00-22:00,Western Union,Q861042
48ef98946f0f5efce8ae8459975cc508,western_union,OXXO CEDIS MEX,,Cuautitlan Izcalli,ESTADO DE MEXICO,,MX,+52 81 8389 2121,https://location.westernunion.com/mx/estado-de-mexico/cuautitlan-izcalli/48ef98946f0f5efce8ae8459975cc508,Mo-Su 08:00-22:00,Western Union,Q861042
5b860e092af9443110468290907a0271,western_union,OXXO CEDIS MEX,,Cuautitlan Izcalli,ESTADO DE MEXICO,,MX,+52 81 8389 2121,https://location.westernunion.com/mx/estado-de-mexico/cuautitlan-izcalli/5b860e092af9443110468290907a0271,Mo-Su 08:00-22:00,Western Union,Q861042
61ff0b2778de11e52549e3c0806a27a6,western_union,ELEKTRA 9525,,Cuautitlan Izcalli,ESTADO DE MEXICO,,MX,+52 55 1720 8177,https://location.westernunion.com/mx/estado-de-mexico/cuautitlan-izcalli/61ff0b2778de11e52549e3c0806a27a6,Mo-Su 09:00-21:00,Western Union,Q861042
f5d5cdd28ea3d4ba3dee8f25a234587d,western_union,ELEKTRA 9525,,Cuautitlan Izcalli,ESTADO DE MEXICO,,MX,+52 55 1720 8177,https://location.westernunion.com/mx/estado-de-mexico/cuautitlan-izcalli/f5d5cdd28ea3d4ba3dee8f25a234587d,Mo-Su 09:00-21:00,Western Union,Q861042
ecb6d650a8a406936faab375c5c76f65,western_union,OXXO SAN MARTIN,,Cuautitlan Izcalli,ESTADO DE MEXICO,,MX,+52 81 8389 2121,https://location.westernunion.com/mx/estado-de-mexico/cuautitlan-izcalli/ecb6d650a8a406936faab375c5c76f65,Mo-Su 08:00-22:00,Western Union,Q861042
dae82955251b6062c998cbbf7c52c77a,western_union,OXXO SAN MARTIN,,Cuautitlan Izcalli,ESTADO DE MEXICO,,MX,+52 81 8389 2121,https://location.westernunion.com/mx/estado-de-mexico/cuautitlan-izcalli/dae82955251b6062c998cbbf7c52c77a,Mo-Su 08:00-22:00,Western Union,Q861042
