Ref,Spider,Name,Address,City,State,Zipcode,Country,Phone,Website,Hours,Brand,WikiData
MX125661,reebok,Outlet Punta Norte,,Cuautitl√°n Izcalli,Estado de Mexico,,MX,,,,Reebok,Q466183
,visa,,,CUAUTITLAN IZCALLI,ESTADO DE MEXICO,,MX,,,,,
,visa,,,TULTITLAN,ESTADO DE MEXICO,,MX,,,,,
,visa,,,CUAUTITLAN IZCALLI,ESTADO DE MEXICO,,MX,,,,,
,visa,,,CUAUTITLAN IZCALLI,ESTADO DE MEXICO,,MX,,,,,
,visa,,,CUAUTITLAN IZCALLI,ESTADO DE MEXICO,,MX,,,,,
,visa,,,CUAUTITLAN IZCALLI,ESTADO DE MEXICO,,MX,,,,,
,visa,,,CUAUTITLAN IZCALLI,ESTADO DE MEXICO,,MX,,,,,
,visa,,,CUAUTITLAN IZCALLI,ESTADO DE MEXICO,,MX,,,,,
,visa,,,CUAUT IZCALLI,ESTADO DE MEXICO,,MX,,,,,
,visa,,,CUAUTITLAN IZCALLI,ESTADO DE MEXICO,,MX,,,,,
,visa,,,CUAUTITLAN IZCALLI,ESTADO DE MEXICO,,MX,,,,,
,visa,,,CUAUT IZCALLI,ESTADO DE MEXICO,,MX,,,,,
,visa,,,CUAUTITLAN IZCALLI,ESTADO DE MEXICO,,MX,,,,,
,visa,,,CUAUTITLAN IZCALLI,ESTADO DE MEXICO,,MX,,,,,
,visa,,,CUAUT IZCALLI,ESTADO DE MEXICO,,MX,,,,,
,visa,,,CUAUT IZCALLI,ESTADO DE MEXICO,,MX,,,,,
,visa,,,CUAUTITLAN IZCALLI,ESTADO DE MEXICO,,MX,,,,,
,visa,,,CUAUTITLAN IZCALLI,ESTADO DE MEXICO,,MX,,,,,
,visa,,,CUAUTITLAN IZCALLI,ESTADO DE MEXICO,,MX,,,,,
,visa,,,CUAUTITLAN IZCALLI,ESTADO DE MEXICO,,MX,,,,,
,visa,,,CUAUTITLAN IZCALLI,ESTADO DE MEXICO,,MX,,,,,
,visa,,,CUAUTITLAN IZCALLI,ESTADO DE MEXICO,,MX,,,,,
,visa,,,CUAUTITLAN IZCALLI,ESTADO DE MEXICO,,MX,,,,,
,visa,,,CUAUT IZCALLI,ESTADO DE MEXICO,,MX,,,,,
,visa,,,CUAUTITLAN IZCALLI,ESTADO DE MEXICO,,MX,,,,,
,visa,,,CUAUTITLAN IZCALLI,ESTADO DE MEXICO,,MX,,,,,
,visa,,,CUAUTITLAN IZCALLI,ESTADO DE MEXICO,,MX,,,,,
,visa,,,CUAUTITLAN IZCALLI,ESTADO DE MEXICO,,MX,,,,,
,visa,,,CUAUTITLAN IZCALLI,ESTADO DE MEXICO,,MX,,,,,
,visa,,,CUAUT IZCALLI,ESTADO DE MEXICO,,MX,,,,,
,visa,,,CUAUTITLAN IZCALLI,ESTADO DE MEXICO,,MX,,,,,
,visa,,,CUAUTITLAN IZCALLI,ESTADO DE MEXICO,,MX,,,,,
,visa,,,CUAUTITLAN AZCALLI,ESTADO DE MEXICO,,MX,,,,,
,visa,,,CUAUTITLAN IZCALLI,ESTADO DE MEXICO,,MX,,,,,
,visa,,,CUAUTITLAN IZCALLI,ESTADO DE MEXICO,,MX,,,,,
,visa,,,CUAUTITLAN IZCALLI,ESTADO DE MEXICO,,MX,,,,,
,visa,,,CUAUT IZCALLI,ESTADO DE MEXICO,,MX,,,,,
a59a0e97e536590a094dbf51fe0a274f,western_union,OXXO QUEBRADA MEX,,Cuautitlan Izcalli,ESTADO DE MEXICO,,MX,+52 81 8389 2121,https://location.westernunion.com/mx/estado-de-mexico/cuautitlan-izcalli/a59a0e97e536590a094dbf51fe0a274f,Mo-Su 08:00-22:00,Western Union,Q861042
452fd4fa90960017ef17e757f5a392bd,western_union,SORIANA PERI NORTE 281,,Cuautitlan,ESTADO DE MEXICO,,MX,(+52) 81-1112009,https://location.westernunion.com/mx/estado-de-mexico/cuautitlan/452fd4fa90960017ef17e757f5a392bd,Mo-Su 08:00-23:00,Western Union,Q861042
f851764041a43222bc456fcec5a1ecab,western_union,SORIANA PERI NORTE 281,,Cuautitlan,ESTADO DE MEXICO,,MX,(+52) 81-1112009,https://location.westernunion.com/mx/estado-de-mexico/cuautitlan/f851764041a43222bc456fcec5a1ecab,Mo-Su 08:00-23:00,Western Union,Q861042
299cfe956c91daa83019045f5fb7e265,western_union,SORIANA PERI NORTE 281,,Cuautitlan,ESTADO DE MEXICO,,MX,(+52) 81-1112009,https://location.westernunion.com/mx/estado-de-mexico/cuautitlan/299cfe956c91daa83019045f5fb7e265,Mo-Su 08:00-23:00,Western Union,Q861042
4103e8955fff6ce8628738a294e16c46,western_union,OXXO PERINORTE MEX,,Cuautitlan Izcalli,ESTADO DE MEXICO,,MX,+52 81 8389 2121,https://location.westernunion.com/mx/estado-de-mexico/cuautitlan-izcalli/4103e8955fff6ce8628738a294e16c46,Mo-Su 08:00-22:00,Western Union,Q861042
b4856ffce89ae483471b0add991dc3b5,western_union,OXXO PERINORTE MEX,,Cuautitlan Izcalli,ESTADO DE MEXICO,,MX,+52 81 8389 2121,https://location.westernunion.com/mx/estado-de-mexico/cuautitlan-izcalli/b4856ffce89ae483471b0add991dc3b5,Mo-Su 08:00-22:00,Western Union,Q861042
62811390274df04ddefba2df188914a4,western_union,OXXO PERINORTE MEX,,Cuautitlan Izcalli,ESTADO DE MEXICO,,MX,+52 81 8389 2121,https://location.westernunion.com/mx/estado-de-mexico/cuautitlan-izcalli/62811390274df04ddefba2df188914a4,Mo-Su 08:00-22:00,Western Union,Q861042
75ea08f3ac022bee3c5889fd1ce96435,western_union,FUNDACION DONDE PERINORTE ID519,,Cuautitlan Izcalli,ESTADO DE MEXICO,,MX,+52 55 2625 1030,https://location.westernunion.com/mx/estado-de-mexico/cuautitlan-izcalli/75ea08f3ac022bee3c5889fd1ce96435,Mo-Fr 10:00-19:00; Sa 11:00-19:00; Su 12:00-16:00,Western Union,Q861042
bb44358e23b2efcce2cccb1f68eddb4d,western_union,FUNDACION DONDE PERINORTE ID519,,Cuautitlan Izcalli,ESTADO DE MEXICO,,MX,+52 55 2625 1030,https://location.westernunion.com/mx/estado-de-mexico/cuautitlan-izcalli/bb44358e23b2efcce2cccb1f68eddb4d,Mo-Fr 10:00-19:00; Sa 11:00-19:00; Su 12:00-16:00,Western Union,Q861042
2f8fdb0eadbf43e7947a2c1f76afeccc,western_union,FUNDACION DONDE PERINORTE ID519,,Cuautitlan Izcalli,ESTADO DE MEXICO,,MX,+52 55 2625 1030,https://location.westernunion.com/mx/estado-de-mexico/cuautitlan-izcalli/2f8fdb0eadbf43e7947a2c1f76afeccc,Mo-Fr 10:00-19:00; Sa 11:00-19:00; Su 12:00-16:00,Western Union,Q861042
3e49177f8c6cc1067299395efb601468,western_union,SUBURBIA 836 GALERIAS PERINORTE,,Cuautitlan Izcalli,ESTADO DE MEXICO,,MX,+52 800 733 3300,https://location.westernunion.com/mx/estado-de-mexico/cuautitlan-izcalli/3e49177f8c6cc1067299395efb601468,Mo-Su 11:00-21:00,Western Union,Q861042
278bb3a6ec32589681d918046f8acb6e,western_union,SUBURBIA 836 GALERIAS PERINORTE,,Cuautitlan Izcalli,ESTADO DE MEXICO,,MX,+52 800 733 3300,https://location.westernunion.com/mx/estado-de-mexico/cuautitlan-izcalli/278bb3a6ec32589681d918046f8acb6e,Mo-Su 11:00-21:00,Western Union,Q861042
0d7e029844c97a1de0406202163a2915,western_union,SUBURBIA 836 GALERIAS PERINORTE,,Cuautitlan Izcalli,ESTADO DE MEXICO,,MX,+52 800 733 3300,https://location.westernunion.com/mx/estado-de-mexico/cuautitlan-izcalli/0d7e029844c97a1de0406202163a2915,Mo-Su 11:00-21:00,Western Union,Q861042
8ff87a745762b37fc309110aab9c02dc,western_union,OXXO ROTHERDAM MEX,,Cuautitlan Izcalli,ESTADO DE MEXICO,,MX,+52 81 8389 2121,https://location.westernunion.com/mx/estado-de-mexico/cuautitlan-izcalli/8ff87a745762b37fc309110aab9c02dc,Mo-Su 08:00-22:00,Western Union,Q861042
1708a3bbe7e7711cf2e17677b1f92206,western_union,OXXO ROTHERDAM MEX,,Cuautitlan Izcalli,ESTADO DE MEXICO,,MX,+52 81 8389 2121,https://location.westernunion.com/mx/estado-de-mexico/cuautitlan-izcalli/1708a3bbe7e7711cf2e17677b1f92206,Mo-Su 08:00-22:00,Western Union,Q861042
be2047168863ba90a0c58fc7b9e3f4f2,western_union,OXXO ROTHERDAM MEX,,Cuautitlan Izcalli,ESTADO DE MEXICO,,MX,+52 81 8389 2121,https://location.westernunion.com/mx/estado-de-mexico/cuautitlan-izcalli/be2047168863ba90a0c58fc7b9e3f4f2,Mo-Su 08:00-22:00,Western Union,Q861042
537aa7d3eb2fb7ba3091ee414531328c,western_union,PRICE SHOES CUAUTITLAN 0004,,Cuautitlan,ESTADO DE MEXICO,,MX,+52 55 5843 3364,https://location.westernunion.com/mx/estado-de-mexico/cuautitlan/537aa7d3eb2fb7ba3091ee414531328c,Mo-Su 09:00-18:30,Western Union,Q861042
ff905b2c14562e23ae104595d6035de0,western_union,PRICE SHOES CUAUTITLAN 0004,,Cuautitlan,ESTADO DE MEXICO,,MX,+52 55 5843 3364,https://location.westernunion.com/mx/estado-de-mexico/cuautitlan/ff905b2c14562e23ae104595d6035de0,Mo-Su 09:00-18:30,Western Union,Q861042
153de19d0f895deaad3d22db9d56fd21,western_union,PRICE SHOES CUAUTITLAN 0004,,Cuautitlan,ESTADO DE MEXICO,,MX,+52 55 5843 3364,https://location.westernunion.com/mx/estado-de-mexico/cuautitlan/153de19d0f895deaad3d22db9d56fd21,Mo-Su 09:00-18:30,Western Union,Q861042
421a7ac4ca8889e55913cb557e67faeb,western_union,OXXO Quebrada MEX,,Cuautitlan Izcalli,ESTADO DE MEXICO,,MX,+52 81 8389 2121,https://location.westernunion.com/mx/estado-de-mexico/cuautitlan-izcalli/421a7ac4ca8889e55913cb557e67faeb,Mo-Su 08:00-22:00,Western Union,Q861042
9f9d176b67146ee94266a9d12cc8f56f,western_union,OXXO QUEBRADA MEX,,Cuautitlan Izcalli,ESTADO DE MEXICO,,MX,+52 81 8389 2121,https://location.westernunion.com/mx/estado-de-mexico/cuautitlan-izcalli/9f9d176b67146ee94266a9d12cc8f56f,Mo-Su 08:00-22:00,Western Union,Q861042
