Ref,Spider,Name,Address,City,State,Zipcode,Country,Phone,Website,Hours,Brand,WikiData
BPM738,bp,BP,,Villahermosa,Tabasco,,MX,+52 993 117 9950,,24/7,BP,Q152057
,visa,,,CENTRO,TABASCO,,MX,,,,,
,visa,,,VILLAHERMOSA,TABASCO,,MX,,,,,
,visa,,,VILLA HERMOSA,TABASCO,,MX,,,,,
,visa,,,VILLA HERMOSA,TABASCO,,MX,,,,,
,visa,,,CENTRO,TABASCO,,MX,,,,,
,visa,,,TABASCO,TABASCO,,MX,,,,,
,visa,,,CENTRO,TABASCO,,MX,,,,,
,visa,,,CENTRO,TABASCO,,MX,,,,,
,visa,,,VILLAHERMOSA,TABASCO,,MX,,,,,
968e3147cdd7ae173e2b1a96048878e0,western_union,OXXO DOS MONTES VSA,,Villahermosa,TABASCO,,MX,+52 81 8389 2121,https://location.westernunion.com/mx/tabasco/villahermosa/968e3147cdd7ae173e2b1a96048878e0,Mo-Su 08:00-22:00,Western Union,Q861042
1eb421c69ab548de1b6694dd9ea1d06c,western_union,OXXO PLATANO Y CACAO VSA,,Tabasco,TABASCO,,MX,+52 81 8389 2121,https://location.westernunion.com/mx/tabasco/tabasco/1eb421c69ab548de1b6694dd9ea1d06c,Mo-Su 08:00-22:00,Western Union,Q861042
1af261d28898b0b63bdc9634417b2e10,western_union,OXXO LOMA DE CABALLO VSA,,Villahermosa,TABASCO,,MX,+52 81 8389 2121,https://location.westernunion.com/mx/tabasco/villahermosa/1af261d28898b0b63bdc9634417b2e10,Mo-Su 08:00-22:00,Western Union,Q861042
2e545c624378f4cfc5170c1aa16973e1,western_union,OXXO DOS MONTES VSA,,Villahermosa,TABASCO,,MX,+52 81 8389 2121,https://location.westernunion.com/mx/tabasco/villahermosa/2e545c624378f4cfc5170c1aa16973e1,Mo-Su 08:00-22:00,Western Union,Q861042
803bb4c6c4c013ce76a7475b6438969c,western_union,OXXO DOS MONTES VSA,,Villahermosa,TABASCO,,MX,+52 81 8389 2121,https://location.westernunion.com/mx/tabasco/villahermosa/803bb4c6c4c013ce76a7475b6438969c,Mo-Su 08:00-22:00,Western Union,Q861042
3c7a9f9dec88e2d8dc380cbf897c0d03,western_union,OXXO AEROPUERTO VSA,,Villahermosa,TABASCO,,MX,+52 81 8389 2121,https://location.westernunion.com/mx/tabasco/villahermosa/3c7a9f9dec88e2d8dc380cbf897c0d03,Mo-Su 08:00-22:00,Western Union,Q861042
03023833fa001e25fb28f35570dd45b3,western_union,OXXO AEROPUERTO VSA,,Villahermosa,TABASCO,,MX,+52 81 8389 2121,https://location.westernunion.com/mx/tabasco/villahermosa/03023833fa001e25fb28f35570dd45b3,Mo-Su 08:00-22:00,Western Union,Q861042
80d0f6846b4c6c1c1b4bc8dd12858acb,western_union,TIENDAS NETO PARRILLA CENTRO 0539,,Centro,TABASCO,,MX,+52 993 412 7616,https://location.westernunion.com/mx/tabasco/centro/80d0f6846b4c6c1c1b4bc8dd12858acb,Mo-Su 07:00-22:00,Western Union,Q861042
e960b5b3a323db559c1b0ba86b13a1f3,western_union,TIENDAS NETO PARRILLA CENTRO 0539,,Centro,TABASCO,,MX,+52 993 412 7616,https://location.westernunion.com/mx/tabasco/centro/e960b5b3a323db559c1b0ba86b13a1f3,Mo-Su 07:00-22:00,Western Union,Q861042
9f217a9d79ebf6e0a3ca13cc7b2f89d7,western_union,TIENDAS NETO PARRILLA CENTRO 0539,,Centro,TABASCO,,MX,+52 993 412 7616,https://location.westernunion.com/mx/tabasco/centro/9f217a9d79ebf6e0a3ca13cc7b2f89d7,Mo-Su 07:00-22:00,Western Union,Q861042
d954d36e25dbd3bb3e4be92925502e78,western_union,AURRERA VILLA PARRILLA 1951,,Villahermosa,TABASCO,,MX,+52 800 833 4700,https://location.westernunion.com/mx/tabasco/villahermosa/d954d36e25dbd3bb3e4be92925502e78,Mo-Su 07:00-23:00,Western Union,Q861042
a1dc3438dc83747a89b5005ea29d0b93,western_union,AURRERA VILLA PARRILLA 1951,,Villahermosa,TABASCO,,MX,+52 800 833 4700,https://location.westernunion.com/mx/tabasco/villahermosa/a1dc3438dc83747a89b5005ea29d0b93,Mo-Su 07:00-23:00,Western Union,Q861042
48a91dbcee9b2846d2248ed759fff6f9,western_union,AURRERA VILLA PARRILLA 1951,,Villahermosa,TABASCO,,MX,+52 800 833 4700,https://location.westernunion.com/mx/tabasco/villahermosa/48a91dbcee9b2846d2248ed759fff6f9,Mo-Su 07:00-23:00,Western Union,Q861042
4d4f2c75f51f18cfdedcd1826df1386f,western_union,ELEKTRA 2214,,Parrilla,TABASCO,,MX,(+52) 55-17208177-8966,https://location.westernunion.com/mx/tabasco/parrilla/4d4f2c75f51f18cfdedcd1826df1386f,Mo-Su 09:00-21:00,Western Union,Q861042
285ea62f1518cb3d6dab0539264ac4de,western_union,SUPER SANCHEZ LUIS GIL PEREZ,,Centro,TABASCO,,MX,+52 993 358 0900,https://location.westernunion.com/mx/tabasco/centro/285ea62f1518cb3d6dab0539264ac4de,Mo-Su 09:00-19:00,Western Union,Q861042
abaec69a75cfe581e10b0fe49068c804,western_union,SUPER SANCHEZ LUIS GIL PEREZ,,Centro,TABASCO,,MX,+52 993 358 0900,https://location.westernunion.com/mx/tabasco/centro/abaec69a75cfe581e10b0fe49068c804,Mo-Su 09:00-19:00,Western Union,Q861042
396ff4dcbbdae023d132c9a98213fae3,western_union,OXXO GENESIS VSA,,Tabasco,TABASCO,,MX,+52 81 8389 2121,https://location.westernunion.com/mx/tabasco/tabasco/396ff4dcbbdae023d132c9a98213fae3,Mo-Su 08:00-22:00,Western Union,Q861042
d9ad1b168656e1f9dbce9a17423f676f,western_union,OXXO GENESIS VSA,,Tabasco,TABASCO,,MX,+52 81 8389 2121,https://location.westernunion.com/mx/tabasco/tabasco/d9ad1b168656e1f9dbce9a17423f676f,Mo-Su 08:00-22:00,Western Union,Q861042
447a2944b4b4e77300753f6eccc5dcde,western_union,OXXO GENESIS VSA,,Tabasco,TABASCO,,MX,+52 81 8389 2121,https://location.westernunion.com/mx/tabasco/tabasco/447a2944b4b4e77300753f6eccc5dcde,Mo-Su 08:00-22:00,Western Union,Q861042
7097fb8feccf0d854cd94ff61886972d,western_union,TIENDAS NETO LUIS GIL CENTRO 0632,,Centro,TABASCO,,MX,+52 55 3711 4617,https://location.westernunion.com/mx/tabasco/centro/7097fb8feccf0d854cd94ff61886972d,Mo-Su 07:00-22:00,Western Union,Q861042
89f611d246ca51d9cef4ab23c074eb0e,western_union,TIENDAS NETO LUIS GIL CENTRO 0632,,Centro,TABASCO,,MX,+52 55 3711 4617,https://location.westernunion.com/mx/tabasco/centro/89f611d246ca51d9cef4ab23c074eb0e,Mo-Su 07:00-22:00,Western Union,Q861042
11a4b52e3f40f8a2d1f03a298b0fee9f,western_union,TIENDAS NETO LUIS GIL CENTRO 0632,,Centro,TABASCO,,MX,+52 55 3711 4617,https://location.westernunion.com/mx/tabasco/centro/11a4b52e3f40f8a2d1f03a298b0fee9f,Mo-Su 07:00-22:00,Western Union,Q861042
2cc3ed95d7f95a82663db7d47200a934,western_union,TIENDAS NETO BUENAVISTA CENTRO 0710,,Centro,TABASCO,,MX,+52 993 688 8154,https://location.westernunion.com/mx/tabasco/centro/2cc3ed95d7f95a82663db7d47200a934,Mo-Su 07:00-22:00,Western Union,Q861042
9092f20a321c72afc8fab45daf803a61,western_union,TIENDAS NETO BUENAVISTA CENTRO 0710,,Centro,TABASCO,,MX,+52 993 688 8154,https://location.westernunion.com/mx/tabasco/centro/9092f20a321c72afc8fab45daf803a61,Mo-Su 07:00-22:00,Western Union,Q861042
13955f9ed562e163169b8765491b167f,western_union,TIENDAS NETO BUENAVISTA CENTRO 0710,,Centro,TABASCO,,MX,+52 993 688 8154,https://location.westernunion.com/mx/tabasco/centro/13955f9ed562e163169b8765491b167f,Mo-Su 07:00-22:00,Western Union,Q861042
b172368938a644b6947b0e6eb5c6923f,western_union,FARM GUAD 2437 MIGUEL HIDALGO TAB,,Centro,TABASCO,,MX,+52 800 833 4700,https://location.westernunion.com/mx/tabasco/centro/b172368938a644b6947b0e6eb5c6923f,Mo-Su 08:00-22:00,Western Union,Q861042
8f9ca30440f30ee3655ca1163b3a02fa,western_union,FARM GUAD 2437 MIGUEL HIDALGO TAB,,Centro,TABASCO,,MX,+52 800 833 4700,https://location.westernunion.com/mx/tabasco/centro/8f9ca30440f30ee3655ca1163b3a02fa,Mo-Su 08:00-22:00,Western Union,Q861042
8e4dd9a429fad5ed0c5177bf08d1fd9c,western_union,FARM GUAD 2437 MIGUEL HIDALGO TAB,,Centro,TABASCO,,MX,+52 800 833 4700,https://location.westernunion.com/mx/tabasco/centro/8e4dd9a429fad5ed0c5177bf08d1fd9c,Mo-Su 08:00-22:00,Western Union,Q861042
83ead408ff566af878ce55e89e1fb5f0,western_union,OXXO LOMA DE CABALLO VSA,,Villahermosa,TABASCO,,MX,+52 81 8389 2121,https://location.westernunion.com/mx/tabasco/villahermosa/83ead408ff566af878ce55e89e1fb5f0,Mo-Su 08:00-22:00,Western Union,Q861042
e792842e70f7a83881ec40dd9d61a717,western_union,OXXO GONZALEZ 3RA VSA,,Centro,TABASCO,,MX,+52 81 8389 2121,https://location.westernunion.com/mx/tabasco/centro/e792842e70f7a83881ec40dd9d61a717,Mo-Su 06:00-22:00,Western Union,Q861042
4505d36d477059e625c8068c8228dca9,western_union,OXXO GONZALEZ 3RA VSA,,Centro,TABASCO,,MX,+52 81 8389 2121,https://location.westernunion.com/mx/tabasco/centro/4505d36d477059e625c8068c8228dca9,Mo-Su 06:00-22:00,Western Union,Q861042
99c5ac91a8996b9576d7217f89cefdaf,western_union,OXXO GONZALEZ 3RA VSA,,Centro,TABASCO,,MX,+52 81 8389 2121,https://location.westernunion.com/mx/tabasco/centro/99c5ac91a8996b9576d7217f89cefdaf,Mo-Su 06:00-22:00,Western Union,Q861042
e72e504805c83d9c2fd675637151c322,western_union,OXXO CUMUAPA VSA,,Tabasco,TABASCO,,MX,+52 81 8389 2121,https://location.westernunion.com/mx/tabasco/tabasco/e72e504805c83d9c2fd675637151c322,Mo-Su 08:00-22:00,Western Union,Q861042
0fb6ddf9aab710c219bb5a162e00bd02,western_union,OXXO CUMUAPA VSA,,Tabasco,TABASCO,,MX,+52 81 8389 2121,https://location.westernunion.com/mx/tabasco/tabasco/0fb6ddf9aab710c219bb5a162e00bd02,Mo-Su 08:00-22:00,Western Union,Q861042
375c092aa7fe93e73ec3a2a5fe11b54d,western_union,OXXO CEDIS VSA,,Tabasco,TABASCO,,MX,+52 81 8389 2121,https://location.westernunion.com/mx/tabasco/tabasco/375c092aa7fe93e73ec3a2a5fe11b54d,Mo-Su 08:00-22:00,Western Union,Q861042
85683570c4cc86f4e90181e0eed6f125,western_union,OXXO CEDIS VSA,,Tabasco,TABASCO,,MX,+52 81 8389 2121,https://location.westernunion.com/mx/tabasco/tabasco/85683570c4cc86f4e90181e0eed6f125,Mo-Su 08:00-22:00,Western Union,Q861042
9d2240a3f2fe58dc3413c43ce671585a,western_union,OXXO CEDIS VSA,,Tabasco,TABASCO,,MX,+52 81 8389 2121,https://location.westernunion.com/mx/tabasco/tabasco/9d2240a3f2fe58dc3413c43ce671585a,Mo-Su 08:00-22:00,Western Union,Q861042
5dbe1650b76977d619de720377ae1c3d,western_union,OXXO PLATANO Y CACAO VSA,,Tabasco,TABASCO,,MX,+52 81 8389 2121,https://location.westernunion.com/mx/tabasco/tabasco/5dbe1650b76977d619de720377ae1c3d,Mo-Su 08:00-22:00,Western Union,Q861042
4ea86d2ed02f4347e6cd8e32e6aef83f,western_union,OXXO PLATANO Y CACAO VSA,,Tabasco,TABASCO,,MX,+52 81 8389 2121,https://location.westernunion.com/mx/tabasco/tabasco/4ea86d2ed02f4347e6cd8e32e6aef83f,Mo-Su 08:00-22:00,Western Union,Q861042
cc5d5cc837cf6f463b3a0c9a768fa69b,western_union,AURRERA EXPRESS CEDIS VILLAHERMOSA 5098,,Centro,TABASCO,,MX,+52 800 833 4700,https://location.westernunion.com/mx/tabasco/centro/cc5d5cc837cf6f463b3a0c9a768fa69b,Mo-Su 08:00-22:00,Western Union,Q861042
115354db19340b9ad816a322f5554598,western_union,AURRERA EXPRESS CEDIS VILLAHERMOSA 5098,,Centro,TABASCO,,MX,+52 800 833 4700,https://location.westernunion.com/mx/tabasco/centro/115354db19340b9ad816a322f5554598,Mo-Su 08:00-22:00,Western Union,Q861042
94cb004298f3ed8307224b35b4204654,western_union,ELEKTRA 2214,,Parrilla,TABASCO,,MX,+52 55 1720 8177,https://location.westernunion.com/mx/tabasco/parrilla/94cb004298f3ed8307224b35b4204654,Mo-Su 09:00-20:00,Western Union,Q861042
498b0dd21f3f4d38afa1b61078374d30,western_union,ELEKTRA 2214,,Parrilla,TABASCO,,MX,+52 55 1720 8177,https://location.westernunion.com/mx/tabasco/parrilla/498b0dd21f3f4d38afa1b61078374d30,Mo-Su 09:00-21:00,Western Union,Q861042
1eee4b805e301f32e390174ecd51f7cc,western_union,OXXO CUMUAPA VSA,,Tabasco,TABASCO,,MX,+52 81 8389 2121,https://location.westernunion.com/mx/tabasco/tabasco/1eee4b805e301f32e390174ecd51f7cc,Mo-Su 08:00-22:00,Western Union,Q861042
4322a850d7bdcdd2ae511dfd4ba6cd3f,western_union,OXXO LOMA DE CABALLO VSA,,Villahermosa,TABASCO,,MX,+52 81 8389 2121,https://location.westernunion.com/mx/tabasco/villahermosa/4322a850d7bdcdd2ae511dfd4ba6cd3f,Mo-Su 08:00-22:00,Western Union,Q861042
8721393b62865bb414f79e835e326627,western_union,OXXO AEROPUERTO VSA,,Villahermosa,TABASCO,,MX,+52 81 8389 2121,https://location.westernunion.com/mx/tabasco/villahermosa/8721393b62865bb414f79e835e326627,Mo-Su 08:00-22:00,Western Union,Q861042
