Ref,Spider,Name,Address,City,State,Zipcode,Country,Phone,Website,Hours,Brand,WikiData
https://stores.aldi.us/#63684309,aldi_sud_us,ALDI  7100 University Ave,,Windsor Heights,IA,,US,+1 833-472-7116,https://stores.aldi.us/ia/windsor-heights/7100-university-ave,"Mo-Su 08:30-20:00,09:00-20:00",ALDI,Q41171672
65497,citi,ATM MIDWESTONE BANK WINDSOR HEIGHT,,Windsor Heigh,IA,,US,,,,Citibank,Q857063
https://www.edwardjones.com/us-en/financial-advisor/jon-lutz,edwardjones,Jon Lutz,,Windsor Heights,IA,,US,+1 515-270-0090,https://www.edwardjones.com/us-en/financial-advisor/jon-lutz,Mo-Th 08:30-16:30; Fr 08:30-16:00,Edward Jones,Q5343830
https://salons.greatclips.com/us/ia/windsor-heights/6601-university-ave,greatclips,Great Clips,,Windsor Heights,IA,,US,+1 515-277-7955,https://salons.greatclips.com/us/ia/windsor-heights/6601-university-ave,Mo-Fr 09:00-20:00; Sa 08:00-17:00; Su 10:00-16:00,Great Clips,Q5598967
16071,h_r_block,H&R Block,,Windsor Heights,IA,,US,+1 515-270-1900,https://www.hrblock.com/local-tax-offices/iowa/windsor-heights/7568-hickman-rd/16071/,,H&R Block,Q5627799
https://office.jacksonhewitt.com/#27577310,jackson_hewitt,Jackson Hewitt,,Windsor Heights,IA,,US,+1 515-412-3280,https://office.jacksonhewitt.com/tax-preparation-services-locations/en/ia/windsor-heights/1001-73rd-street/51764,Mo-Sa 11:00-19:00; Su 12:00-16:00,Jackson Hewitt,Q6117132
https://locations.papamurphys.com/#15429737,papamurphys,Pizza Takeout & Delivery,,Windsor Heights,IA,,US,+1 515-271-7500,https://locations.papamurphys.com/ia/windsor-heights/7160-university-avenue,,Papa Murphy's,Q7132349
https://stores.petco.com/#27959115,petco,Petco Clive,,Clive,IA,,US,+1 515-223-7785,https://stores.petco.com/ia/clive/pet-supplies-clive-ia-617.html,Mo-Sa 09:00-20:00; Su 10:00-19:00,Petco,Q7171798
8693,regal_nails_us,"Regal Nails, Salon &#038; Spa",1001 73rd St,Des Moines,IA,,US,+1 515-277-2349,,,Regal Nails,Q108918028
6344,sams_club,Des Moines Sam's Club,,Des Moines,IA,,US,+1 515-255-2252,https://www.samsclub.com/club/des-moines-ia-sams-club/6344,Mo 10:00-20:00; Sa 09:00-20:00; Su 10:00-18:00,Sam's Club,Q1972120
100,scooters_coffee_us,73rd & Hickman,,Windsor Heights,IA,,US,+1 816-853-4140,,Mo-Fr 05:30-20:00; Sa-Su 06:00-20:00,Scooter's Coffee,Q117280308
https://restaurants.subway.com/#14896667,subway,Subway Wal-Mart #1764,,Windsor Heights Polk,IA,,US,+1 515-279-0180,https://restaurants.subway.com/united-states/ia/windsor-heights/1001-73rd-st,Mo-Su 09:00-22:00,Subway,Q244457
5B90,tmobile_us,Sam's Club Des Moines IA,,Des Moines,IA,,US,+1 515-993-0964,https://www.t-mobile.com/store-locator/ia/des-moines/sams-club-des-moines-ia,,T-Mobile,Q3511885
,visa,,,WINDSOR HEIGHTS,IA,,US,,,,,
,visa,,,WINDSOR HEIGHTS,IA,,US,,,,,
,visa,,,WINDSOR HGTS,IA,,US,,,,,
,visa,,,WINDSOR HEIGH,IA,,US,,,,,
,visa,,,WINDSOR HEIGH,IA,,US,,,,,
,visa,,,WINDSOR HEIGHTS,IA,,US,,,,,
,visa,,,WINDSOR HEIGHTS,IA,,US,,,,,
,visa,,,WINDSOR HEIGHTS,IA,,US,,,,,
,visa,,,WINDSOR HEIGHTS,IA,,US,,,,,
,visa,,,CLIVE,IA,,US,,,,,
,visa,,,WINDSOR HEIGHTS,IA,,US,,,,,
,visa,,,URBANDALE,IA,,US,,,,,
3ef9315478a67de298bd62becbdd9a8d,western_union,HY-VEE FOOD STORE #1895,,Windsor Heights,IA,,US,+1 515-279-4225,https://location.westernunion.com/us/ia/windsor-heights/3ef9315478a67de298bd62becbdd9a8d,Mo-Su 07:30-21:00,Western Union,Q861042
ce674d894e056db577c0ebe180982feb,western_union,WALMART #001764,,Windsor Heights,IA,,US,+1 515-274-6224,https://location.westernunion.com/us/ia/windsor-heights/ce674d894e056db577c0ebe180982feb,Mo-Sa 08:00-20:00; Su 10:00-18:00,Western Union,Q861042
