Ref,Spider,Name,Address,City,State,Zipcode,Country,Phone,Website,Hours,Brand,WikiData
https://locations.atipt.com/urbandale-ia,ati_physical_therapy,ATI Physical Therapy Urbandale 1091,,Urbandale,IA,,US,+1 515-309-1316,https://locations.atipt.com/urbandale-ia,,ATI Physical Therapy,Q50039703
170174,bluerhino,Kum & Go #157,,Urbandale,IA,,US,+1 515-987-6901,,,Blue Rhino,Q65681213
202660,bluerhino,CASEY'S GENERAL STORE #3210,,URBANDALE,IA,,US,+1 515-276-6708,,,Blue Rhino,Q65681213
170321,bluerhino,Kum & Go #542,,Urbandale,IA,,US,+1 515-331-6591,,,Blue Rhino,Q65681213
10480,cvs_us,CVS Pharmacy,,Urbandale,IA,,US,+1 515-987-8080,https://www.cvs.com/store-locator/urbandale-ia-pharmacies/14201-hickman-rd-urbandale-ia-50323/storeid=10480,Mo-Su 08:00-22:00,CVS Pharmacy,Q2078880
https://salons.greatclips.com/us/ia/urbandale/11895-hickman-rd,greatclips,Great Clips,,Urbandale,IA,,US,+1 515-334-2665,https://salons.greatclips.com/us/ia/urbandale/11895-hickman-rd,Mo-Fr 10:00-19:00; Sa 08:00-17:00; Su 10:00-16:00,Great Clips,Q5598967
https://locations.ironmountain.com/ia/urbandale/im042/,iron_mountain,"Iron Mountain in 4437 121ST Street, Urbandale, Iowa | Secure Shredding, Scanning, IT Asset Disposition, & Records Management",,Urbandale,IA,,US,+1 800-899-4766,https://locations.ironmountain.com/ia/urbandale/im042/,,Iron Mountain Incorporated,Q1673079
https://locations.jimmyjohns.com/ia/urbandale/sandwiches-2472.html,jimmy_johns,Jimmy John's,,Urbandale,IA,,US,+1 515-331-6634,https://locations.jimmyjohns.com/ia/urbandale/sandwiches-2472.html,,Jimmy John's,Q1689380
0542,kum_and_go,Kum & Go #0542,,Urbandale,IA,,US,+1 515-331-6591,https://www.kumandgo.com/store-locator?details=0542,24/7,Kum & Go,Q6443340
0157,kum_and_go,Kum & Go #0157,,Urbandale,IA,,US,+1 515-987-6901,https://www.kumandgo.com/store-locator?details=0157,Mo-Su 05:00-24:00,Kum & Go,Q6443340
0121,kum_and_go,Kum & Go #0121,,Urbandale,IA,,US,+1 515-278-0308,https://www.kumandgo.com/store-locator?details=0121,24/7,Kum & Go,Q6443340
IADMS,life_time,Des Moines,,Urbandale,IA,,US,+1 515-362-3500,https://my.lifetime.life/clubs/ia/des-moines.html,Mo-Th 04:00-23:00; Fr 04:00-22:00; Sa-Su 05:00-22:00,Life Time,Q6545004
511,primrose_schools,Primrose School of Urbandale,,Urbandale,IA,,US,+1 515-201-5636,https://www.primroseschools.com/schools/urbandale/,,Primrose Schools,Q7243677
3419,shellrecharge,Urbandale Kum and Go,,Urbandale,IA,,US,,,,Shell Recharge,Q105883058
1353447,usps,ASH CREEK,,URBANDALE,IA,,US,+1 515-334-5683,,Mo-Fr 08:45-17:45; Sa 09:30-13:00,United States Postal Service,Q668687
5032300002,usps_collection_boxes,USPS COLLECTION BOX - PO LOBBY,3311 100TH ST,DES MOINES,IA,,US,,,,United States Postal Service,Q668687
,visa,,,URBANDALE,IA,,US,,,,,
,visa,,,URBANDALE,IA,,US,,,,,
,visa,,,URBANDALE,IA,,US,,,,,
,visa,,,URBANDALE,IA,,US,,,,,
,visa,,,URBANDALE,IA,,US,,,,,
,visa,,,URBANDALE,IA,,US,,,,,
,visa,,,URBANDALE,IA,,US,,,,,
,visa,,,URBANDALE,IA,,US,,,,,
,visa,,,URBANDALE,IA,,US,,,,,
,visa,,,URBANDALE,IA,,US,,,,,
,visa,,,URBANDALE,IA,,US,,,,,
