Ref,Spider,Name,Address,City,State,Zipcode,Country,Phone,Website,Hours,Brand,WikiData
72522192,moneygram,SIBARAM SAMANTARA,,SURAT,,,IN,+91 85305 19791,,Mo-Su 08:00-21:00,MoneyGram,Q1944412
72532056,moneygram,JALARAM SERVICES,,SURAT,,,IN,+91 78198 04911,,Mo-Su 08:00-21:00,MoneyGram,Q1944412
72525843,moneygram,SKYLINK SERVICES,,SURAT,,,IN,+91 94090 71019,,Mo-Su 08:00-21:00,MoneyGram,Q1944412
73290478,moneygram,MUTHOOT FINANCE LTD - #4230 - SURAT - SU,,SURAT,,,IN,+91 261 255 2050,,Mo-Su 09:00-19:00,MoneyGram,Q1944412
73290494,moneygram,MUTHOOT FINANCE LTD - #4232 - SURAT - SU,,SURAT,,,IN,+91 261 255 2071,,Mo-Su 09:00-19:00,MoneyGram,Q1944412
73293653,moneygram,MUTHOOT FINANCE LTD - #4597 - SURAT - SA,,SURAT,,,IN,+91 90330 23263,,Mo-Su 09:00-19:00,MoneyGram,Q1944412
73295321,moneygram,MUTHOOT FINANCE LTD - #4765 - SURAT - SU,,SURAT,,,IN,+91 90330 23264,,Mo-Su 09:00-19:00,MoneyGram,Q1944412
73327532,moneygram,MUTHOOT FINCORP LIMITED - #F2570 - VARAC,,SURAT,,,IN,+91 261 255 8900,,Mo-Sa 09:00-17:30; Su 00:00-24:00,MoneyGram,Q1944412
72962037,moneygram,KISHORKUMAR K PIPALA,,SURAT,,,IN,+91 84859 38872,,Mo-Su 08:00-21:00,MoneyGram,Q1944412
73394798,moneygram,KAMLESH DHAMELIYA,,SURAT,,,IN,+91 93274 44844,,Mo-Su 08:00-21:00,MoneyGram,Q1944412
73396644,moneygram,MANOJ V PATEL,,SURAT,,,IN,+91 99252 97981,,Mo-Su 08:00-21:00,MoneyGram,Q1944412
73399308,moneygram,PRAMODBHAI F PAL,,SURAT,,,IN,+91 90993 88677,,Mo-Su 08:00-21:00,MoneyGram,Q1944412
73420769,moneygram,JAY TRAVELS (SURAT)-IBP,,SURAT,,,IN,+91 94261 29999,,Mo-Su 08:00-21:00,MoneyGram,Q1944412
73737782,moneygram,KRIMONI TOURS,,SURAT,,,IN,+91 77780 77780,,Mo-Su 08:00-21:00,MoneyGram,Q1944412
73751409,moneygram,SHREE SERVICES,,SURAT,,,IN,+91 91069 55715,,Mo-Su 08:00-21:00,MoneyGram,Q1944412
73768104,moneygram,PATEL ASHVIN M,,SURAT,,,IN,+91 89050 04911,,Mo-Su 08:00-21:00,MoneyGram,Q1944412
73815730,moneygram,GRUKRUPA TYRE AND OIL CENTER,,SURAT,,,IN,+91 99743 30884,,Mo-Su 08:00-21:00,MoneyGram,Q1944412
73826444,moneygram,MARUTI MEDICAL,,SURAT,,,IN,+91 72018 43714,,Mo-Su 08:00-21:00,MoneyGram,Q1944412
72962613,moneygram,ASTHA MOBILE AND MONEY TRANSFER,,SURAT,,,IN,+91 86908 89088,,Mo-Su 08:00-21:00,MoneyGram,Q1944412
72968471,moneygram,RADHE PAN CORNER,,SURAT,,,IN,+91 90331 62257,,Mo-Su 08:00-21:00,MoneyGram,Q1944412
72969250,moneygram,ZAKAR TOURS,,SURAT,,,IN,+91 98259 22301,,Mo-Su 08:00-21:00,MoneyGram,Q1944412
74056349,moneygram,MUTHOOTTU MINI FINANCIERS LTD - HIRABAUG,,HIRABAUGH-SURAT,,,IN,+91 6355 160 593,,Mo-Sa 09:00-17:30; Su 00:00-24:00,MoneyGram,Q1944412
74056378,moneygram,MUTHOOTTU MINI FINANCIERS LTD - VARACHHA,,VARACHHA-SURAT,,,IN,+91 74052 76906,,Mo-Sa 09:00-17:30; Su 00:00-24:00,MoneyGram,Q1944412
74082643,moneygram,EQUITAS SMALL FINANCE BANK,,SURAT,,,IN,+91 98408 15178,,Mo-Sa 10:00-17:00; Su 00:00-24:00,MoneyGram,Q1944412
74560291,moneygram,SHIVANSH INTERNATIONAL,,SURAT,,,IN,+91 93778 91692,,Mo-Su 08:00-21:00,MoneyGram,Q1944412
,visa,,,SURAT,,,IN,,,,,
,visa,,,SURAT,,,IN,,,,,
,visa,,,SURAT,,,IN,,,,,
