Ref,Spider,Name,Address,City,State,Zipcode,Country,Phone,Website,Hours,Brand,WikiData
BPM833,bp,bp,,Actopan,Hidalgo,,MX,+52 800 670 2123,,24/7,BP,Q152057
BPM589,bp,BP,,Actopan,Hidalgo,,MX,+52 800 670 2123,,24/7,BP,Q152057
BPM092,bp,BP,,El Arenal,Hidalgo,,MX,+52 800 668 0209,,24/7,BP,Q152057
18473,citi,SAB  ACTOPAN HIDALGO,,Actopan,HIDALGO,,MX,+52 800 110 3990,,,Citibank,Q857063
1431,first_cash,First Cash Pawn,,Actopan,Hidalgo,,MX,+52 772 727 0402,,,First Cash Pawn,
4277,first_cash,First Cash Pawn,,Actopan,Hidalgo,,MX,+52 772 727 0495,,,First Cash Pawn,
,visa,,,ACTOPAN,HIDALGO,,MX,,,,,
,visa,,,ACTOPAN,HIDALGO,,MX,,,,,
,visa,,,ACTOPAN,HIDALGO,,MX,,,,,
,visa,,,ACTOPAN,HIDALGO,,MX,,,,,
,visa,,,ACTOP√ÅN,HIDALGO,,MX,,,,,
,visa,,,ACTOPAN,HIDALGO,,MX,,,,,
,visa,,,ACTOPAN,HIDALGO,,MX,,,,,
,visa,,,ACTOPAN,HIDALGO,,MX,,,,,
,visa,,,ACTOPAN,HIDALGO,,MX,,,,,
ff8fc0a36238e8cecb0e85ac664b2820,western_union,ELECZION ACTOPAN 1148,,Actopan,HIDALGO,,MX,+52 55 5246 0700,https://location.westernunion.com/mx/hidalgo/actopan/ff8fc0a36238e8cecb0e85ac664b2820,Mo-Su 06:30-23:30,Western Union,Q861042
082e62c502fd15f9fdd209045a3b51f1,western_union,ELECZION ACTOPAN 1148,,Actopan,HIDALGO,,MX,+52 55 5246 0700,https://location.westernunion.com/mx/hidalgo/actopan/082e62c502fd15f9fdd209045a3b51f1,Mo-Su 06:30-23:30,Western Union,Q861042
00dbf109d3e581b73a6c60803908e469,western_union,OXXO LA ESTANCIA PAC,,Actopan,HIDALGO,,MX,+52 81 8389 2121,https://location.westernunion.com/mx/hidalgo/actopan/00dbf109d3e581b73a6c60803908e469,Mo-Su 08:00-22:00,Western Union,Q861042
3620f092431d266bb10fcf17adcd0640,western_union,OXXO LA ESTANCIA PAC,,Actopan,HIDALGO,,MX,+52 81 8389 2121,https://location.westernunion.com/mx/hidalgo/actopan/3620f092431d266bb10fcf17adcd0640,Mo-Su 08:00-22:00,Western Union,Q861042
c9669fec5561a0d44e494477b1192e9e,western_union,OXXO AVIACION PAC,,Actopan,HIDALGO,,MX,+52 81 8389 2121,https://location.westernunion.com/mx/hidalgo/actopan/c9669fec5561a0d44e494477b1192e9e,Mo-Su 08:00-22:00,Western Union,Q861042
5a84eaf16763850dc2efe3e351c77245,western_union,SORIANA ACTOPAN 922,,Pachuca,HIDALGO,,MX,+52 800 555 6555,https://location.westernunion.com/mx/hidalgo/pachuca/5a84eaf16763850dc2efe3e351c77245,Mo-Su 08:00-22:00,Western Union,Q861042
888687723bab8ff94cdc7330175c88b7,western_union,SORIANA ACTOPAN 922,,Pachuca,HIDALGO,,MX,+52 800 555 6555,https://location.westernunion.com/mx/hidalgo/pachuca/888687723bab8ff94cdc7330175c88b7,Mo-Su 08:00-22:00,Western Union,Q861042
ac7fed0f36c4118721ac899d737329a0,western_union,SORIANA ACTOPAN 922,,Pachuca,HIDALGO,,MX,+52 800 555 6555,https://location.westernunion.com/mx/hidalgo/pachuca/ac7fed0f36c4118721ac899d737329a0,Mo-Su 08:00-22:00,Western Union,Q861042
3b47d91063e0ec89ca70cb065a741288,western_union,TELECOMM 13002,,Actopan,HIDALGO,,MX,+52 800 800 8930,https://location.westernunion.com/mx/hidalgo/actopan/3b47d91063e0ec89ca70cb065a741288,Mo-Sa 08:00-20:00,Western Union,Q861042
4a0a6aa76714c99c4e2c360a1a300eb9,western_union,TELECOMM 13002,,Actopan,HIDALGO,,MX,+52 800 800 9889,https://location.westernunion.com/mx/hidalgo/actopan/4a0a6aa76714c99c4e2c360a1a300eb9,Mo-Fr 08:00-14:00,Western Union,Q861042
ff3d7a93e2e2aa7820c242bf50566b5a,western_union,TELECOMM 13002,,Actopan,HIDALGO,,MX,+52 800 800 8930,https://location.westernunion.com/mx/hidalgo/actopan/ff3d7a93e2e2aa7820c242bf50566b5a,Mo-Su 09:00-20:00,Western Union,Q861042
bbb9778c8d980df025077464b2cd1146,western_union,ELEKTRA 5652,,Actopan,HIDALGO,,MX,+52 55 1720 8177,https://location.westernunion.com/mx/hidalgo/actopan/bbb9778c8d980df025077464b2cd1146,Mo-Su 09:00-21:00,Western Union,Q861042
ca0cc5290a89c87015cef0837a25dd85,western_union,ELEKTRA 5652,,Actopan,HIDALGO,,MX,+52 55 1720 8177,https://location.westernunion.com/mx/hidalgo/actopan/ca0cc5290a89c87015cef0837a25dd85,Mo-Su 09:00-21:00,Western Union,Q861042
340d8b11eb0ac85c5f36b18ca03a78aa,western_union,ELEKTRA 5652,,Actopan,HIDALGO,,MX,+52 55 1720 8177,https://location.westernunion.com/mx/hidalgo/actopan/340d8b11eb0ac85c5f36b18ca03a78aa,Mo-Su 09:00-20:00,Western Union,Q861042
9fcf5e4ca2e52f6a377d84ed18fe4f28,western_union,FUNDACION DONDE ACTOPAN ID381,,Actopan,HIDALGO,,MX,+52 999 940 7550,https://location.westernunion.com/mx/hidalgo/actopan/9fcf5e4ca2e52f6a377d84ed18fe4f28,Mo-Su 08:00-20:00,Western Union,Q861042
5e0b976269e65bb6157cd8c16eeb05bc,western_union,FUNDACION DONDE ACTOPAN ID381,,Actopan,HIDALGO,,MX,+52 999 940 7550,https://location.westernunion.com/mx/hidalgo/actopan/5e0b976269e65bb6157cd8c16eeb05bc,Mo-Su 08:00-20:00,Western Union,Q861042
47901855026228264e582ae08cecdb30,western_union,FUNDACION DONDE ACTOPAN ID381,,Actopan,HIDALGO,,MX,+52 999 940 7550,https://location.westernunion.com/mx/hidalgo/actopan/47901855026228264e582ae08cecdb30,Mo-Su 08:00-20:00,Western Union,Q861042
a4396d760b6b615011011b707ed47d95,western_union,OXXO ACTOPAN CENTRO PAC,,Actopan,HIDALGO,,MX,+52 81 8389 2121,https://location.westernunion.com/mx/hidalgo/actopan/a4396d760b6b615011011b707ed47d95,Mo-Su 08:00-22:00,Western Union,Q861042
11e6a822e190e4871f2fab22acaf279f,western_union,ELEKTRA PPR 4671,,Actopan,HIDALGO,,MX,+52 55 1720 8177,https://location.westernunion.com/mx/hidalgo/actopan/11e6a822e190e4871f2fab22acaf279f,Mo-Su 09:00-21:00,Western Union,Q861042
dd174181473f3813da29cd7fbcea033e,western_union,OXXO ACTOPAN CENTRO PAC,,Actopan,HIDALGO,,MX,+52 81 8389 2121,https://location.westernunion.com/mx/hidalgo/actopan/dd174181473f3813da29cd7fbcea033e,Mo-Su 08:00-22:00,Western Union,Q861042
fe8d2cd8a3f520ce59ed0db6494016ed,western_union,ELECZION ACTOPAN 1148,,Actopan,HIDALGO,,MX,+52 55 5246 0700,https://location.westernunion.com/mx/hidalgo/actopan/fe8d2cd8a3f520ce59ed0db6494016ed,Mo-Su 06:30-23:30,Western Union,Q861042
98f118f8a584a242a6027bb904fa1f42,western_union,TIENDAS NETO ACTOPAN 1255,,Actopan,HIDALGO,,MX,+52 772 728 2227,https://location.westernunion.com/mx/hidalgo/actopan/98f118f8a584a242a6027bb904fa1f42,Mo-Su 07:00-22:00,Western Union,Q861042
ceffa67c6b479299048017fa89719a9e,western_union,TIENDAS NETO ACTOPAN 1255,,Actopan,HIDALGO,,MX,+52 772 728 2227,https://location.westernunion.com/mx/hidalgo/actopan/ceffa67c6b479299048017fa89719a9e,Mo-Su 07:00-22:00,Western Union,Q861042
14fd962ad098890461e694faa3cd74cb,western_union,TIENDAS NETO ACTOPAN 1255,,Actopan,HIDALGO,,MX,+52 772 728 2227,https://location.westernunion.com/mx/hidalgo/actopan/14fd962ad098890461e694faa3cd74cb,Mo-Su 07:00-22:00,Western Union,Q861042
32b2e744b06d2a2aada08c7e08c4f0c3,western_union,FARM GUAD PLAZA DE LA REFORMA,,Actopan,HIDALGO,,MX,+52 800 833 4700,https://location.westernunion.com/mx/hidalgo/actopan/32b2e744b06d2a2aada08c7e08c4f0c3,Mo-Su 08:00-20:00,Western Union,Q861042
4df07a53768c2dfa8e1aeda4c4e03f25,western_union,FARM GUAD PLAZA DE LA REFORMA,,Actopan,HIDALGO,,MX,+52 800 833 4700,https://location.westernunion.com/mx/hidalgo/actopan/4df07a53768c2dfa8e1aeda4c4e03f25,Mo-Su 08:00-20:00,Western Union,Q861042
b77679e6897c1c7076d5e1ff51bebef0,western_union,FARM GUAD PLAZA DE LA REFORMA,,Actopan,HIDALGO,,MX,+52 800 833 4700,https://location.westernunion.com/mx/hidalgo/actopan/b77679e6897c1c7076d5e1ff51bebef0,Mo-Su 08:00-20:00,Western Union,Q861042
7af5aa4316547857574ee45537e643b5,western_union,WALDOS ACTOPAN HGO 6139,,Actopan,HIDALGO,,MX,+52 55 5246 0700,https://location.westernunion.com/mx/hidalgo/actopan/7af5aa4316547857574ee45537e643b5,Mo-Su 06:30-23:30,Western Union,Q861042
a3213e0d47ff555dc48507a7110fd830,western_union,ELEKTRA PPR 4671,,Actopan,HIDALGO,,MX,+52 55 1720 8177,https://location.westernunion.com/mx/hidalgo/actopan/a3213e0d47ff555dc48507a7110fd830,Mo-Su 09:00-20:00,Western Union,Q861042
f3bae9f6621464e674d84b734b0cc04a,western_union,ELEKTRA PPR 4671,,Actopan,HIDALGO,,MX,+52 55 1720 8177,https://location.westernunion.com/mx/hidalgo/actopan/f3bae9f6621464e674d84b734b0cc04a,Mo-Su 09:00-21:00,Western Union,Q861042
3a22e377b56447b5433a258f01584758,western_union,OXXO ACTOPAN PAC,,Actopan,HIDALGO,,MX,+52 81 8389 2121,https://location.westernunion.com/mx/hidalgo/actopan/3a22e377b56447b5433a258f01584758,Mo-Su 08:00-22:00,Western Union,Q861042
ad0df0347f78ca1c1349d4a602846218,western_union,OXXO ACTOPAN PAC,,Actopan,HIDALGO,,MX,+52 81 8389 2121,https://location.westernunion.com/mx/hidalgo/actopan/ad0df0347f78ca1c1349d4a602846218,Mo-Su 08:00-22:00,Western Union,Q861042
ae219d4f2b5879eff1fcdfda24d0e3a8,western_union,OXXO ACTOPAN PAC,,Actopan,HIDALGO,,MX,+52 81 8389 2121,https://location.westernunion.com/mx/hidalgo/actopan/ae219d4f2b5879eff1fcdfda24d0e3a8,Mo-Su 08:00-22:00,Western Union,Q861042
82b3b9dda15ad2b160479a1f96b60588,western_union,OXXO AVIACION PAC,,Actopan,HIDALGO,,MX,+52 81 8389 2121,https://location.westernunion.com/mx/hidalgo/actopan/82b3b9dda15ad2b160479a1f96b60588,Mo-Su 08:00-22:00,Western Union,Q861042
