Ref,Spider,Name,Address,City,State,Zipcode,Country,Phone,Website,Hours,Brand,WikiData
DON-29,aldi_sud_de,,"Laufenpark 9, 79725, Laufenburg, Deutschland",Laufenburg,,,DE,,,Mo-Sa 08:00-20:00,ALDI Süd,Q41171672
47.5589048.046885,dpd_de,Breitis Kaffeeautomaten,,Laufenburg,,,DE,,,,DPD,Q541030
47.56508161788.0729513257,dpd_de,NKD Deutschland GmbH,,Laufenburg,,,DE,,,,DPD,Q541030
47.56421838.0742142,dpd_de,AWG Mode Center,,Laufenburg,,,DE,,,,DPD,Q541030
https://www.fressnapf.de/stores/fressnapf-laufenburg/,fressnapf_de,Fressnapf Laufenburg,,Laufenburg,,,DE,+49 7763 928877,https://www.fressnapf.de/stores/fressnapf-laufenburg/,Mo-Fr 09:00-19:00; Sa 09:00-18:00,Fressnapf,Q875796
2760913128,gls_de,Ellas Profi Haar Shop,,Laufenburg,,,DE,+49 7763 9259160,,Mo-Fr 09:00-18:00; Sa 09:00-17:00,General Logistics Systems,Q46495823
1931,kik,KiK,,Laufenburg,,,DE,+49 7763 802438,,Mo-Sa 09:00-20:00,KiK,Q883965
3027,lidl_de,,,Laufenburg,,,DE,,,Mo-Sa 07:00-21:00,Lidl,Q151954
1497,mueller,Müller,,Laufenburg,,,DE,+49 7763 9277090,https://www.mueller.de/meine-filiale/laufenburg/laufenpark-8/,,Müller,Q1958759
89575365-c32c-44d6-a9e2-3640529a60ac,scania,Autohaus Fahrzeugbau Ruf,,Laufenburg,,,DE,+49 7763 7824,,"Mo-Fr 08:00-12:00,13:00-17:00; Sa 08:00-12:00",Scania,Q219960
133555,sparkasse_de,Sparkasse Hochrhein Geldautomat Laufenpark,,Laufenburg,,,DE,+49 7751 8820,https://www.sparkasse.de/standorte/geldautomaten/sparkasse-hochrhein-geldautomat-laufenpark-133555,Mo-Su 06:00-22:00,Sparkasse,Q13601825
108798,sparkasse_de,Sparkasse Hochrhein SB-Center Laufenpark,,Laufenburg,,,DE,+49 7751 8820,https://www.sparkasse.de/standorte/filialen/sparkasse-hochrhein-sb-center-laufenpark-108798,Mo-Su 06:00-22:00,Sparkasse,Q13601825
133541,sparkasse_de,Sparkasse Hochrhein Geldautomat Laufenburg,,Laufenburg,,,DE,+49 7751 8820,https://www.sparkasse.de/standorte/geldautomaten/sparkasse-hochrhein-geldautomat-laufenburg-133541,Mo-Su 06:00-22:00,Sparkasse,Q13601825
15566,sparkasse_de,Sparkasse Hochrhein Geschäftsstelle Laufenburg,,Laufenburg,,,DE,+49 7751 8820,https://www.sparkasse.de/standorte/filialen/sparkasse-hochrhein-geschaeftsstelle-laufenburg-15566,"Mo-Tu 09:00-12:00,14:30-16:30; We 09:00-12:00; Th 09:00-12:00,14:00-18:00; Fr 09:00-12:00,14:30-16:30",Sparkasse,Q13601825
,visa,,,LAUFENBURG,,,DE,,,,,
,visa,,,LAUFENBURG,,,DE,,,,,
,visa,,,LAUFENBURG (BADEN),,,DE,,,,,
,visa,,,LAUFENBURG,,,DE,,,,,
,visa,,,LAUFENBURG,,,DE,,,,,
https://www.vr.de/standorte/L/volksbank-rhein-wehra-eg-geschaeftsstelle-laufenburg-4937.html,vr_bank,Volksbank Rhein-Wehra eG / Geschäftsstelle Laufenburg,,Laufenburg,,,DE,+49 7761 56950,https://www.volksbank-rhein-wehra.de,"Mo 09:00-12:00,14:00-17:30; Tu 09:00-12:00,14:00-16:00; We 09:00-12:00; Th 09:00-12:00,14:00-17:30; Fr 09:00-12:00,14:00-16:00",,
