Ref,Spider,Name,Address,City,State,Zipcode,Country,Phone,Website,Hours,Brand,WikiData
3013,action,Tönisvorst,,Tönisvorst,,,DE,,https://www.action.com/de-de/laden/tonisvorst-benrader-strabe/,,Action,Q2634111
B148,aldi_sud_de,,"Mühlenstraße 135, 47918, Tönisvorst, Deutschland",Tönisvorst,,,DE,+49 2151 705789,https://www.aldi-sued.de/de/homepage.html,Mo-Sa 08:00-20:00,ALDI Süd,Q41171672
B149,aldi_sud_de,,"Höhenhöfe 33, 47918, Tönisvorst, Deutschland",Tönisvorst,,,DE,+49 2151 1502970,https://www.aldi-sued.de/de/homepage.html,Mo-Sa 08:00-20:00,ALDI Süd,Q41171672
https://vertretung.allianz.de/agentur.frick/,allianz_de,Allianz Versicherung Torsten Frick e.K. GENERALVERTRETUNG,,Tönisvorst,,,DE,+49 2151 99320,https://vertretung.allianz.de/agentur.frick/,"Mo-Th 09:00-13:00,15:00-18:00; Fr 09:00-13:00",Allianz SE,Q487292
https://vertretung.allianz.de/rene.muenster/,allianz_de,Allianz Versicherung Rene Münster GENERALVERTRETUNG,,Tönisvorst,,,DE,+49 2151 700336,https://vertretung.allianz.de/rene.muenster/,"Mo-We 09:00-12:30; Th 09:00-12:30,14:30-17:00; Fr 09:00-12:30",Allianz SE,Q487292
17149,burgerking,Burger King,,Tönisvorst,,,DE,+49 2151 3684787,https://www.burgerking.de/store-locator/store/restaurant_10847,Mo-Th 11:00-00:00; Fr-Sa 11:00-01:00; Su 11:00-00:00,Burger King,Q177054
de:2488,dm,dm-drogerie markt,,Tönisvorst,,,DE,+49 2151 3657153,https://www.dm.de/store/d47g/toenisvorst/hochstrasse-25,Mo-Sa 07:30-20:30,dm,Q266572
https://www.fressnapf.de/stores/fressnapf-toenisvorst/,fressnapf_de,Fressnapf Tönisvorst,,Tönisvorst,,,DE,+49 2151 1507012,https://www.fressnapf.de/stores/fressnapf-toenisvorst/,Mo-Sa 09:00-20:00,Fressnapf,Q875796
2760202384,gls_de,George`s Stehcafe u. Kiosk,,Tönisvorst,,,DE,+49 2151 1506294,,Mo-Tu 07:00-19:00; We 07:00-14:00; Th 07:00-19:00; Fr 07:00-18:00; Sa 08:00-14:00,General Logistics Systems,Q46495823
2760915287,gls_de,Speed House GmbH,,Tönisvorst,,,DE,+49 172 2384467,,Mo-Fr 10:00-18:00; Sa 10:00-16:00,General Logistics Systems,Q46495823
1681,jysk,Tönisvorst,,Tönisvorst,,,DE,+49 2151 8211570,https://jysk.de/filialen?storeId=1681,Mo-Th 10:00-19:00; Sa 09:30-18:00,JYSK,Q138913
https://kamps.de/standort/kamps-baeckerei-rewe-markt-toenisvorst-kempener-str-11-13,kamps_de,Kamps,,Tönisvorst,,,DE,+49 2156 80224,https://kamps.de/standort/kamps-baeckerei-rewe-markt-toenisvorst-kempener-str-11-13,Mo-Sa 07:00-22:00,Kamps,Q1723381
https://kamps.de/standort/kamps-baeckerei-globus-markt-toenisvorst-hoehenhoefe-19,kamps_de,Kamps,,Tönisvorst,,,DE,+49 2151 700877,https://kamps.de/standort/kamps-baeckerei-globus-markt-toenisvorst-hoehenhoefe-19,Mo-Sa 08:00-20:00,Kamps,Q1723381
6224,kik,KiK,,Tönisvorst,,,DE,+49 2151 1509444,,Mo-Fr 09:00-19:00; Sa 09:00-18:00,KiK,Q883965
1609,lidl_de,,,Tönisvorst,,,DE,,,Mo-Sa 07:00-21:00,Lidl,Q151954
23161,sparkasse_de,Sparkasse Krefeld Geldautomat St. Tönis,,Tönisvorst,,,DE,+49 2151 6856700,https://www.sparkasse.de/standorte/geldautomaten/sparkasse-krefeld-geldautomat-st-toenis-23161,Mo-Su 06:00-24:00,Sparkasse,Q13601825
6428,sparkasse_de,Sparkasse Krefeld Filiale St. Tönis,,Tönisvorst,,,DE,+49 2151 6856700,https://www.sparkasse.de/standorte/filialen/sparkasse-krefeld-filiale-st-toenis-6428,"Mo 09:30-12:30,14:00-16:00; Tu 09:30-12:30,14:00-17:00; We 09:30-12:30; Th 09:30-12:30,14:00-18:00; Fr 09:30-12:30,14:00-16:00",Sparkasse,Q13601825
164473,sparkasse_de,Sparkasse Krefeld GewerbekundenCenter Tönisvorst,,Tönisvorst,,,DE,+49 2151 6862242,https://www.sparkasse.de/standorte/filialen/sparkasse-krefeld-gewerbekunden-center-toenisvorst-164473,"Mo 09:30-12:30,14:00-16:00; Tu 09:30-12:30,14:00-17:00; We 09:30-12:30; Th 09:30-12:30,14:00-18:00; Fr 09:30-12:30,14:00-16:00",Sparkasse,Q13601825
23164,sparkasse_de,Sparkasse Krefeld Geldautomat Vorst (Tönisvorst),,Tönisvorst,,,DE,+49 2151 685800,https://www.sparkasse.de/standorte/geldautomaten/sparkasse-krefeld-geldautomat-vorst-toenisvorst-23164,Mo-Su 06:00-24:00,Sparkasse,Q13601825
6427,sparkasse_de,Sparkasse Krefeld Filiale Vorst (Tönisvorst),,Tönisvorst,,,DE,+49 2151 6850800,https://www.sparkasse.de/standorte/filialen/sparkasse-krefeld-filiale-vorst-toenisvorst-6427,"Mo 09:30-12:30,14:00-16:00; Tu 09:30-12:30,14:00-17:00; We 09:30-12:30; Th 09:30-12:30,14:00-18:00; Fr 09:30-12:30,14:00-16:00",Sparkasse,Q13601825
WES_DE_838,totalenergies,"TÖNISVORST, DÜSSELDORFER STR. 2",,Tönisvorst,,,DE,,https://store.totalenergies.fr/en_EN/WES_DE_838,,Westfalen,Q1411209
,visa,,,TOENISVORST,,,DE,,,,,
,visa,,,TÖNISVORST,,,DE,,,,,
,visa,,,TOENISVORST,,,DE,,,,,
,visa,,,TOENISVORST,,,DE,,,,,
https://shops.vodafone.de/toenisvorst/hochstr.-34,vodafone_de,Vodafone-Shop,,Tönisvorst,,,DE,+49 2151 3615599,https://shops.vodafone.de/toenisvorst/hochstr.-34,Mo-Sa 10:00-13:00,Vodafone,Q122141
https://www.vr.de/standorte/T/volksbank-krefeld-eg-geschaeftsstelle-vorst-8700.html,vr_bank,"Volksbank Krefeld eG, Geschäftsstelle Vorst",,Tönisvorst,,,DE,+49 2151 56700,https://www.vbkrefeld.de,"Mo 08:30-12:30,14:00-16:00; Tu 08:30-12:30,14:00-18:00; We 08:30-12:30,14:00-16:00; Th 08:30-12:30,14:00-18:00; Fr 08:30-12:30,14:00-16:00",,
https://www.vr.de/standorte/T/volksbank-krefeld-eg-geschaeftsstelle-st-toenis-8699.html,vr_bank,"Volksbank Krefeld eG, Geschäftsstelle St. Tönis",,Tönisvorst,,,DE,+49 2151 56700,https://www.vbkrefeld.de,"Mo 08:30-12:30,14:00-16:00; Tu 08:30-12:30,14:00-18:00; We 08:30-12:30,14:00-16:00; Th 08:30-12:30,14:00-18:00; Fr 08:30-12:30,14:00-16:00",,
