Ref,Spider,Name,Address,City,State,Zipcode,Country,Phone,Website,Hours,Brand,WikiData
57165,bluerhino,Kroger #623 - Columbus,,Galloway,OH,,US,+1 614-870-4350,,,Blue Rhino,Q65681213
143814,bluerhino,Kroger #623 - Columbus - Fuel Site,,Galloway,OH,,US,+1 614-870-4350,,,Blue Rhino,Q65681213
150831,bluerhino,Walgreens #7523,,Galloway,OH,,US,+1 614-870-7816,,,Blue Rhino,Q65681213
127589,bluerhino,Speedway #5238,,Galloway,OH,,US,+1 614-870-2116,,,Blue Rhino,Q65681213
178302,bluerhino,Alkire Shell,,Galloway,OH,,US,+1 614-680-7078,,,Blue Rhino,Q65681213
2040952,chase_us,Galloway - New branch,,Galloway,OH,,US,+1 614-853-2999,https://locator.chase.com/oh/galloway/5684-w-broad-st,Mo-Fr 09:00-17:00; Sa 09:00-14:00,Chase,Q524629
46674,citi,ATM CVS,,Galloway,OH,,US,,,,Citibank,Q857063
85725,citi,ATM United Dairy Farmers,,Galloway,OH,,US,,,,Citibank,Q857063
68878,citi,ATM PNC AT UDF,,Galloway,OH,,US,,,,Citibank,Q857063
79994,citi,ATM SPEEDWAY #5238,,Galloway,OH,,US,,,,Citibank,Q857063
79352,citi,ATM Speedway,,Galloway,OH,,US,,,,Citibank,Q857063
70058143,cricket_wireless,Cricket Wireless Authorized Retailer,,Galloway,OH,,US,+1 614-385-4882,https://www.cricketwireless.com/stores,Mo-Sa 10:00-19:00; Su 11:00-17:00,Cricket Wireless,Q5184987
4621,cvs_us,CVS Pharmacy,,Galloway,OH,,US,+1 614-853-3836,https://www.cvs.com/store-locator/galloway-oh-pharmacies/1001-norton-rd-galloway-oh-43119/storeid=4621,Mo-Fr 09:00-21:00; Sa-Su 10:00-19:00,CVS Pharmacy,Q2078880
https://salons.greatclips.com/us/oh/galloway/5680-w-broad-st,greatclips,Great Clips,,Galloway,OH,,US,+1 614-870-0520,https://salons.greatclips.com/us/oh/galloway/5680-w-broad-st,Mo-Fr 10:00-19:00; Sa 09:00-18:00; Su 10:00-17:00,Great Clips,Q5598967
000542,kindercare,Norton Road KinderCare,,Galloway,OH,,US,,https://www.kindercare.com/our-centers/galloway/oh/000542,,KinderCare Learning Centers,Q6410551
4632,mightyflame,THORNTONS #66,,GALLOWAY,OH,,US,+1 614-878-5471,,,Mighty Flame,
74421152,moneygram,BANCOSECHA,,GALLOWAY,OH,,US,+1 614-519-8184,,Mo-Su 08:00-20:00,MoneyGram,Q1944412
https://restaurants.subway.com/#14916558,subway,Subway,,Galloway Franklin,OH,,US,+1 614-870-6443,https://restaurants.subway.com/united-states/oh/galloway/1041-norton-rd,Mo-Sa 08:00-23:00; Su 09:00-23:00,Subway,Q244457
1364366,usps,GALLOWAY,,GALLOWAY,OH,,US,+1 614-878-2313,,Mo-Fr 08:30-17:00; Sa 09:00-14:00,United States Postal Service,Q668687
4311900006,usps_collection_boxes,USPS COLLECTION BOX - PO LOBBY,5820 SULLIVANT AVE,GALLOWAY,OH,,US,,,,United States Postal Service,Q668687
4311900007,usps_collection_boxes,USPS COLLECTION BOX - BLUE BOX,5820 SULLIVANT AVE,GALLOWAY,OH,,US,,,,United States Postal Service,Q668687
4311900003,usps_collection_boxes,USPS COLLECTION BOX - PO LOBBY,5820 SULLIVANT AVE,GALLOWAY,OH,,US,,,,United States Postal Service,Q668687
,visa,,,HEATH,OH,,US,,,,,
,visa,,,GALLOWAY,OH,,US,,,,,
,visa,,,GALLOWAY,OH,,US,,,,,
,visa,,,GALLOWAY,OH,,US,,,,,
,visa,,,GALLOWAY,OH,,US,,,,,
,visa,,,GALLOWAY,OH,,US,,,,,
,visa,,,GALLOWAY,OH,,US,,,,,
,visa,,,GALLOWAY,OH,,US,,,,,
,visa,,,GALLOWAY,OH,,US,,,,,
,visa,,,GALLOWAY,OH,,US,,,,,
,visa,,,GALLOWAY,OH,,US,,,,,
,visa,,,GALLOWAY,OH,,US,,,,,
,visa,,,GALLOWAY,OH,,US,,,,,
,visa,,,GALLOWAY,OH,,US,,,,,
https://www.walgreens.com/locator/walgreens-5690+w+broad+st-galloway-oh-43119/id=7523,walgreens,Walgreens,,Galloway,OH,,US,+1 614-870-7816,https://www.walgreens.com/locator/walgreens-5690+w+broad+st-galloway-oh-43119/id=7523,Mo-Su 08:00-22:00,Walgreens,Q1591889
