Ref,Spider,Name,Address,City,State,Zipcode,Country,Phone,Website,Hours,Brand,WikiData
720,aaa,Montrose Branch,,Montrose,CA,,US,+1 818-249-3971,,,American Automobile Association,Q463436
https://local.vons.com/#5605184,albertsons,Vons,,Montrose,CA,,US,+1 818-249-4595,https://local.vons.com/ca/montrose/2039-verdugo-blvd.html,Mo-Su 06:00-23:00,Vons,Q7941609
https://locators.bankofamerica.com/ca/montrose/financial-centers-montrose-8890.html,bankofamerica,Bank of America Financial Center & Walk-Up ATM | Montrose,,Montrose,CA,,US,+1 818-542-6703,https://locators.bankofamerica.com/ca/montrose/financial-centers-montrose-8890.html,Mo-Fr 09:00-17:00; Sa 09:00-16:00,Bank of America,Q487907
2042591,chase_us,Montrose - New branch,,Montrose,CA,,US,+1 818-542-6910,https://locator.chase.com/ca/montrose/2314-honolulu-ave,Mo-Fr 09:00-17:00; Sa 09:00-14:00,Chase,Q524629
28415,citi,ATM 7ELEVEN-FCTI,,Montrose,CA,,US,,,,Citibank,Q857063
48909,citi,ATM CVS,,Montrose,CA,,US,,,,Citibank,Q857063
41501,citi,ATM Circle K,,Montrose,CA,,US,,,,Citibank,Q857063
9647,cvs_us,CVS Pharmacy,,Montrose,CA,,US,+1 818-248-8018,https://www.cvs.com/store-locator/montrose-ca-pharmacies/2037-verdugo-blvd-montrose-ca-91020/storeid=9647,24/7,CVS Pharmacy,Q2078880
200310721,exxonmobil,CIRCLE K 09438,,montrose,CA,,US,+1 818-236-2692,https://www.exxon.com/en/find-station/mobil-montrose-ca-circlek09438-200310721,24/7,Mobil,Q109676002
https://healthy.kaiserpermanente.org/southern-california/facilities/montrose-healthcare-center-176016,kaiser_permanente_us,Montrose Healthcare Center,,Montrose,CA,,US,+1 818-249-3925,https://healthy.kaiserpermanente.org/southern-california/facilities/montrose-healthcare-center-176016,,Kaiser Permanente,Q1721601
110320,little_free_library,Sunshine Library #110320 Glendale CA,,Glendale,CA,,US,,,,Little Free Library,Q6650101
66034845,moneygram,CVS - #9647,,MONTROSE,CA,,US,+1 818-248-8018,,Mo-Su 08:00-22:00,MoneyGram,Q1944412
https://restaurants.subway.com/#14895289,subway,Subway,,Montrose Los Angeles,CA,,US,+1 818-248-9430,https://restaurants.subway.com/united-states/ca/montrose/2035-n-verdugo-blvd,Mo-Su 08:00-21:00,Subway,Q244457
10682,tjx,Montrose (La Canada),2065 Verdugo Boulevard,Montrose (La Canada),CA,,US,+1 818-541-9585,,Mo-Sa 09:30-21:30; Su 10:00-20:00,Marshalls,Q15903261
52,trader_joes_us,Trader Joe's Montrose (52),,Montrose,CA,,US,+1 818-957-3613,https://locations.traderjoes.com/ca/montrose/52/,Mo-Su 08:00-21:00,Trader Joe's,Q688825
2686,upsstore,Montrose,2029 Verdugo Blvd,Montrose,CA,,US,+1 818-957-3132,https://locations.theupsstore.com/ca/montrose/2029-verdugo-blvd,,UPS Store,Q7771029
1373670,usps,MONTROSE,,MONTROSE,CA,,US,+1 818-249-9463,,Mo-Fr 09:00-17:00,United States Postal Service,Q668687
9102000023,usps_collection_boxes,USPS COLLECTION BOX - BLUE BOX,2401 HONOLULU AVE,MONTROSE,CA,,US,,,,United States Postal Service,Q668687
9102000027,usps_collection_boxes,USPS COLLECTION BOX - BLUE BOX,2340 HONOLULU AVE,MONTROSE,CA,,US,,,,United States Postal Service,Q668687
9102000016,usps_collection_boxes,USPS COLLECTION BOX - BLUE BOX,2100 MONTROSE AVE,MONTROSE,CA,,US,,,,United States Postal Service,Q668687
9102000001,usps_collection_boxes,USPS COLLECTION BOX - BLUE BOX,2100 MONTROSE AVE,MONTROSE,CA,,US,,,,United States Postal Service,Q668687
9102000029,usps_collection_boxes,USPS COLLECTION BOX - BLUE BOX,2284 HONOLULU AVE,MONTROSE,CA,,US,,,,United States Postal Service,Q668687
9102000000,usps_collection_boxes,USPS COLLECTION BOX - BLUE BOX,2100 MONTROSE AVE,MONTROSE,CA,,US,,,,United States Postal Service,Q668687
9102000002,usps_collection_boxes,USPS COLLECTION BOX - EXPRESS,2100 MONTROSE AVE,MONTROSE,CA,,US,,,,United States Postal Service,Q668687
9102000019,usps_collection_boxes,USPS COLLECTION BOX - APC,2100 MONTROSE AVE,MONTROSE,CA,,US,,,,United States Postal Service,Q668687
9102000032,usps_collection_boxes,USPS COLLECTION BOX - PO LOBBY,2100 MONTROSE AVE,MONTROSE,CA,,US,,,,United States Postal Service,Q668687
9102000036,usps_collection_boxes,USPS COLLECTION BOX - PO LOBBY,2100 MONTROSE AVE,MONTROSE,CA,,US,,,,United States Postal Service,Q668687
9102000033,usps_collection_boxes,USPS COLLECTION BOX - BLUE BOX,2207 HONOLULU AVE,MONTROSE,CA,,US,,,,United States Postal Service,Q668687
A00000233840,verizon_us,Wireless Plus Montrose,,MONTROSE,CA,,US,+1 818-248-4000,https://www.verizon.com/stores/details/california/montrose/wireless-plus-montrose-1620822/,Mo-Sa 10:00-19:00; Su 11:00-18:00,Verizon,Q919641
,visa,,,MONTROSE,CA,,US,,,,,
,visa,,,MONTROSE,CA,,US,,,,,
,visa,,,MONTROSE,CA,,US,,,,,
,visa,,,MONTROSE,CA,,US,,,,,
,visa,,,MONTROSE,CA,,US,,,,,
,visa,,,MONTROSE,CA,,US,,,,,
,visa,,,MONTROSE,CA,,US,,,,,
,visa,,,MONTROSE,CA,,US,,,,,
,visa,,,MONTROSE,CA,,US,,,,,
2434__HONOLULU__AVE_MONTROSE_CA_91020,wellsfargo,Wells Fargo,2434 HONOLULU AVE,MONTROSE,CA,,US,+1 818-249-6146,https://www.wellsfargo.com/locator/bank/2434__HONOLULU__AVE_MONTROSE_CA_91020/,Mo-Fr 09:00-17:00,Wells Fargo,Q744149
88a81af148808adf8d1fa60f94fe5dc7,western_union,7-ELEVEN #17644,,Montrose,CA,,US,+1 818-249-5016,https://location.westernunion.com/us/ca/montrose/88a81af148808adf8d1fa60f94fe5dc7,,Western Union,Q861042
