Ref,Spider,Name,Address,City,State,Zipcode,Country,Phone,Website,Hours,Brand,WikiData
,visa,,,ACAPULCO DE JUAREZ,GUERRERO,,MX,,,,,
,visa,,,ACAPULCO,GUERRERO,,MX,,,,,
,visa,,,ACAPULCO DE JUAREZ,GUERRERO,,MX,,,,,
49d4509183ad2bcaf763572dfab4c989,western_union,OXXO TULIPANES ACA,,Acapulco,GUERRERO,,MX,+52 81 8389 2121,https://location.westernunion.com/mx/guerrero/acapulco/49d4509183ad2bcaf763572dfab4c989,Mo-Su 08:00-22:00,Western Union,Q861042
8abd1ffba4a737d5634138bf32ff6afe,western_union,OXXO SENDERO ACA,,Acapulco,GUERRERO,,MX,+52 81 8389 2121,https://location.westernunion.com/mx/guerrero/acapulco/8abd1ffba4a737d5634138bf32ff6afe,Mo-Su 06:00-22:00,Western Union,Q861042
74e7a857da16e5a0e754c6937ea0cb9b,western_union,OXXO SENDERO ACA,,Acapulco,GUERRERO,,MX,+52 81 8389 2121,https://location.westernunion.com/mx/guerrero/acapulco/74e7a857da16e5a0e754c6937ea0cb9b,Mo-Su 06:00-22:00,Western Union,Q861042
e3f3c0502b48cb56a016480a3bf97bc2,western_union,OXXO NICOLAS BRAVO ACA,,Acapulco,GUERRERO,,MX,+52 81 8389 2121,https://location.westernunion.com/mx/guerrero/acapulco/e3f3c0502b48cb56a016480a3bf97bc2,Mo-Su 08:00-22:00,Western Union,Q861042
7ffbec5085b13b883ca258050ca4ab46,western_union,OXXO NICOLAS BRAVO ACA,,Acapulco,GUERRERO,,MX,+52 81 8389 2121,https://location.westernunion.com/mx/guerrero/acapulco/7ffbec5085b13b883ca258050ca4ab46,Mo-Su 08:00-22:00,Western Union,Q861042
8dc9c82e0ab72318b83097b4d99e8313,western_union,OXXO NICOLAS BRAVO ACA,,Acapulco,GUERRERO,,MX,+52 81 8389 2121,https://location.westernunion.com/mx/guerrero/acapulco/8dc9c82e0ab72318b83097b4d99e8313,Mo-Su 08:00-22:00,Western Union,Q861042
38dfbe937bc48045d0b24bd9da5f52b1,western_union,OXXO FRACC TULIPANES ACA,,Acapulco,GUERRERO,,MX,+52 81 8389 2121,https://location.westernunion.com/mx/guerrero/acapulco/38dfbe937bc48045d0b24bd9da5f52b1,Mo-Su 06:00-22:00,Western Union,Q861042
cb80a5e9b61e99258d7c4e9eb820f421,western_union,OXXO SENDERO ACA,,Acapulco,GUERRERO,,MX,+52 81 8389 2121,https://location.westernunion.com/mx/guerrero/acapulco/cb80a5e9b61e99258d7c4e9eb820f421,Mo-Su 06:00-22:00,Western Union,Q861042
47503e801803892cb1b5b1d3292744b2,western_union,FARM GUAD EL CAYACO,,Acapulco,GUERRERO,,MX,+52 800 833 4700,https://location.westernunion.com/mx/guerrero/acapulco/47503e801803892cb1b5b1d3292744b2,Mo-Su 09:00-22:00,Western Union,Q861042
68842d3d01f7888b8f73aa68e0f54f55,western_union,FARM GUAD EL CAYACO,,Acapulco,GUERRERO,,MX,+52 800 833 4700,https://location.westernunion.com/mx/guerrero/acapulco/68842d3d01f7888b8f73aa68e0f54f55,Mo-Su 09:00-22:00,Western Union,Q861042
5c77b7c5d4933a127e8ab1eb4d244f19,western_union,FARM GUAD EL CAYACO,,Acapulco,GUERRERO,,MX,+52 800 833 4700,https://location.westernunion.com/mx/guerrero/acapulco/5c77b7c5d4933a127e8ab1eb4d244f19,Mo-Su 09:00-22:00,Western Union,Q861042
15fde98db3c278acab5ee28059c774bb,western_union,OXXO CAYACO ACA,,Acapulco,GUERRERO,,MX,+52 81 8389 2121,https://location.westernunion.com/mx/guerrero/acapulco/15fde98db3c278acab5ee28059c774bb,Mo-Su 08:00-22:00,Western Union,Q861042
c8914c73a5f48f9a3dc304cc41f3c6ae,western_union,OXXO CAYACO ACA,,Acapulco,GUERRERO,,MX,+52 81 8389 2121,https://location.westernunion.com/mx/guerrero/acapulco/c8914c73a5f48f9a3dc304cc41f3c6ae,Mo-Su 08:00-22:00,Western Union,Q861042
7b44ff34bcafafda9d98acd6af39f9a8,western_union,OXXO TULIPANES ACA,,Acapulco,GUERRERO,,MX,+52 81 8389 2121,https://location.westernunion.com/mx/guerrero/acapulco/7b44ff34bcafafda9d98acd6af39f9a8,Mo-Su 08:00-22:00,Western Union,Q861042
b3019de4128c91e17a01036dadb94991,western_union,OXXO FRACC TULIPANES ACA,,Acapulco,GUERRERO,,MX,+52 81 8389 2121,https://location.westernunion.com/mx/guerrero/acapulco/b3019de4128c91e17a01036dadb94991,Mo-Su 06:00-22:00,Western Union,Q861042
cffe7eff28e2b3ba0d9626a77ca30747,western_union,OXXO FRACC TULIPANES ACA,,Acapulco,GUERRERO,,MX,+52 81 8389 2121,https://location.westernunion.com/mx/guerrero/acapulco/cffe7eff28e2b3ba0d9626a77ca30747,Mo-Su 06:00-22:00,Western Union,Q861042
2f12964a3fe2045a89d39a2acb2895e6,western_union,OXXO TECNOLOGICO ACA,,Acapulco,GUERRERO,,MX,+52 81 8389 2121,https://location.westernunion.com/mx/guerrero/acapulco/2f12964a3fe2045a89d39a2acb2895e6,Mo-Su 08:00-22:00,Western Union,Q861042
dae726b0ad8ce7687643e2ee948f353e,western_union,OXXO TECNOLOGICO ACA,,Acapulco,GUERRERO,,MX,+52 81 8389 2121,https://location.westernunion.com/mx/guerrero/acapulco/dae726b0ad8ce7687643e2ee948f353e,Mo-Su 08:00-22:00,Western Union,Q861042
44f5797641ec758dca624226cdd57566,western_union,OXXO TECNOLOGICO ACA,,Acapulco,GUERRERO,,MX,+52 81 8389 2121,https://location.westernunion.com/mx/guerrero/acapulco/44f5797641ec758dca624226cdd57566,Mo-Su 08:00-22:00,Western Union,Q861042
d70226b1b10819c4f961e421bfbf346b,western_union,TIENDAS NETO CRUCERO CAYACO 0386,,Acapulco,GUERRERO,,MX,+52 744 440 1911,https://location.westernunion.com/mx/guerrero/acapulco/d70226b1b10819c4f961e421bfbf346b,Mo-Su 07:00-22:00,Western Union,Q861042
5cd68b8a31b901bc74f0c5c807d0683b,western_union,TIENDAS NETO CRUCERO CAYACO 0386,,Acapulco,GUERRERO,,MX,+52 744 440 1911,https://location.westernunion.com/mx/guerrero/acapulco/5cd68b8a31b901bc74f0c5c807d0683b,Mo-Su 07:00-22:00,Western Union,Q861042
a3c006cd88c0dd801f8c8a11423531bb,western_union,ELEKTRA 6046,,Acapulco,GUERRERO,,MX,+52 55 1720 8177,https://location.westernunion.com/mx/guerrero/acapulco/a3c006cd88c0dd801f8c8a11423531bb,Mo-Su 09:00-20:00,Western Union,Q861042
05c530f456c0eac6219553838d44af58,western_union,ELEKTRA 6046,,Acapulco,GUERRERO,,MX,+52 55 1720 8177,https://location.westernunion.com/mx/guerrero/acapulco/05c530f456c0eac6219553838d44af58,Mo-Su 09:00-21:00,Western Union,Q861042
410c0c3e785f20faca6af95b031a5d5f,western_union,ELEKTRA 6046,,Acapulco,GUERRERO,,MX,+52 55 1720 8177,https://location.westernunion.com/mx/guerrero/acapulco/410c0c3e785f20faca6af95b031a5d5f,Mo-Su 09:00-21:00,Western Union,Q861042
9bb8b00b753bfbd2760edfac690b9733,western_union,ELECZION PATIO ACAPULCO 1324,,Acapulco,GUERRERO,,MX,+52 55 5246 0700,https://location.westernunion.com/mx/guerrero/acapulco/9bb8b00b753bfbd2760edfac690b9733,Mo-Su 06:30-23:30,Western Union,Q861042
65941f4120ed1b64930862854e836147,western_union,ELECZION PATIO ACAPULCO 1324,,Acapulco,GUERRERO,,MX,+52 55 5246 0700,https://location.westernunion.com/mx/guerrero/acapulco/65941f4120ed1b64930862854e836147,Mo-Su 06:30-23:30,Western Union,Q861042
db1bd6e4f2ac26497178d58199b50825,western_union,OXXO EL PEDREGOSO ACA,,Acapulco,GUERRERO,,MX,+52 81 8389 2121,https://location.westernunion.com/mx/guerrero/acapulco/db1bd6e4f2ac26497178d58199b50825,Mo-Su 08:00-22:00,Western Union,Q861042
1a7fc15bcb2eb48af3c3ca00f0c3b3dd,western_union,OXXO EL PEDREGOSO ACA,,Acapulco,GUERRERO,,MX,+52 81 8389 2121,https://location.westernunion.com/mx/guerrero/acapulco/1a7fc15bcb2eb48af3c3ca00f0c3b3dd,Mo-Su 08:00-22:00,Western Union,Q861042
0e6b32975a207479aba7a053c79a12af,western_union,OXXO EL PEDREGOSO ACA,,Acapulco,GUERRERO,,MX,+52 81 8389 2121,https://location.westernunion.com/mx/guerrero/acapulco/0e6b32975a207479aba7a053c79a12af,Mo-Su 08:00-22:00,Western Union,Q861042
5158316b3b2af1da0b22c6149a9f22b1,western_union,OXXO TULIPANES ACA,,Acapulco,GUERRERO,,MX,+52 81 8389 2121,https://location.westernunion.com/mx/guerrero/acapulco/5158316b3b2af1da0b22c6149a9f22b1,Mo-Su 08:00-22:00,Western Union,Q861042
