Ref,Spider,Name,Address,City,State,Zipcode,Country,Phone,Website,Hours,Brand,WikiData
4771,action,Montbrison,,Montbrison,,,FR,,https://www.action.com/fr-fr/points-de-vente/montbrison/,,Action,Q2634111
https://laboratoires.biogroup.fr/#25701315,biogroup_fr,BIOGROUP UNILIANS Laboratoire de Montbrison,,,,,FR,+33 4 77 58 45 67,https://laboratoires.biogroup.fr/loire/montbrison/3-avenue-de-saint-etienne,,Biogroup,Q101559741
8207,carrefour_fr,Market Montbrison,,Montbrison,,,FR,+33 4 77 58 45 03,https://www.carrefour.fr/magasin/market-montbrison,Mo-Sa 08:00-19:30; Su 08:30-12:30,Carrefour Market,Q2689639
https://www.credit-agricole.fr/particulier/agence/loire-haute-loire/pole-entrepreneur-pays-du-forez-10266.html,credit_agricole,Crédit Agricole,,Montbrison,,,FR,,https://www.credit-agricole.fr/particulier/agence/loire-haute-loire/pole-entrepreneur-pays-du-forez-10266.html,"Mo-Fr 09:00-12:30,14:00-17:30",Credit Agricole,Q590952
https://www.credit-agricole.fr/particulier/agence/loire-haute-loire/montbrison-centre-4394.html,credit_agricole,Crédit Agricole,,MONTBRISON,,,FR,+33 4 77 58 00 34,https://www.credit-agricole.fr/particulier/agence/loire-haute-loire/montbrison-centre-4394.html,"Tu-We 09:00-12:30,14:00-17:30; Th 09:00-12:30,15:00-17:30; Fr 09:00-12:30,13:50-17:30; Sa 08:15-12:45",Credit Agricole,Q590952
https://www.credit-agricole.fr/particulier/agence/loire-haute-loire/montbrison-boulevard-4395.html,credit_agricole,Crédit Agricole,,Montbrison,,,FR,+33 4 77 58 15 34,https://www.credit-agricole.fr/particulier/agence/loire-haute-loire/montbrison-boulevard-4395.html,"Tu-We 09:00-12:30,14:00-17:30; Th 09:00-12:30,15:00-17:30; Fr 09:00-12:30,13:50-17:30; Sa 08:15-12:45",Credit Agricole,Q590952
536,croix_rouge_francaise_fr,UNITE LOCALE DE MONTBRISON,,MONTBRISON,,,FR,,https://www.croix-rouge.fr/unite-locale-de-montbrison,Mo 13:30-16:00; We 13:30-16:00; Fr 13:30-16:00,Croix-Rouge française,Q3003244
15185895,esprit,Esprit Franchise Store Montbrison,,Montbrison,,,FR,+33 4 77 58 23 55,"https://www.esprit.com/storefinder?storeid=15185895&location=45.60660000,4.06443000",Tu 14:00-19:00; We-Sa 09:00-19:00; Su 09:00-13:00,Esprit,Q532746
FordFF74219  FRA,ford,Michel Vacheron Automobiles,,SAVIGNEUX,,,FR,+33 4 77 97 63 58,,Mo-Fr 08:00-19:00; Sa 08:00-12:00,Ford,Q44294
3858,lidl_fr,SAVIGNEUX 80 Duguet,,SAVIGNEUX,,,FR,,,Mo-Sa 08:30-20:00; Su 08:30-12:15,Lidl,Q151954
852,mcdonalds_fr,MONTBRISON,,MONTBRISON,,,FR,+33 4 77 96 21 61,https://www.mcdonalds.fr/restaurants/mcdonalds-montbrison/852,Mo-We 10:00-23:00; Th-Sa 10:00-24:00; Su 10:00-23:00,McDonald's,Q38076
https://magasin.netto.fr/477-netto-montbrison,netto_les_mousquetaires,Netto Montbrison,,Montbrison,,,FR,+33 4 77 58 58 77,https://magasin.netto.fr/477-netto-montbrison,Mo-Sa 08:30-19:30; Su 09:00-12:30,Netto,Q2720988
187-opticien-montbrison-optical-center,optical_center,Opticien MONTBRISON Optical Center,,Montbrison,,,FR,+33 4 77 24 11 39,https://opticien.optical-center.fr/187-opticien-montbrison-optical-center,Mo-Sa 09:00-19:00,Optical Center,Q3354448
fr66db5282,pandora,A propos de Boutique Bijoux Pandora BIJOUTERIE L&#039;ECRIN DES TENDANCES,,MONTBRISON,,,FR,+33 4 77 96 04 26,https://stores.pandora.net/fr-ara/montbrison/bijoux-pandora-fr66db5282.html,,Pandora,Q2241604
https://stores.petit-bateau.com/#9403776,petit_bateau,Les P'tites Canailles,,Montbrison,,,FR,+33 4 69 34 20 42,https://stores.petit-bateau.com/france/montbrison/37-rue-tupinerie,,Petit Bateau,Q3377090
00000579_001-renault,renault,RENAULT MONTBRISON - GROUPE MEIGNAN,,MONTBRISON,,,FR,+33 4 77 96 30 00,,,Renault,Q6686
00000579_001-dacia,renault,RENAULT MONTBRISON - GROUPE MEIGNAN,,MONTBRISON,,,FR,+33 4 77 96 30 00,,,Dacia,Q27460
spar-supermarche-montbrison,spar_fr,SPAR Supermarché Montbrison,,Montbrison,,,FR,+33 4 77 96 03 34,https://magasins.spar.fr/fr/s/spar-supermarche-montbrison,Mo-Sa 06:30-19:30; Su 07:00-12:00,Spar,Q610492
NF033133,totalenergies,SARL STATION BELLEVUE - M. CLAIRET,,SAVIGNEUX,,,FR,+33 4 77 58 17 75,https://store.totalenergies.fr/en_EN/NF033133,Mo-Su 06:30-22:00,TotalEnergies,Q154037
NF080215,totalenergies,MONTBRISON,,MONTBRISON,,,FR,+33 4 77 96 30 16,https://store.totalenergies.fr/en_EN/NF080215,Mo-Fr 07:30-20:00; Sa 07:30-19:00,TotalEnergies,Q154037
,visa,,,MONTBRISON,,,FR,,,,,
,visa,,,MONTBRISON,,,FR,,,,,
,visa,,,MONTBRISON,,,FR,,,,,
,visa,,,MONTBRISON,,,FR,,,,,
,visa,,,MONTBRISON,,,FR,,,,,
,visa,,,MONTBRISON,,,FR,,,,,
,visa,,,MONTBRISON,,,FR,,,,,
,visa,,,MONTBRISON,,,FR,,,,,
,visa,,,MONTBRISON,,,FR,,,,,
,visa,,,MONTBRISON,,,FR,,,,,
,visa,,,MONTBRISON,,,FR,,,,,
,visa,,,MONTBRISON,,,FR,,,,,
