Ref,Spider,Name,Address,City,State,Zipcode,Country,Phone,Website,Hours,Brand,WikiData
https://locations.arbys.com/ia/missourivalley/123-n-willow-rd.html,arbys_us,"Arby's Fast-Food Drive Through Near You in Missouri Valley, IA",,Missouri Valley,IA,,US,+1 712-642-5722,https://locations.arbys.com/ia/missourivalley/123-n-willow-rd.html,Mo-Su 10:00-22:00,Arby's,Q630866
166709,bluerhino,Food Land Super Market #9678,,Missouri Valley,IA,,US,+1 712-642-3148,,,Blue Rhino,Q65681213
207372,bluerhino,CASEY'S GENERAL STORE #2612,,Missouri Valley,IA,,US,+1 712-642-3176,,,Blue Rhino,Q65681213
05738,chevrolet,WOODHOUSE CHEVROLET,,Missouri Valley,IA,,US,+1 712-642-4131,https://www.woodhousegm.com,Mo-Tu 08:00-19:00; We 08:00-18:00; Th 08:00-19:00; Fr 08:00-18:00; Sa 08:00-17:00,Chevrolet,Q29570
https://www.edwardjones.com/us-en/financial-advisor/kaintrel-unger,edwardjones,Kaintrel L Unger,,Missouri Valley,IA,,US,+1 712-642-2506,https://www.edwardjones.com/us-en/financial-advisor/kaintrel-unger,,Edward Jones,Q5343830
15989,h_r_block,H&R Block,,Missouri Valley,IA,,US,+1 712-642-3082,https://www.hrblock.com/local-tax-offices/iowa/missouri-valley/306-e-erie/15989/,,H&R Block,Q5627799
https://restaurants.subway.com/#14900830,subway,Subway,,Missouri Valley Harrison,IA,,US,+1 712-642-4777,https://restaurants.subway.com/united-states/ia/missouri-valley/124-willow-rd,Mo-Su 09:00-21:00,Subway,Q244457
1373402,usps,MISSOURI VALLEY,,MISSOURI VALLEY,IA,,US,+1 712-642-3436,,"Mo-Fr 08:30-11:00,12:00-16:30; Sa 09:00-10:30",United States Postal Service,Q668687
5155500004,usps_collection_boxes,USPS COLLECTION BOX - BLUE BOX,116 N 5TH ST,MISSOURI VALLEY,IA,,US,,,,United States Postal Service,Q668687
5155500007,usps_collection_boxes,USPS COLLECTION BOX - PO LOBBY,116 N 5TH ST,MISSOURI VALLEY,IA,,US,,,,United States Postal Service,Q668687
5155500009,usps_collection_boxes,USPS COLLECTION BOX - PO LOBBY,116 N 5TH ST,MISSOURI VALLEY,IA,,US,,,,United States Postal Service,Q668687
A00000246423,verizon_us,Victra Missouri Valley,,Missouri Valley,IA,,US,+1 712-642-4621,https://www.verizon.com/stores/details/iowa/missouri-valley/victra-missouri-valley-1865722/,Mo-Fr 11:00-19:00; Sa 10:00-17:00,Verizon,Q919641
,visa,,,MISSOURI VALLEY,IA,,US,,,,,
,visa,,,MO VALLEY,IA,,US,,,,,
,visa,,,MISSOURI VALL,IA,,US,,,,,
,visa,,,MISSOURI VALLEY,IA,,US,,,,,
,visa,,,MISSOURI VALLEY,IA,,US,,,,,
,visa,,,MISSOURI VALLEY,IA,,US,,,,,
,visa,,,MISSOURI VALLEY,IA,,US,,,,,
,visa,,,MISSOURI VALL,IA,,US,,,,,
,visa,,,MO VALLEY,IA,,US,,,,,
,visa,,,MISSOURI VALLEY,IA,,US,,,,,
,visa,,,MISSOURI VALL,IA,,US,,,,,
,visa,,,MISSOURI VALL,IA,,US,,,,,
