Ref,Spider,Name,Address,City,State,Zipcode,Country,Phone,Website,Hours,Brand,WikiData
68662707,moneygram,BANK OF GEORGIA - #169,,GORI,,,GE,+995 32 244 44 44,,Mo-Fr 10:00-17:30; Sa 10:00-14:00; Su 00:00-24:00,MoneyGram,Q1944412
69096482,moneygram,FINCA GEORGIA - GORI,,GORI,,,GE,+995 595 30 93 50,,Mo-Fr 09:00-17:30; Sa 09:30-17:30; Su 10:00-17:00,MoneyGram,Q1944412
69210433,moneygram,JSC TERABANK,,GORI,,,GE,+995 32 255 00 00,,Mo-Fr 09:30-17:30; Sa 10:30-14:00; Su 00:00-24:00,MoneyGram,Q1944412
73832043,moneygram,MBC - GORI - GORI SERVICE CENTER,,GORI,,,GE,+995 32 250 50 02,,Mo-Fr 09:30-18:30; Sa-Su 00:00-24:00,MoneyGram,Q1944412
73919966,moneygram,JSC CREDO BANK - GORI - GORI 3 S.C,,GORI,,,GE,+995 32 242 42 42,,Mo-Fr 10:00-17:30; Sa 10:15-12:15; Su 00:00-24:00,MoneyGram,Q1944412
69545933,moneygram,BASISBANK,,GORI,,,GE,+995 32 292 29 22,,Mo-Fr 10:00-18:00; Sa 10:00-14:30; Su 00:00-24:00,MoneyGram,Q1944412
69675298,moneygram,BASISBANK,,TBILISI,,,GE,+995 32 292 29 22,,Mo-Sa 10:00-22:00; Su 00:00-24:00,MoneyGram,Q1944412
74610811,moneygram,RICO EXPRESS - GORI3,,GORI,,,GE,32292929,,24/7,MoneyGram,Q1944412
70551819,moneygram,TBC BANK - GORI SERVICE-CENTER 2,,GORI,,,GE,9952272727,,Mo-Sa 09:00-20:00; Su 00:00-24:00,MoneyGram,Q1944412
68200363,moneygram,RICO EXPRESS MFO LLC - #16 - GORI,,GORI,,,GE,+995 32 229 29 29,,24/7,MoneyGram,Q1944412
68440107,moneygram,BONACO LTD,,GARDABANI,,,GE,222000777,,24/7,MoneyGram,Q1944412
68440084,moneygram,BONACO LTD,,TBILISI,,,GE,222000777,,24/7,MoneyGram,Q1944412
44057941,moneygram,BANK OF GEORGIA - #48,,GORI,,,GE,+995 370 27 24 35,,Mo-Fr 09:30-19:00; Sa 10:00-14:00; Su 00:00-24:00,MoneyGram,Q1944412
65008814,moneygram,LIBERTY BANK,,GORI,,,GE,99532555500,,Mo-Fr 09:00-18:00; Sa 10:00-14:00; Su 00:00-24:00,MoneyGram,Q1944412
66796471,moneygram,LIBERTY BANK - #3 - GORI,,GORI,,,GE,9952555505,,Mo-Fr 09:30-17:30; Sa 09:30-14:30; Su 00:00-24:00,MoneyGram,Q1944412
71784711,moneygram,CRYSTAL - GORI - GORI,,GORI,,,GE,+995 370 29 19 19,,Mo-Sa 09:30-17:30; Su 00:00-24:00,MoneyGram,Q1944412
71882558,moneygram,CREDO BANK - GORI - GORI 1 S.C,,GORI,,,GE,5322424242,,Mo-Sa 10:00-17:30; Su 00:00-24:00,MoneyGram,Q1944412
71882561,moneygram,CREDO BANK - GORI - GORI 2 S.C,,GORI,,,GE,5322424242,,Mo-Sa 10:00-17:30; Su 00:00-24:00,MoneyGram,Q1944412
https://restaurants.subway.com/#1025039817,subway,Subway,,Gori,,,GE,,https://restaurants.subway.com/georgia/gori/village-tiniskhidi,,Subway,Q244457
,visa,,,GORI,,,GE,,,,,
,visa,,,GORI,,,GE,,,,,
,visa,,,GORI,,,GE,,,,,
,visa,,,GORI,,,GE,,,,,
,visa,,,GORI,,,GE,,,,,
,visa,,,GORI,,,GE,,,,,
,visa,,,GORI,,,GE,,,,,
,visa,,,GORI,,,GE,,,,,
,visa,,,GORI,,,GE,,,,,
,visa,,,GORI,,,GE,,,,,
,visa,,,GORI,,,GE,,,,,
,visa,,,GORI,,,GE,,,,,
da9c48a2399618963b3de073dc3932ce,western_union,RICO EXPRESS,,Tbilisi,,,GE,+995 32 229 29 29,https://location.westernunion.com/ge/state/tbilisi/da9c48a2399618963b3de073dc3932ce,,Western Union,Q861042
