Ref,Spider,Name,Address,City,State,Zipcode,Country,Phone,Website,Hours,Brand,WikiData
128960,bluerhino,QFC #831,,Tacoma,WA,,US,+1 253-925-5040,,,Blue Rhino,Q65681213
https://www.edwardjones.com/us-en/financial-advisor/molly-axworthy,edwardjones,Molly A Axworthy,,Tacoma,WA,,US,+1 253-942-8586,https://www.edwardjones.com/us-en/financial-advisor/molly-axworthy,Mo-Th 08:00-16:30; Fr 08:30-14:00,Edward Jones,Q5343830
68412,little_free_library,Janet Ash #68412 Browns Point WA,,Browns Point,WA,,US,,,,Little Free Library,Q6650101
60045,little_free_library,Diane McSweeney #60045 Tacoma WA,,Tacoma,WA,,US,,,,Little Free Library,Q6650101
44309,little_free_library,Kris Higginson #44309 Tacoma WA,,Tacoma,WA,,US,,,,Little Free Library,Q6650101
100514,little_free_library,BOOKS for All Ages #100514 Tacoma WA,,Tacoma,WA,,US,,,,Little Free Library,Q6650101
118891,little_free_library,Fantastico #118891 Tacoma WA,,Tacoma,WA,,US,,,,Little Free Library,Q6650101
0000890602,phillips_66_conoco_76,TAHOMA EXPRESS 3,,TACOMA,WA,,US,+1 253-874-8889,,,U76,Q1658320
https://restaurants.subway.com/#14902174,subway,Subway,,Tacoma Pierce,WA,,US,+1 253-952-2500,https://restaurants.subway.com/united-states/wa/tacoma/4125-49th-avenue-ne,Mo-Su 07:00-21:00,Subway,Q244457
004064,uhaul,Pixies Kids Company LLC,1000 Town Center NE ste 150,Tacoma,WA,,US,+1 253-292-6560,,Mo-Sa 00:00-18:00,U-Haul,Q7862902
9842200002,usps_collection_boxes,USPS COLLECTION BOX - BLUE BOX,6622 E SIDE DR NE,TACOMA,WA,,US,,,,United States Postal Service,Q668687
,visa,,,TACOMA,WA,,US,,,,,
,visa,,,TACOMA,WA,,US,,,,,
,visa,,,TACOMA,WA,,US,,,,,
,visa,,,TACOMA,WA,,US,,,,,
,visa,,,TACOMA,WA,,US,,,,,
,visa,,,TACOMA,WA,,US,,,,,
,visa,,,TACOMA,WA,,US,,,,,
,visa,,,TACOMA,WA,,US,,,,,
,visa,,,TACOMA,WA,,US,,,,,
,visa,,,TACOMA,WA,,US,,,,,
,visa,,,TACOMA,WA,,US,,,,,
,visa,,,TACOMA,WA,,US,,,,,
