Ref,Spider,Name,Address,City,State,Zipcode,Country,Phone,Website,Hours,Brand,WikiData
209640,bluerhino,Joe's Kwik Mart #456,,Clarence,NY,,US,+1 716-295-8936,,,Blue Rhino,Q65681213
206461,bluerhino,Rite Aid #03585,,Clarence,NY,,US,+1 716-633-0325,,,Blue Rhino,Q65681213
153498,bluerhino,Walgreens #11142,,Clarence,NY,,US,+1 716-634-7901,,,Blue Rhino,Q65681213
51559,bluerhino,Gary Pools & Leisure,,Clarence,NY,,US,+1 716-759-4279,,,Blue Rhino,Q65681213
168235,bluerhino,Crosby's #40093 - Clarence,,Clarence,NY,,US,+1 716-407-3341,,,Blue Rhino,Q65681213
52417,bluerhino,Kwik Fill #135 / A21,,Clarence,NY,,US,+1 716-759-6065,,,Blue Rhino,Q65681213
60859,bluerhino,Do It Best - #1875D,,Clarence,NY,,US,+1 716-759-2177,,,Blue Rhino,Q65681213
30081,burgerking,Burger King,,Clarence,NY,,US,+1 716-302-9504,https://www.bk.com/store-locator/store/restaurant_241323,Mo-Su 07:00-23:00,Burger King,Q177054
93462,citi,ATM Walgreens,,Clarence,NY,,US,,,,Citibank,Q857063
44951,citi,ATM CNB BANK,,Clarence,NY,,US,,,,Citibank,Q857063
33868,citi,ATM A-Plus,,Clarence,NY,,US,,,,Citibank,Q857063
44745,citi,ATM Clarence Travel Plaza,,Clarence,NY,,US,,,,Citibank,Q857063
24526,citi,ATM 7ELEVEN-FCTI,,Clarence,NY,,US,,,,Citibank,Q857063
21443,dollar_general,Dollar General,,Clarence,NY,,US,+1 615-855-4000,https://www.dollargeneral.com/store-directory/ny/clarence/21443,Mo-Su 08:00-22:00,Dollar General,Q145168
362806,dunkin_us,Dunkin',,Clarence,NY,,US,+1 716-669-5546,https://locations.dunkindonuts.com/en/ny/clarence/4002-ransom-road/362806,Mo-Su 05:00-20:00,Dunkin',Q847743
200328650,exxonmobil,JOE'S KWIK MARTS #0456,,CLARENCE,NY,,US,+1 716-295-8936,https://www.exxon.com/en/find-station/exxon-clarence-ny-joeskwikmarts0456-200328650,Mo-Su 05:00-00:00,Exxon,Q109675651
https://locations.mtb.com/#25081909,mt_bank_us,,,,NY,,US,+1 800-724-2440,https://locations.mtb.com/ny/clarence/bank-branches-and-atms-clarence-ny-sa0415.html,24/7,M&T Bank,Q3272257
https://locations.mtb.com/#25081718,mt_bank_us,M&T Bank,,,NY,,US,+1 716-759-8345,https://locations.mtb.com/ny/clarence/bank-branches-and-atms-clarence-ny-63.html,Mo-Th 09:00-16:00; Fr 09:00-17:00,M&T Bank,Q3272257
restaurant_883386,popeyes_us_fr,Popeyes,"WB Mile 412 Clarence, New York 14031 - USA",Clarence,NY,,US,+1 716-669-5546,https://www.popeyes.com/store-locator/store/restaurant_883386,Mo-Su 10:00-23:00,Popeyes,Q1330910
home-depot-1230-14320,ppgpaints,HOME DEPOT 1230,,"Clarence, ",NY,,US,+1 716-633-9200,https://www.ppgpaints.com/store-locator/us/new-york/clarence-paint-stores/home-depot-1230-14320,,PPG Paints,Q83891559
03585,rite_aid_us,Rite Aid #03585 Clarence,,Clarence,NY,,US,+1 716-633-0325,https://locations2.riteaid.com.yext-cdn.com/ny/clarence/9160-main-street.html,Mo-Fr 08:00-22:00; Sa 09:00-21:00; Su 09:00-20:00,Rite Aid,Q3433273
35117,seven_eleven_ca_us,Bcp Str    10655 Main St,,Clarence,NY,,US,+1 716-759-2979,https://www.7-eleven.com/locations/ny/clarence/10655-main-st-35117,,7-Eleven,Q259340
0042304603,sunoco_us,Sunoco,,CLARENCE,NY,,US,+1 716-759-2308,,24/7,Sunoco,Q1423218
1358144,usps,CLARENCE,,CLARENCE,NY,,US,+1 716-759-1243,,Mo-Fr 08:30-17:00; Sa 09:00-13:00,United States Postal Service,Q668687
1403100005,usps_collection_boxes,USPS COLLECTION BOX - BLUE BOX,9845 MAIN ST,CLARENCE,NY,,US,,,,United States Postal Service,Q668687
1403100009,usps_collection_boxes,USPS COLLECTION BOX - PO LOBBY,9845 MAIN ST,CLARENCE,NY,,US,,,,United States Postal Service,Q668687
,visa,,,CLARENCE,NY,,US,,,,,
,visa,,,CLARENCE,NY,,US,,,,,
,visa,,,CLARENCE,NY,,US,,,,,
,visa,,,CLARENCE,NY,,US,,,,,
,visa,,,CLARENCE,NY,,US,,,,,
,visa,,,CLARENCE,NY,,US,,,,,
,visa,,,CLARENCE,NY,,US,,,,,
,visa,,,CLARENCE,NY,,US,,,,,
,visa,,,CLARENCE,NY,,US,,,,,
,visa,,,CLARENCE,NY,,US,,,,,
,visa,,,CLARENCE,NY,,US,,,,,
,visa,,,CLARENCE,NY,,US,,,,,
,visa,,,CLARENCE,NY,,US,,,,,
,visa,,,CLARENCE,NY,,US,,,,,
,visa,,,CLARENCE,NY,,US,,,,,
,visa,,,CLARENCE,NY,,US,,,,,
,visa,,,CLARENCE,NY,,US,,,,,
,visa,,,CLARENCE,NY,,US,,,,,
,visa,,,CLARENCE,NY,,US,,,,,
,visa,,,CLARENCE,NY,,US,,,,,
,visa,,,CLARENCE,NY,,US,,,,,
,visa,,,CLARENCE,NY,,US,,,,,
,visa,,,CLARENCE,NY,,US,,,,,
,visa,,,CLARENCE,NY,,US,,,,,
,visa,,,CLARENCE,NY,,US,,,,,
,visa,,,CLARENCE,NY,,US,,,,,
,visa,,,CLARENCE,NY,,US,,,,,
,visa,,,CLARENCE,NY,,US,,,,,
,visa,,,CLARENCE,NY,,US,,,,,
,visa,,,CLARENCE,NY,,US,,,,,
,visa,,,CLARENCE,NY,,US,,,,,
https://www.walgreens.com/locator/walgreens-9217+main+st-clarence-ny-14031/id=11142,walgreens,Walgreens,,Clarence,NY,,US,+1 716-634-7901,https://www.walgreens.com/locator/walgreens-9217+main+st-clarence-ny-14031/id=11142,Mo-Su 07:00-22:00,Walgreens,Q1591889
