Ref,Spider,Name,Address,City,State,Zipcode,Country,Phone,Website,Hours,Brand,WikiData
20551,citi,SUPER NTE C DEL SERI,,Hermosillo,SONORA,,MX,+52 800 110 3990,,,Citibank,Q857063
,visa,,,HERMOSILLO,SONORA,,MX,,,,,
1c69e8b4f4406973ba65901a23a47de8,western_union,FARM GUAD AZORES,,Hermosillo,SONORA,,MX,+52 800 833 4700,https://location.westernunion.com/mx/sonora/hermosillo/1c69e8b4f4406973ba65901a23a47de8,Mo-Su 09:00-22:00,Western Union,Q861042
db9614ba972340ace40e5ed0f9c8a0c5,western_union,OXXO PASEO REAL HMO,,Hermosillo,SONORA,,MX,+52 81 8389 2121,https://location.westernunion.com/mx/sonora/hermosillo/db9614ba972340ace40e5ed0f9c8a0c5,Mo-Su 08:00-22:00,Western Union,Q861042
71d164c21f85e7935c02c2177c94f5da,western_union,OXXO PASEO REAL HMO,,Hermosillo,SONORA,,MX,+52 81 8389 2121,https://location.westernunion.com/mx/sonora/hermosillo/71d164c21f85e7935c02c2177c94f5da,Mo-Su 08:00-22:00,Western Union,Q861042
34b7fd1ac076b61fc355e419ec14493c,western_union,OXXO PASEO REAL HMO,,Hermosillo,SONORA,,MX,+52 81 8389 2121,https://location.westernunion.com/mx/sonora/hermosillo/34b7fd1ac076b61fc355e419ec14493c,Mo-Su 08:00-22:00,Western Union,Q861042
210fed7f7d6d9357766c367ca2342ed9,western_union,OXXO MANZANARES HMO,,Hermosillo,SONORA,,MX,+52 81 8389 2121,https://location.westernunion.com/mx/sonora/hermosillo/210fed7f7d6d9357766c367ca2342ed9,Mo-Su 08:00-22:00,Western Union,Q861042
8dbb53be4e2a350fd598a15ddbb51c3b,western_union,OXXO MANZANARES HMO,,Hermosillo,SONORA,,MX,+52 81 8389 2121,https://location.westernunion.com/mx/sonora/hermosillo/8dbb53be4e2a350fd598a15ddbb51c3b,Mo-Su 08:00-22:00,Western Union,Q861042
e7abbd22ae03e2cffdc7e42a8bc5df73,western_union,OXXO MANZANARES HMO,,Hermosillo,SONORA,,MX,+52 81 8389 2121,https://location.westernunion.com/mx/sonora/hermosillo/e7abbd22ae03e2cffdc7e42a8bc5df73,Mo-Su 08:00-22:00,Western Union,Q861042
1b19291370208015ebf1f870f429efb8,western_union,OXXO EL SERI HMO,,Hermosillo,SONORA,,MX,+52 81 8389 2121,https://location.westernunion.com/mx/sonora/hermosillo/1b19291370208015ebf1f870f429efb8,Mo-Su 08:00-22:00,Western Union,Q861042
99e9057199669ca1a8ad186947cb8cbe,western_union,OXXO EL SERI HMO,,Hermosillo,SONORA,,MX,+52 81 8389 2121,https://location.westernunion.com/mx/sonora/hermosillo/99e9057199669ca1a8ad186947cb8cbe,Mo-Su 08:00-22:00,Western Union,Q861042
b79d122fa140e3815ede15ba9a73f1d5,western_union,OXXO EL SERI HMO,,Hermosillo,SONORA,,MX,+52 81 8389 2121,https://location.westernunion.com/mx/sonora/hermosillo/b79d122fa140e3815ede15ba9a73f1d5,Mo-Su 08:00-22:00,Western Union,Q861042
027207a1eea5b18ff65a1a7d608ed422,western_union,OXXO SAN ANGEL HMO,,Hermosillo,SONORA,,MX,+52 81 8389 2121,https://location.westernunion.com/mx/sonora/hermosillo/027207a1eea5b18ff65a1a7d608ed422,Mo-Su 08:00-22:00,Western Union,Q861042
c4b5895a4131a781c8d151cd26caebb9,western_union,OXXO SAN ANGEL HMO,,Hermosillo,SONORA,,MX,+52 81 8389 2121,https://location.westernunion.com/mx/sonora/hermosillo/c4b5895a4131a781c8d151cd26caebb9,Mo-Su 08:00-22:00,Western Union,Q861042
9bca09cd492b07a19657a3da2237f542,western_union,OXXO SAN ANGEL HMO,,Hermosillo,SONORA,,MX,+52 81 8389 2121,https://location.westernunion.com/mx/sonora/hermosillo/9bca09cd492b07a19657a3da2237f542,Mo-Su 08:00-22:00,Western Union,Q861042
977a101ad2f3b262253a3cb0845ad827,western_union,OXXO REAL DEL CARMEN HMO,,Hermosillo,SONORA,,MX,+52 81 8389 2121,https://location.westernunion.com/mx/sonora/hermosillo/977a101ad2f3b262253a3cb0845ad827,Mo-Su 08:00-22:00,Western Union,Q861042
d5b59499accedaa804f636cd105490a9,western_union,OXXO REAL DEL CARMEN HMO,,Hermosillo,SONORA,,MX,+52 81 8389 2121,https://location.westernunion.com/mx/sonora/hermosillo/d5b59499accedaa804f636cd105490a9,Mo-Su 08:00-22:00,Western Union,Q861042
2718d469e2c9554961a9445b70ae1924,western_union,OXXO REAL DEL CARMEN HMO,,Hermosillo,SONORA,,MX,+52 81 8389 2121,https://location.westernunion.com/mx/sonora/hermosillo/2718d469e2c9554961a9445b70ae1924,Mo-Su 08:00-22:00,Western Union,Q861042
dd65608127b637200c89338e873714b0,western_union,OXXO ALEGRANZA HMO,,Hermosillo,SONORA,,MX,+52 81 8389 2121,https://location.westernunion.com/mx/sonora/hermosillo/dd65608127b637200c89338e873714b0,Mo-Su 08:00-22:00,Western Union,Q861042
69fb4600ade87108b9d64ad6f2f7b10c,western_union,OXXO VALENTINA HMO,,Hermosillo,SONORA,,MX,+52 81 8389 2121,https://location.westernunion.com/mx/sonora/hermosillo/69fb4600ade87108b9d64ad6f2f7b10c,Mo-Su 08:00-22:00,Western Union,Q861042
56da9a810911e71ae666a0cbe01220be,western_union,OXXO VALENTINA HMO,,Hermosillo,SONORA,,MX,+52 81 8389 2121,https://location.westernunion.com/mx/sonora/hermosillo/56da9a810911e71ae666a0cbe01220be,Mo-Su 08:00-22:00,Western Union,Q861042
872be1fe58bf38be088fee534f0dfdf1,western_union,OXXO VALENTINA HMO,,Hermosillo,SONORA,,MX,+52 81 8389 2121,https://location.westernunion.com/mx/sonora/hermosillo/872be1fe58bf38be088fee534f0dfdf1,Mo-Su 08:00-22:00,Western Union,Q861042
7ea25d24ad018b67b4c2dd99b623bf42,western_union,AURRERA EL SERI 3613,,Hermosillo,SONORA,,MX,+52 800 833 4700,https://location.westernunion.com/mx/sonora/hermosillo/7ea25d24ad018b67b4c2dd99b623bf42,Mo-Su 07:00-23:00,Western Union,Q861042
dbb0640e140afbef98cf151c7c13af3d,western_union,AURRERA EL SERI 3613,,Hermosillo,SONORA,,MX,+52 800 833 4700,https://location.westernunion.com/mx/sonora/hermosillo/dbb0640e140afbef98cf151c7c13af3d,Mo-Su 07:00-23:00,Western Union,Q861042
cee57ae92235ae3856f51998860135ea,western_union,AURRERA EL SERI 3613,,Hermosillo,SONORA,,MX,+52 800 833 4700,https://location.westernunion.com/mx/sonora/hermosillo/cee57ae92235ae3856f51998860135ea,Mo-Su 07:00-23:00,Western Union,Q861042
b70ad9994d5c07d09c404ce082fc1465,western_union,OXXO DEL PRADO HMO,,Hermosillo,SONORA,,MX,+52 81 8389 2121,https://location.westernunion.com/mx/sonora/hermosillo/b70ad9994d5c07d09c404ce082fc1465,Mo-Su 08:00-22:00,Western Union,Q861042
d232d684785fecab12c0643d267caf3d,western_union,OXXO DEL PRADO HMO,,Hermosillo,SONORA,,MX,+52 81 8389 2121,https://location.westernunion.com/mx/sonora/hermosillo/d232d684785fecab12c0643d267caf3d,Mo-Su 08:00-22:00,Western Union,Q861042
139e77a9b444e0625db94e23a0aa1971,western_union,OXXO DEL PRADO HMO,,Hermosillo,SONORA,,MX,+52 81 8389 2121,https://location.westernunion.com/mx/sonora/hermosillo/139e77a9b444e0625db94e23a0aa1971,Mo-Su 08:00-22:00,Western Union,Q861042
83455fb7a2fb62e4fcf8230e3d79bda1,western_union,FARM GUAD AZORES,,Hermosillo,SONORA,,MX,+52 800 833 4700,https://location.westernunion.com/mx/sonora/hermosillo/83455fb7a2fb62e4fcf8230e3d79bda1,Mo-Su 09:00-22:00,Western Union,Q861042
780cbb33d8e48b1ae1c31c2ee98ea62c,western_union,FARM GUAD AZORES,,Hermosillo,SONORA,,MX,+52 800 833 4700,https://location.westernunion.com/mx/sonora/hermosillo/780cbb33d8e48b1ae1c31c2ee98ea62c,Mo-Su 09:00-22:00,Western Union,Q861042
c130a4bbfdaffc2fa6c403a6bd848918,western_union,OXXO ALEGRANZA HMO,,Hermosillo,SONORA,,MX,+52 81 8389 2121,https://location.westernunion.com/mx/sonora/hermosillo/c130a4bbfdaffc2fa6c403a6bd848918,Mo-Su 08:00-22:00,Western Union,Q861042
35b880261b6ef0c9445856ec28e4b2ff,western_union,OXXO LOS ANGELES HMO,,Hermosillo,SONORA,,MX,+52 81 8389 2121,https://location.westernunion.com/mx/sonora/hermosillo/35b880261b6ef0c9445856ec28e4b2ff,Mo-Su 08:00-22:00,Western Union,Q861042
5d9b5952b4c78280cc7f20185e0ca837,western_union,OXXO LOS ANGELES HMO,,Hermosillo,SONORA,,MX,+52 81 8389 2121,https://location.westernunion.com/mx/sonora/hermosillo/5d9b5952b4c78280cc7f20185e0ca837,Mo-Su 08:00-22:00,Western Union,Q861042
57f473a7887776ad1730edf28b6b203b,western_union,OXXO LOS ANGELES HMO,,Hermosillo,SONORA,,MX,+52 81 8389 2121,https://location.westernunion.com/mx/sonora/hermosillo/57f473a7887776ad1730edf28b6b203b,Mo-Su 08:00-22:00,Western Union,Q861042
