Ref,Spider,Name,Address,City,State,Zipcode,Country,Phone,Website,Hours,Brand,WikiData
182987,bluerhino,Love's #750,,Oakwood,IL,,US,+1 217-354-3854,,,Blue Rhino,Q65681213
202839,bluerhino,CASEY'S GENERAL STORE #1698,,OAKWOOD,IL,,US,+1 217-354-3940,,,Blue Rhino,Q65681213
191571,bluerhino,Speedway #6509,,Oakwood,IL,,US,+1 217-354-3927,,,Blue Rhino,Q65681213
132950,bluerhino,"Orgill - All Source LLC, #216309",,Oakwood,IL,,US,+1 217-446-4556,,,Blue Rhino,Q65681213
78457,citi,ATM Speedway,,Oakwood,IL,,US,,,,Citibank,Q857063
359198,dunkin_us,Dunkin',,Oakwood,IL,,US,+1 217-354-4270,https://locations.dunkindonuts.com/en/il/oakwood/503-n-oakwood-st/359198,24/7,Dunkin',Q847743
https://local.fedex.com/#25230352,fedex,,,Oakwood,IL,,US,+1 800-463-3339,https://local.fedex.com/en-us/il/oakwood/cmiac,,FedEx,Q459477
1506280,hardees_us,Hardee's,,Oakwood,IL,,US,+1 217-354-3873,https://locations.hardees.com/il/oakwood/17919-newton-road,,Hardee's,Q1585088
933,loves,Site 750,,Oakwood,IL,,US,+1 217-354-3854,,,Love's,Q1872496
0000882872,phillips_66_conoco_76,VILLAGE PANTRY 5210,,OAKWOOD,IL,,US,+1 217-354-4614,,,Phillips 66,Q1656230
171,pilot_flyingj,Pilot Travel Center,,Oakwood,IL,,US,+1 217-354-4098,https://locations.pilotflyingj.com/us/il/oakwood/503-n.-oakwood-street,,Pilot,Q7194412
https://restaurants.subway.com/#14910397,subway,Subway Colonial Pantry C-Store,,Oakwood Vermilion,IL,,US,+1 217-354-4644,https://restaurants.subway.com/united-states/il/oakwood/502-oakwood-dr,Mo-Su 08:00-21:00,Subway,Q244457
1375821,usps,OAKWOOD,,OAKWOOD,IL,,US,+1 217-354-2100,,"Mo-Fr 09:00-11:00,13:00-16:00; Sa 08:30-10:30",United States Postal Service,Q668687
6185800003,usps_collection_boxes,USPS COLLECTION BOX - PO LOBBY,110 S SCOTT ST,OAKWOOD,IL,,US,,,,United States Postal Service,Q668687
6185800001,usps_collection_boxes,USPS COLLECTION BOX - BLUE BOX,110 S SCOTT ST,OAKWOOD,IL,,US,,,,United States Postal Service,Q668687
6185800004,usps_collection_boxes,USPS COLLECTION BOX - PO LOBBY,110 S SCOTT ST,OAKWOOD,IL,,US,,,,United States Postal Service,Q668687
,visa,,,OAKWOOD,IL,,US,,,,,
,visa,,,OAKWOOD,IL,,US,,,,,
,visa,,,OAKWOOD,IL,,US,,,,,
,visa,,,OAKWOOD,IL,,US,,,,,
,visa,,,OAKWOOD,IL,,US,,,,,
,visa,,,OAKWOOD,IL,,US,,,,,
,visa,,,OAKWOOD,IL,,US,,,,,
