Ref,Spider,Name,Address,City,State,Zipcode,Country,Phone,Website,Hours,Brand,WikiData
https://locators.bankofamerica.com/az/tucson/atm-tucson-9174.html,bankofamerica,Bank of America Walk-Up ATM | Tucson Downtown,,Tucson,AZ,,US,+1 844-401-8500,https://locators.bankofamerica.com/az/tucson/atm-tucson-9174.html,,Bank of America,Q487907
https://locators.bankofamerica.com/az/tucson/atm-tucson-109439.html,bankofamerica,Bank of America Walk-Up ATM | Eastpoint Marketplace,,Tucson,AZ,,US,+1 844-401-8500,https://locators.bankofamerica.com/az/tucson/atm-tucson-109439.html,,Bank of America,Q487907
226716,bluerhino,U-Haul #828074,,Tucson,AZ,,US,+1 480-262-1320,,,Blue Rhino,Q65681213
211955,bluerhino,Chevron LPT #1305,,Tucson,AZ,,US,+1 520-815-0341,,,Blue Rhino,Q65681213
381301,chevron,Chevron Station #381301,1140 S 4TH AVE,TUCSON,AZ,,US,+1 520-624-0367,,,Chevron,Q319642
43097,citi,ATM Circle K,,Tucson,AZ,,US,,,,Citibank,Q857063
66868,citi,ATM OneAZ Credit Union,,Tucson,AZ,,US,,,,Citibank,Q857063
,credit_union_us,First CU,,Tucson,AZ,,US,+1 480-756-5500,,Mo-Tu 09:00-05:00; We 10:00-05:00; Th 09:00-05:00; Fr 09:00-06:00,,
tugo:43,gbfs,Presidio Park,,,AZ,,US,,https://tugobikeshare.com/,,Tugo,
tuscaht-home2-suites-tucson-downtown,hilton,Home2 Suites by Hilton Tucson Downtown,,,AZ,,US,+1 520-274-7400,https://www.hilton.com/ar/hotels/tuscaht-home2-suites-tucson-downtown/,,Home2 Suites by Hilton,Q5887912
tuscbhx-hampton-tucson-downtown,hilton,Hampton Inn Tucson Downtown,,,AZ,,US,+1 520-274-7400,https://www.hilton.com/ar/hotels/tuscbhx-hampton-tucson-downtown/,,Hampton by Hilton,Q5646230
6th-broadway,indigo,6th & Broadway,,Tucson,AZ,,US,+1 714-925-2326,,,Indigo,Q3559970
one-south-church,indigo,One South Church,,Tucson,AZ,,US,+1 480-793-9655,,,Indigo,Q3559970
35-e-toole-ave,indigo,35 E Toole Ave,,Tucson,AZ,,US,+1 714-925-2326,,,Indigo,Q3559970
https://locations.jimmyjohns.com/az/tucson/sandwiches-1180.html,jimmy_johns,Jimmy John's,,Tucson,AZ,,US,+1 520-884-0600,https://locations.jimmyjohns.com/az/tucson/sandwiches-1180.html,,Jimmy John's,Q1689380
150455,little_free_library,Little Free Library #150455 #150455 Tucson AZ,,Tucson,AZ,,US,,,,Little Free Library,Q6650101
20700,little_free_library,Cheryon Unruh #20700 Tucson AZ,,Tucson,AZ,,US,,,,Little Free Library,Q6650101
159096,little_free_library,Little Free Library #159096 Tucson AZ,,Tucson,AZ,,US,,,,Little Free Library,Q6650101
113353,little_free_library,Emily Nottingham #113353 Tucson AZ,,Tucson,AZ,,US,,,,Little Free Library,Q6650101
TUSAD,marriott,AC Hotel Tucson Downtown,,Tucson,AZ,,US,+1 520-385-7111,https://www.marriott.com/TUSAD,,AC Hotels,Q5653536
https://locations.oreillyauto.com/az/tucson/check-engine-light-testing-2955.html,oreilly,Your Tucson O'Reilly Auto Parts Store,,Tucson,AZ,,US,+1 520-792-6337,https://locations.oreillyauto.com/az/tucson/check-engine-light-testing-2955.html,Mo-Sa 07:00-21:00; Su 08:00-21:00,O'Reilly Auto Parts,Q7071951
https://locations.oreillyauto.com/az/tucson/battery-testing-2955.html,oreilly,Your Tucson O'Reilly Auto Parts Store,,Tucson,AZ,,US,+1 520-792-6337,https://locations.oreillyauto.com/az/tucson/battery-testing-2955.html,Mo-Sa 07:00-21:00; Su 08:00-21:00,O'Reilly Auto Parts,Q7071951
https://locations.oreillyauto.com/az/tucson/autopartes-2955.html,oreilly,Tu tienda O'Reilly Auto Parts en Tucson,,Tucson,AZ,,US,+1 520-792-6337,https://locations.oreillyauto.com/az/tucson/autopartes-2955.html,Mo-Sa 07:00-21:00; Su 08:00-21:00,O'Reilly Auto Parts,Q7071951
https://locations.oreillyauto.com/az/tucson/wiper-installation-2955.html,oreilly,Your Tucson O'Reilly Auto Parts Store,,Tucson,AZ,,US,+1 520-792-6337,https://locations.oreillyauto.com/az/tucson/wiper-installation-2955.html,Mo-Sa 07:00-21:00; Su 08:00-21:00,O'Reilly Auto Parts,Q7071951
https://restaurants.subway.com/#14896086,subway,Subway,,Tucson Pima,AZ,,US,+1 520-207-6480,https://restaurants.subway.com/united-states/az/tucson/29-west-congress-st,Mo-Fr 08:00-17:00,Subway,Q244457
81671,supercuts,Supercuts,254 E Congress St,Tucson,AZ,,US,+1 520-623-3828,https://www.supercuts.com/checkin/81671,We-Su 10:00-18:00,Supercuts,Q7643239
828074,uhaul,U-Haul Moving & Storage of Downtown Tucson,450 N Freeway,Tucson,AZ,,US,+1 520-777-9159,,Mo-Th 00:00-19:00; Fr 00:00-20:00; Sa 00:00-19:00; Su 00:00-17:00,U-Haul,Q7862902
1385113,usps,DOWNTOWN TUCSON,,TUCSON,AZ,,US,+1 520-903-1958,,Mo-Fr 09:00-17:00,United States Postal Service,Q668687
8570100046,usps_collection_boxes,USPS COLLECTION BOX - BLUE BOX,400 W CONGRESS ST,TUCSON,AZ,,US,,,,United States Postal Service,Q668687
8570100038,usps_collection_boxes,USPS COLLECTION BOX - BLUE BOX,405 W CONGRESS ST,TUCSON,AZ,,US,,,,United States Postal Service,Q668687
8570100018,usps_collection_boxes,USPS COLLECTION BOX - BLUE BOX,461 N GRANADA AVE,TUCSON,AZ,,US,,,,United States Postal Service,Q668687
8570100040,usps_collection_boxes,USPS COLLECTION BOX - BLUE BOX,130 W CUSHING ST,TUCSON,AZ,,US,,,,United States Postal Service,Q668687
8570100045,usps_collection_boxes,USPS COLLECTION BOX - BLUE BOX,255 W ALAMEDA ST,TUCSON,AZ,,US,,,,United States Postal Service,Q668687
8570100065,usps_collection_boxes,USPS COLLECTION BOX - BLUE BOX,301 W FRANKLIN ST,TUCSON,AZ,,US,,,,United States Postal Service,Q668687
8570100072,usps_collection_boxes,USPS COLLECTION BOX - BLUE BOX,177 N CHURCH AVE,TUCSON,AZ,,US,,,,United States Postal Service,Q668687
8570100024,usps_collection_boxes,USPS COLLECTION BOX - BLUE BOX,239 N MEYER AVE,TUCSON,AZ,,US,,,,United States Postal Service,Q668687
8570100051,usps_collection_boxes,USPS COLLECTION BOX - BLUE BOX,1 S CHURCH AVE,TUCSON,AZ,,US,,,,United States Postal Service,Q668687
8570100041,usps_collection_boxes,USPS COLLECTION BOX - BLUE BOX,1 S CHURCH AVE,TUCSON,AZ,,US,,,,United States Postal Service,Q668687
8570100062,usps_collection_boxes,USPS COLLECTION BOX - BLUE BOX,102 S STONE AVE,TUCSON,AZ,,US,,,,United States Postal Service,Q668687
8570100050,usps_collection_boxes,USPS COLLECTION BOX - BLUE BOX,177 N CHURCH AVE,TUCSON,AZ,,US,,,,United States Postal Service,Q668687
8570100028,usps_collection_boxes,USPS COLLECTION BOX - BLUE BOX,2 E CONGRESS ST,TUCSON,AZ,,US,,,,United States Postal Service,Q668687
8570100017,usps_collection_boxes,USPS COLLECTION BOX - BLUE BOX,32 N STONE AVE,TUCSON,AZ,,US,,,,United States Postal Service,Q668687
8570100058,usps_collection_boxes,USPS COLLECTION BOX - BLUE BOX,100 N STONE AVE,TUCSON,AZ,,US,,,,United States Postal Service,Q668687
8570100005,usps_collection_boxes,USPS COLLECTION BOX - BLUE BOX,33 N STONE AVE,TUCSON,AZ,,US,,,,United States Postal Service,Q668687
8570100014,usps_collection_boxes,USPS COLLECTION BOX - BLUE BOX,70 W FRANKLIN ST,TUCSON,AZ,,US,,,,United States Postal Service,Q668687
8570100002,usps_collection_boxes,USPS COLLECTION BOX - BLUE BOX,141 S 6TH AVE,TUCSON,AZ,,US,,,,United States Postal Service,Q668687
8570100007,usps_collection_boxes,USPS COLLECTION BOX - EXPRESS,141 S 6TH AVE,TUCSON,AZ,,US,,,,United States Postal Service,Q668687
8570100020,usps_collection_boxes,USPS COLLECTION BOX - BLUE BOX,141 S 6TH AVE,TUCSON,AZ,,US,,,,United States Postal Service,Q668687
8570100042,usps_collection_boxes,USPS COLLECTION BOX - BLUE BOX,141 S 6TH AVE,TUCSON,AZ,,US,,,,United States Postal Service,Q668687
8570100059,usps_collection_boxes,USPS COLLECTION BOX - PO LOBBY,141 S 6TH AVE,TUCSON,AZ,,US,,,,United States Postal Service,Q668687
8570100071,usps_collection_boxes,USPS COLLECTION BOX - PO LOBBY,141 S 6TH AVE,TUCSON,AZ,,US,,,,United States Postal Service,Q668687
,visa,,,TUCSON,AZ,,US,,,,,
,visa,,,TUCSON,AZ,,US,,,,,
,visa,,,TUCSON,AZ,,US,,,,,
,visa,,,TUCSON,AZ,,US,,,,,
,visa,,,TUCSON,AZ,,US,,,,,
,visa,,,TUCSON,AZ,,US,,,,,
,visa,,,TUSCON,AZ,,US,,,,,
,visa,,,TUCSON,AZ,,US,,,,,
,visa,,,TUCSON,AZ,,US,,,,,
,visa,,,TUCSON,AZ,,US,,,,,
,visa,,,TUCSON,AZ,,US,,,,,
,visa,,,TUSCON,AZ,,US,,,,,
,visa,,,TUCSON,AZ,,US,,,,,
,visa,,,TUCSON,AZ,,US,,,,,
,visa,,,TUCSON,AZ,,US,,,,,
,visa,,,TUCSON,AZ,,US,,,,,
,visa,,,TUCSON,AZ,,US,,,,,
,visa,,,TUCSON,AZ,,US,,,,,
,visa,,,TUCSON,AZ,,US,,,,,
,visa,,,TUCSON,AZ,,US,,,,,
,visa,,,TUCSON,AZ,,US,,,,,
,visa,,,TUCSON,AZ,,US,,,,,
,visa,,,TUCSON,AZ,,US,,,,,
,visa,,,TUCSON,AZ,,US,,,,,
,visa,,,TUCSON,AZ,,US,,,,,
,visa,,,TUCSON,AZ,,US,,,,,
,visa,,,TUCSON,AZ,,US,,,,,
,visa,,,TUCSON,AZ,,US,,,,,
,visa,,,TUCSON,AZ,,US,,,,,
,visa,,,TUCSON,AZ,,US,,,,,
,visa,,,TUCSON,AZ,,US,,,,,
,visa,,,TUCSON,AZ,,US,,,,,
,visa,,,TUCSON,AZ,,US,,,,,
150__N__STONE__AVE_TUCSON_AZ_85701,wellsfargo,,150 N STONE AVE,TUCSON,AZ,,US,+1 800-869-3557,https://www.wellsfargo.com/locator/bank/150__N__STONE__AVE_TUCSON_AZ_85701/,,Wells Fargo,Q744149
