Ref,Spider,Name,Address,City,State,Zipcode,Country,Phone,Website,Hours,Brand,WikiData
https://stores.aldi.us/#25785438,aldi_sud_us,ALDI  1849 Marketplace Dr. SE,,Caledonia,MI,,US,+1 855-955-2534,https://stores.aldi.us/mi/caledonia/1849-marketplace-dr-se,Mo-Su 09:00-20:00,ALDI,Q41171672
https://restaurants.applebees.com/en-us/mi/caledonia/1685-market-place-drive-se-84006,applebees,Connect with this Applebee's,,Caledonia,MI,,US,+1 616-698-9342,https://restaurants.applebees.com/en-us/mi/caledonia/1685-market-place-drive-se-84006,Mo-Sa 11:00-24:00; Su 11:00-23:00,Applebees,Q621532
6013,autozone_us,AutoZone Auto Parts Caledonia,,Caledonia,MI,,US,+1 616-528-7004,https://www.autozone.com/locations/mi/caledonia/6440-cherry-meadow-dr-se.html,Mo-Sa 08:00-21:00; Su 09:00-20:00,AutoZone,Q4826087
357,biggby_coffee_us,Biggby Coffee,6426 100th St SE Caledonia MI 49316,Caledonia,MI,,US,+1 616-891-9508,,Mo-Sa 05:30-20:00; Su 07:00-20:00,Biggby Coffee,Q4906876
240076,bluerhino,Circle K #4706316,,Caledonia,MI,,US,+1 616-656-0370,,,Blue Rhino,Q65681213
198132,bluerhino,"GL One Stop, LLC",,Caledonia,MI,,US,+1 616-891-0101,,,Blue Rhino,Q65681213
58468,bluerhino,Speedway #3591,,Caledonia,MI,,US,+1 616-891-9880,,,Blue Rhino,Q65681213
206016,bluerhino,Rite Aid #01532,,Caledonia,MI,,US,+1 616-891-1256,,,Blue Rhino,Q65681213
95336,bluerhino,D&W #0856,,Caledonia,MI,,US,+1 616-891-0694,,,Blue Rhino,Q65681213
90427,bluerhino,D&W #1577,,Caledonia,MI,,US,+1 616-891-9237,,,Blue Rhino,Q65681213
199903,bluerhino,Caledonia Village Ace #15625,,Caledonia,MI,,US,+1 616-891-9255,,,Blue Rhino,Q65681213
59738022776334931600100000421811,bp,BP,,Caledonia,MI,,US,+1 616-891-9080,,Mo-Fr 06:00-23:00; Sa 07:00-24:00; Su 07:00-22:00,BP,Q152057
2040994,chase_us,Caledonia - New branch,,Caledonia,MI,,US,+1 616-891-2744,https://locator.chase.com/mi/caledonia/9235-cherry-valley-ave-se,Mo-Fr 09:00-17:00,Chase,Q524629
35945,chevrolet,FOX CHEVROLET,,Caledonia,MI,,US,+1 844-204-3135,https://www.foxchevrolet.com,Mo 09:00-19:00; Tu-Fr 09:00-18:00; Sa 09:00-14:00,Chevrolet,Q29570
81860,citi,ATM Target,,Caledonia,MI,,US,,,,Citibank,Q857063
43721,citi,ATM Circle K,,Caledonia,MI,,US,,,,Citibank,Q857063
79512,citi,ATM SPEEDWAY #3591,,Caledonia,MI,,US,,,,Citibank,Q857063
79321,citi,ATM Speedway,,Caledonia,MI,,US,,,,Citibank,Q857063
64681,citi,ATM MARATHON CHERRY VALLEY,,Caledonia,MI,,US,,,,Citibank,Q857063
,credit_union_us,PFCU,,Caledonia,MI,,US,+1 616-891-2027,,Mo-Tu 09:00-05:00; Th 09:00-05:00; Fr 09:00-05:30; Sa 09:00-12:00,,
841,culvers_us,"Culver's of Caledonia, MI - Broadmoor Ave",,Caledonia,MI,,US,+1 616-825-2873,http://www.culvers.com/restaurants/caledonia-mi-broadmoor,Mo-Fr 10:30-22:00; Su 10:30-22:00,Culver's,Q1143589
17108,cvs_us,CVS Pharmacy,,Caledonia,MI,,US,+1 616-698-1186,https://www.cvs.com/store-locator/caledonia-mi-pharmacies/1925-marketplace-dr-se-caledonia-mi-49316/storeid=17108,"Mo-Fr 09:00-13:30,14:00-19:00; Sa 09:00-13:30,14:00-17:00; Su 11:00-13:30,14:00-17:00",CVS Pharmacy,Q2078880
https://locations.53.com/#3033743,fifththirdbank,Fifth Third Bank Caledonia,,Caledonia,MI,,US,+1 616-891-7060,https://locations.53.com/mi/caledonia/9325-cherry-valley.html,Mo-Th 09:00-17:00; Fr 09:00-17:30; Sa 09:00-12:00,Fifth Third Bank,Q1411810
3011,gamestop_us,Gaines Marketplace,,Caledonia,MI,,US,+1 616-554-9139,https://www.gamestop.com/search/?store=3011,Mo-Th 12:00-20:00; Fr-Sa 10:00-21:00; Su 12:00-19:00,GameStop,Q202210
https://salons.greatclips.com/us/mi/caledonia/9323-cherry-valley-ave,greatclips,Great Clips,,Caledonia,MI,,US,+1 616-275-1100,https://salons.greatclips.com/us/mi/caledonia/9323-cherry-valley-ave,Mo-Fr 10:00-19:00; Sa 09:00-18:00; Su 10:00-17:00,Great Clips,Q5598967
22530,h_r_block,H&R Block,,Caledonia,MI,,US,+1 616-891-7908,https://www.hrblock.com/local-tax-offices/michigan/caledonia/9175-cherry-valley/22530/,,H&R Block,Q5627799
https://locations.jimmyjohns.com/mi/caledonia/sandwiches-617.html,jimmy_johns,Jimmy John's,,Caledonia,MI,,US,+1 616-656-5570,https://locations.jimmyjohns.com/mi/caledonia/sandwiches-617.html,,Jimmy John's,Q1689380
086073,kindercare,Gaines Township KinderCare,,Caledonia,MI,,US,,https://www.kindercare.com/our-centers/caledonia/mi/086073,,KinderCare Learning Centers,Q6410551
156182,marathon_petroleum_us,BCS,,CALEDONIA,MI,,US,+1 616-608-0960,,,Marathon,Q458363
158504,marathon_petroleum_us,Dutton Bp LLC DBA Dutton Marathon,,DUTTON,MI,,US,+1 616-698-9650,,,Marathon,Q458363
159537,marathon_petroleum_us,GREEN LAKE ONE STOP,,Caledonia,MI,,US,+1 616-891-0101,,,Marathon,Q458363
155998,marathon_petroleum_us,CLV CORPORATION,,CALEDONIA,MI,,US,+1 616-891-1912,,,Marathon,Q458363
https://locations.oreillyauto.com/mi/caledonia/battery-testing-6233.html,oreilly,Your Caledonia O'Reilly Auto Parts Store,,Caledonia,MI,,US,+1 616-536-7043,https://locations.oreillyauto.com/mi/caledonia/battery-testing-6233.html,Mo-Sa 07:30-21:00; Su 08:00-20:00,O'Reilly Auto Parts,Q7071951
https://locations.oreillyauto.com/mi/caledonia/check-engine-light-testing-6233.html,oreilly,Your Caledonia O'Reilly Auto Parts Store,,Caledonia,MI,,US,+1 616-536-7043,https://locations.oreillyauto.com/mi/caledonia/check-engine-light-testing-6233.html,Mo-Sa 07:30-21:00; Su 08:00-20:00,O'Reilly Auto Parts,Q7071951
https://locations.oreillyauto.com/mi/caledonia/autopartes-6233.html,oreilly,O'Reilly Auto Parts,,Caledonia,MI,,US,+1 616-536-7043,https://locations.oreillyauto.com/mi/caledonia/autopartes-6233.html,Mo-Sa 07:30-21:00; Su 08:00-20:00,O'Reilly Auto Parts,Q7071951
https://locations.oreillyauto.com/mi/caledonia/wiper-installation-6233.html,oreilly,Your Caledonia O'Reilly Auto Parts Store,,Caledonia,MI,,US,+1 616-536-7043,https://locations.oreillyauto.com/mi/caledonia/wiper-installation-6233.html,Mo-Sa 07:30-21:00; Su 08:00-20:00,O'Reilly Auto Parts,Q7071951
131374,pandaexpress,Kalamazoo Ave & Marketplace Dr,,Caledonia,MI,,US,+1 616-278-0309,https://www.pandaexpress.com/locations/mi/caledonia/1717-marketplace-dr-se,Mo-Th 10:00-21:30; Fr-Sa 10:00-21:00; Su 10:30-20:30,Panda Express,Q1358690
mi_caledonia_6450-100th-st-se,pizza_hut_us,6450 100th St. SE,,Caledonia,MI,,US,+1 616-891-8920,https://locations.pizzahut.com/mi/caledonia/6450-100th-st-se,,Pizza Hut,Q191615
mi_caledonia_1925-marketplace-drive,pizza_hut_us,1925 Marketplace Drive,,Caledonia,MI,,US,,https://locations.pizzahut.com/mi/caledonia/1925-marketplace-drive,,Pizza Hut,Q191615
https://locations.qdoba.com/us/mi/caledonia/1673-marketplace-dr-se.html,qdoba,QDOBA Kalamazoo & Marketplace Dr.,,Caledonia,MI,,US,+1 616-554-4842,https://locations.qdoba.com/us/mi/caledonia/1673-marketplace-dr-se.html,Mo-Th 10:30-22:00; Fr-Sa 10:30-23:00; Su 10:30-22:00,Qdoba,Q1363885
01532,rite_aid_us,Rite Aid #01532 Caledonia,,Caledonia,MI,,US,+1 616-891-1256,https://locations2.riteaid.com.yext-cdn.com/mi/caledonia/9377-cherry-valley-road.html,Mo-Sa 08:00-21:00; Su 09:00-17:00,Rite Aid,Q3433273
2582,snap_fitness,"Caledonia, MI",9321 Cherry Valley Ave SE,Caledonia,MI,,US,+1 616-536-2662,https://www.snapfitness.com/us/gyms/calendonia-mi,24/7,Snap Fitness,Q7547254
https://restaurants.subway.com/#14898949,subway,Subway,,Caledonia Kent,MI,,US,+1 616-891-4782,https://restaurants.subway.com/united-states/mi/caledonia/9175-cherry-valley,Mo-Su 08:00-21:00,Subway,Q244457
1107,sunbelt_rentals_us_ca,GRAND RAPIDS MI CC PC1107,,CALEDONIA,MI,,US,+1 616-649-4922,,Mo-Fr 07:00-17:00,Sunbelt Rentals,Q102396721
https://locations.tacobell.com/#15053519,taco_bell,Taco Bell,,Caledonia,MI,,US,+1 616-275-4720,https://locations.tacobell.com/mi/caledonia/6445-cherry-meadow-drive-se.html,Mo-Th 06:00-01:00; Fr-Sa 06:00-02:00; Su 06:00-01:00,Taco Bell,Q752941
601479,taco_johns_us,Caledonia,"6722 Broadmoor Ave. S.E., Caledonia MI 49316",Caledonia,MI,,US,+1 616-271-4925,https://locations.tacojohns.com/mi/caledonia/6722-broadmoor-ave-s-e/,Mo-Su 06:30-22:00,Taco John's,Q7673962
3HSN,tmobile_us,Cherry Vly Ave SE & 94th St SE,,Caledonia,MI,,US,+1 616-891-6156,https://www.t-mobile.com/store-locator/mi/caledonia/cherry-vly-ave-se-94th-st-se,,T-Mobile,Q3511885
1356612,usps,CALEDONIA,,CALEDONIA,MI,,US,+1 616-891-9524,,Mo-Fr 08:30-17:00; Sa 09:00-12:00,United States Postal Service,Q668687
4931600010,usps_collection_boxes,USPS COLLECTION BOX - BLUE BOX,4474 KALAMAZOO DR,CALEDONIA,MI,,US,,,,United States Postal Service,Q668687
4931600009,usps_collection_boxes,USPS COLLECTION BOX - BLUE BOX,9339 CHERRY VALLEY AVE SE,CALEDONIA,MI,,US,,,,United States Postal Service,Q668687
4931600011,usps_collection_boxes,USPS COLLECTION BOX - PO LOBBY,9339 CHERRY VALLEY AVE SE,CALEDONIA,MI,,US,,,,United States Postal Service,Q668687
4931600020,usps_collection_boxes,USPS COLLECTION BOX - PO LOBBY,9339 CHERRY VALLEY AVE SE,CALEDONIA,MI,,US,,,,United States Postal Service,Q668687
4931600013,usps_collection_boxes,USPS COLLECTION BOX - BLUE BOX,5401 76TH ST SE,CALEDONIA,MI,,US,,,,United States Postal Service,Q668687
4931600006,usps_collection_boxes,USPS COLLECTION BOX - BLUE BOX,6720 W MILL RUN SE,CALEDONIA,MI,,US,,,,United States Postal Service,Q668687
4931600012,usps_collection_boxes,USPS COLLECTION BOX - BLUE BOX,1499 CRYSTAL SPRINGS BLVD SE,CALEDONIA,MI,,US,,,,United States Postal Service,Q668687
A00000200485,verizon_us,Wireless Zone Caledonia,,CALEDONIA,MI,,US,+1 616-891-0072,https://www.verizon.com/stores/details/michigan/caledonia/wireless-zone-caledonia-1450722/,Mo-Sa 10:00-19:00; Su 11:00-17:00,Verizon,Q919641
,visa,,,LANSING,MI,,US,,,,,
,visa,,,CALEDONIA,MI,,US,,,,,
,visa,,,CALADONIA,MI,,US,,,,,
,visa,,,CALEDONIA,MI,,US,,,,,
,visa,,,CALEDONIA,MI,,US,,,,,
,visa,,,CALEDONIA,MI,,US,,,,,
,visa,,,CALEDONIA,MI,,US,,,,,
,visa,,,CALEDONIA,MI,,US,,,,,
,visa,,,CALEDONIA,MI,,US,,,,,
,visa,,,CALEDONIA,MI,,US,,,,,
,visa,,,CALEDONIA,MI,,US,,,,,
,visa,,,CALEDONIA,MI,,US,,,,,
,visa,,,CALEDONIA,MI,,US,,,,,
,visa,,,CALEDONIA,MI,,US,,,,,
,visa,,,CALEDONIA,MI,,US,,,,,
,visa,,,CALEDONIA,MI,,US,,,,,
,visa,,,CALEDONIA,MI,,US,,,,,
,visa,,,CALEDONIA,MI,,US,,,,,
,visa,,,CALEDONIA,MI,,US,,,,,
,visa,,,CALEDONIA,MI,,US,,,,,
,visa,,,DUTTON,MI,,US,,,,,
,visa,,,DUTTON,MI,,US,,,,,
,visa,,,CALEDONIA,MI,,US,,,,,
,visa,,,DUTTON,MI,,US,,,,,
,visa,,,CALEDONIA,MI,,US,,,,,
,visa,,,CALEDONIA,MI,,US,,,,,
,visa,,,CALEDONIA,MI,,US,,,,,
,visa,,,CALEDONIA,MI,,US,,,,,
https://locations.wendys.com/#9251181,wendys,"Wendy's Caledonia in Caledonia, MI",,Caledonia,MI,,US,+1 616-891-2823,https://locations.wendys.com/united-states/mi/caledonia/8258-broadmoor-avenue-se,"Mo-Su 06:30-10:30,06:30-22:00",Wendy's,Q550258
