Ref,Spider,Name,Address,City,State,Zipcode,Country,Phone,Website,Hours,Brand,WikiData
,visa,,,TYR,SOUTH,,LB,,,,,
,visa,,,TYR,SOUTH,,LB,,,,,
,visa,,,TYR ABBASSIEH,SOUTH,,LB,,,,,
,visa,,,NABATIEH,SOUTH,,LB,,,,,
,visa,,,NABATIEH,SOUTH,,LB,,,,,
,visa,,,NABATIEH,SOUTH,,LB,,,,,
,visa,,,SAIDA,SOUTH,,LB,,,,,
,visa,,,SAIDA,SOUTH,,LB,,,,,
,visa,,,SAIDA,SOUTH,,LB,,,,,
,visa,,,SAIDA BLVD,SOUTH,,LB,,,,,
,visa,,,SAIDA,SOUTH,,LB,,,,,
,visa,,,SAIDA,SOUTH,,LB,,,,,
,visa,,,CHEHIM,SOUTH,,LB,,,,,
,visa,,,SAIDA,SOUTH,,LB,,,,,
30c455ccff93334903b9b936cf5f6df7,western_union,M3-SALMAN CELL FOR GENERAL TRADING,,Sour,SOUTH,,LB,(+961) 5-1262,https://location.westernunion.com/lb/south/sour/30c455ccff93334903b9b936cf5f6df7,Mo-Su 08:00-24:00,Western Union,Q861042
d23c129e1e7173492694781207f38a68,western_union,EL DOR FOR GENERAL TRADING,,Kharayeb,SOUTH,,LB,(+961) 5-1262,https://location.westernunion.com/lb/south/kharayeb/d23c129e1e7173492694781207f38a68,Mo-Su 08:00-24:00,Western Union,Q861042
0b025cd629f1f794e8eb02dbdc3450e2,western_union,BANA,,Abbasieh,SOUTH,,LB,(+961) 5-1262,https://location.westernunion.com/lb/south/abbasieh/0b025cd629f1f794e8eb02dbdc3450e2,Mo-Su 08:00-24:00,Western Union,Q861042
cf99b9766662ba659430ec10e4b04f67,western_union,MOBILE STORE,,Ansar,SOUTH,,LB,(+961) 5-1262,https://location.westernunion.com/lb/south/ansar/cf99b9766662ba659430ec10e4b04f67,Mo-Su 08:00-24:00,Western Union,Q861042
bc4947735c97e56dd363470474d2a270,western_union,FATFAT TRADING,,Bebnine,SOUTH,,LB,(+961) 5-1262,https://location.westernunion.com/lb/south/bebnine/bc4947735c97e56dd363470474d2a270,Mo-Su 08:00-24:00,Western Union,Q861042
