Ref,Spider,Name,Address,City,State,Zipcode,Country,Phone,Website,Hours,Brand,WikiData
12351,dominos_pizza_mx,Domino's,,Merida,Yucatan,,MX,+52 999 454 0012,,,Domino's Pizza,Q839466
,visa,,,MERIDA,YUCATAN,,MX,,,,,
,visa,,,MERIDA,YUCATAN,,MX,,,,,
,visa,,,MERIDA,YUCATAN,,MX,,,,,
5b79dc82e2ada1dc2526d850389029a8,western_union,OXXO FLORIDA MID,,Merida,YUCATAN,,MX,+52 81 8389 2121,https://location.westernunion.com/mx/yucatan/merida/5b79dc82e2ada1dc2526d850389029a8,Mo-Su 08:00-22:00,Western Union,Q861042
08fed7aef851d92864be5b3987b45ec6,western_union,OXXO FLORIDA MID,,Merida,YUCATAN,,MX,+52 81 8389 2121,https://location.westernunion.com/mx/yucatan/merida/08fed7aef851d92864be5b3987b45ec6,Mo-Su 08:00-22:00,Western Union,Q861042
0b89ee49369997b5ce4fdbc1228d3935,western_union,OXXO FLORIDA MID,,Merida,YUCATAN,,MX,+52 81 8389 2121,https://location.westernunion.com/mx/yucatan/merida/0b89ee49369997b5ce4fdbc1228d3935,Mo-Su 08:00-22:00,Western Union,Q861042
56a11980b624ad5c48234b272f653d52,western_union,OXXO SANTA MARIA MID,,Merida,YUCATAN,,MX,+52 81 8389 2121,https://location.westernunion.com/mx/yucatan/merida/56a11980b624ad5c48234b272f653d52,Mo-Su 08:00-22:00,Western Union,Q861042
0058973330bfab8db2844dcfad6776de,western_union,OXXO SANTA MARIA MID,,Merida,YUCATAN,,MX,+52 81 8389 2121,https://location.westernunion.com/mx/yucatan/merida/0058973330bfab8db2844dcfad6776de,Mo-Su 08:00-22:00,Western Union,Q861042
372bae0386754055a65a3cfd7fc53f06,western_union,OXXO SANTA MARIA MID,,Merida,YUCATAN,,MX,+52 81 8389 2121,https://location.westernunion.com/mx/yucatan/merida/372bae0386754055a65a3cfd7fc53f06,Mo-Su 08:00-22:00,Western Union,Q861042
933d8cfcf0e6b9392da9ba52b7c1d77a,western_union,SOL 150 MERIDA ITZIMNA,,Merida,YUCATAN,,MX,+52 800 833 4700,https://location.westernunion.com/mx/yucatan/merida/933d8cfcf0e6b9392da9ba52b7c1d77a,Mo-Su 09:00-21:00,Western Union,Q861042
341593500134aebca29219be7833396f,western_union,SOL 150 MERIDA ITZIMNA,,Merida,YUCATAN,,MX,+52 800 833 4700,https://location.westernunion.com/mx/yucatan/merida/341593500134aebca29219be7833396f,Mo-Su 09:00-21:00,Western Union,Q861042
1e6e60e21c0683eea0d29b8cb0616a05,western_union,SOL 150 MERIDA ITZIMNA,,Merida,YUCATAN,,MX,+52 800 833 4700,https://location.westernunion.com/mx/yucatan/merida/1e6e60e21c0683eea0d29b8cb0616a05,Mo-Su 09:00-21:00,Western Union,Q861042
acedc7489b2230c6b0cb1e6b6adc53fb,western_union,OXXO PINOS DEL NORTE MID,,Merida,YUCATAN,,MX,+52 81 8389 2121,https://location.westernunion.com/mx/yucatan/merida/acedc7489b2230c6b0cb1e6b6adc53fb,Mo-Su 08:00-22:00,Western Union,Q861042
bf3ae68a8ee663e390b1d31c9ec8ab66,western_union,OXXO PINOS DEL NORTE MID,,Merida,YUCATAN,,MX,+52 81 8389 2121,https://location.westernunion.com/mx/yucatan/merida/bf3ae68a8ee663e390b1d31c9ec8ab66,Mo-Su 08:00-22:00,Western Union,Q861042
63e1efe9b7244fdc8512d4d35b342f9d,western_union,OXXO PINOS DEL NORTE MID,,Merida,YUCATAN,,MX,+52 81 8389 2121,https://location.westernunion.com/mx/yucatan/merida/63e1efe9b7244fdc8512d4d35b342f9d,Mo-Su 08:00-22:00,Western Union,Q861042
f5db848fa7c979258db59dea2f014af1,western_union,DUNOSUSA 205 AP CASH,,Merida,YUCATAN,,MX,+52 999 994 0606,https://location.westernunion.com/mx/yucatan/merida/f5db848fa7c979258db59dea2f014af1,Mo-Su 09:00-21:00,Western Union,Q861042
6f1ef1cc44d4be7267bdf0b96542882c,western_union,DUNOSUSA 205 AP CASH,,Merida,YUCATAN,,MX,+52 999 994 0606,https://location.westernunion.com/mx/yucatan/merida/6f1ef1cc44d4be7267bdf0b96542882c,Mo-Su 09:00-21:00,Western Union,Q861042
abadbdee76a478fa9ab50a9e572a4239,western_union,OXXO PINOS II MID,,Merida,YUCATAN,,MX,+52 81 8389 2121,https://location.westernunion.com/mx/yucatan/merida/abadbdee76a478fa9ab50a9e572a4239,Mo-Su 08:00-22:00,Western Union,Q861042
a4395ec018e6391032fdb35bed7c7517,western_union,OXXO PINOS II MID,,Merida,YUCATAN,,MX,+52 81 8389 2121,https://location.westernunion.com/mx/yucatan/merida/a4395ec018e6391032fdb35bed7c7517,Mo-Su 08:00-22:00,Western Union,Q861042
8ecd2af97195ab307d8072a1293beb57,western_union,OXXO PINOS II MID,,Merida,YUCATAN,,MX,+52 81 8389 2121,https://location.westernunion.com/mx/yucatan/merida/8ecd2af97195ab307d8072a1293beb57,Mo-Su 08:00-22:00,Western Union,Q861042
3ace69244a360abe84c3eaddc73c6dcc,western_union,DUNOSUSA 75 AP CASH,,Merida,YUCATAN,,MX,+52 999 994 0606,https://location.westernunion.com/mx/yucatan/merida/3ace69244a360abe84c3eaddc73c6dcc,Mo-Su 09:00-21:00,Western Union,Q861042
89c906230d7b261f639fbf00225d3d95,western_union,DUNOSUSA 75 AP CASH,,Merida,YUCATAN,,MX,+52 999 994 0606,https://location.westernunion.com/mx/yucatan/merida/89c906230d7b261f639fbf00225d3d95,Mo-Su 09:00-21:00,Western Union,Q861042
9658594289b83e63dcf741ced4840848,western_union,DUNOSUSA LOS PINOS AP CASH,,Merida,YUCATAN,,MX,+52 999 940 6060,https://location.westernunion.com/mx/yucatan/merida/9658594289b83e63dcf741ced4840848,Mo-Su 09:00-21:00,Western Union,Q861042
d7170a569bbdfa08727f34a1085c3a6c,western_union,DUNOSUSA LOS PINOS AP CASH,,Merida,YUCATAN,,MX,+52 999 940 6060,https://location.westernunion.com/mx/yucatan/merida/d7170a569bbdfa08727f34a1085c3a6c,Mo-Su 09:00-21:00,Western Union,Q861042
a76ec068988232a4c3da6659da0e010b,western_union,OXXO JARDINES DEL NORTE MID,,Merida,YUCATAN,,MX,+52 81 8389 2121,https://location.westernunion.com/mx/yucatan/merida/a76ec068988232a4c3da6659da0e010b,Mo-Su 08:00-22:00,Western Union,Q861042
511f906c0ff2c1b66400bacfeacf348b,western_union,OXXO JARDINES DEL NORTE MID,,Merida,YUCATAN,,MX,+52 81 8389 2121,https://location.westernunion.com/mx/yucatan/merida/511f906c0ff2c1b66400bacfeacf348b,Mo-Su 08:00-22:00,Western Union,Q861042
ceca7c166a7687e220c7e7dcf3378c11,western_union,OXXO JARDINES DEL NORTE MID,,Merida,YUCATAN,,MX,+52 81 8389 2121,https://location.westernunion.com/mx/yucatan/merida/ceca7c166a7687e220c7e7dcf3378c11,Mo-Su 08:00-22:00,Western Union,Q861042
796ca85e0188ac5b0bbb043316a5d76d,western_union,FARM GUAD YUCATAN ARCOS,,Merida,YUCATAN,,MX,+52 800 833 4700,https://location.westernunion.com/mx/yucatan/merida/796ca85e0188ac5b0bbb043316a5d76d,Mo-Su 09:00-22:00,Western Union,Q861042
6e826b2146ecc4cae33e939682c22b9e,western_union,FARM GUAD YUCATAN ARCOS,,Merida,YUCATAN,,MX,+52 800 833 4700,https://location.westernunion.com/mx/yucatan/merida/6e826b2146ecc4cae33e939682c22b9e,Mo-Su 09:00-22:00,Western Union,Q861042
7088a70f5274e0c2b59e52b943fa8813,western_union,OXXO ARCOS MID,,Merida,YUCATAN,,MX,+52 81 8389 2121,https://location.westernunion.com/mx/yucatan/merida/7088a70f5274e0c2b59e52b943fa8813,Mo-Su 08:00-22:00,Western Union,Q861042
64cfbc286bb34bb546cf7bb8977b251c,western_union,OXXO ARCOS MID,,Merida,YUCATAN,,MX,+52 81 8389 2121,https://location.westernunion.com/mx/yucatan/merida/64cfbc286bb34bb546cf7bb8977b251c,Mo-Su 08:00-22:00,Western Union,Q861042
e1e0c1ee3f369e7b47f02f32989710ba,western_union,OXXO ARCOS MID,,Merida,YUCATAN,,MX,+52 81 8389 2121,https://location.westernunion.com/mx/yucatan/merida/e1e0c1ee3f369e7b47f02f32989710ba,Mo-Su 08:00-22:00,Western Union,Q861042
0fddf0d47273da313a490e182cb1d092,western_union,OXXO UPTOWN MID,,Merida,YUCATAN,,MX,+52 81 8389 2121,https://location.westernunion.com/mx/yucatan/merida/0fddf0d47273da313a490e182cb1d092,Mo-Su 08:00-22:00,Western Union,Q861042
66fcc2403750d30bce78756192a291de,western_union,OXXO UPTOWN MID,,Merida,YUCATAN,,MX,+52 81 8389 2121,https://location.westernunion.com/mx/yucatan/merida/66fcc2403750d30bce78756192a291de,Mo-Su 08:00-22:00,Western Union,Q861042
ed7c38ebca05697a7d3b86392bfebb0b,western_union,OXXO UPTOWN MID,,Merida,YUCATAN,,MX,+52 81 8389 2121,https://location.westernunion.com/mx/yucatan/merida/ed7c38ebca05697a7d3b86392bfebb0b,Mo-Su 08:00-22:00,Western Union,Q861042
d865be6e06a0ba13d6624b87ba5e781e,western_union,OXXO POETAS MID,,Merida,YUCATAN,,MX,+52 81 8389 2121,https://location.westernunion.com/mx/yucatan/merida/d865be6e06a0ba13d6624b87ba5e781e,Mo-Su 06:00-22:00,Western Union,Q861042
6346070a8b82ff31262427ad14832a39,western_union,OXXO POETAS MID,,Merida,YUCATAN,,MX,+52 81 8389 2121,https://location.westernunion.com/mx/yucatan/merida/6346070a8b82ff31262427ad14832a39,Mo-Su 06:00-22:00,Western Union,Q861042
dd3ac57e6cb5b3fc5a58d680e97a080b,western_union,OXXO POETAS MID,,Merida,YUCATAN,,MX,+52 81 8389 2121,https://location.westernunion.com/mx/yucatan/merida/dd3ac57e6cb5b3fc5a58d680e97a080b,Mo-Su 06:00-22:00,Western Union,Q861042
e63c4febe97342b8d9c1f30668c2318c,western_union,SUPER AKI 118 SAN PEDR AP CASH,,Merida,YUCATAN,,MX,+52 999 688 7667,https://location.westernunion.com/mx/yucatan/merida/e63c4febe97342b8d9c1f30668c2318c,Mo-Su 07:00-22:00,Western Union,Q861042
446c4e7a8a8da434986a13f99effdbe8,western_union,SUPER AKI 118 SAN PEDR AP CASH,,Merida,YUCATAN,,MX,+52 999 688 7667,https://location.westernunion.com/mx/yucatan/merida/446c4e7a8a8da434986a13f99effdbe8,Mo-Su 07:00-22:00,Western Union,Q861042
cd7fff33d1fbf62261d2518a7fa4f5ed,western_union,SUPER AKI 118 SAN PEDR AP CASH,,Merida,YUCATAN,,MX,+52 999 688 7667,https://location.westernunion.com/mx/yucatan/merida/cd7fff33d1fbf62261d2518a7fa4f5ed,Mo-Su 07:00-22:00,Western Union,Q861042
e079ee3fc0c3e00f5a233e53e872c149,western_union,OXXO MONTECARLO MID,,Merida,YUCATAN,,MX,+52 81 8389 2121,https://location.westernunion.com/mx/yucatan/merida/e079ee3fc0c3e00f5a233e53e872c149,Mo-Su 08:00-22:00,Western Union,Q861042
2390bdae7ace8349823fcd7d75ebe36d,western_union,OXXO MONTECARLO MID,,Merida,YUCATAN,,MX,+52 81 8389 2121,https://location.westernunion.com/mx/yucatan/merida/2390bdae7ace8349823fcd7d75ebe36d,Mo-Su 08:00-22:00,Western Union,Q861042
116a7f06ec74eb4d21aeadd3033fdc3b,western_union,OXXO MONTECARLO MID,,Merida,YUCATAN,,MX,+52 81 8389 2121,https://location.westernunion.com/mx/yucatan/merida/116a7f06ec74eb4d21aeadd3033fdc3b,Mo-Su 08:00-22:00,Western Union,Q861042
f943685b254236f0d8095fb775d3ce48,western_union,FARM GUAD LOS PINOS YUC,,Merida,YUCATAN,,MX,+52 800 833 4700,https://location.westernunion.com/mx/yucatan/merida/f943685b254236f0d8095fb775d3ce48,Mo-Su 09:00-22:00,Western Union,Q861042
68564723b7fe780b6502647b753daec9,western_union,FARM GUAD LOS PINOS YUC,,Merida,YUCATAN,,MX,+52 800 833 4700,https://location.westernunion.com/mx/yucatan/merida/68564723b7fe780b6502647b753daec9,Mo-Su 09:00-22:00,Western Union,Q861042
3b0cfacf0b0ffcfd0df7020383a90cc3,western_union,FARM GUAD LOS PINOS YUC,,Merida,YUCATAN,,MX,+52 800 833 4700,https://location.westernunion.com/mx/yucatan/merida/3b0cfacf0b0ffcfd0df7020383a90cc3,Mo-Su 09:00-22:00,Western Union,Q861042
