Ref,Spider,Name,Address,City,State,Zipcode,Country,Phone,Website,Hours,Brand,WikiData
72248256,moneygram,SHREE SATYA NARAYAN COMPUTER - AMRITSAR,,AMRITSAR,,,IN,+91 95010 41916,,Mo-Su 06:30-21:00,MoneyGram,Q1944412
72271883,moneygram,SIMRAN JEWELLER - TARN TARAN,,TARN TARAN,,,IN,+91 98725 87856,,Mo-Su 06:30-21:00,MoneyGram,Q1944412
72479452,moneygram,BHAGWATI IMPEX - AMRITSAR,,AMRITSAR,,,IN,+91 98557 86666,,Mo-Su 08:00-21:00,MoneyGram,Q1944412
72490499,moneygram,BAAB BUDHA JI COMPUTER CENTRE - AMRITSAR,,AMRITSAR,,,IN,+91 78891 38998,,Mo-Su 09:00-21:00,MoneyGram,Q1944412
72489154,moneygram,VISHAL INFOTECH - AMRITSAR - AMRITSAR,,AMRITSAR,,,IN,+91 99881 44095,,Mo-Su 09:00-21:00,MoneyGram,Q1944412
72539583,moneygram,JOSHI TOUR AND TRAVELS,,AMRITSAR,,,IN,+91 94656 47968,,Mo-Su 08:00-21:00,MoneyGram,Q1944412
72556935,moneygram,BABA BUDHA JI COMPUTER CENTRE,,AMRITSAR,,,IN,+91 98154 91956,,Mo-Su 08:00-21:00,MoneyGram,Q1944412
72568499,moneygram,GURU NANAK SERVICES - AMRITSAR,,AMRITSAR,,,IN,+91 70095 42939,,Mo-Su 08:00-21:00,MoneyGram,Q1944412
72553022,moneygram,VISHWASH ENTERPRISES,,AMRITSAR,,,IN,+91 99143 06114,,Mo-Su 08:00-21:00,MoneyGram,Q1944412
72612565,moneygram,I S ENTERPRISES,,AMRITSAR,,,IN,+91 97802 03841,,Mo-Su 08:00-21:00,MoneyGram,Q1944412
72630615,moneygram,GURU NANAK TOWER - AMRITSAR,,AMRITSAR,,,IN,+91 99886 97744,,Mo-Su 08:00-21:00,MoneyGram,Q1944412
72711385,moneygram,FIRST FLYING IMMIGRATION & CONSULTANTS -,,AMRITSAR,,,IN,+91 99887 73497,,Mo-Su 08:00-21:00,MoneyGram,Q1944412
72767960,moneygram,NISHTHA ENTERPRISES - AMRITSAR,,AMRITSAR,,,IN,+91 89861 21721,,Mo-Su 08:00-21:00,MoneyGram,Q1944412
72768943,moneygram,EKAM OVERSEAS - AMRITSAR,,AMRITSAR,,,IN,+91 78890 75302,,Mo-Su 08:00-21:00,MoneyGram,Q1944412
72777824,moneygram,SONU TELECOM - AMRITSAR,,AMRITSAR,,,IN,+91 83600 78901,,Mo-Su 08:00-21:00,MoneyGram,Q1944412
72816141,moneygram,ADITYA ENTERPRISES - AMRITSAR,,AMRITSAR,,,IN,+91 98881 19609,,Mo-Su 08:00-21:00,MoneyGram,Q1944412
72991192,moneygram,HARJIT ENTERPRISES - AMRITSAR,,AMRITSAR,,,IN,+91 98140 87185,,Mo-Su 08:00-21:00,MoneyGram,Q1944412
72998852,moneygram,GOPI ONLINE SERVICE - AMRITSAR,,AMRITSAR,,,IN,+91 78146 52648,,Mo-Su 08:00-21:00,MoneyGram,Q1944412
73200688,moneygram,BUNTY JEWELLERS - AMRITSAR,,AMRITSAR,,,IN,+91 98768 67244,,Mo-Su 08:00-21:00,MoneyGram,Q1944412
73434807,moneygram,SONI ELECTRONICS,,AMRITSAR,,,IN,+91 98153 70821,,Mo-Su 08:00-21:00,MoneyGram,Q1944412
73548968,moneygram,DIGITAL SEWA KENDRA - TARN TARAN,,TARN TARAN,,,IN,+91 78375 11751,,Mo-Su 08:00-21:00,MoneyGram,Q1944412
73617666,moneygram,SIMAR INTERNET CAFE - AMRITSAR,,AMRITSAR,,,IN,+91 98032 22449,,Mo-Su 08:00-21:00,MoneyGram,Q1944412
73609153,moneygram,CHADHA INFOTECH COMPUTERS - AMRITSAR,,AMRITSAR,,,IN,+91 96465 51414,,Mo-Su 06:00-23:00,MoneyGram,Q1944412
73828125,moneygram,ARORA ENTERPRISES,,AMRITSAR,,,IN,+91 96464 90007,,Mo-Su 08:00-21:00,MoneyGram,Q1944412
73930301,moneygram,KARTIK ENTERPRISRES,,AMRITSAR,,,IN,+91 98727 67171,,Mo-Su 08:00-21:00,MoneyGram,Q1944412
73989213,moneygram,VICKY TRAVELS - AMRITSAR,,AMRITSAR,,,IN,+91 98152 09427,,Mo-Su 08:00-21:00,MoneyGram,Q1944412
74217599,moneygram,SUKHBIR INFOTECH - AMRITSAR,,AMRITSAR,,,IN,+91 85680 46790,,Mo-Su 06:00-23:00,MoneyGram,Q1944412
74439610,moneygram,ROHIT ENTERPRISES,,AMRITSAR,,,IN,+91 82648 66131,,Mo-Su 04:00-24:00,MoneyGram,Q1944412
70373259,moneygram,BAGGA JEWELLERS,,DHAND,,,IN,+91 98723 61261,,Mo-Su 06:30-21:00,MoneyGram,Q1944412
74792810,moneygram,GURU NANAK AUTOMATIC PHOTOSTAT,,AMRITSAR,,,IN,+91 99881 38365,,Mo-Su 09:00-21:00,MoneyGram,Q1944412
74805244,moneygram,SHRI GANESH COMPUTER HUB,,AMRITSAR,,,IN,+91 78885 26573,,Mo-Su 09:00-21:00,MoneyGram,Q1944412
74982057,moneygram,HAPPY COMPUTER,,AMRITSAR,,,IN,+91 75083 42516,,Mo-Su 09:00-21:00,MoneyGram,Q1944412
67257993,moneygram,VICKY ENTERPRISES - AMRITSAR,,AMRITSAR,,,IN,+91 183 506 3577,,Mo-Su 06:30-21:00,MoneyGram,Q1944412
71753014,moneygram,GURU NANAK TELECOM - AMRITSAR,,AMRITSAR,,,IN,+91 94651 23450,,Mo-Su 06:30-21:00,MoneyGram,Q1944412
