Ref,Spider,Name,Address,City,State,Zipcode,Country,Phone,Website,Hours,Brand,WikiData
EC002,nissan_europe,Automotores Antonio Larrea,,Riobamba,Chimborazo,,EC,+593 95 897 2022,,Mo-Fr 09:00-18:00; Sa 10:00-14:00,Nissan,Q20165
EC020,nissan_europe,Automotores Antonio Larrea,,Riobamba,Chimborazo,,EC,+593 95 897 2022,,Mo-Fr 08:00-17:00; Sa 08:00-12:00,Nissan,Q20165
,visa,,,GUANO,CHIMBORAZO,,EC,,,,,
,visa,,,RIOBAMBA,CHIMBORAZO,,EC,,,,,
,visa,,,RIOBAMBA,CHIMBORAZO,,EC,,,,,
,visa,,,RIOBAMBA,CHIMBORAZO,,EC,,,,,
,visa,,,RIOBAMBA,CHIMBORAZO,,EC,,,,,
,visa,,,RIOBAMBA,CHIMBORAZO,,EC,,,,,
,visa,,,GUANO,CHIMBORAZO,,EC,,,,,
,visa,,,GUANO,CHIMBORAZO,,EC,,,,,
,visa,,,RIOBAMBA,CHIMBORAZO,,EC,,,,,
,visa,,,RIOBAMBA,CHIMBORAZO,,EC,,,,,
,visa,,,RIOBAMBA,CHIMBORAZO,,EC,,,,,
,visa,,,RIOBAMBA,CHIMBORAZO,,EC,,,,,
,visa,,,RIOBAMBA,CHIMBORAZO,,EC,,,,,
,visa,,,RIOBAMBA,CHIMBORAZO,,EC,,,,,
,visa,,,RIOBAMBA,CHIMBORAZO,,EC,,,,,
,visa,,,RIOBAMBA,CHIMBORAZO,,EC,,,,,
,visa,,,RIOBAMBA,CHIMBORAZO,,EC,,,,,
,visa,,,RIOBAMBA,CHIMBORAZO,,EC,,,,,
,visa,,,RIOBAMBA,CHIMBORAZO,,EC,,,,,
,visa,,,RIOBAMBA,CHIMBORAZO,,EC,,,,,
,visa,,,RIOBAMBA,CHIMBORAZO,,EC,,,,,
,visa,,,RIOBAMBA,CHIMBORAZO,,EC,,,,,
,visa,,,RIOBAMBA,CHIMBORAZO,,EC,,,,,
,visa,,,RIOBAMBA,CHIMBORAZO,,EC,,,,,
,visa,,,RIOBAMBA,CHIMBORAZO,,EC,,,,,
,visa,,,CHIMBORAZO,CHIMBORAZO,,EC,,,,,
,visa,,,RIOBAMBA,CHIMBORAZO,,EC,,,,,
,visa,,,RIOBAMBA,CHIMBORAZO,,EC,,,,,
,visa,,,RIOBAMBA,CHIMBORAZO,,EC,,,,,
,visa,,,RIOBAMBA,CHIMBORAZO,,EC,,,,,
,visa,,,RIOBAMBA,CHIMBORAZO,,EC,,,,,
,visa,,,RIOBAMBA,CHIMBORAZO,,EC,,,,,
,visa,,,RIOBAMBA,CHIMBORAZO,,EC,,,,,
,visa,,,RIOBAMBA,CHIMBORAZO,,EC,,,,,
,visa,,,RIOBAMBA,CHIMBORAZO,,EC,,,,,
,visa,,,RIOBAMBA,CHIMBORAZO,,EC,,,,,
,visa,,,RIOBAMBA,CHIMBORAZO,,EC,,,,,
,visa,,,RIOBAMBA,CHIMBORAZO,,EC,,,,,
,visa,,,RIOBAMBA,CHIMBORAZO,,EC,,,,,
,visa,,,RIOBAMBA,CHIMBORAZO,,EC,,,,,
,visa,,,RIOBAMBA,CHIMBORAZO,,EC,,,,,
,visa,,,RIOBAMBA,CHIMBORAZO,,EC,,,,,
,visa,,,GUAMOTE,CHIMBORAZO,,EC,,,,,
,visa,,,RIOBAMBA,CHIMBORAZO,,EC,,,,,
,visa,,,RIOBAMBA,CHIMBORAZO,,EC,,,,,
,visa,,,COLTA,CHIMBORAZO,,EC,,,,,
,visa,,,ALAUSI,CHIMBORAZO,,EC,,,,,
,visa,,,CHUNCHI,CHIMBORAZO,,EC,,,,,
,visa,,,PALLATANGA,CHIMBORAZO,,EC,,,,,
,visa,,,RIOBAMBA,CHIMBORAZO,,EC,,,,,
,visa,,,CUMANDA,CHIMBORAZO,,EC,,,,,
,visa,,,CUMANDA,CHIMBORAZO,,EC,,,,,
,visa,,,CUMANDA,CHIMBORAZO,,EC,,,,,
7977ec84aa3dc8685ce8fb62b2a32f98,western_union,COAC CHUNCHI LTDA,,Chunchi,CHIMBORAZO,,EC,(+593) 2-32936497,https://location.westernunion.com/ec/chimborazo/chunchi/7977ec84aa3dc8685ce8fb62b2a32f98,Mo-Su 08:00-19:00,Western Union,Q861042
46d62f940d4af178a67007fbbb2bd6f2,western_union,CIS PAGO AGIL COAC PUSHAK RUNA CHUNCHI,,Chunchi,CHIMBORAZO,,EC,(+593) 3-2994780-106,https://location.westernunion.com/ec/chimborazo/chunchi/46d62f940d4af178a67007fbbb2bd6f2,Mo-Su 08:00-20:00,Western Union,Q861042
18f6206d00b84ee40bbe38f8df28094b,western_union,WESTERN UNION EXPRESS,,Chunchi,CHIMBORAZO,,EC,+593 3-293-7090,https://location.westernunion.com/ec/chimborazo/chunchi/18f6206d00b84ee40bbe38f8df28094b,Mo-Fr 07:00-22:00; Sa-Su 07:00-20:00,Western Union,Q861042
8d4264c36184992a41ac131b65aee8a5,western_union,SRNP COMERCIAL DANIELA ALAUSI,,Alausi,CHIMBORAZO,,EC,+593 4-371-0050,https://location.westernunion.com/ec/chimborazo/alausi/8d4264c36184992a41ac131b65aee8a5,Mo-Su 08:00-21:00,Western Union,Q861042
f46e9e80ad0f17c48e25255ca72c7c26,western_union,CUENCA RAMOS CLAUDIO EDISON,,Riobamba,CHIMBORAZO,,EC,(+593) 2938310,https://location.westernunion.com/ec/chimborazo/riobamba/f46e9e80ad0f17c48e25255ca72c7c26,Mo-Su 09:00-21:00,Western Union,Q861042
5f0601499fa6337f52cca0582210240e,western_union,CACPECO - CHAMBO,,Chambo,CHIMBORAZO,,EC,+593 3-291-0174,https://location.westernunion.com/ec/chimborazo/chambo/5f0601499fa6337f52cca0582210240e,Mo-Fr 08:00-17:00; Sa 08:00-13:00,Western Union,Q861042
aacb7c4426eeaf49485522beec690835,western_union,CIS COMERCIAL AZOGUE,,Alausi,CHIMBORAZO,,EC,(+593) 9-959822917,https://location.westernunion.com/ec/chimborazo/alausi/aacb7c4426eeaf49485522beec690835,Mo-Fr 07:30-21:00; Sa 08:00-20:00; Su 09:00-19:00,Western Union,Q861042
f8789ad6ca3b514aeb5a44c6cc7af754,western_union,CIS PAG COAC SUMAC LLACTA ALAUSI,,Alausi,CHIMBORAZO,,EC,(+0593) 3-32963865,https://location.westernunion.com/ec/chimborazo/alausi/f8789ad6ca3b514aeb5a44c6cc7af754,Mo-Su 08:00-20:00,Western Union,Q861042
14c37b31fdd5af98262aeb6a6b8fefc2,western_union,FH006 AV LOS PUENTES CUMANDA,,Cumanda,CHIMBORAZO,,EC,+593 4-371-0050,https://location.westernunion.com/ec/chimborazo/cumanda/14c37b31fdd5af98262aeb6a6b8fefc2,Mo-Su 08:00-21:00,Western Union,Q861042
cff732914b40d811517c063d65255bbc,western_union,COAC DIVINO NINO,,Cumanda,CHIMBORAZO,,EC,+593 3-232-6029,https://location.westernunion.com/ec/chimborazo/cumanda/cff732914b40d811517c063d65255bbc,Mo-Fr 08:00-17:30; Sa-Su 08:00-14:00,Western Union,Q861042
4b07f9bf72b556d11e54303379568800,western_union,FH001 9 DE OCTUBRE CUMANDA,,Cumanda,CHIMBORAZO,,EC,+593 4-371-0050,https://location.westernunion.com/ec/chimborazo/cumanda/4b07f9bf72b556d11e54303379568800,Mo-Su 08:00-21:00,Western Union,Q861042
f5fd28402b0018c99d227a077d06f0f8,western_union,MYPHARMA 2,,Cumanda,CHIMBORAZO,,EC,+593 4-371-0050,https://location.westernunion.com/ec/chimborazo/cumanda/f5fd28402b0018c99d227a077d06f0f8,Mo-Su 08:00-21:00,Western Union,Q861042
006e3daff9656488dcddf89d77ce1c4a,western_union,BAZAR KARENSITA,,Cumanda,CHIMBORAZO,,EC,+593 3-232-6055,https://location.westernunion.com/ec/chimborazo/cumanda/006e3daff9656488dcddf89d77ce1c4a,Mo-Su 07:00-23:30,Western Union,Q861042
ad664cce7b6f061c27bd832f1aa43d4b,western_union,COOP NIZAG ALAUSI,,Alausi,CHIMBORAZO,,EC,(+593) 3-293489,https://location.westernunion.com/ec/chimborazo/alausi/ad664cce7b6f061c27bd832f1aa43d4b,Mo-Fr 08:00-17:30; Su 08:00-15:00,Western Union,Q861042
978a6545b75b58217fd2ba6eee8143a8,western_union,TIA ESTEBAN OROZCO ALAUSI,,Alausi,CHIMBORAZO,,EC,+593 1800 628 749,https://location.westernunion.com/ec/chimborazo/alausi/978a6545b75b58217fd2ba6eee8143a8,Mo-Su 09:00-18:00,Western Union,Q861042
edb68c9b983b16e37f805f56b595daff,western_union,SRNP TIA 493 ALAUSI,,Alausi,Chimborazo,,EC,+593 4-259-8830,https://location.westernunion.com/ec/chimborazo/alausi/edb68c9b983b16e37f805f56b595daff,Mo-Su 08:00-19:00,Western Union,Q861042
d70575e7241fda4b263aeb0304610f8d,western_union,CIS GDP MUNDO TECNOSMART,,Alausi,CHIMBORAZO,,EC,(+0593) 9-959731004,https://location.westernunion.com/ec/chimborazo/alausi/d70575e7241fda4b263aeb0304610f8d,Mo-Fr 08:30-19:00; Sa-Su 09:30-18:00,Western Union,Q861042
6d599a2b2472a85135fdd394e92e33d3,western_union,ACTIVA TIA ESTEBAN OROZCO ALAUSI,,Alausi,CHIMBORAZO,,EC,+593 1800 937 837,https://location.westernunion.com/ec/chimborazo/alausi/6d599a2b2472a85135fdd394e92e33d3,Mo-Su 09:00-19:00,Western Union,Q861042
93f7380a51989ef515c16fc7192ec42d,western_union,DESPENSA EL VECINO,,Pallatanga,CHIMBORAZO,,EC,(+593) 3-22919462,https://location.westernunion.com/ec/chimborazo/pallatanga/93f7380a51989ef515c16fc7192ec42d,Mo-Fr 08:00-16:00; Sa 09:00-13:00,Western Union,Q861042
744a3bd0a48a64d1b0ea32ff007fe448,western_union,CIS PAGO AGIL NOVA RILEY92,,Pallatanga,CHIMBORAZO,,EC,(+593) 9-998724464,https://location.westernunion.com/ec/chimborazo/pallatanga/744a3bd0a48a64d1b0ea32ff007fe448,Mo-Su 08:00-20:00,Western Union,Q861042
5010104058856ee8883dc28ac4256fc1,western_union,CALLE JOSE SALTO,,Pallatanga,CHIMBORAZO,,EC,+593 4-371-0050,https://location.westernunion.com/ec/chimborazo/pallatanga/5010104058856ee8883dc28ac4256fc1,Mo-Su 08:00-21:00,Western Union,Q861042
976873f45594efb319f2077122e50dbf,western_union,CIS PAGO AGIL MESSI JUNIOR,,Pallatanga,CHIMBORAZO,,EC,+593 99 058 3263,https://location.westernunion.com/ec/chimborazo/pallatanga/976873f45594efb319f2077122e50dbf,Mo-Su 08:00-20:00,Western Union,Q861042
d5724c0cd0f4040957f90ff7e865032b,western_union,COAC SAN MIGUEL DE PALLATANGA,,Pallatanga,CHIMBORAZO,,EC,+593 3-291-9327,https://location.westernunion.com/ec/chimborazo/pallatanga/d5724c0cd0f4040957f90ff7e865032b,Mo-Fr 08:30-17:00; Sa 08:30-12:00,Western Union,Q861042
cae3e235bbdbe4e77729a80e933dfb17,western_union,FH005 GARCIA MORENO PALLATANGA,,Pallatanga,CHIMBORAZO,,EC,+593 4-371-0050,https://location.westernunion.com/ec/chimborazo/pallatanga/cae3e235bbdbe4e77729a80e933dfb17,Mo-Su 08:00-21:00,Western Union,Q861042
7faea402d15bb8c561aab34f8aac82d7,western_union,SRNP MI TIENDA 2 PALLATANGA,,Pallatanga,CHIMBORAZO,,EC,+593 4-371-0050,https://location.westernunion.com/ec/chimborazo/pallatanga/7faea402d15bb8c561aab34f8aac82d7,Mo-Su 08:00-21:00,Western Union,Q861042
071aba0cf30ecb4e1e644d147c9a898b,western_union,CIS PAGO AGIL COAC SUMAC LLACTA GUAMOTE,,Guamote,CHIMBORAZO,,EC,+593 3-296-3865,https://location.westernunion.com/ec/chimborazo/guamote/071aba0cf30ecb4e1e644d147c9a898b,Mo-Su 08:00-20:00,Western Union,Q861042
9ac61633cc72a54486d3af507202c713,western_union,CIS PAGO AGIL LUIS BASTIDAS,,Guamote,CHIMBORAZO,,EC,+593 99 853 0528,https://location.westernunion.com/ec/chimborazo/guamote/9ac61633cc72a54486d3af507202c713,Mo-Su 08:00-20:00,Western Union,Q861042
b608cd27d02fabb13d1c58715c4805bb,western_union,CIS GDP LIBRERIA MARTITA,,Guamote,CHIMBORAZO,,EC,(+0593) 9-998386003,https://location.westernunion.com/ec/chimborazo/guamote/b608cd27d02fabb13d1c58715c4805bb,Mo-Sa 08:30-18:30; Su 09:00-17:00,Western Union,Q861042
52e6a92af6df7e76b2ebccb9f40db193,western_union,CIS PAGO AGIL COOP GUAMOTE,,Guamote,CHIMBORAZO,,EC,(+593) 3-32916258,https://location.westernunion.com/ec/chimborazo/guamote/52e6a92af6df7e76b2ebccb9f40db193,Mo-Su 08:00-20:00,Western Union,Q861042
d72dc0a123618f0cb55b38a815f27c99,western_union,CIS PAG COAC MAQUITA CUSHUN GUAMOTE,,Guamote,CHIMBORAZO,,EC,+593 3-277-2988,https://location.westernunion.com/ec/chimborazo/guamote/d72dc0a123618f0cb55b38a815f27c99,Mo-Su 08:00-20:00,Western Union,Q861042
0a8bd1438c40045d05cff5c8a5212df2,western_union,CIS QUEZADA IRENE,,Guamote,CHIMBORAZO,,EC,(+0593) 9-990712750,https://location.westernunion.com/ec/chimborazo/guamote/0a8bd1438c40045d05cff5c8a5212df2,Mo-Fr 07:00-21:00; Sa 08:00-20:00; Su 09:00-19:00,Western Union,Q861042
f60d87caa2245b30102bd3a4b4c5b07c,western_union,CIS PAG COAC PADRE JULIAN LORENTE GUAMOT,,Guamote,CHIMBORAZO,,EC,(+0593) 996640294,https://location.westernunion.com/ec/chimborazo/guamote/f60d87caa2245b30102bd3a4b4c5b07c,Mo-Su 08:00-20:00,Western Union,Q861042
b065b803f79b8abef952d041430589df,western_union,SRNP IRCOSTEL CIA LTDA RIOBAMB,,Riobamba,CHIMBORAZO,,EC,+593 1800 937 837,https://location.westernunion.com/ec/chimborazo/riobamba/b065b803f79b8abef952d041430589df,Mo-Su 09:00-18:00,Western Union,Q861042
e8a70c64d1fd9e052517c69a28f5b8b1,western_union,ESPINOZA HERNANDEZ ANA GABRIELA,,Chimborazo,CHIMBORAZO,,EC,(+593) 98820720,https://location.westernunion.com/ec/chimborazo/chimborazo/e8a70c64d1fd9e052517c69a28f5b8b1,Mo-Su 08:00-20:00,Western Union,Q861042
64ca0bbd1222bf80135662f33d00182a,western_union,COAC MUSHUC RUNA LTDA,,Riobamba,CHIMBORAZO,,EC,+593 3-294-4784,https://location.westernunion.com/ec/chimborazo/riobamba/64ca0bbd1222bf80135662f33d00182a,Mo-Fr 08:00-18:00; Sa 08:00-14:00,Western Union,Q861042
4213130a5028a5c9c02157da9a17b227,western_union,COAC EDUCADORES DE CHIMBORAZO,,Riobamba,CHIMBORAZO,,EC,+593 3-294-1472,https://location.westernunion.com/ec/chimborazo/riobamba/4213130a5028a5c9c02157da9a17b227,Mo-Fr 09:00-18:00; Sa 08:00-13:00,Western Union,Q861042
5fae177d5475258b4704d9b585d9f135,western_union,COAC LLACTA PURA,,Riobamba,CHIMBORAZO,,EC,+593 3-296-8176,https://location.westernunion.com/ec/chimborazo/riobamba/5fae177d5475258b4704d9b585d9f135,Mo-Fr 08:00-17:00; Sa 08:00-12:00,Western Union,Q861042
01e975f5a23d9a01171f4bb2ea9de73e,western_union,COOPERATIVA DE AHORRO Y CREDITO INTERAN,,Riobamba,CHIMBORAZO,,EC,+593 4-371-0050,https://location.westernunion.com/ec/chimborazo/riobamba/01e975f5a23d9a01171f4bb2ea9de73e,Mo-Fr 08:00-18:00; Sa-Su 08:00-13:00,Western Union,Q861042
a619ed169dfb87b22e319ce5af98ae03,western_union,COMPUXPERT 2,,Riobamba,CHIMBORAZO,,EC,+593 3-294-4057,https://location.westernunion.com/ec/chimborazo/riobamba/a619ed169dfb87b22e319ce5af98ae03,Mo-Su 06:30-21:00,Western Union,Q861042
0278c3b932d9d2e5cb6da890576d2184,western_union,CIS PAG COAC CHIBULEO RIOBAMBA,,Riobamba,CHIMBORAZO,,EC,(+0593) 9-994166350,https://location.westernunion.com/ec/chimborazo/riobamba/0278c3b932d9d2e5cb6da890576d2184,Mo-Su 08:00-20:00,Western Union,Q861042
28e003eea86c93beaafbed76512b37d5,western_union,SRNP TIA 224 RIOBAMBA,,Riobamba,CHIMBORAZO,,EC,+593 4-259-8830,https://location.westernunion.com/ec/chimborazo/riobamba/28e003eea86c93beaafbed76512b37d5,Mo-Su 08:00-19:00,Western Union,Q861042
6b9d85aba40c743c383a6589e301f3d3,western_union,ACTIVA TIA 10 DE AGOSTO RIOBAMBA,,Riobamba,CHIMBORAZO,,EC,+593 3-295-1913,https://location.westernunion.com/ec/chimborazo/riobamba/6b9d85aba40c743c383a6589e301f3d3,Mo-Sa 09:00-17:00,Western Union,Q861042
e6355c3815662a000a598ca1bf798f3c,western_union,CIS FTO MUNICIPIO DE RIOBAMBA,,Riobamba,CHIMBORAZO,,EC,(+0593) 9-968490717,https://location.westernunion.com/ec/chimborazo/riobamba/e6355c3815662a000a598ca1bf798f3c,Mo-Fr 08:00-17:00,Western Union,Q861042
1e5c3369d739015e183d2d2220f5b11d,western_union,MUSHUC RUNA - RIOBAMBA,,Riobamba,CHIMBORAZO,,EC,+593 3-294-4784,https://location.westernunion.com/ec/chimborazo/riobamba/1e5c3369d739015e183d2d2220f5b11d,Mo-Fr 07:40-16:30,Western Union,Q861042
50d27ce9419a3136492df360b5ac58df,western_union,CIS GDP MAX,,Riobamba,CHIMBORAZO,,EC,(+593) 9-988449331,https://location.westernunion.com/ec/chimborazo/riobamba/50d27ce9419a3136492df360b5ac58df,Mo-Fr 08:30-19:00; Sa-Su 09:30-18:00,Western Union,Q861042
a460719b95d33ba89507dfb3c663fbee,western_union,CIS PAG COAC PADRE JULIAN LORENTE MAYORI,,Riobamba,CHIMBORAZO,,EC,(+0593) 996640294,https://location.westernunion.com/ec/chimborazo/riobamba/a460719b95d33ba89507dfb3c663fbee,Mo-Su 08:00-20:00,Western Union,Q861042
d840f133bec82968ac75fe04a4fbfb5e,western_union,MOROCHO JANETA MARIA DE LOURDES,,Riobamba,CHIMBORAZO,,EC,(+593) 2618365,https://location.westernunion.com/ec/chimborazo/riobamba/d840f133bec82968ac75fe04a4fbfb5e,Mo-Su 08:00-20:00,Western Union,Q861042
47fa5ac3cbc8f15d93a0a048f4e3fe15,western_union,SRNP GOOGLE UN MUNDO TECNOLOGICO,,Riobamba,CHIMBORAZO,,EC,+593 4-371-0050,https://location.westernunion.com/ec/chimborazo/riobamba/47fa5ac3cbc8f15d93a0a048f4e3fe15,Mo-Su 08:00-21:00,Western Union,Q861042
9c0a4f2bd2ca229bbdca3a53f9ac2614,western_union,4 DE OCTUBRE  - QUIMIAG.,,Riobamba,CHIMBORAZO,,EC,+593 3-234-0076,https://location.westernunion.com/ec/chimborazo/riobamba/9c0a4f2bd2ca229bbdca3a53f9ac2614,Mo-Fr 08:30-17:00,Western Union,Q861042
5749a3e8f4921ecd974c350f1541d050,western_union,CIS PAG COAC PADRE JULIAN LORENTE COLTA,,Colta,CHIMBORAZO,,EC,(+0593) 967391291,https://location.westernunion.com/ec/chimborazo/colta/5749a3e8f4921ecd974c350f1541d050,Mo-Su 08:00-20:00,Western Union,Q861042
0753b78e1fb28340e3e7ffb17dc8cda7,western_union,PORTA RADICAL,,Riobamba,CHIMBORAZO,,EC,+593 3-294-2708,https://location.westernunion.com/ec/chimborazo/riobamba/0753b78e1fb28340e3e7ffb17dc8cda7,Mo-Fr 08:00-16:00; Sa 09:00-13:00,Western Union,Q861042
c99bb53cf6be57b4bc2b8b286043b17e,western_union,CUMBRES HOTEL,,Riobamba,CHIMBORAZO,,EC,+593 3-294-0924,https://location.westernunion.com/ec/chimborazo/riobamba/c99bb53cf6be57b4bc2b8b286043b17e,Mo-Fr 09:00-19:00; Sa 09:00-16:00,Western Union,Q861042
9b31128f7a2dbd1689aef4b319ae8b3c,western_union,SERVICIOS PROFESIONALES,,Colta,CHIMBORAZO,,EC,+593 4-371-0050,https://location.westernunion.com/ec/chimborazo/colta/9b31128f7a2dbd1689aef4b319ae8b3c,Mo 07:00-22:00; Tu 07:00-20:00; We-Fr 07:00-22:00; Sa-Su 07:00-23:00,Western Union,Q861042
088e9c0c7507ed99b8df698ff1276241,western_union,CIS PAG COAC FINANCREDIT LTDA RIOBAMBA,,Riobamba,CHIMBORAZO,,EC,(+593) 9-980249950,https://location.westernunion.com/ec/chimborazo/riobamba/088e9c0c7507ed99b8df698ff1276241,Mo-Su 08:00-20:00,Western Union,Q861042
aa7a74c25c953c89bc1cfc4a85d93672,western_union,CIS VIL XIMENA LOPEZ,,Riobamba,CHIMBORAZO,,EC,(+0593) 9-982119880,https://location.westernunion.com/ec/chimborazo/riobamba/aa7a74c25c953c89bc1cfc4a85d93672,Mo-Su 08:00-20:00,Western Union,Q861042
51afde131609737bb90ce05858cd5dce,western_union,SRNP COAC MARIA INMACULADA AV FREIRE RIO,,Riobamba,CHIMBORAZO,,EC,+593 4-371-0050,https://location.westernunion.com/ec/chimborazo/riobamba/51afde131609737bb90ce05858cd5dce,Mo-Su 08:00-21:00,Western Union,Q861042
a89852546d916354ee6e13bd71349c3e,western_union,FARMACIAS FARMAS CITY,,Riobamba,CHIMBORAZO,,EC,+593 99 228 2273,https://location.westernunion.com/ec/chimborazo/riobamba/a89852546d916354ee6e13bd71349c3e,Mo-Sa 07:30-20:00,Western Union,Q861042
3ddc9c564fdec4b49fe5b03e92f10a5e,western_union,CIS PAG COAC CORPORACION CENTRO RIOBAMBA,,Riobamba,CHIMBORAZO,,EC,(+0593) 9-32966531,https://location.westernunion.com/ec/chimborazo/riobamba/3ddc9c564fdec4b49fe5b03e92f10a5e,Mo-Su 08:00-20:00,Western Union,Q861042
d02a9107b538840a95edb6204393c342,western_union,CIS PAG COAC SOL DE LOS ANDES LTDA CHIMB,,Riobamba,CHIMBORAZO,,EC,+593 3-294-8545,https://location.westernunion.com/ec/chimborazo/riobamba/d02a9107b538840a95edb6204393c342,Mo-Su 08:00-20:00,Western Union,Q861042
3a29362e819f55081b442104036bb67b,western_union,CIS FIA COAC ACCION TUNGURAHUA RIOBAMBA,,Riobamba,CHIMBORAZO,,EC,+593 3-392-0030,https://location.westernunion.com/ec/chimborazo/riobamba/3a29362e819f55081b442104036bb67b,Mo-Fr 08:00-18:00; Sa 08:00-13:00,Western Union,Q861042
5ba89e1c29974419ad6e5825e5a86fda,western_union,CIS PAG COAC PADRE JULIAN LORENTE RIOBAM,,Riobamba,CHIMBORAZO,,EC,(+0593) 996640294,https://location.westernunion.com/ec/chimborazo/riobamba/5ba89e1c29974419ad6e5825e5a86fda,Mo-Su 08:00-20:00,Western Union,Q861042
f6cf7c8c30da73da01a00bcf6a06bad8,western_union,SRNP COOP KULLKI WASI RIOBAMBA,,Riobamba,CHIMBORAZO,,EC,+593 3-296-4455,https://location.westernunion.com/ec/chimborazo/riobamba/f6cf7c8c30da73da01a00bcf6a06bad8,Mo-Fr 08:00-18:00,Western Union,Q861042
6e6acff9e9076a39f6fb3d9909e027d4,western_union,GLAMOUR,,Riobamba,CHIMBORAZO,,EC,+593 97 873 0789,https://location.westernunion.com/ec/chimborazo/riobamba/6e6acff9e9076a39f6fb3d9909e027d4,Mo-Fr 08:00-20:00; Sa 09:00-20:00; Su 10:00-14:00,Western Union,Q861042
3008017ca51264b601ef308e5e6116c8,western_union,MULTISERVICIOS CONTABLE VIRGEN DEL CISNE,,Riobamba,CHIMBORAZO,,EC,+593 4-371-0050,https://location.westernunion.com/ec/chimborazo/riobamba/3008017ca51264b601ef308e5e6116c8,Mo-Fr 07:00-19:00; Sa-Su 07:00-15:00,Western Union,Q861042
e2d4cb4ee51b21fb1ac083b270a1f51d,western_union,CIS GDP COMERCIAL NELLY Y HIJOS,,Riobamba,CHIMBORAZO,,EC,(+0593) 9-992969992,https://location.westernunion.com/ec/chimborazo/riobamba/e2d4cb4ee51b21fb1ac083b270a1f51d,Mo-Fr 08:30-19:00; Sa-Su 09:30-18:00,Western Union,Q861042
de2a244c2afdbdf0c022016bfe05d41f,western_union,CIS PAGO AGIL MULTICOMERCIO PRESTIGE,,Riobamba,CHIMBORAZO,,EC,(+0593) 9-989393699,https://location.westernunion.com/ec/chimborazo/riobamba/de2a244c2afdbdf0c022016bfe05d41f,Mo-Su 08:00-20:00,Western Union,Q861042
f702434cb9e06b8322b6b3b10347a691,western_union,SRNP T Y T SERVICIOS CONTABLE RIOBAMBA,,Riobamba,CHIMBORAZO,,EC,+593 4-371-0050,https://location.westernunion.com/ec/chimborazo/riobamba/f702434cb9e06b8322b6b3b10347a691,Mo-Su 08:00-21:00,Western Union,Q861042
54351ba229a7a21ec8eaf987c3ceb1af,western_union,4 DE OCTUBRE  - LA DOLOROSA,,Riobamba,CHIMBORAZO,,EC,+593 3-294-2788,https://location.westernunion.com/ec/chimborazo/riobamba/54351ba229a7a21ec8eaf987c3ceb1af,Mo-Fr 08:30-17:00,Western Union,Q861042
2087a26dc1e4c82f4bc218c920038484,western_union,SRNP BCO PACIFICO LA DOLOROSA,,Riobamba,CHIMBORAZO,,EC,+593 1800 937 837,https://location.westernunion.com/ec/chimborazo/riobamba/2087a26dc1e4c82f4bc218c920038484,Mo-Su 09:00-17:00,Western Union,Q861042
78541d9dada91eb39d5c48c29fab2540,western_union,MULTISERVICIOS PLANET,,Riobamba,CHIMBORAZO,,EC,+593 98 659 0295,https://location.westernunion.com/ec/chimborazo/riobamba/78541d9dada91eb39d5c48c29fab2540,Mo-Su 06:00-23:00,Western Union,Q861042
0adc26c6adc0e008429675ce0598ed8c,western_union,SRNP DIF CA FI013 JERUSALEM #2 RIOBAMBA,,Riobamba,Chimborazo,,EC,+593 4-371-0050,https://location.westernunion.com/ec/chimborazo/riobamba/0adc26c6adc0e008429675ce0598ed8c,Mo-Su 08:00-21:00,Western Union,Q861042
e3e50c0acbc16c7a25687d7bc8aba638,western_union,COOPROGRESO - RIOBAMBA,,Riobamba,CHIMBORAZO,,EC,+593 3-373-0650,https://location.westernunion.com/ec/chimborazo/riobamba/e3e50c0acbc16c7a25687d7bc8aba638,Mo-Fr 08:00-16:00; Sa-Su 08:30-13:00,Western Union,Q861042
ad99c9724c91f265e81c3ed7750ce727,western_union,SRNP ZUMRECAUDA CPN AG RIOBAMBA,,Riobamba,CHIMBORAZO,,EC,+593 4-371-0050,https://location.westernunion.com/ec/chimborazo/riobamba/ad99c9724c91f265e81c3ed7750ce727,Mo-Su 08:00-21:00,Western Union,Q861042
e9c416935d5fe42ba0f7c40f95baa6ae,western_union,SRNP BCO PACIFICO PRINCIPAL RIOBAMBA,,Riobamba,CHIMBORAZO,,EC,+593 1800 937 837,https://location.westernunion.com/ec/chimborazo/riobamba/e9c416935d5fe42ba0f7c40f95baa6ae,Mo-Su 09:00-17:00,Western Union,Q861042
2c05c94197bd4b2482d496734d2a7f94,western_union,DECOR MOTORS,,Riobamba,CHIMBORAZO,,EC,+593 4-371-0050,https://location.westernunion.com/ec/chimborazo/riobamba/2c05c94197bd4b2482d496734d2a7f94,Mo-Su 08:00-19:00,Western Union,Q861042
baf21c4f35321bf4da9c72ab82942555,western_union,SRNP COOP P A I S LTDA RIOBAMBA,,Riobamba,CHIMBORAZO,,EC,+593 4-371-0050,https://location.westernunion.com/ec/chimborazo/riobamba/baf21c4f35321bf4da9c72ab82942555,Mo-Su 08:00-21:00,Western Union,Q861042
f3decdaabbd986ed938dcaa7b7ac34d2,western_union,CIS FIA COAC INDIGENA SAC RIOBAMBA,,Riobamba,CHIMBORAZO,,EC,(+593) 2-32393498,https://location.westernunion.com/ec/chimborazo/riobamba/f3decdaabbd986ed938dcaa7b7ac34d2,Mo-Fr 08:00-18:00; Sa 08:00-13:00,Western Union,Q861042
c271f9a61e3bf84bc8db628081c79d8a,western_union,CIS FIA COAC CHUNCHI RIOBAMBA,,Riobamba,CHIMBORAZO,,EC,+593 98 211 0399,https://location.westernunion.com/ec/chimborazo/riobamba/c271f9a61e3bf84bc8db628081c79d8a,Mo-Fr 08:00-17:30; Sa 08:00-13:00,Western Union,Q861042
f4ebdf41a47daf988366f8186cffda40,western_union,CIS COAC 27 DE NOVIEMBRE MATRIZ,,Riobamba,CHIMBORAZO,,EC,(+0593) 3-2965801,https://location.westernunion.com/ec/chimborazo/riobamba/f4ebdf41a47daf988366f8186cffda40,Mo-Fr 08:30-17:30; Sa 09:00-14:00,Western Union,Q861042
065e9219792d16423031f84c0980ab8a,western_union,CREDI YA,,Riobamba,CHIMBORAZO,,EC,+593 4-371-0050,https://location.westernunion.com/ec/chimborazo/riobamba/065e9219792d16423031f84c0980ab8a,Mo-Fr 08:00-18:00; Sa-Su 09:00-13:00,Western Union,Q861042
e85fdbf775c085ed7ea28113e5f8434b,western_union,CIS PAGO AGIL COAC SUMAC LLACTA MATRIZ,,Riobamba,CHIMBORAZO,,EC,+593 3-296-3865,https://location.westernunion.com/ec/chimborazo/riobamba/e85fdbf775c085ed7ea28113e5f8434b,Mo-Su 08:00-20:00,Western Union,Q861042
23d011ed10c9f6afccbf8f70997b095f,western_union,CACPECO - RIOBAMBA CENTRO,,Riobamba,CHIMBORAZO,,EC,+593 3-294-5200,https://location.westernunion.com/ec/chimborazo/riobamba/23d011ed10c9f6afccbf8f70997b095f,Mo-Fr 08:00-17:00; Sa 08:00-13:00,Western Union,Q861042
55382a2e30a6f7dcb657acdd1748525a,western_union,COAC CRECER WINARI,,Riobamba,CHIMBORAZO,,EC,+593 3-295-2425,https://location.westernunion.com/ec/chimborazo/riobamba/55382a2e30a6f7dcb657acdd1748525a,Mo-Fr 08:00-18:00; Sa 08:00-14:00,Western Union,Q861042
2a8cddb5c17f5e693e15344a33478d4e,western_union,CIS PAGO AGIL COAC PUSHAK RUNA RIOBAMBA,,Riobamba,CHIMBORAZO,,EC,(+593) 3-2994780-106,https://location.westernunion.com/ec/chimborazo/riobamba/2a8cddb5c17f5e693e15344a33478d4e,Mo-Su 08:00-20:00,Western Union,Q861042
d38872b1277149d911bcc44000d65a82,western_union,BANCO DE AUSTRO RIO BAMBA,,Riobamba,CHIMBORAZO,,EC,+593 3-296-0917,https://location.westernunion.com/ec/chimborazo/riobamba/d38872b1277149d911bcc44000d65a82,Mo-Su 09:00-20:00,Western Union,Q861042
c585b2781b2b80229047bdd8b65680f7,western_union,FLAMINGO EXPRESS GUAMOTE,,Guamote,CHIMBORAZO,,EC,+593 4-371-0050,https://location.westernunion.com/ec/chimborazo/guamote/c585b2781b2b80229047bdd8b65680f7,Mo-Su 08:00-18:00,Western Union,Q861042
f076affee84c2b88996c65e782a0bf57,western_union,COAC NUEVA ESPERANZA CALPI,,Riobamba,CHIMBORAZO,,EC,+593 2-362-0199,https://location.westernunion.com/ec/chimborazo/riobamba/f076affee84c2b88996c65e782a0bf57,Mo-Su 08:20-17:30,Western Union,Q861042
daa1c756f6b1bbd80b6747af61f1f89b,western_union,CIS PAG COAC PADRE JULIAN LORENTE RIOBAM,,Riobamba,CHIMBORAZO,,EC,(+0593) 996640294,https://location.westernunion.com/ec/chimborazo/riobamba/daa1c756f6b1bbd80b6747af61f1f89b,Mo-Su 08:00-20:00,Western Union,Q861042
7db55ae0306a92b33b9df73d7cddaf86,western_union,COAC NUEVA ESPERANZA RIOBAMBA,,Riobamba,CHIMBORAZO,,EC,+593 2-394-2542,https://location.westernunion.com/ec/chimborazo/riobamba/7db55ae0306a92b33b9df73d7cddaf86,Mo-Su 08:00-17:30,Western Union,Q861042
c88b009678b1a439dd2abd9270dcc251,western_union,COMERCIAL PACO,,Chambo,CHIMBORAZO,,EC,+593 98 941 9404,https://location.westernunion.com/ec/chimborazo/chambo/c88b009678b1a439dd2abd9270dcc251,Mo-Su 06:00-22:00,Western Union,Q861042
f787f7f241e89f3089e71887f51f8b87,western_union,4 DE OCTUBRE  - MATRIZ,,Riobamba,CHIMBORAZO,,EC,+593 3-237-7107,https://location.westernunion.com/ec/chimborazo/riobamba/f787f7f241e89f3089e71887f51f8b87,Mo-Fr 08:30-17:00,Western Union,Q861042
5f2dd0084d0698d20220770970328e02,western_union,4 DE OCTUBRE  - CAJABAMBA,,Colta,CHIMBORAZO,,EC,+593 3-291-2430,https://location.westernunion.com/ec/chimborazo/colta/5f2dd0084d0698d20220770970328e02,Mo-Fr 08:30-17:00,Western Union,Q861042
769c53949aa721c86acffa8574334cc3,western_union,SRNP FE FARM ECONOMICAS PARQUE AYORA R,,Riobamba,CHIMBORAZO,,EC,(+593) 01-3710050,https://location.westernunion.com/ec/chimborazo/riobamba/769c53949aa721c86acffa8574334cc3,Mo-Su 08:00-21:00,Western Union,Q861042
005cce92853ce4ee3cf44957f5626499,western_union,CIS GDP VIVERES CALDERON,,Guano,CHIMBORAZO,,EC,+593 99 575 9736,https://location.westernunion.com/ec/chimborazo/guano/005cce92853ce4ee3cf44957f5626499,Mo-Fr 08:30-19:00; Sa-Su 09:30-18:00,Western Union,Q861042
34f27a8239b5fadef14455867e840fad,western_union,SRNP FE FARM ECONOMICAS VIDA SANA GUANO,,Guano,CHIMBORAZO,,EC,+593 4-371-0050,https://location.westernunion.com/ec/chimborazo/guano/34f27a8239b5fadef14455867e840fad,Mo-Su 08:00-21:00,Western Union,Q861042
bb4948ff21c22ef73117edefd474ac2d,western_union,CIS FIA COAC NUEVA ESPERANZA PENIPE,,Penipe,CHIMBORAZO,,EC,+593 3-290-7050,https://location.westernunion.com/ec/chimborazo/penipe/bb4948ff21c22ef73117edefd474ac2d,Mo-Su 08:00-17:30,Western Union,Q861042
3305447ad24ac409f164569be248675a,western_union,COOPERATIVA DE AHORRO Y CRED LLACTA PURA,,Penipe,CHIMBORAZO,,EC,+593 98 759 7639,https://location.westernunion.com/ec/chimborazo/penipe/3305447ad24ac409f164569be248675a,Mo-Fr 08:00-19:00; Su 08:00-15:00,Western Union,Q861042
838a5f112855682c37484b3159f76516,western_union,COAC NUEVA ESPERANZA LTDA SAN ANDRES,,San Andres,CHIMBORAZO,,EC,+593 2-290-4362,https://location.westernunion.com/ec/chimborazo/san-andres/838a5f112855682c37484b3159f76516,Mo-Su 08:00-20:00,Western Union,Q861042
af9667968435c5889f202ae9f28d3a6c,western_union,CIS PAGO AGIL MULTICOPIAS,,Guano,CHIMBORAZO,,EC,(+0593) 9-997209446,https://location.westernunion.com/ec/chimborazo/guano/af9667968435c5889f202ae9f28d3a6c,Mo-Su 08:00-20:00,Western Union,Q861042
353a26b2f5a5142b9ef89109eeea3e61,western_union,FH004 20 DE DICIEMBRE GUANO,,Guano,CHIMBORAZO,,EC,+593 4-371-0050,https://location.westernunion.com/ec/chimborazo/guano/353a26b2f5a5142b9ef89109eeea3e61,Mo-Su 08:00-21:00,Western Union,Q861042
896e84e83069a85237abfc70a22a1641,western_union,CIS PAG COAC 9 DE OCTUBRE LTDA RIOBAMBA,,Riobamba,CHIMBORAZO,,EC,(+593) 9-992733239,https://location.westernunion.com/ec/chimborazo/riobamba/896e84e83069a85237abfc70a22a1641,Mo-Su 08:00-20:00,Western Union,Q861042
f6386c967688c98eb86e5f7f636dae97,western_union,FH003 TERM TERRESTRE RIOBAMBA,,Riobamba,CHIMBORAZO,,EC,+593 4-371-0050,https://location.westernunion.com/ec/chimborazo/riobamba/f6386c967688c98eb86e5f7f636dae97,Mo-Su 08:00-21:00,Western Union,Q861042
add0e4aba0dee31609b8b92cb3c1b0f0,western_union,CIS FTO TERMINAL TERRESTRE DE RIOBAMBA,,Riobamba,CHIMBORAZO,,EC,(+0593) 9-968490717,https://location.westernunion.com/ec/chimborazo/riobamba/add0e4aba0dee31609b8b92cb3c1b0f0,Mo-Fr 08:00-17:00,Western Union,Q861042
b5842d210a76dd5277886a71bba980c6,western_union,COAC VISANDES RIOBAMBA,,Riobamba,CHIMBORAZO,,EC,+593 3-370-0260,https://location.westernunion.com/ec/chimborazo/riobamba/b5842d210a76dd5277886a71bba980c6,Mo-Su 08:00-20:00,Western Union,Q861042
6ebf5513b690a4898611600955a5a6ab,western_union,FH002 LOS SAUCES RIOBAMBA,,Riobamba,CHIMBORAZO,,EC,+593 4-371-0050,https://location.westernunion.com/ec/chimborazo/riobamba/6ebf5513b690a4898611600955a5a6ab,Mo-Su 08:00-21:00,Western Union,Q861042
c2e62eb255a02df14ada6e4708c7f93f,western_union,COMPUXPERT 4,,Riobamba,CHIMBORAZO,,EC,+593 3-294-4057,https://location.westernunion.com/ec/chimborazo/riobamba/c2e62eb255a02df14ada6e4708c7f93f,Mo-Su 06:30-21:00,Western Union,Q861042
0c6449b951af65372ae8106e884ca31f,western_union,SRNP CLARO SERTEL RIOBAMBA,,Riobamba,CHIMBORAZO,,EC,+593 1800 937 837,https://location.westernunion.com/ec/chimborazo/riobamba/0c6449b951af65372ae8106e884ca31f,Mo-Su 09:00-19:00,Western Union,Q861042
6559c665179f3ffada523f25bed36957,western_union,OSCUS LTDA. - RIOBAMBA,,Riobamba,CHIMBORAZO,,EC,+593 3-295-4937,https://location.westernunion.com/ec/chimborazo/riobamba/6559c665179f3ffada523f25bed36957,Mo-Fr 08:00-17:00,Western Union,Q861042
51ec5bbb925478ee83e16db40424f3fc,western_union,SRNP FE MEDICITY VELOZ RIOBAMBA,,Riobamba,CHIMBORAZO,,EC,+593 4-371-0050,https://location.westernunion.com/ec/chimborazo/riobamba/51ec5bbb925478ee83e16db40424f3fc,Mo-Su 08:00-21:00,Western Union,Q861042
34f653f3433b8168c30908abff94b648,western_union,CIS COAC JESUS DE NAZARETH LTDA,,Guano,CHIMBORAZO,,EC,+593 98 309 0399,https://location.westernunion.com/ec/chimborazo/guano/34f653f3433b8168c30908abff94b648,Mo-Fr 07:30-19:30; Sa 08:30-18:30; Su 09:00-14:00,Western Union,Q861042
f08a66802db10ef09384f3dfc7affb50,western_union,CIS PAGO AGIL LUIS JAYA,,Guano,CHIMBORAZO,,EC,+593 96 270 4010,https://location.westernunion.com/ec/chimborazo/guano/f08a66802db10ef09384f3dfc7affb50,Mo-Su 08:00-20:00,Western Union,Q861042
1d308c68e81ea324d468f9addd6deb7f,western_union,SRNP BCO PACIFICO PASEO SHOP RIOBAMBA,,Riobamba,CHIMBORAZO,,EC,+593 1800 937 837,https://location.westernunion.com/ec/chimborazo/riobamba/1d308c68e81ea324d468f9addd6deb7f,Mo-Su 09:00-17:00,Western Union,Q861042
f99aa3b649e5fce28444cf8faa7e88f8,western_union,SRNP JULISSA MENDOZA RIOBAMBA,,Riobamba,CHIMBORAZO,,EC,+593 4-371-0050,https://location.westernunion.com/ec/chimborazo/riobamba/f99aa3b649e5fce28444cf8faa7e88f8,Mo-Su 08:00-21:00,Western Union,Q861042
796c443aba25f06a0acae1410d78199a,western_union,COAC SAN JORGE LTDA AGENCIA,,Riobamba,CHIMBORAZO,,EC,+593 3-295-0162,https://location.westernunion.com/ec/chimborazo/riobamba/796c443aba25f06a0acae1410d78199a,Mo-Fr 09:00-17:30,Western Union,Q861042
1ebe0624c58d00d59e2a6cfaef75532d,western_union,CIS PLATINUM,,Riobamba,CHIMBORAZO,,EC,(+0593) 9-960835098,https://location.westernunion.com/ec/chimborazo/riobamba/1ebe0624c58d00d59e2a6cfaef75532d,Mo-Fr 07:00-21:00; Sa 08:00-20:00; Su 09:00-19:00,Western Union,Q861042
060c81363f649769fe9ef411ee0d672a,western_union,4 DE OCTUBRE  - POLITECNICA,,Riobamba,CHIMBORAZO,,EC,+593 3-231-7656,https://location.westernunion.com/ec/chimborazo/riobamba/060c81363f649769fe9ef411ee0d672a,Mo-Fr 08:30-17:00,Western Union,Q861042
eba10e0016c3a213f9de3fc3570b854a,western_union,CIS FIA COAC CREDIAMIGO RIOBAMBA,,Riobamba,CHIMBORAZO,,EC,(+593) 9-962395811,https://location.westernunion.com/ec/chimborazo/riobamba/eba10e0016c3a213f9de3fc3570b854a,Mo-Fr 08:00-17:00; Sa 08:00-14:00,Western Union,Q861042
8e482eb8e87e46464a19b557bc787216,western_union,CIS GDP FARMACIA SURTIFARMAX,,Riobamba,CHIMBORAZO,,EC,+593 99 269 2210,https://location.westernunion.com/ec/chimborazo/riobamba/8e482eb8e87e46464a19b557bc787216,Mo-Fr 08:30-19:00; Sa-Su 09:30-18:00,Western Union,Q861042
90c4141478d2e027b0874d8868b5a587,western_union,CIS FUL MULTISERVICIOS CASA DEL FRENTE,,Riobamba,CHIMBORAZO,,EC,+593 98 246 5213,https://location.westernunion.com/ec/chimborazo/riobamba/90c4141478d2e027b0874d8868b5a587,Mo-Fr 08:30-19:00; Sa-Su 09:30-18:00,Western Union,Q861042
32a547a1e5fcbf359307a5b4d2058859,western_union,FRAPPE NET,,Riobamba,CHIMBORAZO,,EC,+593 99 921 0043,https://location.westernunion.com/ec/chimborazo/riobamba/32a547a1e5fcbf359307a5b4d2058859,Mo-Su 07:00-20:00,Western Union,Q861042
f91435bc6e000cde113908367d994a6a,western_union,CIS GDP FARMACIA PUNTO AZUL,,Riobamba,CHIMBORAZO,,EC,(+593) 9-939505790,https://location.westernunion.com/ec/chimborazo/riobamba/f91435bc6e000cde113908367d994a6a,Mo-Fr 08:30-19:00; Sa-Su 09:30-18:00,Western Union,Q861042
bd82fcd7619823c8108655d92abcb488,western_union,SRNP COAC MARIA INMACULADA AV CHAVEZ RIO,,Riobamba,CHIMBORAZO,,EC,+593 4-371-0050,https://location.westernunion.com/ec/chimborazo/riobamba/bd82fcd7619823c8108655d92abcb488,Mo-Su 08:00-21:00,Western Union,Q861042
69280a66961a8e6f191cbbea9cdd35f9,western_union,SRNP MEGATECH RIOBAMBA,,Riobamba,CHIMBORAZO,,EC,+593 4-371-0050,https://location.westernunion.com/ec/chimborazo/riobamba/69280a66961a8e6f191cbbea9cdd35f9,Mo-Su 08:00-21:00,Western Union,Q861042
87082afc006285a6299bc1c5bd26228c,western_union,ACTIVA MC EL PASEO RIOBAMBA,,Riobamba,CHIMBORAZO,,EC,+593 1800 937 837,https://location.westernunion.com/ec/chimborazo/riobamba/87082afc006285a6299bc1c5bd26228c,Mo-Sa 09:00-18:00; Su 09:00-19:00,Western Union,Q861042
6d9aa8dfdfa5c08df92c7a6ae344f1d1,western_union,CIS GDP DENNYS GUARANGO,,Riobamba,CHIMBORAZO,,EC,(+593) 9-994540405,https://location.westernunion.com/ec/chimborazo/riobamba/6d9aa8dfdfa5c08df92c7a6ae344f1d1,Mo-Fr 08:30-19:00; Sa-Su 09:30-18:00,Western Union,Q861042
fca1a39c565db873aa1ab537cd2fbb6b,western_union,INTERNET Y COPIAS SAN MARTIN,,Riobamba,CHIMBORAZO,,EC,+593 4-371-0050,https://location.westernunion.com/ec/chimborazo/riobamba/fca1a39c565db873aa1ab537cd2fbb6b,Mo-Fr 09:00-18:00; Sa 09:00-14:00; Su 09:00-13:00,Western Union,Q861042
6bd49083b6ad82bf04498953a99715aa,western_union,COOP CREDIL RIOBAMBA,,Riobamba,CHIMBORAZO,,EC,+593 3-296-0535,https://location.westernunion.com/ec/chimborazo/riobamba/6bd49083b6ad82bf04498953a99715aa,Mo-Fr 08:00-17:30; Sa 08:00-13:00,Western Union,Q861042
46176691a36a0e76892886b1ec23f856,western_union,SRNP TIA 623 RIOBAMBA II,,Riobamba,CHIMBORAZO,,EC,+593 4-371-0050,https://location.westernunion.com/ec/chimborazo/riobamba/46176691a36a0e76892886b1ec23f856,Mo-Su 08:00-21:00,Western Union,Q861042
d756d486436591655cb34f99ca628cf8,western_union,4 DE OCTUBRE  - PENIPE,,Penipe,CHIMBORAZO,,EC,+593 3-290-7102,https://location.westernunion.com/ec/chimborazo/penipe/d756d486436591655cb34f99ca628cf8,Mo-Fr 08:30-17:00,Western Union,Q861042
3bc2d7537ca565358a01eb3d54d55a6d,western_union,SRNP LA TIENDA DEL VESHY RIOBA,,Riobamba,CHIMBORAZO,,EC,+593 1800 937 837,https://location.westernunion.com/ec/chimborazo/riobamba/3bc2d7537ca565358a01eb3d54d55a6d,Mo-Sa 08:00-20:00; Su 09:00-19:00,Western Union,Q861042
52d1690d6a07314ce5e069d30ea5bf08,western_union,CACPECO - RIOBAMBA NORTE,,Riobamba,CHIMBORAZO,,EC,+593 3-296-1197,https://location.westernunion.com/ec/chimborazo/riobamba/52d1690d6a07314ce5e069d30ea5bf08,Mo-Fr 08:00-17:00; Sa 08:00-13:00,Western Union,Q861042
7babfce284ccdca42df9025c97dce200,western_union,SRNP COAC MARIA INMACULADA AV CHILE RIO,,Riobamba,CHIMBORAZO,,EC,+593 4-371-0050,https://location.westernunion.com/ec/chimborazo/riobamba/7babfce284ccdca42df9025c97dce200,Mo-Su 08:00-21:00,Western Union,Q861042
