Ref,Spider,Name,Address,City,State,Zipcode,Country,Phone,Website,Hours,Brand,WikiData
816,aaa,Jackson,,Jackson,CA,,US,+1 209-223-6900,,,American Automobile Association,Q463436
956,anytime_fitness,Anytime Fitness,,Jackson,CA,,US,+1 209-223-3636,https://www.anytimefitness.com/gyms/956/jackson-ca-95642/,,Anytime Fitness,Q4778364
6228,autozone_us,AutoZone Auto Parts Jackson,,Jackson,CA,,US,+1 209-257-1787,https://www.autozone.com/locations/ca/jackson/11201-prospect-dr.html,Mo-Sa 07:30-20:00; Su 08:00-20:00,AutoZone,Q4826087
https://locators.bankofamerica.com/ca/jackson/financial-centers-jackson-8311.html,bankofamerica,Bank of America Financial Center & Walk-Up ATM | Jackson,,Jackson,CA,,US,+1 209-223-0561,https://locators.bankofamerica.com/ca/jackson/financial-centers-jackson-8311.html,Mo-Fr 09:00-16:00,Bank of America,Q487907
https://locations.baskinrobbins.com/ca/jackson/11960-w-highway-88-361183-br,baskin_robbins_us,Baskin-Robbinsâ„¢,,Jackson,CA,,US,+1 209-223-5422,https://locations.baskinrobbins.com/ca/jackson/11960-w-highway-88-361183-br,Mo-Su 10:00-21:00,Baskin-Robbins,Q584601
89246,bluerhino,Lowe's #2335,,Jackson,CA,,US,+1 209-223-6140,,,Blue Rhino,Q65681213
218713,bluerhino,BPS Petro Inc,,Jackson,CA,,US,+1 209-223-1986,,,Blue Rhino,Q65681213
1102437,carlsjr_us,Carl's Jr.,,Jackson,CA,,US,+1 209-257-1938,https://locations.carlsjr.com/ca/jackson/11230-prospect-dr,,Carl's Jr.,Q1043486
376067,chevron,Chevron Station #376067,306 SUTTER STREET,JACKSON,CA,,US,+1 209-223-3160,,,Chevron,Q319642
36096,citi,ATM BANK OF MARIN,,Jackson,CA,,US,,,,Citibank,Q857063
51595,citi,ATM CVS,,Jackson,CA,,US,,,,Citibank,Q857063
34673,citi,ATM Ampm,,Jackson,CA,,US,,,,Citibank,Q857063
,credit_union_us,Golden 1 CU,,Jackson,CA,,US,+1 877-465-3361,,Mo-Fr 10:00-05:00; Sa 10:00-02:00,,
80017108,cricket_wireless,Cricket Wireless Authorized Retailer,,Jackson,CA,,US,+1 209-257-9561,https://www.cricketwireless.com/stores/ll/US/CA/Jackson/11984-State-Highway-88,Mo-Sa 10:00-19:00; Su 12:00-17:00,Cricket Wireless,Q5184987
246521,dennys,Denny's,,JACKSON,CA,,US,+1 209-257-1550,https://locations.dennys.com/CA/JACKSON/246521,Mo-Su 05:00-24:00,Denny's,Q1189695
https://www.edwardjones.com/us-en/financial-advisor/danelle-dix,edwardjones,Danelle R Dix,,Jackson,CA,,US,+1 209-223-3186,https://www.edwardjones.com/us-en/financial-advisor/danelle-dix,,Edward Jones,Q5343830
E13040,enterprise,Jackson,,Jackson,CA,,US,+1 209-223-4200,,,Enterprise Rent-A-Car,Q17085454
https://salons.greatclips.com/us/ca/jackson/12070-industry-blvd,greatclips,Great Clips,,Jackson,CA,,US,+1 209-223-0050,https://salons.greatclips.com/us/ca/jackson/12070-industry-blvd,Mo-Fr 08:00-19:00; Sa 09:00-18:00; Su 09:00-17:00,Great Clips,Q5598967
4250,h_r_block,H&R Block,,Jackson,CA,,US,+1 209-223-2155,https://www.hrblock.com/local-tax-offices/california/jackson/11960-w-hwy-88/4250/,,H&R Block,Q5627799
https://locations.jackinthebox.com/us/ca/jackson/11222-old-mill-ln,jackinthebox,Jack in the Box,,Jackson,CA,,US,+1 209-223-7800,https://locations.jackinthebox.com/us/ca/jackson/11222-old-mill-ln,Mo-Su 06:00-02:00,Jack in the Box,Q1538507
https://locations.jamba.com/#868-Jamba,jambajuice,Jamba Amador Ridge,,Jackson,CA,,US,+1 209-257-1668,https://locations.jamba.com/ca/jackson/12240-industry-blvd,Mo-Sa 07:00-19:00; Su 08:00-19:00,Jamba Juice,Q3088784
2441,joann_us,JOANN Fabric and Crafts,,Jackson,CA,,US,+1 209-257-1880,https://stores.joann.com/ca/jackson/2441/,Mo-Sa 09:00-19:00; Su 10:00-18:00,JOANN,Q6203968
https://healthy.kaiserpermanente.org/northern-california/facilities/mact-health-board-jackson-134407,kaiser_permanente_us,MACT Health Board - Jackson,,Jackson,CA,,US,+1 209-257-2400,https://healthy.kaiserpermanente.org/northern-california/facilities/mact-health-board-jackson-134407,,Kaiser Permanente,Q1721601
https://locations.kfc.com/#11246817,kfc,Chicken Nuggets Near Jackson,,Jackson,CA,,US,,https://locations.kfc.com/ca/jackson/531-highway-49/chickennugget,Mo-Su 10:00-21:00,KFC,Q524757
44021,little_free_library,Nicole Mulford #44021 Jackson CA,,Jackson,CA,,US,,,,Little Free Library,Q6650101
56451,little_free_library,meg newell #56451 jackson CA,,jackson,CA,,US,,,,Little Free Library,Q6650101
336867,little_free_library,Joni Drake #336867 Jackson CA #336867 Jackson CA,,Jackson,CA,,US,,,,Little Free Library,Q6650101
66042714,moneygram,LONGS/CVS - #9233,,JACKSON,CA,,US,+1 209-223-2433,,Mo-Sa 08:00-22:00; Su 08:00-20:00,MoneyGram,Q1944412
https://locations.oreillyauto.com/ca/jackson/check-engine-light-testing-3827.html,oreilly,Your Jackson O'Reilly Auto Parts Store,,Jackson,CA,,US,+1 209-223-3256,https://locations.oreillyauto.com/ca/jackson/check-engine-light-testing-3827.html,Mo-Sa 07:30-21:00; Su 08:00-20:00,O'Reilly Auto Parts,Q7071951
https://locations.oreillyauto.com/ca/jackson/wiper-installation-3827.html,oreilly,Your Jackson O'Reilly Auto Parts Store,,Jackson,CA,,US,+1 209-223-3256,https://locations.oreillyauto.com/ca/jackson/wiper-installation-3827.html,Mo-Sa 07:30-21:00; Su 08:00-20:00,O'Reilly Auto Parts,Q7071951
https://locations.oreillyauto.com/ca/jackson/battery-testing-3827.html,oreilly,Your Jackson O'Reilly Auto Parts Store,,Jackson,CA,,US,+1 209-223-3256,https://locations.oreillyauto.com/ca/jackson/battery-testing-3827.html,Mo-Sa 07:30-21:00; Su 08:00-20:00,O'Reilly Auto Parts,Q7071951
https://locations.oreillyauto.com/ca/jackson/autopartes-3827.html,oreilly,Tu tienda O'Reilly Auto Parts en Jackson,,Jackson,CA,,US,+1 209-223-3256,https://locations.oreillyauto.com/ca/jackson/autopartes-3827.html,Mo-Sa 07:30-21:00; Su 08:00-20:00,O'Reilly Auto Parts,Q7071951
https://locations.papamurphys.com/#15430293,papamurphys,Pizza Takeout & Delivery,,Jackson,CA,,US,+1 209-223-5052,https://locations.papamurphys.com/ca/jackson/777-south-highway-49,Mo-Th 10:00-20:00; Fr-Sa 10:00-20:30; Su 10:00-20:00,Papa Murphy's,Q7132349
1348,round_table_pizza,Jackson - Industry Blvd.,,Jackson ,CA,,US,+1 209-223-1232,https://ordering.roundtablepizza.com/site/glpjacksonca,,Round Table Pizza,Q7371139
https://local.pharmacy.safeway.com/#5673554,safeway,Safeway Pharmacy,,Jackson,CA,,US,+1 209-257-0786,https://local.pharmacy.safeway.com/safeway/ca/jackson/12110-industry-blvd.html,,Safeway,Q1508234
https://local.fuel.safeway.com/#9073313,safeway,Safeway Fuel Station,,Jackson,CA,,US,+1 209-257-0779,https://local.fuel.safeway.com/safeway/ca/jackson/12270-industry-blvd.html,Mo-Su 06:00-22:00,Safeway,Q1508234
https://local.safeway.com/#5604465,safeway,Safeway,,Jackson,CA,,US,+1 209-257-0779,https://local.safeway.com/safeway/ca/jackson/12110-industry-blvd.html,,Safeway,Q1508234
7107,speedee_us,"Jackson, CA",,Jackson,CA,,US,+1 209-223-1455,https://www.speedeeoil.com/jackson-ca-7107/,Mo-Sa 08:00-17:00,SpeeDee Oil Change and Auto Service,Q120537032
12060-industry-blvd,staples,"Staples Jackson, CA",,Jackson,CA,,US,,https://stores.staples.com/ca/jackson/12060-industry-blvd,Mo-Fr 09:00-20:00; Sa 09:00-19:00; Su 10:00-18:00,Staples,Q785943
https://restaurants.subway.com/#14905553,subway,Subway,,Jackson Amador,CA,,US,+1 209-223-1845,https://restaurants.subway.com/united-states/ca/jackson/525-highway-49,Mo-Su 08:00-21:00,Subway,Q244457
https://restaurants.subway.com/#14901071,subway,Subway Amador Plaza S/C,,Jackson Amador,CA,,US,+1 209-256-8110,https://restaurants.subway.com/united-states/ca/jackson/11960-state-hwy-88,Mo-Su 09:30-20:00,Subway,Q244457
https://www.sutterhealth.org/find-location/facility/sutter-amador-surgery-center,sutter_health,Sutter Amador Surgery Center,,Jackson,CA,,US,+1 209-223-5938,https://www.sutterhealth.org/find-location/facility/sutter-amador-surgery-center,,Sutter Health,Q7650154
https://www.sutterhealth.org/find-location/facility/sutter-amador-outpatient-services-jackson-lab,sutter_health,Sutter Amador Outpatient Services Jackson Lab,,Jackson,CA,,US,+1 866-961-8534,https://www.sutterhealth.org/find-location/facility/sutter-amador-outpatient-services-jackson-lab,Mo-Fr 06:30-16:00; Sa 08:00-12:00,Sutter Health,Q7650154
https://www.sutterhealth.org/find-location/facility/sutter-amador-hospital-imaging,sutter_health,Sutter Amador Hospital Imaging,,Jackson,CA,,US,+1 209-223-7560,https://www.sutterhealth.org/find-location/facility/sutter-amador-hospital-imaging,,Sutter Health,Q7650154
https://www.sutterhealth.org/find-location/facility/sutter-amador-hospital-emergency-department,sutter_health,Sutter Amador Hospital Emergency Department,,Jackson,CA,,US,+1 209-223-7555,https://www.sutterhealth.org/find-location/facility/sutter-amador-hospital-emergency-department,24/7,Sutter Health,Q7650154
https://www.sutterhealth.org/find-location/facility/sutter-amador-hospital-birth-center,sutter_health,Sutter Amador Hospital Birth Center,,Jackson,CA,,US,+1 209-223-7460,https://www.sutterhealth.org/find-location/facility/sutter-amador-hospital-birth-center,24/7,Sutter Health,Q7650154
https://www.sutterhealth.org/find-location/facility/sutter-amador-hospital,sutter_health,Sutter Amador Hospital,,Jackson,CA,,US,+1 209-223-7500,https://www.sutterhealth.org/find-location/facility/sutter-amador-hospital,24/7,Sutter Health,Q7650154
https://www.sutterhealth.org/find-location/facility/sutter-cardiac-imaging-amador,sutter_health,Sutter Cardiac Imaging Amador,,Jackson,CA,,US,+1 209-223-5445,https://www.sutterhealth.org/find-location/facility/sutter-cardiac-imaging-amador,Mo-Fr 07:30-17:00,Sutter Health,Q7650154
https://www.sutterhealth.org/find-location/facility/sutter-medical-plaza-jackson,sutter_health,Sutter Medical Plaza Jackson,,Jackson,CA,,US,+1 209-223-7500,https://www.sutterhealth.org/find-location/facility/sutter-medical-plaza-jackson,Mo-Fr 06:30-17:00; Sa 08:00-12:00,Sutter Health,Q7650154
https://www.sutterhealth.org/find-location/facility/sutter-medical-center-sacramento-infusion-center-at-amador,sutter_health,"Sutter Medical Center, Sacramento Infusion Center at Amador",,Jackson,CA,,US,+1 209-257-7480,https://www.sutterhealth.org/find-location/facility/sutter-medical-center-sacramento-infusion-center-at-amador,Mo-Fr 08:00-17:00,Sutter Health,Q7650154
https://www.sutterhealth.org/find-location/facility/sutter-imaging-amador,sutter_health,Sutter Imaging Amador,,Jackson,CA,,US,+1 209-223-7560,https://www.sutterhealth.org/find-location/facility/sutter-imaging-amador,Mo-Fr 07:30-17:00,Sutter Health,Q7650154
https://www.sutterhealth.org/find-location/facility/sutter-family-medicine-jackson,sutter_health,"Sutter Family Medicine, Jackson",,Jackson,CA,,US,+1 209-223-2034,https://www.sutterhealth.org/find-location/facility/sutter-family-medicine-jackson,Mo-Fr 08:00-17:00,Sutter Health,Q7650154
https://locations.tacobell.com/#6143061,taco_bell,Taco Bell,,Jackson,CA,,US,+1 209-223-2975,https://locations.tacobell.com/ca/jackson/541-s-highway-49.html,Mo-Su 07:00-24:00,Taco Bell,Q752941
317G,tmobile_us,Prospect & Industry,,Jackson,CA,,US,+1 209-697-4064,https://www.t-mobile.com/store-locator/ca/jackson/prospect-industry,,T-Mobile,Q3511885
1032988,uhaul,Guardian Mini-Storage Jackson,1520 S. State Highway 49,Jackson,CA,,US,+1 209-223-0899,,,U-Haul,Q7862902
022455,uhaul,Jackson Self Storage,205 Scottsville Dr,Jackson,CA,,US,+1 209-223-3112,,Mo-Fr 00:00-16:00; Sa 00:00-24:00,U-Haul,Q7862902
1368185,usps,JACKSON,,JACKSON,CA,,US,+1 209-223-7720,,Mo-Fr 09:00-16:30; Sa 10:00-14:00,United States Postal Service,Q668687
9564200005,usps_collection_boxes,USPS COLLECTION BOX - BLUE BOX,11990 STATE HIGHWAY 88,JACKSON,CA,,US,,,,United States Postal Service,Q668687
9564200007,usps_collection_boxes,USPS COLLECTION BOX - BLUE BOX,515 S STATE HIGHWAY 49,JACKSON,CA,,US,,,,United States Postal Service,Q668687
9564200001,usps_collection_boxes,USPS COLLECTION BOX - BLUE BOX,176 MAIN ST,JACKSON,CA,,US,,,,United States Postal Service,Q668687
9564200016,usps_collection_boxes,USPS COLLECTION BOX - PO LOBBY,424 SUTTER ST,JACKSON,CA,,US,,,,United States Postal Service,Q668687
9564200017,usps_collection_boxes,USPS COLLECTION BOX - PO LOBBY,424 SUTTER ST,JACKSON,CA,,US,,,,United States Postal Service,Q668687
9564200002,usps_collection_boxes,USPS COLLECTION BOX - BLUE BOX,424 SUTTER ST,JACKSON,CA,,US,,,,United States Postal Service,Q668687
9564200021,usps_collection_boxes,USPS COLLECTION BOX - PO LOBBY,424 SUTTER ST,JACKSON,CA,,US,,,,United States Postal Service,Q668687
9564200004,usps_collection_boxes,USPS COLLECTION BOX - BLUE BOX,20 ROLLINGWOOD DR,JACKSON,CA,,US,,,,United States Postal Service,Q668687
9564200013,usps_collection_boxes,USPS COLLECTION BOX - BLUE BOX,645 NEW YORK RANCH RD,JACKSON,CA,,US,,,,United States Postal Service,Q668687
9564200011,usps_collection_boxes,USPS COLLECTION BOX - BLUE BOX,815 COURT ST,JACKSON,CA,,US,,,,United States Postal Service,Q668687
A00000253218,verizon_us,Russell Cellular Jackson Old Mill,,JACKSON,CA,,US,+1 209-267-8196,https://www.verizon.com/stores/details/california/jackson/russell-cellular-martel-1823922/,Mo-Sa 09:00-19:00; Su 11:00-17:00,Verizon,Q919641
,visa,,,JACKSON,CA,,US,,,,,
,visa,,,JACKSON,CA,,US,,,,,
,visa,,,JACKSON,CA,,US,,,,,
,visa,,,JACKSON,CA,,US,,,,,
,visa,,,JACKSON,CA,,US,,,,,
,visa,,,JACKSON,CA,,US,,,,,
,visa,,,JACKSON,CA,,US,,,,,
,visa,,,JACKSON,CA,,US,,,,,
,visa,,,JACKSON,CA,,US,,,,,
,visa,,,JACKSON,CA,,US,,,,,
,visa,,,JACKSON,CA,,US,,,,,
,visa,,,JACKSON,CA,,US,,,,,
,visa,,,JACKSON,CA,,US,,,,,
,visa,,,JACKSON,CA,,US,,,,,
,visa,,,JACKSON,CA,,US,,,,,
,visa,,,JACKSON,CA,,US,,,,,
,visa,,,JACKSON,CA,,US,,,,,
,visa,,,JACKSON,CA,,US,,,,,
,visa,,,JACKSON,CA,,US,,,,,
,visa,,,JACKSON,CA,,US,,,,,
,visa,,,JACKSON,CA,,US,,,,,
,visa,,,JACKSON,CA,,US,,,,,
,visa,,,WHEATLAND,CA,,US,,,,,
,visa,,,SAN SIMEON,CA,,US,,,,,
11__MAIN__ST_JACKSON_CA_95642,wellsfargo,Wells Fargo,11 MAIN ST,JACKSON,CA,,US,+1 209-223-0113,https://www.wellsfargo.com/locator/bank/11__MAIN__ST_JACKSON_CA_95642/,Mo-Fr 09:00-17:00,Wells Fargo,Q744149
94ecfcbef81a07432c9137663fe84be9,western_union,WALMART #002054,,Jackson,CA,,US,+1 209-223-5384,https://location.westernunion.com/us/ca/jackson/94ecfcbef81a07432c9137663fe84be9,Mo-Su 07:00-21:00,Western Union,Q861042
