Ref,Spider,Name,Address,City,State,Zipcode,Country,Phone,Website,Hours,Brand,WikiData
374 Delaware Ave,allied_universal,Allied Universal,,Buffalo,NY,,US,+1 716-855-1766,https://www.aus.com/buffalo-building-security-systems-services,,Allied Universal,Q4732537
https://locators.bankofamerica.com/ny/buffalo/financial-centers-buffalo-13460.html,bankofamerica,Bank of America Financial Center & Walk-Up ATM | Fountain Plaza,,Buffalo,NY,,US,+1 716-847-7374,https://locators.bankofamerica.com/ny/buffalo/financial-centers-buffalo-13460.html,Mo-Fr 10:00-16:00,Bank of America,Q487907
https://locators.bankofamerica.com/ny/buffalo/atm-buffalo-109594.html,bankofamerica,Bank of America Drive-Thru ATM | Tr Foundation,,Buffalo,NY,,US,+1 844-401-8500,https://locators.bankofamerica.com/ny/buffalo/atm-buffalo-109594.html,,Bank of America,Q487907
https://locators.bankofamerica.com/ny/buffalo/atm-buffalo-111145.html,bankofamerica,Bank of America Walk-Up ATM | New Era Cap Company,,Buffalo,NY,,US,+1 844-401-8500,https://locators.bankofamerica.com/ny/buffalo/atm-buffalo-111145.html,,Bank of America,Q487907
150767,bluerhino,Walgreens #3288,,Buffalo,NY,,US,+1 716-883-0422,,,Blue Rhino,Q65681213
44923,citi,ATM CNB BANK,,Buffalo,NY,,US,,,,Citibank,Q857063
44924,citi,ATM CNB BANK,,Buffalo,NY,,US,,,,Citibank,Q857063
92344,citi,ATM Walgreens,,Buffalo,NY,,US,,,,Citibank,Q857063
880145,citizens_us,Citizens Liberty,,Buffalo,NY,,US,+1 716-855-2532,,Mo-Th 09:00-16:00; Fr 09:00-17:00,Citizens,Q5122694
ATM-708,citizens_us,,,Buffalo,NY,,US,+1 716-447-1274,,24/7,Citizens,Q5122694
,credit_union_us,Buffalo Metropolitan FCU,,Buffalo,NY,,US,+1 716-847-6960,,Mo-We 08:30-04:30; Th-Fr 08:30-05:30; Sa 09:00-01:00,,
,credit_union_us,SEFCU  a division of Broadview,,Buffalo,NY,,US,+1 716-852-5667,,Mo-Fr 08:00-04:00,,
vba_307,department_veterans_affairs,Buffalo VA Regional Benefit Office,,Buffalo,NY,,US,+1 800-827-1000,https://www.benefits.va.gov/buffalo/,,Department Veterans Affairs,Q592576
200322092,exxonmobil,ADA PROPERTIES INC,,BUFFALO,NY,,US,+1 716-400-5300,https://www.exxon.com/en/find-station/mobil-buffalo-ny-adapropertiesinc-200322092,Mo-Su 06:00-01:00,Mobil,Q109676002
https://office.jacksonhewitt.com/#27575356,jackson_hewitt,Jackson Hewitt,,Buffalo,NY,,US,+1 716-247-6677,https://office.jacksonhewitt.com/tax-preparation-services-locations/en/ny/buffalo/446-main-street/18149,Mo-Fr 09:00-19:00; Sa 09:00-17:00; Su 11:00-16:00,Jackson Hewitt,Q6117132
BUFAD,marriott,Aloft Buffalo Downtown,,Buffalo,NY,,US,+1 716-849-7280,https://www.marriott.com/BUFAD,,Aloft Hotels,Q4734166
BUFRD,marriott,Residence Inn Buffalo Downtown,,Buffalo,NY,,US,+1 716-247-5252,https://www.marriott.com/BUFRD,,Residence Inn by Marriott,Q7315394
https://locations.mtb.com/#25082812,mt_bank_us,,,,NY,,US,+1 800-724-2440,https://locations.mtb.com/ny/buffalo/bank-branches-and-atms-buffalo-ny-sa0900.html,24/7,M&T Bank,Q3272257
https://locations.mtb.com/#25081751,mt_bank_us,,,,NY,,US,+1 800-724-2440,https://locations.mtb.com/ny/buffalo/bank-branches-and-atms-buffalo-ny-lk455887.html,24/7,M&T Bank,Q3272257
https://restaurants.subway.com/#14911132,subway,Subway Shoppes @ Hampton Inn & Suites,,Buffalo Erie,NY,,US,+1 716-856-0194,https://restaurants.subway.com/united-states/ny/buffalo/120-w-chippewea-st,Mo-Sa 09:00-20:00; Su 09:00-19:00,Subway,Q244457
1375071,usps,NIAGARA SQUARE,,BUFFALO,NY,,US,+1 716-856-4601,,Mo-Fr 08:30-17:00; Sa 08:30-13:00,United States Postal Service,Q668687
1420200172,usps_collection_boxes,USPS COLLECTION BOX - BLUE BOX,200 DELAWARE AVE,BUFFALO,NY,,US,,,,United States Postal Service,Q668687
1420200140,usps_collection_boxes,USPS COLLECTION BOX - BLUE BOX,300 DELAWARE AVE,BUFFALO,NY,,US,,,,United States Postal Service,Q668687
1420200173,usps_collection_boxes,USPS COLLECTION BOX - BLUE BOX,300 DELAWARE AVE,BUFFALO,NY,,US,,,,United States Postal Service,Q668687
1420200043,usps_collection_boxes,USPS COLLECTION BOX - BLUE BOX,232 DELAWARE AVE,BUFFALO,NY,,US,,,,United States Postal Service,Q668687
1420200116,usps_collection_boxes,USPS COLLECTION BOX - BLUE BOX,344 DELAWARE AVE,BUFFALO,NY,,US,,,,United States Postal Service,Q668687
1420200152,usps_collection_boxes,USPS COLLECTION BOX - BLUE BOX,361 DELAWARE AVE,BUFFALO,NY,,US,,,,United States Postal Service,Q668687
1420200030,usps_collection_boxes,USPS COLLECTION BOX - BLUE BOX,374 DELAWARE AVE,BUFFALO,NY,,US,,,,United States Postal Service,Q668687
1420200095,usps_collection_boxes,USPS COLLECTION BOX - BLUE BOX,374 DELAWARE AVE,BUFFALO,NY,,US,,,,United States Postal Service,Q668687
1420200020,usps_collection_boxes,USPS COLLECTION BOX - BLUE BOX,69 DELAWARE AVE,BUFFALO,NY,,US,,,,United States Postal Service,Q668687
1420200039,usps_collection_boxes,USPS COLLECTION BOX - BLUE BOX,69 DELAWARE AVE,BUFFALO,NY,,US,,,,United States Postal Service,Q668687
1420200124,usps_collection_boxes,USPS COLLECTION BOX - BLUE BOX,69 DELAWARE AVE,BUFFALO,NY,,US,,,,United States Postal Service,Q668687
1420200125,usps_collection_boxes,USPS COLLECTION BOX - BLUE BOX,69 DELAWARE AVE,BUFFALO,NY,,US,,,,United States Postal Service,Q668687
1420200032,usps_collection_boxes,USPS COLLECTION BOX - BLUE BOX,452 DELAWARE AVE,BUFFALO,NY,,US,,,,United States Postal Service,Q668687
1420200017,usps_collection_boxes,USPS COLLECTION BOX - BLUE BOX,166 FRANKLIN ST,BUFFALO,NY,,US,,,,United States Postal Service,Q668687
1420200106,usps_collection_boxes,USPS COLLECTION BOX - BLUE BOX,166 FRANKLIN ST,BUFFALO,NY,,US,,,,United States Postal Service,Q668687
1420200127,usps_collection_boxes,USPS COLLECTION BOX - BLUE BOX,453 PEARL ST,BUFFALO,NY,,US,,,,United States Postal Service,Q668687
1420200053,usps_collection_boxes,USPS COLLECTION BOX - BLUE BOX,369 FRANKLIN ST,BUFFALO,NY,,US,,,,United States Postal Service,Q668687
1420200148,usps_collection_boxes,USPS COLLECTION BOX - BLUE BOX,229 W GENESEE ST,BUFFALO,NY,,US,,,,United States Postal Service,Q668687
1420200149,usps_collection_boxes,USPS COLLECTION BOX - BLUE BOX,229 W GENESEE ST,BUFFALO,NY,,US,,,,United States Postal Service,Q668687
1420200176,usps_collection_boxes,USPS COLLECTION BOX - PO LOBBY,229 W GENESEE ST,BUFFALO,NY,,US,,,,United States Postal Service,Q668687
1420200010,usps_collection_boxes,USPS COLLECTION BOX - BLUE BOX,130 PEARL ST,BUFFALO,NY,,US,,,,United States Postal Service,Q668687
1420200011,usps_collection_boxes,USPS COLLECTION BOX - BLUE BOX,130 PEARL ST,BUFFALO,NY,,US,,,,United States Postal Service,Q668687
1420200007,usps_collection_boxes,USPS COLLECTION BOX - BLUE BOX,50 DELAWARE AVE,BUFFALO,NY,,US,,,,United States Postal Service,Q668687
1420200170,usps_collection_boxes,USPS COLLECTION BOX - BLUE BOX,50 DELAWARE AVE,BUFFALO,NY,,US,,,,United States Postal Service,Q668687
1420200075,usps_collection_boxes,USPS COLLECTION BOX - BLUE BOX,297 PEARL ST,BUFFALO,NY,,US,,,,United States Postal Service,Q668687
1420200135,usps_collection_boxes,USPS COLLECTION BOX - BLUE BOX,534 DELAWARE AVE,BUFFALO,NY,,US,,,,United States Postal Service,Q668687
1420200119,usps_collection_boxes,USPS COLLECTION BOX - BLUE BOX,420 FRANKLIN ST,BUFFALO,NY,,US,,,,United States Postal Service,Q668687
1420200169,usps_collection_boxes,USPS COLLECTION BOX - BLUE BOX,120 W EAGLE ST,BUFFALO,NY,,US,,,,United States Postal Service,Q668687
1420200019,usps_collection_boxes,USPS COLLECTION BOX - BLUE BOX,42 DELAWARE AVE,BUFFALO,NY,,US,,,,United States Postal Service,Q668687
1420200155,usps_collection_boxes,USPS COLLECTION BOX - BLUE BOX,42 DELAWARE AVE,BUFFALO,NY,,US,,,,United States Postal Service,Q668687
1420200071,usps_collection_boxes,USPS COLLECTION BOX - BLUE BOX,70 NIAGARA ST,BUFFALO,NY,,US,,,,United States Postal Service,Q668687
1420200163,usps_collection_boxes,USPS COLLECTION BOX - BLUE BOX,70 NIAGARA ST,BUFFALO,NY,,US,,,,United States Postal Service,Q668687
1420200014,usps_collection_boxes,USPS COLLECTION BOX - BLUE BOX,43 COURT ST,BUFFALO,NY,,US,,,,United States Postal Service,Q668687
1420200121,usps_collection_boxes,USPS COLLECTION BOX - BLUE BOX,43 COURT ST,BUFFALO,NY,,US,,,,United States Postal Service,Q668687
1420200164,usps_collection_boxes,USPS COLLECTION BOX - BLUE BOX,120 CHURCH ST,BUFFALO,NY,,US,,,,United States Postal Service,Q668687
1420200130,usps_collection_boxes,USPS COLLECTION BOX - BLUE BOX,424 MAIN ST,BUFFALO,NY,,US,,,,United States Postal Service,Q668687
1420200165,usps_collection_boxes,USPS COLLECTION BOX - BLUE BOX,1 NIAGARA PLZ,BUFFALO,NY,,US,,,,United States Postal Service,Q668687
1420200060,usps_collection_boxes,USPS COLLECTION BOX - BLUE BOX,50 LAKEFRONT BLVD,BUFFALO,NY,,US,,,,United States Postal Service,Q668687
1420200006,usps_collection_boxes,USPS COLLECTION BOX - BLUE BOX,495 FRANKLIN ST,BUFFALO,NY,,US,,,,United States Postal Service,Q668687
1420200037,usps_collection_boxes,USPS COLLECTION BOX - BLUE BOX,625 DELAWARE AVE,BUFFALO,NY,,US,,,,United States Postal Service,Q668687
1420200150,usps_collection_boxes,USPS COLLECTION BOX - BLUE BOX,625 DELAWARE AVE,BUFFALO,NY,,US,,,,United States Postal Service,Q668687
1420200090,usps_collection_boxes,USPS COLLECTION BOX - BLUE BOX,930 MAIN ST,BUFFALO,NY,,US,,,,United States Postal Service,Q668687
1420200123,usps_collection_boxes,USPS COLLECTION BOX - BLUE BOX,432 MAIN ST,BUFFALO,NY,,US,,,,United States Postal Service,Q668687
1420200159,usps_collection_boxes,USPS COLLECTION BOX - BLUE BOX,432 MAIN ST,BUFFALO,NY,,US,,,,United States Postal Service,Q668687
1420200073,usps_collection_boxes,USPS COLLECTION BOX - BLUE BOX,110 PEARL ST,BUFFALO,NY,,US,,,,United States Postal Service,Q668687
1420200153,usps_collection_boxes,USPS COLLECTION BOX - BLUE BOX,110 PEARL ST,BUFFALO,NY,,US,,,,United States Postal Service,Q668687
1420200064,usps_collection_boxes,USPS COLLECTION BOX - BLUE BOX,290 MAIN ST,BUFFALO,NY,,US,,,,United States Postal Service,Q668687
1420200092,usps_collection_boxes,USPS COLLECTION BOX - BLUE BOX,290 MAIN ST,BUFFALO,NY,,US,,,,United States Postal Service,Q668687
1420200141,usps_collection_boxes,USPS COLLECTION BOX - BLUE BOX,290 MAIN ST,BUFFALO,NY,,US,,,,United States Postal Service,Q668687
1420200069,usps_collection_boxes,USPS COLLECTION BOX - BLUE BOX,205 MARINE DR,BUFFALO,NY,,US,,,,United States Postal Service,Q668687
T00000343265,verizon_us,CSSC-Syracuse,,Buffalo,NY,,US,,https://www.verizon.com/stores/details/new-york/syracuse/gowireless-syracuse-n-main-st-1607822/,,Verizon,Q919641
,visa,,,BUFFALO,NY,,US,,,,,
,visa,,,LANCASTER,NY,,US,,,,,
,visa,,,BLASDELL,NY,,US,,,,,
,visa,,,BUFFALO,NY,,US,,,,,
,visa,,,BUFFALO,NY,,US,,,,,
,visa,,,BUFFALO,NY,,US,,,,,
,visa,,,BUFFALO,NY,,US,,,,,
,visa,,,BUFFALO,NY,,US,,,,,
,visa,,,BUFFALO,NY,,US,,,,,
,visa,,,BUFFALO,NY,,US,,,,,
,visa,,,BUFFALO,NY,,US,,,,,
,visa,,,BUFFALO,NY,,US,,,,,
,visa,,,BUFFALO,NY,,US,,,,,
,visa,,,BUFFALO,NY,,US,,,,,
,visa,,,BUFFALO,NY,,US,,,,,
,visa,,,BUFFALO,NY,,US,,,,,
,visa,,,BUFFALO,NY,,US,,,,,
,visa,,,BUFFALO,NY,,US,,,,,
,visa,,,BUFFALO,NY,,US,,,,,
,visa,,,BUFFALO,NY,,US,,,,,
,visa,,,BUFFALO,NY,,US,,,,,
,visa,,,BUFFALO,NY,,US,,,,,
,visa,,,BUFFALO,NY,,US,,,,,
,visa,,,BUFFALO,NY,,US,,,,,
,visa,,,BUFFALO,NY,,US,,,,,
,visa,,,BUFFALO,NY,,US,,,,,
,visa,,,BUFFALO,NY,,US,,,,,
,visa,,,BUFFALO,NY,,US,,,,,
,visa,,,BUFFALO,NY,,US,,,,,
,visa,,,BUFFALO,NY,,US,,,,,
,visa,,,BUFFALO,NY,,US,,,,,
,visa,,,BUFFALO,NY,,US,,,,,
,visa,,,BUFFALO,NY,,US,,,,,
,visa,,,BUFFALO,NY,,US,,,,,
,visa,,,BUFFALO,NY,,US,,,,,
,visa,,,BUFFALO,NY,,US,,,,,
,visa,,,BUFFALO,NY,,US,,,,,
,visa,,,BUFFALO,NY,,US,,,,,
,visa,,,BUFFALO,NY,,US,,,,,
,visa,,,BUFFALO,NY,,US,,,,,
,visa,,,BUFFALO,NY,,US,,,,,
,visa,,,BUFFALO,NY,,US,,,,,
,visa,,,BUFFALO,NY,,US,,,,,
,visa,,,BUFFALO,NY,,US,,,,,
,visa,,,BUFFALO,NY,,US,,,,,
,visa,,,BUFFALO,NY,,US,,,,,
,visa,,,BUFFALO,NY,,US,,,,,
,visa,,,BUFFALO,NY,,US,,,,,
,visa,,,BUFFALO,NY,,US,,,,,
,visa,,,BUFFALO,NY,,US,,,,,
,visa,,,BUFFALO,NY,,US,,,,,
,visa,,,BUFFALO,NY,,US,,,,,
,visa,,,BUFFALO,NY,,US,,,,,
,visa,,,BUFFALO,NY,,US,,,,,
,visa,,,BUFFALO,NY,,US,,,,,
,visa,,,BUFFALO,NY,,US,,,,,
,visa,,,BUFFALO,NY,,US,,,,,
,visa,,,BUFFALO,NY,,US,,,,,
,visa,,,BUFFALO,NY,,US,,,,,
,visa,,,BUFFALO,NY,,US,,,,,
,visa,,,BUFFALO,NY,,US,,,,,
,visa,,,BUFFALO,NY,,US,,,,,
,visa,,,BUFFALO,NY,,US,,,,,
,visa,,,BUFFALO,NY,,US,,,,,
,visa,,,BUFFALO,NY,,US,,,,,
,visa,,,BUFFALO,NY,,US,,,,,
,visa,,,BUFFALO,NY,,US,,,,,
,visa,,,BUFFALO,NY,,US,,,,,
,visa,,,BUFFALO,NY,,US,,,,,
,visa,,,BUFFALO,NY,,US,,,,,
,visa,,,BUFFALO,NY,,US,,,,,
,visa,,,BUFFALO,NY,,US,,,,,
,visa,,,BUFFALO,NY,,US,,,,,
,visa,,,BUFFALO,NY,,US,,,,,
"https://www.walgreens.com/locator/community,+a+walgreens+pharmacy-1010+main+st-buffalo-ny-14202/id=16563",walgreens,"Community, a Walgreens Pharmacy",,Buffalo,NY,,US,+1 716-541-1994,"https://www.walgreens.com/locator/community,+a+walgreens+pharmacy-1010+main+st-buffalo-ny-14202/id=16563",,,
https://www.walgreens.com/locator/walgreens-650+delaware+ave-buffalo-ny-14202/id=3288,walgreens,Walgreens,,Buffalo,NY,,US,+1 716-883-0232,https://www.walgreens.com/locator/walgreens-650+delaware+ave-buffalo-ny-14202/id=3288,24/7,Walgreens,Q1591889
