Ref,Spider,Name,Address,City,State,Zipcode,Country,Phone,Website,Hours,Brand,WikiData
https://stores.advanceautoparts.com/nc/chadbourn/817-n-brown-st,advance_auto_parts_us,Advance Auto Parts,,Chadbourn,NC,,US,+1 910-654-0257,https://stores.advanceautoparts.com/nc/chadbourn/817-n-brown-st,Mo-Sa 07:30-21:00; Su 09:00-20:00,Advance Auto Parts,Q4686051
12671,bluerhino,Food Lion #1073,,Chadbourn,NC,,US,+1 910-654-6147,,,Blue Rhino,Q65681213
178715,bluerhino,"Peacocks Stop, Inc.",,Chadbourn,NC,,US,+1 910-654-5656,,,Blue Rhino,Q65681213
21035706431012843100100000000000,bp,BP,,Chadbourn,NC,,US,+1 910-654-6494,,24/7,BP,Q152057
682,first_cash,Pawn South,,Chadbourn,NC,,US,+1 910-654-3318,,,,
1501626,hardees_us,Hardee's,,Chadbourn,NC,,US,+1 910-654-3221,https://locations.hardees.com/nc/chadbourn/915-north-brown-street,,Hardee's,Q1585088
Fresh Foods IGA #14,iga,Fresh Foods IGA #14,"121 E. Strawberry Street, Chadbourn, NC, 28431",Chadbourn,NC,,US,+1 910-647-7001,https://freshfoods.iga.com,,IGA,Q3146662
https://office.jacksonhewitt.com/#27575275,jackson_hewitt,Jackson Hewitt,,Chadbourn,NC,,US,+1 910-654-4013,https://office.jacksonhewitt.com/tax-preparation-services-locations/en/nc/chadbourn/204-e-strawberry-blvd/10357,Mo-Fr 10:00-19:00; Sa 10:00-17:00,Jackson Hewitt,Q6117132
4276,shellrecharge,Town of Chadbourn,,Chadbourn,NC,,US,,,,Shell Recharge,Q105883058
https://restaurants.subway.com/#14909937,subway,Subway Chadbourn Shopping Ctr,,Chadbourn Columbus,NC,,US,+1 910-654-6446,https://restaurants.subway.com/united-states/nc/chadbourn/801-n-brown-st,Mo-We 09:00-22:30; Th-Sa 09:00-23:00; Su 09:00-22:30,Subway,Q244457
1357574,usps,CHADBOURN,,CHADBOURN,NC,,US,+1 910-654-4475,,"Mo-Fr 09:00-12:30,13:30-16:30; Sa 09:00-12:00",United States Postal Service,Q668687
2843100006,usps_collection_boxes,USPS COLLECTION BOX - BLUE BOX,601 N BROWN ST,CHADBOURN,NC,,US,,,,United States Postal Service,Q668687
2843100007,usps_collection_boxes,USPS COLLECTION BOX - PO LOBBY,601 N BROWN ST,CHADBOURN,NC,,US,,,,United States Postal Service,Q668687
2843100008,usps_collection_boxes,USPS COLLECTION BOX - PO LOBBY,601 N BROWN ST,CHADBOURN,NC,,US,,,,United States Postal Service,Q668687
2843100009,usps_collection_boxes,USPS COLLECTION BOX - PO LOBBY,601 N BROWN ST,CHADBOURN,NC,,US,,,,United States Postal Service,Q668687
,visa,,,CHADBOURN,NC,,US,,,,,
,visa,,,CHADBOURN,NC,,US,,,,,
,visa,,,CHADBOURN,NC,,US,,,,,
,visa,,,CHADBOURN,NC,,US,,,,,
,visa,,,CHADBOURN,NC,,US,,,,,
,visa,,,CHADBOURN,NC,,US,,,,,
,visa,,,CHADBOURN,NC,,US,,,,,
,visa,,,CHADBURN,NC,,US,,,,,
,visa,,,CHADBURN,NC,,US,,,,,
,visa,,,CHADBOURN,NC,,US,,,,,
