Ref,Spider,Name,Address,City,State,Zipcode,Country,Phone,Website,Hours,Brand,WikiData
3566,accor,ibis Bratislava Centrum,"Zamocka 38, 81101 BRATISLAVA",,,,SK,,https://all.accor.com/hotel/3566/index.en.shtml,,Ibis,Q920166
nextbike_ak:9409962,gbfs,Štefánikovo námestie,,,,,SK,,https://bikekia.sk/,,BikeKIA,
nextbike_ak:9410083,gbfs,Námestie A. Hlinku,,,,,SK,,https://bikekia.sk/,,BikeKIA,
nextbike_ak:9410113,gbfs,Hurbanová,,,,,SK,,https://bikekia.sk/,,BikeKIA,
nextbike_ak:9410125,gbfs,Bulvar,,,,,SK,,https://bikekia.sk/,,BikeKIA,
nextbike_ak:9410139,gbfs,Aupark,,,,,SK,,https://bikekia.sk/,,BikeKIA,
nextbike_ak:9410157,gbfs,NBS,,,,,SK,,https://bikekia.sk/,,BikeKIA,
nextbike_ak:9410170,gbfs,Mestský úrad,,,,,SK,,https://bikekia.sk/,,BikeKIA,
nextbike_ak:9410182,gbfs,Spanyolová nemocnica,,,,,SK,,https://bikekia.sk/,,BikeKIA,
nextbike_ak:9410204,gbfs,OC Dubeň,,,,,SK,,https://bikekia.sk/,,BikeKIA,
nextbike_ak:9410212,gbfs,Žilpo,,,,,SK,,https://bikekia.sk/,,BikeKIA,
nextbike_ak:9410222,gbfs,Predmestská,,,,,SK,,https://bikekia.sk/,,BikeKIA,
nextbike_ak:9410411,gbfs,Internáty Veľký diel,,,,,SK,,https://bikekia.sk/,,BikeKIA,
nextbike_ak:9410424,gbfs,Coop - Polomská,,,,,SK,,https://bikekia.sk/,,BikeKIA,
nextbike_ak:9410439,gbfs,Hlinská,,,,,SK,,https://bikekia.sk/,,BikeKIA,
nextbike_ak:9410450,gbfs,Internáty Hliny,,,,,SK,,https://bikekia.sk/,,BikeKIA,
nextbike_ak:9410479,gbfs,Vodné dielo,,,,,SK,,https://bikekia.sk/,,BikeKIA,
nextbike_ak:9410492,gbfs,Lesopark,,,,,SK,,https://bikekia.sk/,,BikeKIA,
nextbike_ak:9701481,gbfs,OC Max,,,,,SK,,https://bikekia.sk/,,BikeKIA,
nextbike_ak:9701526,gbfs,UNIZA,,,,,SK,,https://bikekia.sk/,,BikeKIA,
nextbike_ak:9702548,gbfs,Plaváreň,,,,,SK,,https://bikekia.sk/,,BikeKIA,
nextbike_ak:40297850,gbfs,Reinoo,,,,,SK,,https://bikekia.sk/,,BikeKIA,
nextbike_ak:53121185,gbfs,OC Idea,,,,,SK,,https://bikekia.sk/,,BikeKIA,
nextbike_ak:86772739,gbfs,Námestie Mladosti,,,,,SK,,https://bikekia.sk/,,BikeKIA,
nextbike_ak:86775363,gbfs,Rudiny II,,,,,SK,,https://bikekia.sk/,,BikeKIA,
nextbike_ak:86775677,gbfs,Borová,,,,,SK,,https://bikekia.sk/,,BikeKIA,
nextbike_ak:86775928,gbfs,FRI,,,,,SK,,https://bikekia.sk/,,BikeKIA,
nextbike_ak:86776608,gbfs,Košická - Tesco,,,,,SK,,https://bikekia.sk/,,BikeKIA,
nextbike_ak:86776875,gbfs,Tulská - Pačino,,,,,SK,,https://bikekia.sk/,,BikeKIA,
nextbike_ak:86777369,gbfs,Sv. Cyrila a Metoda,,,,,SK,,https://bikekia.sk/,,BikeKIA,
nextbike_ak:86777798,gbfs,Oravská,,,,,SK,,https://bikekia.sk/,,BikeKIA,
nextbike_ak:108565767,gbfs,DPMŽ Kvačalova,,,,,SK,,https://bikekia.sk/,,BikeKIA,
nextbike_ak:159937942,gbfs,Stanica Žilina-Záriečie,,,,,SK,,https://bikekia.sk/,,BikeKIA,
1325,leonidas,Leonidas Chocolates & Café,,Brastislava,,,SK,+421 907 117 907,https://www.leonidas.com/en/shops/brastislava/leonidas-chocolates-cafe,Mo-Tu 10:00-21:00; Th-Su 10:00-21:00,Leonidas,Q80335
https://www.obi.sk/predajna/,obi_eu,Všetky predajne OBI na Slovensku,,,,,SK,+421 2/321 954 80,https://www.obi.sk/predajna/,,OBI,Q300518
9500,timberland,Timberland - Bratislava,,851 01 Bratislava,,,SK,+421 2/634 518 33,,,Timberland,Q1539185
,visa,,,BRATISLAVA,,,SK,,,,,
,visa,,,BRATISLAVA,,,SK,,,,,
,visa,,,VEĽKY MEDER,,,SK,,,,,
,visa,,,KOMARNO,,,SK,,,,,
,visa,,,ŠAMORIN,,,SK,,,,,
,visa,,,ŠAMORIN,,,SK,,,,,
,visa,,,BRATISLAVA,,,SK,,,,,
,visa,,,BRATISLAVA,,,SK,,,,,
,visa,,,BRATISLAVA,,,SK,,,,,
,visa,,,BRATISLAVA,,,SK,,,,,
,visa,,,DUNAJSKA LUŽNA,,,SK,,,,,
,visa,,,BRATISLAVA,,,SK,,,,,
,visa,,,BRATISLAVA,,,SK,,,,,
,visa,,,BRATISLAVA,,,SK,,,,,
,visa,,,BRATISLAVA,,,SK,,,,,
,visa,,,BRATISLAVA,,,SK,,,,,
,visa,,,BRATISLAVA,,,SK,,,,,
,visa,,,BRATISLAVA,,,SK,,,,,
,visa,,,BRATISLAVA,,,SK,,,,,
,visa,,,BRATISLAVA,,,SK,,,,,
,visa,,,DUNAJSKA STREDA,,,SK,,,,,
,visa,,,DUNAJSKA STREDA,,,SK,,,,,
,visa,,,DUNAJSKA STREDA,,,SK,,,,,
,visa,,,DEVIN,,,SK,,,,,
,visa,,,BRATISLAVA,,,SK,,,,,
,visa,,,BRATISLAVA,,,SK,,,,,
,visa,,,BRATISLAVA,,,SK,,,,,
,visa,,,BRATISLAVA,,,SK,,,,,
,visa,,,BRATISLAVA,,,SK,,,,,
,visa,,,JAROVCE,,,SK,,,,,
,visa,,,BRATISLAVA,,,SK,,,,,
,visa,,,BRATISLAVA,,,SK,,,,,
,visa,,,BRATISLAVA,,,SK,,,,,
,visa,,,BRATISLAVA,,,SK,,,,,
,visa,,,BRATISLAVA,,,SK,,,,,
,visa,,,BRATISLAVA,,,SK,,,,,
,visa,,,BRATISLAVA,,,SK,,,,,
,visa,,,BRATISLAVA,,,SK,,,,,
,visa,,,BRATISLAVA,,,SK,,,,,
,visa,,,BRATISLAVA,,,SK,,,,,
,visa,,,BRATISLAVA,,,SK,,,,,
,visa,,,BRATISLAVA,,,SK,,,,,
,visa,,,BRATISLAVA,,,SK,,,,,
,visa,,,BRATISLAVA,,,SK,,,,,
,visa,,,BRATISLAVA,,,SK,,,,,
,visa,,,BRATISLAVA,,,SK,,,,,
,visa,,,BRATISLAVA,,,SK,,,,,
,visa,,,BRATISLAVA,,,SK,,,,,
,visa,,,BRATISLAVA,,,SK,,,,,
,visa,,,BRATISLAVA,,,SK,,,,,
,visa,,,BRATISLAVA,,,SK,,,,,
,visa,,,ŠTVRTOK NA OSTROVĚ,,,SK,,,,,
,visa,,,BRATISLAVA,,,SK,,,,,
,visa,,,BRATISLAVA,,,SK,,,,,
,visa,,,BRATISLAVA,,,SK,,,,,
,visa,,,BRATISLAVA,,,SK,,,,,
,visa,,,BRATISLAVA,,,SK,,,,,
,visa,,,BRATISLAVA,,,SK,,,,,
,visa,,,BRATISLAVA,,,SK,,,,,
,visa,,,BRATISLAVA,,,SK,,,,,
,visa,,,BRATISLAVA,,,SK,,,,,
,visa,,,BRATISLAVA,,,SK,,,,,
,visa,,,BRATISLAVA,,,SK,,,,,
,visa,,,BRATISLAVA,,,SK,,,,,
,visa,,,BRATISLAVA,,,SK,,,,,
,visa,,,BRATISLAVA,,,SK,,,,,
,visa,,,BRATISLAVA,,,SK,,,,,
,visa,,,ZLATE KLAŠY,,,SK,,,,,
,visa,,,ZAHORKSA BYSTRICA,,,SK,,,,,
,visa,,,BRATISLAVA,,,SK,,,,,
,visa,,,BRATISLAVA,,,SK,,,,,
,visa,,,BRATISLAVA,,,SK,,,,,
,visa,,,NOVE ZAMKY,,,SK,,,,,
,visa,,,NOVE ZAMKY,,,SK,,,,,
,visa,,,SENEC,,,SK,,,,,
,visa,,,SENEC,,,SK,,,,,
,visa,,,PEZINOK,,,SK,,,,,
,visa,,,PEZINOK,,,SK,,,,,
,visa,,,GALANTA,,,SK,,,,,
,visa,,,ŠAĽA,,,SK,,,,,
,visa,,,MALACKY,,,SK,,,,,
,visa,,,MALACKY,,,SK,,,,,
,visa,,,MALACKY,,,SK,,,,,
,visa,,,SEREĎ,,,SK,,,,,
,visa,,,SEREĎ,,,SK,,,,,
,visa,,,BANSKA BYSTRICA,,,SK,,,,,
,visa,,,TRNAVA,,,SK,,,,,
,visa,,,TRNAVA,,,SK,,,,,
,visa,,,TRNAVA,,,SK,,,,,
,visa,,,TRNAVA,,,SK,,,,,
,visa,,,TRNAVA,,,SK,,,,,
,visa,,,NITRA,,,SK,,,,,
,visa,,,NITRA,,,SK,,,,,
,visa,,,NITRA,,,SK,,,,,
,visa,,,IVANKA PRI NITRE,,,SK,,,,,
,visa,,,HLOHOVEC,,,SK,,,,,
,visa,,,HLOHOVEC,,,SK,,,,,
,visa,,,NITRIANSKE HRNČIAROVCE,,,SK,,,,,
,visa,,,BRATISLAVA,,,SK,,,,,
,visa,,,LEVICE,,,SK,,,,,
,visa,,,SENICA,,,SK,,,,,
,visa,,,SENICA,,,SK,,,,,
,visa,,,PIEŠŤANY,,,SK,,,,,
,visa,,,PIEŠŤANY,,,SK,,,,,
,visa,,,PIEŠŤANY,,,SK,,,,,
,visa,,,NOVE MESTO NAD VAHOM,,,SK,,,,,
,visa,,,TOPOĽČANY,,,SK,,,,,
,visa,,,TOPOĽČANY,,,SK,,,,,
,visa,,,SKALICA,,,SK,,,,,
,visa,,,SKALICA,,,SK,,,,,
,visa,,,MYJAVA,,,SK,,,,,
,visa,,,MYJAVA,,,SK,,,,,
,visa,,,SKALICA,,,SK,,,,,
,visa,,,SKALICA,,,SK,,,,,
,visa,,,SKALICA,,,SK,,,,,
,visa,,,BANOVCE NAD BEBRAVOU,,,SK,,,,,
,visa,,,LUČENEC,,,SK,,,,,
,visa,,,ŽIAR NAD HRONOM,,,SK,,,,,
,visa,,,ŽIAR NAD HRONOM,,,SK,,,,,
,visa,,,TRENČIN,,,SK,,,,,
,visa,,,TRENČIN,,,SK,,,,,
,visa,,,TRENČIN,,,SK,,,,,
,visa,,,ZVOLEN,,,SK,,,,,
,visa,,,ZVOLEN,,,SK,,,,,
,visa,,,ZVOLEN,,,SK,,,,,
,visa,,,ZVOLEN,,,SK,,,,,
,visa,,,PRIEVIDZA,,,SK,,,,,
,visa,,,PRIEVIDZA,,,SK,,,,,
,visa,,,PRIEVIDZA,,,SK,,,,,
,visa,,,DETVA,,,SK,,,,,
,visa,,,PRIEVIDZA,,,SK,,,,,
,visa,,,PRIEVIDZA,,,SK,,,,,
,visa,,,BANSKA BYSTRICA,,,SK,,,,,
,visa,,,BANSKA BYSTRICA,,,SK,,,,,
,visa,,,BANSKA BYSTRICA,,,SK,,,,,
,visa,,,BANSKA BYSTRICA,,,SK,,,,,
,visa,,,BANSKA BYSTRICA,,,SK,,,,,
,visa,,,PUCHOV,,,SK,,,,,
,visa,,,DONOVALY,,,SK,,,,,
,visa,,,DONOVAL,,,SK,,,,,
,visa,,,POVAŽSKA BYSTRICA,,,SK,,,,,
,visa,,,POVAŽSKA BYSTRICA,,,SK,,,,,
,visa,,,POVAŽSKA BYSTRICA,,,SK,,,,,
,visa,,,BREZNO,,,SK,,,,,
,visa,,,MARTIN,,,SK,,,,,
,visa,,,MARTIN,,,SK,,,,,
,visa,,,MARTIN,,,SK,,,,,
,visa,,,ŽILINA,,,SK,,,,,
,visa,,,ŽILINA,,,SK,,,,,
,visa,,,ŽILINA,,,SK,,,,,
,visa,,,ROŽŇAVA,,,SK,,,,,
,visa,,,ŽILINA,,,SK,,,,,
,visa,,,ŽILINA,,,SK,,,,,
,visa,,,ŽILINA,,,SK,,,,,
,visa,,,DEMANOVSKA DOLINA,,,SK,,,,,
,visa,,,GBELANY,,,SK,,,,,
,visa,,,RUŽOMBEROK,,,SK,,,,,
,visa,,,RUŽOMBEROK,,,SK,,,,,
,visa,,,LIPTOVSKY MIKULAŠ,,,SK,,,,,
,visa,,,LIPTOVSKY MIKULAŠ,,,SK,,,,,
,visa,,,ČADCA,,,SK,,,,,
,visa,,,KRAĽOVKSY CHLMEC,,,SK,,,,,
,visa,,,OŠČADNICA,,,SK,,,,,
,visa,,,KOŠICE,,,SK,,,,,
,visa,,,KOŠICE,,,SK,,,,,
,visa,,,SPIŠSKA NOVA VES,,,SK,,,,,
,visa,,,SPIŠSKA NOVA VES,,,SK,,,,,
,visa,,,SPIŠSKA NOVA VES,,,SK,,,,,
,visa,,,SVIT,,,SK,,,,,
,visa,,,SPIŠSKA NOVA VES,,,SK,,,,,
,visa,,,KOŠICE,,,SK,,,,,
,visa,,,KOŠICE,,,SK,,,,,
,visa,,,KOŠICE,,,SK,,,,,
,visa,,,POPRAD,,,SK,,,,,
,visa,,,POPRAD,,,SK,,,,,
,visa,,,POPRAD,,,SK,,,,,
,visa,,,POPRAD,,,SK,,,,,
,visa,,,TREBIŠOV,,,SK,,,,,
,visa,,,TREBIŠOV,,,SK,,,,,
,visa,,,LEVOČA,,,SK,,,,,
,visa,,,LEVOČA,,,SK,,,,,
,visa,,,TATRANSKA LOMNICA,,,SK,,,,,
,visa,,,TATRANSKA LOMNICA,,,SK,,,,,
,visa,,,KEŽMAROK,,,SK,,,,,
,visa,,,ŽDIAR,,,SK,,,,,
,visa,,,MICHALOVCE,,,SK,,,,,
,visa,,,MICHALOVCE,,,SK,,,,,
,visa,,,PREŠOV,,,SK,,,,,
,visa,,,MICHALOVCE,,,SK,,,,,
,visa,,,PREŠOV,,,SK,,,,,
,visa,,,PREŠOV,,,SK,,,,,
,visa,,,PREŠOV,,,SK,,,,,
,visa,,,PREŠOV,,,SK,,,,,
,visa,,,BARDEJOV,,,SK,,,,,
,visa,,,HUMENNE,,,SK,,,,,
,visa,,,HUMENNE,,,SK,,,,,
,visa,,,BARDEJOV,,,SK,,,,,
,visa,,,BARDEJOV,,,SK,,,,,
