Ref,Spider,Name,Address,City,State,Zipcode,Country,Phone,Website,Hours,Brand,WikiData
https://stores.advanceautoparts.com/oh/akron/1892-w-market-st,advance_auto_parts_us,Advance Auto Parts,,Akron,OH,,US,+1 330-835-4491,https://stores.advanceautoparts.com/oh/akron/1892-w-market-st,Mo-Sa 07:30-21:00; Su 09:00-20:00,Advance Auto Parts,Q4686051
https://locations.arbys.com/oh/akron/1636-w-market-st.html,arbys_us,"Arby's Fast-Food Drive Through Near You in Akron, OH",,Akron,OH,,US,+1 330-864-7738,https://locations.arbys.com/oh/akron/1636-w-market-st.html,Mo-Su 10:00-22:00,Arby's,Q630866
22402,asics_us,Second Sole,1466 N Portage Path,Akron,OH,,US,+1 330-835-9404,,,asics,Q327247
4520,autozone_us,AutoZone Auto Parts Akron,,Akron,OH,,US,+1 330-864-1731,https://www.autozone.com/locations/oh/akron/1935-w-market-st.html,Mo-Sa 07:30-21:00; Su 09:00-19:00,AutoZone,Q4826087
665,biggby_coffee_us,Biggby Coffee,2260 West Market Street Akron OH 44313,Akron,OH,,US,+1 234-571-9296,,Mo-Sa 06:00-20:00; Su 07:00-20:00,Biggby Coffee,Q4906876
https://local.biglots.com/#13190344,biglots,Big Lots - Akron: Wallhaven,,Akron,OH,,US,+1 330-864-5273,https://local.biglots.com/oh/akron/1890-w-market-st,Mo-Sa 09:00-21:00; Su 10:00-19:00,Big Lots,Q4905973
3996,bluerhino,Walmart #1895,,Fairlawn,OH,,US,+1 330-668-1129,,,Blue Rhino,Q65681213
239940,bluerhino,Circle K #4705617,,Akron,OH,,US,+1 330-867-7766,,,Blue Rhino,Q65681213
239939,bluerhino,Circle K #4705604,,Akron,OH,,US,+1 330-864-2400,,,Blue Rhino,Q65681213
152287,bluerhino,Walgreens #3276,,Akron,OH,,US,+1 330-869-2097,,,Blue Rhino,Q65681213
30218,bluerhino,Acme #01,,Akron,OH,,US,+1 330-867-3563,,,Blue Rhino,Q65681213
239938,bluerhino,Circle K #4705582,,Akron,OH,,US,+1 330-869-0186,,,Blue Rhino,Q65681213
211945,bluerhino,Ace Hardware of Wallhaven #16412,,Akron,OH,,US,+1 234-678-0777,,,Blue Rhino,Q65681213
80616769406144431300100000000000,bp,BP,,Akron,OH,,US,+1 330-869-0868,,24/7,BP,Q152057
3895,buffalo_wild_wings_us,"Buffalo Wild Wings GO - Akron, OH - Wallhaven",,Akron,OH,,US,+1 234-901-6151,https://www.buffalowildwings.com/locations/us/oh/akron/1-north-hawkins-avenue/sports-bar-1645,Mo-Th 11:00-23:00; Fr-Sa 11:00-24:00; Su 11:00-23:00,Buffalo Wild Wings,Q509255
3773289,chase_us,REMOTE DU_643304,,AKRON,OH,,US,+1 800-935-9935,https://locator.chase.com/oh/akron/1873-w-market-st,,Chase,Q524629
41058,citi,ATM Circle K,,Akron,OH,,US,,,,Citibank,Q857063
88511,citi,ATM Walgreens,,Akron,OH,,US,,,,Citibank,Q857063
48704,citi,ATM CVS,,Akron,OH,,US,,,,Citibank,Q857063
41327,citi,ATM Circle K,,Akron,OH,,US,,,,Citibank,Q857063
41853,citi,ATM Circle K,,Akron,OH,,US,,,,Citibank,Q857063
26336,citi,ATM 7ELEVEN-FCTI,,Akron,OH,,US,,,,Citibank,Q857063
43995,citi,ATM Circle K,,Ghent,OH,,US,,,,Citibank,Q857063
41306,citi,ATM Circle K,,Bath,OH,,US,,,,Citibank,Q857063
64710,citi,ATM Marcs,,Alliance,OH,,US,,,,Citibank,Q857063
3306,cvs_us,CVS Pharmacy,,Akron,OH,,US,+1 330-867-5410,https://www.cvs.com/store-locator/akron-oh-pharmacies/1949-west-market-street-akron-oh-44313/storeid=3306,Mo-Su 08:00-22:00,CVS Pharmacy,Q2078880
350211,dunkin_us,Dunkin',,Akron,OH,,US,+1 330-869-7700,https://locations.dunkindonuts.com/en/oh/akron/1712-w-market-st/350211,Mo-Su 06:00-20:00,Dunkin',Q847743
1751-w-exchange-st,einsteinbros,W Exchange Street & Hawkins Einstein Bros. Bagels,,Akron,OH,,US,+1 330-865-1515,https://locations.einsteinbros.com/us/oh/akron/1751-w-exchange-st,Mo-Su 06:00-13:00,Einstein Bros. Bagels,Q5349788
https://salons.greatclips.com/us/oh/akron/46-n-hawkins-ave,greatclips,Great Clips,,Akron,OH,,US,+1 330-794-7537,https://salons.greatclips.com/us/oh/akron/46-n-hawkins-ave,Mo-Fr 09:00-20:00; Sa 08:00-18:00; Su 09:00-18:00,Great Clips,Q5598967
160557,marathon_petroleum_us,IRACE AUTOMOTIVE,,AKRON,OH,,US,+1 330-836-7247,,,Marathon,Q458363
2143,orangetheory_fitness,"Akron, OH",,Akron,OH,,US,+1 330-864-5555,,,Orangetheory Fitness,Q25005163
https://locations.papajohns.com/#10691438,papa_johns,Papa John's,,Akron,OH,,US,+1 330-867-8000,https://locations.papajohns.com/united-states/oh/44313/akron/1885-west-market-street,Mo-Th 10:00-23:30; Fr-Sa 10:00-00:30; Su 10:00-23:00,Papa John's Pizza,Q2759586
648221,penske,Storage Zone - W Market,,AKRON,OH,,US,+1 330-724-8375,https://www.pensketruckrental.com/locations/us/ohio/akron/648221/,,Penske,Q81234570
akron,piada_us,Akron,"46 North Hawkins Avenue, Suite 225, Akron, OH 44313",,OH,,US,+1 234-706-2564,https://mypiada.com/locations/akron,,Piada Italian Street Food,Q7190020
oh_akron_1694-w-market-st,pizza_hut_us,1694 W Market St,,Akron,OH,,US,+1 330-869-4848,https://locations.pizzahut.com/oh/akron/1694-w-market-st,,Pizza Hut,Q191615
36238,seven_eleven_ca_us,7-Eleven Store,,Akron,OH,,US,+1 330-869-0868,https://www.7-eleven.com/locations/oh/akron/1614-merriman-rd-36238,,7-Eleven,Q259340
https://restaurants.subway.com/#14908366,subway,Subway Wallhaven Plaza,,Akron Summit,OH,,US,+1 330-865-5984,https://restaurants.subway.com/united-states/oh/akron/1596-west-market-st,Mo-Su 08:30-21:30,Subway,Q244457
https://restaurants.subway.com/#14895702,subway,Subway,,Akron Summit,OH,,US,+1 234-334-6716,https://restaurants.subway.com/united-states/oh/akron/1562-akron-peninsula-rd,Mo-Fr 08:30-21:00; Sa-Su 09:00-21:00,Subway,Q244457
0330414400,sunoco_us,Sunoco,,AKRON,OH,,US,+1 330-864-7648,,,Sunoco,Q1423218
https://locations.tacobell.com/#3916835,taco_bell,Taco Bell,,Akron,OH,,US,+1 330-835-1359,https://locations.tacobell.com/oh/akron/1940-w--market-st.html,Mo-Fr 07:00-03:00; Sa 09:15-03:00; Su 07:00-03:00,Taco Bell,Q752941
4431300037,usps_collection_boxes,USPS COLLECTION BOX - BLUE BOX,945 MULL AVE,AKRON,OH,,US,,,,United States Postal Service,Q668687
4431300010,usps_collection_boxes,USPS COLLECTION BOX - BLUE BOX,2108 BRAEWICK CIR,AKRON,OH,,US,,,,United States Postal Service,Q668687
4431300061,usps_collection_boxes,USPS COLLECTION BOX - BLUE BOX,2108 BRAEWICK CIR,AKRON,OH,,US,,,,United States Postal Service,Q668687
4431300068,usps_collection_boxes,USPS COLLECTION BOX - BLUE BOX,1900 W MARKET ST,AKRON,OH,,US,,,,United States Postal Service,Q668687
4431300005,usps_collection_boxes,USPS COLLECTION BOX - BLUE BOX,2603 W MARKET ST,AKRON,OH,,US,,,,United States Postal Service,Q668687
4431300052,usps_collection_boxes,USPS COLLECTION BOX - BLUE BOX,1835 W MARKET ST,AKRON,OH,,US,,,,United States Postal Service,Q668687
4431300026,usps_collection_boxes,USPS COLLECTION BOX - BLUE BOX,1546 W MARKET ST,AKRON,OH,,US,,,,United States Postal Service,Q668687
4431300063,usps_collection_boxes,USPS COLLECTION BOX - BLUE BOX,1546 W MARKET ST,AKRON,OH,,US,,,,United States Postal Service,Q668687
4431300016,usps_collection_boxes,USPS COLLECTION BOX - BLUE BOX,1432 JEFFERSON AVE,AKRON,OH,,US,,,,United States Postal Service,Q668687
4431300012,usps_collection_boxes,USPS COLLECTION BOX - BLUE BOX,594 CASTLE BLVD,AKRON,OH,,US,,,,United States Postal Service,Q668687
4431300035,usps_collection_boxes,USPS COLLECTION BOX - BLUE BOX,900 W MARKET ST,AKRON,OH,,US,,,,United States Postal Service,Q668687
4431300022,usps_collection_boxes,USPS COLLECTION BOX - BLUE BOX,929 HAMPTON RIDGE DR,AKRON,OH,,US,,,,United States Postal Service,Q668687
4431300003,usps_collection_boxes,USPS COLLECTION BOX - BLUE BOX,1840 BROOKWOOD DR,AKRON,OH,,US,,,,United States Postal Service,Q668687
4431300069,usps_collection_boxes,USPS COLLECTION BOX - BLUE BOX,1326 WEATHERVANE LN,AKRON,OH,,US,,,,United States Postal Service,Q668687
4431300055,usps_collection_boxes,USPS COLLECTION BOX - BLUE BOX,1326 WEATHERVANE LN,AKRON,OH,,US,,,,United States Postal Service,Q668687
4431300039,usps_collection_boxes,USPS COLLECTION BOX - BLUE BOX,1460 N PORTAGE PATH,AKRON,OH,,US,,,,United States Postal Service,Q668687
4431300064,usps_collection_boxes,USPS COLLECTION BOX - BLUE BOX,1562 AKRON PENINSULA RD,AKRON,OH,,US,,,,United States Postal Service,Q668687
,visa,,,ALLIANCE,OH,,US,,,,,
,visa,,,AKRON,OH,,US,,,,,
,visa,,,AKRON,OH,,US,,,,,
,visa,,,AKRON,OH,,US,,,,,
,visa,,,AKRON,OH,,US,,,,,
,visa,,,AKRON,OH,,US,,,,,
,visa,,,AKRON,OH,,US,,,,,
,visa,,,AKRON,OH,,US,,,,,
,visa,,,AKRON,OH,,US,,,,,
,visa,,,AKRON,OH,,US,,,,,
,visa,,,AKRON,OH,,US,,,,,
,visa,,,AKRON,OH,,US,,,,,
,visa,,,AKRON,OH,,US,,,,,
,visa,,,AKRON,OH,,US,,,,,
,visa,,,AKRON,OH,,US,,,,,
,visa,,,AKRON,OH,,US,,,,,
,visa,,,AKRON,OH,,US,,,,,
,visa,,,AKRON,OH,,US,,,,,
,visa,,,AKRON,OH,,US,,,,,
,visa,,,AKRON,OH,,US,,,,,
,visa,,,AKRON,OH,,US,,,,,
,visa,,,AKRON,OH,,US,,,,,
,visa,,,AKRON,OH,,US,,,,,
,visa,,,AKRON,OH,,US,,,,,
,visa,,,AKRON,OH,,US,,,,,
,visa,,,AKRON,OH,,US,,,,,
,visa,,,AKRON,OH,,US,,,,,
,visa,,,AKRON,OH,,US,,,,,
,visa,,,AKRON,OH,,US,,,,,
,visa,,,AKRON,OH,,US,,,,,
,visa,,,AKRON,OH,,US,,,,,
,visa,,,AKRON,OH,,US,,,,,
,visa,,,AKRON,OH,,US,,,,,
,visa,,,FAIRLAWN,OH,,US,,,,,
,visa,,,GHENT,OH,,US,,,,,
,visa,,,BATH,OH,,US,,,,,
https://www.walgreens.com/locator/walgreens-1925+w+market+st-akron-oh-44313/id=3276,walgreens,Walgreens,,Akron,OH,,US,+1 330-869-2097,https://www.walgreens.com/locator/walgreens-1925+w+market+st-akron-oh-44313/id=3276,Mo-Fr 07:00-21:00; Sa-Su 08:00-21:00,Walgreens,Q1591889
442a337f1c660a1a7ee93332caf39082,western_union,ADVANCE AMERICA #03947,,Akron,OH,,US,+1 330-836-0646,https://location.westernunion.com/us/oh/akron/442a337f1c660a1a7ee93332caf39082,Mo-Th 10:00-18:00; Fr 09:00-18:00; Sa 09:00-13:00,Western Union,Q861042
be7bb20cd8dc637783c2ccce2b38f313,western_union,7-ELEVEN #36238,,Akron,OH,,US,+1 330-869-0868,https://location.westernunion.com/us/oh/akron/be7bb20cd8dc637783c2ccce2b38f313,,Western Union,Q861042
akron,whole_foods,Akron,1745 W Market St,Akron,OH,,US,+1 330-615-2100,https://www.wholefoodsmarket.com/stores/akron,Mo-Su 08:00-21:00,Whole Foods,Q1809448
15700,wingstop,Wingstop Akron Market St,1698 W Market St,Akron,OH,,US,+1 330-836-9464,,,Wingstop,Q8025339
