Ref,Spider,Name,Address,City,State,Zipcode,Country,Phone,Website,Hours,Brand,WikiData
30227,bluerhino,Acme #18,,Akron,OH,,US,+1 330-745-3533,,,Blue Rhino,Q65681213
181029,bluerhino,Family Dollar #05164,,Akron,OH,,US,+1 234-900-7420,,,Blue Rhino,Q65681213
239918,bluerhino,Circle K #4705584,,Akron,OH,,US,+1 330-753-9300,,,Blue Rhino,Q65681213
07756884765714431400100000000000,bp,BP,,Akron,OH,,US,+1 330-745-5882,,24/7,BP,Q152057
21672727502154431400100000000000,bp,BP,,Akron,OH,,US,+1 330-745-8732,,24/7,BP,Q152057
43309,citi,ATM Circle K,,Akron,OH,,US,,,,Citibank,Q857063
40999,citi,ATM Circle K,,Akron,OH,,US,,,,Citibank,Q857063
ATM-204,citizens_us,,,Akron,OH,,US,,,24/7,Citizens,Q5122694
,credit_union_us,Ohio HealthCare FCU,,Akron,OH,,US,+1 330-848-6066,,Mo-Fr 09:00-04:00,,
Motorcraft3462USAEnglish,ford,Mobility Works,,Ohio,OH,,US,,,,Ford,Q44294
161700,marathon_petroleum_us,MARATHON 2115,,AKRON,OH,,US,+1 330-753-4277,,,Marathon,Q458363
3904,rentacenter,Rent-A-Center,,Akron,OH,,US,+1 330-745-7344,https://locations.rentacenter.com/ohio/akron/938-kenmore-blvd/,Mo-Sa 10:00-18:00,Rent-A-Center,Q7313497
https://restaurants.subway.com/#14916093,subway,Subway,,Akron Summit,OH,,US,+1 330-753-2011,https://restaurants.subway.com/united-states/oh/akron/1033-kenmore-blvd,Mo-Su 08:00-21:00,Subway,Q244457
1368846,usps,KENMORE,,AKRON,OH,,US,+1 330-745-8938,,Mo-Fr 08:30-17:00; Sa 08:30-12:00,United States Postal Service,Q668687
4431400041,usps_collection_boxes,USPS COLLECTION BOX - BLUE BOX,2814 WINGATE AVE,AKRON,OH,,US,,,,United States Postal Service,Q668687
4431400003,usps_collection_boxes,USPS COLLECTION BOX - PO LOBBY,2394 EAST AVE,AKRON,OH,,US,,,,United States Postal Service,Q668687
4431400047,usps_collection_boxes,USPS COLLECTION BOX - PO LOBBY,2394 EAST AVE,AKRON,OH,,US,,,,United States Postal Service,Q668687
4431400044,usps_collection_boxes,USPS COLLECTION BOX - EXPRESS,2394 EAST AVE,AKRON,OH,,US,,,,United States Postal Service,Q668687
4431400050,usps_collection_boxes,USPS COLLECTION BOX - PO LOBBY,2394 EAST AVE,AKRON,OH,,US,,,,United States Postal Service,Q668687
4431400001,usps_collection_boxes,USPS COLLECTION BOX - BLUE BOX,2394 EAST AVE,AKRON,OH,,US,,,,United States Postal Service,Q668687
4431400046,usps_collection_boxes,USPS COLLECTION BOX - BLUE BOX,666 CARNEGIE AVE,AKRON,OH,,US,,,,United States Postal Service,Q668687
4431400015,usps_collection_boxes,USPS COLLECTION BOX - BLUE BOX,2147 EAST AVE,AKRON,OH,,US,,,,United States Postal Service,Q668687
4431400032,usps_collection_boxes,USPS COLLECTION BOX - BLUE BOX,690 W WATERLOO RD,AKRON,OH,,US,,,,United States Postal Service,Q668687
4431400038,usps_collection_boxes,USPS COLLECTION BOX - BLUE BOX,485 W WATERLOO RD,AKRON,OH,,US,,,,United States Postal Service,Q668687
4431400029,usps_collection_boxes,USPS COLLECTION BOX - BLUE BOX,873 KENMORE BLVD,AKRON,OH,,US,,,,United States Postal Service,Q668687
,visa,,,AKRON,OH,,US,,,,,
,visa,,,AKRON,OH,,US,,,,,
,visa,,,AKRON,OH,,US,,,,,
,visa,,,AKRON,OH,,US,,,,,
,visa,,,AKRON,OH,,US,,,,,
,visa,,,AKRON,OH,,US,,,,,
,visa,,,AKRON,OH,,US,,,,,
,visa,,,AKRON,OH,,US,,,,,
,visa,,,AKRON,OH,,US,,,,,
,visa,,,AKRON,OH,,US,,,,,
,visa,,,AKRON,OH,,US,,,,,
,visa,,,AKRON,OH,,US,,,,,
,visa,,,AKRON,OH,,US,,,,,
,visa,,,AKRON,OH,,US,,,,,
,visa,,,AKRON,OH,,US,,,,,
,visa,,,AKRON SUMMIT,OH,,US,,,,,
,visa,,,AKRON,OH,,US,,,,,
,visa,,,AKRON,OH,,US,,,,,
,visa,,,AKRON,OH,,US,,,,,
,visa,,,AKRON,OH,,US,,,,,
,visa,,,AKRON,OH,,US,,,,,
,visa,,,AKRON,OH,,US,,,,,
,visa,,,AKRON,OH,,US,,,,,
,visa,,,AKRON,OH,,US,,,,,
,visa,,,AKRON,OH,,US,,,,,
,visa,,,AKRON,OH,,US,,,,,
,visa,,,AKRON,OH,,US,,,,,
,visa,,,AKRON,OH,,US,,,,,
,visa,,,AKRON,OH,,US,,,,,
,visa,,,AKRON,OH,,US,,,,,
,visa,,,AKRON,OH,,US,,,,,
,visa,,,AKRON,OH,,US,,,,,
,visa,,,AKRON,OH,,US,,,,,
,visa,,,AKRON,OH,,US,,,,,
,visa,,,AKRON,OH,,US,,,,,
,visa,,,AKRON,OH,,US,,,,,
,visa,,,AKRON,OH,,US,,,,,
,visa,,,AKRON,OH,,US,,,,,
,visa,,,AKRON,OH,,US,,,,,
