Ref,Spider,Name,Address,City,State,Zipcode,Country,Phone,Website,Hours,Brand,WikiData
72304145,moneygram,EBIXCASH WORLD MONEY LIMITED - NAGPUR -,,NAGPUR,,,IN,+91 712 661 6954,,Mo-Sa 10:00-18:00; Su 00:00-24:00,MoneyGram,Q1944412
72971976,moneygram,MEETSONS TRADING,,NAGPUR,,,IN,+91 98237 19962,,Mo-Su 08:00-21:00,MoneyGram,Q1944412
72953703,moneygram,SAU USHATAIBADE MULTISTATE CO OP SO,,NAGPUR,,,IN,+91 84217 30320,,Mo-Su 08:00-21:00,MoneyGram,Q1944412
73386612,moneygram,ARTH TOURS AND TRAVELS,,NAGPUR,,,IN,+91 90110 84409,,Mo-Su 08:00-21:00,MoneyGram,Q1944412
73414885,moneygram,CONSULT ME,,NAGPUR,,,IN,+91 98503 24123,,Mo-Su 08:00-21:00,MoneyGram,Q1944412
73420918,moneygram,AKASH TOURS AND TRAVELS (NAGPUR)-IBP,,NAGPUR,,,IN,+91 72765 97246,,Mo-Su 08:00-21:00,MoneyGram,Q1944412
73440257,moneygram,AYUSHI ENTERPRISES,,NAGPUR,,,IN,+91 93731 01208,,Mo-Su 08:00-21:00,MoneyGram,Q1944412
73424927,moneygram,YUVA CYBER CAFE,,NAGPUR,,,IN,+91 97664 92891,,Mo-Su 08:00-21:00,MoneyGram,Q1944412
73449973,moneygram,GHUMANEWALA,,NAGPUR,,,IN,+91 90756 03717,,Mo-Su 08:00-21:00,MoneyGram,Q1944412
73422770,moneygram,SHRI BABU TOURS & TRAVELS (NAGPUR)-IBP,,NAGPUR,,,IN,+91 99700 58564,,Mo-Su 08:00-21:00,MoneyGram,Q1944412
73735056,moneygram,MAHALAXMI TRAVELS,,NAGPUR,,,IN,+91 93711 88249,,Mo-Su 08:00-21:00,MoneyGram,Q1944412
73729826,moneygram,PUKHRAJ CONSULTANCY AND SERVICES,,NAGPUR,,,IN,+91 99759 41897,,Mo-Su 08:00-21:00,MoneyGram,Q1944412
73814511,moneygram,NOMADS HOLIDAYS,,NAGPUR,,,IN,+91 84088 03000,,Mo-Su 08:00-21:00,MoneyGram,Q1944412
73814388,moneygram,VOYAGE GLOBAL JOURNEYS PVT LTD,,NAGPUR,,,IN,+91 99607 55777,,Mo-Su 08:00-21:00,MoneyGram,Q1944412
72958973,moneygram,SAI XEROX CENTER (NAGPUR)-IBP,,NAGPUR,,,IN,+91 94236 87337,,Mo-Su 08:00-21:00,MoneyGram,Q1944412
72971701,moneygram,TEJSHREE TRAVELS,,NAGPUR,,,IN,+91 90491 21654,,Mo-Su 08:00-21:00,MoneyGram,Q1944412
73931986,moneygram,ASIS HOLIDAYS,,NAGPUR,,,IN,+91 95272 54444,,Mo-Su 08:00-21:00,MoneyGram,Q1944412
74083163,moneygram,EQUITAS SMALL FINANCE BANK,,NAGPUR,,,IN,+91 98408 15178,,Mo-Sa 10:00-17:00; Su 00:00-24:00,MoneyGram,Q1944412
74219856,moneygram,UNIMONI FINANCIAL SERVICES LIMITED - NAG,,NAGPUR,,,IN,+91 98811 01833,,Mo-Fr 09:30-18:30; Sa 09:30-14:00; Su 00:00-24:00,MoneyGram,Q1944412
74559419,moneygram,SHRI MAHALAXMI UTILITY SERVICES,,NAGPUR,,,IN,+91 98604 31497,,Mo-Su 08:00-21:00,MoneyGram,Q1944412
65566411,moneygram,THOMAS COOK,,NAGPUR,,,IN,+91 22 6609 1039,,Mo-Sa 09:30-18:00; Su 00:00-24:00,MoneyGram,Q1944412
,visa,,,MUMBAI,,,IN,,,,,
,visa,,,NAGPUR,,,IN,,,,,
,visa,,,NAGPUR,,,IN,,,,,
,visa,,,NAGPUR,,,IN,,,,,
,visa,,,MUMBAI,,,IN,,,,,
,visa,,,NAGPUR,,,IN,,,,,
,visa,,,NAGPUR,,,IN,,,,,
