Ref,Spider,Name,Address,City,State,Zipcode,Country,Phone,Website,Hours,Brand,WikiData
81,aaa,Queensbury Office,,Queensbury,NY,,US,+1 518-792-0068,,,American Automobile Association,Q463436
https://stores.advanceautoparts.com/ny/queensbury/756-glen-st,advance_auto_parts_us,Advance Auto Parts,,Queensbury,NY,,US,+1 518-745-7900,https://stores.advanceautoparts.com/ny/queensbury/756-glen-st,Mo-Sa 07:30-21:00; Su 09:00-20:00,Advance Auto Parts,Q4686051
https://stores.aldi.us/#4421020,aldi_sud_us,ALDI  763 Glen St,,Queensbury,NY,,US,+1 855-465-9118,https://stores.aldi.us/ny/queensbury/763-glen-st,Mo-Su 09:00-20:00,ALDI,Q41171672
https://storelocations.ae.com/#23610397,american_eagle_outfitters,American Eagle Outlet Lake George Outlets,,Queensbury,NY,,US,+1 518-223-1002,https://storelocations.ae.com/us/ny/queensbury/02447-1415-state-route-9.html,Mo-Su 10:00-18:00,American Eagle Outlet,Q2842931
https://restaurants.applebees.com/en-us/ny/queensbury/255-quaker-road-94023,applebees,Connect with this Applebee's,,Queensbury,NY,,US,+1 518-793-5420,https://restaurants.applebees.com/en-us/ny/queensbury/255-quaker-road-94023,Mo-Sa 11:00-24:00; Su 11:00-22:00,Applebees,Q621532
11956,asics_us,DICK'S Sporting Goods  - Queensbury ,578 Aviation Rd spc d-103,Queensbury,NY,,US,+1 518-743-8790,,Mo-Sa 09:00-21:00; Su 10:00-19:00,asics,Q327247
907,att_us,QUEENSBURY STORE,,Queensbury,NY,,US,+1 518-792-4700,https://www.att.com/stores/new-york/queensbury/907,Mo-Sa 10:00-20:00; Su 11:00-18:00,AT&T,Q298594
https://locations.auntieannes.com/#6443,auntie_annes,Auntie Anne's Queensbury Wal-Mart #2116,,Queensbury,NY,,US,+1 518-761-2520,https://locations.auntieannes.com/ny/queensbury/891-route-9,,Auntie Anne's,Q4822010
https://locations.auntieannes.com/#6449,auntie_annes,Auntie Anne's Aviation Mall,,Queensbury,NY,,US,+1 518-761-4625,https://locations.auntieannes.com/ny/queensbury/578-aviation-road,Mo-Sa 11:00-19:00; Su 12:00-18:00,Auntie Anne's,Q4822010
5095,autozone_us,AutoZone Auto Parts Queensbury,,Queensbury,NY,,US,+1 518-798-8891,https://www.autozone.com/locations/ny/queensbury/707-glen-st.html,Mo-Sa 08:00-20:00; Su 09:00-19:00,AutoZone,Q4826087
https://local.biglots.com/#41460726,biglots,Big Lots - Queensbury,,Queensbury,NY,,US,+1 518-223-9700,https://local.biglots.com/ny/queensbury/751-upper-glen-st,Mo-Sa 09:00-21:00; Su 10:00-19:00,Big Lots,Q4905973
88445,bluerhino,Exit 19 Short Stop,,Queensbury,NY,,US,+1 518-793-7071,,,Blue Rhino,Q65681213
96729,bluerhino,Cumberland Farms #1584,,Queensbury,NY,,US,+1 518-793-7451,,,Blue Rhino,Q65681213
11558,bluerhino,Walmart #2116,,Queensbury,NY,,US,+1 518-793-0309,,,Blue Rhino,Q65681213
196969,bluerhino,Fastrac #266,,Queensbury,NY,,US,+1 518-793-2647,,,Blue Rhino,Q65681213
192045,bluerhino,Walgreens #19426,,Queensbury,NY,,US,+1 518-793-3132,,,Blue Rhino,Q65681213
191625,bluerhino,Price Chopper #040,,Queensbury,NY,,US,+1 518-792-7456,,,Blue Rhino,Q65681213
114890,bluerhino,Hannaford #8360,,Queensbury,NY,,US,+1 518-798-8676,,,Blue Rhino,Q65681213
25941,bluerhino,Lowe's #641,,Queensbury,NY,,US,+1 518-798-9050,,,Blue Rhino,Q65681213
96725,bluerhino,Cumberland Farms #1504,,Queensbury,NY,,US,+1 518-792-6285,,,Blue Rhino,Q65681213
149529,bluerhino,Speedway #7700,,Queensbury,NY,,US,+1 518-761-9506,,,Blue Rhino,Q65681213
128011,bluerhino,Walmart #4403 - Supercenter,,Queensbury,NY,,US,+1 518-746-4155,,,Blue Rhino,Q65681213
24367,cadillac,D'ELLA CADILLAC,,queensbury,NY,,US,+1 518-793-3871,https://www.dellacadillac.com,Mo-Th 09:00-19:00; Fr 09:00-18:00; Sa 09:00-17:00,Cadillac,Q27436
0543,carpet_one_floor_and_home_us,Floormaster Carpet One Floor & Home,,Queensbury,NY,,US,+1 518-793-3367,https://www.floormastercarpetone.com/,,Carpet One Floor & Home,Q121335910
ny_queensbury_820-state-route-9,chipotle, ,,Queensbury,NY,,US,+1 518-761-6902,https://locations.chipotle.com/ny/queensbury/820-state-route-9,,Chipotle,Q465751
79064,citi,ATM Speedway,,Queensbury,NY,,US,,,,Citibank,Q857063
51436,citi,ATM CVS,,Queensbury,NY,,US,,,,Citibank,Q857063
49110,citi,ATM CVS,,Queensbury,NY,,US,,,,Citibank,Q857063
92704,citi,ATM Walgreens,,Queensbury,NY,,US,,,,Citibank,Q857063
82815,citi,ATM Target,,Queensbury,NY,,US,,,,Citibank,Q857063
78563,citi,ATM Speedway,,Queensbury,NY,,US,,,,Citibank,Q857063
880002,citizens_us,Citizens Queensbury,,Queensbury,NY,,US,+1 518-793-7711,,Mo-Th 09:00-16:00; Fr 09:00-17:00; Sa 09:00-12:00,Citizens,Q5122694
ATM-1918,citizens_us,,,Queensbury,NY,,US,,,,Citizens,Q5122694
ATM-463,citizens_us,,,Queensbury,NY,,US,+1 518-793-7711,,24/7,Citizens,Q5122694
ATM-1740,citizens_us,,,Queensbury,NY,,US,,,,Citizens,Q5122694
ATM-1743,citizens_us,,,Queensbury,NY,,US,,,,Citizens,Q5122694
ATM-1810,citizens_us,,,Glens Falls,NY,,US,,,,Citizens,Q5122694
80132109,cricket_wireless,Cricket Wireless Authorized Retailer,,Queensbury,NY,,US,+1 518-223-0082,https://www.cricketwireless.com/stores/ll/US/NY/Queensbury/820-State-Route-9,Mo-Sa 10:00-19:00; Su 12:00-17:00,Cricket Wireless,Q5184987
520127,cumberland_farms_us,Cumberland Farms,,QUEENSBURY,NY,,US,+1 518-798-0934,https://www.cumberlandfarms.com/find-us/generic-store-page/?id=001608,,Cumberland Farms,Q1143685
520022,cumberland_farms_us,Cumberland Farms,,QUEENSBURY,NY,,US,+1 518-792-6285,https://www.cumberlandfarms.com/find-us/generic-store-page/?id=001504,,Cumberland Farms,Q1143685
520056,cumberland_farms_us,Cumberland Farms,,QUEENSBURY,NY,,US,+1 518-793-7451,https://www.cumberlandfarms.com/find-us/generic-store-page/?id=001584,,Cumberland Farms,Q1143685
419,cvs_us,CVS Pharmacy,,Queensbury,NY,,US,+1 518-793-1881,https://www.cvs.com/store-locator/queensbury-ny-pharmacies/216-quaker-road-queensbury-ny-12804/storeid=419,Mo-Su 08:00-22:00,CVS Pharmacy,Q2078880
2091,cvs_us,CVS Pharmacy,,Queensbury,NY,,US,+1 518-792-4302,https://www.cvs.com/store-locator/queensbury-ny-pharmacies/5-main-street-queensbury-ny-12804/storeid=2091,Mo-Su 08:00-21:00,CVS Pharmacy,Q2078880
247305,dennys,Denny's,,Queensbury,NY,,US,+1 518-798-4388,https://locations.dennys.com/NY/QUEENSBURY/247305,Mo-We 07:00-24:00; Th-Su 00:00-24:00,Denny's,Q1189695
164,dickssportinggoods,"DICK'S Sporting Goods Store in Queensbury, NY | 164",,Queensbury,NY,,US,+1 518-743-8790,https://stores.dickssportinggoods.com/ny/queensbury/164/,Mo-Sa 09:00-21:00; Su 10:00-19:00,Dick's Sporting Goods,Q5272601
3505,dominos_pizza_us,Domino's Pizza,,Queensbury,NY,,US,+1 518-601-2500,https://pizza.dominos.com/new-york/queensbury/820-rt-9-suite-1322,Mo-Th 10:30-24:00; Fr-Sa 10:30-01:00; Su 10:30-24:00,Domino's,Q839466
331893,dunkin_us,Dunkin',,Queensbury,NY,,US,+1 518-743-9544,https://locations.dunkindonuts.com/en/ny/queensbury/22-main-st/331893,Mo-Su 05:00-20:00,Dunkin',Q847743
301314,dunkin_us,Dunkin',,Queensbury,NY,,US,+1 518-792-8469,https://locations.dunkindonuts.com/en/ny/queensbury/713-upper-glen-st/301314,Mo-Su 05:00-20:00,Dunkin',Q847743
355243,dunkin_us,Dunkin',,Queensbury,NY,,US,+1 518-793-2905,https://locations.dunkindonuts.com/en/ny/queensbury/985-state-route-149/355243,Mo-Su 06:00-19:00,Dunkin',Q847743
338971,dunkin_us,Dunkin',,Queensbury,NY,,US,+1 518-798-4728,https://locations.dunkindonuts.com/en/ny/queensbury/365-dix-avenue/338971,Mo-Su 05:00-20:00,Dunkin',Q847743
343755,dunkin_us,Dunkin',,Queensbury,NY,,US,+1 518-798-7471,https://locations.dunkindonuts.com/en/ny/queensbury/474-aviation-rd/343755,Mo-Su 05:00-20:00,Dunkin',Q847743
https://www.edwardjones.com/us-en/financial-advisor/brian-warner,edwardjones,Brian P Warner,,Queensbury,NY,,US,+1 518-223-0607,https://www.edwardjones.com/us-en/financial-advisor/brian-warner,Mo-Fr 08:30-16:30,Edward Jones,Q5343830
520127,eg_america_us,Cumberland Farms,,QUEENSBURY,NY,,US,+1 518-798-0934,https://www.cumberlandfarms.com/find-us/generic-store-page/?id=001608,,Cumberland Farms,Q1143685
520022,eg_america_us,Cumberland Farms,,QUEENSBURY,NY,,US,+1 518-792-6285,https://www.cumberlandfarms.com/find-us/generic-store-page/?id=001504,,Cumberland Farms,Q1143685
520056,eg_america_us,Cumberland Farms,,QUEENSBURY,NY,,US,+1 518-793-7451,https://www.cumberlandfarms.com/find-us/generic-store-page/?id=001584,,Cumberland Farms,Q1143685
520755,eg_america_us,Fastrac,,Queensbury,NY,,US,+1 518-793-2647,https://www.fastraccafe.com/find-us/generic-store-page/?id=500266,,Fastrac,Q117324848
640-bay-rd,einsteinbros,SUNY Adirondack Einstein Bros. Bagels,,Queensbury,NY,,US,+1 518-743-2200,https://locations.einsteinbros.com/us/ny/queensbury/640-bay-rd,Mo-Fr 07:30-14:00,Einstein Bros. Bagels,Q5349788
E124C5,enterprise,Queensbury,,Queensbury,NY,,US,+1 518-745-5020,,,Enterprise Rent-A-Car,Q17085454
200315254,exxonmobil,QUEENSBURY SHORT STOP,,QUEENSBURY,NY,,US,+1 518-793-0005,https://www.exxon.com/en/find-station/mobil-queensbury-ny-queensburyshortstop-200315254,Mo-Su 06:00-00:00,Mobil,Q109676002
200311714,exxonmobil,SHORT STOP EXIT 19,,QUEENSBURY,NY,,US,+1 518-793-7071,https://www.exxon.com/en/find-station/mobil-queensbury-ny-shortstopexit19-200311714,24/7,Mobil,Q109676002
520755,fastrac_cafe_us,Fastrac,,Queensbury,NY,,US,+1 518-793-2647,https://fastraccafe.com/find-us/generic-store-page/?id=500266,,Fastrac Cafe,Q117324848
646024,firestone_auto_care,Firestone Complete Auto Care,,Queensbury,NY,,US,+1 518-636-0642,https://local.firestonecompleteautocare.com/new-york/queensbury/657-upper-glen-street/,,Firestone,Q420837
https://locations.fivebelow.com/ny/queensbury/763-glen-street,five_below,"Five Below Queensbury, NY",,Queensbury,NY,,US,,https://locations.fivebelow.com/ny/queensbury/763-glen-street,Mo-Sa 10:00-20:00; Su 11:00-18:00,Five Below,Q5455836
https://restaurants.fiveguys.com/#15553224,five_guys_us,Five Guys Queensbury,,Queensbury,NY,,US,+1 518-745-5191,https://restaurants.fiveguys.com/735-upper-glen-street,"Mo-Su 11:00-21:30,11:00-22:00",Five Guys,Q1131810
Motorcraft4486USAEnglish,ford,Nemer Ford,,New York,NY,,US,+1 518-798-8834,,,Ford,Q44294
https://www.ford.com/dealerships/dealer-details/ny/queensbury/nemer-ford/,ford_dealers_us,Nemer Ford,,Queensbury,NY,,US,+1 518-636-4080,https://www.ford.com/dealerships/dealer-details/ny/queensbury/nemer-ford/,Mo-Th 09:00-19:00; Fr 09:00-18:00; Sa 09:00-17:00,Ford Motor Company,Q44294
6486,gamestop_us,Upper Glen Street,,Queensbury,NY,,US,+1 518-792-1498,https://www.gamestop.com/search/?store=6486,Mo-Th 11:00-20:00; Fr-Sa 11:00-21:00; Su 11:00-19:00,GameStop,Q202210
https://stores.gnc.com/#24057938,gnc,GNC Aviation Mall,,,NY,,US,+1 518-792-5100,https://stores.gnc.com/all-stores-new-york/queensbury/578-aviation-mall-rd,Mo-Th 11:00-19:00; Fr-Sa 11:00-21:00; Su 11:00-17:00,GNC,Q4808595
https://www.goldencorral.com/locations/location-detail/2590/golden-corral-quaker-road/,golden_corral,"Golden Corral 2590, Queensbury, NY",,Queensbury,NY,,US,+1 518-409-4239,https://www.goldencorral.com/locations/location-detail/2590/golden-corral-quaker-road/,,Golden Corral,Q4039560
40,golub_corporation_us,Market 32 Queensbury,,Queensbury,NY,,US,+1 518-792-7456,https://www.pricechopper.com/stores/ny/queensbury/market-32-40.html,Mo-Su 06:00-24:00,Market 32,Q123370878
https://stores.hannaford.com/#8905322,hannaford,Hannaford - Queensbury 190 Quaker Rd - Queensbury,,Warren County,NY,,US,+1 518-798-8676,https://stores.hannaford.com/ny/queensbury/8360,Mo-Su 07:00-23:00,Hannaford,Q5648760
https://www.harborfreight.com/storelocator/871-route-9-queensbury-12804?number=2989,harborfreight,"Harbor Freight Tools Queensbury, NY",,Queensbury,NY,,US,+1 518-685-1900,https://www.harborfreight.com/storelocator/871-route-9-queensbury-12804?number=2989,Mo-Sa 08:00-20:00; Su 09:00-18:00,Harbor Freight Tools,Q5654601
29912,h_r_block,H&R Block,,Queensbury,NY,,US,+1 518-792-4524,https://www.hrblock.com/local-tax-offices/new-york/queensbury/queensbury-plaza/29912/,,H&R Block,Q5627799
https://office.jacksonhewitt.com/#27580212,jackson_hewitt,Jackson Hewitt,,Queensbury,NY,,US,+1 518-798-7850,https://office.jacksonhewitt.com/tax-preparation-services-locations/en/ny/queensbury/891-route-9/52116,Mo-Fr 11:00-18:00,Jackson Hewitt,Q6117132
206,joann_us,JOANN Fabric and Crafts,,Queensbury,NY,,US,+1 518-743-1932,https://stores.joann.com/ny/queensbury/206/,Mo-Sa 09:00-19:00; Su 10:00-18:00,JOANN,Q6203968
1070,kay_jewelers,KAY Jewelers,894 State Rt 9,Queensbury,NY,,US,+1 518-792-5222,,Mo-Sa 11:00-19:00; Su 12:00-18:00,Kay Jewelers,Q62029290
https://locations.kfc.com/#11246890,kfc,Chicken Nuggets Near Queensbury,,Queensbury,NY,,US,,https://locations.kfc.com/ny/queensbury/799-us-route-9/chickennugget,Mo-Su 10:00-22:00,KFC,Q524757
GFLFI,marriott,Fairfield Inn & Suites Queensbury Glens Falls/Lake George Area,,Queensbury,NY,,US,+1 518-832-4056,https://www.marriott.com/GFLFI,,Fairfield by Marriott,Q5430314
18599,mattress_firm_us,Mattress Firm Queensbury,,Queensbury,NY,,US,+1 518-761-4042,https://www.mattressfirm.com/en-us/stores/ny/queensbury/150002/,,Mattress Firm,Q6791878
https://locations.maurices.com/#11687994,maurices,maurices Aviation Mall,,Queensbury,NY,,US,+1 518-798-1629,https://locations.maurices.com/us/ny/queensbury/578-aviation-rd,Mo-Th 11:00-19:00; Fr-Sa 10:00-21:00; Su 11:00-17:00,maurices,Q6793571
348,mightyflame,STEWARTS SHOP #417,,QUEENSBURY,NY,,US,+1 518-792-5371,,,Mighty Flame,
347,mightyflame,STEWARTS SHOP #415,,Queensbury,NY,,US,+1 518-761-6035,,,Mighty Flame,
319,mightyflame,STEWARTS SHOPS #374,,QUEENSBURY,NY,,US,+1 518-761-9691,,,Mighty Flame,
380,mightyflame,STEWARTS SHOPS #458,,QUEENSBURY,NY,,US,+1 518-792-0385,,,Mighty Flame,
https://locations.moes.com/#711,moes,Moe's Southwest Grill,,Queensbury,NY,,US,+1 518-615-0233,https://locations.moes.com/ny/queensbury/756-upper-glen-street,Mo-Su 10:30-21:00,Moe's Southwest Grill,Q6889938
71449991,moneygram,WAL-MART - #2116,,QUEENSBURY,NY,,US,+1 518-793-0309,,Mo-Su 07:00-21:00,MoneyGram,Q1944412
71450058,moneygram,WAL-MART - #4403,,QUEENSBURY,NY,,US,+1 518-746-4155,,24/7,MoneyGram,Q1944412
66781279,moneygram,WAL-MART - #4403,,QUEENSBURY,NY,,US,+1 518-746-4155,,24/7,MoneyGram,Q1944412
NNA5548,nissan_europe,LIA NISSAN OF GLENS FALLS,,QUEENSBURY,NY,,US,+1 518-681-3800,https://www.lianissangf.com,Mo-Sa 09:00-17:00,Nissan,Q20165
345,ollies_bargain_outlet,Ollie's Bargain Outlet,,Queensbury,NY,,US,+1 518-502-1092,https://www.ollies.us/locations/578-aviation-road-queensbury-ny/,Mo-Sa 09:00-21:00; Su 10:00-19:00,Ollie's Bargain Outlet,Q7088304
https://locations.oreillyauto.com/ny/queensbury/check-engine-light-testing-5950.html,oreilly,Your Queensbury O'Reilly Auto Parts Store,,Queensbury,NY,,US,+1 518-832-7200,https://locations.oreillyauto.com/ny/queensbury/check-engine-light-testing-5950.html,Mo-Sa 07:30-21:00; Su 08:00-20:00,O'Reilly Auto Parts,Q7071951
https://locations.oreillyauto.com/ny/queensbury/wiper-installation-5950.html,oreilly,Your Queensbury O'Reilly Auto Parts Store,,Queensbury,NY,,US,+1 518-832-7200,https://locations.oreillyauto.com/ny/queensbury/wiper-installation-5950.html,Mo-Sa 07:30-21:00; Su 08:00-20:00,O'Reilly Auto Parts,Q7071951
https://locations.oreillyauto.com/ny/queensbury/battery-testing-5950.html,oreilly,Your Queensbury O'Reilly Auto Parts Store,,Queensbury,NY,,US,+1 518-832-7200,https://locations.oreillyauto.com/ny/queensbury/battery-testing-5950.html,Mo-Sa 07:30-21:00; Su 08:00-20:00,O'Reilly Auto Parts,Q7071951
https://locations.oreillyauto.com/ny/queensbury/autopartes-5950.html,oreilly,Tu tienda O'Reilly Auto Parts en Queensbury,,Queensbury,NY,,US,+1 518-832-7200,https://locations.oreillyauto.com/ny/queensbury/autopartes-5950.html,Mo-Sa 07:30-21:00; Su 08:00-20:00,O'Reilly Auto Parts,Q7071951
https://www.orkin.com/locations/new-york-ny/queensbury-pest-control/branch-992,orkin_us,Orkin,,Queensbury,NY,,US,+1 518-804-7001,https://www.orkin.com/locations/new-york-ny/queensbury-pest-control/branch-992,,Orkin,Q7102943
073355,penske,Barrett Transportation,,QUEENSBURY,NY,,US,+1 518-792-7761,https://www.pensketruckrental.com/locations/us/new_york/queensbury/073355/,,Penske,Q81234570
https://stores.petco.com/#27960266,petco,Petco Queensbury,,Queensbury,NY,,US,+1 518-792-3960,https://stores.petco.com/ny/queensbury/pet-supplies-queensbury-ny-3729.html,Mo-Sa 09:00-20:00; Su 10:00-19:00,Petco,Q7171798
ny_queensbury_578-aviation-road,pizza_hut_us,578 Aviation Road,,Queensbury,NY,,US,,https://locations.pizzahut.com/ny/queensbury/578-aviation-road,,Pizza Hut,Q191615
https://www.plannedparenthood.org/health-center/new-york/queensbury/12804/queensbury-health-center-4257-91110,planned_parenthood,Planned Parenthood,,Queensbury,NY,,US,,https://www.plannedparenthood.org/health-center/new-york/queensbury/12804/queensbury-health-center-4257-91110,,Planned Parenthood,Q2553262
home-depot-6160-9162,ppgpaints,HOME DEPOT 6160,,"Queensbury, ",NY,,US,+1 518-798-8301,https://www.ppgpaints.com/store-locator/us/new-york/queensbury-paint-stores/home-depot-6160-9162,,PPG Paints,Q83891559
curtis-lumber-34200,ppgpaints,CURTIS LUMBER,,"Queensbury, ",NY,,US,+1 518-792-8601,https://www.ppgpaints.com/store-locator/us/new-york/queensbury-paint-stores/curtis-lumber-34200,,PPG Paints,Q83891559
colorize-inc-65365,ppgpaints,"COLORIZE, INC.",,"Queensbury, ",NY,,US,+1 518-741-7001,https://www.ppgpaints.com/store-locator/us/new-york/queensbury-paint-stores/colorize-inc-65365,,PPG Paints,Q83891559
1415,regis,"Regis Salon – AVIATION MALL | Glens Falls, NY – 12804 | Salon #3419",,Glens Falls,NY,,US,+1 518-798-1222,https://www.regissalons.com/locations/ny/glens-falls/regis-salon-aviation-mall-haircuts-3419.html,,Regis,Q7309325
4088,rentacenter,Rent-A-Center,,Queensbury,NY,,US,+1 518-793-5300,https://locations.rentacenter.com/new-york/queensbury/765-upper-glen-st/,Mo-Sa 10:00-18:00,Rent-A-Center,Q7313497
752-upper-glen-st,staples,"Staples Queensbury, NY",,Queensbury,NY,,US,,https://stores.staples.com/ny/queensbury/752-upper-glen-st,Mo-Fr 08:00-20:00; Sa 09:00-19:00; Su 10:00-18:00,Staples,Q785943
261,stewartsshops,Stewart's Shops,,Queensbury,NY,,US,+1 518-792-3358,https://locations.stewartsshops.com/ll/US/NY/Queensbury/347-Aviation-Road,Mo-Su 04:30-00:00,Stewart's Shops,Q7615690
282,stewartsshops,Stewart's Shops,,Queensbury,NY,,US,+1 518-793-4937,https://locations.stewartsshops.com/ll/US/NY/Queensbury/977-State-Route-149,Mo-Su 04:30-23:00,Stewart's Shops,Q7615690
374,stewartsshops,Stewart's Shops,,Queensbury,NY,,US,+1 518-761-9691,https://locations.stewartsshops.com/ll/US/NY/Queensbury/221-Corinth-Road,Mo-Su 04:00-00:00,Stewart's Shops,Q7615690
396,stewartsshops,Stewart's Shops,,Queensbury,NY,,US,+1 518-793-8904,https://locations.stewartsshops.com/ll/US/NY/Queensbury/402-Bay-Road,Mo-Su 04:30-00:00,Stewart's Shops,Q7615690
415,stewartsshops,Stewart's Shops,,Queensbury,NY,,US,+1 518-761-6035,https://locations.stewartsshops.com/ll/US/NY/Queensbury/1002-U_S_-9,Mo-Su 04:30-23:00,Stewart's Shops,Q7615690
417,stewartsshops,Stewart's Shops,,Queensbury,NY,,US,+1 518-792-5371,https://locations.stewartsshops.com/ll/US/NY/Queensbury/777-Quaker-Road,Mo-Su 04:30-00:00,Stewart's Shops,Q7615690
458,stewartsshops,Stewart's Shops,,Queensbury,NY,,US,+1 518-792-0385,https://locations.stewartsshops.com/ll/US/NY/Queensbury/1433-State-Route-9,Mo-Su 04:30-23:00,Stewart's Shops,Q7615690
https://restaurants.subway.com/#14897748,subway,Subway,,Queensbury Warren,NY,,US,+1 518-798-7827,https://restaurants.subway.com/united-states/ny/queensbury/894-us-9,Mo-Th 08:00-21:30; Fr-Sa 08:00-22:00; Su 08:00-21:00,Subway,Q244457
https://restaurants.subway.com/#14909611,subway,Subway Wal-Mart #4403,,Queensbury Washington,NY,,US,+1 518-792-1785,https://restaurants.subway.com/united-states/ny/queensbury/24-quaker-ridge-boulevard,Mo-Tu 08:00-21:00; We 07:00-21:00; Th-Sa 08:00-21:00; Su 08:00-20:00,Subway,Q244457
https://restaurants.subway.com/#14915980,subway,Subway,,Queensbury Warren,NY,,US,+1 518-798-7821,https://restaurants.subway.com/united-states/ny/queensbury/75-77-main-street,Mo-Th 08:00-21:30; Fr-Sa 08:00-22:00; Su 08:00-21:00,Subway,Q244457
0435044300,sunoco_us,Sunoco,,QUEENSBURY,NY,,US,+1 518-793-4051,,,Sunoco,Q1423218
0433667300,sunoco_us,Sunoco,,QUEENSBURY,NY,,US,+1 518-761-6600,,Mo-Sa 06:00-23:00; Su 00:00-00:00,Sunoco,Q1423218
0347816100,sunoco_us,Sunoco,,QUEENSBURY,NY,,US,+1 518-743-0820,,Mo-Su 05:00-23:00,Sunoco,Q1423218
0328917000,sunoco_us,Sunoco,,QUEENSBURY,NY,,US,+1 518-361-3276,,Mo-Su 04:00-00:00,Sunoco,Q1423218
0200014900,sunoco_us,Sunoco,,QUEENSBURY,NY,,US,+1 518-409-8868,,,Sunoco,Q1423218
81525,supercuts,Price Rite Plaza,735 Upper Glen St Ste 2,Queensbury,NY,,US,+1 518-502-1832,https://www.supercuts.com/checkin/81525,Mo-Sa 09:00-18:00; Su 09:00-16:00,Supercuts,Q7643239
https://locations.tacobell.com/#6142280,taco_bell,Taco Bell,,Queensbury,NY,,US,+1 518-792-7864,https://locations.tacobell.com/ny/queensbury/741-upper-glen-st-.html,Mo-Sa 08:00-01:00; Su 08:00-22:00,Taco Bell,Q752941
https://locations.tacobell.com/#1023426227,taco_bell,Taco Bell,,Queensbury,NY,,US,+1 518-223-0738,https://locations.tacobell.com/ny/queensbury/355-dix-ave.html,Mo-We 07:00-20:00; Th 07:00-01:00; Fr 07:00-02:00; Sa 10:00-02:00; Su 07:00-01:00,Taco Bell,Q752941
https://locations.tacobell.com/#6145464,taco_bell,Taco Bell,,Queensbury,NY,,US,+1 518-792-0210,https://locations.tacobell.com/ny/queensbury/199-corinth-road.html,Mo-We 07:00-24:00; Th 12:00-24:00; Fr-Su 07:00-24:00,Taco Bell,Q752941
08669,tjx,Queensbury,820 Route 9,Queensbury,NY,,US,+1 518-761-7025,,Mo-Sa 09:30-21:30; Su 10:00-20:00,TJ Maxx,Q10860683
4NSX,tmobile_us,Glen St & Bank St,,Queensbury,NY,,US,+1 518-798-6282,https://www.t-mobile.com/store-locator/ny/queensbury/glen-st-bank-st,,T-Mobile,Q3511885
1433851,usps,QUEENSBURY,,QUEENSBURY,NY,,US,+1 518-745-4525,,Mo-Fr 09:00-17:00; Sa 09:00-13:00,United States Postal Service,Q668687
1280400035,usps_collection_boxes,USPS COLLECTION BOX - BLUE BOX,183 PITCHER RD,GLENS FALLS,NY,,US,,,,United States Postal Service,Q668687
1280400011,usps_collection_boxes,USPS COLLECTION BOX - BLUE BOX,198 LUZERNE RD,GLENS FALLS,NY,,US,,,,United States Postal Service,Q668687
1280400007,usps_collection_boxes,USPS COLLECTION BOX - BLUE BOX,1 MARGARET DR,GLENS FALLS,NY,,US,,,,United States Postal Service,Q668687
1280400042,usps_collection_boxes,USPS COLLECTION BOX - BLUE BOX,3 KENWOOD CIR,GLENS FALLS,NY,,US,,,,United States Postal Service,Q668687
1280400039,usps_collection_boxes,USPS COLLECTION BOX - BLUE BOX,742 BAY RD,GLENS FALLS,NY,,US,,,,United States Postal Service,Q668687
1280400018,usps_collection_boxes,USPS COLLECTION BOX - BLUE BOX,640 BAY RD,GLENS FALLS,NY,,US,,,,United States Postal Service,Q668687
1280400048,usps_collection_boxes,USPS COLLECTION BOX - BLUE BOX,640 BAY RD,GLENS FALLS,NY,,US,,,,United States Postal Service,Q668687
1280400022,usps_collection_boxes,USPS COLLECTION BOX - BLUE BOX,140 CRONIN RD,GLENS FALLS,NY,,US,,,,United States Postal Service,Q668687
1280400020,usps_collection_boxes,USPS COLLECTION BOX - BLUE BOX,251 QUAKER RD,GLENS FALLS,NY,,US,,,,United States Postal Service,Q668687
1280400012,usps_collection_boxes,USPS COLLECTION BOX - BLUE BOX,190 QUAKER RD,GLENS FALLS,NY,,US,,,,United States Postal Service,Q668687
1280400027,usps_collection_boxes,USPS COLLECTION BOX - BLUE BOX,63 QUAKER RD,GLENS FALLS,NY,,US,,,,United States Postal Service,Q668687
1280400040,usps_collection_boxes,USPS COLLECTION BOX - BLUE BOX,54 QUAKER RD,GLENS FALLS,NY,,US,,,,United States Postal Service,Q668687
1280400037,usps_collection_boxes,USPS COLLECTION BOX - BLUE BOX,756 UPPER GLEN ST,GLENS FALLS,NY,,US,,,,United States Postal Service,Q668687
1280400016,usps_collection_boxes,USPS COLLECTION BOX - BLUE BOX,696 STATE ROUTE 9,GLENS FALLS,NY,,US,,,,United States Postal Service,Q668687
1280400041,usps_collection_boxes,USPS COLLECTION BOX - PO LOBBY,1 NORTHWAY LN,GLENS FALLS,NY,,US,,,,United States Postal Service,Q668687
1280400002,usps_collection_boxes,USPS COLLECTION BOX - BLUE BOX,1 NORTHWAY LN,GLENS FALLS,NY,,US,,,,United States Postal Service,Q668687
1280400003,usps_collection_boxes,USPS COLLECTION BOX - BLUE BOX,1 NORTHWAY LN,GLENS FALLS,NY,,US,,,,United States Postal Service,Q668687
1280400028,usps_collection_boxes,USPS COLLECTION BOX - BLUE BOX,677 STATE ROUTE 9,GLENS FALLS,NY,,US,,,,United States Postal Service,Q668687
1280400009,usps_collection_boxes,USPS COLLECTION BOX - BLUE BOX,220 ROBERT GDNS N,GLENS FALLS,NY,,US,,,,United States Postal Service,Q668687
1280400050,usps_collection_boxes,USPS COLLECTION BOX - PO LOBBY,820 STATE ROUTE 9 STE 5B,GLENS FALLS,NY,,US,,,,United States Postal Service,Q668687
1280400014,usps_collection_boxes,USPS COLLECTION BOX - BLUE BOX,797 STATE ROUTE 9,GLENS FALLS,NY,,US,,,,United States Postal Service,Q668687
1280400010,usps_collection_boxes,USPS COLLECTION BOX - BLUE BOX,105 NEEDLE PARK CIR,GLENS FALLS,NY,,US,,,,United States Postal Service,Q668687
1280400034,usps_collection_boxes,USPS COLLECTION BOX - BLUE BOX,578 AVIATION RD,GLENS FALLS,NY,,US,,,,United States Postal Service,Q668687
1280400043,usps_collection_boxes,USPS COLLECTION BOX - BLUE BOX,431 AVIATION RD,GLENS FALLS,NY,,US,,,,United States Postal Service,Q668687
1280400008,usps_collection_boxes,USPS COLLECTION BOX - BLUE BOX,220 BURKE DR,GLENS FALLS,NY,,US,,,,United States Postal Service,Q668687
1280400030,usps_collection_boxes,USPS COLLECTION BOX - BLUE BOX,340 AVIATION RD,GLENS FALLS,NY,,US,,,,United States Postal Service,Q668687
1280400031,usps_collection_boxes,USPS COLLECTION BOX - BLUE BOX,340 AVIATION RD,GLENS FALLS,NY,,US,,,,United States Postal Service,Q668687
queensbury_oil-change-ae6206,valvoline_instant_oil_change,Valvoline,740 Glen Street ,Queensbury,NY,,US,+1 518-745-1731,https://store.vioc.com/ny/queensbury/oil-change-ae6206.html,,Valvoline Instant Oil Change,Q7912852
https://vcahospitals.com/adirondack,vca,VCA Adirondack Animal Hospital,,Queensbury,NY,,US,+1 518-793-6663,https://vcahospitals.com/adirondack,Mo-Fr 08:00-18:00; Sa 08:00-13:00,VCA,Q7906620
R00000159975,verizon_us,Queensbury,,Queensbury,NY,,US,+1 518-615-0778,https://www.verizon.com/stores/details/new-york/queensbury/queensbury-323805/,Mo-Sa 09:00-19:00; Su 10:00-17:00,Verizon,Q919641
,visa,,,TROY,NY,,US,,,,,
,visa,,,QUEENSBURY,NY,,US,,,,,
,visa,,,QUEENSBRY,NY,,US,,,,,
,visa,,,QUEENSBURY,NY,,US,,,,,
,visa,,,QUEENSBURY,NY,,US,,,,,
,visa,,,QUEENSBURY,NY,,US,,,,,
,visa,,,QUEENSBURY,NY,,US,,,,,
,visa,,,QUENSBURY,NY,,US,,,,,
,visa,,,QUENSBURY,NY,,US,,,,,
,visa,,,QUEENSBURY,NY,,US,,,,,
,visa,,,QUEENSBURY,NY,,US,,,,,
,visa,,,QUEENSBURY,NY,,US,,,,,
,visa,,,QUEENSBURY,NY,,US,,,,,
,visa,,,QUEENSBURY,NY,,US,,,,,
,visa,,,QUEENSBURG,NY,,US,,,,,
,visa,,,QUEENSBURY,NY,,US,,,,,
,visa,,,QUEENSBURY,NY,,US,,,,,
,visa,,,QUEENSBURY,NY,,US,,,,,
,visa,,,QUEENSBURY,NY,,US,,,,,
,visa,,,QUEENSBURY,NY,,US,,,,,
,visa,,,QUEENSBURY,NY,,US,,,,,
,visa,,,QUEENSBURY,NY,,US,,,,,
,visa,,,QUEENSBURY,NY,,US,,,,,
,visa,,,QUEENSBURY,NY,,US,,,,,
,visa,,,QUEENSBURY,NY,,US,,,,,
,visa,,,QUEENSBURY,NY,,US,,,,,
,visa,,,QUEENSBURY,NY,,US,,,,,
,visa,,,QUEENSBURY,NY,,US,,,,,
,visa,,,QUEENSBURY,NY,,US,,,,,
,visa,,,QUEENSBURY,NY,,US,,,,,
,visa,,,QUEENSBURY,NY,,US,,,,,
,visa,,,QUEENSBURY,NY,,US,,,,,
,visa,,,QUEENSBURY,NY,,US,,,,,
,visa,,,QUEENSBURY,NY,,US,,,,,
,visa,,,QUEENSBURY,NY,,US,,,,,
,visa,,,QUEENSBURY,NY,,US,,,,,
,visa,,,QUEENSBURY,NY,,US,,,,,
,visa,,,QUEENSBURY,NY,,US,,,,,
,visa,,,QUEENSBURY,NY,,US,,,,,
,visa,,,QUEENSBURY,NY,,US,,,,,
,visa,,,QUEENSBURY,NY,,US,,,,,
,visa,,,QUEENSBURY,NY,,US,,,,,
,visa,,,QUEENSBURY,NY,,US,,,,,
,visa,,,QUEENSBURY,NY,,US,,,,,
,visa,,,QUEENSBURY,NY,,US,,,,,
,visa,,,QUEENSBURY,NY,,US,,,,,
,visa,,,QUEENSBURY,NY,,US,,,,,
,visa,,,QUEENSBURY,NY,,US,,,,,
,visa,,,QUEENSBURY,NY,,US,,,,,
,visa,,,QUEENSBURY,NY,,US,,,,,
,visa,,,QUEENSBURY,NY,,US,,,,,
,visa,,,QUEENSBURY,NY,,US,,,,,
,visa,,,QUEENSBURY,NY,,US,,,,,
,visa,,,QUEENSBURY,NY,,US,,,,,
,visa,,,QUEENSBURY,NY,,US,,,,,
,visa,,,QUEENSBURY,NY,,US,,,,,
,visa,,,QUEENSBURY,NY,,US,,,,,
,visa,,,QUEENSBURY,NY,,US,,,,,
,visa,,,QUEENSBURY,NY,,US,,,,,
,visa,,,QUEENSBURY,NY,,US,,,,,
,visa,,,QUEENSBURY,NY,,US,,,,,
,visa,,,QUEENSBURY,NY,,US,,,,,
,visa,,,GLENS FALLS,NY,,US,,,,,
1082,visionworks,Empire Visionworks Northway Plaza,,Queensbury,NY,,US,+1 518-745-1200,https://locations.visionworks.com/ll/US/NY/Queensbury/820-Route-9,Mo-Fr 09:00-19:00; Sa 09:00-18:00,Visionworks,Q5422607
https://www.walgreens.com/locator/walgreens-724+glen+st-queensbury-ny-12804/id=19426,walgreens,Walgreens,,Queensbury,NY,,US,+1 518-793-3132,https://www.walgreens.com/locator/walgreens-724+glen+st-queensbury-ny-12804/id=19426,Mo-Sa 08:00-21:00; Su 09:00-18:00,Walgreens,Q1591889
https://locations.wendys.com/#9255125,wendys,"Wendy's Glen Falls in Queensbury, NY",,Queensbury,NY,,US,+1 518-792-3939,https://locations.wendys.com/united-states/ny/queensbury/714-upper-glen-street,"Mo-We 06:30-10:30,08:00-02:00; Th-Sa 06:30-10:30,08:00-03:00; Su 06:30-10:30,08:00-02:00",Wendy's,Q550258
47bf1c12dad63dd16ce40e96ebdeda7a,western_union,WALMART #002116,,Queensbury,NY,,US,+1 518-793-0309,https://location.westernunion.com/us/ny/queensbury/47bf1c12dad63dd16ce40e96ebdeda7a,Mo-Su 07:00-21:00,Western Union,Q861042
182c2d06d92c51c7a9424c8900d98e26,western_union,WALGREENS #19426,,Queensbury,NY,,US,+1 518-793-3132,https://location.westernunion.com/us/ny/queensbury/182c2d06d92c51c7a9424c8900d98e26,Mo-Fr 08:00-21:00; Sa 08:00-20:00; Su 08:00-19:00,Western Union,Q861042
6e3ddcd491afe55b4ad3f39a5ac8e042,western_union,WALMART #004403,,Queensbury,NY,,US,+1 518-746-4155,https://location.westernunion.com/us/ny/queensbury/6e3ddcd491afe55b4ad3f39a5ac8e042,Mo-Su 07:00-21:00,Western Union,Q861042
