Ref,Spider,Name,Address,City,State,Zipcode,Country,Phone,Website,Hours,Brand,WikiData
194256,bluerhino,Lingles Mkt-UNFI #459161,,Renovo,PA,,US,+1 570-923-0343,,,Blue Rhino,Q65681213
/pennsylvania/renovo/renovo-office/364-erie-avenue/,fcbanking,First Commonwealth Bank - Renovo Office,,Renovo,PA,,US,+1 570-531-8214,https://www.fcbanking.com/branch-locations/pennsylvania/renovo/renovo-office/364-erie-avenue/,Mo-Fr 09:00-17:00,First Commonwealth Bank,Q5452773
ecf371a2-1c25-e711-923d-005056890337,goodwill,Renovo,,Renovo,PA,,US,+1 570-923-7280,https://www.goodwill.org/locator/location/?store=ZWNmMzcxYTItMWMyNS1lNzExLTkyM2QtMDA1MDU2ODkwMzM3&lat=NDEuMzI2MzU=&lng=LTc3Ljc1Nzc4,,Goodwill,Q5583655
1379093,usps,RENOVO,,RENOVO,PA,,US,+1 570-923-1410,,"Mo-Fr 08:15-12:00,13:00-17:00; Sa 09:00-12:00",United States Postal Service,Q668687
1776400007,usps_collection_boxes,USPS COLLECTION BOX - BLUE BOX,2151 DELAWARE AVE,RENOVO,PA,,US,,,,United States Postal Service,Q668687
1776400003,usps_collection_boxes,USPS COLLECTION BOX - BLUE BOX,1101 HURON AVE,RENOVO,PA,,US,,,,United States Postal Service,Q668687
1776400013,usps_collection_boxes,USPS COLLECTION BOX - BLUE BOX,211 8TH ST,RENOVO,PA,,US,,,,United States Postal Service,Q668687
1776400006,usps_collection_boxes,USPS COLLECTION BOX - BLUE BOX,365 HURON AVE,RENOVO,PA,,US,,,,United States Postal Service,Q668687
1776400012,usps_collection_boxes,USPS COLLECTION BOX - PO LOBBY,365 HURON AVE,RENOVO,PA,,US,,,,United States Postal Service,Q668687
1776400015,usps_collection_boxes,USPS COLLECTION BOX - PO LOBBY,365 HURON AVE,RENOVO,PA,,US,,,,United States Postal Service,Q668687
1776400004,usps_collection_boxes,USPS COLLECTION BOX - BLUE BOX,416 4TH ST,RENOVO,PA,,US,,,,United States Postal Service,Q668687
1776400005,usps_collection_boxes,USPS COLLECTION BOX - BLUE BOX,167 PENNSYLVANIA AVE,RENOVO,PA,,US,,,,United States Postal Service,Q668687
,visa,,,RENOVO,PA,,US,,,,,
,visa,,,RENOVO,PA,,US,,,,,
,visa,,,RENOVO,PA,,US,,,,,
,visa,,,RENOVO,PA,,US,,,,,
,visa,,,RENOVO,PA,,US,,,,,
,visa,,,RENOVO,PA,,US,,,,,
,visa,,,RENOVO,PA,,US,,,,,
,visa,,,RENOVO,PA,,US,,,,,
,visa,,,RENOVO,PA,,US,,,,,
,visa,,,RENOVO,PA,,US,,,,,
,visa,,,RENOVO,PA,,US,,,,,
