Ref,Spider,Name,Address,City,State,Zipcode,Country,Phone,Website,Hours,Brand,WikiData
https://stores.advanceautoparts.com/co/colorado-springs/5826-tutt-blvd,advance_auto_parts_us,Advance Auto Parts,,Colorado Springs,CO,,US,+1 719-550-3644,https://stores.advanceautoparts.com/co/colorado-springs/5826-tutt-blvd,Mo-Sa 07:30-21:00; Su 09:00-20:00,Advance Auto Parts,Q4686051
4280,anytime_fitness,Anytime Fitness,,Colorado Springs,CO,,US,+1 719-284-5200,https://www.anytimefitness.com/gyms/4280/colorado-springs-co-80923/,,Anytime Fitness,Q4778364
236811,bluerhino,Circle K #2709843,,Colorado Springs,CO,,US,+1 719-266-0110,,,Blue Rhino,Q65681213
236808,bluerhino,Circle K #2704590,,Colorado Springs,CO,,US,+1 719-495-2180,,,Blue Rhino,Q65681213
222242,bluerhino,Kahlon #2 LLC,,Colorado Springs,CO,,US,+1 916-690-0040,,,Blue Rhino,Q65681213
170740,bluerhino,Kum & Go #685,,Colorado Springs,CO,,US,+1 719-559-1780,,,Blue Rhino,Q65681213
236806,bluerhino,Circle K #2703293,,Colorado Springs,CO,,US,+1 719-574-2360,,,Blue Rhino,Q65681213
2041896,chase_us,Norwood - New branch,,Colorado Springs,CO,,US,+1 719-522-1399,https://locator.chase.com/co/colorado-springs/7390-duryea-dr,Mo-Fr 09:00-17:00; Sa 09:00-14:00,Chase,Q524629
co_colorado-springs_6530-tutt-boulevard,chipotle, ,,Colorado Springs,CO,,US,+1 719-895-3968,https://locations.chipotle.com/co/colorado-springs/6530-tutt-boulevard,,Chipotle,Q465751
43897,citi,ATM Circle K,,Colorado Spri,CO,,US,,,,Citibank,Q857063
43443,citi,ATM Circle K,,Colorado Springs,CO,,US,,,,Citibank,Q857063
31598,citi,ATM 7ELEVEN-FCTI,,Colorado Sprngs,CO,,US,,,,Citibank,Q857063
43898,citi,ATM Circle K,,Colorado Springs,CO,,US,,,,Citibank,Q857063
32640,citi,ATM 7ELEVEN-FCTI,,Colorado Sprngs,CO,,US,,,,Citibank,Q857063
6331,dominos_pizza_us,Domino's Pizza,,Colorado Springs,CO,,US,+1 719-466-8993,https://pizza.dominos.com/colorado/colorado-springs/7408-black-forest-road,Mo-Th 10:00-24:00; Fr-Sa 10:00-01:00; Su 10:00-24:00,Domino's,Q839466
353920,dunkin_us,Dunkin',,Colorado Springs,CO,,US,+1 719-574-2391,https://locations.dunkindonuts.com/en/co/colorado-springs/5915-dublin-blvd/353920,Mo-Fr 05:00-20:00; Sa 06:00-20:00; Su 06:00-14:00,Dunkin',Q847743
DB361,dutchbros,DB LLC CO0704 CS Source Center Point,,Colorado Springs,CO,,US,,https://locations.dutchbros.com/dutch-bros-coffee-17593f9aa98e,Mo-Su 05:00-23:00,Dutch Bros. Coffee,Q5317253
https://www.edwardjones.com/us-en/financial-advisor/christine-wilson,edwardjones,Christine L Wilson,,Colorado Springs,CO,,US,+1 719-638-8945,https://www.edwardjones.com/us-en/financial-advisor/christine-wilson,Mo-Fr 08:00-17:00,Edward Jones,Q5343830
0174,european_wax_center_us,European Wax Center,,Colorado Springs,CO,,US,+1 719-622-1001,https://locations.waxcenter.com/co/coloradosprings/colorado-springs-0174.html,Mo-Fr 09:00-20:00; Sa 08:30-18:00; Su 10:00-18:00,European Wax Center,Q5413426
285809,firestone_auto_care,Firestone Complete Auto Care,,Colorado Springs,CO,,US,+1 719-373-6727,https://local.firestonecompleteautocare.com/colorado/colorado-springs/5916-stetson-hills-blvd/,,Firestone,Q420837
https://fuzzystacoshop.com/locations/colorado/colorado-springs-dublin/,fuzzys_taco_shop_us,Colorado Springs (Dublin),,Colorado Springs,CO,,US,+1 719-388-8226,https://fuzzystacoshop.com/locations/colorado/colorado-springs-dublin/,Mo-Sa 08:00-23:00; Su 08:00-22:00,Fuzzy's Taco Shop,Q85762348
https://salons.greatclips.com/us/co/colorado-springs/6957-austin-bluffs-pkwy,greatclips,Great Clips,,Colorado Springs,CO,,US,+1 719-599-3663,https://salons.greatclips.com/us/co/colorado-springs/6957-austin-bluffs-pkwy,Mo-Fr 09:00-19:00; Sa 08:00-18:00; Su 09:00-17:00,Great Clips,Q5598967
7234,h_r_block,H&R Block,,Colorado Springs,CO,,US,+1 719-570-9421,https://www.hrblock.com/local-tax-offices/colorado/colorado-springs/6052-stetson-hills-blvd/7234/,,H&R Block,Q5627799
https://locations.jimmyjohns.com/co/coloradosprings/sandwiches-1112.html,jimmy_johns,Jimmy John's,,Colorado Springs,CO,,US,+1 719-597-7827,https://locations.jimmyjohns.com/co/coloradosprings/sandwiches-1112.html,,Jimmy John's,Q1689380
https://healthy.kaiserpermanente.org/colorado/facilities/penrad-imaging-at-sisters-grove-pavilion-305281,kaiser_permanente_us,Penrad Imaging at Sisters Grove Pavilion,,Colorado Springs,CO,,US,+1 719-785-9000,https://healthy.kaiserpermanente.org/colorado/facilities/penrad-imaging-at-sisters-grove-pavilion-305281,,Kaiser Permanente,Q1721601
https://healthy.kaiserpermanente.org/colorado/facilities/north-colorado-springs-dialysis-307893,kaiser_permanente_us,North Colorado Springs Dialysis,,Colorado Springs,CO,,US,+1 719-638-1223,https://healthy.kaiserpermanente.org/colorado/facilities/north-colorado-springs-dialysis-307893,,Kaiser Permanente,Q1721601
https://healthy.kaiserpermanente.org/colorado/facilities/laboratory-corporation-of-america-patient-service-center-laboratory-draw-site-333287,kaiser_permanente_us,Laboratory Corporation of America Patient Service Center (Laboratory Draw Site),,Colorado Springs,CO,,US,+1 719-571-1860,https://healthy.kaiserpermanente.org/colorado/facilities/laboratory-corporation-of-america-patient-service-center-laboratory-draw-site-333287,,Kaiser Permanente,Q1721601
https://healthy.kaiserpermanente.org/colorado/facilities/king-soopers-pharmacy-339263,kaiser_permanente_us,King Soopers Pharmacy,,Colorado Springs,CO,,US,+1 719-591-4163,https://healthy.kaiserpermanente.org/colorado/facilities/king-soopers-pharmacy-339263,,Kaiser Permanente,Q1721601
https://healthy.kaiserpermanente.org/colorado/facilities/endoscopy-centers-of-colorado-springs-134613,kaiser_permanente_us,Endoscopy Centers of Colorado Springs,,Colorado Springs,CO,,US,+1 719-785-3500,https://healthy.kaiserpermanente.org/colorado/facilities/endoscopy-centers-of-colorado-springs-134613,,Kaiser Permanente,Q1721601
https://healthy.kaiserpermanente.org/colorado/facilities/concentra-urgent-care-344713,kaiser_permanente_us,Concentra Urgent Care,,Colorado Springs,CO,,US,+1 719-571-8888,https://healthy.kaiserpermanente.org/colorado/facilities/concentra-urgent-care-344713,,Kaiser Permanente,Q1721601
https://healthy.kaiserpermanente.org/colorado/facilities/centura-st-francis-hospital-300104,kaiser_permanente_us,Centura St Francis Hospital,,Colorado Springs,CO,,US,+1 719-571-1000,https://healthy.kaiserpermanente.org/colorado/facilities/centura-st-francis-hospital-300104,,Kaiser Permanente,Q1721601
https://healthy.kaiserpermanente.org/colorado/facilities/audubon-ambulatory-surgery-center-at-st-francis-321681,kaiser_permanente_us,Audubon Ambulatory Surgery Center at St. Francis,,Colorado Springs,CO,,US,+1 719-355-3400,https://healthy.kaiserpermanente.org/colorado/facilities/audubon-ambulatory-surgery-center-at-st-francis-321681,,Kaiser Permanente,Q1721601
0685,kum_and_go,Kum & Go #0685,,Colorado Springs,CO,,US,+1 719-559-1780,https://www.kumandgo.com/store-locator?details=0685,24/7,Kum & Go,Q6443340
149740,little_free_library,Jeri's Garden Library and Seed Share #149740 Colorado Springs CO,,Colorado Springs,CO,,US,,,,Little Free Library,Q6650101
129242,little_free_library,Petunia June's Little Free Library #129242 Colorado Springs CO,,Colorado Springs,CO,,US,,,,Little Free Library,Q6650101
56149,little_free_library,Joyce Jacobsen #56149 Colorado Springs CO,,Colorado Springs,CO,,US,,,,Little Free Library,Q6650101
84399,little_free_library,Dr. Who #84399 Colorado Springs CO,,Colorado Springs,CO,,US,,,,Little Free Library,Q6650101
16970,mattress_firm_us,Mattress Firm Powers,,Colorado Springs,CO,,US,+1 719-380-8224,https://www.mattressfirm.com/en-us/stores/co/colorado-springs/115004/,,Mattress Firm,Q6791878
https://locations.modpizza.com/#23558391,modpizza,MOD Pizza Dublin Commons,,Colorado Springs,CO,,US,+1 719-638-2247,https://locations.modpizza.com/usa/co/colorado-springs/5925-dublin-blvd,Mo-Th 10:30-21:00; Fr-Sa 10:30-22:00; Su 10:30-21:00,MOD Pizza,Q19903469
1477,orangetheory_fitness,"Colorado Springs - Stetson Hills, CO",,Colorado Springs,CO,,US,+1 719-632-3777,,,Orangetheory Fitness,Q25005163
https://locations.oreillyauto.com/co/coloradosprings/check-engine-light-testing-6210.html,oreilly,Your Colorado Springs O'Reilly Auto Parts Store,,Colorado Springs,CO,,US,+1 719-755-0041,https://locations.oreillyauto.com/co/coloradosprings/check-engine-light-testing-6210.html,Mo-Sa 07:30-21:00; Su 08:00-20:00,O'Reilly Auto Parts,Q7071951
https://locations.oreillyauto.com/co/coloradosprings/autopartes-6210.html,oreilly,O'Reilly Auto Parts,,Colorado Springs,CO,,US,+1 719-755-0041,https://locations.oreillyauto.com/co/coloradosprings/autopartes-6210.html,Mo-Sa 07:30-21:00; Su 08:00-20:00,O'Reilly Auto Parts,Q7071951
https://locations.oreillyauto.com/co/coloradosprings/wiper-installation-6210.html,oreilly,Your Colorado Springs O'Reilly Auto Parts Store,,Colorado Springs,CO,,US,+1 719-755-0041,https://locations.oreillyauto.com/co/coloradosprings/wiper-installation-6210.html,Mo-Sa 07:30-21:00; Su 08:00-20:00,O'Reilly Auto Parts,Q7071951
https://locations.oreillyauto.com/co/coloradosprings/battery-testing-6210.html,oreilly,Your Colorado Springs O'Reilly Auto Parts Store,,Colorado Springs,CO,,US,+1 719-755-0041,https://locations.oreillyauto.com/co/coloradosprings/battery-testing-6210.html,Mo-Sa 07:30-21:00; Su 08:00-20:00,O'Reilly Auto Parts,Q7071951
0000884911,phillips_66_conoco_76,SEI 37135,,COLORADO SPRINGS,CO,,US,+1 800-255-0711,,,Phillips 66,Q1656230
0000882069,phillips_66_conoco_76,SEI 35600,,COLORADO SPRINGS,CO,,US,+1 719-495-5703,,,Conoco,Q109341187
restaurant_83029,popeyes_us_fr,Popeyes,"7480 Austin Bluffs Pkwy Colorado Springs, Colorado 80923 - USA",Colorado Springs,CO,,US,+1 719-278-8420,https://www.popeyes.com/store-locator/store/restaurant_83029,Mo-We 09:30-23:00; Th-Sa 09:30-00:00; Su 09:30-23:00,Popeyes,Q1330910
146,primrose_schools,Primrose School of Cottonwood Creek,,Colorado Springs,CO,,US,+1 719-260-8181,https://www.primroseschools.com/schools/cottonwood-creek/,,Primrose Schools,Q7243677
https://www.publicstorage.com/self-storage-co-colorado-springs/5301.html,public_storage_us,Public Storage,,Colorado Springs,CO,,US,+1 719-292-1787,https://www.publicstorage.com/self-storage-co-colorado-springs/5301.html,,Public Storage,Q1156045
81110,ritasitalianice,Ritaâ€™s of East Colorado Springs CO,,East Colorado Springs,CO,,US,+1 719-445-0912,https://www.ritasice.com/location/ritas-of-east-colorado-springs-co/,,Rita's Italian Ice,Q7336456
https://local.pharmacy.safeway.com/#5672776,safeway,Safeway Pharmacy,,Colorado Springs,CO,,US,+1 719-264-6925,https://local.pharmacy.safeway.com/safeway/co/colorado-springs/7055-austin-bluffs-pkwy.html,,Safeway,Q1508234
https://local.safeway.com/#5603540,safeway,Safeway,,Colorado Springs,CO,,US,+1 719-264-8650,https://local.safeway.com/safeway/co/colorado-springs/7055-austin-bluffs-pkwy.html,,Safeway,Q1508234
37135,seven_eleven_ca_us,7-Eleven Store,,Colorado Springs,CO,,US,+1 719-574-6104,https://www.7-eleven.com/locations/co/colorado-springs/6495-issaquah-dr-37135,,7-Eleven,Q259340
37320,seven_eleven_ca_us,7-Eleven Store,,Colorado Springs,CO,,US,+1 719-574-1626,https://www.7-eleven.com/locations/co/colorado-springs/6020-dublin-blvd-37320,,7-Eleven,Q259340
https://stations.sinclairoil.com/co/colorado-springs/6445-source-center-point,sinclair_us,Sinclair Gas Station,,Colorado Springs,CO,,US,+1 719-434-5203,https://stations.sinclairoil.com/co/colorado-springs/6445-source-center-point,Mo-Su 05:00-23:00,Sinclair,Q1290900
https://restaurants.subway.com/#20716850,subway,Subway,,Colorado Springs,CO,,US,+1 719-344-8357,https://restaurants.subway.com/united-states/co/colorado-springs/6616-dalby-dr,Mo-Su 08:00-22:00,Subway,Q244457
https://restaurants.subway.com/#14914789,subway,Subway,,Colorado Springs El Paso,CO,,US,+1 719-219-3444,https://restaurants.subway.com/united-states/co/colorado-springs/6042-stetson-hills-blvd,Mo-Su 07:00-02:00,Subway,Q244457
82361,supercuts,Ridgeview Marketplace,6046 Stetson Hills Blvd,Colorado Springs,CO,,US,+1 719-597-9392,https://www.supercuts.com/checkin/82361,Mo-Fr 09:00-20:00; Sa 09:00-19:00; Su 10:00-18:00,Supercuts,Q7643239
https://locations.tacobell.com/#6142639,taco_bell,Taco Bell,,Colorado Springs,CO,,US,+1 719-593-5025,https://locations.tacobell.com/co/colorado-springs/6425-source-center-point.html,Mo-Su 07:00-03:00,Taco Bell,Q752941
056589,uhaul,Tamlin Storage,5080 Tamlin Rd,Colorado Springs,CO,,US,+1 719-359-8654,,Mo-Fr 00:00-17:00,U-Haul,Q7862902
"Audubon ASC at St. Francis, Colorado Springs, Colorado",united_surgical_partners_international,Audubon ASC at St. Francis,6011 East Woodmen Road Suite 200,Colorado Springs,CO,,US,+1 719-355-3400,na,,United Surgical Partners International,Q7893575
8092300001,usps_collection_boxes,USPS COLLECTION BOX - BLUE BOX,6020 STETSON HILLS BLVD,COLORADO SPRINGS,CO,,US,,,,United States Postal Service,Q668687
8092300002,usps_collection_boxes,USPS COLLECTION BOX - BLUE BOX,6020 STETSON HILLS BLVD,COLORADO SPRINGS,CO,,US,,,,United States Postal Service,Q668687
A00000254125,verizon_us,Victra Colorado Springs Dublin Commons,,COLORADO SPRINGS,CO,,US,+1 719-208-7881,https://www.verizon.com/stores/details/colorado/colorado-springs/gowireless-colorado-springs-dublin-commons-1855722/,Mo-Fr 11:00-19:00; Sa 10:00-19:00; Su 12:00-17:00,Verizon,Q919641
,visa,,,COLORADO SPRINGS,CO,,US,,,,,
,visa,,,COLORADO SPRINGS,CO,,US,,,,,
,visa,,,COLORADO SPRINGS,CO,,US,,,,,
,visa,,,COLORADO SPRINGS,CO,,US,,,,,
,visa,,,COLORADO SPRG,CO,,US,,,,,
,visa,,,COLORADO SPRINGS,CO,,US,,,,,
,visa,,,COLORADO SPRINGS,CO,,US,,,,,
,visa,,,COLORADO SPRINGS,CO,,US,,,,,
,visa,,,COLORADO SPRINGS,CO,,US,,,,,
,visa,,,COLORADO SPRINGS,CO,,US,,,,,
,visa,,,COLORADO SPRINGS,CO,,US,,,,,
,visa,,,COLORADO SPRINGS,CO,,US,,,,,
,visa,,,COLORADO SPRINGS,CO,,US,,,,,
,visa,,,"COLORADO SPRINGS,",CO,,US,,,,,
,visa,,,COLORADO SPRI,CO,,US,,,,,
,visa,,,COLORADO SPRINGS,CO,,US,,,,,
https://locations.wendys.com/#9251638,wendys,"Wendy's Stetson Hills in Colorado Springs, CO",,Colorado Springs,CO,,US,+1 719-574-4026,https://locations.wendys.com/united-states/co/colorado-springs/5850-stetson-hills-blvd,"Mo-Su 06:30-10:30,07:30-22:00",Wendy's,Q550258
dc4a44a59bc215800f8860a2923ec335,western_union,7-ELEVEN #37320,,Colorado Springs,CO,,US,+1 719-574-1626,https://location.westernunion.com/us/co/colorado-springs/dc4a44a59bc215800f8860a2923ec335,,Western Union,Q861042
https://locations.whataburger.com/co/colorado-springs/6140-dublin-blvd.html,whataburger,Dublin Blvd,6140 Dublin Blvd,Colorado Springs,CO,,US,,https://locations.whataburger.com/co/colorado-springs/6140-dublin-blvd.html,,Whataburger,Q376627
