Ref,Spider,Name,Address,City,State,Zipcode,Country,Phone,Website,Hours,Brand,WikiData
https://stores.advanceautoparts.com/il/mokena/19810-s-la-grange-rd,advance_auto_parts_us,Advance Auto Parts,,Mokena,IL,,US,+1 708-478-8898,https://stores.advanceautoparts.com/il/mokena/19810-s-la-grange-rd,Mo-Sa 07:30-21:00; Su 09:00-20:00,Advance Auto Parts,Q4686051
96,att_us,MOKENA 22ESV,,Mokena,IL,,US,+1 815-464-4796,https://www.att.com/stores/illinois/mokena/96,Mo-Fr 10:00-20:00; Sa 10:00-19:00; Su 10:00-18:00,AT&T,Q298594
https://locations.baskinrobbins.com/il/mokena/11212-w-lincoln-hwy-338694-br,baskin_robbins_us,Baskin-Robbinsâ„¢,,Mokena,IL,,US,+1 815-806-8270,https://locations.baskinrobbins.com/il/mokena/11212-w-lincoln-hwy-338694-br,Mo-Su 04:00-22:00,Baskin-Robbins,Q584601
151192,bluerhino,Walgreens #4154,,Mokena,IL,,US,+1 708-478-3244,,,Blue Rhino,Q65681213
73630,bluerhino,Speedway #5384,,Mokena,IL,,US,+1 708-479-5607,,,Blue Rhino,Q65681213
127532,bluerhino,Speedway #1424,,Mokena,IL,,US,+1 708-478-1292,,,Blue Rhino,Q65681213
127531,bluerhino,Speedway #1414,,Mokena,IL,,US,+1 708-479-8591,,,Blue Rhino,Q65681213
240549,bluerhino,Circle K #4706703,,Mokena,IL,,US,+1 708-479-4066,,,Blue Rhino,Q65681213
39797_50001,bmw_group,"Crash Champions, Independent Certified Collision Repair Center of BMW of Orland Park",,Mokena,IL,,US,+1 708-479-4321,,,BMW,Q26678
83810515225456044800100000000000,bp,BP,,Mokena,IL,,US,+1 708-995-1951,,24/7,BP,Q152057
26245,burgerking,Burger King,,Mokena,IL,,US,+1 708-478-6850,https://www.bk.com/store-locator/store/restaurant_81195,Mo-Su 06:00-22:00,Burger King,Q177054
2042478,chase_us,Mokena Market Place - New branch,,Mokena,IL,,US,+1 815-464-9506,https://locator.chase.com/il/mokena/11205-lincoln-hwy,Mo-Fr 09:00-17:00; Sa 09:00-14:00,Chase,Q524629
il_mokena_19130-s-la-grange-rd,chipotle, ,,Mokena,IL,,US,+1 708-719-3381,https://locations.chipotle.com/il/mokena/19130-s-la-grange-rd,,Chipotle,Q465751
47167,citi,ATM CVS,,Mokena,IL,,US,,,,Citibank,Q857063
66800,citi,ATM OLD PLANK TRAIL COMMUNITY BANK,,Mokena,IL,,US,,,,Citibank,Q857063
66799,citi,ATM OLD PLANK TRAIL COMMUNITY BANK,,Mokena,IL,,US,,,,Citibank,Q857063
88661,citi,ATM Walgreens,,Mokena,IL,,US,,,,Citibank,Q857063
77315,citi,ATM Speedway,,Mokena,IL,,US,,,,Citibank,Q857063
26975,citi,ATM 7ELEVEN-FCTI,,Mokena,IL,,US,,,,Citibank,Q857063
77266,citi,ATM Speedway,,Mokena,IL,,US,,,,Citibank,Q857063
48747,citi,ATM CVS,,Mokena,IL,,US,,,,Citibank,Q857063
77319,citi,ATM Speedway,,Mokena,IL,,US,,,,Citibank,Q857063
66798,citi,ATM OLD PLANK TRAIL COMMUNITY BANK,,Mokena,IL,,US,,,,Citibank,Q857063
56951,citi,ATM FirstSecure Bank & Trust,,Mokena,IL,,US,,,,Citibank,Q857063
41285,citi,ATM Circle K,,Mokena,IL,,US,,,,Citibank,Q857063
7760,cvs_us,CVS Pharmacy,,Mokena,IL,,US,+1 708-478-1821,https://www.cvs.com/store-locator/mokena-il-pharmacies/19900-s-la-grange-rd-mokena-il-60448/storeid=7760,Mo-Su 08:00-22:00,CVS Pharmacy,Q2078880
5822,cvs_us,CVS Pharmacy,,Mokena,IL,,US,+1 815-464-2171,https://www.cvs.com/store-locator/mokena-il-pharmacies/11200-lincoln-hwy-mokena-il-60448/storeid=5822,Mo-Su 08:00-21:00,CVS Pharmacy,Q2078880
246506,dennys,Denny's,,Mokena,IL,,US,+1 708-479-6488,https://locations.dennys.com/IL/MOKENA/246506,24/7,Denny's,Q1189695
2736,dominos_pizza_us,Domino's Pizza,,Mokena,IL,,US,+1 708-478-1200,https://pizza.dominos.com/illinois/mokena/19310-south-lagrange-road,Mo-Th 10:00-24:00; Fr-Sa 10:00-01:00; Su 10:00-24:00,Domino's,Q839466
342780,dunkin_us,Dunkin',,Mokena,IL,,US,+1 708-479-6363,https://locations.dunkindonuts.com/en/il/mokena/18700-s-wolf-rd/342780,Mo-Sa 04:00-19:00; Su 05:00-19:00,Dunkin',Q847743
338694,dunkin_us,Dunkin',,Mokena,IL,,US,+1 815-806-8270,https://locations.dunkindonuts.com/en/il/mokena/11212-w-lincoln-hwy/338694,Mo-Su 04:00-22:00,Dunkin',Q847743
350474,dunkin_us,Dunkin',,Mokena,IL,,US,+1 708-478-5100,https://locations.dunkindonuts.com/en/il/mokena/8810-w-191st-st/350474,Mo-Sa 04:00-19:00; Su 05:00-18:00,Dunkin',Q847743
https://www.edwardjones.com/us-en/financial-advisor/robert-walker2,edwardjones,Robert A Walker,,Mokena,IL,,US,+1 708-429-0602,https://www.edwardjones.com/us-en/financial-advisor/robert-walker2,Mo-Fr 08:00-17:00,Edward Jones,Q5343830
E11582,enterprise,Mokena,,Mokena,IL,,US,+1 708-479-3220,,,Enterprise Rent-A-Car,Q17085454
200320183,exxonmobil,RIDGEWAY VIII,,MOKENA,IL,,US,+1 708-474-0601,https://www.exxon.com/en/find-station/mobil-mokena-il-ridgewayviii-200320183,24/7,Mobil,Q109676002
200314329,exxonmobil,M&K PETRO MART INC,,MOKENA,IL,,US,+1 708-479-6040,https://www.exxon.com/en/find-station/mobil-mokena-il-mkpetromartinc-200314329,Mo-Th 05:00-23:00; Fr-Sa 05:00-00:00; Su 06:00-22:00,Mobil,Q109676002
https://local.fedex.com/#25205757,fedex,,,Mokena,IL,,US,+1 800-463-3339,https://local.fedex.com/en-us/il/mokena/sf241,,FedEx,Q459477
https://locations.53.com/#3033826,fifththirdbank,Fifth Third Bank Mokena,,Mokena,IL,,US,+1 708-479-4490,https://locations.53.com/il/mokena/19201-la-grange-road.html,Mo-Th 09:00-17:30; Fr 09:00-18:00; Sa 09:00-14:00,Fifth Third Bank,Q1411810
327690,firestone_auto_care,Firestone Complete Auto Care,,Mokena,IL,,US,+1 708-469-6084,https://local.firestonecompleteautocare.com/illinois/mokena/9627-191st-st/,,Firestone,Q420837
https://branches.fleetpride.com/il/mokena/truckparts-mok.html,fleet_pride_us,FleetPride,,Mokena,IL,,US,+1 708-479-7070,https://branches.fleetpride.com/il/mokena/truckparts-mok.html,Mo-Fr 08:00-17:00; Sa 08:00-12:00,FleetPride,Q121436710
5424,fresenius_kidney_care_us,Fresenius Kidney Care Mokena IL,,Mokena,IL,,US,+1 800-881-5101,https://www.freseniuskidneycare.com/dialysis-centers/illinois/5424,Mo 04:00-15:00; Tu 04:00-16:30; We 04:00-15:00; Th 04:00-16:30; Fr 04:00-15:00; Sa 04:00-16:30,,
https://salons.greatclips.com/us/il/mokena/11240-w-lincoln-hwy,greatclips,Great Clips,,Mokena,IL,,US,+1 815-806-9910,https://salons.greatclips.com/us/il/mokena/11240-w-lincoln-hwy,Mo-Fr 09:00-20:00; Sa 08:00-17:00; Su 10:00-17:00,Great Clips,Q5598967
11215-w-lincoln-hwy,mcalisters_deli,McAlister's Deli Mokena ,,Mokena,IL,,US,+1 779-324-5766,https://locations.mcalistersdeli.com/il/mokena/11215-w-lincoln-hwy,Mo-Su 10:30-21:00,McAlister's Deli,Q17020829
112745,pandaexpress,Lincoln Hwy & Wolf,,Mokena,IL,,US,+1 815-469-6881,https://www.pandaexpress.com/locations/il/mokena/11255-lincoln-highway,Mo-Th 10:00-21:30; Fr-Sa 10:00-22:00; Su 10:30-21:00,Panda Express,Q1358690
817,party_city,Mokena Marketplace,,Mokena,IL,,US,+1 708-719-0082,https://stores.partycity.com/us/il/mokena/party-store-pc817.html,,Party City,Q7140896
672024,penske,Vandam Auto &amp; Truck Repr,,MOKENA,IL,,US,+1 708-478-1647,https://www.pensketruckrental.com/locations/us/illinois/mokena/672024/,,Penske,Q81234570
restaurant_85509,popeyes_us_fr,Popeyes,"19814 South La Grange Road Mokena, Illinois 60448 - USA",Mokena,IL,,US,+1 708-995-1858,https://www.popeyes.com/store-locator/store/restaurant_85509,Mo-Su 10:00-21:00,Popeyes,Q1330910
schilling-brothers-mokena-57559,ppgpaints,Schilling Brothers Mokena,,"Mokena, ",IL,,US,+1 708-479-7007,https://www.ppgpaints.com/store-locator/us/illinois/mokena-paint-stores/schilling-brothers-mokena-57559,,PPG Paints,Q83891559
https://stores.saloncentric.com/#29173401,salon_centric_us,SalonCentric,,,IL,,US,+1 708-478-3030,https://stores.saloncentric.com/il/mokena/4118,Mo 08:00-18:30; Tu-Fr 08:00-18:00; Sa 08:30-16:00; Su 12:00-16:00,SalonCentric,Q124339481
https://restaurants.subway.com/#14914177,subway,Subway,,Mokena Will,IL,,US,+1 708-479-6857,https://restaurants.subway.com/united-states/il/mokena/19115-s-lagrange-rd,Mo-Su 08:30-21:30,Subway,Q244457
https://restaurants.subway.com/#14911125,subway,Subway Mokena Corners Shpg Ctr,,Mokena Will,IL,,US,+1 815-806-9820,https://restaurants.subway.com/united-states/il/mokena/11242-w-lincoln-hwy,Mo-Sa 08:30-21:30; Su 08:30-15:00,Subway,Q244457
1721,tmobile_us,Lincoln & Wolf,,Mokena,IL,,US,+1 815-464-0195,https://www.t-mobile.com/store-locator/il/mokena/lincoln-wolf,,T-Mobile,Q3511885
https://www.asurion.com/repairs/tech/locations/mokena,ubreakifix,uBreakiFix by Asurion - Mokena,,Mokena,IL,,US,+1 779-324-5689,https://www.asurion.com/repairs/tech/locations/mokena,Tu-Sa 10:00-19:00,Asurion Tech Repair & Solutions,Q4811938
1373472,usps,MOKENA,,MOKENA,IL,,US,+1 708-479-9431,,Mo-Fr 09:00-17:00; Sa 09:00-13:00,United States Postal Service,Q668687
6044800002,usps_collection_boxes,USPS COLLECTION BOX - BLUE BOX,19934 WOLF RD,MOKENA,IL,,US,,,,United States Postal Service,Q668687
6044800003,usps_collection_boxes,USPS COLLECTION BOX - EXPRESS,19934 WOLF RD,MOKENA,IL,,US,,,,United States Postal Service,Q668687
6044800005,usps_collection_boxes,USPS COLLECTION BOX - PO LOBBY,19934 WOLF RD,MOKENA,IL,,US,,,,United States Postal Service,Q668687
6044800010,usps_collection_boxes,USPS COLLECTION BOX - PO LOBBY,19934 WOLF RD,MOKENA,IL,,US,,,,United States Postal Service,Q668687
6044800006,usps_collection_boxes,USPS COLLECTION BOX - BLUE BOX,19500 97TH AVE,MOKENA,IL,,US,,,,United States Postal Service,Q668687
6044800007,usps_collection_boxes,USPS COLLECTION BOX - BLUE BOX,8501 W 191ST ST,MOKENA,IL,,US,,,,United States Postal Service,Q668687
10809,vestis_uniform_services_us,Vestis Mokena,,Mokena,IL,,US,+1 708-390-0013,https://www.vestis.com/our-locations/vestis-mokena,,Vestis,Q122947676
,visa,,,MOKENA,IL,,US,,,,,
,visa,,,MORENA,IL,,US,,,,,
,visa,,,MOKENA,IL,,US,,,,,
,visa,,,MOKENA,IL,,US,,,,,
,visa,,,MOKENA,IL,,US,,,,,
,visa,,,MOKENA,IL,,US,,,,,
,visa,,,MOKENA,IL,,US,,,,,
,visa,,,MOKENA,IL,,US,,,,,
,visa,,,MOKENA,IL,,US,,,,,
,visa,,,MOKENA,IL,,US,,,,,
,visa,,,MOKENA,IL,,US,,,,,
,visa,,,MOKENA,IL,,US,,,,,
,visa,,,MOKENA,IL,,US,,,,,
,visa,,,MOKENA,IL,,US,,,,,
,visa,,,MOKENA,IL,,US,,,,,
,visa,,,MOKENA,IL,,US,,,,,
,visa,,,MOKENA,IL,,US,,,,,
,visa,,,MOKENA,IL,,US,,,,,
,visa,,,MOKENA,IL,,US,,,,,
,visa,,,MOKENA,IL,,US,,,,,
,visa,,,MOKENA,IL,,US,,,,,
,visa,,,MOKENA,IL,,US,,,,,
,visa,,,MOKENA,IL,,US,,,,,
,visa,,,MOKENA,IL,,US,,,,,
,visa,,,MOKENA,IL,,US,,,,,
,visa,,,MOKENA,IL,,US,,,,,
,visa,,,MOKENA,IL,,US,,,,,
,visa,,,MOKENA,IL,,US,,,,,
,visa,,,MOKENA,IL,,US,,,,,
,visa,,,MOKENA,IL,,US,,,,,
,visa,,,MOKENA,IL,,US,,,,,
,visa,,,MOKENA,IL,,US,,,,,
,visa,,,MOKENA,IL,,US,,,,,
,visa,,,MOKENA,IL,,US,,,,,
,visa,,,MOKENA,IL,,US,,,,,
,visa,,,MOKENA,IL,,US,,,,,
,visa,,,MOKENA,IL,,US,,,,,
,visa,,,MOKENA,IL,,US,,,,,
,visa,,,MOKENA,IL,,US,,,,,
,visa,,,MOKENA,IL,,US,,,,,
,visa,,,MOKENA,IL,,US,,,,,
,visa,,,MOKENA,IL,,US,,,,,
,visa,,,MOKENA,IL,,US,,,,,
,visa,,,MOKENA,IL,,US,,,,,
,visa,,,ORLAND PARK,IL,,US,,,,,
,visa,,,MOKENA,IL,,US,,,,,
,visa,,,MOKENA,IL,,US,,,,,
https://www.walgreens.com/locator/walgreens-20002+wolf+rd-mokena-il-60448/id=4154,walgreens,Walgreens,,Mokena,IL,,US,+1 708-478-3244,https://www.walgreens.com/locator/walgreens-20002+wolf+rd-mokena-il-60448/id=4154,Mo-Fr 07:00-23:00; Sa-Su 07:00-22:00,Walgreens,Q1591889
https://locations.wendys.com/#9254194,wendys,"Wendy's Mokena in Mokena, IL",,Mokena,IL,,US,+1 708-479-2560,https://locations.wendys.com/united-states/il/mokena/19175-lagrange-rd,"Mo-Su 06:30-10:30,09:00-22:00",Wendy's,Q550258
