Ref,Spider,Name,Address,City,State,Zipcode,Country,Phone,Website,Hours,Brand,WikiData
https://stores.advanceautoparts.com/il/romeoville/900-n-independence-blvd,advance_auto_parts_us,Advance Auto Parts,,Romeoville,IL,,US,+1 630-226-1613,https://stores.advanceautoparts.com/il/romeoville/900-n-independence-blvd,Mo-Sa 07:30-21:00; Su 09:00-17:00,Advance Auto Parts,Q4686051
https://local.pharmacy.jewelosco.com/#5672895,albertsons,Jewel-Osco Pharmacy,,Romeoville,IL,,US,+1 815-293-0858,https://local.pharmacy.jewelosco.com/il/romeoville/20-s-weber-rd.html,Mo-Fr 08:00-22:00; Sa 09:00-18:00; Su 09:00-17:00,Jewel-Osco,Q3178470
https://local.jewelosco.com/#5603690,albertsons,Jewel-Osco,,Romeoville,IL,,US,+1 815-293-0665,https://local.jewelosco.com/il/romeoville/20-s-weber-rd.html,"Mo-Fr 06:00-24:00,08:00-22:00; Sa 06:00-24:00,09:00-18:00; Su 06:00-24:00,09:00-17:00",Jewel-Osco,Q3178470
https://stores.aldi.us/#4420030,aldi_sud_us,ALDI  398 South Weber Road,,Romeoville,IL,,US,+1 833-468-7063,https://stores.aldi.us/il/romeoville/398-south-weber-road,Mo-Su 09:00-20:00,ALDI,Q41171672
291fae73-e11d-e611-80c5-005056aa8521,amf_bowling,Bowlero Romeoville,,Romeoville,IL,,US,+1 630-378-2695,https://www.bowlero.com/location/bowlero-romeoville,,Bowlero,Q17102967
3600,anytime_fitness,Anytime Fitness,,Romeoville,IL,,US,+1 815-524-5549,https://www.anytimefitness.com/gyms/3600/romeoville-il-60446/,,Anytime Fitness,Q4778364
https://stores.ashleyfurniture.com/store/us/illinois/romeoville/9000348258/,ashley_furniture,"Ashley Store + Outlet Romeoville, IL",,Romeoville,IL,,US,+1 630-410-5900,https://stores.ashleyfurniture.com/store/us/illinois/romeoville/9000348258/,,Ashley Furniture,Q4805437
https://locations.atipt.com/romeoville-il,ati_physical_therapy,ATI Physical Therapy Romeoville 236,,Romeoville,IL,,US,+1 815-552-4128,https://locations.atipt.com/romeoville-il,,ATI Physical Therapy,Q50039703
3565,autozone_us,AutoZone Auto Parts Romeoville,,Romeoville,IL,,US,+1 815-577-3842,https://www.autozone.com/locations/il/romeoville/414-s-weber-rd.html,Mo-Sa 07:30-21:00; Su 08:00-20:00,AutoZone,Q4826087
https://www.avis.com/en/locations/us/il/romeoville/rv5,avis,Avis U S A Romeoville,,Romeoville,IL,,US,+1 815-838-1063,https://www.avis.com/en/locations/us/il/romeoville/rv5,Mo-Fr 08:00-18:00; Sa 09:00-14:00; Su 10:00-14:00,Avis,Q791136
https://locators.bankofamerica.com/il/romeoville/financial-centers-romeoville-15639.html,bankofamerica,Bank of America Financial Center & Drive-Thru ATM | Romeoville,,Romeoville,IL,,US,+1 815-293-0534,https://locators.bankofamerica.com/il/romeoville/financial-centers-romeoville-15639.html,Mo-Fr 10:00-16:00,Bank of America,Q487907
https://locations.baskinrobbins.com/il/romeoville/649-n-independence-blvd-335426-br,baskin_robbins_us,Baskin-Robbinsâ„¢,,Romeoville,IL,,US,+1 815-293-2894,https://locations.baskinrobbins.com/il/romeoville/649-n-independence-blvd-335426-br,Mo-Su 04:00-22:00,Baskin-Robbins,Q584601
240541,bluerhino,Circle K #4706749,,Romeoville,IL,,US,+1 630-759-0109,,,Blue Rhino,Q65681213
209593,bluerhino,Rebel #868 - MCI,,Romeoville,IL,,US,+1 815-293-2740,,,Blue Rhino,Q65681213
155395,bluerhino,Walgreens #6563,,Romeoville,IL,,US,+1 815-293-3465,,,Blue Rhino,Q65681213
240542,bluerhino,Circle K #4706826,,Romeoville,IL,,US,+1 815-886-7979,,,Blue Rhino,Q65681213
192779,bluerhino,Murphy's #8845,,Romeoville,IL,,US,+1 815-838-5197,,,Blue Rhino,Q65681213
150947,bluerhino,Walgreens #7829,,Romeoville,IL,,US,+1 815-436-1628,,,Blue Rhino,Q65681213
160033,bluerhino,Romeoville Farm & Fleet #38,,Romeoville,IL,,US,+1 815-905-3333,,,Blue Rhino,Q65681213
73775,bluerhino,Speedway #8440,,Romeoville,IL,,US,+1 815-886-1020,,,Blue Rhino,Q65681213
153567,bluerhino,Walgreens #11195,,Romeoville,IL,,US,+1 815-293-1152,,,Blue Rhino,Q65681213
212852,bluerhino,Haddad Fuel,,Romeoville,IL,,US,+1 708-932-2997,,,Blue Rhino,Q65681213
70934217526806044600100000000000,bp,BP,,Romeoville,IL,,US,+1 815-293-3101,,Mo-Su 07:00-22:00,BP,Q152057
08980090234186044600100000000000,bp,BP,,Romeoville,IL,,US,+1 815-407-1790,,Mo-Sa 04:00-24:00; Su 05:00-24:00,BP,Q152057
2042492,chase_us,Romeoville - New branch,,Romeoville,IL,,US,+1 815-886-9595,https://locator.chase.com/il/romeoville/50-phelps-ave,Mo-Fr 09:00-17:00; Sa 09:00-14:00,Chase,Q524629
2042490,chase_us,Weber and Airport - New branch,,Romeoville,IL,,US,+1 815-836-8917,https://locator.chase.com/il/romeoville/399-s-weber-rd,Mo-Fr 09:00-17:00; Sa 09:00-14:00,Chase,Q524629
001.005.1735,chilis,Romeoville,,Romeoville,IL,,US,+1 815-886-4429,https://www.chilis.com/locations/us/illinois/romeoville/romeoville/,Mo-Th 11:00-22:00; Fr-Sa 11:00-23:00; Su 11:00-22:00,Chili's,Q1072948
il_romeoville_253-s-weber-road,chipotle, ,,Romeoville,IL,,US,+1 815-221-5116,https://locations.chipotle.com/il/romeoville/253-s-weber-road,,Chipotle,Q465751
33903,citi,ATM ABRI CREDIT UNION,,Romeoville,IL,,US,,,,Citibank,Q857063
92469,citi,ATM Walgreens,,Romeoville,IL,,US,,,,Citibank,Q857063
39973,citi,ATM Circle K,,Romeoville,IL,,US,,,,Citibank,Q857063
91448,citi,ATM Walgreens,,Romeoville,IL,,US,,,,Citibank,Q857063
32068,citi,ATM 7ELEVEN-FCTI,,Romeoville,IL,,US,,,,Citibank,Q857063
40579,citi,ATM Circle K,,Romeoville,IL,,US,,,,Citibank,Q857063
27851,citi,ATM 7ELEVEN-FCTI,,Romeoville,IL,,US,,,,Citibank,Q857063
90385,citi,ATM Walgreens,,Romeoville,IL,,US,,,,Citibank,Q857063
73901,citi,ATM ROMEOVILLE COMMUNITY CREDIT UNION - LAB,,Romeoville,IL,,US,,,,Citibank,Q857063
73900,citi,ATM ROMEOVILLE COMMUNITY CREDIT UNION,,Romeoville,IL,,US,,,,Citibank,Q857063
28901,citi,ATM 7ELEVEN-FCTI,,Romeoville,IL,,US,,,,Citibank,Q857063
78939,citi,ATM Speedway,,Romeoville,IL,,US,,,,Citibank,Q857063
21265,coldstone_creamery,Cold Stone Creamery,,Romeoville,IL,,US,+1 815-886-5714,https://www.coldstonecreamery.com/stores/21265,,Cold Stone Creamery,Q1094923
,credit_union_us,Abri CU,,Romeoville,IL,,US,+1 815-267-7700,,Mo-Fr 09:00-05:00; Sa 09:00-01:00,,
80185100,cricket_wireless,Cricket Wireless Authorized Retailer,,Romeoville,IL,,US,+1 815-293-2330,https://www.cricketwireless.com/stores/ll/US/IL/Romeoville/68-S-Weber-Rd,Mo-Fr 10:00-19:00; Sa 10:00-18:00; Su 11:00-17:00,Cricket Wireless,Q5184987
246,culvers_us,"Culver's of Romeoville, IL - N Weber Rd",,Romeoville,IL,,US,+1 815-372-2777,http://www.culvers.com/restaurants/romeoville,Mo-Fr 10:00-22:00; Su 10:00-22:00,Culver's,Q1143589
9180,dominos_pizza_us,Domino's Pizza,,Romeoville,IL,,US,+1 815-524-5556,https://pizza.dominos.com/illinois/romeoville/360-s-weber-rd,Mo-Th 10:30-24:00; Fr-Sa 10:30-01:00; Su 10:30-24:00,Domino's,Q839466
345457,dunkin_us,Dunkin',,Romeoville,IL,,US,+1 815-436-3434,https://locations.dunkindonuts.com/en/il/romeoville/420-s-weber-rd/345457,Mo-Su 06:00-20:30,Dunkin',Q847743
352763,dunkin_us,Dunkin',,Romeoville,IL,,US,+1 815-838-6270,https://locations.dunkindonuts.com/en/il/romeoville/239-s-weber-rd/352763,Mo-Su 05:00-19:30,Dunkin',Q847743
335426,dunkin_us,Dunkin',,Romeoville,IL,,US,+1 815-293-2894,https://locations.dunkindonuts.com/en/il/romeoville/649-n-independence-blvd/335426,Mo-Su 04:00-22:00,Dunkin',Q847743
200328566,exxonmobil,REBEL#868,,ROMEOVILLE,IL,,US,+1 815-293-7906,https://www.exxon.com/en/find-station/exxon-romeoville-il-rebel868-200328566,24/7,Exxon,Q109675651
200309037,exxonmobil,ROMEOVILLE MOBIL,,ROMEOVILLE,IL,,US,+1 815-886-0597,https://www.exxon.com/en/find-station/mobil-romeoville-il-romeovillemobil-200309037,24/7,Mobil,Q109676002
https://local.fedex.com/#25203318,fedex,,,Romeoville,IL,,US,+1 800-463-3339,https://local.fedex.com/en-us/il/romeoville/srbwd,,FedEx,Q459477
https://local.fedex.com/#25197790,fedex,,,Romeoville,IL,,US,+1 800-463-3339,https://local.fedex.com/en-us/il/romeoville/skukd,,FedEx,Q459477
https://local.fedex.com/#25202766,fedex,,,Romeoville,IL,,US,+1 800-463-3339,https://local.fedex.com/en-us/il/romeoville/pe6cf,,FedEx,Q459477
https://local.fedex.com/#9916253,fedex,FedEx Office Print & Ship Center,,Romeoville,IL,,US,+1 779-252-3008,https://local.fedex.com/en-us/il/romeoville/office-0506,,FedEx,Q459477
https://local.fedex.com/#25477146,fedex,,,Romeoville,IL,,US,+1 800-463-3339,https://local.fedex.com/en-us/il/romeoville/bdfzs,,FedEx,Q459477
https://locations.53.com/#3033838,fifththirdbank,Fifth Third Bank Romeoville,,Romeoville,IL,,US,+1 815-834-4400,https://locations.53.com/il/romeoville/275-s.-weber.html,Mo-Th 09:00-17:30; Fr 09:00-18:00; Sa 09:00-14:00,Fifth Third Bank,Q1411810
344547,firestone_auto_care,Firestone Complete Auto Care,,Romeoville,IL,,US,+1 815-676-0854,https://local.firestonecompleteautocare.com/illinois/romeoville/520-s-weber-rd/,,Firestone,Q420837
79bf8a79-4b54-e411-acf1-0050568924e6,goodwill,Romeoville Store,,Romeoville,IL,,US,+1 815-254-1353,https://www.goodwill.org/locator/location/?store=NzliZjhhNzktNGI1NC1lNDExLWFjZjEtMDA1MDU2ODkyNGU2&lat=NDEuNjA5NQ==&lng=LTg4LjEzMTUy,,Goodwill,Q5583655
44128174-1dc2-ee11-8117-00505689ac90,goodwill,Romeoville Goodwill Outlet,,Romeoville,IL,,US,+1 331-426-2006,https://www.goodwill.org/locator/location/?store=NDQxMjgxNzQtMWRjMi1lZTExLTgxMTctMDA1MDU2ODlhYzkw&lat=NDEuNjY1MzQ=&lng=LTg4LjA3NTE1,,Goodwill,Q5583655
https://salons.greatclips.com/us/il/romeoville/476-n-weber-rd,greatclips,Great Clips,,Romeoville,IL,,US,+1 815-293-3806,https://salons.greatclips.com/us/il/romeoville/476-n-weber-rd,Mo-Fr 08:30-19:30; Sa 08:00-17:00; Su 09:00-16:00,Great Clips,Q5598967
https://salons.greatclips.com/us/il/romeoville/388-s-weber-rd,greatclips,Great Clips,,Romeoville,IL,,US,+1 815-838-1653,https://salons.greatclips.com/us/il/romeoville/388-s-weber-rd,Mo-Fr 08:30-19:30; Sa 08:00-17:00; Su 09:00-17:00,Great Clips,Q5598967
30146,huntingtonbank,Romeoville Jewel,,Romeoville,IL,,US,+1 815-886-8364,https://www.huntington.com/Community/branch-info?locationId=30146,Mo-Fr 10:00-18:00; Sa 10:00-15:00; Su 00:00-00:00,Huntington Bank,Q798819
12566,h_r_block,H&R Block,,Romeoville,IL,,US,+1 815-886-1498,https://www.hrblock.com/local-tax-offices/illinois/romeoville/429a-weber-rd/12566/,,H&R Block,Q5627799
https://office.jacksonhewitt.com/#29010674,jackson_hewitt,Jackson Hewitt,,Romeoville,IL,,US,+1 847-884-1040,https://office.jacksonhewitt.com/tax-preparation-services-locations/en/il/romeoville/644-s-weber-rd/14532,Mo-Fr 10:00-19:00; Sa 10:00-18:00,Jackson Hewitt,Q6117132
3965,jiffy_lube_us,West Airport Rd.,,Romeoville,IL,,US,+1 779-234-6993,https://www.jiffylube.com/locations/il/romeoville/3965,Mo-Fr 08:00-18:00; Sa 08:00-17:00,Jiffy Lube,Q6192247
https://locations.jimmyjohns.com/il/romeoville/sandwiches-787.html,jimmy_johns,Jimmy John's,,Romeoville,IL,,US,+1 815-838-7827,https://locations.jimmyjohns.com/il/romeoville/sandwiches-787.html,,Jimmy John's,Q1689380
https://locations.jimmyjohns.com/il/romeoville/sandwiches-3987.html,jimmy_johns,Jimmy John's,,Romeoville,IL,,US,+1 815-905-3899,https://locations.jimmyjohns.com/il/romeoville/sandwiches-3987.html,,Jimmy John's,Q1689380
1300,kohls_us,Kohl's,,Romeoville,IL,,US,+1 815-838-5308,https://www.kohls.com/stores/il/romeoville-1300.shtml,Mo-Sa 09:00-21:00; Su 09:00-20:00,Kohl's,Q967265
ILROM,life_time,Romeoville,,Romeoville,IL,,US,+1 630-759-9995,https://my.lifetime.life/clubs/il/romeoville.html,Mo-Fr 04:00-24:00; Sa-Su 05:00-22:00,Life Time,Q6545004
https://locations.maurices.com/#11688525,maurices,maurices Romeoville Town Center,,Romeoville,IL,,US,+1 815-838-9491,https://locations.maurices.com/us/il/romeoville/359-s-weber-road,Mo-Sa 10:00-20:00; Su 11:00-18:00,maurices,Q6793571
4722,mightyflame,THORNTONS #329,,ROMEOVILLE,IL,,US,+1 630-783-9653,,,Mighty Flame,
3210,mightyflame,ROMEOVILLE MOBIL,,ROMEOVILLE,IL,,US,+1 815-886-0597,,,Mighty Flame,
71507707,moneygram,WAL-MART - #4531,,ROMEOVILLE,IL,,US,+1 815-439-1666,,Mo-Su 07:00-21:00,MoneyGram,Q1944412
65529377,moneygram,SUPERMERCADO JEREZ - #0001,,ROMEOVILLE,IL,,US,+1 815-293-3836,,Mo-Su 07:30-21:00,MoneyGram,Q1944412
8845,murphy_usa_us,,,Romeoville,IL,,US,+1 815-838-5197,,Mo-Sa 04:30-23:30; Su 05:30-23:30,Murphy USA,Q19604459
https://locations.oreillyauto.com/il/romeoville/check-engine-light-testing-3419.html,oreilly,Your Romeoville O'Reilly Auto Parts Store,,Romeoville,IL,,US,+1 815-372-1508,https://locations.oreillyauto.com/il/romeoville/check-engine-light-testing-3419.html,Mo-Sa 07:30-21:00; Su 08:00-20:00,O'Reilly Auto Parts,Q7071951
https://locations.oreillyauto.com/il/romeoville/battery-testing-3419.html,oreilly,Your Romeoville O'Reilly Auto Parts Store,,Romeoville,IL,,US,+1 815-372-1508,https://locations.oreillyauto.com/il/romeoville/battery-testing-3419.html,Mo-Sa 07:30-21:00; Su 08:00-20:00,O'Reilly Auto Parts,Q7071951
https://locations.oreillyauto.com/il/romeoville/wiper-installation-3419.html,oreilly,Your Romeoville O'Reilly Auto Parts Store,,Romeoville,IL,,US,+1 815-372-1508,https://locations.oreillyauto.com/il/romeoville/wiper-installation-3419.html,Mo-Sa 07:30-21:00; Su 08:00-20:00,O'Reilly Auto Parts,Q7071951
https://locations.oreillyauto.com/il/romeoville/autopartes-3419.html,oreilly,Tu tienda O'Reilly Auto Parts en Romeoville,,Romeoville,IL,,US,+1 815-372-1508,https://locations.oreillyauto.com/il/romeoville/autopartes-3419.html,Mo-Sa 07:30-21:00; Su 08:00-20:00,O'Reilly Auto Parts,Q7071951
112164,pandaexpress,Weber Rd & Airport,,Romeoville,IL,,US,+1 815-267-8623,https://www.pandaexpress.com/locations/il/romeoville/404-weber-rd,Mo-Th 09:30-21:30; Fr 09:30-22:00; Sa 10:30-22:00; Su 10:30-21:00,Panda Express,Q1358690
621810,penske,Penske Romeoville,,ROMEOVILLE,IL,,US,+1 630-759-1973,https://www.pensketruckrental.com/locations/us/illinois/romeoville/621810/,,Penske,Q81234570
https://stores.petco.com/#27959360,petco,Petco Romeoville,,Romeoville,IL,,US,+1 815-838-2368,https://stores.petco.com/il/romeoville/pet-supplies-romeoville-il-1979.html,Mo-Sa 09:00-20:00; Su 10:00-19:00,Petco,Q7171798
il_romeoville_291-s-weber-rd,pizza_hut_us,291 S Weber Rd,,Romeoville,IL,,US,+1 815-900-7405,https://locations.pizzahut.com/il/romeoville/291-s-weber-rd,,Pizza Hut,Q191615
19319,planet_smoothie_us,Planet Smoothie,,Romeoville,IL,,US,,https://www.planetsmoothie.com/stores/romeoville/19319,,Planet Smoothie,Q7201170
restaurant_240665,popeyes_us_fr,Popeyes,"421 South Weber Road Romeoville, Illinois 60446 - USA",Romeoville,IL,,US,+1 815-524-8189,https://www.popeyes.com/store-locator/store/restaurant_240665,Mo-We 10:00-23:00; Th-Sa 10:00-00:00; Su 10:00-23:00,Popeyes,Q1330910
restaurant_83498,popeyes_us_fr,Popeyes,"1245 W Normantown Rd Romeoville, Illinois 60446 - USA",Romeoville,IL,,US,+1 815-372-2867,https://www.popeyes.com/store-locator/store/restaurant_83498,Mo-We 10:00-23:00; Th-Sa 10:00-00:00; Su 10:00-23:00,Popeyes,Q1330910
https://restaurants.subway.com/#14915906,subway,Subway,,Romeoville Will,IL,,US,+1 815-524-3248,https://restaurants.subway.com/united-states/il/romeoville/636-n-independence-blvd,Mo-Fr 07:30-21:00; Sa-Su 07:30-20:00,Subway,Q244457
https://restaurants.subway.com/#14915022,subway,Subway Romeoville Towne Center,,Romeoville Will,IL,,US,+1 815-407-1234,https://restaurants.subway.com/united-states/il/romeoville/459-n-weber-rd,Mo-Sa 07:00-22:00; Su 08:00-22:00,Subway,Q244457
https://locations.tacobell.com/#6142231,taco_bell,Taco Bell,,Romeoville,IL,,US,+1 815-372-2477,https://locations.tacobell.com/il/romeoville/76-s--weber-rd-.html,Mo-Th 08:00-03:00; Fr-Sa 08:00-04:00; Su 08:00-03:00,Taco Bell,Q752941
https://locations.tccrocks.com/il/romeoville/395-s-weber-road.html,tcc_us,TCC Romeoville,,Romeoville,IL,,US,+1 815-556-1360,https://locations.tccrocks.com/il/romeoville/395-s-weber-road.html,Mo-Sa 10:00-18:00; Su 11:00-16:00,Verizon,Q919641
08468,tjx,Romeoville,375 S Weber Rd,Romeoville,IL,,US,+1 815-838-2504,,Mo-Sa 09:30-21:30; Su 10:00-20:00,TJ Maxx,Q10860683
260E,tmobile_us,Indpdnc Blvd & Alexander Cir,,Romeoville,IL,,US,+1 815-524-5744,https://www.t-mobile.com/store-locator/il/romeoville/indpdnc-blvd-alexander-cir,,T-Mobile,Q3511885
9805,tmobile_us,Weber & Airport,,Romeoville,IL,,US,+1 815-254-0145,https://www.t-mobile.com/store-locator/il/romeoville/weber-airport,,T-Mobile,Q3511885
3776,upsstore,Romeoville,429 Weber Rd Ste B,Romeoville,IL,,US,+1 815-293-3950,https://locations.theupsstore.com/il/romeoville/429-weber-rd,,UPS Store,Q7771029
1434872,usps,ROMEOVILLE,,ROMEOVILLE,IL,,US,+1 815-886-9040,,Mo-Fr 09:00-17:30; Sa 09:00-14:00,United States Postal Service,Q668687
6044600020,usps_collection_boxes,USPS COLLECTION BOX - BLUE BOX,1520 GRANDHAVEN,ROMEOVILLE,IL,,US,,,,United States Postal Service,Q668687
6044600004,usps_collection_boxes,USPS COLLECTION BOX - BLUE BOX,1 UNIVERSITY PKWY,ROMEOVILLE,IL,,US,,,,United States Postal Service,Q668687
6044600022,usps_collection_boxes,USPS COLLECTION BOX - BLUE BOX,20 S WEBER RD,ROMEOVILLE,IL,,US,,,,United States Postal Service,Q668687
6044600017,usps_collection_boxes,USPS COLLECTION BOX - EXPRESS,315 W ROMEO RD,ROMEOVILLE,IL,,US,,,,United States Postal Service,Q668687
6044600011,usps_collection_boxes,USPS COLLECTION BOX - BLUE BOX,315 W ROMEO RD,ROMEOVILLE,IL,,US,,,,United States Postal Service,Q668687
6044600021,usps_collection_boxes,USPS COLLECTION BOX - APC,315 W ROMEO RD,ROMEOVILLE,IL,,US,,,,United States Postal Service,Q668687
6044600016,usps_collection_boxes,USPS COLLECTION BOX - PO LOBBY,315 W ROMEO RD,ROMEOVILLE,IL,,US,,,,United States Postal Service,Q668687
6044600026,usps_collection_boxes,USPS COLLECTION BOX - PO LOBBY,315 E ROMEO RD,ROMEOVILLE,IL,,US,,,,United States Postal Service,Q668687
6044600009,usps_collection_boxes,USPS COLLECTION BOX - BLUE BOX,50 PHELPS AVE,ROMEOVILLE,IL,,US,,,,United States Postal Service,Q668687
6044600005,usps_collection_boxes,USPS COLLECTION BOX - BLUE BOX,1300 LAKEVIEW DR,ROMEOVILLE,IL,,US,,,,United States Postal Service,Q668687
6044600010,usps_collection_boxes,USPS COLLECTION BOX - BLUE BOX,100 RIDGEWOOD AVE,ROMEOVILLE,IL,,US,,,,United States Postal Service,Q668687
6044600018,usps_collection_boxes,USPS COLLECTION BOX - BLUE BOX,429B W WEBER RD,ROMEOVILLE,IL,,US,,,,United States Postal Service,Q668687
6044600001,usps_collection_boxes,USPS COLLECTION BOX - BLUE BOX,100 HONEYTREE DR,ROMEOVILLE,IL,,US,,,,United States Postal Service,Q668687
6044600007,usps_collection_boxes,USPS COLLECTION BOX - BLUE BOX,1303 NAPERVILLE DR,ROMEOVILLE,IL,,US,,,,United States Postal Service,Q668687
A00000248460,verizon_us,TCC Romeoville,,ROMEOVILLE,IL,,US,+1 815-834-8000,https://www.verizon.com/stores/details/illinois/romeoville/tcc-romeoville-1354122/,Mo-Sa 10:00-18:00; Su 11:00-16:00,Verizon,Q919641
,visa,,,MONEE,IL,,US,,,,,
,visa,,,ROMEOVILLE,IL,,US,,,,,
,visa,,,ROMEOVILLE,IL,,US,,,,,
,visa,,,ROMEOVILLE,IL,,US,,,,,
,visa,,,ROMEOVILLE,IL,,US,,,,,
,visa,,,ROMEOVILLE,IL,,US,,,,,
,visa,,,ROMEOVILLE,IL,,US,,,,,
,visa,,,ROMEOVILLE,IL,,US,,,,,
,visa,,,ROMEOVILLE,IL,,US,,,,,
,visa,,,ROMEOVILLE,IL,,US,,,,,
,visa,,,ROMEOVILLE,IL,,US,,,,,
,visa,,,ROMEOVILLE,IL,,US,,,,,
,visa,,,ROMEOVILLE,IL,,US,,,,,
,visa,,,ROMEOVILLE,IL,,US,,,,,
,visa,,,ROMEOVILLE,IL,,US,,,,,
,visa,,,ROMEOVILLE,IL,,US,,,,,
,visa,,,ROMEOVILLE,IL,,US,,,,,
,visa,,,ROMEOVILE,IL,,US,,,,,
,visa,,,ROMEOVILLE,IL,,US,,,,,
,visa,,,ROMEOVILLE,IL,,US,,,,,
,visa,,,ROMEOVILLE,IL,,US,,,,,
,visa,,,ROMEOVILLE,IL,,US,,,,,
,visa,,,ROMEOVILLE,IL,,US,,,,,
,visa,,,ROMEOVILLE,IL,,US,,,,,
,visa,,,ROMEOVILLE,IL,,US,,,,,
,visa,,,ROMEOVILLE,IL,,US,,,,,
,visa,,,ROMEOVILLE,IL,,US,,,,,
,visa,,,ROMEOVILLE,IL,,US,,,,,
,visa,,,ROMEOVILLE,IL,,US,,,,,
,visa,,,ROMEOVILLE,IL,,US,,,,,
,visa,,,ROMEOVILLE,IL,,US,,,,,
,visa,,,ROMEOVILLE,IL,,US,,,,,
,visa,,,ROMEOVILLE,IL,,US,,,,,
,visa,,,ROMEOVILLE,IL,,US,,,,,
,visa,,,ROMEOVILLE,IL,,US,,,,,
,visa,,,ROMEOVILLE,IL,,US,,,,,
,visa,,,ROMEOVILLE,IL,,US,,,,,
,visa,,,ROMEOVILLE,IL,,US,,,,,
,visa,,,ROMEOVILLE,IL,,US,,,,,
,visa,,,ROMEOVILLE,IL,,US,,,,,
,visa,,,ROMEOVILLE,IL,,US,,,,,
,visa,,,ROMEOVILLE,IL,,US,,,,,
,visa,,,ROMEOVILLE,IL,,US,,,,,
,visa,,,ROMEOVILLE,IL,,US,,,,,
,visa,,,ROMEOVILLE,IL,,US,,,,,
,visa,,,ROMEOVILLE,IL,,US,,,,,
,visa,,,ROMEOVILLE,IL,,US,,,,,
,visa,,,ROMEOVILLE,IL,,US,,,,,
,visa,,,ROMEOVILLE,IL,,US,,,,,
,visa,,,ROMEOVILLE,IL,,US,,,,,
,visa,,,ROMEOVILLE,IL,,US,,,,,
,visa,,,ROMEOVILLE,IL,,US,,,,,
,visa,,,ROMEOVILLE,IL,,US,,,,,
,visa,,,ROMEOVILLE,IL,,US,,,,,
https://www.walgreens.com/locator/walgreens-347+n+independence+blvd-romeoville-il-60446/id=11195,walgreens,Walgreens,,Romeoville,IL,,US,+1 815-293-1152,https://www.walgreens.com/locator/walgreens-347+n+independence+blvd-romeoville-il-60446/id=11195,Mo-Su 07:00-22:00,Walgreens,Q1591889
https://www.walgreens.com/locator/walgreens-680+s+weber+rd-romeoville-il-60446/id=7829,walgreens,Walgreens,,Romeoville,IL,,US,+1 815-436-1628,https://www.walgreens.com/locator/walgreens-680+s+weber+rd-romeoville-il-60446/id=7829,Mo-Su 07:00-22:00,Walgreens,Q1591889
https://www.walgreens.com/locator/walgreens-498+n+weber+rd-romeoville-il-60446/id=6563,walgreens,Walgreens,,Romeoville,IL,,US,+1 815-293-3465,https://www.walgreens.com/locator/walgreens-498+n+weber+rd-romeoville-il-60446/id=6563,24/7,Walgreens,Q1591889
https://locations.wendys.com/#9255339,wendys,"Wendy's 58 S Weber Rd. in Romeoville, IL",,Romeoville,IL,,US,+1 815-886-9947,https://locations.wendys.com/united-states/il/romeoville/58-s-weber-rd,"Mo-Fr 06:30-10:30,06:30-22:00; Sa-Su 06:30-11:00,06:30-22:00",Wendy's,Q550258
https://locations.wendys.com/#9255338,wendys,"Wendy's 1275 Lakeview Drive in Romeoville, IL",,Romeoville,IL,,US,+1 630-226-0958,https://locations.wendys.com/united-states/il/romeoville/1275-lakeview-drive,"Mo-Su 06:30-10:30,09:00-22:00",Wendy's,Q550258
5ea6dcf63f56f3e3d7becdfb2c6bcb8f,western_union,7-ELEVEN #13333,,Romeoville,IL,,US,+1 815-886-4978,https://location.westernunion.com/us/il/romeoville/5ea6dcf63f56f3e3d7becdfb2c6bcb8f,,Western Union,Q861042
d46be729694c6842b8730d9a5cb3e110,western_union,WALMART #004531,,Romeoville,IL,,US,+1 815-439-1666,https://location.westernunion.com/us/il/romeoville/d46be729694c6842b8730d9a5cb3e110,Mo-Su 07:00-21:00,Western Union,Q861042
160545,wingstop,Wingstop Romeoville S. Weber Road,472 S Weber Road,Romeoville,IL,,US,+1 815-552-1840,,,Wingstop,Q8025339
