Ref,Spider,Name,Address,City,State,Zipcode,Country,Phone,Website,Hours,Brand,WikiData
https://stores.advanceautoparts.com/il/monee/5701-w-monee-manhattan-rd,advance_auto_parts_us,Advance Auto Parts,,Monee,IL,,US,+1 708-885-9458,https://stores.advanceautoparts.com/il/monee/5701-w-monee-manhattan-rd,Mo-Sa 07:30-21:00; Su 09:00-20:00,Advance Auto Parts,Q4686051
240550,bluerhino,Circle K #4706792,,Monee,IL,,US,+1 815-464-1872,,,Blue Rhino,Q65681213
189995,bluerhino,Minit Mart #628,,Monee,IL,,US,+1 708-235-0885,,,Blue Rhino,Q65681213
64753,bluerhino,Pilot Travel #039,,Monee,IL,,US,+1 708-534-2483,,,Blue Rhino,Q65681213
128730,bp,Amoco,,Monee,IL,,US,+1 708-534-0400,,,BP,Q152057
93392590950016044900100000000000,bp,BP,,Monee,IL,,US,+1 708-235-0885,,24/7,BP,Q152057
28176,citi,ATM 7ELEVEN-FCTI,,Monee,IL,,US,,,,Citibank,Q857063
487,culvers_us,"Culver's of Monee, IL - W Monee Manhattan Rd",,Monee,IL,,US,+1 708-746-5168,http://www.culvers.com/restaurants/monee-il,Mo-Fr 10:00-22:30; Su 10:00-22:30,Culver's,Q1143589
17487,dollar_general,Dollar General,,Monee,IL,,US,+1 708-627-0200,https://www.dollargeneral.com/store-directory/il/monee/17487,Mo-Su 08:00-22:00,Dollar General,Q145168
2980,dominos_pizza_us,Domino's Pizza,,Monee,IL,,US,+1 708-294-8900,https://pizza.dominos.com/illinois/monee/5701-w-monee-manhattan-road,Mo-Th 09:00-24:00; Fr-Sa 09:00-01:00; Su 09:00-24:00,Domino's,Q839466
363192,dunkin_us,Dunkin',,Monee,IL,,US,+1 815-907-5599,https://locations.dunkindonuts.com/en/il/monee/5757-w-monee-manhattan-rd/363192,Mo-Sa 04:00-20:00; Su 05:00-20:00,Dunkin',Q847743
520895,eg_america_us,Minit Mart,,Monee,IL,,US,+1 708-235-0885,https://www.minitmart.com/find-us/generic-store-page/?id=600628,,Minit Mart,Q18154470
200323075,exxonmobil,7-ELEVEN 35048,,MONEE,IL,,US,+1 708-534-2914,https://www.exxon.com/en/find-station/mobil-monee-il-7eleven35048-200323075,24/7,Mobil,Q109676002
https://local.fedex.com/#25228896,fedex,,,Monee,IL,,US,+1 800-463-3339,https://local.fedex.com/en-us/il/monee/ikkbi,,FedEx,Q459477
https://locations.kfc.com/#11246833,kfc,Chicken Nuggets Near Monee,,Monee,IL,,US,,https://locations.kfc.com/il/monee/5737-w-monee-manhattan-road/chickennugget,Mo-Su 10:00-22:00,KFC,Q524757
4728,mightyflame,THORNTONS #336,,MONEE,IL,,US,+1 708-982-0004,,,Mighty Flame,
39,pilot_flyingj,Pilot Travel Center,,Monee,IL,,US,+1 708-534-2483,https://locations.pilotflyingj.com/us/il/monee/6002-monee-manhattan-road,,Pilot,Q7194412
il_monee_5601-monee-manhattan-rd,pizza_hut_us,5601 Monee Manhattan Rd,,Monee,IL,,US,+1 708-534-7570,https://locations.pizzahut.com/il/monee/5601-monee-manhattan-rd,,Pizza Hut,Q191615
35048,seven_eleven_ca_us,7-11 Str   25936 S Governors Hwy,,Monee,IL,,US,+1 708-534-2914,https://www.7-eleven.com/locations/il/monee/25936-s-governors-hwy-35048,,7-Eleven,Q259340
https://restaurants.subway.com/#14916547,subway,Subway MKM Oil Inc,,Monee Will,IL,,US,+1 708-235-0886,https://restaurants.subway.com/united-states/il/monee/6001-w-monee-manhatten-rd,Mo-Th 07:00-21:00; Fr-Sa 07:00-22:00; Su 07:00-21:00,Subway,Q244457
https://locations.tacobell.com/#6142944,taco_bell,Taco Bell,,Monee,IL,,US,+1 708-746-5025,https://locations.tacobell.com/il/monee/5737-w--monee-manhattan-road.html,,Taco Bell,Q752941
0367,travelcenters_of_america_us,Petro Monee #0367,,Monee,IL,,US,+1 708-534-0400,https://www.ta-petro.com/location/il/petro-monee/,,Petro,Q64051305
1373495,usps,MONEE,,MONEE,IL,,US,+1 708-534-8057,,Mo-Fr 08:30-16:30; Sa 08:30-12:00,United States Postal Service,Q668687
6044900001,usps_collection_boxes,USPS COLLECTION BOX - BLUE BOX,5410 W MAIN ST,MONEE,IL,,US,,,,United States Postal Service,Q668687
6044900002,usps_collection_boxes,USPS COLLECTION BOX - EXPRESS,5410 W MAIN ST,MONEE,IL,,US,,,,United States Postal Service,Q668687
6044900007,usps_collection_boxes,USPS COLLECTION BOX - PO LOBBY,5410 W MAIN ST,MONEE,IL,,US,,,,United States Postal Service,Q668687
6044900009,usps_collection_boxes,USPS COLLECTION BOX - PO LOBBY,5410 W MAIN ST,MONEE,IL,,US,,,,United States Postal Service,Q668687
6044900004,usps_collection_boxes,USPS COLLECTION BOX - BLUE BOX,5130 W COURT ST,MONEE,IL,,US,,,,United States Postal Service,Q668687
6044900003,usps_collection_boxes,USPS COLLECTION BOX - BLUE BOX,5601 MONEE MANHTN RD,MONEE,IL,,US,,,,United States Postal Service,Q668687
6044900005,usps_collection_boxes,USPS COLLECTION BOX - BLUE BOX,6002 MONEE MANHTN RD,MONEE,IL,,US,,,,United States Postal Service,Q668687
,visa,,,MONEE,IL,,US,,,,,
,visa,,,MONEE,IL,,US,,,,,
,visa,,,MONEE,IL,,US,,,,,
,visa,,,MONEE,IL,,US,,,,,
,visa,,,MONEE,IL,,US,,,,,
,visa,,,MONEE,IL,,US,,,,,
,visa,,,MONEE,IL,,US,,,,,
,visa,,,MONEE,IL,,US,,,,,
,visa,,,MONEE,IL,,US,,,,,
,visa,,,MONEE,IL,,US,,,,,
,visa,,,MONEE,IL,,US,,,,,
,visa,,,MONEE,IL,,US,,,,,
,visa,,,MONEE,IL,,US,,,,,
,visa,,,MONEE,IL,,US,,,,,
e71aea6ca784c9383b18e50fa942a579,western_union,PETRO #367 MONEE,,Monee,IL,,US,+1 708-534-0400,https://location.westernunion.com/us/il/monee/e71aea6ca784c9383b18e50fa942a579,Mo-Su 07:00-23:00,Western Union,Q861042
a0d167e3196adc2ce031b3c81c33b1ff,western_union,PETRO #367 MONEE,,Monee,IL,,US,+1 708-534-0400,https://location.westernunion.com/us/il/monee/a0d167e3196adc2ce031b3c81c33b1ff,Mo-Su 07:00-23:00,Western Union,Q861042
54aefa018a1126a766e077e7d893b25c,western_union,7-ELEVEN #35048,,Monee,IL,,US,+1 708-534-2914,https://location.westernunion.com/us/il/monee/54aefa018a1126a766e077e7d893b25c,,Western Union,Q861042
