Ref,Spider,Name,Address,City,State,Zipcode,Country,Phone,Website,Hours,Brand,WikiData
https://vertretung.allianz.de/winnie.schulz/,allianz_de,Allianz Versicherung Winnie Schulz GENERALVERTRETUNG,,Heideblick,,,DE,+49 35455 728,https://vertretung.allianz.de/winnie.schulz/,Mo 09:00-16:00; Tu 09:00-18:00; We 09:00-16:00; Th 09:00-18:00; Fr 09:00-12:00,Allianz SE,Q487292
https://vertretung.allianz.de/patricia.heinrich/,allianz_de,Allianz Versicherung Patricia Heinrich GENERALVERTRETUNG,,Luckau,,,DE,+49 3544 5076872,https://vertretung.allianz.de/patricia.heinrich/,"Mo 09:00-12:00,13:00-18:00; Tu 09:00-12:00,13:00-19:00; We 09:00-12:00; Th 09:00-12:00,13:00-19:00; Fr 09:00-12:00",Allianz SE,Q487292
27004800,bp,Joyce Rennert,,Luckau,,,DE,+49 35456 6830,http://tankstelle.aral.de/tankstelle/27004800,24/7,BP,Q152057
27004700,bp,Edgar Sommer,,Luckau,,,DE,+49 35456 6820,http://tankstelle.aral.de/tankstelle/27004700,24/7,BP,Q152057
51.8526513.71404,dpd_de,Papillon Geschenkartikel-Lederwaren,,Luckau,,,DE,,,Mo-Fr 09:00-18:00; Sa 09:00-12:00,DPD,Q541030
FordGK2SK95  DEU,ford,Autohaus Tosch OHG,,Luckau,,,DE,+49 3544 555920,ford-tosch-sonnewalde.de,,Ford,Q44294
2760915438,gls_de,Moni's Blumenstübchen,,Luckau,,,DE,+49 3544 556048,,Mo-Fr 09:00-17:00; Sa 09:00-12:00,General Logistics Systems,Q46495823
2760907048,gls_de,Strohstatt Schlabendorf GmbH,,Luckau OT Schlangendorf am See,,,DE,+49 35439 607781,,Mo-Fr 09:00-19:00; Sa 09:00-15:00,General Logistics Systems,Q46495823
5453,lidl_de,,,Luckau,,,DE,,,Mo-Sa 07:00-21:00,Lidl,Q151954
27681008_001-dacia,renault,Autoland GmbH Zeesen Filiale Luckau,,Luckau,,,DE,+49 3544 6286,,,Dacia,Q27460
27611486_001-renault,renault,Autohaus Urban GmbH,,Luckau,,,DE,+49 3544 6286,,,Renault,Q6686
https://www.rossmann.de/de/filialen/brandenburg/luckau/karl-marx-str--22.html,rossmann_de,Rossmann Drogerie-Markt Karl-Marx-Str. 22,,Luckau,,,DE,+49 3544 5577750,https://www.rossmann.de/de/filialen/brandenburg/luckau/karl-marx-str--22.html,Mo-Sa 08:00-20:00,Rossmann,Q316004
128494,sparkasse_de,Mittelbrandenburgische Sparkasse in Potsdam Geldautomat Luckau,,Luckau,,,DE,+49 331 898989,https://www.sparkasse.de/standorte/geldautomaten/mittelbrandenburgische-sparkasse-in-potsdam-geldautomat-luckau-128494,24/7,Sparkasse,Q13601825
35344,sparkasse_de,Mittelbrandenburgische Sparkasse in Potsdam Geschäftsstelle Luckau,,Luckau,,,DE,+49 331 8968211,https://www.sparkasse.de/standorte/filialen/mittelbrandenburgische-sparkasse-in-potsdam-geschaeftsstelle-luckau-35344,"Mo 09:30-12:30,13:00-16:00; Tu 09:30-12:30,13:00-18:00; We 09:30-12:30; Th 09:30-12:30,13:00-18:00; Fr 09:30-12:30,13:00-16:00",Sparkasse,Q13601825
171697,sparkasse_de,Mittelbrandenburgische Sparkasse in Potsdam Fahrbare Geschäftsstelle Langengrassau,,Heideblick,,,DE,+49 331 898989,https://www.sparkasse.de/standorte/filialen/mittelbrandenburgische-sparkasse-in-potsdam-fahrbare-geschaeftsstelle-langengrassau-171697,Th 10:30-10:30,Sparkasse,Q13601825
171696,sparkasse_de,Mittelbrandenburgische Sparkasse in Potsdam Fahrbare Geschäftsstelle Uckro,,Luckau,,,DE,+49 331 898989,https://www.sparkasse.de/standorte/filialen/mittelbrandenburgische-sparkasse-in-potsdam-fahrbare-geschaeftsstelle-uckro-171696,Th 09:45-09:45,Sparkasse,Q13601825
171702,sparkasse_de,Mittelbrandenburgische Sparkasse in Potsdam Fahrbare Geschäftsstelle Beesdau,,Heideblick,,,DE,+49 331 898989,https://www.sparkasse.de/standorte/filialen/mittelbrandenburgische-sparkasse-in-potsdam-fahrbare-geschaeftsstelle-beesdau-171702,Th 13:30-13:30,Sparkasse,Q13601825
171703,sparkasse_de,Mittelbrandenburgische Sparkasse in Potsdam Fahrbare Geschäftsstelle Bornsdorf,,Heideblick,,,DE,+49 331 898989,https://www.sparkasse.de/standorte/filialen/mittelbrandenburgische-sparkasse-in-potsdam-fahrbare-geschaeftsstelle-bornsdorf-171703,Th 14:30-14:30,Sparkasse,Q13601825
171704,sparkasse_de,Mittelbrandenburgische Sparkasse in Potsdam Fahrbare Geschäftsstelle Fürstlich Drehna,,Heideblick,,,DE,+49 331 898989,https://www.sparkasse.de/standorte/filialen/mittelbrandenburgische-sparkasse-in-potsdam-fahrbare-geschaeftsstelle-fuerstlich-drehna-171704,Th 15:30-16:30,Sparkasse,Q13601825
171701,sparkasse_de,Mittelbrandenburgische Sparkasse in Potsdam Fahrbare Geschäftsstelle Goßmar,,Heideblick,,,DE,+49 331 898989,https://www.sparkasse.de/standorte/filialen/mittelbrandenburgische-sparkasse-in-potsdam-fahrbare-geschaeftsstelle-gossmar-171701,Th 12:45-12:45,Sparkasse,Q13601825
171698,sparkasse_de,Mittelbrandenburgische Sparkasse in Potsdam Fahrbare Geschäftsstelle Gehren,,Heideblick,,,DE,+49 331 898989,https://www.sparkasse.de/standorte/filialen/mittelbrandenburgische-sparkasse-in-potsdam-fahrbare-geschaeftsstelle-gehren-171698,Th 10:15-11:15,Sparkasse,Q13601825
DE_EXT_00167,totalenergies,"ARAL AUTOBAHNTANKSTELLE DUBEN,",,Luckau,,,DE,,https://store.totalenergies.fr/en_EN/DE_EXT_00167,,Aral,Q565734
DE_EXT_00171,totalenergies,"ARAL AUTOBAHNTANKSTELLE DUBEN,",,Luckau,,,DE,,https://store.totalenergies.fr/en_EN/DE_EXT_00171,,Aral,Q565734
ND028704,totalenergies,LUCKAU BERLINER STR. 1,,LUCKAU,,,DE,+49 3544 2347,https://store.totalenergies.fr/en_EN/ND028704,24/7,TotalEnergies,Q154037
https://www.vlh.de/bst/97472/Oeffnungszeiten.html,vhl_de,VLH-Beraterin Patricia Grommisch in Luckau,,Luckau,,,DE,+49 3544 5540038,https://www.vlh.de/bst/97472/,"Mo 10:00-12:00,13:00-17:00; We 10:00-12:00,13:00-17:00",Vereinigte Lohnsteuerhilfe e.V.,Q15852617
https://www.vlh.de/bst/9702/Oeffnungszeiten.html,vhl_de,VLH-Beraterin Nadine Gerschke in Luckau,,Luckau,,,DE,+49 3544 5573453,https://www.vlh.de/bst/9702/,Tu 10:00-17:00; Th 10:00-17:00,Vereinigte Lohnsteuerhilfe e.V.,Q15852617
https://www.vlh.de/bst/9891/Oeffnungszeiten.html,vhl_de,VLH-Beraterin Birgit Sontowski in Luckau ,,Luckau,,,DE,+49 35439 326,https://www.vlh.de/bst/9891/,,Vereinigte Lohnsteuerhilfe e.V.,Q15852617
,visa,,,DUBEN-KADEN,,,DE,,,,,
,visa,,,LUCKAU,,,DE,,,,,
,visa,,,LUCKAU,,,DE,,,,,
https://shops.vodafone.de/luckau/hauptstr.-14,vodafone_de,Vodafone-Shop,,Luckau,,,DE,+49 3544 5576333,https://shops.vodafone.de/luckau/hauptstr.-14,Mo-Fr 10:00-18:00; Sa 09:00-12:00,Vodafone,Q122141
https://www.vr.de/standorte/L/vr-bank-lausitz-eg-17539.html,vr_bank,VR Bank Lausitz eG,,Luckau,,,DE,+49 355 78330,https://www.vrblausitz.de,"Mo 10:00-12:00; Tu 10:00-12:00,14:00-16:00; Th 10:00-12:00,14:00-18:00; Fr 10:00-12:00",,
