Ref,Spider,Name,Address,City,State,Zipcode,Country,Phone,Website,Hours,Brand,WikiData
107349,bluerhino,"TruServ-AG Hungerford & Son, Inc. #34256-0",,Newburg,MD,,US,+1 301-259-2540,,,Blue Rhino,Q65681213
220655,bluerhino,Dollar General #22703,,NEWBURG,MD,,US,+1 240-804-5498,,,Blue Rhino,Q65681213
https://branches.fleetpride.com/md/newburg/truckparts-1-301477-0.html,fleet_pride_us,FleetPride,,Newburg,MD,,US,+1 301-259-2800,https://branches.fleetpride.com/md/newburg/truckparts-1-301477-0.html,,FleetPride,Q121436710
158280,marathon_petroleum_us,Glasva Marathon,,Newburg,MD,,US,+1 301-934-3000,,,Marathon,Q458363
8002410601,sunoco_us,Sunoco,,NEWBURG,MD,,US,+1 301-259-2693,,,Sunoco,Q1423218
34256,true_value_us,A G Hungerford & Son Inc.,,Newburg,MD,,US,+1 301-259-2540,http://www.aghungerford.com,,True Value,Q7847545
1374941,usps,NEWBURG,,NEWBURG,MD,,US,+1 301-259-2527,,"Mo-Fr 09:00-13:00,14:00-16:00; Sa 09:00-12:00",United States Postal Service,Q668687
2066400002,usps_collection_boxes,USPS COLLECTION BOX - BLUE BOX,12179 ROCK POINT RD,NEWBURG,MD,,US,,,,United States Postal Service,Q668687
2066400001,usps_collection_boxes,USPS COLLECTION BOX - PO LOBBY,12179 ROCK POINT RD,NEWBURG,MD,,US,,,,United States Postal Service,Q668687
,visa,,,NEWBURG,MD,,US,,,,,
,visa,,,NEWBURG,MD,,US,,,,,
,visa,,,NEWBURG,MD,,US,,,,,
,visa,,,NEWBURG,MD,,US,,,,,
,visa,,,NEWBURG,MD,,US,,,,,
,visa,,,NEWBURG,MD,,US,,,,,
,visa,,,NEWBURG,MD,,US,,,,,
,visa,,,NEWBURG,MD,,US,,,,,
,visa,,,NEWBURG,MD,,US,,,,,
,visa,,,NEWBURG,MD,,US,,,,,
,visa,,,NEWBURG,MD,,US,,,,,
,visa,,,NEWBURG,MD,,US,,,,,
,visa,,,NEWBURG,MD,,US,,,,,
,visa,,,NEWBURG,MD,,US,,,,,
,visa,,,NEWBURG,MD,,US,,,,,
