Ref,Spider,Name,Address,City,State,Zipcode,Country,Phone,Website,Hours,Brand,WikiData
1122,first_cash,First Cash Pawn,,Culiac√°n Rosales,Sinaloa,,MX,+52 667 766 0078,,,First Cash Pawn,
,visa,,,CULIACAN,SINALOA,,MX,,,,,
,visa,,,CULIACAN ROSALES,SINALOA,,MX,,,,,
,visa,,,CULIACAN,SINALOA,,MX,,,,,
,visa,,,CULIACAN,SINALOA,,MX,,,,,
,visa,,,CULIACAN,SINALOA,,MX,,,,,
83742189237c0ab19be0198b868fb2eb,western_union,WALDOS CULIACAN BARRANCOS 6639,,Culiacan,SINALOA,,MX,+52 55 5246 0700,https://location.westernunion.com/mx/sinaloa/culiacan/83742189237c0ab19be0198b868fb2eb,Mo-Su 06:30-23:30,Western Union,Q861042
16f500358c91d24c41fd5aba7fd92374,western_union,WALDOS CULIACAN BARRANCOS 6639,,Culiacan,SINALOA,,MX,+52 55 5246 0700,https://location.westernunion.com/mx/sinaloa/culiacan/16f500358c91d24c41fd5aba7fd92374,Mo-Su 06:30-23:30,Western Union,Q861042
479c9213556f87e9f8fe68c4c98e4342,western_union,SORIANA BARANCOS 125,,Culiacan,SINALOA,,MX,(+52) 81-1112009,https://location.westernunion.com/mx/sinaloa/culiacan/479c9213556f87e9f8fe68c4c98e4342,Mo-Su 08:00-23:00,Western Union,Q861042
fbabb1d3c2b550c9346d94719e133dd5,western_union,SORIANA BARANCOS 125,,Culiacan,SINALOA,,MX,(+52) 81-1112009,https://location.westernunion.com/mx/sinaloa/culiacan/fbabb1d3c2b550c9346d94719e133dd5,Mo-Su 08:00-23:00,Western Union,Q861042
939aa4c97929631970ac670b949e6a13,western_union,SORIANA BARANCOS 125,,Culiacan,SINALOA,,MX,(+52) 81-1112009,https://location.westernunion.com/mx/sinaloa/culiacan/939aa4c97929631970ac670b949e6a13,Mo-Su 08:00-23:00,Western Union,Q861042
20596582da78063f1561bcfd304facfd,western_union,OXXO FERNANDO CUEN CUL,,Culiacan,SINALOA,,MX,+52 81 8389 2121,https://location.westernunion.com/mx/sinaloa/culiacan/20596582da78063f1561bcfd304facfd,Mo-Su 08:00-22:00,Western Union,Q861042
f3bd6910e98409912360c614ae065ec0,western_union,OXXO FERNANDO CUEN CUL,,Culiacan,SINALOA,,MX,+52 81 8389 2121,https://location.westernunion.com/mx/sinaloa/culiacan/f3bd6910e98409912360c614ae065ec0,Mo-Su 08:00-22:00,Western Union,Q861042
bf4d16d52d27596c1203cb4960496ca6,western_union,OXXO FERNANDO CUEN CUL,,Culiacan,SINALOA,,MX,+52 81 8389 2121,https://location.westernunion.com/mx/sinaloa/culiacan/bf4d16d52d27596c1203cb4960496ca6,Mo-Su 08:00-22:00,Western Union,Q861042
5a8dd964911e77a97dc0ff09e6c989de,western_union,OXXO TERRONES CUL,,Culiacan,SINALOA,,MX,+52 81 8389 2121,https://location.westernunion.com/mx/sinaloa/culiacan/5a8dd964911e77a97dc0ff09e6c989de,Mo-Su 08:00-22:00,Western Union,Q861042
5aa28f5316d72afe646aa5def6127fd5,western_union,OXXO TERRONES CUL,,Culiacan,SINALOA,,MX,+52 81 8389 2121,https://location.westernunion.com/mx/sinaloa/culiacan/5aa28f5316d72afe646aa5def6127fd5,Mo-Su 08:00-22:00,Western Union,Q861042
db09b9a7d8c5768e76f2a0c8ab9dc4ca,western_union,OXXO TERRONES CUL,,Culiacan,SINALOA,,MX,+52 81 8389 2121,https://location.westernunion.com/mx/sinaloa/culiacan/db09b9a7d8c5768e76f2a0c8ab9dc4ca,Mo-Su 08:00-22:00,Western Union,Q861042
1ea23e1991b8c52e18ad02b4ea9443c3,western_union,CASA LEY 1367 SLX TERRONES,,Culiacan,SINALOA,,MX,+52 667 759 1001,https://location.westernunion.com/mx/sinaloa/culiacan/1ea23e1991b8c52e18ad02b4ea9443c3,Mo-Su 07:00-23:00,Western Union,Q861042
a73f6f76f39fe42cd09eb4f355b3dd41,western_union,CASA LEY 1367 SLX TERRONES,,Culiacan,SINALOA,,MX,+52 667 759 1001,https://location.westernunion.com/mx/sinaloa/culiacan/a73f6f76f39fe42cd09eb4f355b3dd41,Mo-Su 07:00-23:00,Western Union,Q861042
4d7f029f0fbe10032a5f01f04243bfb0,western_union,CASA LEY 1367 SLX TERRONES,,Culiacan,SINALOA,,MX,+52 667 759 1001,https://location.westernunion.com/mx/sinaloa/culiacan/4d7f029f0fbe10032a5f01f04243bfb0,Mo-Su 07:00-23:00,Western Union,Q861042
bf3a586e05717899766431a962e9be03,western_union,OXXO VALENZUELA CUL,,Culiacan,SINALOA,,MX,+52 81 8389 2121,https://location.westernunion.com/mx/sinaloa/culiacan/bf3a586e05717899766431a962e9be03,Mo-Su 08:00-22:00,Western Union,Q861042
eddde125e306a8bc69165fcf37efab15,western_union,OXXO VALENZUELA CUL,,Culiacan,SINALOA,,MX,+52 81 8389 2121,https://location.westernunion.com/mx/sinaloa/culiacan/eddde125e306a8bc69165fcf37efab15,Mo-Su 08:00-22:00,Western Union,Q861042
7514d42a92fc4589a3586f7c637c874c,western_union,OXXO VALENZUELA CUL,,Culiacan,SINALOA,,MX,+52 81 8389 2121,https://location.westernunion.com/mx/sinaloa/culiacan/7514d42a92fc4589a3586f7c637c874c,Mo-Su 08:00-22:00,Western Union,Q861042
499e1f21c312479dfa21e9a80db56900,western_union,OXXO MUJICA II CUL,,Culiacan,SINALOA,,MX,+52 81 8389 2121,https://location.westernunion.com/mx/sinaloa/culiacan/499e1f21c312479dfa21e9a80db56900,Mo-Su 08:00-22:00,Western Union,Q861042
4dc60170af7511d9b28c4c9bb5f6f085,western_union,OXXO CRUZ GALVEZ CUL,,Culiacan,SINALOA,,MX,+52 81 8389 2121,https://location.westernunion.com/mx/sinaloa/culiacan/4dc60170af7511d9b28c4c9bb5f6f085,Mo-Su 08:00-22:00,Western Union,Q861042
fb26cbda60f54632c7841a186aa43b05,western_union,OXXO CRUZ GALVEZ CUL,,Culiacan,SINALOA,,MX,+52 81 8389 2121,https://location.westernunion.com/mx/sinaloa/culiacan/fb26cbda60f54632c7841a186aa43b05,Mo-Su 08:00-22:00,Western Union,Q861042
5c064e86d4ef777ea24faa13aa335da7,western_union,FARM GUAD 2630 PLAZA CLOUTHIER,,Culiacan,SINALOA,,MX,+52 800 833 4700,https://location.westernunion.com/mx/sinaloa/culiacan/5c064e86d4ef777ea24faa13aa335da7,Mo-Fr 08:00-22:00; Sa 08:00-08:00; Su 22:00-08:00,Western Union,Q861042
2b967d4f2e54357c4978df4de9e83215,western_union,FARM GUAD 2630 PLAZA CLOUTHIER,,Culiacan,SINALOA,,MX,+52 800 833 4700,https://location.westernunion.com/mx/sinaloa/culiacan/2b967d4f2e54357c4978df4de9e83215,Mo-Fr 08:00-22:00; Sa 08:00-08:00; Su 22:00-08:00,Western Union,Q861042
4c6368669f1e56c8c6d29bd2611da679,western_union,FARM GUAD 2630 PLAZA CLOUTHIER,,Culiacan,SINALOA,,MX,+52 800 833 4700,https://location.westernunion.com/mx/sinaloa/culiacan/4c6368669f1e56c8c6d29bd2611da679,Mo-Fr 08:00-22:00; Sa 08:00-08:00; Su 22:00-08:00,Western Union,Q861042
97dc71c83a45483fc47d251bb4382020,western_union,OXXO CRUZ GALVEZ CUL,,Culiacan,SINALOA,,MX,+52 81 8389 2121,https://location.westernunion.com/mx/sinaloa/culiacan/97dc71c83a45483fc47d251bb4382020,Mo-Su 08:00-22:00,Western Union,Q861042
0a4b7b23e1f505eb0c07f799d1c08e9c,western_union,OXXO MUJICA II CUL,,Culiacan,SINALOA,,MX,+52 81 8389 2121,https://location.westernunion.com/mx/sinaloa/culiacan/0a4b7b23e1f505eb0c07f799d1c08e9c,Mo-Su 08:00-22:00,Western Union,Q861042
aa206d87b92e90ff89b068a4687d720f,western_union,OXXO MUJICA II CUL,,Culiacan,SINALOA,,MX,+52 81 8389 2121,https://location.westernunion.com/mx/sinaloa/culiacan/aa206d87b92e90ff89b068a4687d720f,Mo-Su 08:00-22:00,Western Union,Q861042
