Ref,Spider,Name,Address,City,State,Zipcode,Country,Phone,Website,Hours,Brand,WikiData
8051,aaa,Korn Agency LLC,,Woodstock,GA,,US,,,,American Automobile Association,Q463436
US428367,adidas,adidas Outlet Store Woodstock,,Woodstock,GA,,US,+1 678-445-2732,https://www.adidas.co.uk/storefront/US428367-woodstock-915-ridgewalk-parkway-adidas-outlet-store-woodstock,,Adidas,Q3895
US516146,adidas,"adidas Outlet Store, Woodstock, Atlanta Outlet Shoppes",,Woodstock,GA,,US,+1 470-648-3050,https://www.adidas.co.uk/storefront/US516146-woodstock-915-ridgewalk-pkwy-adidas-outlet-store-woodstock-atlanta-outlet-shoppes,,Adidas,Q3895
https://stores.advanceautoparts.com/ga/woodstock/150-village-ctr-e,advance_auto_parts_us,Advance Auto Parts,,Woodstock,GA,,US,+1 770-924-4122,https://stores.advanceautoparts.com/ga/woodstock/150-village-ctr-e,Mo-Sa 07:30-21:00; Su 08:30-20:30,Advance Auto Parts,Q4686051
https://stores.advanceautoparts.com/ga/woodstock/5204-holly-springs-pkwy,advance_auto_parts_us,Advance Auto Parts,,Woodstock,GA,,US,+1 678-402-9522,https://stores.advanceautoparts.com/ga/woodstock/5204-holly-springs-pkwy,Mo-Sa 07:30-21:00; Su 08:30-20:30,Advance Auto Parts,Q4686051
https://stores.aldi.us/#4420436,aldi_sud_us,ALDI  200 West Village Dr.,,Woodstock,GA,,US,+1 844-476-1053,https://stores.aldi.us/ga/woodstock/200-west-village-dr,Mo-Su 09:00-20:00,ALDI,Q41171672
https://storelocations.ae.com/#21075420,american_eagle_outfitters,Aerie Outlet Outlet Shoppes at Atlanta,,Woodstock,GA,,US,+1 770-799-0347,https://storelocations.ae.com/us/ga/woodstock/915-ridgewalk-pkwy.html,Mo-Sa 10:00-20:00; Su 11:00-19:00,Aerie Outlet,Q2842931
https://storelocations.ae.com/#1727680,american_eagle_outfitters,American Eagle Outlet Outlet Shoppes at Atlanta,,Woodstock,GA,,US,+1 770-924-8925,https://storelocations.ae.com/us/ga/woodstock/915-ridgewalk-parkway.html,Mo-Sa 10:00-20:00; Su 11:00-19:00,American Eagle Outlet,Q2842931
4f20ae73-e11d-e611-80c5-005056aa8521,amf_bowling,AMF Woodstock Lanes,,Woodstock,GA,,US,+1 770-926-2200,https://www.amf.com/location/amf-woodstock-lanes,,AMF Bowling Center,Q4652616
https://stores.anntaylor.com/factory/us/ga/woodstock/915-ridgewalk-pkwy.html,anntaylor,Ann Taylor Factory Store,,Woodstock,GA,,US,+1 678-445-2026,https://stores.anntaylor.com/factory/us/ga/woodstock/915-ridgewalk-pkwy.html,Mo-Sa 10:00-21:00; Su 11:00-19:00,Ann Taylor,Q4766699
https://restaurants.applebees.com/en-us/ga/woodstock/901-ridgewalk-parkway-78005,applebees,Connect with this Applebee's,,Woodstock,GA,,US,+1 678-626-3677,https://restaurants.applebees.com/en-us/ga/woodstock/901-ridgewalk-parkway-78005,Mo-Th 11:00-23:00; Fr-Sa 11:00-24:00; Su 11:00-23:00,Applebees,Q621532
https://locations.arbys.com/ga/woodstock/12180-highway-92.html,arbys_us,"Arby's Fast-Food Drive Through Near You in Woodstock, GA",,Woodstock,GA,,US,+1 770-926-6647,https://locations.arbys.com/ga/woodstock/12180-highway-92.html,Mo-Su 09:30-23:00,Arby's,Q630866
https://locations.arbys.com/ga/woodstock/100-indian-valley-dr.html,arbys_us,"Arby's Fast-Food Drive Through Near You in Woodstock, GA",,Woodstock,GA,,US,+1 770-926-8777,https://locations.arbys.com/ga/woodstock/100-indian-valley-dr.html,Mo-Su 09:30-24:00,Arby's,Q630866
62198,asics_us,ASICS Outlet Atlanta,915 Ridgewalk Pkwy D440,Woodstock,GA,,US,+1 770-926-4703,,Mo-Sa 11:00-19:00; Su 12:00-18:00,asics,Q327247
3883,athleta,Outlt Shop @ Atlanta,,Woodstock,GA,,US,+1 770-795-5103,https://athleta.gap.com/stores/ga/woodstock/athleta-3883.html,Mo-Sa 10:00-21:00; Su 11:00-19:00,Athleta,Q105722424
https://locations.auntieannes.com/#6783,auntie_annes,Auntie Anne's Outlet Shoppes at Atlanta,,Woodstock,GA,,US,+1 678-540-3199,https://locations.auntieannes.com/ga/woodstock/915-ridgewalk-pkwy,Mo-Sa 10:00-21:00; Su 11:00-19:00,Auntie Anne's,Q4822010
https://locations.auntieannes.com/#8491,auntie_annes,Auntie Anne's Auntie Anne's Woodstock,,Woodstock,GA,,US,+1 470-577-8935,https://locations.auntieannes.com/ga/woodstock/6234-old-hwy-5,Mo-Fr 12:00-20:00; Sa 11:00-19:00,Auntie Anne's,Q4822010
940,autozone_us,AutoZone Auto Parts Woodstock,,Woodstock,GA,,US,+1 770-924-5911,https://www.autozone.com/locations/ga/woodstock/9870-main-st--150.html,Mo-Sa 07:30-21:00; Su 08:00-20:00,AutoZone,Q4826087
https://www.avis.com/en/locations/us/ga/woodstock/w2s,avis,Avis U S A Woodstock,,Woodstock,GA,,US,+1 678-494-5366,https://www.avis.com/en/locations/us/ga/woodstock/w2s,Mo-Fr 08:00-18:00; Sa 10:00-14:00; Su 11:00-15:00,Avis,Q791136
https://bananarepublic.gap.com/stores/ga/woodstock/banana-republic-2959.html,bananarepublic,Banana Republic,,WOODSTOCK,GA,,US,+1 770-926-4891,https://bananarepublic.gap.com/stores/ga/woodstock/banana-republic-2959.html,Mo-Sa 10:00-20:00; Su 11:00-19:00,Banana Republic,Q806085
https://locators.bankofamerica.com/ga/woodstock/financial-centers-woodstock-15628.html,bankofamerica,Bank of America Financial Center & Drive-Thru ATM | Woodstock Main,,Woodstock,GA,,US,+1 678-494-6470,https://locators.bankofamerica.com/ga/woodstock/financial-centers-woodstock-15628.html,Mo-Fr 10:00-16:00,Bank of America,Q487907
https://locators.bankofamerica.com/ga/woodstock/atm-woodstock-107052.html,bankofamerica,Bank of America Walk-Up ATM | Woodstock,,Woodstock,GA,,US,+1 844-401-8500,https://locators.bankofamerica.com/ga/woodstock/atm-woodstock-107052.html,,Bank of America,Q487907
https://locations.baskinrobbins.com/ga/woodstock/875-towne-lake-parkway-336181-br,baskin_robbins_us,Baskin-Robbinsâ„¢,,Woodstock,GA,,US,+1 770-928-2582,https://locations.baskinrobbins.com/ga/woodstock/875-towne-lake-parkway-336181-br,24/7,Baskin-Robbins,Q584601
859,batteriesplus,Visit our battery and lighting experts in Woodstock today,,Woodstock,GA,,US,+1 770-852-2282,https://www.batteriesplus.com/store-locator/ga/woodstock/batteries-plus-859,Mo-Fr 08:00-19:00; Sa 09:00-19:00; Su 10:00-18:00,Batteries Plus Bulbs,Q17005157
181874,bluerhino,Shell Food Mart - ARA #3599,,Woodstock,GA,,US,+1 770-485-8771,,,Blue Rhino,Q65681213
61688,bluerhino,Kroger #430 - Atlanta,,Woodstock,GA,,US,+1 770-924-2557,,,Blue Rhino,Q65681213
13103,bluerhino,Kroger #419 - Atlanta,,Woodstock,GA,,US,+1 770-591-2890,,,Blue Rhino,Q65681213
194112,bluerhino,Walgreens #17077,,Woodstock,GA,,US,+1 770-926-4494,,,Blue Rhino,Q65681213
236502,bluerhino,Circle K #2745095,,WOODSTOCK,GA,,US,+1 770-592-2848,,,Blue Rhino,Q65681213
1215,bluerhino,Walmart #0575 - Supercenter,,Woodstock,GA,,US,+1 770-516-4719,,,Blue Rhino,Q65681213
ga/woodstock/12100-hwy-92,bojangles,"Bojangles Woodstock, GA",,Woodstock,GA,,US,+1 770-516-7507,https://locations.bojangles.com/ga/woodstock/12100-hwy-92.html,,Bojangles',Q891163
02234642121523018800100000000000,bp,BP,,Woodstock,GA,,US,+1 770-517-5755,,Mo-Su 06:00-23:00,BP,Q152057
4077,burgerking,Burger King,,Woodstock,GA,,US,+1 678-335-6990,https://www.bk.com/store-locator/store/restaurant_2270,Mo-Su 06:00-22:00,Burger King,Q177054
WDS,camping_world_us,Camping World of Woodstock,"505 PARKWAY 575 WOODSTOCK, GA 30188",WOODSTOCK,GA,,US,+1 888-380-0095,https://rv.campingworld.com/dealer/wichita-kansasatlanta-georgia-woodstock,,Camping World,Q5028383
5920,camp_bow_wow,Camp Bow Wow Woodstock,,Woodstock,GA,,US,+1 770-675-3445,,,Camp Bow Wow,Q121322343
363625,captaind,Captain D's,,Woodstock,GA,,US,+1 770-591-7375,https://locations.captainds.com/ll/US/GA/Woodstock/9805-Highway-92,Mo-Su 10:30-22:00,Captain D's,Q5036616
//locations.carters.com/ga/woodstock/carters-woodstock-ga,carters_us,Carter's Woodstock,,Woodstock,GA,,US,+1 770-928-2836,https://locations.carters.com/ga/woodstock/carters-woodstock-ga,Mo-Th 10:00-20:00; Fr-Sa 10:00-21:00; Su 11:00-19:00,Carter's,Q5047083
https://stores.champion.com/ga/woodstock/915-ridgewalk-parkway.html,champion_us,Champion Outlet Woodstock,,Woodstock,GA,,US,+1 770-592-1995,https://stores.champion.com/ga/woodstock/915-ridgewalk-parkway.html,Mo-Sa 10:00-21:00; Su 11:00-19:00,Champion,Q2948688
303064,chevron,Texaco Station #303064,6315 OLD HWY 5,WOODSTOCK,GA,,US,+1 770-928-9681,,,Chevron,Q319642
305678,chevron,Chevron Station #305678,9114 S. MAIN ST.,WOODSTOCK,GA,,US,,,,Chevron,Q319642
208825,chevron,Chevron Station #208825,238 ARNOLD MILL RD,WOODSTOCK,GA,,US,,,,Chevron,Q319642
ga_woodstock_9480-hwy-92,chipotle, ,,Woodstock,GA,,US,+1 678-275-2293,https://locations.chipotle.com/ga/woodstock/9480-hwy-92,,Chipotle,Q465751
63762,citi,ATM LGE Community Credit Union,,Woodstock,GA,,US,,,,Citibank,Q857063
40498,citi,ATM Circle K,,Woodstock,GA,,US,,,,Citibank,Q857063
87057,citi,ATM Walgreens,,Woodstock,GA,,US,,,,Citibank,Q857063
60962,citi,ATM Kroger,,Woodstock,GA,,US,,,,Citibank,Q857063
61477,citi,ATM Kroger,,Woodstock,GA,,US,,,,Citibank,Q857063
45784,citi,ATM Costco,,Woodstock,GA,,US,,,,Citibank,Q857063
woodstock/5073,claires,Shop Ear Piercings & Jewelry at Outlet Shoppes At Atlanta,,WOODSTOCK,GA,,US,+1 770-591-0660,https://stores.claires.com/us/ga/woodstock/5073.html,Mo-Sa 10:00-20:00; Su 11:00-19:00,Claire's,Q2974996
https://www.coach.com/stores/#17277354,coach_us,COACH Outlet,,Woodstock,GA,,US,+1 678-771-6396,https://www.coach.com/stores/outlets/ga/woodstock/915-ridgewalk-parkway,Mo-Sa 10:00-21:00; Su 11:00-19:00,Coach,Q727697
206668,crocs_eu,Crocs at The Outlet Shoppes at Atlanta,,Woodstock,GA,,US,+1 678-494-6949,,,Crocs,Q926699
809,culvers_us,"Culver's of Woodstock, GA - Hwy 92",,Woodstock,GA,,US,+1 470-377-4176,http://www.culvers.com/restaurants/woodstock-ga-hwy-92,Mo-Fr 10:30-22:00; Su 10:30-22:00,Culver's,Q1143589
7390,dollartree,DollarTree,,Woodstock,GA,,US,+1 678-402-2116,,Mo-Sa 09:00-21:00; Su 09:00-20:00,Dollar Tree,Q5289230
9751,dollartree,DollarTree,,Woodstock,GA,,US,+1 470-531-0522,,Mo-Sa 09:00-21:00; Su 10:00-20:00,Dollar Tree,Q5289230
4125,dominos_pizza_us,Domino's Pizza,,Woodstock,GA,,US,+1 770-924-3300,https://pizza.dominos.com/georgia/woodstock/12195-hwy-92,Mo-Th 10:00-24:00; Fr-Sa 10:00-01:00; Su 10:00-24:00,Domino's,Q839466
336992,dunkin_us,Dunkin',,Woodstock,GA,,US,+1 770-926-7770,https://locations.dunkindonuts.com/en/ga/woodstock/9755-hwy-92/336992,24/7,Dunkin',Q847743
358663,dunkin_us,Dunkin',,Woodstock,GA,,US,+1 770-928-2913,https://locations.dunkindonuts.com/en/ga/woodstock/600-claremore-professional-way/358663,24/7,Dunkin',Q847743
336181,dunkin_us,Dunkin',,Woodstock,GA,,US,+1 770-928-2582,https://locations.dunkindonuts.com/en/ga/woodstock/875-towne-lake-parkway/336181,24/7,Dunkin',Q847743
https://www.edwardjones.com/us-en/financial-advisor/tom-ridge,edwardjones,Tom Ridge,,Woodstock,GA,,US,+1 770-591-8021,https://www.edwardjones.com/us-en/financial-advisor/tom-ridge,,Edward Jones,Q5343830
210092,electrify_america,"Bank of America GA7-634 (Woodstock, GA)",,Woodstock,GA,,US,,,,Electrify America,Q59773555
E103U5,enterprise,Woodstock Hwy. 92,,Woodstock,GA,,US,+1 678-494-6839,,,Enterprise Rent-A-Car,Q17085454
915-ridgewalk-pkwy,express,Outlet Shoppes at Atlanta,,Woodstock,GA,,US,+1 678-224-7483,https://stores.expressfactoryoutlet.com/us/ga/woodstock/915-ridgewalk-pkwy,Mo-Sa 10:00-20:00; Su 11:00-19:00,Express Factory Outlet,Q1384784
1955,extra_space_storage,Woodstock Self Storage at 185 Woodstock Pkwy,,Woodstock,GA,,US,+1 470-744-0110,https://www.extraspace.com/storage/facilities/us/georgia/woodstock/1955/,Mo-Fr 09:30-18:00; Sa 09:00-17:30,Extra Space Storage,Q5422162
7968,extra_space_storage,Woodstock Self Storage at 664 E Rope Mill Ln,,Woodstock,GA,,US,+1 470-523-1350,https://www.extraspace.com/storage/facilities/us/georgia/woodstock/7968/,Mo-Fr 09:30-18:00; Sa 09:00-17:30,Extra Space Storage,Q5422162
7962,extra_space_storage,Woodstock Self Storage at 3200 S Cherokee Ln,,Woodstock,GA,,US,+1 678-367-3095,https://www.extraspace.com/storage/facilities/us/georgia/woodstock/7962/,Mo-Fr 09:30-18:00; Sa 09:00-17:30,Extra Space Storage,Q5422162
https://local.fedex.com/#25199822,fedex,,,Woodstock,GA,,US,+1 800-463-3339,https://local.fedex.com/en-us/ga/woodstock/ncqlb,,FedEx,Q459477
https://local.fedex.com/#27752785,fedex,FedEx Authorized ShipCenter,,Woodstock,GA,,US,+1 404-960-7778,https://local.fedex.com/en-us/ga/woodstock/00ma3,,FedEx,Q459477
26638,firestone_auto_care,Firestone Complete Auto Care,,Woodstock,GA,,US,+1 770-225-1527,https://local.firestonecompleteautocare.com/georgia/woodstock/9421-ga-92/,,Firestone,Q420837
https://restaurants.fiveguys.com/#15553071,five_guys_us,Five Guys Outlet Shoppes @ Atlanta,,Woodstock,GA,,US,+1 678-494-9500,https://restaurants.fiveguys.com/871-ridgewalk-parkway,"Mo-Su 11:00-21:30,11:00-22:00",Five Guys,Q1131810
Motorcraft1548USAEnglish,ford,Cherokee Ford of Woodstock,,Georgia,GA,,US,+1 706-629-2886,,,Ford,Q44294
https://www.ford.com/dealerships/dealer-details/ga/woodstock/krause-family-ford-of-woodstock/,ford_dealers_us,Krause Family Ford of Woodstock,,Woodstock,GA,,US,+1 470-750-3483,https://www.ford.com/dealerships/dealer-details/ga/woodstock/krause-family-ford-of-woodstock/,Mo-Fr 09:00-20:00; Sa 09:00-19:00; Su 12:00-17:00,Ford Motor Company,Q44294
https://locations.forever21.com/#64497423,forever21_us,The Outlets Shoppes at Atlanta,,Woodstock,GA,,US,+1 678-335-5416,https://locations.forever21.com/us/stores/ga/woodstock/915-ridgewalk-parkway,,Forever 21,Q1060537
7485,fossil,Fossil Outlet,,Woodstock,GA,,US,+1 678-388-7608,,Mo-Sa 10:00-20:00; Su 11:00-19:00,Fossil,Q356212
2933,fresenius_kidney_care_us,Fresenius Kidney Care Woodstock,,Woodstock,GA,,US,+1 800-881-5101,https://www.freseniuskidneycare.com/dialysis-centers/georgia/2933,Mo-Sa 05:00-16:30,,
5728,gamestop_us,Shoppes at Trickum,,Woodstock,GA,,US,+1 770-928-8073,https://www.gamestop.com/search/?store=5728,Mo-Th 12:00-19:00; Fr-Sa 11:00-20:00; Su 12:00-19:00,GameStop,Q202210
https://stores.gnc.com/#24057889,gnc,GNC Outlet Shoppes At Atlanta,,,GA,,US,+1 678-275-2373,https://stores.gnc.com/all-stores-georgia/woodstock/915-ridge-walk-parkway,Mo-Sa 10:00-20:00; Su 11:00-19:00,GNC,Q4808595
15d1cc3d-74ff-ea11-80eb-00505689ac90,goodwill,Woodstock Career Center,,Woodstock,GA,,US,+1 770-874-0901,https://www.goodwill.org/locator/location/?store=MTVkMWNjM2QtNzRmZi1lYTExLTgwZWItMDA1MDU2ODlhYzkw&lat=MzQuMDg1OTQ=&lng=LTg0LjUzMjQ4,,Goodwill,Q5583655
216578ed-458a-e111-8dde-005056934050,goodwill,"Woodstock Store, Donation Center and Career Center",,Woodstock,GA,,US,+1 770-874-0262,https://www.goodwill.org/locator/location/?store=MjE2NTc4ZWQtNDU4YS1lMTExLThkZGUtMDA1MDU2OTM0MDUw&lat=MzQuMDg2MjM=&lng=LTg0LjUyODE1,,Goodwill,Q5583655
https://salons.greatclips.com/us/ga/woodstock/5341-holly-springs-pkwy,greatclips,Great Clips,,Woodstock,GA,,US,+1 770-591-3710,https://salons.greatclips.com/us/ga/woodstock/5341-holly-springs-pkwy,Mo-Fr 09:00-18:00; Sa 08:30-17:30; Su 10:00-18:00,Great Clips,Q5598967
https://salons.greatclips.com/us/ga/woodstock/12050-hwy-92,greatclips,Great Clips,,Woodstock,GA,,US,+1 770-516-9288,https://salons.greatclips.com/us/ga/woodstock/12050-hwy-92,Mo-Fr 09:00-19:00; Sa 09:00-18:00; Su 11:00-17:00,Great Clips,Q5598967
atlwshx-hampton-atlanta-woodstock,hilton,Hampton Inn Atlanta/Woodstock,,,GA,,US,+1 770-592-2323,https://www.hilton.com/ar/hotels/atlwshx-hampton-atlanta-woodstock/,,Hampton by Hilton,Q5646230
26,honey_baked,HoneyBaked of Woodstock,,Woodstock,GA,,US,+1 770-592-7601,https://www.honeybaked.com/stores/26,,Honey Baked Ham,Q5893363
9925298,hugo_boss,BOSS Temporary Outlet,,Woodstock,GA,,US,,https://www.hugoboss.com/us/storedetail?storeid=9925298,Mo-Su 10:00-19:00,Hugo Boss,Q491627
11611,h_r_block,H&R Block,,Woodstock,GA,,US,+1 770-926-8898,https://www.hrblock.com/local-tax-offices/georgia/woodstock/shoppes-at-trickum/11611/,,H&R Block,Q5627799
https://office.jacksonhewitt.com/#27579300,jackson_hewitt,Jackson Hewitt,,Woodstock,GA,,US,+1 404-479-4419,https://office.jacksonhewitt.com/tax-preparation-services-locations/en/ga/woodstock/12182-highway-92/50575,Mo-Sa 11:00-19:00; Su 12:00-16:00,Jackson Hewitt,Q6117132
https://locations.jimmyjohns.com/ga/woodstock/sandwiches-1969.html,jimmy_johns,Jimmy John's,,Woodstock,GA,,US,+1 678-504-7586,https://locations.jimmyjohns.com/ga/woodstock/sandwiches-1969.html,,Jimmy John's,Q1689380
https://stores.factory.jcrew.com/#1192281,j_crew_us,J.Crew Factory,,Woodstock,GA,,US,+1 770-517-9480,https://stores.factory.jcrew.com/us/ga/woodstock/915-ridgewalk-pkwy,Mo-We 10:00-21:00; Th 11:00-21:00; Fr-Sa 10:00-21:00; Su 11:00-19:00,J. Crew,Q5370765
https://healthy.kaiserpermanente.org/georgia/facilities/fresenius-kidney-care-woodstock-337645,kaiser_permanente_us,Fresenius Kidney Care Woodstock,,Woodstock,GA,,US,+1 770-592-3439,https://healthy.kaiserpermanente.org/georgia/facilities/fresenius-kidney-care-woodstock-337645,,Kaiser Permanente,Q1721601
https://www.katespade.com/stores/#18467916,kate_spade_ca_us,Kate Spade Outlet Shoppes at Atlanta,,Woodstock,GA,,US,+1 762-239-0090,https://www.katespade.com/stores/us/ga/woodstock/915-ridgewalk-parkway,Mo-Sa 10:00-20:00; Su 11:00-19:00,Kate Spade New York,Q6375797
086143,kindercare,Woodstock KinderCare,,Woodstock,GA,,US,,https://www.kindercare.com/our-centers/woodstock/ga/086143,,KinderCare Learning Centers,Q6410551
https://local.lenscrafters.com/ga/woodstock/915-ridgewalk-pkwy.html,lenscrafters,LensCrafters,,Woodstock,GA,,US,+1 770-517-4414,https://local.lenscrafters.com/ga/woodstock/915-ridgewalk-pkwy.html,Mo-Fr 10:00-20:00; Sa 09:00-20:00; Su 11:00-19:00,LensCrafters,Q6523209
GAWDK,life_time,Woodstock,,Woodstock,GA,,US,+1 770-926-7544,https://my.lifetime.life/clubs/ga/woodstock.html,Mo-Fr 04:00-24:00; Sa-Su 06:00-23:00,Life Time,Q6545004
https://stores.loft.com/outlet/us/ga/woodstock/915-ridge-walk-parkway.html,loft_us,Loft,,Woodstock,GA,,US,+1 678-445-9760,https://stores.loft.com/outlet/us/ga/woodstock/915-ridge-walk-parkway.html,,Loft,Q62075137
ATLWF,marriott,Fairfield Inn & Suites Atlanta Woodstock,,Woodstock,GA,,US,+1 770-926-4669,https://www.marriott.com/ATLWF,,Fairfield by Marriott,Q5430314
https://locations.michaelkors.com/us/ga/woodstock/915-ridgewalk-pkwy.html,michaelkors,Michael Kors Outlet WOODSTOCK,,Woodstock,GA,,US,+1 770-592-2202,https://locations.michaelkors.com/us/ga/woodstock/915-ridgewalk-pkwy.html,Mo-Sa 10:00-20:00; Su 11:00-19:00,Michael Kors,Q19572998
https://locations.michaelkors.com/fr/us/ga/woodstock/915-ridgewalk-pkwy.html,michaelkors,Michael Kors Outlet WOODSTOCK,,Woodstock,GA,,US,+1 770-592-2202,https://locations.michaelkors.com/fr/us/ga/woodstock/915-ridgewalk-pkwy.html,Mo-Sa 10:00-20:00; Su 11:00-19:00,Michael Kors,Q19572998
https://locations.moes.com/#111,moes,Moe's Southwest Grill,,Woodstock,GA,,US,+1 770-517-6634,https://locations.moes.com/ga/woodstock/9745-hwy-92,Mo-Su 10:30-22:00,Moe's Southwest Grill,Q6889938
71476003,moneygram,WAL-MART - #575,,WOODSTOCK,GA,,US,+1 770-516-4719,,Mo-Su 07:00-21:00,MoneyGram,Q1944412
9801-hwy-92,my_eye_dr,,,Woodstock,GA,,US,+1 770-592-7100,https://locations.myeyedr.com/ga/woodstock/9801-hwy-92,,MyEyeDr.,Q117864710
12924-hwy-92,my_eye_dr,,,Woodstock,GA,,US,+1 678-717-9121,https://locations.myeyedr.com/ga/woodstock/12924-hwy-92,,MyEyeDr.,Q117864710
d22f32be-f269-4cda-bad3-6cc83ed2c583,northside_hospital_us,Diabetes and Nutrition Education Cherokee,,Woodstock,GA,,US,+1 678-388-6400,https://www.northside.com/locations/diabetes-and-nutrition-education-cherokee,,Northside Hospital,Q7059745
ab6a4c27-5e96-4568-8e46-2f947d667725,northside_hospital_us,Northside Family Practice,,Woodstock,GA,,US,+1 770-517-2145,https://www.northside.com/locations/northside-family-practice,,Northside Hospital,Q7059745
e66ee0a6-99d0-49b6-9784-68a1e25cff11,northside_hospital_us,Total Joint Specialists - Woodstock,,Woodstock,GA,,US,+1 678-494-8420,https://www.northside.com/locations/arthritis-total-joint-specialists---woodstock,,Northside Hospital,Q7059745
a225ddde-b0ca-45ed-b9d9-4b0c57f3d5a6,northside_hospital_us,Woodstock Education Center,,Woodstock,GA,,US,+1 678-338-6400,https://www.northside.com/locations/northside-hospital-cherokee-education-center,,Northside Hospital,Q7059745
https://locations.oreillyauto.com/ga/hollysprings/check-engine-light-testing-6307.html,oreilly,Your Holly Springs O'Reilly Auto Parts Store,,Holly Springs,GA,,US,+1 770-738-2912,https://locations.oreillyauto.com/ga/hollysprings/check-engine-light-testing-6307.html,Mo-Sa 07:30-21:00; Su 09:00-20:00,O'Reilly Auto Parts,Q7071951
https://locations.oreillyauto.com/ga/hollysprings/wiper-installation-6307.html,oreilly,Your Holly Springs O'Reilly Auto Parts Store,,Holly Springs,GA,,US,+1 770-738-2912,https://locations.oreillyauto.com/ga/hollysprings/wiper-installation-6307.html,Mo-Sa 07:30-21:00; Su 09:00-20:00,O'Reilly Auto Parts,Q7071951
https://locations.oreillyauto.com/ga/hollysprings/battery-testing-6307.html,oreilly,Your Holly Springs O'Reilly Auto Parts Store,,Holly Springs,GA,,US,+1 770-738-2912,https://locations.oreillyauto.com/ga/hollysprings/battery-testing-6307.html,Mo-Sa 07:30-21:00; Su 09:00-20:00,O'Reilly Auto Parts,Q7071951
https://locations.oreillyauto.com/ga/hollysprings/autopartes-6307.html,oreilly,Tu tienda O'Reilly Auto Parts en Holly Springs,,Holly Springs,GA,,US,+1 770-738-2912,https://locations.oreillyauto.com/ga/hollysprings/autopartes-6307.html,Mo-Sa 07:30-21:00; Su 09:00-20:00,O'Reilly Auto Parts,Q7071951
//locations.oshkosh.com/ga/woodstock/oshkosh-woodstock-ga,oshkosh_us,Oshkosh B'gosh Woodstock,,Woodstock,GA,,US,+1 770-928-2836,https://locations.oshkosh.com/ga/woodstock/oshkosh-woodstock-ga,Mo-Th 10:00-20:00; Fr-Sa 10:00-21:00; Su 11:00-19:00,OshKosh B'gosh,Q1417347
111676,pandaexpress,Hwy 92 & Trickum,,Woodstock,GA,,US,+1 770-592-1619,https://www.pandaexpress.com/locations/ga/woodstock/12162-highway-92,Mo-Th 10:00-22:00; Fr 10:00-22:30; Sa 10:30-22:30; Su 10:30-22:00,Panda Express,Q1358690
112663,pandaexpress,I-575 & Ridgewalk,,Woodstock,GA,,US,+1 770-517-7719,https://www.pandaexpress.com/locations/ga/woodstock/941-ridgewalk-pkwy,Mo-Th 10:00-21:30; Fr-Sa 10:00-22:00; Su 10:30-21:30,Panda Express,Q1358690
https://locations.papajohns.com/#27552820,papa_johns,Papa John's,,Woodstock,GA,,US,+1 678-384-4599,https://locations.papajohns.com/united-states/ga/30188/woodstock/5339-old-highway-5,Mo-Th 10:00-24:00; Fr-Sa 10:00-01:00; Su 10:00-24:00,Papa John's Pizza,Q2759586
https://locations.papajohns.com/#10692851,papa_johns,Papa John's,,Woodstock,GA,,US,+1 770-592-6560,https://locations.papajohns.com/united-states/ga/30188/woodstock/3351-trickum-rd,Mo-Th 10:00-24:00; Fr-Sa 10:00-01:00; Su 10:00-24:00,Papa John's Pizza,Q2759586
GA - Woodstock,petparadise,GA - Woodstock,,Woodstock,GA,,US,+1 770-517-9907,https://www.petparadise.com/woodstock.htm,,Pet Paradise,Q122955413
ga_woodstock_12050-highway-92,pizza_hut_us,12050 Highway 92,,Woodstock,GA,,US,+1 770-591-3900,https://locations.pizzahut.com/ga/woodstock/12050-highway-92,,Pizza Hut,Q191615
restaurant_239746,popeyes_us_fr,Popeyes,"9490 Alabama Road (GA-92) Woodstock, Georgia 30188 - USA",Woodstock,GA,,US,+1 770-635-7248,https://www.popeyes.com/store-locator/store/restaurant_239746,Mo-Th 10:00-22:00; Fr-Sa 10:00-23:00; Su 10:00-22:00,Popeyes,Q1330910
ppg-paints-9229-21772,ppgpaints,PPG Paints 9229,,"Woodstock, ",GA,,US,+1 770-928-1252,https://www.ppgpaints.com/store-locator/us/georgia/woodstock-paint-stores/ppg-paints-9229-21772,,PPG Paints,Q83891559
99,primrose_schools,Primrose School of Woodstock,,Woodstock,GA,,US,+1 770-924-0084,https://www.primroseschools.com/schools/woodstock/,,Primrose Schools,Q7243677
211,primrose_schools,Primrose School of Woodstock East,,Woodstock,GA,,US,+1 770-924-9881,https://www.primroseschools.com/schools/woodstock-east/,,Primrose Schools,Q7243677
https://www.publicstorage.com/self-storage-ga-woodstock/5263.html,public_storage_us,Public Storage,,Woodstock,GA,,US,+1 770-766-1264,https://www.publicstorage.com/self-storage-ga-woodstock/5263.html,,Public Storage,Q1156045
https://www.publicstorage.com/self-storage-ga-woodstock/1620.html,public_storage_us,Public Storage,,Woodstock,GA,,US,+1 678-273-2861,https://www.publicstorage.com/self-storage-ga-woodstock/1620.html,,Public Storage,Q1156045
https://locations.quiktrip.com/#16004370,quiktrip_us,QuikTrip Store #801 9765 Hwy 92,,Woodstock,GA,,US,+1 770-591-4274,https://locations.quiktrip.com/ga/woodstock/9765-hwy-92,24/7,QuikTrip,Q7271953
https://www.racetrac.com/locations/georgia/woodstock/hames-road,racetrac_us,RaceTrac,,Woodstock,GA,,US,+1 770-926-4216,https://www.racetrac.com/locations/georgia/woodstock/hames-road,,RaceTrac,Q735942
https://www.racetrac.com/locations/georgia/woodstock/ridgewalk,racetrac_us,RaceTrac,,Woodstock,GA,,US,+1 770-591-8362,https://www.racetrac.com/locations/georgia/woodstock/ridgewalk,,RaceTrac,Q735942
https://stores.saloncentric.com/#29173574,salon_centric_us,SalonCentric,,,GA,,US,+1 770-592-7610,https://stores.saloncentric.com/ga/woodstock/1210,Mo 08:00-18:30; Tu-Fr 08:00-18:00; Sa 08:30-16:00,SalonCentric,Q124339481
8158,sams_club,Woodstock Sam's Club,,Woodstock,GA,,US,+1 678-402-0541,https://www.samsclub.com/club/woodstock-ga-sams-club/8158,Mo 10:00-20:00; Sa 09:00-20:00; Su 10:00-18:00,Sam's Club,Q1972120
https://locations.schlotzskys.com/#2261,schlotzskys,Schlotzsky's,,Cherokee County,GA,,US,+1 770-591-5875,https://locations.schlotzskys.com/ga/woodstock/9040-hwy-92,Mo-Sa 11:00-21:00; Su 11:00-20:00,Schlotzsky's,Q2244796
https://restaurants.subway.com/#14909817,subway,Subway Woodstock Square Shopping Ctr.,,Woodstock Cherokee,GA,,US,+1 770-928-9070,https://restaurants.subway.com/united-states/ga/woodstock/9980-highway-92,Mo-Su 09:00-22:00,Subway,Q244457
https://restaurants.subway.com/#14911905,subway,Subway Village Shoppes of E Cherokee,,Woodstock Cherokee,GA,,US,+1 770-516-6488,https://restaurants.subway.com/united-states/ga/woodstock/6234-old-highway-5,Mo-Su 09:00-22:00,Subway,Q244457
https://restaurants.subway.com/#14898424,subway,Subway Village at Trickum S/C,,Woodstock Cherokee,GA,,US,+1 678-494-6756,https://restaurants.subway.com/united-states/ga/woodstock/12035-hwy-92,Mo-Su 09:00-22:00,Subway,Q244457
https://stores.sunglasshut.com/us/ga/woodstock/915-ridgewalk-pkwy-4901,sunglass_hut_1,Sunglass Hut,,Woodstock,GA,,US,+1 678-540-7078,https://stores.sunglasshut.com/us/ga/woodstock/915-ridgewalk-pkwy-4901,Mo-Sa 10:00-21:00; Su 11:00-19:00,Sunglass Hut,Q136311
https://stores.sunglasshut.com/us/ga/woodstock/915-ridgewalk-pkwy-3980,sunglass_hut_1,Sunglass Hut,,Woodstock,GA,,US,+1 678-494-4402,https://stores.sunglasshut.com/us/ga/woodstock/915-ridgewalk-pkwy-3980,Mo-Sa 10:00-21:00; Su 11:00-19:00,Sunglass Hut,Q136311
0446709800,sunoco_us,Sunoco,,WOODSTOCK,GA,,US,+1 770-926-2827,,Mo-Sa 06:00-23:00; Su 08:00-22:00,Sunoco,Q1423218
https://locations.tacobell.com/#6147372,taco_bell,Taco Bell,,Woodstock,GA,,US,+1 770-924-6724,https://locations.tacobell.com/ga/woodstock/10050-highway-92.html,Mo-Th 07:00-01:00; Fr-Sa 07:00-02:00; Su 08:00-01:00,Taco Bell,Q752941
TNFUS00344,the_north_face,The North Face Outlets at Atlanta,,Woodstock,GA,,US,+1 678-370-6440,,Mo-Sa 10:00-21:00; Su 11:00-19:00,The North Face,Q152784
2SFC,tmobile_us,Woodstock Outlets,,Woodstock,GA,,US,+1 678-494-5480,https://www.t-mobile.com/store-locator/ga/woodstock/woodstock-outlets,,T-Mobile,Q3511885
100188,two_men_and_truck,Woodstock,100 Arnold Mill Way,Woodstock,GA,,US,+1 770-792-0304,https://twomenandatruck.com/movers/ga/atlanta/woodstock-cherokee,,Two Men and a Truck,Q7859087
WUAFH-915RPSA180,under_armour,Under Armour Factory House,,Woodstock,GA,,US,+1 770-592-5852,https://store-locations.underarmour.com/ga/woodstock/WUAFH-915RPSA180,,Under Armour,Q2031485
1388252,usps,WOODSTOCK,,WOODSTOCK,GA,,US,+1 770-591-0364,,Mo-Fr 08:00-17:00; Sa 08:30-12:00,United States Postal Service,Q668687
3018800027,usps_collection_boxes,USPS COLLECTION BOX - BLUE BOX,2295 TOWNE LAKE PKWY,WOODSTOCK,GA,,US,,,,United States Postal Service,Q668687
3018800030,usps_collection_boxes,USPS COLLECTION BOX - BLUE BOX,3101 PARKBROOKE CIR,WOODSTOCK,GA,,US,,,,United States Postal Service,Q668687
3018800025,usps_collection_boxes,USPS COLLECTION BOX - PO LOBBY,225 PARKWAY 575,WOODSTOCK,GA,,US,,,,United States Postal Service,Q668687
3018800032,usps_collection_boxes,USPS COLLECTION BOX - APC,225 PARKWAY 575,WOODSTOCK,GA,,US,,,,United States Postal Service,Q668687
3018800009,usps_collection_boxes,USPS COLLECTION BOX - BLUE BOX,225 PARKWAY 575,WOODSTOCK,GA,,US,,,,United States Postal Service,Q668687
3018800035,usps_collection_boxes,USPS COLLECTION BOX - PO LOBBY,225 PARKWAY 575,WOODSTOCK,GA,,US,,,,United States Postal Service,Q668687
USA368,vans,Vans - The Outlet Shoppes at Atlanta,,Woodstock,GA,,US,+1 678-445-0236,https://www.vans.com/en-us/stores/ga/woodstock/usa368,Mo-Sa 10:00-21:00; Su 11:00-19:00,Vans,Q1135366
,visa,,,WOODSTOCK,GA,,US,,,,,
,visa,,,WOODSTOCK,GA,,US,,,,,
,visa,,,WOODSTOCK,GA,,US,,,,,
,visa,,,WOODSTOCK,GA,,US,,,,,
,visa,,,WOODSTOCK,GA,,US,,,,,
,visa,,,WOODSTOCK,GA,,US,,,,,
,visa,,,WOODSTOCK,GA,,US,,,,,
,visa,,,WOODSTOCK,GA,,US,,,,,
,visa,,,WOODSTOCK,GA,,US,,,,,
,visa,,,WOODSTOCK,GA,,US,,,,,
,visa,,,WOODSTOCK,GA,,US,,,,,
,visa,,,WOODSTOCK,GA,,US,,,,,
,visa,,,WOODSTOCK,GA,,US,,,,,
,visa,,,WOODSTOCK,GA,,US,,,,,
,visa,,,WOODSTOCK,GA,,US,,,,,
,visa,,,WOODSTOCK,GA,,US,,,,,
,visa,,,WOODSTOCK,GA,,US,,,,,
,visa,,,WOODSTOCK,GA,,US,,,,,
,visa,,,WOODSTOCK,GA,,US,,,,,
,visa,,,WOODSTOCK,GA,,US,,,,,
,visa,,,WOODSTOCK,GA,,US,,,,,
,visa,,,WOODSTOCK,GA,,US,,,,,
,visa,,,WOODSTOCK,GA,,US,,,,,
,visa,,,WOODSTOCK,GA,,US,,,,,
,visa,,,WOODSTOCK,GA,,US,,,,,
,visa,,,WOODSTOCK,GA,,US,,,,,
,visa,,,WOODSTOCK,GA,,US,,,,,
,visa,,,WOODSTOCK,GA,,US,,,,,
,visa,,,WOODSTOCK,GA,,US,,,,,
,visa,,,WOODSTOCK,GA,,US,,,,,
,visa,,,HOLLY SPRINGS,GA,,US,,,,,
,visa,,,WOODSTOCK,GA,,US,,,,,
,visa,,,WOODSTOCK,GA,,US,,,,,
,visa,,,WOODSTOCK,GA,,US,,,,,
,visa,,,WOODSTOCK,GA,,US,,,,,
,visa,,,WOODSTOCK,GA,,US,,,,,
,visa,,,WOODSTOCK,GA,,US,,,,,
,visa,,,WOODSTOCK,GA,,US,,,,,
,visa,,,WOODSTOCK,GA,,US,,,,,
,visa,,,WOODSTOCK,GA,,US,,,,,
,visa,,,WOODSTOCK,GA,,US,,,,,
,visa,,,WOODSTOCK,GA,,US,,,,,
,visa,,,WOODSTOCK,GA,,US,,,,,
,visa,,,WOODSTOCK,GA,,US,,,,,
,visa,,,WOODSTOCK,GA,,US,,,,,
,visa,,,WOODSTOCK,GA,,US,,,,,
,visa,,,WOODSTOCK,GA,,US,,,,,
,visa,,,WOODSTOCK,GA,,US,,,,,
,visa,,,WOODSTOCK,GA,,US,,,,,
,visa,,,WOODSTOCK,GA,,US,,,,,
,visa,,,WOODSTOCK,GA,,US,,,,,
,visa,,,WOODSTOCK,GA,,US,,,,,
,visa,,,WOODSTOCK,GA,,US,,,,,
,visa,,,WOODSTOCK,GA,,US,,,,,
684,waffle_house_us,Waffle House #684,,WOODSTOCK,GA,,US,+1 770-928-7322,https://locations.wafflehouse.com/woodstock-ga-684,24/7,Waffle House,Q1701206
807,waffle_house_us,Waffle House #807,,WOODSTOCK,GA,,US,+1 770-591-4737,https://locations.wafflehouse.com/woodstock-ga-807,24/7,Waffle House,Q1701206
https://www.walgreens.com/locator/walgreens-12075+highway+92-woodstock-ga-30188/id=17077,walgreens,Walgreens,,Woodstock,GA,,US,+1 770-926-4494,https://www.walgreens.com/locator/walgreens-12075+highway+92-woodstock-ga-30188/id=17077,Mo-Su 08:00-22:00,Walgreens,Q1591889
9765__HIGHWAY__92_WOODSTOCK_GA_30188,wellsfargo,,9765 HIGHWAY 92,WOODSTOCK,GA,,US,+1 800-869-3557,https://www.wellsfargo.com/locator/bank/9765__HIGHWAY__92_WOODSTOCK_GA_30188/,,Wells Fargo,Q744149
4865__OLD__HIGHWAY__5_WOODSTOCK_GA_30188,wellsfargo,,4865 OLD HIGHWAY 5,WOODSTOCK,GA,,US,+1 800-869-3557,https://www.wellsfargo.com/locator/bank/4865__OLD__HIGHWAY__5_WOODSTOCK_GA_30188/,,Wells Fargo,Q744149
12172__HIGHWAY__92_WOODSTOCK_GA_30188,wellsfargo,Wells Fargo,12172 HIGHWAY 92,WOODSTOCK,GA,,US,+1 678-388-7112,https://www.wellsfargo.com/locator/bank/12172__HIGHWAY__92_WOODSTOCK_GA_30188/,Mo-Fr 09:00-17:00,Wells Fargo,Q744149
100010__HIGHWAY__92__WEST_WOODSTOCK_GA_30188,wellsfargo,,100010 HIGHWAY 92 WEST,WOODSTOCK,GA,,US,+1 800-869-3557,https://www.wellsfargo.com/locator/bank/100010__HIGHWAY__92__WEST_WOODSTOCK_GA_30188/,,Wells Fargo,Q744149
2472,wellstar_us,Wellstar Urgent Care,12201 Highway 92 Suite D,Woodstock,GA,,US,+1 770-517-4621,https://www.wellstar.org/locations/urgent-care/urgent-care-woodstock-12201-highway-92-suite-d,Mo-Su 08:00-19:30,WellStar Health System,Q7981073
1318,wellstar_us, Gastrointestinal Specialists of Georgia Inc,118 Mill Street Suite 110,Woodstock,GA,,US,+1 678-741-5000,https://www.wellstar.org/locations/medical-practice/gastrointestinal-specialists-of-georgia-inc-woodstock-118-mill-street-suite-110,,WellStar Health System,Q7981073
100639,wellstar_us,Wellstar Northwest Womens Care,14205 Highway 92 Suite 105,Woodstock,GA,,US,+1 470-267-2800,https://www.wellstar.org/locations/medical-practice/northwest-womens-care-woodstock-14205-highway-92-suite-105,,WellStar Health System,Q7981073
1778,wellstar_us, Marietta Plastic Surgery PC,149 Towne Lake Parkway Suite 104,Woodstock,GA,,US,+1 678-494-2380,https://www.wellstar.org/locations/medical-practice/marietta-plastic-surgery-pc-woodstock-149-towne-lake-parkway-suite-104,,WellStar Health System,Q7981073
100755,wellstar_us, Center for Spine Interventions PC,980 Woodstock Parkway Suite 300,Woodstock,GA,,US,+1 678-813-2741,https://www.wellstar.org/locations/medical-practice/center-for-spine-interventions-pc-woodstock-980-woodstock-parkway-suite-300,,WellStar Health System,Q7981073
https://locations.wendys.com/#9256562,wendys,"Wendy's 5345 Old Highway 5 in Woodstock, GA",,Woodstock,GA,,US,+1 770-517-1119,https://locations.wendys.com/united-states/ga/woodstock/5345-old-highway-5,"Mo-Th 06:30-10:30,09:00-21:00; Fr-Sa 06:30-10:30,09:00-22:00; Su 06:30-10:30,09:00-21:00",Wendy's,Q550258
https://locations.wendys.com/#9256559,wendys,"Wendy's 12085 Hwy 92 in Woodstock, GA",,Woodstock,GA,,US,+1 770-517-8394,https://locations.wendys.com/united-states/ga/woodstock/12085-hwy-92,"Mo-Su 06:30-10:30,09:00-20:00",Wendy's,Q550258
32145f1fe7c52f89ac167fde3f021ee4,western_union,HOREB CORPORATION,,Woodstock,GA,,US,+1 786-671-9391,https://location.westernunion.com/us/ga/woodstock/32145f1fe7c52f89ac167fde3f021ee4,Mo-Sa 10:00-15:00,Western Union,Q861042
974be48ac81538cf91dc940dee5aee25,western_union,WALGREENS #17077,,Woodstock,GA,,US,+1 770-926-4494,https://location.westernunion.com/us/ga/woodstock/974be48ac81538cf91dc940dee5aee25,Mo-Su 08:00-21:00,Western Union,Q861042
7e4e39eb220e653fc6d7d741a24a9cfc,western_union,WALMART #000575,,Woodstock,GA,,US,+1 770-516-4719,https://location.westernunion.com/us/ga/woodstock/7e4e39eb220e653fc6d7d741a24a9cfc,Mo-Su 07:00-21:00,Western Union,Q861042
4e786dab075f126bcfb6728df2e09097,western_union,QUIKTRIP #0781,,Woodstock,GA,,US,+1 678-445-2753,https://location.westernunion.com/us/ga/woodstock/4e786dab075f126bcfb6728df2e09097,,Western Union,Q861042
https://locations.whataburger.com/ga/woodstock/9766-ga-92.html,whataburger,Hwy 92 & Indian Valley Dr.,9766 GA-92,Woodstock,GA,,US,,https://locations.whataburger.com/ga/woodstock/9766-ga-92.html,,Whataburger,Q376627
1366,whitehouseblackmarket,The Outlet Shoppes at Atlanta,"915 Ridgewalk Pkwy, Suite 840",Woodstock,GA,,US,+1 770-370-3701,,Mo-Sa 11:00-20:00; Su 11:00-19:00,White House Black Market,Q7994858
42726,wingstop,Wingstop Woodstock Highway 92,9745 Highway 92 Ste F,Woodstock,GA,,US,+1 770-627-3378,,,Wingstop,Q8025339
