Ref,Spider,Name,Address,City,State,Zipcode,Country,Phone,Website,Hours,Brand,WikiData
68311430,moneygram,METROBANK - BATANGAS-TANAUAN,,TANAUAN,,,PH,28700700,,Mo-Fr 09:00-16:30; Sa 11:00-14:30; Su 00:00-24:00,MoneyGram,Q1944412
68244015,moneygram,M LHUILLIER - TANAUAN 4 BATANGAS,,TANAUAN CITY,,,PH,+63 32 348 9400,,Mo-Sa 07:00-18:00; Su 08:00-17:00,MoneyGram,Q1944412
68786243,moneygram,METROBANK - TANAUAN  A. MABINI AVE.,,TANAUAN CITY,,,PH,28700700,,Mo-Fr 09:00-17:00; Sa-Su 00:00-24:00,MoneyGram,Q1944412
72574111,moneygram,USSC - #30316 - BATANGAS - TANAUAN LAURE,,TANAUAN,,,PH,+63 43 778 5816,,Mo-Su 07:00-20:00,MoneyGram,Q1944412
72574124,moneygram,USSC - #30317 - BATANGAS - TANAUAN MABIN,,TANAUAN,,,PH,+63 43 778 7217,,Mo-Su 07:00-20:00,MoneyGram,Q1944412
72574328,moneygram,USSC - #30342 - BATANGAS - TANAUAN PUREG,,TANAUAN,,,PH,+63 43 406 5873,,Mo-Su 07:00-21:30,MoneyGram,Q1944412
72574137,moneygram,USSC - #30318 - BATANGAS - TANAUAN WALTE,,TANAUAN,,,PH,+63 43 784 6344,,Mo-Su 08:00-22:00,MoneyGram,Q1944412
73872896,moneygram,HRV VILLARICA PAWNSHOP - #PSH132 - HRV V,,TANAUAN,,,PH,87026350,,Mo-Sa 07:00-19:00; Su 08:00-17:00,MoneyGram,Q1944412
73902931,moneygram,H VILLARICA PAWNSHOP - #PSF128 - H VILLA,,TANAUAN,,,PH,87026350,,Mo-Sa 07:00-19:00; Su 08:00-17:00,MoneyGram,Q1944412
73901495,moneygram,VILLARICA PAWNSHOP - #PSE126 - VILLARICA,,TANAUAN,,,PH,87026350,,Mo-Sa 07:00-19:00; Su 08:00-17:00,MoneyGram,Q1944412
66793115,moneygram,BANK OF COMMERCE,,TANAUAN CITY,,,PH,+63 43 784 6907,,Mo-Fr 09:00-16:00; Sa-Su 00:00-24:00,MoneyGram,Q1944412
72323087,moneygram,CHERRY PANGHULAN REMITTANCE CENTER - DAR,,TANAUAN,,,PH,43437021621,,Mo-Su 07:00-18:00,MoneyGram,Q1944412
70164688,moneygram,CEBUANA LHUILLIER - CLH TANAUAN 1,,TANAUAN,,,PH,27799800,,Mo-Su 08:00-17:00,MoneyGram,Q1944412
70156641,moneygram,CEBUANA LHUILLIER - CLH TANAUAN 2,,TANAUAN,,,PH,27799800,,Mo-Su 07:00-20:00,MoneyGram,Q1944412
70170740,moneygram,CEBUANA LHUILLIER - CLH TANAUAN 3,,TANAUAN,,,PH,27799800,,Mo-Su 07:00-18:00,MoneyGram,Q1944412
73786681,moneygram,EBIZ - #71 - TANAUAN - EBIZ VCM TANAUAN,,TANAUAN,,,PH,634789131335,,Mo-Su 09:00-18:00,MoneyGram,Q1944412
72504916,moneygram,LBC - #615 - TANAUAN CITY - WALTERMART D,,TANAUAN CITY,,,PH,8527239,,Mo-Su 09:00-21:00,MoneyGram,Q1944412
72504958,moneygram,LBC - #619 - TANAUAN CITY - TANAUAN A. M,,TANAUAN CITY,,,PH,8527239,,Mo-Sa 07:00-18:00; Su 08:00-17:00,MoneyGram,Q1944412
74007408,moneygram,SAVEMORE MARKET - #SV2342 - SAVEMORE MAR,,TANAUAN,,,PH,+63 2 8702 6350,,Mo-Su 08:00-20:00,MoneyGram,Q1944412
74153527,moneygram,MERIDIEN BUSINESS LEADER INC. - #WM717 -,,TANAUAN,,,PH,+63 2 8702 6350,,Mo-Su 09:00-19:00,MoneyGram,Q1944412
69761937,moneygram,PALAWAN PAWNSHOP - TANAUAN MARCELA ARCAD,,TANAUAN CITY,,,PH,+63 48 433 4110,,Mo-Su 08:00-17:30,MoneyGram,Q1944412
69764109,moneygram,PALAWAN PAWNSHOP - J P LAUREL,,TANAUAN CITY,,,PH,+63 48 433 4110,,Mo-Su 08:00-17:30,MoneyGram,Q1944412
70768738,moneygram,PALAWAN PAWNSHOP - #DCY - TANAUAN CITY -,,TANAUAN CITY,,,PH,+63 48 433 4110,,Mo-Su 08:00-17:30,MoneyGram,Q1944412
65270901,moneygram,M LHUILLIER - TANAUAN 1 BATANGAS,,TANAUAN,,,PH,+63 32 348 9400,,24/7,MoneyGram,Q1944412
65270914,moneygram,M LHUILLIER - TANAUAN 2 BATANGAS,,TANAUAN,,,PH,+63 32 348 9400,,Mo-Su 07:30-19:30,MoneyGram,Q1944412
66379393,moneygram,M LHUILLIER - TANAUAN 3 BATANGAS,,TANAUAN,,,PH,+63 32 348 9400,,Mo-Su 07:00-18:00,MoneyGram,Q1944412
66589950,moneygram,RD PAWNSHOP - TANAVAN,,TANAVAN,,,PH,+63 916 719 6072,,Mo-Sa 08:00-18:00; Su 09:00-17:30,MoneyGram,Q1944412
71602327,moneygram,PALAWAN PAWNSHOP - #EAT - TANAUAN - BATA,,TANAUAN,,,PH,+63 48 433 4110,,Mo-Su 08:00-17:30,MoneyGram,Q1944412
PH_156,totalenergies,"Tanauan, Batangas",,Tanauan City,,,PH,,https://store.totalenergies.fr/en_EN/PH_156,24/7,TotalEnergies,Q154037
PH_187,totalenergies,Darasa,,Tanauan City,,,PH,,https://store.totalenergies.fr/en_EN/PH_187,,TotalEnergies,Q154037
PH_302,totalenergies,Suplang,,Tanauan City,,,PH,,https://store.totalenergies.fr/en_EN/PH_302,,TotalEnergies,Q154037
