Ref,Spider,Name,Address,City,State,Zipcode,Country,Phone,Website,Hours,Brand,WikiData
https://stores.aldi.us/#14808428,aldi_sud_us,ALDI  1160 Clarence Street,,Saint Paul,MN,,US,+1 833-472-7037,https://stores.aldi.us/mn/saint-paul/1160-clarence-street,Mo-Su 09:00-20:00,ALDI,Q41171672
2074,anytime_fitness,Anytime Fitness,,St. Paul,MN,,US,+1 651-340-2811,https://www.anytimefitness.com/gyms/2074/st-paul-mn-55106/,,Anytime Fitness,Q4778364
467,anytime_fitness,Anytime Fitness,,St. Paul,MN,,US,+1 651-772-0600,https://www.anytimefitness.com/gyms/467/st-paul-mn-55106/,,Anytime Fitness,Q4778364
3086,autozone_us,AutoZone Auto Parts Saint Paul,,Saint Paul,MN,,US,+1 651-776-4611,https://www.autozone.com/locations/mn/saint-paul/846-arcade-st.html,Mo-Sa 07:30-22:00; Su 09:00-21:00,AutoZone,Q4826087
https://locators.bankofamerica.com/mn/saintpaul/financial-centers-saint-paul-17091.html,bankofamerica,Bank of America Financial Center & Drive-Thru ATM | Phalen,,Saint Paul,MN,,US,+1 651-234-2293,https://locators.bankofamerica.com/mn/saintpaul/financial-centers-saint-paul-17091.html,Mo-Fr 09:00-16:00; Sa 09:00-13:00,Bank of America,Q487907
Metropolitan State University,barnesnoblecollege,Metropolitan State University,,Paul,MN,,US,,https://www.bncollege.com/campus-stores/,,Barnes & Noble College,Q4861508
239358,bluerhino,Circle K #2746031 (Holiday),,St. Paul,MN,,US,+1 651-771-8688,,,Blue Rhino,Q65681213
152929,bluerhino,Walgreens #11421,,St. Paul,MN,,US,+1 651-251-9887,,,Blue Rhino,Q65681213
243211,bluerhino,Golden Harvest Foods - UNFI #0155581,,St. Paul,MN,,US,+1 651-772-3200,,,Blue Rhino,Q65681213
197812,bluerhino,Cub #31784,,St. Paul,MN,,US,+1 651-774-7148,,,Blue Rhino,Q65681213
182308,bluerhino,Speedway #4430,,St. Paul,MN,,US,+1 651-778-9193,,,Blue Rhino,Q65681213
152710,bluerhino,Walgreens #7388,,St. Paul,MN,,US,+1 651-251-1930,,,Blue Rhino,Q65681213
239356,bluerhino,Circle K #2746004 (Holiday),,St. Paul,MN,,US,+1 651-771-8157,,,Blue Rhino,Q65681213
204440,bluerhino,Maryland One Stop,,Saint Paul,MN,,US,+1 651-778-0404,,,Blue Rhino,Q65681213
182310,bluerhino,Speedway #4040,,St. Paul,MN,,US,+1 651-776-8580,,,Blue Rhino,Q65681213
00469836922005510600100000000000,bp,BP,,St Paul,MN,,US,+1 651-778-0404,,24/7,BP,Q152057
88078,citi,ATM Walgreens,,Saint Paul,MN,,US,,,,Citibank,Q857063
86940,citi,ATM Walgreens,,Saint Paul,MN,,US,,,,Citibank,Q857063
79218,citi,ATM Speedway,,Saint Paul,MN,,US,,,,Citibank,Q857063
77207,citi,ATM Speedway,,Saint Paul,MN,,US,,,,Citibank,Q857063
80659,citi,ATM ST. PAUL FCU,,St. Paul,MN,,US,,,,Citibank,Q857063
81770,citi,ATM Target,,Saint Paul,MN,,US,,,,Citibank,Q857063
65265,citi,ATM Metropolitan State U - Founders Hall 1st Floo,,Paul,MN,,US,,,,Citibank,Q857063
,credit_union_us,St Paul FCU,,St Paul,MN,,US,+1 651-772-8744,,Mo-Tu 08:00-05:00; We 09:00-05:00; Th-Fr 08:00-05:00,,
70088362,cricket_wireless,Cricket Wireless Authorized Retailer,,Saint Paul,MN,,US,+1 651-348-2741,https://www.cricketwireless.com/stores/ll/US/MN/Saint-Paul/888-Arcade-St,Mo-Sa 10:00-19:00; Su 12:00-17:00,Cricket Wireless,Q5184987
70088516,cricket_wireless,Cricket Wireless Authorized Retailer,,Saint Paul,MN,,US,+1 651-888-6029,https://www.cricketwireless.com/stores/ll/US/MN/Saint-Paul/1627-White-Bear-Ave-N,Mo-Sa 10:00-19:00; Su 12:00-17:00,Cricket Wireless,Q5184987
70088515,cricket_wireless,Cricket Wireless Authorized Retailer,,St Paul,MN,,US,+1 651-363-3960,https://www.cricketwireless.com/stores/ll/US/MN/St-Paul/1001-Johnson-Pkwy,Mo-Su 11:00-18:00,Cricket Wireless,Q5184987
16015,cvs_us,CVS Pharmacy,,Saint Paul,MN,,US,+1 651-778-0105,https://www.cvs.com/store-locator/saint-paul-mn-pharmacies/1744-suburban-ave-saint-paul-mn-55106/storeid=16015,"Mo-Fr 09:00-13:30,14:00-19:00; Sa 10:00-13:30,14:00-18:00; Su 11:00-13:30,14:00-17:00",CVS Pharmacy,Q2078880
1909,dominos_pizza_us,Domino's Pizza,,Saint Paul,MN,,US,+1 651-772-3030,https://pizza.dominos.com/minnesota/saint-paul/1517-white-bear-ave-n,Mo-Th 10:00-24:00; Fr-Sa 10:00-01:00; Su 10:00-24:00,Domino's,Q839466
Motorcraft4972USAEnglish,ford,Knapheide Truck,,Minnesota,MN,,US,,,,Ford,Q44294
3359,fresenius_kidney_care_us,Fresenius Kidney Care St. Paul,,Saint Paul,MN,,US,+1 800-881-5101,https://www.freseniuskidneycare.com/dialysis-centers/minnesota/3359,Mo 06:00-20:00; Tu 06:00-16:00; We 06:00-20:00; Th 06:00-16:00; Fr 06:00-20:00; Sa 06:00-16:00,,
29624,huntingtonbank,Phalen Cub,,Saint Paul,MN,,US,+1 612-460-4168,https://www.huntington.com/Community/branch-info?locationId=29624,Mo-Fr 10:00-18:00; Sa 10:00-15:00; Su 00:00-00:00,Huntington Bank,Q798819
22629,h_r_block,H&R Block,,Saint Paul,MN,,US,+1 651-774-6511,https://www.hrblock.com/local-tax-offices/minnesota/saint-paul/hillcrest-shopping-center/22629/,,H&R Block,Q5627799
22631,h_r_block,H&R Block,,Saint Paul,MN,,US,+1 651-772-3410,https://www.hrblock.com/local-tax-offices/minnesota/saint-paul/arcade-street-mall/22631/,,H&R Block,Q5627799
https://office.jacksonhewitt.com/#27576739,jackson_hewitt,Jackson Hewitt,,Saint Paul,MN,,US,+1 651-829-3238,https://office.jacksonhewitt.com/tax-preparation-services-locations/en/mn/saint-paul/1616-white-bear-avenue/13380,Mo-Sa 11:00-19:00; Su 12:00-16:00,Jackson Hewitt,Q6117132
https://locations.jimmyjohns.com/mn/st-paul/sandwiches-285.html,jimmy_johns,Jimmy John's,,St. Paul,MN,,US,+1 651-771-0025,https://locations.jimmyjohns.com/mn/st-paul/sandwiches-285.html,,Jimmy John's,Q1689380
286572,marathon_petroleum_us,ARCO MINI-PAC,,Saint Paul,MN,,US,+1 651-771-6000,,,Arco,Q304769
72052882,moneygram,FAMILY FOODS MARKET,,SAINT PAUL,MN,,US,+1 651-771-8939,,Mo-Su 08:30-21:00,MoneyGram,Q1944412
https://locations.oreillyauto.com/mn/saintpaul/check-engine-light-testing-3268.html,oreilly,Your Saint Paul O'Reilly Auto Parts Store,,Saint Paul,MN,,US,+1 651-778-9177,https://locations.oreillyauto.com/mn/saintpaul/check-engine-light-testing-3268.html,Mo-Sa 07:30-21:00; Su 09:00-21:00,O'Reilly Auto Parts,Q7071951
https://locations.oreillyauto.com/mn/saintpaul/battery-testing-3268.html,oreilly,Your Saint Paul O'Reilly Auto Parts Store,,Saint Paul,MN,,US,+1 651-778-9177,https://locations.oreillyauto.com/mn/saintpaul/battery-testing-3268.html,Mo-Sa 07:30-21:00; Su 09:00-21:00,O'Reilly Auto Parts,Q7071951
https://locations.oreillyauto.com/mn/saintpaul/autopartes-3268.html,oreilly,Tu tienda O'Reilly Auto Parts en Saint Paul,,Saint Paul,MN,,US,+1 651-778-9177,https://locations.oreillyauto.com/mn/saintpaul/autopartes-3268.html,Mo-Sa 07:30-21:00; Su 09:00-21:00,O'Reilly Auto Parts,Q7071951
https://locations.oreillyauto.com/mn/saintpaul/wiper-installation-3268.html,oreilly,Your Saint Paul O'Reilly Auto Parts Store,,Saint Paul,MN,,US,+1 651-778-9177,https://locations.oreillyauto.com/mn/saintpaul/wiper-installation-3268.html,Mo-Sa 07:30-21:00; Su 09:00-21:00,O'Reilly Auto Parts,Q7071951
restaurant_84721,popeyes_us_fr,Popeyes,"1722 Suburban Ave St. Paul, Minnesota 55106 - USA",St. Paul,MN,,US,+1 651-340-0395,https://www.popeyes.com/store-locator/store/restaurant_84721,,Popeyes,Q1330910
https://restaurants.subway.com/#14895229,subway,Subway,,St Paul Ramsey,MN,,US,+1 651-735-2718,https://restaurants.subway.com/united-states/mn/st-paul/376-white-bear-ave,Mo-Su 07:00-02:00,Subway,Q244457
https://restaurants.subway.com/#14911763,subway,Subway Phalen Retail Center,,St. Paul Ramsey,MN,,US,+1 651-774-7157,https://restaurants.subway.com/united-states/mn/st-paul/1320-maryland-ave,Mo-Fr 07:00-22:00; Sa 09:00-22:00; Su 09:00-21:00,Subway,Q244457
https://locations.tacobell.com/#6146228,taco_bell,Taco Bell,,Saint Paul,MN,,US,+1 651-778-8776,https://locations.tacobell.com/mn/saint-paul/1484-white-bear-avenue.html,Mo-Th 07:00-24:00; Fr-Sa 07:00-01:00; Su 07:00-24:00,Taco Bell,Q752941
1714,tmobile_us,Arcade & Neid,,Saint Paul,MN,,US,+1 651-774-0428,https://www.t-mobile.com/store-locator/mn/st-paul/arcade-neid,,T-Mobile,Q3511885
1439308,usps,SEEGER SQUARE,,SAINT PAUL,MN,,US,+1 651-771-2011,,Mo-Fr 09:00-17:00; Sa 09:00-13:00,United States Postal Service,Q668687
1360409,usps,DAYTONS BLUFF,,SAINT PAUL,MN,,US,+1 651-771-2011,,Mo 08:30-17:30; Tu-Fr 08:30-17:00; Sa 09:30-13:00,United States Postal Service,Q668687
5510600014,usps_collection_boxes,USPS COLLECTION BOX - BLUE BOX,886 ARCADE ST,SAINT PAUL,MN,,US,,,,United States Postal Service,Q668687
5510600069,usps_collection_boxes,USPS COLLECTION BOX - PO LOBBY,886 ARCADE ST,SAINT PAUL,MN,,US,,,,United States Postal Service,Q668687
5510600073,usps_collection_boxes,USPS COLLECTION BOX - BLUE BOX,886 ARCADE,SAINT PAUL,MN,,US,,,,United States Postal Service,Q668687
5510600075,usps_collection_boxes,USPS COLLECTION BOX - PO LOBBY,886 ARCADE ST,SAINT PAUL,MN,,US,,,,United States Postal Service,Q668687
5510600013,usps_collection_boxes,USPS COLLECTION BOX - BLUE BOX,1020 ARCADE ST,SAINT PAUL,MN,,US,,,,United States Postal Service,Q668687
5510600072,usps_collection_boxes,USPS COLLECTION BOX - BLUE BOX,1010 SHOP RD,SAINT PAUL,MN,,US,,,,United States Postal Service,Q668687
5510600018,usps_collection_boxes,USPS COLLECTION BOX - BLUE BOX,819 MARYLAND AVE E,SAINT PAUL,MN,,US,,,,United States Postal Service,Q668687
5510600020,usps_collection_boxes,USPS COLLECTION BOX - BLUE BOX,1415 ARCADE ST,SAINT PAUL,MN,,US,,,,United States Postal Service,Q668687
5510600023,usps_collection_boxes,USPS COLLECTION BOX - BLUE BOX,987 IVY AVE E,SAINT PAUL,MN,,US,,,,United States Postal Service,Q668687
5510600033,usps_collection_boxes,USPS COLLECTION BOX - BLUE BOX,1180 MARYLAND AVE E,SAINT PAUL,MN,,US,,,,United States Postal Service,Q668687
5510600004,usps_collection_boxes,USPS COLLECTION BOX - BLUE BOX,1401 MARYLAND AVE E,SAINT PAUL,MN,,US,,,,United States Postal Service,Q668687
5510600058,usps_collection_boxes,USPS COLLECTION BOX - BLUE BOX,1430 MARYLAND AVE E,SAINT PAUL,MN,,US,,,,United States Postal Service,Q668687
5510600005,usps_collection_boxes,USPS COLLECTION BOX - BLUE BOX,1575 AMES AVE,SAINT PAUL,MN,,US,,,,United States Postal Service,Q668687
5510600046,usps_collection_boxes,USPS COLLECTION BOX - BLUE BOX,1321 WHITE BEAR AVE N,SAINT PAUL,MN,,US,,,,United States Postal Service,Q668687
5510600032,usps_collection_boxes,USPS COLLECTION BOX - BLUE BOX,1425 MINNEHAHA AVE E,SAINT PAUL,MN,,US,,,,United States Postal Service,Q668687
5510600068,usps_collection_boxes,USPS COLLECTION BOX - PO LOBBY,1425 MINNEHAHA AVE E,SAINT PAUL,MN,,US,,,,United States Postal Service,Q668687
5510600070,usps_collection_boxes,USPS COLLECTION BOX - PO LOBBY,1425 MINNEHAHA AVE E,SAINT PAUL,MN,,US,,,,United States Postal Service,Q668687
5510600071,usps_collection_boxes,USPS COLLECTION BOX - PO LOBBY,1425 MINNEHAHA AVE E,SAINT PAUL,MN,,US,,,,United States Postal Service,Q668687
5510600074,usps_collection_boxes,USPS COLLECTION BOX - PO LOBBY,1425 MINNEHAHA AVE E,SAINT PAUL,MN,,US,,,,United States Postal Service,Q668687
5510600064,usps_collection_boxes,USPS COLLECTION BOX - BLUE BOX,842 WHITE BEAR AVE N,SAINT PAUL,MN,,US,,,,United States Postal Service,Q668687
5510600009,usps_collection_boxes,USPS COLLECTION BOX - BLUE BOX,475 ETNA ST,SAINT PAUL,MN,,US,,,,United States Postal Service,Q668687
5510600060,usps_collection_boxes,USPS COLLECTION BOX - BLUE BOX,371 WHITE BEAR AVE N,SAINT PAUL,MN,,US,,,,United States Postal Service,Q668687
,visa,,,ST. PAUL,MN,,US,,,,,
,visa,,,ST. PAUL,MN,,US,,,,,
,visa,,,ST. PAUL,MN,,US,,,,,
,visa,,,ST. PAUL,MN,,US,,,,,
,visa,,,ST PAUL,MN,,US,,,,,
,visa,,,ST PAUL,MN,,US,,,,,
,visa,,,ST. PAUL,MN,,US,,,,,
,visa,,,ST. PAUL,MN,,US,,,,,
,visa,,,ST PAUL,MN,,US,,,,,
,visa,,,SAINT PAUL,MN,,US,,,,,
,visa,,,SAINT PAUL,MN,,US,,,,,
,visa,,,ST PAUL,MN,,US,,,,,
,visa,,,ST. PAUL,MN,,US,,,,,
,visa,,,ST. PAUL,MN,,US,,,,,
,visa,,,ST PAUL,MN,,US,,,,,
,visa,,,ST PAUL,MN,,US,,,,,
,visa,,,SAINT PAUL,MN,,US,,,,,
,visa,,,ST. PAUL,MN,,US,,,,,
,visa,,,ST. P AUL,MN,,US,,,,,
,visa,,,ST. PAUL,MN,,US,,,,,
,visa,,,SAINT PAUL,MN,,US,,,,,
,visa,,,SAINT PAUL,MN,,US,,,,,
,visa,,,ST PAUL,MN,,US,,,,,
,visa,,,SAINT PAUL,MN,,US,,,,,
,visa,,,ST. PAUL,MN,,US,,,,,
,visa,,,ST PAUL,MN,,US,,,,,
,visa,,,ST. PAUL,MN,,US,,,,,
,visa,,,ST. PAUL,MN,,US,,,,,
,visa,,,ST. PAUL,MN,,US,,,,,
,visa,,,SAINT PAUL,MN,,US,,,,,
,visa,,,ST PAUL,MN,,US,,,,,
,visa,,,ST PAUL,MN,,US,,,,,
,visa,,,SAINT PAUL,MN,,US,,,,,
,visa,,,SAINT PAUL,MN,,US,,,,,
,visa,,,ST. PAUL,MN,,US,,,,,
,visa,,,ST. PAUL,MN,,US,,,,,
,visa,,,ST PAUL,MN,,US,,,,,
,visa,,,ST. PAUL,MN,,US,,,,,
,visa,,,ST. PAUL,MN,,US,,,,,
,visa,,,ST. PAUL,MN,,US,,,,,
,visa,,,ST PAUL,MN,,US,,,,,
,visa,,,ST PAUL,MN,,US,,,,,
,visa,,,ST. PAUL,MN,,US,,,,,
,visa,,,ST. PAUL,MN,,US,,,,,
,visa,,,ST. PAUL,MN,,US,,,,,
,visa,,,ST PAUL,MN,,US,,,,,
,visa,,,ST PAUL,MN,,US,,,,,
,visa,,,SAINT PAUL,MN,,US,,,,,
,visa,,,ST PAUL,MN,,US,,,,,
,visa,,,ST PAUL,MN,,US,,,,,
,visa,,,SAINT PAUL,MN,,US,,,,,
,visa,,,SAINT PAUL,MN,,US,,,,,
,visa,,,SAINT PAUL,MN,,US,,,,,
,visa,,,ST PAUL,MN,,US,,,,,
,visa,,,ST PAUL,MN,,US,,,,,
,visa,,,ST PAUL,MN,,US,,,,,
,visa,,,ST. PAUL,MN,,US,,,,,
,visa,,,SAINT PAUL,MN,,US,,,,,
,visa,,,ST PAUL,MN,,US,,,,,
,visa,,,ST PAUL,MN,,US,,,,,
,visa,,,SAINT PAUL,MN,,US,,,,,
,visa,,,ST. PAUL,MN,,US,,,,,
,visa,,,SAINT PAUL,MN,,US,,,,,
,visa,,,ST PAUL,MN,,US,,,,,
,visa,,,ST ANTHONY,MN,,US,,,,,
,visa,,,MINNEAPOLIS,MN,,US,,,,,
,visa,,,MINNEAPOLIS,MN,,US,,,,,
https://www.walgreens.com/locator/walgreens-1665+white+bear+ave+n-saint+paul-mn-55106/id=7388,walgreens,Walgreens,,Saint Paul,MN,,US,+1 651-251-1933,https://www.walgreens.com/locator/walgreens-1665+white+bear+ave+n-saint+paul-mn-55106/id=7388,Mo-Su 08:00-21:00,Walgreens,Q1591889
https://www.walgreens.com/locator/walgreens-1180+arcade+st-saint+paul-mn-55106/id=11421,walgreens,Walgreens,,Saint Paul,MN,,US,+1 651-251-9887,https://www.walgreens.com/locator/walgreens-1180+arcade+st-saint+paul-mn-55106/id=11421,Mo-Su 08:00-22:00,Walgreens,Q1591889
846__JOHNSON__PKWY_SAINT__PAUL_MN_55106,wellsfargo,,846 JOHNSON PKWY,SAINT PAUL,MN,,US,+1 800-869-3557,https://www.wellsfargo.com/locator/bank/846__JOHNSON__PKWY_SAINT__PAUL_MN_55106/,,Wells Fargo,Q744149
1771__OLD__HUDSON__RD_SAINT__PAUL_MN_55106,wellsfargo,,1771 OLD HUDSON RD,SAINT PAUL,MN,,US,+1 800-869-3557,https://www.wellsfargo.com/locator/bank/1771__OLD__HUDSON__RD_SAINT__PAUL_MN_55106/,,Wells Fargo,Q744149
1379__PHALEN__BLVD_SAINT__PAUL_MN_55106,wellsfargo,Wells Fargo,1379 PHALEN BLVD,SAINT PAUL,MN,,US,+1 651-205-8400,https://www.wellsfargo.com/locator/bank/1379__PHALEN__BLVD_SAINT__PAUL_MN_55106/,Mo-Fr 09:00-17:00,Wells Fargo,Q744149
45f937277ba6b42bf434616bf8015b57,western_union,SUN WORLD SUPERMARKET,,Saint Paul,MN,,US,+1 651-358-3535,https://location.westernunion.com/us/mn/saint-paul/45f937277ba6b42bf434616bf8015b57,Mo-Su 08:00-20:00,Western Union,Q861042
f5c50646ddb27d28c6f983c4a086fd7e,western_union,KLO KWEH GROCERY,,St Paul,MN,,US,+1 651-340-8071,https://location.westernunion.com/us/mn/st-paul/f5c50646ddb27d28c6f983c4a086fd7e,Mo-Su 09:00-19:00,Western Union,Q861042
69b456281a5a157a54e25b37ec7c607f,western_union,WOR AWAR LAH ASIAN GROCERY,,Saint Paul,MN,,US,+1 651-340-8071,https://location.westernunion.com/us/mn/saint-paul/69b456281a5a157a54e25b37ec7c607f,Mo-Sa 09:00-19:00; Su 09:00-18:00,Western Union,Q861042
dc452f15399f7ac8a6043ca30b63509c,western_union,SUPERMERCADO EL QUETZAL,,Saint Paul,MN,,US,+1 651-772-3416,https://location.westernunion.com/us/mn/saint-paul/dc452f15399f7ac8a6043ca30b63509c,Mo-Su 09:00-21:00,Western Union,Q861042
58955ad76b29f27c9aeb450bf3f21d16,western_union,YOUR EXCHANGE,,Saint Paul,MN,,US,+1 651-771-2274,https://location.westernunion.com/us/mn/saint-paul/58955ad76b29f27c9aeb450bf3f21d16,Mo-Th 09:00-18:30; Fr 09:00-19:00; Sa 09:00-17:00,Western Union,Q861042
9944f039723220ad37994115e0e140fe,western_union,TEE PWO MARKET,,Saint Paul,MN,,US,+1 651-340-7327,https://location.westernunion.com/us/mn/saint-paul/9944f039723220ad37994115e0e140fe,Mo-Su 09:00-20:00,Western Union,Q861042
2ee48f9f735759def4bfb182172f7d8e,western_union,LA BENDICION 3,,Saint Paul,MN,,US,+1 651-888-2687,https://location.westernunion.com/us/mn/saint-paul/2ee48f9f735759def4bfb182172f7d8e,Mo-Sa 08:00-21:00; Su 08:00-20:00,Western Union,Q861042
fd920e1535b8e2c5f01feebf99c4ff37,western_union,SUNSHINE MARKET,,Saint Paul,MN,,US,+1 651-330-6548,https://location.westernunion.com/us/mn/saint-paul/fd920e1535b8e2c5f01feebf99c4ff37,Mo-Su 09:00-19:00,Western Union,Q861042
c2453aff87f5143391e0383d312b5903,western_union,US BUILDERS,,Saint Paul,MN,,US,+1 651-399-1817,https://location.westernunion.com/us/mn/saint-paul/c2453aff87f5143391e0383d312b5903,Mo-Su 09:30-19:00,Western Union,Q861042
