Ref,Spider,Name,Address,City,State,Zipcode,Country,Phone,Website,Hours,Brand,WikiData
971,anytime_fitness,Anytime Fitness,,St. Paul,MN,,US,+1 651-292-1707,https://www.anytimefitness.com/gyms/971/st-paul-mn-55102/,,Anytime Fitness,Q4778364
22852,asics_us,TC Running Co,868 Randolph Ave,St Paul,MN,,US,+1 651-290-2747,,,asics,Q327247
350419,asics_us,TC Running Company,868 Randolph Ave,St Paul,MN,,US,+1 651-290-2747,,,asics,Q327247
182265,bluerhino,Speedway #4126,,St. Paul,MN,,US,+1 651-222-3668,,,Blue Rhino,Q65681213
158474,bluerhino,Coopers Food #7143,,St. Paul,MN,,US,+1 651-224-3365,,,Blue Rhino,Q65681213
saint-paul-lawson,bremer_bank,,,Saint Paul,MN,,US,+1 651-288-3751,,,Bremer Bank,Q907603
0316,carpet_one_floor_and_home_us,Schneider Carpet One Floor & Home,,Saint Paul,MN,,US,+1 651-224-2344,https://www.schneidercarpetonesaintpaul.com/,,Carpet One Floor & Home,Q121335910
mn_saint-paul_29-5th-st-w,chipotle, ,,Saint Paul,MN,,US,+1 651-291-5411,https://locations.chipotle.com/mn/saint-paul/29-5th-st-w,,Chipotle,Q465751
79060,citi,ATM Speedway,,Brooklyn Park,MN,,US,,,,Citibank,Q857063
76983,citi,ATM Speedway,,Saint Paul,MN,,US,,,,Citibank,Q857063
76667,citi,ATM Speedway,,Saint Paul,MN,,US,,,,Citibank,Q857063
34066,citi,ATM AFFINITY PLUS FCU,,Saint Paul,MN,,US,,,,Citibank,Q857063
75361,citi,ATM Saint Paul College - Main Campus,,Saint Paul,MN,,US,,,,Citibank,Q857063
75360,citi,ATM Saint Paul College - Main Building,,Saint Paul,MN,,US,,,,Citibank,Q857063
37084,citi,ATM BREMER BANK,,St. Paul,MN,,US,,,,Citibank,Q857063
90748,citi,ATM Walgreens,,Saint Paul,MN,,US,,,,Citibank,Q857063
37135,citi,ATM Bridgewater Bank St Paul,,St Paul,MN,,US,,,,Citibank,Q857063
80567,citi,ATM SPIRE-ECOLAB GLOBAL HDQTRS,,St Paul,MN,,US,,,,Citibank,Q857063
,credit_union_us,Associated Healthcare CU,,St Paul,MN,,US,+1 651-383-4011,,Mo-Fr 09:00-05:00,,
1946,dominos_pizza_us,Domino's Pizza,,Saint Paul,MN,,US,+1 651-227-3030,https://pizza.dominos.com/minnesota/saint-paul/242-7th-street-w,Mo-Th 10:00-24:00; Fr 09:00-01:00; Sa 10:00-01:00; Su 10:00-24:00,Domino's,Q839466
https://www.edwardjones.com/us-en/financial-advisor/daniel-springman,edwardjones,Dan Springman,,St Paul,MN,,US,+1 651-699-7005,https://www.edwardjones.com/us-en/financial-advisor/daniel-springman,Mo-Th 08:30-17:00,Edward Jones,Q5343830
Saint Paul,erbertandgerberts,Saint Paul,,Saint Paul,MN,,US,+1 651-330-8175,https://www.erbertandgerberts.com/locations/saint-paul/,,Erbert & Gerbert's,Q5385097
200323959,exxonmobil,Mobil,,SAINT PAUL,MN,,US,,https://www.exxon.com/en/find-station/mobil-saintpaul-mn-mobil-200323959,Mo-Su 06:00-00:00,Mobil,Q109676002
158632,marathon_petroleum_us,West 7th St Marathon,,Saint Paul,MN,,US,+1 763-744-6971,,,Marathon,Q458363
MSPCD,marriott,Courtyard St. Paul Downtown,,St Paul,MN,,US,+1 651-204-4050,https://www.marriott.com/MSPCD,,Courtyard by Marriott,Q1053170
MSPRD,marriott,Residence Inn St. Paul Downtown,,St Paul,MN,,US,+1 651-222-1000,https://www.marriott.com/MSPRD,,Residence Inn by Marriott,Q7315394
https://locations.oreillyauto.com/mn/saintpaul/check-engine-light-testing-3252.html,oreilly,Your Saint Paul O'Reilly Auto Parts Store,,Saint Paul,MN,,US,+1 651-222-1041,https://locations.oreillyauto.com/mn/saintpaul/check-engine-light-testing-3252.html,Mo-Sa 07:30-21:00; Su 08:00-18:00,O'Reilly Auto Parts,Q7071951
https://locations.oreillyauto.com/mn/saintpaul/wiper-installation-3252.html,oreilly,Your Saint Paul O'Reilly Auto Parts Store,,Saint Paul,MN,,US,+1 651-222-1041,https://locations.oreillyauto.com/mn/saintpaul/wiper-installation-3252.html,Mo-Sa 07:30-21:00; Su 08:00-18:00,O'Reilly Auto Parts,Q7071951
https://locations.oreillyauto.com/mn/saintpaul/battery-testing-3252.html,oreilly,Your Saint Paul O'Reilly Auto Parts Store,,Saint Paul,MN,,US,+1 651-222-1041,https://locations.oreillyauto.com/mn/saintpaul/battery-testing-3252.html,Mo-Sa 07:30-21:00; Su 08:00-18:00,O'Reilly Auto Parts,Q7071951
https://locations.oreillyauto.com/mn/saintpaul/autopartes-3252.html,oreilly,Tu tienda O'Reilly Auto Parts en Saint Paul,,Saint Paul,MN,,US,+1 651-222-1041,https://locations.oreillyauto.com/mn/saintpaul/autopartes-3252.html,Mo-Sa 07:30-21:00; Su 08:00-18:00,O'Reilly Auto Parts,Q7071951
https://www.publicstorage.com/self-storage-mn-st-paul/5405.html,public_storage_us,Public Storage,,St Paul,MN,,US,+1 651-505-2747,https://www.publicstorage.com/self-storage-mn-st-paul/5405.html,,Public Storage,Q1156045
5510200094,usps_collection_boxes,USPS COLLECTION BOX - BLUE BOX,555 WABASHA ST N,SAINT PAUL,MN,,US,,,,United States Postal Service,Q668687
5510200034,usps_collection_boxes,USPS COLLECTION BOX - BLUE BOX,17 EXCHANGE ST W,SAINT PAUL,MN,,US,,,,United States Postal Service,Q668687
5510200081,usps_collection_boxes,USPS COLLECTION BOX - BLUE BOX,17 EXCHANGE ST W,SAINT PAUL,MN,,US,,,,United States Postal Service,Q668687
5510200035,usps_collection_boxes,USPS COLLECTION BOX - BLUE BOX,10 EXCHANGE ST W,SAINT PAUL,MN,,US,,,,United States Postal Service,Q668687
5510200009,usps_collection_boxes,USPS COLLECTION BOX - BLUE BOX,345 KELLOGG BLVD W,SAINT PAUL,MN,,US,,,,United States Postal Service,Q668687
5510200080,usps_collection_boxes,USPS COLLECTION BOX - BLUE BOX,328 KELLOGG BLVD W,SAINT PAUL,MN,,US,,,,United States Postal Service,Q668687
5510200041,usps_collection_boxes,USPS COLLECTION BOX - BLUE BOX,398 MARKET ST,SAINT PAUL,MN,,US,,,,United States Postal Service,Q668687
5510200003,usps_collection_boxes,USPS COLLECTION BOX - BLUE BOX,226 SUMMIT AVE,SAINT PAUL,MN,,US,,,,United States Postal Service,Q668687
5510200027,usps_collection_boxes,USPS COLLECTION BOX - BLUE BOX,219 7TH ST W,SAINT PAUL,MN,,US,,,,United States Postal Service,Q668687
5510200052,usps_collection_boxes,USPS COLLECTION BOX - BLUE BOX,375 SELBY AVE,SAINT PAUL,MN,,US,,,,United States Postal Service,Q668687
5510200096,usps_collection_boxes,USPS COLLECTION BOX - BLUE BOX,333 SMITH AVE N,SAINT PAUL,MN,,US,,,,United States Postal Service,Q668687
5510200015,usps_collection_boxes,USPS COLLECTION BOX - BLUE BOX,360 SHERMAN ST,SAINT PAUL,MN,,US,,,,United States Postal Service,Q668687
5510200026,usps_collection_boxes,USPS COLLECTION BOX - BLUE BOX,111 WESTERN AVE N,SAINT PAUL,MN,,US,,,,United States Postal Service,Q668687
5510200010,usps_collection_boxes,USPS COLLECTION BOX - BLUE BOX,330 EXCHANGE ST S,SAINT PAUL,MN,,US,,,,United States Postal Service,Q668687
5510200033,usps_collection_boxes,USPS COLLECTION BOX - BLUE BOX,614 PORTLAND AVE,SAINT PAUL,MN,,US,,,,United States Postal Service,Q668687
5510200022,usps_collection_boxes,USPS COLLECTION BOX - BLUE BOX,545 7TH ST W,SAINT PAUL,MN,,US,,,,United States Postal Service,Q668687
5510200032,usps_collection_boxes,USPS COLLECTION BOX - BLUE BOX,619 GRAND AVE,SAINT PAUL,MN,,US,,,,United States Postal Service,Q668687
5510200049,usps_collection_boxes,USPS COLLECTION BOX - BLUE BOX,248 ONEIDA ST,SAINT PAUL,MN,,US,,,,United States Postal Service,Q668687
5510200014,usps_collection_boxes,USPS COLLECTION BOX - BLUE BOX,360 COLBORNE ST,SAINT PAUL,MN,,US,,,,United States Postal Service,Q668687
5510200047,usps_collection_boxes,USPS COLLECTION BOX - BLUE BOX,920 RANDOLPH AVE,SAINT PAUL,MN,,US,,,,United States Postal Service,Q668687
5510200058,usps_collection_boxes,USPS COLLECTION BOX - BLUE BOX,486 VIEW ST,SAINT PAUL,MN,,US,,,,United States Postal Service,Q668687
5510200062,usps_collection_boxes,USPS COLLECTION BOX - BLUE BOX,675 RANDOLPH AVE,SAINT PAUL,MN,,US,,,,United States Postal Service,Q668687
,visa,,,ST. PAUL,MN,,US,,,,,
,visa,,,SAINT PAUL,MN,,US,,,,,
,visa,,,ST PAUL,MN,,US,,,,,
,visa,,,ST PAUL,MN,,US,,,,,
,visa,,,SAINT PAUL,MN,,US,,,,,
,visa,,,ST PAUL,MN,,US,,,,,
,visa,,,SAINT PAUL,MN,,US,,,,,
,visa,,,SAINT PAUL,MN,,US,,,,,
,visa,,,ST PAUL,MN,,US,,,,,
,visa,,,ST. PAUL,MN,,US,,,,,
,visa,,,ST. PAUL,MN,,US,,,,,
,visa,,,ST. PAUL,MN,,US,,,,,
,visa,,,SAINT PAUL,MN,,US,,,,,
,visa,,,ST. PAUL,MN,,US,,,,,
,visa,,,ST. PAUL,MN,,US,,,,,
,visa,,,ST PAUL,MN,,US,,,,,
,visa,,,SAINT PAUL,MN,,US,,,,,
,visa,,,ST. PAUL,MN,,US,,,,,
,visa,,,ST. PAUL,MN,,US,,,,,
,visa,,,ST. PAUL,MN,,US,,,,,
,visa,,,ST. PAUL,MN,,US,,,,,
,visa,,,ST PAUL,MN,,US,,,,,
,visa,,,ST. PAUL,MN,,US,,,,,
,visa,,,ST PAUL,MN,,US,,,,,
,visa,,,ST PAUL,MN,,US,,,,,
,visa,,,ST PAUL,MN,,US,,,,,
,visa,,,ST PAUL,MN,,US,,,,,
,visa,,,ST PAUL,MN,,US,,,,,
,visa,,,ST. PAUL,MN,,US,,,,,
,visa,,,ST. PAUL,MN,,US,,,,,
,visa,,,ST PAUL,MN,,US,,,,,
,visa,,,ST. PAUL,MN,,US,,,,,
,visa,,,ST. PAUL,MN,,US,,,,,
,visa,,,ST. PAUL,MN,,US,,,,,
,visa,,,ST. PAUL,MN,,US,,,,,
,visa,,,ST. PAUL,MN,,US,,,,,
,visa,,,SAINT PAUL,MN,,US,,,,,
,visa,,,ST PAUL,MN,,US,,,,,
,visa,,,SAINT PAUL,MN,,US,,,,,
,visa,,,ST. PAUL,MN,,US,,,,,
,visa,,,ST PAUL,MN,,US,,,,,
,visa,,,ST PAUL,MN,,US,,,,,
,visa,,,ST. PAUL,MN,,US,,,,,
,visa,,,ST PAUL,MN,,US,,,,,
,visa,,,ST. PAUL,MN,,US,,,,,
,visa,,,SAINT PAUL,MN,,US,,,,,
,visa,,,SAINT PAUL,MN,,US,,,,,
,visa,,,ST. PAUL,MN,,US,,,,,
,visa,,,SAINT PAUL,MN,,US,,,,,
,visa,,,ST. PAUL,MN,,US,,,,,
,visa,,,ST. PAUL,MN,,US,,,,,
,visa,,,ST. PAUL,MN,,US,,,,,
,visa,,,SAINT PAUL,MN,,US,,,,,
,visa,,,SAINT PAUL,MN,,US,,,,,
,visa,,,SAINT PAUL,MN,,US,,,,,
,visa,,,SAINT PAUL,MN,,US,,,,,
,visa,,,ST. PAUL,MN,,US,,,,,
,visa,,,ST PAUL,MN,,US,,,,,
,visa,,,ST. PAUL,MN,,US,,,,,
,visa,,,ST PAUL,MN,,US,,,,,
,visa,,,ST. PAUL,MN,,US,,,,,
,visa,,,ST. PAUL,MN,,US,,,,,
,visa,,,ST. PAUL,MN,,US,,,,,
,visa,,,SHAKOPEE,MN,,US,,,,,
https://www.walgreens.com/locator/walgreens-398+wabasha+st+n-saint+paul-mn-55102/id=16476,walgreens,Walgreens,,Saint Paul,MN,,US,+1 651-224-6030,https://www.walgreens.com/locator/walgreens-398+wabasha+st+n-saint+paul-mn-55102/id=16476,Mo-Fr 07:00-19:00; Sa 09:00-19:00; Su 10:00-17:00,Walgreens,Q1591889
1445__W__7TH__ST_ST__PAUL_MN_55102,wellsfargo,,1445 W 7TH ST,ST PAUL,MN,,US,+1 800-869-3557,https://www.wellsfargo.com/locator/bank/1445__W__7TH__ST_ST__PAUL_MN_55102/,,Wells Fargo,Q744149
1125__W__7TH__ST_SAINT__PAUL_MN_55102,wellsfargo,,1125 W 7TH ST,SAINT PAUL,MN,,US,+1 800-869-3557,https://www.wellsfargo.com/locator/bank/1125__W__7TH__ST_SAINT__PAUL_MN_55102/,,Wells Fargo,Q744149
273,whitecastle,MPLS 21,,St. Paul,MN,,US,+1 651-290-0030,https://www.whitecastle.com/locations/273,Mo-Th 07:00-22:00; Fr 07:00-05:45; Sa 00:00-24:00; Su 06:00-22:00,White Castle,Q1244034
