Ref,Spider,Name,Address,City,State,Zipcode,Country,Phone,Website,Hours,Brand,WikiData
4084,autozone_us,AutoZone Auto Parts San Francisco,,San Francisco,CA,,US,+1 415-550-8630,https://www.autozone.com/locations/ca/san-francisco/1575-s-van-ness-ave.html,Mo-Fr 07:30-21:00; Sa 07:30-20:00; Su 08:00-20:00,AutoZone,Q4826087
https://locators.bankofamerica.com/ca/sanfrancisco/atm-san-francisco-7622.html,bankofamerica,Bank of America Walk-Up ATM | Bernal Heights,,San Francisco,CA,,US,+1 844-401-8500,https://locators.bankofamerica.com/ca/sanfrancisco/atm-san-francisco-7622.html,,Bank of America,Q487907
https://locators.bankofamerica.com/ca/sanfrancisco/financial-centers-san-francisco-10813.html,bankofamerica,Bank of America Financial Center & Walk-Up ATM | Mission-23rd St,,San Francisco,CA,,US,+1 415-401-1552,https://locators.bankofamerica.com/ca/sanfrancisco/financial-centers-san-francisco-10813.html,Mo-Fr 09:00-17:00; Sa 09:00-16:00,Bank of America,Q487907
https://locators.bankofamerica.com/ca/sanfrancisco/atm-san-francisco-100035.html,bankofamerica,Bank of America Walk-Up ATM | 24th & Bryant,,San Francisco,CA,,US,+1 844-401-8500,https://locators.bankofamerica.com/ca/sanfrancisco/atm-san-francisco-100035.html,,Bank of America,Q487907
https://locators.bankofamerica.com/ca/sanfrancisco/atm-san-francisco-103843.html,bankofamerica,Bank of America Walk-Up ATM | Mission Plaza,,San Francisco,CA,,US,+1 844-401-8500,https://locators.bankofamerica.com/ca/sanfrancisco/atm-san-francisco-103843.html,,Bank of America,Q487907
108040,bluerhino,Valencia 76 Gas,,San Francisco,CA,,US,+1 415-896-4921,,,Blue Rhino,Q65681213
179597,bluerhino,Double AA #179597 - Central Gas San Francisco,,San Francisco,CA,,US,+1 650-589-7722,,,Blue Rhino,Q65681213
1126,buffalo_exchange_us,San Francisco &#8211; Mission District,1210 Valencia St,"San Francisco,",CA,,US,+1 415-647-8332,https://buffaloexchange.com/location/mission-district-san-francisco/,,Buffalo Exchange,Q4985721
2039886,chase_us,Mission St - New branch - Newly renovated,,San Francisco,CA,,US,+1 415-824-3313,https://locator.chase.com/ca/san-francisco/2900-mission-st,Mo-Fr 09:00-17:00; Sa 09:00-14:00,Chase,Q524629
2039875,chase_us,Mission and 21st - New branch - Newly renovated,,San Francisco,CA,,US,+1 415-647-8069,https://locator.chase.com/ca/san-francisco/2500-mission-st,Mo-Fr 09:00-17:00,Chase,Q524629
90319,citi,ATM Walgreens,,San Francisco,CA,,US,,,,Citibank,Q857063
44842,citi,ATM Clooneys Pub,,San Francisco,CA,,US,,,,Citibank,Q857063
86953,citi,ATM Walgreens,,San Francisco,CA,,US,,,,Citibank,Q857063
10089198,cricket_wireless,Cricket Wireless Authorized Retailer,,San Francisco,CA,,US,+1 415-805-8595,https://www.cricketwireless.com/stores/ll/US/CA/San-Francisco/2487-Mission-St,Mo-Sa 10:00-20:00; Su 11:00-18:00,Cricket Wireless,Q5184987
80221366,cricket_wireless,Cricket Wireless Authorized Retailer,,San Francisco,CA,,US,+1 415-796-3312,https://www.cricketwireless.com/stores,Mo-Sa 09:00-19:00; Su 10:00-18:00,Cricket Wireless,Q5184987
200159,electrify_america,"Safeway 0739 - San Francisco, CA",,San Francisco,CA,,US,,,,Electrify America,Q59773555
200325794,exxonmobil,Exxon,,SAN FRANCISCO,CA,,US,,https://www.exxon.com/en/find-station/exxon-sanfrancisco-ca-exxon-200325794,Mo-Su 06:00-22:00,Exxon,Q109675651
7299,fresenius_kidney_care_us,Fresenius Kidney Care San Francisco,,San Francisco,CA,,US,+1 800-881-5101,https://www.freseniuskidneycare.com/dialysis-centers/california/7299,Mo-Sa 06:00-19:00,,
5145,gamestop_us,Mission Street,,SAN FRANCISCO,CA,,US,+1 415-285-2276,https://www.gamestop.com/search/?store=5145,Mo-Su 11:00-19:00,GameStop,Q202210
zuckerburg-sf-general-hospital,indigo,ZUCKERBURG SF General Hospital,,San Francisco,CA,,US,+1 415-874-4356,,,Indigo,Q3559970
sfmta-16th-hoff-garage,indigo,SFMTA - 16th & Hoff Garage,,San Francisco,CA,,US,+1 415-660-8055,,,Indigo,Q3559970
sfmta-bartlett-garage,indigo,SFMTA - Bartlett Garage,,San Francisco,CA,,US,+1 415-660-8055,,,Indigo,Q3559970
https://healthy.kaiserpermanente.org/northern-california/facilities/seneca-family-of-agencies-enhanced-care-management-ecm-173137,kaiser_permanente_us,Seneca Family of Agencies - Enhanced Care Management (ECM),,San Francisco,CA,,US,+1 415-642-5968,https://healthy.kaiserpermanente.org/northern-california/facilities/seneca-family-of-agencies-enhanced-care-management-ecm-173137,,Kaiser Permanente,Q1721601
https://healthy.kaiserpermanente.org/northern-california/facilities/seneca-family-of-agencies-community-health-worker-chw-173121,kaiser_permanente_us,Seneca Family of Agencies - Community Health Worker (CHW),,San Francisco,CA,,US,+1 415-642-5968,https://healthy.kaiserpermanente.org/northern-california/facilities/seneca-family-of-agencies-community-health-worker-chw-173121,,Kaiser Permanente,Q1721601
https://healthy.kaiserpermanente.org/northern-california/facilities/san-jose-place-339123,kaiser_permanente_us,San Jose Place,,San Francisco,CA,,US,+1 415-282-3789,https://healthy.kaiserpermanente.org/northern-california/facilities/san-jose-place-339123,,Kaiser Permanente,Q1721601
https://healthy.kaiserpermanente.org/northern-california/facilities/la-posada-327485,kaiser_permanente_us,La Posada,,San Francisco,CA,,US,+1 415-285-0810,https://healthy.kaiserpermanente.org/northern-california/facilities/la-posada-327485,,Kaiser Permanente,Q1721601
114296,little_free_library,College Hill Little Library #114296 San Francisco CA,,San Francisco,CA,,US,,,,Little Free Library,Q6650101
111549,little_free_library,L'il Gladys Library #111549 San Francisco CA,,San Francisco,CA,,US,,,,Little Free Library,Q6650101
104108,little_free_library,Black Lives Matter Little Library #104108 San Francisco CA,,San Francisco,CA,,US,,,,Little Free Library,Q6650101
158367,little_free_library,#158367 #158367 San Francisco CA,,San Francisco,CA,,US,,,,Little Free Library,Q6650101
143359,little_free_library,Little Free Library #143359 San Francisco CA,,San Francisco,CA,,US,,,,Little Free Library,Q6650101
131976,little_free_library,Episcopal Franciscan Brothers #131976 San Francisco CA,,San Francisco,CA,,US,,,,Little Free Library,Q6650101
115596,little_free_library,Terrace Little Free Library #115596 San Francisco CA,,San Francisco,CA,,US,,,,Little Free Library,Q6650101
92191,little_free_library,The Rodney M Arthur Memorial Library #92191 San Francisco CA,,San Francisco,CA,,US,,,,Little Free Library,Q6650101
156608,little_free_library,Little Library on the Hill #156608 San Francisco CA,,San Francisco,CA,,US,,,,Little Free Library,Q6650101
157967,little_free_library,Jeremy Sheets #157967 San Francisco CA,,San Francisco,CA,,US,,,,Little Free Library,Q6650101
18138,little_free_library,Karen Zuercher #18138 San Francisco CA,,San Francisco,CA,,US,,,,Little Free Library,Q6650101
112720,little_free_library,Franconia St. Little Free Library #112720 San Francisco CA,,San Francisco,CA,,US,,,,Little Free Library,Q6650101
108390,little_free_library,#108390 San Francisco CA #108390 San Francisco CA,,San Francisco,CA,,US,,,,Little Free Library,Q6650101
108594,little_free_library,Walter Parenteau #108594 San Francisco CA,,San Francisco,CA,,US,,,,Little Free Library,Q6650101
23832,little_free_library,June Grant #23832 San Francisco CA,,San Francisco,CA,,US,,,,Little Free Library,Q6650101
73831183,moneygram,MONEY EXPRESS CENTER #4,,SAN FRANCISCO,CA,,US,+1 628-239-4961,,Mo-Sa 09:00-20:00; Su 10:00-20:00,MoneyGram,Q1944412
73841018,moneygram,MONEY EXPRESS CENTER #2,,SAN FRANCISCO,CA,,US,+1 628-895-8999,,Mo-Su 10:00-20:00,MoneyGram,Q1944412
0000848714,phillips_66_conoco_76,POTRERO 76,,SAN FRANCISCO,CA,,US,+1 415-861-3370,,24/7,U76,Q1658320
https://www.publicstorage.com/self-storage-ca-san-francisco/2234.html,public_storage_us,Public Storage,,San Francisco,CA,,US,+1 415-523-7825,https://www.publicstorage.com/self-storage-ca-san-francisco/2234.html,,Public Storage,Q1156045
https://local.safeway.com/#5604720,safeway,Safeway,,San Francisco,CA,,US,+1 415-826-2866,https://local.safeway.com/safeway/ca/san-francisco/3350-mission-st.html,Mo-Su 06:00-24:00,Safeway,Q1508234
39475,seven_eleven_ca_us,Bcp Str    3400 Mission St,,San Francisco,CA,,US,+1 415-695-7711,https://www.7-eleven.com/locations/ca/san-francisco/3400-mission-st-39475,,7-Eleven,Q259340
https://restaurants.subway.com/#14904081,subway,Subway,,San Francisco San Francisco,CA,,US,+1 415-585-1055,https://restaurants.subway.com/united-states/ca/san-francisco/4841-mission-street,Mo-Su 08:00-21:00,Subway,Q244457
https://www.sutterhealth.org/find-location/facility/cpmc-mission-bernal-campus-orthopedic-institute,sutter_health,CPMC Mission Bernal Campus & Orthopedic Institute,,San Francisco,CA,,US,+1 415-600-6000,https://www.sutterhealth.org/find-location/facility/cpmc-mission-bernal-campus-orthopedic-institute,24/7,Sutter Health,Q7650154
https://www.sutterhealth.org/find-location/facility/cpmc-lab-mission-bernal-campus-3555-cesar-chavez-street,sutter_health,"CPMC Lab, Mission Bernal Campus | 3555 Cesar Chavez Street",,San Francisco,CA,,US,+1 415-600-2200,https://www.sutterhealth.org/find-location/facility/cpmc-lab-mission-bernal-campus-3555-cesar-chavez-street,,Sutter Health,Q7650154
https://www.sutterhealth.org/find-location/facility/cpmc-lab-mission-bernal-campus-1580-valencia-street,sutter_health,"CPMC Lab, Mission Bernal Campus | 1580 Valencia Street",,San Francisco,CA,,US,+1 415-641-3351,https://www.sutterhealth.org/find-location/facility/cpmc-lab-mission-bernal-campus-1580-valencia-street,Mo-Fr 07:00-18:00; Sa 08:30-12:00,Sutter Health,Q7650154
https://www.sutterhealth.org/find-location/facility/cpmc-imaging-mission-bernal-campus-1580-valencia-street,sutter_health,"CPMC Imaging, Mission Bernal Campus, 1580 Valencia Street",,San Francisco,CA,,US,+1 415-641-6545,https://www.sutterhealth.org/find-location/facility/cpmc-imaging-mission-bernal-campus-1580-valencia-street,Mo-Fr 07:30-16:00,Sutter Health,Q7650154
https://www.sutterhealth.org/find-location/facility/cpmc-imaging-mission-bernal-campus-3555-cesar-chavez-street,sutter_health,"CPMC Imaging, Mission Bernal Campus | 3555 Cesar Chavez Street",,San Francisco,CA,,US,+1 415-641-6545,https://www.sutterhealth.org/find-location/facility/cpmc-imaging-mission-bernal-campus-3555-cesar-chavez-street,Mo-Fr 08:00-17:00,Sutter Health,Q7650154
https://www.sutterhealth.org/find-location/facility/cpmc-emergency-mission-bernal-campus,sutter_health,"CPMC Emergency, Mission Bernal Campus",,San Francisco,CA,,US,+1 415-641-6625,https://www.sutterhealth.org/find-location/facility/cpmc-emergency-mission-bernal-campus,24/7,Sutter Health,Q7650154
https://www.sutterhealth.org/find-location/facility/cpmc-birth-center-mission-bernal-campus,sutter_health,"CPMC Birth Center, Mission Bernal Campus (Temporarily Closed)",,San Francisco,CA,,US,+1 415-641-6630,https://www.sutterhealth.org/find-location/facility/cpmc-birth-center-mission-bernal-campus,,Sutter Health,Q7650154
https://www.sutterhealth.org/find-location/facility/mission-bernal-womens-clinic,sutter_health,Mission Bernal Women's Clinic,,San Francisco,CA,,US,+1 415-641-6996,https://www.sutterhealth.org/find-location/facility/mission-bernal-womens-clinic,Mo-Fr 08:00-17:00,Sutter Health,Q7650154
https://www.sutterhealth.org/find-location/facility/spmf-health-care-center-mission-bernal-campus,sutter_health,"SPMF Health Care Center, Mission Bernal Campus",,San Francisco,CA,,US,+1 415-641-6566,https://www.sutterhealth.org/find-location/facility/spmf-health-care-center-mission-bernal-campus,Mo-Fr 08:00-17:00,Sutter Health,Q7650154
https://www.sutterhealth.org/find-location/facility/spmf-breast-health-center-mission-bernal-campus-1580-valencia-street,sutter_health,"SPMF Breast Health Center, Mission Bernal Campus | 1580 Valencia Street",,San Francisco,CA,,US,+1 415-600-2060,https://www.sutterhealth.org/find-location/facility/spmf-breast-health-center-mission-bernal-campus-1580-valencia-street,Mo 09:30-18:00; Tu-Fr 07:30-16:00,Sutter Health,Q7650154
7813,tmobile_us,17th & Valencia,,San Francisco,CA,,US,+1 415-552-7731,https://www.t-mobile.com/store-locator/ca/san-francisco/17th-valencia,,T-Mobile,Q3511885
1440428,usps,MISSION SAN FRANCISCO,,SAN FRANCISCO,CA,,US,+1 415-431-3826,,Mo-Fr 08:00-17:00; Sa 08:00-15:00,United States Postal Service,Q668687
1354753,usps,BERNAL HEIGHTS,,SAN FRANCISCO,CA,,US,+1 415-643-3790,,Mo-Fr 10:00-17:00,United States Postal Service,Q668687
9411000066,usps_collection_boxes,USPS COLLECTION BOX - BLUE BOX,1100 CRESCENT AVE,SAN FRANCISCO,CA,,US,,,,United States Postal Service,Q668687
9411000045,usps_collection_boxes,USPS COLLECTION BOX - BLUE BOX,398 CRESCENT AVE,SAN FRANCISCO,CA,,US,,,,United States Postal Service,Q668687
9411000039,usps_collection_boxes,USPS COLLECTION BOX - BLUE BOX,230 CRESCENT AVE,SAN FRANCISCO,CA,,US,,,,United States Postal Service,Q668687
9411000034,usps_collection_boxes,USPS COLLECTION BOX - BLUE BOX,299 RICHLAND AVE,SAN FRANCISCO,CA,,US,,,,United States Postal Service,Q668687
9411000090,usps_collection_boxes,USPS COLLECTION BOX - BLUE BOX,301 PARK ST,SAN FRANCISCO,CA,,US,,,,United States Postal Service,Q668687
9411000053,usps_collection_boxes,USPS COLLECTION BOX - BLUE BOX,835 CORTLAND AVE,SAN FRANCISCO,CA,,US,,,,United States Postal Service,Q668687
9411000030,usps_collection_boxes,USPS COLLECTION BOX - BLUE BOX,439 CORTLAND AVE,SAN FRANCISCO,CA,,US,,,,United States Postal Service,Q668687
9411000075,usps_collection_boxes,USPS COLLECTION BOX - BLUE BOX,3789 MISSION ST,SAN FRANCISCO,CA,,US,,,,United States Postal Service,Q668687
9411000026,usps_collection_boxes,USPS COLLECTION BOX - BLUE BOX,1001 EUGENIA AVE,SAN FRANCISCO,CA,,US,,,,United States Postal Service,Q668687
9411000037,usps_collection_boxes,USPS COLLECTION BOX - BLUE BOX,231 CORTLAND AVE,SAN FRANCISCO,CA,,US,,,,United States Postal Service,Q668687
9411000072,usps_collection_boxes,USPS COLLECTION BOX - BLUE BOX,580 PERALTA AVE,SAN FRANCISCO,CA,,US,,,,United States Postal Service,Q668687
9411000005,usps_collection_boxes,USPS COLLECTION BOX - BLUE BOX,2 APPLETON AVE,SAN FRANCISCO,CA,,US,,,,United States Postal Service,Q668687
9411000049,usps_collection_boxes,USPS COLLECTION BOX - BLUE BOX,203 PROSPECT AVE,SAN FRANCISCO,CA,,US,,,,United States Postal Service,Q668687
9411000022,usps_collection_boxes,USPS COLLECTION BOX - BLUE BOX,3499 MISSION ST,SAN FRANCISCO,CA,,US,,,,United States Postal Service,Q668687
9411000110,usps_collection_boxes,USPS COLLECTION BOX - BLUE BOX,2 BREWSTER ST,SAN FRANCISCO,CA,,US,,,,United States Postal Service,Q668687
9411000007,usps_collection_boxes,USPS COLLECTION BOX - BLUE BOX,3300 FOLSOM ST,SAN FRANCISCO,CA,,US,,,,United States Postal Service,Q668687
9411000044,usps_collection_boxes,USPS COLLECTION BOX - BLUE BOX,3402 MISSION ST,SAN FRANCISCO,CA,,US,,,,United States Postal Service,Q668687
9411000001,usps_collection_boxes,USPS COLLECTION BOX - BLUE BOX,3200 25TH ST,SAN FRANCISCO,CA,,US,,,,United States Postal Service,Q668687
9411000019,usps_collection_boxes,USPS COLLECTION BOX - BLUE BOX,2699 FOLSOM ST,SAN FRANCISCO,CA,,US,,,,United States Postal Service,Q668687
9411000021,usps_collection_boxes,USPS COLLECTION BOX - BLUE BOX,2998 23RD ST,SAN FRANCISCO,CA,,US,,,,United States Postal Service,Q668687
9411000041,usps_collection_boxes,USPS COLLECTION BOX - BLUE BOX,2801 BRYANT ST,SAN FRANCISCO,CA,,US,,,,United States Postal Service,Q668687
9411000047,usps_collection_boxes,USPS COLLECTION BOX - BLUE BOX,2746 21ST ST,SAN FRANCISCO,CA,,US,,,,United States Postal Service,Q668687
9411000051,usps_collection_boxes,USPS COLLECTION BOX - BLUE BOX,1697 ALABAMA ST,SAN FRANCISCO,CA,,US,,,,United States Postal Service,Q668687
9411000069,usps_collection_boxes,USPS COLLECTION BOX - BLUE BOX,2598 BRYANT ST,SAN FRANCISCO,CA,,US,,,,United States Postal Service,Q668687
9411000107,usps_collection_boxes,USPS COLLECTION BOX - BLUE BOX,2400 16TH ST,SAN FRANCISCO,CA,,US,,,,United States Postal Service,Q668687
9411000118,usps_collection_boxes,USPS COLLECTION BOX - BLUE BOX,2020 MISSION ST,SAN FRANCISCO,CA,,US,,,,United States Postal Service,Q668687
9411000060,usps_collection_boxes,USPS COLLECTION BOX - BLUE BOX,103 HOLLADAY AVE,SAN FRANCISCO,CA,,US,,,,United States Postal Service,Q668687
9411000083,usps_collection_boxes,USPS COLLECTION BOX - BLUE BOX,78 29TH ST,SAN FRANCISCO,CA,,US,,,,United States Postal Service,Q668687
9411000082,usps_collection_boxes,USPS COLLECTION BOX - BLUE BOX,607 PRECITA AVE,SAN FRANCISCO,CA,,US,,,,United States Postal Service,Q668687
9411000124,usps_collection_boxes,USPS COLLECTION BOX - PO LOBBY,189 TIFFANY AVE,SAN FRANCISCO,CA,,US,,,,United States Postal Service,Q668687
9411000129,usps_collection_boxes,USPS COLLECTION BOX - PO LOBBY,189 TIFFANY AVE,SAN FRANCISCO,CA,,US,,,,United States Postal Service,Q668687
9411000031,usps_collection_boxes,USPS COLLECTION BOX - BLUE BOX,78 29TH ST,SAN FRANCISCO,CA,,US,,,,United States Postal Service,Q668687
9411000017,usps_collection_boxes,USPS COLLECTION BOX - BLUE BOX,296 PRECITA AVE,SAN FRANCISCO,CA,,US,,,,United States Postal Service,Q668687
9411000093,usps_collection_boxes,USPS COLLECTION BOX - BLUE BOX,39 COSO AVE,SAN FRANCISCO,CA,,US,,,,United States Postal Service,Q668687
9411000052,usps_collection_boxes,USPS COLLECTION BOX - BLUE BOX,201 29TH ST,SAN FRANCISCO,CA,,US,,,,United States Postal Service,Q668687
9411000015,usps_collection_boxes,USPS COLLECTION BOX - BLUE BOX,3101 CESAR CHAVEZ,SAN FRANCISCO,CA,,US,,,,United States Postal Service,Q668687
9411000113,usps_collection_boxes,USPS COLLECTION BOX - BLUE BOX,2901 20TH ST,SAN FRANCISCO,CA,,US,,,,United States Postal Service,Q668687
9411000109,usps_collection_boxes,USPS COLLECTION BOX - BLUE BOX,2901 20TH ST,SAN FRANCISCO,CA,,US,,,,United States Postal Service,Q668687
9411000056,usps_collection_boxes,USPS COLLECTION BOX - BLUE BOX,3298 20TH ST,SAN FRANCISCO,CA,,US,,,,United States Postal Service,Q668687
9411000092,usps_collection_boxes,USPS COLLECTION BOX - BLUE BOX,2601 22ND ST,SAN FRANCISCO,CA,,US,,,,United States Postal Service,Q668687
9411000048,usps_collection_boxes,USPS COLLECTION BOX - BLUE BOX,1995 BRYANT ST,SAN FRANCISCO,CA,,US,,,,United States Postal Service,Q668687
9411000074,usps_collection_boxes,USPS COLLECTION BOX - BLUE BOX,1198 S VAN NESS AVE,SAN FRANCISCO,CA,,US,,,,United States Postal Service,Q668687
9411000076,usps_collection_boxes,USPS COLLECTION BOX - BLUE BOX,1198 S VAN NESS AVE,SAN FRANCISCO,CA,,US,,,,United States Postal Service,Q668687
9411000122,usps_collection_boxes,USPS COLLECTION BOX - PO LOBBY,1198 S VAN NESS AVE,SAN FRANCISCO,CA,,US,,,,United States Postal Service,Q668687
9411000123,usps_collection_boxes,USPS COLLECTION BOX - PO LOBBY,1198 S VAN NESS AVE,SAN FRANCISCO,CA,,US,,,,United States Postal Service,Q668687
9411000130,usps_collection_boxes,USPS COLLECTION BOX - PO LOBBY,1198 S VAN NESS AVE,SAN FRANCISCO,CA,,US,,,,United States Postal Service,Q668687
9411000006,usps_collection_boxes,USPS COLLECTION BOX - EXPRESS,1198 S VAN NESS AVE,SAN FRANCISCO,CA,,US,,,,United States Postal Service,Q668687
9411000058,usps_collection_boxes,USPS COLLECTION BOX - BLUE BOX,3198 18TH ST,SAN FRANCISCO,CA,,US,,,,United States Postal Service,Q668687
9411000010,usps_collection_boxes,USPS COLLECTION BOX - BLUE BOX,2850 MARIPOSA ST,SAN FRANCISCO,CA,,US,,,,United States Postal Service,Q668687
9411000018,usps_collection_boxes,USPS COLLECTION BOX - BLUE BOX,3190 22ND ST,SAN FRANCISCO,CA,,US,,,,United States Postal Service,Q668687
9411000025,usps_collection_boxes,USPS COLLECTION BOX - BLUE BOX,1890 BRYANT ST,SAN FRANCISCO,CA,,US,,,,United States Postal Service,Q668687
9411000062,usps_collection_boxes,USPS COLLECTION BOX - BLUE BOX,595 POTRERO AVE,SAN FRANCISCO,CA,,US,,,,United States Postal Service,Q668687
9411000068,usps_collection_boxes,USPS COLLECTION BOX - BLUE BOX,3300 18TH ST,SAN FRANCISCO,CA,,US,,,,United States Postal Service,Q668687
9411000071,usps_collection_boxes,USPS COLLECTION BOX - BLUE BOX,1001 POTRERO AVE,SAN FRANCISCO,CA,,US,,,,United States Postal Service,Q668687
9411000020,usps_collection_boxes,USPS COLLECTION BOX - BLUE BOX,3399 19TH ST,SAN FRANCISCO,CA,,US,,,,United States Postal Service,Q668687
9411000061,usps_collection_boxes,USPS COLLECTION BOX - BLUE BOX,3299 23RD ST,SAN FRANCISCO,CA,,US,,,,United States Postal Service,Q668687
9411000032,usps_collection_boxes,USPS COLLECTION BOX - BLUE BOX,2101 FOLSOM ST,SAN FRANCISCO,CA,,US,,,,United States Postal Service,Q668687
9411000078,usps_collection_boxes,USPS COLLECTION BOX - BLUE BOX,1299 ALABAMA ST,SAN FRANCISCO,CA,,US,,,,United States Postal Service,Q668687
9411000102,usps_collection_boxes,USPS COLLECTION BOX - BLUE BOX,3288 21ST ST,SAN FRANCISCO,CA,,US,,,,United States Postal Service,Q668687
9411000043,usps_collection_boxes,USPS COLLECTION BOX - BLUE BOX,2779 MISSION ST,SAN FRANCISCO,CA,,US,,,,United States Postal Service,Q668687
9411000014,usps_collection_boxes,USPS COLLECTION BOX - BLUE BOX,2205 MISSION ST,SAN FRANCISCO,CA,,US,,,,United States Postal Service,Q668687
9411000088,usps_collection_boxes,USPS COLLECTION BOX - BLUE BOX,1098 VALENCIA ST,SAN FRANCISCO,CA,,US,,,,United States Postal Service,Q668687
9411000013,usps_collection_boxes,USPS COLLECTION BOX - BLUE BOX,2401 17TH ST,SAN FRANCISCO,CA,,US,,,,United States Postal Service,Q668687
9411000073,usps_collection_boxes,USPS COLLECTION BOX - BLUE BOX,3401 23RD ST,SAN FRANCISCO,CA,,US,,,,United States Postal Service,Q668687
9411000028,usps_collection_boxes,USPS COLLECTION BOX - BLUE BOX,3500 18TH ST,SAN FRANCISCO,CA,,US,,,,United States Postal Service,Q668687
9411000027,usps_collection_boxes,USPS COLLECTION BOX - BLUE BOX,1301 VALENCIA ST,SAN FRANCISCO,CA,,US,,,,United States Postal Service,Q668687
9411000003,usps_collection_boxes,USPS COLLECTION BOX - BLUE BOX,3399 22ND ST,SAN FRANCISCO,CA,,US,,,,United States Postal Service,Q668687
9411000009,usps_collection_boxes,USPS COLLECTION BOX - BLUE BOX,1499 S VAN NESS AVE,SAN FRANCISCO,CA,,US,,,,United States Postal Service,Q668687
9411000106,usps_collection_boxes,USPS COLLECTION BOX - BLUE BOX,699 GUERRERO ST,SAN FRANCISCO,CA,,US,,,,United States Postal Service,Q668687
9411000104,usps_collection_boxes,USPS COLLECTION BOX - BLUE BOX,3599 25TH ST,SAN FRANCISCO,CA,,US,,,,United States Postal Service,Q668687
9411000038,usps_collection_boxes,USPS COLLECTION BOX - BLUE BOX,3402 26TH ST,SAN FRANCISCO,CA,,US,,,,United States Postal Service,Q668687
9411000105,usps_collection_boxes,USPS COLLECTION BOX - BLUE BOX,701 DOLORES ST,SAN FRANCISCO,CA,,US,,,,United States Postal Service,Q668687
9411000080,usps_collection_boxes,USPS COLLECTION BOX - BLUE BOX,3501 17TH ST,SAN FRANCISCO,CA,,US,,,,United States Postal Service,Q668687
9411000023,usps_collection_boxes,USPS COLLECTION BOX - BLUE BOX,3701 25TH ST,SAN FRANCISCO,CA,,US,,,,United States Postal Service,Q668687
9411000035,usps_collection_boxes,USPS COLLECTION BOX - BLUE BOX,1100 DOLORES ST,SAN FRANCISCO,CA,,US,,,,United States Postal Service,Q668687
9411000050,usps_collection_boxes,USPS COLLECTION BOX - BLUE BOX,1 PRECITA AVE,SAN FRANCISCO,CA,,US,,,,United States Postal Service,Q668687
9411000046,usps_collection_boxes,USPS COLLECTION BOX - BLUE BOX,2 28TH ST,SAN FRANCISCO,CA,,US,,,,United States Postal Service,Q668687
R00000001504,verizon_us,SF Mission,,San Francisco,CA,,US,+1 415-695-8400,https://www.verizon.com/stores/details/california/san-francisco/sf-union-1292222/,Mo-Fr 10:00-19:00; Sa 10:00-18:00; Su 10:00-17:00,Verizon,Q919641
,visa,,,NEWARK,CA,,US,,,,,
,visa,,,SAN FRANCISCO,CA,,US,,,,,
,visa,,,SAN FRANCISCO,CA,,US,,,,,
,visa,,,SAN FRANCISCO,CA,,US,,,,,
,visa,,,SAN FRANCISCO,CA,,US,,,,,
,visa,,,SAN FRANCISCO,CA,,US,,,,,
,visa,,,SAN FRANCISCO,CA,,US,,,,,
,visa,,,SAN FRANCISCO,CA,,US,,,,,
,visa,,,SAN FRANCISCO,CA,,US,,,,,
,visa,,,SAN FRANCISCO,CA,,US,,,,,
,visa,,,SAN FRANCISCO,CA,,US,,,,,
,visa,,,SAN FRANCISCO,CA,,US,,,,,
,visa,,,SAN FRANCISCO,CA,,US,,,,,
,visa,,,SAN FRANCISCO,CA,,US,,,,,
,visa,,,SAN FRANCISCO,CA,,US,,,,,
,visa,,,SAN FRANCISCO,CA,,US,,,,,
,visa,,,SAN FRANCISCO,CA,,US,,,,,
,visa,,,SAN FRANCISCO,CA,,US,,,,,
,visa,,,SAN FRANCISCO,CA,,US,,,,,
,visa,,,SAN FRANCISCO,CA,,US,,,,,
,visa,,,SAN FRANCISCO,CA,,US,,,,,
,visa,,,SAN FRANCISCO,CA,,US,,,,,
,visa,,,SAN FRANCISCO,CA,,US,,,,,
,visa,,,SAN FRANCISCO,CA,,US,,,,,
,visa,,,SAN FRANCISCO,CA,,US,,,,,
,visa,,,SAN FRANCISCO,CA,,US,,,,,
,visa,,,SAN FRANCISCO,CA,,US,,,,,
,visa,,,SAN FRANCISCO,CA,,US,,,,,
,visa,,,SAN FRANCISCO,CA,,US,,,,,
,visa,,,SAN FRANCISCO,CA,,US,,,,,
,visa,,,SAN FRANCISCO,CA,,US,,,,,
,visa,,,SAN FRANCISCO,CA,,US,,,,,
,visa,,,SAN FRANCISCO,CA,,US,,,,,
,visa,,,SAN FRANCISCO,CA,,US,,,,,
,visa,,,SAN FRANCISCO,CA,,US,,,,,
,visa,,,SAN FRANCISCO,CA,,US,,,,,
,visa,,,SAN FRANCISCO,CA,,US,,,,,
,visa,,,SAN FRANCISCO,CA,,US,,,,,
,visa,,,SAN FRANCISCO,CA,,US,,,,,
,visa,,,SAN FRANCISCO,CA,,US,,,,,
,visa,,,SAN FRANCISCO,CA,,US,,,,,
,visa,,,SN FRANCISCO,CA,,US,,,,,
,visa,,,SAN FRANCISCO,CA,,US,,,,,
,visa,,,SAN FRANCISCO,CA,,US,,,,,
,visa,,,SAN FRANCISCO,CA,,US,,,,,
,visa,,,SAN FRANCISCO,CA,,US,,,,,
,visa,,,SAN FRANCISCO,CA,,US,,,,,
,visa,,,SAN FRANCISCO,CA,,US,,,,,
,visa,,,SAN FRANCISCO,CA,,US,,,,,
,visa,,,SAN FRANCISCO,CA,,US,,,,,
,visa,,,SAN FRANCISCO,CA,,US,,,,,
,visa,,,SAN FRANCISCO,CA,,US,,,,,
,visa,,,SAN FRANCISCO,CA,,US,,,,,
,visa,,,SAN FRANCISCO,CA,,US,,,,,
,visa,,,SAN FRANCISCO,CA,,US,,,,,
,visa,,,SAN FRANCISCO,CA,,US,,,,,
,visa,,,SAN FRANCISCO,CA,,US,,,,,
,visa,,,SAN FRANCISCO,CA,,US,,,,,
,visa,,,SAN FRANCISCO,CA,,US,,,,,
,visa,,,SAN FRANCISCO,CA,,US,,,,,
,visa,,,SAN FRANCISCO,CA,,US,,,,,
,visa,,,SAN FRANCISCO,CA,,US,,,,,
,visa,,,SAN FRANCISCO,CA,,US,,,,,
,visa,,,SAN FRANCISCO,CA,,US,,,,,
,visa,,,SAN FRANCISCO,CA,,US,,,,,
,visa,,,SAN FRANCISCO,CA,,US,,,,,
,visa,,,SAN FRANCISCO,CA,,US,,,,,
,visa,,,SAN FRANCISCO,CA,,US,,,,,
,visa,,,SAN FRANCISCO,CA,,US,,,,,
,visa,,,SAN FRANCISCO,CA,,US,,,,,
,visa,,,SAN FRANCISCO,CA,,US,,,,,
,visa,,,SAN FRANCISCO,CA,,US,,,,,
,visa,,,SAN FRANCISCO,CA,,US,,,,,
,visa,,,SAN FRANCISCO,CA,,US,,,,,
,visa,,,SAN FRANCISCO,CA,,US,,,,,
,visa,,,SAN FRANCISCO,CA,,US,,,,,
,visa,,,SAN FRANCISCO,CA,,US,,,,,
,visa,,,SAN FRANCISCO,CA,,US,,,,,
,visa,,,SAN FRANCISCO,CA,,US,,,,,
,visa,,,SAN FRANCISCO,CA,,US,,,,,
,visa,,,SAN FRANCISCO,CA,,US,,,,,
,visa,,,SAN FRANCISCO,CA,,US,,,,,
,visa,,,SAN FRANCISCO,CA,,US,,,,,
,visa,,,SAN FRANCISCO,CA,,US,,,,,
,visa,,,SAN FRANCISCO,CA,,US,,,,,
,visa,,,SAN FRANCISCO,CA,,US,,,,,
,visa,,,SAN FRANCISCO,CA,,US,,,,,
,visa,,,SAN FRANCISCO,CA,,US,,,,,
,visa,,,SAN FRANCISCO,CA,,US,,,,,
,visa,,,SAN FRANCISCO,CA,,US,,,,,
,visa,,,SAN FRANCISCO,CA,,US,,,,,
,visa,,,SAN FRANCISCO,CA,,US,,,,,
,visa,,,SAN FRANCISCO,CA,,US,,,,,
,visa,,,SAN FRANCISCO,CA,,US,,,,,
,visa,,,SAN FRANCISCO,CA,,US,,,,,
,visa,,,SAN FRANCISCO,CA,,US,,,,,
,visa,,,SAN FRANCISCO,CA,,US,,,,,
,visa,,,SAN FRANCISCO,CA,,US,,,,,
,visa,,,SAN FRANCISCO,CA,,US,,,,,
,visa,,,SAN FRANCISCO,CA,,US,,,,,
,visa,,,SAN FRANCISCO,CA,,US,,,,,
,visa,,,SAN FRANCISCO,CA,,US,,,,,
,visa,,,SAN FRANCISCO,CA,,US,,,,,
,visa,,,SAN FRANCISCO,CA,,US,,,,,
,visa,,,SAN FRANCISCO,CA,,US,,,,,
,visa,,,SAN FRANCISCO,CA,,US,,,,,
,visa,,,SAN FRANCISCO,CA,,US,,,,,
,visa,,,SAN FRANCISCO,CA,,US,,,,,
,visa,,,SAN FRANCISCO,CA,,US,,,,,
,visa,,,SAN FRANCISCO,CA,,US,,,,,
,visa,,,SAN FRANCISCO,CA,,US,,,,,
,visa,,,SAN FRANCISCO,CA,,US,,,,,
,visa,,,SAN FRANCISCO,CA,,US,,,,,
,visa,,,SAN FRANCISCO,CA,,US,,,,,
,visa,,,SAN FRANCISCO,CA,,US,,,,,
,visa,,,SAN FRANCISCO,CA,,US,,,,,
,visa,,,SAN FRANCISCO,CA,,US,,,,,
,visa,,,SAN FRANCISCO,CA,,US,,,,,
,visa,,,SAN FRANCISCO,CA,,US,,,,,
,visa,,,SAN FRANCISCO,CA,,US,,,,,
,visa,,,SAN FRANCISCO,CA,,US,,,,,
,visa,,,SAN FRANCISCO,CA,,US,,,,,
,visa,,,SAN FRANCISCO,CA,,US,,,,,
,visa,,,SAN FRANCISCO,CA,,US,,,,,
,visa,,,SAN FRANCISCO,CA,,US,,,,,
,visa,,,SAN FRANCISCO,CA,,US,,,,,
,visa,,,SAN FRANCISCO,CA,,US,,,,,
,visa,,,SAN FRANCISCO,CA,,US,,,,,
,visa,,,SAN FRANCISCO,CA,,US,,,,,
,visa,,,SAN FRANCISCO,CA,,US,,,,,
,visa,,,SAN FRANCISCO,CA,,US,,,,,
,visa,,,SAN FRANCISCO,CA,,US,,,,,
,visa,,,SAN FRANCISCO,CA,,US,,,,,
,visa,,,SAN FRANCISCO,CA,,US,,,,,
,visa,,,SAN FRANCISCO,CA,,US,,,,,
,visa,,,SAN FRANCISCO,CA,,US,,,,,
,visa,,,SAN FRANCISCO,CA,,US,,,,,
,visa,,,SAN FRANCISCO,CA,,US,,,,,
,visa,,,SAN FRANCISCO,CA,,US,,,,,
,visa,,,SAN FRANCISCO,CA,,US,,,,,
,visa,,,SAN FRANCISCO,CA,,US,,,,,
,visa,,,SAN FRANCISCO,CA,,US,,,,,
,visa,,,SAN FRANCISCO,CA,,US,,,,,
,visa,,,SAN FRANCISCO,CA,,US,,,,,
,visa,,,SAN FRANCISCO,CA,,US,,,,,
,visa,,,SAN FRANCISCO,CA,,US,,,,,
,visa,,,SAN FRANCISCO,CA,,US,,,,,
,visa,,,SAN FRANCISCO,CA,,US,,,,,
,visa,,,SAN FRANCISCO,CA,,US,,,,,
,visa,,,SAN FRANCISCO,CA,,US,,,,,
,visa,,,SAN FRANCISCO,CA,,US,,,,,
,visa,,,SAN FRANCISCO,CA,,US,,,,,
,visa,,,SAN FRANCISCO,CA,,US,,,,,
,visa,,,SAN FRANCISCO,CA,,US,,,,,
,visa,,,SAN FRANCISCO,CA,,US,,,,,
,visa,,,SAN FRANCISCO,CA,,US,,,,,
,visa,,,SAN FRANCISCO,CA,,US,,,,,
,visa,,,SAN FRANCISCO,CA,,US,,,,,
,visa,,,SAN FRANCISCO,CA,,US,,,,,
,visa,,,SAN FRANCISCO,CA,,US,,,,,
,visa,,,SAN FRANCISCO,CA,,US,,,,,
,visa,,,SAN FRANCISCO,CA,,US,,,,,
,visa,,,SAN FRANCISCO,CA,,US,,,,,
,visa,,,SAN FRANCISCO,CA,,US,,,,,
,visa,,,SAN FRANCISCO,CA,,US,,,,,
,visa,,,SAN FRANCISCO,CA,,US,,,,,
,visa,,,SAN FRANCISCO,CA,,US,,,,,
,visa,,,SAN FRANCISCO,CA,,US,,,,,
,visa,,,SAN FRANCISCO,CA,,US,,,,,
,visa,,,SAN FRANCISCO,CA,,US,,,,,
,visa,,,SAN FRANCISCO,CA,,US,,,,,
,visa,,,SAN FRANCISCO,CA,,US,,,,,
,visa,,,SAN FRANCISCO,CA,,US,,,,,
,visa,,,SAN FRANCISCO,CA,,US,,,,,
,visa,,,SAN FRANCISCO,CA,,US,,,,,
,visa,,,SAN FRANCISCO,CA,,US,,,,,
,visa,,,SAN FRANCISCO,CA,,US,,,,,
,visa,,,SAN FRANCISCO,CA,,US,,,,,
,visa,,,SAN FRANCISCO,CA,,US,,,,,
,visa,,,SAN FRANCISCO,CA,,US,,,,,
,visa,,,SAN FRANCISCO,CA,,US,,,,,
,visa,,,SAN FRANCISCO,CA,,US,,,,,
,visa,,,SAN FRANCISCO,CA,,US,,,,,
,visa,,,SAN FRANCSCO,CA,,US,,,,,
,visa,,,SAN FRANCISCO,CA,,US,,,,,
,visa,,,SAN FRANCISCO,CA,,US,,,,,
,visa,,,SAN FRANCISCO,CA,,US,,,,,
,visa,,,SAN FRANCISCO,CA,,US,,,,,
,visa,,,SAN FRANCISCO,CA,,US,,,,,
,visa,,,SAN FRANCISCO,CA,,US,,,,,
,visa,,,SAN FRANCISCO,CA,,US,,,,,
,visa,,,SAN FRANCISCO,CA,,US,,,,,
,visa,,,SAN FRANCISCO,CA,,US,,,,,
,visa,,,SAN FRANCISCO,CA,,US,,,,,
,visa,,,SAN FRANCISCO,CA,,US,,,,,
,visa,,,SAN FRANCISCO,CA,,US,,,,,
,visa,,,SAN FRANCISCO,CA,,US,,,,,
,visa,,,SAN FRANCISCO,CA,,US,,,,,
,visa,,,SAN FRANCISCO,CA,,US,,,,,
,visa,,,SAN FRANCISCO,CA,,US,,,,,
,visa,,,SAN FRANCISCO,CA,,US,,,,,
,visa,,,SAN FRANCISCO,CA,,US,,,,,
,visa,,,SAN FRANCISCO,CA,,US,,,,,
,visa,,,SAN FRANCISCO,CA,,US,,,,,
,visa,,,SAN FRANCISCO,CA,,US,,,,,
,visa,,,SAN FRANCISCO,CA,,US,,,,,
,visa,,,SAN FRANCISCO,CA,,US,,,,,
,visa,,,SAN FRANCISCO,CA,,US,,,,,
,visa,,,SAN FRANCISCO,CA,,US,,,,,
,visa,,,SAN FRANCISCO,CA,,US,,,,,
,visa,,,SAN FRANCISCO,CA,,US,,,,,
,visa,,,SAN FRANCISCO,CA,,US,,,,,
,visa,,,SAN FRANCISCO,CA,,US,,,,,
,visa,,,SAN FRANCISCO,CA,,US,,,,,
,visa,,,SAN FRANCISCO,CA,,US,,,,,
,visa,,,SAN FRANCISCO,CA,,US,,,,,
,visa,,,SAN FRANCISCO,CA,,US,,,,,
,visa,,,SAN FRANCISCO,CA,,US,,,,,
,visa,,,SAN FRANCISCO,CA,,US,,,,,
,visa,,,SAN FRANCISCO,CA,,US,,,,,
,visa,,,SAN FRANCISCO,CA,,US,,,,,
,visa,,,SAN FRANCISCO,CA,,US,,,,,
,visa,,,SAN FRANCISCO,CA,,US,,,,,
,visa,,,SAN FRANCISCO,CA,,US,,,,,
,visa,,,SAN FRANCISCO,CA,,US,,,,,
,visa,,,SAN FRANCISCO,CA,,US,,,,,
,visa,,,SAN FRANCISCO,CA,,US,,,,,
,visa,,,SAN FRANCISCO,CA,,US,,,,,
,visa,,,SAN FRANCISCO,CA,,US,,,,,
,visa,,,SAN FRANCISCO,CA,,US,,,,,
,visa,,,SAN FRANCISCO,CA,,US,,,,,
,visa,,,SAN FRANCISCO,CA,,US,,,,,
,visa,,,SAN FRANCISCO,CA,,US,,,,,
,visa,,,SAN FRANCISCO,CA,,US,,,,,
,visa,,,SAN FRANCISCO,CA,,US,,,,,
,visa,,,SAN FRANCISCO,CA,,US,,,,,
,visa,,,SAN FRANCISCO,CA,,US,,,,,
,visa,,,SAN FRANCISCO,CA,,US,,,,,
,visa,,,SAN FRANCISCO,CA,,US,,,,,
,visa,,,SAN FRANCISCO,CA,,US,,,,,
,visa,,,SAN FRANCISCO,CA,,US,,,,,
,visa,,,SAN FRANSICO,CA,,US,,,,,
,visa,,,SAN FRANCISCO,CA,,US,,,,,
,visa,,,SAN FRANCISCO,CA,,US,,,,,
,visa,,,SAN FRANCISCO,CA,,US,,,,,
,visa,,,SAN FRANCISCO,CA,,US,,,,,
,visa,,,SAN FRANCISCO,CA,,US,,,,,
,visa,,,SAN FRANCISCO,CA,,US,,,,,
,visa,,,SAN FRANCISCO,CA,,US,,,,,
,visa,,,SAN FRANCISCO,CA,,US,,,,,
,visa,,,SAN FRANCISCO,CA,,US,,,,,
,visa,,,SAN FRANCISCO,CA,,US,,,,,
,visa,,,SAN FRANCISCO,CA,,US,,,,,
,visa,,,SAN FRANCISCO,CA,,US,,,,,
,visa,,,SAN FRANCISCO,CA,,US,,,,,
,visa,,,SAN FRANCISCO,CA,,US,,,,,
,visa,,,SAN FRANCISCO,CA,,US,,,,,
,visa,,,SAN FRANCISCO,CA,,US,,,,,
,visa,,,SAN FRANCISCO,CA,,US,,,,,
,visa,,,SAN FRANCISCO,CA,,US,,,,,
,visa,,,SAN FRANCISCO,CA,,US,,,,,
,visa,,,SAN FRANCISCO,CA,,US,,,,,
,visa,,,SAN FRANCISCO,CA,,US,,,,,
,visa,,,SAN FRANCISCO,CA,,US,,,,,
,visa,,,SAN FRANCISCO,CA,,US,,,,,
,visa,,,SAN FRANCISCO,CA,,US,,,,,
,visa,,,SOUTH SAN FRANCISCO,CA,,US,,,,,
https://www.walgreens.com/locator/walgreens-3398+mission+st-san+francisco-ca-94110/id=1054,walgreens,Walgreens,,San Francisco,CA,,US,+1 415-824-6886,https://www.walgreens.com/locator/walgreens-3398+mission+st-san+francisco-ca-94110/id=1054,Mo-Su 08:00-22:00,Walgreens,Q1591889
https://www.walgreens.com/locator/walgreens-2690+mission+st-san+francisco-ca-94110/id=4231,walgreens,Walgreens,,San Francisco,CA,,US,+1 415-285-1576,https://www.walgreens.com/locator/walgreens-2690+mission+st-san+francisco-ca-94110/id=4231,Mo-Sa 07:00-23:00; Su 07:00-22:00,Walgreens,Q1591889
https://www.walgreens.com/locator/walgreens-1189+potrero+ave-san+francisco-ca-94110/id=3711,walgreens,Walgreens,,San Francisco,CA,,US,+1 415-647-1397,https://www.walgreens.com/locator/walgreens-1189+potrero+ave-san+francisco-ca-94110/id=3711,Mo-Su 07:00-22:00,Walgreens,Q1591889
610__CORTLAND__AVE_SAN__FRANCISCO_CA_94110,wellsfargo,,610 CORTLAND AVE,SAN FRANCISCO,CA,,US,+1 800-869-3557,https://www.wellsfargo.com/locator/bank/610__CORTLAND__AVE_SAN__FRANCISCO_CA_94110/,,Wells Fargo,Q744149
3350__MISSION__ST_SAN__FRANCISCO_CA_94110,wellsfargo,,3350 MISSION ST,SAN FRANCISCO,CA,,US,+1 800-869-3557,https://www.wellsfargo.com/locator/bank/3350__MISSION__ST_SAN__FRANCISCO_CA_94110/,,Wells Fargo,Q744149
2595__MISSION__ST_SAN__FRANCISCO_CA_94110,wellsfargo,Wells Fargo,2595 MISSION ST,SAN FRANCISCO,CA,,US,+1 415-396-8103,https://www.wellsfargo.com/locator/bank/2595__MISSION__ST_SAN__FRANCISCO_CA_94110/,Mo-Fr 09:00-17:00,Wells Fargo,Q744149
19e615f5f41b508e06eeffe9c25950d6,western_union,MONEY EXPRESS CENTER #2,,San Francisco,CA,,US,+1 628-895-8999,https://location.westernunion.com/us/ca/san-francisco/19e615f5f41b508e06eeffe9c25950d6,Mo-Su 08:00-19:00,Western Union,Q861042
e94258ccfff647b97bdbf99594646366,western_union,ALL SEASON MARKET,,San Francisco,CA,,US,+1 510-200-3178,https://location.westernunion.com/us/ca/san-francisco/e94258ccfff647b97bdbf99594646366,Mo-Su 07:30-24:00,Western Union,Q861042
5b63843612af508556f72d8f94418d57,western_union,ALL SEASON MARKET,,San Francisco,CA,,US,+1 510-200-3178,https://location.westernunion.com/us/ca/san-francisco/5b63843612af508556f72d8f94418d57,Mo-Su 07:30-24:00,Western Union,Q861042
821901e917c4ca087e801ec55cffbc92,western_union,ORDER EXPRESS- CA082,,San Francisco,CA,,US,+1 415-552-6501,https://location.westernunion.com/us/ca/san-francisco/821901e917c4ca087e801ec55cffbc92,Mo-Fr 08:00-19:00; Sa-Su 08:30-18:00,Western Union,Q861042
63e6dcfd3fb7ffebaaddf345b2241579,western_union,ORDER EXPRESS- CA082,,San Francisco,CA,,US,+1 415-552-6501,https://location.westernunion.com/us/ca/san-francisco/63e6dcfd3fb7ffebaaddf345b2241579,Mo-Fr 08:00-20:00; Sa-Su 08:30-20:00,Western Union,Q861042
d80927e6bff81a3af963219b27880036,western_union,VARIEDADES LA FAMILIA,,San Francisco,CA,,US,+1 415-914-5871,https://location.westernunion.com/us/ca/san-francisco/d80927e6bff81a3af963219b27880036,Mo-Su 09:00-18:30,Western Union,Q861042
67c10a21ad5b0da5abc50c985e742a5a,western_union,ANTOJITOS PATRY #2,,San Francisco,CA,,US,+1 415-341-0044,https://location.westernunion.com/us/ca/san-francisco/67c10a21ad5b0da5abc50c985e742a5a,Mo-Su 07:00-21:00,Western Union,Q861042
fa0b3aed9f8e9951e6df7cef5ab44cd1,western_union,ANTOJITOS PATRY,,San Francisco,CA,,US,+1 415-757-0154,https://location.westernunion.com/us/ca/san-francisco/fa0b3aed9f8e9951e6df7cef5ab44cd1,Mo-Su 07:00-21:00,Western Union,Q861042
869061a0c998b639f39e6379f6870c25,western_union,JUDITH,,San Francisco,CA,,US,+1 415-251-1358,https://location.westernunion.com/us/ca/san-francisco/869061a0c998b639f39e6379f6870c25,Mo-Sa 08:00-20:00; Su 08:00-19:00,Western Union,Q861042
f4c3d64fbc9eb849240dc1ea866818bc,western_union,MONEY EXPRESS CENTER #4,,San Francisco,CA,,US,+1 628-239-4961,https://location.westernunion.com/us/ca/san-francisco/f4c3d64fbc9eb849240dc1ea866818bc,Mo-Su 08:00-19:00,Western Union,Q861042
657f6a463e90acb2b7161a31a7c0cf1f,western_union,MONEY EXPRESS CENTER #4,,San Francisco,CA,,US,+1 628-239-4961,https://location.westernunion.com/us/ca/san-francisco/657f6a463e90acb2b7161a31a7c0cf1f,Mo-Su 08:00-19:00,Western Union,Q861042
