Ref,Spider,Name,Address,City,State,Zipcode,Country,Phone,Website,Hours,Brand,WikiData
https://www.avis.com/en/locations/us/ca/san-francisco/e9m,avis,Avis U S A San Francisco,,San Francisco,CA,,US,+1 415-395-4758,https://www.avis.com/en/locations/us/ca/san-francisco/e9m,Mo 08:00-17:00; Tu-We 08:00-14:00; Th-Fr 08:00-17:00; Sa-Su 08:00-13:00,Avis,Q791136
https://locators.bankofamerica.com/ca/sanfrancisco/financial-centers-san-francisco-7436.html,bankofamerica,Bank of America Financial Center & Walk-Up ATM | 50 California,,San Francisco,CA,,US,+1 415-622-4930,https://locators.bankofamerica.com/ca/sanfrancisco/financial-centers-san-francisco-7436.html,Mo-Fr 10:00-16:00,Bank of America,Q487907
https://locators.bankofamerica.com/ca/sanfrancisco/atm-san-francisco-102530.html,bankofamerica,Bank of America Walk-Up ATM | Ferry Building,,San Francisco,CA,,US,+1 844-401-8500,https://locators.bankofamerica.com/ca/sanfrancisco/atm-san-francisco-102530.html,,Bank of America,Q487907
san-francisco-downtown,barmethod,The Bar Method San Francisco - Downtown,,San Francisco,CA,,US,+1 415-956-0446,https://barmethod.com/locations/san-francisco-downtown/,,The Bar Method,Q117599728
https://child-care-preschool.brighthorizons.com/CA/SanFrancisco/1700montgomery,brighthorizons,Bright Horizons at 1700 Montgomery Street,,San Francisco,CA,,US,+1 415-240-4336,https://child-care-preschool.brighthorizons.com/ca/sanfrancisco/1700montgomery,Mo-Fr 08:00-17:30,Bright Horizons,Q4967421
2039894,chase_us,Embarcadero - New branch,,San Francisco,CA,,US,+1 415-984-0960,https://locator.chase.com/ca/san-francisco/2-embarcadero-ctr-st-level,Mo-Fr 09:00-17:00,Chase,Q524629
ca_san-francisco_50-california-st,chipotle, ,,San Francisco,CA,,US,+1 415-500-9511,https://locations.chipotle.com/ca/san-francisco/50-california-st,,Chipotle,Q465751
54307,citi,ATM EAST WEST BANK,,San Francisco,CA,,US,,,,Citibank,Q857063
37466,citi,ATM California Coffee Roastery,,San Francisco,CA,,US,,,,Citibank,Q857063
557,citi,California St,,San Francisco,CA,,US,+1 800-627-3999,,,Citibank,Q857063
27038,citi,ATM 7ELEVEN-FCTI,,San Francisco,CA,,US,,,,Citibank,Q857063
30182,citi,ATM 7ELEVEN-FCTI,,San Francisco,CA,,US,,,,Citibank,Q857063
af55c53a-c40b-4289-b779-62471812325f,concentra_us,Downtown San Francisco,,San Francisco,CA,,US,,https://www.concentra.com/urgent-care-centers/california/bay-area/downtown-san-francisco-urgent-care/,,Concentra,Q5158304
FSF-478JSSFC,fjallraven,Fj채llr채ven San Francisco,,San Francisco,CA,,US,+1 415-732-0364,http://www.fjallraven.us,,Fj채llr채ven,Q1422481
northpark,indigo,NorthPark,,San Francisco,CA,,US,+1 510-725-2342,,,Indigo,Q3559970
four-embarcadero-center,indigo,Four Embarcadero Center,,San Francisco,CA,,US,+1 415-407-5042,,,Indigo,Q3559970
one-embarcadero-center,indigo,One Embarcadero Center,,San Francisco,CA,,US,+1 415-407-5042,,,Indigo,Q3559970
two-embarcadero-center,indigo,Two Embarcadero Center,,San Francisco,CA,,US,+1 415-407-5042,,,Indigo,Q3559970
three-embarcadero-center,indigo,Three Embarcadero Center,,San Francisco,CA,,US,+1 415-407-5042,,,Indigo,Q3559970
L2NvbnRlbnQvZGFtL2psbC1jb20vbW9kZWxzL2xvY2F0aW9ucy9lbi9zYW4tZnJhbmNpc2NvLS0tb25lLWZyb250LXN0cmVldA,jll,San Francisco | One Front Street,,San Francisco,CA,,US,+1 415-395-4900,https://www.us.jll.com/en/locations/west/san-francisco,,JLL,Q1703389
L2NvbnRlbnQvZGFtL2psbC1jb20vbW9kZWxzL2xvY2F0aW9ucy9lbi9zYW4tZnJhbmNpc2NvLS0tbGFzYWxsZS1pbnZlc3RtZW50LW1hbmFnZW1lbnQ,jll,San Francisco | LaSalle Investment Management,,San Francisco,CA,,US,+1 415-395-4900,https://www.us.jll.com/en/locations/west/san-francisco,,JLL,Q1703389
US127,longchamp_us,EDWARDS EVERYTHING TRAVEL,,SAN FRANCISCO,CA,,US,+1 415-981-7047,,,Longchamp,Q1869471
74365056,moneygram,LEETONE PHOTO CENTER - #1 - SAN FRANCISC,,SAN FRANCISCO,CA,,US,+1 415-391-9890,,Mo-Su 08:00-16:00,MoneyGram,Q1944412
16525986,peets_coffee_us,Embarcadero,,San Francisco,CA,,US,+1 415-869-1744,https://peets.app.link?&$fallback_url=https%3A%2F%2Forder.peets.com%2Flocation%2Fembarcadero%2Fmenu&$type=order&~campaign=orderaheadonline&~channel=web&~feature=menu&~tags=embarcadero,Mo-Fr 05:00-17:00; Sa 08:00-14:00,Peet's Coffee,Q1094101
https://local.safeway.com/#5604651,safeway,Safeway,,San Francisco,CA,,US,+1 415-982-3112,https://local.safeway.com/safeway/ca/san-francisco/145-jackson-st.html,Mo-Su 06:00-23:00,Safeway,Q1508234
https://restaurants.subway.com/#14904806,subway,Subway,,San Francisco San Francisco,CA,,US,+1 415-778-6368,https://restaurants.subway.com/united-states/ca/san-francisco/425-d-battery-street,Mo-Fr 08:30-18:00; Sa 10:00-15:30; Su 10:30-14:30,Subway,Q244457
https://restaurants.subway.com/#14896703,subway,Subway,,San Francisco San Francisco,CA,,US,+1 415-391-2848,https://restaurants.subway.com/united-states/ca/san-francisco/388-market-street,Mo-Fr 07:00-23:00; Sa-Su 07:00-21:00,Subway,Q244457
https://restaurants.subway.com/#14906052,subway,Subway,,San Francisco San Francisco,CA,,US,+1 415-386-1913,https://restaurants.subway.com/united-states/ca/san-francisco/160-broadway-street,Mo-Fr 09:30-18:00,Subway,Q244457
82981,supercuts,Battery Street,18 Battery St,San Francisco,CA,,US,+1 415-391-5340,https://www.supercuts.com/checkin/82981,Mo-Sa 10:00-18:00,Supercuts,Q7643239
1364550,usps,GATEWAY SAN FRANCISCO,,SAN FRANCISCO,CA,,US,+1 415-986-3494,,Mo-Fr 08:30-17:00,United States Postal Service,Q668687
9411100178,usps_collection_boxes,USPS COLLECTION BOX - BLUE BOX,1700 MONTGOMERY ST,SAN FRANCISCO,CA,,US,,,,United States Postal Service,Q668687
9411100138,usps_collection_boxes,USPS COLLECTION BOX - BLUE BOX,150 LOMBARD ST,SAN FRANCISCO,CA,,US,,,,United States Postal Service,Q668687
9411100139,usps_collection_boxes,USPS COLLECTION BOX - BLUE BOX,150 LOMBARD ST,SAN FRANCISCO,CA,,US,,,,United States Postal Service,Q668687
9411100182,usps_collection_boxes,USPS COLLECTION BOX - BLUE BOX,1300 SANSOME ST,SAN FRANCISCO,CA,,US,,,,United States Postal Service,Q668687
9411100002,usps_collection_boxes,USPS COLLECTION BOX - BLUE BOX,1300 SANSOME ST,SAN FRANCISCO,CA,,US,,,,United States Postal Service,Q668687
9411100181,usps_collection_boxes,USPS COLLECTION BOX - EXPRESS,1045 BATTERY ST,SAN FRANCISCO,CA,,US,,,,United States Postal Service,Q668687
9411100037,usps_collection_boxes,USPS COLLECTION BOX - BLUE BOX,999 BATTERY ST,SAN FRANCISCO,CA,,US,,,,United States Postal Service,Q668687
9411100063,usps_collection_boxes,USPS COLLECTION BOX - BLUE BOX,1045 SANSOME ST,SAN FRANCISCO,CA,,US,,,,United States Postal Service,Q668687
9411100116,usps_collection_boxes,USPS COLLECTION BOX - BLUE BOX,875 BATTERY ST,SAN FRANCISCO,CA,,US,,,,United States Postal Service,Q668687
9411100172,usps_collection_boxes,USPS COLLECTION BOX - BLUE BOX,749 FRONT ST,SAN FRANCISCO,CA,,US,,,,United States Postal Service,Q668687
9411100171,usps_collection_boxes,USPS COLLECTION BOX - BLUE BOX,749 FRONT ST,SAN FRANCISCO,CA,,US,,,,United States Postal Service,Q668687
9411100179,usps_collection_boxes,USPS COLLECTION BOX - EXPRESS,749 FRONT ST,SAN FRANCISCO,CA,,US,,,,United States Postal Service,Q668687
9411100080,usps_collection_boxes,USPS COLLECTION BOX - BLUE BOX,901 SANSOME ST,SAN FRANCISCO,CA,,US,,,,United States Postal Service,Q668687
9411100027,usps_collection_boxes,USPS COLLECTION BOX - BLUE BOX,201 PACIFIC AVE,SAN FRANCISCO,CA,,US,,,,United States Postal Service,Q668687
9411100126,usps_collection_boxes,USPS COLLECTION BOX - BLUE BOX,800 SANSOME ST,SAN FRANCISCO,CA,,US,,,,United States Postal Service,Q668687
9411100109,usps_collection_boxes,USPS COLLECTION BOX - BLUE BOX,255 CALIFORNIA ST,SAN FRANCISCO,CA,,US,,,,United States Postal Service,Q668687
9411100140,usps_collection_boxes,USPS COLLECTION BOX - BLUE BOX,800 SANSOME ST,SAN FRANCISCO,CA,,US,,,,United States Postal Service,Q668687
9411100008,usps_collection_boxes,USPS COLLECTION BOX - BLUE BOX,1 PIER,SAN FRANCISCO,CA,,US,,,,United States Postal Service,Q668687
9411100168,usps_collection_boxes,USPS COLLECTION BOX - BLUE BOX,150 JACKSON ST,SAN FRANCISCO,CA,,US,,,,United States Postal Service,Q668687
9411100169,usps_collection_boxes,USPS COLLECTION BOX - BLUE BOX,150 JACKSON ST,SAN FRANCISCO,CA,,US,,,,United States Postal Service,Q668687
9411100083,usps_collection_boxes,USPS COLLECTION BOX - BLUE BOX,600 BATTERY ST,SAN FRANCISCO,CA,,US,,,,United States Postal Service,Q668687
9411100017,usps_collection_boxes,USPS COLLECTION BOX - BLUE BOX,704 SANSOME ST,SAN FRANCISCO,CA,,US,,,,United States Postal Service,Q668687
9411100175,usps_collection_boxes,USPS COLLECTION BOX - BLUE BOX,704 SANSOME ST,SAN FRANCISCO,CA,,US,,,,United States Postal Service,Q668687
9411100077,usps_collection_boxes,USPS COLLECTION BOX - BLUE BOX,745 MONTGOMERY ST,SAN FRANCISCO,CA,,US,,,,United States Postal Service,Q668687
9411100121,usps_collection_boxes,USPS COLLECTION BOX - BLUE BOX,745 MONTGOMERY ST,SAN FRANCISCO,CA,,US,,,,United States Postal Service,Q668687
9411100137,usps_collection_boxes,USPS COLLECTION BOX - EXPRESS,745 MONTGOMERY ST,SAN FRANCISCO,CA,,US,,,,United States Postal Service,Q668687
9411100184,usps_collection_boxes,USPS COLLECTION BOX - BLUE BOX,401 WASHINGTON ST,SAN FRANCISCO,CA,,US,,,,United States Postal Service,Q668687
9411100132,usps_collection_boxes,USPS COLLECTION BOX - BLUE BOX,498 CLAY ST,SAN FRANCISCO,CA,,US,,,,United States Postal Service,Q668687
9411100113,usps_collection_boxes,USPS COLLECTION BOX - BLUE BOX,198 SACRAMENTO ST,SAN FRANCISCO,CA,,US,,,,United States Postal Service,Q668687
9411100073,usps_collection_boxes,USPS COLLECTION BOX - EXPRESS,198 SACRAMENTO ST,SAN FRANCISCO,CA,,US,,,,United States Postal Service,Q668687
9411100028,usps_collection_boxes,USPS COLLECTION BOX - BLUE BOX,100 SACRAMENTO ST,SAN FRANCISCO,CA,,US,,,,United States Postal Service,Q668687
9411100048,usps_collection_boxes,USPS COLLECTION BOX - BLUE BOX,498 CLAY ST,SAN FRANCISCO,CA,,US,,,,United States Postal Service,Q668687
9411100026,usps_collection_boxes,USPS COLLECTION BOX - BLUE BOX,498 CLAY ST,SAN FRANCISCO,CA,,US,,,,United States Postal Service,Q668687
9411100143,usps_collection_boxes,USPS COLLECTION BOX - BLUE BOX,100 SACRAMENTO ST,SAN FRANCISCO,CA,,US,,,,United States Postal Service,Q668687
9411100188,usps_collection_boxes,USPS COLLECTION BOX - APC,1 EMBARCADERO CTR,SAN FRANCISCO,CA,,US,,,,United States Postal Service,Q668687
9411100189,usps_collection_boxes,USPS COLLECTION BOX - PO LOBBY,1 EMBARCADERO CTR,SAN FRANCISCO,CA,,US,,,,United States Postal Service,Q668687
9411100190,usps_collection_boxes,USPS COLLECTION BOX - PO LOBBY,1 EMBARCADERO CTR,SAN FRANCISCO,CA,,US,,,,United States Postal Service,Q668687
9411100191,usps_collection_boxes,USPS COLLECTION BOX - PO LOBBY,1 EMBARCADERO CTR,SAN FRANCISCO,CA,,US,,,,United States Postal Service,Q668687
9411100200,usps_collection_boxes,USPS COLLECTION BOX - PO LOBBY,1 EMBARCADERO CTR,SAN FRANCISCO,CA,,US,,,,United States Postal Service,Q668687
9411100067,usps_collection_boxes,USPS COLLECTION BOX - BLUE BOX,198 SACRAMENTO ST,SAN FRANCISCO,CA,,US,,,,United States Postal Service,Q668687
9411100130,usps_collection_boxes,USPS COLLECTION BOX - BLUE BOX,550 MONTGOMERY ST,SAN FRANCISCO,CA,,US,,,,United States Postal Service,Q668687
9411100055,usps_collection_boxes,USPS COLLECTION BOX - BLUE BOX,550 MONTGOMERY ST,SAN FRANCISCO,CA,,US,,,,United States Postal Service,Q668687
9411100041,usps_collection_boxes,USPS COLLECTION BOX - BLUE BOX,550 MONTGOMERY ST,SAN FRANCISCO,CA,,US,,,,United States Postal Service,Q668687
9411100122,usps_collection_boxes,USPS COLLECTION BOX - EXPRESS,550 MONTGOMERY ST,SAN FRANCISCO,CA,,US,,,,United States Postal Service,Q668687
9411100015,usps_collection_boxes,USPS COLLECTION BOX - BLUE BOX,399 SACRAMENTO ST,SAN FRANCISCO,CA,,US,,,,United States Postal Service,Q668687
9411100161,usps_collection_boxes,USPS COLLECTION BOX - BLUE BOX,401 SANSOME ST,SAN FRANCISCO,CA,,US,,,,United States Postal Service,Q668687
9411100040,usps_collection_boxes,USPS COLLECTION BOX - BLUE BOX,399 SACRAMENTO ST,SAN FRANCISCO,CA,,US,,,,United States Postal Service,Q668687
9411100112,usps_collection_boxes,USPS COLLECTION BOX - BLUE BOX,401 SANSOME ST,SAN FRANCISCO,CA,,US,,,,United States Postal Service,Q668687
9411100009,usps_collection_boxes,USPS COLLECTION BOX - BLUE BOX,599 SACRAMENTO ST,SAN FRANCISCO,CA,,US,,,,United States Postal Service,Q668687
9411100069,usps_collection_boxes,USPS COLLECTION BOX - BLUE BOX,599 SACRAMENTO ST,SAN FRANCISCO,CA,,US,,,,United States Postal Service,Q668687
9411100039,usps_collection_boxes,USPS COLLECTION BOX - BLUE BOX,1 EMBARCADERO CTR,SAN FRANCISCO,CA,,US,,,,United States Postal Service,Q668687
9411100099,usps_collection_boxes,USPS COLLECTION BOX - BLUE BOX,1 EMBARCADERO CTR,SAN FRANCISCO,CA,,US,,,,United States Postal Service,Q668687
9411100170,usps_collection_boxes,USPS COLLECTION BOX - EXPRESS,1 EMBARCADERO CTR,SAN FRANCISCO,CA,,US,,,,United States Postal Service,Q668687
9411100097,usps_collection_boxes,USPS COLLECTION BOX - BLUE BOX,255 CALIFORNIA ST,SAN FRANCISCO,CA,,US,,,,United States Postal Service,Q668687
9411100142,usps_collection_boxes,USPS COLLECTION BOX - BLUE BOX,255 CALIFORNIA ST,SAN FRANCISCO,CA,,US,,,,United States Postal Service,Q668687
9411100003,usps_collection_boxes,USPS COLLECTION BOX - EXPRESS,255 CALIFORNIA ST,SAN FRANCISCO,CA,,US,,,,United States Postal Service,Q668687
9411100192,usps_collection_boxes,USPS COLLECTION BOX - PO LOBBY,180 STEUART ST,SAN FRANCISCO,CA,,US,,,,United States Postal Service,Q668687
9411100193,usps_collection_boxes,USPS COLLECTION BOX - PO LOBBY,180 STEUART ST,SAN FRANCISCO,CA,,US,,,,United States Postal Service,Q668687
9411100194,usps_collection_boxes,USPS COLLECTION BOX - PO LOBBY,180 STEUART ST,SAN FRANCISCO,CA,,US,,,,United States Postal Service,Q668687
9411100196,usps_collection_boxes,USPS COLLECTION BOX - PO LOBBY,180 STEUART ST,SAN FRANCISCO,CA,,US,,,,United States Postal Service,Q668687
9411100197,usps_collection_boxes,USPS COLLECTION BOX - APC,180 STEUART ST,SAN FRANCISCO,CA,,US,,,,United States Postal Service,Q668687
9411100072,usps_collection_boxes,USPS COLLECTION BOX - EXPRESS,100 PINE ST,SAN FRANCISCO,CA,,US,,,,United States Postal Service,Q668687
9411100148,usps_collection_boxes,USPS COLLECTION BOX - BLUE BOX,200 PINE ST,SAN FRANCISCO,CA,,US,,,,United States Postal Service,Q668687
9411100124,usps_collection_boxes,USPS COLLECTION BOX - BLUE BOX,100 PINE ST,SAN FRANCISCO,CA,,US,,,,United States Postal Service,Q668687
9411100033,usps_collection_boxes,USPS COLLECTION BOX - BLUE BOX,100 PINE ST,SAN FRANCISCO,CA,,US,,,,United States Postal Service,Q668687
9411100004,usps_collection_boxes,USPS COLLECTION BOX - BLUE BOX,100 PINE ST,SAN FRANCISCO,CA,,US,,,,United States Postal Service,Q668687
,visa,,,SAN FRANCISCO,CA,,US,,,,,
,visa,,,DANA POINT,CA,,US,,,,,
,visa,,,SAN FRANCISCO,CA,,US,,,,,
,visa,,,SAN FRANCISCO,CA,,US,,,,,
,visa,,,SAN FRANCISCO,CA,,US,,,,,
,visa,,,SAN FRANCISCO,CA,,US,,,,,
,visa,,,SAN FRANCISCO,CA,,US,,,,,
,visa,,,SAN FRANCISCO,CA,,US,,,,,
,visa,,,SAN FRANCISCO,CA,,US,,,,,
,visa,,,SAN FRANCISCO,CA,,US,,,,,
,visa,,,SAN FRANCISCO,CA,,US,,,,,
,visa,,,SAN FRANCISCO,CA,,US,,,,,
,visa,,,SAN FRANCISCO,CA,,US,,,,,
,visa,,,SAN FRANCISCO,CA,,US,,,,,
,visa,,,SAN FRANCISCO,CA,,US,,,,,
,visa,,,SAN FRANCISCO,CA,,US,,,,,
,visa,,,SAN FRANCISCO,CA,,US,,,,,
,visa,,,SAN FRANCISCO,CA,,US,,,,,
,visa,,,SAN FRANCISCO,CA,,US,,,,,
,visa,,,CORONA DELMAR,CA,,US,,,,,
,visa,,,SAN FRANCISCO,CA,,US,,,,,
,visa,,,SAN FRANCISCO,CA,,US,,,,,
,visa,,,SAN FRANCISCO,CA,,US,,,,,
,visa,,,SAN FRANCISCO,CA,,US,,,,,
,visa,,,SAN FRANCISCO,CA,,US,,,,,
,visa,,,SAN FRANCISCO,CA,,US,,,,,
,visa,,,SAN FRANCISCO,CA,,US,,,,,
,visa,,,SAN FRANCISCO,CA,,US,,,,,
,visa,,,SAN FRANCISCO,CA,,US,,,,,
,visa,,,SAN FRANCISCO,CA,,US,,,,,
,visa,,,SAN FRANCISCO,CA,,US,,,,,
,visa,,,SAN FRANCISCO,CA,,US,,,,,
,visa,,,SAN FRANCISCO,CA,,US,,,,,
,visa,,,SAN FRANCISCO,CA,,US,,,,,
,visa,,,SAN FRANCISCO,CA,,US,,,,,
,visa,,,SAN FRANCISCO,CA,,US,,,,,
,visa,,,SAN FRANCISCO,CA,,US,,,,,
,visa,,,SAN FRANCISCO,CA,,US,,,,,
,visa,,,SAN FRANCISCO,CA,,US,,,,,
,visa,,,SAN FRANCISCO,CA,,US,,,,,
,visa,,,SAN FRANCISCO,CA,,US,,,,,
,visa,,,SAN FRANCISCO,CA,,US,,,,,
,visa,,,SAN FRANCISCO,CA,,US,,,,,
,visa,,,SAN FRANCISCO,CA,,US,,,,,
,visa,,,SAN FRANCISCO,CA,,US,,,,,
,visa,,,SAN FRANCISCO,CA,,US,,,,,
,visa,,,SAN FRANCISCO,CA,,US,,,,,
,visa,,,SAN FRANCISCO,CA,,US,,,,,
292__BATTERY__ST_SAN__FRANCISCO_CA_94111,wellsfargo,Wells Fargo,292 BATTERY ST,SAN FRANCISCO,CA,,US,+1 415-396-5585,https://www.wellsfargo.com/locator/bank/292__BATTERY__ST_SAN__FRANCISCO_CA_94111/,Mo-Fr 09:00-17:00,Wells Fargo,Q744149
1__CALIFORNIA__ST_SAN__FRANCISCO_CA_94111,wellsfargo,Wells Fargo,1 CALIFORNIA ST,SAN FRANCISCO,CA,,US,+1 415-396-2779,https://www.wellsfargo.com/locator/bank/1__CALIFORNIA__ST_SAN__FRANCISCO_CA_94111/,Mo-Fr 09:00-17:00,Wells Fargo,Q744149
