Ref,Spider,Name,Address,City,State,Zipcode,Country,Phone,Website,Hours,Brand,WikiData
https://locations.99only.com/ca/torrance/discount-store-266.html,99_cents_only_us,99 Cents Only Stores,,Torrance,CA,,US,+1 310-515-7629,https://locations.99only.com/ca/torrance/discount-store-266.html,Mo 08:00-22:00; Tu 07:00-22:00; We 08:00-22:00; Th 07:00-22:00; Fr-Su 08:00-22:00,99 Cents Only Stores,Q4646294
https://locations.99only.com/ca/torrance/discount-store-65.html,99_cents_only_us,99 Cents Only Stores,,Torrance,CA,,US,+1 310-793-6911,https://locations.99only.com/ca/torrance/discount-store-65.html,Mo 08:00-22:00; Tu 07:00-22:00; We 08:00-22:00; Th 07:00-22:00; Fr-Su 08:00-22:00,99 Cents Only Stores,Q4646294
1000,att_us,SOUTH BAY STORE 309,,Torrance,CA,,US,+1 310-921-3435,https://www.att.com/stores/california/torrance/1000,Mo-Sa 10:00-20:00; Su 10:00-19:00,AT&T,Q298594
5944,autozone_us,AutoZone Auto Parts Torrance,,Torrance,CA,,US,+1 310-542-2717,https://www.autozone.com/locations/ca/torrance/17490-hawthorne.html,Mo-Su 08:00-21:00,AutoZone,Q4826087
https://locations.baskinrobbins.com/ca/torrance/3564-redondo-beach-bvd-359013-br,baskin_robbins_us,Baskin-Robbins™,,Torrance,CA,,US,+1 310-400-7014,https://locations.baskinrobbins.com/ca/torrance/3564-redondo-beach-bvd-359013-br,Mo-Su 11:00-22:00,Baskin-Robbins,Q584601
121944,bluerhino,G & M #91,,Torrance,CA,,US,+1 310-961-0138,,,Blue Rhino,Q65681213
204299,bluerhino,United Pacific #257,,Torrance,CA,,US,+1 310-436-3900,,,Blue Rhino,Q65681213
188276,bluerhino,Smart & Final #817,,Torrance,CA,,US,+1 310-538-5329,,,Blue Rhino,Q65681213
194596,bluerhino,Crenshaw Shell,,Hawthorne,CA,,US,+1 323-493-0852,,,Blue Rhino,Q65681213
41903_02,bmw_group,South Bay MINI,,Torrance,CA,,US,+1 424-275-2196,https://www.southbaymini.com,,Mini,Q116232
41903_1,bmw_group,"South Bay BMW, Certified Collision Repair Center",,Torrance,CA,,US,+1 310-626-4657,,,BMW,Q26678
41903_01,bmw_group,South Bay BMW,,Torrance,CA,,US,+1 310-939-7300,https://www.southbaybmw.com,,BMW,Q26678
36086,cadillac,PENSKE CADILLAC OF SOUTH BAY,,Torrance,CA,,US,+1 310-697-1800,https://www.penskecadillac.com,Mo-Sa 09:00-19:00; Su 10:00-18:00,Cadillac,Q27436
2039193,chase_us,North Torrance - New branch,,Torrance,CA,,US,+1 310-370-5536,https://locator.chase.com/ca/torrance/17200-s-hawthorne-blvd,Mo-Fr 09:00-17:00; Sa 09:00-14:00,Chase,Q524629
https://locations.chuckecheese.com/us/ca/torrance/16920-prairie-ave.,chuckecheese,Chuck E. Cheese,,Torrance,CA,,US,+1 310-542-7779,https://locations.chuckecheese.com/us/ca/torrance/16920-prairie-ave.,Mo-Th 11:00-21:00; Fr 11:00-22:00; Sa 10:00-22:00; Su 11:00-21:00,Chuck E. Cheese,Q2438391
26810,citi,ATM 7ELEVEN-FCTI,,Torrance,CA,,US,,,,Citibank,Q857063
55159,citi,ATM Fernando Business Services,,Torrance,CA,,US,,,,Citibank,Q857063
29445,citi,ATM 7ELEVEN-FCTI,,Torrance,CA,,US,,,,Citibank,Q857063
29457,citi,ATM 7ELEVEN-FCTI,,Torrance,CA,,US,,,,Citibank,Q857063
26809,citi,ATM 7ELEVEN-FCTI,,Torrance,CA,,US,,,,Citibank,Q857063
26419,citi,ATM 7ELEVEN-FCTI,,Torrance,CA,,US,,,,Citibank,Q857063
34781,citi,ATM Ampm,,Torrance,CA,,US,,,,Citibank,Q857063
20691,coldstone_creamery,Cold Stone Creamery,,Torrance,CA,,US,+1 310-214-1123,https://www.coldstonecreamery.com/stores/20691,,Cold Stone Creamery,Q1094923
Westgate,dsw,DSW,,Torrance,CA,,US,+1 310-370-9918,https://stores.dsw.com/usa/ca/torrance/dsw-designer-shoe-warehouse-westgate.html,Mo-Sa 10:00-20:00; Su 11:00-19:00,Designer Shoe Warehouse,Q5206207
https://www.harborfreight.com/storelocator/4310-artesia-blvd-torrance-90504?number=425,harborfreight,"Harbor Freight Tools Torrance, CA",,Torrance,CA,,US,+1 310-370-0860,https://www.harborfreight.com/storelocator/4310-artesia-blvd-torrance-90504?number=425,Mo-Sa 08:00-20:00; Su 09:00-18:00,Harbor Freight Tools,Q5654601
3677,h_r_block,H&R Block,,Torrance,CA,,US,+1 310-371-1260,https://www.hrblock.com/local-tax-offices/california/torrance/18537-hawthorne-blvd/3677/,,H&R Block,Q5627799
https://locations.jackinthebox.com/us/ca/torrance/2186-redondo-beach-blvd,jackinthebox,Jack in the Box,,Torrance,CA,,US,+1 310-538-1459,https://locations.jackinthebox.com/us/ca/torrance/2186-redondo-beach-blvd,Mo-Th 06:00-00:00; Fr-Sa 06:00-01:00; Su 06:00-00:00,Jack in the Box,Q1538507
https://locations.jackinthebox.com/us/ca/torrance/17916-hawthorne-blvd,jackinthebox,Jack in the Box,,Torrance,CA,,US,+1 310-370-9262,https://locations.jackinthebox.com/us/ca/torrance/17916-hawthorne-blvd,Mo-We 06:00-02:00; Th-Sa 04:00-04:00; Su 06:00-02:00,Jack in the Box,Q1538507
https://locations.jackinthebox.com/us/ca/torrance/3940-redondo-beach-blvd,jackinthebox,Jack in the Box,,Torrance,CA,,US,+1 310-715-6494,https://locations.jackinthebox.com/us/ca/torrance/3940-redondo-beach-blvd,Mo-Su 06:00-22:00,Jack in the Box,Q1538507
https://locations.kfc.com/#11248018,kfc,Chicken Nuggets Near Torrance,,Torrance,CA,,US,,https://locations.kfc.com/ca/torrance/16502-south-crenshaw-boulevard/chickennugget,Mo-Su 10:00-22:00,KFC,Q524757
104511,little_free_library,"4 Brooklyn, Parker & Cash #104511 Torrance CA",,Torrance,CA,,US,,,,Little Free Library,Q6650101
25013,little_free_library,Donna Heise #25013 Torrance CA,,Torrance,CA,,US,,,,Little Free Library,Q6650101
150679,little_free_library,LHummingbird library #150679 Torrance CA,,Torrance,CA,,US,,,,Little Free Library,Q6650101
158922,little_free_library,April’s Little Free Library #158922 Torrance CA,,Torrance,CA,,US,,,,Little Free Library,Q6650101
87988,little_free_library,"North Torrance, CA, LFL #87988 Torrance CA",,Torrance,CA,,US,,,,Little Free Library,Q6650101
46029,little_free_library,Gary Sisson #46029 Torrance CA,,Torrance,CA,,US,,,,Little Free Library,Q6650101
160363,little_free_library,Arlington Free Little Library (Mobile) #160363 Torrance CA,,Torrance,CA,,US,,,,Little Free Library,Q6650101
286317,marathon_petroleum_us,ARCO #42090 AMPM,,Torrance,CA,,US,+1 310-329-2009,,,Arco,Q304769
286615,marathon_petroleum_us,ARCO #42570 AMPM,,Torrance,CA,,US,+1 310-329-2129,,,Arco,Q304769
17961,mattress_firm_us,Mattress Firm Torrance,,Torrance,CA,,US,+1 424-306-2161,https://www.mattressfirm.com/en-us/stores/ca/torrance/513004/,,Mattress Firm,Q6791878
74110683,moneygram,REYNA'S TOUCH OF BEAUTY SUPPLY,,TORRANCE,CA,,US,+1 310-516-1873,,Mo-Su 08:00-21:00,MoneyGram,Q1944412
0000893857,phillips_66_conoco_76,DBA FERNANDO BUSINESS SERVICES,,TORRANCE,CA,,US,+1 661-877-2000,,,U76,Q1658320
ca_torrance_2208-artesia-blvd,pizza_hut_us,2208 Artesia Blvd,,Torrance,CA,,US,+1 310-329-9900,https://locations.pizzahut.com/ca/torrance/2208-artesia-blvd,,Pizza Hut,Q191615
993377,rocket_us,Rocket,,Torrance,CA,,US,+1 310-436-3900,,,Rocket,Q121513516
2074,round_table_pizza,Round Table Pizza Redondo Beach Blvd,,Torrance ,CA,,US,+1 310-371-8009,https://ordering.roundtablepizza.com/site/rtp500,,Round Table Pizza,Q7371139
878,sizzler_us,Sizzler,,Torrance,CA,,US,+1 310-371-0775,https://sizzler.com/locations/sizzler-torrance/,Mo-Th 11:00-21:00; Fr-Sa 11:00-21:30; Su 11:00-21:00,Sizzler,Q1848822
https://locations.tacobell.com/#6145939,taco_bell,Taco Bell,,Torrance,CA,,US,+1 310-327-3614,https://locations.tacobell.com/ca/torrance/16414-crenshaw-blvd.html,Mo-Fr 07:00-24:00; Sa-Su 09:00-24:00,Taco Bell,Q752941
1375461,usps,NORTH TORRANCE,,TORRANCE,CA,,US,+1 310-324-2975,,Mo-Fr 08:30-17:00,United States Postal Service,Q668687
9050400011,usps_collection_boxes,USPS COLLECTION BOX - BLUE BOX,3615 ARTESIA BLVD,TORRANCE,CA,,US,,,,United States Postal Service,Q668687
9050400009,usps_collection_boxes,USPS COLLECTION BOX - BLUE BOX,16741 CRENSHAW BLVD,TORRANCE,CA,,US,,,,United States Postal Service,Q668687
9050400028,usps_collection_boxes,USPS COLLECTION BOX - PO LOBBY,18080 CRENSHAW BLVD LOBBY,TORRANCE,CA,,US,,,,United States Postal Service,Q668687
9050400013,usps_collection_boxes,USPS COLLECTION BOX - BLUE BOX,18080 CRENSHAW BLVD,TORRANCE,CA,,US,,,,United States Postal Service,Q668687
9050400023,usps_collection_boxes,USPS COLLECTION BOX - PO LOBBY,18080 CRENSHAW BLVD LOBBY,TORRANCE,CA,,US,,,,United States Postal Service,Q668687
9050400024,usps_collection_boxes,USPS COLLECTION BOX - APC,18080 CRENSHAW BLVD LOBBY,TORRANCE,CA,,US,,,,United States Postal Service,Q668687
9050400007,usps_collection_boxes,USPS COLLECTION BOX - BLUE BOX,18205 DORMAN AVE,TORRANCE,CA,,US,,,,United States Postal Service,Q668687
,visa,,,TORRANCE,CA,,US,,,,,
,visa,,,TORRANCE,CA,,US,,,,,
,visa,,,TORRANCE,CA,,US,,,,,
,visa,,,TORRANCE,CA,,US,,,,,
,visa,,,TORRANCE,CA,,US,,,,,
,visa,,,TORRANCE,CA,,US,,,,,
,visa,,,TORRANCE,CA,,US,,,,,
,visa,,,TORRANCE,CA,,US,,,,,
,visa,,,TORRANCE,CA,,US,,,,,
,visa,,,TORRANCE,CA,,US,,,,,
,visa,,,TORRANCE,CA,,US,,,,,
,visa,,,TORRANCE,CA,,US,,,,,
,visa,,,TORRANCE,CA,,US,,,,,
,visa,,,TORRANCE,CA,,US,,,,,
,visa,,,TORRANCE,CA,,US,,,,,
,visa,,,TORRANCE,CA,,US,,,,,
,visa,,,TORRANCE,CA,,US,,,,,
,visa,,,TORRANCE,CA,,US,,,,,
,visa,,,TORRANCE,CA,,US,,,,,
,visa,,,TORRANCE,CA,,US,,,,,
,visa,,,INGLEWOOD,CA,,US,,,,,
,visa,,,INGLEWOOD,CA,,US,,,,,
,visa,,,TORRANCE,CA,,US,,,,,
,visa,,,TORRANCE,CA,,US,,,,,
,visa,,,TORRANCE,CA,,US,,,,,
,visa,,,TORRANCE,CA,,US,,,,,
,visa,,,TORRANCE,CA,,US,,,,,
,visa,,,TORRANCE,CA,,US,,,,,
,visa,,,TORRANCE,CA,,US,,,,,
,visa,,,TORRANCE,CA,,US,,,,,
,visa,,,TORRANCE,CA,,US,,,,,
,visa,,,TORRANCE,CA,,US,,,,,
,visa,,,TORRANCE,CA,,US,,,,,
,visa,,,TORRANCE,CA,,US,,,,,
,visa,,,TORRANCE,CA,,US,,,,,
,visa,,,TORRANCE,CA,,US,,,,,
,visa,,,TORRANCE,CA,,US,,,,,
,visa,,,TORRANCE,CA,,US,,,,,
,visa,,,TORRANCE,CA,,US,,,,,
,visa,,,TORRANCE,CA,,US,,,,,
,visa,,,TORRANCE,CA,,US,,,,,
4340__ARTESIA__BLVD_TORRANCE_CA_90504,wellsfargo,Wells Fargo,4340 ARTESIA BLVD,TORRANCE,CA,,US,+1 310-370-4802,https://www.wellsfargo.com/locator/bank/4340__ARTESIA__BLVD_TORRANCE_CA_90504/,Mo-Fr 09:00-17:00,Wells Fargo,Q744149
9b4f0cb37d11c8cd3f09349940537f5c,western_union,7-ELEVEN #21475,,Torrance,CA,,US,+1 310-323-1275,https://location.westernunion.com/us/ca/torrance/9b4f0cb37d11c8cd3f09349940537f5c,,Western Union,Q861042
288c057449482d6e2e0d3b7ad03629a1,western_union,7-ELEVEN #24246,,Torrance,CA,,US,+1 310-370-2892,https://location.westernunion.com/us/ca/torrance/288c057449482d6e2e0d3b7ad03629a1,,Western Union,Q861042
9027,wingstop,Wingstop Torrance Crenshaw,17419 Crenshaw Blvd,Torrance,CA,,US,+1 310-516-1700,,,Wingstop,Q8025339
