Ref,Spider,Name,Address,City,State,Zipcode,Country,Phone,Website,Hours,Brand,WikiData
https://stores.advanceautoparts.com/nj/woodbridge/322-us-highway-9-n,advance_auto_parts_us,Advance Auto Parts,,Woodbridge,NJ,,US,+1 732-324-6213,https://stores.advanceautoparts.com/nj/woodbridge/322-us-highway-9-n,Mo-Sa 07:30-21:00; Su 09:00-20:00,Advance Auto Parts,Q4686051
https://stores.aldi.us/#4419858,aldi_sud_us,ALDI  450 King Georges Rd,,Woodbridge,NJ,,US,+1 855-460-7038,https://stores.aldi.us/nj/woodbridge/450-king-georges-rd,"Mo-Su 08:30-20:00,09:00-20:00",ALDI,Q41171672
https://restaurants.applebees.com/en-us/nj/woodbridge/251-woodbridge-center-drive-92014,applebees,Connect with this Applebee's,,Woodbridge,NJ,,US,+1 732-855-5300,https://restaurants.applebees.com/en-us/nj/woodbridge/251-woodbridge-center-drive-92014,Mo-Th 11:00-24:00; Fr-Sa 11:00-01:00; Su 11:00-22:00,Applebees,Q621532
11733,asics_us,DICK'S Sporting Goods  - Woodbridge ,366 Woodbridge Center Dr,Woodbridge,NJ,,US,+1 732-621-8400,,Mo-Sa 09:00-21:00; Su 10:00-19:00,asics,Q327247
62321,asics_us,Finish Line,250 Woodbridge Center Dr,Woodbridge,NJ,,US,+1 732-734-8595,,,asics,Q327247
2615,att_us,WOODBRIDGE MALL STORE,,Woodbridge,NJ,,US,+1 732-855-0555,https://www.att.com/stores/new-jersey/woodbridge/2615,Mo-Th 11:00-20:00; Fr-Sa 10:00-21:00; Su 11:00-19:00,AT&T,Q298594
https://locations.auntieannes.com/#8233,auntie_annes,"Auntie Anne's Thomas Edison Service Plaza, NJ Turnpike",,Woodbridge,NJ,,US,+1 732-306-1732,https://locations.auntieannes.com/nj/woodbridge/new-jersey-turnpike,Mo-Su 10:00-19:00,Auntie Anne's,Q4822010
https://locations.auntieannes.com/#6257,auntie_annes,"Auntie Anne's Grover Cleveland Travel Plaza, NJ Turnpike",,Woodbridge,NJ,,US,+1 732-636-1292,https://locations.auntieannes.com/nj/woodbridge/between-interchange-11-and-12-northbound,Fr-Su 10:00-18:00,Auntie Anne's,Q4822010
https://locations.auntieannes.com/#6113,auntie_annes,Auntie Anne's Woodbridge Mall RU,,Woodbridge,NJ,,US,+1 732-283-1566,https://locations.auntieannes.com/nj/woodbridge/415-woodbridge-center-dr-6113,,Auntie Anne's,Q4822010
https://locations.auntieannes.com/#6111,auntie_annes,Auntie Anne's Woodbridge Center,,Woodbridge,NJ,,US,+1 732-283-0102,https://locations.auntieannes.com/nj/woodbridge/415-woodbridge-center-dr-6111,Mo-Sa 11:00-19:00; Su 12:00-18:00,Auntie Anne's,Q4822010
https://locations.auntieannes.com/#6185,auntie_annes,Auntie Anne's Woodbridge Walmart Subway,,Woodbridge,NJ,,US,+1 732-826-0123,https://locations.auntieannes.com/nj/woodbridge/306-us-highway-9-north,Mo-Sa 10:00-21:00; Su 10:00-18:00,Auntie Anne's,Q4822010
4791,autozone_us,AutoZone Auto Parts Woodbridge,,Woodbridge,NJ,,US,+1 732-596-1320,https://www.autozone.com/locations/nj/woodbridge/849-st-georges-ave.html,Mo-Sa 07:30-22:00; Su 08:00-21:00,AutoZone,Q4826087
https://www.banfield.com/locations/veterinarians/nj/woodbridge/wdb,banfield_pet_hospital,Woodbridge,,Woodbridge,NJ,,US,+1 732-602-1925,https://www.banfield.com/locations/veterinarians/nj/woodbridge/wdb,Mo-Sa 08:00-18:00; Su 09:00-17:00,Banfield Pet Hospital,Q2882416
https://locators.bankofamerica.com/nj/woodbridge/atm-woodbridge-110993.html,bankofamerica,Bank of America Walk-Up ATM | 122 Main,,Woodbridge,NJ,,US,+1 844-401-8500,https://locators.bankofamerica.com/nj/woodbridge/atm-woodbridge-110993.html,,Bank of America,Q487907
BBW00704,bathandbodyworks_us,WOODBRIDGE CENTER,,WOODBRIDGE,NJ,,US,+1 732-636-1110,,Mo-Th 11:00-20:00; Fr-Sa 10:00-21:00; Su 11:00-18:00,Bath & Body Works,Q810773
https://local.biglots.com/#13189895,biglots,Big Lots - Woodbridge,,Woodbridge,NJ,,US,+1 732-636-1648,https://local.biglots.com/nj/woodbridge/471-green-st,Mo-Su 09:00-21:00,Big Lots,Q4905973
71989,bluerhino,Lowe's #1658,,Woodbridge,NJ,,US,+1 732-734-2000,,,Blue Rhino,Q65681213
78146,bluerhino,Walmart #5281,,Woodbridge,NJ,,US,+1 732-826-4652,,,Blue Rhino,Q65681213
116733,bluerhino,Raceway #2135,,Woodbridge,NJ,,US,+1 732-324-5799,,,Blue Rhino,Q65681213
151193,bluerhino,Walgreens #4545,,Woodbridge,NJ,,US,+1 732-326-9782,,,Blue Rhino,Q65681213
56738_50001,bmw_group,"Heavenly Autobody, Independent Certified Collision Repair Center of Open Road BMW",,Woodbridge,NJ,,US,+1 732-726-1114,,,BMW,Q26678
14915,burgerking,Burger King,,Woodbridge Township,NJ,,US,+1 732-582-5834,https://www.bk.com/store-locator/store/restaurant_8943,24/7,Burger King,Q177054
830,burlington_us,Burlington,,Woodbridge,NJ,,US,+1 732-634-3525,https://stores.burlington.com/nj/woodbridge/830,Mo-Su 08:00-22:00,Burlington,Q4999220
23197,cadillac,"MCGUIRE CADILLAC, INC.",,Woodbridge,NJ,,US,+1 866-552-4208,https://www.mcguirecadillac.com,Mo-Fr 09:00-19:00; Sa 09:00-18:00,Cadillac,Q27436
//locations.carters.com/nj/woodbridge/carters-woodbridge-nj,carters_us,Carter's Woodbridge,,Woodbridge,NJ,,US,+1 732-634-1952,https://locations.carters.com/nj/woodbridge/carters-woodbridge-nj,Mo-Th 11:00-20:00; Fr-Sa 10:00-21:00; Su 11:00-18:00,Carter's,Q5047083
nj_woodbridge_318-us-highway-9-n,chipotle, ,,Woodbridge,NJ,,US,+1 732-442-5281,https://locations.chipotle.com/nj/woodbridge/318-us-highway-9-n,,Chipotle,Q465751
NJ242,citizens_us,Citizens Woodbridge,,Woodbridge,NJ,,US,+1 732-283-9600,,Mo-Fr 09:00-16:00; Sa 09:00-12:00,Citizens,Q5122694
ATM-2835,citizens_us,,,Woodbridge,NJ,,US,+1 732-621-5789,,24/7,Citizens,Q5122694
woodbridge/6530,claires,Shop Ear Piercings & Jewelry at Woodbridge Center,,WOODBRIDGE,NJ,,US,+1 732-634-4405,https://stores.claires.com/us/nj/woodbridge/6530.html,Mo-Th 11:00-20:00; Fr-Sa 10:00-21:00; Su 11:00-18:00,Claire's,Q2974996
23448,coldstone_creamery,Cold Stone Creamery,,Woodbridge Township,NJ,,US,+1 732-602-2400,https://www.coldstonecreamery.com/stores/23448,,Cold Stone Creamery,Q1094923
160,crunch_fitness,Crunch Fitness,,Woodbridge,NJ,,US,+1 732-510-1400,https://www.crunch.com/locations/woodbridge,,Crunch Fitness,Q5190093
1275,cvs_us,CVS Pharmacy,,Woodbridge,NJ,,US,+1 732-634-6394,https://www.cvs.com/store-locator/woodbridge-nj-pharmacies/107-113-main-st-the-ostrower-bldg-woodbridge-nj-07095/storeid=1275,Mo-Su 08:00-22:00,CVS Pharmacy,Q2078880
450,dickssportinggoods,"DICK'S Sporting Goods Store in Woodbridge, NJ | 450",,Woodbridge,NJ,,US,+1 732-621-8400,https://stores.dickssportinggoods.com/nj/woodbridge/450/,Mo-Sa 09:00-21:00; Su 10:00-19:00,Dick's Sporting Goods,Q5272601
4542,dominos_pizza_us,Domino's Pizza,,Woodbridge,NJ,,US,+1 732-750-3730,https://pizza.dominos.com/new-jersey/woodbridge/448-rahway-avenue,Mo-Th 10:30-24:00; Fr-Sa 10:30-02:00; Su 10:30-24:00,Domino's,Q839466
338224,dunkin_us,Dunkin',,Woodbridge,NJ,,US,+1 732-855-8580,https://locations.dunkindonuts.com/en/nj/woodbridge/887-st-georges-ave/338224,Mo-Su 06:00-20:00,Dunkin',Q847743
356422,dunkin_us,Dunkin',,Woodbridge,NJ,,US,+1 732-361-1790,https://locations.dunkindonuts.com/en/nj/woodbridge/428-woodbridge-center-dr/356422,Mo-Fr 10:00-20:00; Sa 10:00-21:00; Su 11:00-18:00,Dunkin',Q847743
338660,dunkin_us,Dunkin',,Woodbridge,NJ,,US,+1 732-750-0137,https://locations.dunkindonuts.com/en/nj/woodbridge/999-rahway-ave/338660,Mo-Su 05:00-21:00,Dunkin',Q847743
331286,dunkin_us,Dunkin',,Woodbridge,NJ,,US,+1 732-855-8962,https://locations.dunkindonuts.com/en/nj/woodbridge/458-amboy-ave/331286,Mo-Su 05:00-21:00,Dunkin',Q847743
340856,dunkin_us,Dunkin',,Woodbridge,NJ,,US,+1 732-596-1250,https://locations.dunkindonuts.com/en/nj/woodbridge/1152-us-hwy-9-north/340856,Mo-Su 05:00-21:00,Dunkin',Q847743
0338,european_wax_center_us,European Wax Center,,Woodbridge,NJ,,US,+1 732-602-8900,https://locations.waxcenter.com/nj/woodbridge/woodbridge-0338.html,Mo-Fr 09:00-20:00; Sa 08:00-16:00; Su 09:00-16:00,European Wax Center,Q5413426
250-woodbridge-center-dr,express,Woodbridge Center,,Woodbridge,NJ,,US,+1 732-855-0777,https://stores.express.com/us/nj/woodbridge/250-woodbridge-center-dr,Mo-Th 11:00-20:00; Fr-Sa 10:00-21:00; Su 11:00-18:00,Express,Q1384784
200329683,exxonmobil,JAI DURGA GASOLINE INC,,WOODBRIDGE,NJ,,US,+1 732-857-0706,https://www.exxon.com/en/find-station/mobil-woodbridge-nj-jaidurgagasolineinc-200329683,Mo-Su 05:00-23:00,Mobil,Q109676002
17973,firestone_auto_care,Firestone Complete Auto Care,,Woodbridge,NJ,,US,+1 732-734-0189,https://local.firestonecompleteautocare.com/new-jersey/woodbridge/999-woodbridge-center-dr/,,Firestone,Q420837
https://locations.fivebelow.com/nj/woodbridge/25-woodbridge-center-drive,five_below,Five Below Crosspointe Town Square,,Woodbridge,NJ,,US,,https://locations.fivebelow.com/nj/woodbridge/25-woodbridge-center-drive,Mo-Sa 10:00-20:00; Su 11:00-18:00,Five Below,Q5455836
https://stores.footlocker.com/nj/woodbridge/152-woodbridge-center-7224.html,footlocker,"Foot Locker in Woodbridge: Woodbridge, New Jersey | Approved | Own It",,Woodbridge,NJ,,US,+1 732-636-1443,https://stores.footlocker.com/nj/woodbridge/152-woodbridge-center-7224.html,Mo-Th 11:00-20:00; Fr-Sa 10:00-21:00; Su 11:00-18:00,Foot Locker,Q63335
Motorcraft3219USAEnglish,ford,Loman Ford Inc,,New Jersey,NJ,,US,+1 732-636-3200,,,Ford,Q44294
https://locations.forever21.com/#35646768,forever21_us,Woodbridge Center,,Woodbridge,NJ,,US,+1 732-621-2094,https://locations.forever21.com/us/stores/nj/woodbridge/173-woodbridge-center-dr,Mo-Th 11:00-19:00; Fr-Sa 11:00-20:00; Su 11:00-18:00,Forever 21,Q1060537
0625,gamestop_us,St. Georges Crossing,,Woodbridge,NJ,,US,+1 732-750-9424,https://www.gamestop.com/search/?store=0625,Mo-Th 12:00-20:00; Fr-Sa 10:00-21:00; Su 12:00-19:00,GameStop,Q202210
https://stores.gnc.com/#24058713,gnc,GNC Woodbridge Center Mall,,,NJ,,US,+1 732-636-9851,https://stores.gnc.com/all-stores-new-jersey/woodbridge/133-woodbridge-mall,Mo-Th 11:00-20:00; Fr-Sa 10:00-21:00; Su 11:00-18:00,GNC,Q4808595
0276,helzberg_diamonds,Helzberg Diamonds,,Woodbridge,NJ,,US,+1 732-596-9094,https://www.helzberg.com/store?storeId=0276,Mo-Th 11:00-20:00; Fr-Sa 10:00-20:00; Su 11:00-18:00,Helzberg Diamonds,Q16995161
US0044,hm,Woodbridge Center,,Woodbridge,NJ,,US,+1 855-466-7467,,Mo-Th 11:00-20:00; Fr-Sa 10:00-21:00; Su 11:00-18:00,H&M,Q188326
28632,h_r_block,H&R Block,,Woodbridge,NJ,,US,+1 732-404-1080,https://www.hrblock.com/local-tax-offices/new-jersey/woodbridge/shoprite-of-woodbridge/28632/,,H&R Block,Q5627799
https://stores.jdsports.com/nj/woodbridge/woodbridge-center.html,jdsports_us,JD Sports,,Woodbridge,NJ,,US,+1 732-734-8595,https://stores.jdsports.com/nj/woodbridge/woodbridge-center.html,Mo-Th 11:00-19:00; Fr-Sa 11:00-20:00; Su 11:00-18:00,JD Sports,Q6108019
1423,lidl_us,Woodbridge NJ - St. George Ave,,Woodbridge,NJ,,US,+1 844-747-5435,,,Lidl,Q151954
EWRBG,marriott,Residence Inn Woodbridge Edison/Raritan Center,,Woodbridge,NJ,,US,+1 732-510-7100,https://www.marriott.com/EWRBG,,Residence Inn by Marriott,Q7315394
EWRSD,marriott,SpringHill Suites Woodbridge,,Woodbridge,NJ,,US,+1 848-999-5910,https://www.marriott.com/EWRSD,,SpringHill Suites,Q7580351
17567,mattress_firm_us,Mattress Firm Woodbridge Center Drive,,Woodbridge,NJ,,US,+1 732-634-0312,https://www.mattressfirm.com/en-us/stores/nj/woodbridge/166038/,,Mattress Firm,Q6791878
113183,pandaexpress,Woodbridge Commons Shopping Center,,Woodbridge,NJ,,US,+1 732-734-1971,https://www.pandaexpress.com/locations/nj/woodbridge/314-us-hwy-9-n,Mo-Su 10:30-22:30,Panda Express,Q1358690
us46a76bbe,pandora,About Pandora Jewelry Authorized Retailer - Neves Jewelers / Woodbridge,,Woodbridge,NJ,,US,+1 732-634-1086,https://stores.pandora.net/nj/woodbridge/pandora-jewelry-us46a76bbe.html,,Pandora,Q2241604
https://locations.papajohns.com/#10692721,papa_johns,Papa John's,,Woodbridge,NJ,,US,+1 732-750-0008,https://locations.papajohns.com/united-states/nj/07095/woodbridge/759-st-george-avenue,Mo-Su 11:00-02:00,Papa John's Pizza,Q2759586
restaurant_240374,popeyes_us_fr,Popeyes,"889 St Georges Ave Woodbridge Township, New Jersey 07095 - USA",Woodbridge Township,NJ,,US,+1 732-874-5079,https://www.popeyes.com/store-locator/store/restaurant_240374,Mo-Su 10:30-22:30,Popeyes,Q1330910
restaurant_85351,popeyes_us_fr,Popeyes,"Mile Marker 92.9, NJ Turnpike North Woodbridge, New Jersey 07095 - USA",Woodbridge,NJ,,US,+1 732-636-1292,https://www.popeyes.com/store-locator/store/restaurant_85351,Mo-Su 09:30-21:30,Popeyes,Q1330910
home-depot-0916-13132,ppgpaints,HOME DEPOT 0916,,"Woodbridge, ",NJ,,US,+1 732-750-9890,https://www.ppgpaints.com/store-locator/us/new-jersey/woodbridge-paint-stores/home-depot-0916-13132,,PPG Paints,Q83891559
81467,ritasitalianice,Ritaâ€™s of Woodbridge NJ,,Woodbridge,NJ,,US,+1 732-602-9874,https://www.ritasice.com/location/ritas-of-woodbridge-nj/,,Rita's Italian Ice,Q7336456
https://restaurants.subway.com/#14898844,subway,Subway Wal-Mart #5281,,Woodbridge Middlesex,NJ,,US,+1 732-826-0123,https://restaurants.subway.com/united-states/nj/woodbridge/306-us-hwy-9-north,Mo-Su 08:30-21:30,Subway,Q244457
https://restaurants.subway.com/#14911685,subway,Subway,,Woodbridge Middlesex,NJ,,US,+1 732-634-3500,https://restaurants.subway.com/united-states/nj/woodbridge/757-789-st-georges-ave,Mo-Tu 09:00-22:00; We-Sa 09:00-23:00; Su 09:00-22:00,Subway,Q244457
https://stores.sunglasshut.com/us/nj/woodbridge/237-woodbridge-ctr-dr,sunglass_hut_1,Sunglass Hut at Macy's,,Woodbridge,NJ,,US,+1 732-636-2450,https://stores.sunglasshut.com/us/nj/woodbridge/237-woodbridge-ctr-dr,Mo-Sa 10:00-21:00; Su 11:00-19:00,Sunglass Hut,Q136311
0368302601,sunoco_us,Sunoco,,WOODBRIDGE,NJ,,US,+1 732-636-1298,,24/7,Sunoco,Q1423218
0368301801,sunoco_us,Sunoco,,WOODBRIDGE,NJ,,US,+1 848-204-0494,,24/7,Sunoco,Q1423218
0007649709,sunoco_us,Sunoco,,WOODBRIDGE,NJ,,US,+1 732-634-7771,,24/7,Sunoco,Q1423218
82346,supercuts,A & P Shopping,765 Saint George Ave,Woodbridge,NJ,,US,+1 732-855-0195,https://www.supercuts.com/checkin/82346,Mo-Fr 09:00-19:00; Sa 09:00-17:00; Su 10:00-16:00,Supercuts,Q7643239
https://locations.tacobell.com/#6141796,taco_bell,Taco Bell,,Woodbridge,NJ,,US,+1 732-750-1234,https://locations.tacobell.com/nj/woodbridge/901-st-georges-ave.html,Mo-Su 08:00-02:00,Taco Bell,Q752941
0123,tillys,Woodbridge Center,,Woodbridge,NJ,,US,+1 732-634-2468,,Mo-Sa 11:00-08:00; Su 11:00-07:00,Tillys,Q7802889
081386,tjx,Woodbridge,903 St George's Ave,Woodbridge,NJ,,US,+1 732-636-1409,,Mo-Sa 09:30-21:30; Su 10:00-20:00,TJ Maxx,Q10860683
28293,tjx,Woodbridge,43 Woodbridge Center Dr,Woodbridge,NJ,,US,+1 732-634-4569,,Mo-Sa 09:30-21:30; Su 10:00-20:00,HomeGoods,Q5887941
3814,tmobile_us,Woodbridge Center,,Woodbridge,NJ,,US,+1 732-596-1200,https://www.t-mobile.com/store-locator/nj/woodbridge/woodbridge-center,,T-Mobile,Q3511885
7537,upsstore,Woodbridge,10 Green St Unit 4,Woodbridge,NJ,,US,+1 732-362-5015,https://locations.theupsstore.com/nj/woodbridge/10-green-st,,UPS Store,Q7771029
1388160,usps,WOODBRIDGE,,WOODBRIDGE,NJ,,US,+1 732-634-4985,,Mo-Fr 09:00-19:00; Sa 08:30-16:00,United States Postal Service,Q668687
0709500064,usps_collection_boxes,USPS COLLECTION BOX - BLUE BOX,121 E PROSPECT AVE,WOODBRIDGE,NJ,,US,,,,United States Postal Service,Q668687
0709500066,usps_collection_boxes,USPS COLLECTION BOX - BLUE BOX,9 BROWN STREET,WOODBRIDGE,NJ,,US,,,,United States Postal Service,Q668687
0709500047,usps_collection_boxes,USPS COLLECTION BOX - BLUE BOX,60 MAIN ST UNIT 2,WOODBRIDGE,NJ,,US,,,,United States Postal Service,Q668687
0709500045,usps_collection_boxes,USPS COLLECTION BOX - EXPRESS,60 MAIN ST,WOODBRIDGE,NJ,,US,,,,United States Postal Service,Q668687
0709500069,usps_collection_boxes,USPS COLLECTION BOX - PO LOBBY,60 MAIN ST,WOODBRIDGE,NJ,,US,,,,United States Postal Service,Q668687
0709500078,usps_collection_boxes,USPS COLLECTION BOX - PO LOBBY,60 MAIN ST,WOODBRIDGE,NJ,,US,,,,United States Postal Service,Q668687
0709500068,usps_collection_boxes,USPS COLLECTION BOX - BLUE BOX,448 ELMWOOD DRIVE,WOODBRIDGE,NJ,,US,,,,United States Postal Service,Q668687
0709500065,usps_collection_boxes,USPS COLLECTION BOX - BLUE BOX,320 DEKALB AVE,WOODBRIDGE,NJ,,US,,,,United States Postal Service,Q668687
0709500012,usps_collection_boxes,USPS COLLECTION BOX - BLUE BOX,1480 ROUTE 9 NORTH  (1),WOODBRIDGE,NJ,,US,,,,United States Postal Service,Q668687
0709500010,usps_collection_boxes,USPS COLLECTION BOX - BLUE BOX,1460 ROUTE 9 N,WOODBRIDGE,NJ,,US,,,,United States Postal Service,Q668687
0709500016,usps_collection_boxes,USPS COLLECTION BOX - BLUE BOX,581 MAIN ST,WOODBRIDGE,NJ,,US,,,,United States Postal Service,Q668687
0709500071,usps_collection_boxes,USPS COLLECTION BOX - BLUE BOX,1000 ROUTE 9 N,WOODBRIDGE,NJ,,US,,,,United States Postal Service,Q668687
R00000126382,verizon_us,Woodbridge,,Woodbridge,NJ,,US,+1 732-326-7500,https://www.verizon.com/stores/details/new-jersey/woodbridge/woodbridge-202832/,Mo-Fr 10:00-20:00; Sa 10:00-19:00; Su 11:00-18:00,Verizon,Q919641
A00000248330,verizon_us,Victra Woodbridge Woodbridge  Ctr,,Woodbridge,NJ,,US,+1 732-362-2962,https://www.verizon.com/stores/details/new-jersey/woodbridge/victra-woodbridge-woodbridge-ctr-1749622/,Mo-Th 11:00-20:00; Fr-Sa 10:00-21:00; Su 11:00-19:00,Verizon,Q919641
A00000236471,verizon_us,Victra Woodbridge St Georges Ave,,WOODBRIDGE,NJ,,US,+1 732-694-1229,https://www.verizon.com/stores/details/new-jersey/woodbridge/victra-woodbridge-st-georges-ave-1699422/,Mo-Sa 09:00-20:00; Su 11:00-18:00,Verizon,Q919641
,visa,,,WOODBRIDGE,NJ,,US,,,,,
,visa,,,WOODBRIDGE,NJ,,US,,,,,
,visa,,,WOODBRIDGE,NJ,,US,,,,,
,visa,,,WOODBRIDGE,NJ,,US,,,,,
,visa,,,WOODBRIDGE,NJ,,US,,,,,
,visa,,,WOODBRIDGE,NJ,,US,,,,,
,visa,,,WOODBRIDGE,NJ,,US,,,,,
,visa,,,WOODBRIDGE,NJ,,US,,,,,
,visa,,,WOODBRIDGE,NJ,,US,,,,,
,visa,,,WOODBRIDGE,NJ,,US,,,,,
,visa,,,WOODBRIDGE,NJ,,US,,,,,
,visa,,,WOODBRIDGE,NJ,,US,,,,,
,visa,,,WOODBRIDGE,NJ,,US,,,,,
,visa,,,WOODBRIDGE,NJ,,US,,,,,
,visa,,,WOODBRIDGE,NJ,,US,,,,,
,visa,,,WOODBRIDGE TOWNSHIP,NJ,,US,,,,,
,visa,,,WOODBRIDGE,NJ,,US,,,,,
,visa,,,WOODBRIDGE,NJ,,US,,,,,
,visa,,,WOODBRIDGE,NJ,,US,,,,,
,visa,,,WOODBRIDGE,NJ,,US,,,,,
,visa,,,WOODBRIDGE,NJ,,US,,,,,
,visa,,,WOODBRIDGE,NJ,,US,,,,,
,visa,,,WOODBRIDGE,NJ,,US,,,,,
,visa,,,WOODBRIDGE,NJ,,US,,,,,
,visa,,,WOODBRIDGE,NJ,,US,,,,,
,visa,,,WOODBRIDGE,NJ,,US,,,,,
,visa,,,WOODBRIDGE,NJ,,US,,,,,
,visa,,,WOODBRIDGE,NJ,,US,,,,,
https://www.walgreens.com/locator/walgreens-17+green+st-woodbridge-nj-07095/id=4545,walgreens,Walgreens,,Woodbridge,NJ,,US,+1 732-326-9782,https://www.walgreens.com/locator/walgreens-17+green+st-woodbridge-nj-07095/id=4545,Mo-Su 07:00-24:00,Walgreens,Q1591889
17__WOODBRIDGE__CENTER__DR_WOODBRIDGE_NJ_07095,wellsfargo,Wells Fargo,17 WOODBRIDGE CENTER DR,WOODBRIDGE,NJ,,US,+1 732-634-2770,https://www.wellsfargo.com/locator/bank/17__WOODBRIDGE__CENTER__DR_WOODBRIDGE_NJ_07095/,Mo-Fr 09:00-17:00,Wells Fargo,Q744149
https://locations.wendys.com/#9758042,wendys,"Wendy's 820 Us Route 1 in Woodbridge, NJ",,Woodbridge,NJ,,US,+1 732-510-7672,https://locations.wendys.com/united-states/nj/woodbridge/820-us-route-1,"Mo-Su 06:30-10:30,09:00-22:00",Wendy's,Q550258
06601eb571314824bf936f6be6b37395,western_union,WALMART #005281,,Woodbridge,NJ,,US,+1 732-826-4652,https://location.westernunion.com/us/nj/woodbridge/06601eb571314824bf936f6be6b37395,Mo-Su 07:00-21:00,Western Union,Q861042
https://www.willscot.com/locations/new-york-city-south,willscot,WillScot,,Woodbridge,NJ,,US,+1 732-404-9550,https://www.willscot.com/locations/new-york-city-south,,WillScot,Q123415387
88,windsor_us,Woodbridge Center,,Woodbridge,NJ,,US,+1 732-510-6006,https://www.windsorstore.com/pages/nj-woodbridge-woodbridge-center,,Windsor,Q72981668
72007,wingstop,Wingstop Woodbridge US Hwy 9 N.,306 Us Highway 9 N.,Woodbridge,NJ,,US,+1 732-826-9000,,,Wingstop,Q8025339
4009,xfinity,Xfinity,,Woodbridge,NJ,,US,,https://www.xfinity.com/local/nj/woodbridge/899-saint-george-ave.html,Mo-Fr 10:00-20:00; Sa 09:00-19:00; Su 11:00-18:00,Xfinity,Q5151002
