Ref,Spider,Name,Address,City,State,Zipcode,Country,Phone,Website,Hours,Brand,WikiData
226763_PO,australia_post_au,BERMAGUI LPO,,BERMAGUI,NSW,,AU,+61 2 6493 4190,,,Australia Post,Q1142936
RED0005002,australia_post_au,,,BERMAGUI,NSW,,AU,,,,Australia Post,Q1142936
RED0005003,australia_post_au,,,BERMAGUI,NSW,,AU,,,,Australia Post,Q1142936
275565_PO,australia_post_au,WALLAGA LAKE CPA,,AKOLELE,NSW,,AU,+61 2 4473 7402,,,Australia Post,Q1142936
275557_PO,australia_post_au,TILBA TILBA CPA,,TILBA TILBA,NSW,,AU,+61 2 4473 7084,,,Australia Post,Q1142936
RED0017997,australia_post_au,,,TILBA TILBA,NSW,,AU,,,,Australia Post,Q1142936
RED0005004,australia_post_au,,,CENTRAL TILBA,NSW,,AU,,,,Australia Post,Q1142936
229796_PO,australia_post_au,CENTRAL TILBA LPO,,CENTRAL TILBA,NSW,,AU,+61 2 4473 7290,,,Australia Post,Q1142936
RED0005007,australia_post_au,,,NAROOMA,NSW,,AU,,,,Australia Post,Q1142936
RED0005009,australia_post_au,,,NAROOMA,NSW,,AU,,,,Australia Post,Q1142936
RED0005010,australia_post_au,,,NAROOMA,NSW,,AU,,,,Australia Post,Q1142936
240717_PO,australia_post_au,NAROOMA POST SHOP,,NAROOMA,NSW,,AU,+61 131318,,,Australia Post,Q1142936
RED0005006,australia_post_au,,,NAROOMA,NSW,,AU,,,,Australia Post,Q1142936
RED0005008,australia_post_au,,,NAROOMA,NSW,,AU,,,,Australia Post,Q1142936
RED0005005,australia_post_au,,,DALMENY,NSW,,AU,,,,Australia Post,Q1142936
1067,bp,BP BERMAGUI,,BERMAGUI,NSW,,AU,+61 2 6493 4174,,24/7,BP,Q152057
265202,commonwealth_bank_au,Narooma,,Narooma,NSW,,AU,,,,Commonwealth Bank,Q285328
265201,commonwealth_bank_au,Narooma,,Narooma,NSW,,AU,,,,Commonwealth Bank,Q285328
4017,compleat_angler_camping_world_au,Compleat Angler Narooma,,Narooma,NSW,,AU,+61 2 4476 2278,https://compleatangler.com.au/pages/Compleat-Angler-Narooma,Mo-We 08:00-17:00; Th 08:00-05:00; Fr-Su 08:00-17:00,Compleat Angler,Q124062620
narooma,lj_hooker_au_nz,LJ Hooker Narooma,,NAROOMA,NSW,,AU,+61 2 4476 1000,https://narooma.ljhooker.com.au,Mo-Fr 09:00-17:00,LJ Hooker,Q6456509
https://www.nationalparks.nsw.gov.au/camping-and-accommodation/accommodation/montague-island-head-lighthouse-keepers-cottage,nsw_national_parks_and_wildlife_service_au,Montague Island Head Lighthouse Keeper's Cottage,,Montague Island,NSW,,AU,+61 2 4476 0800,https://www.nationalparks.nsw.gov.au/camping-and-accommodation/accommodation/montague-island-head-lighthouse-keepers-cottage,24/7,,
https://www.nationalparks.nsw.gov.au/camping-and-accommodation/accommodation/montague-island-assistant-lighthouse-keepers-cottage,nsw_national_parks_and_wildlife_service_au,Montague Island Assistant Lighthouse Keeperâ€™s Cottage,,Montague Island,NSW,,AU,+61 2 4476 0800,https://www.nationalparks.nsw.gov.au/camping-and-accommodation/accommodation/montague-island-assistant-lighthouse-keepers-cottage,24/7,,
10111050,shell,SHELL NAROOMA,,NAROOMA,NSW,,AU,+61 2 4476 1519,https://find.shell.com/au/fuel/10111050-shell-narooma,,Shell,Q110716465
10111605,shell,SHELL BERMAGUI,,BERMAGUI,NSW,,AU,+61 402 704 293,https://find.shell.com/au/fuel/10111605-shell-bermagui,,Shell,Q110716465
,visa,,,BERMAGUI,NSW,,AU,,,,,
,visa,,,BERMAGUI,NSW,,AU,,,,,
,visa,,,NAROOMA,NSW,,AU,,,,,
,visa,,,NAROOMA,NSW,,AU,,,,,
1ab019eeb07aec902322e7902b8fe29b,western_union,AUSTRALIA POST,,Bermagui,NSW,,AU,+61 1800 501 500,https://location.westernunion.com/au/nsw/bermagui/1ab019eeb07aec902322e7902b8fe29b,Mo-Fr 08:30-17:00,Western Union,Q861042
d8811eb72119df73f87c36479c2dc25b,western_union,AUSTRALIA POST,,Narooma,NSW,,AU,+61 1800 501 500,https://location.westernunion.com/au/nsw/narooma/d8811eb72119df73f87c36479c2dc25b,Mo-Fr 09:00-17:00; Sa 09:00-12:30,Western Union,Q861042
