Ref,Spider,Name,Address,City,State,Zipcode,Country,Phone,Website,Hours,Brand,WikiData
IN0039,hm,"11, Tukoganj, MG Road",,Indore,,,IN,+91 1800 889 8000,,Mo-Su 11:00-22:00,H&M,Q188326
IN0076,hm,pLOT NO.1,,Indore,,,IN,+91 1800 889 8000,,Mo-Su 11:00-22:00,H&M,Q188326
72304828,moneygram,EBIXCASH WORLD MONEY LIMITED - INDORE -,,INDORE,,,IN,+91 98260 64100,,Mo-Sa 10:00-18:00; Su 00:00-24:00,MoneyGram,Q1944412
72541937,moneygram,NETGURU CYBER CAFE,,INDORE,,,IN,+91 97555 88862,,Mo-Su 08:00-21:00,MoneyGram,Q1944412
72555596,moneygram,SAMRIDDHI CYBER PHOTO COPY,,INDORE,,,IN,+91 99934 93449,,Mo-Su 08:00-21:00,MoneyGram,Q1944412
72592193,moneygram,MASCOT FOREX CONSULTANCY PVT LTD,,INDORE,,,IN,+91 91319 28702,,Mo-Su 08:00-21:00,MoneyGram,Q1944412
72597871,moneygram,ONDGO TRAVELS,,INDORE,,,IN,+91 98934 22550,,Mo-Su 08:00-21:00,MoneyGram,Q1944412
73263667,moneygram,MUTHOOT FINANCE LTD - #1659 - INDORE - I,,INDORE,,,IN,+91 731 425 7375,,Mo-Su 09:00-19:00,MoneyGram,Q1944412
73285904,moneygram,MUTHOOT FINANCE LTD - #3688 - INDORE - I,,INDORE,,,IN,+91 731 428 1042,,Mo-Su 09:00-19:00,MoneyGram,Q1944412
73289405,moneygram,MUTHOOT FINANCE LTD - #4088 - INDORE - I,,INDORE,,,IN,+91 731 262 2282,,Mo-Su 09:00-19:00,MoneyGram,Q1944412
73289735,moneygram,MUTHOOT FINANCE LTD - #4132 - INDORE - I,,INDORE,,,IN,+91 731 285 7166,,Mo-Su 09:00-19:00,MoneyGram,Q1944412
73290520,moneygram,MUTHOOT FINANCE LTD - #4235 - INDORE - I,,INDORE,,,IN,+91 731 243 0157,,Mo-Su 09:00-19:00,MoneyGram,Q1944412
73293158,moneygram,MUTHOOT FINANCE LTD - #4546 - INDORE - I,,INDORE,,,IN,+91 731 491 1012,,Mo-Su 09:00-19:00,MoneyGram,Q1944412
73293381,moneygram,MUTHOOT FINANCE LTD - #4570 - INDORE - P,,INDORE,,,IN,+91 731 240 1728,,Mo-Su 09:00-19:00,MoneyGram,Q1944412
73255413,moneygram,MUTHOOT FINANCE LTD - #685 - INDORE - IN,,INDORE,,,IN,+91 731 428 5543,,Mo-Su 09:00-19:00,MoneyGram,Q1944412
73255426,moneygram,MUTHOOT FINANCE LTD - #686 - INDORE - IN,,INDORE,,,IN,+91 731 428 5540,,Mo-Su 09:00-19:00,MoneyGram,Q1944412
72970621,moneygram,SKY HOLIDAY,,INDORE,,,IN,+91 95222 24200,,Mo-Su 08:00-21:00,MoneyGram,Q1944412
72955866,moneygram,MIKDAD KHAMBATI INDORE IBP,,INDORE,,,IN,+91 94253 48573,,Mo-Su 08:00-21:00,MoneyGram,Q1944412
72956111,moneygram,ROYAL PHOTO COPY CENTER,,INDORE,,,IN,+91 90090 00789,,Mo-Su 08:00-21:00,MoneyGram,Q1944412
73420617,moneygram,PRATHAM TRAVELS (INDORE)-IBP,,INDORE,,,IN,+91 98266 82226,,Mo-Su 08:00-21:00,MoneyGram,Q1944412
73422398,moneygram,ADAM ENTERPRISES (INDORE)-IBP,,INDORE,,,IN,+91 98260 43525,,Mo-Su 08:00-21:00,MoneyGram,Q1944412
73422783,moneygram,SHREE PARASHAR ONLINE SOLUTION,,INDORE,,,IN,+91 90980 74700,,Mo-Su 08:00-21:00,MoneyGram,Q1944412
73427623,moneygram,TRAVEL CHIEF,,INDORE,,,IN,+91 83700 00759,,Mo-Su 08:00-21:00,MoneyGram,Q1944412
73548366,moneygram,MARUTI TRAVELS,,INDORE,,,IN,+91 93021 27464,,Mo-Su 08:00-21:00,MoneyGram,Q1944412
73537681,moneygram,PAUL MERCHANTS LIMITED,,INDORE,,,IN,+91 93177 14277,,Mo-Su 08:00-21:00,MoneyGram,Q1944412
73730255,moneygram,AKSHAY GRAPHICS,,INDORE,,,IN,+91 98932 02786,,Mo-Su 08:00-21:00,MoneyGram,Q1944412
73736482,moneygram,BHOJAWAT BANKING AND ONLINE SERVICES,,INDORE,,,IN,+91 89592 32786,,Mo-Su 08:00-21:00,MoneyGram,Q1944412
73746579,moneygram,EZZI TRAVELS,,INDORE,,,IN,+91 98934 11046,,Mo-Su 08:00-21:00,MoneyGram,Q1944412
73743035,moneygram,KRISHIV TOURS & TRAVELS,,INDORE,,,IN,+91 91111 22475,,Mo-Su 08:00-21:00,MoneyGram,Q1944412
73747963,moneygram,KRISHNA ONLINE,,INDORE,,,IN,+91 95757 98003,,Mo-Su 08:00-21:00,MoneyGram,Q1944412
73749424,moneygram,MAA KAALI RECHARGE CENTER,,INDORE,,,IN,+91 97520 61839,,Mo-Su 08:00-21:00,MoneyGram,Q1944412
73753287,moneygram,SHRINATHJI TRAVELS,,INDORE,,,IN,+91 94253 51308,,Mo-Su 08:00-21:00,MoneyGram,Q1944412
73742612,moneygram,VASUDHAIVA KUTUMBAKAM,,INDORE,,,IN,+91 96443 83999,,Mo-Su 08:00-21:00,MoneyGram,Q1944412
73822419,moneygram,MISHIKA TRAVELS INDORE IBP,,INDORE,,,IN,+91 92295 47125,,Mo-Su 08:00-21:00,MoneyGram,Q1944412
74108446,moneygram,IGENTERPRISES,,INDORE,,,IN,+91 72230 77170,,Mo-Su 08:00-21:00,MoneyGram,Q1944412
74197693,moneygram,ANAMAY FOREX PRIVATE LIMITED,,INDORE,,,IN,+91 99935 95267,,Mo-Su 08:00-21:00,MoneyGram,Q1944412
43992146,moneygram,THOMAS COOK - INDORE BRANCH,,INDORE,,,IN,+91 731 254 2525,,Mo-Sa 09:30-17:30; Su 00:00-24:00,MoneyGram,Q1944412
66414122,moneygram,MANAPPURAM FINANCE - INDORE - ANNAPURNA,,INDORE,,,IN,+91 731 322 1466,,Mo-Sa 10:00-19:00; Su 10:00-16:00,MoneyGram,Q1944412
66507372,moneygram,MANAPPURAM FINANCE - INDORE,,INDORE,,,IN,+91 731 322 8520,,Mo-Sa 10:00-19:00; Su 10:00-16:00,MoneyGram,Q1944412
66582724,moneygram,MANAPPURAM FINANCE - #1835 - INDORE,,INDORE,,,IN,+91 731 319 4757,,Mo-Sa 09:30-18:30; Su 09:30-15:30,MoneyGram,Q1944412
66942283,moneygram,MANAPPURAM FINANCE - #2364 - INDORE,,INDORE,,,IN,+91 731 322 8634,,Mo-Sa 10:00-19:00; Su 10:00-16:00,MoneyGram,Q1944412
66939791,moneygram,MANAPPURAM FINANCE - #2281 - INDORE,,INDORE,,,IN,+91 731 322 8629,,Mo-Sa 10:00-19:00; Su 10:00-16:00,MoneyGram,Q1944412
66939924,moneygram,MANAPPURAM FINANCE - #2315 - INDORE,,INDORE,,,IN,+91 731 242 0177,,Mo-Sa 10:00-19:00; Su 10:00-16:00,MoneyGram,Q1944412
71698373,moneygram,XE FOREX BUREAU INDIA PRIVATE LIMITED -,,INDORE,,,IN,+91 88788 25558,,Mo-Su 08:00-21:00,MoneyGram,Q1944412
663-10025,skoda,Satguru Motors,,,,,IN,,,,Skoda,Q29637
N230130,united_colors_of_benetton,Benetton Indore,,INDORE,,,IN,+91 731 479 9842,,Mo-Su 10:00-22:00,United Colors of Benetton,Q817139
N232034,united_colors_of_benetton,Benetton Indore,,INDORE,,,IN,+91 731 253 5641,,,United Colors of Benetton,Q817139
N234528,united_colors_of_benetton,Benetton Indore,,INDORE,,,IN,+91 91117 25741,,,United Colors of Benetton,Q817139
,visa,,,INDORE,,,IN,,,,,
,visa,,,INDORE,,,IN,,,,,
,visa,,,INDORE,,,IN,,,,,
,visa,,,INDORE,,,IN,,,,,
,visa,,,INDORE,,,IN,,,,,
,visa,,,INDORE,,,IN,,,,,
,visa,,,INDORE,,,IN,,,,,
,visa,,,INDORE,,,IN,,,,,
,visa,,,INDORE,,,IN,,,,,
,visa,,,INDORE,,,IN,,,,,
,visa,,,INDORE,,,IN,,,,,
,visa,,,MOHALI,,,IN,,,,,
,visa,,,INDORE,,,IN,,,,,
,visa,,,INDORE,,,IN,,,,,
,visa,,,INDORE,,,IN,,,,,
,visa,,,INDORE,,,IN,,,,,
,visa,,,INDORE,,,IN,,,,,
,visa,,,INDORE,,,IN,,,,,
,visa,,,INDORE,,,IN,,,,,
,visa,,,MOHALI,,,IN,,,,,
,visa,,,INDORE,,,IN,,,,,
,visa,,,INDORE,,,IN,,,,,
,visa,,,INDORE,,,IN,,,,,
,visa,,,INDORE,,,IN,,,,,
,visa,,,INDORE,,,IN,,,,,
,visa,,,INDORE,,,IN,,,,,
,visa,,,INDORE,,,IN,,,,,
,visa,,,INDORE,,,IN,,,,,
,visa,,,INDORE,,,IN,,,,,
