Ref,Spider,Name,Address,City,State,Zipcode,Country,Phone,Website,Hours,Brand,WikiData
18266,citi,MONCLOVA 1,,Monclova,COAHUILA,,MX,+52 800 110 3990,,,Citibank,Q857063
21137,citi,SC MONCLOVA,,Monclova,COAHUILA,,MX,+52 800 110 3990,,,Citibank,Q857063
195,first_cash,First Cash Pawn,,Monclova,Coahuila,,MX,+52 866 632 9236,,,First Cash Pawn,
98,nissan_europe,MONCLOVA,,Monclova,COAHUILA,,MX,+52 866 649 8400,https://www.nissanmonclova.com.mx,,Nissan,Q20165
,visa,,,MONCLOVA,COAHUILA,,MX,,,,,
,visa,,,MONCLOVA,COAHUILA,,MX,,,,,
,visa,,,MONCLOVA,COAHUILA,,MX,,,,,
,visa,,,MONCLOVA,COAHUILA,,MX,,,,,
,visa,,,MONCLOVA,COAHUILA,,MX,,,,,
,visa,,,CASTAÃ‘OS,COAHUILA,,MX,,,,,
,visa,,,MONCLOVA,COAHUILA,,MX,,,,,
,visa,,,MONCLOVA,COAHUILA,,MX,,,,,
,visa,,,MONCLOVA,COAHUILA,,MX,,,,,
,visa,,,MONCLOVA,COAHUILA,,MX,,,,,
,visa,,,MONCLOVA,COAHUILA,,MX,,,,,
,visa,,,MONCLOVA,COAHUILA,,MX,,,,,
,visa,,,MONCLOVA,COAHUILA,,MX,,,,,
,visa,,,MONCLOVA,COAHUILA,,MX,,,,,
d7b728df0fb25b2fd06073888209d514,western_union,OXXO SEVILLA LOV,,Monclova,COAHUILA,,MX,+52 81 8389 2121,https://location.westernunion.com/mx/coahuila/monclova/d7b728df0fb25b2fd06073888209d514,Mo-Su 08:00-22:00,Western Union,Q861042
13bb2a24a343efb844636b065cb01417,western_union,OXXO Sevilla LOV,,Monclova,COAHUILA,,MX,+52 81 8389 2121,https://location.westernunion.com/mx/coahuila/monclova/13bb2a24a343efb844636b065cb01417,Mo-Su 08:00-22:00,Western Union,Q861042
4d0b382243b162fae7d171c406373b35,western_union,OXXO SEVILLA LOV,,Monclova,COAHUILA,,MX,+52 81 8389 2121,https://location.westernunion.com/mx/coahuila/monclova/4d0b382243b162fae7d171c406373b35,Mo-Su 08:00-22:00,Western Union,Q861042
fcb38e7d8bb720860cfbd2d50058c26a,western_union,MODATELAS 31 AP CASH,,Monclova,COAHUILA,,MX,+52 866 632 1732,https://location.westernunion.com/mx/coahuila/monclova/fcb38e7d8bb720860cfbd2d50058c26a,Mo-Su 08:00-20:00,Western Union,Q861042
efeca516311cba5d25ccba48d93f9580,western_union,MODATELAS 31 AP CASH,,Monclova,COAHUILA,,MX,+52 866 632 1732,https://location.westernunion.com/mx/coahuila/monclova/efeca516311cba5d25ccba48d93f9580,Mo-Su 08:00-20:00,Western Union,Q861042
0ec964d66a1efc5148f82ea1981a03d6,western_union,FARM GUAD MIGUEL HIDALGO COAH,,Monclova,COAHUILA,,MX,+52 800 833 4700,https://location.westernunion.com/mx/coahuila/monclova/0ec964d66a1efc5148f82ea1981a03d6,Mo-Su 08:00-20:00,Western Union,Q861042
98e3d86f67cb339cfaeee528591af5c7,western_union,FARM GUAD MIGUEL HIDALGO COAH,,Monclova,COAHUILA,,MX,+52 800 833 4700,https://location.westernunion.com/mx/coahuila/monclova/98e3d86f67cb339cfaeee528591af5c7,Mo-Su 08:00-20:00,Western Union,Q861042
f492b559c0ae8239e5c2398352832761,western_union,FARM GUAD MIGUEL HIDALGO COAH,,Monclova,COAHUILA,,MX,+52 800 833 4700,https://location.westernunion.com/mx/coahuila/monclova/f492b559c0ae8239e5c2398352832761,Mo-Su 08:00-20:00,Western Union,Q861042
2c1b2114354d0480b2cebeda37e4cb40,western_union,OXXO JUAREZ SUR LOV,,Monclova,COAHUILA,,MX,+52 81 8389 2121,https://location.westernunion.com/mx/coahuila/monclova/2c1b2114354d0480b2cebeda37e4cb40,Mo-Su 08:00-22:00,Western Union,Q861042
d1b8b41a571a40b6707eb766f62245f4,western_union,OXXO JUAREZ SUR LOV,,Monclova,COAHUILA,,MX,+52 81 8389 2121,https://location.westernunion.com/mx/coahuila/monclova/d1b8b41a571a40b6707eb766f62245f4,Mo-Su 08:00-22:00,Western Union,Q861042
d03359009566c0ca1673c667622f8f00,western_union,OXXO JUAREZ SUR LOV,,Monclova,COAHUILA,,MX,+52 81 8389 2121,https://location.westernunion.com/mx/coahuila/monclova/d03359009566c0ca1673c667622f8f00,Mo-Su 08:00-22:00,Western Union,Q861042
8d430111775b0c62804dbf853c03b5f4,western_union,OXXO TALLERES II LOV,,Monclova,COAHUILA,,MX,+52 81 8389 2121,https://location.westernunion.com/mx/coahuila/monclova/8d430111775b0c62804dbf853c03b5f4,Mo-Su 08:00-22:00,Western Union,Q861042
b37b9ebfc11a4a6fbac8cb738b55591f,western_union,OXXO Talleres II LOV,,Monclova,COAHUILA,,MX,+52 81 8389 2121,https://location.westernunion.com/mx/coahuila/monclova/b37b9ebfc11a4a6fbac8cb738b55591f,Mo-Su 08:00-22:00,Western Union,Q861042
455e7bed87f0668b313a531310a1492a,western_union,OXXO TALLERES II LOV,,Monclova,COAHUILA,,MX,+52 81 8389 2121,https://location.westernunion.com/mx/coahuila/monclova/455e7bed87f0668b313a531310a1492a,Mo-Su 08:00-22:00,Western Union,Q861042
c5745846e47adb0387a805eafada50f0,western_union,OXXO Hidalgo LOV,,Monclova,COAHUILA,,MX,+52 81 8389 2121,https://location.westernunion.com/mx/coahuila/monclova/c5745846e47adb0387a805eafada50f0,Mo-Su 08:00-22:00,Western Union,Q861042
b7e7d058db971bbd68cf25270deb4792,western_union,OXXO HIDALGO LOV,,Monclova,COAHUILA,,MX,+52 81 8389 2121,https://location.westernunion.com/mx/coahuila/monclova/b7e7d058db971bbd68cf25270deb4792,Mo-Su 08:00-22:00,Western Union,Q861042
58a2c8f42a8e3f85d5d9cbedb9f8710b,western_union,OXXO CENTRO LOV,,Monclova,COAHUILA,,MX,+52 81 8389 2121,https://location.westernunion.com/mx/coahuila/monclova/58a2c8f42a8e3f85d5d9cbedb9f8710b,Mo-Su 08:00-22:00,Western Union,Q861042
962e0c3809004a609d580ca3d01f8083,western_union,OXXO CENTRO LOV,,Monclova,COAHUILA,,MX,+52 81 8389 2121,https://location.westernunion.com/mx/coahuila/monclova/962e0c3809004a609d580ca3d01f8083,Mo-Su 08:00-22:00,Western Union,Q861042
46b348d2b5f28f04c61cbc341c6ebc23,western_union,OXXO Centro LOV,,Monclova,COAHUILA,,MX,+52 81 8389 2121,https://location.westernunion.com/mx/coahuila/monclova/46b348d2b5f28f04c61cbc341c6ebc23,Mo-Su 08:00-22:00,Western Union,Q861042
acd79b05e643ccbf738cb08112e6c8d9,western_union,OXXO Pasaje Morelos LOV,,Monclova,COAHUILA,,MX,+52 81 8389 2121,https://location.westernunion.com/mx/coahuila/monclova/acd79b05e643ccbf738cb08112e6c8d9,Mo-Su 08:00-22:00,Western Union,Q861042
5594714ee8156f50ad08d76a399b081b,western_union,OXXO PASAJE MORELOS LOV,,Monclova,COAHUILA,,MX,+52 81 8389 2121,https://location.westernunion.com/mx/coahuila/monclova/5594714ee8156f50ad08d76a399b081b,Mo-Su 08:00-22:00,Western Union,Q861042
36d1723a705ea038a1431d64bc57c92a,western_union,OXXO PASAJE MORELOS LOV,,Monclova,COAHUILA,,MX,+52 81 8389 2121,https://location.westernunion.com/mx/coahuila/monclova/36d1723a705ea038a1431d64bc57c92a,Mo-Su 08:00-22:00,Western Union,Q861042
359ea4a36a7a2cc8dab666d76e4c75ba,western_union,WALDOS MONCLOVA CENTRO COAH 6318,,Monclova,COAHUILA,,MX,+52 55 5246 0700,https://location.westernunion.com/mx/coahuila/monclova/359ea4a36a7a2cc8dab666d76e4c75ba,Mo-Su 06:30-23:30,Western Union,Q861042
e4544a7d84ea659e5f745c82d65dba5b,western_union,OXXO TRIBUNALES LOV,,Monclova,COAHUILA,,MX,+52 81 8389 2121,https://location.westernunion.com/mx/coahuila/monclova/e4544a7d84ea659e5f745c82d65dba5b,Mo-Su 08:00-22:00,Western Union,Q861042
bb19f3907a1d7a3a17bde923f89b9a33,western_union,OXXO Tribunales LOV,,Monclova,COAHUILA,,MX,+52 81 8389 2121,https://location.westernunion.com/mx/coahuila/monclova/bb19f3907a1d7a3a17bde923f89b9a33,Mo-Su 08:00-22:00,Western Union,Q861042
f547ef65e8f3ccf1ac08f96c8ad4588f,western_union,OXXO TRIBUNALES LOV,,Monclova,COAHUILA,,MX,+52 81 8389 2121,https://location.westernunion.com/mx/coahuila/monclova/f547ef65e8f3ccf1ac08f96c8ad4588f,Mo-Su 08:00-22:00,Western Union,Q861042
49eec7cf52cffbcc150b10383481a9ff,western_union,OXXO MORELOS LOV,,Monclova,COAHUILA,,MX,+52 81 8389 2121,https://location.westernunion.com/mx/coahuila/monclova/49eec7cf52cffbcc150b10383481a9ff,Mo-Su 08:00-22:00,Western Union,Q861042
7f6d4bb6b1e47c2e9b0badcda85b6ac2,western_union,OXXO MORELOS LOV,,Monclova,COAHUILA,,MX,+52 81 8389 2121,https://location.westernunion.com/mx/coahuila/monclova/7f6d4bb6b1e47c2e9b0badcda85b6ac2,Mo-Su 08:00-22:00,Western Union,Q861042
743f8faa74a4f938ab98ba92312ac36a,western_union,OXXO Morelos LOV,,Monclova,COAHUILA,,MX,+52 81 8389 2121,https://location.westernunion.com/mx/coahuila/monclova/743f8faa74a4f938ab98ba92312ac36a,Mo-Su 08:00-22:00,Western Union,Q861042
cf3b0355a3135a7767835a1f3f876806,western_union,FARM GUAD VENUSTIANO CARRANZA COAH,,Monclova,COAHUILA,,MX,+52 800 833 4700,https://location.westernunion.com/mx/coahuila/monclova/cf3b0355a3135a7767835a1f3f876806,Mo-Su 08:00-20:00,Western Union,Q861042
142538410df82850b66fb8653c456339,western_union,OXXO MATAMOROS LOV,,Monclova,COAHUILA,,MX,+52 81 8389 2121,https://location.westernunion.com/mx/coahuila/monclova/142538410df82850b66fb8653c456339,Mo-Su 08:00-22:00,Western Union,Q861042
03772e7bead7be58ca25573087e3368f,western_union,OXXO MATAMOROS LOV,,Monclova,COAHUILA,,MX,+52 81 8389 2121,https://location.westernunion.com/mx/coahuila/monclova/03772e7bead7be58ca25573087e3368f,Mo-Su 08:00-22:00,Western Union,Q861042
0727f33976271d37c57c17f2239b72de,western_union,OXXO Matamoros LOV,,Monclova,COAHUILA,,MX,+52 81 8389 2121,https://location.westernunion.com/mx/coahuila/monclova/0727f33976271d37c57c17f2239b72de,Mo-Su 08:00-22:00,Western Union,Q861042
4d7cbe9e7af115cf465e2ed4849368a5,western_union,FUNDACION DONDE MONCLOVA ID281,,Monclova,COAHUILA,,MX,+52 999 940 7550,https://location.westernunion.com/mx/coahuila/monclova/4d7cbe9e7af115cf465e2ed4849368a5,Mo-Su 08:00-20:00,Western Union,Q861042
d3eb6cb91dd489ef73395d1ab210f1bd,western_union,FUNDACION DONDE MONCLOVA ID281,,Monclova,COAHUILA,,MX,+52 999 940 7550,https://location.westernunion.com/mx/coahuila/monclova/d3eb6cb91dd489ef73395d1ab210f1bd,Mo-Su 08:00-20:00,Western Union,Q861042
a712430e8959425250cc95147d22629f,western_union,FUNDACION DONDE MONCLOVA ID281,,Monclova,COAHUILA,,MX,+52 999 940 7550,https://location.westernunion.com/mx/coahuila/monclova/a712430e8959425250cc95147d22629f,Mo-Su 08:00-20:00,Western Union,Q861042
9b8c9758c16529551a6013fcfb0d7771,western_union,ELEKTRA SYR 2966 MONCLOVA,,Monclova,COAHUILA,,MX,+52 55 1720 8177,https://location.westernunion.com/mx/coahuila/monclova/9b8c9758c16529551a6013fcfb0d7771,Mo-Su 09:00-21:00,Western Union,Q861042
f7ddb2b94e9767bb36a0b1e8d95d0234,western_union,ELEKTRA SYR 2966 MONCLOVA,,Monclova,COAHUILA,,MX,+52 55 1720 8177,https://location.westernunion.com/mx/coahuila/monclova/f7ddb2b94e9767bb36a0b1e8d95d0234,Mo-Su 09:00-21:00,Western Union,Q861042
87922b4c9f5b370832a03135b350e4cd,western_union,TELECOMM 05026,,Monclova,COAHUILA,,MX,+52 282 828 6076,https://location.westernunion.com/mx/coahuila/monclova/87922b4c9f5b370832a03135b350e4cd,Mo-Su 09:00-20:00,Western Union,Q861042
78765492cd7230ae29ee4e59bb157a28,western_union,EKT 5212 MEGA MONCLOVA,,Monclova,COAHUILA,,MX,+52 55 1720 8177,https://location.westernunion.com/mx/coahuila/monclova/78765492cd7230ae29ee4e59bb157a28,Mo-Su 09:00-21:00,Western Union,Q861042
6ac610984303c86dfdf1292dfe9bd7e0,western_union,EKT 5212 MEGA MONCLOVA,,Monclova,COAHUILA,,MX,+52 55 1720 8177,https://location.westernunion.com/mx/coahuila/monclova/6ac610984303c86dfdf1292dfe9bd7e0,Mo-Su 09:00-21:00,Western Union,Q861042
49637cc10e2a739f1e8a824ca3dddfe6,western_union,EKT 5212 MEGA MONCLOVA,,Monclova,COAHUILA,,MX,+52 55 1720 8177,https://location.westernunion.com/mx/coahuila/monclova/49637cc10e2a739f1e8a824ca3dddfe6,Mo-Su 09:00-21:00,Western Union,Q861042
68d51ba48f55d68935d56abe466b07ec,western_union,TELECOMM 05026,,Monclova,COAHUILA,,MX,+52 800 800 9889,https://location.westernunion.com/mx/coahuila/monclova/68d51ba48f55d68935d56abe466b07ec,Mo-Fr 09:00-15:00,Western Union,Q861042
088853456705921013609e409827bb2f,western_union,ELECZION MONCLOVA 1117,,Monclova,COAHUILA,,MX,+52 55 5246 0700,https://location.westernunion.com/mx/coahuila/monclova/088853456705921013609e409827bb2f,Mo-Su 06:30-23:30,Western Union,Q861042
628572b157bf1c5ef2c6e06b4cd92268,western_union,ELECZION MONCLOVA 1117,,Monclova,COAHUILA,,MX,+52 55 5246 0700,https://location.westernunion.com/mx/coahuila/monclova/628572b157bf1c5ef2c6e06b4cd92268,Mo-Su 06:30-23:30,Western Union,Q861042
1af47448d7bc21a7a2e2c4278d88826d,western_union,OXXO ILDEFONSO FUENTES LOV,,Monclova,COAHUILA,,MX,+52 81 8389 2121,https://location.westernunion.com/mx/coahuila/monclova/1af47448d7bc21a7a2e2c4278d88826d,Mo-Su 08:00-22:00,Western Union,Q861042
17722dd6b7be746b5d96dcd85477d920,western_union,OXXO ILDEFONSO FUENTES LOV,,Monclova,COAHUILA,,MX,+52 81 8389 2121,https://location.westernunion.com/mx/coahuila/monclova/17722dd6b7be746b5d96dcd85477d920,Mo-Su 08:00-22:00,Western Union,Q861042
bf682959fc89cde2f40e913b5c5e958c,western_union,OXXO Ildefonso Fuentes LOV,,Monclova,COAHUILA,,MX,+52 81 8389 2121,https://location.westernunion.com/mx/coahuila/monclova/bf682959fc89cde2f40e913b5c5e958c,Mo-Su 08:00-22:00,Western Union,Q861042
bd01456d642cb58eb73bb8d24ed1f179,western_union,BANCOPPEL 0040 CARRANZA III,,Monclova,COAHUILA,,MX,(+52) 667-589999,https://location.westernunion.com/mx/coahuila/monclova/bd01456d642cb58eb73bb8d24ed1f179,Mo-Su 08:30-21:00,Western Union,Q861042
e3f29141e8ebb333db7dcc861950b108,western_union,BANCOPPEL 0040 CARRANZA III,,Monclova,COAHUILA,,MX,(+52) 667-589999,https://location.westernunion.com/mx/coahuila/monclova/e3f29141e8ebb333db7dcc861950b108,Mo-Su 08:30-21:00,Western Union,Q861042
32e61ed8e8817eb51c012b4d6a842bf7,western_union,OXXO Central LOV,,Monclova,COAHUILA,,MX,+52 81 8389 2121,https://location.westernunion.com/mx/coahuila/monclova/32e61ed8e8817eb51c012b4d6a842bf7,Mo-Su 08:00-22:00,Western Union,Q861042
0e3b8197b4c39c1232cba77f95f048df,western_union,OXXO CENTRAL LOV,,Monclova,COAHUILA,,MX,+52 81 8389 2121,https://location.westernunion.com/mx/coahuila/monclova/0e3b8197b4c39c1232cba77f95f048df,Mo-Su 08:00-22:00,Western Union,Q861042
1d837f37e67d63cc2b2fcc24b7393514,western_union,OXXO CENTRAL LOV,,Monclova,COAHUILA,,MX,+52 81 8389 2121,https://location.westernunion.com/mx/coahuila/monclova/1d837f37e67d63cc2b2fcc24b7393514,Mo-Su 08:00-22:00,Western Union,Q861042
3902c0386fc9ed0b67c95c07fc92e425,western_union,OXXO CENTRAL II LOV,,Monclova,COAHUILA,,MX,+52 81 8389 2121,https://location.westernunion.com/mx/coahuila/monclova/3902c0386fc9ed0b67c95c07fc92e425,Mo-Su 08:00-22:00,Western Union,Q861042
0dfce227a98103f03d6b04a55004bf81,western_union,OXXO CENTRAL II LOV,,Monclova,COAHUILA,,MX,+52 81 8389 2121,https://location.westernunion.com/mx/coahuila/monclova/0dfce227a98103f03d6b04a55004bf81,Mo-Su 08:00-22:00,Western Union,Q861042
209b74d94143bf6fa1a7155792ae325c,western_union,OXXO Central II LOV,,Monclova,COAHUILA,,MX,+52 81 8389 2121,https://location.westernunion.com/mx/coahuila/monclova/209b74d94143bf6fa1a7155792ae325c,Mo-Su 08:00-22:00,Western Union,Q861042
d7f626962cd25965aee4de714e274645,western_union,OXXO SANTIAGO LOV,,Monclova,COAHUILA,,MX,+52 81 8389 2121,https://location.westernunion.com/mx/coahuila/monclova/d7f626962cd25965aee4de714e274645,Mo-Su 08:00-22:00,Western Union,Q861042
6a4af48c0ec2d22f5b1fce85afdf5dd9,western_union,OXXO SANTIAGO LOV,,Monclova,COAHUILA,,MX,+52 81 8389 2121,https://location.westernunion.com/mx/coahuila/monclova/6a4af48c0ec2d22f5b1fce85afdf5dd9,Mo-Su 08:00-22:00,Western Union,Q861042
50561d280f85387eb88fdbd5e355b13c,western_union,OXXO Santiago LOV,,Monclova,COAHUILA,,MX,+52 81 8389 2121,https://location.westernunion.com/mx/coahuila/monclova/50561d280f85387eb88fdbd5e355b13c,Mo-Su 08:00-22:00,Western Union,Q861042
62206120ccd68027059cd74ab1e5525d,western_union,FARM GUAD VENUSTIANO CARRANZA COAH,,Monclova,COAHUILA,,MX,+52 800 833 4700,https://location.westernunion.com/mx/coahuila/monclova/62206120ccd68027059cd74ab1e5525d,Mo-Su 08:00-20:00,Western Union,Q861042
7052577c21ba4c41525550c1823a30bd,western_union,OXXO RIBERENA LOV,,Monclova,COAHUILA,,MX,+52 81 8389 2121,https://location.westernunion.com/mx/coahuila/monclova/7052577c21ba4c41525550c1823a30bd,Mo-Su 08:00-22:00,Western Union,Q861042
25a01e598fa0f2906edc386623a932b6,western_union,BANCOPPEL 0040 CARRANZA III,,Monclova,COAHUILA,,MX,(+52) 667-589999,https://location.westernunion.com/mx/coahuila/monclova/25a01e598fa0f2906edc386623a932b6,Mo-Su 08:30-21:00,Western Union,Q861042
38b79c1d41063e4cf1eafb4a776b00e1,western_union,SOL MONCLOVA,,Monclova,COAHUILA,,MX,+52 800 833 4700,https://location.westernunion.com/mx/coahuila/monclova/38b79c1d41063e4cf1eafb4a776b00e1,Mo-Su 09:00-21:00,Western Union,Q861042
d08bdd2877d36bb5dcc1d0a59cea9e12,western_union,SOL MONCLOVA,,Monclova,COAHUILA,,MX,+52 800 833 4700,https://location.westernunion.com/mx/coahuila/monclova/d08bdd2877d36bb5dcc1d0a59cea9e12,Mo-Su 09:00-21:00,Western Union,Q861042
49d9f5da8f3b8be50258d6f2060e62a7,western_union,WALMART MONCLOVA 1007,,Monclova,COAHUILA,,MX,+52 800 833 4700,https://location.westernunion.com/mx/coahuila/monclova/49d9f5da8f3b8be50258d6f2060e62a7,Mo-Su 07:00-23:00,Western Union,Q861042
43f5fe1f9d9e596c63ee30e9d9d62f54,western_union,WALMART MONCLOVA 1007,,Monclova,COAHUILA,,MX,+52 800 833 4700,https://location.westernunion.com/mx/coahuila/monclova/43f5fe1f9d9e596c63ee30e9d9d62f54,Mo-Su 07:00-23:00,Western Union,Q861042
f33f7891089bc0570c4b03e8d323f499,western_union,WALMART MONCLOVA 1007,,Monclova,COAHUILA,,MX,+52 800 833 4700,https://location.westernunion.com/mx/coahuila/monclova/f33f7891089bc0570c4b03e8d323f499,Mo-Su 07:00-23:00,Western Union,Q861042
