Ref,Spider,Name,Address,City,State,Zipcode,Country,Phone,Website,Hours,Brand,WikiData
,visa,,,GINIGATHHENA,CENTRAL,,LK,,,,,
,visa,,,KURUNDUWATTA,CENTRAL,,LK,,,,,
,visa,,,HATTON,CENTRAL,,LK,,,,,
,visa,,,NAWALAPITIYA,CENTRAL,,LK,,,,,
,visa,,,NAWALAPITIYA,CENTRAL,,LK,,,,,
,visa,,,NAWALAPITIYA,CENTRAL,,LK,,,,,
,visa,,,PILIMATALAWA,CENTRAL,,LK,,,,,
,visa,,,MASKELIYA,CENTRAL,,LK,,,,,
,visa,,,MASKELIYA,CENTRAL,,LK,,,,,
,visa,,,GAMPOLA,CENTRAL,,LK,,,,,
,visa,,,GAMPOLA,CENTRAL,,LK,,,,,
,visa,,,GALEWELA,CENTRAL,,LK,,,,,
,visa,,,HATTON,CENTRAL,,LK,,,,,
,visa,,,HATTON,CENTRAL,,LK,,,,,
,visa,,,GELIOYA,CENTRAL,,LK,,,,,
,visa,,,PERADENIYA,CENTRAL,,LK,,,,,
,visa,,,KANDY,CENTRAL,,LK,,,,,
,visa,,,PERADENIYA,CENTRAL,,LK,,,,,
,visa,,,AKURANA,CENTRAL,,LK,,,,,
,visa,,,KATUGASTOTOA,CENTRAL,,LK,,,,,
,visa,,,MATALE,CENTRAL,,LK,,,,,
,visa,,,MATALE,CENTRAL,,LK,,,,,
,visa,,,MATALE,CENTRAL,,LK,,,,,
,visa,,,PUSSELLAWA,CENTRAL,,LK,,,,,
,visa,,,KANDY,CENTRAL,,LK,,,,,
,visa,,,MATALE,CENTRAL,,LK,,,,,
,visa,,,KCC,CENTRAL,,LK,,,,,
,visa,,,KANDY,CENTRAL,,LK,,,,,
,visa,,,KANDY,CENTRAL,,LK,,,,,
,visa,,,KANDY,CENTRAL,,LK,,,,,
,visa,,,THALAWAKELE,CENTRAL,,LK,,,,,
,visa,,,THALAWAKELE,CENTRAL,,LK,,,,,
,visa,,,THALAWAKELE,CENTRAL,,LK,,,,,
,visa,,,DAMBULLA,CENTRAL,,LK,,,,,
,visa,,,BOGAWANTALAWA,CENTRAL,,LK,,,,,
,visa,,,BOGAWANTHALAWA,CENTRAL,,LK,,,,,
,visa,,,GALAHA,CENTRAL,,LK,,,,,
,visa,,,KUNDASALE,CENTRAL,,LK,,,,,
,visa,,,THALAWAKELE,CENTRAL,,LK,,,,,
,visa,,,THALAWAKELE,CENTRAL,,LK,,,,,
,visa,,,DIGANA,CENTRAL,,LK,,,,,
,visa,,,NUWARA ELIYA,CENTRAL,,LK,,,,,
,visa,,,NUWARA ELIYA,CENTRAL,,LK,,,,,
,visa,,,NUWARA ELIYA,CENTRAL,,LK,,,,,
,visa,,,NUWARA ELIYA,CENTRAL,,LK,,,,,
,visa,,,NUWARA ELIYA,CENTRAL,,LK,,,,,
,visa,,,NUWARA ELIYA,CENTRAL,,LK,,,,,
,visa,,,DAMBULLA,CENTRAL,,LK,,,,,
,visa,,,DAMBULLA,CENTRAL,,LK,,,,,
,visa,,,KANDY,CENTRAL,,LK,,,,,
,visa,,,NUWARA ELIYA,CENTRAL,,LK,,,,,
,visa,,,RIKILLAGASKADA,CENTRAL,,LK,,,,,
,visa,,,HUNNASGIRIYA,CENTRAL,,LK,,,,,
,visa,,,RAGALA,CENTRAL,,LK,,,,,
,visa,,,WALAPANE,CENTRAL,,LK,,,,,
c82acfa22da4ecb3412db1392d5b1c22,western_union,NATIONAL DEVELOPMENT BANK PLC,,Dambulla,CENTRAL,,LK,+94 662 285 501,https://location.westernunion.com/lk/central/dambulla/c82acfa22da4ecb3412db1392d5b1c22,Mo-Su 08:00-20:30,Western Union,Q861042
a96bcd572f7ce31b9fe045e71bf3bc70,western_union,LB FINANCE PLC,,Anuradhapura,CENTRAL,,LK,+94 662 283 155,https://location.westernunion.com/lk/central/anuradhapura/a96bcd572f7ce31b9fe045e71bf3bc70,Mo-Sa 08:30-18:00,Western Union,Q861042
1a68f6882687d8af620aa2b661d2e94b,western_union,DFCC VARDHANA BANK LIMITED,,Dambulla,CENTRAL,,LK,+94 662 283 553,https://location.westernunion.com/lk/central/dambulla/1a68f6882687d8af620aa2b661d2e94b,Mo-Fr 09:00-19:00; Sa 09:00-13:00,Western Union,Q861042
a68b85b25725b4ee680fe8e4f0458cb1,western_union,PEOPLES BANK DAMBULLA,,Dambulla,CENTRAL,,LK,+94 662 285 300,https://location.westernunion.com/lk/central/dambulla/a68b85b25725b4ee680fe8e4f0458cb1,Mo-Fr 09:00-15:00,Western Union,Q861042
9049854a5d002079a7300eb9b698d522,western_union,NATIONAL SAVINGS BANK,,Matale,CENTRAL,,LK,+94 662 287 720,https://location.westernunion.com/lk/central/matale/9049854a5d002079a7300eb9b698d522,Mo-Fr 08:00-14:00,Western Union,Q861042
633f708901bb105c38954df5a423f177,western_union,SINGER SRI LANKA,,Galewela,CENTRAL,,LK,+94 662 287 887,https://location.westernunion.com/lk/central/galewela/633f708901bb105c38954df5a423f177,Mo-Su 08:30-19:00,Western Union,Q861042
a82c2dbe69552d33058b7b3efc779ce6,western_union,BOBELLA RURAL BANK,,Naula,CENTRAL,,LK,+94 76 116 0331,https://location.westernunion.com/lk/central/naula/a82c2dbe69552d33058b7b3efc779ce6,Mo-Su 06:00-23:00,Western Union,Q861042
037dcee8fdc74e734ff510f16d149f80,western_union,SINGER SRI LANKA,,Menikhinna,CENTRAL,,LK,+94 815 739 371,https://location.westernunion.com/lk/central/menikhinna/037dcee8fdc74e734ff510f16d149f80,Mo-Su 08:30-19:00,Western Union,Q861042
3a16be922c7e893d78e3e333d669306f,western_union,PUBBILIYA RURAL BANK,,Pubbiliya,CENTRAL,,LK,+94 77 691 3702,https://location.westernunion.com/lk/central/pubbiliya/3a16be922c7e893d78e3e333d669306f,Mo-Su 06:00-23:00,Western Union,Q861042
39d84f98b68c2e6c626d1ce7fcddd848,western_union,WEMADILLA RURAL BANK,,Naula,CENTRAL,,LK,+94 76 939 0905,https://location.westernunion.com/lk/central/naula/39d84f98b68c2e6c626d1ce7fcddd848,Mo-Su 06:00-23:00,Western Union,Q861042
2ea7355e7168925473f67a6651bd6839,western_union,SINGER SRI LANKA,,Dambulla,CENTRAL,,LK,+94 662 285 229,https://location.westernunion.com/lk/central/dambulla/2ea7355e7168925473f67a6651bd6839,Mo-Su 08:30-19:00,Western Union,Q861042
535ca813be13587577d7f931421c2df7,western_union,COMMERCIAL BANK OF CEYLON PLC,,Dambulla,CENTRAL,,LK,+94 662 284 934,https://location.westernunion.com/lk/central/dambulla/535ca813be13587577d7f931421c2df7,Mo-Fr 08:00-17:00,Western Union,Q861042
4d36313034f66ecd8aca73baf3455a3d,western_union,SAMPATH BANK PLC,,Dambulla,CENTRAL,,LK,+94 662 283 067,https://location.westernunion.com/lk/central/dambulla/4d36313034f66ecd8aca73baf3455a3d,Mo-Su 08:00-22:00,Western Union,Q861042
9fa2fcfeab7dbd75c06b40148d6178b7,western_union,CITIZENS DEVELOPMENT BUSINESS FINANCE,,Dambulla,CENTRAL,,LK,+94 662 284 088,https://location.westernunion.com/lk/central/dambulla/9fa2fcfeab7dbd75c06b40148d6178b7,Mo-Fr 08:00-17:00; Sa 08:00-14:00,Western Union,Q861042
8012bae243b19a1b74bbc5db8951425d,western_union,LB FINANCE PLC,,Galewela,CENTRAL,,LK,+94 662 051 246,https://location.westernunion.com/lk/central/galewela/8012bae243b19a1b74bbc5db8951425d,Mo-Sa 08:30-18:00,Western Union,Q861042
73c54817e6a7cf514e0ba830e69e6504,western_union,SAMPATH BANK PLC,,Galewela,CENTRAL,,LK,+94 662 287 725,https://location.westernunion.com/lk/central/galewela/73c54817e6a7cf514e0ba830e69e6504,Mo-Su 08:00-22:00,Western Union,Q861042
b7b9721c9d8d3aceb7edc05a953c9469,western_union,DEDIGAMA GROUP  PRIVATE  LIMITED,,Matale,CENTRAL,,LK,+94 75 385 1188,https://location.westernunion.com/lk/central/matale/b7b9721c9d8d3aceb7edc05a953c9469,Mo-Su 08:30-19:00,Western Union,Q861042
6d281af5bc5a791dea02862611f909ad,western_union,NATIONS TRUST BANK PLC,,Matale,CENTRAL,,LK,+94 667 857 133,https://location.westernunion.com/lk/central/matale/6d281af5bc5a791dea02862611f909ad,Mo-Fr 09:00-17:00; Sa 09:00-12:00,Western Union,Q861042
9510e413682bc7e7ae7573a4037e26d2,western_union,PAN ASIA BANKING CORPORATION PLC,,Dambulla,CENTRAL,,LK,+94 664 928 970,https://location.westernunion.com/lk/central/dambulla/9510e413682bc7e7ae7573a4037e26d2,Mo-Fr 09:00-16:00,Western Union,Q861042
8e21318de20edba8d5c61ca97f156c03,western_union,NATIONAL SAVINGS BANK,,Matale,CENTRAL,,LK,+94 662 284 078,https://location.westernunion.com/lk/central/matale/8e21318de20edba8d5c61ca97f156c03,Mo-Fr 08:00-14:00,Western Union,Q861042
bffd2a5e4fb01dde44aa06a009f77f5f,western_union,NAULA RURAL BANK,,Naula,CENTRAL,,LK,+94 70 552 1834,https://location.westernunion.com/lk/central/naula/bffd2a5e4fb01dde44aa06a009f77f5f,Mo-Su 06:00-23:00,Western Union,Q861042
f5d8646f05bb0e16dd9410d1c14b8234,western_union,NATIONAL SAVINGS BANK,,Galle,CENTRAL,,LK,+94 662 246 840,https://location.westernunion.com/lk/central/galle/f5d8646f05bb0e16dd9410d1c14b8234,Mo-Fr 08:00-14:00,Western Union,Q861042
e87c85cc551f49b4cc45a8bb22665a3a,western_union,MURATHOLUWA RURAL BANK,,Matale,CENTRAL,,LK,+94 77 653 5321,https://location.westernunion.com/lk/central/matale/e87c85cc551f49b4cc45a8bb22665a3a,Mo-Su 06:00-23:00,Western Union,Q861042
d7c79697c8857a67e04cee0fa2d2ade0,western_union,PEOPLES BANK DEWAHUWA SC,,Dewahuwa,CENTRAL,,LK,+94 662 287 110,https://location.westernunion.com/lk/central/dewahuwa/d7c79697c8857a67e04cee0fa2d2ade0,Mo-Fr 09:00-15:00,Western Union,Q861042
0b0e23784ffd93708ca954babebf9fc0,western_union,ARUNAA PAWN BROKERS,,Patana,CENTRAL,,LK,+94 512 222 860,https://location.westernunion.com/lk/central/patana/0b0e23784ffd93708ca954babebf9fc0,Mo-Su 09:00-19:30,Western Union,Q861042
fc9f61c0018304b88f1b7edd9702ee3e,western_union,MELPITIYA RURAL BANK,,Matale,CENTRAL,,LK,+94 71 717 8780,https://location.westernunion.com/lk/central/matale/fc9f61c0018304b88f1b7edd9702ee3e,Mo-Su 06:00-23:00,Western Union,Q861042
739ce55ecb85daa5d6789f49a1976ab4,western_union,ABANA RURAL BANK,,Kongahawela,CENTRAL,,LK,+94 77 574 3034,https://location.westernunion.com/lk/central/kongahawela/739ce55ecb85daa5d6789f49a1976ab4,Mo-Su 06:00-23:00,Western Union,Q861042
5bac2e61923d0dc9a8ac42ee565f80c5,western_union,KALUGANGA RURAL BANK,,Hattotaamuna,CENTRAL,,LK,+94 71 389 8235,https://location.westernunion.com/lk/central/hattotaamuna/5bac2e61923d0dc9a8ac42ee565f80c5,Mo-Su 06:00-23:00,Western Union,Q861042
f130cdf8ac9b8c44328880740fffe0cf,western_union,THORAPITIYA RURAL BANK,,Ma Oya,CENTRAL,,LK,+94 72 281 7129,https://location.westernunion.com/lk/central/ma-oya/f130cdf8ac9b8c44328880740fffe0cf,Mo-Su 06:00-23:00,Western Union,Q861042
a83aa23217a4924e9e38018af4fee8e1,western_union,PALLEPOLA MPCS LIMITED,,Wahakotte,CENTRAL,,LK,+94 662 289 924,https://location.westernunion.com/lk/central/wahakotte/a83aa23217a4924e9e38018af4fee8e1,Mo-Su 08:00-16:00,Western Union,Q861042
df98e5eae2989699808e3d41d53357b3,western_union,POST OFFICE,,Matale,CENTRAL,,LK,+94 662 289 216,https://location.westernunion.com/lk/central/matale/df98e5eae2989699808e3d41d53357b3,Mo-Sa 08:00-17:30,Western Union,Q861042
4705638411629679514cc6afb1314ad5,western_union,PEOPLES BANK NAULA,,Naula,CENTRAL,,LK,+94 662 246 270,https://location.westernunion.com/lk/central/naula/4705638411629679514cc6afb1314ad5,Mo-Fr 09:00-15:00,Western Union,Q861042
1a1f48913ceabbb3b4ca8c24edd07603,western_union,SINGER SRI LANKA,,Naula,CENTRAL,,LK,+94 662 246 168,https://location.westernunion.com/lk/central/naula/1a1f48913ceabbb3b4ca8c24edd07603,Mo-Su 08:30-19:00,Western Union,Q861042
3181535fc939dbfdeb63c7362ec4bc21,western_union,PALLEPOLA MPCS LIMITED,,Madipola,CENTRAL,,LK,+94 665 671 314,https://location.westernunion.com/lk/central/madipola/3181535fc939dbfdeb63c7362ec4bc21,Mo-Su 08:00-16:00,Western Union,Q861042
0bcb2488e65d28c35d4edcb41e82c277,western_union,HUNGAWELA RURAL BANK,,Nalanda,CENTRAL,,LK,+94 74 126 2211,https://location.westernunion.com/lk/central/nalanda/0bcb2488e65d28c35d4edcb41e82c277,Mo-Su 06:00-23:00,Western Union,Q861042
4b200de28245cb7afaf3d5f6ba387bc4,western_union,KONGAHAWELA RURAL BANK,,Kongahawela,CENTRAL,,LK,+94 72 570 8335,https://location.westernunion.com/lk/central/kongahawela/4b200de28245cb7afaf3d5f6ba387bc4,Mo-Su 06:00-23:00,Western Union,Q861042
15c7eb585cb89d76677e0c70b3998889,western_union,PILIHUDUGOLLA RURAL BANK,,Naula,CENTRAL,,LK,+94 76 510 3122,https://location.westernunion.com/lk/central/naula/15c7eb585cb89d76677e0c70b3998889,Mo-Su 06:00-23:00,Western Union,Q861042
42274baf9c622c44bb014231ca52b5a5,western_union,BIBILA RURAL BANK,,Naula,CENTRAL,,LK,+94 76 397 2528,https://location.westernunion.com/lk/central/naula/42274baf9c622c44bb014231ca52b5a5,Mo-Su 06:00-23:00,Western Union,Q861042
e32398823eb8846e7c4c50ce5883a3f5,western_union,SINGER SRI LANKA,,Galaha,CENTRAL,,LK,+94 812 467 470,https://location.westernunion.com/lk/central/galaha/e32398823eb8846e7c4c50ce5883a3f5,Mo-Su 08:30-19:00,Western Union,Q861042
4bde95fc1b11459088bfcf5e08647e22,western_union,KARAWILAHENA RURAL BANK,,Naula,CENTRAL,,LK,+94 70 366 1798,https://location.westernunion.com/lk/central/naula/4bde95fc1b11459088bfcf5e08647e22,Mo-Su 06:00-23:00,Western Union,Q861042
b09b2962df9ec77aa44ec7c9d9e3b8c6,western_union,MAOYA RURAL BANK,,Ma Oya,CENTRAL,,LK,+94 71 697 6513,https://location.westernunion.com/lk/central/ma-oya/b09b2962df9ec77aa44ec7c9d9e3b8c6,Mo-Su 06:00-23:00,Western Union,Q861042
6f4d93c957a28c8c511566776458bc46,western_union,PEOPLES BANK KOLONGODA SC,,Kolongoda,CENTRAL,,LK,+94 602 553 132,https://location.westernunion.com/lk/central/kolongoda/6f4d93c957a28c8c511566776458bc46,Mo-Fr 09:00-15:00,Western Union,Q861042
6723fdcb87520bbb6c39497345b6ce13,western_union,DIBULGAMUWA RURAL BANK,,Dibulgamuwa,CENTRAL,,LK,+94 77 337 2774,https://location.westernunion.com/lk/central/dibulgamuwa/6723fdcb87520bbb6c39497345b6ce13,Mo-Su 06:00-23:00,Western Union,Q861042
3b6bcc7307af68f43ec9d5d383fda455,western_union,HATHAMUNUGALA RURAL BANK,,Madawala Ulpatha,CENTRAL,,LK,+94 70 306 9949,https://location.westernunion.com/lk/central/madawala-ulpatha/3b6bcc7307af68f43ec9d5d383fda455,Mo-Su 06:00-23:00,Western Union,Q861042
f0c38a65a5642ed5f35279f9134bd76f,western_union,KANDURATA DEVELOPMENT BANK,,Laggala,CENTRAL,,LK,+94 662 275 000,https://location.westernunion.com/lk/central/laggala/f0c38a65a5642ed5f35279f9134bd76f,Mo-Fr 08:00-18:30,Western Union,Q861042
e43ef5c1af6d88b99d005d98fe0a2167,western_union,MATALE CO OP RURAL BANK SOCIETY LIMITED,,Matale,CENTRAL,,LK,+94 665 671 237,https://location.westernunion.com/lk/central/matale/e43ef5c1af6d88b99d005d98fe0a2167,Mo-Fr 08:30-16:30; Sa 08:30-13:00,Western Union,Q861042
d47682d7374cb21b4bf237716d0829ac,western_union,PEOPLES BANK PALLEPOLA,,Pallepola,CENTRAL,,LK,+94 662 247 270,https://location.westernunion.com/lk/central/pallepola/d47682d7374cb21b4bf237716d0829ac,Mo-Fr 09:00-15:00,Western Union,Q861042
7823cf960554761b2e161c8c75e3336f,western_union,DEDIGAMA GROUP  PRIVATE  LIMITED,,Matale,CENTRAL,,LK,+94 75 393 4934,https://location.westernunion.com/lk/central/matale/7823cf960554761b2e161c8c75e3336f,Mo-Su 08:30-19:00,Western Union,Q861042
f3c6e67a579ff02ed231d1c265f4f001,western_union,PALLEPOLA MPCS LTD,,Palapathwala,CENTRAL,,LK,+94 665 714 203,https://location.westernunion.com/lk/central/palapathwala/f3c6e67a579ff02ed231d1c265f4f001,Mo-Th 08:00-16:00; Fr 08:00-12:00; Su 08:00-16:00,Western Union,Q861042
a6111eb46b718b36669cd4ca8a6ec190,western_union,KETAWALA RURAL BANK,,Madawala Ulpatha,CENTRAL,,LK,+94 76 240 9702,https://location.westernunion.com/lk/central/madawala-ulpatha/a6111eb46b718b36669cd4ca8a6ec190,Mo-Su 06:00-23:00,Western Union,Q861042
11fc9a28933a46ecfe4e1bca290f5577,western_union,MADAWALA RURAL BANK,,Madawala Ulpatha,CENTRAL,,LK,+94 76 730 4438,https://location.westernunion.com/lk/central/madawala-ulpatha/11fc9a28933a46ecfe4e1bca290f5577,Mo-Su 06:00-23:00,Western Union,Q861042
f66b2bfd746406609abb269e1c8bcdf5,western_union,ADAWALA RURAL BANK,,Matale,CENTRAL,,LK,+94 77 393 6427,https://location.westernunion.com/lk/central/matale/f66b2bfd746406609abb269e1c8bcdf5,Mo-Su 06:00-23:00,Western Union,Q861042
df07bb7c04a09c953621e4e46920ff05,western_union,THUSITHA JEWELLERS,,Pallepola,CENTRAL,,LK,+94 77 646 6611,https://location.westernunion.com/lk/central/pallepola/df07bb7c04a09c953621e4e46920ff05,Mo-Fr 08:30-19:00,Western Union,Q861042
6214764dd1483bf8205ac51654dda80e,western_union,PALLEPOLA MPCS LIMITED,,Madawalaupatha,CENTRAL,,LK,+94 665 671 313,https://location.westernunion.com/lk/central/madawalaupatha/6214764dd1483bf8205ac51654dda80e,Mo-Su 08:00-16:00,Western Union,Q861042
1e4bef3843b05f5ea9321a6a088dd430,western_union,PEOPLES BANK YATAWATTA SC,,Yatawatta,CENTRAL,,LK,+94 662 221 054,https://location.westernunion.com/lk/central/yatawatta/1e4bef3843b05f5ea9321a6a088dd430,Mo-Fr 09:00-15:00,Western Union,Q861042
4464efb9d7001ce76383ff25e3f6d9b9,western_union,SINGER SRI LANKA,,Yatawatta,CENTRAL,,LK,+94 77 711 9163,https://location.westernunion.com/lk/central/yatawatta/4464efb9d7001ce76383ff25e3f6d9b9,Mo-Su 08:30-19:00,Western Union,Q861042
4c39bf31d880a4d5c8905348e13795cd,western_union,POST OFFICE,,Yatawatta,CENTRAL,,LK,+94 662 221 728,https://location.westernunion.com/lk/central/yatawatta/4c39bf31d880a4d5c8905348e13795cd,Mo-Sa 08:00-17:00,Western Union,Q861042
25488b7c1cdeffcbdecb1aa692287225,western_union,MATALE COOP RURAL BANKS SOCIETY LTD,,Mahawela,CENTRAL,,LK,+94 665 617 850,https://location.westernunion.com/lk/central/mahawela/25488b7c1cdeffcbdecb1aa692287225,Mo-Fr 08:30-15:00; Sa 08:30-12:30,Western Union,Q861042
4e35bcd2b1a06582de5672dd41efb345,western_union,PATHINGASKOTUWA RURAL BANK,,Mahawela,CENTRAL,,LK,+94 664 935 504,https://location.westernunion.com/lk/central/mahawela/4e35bcd2b1a06582de5672dd41efb345,Mo-Fr 08:30-16:30; Sa 08:30-12:30,Western Union,Q861042
4965b1c56b543b20de25694a38159370,western_union,HIRIYALA MPCS LTD,,Udawela,CENTRAL,,LK,+94 372 258 311,https://location.westernunion.com/lk/central/udawela/4965b1c56b543b20de25694a38159370,Mo-Th 08:30-14:30; Fr 08:30-11:30; Su 08:30-14:30,Western Union,Q861042
de922847de592b192f5c923b62cee303,western_union,UDUDENIYA RURAL BANK,,Nalanda,CENTRAL,,LK,+94 76 369 1678,https://location.westernunion.com/lk/central/nalanda/de922847de592b192f5c923b62cee303,Mo-Su 06:00-23:00,Western Union,Q861042
a9dd4b1b4982934942d50fec3b057716,western_union,PEOPLES BANK LAGGALA PALLEGAMA,,Laggala,CENTRAL,,LK,+94 662 275 019,https://location.westernunion.com/lk/central/laggala/a9dd4b1b4982934942d50fec3b057716,Mo-Fr 09:00-15:00,Western Union,Q861042
be8405fc012ac9049348c357280ba1ee,western_union,PALLEPOLA MPCS LTD,,Madipola,CENTRAL,,LK,+94 663 062 265,https://location.westernunion.com/lk/central/madipola/be8405fc012ac9049348c357280ba1ee,Mo-Fr 08:30-15:30; Su 08:30-15:30,Western Union,Q861042
6f7709618bec1cc52dd8522809451973,western_union,NALANDA RURAL BANK,,Nalanda,CENTRAL,,LK,+94 72 156 7539,https://location.westernunion.com/lk/central/nalanda/6f7709618bec1cc52dd8522809451973,Mo-Su 06:00-23:00,Western Union,Q861042
950b9bb1414fae25bd6ce53a6f23913c,western_union,PEOPLES BANK MADAWALA ULPOTHA,,Madawala,CENTRAL,,LK,+94 662 247 770,https://location.westernunion.com/lk/central/madawala/950b9bb1414fae25bd6ce53a6f23913c,Mo-Fr 09:00-15:00,Western Union,Q861042
d3ea1efccfdef8faabcf6dc03ea8ae9d,western_union,PALLEPOLA MPCS LIMITED,,Pallepola,CENTRAL,,LK,+94 665 680 072,https://location.westernunion.com/lk/central/pallepola/d3ea1efccfdef8faabcf6dc03ea8ae9d,Mo-Su 08:00-16:00,Western Union,Q861042
886d2621867dc7740ad42efcde164092,western_union,SINGER SRI LANKA,,Pallepola,CENTRAL,,LK,+94 662 248 670,https://location.westernunion.com/lk/central/pallepola/886d2621867dc7740ad42efcde164092,Mo-Su 08:30-19:00,Western Union,Q861042
4f3b5d41ed747efe98f94f718c5b4efa,western_union,SINGER SRI LANKA,,Rattota,CENTRAL,,LK,+94 665 674 582,https://location.westernunion.com/lk/central/rattota/4f3b5d41ed747efe98f94f718c5b4efa,Mo-Su 08:30-19:00,Western Union,Q861042
219b7af732f7fbb26d2d462f93f048c2,western_union,POST OFFICE,,Palapathwala,CENTRAL,,LK,+94 662 222 511,https://location.westernunion.com/lk/central/palapathwala/219b7af732f7fbb26d2d462f93f048c2,Mo-Sa 08:00-17:00,Western Union,Q861042
1bcade802880d452980217f61ae3e314,western_union,MATALE CO OP RURAL BANK SOCIETY LIMITED,,Matale,CENTRAL,,LK,+94 665 671 238,https://location.westernunion.com/lk/central/matale/1bcade802880d452980217f61ae3e314,Mo-Fr 08:30-16:30; Sa 08:30-13:00,Western Union,Q861042
4672f1265b8f9ceff48d9bfba4a405b5,western_union,PEOPLES BANK MATALE,,Mathale,CENTRAL,,LK,+94 662 223 254,https://location.westernunion.com/lk/central/mathale/4672f1265b8f9ceff48d9bfba4a405b5,Mo-Fr 09:00-15:00,Western Union,Q861042
bfdd2769321d900851c3e63edb4e5992,western_union,DFCC BANK PLC,,Matale,CENTRAL,,LK,+94 662 255 101,https://location.westernunion.com/lk/central/matale/bfdd2769321d900851c3e63edb4e5992,Mo-Fr 09:00-15:00,Western Union,Q861042
80a33fba380bf467e09c527cbb498b8d,western_union,PEOPLES BANK RATHOTA,,Rathota,CENTRAL,,LK,+94 662 255 270,https://location.westernunion.com/lk/central/rathota/80a33fba380bf467e09c527cbb498b8d,Mo-Fr 09:00-15:00,Western Union,Q861042
c7d811b2ae1d02252bb5d78c64b0f637,western_union,DEDIGAMA GROUP  PRIVATE  LIMITED,,Matale,CENTRAL,,LK,+94 75 355 5967,https://location.westernunion.com/lk/central/matale/c7d811b2ae1d02252bb5d78c64b0f637,Mo-Su 08:30-18:00,Western Union,Q861042
c6fc524b81fd85fab41feb561e60097e,western_union,PEOPLES BANK HASALAKA,,Hasalaka,CENTRAL,,LK,+94 552 258 000,https://location.westernunion.com/lk/central/hasalaka/c6fc524b81fd85fab41feb561e60097e,Mo-Fr 09:00-15:00,Western Union,Q861042
df7fc8ae0995282494f3450d515c4afb,western_union,ALLIANCE FINANCE COMPANY PLC,,Matale,CENTRAL,,LK,+94 662 054 642,https://location.westernunion.com/lk/central/matale/df7fc8ae0995282494f3450d515c4afb,Mo-Su 07:00-22:00,Western Union,Q861042
4ed92a3af4463dc5cd90cb197d64e5a0,western_union,DEDIGAMA GROUP  PVT  LTD,,Hasalaka,CENTRAL,,LK,+94 75 344 1688,https://location.westernunion.com/lk/central/hasalaka/4ed92a3af4463dc5cd90cb197d64e5a0,Mo-Su 08:00-18:00,Western Union,Q861042
7a4dbd5bd9a68f5f082696e6f58efde5,western_union,NATIONAL SAVINGS BANK,,Matale,CENTRAL,,LK,+94 662 222 551,https://location.westernunion.com/lk/central/matale/7a4dbd5bd9a68f5f082696e6f58efde5,Mo-Fr 08:00-14:00,Western Union,Q861042
a505f14795751449e6727a17dc446740,western_union,CARRY FOOD EXPRESS PRIVATE LIMITED,,Mathale,CENTRAL,,LK,+94 77 118 8112,https://location.westernunion.com/lk/central/mathale/a505f14795751449e6727a17dc446740,Mo-Su 07:00-22:00,Western Union,Q861042
f155d46a578f8dc29d46c46987b12e11,western_union,SABARAGAMUWA DEVELOPMENT BANK,,Matale,CENTRAL,,LK,+94 362 233 600,https://location.westernunion.com/lk/central/matale/f155d46a578f8dc29d46c46987b12e11,Mo-Fr 08:00-18:30,Western Union,Q861042
b770a6fb8cb3d972ec88182b14021661,western_union,DFCC VARDHANA BANK LIMITED,,Uva,CENTRAL,,LK,+94 662 234 332,https://location.westernunion.com/lk/central/uva/b770a6fb8cb3d972ec88182b14021661,Mo-Fr 09:00-16:30; Sa 09:00-13:00,Western Union,Q861042
0d935478c8772f1520df5ff4b526540a,western_union,PEOPLES BANK LANKA PORCELAIN PREMISES,,Matale,CENTRAL,,LK,+94 662 244 719,https://location.westernunion.com/lk/central/matale/0d935478c8772f1520df5ff4b526540a,Mo-Fr 08:30-15:00,Western Union,Q861042
2e89fdb9692f6be5273619942b9bbe50,western_union,MAHINDRA IDEAL FINANCE LIMITED,,Matale,CENTRAL,,LK,+94 662 117 500,https://location.westernunion.com/lk/central/matale/2e89fdb9692f6be5273619942b9bbe50,Mo-Su 08:00-17:00,Western Union,Q861042
8ccf823fda6d09b12a7d15af312fbb19,western_union,AMANA BANK PLC,,Matale,CENTRAL,,LK,+94 77 786 6370,https://location.westernunion.com/lk/central/matale/8ccf823fda6d09b12a7d15af312fbb19,Mo-Fr 09:00-15:00; Sa 09:00-13:00,Western Union,Q861042
f7ca5f1556c7fa25cd74bfad6f776d9e,western_union,AO LAKSHMI JEWELLERS PVT LTD.,,Matale,CENTRAL,,LK,+94 662 230 581,https://location.westernunion.com/lk/central/matale/f7ca5f1556c7fa25cd74bfad6f776d9e,Mo-Su 09:00-18:00,Western Union,Q861042
004bb42f5cd0826b3c4848bee4c70883,western_union,RIDEEGAMA MPCS LIMITED,,Ambakotte,CENTRAL,,LK,+94 602 873 195,https://location.westernunion.com/lk/central/ambakotte/004bb42f5cd0826b3c4848bee4c70883,Mo-Fr 08:00-15:00; Sa 08:00-11:00,Western Union,Q861042
f2ea2fb74140eb7793ed258236788d97,western_union,MATALE CO OP RURAL BANK SOCIETY LIMITED,,Matale,CENTRAL,,LK,+94 665 672 404,https://location.westernunion.com/lk/central/matale/f2ea2fb74140eb7793ed258236788d97,Mo-Fr 08:30-16:30; Sa 08:30-13:00,Western Union,Q861042
2389ff6a93cad459249c88fd380a9ed1,western_union,KANDURATA DEVELOPMENT BANK,,Rattota,CENTRAL,,LK,+94 662 255 394,https://location.westernunion.com/lk/central/rattota/2389ff6a93cad459249c88fd380a9ed1,Mo-Fr 08:00-18:30,Western Union,Q861042
7b1e61d39d1442072bbb687780e9f67d,western_union,PEOPLES BANK KAIKAWALA SC,,Kaikawala,CENTRAL,,LK,+94 662 220 958,https://location.westernunion.com/lk/central/kaikawala/7b1e61d39d1442072bbb687780e9f67d,Mo-Fr 09:00-15:00,Western Union,Q861042
4920369db8d1d8da70999a070f84836a,western_union,PEOPLES BANK GONGAWALA SC,,Matale,CENTRAL,,LK,+94 662 224 355,https://location.westernunion.com/lk/central/matale/4920369db8d1d8da70999a070f84836a,Mo-Fr 09:00-15:00,Western Union,Q861042
21ccc6702cf886575811f2ec397415ff,western_union,PEOPLES BANK AKURANA,,Akurana,CENTRAL,,LK,+94 812 300 377,https://location.westernunion.com/lk/central/akurana/21ccc6702cf886575811f2ec397415ff,Mo-Fr 09:00-15:00,Western Union,Q861042
9403a089113bde6227dc55bf8f0c2f08,western_union,SINGER SRI LANKA,,Matale,CENTRAL,,LK,+94 662 232 724,https://location.westernunion.com/lk/central/matale/9403a089113bde6227dc55bf8f0c2f08,Mo-Su 08:30-19:00,Western Union,Q861042
b20d041dd0bd807e977ab5b757b94298,western_union,SINGER SRI LANKA,,Matale,CENTRAL,,LK,+94 662 222 890,https://location.westernunion.com/lk/central/matale/b20d041dd0bd807e977ab5b757b94298,Mo-Su 08:30-19:00,Western Union,Q861042
529256fcd6442cbf3dd4c0dea81f9dd3,western_union,BINU ICECREAM,,Matale,CENTRAL,,LK,+94 77 657 0065,https://location.westernunion.com/lk/central/matale/529256fcd6442cbf3dd4c0dea81f9dd3,Mo-Su 08:00-21:00,Western Union,Q861042
07c59849ef2379d27060286b1e1d7e2f,western_union,SAMPATH BANK PLC,,Matale,CENTRAL,,LK,+94 662 223 861,https://location.westernunion.com/lk/central/matale/07c59849ef2379d27060286b1e1d7e2f,Mo-Su 08:00-22:00,Western Union,Q861042
d3ce61989b8e140f3f61d9a829220d96,western_union,PEOPLES BANK THAWALANTENNA SC,,Thawalantenna,CENTRAL,,LK,+94 522 259 812,https://location.westernunion.com/lk/central/thawalantenna/d3ce61989b8e140f3f61d9a829220d96,Mo-Fr 09:00-15:00,Western Union,Q861042
295e38c0579a2305921b613e4ce3c834,western_union,OWILIKANDA RURAL BANK,,Matale,CENTRAL,,LK,+94 71 232 1486,https://location.westernunion.com/lk/central/matale/295e38c0579a2305921b613e4ce3c834,Mo-Su 06:00-23:00,Western Union,Q861042
fd891cbb2af65f5c8621dff941838e1e,western_union,THANNA RURAL BANK,,Matale,CENTRAL,,LK,+94 70 280 7652,https://location.westernunion.com/lk/central/matale/fd891cbb2af65f5c8621dff941838e1e,Mo-Su 06:00-23:00,Western Union,Q861042
45d4a9e17b7f38b5c03c8de8c3d9ae6c,western_union,MATALE CO OP RURAL BANK SOCIETY LIMITED,,Matale,CENTRAL,,LK,+94 662 220 335,https://location.westernunion.com/lk/central/matale/45d4a9e17b7f38b5c03c8de8c3d9ae6c,Mo-Fr 08:30-16:30; Sa 08:30-13:00,Western Union,Q861042
48c9b8b168d9fec1dcea6e471f716ef6,western_union,PEOPLES BANK TRINCO STREET SC,,Matale,CENTRAL,,LK,+94 662 223 444,https://location.westernunion.com/lk/central/matale/48c9b8b168d9fec1dcea6e471f716ef6,Mo-Fr 09:00-15:00,Western Union,Q861042
72e926309a65b4dee21bc076a924c9b6,western_union,SINGER SRI LANKA,,Matale,CENTRAL,,LK,+94 662 226 366,https://location.westernunion.com/lk/central/matale/72e926309a65b4dee21bc076a924c9b6,Mo-Su 08:30-19:00,Western Union,Q861042
0164c194fcf62420f22a61d5e097d8b6,western_union,POST OFFICE,,Matale,CENTRAL,,LK,+94 662 222 250,https://location.westernunion.com/lk/central/matale/0164c194fcf62420f22a61d5e097d8b6,Mo-Sa 08:00-17:00,Western Union,Q861042
16a43b4baeb73a83382ed4953f884dd2,western_union,CITIZENS DEVELOPMENT BUSINESS FINANCE,,Matale,CENTRAL,,LK,+94 662 226 545,https://location.westernunion.com/lk/central/matale/16a43b4baeb73a83382ed4953f884dd2,Mo-Fr 08:00-17:00; Sa 08:00-14:00,Western Union,Q861042
ae5ef19efa314afc42c95a94735413c7,western_union,ANKUMBURARURAL BANK,,Ankumbura,CENTRAL,,LK,+94 662 240 303,https://location.westernunion.com/lk/central/ankumbura/ae5ef19efa314afc42c95a94735413c7,Mo-Su 06:00-23:00,Western Union,Q861042
2b5dc6513e550ef6408a69552f3817bf,western_union,ELKADUWA RURAL BANK,,Matale,CENTRAL,,LK,+94 71 553 0313,https://location.westernunion.com/lk/central/matale/2b5dc6513e550ef6408a69552f3817bf,Mo-Su 06:00-23:00,Western Union,Q861042
c3b209301478bc1c6cc2737fd1c2eef4,western_union,PEOPLES BANK WARAKAMURA SC,,Warakamura,CENTRAL,,LK,+94 662 243 100,https://location.westernunion.com/lk/central/warakamura/c3b209301478bc1c6cc2737fd1c2eef4,Mo-Fr 09:00-15:00,Western Union,Q861042
8cb6450fad210144fdd1b022ad78751b,western_union,WARAKAMURA RURAL BANK,,Matale,CENTRAL,,LK,+94 71 957 2242,https://location.westernunion.com/lk/central/matale/8cb6450fad210144fdd1b022ad78751b,Mo-Su 06:00-23:00,Western Union,Q861042
94d373b9c3387cc3af4dec699e2b666d,western_union,PEOPLES BANK HULUGANGA SC,,Huluganga,CENTRAL,,LK,+94 812 363 170,https://location.westernunion.com/lk/central/huluganga/94d373b9c3387cc3af4dec699e2b666d,Mo-Sa 09:00-15:00,Western Union,Q861042
b68b29456494bb8d1bf0622de36e72b0,western_union,PEOPLES BANK WATTEGAMA,,Wattegama,CENTRAL,,LK,+94 812 470 747,https://location.westernunion.com/lk/central/wattegama/b68b29456494bb8d1bf0622de36e72b0,Mo-Fr 09:00-15:00,Western Union,Q861042
310cacee8968d1f7cc2d47ea1187e171,western_union,POST OFFICE,,Madulkele,CENTRAL,,LK,+94 812 363 250,https://location.westernunion.com/lk/central/madulkele/310cacee8968d1f7cc2d47ea1187e171,Mo-Sa 08:00-17:00,Western Union,Q861042
1f41bc34ed8e29b3bd87b72eab03a844,western_union,PEOPLES BANK ARANAYAKE,,Aranayake,CENTRAL,,LK,+94 352 258 021,https://location.westernunion.com/lk/central/aranayake/1f41bc34ed8e29b3bd87b72eab03a844,Mo-Fr 09:00-15:00,Western Union,Q861042
36a87cf4324b208dea7d2a9da3b96608,western_union,PEOPLES BANK PUNDALUOYA,,Pundaluoya,CENTRAL,,LK,+94 512 233 219,https://location.westernunion.com/lk/central/pundaluoya/36a87cf4324b208dea7d2a9da3b96608,Mo-Fr 09:00-15:00,Western Union,Q861042
3b04f1a82223b53f87b3324daf925083,western_union,PEOPLES BANK KOTAGALA SC,,Kotagala,CENTRAL,,LK,+94 512 222 878,https://location.westernunion.com/lk/central/kotagala/3b04f1a82223b53f87b3324daf925083,Mo-Fr 09:00-15:00,Western Union,Q861042
39f9a90b0922a2ba3812c9303c3afe7b,western_union,UKUWELA RURAL BANK,,Matale,CENTRAL,,LK,+94 71 289 0379,https://location.westernunion.com/lk/central/matale/39f9a90b0922a2ba3812c9303c3afe7b,Mo-Su 06:00-23:00,Western Union,Q861042
3e7e3a3a551fe45ceaa0c82e49de32a5,western_union,KANDURATA DEVELOPMENT BANK,,Udadumbara,CENTRAL,,LK,+94 812 402 385,https://location.westernunion.com/lk/central/udadumbara/3e7e3a3a551fe45ceaa0c82e49de32a5,Mo-Fr 08:00-18:30,Western Union,Q861042
ba4be5a883664cba1b549d963e9c354f,western_union,RAITHALAWA RURAL BANK,,Matale,CENTRAL,,LK,+94 75 705 5787,https://location.westernunion.com/lk/central/matale/ba4be5a883664cba1b549d963e9c354f,Mo-Su 06:00-23:00,Western Union,Q861042
e1e79160448f42b368ee4972c427598d,western_union,PEOPLES BANK WELIMADA,,Welimada,CENTRAL,,LK,+94 572 245 170,https://location.westernunion.com/lk/central/welimada/e1e79160448f42b368ee4972c427598d,Mo-Fr 09:00-15:00,Western Union,Q861042
98df7d46900b76ac32022e3d224b1fae,western_union,PEOPLES BANK WELIMADA TOWN SC,,Welimada,CENTRAL,,LK,+94 572 244 068,https://location.westernunion.com/lk/central/welimada/98df7d46900b76ac32022e3d224b1fae,Mo-Fr 09:00-15:00,Western Union,Q861042
afaaef147c1ea32b1ab49224f7716c9d,western_union,DEDIGAMA GROUP  PRIVATE  LIMITED,,Kandy,CENTRAL,,LK,(+94) 075355605,https://location.westernunion.com/lk/central/kandy/afaaef147c1ea32b1ab49224f7716c9d,Mo-Su 08:30-18:00,Western Union,Q861042
63228c22789e2bf898eff7e0ba40c62e,western_union,NATIONAL SAVINGS BANK,,Kandy,CENTRAL,,LK,+94 662 056 900,https://location.westernunion.com/lk/central/kandy/63228c22789e2bf898eff7e0ba40c62e,Mo-Fr 08:00-14:00,Western Union,Q861042
e04630bc9f70edc9a55ddfbf441b4c27,western_union,JAYASIRI STORES,,Alawathugoda,CENTRAL,,LK,+94 813 810 217,https://location.westernunion.com/lk/central/alawathugoda/e04630bc9f70edc9a55ddfbf441b4c27,Mo-Sa 07:00-18:30,Western Union,Q861042
d8799a3e5c9551b3c385553e705ffd1a,western_union,UDISPATTUWA M P C S LIMITED,,Makuldeniya,CENTRAL,,LK,+94 815 636 662,https://location.westernunion.com/lk/central/makuldeniya/d8799a3e5c9551b3c385553e705ffd1a,Mo-We 08:30-16:30; Th 08:30-13:00; Sa-Su 08:30-16:30,Western Union,Q861042
40558773534f66e0a96f4cb793b76ee0,western_union,DUNHINNA RURAL BANK,,Dunhinna,CENTRAL,,LK,+94 812 064 865,https://location.westernunion.com/lk/central/dunhinna/40558773534f66e0a96f4cb793b76ee0,Mo-Su 06:00-23:00,Western Union,Q861042
a635d586fd3a3b188a40f0c6ef2a70e0,western_union,PEOPLES BANK ALAWATHUGODA,,Alawathugoda,CENTRAL,,LK,+94 662 244 875,https://location.westernunion.com/lk/central/alawathugoda/a635d586fd3a3b188a40f0c6ef2a70e0,Mo-Fr 09:00-15:00,Western Union,Q861042
17c580b41a8b3401744d9e691599618d,western_union,UDAGAMARURAL BANK,,Udagama,CENTRAL,,LK,+94 662 240 980,https://location.westernunion.com/lk/central/udagama/17c580b41a8b3401744d9e691599618d,Mo-Su 06:00-23:00,Western Union,Q861042
70dfcc453ee74c8c68cedf030de2315f,western_union,SINGER SRI LANKA,,Poojapitiya,CENTRAL,,LK,+94 815 626 172,https://location.westernunion.com/lk/central/poojapitiya/70dfcc453ee74c8c68cedf030de2315f,Mo-Su 08:30-19:00,Western Union,Q861042
06f0d65d0ea6d0d099e2b3d991ad6da9,western_union,SUNSHINES,,Wattegama,CENTRAL,,LK,+94 77 364 9219,https://location.westernunion.com/lk/central/wattegama/06f0d65d0ea6d0d099e2b3d991ad6da9,Mo-Su 06:00-23:00,Western Union,Q861042
89d75d59e56dad77610f5d3dcd77078b,western_union,KANDURATA DEVELOPMENT BANK,,Wattegama,CENTRAL,,LK,+94 812 476 263,https://location.westernunion.com/lk/central/wattegama/89d75d59e56dad77610f5d3dcd77078b,Mo-Fr 08:00-18:30,Western Union,Q861042
bbfe6ed679848835b777d13f7462ef5a,western_union,SAMPATH BANK PLC,,Poojapitiya,CENTRAL,,LK,+94 812 307 053,https://location.westernunion.com/lk/central/poojapitiya/bbfe6ed679848835b777d13f7462ef5a,Mo-Su 08:00-22:00,Western Union,Q861042
ef4e9ec0b8187ab1821a1a49398b8133,western_union,DFCC VARDHANA BANK LTD,,Wattegama,CENTRAL,,LK,+94 812 470 933,https://location.westernunion.com/lk/central/wattegama/ef4e9ec0b8187ab1821a1a49398b8133,Mo-Fr 09:00-16:30; Sa 09:00-13:00,Western Union,Q861042
d1b32a0b7fbfb3a544799afbf452dcd6,western_union,GAGASIRIGAMA RURAL BANK,,Gagasirigama,CENTRAL,,LK,+94 812 063 449,https://location.westernunion.com/lk/central/gagasirigama/d1b32a0b7fbfb3a544799afbf452dcd6,Mo-Su 06:00-23:00,Western Union,Q861042
f3e2b1d05df9f30dff79582694b43d72,western_union,UDISPATHUWA MPCS LTD,,Udispaththuwa,CENTRAL,,LK,+94 815 787 421,https://location.westernunion.com/lk/central/udispaththuwa/f3e2b1d05df9f30dff79582694b43d72,Mo-We 08:30-16:30; Th 08:30-13:00; Sa-Su 08:30-16:30,Western Union,Q861042
fee2ce208a16bdb4422ca1a503d1823c,western_union,GALPIHILLA RURAL BANK,,Galpihilla,CENTRAL,,LK,+94 813 168 360,https://location.westernunion.com/lk/central/galpihilla/fee2ce208a16bdb4422ca1a503d1823c,Mo-Su 06:00-23:00,Western Union,Q861042
89a901a4731c954b4212001540585402,western_union,REGIONAL DEVELOPMENT BANK,,Paragadeniya,CENTRAL,,LK,+94 71 842 0872,https://location.westernunion.com/lk/central/paragadeniya/89a901a4731c954b4212001540585402,Mo-Fr 08:00-18:30; Sa 09:00-16:00,Western Union,Q861042
d946bebf45b95599072c078bc90f4147,western_union,PUTUHAPUWA RURAL BANK,,Putuhapuwa,CENTRAL,,LK,+94 812 061 326,https://location.westernunion.com/lk/central/putuhapuwa/d946bebf45b95599072c078bc90f4147,Mo-Su 06:00-23:00,Western Union,Q861042
1270ca5416fd2c0cee73337e74145787,western_union,NARAMPANAWA RURAL BANK,,Narampanawa,CENTRAL,,LK,+94 813 168 359,https://location.westernunion.com/lk/central/narampanawa/1270ca5416fd2c0cee73337e74145787,Mo-Su 06:00-23:00,Western Union,Q861042
323c7f077cc0c869ed7ef31e11d066a7,western_union,PEOPLES BANK MEDAMAHANUWARA  SC,,Medamahanuwara,CENTRAL,,LK,+94 812 402 393,https://location.westernunion.com/lk/central/medamahanuwara/323c7f077cc0c869ed7ef31e11d066a7,Mo-Fr 09:00-15:00,Western Union,Q861042
97887ffe12fba0f0ccad3014b93901c2,western_union,MEDAMAHANUWARA RURAL BANK,,Medamahanuwara,CENTRAL,,LK,+94 812 402 421,https://location.westernunion.com/lk/central/medamahanuwara/97887ffe12fba0f0ccad3014b93901c2,Mo-Su 06:00-23:00,Western Union,Q861042
d8e2482f3de2ea97b5a8845236b980e5,western_union,WAWINNA RURAL BANK,,Wawinna,CENTRAL,,LK,+94 813 168 358,https://location.westernunion.com/lk/central/wawinna/d8e2482f3de2ea97b5a8845236b980e5,Mo-Su 06:00-23:00,Western Union,Q861042
e03b0b4218060b9bd94c619b284ef081,western_union,SINGER SRI LANKA,,Akurana,CENTRAL,,LK,+94 812 300 086,https://location.westernunion.com/lk/central/akurana/e03b0b4218060b9bd94c619b284ef081,Mo-Su 08:30-19:00,Western Union,Q861042
fef2281d13f3ee9c6f3409694111aaf6,western_union,AKURANA GEM  AND JEWELLERS  PV,,Akurana,CENTRAL,,LK,+94 817 212 587,https://location.westernunion.com/lk/central/akurana/fef2281d13f3ee9c6f3409694111aaf6,Mo-Th 10:00-19:30; Sa-Su 10:00-19:30,Western Union,Q861042
13198e146ce066ea6f4b91134af66150,western_union,KANDURATA DEVELOPMENT BANK,,Teldeniya,CENTRAL,,LK,+94 812 375 045,https://location.westernunion.com/lk/central/teldeniya/13198e146ce066ea6f4b91134af66150,Mo-Fr 08:00-18:30,Western Union,Q861042
6fdd20200cd8adc09870d527ec3f6c78,western_union,KANDURATA DEVELOPMENT BANK,,Minipe,CENTRAL,,LK,+94 552 257 025,https://location.westernunion.com/lk/central/minipe/6fdd20200cd8adc09870d527ec3f6c78,Mo-Fr 08:00-18:30,Western Union,Q861042
16b3de8690b1b2fca5c3782380164983,western_union,PEOPLES BANK PANWILLA,,Panwilla,CENTRAL,,LK,+94 812 472 170,https://location.westernunion.com/lk/central/panwilla/16b3de8690b1b2fca5c3782380164983,Mo-Fr 09:00-15:00,Western Union,Q861042
54de3d6b0bd46c0b4fdd1debe8e5606f,western_union,POST OFFICE,,Panwila,CENTRAL,,LK,+94 812 476 351,https://location.westernunion.com/lk/central/panwila/54de3d6b0bd46c0b4fdd1debe8e5606f,Mo-Sa 08:00-17:00,Western Union,Q861042
5aa241ef116f5b08b593241451c0684d,western_union,COMMERCIAL BANK OF CEYLON PLC,,Wattegama,CENTRAL,,LK,+94 812 476 026,https://location.westernunion.com/lk/central/wattegama/5aa241ef116f5b08b593241451c0684d,Mo-Fr 08:00-17:00,Western Union,Q861042
b65c129f7193c688e5941d0260744a23,western_union,SINGER SRI LANKA,,Wattegama,CENTRAL,,LK,+94 812 470 070,https://location.westernunion.com/lk/central/wattegama/b65c129f7193c688e5941d0260744a23,Mo-Su 08:30-19:00,Western Union,Q861042
81e68c8ccb73a7f2e78140d80221337e,western_union,SAMPATH BANK PLC,,Wattegama,CENTRAL,,LK,+94 812 476 876,https://location.westernunion.com/lk/central/wattegama/81e68c8ccb73a7f2e78140d80221337e,Mo-Su 08:00-22:00,Western Union,Q861042
49cd3a16ceac7ba0de16c235d568d9ee,western_union,POOJAPITIYA RURAL BANK,,Poojapitiya,CENTRAL,,LK,+94 812 300 749,https://location.westernunion.com/lk/central/poojapitiya/49cd3a16ceac7ba0de16c235d568d9ee,Mo-Su 06:00-23:00,Western Union,Q861042
d2cdb2f606dcb9ff09464ce684415433,western_union,PEOPLES BANK POOJAPITIYA,,Poojapitiya,CENTRAL,,LK,+94 812 303 108,https://location.westernunion.com/lk/central/poojapitiya/d2cdb2f606dcb9ff09464ce684415433,Mo-Fr 09:00-15:00,Western Union,Q861042
153c894c3f0d87fceb686c9cebdc0310,western_union,TELDENIYA RURAL BANK,,Teldeniya,CENTRAL,,LK,+94 813 813 073,https://location.westernunion.com/lk/central/teldeniya/153c894c3f0d87fceb686c9cebdc0310,Mo-Su 06:00-23:00,Western Union,Q861042
ed00b625d10294a25db5ff992d57fda3,western_union,PEOPLES BANK TELDENIYA,,Teldeniya,CENTRAL,,LK,+94 812 374 377,https://location.westernunion.com/lk/central/teldeniya/ed00b625d10294a25db5ff992d57fda3,Mo-Fr 09:00-15:00,Western Union,Q861042
35e284bad18e3b5a16abd2c4c4a2a65d,western_union,KANDURATA DEVELOPMENT BANK,,Pujapitiya,CENTRAL,,LK,+94 812 303 128,https://location.westernunion.com/lk/central/pujapitiya/35e284bad18e3b5a16abd2c4c4a2a65d,Mo-Fr 08:00-18:30,Western Union,Q861042
97c63bd3e69c74296facacb566a6c4e6,western_union,COMMERCIAL BANK OF CEYLON PLC,,Teldeniya,CENTRAL,,LK,+94 812 071 926,https://location.westernunion.com/lk/central/teldeniya/97c63bd3e69c74296facacb566a6c4e6,Mo-Fr 08:00-17:00,Western Union,Q861042
454fad6bc4b0396599907542af84e8af,western_union,COMMERCIAL BANK OF CEYLON PLC,,Akurana,CENTRAL,,LK,+94 812 302 822,https://location.westernunion.com/lk/central/akurana/454fad6bc4b0396599907542af84e8af,Mo-Su 08:00-20:00,Western Union,Q861042
6f0e8f92f3e01b7eadee07983311444b,western_union,PEOPLES BANK MADAWALA SC,,Madawala,CENTRAL,,LK,+94 812 470 150,https://location.westernunion.com/lk/central/madawala/6f0e8f92f3e01b7eadee07983311444b,Mo-Fr 09:00-15:00,Western Union,Q861042
25f170d7c91fd464de93085b7ac33cd1,western_union,AN - NOOR INVESTMENT LIMITED,,Kandy,CENTRAL,,LK,+94 812 470 628,https://location.westernunion.com/lk/central/kandy/25f170d7c91fd464de93085b7ac33cd1,Mo-Su 06:00-23:00,Western Union,Q861042
8c5fbb0c637ccad4bb657839a70a372f,western_union,POST OFFICE,,Galagedara,CENTRAL,,LK,+94 812 461 250,https://location.westernunion.com/lk/central/galagedara/8c5fbb0c637ccad4bb657839a70a372f,Mo-Sa 08:00-17:00,Western Union,Q861042
a04ad382b0fa1c1800986e2a0bd02977,western_union,SINGER SRI LANKA,,Galagedara,CENTRAL,,LK,+94 815 610 827,https://location.westernunion.com/lk/central/galagedara/a04ad382b0fa1c1800986e2a0bd02977,Mo-Su 08:30-19:00,Western Union,Q861042
8414a856f583bdd86af1362de0378dd6,western_union,PEOPLES BANK UKUWELA,,Ukuwela,CENTRAL,,LK,+94 662 242 224,https://location.westernunion.com/lk/central/ukuwela/8414a856f583bdd86af1362de0378dd6,Mo-Fr 09:00-15:00,Western Union,Q861042
f1dda24097770eb2610fd42e27171449,western_union,MULLEGAMARURAL BANK,,Mullegama,CENTRAL,,LK,+94 812 305 109,https://location.westernunion.com/lk/central/mullegama/f1dda24097770eb2610fd42e27171449,Mo-Su 06:00-23:00,Western Union,Q861042
0be3e600feb57aa00767d2ee6e15b622,western_union,BAMBARABOTUWA   MARAPANA MPCS LTD,,Gallella,CENTRAL,,LK,+94 452 248 104,https://location.westernunion.com/lk/central/gallella/0be3e600feb57aa00767d2ee6e15b622,Mo-Th 08:30-17:00; Fr 08:00-13:00; Su 08:30-17:00,Western Union,Q861042
9b013f38efe9970060fdd904e0b21fa5,western_union,DEDIGAMA GROUP  PRIVATE  LIMITED,,Kandy,CENTRAL,,LK,+94 812 302 838,https://location.westernunion.com/lk/central/kandy/9b013f38efe9970060fdd904e0b21fa5,Mo-Su 08:30-19:00,Western Union,Q861042
08b01c47acccdf2e373d1f39eb24debc,western_union,PEOPLES BANK BOKKAWALA SC,,Pujapitiya,CENTRAL,,LK,+94 812 052 307,https://location.westernunion.com/lk/central/pujapitiya/08b01c47acccdf2e373d1f39eb24debc,Mo-Su 08:00-16:00,Western Union,Q861042
68005b2d9b4fb9ddfc5dfeffd51176a3,western_union,UDISPATHUWA MPCS LTD,,Rangala,CENTRAL,,LK,+94 815 751 480,https://location.westernunion.com/lk/central/rangala/68005b2d9b4fb9ddfc5dfeffd51176a3,Mo-We 08:30-16:30; Th 08:30-13:00; Sa-Su 08:30-16:30,Western Union,Q861042
e443e596c78f9f102731ab7203d1d290,western_union,SINGER FINANCE LANKA PLC,,Dambulla,CENTRAL,,LK,+94 77 292 7451,https://location.westernunion.com/lk/central/dambulla/e443e596c78f9f102731ab7203d1d290,Mo-Sa 08:30-17:00,Western Union,Q861042
db3590a86463dd043b78dcd5ca44328d,western_union,SAMPATH BANK PLC,,Digana,CENTRAL,,LK,+94 812 376 765,https://location.westernunion.com/lk/central/digana/db3590a86463dd043b78dcd5ca44328d,Mo-Su 08:00-22:00,Western Union,Q861042
03d3bcdd9402d1d518180a571d396d06,western_union,POST OFFICE,,Pujapitiya,CENTRAL,,LK,+94 812 303 357,https://location.westernunion.com/lk/central/pujapitiya/03d3bcdd9402d1d518180a571d396d06,Mo-Sa 08:00-17:00,Western Union,Q861042
d798d83ff778c233a534618525230c47,western_union,MENIKHINNA CO OP RURAL PEOPLE,,Menikhinna,CENTRAL,,LK,+94 812 374 378,https://location.westernunion.com/lk/central/menikhinna/d798d83ff778c233a534618525230c47,Mo-Fr 09:00-15:00; Sa 09:00-11:00,Western Union,Q861042
f816fefdb3f5917e478cdd53e6583878,western_union,SAMPATH BANK PLC,,Marandagamula,CENTRAL,,LK,+94 812 376 547,https://location.westernunion.com/lk/central/marandagamula/f816fefdb3f5917e478cdd53e6583878,Mo-Su 08:00-22:00,Western Union,Q861042
1e788f927b8806320e95cc054e98f15d,western_union,HURI/MADYAMA RURAL BANK,,Menikhinna,CENTRAL,,LK,+94 813 168 351,https://location.westernunion.com/lk/central/menikhinna/1e788f927b8806320e95cc054e98f15d,Mo-Su 06:00-23:00,Western Union,Q861042
c50d3f422a809db6fdc1769038023c66,western_union,TELDENIYAGAMA RURAL BANK,,Teldeniyagama,CENTRAL,,LK,+94 812 072 022,https://location.westernunion.com/lk/central/teldeniyagama/c50d3f422a809db6fdc1769038023c66,Mo-Su 06:00-23:00,Western Union,Q861042
f68cc0aae4ae61c6720a860d68a3dc80,western_union,DIGANA RURAL BANK,,Digana,CENTRAL,,LK,+94 813 168 354,https://location.westernunion.com/lk/central/digana/f68cc0aae4ae61c6720a860d68a3dc80,Mo-Su 06:00-23:00,Western Union,Q861042
97cd3bb6a73f4ea461cb6ed8d2212df5,western_union,COMMERCIAL BANK OF CEYLON PLC,,Digana,CENTRAL,,LK,+94 812 376 888,https://location.westernunion.com/lk/central/digana/97cd3bb6a73f4ea461cb6ed8d2212df5,Mo-Fr 08:00-17:00,Western Union,Q861042
5ec2d5d886a9658857d1b9d12b9443a0,western_union,POST OFFICE,,Kundasale,CENTRAL,,LK,+94 812 423 214,https://location.westernunion.com/lk/central/kundasale/5ec2d5d886a9658857d1b9d12b9443a0,Mo-Sa 08:00-17:00,Western Union,Q861042
7c156c24eaa4022bad62ba33fde80a4e,western_union,PEOPLES BANK KUNDASALE,,Kundasale,CENTRAL,,LK,+94 812 420 788,https://location.westernunion.com/lk/central/kundasale/7c156c24eaa4022bad62ba33fde80a4e,Mo-Sa 09:00-15:00,Western Union,Q861042
c5fcedb068322d72fb0c94de54bbcb90,western_union,MENIKHINNA CO OP RURAL PEOPLE,,Rajawella,CENTRAL,,LK,+94 812 374 194,https://location.westernunion.com/lk/central/rajawella/c5fcedb068322d72fb0c94de54bbcb90,Mo-Fr 09:00-15:00; Sa 09:00-11:00,Western Union,Q861042
f80c26ca19b8d643d3cbe5ea20a525dd,western_union,SINGER SRI LANKA,,Digana,CENTRAL,,LK,+94 815 631 097,https://location.westernunion.com/lk/central/digana/f80c26ca19b8d643d3cbe5ea20a525dd,Mo-Su 08:30-19:00,Western Union,Q861042
65cd96f3cc49a95bef54d9459cf4b437,western_union,PEOPLES BANK DIGANA SC 455,,Digana,CENTRAL,,LK,+94 812 374 700,https://location.westernunion.com/lk/central/digana/65cd96f3cc49a95bef54d9459cf4b437,Mo-Fr 09:00-15:00,Western Union,Q861042
12fafb5fb6572117e8ee16342ad78a2c,western_union,DEVI JEWELLERS,,Digana,CENTRAL,,LK,+94 812 073 755,https://location.westernunion.com/lk/central/digana/12fafb5fb6572117e8ee16342ad78a2c,Mo-Su 06:00-23:00,Western Union,Q861042
06b6bdcaf0b7e5c487646292f300c262,western_union,SINGER SRI LANKA,,Digana,CENTRAL,,LK,+94 812 375 883,https://location.westernunion.com/lk/central/digana/06b6bdcaf0b7e5c487646292f300c262,Mo-Su 08:30-19:00,Western Union,Q861042
db471bcfa0ed6eca4d3234d0f400d772,western_union,NATIONS TRUST BANK PLC,,Kandy,CENTRAL,,LK,+94 814 953 765,https://location.westernunion.com/lk/central/kandy/db471bcfa0ed6eca4d3234d0f400d772,Mo-Fr 09:00-17:00; Sa 09:00-12:00,Western Union,Q861042
2a7499fb027eda52d4a714149564a2dd,western_union,SURIYA SRI HOLDINGS  PVT  LTD,,Katugasthota,CENTRAL,,LK,+94 77 161 6370,https://location.westernunion.com/lk/central/katugasthota/2a7499fb027eda52d4a714149564a2dd,Mo-Su 08:30-18:00,Western Union,Q861042
9bb91eff5f08bb3f4d63665da02e18f9,western_union,LB FINANCE PLC,,Digana,CENTRAL,,LK,+94 77 220 0227,https://location.westernunion.com/lk/central/digana/9bb91eff5f08bb3f4d63665da02e18f9,Mo-Sa 08:30-18:00,Western Union,Q861042
a1767e38e923be7d5867bc531e9a8f71,western_union,POLGOLLA RURAL BANK,,Polgolla,CENTRAL,,LK,+94 812 494 175,https://location.westernunion.com/lk/central/polgolla/a1767e38e923be7d5867bc531e9a8f71,Mo-Su 06:00-23:00,Western Union,Q861042
2ed8cb1a61b5d9254d538b31182ce527,western_union,SINGER FINANCE LANKA PLC,,Kandy,CENTRAL,,LK,+94 71 961 2892,https://location.westernunion.com/lk/central/kandy/2ed8cb1a61b5d9254d538b31182ce527,Mo-Sa 08:30-17:00,Western Union,Q861042
4a0a252d22ece398d3d459ba7757b427,western_union,BALAGOLLA RURAL BANK,,Balagolla,CENTRAL,,LK,+94 813 168 353,https://location.westernunion.com/lk/central/balagolla/4a0a252d22ece398d3d459ba7757b427,Mo-Su 06:00-23:00,Western Union,Q861042
90bae0cc0339674930ca2812712d2cfc,western_union,SRI NARENDRASINGHE THRIFT CREDIT COP SOC,,Kengalla,CENTRAL,,LK,+94 812 420 190,https://location.westernunion.com/lk/central/kengalla/90bae0cc0339674930ca2812712d2cfc,Mo-Fr 09:00-16:00; Sa 09:00-12:00,Western Union,Q861042
360d2045272616e226c8f22d5dbedbea,western_union,MENIKHINNA CO OP RURAL PEOPLE,,Kandy,CENTRAL,,LK,+94 812 422 934,https://location.westernunion.com/lk/central/kandy/360d2045272616e226c8f22d5dbedbea,Mo-Fr 09:00-15:00; Sa 09:00-11:00,Western Union,Q861042
8f55b1bcb0b7d3acc35c62029e69bba0,western_union,AMBAKOTE RURAL BANK,,Ambakote,CENTRAL,,LK,+94 813 168 356,https://location.westernunion.com/lk/central/ambakote/8f55b1bcb0b7d3acc35c62029e69bba0,Mo-Su 06:00-23:00,Western Union,Q861042
656381ac46156ee77a99e506ba6e4aa2,western_union,DEDIGAMA GROUP (PRIVATE) LIMITED,,Warallagama,CENTRAL,,LK,+94 75 170 8237,https://location.westernunion.com/lk/central/warallagama/656381ac46156ee77a99e506ba6e4aa2,Mo-Su 08:00-17:00,Western Union,Q861042
4a909c32bd90e8cec066e1a52858ee3c,western_union,KANDURATA DEVELOPMENT BANK,,Warallagama,CENTRAL,,LK,+94 812 461 848,https://location.westernunion.com/lk/central/warallagama/4a909c32bd90e8cec066e1a52858ee3c,Mo-Fr 08:00-18:30,Western Union,Q861042
ed1cbdd6e55261b93e7411500a48f7b7,western_union,PEOPLES BANK MAHAIYAWA SC,,Mahaiyawa,CENTRAL,,LK,+94 812 213 205,https://location.westernunion.com/lk/central/mahaiyawa/ed1cbdd6e55261b93e7411500a48f7b7,Mo-Fr 09:00-15:00,Western Union,Q861042
cadaf060c79f43fdee6cda99da79f500,western_union,MAHAWATTA RURAL BANK,,Mahawatta,CENTRAL,,LK,+94 813 168 357,https://location.westernunion.com/lk/central/mahawatta/cadaf060c79f43fdee6cda99da79f500,Mo-Su 06:00-23:00,Western Union,Q861042
0961e296ebe4fea9212547d47a29f5cd,western_union,KARAPUTUGALA JEWELLERS,,Kundasale,CENTRAL,,LK,+94 812 423 116,https://location.westernunion.com/lk/central/kundasale/0961e296ebe4fea9212547d47a29f5cd,Mo-Su 09:00-18:30,Western Union,Q861042
1b916c36511455fdd74c472ff5f5e3ef,western_union,SIRIMALWATTA RURAL BANK,,Sirimalwatta,CENTRAL,,LK,+94 813 168 355,https://location.westernunion.com/lk/central/sirimalwatta/1b916c36511455fdd74c472ff5f5e3ef,Mo-Su 06:00-23:00,Western Union,Q861042
3413ba5f210f3b0d57d0e7fc926e421f,western_union,COMMERCIAL BANK OF CEYLON PLC,,Kandy,CENTRAL,,LK,+94 812 234 472,https://location.westernunion.com/lk/central/kandy/3413ba5f210f3b0d57d0e7fc926e421f,Mo-Su 08:00-20:00,Western Union,Q861042
003c564940a573e5750039747a801080,western_union,ALLIANCE FINANCE COMPANY PLC,,Kandy,CENTRAL,,LK,+94 812 224 655,https://location.westernunion.com/lk/central/kandy/003c564940a573e5750039747a801080,Mo-Su 07:00-22:00,Western Union,Q861042
16d6cc5d5f068bd15a0acb3da0a3c116,western_union,MORAPE MPCL LTD,,Central,CENTRAL,,LK,+94 815 600 300,https://location.westernunion.com/lk/central/central/16d6cc5d5f068bd15a0acb3da0a3c116,Mo-We 08:00-16:00; Th 08:00-13:00; Sa-Su 08:00-16:00,Western Union,Q861042
a1877ed3887bde1c4ac624db43a00c1b,western_union,DFCC VARDHANA BANK LIMITED,,Katugastota,CENTRAL,,LK,+94 812 213 465,https://location.westernunion.com/lk/central/katugastota/a1877ed3887bde1c4ac624db43a00c1b,Mo-Fr 09:00-16:30; Sa 09:00-13:00,Western Union,Q861042
25a722d35e25e7db5a72aa1ebb5859d3,western_union,NITHULEMADA RURAL BANK,,Nithulemada,CENTRAL,,LK,+94 813 151 410,https://location.westernunion.com/lk/central/nithulemada/25a722d35e25e7db5a72aa1ebb5859d3,Mo-Su 06:00-23:00,Western Union,Q861042
78c6ab7b8058d8c7948419584458c435,western_union,COMMERCIAL BANK OF CEYLON PLC,,Katugastota,CENTRAL,,LK,+94 812 499 836,https://location.westernunion.com/lk/central/katugastota/78c6ab7b8058d8c7948419584458c435,Mo-Fr 08:00-17:00,Western Union,Q861042
28087991bf3b6333f7217621e4f4aebf,western_union,SAMPATH BANK PLC,,Katugastota,CENTRAL,,LK,+94 812 498 932,https://location.westernunion.com/lk/central/katugastota/28087991bf3b6333f7217621e4f4aebf,Mo-Su 08:00-22:00,Western Union,Q861042
bfcdec8a8df4a73627ee4dc2fca4465a,western_union,MAHINDRA IDEAL FINANCE LIMITED,,Katugasthota,CENTRAL,,LK,+94 812 244 730,https://location.westernunion.com/lk/central/katugasthota/bfcdec8a8df4a73627ee4dc2fca4465a,Mo-Su 08:00-17:00,Western Union,Q861042
6d1139e0f7dc265512e75436540df2ca,western_union,PEOPLES BANK ANKUMBURA,,Ankumbura,CENTRAL,,LK,+94 662 240 889,https://location.westernunion.com/lk/central/ankumbura/6d1139e0f7dc265512e75436540df2ca,Mo-Fr 09:00-15:00,Western Union,Q861042
6eb4bc99f5ac31ccd4ba68e9dee0cfc6,western_union,NA/AMUNUGAMA RURAL BANK,,Amunugama,CENTRAL,,LK,+94 812 470 152,https://location.westernunion.com/lk/central/amunugama/6eb4bc99f5ac31ccd4ba68e9dee0cfc6,Mo-Su 06:00-23:00,Western Union,Q861042
a77f90b488b96440cb970585c72adbff,western_union,SANDASIRI DUNUWILA RURAL BANK,,Sandasiri Dunuwila,CENTRAL,,LK,+94 812 402 009,https://location.westernunion.com/lk/central/sandasiri-dunuwila/a77f90b488b96440cb970585c72adbff,Mo-Su 06:00-23:00,Western Union,Q861042
b273c0fc1fa5a1a76edb8133ab71801a,western_union,PAN ASIA BANKING CORPORATION PLC,,Katugastota,CENTRAL,,LK,+94 814 951 036,https://location.westernunion.com/lk/central/katugastota/b273c0fc1fa5a1a76edb8133ab71801a,Mo-Fr 09:00-16:00,Western Union,Q861042
969dc87f7f787434f1e2e00891495882,western_union,PEOPLES BANK PALLEKELE SC,,Kandy,CENTRAL,,LK,+94 812 424 833,https://location.westernunion.com/lk/central/kandy/969dc87f7f787434f1e2e00891495882,Mo-Fr 08:00-16:00,Western Union,Q861042
e0c751dcc9f810eac621bcb45b8f49c7,western_union,PALLEPOLA M P C S LIMITED,,Mahawela,CENTRAL,,LK,+94 665 688 470,https://location.westernunion.com/lk/central/mahawela/e0c751dcc9f810eac621bcb45b8f49c7,Mo-Su 08:00-16:00,Western Union,Q861042
03d642e6bd93cd60216160635f6418e6,western_union,KANDY MPCS LTD,,Watapuluwa,CENTRAL,,LK,+94 815 676 561,https://location.westernunion.com/lk/central/watapuluwa/03d642e6bd93cd60216160635f6418e6,Mo-Fr 09:00-15:30; Sa 09:00-12:30,Western Union,Q861042
886fb2418d8f3de8a360ac10382c22f8,western_union,PEOPLES BANK KATUGASTOTA,,Katugastota,CENTRAL,,LK,+94 812 499 289,https://location.westernunion.com/lk/central/katugastota/886fb2418d8f3de8a360ac10382c22f8,Mo-Fr 09:00-15:00,Western Union,Q861042
89984845684c7b95a25ed9a935cea2ba,western_union,CITIZENS DEVELOPMENT BUSINESS FINANCE,,Katugastota,CENTRAL,,LK,+94 812 212 517,https://location.westernunion.com/lk/central/katugastota/89984845684c7b95a25ed9a935cea2ba,Mo-Fr 08:00-17:00; Sa 08:00-14:00,Western Union,Q861042
c211cf90eb4f9a05734fb8be85958d92,western_union,LB FINANCE PLC,,Kandy,CENTRAL,,LK,+94 812 064 868,https://location.westernunion.com/lk/central/kandy/c211cf90eb4f9a05734fb8be85958d92,Mo-Sa 08:30-18:00,Western Union,Q861042
8594811a7d7ef56f00cef5adc16d6cc7,western_union,DEDIGAMA GROUP (PRIVATE) LIMITED,,Katugasthota,CENTRAL,,LK,+94 75 575 0912,https://location.westernunion.com/lk/central/katugasthota/8594811a7d7ef56f00cef5adc16d6cc7,Mo-Su 08:00-17:00,Western Union,Q861042
24a890e1db2ecbcc16caa319eff79f26,western_union,DEDIGAMA GROUP (PRIVATE) LIMITED,,Katugasthota,CENTRAL,,LK,+94 75 575 0912,https://location.westernunion.com/lk/central/katugasthota/24a890e1db2ecbcc16caa319eff79f26,Mo-Su 08:00-17:00,Western Union,Q861042
b00a05a1dd8af9a7bf02ce2d90cf16ed,western_union,PEOPLES BANK POLGOLLA SC,,Katugastota,CENTRAL,,LK,+94 812 494 442,https://location.westernunion.com/lk/central/katugastota/b00a05a1dd8af9a7bf02ce2d90cf16ed,Mo-Fr 08:30-15:30,Western Union,Q861042
0bcfdec490701447261222b76a0450db,western_union,SINGER SRI LANKA,,Katugastota,CENTRAL,,LK,+94 812 498 635,https://location.westernunion.com/lk/central/katugastota/0bcfdec490701447261222b76a0450db,Mo-Su 08:30-19:00,Western Union,Q861042
f07be994e4a98041d62902dfa8965945,western_union,SINGER SRI LANKA,,Katugastota,CENTRAL,,LK,+94 812 500 290,https://location.westernunion.com/lk/central/katugastota/f07be994e4a98041d62902dfa8965945,Mo-Su 08:30-19:00,Western Union,Q861042
8f39b0e5ad06ff5d94e1e78ae6c611d6,western_union,DFCC VARDHANA BANK LTD,,Kandy,CENTRAL,,LK,+94 812 221 551,https://location.westernunion.com/lk/central/kandy/8f39b0e5ad06ff5d94e1e78ae6c611d6,Mo-Fr 09:00-16:30,Western Union,Q861042
360e102ea24f0fb5001f6a5eb0ff0715,western_union,PEOPLES BANK KANDY CITY CENTER,,Kandy,CENTRAL,,LK,+94 812 205 121,https://location.westernunion.com/lk/central/kandy/360e102ea24f0fb5001f6a5eb0ff0715,Mo-Fr 09:00-17:30; Sa-Su 09:00-14:00,Western Union,Q861042
6daa712f6fd8e1731b5416fe8e015cdb,western_union,NATIONAL DEVELOPMENT BANK PLC,,Kandy,CENTRAL,,LK,+94 812 202 893,https://location.westernunion.com/lk/central/kandy/6daa712f6fd8e1731b5416fe8e015cdb,Mo-Su 08:00-20:30,Western Union,Q861042
834bae5f07db15797f4dd38436ae33dd,western_union,SAMPATH BANK PLC,,Kandy,CENTRAL,,LK,+94 812 232 778,https://location.westernunion.com/lk/central/kandy/834bae5f07db15797f4dd38436ae33dd,Mo-Su 08:00-22:00,Western Union,Q861042
f53008d94db3041942f11c8ffd2a3247,western_union,PEOPLES BANK HATARALIYADDA,,Hataraliyadda,CENTRAL,,LK,+94 812 464 370,https://location.westernunion.com/lk/central/hataraliyadda/f53008d94db3041942f11c8ffd2a3247,Mo-Fr 09:00-15:00,Western Union,Q861042
3803881fb9eb4ff0d66ccf75fdcea949,western_union,HATTON NATIONAL BANK,,Ampara,CENTRAL,,LK,+94 632 222 634,https://location.westernunion.com/lk/central/ampara/3803881fb9eb4ff0d66ccf75fdcea949,Mo-Fr 09:00-16:00,Western Union,Q861042
c245f10f2e69d6dfc8a803d045fe3706,western_union,COMMERCIAL BANK OF CEYLON PLC,,Naththarampotha,CENTRAL,,LK,+94 812 423 980,https://location.westernunion.com/lk/central/naththarampotha/c245f10f2e69d6dfc8a803d045fe3706,Mo-Su 08:00-20:00,Western Union,Q861042
54be3c978d479beb71881910d8bdcdd9,western_union,AMANA BANK LIMITED,,Kandy,CENTRAL,,LK,+94 817 756 003,https://location.westernunion.com/lk/central/kandy/54be3c978d479beb71881910d8bdcdd9,Mo-Fr 09:00-16:00,Western Union,Q861042
79dc982b847f184e2e66af50c232193f,western_union,NATIONS TRUST BANK PLC,,Kandy,CENTRAL,,LK,+94 814 471 701,https://location.westernunion.com/lk/central/kandy/79dc982b847f184e2e66af50c232193f,Mo-Fr 09:00-15:00; Sa 09:00-12:00,Western Union,Q861042
561ae32e284c38512ba05b37ea802d7b,western_union,DEDIGAMA GROUP PVT LTD,,Kandy,CENTRAL,,LK,+94 75 355 6001,https://location.westernunion.com/lk/central/kandy/561ae32e284c38512ba05b37ea802d7b,Mo-Su 08:00-18:00,Western Union,Q861042
58a3bfcb7620cef0ed0f85e34ba40b55,western_union,KANDY M P C S LIMITED,,Kandy,CENTRAL,,LK,+94 815 625 005,https://location.westernunion.com/lk/central/kandy/58a3bfcb7620cef0ed0f85e34ba40b55,Mo-Fr 09:00-15:00; Sa 09:00-13:00,Western Union,Q861042
dd785d945402d49f8279a9eeb3f8d05b,western_union,SINGER SRI LANKA,,Kandy,CENTRAL,,LK,+94 812 224 040,https://location.westernunion.com/lk/central/kandy/dd785d945402d49f8279a9eeb3f8d05b,Mo-Su 08:30-19:00,Western Union,Q861042
29dc5f4f7379dc8965288bf9a01d6cf5,western_union,CITIZENS DEVELOPMENT BUSINESS FINANCE,,Kandy,CENTRAL,,LK,+94 812 204 600,https://location.westernunion.com/lk/central/kandy/29dc5f4f7379dc8965288bf9a01d6cf5,Mo-Fr 08:00-17:00; Sa 08:00-14:00,Western Union,Q861042
3ff19a4dac55b472f3aa4fd10c6d40c1,western_union,NATIONAL DEVELOPMENT BANK PLC,,Kandy,CENTRAL,,LK,+94 812 202 776,https://location.westernunion.com/lk/central/kandy/3ff19a4dac55b472f3aa4fd10c6d40c1,Mo-Su 08:00-20:30,Western Union,Q861042
1a8ef18069726e2792c67b82bc785b27,western_union,SAMPATH BANK PLC,,Kandy Corparate,CENTRAL,,LK,+94 812 200 096,https://location.westernunion.com/lk/central/kandy-corparate/1a8ef18069726e2792c67b82bc785b27,Mo-Su 08:00-22:00,Western Union,Q861042
244b6275ac14c9df8507ec10d7b42c85,western_union,POST OFFICE,,Werellagama,CENTRAL,,LK,+94 812 499 550,https://location.westernunion.com/lk/central/werellagama/244b6275ac14c9df8507ec10d7b42c85,Mo-Sa 08:00-17:00,Western Union,Q861042
8af8bcea0fb8b884654a093a7327c36a,western_union,TWIN TECH HOLDINGS (PRIVATE) LIMITED,,Kandy,CENTRAL,,LK,+94 77 761 1119,https://location.westernunion.com/lk/central/kandy/8af8bcea0fb8b884654a093a7327c36a,Mo-Su 08:00-21:00,Western Union,Q861042
b73ae2aca1f0e4de6c4e85f411d1ec2f,western_union,MORAPE MPCL LTD,,Central,CENTRAL,,LK,+94 545 671 081,https://location.westernunion.com/lk/central/central/b73ae2aca1f0e4de6c4e85f411d1ec2f,Mo-We 08:00-16:00; Th 08:00-13:00; Sa-Su 08:00-16:00,Western Union,Q861042
8cfce100f6f00c061381f662a2771deb,western_union,PEOPLES BANK YATIYANTOTA,,Yatiyantota,CENTRAL,,LK,+94 362 271 359,https://location.westernunion.com/lk/central/yatiyantota/8cfce100f6f00c061381f662a2771deb,Mo-Fr 09:00-15:00,Western Union,Q861042
722612c2aaf39f7f5032fe5548d09c44,western_union,SINGER SRI LANKA,,Kandy,CENTRAL,,LK,+94 812 226 605,https://location.westernunion.com/lk/central/kandy/722612c2aaf39f7f5032fe5548d09c44,Mo-Su 08:30-19:00,Western Union,Q861042
9d947e884c9b90b48c72a0405c403509,western_union,SINGER FINANCE LANKA PLC,,Kandy,CENTRAL,,LK,+94 75 216 0456,https://location.westernunion.com/lk/central/kandy/9d947e884c9b90b48c72a0405c403509,Mo-Sa 08:30-17:00,Western Union,Q861042
7b805fd7185d8f079ccb0466132a3cf2,western_union,KANDURATA DEVELOPMENT BANK,,Kandy,CENTRAL,,LK,+94 812 214 115,https://location.westernunion.com/lk/central/kandy/7b805fd7185d8f079ccb0466132a3cf2,Mo-Fr 08:00-18:30,Western Union,Q861042
9ce49e07c6d950aaa06568a04299c68a,western_union,POST OFFICE,,Kandy,CENTRAL,,LK,+94 812 222 250,https://location.westernunion.com/lk/central/kandy/9ce49e07c6d950aaa06568a04299c68a,Mo-Sa 08:00-17:00,Western Union,Q861042
7723221b3b2df5e32d0f8ad02ae5b2cc,western_union,KANDY,,Kandy,CENTRAL,,LK,+94 235 111 666,https://location.westernunion.com/lk/central/kandy/7723221b3b2df5e32d0f8ad02ae5b2cc,Mo-Fr 09:00-15:00,Western Union,Q861042
68ef1f9c45bbf14c6e9889405507cb2d,western_union,SINGER SRI LANKA,,Kandy,CENTRAL,,LK,+94 812 205 507,https://location.westernunion.com/lk/central/kandy/68ef1f9c45bbf14c6e9889405507cb2d,Mo-Su 08:30-19:00,Western Union,Q861042
c8623970c90f70ff8523e7a408e2b15b,western_union,SAMPATH BANK PLC,,Kandy City Centre,CENTRAL,,LK,+94 812 205 825,https://location.westernunion.com/lk/central/kandy-city-centre/c8623970c90f70ff8523e7a408e2b15b,Mo-Su 08:00-22:00,Western Union,Q861042
011ab9fab5437985891a6f8a6c16c579,western_union,COMMERCIAL BANK OF CEYLON PLC,,"Dalada Veediya, Kandy",CENTRAL,,LK,+94 812 235 733,"https://location.westernunion.com/lk/central/dalada-veediya,-kandy/011ab9fab5437985891a6f8a6c16c579",Mo-Su 08:00-20:00,Western Union,Q861042
99dc0bacaf6dfdebc6ee538b582dd0ee,western_union,SINGER SRI LANKA,,Kandy,CENTRAL,,LK,+94 812 223 003,https://location.westernunion.com/lk/central/kandy/99dc0bacaf6dfdebc6ee538b582dd0ee,Mo-Su 08:30-19:00,Western Union,Q861042
597a28ada0eb799bb8e02b918b126db3,western_union,NATTARANPOTHA RURAL BANK,,Nattarampotha,CENTRAL,,LK,+94 813 168 352,https://location.westernunion.com/lk/central/nattarampotha/597a28ada0eb799bb8e02b918b126db3,Mo-Su 06:00-23:00,Western Union,Q861042
ea5ed0f874cba1d40fd3f252c7c98145,western_union,PEOPLES BANK UDU DUMBARA SC,,Udu Dumbara,CENTRAL,,LK,+94 812 402 521,https://location.westernunion.com/lk/central/udu-dumbara/ea5ed0f874cba1d40fd3f252c7c98145,Mo-Fr 09:00-15:00,Western Union,Q861042
1117c1511c904e2d007cbafaf6c7532c,western_union,PEOPLES BANK SENKADAGALA KANDY,,Senkadagala Kandy,CENTRAL,,LK,+94 812 237 483,https://location.westernunion.com/lk/central/senkadagala-kandy/1117c1511c904e2d007cbafaf6c7532c,Mo-Fr 09:00-15:00,Western Union,Q861042
5d3e3b716111414f52f64aa872d874a2,western_union,PEOPLES BANK KANDY,,Kandy,CENTRAL,,LK,+94 812 222 757,https://location.westernunion.com/lk/central/kandy/5d3e3b716111414f52f64aa872d874a2,Mo-Fr 09:00-15:00,Western Union,Q861042
9075c09bcabb5267cb9257f48d209035,western_union,SAMPATH BANK PLC,,Kundasale,CENTRAL,,LK,+94 812 421 763,https://location.westernunion.com/lk/central/kundasale/9075c09bcabb5267cb9257f48d209035,Mo-Su 08:00-22:00,Western Union,Q861042
ef3cc050c1cab85bfe2b1aa7cb339d42,western_union,LB FINANCE PLC,,Kandy,CENTRAL,,LK,+94 812 225 910,https://location.westernunion.com/lk/central/kandy/ef3cc050c1cab85bfe2b1aa7cb339d42,Mo-Sa 08:30-18:00,Western Union,Q861042
1e4e38158f3f030f9a746166de359f55,western_union,PEOPLES BANK MAHIYANGANA,,Mahiyangana.,CENTRAL,,LK,+94 552 257 270,https://location.westernunion.com/lk/central/mahiyangana./1e4e38158f3f030f9a746166de359f55,Mo-Fr 09:00-15:00,Western Union,Q861042
0c08363525535e9501b2e2cfd4a8e89e,western_union,SINGER SRI LANKA,,Kundasale,CENTRAL,,LK,+94 812 423 229,https://location.westernunion.com/lk/central/kundasale/0c08363525535e9501b2e2cfd4a8e89e,Mo-Su 08:30-19:00,Western Union,Q861042
fda40d012e08f1cad89ce74439dc4f70,western_union,MAHINDRA IDEAL FINANCE LIMITED,,Kandy,CENTRAL,,LK,+94 812 208 708,https://location.westernunion.com/lk/central/kandy/fda40d012e08f1cad89ce74439dc4f70,Mo-Su 08:00-17:00,Western Union,Q861042
38f66d13c17ec8246f2419146b0742d7,western_union,V K M NAGALINGAMS,,Kandy,CENTRAL,,LK,+94 812 223 108,https://location.westernunion.com/lk/central/kandy/38f66d13c17ec8246f2419146b0742d7,Mo-Sa 09:00-18:00; Su 09:00-15:00,Western Union,Q861042
5a1b49491ad4baa6298b492b3764ad91,western_union,DFCC VARDHANA BANK LIMITED,,Kandy,CENTRAL,,LK,+94 812 234 411,https://location.westernunion.com/lk/central/kandy/5a1b49491ad4baa6298b492b3764ad91,Mo-Fr 09:00-15:00,Western Union,Q861042
afa4d2f96addf5c3bfa997cd7a0c3e5c,western_union,PAN ASIA BANKING CORPORATION PLC,,Kundasale,CENTRAL,,LK,+94 814 951 644,https://location.westernunion.com/lk/central/kundasale/afa4d2f96addf5c3bfa997cd7a0c3e5c,Mo-Fr 09:00-16:00,Western Union,Q861042
06e891cb2149a9937963139851b1cd4c,western_union,VASANTHAS,,Kandy,CENTRAL,,LK,+94 812 233 151,https://location.westernunion.com/lk/central/kandy/06e891cb2149a9937963139851b1cd4c,Mo-Su 09:00-18:00,Western Union,Q861042
3d497178340ca381aac9198f8d9b571d,western_union,MANGALAA JEWELLERY,,Kandy,CENTRAL,,LK,+94 812 234 064,https://location.westernunion.com/lk/central/kandy/3d497178340ca381aac9198f8d9b571d,Mo-Su 09:00-19:00,Western Union,Q861042
4437b59943fb310559276e15242040e8,western_union,SAMPATH BANK PLC,,Heerassagala,CENTRAL,,LK,+94 812 221 810,https://location.westernunion.com/lk/central/heerassagala/4437b59943fb310559276e15242040e8,Mo-Su 08:00-22:00,Western Union,Q861042
5713c1a52bfe48eeaf31801ea74eca0d,western_union,NATIONAL SAVINGS BANK,,Kandy,CENTRAL,,LK,+94 815 740 619,https://location.westernunion.com/lk/central/kandy/5713c1a52bfe48eeaf31801ea74eca0d,Mo-Fr 08:00-14:00,Western Union,Q861042
2340f71ad4931cf5359d03eea8f59aa1,western_union,PEOPLES BANK MURUTALAWA SC,,Mrurtalawa,CENTRAL,,LK,+94 812 410 792,https://location.westernunion.com/lk/central/mrurtalawa/2340f71ad4931cf5359d03eea8f59aa1,Mo-Fr 09:00-15:00,Western Union,Q861042
72cc1bd6058e05a23a8a8bf7899e14d7,western_union,THALATUOYA MARASSANA MPCS LIMITED,,Ampitiya,CENTRAL,,LK,+94 814 471 614,https://location.westernunion.com/lk/central/ampitiya/72cc1bd6058e05a23a8a8bf7899e14d7,Mo-Fr 08:30-15:30; Su 08:30-15:30,Western Union,Q861042
4939a02ab0b7b9d684856b8f3fa397a0,western_union,KANDY BRANCH,,Kandy,CENTRAL,,LK,+94 77 457 7787,https://location.westernunion.com/lk/central/kandy/4939a02ab0b7b9d684856b8f3fa397a0,Mo-Su 06:00-23:00,Western Union,Q861042
f9ce946b6925e7e030474230e6af52a8,western_union,KANDY MAHAJANA SUPER,,Kandy,CENTRAL,,LK,+94 812 052 021,https://location.westernunion.com/lk/central/kandy/f9ce946b6925e7e030474230e6af52a8,Mo-Su 07:00-22:00,Western Union,Q861042
b3031bb0a17ad65cddf9e328309d0d50,western_union,KANDY MPCS LTD,,Kandy,CENTRAL,,LK,+94 812 205 834,https://location.westernunion.com/lk/central/kandy/b3031bb0a17ad65cddf9e328309d0d50,Mo-Fr 09:00-15:30; Sa 09:00-12:30,Western Union,Q861042
807877a294866a93082159a4293260a2,western_union,COMMERCIAL BANK OF CEYLON PLC,,Kandy,CENTRAL,,LK,+94 812 204 787,https://location.westernunion.com/lk/central/kandy/807877a294866a93082159a4293260a2,Mo-Su 08:00-20:00,Western Union,Q861042
ac7bdbfbca79cd95f1ac93bde0be1de4,western_union,PEOPLES BANK KANDY LAWYERS COMPLEX,,Kandy,CENTRAL,,LK,+94 812 385 944,https://location.westernunion.com/lk/central/kandy/ac7bdbfbca79cd95f1ac93bde0be1de4,Mo-Fr 08:00-15:00,Western Union,Q861042
a053b2198e65ed1e74e2ad24405e06fe,western_union,PEOPLES BANK KANDY COURT COMPLEX SC,,Kandy,CENTRAL,,LK,+94 812 384 621,https://location.westernunion.com/lk/central/kandy/a053b2198e65ed1e74e2ad24405e06fe,Mo-Fr 09:00-15:00,Western Union,Q861042
66b117e837a1f4690367e9c6bccf1dab,western_union,SANASA DEVELOPMENT BANK LTD,,Rikillagaskada,CENTRAL,,LK,+94 812 494 649,https://location.westernunion.com/lk/central/rikillagaskada/66b117e837a1f4690367e9c6bccf1dab,Mo-Fr 09:00-16:00; Sa 09:00-12:00,Western Union,Q861042
cd042727e2c3bc9fa5a406dc3e20393e,western_union,PAN ASIA BANKING CORPORATION PLC,,Peradeniya,CENTRAL,,LK,+94 814 951 180,https://location.westernunion.com/lk/central/peradeniya/cd042727e2c3bc9fa5a406dc3e20393e,Mo-Fr 09:00-16:00,Western Union,Q861042
23cee9d82e9b9e1b88670529e086005d,western_union,KANDY M P C S LIMITED,,Kandy,CENTRAL,,LK,+94 815 625 007,https://location.westernunion.com/lk/central/kandy/23cee9d82e9b9e1b88670529e086005d,Mo-Fr 09:00-15:00; Sa 09:00-13:00,Western Union,Q861042
423f8d808791e74a2050266335de0cd9,western_union,NATIONS TRUST BANK PLC,,Kandy,CENTRAL,,LK,+94 814 930 654,https://location.westernunion.com/lk/central/kandy/423f8d808791e74a2050266335de0cd9,Mo-Fr 09:00-20:00; Sa 09:00-14:00,Western Union,Q861042
376a5fc808b7e0bd788ce10fe00cb380,western_union,DFCC VARDHANA BANK LIMITED,,Kandy,CENTRAL,,LK,+94 812 387 673,https://location.westernunion.com/lk/central/kandy/376a5fc808b7e0bd788ce10fe00cb380,Mo-Fr 08:30-15:00,Western Union,Q861042
2eda53aef2e0f1c18c003dcb3b2adb20,western_union,SAMPATH BANK PLC,,Peradeniya,CENTRAL,,LK,+94 812 387 876,https://location.westernunion.com/lk/central/peradeniya/2eda53aef2e0f1c18c003dcb3b2adb20,Mo-Su 08:00-22:00,Western Union,Q861042
445d735de8f0721ee7e5f8787652d3b7,western_union,PEOPLES BANK ADIKARIGAMA SC,,Hanguranketha,CENTRAL,,LK,+94 813 837 280,https://location.westernunion.com/lk/central/hanguranketha/445d735de8f0721ee7e5f8787652d3b7,Mo-Fr 08:30-15:30,Western Union,Q861042
40523ed1e4972e264242a6b71587f76d,western_union,PEOPLES BANK TALATUOYA SC,,Talatuoya,CENTRAL,,LK,+94 812 404 484,https://location.westernunion.com/lk/central/talatuoya/40523ed1e4972e264242a6b71587f76d,Mo-Fr 09:00-15:00,Western Union,Q861042
551c7a0d96413c6f0892016b51320441,western_union,THALATUOYA MARASSANA MPCS LIMITED,,Mailapitiya,CENTRAL,,LK,+94 815 620 074,https://location.westernunion.com/lk/central/mailapitiya/551c7a0d96413c6f0892016b51320441,Mo-Fr 08:30-15:30; Su 08:30-15:30,Western Union,Q861042
9bcb4926e3bf6288aeb7e13b00fb00a7,western_union,REGIONAL DEVELOPMENT BANK,,Kandy,CENTRAL,,LK,+94 812 222 467,https://location.westernunion.com/lk/central/kandy/9bcb4926e3bf6288aeb7e13b00fb00a7,Mo-Fr 08:30-15:30,Western Union,Q861042
e2189e0a04eb0ce9cf3805fdc0d271a0,western_union,KANDURATA DEVELOPMENT BANK,,Hataraliyadda,CENTRAL,,LK,+94 812 464 026,https://location.westernunion.com/lk/central/hataraliyadda/e2189e0a04eb0ce9cf3805fdc0d271a0,Mo-Fr 08:00-18:30,Western Union,Q861042
3c5e93796f917f45828e69807fad099b,western_union,WATHULUYADDA RURAL BANK,,Wathuluyadda,CENTRAL,,LK,(+0094) 81-22225115,https://location.westernunion.com/lk/central/wathuluyadda/3c5e93796f917f45828e69807fad099b,Mo-Su 06:00-23:00,Western Union,Q861042
bf39bc08e5ff0ce5cb1995b633e48be1,western_union,PANNWALA RURAL BANK,,Pannwala,CENTRAL,,LK,(+0094) 81-22061907,https://location.westernunion.com/lk/central/pannwala/bf39bc08e5ff0ce5cb1995b633e48be1,Mo-Su 06:00-23:00,Western Union,Q861042
9f3066a3cf38c92cdcf2121342dbd834,western_union,PEOPLES BANK PERADENIYA CAMPUS SC,,Peradeniya,CENTRAL,,LK,+94 812 392 421,https://location.westernunion.com/lk/central/peradeniya/9f3066a3cf38c92cdcf2121342dbd834,Mo-Fr 09:00-15:00,Western Union,Q861042
02206fd5a6f76b463c3f4047b1173e29,western_union,PEOPLE S BANK PERADENIYA,,Peradeniya,CENTRAL,,LK,+94 812 388 289,https://location.westernunion.com/lk/central/peradeniya/02206fd5a6f76b463c3f4047b1173e29,Mo-Fr 09:00-15:00,Western Union,Q861042
4b88e2051177bb7070b374f4ec6a20b1,western_union,THALATUOYA MARASSANA MPCS LIMITED,,Kolabissa,CENTRAL,,LK,+94 815 631 476,https://location.westernunion.com/lk/central/kolabissa/4b88e2051177bb7070b374f4ec6a20b1,Mo-Th 08:30-15:30; Fr 08:30-12:30; Su 08:30-15:30,Western Union,Q861042
b2d6e8c25534516004c31e2a79a3a444,western_union,PEOPLES BANK PILIMATHALAWA,,Pilimathalawa,CENTRAL,,LK,+94 812 579 549,https://location.westernunion.com/lk/central/pilimathalawa/b2d6e8c25534516004c31e2a79a3a444,Mo-Fr 09:00-15:00,Western Union,Q861042
01003ba6c69afbfade343242ba412cda,western_union,NATIONS TRUST BANK PLC,,Kandy,CENTRAL,,LK,+94 817 389 601,https://location.westernunion.com/lk/central/kandy/01003ba6c69afbfade343242ba412cda,Mo-Fr 09:00-17:00; Sa 09:00-12:00,Western Union,Q861042
da3b16585ceaae6e14aed4929a43ede0,western_union,THISMADA RURAL BANK,,Menikdewella,CENTRAL,,LK,+94 812 075 030,https://location.westernunion.com/lk/central/menikdewella/da3b16585ceaae6e14aed4929a43ede0,Mo-Su 07:00-22:00,Western Union,Q861042
c0841c35340a229edd7c64ebebf0b4f8,western_union,THALATUOYA MARASSANA MPCS LIMITED,,Thalatuoya,CENTRAL,,LK,+94 815 672 439,https://location.westernunion.com/lk/central/thalatuoya/c0841c35340a229edd7c64ebebf0b4f8,Mo-Fr 08:30-15:30; Sa 08:00-12:30,Western Union,Q861042
ecd0ea1f888793f335ff6fba9ca83df5,western_union,COMMERCIAL BANK OF CEYLON PLC,,Kandy,CENTRAL,,LK,+94 812 386 445,https://location.westernunion.com/lk/central/kandy/ecd0ea1f888793f335ff6fba9ca83df5,Mo-Fr 08:00-17:00,Western Union,Q861042
1ffefbd30be2240f39a6443bdb1d6e69,western_union,LB FINANCE PLC,,Kandy,CENTRAL,,LK,+94 812 579 940,https://location.westernunion.com/lk/central/kandy/1ffefbd30be2240f39a6443bdb1d6e69,Mo-Sa 08:30-18:00,Western Union,Q861042
134a2ebb03d4d776c0c689d5ed4a1e68,western_union,SINGER SRI LANKA,,Pilimathalawa,CENTRAL,,LK,+94 812 577 311,https://location.westernunion.com/lk/central/pilimathalawa/134a2ebb03d4d776c0c689d5ed4a1e68,Mo-Su 08:30-19:00,Western Union,Q861042
2ea5e981fd0749d9239ec8ec3a920bf4,western_union,PAN ASIA BANKING CORPORATION PLC,,Pilimathalawa,CENTRAL,,LK,+94 814 951 870,https://location.westernunion.com/lk/central/pilimathalawa/2ea5e981fd0749d9239ec8ec3a920bf4,Mo-Fr 09:00-16:00,Western Union,Q861042
198e3ba112c58bc69ea6e0cb03900c81,western_union,NIROSHAN JEWELLERS,,Pilimathalawa,CENTRAL,,LK,+94 71 759 9785,https://location.westernunion.com/lk/central/pilimathalawa/198e3ba112c58bc69ea6e0cb03900c81,Mo-Su 06:00-23:00,Western Union,Q861042
79caf11f6df133896bf8e780415bed92,western_union,SAMPATH BANK PLC,,Pilimatalawa,CENTRAL,,LK,+94 812 577 341,https://location.westernunion.com/lk/central/pilimatalawa/79caf11f6df133896bf8e780415bed92,Mo-Su 08:00-22:00,Western Union,Q861042
03534c157aa04063fc90777d48e00e19,western_union,SINGER SRI LANKA,,Pilimathalawa,CENTRAL,,LK,+94 812 577 444,https://location.westernunion.com/lk/central/pilimathalawa/03534c157aa04063fc90777d48e00e19,Mo-Su 08:30-19:00,Western Union,Q861042
b3967cd9b5641827965842d388fb1c98,western_union,NATIONAL SAVINGS BANK,,Kandy,CENTRAL,,LK,+94 812 575 562,https://location.westernunion.com/lk/central/kandy/b3967cd9b5641827965842d388fb1c98,Mo-Fr 08:00-14:00,Western Union,Q861042
0f03c283460ee10904660c6b3fa1fbfe,western_union,COMMERCIAL BANK OF CEYLON PLC,,Pilimatalawa,CENTRAL,,LK,+94 812 577 178,https://location.westernunion.com/lk/central/pilimatalawa/0f03c283460ee10904660c6b3fa1fbfe,Mo-Fr 08:00-17:00,Western Union,Q861042
c0a6b221895d89eb41f43aae1f41f03d,western_union,SINGER SRI LANKA,,Kadugannawa,CENTRAL,,LK,+94 817 212 993,https://location.westernunion.com/lk/central/kadugannawa/c0a6b221895d89eb41f43aae1f41f03d,Mo-Su 08:30-19:00,Western Union,Q861042
44921ea8797dadf19c7c80428257b7cd,western_union,PEOPLES BANK DITYATHALAWA,,Diyatalawa,CENTRAL,,LK,+94 572 229 504,https://location.westernunion.com/lk/central/diyatalawa/44921ea8797dadf19c7c80428257b7cd,Mo-Fr 09:00-15:00,Western Union,Q861042
2dd470eb3b1ede3dc6cf529571d9770d,western_union,PEOPLES BANK HANGURANKETHA,,Hanguranketha,CENTRAL,,LK,+94 812 369 910,https://location.westernunion.com/lk/central/hanguranketha/2dd470eb3b1ede3dc6cf529571d9770d,Mo-Fr 09:00-15:00,Western Union,Q861042
a7394434abae3156230d3438426bd6db,western_union,D A KURUKUTHTHALA AND SONS,,Pilimathalawa,CENTRAL,,LK,+94 71 969 5480,https://location.westernunion.com/lk/central/pilimathalawa/a7394434abae3156230d3438426bd6db,Mo-Sa 08:00-18:00; Su 08:00-14:00,Western Union,Q861042
56d72ef28e5f0a72e3b2e0e8ab7bf6d5,western_union,SINGER SRI LANKA,,Peradeniya,CENTRAL,,LK,+94 812 384 980,https://location.westernunion.com/lk/central/peradeniya/56d72ef28e5f0a72e3b2e0e8ab7bf6d5,Mo-Su 08:30-19:00,Western Union,Q861042
8527bf523d76260a828e1ddd102a2071,western_union,KANDY MPCS LTD,,Udaperadeniya,CENTRAL,,LK,+94 815 105 291,https://location.westernunion.com/lk/central/udaperadeniya/8527bf523d76260a828e1ddd102a2071,Mo-Fr 09:00-15:30; Sa 09:00-12:30,Western Union,Q861042
2572e4d8a01672a010f46d77fff044b0,western_union,UVA DEVELOPMENT BANK,,Haputhale,CENTRAL,,LK,+94 572 268 212,https://location.westernunion.com/lk/central/haputhale/2572e4d8a01672a010f46d77fff044b0,Mo-Fr 08:00-18:30,Western Union,Q861042
4589a753f5cfad8c1f41deaf47e4cd0e,western_union,KANDY M P C S LIMITED,,Kandy,CENTRAL,,LK,+94 815 620 091,https://location.westernunion.com/lk/central/kandy/4589a753f5cfad8c1f41deaf47e4cd0e,Mo-Fr 09:00-15:00; Sa 09:00-13:00,Western Union,Q861042
2e6c0805e0962fe48578a8017bdc60a1,western_union,KANDURATA DEVELOPMENT BANK,,Danture,CENTRAL,,LK,+94 812 575 131,https://location.westernunion.com/lk/central/danture/2e6c0805e0962fe48578a8017bdc60a1,Mo-Fr 08:00-18:30,Western Union,Q861042
1f095b8afca789c85e17d3c31cb06c09,western_union,PEOPLES BANK NILDANDAHINNA,,Nildandahinna,CENTRAL,,LK,+94 522 279 170,https://location.westernunion.com/lk/central/nildandahinna/1f095b8afca789c85e17d3c31cb06c09,Mo-Fr 09:00-15:00,Western Union,Q861042
9ff72f8d16b7521b0e465e174d698df6,western_union,PALLEGAMA RURAL BANK,,Pallegama,CENTRAL,,LK,+94 812 467 777,https://location.westernunion.com/lk/central/pallegama/9ff72f8d16b7521b0e465e174d698df6,Mo-Su 08:00-17:00,Western Union,Q861042
226a336f5e45b0b6b4a7e3b4f66f838d,western_union,NEW LODESTAR COMMUNICATIONS & PRINTERS,,Gelioya,CENTRAL,,LK,+94 77 747 5552,https://location.westernunion.com/lk/central/gelioya/226a336f5e45b0b6b4a7e3b4f66f838d,Mo-Su 07:00-22:00,Western Union,Q861042
83decb1403e5f7fb6fb5e6587d80564a,western_union,NATIONAL SAVINGS BANK,,Kandy,CENTRAL,,LK,+94 812 467 124,https://location.westernunion.com/lk/central/kandy/83decb1403e5f7fb6fb5e6587d80564a,Mo-Fr 08:00-14:00,Western Union,Q861042
60a823b33384552e4642fb4c3247cfed,western_union,DEDIGAMA GROUP  PVT  LTD,,Pilimathalawa,CENTRAL,,LK,+94 812 575 818,https://location.westernunion.com/lk/central/pilimathalawa/60a823b33384552e4642fb4c3247cfed,Mo-Sa 09:00-18:00,Western Union,Q861042
2252c773186e07e39139b12797e7b665,western_union,SINGER SRI LANKA,,Gelioya,CENTRAL,,LK,+94 812 314 392,https://location.westernunion.com/lk/central/gelioya/2252c773186e07e39139b12797e7b665,Mo-Su 08:30-19:00,Western Union,Q861042
3e732bdf338924455ab02487fc903d9f,western_union,LB FINANCE PLC,,Kandy,CENTRAL,,LK,+94 812 067 740,https://location.westernunion.com/lk/central/kandy/3e732bdf338924455ab02487fc903d9f,Mo-Sa 08:30-18:00,Western Union,Q861042
f12fc55fd9d4322126760d396e78e36c,western_union,NATIONAL SAVINGS BANK,,Kandy,CENTRAL,,LK,+94 812 311 110,https://location.westernunion.com/lk/central/kandy/f12fc55fd9d4322126760d396e78e36c,Mo-Fr 08:00-14:00,Western Union,Q861042
1634fb8a2602981f08ab287d970cd37e,western_union,COMMERCIAL BANK OF CEYLON PLC,,Gelioya,CENTRAL,,LK,+94 812 310 310,https://location.westernunion.com/lk/central/gelioya/1634fb8a2602981f08ab287d970cd37e,Mo-Su 08:00-20:00,Western Union,Q861042
981028b0bab842ce26010e50e951913f,western_union,PEOPLES BANK GELIOYA SC,,Gelioya,CENTRAL,,LK,+94 912 310 973,https://location.westernunion.com/lk/central/gelioya/981028b0bab842ce26010e50e951913f,Mo-Fr 09:00-15:00,Western Union,Q861042
57a4b6ff7e8351fdaacd0abd25b02d62,western_union,ALLIANCE FINANCE COMPANY PLC,,Rikillagaskada,CENTRAL,,LK,+94 812 365 389,https://location.westernunion.com/lk/central/rikillagaskada/57a4b6ff7e8351fdaacd0abd25b02d62,Mo-Su 07:00-22:00,Western Union,Q861042
bd0111bba32192ce3dd3ebde5d900578,western_union,PEOPLES BANK RIKILLAGASKADA,,Rikillagaskada,CENTRAL,,LK,+94 812 365 048,https://location.westernunion.com/lk/central/rikillagaskada/bd0111bba32192ce3dd3ebde5d900578,Mo-Fr 09:00-15:00,Western Union,Q861042
f4c8e1b55b0d311cc5786075371fe5ad,western_union,NATIONAL SAVINGS BANK,,Kandy,CENTRAL,,LK,+94 812 365 201,https://location.westernunion.com/lk/central/kandy/f4c8e1b55b0d311cc5786075371fe5ad,Mo-Fr 08:00-14:00,Western Union,Q861042
934a0406fc40e479881881ae86744791,western_union,SAMPATH BANK PLC,,Rikillagaskada,CENTRAL,,LK,+94 812 365 021,https://location.westernunion.com/lk/central/rikillagaskada/934a0406fc40e479881881ae86744791,Mo-Su 08:00-22:00,Western Union,Q861042
e3c9b69010f5f1bc153f2d13aa0ed9e8,western_union,PEOPLES BANK DAVULUGALA,,Davulugala,CENTRAL,,LK,+94 812 315 859,https://location.westernunion.com/lk/central/davulugala/e3c9b69010f5f1bc153f2d13aa0ed9e8,Mo-Fr 09:00-15:00,Western Union,Q861042
5eadc8e263cd76f3063d0437390f65d7,western_union,GALAHA RURAL BANK,,Galaha,CENTRAL,,LK,+94 812 088 997,https://location.westernunion.com/lk/central/galaha/5eadc8e263cd76f3063d0437390f65d7,Mo-Su 08:00-17:00,Western Union,Q861042
bb4208f6dfabdb6a2ae8185175badaa1,western_union,RIZVI GOLD HOUSE,,Deltota,CENTRAL,,LK,+94 77 328 4828,https://location.westernunion.com/lk/central/deltota/bb4208f6dfabdb6a2ae8185175badaa1,Mo-Su 08:30-20:30,Western Union,Q861042
aca6a0d6bd9b250459f1495a8a2548fb,western_union,RIKILLAGASKADA MPCS LIMITED,,Rikillagaskada,CENTRAL,,LK,+94 812 365 572,https://location.westernunion.com/lk/central/rikillagaskada/aca6a0d6bd9b250459f1495a8a2548fb,Mo-Sa 08:00-15:00,Western Union,Q861042
f5e09839ee03bb4f9c7979d6d42ffe7b,western_union,KANDURATA DEVELOPMENT BANK,,Rikillagaskada,CENTRAL,,LK,+94 812 365 242,https://location.westernunion.com/lk/central/rikillagaskada/f5e09839ee03bb4f9c7979d6d42ffe7b,Mo-Fr 08:00-18:30,Western Union,Q861042
79c0b6c27b84e98e7433a89925bf1710,western_union,GABADAGAMA RURAL BANK,,Gabadagama,CENTRAL,,LK,+94 813 138 070,https://location.westernunion.com/lk/central/gabadagama/79c0b6c27b84e98e7433a89925bf1710,Mo-Su 08:00-17:00,Western Union,Q861042
ae069584dabf2d56b7d9862671d0fe32,western_union,PEOPLES BANK WELAMBODA SC,,Welamboda,CENTRAL,,LK,+94 812 316 700,https://location.westernunion.com/lk/central/welamboda/ae069584dabf2d56b7d9862671d0fe32,Mo-Fr 09:00-15:00,Western Union,Q861042
2f977a932a136f4e42e76a4859e4db2d,western_union,PEOPLES BANK  DELTHOTA,,Delthota,CENTRAL,,LK,+94 812 467 266,https://location.westernunion.com/lk/central/delthota/2f977a932a136f4e42e76a4859e4db2d,Mo-Fr 09:00-15:00,Western Union,Q861042
aecefc6dcd562017a86dc810ae7c53c8,western_union,SINGER SRI LANKA,,Walapane,CENTRAL,,LK,+94 77 650 8340,https://location.westernunion.com/lk/central/walapane/aecefc6dcd562017a86dc810ae7c53c8,Mo-Su 08:30-19:00,Western Union,Q861042
cb5ce24be42b06ca0776ffedc6b9b9bb,western_union,DELTOTA RURAL BANK,,Deltota,CENTRAL,,LK,+94 812 088 998,https://location.westernunion.com/lk/central/deltota/cb5ce24be42b06ca0776ffedc6b9b9bb,Mo-Su 08:00-17:00,Western Union,Q861042
71aa5afc3b833d61a2167e5204d61eba,western_union,UVA DEVELOPMENT BANK,,Medagama,CENTRAL,,LK,+94 552 265 659,https://location.westernunion.com/lk/central/medagama/71aa5afc3b833d61a2167e5204d61eba,Mo-Fr 08:00-18:30,Western Union,Q861042
9e09cea09f035dc20da8d67a82c842e7,western_union,DEDIGAMA GROUP  PVT  LTD,,Gelioya,CENTRAL,,LK,+94 812 314 014,https://location.westernunion.com/lk/central/gelioya/9e09cea09f035dc20da8d67a82c842e7,Mo-Sa 09:00-18:00,Western Union,Q861042
3e53d19ed5417e6401997ba82de596e1,western_union,POST OFFICE,,Padiyapelella,CENTRAL,,LK,+94 522 287 427,https://location.westernunion.com/lk/central/padiyapelella/3e53d19ed5417e6401997ba82de596e1,Mo-Sa 08:00-17:00,Western Union,Q861042
0e52a2a30a5d4a6f5f8c6af5b9c06db8,western_union,PEOPLES BANK PADIYAPELELLA SC,,Padiyapelella,CENTRAL,,LK,+94 522 287 154,https://location.westernunion.com/lk/central/padiyapelella/0e52a2a30a5d4a6f5f8c6af5b9c06db8,Mo-Fr 09:00-15:00,Western Union,Q861042
260b9d6f1dbd296ebc31e8d289f3850c,western_union,SAMPATH BANK PLC,,Gampola,CENTRAL,,LK,+94 812 350 564,https://location.westernunion.com/lk/central/gampola/260b9d6f1dbd296ebc31e8d289f3850c,Mo-Su 08:00-22:00,Western Union,Q861042
c86f4a33fca9587859315a7ac80566e8,western_union,MAHAJANA SUPER,,Gampola,CENTRAL,,LK,+94 812 354 526,https://location.westernunion.com/lk/central/gampola/c86f4a33fca9587859315a7ac80566e8,Mo-Su 08:00-21:00,Western Union,Q861042
1bfe0717256fab2b75f4ab37171d4b72,western_union,COMMERCIAL BANK OF CEYLON PLC,,Gampola,CENTRAL,,LK,+94 812 354 132,https://location.westernunion.com/lk/central/gampola/1bfe0717256fab2b75f4ab37171d4b72,Mo-Fr 08:00-17:00,Western Union,Q861042
94d519533e957f1566de4c6d88c75710,western_union,HDFC BANK,,Gampola,CENTRAL,,LK,+94 812 353 374,https://location.westernunion.com/lk/central/gampola/94d519533e957f1566de4c6d88c75710,Mo-Fr 09:00-15:00,Western Union,Q861042
22f38235c76898b9e1c7c024f3d2f24a,western_union,AMANA BANK LIMITED,,Gampola,CENTRAL,,LK,+94 817 756 011,https://location.westernunion.com/lk/central/gampola/22f38235c76898b9e1c7c024f3d2f24a,Mo-Fr 09:00-15:00,Western Union,Q861042
d97dee741098cd3d18eb5daa06563458,western_union,DEDIGAMA GROUP  PVT  LTD,,Welimada 02,CENTRAL,,LK,+94 71 035 4672,https://location.westernunion.com/lk/central/welimada-02/d97dee741098cd3d18eb5daa06563458,Mo-Su 08:30-18:00,Western Union,Q861042
c1f25e82e606b88832edcb955f406209,western_union,ALLIANCE FINANCE COMPANY PLC,,Gampola,CENTRAL,,LK,+94 812 352 649,https://location.westernunion.com/lk/central/gampola/c1f25e82e606b88832edcb955f406209,Mo-Su 07:00-22:00,Western Union,Q861042
eebc4056d53c23b1bc83df64cfd2c70e,western_union,DEDIGAMA GROUP  PRIVATE  LIMITED,,Kandy,CENTRAL,,LK,+94 75 752 6370,https://location.westernunion.com/lk/central/kandy/eebc4056d53c23b1bc83df64cfd2c70e,Mo-Su 08:30-19:00,Western Union,Q861042
983c1075f56f143ff0c560f55e4abf4c,western_union,PEOPLES BANK GAMPOLA,,Gampola,CENTRAL,,LK,+94 812 352 350,https://location.westernunion.com/lk/central/gampola/983c1075f56f143ff0c560f55e4abf4c,Mo-Fr 09:00-15:00,Western Union,Q861042
e51398f9ed8d7e298b9c62ea0129dcbd,western_union,ARUN JEWELS,,Gampola,CENTRAL,,LK,+94 75 594 7868,https://location.westernunion.com/lk/central/gampola/e51398f9ed8d7e298b9c62ea0129dcbd,Mo-Su 08:00-20:00,Western Union,Q861042
ac8739830e88892d814f56163e3e7205,western_union,SINGER FINANCE LANKA PLC,,Gampola,CENTRAL,,LK,+94 76 864 5835,https://location.westernunion.com/lk/central/gampola/ac8739830e88892d814f56163e3e7205,Mo-Sa 08:30-17:00,Western Union,Q861042
eba54b862190a093e4524d740cceb310,western_union,SUBANI JEWELLERS,,Nawalapitiya,CENTRAL,,LK,+94 542 222 895,https://location.westernunion.com/lk/central/nawalapitiya/eba54b862190a093e4524d740cceb310,Mo-Fr 09:00-18:00; Su 09:00-18:00,Western Union,Q861042
0efb3181e1f9fe856c36bba4a720188d,western_union,NATIONS TRUST BANK PLC,,Nuwara Eliya,CENTRAL,,LK,+94 814 953 844,https://location.westernunion.com/lk/central/nuwara-eliya/0efb3181e1f9fe856c36bba4a720188d,Mo-Fr 09:00-17:00; Sa 09:00-12:00,Western Union,Q861042
cfff782c255344d099aa286f0f87fc8a,western_union,DARAOYA RURAL BANK,,Daraoya,CENTRAL,,LK,+94 77 937 8356,https://location.westernunion.com/lk/central/daraoya/cfff782c255344d099aa286f0f87fc8a,Mo-Su 08:00-17:00,Western Union,Q861042
b42f3ae4ec769ce5d94921ce3688af11,western_union,PEOPLES BANK HEWAHETA SC,,Hewaheta,CENTRAL,,LK,+94 812 365 049,https://location.westernunion.com/lk/central/hewaheta/b42f3ae4ec769ce5d94921ce3688af11,Mo-Fr 09:00-15:00,Western Union,Q861042
db475fa80e37c2906d29e12fbdbaeb36,western_union,SINGER SRI LANKA,,Gampola,CENTRAL,,LK,+94 71 566 3989,https://location.westernunion.com/lk/central/gampola/db475fa80e37c2906d29e12fbdbaeb36,Mo-Su 08:30-19:00,Western Union,Q861042
d054b15d4ee41731716024a47d74b067,western_union,UVA DEVELOPMENT BANK,,Badulla,CENTRAL,,LK,+94 552 224 190,https://location.westernunion.com/lk/central/badulla/d054b15d4ee41731716024a47d74b067,Mo-Fr 08:00-18:30,Western Union,Q861042
e5a5f165881f4cd23871f6427c511229,western_union,SINGER SRI LANKA,,Gampola,CENTRAL,,LK,+94 812 350 251,https://location.westernunion.com/lk/central/gampola/e5a5f165881f4cd23871f6427c511229,Mo-Su 08:30-19:00,Western Union,Q861042
d4651bbb622305861718f3ad6d82af17,western_union,SINGER SRI LANKA,,Gampola,CENTRAL,,LK,+94 812 350 270,https://location.westernunion.com/lk/central/gampola/d4651bbb622305861718f3ad6d82af17,Mo-Su 08:30-19:00,Western Union,Q861042
52e6eac6037e0f5d73886776ae8db5b3,western_union,LB FINANCE PLC,,Kandy,CENTRAL,,LK,+94 814 486 444,https://location.westernunion.com/lk/central/kandy/52e6eac6037e0f5d73886776ae8db5b3,Mo-Sa 08:30-18:00,Western Union,Q861042
711c1f82726bd5cb852ae2afedb6a354,western_union,SANASA DEVELOPMENT BANK LTD,,Nuwaraeliya,CENTRAL,,LK,+94 522 223 521,https://location.westernunion.com/lk/central/nuwaraeliya/711c1f82726bd5cb852ae2afedb6a354,Mo-Fr 09:00-16:00,Western Union,Q861042
a58c39a7367ed7285f0ca20bd61d4ba0,western_union,LB FINANCE PLC,,Kandy,CENTRAL,,LK,+94 812 353 609,https://location.westernunion.com/lk/central/kandy/a58c39a7367ed7285f0ca20bd61d4ba0,Mo-Sa 08:30-18:00,Western Union,Q861042
07d58b79acda83bef015eb365e4f0053,western_union,PAN ASIA BANKING CORPORATION PLC,,Gampola,CENTRAL,,LK,+94 814 944 625,https://location.westernunion.com/lk/central/gampola/07d58b79acda83bef015eb365e4f0053,Mo-Fr 09:00-16:00,Western Union,Q861042
3033c9ff40bcdcf3a7a5cfbcef20e1ab,western_union,PEOPLES BANK TALAWAKELLE,,Thalawakelle,CENTRAL,,LK,+94 522 258 659,https://location.westernunion.com/lk/central/thalawakelle/3033c9ff40bcdcf3a7a5cfbcef20e1ab,Mo-Fr 09:00-15:00,Western Union,Q861042
1905fa540bb91926d2b84873692bd674,western_union,PEOPLES BANK GAMPOLA S C,,Gampola,CENTRAL,,LK,+94 812 350 869,https://location.westernunion.com/lk/central/gampola/1905fa540bb91926d2b84873692bd674,Mo-Fr 09:00-15:00,Western Union,Q861042
1ede8f5219daf845bc1f791078c0423d,western_union,PEOPLES BANK KANDAPOLA SC,,Kandapola,CENTRAL,,LK,+94 522 229 772,https://location.westernunion.com/lk/central/kandapola/1ede8f5219daf845bc1f791078c0423d,Mo-Fr 09:00-15:00,Western Union,Q861042
f541e892a4299e9465e8a90ba024e0f5,western_union,NEW INDRA STORES,,Kandapola,CENTRAL,,LK,+94 522 229 659,https://location.westernunion.com/lk/central/kandapola/f541e892a4299e9465e8a90ba024e0f5,Mo-Sa 08:30-18:30; Su 08:30-12:30,Western Union,Q861042
4e41cf0891664db2199a1b695f92c177,western_union,SINGER SRI LANKA,,Pussellawa,CENTRAL,,LK,+94 812 478 461,https://location.westernunion.com/lk/central/pussellawa/4e41cf0891664db2199a1b695f92c177,Mo-Su 08:30-19:00,Western Union,Q861042
53a3f186006d0b02d6b198ee1429ab7d,western_union,PEOPLES BANK UDUPUSSELLAWA,,Udupussellawa,CENTRAL,,LK,+94 522 269 370,https://location.westernunion.com/lk/central/udupussellawa/53a3f186006d0b02d6b198ee1429ab7d,Mo-Fr 09:00-15:00,Western Union,Q861042
731f105a2102647e5cf7f5def415b828,western_union,NATIONAL SAVINGS BANK,,Kandy,CENTRAL,,LK,+94 812 478 855,https://location.westernunion.com/lk/central/kandy/731f105a2102647e5cf7f5def415b828,Mo-Fr 08:00-14:00,Western Union,Q861042
868ab6f1809212740a3ae9607ef3031b,western_union,LB FINANCE PLC,,Kandy,CENTRAL,,LK,+94 812 478 128,https://location.westernunion.com/lk/central/kandy/868ab6f1809212740a3ae9607ef3031b,Mo-Sa 08:30-18:00,Western Union,Q861042
96c493ca273f44731b3d4c07785b5170,western_union,PEOPLES BANK PUSSALLAWA,,Pussallawa,CENTRAL,,LK,+94 812 478 482,https://location.westernunion.com/lk/central/pussallawa/96c493ca273f44731b3d4c07785b5170,Mo-Fr 09:00-15:00,Western Union,Q861042
c1c730bbdd60630a55626a54bbcb744e,western_union,POST OFFICE,,Pussellawa,CENTRAL,,LK,+94 812 478 251,https://location.westernunion.com/lk/central/pussellawa/c1c730bbdd60630a55626a54bbcb744e,Mo-Sa 08:00-17:00,Western Union,Q861042
651dc7a40209a5e7278a248005e5e34b,western_union,SAMPATH BANK PLC,,Pussellawa,CENTRAL,,LK,+94 812 478 034,https://location.westernunion.com/lk/central/pussellawa/651dc7a40209a5e7278a248005e5e34b,Mo-Su 08:00-22:00,Western Union,Q861042
b27281be1eb7764c2efa227c983c273b,western_union,ALLIANCE FINANCE COMPANY PLC,,Welimada,CENTRAL,,LK,+94 572 243 283,https://location.westernunion.com/lk/central/welimada/b27281be1eb7764c2efa227c983c273b,Mo-Su 07:00-22:00,Western Union,Q861042
47187585d6eb8d910964a27d45e87244,western_union,POST OFFICE,,Udapussellawa,CENTRAL,,LK,+94 522 269 351,https://location.westernunion.com/lk/central/udapussellawa/47187585d6eb8d910964a27d45e87244,Mo-Sa 08:00-17:00,Western Union,Q861042
940dde8df38888ff6439bd4b9c16de55,western_union,M A THEVARAYA PILLAI AND SONS,,Pussellawa,CENTRAL,,LK,+94 812 478 345,https://location.westernunion.com/lk/central/pussellawa/940dde8df38888ff6439bd4b9c16de55,Mo-Su 07:00-21:00,Western Union,Q861042
98716fa777e2d3bcf14ec7510d654142,western_union,SAHANA GOLD HOUSE,,Udapussellawa,CENTRAL,,LK,+94 522 269 405,https://location.westernunion.com/lk/central/udapussellawa/98716fa777e2d3bcf14ec7510d654142,Mo-Fr 09:00-19:00; Su 09:00-19:00,Western Union,Q861042
f6566a1505000042d05bd8f4a1a47475,western_union,NATIONAL SAVINGS BANK,,Nuwara Eliya,CENTRAL,,LK,+94 512 233 105,https://location.westernunion.com/lk/central/nuwara-eliya/f6566a1505000042d05bd8f4a1a47475,Mo-Fr 08:00-14:00,Western Union,Q861042
73366bd13973e92ecf5413e5f0e2854f,western_union,SINGER SRI LANKA,,Nuwaraeliya,CENTRAL,,LK,+94 522 235 241,https://location.westernunion.com/lk/central/nuwaraeliya/73366bd13973e92ecf5413e5f0e2854f,Mo-Su 08:30-19:00,Western Union,Q861042
3a37564aa062a958bc396304358ef908,western_union,DEDIGAMA GROUP PVT LTD,,Nuwara Eliya,CENTRAL,,LK,+94 75 355 5910,https://location.westernunion.com/lk/central/nuwara-eliya/3a37564aa062a958bc396304358ef908,Mo-Su 08:00-18:00,Western Union,Q861042
f1ca69a18cd0e9d75f4ab79b69e4a97c,western_union,NATIONS TRUST BANK PLC,,Nuwara Eliya,CENTRAL,,LK,+94 524 925 036,https://location.westernunion.com/lk/central/nuwara-eliya/f1ca69a18cd0e9d75f4ab79b69e4a97c,Mo-Fr 09:00-17:00; Sa 09:00-12:00,Western Union,Q861042
c36f387cc9603902cbad4b2213a95615,western_union,PEOPLES BANK HAPUGASTALAWA SC,,Hapugastalawa,CENTRAL,,LK,+94 602 541 894,https://location.westernunion.com/lk/central/hapugastalawa/c36f387cc9603902cbad4b2213a95615,Mo-Fr 09:00-15:00,Western Union,Q861042
129f0b4dd5b3daa8b5b5a3b0bd041a69,western_union,SINGER FINANCE LANKA PLC,,Nuwara Eliya,CENTRAL,,LK,+94 74 071 2409,https://location.westernunion.com/lk/central/nuwara-eliya/129f0b4dd5b3daa8b5b5a3b0bd041a69,Mo-Sa 08:30-17:00,Western Union,Q861042
189a1261e1de44b98d390817f4335936,western_union,SINGER SRI LANKA,,Nuwaraeliya,CENTRAL,,LK,+94 522 234 356,https://location.westernunion.com/lk/central/nuwaraeliya/189a1261e1de44b98d390817f4335936,Mo-Su 08:30-19:00,Western Union,Q861042
dfcd63b832a4dc90c3d7496886305444,western_union,SINGER SRI LANKA,,Nuwaraeliya,CENTRAL,,LK,+94 522 223 352,https://location.westernunion.com/lk/central/nuwaraeliya/dfcd63b832a4dc90c3d7496886305444,Mo-Su 08:30-19:00,Western Union,Q861042
bc035fb9562549300508bc501f496fe6,western_union,SAMPATH BANK PLC,,Nuwaraeliya,CENTRAL,,LK,+94 522 222 946,https://location.westernunion.com/lk/central/nuwaraeliya/bc035fb9562549300508bc501f496fe6,Mo-Su 08:00-22:00,Western Union,Q861042
585add85b79373e61976352d984d4f90,western_union,DFCC VARDHANA BANK LTD,,Nuwaraeliya,CENTRAL,,LK,+94 522 223 568,https://location.westernunion.com/lk/central/nuwaraeliya/585add85b79373e61976352d984d4f90,Mo-Fr 09:00-16:30; Sa 09:00-13:00,Western Union,Q861042
e7f788e471f5d8db2de9276afe27b861,western_union,ARUNA JEWELLERS,,Nuwaraeliya,CENTRAL,,LK,+94 522 222 165,https://location.westernunion.com/lk/central/nuwaraeliya/e7f788e471f5d8db2de9276afe27b861,Tu-Su 09:00-18:30,Western Union,Q861042
f121461fa08990d773fd4a137894d763,western_union,NATIONAL DEVELOPMENT BANK PLC,,Nuwaraeliya.,CENTRAL,,LK,+94 522 235 212,https://location.westernunion.com/lk/central/nuwaraeliya./f121461fa08990d773fd4a137894d763,Mo-Su 08:00-20:30,Western Union,Q861042
fe1fb0057c11fa55e94ec04acdb7009f,western_union,COMMERCIAL BANK OF CEYLON PLC,,Nuwaraeliya,CENTRAL,,LK,+94 522 223 761,https://location.westernunion.com/lk/central/nuwaraeliya/fe1fb0057c11fa55e94ec04acdb7009f,Mo-Fr 08:00-17:00,Western Union,Q861042
95c99ada44f2b4c2ab0ba8ad1bf9d94c,western_union,ALLIANCE FINANCE COMPANY PLC,,Nuwara Eliya,CENTRAL,,LK,+94 522 223 856,https://location.westernunion.com/lk/central/nuwara-eliya/95c99ada44f2b4c2ab0ba8ad1bf9d94c,Mo-Su 07:00-22:00,Western Union,Q861042
385c25b2df6ef388b98f54fe4ce59a06,western_union,CITIZENS DEVELOPMENT BUSINESS FINANCE,,Nuwaraeliya,CENTRAL,,LK,+94 522 224 728,https://location.westernunion.com/lk/central/nuwaraeliya/385c25b2df6ef388b98f54fe4ce59a06,Mo-Fr 08:00-17:00; Sa 08:00-14:00,Western Union,Q861042
2bae8decb8c90ca7d4e0a42403c605c6,western_union,SAMPATH BANK PLC,,Nawalapitiya,CENTRAL,,LK,+94 542 223 277,https://location.westernunion.com/lk/central/nawalapitiya/2bae8decb8c90ca7d4e0a42403c605c6,Mo-Su 08:00-22:00,Western Union,Q861042
88e83f424023e65c2e5dfbf8ab6ec200,western_union,POST OFFICE,,Nuwaraeliya,CENTRAL,,LK,+94 522 222 250,https://location.westernunion.com/lk/central/nuwaraeliya/88e83f424023e65c2e5dfbf8ab6ec200,Mo-Sa 08:00-17:00,Western Union,Q861042
b750b8973b782f1e6278bb1166f987ce,western_union,PEOPLES BANK NUWARA ELIYA,,Nuwara Eliya,CENTRAL,,LK,+94 522 222 367,https://location.westernunion.com/lk/central/nuwara-eliya/b750b8973b782f1e6278bb1166f987ce,Mo-Fr 09:00-15:00,Western Union,Q861042
c4da8371078807077e73ab670393c0cb,western_union,ALLIANCE FINANCE COMPANY PLC,,Nawalapitiya,CENTRAL,,LK,+94 542 223 020,https://location.westernunion.com/lk/central/nawalapitiya/c4da8371078807077e73ab670393c0cb,Mo-Su 07:00-22:00,Western Union,Q861042
175a0c6c2a6134e50ef90e4b12c600cf,western_union,SINGER SRI LANKA,,Nawalapitiya,CENTRAL,,LK,+94 542 222 325,https://location.westernunion.com/lk/central/nawalapitiya/175a0c6c2a6134e50ef90e4b12c600cf,Mo-Su 08:30-19:00,Western Union,Q861042
df86d46944f7e74162647352bb2f4a7c,western_union,PEOPLES BANK NAWALPITIYA,,Nawalpitiya,CENTRAL,,LK,+94 542 222 417,https://location.westernunion.com/lk/central/nawalpitiya/df86d46944f7e74162647352bb2f4a7c,Mo-Fr 09:00-15:00,Western Union,Q861042
57cb423c5cbcd76af5a27c9052ca8bdb,western_union,COMMERCIAL BANK OF CEYLON PLC,,Nawalapitiya,CENTRAL,,LK,+94 542 223 961,https://location.westernunion.com/lk/central/nawalapitiya/57cb423c5cbcd76af5a27c9052ca8bdb,Mo-Fr 08:00-17:00,Western Union,Q861042
47c85b087d1fab1e79b6280f824e879e,western_union,SINGER SRI LANKA,,Medagama,CENTRAL,,LK,+94 76 143 6050,https://location.westernunion.com/lk/central/medagama/47c85b087d1fab1e79b6280f824e879e,Mo-Su 08:30-19:00,Western Union,Q861042
e660f1b5ed19cbcc3074dca1711be946,western_union,DFCC VARDHANA BANK LTD,,Nawalapitiya,CENTRAL,,LK,+94 542 222 850,https://location.westernunion.com/lk/central/nawalapitiya/e660f1b5ed19cbcc3074dca1711be946,Mo-Fr 09:00-16:30,Western Union,Q861042
f241911b2db2bd1975161e6839a7d89c,western_union,POST OFFICE,,Kotmale,CENTRAL,,LK,+94 522 259 550,https://location.westernunion.com/lk/central/kotmale/f241911b2db2bd1975161e6839a7d89c,Mo-Sa 08:00-17:00,Western Union,Q861042
025cf381ed044b407bb06e236561da71,western_union,LB FINANCE PLC,,Kandy,CENTRAL,,LK,+94 542 223 850,https://location.westernunion.com/lk/central/kandy/025cf381ed044b407bb06e236561da71,Mo-Sa 08:30-18:00,Western Union,Q861042
92b9c9916d6c91b7d7f1c72723d6f7f1,western_union,PEOPLES BANK NANUOYA SC,,Nanuoya,CENTRAL,,LK,+94 602 536 330,https://location.westernunion.com/lk/central/nanuoya/92b9c9916d6c91b7d7f1c72723d6f7f1,Mo-Fr 09:00-15:00,Western Union,Q861042
4740b5efbcc460f249d60d1ffefe5127,western_union,POST OFFICE,,Ketaboola,CENTRAL,,LK,+94 542 240 254,https://location.westernunion.com/lk/central/ketaboola/4740b5efbcc460f249d60d1ffefe5127,Mo-Sa 08:00-17:00,Western Union,Q861042
040a0830964766f23791e8e5669bd716,western_union,POST OFFICE,,Nanuoya,CENTRAL,,LK,+94 522 222 858,https://location.westernunion.com/lk/central/nanuoya/040a0830964766f23791e8e5669bd716,Mo-Sa 08:00-17:00,Western Union,Q861042
0c05ae2341815537dfe0c3dae155157a,western_union,S B GOLD LOAN (PVT) LTD - NANUOYA,,Nanuoya,CENTRAL,,LK,+94 522 222 850,https://location.westernunion.com/lk/central/nanuoya/0c05ae2341815537dfe0c3dae155157a,Mo-Su 06:00-23:00,Western Union,Q861042
2527e26366799e009fa0938bc240dd30,western_union,SHRI THANGAMAELL JEWELLERY,,Talawakele,CENTRAL,,LK,(+94) 055-22585402,https://location.westernunion.com/lk/central/talawakele/2527e26366799e009fa0938bc240dd30,Mo-Su 08:00-19:30,Western Union,Q861042
bb02f6b54fff710dbe26ea480ff254d1,western_union,NATIONAL SAVINGS BANK,,Nuwara Eliya,CENTRAL,,LK,+94 522 258 225,https://location.westernunion.com/lk/central/nuwara-eliya/bb02f6b54fff710dbe26ea480ff254d1,Mo-Fr 08:00-14:00,Western Union,Q861042
a290261d1ba104c752502bc8d5cd43ba,western_union,SAMPATH BANK PLC,,Thalawakele,CENTRAL,,LK,+94 522 258 912,https://location.westernunion.com/lk/central/thalawakele/a290261d1ba104c752502bc8d5cd43ba,Mo-Su 08:00-22:00,Western Union,Q861042
bfc1d0d4486b73a989e5663e6c141600,western_union,DEDIGAMA GROUP  PVT  LTD,,Thalawakele,CENTRAL,,LK,+94 75 355 5949,https://location.westernunion.com/lk/central/thalawakele/bfc1d0d4486b73a989e5663e6c141600,Mo-Su 08:30-18:00,Western Union,Q861042
4f02d82928d90e8c2cd869df7074214d,western_union,COMMERCIAL BANK OF CEYLON PLC,,Talawakelle,CENTRAL,,LK,+94 522 258 208,https://location.westernunion.com/lk/central/talawakelle/4f02d82928d90e8c2cd869df7074214d,Mo-Fr 08:00-17:00,Western Union,Q861042
de78597e12db4bbb6061c94d3c1a7fff,western_union,ALLIANCE FINANCE COMPANY PLC,,Thalawakele,CENTRAL,,LK,+94 522 258 178,https://location.westernunion.com/lk/central/thalawakele/de78597e12db4bbb6061c94d3c1a7fff,Mo-Su 07:00-22:00,Western Union,Q861042
8dbdd8fd2ac1c508e1baf24fad010637,western_union,ARTHY JEWELLERS,,Pussellawa,CENTRAL,,LK,+94 812 478 410,https://location.westernunion.com/lk/central/pussellawa/8dbdd8fd2ac1c508e1baf24fad010637,Mo-Su 08:00-21:00,Western Union,Q861042
5bc290fa42e49a2503e4a0966d0656d2,western_union,SINGER SRI LANKA,,Thalawakelle,CENTRAL,,LK,+94 522 258 647,https://location.westernunion.com/lk/central/thalawakelle/5bc290fa42e49a2503e4a0966d0656d2,Mo-Su 08:30-19:00,Western Union,Q861042
3d8a177fae3c72f2f6b33c7ce9509e29,western_union,M.Y BANDUWARDANA SUPER,,Nanuoya,CENTRAL,,LK,+94 76 892 9233,https://location.westernunion.com/lk/central/nanuoya/3d8a177fae3c72f2f6b33c7ce9509e29,Mo-Su 07:00-22:00,Western Union,Q861042
7c4d068f877e92aa9b467227d50c1b0d,western_union,S B GOLD LOAN (PVT) LTD - THALAWAKELE,,Thalawakele,CENTRAL,,LK,+94 522 258 106,https://location.westernunion.com/lk/central/thalawakele/7c4d068f877e92aa9b467227d50c1b0d,Mo-Su 06:00-23:00,Western Union,Q861042
d723c21147b5da8683c85010d1bca765,western_union,S B GOLD LOAN (PVT) LTD - BOGAWATHE,,Bogawathe,CENTRAL,,LK,+94 512 051 013,https://location.westernunion.com/lk/central/bogawathe/d723c21147b5da8683c85010d1bca765,Mo-Su 06:00-23:00,Western Union,Q861042
657ee4e0fdee2c6cbf1fe8f36980bb8f,western_union,SHANTHI JEWELLERY,,Hatton,CENTRAL,,LK,+94 512 222 437,https://location.westernunion.com/lk/central/hatton/657ee4e0fdee2c6cbf1fe8f36980bb8f,Mo-Su 08:30-19:00,Western Union,Q861042
5002b54a75c9833a3f2dc971fe541f06,western_union,SINGER SRI LANKA,,Ginigathhena,CENTRAL,,LK,+94 525 673 339,https://location.westernunion.com/lk/central/ginigathhena/5002b54a75c9833a3f2dc971fe541f06,Mo-Su 08:30-19:00,Western Union,Q861042
33fe03efbc55d82f643ba959d7c6f322,western_union,PEOPLES BANK GINIGATHHENA,,Ginigathhena,CENTRAL,,LK,+94 512 242 505,https://location.westernunion.com/lk/central/ginigathhena/33fe03efbc55d82f643ba959d7c6f322,Mo-Fr 09:00-15:00,Western Union,Q861042
683af5589d5d9200aedbe4031335b576,western_union,MAHARA M P C S LIMITED,,Henegama,CENTRAL,,LK,+94 332 255 880,https://location.westernunion.com/lk/central/henegama/683af5589d5d9200aedbe4031335b576,Mo-Th 08:30-16:00; Fr 08:30-13:00; Su 08:30-16:00,Western Union,Q861042
a77ce2b9ae044b035595405ab7e2dd8a,western_union,GINIGATHENA M P C S LIMITED,,Ginigathena,CENTRAL,,LK,+94 512 242 233,https://location.westernunion.com/lk/central/ginigathena/a77ce2b9ae044b035595405ab7e2dd8a,Mo-Su 09:00-16:00,Western Union,Q861042
c2aa0a948a36728236d63e9bd94cc2f0,western_union,KANDURATA DEVELOPMENT BANK,,Ginigathena,CENTRAL,,LK,+94 512 242 297,https://location.westernunion.com/lk/central/ginigathena/c2aa0a948a36728236d63e9bd94cc2f0,Mo-Fr 08:00-18:30,Western Union,Q861042
77f5fa88a810c82ad64e3213ff7f9a00,western_union,HEBBEKANDA RURAL BANK,,Hebbekanda,CENTRAL,,LK,+94 512 051 775,https://location.westernunion.com/lk/central/hebbekanda/77f5fa88a810c82ad64e3213ff7f9a00,Mo-Su 06:00-23:00,Western Union,Q861042
fc9f3cea548f11e6502bbff99188b2cf,western_union,PEOPLES BANK KITULGALA SC,,Kitulgala,CENTRAL,,LK,+94 362 287 637,https://location.westernunion.com/lk/central/kitulgala/fc9f3cea548f11e6502bbff99188b2cf,Mo-Fr 09:00-15:00,Western Union,Q861042
5ed6d315528658cb294e050de122b844,western_union,S B GOLD LOAN (PVT) LTD - DAYAGAMA,,Dayagama,CENTRAL,,LK,+94 522 258 100,https://location.westernunion.com/lk/central/dayagama/5ed6d315528658cb294e050de122b844,Mo-Su 06:00-23:00,Western Union,Q861042
f5ecca6cea9a9ff00d8fd46b9ea210d6,western_union,GINIGATHENA MPCS LIMITED,,Watawala,CENTRAL,,LK,+94 512 237 173,https://location.westernunion.com/lk/central/watawala/f5ecca6cea9a9ff00d8fd46b9ea210d6,Mo-Su 08:30-15:00,Western Union,Q861042
559d60db355f57b1a0e0dd9cd71aa374,western_union,POST OFFICE,,Watawala,CENTRAL,,LK,+94 512 237 250,https://location.westernunion.com/lk/central/watawala/559d60db355f57b1a0e0dd9cd71aa374,Mo-Sa 08:00-17:00,Western Union,Q861042
f8a9ae613001cccda1906693341d4482,western_union,PEOPLES BANK WATAWALA SC,,Watawala,CENTRAL,,LK,+94 512 237 277,https://location.westernunion.com/lk/central/watawala/f8a9ae613001cccda1906693341d4482,Mo-Fr 09:00-15:00,Western Union,Q861042
9c52cef7609110b3d391edcc734ad726,western_union,PEOPLES BANK AGARAPATANA S C,,Agarapatana,CENTRAL,,LK,+94 512 230 349,https://location.westernunion.com/lk/central/agarapatana/9c52cef7609110b3d391edcc734ad726,Mo-Fr 09:00-15:00,Western Union,Q861042
5c103f8ebedc31333908c964b7cfbb70,western_union,PEOPLES BANK KADUGANNAWA,,Kadugannawa,CENTRAL,,LK,+94 812 570 705,https://location.westernunion.com/lk/central/kadugannawa/5c103f8ebedc31333908c964b7cfbb70,Mo-Fr 09:00-15:00,Western Union,Q861042
0e5579376b08bc7ec7c18da7a20b4b21,western_union,S B GOLD LOAN (PVT) LTD - KOTAGALA,,Kotagala,CENTRAL,,LK,+94 512 244 186,https://location.westernunion.com/lk/central/kotagala/0e5579376b08bc7ec7c18da7a20b4b21,Mo-Su 06:00-23:00,Western Union,Q861042
6a260d7319ac13eb04becd79d5d68d09,western_union,KANDURATA DEVELOPMENT BANK,,Kotagala,CENTRAL,,LK,+94 512 223 450,https://location.westernunion.com/lk/central/kotagala/6a260d7319ac13eb04becd79d5d68d09,Mo-Fr 08:00-18:30,Western Union,Q861042
177e17616d12f2c648bffb0240e2c1cf,western_union,MORAHENAGAMA RURAL BANK,,Morahenagama,CENTRAL,,LK,+94 512 051 266,https://location.westernunion.com/lk/central/morahenagama/177e17616d12f2c648bffb0240e2c1cf,Mo-Su 06:00-23:00,Western Union,Q861042
4294f91dff3b879a2b57fa05f48a4ac2,western_union,MAHINDRA IDEAL FINANCE LIMITED,,Hatton,CENTRAL,,LK,+94 512 018 100,https://location.westernunion.com/lk/central/hatton/4294f91dff3b879a2b57fa05f48a4ac2,Mo-Su 08:00-17:00,Western Union,Q861042
f6f2bcd6e935ac4e515cd148e28efd62,western_union,ALLIANCE FINANCE COMPANY PLC,,Hatton,CENTRAL,,LK,+94 512 223 152,https://location.westernunion.com/lk/central/hatton/f6f2bcd6e935ac4e515cd148e28efd62,Mo-Su 07:00-22:00,Western Union,Q861042
2d7ebb3a3f64a53c5cc376d950718c4f,western_union,NATIONAL SAVINGS BANK,,Nuwara Eliya,CENTRAL,,LK,+94 512 222 883,https://location.westernunion.com/lk/central/nuwara-eliya/2d7ebb3a3f64a53c5cc376d950718c4f,Mo-Fr 08:00-14:00,Western Union,Q861042
1fe34a90c0afd00faada90f39818d1fd,western_union,SAMPATH BANK PLC,,Hatton,CENTRAL,,LK,+94 512 225 403,https://location.westernunion.com/lk/central/hatton/1fe34a90c0afd00faada90f39818d1fd,Mo-Su 08:00-22:00,Western Union,Q861042
909da662e56f37f4ce85370ffc707d27,western_union,SINGER SRI LANKA,,Hatton,CENTRAL,,LK,+94 512 223 589,https://location.westernunion.com/lk/central/hatton/909da662e56f37f4ce85370ffc707d27,Mo-Su 08:30-19:00,Western Union,Q861042
ce43366b2d8bd2eb7bc491a7284ea590,western_union,COMMERCIAL BANK OF CEYLON PLC,,Hatton,CENTRAL,,LK,+94 512 225 103,https://location.westernunion.com/lk/central/hatton/ce43366b2d8bd2eb7bc491a7284ea590,Mo-Fr 08:00-17:00,Western Union,Q861042
94487b7b46e29e49573349538f45e2e4,western_union,POST OFFICE,,Hatton,CENTRAL,,LK,+94 512 222 250,https://location.westernunion.com/lk/central/hatton/94487b7b46e29e49573349538f45e2e4,Mo-Sa 08:00-17:00,Western Union,Q861042
c041d3f0cf2a9f8f1f325424a827bca5,western_union,DFCC VARDHANA BANK LTD,,Hatton,CENTRAL,,LK,+94 512 225 589,https://location.westernunion.com/lk/central/hatton/c041d3f0cf2a9f8f1f325424a827bca5,Mo-Fr 09:00-15:00,Western Union,Q861042
1c25d84a2a70793cd35fb478a74535bd,western_union,LB FINANCE PLC,,Nuwaraeliya,CENTRAL,,LK,+94 512 225 355,https://location.westernunion.com/lk/central/nuwaraeliya/1c25d84a2a70793cd35fb478a74535bd,Mo-Sa 08:30-18:00,Western Union,Q861042
44227a3f43bb3d267baab3760826e509,western_union,GINIGATHENA MPCS LIMITED,,Lakshapana,CENTRAL,,LK,+94 512 232 300,https://location.westernunion.com/lk/central/lakshapana/44227a3f43bb3d267baab3760826e509,Mo-Su 08:30-15:00,Western Union,Q861042
151df0de9b6ae0bf585967d9bb751b85,western_union,PEOPLES BANK HATTON,,Hatton,CENTRAL,,LK,+94 512 224 955,https://location.westernunion.com/lk/central/hatton/151df0de9b6ae0bf585967d9bb751b85,Mo-Fr 09:00-15:00,Western Union,Q861042
076c6253190b1a9096da343868fc975d,western_union,PAN ASIA BANKING CORPORATION PLC,,Hatton,CENTRAL,,LK,(+94) 049-32040,https://location.westernunion.com/lk/central/hatton/076c6253190b1a9096da343868fc975d,Mo-Fr 09:00-16:00,Western Union,Q861042
50f6074e3fea3c6595e96788e0d85964,western_union,DEDIGAMA GROUP,,Hatton,CENTRAL,,LK,+94 71 146 4626,https://location.westernunion.com/lk/central/hatton/50f6074e3fea3c6595e96788e0d85964,Mo-Su 08:30-18:00,Western Union,Q861042
b807f327bd848edc841b94e812622fed,western_union,PEOPLES BANK AMBATHANNA SC,,Ambathanna,CENTRAL,,LK,+94 812 304 420,https://location.westernunion.com/lk/central/ambathanna/b807f327bd848edc841b94e812622fed,Mo-Fr 09:00-15:00,Western Union,Q861042
51865749bac2075a97c3cd388e8c3c3d,western_union,KOTHTHELLENA RURAL BANK,,Koththellena,CENTRAL,,LK,+94 512 052 075,https://location.westernunion.com/lk/central/koththellena/51865749bac2075a97c3cd388e8c3c3d,Mo-Su 06:00-23:00,Western Union,Q861042
2b3e9d3f68f23aa9f78580c02132148f,western_union,PEOPLES BANK DICKOYA SC,,Dickoya,CENTRAL,,LK,+94 512 223 336,https://location.westernunion.com/lk/central/dickoya/2b3e9d3f68f23aa9f78580c02132148f,Mo-Fr 09:00-15:00,Western Union,Q861042
03ee5c5d2f5d3fc25cb6312b60db6e3f,western_union,SOORYAA PHARMACY,,Dickoya,CENTRAL,,LK,+94 512 222 142,https://location.westernunion.com/lk/central/dickoya/03ee5c5d2f5d3fc25cb6312b60db6e3f,Mo-Su 08:00-17:00,Western Union,Q861042
8cdab6300dc4457028efa0b64dfab973,western_union,SHAGEE DISTRIBUTOR -NORWOOD,,Norwood,CENTRAL,,LK,+94 77 788 0835,https://location.westernunion.com/lk/central/norwood/8cdab6300dc4457028efa0b64dfab973,Mo-Su 06:00-23:00,Western Union,Q861042
4000727929285e53e63043e74b31b2ed,western_union,NATTANDIYA MPCSL,,Koswatta,CENTRAL,,LK,+94 312 250 957,https://location.westernunion.com/lk/central/koswatta/4000727929285e53e63043e74b31b2ed,Mo-Fr 08:30-15:30,Western Union,Q861042
9e2eebf5e270609d8f500245561fa118,western_union,DEDIGAMA GROUP  PRIVATE  LIMITED,,Nuwara Eliya,CENTRAL,,LK,+94 75 358 1163,https://location.westernunion.com/lk/central/nuwara-eliya/9e2eebf5e270609d8f500245561fa118,Mo-Su 08:30-19:00,Western Union,Q861042
c17004919c47911826aa98e1ad3d21f5,western_union,SRI AMBAL JEWELLERS,,Maskeliya,CENTRAL,,LK,+94 522 277 458,https://location.westernunion.com/lk/central/maskeliya/c17004919c47911826aa98e1ad3d21f5,Mo-Fr 09:00-19:30; Su 09:00-19:30,Western Union,Q861042
cb4804848b1aff51c0512e681412c270,western_union,COMMERCIAL BANK OF CEYLON PLC,,Maskeliya,CENTRAL,,LK,+94 522 277 552,https://location.westernunion.com/lk/central/maskeliya/cb4804848b1aff51c0512e681412c270,Mo-Su 08:00-20:00,Western Union,Q861042
3541b6917be5411497d2f60b1e3f641d,western_union,SHAGEE DISTRIBUTOR - MASKELIYA,,Maskeliya,CENTRAL,,LK,+94 77 788 0835,https://location.westernunion.com/lk/central/maskeliya/3541b6917be5411497d2f60b1e3f641d,Mo-Su 06:00-23:00,Western Union,Q861042
f1b398de7e12701e87ed7d941c671754,western_union,M.T. POSHA PILLAI,,Bogawanthalawa,CENTRAL,,LK,+94 522 267 591,https://location.westernunion.com/lk/central/bogawanthalawa/f1b398de7e12701e87ed7d941c671754,Mo-Fr 08:30-19:30; Su 08:30-19:30,Western Union,Q861042
ffd8d8bcec979130bcd091edd70ba381,western_union,SRI SUNMUGANATHAN STORES,,Upcot,CENTRAL,,LK,+94 512 235 234,https://location.westernunion.com/lk/central/upcot/ffd8d8bcec979130bcd091edd70ba381,Mo-Fr 08:00-19:30; Su 08:00-19:30,Western Union,Q861042
a30bd62b80e59e06b9b0f898c2d3da79,western_union,PEOPLES BANK UPCOT SC,,Upcot,CENTRAL,,LK,+94 512 235 241,https://location.westernunion.com/lk/central/upcot/a30bd62b80e59e06b9b0f898c2d3da79,Mo-Fr 09:00-15:00,Western Union,Q861042
070624976a9c61ca4e670835e026e6d3,western_union,LB FINANCE PLC,,Nuwaraeliya,CENTRAL,,LK,+94 522 277 032,https://location.westernunion.com/lk/central/nuwaraeliya/070624976a9c61ca4e670835e026e6d3,Mo-Sa 08:30-18:00,Western Union,Q861042
f18914d376cd552cb816c7a799fae2d9,western_union,PEOPLES BANK POTTAPITIYA SC,,Pottapitiya,CENTRAL,,LK,+94 812 573 886,https://location.westernunion.com/lk/central/pottapitiya/f18914d376cd552cb816c7a799fae2d9,Mo-Fr 09:00-15:00,Western Union,Q861042
3af87de5bfbfc2e4d2844ef0233396b8,western_union,MATALE COOP RURAL BANKS SOCIETY LTD,,Mahawela,CENTRAL,,LK,+94 665 617 890,https://location.westernunion.com/lk/central/mahawela/3af87de5bfbfc2e4d2844ef0233396b8,Mo-Fr 08:30-15:00; Sa 08:30-12:30,Western Union,Q861042
f9eafad0141ff893d4a9f88d24295d3d,western_union,NATIONAL DEVELOPMENT BANK PLC,,Kahawatta,CENTRAL,,LK,+94 452 271 538,https://location.westernunion.com/lk/central/kahawatta/f9eafad0141ff893d4a9f88d24295d3d,Mo-Su 08:00-20:30,Western Union,Q861042
e3fa9db5a5f19a71e48f7731119e42a3,western_union,WALASMULLA MPCS LTD,,Warapitiya,CENTRAL,,LK,+94 475 673 402,https://location.westernunion.com/lk/central/warapitiya/e3fa9db5a5f19a71e48f7731119e42a3,Mo-Fr 08:00-16:30; Sa 08:00-15:00,Western Union,Q861042
836e487786f9a669066e560067029cef,western_union,PALLEPOLA MPCS LIMITED,,Mananwatte,CENTRAL,,LK,+94 665 673 455,https://location.westernunion.com/lk/central/mananwatte/836e487786f9a669066e560067029cef,Mo-Su 08:00-16:00,Western Union,Q861042
95aec92f84a07927c18a0a17a13505df,western_union,RODRIGO COMMUNICATION,,Ella,CENTRAL,,LK,+94 572 228 980,https://location.westernunion.com/lk/central/ella/95aec92f84a07927c18a0a17a13505df,Mo-Su 06:00-23:00,Western Union,Q861042
651897b644075461d8f0f256a1d7aab2,western_union,PEOPLES BANK RAGALA,,Ragala,CENTRAL,,LK,+94 522 265 270,https://location.westernunion.com/lk/central/ragala/651897b644075461d8f0f256a1d7aab2,Mo-Fr 09:00-15:00,Western Union,Q861042
ade03cf576f9a0c93f14dbe446f7a746,western_union,SELVI SHOE PALACE,,Halgranoya,CENTRAL,,LK,+94 522 265 341,https://location.westernunion.com/lk/central/halgranoya/ade03cf576f9a0c93f14dbe446f7a746,Mo-Su 06:00-23:00,Western Union,Q861042
45922a9be9a78cd7e63f5503a2158187,western_union,ALLIANCE FINANCE COMPANY PLC,,Ragala,CENTRAL,,LK,+94 522 265 582,https://location.westernunion.com/lk/central/ragala/45922a9be9a78cd7e63f5503a2158187,Mo-Su 07:00-22:00,Western Union,Q861042
