Ref,Spider,Name,Address,City,State,Zipcode,Country,Phone,Website,Hours,Brand,WikiData
73251695,moneygram,MUTHOOT FINANCE LTD - #262 - THIRUNELVEL,,THIRUNELVELI,,,IN,+91 462 257 7066,,Mo-Su 09:00-19:00,MoneyGram,Q1944412
73262888,moneygram,MUTHOOT FINANCE LTD - #1574 - THIRUNELVE,,THIRUNELVELI,,,IN,+91 462 257 3140,,Mo-Su 09:00-19:00,MoneyGram,Q1944412
73281791,moneygram,MUTHOOT FINANCE LTD - #3239 - THIRUNELVE,,THIRUNELVELI,,,IN,+91 462 257 6066,,Mo-Su 09:00-19:00,MoneyGram,Q1944412
73299372,moneygram,MUTHOOT FINANCE LTD - #5170 - TIRUNELVEL,,TIRUNELVELI,,,IN,+91 72002 28439,,Mo-Su 09:00-19:00,MoneyGram,Q1944412
73303983,moneygram,MUTHOOT FINCORP LIMITED - #F103 - PALAYA,,TIRUNELVELI,,,IN,+91 462 257 5301,,Mo-Sa 09:00-17:30; Su 00:00-24:00,MoneyGram,Q1944412
73315560,moneygram,MUTHOOT FINCORP LIMITED - #F1424 - PALAY,,TIRUNELVELI,,,IN,+91 462 257 8826,,Mo-Sa 09:00-17:30; Su 00:00-24:00,MoneyGram,Q1944412
73305729,moneygram,MUTHOOT FINCORP LIMITED - #F344 - SAMATH,,TIRUNELVELI,,,IN,+91 462 420 0144,,Mo-Sa 09:00-17:30; Su 00:00-24:00,MoneyGram,Q1944412
73306278,moneygram,MUTHOOT FINCORP LIMITED - #F402 - PALAYA,,TIRUNELVELI,,,IN,+91 462 256 0828,,Mo-Sa 09:00-17:30; Su 00:00-24:00,MoneyGram,Q1944412
72965788,moneygram,PADMAPRIYA S,,PALAYANKOTTAI,,,IN,+91 77084 55986,,Mo-Su 08:00-21:00,MoneyGram,Q1944412
73643096,moneygram,ALPHAEUS JEGARAJ S,,TIRUNELVELI,,,IN,+91 94431 79949,,Mo-Su 08:00-21:00,MoneyGram,Q1944412
73747743,moneygram,EXPRESS MOBILES,,TIRUNELVELI,,,IN,+91 90424 74443,,Mo-Su 08:00-21:00,MoneyGram,Q1944412
73824404,moneygram,MAGNA TRAVELS,,TIRUNELVELI,,,IN,+91 97864 51000,,Mo-Su 08:00-21:00,MoneyGram,Q1944412
74092523,moneygram,KOSAMATTAM FINANCE LIMITED - #1135 - PAL,,PALAYAMKOTTAI,,,IN,+91 462 256 1416,,Mo-Sa 09:00-17:30; Su 00:00-24:00,MoneyGram,Q1944412
74172401,moneygram,ESAF SMALL FINANCE BANK LIMITED - PALAYA,,PALAYAMKOTTAI-TIRUNELVELI,,,IN,+91 87146 06853,,Mo-Sa 09:30-17:30; Su 00:00-24:00,MoneyGram,Q1944412
71820303,moneygram,MANAPPURAM FINANCE - #3622 - TIRUNELVELI,,TIRUNELVELI,,,IN,242755,,Mo-Sa 08:00-20:00; Su 00:00-24:00,MoneyGram,Q1944412
,visa,,,PALAYAMKOTTAI,,,IN,,,,,
,visa,,,TIRUNELVELI,,,IN,,,,,
,visa,,,PALAYAMKOTTAI,,,IN,,,,,
,visa,,,PALAYAMKOTTAI,,,IN,,,,,
,visa,,,TIRUNELVELI,,,IN,,,,,
,visa,,,TIRUNELVELLI,,,IN,,,,,
,visa,,,PALAYAMKOTTAI,,,IN,,,,,
