Ref,Spider,Name,Address,City,State,Zipcode,Country,Phone,Website,Hours,Brand,WikiData
727,autozone_us,AutoZone Auto Parts Cincinnati,,Cincinnati,OH,,US,+1 513-522-4858,https://www.autozone.com/locations/oh/cincinnati/6750-hamilton-ave.html,Mo-Sa 07:30-21:00; Su 09:00-21:00,AutoZone,Q4826087
154674,bluerhino,Walgreens #11630,,Cincinnati,OH,,US,+1 513-931-1717,,,Blue Rhino,Q65681213
174377,bluerhino,Setu Petroleum - Shell,,Cincinnati,OH,,US,+1 513-521-5673,,,Blue Rhino,Q65681213
68853,citi,ATM PNC AT UDF,,Cincinnati,OH,,US,,,,Citibank,Q857063
85698,citi,ATM United Dairy Farmers,,Cincinnati,OH,,US,,,,Citibank,Q857063
68882,citi,ATM PNC AT UDF,,Cincinnati,OH,,US,,,,Citibank,Q857063
85730,citi,ATM United Dairy Farmers,,Cincinnati,OH,,US,,,,Citibank,Q857063
,credit_union_us,Kemba CU  Inc.,,Cincinnati,OH,,US,+1 513-728-7988,,Mo-Fr 09:00-05:30; Sa 09:00-01:00,,
https://locations.53.com/#3034347,fifththirdbank,Fifth Third Bank North College Hill,,Cincinnati,OH,,US,+1 513-521-4600,https://locations.53.com/oh/cincinnati/6800-hamilton-avenue.html,Mo-Th 09:00-17:00; Fr 09:00-18:00; Sa 09:00-12:00,Fifth Third Bank,Q1411810
7939,fresenius_kidney_care_us,Fresenius Kidney Care North College Hill,,Cincinnati,OH,,US,+1 800-881-5101,https://www.freseniuskidneycare.com/dialysis-centers/ohio/7939,Mo 05:00-16:30; Tu-We 05:00-04:30; Th-Fr 05:00-16:30; Sa 05:00-04:30,,
5339b59f-458a-e111-8dde-005056934050,goodwill,Finneytown Donation Center,,Cincinnati,OH,,US,,https://www.goodwill.org/locator/location/?store=NTMzOWI1OWYtNDU4YS1lMTExLThkZGUtMDA1MDU2OTM0MDUw&lat=MzkuMjI2NjM=&lng=LTg0LjUxNw==,,Goodwill,Q5583655
33583,h_r_block,H&R Block,,Cincinnati,OH,,US,+1 513-681-2002,https://www.hrblock.com/local-tax-offices/ohio/cincinnati/college-hill/33583/,,H&R Block,Q5627799
https://www.mercy.com/#5f553da7-4817-4684-9d0d-ef0472920808,mercy_health_us,Mercy Health — Pleasant Hill Academy Health Center,,Cincinnati,OH,,US,+1 513-215-0699,https://www.mercy.com/locations/specialty-locations/school-based-health-clinics/mercy-health-pleasant-hill-academy-health-center,,Mercy Health,Q5053169
https://www.mercy.com/#3c83eb24-7a9e-41f0-a3e1-817162386ca0,mercy_health_us,Mercy Health — Westside Rheumatology,,Cincinnati,OH,,US,+1 513-896-9595,https://www.mercy.com/locations/specialty-locations/rheumatology/mercy-health-westside-rheumatology,,Mercy Health,Q5053169
https://www.mercy.com/#e3fb8417-931b-41fc-a5d8-07d35193489a,mercy_health_us,"Mercy Health — General and Laparoscopic Surgery, Winton Road",,Cincinnati,OH,,US,+1 513-961-4335,https://www.mercy.com/locations/specialty-locations/general-surgery/mercy-health-winton-road-general-and-laparascopic-surgery,,Mercy Health,Q5053169
https://www.mercy.com/#294a82c7-7715-4ddb-8e8c-46aa8cdfe5b6,mercy_health_us,Mercy Health — Winton Road Primary Care,,Cincinnati,OH,,US,+1 513-981-4180,https://www.mercy.com/locations/primary-care-family-medicine/cincinnati/mercy-health-winton-road-primary-care,Mo-Fr 08:00-17:00,Mercy Health,Q5053169
1864,mightyflame,SHELL 1225,,CINCINNATI,OH,,US,+1 513-931-3333,,,Mighty Flame,
https://locations.outback.com/#15502051,outbacksteakhouse,Outback Steakhouse,,Cincinnati,OH,,US,+1 513-671-8200,https://locations.outback.com/ohio/cincinnati/11700-princeton-pike,Mo-Th 11:00-22:00; Fr-Sa 11:00-23:00; Su 11:00-21:00,Outback Steakhouse,Q1064893
393,primrose_schools,Primrose School at P&G Winton Hill Child Development Center,,Cincinnati,OH,,US,+1 513-242-8888,https://www.primroseschools.com/schools/pg-winton-hill-child-development-center/,,Primrose Schools,Q7243677
https://restaurants.subway.com/#14904282,subway,Subway,,North College Hill Hamilton,OH,,US,+1 513-931-7827,https://restaurants.subway.com/united-states/oh/north-college-hill/6836-hamilton-avenue,Mo-Su 09:00-21:00,Subway,Q244457
8002303902,sunoco_us,Sunoco,,CINCINNATI,OH,,US,+1 513-641-1910,,,Sunoco,Q1423218
2029,united_dairy_farmers_us,United Dairy Farmers,920 North Bend Rd,Cincinnati,OH,,US,+1 513-681-4925,,,United Dairy Farmers,Q7887677
2007,united_dairy_farmers_us,United Dairy Farmers,6813 Hamilton Ave,Cincinnati,OH,,US,+1 513-729-3727,,,United Dairy Farmers,Q7887677
north-college-hill,usavingsbank,North College Hill,,Cincinnati,OH,,US,+1 513-931-8400,https://usavingsbank.com/contact/find-a-branch-atm/north-college-hill/,Mo-Th 09:00-17:00; Fr 09:00-18:00; Sa 09:00-13:00,Union Savings Bank,Q69206498
1436940,usps,COLLEGE HL,,CINCINNATI,OH,,US,+1 513-541-1593,,"Mo-Fr 08:30-11:30,12:30-17:00; Sa 09:00-13:00",United States Postal Service,Q668687
4522400009,usps_collection_boxes,USPS COLLECTION BOX - BLUE BOX,5843 BLUESPRUCE LN,CINCINNATI,OH,,US,,,,United States Postal Service,Q668687
4522400053,usps_collection_boxes,USPS COLLECTION BOX - BLUE BOX,5742 HAMILTON AVE,CINCINNATI,OH,,US,,,,United States Postal Service,Q668687
4522400017,usps_collection_boxes,USPS COLLECTION BOX - BLUE BOX,1531 CEDAR AVE,CINCINNATI,OH,,US,,,,United States Postal Service,Q668687
4522400057,usps_collection_boxes,USPS COLLECTION BOX - PO LOBBY,1531 CEDAR AVE,CINCINNATI,OH,,US,,,,United States Postal Service,Q668687
4522400058,usps_collection_boxes,USPS COLLECTION BOX - PO LOBBY,1531 CEDAR AVE,CINCINNATI,OH,,US,,,,United States Postal Service,Q668687
4522400062,usps_collection_boxes,USPS COLLECTION BOX - PO LOBBY,1531 CEDAR AVE,CINCINNATI,OH,,US,,,,United States Postal Service,Q668687
4522400033,usps_collection_boxes,USPS COLLECTION BOX - BLUE BOX,6240 HAMILTON AVE,CINCINNATI,OH,,US,,,,United States Postal Service,Q668687
4522400048,usps_collection_boxes,USPS COLLECTION BOX - BLUE BOX,1134 HILL CREST RD,CINCINNATI,OH,,US,,,,United States Postal Service,Q668687
4522400047,usps_collection_boxes,USPS COLLECTION BOX - BLUE BOX,1594 OAK KNOLL DR,CINCINNATI,OH,,US,,,,United States Postal Service,Q668687
4522400005,usps_collection_boxes,USPS COLLECTION BOX - BLUE BOX,1508 HOLLYWOOD AVE,CINCINNATI,OH,,US,,,,United States Postal Service,Q668687
4522400029,usps_collection_boxes,USPS COLLECTION BOX - BLUE BOX,1586 GOODMAN AVE,CINCINNATI,OH,,US,,,,United States Postal Service,Q668687
4522400045,usps_collection_boxes,USPS COLLECTION BOX - BLUE BOX,1051 W NORTH BEND RD,CINCINNATI,OH,,US,,,,United States Postal Service,Q668687
4522400051,usps_collection_boxes,USPS COLLECTION BOX - BLUE BOX,903 TIMBER TRL,CINCINNATI,OH,,US,,,,United States Postal Service,Q668687
4522400044,usps_collection_boxes,USPS COLLECTION BOX - BLUE BOX,824 W NORTH BEND RD,CINCINNATI,OH,,US,,,,United States Postal Service,Q668687
4522400052,usps_collection_boxes,USPS COLLECTION BOX - BLUE BOX,6000 TOWN VISTA DR,CINCINNATI,OH,,US,,,,United States Postal Service,Q668687
4522400006,usps_collection_boxes,USPS COLLECTION BOX - BLUE BOX,7528 VIEW PLACE DR,CINCINNATI,OH,,US,,,,United States Postal Service,Q668687
cincinnati_oil-change-040077,valvoline_instant_oil_change,Valvoline,6650 Hamilton Ave ,Cincinnati,OH,,US,+1 513-931-4786,https://store.vioc.com/oh/cincinnati/oil-change-040077.html,,Valvoline Instant Oil Change,Q7912852
https://vcahospitals.com/college-hill,vca,VCA College Hill Animal Hospital,,Cincinnati,OH,,US,+1 513-681-9223,https://vcahospitals.com/college-hill,Mo 07:30-18:30; Tu-We 07:30-18:00; Th 07:30-18:30; Fr 07:30-18:00; Sa 07:30-14:00,VCA,Q7906620
,visa,,,CINCINNATI,OH,,US,,,,,
,visa,,,CINCINNATI,OH,,US,,,,,
,visa,,,CINCINNATI,OH,,US,,,,,
,visa,,,CINCINNATI,OH,,US,,,,,
,visa,,,CINCINNATI,OH,,US,,,,,
,visa,,,CINCINNATI,OH,,US,,,,,
,visa,,,CINCINNATI,OH,,US,,,,,
,visa,,,CINCINNATI,OH,,US,,,,,
,visa,,,CINCINNATI,OH,,US,,,,,
,visa,,,CINCINNATI,OH,,US,,,,,
,visa,,,CINCINNATI,OH,,US,,,,,
,visa,,,CINCINNATI,OH,,US,,,,,
,visa,,,CINCINNATI,OH,,US,,,,,
,visa,,,CINCINNATI,OH,,US,,,,,
,visa,,,CINCINNATI,OH,,US,,,,,
,visa,,,CINCINNATI,OH,,US,,,,,
,visa,,,CINCINNATI,OH,,US,,,,,
,visa,,,CINCINATTI,OH,,US,,,,,
,visa,,,CINCINNATI,OH,,US,,,,,
,visa,,,CINCINNATI,OH,,US,,,,,
,visa,,,N COLLEGE HL,OH,,US,,,,,
,visa,,,CINCINNATI,OH,,US,,,,,
,visa,,,CINCINNATI,OH,,US,,,,,
,visa,,,CINCINNATI,OH,,US,,,,,
,visa,,,CINCINNATI,OH,,US,,,,,
