Ref,Spider,Name,Address,City,State,Zipcode,Country,Phone,Website,Hours,Brand,WikiData
Ahern Little Rock,ahern,Ahern Little Rock,,Little Rock,AR,,US,+1 501-246-8820,,,Ahern Rentals,Q114487657
https://locations.arbys.com/ar/littlerock/8212-geyer-springs-rd.html,arbys_us,"Arby's Fast-Food Drive Through Near You in Little Rock, AR",,Little Rock,AR,,US,+1 501-568-2834,https://locations.arbys.com/ar/littlerock/8212-geyer-springs-rd.html,Mo-Su 09:30-23:00,Arby's,Q630866
14270,asics_us,Hibbett Sports,10215 Mablevale Plaza,Little Rock,AR,,US,+1 501-562-1888,,,asics,Q327247
12,autozone_us,AutoZone Auto Parts Little Rock,,Little Rock,AR,,US,+1 501-562-8000,https://www.autozone.com/locations/ar/little-rock/5609-baseline-rd.html,Mo-Sa 07:30-21:00; Su 08:00-20:00,AutoZone,Q4826087
https://locators.bankofamerica.com/ar/littlerock/financial-centers-little-rock-10191.html,bankofamerica,Bank of America Financial Center & Drive-Thru ATM | Geyer Springs,,Little Rock,AR,,US,+1 501-562-7184,https://locators.bankofamerica.com/ar/littlerock/financial-centers-little-rock-10191.html,Mo-Fr 09:00-17:00; Sa 09:00-14:00,Bank of America,Q487907
https://www.baptist-health.com/location/baptist-health-community-wellness-center-southwest-community-center/,bha_us,Baptist Health Community Wellness Center-Southwest Community Center,,Little Rock,AR,,US,+1 501-227-8478,https://www.baptist-health.com/location/baptist-health-community-wellness-center-southwest-community-center/,,Baptist Health Foundation,Q50379824
https://www.baptist-health.com/location/baptist-health-family-clinic-otter-creek/,bha_us,Baptist Health Family Clinic-Otter Creek,,Little Rock,AR,,US,+1 501-455-1331,https://www.baptist-health.com/location/baptist-health-family-clinic-otter-creek/,,Baptist Health Foundation,Q50379824
https://www.baptist-health.com/location/baptist-health-therapy-center-otter-creek/,bha_us,Baptist Health Therapy Center-Otter Creek,,Little Rock,AR,,US,+1 501-202-6690,https://www.baptist-health.com/location/baptist-health-therapy-center-otter-creek/,,Baptist Health Foundation,Q50379824
198379,bluerhino,University Avenue Food Mart (Star Energy Enterprises),,Little Rock,AR,,US,+1 501-565-1999,,,Blue Rhino,Q65681213
192776,bluerhino,Murphy's #8842,,Little Rock,AR,,US,+1 501-562-1005,,,Blue Rhino,Q65681213
236959,bluerhino,Circle K #2709954,,Little Rock,AR,,US,+1 404-809-4923,,,Blue Rhino,Q65681213
170167,bluerhino,Kum & Go #146,,Little Rock,AR,,US,+1 501-907-7513,,,Blue Rhino,Q65681213
166569,bluerhino,Fuller & Son #388470,,Little Rock,AR,,US,+1 501-562-2345,,,Blue Rhino,Q65681213
163197,bluerhino,Family Dollar #08936,,Little Rock,AR,,US,+1 501-562-1740,,,Blue Rhino,Q65681213
198195,bluerhino,Exxon Chicot Rd (Chicot Exxon Inc.),,Little Rock,AR,,US,+1 501-412-1106,,,Blue Rhino,Q65681213
185582,bluerhino,Kroger #627 - Delta- Fuel Center,,Little Rock,AR,,US,+1 501-568-2330,,,Blue Rhino,Q65681213
71438,bluerhino,Kroger #627 - Delta,,Little Rock,AR,,US,+1 501-568-2330,,,Blue Rhino,Q65681213
154582,bluerhino,Walgreens #3412,,LITTLE ROCK,AR,,US,+1 501-565-7844,,,Blue Rhino,Q65681213
8002,bueno,Taco Bueno - 8002,"10114 Mablevale Plaza Drive ,  , Little Rock, AR, 72209, US",Little Rock,AR,,US,+1 501-562-0390,,Mo-Su 10:00-21:30,Taco Bueno,Q7673958
LRAR,camping_world_us,Forest River RV Little Rock,"9801 Interstate 30 Little Rock, AR 72209",Little Rock,AR,,US,+1 877-358-2481,https://rv.campingworld.com/dealer/wichita-kansasforestriver-little-rock-arkansas,,Camping World,Q5028383
//locations.carters.com/ar/little-rock/carters-little-rock-outlets-ar,carters_us,Carter's Little Rock,,Little Rock,AR,,US,+1 501-407-0755,https://locations.carters.com/ar/little-rock/carters-little-rock-outlets-ar,Mo-Th 11:00-20:00; Fr-Sa 10:00-21:00; Su 11:00-19:00,Carter's,Q5047083
https://stores.catofashions.com/#26559970,cato_us,Cato,,,AR,,US,+1 501-565-2368,https://stores.catofashions.com/ar/little-rock/10101-baseline-road,Mo-Sa 10:00-19:00; Su 13:00-18:00,Cato,Q16956136
17475,chevrolet,CRAIN CHEVROLET,,Little Rock,AR,,US,+1 501-246-7781,https://www.crainchevy.com,Mo-Sa 09:00-19:00,Chevrolet,Q29570
7621-geyer-springs-road,churchs_chicken,Geyer Springs Road,,Little Rock,AR,,US,+1 501-568-4287,https://locations.churchs.com/ar/little-rock/7621-geyer-springs-road,,Church's Chicken,Q1089932
76083,citi,ATM SIMMONS BANK,,Little Rock,AR,,US,,,,Citibank,Q857063
76084,citi,ATM SIMMONS BANK,,Little Rock,AR,,US,,,,Citibank,Q857063
61636,citi,ATM Kroger,,Little Rock,AR,,US,,,,Citibank,Q857063
91995,citi,ATM Walgreens,,Little Rock,AR,,US,,,,Citibank,Q857063
85467,citi,ATM UNITED ARKANSAS FCU,,Little Rock,AR,,US,,,,Citibank,Q857063
85468,citi,ATM UNITED ARKANSAS FCU,,Little Rock,AR,,US,,,,Citibank,Q857063
85469,citi,ATM UNITED ARKANSAS FCU,,Little Rock.,AR,,US,,,,Citibank,Q857063
59694,citi,ATM HOPE Federal Credit Union,,Little Rock,AR,,US,,,,Citibank,Q857063
43633,citi,ATM Circle K,,Little Rock,AR,,US,,,,Citibank,Q857063
76072,citi,ATM SIMMONS BANK,,Little Rock,AR,,US,,,,Citibank,Q857063
om_ar_little-rock_8717-geyer-springs-rd,cititrends,Citi Trends,,Little Rock,AR,,US,+1 501-307-1464,https://locations.cititrends.com/ar/little-rock/8717-geyer-springs-rd.html,Mo 11:00-21:00; Tu 11:00-21:00; We 11:00-21:00; Th 11:00-21:00; Fr 10:00-21:00; Sa 10:00-21:00; Su 12:00-18:00,Citi Trends,Q5122438
,credit_union_us,Hope FCU,,Little Rock,AR,,US,+1 501-562-1060,,,,
,credit_union_us,United Arkansas FCU,,Little Rock,AR,,US,+1 501-565-8500,,Mo-Fr 08:00-05:00,,
70153358,cricket_wireless,Cricket Wireless Authorized Retailer,,Little Rock,AR,,US,+1 501-916-9045,https://www.cricketwireless.com/stores/ll/US/AR/Little-Rock/8824-Geyer-Springs-Rd,Mo-Sa 09:00-20:00; Su 12:00-18:00,Cricket Wireless,Q5184987
80338199,cricket_wireless,Cricket Wireless Authorized Retailer,,Little Rock,AR,,US,+1 501-747-2421,https://www.cricketwireless.com/stores/ll/US/AR/Little-Rock/7515-Geyer-Springs-Rd,Mo-Fr 10:00-20:00; Sa 10:00-19:00; Su 12:00-18:00,Cricket Wireless,Q5184987
70153482,cricket_wireless,Cricket Wireless Authorized Retailer,,Little Rock,AR,,US,+1 501-530-2006,https://www.cricketwireless.com/stores,Mo-Sa 10:00-20:00; Su 12:00-18:00,Cricket Wireless,Q5184987
9527,dollartree,DollarTree,,Little Rock,AR,,US,+1 501-400-0395,,Mo-Sa 09:00-21:00; Su 10:00-20:00,Dollar Tree,Q5289230
11680,dollar_general,Dollar General,,Little Rock,AR,,US,+1 501-340-0920,https://www.dollargeneral.com/store-directory/ar/little-rock/11680,Mo-Su 08:00-22:00,Dollar General,Q145168
https://www.edwardjones.com/us-en/financial-advisor/mitchell-beggs,edwardjones,Mitchell S Beggs,,Little Rock,AR,,US,+1 501-353-1770,https://www.edwardjones.com/us-en/financial-advisor/mitchell-beggs,Mo-Th 08:00-16:30; Fr 08:00-15:30,Edward Jones,Q5343830
100181,electrify_america,Walmart 124 Little Rock,,Little Rock,AR,,US,,,,Electrify America,Q59773555
E15171,enterprise,Little Rock Geyer Springs,,Little Rock,AR,,US,+1 501-562-6623,,,Enterprise Rent-A-Car,Q17085454
200319627,exxonmobil,GEYER SPRINGS FOOD & GAS,,LITTLE ROCK,AR,,US,+1 501-562-1052,https://www.exxon.com/en/find-station/mobil-littlerock-ar-geyerspringsfoodgas-200319627,Mo-Su 06:00-22:00,Mobil,Q109676002
200314802,exxonmobil,OTTER CREEK EXXON,,LITTLE ROCK,AR,,US,+1 501-407-0333,https://www.exxon.com/en/find-station/exxon-littlerock-ar-ottercreekexxon-200314802,Mo-Fr 06:00-21:00; Sa-Su 08:00-21:00,Exxon,Q109675651
28936,family_dollar_us,FAMILY DOLLAR #8936,,Little Rock,AR,,US,+1 501-534-5098,https://www.familydollar.com/locations/ar/little-rock/28936/,Mo-Su 09:00-21:00,Family Dollar,Q5433101
21478,family_dollar_us,FAMILY DOLLAR #1478,,Little Rock,AR,,US,+1 501-683-8476,https://www.familydollar.com/locations/ar/little-rock/21478/,Mo-Sa 09:00-22:00; Su 09:00-21:00,Family Dollar,Q5433101
6540,gamestop_us,Mabelvale Plaza,,Little Rock,AR,,US,+1 501-562-1133,https://www.gamestop.com/search/?store=6540,Mo-Th 11:00-20:00; Fr-Sa 10:00-20:00; Su 12:00-20:00,GameStop,Q202210
c3e49bc3-458a-e111-8dde-005056934050,goodwill,"Goodwill Industries of Arkansas, Inc.",,Little Rock,AR,,US,+1 501-372-5100,https://www.goodwill.org/locator/location/?store=YzNlNDliYzMtNDU4YS1lMTExLThkZGUtMDA1MDU2OTM0MDUw&lat=MzQuNjgxNTE=&lng=LTkyLjMxOTI0,,Goodwill,Q5583655
5d76db29-508d-e211-87d7-0050568924e6,goodwill,Goodwill Resource Center (GRC) Outlet #5108,,Little Rock,AR,,US,+1 501-492-8510,https://www.goodwill.org/locator/location/?store=NWQ3NmRiMjktNTA4ZC1lMjExLTg3ZDctMDA1MDU2ODkyNGU2&lat=MzQuNjgzNTg=&lng=LTkyLjMxOTA4,,Goodwill,Q5583655
https://www.goodyearautoservice.com/en_US/location/Little-Rock-AR-72209-US-000902677,goodyear_us,"Goodyear Auto Service - South Little Rock, Little Rock, AR | Oil, Brakes & Repairs | #000902677",,Little Rock,AR,,US,+1 501-565-0362,https://www.goodyearautoservice.com/en_US/location/Little-Rock-AR-72209-US-000902677,Mo-Sa 08:00-19:00,Goodyear,Q620875
64596,h_r_block,H&R Block,,Little Rock,AR,,US,+1 501-562-0342,https://www.hrblock.com/local-tax-offices/arkansas/little-rock/8824-geyer-springs-rd/64596/,,H&R Block,Q5627799
https://stores.itsfashions.com/#26560997,its_fashions_us,It's Fashion Colony Shop Shopping Center,,,AR,,US,+1 501-562-1529,https://stores.itsfashions.com/ar/little-rock/8824-geyer-springs-road,Mo-Sa 11:00-20:00; Su 13:00-18:00,It's Fashion,Q122762765
https://office.jacksonhewitt.com/#27577429,jackson_hewitt,Jackson Hewitt,,Little Rock,AR,,US,+1 501-222-1892,https://office.jacksonhewitt.com/tax-preparation-services-locations/en/ar/little-rock/8801-baseline-rd/50124,Mo-Sa 11:00-19:00; Su 13:00-17:00,Jackson Hewitt,Q6117132
https://office.jacksonhewitt.com/#27576797,jackson_hewitt,Jackson Hewitt,,Little Rock,AR,,US,+1 501-214-9433,https://office.jacksonhewitt.com/tax-preparation-services-locations/en/ar/little-rock/8524-geyer-springs-road/15757,Mo-Fr 10:00-18:00; Sa 09:00-19:00; Su 13:00-17:00,Jackson Hewitt,Q6117132
https://locations.kfc.com/#14892744,kfc,Chicken Nuggets Near Little Rock,,Little Rock,AR,,US,,https://locations.kfc.com/ar/little-rock/8220-geyer-springs-road/chickennugget,Mo-Su 10:30-23:00,KFC,Q524757
0146,kum_and_go,Kum & Go #0146,,Little Rock,AR,,US,+1 501-907-7513,https://www.kumandgo.com/store-locator?details=0146,24/7,Kum & Go,Q6443340
5028,mightyflame,QUICK FUEL MART,,Little Rock,AR,,US,+1 501-725-5272,,,Mighty Flame,
3822,mightyflame,QUICK FOOD MART,,LITTLE ROCK,AR,,US,+1 501-612-6703,,,Mighty Flame,
3030,mightyflame,LA POTOSINA MERCARDO,,LITTLE ROCK,AR,,US,+1 501-565-7765,,,Mighty Flame,
65449460,moneygram,SUPERMERCADO SIN FRONTERAS,,LITTLE ROCK,AR,,US,+1 501-562-4200,,Mo-Su 08:00-20:00,MoneyGram,Q1944412
8842,murphy_usa_us,,,Little Rock,AR,,US,+1 501-613-0064,,Mo-Sa 04:30-23:30; Su 06:00-23:30,Murphy USA,Q19604459
309,ollies_bargain_outlet,Ollie's Bargain Outlet,,Little Rock,AR,,US,+1 501-246-4549,https://www.ollies.us/locations/8719-geyer-springs-rd-little-rock-ar/,Mo-Sa 09:00-21:00; Su 10:00-19:00,Ollie's Bargain Outlet,Q7088304
https://locations.oreillyauto.com/ar/littlerock/check-engine-light-testing-861.html,oreilly,Your Little Rock O'Reilly Auto Parts Store,,Little Rock,AR,,US,+1 501-568-0260,https://locations.oreillyauto.com/ar/littlerock/check-engine-light-testing-861.html,Mo-Sa 07:30-22:00; Su 08:00-21:00,O'Reilly Auto Parts,Q7071951
https://locations.oreillyauto.com/ar/littlerock/wiper-installation-861.html,oreilly,Your Little Rock O'Reilly Auto Parts Store,,Little Rock,AR,,US,+1 501-568-0260,https://locations.oreillyauto.com/ar/littlerock/wiper-installation-861.html,Mo-Sa 07:30-22:00; Su 08:00-21:00,O'Reilly Auto Parts,Q7071951
https://locations.oreillyauto.com/ar/littlerock/battery-testing-861.html,oreilly,Your Little Rock O'Reilly Auto Parts Store,,Little Rock,AR,,US,+1 501-568-0260,https://locations.oreillyauto.com/ar/littlerock/battery-testing-861.html,Mo-Sa 07:30-22:00; Su 08:00-21:00,O'Reilly Auto Parts,Q7071951
https://locations.oreillyauto.com/ar/littlerock/autopartes-861.html,oreilly,Tu tienda O'Reilly Auto Parts en Little Rock,,Little Rock,AR,,US,+1 501-568-0260,https://locations.oreillyauto.com/ar/littlerock/autopartes-861.html,Mo-Sa 07:30-22:00; Su 08:00-21:00,O'Reilly Auto Parts,Q7071951
https://www.orkin.com/locations/arkansas-ar/little-rock-pest-control/branch-732,orkin_us,Orkin,,Little Rock,AR,,US,+1 501-508-7586,https://www.orkin.com/locations/arkansas-ar/little-rock-pest-control/branch-732,,Orkin,Q7102943
//locations.oshkosh.com/ar/little-rock/oshkosh-little-rock-outlets-ar,oshkosh_us,Oshkosh B'gosh Little Rock,,Little Rock,AR,,US,+1 501-407-0755,https://locations.oshkosh.com/ar/little-rock/oshkosh-little-rock-outlets-ar,Mo-Th 11:00-20:00; Fr-Sa 10:00-21:00; Su 11:00-19:00,OshKosh B'gosh,Q1417347
783010,penske,Penske Little Rock,,LITTLE ROCK,AR,,US,+1 501-562-3747,https://www.pensketruckrental.com/locations/us/arkansas/little_rock/783010/,,Penske,Q81234570
0000915996,phillips_66_conoco_76,BASELINE CONOCO,,LITTLE ROCK,AR,,US,,,,Conoco,Q109341187
ar_little-rock_10101-mabelvale-plaza-dr,pizza_hut_us,10101 Mabelvale Plaza Dr,,Little Rock,AR,,US,+1 501-565-1672,https://locations.pizzahut.com/ar/little-rock/10101-mabelvale-plaza-dr,,Pizza Hut,Q191615
restaurant_82863,popeyes_us_fr,Popeyes,"8815 Baseline Road Little Rock, Arkansas 72209 - USA",Little Rock,AR,,US,+1 501-570-7770,https://www.popeyes.com/store-locator/store/restaurant_82863,Mo-Su 10:00-21:00,Popeyes,Q1330910
home-depot-8919-14122,ppgpaints,HOME DEPOT 8919,,"Little Rock, ",AR,,US,+1 501-565-7168,https://www.ppgpaints.com/store-locator/us/arkansas/little-rock-paint-stores/home-depot-8919-14122,,PPG Paints,Q83891559
8814,regal_nails_us,"Regal Nails, Salon &#038; Spa",8801 Baseline Road,Little Rock,AR,,US,+1 501-568-6777,,,Regal Nails,Q108918028
884,rentacenter,Rent-A-Center,,Little Rock,AR,,US,+1 501-565-4700,https://locations.rentacenter.com/arkansas/little-rock/8824-geyer-springs-rd-ste/,Mo-Sa 10:00-18:00,Rent-A-Center,Q7313497
https://restaurants.subway.com/#14902084,subway,Subway Wal-Mart #124,,Little Rock Pulaski,AR,,US,+1 501-565-2980,https://restaurants.subway.com/united-states/ar/little-rock/8801-baseline-rd,Mo-Su 08:00-21:00,Subway,Q244457
https://restaurants.subway.com/#14912879,subway,Subway,,Little Rock Pulaski,AR,,US,+1 501-562-1064,https://restaurants.subway.com/united-states/ar/little-rock/7212-geyer-springs-rd,Mo-Fr 07:00-21:00; Sa-Su 08:00-20:00,Subway,Q244457
https://locations.tacobell.com/#6142059,taco_bell,Taco Bell,,Little Rock,AR,,US,+1 501-565-8784,https://locations.tacobell.com/ar/little-rock/8108-geyer-springs-rd.html,Mo-Th 08:00-04:00; Fr-Sa 08:00-05:00; Su 08:00-04:00,Taco Bell,Q752941
742033,uhaul,U-Haul Storage At Baseline Road,8900 Geyer Springs Rd,Little Rock,AR,,US,+1 501-251-1499,,Mo-Sa 00:00-24:00,U-Haul,Q7862902
742039,uhaul,U-Haul Trk Sales Little Rock,4809 W 65th St,Little Rock,AR,,US,+1 501-580-4254,,Mo-Th 00:00-19:00; Fr 00:00-20:00; Sa 00:00-19:00; Su 00:00-17:00,U-Haul,Q7862902
263000,uhaul,Little Rock Rers,4809 W 65th St,Little Rock,AR,,US,+1 501-562-1928,,Mo-Fr 00:00-15:00,U-Haul,Q7862902
742074,uhaul,U-Haul Moving & Storage at I-30 and Chicot Rd,9302 Interstate 30,Little Rock,AR,,US,+1 501-568-3200,,Mo-Th 00:00-19:00; Fr 00:00-20:00; Sa 00:00-19:00; Su 00:00-17:00,U-Haul,Q7862902
742071,uhaul,U-Haul Moving & Storage at 65th St & Geyer Springs,6501 Geyer Springs Rd,Little Rock,AR,,US,+1 501-569-5021,,Mo-Th 00:00-19:00; Fr 00:00-20:00; Sa 00:00-19:00; Su 00:00-17:00,U-Haul,Q7862902
742050,uhaul,U-Haul Moving & Storage at 65th St,4809 W 65th St,Little Rock,AR,,US,+1 501-588-1702,,,U-Haul,Q7862902
742057,uhaul,U-Haul Moving & Storage at Baseline Rd,5518 Baseline Rd,Little Rock,AR,,US,+1 501-569-5026,,Mo-Th 00:00-19:00; Fr 00:00-20:00; Sa 00:00-19:00; Su 00:00-17:00,U-Haul,Q7862902
1367929,usps,INDUSTRIAL,,LITTLE ROCK,AR,,US,+1 501-565-1253,,Mo-Fr 08:30-17:00; Sa 09:30-12:00,United States Postal Service,Q668687
7220900029,usps_collection_boxes,USPS COLLECTION BOX - BLUE BOX,6909 BASELINE RD,LITTLE ROCK,AR,,US,,,,United States Postal Service,Q668687
7220900049,usps_collection_boxes,USPS COLLECTION BOX - BLUE BOX,13501 OTTER CREEK PKWY,LITTLE ROCK,AR,,US,,,,United States Postal Service,Q668687
7220900039,usps_collection_boxes,USPS COLLECTION BOX - PO LOBBY,6909 BASELINE RD,LITTLE ROCK,AR,,US,,,,United States Postal Service,Q668687
7220900042,usps_collection_boxes,USPS COLLECTION BOX - PO LOBBY,6909 BASELINE RD,LITTLE ROCK,AR,,US,,,,United States Postal Service,Q668687
7220900053,usps_collection_boxes,USPS COLLECTION BOX - PO LOBBY,6909 BASELINE RD,LITTLE ROCK,AR,,US,,,,United States Postal Service,Q668687
7220900005,usps_collection_boxes,USPS COLLECTION BOX - BLUE BOX,5215 W 65TH ST,LITTLE ROCK,AR,,US,,,,United States Postal Service,Q668687
7220900040,usps_collection_boxes,USPS COLLECTION BOX - BLUE BOX,3300 W 65TH ST,LITTLE ROCK,AR,,US,,,,United States Postal Service,Q668687
,visa,,,LITTLE ROCK,AR,,US,,,,,
,visa,,,LITTLE ROCK,AR,,US,,,,,
,visa,,,LITTLE ROCK,AR,,US,,,,,
,visa,,,LITTLE ROCK,AR,,US,,,,,
,visa,,,LITTLE ROCK,AR,,US,,,,,
,visa,,,LITTLE ROCK,AR,,US,,,,,
,visa,,,LITTLE ROCK,AR,,US,,,,,
,visa,,,LITTLE ROCK,AR,,US,,,,,
,visa,,,LITTLE ROCK,AR,,US,,,,,
,visa,,,LITTLE ROCK,AR,,US,,,,,
,visa,,,LITTLE RICK,AR,,US,,,,,
,visa,,,LITTLE ROCK,AR,,US,,,,,
,visa,,,LITTLE ROCK,AR,,US,,,,,
,visa,,,LITTLE ROCK,AR,,US,,,,,
,visa,,,LITTLE ROCK,AR,,US,,,,,
,visa,,,LITTLE ROCK,AR,,US,,,,,
,visa,,,LITTLE ROCK,AR,,US,,,,,
,visa,,,LITTLE ROCK,AR,,US,,,,,
,visa,,,LITTLE ROCK,AR,,US,,,,,
,visa,,,LITTLE ROCK,AR,,US,,,,,
,visa,,,LITTLE ROCK,AR,,US,,,,,
,visa,,,LITTLE ROCK,AR,,US,,,,,
,visa,,,LITTLE ROCK,AR,,US,,,,,
,visa,,,LITTLE ROCK,AR,,US,,,,,
,visa,,,LITTLE ROCK,AR,,US,,,,,
,visa,,,LITTLE ROCK,AR,,US,,,,,
,visa,,,LITTLE ROCK,AR,,US,,,,,
,visa,,,LITTLE ROCK,AR,,US,,,,,
,visa,,,LITTLE ROCK,AR,,US,,,,,
,visa,,,LITTLE ROCK,AR,,US,,,,,
,visa,,,LITTLE ROCK,AR,,US,,,,,
,visa,,,LITTLE ROCK,AR,,US,,,,,
,visa,,,LITTLE ROCK,AR,,US,,,,,
,visa,,,LITTLE ROCK,AR,,US,,,,,
,visa,,,LITTLE ROCK,AR,,US,,,,,
,visa,,,LITTLE ROCK,AR,,US,,,,,
,visa,,,LITTLE ROCK,AR,,US,,,,,
,visa,,,LITTLE ROCK,AR,,US,,,,,
,visa,,,LITTLE ROCK,AR,,US,,,,,
,visa,,,LITTLE ROCK,AR,,US,,,,,
,visa,,,LITTLE ROCK,AR,,US,,,,,
,visa,,,LITTLE ROCK,AR,,US,,,,,
,visa,,,LITTLE ROCK,AR,,US,,,,,
,visa,,,LITTLE ROCK,AR,,US,,,,,
,visa,,,LITTLE ROCK,AR,,US,,,,,
,visa,,,"LITTLE ROCK, AR",AR,,US,,,,,
,visa,,,LITTLE ROCK,AR,,US,,,,,
,visa,,,LITTLE ROCK,AR,,US,,,,,
,visa,,,LITTLE ROCK,AR,,US,,,,,
,visa,,,LITTLE ROCK,AR,,US,,,,,
,visa,,,LITTLE ROCK,AR,,US,,,,,
,visa,,,LITTLE ROCK,AR,,US,,,,,
,visa,,,LITTLE ROCK,AR,,US,,,,,
,visa,,,LITTLE ROCK,AR,,US,,,,,
1210,waffle_house_us,Waffle House #1210,,LITTLE ROCK,AR,,US,+1 501-565-0052,https://locations.wafflehouse.com/littlerock-ar-1210,24/7,Waffle House,Q1701206
https://www.walgreens.com/locator/walgreens-5917+baseline+rd-little+rock-ar-72209/id=3412,walgreens,Walgreens,,Little Rock,AR,,US,+1 501-565-7844,https://www.walgreens.com/locator/walgreens-5917+baseline+rd-little+rock-ar-72209/id=3412,Mo-Su 09:00-21:00,Walgreens,Q1591889
https://locations.wendys.com/#9253668,wendys,"Wendy's Baseline in Little Rock, AR",,Little Rock,AR,,US,+1 501-565-6545,https://locations.wendys.com/united-states/ar/little-rock/8901-baseline-road,"Mo-Su 06:30-10:30,08:00-22:00",Wendy's,Q550258
dda5369e1e53fdfaaf68ec1b0bd51d6a,western_union,ORDER EXPRESS- AR102,,Little Rock,AR,,US,+1 501-353-2631,https://location.westernunion.com/us/ar/little-rock/dda5369e1e53fdfaaf68ec1b0bd51d6a,Mo-Fr 09:00-20:00; Sa-Su 10:00-18:00,Western Union,Q861042
3090f52b245b4cb9ca53af139ae0257d,western_union,ORDER EXPRESS- AR102,,Little Rock,AR,,US,+1 501-353-2631,https://location.westernunion.com/us/ar/little-rock/3090f52b245b4cb9ca53af139ae0257d,Mo-Fr 09:00-20:00; Sa-Su 10:00-18:00,Western Union,Q861042
00d2be8eef6e4ef2c93a1ff4cae98587,western_union,WALMART #000124,,Little Rock,AR,,US,+1 501-565-0274,https://location.westernunion.com/us/ar/little-rock/00d2be8eef6e4ef2c93a1ff4cae98587,Mo-Sa 08:00-20:00; Su 10:00-18:00,Western Union,Q861042
94658950c5f14c89db4967ef202feb7d,western_union,FIRST CONVENIENCE BANK #383,,Little Rock,AR,,US,+1 800-677-9801,https://location.westernunion.com/us/ar/little-rock/94658950c5f14c89db4967ef202feb7d,Mo-We 10:00-18:00; Th 09:00-18:00; Fr-Sa 10:00-18:00; Su 12:00-16:00,Western Union,Q861042
93ea166b5870c843a0530c16e3189456,western_union,CASA DE CAMBIO,,Little Rock,AR,,US,+1 501-615-8488,https://location.westernunion.com/us/ar/little-rock/93ea166b5870c843a0530c16e3189456,Mo-Su 07:00-23:00,Western Union,Q861042
d785ac6be8944dbd1b55038992a9b5b7,western_union,CASA DE CAMBIO,,Little Rock,AR,,US,+1 501-615-8488,https://location.westernunion.com/us/ar/little-rock/d785ac6be8944dbd1b55038992a9b5b7,Mo-Su 07:00-23:00,Western Union,Q861042
aedde58a9882f258a6af102b25d32c02,western_union,KWICK PANTRY,,Little Rock,AR,,US,+1 501-565-0166,https://location.westernunion.com/us/ar/little-rock/aedde58a9882f258a6af102b25d32c02,Mo-Su 06:00-21:00,Western Union,Q861042
