Ref,Spider,Name,Address,City,State,Zipcode,Country,Phone,Website,Hours,Brand,WikiData
121734,bluerhino,Nexcom,,Lakehurst,NJ,,US,+1 732-323-7680,,,Blue Rhino,Q65681213
3393,dominos_pizza_us,Domino's Pizza,,LakeHurst,NJ,,US,+1 732-657-7500,https://pizza.dominos.com/new-jersey/lakehurst/506-route-70,Mo-Th 10:30-24:00; Fr-Sa 10:30-01:00; Su 10:30-24:00,Domino's,Q839466
353771,dunkin_us,Dunkin',,Lakehurst,NJ,,US,+1 732-849-3118,https://locations.dunkindonuts.com/en/nj/lakehurst/104-route-70/353771,Mo-Su 04:30-20:00,Dunkin',Q847743
0000880966,phillips_66_conoco_76,LAKEHURST GAS STATION,,LAKEHURST,NJ,,US,+1 848-227-3017,,,Conoco,Q109341187
8002105001,sunoco_us,Sunoco,,LAKEHURST,NJ,,US,+1 732-696-2201,,Mo-Su 06:00-00:00,Sunoco,Q1423218
1433593,usps,LAKEHURST NAEC,,JOINT BASE MDL,NJ,,US,+1 732-323-2534,,Mo-Fr 10:00-13:00,United States Postal Service,Q668687
1369667,usps,LAKEHURST,,LAKEHURST,NJ,,US,+1 732-657-8562,,Mo-Fr 08:30-16:30; Sa 08:30-12:00,United States Postal Service,Q668687
0873300001,usps_collection_boxes,USPS COLLECTION BOX - BLUE BOX,1000 BUCKINGHAM,MANCHESTER,NJ,,US,,,,United States Postal Service,Q668687
0873300009,usps_collection_boxes,USPS COLLECTION BOX - BLUE BOX,3 BUCKINGHAM DR,MANCHESTER,NJ,,US,,,,United States Postal Service,Q668687
0873300011,usps_collection_boxes,USPS COLLECTION BOX - BLUE BOX,2100 ROUTE 70,MANCHESTER,NJ,,US,,,,United States Postal Service,Q668687
0873300015,usps_collection_boxes,USPS COLLECTION BOX - BLUE BOX,1 COLONIAL DR,MANCHESTER,NJ,,US,,,,United States Postal Service,Q668687
0873300024,usps_collection_boxes,USPS COLLECTION BOX - BLUE BOX,1001 STATE ROUTE 70,MANCHESTER,NJ,,US,,,,United States Postal Service,Q668687
0873300032,usps_collection_boxes,USPS COLLECTION BOX - PO LOBBY,1 BROWN AVE,MANCHESTER,NJ,,US,,,,United States Postal Service,Q668687
0873300026,usps_collection_boxes,USPS COLLECTION BOX - PO LOBBY,1 BROWN AVE,MANCHESTER,NJ,,US,,,,United States Postal Service,Q668687
0873300021,usps_collection_boxes,USPS COLLECTION BOX - BLUE BOX,1 BROWN AVE,MANCHESTER,NJ,,US,,,,United States Postal Service,Q668687
0873300025,usps_collection_boxes,USPS COLLECTION BOX - APC,1 BROWN AVE,MANCHESTER,NJ,,US,,,,United States Postal Service,Q668687
0873300017,usps_collection_boxes,USPS COLLECTION BOX - BLUE BOX,6 CONGASIA ROAD RD,MANCHESTER,NJ,,US,,,,United States Postal Service,Q668687
0873300033,usps_collection_boxes,USPS COLLECTION BOX - PO LOBBY,38 LANSDOWNE RD STE 1,MANCHESTER,NJ,,US,,,,United States Postal Service,Q668687
0873300006,usps_collection_boxes,USPS COLLECTION BOX - BLUE BOX,38 LANSDOWNE RD,MANCHESTER,NJ,,US,,,,United States Postal Service,Q668687
0873300002,usps_collection_boxes,USPS COLLECTION BOX - BLUE BOX,550 STATE RT 530,MANCHESTER,NJ,,US,,,,United States Postal Service,Q668687
0873300016,usps_collection_boxes,USPS COLLECTION BOX - BLUE BOX,250 SCHOOLHOUSE RD,MANCHESTER,NJ,,US,,,,United States Postal Service,Q668687
0873300023,usps_collection_boxes,USPS COLLECTION BOX - BLUE BOX,108 LACEY RD,MANCHESTER,NJ,,US,,,,United States Postal Service,Q668687
0873300019,usps_collection_boxes,USPS COLLECTION BOX - BLUE BOX,108 LACEY RD,MANCHESTER,NJ,,US,,,,United States Postal Service,Q668687
0873300027,usps_collection_boxes,USPS COLLECTION BOX - PO LOBBY,38 LANSDOWNE RD STE 1,MANCHESTER,NJ,,US,,,,United States Postal Service,Q668687
