Ref,Spider,Name,Address,City,State,Zipcode,Country,Phone,Website,Hours,Brand,WikiData
https://stores.advanceautoparts.com/ky/salyersville/400-e-mountain-pkwy,advance_auto_parts_us,Advance Auto Parts,,Salyersville,KY,,US,+1 606-349-6603,https://stores.advanceautoparts.com/ky/salyersville/400-e-mountain-pkwy,Mo-Sa 07:30-21:00; Su 09:00-20:00,Advance Auto Parts,Q4686051
148158,bluerhino,North Magoffin BP,,Salyersville,KY,,US,+1 606-349-1805,,,Blue Rhino,Q65681213
2140,bluerhino,Speedway #9586,,Salyersville,KY,,US,+1 606-349-1221,,,Blue Rhino,Q65681213
197002,bluerhino,Family Dollar #4713,,Salyersville,KY,,US,+1 606-263-2606,,,Blue Rhino,Q65681213
193642,bluerhino,Walgreens #19545,,Salyersville,KY,,US,+1 606-349-1044,,,Blue Rhino,Q65681213
139911,bluerhino,Salyersville Save-A-Lot #23,,Salyersville,KY,,US,+1 606-349-8616,,,Blue Rhino,Q65681213
10498322480404146500100000000000,bp,BP,,Salyersville,KY,,US,+1 606-349-1805,,Mo-Th 04:00-20:00; Fr 04:00-21:00; Sa 06:00-21:00; Su 07:00-20:00,BP,Q152057
86758346851144146500100000000000,bp,BP,,Salyersville,KY,,US,+1 606-349-7994,,24/7,BP,Q152057
67548,citi,ATM PEOPLES BANK,,Salyersville,KY,,US,,,,Citibank,Q857063
90009,citi,ATM Walgreens,,Salyersville,KY,,US,,,,Citibank,Q857063
79857,citi,ATM SPEEDWAY#9586,,Salyersville,KY,,US,,,,Citibank,Q857063
78423,citi,ATM Speedway,,Salyersville,KY,,US,,,,Citibank,Q857063
20142,dollar_general,Dollar General,,Salyersville,KY,,US,+1 502-208-3713,https://www.dollargeneral.com/store-directory/ky/salyersville/20142,Mo-Su 08:00-22:00,Dollar General,Q145168
17903,dollar_general,Dollar General,,Salyersville,KY,,US,+1 859-350-1609,https://www.dollargeneral.com/store-directory/ky/salyersville/17903,Mo-Su 08:00-23:00,Dollar General,Q145168
17780,h_r_block,H&R Block,,Salyersville,KY,,US,+1 606-349-5624,https://www.hrblock.com/local-tax-offices/kentucky/salyersville/108-e-maple-st/17780/,,H&R Block,Q5627799
Salyersville IGA,iga,Salyersville IGA,"433 Parkway Drive, Salyersville, KY, 41465",Salyersville,KY,,US,+1 603-237-4370,http://www.salyersvilleiga.com,,IGA,Q3146662
157449,marathon_petroleum_us,VIP 7,,SALYERSVILLE,KY,,US,+1 606-349-3133,,,Marathon,Q458363
https://locations.oreillyauto.com/ky/salyersville/check-engine-light-testing-6494.html,oreilly,Your Salyersville O'Reilly Auto Parts Store,,Salyersville,KY,,US,+1 606-349-6494,https://locations.oreillyauto.com/ky/salyersville/check-engine-light-testing-6494.html,Mo-Sa 07:30-21:00; Su 09:00-20:00,O'Reilly Auto Parts,Q7071951
https://locations.oreillyauto.com/ky/salyersville/wiper-installation-6494.html,oreilly,Your Salyersville O'Reilly Auto Parts Store,,Salyersville,KY,,US,+1 606-349-6494,https://locations.oreillyauto.com/ky/salyersville/wiper-installation-6494.html,Mo-Sa 07:30-21:00; Su 09:00-20:00,O'Reilly Auto Parts,Q7071951
https://locations.oreillyauto.com/ky/salyersville/battery-testing-6494.html,oreilly,Your Salyersville O'Reilly Auto Parts Store,,Salyersville,KY,,US,+1 606-349-6494,https://locations.oreillyauto.com/ky/salyersville/battery-testing-6494.html,Mo-Sa 07:30-21:00; Su 09:00-20:00,O'Reilly Auto Parts,Q7071951
https://locations.oreillyauto.com/ky/salyersville/autopartes-6494.html,oreilly,O'Reilly Auto Parts,,Salyersville,KY,,US,+1 606-349-6494,https://locations.oreillyauto.com/ky/salyersville/autopartes-6494.html,Mo-Sa 07:30-21:00; Su 09:00-20:00,O'Reilly Auto Parts,Q7071951
https://restaurants.subway.com/#14896814,subway,Subway,,Salyersville Magoffin,KY,,US,+1 606-349-8899,https://restaurants.subway.com/united-states/ky/salyersville/342-e-mountain-pkwy,Mo-Th 08:00-22:00; Fr 08:00-23:00; Sa 09:00-23:00; Su 09:00-22:00,Subway,Q244457
https://locations.tacobell.com/#13422374,taco_bell,Taco Bell,,Salyersville,KY,,US,+1 606-767-5347,https://locations.tacobell.com/ky/salyersville/357-mountain-parkway.html,Mo-Su 10:00-02:00,Taco Bell,Q752941
1380561,usps,SALYERSVILLE,,SALYERSVILLE,KY,,US,+1 606-349-3400,,Mo-Fr 08:00-16:00; Sa 09:00-12:00,United States Postal Service,Q668687
4146500009,usps_collection_boxes,USPS COLLECTION BOX - BLUE BOX,6920 SE LICKING RIVER RD,SALYERSVILLE,KY,,US,,,,United States Postal Service,Q668687
4146500002,usps_collection_boxes,USPS COLLECTION BOX - PO LOBBY,330 E MAPLE ST,SALYERSVILLE,KY,,US,,,,United States Postal Service,Q668687
4146500003,usps_collection_boxes,USPS COLLECTION BOX - BLUE BOX,330 E MAPLE ST,SALYERSVILLE,KY,,US,,,,United States Postal Service,Q668687
4146500007,usps_collection_boxes,USPS COLLECTION BOX - PO LOBBY,330 E MAPLE ST,SALYERSVILLE,KY,,US,,,,United States Postal Service,Q668687
,visa,,,SALYERSVILLE,KY,,US,,,,,
,visa,,,SLAYERSVILLE,KY,,US,,,,,
,visa,,,SALYERSVILLE,KY,,US,,,,,
,visa,,,SALYERSVILLE,KY,,US,,,,,
,visa,,,SALYERSVILLE,KY,,US,,,,,
,visa,,,SAYLERSVILLE,KY,,US,,,,,
,visa,,,SALYERSVILLE,KY,,US,,,,,
,visa,,,SALYERSVILLE,KY,,US,,,,,
,visa,,,SALYERSVILLE,KY,,US,,,,,
,visa,,,SALYERSVILLE,KY,,US,,,,,
,visa,,,SALYERSVILLE,KY,,US,,,,,
https://www.walgreens.com/locator/walgreens-308+parkway+dr-salyersville-ky-41465/id=19545,walgreens,Walgreens,,Salyersville,KY,,US,+1 606-349-1044,https://www.walgreens.com/locator/walgreens-308+parkway+dr-salyersville-ky-41465/id=19545,Mo-Su 08:00-20:00,Walgreens,Q1591889
https://locations.wendys.com/#9255446,wendys,"Wendy's #810 Salyersville in Salyersville, KY",,Salyersville,KY,,US,+1 606-349-3900,https://locations.wendys.com/united-states/ky/salyersville/303-e-mountain-parkway,"Mo-Su 06:30-10:30,07:00-22:00",Wendy's,Q550258
1483,world_finance_us,,"120 Amanda Ave Ste 400, Salyersville, KY, 41465",Salyersville,KY,,US,+1 606-259-4108,https://www.loansbyworld.com/branches/branch-1483,Mo-Fr 08:30-17:00; Sa 09:00-12:00,World Finance,Q3569971
