Ref,Spider,Name,Address,City,State,Zipcode,Country,Phone,Website,Hours,Brand,WikiData
DOR-22,aldi_sud_de,,"Sülzburgstraße 44-46, 50937, Köln, Deutschland",Köln,,,DE,,,Mo-Sa 08:00-21:00,ALDI Süd,Q41171672
https://vertretung.allianz.de/bouzian.faouzi/,allianz_de,Allianz Versicherung Peter Lukesch e.K. Inh. Bouzian Faouzi GENERALVERTRETUNG,,Köln,,,DE,+49 221 4000951,https://vertretung.allianz.de/bouzian.faouzi/,Mo-Th 08:00-17:00; Fr 08:00-16:00,Allianz SE,Q487292
de:30,dm,dm-drogerie markt,,Köln,,,DE,+49 221 9415077,https://www.dm.de/store/d016/koeln/suelzburgstrasse-9,Mo-Sa 08:00-20:00,dm,Q266572
2760907381,gls_de,Früchtekorb IZCI,,Köln,,,DE,+49 221 16903994,,Mo-Sa 08:00-20:00,General Logistics Systems,Q46495823
https://kamps.de/standort/kamps-baeckerei-koeln-zuelpicher-strasse-288,kamps_de,Kamps,,Köln,,,DE,+49 221 4201209,https://kamps.de/standort/kamps-baeckerei-koeln-zuelpicher-strasse-288,Mo-Fr 06:00-18:00; Sa-Su 06:00-14:00,Kamps,Q1723381
9084,lidl_de,Sülz,,Köln,,,DE,,,Mo-Sa 07:00-21:00,Lidl,Q151954
74968411,moneygram,KIOSK NAFTOON - KOELN,,KOELN,,,DE,+49 176 70529598,,Mo-Su 08:00-23:00,MoneyGram,Q1944412
70974111,moneygram,ATELIER SAM - KOELN,,KOELN,,,DE,+49 221 56936511,,Mo-Fr 09:00-18:00; Sa 09:00-15:00; Su 00:00-24:00,MoneyGram,Q1944412
https://www.rossmann.de/de/filialen/nordrhein-westfalen/koeln/suelzburgstr--80-82.html,rossmann_de,Rossmann Drogerie-Markt Sülzburgstr. 80-82,,Köln,,,DE,+49 221 4064536,https://www.rossmann.de/de/filialen/nordrhein-westfalen/koeln/suelzburgstr--80-82.html,Mo-Sa 08:00-20:00,Rossmann,Q316004
50010,sparkasse_de,Sparkasse KölnBonn Geldautomat Klettenberg,,Köln,,,DE,+49 221 2260,https://www.sparkasse.de/standorte/geldautomaten/sparkasse-koeln-bonn-geldautomat-klettenberg-50010,24/7,Sparkasse,Q13601825
50009,sparkasse_de,Sparkasse KölnBonn Filiale Klettenberg,,Köln,,,DE,+49 221 22620600,https://www.sparkasse.de/standorte/filialen/sparkasse-koeln-bonn-filiale-klettenberg-50009,"Mo-Tu 09:30-12:30,14:00-16:00; We 09:30-12:30; Th 09:00-14:00; Fr 09:30-12:30,14:00-18:00",Sparkasse,Q13601825
50032,sparkasse_de,Sparkasse KölnBonn Geldautomat Sülz,,Köln,,,DE,+49 221 2260,https://www.sparkasse.de/standorte/geldautomaten/sparkasse-koeln-bonn-geldautomat-suelz-50032,24/7,Sparkasse,Q13601825
50031,sparkasse_de,Sparkasse KölnBonn Filiale Sülz,,Köln,,,DE,+49 221 22621700,https://www.sparkasse.de/standorte/filialen/sparkasse-koeln-bonn-filiale-suelz-50031,Mo-We 09:30-12:30; Th 14:00-18:00; Fr 09:30-12:30,Sparkasse,Q13601825
61022,sparkasse_de,Sparkasse KölnBonn Geldautomat Uniwiese,,Köln,,,DE,+49 221 2260,https://www.sparkasse.de/standorte/geldautomaten/sparkasse-koeln-bonn-geldautomat-uniwiese-61022,Mo-Fr 08:00-22:00,Sparkasse,Q13601825
50237,sparkasse_de,Sparkasse KölnBonn SB-Standort Uniwiese,,Köln,,,DE,+49 221 2260,https://www.sparkasse.de/standorte/filialen/sparkasse-koeln-bonn-sb-standort-uniwiese-50237,24/7,Sparkasse,Q13601825
123491,sparkasse_de,Sparkasse KölnBonn Geldautomat Uni-Klinik,,Köln,,,DE,+49 221 2260,https://www.sparkasse.de/standorte/geldautomaten/sparkasse-koeln-bonn-geldautomat-uni-klinik-123491,Mo-Su 06:00-23:00,Sparkasse,Q13601825
50254,sparkasse_de,Sparkasse KölnBonn SB-Standort Uni-Klinik,,Köln,,,DE,+49 221 2260,https://www.sparkasse.de/standorte/filialen/sparkasse-koeln-bonn-sb-standort-uni-klinik-50254,24/7,Sparkasse,Q13601825
https://www.vlh.de/bst/5077/Oeffnungszeiten.html,vhl_de,VLH-Beraterin Adela Robu-Cruduleci in Köln,,Köln,,,DE,+49 221 4924776,https://www.vlh.de/bst/5077/,,Vereinigte Lohnsteuerhilfe e.V.,Q15852617
,visa,,,KOELN,,,DE,,,,,
,visa,,,KOELN,,,DE,,,,,
,visa,,,KOELN,,,DE,,,,,
,visa,,,KOELN,,,DE,,,,,
,visa,,,KÖLN,,,DE,,,,,
https://www.vr.de/standorte/K/volksbank-koeln-bonn-eg-filiale-suelz-11813.html,vr_bank,Volksbank Köln Bonn eG - Filiale Sülz,,Köln,,,DE,+49 221 20030,https://www.volksbank-koeln-bonn.de,"Mo 09:30-13:00,14:00-16:00; Tu 09:30-13:00,14:00-18:00; We 09:30-13:00; Th 09:30-13:00,14:00-18:00; Fr 09:30-13:00",,
