Ref,Spider,Name,Address,City,State,Zipcode,Country,Phone,Website,Hours,Brand,WikiData
B8N6,accor,Mercure Tirana (Opening March 2024),"29 NENTORI STREET, 1000 TIRANA",,,,AL,,https://all.accor.com/hotel/B8N6/index.en.shtml,,Mercure,Q1709809
B8W7,accor,Mövenpick Hotel Lalez Durres,"Kompleksi Lura 2,Gjiri I Lalezit, 2000 DURRES",,,,AL,,https://all.accor.com/hotel/B8W7/index.en.shtml,,Mövenpick,Q691162
47,banka_kombetare_tregtare_al,BKT ATM QENDRA RIVIERA,"Bulevardi Ismail Qemali, Qendra Tregtare Riviera, Skelë, Vlorë, Shqipëri",VLORE,,,AL,,,,Banka Kombëtare Tregtare,Q806702
48,banka_kombetare_tregtare_al,BKT ATM PAP METAL,"Pap Metal, Xhafzotaj Km 3, Durrës, Shqipëri",DURRES,,,AL,,,,Banka Kombëtare Tregtare,Q806702
49,banka_kombetare_tregtare_al,BKT ATM BULEVARDI ZHAN D ARK,"Bulevardi ZHAN D ARK (ish Drejtoria e Përgjithshme BKT),Tiranë, Shqipëri",TIRANË,,,AL,,,,Banka Kombëtare Tregtare,Q806702
50,banka_kombetare_tregtare_al,BKT ATM QTU,"Autostrada Tiranë - Durrës, Km 6, Qendra Tregtare Univers, Tiranë, Shqipëri",TIRANE ,,,AL,,,,Banka Kombëtare Tregtare,Q806702
51,banka_kombetare_tregtare_al,BKT ATM RRUGA KAVAJES,"Rr. Kavajës pranë Dhomës së Tregtisë, Tiranë, Shqipëri",TIRANE ,,,AL,,,,Banka Kombëtare Tregtare,Q806702
52,banka_kombetare_tregtare_al,BKT ATM RRUGA E DIBRES,"Rr. Dibrës, Vila 153, (PC Store Shop), Tiranë, Shqipëri",TIRANE ,,,AL,,,,Banka Kombëtare Tregtare,Q806702
53,banka_kombetare_tregtare_al,BKT ATM BRRYLI,"Rr. Arkitekt Kasemi, pranë Brrylit, Tiranë, Shqipëri",TIRANE ,,,AL,,,,Banka Kombëtare Tregtare,Q806702
54,banka_kombetare_tregtare_al,BKT ATM RING,"Rr. Muhamet Gjollesha, Qendra Tregtare Ring, Tiranë, Shqipëri",TIRANE ,,,AL,,,,Banka Kombëtare Tregtare,Q806702
55,banka_kombetare_tregtare_al,BKT ATM BLUE STAR,"Qendra Tregtare Blue Star, Rruga Egnantia, L.4, Durrës, Shqipëri",DURRES ,,,AL,,,,Banka Kombëtare Tregtare,Q806702
56,banka_kombetare_tregtare_al,BKT ATM SPITALI ELBASAN ,"Qendra Spitalore Xhafer Kongoli, L. Haxhijas, Elbasan, Shqipëri",ELBASAN,,,AL,,,,Banka Kombëtare Tregtare,Q806702
57,banka_kombetare_tregtare_al,BKT ATM DEGA ELBASAN (2) ,"Rr. 11 Nëntori, L. 29 Nëntori, Elbasan, Shqipëri ",ELBASAN,,,AL,,,,Banka Kombëtare Tregtare,Q806702
58,banka_kombetare_tregtare_al,BKT ATM SARANDE PORTI,"Rr. Mitat Hoxha, Sarandë, Shqipëri",SARANDE ,,,AL,,,,Banka Kombëtare Tregtare,Q806702
59,banka_kombetare_tregtare_al,BKT ATM SHIJAK,"Rr. Y. Delialliasi, Shijak, Shqipëri",DURRES ,,,AL,,,,Banka Kombëtare Tregtare,Q806702
60,banka_kombetare_tregtare_al,BKT ATM PATOS,"Sheshi Mustafa Matohiti, Shëtitorja  Republika, N. 1, Patos, Fier, Shqipëri  ",FIER,,,AL,,,,Banka Kombëtare Tregtare,Q806702
61,banka_kombetare_tregtare_al,BKT ATM CASA ITALIA,"Qendra Tregtare Casa Italia, Mbikalimi i Kamzës, Tiranë, Shqipëri",TIRANE ,,,AL,,,,Banka Kombëtare Tregtare,Q806702
62,banka_kombetare_tregtare_al,BKT ATM L. MUZAKAJ ,"Rr. Antipatrea, L. Muzakaj, Berat, Shqipëri",BERAT,,,AL,,,,Banka Kombëtare Tregtare,Q806702
63,banka_kombetare_tregtare_al,BKT ATM AEROPORT ARRIVAL,"Aeroporti Ndërkombëtar i Tiranës Nënë Tereza, Rinas, Tiranë, Shqipëri",TIRANE ,,,AL,,,,Banka Kombëtare Tregtare,Q806702
64,banka_kombetare_tregtare_al,BKT ATM UNAZA E RE ,"Rr. Teodor Keko, Unaza e Re, Tiranë, Shqipëri ",TIRANË     ,,,AL,,,,Banka Kombëtare Tregtare,Q806702
65,banka_kombetare_tregtare_al,BKT ATM TOPTANI SHOPPING CENTER,"Rr. “Abdi Toptani, Qendra “Toptani Shopping Center, kati (-1), Tiranë, Shqipëri",TIRANE ,,,AL,,,,Banka Kombëtare Tregtare,Q806702
66,banka_kombetare_tregtare_al,BKT ATM ISH-PRAKTIKER,"Rr. Bregu i Lumit nr. 6 (pranë ish- Praktiker), Tiranë, Shqipëri",TIRANE ,,,AL,,,,Banka Kombëtare Tregtare,Q806702
68,banka_kombetare_tregtare_al,BKT ATM AEROPORT CHECK-IN,"Aeroporti Ndërkombëtar i Tiranës Nënë Tereza, Rinas, Tiranë, Shqipëri",TIRANE,,,AL,,,,Banka Kombëtare Tregtare,Q806702
69,banka_kombetare_tregtare_al,BKT ATM FRESKU ,"Rr. Sotir Caci, (Zona e Freskut), Linzë, Tiranë, Shqipëri ",TIRANE ,,,AL,,,,Banka Kombëtare Tregtare,Q806702
177,banka_kombetare_tregtare_al,BKT ATM UJI I FTOHTE ,"Rr. ""Aleksandër Moisiu"", Vlore, Shqipëri ",VLORE,,,AL,,,,Banka Kombëtare Tregtare,Q806702
178,banka_kombetare_tregtare_al,BKT ATM FIORI DI BOSCO,"Rr. ""Ibrahim Pashë Bushatlliu"",Tiranë,Shqipëri",TIRANE ,,,AL,,,,Banka Kombëtare Tregtare,Q806702
179,banka_kombetare_tregtare_al,BKT ATM NBT OIL,"Rr. e Kombit Reps, Mirdite, Shqipëri",MIRDITE  ,,,AL,,,,Banka Kombëtare Tregtare,Q806702
72,banka_kombetare_tregtare_al,BKT ATM KOMPLEKSI BELBA,"Rr. Demokracia, Kompleksi Belba, Kamëz, Shqipëri",TIRANE,,,AL,,,,Banka Kombëtare Tregtare,Q806702
73,banka_kombetare_tregtare_al,BKT ATM FOTO DURRËSI,"Rr. Aleksandër Goga, Durrës, Shqipëri",DURRES,,,AL,,,,Banka Kombëtare Tregtare,Q806702
74,banka_kombetare_tregtare_al,BKT ATM KSAMIL,"Rr. Apollonia, Ksamil, Sarandë, Shqipëri",SARANDE,,,AL,,,,Banka Kombëtare Tregtare,Q806702
75,banka_kombetare_tregtare_al,BKT ATM ARENA KOMBËTARE (AIR ALBANIA STADIUM),"Arena Center, Stadiumi Air Albania, Tiranë, Shqipëri",TIRANE,,,AL,,,,Banka Kombëtare Tregtare,Q806702
76,banka_kombetare_tregtare_al,"BKT ATM TREGU I RI, FIER","Rr. Unaza Nuredin Aliu, Tregu i ri, Fier, Shqipëri",FIER,,,AL,,,,Banka Kombëtare Tregtare,Q806702
77,banka_kombetare_tregtare_al,BKT ATM ETC FIER,"Qendra tregtare Elkos (ETC), Fier, Shqipëri",FIER,,,AL,,,,Banka Kombëtare Tregtare,Q806702
78,banka_kombetare_tregtare_al,BKT ATM YZBERISHT,"Yzberisht, (Eco Market), Tiranë, Shqipëri",TIRANE,,,AL,,,,Banka Kombëtare Tregtare,Q806702
79,banka_kombetare_tregtare_al,BKT ATM MEDRESEJA,"Rr. Dibrës, 402, (Paradise Travel Shop), Tiranë, Shqipëri",TIRANE,,,AL,,,,Banka Kombëtare Tregtare,Q806702
80,banka_kombetare_tregtare_al,BKT ATM Shengjin,Bulevardi Nënë Tereza,Lezhë,,,AL,,,,Banka Kombëtare Tregtare,Q806702
82,banka_kombetare_tregtare_al,BKT ATM DEGA QENDRORE,"Rr. Vilave, Lundër 1, 1045, Tiranë, Shqipëri",TIRANE,,,AL,,,,Banka Kombëtare Tregtare,Q806702
83,banka_kombetare_tregtare_al,BKT ATM DEGA ELBASAN,"Rr 11 Nëntori, L. 29 Nëntori, Elbasan, Shqipëri",ELBASAN,,,AL,,,,Banka Kombëtare Tregtare,Q806702
84,banka_kombetare_tregtare_al,BKT ATM DEGA LUSHNJE,"Rr. Uan Kondakçiu, L. Skënder Libohova, Lushnje, Shqipëri",LUSHNJE,,,AL,,,,Banka Kombëtare Tregtare,Q806702
85,banka_kombetare_tregtare_al,BKT ATM DEGA GJIROKASTËR,"Bulevardi 18 Shtatori, L.  18 Shtatori, Gjirokastër, Shqipëri",GJIROKASTER,,,AL,,,,Banka Kombëtare Tregtare,Q806702
86,banka_kombetare_tregtare_al,BKT ATM DEGA FIER,"Rr. Kastriot Muço, L. 29 Nëntori, Fier, Shqipëri",FIER,,,AL,,,,Banka Kombëtare Tregtare,Q806702
87,banka_kombetare_tregtare_al,BKT ATM DEGA BERAT,"Bulevardi Republika. Sheshi Teodor Muzaka Nr. 1, Berat, Shqipëri",BERAT,,,AL,,,,Banka Kombëtare Tregtare,Q806702
88,banka_kombetare_tregtare_al,BKT ATM DEGA SARANDË,"Rr. Mithat Hoxha, Lagjia nr. 4, Sarandë, Shqipëri",SARANDE,,,AL,,,,Banka Kombëtare Tregtare,Q806702
89,banka_kombetare_tregtare_al,BKT ATM DEGA MEDRESE,"Rr. Dibrës,  P.282, Nr.8, (prane Shkolles se Bashkuar), Tiranë, Shiqpëri",TIRANE,,,AL,,,,Banka Kombëtare Tregtare,Q806702
90,banka_kombetare_tregtare_al,BKT ATM DEGA KUKËS,"Rr. Dituria, Kukës Shqipëri",KUKES,,,AL,,,,Banka Kombëtare Tregtare,Q806702
91,banka_kombetare_tregtare_al,BKT ATM DEGA MUSTAFA QEMAL ATATURK,"Rr. Muhamet Gjollesha, Ndërtesa nr. 82, Tiranë, Shqipëri",TIRANË,,,AL,,,,Banka Kombëtare Tregtare,Q806702
92,banka_kombetare_tregtare_al,BKT ATM DEGA FUSHË-KRUJË,"Lagjja Kastrioti, Fushë-Krujë, Shqipëri",KRUJE,,,AL,,,,Banka Kombëtare Tregtare,Q806702
180,banka_kombetare_tregtare_al,BKT ATM PRESTIGE HOME,"Autostrada Tiranë-Durrës Vora 1032 AL, Km. 12, Vorë",TIRANE,,,AL,,,,Banka Kombëtare Tregtare,Q806702
93,banka_kombetare_tregtare_al,BKT ATM DEGA DAJTI,"Rr. Aleksandër Moisiu, Nr. 51, Kistudio, Tiranë, Shqipëri",TIRANE,,,AL,,,,Banka Kombëtare Tregtare,Q806702
94,banka_kombetare_tregtare_al,BKT ATM DEGA KASHAR,"Rr. Bylis, Kashar, Tiranë, Shqipëri",TIRANE,,,AL,,,,Banka Kombëtare Tregtare,Q806702
95,banka_kombetare_tregtare_al,BKT ATM DEGA QYTETI I NXËNËSVE,"Rr. Kavajës, Pallati 2R, Tiranë, Shqipëri",TIRANE,,,AL,,,,Banka Kombëtare Tregtare,Q806702
96,banka_kombetare_tregtare_al,BKT ATM DEGA PIAZZA,"Rr. Ded Gjo Luli, P. Nr.1, Tiranë, Shqipëri",TIRANE,,,AL,,,,Banka Kombëtare Tregtare,Q806702
97,banka_kombetare_tregtare_al,BKT ATM DEGA MYSLYM SHYRI,"Rr. Myslym Shyri, Tiranë, Shqipëri",TIRANE,,,AL,,,,Banka Kombëtare Tregtare,Q806702
98,banka_kombetare_tregtare_al,BKT ATM DEGA KAMËZ,"Bulevardi Blu, Kamëz, Tiranë, Shqipëri",TIRANE,,,AL,,,,Banka Kombëtare Tregtare,Q806702
99,banka_kombetare_tregtare_al,BKT ATM DEGA KOMUNA E PARISIT,"Rr. Medar Shtylla, Nr. 2, L. Komuna e Parisit, Tiranë, Shqipëri",TIRANE,,,AL,,,,Banka Kombëtare Tregtare,Q806702
100,banka_kombetare_tregtare_al,BKT ATM RRUGA E DURRËSIT,"Rr. Durrësit, Ndërtesa nr. 53, Tiranë, Shqipëri",TIRANE,,,AL,,,,Banka Kombëtare Tregtare,Q806702
101,banka_kombetare_tregtare_al,BKT ATM DEGA VORË,"Rr. Rinia, Seshi Vorë, Tiranë, Shqipëri",TIRANE,,,AL,,,,Banka Kombëtare Tregtare,Q806702
102,banka_kombetare_tregtare_al,BKT ATM DEGA RRËSHEN,"Rr. Motrat Vinçenciane, Rrëshen, Shqipëri",MIRDITE,,,AL,,,,Banka Kombëtare Tregtare,Q806702
103,banka_kombetare_tregtare_al,BKT ATM DEGA BUSHAT,"Qendër Bushat, Vau Dejës, Shqipëri",SHKODER,,,AL,,,,Banka Kombëtare Tregtare,Q806702
104,banka_kombetare_tregtare_al,BKT ATM DEGA SHKOLLA E BALETIT,"Rr. Mihal Grameno, (prane Shkolles se Baletit), Tiranë, Shqipëri",TIRANE,,,AL,,,,Banka Kombëtare Tregtare,Q806702
105,banka_kombetare_tregtare_al,BKT ATM DEGA KOPLIK,"Rr. Dedaj, Qender Koplik, Malësi e Madhe, Shqipëri",MALESIA_MADHE,,,AL,,,,Banka Kombëtare Tregtare,Q806702
106,banka_kombetare_tregtare_al,BKT ATM DEGA PEQIN,"Bulevardi Mustafa Gjinishi, Lagja Xhami, Peqin, Shqipëri",PEQIN,,,AL,,,,Banka Kombëtare Tregtare,Q806702
107,banka_kombetare_tregtare_al,BKT ATM DEGA DON BOSKO,"Rr. Durrësit, Sheshi Karl Topia, Godina 127/3, Tiranë, Shqipëri",TIRANE,,,AL,,,,Banka Kombëtare Tregtare,Q806702
108,banka_kombetare_tregtare_al,BKT ATM DEGA ORIKUM,"Bulevardi Princesha Rugjine, Lagjia 1 Maji, Orikum ,Vlorë, Shqipëri",ORIKUM,,,AL,,,,Banka Kombëtare Tregtare,Q806702
109,banka_kombetare_tregtare_al,BKT ATM DEGA RINIA,"Rr. Rinia, Lagja Aqif Pasha, Elbasan, Shqipëri",ELBASAN,,,AL,,,,Banka Kombëtare Tregtare,Q806702
110,banka_kombetare_tregtare_al,BKT ATM DEGA PAVARËSIA,"Rr. Hasan Kushta, Lagjia Pavarësia, Vlorë, Shqipëri",VLORE,,,AL,,,,Banka Kombëtare Tregtare,Q806702
111,banka_kombetare_tregtare_al,BKT ATM DEGA RRUGA ELBASANIT,"Rr. “Themistokli Gërmenji, përballë Ambasadës Amerikane, Tiranë, Shqipëri",TIRANË,,,AL,,,,Banka Kombëtare Tregtare,Q806702
112,banka_kombetare_tregtare_al,BKT ATM DEGA DURRËS,"Rr. “Egnatia”, Durrës, Albania",DURRES,,,AL,,,,Banka Kombëtare Tregtare,Q806702
114,banka_kombetare_tregtare_al,BKT ATM DEGA REPUBLIKA,"Bulevardi Republika, Korçë, Shqipëri",KORCE,,,AL,,,,Banka Kombëtare Tregtare,Q806702
115,banka_kombetare_tregtare_al,BKT DEGA QENDRORE,"Rr. Vilave, Lundër 1, 1045, Tiranë, Shqipëri",TIRANE,,,AL,,,,Banka Kombëtare Tregtare,Q806702
116,banka_kombetare_tregtare_al,BKT DEGA ISMAIL QEMALI,"Rr. Ismail Qemali, Nr. 30, Tiranë, Shqipëri",TIRANE,,,AL,,,,Banka Kombëtare Tregtare,Q806702
117,banka_kombetare_tregtare_al,BKT DEGA ELBASAN,"Rr 11 Nëntori, L. 29 Nëntori, Elbasan, Shqipëri",ELBASAN,,,AL,,,,Banka Kombëtare Tregtare,Q806702
118,banka_kombetare_tregtare_al,BKT DEGA KORÇË,"Rr. Midhi Kostani, Lagjia Nr. 9, Korcë, Shqipëri",KORCE,,,AL,,,,Banka Kombëtare Tregtare,Q806702
119,banka_kombetare_tregtare_al,BKT DEGA LUSHNJE,"Rr. Uan Kondakçiu, L. Skënder Libohova, Lushnje, Shqipëri",LUSHNJE,,,AL,,,,Banka Kombëtare Tregtare,Q806702
120,banka_kombetare_tregtare_al,BKT DEGA VLORË,"Sheshi Flamurit, L. Hajro Çakërri, Vlorë, Shqipëri",VLORE,,,AL,,,,Banka Kombëtare Tregtare,Q806702
121,banka_kombetare_tregtare_al,BKT DEGA GJIROKASTËR,"Bulevardi 18 Shtatori, L.  18 Shtatori, Gjirokastër, Shqipëri",GJIROKASTER,,,AL,,,,Banka Kombëtare Tregtare,Q806702
122,banka_kombetare_tregtare_al,BKT DEGA SHKODËR,"Rr. Studenti, Sheshi 2 Prilli, Shkodër, Shqipëri",SHKODER,,,AL,,,,Banka Kombëtare Tregtare,Q806702
123,banka_kombetare_tregtare_al,BKT DEGA LAPRAKË,"Rr. Dritan Hoxha, Pall. Gintash , nr 8, Tiranë, Shqipëri   ",TIRANE,,,AL,,,,Banka Kombëtare Tregtare,Q806702
124,banka_kombetare_tregtare_al,BKT DEGA FIER,"Rr. Kastriot Muço, L. 29 Nëntori, Fier, Shqipëri",FIER,,,AL,,,,Banka Kombëtare Tregtare,Q806702
125,banka_kombetare_tregtare_al,BKT DEGA BERAT,"Bulevardi Republika. Sheshi Teodor Muzaka Nr. 1, Berat, Shqipëri",BERAT,,,AL,,,,Banka Kombëtare Tregtare,Q806702
126,banka_kombetare_tregtare_al,BKT DEGA POGRADEC,"Rr. Rinia, Lagjia nr. 2, Pogradec, Shqipëri",POGRADEC,,,AL,,,,Banka Kombëtare Tregtare,Q806702
127,banka_kombetare_tregtare_al,BKT DEGA SARANDË,"Rr. Mithat Hoxha, Lagjia nr. 4, Sarandë, Shqipëri",SARANDE,,,AL,,,,Banka Kombëtare Tregtare,Q806702
128,banka_kombetare_tregtare_al,BKT DEGA KOMBINAT,"Rr. H.Cenoimeri, P. 50, Kombinat, Tiranë, Shqipëri",TIRANE,,,AL,,,,Banka Kombëtare Tregtare,Q806702
129,banka_kombetare_tregtare_al,BKT DEGA MEDRESE,"Rr. Dibrës,  P.282, Nr.8, (prane Shkolles se Bashkuar), Tiranë, Shiqpëri",TIRANE,,,AL,,,,Banka Kombëtare Tregtare,Q806702
130,banka_kombetare_tregtare_al,BKT DEGA LEZHË,"Rr. Kosova, L. Beslidhja, 1, Lezhë, Shqipëri",LEZHE,,,AL,,,,Banka Kombëtare Tregtare,Q806702
131,banka_kombetare_tregtare_al,BKT DEGA KUKËS,"Rr. Dituria, Kukës Shqipëri",KUKES,,,AL,,,,Banka Kombëtare Tregtare,Q806702
132,banka_kombetare_tregtare_al,BKT DEGA PESHKOPI,"Bulevardi Elez Isufi, L. Gjokë Doçi, Peshkopi, Shqipëri",PESHKOPI,,,AL,,,,Banka Kombëtare Tregtare,Q806702
133,banka_kombetare_tregtare_al,BKT DEGA STACION I TRENIT,"Rr. Reshit Petrela, Ndërtesa 14, Tiranë, Shqipëri",TIRANE,,,AL,,,,Banka Kombëtare Tregtare,Q806702
134,banka_kombetare_tregtare_al,BKT DEGA MUSTAFA QEMAL ATATURK,"Rr. Muhamet Gjollesha, Ndërtesa nr. 82, Tiranë, Shqipëri",TIRANË,,,AL,,,,Banka Kombëtare Tregtare,Q806702
135,banka_kombetare_tregtare_al,BKT DEGA FUSHË-KRUJË,"Lagjja Kastrioti, Fushë-Krujë, Shqipëri",KRUJE,,,AL,,,,Banka Kombëtare Tregtare,Q806702
136,banka_kombetare_tregtare_al,BKT DEGA ABDYL FRASHERI,"Rr. Abdyl Frashëri, Tiranë, Shqipëri ",TIRANE,,,AL,,,,Banka Kombëtare Tregtare,Q806702
137,banka_kombetare_tregtare_al,BKT DEGA DAJTI,"Rr. Aleksandër Moisiu, Nr. 51, Kistudio, Tiranë, Shqipëri",TIRANE,,,AL,,,,Banka Kombëtare Tregtare,Q806702
138,banka_kombetare_tregtare_al,BKT DEGA HOXHA TASIM,"Rr. Hoxha Tahsim, Sheshi Avni Rustemi, Tiranë, Shqipëri",TIRANE,,,AL,,,,Banka Kombëtare Tregtare,Q806702
139,banka_kombetare_tregtare_al,BKT DEGA KASHAR,"Rr. Bylis, Kashar, Tiranë, Shqipëri",TIRANE,,,AL,,,,Banka Kombëtare Tregtare,Q806702
140,banka_kombetare_tregtare_al,BKT DEGA LIQENI,"Rr. Kopshti Botanik Liqeni i Tiranës, Tiranë, Shqipëri",TIRANE,,,AL,,,,Banka Kombëtare Tregtare,Q806702
141,banka_kombetare_tregtare_al,BKT DEGA QYTETI I NXËNËSVE,"Godina 1 e objektit BB1, Rr: Muhedin Llagami, midis Bulevardit “Gjergj Fishta” dhe Rrugës së Kavajës, Tiranë, Shqipëri",TIRANE,,,AL,,,,Banka Kombëtare Tregtare,Q806702
142,banka_kombetare_tregtare_al,BKT DEGA PIAZZA,"Rr. Ded Gjo Luli, P. Nr.1, Tiranë, Shqipëri",TIRANE,,,AL,,,,Banka Kombëtare Tregtare,Q806702
143,banka_kombetare_tregtare_al,BKT DEGA CONCORD,"Rr 5 Maji, Qëndra Tregtare Concord, Tiranë, Shqipëri",TIRANE,,,AL,,,,Banka Kombëtare Tregtare,Q806702
144,banka_kombetare_tregtare_al,BKT DEGA MYSLYM SHYRI,"Rr. Myslym Shyri, Tiranë, Shqipëri",TIRANE,,,AL,,,,Banka Kombëtare Tregtare,Q806702
145,banka_kombetare_tregtare_al,BKT DEGA BILISHT,"Bulevardi Kryesor, Rrethrrotullimi i Mirasit, Bilisht, Korçë, Shqipëri",DEVOLL,,,AL,,,,Banka Kombëtare Tregtare,Q806702
146,banka_kombetare_tregtare_al,BKT DEGA KAMËZ,"Bulevardi Blu, Kamëz, Tiranë, Shqipëri",TIRANE,,,AL,,,,Banka Kombëtare Tregtare,Q806702
147,banka_kombetare_tregtare_al,BKT DEGA DELVINË,"Rr. Veli Kallapodhi, L. Sinan Ballaci, Delvinë, Shqipëri",DELVINE,,,AL,,,,Banka Kombëtare Tregtare,Q806702
148,banka_kombetare_tregtare_al,BKT DEGA KOMUNA E PARISIT,"Rr. Medar Shtylla, Nr. 2, L. Komuna e Parisit, Tiranë, Shqipëri",TIRANE,,,AL,,,,Banka Kombëtare Tregtare,Q806702
149,banka_kombetare_tregtare_al,BKT DEGA SAUK,"Rruga Nacionale TR-EL, Sauk, Tiranë ",TIRANË,,,AL,,,,Banka Kombëtare Tregtare,Q806702
150,banka_kombetare_tregtare_al,BKT RRUGA E DURRËSIT,"Rr. Durrësit, Ndërtesa nr. 53, Tiranë, Shqipëri",TIRANE,,,AL,,,,Banka Kombëtare Tregtare,Q806702
151,banka_kombetare_tregtare_al,BKT DEGA KAVAJË,"Bulevardi Josif Buda, Lagja nr. 3, Kavajë Shqiperi",KAVAJE,,,AL,,,,Banka Kombëtare Tregtare,Q806702
152,banka_kombetare_tregtare_al,BKT DEGA VORË,"Rr. Rinia, Seshi Vorë, Tiranë, Shqipëri",TIRANE,,,AL,,,,Banka Kombëtare Tregtare,Q806702
153,banka_kombetare_tregtare_al,BKT DEGA LAÇ,"Rr. Erjon Hoxha, L. nr. 3, Laç, Shqipëri",LAC,,,AL,,,,Banka Kombëtare Tregtare,Q806702
154,banka_kombetare_tregtare_al,BKT DEGA RRËSHEN,"Rr. Motrat Vinçenciane, Rrëshen, Shqipëri",MIRDITE,,,AL,,,,Banka Kombëtare Tregtare,Q806702
155,banka_kombetare_tregtare_al,BKT DEGA ALI DEMI,"Rr. Idriz Dollaku, L. Ali Demi, Tiranë, Shqipëri",TIRANE,,,AL,,,,Banka Kombëtare Tregtare,Q806702
156,banka_kombetare_tregtare_al,BKT DEGA BUSHAT,"Qendër Bushat, Vau Dejës, Shqipëri",SHKODER,,,AL,,,,Banka Kombëtare Tregtare,Q806702
157,banka_kombetare_tregtare_al,BKT DEGA SHKOZET,"Rr. Bajram Tusha, L. 14, Shkozet, Durrës, Shqipëri",DURRES,,,AL,,,,Banka Kombëtare Tregtare,Q806702
158,banka_kombetare_tregtare_al,BKT DEGA SHKOLLA E BALETIT,"Rr. Mihal Grameno, (prane Shkolles se Baletit), Tiranë, Shqipëri",TIRANE,,,AL,,,,Banka Kombëtare Tregtare,Q806702
159,banka_kombetare_tregtare_al,BKT DEGA KRISTAL,"Rr. Fran Bardhi, Qendra Tregtare Kristal, Tiranë, Shqipëri",TIRANË,,,AL,,,,Banka Kombëtare Tregtare,Q806702
160,banka_kombetare_tregtare_al,BKT DEGA KOPLIK,"Rr. Dedaj, Qender Koplik, Malësi e Madhe, Shqipëri",MALESIA_MADHE,,,AL,,,,Banka Kombëtare Tregtare,Q806702
161,banka_kombetare_tregtare_al,BKT DEGA LIBRAZHD,"Rr. Gjorg Golemi, Lagja . 1, Librazhd, Shqipëri",LIBRAZHD,,,AL,,,,Banka Kombëtare Tregtare,Q806702
162,banka_kombetare_tregtare_al,BKT DEGA PEQIN,"Bulevardi Mustafa Gjinishi, Lagja Xhami, Peqin, Shqipëri",PEQIN,,,AL,,,,Banka Kombëtare Tregtare,Q806702
163,banka_kombetare_tregtare_al,BKT DEGA RROGOZHINE,"L. 1, Rrogozhinë, Shqipëri",RROGOZHINE,,,AL,,,,Banka Kombëtare Tregtare,Q806702
164,banka_kombetare_tregtare_al,BKT DEGA DON BOSKO,"Rr. Durrësit, Sheshi Karl Topia, Godina 127/3, Tiranë, Shqipëri",TIRANE,,,AL,,,,Banka Kombëtare Tregtare,Q806702
165,banka_kombetare_tregtare_al,BKT DEGA PLAZHI DURRËS,"Rr. Pavarësia, L. 13,  Plazh, Durrës, Shqipëria",DURRES,,,AL,,,,Banka Kombëtare Tregtare,Q806702
166,banka_kombetare_tregtare_al,BKT DEGA ORIKUM,"Bulevardi Princesha Rugjine, Lagjia 1 Maji, Orikum ,Vlorë, Shqipëri",ORIKUM,,,AL,,,,Banka Kombëtare Tregtare,Q806702
167,banka_kombetare_tregtare_al,BKT DEGA KUÇOVË,"Blloku Tafil Skendo, Kuçovë, Berat, Shqipëri",KUCOVE,,,AL,,,,Banka Kombëtare Tregtare,Q806702
168,banka_kombetare_tregtare_al,BKT DEGA RINIA,"Rr. Rinia, Lagja Aqif Pasha, Elbasan, Shqipëri",ELBASAN,,,AL,,,,Banka Kombëtare Tregtare,Q806702
169,banka_kombetare_tregtare_al,BKT DEGA PAVARËSIA,"Rr. Hasan Kushta, Lagjia Pavarësia, Vlorë, Shqipëri",VLORE,,,AL,,,,Banka Kombëtare Tregtare,Q806702
170,banka_kombetare_tregtare_al,BKT DEGA RRUGA ELBASANIT,"Rr. “Themistokli Gërmenji, përballë Ambasadës Amerikane, Tiranë, Shqipëri",TIRANË,,,AL,,,,Banka Kombëtare Tregtare,Q806702
171,banka_kombetare_tregtare_al,BKT DEGA DURRËS,"Bulevardi Egnatia / 3, Durrës, Shqipëri",DURRES,,,AL,,,,Banka Kombëtare Tregtare,Q806702
172,banka_kombetare_tregtare_al,BKT DEGA GRAMSH,"Lagjia Holta, P. 46, Gramsh, Shqipëri",GRAMSH,,,AL,,,,Banka Kombëtare Tregtare,Q806702
173,banka_kombetare_tregtare_al,BKT DEGA ÇOROVODË,"Rr. Dëshmorët, L. Clirim, Çorovodë, Shipëri",COROVODE,,,AL,,,,Banka Kombëtare Tregtare,Q806702
181,banka_kombetare_tregtare_al,BKT ATM MATERNITETI I RI,"Afër Maternitetit K.Glozheni, Bulevardi Bajram Curri,  Tiranë",TIRANE,,,AL,,,,Banka Kombëtare Tregtare,Q806702
200,banka_kombetare_tregtare_al,BKT ATM PAZARI I GJIROKASTRES ,"Rruga Ismail Kadare 4,  Gjirokastër,Shqipëri ",GJIROKASTER,,,AL,,,,Banka Kombëtare Tregtare,Q806702
201,banka_kombetare_tregtare_al,BKT ATM DHERMI ,"Afër ""Restorant Luciano"", Dhërmi, Shqipëri ",DHERMI ,,,AL,,,,Banka Kombëtare Tregtare,Q806702
202,banka_kombetare_tregtare_al,BKT ATM PAZARI I KRUJES,"MoneyGram Exchange , Rruga ""Pazari i vjetër"", Krujë",KRUJE,,,AL,,,,Banka Kombëtare Tregtare,Q806702
203,banka_kombetare_tregtare_al,BKT ATM CERRIK,"Rruga Cërrik- Elbasan, Cërrik, Shqipëri ",ELBASAN,,,AL,,,,Banka Kombëtare Tregtare,Q806702
204,banka_kombetare_tregtare_al,BKT ATM BELTOJE,"Beltoje , Aksi Lezhë – Shkodër , Shqipëri",SHKODER,,,AL,,,,Banka Kombëtare Tregtare,Q806702
174,banka_kombetare_tregtare_al,BKT DEGA IBRAHIM RUGOVA,"Rr. Ibrahim Rugova, Tiranë, Shqipëri",TIRANE,,,AL,,,,Banka Kombëtare Tregtare,Q806702
175,banka_kombetare_tregtare_al,BKT AGJENCIA DOGANORE DURRES,"Sheshi Trageteve, Porti Detar, Durrës, Shqipëri",DURRES,,,AL,,,,Banka Kombëtare Tregtare,Q806702
1,banka_kombetare_tregtare_al,BKT ATM KASTRATI,"Autostrada Tiranë - Durrës, Km 7, Kastrati Fuel Station, Tiranë, Shqipëri",TIRANE,,,AL,,,,Banka Kombëtare Tregtare,Q806702
3,banka_kombetare_tregtare_al,BKT ATM OASIS HOTEL,"Rruga e Butrintit, Kanali I Cukes, Hotel Oasis, Sarandë, Shqipëri",SARANDE,,,AL,,,,Banka Kombëtare Tregtare,Q806702
4,banka_kombetare_tregtare_al,BKT ATM SPAR ,"Rruga Martin Camaj, Spar, Shkodër, Shqipëri",SHKODER,,,AL,,,,Banka Kombëtare Tregtare,Q806702
5,banka_kombetare_tregtare_al,BKT ATM XHAMLLIKU,"Rruga Xhanfize Keko, Century 21, Tiranë, Shqipëri",TIRANE,,,AL,,,,Banka Kombëtare Tregtare,Q806702
6,banka_kombetare_tregtare_al,BKT ATM HOLLI I.RUGOVA,"Rr. Ibrahim Rugova, Tiranë, Shqipëri",TIRANE,,,AL,,,,Banka Kombëtare Tregtare,Q806702
7,banka_kombetare_tregtare_al,BKT ATM HO CXBANKING,"Rr. Vilave, Lundër 1, 1045, Tiranë, Shqipëri",TIRANE,,,AL,,,,Banka Kombëtare Tregtare,Q806702
8,banka_kombetare_tregtare_al,BKT ATM DEGA SHKOZET,"Rr. Bajram Tusha, L. 14, Shkozet, Durrës, Shqipëri",DURRES,,,AL,,,,Banka Kombëtare Tregtare,Q806702
9,banka_kombetare_tregtare_al,BKT ATM DEGA KRISTAL,"Rr. Fran Bardhi, Qendra Tregtare Kristal, Tiranë, Shqipëri",TIRANË,,,AL,,,,Banka Kombëtare Tregtare,Q806702
10,banka_kombetare_tregtare_al,BKT ATM DEGA LIBRAZHD,"Rr. Gjorg Golemi, Lagja . 1, Librazhd, Shqipëri",LIBRAZHD,,,AL,,,,Banka Kombëtare Tregtare,Q806702
11,banka_kombetare_tregtare_al,BKT ATM DEGA RROGOZHINE,"L. 1, Rrogozhinë, Shqipëri",RROGOZHINE,,,AL,,,,Banka Kombëtare Tregtare,Q806702
12,banka_kombetare_tregtare_al,BKT ATM DEGA PLAZHI DURRËS,"Rr. Pavarësia, L. 13,  Plazh, Durrës, Shqipëria",DURRES,,,AL,,,,Banka Kombëtare Tregtare,Q806702
13,banka_kombetare_tregtare_al,BKT ATM DEGA KUÇOVË,"Blloku Tafil Skendo, Kuçovë, Berat, Shqipëri",KUCOVE,,,AL,,,,Banka Kombëtare Tregtare,Q806702
14,banka_kombetare_tregtare_al,BKT ATM DEGA IBRAHIM RUGOVA,"Rr. Ibrahim Rugova, Tiranë, Shqipëri",TIRANE,,,AL,,,,Banka Kombëtare Tregtare,Q806702
15,banka_kombetare_tregtare_al,BKT ATM PASKUQAN,"Rr. Demokracia, Paskuqan, Kamëz, Shqipëri",TIRANE,,,AL,,,,Banka Kombëtare Tregtare,Q806702
16,banka_kombetare_tregtare_al,BKT ATM GOLEM,"Rr. Qemal Stafa, Golem, Shqipëri",KAVAJE,,,AL,,,,Banka Kombëtare Tregtare,Q806702
17,banka_kombetare_tregtare_al,BKT ATM PLAZH URA E DAJLANIT,"Rr. Pavaresia, Durrës, Shqipëri",DURRES,,,AL,,,,Banka Kombëtare Tregtare,Q806702
18,banka_kombetare_tregtare_al,BKT ATM BRADASHESH,"Rrethrrotullimi I Bradasheshit, Elbasan, Shqipëri",ELBASAN,,,AL,,,,Banka Kombëtare Tregtare,Q806702
19,banka_kombetare_tregtare_al,BKT ATM GJIRI I LALZIT,"Rr. Lalëzit, Armath, Durrës, Shqipëri",DURRES,,,AL,,,,Banka Kombëtare Tregtare,Q806702
20,banka_kombetare_tregtare_al,BKT ATM VLORE LUNGOMARE,"Rr. Murat Tërbaçi, Vlorë, Shqipëri",VLORE,,,AL,,,,Banka Kombëtare Tregtare,Q806702
21,banka_kombetare_tregtare_al,BKT ATM DEGA REPUBLIKA,"Bulevardi Republika, Korçë, Shqipëri",KORCE,,,AL,,,,Banka Kombëtare Tregtare,Q806702
22,banka_kombetare_tregtare_al,BKT ATM DEGA ISMAIL QEMALI,"Rr. Ismail Qemali, Nr. 30, Tiranë, Shqipëri",TIRANE,,,AL,,,,Banka Kombëtare Tregtare,Q806702
23,banka_kombetare_tregtare_al,BKT ATM DEGA KORÇË,"Rr. Midhi Kostani, Lagjia Nr. 9, Korcë, Shqipëri",KORCE,,,AL,,,,Banka Kombëtare Tregtare,Q806702
24,banka_kombetare_tregtare_al,BKT ATM DEGA VLORË,"Sheshi Flamurit, L. Hajro Çakërri, Vlorë, Shqipëri",VLORE,,,AL,,,,Banka Kombëtare Tregtare,Q806702
25,banka_kombetare_tregtare_al,BKT ATM DEGA SHKODËR,"Rr. Studenti, Sheshi 2 Prilli, Shkodër, Shqipëri",SHKODER,,,AL,,,,Banka Kombëtare Tregtare,Q806702
26,banka_kombetare_tregtare_al,BKT ATM DEGA LARAKË,"Rr. Dritan Hoxha, Pall. Gintash , nr 8, Tiranë, Shqipëri   ",TIRANE,,,AL,,,,Banka Kombëtare Tregtare,Q806702
27,banka_kombetare_tregtare_al,BKT ATM DEGA GRAMSH,"Lagjia Holta, P. 46, Gramsh, Shqipëri",GRAMSH,,,AL,,,,Banka Kombëtare Tregtare,Q806702
28,banka_kombetare_tregtare_al,BKT ATM DEGA ÇOROVODË,"Rr. Dëshmorët, L. Clirim, Çorovodë, Shipëri",COROVODE,,,AL,,,,Banka Kombëtare Tregtare,Q806702
29,banka_kombetare_tregtare_al,BKT ATM DEGA REPUBLIKA,"Bulevardi Republika, Korçë, Shqipëri",KORCE,,,AL,,,,Banka Kombëtare Tregtare,Q806702
30,banka_kombetare_tregtare_al,BKT ATM DEGA LEZHË,"Rr. Kosova, L. Beslidhja, 1, Lezhë, Shqipëri",LEZHE,,,AL,,,,Banka Kombëtare Tregtare,Q806702
31,banka_kombetare_tregtare_al,BKT ATM DEGA POGRADEC,"Rr. Rinia, Lagjia nr. 2, Pogradec, Shqipëri",POGRADEC,,,AL,,,,Banka Kombëtare Tregtare,Q806702
32,banka_kombetare_tregtare_al,BKT ATM DEGA KOMBINAT,"Rr. H.Cenoimeri, P. 50, Kombinat, Tiranë, Shqipëri",TIRANE,,,AL,,,,Banka Kombëtare Tregtare,Q806702
33,banka_kombetare_tregtare_al,BKT ATM DEGA PESHKOPI,"Bulevardi Elez Isufi, L. Gjokë Doçi, Peshkopi, Shqipëri",PESHKOPI,,,AL,,,,Banka Kombëtare Tregtare,Q806702
34,banka_kombetare_tregtare_al,BKT ATM DEGA STACION I TRENIT,"Rr. Reshit Petrela, Ndërtesa 14, Tiranë, Shqipëri",TIRANE,,,AL,,,,Banka Kombëtare Tregtare,Q806702
35,banka_kombetare_tregtare_al,BKT ATM DEGA ABDYL FRASHERI,"Rr. Abdyl Frashëri, Tiranë, Shqipëri ",TIRANE,,,AL,,,,Banka Kombëtare Tregtare,Q806702
36,banka_kombetare_tregtare_al,BKT ATM DEGA HOXHA TASIM,"Rr. Hoxha Tahsim, Sheshi Avni Rustemi, Tiranë, Shqipëri",TIRANE,,,AL,,,,Banka Kombëtare Tregtare,Q806702
37,banka_kombetare_tregtare_al,BKT ATM DEGA LIQENI,"Rr. Kopshti Botanik Liqeni i Tiranës, Tiranë, Shqipëri",TIRANE,,,AL,,,,Banka Kombëtare Tregtare,Q806702
38,banka_kombetare_tregtare_al,BKT ATM DEGA CONCORD,"Rr 5 Maji, Qëndra Tregtare Concord, Tiranë, Shqipëri",TIRANE,,,AL,,,,Banka Kombëtare Tregtare,Q806702
39,banka_kombetare_tregtare_al,BKT ATM DEGA BILISHT,"Bulevardi Kryesor, Rrethrrotullimi i Mirasit, Bilisht, Korçë, Shqipëri",DEVOLL,,,AL,,,,Banka Kombëtare Tregtare,Q806702
40,banka_kombetare_tregtare_al,BKT ATM DEGA DELVINË,"Rr. Veli Kallapodhi, L. Sinan Ballaci, Delvinë, Shqipëri",DELVINE,,,AL,,,,Banka Kombëtare Tregtare,Q806702
41,banka_kombetare_tregtare_al,BKT ATM DEGA SAUK,"Rruga Nacionale TR-EL, Sauk, Tiranë ",TIRANË,,,AL,,,,Banka Kombëtare Tregtare,Q806702
42,banka_kombetare_tregtare_al,BKT ATM DEGA KAVAJË,"Bulevardi Josif Buda, Lagja nr. 3, Kavajë Shqiperi",KAVAJE,,,AL,,,,Banka Kombëtare Tregtare,Q806702
43,banka_kombetare_tregtare_al,BKT ATM DEGA LAÇ,"Rr. Erjon Hoxha, L. nr. 3, Laç, Shqipëri",LAC,,,AL,,,,Banka Kombëtare Tregtare,Q806702
44,banka_kombetare_tregtare_al,BKT ATM DEGA ALI DEMI,"Rr. Idriz Dollaku, L. Ali Demi, Tiranë, Shqipëri",TIRANE,,,AL,,,,Banka Kombëtare Tregtare,Q806702
45,banka_kombetare_tregtare_al,BKT ATM TWIN TOWER,"Bulevardi Dëshmoret e Kombit, pranë Twin Tower, Tiranë, Shqipëri",TIRANE,,,AL,,,,Banka Kombëtare Tregtare,Q806702
46,banka_kombetare_tregtare_al,BKT ATM TEG,Rruga Nacionale Tiranë-Elbasan Qendra Tregtare TEG Tiranë Shqipëri ,TIRANE,,,AL,,,,Banka Kombëtare Tregtare,Q806702
176,banka_kombetare_tregtare_al,BKT ATM ASTIR ,"Rr. ""Tom Plezha"",Tiranë,Shqipëri",TIRANE,,,AL,,,,Banka Kombëtare Tregtare,Q806702
209,banka_kombetare_tregtare_al,BKT ATM GJYKATA ,"Bulevardi Gjergj Fishta, Tiranë, Shqipëri",TIRANE,,,AL,,,,Banka Kombëtare Tregtare,Q806702
205,banka_kombetare_tregtare_al,BKT ATM DIVJAK,"Dyqani Exchange, Rruga Demokracia",Divjake,,,AL,,,,Banka Kombëtare Tregtare,Q806702
222,banka_kombetare_tregtare_al,ATM Dega Durres Holli,"Rruga ""Egnatia"" , Durres, Shqiperi ",DURRES,,,AL,,,,Banka Kombëtare Tregtare,Q806702
210,banka_kombetare_tregtare_al,ATM Albsig Durres,"Rruga ""Egnatia"" , Durres, Shqiperi ",DURRES,,,AL,,,,Banka Kombëtare Tregtare,Q806702
212,banka_kombetare_tregtare_al,ATM Sigal Durres,"Bulevardi Epidamn Nr.42, Durres , Shqiperi",DURRES,,,AL,,,,Banka Kombëtare Tregtare,Q806702
206,banka_kombetare_tregtare_al,BKT ATM Himare ,"SH8, Himarë 1000",Himare/ Vlore,,,AL,,,,Banka Kombëtare Tregtare,Q806702
207,banka_kombetare_tregtare_al,BKT ATM FAFA ,Mali I Robit ,Kavaje,,,AL,,,,Banka Kombëtare Tregtare,Q806702
211,banka_kombetare_tregtare_al,BKT ATM Shkoze,Rr.Ali Shefqeti,Tirane,,,AL,,,,Banka Kombëtare Tregtare,Q806702
239516,crocs_eu,Crocs Store Tirana,,Tirana,,,AL,,,,Crocs,Q926699
AL001,longchamp,Coin Dpt Stores,,TIRANA,,,AL,+355 4 450 1737,,,Longchamp,Q1869471
68346104,moneygram,ARDJANI TRAVEL 2010 - LUSHNJE - LUSHNJE,,LUSHNJE,,,AL,+355 35 703 023,,Mo-Su 07:00-22:00,MoneyGram,Q1944412
68201278,moneygram,AK-ADF - KAVAJE - GOSE,,KAVAJE,,,AL,+355 570 20131,,Mo-Su 07:00-22:00,MoneyGram,Q1944412
68667760,moneygram,A.B.I EXCHANGE - TIRANA,,TIRANA,,,AL,+355 4 222 1855,,Mo-Su 07:00-22:00,MoneyGram,Q1944412
69119136,moneygram,LEIDEN 2012 - TIRANA,,TIRANA,,,AL,42673429514,,Mo-Su 07:00-22:00,MoneyGram,Q1944412
73968111,moneygram,JAUPAJ,,FIER,,,AL,+355 69 205 0342,,Mo-Su 07:00-22:00,MoneyGram,Q1944412
70160462,moneygram,NOVA 2016 SHPK - TIRANA,,TIRANA,,,AL,42697611065,,Mo-Su 07:00-22:00,MoneyGram,Q1944412
74560466,moneygram,TIK DIKA,,KLOS,,,AL,+355 68 585 2228,,Mo-Su 07:00-22:00,MoneyGram,Q1944412
74594982,moneygram,AK - INVEST 2011,,DURRES,,,AL,+355 69 461 8440,,Mo-Su 07:00-22:00,MoneyGram,Q1944412
43222599,moneygram,RAIFFEISEN BANK  - AGJ PUKE 093,,PUKE,,,AL,2122267,,Mo-Su 08:30-15:30,MoneyGram,Q1944412
43222971,moneygram,RAIFFEISEN BANK  - AGJ NR 11 KAMEZ 016,,TIRANA,,,AL,4353132,,Mo-Su 08:30-15:30,MoneyGram,Q1944412
43222816,moneygram,RAIFFEISEN BANK  - AGJ MALIQ 075,,KORCE,,,AL,4247910,,Mo-Fr 08:30-16:30; Sa-Su 00:00-24:00,MoneyGram,Q1944412
43222418,moneygram,RAIFFEISEN BANK  - DEGA KORCE 005,,KORCE,,,AL,8245870,,Mo-Su 08:30-15:30,MoneyGram,Q1944412
43222560,moneygram,RAIFFEISEN BANK  - AGJ KRUME 079,,KRUME,,,AL,2142083,,Mo-Su 08:30-15:30,MoneyGram,Q1944412
43222641,moneygram,RAIFFEISEN BANK  - AGJ DELVINE 090,,DELVINE,,,AL,8152308,,Mo-Fr 08:30-16:30; Sa-Su 00:00-24:00,MoneyGram,Q1944412
43222654,moneygram,RAIFFEISEN BANK  - AGJ KUCOVE 063,,BERAT,,,AL,+355 311 22322,,Mo-Su 08:30-15:30,MoneyGram,Q1944412
43222667,moneygram,RAIFFEISEN BANK  - AGJ URA VAJGURORE '03,,BERAT,,,AL,+355 32 232 628,,Mo-Su 08:30-15:30,MoneyGram,Q1944412
43222670,moneygram,RAIFFEISEN BANK  - AGJ BALLSH 071,,FIER,,,AL,3132356,,Mo-Su 08:30-15:30,MoneyGram,Q1944412
43222984,moneygram,RAIFFEISEN BANK  - AGJ NR 12 VORE 017,,TIRANA,,,AL,4354217,,Mo-Fr 08:30-16:30; Sa-Su 00:00-24:00,MoneyGram,Q1944412
43222722,moneygram,RAIFFEISEN BANK  - AGJ NR 1 021,,TIRANA,,,AL,4247910,,Mo-Fr 08:30-16:30; Sa-Su 00:00-24:00,MoneyGram,Q1944412
43222858,moneygram,RAIFFEISEN BANK  - VLORE AGJENSI 095,,VLORE,,,AL,4247910,,Mo-Fr 08:30-16:30; Sa-Su 00:00-24:00,MoneyGram,Q1944412
43222874,moneygram,RAIFFEISEN BANK  - AGJ DIVJAKE 084,,LUSHNJE,,,AL,4247910,,Mo-Su 08:30-15:30,MoneyGram,Q1944412
43222447,moneygram,RAIFFEISEN BANK  - DEGA SHKODER 014,,SHKODER,,,AL,2243171,,Mo-Su 08:30-15:30,MoneyGram,Q1944412
43222573,moneygram,RAIFFEISEN BANK  - AGJ PERMET 085,,PERMET,,,AL,8133957,,Mo-Su 08:30-15:30,MoneyGram,Q1944412
43222612,moneygram,RAIFFEISEN BANK  - AGJ BILISHT 064,,BILISHT,,,AL,8112918,,Mo-Su 08:30-15:30,MoneyGram,Q1944412
43222382,moneygram,RAIFFEISEN BANK  - DEGA FIER 003,,FIER,,,AL,3422231,,Mo-Su 08:30-15:30,MoneyGram,Q1944412
43222557,moneygram,RAIFFEISEN BANK  - AGJ TEPELENE 073,,TEPELENE,,,AL,8142558,,Mo-Su 08:30-15:30,MoneyGram,Q1944412
43222586,moneygram,RAIFFEISEN BANK  - AGJ TROPOJE B.CURRI 0,,BAJRAM CURRI,,,AL,2132326,,Mo-Su 08:30-15:30,MoneyGram,Q1944412
43223019,moneygram,RAIFFEISEN BANK  - AGJ RROGOZHINE 061,,RROGOZHINE,,,AL,5772030,,Mo-Fr 08:30-16:30; Sa-Su 00:00-24:00,MoneyGram,Q1944412
43222777,moneygram,RAIFFEISEN BANK  - AGJ PRENJAS 051,,ELBASAN,,,AL,4247910,,Mo-Su 08:30-15:30,MoneyGram,Q1944412
43261369,moneygram,RAIFFEISEN BANK  - AGJ FUSHE-KRUJE 097,,KRUJE,,,AL,5632365,,Mo-Su 08:30-15:30,MoneyGram,Q1944412
43222609,moneygram,RAIFFEISEN BANK  - AGJ ERSEKE 076,,ERSEKE,,,AL,8122375,,Mo-Su 08:30-15:30,MoneyGram,Q1944412
43222625,moneygram,RAIFFEISEN BANK  - AGJ GRAMSH 068,,GRAMSH,,,AL,5132345,,Mo-Su 08:30-15:30,MoneyGram,Q1944412
43222696,moneygram,RAIFFEISEN BANK  - AGJ PATOS 070,,FIER,,,AL,3812156,,Mo-Su 08:30-15:30,MoneyGram,Q1944412
43222900,moneygram,RAIFFEISEN BANK  - AGJ  KOMBINAT 026,,TIRANA,,,AL,4352300,,Mo-Fr 08:30-16:30; Sa-Su 00:00-24:00,MoneyGram,Q1944412
43222939,moneygram,RAIFFEISEN BANK  - AGJ PEQIN 069,,PEQIN,,,AL,5713028,,Mo-Su 08:30-15:30,MoneyGram,Q1944412
43222942,moneygram,RAIFFEISEN BANK  - AGJ BULQIZE 087,,BULQIZE,,,AL,2192152,,Mo-Su 08:30-15:30,MoneyGram,Q1944412
43222887,moneygram,RAIFFEISEN BANK  - AGJ FUSHE-ARREZ 053,,PUKE,,,AL,2713121,,Mo-Fr 08:30-16:30; Sa-Su 00:00-24:00,MoneyGram,Q1944412
43526541,moneygram,RAIFFEISEN BANK  - AGJ NR 2 022,,TIRANA,,,AL,4251809,,Mo-Fr 08:30-16:30; Sa-Su 00:00-24:00,MoneyGram,Q1944412
43222340,moneygram,RAIFFEISEN BANK  - DEGA ELBASAN 004,,ELBASAN,,,AL,5455373,,Mo-Su 08:30-15:30,MoneyGram,Q1944412
43222353,moneygram,RAIFFEISEN BANK  - DEGA LUSHNJE 012,,LUSHNJE,,,AL,3522301,,Mo-Su 08:30-15:30,MoneyGram,Q1944412
43222531,moneygram,RAIFFEISEN BANK  - AGJ PESHKOPI 086,,PESHKOPI,,,AL,2182510,,Mo-Su 08:30-15:30,MoneyGram,Q1944412
43222926,moneygram,RAIFFEISEN BANK  - AGJ SHIJAK 066,,SHIJAK,,,AL,5122259,,Mo-Fr 08:30-16:30; Sa-Su 00:00-24:00,MoneyGram,Q1944412
43222764,moneygram,RAIFFEISEN BANK  - AGJ BELSH 078,,ELBASAN,,,AL,4247910,,Mo-Fr 08:30-16:30; Sa-Su 00:00-24:00,MoneyGram,Q1944412
43222719,moneygram,RAIFFEISEN BANK  - AGJ RRESHEN 081,,RRESHEN,,,AL,2162356,,Mo-Su 08:30-15:30,MoneyGram,Q1944412
43733143,moneygram,RAIFFEISEN BANK  - AGJ KINOSTUDIO '020,,TIRANA,,,AL,4247910,,Mo-Su 08:30-15:30,MoneyGram,Q1944412
43733224,moneygram,RAIFFEISEN BANK  - AGJ SARANDE QYTET 033,,SARANDE,,,AL,8152308,,Mo-Fr 08:30-16:30; Sa-Su 00:00-24:00,MoneyGram,Q1944412
43903931,moneygram,RAIFFEISEN BANK  - AGJ BRRYLI 019,,TIRANA,,,AL,4247910,,Mo-Fr 08:30-16:30; Sa-Su 00:00-24:00,MoneyGram,Q1944412
43222845,moneygram,RAIFFEISEN BANK  - AGJ KELCYRE 038,,PERMET,,,AL,4247910,,Mo-Fr 08:30-16:30; Sa-Su 00:00-24:00,MoneyGram,Q1944412
44267142,moneygram,RAIFFEISEN BANK  - AGJ ALI DEMI 2 044,,TIRANA,,,AL,4247910,,Mo-Fr 08:30-16:30; Sa-Su 00:00-24:00,MoneyGram,Q1944412
43222803,moneygram,RAIFFEISEN BANK  - AGJ MAMURRAS 052,,LAC,,,AL,4247910,,Mo-Fr 08:30-16:30; Sa-Su 00:00-24:00,MoneyGram,Q1944412
44420730,moneygram,RAIFFEISEN BANK  - AGJ ZOGU I ZI 046,,TIRANA,,,AL,4274910,,Mo-Fr 08:30-16:30; Sa-Su 00:00-24:00,MoneyGram,Q1944412
44520973,moneygram,RAIFFEISEN BANK  - AGJ VILA GOLD 047,,TIRANA,,,AL,4274910,,Mo-Fr 08:30-16:30; Sa-Su 00:00-24:00,MoneyGram,Q1944412
45103959,moneygram,RAIFFEISEN BANK  - AGJ TEKNOLOGJIKE 048,,TIRANA,,,AL,421961,,Mo-Su 08:30-15:30,MoneyGram,Q1944412
48406873,moneygram,RAIFFEISEN BANK  - SAUK 050,,TIRANA,,,AL,+355 4 227 4910,,Mo-Fr 08:30-16:30; Sa-Su 00:00-24:00,MoneyGram,Q1944412
43222450,moneygram,RAIFFEISEN BANK  - DEGA TIRANE 001,,TIRANA,,,AL,4247913,,Mo-Su 08:30-15:30,MoneyGram,Q1944412
43222890,moneygram,RAIFFEISEN BANK  - AGJ SKRAPAR COROVODE,,COROVODE,,,AL,3122322,,Mo-Su 08:30-15:30,MoneyGram,Q1944412
65745766,moneygram,RAIFFEISEN BANK,,DURRES,,,AL,5225505,,Mo-Fr 08:30-16:30; Sa-Su 00:00-24:00,MoneyGram,Q1944412
65745795,moneygram,RAIFFEISEN BANK,,TIRANA,,,AL,+355 4 223 7792,,Mo-Su 08:30-15:30,MoneyGram,Q1944412
66440196,moneygram,CREDINS BANK  - BURREL - DEGA BURREL,,BURREL,,,AL,+355 217 23404,,Mo-Fr 08:00-17:00; Sa-Su 00:00-24:00,MoneyGram,Q1944412
43222476,moneygram,RAIFFEISEN BANK  - DEGA LEZHE 011,,LEZHE,,,AL,2623507,,Mo-Su 08:30-15:30,MoneyGram,Q1944412
43222544,moneygram,RAIFFEISEN BANK  - DEGA BURREL 015,,BURREL,,,AL,2173014,,Mo-Su 08:30-15:30,MoneyGram,Q1944412
43222638,moneygram,RAIFFEISEN BANK  - AGJ LIBRAZHD 083,,LIBRAZHD,,,AL,5142355,,Mo-Su 08:30-15:30,MoneyGram,Q1944412
67124372,moneygram,AMEGAN,,FIER-SHEGAN,,,AL,+355 372 70041,,Mo-Su 07:00-22:00,MoneyGram,Q1944412
67321599,moneygram,RAIFFEISEN BANK - TIRANA - AGJ HENRY 104,,TIRANA,,,AL,423810001838,,Mo-Su 08:30-15:30,MoneyGram,Q1944412
67512874,moneygram,CREDINS BANK  - Agjencia Fushe-Preze,,FUSHE-PREZE,,,AL,4504642,,Mo-Fr 08:00-17:00; Sa-Su 00:00-24:00,MoneyGram,Q1944412
67723634,moneygram,KRUTAJED - TIRANA,,TIRANA,,,AL,+355 4 237 5874,,Mo-Su 07:00-22:00,MoneyGram,Q1944412
67954526,moneygram,CREDINS BANK  - TIRANA - PERBALLE QENDRE,,TIRANA,,,AL,422406367,,Mo-Fr 08:00-17:00; Sa-Su 00:00-24:00,MoneyGram,Q1944412
68185750,moneygram,ARSEN 2010 - VLORE - PRANE PALLATIT TE A,,VLORE,,,AL,+355 33 408 179,,Mo-Su 07:00-22:00,MoneyGram,Q1944412
68169051,moneygram,MANARKOLLI - PASKUQAN,,PASKUQAN,,,AL,4200613,,Mo-Su 07:00-22:00,MoneyGram,Q1944412
SQLS1205,speed_queen,Speed Queen,,Vlora,,,AL,+355 69 651 7382,,,Speed Queen,Q7575499
,visa,,,ELBASAN,,,AL,,,,,
,visa,,,DURRES,,,AL,,,,,
,visa,,,TIRANA,,,AL,,,,,
,visa,,,TIRANE,,,AL,,,,,
,visa,,,VLORE,,,AL,,,,,
,visa,,,TIRANA,,,AL,,,,,
,visa,,,TIRANE,,,AL,,,,,
,visa,,,VLORE,,,AL,,,,,
,visa,,,"KSAMIL, SARANDE",,,AL,,,,,
,visa,,,SARANDE,,,AL,,,,,
,visa,,,SARANDE,,,AL,,,,,
,visa,,,SARANDE,,,AL,,,,,
,visa,,,SARANDA,,,AL,,,,,
,visa,,,SARANDA,,,AL,,,,,
,visa,,,SARANDE,,,AL,,,,,
,visa,,,SARANDE,,,AL,,,,,
,visa,,,SARANDE,,,AL,,,,,
,visa,,,SARANDE,,,AL,,,,,
,visa,,,DELVINE,,,AL,,,,,
,visa,,,HIMARE,,,AL,,,,,
,visa,,,HIMARA,,,AL,,,,,
,visa,,,"VRISERA, GJIROKASTER",,,AL,,,,,
,visa,,,GJIROKASTER,,,AL,,,,,
,visa,,,GJIROKASTRA,,,AL,,,,,
,visa,,,GJIROKASTER,,,AL,,,,,
,visa,,,GJIROKASTER,,,AL,,,,,
,visa,,,GJIROKASTER,,,AL,,,,,
,visa,,,GJIROKASTER,,,AL,,,,,
,visa,,,VLORA,,,AL,,,,,
,visa,,,VLORE,,,AL,,,,,
,visa,,,VLORE,,,AL,,,,,
,visa,,,VLORA,,,AL,,,,,
,visa,,,TIRANA,,,AL,,,,,
,visa,,,VLORE,,,AL,,,,,
,visa,,,VLORE,,,AL,,,,,
,visa,,,PERMET,,,AL,,,,,
,visa,,,BALLSH,,,AL,,,,,
,visa,,,FIER,,,AL,,,,,
,visa,,,FIER,,,AL,,,,,
,visa,,,"PATOS, FIER",,,AL,,,,,
,visa,,,FIERI,,,AL,,,,,
,visa,,,FIER,,,AL,,,,,
,visa,,,FIER,,,AL,,,,,
,visa,,,FIER,,,AL,,,,,
,visa,,,FIER,,,AL,,,,,
,visa,,,TIRANE,,,AL,,,,,
,visa,,,BERATI,,,AL,,,,,
,visa,,,BERAT,,,AL,,,,,
,visa,,,BERAT,,,AL,,,,,
,visa,,,BERAT,,,AL,,,,,
,visa,,,BERAT,,,AL,,,,,
,visa,,,KUCOVE,,,AL,,,,,
,visa,,,DIVJAKE,,,AL,,,,,
,visa,,,LUSHNJE,,,AL,,,,,
,visa,,,LUSHNJE,,,AL,,,,,
,visa,,,LUSHNJA,,,AL,,,,,
,visa,,,LUSHNJE,,,AL,,,,,
,visa,,,RROGOZHINE,,,AL,,,,,
,visa,,,GRAMSH,,,AL,,,,,
,visa,,,KORCA,,,AL,,,,,
,visa,,,TIRANA,,,AL,,,,,
,visa,,,KORCE,,,AL,,,,,
,visa,,,KORCE,,,AL,,,,,
,visa,,,KORCE,,,AL,,,,,
,visa,,,KORCE,,,AL,,,,,
,visa,,,KAVAJE,,,AL,,,,,
,visa,,,KAVAJE,,,AL,,,,,
,visa,,,KAVAJE,,,AL,,,,,
,visa,,,KAVAJA,,,AL,,,,,
,visa,,,BILISHT,,,AL,,,,,
,visa,,,BILISHT,,,AL,,,,,
,visa,,,KAVAJA,,,AL,,,,,
,visa,,,BILISHT,,,AL,,,,,
,visa,,,DURRES,,,AL,,,,,
,visa,,,DURRES,,,AL,,,,,
,visa,,,DURRES,,,AL,,,,,
,visa,,,DURRES,,,AL,,,,,
,visa,,,DURRES,,,AL,,,,,
,visa,,,DURRES,,,AL,,,,,
,visa,,,DURRES,,,AL,,,,,
,visa,,,DURRES,,,AL,,,,,
,visa,,,DURRES,,,AL,,,,,
,visa,,,DURRES,,,AL,,,,,
,visa,,,DURRES,,,AL,,,,,
,visa,,,DURRES,,,AL,,,,,
,visa,,,DURRES,,,AL,,,,,
,visa,,,DURRES,,,AL,,,,,
,visa,,,DURRES,,,AL,,,,,
,visa,,,DURRES,,,AL,,,,,
,visa,,,DURRES,,,AL,,,,,
,visa,,,DURRES,,,AL,,,,,
,visa,,,ELBASAN,,,AL,,,,,
,visa,,,ELBASAN,,,AL,,,,,
,visa,,,ELBASANI,,,AL,,,,,
,visa,,,ELBASAN,,,AL,,,,,
,visa,,,ELBASAN,,,AL,,,,,
,visa,,,ELBASAN,,,AL,,,,,
,visa,,,SHIJAK,,,AL,,,,,
,visa,,,POGRADEC,,,AL,,,,,
,visa,,,POGRADEC,,,AL,,,,,
,visa,,,POGRADEC,,,AL,,,,,
,visa,,,POGRADECI,,,AL,,,,,
,visa,,,POGRADEC,,,AL,,,,,
,visa,,,ELBASAN,,,AL,,,,,
,visa,,,TIRANA,,,AL,,,,,
,visa,,,TIRANA,,,AL,,,,,
,visa,,,TIRANE,,,AL,,,,,
,visa,,,TIRANE,,,AL,,,,,
,visa,,,TIRANA,,,AL,,,,,
,visa,,,TIRANA,,,AL,,,,,
,visa,,,TIRANE,,,AL,,,,,
,visa,,,TIRANA,,,AL,,,,,
,visa,,,TIRANA,,,AL,,,,,
,visa,,,TIRANE,,,AL,,,,,
,visa,,,TIRANA,,,AL,,,,,
,visa,,,TIRANA,,,AL,,,,,
,visa,,,TIRANA,,,AL,,,,,
,visa,,,TIRANA,,,AL,,,,,
,visa,,,TIRANA,,,AL,,,,,
,visa,,,TIRANE,,,AL,,,,,
,visa,,,TIRANE,,,AL,,,,,
,visa,,,TIRANA,,,AL,,,,,
,visa,,,TIRANA,,,AL,,,,,
,visa,,,TIRANA,,,AL,,,,,
,visa,,,TIRANA,,,AL,,,,,
,visa,,,TIRANA,,,AL,,,,,
,visa,,,TIRANA,,,AL,,,,,
,visa,,,TIRANA,,,AL,,,,,
,visa,,,TIRANE,,,AL,,,,,
,visa,,,TIRANE,,,AL,,,,,
,visa,,,TIRANE,,,AL,,,,,
,visa,,,TIRANA,,,AL,,,,,
,visa,,,TIRANA,,,AL,,,,,
,visa,,,TIRANE,,,AL,,,,,
,visa,,,TIRANA,,,AL,,,,,
,visa,,,TIRANA,,,AL,,,,,
,visa,,,TIRANA,,,AL,,,,,
,visa,,,TIRANA,,,AL,,,,,
,visa,,,TIRANA,,,AL,,,,,
,visa,,,TIRANA,,,AL,,,,,
,visa,,,TIRANA,,,AL,,,,,
,visa,,,TIRANA,,,AL,,,,,
,visa,,,TIRANA,,,AL,,,,,
,visa,,,TIRANA,,,AL,,,,,
,visa,,,TIRANA,,,AL,,,,,
,visa,,,TIRANA,,,AL,,,,,
,visa,,,TIRANE,,,AL,,,,,
,visa,,,TIRANA,,,AL,,,,,
,visa,,,TIRANA,,,AL,,,,,
,visa,,,TIRANA,,,AL,,,,,
,visa,,,TIRANA,,,AL,,,,,
,visa,,,TIRANA,,,AL,,,,,
,visa,,,TIRANA,,,AL,,,,,
,visa,,,TIRANA,,,AL,,,,,
,visa,,,TIRANA,,,AL,,,,,
,visa,,,TIRANA,,,AL,,,,,
,visa,,,TIRANA,,,AL,,,,,
,visa,,,TIRANE,,,AL,,,,,
,visa,,,TIRANE,,,AL,,,,,
,visa,,,TIRANE,,,AL,,,,,
,visa,,,TIRANE,,,AL,,,,,
,visa,,,TIRANE,,,AL,,,,,
,visa,,,TIRANE,,,AL,,,,,
,visa,,,TIRANE,,,AL,,,,,
,visa,,,TIRANE,,,AL,,,,,
,visa,,,TIRANE,,,AL,,,,,
,visa,,,TIRANE,,,AL,,,,,
,visa,,,TIRANE,,,AL,,,,,
,visa,,,TIRANE,,,AL,,,,,
,visa,,,TIRANE,,,AL,,,,,
,visa,,,TIRANA,,,AL,,,,,
,visa,,,TIRANE,,,AL,,,,,
,visa,,,TIRANA,,,AL,,,,,
,visa,,,TIRANA,,,AL,,,,,
,visa,,,FIER,,,AL,,,,,
,visa,,,TIRANA,,,AL,,,,,
,visa,,,"VORA, TIRANA",,,AL,,,,,
,visa,,,TIRANA,,,AL,,,,,
,visa,,,TIRANA,,,AL,,,,,
,visa,,,VORE,,,AL,,,,,
,visa,,,TIRANE,,,AL,,,,,
,visa,,,TIRANA,,,AL,,,,,
,visa,,,TIRANA,,,AL,,,,,
,visa,,,TIRANE,,,AL,,,,,
,visa,,,TIRANA,,,AL,,,,,
,visa,,,TIRANE,,,AL,,,,,
,visa,,,TIRANA,,,AL,,,,,
,visa,,,TIRANA,,,AL,,,,,
,visa,,,TIRANA,,,AL,,,,,
,visa,,,TIRANA,,,AL,,,,,
,visa,,,TIRANA,,,AL,,,,,
,visa,,,TIRANE,,,AL,,,,,
,visa,,,TIRANA,,,AL,,,,,
,visa,,,TIRANA,,,AL,,,,,
,visa,,,TIRANA,,,AL,,,,,
,visa,,,TIRANA,,,AL,,,,,
,visa,,,TIRANA,,,AL,,,,,
,visa,,,TIRANA,,,AL,,,,,
,visa,,,TIRANA,,,AL,,,,,
,visa,,,KAMEZ,,,AL,,,,,
,visa,,,TIRANA,,,AL,,,,,
,visa,,,KAMEZ,,,AL,,,,,
,visa,,,PRRENJAS,,,AL,,,,,
,visa,,,"VORE, TIRANA",,,AL,,,,,
,visa,,,DURRES,,,AL,,,,,
,visa,,,LIBRAZHD,,,AL,,,,,
,visa,,,LIBRAZHD,,,AL,,,,,
,visa,,,FUSHE KRUJE,,,AL,,,,,
,visa,,,TIRANA,,,AL,,,,,
,visa,,,KRUJE,,,AL,,,,,
,visa,,,MAMURRAS,,,AL,,,,,
,visa,,,LAC,,,AL,,,,,
,visa,,,LAC,,,AL,,,,,
,visa,,,LAC,,,AL,,,,,
,visa,,,BURRELI,,,AL,,,,,
,visa,,,LEZHE,,,AL,,,,,
,visa,,,LEZHA,,,AL,,,,,
,visa,,,LEZHE,,,AL,,,,,
,visa,,,LEZHE,,,AL,,,,,
,visa,,,SHENGJIN,,,AL,,,,,
,visa,,,RRESHEN,,,AL,,,,,
,visa,,,RRESHEN,,,AL,,,,,
,visa,,,PESHKOPI,,,AL,,,,,
,visa,,,SHKODER,,,AL,,,,,
,visa,,,SHKODER,,,AL,,,,,
,visa,,,SHKODER,,,AL,,,,,
,visa,,,"VAU DEJES, SHKODER",,,AL,,,,,
,visa,,,SHKODER,,,AL,,,,,
,visa,,,SHKODRA,,,AL,,,,,
,visa,,,SHKODER,,,AL,,,,,
,visa,,,SHKODER,,,AL,,,,,
,visa,,,SHKODER,,,AL,,,,,
,visa,,,KUKES,,,AL,,,,,
,visa,,,KOPLIK,,,AL,,,,,
,visa,,,KOPLIK,,,AL,,,,,
,visa,,,HIMARE,,,AL,,,,,
