Ref,Spider,Name,Address,City,State,Zipcode,Country,Phone,Website,Hours,Brand,WikiData
https://stores.aldi.us/#12364057,aldi_sud_us,ALDI  1125 S. Kirkwood Rd.,,Kirkwood,MO,,US,+1 855-955-2534,https://stores.aldi.us/mo/kirkwood/1125-s-kirkwood-rd,"Mo-Th 08:30-20:00,09:00-20:00; Fr 08:30-15:00,09:00-15:00,09:00-20:00; Sa-Su 08:30-20:00,09:00-20:00",ALDI,Q41171672
https://stores.ashleyfurniture.com/store/us/missouri/kirkwood/9000492236/,ashley_furniture,"Ashley Store Kirkwood, MO",,Kirkwood,MO,,US,+1 314-394-2904,https://stores.ashleyfurniture.com/store/us/missouri/kirkwood/9000492236/,,Ashley Furniture,Q4805437
23893,asics_us,Laurie's Shoes Inc.,9916 Manchester Rd,St. Louis,MO,,US,+1 314-961-1642,,Mo-Sa 09:00-19:00; Su 12:00-17:00,asics,Q327247
USAA24A04,audi,Audi Kirkwood,"10230 Manchester Rd, Kirkwood, MO 63122",Kirkwood,MO,,US,+1 314-965-7711,,,Audi,Q23317
USAA24A07,audi,Audi Kirkwood,"10230 Manchester Rd, Kirkwood, MO 63122",Kirkwood,MO,,US,+1 314-965-7711,,,Audi,Q23317
6708,autozone_us,AutoZone Auto Parts Kirkwood,,Kirkwood,MO,,US,+1 314-288-2001,https://www.autozone.com/locations/mo/kirkwood/1205-s-kirkwood-rd.html,Mo-Fr 06:00-22:00; Sa-Su 07:00-22:00,AutoZone,Q4826087
https://locators.bankofamerica.com/mo/saintlouis/financial-centers-saint-louis-9784.html,bankofamerica,Bank of America Financial Center & Drive-Thru ATM | Warson Woods,,Saint Louis,MO,,US,+1 314-284-2325,https://locators.bankofamerica.com/mo/saintlouis/financial-centers-saint-louis-9784.html,Mo-Fr 10:00-16:00,Bank of America,Q487907
https://www.barlouie.com/locations/us/mo/kirkwood/kirkwood,barlouie,Kirkwood,,Kirkwood,MO,,US,+1 314-639-0100,https://www.barlouie.com/locations/us/mo/kirkwood/kirkwood,Mo-Fr 11:00-01:30; Sa 10:00-01:30; Su 10:00-24:00,Barlouie,Q16935493
175065,bluerhino,Fresh Thyme Farmer's Market #401,,Kirkwood,MO,,US,+1 314-626-6102,,,Blue Rhino,Q65681213
110727,bluerhino,HWI - Kirkwood Hardware #5256,,Kirkwood,MO,,US,+1 314-821-0164,,,Blue Rhino,Q65681213
39700,bluerhino,Lowe's #764,,Kirkwood,MO,,US,+1 314-835-1779,,,Blue Rhino,Q65681213
92872711014016312200100000000000,bp,BP,,Kirkwood,MO,,US,+1 314-822-7076,,Mo-Sa 07:00-21:00; Su 08:00-21:00,BP,Q152057
120104,bp,BP,,St Louis,MO,,US,+1 314-966-9833,,24/7,BP,Q152057
3566,buffalo_wild_wings_us,"Kirkwood, MO",,Kirkwood,MO,,US,+1 314-821-9464,https://www.buffalowildwings.com/locations/us/mo/kirkwood/1244-south-kirkwood-road/sports-bar-750,Mo-Th 11:00-24:00; Fr-Sa 11:00-01:00; Su 11:00-23:00,Buffalo Wild Wings,Q509255
823,burlington_us,Burlington,,Kirkwood,MO,,US,+1 314-965-5775,https://stores.burlington.com/mo/kirkwood/823,Mo-Th 09:00-22:00; Fr-Sa 09:00-23:30; Su 09:00-22:00,Burlington,Q4999220
14883155,chase_us,Kirkwood - New branch,,Kirkwood,MO,,US,+1 314-800-1082,https://locator.chase.com/mo/kirkwood/101-n-kirkwood-rd,Mo-Fr 09:00-17:00; Sa 09:00-13:00,Chase,Q524629
001.005.1729,chilis,Kirkwood,,Kirkwood,MO,,US,+1 314-984-8176,https://www.chilis.com/locations/us/missouri/kirkwood/kirkwood/,Mo-Th 11:00-22:00; Fr-Sa 11:00-23:00; Su 11:00-22:00,Chili's,Q1072948
mo_kirkwood_1255-s-kirkwood-rd,chipotle, ,,Kirkwood,MO,,US,+1 314-238-0300,https://locations.chipotle.com/mo/kirkwood/1255-s-kirkwood-rd,,Chipotle,Q465751
25600,citi,ATM 7ELEVEN-FCTI,,Saint Louis,MO,,US,,,,Citibank,Q857063
31847,citi,ATM 7ELEVEN-FCTI,,Kirkwood,MO,,US,,,,Citibank,Q857063
33915,citi,ATM ACADEMY BANK,,Kirkwood,MO,,US,,,,Citibank,Q857063
33914,citi,ATM ACADEMY BANK,,Kirkwood,MO,,US,,,,Citibank,Q857063
81370,citi,ATM Target,,Saint Louis,MO,,US,,,,Citibank,Q857063
91139,citi,ATM Walgreens,,Kirkwood,MO,,US,,,,Citibank,Q857063
65434,citi,ATM MIDWEST REGIONAL,,Kirkwood,MO,,US,,,,Citibank,Q857063
46999,citi,ATM CVS,,Kirkwood,MO,,US,,,,Citibank,Q857063
59847,citi,ATM Hucks,,Kirkwood,MO,,US,,,,Citibank,Q857063
63861,citi,ATM LINDELL BANK & TRUST,,Glendale,MO,,US,,,,Citibank,Q857063
63846,citi,ATM LINDELL BANK,,Saint Louis,MO,,US,,,,Citibank,Q857063
,credit_union_us,West Community CU,,Kirkwood,MO,,US,+1 636-720-2400,,Mo-Tu 09:00-05:00; We 10:00-05:00; Th-Fr 09:00-05:00; Sa 09:00-12:00,,
476,culvers_us,"Culver's of Crestwood, MO - Big Bend Blvd",,St. Louis,MO,,US,+1 314-821-1800,http://www.culvers.com/restaurants/crestwood-mo,Mo-Fr 10:00-22:00; Su 10:00-22:00,Culver's,Q1143589
16624,cvs_us,CVS Pharmacy,,Kirkwood,MO,,US,+1 314-822-4865,https://www.cvs.com/store-locator/kirkwood-mo-pharmacies/1042-s-kirkwood-rd-kirkwood-mo-63122/storeid=16624,"Mo-Fr 09:00-13:30,14:00-19:00; Sa 09:00-13:30,14:00-17:00; Su 11:00-13:30,14:00-17:00",CVS Pharmacy,Q2078880
10334,cvs_us,CVS Pharmacy,,Kirkwood,MO,,US,+1 314-835-9448,https://www.cvs.com/store-locator/kirkwood-mo-pharmacies/10820-manchester-rd-kirkwood-mo-63122/storeid=10334,Mo-Fr 07:00-00:00; Sa 07:00-23:00; Su 08:00-23:00,CVS Pharmacy,Q2078880
TG9jYXRpb246MzA=,dierbergs,Warson Woods,,St. Louis,MO,,US,+1 314-919-0600,,Mo-Su 06:00-22:00,Dierberg's,Q5274978
1584,dominos_pizza_us,Domino's Pizza,,Kirkwood,MO,,US,+1 314-821-4111,https://pizza.dominos.com/missouri/kirkwood/485-s-kirkwood-road-ste-105d,Mo-Th 10:30-24:00; Fr-Sa 10:30-01:00; Su 10:30-24:00,Domino's,Q839466
1510,dominos_pizza_us,Domino's Pizza,,Saint Louis,MO,,US,+1 314-966-3030,https://pizza.dominos.com/missouri/saint-louis/11240-manchester-rd,Mo-Th 10:00-24:00; Fr-Sa 10:00-01:00; Su 10:00-24:00,Domino's,Q839466
347647,dunkin_us,Dunkin',,Kirkwood,MO,,US,+1 314-984-0220,https://locations.dunkindonuts.com/en/mo/kirkwood/1208-s-kirkwood-rd/347647,Mo-Sa 05:00-20:00; Su 06:00-20:00,Dunkin',Q847743
E10146,enterprise,Kirkwood,,Kirkwood,MO,,US,+1 314-965-5530,,,Enterprise Rent-A-Car,Q17085454
3745,extra_space_storage,Kirkwood Self Storage at 10461 Manchester Rd,,Kirkwood,MO,,US,+1 314-526-3999,https://www.extraspace.com/storage/facilities/us/missouri/kirkwood/3745/,Mo-Fr 09:30-18:00; Sa 09:00-17:30,Extra Space Storage,Q5422162
6572,firestone_auto_care,Firestone Complete Auto Care,,Saint Louis,MO,,US,+1 314-403-1053,https://local.firestonecompleteautocare.com/missouri/saint-louis/10160-manchester-rd/,,Firestone,Q420837
Motorcraft2559USAEnglish,ford,Suntrup Ford - Kirkwood,,Missouri,MO,,US,+1 314-822-9300,,,Ford,Q44294
https://www.ford.com/dealerships/dealer-details/mo/kirkwood/suntrup-ford-_-kirkwood/,ford_dealers_us,Suntrup Ford - Kirkwood,,Kirkwood,MO,,US,+1 557-201-1109,https://www.ford.com/dealerships/dealer-details/mo/kirkwood/suntrup-ford-_-kirkwood/,Mo 09:00-19:00; Tu 09:00-18:00; We 09:00-19:00; Th 09:00-18:00; Fr 09:00-19:00; Sa 09:00-18:00,Ford Motor Company,Q44294
https://salons.greatclips.com/us/mo/kirkwood/10324-manchester-rd,greatclips,Great Clips,,Kirkwood,MO,,US,+1 314-822-1777,https://salons.greatclips.com/us/mo/kirkwood/10324-manchester-rd,Mo-Fr 10:00-19:00; Sa 09:00-17:00; Su 10:00-16:00,Great Clips,Q5598967
401,honey_baked,HoneyBaked of Kirkwood,,Kirkwood,MO,,US,+1 314-821-7666,https://www.honeybaked.com/stores/401,,Honey Baked Ham,Q5893363
https://www.blockadvisors.com/local-tax-offices/missouri/kirkwood/443-s-kirkwood-rd/24115/,h_r_block,H&R Block,,Kirkwood,MO,,US,+1 314-984-8843,https://www.blockadvisors.com/local-tax-offices/missouri/kirkwood/443-s-kirkwood-rd/24115/,,H&R Block,Q5627799
24111,h_r_block,H&R Block,,Kirkwood,MO,,US,+1 314-822-2695,https://www.hrblock.com/local-tax-offices/missouri/kirkwood/kirkwood-crossing/24111/,,H&R Block,Q5627799
https://www.blockadvisors.com/local-tax-offices/missouri/saint-louis/10043-manchester-rd/24108/,h_r_block,H&R Block,,Saint Louis,MO,,US,+1 314-821-2560,https://www.blockadvisors.com/local-tax-offices/missouri/saint-louis/10043-manchester-rd/24108/,,H&R Block,Q5627799
https://office.jacksonhewitt.com/#27576141,jackson_hewitt,Jackson Hewitt,,Kirkwood,MO,,US,+1 314-626-0045,https://office.jacksonhewitt.com/tax-preparation-services-locations/en/mo/kirkwood/1202-so-kirkwood-road/52694,Mo-Fr 10:00-19:00; Sa 10:00-16:00,Jackson Hewitt,Q6117132
https://locations.jimmyjohns.com/mo/kirkwood/sandwiches-2016.html,jimmy_johns,Jimmy John's,,Kirkwood,MO,,US,+1 314-833-5559,https://locations.jimmyjohns.com/mo/kirkwood/sandwiches-2016.html,,Jimmy John's,Q1689380
000098,kindercare,Kirkwood West KinderCare,,Kirkwood,MO,,US,,https://www.kindercare.com/our-centers/kirkwood/mo/000098,,KinderCare Learning Centers,Q6410551
301539,kindercare,Kirkwood KinderCare,,Kirkwood,MO,,US,,https://www.kindercare.com/our-centers/kirkwood/mo/301539,,KinderCare Learning Centers,Q6410551
https://www.mercy.net/content/mercy/us/en/practice/kirkwood/mercy-pharmacy-dierbergs-warson-woods.html,mercy,Mercy Pharmacy - Dierbergs Warson Woods,,Kirkwood,MO,,US,+1 314-919-0611,https://www.mercy.net/practice/mercy-pharmacy-dierbergs-warson-woods,"Mo-Fr 08:00-13:30,14:00-20:00; Sa 08:00-13:30,14:00-18:00; Su 10:00-16:00",Mercy,Q30289045
https://www.mercy.net/content/mercy/us/en/practice/kirkwood/mercy-gohealth-urgent-care-kirkwood.html,mercy,Mercy-GoHealth Urgent Care - Kirkwood,,Kirkwood,MO,,US,+1 314-455-7088,https://www.mercy.nethttps://www.gohealthuc.com/mercy-st-louis/locations/kirkwood,Mo-Fr 08:00-20:00; Sa-Su 09:00-17:00,Mercy,Q30289045
https://www.mercy.net/content/mercy/us/en/practice/kirkwood/mercy-clinic-primary-care-kirkwood.html,mercy,Mercy Clinic Primary Care - Kirkwood,,Kirkwood,MO,,US,+1 314-822-6830,https://www.mercy.net/practice/mercy-clinic-primary-care-kirkwood,Mo-Fr 08:30-16:00,Mercy,Q30289045
https://www.mercy.net/content/mercy/us/en/practice/kirkwood/mercy-clinic-adult-psychiatry-kirkwood.html,mercy,Mercy Clinic Adult Psychiatry - Kirkwood,,Kirkwood,MO,,US,+1 314-543-5980,https://www.mercy.net/practice/mercy-clinic-adult-psychiatry-kirkwood,,Mercy,Q30289045
https://www.mercy.net/content/mercy/us/en/practice/kirkwood/mercy-clinic-ibd-and-gastroenterology-center-kirkwood.html,mercy,Mercy Clinic IBD and Gastroenterology Center - Kirkwood,,Kirkwood,MO,,US,+1 314-543-5980,https://www.mercy.net/practice/mercy-clinic-ibd-and-gastroenterology-center-kirkwood,Mo-Fr 08:00-16:00,Mercy,Q30289045
https://www.mercy.net/content/mercy/us/en/practice/kirkwood/mercy-clinic-vascular-specialists-1001-s-kirkwood.html,mercy,Mercy Clinic Vascular Specialists - 1001 S. Kirkwood,,Kirkwood,MO,,US,+1 314-525-4325,https://www.mercy.net/practice/mercy-clinic-vascular-specialists-1001-s-kirkwood,We 08:00-12:00,Mercy,Q30289045
https://www.mercy.net/content/mercy/us/en/practice/kirkwood/mercy-clinic-electrophysiology-1001-s-kirkwood.html,mercy,Mercy Clinic Electrophysiology - 1001 S. Kirkwood,,Kirkwood,MO,,US,+1 314-692-2807,https://www.mercy.net/practice/mercy-clinic-electrophysiology-1001-s-kirkwood,Tu 08:00-16:00,Mercy,Q30289045
https://www.mercy.net/content/mercy/us/en/practice/kirkwood/mercy-clinic-heart-and-vascular-1001-s-kirkwood.html,mercy,Mercy Clinic Heart and Vascular - 1001 S. Kirkwood,,Kirkwood,MO,,US,+1 314-842-0602,https://www.mercy.net/practice/mercy-clinic-heart-and-vascular-1001-s-kirkwood,Mo-Fr 08:00-16:30,Mercy,Q30289045
https://www.mercy.net/content/mercy/us/en/practice/kirkwood/mercy-clinic-primary-care-1001-s-kirkwood.html,mercy,Mercy Clinic Primary Care - 1001 S. Kirkwood,,Kirkwood,MO,,US,+1 314-525-4225,https://www.mercy.net/practice/mercy-clinic-primary-care-1001-s-kirkwood,Mo-Th 08:00-16:30; Fr 08:00-15:00,Mercy,Q30289045
https://www.mercy.net/content/mercy/us/en/practice/kirkwood/mercy-imaging-services-1001-s-kirkwood.html,mercy,Mercy Imaging Services - 1001 S. Kirkwood,,Kirkwood,MO,,US,+1 314-525-6075,https://www.mercy.net/practice/mercy-imaging-services-1001-s-kirkwood,Mo-Fr 09:00-17:30,Mercy,Q30289045
https://www.mercy.net/content/mercy/us/en/practice/kirkwood/mercy-heart-and-vascular-testing-1001-s-kirkwood.html,mercy,Mercy Heart and Vascular Testing - 1001 S. Kirkwood,,Kirkwood,MO,,US,+1 314-525-1300,https://www.mercy.net/practice/mercy-heart-and-vascular-testing-1001-s-kirkwood,Mo-Fr 08:00-16:30,Mercy,Q30289045
https://locations.modpizza.com/#23558231,modpizza,MOD Pizza Kirkwood Road,,Kirkwood,MO,,US,+1 314-238-7055,https://locations.modpizza.com/usa/mo/kirkwood/338-s-kirkwood-rd,Mo-Th 10:30-22:00; Fr-Sa 10:30-23:00; Su 10:30-22:00,MOD Pizza,Q19903469
0000884299,phillips_66_conoco_76,SEI 29264,,SAINT LOUIS,MO,,US,+1 636-861-7111,,,Phillips 66,Q1656230
https://locations.qdoba.com/us/mo/kirkwood/481-s-kirkwood-rd.html,qdoba,QDOBA Kirkwood,,Kirkwood,MO,,US,+1 314-822-2810,https://locations.qdoba.com/us/mo/kirkwood/481-s-kirkwood-rd.html,Mo-Sa 10:30-22:00; Su 10:30-21:00,Qdoba,Q1363885
https://locations.quiktrip.com/#16004502,quiktrip_us,QuikTrip Store #626 9951 Big Bend Blvd,,Oakland,MO,,US,+1 314-965-6110,https://locations.quiktrip.com/mo/oakland/9951-big-bend-blvd,24/7,QuikTrip,Q7271953
4741,sams_club,Saint Louis Sam's Club,,Saint Louis,MO,,US,+1 314-965-7076,https://www.samsclub.com/club/saint-louis-mo-sams-club/4741,Mo 10:00-20:00; Sa 09:00-20:00; Su 10:00-18:00,Sam's Club,Q1972120
139,schnucks_us,Schnucks Kirkwood,,St. Louis,MO,,US,+1 314-965-7310,https:/locations.schnucks.com/mo-st-louis-139,Mo-Su 06:00-22:00,Schnuck's,Q7431920
https://locations.scrubsandbeyond.com/mo/kirkwood/scrubs-kirkwood-mo-10.html,scrubs_and_beyond,Nursing Uniforms & Medical Scrubs at 1050 S Kirkwood Road | Scrubs & Beyond Near Me,,Kirkwood,MO,,US,+1 314-984-0991,https://locations.scrubsandbeyond.com/mo/kirkwood/scrubs-kirkwood-mo-10.html,Mo-Fr 09:00-19:00; Sa 10:00-18:00; Su 12:00-18:00,Scrubs and Beyond,Q119972011
32474,smilebrands,Midwest Dental  Seven Oaks,2901 Dougherty Ferry Rd.,St. Louis,MO,,US,+1 314-821-7100,https://midwest-dental.com/locations/missouri-dental-centers/seven-oaks-mo/,,Smile Brands Inc.,Q108286823
Kirkwood,snarfs,Kirkwood,,Kirkwood,MO,,US,,http://www.eatsnarfs.com/kirkwood,,Snarf's Sandwiches,Q113900887
233,sola_salon_studios,Kirkwood,,St Louis,MO,,US,+1 314-440-6808,https://www.solasalonstudios.com/locations/kirkwood-station-plaza,,Sola Salon Studios,Q64337426
https://restaurants.subway.com/#14916050,subway,Subway The Landing's,,Saint Louis Saint Louis,MO,,US,+1 636-529-1121,https://restaurants.subway.com/united-states/mo/saint-louis/2956-dougherty-ferry-road,Mo-Su 10:00-20:00,Subway,Q244457
https://restaurants.subway.com/#14908230,subway,Subway Woodbine Shopping Ctr,,Kirkwood Saint Louis,MO,,US,+1 314-965-6256,https://restaurants.subway.com/united-states/mo/kirkwood/467-s-kirkwood-rd,Mo-Su 09:00-22:00,Subway,Q244457
https://locations.tacobell.com/#6144469,taco_bell,Taco Bell,,Saint Louis,MO,,US,+1 636-825-2912,https://locations.tacobell.com/mo/saint-louis/2971-dougherty-ferry-rd-.html,Mo-Th 08:00-01:00; Fr-Sa 08:00-02:00; Su 08:00-01:00,Taco Bell,Q752941
https://locations.tacobell.com/#6147386,taco_bell,Taco Bell,,Saint Louis,MO,,US,+1 314-909-8440,https://locations.tacobell.com/mo/saint-louis/10035-manchester-road.html,Mo-Th 08:00-02:00; Fr-Sa 08:00-03:00; Su 08:00-02:00,Taco Bell,Q752941
https://locations.tacobell.com/#6144008,taco_bell,Taco Bell,,Kirkwood,MO,,US,+1 314-909-9803,https://locations.tacobell.com/mo/kirkwood/353-south-kirkwood-road.html,Mo-Th 07:00-01:00; Fr-Sa 07:00-02:00; Su 07:00-01:00,Taco Bell,Q752941
28228,tjx,Kirkwood,1040 S. Kirkwood Rd,Kirkwood,MO,,US,+1 314-965-5290,,Mo-Sa 09:30-21:30; Su 10:00-20:00,HomeGoods,Q5887941
0840,tjx,Kirkwood,1046 S. Kirkwood Road,Kirkwood,MO,,US,+1 314-909-4750,,Mo-Sa 09:30-21:30; Su 10:00-20:00,TJ Maxx,Q10860683
5B92,tmobile_us,Sam's Club Saint Louis MO,,Saint Louis,MO,,US,+1 314-323-5702,https://www.t-mobile.com/store-locator/mo/st-louis/sams-club-saint-louis-mo,,T-Mobile,Q3511885
2861,upsstore,Warson Woods Center Dierbergs,9909 Manchester Road,Warson Woods,MO,,US,+1 314-962-7167,https://locations.theupsstore.com/mo/warson-woods/9909-manchester-road,,UPS Store,Q7771029
0333,upsstore,Downtown Kirkwood,101 W Argonne Dr,Kirkwood,MO,,US,+1 314-966-5410,https://locations.theupsstore.com/mo/kirkwood/101-w-argonne-dr,,UPS Store,Q7771029
1435533,usps,KIRKWOOD POSTAL STORE,,SAINT LOUIS,MO,,US,+1 314-966-0638,,Mo-Fr 09:00-17:00; Sa 09:00-13:00,United States Postal Service,Q668687
1435025,usps,KIRKWOOD,,SAINT LOUIS,MO,,US,+1 314-966-6953,,,United States Postal Service,Q668687
6312200003,usps_collection_boxes,USPS COLLECTION BOX - BLUE BOX,10320 MANCHESTER RD,SAINT LOUIS,MO,,US,,,,United States Postal Service,Q668687
6312200006,usps_collection_boxes,USPS COLLECTION BOX - BLUE BOX,10900 MANCHESTER RD,SAINT LOUIS,MO,,US,,,,United States Postal Service,Q668687
6312200009,usps_collection_boxes,USPS COLLECTION BOX - BLUE BOX,12166 OLD BIG BEND RD,SAINT LOUIS,MO,,US,,,,United States Postal Service,Q668687
6312200013,usps_collection_boxes,USPS COLLECTION BOX - BLUE BOX,426 N SAPPINGTON RD,SAINT LOUIS,MO,,US,,,,United States Postal Service,Q668687
6312200014,usps_collection_boxes,USPS COLLECTION BOX - BLUE BOX,439 S KIRKWOOD RD,SAINT LOUIS,MO,,US,,,,United States Postal Service,Q668687
6312200015,usps_collection_boxes,USPS COLLECTION BOX - BLUE BOX,441 N KIRKWOOD RD,SAINT LOUIS,MO,,US,,,,United States Postal Service,Q668687
6312200017,usps_collection_boxes,USPS COLLECTION BOX - BLUE BOX,600 W WOODBINE AVE,SAINT LOUIS,MO,,US,,,,United States Postal Service,Q668687
6312200019,usps_collection_boxes,USPS COLLECTION BOX - BLUE BOX,820 LOCKETT RD,SAINT LOUIS,MO,,US,,,,United States Postal Service,Q668687
6312200020,usps_collection_boxes,USPS COLLECTION BOX - BLUE BOX,9551 BIG BEND BLVD,SAINT LOUIS,MO,,US,,,,United States Postal Service,Q668687
6312200021,usps_collection_boxes,USPS COLLECTION BOX - BLUE BOX,9645 BIG BEND BLVD,SAINT LOUIS,MO,,US,,,,United States Postal Service,Q668687
6312200024,usps_collection_boxes,USPS COLLECTION BOX - BLUE BOX,325 N TAYLOR AVE,SAINT LOUIS,MO,,US,,,,United States Postal Service,Q668687
6312200034,usps_collection_boxes,USPS COLLECTION BOX - BLUE BOX,402 CENTRAL PL,SAINT LOUIS,MO,,US,,,,United States Postal Service,Q668687
6312200037,usps_collection_boxes,USPS COLLECTION BOX - BLUE BOX,500 W ESSEX AVE,SAINT LOUIS,MO,,US,,,,United States Postal Service,Q668687
6312200041,usps_collection_boxes,USPS COLLECTION BOX - BLUE BOX,734 JAMAICA CT,SAINT LOUIS,MO,,US,,,,United States Postal Service,Q668687
6312200042,usps_collection_boxes,USPS COLLECTION BOX - BLUE BOX,201 N KIRKWOOD RD,SAINT LOUIS,MO,,US,,,,United States Postal Service,Q668687
6312200043,usps_collection_boxes,USPS COLLECTION BOX - BLUE BOX,780 N SAPPINGTON RD,SAINT LOUIS,MO,,US,,,,United States Postal Service,Q668687
6312200047,usps_collection_boxes,USPS COLLECTION BOX - BLUE BOX,139 S KIRKWOOD RD,SAINT LOUIS,MO,,US,,,,United States Postal Service,Q668687
6312200048,usps_collection_boxes,USPS COLLECTION BOX - BLUE BOX,11247 MANCHESTER RD,SAINT LOUIS,MO,,US,,,,United States Postal Service,Q668687
6312200049,usps_collection_boxes,USPS COLLECTION BOX - BLUE BOX,11140 MANCHESTER RD,SAINT LOUIS,MO,,US,,,,United States Postal Service,Q668687
6312200050,usps_collection_boxes,USPS COLLECTION BOX - BLUE BOX,11430 MANCHESTER RD,SAINT LOUIS,MO,,US,,,,United States Postal Service,Q668687
6312200052,usps_collection_boxes,USPS COLLECTION BOX - BLUE BOX,1229 N GEYER RD,SAINT LOUIS,MO,,US,,,,United States Postal Service,Q668687
6312200061,usps_collection_boxes,USPS COLLECTION BOX - BLUE BOX,255 PEEKE AVE,SAINT LOUIS,MO,,US,,,,United States Postal Service,Q668687
6312200063,usps_collection_boxes,USPS COLLECTION BOX - BLUE BOX,111 W ROSE HILL AVE,SAINT LOUIS,MO,,US,,,,United States Postal Service,Q668687
6312200066,usps_collection_boxes,USPS COLLECTION BOX - BLUE BOX,450 W ADAMS AVE,SAINT LOUIS,MO,,US,,,,United States Postal Service,Q668687
6312200071,usps_collection_boxes,USPS COLLECTION BOX - BLUE BOX,222 S TAYLOR AVE,SAINT LOUIS,MO,,US,,,,United States Postal Service,Q668687
6312200072,usps_collection_boxes,USPS COLLECTION BOX - BLUE BOX,222 S TAYLOR AVE,SAINT LOUIS,MO,,US,,,,United States Postal Service,Q668687
6312200073,usps_collection_boxes,USPS COLLECTION BOX - BLUE BOX,222 S TAYLOR AVE,SAINT LOUIS,MO,,US,,,,United States Postal Service,Q668687
6312200075,usps_collection_boxes,USPS COLLECTION BOX - BLUE BOX,9959 MANCHESTER RD,SAINT LOUIS,MO,,US,,,,United States Postal Service,Q668687
6312200080,usps_collection_boxes,USPS COLLECTION BOX - BLUE BOX,9990 MANCHESTER RD,SAINT LOUIS,MO,,US,,,,United States Postal Service,Q668687
6312200082,usps_collection_boxes,USPS COLLECTION BOX - BLUE BOX,10091 MANCHESTER RD,SAINT LOUIS,MO,,US,,,,United States Postal Service,Q668687
6312200083,usps_collection_boxes,USPS COLLECTION BOX - PO LOBBY,222 S TAYLOR AVE,SAINT LOUIS,MO,,US,,,,United States Postal Service,Q668687
6312200086,usps_collection_boxes,USPS COLLECTION BOX - BLUE BOX,343 S KIRKWOOD RD,SAINT LOUIS,MO,,US,,,,United States Postal Service,Q668687
6312200087,usps_collection_boxes,USPS COLLECTION BOX - BLUE BOX,343 S KIRKWOOD RD,SAINT LOUIS,MO,,US,,,,United States Postal Service,Q668687
6312200088,usps_collection_boxes,USPS COLLECTION BOX - BLUE BOX,3500 SCARLET OAK BLVD,SAINT LOUIS,MO,,US,,,,United States Postal Service,Q668687
6312200089,usps_collection_boxes,USPS COLLECTION BOX - BLUE BOX,10233 MANCHESTER RD,SAINT LOUIS,MO,,US,,,,United States Postal Service,Q668687
6312200090,usps_collection_boxes,USPS COLLECTION BOX - BLUE BOX,3701 TREE COURT IND BLVD,SAINT LOUIS,MO,,US,,,,United States Postal Service,Q668687
6312200095,usps_collection_boxes,USPS COLLECTION BOX - APC,343 S KIRKWOOD RD,SAINT LOUIS,MO,,US,,,,United States Postal Service,Q668687
6312200131,usps_collection_boxes,USPS COLLECTION BOX - BLUE BOX,2325 DOUGHERTY FERRY RD,SAINT LOUIS,MO,,US,,,,United States Postal Service,Q668687
6312200136,usps_collection_boxes,USPS COLLECTION BOX - PO LOBBY,343 S KIRKWOOD RD STE 5,SAINT LOUIS,MO,,US,,,,United States Postal Service,Q668687
R00000258643,verizon_us,Kirkwood MO,,Kirkwood,MO,,US,+1 314-965-6200,https://www.verizon.com/stores/details/missouri/kirkwood/kirkwood-1332822/,Mo-Sa 10:00-18:00; Su 10:00-17:00,Verizon,Q919641
,visa,,,SAINT LOUIS,MO,,US,,,,,
,visa,,,ST LOUIS,MO,,US,,,,,
,visa,,,CRESTWOOD,MO,,US,,,,,
,visa,,,KIRKWOOD,MO,,US,,,,,
,visa,,,KIRKWOOD,MO,,US,,,,,
,visa,,,SAINT LOUIS,MO,,US,,,,,
,visa,,,KIRKWOOD,MO,,US,,,,,
,visa,,,ST LOUIS,MO,,US,,,,,
,visa,,,ST LOUIS,MO,,US,,,,,
,visa,,,KIRKWOOD,MO,,US,,,,,
,visa,,,ST LOUIS,MO,,US,,,,,
,visa,,,KIRKWOOD,MO,,US,,,,,
,visa,,,ST. LOUIS,MO,,US,,,,,
,visa,,,KIRKWOOD,MO,,US,,,,,
,visa,,,KIRKWOOD,MO,,US,,,,,
,visa,,,KIRKWOOD,MO,,US,,,,,
,visa,,,KIRKWOOD,MO,,US,,,,,
,visa,,,KIRKWOOD,MO,,US,,,,,
,visa,,,KIRKWOOD,MO,,US,,,,,
,visa,,,KIRKWOOD,MO,,US,,,,,
,visa,,,KIRKWOOD,MO,,US,,,,,
,visa,,,KIRKWOOD,MO,,US,,,,,
,visa,,,KIRKWOOD,MO,,US,,,,,
,visa,,,KIRKWOOD,MO,,US,,,,,
,visa,,,KIRCKWOOD,MO,,US,,,,,
,visa,,,KIRKWOOD,MO,,US,,,,,
,visa,,,KIRKWOOD,MO,,US,,,,,
,visa,,,KIRKWOOD,MO,,US,,,,,
,visa,,,KIRKWOOD,MO,,US,,,,,
,visa,,,SAINT LOUIS,MO,,US,,,,,
,visa,,,ST LOUIS,MO,,US,,,,,
,visa,,,ST LOUIS,MO,,US,,,,,
,visa,,,KIRKWOOD,MO,,US,,,,,
,visa,,,KIRKWOOD,MO,,US,,,,,
,visa,,,VALLEY PARK,MO,,US,,,,,
,visa,,,SAINT LOUIS,MO,,US,,,,,
,visa,,,SAINT LOUIS,MO,,US,,,,,
https://www.walgreens.com/locator/walgreens-441+n+kirkwood+rd-kirkwood-mo-63122/id=4392,walgreens,Walgreens,,Kirkwood,MO,,US,+1 314-965-7944,https://www.walgreens.com/locator/walgreens-441+n+kirkwood+rd-kirkwood-mo-63122/id=4392,Mo-Su 06:00-24:00,Walgreens,Q1591889
96da53f9f17ff969130dc22778fe8435,western_union,WALMART #002694,,Kirkwood,MO,,US,+1 314-835-9406,https://location.westernunion.com/us/mo/kirkwood/96da53f9f17ff969130dc22778fe8435,Mo-Sa 08:00-20:00; Su 10:00-18:00,Western Union,Q861042
869552b5a906e9a6fbfc133d3555b7ce,western_union,7-ELEVEN #19507,,Kirkwood,MO,,US,+1 314-821-2251,https://location.westernunion.com/us/mo/kirkwood/869552b5a906e9a6fbfc133d3555b7ce,,Western Union,Q861042
4c078acbb900f8c528782696615dfe33,western_union,7-ELEVEN #29264,,Saint Louis,MO,,US,+1 636-861-7111,https://location.westernunion.com/us/mo/saint-louis/4c078acbb900f8c528782696615dfe33,,Western Union,Q861042
