Ref,Spider,Name,Address,City,State,Zipcode,Country,Phone,Website,Hours,Brand,WikiData
460,autozone_us,AutoZone Auto Parts Saint Louis,,Saint Louis,MO,,US,+1 314-385-3303,https://www.autozone.com/locations/mo/saint-louis/6700-natural-bridge-rd.html,Mo-Sa 07:30-21:00; Su 08:00-20:00,AutoZone,Q4826087
173370,bluerhino,Family Dollar #10307,,St. Louis,MO,,US,+1 314-522-2969,,,Blue Rhino,Q65681213
240443,bluerhino,Circle K #4701628,,Ferguson,MO,,US,+1 314-524-6901,,,Blue Rhino,Q65681213
150752,bluerhino,Walgreens #6254,,Normandy,MO,,US,+1 314-382-9926,,,Blue Rhino,Q65681213
228289,bluerhino,Rappy's One Stop Shop,,Saint Louis,MO,,US,+1 347-761-5721,,,Blue Rhino,Q65681213
73874455807016312100100000000000,bp,BP,,St Louis,MO,,US,+1 314-381-2823,,Mo-Su 07:00-22:00,BP,Q152057
30669250274306312100100000000000,bp,BP,,Normandy,MO,,US,+1 314-389-1616,,Mo-Th 06:00-23:00; Fr-Sa 06:00-24:00; Su 07:00-23:00,BP,Q152057
25536177615366312100100000000000,bp,Amoco,,St Louis,MO,,US,+1 314-427-1822,,24/7,BP,Q152057
120100,bp,BP,,St Louis,MO,,US,+1 314-522-6500,,24/7,BP,Q152057
7215-natural-bridge-road,churchs_chicken,Natural Bridge Road,,Normandy,MO,,US,+1 314-383-2731,https://locations.churchs.com/mo/normandy/7215-natural-bridge-road,,Church's Chicken,Q1089932
76092,citi,ATM SIMMONS BANK,,St Louis,MO,,US,,,,Citibank,Q857063
92680,citi,ATM Walgreens,,Saint Louis,MO,,US,,,,Citibank,Q857063
om_mo_saint-louis_63-n-oaks-plz,cititrends,Citi Trends,,Saint Louis,MO,,US,+1 314-377-2668,https://locations.cititrends.com/mo/saint-louis/63-n-oaks-plz.html,Mo 10:00-21:00; Tu 10:00-21:00; We 10:00-21:00; Th 10:00-21:00; Fr 10:00-21:00; Sa 10:00-21:00; Su 12:00-18:00,Citi Trends,Q5122438
1589,dominos_pizza_us,Domino's Pizza,,Normandy,MO,,US,+1 314-389-3030,https://pizza.dominos.com/missouri/normandy/7240-natural-bridge-rd,Mo-Th 10:30-24:00; Fr-Sa 10:30-01:00; Su 10:30-24:00,Domino's,Q839466
1-university-blvd,einsteinbros,University of Missouri St. Louis Einstein Bros. Bagels,,St. Louis,MO,,US,+1 314-516-7304,https://locations.einsteinbros.com/us/mo/st-louis/1-university-blvd,Mo-Th 07:30-15:30; Fr 07:30-13:30,Einstein Bros. Bagels,Q5349788
30307,family_dollar_us,FAMILY DOLLAR #10307,,St. Louis,MO,,US,+1 314-687-4749,https://www.familydollar.com/locations/mo/st.-louis/30307/,Mo-Su 08:00-22:00,Family Dollar,Q5433101
1075,fresenius_kidney_care_us,Fresenius Kidney Care Normandy \ Metro Normandy,,Saint Louis,MO,,US,+1 800-881-5101,https://www.freseniuskidneycare.com/dialysis-centers/missouri/1075,Mo 05:00-20:30; Tu 05:30-17:00; We 05:00-20:30; Th 05:30-17:00; Fr 05:00-20:30; Sa 05:30-17:00,,
24032,h_r_block,H&R Block,,Saint Louis,MO,,US,+1 314-381-9955,https://www.hrblock.com/local-tax-offices/missouri/saint-louis/141-n-oaks-plaza/24032/,,H&R Block,Q5627799
https://office.jacksonhewitt.com/#27576448,jackson_hewitt,Jackson Hewitt,,Beverly Hills,MO,,US,+1 314-385-9600,https://office.jacksonhewitt.com/tax-preparation-services-locations/en/mo/beverly-hills/7060-natural-bridge-rd/12551,Mo-Fr 10:00-19:00; Sa 09:00-17:00; Su 12:00-17:00,Jackson Hewitt,Q6117132
https://locations.oreillyauto.com/mo/normandy/check-engine-light-testing-1303.html,oreilly,Your Normandy O'Reilly Auto Parts Store,,Normandy,MO,,US,+1 314-381-3472,https://locations.oreillyauto.com/mo/normandy/check-engine-light-testing-1303.html,Mo-Sa 07:30-21:00; Su 08:00-20:00,O'Reilly Auto Parts,Q7071951
https://locations.oreillyauto.com/mo/normandy/wiper-installation-1303.html,oreilly,Your Normandy O'Reilly Auto Parts Store,,Normandy,MO,,US,+1 314-381-3472,https://locations.oreillyauto.com/mo/normandy/wiper-installation-1303.html,Mo-Sa 07:30-21:00; Su 08:00-20:00,O'Reilly Auto Parts,Q7071951
https://locations.oreillyauto.com/mo/normandy/battery-testing-1303.html,oreilly,Your Normandy O'Reilly Auto Parts Store,,Normandy,MO,,US,+1 314-381-3472,https://locations.oreillyauto.com/mo/normandy/battery-testing-1303.html,Mo-Sa 07:30-21:00; Su 08:00-20:00,O'Reilly Auto Parts,Q7071951
https://locations.oreillyauto.com/mo/normandy/autopartes-1303.html,oreilly,Tu tienda O'Reilly Auto Parts en Normandy,,Normandy,MO,,US,+1 314-381-3472,https://locations.oreillyauto.com/mo/normandy/autopartes-1303.html,Mo-Sa 07:30-21:00; Su 08:00-20:00,O'Reilly Auto Parts,Q7071951
0000891304,phillips_66_conoco_76,JENNINGS CONOCO,,SAINT LOUIS,MO,,US,+1 314-308-6206,,,Conoco,Q109341187
0000886877,phillips_66_conoco_76,BEL RIDGE P66,,BEL RIDGE,MO,,US,+1 314-731-6212,,,Phillips 66,Q1656230
mo_saint-louis_1-university-blvd,pizza_hut_us,1 University Blvd,,Saint Louis,MO,,US,,https://locations.pizzahut.com/mo/saint-louis/1-university-blvd,,Pizza Hut,Q191615
https://locations.quiktrip.com/#16004301,quiktrip_us,QuikTrip Store #601 9099 Natural Bridge Rd.,,Bel Ridge,MO,,US,+1 314-427-7827,https://locations.quiktrip.com/mo/bel-ridge/9099-natural-bridge-rd.,24/7,QuikTrip,Q7271953
https://restaurants.subway.com/#14914833,subway,"Subway Univ of Mo, Millenium Stud.Ctr",,St. Louis Saint Louis,MO,,US,+1 314-875-0486,https://restaurants.subway.com/united-states/mo/st-louis/1-university-boulevard,Mo-Th 07:00-20:00; Fr-Sa 07:00-18:00; Su 07:00-20:00,Subway,Q244457
https://restaurants.subway.com/#14909886,subway,Subway,,Northwoods Saint Louis,MO,,US,+1 314-389-0029,https://restaurants.subway.com/united-states/mo/northwoods/137-n-oaks-plaza,Mo-Fr 07:00-22:00; Sa 08:00-22:00; Su 09:00-22:00,Subway,Q244457
1435047,usps,NORMANDY,,SAINT LOUIS,MO,,US,+1 314-385-2694,,Mo-Fr 09:30-17:30; Sa 09:00-14:00,United States Postal Service,Q668687
6312100033,usps_collection_boxes,USPS COLLECTION BOX - BLUE BOX,1201 S FLORISSANT RD,SAINT LOUIS,MO,,US,,,,United States Postal Service,Q668687
6312100002,usps_collection_boxes,USPS COLLECTION BOX - BLUE BOX,1225 S FLORISSANT RD,SAINT LOUIS,MO,,US,,,,United States Postal Service,Q668687
6312100001,usps_collection_boxes,USPS COLLECTION BOX - BLUE BOX,7450 NATURAL BRIDGE RD,SAINT LOUIS,MO,,US,,,,United States Postal Service,Q668687
6312100060,usps_collection_boxes,USPS COLLECTION BOX - BLUE BOX,7450 NATURAL BRIDGE RD,SAINT LOUIS,MO,,US,,,,United States Postal Service,Q668687
6312100067,usps_collection_boxes,USPS COLLECTION BOX - PO LOBBY,7450 NATURAL BRIDGE RD,SAINT LOUIS,MO,,US,,,,United States Postal Service,Q668687
6312100091,usps_collection_boxes,USPS COLLECTION BOX - PO LOBBY,7450 NATURAL BRIDGE RD,SAINT LOUIS,MO,,US,,,,United States Postal Service,Q668687
6312100052,usps_collection_boxes,USPS COLLECTION BOX - BLUE BOX,3855 LUCAS AND HUNT RD,SAINT LOUIS,MO,,US,,,,United States Postal Service,Q668687
6312100063,usps_collection_boxes,USPS COLLECTION BOX - BLUE BOX,7500 HILLSDALE DR,SAINT LOUIS,MO,,US,,,,United States Postal Service,Q668687
6312100006,usps_collection_boxes,USPS COLLECTION BOX - BLUE BOX,7151 NATURAL BRIDGE RD,SAINT LOUIS,MO,,US,,,,United States Postal Service,Q668687
6312100016,usps_collection_boxes,USPS COLLECTION BOX - BLUE BOX,2900 HATHERLY DR,SAINT LOUIS,MO,,US,,,,United States Postal Service,Q668687
6312100012,usps_collection_boxes,USPS COLLECTION BOX - BLUE BOX,8001 NATURAL BRIDGE RD,SAINT LOUIS,MO,,US,,,,United States Postal Service,Q668687
6312100049,usps_collection_boxes,USPS COLLECTION BOX - BLUE BOX,6901 NATURAL BRIDGE RD,SAINT LOUIS,MO,,US,,,,United States Postal Service,Q668687
6312100013,usps_collection_boxes,USPS COLLECTION BOX - BLUE BOX,8400 NATURAL BRIDGE RD,SAINT LOUIS,MO,,US,,,,United States Postal Service,Q668687
6312100029,usps_collection_boxes,USPS COLLECTION BOX - BLUE BOX,3501 AVONDALE AVE,SAINT LOUIS,MO,,US,,,,United States Postal Service,Q668687
6312100056,usps_collection_boxes,USPS COLLECTION BOX - BLUE BOX,4659 WALLINGTON CT,SAINT LOUIS,MO,,US,,,,United States Postal Service,Q668687
6312100034,usps_collection_boxes,USPS COLLECTION BOX - BLUE BOX,7700 HORATIO DR,SAINT LOUIS,MO,,US,,,,United States Postal Service,Q668687
6312100023,usps_collection_boxes,USPS COLLECTION BOX - BLUE BOX,7232 BURRWOOD DR,SAINT LOUIS,MO,,US,,,,United States Postal Service,Q668687
6312100092,usps_collection_boxes,USPS COLLECTION BOX - BLUE BOX,1 EXPRESS WAY,SAINT LOUIS,MO,,US,,,,United States Postal Service,Q668687
6312100040,usps_collection_boxes,USPS COLLECTION BOX - BLUE BOX,4731 FLETCHER ST,SAINT LOUIS,MO,,US,,,,United States Postal Service,Q668687
6312100022,usps_collection_boxes,USPS COLLECTION BOX - BLUE BOX,4200 JENNINGS STATION RD,SAINT LOUIS,MO,,US,,,,United States Postal Service,Q668687
6312100038,usps_collection_boxes,USPS COLLECTION BOX - BLUE BOX,4730 EDGEWOOD BLVD,SAINT LOUIS,MO,,US,,,,United States Postal Service,Q668687
6312100015,usps_collection_boxes,USPS COLLECTION BOX - BLUE BOX,8943 NATURAL BRIDGE RD,SAINT LOUIS,MO,,US,,,,United States Postal Service,Q668687
,visa,,,ST LOUIS,MO,,US,,,,,
,visa,,,ST. LOUIS,MO,,US,,,,,
,visa,,,ST LOUIS,MO,,US,,,,,
,visa,,,ST LOUIS,MO,,US,,,,,
,visa,,,ST LOUIS,MO,,US,,,,,
,visa,,,ST. LOUIS,MO,,US,,,,,
,visa,,,ST. LOUIS,MO,,US,,,,,
,visa,,,SAINT LOUIS,MO,,US,,,,,
,visa,,,ST LOUIS,MO,,US,,,,,
,visa,,,ST. LOUIS,MO,,US,,,,,
,visa,,,ST. LOUIS,MO,,US,,,,,
,visa,,,ST. LOUIS,MO,,US,,,,,
,visa,,,SAINT LOUIS,MO,,US,,,,,
,visa,,,ST. LOUIS,MO,,US,,,,,
,visa,,,ST. LOUIS,MO,,US,,,,,
,visa,,,ST. LOUIS,MO,,US,,,,,
,visa,,,ST. LOUIS,MO,,US,,,,,
,visa,,,ST. LOUIS,MO,,US,,,,,
,visa,,,ST LOUIS,MO,,US,,,,,
,visa,,,IST LOUIS,MO,,US,,,,,
,visa,,,ST LOUIS,MO,,US,,,,,
,visa,,,ST LOUIS,MO,,US,,,,,
,visa,,,ST LOUIS,MO,,US,,,,,
,visa,,,NORMANDY,MO,,US,,,,,
,visa,,,ST LOUIS,MO,,US,,,,,
,visa,,,ST. LOUIS,MO,,US,,,,,
,visa,,,ST. LOUIS,MO,,US,,,,,
,visa,,,ST. LOUIS,MO,,US,,,,,
,visa,,,ST LOUIS,MO,,US,,,,,
,visa,,,ST. LOUIS,MO,,US,,,,,
,visa,,,NORMANDY,MO,,US,,,,,
,visa,,,ST. LOUIS,MO,,US,,,,,
,visa,,,ST LOUIS,MO,,US,,,,,
,visa,,,ST LOUIS,MO,,US,,,,,
,visa,,,COOL VALLEY,MO,,US,,,,,
,visa,,,ST LOUIS,MO,,US,,,,,
,visa,,,ST. LOUIS,MO,,US,,,,,
,visa,,,ST. LOUIS,MO,,US,,,,,
,visa,,,COOL VALLEY,MO,,US,,,,,
,visa,,,ST. LOUIS,MO,,US,,,,,
,visa,,,ST. LOUIS,MO,,US,,,,,
,visa,,,SAINT LOUIS,MO,,US,,,,,
,visa,,,ST. LOUIS,MO,,US,,,,,
,visa,,,ST LOUIS,MO,,US,,,,,
,visa,,,ST LOUIS,MO,,US,,,,,
,visa,,,BEL RIDGE,MO,,US,,,,,
,visa,,,SAINT LOUIS,MO,,US,,,,,
https://www.walgreens.com/locator/walgreens-7199+natural+bridge+rd-saint+louis-mo-63121/id=6254,walgreens,Walgreens,,Saint Louis,MO,,US,+1 314-382-9926,https://www.walgreens.com/locator/walgreens-7199+natural+bridge+rd-saint+louis-mo-63121/id=6254,Mo-Su 07:00-23:00,Walgreens,Q1591889
85dcc7d4fdfb80ea75f39ea9573356ce,western_union,BEVERLY HILLS SUPERMARKET,,Saint Louis,MO,,US,+1 314-381-7545,https://location.westernunion.com/us/mo/saint-louis/85dcc7d4fdfb80ea75f39ea9573356ce,Mo-Sa 08:00-20:00; Su 09:00-17:00,Western Union,Q861042
9292,wingstop,Wingstop Normandy Natural Bridge Rd,7201 Natural Bridge Rd Ste B,Normandy,MO,,US,+1 314-389-9464,,,Wingstop,Q8025339
