Ref,Spider,Name,Address,City,State,Zipcode,Country,Phone,Website,Hours,Brand,WikiData
https://stores.advanceautoparts.com/ma/billerica/700-boston-rd,advance_auto_parts_us,Advance Auto Parts,,Billerica,MA,,US,+1 978-667-0135,https://stores.advanceautoparts.com/ma/billerica/700-boston-rd,Mo-Sa 07:30-21:00; Su 09:00-20:00,Advance Auto Parts,Q4686051
700 Technology Park Drive,allied_universal,Allied Universal,,Billerica,MA,,US,+1 978-452-4606,https://www.aus.com/boston-security-systems-services,,Allied Universal,Q4732537
62500,asics_us,Bob's Stores Footwear & Apparel,700 Boston Rd,Billerica,MA,,US,+1 978-671-0088,,,asics,Q327247
https://locators.bankofamerica.com/ma/billerica/financial-centers-billerica-14420.html,bankofamerica,Bank of America Financial Center & Drive-Thru ATM | Billerica,,Billerica,MA,,US,+1 978-670-6424,https://locators.bankofamerica.com/ma/billerica/financial-centers-billerica-14420.html,Mo-Fr 10:00-16:00,Bank of America,Q487907
https://locators.bankofamerica.com/ma/billerica/atm-billerica-105594.html,bankofamerica,Bank of America Walk-Up ATM | Treble Cove Remote,,Billerica,MA,,US,+1 844-401-8500,https://locators.bankofamerica.com/ma/billerica/atm-billerica-105594.html,,Bank of America,Q487907
https://locators.bankofamerica.com/ma/billerica/atm-billerica-104273.html,bankofamerica,Bank of America Walk-Up ATM | Pinehurst Remote,,Billerica,MA,,US,+1 844-401-8500,https://locators.bankofamerica.com/ma/billerica/atm-billerica-104273.html,,Bank of America,Q487907
https://local.biglots.com/#13190925,biglots,Big Lots - Billerica,,Billerica,MA,,US,+1 978-667-6790,https://local.biglots.com/ma/billerica/480-boston-rd,Mo-Sa 09:00-21:00; Su 10:00-19:00,Big Lots,Q4905973
205211,bluerhino,Bell's Smoke Shop,,Billerica,MA,,US,+1 732-986-5096,,,Blue Rhino,Q65681213
238,burlington_us,Burlington,,Billerica,MA,,US,+1 978-663-0405,https://stores.burlington.com/ma/billerica/238,Mo-Sa 09:00-23:00; Su 09:00-22:00,Burlington,Q4999220
32989,citi,ATM 7ELEVEN-FCTI,,Billerica,MA,,US,,,,Citibank,Q857063
52443,citi,ATM CVS,,Billerica,MA,,US,,,,Citibank,Q857063
64808,citi,ATM Market Basket,,Billerica,MA,,US,,,,Citibank,Q857063
80819,citi,ATM STONEHAMBANK,,Billerica,MA,,US,,,,Citibank,Q857063
80820,citi,ATM STONEHAMBANK,,Billerica,MA,,US,,,,Citibank,Q857063
80818,citi,ATM STONEHAMBANK,,Billerica,MA,,US,,,,Citibank,Q857063
91296,citi,ATM Walgreens,,Billerica,MA,,US,,,,Citibank,Q857063
36928,citi,ATM Boston Rd Mobil,,Billerica,MA,,US,,,,Citibank,Q857063
77295,citi,ATM Speedway,,Billerica,MA,,US,,,,Citibank,Q857063
64775,citi,ATM Market Basket,,Billerica,MA,,US,,,,Citibank,Q857063
3751,dominos_pizza_us,Domino's Pizza,,Billerica,MA,,US,+1 978-663-3000,https://pizza.dominos.com/massachusetts/billerica/729-boston-rd,Mo-Th 10:30-24:00; Fr-Sa 10:30-01:00; Su 10:30-24:00,Domino's,Q839466
335436,dunkin_us,Dunkin',,Billerica,MA,,US,+1 978-670-5482,https://locations.dunkindonuts.com/en/ma/billerica/612-middlesex-tpke/335436,Mo-Su 06:00-20:00,Dunkin',Q847743
302683,dunkin_us,Dunkin',,Billerica,MA,,US,+1 978-901-3318,https://locations.dunkindonuts.com/en/ma/billerica/729-boston-rd/302683,Mo-Fr 04:00-19:00; Sa-Su 05:00-19:00,Dunkin',Q847743
336617,dunkin_us,Dunkin',,Billerica,MA,,US,+1 978-671-4402,https://locations.dunkindonuts.com/en/ma/billerica/459-boston-road/336617,Mo-Fr 03:30-22:00; Sa-Su 04:30-22:00,Dunkin',Q847743
E110J1,enterprise,Billerica,,Billerica,MA,,US,+1 978-667-6852,,,Enterprise Rent-A-Car,Q17085454
1000001528,extra_space_storage,Billerica Self Storage at 26 Cook St,,Billerica,MA,,US,+1 978-906-9098,https://www.extraspace.com/storage/facilities/us/massachusetts/billerica/1000001528/,Mo-Fr 09:30-18:00; Sa 09:00-17:30,Extra Space Storage,Q5422162
Motorcraft4134USAEnglish,ford,"New England Wheels, Inc.",,Massachusetts,MA,,US,,,,Ford,Q44294
https://salons.greatclips.com/us/ma/billerica/480-boston-rd,greatclips,Great Clips,,Billerica,MA,,US,+1 978-362-3589,https://salons.greatclips.com/us/ma/billerica/480-boston-rd,Mo-Fr 09:00-20:00; Sa-Su 09:00-18:00,Great Clips,Q5598967
4650,gulf_pr_us,ROUTE 3A GULF,,Billerica,MA,,US,+1 978-667-0568,https://www.gulfoil.com/route-3a-gulf,,Gulf Oil,Q5617505
19948,h_r_block,H&R Block,,Billerica,MA,,US,+1 978-667-3638,https://www.hrblock.com/local-tax-offices/massachusetts/billerica/700-boston-rd/19948/,,H&R Block,Q5627799
https://locations.ironmountain.com/ma/billerica/im055/,iron_mountain,"Iron Mountain in 96 High Street, Billerica, Massachusetts | Secure Shredding, Scanning, IT Asset Disposition, & Records Management",,Billerica,MA,,US,+1 800-899-4766,https://locations.ironmountain.com/ma/billerica/im055/,,Iron Mountain Incorporated,Q1673079
https://locations.kfc.com/#11248985,kfc,Chicken Nuggets Near Billerica,,Billerica,MA,,US,,https://locations.kfc.com/ma/billerica/485-boston-road/chickennugget,Mo-Sa 10:30-22:00; Su 10:30-21:00,KFC,Q524757
070524,kindercare,Billerica Knowledge Beginnings,,Billerica,MA,,US,,https://www.kindercare.com/our-centers/billerica/ma/070524,,KinderCare Learning Centers,Q6410551
BOSBB,marriott,Courtyard Boston Billerica/Bedford,,Billerica,MA,,US,+1 978-670-7500,https://www.marriott.com/BOSBB,,Courtyard by Marriott,Q1053170
https://restaurants.subway.com/#14896359,subway,Subway,,Billerica Middlesex,MA,,US,+1 978-663-6565,https://restaurants.subway.com/united-states/ma/billerica/799-middlesex-tpke,Mo-Th 08:00-19:00; Fr 08:00-16:00; Sa 11:00-19:00,Subway,Q244457
https://restaurants.subway.com/#14914810,subway,Subway Shops at Billerica,,Billerica Suffolk,MA,,US,+1 978-362-8507,https://restaurants.subway.com/united-states/ma/billerica/480-boston-road,Mo-Fr 08:00-21:00; Sa 09:00-20:00; Su 10:00-19:00,Subway,Q244457
218D,tmobile_us,Shops at Billerica,,Billerica,MA,,US,+1 978-291-8788,https://www.t-mobile.com/store-locator/ma/billerica/shops-at-billerica,,T-Mobile,Q3511885
1354964,usps,BILLERICA,,BILLERICA,MA,,US,+1 978-663-2791,,Mo-Fr 08:00-17:30; Sa 08:00-14:00,United States Postal Service,Q668687
0182100039,usps_collection_boxes,USPS COLLECTION BOX - BLUE BOX,1 EXECUTIVE PARK DR,NORTH BILLERICA,MA,,US,,,,United States Postal Service,Q668687
0182100029,usps_collection_boxes,USPS COLLECTION BOX - BLUE BOX,85 RANGEWAY RD,NORTH BILLERICA,MA,,US,,,,United States Postal Service,Q668687
0182100033,usps_collection_boxes,USPS COLLECTION BOX - BLUE BOX,199 BOSTON RD,NORTH BILLERICA,MA,,US,,,,United States Postal Service,Q668687
0182100036,usps_collection_boxes,USPS COLLECTION BOX - BLUE BOX,76 TREBLE COVE RD,NORTH BILLERICA,MA,,US,,,,United States Postal Service,Q668687
0182100005,usps_collection_boxes,USPS COLLECTION BOX - BLUE BOX,25 BRIDGE ST,NORTH BILLERICA,MA,,US,,,,United States Postal Service,Q668687
0182100037,usps_collection_boxes,USPS COLLECTION BOX - BLUE BOX,267 BOSTON RD,NORTH BILLERICA,MA,,US,,,,United States Postal Service,Q668687
0182100009,usps_collection_boxes,USPS COLLECTION BOX - BLUE BOX,67 HIGH ST - IRON HORSE PK,NORTH BILLERICA,MA,,US,,,,United States Postal Service,Q668687
0182100038,usps_collection_boxes,USPS COLLECTION BOX - BLUE BOX,308 BOSTON RD,NORTH BILLERICA,MA,,US,,,,United States Postal Service,Q668687
0182100034,usps_collection_boxes,USPS COLLECTION BOX - BLUE BOX,1 REPUBLIC RD,NORTH BILLERICA,MA,,US,,,,United States Postal Service,Q668687
0182100031,usps_collection_boxes,USPS COLLECTION BOX - BLUE BOX,330 BOSTON RD,NORTH BILLERICA,MA,,US,,,,United States Postal Service,Q668687
0182100043,usps_collection_boxes,USPS COLLECTION BOX - BLUE BOX,331 TREBLE COVE RD,NORTH BILLERICA,MA,,US,,,,United States Postal Service,Q668687
0182100025,usps_collection_boxes,USPS COLLECTION BOX - BLUE BOX,365 BOSTON RD,NORTH BILLERICA,MA,,US,,,,United States Postal Service,Q668687
0182100052,usps_collection_boxes,USPS COLLECTION BOX - BLUE BOX,365 BOSTON RD,NORTH BILLERICA,MA,,US,,,,United States Postal Service,Q668687
0182100024,usps_collection_boxes,USPS COLLECTION BOX - BLUE BOX,13 RIVER ST,NORTH BILLERICA,MA,,US,,,,United States Postal Service,Q668687
0182100023,usps_collection_boxes,USPS COLLECTION BOX - BLUE BOX,16 RIVER ST,NORTH BILLERICA,MA,,US,,,,United States Postal Service,Q668687
0182100001,usps_collection_boxes,USPS COLLECTION BOX - BLUE BOX,460 BOSTON RD,NORTH BILLERICA,MA,,US,,,,United States Postal Service,Q668687
0182100002,usps_collection_boxes,USPS COLLECTION BOX - BLUE BOX,460 BOSTON RD,NORTH BILLERICA,MA,,US,,,,United States Postal Service,Q668687
0182100044,usps_collection_boxes,USPS COLLECTION BOX - PO LOBBY,460 BOSTON RD,NORTH BILLERICA,MA,,US,,,,United States Postal Service,Q668687
0182100045,usps_collection_boxes,USPS COLLECTION BOX - PO LOBBY,460 BOSTON RD,NORTH BILLERICA,MA,,US,,,,United States Postal Service,Q668687
0182100046,usps_collection_boxes,USPS COLLECTION BOX - PO LOBBY,460 BOSTON RD,NORTH BILLERICA,MA,,US,,,,United States Postal Service,Q668687
0182100047,usps_collection_boxes,USPS COLLECTION BOX - PO LOBBY,460 BOSTON RD,NORTH BILLERICA,MA,,US,,,,United States Postal Service,Q668687
0182100010,usps_collection_boxes,USPS COLLECTION BOX - BLUE BOX,496 BOSTON RD,NORTH BILLERICA,MA,,US,,,,United States Postal Service,Q668687
0182100011,usps_collection_boxes,USPS COLLECTION BOX - BLUE BOX,572 BOSTON RD,NORTH BILLERICA,MA,,US,,,,United States Postal Service,Q668687
0182100006,usps_collection_boxes,USPS COLLECTION BOX - BLUE BOX,1 KENMAR DR,NORTH BILLERICA,MA,,US,,,,United States Postal Service,Q668687
0182100012,usps_collection_boxes,USPS COLLECTION BOX - BLUE BOX,700 BOSTON RD,NORTH BILLERICA,MA,,US,,,,United States Postal Service,Q668687
0182100022,usps_collection_boxes,USPS COLLECTION BOX - BLUE BOX,158 CONCORD RD,NORTH BILLERICA,MA,,US,,,,United States Postal Service,Q668687
0182100013,usps_collection_boxes,USPS COLLECTION BOX - BLUE BOX,8 COOK ST,NORTH BILLERICA,MA,,US,,,,United States Postal Service,Q668687
0182100020,usps_collection_boxes,USPS COLLECTION BOX - BLUE BOX,2 FEDERAL ST,NORTH BILLERICA,MA,,US,,,,United States Postal Service,Q668687
0182100027,usps_collection_boxes,USPS COLLECTION BOX - BLUE BOX,30 MANNING RD,NORTH BILLERICA,MA,,US,,,,United States Postal Service,Q668687
0182100015,usps_collection_boxes,USPS COLLECTION BOX - BLUE BOX,800 MIDDLESEX TPKE,NORTH BILLERICA,MA,,US,,,,United States Postal Service,Q668687
0182100017,usps_collection_boxes,USPS COLLECTION BOX - BLUE BOX,900 MIDDLESEX TPKE,NORTH BILLERICA,MA,,US,,,,United States Postal Service,Q668687
0182100026,usps_collection_boxes,USPS COLLECTION BOX - BLUE BOX,2 WALL ST,NORTH BILLERICA,MA,,US,,,,United States Postal Service,Q668687
0182100018,usps_collection_boxes,USPS COLLECTION BOX - BLUE BOX,28 PLANK ST,NORTH BILLERICA,MA,,US,,,,United States Postal Service,Q668687
billerica_oil-change-ab1165,valvoline_instant_oil_change,Valvoline,720 Boston Road ,Billerica,MA,,US,+1 978-547-2710,https://store.vioc.com/ma/billerica/oil-change-ab1165.html,,Valvoline Instant Oil Change,Q7912852
,visa,,,BILLERICA,MA,,US,,,,,
,visa,,,BILLERICA,MA,,US,,,,,
,visa,,,BILLERICA,MA,,US,,,,,
,visa,,,BILLERICA,MA,,US,,,,,
,visa,,,BILLERICA,MA,,US,,,,,
,visa,,,BILLERICA,MA,,US,,,,,
,visa,,,BILLERICA,MA,,US,,,,,
,visa,,,BILLERICA,MA,,US,,,,,
,visa,,,BILLERICA,MA,,US,,,,,
,visa,,,BILLERICA,MA,,US,,,,,
,visa,,,BILLERICA,MA,,US,,,,,
,visa,,,BILLERICA,MA,,US,,,,,
,visa,,,BILLERICA,MA,,US,,,,,
,visa,,,BILLERICA,MA,,US,,,,,
,visa,,,BILLERICA,MA,,US,,,,,
https://www.walgreens.com/locator/walgreens-467+boston+rd-billerica-ma-01821/id=18952,walgreens,Walgreens,,Billerica,MA,,US,+1 978-663-4900,https://www.walgreens.com/locator/walgreens-467+boston+rd-billerica-ma-01821/id=18952,Mo-Sa 07:00-22:00; Su 08:00-22:00,Walgreens,Q1591889
