Ref,Spider,Name,Address,City,State,Zipcode,Country,Phone,Website,Hours,Brand,WikiData
14254,little_free_library,Makati Olympia Rotary Club #14254 Makati City Metro Manila,,Makati City,Metro Manila,,PH,,,,Little Free Library,Q6650101
147606,little_free_library,Hyacinth Carreon #147606 Makati Metro Manila,,Makati,Metro Manila,,PH,,,,Little Free Library,Q6650101
10046881,shell,SH EDSA ESTRELLA,,MAKATI CITY,Metro Manila,,PH,89942912,https://find.shell.com/ph/fuel/10046881-sh-edsa-estrella,,Shell,Q110716465
10021199,shell,SH EDSA MCKINLEY,,MAKATI CITY,Metro Manila,,PH,88162178,https://find.shell.com/ph/fuel/10021199-sh-edsa-mckinley,24/7,Shell,Q110716465
10021350,shell,SH JP RIZAL TRINIDAD,,MAKATI CITY,Metro Manila,,PH,+63 2 8895 0520,https://find.shell.com/ph/fuel/10021350-sh-jp-rizal-trinidad,,Shell,Q110716465
10021223,shell,SH SOUTH SUPER MAGALLANES,,MAKATI CITY,Metro Manila,,PH,88530207,https://find.shell.com/ph/fuel/10021223-sh-south-super-magallanes,,Shell,Q110716465
10021278,shell,SH CHINO ROCES METROPLITN,,MAKATI CITY,Metro Manila,,PH,88992482,https://find.shell.com/ph/fuel/10021278-sh-chino-roces-metroplitn,24/7,Shell,Q110716465
,visa,,,MAKATI,METRO MANILA,,PH,,,,,
,visa,,,MAKATI,METRO MANILA,,PH,,,,,
,visa,,,MAKATI,METRO MANILA,,PH,,,,,
,visa,,,MAKATI,METRO MANILA,,PH,,,,,
,visa,,,MAKATI,METRO MANILA,,PH,,,,,
,visa,,,MAKATI,METRO MANILA,,PH,,,,,
,visa,,,MAKATI,METRO MANILA,,PH,,,,,
,visa,,,MAKATI,METRO MANILA,,PH,,,,,
,visa,,,MAKATI,METRO MANILA,,PH,,,,,
,visa,,,MAKATI,METRO MANILA,,PH,,,,,
,visa,,,MAKATI,METRO MANILA,,PH,,,,,
,visa,,,MAKATI,METRO MANILA,,PH,,,,,
,visa,,,MAKATI,METRO MANILA,,PH,,,,,
,visa,,,MAKATI,METRO MANILA,,PH,,,,,
,visa,,,MAKATI,METRO MANILA,,PH,,,,,
,visa,,,MAKATI CITY,METRO MANILA,,PH,,,,,
,visa,,,MAKATI,METRO MANILA,,PH,,,,,
,visa,,,MAKATI,METRO MANILA,,PH,,,,,
,visa,,,MAKATI,METRO MANILA,,PH,,,,,
,visa,,,MAKATI,METRO MANILA,,PH,,,,,
,visa,,,MAKATI,METRO MANILA,,PH,,,,,
,visa,,,MAKATI,METRO MANILA,,PH,,,,,
,visa,,,MAKATI CITY,METRO MANILA,,PH,,,,,
,visa,,,MAKATI CITY,METRO MANILA,,PH,,,,,
,visa,,,MAKATI,METRO MANILA,,PH,,,,,
,visa,,,MAKATI CITY,METRO MANILA,,PH,,,,,
,visa,,,MAKATI,METRO MANILA,,PH,,,,,
,visa,,,MAKATI,METRO MANILA,,PH,,,,,
,visa,,,MAKATI,METRO MANILA,,PH,,,,,
,visa,,,MAKATI,METRO MANILA,,PH,,,,,
,visa,,,MAKATI,METRO MANILA,,PH,,,,,
,visa,,,MAKATI CITY,METRO MANILA,,PH,,,,,
,visa,,,MAKATI,METRO MANILA,,PH,,,,,
,visa,,,MAKATI CITY,METRO MANILA,,PH,,,,,
,visa,,,MAKATI,METRO MANILA,,PH,,,,,
,visa,,,MAKATI,METRO MANILA,,PH,,,,,
,visa,,,MAKATI,METRO MANILA,,PH,,,,,
,visa,,,MAKATI CITY,METRO MANILA,,PH,,,,,
,visa,,,MAKATI CITY,METRO MANILA,,PH,,,,,
,visa,,,MAKATI,METRO MANILA,,PH,,,,,
,visa,,,MAKATI,METRO MANILA,,PH,,,,,
,visa,,,MAKATI,METRO MANILA,,PH,,,,,
,visa,,,MAKATI,METRO MANILA,,PH,,,,,
,visa,,,MAKATI CITY,METRO MANILA,,PH,,,,,
,visa,,,MAKATI,METRO MANILA,,PH,,,,,
,visa,,,MAKATI,METRO MANILA,,PH,,,,,
,visa,,,MAKATI,METRO MANILA,,PH,,,,,
,visa,,,MAKATI,METRO MANILA,,PH,,,,,
,visa,,,MAKATI,METRO MANILA,,PH,,,,,
,visa,,,MAKATI,METRO MANILA,,PH,,,,,
,visa,,,MAKATI CITY,METRO MANILA,,PH,,,,,
,visa,,,MAKATI,METRO MANILA,,PH,,,,,
,visa,,,MAKATI,METRO MANILA,,PH,,,,,
,visa,,,MAKATI,METRO MANILA,,PH,,,,,
,visa,,,MAKATI,METRO MANILA,,PH,,,,,
,visa,,,MAKATI CITY,METRO MANILA,,PH,,,,,
,visa,,,MAKATI,METRO MANILA,,PH,,,,,
,visa,,,MAKATI,METRO MANILA,,PH,,,,,
,visa,,,MAKATI,METRO MANILA,,PH,,,,,
,visa,,,MAKATI,METRO MANILA,,PH,,,,,
,visa,,,MAKATI CITY,METRO MANILA,,PH,,,,,
,visa,,,MAKATI CITY,METRO MANILA,,PH,,,,,
,visa,,,MAKATI,METRO MANILA,,PH,,,,,
,visa,,,MAKATI,METRO MANILA,,PH,,,,,
,visa,,,MAKATI,METRO MANILA,,PH,,,,,
,visa,,,MAKATI,METRO MANILA,,PH,,,,,
,visa,,,MAKATI CITY,METRO MANILA,,PH,,,,,
,visa,,,MAKATI,METRO MANILA,,PH,,,,,
,visa,,,MAKATI CITY,METRO MANILA,,PH,,,,,
,visa,,,MAKATI,METRO MANILA,,PH,,,,,
,visa,,,MAKATI CITY,METRO MANILA,,PH,,,,,
,visa,,,MAKATI,METRO MANILA,,PH,,,,,
,visa,,,MAKATI,METRO MANILA,,PH,,,,,
,visa,,,MAKATI,METRO MANILA,,PH,,,,,
,visa,,,MAKATI,METRO MANILA,,PH,,,,,
,visa,,,MAKATI,METRO MANILA,,PH,,,,,
,visa,,,MAKATI,METRO MANILA,,PH,,,,,
,visa,,,MAKATI,METRO MANILA,,PH,,,,,
,visa,,,MAKATI,METRO MANILA,,PH,,,,,
,visa,,,MAKATI,METRO MANILA,,PH,,,,,
,visa,,,MAKATI,METRO MANILA,,PH,,,,,
,visa,,,MAKATI,METRO MANILA,,PH,,,,,
,visa,,,MAKATI,METRO MANILA,,PH,,,,,
,visa,,,MAKATI CITY,METRO MANILA,,PH,,,,,
,visa,,,MAKATI,METRO MANILA,,PH,,,,,
,visa,,,MAKATI,METRO MANILA,,PH,,,,,
,visa,,,MAKATI,METRO MANILA,,PH,,,,,
,visa,,,MAKATI,METRO MANILA,,PH,,,,,
,visa,,,TAGUIG,METRO MANILA,,PH,,,,,
,visa,,,MAKATI,METRO MANILA,,PH,,,,,
,visa,,,MAKATI,METRO MANILA,,PH,,,,,
,visa,,,MAKATI,METRO MANILA,,PH,,,,,
,visa,,,MAKATI,METRO MANILA,,PH,,,,,
,visa,,,MAKATI,METRO MANILA,,PH,,,,,
,visa,,,MAKATI,METRO MANILA,,PH,,,,,
,visa,,,MAKATI,METRO MANILA,,PH,,,,,
,visa,,,MAKATI,METRO MANILA,,PH,,,,,
,visa,,,MAKATI,METRO MANILA,,PH,,,,,
,visa,,,MAKATI,METRO MANILA,,PH,,,,,
,visa,,,MAKATI,METRO MANILA,,PH,,,,,
,visa,,,PASIG,METRO MANILA,,PH,,,,,
