Ref,Spider,Name,Address,City,State,Zipcode,Country,Phone,Website,Hours,Brand,WikiData
13751211,ally_fashion_au,Greenwood ,,North Sydney,NSW,,AU,+61 2 9170 0675,,,Ally Fashion,Q19870623
AU-1136,anytime_fitness,Anytime Fitness,,McMahons Point,NSW,,AU,+61 460 966 691,https://anytimefitness.com.au/gyms/au-1136/mcmahons-point-nsw-2060/,,Anytime Fitness,Q4778364
AU-1502,anytime_fitness,Anytime Fitness,,North Sydney,NSW,,AU,+61 456 526 879,https://anytimefitness.com.au/gyms/au-1502/north-sydney-nsw-2060/,,Anytime Fitness,Q4778364
RED0001872,australia_post_au,,,NORTH SYDNEY,NSW,,AU,,,,Australia Post,Q1142936
RED0001877,australia_post_au,,,NORTH SYDNEY,NSW,,AU,,,,Australia Post,Q1142936
RED0001880,australia_post_au,,,NORTH SYDNEY,NSW,,AU,,,,Australia Post,Q1142936
RED0001876,australia_post_au,,,NORTH SYDNEY,NSW,,AU,,,,Australia Post,Q1142936
88136707_UPL,australia_post_au,Australian Catholic Uni N Sydney Pcl Lkr,,NORTH SYDNEY,NSW,,AU,,,24/7,Australia Post,Q1142936
209170_PO,australia_post_au,ACU NORTH SYDNEY,,NORTH SYDNEY,NSW,,AU,+61 131318,,,Australia Post,Q1142936
RED0001884,australia_post_au,,,WAVERTON,NSW,,AU,,,,Australia Post,Q1142936
RED0016008,australia_post_au,,,NORTH SYDNEY,NSW,,AU,,,,Australia Post,Q1142936
241613_PO,australia_post_au,NORTH SYDNEY POST SHOP,,NORTH SYDNEY,NSW,,AU,+61 131318,,,Australia Post,Q1142936
RED0001878,australia_post_au,,,NORTH SYDNEY,NSW,,AU,,,,Australia Post,Q1142936
RED0001870,australia_post_au,,,NORTH SYDNEY,NSW,,AU,,,,Australia Post,Q1142936
RED0001875,australia_post_au,,,NORTH SYDNEY,NSW,,AU,,,,Australia Post,Q1142936
RED0001867,australia_post_au,,,NORTH SYDNEY,NSW,,AU,,,,Australia Post,Q1142936
RED0015659,australia_post_au,,,NORTH SYDNEY,NSW,,AU,,,,Australia Post,Q1142936
RED0001869,australia_post_au,,,NORTH SYDNEY,NSW,,AU,,,,Australia Post,Q1142936
RED0001881,australia_post_au,,,NORTH SYDNEY,NSW,,AU,,,,Australia Post,Q1142936
RED0001882,australia_post_au,,,NORTH SYDNEY,NSW,,AU,,,,Australia Post,Q1142936
RED0001874,australia_post_au,,,NORTH SYDNEY,NSW,,AU,,,,Australia Post,Q1142936
RED0001897,australia_post_au,,,MCMAHONS POINT,NSW,,AU,,,,Australia Post,Q1142936
239089_PO,australia_post_au,MCMAHONS POINT LPO,,MCMAHONS POINT,NSW,,AU,+61 2 9955 4627,,,Australia Post,Q1142936
RED0001883,australia_post_au,,,MCMAHONS POINT,NSW,,AU,,,,Australia Post,Q1142936
2460,bakers_delight,Bakers Delight Greenwood Plaza,,North Sydney,NSW,,AU,+61 412 577 769,https://www.bakersdelight.com.au/bakery-locator/greenwood-plaza/,Mo-Fr 05:30-18:30,Bakers Delight,Q4849261
21950269,bottlemart_au,North Sydney Hotel Bottlemart,,,NSW,,AU,+61 2 9955 1341,,,Bottlemart,Q102863175
221703,commonwealth_bank_au,North Sydney,,North Sydney,NSW,,AU,,,,Commonwealth Bank,Q285328
221701,commonwealth_bank_au,North Sydney,,North Sydney,NSW,,AU,,,,Commonwealth Bank,Q285328
221702,commonwealth_bank_au,North Sydney,,North Sydney,NSW,,AU,,,,Commonwealth Bank,Q285328
120,cue,Greenwood Plaza,"Shop 28-30, Plaza Level, Greenwood Plaza 36 Blue Street",North Sydney,NSW,,AU,+61 2 9929 9211,,Mo-Fr 09:00-17:00; Sa 10:00-17:00,Cue,Q5192554
/clubs/north-sydney-elizabeth-pl/,fitness_first_au,North Sydney Elizabeth Pl,,North Sydney,Nsw,,AU,+61 2 9640 1500,https://www.fitnessfirst.com.au/clubs/north-sydney-elizabeth-pl/,,Fitness First,Q127120
/clubs/north-sydney-walker-st/,fitness_first_au,North Sydney Walker St,,North Sydney,Nsw,,AU,+61 2 9921 3200,https://www.fitnessfirst.com.au/clubs/north-sydney-walker-st/,24/7,Fitness First,Q127120
919,guzmany_gomez,Northpoint,,North Sydney,NSW,,AU,+61 2 8004 5209,https://www.guzmanygomez.com.au/locations/Northpoint/,Mo-Fr 08:00-21:55,Guzman y Gomez,Q23019759
181,jbhifi,North Sydney,,North Sydney,NSW,,AU,+61 2 8918 6700,,Mo-We 09:00-18:00; Th 09:00-20:00; Fr 09:00-18:00; Sa-Su 10:00-17:00,JB Hi-Fi,Q3310113
41820,just_group,Peter Alexander Greenwood Plaza,"Shop P37, Greenwood Plaza, 36 Blue Street, Greenwood Plaza, North Sydney, NSW, 2060, Australia",North Sydney,NSW,,AU,+61 2 9954 3612,https://justjeans.jgl.com.au/shop/stores/peteralexander-greenwood-plaza,Mo-Fr 09:00-18:00; Sa 09:00-16:00,Peter Alexander,Q118383240
221,m_j_bale_au,Greenwood Plaza NSW,,North Sydney,NSW,,AU,+61 2 9137 4963,,Mo-Fr 09:00-17:00,M.J. Bale,Q97516243
OF2360,oporto_au,North Sydney,,North Sydney,NSW,,AU,+61 2 9922 5299,https://www.oporto.com.au/locations/north-sydney,Mo-Fr 08:00-21:00; Sa 08:30-20:00; Su 10:30-20:00,Oporto,Q4412342
OF2488,oporto_au,Greenwood Plaza,,North Sydney,NSW,,AU,+61 2 7923 5797,https://www.oporto.com.au/locations/greenwood-plaza,Mo-Sa 09:30-16:00; Su 00:01-00:02,Oporto,Q4412342
2250,sussan_au,Greenwood Plaza,,North Sydney,NSW,,AU,+61 2 8904 1481,/store-locator/nsw/greenwood-plaza-2250,Mo-We 09:00-18:00; Th 09:00-19:30; Fr 09:00-18:00; Sa 09:00-16:00,Sussan,Q28184460
PFM9,telstra_au,North Sydney,,North Sydney,NSW,,AU,+61 1800 343 884,,Mo-Fr 09:00-17:00,Telstra,Q721162
2587,terry_white_chemmart_au,TerryWhite Chemmart Northpoint,,North Sydney,NSW,,AU,+61 2 8904 1367,https://terrywhitechemmart.com.au/stores/terrywhite-chemmart-northpoint,Mo-Fr 09:00-17:00,Terry White Chemmart,Q24089773
2197,terry_white_chemmart_au,TerryWhite Chemmart Greenwood Plaza,,North Sydney,NSW,,AU,+61 2 9925 0903,https://terrywhitechemmart.com.au/stores/terrywhite-chemmart-greenwood-plaza,Mo-Fr 08:00-17:30; Sa 09:00-16:00,Terry White Chemmart,Q24089773
,visa,,,NORTH SYDNEY,NSW,,AU,,,,,
,visa,,,NORTH SYDNEY,NSW,,AU,,,,,
,visa,,,NORTH SYDNEY,NSW,,AU,,,,,
,visa,,,NORTH SYDNEY,NSW,,AU,,,,,
,visa,,,NORTH SYDNEY,NSW,,AU,,,,,
,visa,,,NORTH SYDNEY,NSW,,AU,,,,,
,visa,,,NORTH SYDNEY,NSW,,AU,,,,,
,visa,,,NORTH SYDNEY,NSW,,AU,,,,,
,visa,,,NORTH SYDNEY,NSW,,AU,,,,,
,visa,,,NORTH SYDNEY,NSW,,AU,,,,,
82b18819bbfa068b4c3bd251cd53f05e,western_union,AUSTRALIA POST,,Mcmahons Point,NSW,,AU,+61 1800 501 500,https://location.westernunion.com/au/nsw/mcmahons-point/82b18819bbfa068b4c3bd251cd53f05e,Mo-Fr 08:00-18:00; Sa 09:00-12:00,Western Union,Q861042
d4d4b78faca07d3831458f3dcdb2f4aa,western_union,SYDNEY CURRENCY SERVICES,,North Sydney,NSW,,AU,+61 1800 501 500,https://location.westernunion.com/au/nsw/north-sydney/d4d4b78faca07d3831458f3dcdb2f4aa,Mo-Fr 09:00-16:30,Western Union,Q861042
51f47eb97cd186ddb18aa5f82eb244f0,western_union,AUSTRALIA POST,,North Sydney,NSW,,AU,+61 1800 501 500,https://location.westernunion.com/au/nsw/north-sydney/51f47eb97cd186ddb18aa5f82eb244f0,Mo-Fr 09:00-17:00; Sa 09:30-13:00,Western Union,Q861042
