Ref,Spider,Name,Address,City,State,Zipcode,Country,Phone,Website,Hours,Brand,WikiData
https://vertretung.allianz.de/enrico.redlich/,allianz_de,Allianz Versicherung Enrico Redlich HAUPTVERTRETUNG,,Magdeburg,,,DE,+49 391 72657144,https://vertretung.allianz.de/enrico.redlich/,"Mo 09:00-12:00; Tu 09:00-12:00,14:00-17:00; Th 09:00-12:00,14:00-17:00; Fr 09:00-12:00",Allianz SE,Q487292
27003200,bp,Steffen Lüddecke,,Magdeburg,,,DE,+49 391 7226129,http://tankstelle.aral.de/tankstelle/27003200,24/7,BP,Q152057
9509,burgerking,Burger King,,Magdeburg,,,DE,+49 391 55553003,https://www.burgerking.de/store-locator/store/restaurant_5354,Mo-Sa 09:00-00:00; Su 10:00-00:00,Burger King,Q177054
DE2119,c_and_a,Magdeburg Flora-Park,"Olvenstedter Graseweg 37, 39128 Magdeburg",Magdeburg,,,DE,,https://www.c-and-a.com/stores/de-de/sachsen-anhalt/magdeburg/olvenstedter-graseweg-37.html,Mo 09:30-20:00; Tu 09:30-20:00; We 09:30-20:00; Th 09:30-20:00; Fr 09:30-20:00; Sa 09:30-20:00,C&A,Q701338
0070206702067,decathlon_de,Magdeburg,,Magdeburg,,,DE,+49 391 54414810,https://www.decathlon.de/store-view/filiale-magdeburg-0070206702067,Mo-Sa 09:30-20:00,Decathlon,Q509349
2902,deutsche_telekom_de,Telekom Shop Magdeburg Florapark,,Magdeburg,,,DE,+49 391 55558306,https://shopseite.telekom.de/nord-ost/magdeburg/olvenstedter-graseweg-37,Mo-Sa 09:30-20:00,Deutsche Telekom,Q9396
de:2597,dm,dm-drogerie markt,,Magdeburg,,,DE,+49 391 25443372,https://www.dm.de/store/d4c5/magdeburg/olvenstedter-graseweg-37,Mo-Sa 08:00-20:00,dm,Q266572
52.155190511.6193869,dpd_de,Die Blumenstube,,Magdeburg,,,DE,,,,DPD,Q541030
ZMGC64,enterprise,Magdeburg,,Magdeburg,,,DE,+49 391 607780,,,Enterprise Rent-A-Car,Q17085454
2760916241,gls_de,Die Blumenstube,,Magdeburg,,,DE,+49 391 2448430,,Mo-Fr 09:00-17:00; Sa 09:00-11:30,General Logistics Systems,Q46495823
2760910631,gls_de,Kim Textilien & Geschenkartikel,,Magdeburg,,,DE,+49 1590 5882968,,Mo-Fr 09:30-17:00; Sa 09:30-12:00,General Logistics Systems,Q46495823
520,ikea,Magdeburg,,Magdeburg,,,DE,,https://www.ikea.com/de/de/stores/magdeburg/,Mo-Sa 10:00-19:00,IKEA,Q54078
1288,jysk,Magdeburg,,Magdeburg,,,DE,+49 391 255830,https://jysk.de/filialen?storeId=1288,Mo-Th 10:00-18:30; Sa 09:30-18:00,JYSK,Q138913
6284,kik,KiK,,Magdeburg Neustädter Feld,,,DE,+49 391 2447675,,Mo-Fr 09:00-19:00; Sa 09:00-16:00,KiK,Q883965
6750,kik,KiK,,Magdeburg,,,DE,+49 391 2521697,,Mo-Fr 09:00-18:30; Sa 09:00-16:00,KiK,Q883965
8657,lidl_de,Neustädter Feld,,Magdeburg,,,DE,,,Mo-Fr 07:00-21:00; Sa 07:00-20:00,Lidl,Q151954
https://www.netto.de/geschaefte/magdeburg/milchweg-30/b0a72aac33884277906fbd727e228595/,netto_salling,Netto Magdeburg Milchweg 30,,Magdeburg,,,DE,,https://www.netto.de/geschaefte/magdeburg/milchweg-30/b0a72aac33884277906fbd727e228595/,Mo-Sa 08:00-20:00,Netto,Q552652
27611760_001-renault,renault,AH Gotthard König GmbH,,Magdeburg,,,DE,+49 391 2515010,,,Renault,Q6686
27611760_001-dacia,renault,AH Gotthard König GmbH,,Magdeburg,,,DE,+49 391 2515010,,,Dacia,Q27460
https://www.rossmann.de/de/filialen/sachsen-anhalt/magdeburg/olvenstedter-graseweg-37.html,rossmann_de,Rossmann Drogerie-Markt Olvenstedter Graseweg 37,,Magdeburg,,,DE,+49 391 2446998,https://www.rossmann.de/de/filialen/sachsen-anhalt/magdeburg/olvenstedter-graseweg-37.html,Mo-Sa 08:00-20:00,Rossmann,Q316004
https://www.rossmann.de/de/filialen/sachsen-anhalt/magdeburg/hanns-eisler-platz-11.html,rossmann_de,Rossmann Drogerie-Markt Hanns-Eisler-Platz 11,,Magdeburg,,,DE,+49 391 25443870,https://www.rossmann.de/de/filialen/sachsen-anhalt/magdeburg/hanns-eisler-platz-11.html,Mo-Fr 08:00-19:00; Sa 08:00-18:00,Rossmann,Q316004
33940,sparkasse_de,Sparkasse MagdeBurg Geldautomat Kannenstieg-Center,,Magdeburg,,,DE,+49 391 25060,https://www.sparkasse.de/standorte/geldautomaten/sparkasse-magde-burg-geldautomat-kannenstieg-center-33940,24/7,Sparkasse,Q13601825
34002,sparkasse_de,Sparkasse MagdeBurg SB-Center Kannenstieg-Center,,Magdeburg,,,DE,+49 391 25060,https://www.sparkasse.de/standorte/filialen/sparkasse-magde-burg-sb-center-kannenstieg-center-34002,24/7,Sparkasse,Q13601825
102281,sparkasse_de,Sparkasse MagdeBurg Geldautomat Neustädter Feld,,Magdeburg,,,DE,+49 391 25060,https://www.sparkasse.de/standorte/geldautomaten/sparkasse-magde-burg-geldautomat-neustaedter-feld-102281,Mo-Su 05:00-22:00,Sparkasse,Q13601825
33835,sparkasse_de,Sparkasse MagdeBurg SB-Center Neustädter Feld,,Magdeburg,,,DE,+49 391 25060,https://www.sparkasse.de/standorte/filialen/sparkasse-magde-burg-sb-center-neustaedter-feld-33835,Mo-Su 05:00-22:00,Sparkasse,Q13601825
34093,sparkasse_de,Sparkasse MagdeBurg Geldautomat Flora-Park,,Magdeburg,,,DE,+49 391 25060,https://www.sparkasse.de/standorte/geldautomaten/sparkasse-magde-burg-geldautomat-flora-park-34093,Mo-Fr 07:00-21:00; Sa 07:00-20:00,Sparkasse,Q13601825
33879,sparkasse_de,Sparkasse MagdeBurg SB-Center Flora-Park,,Magdeburg,,,DE,+49 391 25060,https://www.sparkasse.de/standorte/filialen/sparkasse-magde-burg-sb-center-flora-park-33879,Mo-Fr 07:00-21:00; Sa 07:00-20:00,Sparkasse,Q13601825
DE_EXT_00699,totalenergies,"ARAL TANKSTELLE MAGDEBURG, OLV",,Magdeburg,,,DE,,https://store.totalenergies.fr/en_EN/DE_EXT_00699,,Aral,Q565734
,visa,,,MAGDEBURG,,,DE,,,,,
,visa,,,MAGDEBURG,,,DE,,,,,
,visa,,,MAGDEBURG,,,DE,,,,,
https://shops.vodafone.de/magdeburg/olvenstedter-graseweg-37,vodafone_de,Vodafone-Shop,,Magdeburg,,,DE,+49 391 54496090,https://shops.vodafone.de/magdeburg/olvenstedter-graseweg-37,Mo-Sa 09:30-20:00,Vodafone,Q122141
