Ref,Spider,Name,Address,City,State,Zipcode,Country,Phone,Website,Hours,Brand,WikiData
D084,action,Moncalieri,,Moncalieri,,,IT,,https://www.action.com/it-it/negozi/moncalieri/,,Action,Q2634111
https://www.aldi.it/it/trova-il-punto-vendita/aldi-torino/aldi-moncalieri.html,aldi_sud_it,ALDI Moncalieri,,Moncalieri,,,IT,+39 800 370 370,https://www.aldi.it/it/trova-il-punto-vendita/aldi-torino/aldi-moncalieri.html,Mo-Sa 08:30-20:30; Su 09:00-20:00,ALDI,Q41171672
2712,best_in_parking,Parcheggio Centro Storico,,,,,IT,,https://www.bestinparking.com/en/it/garage/parcheggio-centro-storico,,,
4444,best_in_parking,Sosta di superficie Moncalieri,,,,,IT,,https://www.bestinparking.com/en/it/garage/sosta-di-superficie-moncalieri,,,
CKIT0082,calvin_klein,Calvin Klein Jeans,,Turin,,,IT,+39 011 440 7204,,Mo-Su 10:30-19:30,Calvin Klein,Q1068628
0070034100341,decathlon_it,"Moncalieri, Torino",,Moncalieri,,,IT,+39 011 647 4471,https://www.decathlon.it/store-view/negozio-sport-moncalieri-torino-0070034100341,Mo-Su 09:00-20:00,Decathlon,Q509349
it:46,dm,dm drogerie markt srl,,Moncalieri TO,,,IT,+39 011 1911 5487,https://www.dm-drogeriemarkt.it/store/i01m/moncalieri-to/corso-savona-69,Mo-Su 09:00-20:00,dm,Q266572
FordIJ36718  ITA,ford,AUTHOS S.P.A.,,MONCALIERI (TO),,,IT,+39 011 643 1888,www.fordauthos.it,,Ford,Q44294
FordIJ36765  ITA,ford,CARROZZERIA LAGRANGE S.N.C.,,MONCALIERI (TO),,,IT,+39 011 641840,,,Ford,Q44294
2542,lidl_it,Lidl,,Moncalieri (TO),,,IT,,,Mo-Su 08:00-21:00,Lidl,Q151954
71973263,moneygram,POSTE ITALIANE,,MONCALIERI,,,IT,118131117,,Mo-Tu 08:20-13:45; We 00:00-24:00; Th 08:20-13:45; Fr 00:00-24:00; Sa 08:20-12:45; Su 00:00-24:00,MoneyGram,Q1944412
41081318,moneygram,POSTE ITALIANE,,MONCALIERI,,,IT,+39 011 640 6893,,Mo-Fr 08:20-13:35; Sa 08:20-12:35; Su 00:00-24:00,MoneyGram,Q1944412
40896931,moneygram,POSTE ITALIANE,,MONCALIERI,,,IT,+39 011 648 6712,,Mo-Fr 08:20-19:05; Sa 08:20-12:35; Su 00:00-24:00,MoneyGram,Q1944412
41081538,moneygram,POSTE ITALIANE,,TESTONA,,,IT,+39 011 647 1170,,Mo-Fr 08:20-13:35; Sa 08:20-12:35; Su 00:00-24:00,MoneyGram,Q1944412
41081512,moneygram,POSTE ITALIANE,,SAN PIETRO MONCALIERI,,,IT,+39 011 605 3595,,Mo-Fr 08:20-13:35; Sa 08:20-12:35; Su 00:00-24:00,MoneyGram,Q1944412
41081295,moneygram,POSTE ITALIANE,,MONCALIERI,,,IT,+39 011 645196,,Mo-Fr 08:20-13:35; Sa 08:20-12:35; Su 00:00-24:00,MoneyGram,Q1944412
https://www.stroilioro.com/it_IT/gioiellerie-stroili/dettagli-negozio/?storeID=0044,stroili_oro_it,Stroili - Gioielleria Stroili Moncalieri - 0044,,MONCALIERI,,,IT,+39 011 642 3456,https://www.stroilioro.com/it_IT/gioiellerie-stroili/dettagli-negozio/?storeID=0044,Mo 10:00-20:00; Tu-Su 08:30-20:30,Stroili Oro,Q106611306
IT_EXT_01345,totalenergies,ISOLA POSTPAY,,MONCALIERI,,,IT,,https://store.totalenergies.fr/en_EN/IT_EXT_01345,,TotalErg,Q3995933
IT_EXT_01906,totalenergies,AUTOSTRADE,,MONCALIERI,,,IT,,https://store.totalenergies.fr/en_EN/IT_EXT_01906,,TotalErg,Q3995933
N170337,united_colors_of_benetton,Benetton Moncalieri,,MONCALIERI,,,IT,+39 011 640 3005,,"Tu-We 09:30-12:30,15:30-19:30; Th 00:00-19:30,09:30-24:00; Fr-Sa 09:30-12:30,15:30-19:30",United Colors of Benetton,Q817139
N171347,united_colors_of_benetton,Benetton Moncalieri,,MONCALIERI,,,IT,+39 011 642061,,"Tu-We 09:30-12:30,15:30-19:30; Th 09:30-19:30; Fr-Sa 09:30-12:30,15:30-19:30",United Colors of Benetton,Q817139
,visa,,,MONCALIERI,,,IT,,,,,
,visa,,,MONCALIERI,,,IT,,,,,
,visa,,,MONCALIERI,,,IT,,,,,
,visa,,,MONCALIERI,,,IT,,,,,
,visa,,,MONCALIERI,,,IT,,,,,
,visa,,,MONCALIERI,,,IT,,,,,
,visa,,,MONCALIERI,,,IT,,,,,
,visa,,,MONCALIERI,,,IT,,,,,
,visa,,,MONCALIERI,,,IT,,,,,
,visa,,,MONCALIERI,,,IT,,,,,
,visa,,,MONCALIERI,,,IT,,,,,
,visa,,,MONCALIERI - REGION,,,IT,,,,,
,visa,,,MONCALIERI,,,IT,,,,,
,visa,,,MONCALIERI,,,IT,,,,,
,visa,,,MONCALIERI,,,IT,,,,,
,visa,,,MONCALIERI,,,IT,,,,,
,visa,,,MONCALIERI,,,IT,,,,,
,visa,,,MONCALIERI,,,IT,,,,,
,visa,,,MONCALIERI,,,IT,,,,,
,visa,,,MONCALIERI,,,IT,,,,,
,visa,,,MONCALIERI,,,IT,,,,,
,visa,,,MONCALIERI,,,IT,,,,,
,visa,,,MONCALIERI,,,IT,,,,,
,visa,,,MONCALIERI,,,IT,,,,,
,visa,,,MONCALIERI,,,IT,,,,,
,visa,,,MONCALIERI,,,IT,,,,,
,visa,,,MONCALIERI,,,IT,,,,,
,visa,,,MONCALIERI,,,IT,,,,,
,visa,,,MONCALIERI,,,IT,,,,,
,visa,,,MONCALIERI,,,IT,,,,,
,visa,,,MONALIERI,,,IT,,,,,
,visa,,,TORINO,,,IT,,,,,
