Ref,Spider,Name,Address,City,State,Zipcode,Country,Phone,Website,Hours,Brand,WikiData
https://locations.arbys.com/co/fortcarson/1804-prussman-blvd..html,arbys_us,"Arby's Fast-Food Drive Through Near You in Fort Carson, CO",,Fort Carson,CO,,US,+1 719-226-1269,https://locations.arbys.com/co/fortcarson/1804-prussman-blvd..html,Mo-Fr 06:30-21:00; Sa 07:00-21:00; Su 10:30-20:00,Arby's,Q630866
https://locations.baskinrobbins.com/co/fort-carson/5940-ellis-st-355505-br,baskin_robbins_us,Baskin-Robbinsâ„¢,,Fort Carson,CO,,US,+1 719-800-5055,https://locations.baskinrobbins.com/co/fort-carson/5940-ellis-st-355505-br,Mo-Fr 06:00-17:00; Sa-Su 08:30-16:00,Baskin-Robbins,Q584601
121381,bluerhino,AAFES - Gate 3 Shoppette,,Colorado Springs,CO,,US,+1 719-527-4911,,,Blue Rhino,Q65681213
81910,bluerhino,AAFES - Carson B-Street Shoppette,,Fort Carson,CO,,US,+1 719-576-2108,,,Blue Rhino,Q65681213
30559,bluerhino,AAFES - Fort Carson Exchange,,Fort Carson,CO,,US,+1 719-576-4141,,,Blue Rhino,Q65681213
137119,bluerhino,AAFES -Wilderness Road Express,,Fort Carson,CO,,US,+1 719-226-0278,,,Blue Rhino,Q65681213
17302,burgerking,Burger King,,Colorado Springs,CO,,US,+1 719-527-4945,https://www.bk.com/store-locator/store/restaurant_10978,Mo-Fr 06:00-17:30; Sa 10:30-15:00,Burger King,Q177054
,credit_union_us,Security Service FCU,,Fort Carson,CO,,US,+1 800-527-7328,,Mo-Fr 09:00-05:30,,
vba_339a,department_veterans_affairs,Integrated Disability Evaluation System (IDES) at Fort Carson,,FT Carson,CO,,US,+1 800-827-1280,,,Department Veterans Affairs,Q592576
8664,dominos_pizza_us,Domino's Pizza,,Ft. Carson,CO,,US,+1 719-377-6868,https://pizza.dominos.com/colorado/ft.-carson/building-1510,Mo-Th 10:00-24:00; Fr-Sa 10:00-01:00; Su 10:00-24:00,Domino's,Q839466
356358,dunkin_us,Dunkin',,Fort Carson,CO,,US,+1 719-785-4823,https://locations.dunkindonuts.com/en/co/fort-carson/980-oconnell-blvd/356358,Mo-Fr 06:00-13:00; Sa-Su 00:00-24:00,Dunkin',Q847743
355505,dunkin_us,Dunkin',,Fort Carson,CO,,US,+1 719-800-5055,https://locations.dunkindonuts.com/en/co/fort-carson/5940-ellis-st/355505,Mo-Fr 06:00-17:00; Sa-Su 08:30-16:00,Dunkin',Q847743
E11294,enterprise,Fort Carson,,Fort Carson,CO,,US,+1 719-576-0727,,,Enterprise Rent-A-Car,Q17085454
900364,extra_space_storage,Colorado Springs Self Storage at 1505 Sheridan Ave,,Colorado Springs,CO,,US,+1 719-576-6100,https://www.extraspace.com/storage/facilities/us/colorado/colorado_springs/900364/,Mo-Fr 09:30-18:00; Sa 09:00-17:30,Extra Space Storage,Q5422162
328318,firestone_auto_care,Firestone Complete Auto Care,,Ft Carson,CO,,US,+1 719-373-6750,https://local.firestonecompleteautocare.com/colorado/ft-carson/1515-chiles-ave/,,Firestone,Q420837
https://stores.gnc.com/#24058366,gnc,GNC Fort Carson,,,CO,,US,+1 719-538-0073,https://stores.gnc.com/all-stores-colorado/fort-carson/6110-martinez-st,Mo-Sa 09:00-19:00; Su 10:00-18:00,GNC,Q4808595
7383,h_r_block,H&R Block,,Colorado Springs,CO,,US,+1 719-576-2070,https://www.hrblock.com/local-tax-offices/colorado/colorado-springs/fort-carson/7383/,,H&R Block,Q5627799
https://locations.jimmyjohns.com/co/fortcarson/sandwiches-2964.html,jimmy_johns,Jimmy John's,,Fort Carson,CO,,US,+1 719-579-7827,https://locations.jimmyjohns.com/co/fortcarson/sandwiches-2964.html,,Jimmy John's,Q1689380
https://locations.jimmyjohns.com/co/fortcarson/sandwiches-2963.html,jimmy_johns,Jimmy John's,,Fort Carson,CO,,US,+1 719-576-7827,https://locations.jimmyjohns.com/co/fortcarson/sandwiches-2963.html,,Jimmy John's,Q1689380
https://locations.kfc.com/#11247992,kfc,Chicken Nuggets Near Fort Carson,,Fort Carson,CO,,US,,https://locations.kfc.com/co/fort-carson/1533-prussman-boulevard/chickennugget,Mo-Fr 10:00-21:00; Sa-Su 10:00-19:00,KFC,Q524757
014154,penske,Plc Fort Carson,,FORT CARSON,CO,,US,+1 719-638-5795,https://www.pensketruckrental.com/locations/us/colorado/fort_carson/014154/,,Penske,Q81234570
co_colorado-springs_ne-corner-ellis-street-&-ware-street,pizza_hut_us,NE Corner Ellis Street & Ware Street,,Colorado Springs,CO,,US,+1 719-538-0100,https://locations.pizzahut.com/co/colorado-springs/ne-corner-ellis-street-&-ware-street,,Pizza Hut,Q191615
https://locations.qdoba.com/us/co/fort-carson/1804-prussman-blvd.html,qdoba,QDOBA Ft Carson,,Fort Carson,CO,,US,+1 719-226-1269,https://locations.qdoba.com/us/co/fort-carson/1804-prussman-blvd.html,Mo-Fr 07:00-21:00; Sa-Su 10:30-20:00,Qdoba,Q1363885
https://restaurants.subway.com/#14984129,subway,Subway B Street Express Foodcourt,,Ft Carson El Paso,CO,,US,+1 719-538-0944,https://restaurants.subway.com/united-states/co/ft-carson/bldg-900-mcgrath-ave,Mo-Fr 08:00-16:00,Subway,Q244457
https://restaurants.subway.com/#14899071,subway,Subway Fort Carson Post Exch,,Fort Carson El Paso,CO,,US,+1 719-576-5661,https://restaurants.subway.com/united-states/co/fort-carson/aafes-foodcourt-martinez-st,Mo-Fr 09:00-19:00; Sa 11:00-19:00; Su 11:00-18:00,Subway,Q244457
https://restaurants.subway.com/#14894448,subway,Subway AAFES Foodcourt,,Fort Carson El Paso,CO,,US,+1 719-226-0281,https://restaurants.subway.com/united-states/co/fort-carson/wilderness-rd-@-butts-rd,Mo-Fr 07:00-17:00,Subway,Q244457
https://restaurants.subway.com/#14913877,subway,Subway Granite Inn,,Colorado Springs El Paso,CO,,US,+1 719-474-3273,https://restaurants.subway.com/united-states/co/colorado-springs/1-norad-road,Mo-Fr 07:00-13:30,Subway,Q244457
https://stores.sunglasshut.com/us/co/colorado-springs/bldg-6110-martinez-st,sunglass_hut_1,Sunglass Hut at Aafes,,Colorado Springs,CO,,US,+1 719-576-4141,https://stores.sunglasshut.com/us/co/colorado-springs/bldg-6110-martinez-st,Mo-Sa 09:00-20:00; Su 09:00-18:00,Sunglass Hut,Q136311
1A07,tmobile_us,AAFES Ft Carson CO,,Ft Cason,CO,,US,,https://www.t-mobile.com/store-locator/co/ft-cason/aafes-ft-carson-co,,T-Mobile,Q3511885
5039,upsstore,Fort Carson Mini Mall,1510 Chiles Ave Ste 7,Fort Carson,CO,,US,+1 719-527-6800,https://locations.theupsstore.com/co/fort-carson/1510-chiles-ave,,UPS Store,Q7771029
1363752,usps,FORT CARSON,,COLORADO SPRINGS,CO,,US,+1 719-579-9617,,Mo-Fr 09:00-16:30; Sa 09:30-12:00,United States Postal Service,Q668687
8091300018,usps_collection_boxes,USPS COLLECTION BOX - BLUE BOX,1650 COCHRANE CIR,COLORADO SPRINGS,CO,,US,,,,United States Postal Service,Q668687
8091300015,usps_collection_boxes,USPS COLLECTION BOX - PO LOBBY,1611 MCDONALD ST,COLORADO SPRINGS,CO,,US,,,,United States Postal Service,Q668687
8091300014,usps_collection_boxes,USPS COLLECTION BOX - BLUE BOX,1611 MCDONALD ST,COLORADO SPRINGS,CO,,US,,,,United States Postal Service,Q668687
8091300013,usps_collection_boxes,USPS COLLECTION BOX - BLUE BOX,1611 MCDONALD ST,COLORADO SPRINGS,CO,,US,,,,United States Postal Service,Q668687
8091300021,usps_collection_boxes,USPS COLLECTION BOX - PO LOBBY,1611 MCDONALD ST,COLORADO SPRINGS,CO,,US,,,,United States Postal Service,Q668687
,visa,,,FT CARSON,CO,,US,,,,,
,visa,,,FORT CARSON,CO,,US,,,,,
,visa,,,FT CARSON,CO,,US,,,,,
,visa,,,FT CARSON,CO,,US,,,,,
,visa,,,FT CARSON,CO,,US,,,,,
,visa,,,FORT CARSON,CO,,US,,,,,
,visa,,,FT CARSON,CO,,US,,,,,
,visa,,,FT CARSON,CO,,US,,,,,
,visa,,,FT CARSON,CO,,US,,,,,
,visa,,,FT CARSON,CO,,US,,,,,
,visa,,,FT CARSON,CO,,US,,,,,
,visa,,,FT CARSON,CO,,US,,,,,
,visa,,,FT CARSON,CO,,US,,,,,
,visa,,,FORT CARSON,CO,,US,,,,,
95859d599eb6d0935e92032e7be7bd98,western_union,WER- FT CARSON MX,,Colorado Springs,CO,,US,+1 719-576-4141,https://location.westernunion.com/us/co/colorado-springs/95859d599eb6d0935e92032e7be7bd98,,Western Union,Q861042
