Ref,Spider,Name,Address,City,State,Zipcode,Country,Phone,Website,Hours,Brand,WikiData
https://stores.advanceautoparts.com/co/colorado-springs/2250-s-academy-blvd,advance_auto_parts_us,Advance Auto Parts,,Colorado Springs,CO,,US,+1 719-573-0056,https://stores.advanceautoparts.com/co/colorado-springs/2250-s-academy-blvd,Mo-Sa 07:30-21:00; Su 09:00-20:00,Advance Auto Parts,Q4686051
1018988,alamo,Colorado Springs Airport,,Colorado Springs,CO,,US,+1 833-336-0429,,,ALAMO,Q1429287
847,autozone_us,AutoZone Auto Parts Colorado Springs,,Colorado Springs,CO,,US,+1 719-574-9684,https://www.autozone.com/locations/co/colorado-springs/1899-s-academy-blvd.html,Mo-Sa 07:30-21:00; Su 08:00-20:00,AutoZone,Q4826087
https://www.avis.com/en/locations/us/co/colorado-springs/cos,avis,Avis U S A Colorado Springs Airport,,Colorado Springs,CO,,US,+1 719-596-2751,https://www.avis.com/en/locations/us/co/colorado-springs/cos,Mo-Su 06:00-00:00,Avis,Q791136
https://local.biglots.com/#13190755,biglots,Big Lots - Southeast Colorado Springs,,Colorado Springs,CO,,US,+1 719-591-7494,https://local.biglots.com/co/colorado-springs/1990-s-academy-blvd,Mo-Sa 09:00-21:00; Su 10:00-19:00,Big Lots,Q4905973
178141,bluerhino,Loaf N Jug #92,,Colorado Springs,CO,,US,+1 719-574-6861,,,Blue Rhino,Q65681213
178072,bluerhino,Loaf N Jug #40,,Colorado Springs,CO,,US,+1 719-597-2525,,,Blue Rhino,Q65681213
195710,bluerhino,Kum & Go #693,,Colorado Springs,CO,,US,+1 719-257-4530,,,Blue Rhino,Q65681213
178140,bluerhino,Loaf N Jug #91,,Colorado Springs,CO,,US,+1 719-570-0994,,,Blue Rhino,Q65681213
156370,bluerhino,Walgreens #4596,,Colorado Springs,CO,,US,+1 719-570-1618,,,Blue Rhino,Q65681213
241696,bluerhino,Circle K #2709222,,Colorado Springs,CO,,US,+1 719-755-0996,,,Blue Rhino,Q65681213
236833,bluerhino,Circle K #2740694,,Colorado Springs,CO,,US,+1 719-597-4428,,,Blue Rhino,Q65681213
143726,bluerhino,King Soopers #103 - Fuel Site,,Colorado Springs,CO,,US,+1 719-393-9622,,,Blue Rhino,Q65681213
82399,bluerhino,King Soopers #103,,Colorado Springs,CO,,US,+1 719-393-9622,,,Blue Rhino,Q65681213
244453,bluerhino,Maverick #5243,,Colorado Springs,CO,,US,+1 719-473-8296,,,Blue Rhino,Q65681213
178092,bluerhino,Loaf N Jug #6,,Colorado Springs,CO,,US,+1 719-392-2582,,,Blue Rhino,Q65681213
244175,bluerhino,Maverick #5359,,Colorado Springs,CO,,US,+1 720-262-7520,,,Blue Rhino,Q65681213
KR002544,bmo,Loaf N Jug,,Colorado Springs,CO,,US,,,,BMO,Q4835981
KR002309,bmo,Loaf N Jug 2,,Colorado Springs,CO,,US,,,,BMO,Q4835981
KR002548,bmo,Loaf N Jug 1,,Colorado Springs,CO,,US,,,,BMO,Q4835981
KR002342,bmo,Loaf N Jug 2,,Colorado Springs,CO,,US,,,,BMO,Q4835981
KR002545,bmo,Loaf N Jug,,Colorado Springs,CO,,US,,,,BMO,Q4835981
KR002541,bmo,Loaf N Jug,,Colorado Springs,CO,,US,,,,BMO,Q4835981
COLOCOMW,builders_firstsource_us,Colorado Springs CO Millwork,,Colorado Springs,CO,,US,+1 719-219-3723,https://www.bldr.com/location/colorado-springs-(academy-blvd)/COLOCOMW,Mo-Fr 07:00-16:00,Builders FirstSource,Q27686100
205834,captaind,Captain D's,,Colorado Springs,CO,,US,+1 719-574-0993,https://locations.captainds.com/ll/US/CO/Colorado-Springs/2495-S-Academy-Blvd,Mo-Th 10:45-21:00; Fr-Sa 10:45-22:00; Su 10:45-21:00,Captain D's,Q5036616
29731,citi,ATM 7ELEVEN-FCTI,,Colorado Spring,CO,,US,,,,Citibank,Q857063
64064,citi,ATM Loaf N Jug 2,,Colorado Springs,CO,,US,,,,Citibank,Q857063
64056,citi,ATM Loaf N Jug 1,,Colorado Springs,CO,,US,,,,Citibank,Q857063
88501,citi,ATM Walgreens,,Colorado Springs,CO,,US,,,,Citibank,Q857063
64066,citi,ATM Loaf N Jug 2,,Colorado Springs,CO,,US,,,,Citibank,Q857063
64058,citi,ATM Loaf N Jug 1,,Colorado Springs,CO,,US,,,,Citibank,Q857063
63960,citi,ATM Loaf N Jug,,Colorado Springs,CO,,US,,,,Citibank,Q857063
41126,citi,ATM Circle K,,Colorado Springs,CO,,US,,,,Citibank,Q857063
64003,citi,ATM Loaf N Jug,,Colorado Springs,CO,,US,,,,Citibank,Q857063
64002,citi,ATM Loaf N Jug,,Colorado Springs,CO,,US,,,,Citibank,Q857063
26481,citi,ATM 7ELEVEN-FCTI,,Colorado Spring,CO,,US,,,,Citibank,Q857063
30357,citi,ATM 7ELEVEN-FCTI,,Colorado Spring,CO,,US,,,,Citibank,Q857063
31044,citi,ATM 7ELEVEN-FCTI,,Colorado Sprngs,CO,,US,,,,Citibank,Q857063
40324,citi,ATM Circle K,,Colorado Springs,CO,,US,,,,Citibank,Q857063
24822,citi,ATM 7ELEVEN-FCTI,,Colorado Spring,CO,,US,,,,Citibank,Q857063
64059,citi,ATM Loaf N Jug 1,,Colorado Springs,CO,,US,,,,Citibank,Q857063
64067,citi,ATM Loaf N Jug 2,,Colorado Springs,CO,,US,,,,Citibank,Q857063
70180421,cricket_wireless,Cricket Wireless Authorized Retailer,,Colorado Springs,CO,,US,+1 719-358-9178,https://www.cricketwireless.com/stores/ll/US/CO/Colorado-Springs/2850-S-Academy-Blvd,Mo-Fr 10:00-20:00; Sa 10:00-19:00; Su 12:00-17:00,Cricket Wireless,Q5184987
30,crunch_fitness,Crunch Fitness,,Colorado Springs,CO,,US,+1 719-301-1760,https://www.crunch.com/locations/colorado-springs,,Crunch Fitness,Q5190093
6258,dominos_pizza_us,Domino's Pizza,,Colorado Springs,CO,,US,+1 719-390-5066,https://pizza.dominos.com/colorado/colorado-springs/3025-jet-wing,Mo-Th 10:00-24:00; Fr-Sa 10:00-02:00; Su 10:00-24:00,Domino's,Q839466
359575,dunkin_us,Dunkin',,Colorado Springs,CO,,US,+1 719-666-6720,https://locations.dunkindonuts.com/en/co/colorado-springs/2905-hancock-expy/359575,Mo-Fr 05:00-20:00; Sa-Su 06:00-20:00,Dunkin',Q847743
520981,eg_america_us,Loaf 'N Jug,,Colorado Springs,CO,,US,+1 719-570-1060,https://www.loafnjug.com/find-us/generic-store-page/?id=750042,,Loaf 'N Jug,Q6663398
520978,eg_america_us,Loaf 'N Jug,,Colorado Springs,CO,,US,+1 719-390-5156,https://www.loafnjug.com/find-us/generic-store-page/?id=750039,,Loaf 'N Jug,Q6663398
520979,eg_america_us,Loaf 'N Jug,,Colorado Springs,CO,,US,+1 719-597-2525,https://www.loafnjug.com/find-us/generic-store-page/?id=750040,,Loaf 'N Jug,Q6663398
520957,eg_america_us,Loaf 'N Jug,,Colorado Springs,CO,,US,+1 719-392-2582,https://www.loafnjug.com/find-us/generic-store-page/?id=750006,,Loaf 'N Jug,Q6663398
521018,eg_america_us,Loaf 'N Jug,,Colorado Springs,CO,,US,+1 719-570-0994,https://www.loafnjug.com/find-us/generic-store-page/?id=750091,,Loaf 'N Jug,Q6663398
COST61,enterprise,Colorado Springs Airport,,Colorado Springs,CO,,US,+1 719-591-6644,,,Enterprise Rent-A-Car,Q17085454
E112B2,enterprise,Colorado Springs South,,Colorado Springs,CO,,US,+1 719-419-3307,,,Enterprise Rent-A-Car,Q17085454
11843,firestone_auto_care,Firestone Complete Auto Care,,Colorado Springs,CO,,US,+1 719-373-6744,https://local.firestonecompleteautocare.com/colorado/colorado-springs/2522-s-academy-blvd/,,Firestone,Q420837
333,first_cash,First Cash Pawn,,Colorado Springs,CO,,US,+1 719-392-2300,,,First Cash Pawn,
2730,gamestop_us,Hancock Plaza,,COLORADO SPRINGS,CO,,US,+1 719-392-0035,https://www.gamestop.com/search/?store=2730,Mo-Th 12:00-20:00; Fr-Sa 10:00-21:00; Su 11:00-20:00,GameStop,Q202210
9d7891fe-1322-e411-afbc-0050568924e6,goodwill,Colorado Springs Outlet - Retail Support Center (RSC),,Colorado Springs,CO,,US,,https://www.goodwill.org/locator/location/?store=OWQ3ODkxZmUtMTMyMi1lNDExLWFmYmMtMDA1MDU2ODkyNGU2&lat=MzguNzkyMjU=&lng=LTEwNC43NTc0Ng==,,Goodwill,Q5583655
https://salons.greatclips.com/us/co/colorado-springs/2850-s-academy-blvd,greatclips,Great Clips,,Colorado Springs,CO,,US,+1 719-630-1940,https://salons.greatclips.com/us/co/colorado-springs/2850-s-academy-blvd,Mo-Fr 09:00-19:00; Sa 08:00-18:00; Su 09:00-17:00,Great Clips,Q5598967
29590,huntingtonbank,Hancock and Academy,,Colorado Springs,CO,,US,+1 719-262-7010,https://www.huntington.com/Community/branch-info?locationId=29590,Mo-Fr 09:00-17:00; Sa 09:00-12:00; Su 00:00-00:00,Huntington Bank,Q798819
7594,h_r_block,H&R Block,,Colorado Springs,CO,,US,+1 719-390-4545,https://www.hrblock.com/local-tax-offices/colorado/colorado-springs/3023-s-academy-blvd/7594/,,H&R Block,Q5627799
https://office.jacksonhewitt.com/#27578928,jackson_hewitt,Jackson Hewitt,,Colorado Springs,CO,,US,+1 719-578-9100,https://office.jacksonhewitt.com/tax-preparation-services-locations/en/co/colorado-springs/490-north-murray-blvd/18728,Mo-Fr 09:00-19:00; Sa 09:00-17:00; Su 13:00-17:00,Jackson Hewitt,Q6117132
https://locations.jimmyjohns.com/co/coloradosprings/sandwiches-3056.html,jimmy_johns,Jimmy John's,,Colorado Springs,CO,,US,+1 719-434-4646,https://locations.jimmyjohns.com/co/coloradosprings/sandwiches-3056.html,,Jimmy John's,Q1689380
https://healthy.kaiserpermanente.org/colorado/facilities/walgreens-no-4596-133781,kaiser_permanente_us,Walgreens No 4596,,Colorado Springs,CO,,US,+1 719-570-1618,https://healthy.kaiserpermanente.org/colorado/facilities/walgreens-no-4596-133781,,Kaiser Permanente,Q1721601
https://healthy.kaiserpermanente.org/colorado/facilities/quest-diagnostics-jet-wing-137157,kaiser_permanente_us,Quest Diagnostics - Jet Wing,,Colorado Springs,CO,,US,+1 719-367-4055,https://healthy.kaiserpermanente.org/colorado/facilities/quest-diagnostics-jet-wing-137157,,Kaiser Permanente,Q1721601
https://healthy.kaiserpermanente.org/colorado/facilities/concentra-urgent-care-327281,kaiser_permanente_us,Concentra Urgent Care,,Colorado Springs,CO,,US,+1 719-390-1727,https://healthy.kaiserpermanente.org/colorado/facilities/concentra-urgent-care-327281,,Kaiser Permanente,Q1721601
https://locations.kfc.com/#11248242,kfc,Chicken Nuggets Near Colorado Springs,,Colorado Springs,CO,,US,,https://locations.kfc.com/co/colorado-springs/3255-south-academy-boulevard/chickennugget,Mo-Su 10:00-23:00,KFC,Q524757
0693,kum_and_go,Kum & Go #0693,,Colorado Springs,CO,,US,+1 719-257-4530,https://www.kumandgo.com/store-locator?details=0693,24/7,Kum & Go,Q6443340
180551,little_free_library,Dorothy Day #180551 #180551 Colorado Springs CO,,Colorado Springs,CO,,US,,,,Little Free Library,Q6650101
63325,little_free_library,joansilverstein@hotmail.com #63325 Colorado Springs CO,,Colorado Springs,CO,,US,,,,Little Free Library,Q6650101
171315,little_free_library,"Frosty, The Library #171315 Colorado Springs CO",,Colorado Springs,CO,,US,,,,Little Free Library,Q6650101
COSHS,marriott,SpringHill Suites Colorado Springs South,,Colorado Springs,CO,,US,+1 719-637-0800,https://www.marriott.com/COSHS,,SpringHill Suites,Q7580351
COSSS,marriott,TownePlace Suites Colorado Springs South,,Colorado Springs,CO,,US,+1 719-638-0800,https://www.marriott.com/COSSS,,Townplace Suites by Marriott,Q7830092
1018986,national,Colorado Springs Airport,,Colorado Springs,CO,,US,+1 833-336-0428,,,NATIONAL,Q1424142
NNA5018,nissan_europe,SOUTH COLORADO SPRINGS NISSAN,,COLORADO SPRINGS,CO,,US,+1 719-550-3030,https://www.scsnissan.com,Mo-Sa 08:30-20:00,Nissan,Q20165
https://locations.oreillyauto.com/co/coloradosprings/check-engine-light-testing-2918.html,oreilly,Your Colorado Springs O'Reilly Auto Parts Store,,Colorado Springs,CO,,US,+1 719-574-2114,https://locations.oreillyauto.com/co/coloradosprings/check-engine-light-testing-2918.html,Mo-Sa 07:30-21:00; Su 08:00-20:00,O'Reilly Auto Parts,Q7071951
https://locations.oreillyauto.com/co/coloradosprings/wiper-installation-2918.html,oreilly,Your Colorado Springs O'Reilly Auto Parts Store,,Colorado Springs,CO,,US,+1 719-574-2114,https://locations.oreillyauto.com/co/coloradosprings/wiper-installation-2918.html,Mo-Sa 07:30-21:00; Su 08:00-20:00,O'Reilly Auto Parts,Q7071951
https://locations.oreillyauto.com/co/coloradosprings/battery-testing-2918.html,oreilly,Your Colorado Springs O'Reilly Auto Parts Store,,Colorado Springs,CO,,US,+1 719-574-2114,https://locations.oreillyauto.com/co/coloradosprings/battery-testing-2918.html,Mo-Sa 07:30-21:00; Su 08:00-20:00,O'Reilly Auto Parts,Q7071951
https://locations.oreillyauto.com/co/coloradosprings/autopartes-2918.html,oreilly,Tu tienda O'Reilly Auto Parts en Colorado Springs,,Colorado Springs,CO,,US,+1 719-574-2114,https://locations.oreillyauto.com/co/coloradosprings/autopartes-2918.html,Mo-Sa 07:30-21:00; Su 08:00-20:00,O'Reilly Auto Parts,Q7071951
https://www.orkin.com/locations/colorado-co/colorado-springs-pest-control/branch-888,orkin_us,Orkin,,Colorado Springs,CO,,US,+1 719-666-7339,https://www.orkin.com/locations/colorado-co/colorado-springs-pest-control/branch-888,,Orkin,Q7102943
111978,pandaexpress,Hancock & Academy,,Colorado Springs,CO,,US,+1 719-392-1868,https://www.pandaexpress.com/locations/co/colorado-springs/2960-south-academy-blvd,Mo-Su 09:30-22:30,Panda Express,Q1358690
https://locations.papamurphys.com/#15429797,papamurphys,Pizza Takeout & Delivery,,Colorado Springs,CO,,US,+1 719-392-7222,https://locations.papamurphys.com/co/colorado-springs/2460-south-academy-blvd,Mo 11:00-20:00; Tu 10:00-20:30; We-Th 11:00-20:00; Fr 10:00-20:00; Sa-Su 11:00-20:00,Papa Murphy's,Q7132349
014110,penske,Penske Colorado Springs,,COLORADO SPRINGS,CO,,US,+1 719-573-3800,https://www.pensketruckrental.com/locations/us/colorado/colorado_springs/014110/,,Penske,Q81234570
0000884360,phillips_66_conoco_76,SEI 25794,,COLORADO SPRINGS,CO,,US,+1 303-884-7395,,,Conoco,Q109341187
0000884368,phillips_66_conoco_76,SEI 27082,,COLORADO SPRINGS,CO,,US,+1 303-884-7395,,,Conoco,Q109341187
0000882067,phillips_66_conoco_76,SEI 35534,,COLORADO SPRINGS,CO,,US,+1 719-574-0249,,,Conoco,Q109341187
co_colorado-springs_7770-milton-e-proby-parkway,pizza_hut_us,7770 Milton E. Proby Parkway,,Colorado Springs,CO,,US,,https://locations.pizzahut.com/co/colorado-springs/7770-milton-e-proby-parkway,,Pizza Hut,Q191615
co_colorado-springs_2840-s-academy-blvd,pizza_hut_us,2840 S Academy Blvd,,Colorado Springs,CO,,US,+1 719-392-0550,https://locations.pizzahut.com/co/colorado-springs/2840-s-academy-blvd,,Pizza Hut,Q191615
the-paint-spot-66462,ppgpaints,THE PAINT SPOT,,"Colorado Springs, ",CO,,US,+1 719-597-0590,https://www.ppgpaints.com/store-locator/us/colorado/colorado-springs-paint-stores/the-paint-spot-66462,,PPG Paints,Q83891559
https://local.pharmacy.safeway.com/#5673380,safeway,Safeway Pharmacy,,Colorado Springs,CO,,US,+1 719-591-0831,https://local.pharmacy.safeway.com/safeway/co/colorado-springs/1425-s-murray-blvd.html,,Safeway,Q1508234
https://local.safeway.com/#5604247,safeway,Safeway,,Colorado Springs,CO,,US,+1 719-591-0880,https://local.safeway.com/safeway/co/colorado-springs/1425-s-murray-blvd.html,,Safeway,Q1508234
38633,seven_eleven_ca_us,7-Eleven Store,,Colorado Springs,CO,,US,+1 719-244-4947,https://www.7-eleven.com/locations/co/colorado-springs/1120-newport-road-38633,,7-Eleven,Q259340
35534,seven_eleven_ca_us,7-Eleven Store,,Colorado Springs,CO,,US,+1 719-574-0249,https://www.7-eleven.com/locations/co/colorado-springs/5280-astrozon-blvd-35534,,7-Eleven,Q259340
https://restaurants.subway.com/#14914447,subway,Subway,,Colorado Springs El Paso,CO,,US,+1 719-380-8321,https://restaurants.subway.com/united-states/co/colorado-springs/2499-s-academy-blvd,Mo-Sa 08:00-22:00; Su 09:00-22:00,Subway,Q244457
82766,supercuts,Market At Sand Creek,1451 S Murray Blvd,Colorado Springs,CO,,US,+1 719-622-1421,https://www.supercuts.com/checkin/82766,Mo 09:00-18:00; Th-Fr 09:00-18:00; Sa 09:00-17:00; Su 10:00-17:00,Supercuts,Q7643239
https://locations.tacobell.com/#1007617212,taco_bell,Taco Bell,,Colorado Springs,CO,,US,+1 719-301-1085,https://locations.tacobell.com/co/colorado-springs/450-runway-point.html,Mo-Su 07:00-02:00,Taco Bell,Q752941
https://locations.tacobell.com/#6144489,taco_bell,Taco Bell,,Colorado Springs,CO,,US,+1 719-390-2802,https://locations.tacobell.com/co/colorado-springs/2935-hancock-expressway.html,Mo-We 07:00-02:00; Th-Sa 07:00-03:00; Su 07:00-02:00,Taco Bell,Q752941
8675,tmobile_us,Academy Blvd & Hancock Expy,,Colorado Springs,CO,,US,+1 719-390-0787,https://www.t-mobile.com/store-locator/co/colorado-springs/academy-blvd-hancock-expy,,T-Mobile,Q3511885
021304,uhaul,A Better Self Storage South,3073 S Academy Blvd,Colorado Springs,CO,,US,+1 719-390-2870,,Tu-Fr 00:00-16:00; Sa 30:00-15:00,U-Haul,Q7862902
037220,uhaul,RD Mill Abatement Contractor,1629 Jet Wing Dr,Colorado Springs,CO,,US,+1 719-309-5407,,Mo-Fr 00:00-17:00; Sa 00:00-16:00; Su 00:00-14:00,U-Haul,Q7862902
,visa,,,COLORADO SPRINGS,CO,,US,,,,,
,visa,,,COLORADO SPRINGS,CO,,US,,,,,
,visa,,,COLORADO SPRINGS,CO,,US,,,,,
,visa,,,COLORADO SPRINGS,CO,,US,,,,,
,visa,,,COLORADO SPRINGS,CO,,US,,,,,
,visa,,,COLORADO SPRINGS,CO,,US,,,,,
,visa,,,COLORADO SPRINGS,CO,,US,,,,,
,visa,,,COLORADO SPRINGS,CO,,US,,,,,
,visa,,,COLORADO SPRINGS,CO,,US,,,,,
,visa,,,COLORADO SPRINGS,CO,,US,,,,,
,visa,,,COLORADO SPRINGS,CO,,US,,,,,
,visa,,,COLORADO SPRINGS,CO,,US,,,,,
,visa,,,COLORADO SPRINGS,CO,,US,,,,,
,visa,,,COLORADO SPRINGS,CO,,US,,,,,
,visa,,,COLORADO SPRINGS,CO,,US,,,,,
,visa,,,COLORADO SPRINGS,CO,,US,,,,,
,visa,,,COLORADO SPRINGS,CO,,US,,,,,
,visa,,,COLORADO SPRING,CO,,US,,,,,
,visa,,,COLORADO SPRINGS,CO,,US,,,,,
,visa,,,COLORADO SPRINGS,CO,,US,,,,,
,visa,,,COLORADO SPRINGS,CO,,US,,,,,
,visa,,,COLORADO SPRINGS,CO,,US,,,,,
,visa,,,COLORADO SPRINGS,CO,,US,,,,,
,visa,,,COLORADO SPRINGS,CO,,US,,,,,
,visa,,,COLORADO SPRINGS,CO,,US,,,,,
,visa,,,COLORADO SPRINGS,CO,,US,,,,,
,visa,,,COLORADO SPRINGS,CO,,US,,,,,
,visa,,,COLORADO SPRINGS,CO,,US,,,,,
,visa,,,COLORADO SPRINGS,CO,,US,,,,,
,visa,,,COLORADO SPRINGS,CO,,US,,,,,
,visa,,,COLORADO SPRINGS,CO,,US,,,,,
,visa,,,COLORADO SPRINGS,CO,,US,,,,,
,visa,,,COLORADO SPRINGS,CO,,US,,,,,
,visa,,,COLORADO SPRINGS,CO,,US,,,,,
,visa,,,COLORADO SPRINGS,CO,,US,,,,,
,visa,,,COLORADO SPRINGS,CO,,US,,,,,
,visa,,,COLORADO SPRINGS,CO,,US,,,,,
,visa,,,CO SPRINGS,CO,,US,,,,,
,visa,,,COLORADO SPRING,CO,,US,,,,,
,visa,,,COLORADO SPRINGS,CO,,US,,,,,
,visa,,,COLORADO SPRINGS,CO,,US,,,,,
,visa,,,COLORADO SPRINGS,CO,,US,,,,,
,visa,,,COLORADO SPRINGS,CO,,US,,,,,
,visa,,,COLORADO SPRINGS,CO,,US,,,,,
,visa,,,COLORADO SPRINGS,CO,,US,,,,,
,visa,,,COLORADO SPRINGS,CO,,US,,,,,
,visa,,,COLORADO SPRINGS,CO,,US,,,,,
,visa,,,COLORADO SPRINGS,CO,,US,,,,,
,visa,,,COLORADO SPRINGS,CO,,US,,,,,
,visa,,,COLORADO SPRINGS,CO,,US,,,,,
,visa,,,COLORADO SPRI,CO,,US,,,,,
,visa,,,COLORADO SPRINGS,CO,,US,,,,,
,visa,,,COLORADO SPRINGS,CO,,US,,,,,
,visa,,,COLORADO SPRINGS,CO,,US,,,,,
,visa,,,COLORADO SPRINGS,CO,,US,,,,,
,visa,,,COLORADO SPRINGS,CO,,US,,,,,
,visa,,,COLORADO SPRI,CO,,US,,,,,
,visa,,,COLORADO SPRINGS,CO,,US,,,,,
,visa,,,COLORADO SPRINGS,CO,,US,,,,,
,visa,,,COLORADO SPRINGS,CO,,US,,,,,
,visa,,,COLORADO SPRINGS,CO,,US,,,,,
,visa,,,COLORADO SPRINGS,CO,,US,,,,,
https://www.walgreens.com/locator/walgreens-1920+s+chelton+rd-colorado+springs-co-80916/id=4596,walgreens,Walgreens,,Colorado Springs,CO,,US,+1 719-570-1618,https://www.walgreens.com/locator/walgreens-1920+s+chelton+rd-colorado+springs-co-80916/id=4596,Mo-Su 07:00-22:00,Walgreens,Q1591889
https://locations.wendys.com/#9251630,wendys,"Wendy's Chelton in Colorado Springs, CO",,Colorado Springs,CO,,US,+1 719-596-4646,https://locations.wendys.com/united-states/co/colorado-springs/1910-s-academy,"Mo-Su 06:30-10:30,07:30-22:00",Wendy's,Q550258
6c8e63b4998338aaefd1f2505028bdba,western_union,7-ELEVEN #38633,,Colorado Springs,CO,,US,+1 719-244-4947,https://location.westernunion.com/us/co/colorado-springs/6c8e63b4998338aaefd1f2505028bdba,,Western Union,Q861042
2c1be9a0106dd6fb0c339ca088b54eb4,western_union,7-ELEVEN #35534,,Colorado Springs,CO,,US,+1 719-574-0249,https://location.westernunion.com/us/co/colorado-springs/2c1be9a0106dd6fb0c339ca088b54eb4,,Western Union,Q861042
3d27b6e87c1ac4d30bf07dc527ff77e6,western_union,KUM & GO #672,,Colorado Springs,CO,,US,+1 719-473-8296,https://location.westernunion.com/us/co/colorado-springs/3d27b6e87c1ac4d30bf07dc527ff77e6,,Western Union,Q861042
f3dd9e525027b2044f2a792c3ec39f5b,western_union,LOAF N JUG #40,,Colorado Springs,CO,,US,+1 719-597-2525,https://location.westernunion.com/us/co/colorado-springs/f3dd9e525027b2044f2a792c3ec39f5b,Mo-We 05:00-23:00; Th-Su 07:00-23:00,Western Union,Q861042
33389bfe2a7461cbc9bcf1473d1380f8,western_union,LOAF N JUG #91,,Colorado Springs,CO,,US,+1 719-570-0994,https://location.westernunion.com/us/co/colorado-springs/33389bfe2a7461cbc9bcf1473d1380f8,Mo-We 05:00-23:00; Th-Su 07:00-23:00,Western Union,Q861042
7b2c8007082d998a643ae678eb4d718f,western_union,LOAF N JUG #6,,Colorado Springs,CO,,US,+1 719-392-2582,https://location.westernunion.com/us/co/colorado-springs/7b2c8007082d998a643ae678eb4d718f,Mo-We 05:00-23:00; Th-Su 07:00-23:00,Western Union,Q861042
5253cd0dfa635d656a2c2ab7281316a3,western_union,WALMART #003082,,Colorado Springs,CO,,US,+1 719-244-9294,https://location.westernunion.com/us/co/colorado-springs/5253cd0dfa635d656a2c2ab7281316a3,Mo-Su 07:00-21:00,Western Union,Q861042
b5ec7bea55a5a3ed61debf3e368a4168,western_union,LOAF N JUG #42,,Colorado Springs,CO,,US,+1 719-570-1060,https://location.westernunion.com/us/co/colorado-springs/b5ec7bea55a5a3ed61debf3e368a4168,Mo-We 05:00-23:00; Th-Su 07:00-23:00,Western Union,Q861042
bf5de7960fcf0dc4583bbee75ed97d29,western_union,7-ELEVEN #25794,,Colorado Springs,CO,,US,+1 719-597-3338,https://location.westernunion.com/us/co/colorado-springs/bf5de7960fcf0dc4583bbee75ed97d29,,Western Union,Q861042
