Ref,Spider,Name,Address,City,State,Zipcode,Country,Phone,Website,Hours,Brand,WikiData
9536,baylorscottwhite,Baylor Scott & White Clinic - Horseshoe Bay,,Horseshoe Bay,TX,,US,+1 830-596-6900,https://www.bswhealth.com/locations/horseshoe-bay-clinic,Mo-Fr 07:00-17:00,Baylor Scott & White Health,Q41568258
9766,baylorscottwhite,Baylor Scott & White Specialty Clinic - Horseshoe Bay,,Horseshoe Bay,TX,,US,+1 830-598-5968,https://www.bswhealth.com/locations/horseshoe-bay-specialty-clinic,Mo-Fr 08:00-17:00,Baylor Scott & White Health,Q41568258
142165,bluerhino,Horseshoe Bay Ace Hardware #15761,,Horseshoe Bay,TX,,US,+1 830-598-8900,,,Blue Rhino,Q65681213
220122,bluerhino,TXB 67,,Cottonwood Shores,TX,,US,+1 830-693-1677,,,Blue Rhino,Q65681213
32779,citi,ATM 7ELEVEN-FCTI,,Horseshoe Bay,TX,,US,,,,Citibank,Q857063
https://www.edwardjones.com/us-en/financial-advisor/noah-vennes,edwardjones,Noah Vennes,,Horseshoe Bay,TX,,US,+1 830-637-6950,https://www.edwardjones.com/us-en/financial-advisor/noah-vennes,Mo-Th 08:30-16:30; Fr 08:30-16:00,Edward Jones,Q5343830
https://local.fedex.com/#25230183,fedex,,,Horseshoe Bay,TX,,US,+1 800-463-3339,https://local.fedex.com/en-us/tx/horseshoe-bay/mmrah,,FedEx,Q459477
https://local.fedex.com/#27766427,fedex,FedEx Authorized ShipCenter,,Horseshoe Bay,TX,,US,+1 830-637-7159,https://local.fedex.com/en-us/tx/horseshoe-bay/00tj5,,FedEx,Q459477
112289,little_free_library,The Carvajal Group #112289 Horseshoe Bay TX,,Horseshoe Bay,TX,,US,,,,Little Free Library,Q6650101
39999,little_free_library,Suzanne Graham #39999 Horseshoe Bay TX,,Horseshoe Bay,TX,,US,,,,Little Free Library,Q6650101
136030,little_free_library,Quail Point Lodge LFL #136030 Horseshoe Bay TX,,Horseshoe Bay,TX,,US,,,,Little Free Library,Q6650101
17436,seven_eleven_ca_us,7-Eleven Store,,Horseshoe Bay,TX,,US,+1 830-598-5988,https://www.7-eleven.com/locations/tx/horseshoe-bay/8000-fm-2147-west-17436,,7-Eleven,Q259340
1435796,usps,HORSESHOE BAY,,HORSESHOE BAY,TX,,US,+1 830-598-8773,,Mo-Fr 08:00-15:00; Sa 09:00-12:00,United States Postal Service,Q668687
7865700001,usps_collection_boxes,USPS COLLECTION BOX - BLUE BOX,9740 W FM 2147,MARBLE FALLS,TX,,US,,,,United States Postal Service,Q668687
7865700003,usps_collection_boxes,USPS COLLECTION BOX - PO LOBBY,9740 W FM 2147,MARBLE FALLS,TX,,US,,,,United States Postal Service,Q668687
7865700004,usps_collection_boxes,USPS COLLECTION BOX - PO LOBBY,9740 W FM 2147,MARBLE FALLS,TX,,US,,,,United States Postal Service,Q668687
7865700006,usps_collection_boxes,USPS COLLECTION BOX - PO LOBBY,9740 W FM 2147,MARBLE FALLS,TX,,US,,,,United States Postal Service,Q668687
,visa,,,COTTONWOOD SHORES,TX,,US,,,,,
,visa,,,COTTONWOOD SHORES,TX,,US,,,,,
,visa,,,COTTONWOOD SHORES,TX,,US,,,,,
,visa,,,HORSESHOE BAY,TX,,US,,,,,
,visa,,,HORSESHOE BAY,TX,,US,,,,,
,visa,,,HORSESHOE BAY,TX,,US,,,,,
,visa,,,HORSESHOE BAY,TX,,US,,,,,
,visa,,,HORSESHOE BAY,TX,,US,,,,,
