Ref,Spider,Name,Address,City,State,Zipcode,Country,Phone,Website,Hours,Brand,WikiData
RED0007854,australia_post_au,,,YELLINGBO,VIC,,AU,,,,Australia Post,Q1142936
RED0007846,australia_post_au,,,LAUNCHING PLACE,VIC,,AU,,,,Australia Post,Q1142936
RED0007853,australia_post_au,,,WOORI YALLOCK,VIC,,AU,,,,Australia Post,Q1142936
RED0007847,australia_post_au,,,LAUNCHING PLACE,VIC,,AU,,,,Australia Post,Q1142936
357376_PO,australia_post_au,LAUNCHING PLACE CPA,,LAUNCHING PLACE,VIC,,AU,+61 3 5964 7844,,,Australia Post,Q1142936
RED0007848,australia_post_au,,,LAUNCHING PLACE,VIC,,AU,,,,Australia Post,Q1142936
347821_PO,australia_post_au,WOORI YALLOCK LPO,,WOORI YALLOCK,VIC,,AU,+61 131318,,,Australia Post,Q1142936
RED0007852,australia_post_au,,,WANDIN NORTH,VIC,,AU,,,,Australia Post,Q1142936
343812_PO,australia_post_au,SEVILLE LPO,,SEVILLE,VIC,,AU,+61 3 5964 4409,,,Australia Post,Q1142936
RED0007849,australia_post_au,,,SEVILLE,VIC,,AU,,,,Australia Post,Q1142936
RED0007850,australia_post_au,,,WANDIN NORTH,VIC,,AU,,,,Australia Post,Q1142936
RED0007851,australia_post_au,,,WANDIN NORTH,VIC,,AU,,,,Australia Post,Q1142936
346570_PO,australia_post_au,WANDIN NORTH LPO,,WANDIN NORTH,VIC,,AU,+61 3 5964 4209,,,Australia Post,Q1142936
1095,bp,BP LAUNCHING PLACE NORTH,,Launching Place,VIC,,AU,,,Mo-Su 05:00-22:00,BP,Q152057
240255,cellarbrations_au,CELLARBRATIONS AT SEVILLE,,SEVILLE,VIC,,AU,+61 3 5919 2122,,Mo-We 10:00-21:00; Th-Sa 10:00-22:00; Su 10:00-21:00,Cellarbrations,Q109807592
10111685,shell,SHELL WOORI YALLOCK,,WOORI YALLOCK,VIC,,AU,+61 3 5964 7286,https://find.shell.com/au/fuel/10111685-shell-woori-yallock,,Shell,Q110716465
4177,terry_white_chemmart_au,TerryWhite Chemmart Wandin North,,Wandin North,VIC,,AU,+61 3 5964 2274,https://terrywhitechemmart.com.au/stores/terrywhite-chemmart-wandin-north,Mo-Fr 09:00-18:00; Sa 09:00-13:00,Terry White Chemmart,Q24089773
,tyrepower_au,Tyrepower Woori Yallock,,Woori Yallock,VIC,,AU,+61 3 5961 5366,https://tyrepowerwooriyallock.com.au/,,Tyrepower,Q108855867
,visa,,,WANDIN NORTH,VIC,,AU,,,,,
,visa,,,SEVILLE,VIC,,AU,,,,,
,visa,,,WOORI YALLOCK,VIC,,AU,,,,,
,visa,,,LAUNCHING PLACE,VIC,,AU,,,,,
0c1c8f3d1d3c18beaee5b16854d7ccf4,western_union,AUSTRALIA POST,,Seville,VIC,,AU,+61 1800 501 500,https://location.westernunion.com/au/vic/seville/0c1c8f3d1d3c18beaee5b16854d7ccf4,Mo-Fr 09:00-17:00; Sa 09:00-12:00,Western Union,Q861042
e4ad0c6f49c2876fe4b3357dc498c7f5,western_union,AUSTRALIA POST,,Wandin North,VIC,,AU,+61 1800 501 500,https://location.westernunion.com/au/vic/wandin-north/e4ad0c6f49c2876fe4b3357dc498c7f5,Mo-Fr 09:00-17:00; Sa 09:00-12:00,Western Union,Q861042
b544a50fa12fa564725e24c4539d0cbe,western_union,AUSTRALIA POST,,Woori Yallock,VIC,,AU,+61 1800 501 500,https://location.westernunion.com/au/vic/woori-yallock/b544a50fa12fa564725e24c4539d0cbe,Mo-Fr 09:00-17:00; Sa 09:00-12:00,Western Union,Q861042
