Ref,Spider,Name,Address,City,State,Zipcode,Country,Phone,Website,Hours,Brand,WikiData
https://storelocations.ae.com/#15906918,american_eagle_outfitters,Aerie Store Vintage Faire Mall,,Modesto,CA,,US,+1 209-702-6999,https://storelocations.ae.com/us/ca/modesto/02567-3401-dale-road.html,Mo-Sa 10:00-21:00; Su 11:00-19:00,Aerie Store,Q2842931
https://storelocations.ae.com/#1726137,american_eagle_outfitters,American Eagle Store Vintage Faire Mall,,Modesto,CA,,US,+1 209-342-6642,https://storelocations.ae.com/us/ca/modesto/00451-3401-dale-road.html,Mo-Sa 10:00-21:00; Su 11:00-19:00,American Eagle Store,Q2842931
R322,apple,Apple Vintage Faire,,Modesto,CA,,US,+1 209-342-1500,https://www.apple.com/retail/vintagefaire,Mo-Sa 10:00-21:00; Su 11:00-19:00,Apple,Q421253
https://restaurants.applebees.com/en-us/ca/modesto/3900-sisk-road-91020,applebees,Connect with this Applebee's,,Modesto,CA,,US,+1 209-545-1046,https://restaurants.applebees.com/en-us/ca/modesto/3900-sisk-road-91020,Mo-Su 11:00-01:00,Applebees,Q621532
https://stores.ashleyfurniture.com/store/us/california/modesto/9000081607/,ashley_furniture,"Ashley Store Modesto, CA",,Modesto,CA,,US,+1 209-248-6152,https://stores.ashleyfurniture.com/store/us/california/modesto/9000081607/,,Ashley Furniture,Q4805437
12193,asics_us,DICK'S Sporting Goods  - Modesto,3401 Dale Rd,Modesto,CA,,US,+1 209-578-1215,,Mo-Sa 09:00-21:00; Su 10:00-19:00,asics,Q327247
23351,asics_us,Lady Foot Locker - Modesto,3401 Dale Road,Modesto,CA,,US,+1 209-527-4501,,,asics,Q327247
1829,att_us,MODESTO STORE 619,,Modesto,CA,,US,+1 209-545-4475,https://www.att.com/stores/california/modesto/1829,Mo-Sa 10:00-20:00; Su 10:00-18:00,AT&T,Q298594
USAA26A64,audi,Audi Modesto,"4151 Mchenry Ave, Modesto, CA 95356",Modesto,CA,,US,+1 209-458-6006,,,Audi,Q23317
https://locations.auntieannes.com/#7079,auntie_annes,Auntie Anne's Vintage Faire Mall,,Modesto,CA,,US,+1 209-575-3981,https://locations.auntieannes.com/ca/modesto/3401-dale-rd,Mo-Sa 10:00-21:00; Su 11:00-19:00,Auntie Anne's,Q4822010
4432,autozone_us,AutoZone Auto Parts Modesto,,Modesto,CA,,US,+1 209-718-8046,https://www.autozone.com/locations/ca/modesto/3501-mchenry-ave.html,Mo-Sa 07:30-24:00; Su 07:30-22:00,AutoZone,Q4826087
4033,autozone_us,AutoZone Auto Parts Modesto,,Modesto,CA,,US,+1 209-545-4093,https://www.autozone.com/locations/ca/modesto/3601-pelandale-ave--ste-f.html,Mo-Sa 08:00-21:00; Su 08:00-20:00,AutoZone,Q4826087
https://www.avis.com/en/locations/us/ca/modesto/v6y,avis,Avis U S A Modesto,,Modesto,CA,,US,+1 209-491-9302,https://www.avis.com/en/locations/us/ca/modesto/v6y,Mo-Fr 07:30-16:45; Sa-Su 09:00-13:00,Avis,Q791136
https://locators.bankofamerica.com/ca/modesto/financial-centers-modesto-11578.html,bankofamerica,Bank of America Financial Center & Walk-Up ATM | Vintage Faire,,Modesto,CA,,US,+1 209-341-1712,https://locators.bankofamerica.com/ca/modesto/financial-centers-modesto-11578.html,Mo-Fr 09:00-17:00; Sa 09:00-16:00,Bank of America,Q487907
BBW00665,bathandbodyworks_us,VINTAGE FAIRE,,MODESTO,CA,,US,+1 209-491-2264,,Mo-Sa 10:00-21:00; Su 11:00-19:00,Bath & Body Works,Q810773
https://stores.bestbuy.com/ca/modesto/3900-sisk-rd-141.html,bestbuy,Best Buy Modesto,,Modesto,CA,,US,+1 209-543-0117,https://stores.bestbuy.com/ca/modesto/3900-sisk-rd-141.html,,Best Buy,Q533415
46,bevmo_us,Modesto,,Modesto,CA,,US,+1 209-545-3320,https://www.bevmo.com/stores/modesto,Mo-Th 09:00-21:00; Fr-Sa 09:00-22:00; Su 09:00-20:00,BevMo!,Q4899308
https://local.biglots.com/#13190775,biglots,Big Lots - Modesto: Salida,,Modesto,CA,,US,+1 209-545-5390,https://local.biglots.com/ca/modesto/3900-sisk-road,Mo-Sa 09:00-21:00; Su 10:00-19:00,Big Lots,Q4905973
49707,bluerhino,Lowe's #1086,,Modesto,CA,,US,+1 209-545-7676,,,Blue Rhino,Q65681213
210523,bluerhino,BP West Coast Products LLC ARCO AMPM #7120,,Modesto,CA,,US,+1 209-543-3642,,,Blue Rhino,Q65681213
154014,bluerhino,Walgreens #06355,,Modesto,CA,,US,+1 209-545-5687,,,Blue Rhino,Q65681213
226368,bluerhino,United Pacific #5265 - Cruisers Fuel Site,,Modesto,CA,,US,+1 209-545-6875,,,Blue Rhino,Q65681213
188346,bluerhino,O'Brien's Market #3 - SV #244559,,Modesto,CA,,US,+1 209-545-8100,,,Blue Rhino,Q65681213
225970,bluerhino,United Pacific #5261,,Modesto,CA,,US,+1 209-523-7415,,,Blue Rhino,Q65681213
21616_01,bmw_group,Valley BMW,,Modesto,CA,,US,+1 209-575-0269,https://www.valley-bmw.com,,BMW,Q26678
21616_50002,bmw_group,"Kruse Lucas Body & Paint, Independent Certified Collision Repair Center of Valley BMW",,Modesto,CA,,US,+1 209-577-1747,,,BMW,Q26678
https://local.buckle.com/ca/modesto/clothing-286.html,buckle_us,Modesto Men’s & Women’s Clothing,,Modesto,CA,,US,+1 209-527-5121,https://local.buckle.com/ca/modesto/clothing-286.html,Mo-Sa 10:00-21:00; Su 11:00-19:00,Buckle,Q4983306
38158,cadillac,ALFRED MATTHEWS CADILLAC,,Modesto,CA,,US,+1 209-846-3989,https://www.alfredmatthewscadillac.com,Mo-Su 09:00-18:00,Cadillac,Q27436
CA380-M1-SR2,california_closets_us,California Closets - Modesto,,Modesto,CA,,US,+1 916-774-7020,https://www.locations.californiaclosets.com/california-closets-modesto-7292fd65235b,Mo-Fr 10:00-14:00,California Closets,Q5020325
1348,carinos,Modesto,3401 Dale Road Bldg. C,Modesto,CA,,US,+1 209-578-9432,https://www.carinos.com/locations/modesto/,Mo-Th 12:00-21:00; Fr 11:30-22:00; Sa 12:00-22:00; Su 12:00-21:00,Carino's Italian,Q5039637
1034,carpet_one_floor_and_home_us,Rays Carpet One Floor & Home,,Modesto,CA,,US,+1 209-577-5642,https://www.rayscarpetonemodesto.com/,,Carpet One Floor & Home,Q121335910
//locations.carters.com/ca/modesto/carters-modesto-ca,carters_us,Carter's Modesto,,Modesto,CA,,US,+1 209-578-9651,https://locations.carters.com/ca/modesto/carters-modesto-ca,Mo-Sa 10:00-21:00; Su 11:00-19:00,Carter's,Q5047083
2038290,chase_us,Pelandale and Chapman - New branch,,Modesto,CA,,US,+1 209-543-1707,https://locator.chase.com/ca/modesto/3601-pelandale-ave,Mo-Fr 09:00-17:00; Sa 09:00-13:00,Chase,Q524629
06447,chevrolet,AMERICAN CHEVROLET,,Modesto,CA,,US,+1 209-575-1606,https://www.americanchevrolet.com,Mo-Sa 09:00-19:00; Su 10:00-18:00,Chevrolet,Q29570
359777,chevron,Chevron Station #359777,3037 SISK ROAD,MODESTO,CA,,US,+1 209-549-2346,,,Chevron,Q319642
383270,chevron,Chevron Station #383270,2999 GREWAL PKWY,MODESTO,CA,,US,,,,Chevron,Q319642
001.005.0745,chilis,Modesto,,Modesto,CA,,US,+1 209-526-5985,https://www.chilis.com/locations/us/california/modesto/modesto/,Mo-Th 11:00-22:00; Fr-Sa 11:00-23:00; Su 11:00-22:00,Chili's,Q1072948
ca_modesto_3401-dale-rd,chipotle, ,,Modesto,CA,,US,+1 209-550-0540,https://locations.chipotle.com/ca/modesto/3401-dale-rd,,Chipotle,Q465751
82475,citi,ATM Target,,Modesto,CA,,US,,,,Citibank,Q857063
46112,citi,ATM Costco,,Modesto,CA,,US,,,,Citibank,Q857063
85056,citi,ATM TRI COUNTIES BANK,,Modesto,CA,,US,,,,Citibank,Q857063
90990,citi,ATM Walgreens,,Modesto,CA,,US,,,,Citibank,Q857063
39715,citi,ATM Chevron,,Modesto,CA,,US,,,,Citibank,Q857063
modesto/5990,claires,Shop Ear Piercings & Jewelry at Vintage Faire Mall,,MODESTO,CA,,US,+1 209-544-6884,https://stores.claires.com/us/ca/modesto/5990.html,Mo-Sa 10:00-21:00; Su 11:00-18:00,Claire's,Q2974996
20235,coldstone_creamery,Cold Stone Creamery,,Modesto,CA,,US,+1 209-521-4273,https://www.coldstonecreamery.com/stores/20235,,Cold Stone Creamery,Q1094923
20325,coldstone_creamery,Cold Stone Creamery,,Modesto,CA,,US,+1 209-577-5500,https://www.coldstonecreamery.com/stores/20325,,Cold Stone Creamery,Q1094923
20182,coldstone_creamery,Cold Stone Creamery,,Modesto,CA,,US,+1 209-543-1751,https://www.coldstonecreamery.com/stores/20182,,Cold Stone Creamery,Q1094923
ca_modesto_3801-pelandale-avenue,costplus_worldmarket,World Market Modesto,,Modesto,CA,,US,+1 209-545-4411,https://stores.worldmarket.com/ca/modesto/3801-pelandale-avenue.html,Mo-Sa 10:00-20:00; Su 11:00-18:00,Cost Plus World Market,Q5174750
80506100,cricket_wireless,Cricket Wireless Authorized Retailer,,Modesto,CA,,US,+1 209-567-2470,https://www.cricketwireless.com/stores,Mo-Sa 10:00-18:00; Su 11:00-17:00,Cricket Wireless,Q5184987
16357,cvs_us,CVS Pharmacy,,Modesto,CA,,US,+1 209-545-3325,https://www.cvs.com/store-locator/modesto-ca-pharmacies/3900-sisk-rd-modesto-ca-95356/storeid=16357,"Mo-Fr 10:00-13:30,14:00-18:00; Sa 09:00-13:30,14:00-17:00; Su 11:00-13:30,14:00-17:00",CVS Pharmacy,Q2078880
190,daniels_jewelers_us,Vintage Faire,,Modesto,CA,,US,+1 209-289-2001,,Mo-Sa 10:00-20:00; Su 11:00-18:00,Daniel's Jewelers,Q120763875
1382,dickssportinggoods,"DICK'S Sporting Goods Store in Modesto, CA | 1382",,Modesto,CA,,US,+1 209-661-2101,https://stores.dickssportinggoods.com/ca/modesto/1382/,Mo-Sa 09:00-21:00; Su 10:00-19:00,Dick's Sporting Goods,Q5272601
8688,dominos_pizza_us,Domino's Pizza,,Modesto,CA,,US,+1 209-593-2121,https://pizza.dominos.com/california/modesto/1419-standiford-avenue-suite-1,Mo-Th 10:00-24:00; Fr-Sa 10:00-01:00; Su 10:00-24:00,Domino's,Q839466
Vintage Commons,dsw,DSW,,Modesto,CA,,US,+1 209-846-2682,https://stores.dsw.com/usa/ca/modesto/dsw-designer-shoe-warehouse-vintage-commons.html,Mo-Sa 10:00-20:00; Su 11:00-18:00,Designer Shoe Warehouse,Q5206207
710009,electrify_america,Modesto MOB,,Modesto,CA,,US,,,,Electrify America,Q59773555
E13013,enterprise,Modesto,,Modesto,CA,,US,+1 209-577-4700,,,Enterprise Rent-A-Car,Q17085454
3401-dale-rd,express,Vintage Faire,,Modesto,CA,,US,+1 209-575-4399,https://stores.express.com/us/ca/modesto/3401-dale-rd,Mo-Sa 10:00-21:00; Su 11:00-19:00,Express,Q1384784
15946,firestone_auto_care,Firestone Complete Auto Care,,Modesto,CA,,US,+1 209-846-3845,https://local.firestonecompleteautocare.com/california/modesto/3230-dale-rd/,,Firestone,Q420837
https://locations.fivebelow.com/ca/modesto/3250-dale-road,five_below,Five Below Vintage Plaza,,Modesto,CA,,US,,https://locations.fivebelow.com/ca/modesto/3250-dale-road,Mo-Sa 10:00-20:00; Su 11:00-18:00,Five Below,Q5455836
https://stores.footlocker.com/ca/modesto/3401-dale-road-7140.html,footlocker,"Foot Locker in Modesto: Modesto, California | Approved | Own It",,Modesto,CA,,US,+1 209-527-6398,https://stores.footlocker.com/ca/modesto/3401-dale-road-7140.html,Mo-Sa 10:00-21:00; Su 11:00-19:00,Foot Locker,Q63335
https://www.goldencorral.com/locations/location-detail/2593/golden-corral-mchenry-ave/,golden_corral,"Golden Corral 2593, Modesto, CA",,Modesto,CA,,US,+1 209-238-0885,https://www.goldencorral.com/locations/location-detail/2593/golden-corral-mchenry-ave/,,Golden Corral,Q4039560
b338b59f-458a-e111-8dde-005056934050,goodwill,3900 Sisk Rd.,,Modesto,CA,,US,+1 209-545-8410,https://www.goodwill.org/locator/location/?store=YjMzOGI1OWYtNDU4YS1lMTExLThkZGUtMDA1MDU2OTM0MDUw&lat=MzcuNjk0NzY=&lng=LTEyMS4wNjQ5NQ==,,Goodwill,Q5583655
https://salons.greatclips.com/us/ca/modesto/4120-dale-rd,greatclips,Great Clips,,Modesto,CA,,US,+1 209-543-3867,https://salons.greatclips.com/us/ca/modesto/4120-dale-rd,Mo-Fr 09:00-19:00; Sa 09:00-18:00; Su 10:00-17:00,Great Clips,Q5598967
9925686,hugo_boss,BOSS Menswear Shop,,MODESTO,CA,,US,,https://www.hugoboss.com/us/storedetail?storeid=9925686,,Hugo Boss,Q491627
4016,h_r_block,H&R Block,,Modesto,CA,,US,+1 209-543-8290,https://www.hrblock.com/local-tax-offices/california/modesto/3801-pelandale-ave/4016/,,H&R Block,Q5627799
90,innout,Modesto,,Modesto,CA,,US,,http://locations.in-n-out.com/90,,In-N-Out Burger,Q1205312
https://office.jacksonhewitt.com/#27579271,jackson_hewitt,Jackson Hewitt,,Modesto,CA,,US,+1 209-409-3389,https://office.jacksonhewitt.com/tax-preparation-services-locations/en/ca/modesto/3848-mchenry-avenue/55710,Mo-Sa 11:00-19:00; Su 12:00-16:00,Jackson Hewitt,Q6117132
https://locations.jamba.com/#493-Jamba,jambajuice,Jamba Northpointe Shopping Center,,Modesto,CA,,US,+1 209-545-4816,https://locations.jamba.com/ca/modesto/3801-pelandale-ave,Mo-Su 08:00-20:00,Jamba Juice,Q3088784
https://locations.jamba.com/#2804298968313578157,jambajuice,Jamba Vintage Faire Mall,,Modesto,CA,,US,+1 209-312-1573,https://locations.jamba.com/ca/modesto/3401-dale-rd,Mo-Sa 10:00-21:00; Su 11:00-19:00,Jamba Juice,Q3088784
https://stores.jdsports.com/ca/modesto/vintage-faire-mall.html,jdsports_us,JD Sports,,Modesto,CA,,US,+1 209-568-4268,https://stores.jdsports.com/ca/modesto/vintage-faire-mall.html,Mo-Sa 10:00-20:00; Su 11:00-18:00,JD Sports,Q6108019
https://healthy.kaiserpermanente.org/northern-california/facilities/vintage-faire-nursing-and-rehabilitation-center-133613,kaiser_permanente_us,Vintage Faire Nursing and Rehabilitation Center,,Modesto,CA,,US,+1 209-521-2094,https://healthy.kaiserpermanente.org/northern-california/facilities/vintage-faire-nursing-and-rehabilitation-center-133613,,Kaiser Permanente,Q1721601
https://healthy.kaiserpermanente.org/northern-california/facilities/modesto-medical-center-and-medical-offices-100301,kaiser_permanente_us,Modesto Medical Center and Medical Offices,,Modesto,CA,,US,+1 209-735-5000,https://healthy.kaiserpermanente.org/northern-california/facilities/modesto-medical-center-and-medical-offices-100301,,Kaiser Permanente,Q1721601
https://healthy.kaiserpermanente.org/northern-california/facilities/koinonia-foster-homes-inc-enhanced-care-management-ecm-173249,kaiser_permanente_us,"Koinonia Foster Homes, Inc - Enhanced Care Management (ECM)",,Modesto,CA,,US,+1 916-652-5802,https://healthy.kaiserpermanente.org/northern-california/facilities/koinonia-foster-homes-inc-enhanced-care-management-ecm-173249,,Kaiser Permanente,Q1721601
https://healthy.kaiserpermanente.org/northern-california/facilities/enterprise-mental-health-and-wellness-center-340029,kaiser_permanente_us,Enterprise Mental Health and Wellness Center,,Modesto,CA,,US,+1 209-735-5000,https://healthy.kaiserpermanente.org/northern-california/facilities/enterprise-mental-health-and-wellness-center-340029,,Kaiser Permanente,Q1721601
https://healthy.kaiserpermanente.org/northern-california/facilities/davita-archway-dialysis-of-modesto-339885,kaiser_permanente_us,DaVita Archway Dialysis of Modesto,,Modesto,CA,,US,+1 866-544-6741,https://healthy.kaiserpermanente.org/northern-california/facilities/davita-archway-dialysis-of-modesto-339885,,Kaiser Permanente,Q1721601
https://healthy.kaiserpermanente.org/northern-california/facilities/dale-road-medical-offices-100381,kaiser_permanente_us,Dale Road Medical Offices,,Modesto,CA,,US,+1 209-735-5000,https://healthy.kaiserpermanente.org/northern-california/facilities/dale-road-medical-offices-100381,,Kaiser Permanente,Q1721601
https://healthy.kaiserpermanente.org/northern-california/facilities/bangs-avenue-medical-offices-100383,kaiser_permanente_us,Bangs Avenue Medical Offices,,Modesto,CA,,US,+1 209-735-5000,https://healthy.kaiserpermanente.org/northern-california/facilities/bangs-avenue-medical-offices-100383,,Kaiser Permanente,Q1721601
https://locations.kfc.com/#11246446,kfc,Chicken Nuggets Near Modesto,,Modesto,CA,,US,,https://locations.kfc.com/ca/modesto/3250-dale-road/chickennugget,Mo-Su 10:00-22:00,KFC,Q524757
130527,little_free_library,Salida Rotary - Oneto #130527 Modesto CA,,Modesto,CA,,US,,,,Little Free Library,Q6650101
20805,little_free_library,Mary James #20805 Modesto CA,,Modesto,CA,,US,,,,Little Free Library,Q6650101
130523,little_free_library,Salida Rotary - Galicia #130523 Modesto CA,,Modesto,CA,,US,,,,Little Free Library,Q6650101
69997,little_free_library,CalPrime Realty #69997 Modesto CA,,Modesto,CA,,US,,,,Little Free Library,Q6650101
130526,little_free_library,Salida Rotary - Patino #130526 Modesto CA,,Modesto,CA,,US,,,,Little Free Library,Q6650101
161263,little_free_library,Little Cottage Library #161263 Modesto CA,,Modesto,CA,,US,,,,Little Free Library,Q6650101
82767,little_free_library,Bloomfield Neighborhood Library #82767 Modesto CA,,Modesto,CA,,US,,,,Little Free Library,Q6650101
107101,little_free_library,Salida Rotary - Knaus #107101 Modesto CA,,Modesto,CA,,US,,,,Little Free Library,Q6650101
4308,little_free_library,Christine Kersten Stewart #4308 Modesto CA,,Modesto,CA,,US,,,,Little Free Library,Q6650101
SJCCN,marriott,Courtyard Modesto North,,Modesto,CA,,US,+1 209-496-9453,https://www.marriott.com/SJCCN,,Courtyard by Marriott,Q1053170
MODMR,marriott,Residence Inn Modesto North,,Modesto,CA,,US,+1 209-382-8850,https://www.marriott.com/MODMR,,Residence Inn by Marriott,Q7315394
17977,mattress_firm_us,Mattress Firm Modesto,,Modesto,CA,,US,+1 209-543-1300,https://www.mattressfirm.com/en-us/stores/ca/modesto/504019/,,Mattress Firm,Q6791878
17561,mattress_firm_us,Mattress Firm Modesto II,,Modesto,CA,,US,+1 209-543-9644,https://www.mattressfirm.com/en-us/stores/ca/modesto/504003/,,Mattress Firm,Q6791878
71482851,moneygram,WAL-MART - #5710,,MODESTO,CA,,US,+1 209-342-0949,,Mo-Su 07:00-21:00,MoneyGram,Q1944412
65671076,moneygram,SAVE MART - #95,,MODESTO,CA,,US,+1 209-545-1260,,Mo-Su 09:00-21:00,MoneyGram,Q1944412
NNA2731,nissan_europe,CENTRAL VALLEY NISSAN,,MODESTO,CA,,US,+1 209-526-3320,https://www.centralvalleynissan.com,Mo 09:00-20:00; Tu-Sa 08:30-20:00; Su 09:00-19:00,Nissan,Q20165
https://locations.oreillyauto.com/ca/modesto/check-engine-light-testing-2922.html,oreilly,Your Modesto O'Reilly Auto Parts Store,,Modesto,CA,,US,+1 209-527-1480,https://locations.oreillyauto.com/ca/modesto/check-engine-light-testing-2922.html,Mo-Sa 07:30-22:00; Su 08:00-21:00,O'Reilly Auto Parts,Q7071951
https://locations.oreillyauto.com/ca/modesto/wiper-installation-2922.html,oreilly,Your Modesto O'Reilly Auto Parts Store,,Modesto,CA,,US,+1 209-527-1480,https://locations.oreillyauto.com/ca/modesto/wiper-installation-2922.html,Mo-Sa 07:30-22:00; Su 08:00-21:00,O'Reilly Auto Parts,Q7071951
https://locations.oreillyauto.com/ca/modesto/battery-testing-2922.html,oreilly,Your Modesto O'Reilly Auto Parts Store,,Modesto,CA,,US,+1 209-527-1480,https://locations.oreillyauto.com/ca/modesto/battery-testing-2922.html,Mo-Sa 07:30-22:00; Su 08:00-21:00,O'Reilly Auto Parts,Q7071951
https://locations.oreillyauto.com/ca/modesto/autopartes-2922.html,oreilly,Tu tienda O'Reilly Auto Parts en Modesto,,Modesto,CA,,US,+1 209-527-1480,https://locations.oreillyauto.com/ca/modesto/autopartes-2922.html,Mo-Sa 07:30-22:00; Su 08:00-21:00,O'Reilly Auto Parts,Q7071951
//locations.oshkosh.com/ca/modesto/oshkosh-modesto-ca,oshkosh_us,Oshkosh B'gosh Modesto,,Modesto,CA,,US,+1 209-578-9651,https://locations.oshkosh.com/ca/modesto/oshkosh-modesto-ca,Mo-Sa 10:00-21:00; Su 11:00-19:00,OshKosh B'gosh,Q1417347
111424,pandaexpress,Chapman & Pelandale,,Modesto,CA,,US,+1 209-543-8389,https://www.pandaexpress.com/locations/ca/modesto/3801-pelandale-dr-suite-a-3,Mo-Su 10:00-21:00,Panda Express,Q1358690
112225,pandaexpress,Vintage Faire Mall,,Modesto,CA,,US,+1 209-522-2259,https://www.pandaexpress.com/locations/ca/modesto/3401-dale-rd,Mo-Sa 10:00-21:00; Su 11:00-19:00,Panda Express,Q1358690
use29a38eb,pandora,About Pandora Jewelry at Pandora @ Vintage Faire,,Modesto,CA,,US,+1 209-524-4022,https://stores.pandora.net/ca/modesto/pandora-jewelry-use29a38eb.html,Mo-Sa 10:00-20:00; Su 11:00-19:00,Pandora,Q2241604
0000896146,phillips_66_conoco_76,CRUISERS 10,,MODESTO,CA,,US,+1 209-523-7415,,,U76,Q1658320
0000896156,phillips_66_conoco_76,CRUISERS 22,,MODESTO,CA,,US,+1 209-545-6875,,,U76,Q1658320
ca_modesto_3900-sisk-road,pizza_hut_us,3900 Sisk Road,,Modesto,CA,,US,,https://locations.pizzahut.com/ca/modesto/3900-sisk-road,,Pizza Hut,Q191615
1438,ross_dress_for_less_us,N Modesto,,Modesto,CA,,US,+1 209-527-9843,,Mo-Th 09:30-22:00; Fr-Sa 09:00-22:00; Su 10:00-22:00,Ross Dress for Less,Q3442791
1621,ross_dress_for_less_us,Modesto,,Modesto,CA,,US,+1 209-543-3786,,Mo-Th 09:00-22:00; Fr-Sa 09:00-22:30; Su 09:30-21:30,Ross Dress for Less,Q3442791
2331,round_table_pizza,Round Table Pizza McHenry Ave,,Modesto ,CA,,US,+1 209-526-9904,https://ordering.roundtablepizza.com/site/rtp1174,,Round Table Pizza,Q7371139
2335,round_table_pizza,Round Table Pizza Pelandale Ave,,Modesto ,CA,,US,+1 209-702-0855,https://ordering.roundtablepizza.com/site/rtp1178,,Round Table Pizza,Q7371139
https://stores.saloncentric.com/#29173744,salon_centric_us,SalonCentric,,,CA,,US,+1 209-543-8530,https://stores.saloncentric.com/ca/modesto/5923,Mo 08:00-18:30; Tu-Fr 08:00-18:00; Sa 08:30-16:00,SalonCentric,Q124339481
549,sizzler_us,Sizzler,,Modesto,CA,,US,+1 209-578-5099,https://sizzler.com/locations/sizzler-modesto/,Mo-Su 11:00-21:00,Sizzler,Q1848822
13006282621557485250,sleep_number_us,Sleep Number,,Modesto,CA,,US,,https://www.sleepnumber.com/stores/ca/modesto/3900-sisk-rd,Mo-Su 11:00-20:00,Sleep Number,Q7447640
https://restaurants.subway.com/#14901136,subway,Subway,,Modesto Stanislaus,CA,,US,+1 209-521-4500,https://restaurants.subway.com/united-states/ca/modesto/3501-mchenry-blvd,Mo-Fr 08:00-22:00; Sa-Su 09:00-22:00,Subway,Q244457
https://restaurants.subway.com/#14900600,subway,Subway The Wood Colony Plaza,,Modesto Stanislaus,CA,,US,+1 209-545-9403,https://restaurants.subway.com/united-states/ca/modesto/3900-pelendale-ave,Mo-Su 08:00-21:00,Subway,Q244457
https://stores.sunglasshut.com/us/ca/modesto/3401-dale-rd-4995,sunglass_hut_1,Sunglass Hut at Macy's,,Modesto,CA,,US,+1 209-576-1427,https://stores.sunglasshut.com/us/ca/modesto/3401-dale-rd-4995,Mo-Sa 10:00-21:00; Su 11:00-19:00,Sunglass Hut,Q136311
https://stores.sunglasshut.com/us/ca/modesto/479-vintage-faire-mall,sunglass_hut_1,Sunglass Hut,,Modesto,CA,,US,+1 209-491-0900,https://stores.sunglasshut.com/us/ca/modesto/479-vintage-faire-mall,Mo-Sa 10:00-21:00; Su 11:00-19:00,Sunglass Hut,Q136311
82580,supercuts,Northpointe Center,3801 Pelandale Ave Ste A-9,Modesto,CA,,US,+1 209-545-7986,https://www.supercuts.com/checkin/82580,Mo-Sa 09:00-19:00; Su 09:00-17:00,Supercuts,Q7643239
82582,supercuts,Modesto Shopping Center,3501 Mchenry Ave Ste B4,Modesto,CA,,US,+1 209-523-0744,https://www.supercuts.com/checkin/82582,Mo-Fr 09:00-20:00; Sa 08:00-19:00; Su 09:00-18:00,Supercuts,Q7643239
https://www.sutterhealth.org/find-location/facility/dale-road-care-center-lab,sutter_health,Dale Road Care Center Lab,,Modesto,CA,,US,+1 209-522-0146,https://www.sutterhealth.org/find-location/facility/dale-road-care-center-lab,Mo-Fr 06:30-14:00,Sutter Health,Q7650154
https://www.sutterhealth.org/find-location/facility/dale-road-care-center-imaging,sutter_health,Dale Road Care Center Imaging,,Modesto,CA,,US,+1 209-550-4744,https://www.sutterhealth.org/find-location/facility/dale-road-care-center-imaging,Mo-Fr 07:30-16:30,Sutter Health,Q7650154
https://www.sutterhealth.org/find-location/facility/dale-road-care-center,sutter_health,Dale Road Care Center,,Modesto,CA,,US,+1 209-522-0146,https://www.sutterhealth.org/find-location/facility/dale-road-care-center,Mo-Fr 08:00-17:00,Sutter Health,Q7650154
https://locations.tacobell.com/#6143302,taco_bell,Taco Bell,,Modesto,CA,,US,+1 209-572-0314,https://locations.tacobell.com/ca/modesto/4911-mchenry-avenue.html,Mo-Th 07:00-24:00; Fr-Sa 07:00-03:00; Su 07:00-01:00,Taco Bell,Q752941
https://locations.tacobell.com/#6143840,taco_bell,Taco Bell,,Modesto,CA,,US,+1 209-545-3915,https://locations.tacobell.com/ca/modesto/3900-pelandale-ave.html,Mo-Su 07:00-03:00,Taco Bell,Q752941
0118,tillys,Vintage Faire,,Modesto,CA,,US,+1 209-550-0518,,Mo 11:00-07:00; Tu-Sa 10:00-09:00; Su 11:00-07:00,Tillys,Q7802889
0819,tjx,Modesto,3900 Sisk Road ,Modesto,CA,,US,+1 209-543-6195,,Mo-Sa 09:30-21:30; Su 10:00-20:00,TJ Maxx,Q10860683
2SCJ,tmobile_us,Dale Rd - Trader Joe's Center,,Modesto,CA,,US,+1 209-523-1586,https://www.t-mobile.com/store-locator/ca/modesto/dale-rd-trader-joes-center,,T-Mobile,Q3511885
8307,tmobile_us,Vintage Faire,,Modesto,CA,,US,+1 209-521-2362,https://www.t-mobile.com/store-locator/ca/modesto/vintage-faire,,T-Mobile,Q3511885
2C76,tmobile_us,Costco Modesto CA,,Modesto,CA,,US,+1 209-676-7600,https://www.t-mobile.com/store-locator/ca/modesto/costco-modesto-ca,,T-Mobile,Q3511885
9,trader_joes_us,Trader Joe's Modesto (9),,Modesto,CA,,US,+1 209-491-0445,https://locations.traderjoes.com/ca/modesto/9/,Mo-Su 08:00-21:00,Trader Joe's,Q688825
050530,uhaul,CenCal,5901 McHenry Av,Modesto,CA,,US,+1 209-222-3949,,Tu-Sa 00:00-16:00,U-Haul,Q7862902
710035,uhaul,U-Haul of Modesto,4131 McHenry Av,Modesto,CA,,US,+1 209-576-8249,,Mo-Th 00:00-19:00; Fr 00:00-20:00; Sa 00:00-19:00; Su 00:00-17:00,U-Haul,Q7862902
040433,uhaul,Security Public Storage Modesto McHenry,3941 McHenry Av,Modesto,CA,,US,+1 209-538-2022,,Mo-Sa 30:00-17:00; Su 00:00-16:00,U-Haul,Q7862902
USA162,vans,Vans Store - VINTAGE FAIR,,Modesto,CA,,US,+1 209-579-0180,https://www.vans.com/en-us/stores/ca/modesto/usa162,Mo-Th 11:00-19:00; Fr-Sa 11:00-20:00; Su 11:00-18:00,Vans,Q1135366
R00000002009,verizon_us,Modesto Pelandale,,Modesto,CA,,US,+1 209-543-6500,https://www.verizon.com/stores/details/california/modesto/modesto-pelandale-310581/,Mo-Sa 09:00-19:00; Su 10:00-17:00,Verizon,Q919641
A00000252149,verizon_us,Victra Modesto Vintage Faire Mall,,Modesto,CA,,US,+1 209-900-0015,https://www.verizon.com/stores/details/california/modesto/victra-modesto-vintage-faire-1808422/,Mo-Sa 10:00-21:00; Su 11:00-19:00,Verizon,Q919641
,visa,,,MODESTO,CA,,US,,,,,
,visa,,,MODESTO,CA,,US,,,,,
,visa,,,MODESTO,CA,,US,,,,,
,visa,,,MODESTO,CA,,US,,,,,
,visa,,,MODESTO,CA,,US,,,,,
,visa,,,MEDESTO,CA,,US,,,,,
,visa,,,MODESTO,CA,,US,,,,,
,visa,,,MODESTO,CA,,US,,,,,
,visa,,,MODESTO,CA,,US,,,,,
,visa,,,MODESTO,CA,,US,,,,,
,visa,,,MODESTO,CA,,US,,,,,
,visa,,,MODESTO,CA,,US,,,,,
,visa,,,MODESTO,CA,,US,,,,,
,visa,,,MODESTO,CA,,US,,,,,
,visa,,,MODESTO,CA,,US,,,,,
,visa,,,MODESTO,CA,,US,,,,,
,visa,,,MODESTO,CA,,US,,,,,
,visa,,,MODESTO,CA,,US,,,,,
,visa,,,MODESTO,CA,,US,,,,,
,visa,,,MODESTO,CA,,US,,,,,
,visa,,,MODESTO,CA,,US,,,,,
,visa,,,MODESTO,CA,,US,,,,,
,visa,,,MODESTO,CA,,US,,,,,
,visa,,,MODESTO,CA,,US,,,,,
,visa,,,MODESTO,CA,,US,,,,,
,visa,,,MODESTO,CA,,US,,,,,
,visa,,,MODESTO,CA,,US,,,,,
,visa,,,MODESTO,CA,,US,,,,,
,visa,,,MODESTO,CA,,US,,,,,
,visa,,,MODESTO,CA,,US,,,,,
,visa,,,MODESTO,CA,,US,,,,,
,visa,,,MODESTO,CA,,US,,,,,
,visa,,,MODESTO,CA,,US,,,,,
,visa,,,MODESTO,CA,,US,,,,,
,visa,,,MODESTO,CA,,US,,,,,
,visa,,,MODESTO,CA,,US,,,,,
,visa,,,MODESTO,CA,,US,,,,,
,visa,,,MODESTO,CA,,US,,,,,
,visa,,,MODESTO,CA,,US,,,,,
,visa,,,MODESTO,CA,,US,,,,,
,visa,,,MODESTO,CA,,US,,,,,
,visa,,,MODESTO,CA,,US,,,,,
,visa,,,MODESTO,CA,,US,,,,,
,visa,,,MODESTO,CA,,US,,,,,
,visa,,,MODESTO,CA,,US,,,,,
,visa,,,MODESTO,CA,,US,,,,,
,visa,,,MODESTO,CA,,US,,,,,
,visa,,,MODESTO,CA,,US,,,,,
,visa,,,MODESTO,CA,,US,,,,,
,visa,,,MODESTO,CA,,US,,,,,
,visa,,,MODESTO,CA,,US,,,,,
,visa,,,MODESTO,CA,,US,,,,,
https://locations.vitaminshoppe.com/ca/modesto/vitamins-supplements-modesto-ca-299.html,vitamin_shoppe,The Vitamin Shoppe® Modesto ,3801 Pelandale Ave Suite B-1,Modesto,CA,,US,+1 209-545-9138,https://locations.vitaminshoppe.com/ca/modesto/vitamins-supplements-modesto-ca-299.html,Su 10:00-19:00; Mo 09:30-21:00; Tu 09:30-21:00; We 09:30-21:00; Th 09:30-21:00; Fr 09:30-21:00; Sa 09:30-21:00,The Vitamin Shoppe,Q7772938
https://www.walgreens.com/locator/walgreens-4201+dale+rd-modesto-ca-95356/id=6355,walgreens,Walgreens,,Modesto,CA,,US,+1 209-545-5687,https://www.walgreens.com/locator/walgreens-4201+dale+rd-modesto-ca-95356/id=6355,Mo-Su 07:00-22:00,Walgreens,Q1591889
3424__DALE__RD_MODESTO_CA_95356,wellsfargo,Wells Fargo,3424 DALE RD,MODESTO,CA,,US,+1 209-578-6818,https://www.wellsfargo.com/locator/bank/3424__DALE__RD_MODESTO_CA_95356/,Mo-Fr 09:00-17:00,Wells Fargo,Q744149
https://locations.wendys.com/#9254193,wendys,"Wendy's Dale Rd-Modesto in Modesto, CA",,Modesto,CA,,US,+1 209-523-6884,https://locations.wendys.com/united-states/ca/modesto/3250-dale-rd,"Mo-Su 06:30-10:30,09:00-20:00",Wendy's,Q550258
d1787f1a129a4ac2eee429cbab346f6d,western_union,WALMART #005710,,Modesto,CA,,US,+1 209-342-0949,https://location.westernunion.com/us/ca/modesto/d1787f1a129a4ac2eee429cbab346f6d,Mo-Su 07:00-21:00,Western Union,Q861042
bcd838548cc49a1f6ae0d40af54c7eeb,western_union,MULTISERVICIOS LATINOS,,Modesto,CA,,US,+1 209-566-9950,https://location.westernunion.com/us/ca/modesto/bcd838548cc49a1f6ae0d40af54c7eeb,Mo-Su 09:00-19:30,Western Union,Q861042
1522,whitehouseblackmarket,Vintage Faire Mall,3401 Dale Rd,Modesto,CA,,US,+1 209-241-5291,,Mo-Sa 10:00-21:00; Su 11:00-19:00,White House Black Market,Q7994858
297,windsor_us,Vintage Faire Mall,,Modesto,CA,,US,+1 888-495-4957,https://www.windsorstore.com/pages/ca-modesto-vintage-faire-mall,,Windsor,Q72981668
