Ref,Spider,Name,Address,City,State,Zipcode,Country,Phone,Website,Hours,Brand,WikiData
27,99_bikes_au,Hoppers Crossing,,Hoppers Crossing,VIC,,AU,+61 3 9492 0935,,Mo-Fr 09:00-06:00; Sa 09:00-05:00; Su 10:00-04:00,99 Bikes,Q110288298
AU-1494,anytime_fitness,Anytime Fitness,,Hoppers Crossing,VIC,,AU,+61 3 9749 1577,https://anytimefitness.com.au/gyms/au-1494/hoppers-crossing-vic-3029/,,Anytime Fitness,Q4778364
AU-1520,anytime_fitness,Anytime Fitness,,Tarneit,VIC,,AU,+61 477 007 803,https://anytimefitness.com.au/gyms/au-1520/tarneit-vic-3029/,,Anytime Fitness,Q4778364
AU-1626,anytime_fitness,Anytime Fitness,,Tarneit West,VIC,,AU,+61 477 044 375,https://anytimefitness.com.au/gyms/au-1626/tarneit-west-vic-3029/,,Anytime Fitness,Q4778364
RED0018325,australia_post_au,,,TARNEIT,VIC,,AU,,,,Australia Post,Q1142936
RED0018351,australia_post_au,,,TARNEIT,VIC,,AU,,,,Australia Post,Q1142936
88386941_UPL,australia_post_au,Tarneit Central Parcel Locker,,TARNEIT,VIC,,AU,,,24/7,Australia Post,Q1142936
96512580_UPL,australia_post_au,Dianella Community Centre Pcl Lkr,,TARNEIT,VIC,,AU,,,24/7,Australia Post,Q1142936
RED0017643,australia_post_au,,,TARNEIT,VIC,,AU,,,,Australia Post,Q1142936
303191_PO,australia_post_au,TARNEIT POST SHOP,,TARNEIT,VIC,,AU,+61 131318,,,Australia Post,Q1142936
RED0006412,australia_post_au,,,HOPPERS CROSSING,VIC,,AU,,,,Australia Post,Q1142936
RED0006417,australia_post_au,,,HOPPERS CROSSING,VIC,,AU,,,,Australia Post,Q1142936
RED0006410,australia_post_au,,,HOPPERS CROSSING,VIC,,AU,,,,Australia Post,Q1142936
RED0006408,australia_post_au,,,HOPPERS CROSSING,VIC,,AU,,,,Australia Post,Q1142936
RED0006405,australia_post_au,,,HOPPERS CROSSING,VIC,,AU,,,,Australia Post,Q1142936
54960926_UPL,australia_post_au,Werribee Plaza Parcel Locker,,HOPPERS CROSSING,VIC,,AU,,,24/7,Australia Post,Q1142936
RED0006419,australia_post_au,,,HOPPERS CROSSING,VIC,,AU,,,,Australia Post,Q1142936
RED0006413,australia_post_au,,,HOPPERS CROSSING,VIC,,AU,,,,Australia Post,Q1142936
319839_PO,australia_post_au,WERRIBEE PLAZA POST SHOP,,HOPPERS CROSSING,VIC,,AU,+61 131318,,,Australia Post,Q1142936
RED0006409,australia_post_au,,,HOPPERS CROSSING,VIC,,AU,,,,Australia Post,Q1142936
RED0015634,australia_post_au,,,HOPPERS CROSSING,VIC,,AU,,,,Australia Post,Q1142936
RED0006414,australia_post_au,,,HOPPERS CROSSING,VIC,,AU,,,,Australia Post,Q1142936
63938512_UPL,australia_post_au,Hoppers Crossing Parcel Lockers,,HOPPERS CROSSING,VIC,,AU,,,24/7,Australia Post,Q1142936
347565_PO,australia_post_au,HOPPERS CROSSING BUSINESS CTR,,HOPPERS CROSSING,VIC,,AU,+61 131318,,,Australia Post,Q1142936
307117_PO,australia_post_au,HOPPERS CROSSING LPO,,HOPPERS CROSSING,VIC,,AU,+61 3 9748 9978,,,Australia Post,Q1142936
RED0006415,australia_post_au,,,HOPPERS CROSSING,VIC,,AU,,,,Australia Post,Q1142936
112,baby_bunting,Hoppers Crossing,"302-306 Old Geelong Road Hoppers Crossing, VIC",Hoppers Crossing,VIC,,AU,+61 3 8360 7090,https://www.babybunting.com.au/find-a-store/hoppers-crossing,Mo-Th 09:00-17:30; Fr 09:00-21:00; Sa 09:00-17:00; Su 10:00-17:00,Baby Bunting,Q109626935
2580,bakers_delight,Bakers Delight Hoppers Crossing,,Hoppers Crossing,VIC,,AU,+61 3 9748 2907,https://www.bakersdelight.com.au/bakery-locator/hoppers-crossing/,Mo-Su 06:00-18:00,Bakers Delight,Q4849261
35,barbeques_galore_au,Hoppers Crossing,,Hoppers Crossing,VIC,,AU,+61 3 9974 3050,https://www.barbequesgalore.com.au/stores/hoppers-crossing,Mo-Th 09:00-17:00; Fr 09:00-18:00; Sa 09:00-17:00; Su 10:00-17:00,Barbeques Galore,Q4859570
111,battery_world_au,Battery World Hoppers Crossing,,Hoppers Crossing,VIC,,AU,+61 131760;+61 3 8360 3818,https://www.batteryworld.com.au/stores/battery-world-hoppers-crossing,Mo-Fr 08:00-17:30; Sa 08:30-17:30; Su 09:00-16:00,Battery World,Q124003678
https://www.bedshed.com.au/find-a-store/bedshed-hoppers-crossing,bedshed_au,Bedshed Hoppers Crossing,,Hoppers Crossing,VIC,,AU,+61 3 9749 3299,https://www.bedshed.com.au/find-a-store/bedshed-hoppers-crossing,Mo-Fr 09:00-17:30; Sa 09:00-17:00; Su 10:00-17:00,Bedshed,Q84452962
41045_1,bmw_group,Advantage Motorcycles,,Hoppers Crossing,VIC,,AU,+61 3 9360 0006,https://www.advantagemotorcycles.com.au/,,BMW Motorrad,Q249173
21950234,bottlemart_au,Bottlemart Riverdale,,,VIC,,AU,+61 3 8087 8776,,,Bottlemart,Q102863175
21950128,bottlemart_au,Bottlemart At Tarneit Central,,,VIC,,AU,+61 3 8087 8776,,,Bottlemart,Q102863175
21950219,bottlemart_au,Bottlemart Hoppers Crossing,,,VIC,,AU,+61 3 9749 2305,,,Bottlemart,Q102863175
7656,bp,BP TRUGANINA,,TRUGANINA,VIC,,AU,+61 3 8386 0300,,24/7,BP,Q152057
1131,bp,BP TRUGANINA SOUTH,,Truganina,VIC,,AU,+61 499 445 650,,24/7,BP,Q152057
7685,bp,BP LEAKES ROAD,,TARNEIT,VIC,,AU,+61 3 9749 4248,,24/7,BP,Q152057
3718,bp,BP WYNDHAM,,HOPPERS CROSSING,VIC,,AU,+61 3 9749 6900,,Mo-Fr 05:00-21:00; Sa 07:00-21:00; Su 07:00-20:00,BP,Q152057
https://www.bridgestone.com.au/stores/vic/bridgestone-select-truganina,bridgestone_select,Bridgestone Select Truganina,,Truganina,VIC,,AU,+61 3 9360 1999,https://www.bridgestone.com.au/stores/vic/bridgestone-select-truganina/,Mo-Fr 07:30-16:30; Sa 08:00-11:00,Bridgestone Select Tyre & Auto,Q122420123
https://www.bridgestone.com.au/stores/vic/bridgestone-select-hoppers-crossing,bridgestone_select,Bridgestone Select Hoppers Crossing,,Hoppers Crossing,VIC,,AU,+61 3 9369 0500,https://www.bridgestone.com.au/stores/vic/bridgestone-select-hoppers-crossing/,Mo-Fr 07:30-17:45; Sa 08:30-00:30,Bridgestone Select Tyre & Auto,Q122420123
835,burson_auto_parts_au,HOPPERS CROSSING,"157 OLD GEELONG ROAD, HOPPERS CROSSING VIC 3029, Australia",HOPPERS CROSSING,VIC,,AU,+61 3 9748 6200,,Mo-Fr 08:00-17:00; Sa 08:00-12:00,Burson Auto Parts,Q117075930
70724,caltex,Caltex Truganina,,Truganina,VIC,,AU,+61 3 8323 0303,,,Caltex,Q277470
37329,cellarbrations_au,CELLARBRATIONS AT HOPPERS CROSSING CELLARS,,HOPPERS CROSSING,VIC,,AU,+61 3 9749 3952,,Mo-Th 10:00-21:00; Fr-Sa 10:00-22:00; Su 10:00-21:00,Cellarbrations,Q109807592
3714,coles_au,Tarneit West,,Tarneit,VIC,,AU,+61 3 8754 2780,,,Liquorland,Q2283837
7717,coles_au,Coles Tarneit West,,Tarneit West,VIC,,AU,+61 3 8754 2700,,,Coles Supermarkets,Q1108172
691,coles_au,Coles Werribee Plaza,,Hoppers Crossing,VIC,,AU,+61 3 9974 7300,,,Coles Supermarkets,Q1108172
3891,coles_au,Hoppers Crossing,,Hoppers Crossing,VIC,,AU,+61 3 9075 1318,,,Liquorland,Q2283837
5804,coles_au,Coles Tarneit Davis Road,,Tarneit,VIC,,AU,+61 3 9084 7500,,,Coles Supermarkets,Q1108172
2881,coles_au,Tarneit Davis Road,,Tarneit,VIC,,AU,+61 3 9084 7580,,,Liquorland,Q2283837
6726,coles_au,Coles Express Hoppers Crossing,,Hoppers Crossing,VIC,,AU,+61 3 9075 1096,,,Coles Express,Q5144653
6989,coles_au,Coles Express Williams Landing,,Truganina,VIC,,AU,+61 3 9075 1490,,,Coles Express,Q5144653
AU319 Werribee,colette_by_colette_hayman_au,Werribee,,Werribee,VIC,,AU,+61 3 9749 0191,,Mo-We 09:00-17:30; Th 09:00-21:00; Fr 09:00-17:30; Sa 09:00-17:00; Su 11:00-17:00,Colette by Colette Hayman,Q117746003
399404,commonwealth_bank_au,Tarneit,,Tarneit,VIC,,AU,,,,Commonwealth Bank,Q285328
399401,commonwealth_bank_au,Tarneit,,Tarneit,VIC,,AU,,,,Commonwealth Bank,Q285328
399403,commonwealth_bank_au,Tarneit,,Tarneit,VIC,,AU,,,,Commonwealth Bank,Q285328
399402,commonwealth_bank_au,Tarneit,,Tarneit,VIC,,AU,,,,Commonwealth Bank,Q285328
362289,commonwealth_bank_au,Tarneit Central,,Tarneit,VIC,,AU,,,,Commonwealth Bank,Q285328
354196,commonwealth_bank_au,Hoppers Crossing S/C,,Hoppers Crossing,VIC,,AU,,,,Commonwealth Bank,Q285328
362205,commonwealth_bank_au,Pacific Werribee,,Hoppers Crossing,VIC,,AU,,,,Commonwealth Bank,Q285328
362201,commonwealth_bank_au,Pacific Werribee,,Hoppers Crossing,VIC,,AU,,,,Commonwealth Bank,Q285328
362202,commonwealth_bank_au,Pacific Werribee,,Hoppers Crossing,VIC,,AU,,,,Commonwealth Bank,Q285328
362204,commonwealth_bank_au,Pacific Werribee,,Hoppers Crossing,VIC,,AU,,,,Commonwealth Bank,Q285328
362203,commonwealth_bank_au,Pacific Werribee,,Hoppers Crossing,VIC,,AU,,,,Commonwealth Bank,Q285328
9403,donut_king_au,Donut King Tarneit Central,"KIOSK K6 Tarneit Central, 540 Derrimut Road",Tarneit,VIC,,AU,,,,Donut King,Q5296921
27,drummond_golf_au,Hoppers Crossing Drummond Golf,,Hoppers Crossing,VIC,,AU,+61 3 8368 2155,https://www.drummondgolf.com.au/storelocator/storedetail?id=27,,Drummond Golf,Q124065894
704,dusk_au,dusk Tarneit,,Tarneit,VIC,,AU,,https://www.dusk.com.au/store-locator/dusk-tarneit/,,dusk,Q120669167
78,early_settler,Hoppers Crossing,,Hoppers Crossing,VIC,,AU,+61 3 8742 7675,https://earlysettler.com.au/pages/early-settler-hoppers-crossing,Mo-Sa 09:00-17:00; Su 10:00-17:00,Early Settler,Q111080173
6171400,exxonmobil,7-Eleven Hoppers Crossing,,Hoppers Crossing,VIC,,AU,+61 3 9748 8013,https://www.mobil.com.au/en-au/find-station/mobil-hopperscrossing-vic-hopperscrossing-6171400,24/7,Mobil,Q109676002
6171381,exxonmobil,7-Eleven Tarneit North,,Tarneit North,VIC,,AU,+61 3 9749 1273,https://www.mobil.com.au/en-au/find-station/mobil-tarneitnorth-vic-tarneitnorth-6171381,24/7,Mobil,Q109676002
6171378,exxonmobil,7-Eleven Tarneit West,,Tarneit West,VIC,,AU,+61 3 9748 1286,https://www.mobil.com.au/en-au/find-station/mobil-tarneitwest-vic-tarneitwest-6171378,24/7,Mobil,Q109676002
6171360,exxonmobil,7-Eleven Hoppers Crossing,,Hoppers Crossing,VIC,,AU,+61 3 9369 4296,https://www.mobil.com.au/en-au/find-station/mobil-hopperscrossing-vic-hopperscrossing-6171360,24/7,Mobil,Q109676002
6171349,exxonmobil,7-Eleven Truganina,,Truganina,VIC,,AU,+61 3 9369 0051,https://www.mobil.com.au/en-au/find-station/mobil-truganina-vic-truganina-6171349,24/7,Mobil,Q109676002
6171339,exxonmobil,7-Eleven Werribee,,Werribee,VIC,,AU,+61 3 9742 7598,https://www.mobil.com.au/en-au/find-station/mobil-werribee-vic-werribee-6171339,24/7,Mobil,Q109676002
6171320,exxonmobil,7-Eleven Rockbank,,Truganina,VIC,,AU,+61 3 8358 5541,https://www.mobil.com.au/en-au/find-station/mobil-truganina-vic-rockbank-6171320,24/7,Mobil,Q109676002
6171294,exxonmobil,7-Eleven Hoppers Crossing,,Hoppers Crossing,VIC,,AU,+61 3 9748 8034,https://www.mobil.com.au/en-au/find-station/mobil-hopperscrossing-vic-hopperscrossing-6171294,24/7,Mobil,Q109676002
6171239,exxonmobil,7-Eleven Tarneit,,Tarneit,VIC,,AU,+61 3 9731 6159,https://www.mobil.com.au/en-au/find-station/mobil-tarneit-vic-tarneit-6171239,24/7,Mobil,Q109676002
6171160,exxonmobil,7-Eleven Hoppers Crossing,,Hoppers Crossing,VIC,,AU,+61 3 9749 6040,https://www.mobil.com.au/en-au/find-station/mobil-hopperscrossing-vic-hopperscrossing-6171160,24/7,Mobil,Q109676002
918,first_national_real_estate_au,First National Real Estate Westwood Truganina,,Truganina,VIC,,AU,+61 3 8386 5555,https://www.firstnational.com.au/pages/real-estate/office/918/first-national-real-estate-westwood-truganina,,First National Real Estate,Q122888198
32,focus_on_furniture_au,Hoppers,,Hoppers Crossing,VIC,,AU,+61 3 8742 2999,,Mo-Fr 09:00-17:30; Sa 09:00-17:00; Su 10:00-17:00,Focus on Furniture,Q117746060
372,greencross_au,Hoppers Crossing,,Hoppers Crossing,VIC,,AU,+61 3 8742 2510,https://www.petbarn.com.au/store-finder/hoppers-crossing,Mo-Th 08:30-18:00; Fr 08:30-19:00; Sa 08:30-17:00; Su 09:00-17:00,Petbarn,Q104746468
771,greencross_au,Greencross Vets Hoppers Crossing,,Hoppers Crossing,VIC,,AU,+61 3 9749 3011,https://www.petbarn.com.au/store-finder/greencross-vets-hoppers-crossing,Mo 08:00-18:00; Tu 08:00-19:00; We 08:00-18:00; Th-Fr 08:00-19:00; Sa 08:00-15:00,Greencross Vets,Q41179992
939,guzmany_gomez,Tarneit,,Tarneit,VIC,,AU,+61 3 8006 0704,https://www.guzmanygomez.com.au/locations/Tarneit/,24/7,Guzman y Gomez,Q23019759
5409,hungry_jacks,Tarneit Park,,Tarneit,VIC,,AU,8721 0375,,,Hungry Jack's,Q3036373
5387,hungry_jacks,Truganina,,Truganina,VIC,,AU,+61 3 8323 0336,,,Hungry Jack's,Q3036373
5373,hungry_jacks,Tarneit,,Tarneit,VIC,,AU,+61 3 8721 0303,,,Hungry Jack's,Q3036373
317,jbhifi,Werribee,,Hoppers Crossing,VIC,,AU,+61 3 8754 4100,,Mo-We 09:00-17:30; Th-Fr 09:00-21:00; Sa 09:00-17:00; Su 10:00-17:00,JB Hi-Fi,Q3310113
188,jbhifi,Melbourne Home Delivery Centre,,Truganina,VIC,,AU,+61 3 9554 7400,,Mo-Su 09:00-17:00,JB Hi-Fi,Q3310113
156,jbhifi,Hoppers Crossing,,Hoppers Crossing,VIC,,AU,+61 3 8754 4200,,Mo-We 10:00-18:00; Th-Fr 10:00-19:00; Sa 09:00-18:00; Su 10:00-18:00,JB Hi-Fi,Q3310113
1171,just_cuts,Tarneit,,Tarneit,VIC,,AU,+61 3 8754 8064,https://www.justcuts.com.au/Australian-Salons/Tarneit?sid=1171,Mo-We 09:00-17:30; Th-Fr 09:00-16:30; Sa 09:00-17:00,Just Cuts,Q116784479
1107,just_cuts,Werribee Plaza,,Hoppers Crossing,VIC,,AU,+61 3 9731 6457,https://www.justcuts.com.au/Australian-Salons/Werribee-Plaza?sid=1107,Mo-We 09:00-17:30; Th-Fr 09:00-21:00; Sa 09:00-17:00; Su 10:00-17:00,Just Cuts,Q116784479
41821,just_group,Peter Alexander Werribee Shopping Centre,"Shop 257 Pacific Werribee, Cnr Heaths & Derrimut Rd, Werribee Shopping Centre, Hoppers Crossing, VIC, 3029, Australia",Hoppers Crossing,VIC,,AU,+61 3 9749 1970,https://justjeans.jgl.com.au/shop/stores/peteralexander-werribee-shopping-centre,Mo-Tu 09:00-17:30; We-Th 09:00-21:00; Fr 09:00-17:00; Sa 10:00-17:00; Su 09:00-17:30,Peter Alexander,Q118383240
42018,just_group,Smiggle Werribee Shopping Centre,"Shop 35 Cnr Derrimut And, Heath Roads, Werribee Shopping Centre, Hoppers Crossing, VIC, 3029, Australia",Hoppers Crossing,VIC,,AU,+61 3 9113 7282,https://justjeans.jgl.com.au/shop/stores/smiggle-werribee-shopping-centre,,Smiggle,Q7544536
42302,just_group,Portmans Werribee Shopping Centre,"Shop T186 Werribee Plaza, Cnr Heaths & Derimut Rds, Werribee Shopping Centre, Hoppers Crossing, VIC, 3029, Australia",Hoppers Crossing,VIC,,AU,+61 3 9749 0918,https://justjeans.jgl.com.au/shop/stores/portmans-werribee-shopping-centre,,Portmans,Q118383252
42355,just_group,Dotti Werribee Shopping Centre,"Shop 231 Werribee Plaza, Cnr Heaths & Derimut Rds, Werribee Shopping Centre, Hoppers Crossing, VIC, 3029, Australia",Hoppers Crossing,VIC,,AU,+61 3 8742 2444,https://justjeans.jgl.com.au/shop/stores/dotti-werribee-shopping-centre,,Dotti,Q5299495
42786,just_group,Jacqui E Werribee Shopping Centre,"Shop T165 Werribee Plaza, Cnr Heaths & Derimut Rds, Werribee Shopping Centre, Hoppers Crossing, VIC, 3029, Australia",Hoppers Crossing,VIC,,AU,+61 3 8742 2677,https://justjeans.jgl.com.au/shop/stores/jacquie-werribee-shopping-centre,,Jacqui E,Q118383260
42878,just_group,Jay Jays Werribee Shopping Centre,"Shop T184 Werribee Plaza, Cnr Derrimut & Heaths Rds, Werribee Shopping Centre, Hoppers Crossing, VIC, 3029, Australia",Hoppers Crossing,VIC,,AU,+61 3 9749 5776,https://justjeans.jgl.com.au/shop/stores/jayjays-werribee-shopping-centre,,Jay Jays,Q6166759
42606,just_group,Just Jeans Werribee Shopping Centre (Temporarily Closed),"Shop T183 Werribee Plaza, Cnr Derrimut & Heaths Rds, Werribee Shopping Centre (Temporarily Closed), Hoppers Crossing, VIC, 3029, Australia",Hoppers Crossing,VIC,,AU,+61 3 9749 4126,https://justjeans.jgl.com.au/shop/stores/justjeans-werribee-shopping-centre-temporarily-closed,,Just Jeans,Q6316068
https://www.kss.com.au:443/locations/vic/western-melbourne/truganina-storage,kennards_self_storage_au,Kennards Self Storage Truganina,,TRUGANINA,VIC,,AU,+61 3 8375 1936,https://www.kss.com.au:443/locations/vic/western-melbourne/truganina-storage,Mo-Fr 08:30-18:00; Sa 09:00-17:00; Su 10:00-16:00,Kennards Self Storage,Q115565997
11333,lovisa,Lovisa,,Hoppers Crossing,VIC,,AU,+61 3 7034 8223,,,Lovisa,Q106298409
https://marketplacefresh.com.au/store/marketplace-fresh-werribee/,marketplace_fresh_au,MarketPlace Fresh Werribee,"250 Heaths Road, Cnr Derrimut Rd, Hoppers Crossing VIC 3029, Australia",Hoppers Crossing,VIC,,AU,,https://marketplacefresh.com.au/store/marketplace-fresh-werribee/,We 07:00-20:00; Th-Fr 07:00-21:00,MarketPlace Fresh,Q117847717
9500853,mcdonalds_qstore,HOGANS CORNER VIC,,Hoppers Crossing,VIC,,AU,+61 3 9748 4911,,24/7,McDonald's,Q38076
9501481,mcdonalds_qstore,TARNEIT VIC,,Tarneit,VIC,,AU,+61 3 9748 7240,,24/7,McDonald's,Q38076
9501924,mcdonalds_qstore,RIVERDALE VILLAGE,,Tarneit,VIC,,AU,+61 3 8754 6000,,Mo-Su 06:00-00:00,McDonald's,Q38076
9501887,mcdonalds_qstore,Truganina,,Truganina,VIC,,AU,+61 3 7310 7800,,24/7,McDonald's,Q38076
https://www.nandos.com.au/restaurants/vic/werribee-pacific,nandos,WERRIBEE PACIFIC,,Hoppers Crossing,VIC,,AU,+61 1300 626 367,https://www.nandos.com.au/restaurants/vic/werribee-pacific,,Nando's,Q3472954
NMA3030,nissan_europe,Werribee Nissan,,HOPPERS CROSSING,VIC,,AU,+61 3 9974 5800,http://www.werribeenissan.com.au,,Nissan,Q20165
49,nutrition_warehouse_au,Hoppers Crossing,,Hoppers Crossing,VIC,,AU,+61 3 9369 8994,https://www.nutritionwarehouse.com.au/pages/hoppers-crossing-vitamins-and-supplements,Mo-We 09:00-17:30; Th 09:00-18:00; Fr 09:00-17:30; Sa 09:00-16:00; Su 10:00-16:00,Nutrition Warehouse,Q117747424
OF3243,oporto_au,Tarneit,,Tarneit,VIC,,AU,+61 3 7007 8028,https://www.oporto.com.au/locations/tarneit,Mo-We 10:00-22:00; Th 10:00-23:00; Fr-Sa 10:00-01:00; Su 10:00-22:00,Oporto,Q4412342
3350,petstock_au,Petstock Tarneit,,Tarneit,VIC,,AU,+61 3 8691 3991,https://www.petstock.com.au/pages/store/petstock-tarneit,Mo-Fr 08:30-18:00; Sa 08:30-17:00; Su 09:00-17:00,Petstock,Q106540728
3120,petstock_au,Petstock VET Hoppers Crossing,,Hoppers Crossing,VIC,,AU,+61 3 9369 9955,https://www.petstock.com.au/pages/store/petstock-vet-hoppers-crossing,Mo-Fr 08:00-18:30; Sa 09:00-16:00,Petstock,Q106540728
3034,petstock_au,Petstock Hoppers Crossing,,Hoppers Crossing,VIC,,AU,+61 3 9369 9955,https://www.petstock.com.au/pages/store/petstock-hoppers-crossing,Mo-Fr 08:00-18:30; Sa 08:30-17:00; Su 09:00-17:00,Petstock,Q106540728
315,rsea_safety_au,RSEA Safety Hoppers Crossing,,Hoppers Crossing,VIC,,AU,+61 3 9552 7937,https://www.rsea.com.au/store-locator/vic/hoppers-crossing,Mo-Fr 08:00-17:00; Sa 09:00-16:00; Su 10:00-16:00,RSEA Safety,Q122418895
1349,seven_eleven_au,Truganina,,Truganina,VIC,,AU,+61 3 9369 0051,,24/7,7-Eleven,Q259340
1339,seven_eleven_au,Werribee,,Werribee,VIC,,AU,+61 3 9742 7598,,24/7,7-Eleven,Q259340
1320,seven_eleven_au,Rockbank,,Truganina,VIC,,AU,+61 3 8358 5541,,24/7,7-Eleven,Q259340
1160,seven_eleven_au,Hoppers Crossing,,Hoppers Crossing,VIC,,AU,+61 3 9749 6040,,24/7,7-Eleven,Q259340
1239,seven_eleven_au,Tarneit,,Tarneit,VIC,,AU,+61 3 9731 6159,,24/7,7-Eleven,Q259340
1294,seven_eleven_au,Hoppers Crossing,,Hoppers Crossing,VIC,,AU,+61 3 9748 8034,,24/7,7-Eleven,Q259340
1360,seven_eleven_au,Hoppers Crossing,,Hoppers Crossing,VIC,,AU,+61 3 9369 4296,,24/7,7-Eleven,Q259340
1378,seven_eleven_au,Tarneit West,,Tarneit West,VIC,,AU,+61 3 9748 1286,,24/7,7-Eleven,Q259340
1400,seven_eleven_au,Hoppers Crossing,,Hoppers Crossing,VIC,,AU,+61 3 9748 8013,,24/7,7-Eleven,Q259340
1381,seven_eleven_au,Tarneit North,,Tarneit North,VIC,,AU,+61 3 9749 1273,,24/7,7-Eleven,Q259340
1423,seven_eleven_au,Tarneit Central,,Tarneit Central,VIC,,AU,+61 3 9731 6442,,24/7,7-Eleven,Q259340
1476,seven_eleven_au,CEVA Truganina MMV,,Truganina,VIC,,AU,,,24/7,7-Eleven,Q259340
10111480,shell,SHELL COLES EXPRESS WILLIAMS LANDING,,TRUGANINA,VIC,,AU,+61 3 9075 1490,https://find.shell.com/au/fuel/10111480-shell-coles-express-williams-landing,,Shell,Q110716465
10111477,shell,SHELL COLES EXPRESS TRUGANINA,,TRUGANINA,VIC,,AU,+61 3 9075 1508,https://find.shell.com/au/fuel/10111477-shell-coles-express-truganina,,Shell,Q110716465
10110971,shell,SHELL TARNEIT,,TARNEIT,VIC,,AU,+61 3 8871 2680,https://find.shell.com/au/fuel/10110971-shell-tarneit,,Shell,Q110716465
10110854,shell,SHELL COLES EXPRESS HOPPERS CROSSING,,HOPPERS CROSSING,VIC,,AU,+61 3 9075 1096,https://find.shell.com/au/fuel/10110854-shell-coles-express-hoppers-crossing,,Shell,Q110716465
959-06696,skoda,Wyndham Accident Repair Centre,,,VIC,,AU,,,,Skoda,Q29637
3268,specsavers,Wyndham Village S/C,,Tarneit,VIC,,AU,+61 3 8742 7811,https://www.specsavers.com.au/stores/wyndhamvillage,,Specsavers,Q2000610
7268,specsavers,Wyndham Village S/C,,Tarneit,VIC,,AU,,https://www.specsavers.com.au/stores/wyndhamvillage,,Specsavers,Q2000610
VTNT,spendless_au,Tarneit,,Tarneit,VIC,,AU,+61 3 8754 8951,,Mo-We 09:00-17:30; Th-Fr 09:00-21:00; Sa 09:00-17:00; Su 10:00-17:00,Spendless,Q120668938
VWRB,spendless_au,Werribee,,Hoppers Crossing,VIC,,AU,+61 3 9749 0199,,Mo-We 09:00-17:30; Th-Fr 09:00-21:00; Sa 09:00-17:00; Su 10:00-17:00,Spendless,Q120668938
U3RvcmU6Mjg=,sydney_tools_au,Hoppers Crossing,,Hoppers Crossing,VIC,,AU,+61 3 9223 1965,https://sydneytools.com.au/stores/vic/hoppers-crossing,Mo-We 07:00-17:30; Th 07:00-20:00; Fr 07:00-17:30; Sa-Su 08:00-16:00,Sydney Tools,Q116779309
RF04,telstra_au,Werribee,,Hoppers Crossing,VIC,,AU,+61 1800 841 477,,Mo-We 09:00-17:30; Th-Fr 09:00-21:00; Sa 09:00-17:00; Su 10:00-17:00,Telstra,Q721162
21796309,the_afl_store_au,AFL Store Werribee,,Hoppers Crossing,VIC,,AU,+61 3 9748 0216,https://www.theaflstore.com.au/pages/the-afl-store-werribee,,The AFL Store,Q117851311
275,the_cheesecake_shop,Hoppers Crossing,"380 Morris Road, Hoppers Crossing, VIC, 3029",,VIC,,AU,+61 3 9974 6156,https://www.cheesecake.com.au/find-bakery/hoppers-crossing/,Mo-Sa 09:00-20:00; Su 10:00-19:00,The Cheesecake Shop,Q117717103
292,the_cheesecake_shop,Tarneit,"32 Escapade Street, Tarneit, VIC, 3029, Australia",,VIC,,AU,+61 3 9748 1582,https://www.cheesecake.com.au/find-bakery/tarneit/,Mo-Sa 09:00-20:00; Su 10:00-19:00,The Cheesecake Shop,Q117717103
TCCAUS0365,the_coffee_club_au,TCC - Tarneit,"Shop T26, Tarneit Central, 540 Derrimut Road, Tarneit, VIC, Australia, 3029",Tarneit,VIC,,AU,+61 3 8015 1501,https://coffeeclub.com.au/pages/store-details?country=Australia&name=tarneit,Mo-We 08:30-17:30; Th-Fr 08:30-21:00; Sa-Su 08:30-17:30,The Coffee Club,Q7726599
https://www.thegoodguys.com.au/hoppers-crossing,the_good_guys_au,The Good Guys Hoppers Crossing,,Hoppers Crossing,VIC,,AU,+61 3 9974 7272,https://www.thegoodguys.com.au/hoppers-crossing,Mo-We 09:00-17:30; Th-Fr 09:00-21:00; Sa 09:00-17:00; Su 10:00-17:00,The Good Guys,Q7737217
86f42eee-a013-4435-95fe-17cd23285df7,thirsty_camel_au,Hotel 520,"520 Sayers Road, TARNEIT",,VIC,,AU,+61 3 9748 8520,https://www.thirstycamel.com.au/stores/hotel-520,Mo-We 10:00-22:00; Th-Sa 10:00-23:00; Su 10:00-22:00,Thirsty Camel,Q113503937
3320,tradelink_au,Hoppers Crossing,"140 Old Geelong Road, Hoppers Crossing VIC 3029",Hoppers Crossing,VIC,,AU,+61 3 9344 6520,,Mo-Fr 07:00-17:00; Sa 08:00-12:00,Tradelink,Q120648432
,tyrepower_au,Tyrepower Werribee,,Hoppers Crossing,VIC,,AU,+61 3 8368 2366,https://tyrepowerwerribee.com.au/,,Tyrepower,Q108855867
378,ultra_tune_au,Ultra Tune Point Cook,,HOPPERS CROSSING,VIC,,AU,+61 3 9958 2106,https://www.ultratune.com.au/store/ultra-tune-point-cook,Mo-Fr 08:00-17:30; Sa 08:00-12:00,Ultra Tune,Q29025649
384,ultra_tune_au,Ultra Tune Tarneit,,TARNEIT,VIC,,AU,+61 3 9958 2101,https://www.ultratune.com.au/store/ultra-tune-tarneit,Mo-Fr 08:00-17:30; Sa 08:00-12:00,Ultra Tune,Q29025649
399,ultra_tune_au,Ultra Tune Truganina,,TRUGANINA,VIC,,AU,+61 3 9978 0840,https://www.ultratune.com.au/store/ultra-tune-truganina,Mo-Fr 08:00-17:30; Sa 08:00-12:00,Ultra Tune,Q29025649
,visa,,,HOPPERS CROSSING,VIC,,AU,,,,,
,visa,,,HOPPERS CROSSING,VIC,,AU,,,,,
,visa,,,HOPPERS CROSSING,VIC,,AU,,,,,
,visa,,,HOPPERS CROSSING,VIC,,AU,,,,,
,visa,,,HOPPERS CROSSING,VIC,,AU,,,,,
,visa,,,TARNEIT,VIC,,AU,,,,,
,visa,,,HOPPERS CROSSING,VIC,,AU,,,,,
,visa,,,HOPPERS CROSSING,VIC,,AU,,,,,
,visa,,,HOPPERS CROSSING,VIC,,AU,,,,,
,visa,,,HOPPERS CROSSING,VIC,,AU,,,,,
,visa,,,TARNEIT,VIC,,AU,,,,,
,visa,,,HOPPERS CROSSING,VIC,,AU,,,,,
,visa,,,TARNEIT,VIC,,AU,,,,,
,visa,,,TARNEIT,VIC,,AU,,,,,
,visa,,,HOPPERS CROSSING,VIC,,AU,,,,,
,visa,,,TARNEIT,VIC,,AU,,,,,
,visa,,,HOPPERS CROSSING,VIC,,AU,,,,,
,visa,,,HOPPERS CROSSING,VIC,,AU,,,,,
,visa,,,TARNEIT,VIC,,AU,,,,,
,visa,,,HOPPERS CROSSING,VIC,,AU,,,,,
,visa,,,HOPPERS CROSSING,VIC,,AU,,,,,
,visa,,,TARNEIT NORTH,VIC,,AU,,,,,
,visa,,,TRUGANINA,VIC,,AU,,,,,
,visa,,,TRUGANINA,VIC,,AU,,,,,
,visa,,,TRUGANINA,VIC,,AU,,,,,
,visa,,,TRUGANINA,VIC,,AU,,,,,
,visa,,,TRUGANINA,VIC,,AU,,,,,
,visa,,,TRUGANINA,VIC,,AU,,,,,
,visa,,,TRUGANINA,VIC,,AU,,,,,
,visa,,,TRUGANINA,VIC,,AU,,,,,
a267e7b7da397a8af0d01144b9474c8c,western_union,AUSTRALIA POST,,Hoppers Crossing,VIC,,AU,+61 1800 501 500,https://location.westernunion.com/au/vic/hoppers-crossing/a267e7b7da397a8af0d01144b9474c8c,Mo-Sa 08:00-18:00,Western Union,Q861042
ca39cfdf198b6db65444e4d7d9335930,western_union,HASHI MONEY TRANSFERS,,Hoppers Crossing,VIC,,AU,+61 1800 501 500,https://location.westernunion.com/au/vic/hoppers-crossing/ca39cfdf198b6db65444e4d7d9335930,Mo-Su 09:00-18:00,Western Union,Q861042
a92fe6cedcd1f5980c9ba85a2f9a8f92,western_union,AUSTRALIA POST,,Hoppers Crossing,VIC,,AU,+61 1800 501 500,https://location.westernunion.com/au/vic/hoppers-crossing/a92fe6cedcd1f5980c9ba85a2f9a8f92,Mo-Fr 09:00-17:30; Sa 09:00-15:00; Su 10:00-14:00,Western Union,Q861042
e7dff89f0739289683192dec118db7c5,western_union,GLOBAL MEATS AND GROCERIES,,Hoppers Crossing,VIC,,AU,+61 1800 501 500,https://location.westernunion.com/au/vic/hoppers-crossing/e7dff89f0739289683192dec118db7c5,Mo-We 08:00-20:00; Th-Fr 08:00-21:00; Sa-Su 08:00-20:00,Western Union,Q861042
30605de74767904dd3b598821108b672,western_union,AUSTRALIA POST,,Tarneit,VIC,,AU,+61 1800 501 500,https://location.westernunion.com/au/vic/tarneit/30605de74767904dd3b598821108b672,Mo-Su 09:00-17:00,Western Union,Q861042
8ab15679a5c3ff63748275040c1cdf67,western_union,Wyndham village lotto & News,,"Tarneit,",VIC,,AU,+61 1800 501 500,"https://location.westernunion.com/au/vic/tarneit,/8ab15679a5c3ff63748275040c1cdf67",Mo-Su 09:00-19:00,Western Union,Q861042
6ba3f2f78ead9997a5c7eb0845b9cfaa,western_union,NEWSXPRESS TARNEIT & LOTTO,,Tarneit,VIC,,AU,+61 1800 501 500,https://location.westernunion.com/au/vic/tarneit/6ba3f2f78ead9997a5c7eb0845b9cfaa,Mo 09:00-18:00; Tu 09:00-18:30; We 09:00-18:00; Th 09:00-19:00; Fr 09:00-18:00; Sa 09:00-19:00,Western Union,Q861042
97a6c74fedc97092dceafb3af1769920,western_union,CAMELS CONVENIENCE STORE,,Truganina,VIC,,AU,+61 1800 501 500,https://location.westernunion.com/au/vic/truganina/97a6c74fedc97092dceafb3af1769920,Mo-Su 09:00-18:00,Western Union,Q861042
