Ref,Spider,Name,Address,City,State,Zipcode,Country,Phone,Website,Hours,Brand,WikiData
https://www.academy.com/storelocator/#8745606,academy_us,Academy Sports + Outdoors,,Benton,AR,,US,+1 501-776-5460,https://www.academy.com/storelocator/arkansas/benton/store-0227,Mo-Th 09:00-21:00; Fr 09:00-22:00; Sa 08:00-22:00; Su 09:00-21:00,Academy Sports + Outdoors,Q4671380
42657,asics_us,Academy Sports + Outdoors,20790 I30 N,Benton,AR,,US,+1 501-776-5460,,,asics,Q327247
https://locations.baskinrobbins.com/ar/benton/19820-interstate-30-364132-br,baskin_robbins_us,Baskin-Robbinsâ„¢,,Benton,AR,,US,+1 501-316-4054,https://locations.baskinrobbins.com/ar/benton/19820-interstate-30-364132-br,24/7,Baskin-Robbins,Q584601
236997,bluerhino,Circle K #2709986,,Benton,AR,,US,+1 501-451-7545,,,Blue Rhino,Q65681213
195212,bluerhino,Congo Mart,,Benton,AR,,US,+1 501-316-2000,,,Blue Rhino,Q65681213
236952,bluerhino,Circle K #2709978,,Benton,AR,,US,+1 210-345-2000,,,Blue Rhino,Q65681213
195253,bluerhino,Long Hills Food Mart & Deli,,Benton,AR,,US,+1 501-794-6135,,,Blue Rhino,Q65681213
228888,bluerhino,Al's Benton LLC dba Hwy 5 Mart,,Benton,AR,,US,+1 727-459-6563,,,Blue Rhino,Q65681213
236951,bluerhino,Circle K #2709962,,Benton,AR,,US,+1 501-451-7525,,,Blue Rhino,Q65681213
236953,bluerhino,Circle K #2709993,,Benton,AR,,US,+1 501-451-7528,,,Blue Rhino,Q65681213
149674,bluerhino,Kroger #629 - Delta,,Benton,AR,,US,+1 501-425-0538,,,Blue Rhino,Q65681213
229068,bluerhino,Pilot Travel #118,,Benton,AR,,US,+1 501-794-5900,,,Blue Rhino,Q65681213
185599,bluerhino,Kroger #629 - Delta- Fuel Center,,Benton,AR,,US,+1 501-574-3880,,,Blue Rhino,Q65681213
8035,bueno,Taco Bueno - 8035,"20742 I-30 North,  , Benton, AR, 72019, US",Benton,AR,,US,+1 501-794-2121,,Mo-Su 10:30-22:00,Taco Bueno,Q7673958
38678,chevrolet,EVERETT CHEVROLET,,Benton,AR,,US,+1 501-315-2500,https://everettchevyauto.com,Mo-Sa 08:00-19:00,Chevrolet,Q29570
https://schools.childcarenetwork.com/ar/benton/1612-sharon-road,childcare_network_us,Childcare Network,,Benton,AR,,US,+1 501-315-2220,https://schools.childcarenetwork.com/ar/benton/1612-sharon-road,,Childcare Network,Q121356406
40394,citi,ATM Circle K,,Benton,AR,,US,,,,Citibank,Q857063
35353,citi,ATM ARKANSAS FEDERAL CREDIT UNION,,Benton,AR,,US,,,,Citibank,Q857063
61158,citi,ATM Kroger,,Benton,AR,,US,,,,Citibank,Q857063
41325,citi,ATM Circle K,,Benton,AR,,US,,,,Citibank,Q857063
41785,citi,ATM Circle K,,Bryant,AR,,US,,,,Citibank,Q857063
20591,dollar_general,Dollar General,,Benton,AR,,US,+1 501-507-0570,https://www.dollargeneral.com/store-directory/ar/benton/20591,Mo-Su 08:00-22:00,Dollar General,Q145168
5306,dominos_pizza_us,Domino's Pizza,,Bryant,AR,,US,+1 501-847-6100,https://pizza.dominos.com/arkansas/bryant/3415-highway-5-n,Mo-Th 10:00-24:00; Fr-Sa 10:00-01:00; Su 10:00-24:00,Domino's,Q839466
https://www.edwardjones.com/us-en/financial-advisor/chad-kulchinski,edwardjones,Chad Kulchinski,,Bryant,AR,,US,+1 501-778-6329,https://www.edwardjones.com/us-en/financial-advisor/chad-kulchinski,Mo-Th 07:30-16:30; Fr 07:30-15:00,Edward Jones,Q5343830
200328848,exxonmobil,Exxon,,BENTON,AR,,US,,https://www.exxon.com/en/find-station/exxon-benton-ar-exxon-200328848,24/7,Exxon,Q109675651
200321238,exxonmobil,SOODA BENTON,,BENTON,AR,,US,+1 501-778-3898,https://www.exxon.com/en/find-station/exxon-benton-ar-soodabenton-200321238,24/7,Exxon,Q109675651
904796,firestone_auto_care,Firestone Complete Auto Care,,Benton,AR,,US,+1 501-303-4238,https://local.firestonecompleteautocare.com/arkansas/benton/17300-i-30-frontage-rd/,,Firestone,Q420837
326688,firestone_auto_care,Firestone Complete Auto Care,,Benton,AR,,US,+1 501-574-3316,https://local.firestonecompleteautocare.com/arkansas/benton/20760-i-30-frontage-rd/,,Firestone,Q420837
LITBN,marriott,Fairfield Inn & Suites Little Rock Benton,,Benton,AR,,US,+1 501-722-6330,https://www.marriott.com/LITBN,,Fairfield by Marriott,Q5430314
https://locations.maurices.com/#11688689,maurices,maurices Shoppes Of Benton,,Benton,AR,,US,+1 501-860-6921,https://locations.maurices.com/us/ar/benton/20406-i-30-north,Mo-Th 11:00-19:00; Fr-Sa 10:00-20:00; Su 12:00-18:00,maurices,Q6793571
NNA5687,nissan_europe,MCLARTY NISSAN OF BENTON,,BENTON,AR,,US,+1 501-575-0995,https://www.mclartynissanbenton.com,Mo-Sa 10:00-18:00,Nissan,Q20165
118185,pandaexpress,Hwy 5 & Alcoa Rd,,Benton,AR,,US,+1 501-386-9267,https://www.pandaexpress.com/locations/ar/benton/20810-i-30-north,Mo-Su 10:00-22:00,Panda Express,Q1358690
https://locations.papajohns.com/#10691856,papa_johns,Papa John's,,Benton,AR,,US,+1 501-315-7272,https://locations.papajohns.com/united-states/ar/72019/benton/1000-hwy-35-north-14,Mo-Th 10:00-23:00; Fr-Sa 10:00-24:00; Su 10:00-23:00,Papa John's Pizza,Q2759586
118,pilot_flyingj,Pilot Travel Center,,Benton,AR,,US,+1 501-794-5900,https://locations.pilotflyingj.com/us/ar/benton/7801-alcoa-road,,Pilot,Q7194412
ar_benton_1050-salem-rd,pizza_hut_us,1050 Salem Rd.,,Benton,AR,,US,+1 501-794-2250,https://locations.pizzahut.com/ar/benton/1050-salem-rd,,Pizza Hut,Q191615
31904,smilebrands,Monarch Dental Benton,20770 I-30 North,Benton,AR,,US,+1 501-777-3082,https://www.monarchdental.com/dentist-near-me/benton-dentist/20120/,,Smile Brands Inc.,Q108286823
https://restaurants.subway.com/#14895531,subway,Subway Pilot Travel Center #118,,Benton Saline,AR,,US,+1 501-794-5922,https://restaurants.subway.com/united-states/ar/benton/7801-alcoa-rd,Mo-Su 08:00-02:00,Subway,Q244457
https://restaurants.subway.com/#14904522,subway,Subway Panther Plaza,,Benton Saline,AR,,US,+1 501-794-6350,https://restaurants.subway.com/united-states/ar/benton/1203-hwy-35-n,Mo-Fr 08:00-22:00; Sa-Su 09:00-22:00,Subway,Q244457
81611,supercuts,Hurricane Creek Village,20770 I-30 North Ste 125,Benton,AR,,US,+1 501-794-6770,https://www.supercuts.com/checkin/81611,Mo-Fr 09:00-19:00; Sa 09:00-17:00; Su 00:00-01:00,Supercuts,Q7643239
https://locations.tacobell.com/#1007050096,taco_bell,Taco Bell,,Benton,AR,,US,+1 501-575-0767,https://locations.tacobell.com/ar/benton/2022-highway-5-n-.html,Mo-Su 08:00-04:00,Taco Bell,Q752941
28703,tjx,Benton,20440 I-30 North,Benton,AR,,US,+1 501-794-5673,,Mo-Sa 09:30-21:30; Su 10:00-20:00,HomeGoods,Q5887941
081511,tjx,Benton,20440 I-30 North,Benton,AR,,US,+1 501-794-5673,,Mo-Sa 09:30-21:30; Su 10:00-20:00,TJ Maxx,Q10860683
5557,tmobile_us,Hurricane Creek,,Benton,AR,,US,+1 501-794-5644,https://www.t-mobile.com/store-locator/ar/benton/hurricane-creek,,T-Mobile,Q3511885
A00000250593,verizon_us,Victra Benton,,Benton,AR,,US,+1 501-574-1123,https://www.verizon.com/stores/details/arkansas/benton/mobilized-benton-1510822/,Mo-Sa 09:00-19:00,Verizon,Q919641
,visa,,,BENTON,AR,,US,,,,,
,visa,,,BENTON,AR,,US,,,,,
,visa,,,BENTON,AR,,US,,,,,
,visa,,,BENTON,AR,,US,,,,,
,visa,,,BENTON,AR,,US,,,,,
,visa,,,BENTON,AR,,US,,,,,
,visa,,,BENTON,AR,,US,,,,,
,visa,,,BENTON,AR,,US,,,,,
,visa,,,BENTON,AR,,US,,,,,
,visa,,,BENTON,AR,,US,,,,,
,visa,,,BENTON,AR,,US,,,,,
437,waffle_house_us,Waffle House #437,,BENTON,AR,,US,+1 501-776-1431,https://locations.wafflehouse.com/benton-ar-437,24/7,Waffle House,Q1701206
528f26dd0b61a84174074c16a521a6e6,western_union,HARPS FOOD STORE #138,,Benton,AR,,US,+1 501-794-0820,https://location.westernunion.com/us/ar/benton/528f26dd0b61a84174074c16a521a6e6,Mo-Su 08:00-20:00,Western Union,Q861042
