Ref,Spider,Name,Address,City,State,Zipcode,Country,Phone,Website,Hours,Brand,WikiData
447903,alior_bank_pl,Placówka Partnerska w Sosnowcu,,Sosnowiec,,,PL,,,Mo-Fr 09:30-17:30,Alior Bank,Q9148395
2051,auchan_pl,Auchan Sosnowiec,"Zuzanny 20, 41-219 Sosnowiec, Polska",Sosnowiec,,,PL,+48 22 444 02 22,https://www.auchan.pl/pl/sklepy/Auchan-Sosnowiec,Mo-Sa 07:30-22:00,Auchan Hiper,Q758603
2802,biedronka_pl,Biedronka,,Sosnowiec,,,PL,,"https://www.biedronka.pl/pl/shop,id,2802",Mo-Sa 05:00-23:00,Biedronka,Q857182
1446,biedronka_pl,Biedronka,,Sosnowiec,,,PL,,"https://www.biedronka.pl/pl/shop,id,1446",Mo-Sa 05:00-23:00,Biedronka,Q857182
780,biedronka_pl,Biedronka,,Sosnowiec,,,PL,,"https://www.biedronka.pl/pl/shop,id,780",Mo-Sa 05:00-23:00,Biedronka,Q857182
3561,biedronka_pl,Biedronka,,Sosnowiec,,,PL,,"https://www.biedronka.pl/pl/shop,id,3561",Mo-Sa 05:00-23:00,Biedronka,Q857182
3085,biedronka_pl,Biedronka,,Sosnowiec,,,PL,,"https://www.biedronka.pl/pl/shop,id,3085",Mo-Sa 05:00-23:00,Biedronka,Q857182
2743,biedronka_pl,Biedronka,,Sosnowiec,,,PL,,"https://www.biedronka.pl/pl/shop,id,2743",Mo-Sa 05:00-23:00,Biedronka,Q857182
"https://www.brw.pl/siec-sprzedazy/salon,kean,sosnowiec,405.html",black_red_white_pl,Kean - Sosnowiec,,Sosnowiec,,,PL,"32 292 0934, 501 689 578","https://www.brw.pl/siec-sprzedazy/salon,kean,sosnowiec,405.html",Mo-Su 10:00-18:00,Black Red White,Q4921546
2134413723,bp,ZAGÓRZE,,SOSNOWIEC,,,PL,+48 32 292 00 11,,24/7,BP,Q152057
https://www.castorama.pl/sklepy/sosnowiec.html,castorama_pl,Castorama Sosnowiec,,Sosnowiec,,,PL,+48 32 368 41 00,https://www.castorama.pl/sklepy/sosnowiec.html,Mo-Fr 07:00-21:00; Sa 08:00-20:00,Castorama,Q966971
3960,chorten_pl,Chorten,,SOSNOWIEC,,,PL,,https://chorten.com.pl/sklepy/sosnowiec_twoje-delikatesy_3960,,Chorten,Q48843988
"50.291776|19.199479|Shell Mobility @ Szopa|Ul. Lenartowicza S1, Sosnowiec, 41-219, Poland",costacoffee_pl,Shell Mobility @ Szopa,"Ul. Lenartowicza S1, Sosnowiec, 41-219, Poland",Sosnowiec,,,PL,,,,Costa Coffee,Q608845
11302,dealz_pl,Dealz,,Sosnowiec,,,PL,,,Mo-Sa 09:00-21:00,Dealz,Q16942585
0070044500445,decathlon_pl,Sosnowiec,,Sosnowiec,,,PL,+48 32 450 39 20,https://www.decathlon.pl/store-view/sport-shop-sosnowiec-0070044500445,Mo-Sa 09:00-21:00,Decathlon,Q509349
55184994,deichmann,DEICHMANN sklep Sosnowiec Ul. Staszica 8B,,Sosnowiec,,,PL,+48 691 110 914,https://stores.deichmann.com/pl-pl/pl/wojewodztwo-slaskie/sosnowiec/ul-staszica-8b,Mo-Sa 09:00-21:00; Su 10:00-20:00,Deichmann,Q664543
FordPGPG128  POL,ford,Szumilas AT,,Sosnowiec,,,PL,+48 32 261 20 80,www.fordszumilas.pl,Mo-Fr 09:00-18:00; Sa 09:00-14:00,Ford,Q44294
P226,jysk,Sosnowiec,,Sosnowiec,,,PL,+48 723 723 526,https://jysk.pl/znajdz-sklep?storeId=P226,Mo-Sa 09:00-21:00,JYSK,Q138913
7462,kik,KiK,,Sosnowiec,,,PL,+48 881 985 462,,Mo-Sa 09:00-20:00; Su 10:00-18:00,KiK,Q883965
4892,lewiatan_pl,Lewiatan,,Sosnowiec,,,PL,,https://www.lewiatan.pl/znajdz-sklep/lewiatan-sosnowiec-lenartowicza-39,,Lewiatan,Q11755396
9480,lewiatan_pl,Lewiatan,,Sosnowiec,,,PL,,https://www.lewiatan.pl/znajdz-sklep/lewiatan-sosnowiec-kepa-1,,Lewiatan,Q11755396
9769,lewiatan_pl,Lewiatan,,Sosnowiec,,,PL,,https://www.lewiatan.pl/znajdz-sklep/lewiatan-sosnowiec-lomzynska-4,,Lewiatan,Q11755396
1804,lidl_pl,Lidl,,Sosnowiec,,,PL,,,Mo-Sa 06:00-22:00; Su 09:00-19:00,Lidl,Q151954
1689,lidl_pl,Lidl,,Sosnowiec,,,PL,,,Mo-Sa 06:00-22:00; Su 09:00-19:00,Lidl,Q151954
RCNN0B40,millennium_bank_pl,RCNN0B40,,Sosnowiec,,,PL,,,,Bank Millennium,Q4855947
RCNN0D23,millennium_bank_pl,RCNN0D23,,Sosnowiec,,,PL,,,,Bank Millennium,Q4855947
RCNN0F45,millennium_bank_pl,RCNN0F45,,Sosnowiec,,,PL,,,,Bank Millennium,Q4855947
RCWN0I35,millennium_bank_pl,RCWN0I35,,Sosnowiec,,,PL,,,,Bank Millennium,Q4855947
RCWN0M93,millennium_bank_pl,RCWN0M93,,Sosnowiec,,,PL,,,,Bank Millennium,Q4855947
RNET4212,millennium_bank_pl,RNET4212,,Sosnowiec,,,PL,,,,Bank Millennium,Q4855947
RNET4691,millennium_bank_pl,RNET4691,,Sosnowiec,,,PL,,,,Bank Millennium,Q4855947
RNET4712,millennium_bank_pl,RNET4712,,Sosnowiec,,,PL,,,,Bank Millennium,Q4855947
65070936,moneygram,UP SOSNOWIEC 19 - POCZTA POLSKA,,SOSNOWIEC,,,PL,+48 32 263 16 31,,Mo-Fr 06:00-22:00; Sa 08:00-20:00; Su 00:00-24:00,MoneyGram,Q1944412
70984994,moneygram,FUP SOSNOWIEC 19 - POCZTA POLSKA,,SOSNOWIEC,,,PL,+48 32 294 20 80,,Mo-Fr 06:00-22:00; Sa 08:00-20:00; Su 00:00-24:00,MoneyGram,Q1944412
70987959,moneygram,FUP SOSNOWIEC 19 - POCZTA POLSKA,,SOSNOWIEC,,,PL,+48 502 013 598,,Mo-Fr 06:00-22:00; Sa 08:00-20:00; Su 00:00-24:00,MoneyGram,Q1944412
70989300,moneygram,FUP SOSNOWIEC 19 - POCZTA POLSKA,,SOSNOWIEC,,,PL,+48 32 263 33 93,,Mo-Fr 06:00-22:00; Sa 08:00-20:00; Su 00:00-24:00,MoneyGram,Q1944412
70990069,moneygram,FUP SOSNOWIEC 19 - POCZTA POLSKA,,SOSNOWIEC,,,PL,+48 32 263 48 13,,Mo-Fr 06:00-22:00; Sa 08:00-20:00; Su 00:00-24:00,MoneyGram,Q1944412
70967377,moneygram,FUP BEDZIN 1 - POCZTA POLSKA,,SOSNOWIEC,,,PL,+48 32 292 61 36,,Mo-Fr 06:00-22:00; Sa-Su 08:00-20:00,MoneyGram,Q1944412
39169,neonet_pl,NEONET,,Sosnowiec,,,PL,+48 606 663 917,https://sklepydw.neonet.pl/polska/sosnowiec/neonet-sosnowiec-blachnickiego-3-39169,Mo-Fr 09:00-19:00; Sa 10:00-17:00,Neonet,Q11790622
946605,orlen_paczka_pl,,,Sosnowiec,,,PL,,,Mo-Sa 08:00-23:00; Su 09:00-21:00,Orlen Paczka,Q110457879
784620,orlen_paczka_pl,,,Sosnowiec,,,PL,,,,Orlen Paczka,Q110457879
799512,orlen_paczka_pl,,,Sosnowiec,,,PL,,,,Orlen Paczka,Q110457879
969053,orlen_paczka_pl,,,Sosnowiec,,,PL,,,Mo-Su 06:00-24:00,Orlen Paczka,Q110457879
228503,orlen_paczka_pl,,,Sosnowiec,,,PL,,,Mo-Sa 07:00-21:00; Su 09:00-18:00,Orlen Paczka,Q110457879
785546,orlen_paczka_pl,,,Sosnowiec,,,PL,,,,Orlen Paczka,Q110457879
955666,orlen_paczka_pl,,,Sosnowiec,,,PL,,,Mo-Fr 07:00-17:00; Sa 07:00-13:00,Orlen Paczka,Q110457879
353150,orlen_paczka_pl,,,Sosnowiec,,,PL,,,,Orlen Paczka,Q110457879
842200,orlen_paczka_pl,,,Sosnowiec,,,PL,,,Mo-Sa 06:00-24:00; Su 08:00-23:00,Orlen Paczka,Q110457879
987200,orlen_paczka_pl,,,Sosnowiec,,,PL,,,,Orlen Paczka,Q110457879
130998,orlen_paczka_pl,,,Sosnowiec,,,PL,,,,Orlen Paczka,Q110457879
616954,orlen_paczka_pl,,,Sosnowiec,,,PL,,,,Orlen Paczka,Q110457879
512913,orlen_paczka_pl,,,Sosnowiec,,,PL,,,,Orlen Paczka,Q110457879
944299,orlen_paczka_pl,,,Sosnowiec,,,PL,,,Mo-Fr 09:00-18:00,Orlen Paczka,Q110457879
590646,orlen_paczka_pl,,,Sosnowiec,,,PL,,,,Orlen Paczka,Q110457879
254190,orlen_paczka_pl,,,Sosnowiec,,,PL,,,,Orlen Paczka,Q110457879
663144,orlen_paczka_pl,,,Sosnowiec,,,PL,,,,Orlen Paczka,Q110457879
172641,orlen_paczka_pl,,,Sosnowiec,,,PL,,,,Orlen Paczka,Q110457879
944739,orlen_paczka_pl,,,Sosnowiec,,,PL,,,,Orlen Paczka,Q110457879
326830,orlen_paczka_pl,,,Sosnowiec,,,PL,,,,Orlen Paczka,Q110457879
629823,orlen_paczka_pl,,,Sosnowiec,,,PL,,,,Orlen Paczka,Q110457879
513857,orlen_paczka_pl,,,Sosnowiec,,,PL,,,,Orlen Paczka,Q110457879
213789,orlen_paczka_pl,,,Sosnowiec,,,PL,,,,Orlen Paczka,Q110457879
1522585,santander_pl,Placówka Partnerska nr 1 w Sosnowcu,,Sosnowiec,,,PL,+48 32 413 17 87,,Mo-Fr 09:00-16:00,Santander,Q806653
https://stokrotka.pl/nasze-sklepy/sosnowiec-ul-prusa-53-5494.html,stokrotka_pl,Stokrotka Market,,Sosnowiec,,,PL,+48 81 888 92 00,https://stokrotka.pl/nasze-sklepy/sosnowiec-ul-prusa-53-5494.html,Mo-Sa 06:30-21:30; Su 09:00-20:00,Stokrotka Market,Q110801183
https://stokrotka.pl/nasze-sklepy/sosnowiec-ul-koszalinska-1-b-4837.html,stokrotka_pl,Stokrotka Market,,Sosnowiec,,,PL,+48 81 888 92 00,https://stokrotka.pl/nasze-sklepy/sosnowiec-ul-koszalinska-1-b-4837.html,Mo-Sa 06:30-22:00; Su 08:00-21:00,Stokrotka Market,Q110801183
542,tmobile_pl,T-Mobile,,Sosnowiec,,,PL,+48 604 774 208,,Mo-Fr 09:00-21:00; Sa 08:00-21:00,T-Mobile,Q327634
1078445,tmobile_pl,T-Mobile,,Sosnowiec,,,PL,+48 604 774 208,,Mo-Fr 09:00-21:00; Sa 08:00-21:00,T-Mobile,Q327634
BP_EXT_22709,totalenergies,ZAGÓRZE,,Sosnowiec,,,PL,,https://store.totalenergies.fr/en_EN/BP_EXT_22709,,BP,Q152057
,visa,,,SOSNOWIEC,,,PL,,,,,
,visa,,,SOSNOWIEC,,,PL,,,,,
,visa,,,SOSNOWIEC,,,PL,,,,,
,visa,,,SOSNOWIEC,,,PL,,,,,
,visa,,,SOSNOWIEC,,,PL,,,,,
,visa,,,SOSNOWIEC,,,PL,,,,,
,visa,,,SOSNOWIEC,,,PL,,,,,
,visa,,,SOSNOWIEC,,,PL,,,,,
,visa,,,SOSNOWIEC,,,PL,,,,,
,visa,,,SOSNOWIEC,,,PL,,,,,
,visa,,,SOSNOWIEC,,,PL,,,,,
,visa,,,SOSNOWIEC,,,PL,,,,,
,visa,,,SOSNOWIEC,,,PL,,,,,
,visa,,,SOSNOWIEC,,,PL,,,,,
,visa,,,SOSNOWIEC,,,PL,,,,,
,visa,,,SOSNOWIEC,,,PL,,,,,
,visa,,,SOSNOWIEC,,,PL,,,,,
,visa,,,SOSNOWIEC,,,PL,,,,,
,visa,,,SOSNOWIEC,,,PL,,,,,
ID00835,zabka_pl,Żabka,,Sosnowiec,,,PL,,,Mo-Sa 06:00-23:00; Su 09:00-21:00,Żabka,Q2589061
ID04046,zabka_pl,Żabka,,Sosnowiec,,,PL,,,Mo-Sa 06:00-23:00; Su 11:00-20:00,Żabka,Q2589061
ID04943,zabka_pl,Żabka,,Sosnowiec,,,PL,,,Mo-Sa 06:00-23:00; Su 10:00-22:00,Żabka,Q2589061
ID05316,zabka_pl,Żabka,,Sosnowiec,,,PL,,,Mo-Sa 06:00-23:00; Su 09:00-22:00,Żabka,Q2589061
ID06548,zabka_pl,Żabka,,Sosnowiec,,,PL,,,Mo-Sa 06:00-23:00; Su 10:00-21:00,Żabka,Q2589061
ID06578,zabka_pl,Żabka,,Sosnowiec,,,PL,,,Mo-Sa 06:00-23:00; Su 09:00-21:00,Żabka,Q2589061
ID07090,zabka_pl,Żabka,,Sosnowiec,,,PL,,,Mo-Sa 06:00-23:00; Su 09:00-22:00,Żabka,Q2589061
ID09075,zabka_pl,Żabka,,Sosnowiec,,,PL,,,Mo-Sa 06:00-23:00; Su 10:00-20:00,Żabka,Q2589061
ID09174,zabka_pl,Żabka,,Sosnowiec,,,PL,,,Mo-Sa 06:00-23:00; Su 10:00-20:00,Żabka,Q2589061
ID0B310,zabka_pl,Żabka,,Sosnowiec,,,PL,,,Mo-Sa 06:00-23:00; Su 10:00-21:00,Żabka,Q2589061
ID0B537,zabka_pl,Żabka,,Sosnowiec,,,PL,,,Mo-Sa 06:00-22:00; Su 10:00-22:00,Żabka,Q2589061
ID0C226,zabka_pl,Żabka,,Sosnowiec,,,PL,,,Mo-Sa 06:00-23:00; Su 09:00-21:00,Żabka,Q2589061
