Ref,Spider,Name,Address,City,State,Zipcode,Country,Phone,Website,Hours,Brand,WikiData
3248,anytime_fitness,Anytime Fitness,,Wisconsin Dells,WI,,US,+1 608-253-1333,https://www.anytimefitness.com/gyms/3248/wisconsin-dells-wi-53965/,,Anytime Fitness,Q4778364
https://restaurants.applebees.com/en-us/wi/wisconsin-dells/340-hwy.-13-97069,applebees,Connect with this Applebee's,,Wisconsin Dells,WI,,US,+1 608-678-3114,https://restaurants.applebees.com/en-us/wi/wisconsin-dells/340-hwy.-13-97069,Mo-Th 11:00-23:00; Fr-Sa 11:00-24:00; Su 11:00-23:00,Applebees,Q621532
https://locations.baskinrobbins.com/wi/wisconsin-dells/2415-wisconsin-dells-parkway-349710-br,baskin_robbins_us,Baskin-Robbinsâ„¢,,Wisconsin Dells,WI,,US,,https://locations.baskinrobbins.com/wi/wisconsin-dells/2415-wisconsin-dells-parkway-349710-br,Mo-Th 05:30-21:00; Fr-Sa 05:30-22:00; Su 05:30-21:00,Baskin-Robbins,Q584601
156154,bluerhino,Walgreens #6885,,Wisconsin Dells,WI,,US,+1 608-254-5760,,,Blue Rhino,Q65681213
31640970813905396500100000000000,bp,BP,,Wisconsin Dells,WI,,US,+1 608-253-2747,,Mo-Su 06:00-23:00,BP,Q152057
122201,bp,BP,,Wisconsin Dells,WI,,US,+1 608-253-3700,,,BP,Q152057
65007785628905396500100000000000,bp,BP,,Wisconsin Dells,WI,,US,+1 608-253-2165,,Mo-Th 08:00-20:30; Fr-Sa 08:00-21:00; Su 08:00-20:30,BP,Q152057
62987,citi,ATM Kwik Trip #583-2,,Wisconsin Dells,WI,,US,,,,Citibank,Q857063
62986,citi,ATM Kwik Trip #583-1,,Wisconsin Dells,WI,,US,,,,Citibank,Q857063
62221,citi,ATM Kwik Trip #1113-1,,Wisconsin Dells,WI,,US,,,,Citibank,Q857063
62223,citi,ATM Kwik Trip #1113-2-c,,Wisconsin Dells,WI,,US,,,,Citibank,Q857063
62222,citi,ATM Kwik Trip #1113-2,,Wisconsin Dells,WI,,US,,,,Citibank,Q857063
89889,citi,ATM Walgreens,,Wisconsin Dells,WI,,US,,,,Citibank,Q857063
62233,citi,ATM Kwik Trip #1118-2,,Wisconsin Dells,WI,,US,,,,Citibank,Q857063
62232,citi,ATM Kwik Trip #1118-1,,Wisconsin Dells,WI,,US,,,,Citibank,Q857063
62234,citi,ATM Kwik Trip #1118-2-c,,Wisconsin Dells,WI,,US,,,,Citibank,Q857063
39953,citi,ATM Chula Vista Condominiums,,Wisconsin Dells,WI,,US,,,,Citibank,Q857063
21116,coldstone_creamery,Cold Stone Creamery,,Wisconsin Dells,WI,,US,+1 608-253-2220,https://www.coldstonecreamery.com/stores/21116,,Cold Stone Creamery,Q1094923
43,culvers_us,"Culver's of Wisconsin Dells, WI - Hwy 13",,Wisconsin Dells,WI,,US,+1 608-253-9080,http://www.culvers.com/restaurants/wisconsin-dells,Mo-Fr 10:00-00:00; Su 10:00-00:00,Culver's,Q1143589
246399,dennys,Denny's,,Wisconsin Dells,WI,,US,+1 608-254-7825,https://locations.dennys.com/WI/WISCONSIN-DELLS/246399,Mo-Th 07:00-22:00; Fr-Sa 07:00-24:00; Su 07:00-22:00,Denny's,Q1189695
23915,dollar_general,Dollar General,,Wisconsin Dells,WI,,US,+1 608-678-3185,https://www.dollargeneral.com/store-directory/wi/wisconsin-dells/23915,Mo-Su 08:00-22:00,Dollar General,Q145168
2117,dominos_pizza_us,Domino's Pizza,,Wisconsin Dells,WI,,US,+1 608-253-1900,https://pizza.dominos.com/wisconsin/wisconsin-dells/111-wisconsin-dells-pkwy-s,Mo-Th 10:30-24:00; Fr-Sa 10:30-01:00; Su 10:30-24:00,Domino's,Q839466
362598,dunkin_us,Dunkin',,Wisconsin Dells,WI,,US,+1 608-350-9029,https://locations.dunkindonuts.com/en/wi/wisconsin-dells/69-commerce-st/362598,Mo-Su 05:30-20:00,Dunkin',Q847743
349710,dunkin_us,Dunkin',,Wisconsin Dells,WI,,US,+1 608-253-5353,https://locations.dunkindonuts.com/en/wi/wisconsin-dells/2415-wisconsin-dells-parkway/349710,Mo-Th 05:30-21:00; Fr-Sa 05:30-22:00; Su 05:30-21:00,Dunkin',Q847743
https://local.fedex.com/#25199634,fedex,,,Wisconsin Dells,WI,,US,+1 800-463-3339,https://local.fedex.com/en-us/wi/wisconsin-dells/s2kz3,,FedEx,Q459477
https://salons.greatclips.com/us/wi/wisconsin-dells/69-commerce-st,greatclips,Great Clips,,Wisconsin Dells,WI,,US,+1 608-678-2265,https://salons.greatclips.com/us/wi/wisconsin-dells/69-commerce-st,Mo-Fr 10:00-19:00; Sa 09:00-17:00; Su 10:00-16:00,Great Clips,Q5598967
16406,h_r_block,H&R Block,,Wisconsin Dells,WI,,US,+1 608-254-7337,https://www.hrblock.com/local-tax-offices/wisconsin/wisconsin-dells/902-broadway/16406/,,H&R Block,Q5627799
Maurer's Market,iga,Maurer's Market,"216 Washington Avenue, Wisconsin Dells, WI, 53965",Wisconsin Dells,WI,,US,+1 608-254-8313,http://www.maurersmarket.com/,,IGA,Q3146662
wi_wisconsin-dells_breakfast-346-hwy-13-5458,ihop,IHOP Breakfast Restaurants Near You at 346 Hwy 13,,Wisconsin Dells,WI,,US,+1 608-844-2615,https://restaurants.ihop.com/en-us/wi/wisconsin-dells/breakfast-346-hwy-13-5458,,IHOP,Q1185675
https://office.jacksonhewitt.com/#27575492,jackson_hewitt,Jackson Hewitt,,Wisconsin Dells,WI,,US,+1 608-423-5206,https://office.jacksonhewitt.com/tax-preparation-services-locations/en/wi/wisconsin-dells/130-commerce-street/53505,Mo-Sa 11:00-19:00; Su 12:00-16:00,Jackson Hewitt,Q6117132
https://locations.jimmyjohns.com/wi/wisconsindells/sandwiches-1547.html,jimmy_johns,Jimmy John's,,Wisconsin Dells,WI,,US,+1 608-254-5200,https://locations.jimmyjohns.com/wi/wisconsindells/sandwiches-1547.html,,Jimmy John's,Q1689380
2236,joann_us,JOANN Fabric and Crafts,,Wisconsin Dells,WI,,US,+1 608-253-3717,https://stores.joann.com/wi/wisconsin-dells/2236/,Mo-Sa 09:00-21:00; Su 10:00-18:00,JOANN,Q6203968
https://locations.kfc.com/#11249630,kfc,Chicken Nuggets Near Lake Delton,,Lake Delton,WI,,US,,https://locations.kfc.com/wi/lake-delton/31-s-wisconsin-dells-pkwy/chickennugget,,KFC,Q524757
https://stores.loft.com/outlet/us/wi/wisconsin-dells/210-n-gasser-road.html,loft_us,Loft,,Wisconsin Dells,WI,,US,+1 608-253-1676,https://stores.loft.com/outlet/us/wi/wisconsin-dells/210-n-gasser-road.html,,Loft,Q62075137
MSNWD,marriott,Fairfield Inn & Suites Wisconsin Dells,,Wisconsin Dells,WI,,US,+1 608-678-2676,https://www.marriott.com/MSNWD,,Fairfield by Marriott,Q5430314
MSNSH,marriott,SpringHill Suites Wisconsin Dells,,Wisconsin Dells,WI,,US,+1 608-678-2225,https://www.marriott.com/MSNSH,,SpringHill Suites,Q7580351
https://locations.oreillyauto.com/wi/lakedelton/check-engine-light-testing-5261.html,oreilly,Your Lake Delton O'Reilly Auto Parts Store,,Lake Delton,WI,,US,+1 608-254-9918,https://locations.oreillyauto.com/wi/lakedelton/check-engine-light-testing-5261.html,Mo-Sa 07:00-21:00; Su 08:00-19:00,O'Reilly Auto Parts,Q7071951
https://locations.oreillyauto.com/wi/lakedelton/wiper-installation-5261.html,oreilly,Your Lake Delton O'Reilly Auto Parts Store,,Lake Delton,WI,,US,+1 608-254-9918,https://locations.oreillyauto.com/wi/lakedelton/wiper-installation-5261.html,Mo-Sa 07:00-21:00; Su 08:00-19:00,O'Reilly Auto Parts,Q7071951
https://locations.oreillyauto.com/wi/lakedelton/battery-testing-5261.html,oreilly,Your Lake Delton O'Reilly Auto Parts Store,,Lake Delton,WI,,US,+1 608-254-9918,https://locations.oreillyauto.com/wi/lakedelton/battery-testing-5261.html,Mo-Sa 07:00-21:00; Su 08:00-19:00,O'Reilly Auto Parts,Q7071951
https://locations.oreillyauto.com/wi/lakedelton/autopartes-5261.html,oreilly,Tu tienda O'Reilly Auto Parts en Lake Delton,,Lake Delton,WI,,US,+1 608-254-9918,https://locations.oreillyauto.com/wi/lakedelton/autopartes-5261.html,Mo-Sa 07:00-21:00; Su 08:00-19:00,O'Reilly Auto Parts,Q7071951
32529,smilebrands,Midwest Dental Wisconsin Dells,910 Iowa Ave.,Wisconsin Dells,WI,,US,+1 608-253-4701,https://midwest-dental.com/locations/wisconsin-dental-centers/wisconsin-dells-wi/,,Smile Brands Inc.,Q108286823
https://restaurants.subway.com/#14904013,subway,Subway,,Wisconsin Dells Sauk,WI,,US,+1 608-254-7576,https://restaurants.subway.com/united-states/wi/wisconsin-dells/421-wisconsin-dells-pkwy,Mo-Su 09:00-22:00,Subway,Q244457
https://locations.tacobell.com/#6144235,taco_bell,Taco Bell,,Wisconsin Dells,WI,,US,+1 608-254-6039,https://locations.tacobell.com/wi/wisconsin-dells/321-highway-13.html,Mo-Th 09:00-02:00; Fr 09:00-03:00; Sa 08:00-03:00; Su 08:00-02:00,Taco Bell,Q752941
051572,uhaul,Hovland's Tire & Oil Inc,4147A State Hwy 13,Wisconsin Dells,WI,,US,+1 608-253-9343,,Mo-Fr 00:00-16:00,U-Haul,Q7862902
1388074,usps,WISCONSIN DELLS,,WISCONSIN DELLS,WI,,US,+1 608-254-6412,,Mo-Fr 08:30-17:00; Sa 09:00-12:00,United States Postal Service,Q668687
5396500019,usps_collection_boxes,USPS COLLECTION BOX - BLUE BOX,130 COMMERCE ST,WISCONSIN DELLS,WI,,US,,,,United States Postal Service,Q668687
5396500005,usps_collection_boxes,USPS COLLECTION BOX - BLUE BOX,3495 STATE RD 13,WISCONSIN DELLS,WI,,US,,,,United States Postal Service,Q668687
5396500013,usps_collection_boxes,USPS COLLECTION BOX - BLUE BOX,300 STATE RD 13,WISCONSIN DELLS,WI,,US,,,,United States Postal Service,Q668687
5396500001,usps_collection_boxes,USPS COLLECTION BOX - BLUE BOX,310 MINNESOTA AVE,WISCONSIN DELLS,WI,,US,,,,United States Postal Service,Q668687
5396500000,usps_collection_boxes,USPS COLLECTION BOX - BLUE BOX,310 MINNESOTA AVE,WISCONSIN DELLS,WI,,US,,,,United States Postal Service,Q668687
5396500020,usps_collection_boxes,USPS COLLECTION BOX - PO LOBBY,310 MINNESOTA AVE,WISCONSIN DELLS,WI,,US,,,,United States Postal Service,Q668687
5396500016,usps_collection_boxes,USPS COLLECTION BOX - PO LOBBY,310 MINNESOTA AVE,WISCONSIN DELLS,WI,,US,,,,United States Postal Service,Q668687
5396500017,usps_collection_boxes,USPS COLLECTION BOX - PO LOBBY,310 MINNESOTA AVE,WISCONSIN DELLS,WI,,US,,,,United States Postal Service,Q668687
5396500004,usps_collection_boxes,USPS COLLECTION BOX - BLUE BOX,802 BROADWAY,WISCONSIN DELLS,WI,,US,,,,United States Postal Service,Q668687
A00000250328,verizon_us,Victra Wisconsin Dells,,Wisconsin Dells,WI,,US,+1 608-678-2223,https://www.verizon.com/stores/details/wisconsin/wisconsin-dells/victra-wisconsin-dells-1365422/,Mo-Sa 10:00-19:00,Verizon,Q919641
,visa,,,MANITOWOC,WI,,US,,,,,
,visa,,,BURLINGTON,WI,,US,,,,,
,visa,,,JEFFERSON,WI,,US,,,,,
,visa,,,DEERFIELD,WI,,US,,,,,
,visa,,,RIO,WI,,US,,,,,
,visa,,,SUN PRAIRIE,WI,,US,,,,,
,visa,,,PRAIRIE,WI,,US,,,,,
,visa,,,SUN PRAIRIE,WI,,US,,,,,
,visa,,,MADISON,WI,,US,,,,,
,visa,,,PORTAGE,WI,,US,,,,,
,visa,,,WISCONSIN DELLS,WI,,US,,,,,
,visa,,,MERRIMAC,WI,,US,,,,,
,visa,,,WISCONSIN DELLS,WI,,US,,,,,
,visa,,,WISCONSIN DELLS,WI,,US,,,,,
,visa,,,WISCONSIN DELLS,WI,,US,,,,,
,visa,,,WISCONSIN DELLS,WI,,US,,,,,
,visa,,,WISCONSIN DELLS,WI,,US,,,,,
,visa,,,WISCONSIN DELLS,WI,,US,,,,,
,visa,,,WISCONSIN DELLS,WI,,US,,,,,
,visa,,,WISCONSIN DELLS,WI,,US,,,,,
,visa,,,WISCONSIN DELLS,WI,,US,,,,,
,visa,,,WISCONSIN DELLS,WI,,US,,,,,
,visa,,,WISCONSIN DELLS,WI,,US,,,,,
,visa,,,WISCONSIN DELLS,WI,,US,,,,,
,visa,,,LAKE DELTON,WI,,US,,,,,
,visa,,,WISCONSIN DELLS,WI,,US,,,,,
,visa,,,WISCONSIN DELLS,WI,,US,,,,,
,visa,,,WISCONSIN DELLS,WI,,US,,,,,
,visa,,,WISCONSIN DELLS,WI,,US,,,,,
,visa,,,WISCONSIN DELLS,WI,,US,,,,,
,visa,,,WISCONSIN DELLS,WI,,US,,,,,
,visa,,,WISCONSIN DELLS,WI,,US,,,,,
,visa,,,WISCONSIN DELLS,WI,,US,,,,,
,visa,,,WISCONSIN DELLS,WI,,US,,,,,
,visa,,,WISCONSIN DELLS,WI,,US,,,,,
,visa,,,WISCONSIN DELLS,WI,,US,,,,,
,visa,,,WISCONSIN DEL,WI,,US,,,,,
,visa,,,WISCONSIN DELLS,WI,,US,,,,,
,visa,,,WISCONSIN DELLS,WI,,US,,,,,
,visa,,,WISCONSIN DELLS,WI,,US,,,,,
,visa,,,WISCONSIN DELLS,WI,,US,,,,,
,visa,,,WISCONSIN DELLS,WI,,US,,,,,
,visa,,,WISCONSIN DELLS,WI,,US,,,,,
,visa,,,WISCONSIN DEL,WI,,US,,,,,
,visa,,,WISCONSIN DELLS,WI,,US,,,,,
,visa,,,WISCONSIN DELLS,WI,,US,,,,,
,visa,,,WISCONSIN DELLS,WI,,US,,,,,
,visa,,,WISCONSIN DELLS,WI,,US,,,,,
,visa,,,WISCONSIN DELLS,WI,,US,,,,,
,visa,,,WISCONSIN DELLS,WI,,US,,,,,
,visa,,,WISCONSIN DELLS,WI,,US,,,,,
,visa,,,WISCONSIN DELLS,WI,,US,,,,,
,visa,,,WISCONSIN DELLS,WI,,US,,,,,
,visa,,,WISCONSIN DELLS,WI,,US,,,,,
,visa,,,WISCONSIN DELLS,WI,,US,,,,,
,visa,,,WISCONSIN DELLS,WI,,US,,,,,
,visa,,,WISCONSIN DELLS,WI,,US,,,,,
,visa,,,WISCONSIN DELLS,WI,,US,,,,,
,visa,,,WISCONSIN DELLS,WI,,US,,,,,
,visa,,,WISCONSIN DELLS,WI,,US,,,,,
,visa,,,WISCONSIN DELLS,WI,,US,,,,,
,visa,,,WISCONSIN DELLS,WI,,US,,,,,
,visa,,,WISCONSIN DELLS,WI,,US,,,,,
,visa,,,WISCONSIN DELLS,WI,,US,,,,,
,visa,,,WISCONSIN DELLS,WI,,US,,,,,
,visa,,,WISCONSIN DELLS,WI,,US,,,,,
,visa,,,WISCONSIN DELLS,WI,,US,,,,,
,visa,,,WISCONSIN DELLS,WI,,US,,,,,
,visa,,,WISCONSIN DELLS,WI,,US,,,,,
,visa,,,WISCONSIN DELLS,WI,,US,,,,,
,visa,,,WISCONSIN DELLS,WI,,US,,,,,
,visa,,,WISCONSIN DELLS,WI,,US,,,,,
,visa,,,WISCONSIN DELLS,WI,,US,,,,,
,visa,,,WISCONSIN DELLS,WI,,US,,,,,
,visa,,,WISCONSIN DELLS,WI,,US,,,,,
,visa,,,WISCONSIN DEL,WI,,US,,,,,
,visa,,,WISCONSIN DELLS,WI,,US,,,,,
,visa,,,WISCONSIN DELLS,WI,,US,,,,,
,visa,,,WISCONSIN DELLS,WI,,US,,,,,
,visa,,,WISCONSIN DELLS,WI,,US,,,,,
,visa,,,GREENSBERG,WI,,US,,,,,
,visa,,,WISCONSIN DELLS,WI,,US,,,,,
,visa,,,WISCONSIN DELLS,WI,,US,,,,,
,visa,,,WISCONSIN DELLS,WI,,US,,,,,
,visa,,,WISCONSIN DEL,WI,,US,,,,,
,visa,,,WISCONSIN DEL,WI,,US,,,,,
,visa,,,WISCONSIN DELLS,WI,,US,,,,,
,visa,,,WISCONSIN DELLS,WI,,US,,,,,
,visa,,,WISCONSIN DELLS,WI,,US,,,,,
,visa,,,WISCONSIN DELLS,WI,,US,,,,,
,visa,,,WISCONSIN DELLS,WI,,US,,,,,
,visa,,,WISCONSIN DELLS,WI,,US,,,,,
,visa,,,LAKE DELTON,WI,,US,,,,,
,visa,,,WISCONSIN DELLS,WI,,US,,,,,
,visa,,,WIS DELLS,WI,,US,,,,,
,visa,,,WISCONSIN DEL,WI,,US,,,,,
,visa,,,WISCONSIN DEL,WI,,US,,,,,
,visa,,,WISCONSIN DELLS,WI,,US,,,,,
,visa,,,WISCONSIN DELLS,WI,,US,,,,,
,visa,,,WISCONSIN DELLS,WI,,US,,,,,
,visa,,,WISCONSIN DELLS,WI,,US,,,,,
,visa,,,WISCONSIN DEL,WI,,US,,,,,
,visa,,,WI DELLS,WI,,US,,,,,
,visa,,,WISCONSIN DELLS,WI,,US,,,,,
,visa,,,WISCONSIN DELLS,WI,,US,,,,,
,visa,,,LAKE DELTON,WI,,US,,,,,
,visa,,,WISCONSIN DELLS,WI,,US,,,,,
,visa,,,WISCONSIN DELLS,WI,,US,,,,,
,visa,,,WISCONSIN DELLS,WI,,US,,,,,
,visa,,,WISCONSIN DELLS,WI,,US,,,,,
,visa,,,WISCONSIN DELLS,WI,,US,,,,,
,visa,,,WISCONSIN DELLS,WI,,US,,,,,
,visa,,,WISCONSIN DELLS,WI,,US,,,,,
,visa,,,WISCONSIN DELLS,WI,,US,,,,,
,visa,,,WISCONSIN DELLS,WI,,US,,,,,
,visa,,,WISCONSIN DELLS,WI,,US,,,,,
,visa,,,WISCONSIN DELLS,WI,,US,,,,,
,visa,,,WISCONSIN DELLS,WI,,US,,,,,
,visa,,,WISCONSIN DELLS,WI,,US,,,,,
,visa,,,WISCONSIN DELLS,WI,,US,,,,,
,visa,,,WISCONSIN DELLS,WI,,US,,,,,
,visa,,,WISCONSIN DELLS,WI,,US,,,,,
,visa,,,WISCONSIN DEL,WI,,US,,,,,
,visa,,,WISCONSIN DELLS,WI,,US,,,,,
,visa,,,WISCONSIN DELLS,WI,,US,,,,,
,visa,,,WISCONSIN DELLS,WI,,US,,,,,
,visa,,,MAUSTON,WI,,US,,,,,
https://www.walgreens.com/locator/walgreens-300+state+highway+13-wisconsin+dells-wi-53965/id=6885,walgreens,Walgreens,,Wisconsin Dells,WI,,US,+1 608-254-5760,https://www.walgreens.com/locator/walgreens-300+state+highway+13-wisconsin+dells-wi-53965/id=6885,Mo-Su 07:00-23:00,Walgreens,Q1591889
65f7880fb7f093e55082a6bf3f52de4e,western_union,WALMART #003505,,Wisconsin Dells,WI,,US,+1 608-253-3490,https://location.westernunion.com/us/wi/wisconsin-dells/65f7880fb7f093e55082a6bf3f52de4e,Mo-Su 07:00-21:00,Western Union,Q861042
f1f21dbfba1d8651cbac526269acdb56,western_union,JM CURRENCY EXCHANGE LLC,,Wisconsin Dells,WI,,US,+1 608-254-4261,https://location.westernunion.com/us/wi/wisconsin-dells/f1f21dbfba1d8651cbac526269acdb56,Mo-Su 07:00-21:00,Western Union,Q861042
