Ref,Spider,Name,Address,City,State,Zipcode,Country,Phone,Website,Hours,Brand,WikiData
7154,aaa,Ardmore OK,,Ardmore,OK,,US,+1 580-223-0222,,,American Automobile Association,Q463436
https://www.academy.com/storelocator/#12344951,academy_us,Academy Sports + Outdoors,,Ardmore,OK,,US,+1 580-768-6429,https://www.academy.com/storelocator/oklahoma/ardmore/store-0320,Mo-Th 09:00-21:00; Fr 09:00-22:00; Sa 08:00-22:00; Su 09:00-21:00,Academy Sports + Outdoors,Q4671380
https://stores.aldi.us/#4419929,aldi_sud_us,ALDI  510 N. Commerce St.,,Ardmore,OK,,US,+1 844-475-1021,https://stores.aldi.us/ok/ardmore/510-n-commerce-st,"Mo-Su 08:30-20:00,09:00-20:00",ALDI,Q41171672
2724,anytime_fitness,Anytime Fitness,,Ardmore,OK,,US,+1 580-223-5252,https://www.anytimefitness.com/gyms/2724/ardmore-ok-73401/,,Anytime Fitness,Q4778364
https://restaurants.applebees.com/en-us/ok/ardmore/2680-w.-broadway-94010,applebees,Connect with this Applebee's,,Ardmore,OK,,US,+1 580-490-3373,https://restaurants.applebees.com/en-us/ok/ardmore/2680-w.-broadway-94010,Mo-Th 11:00-24:00; Fr-Sa 11:00-01:00; Su 11:00-24:00,Applebees,Q621532
https://locations.arbys.com/ok/ardmore/2700-12th-avenue-nw.html,arbys_us,"Arby's Fast-Food Drive Through Near You in Ardmore, OK",,Ardmore,OK,,US,+1 580-223-5846,https://locations.arbys.com/ok/ardmore/2700-12th-avenue-nw.html,Mo-Sa 10:00-23:00; Su 10:00-22:30,Arby's,Q630866
https://stores.ashleyfurniture.com/store/us/oklahoma/ardmore/9000676117/,ashley_furniture,"Ashley Store Ardmore, OK",,Ardmore,OK,,US,+1 580-798-4013,https://stores.ashleyfurniture.com/store/us/oklahoma/ardmore/9000676117/,,Ashley Furniture,Q4805437
160926,asics_us,Academy Sports + Outdoors,1605 12th Ave NW,Ardmore,OK,,US,+1 580-768-6429,,,asics,Q327247
12364,asics_us,Hibbett Sports,1211 N Commerce Street,Ardmore,OK,,US,+1 580-490-9929,,,asics,Q327247
12366,asics_us,Hibbett Sports,2401 12th Ave NW #112,Ardmore,OK,,US,+1 580-223-2404,,,asics,Q327247
113001,att_us,ARDMORE,,Ardmore,OK,,US,+1 580-223-5213,https://www.att.com/stores/oklahoma/ardmore/113001,Mo-Sa 09:00-20:00; Su 11:00-18:00,AT&T,Q298594
515,autozone_us,AutoZone Auto Parts Ardmore,,Ardmore,OK,,US,+1 580-226-5800,https://www.autozone.com/locations/ok/ardmore/914-w-broadway-st.html,Mo-Sa 07:30-22:00; Su 09:00-20:00,AutoZone,Q4826087
BBW01173,bathandbodyworks_us,SHOPS AT ARDMORE,,ARDMORE,OK,,US,+1 580-226-0709,,Mo-Sa 10:00-20:00; Su 13:00-17:00,Bath & Body Works,Q810773
634,bealls_us,Bealls,,Ardmore,OK,,US,+1 580-223-5426,https://stores.bealls.com/ok/ardmore/clothing-store-634.html,Mo-Th 09:00-21:00; Fr-Sa 09:00-21:30; Su 10:00-20:00,Bealls,Q4876153
https://local.biglots.com/#13190548,biglots,Big Lots - Ardmore,,Ardmore,OK,,US,+1 580-224-9825,https://local.biglots.com/ok/ardmore/1203-n-commerce-street,Mo-Sa 09:00-21:00; Su 09:00-19:00,Big Lots,Q4905973
59357,bluerhino,Love's #266,,Ardmore,OK,,US,+1 580-226-0973,,,Blue Rhino,Q65681213
228623,bluerhino,Bomgaar's #165,,Ardmore,OK,,US,+1 580-223-0409,,,Blue Rhino,Q65681213
68112,bluerhino,Lowe's #1749,,Ardmore,OK,,US,+1 580-490-3430,,,Blue Rhino,Q65681213
218408,bluerhino,Dollar General #23533,,ARDMORE,OK,,US,+1 539-228-6165,,,Blue Rhino,Q65681213
169808,bluerhino,EZ Shop #1,,Ardmore,OK,,US,+1 580-223-1167,,,Blue Rhino,Q65681213
220687,bluerhino,Dollar General #23764,,ARDMORE,OK,,US,+1 580-404-1970,,,Blue Rhino,Q65681213
140100,bluerhino,Walmart #0129 - Supercenter,,Ardmore,OK,,US,+1 580-226-1257,,,Blue Rhino,Q65681213
192673,bluerhino,Murphy's #8716,,Ardmore,OK,,US,+1 580-224-2757,,,Blue Rhino,Q65681213
151441,bluerhino,Walgreens #5739,,Ardmore,OK,,US,+1 580-226-6978,,,Blue Rhino,Q65681213
208812,bluerhino,Casey's General Store #4051,,Ardmore,OK,,US,+1 580-324-8053,,,Blue Rhino,Q65681213
226174,bluerhino,Atwoods Ranch & Home Goods #64,,Ardmore,OK,,US,+1 580-798-0817,,,Blue Rhino,Q65681213
33467,bluerhino,Love's #054,,Ardmore,OK,,US,+1 580-223-6362,,,Blue Rhino,Q65681213
181331,bluerhino,E-Z Shop #2,,Ardmore,OK,,US,+1 580-223-1918,,,Blue Rhino,Q65681213
221747,bluerhino,Broadway Express 1,,Ardmore,OK,,US,+1 903-357-8130,,,Blue Rhino,Q65681213
204467,bluerhino,Tim's Grocery Store A - #OK15691,,Ardmore,OK,,US,+1 214-940-7938,,,Blue Rhino,Q65681213
172184,bluerhino,Family Dollar #04279,,Ardmore,OK,,US,+1 580-226-7950,,,Blue Rhino,Q65681213
218915,bluerhino,Lakestop,,Ardmore,OK,,US,+1 580-224-0600,,,Blue Rhino,Q65681213
212710,bluerhino,Family Dollar #12956,,Ardmore,OK,,US,+1 580-768-6369,,,Blue Rhino,Q65681213
0448,bootbarn,Durant,,"Ardmore,",OK,,US,+1 580-826-9900,https://www.bootbarn.com/stores?StoreID=0448,Mo-Sa 09:00-21:00; Su 11:00-19:00,Boot Barn,Q109825187
https://local.buckle.com/ok/ardmore/clothing-39.html,buckle_us,Ardmore Men’s & Women’s Clothing,,Ardmore,OK,,US,+1 580-223-0721,https://local.buckle.com/ok/ardmore/clothing-39.html,Mo-Sa 11:00-19:00; Su 13:00-17:00,Buckle,Q4983306
3038,bueno,Taco Bueno - 3038,"905 N Commerce,  , Ardmore, OK, 73401, US",Ardmore,OK,,US,+1 580-319-5940,,Mo-Su 10:30-22:00,Taco Bueno,Q7673958
26972,burgerking,Burger King,,Ardmore,OK,,US,+1 580-223-1154,https://www.bk.com/store-locator/store/restaurant_88528,Mo-Sa 06:00-22:00; Su 07:00-22:00,Burger King,Q177054
1473,burlington_us,Burlington,,Ardmore,OK,,US,+1 572-522-5799,https://stores.burlington.com/ok/ardmore/1473,Mo-Th 09:00-23:30; Fr-Sa 09:00-24:00; Su 09:00-23:00,Burlington,Q4999220
https://stores.catofashions.com/#26560224,cato_us,Cato,,,OK,,US,+1 580-226-9769,https://stores.catofashions.com/ok/ardmore/209-north-commerce-street,Mo-Sa 10:00-20:00; Su 13:00-18:00,Cato,Q16956136
10592,cenex,Quad LLC,,Ardmore,OK,,US,+1 580-490-3508,,24/7,Cenex,Q62127191
05152,chevrolet,PATRIOT CHEVROLET GMC OF ARDMORE,,Ardmore,OK,,US,+1 580-808-3081,https://www.ardmorechevybuickgmc.com/,Mo-Fr 08:30-20:00; Sa 08:30-19:00,Chevrolet,Q29570
001.005.1564,chilis,Ardmore,,Ardmore,OK,,US,+1 580-223-5039,https://www.chilis.com/locations/us/oklahoma/ardmore/ardmore/,Mo-Th 11:00-22:00; Fr-Sa 11:00-23:00; Su 11:00-22:00,Chili's,Q1072948
86762,citi,ATM Walgreens,,Ardmore,OK,,US,,,,Citibank,Q857063
76013,citi,ATM SIMMONS BANK,,Ardmore,OK,,US,,,,Citibank,Q857063
47498,citi,ATM CVS,,Ardmore,OK,,US,,,,Citibank,Q857063
,credit_union_us,Communication FCU,,Ardmore,OK,,US,+1 580-223-0614,,Mo-Fr 09:00-05:30; Sa 09:00-12:00,,
70180387,cricket_wireless,Cricket Wireless Authorized Retailer,,Ardmore,OK,,US,+1 580-319-7525,https://www.cricketwireless.com/stores/ll/US/OK/Ardmore/1515-12th-Ave-NW,Mo-Sa 10:00-20:00; Su 12:00-17:00,Cricket Wireless,Q5184987
6222,cvs_us,CVS Pharmacy,,Ardmore,OK,,US,+1 580-223-1041,https://www.cvs.com/store-locator/ardmore-ok-pharmacies/1220-n-commerce-st-ardmore-ok-73401/storeid=6222,Mo-Su 08:00-21:00,CVS Pharmacy,Q2078880
61ac3cfc-7e6b-4ea1-8f94-cf58733cfb59,dairy_queen_us,1425 12th Ave NW,,Ardmore,OK,,US,+1 580-798-3096,https://www.dairyqueen.com/locations/ok/ardmore/1425-12th-ave-nw/15522,,DQ Grill & Chill,Q1141226
nca_s1161,department_veterans_affairs,Seaman First Class Billy Turner Ardmore Veterans Cemetery,,Ardmore,OK,,US,+1 405-523-4000,https://oklahoma.gov/veterans.html,,Department Veterans Affairs,Q592576
6450,dominos_pizza_us,Domino's Pizza,,Ardmore,OK,,US,+1 580-226-6330,https://pizza.dominos.com/oklahoma/ardmore/201-n-commerce,Mo-Th 10:30-24:00; Fr-Sa 10:30-01:00; Su 10:30-24:00,Domino's,Q839466
https://www.edwardjones.com/us-en/financial-advisor/cody-steele,edwardjones,Cody M Steele,,Ardmore,OK,,US,+1 580-223-3870,https://www.edwardjones.com/us-en/financial-advisor/cody-steele,Mo-Th 08:00-16:00; Fr 08:00-15:00,Edward Jones,Q5343830
100167,electrify_america,"Walmart 129 - Ardmore, OK",,Ardmore,OK,,US,,,,Electrify America,Q59773555
E1513I,enterprise,Ardmore,,Ardmore,OK,,US,+1 580-226-5200,,,Enterprise Rent-A-Car,Q17085454
32956,family_dollar_us,FAMILY DOLLAR #12956,,Ardmore,OK,,US,+1 580-768-6369,https://www.familydollar.com/locations/ok/ardmore/32956/,Mo-Sa 09:00-22:00; Su 09:00-21:00,Family Dollar,Q5433101
Motorcraft1571USAEnglish,ford,"Billingsley Ford, LLC",,Oklahoma,OK,,US,+1 580-226-3300,,,Ford,Q44294
https://www.ford.com/dealerships/dealer-details/ok/ardmore/billingsley-ford-of-ardmore/,ford_dealers_us,Billingsley Ford of Ardmore,,Ardmore,OK,,US,+1 580-850-1005,https://www.ford.com/dealerships/dealer-details/ok/ardmore/billingsley-ford-of-ardmore/,Mo-Fr 09:00-18:00; Sa 09:00-17:00,Ford Motor Company,Q44294
6719,gamestop_us,Ardmore Commons,,Ardmore,OK,,US,+1 580-490-9425,https://www.gamestop.com/search/?store=6719,Mo-Th 12:00-20:00; Fr-Sa 10:00-21:00; Su 12:00-18:00,GameStop,Q202210
https://stores.gnc.com/#24057756,gnc,GNC Mountain View Mall,,,OK,,US,+1 580-226-7870,https://stores.gnc.com/all-stores-oklahoma/ardmore/1211-n-commerce,Mo-Sa 10:00-20:00; Su 13:00-17:00,GNC,Q4808595
c87e7426-26fa-e611-bbdb-005056890337,goodwill,#30 Ardmore Store,,Ardmore,OK,,US,+1 580-319-4208,https://www.goodwill.org/locator/location/?store=Yzg3ZTc0MjYtMjZmYS1lNjExLWJiZGItMDA1MDU2ODkwMzM3&lat=MzQuMTYzMTI=&lng=LTk3LjE2MDU=,,Goodwill,Q5583655
https://salons.greatclips.com/us/ok/ardmore/1525-12th-ave-nw,greatclips,Great Clips,,Ardmore,OK,,US,+1 580-768-7099,https://salons.greatclips.com/us/ok/ardmore/1525-12th-ave-nw,Mo-Fr 09:00-19:00; Sa 09:00-18:00; Su 10:00-17:00,Great Clips,Q5598967
https://www.harborfreight.com/storelocator/601-n-commerce-st-ardmore-73401?number=821,harborfreight,"Harbor Freight Tools Ardmore, OK",,Ardmore,OK,,US,+1 580-223-5291,https://www.harborfreight.com/storelocator/601-n-commerce-st-ardmore-73401?number=821,Mo-Sa 08:00-20:00; Su 09:00-18:00,Harbor Freight Tools,Q5654601
admargi-hilton-garden-inn-ardmore,hilton,Hilton Garden Inn Ardmore,,,OK,,US,+1 580-226-2223,https://www.hilton.com/ar/hotels/admargi-hilton-garden-inn-ardmore/,,Hilton Garden Inn,Q1162859
35832,h_r_block,H&R Block,,Ardmore,OK,,US,+1 580-223-9693,https://www.hrblock.com/local-tax-offices/oklahoma/ardmore/1447-w-broadway/35832/,,H&R Block,Q5627799
ok_ardmore_breakfast-2520-veterans-blvd-3050,ihop,IHOP Breakfast Restaurants Near You at 2520 Veterans Blvd,,Ardmore,OK,,US,+1 580-223-0700,https://restaurants.ihop.com/en-us/ok/ardmore/breakfast-2520-veterans-blvd-3050,,IHOP,Q1185675
https://office.jacksonhewitt.com/#27576837,jackson_hewitt,Jackson Hewitt,,Ardmore,OK,,US,+1 580-826-3209,https://office.jacksonhewitt.com/tax-preparation-services-locations/en/ok/ardmore/2015-w-broadway-st/17430,Mo-Sa 11:00-19:00; Su 12:00-16:00,Jackson Hewitt,Q6117132
https://office.jacksonhewitt.com/#27580543,jackson_hewitt,Jackson Hewitt,,Ardmore,OK,,US,+1 580-826-3218,https://office.jacksonhewitt.com/tax-preparation-services-locations/en/ok/ardmore/1715-n-commerce-st/50129,Mo-Sa 11:00-19:00; Su 12:00-16:00,Jackson Hewitt,Q6117132
4120,jiffy_lube_us,12th Ave. NW,,Ardmore,OK,,US,+1 580-221-2073,https://www.jiffylube.com/locations/ok/ardmore/4120,Mo-Fr 08:00-18:00; Sa 08:00-17:00,Jiffy Lube,Q6192247
https://locations.kfc.com/#11247727,kfc,Chicken Nuggets Near Ardmore,,Ardmore,OK,,US,,https://locations.kfc.com/ok/ardmore/2615-w-broadway-street/chickennugget,Mo-Su 10:00-22:30,KFC,Q524757
5986,little_free_library,Carolyn Pirtle #5986 Ardmore OK,,Ardmore,OK,,US,,,,Little Free Library,Q6650101
266,loves,Site 266,,Ardmore,OK,,US,+1 580-226-0973,,,Love's,Q1872496
54,loves,Site 54,,Ardmore,OK,,US,+1 580-223-6362,,,Love's,Q1872496
ADMCY,marriott,Courtyard Ardmore,,Ardmore,OK,,US,+1 580-224-2764,https://www.marriott.com/ADMCY,,Courtyard by Marriott,Q1053170
https://locations.maurices.com/#11688717,maurices,maurices Ardmore Commons,,Ardmore,OK,,US,+1 580-226-8812,https://locations.maurices.com/us/ok/ardmore/2401-12th-avenue-nw,Mo-Th 11:00-20:00; Fr-Sa 10:00-20:00; Su 12:00-18:00,maurices,Q6793571
https://www.mercy.net/content/mercy/us/en/practice/ardmore/mercy-diabetes-education-1006-nw-boulevard.html,mercy,Mercy Diabetes Education - 1006 NW Boulevard,,Ardmore,OK,,US,+1 580-220-6764,https://www.mercy.net/practice/mercy-diabetes-education-1006-nw-boulevard,Mo-Fr 08:00-17:00,Mercy,Q30289045
https://www.mercy.net/content/mercy/us/en/practice/ardmore/mercy-cancer-center-ardmore.html,mercy,Mercy Cancer Center - Ardmore,,Ardmore,OK,,US,+1 580-223-7091,https://www.mercy.net/practice/mercy-cancer-center-ardmore,Mo-Th 08:00-17:00; Fr 08:00-12:00,Mercy,Q30289045
https://www.mercy.net/content/mercy/us/en/practice/ardmore/mercy-clinic-oncology-and-hematology-ardmore.html,mercy,Mercy Clinic Oncology and Hematology - Ardmore,,Ardmore,OK,,US,+1 580-223-7091,https://www.mercy.net/practice/mercy-clinic-oncology-and-hematology-ardmore,Mo-Fr 08:00-17:00,Mercy,Q30289045
https://www.mercy.net/content/mercy/us/en/practice/ardmore/mercy-spiritual-care-ardmore.html,mercy,Mercy Spiritual Care - Ardmore,,Ardmore,OK,,US,+1 580-223-5400,https://www.mercy.net/practice/mercy-spiritual-care-ardmore,24/7,Mercy,Q30289045
https://www.mercy.net/content/mercy/us/en/practice/ardmore/mercy-emergency-department-ardmore.html,mercy,Mercy Emergency Department - Ardmore,,Ardmore,OK,,US,+1 580-223-5400,https://www.mercy.net/practice/mercy-emergency-department-ardmore,24/7,Mercy,Q30289045
https://www.mercy.net/content/mercy/us/en/practice/ardmore/mercy-laboratory-services-ardmore.html,mercy,Mercy Laboratory Services - Ardmore,,Ardmore,OK,,US,+1 580-223-5400,https://www.mercy.net/practice/mercy-laboratory-services-ardmore,Mo-Fr 07:00-17:00,Mercy,Q30289045
https://www.mercy.net/content/mercy/us/en/practice/ardmore/mercy-joint-replacement-center-ardmore.html,mercy,Mercy Joint Replacement Center - Ardmore,,Ardmore,OK,,US,+1 580-223-5400,https://www.mercy.net/practice/mercy-joint-replacement-center-ardmore,24/7,Mercy,Q30289045
https://www.mercy.net/content/mercy/us/en/practice/ardmore/mercy-health-foundation-ardmore.html,mercy,Mercy Health Foundation Ardmore,,Ardmore,OK,,US,+1 580-220-6712,https://www.mercy.net/practice/mercy-health-foundation-ardmore,Mo-Fr 08:00-16:30,Mercy,Q30289045
https://www.mercy.net/content/mercy/us/en/practice/ardmore/mercy-hospital-ardmore.html,mercy,Mercy Hospital Ardmore,,Ardmore,OK,,US,+1 580-223-5400,https://www.mercy.net/practice/mercy-hospital-ardmore,24/7,Mercy,Q30289045
https://www.mercy.net/content/mercy/us/en/practice/ardmore/mercy-birthplace-ardmore.html,mercy,Mercy Birthplace - Ardmore,,Ardmore,OK,,US,+1 580-220-6430,https://www.mercy.net/practice/mercy-birthplace-ardmore,24/7,Mercy,Q30289045
https://www.mercy.net/content/mercy/us/en/practice/ardmore/mercy-volunteer-services-ardmore.html,mercy,Mercy Volunteer Services - Ardmore,,Ardmore,OK,,US,+1 580-220-6604,https://www.mercy.net/practice/mercy-volunteer-services-ardmore,Mo-Fr 08:00-16:30,Mercy,Q30289045
https://www.mercy.net/content/mercy/us/en/practice/ardmore/mercy-senior-behavioral-health-ardmore.html,mercy,Mercy Senior Behavioral Health - Ardmore,,Ardmore,OK,,US,+1 580-220-6190,https://www.mercy.net/practice/mercy-senior-behavioral-health-ardmore,24/7,Mercy,Q30289045
https://www.mercy.net/content/mercy/us/en/practice/ardmore/mercy-pharmacy-ardmore.html,mercy,Mercy Pharmacy - Ardmore,,Ardmore,OK,,US,+1 580-220-6250,https://www.mercy.net/practice/mercy-pharmacy-ardmore,Mo-Fr 09:00-17:30,Mercy,Q30289045
https://www.mercy.net/content/mercy/us/en/practice/ardmore/mercy-imaging-services-ardmore.html,mercy,Mercy Imaging Services - Ardmore,,Ardmore,OK,,US,+1 580-220-6162,https://www.mercy.net/practice/mercy-imaging-services-ardmore,Mo-Fr 07:00-17:00,Mercy,Q30289045
https://www.mercy.net/content/mercy/us/en/practice/ardmore/mercy-rehabilitation-services-ardmore.html,mercy,Mercy Rehabilitation Services - Ardmore,,Ardmore,OK,,US,+1 580-220-6600,https://www.mercy.net/practice/mercy-rehabilitation-services-ardmore,24/7,Mercy,Q30289045
https://www.mercy.net/content/mercy/us/en/practice/ardmore/mercy-sleep-center-ardmore.html,mercy,Mercy Sleep Center - Ardmore,,Ardmore,OK,,US,+1 580-220-6233,https://www.mercy.net/practice/mercy-sleep-center-ardmore,Mo-Fr 08:00-17:00,Mercy,Q30289045
https://www.mercy.net/content/mercy/us/en/practice/ardmore/mercy-clinic-endocrinology-ardmore.html,mercy,Mercy Clinic Endocrinology - Ardmore,,Ardmore,OK,,US,+1 580-453-3545,https://www.mercy.net/practice/mercy-clinic-endocrinology-ardmore,,Mercy,Q30289045
https://www.mercy.net/content/mercy/us/en/practice/ardmore/mercy-clinic-obgyn-ardmore-suite-201.html,mercy,Mercy Clinic OB/GYN - Ardmore Suite 201,,Ardmore,OK,,US,+1 580-226-3003,https://www.mercy.net/practice/mercy-clinic-obgyn-ardmore-suite-201,,Mercy,Q30289045
https://www.mercy.net/content/mercy/us/en/practice/ardmore/mercy-clinic-cardiology-ardmore-suite-103.html,mercy,Mercy Clinic Cardiology - Ardmore Suite 103,,Ardmore,OK,,US,+1 580-220-6180,https://www.mercy.net/practice/mercy-clinic-cardiology-ardmore-suite-103,,Mercy,Q30289045
https://www.mercy.net/content/mercy/us/en/practice/ardmore/mercy-clinic-pediatrics-ardmore.html,mercy,Mercy Clinic Pediatrics - Ardmore,,Ardmore,OK,,US,+1 580-220-6092,https://www.mercy.net/practice/mercy-clinic-pediatrics-ardmore,Mo-Fr 08:00-18:00,Mercy,Q30289045
https://www.mercy.net/content/mercy/us/en/practice/ardmore/mercy-clinic-pulmonology-ardmore.html,mercy,Mercy Clinic Pulmonology - Ardmore,,Ardmore,OK,,US,+1 580-220-6720,https://www.mercy.net/practice/mercy-clinic-pulmonology-ardmore,,Mercy,Q30289045
https://www.mercy.net/content/mercy/us/en/practice/ardmore/mercy-clinic-orthopedic-surgery-ardmore-suite-203.html,mercy,Mercy Clinic Orthopedic Surgery - Ardmore Suite 203,,Ardmore,OK,,US,+1 580-220-6950,https://www.mercy.net/practice/mercy-clinic-orthopedic-surgery-ardmore-suite-203,Mo-Fr 08:00-17:00,Mercy,Q30289045
https://www.mercy.net/content/mercy/us/en/practice/ardmore/mercy-clinic-ear-nose-and-throat-ardmore-suite-200.html,mercy,"Mercy Clinic Ear, Nose and Throat - Ardmore Suite 200",,Ardmore,OK,,US,+1 580-220-6810,https://www.mercy.net/practice/mercy-clinic-ear-nose-and-throat-ardmore-suite-200,,Mercy,Q30289045
https://www.mercy.net/content/mercy/us/en/practice/ardmore/mercy-cardiovascular-diagnostic-services-ardmore.html,mercy,Mercy Cardiovascular Diagnostic Services - Ardmore,,Ardmore,OK,,US,+1 580-220-6700,https://www.mercy.net/practice/mercy-cardiovascular-diagnostic-services-ardmore,Mo-Fr 08:00-16:30,Mercy,Q30289045
https://www.mercy.net/content/mercy/us/en/practice/ardmore/mercy-clinic-orthopedic-surgery-spine-ardmore-suite-101.html,mercy,Mercy Clinic Orthopedic Surgery-Spine - Ardmore Suite 101,,Ardmore,OK,,US,+1 580-223-7200,https://www.mercy.net/practice/mercy-clinic-orthopedic-surgery-spine-ardmore-suite-101,Mo-Th 08:00-17:00; Fr 08:00-14:00,Mercy,Q30289045
https://www.mercy.net/content/mercy/us/en/practice/ardmore/mercy-pain-management-ardmore.html,mercy,Mercy Pain Management - Ardmore,,Ardmore,OK,,US,+1 580-220-6200,https://www.mercy.net/practice/mercy-pain-management-ardmore,Mo-Th 07:30-17:00; Fr 07:30-12:00,Mercy,Q30289045
https://www.mercy.net/content/mercy/us/en/practice/ardmore/mercy-clinic-surgery-ardmore.html,mercy,Mercy Clinic Surgery - Ardmore,,Ardmore,OK,,US,+1 580-223-3216,https://www.mercy.net/practice/mercy-clinic-surgery-ardmore,Mo-Fr 08:00-17:00,Mercy,Q30289045
https://www.mercy.net/content/mercy/us/en/practice/ardmore/mercy-therapy-services-ardmore.html,mercy,Mercy Therapy Services - Ardmore,,Ardmore,OK,,US,+1 580-220-6285,https://www.mercy.net/practice/mercy-therapy-services-ardmore,Mo-Th 08:00-17:00; Fr 08:00-13:00,Mercy,Q30289045
https://www.mercy.net/content/mercy/us/en/practice/ardmore/mercy-cardiopulmonary-rehabilitation-ardmore.html,mercy,Mercy Cardiopulmonary Rehabilitation - Ardmore,,Ardmore,OK,,US,+1 580-220-6257,https://www.mercy.net/practice/mercy-cardiopulmonary-rehabilitation-ardmore,Mo-Fr 07:00-15:00,Mercy,Q30289045
https://www.mercy.net/content/mercy/us/en/practice/ardmore/mercy-hyperbaric-and-wound-care-ardmore.html,mercy,Mercy Hyperbaric and Wound Care - Ardmore,,Ardmore,OK,,US,+1 580-220-6290,https://www.mercy.net/practice/mercy-hyperbaric-and-wound-care-ardmore,Mo-Fr 08:00-16:30,Mercy,Q30289045
https://www.mercy.net/content/mercy/us/en/practice/ardmore/mercy-home-health-ardmore.html,mercy,Mercy Home Health - Ardmore,,Ardmore,OK,,US,+1 580-220-6560,https://www.mercy.net/practice/mercy-home-health-ardmore,Mo-Fr 08:30-16:00,Mercy,Q30289045
https://www.mercy.net/content/mercy/us/en/practice/ardmore/mercy-clinic-primary-care-commerce-street.html,mercy,Mercy Clinic Primary Care - Commerce Street,,Ardmore,OK,,US,+1 580-223-5311,https://www.mercy.net/practice/mercy-clinic-primary-care-commerce-street,Mo-Fr 08:00-17:00,Mercy,Q30289045
https://www.mercy.net/content/mercy/us/en/practice/ardmore/mercy-convenient-care-10th-avenue.html,mercy,Mercy Convenient Care - 10th Avenue,,Ardmore,OK,,US,+1 580-220-6461,https://www.mercy.net/practice/mercy-convenient-care-10th-avenue,Mo-Su 08:00-20:00,Mercy,Q30289045
8716,murphy_usa_us,,,Ardmore,OK,,US,+1 580-224-2757,,Mo-Sa 04:30-23:30; Su 05:00-23:30,Murphy USA,Q19604459
NNA5968,nissan_europe,BROUDY NISSAN,,ARDMORE,OK,,US,+1 580-223-1500,https://www.broudynissan.com,,Nissan,Q20165
347,ollies_bargain_outlet,Ollie's Bargain Outlet,,Ardmore,OK,,US,+1 580-798-4510,https://www.ollies.us/locations/330-n-commerce-street-ardmore-ok/,Mo-Sa 09:00-21:00; Su 10:00-19:00,Ollie's Bargain Outlet,Q7088304
https://locations.oreillyauto.com/ok/ardmore/check-engine-light-testing-335.html,oreilly,Your Ardmore O'Reilly Auto Parts Store,,Ardmore,OK,,US,+1 580-490-3355,https://locations.oreillyauto.com/ok/ardmore/check-engine-light-testing-335.html,Mo-Sa 07:30-22:00; Su 09:00-21:00,O'Reilly Auto Parts,Q7071951
https://locations.oreillyauto.com/ok/ardmore/wiper-installation-335.html,oreilly,Your Ardmore O'Reilly Auto Parts Store,,Ardmore,OK,,US,+1 580-490-3355,https://locations.oreillyauto.com/ok/ardmore/wiper-installation-335.html,Mo-Sa 07:30-22:00; Su 09:00-21:00,O'Reilly Auto Parts,Q7071951
https://locations.oreillyauto.com/ok/ardmore/battery-testing-335.html,oreilly,Your Ardmore O'Reilly Auto Parts Store,,Ardmore,OK,,US,+1 580-490-3355,https://locations.oreillyauto.com/ok/ardmore/battery-testing-335.html,Mo-Sa 07:30-22:00; Su 09:00-21:00,O'Reilly Auto Parts,Q7071951
https://locations.oreillyauto.com/ok/ardmore/autopartes-335.html,oreilly,Tu tienda O'Reilly Auto Parts en Ardmore,,Ardmore,OK,,US,+1 580-490-3355,https://locations.oreillyauto.com/ok/ardmore/autopartes-335.html,Mo-Sa 07:30-22:00; Su 09:00-21:00,O'Reilly Auto Parts,Q7071951
113185,pandaexpress,12th Ave & Commerce,,Ardmore,OK,,US,+1 580-786-0869,https://www.pandaexpress.com/locations/ok/ardmore/1595-12th-ave-nw,Mo-Th 10:00-21:30; Fr-Sa 10:00-22:00; Su 10:00-21:30,Panda Express,Q1358690
https://locations.papajohns.com/#10692145,papa_johns,Papa John's,,Ardmore,OK,,US,+1 580-223-7575,https://locations.papajohns.com/united-states/ok/73401/ardmore/1109-west-broadway,Mo-Su 10:30-23:00,Papa John's Pizza,Q2759586
734453,penske,Agri Products,,ARDMORE,OK,,US,+1 580-826-3497,https://www.pensketruckrental.com/locations/us/oklahoma/ardmore/734453/,,Penske,Q81234570
0000892590,phillips_66_conoco_76,CARTER EXPRESS,,ARDMORE,OK,,US,+1 580-319-4304,,,Phillips 66,Q1656230
0000905539,phillips_66_conoco_76,PROMART 3,,ARDMORE,OK,,US,+1 580-226-3504,,,Phillips 66,Q1656230
701,pilot_flyingj,Flying J Travel Center,,Ardmore,OK,,US,+1 580-226-3833,https://locations.pilotflyingj.com/us/ok/ardmore/2450-cooper-drive,,Flying J,Q16974822
ok_ardmore_410-s-rockford-rd,pizza_hut_us,410 S Rockford Rd,,Ardmore,OK,,US,+1 580-226-5050,https://locations.pizzahut.com/ok/ardmore/410-s-rockford-rd,,Pizza Hut,Q191615
ok_ardmore_1606-n-commerce,pizza_hut_us,1606 N. Commerce,,Ardmore,OK,,US,+1 580-226-2502,https://locations.pizzahut.com/ok/ardmore/1606-n-commerce,,Pizza Hut,Q191615
restaurant_86756,popeyes_us_fr,Popeyes,"1225 N Commerce St Ardmore, Oklahoma 73401 - USA",Ardmore,OK,,US,+1 580-364-7906,https://www.popeyes.com/store-locator/store/restaurant_86756,Mo-Su 10:00-22:00,Popeyes,Q1330910
mccoys-bldg-supply-ctr-082-24121,ppgpaints,MCCOYS BLDG SUPPLY CTR 082,,"Ardmore, ",OK,,US,+1 580-226-8820,https://www.ppgpaints.com/store-locator/us/oklahoma/ardmore-paint-stores/mccoys-bldg-supply-ctr-082-24121,,PPG Paints,Q83891559
https://locations.qdoba.com/us/ok/ardmore/1865-12-ave-nw.html,qdoba,QDOBA Ardmore,,Ardmore,OK,,US,+1 580-798-3970,https://locations.qdoba.com/us/ok/ardmore/1865-12-ave-nw.html,Mo-Su 10:30-22:00,Qdoba,Q1363885
4560,rentacenter,Rent-A-Center,,Ardmore,OK,,US,+1 580-226-2732,https://locations.rentacenter.com/oklahoma/ardmore/320-n-commerce-st/,Mo-Sa 10:00-18:00,Rent-A-Center,Q7313497
16847574,ribcrib_us,Ardmore,"2401 12th Ave. NW, Suite 102B, Ardmore, OK, 73401",Ardmore,OK,,US,+1 580-798-4273,https://ribcrib.com/locations/?location=ardmore-ardmore-ok,Mo-Th 11:00-21:00; Fr-Sa 11:00-22:00; Su 11:00-21:00,RibCrib,Q7322197
1485866,ribcrib_us,Ardmore,"2401 12th Ave. NW, Suite 102B, Ardmore, OK, 73401",Ardmore,OK,,US,+1 580-798-4273,https://ribcrib.com/locations/?location=ardmore,Mo-Th 11:00-21:00; Fr-Sa 11:00-22:00; Su 11:00-21:00,RibCrib,Q7322197
1220,roadys_us,Longhorn Express,,Ardmore,OK,,US,+1 580-319-5255,,,Roady’s Truck Stops,Q7339701
1385,ross_dress_for_less_us,Ardmore,,Ardmore,OK,,US,+1 580-224-0957,,Mo-Th 09:30-21:00; Fr-Sa 09:00-22:00; Su 10:00-20:30,Ross Dress for Less,Q3442791
956,scooters_coffee_us,"Ardmore, OK",,Ardmore,OK,,US,+1 580-798-4025,,Mo-Su 06:00-20:00,Scooter's Coffee,Q117280308
1209-n-commerce-st,staples,"Staples Ardmore, OK",,Ardmore,OK,,US,,https://stores.staples.com/ok/ardmore/1209-n-commerce-st,Mo-Fr 09:00-20:00; Sa 09:00-18:00; Su 11:00-18:00,Staples,Q785943
https://restaurants.subway.com/#14903096,subway,Subway,,Ardmore Carter,OK,,US,+1 580-223-3232,https://restaurants.subway.com/united-states/ok/ardmore/901-grand-ave,Mo-Su 09:00-22:00,Subway,Q244457
https://restaurants.subway.com/#14898568,subway,"Subway Love's Travel Stop, #266",,Ardmore Carter,OK,,US,+1 580-226-0973,https://restaurants.subway.com/united-states/ok/ardmore/3201-12th-ave-nw,,Subway,Q244457
0404554800,sunoco_us,Sunoco,,ARDMORE,OK,,US,+1 972-900-4036,,Mo-Su 05:00-21:00,Sunoco,Q1423218
596,sun_loan_us,Sun Loan Company – Ardmore,,Ardmore,OK,,US,+1 580-223-7303,https://www.sunloan.com/find-a-branch/sun-loan-company-ardmore-oklahoma-190/,Mo-Th 08:30-17:30; Fr 08:30-18:00; Sa 08:30-12:30,Sun Loan,Q118725658
8580,supercuts,Winn Dixie,201 N Commerce St Ste C,Ardmore,OK,,US,+1 580-226-9999,https://www.supercuts.com/checkin/8580,Mo-Th 09:00-19:00; Fr 08:00-19:00; Sa 09:00-19:00; Su 10:00-18:00,Supercuts,Q7643239
https://locations.tacobell.com/#26134503,taco_bell,Taco Bell,,Ardmore,OK,,US,+1 580-967-1403,https://locations.tacobell.com/ok/ardmore/806-holiday-drive.html,,Taco Bell,Q752941
https://locations.tacobell.com/#6147367,taco_bell,Taco Bell,,Ardmore,OK,,US,+1 580-223-1308,https://locations.tacobell.com/ok/ardmore/1007-n-commerce-street.html,Mo-Th 08:00-03:00; Fr-Sa 08:00-04:00; Su 08:00-03:00,Taco Bell,Q752941
081391,tjx,Ardmore,1203 N Commerce,Ardmore,OK,,US,+1 580-224-2739,,Mo-Sa 09:30-21:30; Su 10:00-20:00,TJ Maxx,Q10860683
586D,tmobile_us,Ardmore Commons,,Ardmore,OK,,US,+1 580-224-2647,https://www.t-mobile.com/store-locator/ok/ardmore/ardmore-commons,,T-Mobile,Q3511885
3332,upsstore,Ardmore,1405 4th Ave NW,Ardmore,OK,,US,+1 580-223-7783,https://locations.theupsstore.com/ok/ardmore/1405-4th-ave-nw,,UPS Store,Q7771029
1353287,usps,ARDMORE,,ARDMORE,OK,,US,+1 580-223-1583,,Mo-Fr 08:00-17:00; Sa 08:00-12:00,United States Postal Service,Q668687
1473477,usps,ARDMORE,,ARDMORE,OK,,US,+1 580-223-1583,,,United States Postal Service,Q668687
7340100054,usps_collection_boxes,USPS COLLECTION BOX - BLUE BOX,1117 S COMMERCE ST,ARDMORE,OK,,US,,,,United States Postal Service,Q668687
7340100023,usps_collection_boxes,USPS COLLECTION BOX - BLUE BOX,24 TIFFANY PLZ,ARDMORE,OK,,US,,,,United States Postal Service,Q668687
7340100053,usps_collection_boxes,USPS COLLECTION BOX - BLUE BOX,3201 12TH AVE NW,ARDMORE,OK,,US,,,,United States Postal Service,Q668687
7340100045,usps_collection_boxes,USPS COLLECTION BOX - BLUE BOX,5 S COMMERCE ST,ARDMORE,OK,,US,,,,United States Postal Service,Q668687
7340100022,usps_collection_boxes,USPS COLLECTION BOX - BLUE BOX,925 W BROADWAY ST,ARDMORE,OK,,US,,,,United States Postal Service,Q668687
7340100011,usps_collection_boxes,USPS COLLECTION BOX - BLUE BOX,1405 4TH AVE NW,ARDMORE,OK,,US,,,,United States Postal Service,Q668687
7340100052,usps_collection_boxes,USPS COLLECTION BOX - PO LOBBY,208 1ST AVE SW,ARDMORE,OK,,US,,,,United States Postal Service,Q668687
7340100040,usps_collection_boxes,USPS COLLECTION BOX - PO LOBBY,208 1ST AVE SW,ARDMORE,OK,,US,,,,United States Postal Service,Q668687
7340100059,usps_collection_boxes,USPS COLLECTION BOX - PO LOBBY,208 1ST AVE SW,ARDMORE,OK,,US,,,,United States Postal Service,Q668687
7340100028,usps_collection_boxes,USPS COLLECTION BOX - BLUE BOX,20 B ST SW,ARDMORE,OK,,US,,,,United States Postal Service,Q668687
7340100051,usps_collection_boxes,USPS COLLECTION BOX - BLUE BOX,720 N COMMERCE ST,ARDMORE,OK,,US,,,,United States Postal Service,Q668687
7340100006,usps_collection_boxes,USPS COLLECTION BOX - BLUE BOX,10 W MAIN ST,ARDMORE,OK,,US,,,,United States Postal Service,Q668687
7340100002,usps_collection_boxes,USPS COLLECTION BOX - BLUE BOX,115 W BROADWAY ST,ARDMORE,OK,,US,,,,United States Postal Service,Q668687
7340100039,usps_collection_boxes,USPS COLLECTION BOX - BLUE BOX,208 1ST AVE SW,ARDMORE,OK,,US,,,,United States Postal Service,Q668687
7340100043,usps_collection_boxes,USPS COLLECTION BOX - BLUE BOX,1211 N COMMERCE ST,ARDMORE,OK,,US,,,,United States Postal Service,Q668687
7340100017,usps_collection_boxes,USPS COLLECTION BOX - BLUE BOX,1715 N COMMERCE ST,ARDMORE,OK,,US,,,,United States Postal Service,Q668687
7340100009,usps_collection_boxes,USPS COLLECTION BOX - BLUE BOX,423 12TH AVE NW,ARDMORE,OK,,US,,,,United States Postal Service,Q668687
7340100016,usps_collection_boxes,USPS COLLECTION BOX - BLUE BOX,1901 N COMMERCE ST,ARDMORE,OK,,US,,,,United States Postal Service,Q668687
7340100007,usps_collection_boxes,USPS COLLECTION BOX - BLUE BOX,921 N WASHINGTON ST,ARDMORE,OK,,US,,,,United States Postal Service,Q668687
7340100010,usps_collection_boxes,USPS COLLECTION BOX - BLUE BOX,12 BROADLAWN SHOPPING CTR,ARDMORE,OK,,US,,,,United States Postal Service,Q668687
0000002590,valero,ON THE WAY #2,,ARDMORE,OK,,US,+1 580-490-9409,https://locations.valero.com/en-us/LocationDetails/Index/400-VETERANS-BLVD/0000002590,,Valero,Q1283291
0000026133,valero,TIM'S CORNER GROCERY,,ARDMORE,OK,,US,+1 405-226-3663,https://locations.valero.com/en-us/LocationDetails/Index/231-LAKE-MURRAY-DR-E/0000026133,,Valero,Q1283291
0000026630,valero,LONGHORN EXPRESS,,ARDMORE,OK,,US,,https://locations.valero.com/en-us/LocationDetails/Index/15045-US-70/0000026630,,Valero,Q1283291
0000026760,valero,KANG'S FOOD MART,,ARDMORE,OK,,US,,https://locations.valero.com/en-us/LocationDetails/Index/1620-N-COMMERCE/0000026760,,Valero,Q1283291
0000027591,valero,ARDMART GROCERY & DELI,,ARDMORE,OK,,US,+1 580-226-5160,https://locations.valero.com/en-us/LocationDetails/Index/1202-N-WASHINGTON/0000027591,,Valero,Q1283291
0000029644,valero,ACE Fuel Stop,,ARDMORE,OK,,US,,https://locations.valero.com/en-us/LocationDetails/Index/1202-S-COMMERCE/0000029644,,Valero,Q1283291
0000029652,valero,LAKE STOP,,ARDMORE,OK,,US,+1 580-224-0600,https://locations.valero.com/en-us/LocationDetails/Index/42-DOGWOOD-RD/0000029652,,Valero,Q1283291
A00000260643,verizon_us,Russell Cellular Ardmore Cooper Dr,,Ardmore,OK,,US,+1 580-930-0294,https://www.verizon.com/stores/details/oklahoma/ardmore/russell-cellular-ardmore-1510622/,Mo-Fr 10:00-21:00; Sa 10:00-20:00,Verizon,Q919641
,visa,,,DICKSON,OK,,US,,,,,
,visa,,,ARDMORE,OK,,US,,,,,
,visa,,,ARDMORE,OK,,US,,,,,
,visa,,,ARDMORE,OK,,US,,,,,
,visa,,,ARDMORE,OK,,US,,,,,
,visa,,,ARDMORE,OK,,US,,,,,
,visa,,,ARDMORE,OK,,US,,,,,
,visa,,,ARDMORE,OK,,US,,,,,
,visa,,,ARDMORE,OK,,US,,,,,
,visa,,,ARDMORE,OK,,US,,,,,
,visa,,,ARDMORE,OK,,US,,,,,
,visa,,,ARDMORE,OK,,US,,,,,
,visa,,,ARDMORE,OK,,US,,,,,
,visa,,,ARDMORE,OK,,US,,,,,
,visa,,,ARDMORE,OK,,US,,,,,
,visa,,,ARDMORE,OK,,US,,,,,
,visa,,,ARDMORE,OK,,US,,,,,
,visa,,,ARDMORE,OK,,US,,,,,
,visa,,,ARDMORE,OK,,US,,,,,
,visa,,,ARDMORE,OK,,US,,,,,
,visa,,,ARDMORE,OK,,US,,,,,
,visa,,,ARDMORE,OK,,US,,,,,
,visa,,,ARDMORE,OK,,US,,,,,
,visa,,,ARDMORE,OK,,US,,,,,
,visa,,,ARDMORE,OK,,US,,,,,
,visa,,,ARDMORE,OK,,US,,,,,
,visa,,,ARDMORE,OK,,US,,,,,
,visa,,,ARDMORE,OK,,US,,,,,
,visa,,,ARDMORE,OK,,US,,,,,
,visa,,,ARDMORE,OK,,US,,,,,
,visa,,,ARDMORE,OK,,US,,,,,
,visa,,,ARDMORE,OK,,US,,,,,
,visa,,,ARDMORE,OK,,US,,,,,
,visa,,,ARDMORE,OK,,US,,,,,
,visa,,,ARDMORE,OK,,US,,,,,
,visa,,,ARDMORE,OK,,US,,,,,
,visa,,,ARDMORE,OK,,US,,,,,
,visa,,,ARDMORE,OK,,US,,,,,
,visa,,,ARDMORE,OK,,US,,,,,
,visa,,,ARDMORE,OK,,US,,,,,
,visa,,,ARDMORE,OK,,US,,,,,
,visa,,,ARDMORE,OK,,US,,,,,
,visa,,,ARDMORE,OK,,US,,,,,
,visa,,,ARDMORE,OK,,US,,,,,
,visa,,,ARDMORE,OK,,US,,,,,
,visa,,,ARDMORE,OK,,US,,,,,
,visa,,,ARDMORE,OK,,US,,,,,
,visa,,,ARDMORE,OK,,US,,,,,
,visa,,,ARDMORE,OK,,US,,,,,
,visa,,,ARDMORE,OK,,US,,,,,
,visa,,,ARDMORE,OK,,US,,,,,
,visa,,,ARDMORE,OK,,US,,,,,
,visa,,,ARDMORE,OK,,US,,,,,
,visa,,,ARDMORE,OK,,US,,,,,
,visa,,,ARDMORE,OK,,US,,,,,
,visa,,,ARDMORE,OK,,US,,,,,
,visa,,,ARDMORE,OK,,US,,,,,
,visa,,,ARDMORE,OK,,US,,,,,
,visa,,,ARDMORE,OK,,US,,,,,
,visa,,,ARDMORE,OK,,US,,,,,
,visa,,,ARDMORE,OK,,US,,,,,
,visa,,,ARDMORE,OK,,US,,,,,
,visa,,,ARDMORE,OK,,US,,,,,
,visa,,,ARDMORE,OK,,US,,,,,
,visa,,,ARDMORE,OK,,US,,,,,
,visa,,,ARDMORE,OK,,US,,,,,
,visa,,,ARDMORE,OK,,US,,,,,
,visa,,,ARDMORE,OK,,US,,,,,
,visa,,,ARDMORE,OK,,US,,,,,
,visa,,,ARDMORE,OK,,US,,,,,
,visa,,,ARDMORE,OK,,US,,,,,
,visa,,,ARDMORE,OK,,US,,,,,
,visa,,,ARDMORE,OK,,US,,,,,
,visa,,,ARDMORE,OK,,US,,,,,
,visa,,,ARDMORE,OK,,US,,,,,
,visa,,,ARDMORE,OK,,US,,,,,
,visa,,,ARDMORE,OK,,US,,,,,
,visa,,,ARDMORE,OK,,US,,,,,
https://www.walgreens.com/locator/walgreens-1111+n+commerce+st-ardmore-ok-73401/id=5739,walgreens,Walgreens,,Ardmore,OK,,US,+1 580-226-6978,https://www.walgreens.com/locator/walgreens-1111+n+commerce+st-ardmore-ok-73401/id=5739,Mo-Su 07:00-22:00,Walgreens,Q1591889
https://locations.wendys.com/#10265666,wendys,"Wendy's Ardmore in Ardmore, OK",,Ardmore,OK,,US,+1 580-226-2106,https://locations.wendys.com/united-states/ok/ardmore/1045-15th-ave-nw,"Mo-Sa 06:00-10:30,06:30-22:00; Su 07:30-10:30,08:00-22:00",Wendy's,Q550258
bc4826e63149983d0eb48112e2d02c0d,western_union,7-ELEVEN / SUNOCO #41471,,Ardmore,OK,,US,+1 405-872-9083,https://location.westernunion.com/us/ok/ardmore/bc4826e63149983d0eb48112e2d02c0d,,Western Union,Q861042
b0befcd617a82237debe06a8ca9d9118,western_union,WALMART #000129,,Ardmore,OK,,US,+1 580-226-1257,https://location.westernunion.com/us/ok/ardmore/b0befcd617a82237debe06a8ca9d9118,Mo-Sa 08:00-20:00; Su 10:00-18:00,Western Union,Q861042
https://locations.whataburger.com/ok/ardmore/921-holiday-dr.html,whataburger,I35 & 12th,921 HOLIDAY DR,ARDMORE,OK,,US,,https://locations.whataburger.com/ok/ardmore/921-holiday-dr.html,,Whataburger,Q376627
141627,wingstop,Wingstop Ardmore,2401 12th Ave NW #104C,Ardmore,OK,,US,+1 580-634-9464,,,Wingstop,Q8025339
615,world_finance_us,,"2 W Main St Ste 100, Ardmore, OK, 73401",Ardmore,OK,,US,+1 580-226-4480,https://www.loansbyworld.com/branches/branch-615,Mo-Fr 09:00-17:30; Sa 09:00-12:00,World Finance,Q3569971
