Ref,Spider,Name,Address,City,State,Zipcode,Country,Phone,Website,Hours,Brand,WikiData
1924,first_cash,First Cash Pawn,,Las Choapas,Veracruz,,MX,+52 923 237 5251,,,First Cash Pawn,
,visa,,,LAS CHOAPAS,VERACRUZ,,MX,,,,,
,visa,,,LAS CHOAPAS,VERACRUZ,,MX,,,,,
,visa,,,LAS CHOAPAS,VERACRUZ,,MX,,,,,
,visa,,,LAS CHOAPAS,VERACRUZ,,MX,,,,,
,visa,,,LAS CHOAPAS,VERACRUZ,,MX,,,,,
,visa,,,LAS CHOAPAS,VERACRUZ,,MX,,,,,
d9323cfae5b53c4dbd8f8bfd1b27fb3b,western_union,OXXO CASETA RAUDALES VER,,Las Choapas,VERACRUZ,,MX,+52 81 8389 2121,https://location.westernunion.com/mx/veracruz/las-choapas/d9323cfae5b53c4dbd8f8bfd1b27fb3b,Mo-Su 06:00-22:00,Western Union,Q861042
c86706183494eeda9502fcd44f8bda07,western_union,OXXO CASETA RAUDALES VER,,Las Choapas,VERACRUZ,,MX,+52 81 8389 2121,https://location.westernunion.com/mx/veracruz/las-choapas/c86706183494eeda9502fcd44f8bda07,Mo-Su 06:00-22:00,Western Union,Q861042
f569b10770018dfa68b0db73c3072a64,western_union,OXXO CASETA RAUDALES VER,,Las Choapas,VERACRUZ,,MX,+52 81 8389 2121,https://location.westernunion.com/mx/veracruz/las-choapas/f569b10770018dfa68b0db73c3072a64,Mo-Su 06:00-22:00,Western Union,Q861042
9a86a336df4ab4cf1c2fa13d85602b62,western_union,OXXO LOS COCOS MTT,,Las Choapas,VERACRUZ,,MX,+52 81 8389 2121,https://location.westernunion.com/mx/veracruz/las-choapas/9a86a336df4ab4cf1c2fa13d85602b62,Mo-Su 08:00-22:00,Western Union,Q861042
da411983498559ae15126b3f7f2408fa,western_union,OXXO LOS COCOS MTT,,Las Choapas,VERACRUZ,,MX,+52 81 8389 2121,https://location.westernunion.com/mx/veracruz/las-choapas/da411983498559ae15126b3f7f2408fa,Mo-Su 08:00-22:00,Western Union,Q861042
a383e40553f9748fcebac10deb212096,western_union,OXXO LOS COCOS MTT,,Las Choapas,VERACRUZ,,MX,+52 81 8389 2121,https://location.westernunion.com/mx/veracruz/las-choapas/a383e40553f9748fcebac10deb212096,Mo-Su 08:00-22:00,Western Union,Q861042
6f21b397655c9db6b0f489e21a7a936b,western_union,OXXO TEOTIHUACAN MTT,,Las Choapas,VERACRUZ,,MX,+52 81 8389 2121,https://location.westernunion.com/mx/veracruz/las-choapas/6f21b397655c9db6b0f489e21a7a936b,Mo-Su 08:00-22:00,Western Union,Q861042
4feb2caea2a67a9d0e052037d3bc2ce7,western_union,OXXO TEOTIHUACAN MTT,,Las Choapas,VERACRUZ,,MX,+52 81 8389 2121,https://location.westernunion.com/mx/veracruz/las-choapas/4feb2caea2a67a9d0e052037d3bc2ce7,Mo-Su 08:00-22:00,Western Union,Q861042
0f85121388b079d833f4a597296b2163,western_union,OXXO TEOTIHUACAN MTT,,Las Choapas,VERACRUZ,,MX,+52 81 8389 2121,https://location.westernunion.com/mx/veracruz/las-choapas/0f85121388b079d833f4a597296b2163,Mo-Su 08:00-22:00,Western Union,Q861042
639f5229e96cc9cb7455d2111187aaa7,western_union,OXXO PLAYON SUR MTT,,Las Choapas,VERACRUZ,,MX,+52 81 8389 2121,https://location.westernunion.com/mx/veracruz/las-choapas/639f5229e96cc9cb7455d2111187aaa7,Mo-Su 08:00-22:00,Western Union,Q861042
d008b2662180e1b4f16a7674c28579ba,western_union,OXXO PLAYON SUR MTT,,Las Choapas,VERACRUZ,,MX,+52 81 8389 2121,https://location.westernunion.com/mx/veracruz/las-choapas/d008b2662180e1b4f16a7674c28579ba,Mo-Su 08:00-22:00,Western Union,Q861042
35003d55ddf32f4ec482b76ee0bf58ed,western_union,OXXO PLAYON SUR MTT,,Las Choapas,VERACRUZ,,MX,+52 81 8389 2121,https://location.westernunion.com/mx/veracruz/las-choapas/35003d55ddf32f4ec482b76ee0bf58ed,Mo-Su 08:00-22:00,Western Union,Q861042
1a92bf147a2f8b44ab0e21680a77dcda,western_union,OXXO ROVIROSA,,Las Choapas,VERACRUZ,,MX,+52 81 8389 2121,https://location.westernunion.com/mx/veracruz/las-choapas/1a92bf147a2f8b44ab0e21680a77dcda,Mo-Su 08:00-22:00,Western Union,Q861042
f5df29767611570b56247aa97cad50c9,western_union,OXXO ROVIROSA,,Las Choapas,VERACRUZ,,MX,+52 81 8389 2121,https://location.westernunion.com/mx/veracruz/las-choapas/f5df29767611570b56247aa97cad50c9,Mo-Su 08:00-22:00,Western Union,Q861042
94ea404cc48b0ace6ac5ca75a998c335,western_union,TIENDAS NETO LA SABANA CHOAPAS 8926,,Las Choapas,VERACRUZ,,MX,+52 923 237 1464,https://location.westernunion.com/mx/veracruz/las-choapas/94ea404cc48b0ace6ac5ca75a998c335,Mo-Su 07:00-22:00,Western Union,Q861042
de307ca87f1e9da86ca44f8f37d2c19d,western_union,TIENDAS NETO LA SABANA CHOAPAS 8926,,Las Choapas,VERACRUZ,,MX,+52 923 237 1464,https://location.westernunion.com/mx/veracruz/las-choapas/de307ca87f1e9da86ca44f8f37d2c19d,Mo-Su 07:00-22:00,Western Union,Q861042
c4d515ec4f53ed22d05ff9575a24142b,western_union,OXXO LA SABANA MTT,,Las Choapas,VERACRUZ,,MX,+52 81 8389 2121,https://location.westernunion.com/mx/veracruz/las-choapas/c4d515ec4f53ed22d05ff9575a24142b,Mo-Su 08:00-22:00,Western Union,Q861042
989c6137461dd77b8cdd3415d87504a5,western_union,OXXO PABLO SIDAR MTT,,Las Choapas,VERACRUZ,,MX,+52 81 8389 2121,https://location.westernunion.com/mx/veracruz/las-choapas/989c6137461dd77b8cdd3415d87504a5,Mo-Su 08:00-22:00,Western Union,Q861042
dd0446f062a79f5078c686caa13b6c1a,western_union,OXXO PABLO SIDAR MTT,,Las Choapas,VERACRUZ,,MX,+52 81 8389 2121,https://location.westernunion.com/mx/veracruz/las-choapas/dd0446f062a79f5078c686caa13b6c1a,Mo-Su 08:00-22:00,Western Union,Q861042
a015532afecd26daacc51756efb3f406,western_union,FARM GUAD CHOPAS,,Las Choapas,VERACRUZ,,MX,+52 800 833 4700,https://location.westernunion.com/mx/veracruz/las-choapas/a015532afecd26daacc51756efb3f406,Mo-Su 09:00-22:00,Western Union,Q861042
38c6169e302899cedb7c2463c436bfb0,western_union,FARM GUAD CHOPAS,,Las Choapas,VERACRUZ,,MX,+52 800 833 4700,https://location.westernunion.com/mx/veracruz/las-choapas/38c6169e302899cedb7c2463c436bfb0,Mo-Su 09:00-22:00,Western Union,Q861042
5ea14bd9e79504e3e4dd34189990ca90,western_union,FARM GUAD CHOPAS,,Las Choapas,VERACRUZ,,MX,+52 800 833 4700,https://location.westernunion.com/mx/veracruz/las-choapas/5ea14bd9e79504e3e4dd34189990ca90,Mo-Su 09:00-22:00,Western Union,Q861042
e85a03785b2e4f10c4d720a7887ef401,western_union,ELEKTRA PPR 4707,,Las Choapas,VERACRUZ,,MX,+52 55 1720 8177,https://location.westernunion.com/mx/veracruz/las-choapas/e85a03785b2e4f10c4d720a7887ef401,Mo-Su 09:00-21:00,Western Union,Q861042
f5276b5495ab7eb81a3b70b3d8e53e62,western_union,ELEKTRA PPR 4707,,Las Choapas,VERACRUZ,,MX,+52 55 1720 8177,https://location.westernunion.com/mx/veracruz/las-choapas/f5276b5495ab7eb81a3b70b3d8e53e62,Mo-Su 09:00-21:00,Western Union,Q861042
f85c79b390c470a61721fa114da01111,western_union,ELEKTRA PPR 4707,,Las Choapas,VERACRUZ,,MX,+52 55 1720 8177,https://location.westernunion.com/mx/veracruz/las-choapas/f85c79b390c470a61721fa114da01111,Mo-Su 09:00-20:00,Western Union,Q861042
483e5834fc5560a7160b06cbd5b426b7,western_union,BANCOPPEL 908 20 DE NOVIEMBRE,,Las Choapas,VERACRUZ,,MX,+52 283 874 3258,https://location.westernunion.com/mx/veracruz/las-choapas/483e5834fc5560a7160b06cbd5b426b7,Mo-Sa 09:30-20:00; Su 10:00-16:00,Western Union,Q861042
6d4e52f95d36737387f5aef1d16764c1,western_union,BANCOPPEL 908 20 DE NOVIEMBRE,,Las Choapas,VERACRUZ,,MX,+52 283 874 3258,https://location.westernunion.com/mx/veracruz/las-choapas/6d4e52f95d36737387f5aef1d16764c1,Mo-Sa 09:30-20:00; Su 10:00-16:00,Western Union,Q861042
b49387cb780535f13ad8c993bc98eed5,western_union,BANCOPPEL 908 20 DE NOVIEMBRE,,Las Choapas,VERACRUZ,,MX,+52 228 841 2873,https://location.westernunion.com/mx/veracruz/las-choapas/b49387cb780535f13ad8c993bc98eed5,Mo-Sa 09:30-20:00; Su 10:00-16:00,Western Union,Q861042
6dd62971944f35b9d9e04cb8c493f4be,western_union,OXXO LA SABANA MTT,,Las Choapas,VERACRUZ,,MX,+52 81 8389 2121,https://location.westernunion.com/mx/veracruz/las-choapas/6dd62971944f35b9d9e04cb8c493f4be,Mo-Su 08:00-22:00,Western Union,Q861042
65938ddb0bad39fd37b387600500afa1,western_union,OXXO LA SABANA MTT,,Las Choapas,VERACRUZ,,MX,+52 81 8389 2121,https://location.westernunion.com/mx/veracruz/las-choapas/65938ddb0bad39fd37b387600500afa1,Mo-Su 08:00-22:00,Western Union,Q861042
4d7c1363b018cdab7493ed7215bdcab4,western_union,OXXO TERMINAL MTT,,Las Choapas,VERACRUZ,,MX,+52 81 8389 2121,https://location.westernunion.com/mx/veracruz/las-choapas/4d7c1363b018cdab7493ed7215bdcab4,Mo-Su 08:00-22:00,Western Union,Q861042
a23bf2f38f4ca39d5a5a79e5810ec687,western_union,OXXO TERMINAL MTT,,Las Choapas,VERACRUZ,,MX,+52 81 8389 2121,https://location.westernunion.com/mx/veracruz/las-choapas/a23bf2f38f4ca39d5a5a79e5810ec687,Mo-Su 08:00-22:00,Western Union,Q861042
461296cbd4dca03ba0f080bda599a06b,western_union,OXXO TERMINAL MTT,,Las Choapas,VERACRUZ,,MX,+52 81 8389 2121,https://location.westernunion.com/mx/veracruz/las-choapas/461296cbd4dca03ba0f080bda599a06b,Mo-Su 08:00-22:00,Western Union,Q861042
7d517231eb0081a64f269e23d793ee45,western_union,OXXO AURELIA SOLIS MTT,,Las Choapas,VERACRUZ,,MX,+52 81 8389 2121,https://location.westernunion.com/mx/veracruz/las-choapas/7d517231eb0081a64f269e23d793ee45,Mo-Su 08:00-22:00,Western Union,Q861042
a8ba69febd2b5e5bb5811e3261b1229b,western_union,OXXO AURELIA SOLIS MTT,,Las Choapas,VERACRUZ,,MX,+52 81 8389 2121,https://location.westernunion.com/mx/veracruz/las-choapas/a8ba69febd2b5e5bb5811e3261b1229b,Mo-Su 08:00-22:00,Western Union,Q861042
930630f4b50b11e82f3eac38cdfa85b4,western_union,OXXO AURELIA SOLIS MTT,,Las Choapas,VERACRUZ,,MX,+52 81 8389 2121,https://location.westernunion.com/mx/veracruz/las-choapas/930630f4b50b11e82f3eac38cdfa85b4,Mo-Su 08:00-22:00,Western Union,Q861042
456290460ae8a80df7b068afdaddafaf,western_union,SORIANA LAS CHOAPAS 462,,Las Choapas,VERACRUZ,,MX,(+52) 81-1112009,https://location.westernunion.com/mx/veracruz/las-choapas/456290460ae8a80df7b068afdaddafaf,Mo-Su 08:00-23:00,Western Union,Q861042
2adc297ecfb3c4e3c229182cb53a185b,western_union,SORIANA LAS CHOAPAS 462,,Las Choapas,VERACRUZ,,MX,(+52) 81-1112009,https://location.westernunion.com/mx/veracruz/las-choapas/2adc297ecfb3c4e3c229182cb53a185b,Mo-Su 08:00-23:00,Western Union,Q861042
567cee72f8fbdb728cd6182132f28c3f,western_union,SORIANA LAS CHOAPAS 462,,Las Choapas,VERACRUZ,,MX,(+52) 81-1112009,https://location.westernunion.com/mx/veracruz/las-choapas/567cee72f8fbdb728cd6182132f28c3f,Mo-Su 08:00-23:00,Western Union,Q861042
4c34e9eb31cfba93d99314b0b83f35ab,western_union,TELECOMM 30050,,Las Choapas,VERACRUZ,,MX,+52 800 800 8930,https://location.westernunion.com/mx/veracruz/las-choapas/4c34e9eb31cfba93d99314b0b83f35ab,Mo-Sa 08:00-20:00,Western Union,Q861042
0d44e84390bbc9b8941da2a8e7e37e96,western_union,TELECOMM 30050,,Las Choapas,VERACRUZ,,MX,+52 800 800 8930,https://location.westernunion.com/mx/veracruz/las-choapas/0d44e84390bbc9b8941da2a8e7e37e96,Mo-Su 09:00-20:00,Western Union,Q861042
d5f072cd9e03cce136e3f36d10b87e59,western_union,TELECOMM 30050,,Las Choapas,VERACRUZ,,MX,+52 800 800 9889,https://location.westernunion.com/mx/veracruz/las-choapas/d5f072cd9e03cce136e3f36d10b87e59,Mo-Fr 09:00-15:00; Sa 09:00-12:00,Western Union,Q861042
c8d3fa27ff714389b0c1b206110c3692,western_union,ELECZION LAS CHOAPAS 1016,,Las Choapas,VERACRUZ,,MX,+52 55 5246 0700,https://location.westernunion.com/mx/veracruz/las-choapas/c8d3fa27ff714389b0c1b206110c3692,Mo-Su 06:30-23:30,Western Union,Q861042
557519f49e559d27cfe7d0425cdaad4c,western_union,ELECZION LAS CHOAPAS 1016,,Las Choapas,VERACRUZ,,MX,+52 55 5246 0700,https://location.westernunion.com/mx/veracruz/las-choapas/557519f49e559d27cfe7d0425cdaad4c,Mo-Su 06:30-23:30,Western Union,Q861042
b5c51a5c717595751b5997899da21b01,western_union,AURRERA LAS CHOAPAS 2020,,Las Choapas,VERACRUZ,,MX,+52 800 833 4700,https://location.westernunion.com/mx/veracruz/las-choapas/b5c51a5c717595751b5997899da21b01,Mo-Su 07:00-23:00,Western Union,Q861042
d9bf455548a93f0d8cfc37bd39fe5dc6,western_union,AURRERA LAS CHOAPAS 2020,,Las Choapas,VERACRUZ,,MX,+52 800 833 4700,https://location.westernunion.com/mx/veracruz/las-choapas/d9bf455548a93f0d8cfc37bd39fe5dc6,Mo-Su 07:00-23:00,Western Union,Q861042
941f3cf76da9cef2155108906b53d416,western_union,AURRERA LAS CHOAPAS 2020,,Las Choapas,VERACRUZ,,MX,+52 800 833 4700,https://location.westernunion.com/mx/veracruz/las-choapas/941f3cf76da9cef2155108906b53d416,Mo-Su 07:00-23:00,Western Union,Q861042
4887632be60b69b2bdd2100f9d53f3ba,western_union,OXXO PALACIO CHOAPAS MTT,,Las Choapas,VERACRUZ,,MX,+52 81 8389 2121,https://location.westernunion.com/mx/veracruz/las-choapas/4887632be60b69b2bdd2100f9d53f3ba,Mo-Su 08:00-22:00,Western Union,Q861042
ffe91ed6f163c0ec7ffd45d0dacc33c8,western_union,OXXO PALACIO CHOAPAS MTT,,Las Choapas,VERACRUZ,,MX,+52 81 8389 2121,https://location.westernunion.com/mx/veracruz/las-choapas/ffe91ed6f163c0ec7ffd45d0dacc33c8,Mo-Su 08:00-22:00,Western Union,Q861042
89bf3827b176135761f4a09d63b827d5,western_union,OXXO FRANCISCO SARABIA MTT,,Las Choapas,VERACRUZ,,MX,+52 81 8389 2121,https://location.westernunion.com/mx/veracruz/las-choapas/89bf3827b176135761f4a09d63b827d5,Mo-Su 08:00-22:00,Western Union,Q861042
0e006968d84cd97f7c87dd01a9b7fbf9,western_union,OXXO FRANCISCO SARABIA MTT,,Las Choapas,VERACRUZ,,MX,+52 81 8389 2121,https://location.westernunion.com/mx/veracruz/las-choapas/0e006968d84cd97f7c87dd01a9b7fbf9,Mo-Su 08:00-22:00,Western Union,Q861042
2e7fb229d23f152f515a328a03297c0a,western_union,OXXO FRANCISCO SARABIA MTT,,Las Choapas,VERACRUZ,,MX,+52 81 8389 2121,https://location.westernunion.com/mx/veracruz/las-choapas/2e7fb229d23f152f515a328a03297c0a,Mo-Su 08:00-22:00,Western Union,Q861042
653c60dad0a3da5b350b0589426d1874,western_union,ELEKTRA 1294,,Las Choapas,VERACRUZ,,MX,+52 55 1720 8177,https://location.westernunion.com/mx/veracruz/las-choapas/653c60dad0a3da5b350b0589426d1874,Mo-Su 09:00-21:00,Western Union,Q861042
bad4f877cda3c1cd0ce323189603e643,western_union,ELEKTRA 1294,,Las Choapas,VERACRUZ,,MX,+52 55 1720 8177,https://location.westernunion.com/mx/veracruz/las-choapas/bad4f877cda3c1cd0ce323189603e643,Mo-Su 09:00-21:00,Western Union,Q861042
3e75b228510ee32ac70806a4be6aba36,western_union,ELEKTRA 1294,,Las Choapas,VERACRUZ,,MX,+52 55 1720 8177,https://location.westernunion.com/mx/veracruz/las-choapas/3e75b228510ee32ac70806a4be6aba36,Mo-Su 09:00-20:00,Western Union,Q861042
0e8c3ee896a7ad339c1e95d0ff806a19,western_union,OXXO J MARIO ROSADO MTT,,Las Choapas,VERACRUZ,,MX,+52 81 8389 2121,https://location.westernunion.com/mx/veracruz/las-choapas/0e8c3ee896a7ad339c1e95d0ff806a19,Mo-Su 08:00-22:00,Western Union,Q861042
28cfaa086a44c26ba01c1c865f5b9a5f,western_union,OXXO J MARIO ROSADO MTT,,Las Choapas,VERACRUZ,,MX,+52 81 8389 2121,https://location.westernunion.com/mx/veracruz/las-choapas/28cfaa086a44c26ba01c1c865f5b9a5f,Mo-Su 08:00-22:00,Western Union,Q861042
5385a94119e0e5e6fd134a9890102be5,western_union,OXXO J MARIO ROSADO MTT,,Las Choapas,VERACRUZ,,MX,+52 81 8389 2121,https://location.westernunion.com/mx/veracruz/las-choapas/5385a94119e0e5e6fd134a9890102be5,Mo-Su 08:00-22:00,Western Union,Q861042
811e5ab8375c34eb5aa1edc024783a32,western_union,OXXO PARALELO MTT,,Las Choapas,VERACRUZ,,MX,+52 81 8389 2121,https://location.westernunion.com/mx/veracruz/las-choapas/811e5ab8375c34eb5aa1edc024783a32,Mo-Su 08:00-22:00,Western Union,Q861042
083875111f694723b884cc6eee28f51f,western_union,OXXO PALACIO CHOAPAS MTT,,Las Choapas,VERACRUZ,,MX,+52 81 8389 2121,https://location.westernunion.com/mx/veracruz/las-choapas/083875111f694723b884cc6eee28f51f,Mo-Su 08:00-22:00,Western Union,Q861042
63cd99584321fe3143f7565c5afd2ce1,western_union,ELECZION LAS CHOAPAS 1016,,Las Choapas,VERACRUZ,,MX,+52 55 5246 0700,https://location.westernunion.com/mx/veracruz/las-choapas/63cd99584321fe3143f7565c5afd2ce1,Mo-Su 06:30-23:30,Western Union,Q861042
4e5241a146b3c5a417b97cec08898a02,western_union,OXXO PARALELO MTT,,Las Choapas,VERACRUZ,,MX,+52 81 8389 2121,https://location.westernunion.com/mx/veracruz/las-choapas/4e5241a146b3c5a417b97cec08898a02,Mo-Su 08:00-22:00,Western Union,Q861042
