Ref,Spider,Name,Address,City,State,Zipcode,Country,Phone,Website,Hours,Brand,WikiData
27,andpizza,Potomac Yards,,Alexandria,VA,,US,+1 202-450-5059,,Mo-Su 10:00-23:00,&pizza,Q21189222
948,att_us,POTOMAC YARD STORE - ALEXANDRIA VA,,Alexandria,VA,,US,+1 703-706-9503,https://www.att.com/stores/virginia/alexandria/948,Mo-Sa 10:00-21:00; Su 11:00-19:00,AT&T,Q298594
5298,autozone_us,AutoZone Auto Parts Alexandria,,Alexandria,VA,,US,+1 703-535-5900,https://www.autozone.com/locations/va/alexandria/3705-mount-vernon-ave.html,Mo-Sa 07:30-21:00; Su 08:00-20:00,AutoZone,Q4826087
https://www.banfield.com/locations/veterinarians/va/alexandria/alx,banfield_pet_hospital,Alexandria,,Alexandria,VA,,US,+1 703-518-8492,https://www.banfield.com/locations/veterinarians/va/alexandria/alx,Mo-Fr 08:00-18:00; Sa 08:00-17:00; Su 00:00-24:00,Banfield Pet Hospital,Q2882416
https://locations.baskinrobbins.com/va/alexandria/3325-jefferson-davis-hwy-335717-br,baskin_robbins_us,Baskin-Robbins™,,Alexandria,VA,,US,+1 703-548-2413,https://locations.baskinrobbins.com/va/alexandria/3325-jefferson-davis-hwy-335717-br,Mo-Fr 04:30-21:00; Sa-Su 05:00-21:00,Baskin-Robbins,Q584601
449,batteriesplus,Shop Alexandria's battery and lighting headquarters,,Alexandria,VA,,US,+1 703-575-7711,https://www.batteriesplus.com/store-locator/va/alexandria/batteries-plus-449,Mo-Fr 08:00-19:00; Sa 09:00-19:00; Su 10:00-18:00,Batteries Plus Bulbs,Q17005157
https://stores.bestbuy.com/va/alexandria/3401-richmond-hwy-493.html,bestbuy,Best Buy Potomac Yard,,Alexandria,VA,,US,+1 703-519-0940,https://stores.bestbuy.com/va/alexandria/3401-richmond-hwy-493.html,,Best Buy,Q533415
1002349438,chase_us,Potomac Yards Center - New branch,,Alexandria,VA,,US,+1 571-458-3582,https://locator.chase.com/va/alexandria/3625-richmond-hwy,Mo-Fr 09:00-17:00; Sa 09:00-13:00,Chase,Q524629
va_alexandria_3425-richmond-hwy,chipotle, ,,Alexandria,VA,,US,+1 571-255-6044,https://locations.chipotle.com/va/alexandria/3425-richmond-hwy,,Chipotle,Q465751
70112101,cricket_wireless,Cricket Wireless Authorized Retailer,,Alexandria,VA,,US,+1 571-429-7555,https://www.cricketwireless.com/stores/ll/US/VA/Alexandria/3706-Mount-Vernon-Ave,Mo-Fr 10:00-19:00; Sa 10:00-18:00; Su 11:00-17:00,Cricket Wireless,Q5184987
16456,cvs_us,CVS Pharmacy,,Alexandria,VA,,US,+1 703-706-3852,https://www.cvs.com/store-locator/alexandria-va-pharmacies/3101-richmond-hwy-alexandria-va-22305/storeid=16456,"Mo-Fr 09:00-13:30,14:00-19:00; Sa 10:00-13:30,14:00-18:00; Su 11:00-13:30,14:00-17:00",CVS Pharmacy,Q2078880
335717,dunkin_us,Dunkin',,Alexandria,VA,,US,+1 703-548-2413,https://locations.dunkindonuts.com/en/va/alexandria/3325-jefferson-davis-hwy/335717,Mo-Fr 04:30-21:00; Sa-Su 05:00-21:00,Dunkin',Q847743
354,first_cash,First Cash Pawn,,Alexandria,VA,,US,+1 703-684-0040,,,First Cash Pawn,
https://restaurants.fiveguys.com/#15553465,five_guys_us,Five Guys Potomac Yard,,Alexandria,VA,,US,+1 703-706-9547,https://restaurants.fiveguys.com/3525-richmond-hwy,"Mo-Su 11:00-21:30,11:00-22:00",Five Guys,Q1131810
2742,giantfood,Giant Food Alexandria,,Alexandria,VA,,US,+1 703-518-4797,https://stores.giantfood.com/va/alexandria/621-east-glebe-road,Mo-Su 06:00-22:00,Giant Food,Q5558336
https://www.goodyearautoservice.com/en_US/location/Alexandria-VA-22305-US-000908957,goodyear_us,"Just Tires - Alexandria, Alexandria, VA | Oil, Brakes & Repairs | #000908957",,Alexandria,VA,,US,+1 703-836-6807,https://www.goodyearautoservice.com/en_US/location/Alexandria-VA-22305-US-000908957,Mo-Fr 08:00-19:00; Sa 08:00-18:00; Su 08:00-17:00,Goodyear,Q620875
va_alexandria_breakfast-3425-a-richmond-hwy-578,ihop,IHOP Breakfast Restaurants Near You at 3425-A Richmond Hwy,,Alexandria,VA,,US,+1 703-519-4220,https://restaurants.ihop.com/en-us/va/alexandria/breakfast-3425-a-richmond-hwy-578,,IHOP,Q1185675
https://stores.factory.jcrew.com/#1021155054,j_crew_us,J.Crew Factory,,Alexandria,VA,,US,+1 571-483-3719,https://stores.factory.jcrew.com/us/va/alexandria/3631-richmond-hwy,Mo-Sa 10:00-20:00; Su 11:00-19:00,J. Crew,Q5370765
https://healthy.kaiserpermanente.org/maryland-virginia-washington-dc/facilities/alexandria-medical-center-336713,kaiser_permanente_us,Alexandria Medical Center,,Alexandria,VA,,US,+1 703-721-6300,https://healthy.kaiserpermanente.org/maryland-virginia-washington-dc/facilities/alexandria-medical-center-336713,,Kaiser Permanente,Q1721601
65743111,moneygram,PRIMAVERA STORE - #0001,,ALEXANDRIA,VA,,US,+1 703-220-9264,,Mo-Su 09:00-18:00,MoneyGram,Q1944412
66473082,moneygram,HONDURAS EXPRESS - ALEXANDRIA,,ALEXANDRIA,VA,,US,+1 703-519-8585,,Mo-Fr 07:00-23:00; Sa-Su 08:00-18:00,MoneyGram,Q1944412
https://locations.papajohns.com/#10692466,papa_johns,Papa John's,,Alexandria,VA,,US,+1 703-299-9555,https://locations.papajohns.com/united-states/va/22305/alexandria/4106-mount-vernon-ave,Mo-Th 10:00-24:00; Fr-Sa 10:00-01:00; Su 10:00-24:00,Papa John's Pizza,Q2759586
va_alexandria_1049-w-glebe-rd,pizza_hut_us,1049 W Glebe Rd,,Alexandria,VA,,US,+1 703-836-3200,https://locations.pizzahut.com/va/alexandria/1049-w-glebe-rd,,Pizza Hut,Q191615
restaurant_82257,popeyes_us_fr,Popeyes,"3402 Mount Vernon Ave Alexandria, Virginia 22305 - USA",Alexandria,VA,,US,+1 703-299-0222,https://www.popeyes.com/store-locator/store/restaurant_82257,Mo-Th 10:00-22:00; Fr-Sa 10:00-23:00; Su 10:00-22:00,Popeyes,Q1330910
3301-jefferson-davis-hwy,staples,"Staples Alexandria, VA",,Alexandria,VA,,US,,https://stores.staples.com/va/alexandria/3301-jefferson-davis-hwy,Mo-Fr 08:00-21:00; Sa 09:00-21:00; Su 10:00-19:00,Staples,Q785943
https://restaurants.subway.com/#14915088,subway,Subway Mt Vernon Village,,Alexandria Alexandria City,VA,,US,+1 703-837-1188,https://restaurants.subway.com/united-states/va/alexandria/3829-mount-vernon-ave,Mo 09:00-20:00; Tu-Fr 09:00-21:00; Sa-Su 10:00-19:00,Subway,Q244457
https://restaurants.subway.com/#14916324,subway,Subway Potomac Yard Shopping Center,,Alexandria Alexandria City,VA,,US,+1 703-535-8808,https://restaurants.subway.com/united-states/va/alexandria/3825-jefferson-davis-hwy,Mo-Fr 07:00-21:30; Sa 08:00-21:30; Su 09:00-21:30,Subway,Q244457
2854,tjx,Alexandria,3701 Richmond Hwy,Alexandria,VA,,US,+1 703-518-5191,,Mo-Sa 09:30-21:30; Su 10:00-20:00,HomeGoods,Q5887941
08575,tjx,Alexandria,3875 Richmond Hwy S 3,Alexandria,VA,,US,+1 571-561-8962,,Mo-Sa 09:30-21:00; Su 10:00-20:00,TJ Maxx,Q10860683
546D,tmobile_us,W Glebe Rd & Mt Vernon Ave,,Alexandria,VA,,US,+1 703-299-5150,https://www.t-mobile.com/store-locator/va/alexandria/w-glebe-rd-mt-vernon-ave,,T-Mobile,Q3511885
221,total_wine_and_more_us,Potomac Yard,,Alexandria,VA,,US,+1 571-257-2168,https://www.totalwine.com/store-info/221,Mo-Sa 09:00-22:00; Su 09:00-20:00,Total Wine & More,Q7828084
2230500016,usps_collection_boxes,USPS COLLECTION BOX - BLUE BOX,437 MONTICELLO BLVD,ALEXANDRIA,VA,,US,,,,United States Postal Service,Q668687
2230500008,usps_collection_boxes,USPS COLLECTION BOX - BLUE BOX,3505 CAMERON MILLS RD,ALEXANDRIA,VA,,US,,,,United States Postal Service,Q668687
2230500020,usps_collection_boxes,USPS COLLECTION BOX - BLUE BOX,3401 RUSSELL RD,ALEXANDRIA,VA,,US,,,,United States Postal Service,Q668687
2230500017,usps_collection_boxes,USPS COLLECTION BOX - BLUE BOX,501 TENNESSEE AVE,ALEXANDRIA,VA,,US,,,,United States Postal Service,Q668687
2230500009,usps_collection_boxes,USPS COLLECTION BOX - BLUE BOX,800 TENNESSEE AVE,ALEXANDRIA,VA,,US,,,,United States Postal Service,Q668687
2230500007,usps_collection_boxes,USPS COLLECTION BOX - BLUE BOX,3801 FLORENCE DR,ALEXANDRIA,VA,,US,,,,United States Postal Service,Q668687
2230500006,usps_collection_boxes,USPS COLLECTION BOX - BLUE BOX,3801 EXECUTIVE AVE,ALEXANDRIA,VA,,US,,,,United States Postal Service,Q668687
2230500024,usps_collection_boxes,USPS COLLECTION BOX - BLUE BOX,3671 JEFFERSON DAVIS HWY,ALEXANDRIA,VA,,US,,,,United States Postal Service,Q668687
2230500003,usps_collection_boxes,USPS COLLECTION BOX - BLUE BOX,201 LYNHAVEN DR,ALEXANDRIA,VA,,US,,,,United States Postal Service,Q668687
2230500013,usps_collection_boxes,USPS COLLECTION BOX - BLUE BOX,11 E GLEBE RD,ALEXANDRIA,VA,,US,,,,United States Postal Service,Q668687
2230500011,usps_collection_boxes,USPS COLLECTION BOX - BLUE BOX,25 W GLEBE RD,ALEXANDRIA,VA,,US,,,,United States Postal Service,Q668687
2230500023,usps_collection_boxes,USPS COLLECTION BOX - BLUE BOX,3825 MOUNT VERNON AVE,ALEXANDRIA,VA,,US,,,,United States Postal Service,Q668687
2230500022,usps_collection_boxes,USPS COLLECTION BOX - BLUE BOX,3807 MOUNT VERNON AVE,ALEXANDRIA,VA,,US,,,,United States Postal Service,Q668687
2230500021,usps_collection_boxes,USPS COLLECTION BOX - BLUE BOX,525 FOUR MILE RD,ALEXANDRIA,VA,,US,,,,United States Postal Service,Q668687
A00000243393,verizon_us,Cellular Sales Alexandria,,Alexandria,VA,,US,+1 703-888-1591,https://www.verizon.com/stores/details/virginia/alexandria/cellular-sales-alexandria-1566322/,Mo-Sa 10:00-20:00; Su 12:00-18:00,Verizon,Q919641
,visa,,,ALEXANDRIA,VA,,US,,,,,
,visa,,,ALEXANDRIA,VA,,US,,,,,
,visa,,,ALEXANDRIA,VA,,US,,,,,
,visa,,,ALEXANDRIA,VA,,US,,,,,
,visa,,,ALEXANDRIA,VA,,US,,,,,
,visa,,,ALEXANDRIA,VA,,US,,,,,
,visa,,,ALEXANDRIA,VA,,US,,,,,
,visa,,,ALEXANDRIA,VA,,US,,,,,
,visa,,,ALEXANDRIA,VA,,US,,,,,
,visa,,,ALEXANDRIA,VA,,US,,,,,
,visa,,,ALEXANDRIA,VA,,US,,,,,
,visa,,,ALEXANDRIA,VA,,US,,,,,
,visa,,,ALEXANDRIA,VA,,US,,,,,
,visa,,,ALEXANDRIA,VA,,US,,,,,
,visa,,,ALEXANDRIA,VA,,US,,,,,
,visa,,,ALEXANDRIA,VA,,US,,,,,
,visa,,,ALEXANDRIA,VA,,US,,,,,
,visa,,,ALEXANDRIA,VA,,US,,,,,
,visa,,,ALEXANDRIA,VA,,US,,,,,
,visa,,,ALEXANDRIA,VA,,US,,,,,
,visa,,,ALEXANDRIA,VA,,US,,,,,
,visa,,,ALEXANDRIA,VA,,US,,,,,
,visa,,,ALEXANDRIA,VA,,US,,,,,
,visa,,,ALEXANDRIA,VA,,US,,,,,
,visa,,,ALEXANDRIA,VA,,US,,,,,
,visa,,,ALEXANDRIA,VA,,US,,,,,
,visa,,,ALEXANDRIA,VA,,US,,,,,
,visa,,,ALEXANDRIA,VA,,US,,,,,
,visa,,,ALEXANDRIA,VA,,US,,,,,
https://locations.vitaminshoppe.com/va/alexandria/vitamins-supplements-alexandria-va-717.html,vitamin_shoppe,The Vitamin Shoppe® Alexandria ,3725-B Richmond Hwy ,Alexandria,VA,,US,+1 703-535-6500,https://locations.vitaminshoppe.com/va/alexandria/vitamins-supplements-alexandria-va-717.html,Su 10:00-19:00; Mo 10:30-20:30; Tu 10:30-20:30; We 10:30-20:30; Th 10:30-20:30; Fr 10:30-20:30; Sa 10:00-21:00,The Vitamin Shoppe,Q7772938
3506__MOUNT__VERNON__AVE_ALEXANDRIA_VA_22305,wellsfargo,Wells Fargo,3506 MOUNT VERNON AVE,ALEXANDRIA,VA,,US,+1 703-442-3649,https://www.wellsfargo.com/locator/bank/3506__MOUNT__VERNON__AVE_ALEXANDRIA_VA_22305/,Mo-Fr 09:00-17:00,Wells Fargo,Q744149
93903c4ddd2c244da81a42faaa0d87f5,western_union,7-ELEVEN #10765,,Alexandria,VA,,US,+1 703-684-1945,https://location.westernunion.com/us/va/alexandria/93903c4ddd2c244da81a42faaa0d87f5,,Western Union,Q861042
290b77ec0477263254cf506a23df2b6a,western_union,7-ELEVEN #10719,,Alexandria,VA,,US,+1 703-684-1946,https://location.westernunion.com/us/va/alexandria/290b77ec0477263254cf506a23df2b6a,,Western Union,Q861042
1b00ba09839e1665d1961380411f0cb4,western_union,CHECKS CASHED,,Alexandria,VA,,US,+1 703-717-9463,https://location.westernunion.com/us/va/alexandria/1b00ba09839e1665d1961380411f0cb4,Mo-Su 09:00-21:00,Western Union,Q861042
73b4146dddac25294ce846bef1e7f305,western_union,CHECKS CASHED,,Alexandria,VA,,US,+1 703-717-9463,https://location.westernunion.com/us/va/alexandria/73b4146dddac25294ce846bef1e7f305,Mo-Su 09:00-21:00,Western Union,Q861042
