Ref,Spider,Name,Address,City,State,Zipcode,Country,Phone,Website,Hours,Brand,WikiData
1680700370,banque_populaire_fr,ROANNE CENTRE LE COTEAU,,LE COTEAU,,,FR,+33 4 77 44 00 10,https://agences.banquepopulaire.fr/banque-assurance/agence-roanne-centre-le-coteau-id1680700370,"Tu-We 08:30-12:30,13:45-17:45; Th 08:30-12:00,13:45-17:45; Fr 08:30-12:30,13:45-17:45; Sa 08:00-12:30",Banque Populaire,Q846647
https://laboratoires.biogroup.fr/#27454222,biogroup_fr,BIOGROUP GLBM Laboratoire de la gare - Le Coteau,,,,,FR,+33 4 77 67 00 88,https://laboratoires.biogroup.fr/loire/le-coteau/8-rue-auguste-bousson,Mo-Fr 07:30-12:00,Biogroup,Q101559741
8022,carrefour_fr,Market Le Coteau,,Le Coteau,,,FR,+33 4 77 68 61 55,https://www.carrefour.fr/magasin/market-le-coteau,Mo-Sa 08:30-19:30; Su 09:00-12:30,Carrefour Market,Q2689639
9485,carrefour_fr,Carrefour City,,Le Coteau,,,FR,,https://www.carrefour.fr/magasin/city-le-coteau,Mo-Sa 07:00-22:00; Su 08:00-13:00,Carrefour City,Q2940187
https://www.credit-agricole.fr/particulier/agence/loire-haute-loire/le-coteau-4410.html,credit_agricole,Crédit Agricole,,LE COTEAU,,,FR,+33 4 77 67 32 91,https://www.credit-agricole.fr/particulier/agence/loire-haute-loire/le-coteau-4410.html,"Tu-We 09:00-12:30,14:00-17:30; Th 09:00-12:30,15:00-17:30; Fr 09:00-12:30,13:50-17:30; Sa 08:15-12:45",Credit Agricole,Q590952
07381,credit_mutuel_fr,CAISSE DE CREDIT MUTUEL LE COTEAU,,LE COTEAU,,,FR,+33 4 77 44 24 10,https://www.creditmutuel.fr/fr/caisses/10278/07381/00/000,,Crédit Mutuel,Q642627
RNEE61,enterprise,Roanne,,Le Coteau,,,FR,+33 4 89 52 11 13,,,Enterprise Rent-A-Car,Q17085454
FordFF78406  FRA,ford,GARAGE TIMMERMANS,,LE COTEAU,,,FR,+33 4 77 68 16 97,,,Ford,Q44294
00000609_001-renault,renault,RENAULT ROANNE - GROUPE MEIGNAN,,LE COTEAU,,,FR,+33 4 77 44 47 00,,,Renault,Q6686
00000609_001-dacia,renault,RENAULT ROANNE - GROUPE MEIGNAN,,LE COTEAU,,,FR,+33 4 77 44 47 00,,,Dacia,Q27460
roanne-le-coteau,toolstation,Roanne - Le coteau,"23 Boulevard Charles de Gaulle, 42120 Le Coteau",,,,FR,,https://www.toolstation.fr/branches/roanne-le-coteau,,Toolstation,Q7824103
NF076503,totalenergies,SAS LAFAY LE COTEAU,,LE COTEAU,,,FR,+33 4 77 44 47 00,https://store.totalenergies.fr/en_EN/NF076503,Mo-Fr 07:30-20:00; Sa 07:30-19:00,TotalEnergies,Q154037
NF902500,totalenergies,AVIA,,LE COTEAU,,,FR,,https://store.totalenergies.fr/en_EN/NF902500,,Avia,Q300147
,visa,,,LE COTEAU,,,FR,,,,,
,visa,,,LE COTEAU,,,FR,,,,,
,visa,,,LE COTEAU,,,FR,,,,,
,visa,,,LE COTEAU,,,FR,,,,,
,visa,,,LE COTEAU,,,FR,,,,,
,visa,,,LE COTEAU,,,FR,,,,,
,visa,,,LE COTEAU,,,FR,,,,,
