Ref,Spider,Name,Address,City,State,Zipcode,Country,Phone,Website,Hours,Brand,WikiData
https://stores.advanceautoparts.com/tx/conroe/1105-n-loop-336-w,advance_auto_parts_us,Advance Auto Parts,,Conroe,TX,,US,+1 936-756-4244,https://stores.advanceautoparts.com/tx/conroe/1105-n-loop-336-w,Mo-Sa 07:30-21:00; Su 09:00-20:00,Advance Auto Parts,Q4686051
/locations/propane-offices/texas/conroe/1376-beach-airport-rd,amerigas,"AmerGas Propane | Conroe, Texas",,Conroe,TX,,US,+1 936-756-5444,/locations/propane-offices/texas/conroe/1376-beach-airport-rd,,AmeriGas,Q23130318
https://locations.arbys.com/tx/conroe/1025-n-loop-336-west.html,arbys_us,"Arby's Fast-Food Drive Through Near You in Conroe, TX",,Conroe,TX,,US,+1 936-441-3773,https://locations.arbys.com/tx/conroe/1025-n-loop-336-west.html,Mo-Su 10:00-22:00,Arby's,Q630866
1596,autozone_us,AutoZone Auto Parts Conroe,,Conroe,TX,,US,+1 936-760-1445,https://www.autozone.com/locations/tx/conroe/904-s-frazier-st.html,Mo-Sa 07:30-22:00; Su 08:00-21:00,AutoZone,Q4826087
1439,autozone_us,AutoZone Auto Parts Conroe,,Conroe,TX,,US,+1 936-756-2466,https://www.autozone.com/locations/tx/conroe/1801-n-frazier.html,Mo-Fr 07:30-22:00; Sa 08:00-22:00; Su 08:00-21:00,AutoZone,Q4826087
https://locators.bankofamerica.com/tx/conroe/atm-conroe-110289.html,bankofamerica,Bank of America Drive-Thru ATM | Frazier And Hillcrest,,Conroe,TX,,US,+1 844-401-8500,https://locators.bankofamerica.com/tx/conroe/atm-conroe-110289.html,,Bank of America,Q487907
https://locations.baskinrobbins.com/tx/conroe/800-n-loop-336-w-352712-br,baskin_robbins_us,Baskin-Robbins™,,Conroe,TX,,US,+1 936-828-3939,https://locations.baskinrobbins.com/tx/conroe/800-n-loop-336-w-352712-br,Mo-Th 04:30-22:30; Fr 04:30-23:30; Sa 05:00-23:30; Su 05:00-22:30,Baskin-Robbins,Q584601
237780,bluerhino,Circle K #2741485,,Conroe,TX,,US,+1 936-756-6192,,,Blue Rhino,Q65681213
10213,bluerhino,Kroger #357 - Southwest,,Conroe,TX,,US,+1 936-441-7333,,,Blue Rhino,Q65681213
173776,bluerhino,Family Dollar #09007,,Conroe,TX,,US,+1 936-756-0026,,,Blue Rhino,Q65681213
155674,bluerhino,Walgreens #7287,,Conroe,TX,,US,+1 936-760-4116,,,Blue Rhino,Q65681213
178671,bluerhino,Fraizer Mart (Mushkan Business Inc),,Conroe,TX,,US,+1 936-441-7477,,,Blue Rhino,Q65681213
237778,bluerhino,Circle K #2740594,,Conroe,TX,,US,+1 936-756-2611,,,Blue Rhino,Q65681213
155348,bluerhino,Walgreens #5269,,Conroe,TX,,US,+1 936-494-0424,,,Blue Rhino,Q65681213
172505,bluerhino,Family Dollar #05461,,Conroe,TX,,US,+1 936-756-6899,,,Blue Rhino,Q65681213
198866,bluerhino,Eagle Mart #6 (Eagle Mart Enterprises Inc),,Conroe,TX,,US,+1 936-756-7005,,,Blue Rhino,Q65681213
196758,bluerhino,H-E-B #595,,CONROE,TX,,US,+1 936-756-1430,,,Blue Rhino,Q65681213
178686,bluerhino,Maxx Mart    (Silverdale),,Conroe,TX,,US,+1 936-703-5110,,,Blue Rhino,Q65681213
237801,bluerhino,Circle K #2741484,,Conroe,TX,,US,+1 936-756-2895,,,Blue Rhino,Q65681213
179695,bluerhino,Expressway Market (AVINASH),,Conroe,TX,,US,+1 936-494-0539,,,Blue Rhino,Q65681213
178709,bluerhino,Orbit #2 (New Orbit),,Conroe,TX,,US,+1 936-539-3007,,,Blue Rhino,Q65681213
211281,bluerhino,Dollar General #22616,,Conroe,TX,,US,+1 346-476-1396,,,Blue Rhino,Q65681213
175363,bluerhino,Fuel Maxx #03 (THREE STORE),,Conroe,TX,,US,+1 936-441-1700,,,Blue Rhino,Q65681213
237781,bluerhino,Circle K #2741494,,Conroe,TX,,US,+1 936-539-0210,,,Blue Rhino,Q65681213
220438,bluerhino,Dollar General #23598,,CONROE,TX,,US,+1 936-444-4118,,,Blue Rhino,Q65681213
117296,bluerhino,Orgill #051888 - Higginbotham Hardware #24,,Conroe,TX,,US,+1 936-756-6760,,,Blue Rhino,Q65681213
155360,bluerhino,Walgreens #12165,,Conroe,TX,,US,+1 936-760-6600,,,Blue Rhino,Q65681213
223028,bluerhino,Speedy Stop #88,,Conroe,TX,,US,+1 936-283-4523,,,Blue Rhino,Q65681213
212371,bluerhino,Timewise #319,,Conroe,TX,,US,+1 936-441-3195,,,Blue Rhino,Q65681213
237777,bluerhino,Circle K #2740592,,Conroe,TX,,US,+1 936-756-0299,,,Blue Rhino,Q65681213
175378,bluerhino,Fuel Maxx #7 (STAR & STRIPE),,Conroe,TX,,US,+1 936-494-0458,,,Blue Rhino,Q65681213
0163,bootbarn,Tomball,,"Conroe,",TX,,US,+1 936-788-1193,https://www.bootbarn.com/stores?StoreID=0163,Mo-Sa 09:00-20:00; Su 12:00-18:00,Boot Barn,Q109825187
355757,chevron,Chevron Station #355757,495 BEACH AIRPORT RD FM 3083,CONROE,TX,,US,+1 936-756-1600,,,Chevron,Q319642
373657,chevron,Chevron Station #373657,12461 FM 3083,CONROE,TX,,US,,,,Chevron,Q319642
376346,chevron,Chevron Station #376346,1263 N FRAZIER ST,CONROE,TX,,US,(123) 456-7890,,,Chevron,Q319642
1203-n-frazier-street,churchs_chicken,N. Frazier Street,,Conroe,TX,,US,+1 936-756-4606,https://locations.churchs.com/tx/conroe/1203-n-frazier-street,,Church's Chicken,Q1089932
80554,citi,ATM Speedy Stop,,Conroe,TX,,US,,,,Citibank,Q857063
90694,citi,ATM Walgreens,,Conroe,TX,,US,,,,Citibank,Q857063
90980,citi,ATM Walgreens,,Conroe,TX,,US,,,,Citibank,Q857063
59186,citi,ATM Heb,,Conroe,TX,,US,,,,Citibank,Q857063
53320,citi,ATM CVS,,Conroe,TX,,US,,,,Citibank,Q857063
86796,citi,ATM Walgreens,,Conroe,TX,,US,,,,Citibank,Q857063
75975,citi,ATM SIMMONS BANK,,Conroe,TX,,US,,,,Citibank,Q857063
61186,citi,ATM Kroger,,Conroe,TX,,US,,,,Citibank,Q857063
70144247,cricket_wireless,Cricket Wireless Authorized Retailer,,Conroe,TX,,US,+1 936-539-3423,https://www.cricketwireless.com/stores/ll/US/TX/Conroe/1211-N-Loop-336-W,Mo-Sa 09:00-21:00; Su 10:00-18:00,Cricket Wireless,Q5184987
80213123,cricket_wireless,Cricket Wireless Authorized Retailer,,Conroe,TX,,US,+1 936-703-5367,https://www.cricketwireless.com/stores/ll/US/TX/Conroe/224-N-Frazier-St,Mo-Sa 10:00-20:00; Su 12:00-17:00,Cricket Wireless,Q5184987
80213153,cricket_wireless,Cricket Wireless Authorized Retailer,,Conroe,TX,,US,+1 936-539-6134,https://www.cricketwireless.com/stores/ll/US/TX/Conroe/706-E-Davis-St,Mo-Sa 10:00-20:00; Su 12:00-17:00,Cricket Wireless,Q5184987
6741,cvs_us,CVS Pharmacy y más,,Conroe,TX,,US,+1 936-539-1849,https://www.cvs.com/store-locator/conroe-tx-pharmacies/910-w-davis-st-conroe-tx-77301/storeid=6741,24/7,CVS Pharmacy,Q2078880
23598,dollar_general,Dollar General,,Conroe,TX,,US,+1 936-444-4118,https://www.dollargeneral.com/store-directory/tx/conroe/23598,Mo-Su 08:00-22:00,Dollar General,Q145168
22616,dollar_general,Dollar General,,Conroe,TX,,US,+1 346-476-1396,https://www.dollargeneral.com/store-directory/tx/conroe/22616,Mo-Su 08:00-22:00,Dollar General,Q145168
6645,dominos_pizza_us,Domino's Pizza,,Conroe,TX,,US,+1 936-539-2288,https://pizza.dominos.com/texas/conroe/903-north-loop-336-w,Mo-Th 10:00-24:00; Fr-Sa 10:00-01:00; Su 10:00-24:00,Domino's,Q839466
352712,dunkin_us,Dunkin',,Conroe,TX,,US,+1 936-828-3939,https://locations.dunkindonuts.com/en/tx/conroe/800-n-loop-336-w/352712,Mo-Th 04:30-22:30; Fr 04:30-23:30; Sa 05:00-23:30; Su 05:00-22:30,Dunkin',Q847743
https://www.edwardjones.com/us-en/financial-advisor/ryan-korenek,edwardjones,Ryan P Korenek,,Conroe,TX,,US,+1 936-647-0739,https://www.edwardjones.com/us-en/financial-advisor/ryan-korenek,Mo-Fr 09:00-17:00,Edward Jones,Q5343830
E106P3,enterprise,Conroe Gullo Ford,,Conroe,TX,,US,+1 936-494-1641,,,Enterprise Rent-A-Car,Q17085454
E10615,enterprise,Conroe N. Frazier St.,,Conroe,TX,,US,+1 936-756-7211,,,Enterprise Rent-A-Car,Q17085454
E106CT,enterprise,Conroe Truck Rental,,Conroe,TX,,US,+1 936-494-0672,,,Enterprise Rent-A-Car,Q17085454
E106VC,enterprise,Conroe Van,,Conroe,TX,,US,+1 936-494-0672,,,Enterprise Rent-A-Car,Q17085454
200320516,exxonmobil,FUEL MAXX # 3,,CONROE,TX,,US,+1 936-441-1700,https://www.exxon.com/en/find-station/exxon-conroe-tx-fuelmaxx3-200320516,Mo-Su 05:00-23:00,Exxon,Q109675651
200319775,exxonmobil,EXPRESSWAY MARKET,,CONROE,TX,,US,+1 936-494-0539,https://www.exxon.com/en/find-station/exxon-conroe-tx-expresswaymarket-200319775,Mo-Su 05:00-23:00,Exxon,Q109675651
200318062,exxonmobil,MIDWAY #2,,CONROE,TX,,US,+1 936-760-3475,https://www.exxon.com/en/find-station/exxon-conroe-tx-midway2-200318062,Mo-Th 05:00-22:00; Fr-Sa 05:00-23:00; Su 06:00-22:00,Exxon,Q109675651
https://local.fedex.com/#25202892,fedex,,,Conroe,TX,,US,+1 800-463-3339,https://local.fedex.com/en-us/tx/conroe/izwaf,,FedEx,Q459477
https://local.fedex.com/#25201573,fedex,,,Conroe,TX,,US,+1 800-463-3339,https://local.fedex.com/en-us/tx/conroe/i7kae,,FedEx,Q459477
https://local.fedex.com/#25198668,fedex,,,Conroe,TX,,US,+1 800-463-3339,https://local.fedex.com/en-us/tx/conroe/i2v4b,,FedEx,Q459477
https://local.fedex.com/#491947,fedex,FedEx Ship Center,,Conroe,TX,,US,+1 800-463-3339,https://local.fedex.com/en-us/tx/conroe/cxoa,,FedEx,Q459477
404,fiesta_mart_us,Store #81,"210 E. Davis St., Conroe, TX, 77301",Conroe,TX,,US,+1 936-760-0340,https://www.fiestamart.com/store-detail/?store_id=404,Mo-Su 07:00-22:00,Fiesta Mart,Q5447326
907034,firestone_auto_care,Firestone Complete Auto Care,,Conroe,TX,,US,+1 936-228-8530,https://local.firestonecompleteautocare.com/texas/conroe/672-interstate-45-n/,,Firestone,Q420837
2215,first_cash,Cash America Pawn,,Conroe,TX,,US,+1 936-539-6662,,,Cash America,Q5048636
Motorcraft882USAEnglish,ford,Gullo Ford of Conroe,,Texas,TX,,US,+1 936-756-5500,,,Ford,Q44294
https://www.ford.com/dealerships/dealer-details/tx/conroe/gullo-ford-of-conroe/,ford_dealers_us,Gullo Ford of Conroe,,Conroe,TX,,US,+1 346-525-2508,https://www.ford.com/dealerships/dealer-details/tx/conroe/gullo-ford-of-conroe/,Mo-Sa 08:30-20:00,Ford Motor Company,Q44294
5518,gamestop_us,Conroe Center,,CONROE,TX,,US,+1 936-539-3700,https://www.gamestop.com/search/?store=5518,Mo-Th 12:00-20:00; Fr-Sa 11:00-21:00; Su 11:00-20:00,GameStop,Q202210
https://stores.gnc.com/#24058205,gnc,GNC Conroe Shopping Center,,,TX,,US,+1 936-756-7100,https://stores.gnc.com/all-stores-texas/conroe/2208-i-45-north,Mo-Sa 10:00-19:00; Su 11:00-18:00,GNC,Q4808595
https://www.goldencorral.com/locations/location-detail/977/golden-corral-ih-45-north/,golden_corral,"Golden Corral 977, Conroe, TX",,Conroe,TX,,US,+1 936-494-3120,https://www.goldencorral.com/locations/location-detail/977/golden-corral-ih-45-north/,,Golden Corral,Q4039560
29a30146-458a-e111-8dde-005056934050,goodwill,Store: CONROE,,Conroe,TX,,US,+1 936-647-1989,https://www.goodwill.org/locator/location/?store=MjlhMzAxNDYtNDU4YS1lMTExLThkZGUtMDA1MDU2OTM0MDUw&lat=MzAuMzE2ODI=&lng=LTk1LjQ2ODU=,,Goodwill,Q5583655
42782,h_r_block,H&R Block,,Conroe,TX,,US,+1 936-756-9224,https://www.hrblock.com/local-tax-offices/texas/conroe/1126-w-dallas-st/42782/,,H&R Block,Q5627799
https://locations.jackinthebox.com/us/tx/conroe/3595-n-loop-336-e,jackinthebox,Jack in the Box,,Conroe,TX,,US,+1 936-539-3814,https://locations.jackinthebox.com/us/tx/conroe/3595-n-loop-336-e,Mo-Su 04:00-04:00,Jack in the Box,Q1538507
https://locations.jackinthebox.com/us/tx/conroe/1300-league-line-rd,jackinthebox,Jack in the Box,,Conroe,TX,,US,+1 936-890-2059,https://locations.jackinthebox.com/us/tx/conroe/1300-league-line-rd,Mo-Su 05:00-01:00,Jack in the Box,Q1538507
https://locations.jackinthebox.com/us/tx/conroe/225-n-frazier-st,jackinthebox,Jack in the Box,,Conroe,TX,,US,+1 936-224-5535,https://locations.jackinthebox.com/us/tx/conroe/225-n-frazier-st,Mo-Th 06:00-23:30; Fr-Sa 06:00-01:30; Su 06:00-23:30,Jack in the Box,Q1538507
https://office.jacksonhewitt.com/#27578477,jackson_hewitt,Jackson Hewitt,,Conroe,TX,,US,+1 936-760-1040,https://office.jacksonhewitt.com/tax-preparation-services-locations/en/tx/conroe/2017-n-frazier-st/11450,Mo-Fr 09:00-18:00; Sa 09:00-17:00,Jackson Hewitt,Q6117132
158084,little_free_library,CASA Child Advocates - Montgomery County #158084 Conroe TX,,Conroe,TX,,US,,,,Little Free Library,Q6650101
https://locations.modpizza.com/#23558332,modpizza,MOD Pizza Cartwright Road,,Conroe,TX,,US,+1 936-441-0054,https://locations.modpizza.com/usa/tx/conroe/1240-n-loop-336-w,Mo-We 10:30-22:00; Th-Sa 10:30-23:00; Su 10:30-22:00,MOD Pizza,Q19903469
68880547,moneygram,SPEEDY CASH - #184 - CONROE,,CONROE,TX,,US,+1 936-494-2472,,Mo-Sa 08:00-20:00; Su 00:00-24:00,MoneyGram,Q1944412
74819366,moneygram,FLASH ENVIOS DE DINERO - #1 - CONROE - F,,CONROE,TX,,US,+1 936-703-5765,,Mo-Su 09:00-21:00,MoneyGram,Q1944412
NNA5623,nissan_europe,KEATING NISSAN,,CONROE,TX,,US,+1 936-760-2446,https://www.keatingnissan.com,Mo-Sa 08:30-20:00,Nissan,Q20165
https://locations.oreillyauto.com/tx/conroe/check-engine-light-testing-1827.html,oreilly,Your Conroe O'Reilly Auto Parts Store,,Conroe,TX,,US,+1 936-756-4499,https://locations.oreillyauto.com/tx/conroe/check-engine-light-testing-1827.html,Mo-Sa 07:30-22:00; Su 08:00-22:00,O'Reilly Auto Parts,Q7071951
https://locations.oreillyauto.com/tx/conroe/wiper-installation-1827.html,oreilly,Your Conroe O'Reilly Auto Parts Store,,Conroe,TX,,US,+1 936-756-4499,https://locations.oreillyauto.com/tx/conroe/wiper-installation-1827.html,Mo-Sa 07:30-22:00; Su 08:00-22:00,O'Reilly Auto Parts,Q7071951
https://locations.oreillyauto.com/tx/conroe/battery-testing-1827.html,oreilly,Your Conroe O'Reilly Auto Parts Store,,Conroe,TX,,US,+1 936-756-4499,https://locations.oreillyauto.com/tx/conroe/battery-testing-1827.html,Mo-Sa 07:30-22:00; Su 08:00-22:00,O'Reilly Auto Parts,Q7071951
https://locations.oreillyauto.com/tx/conroe/autopartes-1827.html,oreilly,Tu tienda O'Reilly Auto Parts en Conroe,,Conroe,TX,,US,+1 936-756-4499,https://locations.oreillyauto.com/tx/conroe/autopartes-1827.html,Mo-Sa 07:30-22:00; Su 08:00-22:00,O'Reilly Auto Parts,Q7071951
https://locations.oreillyauto.com/tx/conroe/check-engine-light-testing-725.html,oreilly,Your Conroe O'Reilly Auto Parts Store,,Conroe,TX,,US,+1 936-756-3977,https://locations.oreillyauto.com/tx/conroe/check-engine-light-testing-725.html,Mo-Sa 07:30-22:00; Su 08:00-22:00,O'Reilly Auto Parts,Q7071951
https://locations.oreillyauto.com/tx/conroe/wiper-installation-725.html,oreilly,Your Conroe O'Reilly Auto Parts Store,,Conroe,TX,,US,+1 936-756-3977,https://locations.oreillyauto.com/tx/conroe/wiper-installation-725.html,Mo-Sa 07:30-22:00; Su 08:00-22:00,O'Reilly Auto Parts,Q7071951
https://locations.oreillyauto.com/tx/conroe/battery-testing-725.html,oreilly,Your Conroe O'Reilly Auto Parts Store,,Conroe,TX,,US,+1 936-756-3977,https://locations.oreillyauto.com/tx/conroe/battery-testing-725.html,Mo-Sa 07:30-22:00; Su 08:00-22:00,O'Reilly Auto Parts,Q7071951
https://locations.oreillyauto.com/tx/conroe/autopartes-725.html,oreilly,Tu tienda O'Reilly Auto Parts en Conroe,,Conroe,TX,,US,+1 936-756-3977,https://locations.oreillyauto.com/tx/conroe/autopartes-725.html,Mo-Sa 07:30-22:00; Su 08:00-22:00,O'Reilly Auto Parts,Q7071951
https://locations.oreillyauto.com/tx/conroe/check-engine-light-testing-408.html,oreilly,Your Conroe O'Reilly Auto Parts Store,,Conroe,TX,,US,+1 936-756-5015,https://locations.oreillyauto.com/tx/conroe/check-engine-light-testing-408.html,Mo-Sa 07:30-22:00; Su 08:00-21:00,O'Reilly Auto Parts,Q7071951
https://locations.oreillyauto.com/tx/conroe/wiper-installation-408.html,oreilly,Your Conroe O'Reilly Auto Parts Store,,Conroe,TX,,US,+1 936-756-5015,https://locations.oreillyauto.com/tx/conroe/wiper-installation-408.html,Mo-Sa 07:30-22:00; Su 08:00-21:00,O'Reilly Auto Parts,Q7071951
https://locations.oreillyauto.com/tx/conroe/battery-testing-408.html,oreilly,Your Conroe O'Reilly Auto Parts Store,,Conroe,TX,,US,+1 936-756-5015,https://locations.oreillyauto.com/tx/conroe/battery-testing-408.html,Mo-Sa 07:30-22:00; Su 08:00-21:00,O'Reilly Auto Parts,Q7071951
https://locations.oreillyauto.com/tx/conroe/autopartes-408.html,oreilly,Tu tienda O'Reilly Auto Parts en Conroe,,Conroe,TX,,US,+1 936-756-5015,https://locations.oreillyauto.com/tx/conroe/autopartes-408.html,Mo-Sa 07:30-22:00; Su 08:00-21:00,O'Reilly Auto Parts,Q7071951
https://locations.outback.com/#15502491,outbacksteakhouse,Outback Steakhouse,,Conroe,TX,,US,+1 936-760-4329,https://locations.outback.com/texas/conroe/808-interstate-45-north,Mo-Th 11:00-22:00; Fr-Sa 11:00-23:00; Su 11:00-21:00,Outback Steakhouse,Q1064893
https://locations.papajohns.com/#10592580,papa_johns,Papa John's,,Conroe,TX,,US,+1 936-756-8899,https://locations.papajohns.com/united-states/tx/77301/conroe/1201-n-loop-336-w-a,Mo-Th 09:30-24:00; Fr-Sa 09:30-01:00; Su 09:30-24:00,Papa John's Pizza,Q2759586
tx_conroe_1241-north-loop-336-west,pizza_hut_us,1241 North Loop 336 West,,Conroe,TX,,US,+1 936-756-1818,https://locations.pizzahut.com/tx/conroe/1241-north-loop-336-west,,Pizza Hut,Q191615
restaurant_81675,popeyes_us_fr,Popeyes,"905 1/2 W Davis St Conroe, Texas 77301 - USA",Conroe,TX,,US,+1 936-539-2188,https://www.popeyes.com/store-locator/store/restaurant_81675,Mo-Su 10:00-21:00,Popeyes,Q1330910
137011,potbelly_sandwich,Conroe - Drive Thru,,Conroe,TX,,US,+1 936-756-2212,,Mo-Su 10:00-22:00,Potbelly Sandwich Shop,Q7234777
ppg-paints-9614-21996,ppgpaints,PPG Paints 9614,,"Conroe, ",TX,,US,+1 936-441-1533,https://www.ppgpaints.com/store-locator/us/texas/conroe-paint-stores/ppg-paints-9614-21996,,PPG Paints,Q83891559
https://locations.quiktrip.com/#30036647,quiktrip_us,QuikTrip Store #7948 1224 Wilson Rd,,Conroe,TX,,US,+1 936-703-1063,https://locations.quiktrip.com/tx/conroe/1224-wilson-rd,24/7,QuikTrip,Q7271953
2185,rentacenter,Rent-A-Center,,Conroe,TX,,US,+1 936-539-6800,https://locations.rentacenter.com/texas/conroe/1116-w-dallas-st/,Mo-Sa 10:00-18:00,Rent-A-Center,Q7313497
40943,seven_eleven_ca_us,Stripes,,Conroe,TX,,US,+1 936-494-2259,,,7-Eleven,Q259340
https://restaurants.subway.com/#14899464,subway,Subway,,Conroe Montgomery,TX,,US,+1 936-760-3700,https://restaurants.subway.com/united-states/tx/conroe/910-n-frazier,Mo-Sa 08:00-22:00; Su 09:00-21:00,Subway,Q244457
https://restaurants.subway.com/#14894478,subway,Subway River Pointe Center,,Conroe Montgomery,TX,,US,+1 936-760-0405,https://restaurants.subway.com/united-states/tx/conroe/224-s-loop-336-w,Mo-Sa 08:00-22:00; Su 09:00-21:00,Subway,Q244457
https://restaurants.subway.com/#14912099,subway,Subway,,Conroe Montgomery,TX,,US,+1 936-788-6631,https://restaurants.subway.com/united-states/tx/conroe/11343-hwy-105-east,Mo-Sa 08:00-23:00; Su 09:00-22:00,Subway,Q244457
8002472501,sunoco_us,Sunoco,,CONROE,TX,,US,,,,Sunoco,Q1423218
0448646000,sunoco_us,Sunoco,,CONROE,TX,,US,+1 936-494-2259,,,Sunoco,Q1423218
82712,supercuts,Conroe,2104 N Frazier St,Conroe,TX,,US,+1 936-539-6860,https://www.supercuts.com/checkin/82712,Mo-Th 10:00-18:00; Fr-Sa 09:00-18:00; Su 10:00-18:00,Supercuts,Q7643239
https://locations.tacobell.com/#3916689,taco_bell,Taco Bell,,Conroe,TX,,US,+1 936-539-2345,https://locations.tacobell.com/tx/conroe/1123-n-frazier.html,Mo 09:00-22:00; Tu-Sa 09:00-02:00; Su 09:00-01:00,Taco Bell,Q752941
8940,tmobile_us,I-45 & Sh 105,,Conroe,TX,,US,+1 936-494-2511,https://www.t-mobile.com/store-locator/tx/conroe/i-45-sh-105,,T-Mobile,Q3511885
1358958,usps,CONROE,,CONROE,TX,,US,+1 936-441-6055,,Mo-Fr 08:00-17:30; Sa 09:00-12:00,United States Postal Service,Q668687
7730100033,usps_collection_boxes,USPS COLLECTION BOX - BLUE BOX,2017 N FRAZIER ST,CONROE,TX,,US,,,,United States Postal Service,Q668687
7730100050,usps_collection_boxes,USPS COLLECTION BOX - PO LOBBY,809 W DALLAS ST,CONROE,TX,,US,,,,United States Postal Service,Q668687
7730100051,usps_collection_boxes,USPS COLLECTION BOX - PO LOBBY,809 W DALLAS ST,CONROE,TX,,US,,,,United States Postal Service,Q668687
7730100052,usps_collection_boxes,USPS COLLECTION BOX - APC,809 W DALLAS ST,CONROE,TX,,US,,,,United States Postal Service,Q668687
7730100057,usps_collection_boxes,USPS COLLECTION BOX - PO LOBBY,809 W DALLAS ST,CONROE,TX,,US,,,,United States Postal Service,Q668687
7730100048,usps_collection_boxes,USPS COLLECTION BOX - BLUE BOX,809 W DALLAS ST,CONROE,TX,,US,,,,United States Postal Service,Q668687
7730100038,usps_collection_boxes,USPS COLLECTION BOX - BLUE BOX,104 I 45 N,CONROE,TX,,US,,,,United States Postal Service,Q668687
7730100011,usps_collection_boxes,USPS COLLECTION BOX - BLUE BOX,701 E DAVIS ST,CONROE,TX,,US,,,,United States Postal Service,Q668687
7730100026,usps_collection_boxes,USPS COLLECTION BOX - BLUE BOX,221 W DAVIS ST,CONROE,TX,,US,,,,United States Postal Service,Q668687
7730100031,usps_collection_boxes,USPS COLLECTION BOX - BLUE BOX,1 CRIMINAL JUSTICE DR,CONROE,TX,,US,,,,United States Postal Service,Q668687
7730100034,usps_collection_boxes,USPS COLLECTION BOX - BLUE BOX,1110 N LOOP 336 W,CONROE,TX,,US,,,,United States Postal Service,Q668687
,visa,,,CONROE,TX,,US,,,,,
,visa,,,CONROE,TX,,US,,,,,
,visa,,,W. CONROE,TX,,US,,,,,
,visa,,,W. CONROE,TX,,US,,,,,
,visa,,,CONROE,TX,,US,,,,,
,visa,,,CONROE,TX,,US,,,,,
,visa,,,CONROE,TX,,US,,,,,
,visa,,,CONROE,TX,,US,,,,,
,visa,,,CONROE,TX,,US,,,,,
,visa,,,CONROE,TX,,US,,,,,
,visa,,,CONROE,TX,,US,,,,,
,visa,,,CONROE,TX,,US,,,,,
,visa,,,CONROE,TX,,US,,,,,
,visa,,,CONROE,TX,,US,,,,,
,visa,,,CONROE,TX,,US,,,,,
,visa,,,CONROE,TX,,US,,,,,
,visa,,,CONROE,TX,,US,,,,,
,visa,,,CONROE,TX,,US,,,,,
,visa,,,CONROE,TX,,US,,,,,
,visa,,,CONROE,TX,,US,,,,,
,visa,,,CONROE,TX,,US,,,,,
,visa,,,CONROE,TX,,US,,,,,
,visa,,,CONROE,TX,,US,,,,,
,visa,,,CONROE,TX,,US,,,,,
,visa,,,CONROE,TX,,US,,,,,
,visa,,,CONROE,TX,,US,,,,,
,visa,,,CONROE,TX,,US,,,,,
,visa,,,CONROE,TX,,US,,,,,
,visa,,,CONROE,TX,,US,,,,,
,visa,,,CONROE,TX,,US,,,,,
,visa,,,CONROE,TX,,US,,,,,
,visa,,,CONROE,TX,,US,,,,,
,visa,,,CONROE,TX,,US,,,,,
,visa,,,CONROE,TX,,US,,,,,
,visa,,,CONROE,TX,,US,,,,,
,visa,,,CONROE,TX,,US,,,,,
,visa,,,CONROE,TX,,US,,,,,
,visa,,,CONROE,TX,,US,,,,,
,visa,,,CONROE,TX,,US,,,,,
,visa,,,CONROE,TX,,US,,,,,
,visa,,,CONROE,TX,,US,,,,,
,visa,,,CONROE,TX,,US,,,,,
,visa,,,CONROE,TX,,US,,,,,
,visa,,,CONROE,TX,,US,,,,,
,visa,,,CONROE,TX,,US,,,,,
,visa,,,CONROE,TX,,US,,,,,
,visa,,,CONROE,TX,,US,,,,,
,visa,,,CONROE,TX,,US,,,,,
,visa,,,CONROE,TX,,US,,,,,
,visa,,,CONROE,TX,,US,,,,,
,visa,,,CONROE,TX,,US,,,,,
,visa,,,CONROE,TX,,US,,,,,
,visa,,,CONROE,TX,,US,,,,,
,visa,,,CONROE,TX,,US,,,,,
,visa,,,CONROE,TX,,US,,,,,
,visa,,,CONROE,TX,,US,,,,,
,visa,,,CONROE,TX,,US,,,,,
,visa,,,CONROE,TX,,US,,,,,
,visa,,,CONROE,TX,,US,,,,,
,visa,,,CONROE,TX,,US,,,,,
,visa,,,CONROE,TX,,US,,,,,
,visa,,,CONROE,TX,,US,,,,,
,visa,,,CONROE,TX,,US,,,,,
,visa,,,CONROE,TX,,US,,,,,
,visa,,,CONROE,TX,,US,,,,,
,visa,,,CONROE,TX,,US,,,,,
,visa,,,CONROE,TX,,US,,,,,
,visa,,,CONROE,TX,,US,,,,,
,visa,,,CONROE,TX,,US,,,,,
,visa,,,CONROE,TX,,US,,,,,
,visa,,,CONROE,TX,,US,,,,,
,visa,,,CONROE,TX,,US,,,,,
,visa,,,CONROE,TX,,US,,,,,
,visa,,,CONROE,TX,,US,,,,,
,visa,,,CONROE,TX,,US,,,,,
,visa,,,CONROE,TX,,US,,,,,
,visa,,,CONROE,TX,,US,,,,,
https://www.walgreens.com/locator/walgreens-3901+e+davis+st-conroe-tx-77301/id=12165,walgreens,Walgreens,,Conroe,TX,,US,+1 936-760-6600,https://www.walgreens.com/locator/walgreens-3901+e+davis+st-conroe-tx-77301/id=12165,Mo-Su 07:00-22:00,Walgreens,Q1591889
https://www.walgreens.com/locator/walgreens-1120+n+loop+336+w-conroe-tx-77301/id=7287,walgreens,Walgreens,,Conroe,TX,,US,+1 936-760-4116,https://www.walgreens.com/locator/walgreens-1120+n+loop+336+w-conroe-tx-77301/id=7287,Mo-Su 08:00-21:00,Walgreens,Q1591889
https://www.walgreens.com/locator/walgreens-420+n+frazier+st-conroe-tx-77301/id=5269,walgreens,Walgreens,,Conroe,TX,,US,+1 936-494-0424,https://www.walgreens.com/locator/walgreens-420+n+frazier+st-conroe-tx-77301/id=5269,24/7,Walgreens,Q1591889
516__W__DAVIS__ST_CONROE_TX_77301,wellsfargo,Wells Fargo,516 W DAVIS ST,CONROE,TX,,US,+1 936-756-1121,https://www.wellsfargo.com/locator/bank/516__W__DAVIS__ST_CONROE_TX_77301/,Mo-Fr 09:00-17:00,Wells Fargo,Q744149
cd95e76a90bbebcc83b9fe4bf4d18b39,western_union,ORDER EXPRESS- TX106,,Conroe,TX,,US,+1 936-539-5230,https://location.westernunion.com/us/tx/conroe/cd95e76a90bbebcc83b9fe4bf4d18b39,Mo-Sa 09:00-20:00; Su 09:00-19:00,Western Union,Q861042
0052bd6422c1fe6a3e6e2538330c5667,western_union,ORDER EXPRESS- TX106,,Conroe,TX,,US,+1 936-539-5230,https://location.westernunion.com/us/tx/conroe/0052bd6422c1fe6a3e6e2538330c5667,Mo-Sa 09:00-20:00; Su 09:00-19:00,Western Union,Q861042
4dd41991c034a596016af600ead3324f,western_union,SAMS CORNER STORE,,Conroe,TX,,US,+1 936-703-5371,https://location.westernunion.com/us/tx/conroe/4dd41991c034a596016af600ead3324f,Mo-Fr 07:00-24:00; Sa 07:00-01:00; Su 07:00-23:00,Western Union,Q861042
f24a20f4bf6fe084f3ccf8a8985e9dcb,western_union,SAMS CORNER STORE,,Conroe,TX,,US,+1 936-703-5371,https://location.westernunion.com/us/tx/conroe/f24a20f4bf6fe084f3ccf8a8985e9dcb,Mo-Fr 07:00-24:00; Sa 07:00-01:00; Su 07:00-23:00,Western Union,Q861042
5a2ad67a432202ccb30c9081e79a6d7e,western_union,ADVANCE AMERICA #03051,,Conroe,TX,,US,+1 936-539-2214,https://location.westernunion.com/us/tx/conroe/5a2ad67a432202ccb30c9081e79a6d7e,Mo-Fr 10:00-18:00; Sa 10:00-15:00,Western Union,Q861042
03c6e39f163b16587c49a08f8c94063e,western_union,ADASOPE INC,,Conroe,TX,,US,+1 936-441-4475,https://location.westernunion.com/us/tx/conroe/03c6e39f163b16587c49a08f8c94063e,Mo-Sa 07:00-20:00; Su 07:00-18:00,Western Union,Q861042
2e8d4d8a71bbf1e99ae4b0bc637ed8a4,western_union,QUIKTRIP #7948,,Conroe,TX,,US,+1 936-703-1063,https://location.westernunion.com/us/tx/conroe/2e8d4d8a71bbf1e99ae4b0bc637ed8a4,,Western Union,Q861042
https://locations.whataburger.com/tx/conroe/802-n-loop-336-w.html,whataburger,Hwy 336 & Hwy 75,802 N LOOP 336 W,CONROE,TX,,US,,https://locations.whataburger.com/tx/conroe/802-n-loop-336-w.html,,Whataburger,Q376627
8832,wingstop,Wingstop Conroe,2200  I 45 N Ste D,Conroe,TX,,US,+1 936-756-0289,,,Wingstop,Q8025339
502,world_finance_us,,"903 North Loop 336 West Suite D, Conroe, TX, 77301",Conroe,TX,,US,+1 936-756-8197,https://www.loansbyworld.com/branches/branch-502,Mo-Fr 09:00-17:30; Sa 09:00-12:00,World Finance,Q3569971
