Ref,Spider,Name,Address,City,State,Zipcode,Country,Phone,Website,Hours,Brand,WikiData
2048,action,Mechelen,,Mechelen,,,BE,,https://www.action.com/nl-be/winkels/mechelen-nekkerspoelstraat/,,Action,Q2634111
2123,action,Mechelen,,Mechelen,,,BE,,https://www.action.com/fr-be/points-de-vente/mechelen/,,Action,Q2634111
WOLO001036,audi_be,Auto Natie Mechelen,,MECHELEN,,,BE,+32 15 40 00 00,,,Audi,Q23317
05691_1,bmw_group,Juma Mechelen,,Mechelen,,,BE,+32 15 42 30 00,http://www.juma.bmw.be,,BMW,Q26678
1270,carrefour_be,Carrefour express Veemarkt,,Mechelen,,,BE,,https://winkels.carrefour.be/nl/s/carrefour/carrefour-express-veemarkt/1270,Mo-Th 07:30-20:00; Fr-Sa 08:00-20:00; Su 07:30-20:00,Carrefour Express,Q2940190
524,carrefour_be,Carrefour market MECHELEN EIKESTRAAT,,MECHELEN,,,BE,,https://winkels.carrefour.be/nl/s/carrefour/carrefour-market-mechelen-eikestraat/524,Mo-Fr 08:00-19:00; Su 08:00-19:00,Carrefour Market,Q2689639
674,carrefour_be,Hypermarkt Carrefour ZEMST,,Zemst-Mechelen,,,BE,,https://winkels.carrefour.be/nl/s/carrefour/hypermarkt-carrefour-zemst/674,Mo-We 08:00-20:00; Th 08:00-21:00; Fr 08:00-20:00; Su 08:00-20:00,Carrefour,Q217599
412,carrefour_be,Carrefour market Mechelen,,MECHELEN,,,BE,,https://winkels.carrefour.be/nl/s/carrefour/carrefour-market-mechelen/412,Mo-We 08:00-19:30; Th 08:00-19:00; Fr 08:00-18:00; Su 08:00-19:30,Carrefour Market,Q2689639
477,carrefour_be,Carrefour express MECHELEN,,MECHELEN,,,BE,,https://winkels.carrefour.be/nl/s/carrefour/carrefour-express-mechelen/477,Mo-Th 07:00-20:00; Fr-Sa 08:00-20:00; Su 07:00-20:00,Carrefour Express,Q2940190
1692,carrefour_be,Carrefour express  Mechelen Brusselsepoort,,Mechelen,,,BE,,https://winkels.carrefour.be/nl/s/carrefour/carrefour-express--mechelen-brusselsepoort/1692,Mo-Su 07:00-20:00,Carrefour Express,Q2940190
001989H01X,citroen,Stellantis &You Mechelen,,MECHELEN,,,BE,+32 15 28 61 61,https://dealer.citroen.be/nl/belux-mechelen/,"Mo-Fr 08:00-12:00,13:00-18:30; Sa 09:00-18:00; Su 10:00-17:00",Citroen,Q6746
683,colruyt,Colruyt,,MECHELEN,,,BE,,https://www.colruyt.be/nl/colruyt-openingsuren/3649,,Colruyt,Q2363991
BE0286,c_and_a,Malinas,"Nora Tilleylaan 12, 2800 Mechelen",Mechelen,,,BE,,https://www.c-and-a.com/stores/be-nl/antwerpen/mechelen/nora-tilleylaan-12.html,Mo 10:00-18:30; Tu 10:00-18:30; We 10:00-18:30; Th 10:00-18:30; Fr 10:00-18:30; Sa 10:00-18:30,C&A,Q701338
BE0013,c_and_a,Mechelen,"Botermarkt 3, 2800 Mechelen",Mechelen,,,BE,,https://www.c-and-a.com/stores/be-nl/antwerpen/mechelen/botermarkt-3.html,Mo 10:00-18:00; Tu 10:00-18:00; We 10:00-18:00; Th 10:00-18:00; Fr 10:00-18:30; Sa 09:00-18:30,C&A,Q701338
3128,dats24_be,DATS 24 MALINES,351 LIERSESTEENWEG MECHELEN 2800,MECHELEN,,,BE,,,,DATS 24,Q15725576
7175,dats24_be,DATS 24 MECHELEN REGENBOOG,8 DE REGENBOOG MECHELEN 2800,MECHELEN,,,BE,,,,DATS 24,Q15725576
http://stores.delhaize.be/fr/delhaize-mechelen,delhaize_be,Delhaize Mechelen,,Mechelen,,,BE,+32 15 27 57 87,http://stores.delhaize.be/fr/delhaize-mechelen,Mo-Th 08:00-20:00; Fr 08:00-21:00; Sa 08:00-20:00,Delhaize,Q1184173
http://stores.delhaize.be/fr/shop-and-go-delhaize-schonenberg,delhaize_be,Shop & Go Delhaize Schonenberg,,Mechelen,,,BE,+32 488 00 66 26,http://stores.delhaize.be/fr/shop-and-go-delhaize-schonenberg,Mo-Su 00:01-24:00,Delhaize,Q1184173
http://stores.delhaize.be/fr/shop-and-go-delhaize-in-de-cite-mechelen,delhaize_be,Shop & Go Delhaize in de cité (Mechelen),,Mechelen,,,BE,+32 15 55 24 21,http://stores.delhaize.be/fr/shop-and-go-delhaize-in-de-cite-mechelen,Mo-Sa 07:00-20:00; Su 08:00-20:00,Delhaize,Q1184173
1994937,di,Di Mechelen,"30, Ijzerenleen, MECHELEN, 2800",MECHELEN,,,BE,+32 15 21 18 25,https://www.di.be/fr/di-mechelen.html,,Di,
e8afbf96-1bf0-11ea-a8f4-0050569751e2,dockx_be,Mechelen,"Antwerpsesteenweg 191, 2800 Mechelen, Belgium",Mechelen,,,BE,+32 15 20 23 23,https://www.dockx.be/en/locations/mechelen,"Mo-Sa 07:30-12:00,13:00-18:30",Dockx,
31221,dominos_pizza_be,Domino's Pizza Mechelen,,MECHELEN,,,BE,,https://www.dominos.be/nl/winkel/be-mechelen-31221,,Domino's,Q839466
7,eldi_be,Eldi Mechelen,,,,,BE,,https://www.eldi.be/nl/winkels/eldi-mechelen/,,Eldi,Q3050500
BRUN63,enterprise,Mechelen,,Mechelen,,,BE,+32 12 39 09 40,,,Enterprise Rent-A-Car,Q17085454
15184882,esprit,Esprit Franchise Store Mechelen,,Mechelen,,,BE,+32 15 20 98 57,"https://www.esprit.com/storefinder?storeid=15184882&location=51.02530000,4.48160000",Tu-Sa 10:00-18:00; Su 09:30-18:00,Esprit,Q532746
100361782,exxonmobil,Esso Express Mechelen,,MECHELEN,,,BE,+32 78 48 03 14,https://www.esso.be/nl-be/find-station/esso-mechelen-essoexpressmechelen-100361782,24/7,Esso,Q867662
100360488,exxonmobil,Esso Express Mechelen,,MECHELEN,,,BE,+32 495 54 85 28,https://www.esso.be/nl-be/find-station/esso-mechelen-essoexpressmechelen-100360488,24/7,Esso,Q867662
100175061,exxonmobil,Esso Mechelen,,MECHELEN,,,BE,+32 15 55 01 15,https://www.esso.be/nl-be/find-station/esso-mechelen-essomechelen-100175061,24/7,Esso,Q867662
32313032HndR82,eyes_and_more,eyes + more Mechelen,"Bruul   38, Mechelen, 2800",,,,BE,+32 15 14 02 17,https://www.eyesandmore.be/nl/afspraak-maken/?storeId=32313032HndR82,Mo-Sa 10:00-18:00,eyes + more,Q1385775
FordBD18205  BEL,ford,Van Mossel Mechelen,,Mechelen,,,BE,+32 15 55 60 71,www.vanmossel-vmf.be,,Ford,Q44294
651,gamma,GAMMA Mechelen,"20 G. Gezellelaan, MECHELEN, 2800",MECHELEN,,,BE,+32 15 20 52 40,https://www.gamma.be/fr/magasins-et-heures-ouverture/mechelen,Mo-Sa 09:00-19:00; Su 00:00-00:00,Gamma,Q2294120
9019,holland_and_barrett,MECHELEN,,Mechelen,,,BE,+32 15 43 13 98,https://www.hollandandbarrett.com/stores/mechelen-9019-9019/,Mo-Sa 10:00-18:00,Holland & Barrett,Q5880870
E041,jysk,Mechelen,,Mechelen,,,BE,+32 472 87 57 50,https://jysk.be/nl/stores-locator?storeId=E041,Mo-Sa 10:00-18:30,JYSK,Q138913
716195891,kwantum,Mechelen,,Mechelen,,,BE,+32 15 22 95 80,https://www.kwantum.be/winkels/mechelen/nora-tillylaan-16,Mo-Sa 10:00-18:30,Kwantum,Q2262591
1224,lidl_be,,,Mechelen,,,BE,,,,Lidl,Q151954
226,lidl_be,Mechelen Nekkerspoelstraat,,Mechelen,,,BE,,,,Lidl,Q151954
zemst,lunch_garden_be,Zemst,2800 Zemst Zemstbaan 241,Zemst,,,BE,+32 15 27 52 38,https://www.lunchgarden.be/fr/nos-restaurants/zemst,Mo-Su 08:30-21:30,Lunch Garden,Q2491217
sint-maarten-ziekenhuis,lunch_garden_be,Sint Maarten Ziekenhuis,2800 Mechelen Liersesteenweg 435,Mechelen,,,BE,+32 15 89 20 26,https://www.lunchgarden.be/fr/nos-restaurants/sint-maarten-ziekenhuis,Mo-Su 11:00-20:00,Lunch Garden,Q2491217
24,neuhaus,Neuhaus Mechelen,,Mechelen,,,BE,+32 15 29 01 25,https://www.neuhauschocolates.com/en_US/stores/detail?store=24,Mo-Sa 10:00-18:30,Neuhaus,Q1813801
62097228,nissan_be,LEO PEETERS MECHELEN,,MECHELEN,,,BE,+32 15 43 20 00,http://www.leopeeters.be/,,Nissan,Q20165
https://stores.petit-bateau.com/#12901276,petit_bateau,Petit Bateau Klein Bootje – L&L bvba,,Mechelen,,,BE,+32 15 68 16 61,https://stores.petit-bateau.com/belgium/mechelen/steenweg-42,Mo-Su 10:00-18:00,Petit Bateau,Q3377090
R705,pizza_hut_be,Delivery Mechelen,"Brusselsepoortstraat 2, Mechelen, 2800",Mechelen,,,BE,+32 15 20 60 30,http://www.pizzahut.be/store/delivery-mechelen,Mo-Su 11:30-22:00,Pizza Hut,Q191615
R358,pizza_hut_be,Restaurant Zemst,"Zemstbaan 244, Mechelen, 2800",Mechelen,,,BE,+32 15 21 81 00,https://restaurants.pizzahut.be/restaurant/restaurant-zemst,Mo-Th 11:30-21:30; Fr-Sa 11:30-22:00; Su 11:30-21:30,Pizza Hut,Q191615
05600138_001-renault,renault,AUTOPARTNERS  MECHELEN,,MECHELEN,,,BE,+32 15 45 99 99,,,Renault,Q6686
05600138_001-dacia,renault,AUTOPARTNERS  MECHELEN,,MECHELEN,,,BE,+32 15 45 99 99,,,Dacia,Q27460
202-32786,skoda,Auto Natie Mechelen,,,,,BE,,,,Skoda,Q29637
NB000501,totalenergies,ARSENAAL,,MECHELEN,,,BE,+32 15 26 23 51,https://store.totalenergies.fr/en_EN/NB000501,Mo-Fr 06:30-19:00; Sa 08:30-18:00; Su 10:00-14:00,,
NB000566,totalenergies,FA MECHELEN,,MECHELEN,,,BE,+32 15 40 11 11,https://store.totalenergies.fr/en_EN/NB000566,,,
NB000567,totalenergies,MECHELEN COLOMA,,MECHELEN,,,BE,+32 15 43 09 88,https://store.totalenergies.fr/en_EN/NB000567,Mo-Fr 07:00-18:30; Sa 08:30-16:00,TotalEnergies,Q154037
NB005016,totalenergies,MECHELEN ZUID,,MECHELEN,,,BE,+32 15 21 81 30,https://store.totalenergies.fr/en_EN/NB005016,Mo-Fr 06:30-20:00; Sa 10:00-18:00,TotalEnergies,Q154037
NB005524,totalenergies,MECHELEN,,MECHELEN,,,BE,+32 15 21 62 85,https://store.totalenergies.fr/en_EN/NB005524,Mo-Fr 05:30-21:30; Sa-Su 06:00-21:30,TotalEnergies,Q154037
NB010994,totalenergies,AVIA MECHELEN ANTWERPSESTWG,,MECHELEN,,,BE,,https://store.totalenergies.fr/en_EN/NB010994,,Avia,Q300147
NB010996,totalenergies,ESSO MECHELEN,,MECHELEN,,,BE,,https://store.totalenergies.fr/en_EN/NB010996,,Esso,Q867662
NB011003,totalenergies,ESSO MECHELEN,,MECHELEN,,,BE,,https://store.totalenergies.fr/en_EN/NB011003,,Esso,Q867662
NB011005,totalenergies,AVIA MECHELEN LIERSESTWG,,MECHELEN,,,BE,,https://store.totalenergies.fr/en_EN/NB011005,,Avia,Q300147
33,veritas_be,VERITAS - MECHELEN,"Ijzerenleen 40 42, Mechelen,  2800, Belgique",Mechelen,,,BE,+32 15 20 10 33,https://www.veritas.be/fr_be/stores/veritas-mechelen,Tu-Sa 10:00-18:00; Su 09:30-18:00,Veritas,Q56239194
,visa,,,MECHELEN,,,BE,,,,,
,visa,,,MECHELEN,,,BE,,,,,
,visa,,,MECHELEN,,,BE,,,,,
,visa,,,MECHELEN,,,BE,,,,,
,visa,,,MECHELEN,,,BE,,,,,
,visa,,,MECHELEN,,,BE,,,,,
,visa,,,WALEM,,,BE,,,,,
6BE251,volvo,Vermant Mechelen,,Mechelen,,,BE,+32 15 29 25 25,http://partner.volvocars.be/vermant-mechelen,Mo-Fr 09:00-18:30; Sa 10:00-17:00,Volvo,Q215293
