Ref,Spider,Name,Address,City,State,Zipcode,Country,Phone,Website,Hours,Brand,WikiData
55187171,deichmann,DEICHMANN Filiale Bonn Sternstrasse 18-20,,Bonn,Nordrhein-Westfalen,,DE,+49 228 7669586,https://stores.deichmann.com/de-de/de/nordrhein-westfalen/bonn/sternstrasse-18-20,Mo-Sa 10:00-20:00,Deichmann,Q664543
6505158,dunkin_de,"Dunkin Bonn, Poststraße","Poststraße 7, 53111 Bonn, Duitsland",Bonn,Nordrhein-Westfalen,,DE,,,Mo-Sa 08:00-22:00; Su 09:00-22:00,Dunkin',Q847743
DE0673,hm,Poststraße 21,,Bonn,Nordrhein-Westfalen,,DE,+49 800 6655900,,Mo-Sa 10:00-20:00,H&M,Q188326
607,hypovereinsbank_de,HypoVereinsbank Bonn,,Bonn,Nordrhein-Westfalen,,DE,+49 89 37848000,https://www.hypovereinsbank.de/hvb/kontaktwege/filiale#!/l/bonn/münsterplatz-19/607,"Mo-Tu 10:00-12:00; Th 10:00-12:00,15:00-17:00",HypoVereinsbank,Q220189
001417,karstadt_de,GALERIA Bonn,,Bonn,Nordrhein-Westfalen,,DE,+49 228 5160,,Mo-Sa 10:00-20:00,Karstadt,Q182910
6808,netto_de,Netto City,,Bonn,Nordrhein-Westfalen,,DE,,https://www.netto-online.de/filialen/bonn/am-johanneskreuz-8/6808,Mo-Sa 07:00-21:00,Netto City,Q879858
4c5ed399-29e6-33bb-b65a-f2b2c910676b,penny_de,Penny Am Frankenbad,,Bonn,Nordrhein-Westfalen,,DE,,https://www.penny.de/markt/bonn/1775120/penny-am-frankenbad-am-frankenbad-5,Mo-Sa 08:00-22:00,Penny,Q284688
272,reformhaus_bacher_de,F57 - Reformhaus Bacher Bonn,Sternstraße 62,Bonn,Nordrhein-Westfalen,,DE,+49 228 94559310,https://reformhaus.de/?utm_store_id=335ec2c52b4a6bed600831f120b672b8,,Reformhaus Bacher,Q19816424
0053,santander_de,Santander,,Bonn,Nordrhein-Westfalen,,DE,+49 228 98470,,"Mo-Tu 09:00-13:00,14:00-18:00; We 09:00-13:00,14:00-16:00; Th 09:00-13:00,14:00-18:00; Fr 09:00-14:00",Santander,Q875292
5633,tedi,TEDi GmbH & Co. KG,,Bonn,NORDRHEIN-WESTFALEN,,DE,+49 231 555770,https://www.tedi.com/stores/5633/de/NORDRHEIN-WESTFALEN/Bonn/Zentrum/Stiftsplatz-9Welschonnenstrasse-7,Mo-Sa 00:00-24:00,TEDi,Q1364603
5768,tedi,TEDi GmbH & Co. KG,,Bonn,NORDRHEIN-WESTFALEN,,DE,+49 231 555770,https://www.tedi.com/stores/5768/de/NORDRHEIN-WESTFALEN/Bonn/Zentrum/Koelnstr-189,Mo-Sa 00:00-24:00,TEDi,Q1364603
,visa,,,BONN,NORDRHEIN-WESTFALEN,,DE,,,,,
,visa,,,BONN,NORDRHEIN-WESTFALEN,,DE,,,,,
,visa,,,BONN,NORDRHEIN-WESTFALEN,,DE,,,,,
,visa,,,BONN,NORDRHEIN-WESTFALEN,,DE,,,,,
,visa,,,BONN,NORDRHEIN-WESTFALEN,,DE,,,,,
,visa,,,BONN,NORDRHEIN-WESTFALEN,,DE,,,,,
,visa,,,BONN,NORDRHEIN-WESTFALEN,,DE,,,,,
,visa,,,BONN,NORDRHEIN-WESTFALEN,,DE,,,,,
,visa,,,BONN,NORDRHEIN-WESTFALEN,,DE,,,,,
,visa,,,BONN,NORDRHEIN-WESTFALEN,,DE,,,,,
,visa,,,BONN,NORDRHEIN-WESTFALEN,,DE,,,,,
