Ref,Spider,Name,Address,City,State,Zipcode,Country,Phone,Website,Hours,Brand,WikiData
5513,lukoil,SDC Baia Mare 1,"bd. Independentei, nr. 28B, Baia Mare, Maramures, Romania",Baia Mare,Maramures,,RO,+40 748 109 636,,24/7,Lukoil,Q329347
5365,lukoil,SDC Baia Sprie,"DN18, str. Campului, Baia Sprie, Maramures, Romania",Baia Sprie,Maramures,,RO,+40 748 109 638,,24/7,Lukoil,Q329347
5319,lukoil,SDC Hideaga,"E85, Hideaga, Maramures, Romania",Comuna Satulung,Maramures,,RO,+40 745 113 302,,24/7,Lukoil,Q329347
5282,lukoil,SDC Sighetul Marmatiei,"str. 22 Decembrie 1989, Sighetu Marmatiei, Maramures, Romania",Sighetu Marmatiei,Maramures,,RO,+40 748 109 625,,24/7,Lukoil,Q329347
27840,pepco,Pepco,,Oras Targu Lapus,Maramures,,RO,,,,Pepco,Q11815580
27619,pepco,Pepco,,Oras Seini,Maramures,,RO,,,,Pepco,Q11815580
27587,pepco,Pepco,,Oras Somcuta Mare,Maramures,,RO,,,,Pepco,Q11815580
27551,pepco,Pepco,,Comuna Ulmeni,Maramures,,RO,,,,Pepco,Q11815580
27533,pepco,Pepco,,,Maramures,,RO,,,,Pepco,Q11815580
27518,pepco,Pepco,,Comuna Borsa,Maramures,,RO,,,,Pepco,Q11815580
27515,pepco,Pepco,,,Maramures,,RO,,,,Pepco,Q11815580
27485,pepco,Pepco,,Municipiul Sighetu Marmatiei,Maramures,,RO,,,,Pepco,Q11815580
27409,pepco,Pepco,,,Maramures,,RO,,,,Pepco,Q11815580
27401,pepco,Pepco,,Municipiul Sighetu Marmatiei,Maramures,,RO,,,,Pepco,Q11815580
27351,pepco,Pepco,,Comuna Recea,Maramures,,RO,,,,Pepco,Q11815580
27343,pepco,Pepco,,,Maramures,,RO,,,,Pepco,Q11815580
25557,pepco,Pepco,,Comuna Poienile de sub Munte,Maramures,,RO,,,,Pepco,Q11815580
25525,pepco,Pepco,,Oras Baia Sprie,Maramures,,RO,,,,Pepco,Q11815580
https://www.rompetrol.ro/routeplanner/stations?language_id=1:3993,rompetrol,Partener Baia Mare - Margeanului,,Baia Mare,Maramures,,RO,,,,Rompetrol,Q1788862
https://www.rompetrol.ro/routeplanner/stations?language_id=1:4036,rompetrol,Rompetrol Baia Mare - Decebal,,Baia Mare,Maramures,,RO,,,,Rompetrol,Q1788862
https://www.rompetrol.ro/routeplanner/stations?language_id=1:4175,rompetrol,Rompetrol Partener,,Baia Mare,Maramures,,RO,,,,Rompetrol,Q1788862
https://www.rompetrol.ro/routeplanner/stations?language_id=1:4180,rompetrol,Rompetrol Borsa,,Borsa,Maramures,,RO,,,,Rompetrol,Q1788862
https://www.rompetrol.ro/routeplanner/stations?language_id=1:4222,rompetrol,Rompetrol Sighetu Marmatiei - Teplitei,,Sighetu Marmatiei,Maramures,,RO,,,,Rompetrol,Q1788862
https://www.rompetrol.ro/routeplanner/stations?language_id=1:4310,rompetrol,Baia Mare 4,,Baia Mare ,Maramures,,RO,,,,Rompetrol,Q1788862
,visa,,,BAIA DE ARAMA,MARAMURES,,RO,,,,,
,visa,,,ARINIS,MARAMURES,,RO,,,,,
,visa,,,BOGDAN VODA,MARAMURES,,RO,,,,,
,visa,,,ULMENI,MARAMURES,,RO,,,,,
,visa,,,ULMENI,MARAMURES,,RO,,,,,
,visa,,,SOMCUTA MARE,MARAMURES,,RO,,,,,
,visa,,,SOMCUTA MARE,MARAMURES,,RO,,,,,
,visa,,,FARCASA,MARAMURES,,RO,,,,,
,visa,,,SAPINTA,MARAMURES,,RO,,,,,
,visa,,,SATULUNG,MARAMURES,,RO,,,,,
,visa,,,TARGU LAPUS,MARAMURES,,RO,,,,,
,visa,,,TARGU LAPUS,MARAMURES,,RO,,,,,
,visa,,,TG.LAPUS,MARAMURES,,RO,,,,,
,visa,,,TARGU LAPUS,MARAMURES,,RO,,,,,
,visa,,,TAUTII-MAGHERAUS,MARAMURES,,RO,,,,,
,visa,,,BUSAG,MARAMURES,,RO,,,,,
,visa,,,TAUTII MAGHERAUS,MARAMURES,,RO,,,,,
,visa,,,BAIA MARE,MARAMURES,,RO,,,,,
,visa,,,BAIA MARE,MARAMURES,,RO,,,,,
,visa,,,BAIA MARE,MARAMURES,,RO,,,,,
,visa,,,BAIA MARE,MARAMURES,,RO,,,,,
,visa,,,BAIA MARE,MARAMURES,,RO,,,,,
,visa,,,DUMBRAVITA,MARAMURES,,RO,,,,,
,visa,,,BAIA MARE,MARAMURES,,RO,,,,,
,visa,,,SEINI,MARAMURES,,RO,,,,,
,visa,,,DUMBRAVITA,MARAMURES,,RO,,,,,
,visa,,,BAIA MARE,MARAMURES,,RO,,,,,
,visa,,,BAIA MARE,MARAMURES,,RO,,,,,
,visa,,,BAIA MARE,MARAMURES,,RO,,,,,
,visa,,,BAIA MARE,MARAMURES,,RO,,,,,
,visa,,,BAIA MARE,MARAMURES,,RO,,,,,
,visa,,,BAIA MARE,MARAMURES,,RO,,,,,
,visa,,,BAIA MARE,MARAMURES,,RO,,,,,
,visa,,,BAIA MARE,MARAMURES,,RO,,,,,
,visa,,,BAIA MARE,MARAMURES,,RO,,,,,
,visa,,,BAIA MARE,MARAMURES,,RO,,,,,
,visa,,,BAIA MARE,MARAMURES,,RO,,,,,
,visa,,,BAIA MARE,MARAMURES,,RO,,,,,
,visa,,,BAIA MARE,MARAMURES,,RO,,,,,
,visa,,,BAIA MARE,MARAMURES,,RO,,,,,
,visa,,,BAIA MARE,MARAMURES,,RO,,,,,
,visa,,,BAIA MARE,MARAMURES,,RO,,,,,
,visa,,,BAIA MARE,MARAMURES,,RO,,,,,
,visa,,,BAIA MARE,MARAMURES,,RO,,,,,
,visa,,,BAIA MARE,MARAMURES,,RO,,,,,
,visa,,,BAIA MARE,MARAMURES,,RO,,,,,
,visa,,,BAIA MARE,MARAMURES,,RO,,,,,
,visa,,,BAIA MARE,MARAMURES,,RO,,,,,
,visa,,,BAIA MARE,MARAMURES,,RO,,,,,
,visa,,,BAIA MARE,MARAMURES,,RO,,,,,
,visa,,,BAIA MARE,MARAMURES,,RO,,,,,
,visa,,,BAIA MARE,MARAMURES,,RO,,,,,
,visa,,,BAIA MARE,MARAMURES,,RO,,,,,
,visa,,,BAIA MARE,MARAMURES,,RO,,,,,
,visa,,,BAIA MARE,MARAMURES,,RO,,,,,
,visa,,,SPITAL BAIA MARE,MARAMURES,,RO,,,,,
,visa,,,BAIA MARE,MARAMURES,,RO,,,,,
,visa,,,BAIA MARE,MARAMURES,,RO,,,,,
,visa,,,BAIA MARE,MARAMURES,,RO,,,,,
,visa,,,BAIA MARE,MARAMURES,,RO,,,,,
,visa,,,BAIA MARE,MARAMURES,,RO,,,,,
,visa,,,BAIA MARE,MARAMURES,,RO,,,,,
,visa,,,BAIA MARE,MARAMURES,,RO,,,,,
,visa,,,BAIA MARE,MARAMURES,,RO,,,,,
,visa,,,BAIA MARE,MARAMURES,,RO,,,,,
,visa,,,BAIA SPRIE,MARAMURES,,RO,,,,,
,visa,,,BAIA SPRIE,MARAMURES,,RO,,,,,
,visa,,,BAIA SPRIE,MARAMURES,,RO,,,,,
,visa,,,CAVNIC,MARAMURES,,RO,,,,,
,visa,,,OCNA SUGATAG,MARAMURES,,RO,,,,,
,visa,,,DRAGOMIRESTI,MARAMURES,,RO,,,,,
,visa,,,BARSANA,MARAMURES,,RO,,,,,
,visa,,,SAPANTA,MARAMURES,,RO,,,,,
,visa,,,VISEU DE JOS,MARAMURES,,RO,,,,,
,visa,,,SIGHETU MARMATIEI,MARAMURES,,RO,,,,,
,visa,,,VISEU DE SUS,MARAMURES,,RO,,,,,
,visa,,,VISEU DE SUS,MARAMURES,,RO,,,,,
,visa,,,VISEU DE SUS,MARAMURES,,RO,,,,,
,visa,,,SIGHETU MARMATIEI,MARAMURES,,RO,,,,,
,visa,,,VISEU DE SUS,MARAMURES,,RO,,,,,
,visa,,,VISEU DE SUS,MARAMURES,,RO,,,,,
,visa,,,SIGHETU MARMATIEI,MARAMURES,,RO,,,,,
,visa,,,SIGHETUL MARMATIEI,MARAMURES,,RO,,,,,
,visa,,,SIGHETU MARMATIEI,MARAMURES,,RO,,,,,
,visa,,,SIGHETU MARMATIEI,MARAMURES,,RO,,,,,
,visa,,,SIGHETU MARMATIEI,MARAMURES,,RO,,,,,
,visa,,,SIGHETU MARMATIEI,MARAMURES,,RO,,,,,
,visa,,,SIGHETU MARMATIEI,MARAMURES,,RO,,,,,
,visa,,,SIGHETU MARMATIEI,MARAMURES,,RO,,,,,
,visa,,,SIGHETU MARMATIEI,MARAMURES,,RO,,,,,
,visa,,,SIGHETU MARMATIEI,MARAMURES,,RO,,,,,
,visa,,,BORSA,MARAMURES,,RO,,,,,
,visa,,,BORSA,MARAMURES,,RO,,,,,
,visa,,,BORSA,MARAMURES,,RO,,,,,
,visa,,,BORSA,MARAMURES,,RO,,,,,
,visa,,,REPEDEA,MARAMURES,,RO,,,,,
,visa,,,VISEU DE SUS,MARAMURES,,RO,,,,,
728572316797145e0e624691cfbbae7a,western_union,OK EXCHANGE SIGHET1,,Sighet,MARAMURES,,RO,+40 21 211 1684,https://location.westernunion.com/ro/maramures/sighet/728572316797145e0e624691cfbbae7a,Mo-Fr 08:00-17:00; Sa 08:00-14:00,Western Union,Q861042
6346ea701cc02af48c1919ae8e74d1d6,western_union,OK EXCHANGE DRAGOMIRESTI,,Dragomiresti,MARAMURES,,RO,+40 21 211 1684,https://location.westernunion.com/ro/maramures/dragomiresti/6346ea701cc02af48c1919ae8e74d1d6,Mo-Fr 08:00-17:00; Sa 08:00-14:00,Western Union,Q861042
fb6a676ad1c33e652736e0a334e5b9e0,western_union,OK EXCHANGE SIGHET 3,,Sighet,MARAMURES,,RO,+40 21 211 1684,https://location.westernunion.com/ro/maramures/sighet/fb6a676ad1c33e652736e0a334e5b9e0,Mo-Fr 08:00-17:00; Sa 08:00-14:00,Western Union,Q861042
baa103c2e78971ff6aefd08e62257e10,western_union,OK EXCHANGE VISEU,,Viseu,MARAMURES,,RO,+40 21 211 1684,https://location.westernunion.com/ro/maramures/viseu/baa103c2e78971ff6aefd08e62257e10,Mo-Fr 08:00-17:00; Sa 08:00-14:00,Western Union,Q861042
775561d89004a61c5e60c776e625fa50,western_union,POSTA ROMANA,,Repedea,MARAMURES,,RO,+40 21 314 7912,https://location.westernunion.com/ro/maramures/repedea/775561d89004a61c5e60c776e625fa50,Mo-Fr 08:00-16:00,Western Union,Q861042
8914495eee90c62d7de69a4b998dec7b,western_union,OK EXCHANGE BORSA,,Borsa,MARAMURES,,RO,+40 21 211 1684,https://location.westernunion.com/ro/maramures/borsa/8914495eee90c62d7de69a4b998dec7b,Mo-Fr 08:00-17:00; Sa 08:00-14:00,Western Union,Q861042
9fcbfbebf22838f37d8d9f523f7eceb4,western_union,POSTA ROMANA,,Petrova,MARAMURES,,RO,+40 21 314 7912,https://location.westernunion.com/ro/maramures/petrova/9fcbfbebf22838f37d8d9f523f7eceb4,Mo-Fr 08:00-16:00,Western Union,Q861042
722cf2ea1fde189605633aff143f3233,western_union,POSTA ROMANA,,Stramtura,MARAMURES,,RO,+40 21 314 7912,https://location.westernunion.com/ro/maramures/stramtura/722cf2ea1fde189605633aff143f3233,Mo-Fr 09:00-15:00,Western Union,Q861042
5a3001927891229cfe03d4db5acfd113,western_union,POSTA ROMANA,,Leordina,MARAMURES,,RO,+40 21 314 7912,https://location.westernunion.com/ro/maramures/leordina/5a3001927891229cfe03d4db5acfd113,Mo-Fr 08:00-16:00,Western Union,Q861042
f8493c8b52fc344a1808f10598778c88,western_union,POSTA ROMANA,,Sieu,MARAMURES,,RO,+40 21 314 7912,https://location.westernunion.com/ro/maramures/sieu/f8493c8b52fc344a1808f10598778c88,Mo-Fr 09:00-15:00,Western Union,Q861042
49a552fe7125a11c5e2de01b767e210e,western_union,RANILUC&VVI S R L,,Ardusat,MARAMURES,,RO,+40 743 439 047,https://location.westernunion.com/ro/maramures/ardusat/49a552fe7125a11c5e2de01b767e210e,Mo-Sa 07:00-22:00; Su 09:00-22:00,Western Union,Q861042
a80fd4d1ac8e1d47903de6a13c5b0310,western_union,POSTA ROMANA,,Ieud,MARAMURES,,RO,+40 21 314 7912,https://location.westernunion.com/ro/maramures/ieud/a80fd4d1ac8e1d47903de6a13c5b0310,Mo-Fr 08:00-16:00,Western Union,Q861042
a9d60af5917ed997758c66937a6cb1d3,western_union,POSTA ROMANA,,Botiza,MARAMURES,,RO,+40 21 314 7912,https://location.westernunion.com/ro/maramures/botiza/a9d60af5917ed997758c66937a6cb1d3,Mo-Fr 08:00-14:00,Western Union,Q861042
e9e60678c3db85014509441c51351221,western_union,AUTOMAISTER ASIG SRL,,Baia Sprie,MARAMURES,,RO,+40 748 754 137,https://location.westernunion.com/ro/maramures/baia-sprie/e9e60678c3db85014509441c51351221,Mo-Fr 08:00-16:00; Sa 08:00-12:00; Su 23:59-24:00,Western Union,Q861042
6d4581943469b65d818ad049c9339457,western_union,MARIES GEANINA MARIANA INTREPRINDERE IND,,Baia Mare,MARAMURES,,RO,+40 770 688 732,https://location.westernunion.com/ro/maramures/baia-mare/6d4581943469b65d818ad049c9339457,Mo-Fr 08:00-17:00; Sa 08:00-02:00; Su 23:59-24:00,Western Union,Q861042
f06483d69d77d8ba11269b686aca3f88,western_union,EDWARDLORD SRL,,Cavnic,MARAMURES,,RO,+40 755 240 482,https://location.westernunion.com/ro/maramures/cavnic/f06483d69d77d8ba11269b686aca3f88,Mo-Su 07:00-22:00,Western Union,Q861042
8302c699b496304efe110dbd9b47a1b6,western_union,VELEA MIRCEA CRISTIAN PERSOANA FIZICA AU,,Arinis,MARAMURES,,RO,+40 740 845 719,https://location.westernunion.com/ro/maramures/arinis/8302c699b496304efe110dbd9b47a1b6,Mo-Fr 08:00-23:00; Sa-Su 09:00-23:00,Western Union,Q861042
b4d4581d1a7aff43bb8bb30e1a971e44,western_union,NORDIC GREEN GOLD SRL,,Suciu De Sus,MARAMURES,,RO,+40 765 874 966,https://location.westernunion.com/ro/maramures/suciu-de-sus/b4d4581d1a7aff43bb8bb30e1a971e44,Mo-Fr 07:00-22:00,Western Union,Q861042
