Ref,Spider,Name,Address,City,State,Zipcode,Country,Phone,Website,Hours,Brand,WikiData
4042,autozone_us,AutoZone Auto Parts Firebaugh,,Firebaugh,CA,,US,+1 559-659-1704,https://www.autozone.com/locations/ca/firebaugh/900-n-st.html,Mo-Sa 08:00-21:00; Su 08:00-20:00,AutoZone,Q4826087
163257,bluerhino,Family Dollar #10122,,Firebaugh,CA,,US,+1 559-659-2065,,,Blue Rhino,Q65681213
25944,burgerking,Burger King,,Firebaugh,CA,,US,+1 559-296-5944,https://www.bk.com/store-locator/store/restaurant_80594,Mo-Su 06:00-22:00,Burger King,Q177054
39773,citi,ATM Chevron,,Firebaugh,CA,,US,,,,Citibank,Q857063
80221325,cricket_wireless,Cricket Wireless Authorized Retailer,,Firebaugh,CA,,US,+1 559-407-3124,https://www.cricketwireless.com/stores/ll/US/CA/Firebaugh/1560-N-St,Mo-Sa 11:00-19:00; Su 12:00-18:00,Cricket Wireless,Q5184987
17879,dollar_general,Dollar General,,Firebaugh,CA,,US,+1 559-407-5005,https://www.dollargeneral.com/store-directory/ca/firebaugh/17879,Mo-Su 08:00-23:00,Dollar General,Q145168
100024,electrify_america,Panoche Shell,,Firebaugh,CA,,US,,,,Electrify America,Q59773555
710029,electrify_america,Maldonado Park,,Firebaugh,CA,,US,,,,Electrify America,Q59773555
200314856,exxonmobil,CALWEST MGT / PANOCHE MOBIL,,FIREBAUGH,CA,,US,+1 559-659-0171,https://www.exxon.com/en/find-station/mobil-firebaugh-ca-calwestmgtpanochemobil-200314856,24/7,Mobil,Q109676002
Motorcraft2171USAEnglish,ford,Westside Ford,,California,CA,,US,+1 559-659-3951,,,Ford,Q44294
5132,gulf_pr_us,FIREBAUGH GULF,,Firebaugh,CA,,US,+1 559-269-3225,https://www.gulfoil.com/firebaugh-gulf,,Gulf Oil,Q5617505
70800447,moneygram,STATE FOODS SUPERMARKET,,FIREBAUGH,CA,,US,+1 209-270-2399,,Mo-Su 08:00-22:00,MoneyGram,Q1944412
008981,penske,J&amp;b Auto Sales,,FIREBAUGH,CA,,US,+1 559-661-4318,https://www.pensketruckrental.com/locations/us/california/firebaugh/008981/,,Penske,Q81234570
https://stations.sinclairoil.com/ca/firebaugh/1307-n-street,sinclair_us,Sinclair Gas Station,,Firebaugh,CA,,US,+1 559-659-6904,https://stations.sinclairoil.com/ca/firebaugh/1307-n-street,Mo-Su 05:00-23:00,Sinclair,Q1290900
https://restaurants.subway.com/#14894739,subway,Subway Country Store C-Store,,Firebaugh Fresno,CA,,US,+1 559-659-3291,https://restaurants.subway.com/united-states/ca/firebaugh/46378-panoche-rd,Mo-We 07:00-20:00; Th 07:00-21:00; Fr-Su 07:00-22:00,Subway,Q244457
https://restaurants.subway.com/#14894806,subway,Subway Firebaugh Travel Plaza @ I5,,Firebaugh Fresno,CA,,US,+1 209-364-6437,https://restaurants.subway.com/united-states/ca/firebaugh/15838-paul-negra-road-i-5,Mo-Su 08:00-21:00,Subway,Q244457
https://restaurants.subway.com/#14904003,subway,Subway,,Firebaugh Fresno,CA,,US,+1 559-659-3744,https://restaurants.subway.com/united-states/ca/firebaugh/1200-n-street,Mo-Su 08:00-21:00,Subway,Q244457
https://locations.tacobell.com/#23770943,taco_bell,Taco Bell,,Firebaugh,CA,,US,+1 559-479-5840,https://locations.tacobell.com/ca/firebaugh/46320-panoche-rd-.html,Mo-Su 08:00-23:00,Taco Bell,Q752941
045495,uhaul,Firebaugh Self Storage & Mercantile,1680 State Hwy 33,Firebaugh,CA,,US,+1 559-659-3410,,Mo-Sa 00:00-17:00,U-Haul,Q7862902
1363404,usps,FIREBAUGH,,FIREBAUGH,CA,,US,+1 559-659-6504,,Mo-Fr 09:00-16:00,United States Postal Service,Q668687
9362200007,usps_collection_boxes,USPS COLLECTION BOX - BLUE BOX,1580 11TH ST,FIREBAUGH,CA,,US,,,,United States Postal Service,Q668687
9362200012,usps_collection_boxes,USPS COLLECTION BOX - PO LOBBY,1580 11TH ST,FIREBAUGH,CA,,US,,,,United States Postal Service,Q668687
9362200010,usps_collection_boxes,USPS COLLECTION BOX - PO LOBBY,1580 11TH ST,FIREBAUGH,CA,,US,,,,United States Postal Service,Q668687
,visa,,,FIREBAUGH,CA,,US,,,,,
,visa,,,FIREBAUGH,CA,,US,,,,,
,visa,,,FIREBAUGH,CA,,US,,,,,
,visa,,,FIREBAUGH,CA,,US,,,,,
,visa,,,FIREBAUGH,CA,,US,,,,,
,visa,,,FIREBAUGH,CA,,US,,,,,
,visa,,,FIREBAUGH,CA,,US,,,,,
,visa,,,FIREBAUGH,CA,,US,,,,,
,visa,,,FIREBAUGH,CA,,US,,,,,
,visa,,,FIREBAUGH,CA,,US,,,,,
,visa,,,FIREBAUGH,CA,,US,,,,,
,visa,,,FIREBAUGH,CA,,US,,,,,
,visa,,,FIREBAUGH,CA,,US,,,,,
,visa,,,FIREBAUGH,CA,,US,,,,,
,visa,,,FIREBAUGH,CA,,US,,,,,
,visa,,,FIREBAUGH,CA,,US,,,,,
,visa,,,FIREBAUGH,CA,,US,,,,,
,visa,,,FIREBAUGH,CA,,US,,,,,
