Ref,Spider,Name,Address,City,State,Zipcode,Country,Phone,Website,Hours,Brand,WikiData
/locations/propane-offices/california/fowler/2080-south-goldenstate-blvd,amerigas,"AmerGas Propane | Fowler, California",,Fowler,CA,,US,+1 559-834-3017,/locations/propane-offices/california/fowler/2080-south-goldenstate-blvd,,AmeriGas,Q23130318
https://locators.bankofamerica.com/ca/fowler/atm-fowler-110081.html,bankofamerica,Bank of America Walk-Up ATM | Fowler Crossroads,,Fowler,CA,,US,+1 844-401-8500,https://locators.bankofamerica.com/ca/fowler/atm-fowler-110081.html,,Bank of America,Q487907
179617,bluerhino,Fowler Ace Hardware #14326,,Fowler,CA,,US,+1 559-834-4844,,,Blue Rhino,Q65681213
34869,citi,ATM Ampm,,Fowler,CA,,US,,,,Citibank,Q857063
248882,dennys,Denny's,,Fowler,CA,,US,+1 559-834-3408,https://locations.dennys.com/CA/FOWLER/248882,Mo-Su 05:00-24:00,Denny's,Q1189695
710008,electrify_america,FCRTA - Donny Wright Park,,Fowler,CA,,US,,,,Electrify America,Q59773555
https://locations.jackinthebox.com/us/ca/fowler/206-s-10th-st,jackinthebox,Jack in the Box,,Fowler,CA,,US,+1 559-344-0750,https://locations.jackinthebox.com/us/ca/fowler/206-s-10th-st,Mo-Th 06:00-00:00; Fr-Sa 05:00-02:00; Su 06:00-00:00,Jack in the Box,Q1538507
286541,marathon_petroleum_us,ARCO #42299 AMPM,,Fowler,CA,,US,+1 559-834-4773,,,Arco,Q304769
12951,quiznos,Fowler Crossroads,,Fowler,CA,,US,+1 559-834-6284,https://order.quiznos.com/menu/fowler-crossroads-2?handoff=delivery,Mo-Sa 10:00-21:00; Su 11:00-20:00,Quizno's,Q1936229
https://restaurants.subway.com/#14907888,subway,Subway Shell C-Store,,Fowler Fresno,CA,,US,+1 559-834-5864,https://restaurants.subway.com/united-states/ca/fowler/124-n-sumner-ave,Mo-We 07:00-21:00; Th 07:00-17:00; Fr 07:00-21:00; Sa-Su 08:00-21:00,Subway,Q244457
https://locations.tacobell.com/#11601561,taco_bell,Taco Bell,,Fowler,CA,,US,+1 559-601-0632,https://locations.tacobell.com/ca/fowler/105-s--10th-street.html,Mo-Su 07:00-24:00,Taco Bell,Q752941
004573,uhaul,R&R Auto Repair,115 W Merced St,Fowler,CA,,US,+1 559-834-5886,,Mo-Fr 30:00-17:00; Sa 30:00-24:00,U-Haul,Q7862902
1363923,usps,FOWLER,,FOWLER,CA,,US,+1 559-834-5322,,Mo-Fr 08:30-16:00,United States Postal Service,Q668687
9362500004,usps_collection_boxes,USPS COLLECTION BOX - PO LOBBY,19 E MERCED ST,FOWLER,CA,,US,,,,United States Postal Service,Q668687
9362500005,usps_collection_boxes,USPS COLLECTION BOX - PO LOBBY,19 E MERCED ST,FOWLER,CA,,US,,,,United States Postal Service,Q668687
9362500007,usps_collection_boxes,USPS COLLECTION BOX - PO LOBBY,19 E MERCED ST,FOWLER,CA,,US,,,,United States Postal Service,Q668687
9362500001,usps_collection_boxes,USPS COLLECTION BOX - BLUE BOX,19 E MERCED ST,FOWLER,CA,,US,,,,United States Postal Service,Q668687
9362500002,usps_collection_boxes,USPS COLLECTION BOX - BLUE BOX,19 E MERCED ST,FOWLER,CA,,US,,,,United States Postal Service,Q668687
,visa,,,FOWLER,CA,,US,,,,,
,visa,,,FOWLER,CA,,US,,,,,
,visa,,,FOWLER,CA,,US,,,,,
,visa,,,FOWLER,CA,,US,,,,,
,visa,,,FOWLER,CA,,US,,,,,
,visa,,,FOWLER,CA,,US,,,,,
,visa,,,FOWLER,CA,,US,,,,,
,visa,,,FOWLER,CA,,US,,,,,
,visa,,,FOWLER,CA,,US,,,,,
,visa,,,FOWLER,CA,,US,,,,,
92576a6f5327c7d61c0ab849b3c7bae5,western_union,CARNICERIA Y TAQUERIA LAS P,,Fowler,CA,,US,+1 559-834-3001,https://location.westernunion.com/us/ca/fowler/92576a6f5327c7d61c0ab849b3c7bae5,Mo-Sa 08:00-20:00; Su 09:00-18:00,Western Union,Q861042
