Ref,Spider,Name,Address,City,State,Zipcode,Country,Phone,Website,Hours,Brand,WikiData
13620745,ally_fashion_au,Robina ,,Robina ,QLD,,AU,+61 7 5649 5666,,,Ally Fashion,Q19870623
1948,amcal_au,Amcal+ Pharmacy Gooding Drive,"6/166 Gooding Drive, Merrimac QLD 4226",Merrimac,QLD,,AU,+61 7 5530 5888,https://amcal.com.au/store/1948/QLD/amcal-plus-pharmacy-gooding-drive/,Mo-Fr 08:00-18:00; Sa 08:30-12:30; Su 00:00-00:00,Amcal,Q63367373
RED0012059,australia_post_au,,,MERRIMAC,QLD,,AU,,,,Australia Post,Q1142936
RED0012064,australia_post_au,,,ROBINA,QLD,,AU,,,,Australia Post,Q1142936
419581_PO,australia_post_au,ROBINA POST SHOP,,ROBINA,QLD,,AU,+61 131318,,,Australia Post,Q1142936
31444848_UPL,australia_post_au,Robina Parcel Locker,,ROBINA,QLD,,AU,,,24/7,Australia Post,Q1142936
45200100_UPL,australia_post_au,National Storage Robina Parcel Locker,,ROBINA,QLD,,AU,,,,Australia Post,Q1142936
RED0012062,australia_post_au,,,ROBINA,QLD,,AU,,,,Australia Post,Q1142936
RED0018323,australia_post_au,,,ROBINA,QLD,,AU,,,,Australia Post,Q1142936
RED0012061,australia_post_au,,,ROBINA,QLD,,AU,,,,Australia Post,Q1142936
RED0012058,australia_post_au,,,CLEAR ISLAND WATERS,QLD,,AU,,,,Australia Post,Q1142936
RED0012063,australia_post_au,,,ROBINA,QLD,,AU,,,,Australia Post,Q1142936
RED0012066,australia_post_au,,,ROBINA,QLD,,AU,,,,Australia Post,Q1142936
216915,bakers_delight,Bakers Delight Robina Kitchens,,Robina,QLD,,AU,,https://www.bakersdelight.com.au/bakery-locator/robina-kitchens/,Mo-We 07:00-18:00; Th 07:00-19:30; Fr 07:00-18:00; Sa-Su 07:00-17:00,Bakers Delight,Q4849261
2726,bakers_delight,Bakers Delight Robina,,Robina,QLD,,AU,+61 7 5562 0899,https://www.bakersdelight.com.au/bakery-locator/robina/,Mo-We 07:00-18:30; Th 07:00-20:00; Fr 07:00-18:30; Sa-Su 07:00-17:30,Bakers Delight,Q4849261
https://www.bedshed.com.au/find-a-store/bedshed-robina,bedshed_au,Bedshed Robina,,Robina,QLD,,AU,+61 7 5607 6733,https://www.bedshed.com.au/find-a-store/bedshed-robina,Mo-We 09:00-17:00; Th 09:00-17:30; Fr-Sa 09:00-17:00; Su 10:00-16:00,Bedshed,Q84452962
8796098396183,best_and_less_au,Robina,"Robina Town Centre, Robina Town Centre Dr, Robina, Queensland, 4226",Robina,QLD,,AU,+61 7 5578 8970,https://www.bestandless.com.au/store/Robina,Mo-We 09:00-17:30; Th 09:00-21:00; Fr 09:00-17:30; Sa 09:00-17:00; Su 10:00-16:00,Best & Less,Q4896542
0292,bp,BP Merrimac,,MERRIMAC,QLD,,AU,+61 7 5522 9066,,24/7,BP,Q152057
https://www.bridgestone.com.au/stores/qld/bridgestone-select-robina,bridgestone_select,Bridgestone Select Robina,,Robina,QLD,,AU,+61 7 5600 9745,https://www.bridgestone.com.au/stores/qld/bridgestone-select-robina/,Mo-Fr 08:00-17:00; Sa 08:00-24:00,Bridgestone Select Tyre & Auto,Q122420123
35970,cellarbrations_au,CELLARBRATIONS AT MERRIMAC,,MERRIMAC,QLD,,AU,+61 7 5525 3155,,Mo-Sa 10:00-24:00; Su 12:00-24:00,Cellarbrations,Q109807592
1846,coles_au,Coles Express Mudgeeraba,,Robina,QLD,,AU,+61 7 3734 0922,,,Coles Express,Q5144653
6471,coles_au,Robina,,Robina,QLD,,AU,+61 7 5501 6180,,,Liquorland,Q2283837
5b021a3d280854000800005b,crust_au,RFG HO Test,35 Robina Town Centre Drive Robina QLD 4226,Robina,QLD,,AU,,https://www.crust.com.au/stores/qld/rfg-ho-test,Mo-Su 06:00-22:30,Crust,Q100792715
70,early_settler,Robina,,Robina,QLD,,AU,+61 7 5562 1711,https://earlysettler.com.au/pages/early-settler-robina,Mo-Sa 09:00-17:00; Su 10:00-16:00,Early Settler,Q111080173
6174211,exxonmobil,7-Eleven Robina,,Robina,QLD,,AU,+61 7 5580 9617,https://www.mobil.com.au/en-au/find-station/mobil-robina-qld-robina-6174211,24/7,Mobil,Q109676002
6174195,exxonmobil,7-Eleven Robina Town Centre,,Robina,QLD,,AU,+61 7 5562 0017,https://www.mobil.com.au/en-au/find-station/mobil-robina-qld-robinatowncentre-6174195,24/7,Mobil,Q109676002
6174194,exxonmobil,7-Eleven Robina,,Robina,QLD,,AU,+61 7 5578 9200,https://www.mobil.com.au/en-au/find-station/mobil-robina-qld-robina-6174194,24/7,Mobil,Q109676002
014-4006,forever_new,Forever New - Robina,,Robina,QLD,,AU,+61 7 5593 1051,,Mo-We 09:00-17:30; Th 09:00-21:00; Fr-Sa 09:00-17:30; Su 10:00-16:00,Forever New,Q119221929
870,greencross_au,Greencross Vets Robina,,Robina,QLD,,AU,+61 7 5593 0300,https://www.petbarn.com.au/store-finder/greencross-vets-robina,Mo-Fr 08:00-18:00; Sa 08:00-14:00,Greencross Vets,Q41179992
873,greencross_au,Greencross Vets Robina Village,,Robina,QLD,,AU,+61 7 5593 2055,https://www.petbarn.com.au/store-finder/greencross-vets-robina-village,Mo-Fr 08:00-18:00; Sa 08:00-17:00,Greencross Vets,Q41179992
27,grilld_au,Grill'd Robina,,ROBINA,QLD,,AU,+61 7 5575 9994,,Mo-Th 10:30-22:00; Fr-Sa 10:30-22:30; Su 10:30-22:00,Grill'd,Q18165852
1068,guzmany_gomez,Robina Drive Thru,,Robina,QLD,,AU,+61 7 5606 6312,https://www.guzmanygomez.com.au/locations/Robina-dt/,Mo-Su 06:00-22:55,Guzman y Gomez,Q23019759
3571,hungry_jacks,Plainlands,,Plainlands,QLD,,AU,+61 7 5318 6031,,,Hungry Jack's,Q3036373
652,just_cuts,Robina,,Robina,QLD,,AU,+61 7 5575 9248,https://www.justcuts.com.au/Australian-Salons/Robina?sid=652,Mo-We 09:00-17:30; Th 09:00-21:00; Fr-Sa 09:00-17:30; Su 09:30-16:00,Just Cuts,Q116784479
6364,kitchen_connection_au,Robina,Home + Life Robina Centre,Robina,QLD,,AU,+61 1800 700 777,https://kitchenconnection.com.au/showroom/robina-gold-coast/,,Kitchen Connection,Q111081406
propertyhub,lj_hooker_au_nz,LJ Hooker Property Hub,,ROBINA,QLD,,AU,+61 7 5593 0044,https://propertyhub.ljhooker.com.au,Mo-Fr 09:00-17:00,LJ Hooker,Q6456509
robina,lj_hooker_au_nz,LJ Hooker Robina,,ROBINA,QLD,,AU,+61 7 5593 0044,https://robina.ljhooker.com.au,Mo-Fr 09:00-17:00,LJ Hooker,Q6456509
9501318,mcdonalds_qstore,MERRIMAC,,Merrimac,QLD,,AU,+61 7 5559 1405,,Mo-Fr 05:00-00:00; Sa 00:00-00:00,McDonald's,Q38076
9500786,mcdonalds_qstore,ROBINA CENTRAL QLD,,Robina,QLD,,AU,+61 7 5575 9901,,24/7,McDonald's,Q38076
9501128,mcdonalds_qstore,COOLANGATTA II QLD,,Coolangatta,QLD,,AU,+61 7 5536 1119,,Mo-Th 06:00-21:00; Fr-Sa 06:00-00:00; Su 06:00-21:00,McDonald's,Q38076
https://www.nandos.com.au/restaurants/qld/robina,nandos,ROBINA,,Robina,QLD,,AU,+61 1300 626 367,https://www.nandos.com.au/restaurants/qld/robina,,Nando's,Q3472954
9896761,night_owl_au,NightOwl Burleigh Waters,"Shop 9 Christine Corner, Cnr Bermuda Street and Christine Av, Burleigh Waters, QLD, 4226, AU",Burleigh Waters,QLD,,AU,+61 7 5535 4555,https://nightowl.com.au/store-locator/?location=nightowl-burleigh-waters-burleigh-waters-qld,Mo-Su 05:00-24:00,NightOwl,Q7033183
NMA30429,nissan_europe,Von Bibra Robina Nissan,,ROBINA,QLD,,AU,+61 7 5575 0500,http://www.vonbibranissan.com.au,,Nissan,Q20165
59,nutrition_warehouse_au,Robina,,Robina,QLD,,AU,+61 7 5689 1665,https://www.nutritionwarehouse.com.au/pages/robina-vitamins-and-supplements,Mo-We 09:00-17:30; Th 09:00-19:00; Fr 09:00-17:30; Sa 09:00-16:00; Su 10:00-16:00,Nutrition Warehouse,Q117747424
W440,officeworks_au,Robina Officeworks,,Robina,QLD,,AU,+61 7 5639 0000,https://www.officeworks.com.au/shop/officeworks/storepage/W440/QLD/Robina,Mo-Fr 07:00-21:00; Sa 08:00-18:00; Su 09:00-18:00,Officeworks,Q7079486
4066,petstock_au,Petstock VET Robina,,Robina,QLD,,AU,+61 7 5580 8125,https://www.petstock.com.au/pages/store/petstock-vet-robina,Mo-Fr 08:00-17:30; Sa 08:30-11:30,Petstock,Q106540728
4064,petstock_au,Petstock Robina,,Robina,QLD,,AU,+61 7 5580 8125,https://www.petstock.com.au/pages/store/petstock-robina,Mo-We 09:00-17:30; Th 09:00-18:00; Fr 09:00-17:30; Sa-Su 09:00-17:00,Petstock,Q106540728
4017,pillow_talk_au,Robina,,Robina,QLD,,AU,+61 7 5562 0133,,Mo-We 09:00-17:30; Th 09:00-21:00; Fr 09:00-17:30; Sa 09:00-17:00; Su 10:00-16:00,Pillow Talk,Q120648495
https://www.qbd.com.au/locations/robina/,qbd_books_au,QBD Books - Robina,,Robina,QLD,,AU,+61 7 5593 1405,https://www.qbd.com.au/locations/robina/,Mo-We 08:30-17:30; Th 08:30-21:00; Fr-Sa 08:30-17:30; Su 10:00-16:00,QBD Books,Q7270909
11,scooter_hut_au,Scooter Hut Robina,,Robina,QLD,,AU,+61 7 5575 9111,,Mo-Sa 09:00-17:00; Su 10:00-16:00,Scooter Hut,Q117747623
4211,seven_eleven_au,Robina,,Robina,QLD,,AU,+61 7 5580 9617,,24/7,7-Eleven,Q259340
4194,seven_eleven_au,Robina,,Robina,QLD,,AU,+61 7 5578 9200,,24/7,7-Eleven,Q259340
4195,seven_eleven_au,Robina Town Centre,,Robina,QLD,,AU,+61 7 5562 0017,,24/7,7-Eleven,Q259340
2494365,sheike_au,Robina,,Robina,QLD,,AU,+61 7 5575 8756,,Mo-We 09:00-17:30; Th 09:00-21:00; Fr-Sa 09:00-17:30; Su 10:00-16:00,SHEIKE,Q117747877
10111366,shell,SHELL COLES EXPRESS MUDGEERABA,,ROBINA,QLD,,AU,+61 7 3734 0922,https://find.shell.com/au/fuel/10111366-shell-coles-express-mudgeeraba,24/7,Shell,Q110716465
QROB,spendless_au,Robina,,Robina,QLD,,AU,+61 7 5580 8608,,Mo-We 09:00-17:30; Th 09:00-21:00; Fr 09:00-17:30; Sa 09:00-17:00; Su 10:00-16:00,Spendless,Q120668938
64,t2,T2 - Robina,,Robina,QLD,,AU,+61 7 5580 9186,,Mo-We 09:00-17:30; Th 09:00-21:00; Fr-Sa 09:00-17:30; Su 10:00-16:00,T2,Q48802134
248,the_cheesecake_shop,Robina,"Robina Super Centre, Robina, QLD, 4226",,QLD,,AU,+61 7 5580 8001,https://www.cheesecake.com.au/find-bakery/robina/,Mo-Sa 08:00-20:00; Su 09:00-19:00,The Cheesecake Shop,Q117717103
https://www.thegoodguys.com.au/robina,the_good_guys_au,The Good Guys Robina,,Robina,QLD,,AU,+61 7 5592 7500,https://www.thegoodguys.com.au/robina,Mo-We 09:00-17:30; Th 09:00-19:00; Fr 09:00-17:30; Sa 09:00-17:00; Su 10:00-16:00,The Good Guys,Q7737217
,visa,,,ROBINA,QLD,,AU,,,,,
,visa,,,ROBINA,QLD,,AU,,,,,
,visa,,,ROBINA,QLD,,AU,,,,,
,visa,,,ROBINA,QLD,,AU,,,,,
,visa,,,ROBINA,QLD,,AU,,,,,
,visa,,,ROBINA,QLD,,AU,,,,,
,visa,,,ROBINA,QLD,,AU,,,,,
,visa,,,ROBINA,QLD,,AU,,,,,
,visa,,,ROBINA,QLD,,AU,,,,,
,visa,,,ROBINA,QLD,,AU,,,,,
,visa,,,ROBINA,QLD,,AU,,,,,
,visa,,,ROBINA,QLD,,AU,,,,,
,visa,,,MERRIMAC,QLD,,AU,,,,,
,visa,,,MERRIMAC,QLD,,AU,,,,,
,visa,,,ROBINA,QLD,,AU,,,,,
,visa,,,ROBINA,QLD,,AU,,,,,
,visa,,,ROBINA,QLD,,AU,,,,,
,visa,,,ROBINA,QLD,,AU,,,,,
84313a2d9b5c1ea5cf6610b91f8c76ea,western_union,ROBINA TOWN CENTRE K 2-10,,Robina,QLD,,AU,+61 1800 501 500,https://location.westernunion.com/au/qld/robina/84313a2d9b5c1ea5cf6610b91f8c76ea,Mo-Sa 08:00-18:00; Su 09:00-17:00,Western Union,Q861042
a9b7c23ae959f753fdfc4e01b9227ee1,western_union,AUSTRALIA POST,,Robina,QLD,,AU,+61 1800 501 500,https://location.westernunion.com/au/qld/robina/a9b7c23ae959f753fdfc4e01b9227ee1,Mo-Fr 09:00-17:00; Sa 09:00-13:00,Western Union,Q861042
