Ref,Spider,Name,Address,City,State,Zipcode,Country,Phone,Website,Hours,Brand,WikiData
170775,bluerhino,"Krull's Family Market, Inc #9814",,Hill City,SD,,US,+1 605-574-2717,,,Blue Rhino,Q65681213
209046,bluerhino,Hill City Hardware (Krull's Family Hardware),,Hill City,SD,,US,+1 605-574-2400,,,Blue Rhino,Q65681213
56031,citi,ATM FIRST INTERSTATE BANK 09,,Hill City,SD,,US,,,,Citibank,Q857063
https://local.fedex.com/#25902409,fedex,,,Hill City,SD,,US,+1 800-463-3339,https://local.fedex.com/en-us/sd/hill-city/rapah,,FedEx,Q459477
5079,little_free_library,Newton Fork Ranch #5079 Hill City SD,,Hill City,SD,,US,,,,Little Free Library,Q6650101
0000889295,phillips_66_conoco_76,COUNTRY STORE AT THREE FORKS,,HILL CITY,SD,,US,+1 605-574-4377,,,Phillips 66,Q1656230
0000862845,phillips_66_conoco_76,HEART OF THE WEST,,HILL CITY,SD,,US,+1 605-574-9001,,,Conoco,Q109341187
https://restaurants.subway.com/#14908635,subway,"Subway Hill City, Sd",,Hill City Pennington,SD,,US,+1 605-223-8128,https://restaurants.subway.com/united-states/sd/hill-city/349-main-street,Mo-Sa 09:00-19:00,Subway,Q244457
1366975,usps,HILL CITY,,HILL CITY,SD,,US,+1 605-574-2730,,"Mo-Fr 09:00-11:30,12:30-16:00; Sa 09:30-10:30",United States Postal Service,Q668687
5774500001,usps_collection_boxes,USPS COLLECTION BOX - BLUE BOX,150 E MAIN ST,HILL CITY,SD,,US,,,,United States Postal Service,Q668687
5774500002,usps_collection_boxes,USPS COLLECTION BOX - PO LOBBY,150 E MAIN ST,HILL CITY,SD,,US,,,,United States Postal Service,Q668687
,visa,,,HILL CITY,SD,,US,,,,,
,visa,,,HILL CITY,SD,,US,,,,,
,visa,,,HILL CITY,SD,,US,,,,,
,visa,,,HILL CITY,SD,,US,,,,,
,visa,,,HILL CITY,SD,,US,,,,,
,visa,,,HILL CITY,SD,,US,,,,,
,visa,,,HILL CITY,SD,,US,,,,,
,visa,,,HILL CITY,SD,,US,,,,,
,visa,,,HILL CITY,SD,,US,,,,,
,visa,,,HILL CITY,SD,,US,,,,,
,visa,,,HILL CITY,SD,,US,,,,,
,visa,,,HILL CITY,SD,,US,,,,,
,visa,,,HILL CITY,SD,,US,,,,,
,visa,,,HILL CITY,SD,,US,,,,,
,visa,,,HOT SPRINGS,SD,,US,,,,,
,visa,,,HILL CITY,SD,,US,,,,,
,visa,,,HILL CITY,SD,,US,,,,,
,visa,,,HILL CITY,SD,,US,,,,,
,visa,,,HILL CITY,SD,,US,,,,,
,visa,,,HILL CITY,SD,,US,,,,,
