Ref,Spider,Name,Address,City,State,Zipcode,Country,Phone,Website,Hours,Brand,WikiData
239385,bluerhino,Circle K #2746128,,Crosby,MN,,US,+1 218-546-6120,,,Blue Rhino,Q65681213
214516,bluerhino,SuperOne Foods - Miners #15-1555,,Crosby,MN,,US,+1 218-546-6020,,,Blue Rhino,Q65681213
85801,citi,ATM UNITY BANK,,Crosby,MN,,US,,,,Citibank,Q857063
,credit_union_us,Mid-Minnesota FCU,,Crosby,MN,,US,+1 218-546-5428,,Mo-Fr 08:30-05:00,,
https://www.edwardjones.com/us-en/financial-advisor/seth-jackson,edwardjones,Seth R Jackson,,Crosby,MN,,US,+1 218-546-5302,https://www.edwardjones.com/us-en/financial-advisor/seth-jackson,Mo-Th 08:00-16:30,Edward Jones,Q5343830
30120,family_dollar_us,FAMILY DOLLAR #10120,,Crosby,MN,,US,+1 218-866-6000,https://www.familydollar.com/locations/mn/crosby/30120/,Mo-Sa 09:00-22:00; Su 09:00-21:00,Family Dollar,Q5433101
158626,marathon_petroleum_us,U Pump It,,Crosby,MN,,US,+1 218-546-5902,,,Marathon,Q458363
https://restaurants.subway.com/#14898591,subway,Subway,,Crosby Crow Wing,MN,,US,+1 218-546-7301,https://restaurants.subway.com/united-states/mn/crosby/210-w-main-st,Mo-Su 09:00-22:00,Subway,Q244457
57ede4543dac7b5c124b9bb2,super_one_foods_us,Crosby Super One Foods,,Crosby,MN,,US,+1 218-546-6020,https://www.superonefoods.com/store-details/crosby-super-one-foods,,Super One Foods,Q17108733
1359878,usps,CROSBY,,CROSBY,MN,,US,+1 218-546-5152,,"Mo-Fr 08:30-12:30,13:30-16:30; Sa 08:30-10:00",United States Postal Service,Q668687
5644100002,usps_collection_boxes,USPS COLLECTION BOX - BLUE BOX,207 W MAIN ST,CROSBY,MN,,US,,,,United States Postal Service,Q668687
5644100004,usps_collection_boxes,USPS COLLECTION BOX - PO LOBBY,207 W MAIN ST,CROSBY,MN,,US,,,,United States Postal Service,Q668687
5644100005,usps_collection_boxes,USPS COLLECTION BOX - PO LOBBY,207 W MAIN ST,CROSBY,MN,,US,,,,United States Postal Service,Q668687
,visa,,,CUYUNA,MN,,US,,,,,
,visa,,,CROSBY,MN,,US,,,,,
,visa,,,CROSBY,MN,,US,,,,,
,visa,,,CROSBY,MN,,US,,,,,
,visa,,,CROSBY,MN,,US,,,,,
,visa,,,CROSBY,MN,,US,,,,,
,visa,,,CROSBY,MN,,US,,,,,
,visa,,,CROSBY,MN,,US,,,,,
,visa,,,CROSBY,MN,,US,,,,,
,visa,,,CROSBY,MN,,US,,,,,
,visa,,,CROSBY,MN,,US,,,,,
,visa,,,CROSBY,MN,,US,,,,,
,visa,,,CROSBY,MN,,US,,,,,
,visa,,,CROSBY,MN,,US,,,,,
,visa,,,CROSBY,MN,,US,,,,,
,visa,,,CROSBY,MN,,US,,,,,
,visa,,,CROSBY,MN,,US,,,,,
,visa,,,CROSBY,MN,,US,,,,,
,visa,,,CROSBY,MN,,US,,,,,
