Ref,Spider,Name,Address,City,State,Zipcode,Country,Phone,Website,Hours,Brand,WikiData
https://stores.advanceautoparts.com/me/millinocket/21-sycamore-st,advance_auto_parts_us,Advance Auto Parts,,Millinocket,ME,,US,+1 207-723-2010,https://stores.advanceautoparts.com/me/millinocket/21-sycamore-st,Mo-Fr 07:00-17:30; Sa 08:00-15:00; Su 00:00-24:00,Advance Auto Parts,Q4686051
200233,bluerhino,Katahdin True Value #20395,,Millinocket,ME,,US,+1 207-723-8600,,,Blue Rhino,Q65681213
240164,bluerhino,Circle K #4707113,,Millinocket,ME,,US,+1 207-723-6124,,,Blue Rhino,Q65681213
164295,bluerhino,Family Dollar #04963,,Millinocket,ME,,US,+1 207-261-6002,,,Blue Rhino,Q65681213
119254,bluerhino,Hannaford #8155,,Millinocket,ME,,US,+1 207-723-8047,,,Blue Rhino,Q65681213
43827,citi,ATM Circle K,,Millinocket,ME,,US,,,,Citibank,Q857063
,credit_union_us,Katahdin FCU,,Millinocket,ME,,US,+1 207-723-9718,,Mo-Fr 09:00-05:00,,
341998,dunkin_us,Dunkin',,Millinocket,ME,,US,+1 207-723-8749,https://locations.dunkindonuts.com/en/me/millinocket/719-central-st/341998,Mo-Sa 04:30-20:00; Su 05:00-19:00,Dunkin',Q847743
https://stores.hannaford.com/#8905548,hannaford,Hannaford - Millinocket 843 Central Street - Millinocket,,Penobscot County,ME,,US,+1 207-723-8047,https://stores.hannaford.com/me/millinocket/8155,Mo-Sa 07:00-21:00; Su 08:00-20:00,Hannaford,Q5648760
19074,h_r_block,H&R Block,,Millinocket,ME,,US,+1 207-723-4818,https://www.hrblock.com/local-tax-offices/maine/millinocket/20-balsam-dr/19074/,,H&R Block,Q5627799
https://restaurants.subway.com/#14906860,subway,Subway,,Millinocket Penobscot,ME,,US,+1 207-723-7827,https://restaurants.subway.com/united-states/me/millinocket/805-central-st,Mo-We 10:00-21:00; Th 10:00-19:00; Fr-Su 10:00-21:00,Subway,Q244457
1373187,usps,MILLINOCKET,,MILLINOCKET,ME,,US,+1 207-723-5921,,Mo-Fr 09:00-16:00; Sa 09:00-11:30,United States Postal Service,Q668687
0446200007,usps_collection_boxes,USPS COLLECTION BOX - BLUE BOX,1000 CENTRAL ST,MILLINOCKET,ME,,US,,,,United States Postal Service,Q668687
0446200008,usps_collection_boxes,USPS COLLECTION BOX - BLUE BOX,841 CENTRAL ST,MILLINOCKET,ME,,US,,,,United States Postal Service,Q668687
0446200014,usps_collection_boxes,USPS COLLECTION BOX - BLUE BOX,820 CENTRAL ST,MILLINOCKET,ME,,US,,,,United States Postal Service,Q668687
0446200017,usps_collection_boxes,USPS COLLECTION BOX - PO LOBBY,113 PENOBSCOT AVE,MILLINOCKET,ME,,US,,,,United States Postal Service,Q668687
0446200013,usps_collection_boxes,USPS COLLECTION BOX - BLUE BOX,113 PENOBSCOT AVE,MILLINOCKET,ME,,US,,,,United States Postal Service,Q668687
0446200016,usps_collection_boxes,USPS COLLECTION BOX - PO LOBBY,113 PENOBSCOT AVE,MILLINOCKET,ME,,US,,,,United States Postal Service,Q668687
,visa,,,MILLINOCKET,ME,,US,,,,,
,visa,,,MILLINOCKET,ME,,US,,,,,
,visa,,,MILLINOCKET,ME,,US,,,,,
,visa,,,MILLINOCKET,ME,,US,,,,,
,visa,,,MILLINOCKET,ME,,US,,,,,
,visa,,,MILLINOCKET,ME,,US,,,,,
,visa,,,MILLINOCKET,ME,,US,,,,,
,visa,,,MILLINOCKET,ME,,US,,,,,
,visa,,,MILLINOCKET,ME,,US,,,,,
3661df0cd6bf845b5c8b88bd0f73446b,western_union,DOLLAR GENERAL #25421,,Millinocket,ME,,US,+1 207-578-7895,https://location.westernunion.com/us/me/millinocket/3661df0cd6bf845b5c8b88bd0f73446b,Mo-Su 08:00-22:00,Western Union,Q861042
