Ref,Spider,Name,Address,City,State,Zipcode,Country,Phone,Website,Hours,Brand,WikiData
72164152,moneygram,COPPEL TRANSMISORES - VILLAHERMOSA - CON,,VILLAHERMOSA,TB,,MX,+52 993 314 3278,,Mo-Sa 09:30-20:00; Su 09:30-18:00,MoneyGram,Q1944412
72164194,moneygram,COPPEL TRANSMISORES - VILLAHERMOSA - JUA,,VILLAHERMOSA,TB,,MX,+52 993 314 4307,,Mo-Sa 10:00-20:30; Su 10:00-20:00,MoneyGram,Q1944412
72164288,moneygram,COPPEL TRANSMISORES - VILLAHERMOSA - JAV,,VILLAHERMOSA,TB,,MX,+52 993 312 5135,,Mo-Sa 09:30-20:00; Su 09:30-18:00,MoneyGram,Q1944412
72164291,moneygram,COPPEL TRANSMISORES - VILLAHERMOSA - JUA,,VILLAHERMOSA,TB,,MX,+52 993 312 1139,,Mo-Sa 10:00-08:30; Su 10:00-20:00,MoneyGram,Q1944412
72184608,moneygram,DINERO EXPRESS - VILLAHERMOSA - BA PREST,,VILLAHERMOSA,TB,,MX,+52 55 1720 8177,,Mo-Su 09:00-21:00,MoneyGram,Q1944412
72338522,moneygram,COPPEL TRANSMISORES - VILLAHERMOSA - CON,,VILLAHERMOSA,TB,,MX,+52 993 314 3278,,Mo-Sa 09:30-20:00; Su 09:30-18:00,MoneyGram,Q1944412
68181783,moneygram,CAJA POPULAR MEX - #3215 - VILLAHERMOSA,,VILLAHERMOSA,TB,,MX,+52 993 131 1049,,Mo-Fr 09:00-16:00; Sa 09:00-14:00; Su 00:00-24:00,MoneyGram,Q1944412
72232110,moneygram,FARMACIAS DEL AHORRO - #239 - CENTRO - F,,CENTRO,TB,,MX,5253224320,,Mo-Su 07:00-23:00,MoneyGram,Q1944412
72232660,moneygram,FARMACIAS DEL AHORRO - #297 - CENTRO - F,,CENTRO,TB,,MX,5253224320,,Mo-Su 07:00-23:00,MoneyGram,Q1944412
72230662,moneygram,FARMACIAS DEL AHORRO - #77 - CENTRO - F,,CENTRO,TB,,MX,5253224320,,Mo-Su 07:00-23:00,MoneyGram,Q1944412
72231153,moneygram,FARMACIAS DEL AHORRO - #130 - CENTRO - F,,CENTRO,TB,,MX,5253224320,,Mo-Su 07:00-23:00,MoneyGram,Q1944412
72231687,moneygram,FARMACIAS DEL AHORRO - #194 - CENTRO - F,,CENTRO,TB,,MX,5253224320,,Mo-Su 07:00-23:00,MoneyGram,Q1944412
72232136,moneygram,FARMACIAS DEL AHORRO - #241 - CENTRO - F,,CENTRO,TB,,MX,5253224320,,Mo-Su 07:00-23:00,MoneyGram,Q1944412
72233601,moneygram,FARMACIAS DEL AHORRO - #496 - CENTRO - F,,CENTRO,TB,,MX,5253224320,,Mo-Su 07:00-23:00,MoneyGram,Q1944412
72230675,moneygram,FARMACIAS DEL AHORRO - #78 - CENTRO - F,,CENTRO,TB,,MX,5253224320,,Mo-Su 07:00-23:00,MoneyGram,Q1944412
69509571,moneygram,MODATELAS - #999 - 94 MODATELAS VILLAHER,,VILLAHERMOSA,TB,,MX,+52 993 312 7113,,Mo-Su 08:00-20:00,MoneyGram,Q1944412
69511349,moneygram,MODATELAS - #998 - 29 MODATELAS VILLAHER,,VILLAHERMOSA,TB,,MX,+52 993 312 0612,,Mo-Su 08:00-20:00,MoneyGram,Q1944412
68818962,moneygram,DINERO EXPRESS - #6208 - CENTRO - ELEKTR,,CENTRO,TB,,MX,+52 55 1720 8141,,Mo-Su 09:00-21:00,MoneyGram,Q1944412
68825230,moneygram,DINERO EXPRESS - #2558 - VILLAHERMOSA -,,VILLAHERMOSA,TB,,MX,+52 55 1720 8141,,Mo-Su 09:00-21:00,MoneyGram,Q1944412
74454640,moneygram,UNION VILLAHERMOSA ADO - CENTRO - UNION,,CENTRO,TB,,MX,+52 800 733 3300,,Mo-Su 08:00-20:00,MoneyGram,Q1944412
74454611,moneygram,UNION VILLAHERMOSA MENDEZ CENTRO - CENTR,,CENTRO,TB,,MX,+52 800 733 3300,,Mo-Su 08:00-20:00,MoneyGram,Q1944412
74454653,moneygram,UNION VILLAHERMOSA MERCADO PINO SUAREZ -,,CENTRO,TB,,MX,+52 800 733 3300,,Mo-Su 08:00-20:00,MoneyGram,Q1944412
74455607,moneygram,UNION VILLAHERMOSA PARQUE JUAREZ - CENTR,,CENTRO,TB,,MX,+52 800 733 3300,,Mo-Su 08:00-20:00,MoneyGram,Q1944412
74454637,moneygram,UNION VILLAHERMOSA PARQUE LA PAZ - CENTR,,CENTRO,TB,,MX,+52 800 733 3300,,Mo-Su 08:00-20:00,MoneyGram,Q1944412
74455034,moneygram,UNION VILLAHERMOSA PLAZA MAX - CENTRO -,,CENTRO,TB,,MX,+52 800 733 3300,,Mo-Su 08:00-20:00,MoneyGram,Q1944412
74589434,moneygram,BANCO AZTECA MEXICO - VILLA HERMOSA - IT,,VILLA HERMOSA,TB,,MX,+52 55 1720 8177,,Mo-Su 09:00-21:00,MoneyGram,Q1944412
74589913,moneygram,DINERO EXPRESS - VILLA HERMOSA - ITALIKA,,VILLA HERMOSA,TB,,MX,+52 55 1720 8177,,Mo-Su 09:00-21:00,MoneyGram,Q1944412
74715130,moneygram,CADENA COMERCIAL OXXO SA DE CV - #10VHT5,,VILLAHERMOSA,TB,,MX,+52 81 8389 2121,,Mo-Su 03:00-24:00,MoneyGram,Q1944412
70752634,moneygram,ELECZION - #1056 - VILLAHERMOSA - VILLAH,,VILLAHERMOSA,TB,,MX,5263180635,,Mo-Su 07:00-23:00,MoneyGram,Q1944412
70752757,moneygram,ELECZION - #1106 - VILLAHERMOSA - VILLAH,,VILLAHERMOSA,TB,,MX,5263180635,,Mo-Su 07:00-23:00,MoneyGram,Q1944412
70754027,moneygram,ELECZION - #1061 - VILLAHERMOSA - VILLAH,,VILLAHERMOSA,TB,,MX,5263180635,,Mo-Su 07:00-23:00,MoneyGram,Q1944412
68812612,moneygram,DINERO EXPRESS - #4750 - VILLAHERMOSA -,,VILLAHERMOSA,TB,,MX,+52 55 1720 8141,,Mo-Su 09:00-21:00,MoneyGram,Q1944412
71126913,moneygram,TELECOMM - #TELECOMM 27033 - VILLAHERMOS,,VILLAHERMOSA,TB,,MX,55118008334700,,Mo-Fr 09:00-15:00; Sa-Su 00:00-24:00,MoneyGram,Q1944412
71145415,moneygram,ELEKTRA - #6208 - CENTRO - BA EKT VILLAH,,CENTRO,TB,,MX,+52 55 1720 7000,,Mo-Su 09:00-21:00,MoneyGram,Q1944412
71150303,moneygram,ELEKTRA - #9595 - CENTRO - BA PRESTA PRE,,CENTRO,TB,,MX,+52 55 1720 7000,,Mo-Su 09:00-21:00,MoneyGram,Q1944412
71137876,moneygram,ELEKTRA - #2558 - CENTRO - BA EKT VILLAH,,CENTRO,TB,,MX,+52 55 1720 7000,,Mo-Su 09:00-21:00,MoneyGram,Q1944412
71171476,moneygram,FARMACIAS GUADALAJARA - #1810 - VILLAHER,,VILLAHERMOSA,TB,,MX,+52 800 555 6555,,Mo-Su 08:00-22:00,MoneyGram,Q1944412
41339439,moneygram,BANORTE - #3700 - VILLAHERMOSA MENDEZ,,VILLAHERMOSA,TB,,MX,+52 993 312 4882,,Mo-Fr 09:00-18:00; Sa-Su 00:00-24:00,MoneyGram,Q1944412
41290455,moneygram,BANORTE - #732 - VILLAHERMOSA CENTRO,,VILLAHERMOSA,TB,,MX,+52 993 312 7859,,Mo-Fr 09:00-18:00; Sa 09:30-16:00; Su 00:00-24:00,MoneyGram,Q1944412
66284763,moneygram,TIENDAS DEL SOL - #7,,VILLAHERMOSA,TB,,MX,+52 800 833 4700,,Mo-Sa 09:00-21:00; Su 00:00-24:00,MoneyGram,Q1944412
71722906,moneygram,MODATELAS VILLAHERMOSA III - #5083 - VIL,,VILLAHERMOSA,TB,,MX,+52 993 131 3675,,Mo-Su 07:00-21:00,MoneyGram,Q1944412
71378415,moneygram,OXXO - ALLENDE VSA,,VILLAHERMOSA,TB,,MX,+52 81 8389 2121,,Mo-Su 03:00-24:00,MoneyGram,Q1944412
71378127,moneygram,OXXO - BASTAR ZOZAYA VSA,,VILLAHERMOSA,TB,,MX,+52 81 8389 2121,,Mo-Su 03:00-24:00,MoneyGram,Q1944412
71377801,moneygram,OXXO - CENTRO VSA,,VILLAHERMOSA,TB,,MX,+52 81 8389 2121,,Mo-Su 03:00-24:00,MoneyGram,Q1944412
71379223,moneygram,OXXO - FRANCISCO JAVIER VSA,,VILLAHERMOSA,TB,,MX,+52 81 8389 2121,,Mo-Su 03:00-24:00,MoneyGram,Q1944412
71378651,moneygram,OXXO - MADERO VSA,,VILLAHERMOSA,TB,,MX,+52 81 8389 2121,,Mo-Su 03:00-24:00,MoneyGram,Q1944412
71379618,moneygram,OXXO - PEDRO FUENTES VSA,,VILLAHERMOSA,TB,,MX,+52 81 8389 2121,,Mo-Su 03:00-24:00,MoneyGram,Q1944412
71379090,moneygram,OXXO - PLAZA DE ARMAS VSA,,VILLAHERMOSA,TB,,MX,+52 81 8389 2121,,Mo-Su 03:00-24:00,MoneyGram,Q1944412
71379760,moneygram,OXXO - REMODELADA VSA,,VILLAHERMOSA,TB,,MX,+52 81 8389 2121,,Mo-Su 03:00-24:00,MoneyGram,Q1944412
71379359,moneygram,OXXO - SAENZ VSA,,VILLAHERMOSA,TB,,MX,+52 81 8389 2121,,Mo-Su 03:00-24:00,MoneyGram,Q1944412
71379074,moneygram,OXXO - SANCHEZ MARMOL VSA,,VILLAHERMOSA,TB,,MX,+52 81 8389 2121,,Mo-Su 03:00-24:00,MoneyGram,Q1944412
71379210,moneygram,OXXO - SANTA MARTHA VSA,,VILLAHERMOSA,TB,,MX,+52 81 8389 2121,,Mo-Su 03:00-24:00,MoneyGram,Q1944412
71380115,moneygram,OXXO - SIRLOIN VSA,,VILLAHERMOSA,TB,,MX,+52 81 8389 2121,,Mo-Su 03:00-24:00,MoneyGram,Q1944412
71378567,moneygram,OXXO - V. CARRANZA VSA,,VILLAHERMOSA,TB,,MX,+52 81 8389 2121,,Mo-Su 03:00-24:00,MoneyGram,Q1944412
