Ref,Spider,Name,Address,City,State,Zipcode,Country,Phone,Website,Hours,Brand,WikiData
4368,autozone_us,AutoZone Auto Parts Grand Ledge,,Grand Ledge,MI,,US,+1 517-412-6004,https://www.autozone.com/locations/mi/grand-ledge/876-e-saginaw-hwy.html,Mo-Sa 08:00-20:00; Su 09:00-19:00,AutoZone,Q4826087
https://awrestaurants.com/locations/michigan/grand-ledge/525-w-saginaw/,awrestaurants,A&W Restaurant,,Grand Ledge,MI,,US,+1 517-627-7800,https://awrestaurants.com/locations/michigan/grand-ledge/525-w-saginaw/,Mo-Sa 07:00-20:00; Su 10:00-20:00,A&W Restaurants,Q277641
210906,bluerhino,Dollar General #22036,,Grand Ledge,MI,,US,+1 269-430-3650,,,Blue Rhino,Q65681213
191874,bluerhino,Love's #785,,Grand Ledge,MI,,US,+1 517-626-7370,,,Blue Rhino,Q65681213
164093,bluerhino,Speedway #7383,,Grand Ledge,MI,,US,+1 517-622-4998,,,Blue Rhino,Q65681213
78939045995054883700100000000000,bp,BP,,Grand Ledge,MI,,US,+1 517-627-2176,,Mo-Fr 08:00-17:00; Sa 08:00-14:00,BP,Q152057
44544,chevrolet,"SUNDANCE CHEVROLET, INC.",,Grand Ledge,MI,,US,+1 866-641-8174,https://www.sundancechevyranch.com,Mo-Th 08:30-19:00; Fr 08:30-18:00; Sa 09:00-17:00; Su 12:00-17:00,Chevrolet,Q29570
79566,citi,ATM SPEEDWAY #7383,,Grand Ledge,MI,,US,,,,Citibank,Q857063
78992,citi,ATM Speedway,,Grand Ledge,MI,,US,,,,Citibank,Q857063
93060,citi,ATM Walgreens,,Grand Ledge,MI,,US,,,,Citibank,Q857063
54350,citi,ATM Eaton Community Bank,,Grand Ledge,MI,,US,,,,Citibank,Q857063
54357,citi,ATM EATON FEDERAL SAVINGS BNK,,Grand Ledge,MI,,US,,,,Citibank,Q857063
1194,dominos_pizza_us,Domino's Pizza,,Grand Ledge,MI,,US,+1 517-731-6501,https://pizza.dominos.com/michigan/grand-ledge/327-s-bridge-st,"Mo-Th 10:00-24:00; Fr 10:00-01:00; Sa 10:00-24:00; Su 00:00-01:00,10:00-24:00",Domino's,Q839466
https://www.edwardjones.com/us-en/financial-advisor/kiersten-noallpacino,edwardjones,Kiersten Noall Pacino,,Grand Ledge,MI,,US,+1 517-627-1477,https://www.edwardjones.com/us-en/financial-advisor/kiersten-noallpacino,Mo-Fr 09:00-17:30,Edward Jones,Q5343830
200315102,exxonmobil,POHL OIL TRAVEL CENTER,,GRAND LEDGE,MI,,US,+1 517-622-0770,https://www.exxon.com/en/find-station/mobil-grandledge-mi-pohloiltravelcenter-200315102,24/7,Mobil,Q109676002
https://locations.53.com/#3033748,fifththirdbank,Fifth Third Bank Grand Ledge,,Grand Ledge,MI,,US,+1 517-622-1839,https://locations.53.com/mi/grand-ledge/900-charlevoix-drive.html,Mo-Th 09:00-17:00; Fr 09:00-17:30; Sa 09:00-12:00,Fifth Third Bank,Q1411810
Motorcraft4223USAEnglish,ford,Grand Ledge Ford Lincoln,,Michigan,MI,,US,+1 517-627-8100,,,Ford,Q44294
https://www.ford.com/dealerships/dealer-details/mi/grand-ledge/morrie%27s-grand-ledge-ford/,ford_dealers_us,Morrie's Grand Ledge Ford,,Grand Ledge,MI,,US,+1 517-731-0271,https://www.ford.com/dealerships/dealer-details/mi/grand-ledge/morrie's-grand-ledge-ford/,Mo-Fr 09:00-19:00; Sa 09:00-17:00,Ford Motor Company,Q44294
854789d5-458a-e111-8dde-005056934050,goodwill,Grand Ledge ADC,,Grand Ledge,MI,,US,+1 517-925-8444,https://www.goodwill.org/locator/location/?store=ODU0Nzg5ZDUtNDU4YS1lMTExLThkZGUtMDA1MDU2OTM0MDUw&lat=NDIuNzQ0MjI=&lng=LTg0LjczOTY4,,Goodwill,Q5583655
https://salons.greatclips.com/us/mi/grand-ledge/730-e-saginaw-hwy,greatclips,Great Clips,,Grand Ledge,MI,,US,+1 517-627-6838,https://salons.greatclips.com/us/mi/grand-ledge/730-e-saginaw-hwy,Mo-Fr 10:00-18:00; Sa 00:00-24:00; Su 10:00-17:00,Great Clips,Q5598967
1506496,hardees_us,Hardee's,,Grand Ledge,MI,,US,+1 517-626-7372,https://locations.hardees.com/mi/grand-ledge/7300-w.-grand-river-ave.,,Hardee's,Q1585088
mi_grand-ledge_breakfast-7800-w.-grand-river-hwy-5644,ihop,IHOP Breakfast Restaurants Near You at 7800 W. Grand River Hwy,,Grand Ledge,MI,,US,+1 517-412-7373,https://restaurants.ihop.com/en-us/mi/grand-ledge/breakfast-7800-w.-grand-river-hwy-5644,,IHOP,Q1185675
1004,loves,Site 785,,Grand Ledge,MI,,US,+1 517-626-7370,,,Love's,Q1872496
158986,marathon_petroleum_us,King and M LLC,,GRAND LEDGE,MI,,US,+1 517-925-1841,,,Marathon,Q458363
https://locations.oreillyauto.com/mi/grandledge/check-engine-light-testing-5788.html,oreilly,Your Grand Ledge O'Reilly Auto Parts Store,,Grand Ledge,MI,,US,+1 517-731-2485,https://locations.oreillyauto.com/mi/grandledge/check-engine-light-testing-5788.html,Mo-Sa 07:30-21:00; Su 08:30-20:00,O'Reilly Auto Parts,Q7071951
https://locations.oreillyauto.com/mi/grandledge/wiper-installation-5788.html,oreilly,Your Grand Ledge O'Reilly Auto Parts Store,,Grand Ledge,MI,,US,+1 517-731-2485,https://locations.oreillyauto.com/mi/grandledge/wiper-installation-5788.html,Mo-Sa 07:30-21:00; Su 08:30-20:00,O'Reilly Auto Parts,Q7071951
https://locations.oreillyauto.com/mi/grandledge/battery-testing-5788.html,oreilly,Your Grand Ledge O'Reilly Auto Parts Store,,Grand Ledge,MI,,US,+1 517-731-2485,https://locations.oreillyauto.com/mi/grandledge/battery-testing-5788.html,Mo-Sa 07:30-21:00; Su 08:30-20:00,O'Reilly Auto Parts,Q7071951
https://locations.oreillyauto.com/mi/grandledge/autopartes-5788.html,oreilly,Tu tienda O'Reilly Auto Parts en Grand Ledge,,Grand Ledge,MI,,US,+1 517-731-2485,https://locations.oreillyauto.com/mi/grandledge/autopartes-5788.html,Mo-Sa 07:30-21:00; Su 08:30-20:00,O'Reilly Auto Parts,Q7071951
667,pilot_flyingj,Flying J Travel Center,,Grand Ledge,MI,,US,+1 517-627-7504,https://locations.pilotflyingj.com/us/mi/grand-ledge/7800-west-grand-river-ave.,,Flying J,Q16974822
mi_grand-ledge_600-e-saginaw-hwy,pizza_hut_us,600 E Saginaw Hwy,,Grand Ledge,MI,,US,+1 517-627-1188,https://locations.pizzahut.com/mi/grand-ledge/600-e-saginaw-hwy,,Pizza Hut,Q191615
https://restaurants.subway.com/#17830055,subway,Subway,,Lansing,MI,,US,+1 800-888-4848,https://restaurants.subway.com/united-states/mi/lansing/i-96-&-w-grand-river,Mo-Su 08:00-22:00,Subway,Q244457
https://restaurants.subway.com/#14895038,subway,Subway,,Grand Ledge Eaton,MI,,US,+1 269-256-6072,https://restaurants.subway.com/united-states/mi/grand-ledge/836-e-saginaw-hwy,Mo-Su 08:00-22:00,Subway,Q244457
https://locations.tacobell.com/#6142027,taco_bell,Taco Bell,,Grand Ledge,MI,,US,+1 517-622-2045,https://locations.tacobell.com/mi/grand-ledge/820-torch-street.html,Mo-Th 07:30-01:30; Fr-Sa 07:30-02:30; Su 07:30-01:30,Taco Bell,Q752941
https://locations.tccrocks.com/mi/grand-ledge/669-e-saginaw-hy.html,tcc_us,TCC Grand Ledge,,Grand Ledge,MI,,US,+1 616-523-1190,https://locations.tccrocks.com/mi/grand-ledge/669-e-saginaw-hy.html,Mo-Sa 10:00-18:00; Su 11:00-18:00,Verizon,Q919641
https://www.trekbikes.com/us/en_US/retail/grand_ledge/,trekbikes,Trek Bicycle Grand Ledge,,Grand Ledge,MI,,US,+1 517-997-8023,https://www.trekbikes.com/us/en_US/retail/grand_ledge/,Tu-Fr 11:00-18:00; Sa 10:00-18:00,Trek,Q1067617
1365319,usps,GRAND LEDGE,,GRAND LEDGE,MI,,US,+1 517-627-2200,,Mo-Fr 09:00-16:30; Sa 09:30-12:30,United States Postal Service,Q668687
4883700027,usps_collection_boxes,USPS COLLECTION BOX - BLUE BOX,7800 W GRAND RIVER HWY,GRAND LEDGE,MI,,US,,,,United States Postal Service,Q668687
4883700023,usps_collection_boxes,USPS COLLECTION BOX - BLUE BOX,914 CHARLEVOIX DR,GRAND LEDGE,MI,,US,,,,United States Postal Service,Q668687
4883700021,usps_collection_boxes,USPS COLLECTION BOX - PO LOBBY,118 E JEFFERSON ST,GRAND LEDGE,MI,,US,,,,United States Postal Service,Q668687
4883700026,usps_collection_boxes,USPS COLLECTION BOX - BLUE BOX,117 E SCOTT ST,GRAND LEDGE,MI,,US,,,,United States Postal Service,Q668687
4883700029,usps_collection_boxes,USPS COLLECTION BOX - PO LOBBY,118 E JEFFERSON ST,GRAND LEDGE,MI,,US,,,,United States Postal Service,Q668687
4883700001,usps_collection_boxes,USPS COLLECTION BOX - BLUE BOX,118 E JEFFERSON ST,GRAND LEDGE,MI,,US,,,,United States Postal Service,Q668687
4883700028,usps_collection_boxes,USPS COLLECTION BOX - BLUE BOX,310 GREENWOOD ST,GRAND LEDGE,MI,,US,,,,United States Postal Service,Q668687
grandledge_oil-change-030002,valvoline_instant_oil_change,Valvoline,930 Saginaw Highway ,Grand Ledge,MI,,US,+1 517-925-8403,https://store.vioc.com/mi/grandledge/oil-change-030002.html,,Valvoline Instant Oil Change,Q7912852
A00000036274,verizon_us,TCC Grand Ledge,,GRAND LEDGE,MI,,US,+1 517-627-1419,https://www.verizon.com/stores/details/michigan/grand-ledge/tcc-grand-ledge-1458822/,Mo-Sa 10:00-18:00; Su 11:00-18:00,Verizon,Q919641
,visa,,,GRAND LEDGE,MI,,US,,,,,
,visa,,,LANSING,MI,,US,,,,,
,visa,,,GRAND LEDGE,MI,,US,,,,,
,visa,,,GRAND LEDGE,MI,,US,,,,,
,visa,,,GRAND LEDGE,MI,,US,,,,,
,visa,,,GRAND LEDGE,MI,,US,,,,,
,visa,,,GRAND LEDGE,MI,,US,,,,,
,visa,,,GRAND LEDGE,MI,,US,,,,,
,visa,,,GRAND LEDGE,MI,,US,,,,,
,visa,,,GRAND LEDGE,MI,,US,,,,,
,visa,,,GRAND LEDGE,MI,,US,,,,,
,visa,,,GRAND LEDGE,MI,,US,,,,,
,visa,,,GRAND LEDGE,MI,,US,,,,,
,visa,,,GRAND LEDGE,MI,,US,,,,,
,visa,,,GRAND LEDGE,MI,,US,,,,,
,visa,,,GRAND LEDGE,MI,,US,,,,,
,visa,,,GRAND LEDGE,MI,,US,,,,,
,visa,,,GRAND LEDGE,MI,,US,,,,,
,visa,,,GRAND LEDGE,MI,,US,,,,,
,visa,,,GRAND LODGE,MI,,US,,,,,
,visa,,,GRAND LEDGE,MI,,US,,,,,
,visa,,,GRAND LEDGE,MI,,US,,,,,
,visa,,,GRAND LEDGE,MI,,US,,,,,
,visa,,,GRAND LEDGE,MI,,US,,,,,
,visa,,,GRAND LEDGE,MI,,US,,,,,
,visa,,,GRAND LEDGE,MI,,US,,,,,
,visa,,,GRAND LEDGE,MI,,US,,,,,
,visa,,,GRAND LEDGE,MI,,US,,,,,
,visa,,,ROSCOMMON,MI,,US,,,,,
,visa,,,GRAND LEDGE,MI,,US,,,,,
,visa,,,GRAND LEDGE,MI,,US,,,,,
,visa,,,GRAND LEDGE,MI,,US,,,,,
,visa,,,GRAND LEDGE,MI,,US,,,,,
https://www.walgreens.com/locator/walgreens-812+e+saginaw+hwy-grand+ledge-mi-48837/id=13150,walgreens,Walgreens,,Grand Ledge,MI,,US,+1 517-627-1240,https://www.walgreens.com/locator/walgreens-812+e+saginaw+hwy-grand+ledge-mi-48837/id=13150,Mo-Su 09:00-21:00,Walgreens,Q1591889
https://locations.wendys.com/#9256450,wendys,"Wendy's Grand Ledge in Grand Ledge, MI",,Grand Ledge,MI,,US,+1 517-627-4963,https://locations.wendys.com/united-states/mi/grand-ledge/980-esaginaw-hwy,"Mo-Su 06:30-10:30,09:00-22:00",Wendy's,Q550258
