Ref,Spider,Name,Address,City,State,Zipcode,Country,Phone,Website,Hours,Brand,WikiData
71afa1bf3a836d9f0c12266d770b9970,western_union,UNIVERSAL TRAVELS ZONE,,Jaunpur,UTTAR PRADESH,,IN,+91 75188 21166,https://location.westernunion.com/in/uttar-pradesh/jaunpur/71afa1bf3a836d9f0c12266d770b9970,Mo-Su 07:00-21:00,Western Union,Q861042
0f38c157368cd5f0563615e2ffe0cd57,western_union,ZN TRAVELS ZONE,,Jaunpur,UTTAR PRADESH,,IN,+91 78605 49393,https://location.westernunion.com/in/uttar-pradesh/jaunpur/0f38c157368cd5f0563615e2ffe0cd57,Mo-Su 08:00-22:00,Western Union,Q861042
1bcd51151e0632db4d99fc111321f0ac,western_union,ARBAB TOUR AND TRAVELS,,Jaunpur,UTTAR PRADESH,,IN,+91 89481 73611,https://location.westernunion.com/in/uttar-pradesh/jaunpur/1bcd51151e0632db4d99fc111321f0ac,Mo-Su 08:00-21:00,Western Union,Q861042
c18789f44232674dfa5216f2c8e8003c,western_union,AZMAL MOBILE,,Jaunpur,UTTAR PRADESH,,IN,+91 82995 99713,https://location.westernunion.com/in/uttar-pradesh/jaunpur/c18789f44232674dfa5216f2c8e8003c,Mo-Su 07:00-21:00,Western Union,Q861042
646a4ea72aad9128f40f68be1004acad,western_union,FAIZ TRAVELS,,Jaunpur,UTTAR PRADESH,,IN,+91 86047 70920,https://location.westernunion.com/in/uttar-pradesh/jaunpur/646a4ea72aad9128f40f68be1004acad,Mo-Su 08:00-21:00,Western Union,Q861042
69b9527812944662d69598931629cf43,western_union,DREAM GARMENTS,,Jaunpur,UTTAR PRADESH,,IN,+91 99562 53252,https://location.westernunion.com/in/uttar-pradesh/jaunpur/69b9527812944662d69598931629cf43,Mo-Su 08:00-20:00,Western Union,Q861042
8d0bfabc744fdedb304df72117ff6849,western_union,AQUIB TOURS & TRAVELS,,Jaunpur,UTTAR PRADESH,,IN,+91 88810 30358,https://location.westernunion.com/in/uttar-pradesh/jaunpur/8d0bfabc744fdedb304df72117ff6849,Mo-Su 07:00-22:00,Western Union,Q861042
ddfb2256b47cb5d9e7366310c43f5686,western_union,SAHAJ JAN SEWA KENDRA,,Jaunpur,UTTAR PRADESH,,IN,+91 96952 12828,https://location.westernunion.com/in/uttar-pradesh/jaunpur/ddfb2256b47cb5d9e7366310c43f5686,Mo-Su 08:00-21:00,Western Union,Q861042
c7d1edf8566bbd1eeea7b9af01040906,western_union,ARPIT MOBILE WORLD,,Jaunpur,UTTAR PRADESH,,IN,+91 94518 34989,https://location.westernunion.com/in/uttar-pradesh/jaunpur/c7d1edf8566bbd1eeea7b9af01040906,Mo-Su 08:00-21:30,Western Union,Q861042
a67298267d1b6095fbf24574edd3132f,western_union,INDRA AIM,,Jaunpur,UTTAR PRADESH,,IN,+91 80908 29152,https://location.westernunion.com/in/uttar-pradesh/jaunpur/a67298267d1b6095fbf24574edd3132f,Mo-Su 08:00-21:00,Western Union,Q861042
597f8294b21f1ade3a15b3177ab03c69,western_union,CHAND TOUR AND TRAVELS,,Jaunpur,UTTAR PRADESH,,IN,+91 80902 65573,https://location.westernunion.com/in/uttar-pradesh/jaunpur/597f8294b21f1ade3a15b3177ab03c69,Mo-Su 07:00-22:00,Western Union,Q861042
7afc34c84c82d3543945427a04af1a6a,western_union,SAHAJ JAN SEWA KENDRA,,Jaunpur,UTTAR PRADESH,,IN,+91 63933 29663,https://location.westernunion.com/in/uttar-pradesh/jaunpur/7afc34c84c82d3543945427a04af1a6a,Mo-Su 07:00-21:00,Western Union,Q861042
9e3d1814529623e0d2c138d0cea9c4dc,western_union,SAHAJ JAN SEWA KENDRA,,Jaunpur,UTTAR PRADESH,,IN,+91 81880 42627,https://location.westernunion.com/in/uttar-pradesh/jaunpur/9e3d1814529623e0d2c138d0cea9c4dc,Mo-Su 08:00-20:00,Western Union,Q861042
0ef46b9efc1d9d2b61ba1a0fb5383be1,western_union,KING TOURS AND TRAVELS,,Jaunpur,UTTAR PRADESH,,IN,+91 63948 71301,https://location.westernunion.com/in/uttar-pradesh/jaunpur/0ef46b9efc1d9d2b61ba1a0fb5383be1,Mo-Su 07:00-21:00,Western Union,Q861042
f0d9ff192da557a0a4c6c228aed075f7,western_union,SAHAJ JAN SEWA KENDRA,,Jaunpur,UTTAR PRADESH,,IN,+91 90050 98331,https://location.westernunion.com/in/uttar-pradesh/jaunpur/f0d9ff192da557a0a4c6c228aed075f7,Mo-Su 08:00-21:00,Western Union,Q861042
5731fcbc6b69b10866fbdb492c79d0aa,western_union,MOBILE GALARY,,Jaunpur,UTTAR PRADESH,,IN,+91 95591 00143,https://location.westernunion.com/in/uttar-pradesh/jaunpur/5731fcbc6b69b10866fbdb492c79d0aa,Mo-Su 09:00-21:00,Western Union,Q861042
9d9c704f6f1cef5b462c038a7d1e579d,western_union,UNIVERSAL TRAVELS ZONE,,Jaunpur,UTTAR PRADESH,,IN,+91 99192 21166,https://location.westernunion.com/in/uttar-pradesh/jaunpur/9d9c704f6f1cef5b462c038a7d1e579d,Mo-Su 08:00-21:00,Western Union,Q861042
efccb4c578eb1c9182d147e3abe4f69f,western_union,MAAHA TRAVELS,,Jaunpur,UTTAR PRADESH,,IN,+91 99366 51217,https://location.westernunion.com/in/uttar-pradesh/jaunpur/efccb4c578eb1c9182d147e3abe4f69f,Mo-Su 09:00-21:00,Western Union,Q861042
e7bd371c2c2d682232f61e9aea890b82,western_union,CHAND TOOR AND TRAVELS,,Jaunpur,UTTAR PRADESH,,IN,+91 73767 10978,https://location.westernunion.com/in/uttar-pradesh/jaunpur/e7bd371c2c2d682232f61e9aea890b82,Mo-Su 08:00-21:00,Western Union,Q861042
5485c3854c590d327aa552d91d927f54,western_union,SAHAJ JAN SEWA KENDRA,,Jaunpur,UTTAR PRADESH,,IN,+91 74083 56821,https://location.westernunion.com/in/uttar-pradesh/jaunpur/5485c3854c590d327aa552d91d927f54,Mo-Su 07:00-21:00,Western Union,Q861042
8cd4aaa95545e54df4ee1d49148b1aa1,western_union,UNIVERSAL TOURS AND TRAVELS,,Jaunpur,UTTAR PRADESH,,IN,+91 98388 31912,https://location.westernunion.com/in/uttar-pradesh/jaunpur/8cd4aaa95545e54df4ee1d49148b1aa1,Mo-Su 09:30-20:30,Western Union,Q861042
39ca9ad3eee7803a02c893f563c3e6b9,western_union,GRAHAK SEWA KENDRA,,Jaunpur,UTTAR PRADESH,,IN,+91 83818 48589,https://location.westernunion.com/in/uttar-pradesh/jaunpur/39ca9ad3eee7803a02c893f563c3e6b9,Mo-Su 08:00-21:00,Western Union,Q861042
06e471372ee3b89860f3049256476a84,western_union,SHAHGANJ TRAVEL ZONE,,Jaunpur,UTTAR PRADESH,,IN,(+91) 545-226555,https://location.westernunion.com/in/uttar-pradesh/jaunpur/06e471372ee3b89860f3049256476a84,Mo-Su 09:30-20:30,Western Union,Q861042
19084e0850600ad15e5a2a3b85abe352,western_union,SALMANI TRAVELS,,Jaunpur,UTTAR PRADESH,,IN,+91 93351 21412,https://location.westernunion.com/in/uttar-pradesh/jaunpur/19084e0850600ad15e5a2a3b85abe352,Mo-Su 09:30-20:30,Western Union,Q861042
ca572fabc47247f6a22a176d32384b2e,western_union,A H K TOUR AND TRAVELS,,Jaunpur,UTTAR PRADESH,,IN,+91 88534 89987,https://location.westernunion.com/in/uttar-pradesh/jaunpur/ca572fabc47247f6a22a176d32384b2e,Mo-Su 09:00-21:00,Western Union,Q861042
