Ref,Spider,Name,Address,City,State,Zipcode,Country,Phone,Website,Hours,Brand,WikiData
4411,anytime_fitness,Anytime Fitness,,Lago Vista,TX,,US,+1 512-980-0510,https://www.anytimefitness.com/gyms/4411/lago-vista-tx-78645/,,Anytime Fitness,Q4778364
https://locators.bankofamerica.com/tx/lagovista/atm-lago-vista-110622.html,bankofamerica,Bank of America Drive-Thru ATM | Lago Vista,,Lago Vista,TX,,US,+1 844-401-8500,https://locators.bankofamerica.com/tx/lagovista/atm-lago-vista-110622.html,,Bank of America,Q487907
9529,baylorscottwhite,Baylor Scott & White Clinic - Lago Vista,,Lago Vista,TX,,US,+1 512-654-3300,https://www.bswhealth.com/locations/lago-vista-clinic,"Mo-Fr 08:00-17:00,08:30-11:30",Baylor Scott & White Health,Q41568258
138079,bluerhino,Lowe's Super S  #162,,Lago Vista,TX,,US,+1 512-267-1738,,,Blue Rhino,Q65681213
138136,bluerhino,Lowe's Super S #161,,Lago Vista,TX,,US,+1 512-267-1738,,,Blue Rhino,Q65681213
222884,bluerhino,Brookshire Brothers #117,,Lago Vista,TX,,US,+1 512-267-1601,,,Blue Rhino,Q65681213
163621,bluerhino,Cefco dba Taylor #0036,,Lago Vista,TX,,US,+1 512-267-1115,,,Blue Rhino,Q65681213
226552,bluerhino,Jonestown Country Store,,Jonestown,TX,,US,+1 737-209-0284,,,Blue Rhino,Q65681213
304357,chevron,Texaco Station #304357,18638 FM 1431,JONESTOWN,TX,,US,,,,Chevron,Q319642
48947,citi,ATM CVS,,Lago Vista,TX,,US,,,,Citibank,Q857063
8035,dominos_pizza_us,Domino's Pizza,,Lago Vista,TX,,US,+1 512-267-3232,https://pizza.dominos.com/texas/lago-vista/7708b-lohmans-ford-road,Mo-Th 10:30-24:00; Fr-Sa 10:30-01:00; Su 10:30-24:00,Domino's,Q839466
8799,dominos_pizza_us,Domino's Pizza,,Leander,TX,,US,+1 737-757-0045,https://pizza.dominos.com/texas/leander/1880-crystal-falls-parkway,Mo-Th 10:30-24:00; Fr-Sa 10:30-01:00; Su 10:30-24:00,Domino's,Q839466
https://www.edwardjones.com/us-en/financial-advisor/clare-grabarkewitz,edwardjones,Clare Grabarkewitz,,Lago Vista,TX,,US,+1 512-267-1047,https://www.edwardjones.com/us-en/financial-advisor/clare-grabarkewitz,Mo-Th 08:00-17:00; Fr 08:00-15:00,Edward Jones,Q5343830
200328008,exxonmobil,Mobil,,JONESTOWN,TX,,US,,https://www.exxon.com/en/find-station/mobil-jonestown-tx-mobil-200328008,Mo-Su 06:00-22:00,Mobil,Q109676002
https://local.fedex.com/#25234865,fedex,,,Leander,TX,,US,+1 800-463-3339,https://local.fedex.com/en-us/tx/leander/mmraj,,FedEx,Q459477
https://local.fedex.com/#1015625815,fedex,FedEx Authorized ShipCenter,,Lago Vista,TX,,US,+1 512-382-0071,https://local.fedex.com/en-us/tx/lago-vista/00w2f,,FedEx,Q459477
https://local.fedex.com/#27760974,fedex,FedEx Authorized ShipCenter,,Jonestown,TX,,US,+1 512-502-5001,https://local.fedex.com/en-us/tx/jonestown/00qb3,,FedEx,Q459477
143614,little_free_library,"""Jacob's Library"" #143614 Lago Vista TX",,Lago Vista,TX,,US,,,,Little Free Library,Q6650101
149791,little_free_library,Paris Ontiveros #149791 Lago Vista TX,,Lago Vista,TX,,US,,,,Little Free Library,Q6650101
68516141,moneygram,HILLSIDE GROCERY,,LAGO VISTA,TX,,US,+1 512-267-2755,,Mo-Sa 06:00-23:00; Su 07:00-23:00,MoneyGram,Q1944412
74639517,moneygram,JONESTOWN COUNTRY STORE - JONESTOWN,,JONESTOWN,TX,,US,+1 737-209-0284,,Mo-Su 06:00-24:00,MoneyGram,Q1944412
1432712,usps,NORTH LAKE TRAVIS,,LAGO VISTA,TX,,US,+1 512-267-1637,,Mo-Fr 08:30-16:30; Sa 10:00-12:00,United States Postal Service,Q668687
7864500037,usps_collection_boxes,USPS COLLECTION BOX - BLUE BOX,411 LOHMAN FORD ROAD,LAGO VISTA,TX,,US,,,,United States Postal Service,Q668687
7864500026,usps_collection_boxes,USPS COLLECTION BOX - BLUE BOX,5803 THUNDERBIRD ST,LAGO VISTA,TX,,US,,,,United States Postal Service,Q668687
7864500024,usps_collection_boxes,USPS COLLECTION BOX - BLUE BOX,20200 DAWN DR,LAGO VISTA,TX,,US,,,,United States Postal Service,Q668687
7864500025,usps_collection_boxes,USPS COLLECTION BOX - BLUE BOX,8027 BRONCO LN,LAGO VISTA,TX,,US,,,,United States Postal Service,Q668687
7864500028,usps_collection_boxes,USPS COLLECTION BOX - PO LOBBY,8027 BRONCO LN,LAGO VISTA,TX,,US,,,,United States Postal Service,Q668687
7864500029,usps_collection_boxes,USPS COLLECTION BOX - PO LOBBY,8027 BRONCO LN,LAGO VISTA,TX,,US,,,,United States Postal Service,Q668687
7864500034,usps_collection_boxes,USPS COLLECTION BOX - PO LOBBY,8027 BRONCO LN,LAGO VISTA,TX,,US,,,,United States Postal Service,Q668687
7864500027,usps_collection_boxes,USPS COLLECTION BOX - BLUE BOX,18649 FM 1431,LAGO VISTA,TX,,US,,,,United States Postal Service,Q668687
0000030373,valero,Oskis Food Store,,Lago Vista,TX,,US,+1 713-226-7488,https://locations.valero.com/en-us/LocationDetails/Index/20602-FM-1431/0000030373,,Valero,Q1283291
,visa,,,AUSTIN,TX,,US,,,,,
,visa,,,JONESTOWN,TX,,US,,,,,
,visa,,,JONESTOWN,TX,,US,,,,,
,visa,,,JONESTOWN,TX,,US,,,,,
,visa,,,JONESTOWN,TX,,US,,,,,
,visa,,,JONESTOWN,TX,,US,,,,,
,visa,,,JONESTOWN,TX,,US,,,,,
,visa,,,LOCKHART,TX,,US,,,,,
,visa,,,LAGO VISTA,TX,,US,,,,,
,visa,,,LAGO VISTA,TX,,US,,,,,
,visa,,,LAGO VISTA,TX,,US,,,,,
,visa,,,LAGO VISTA,TX,,US,,,,,
,visa,,,LAGO VISTA,TX,,US,,,,,
,visa,,,LAGO VISTA,TX,,US,,,,,
,visa,,,LAGO VISTA,TX,,US,,,,,
,visa,,,LAGO VISTA,TX,,US,,,,,
,visa,,,LEANDER,TX,,US,,,,,
,visa,,,POINT VENTURE,TX,,US,,,,,
,visa,,,POINT VENTURE,TX,,US,,,,,
,visa,,,LEANDER,TX,,US,,,,,
662830511da781e12d6c270ebaa81f75,western_union,BROOKSHIRE BROS # 117,,Lago Vista,TX,,US,+1 512-267-1601,https://location.westernunion.com/us/tx/lago-vista/662830511da781e12d6c270ebaa81f75,Mo-Su 08:00-20:00,Western Union,Q861042
