Ref,Spider,Name,Address,City,State,Zipcode,Country,Phone,Website,Hours,Brand,WikiData
2953,anytime_fitness,Anytime Fitness,,Liberty Hill,TX,,US,+1 512-778-6844,https://www.anytimefitness.com/gyms/2953/liberty-hill-tx-78642/,,Anytime Fitness,Q4778364
3669,autozone_us,AutoZone Auto Parts Liberty Hill,,Liberty Hill,TX,,US,+1 512-778-7004,https://www.autozone.com/locations/tx/liberty-hill/12330-w-hwy--29.html,Mo-Sa 07:30-21:00; Su 08:00-21:00,AutoZone,Q4826087
220919,baylorscottwhite,Baylor Scott & White Institute for Rehabilitation - Liberty Hill,,Liberty Hill,TX,,US,+1 512-515-9977,https://www.bswphysicaltherapy.com/contact/find-a-location/tx/liberty-hill/liberty-hill/,,Baylor Scott & White Health,Q41568258
163656,bluerhino,Cefco dba Taylor #0073,,Liberty Hill,TX,,US,+1 512-515-5007,,,Blue Rhino,Q65681213
237648,bluerhino,Circle K #2741588,,Liberty Hill,TX,,US,+1 512-778-9323,,,Blue Rhino,Q65681213
163520,bluerhino,Cefco dba Taylor #0074,,Liberty Hill,TX,,US,+1 512-778-5435,,,Blue Rhino,Q65681213
57528,citi,ATM Frontier Bank,,Leander,TX,,US,,,,Citibank,Q857063
84239,citi,ATM TRANSFUND,,Liberty Hill,TX,,US,,,,Citibank,Q857063
80213161,cricket_wireless,Cricket Wireless Authorized Retailer,,Liberty Hill,TX,,US,+1 512-548-6566,https://www.cricketwireless.com/stores/ll/US/TX/Liberty-Hill/13750-W-State-Highway-29,Mo-Sa 10:00-20:00; Su 12:00-17:00,Cricket Wireless,Q5184987
695a88ef-ddb3-4476-8996-f90fdb72226b,dairy_queen_us,13266 Hwy 29 W,,Liberty Hill,TX,,US,+1 512-548-6500,https://www.dairyqueen.com/locations/tx/liberty-hill/13266-hwy-29-w/14659,,DQ Grill & Chill,Q1141226
6383,dominos_pizza_us,Domino's Pizza,,Liberty Hill,TX,,US,+1 512-778-9010,https://pizza.dominos.com/texas/liberty-hill/10990-w-hwy-29,Mo-Th 10:30-24:00; Fr-Sa 10:30-01:00; Su 10:30-24:00,Domino's,Q839466
9333,dominos_pizza_us,Domino's Pizza,,Liberty Hill,TX,,US,+1 512-778-9300,https://pizza.dominos.com/texas/liberty-hill/14240-highway-29,Mo-Th 10:30-24:00; Fr-Sa 10:30-01:00; Su 10:30-24:00,Domino's,Q839466
DB766,dutchbros,TX-29,,Liberty Hill,TX,,US,,https://locations.dutchbros.com/dutch-bros-coffee-739d0a2348e5,Mo-Th 05:00-22:00; Fr-Sa 05:00-23:00; Su 05:00-22:00,Dutch Bros. Coffee,Q5317253
https://www.edwardjones.com/us-en/financial-advisor/seth-herbeck,edwardjones,Seth Herbeck,,Liberty Hill,TX,,US,+1 512-778-5217,https://www.edwardjones.com/us-en/financial-advisor/seth-herbeck,Mo-Th 08:30-16:30; Fr 08:30-16:00,Edward Jones,Q5343830
200328825,exxonmobil,JIFFY MART #3,,LIBERTY HILL,TX,,US,+1 512-515-0504,https://www.exxon.com/en/find-station/mobil-libertyhill-tx-jiffymart3-200328825,Mo-Su 06:00-22:00,Mobil,Q109676002
200328390,exxonmobil,BOOMER'S,,LIBERTY HILL,TX,,US,+1 512-515-5288,https://www.exxon.com/en/find-station/exxon-libertyhill-tx-boomers-200328390,Mo-Th 05:00-23:00; Fr-Sa 05:00-00:00; Su 07:00-17:00,Exxon,Q109675651
200310970,exxonmobil,COPPER RIDGE MARKET,,LIBERTY HILL,TX,,US,+1 512-410-4805,https://www.exxon.com/en/find-station/exxon-libertyhill-tx-copperridgemarket-200310970,Mo-Fr 05:00-23:00; Sa 06:00-23:00; Su 07:00-23:00,Exxon,Q109675651
200310339,exxonmobil,C STORE-30 HWY 183,,LIBERTY HILL,TX,,US,+1 512-515-5627,https://www.exxon.com/en/find-station/exxon-libertyhill-tx-cstore30hwy183-200310339,24/7,Exxon,Q109675651
https://local.fedex.com/#25236050,fedex,,,Liberty Hill,TX,,US,+1 800-463-3339,https://local.fedex.com/en-us/tx/liberty-hill/mmrad,,FedEx,Q459477
https://local.fedex.com/#27758366,fedex,FedEx Authorized ShipCenter,,Liberty Hill,TX,,US,+1 512-778-9191,https://local.fedex.com/en-us/tx/liberty-hill/00t7u,,FedEx,Q459477
387,first_cash,Texas Pawn & Jewelry,,Liberty Hill,TX,,US,+1 512-548-6791,,,,
https://salons.greatclips.com/us/tx/liberty-hill/14125-w-hwy-29,greatclips,Great Clips,,Liberty Hill,TX,,US,+1 512-548-6393,https://salons.greatclips.com/us/tx/liberty-hill/14125-w-hwy-29,Mo-Fr 08:00-19:00; Sa 08:00-18:00; Su 09:00-17:00,Great Clips,Q5598967
29802,little_free_library,Stephanie Grubbs #29802 Liberty Hill TX,,Liberty Hill,TX,,US,,,,Little Free Library,Q6650101
93888,little_free_library,Ladybug Little Free Library #93888 Liberty Hill TX,,Liberty Hill,TX,,US,,,,Little Free Library,Q6650101
161758,little_free_library,Central Park Library #161758 Liberty Hill TX,,Liberty Hill,TX,,US,,,,Little Free Library,Q6650101
79998,little_free_library,Santa Rita Ranch Umbria #79998 Liberty Hill TX,,Liberty Hill,TX,,US,,,,Little Free Library,Q6650101
163666,little_free_library,Santa Rita Ranch North-Ventana #163666 Liberty Hill TX,,Liberty Hill,TX,,US,,,,Little Free Library,Q6650101
https://locations.oreillyauto.com/tx/libertyhill/check-engine-light-testing-6120.html,oreilly,Your Liberty Hill O'Reilly Auto Parts Store,,Liberty Hill,TX,,US,+1 737-734-9030,https://locations.oreillyauto.com/tx/libertyhill/check-engine-light-testing-6120.html,Mo-Sa 07:30-21:00; Su 08:00-21:00,O'Reilly Auto Parts,Q7071951
https://locations.oreillyauto.com/tx/libertyhill/wiper-installation-6120.html,oreilly,Your Liberty Hill O'Reilly Auto Parts Store,,Liberty Hill,TX,,US,+1 737-734-9030,https://locations.oreillyauto.com/tx/libertyhill/wiper-installation-6120.html,Mo-Sa 07:30-21:00; Su 08:00-21:00,O'Reilly Auto Parts,Q7071951
https://locations.oreillyauto.com/tx/libertyhill/battery-testing-6120.html,oreilly,Your Liberty Hill O'Reilly Auto Parts Store,,Liberty Hill,TX,,US,+1 737-734-9030,https://locations.oreillyauto.com/tx/libertyhill/battery-testing-6120.html,Mo-Sa 07:30-21:00; Su 08:00-21:00,O'Reilly Auto Parts,Q7071951
https://locations.oreillyauto.com/tx/libertyhill/autopartes-6120.html,oreilly,O'Reilly Auto Parts,,Liberty Hill,TX,,US,+1 737-734-9030,https://locations.oreillyauto.com/tx/libertyhill/autopartes-6120.html,Mo-Sa 07:30-21:00; Su 08:00-21:00,O'Reilly Auto Parts,Q7071951
622523,penske,Above All Roofing Solut,,LIBERTY HILL,TX,,US,+1 512-354-3113,https://www.pensketruckrental.com/locations/us/texas/liberty_hill/622523/,,Penske,Q81234570
tx_liberty-hill_13900-w-state-hwy-29,pizza_hut_us,13900 W State Hwy 29,,Liberty Hill,TX,,US,,https://locations.pizzahut.com/tx/liberty-hill/13900-w-state-hwy-29,,Pizza Hut,Q191615
https://locations.quiktrip.com/#16004207,quiktrip_us,QuikTrip Store #4156 14000 W Sh29,,Liberty Hill,TX,,US,+1 512-778-9165,https://locations.quiktrip.com/tx/liberty-hill/14000-w-sh29,24/7,QuikTrip,Q7271953
https://locations.schlotzskys.com/#4809,schlotzskys,Schlotzsky's,,Williamson County,TX,,US,+1 512-778-4208,https://locations.schlotzskys.com/tx/liberty-hill/13613-w-sh-29,Mo-Su 09:00-22:00,Schlotzsky's,Q2244796
https://restaurants.subway.com/#14907396,subway,Subway,,Liberty Hill Williamson,TX,,US,+1 512-778-6321,https://restaurants.subway.com/united-states/tx/liberty-hill/13750-hwy-29-w,Mo-Su 09:00-22:00,Subway,Q244457
https://locations.tacobell.com/#38455697,taco_bell,Taco Bell,,Liberty Hill,TX,,US,+1 737-734-9332,https://locations.tacobell.com/tx/liberty-hill/11730-w--hwy-29.html,Mo-We 09:00-01:00; Th-Sa 09:00-02:00; Su 09:00-01:00,Taco Bell,Q752941
1370391,usps,LIBERTY HILL,,LIBERTY HILL,TX,,US,+1 512-515-6293,,Mo-Fr 08:00-16:30,United States Postal Service,Q668687
7864200007,usps_collection_boxes,USPS COLLECTION BOX - PO LOBBY,2655 RANCH ROAD 1869,LIBERTY HILL,TX,,US,,,,United States Postal Service,Q668687
7864200003,usps_collection_boxes,USPS COLLECTION BOX - PO LOBBY,2655 RR 1869,LIBERTY HILL,TX,,US,,,,United States Postal Service,Q668687
7864200001,usps_collection_boxes,USPS COLLECTION BOX - BLUE BOX,2655 RR 1869,LIBERTY HILL,TX,,US,,,,United States Postal Service,Q668687
7864200006,usps_collection_boxes,USPS COLLECTION BOX - BLUE BOX,2655 RR 1869,LIBERTY HILL,TX,,US,,,,United States Postal Service,Q668687
,visa,,,PORT ARTHUR,TX,,US,,,,,
,visa,,,PORT ARTHUR,TX,,US,,,,,
,visa,,,LIBERTY HILL,TX,,US,,,,,
,visa,,,LIBERTY HILL,TX,,US,,,,,
,visa,,,LIBERTY HILL,TX,,US,,,,,
,visa,,,LIBERTY HILL,TX,,US,,,,,
,visa,,,LIBERTY HILL,TX,,US,,,,,
,visa,,,LIBERTY HILL,TX,,US,,,,,
,visa,,,LIBERTY HILL,TX,,US,,,,,
,visa,,,LIBERTY HILL,TX,,US,,,,,
,visa,,,LIBERTY HILL,TX,,US,,,,,
,visa,,,LIBERTY HILL,TX,,US,,,,,
,visa,,,LIBERTY HILL,TX,,US,,,,,
,visa,,,LIBERTY HILL,TX,,US,,,,,
,visa,,,LIBERTY HILL,TX,,US,,,,,
,visa,,,LIBERTY HILL,TX,,US,,,,,
,visa,,,LIBERTY HILL,TX,,US,,,,,
,visa,,,LIBERTY HILL,TX,,US,,,,,
,visa,,,LIBERTY HILL,TX,,US,,,,,
,visa,,,LIBERTY HILL,TX,,US,,,,,
8367a04083231b7b983a40e80ffa07f7,western_union,CIRCLE K #41588,,Liberty Hill,TX,,US,+1 512-778-9323,https://location.westernunion.com/us/tx/liberty-hill/8367a04083231b7b983a40e80ffa07f7,,Western Union,Q861042
42d40e657643048d502078d991d10cdc,western_union,QUIKTRIP #4156,,Liberty Hill,TX,,US,+1 512-778-9165,https://location.westernunion.com/us/tx/liberty-hill/42d40e657643048d502078d991d10cdc,,Western Union,Q861042
172108e0e1ded4a74f9ad531ca026d14,western_union,LIBERTY HILL MART,,Liberty Hill,TX,,US,+1 512-548-6695,https://location.westernunion.com/us/tx/liberty-hill/172108e0e1ded4a74f9ad531ca026d14,Mo-Su 08:00-21:00,Western Union,Q861042
7c2ff33bcec7739875cdca6aa37048c8,western_union,LIBERTY HILL MART,,Liberty Hill,TX,,US,+1 512-548-6695,https://location.westernunion.com/us/tx/liberty-hill/7c2ff33bcec7739875cdca6aa37048c8,Mo-Su 08:00-21:00,Western Union,Q861042
