Ref,Spider,Name,Address,City,State,Zipcode,Country,Phone,Website,Hours,Brand,WikiData
https://stores.advanceautoparts.com/tx/lockhart/700-s-colorado-st,advance_auto_parts_us,Advance Auto Parts,,Lockhart,TX,,US,+1 512-213-2895,https://stores.advanceautoparts.com/tx/lockhart/700-s-colorado-st,Mo-Sa 07:30-21:00; Su 09:00-20:00,Advance Auto Parts,Q4686051
4163,anytime_fitness,Anytime Fitness,,Lockhart,TX,,US,+1 512-668-5107,https://www.anytimefitness.com/gyms/4163/lockhart-tx-78644/,,Anytime Fitness,Q4778364
1408,autozone_us,AutoZone Auto Parts Lockhart,,Lockhart,TX,,US,+1 512-398-6388,https://www.autozone.com/locations/tx/lockhart/625-s-colorado-st.html,Mo-Sa 07:30-21:00; Su 08:00-21:00,AutoZone,Q4826087
199921,bluerhino,Family Dollar #12370,,Lockhart,TX,,US,+1 830-351-6165,,,Blue Rhino,Q65681213
105983,bluerhino,Corner Food Mart (CKN),,Lockhart,TX,,US,+1 512-398-5200,,,Blue Rhino,Q65681213
196686,bluerhino,H-E-B #445,,LOCKHART,TX,,US,+1 512-398-2301,,,Blue Rhino,Q65681213
155554,bluerhino,Walgreens #11131,,Lockhart,TX,,US,+1 512-398-2920,,,Blue Rhino,Q65681213
171549,bluerhino,Family Dollar #06090,,Lockhart,TX,,US,+1 512-398-6020,,,Blue Rhino,Q65681213
192428,bluerhino,Murphy's #7523,,Lockhart,TX,,US,+1 512-398-3651,,,Blue Rhino,Q65681213
226434,bluerhino,Walmart #0292 - Vending,,Lockhart,TX,,US,+1 512-398-2333,,,Blue Rhino,Q65681213
210653,bluerhino,Dollar General #22074,,Lockhart,TX,,US,+1 737-263-4287,,,Blue Rhino,Q65681213
306244,chevron,Chevron Station #306244,531 W. SAN ANTONIO ST,LOCKHART,TX,,US,+1 512-398-5200,,,Chevron,Q319642
302399,chevron,Texaco Station #302399,1325 S COLORADO,LOCKHART,TX,,US,+1 512-398-9388,,,Chevron,Q319642
65922,citi,ATM MURPHY 7523 LOCKHART INSIDE,,Lockhart,TX,,US,,,,Citibank,Q857063
88638,citi,ATM Walgreens,,Lockhart,TX,,US,,,,Citibank,Q857063
334985468,clinical_pathology_laboratories,Lockhart,,Lockhart,TX,,US,,,,Clinical Pathology Laboratories,Q91911320
70145392,cricket_wireless,Cricket Wireless Authorized Retailer,,Lockhart,TX,,US,+1 512-668-4871,https://www.cricketwireless.com/stores/ll/US/TX/Lockhart/1711-S-Colorado-St,Mo-Sa 10:00-19:00; Su 12:00-18:00,Cricket Wireless,Q5184987
6258,dollartree,DollarTree,,Lockhart,TX,,US,+1 512-359-6196,,Mo-Su 09:00-22:00,Dollar Tree,Q5289230
22074,dollar_general,Dollar General,,Lockhart,TX,,US,+1 737-263-4287,https://www.dollargeneral.com/store-directory/tx/lockhart/22074,Mo-Su 08:00-22:00,Dollar General,Q145168
6602,dominos_pizza_us,Domino's Pizza,,Lockhart,TX,,US,+1 512-398-9090,https://pizza.dominos.com/texas/lockhart/1906-s-colorado-suite-103,Mo-Th 10:00-24:00; Fr-Sa 10:00-01:00; Su 10:00-24:00,Domino's,Q839466
https://www.edwardjones.com/us-en/financial-advisor/nic-irwin,edwardjones,Nic Irwin,,Lockhart,TX,,US,+1 512-398-7884,https://www.edwardjones.com/us-en/financial-advisor/nic-irwin,Mo-Fr 08:00-16:00,Edward Jones,Q5343830
E165B1,enterprise,Lockhart,,Lockhart,TX,,US,+1 512-398-4452,,,Enterprise Rent-A-Car,Q17085454
200328338,exxonmobil,DALE SUPER MERCADO INC,,LOCKHART,TX,,US,,https://www.exxon.com/en/find-station/exxon-lockhart-tx-dalesupermercadoinc-200328338,24/7,Exxon,Q109675651
200327676,exxonmobil,TX0304,,LOCKHART,TX,,US,+1 512-398-4050,https://www.exxon.com/en/find-station/exxon-lockhart-tx-tx0304-200327676,24/7,Exxon,Q109675651
32370,family_dollar_us,FAMILY DOLLAR #12370,,Lockhart,TX,,US,+1 737-355-0058,https://www.familydollar.com/locations/tx/lockhart/32370/,Mo-Sa 09:00-22:00; Su 09:00-21:00,Family Dollar,Q5433101
https://local.fedex.com/#25197816,fedex,,,Lockhart,TX,,US,+1 800-463-3339,https://local.fedex.com/en-us/tx/lockhart/bneab,,FedEx,Q459477
https://local.fedex.com/#27762475,fedex,FedEx Authorized ShipCenter,,Lockhart,TX,,US,+1 512-398-5352,https://local.fedex.com/en-us/tx/lockhart/58287,,FedEx,Q459477
301189,firestone_auto_care,Firestone Complete Auto Care,,Lockhart,TX,,US,+1 512-213-2123,https://local.firestonecompleteautocare.com/texas/lockhart/301-s-colorado-st/,,Firestone,Q420837
2545,first_cash,Cash America Pawn,,Lockhart,TX,,US,+1 512-376-3940,,,Cash America,Q5048636
Motorcraft819USAEnglish,ford,Lockhart Mtr Co Inc,,Texas,TX,,US,+1 512-398-3427,,,Ford,Q44294
https://www.ford.com/dealerships/dealer-details/tx/lockhart/lockhart-mtr-co-inc/,ford_dealers_us,Lockhart Mtr Co Inc,,Lockhart,TX,,US,+1 512-213-6723,https://www.ford.com/dealerships/dealer-details/tx/lockhart/lockhart-mtr-co-inc/,Mo-Fr 08:30-18:00; Sa 09:00-17:00,Ford Motor Company,Q44294
9258,fresenius_kidney_care_us,Fresenius Kidney Care Lockhart,,Lockhart,TX,,US,+1 800-881-5101,https://www.freseniuskidneycare.com/dialysis-centers/texas/9258,Mo 05:30-17:30; Tu 09:00-17:00; We 05:30-17:30; Th 09:00-17:00; Fr 05:30-17:30,,
https://salons.greatclips.com/us/tx/lockhart/1906-s-colorado-st,greatclips,Great Clips,,Lockhart,TX,,US,+1 512-359-4146,https://salons.greatclips.com/us/tx/lockhart/1906-s-colorado-st,Mo-Fr 08:30-19:30; Sa 09:00-18:00; Su 09:00-17:00,Great Clips,Q5598967
42540,h_r_block,H&R Block,,Lockhart,TX,,US,+1 512-398-5310,https://www.hrblock.com/local-tax-offices/texas/lockhart/1409-s-main/42540/,,H&R Block,Q5627799
https://locations.kfc.com/#11544256,kfc,Chicken Nuggets Near Lockhart,,Lockhart,TX,,US,,https://locations.kfc.com/tx/lockhart/1908-s-colorado-street/chickennugget,Mo-Su 10:00-22:00,KFC,Q524757
36860,little_free_library,Alexandra Walker #36860 Lockhart TX,,Lockhart,TX,,US,,,,Little Free Library,Q6650101
139285,little_free_library,Share the Joy Little Free Library #139285 Lockhart TX,,Lockhart,TX,,US,,,,Little Free Library,Q6650101
74417328,moneygram,LOCKHART DIAMOND LLC,,LOCKHART,TX,,US,+1 512-300-9897,,Mo-Sa 06:00-23:00; Su 07:00-23:00,MoneyGram,Q1944412
7523,murphy_usa_us,,,Lockhart,TX,,US,+1 512-398-3651,,Mo-Sa 05:00-23:30; Su 06:00-23:30,Murphy USA,Q19604459
https://locations.oreillyauto.com/tx/lockhart/check-engine-light-testing-642.html,oreilly,Your Lockhart O'Reilly Auto Parts Store,,Lockhart,TX,,US,+1 512-398-6653,https://locations.oreillyauto.com/tx/lockhart/check-engine-light-testing-642.html,Mo-Su 07:30-22:00,O'Reilly Auto Parts,Q7071951
https://locations.oreillyauto.com/tx/lockhart/wiper-installation-642.html,oreilly,Your Lockhart O'Reilly Auto Parts Store,,Lockhart,TX,,US,+1 512-398-6653,https://locations.oreillyauto.com/tx/lockhart/wiper-installation-642.html,Mo-Su 07:30-22:00,O'Reilly Auto Parts,Q7071951
https://locations.oreillyauto.com/tx/lockhart/battery-testing-642.html,oreilly,Your Lockhart O'Reilly Auto Parts Store,,Lockhart,TX,,US,+1 512-398-6653,https://locations.oreillyauto.com/tx/lockhart/battery-testing-642.html,Mo-Su 07:30-22:00,O'Reilly Auto Parts,Q7071951
https://locations.oreillyauto.com/tx/lockhart/autopartes-642.html,oreilly,Tu tienda O'Reilly Auto Parts en Lockhart,,Lockhart,TX,,US,+1 512-398-6653,https://locations.oreillyauto.com/tx/lockhart/autopartes-642.html,Mo-Su 07:30-22:00,O'Reilly Auto Parts,Q7071951
tx_lockhart_610-s-colorado,pizza_hut_us,610 S Colorado,,Lockhart,TX,,US,+1 512-398-3451,https://locations.pizzahut.com/tx/lockhart/610-s-colorado,,Pizza Hut,Q191615
https://locations.schlotzskys.com/#7681,schlotzskys,Schlotzsky's,,Caldwell County,TX,,US,+1 512-668-5298,https://locations.schlotzskys.com/tx/lockhart/111-north-colorado-street,Mo-Su 10:00-22:00,Schlotzsky's,Q2244796
2341,snap_fitness,"Lockhart, TX",605 State Park Rd,Lockhart,TX,,US,+1 512-398-2454,https://www.snapfitness.com/us/gyms/lockhart-tx,24/7,Snap Fitness,Q7547254
https://restaurants.subway.com/#14915439,subway,Subway,,Lockhart Caldwell,TX,,US,+1 512-398-3011,https://restaurants.subway.com/united-states/tx/lockhart/320-s-colorado,Mo-Su 09:00-22:00,Subway,Q244457
https://locations.tacobell.com/#6146381,taco_bell,Taco Bell,,Lockhart,TX,,US,+1 512-398-5438,https://locations.tacobell.com/tx/lockhart/1400-s-colorado.html,Mo-Su 07:00-02:00,Taco Bell,Q752941
7224,upsstore,Lockhart,1711 S Colorado Ste E,Lockhart,TX,,US,+1 512-668-4490,https://locations.theupsstore.com/tx/lockhart/1711-s-colorado,,UPS Store,Q7771029
1370741,usps,LOCKHART,,LOCKHART,TX,,US,+1 512-376-9620,,Mo-Fr 08:00-16:30; Sa 09:00-12:00,United States Postal Service,Q668687
7864400003,usps_collection_boxes,USPS COLLECTION BOX - BLUE BOX,117 S BLANCO ST,LOCKHART,TX,,US,,,,United States Postal Service,Q668687
7864400021,usps_collection_boxes,USPS COLLECTION BOX - PO LOBBY,217 W MARKET ST,LOCKHART,TX,,US,,,,United States Postal Service,Q668687
7864400023,usps_collection_boxes,USPS COLLECTION BOX - PO LOBBY,217 W MARKET ST,LOCKHART,TX,,US,,,,United States Postal Service,Q668687
7864400025,usps_collection_boxes,USPS COLLECTION BOX - PO LOBBY,217 W MARKET ST,LOCKHART,TX,,US,,,,United States Postal Service,Q668687
7864400009,usps_collection_boxes,USPS COLLECTION BOX - BLUE BOX,100 E MARKET ST,LOCKHART,TX,,US,,,,United States Postal Service,Q668687
7864400000,usps_collection_boxes,USPS COLLECTION BOX - BLUE BOX,119 E SAN ANTONIO ST,LOCKHART,TX,,US,,,,United States Postal Service,Q668687
7864400024,usps_collection_boxes,USPS COLLECTION BOX - BLUE BOX,403 S COLORADO ST,LOCKHART,TX,,US,,,,United States Postal Service,Q668687
7864400011,usps_collection_boxes,USPS COLLECTION BOX - BLUE BOX,1703 S COLORADO ST,LOCKHART,TX,,US,,,,United States Postal Service,Q668687
7864400018,usps_collection_boxes,USPS COLLECTION BOX - BLUE BOX,1206 S COLORADO ST,LOCKHART,TX,,US,,,,United States Postal Service,Q668687
7864400016,usps_collection_boxes,USPS COLLECTION BOX - BLUE BOX,1904 S COLORADO ST,LOCKHART,TX,,US,,,,United States Postal Service,Q668687
7864400005,usps_collection_boxes,USPS COLLECTION BOX - BLUE BOX,1403 E FM 20,LOCKHART,TX,,US,,,,United States Postal Service,Q668687
0000002617,valero,LOCKHART GROCERY,,LOCKHART,TX,,US,+1 512-398-4996,https://locations.valero.com/en-us/LocationDetails/Index/1317-NORTH-COLORADO-ST/0000002617,,Valero,Q1283291
0000027581,valero,Pic-n-Pac 18,,LOCKHART,TX,,US,+1 512-668-4110,https://locations.valero.com/en-us/LocationDetails/Index/2111-W-SAN-ANTONIO-ST/0000027581,,Valero,Q1283291
0000030646,valero,Pic N Pac #6,,Lockhart,TX,,US,,https://locations.valero.com/en-us/LocationDetails/Index/835-S-COLORADO-STREET/0000030646,,Valero,Q1283291
,visa,,,ROUND ROCK,TX,,US,,,,,
,visa,,,ROUND ROCK,TX,,US,,,,,
,visa,,,LOCKHART,TX,,US,,,,,
,visa,,,LOCKHART,TX,,US,,,,,
,visa,,,LOCKHART,TX,,US,,,,,
,visa,,,LOCKHART,TX,,US,,,,,
,visa,,,LOCKHART,TX,,US,,,,,
,visa,,,LOCKHART,TX,,US,,,,,
,visa,,,LOCKHART,TX,,US,,,,,
,visa,,,LOCKHART,TX,,US,,,,,
,visa,,,LOCKHART,TX,,US,,,,,
,visa,,,LOCKHART,TX,,US,,,,,
,visa,,,LOCKHART,TX,,US,,,,,
,visa,,,LOCKHARD,TX,,US,,,,,
,visa,,,LOCKHART,TX,,US,,,,,
,visa,,,LOCKHART,TX,,US,,,,,
,visa,,,LOCKHART,TX,,US,,,,,
,visa,,,LOCKHART,TX,,US,,,,,
,visa,,,LOCKHART,TX,,US,,,,,
,visa,,,LOCKHART,TX,,US,,,,,
,visa,,,LOCKHART,TX,,US,,,,,
,visa,,,LOCKHART,TX,,US,,,,,
,visa,,,LOCKHART,TX,,US,,,,,
,visa,,,LOCKHART,TX,,US,,,,,
,visa,,,LOCKHART,TX,,US,,,,,
,visa,,,LOCKHART,TX,,US,,,,,
,visa,,,LOCKHART,TX,,US,,,,,
,visa,,,LOCKHART,TX,,US,,,,,
,visa,,,LOCKHART,TX,,US,,,,,
,visa,,,LOCKHART,TX,,US,,,,,
,visa,,,LOCKHART,TX,,US,,,,,
,visa,,,LOCKHART,TX,,US,,,,,
,visa,,,LOCKHART,TX,,US,,,,,
,visa,,,LOCKHART,TX,,US,,,,,
,visa,,,SAN MARCOS,TX,,US,,,,,
,visa,,,SAN MARCOS,TX,,US,,,,,
,visa,,,GOLDTHWAITE,TX,,US,,,,,
https://www.walgreens.com/locator/walgreens-200+s+colorado+st-lockhart-tx-78644/id=11131,walgreens,Walgreens,,Lockhart,TX,,US,+1 512-398-2920,https://www.walgreens.com/locator/walgreens-200+s+colorado+st-lockhart-tx-78644/id=11131,Mo-Su 07:00-22:00,Walgreens,Q1591889
8afd31ac48f3264ee6c4f4db639cf59f,western_union,CAMBIO EXPRESS DALE,,Lockhart,TX,,US,+1 512-668-4939,https://location.westernunion.com/us/tx/lockhart/8afd31ac48f3264ee6c4f4db639cf59f,Mo-Su 09:00-21:00,Western Union,Q861042
4d585007d5fba1a3fbad35f218d6f13d,western_union,WALMART #000292,,Lockhart,TX,,US,+1 512-398-2333,https://location.westernunion.com/us/tx/lockhart/4d585007d5fba1a3fbad35f218d6f13d,Mo-Su 07:00-21:00,Western Union,Q861042
a44c3e98268d4f3c3bfb620ee276dc9c,western_union,LION MART # 2,,Lockhart,TX,,US,+1 512-668-3007,https://location.westernunion.com/us/tx/lockhart/a44c3e98268d4f3c3bfb620ee276dc9c,Mo-Su 06:00-23:00,Western Union,Q861042
https://locations.whataburger.com/tx/lockhart/100-state-park-rd.html,whataburger,State Park & Hwy 183,100 STATE PARK RD,LOCKHART,TX,,US,,https://locations.whataburger.com/tx/lockhart/100-state-park-rd.html,,Whataburger,Q376627
525,world_finance_us,,"100 S Commerce St, Lockhart, TX, 78644",Lockhart,TX,,US,+1 512-398-4434,https://www.loansbyworld.com/branches/branch-525,Mo-Fr 09:00-17:30; Sa 09:00-12:00,World Finance,Q3569971
