Ref,Spider,Name,Address,City,State,Zipcode,Country,Phone,Website,Hours,Brand,WikiData
,visa,,,MT HOLL,NJ,,US,,,,,
,visa,,,SPRINGFIELD,NJ,,US,,,,,
,visa,,,MOUNT HOLLY,NJ,,US,,,,,
,visa,,,MOUNT HOLLY,NJ,,US,,,,,
,visa,,,EASTAMPTON,NJ,,US,,,,,
,visa,,,MOUNT HOLLY,NJ,,US,,,,,
,visa,,,MT HOLLY,NJ,,US,,,,,
,visa,,,EASTAMPTON,NJ,,US,,,,,
,visa,,,EASTHAMPTON,NJ,,US,,,,,
,visa,,,EASTAMPTON,NJ,,US,,,,,
,visa,,,MOUNT HOLLY,NJ,,US,,,,,
,visa,,,MT HOLLY,NJ,,US,,,,,
,visa,,,MT HOLLY,NJ,,US,,,,,
,visa,,,MOUNT HOLLY,NJ,,US,,,,,
,visa,,,MT HOLLY,NJ,,US,,,,,
,visa,,,EASTAMPTON,NJ,,US,,,,,
,visa,,,MOUNT HOLLY,NJ,,US,,,,,
,visa,,,MOUNT HOLLY,NJ,,US,,,,,
,visa,,,MT HOLLY,NJ,,US,,,,,
,visa,,,MT HOLLY,NJ,,US,,,,,
,visa,,,MOUNT HOLLY,NJ,,US,,,,,
,visa,,,MOUNT HOLLY,NJ,,US,,,,,
,visa,,,MOUNT HOLLY,NJ,,US,,,,,
,visa,,,MOUNT HOLLY,NJ,,US,,,,,
,visa,,,MOUNT HOLLY,NJ,,US,,,,,
,visa,,,MT HOLLY,NJ,,US,,,,,
,visa,,,MT. HOLLY,NJ,,US,,,,,
,visa,,,MOUNT HOLLY,NJ,,US,,,,,
,visa,,,MT. HOLLY,NJ,,US,,,,,
,visa,,,MOUNT HOLLY,NJ,,US,,,,,
,visa,,,MT HOLLY,NJ,,US,,,,,
,visa,,,MT. HOLLY,NJ,,US,,,,,
,visa,,,MOUNT HOLLY,NJ,,US,,,,,
,visa,,,LUMBERTON,NJ,,US,,,,,
,visa,,,LUMBERTON,NJ,,US,,,,,
,visa,,,MT. HOLLY,NJ,,US,,,,,
,visa,,,MOUNT HOLLY,NJ,,US,,,,,
,visa,,,MT. HOLLY,NJ,,US,,,,,
,visa,,,MT HOLLY,NJ,,US,,,,,
,visa,,,WESTAMPTON,NJ,,US,,,,,
,visa,,,WESTAMPTON,NJ,,US,,,,,
,visa,,,WESTAMPTON,NJ,,US,,,,,
,visa,,,WESTHAMPTON,NJ,,US,,,,,
,visa,,,WESTAMPTON,NJ,,US,,,,,
,visa,,,WESTAMPTON,NJ,,US,,,,,
,visa,,,MT HOLLY,NJ,,US,,,,,
,visa,,,WESTHAMPTON,NJ,,US,,,,,
,visa,,,WESTAMPTON,NJ,,US,,,,,
,visa,,,MT HOLLY,NJ,,US,,,,,
,visa,,,WESTHAMPTON,NJ,,US,,,,,
,visa,,,WESTAMPTON,NJ,,US,,,,,
,visa,,,WESTAMPTON,NJ,,US,,,,,
,visa,,,WESTHAMTON,NJ,,US,,,,,
