Ref,Spider,Name,Address,City,State,Zipcode,Country,Phone,Website,Hours,Brand,WikiData
https://www.avis.com/en/locations/us/mo/saint-louis/l3u,avis,Avis U S A Saint Louis,,Saint Louis,MO,,US,+1 314-588-9452,https://www.avis.com/en/locations/us/mo/saint-louis/l3u,Mo-Fr 07:00-18:00; Sa 08:00-13:00; Su 09:00-13:00,Avis,Q791136
https://www.avis.com/en/locations/us/mo/saint-louis/lhst1,avis,Avis U S A Saint Louis,,Saint Louis,MO,,US,+1 314-988-9452,https://www.avis.com/en/locations/us/mo/saint-louis/lhst1,Mo-Fr 07:00-15:00; Sa 08:00-12:00; Su 09:00-12:00,Avis,Q791136
120078,bp,BP,,St Louis,MO,,US,+1 314-621-1140,,24/7,BP,Q152057
lus,caesars,Horseshoe St. Louis,,St. Louis,MO,,US,+1 314-881-7777,https://www.caesars.com/horseshoe-st-louis,,Caesars Entertainment,Q18636524
40158950,chase_us,Kiener Plaza - New branch,,St Louis,MO,,US,+1 314-236-9960,https://locator.chase.com/mo/st-louis/101-n-broadway,Mo-Fr 09:00-17:00,Chase,Q524629
80806,citi,ATM STIFEL BANK,,St Louis,MO,,US,,,,Citibank,Q857063
https://locations.condadotacos.com/#97808068,condado_tacos_us,Condado Ballpark Village,,,MO,,US,+1 314-899-5155,https://locations.condadotacos.com/mo/601-clark-ave,Mo-Fr 15:00-18:00,Condado Tacos,Q118640152
missouri-saint-louis,deloitte,Deloitte - St. Louis,,St. Louis,MO,,US,+1 314-342-4900,https://www2.deloitte.com/us/en/footerlinks/office-locator/missouri/saint-louis.html,,Deloitte,Q491748
https://www.edwardjones.com/us-en/financial-advisor/jeremy-yoder,edwardjones,Jeremy C Yoder,,St Louis,MO,,US,+1 314-534-0303,https://www.edwardjones.com/us-en/financial-advisor/jeremy-yoder,Mo-Th 08:30-16:00,Edward Jones,Q5343830
E1012B,enterprise,Downtown St. Louis Hyatt Regency Hotel,,Saint Louis,MO,,US,+1 314-436-7100,,,Enterprise Rent-A-Car,Q17085454
stlddhf-the-pennywell-st-louis-downtown-a-hilton-hotel,hilton,"The Pennywell St.Louis Downtown, a Hilton Hotel",,,MO,,US,+1 314-436-0002,https://www.hilton.com/ar/hotels/stlddhf-the-pennywell-st-louis-downtown-a-hilton-hotel/,,Hilton Hotels & Resorts,Q598884
stlbvhf-hilton-st-louis-at-the-ballpark,hilton,Hilton St. Louis at the Ballpark,,,MO,,US,+1 314-421-1776,https://www.hilton.com/ar/hotels/stlbvhf-hilton-st-louis-at-the-ballpark/,,Hilton Hotels & Resorts,Q598884
L2NvbnRlbnQvZGFtL2psbC1jb20vbW9kZWxzL2xvY2F0aW9ucy9lbi9zdC0tbG91aXM,jll,St. Louis,,St. Louis,MO,,US,+1 314-338-2080,https://www.us.jll.com/en/locations/midwest/st-louis,,JLL,Q1703389
https://www.publicstorage.com/self-storage-mo-st-louis/978.html,public_storage_us,Public Storage,,St Louis,MO,,US,+1 314-499-1289,https://www.publicstorage.com/self-storage-mo-st-louis/978.html,,Public Storage,Q1156045
https://locations.tacobell.com/#6143240,taco_bell,Taco Bell,,Saint Louis,MO,,US,+1 314-241-0223,https://locations.tacobell.com/mo/saint-louis/501-chouteau.html,Mo-Th 08:00-03:00; Fr-Sa 08:00-04:00; Su 08:00-03:00,Taco Bell,Q752941
6310200066,usps_collection_boxes,USPS COLLECTION BOX - BLUE BOX,1 PRODUCE ROW,SAINT LOUIS,MO,,US,,,,United States Postal Service,Q668687
6310200099,usps_collection_boxes,USPS COLLECTION BOX - BLUE BOX,800 MARKET ST,SAINT LOUIS,MO,,US,,,,United States Postal Service,Q668687
6310200052,usps_collection_boxes,USPS COLLECTION BOX - BLUE BOX,2200 N BROADWAY,SAINT LOUIS,MO,,US,,,,United States Postal Service,Q668687
6310200071,usps_collection_boxes,USPS COLLECTION BOX - BLUE BOX,1932 N BROADWAY,SAINT LOUIS,MO,,US,,,,United States Postal Service,Q668687
6310200064,usps_collection_boxes,USPS COLLECTION BOX - BLUE BOX,1501 N BROADWAY,SAINT LOUIS,MO,,US,,,,United States Postal Service,Q668687
6310200058,usps_collection_boxes,USPS COLLECTION BOX - BLUE BOX,812 COLLINS ST,SAINT LOUIS,MO,,US,,,,United States Postal Service,Q668687
6310200089,usps_collection_boxes,USPS COLLECTION BOX - BLUE BOX,801 N BROADWAY,SAINT LOUIS,MO,,US,,,,United States Postal Service,Q668687
6310200063,usps_collection_boxes,USPS COLLECTION BOX - BLUE BOX,701 N 2ND ST,SAINT LOUIS,MO,,US,,,,United States Postal Service,Q668687
6310200032,usps_collection_boxes,USPS COLLECTION BOX - BLUE BOX,330 N 4TH ST,SAINT LOUIS,MO,,US,,,,United States Postal Service,Q668687
6310200018,usps_collection_boxes,USPS COLLECTION BOX - BLUE BOX,220 N 4TH ST,SAINT LOUIS,MO,,US,,,,United States Postal Service,Q668687
6310200077,usps_collection_boxes,USPS COLLECTION BOX - BLUE BOX,200 N BROADWAY,SAINT LOUIS,MO,,US,,,,United States Postal Service,Q668687
6310200096,usps_collection_boxes,USPS COLLECTION BOX - BLUE BOX,1100 CLARK AVE,SAINT LOUIS,MO,,US,,,,United States Postal Service,Q668687
,visa,,,ST LOUIS,MO,,US,,,,,
,visa,,,ST LOUIS,MO,,US,,,,,
,visa,,,ST. LOUIS,MO,,US,,,,,
,visa,,,ST. LOUIS CITY,MO,,US,,,,,
,visa,,,ST LOUIS,MO,,US,,,,,
,visa,,,ST LOUIS,MO,,US,,,,,
,visa,,,ST LOUIS,MO,,US,,,,,
,visa,,,ST. LOUIS,MO,,US,,,,,
,visa,,,ST LOUIS,MO,,US,,,,,
,visa,,,ST LOUIS,MO,,US,,,,,
,visa,,,SAINT LOUIS,MO,,US,,,,,
,visa,,,SAINT LOUIS,MO,,US,,,,,
,visa,,,SAINT LOUIS,MO,,US,,,,,
,visa,,,SAINT LOUIS,MO,,US,,,,,
,visa,,,ST. LOUIS,MO,,US,,,,,
,visa,,,ST LOUIS,MO,,US,,,,,
,visa,,,ST LOUIS,MO,,US,,,,,
,visa,,,ST. LOUIS,MO,,US,,,,,
,visa,,,ST LOUIS,MO,,US,,,,,
,visa,,,ST LOUIS,MO,,US,,,,,
,visa,,,ST. LOUIS,MO,,US,,,,,
,visa,,,ST LOUIS,MO,,US,,,,,
,visa,,,ST LOUIS,MO,,US,,,,,
,visa,,,ST LOUIS,MO,,US,,,,,
,visa,,,SAINT LOUIS,MO,,US,,,,,
,visa,,,ST LOUIS,MO,,US,,,,,
,visa,,,ST. LOUIS,MO,,US,,,,,
,visa,,,ST. LOUIS,MO,,US,,,,,
,visa,,,ST LOUIS,MO,,US,,,,,
,visa,,,ST LOUIS,MO,,US,,,,,
,visa,,,ST. LOUIS,MO,,US,,,,,
,visa,,,ST. LOUIS,MO,,US,,,,,
,visa,,,ST. LOUIS,MO,,US,,,,,
,visa,,,ST LOUIS,MO,,US,,,,,
,visa,,,ST. LOUIS,MO,,US,,,,,
,visa,,,ST LOUIS,MO,,US,,,,,
,visa,,,ST. LOUIS,MO,,US,,,,,
,visa,,,ST. LOUIS,MO,,US,,,,,
,visa,,,ST. LOUIS,MO,,US,,,,,
,visa,,,ST LOUIS,MO,,US,,,,,
,visa,,,ST LOUIS,MO,,US,,,,,
,visa,,,ST. LOUIS,MO,,US,,,,,
,visa,,,ST. LOUIS,MO,,US,,,,,
,visa,,,ST. LOUIS,MO,,US,,,,,
,visa,,,ST LOUIS,MO,,US,,,,,
,visa,,,ST. LOUIS,MO,,US,,,,,
,visa,,,ST. LOUIS,MO,,US,,,,,
,visa,,,ST. LOUIS,MO,,US,,,,,
