Ref,Spider,Name,Address,City,State,Zipcode,Country,Phone,Website,Hours,Brand,WikiData
1312,autozone_us,AutoZone Auto Parts Shreveport,,Shreveport,LA,,US,+1 318-635-5849,https://www.autozone.com/locations/la/shreveport/3428-greenwood-rd.html,Mo-Sa 07:30-21:00; Su 08:00-20:00,AutoZone,Q4826087
https://www.avis.com/en/locations/us/la/shreveport/sv5,avis,Avis U S A Shreveport,,Shreveport,LA,,US,+1 318-631-1839,https://www.avis.com/en/locations/us/la/shreveport/sv5,Mo-Fr 09:00-16:30,Avis,Q791136
https://www.avis.com/en/locations/us/la/shreveport/shv,avis,Avis U S A Shreveport Airport,,Shreveport,LA,,US,+1 318-631-7201,https://www.avis.com/en/locations/us/la/shreveport/shv,Mo-Fr 08:00-00:00; Sa 08:00-22:00; Su 08:00-23:00,Avis,Q791136
165139,bluerhino,Family Dollar #11471,,Shreveport,LA,,US,+1 318-918-1786,,,Blue Rhino,Q65681213
199864,bluerhino,"Piggly Wiggly #3048 (SEP, Inc.) (SAME)",,Shreveport,LA,,US,+1 318-636-9442,,,Blue Rhino,Q65681213
A036,capital_one_us,GREENWOOD,,SHREVEPORT,LA,,US,,https://locations.capitalone.com/atm/LA/shreveport-atm-A036,24/7,Capital One,Q1034654
41382,capital_one_us,Greenwood,,Shreveport,LA,,US,+1 318-677-5155,https://locations.capitalone.com/bank/LA/Shreveport-Greenwood-branch-41382,Mo-Th 09:00-16:00; Fr 09:00-17:00; Sa 09:00-12:00,Capital One,Q1034654
2039435,chase_us,Greenwood - New branch,,Shreveport,LA,,US,+1 318-226-2702,https://locator.chase.com/la/shreveport/3721-greenwood-rd,Mo-Fr 09:00-17:00; Sa 09:00-13:00,Chase,Q524629
381061,chevron,Chevron Station #381061,5203 MONKHOUSE DRIVE,SHREVEPORT,LA,,US,+1 318-631-0099,,,Chevron,Q319642
66673,citi,ATM NORTHWEST LOUISIANA FEDERAL CREDIT UNION,,Shreveport,LA,,US,,,,Citibank,Q857063
38101,citi,ATM Capital One Branch - Greenwood,,Shreveport,LA,,US,,,,Citibank,Q857063
38103,citi,ATM Capital One Branch - GREENWOOD,,Shreveport,LA,,US,,,,Citibank,Q857063
38104,citi,ATM Capital One Branch - GREENWOOD,,Shreveport,LA,,US,,,,Citibank,Q857063
38100,citi,ATM Capital One Branch - GREENWOOD,,Shreveport,LA,,US,,,,Citibank,Q857063
38102,citi,ATM Capital One Branch - Greenwood,,Shreveport,LA,,US,,,,Citibank,Q857063
38105,citi,ATM Capital One Branch - GREENWOOD,,Shreveport,LA,,US,,,,Citibank,Q857063
90472,citi,ATM Walgreens,,Shreveport,LA,,US,,,,Citibank,Q857063
om_la_shreveport_3723-jewella-avenue,cititrends,Citi Trends,,Shreveport,LA,,US,+1 318-588-6180,https://locations.cititrends.com/la/shreveport/3723-jewella-avenue.html,Mo 10:00-21:00; Tu 10:00-21:00; We 10:00-21:00; Th 10:00-21:00; Fr 10:00-21:00; Sa 10:00-21:00; Su 12:00-18:00,Citi Trends,Q5122438
80338223,cricket_wireless,Cricket Wireless Authorized Retailer,,Shreveport,LA,,US,+1 318-670-3081,https://www.cricketwireless.com/stores/ll/US/LA/Shreveport/3701-Greenwood-Rd,Mo-Sa 10:00-19:00; Su 12:00-17:00,Cricket Wireless,Q5184987
E1510R,enterprise,Shreveport Monkhouse Dr.,,Shreveport,LA,,US,+1 318-525-9700,,,Enterprise Rent-A-Car,Q17085454
SHVT61,enterprise,Shreveport Regional Airport,,Shreveport,LA,,US,+1 318-631-8999,,,Enterprise Rent-A-Car,Q17085454
31471,family_dollar_us,FAMILY DOLLAR #11471,,Shreveport,LA,,US,+1 318-642-9384,https://www.familydollar.com/locations/la/shreveport/31471/,Mo-Su 08:00-22:00,Family Dollar,Q5433101
2775,first_cash,Cash America Pawn,,Shreveport,LA,,US,+1 318-636-6983,,,Cash America,Q5048636
https://office.jacksonhewitt.com/#27577473,jackson_hewitt,Jackson Hewitt,,Shreveport,LA,,US,+1 877-580-1040,https://office.jacksonhewitt.com/tax-preparation-services-locations/en/la/shreveport/3610-jewella-ave/12545,Mo-Fr 09:00-21:00; Sa-Su 09:00-17:00,Jackson Hewitt,Q6117132
SHVRI,marriott,Residence Inn Shreveport Airport,,Shreveport,LA,,US,+1 318-635-8000,https://www.marriott.com/SHVRI,,Residence Inn by Marriott,Q7315394
507,mightyflame,AIRPORT CHEVRON,,SHREVEPORT,LA,,US,+1 318-606-2019,,,Mighty Flame,
1022171,national,Shreveport Regional Airport,,Shreveport,LA,,US,+1 844-370-8928,,,NATIONAL,Q1424142
https://locations.oreillyauto.com/la/shreveport/check-engine-light-testing-1205.html,oreilly,Your Shreveport O'Reilly Auto Parts Store,,Shreveport,LA,,US,+1 318-631-7484,https://locations.oreillyauto.com/la/shreveport/check-engine-light-testing-1205.html,Mo-Sa 07:30-21:00; Su 08:00-20:00,O'Reilly Auto Parts,Q7071951
https://locations.oreillyauto.com/la/shreveport/wiper-installation-1205.html,oreilly,Your Shreveport O'Reilly Auto Parts Store,,Shreveport,LA,,US,+1 318-631-7484,https://locations.oreillyauto.com/la/shreveport/wiper-installation-1205.html,Mo-Sa 07:30-21:00; Su 08:00-20:00,O'Reilly Auto Parts,Q7071951
https://locations.oreillyauto.com/la/shreveport/autopartes-1205.html,oreilly,Tu tienda O'Reilly Auto Parts en Shreveport,,Shreveport,LA,,US,+1 318-631-7484,https://locations.oreillyauto.com/la/shreveport/autopartes-1205.html,Mo-Sa 07:30-21:00; Su 08:00-20:00,O'Reilly Auto Parts,Q7071951
https://locations.oreillyauto.com/la/shreveport/battery-testing-1205.html,oreilly,Your Shreveport O'Reilly Auto Parts Store,,Shreveport,LA,,US,+1 318-631-7484,https://locations.oreillyauto.com/la/shreveport/battery-testing-1205.html,Mo-Sa 07:30-21:00; Su 08:00-20:00,O'Reilly Auto Parts,Q7071951
504,piggly_wiggly_us,Piggly Wiggly,,Shreveport,LA,,US,+1 318-636-9442,,,Piggly Wiggly,Q3388303
503,piggly_wiggly_us,Piggly Wiggly,,Shreveport,LA,,US,+1 318-686-6030,,,Piggly Wiggly,Q3388303
la_shreveport_3701-greenwood-rd,pizza_hut_us,3701 Greenwood Rd,,Shreveport,LA,,US,+1 318-635-9582,https://locations.pizzahut.com/la/shreveport/3701-greenwood-rd,,Pizza Hut,Q191615
restaurant_81754,popeyes_us_fr,Popeyes,"3565 Greenwood Rd Shreveport, Louisiana 71109 - USA",Shreveport,LA,,US,+1 318-635-4240,https://www.popeyes.com/store-locator/store/restaurant_81754,Mo-Th 10:00-22:00; Fr-Sa 10:00-23:00; Su 10:00-22:00,Popeyes,Q1330910
2547,rentacenter,Rent-A-Center,,Shreveport,LA,,US,+1 318-636-3413,https://locations.rentacenter.com/louisiana/shreveport/3725-jewella-ave/,Mo-Sa 10:00-18:00,Rent-A-Center,Q7313497
https://restaurants.subway.com/#14911288,subway,Subway,,Shreveport Caddo,LA,,US,+1 318-635-9116,https://restaurants.subway.com/united-states/la/shreveport/3705-greenwood-rd,Mo-Su 09:00-22:00,Subway,Q244457
8002473701,sunoco_us,Sunoco,,SHREVEPORT,LA,,US,,,,Sunoco,Q1423218
7110900014,usps_collection_boxes,USPS COLLECTION BOX - BLUE BOX,4101 HOLLYWOOD AVE,SHREVEPORT,LA,,US,,,,United States Postal Service,Q668687
7110900011,usps_collection_boxes,USPS COLLECTION BOX - BLUE BOX,3730 LAKESHORE DR,SHREVEPORT,LA,,US,,,,United States Postal Service,Q668687
7110900006,usps_collection_boxes,USPS COLLECTION BOX - BLUE BOX,3749 JEWELLA AVE,SHREVEPORT,LA,,US,,,,United States Postal Service,Q668687
,visa,,,SHREVEPORT,LA,,US,,,,,
,visa,,,SHREVEPORT,LA,,US,,,,,
,visa,,,SHREVEPORT,LA,,US,,,,,
,visa,,,SHREVEPORT,LA,,US,,,,,
,visa,,,SHREVEPORT,LA,,US,,,,,
,visa,,,SHREVEPORT,LA,,US,,,,,
,visa,,,SHREVEPORT,LA,,US,,,,,
,visa,,,SHREVEPORT,LA,,US,,,,,
,visa,,,SHREVEPORT,LA,,US,,,,,
,visa,,,SHREVEPORT,LA,,US,,,,,
,visa,,,SHREVEPORT,LA,,US,,,,,
,visa,,,SHREVEPORT,LA,,US,,,,,
,visa,,,SHREVEPORT,LA,,US,,,,,
,visa,,,SHREVEPORT,LA,,US,,,,,
,visa,,,SHREVEPORT,LA,,US,,,,,
,visa,,,SHREVEPORT,LA,,US,,,,,
,visa,,,SHREVEPORT,LA,,US,,,,,
,visa,,,SHREVEPORT,LA,,US,,,,,
,visa,,,SHREVEPORT,LA,,US,,,,,
,visa,,,SHREVEPORT,LA,,US,,,,,
,visa,,,SHREVEPORT,LA,,US,,,,,
,visa,,,SHREVEPORT,LA,,US,,,,,
,visa,,,SHREVEPORT,LA,,US,,,,,
,visa,,,SHREVPORT,LA,,US,,,,,
,visa,,,SHREVEPORT,LA,,US,,,,,
,visa,,,SHREVEPORT,LA,,US,,,,,
,visa,,,SHREVEPORT,LA,,US,,,,,
,visa,,,SHREVEPORT,LA,,US,,,,,
,visa,,,SHREVEPORT,LA,,US,,,,,
,visa,,,SHREVEPORT,LA,,US,,,,,
,visa,,,SHREVEPORT,LA,,US,,,,,
,visa,,,SHREVEPORT,LA,,US,,,,,
,visa,,,SHREVEPORT,LA,,US,,,,,
,visa,,,SHREVEPORT,LA,,US,,,,,
,visa,,,SHREVPORT,LA,,US,,,,,
,visa,,,SHREVEPORT,LA,,US,,,,,
,visa,,,SHREVEPORT,LA,,US,,,,,
,visa,,,SHREVEPORT,LA,,US,,,,,
,visa,,,SHREVEPORT,LA,,US,,,,,
,visa,,,SHREVEPORT,LA,,US,,,,,
,visa,,,SHREVEPORT,LA,,US,,,,,
,visa,,,SHREVEPORT,LA,,US,,,,,
,visa,,,SHREVEPORT,LA,,US,,,,,
,visa,,,SHREVEPORT,LA,,US,,,,,
,visa,,,SHREVEPORT,LA,,US,,,,,
,visa,,,SHREVEPORT,LA,,US,,,,,
,visa,,,SHREVEPORT,LA,,US,,,,,
,visa,,,SHREVEPORT,LA,,US,,,,,
,visa,,,SHREVEPORT,LA,,US,,,,,
,visa,,,SHREVEPORT,LA,,US,,,,,
,visa,,,SHREVEPORT,LA,,US,,,,,
,visa,,,SHREVEPORT,LA,,US,,,,,
,visa,,,SHREVEPORT,LA,,US,,,,,
,visa,,,SHREVEPORT,LA,,US,,,,,
,visa,,,SHREVEPORT,LA,,US,,,,,
410,waffle_house_us,Waffle House #410,,SHREVEPORT,LA,,US,+1 318-635-3060,https://locations.wafflehouse.com/shreveport-la-410,24/7,Waffle House,Q1701206
https://www.walgreens.com/locator/walgreens-3555+greenwood+rd-shreveport-la-71109/id=5181,walgreens,Walgreens,,Shreveport,LA,,US,+1 318-525-0144,https://www.walgreens.com/locator/walgreens-3555+greenwood+rd-shreveport-la-71109/id=5181,Mo-Su 09:00-21:00,Walgreens,Q1591889
https://locations.whataburger.com/la/shreveport/4010-jewella-ave.html,whataburger,Jewella & Hwy 80,4010 JEWELLA AVE,SHREVEPORT,LA,,US,,https://locations.whataburger.com/la/shreveport/4010-jewella-ave.html,,Whataburger,Q376627
