Ref,Spider,Name,Address,City,State,Zipcode,Country,Phone,Website,Hours,Brand,WikiData
207803,bluerhino,Food Lion #2831,,Hawkinsville,GA,,US,+1 478-783-3250,,,Blue Rhino,Q65681213
238201,bluerhino,Circle K #2745076,,Hawkinsville,GA,,US,+1 478-783-2230,,,Blue Rhino,Q65681213
193788,bluerhino,Family Dollar #358,,HAWKINSVILLE,GA,,US,+1 478-795-9191,,,Blue Rhino,Q65681213
154307,bluerhino,Walgreens #12319,,Hawkinsville,GA,,US,+1 478-783-4700,,,Blue Rhino,Q65681213
87208,citi,ATM Walgreens,,Hawkinsville,GA,,US,,,,Citibank,Q857063
41039,citi,ATM Circle K,,Hawkinsville,GA,,US,,,,Citibank,Q857063
5787,dominos_pizza_us,Domino's Pizza,,Hawkinsville,GA,,US,+1 478-309-2100,https://pizza.dominos.com/georgia/hawkinsville/50-surrey-plaza,Mo-Th 10:30-24:00; Fr-Sa 10:30-01:00; Su 10:30-24:00,Domino's,Q839466
https://www.edwardjones.com/us-en/financial-advisor/drew-cravey,edwardjones,Drew Cravey,,Hawkinsville,GA,,US,+1 478-783-1338,https://www.edwardjones.com/us-en/financial-advisor/drew-cravey,Mo-Fr 08:00-17:00,Edward Jones,Q5343830
200329735,exxonmobil,Exxon,,HAWKINSVILLE,GA,,US,,https://www.exxon.com/en/find-station/exxon-hawkinsville-ga-exxon-200329735,Mo-Su 06:00-22:30,Exxon,Q109675651
https://local.fedex.com/#25201148,fedex,,,Hawkinsville,GA,,US,+1 800-463-3339,https://local.fedex.com/en-us/ga/hawkinsville/rbh4w,,FedEx,Q459477
Motorcraft1113USAEnglish,ford,Way Brothers,,Georgia,GA,,US,+1 478-892-9141,,,Ford,Q44294
https://www.ford.com/dealerships/dealer-details/ga/hawkinsville/way-brothers/,ford_dealers_us,Way Brothers,,Hawkinsville,GA,,US,+1 478-208-4055,https://www.ford.com/dealerships/dealer-details/ga/hawkinsville/way-brothers/,Mo-Fr 08:00-18:00; Sa 08:00-15:00,Ford Motor Company,Q44294
1500302,hardees_us,Hardee's,,Hawkinsville,GA,,US,+1 478-225-0292,https://locations.hardees.com/ga/hawkinsville/341-broad-st,,Hardee's,Q1585088
235,huddle_house_us,GA - Hawkinsville,,Hawkinsville,GA,,US,+1 478-783-2032,https://www.huddlehouse.com/locations/ga/hawkinsville/156-broad-street,Mo-Th 06:00-22:00; Fr-Sa 06:00-00:00; Su 06:00-22:00,Huddle House,Q5928324
e0927535-60dc-4101-8c2f-d9be7641f50a,northside_hospital_us,NHCI Georgia Cancer Specialists - Hawkinsville,,Hawkinsville,GA,,US,+1 478-783-4022,https://www.northside.com/locations/georgia-cancer-specialists-hawkinsville,,Northside Hospital,Q7059745
0a3470ee-c503-415d-aa8c-fc3ee46094e7,northside_hospital_us,Northside Hospital Cancer Institute Radiation Oncology - Hawkinsville,,Hawkinsville,GA,,US,+1 478-892-8585,https://www.northside.com/locations/northside-hospital-cancer-institute-radiation-oncology-hawkinsville,,Northside Hospital,Q7059745
https://locations.oreillyauto.com/ga/hawkinsville/check-engine-light-testing-1488.html,oreilly,Your Hawkinsville O'Reilly Auto Parts Store,,Hawkinsville,GA,,US,+1 478-783-3042,https://locations.oreillyauto.com/ga/hawkinsville/check-engine-light-testing-1488.html,Mo-Sa 07:30-20:00; Su 09:00-19:00,O'Reilly Auto Parts,Q7071951
https://locations.oreillyauto.com/ga/hawkinsville/wiper-installation-1488.html,oreilly,Your Hawkinsville O'Reilly Auto Parts Store,,Hawkinsville,GA,,US,+1 478-783-3042,https://locations.oreillyauto.com/ga/hawkinsville/wiper-installation-1488.html,Mo-Sa 07:30-20:00; Su 09:00-19:00,O'Reilly Auto Parts,Q7071951
https://locations.oreillyauto.com/ga/hawkinsville/battery-testing-1488.html,oreilly,Your Hawkinsville O'Reilly Auto Parts Store,,Hawkinsville,GA,,US,+1 478-783-3042,https://locations.oreillyauto.com/ga/hawkinsville/battery-testing-1488.html,Mo-Sa 07:30-20:00; Su 09:00-19:00,O'Reilly Auto Parts,Q7071951
https://locations.oreillyauto.com/ga/hawkinsville/autopartes-1488.html,oreilly,Tu tienda O'Reilly Auto Parts en Hawkinsville,,Hawkinsville,GA,,US,+1 478-783-3042,https://locations.oreillyauto.com/ga/hawkinsville/autopartes-1488.html,Mo-Sa 07:30-20:00; Su 09:00-19:00,O'Reilly Auto Parts,Q7071951
72083,petland_us,Petland of Dunwoody,P.O. Box 1037,Hawkinsville,GA,,US,+1 770-396-7358,https://www.petlanddunwoody.com/,,Petland,Q17111474
2944,snap_fitness,"Hawkinsville, GA",58 Surrey Plz,Hawkinsville,GA,,US,+1 478-302-0660,https://www.snapfitness.com/us/gyms/hawkinsville-ga,24/7,Snap Fitness,Q7547254
https://restaurants.subway.com/#14908633,subway,Subway,,Hawkinsville Pulaski,GA,,US,+1 478-783-7827,https://restaurants.subway.com/united-states/ga/hawkinsville/7-hwy-341-bypass-611,Mo-Su 08:00-21:00,Subway,Q244457
1366515,usps,HAWKINSVILLE,,HAWKINSVILLE,GA,,US,+1 478-892-8499,,Mo-We 08:30-17:00; Th 08:30-12:00; Fr 08:30-17:00; Sa 09:30-12:00,United States Postal Service,Q668687
3103600012,usps_collection_boxes,USPS COLLECTION BOX - BLUE BOX,148 COMMERCE ST,HAWKINSVILLE,GA,,US,,,,United States Postal Service,Q668687
3103600018,usps_collection_boxes,USPS COLLECTION BOX - PO LOBBY,148 COMMERCE ST,HAWKINSVILLE,GA,,US,,,,United States Postal Service,Q668687
3103600019,usps_collection_boxes,USPS COLLECTION BOX - PO LOBBY,148 COMMERCE ST,HAWKINSVILLE,GA,,US,,,,United States Postal Service,Q668687
,visa,,,HAWKINSVILLE,GA,,US,,,,,
,visa,,,HAWKINSVILLE,GA,,US,,,,,
,visa,,,HAWKINSVILLE,GA,,US,,,,,
,visa,,,HAWKINSVILLE,GA,,US,,,,,
,visa,,,HAWKINSVILLE,GA,,US,,,,,
,visa,,,HAWKINSVILLE,GA,,US,,,,,
,visa,,,HAWKINSVILLE,GA,,US,,,,,
,visa,,,HAWKINSVILLE,GA,,US,,,,,
,visa,,,HAWKINSVILLE,GA,,US,,,,,
,visa,,,HAWKINSVILLE,GA,,US,,,,,
,visa,,,HAWKINSVILLE,GA,,US,,,,,
,visa,,,HAWKINSVILLE,GA,,US,,,,,
,visa,,,HAWKINSVILLE,GA,,US,,,,,
,visa,,,HAWKINSVILLE,GA,,US,,,,,
,visa,,,HAWKINSVILLE,GA,,US,,,,,
,visa,,,HAWKINSVILLE,GA,,US,,,,,
,visa,,,HAWKINSVILLE,GA,,US,,,,,
,visa,,,HAWKINSVILLE,GA,,US,,,,,
,visa,,,HAWKINSVILLE,GA,,US,,,,,
,visa,,,HAWKINSVILLE,GA,,US,,,,,
,visa,,,HAWKINSVILLE,GA,,US,,,,,
,visa,,,HAWKINSVILLE,GA,,US,,,,,
,visa,,,HAWKINSVILLE,GA,,US,,,,,
,visa,,,HAWKINSVILLE,GA,,US,,,,,
https://www.walgreens.com/locator/walgreens-126+broad+st-hawkinsville-ga-31036/id=12319,walgreens,Walgreens,,Hawkinsville,GA,,US,+1 478-783-4700,https://www.walgreens.com/locator/walgreens-126+broad+st-hawkinsville-ga-31036/id=12319,Mo-Su 08:00-21:00,Walgreens,Q1591889
4f30b2ccebb9d1356dd010fd4e62fc91,western_union,DOLLAR GENERAL #24228,,Hawkinsville,GA,,US,+1 912-581-4662,https://location.westernunion.com/us/ga/hawkinsville/4f30b2ccebb9d1356dd010fd4e62fc91,Mo-Su 08:00-22:00,Western Union,Q861042
b4b03f8708bd1c559ac43a804284c1a9,western_union,SOLOW FOOD MART,,Hawkinsville,GA,,US,+1 478-783-2584,https://location.westernunion.com/us/ga/hawkinsville/b4b03f8708bd1c559ac43a804284c1a9,Mo-Su 06:00-22:30,Western Union,Q861042
abb1097e7845ea42d6f8ecb2747306d1,western_union,FOOD LION #2831,,Hawkinsville,GA,,US,+1 478-783-3250,https://location.westernunion.com/us/ga/hawkinsville/abb1097e7845ea42d6f8ecb2747306d1,Mo-Su 07:00-23:00,Western Union,Q861042
