Ref,Spider,Name,Address,City,State,Zipcode,Country,Phone,Website,Hours,Brand,WikiData
176735,bluerhino,Royal Farms #176,,Ocean View,DE,,US,+1 302-581-6023,,,Blue Rhino,Q65681213
51708,citi,ATM CVS,,Ocean View,DE,,US,,,,Citibank,Q857063
74540,citi,ATM Royal Farms #0176 - 1,,Ocean View,DE,,US,,,,Citibank,Q857063
74541,citi,ATM Royal Farms #0176 - 2,,Ocean View,DE,,US,,,,Citibank,Q857063
74117,citi,ATM Royal Farms,,Ocean View,DE,,US,,,,Citibank,Q857063
75028,citi,ATM Royal Farms 2,,Ocean View,DE,,US,,,,Citibank,Q857063
90406,citi,ATM Walgreens,,Clarksville,DE,,US,,,,Citibank,Q857063
3902,cvs_us,CVS Pharmacy,,Ocean View,DE,,US,+1 302-537-4670,https://www.cvs.com/store-locator/ocean-view-de-pharmacies/54-atlantic-ave-ocean-view-de-19970/storeid=3902,Mo-Su 08:00-21:00,CVS Pharmacy,Q2078880
https://www.edwardjones.com/us-en/financial-advisor/michael-franchino,edwardjones,Michael Franchino,,Ocean View,DE,,US,+1 302-539-3113,https://www.edwardjones.com/us-en/financial-advisor/michael-franchino,,Edward Jones,Q5343830
1009,eightyfour_lumber_us,CLARKSVILLE,,CLARKSVILLE,DE,,US,+1 302-537-2484,https://www.84lumber.com/store-locator/store-detail/?storeId=1009,Mo-Fr 07:00-18:00; Sa 08:00-15:00,84 Lumber,Q4644779
https://local.fedex.com/#25201207,fedex,,,Clarksville,DE,,US,+1 800-463-3339,https://local.fedex.com/en-us/de/clarksville/bmnmt,,FedEx,Q459477
17287,mattress_firm_us,Mattress Firm Ocean View,,Ocean View,DE,,US,+1 302-539-3032,https://www.mattressfirm.com/en-us/stores/de/ocean-view/159009/,,Mattress Firm,Q6791878
https://locations.papajohns.com/#10691193,papa_johns,Papa John's,,Ocean View,DE,,US,+1 302-541-8081,https://locations.papajohns.com/united-states/de/19970/ocean-view/29-c-atlantic-ave,Mo-Th 11:00-23:00; Fr-Sa 11:00-24:00; Su 11:00-23:00,Papa John's Pizza,Q2759586
https://restaurants.subway.com/#14901478,subway,Subway Millville Town Center,,Millville Sussex,DE,,US,+1 302-537-1900,https://restaurants.subway.com/united-states/de/millville/216-atlantic-avenue,Mo-Sa 08:00-21:00; Su 08:00-20:00,Subway,Q244457
4681,upsstore,Bethany Beach Area,29L Atlantic Ave,Ocean View,DE,,US,+1 302-537-8300,https://locations.theupsstore.com/de/ocean-view/29l-atlantic-ave,,UPS Store,Q7771029
1375860,usps,OCEAN VIEW,,OCEAN VIEW,DE,,US,+1 302-539-9466,,Mo-Fr 08:00-16:30; Sa 08:30-12:30,United States Postal Service,Q668687
1997000000,usps_collection_boxes,USPS COLLECTION BOX - BLUE BOX,35764 ATLANTIC AVE,OCEAN VIEW,DE,,US,,,,United States Postal Service,Q668687
1997000003,usps_collection_boxes,USPS COLLECTION BOX - PO LOBBY,35764 ATLANTIC AVE,OCEAN VIEW,DE,,US,,,,United States Postal Service,Q668687
1997000009,usps_collection_boxes,USPS COLLECTION BOX - PO LOBBY,35764 ATLANTIC AVE,OCEAN VIEW,DE,,US,,,,United States Postal Service,Q668687
1997000002,usps_collection_boxes,USPS COLLECTION BOX - BLUE BOX,34960 ATLANTIC AVE,OCEAN VIEW,DE,,US,,,,United States Postal Service,Q668687
A00000257836,verizon_us,Wireless Zone Ocean View,,OCEAN VIEW,DE,,US,+1 302-308-5800,https://www.verizon.com/stores/details/new-jersey/ocean-view/victra-ocean-view-1664722/,Mo-Sa 10:00-19:00; Su 11:00-17:00,Verizon,Q919641
,visa,,,OCEANVIEW,DE,,US,,,,,
,visa,,,OCEANVIEW,DE,,US,,,,,
,visa,,,OCEAN VIEW,DE,,US,,,,,
,visa,,,OCEAN VIEW,DE,,US,,,,,
,visa,,,OCEAN VIEW,DE,,US,,,,,
,visa,,,OCEAN VIEW,DE,,US,,,,,
,visa,,,OCEAN VIEW,DE,,US,,,,,
,visa,,,OCEAN VIEW,DE,,US,,,,,
,visa,,,OCEAN VIEW,DE,,US,,,,,
,visa,,,MILLVILLE,DE,,US,,,,,
,visa,,,CLARKSVILLE,DE,,US,,,,,
,visa,,,OCEAN VIEW,DE,,US,,,,,
,visa,,,OCEANVIEW,DE,,US,,,,,
,visa,,,CLARKSVILLE,DE,,US,,,,,
https://www.walgreens.com/locator/walgreens-34960+atlantic+ave-clarksville-de-19970/id=11044,walgreens,Walgreens,,Clarksville,DE,,US,+1 302-537-3970,https://www.walgreens.com/locator/walgreens-34960+atlantic+ave-clarksville-de-19970/id=11044,Mo-Su 08:00-21:00,Walgreens,Q1591889
