Ref,Spider,Name,Address,City,State,Zipcode,Country,Phone,Website,Hours,Brand,WikiData
21228,citi,HOTEL PZA SAN CARLOS,,Xicotepec De Juarez,PUEBLA,,MX,+52 800 110 3990,,,Citibank,Q857063
18257,citi,SAB XICOTEPEC,,Xicotepec,PUEBLA,,MX,+52 800 110 3990,,,Citibank,Q857063
1832,first_cash,Xicotepec,,Xicotepec,Puebla,,MX,+52 764 764 9193,,,,
,visa,,,XICOTEPEC,PUEBLA,,MX,,,,,
,visa,,,XICOTEPEC,PUEBLA,,MX,,,,,
,visa,,,AMOZOC DE MOTA,PUEBLA,,MX,,,,,
,visa,,,XICOTEPEC,PUEBLA,,MX,,,,,
,visa,,,XICOTEPEC,PUEBLA,,MX,,,,,
,visa,,,XICOTEPEC DE JUAREZ,PUEBLA,,MX,,,,,
,visa,,,XICOTEPEC DE JUAREZ,PUEBLA,,MX,,,,,
,visa,,,XICOTEPEC,PUEBLA,,MX,,,,,
,visa,,,XICOTEPEC DE JUAREZ,PUEBLA,,MX,,,,,
,visa,,,XICOTEPEC,PUEBLA,,MX,,,,,
e2a940f730495f954ada3ceec3273a1a,western_union,OXXO LAS CAMELIAS PAC,,Xicotepec De Juarez,PUEBLA,,MX,+52 81 8389 2121,https://location.westernunion.com/mx/puebla/xicotepec-de-juarez/e2a940f730495f954ada3ceec3273a1a,Mo-Su 08:00-22:00,Western Union,Q861042
018f9328fb375252372cae97c4b6eaf2,western_union,OXXO CORREGIDORA PAC,,Xicotepec De Juarez,PUEBLA,,MX,+52 81 8389 2121,https://location.westernunion.com/mx/puebla/xicotepec-de-juarez/018f9328fb375252372cae97c4b6eaf2,Mo-Su 06:00-22:00,Western Union,Q861042
90ff7c10f6f4bd8b7f7629ff46ecea4b,western_union,OXXO CORREGIDORA PAC,,Xicotepec De Juarez,PUEBLA,,MX,+52 81 8389 2121,https://location.westernunion.com/mx/puebla/xicotepec-de-juarez/90ff7c10f6f4bd8b7f7629ff46ecea4b,Mo-Su 06:00-22:00,Western Union,Q861042
345a8b48d1d818ef9f75e98d17644a0c,western_union,OXXO 17 DE JUNIO PAC,,Xicotepec De Juarez,PUEBLA,,MX,+52 81 8389 2121,https://location.westernunion.com/mx/puebla/xicotepec-de-juarez/345a8b48d1d818ef9f75e98d17644a0c,Mo-Su 06:00-22:00,Western Union,Q861042
efbf17240f01bf0f698f1b566017bf81,western_union,OXXO 17 DE JUNIO PAC,,Xicotepec De Juarez,PUEBLA,,MX,+52 81 8389 2121,https://location.westernunion.com/mx/puebla/xicotepec-de-juarez/efbf17240f01bf0f698f1b566017bf81,Mo-Su 06:00-22:00,Western Union,Q861042
e56dae46ebf87fdf7bdc4d72ca4264bb,western_union,OXXO 17 DE JUNIO PAC,,Xicotepec De Juarez,PUEBLA,,MX,+52 81 8389 2121,https://location.westernunion.com/mx/puebla/xicotepec-de-juarez/e56dae46ebf87fdf7bdc4d72ca4264bb,Mo-Su 06:00-22:00,Western Union,Q861042
a490e6c51049f507edbfef79c6c59776,western_union,FARM GUAD 2621 BENITO JUAREZ,,Xicotepec De Juarez,PUEBLA,,MX,+52 800 833 4700,https://location.westernunion.com/mx/puebla/xicotepec-de-juarez/a490e6c51049f507edbfef79c6c59776,Mo-Fr 08:00-22:00; Sa 08:00-08:00; Su 22:00-08:00,Western Union,Q861042
3f097cd14dcd7e569b29ebb71bb4a14a,western_union,FARM GUAD 2621 BENITO JUAREZ,,Xicotepec De Juarez,PUEBLA,,MX,+52 800 833 4700,https://location.westernunion.com/mx/puebla/xicotepec-de-juarez/3f097cd14dcd7e569b29ebb71bb4a14a,Mo-Fr 08:00-22:00; Sa 08:00-08:00; Su 22:00-08:00,Western Union,Q861042
53e6acb937751d624c1e3c44becbc431,western_union,FARM GUAD 2621 BENITO JUAREZ,,Xicotepec De Juarez,PUEBLA,,MX,+52 800 833 4700,https://location.westernunion.com/mx/puebla/xicotepec-de-juarez/53e6acb937751d624c1e3c44becbc431,Mo-Fr 08:00-22:00; Sa 08:00-08:00; Su 22:00-08:00,Western Union,Q861042
887b01c5dd96ecb53295177e08c57fa5,western_union,OXXO LAS CAMELIAS PAC,,Xicotepec De Juarez,PUEBLA,,MX,+52 81 8389 2121,https://location.westernunion.com/mx/puebla/xicotepec-de-juarez/887b01c5dd96ecb53295177e08c57fa5,Mo-Su 08:00-22:00,Western Union,Q861042
75d5dcf943b754851439a0858e1dedda,western_union,OXXO EL POZO PAC,,Xicotepec De Juarez,PUEBLA,,MX,+52 81 8389 2121,https://location.westernunion.com/mx/puebla/xicotepec-de-juarez/75d5dcf943b754851439a0858e1dedda,Mo-Su 08:00-22:00,Western Union,Q861042
dcdfe17917ae894181f186ca636a3859,western_union,OXXO TABACAL PAC,,Xicotepec De Juarez,PUEBLA,,MX,+52 81 8389 2121,https://location.westernunion.com/mx/puebla/xicotepec-de-juarez/dcdfe17917ae894181f186ca636a3859,Mo-Su 08:00-22:00,Western Union,Q861042
a20f7f75da1125e89fd19fe535b197ba,western_union,OXXO TABACAL PAC,,Xicotepec De Juarez,PUEBLA,,MX,+52 81 8389 2121,https://location.westernunion.com/mx/puebla/xicotepec-de-juarez/a20f7f75da1125e89fd19fe535b197ba,Mo-Su 08:00-22:00,Western Union,Q861042
3a0229209b2605959b14784c26b17585,western_union,OXXO TABACAL PAC,,Xicotepec De Juarez,PUEBLA,,MX,+52 81 8389 2121,https://location.westernunion.com/mx/puebla/xicotepec-de-juarez/3a0229209b2605959b14784c26b17585,Mo-Su 08:00-22:00,Western Union,Q861042
0939e888f285ce809e3a29a00ddfa5dd,western_union,OXXO MINA PAC,,Xicotepec De Juarez,PUEBLA,,MX,+52 81 8389 2121,https://location.westernunion.com/mx/puebla/xicotepec-de-juarez/0939e888f285ce809e3a29a00ddfa5dd,Mo-Su 08:00-22:00,Western Union,Q861042
5d8e73eba2eef7ccb6b88404c94825f9,western_union,OXXO MINA PAC,,Xicotepec De Juarez,PUEBLA,,MX,+52 81 8389 2121,https://location.westernunion.com/mx/puebla/xicotepec-de-juarez/5d8e73eba2eef7ccb6b88404c94825f9,Mo-Su 08:00-22:00,Western Union,Q861042
e3a71856f51a0fb14b1370e4617d636e,western_union,OXXO EL POZO PAC,,Xicotepec De Juarez,PUEBLA,,MX,+52 81 8389 2121,https://location.westernunion.com/mx/puebla/xicotepec-de-juarez/e3a71856f51a0fb14b1370e4617d636e,Mo-Su 08:00-22:00,Western Union,Q861042
9737928c076c164f2173af7b05745ba6,western_union,BANCOPPEL 1110 ZARAGOZA,,Xicotepec De Juarez,PUEBLA,,MX,(+52) 667-589999,https://location.westernunion.com/mx/puebla/xicotepec-de-juarez/9737928c076c164f2173af7b05745ba6,Mo-Su 08:30-21:00,Western Union,Q861042
4d01e128ee57b16acaa8af929326cb6a,western_union,AURRERA XICOTEPEC 2088,,Xicotepec De Juarez,PUEBLA,,MX,+52 800 833 4700,https://location.westernunion.com/mx/puebla/xicotepec-de-juarez/4d01e128ee57b16acaa8af929326cb6a,Mo-Su 07:00-23:00,Western Union,Q861042
32917a12b87494a3a1f44fa5546d039f,western_union,AURRERA XICOTEPEC 2088,,Xicotepec De Juarez,PUEBLA,,MX,+52 800 833 4700,https://location.westernunion.com/mx/puebla/xicotepec-de-juarez/32917a12b87494a3a1f44fa5546d039f,Mo-Su 07:00-23:00,Western Union,Q861042
1c45cf6d2c681a9cdc3cb77b54c61821,western_union,AURRERA XICOTEPEC 2088,,Xicotepec De Juarez,PUEBLA,,MX,+52 800 833 4700,https://location.westernunion.com/mx/puebla/xicotepec-de-juarez/1c45cf6d2c681a9cdc3cb77b54c61821,Mo-Su 07:00-23:00,Western Union,Q861042
92a63722052d6d9442b3eced062a2cca,western_union,OXXO VILLA JUAREZ PAC,,Xicotepec De Juarez,PUEBLA,,MX,+52 81 8389 2121,https://location.westernunion.com/mx/puebla/xicotepec-de-juarez/92a63722052d6d9442b3eced062a2cca,Mo-Su 08:00-22:00,Western Union,Q861042
c3f063509b1dc9d07995f1f3aa64cb97,western_union,OXXO CORREGIDORA PAC,,Xicotepec De Juarez,PUEBLA,,MX,+52 81 8389 2121,https://location.westernunion.com/mx/puebla/xicotepec-de-juarez/c3f063509b1dc9d07995f1f3aa64cb97,Mo-Su 06:00-22:00,Western Union,Q861042
a93fcfb26351c43bcd504f3ae45a4b2c,western_union,TELECOMM 21008,,Xicotepec De Juarez,PUEBLA,,MX,+52 800 800 9889,https://location.westernunion.com/mx/puebla/xicotepec-de-juarez/a93fcfb26351c43bcd504f3ae45a4b2c,Mo-Fr 08:00-18:00; Sa 09:00-12:30,Western Union,Q861042
f050da1e5aef7670b155f97f1b5231ea,western_union,TELECOMM 21008,,Xicotepec De Juarez,PUEBLA,,MX,+52 800 800 8930,https://location.westernunion.com/mx/puebla/xicotepec-de-juarez/f050da1e5aef7670b155f97f1b5231ea,Mo-Su 09:00-20:00,Western Union,Q861042
af059f79d6400b8b47590a8dbbfc6a55,western_union,ELEKTRA 2004,,Xicotepec De Juarez,PUEBLA,,MX,+52 55 1720 8177,https://location.westernunion.com/mx/puebla/xicotepec-de-juarez/af059f79d6400b8b47590a8dbbfc6a55,Mo-Su 09:00-21:00,Western Union,Q861042
cf0615f08a4a0d8a6ca45eb2b83c9159,western_union,ELEKTRA 2004,,Xicotepec De Juarez,PUEBLA,,MX,+52 55 1720 8177,https://location.westernunion.com/mx/puebla/xicotepec-de-juarez/cf0615f08a4a0d8a6ca45eb2b83c9159,Mo-Su 09:00-20:00,Western Union,Q861042
b6b516443a4bf0468301ea0e32f82fe8,western_union,ELEKTRA 2004,,Xicotepec De Juarez,PUEBLA,,MX,+52 55 1720 8177,https://location.westernunion.com/mx/puebla/xicotepec-de-juarez/b6b516443a4bf0468301ea0e32f82fe8,Mo-Su 09:00-21:00,Western Union,Q861042
cfaa8f1404df16ea6cbf4b2f4f1130f9,western_union,OXXO 2 DE ABRIL PAC,,Xicotepec De Juarez,PUEBLA,,MX,+52 81 8389 2121,https://location.westernunion.com/mx/puebla/xicotepec-de-juarez/cfaa8f1404df16ea6cbf4b2f4f1130f9,Mo-Su 08:00-22:00,Western Union,Q861042
890df3888480e00884901ba6fdeb25fe,western_union,OXXO 2 DE ABRIL PAC,,Xicotepec De Juarez,PUEBLA,,MX,+52 81 8389 2121,https://location.westernunion.com/mx/puebla/xicotepec-de-juarez/890df3888480e00884901ba6fdeb25fe,Mo-Su 08:00-22:00,Western Union,Q861042
afc0a38749f4a25136169b3cacb2216e,western_union,OXXO 2 DE ABRIL PAC,,Xicotepec De Juarez,PUEBLA,,MX,+52 81 8389 2121,https://location.westernunion.com/mx/puebla/xicotepec-de-juarez/afc0a38749f4a25136169b3cacb2216e,Mo-Su 08:00-22:00,Western Union,Q861042
3999148a5b200fcbdf5e00d231dea111,western_union,BANCOPPEL 1110 ZARAGOZA,,Xicotepec De Juarez,PUEBLA,,MX,(+52) 667-589999,https://location.westernunion.com/mx/puebla/xicotepec-de-juarez/3999148a5b200fcbdf5e00d231dea111,Mo-Su 08:30-21:00,Western Union,Q861042
4a0633048ecfed900815c4be6fec1f09,western_union,OXXO MINA PAC,,Xicotepec De Juarez,PUEBLA,,MX,+52 81 8389 2121,https://location.westernunion.com/mx/puebla/xicotepec-de-juarez/4a0633048ecfed900815c4be6fec1f09,Mo-Su 08:00-22:00,Western Union,Q861042
3814a79f9fce1ae54f2181c9cfaf77a3,western_union,OXXO VILLA JUAREZ PAC,,Xicotepec De Juarez,PUEBLA,,MX,+52 81 8389 2121,https://location.westernunion.com/mx/puebla/xicotepec-de-juarez/3814a79f9fce1ae54f2181c9cfaf77a3,Mo-Su 08:00-22:00,Western Union,Q861042
0fe2e489559edc22d3ddf11ef48ea810,western_union,OXXO VILLA JUAREZ PAC,,Xicotepec De Juarez,PUEBLA,,MX,+52 81 8389 2121,https://location.westernunion.com/mx/puebla/xicotepec-de-juarez/0fe2e489559edc22d3ddf11ef48ea810,Mo-Su 08:00-22:00,Western Union,Q861042
