Ref,Spider,Name,Address,City,State,Zipcode,Country,Phone,Website,Hours,Brand,WikiData
https://stores.advanceautoparts.com/ga/covington/5252-highway-20-s,advance_auto_parts_us,Advance Auto Parts,,Covington,GA,,US,+1 770-786-1496,https://stores.advanceautoparts.com/ga/covington/5252-highway-20-s,Mo-Sa 07:30-21:00; Su 08:30-20:30,Advance Auto Parts,Q4686051
4845,autozone_us,AutoZone Auto Parts Covington,,Covington,GA,,US,+1 770-786-6632,https://www.autozone.com/locations/ga/covington/3900-salem-rd.html,Mo-Th 07:30-21:00; Fr-Sa 07:30-22:00; Su 08:00-21:00,AutoZone,Q4826087
197759,bluerhino,Magnet Shell - ARA #3617,,Covington,GA,,US,+1 678-625-4200,,,Blue Rhino,Q65681213
120726,bluerhino,Kroger #436 - Atlanta,,Covington,GA,,US,+1 770-788-4000,,,Blue Rhino,Q65681213
186108,bluerhino,Kroger #436 - Atlanta- Fuel Site,,Covington,GA,,US,+1 770-788-4000,,,Blue Rhino,Q65681213
186131,bluerhino,Kroger #621 - Atlanta- Fuel Site,,Covington,GA,,US,+1 678-342-6039,,,Blue Rhino,Q65681213
98758,bluerhino,Kroger #621 - Atlanta,,Covington,GA,,US,+1 678-342-6039,,,Blue Rhino,Q65681213
236493,bluerhino,Circle K #2745127,,Covington,GA,,US,+1 770-784-0339,,,Blue Rhino,Q65681213
153942,bluerhino,Walgreens #12621,,Covington,GA,,US,+1 770-385-3226,,,Blue Rhino,Q65681213
192454,bluerhino,Murphy's #7572,,Covington,GA,,US,+1 770-784-0804,,,Blue Rhino,Q65681213
129992,bluerhino,Walmart #4558,,Covington,GA,,US,+1 678-212-3195,,,Blue Rhino,Q65681213
172412,bluerhino,Family Dollar #11714,,Covington,GA,,US,+1 678-712-2079,,,Blue Rhino,Q65681213
204972,bluerhino,Liberty Food Mart #2 - ARA #3980,,Covington,GA,,US,+1 470-444-1278,,,Blue Rhino,Q65681213
185467,bluerhino,Top Shop - ARA #3334 (BLESSINGS & BLESSINGS INC.),,Covington,GA,,US,+1 770-788-7823,,,Blue Rhino,Q65681213
359360,chevron,Chevron Station #359360,1820 HIGHWAY 11,COVINGTON,GA,,US,+1 770-392-1662,,,Chevron,Q319642
61344,citi,ATM Kroger,,Covington,GA,,US,,,,Citibank,Q857063
50971,citi,ATM CVS,,Covington,GA,,US,,,,Citibank,Q857063
42784,citi,ATM Circle K,,Covington,GA,,US,,,,Citibank,Q857063
87278,citi,ATM Walgreens,,Covington,GA,,US,,,,Citibank,Q857063
61478,citi,ATM Kroger,,Covington,GA,,US,,,,Citibank,Q857063
51702,citi,ATM CVS,,Covington,GA,,US,,,,Citibank,Q857063
23886,coldstone_creamery,Cold Stone Creamery,,Covington,GA,,US,+1 678-712-9097,https://www.coldstonecreamery.com/stores/23886,,Cold Stone Creamery,Q1094923
70088549,cricket_wireless,Cricket Wireless Authorized Retailer,,Covington,GA,,US,+1 770-728-9319,https://www.cricketwireless.com/stores/ll/US/GA/Covington/5340-Highway-20-S,Mo-Fr 10:00-20:00; Sa 10:00-19:00; Su 12:00-18:00,Cricket Wireless,Q5184987
8419,cvs_us,CVS Pharmacy,,Covington,GA,,US,+1 770-788-2026,https://www.cvs.com/store-locator/covington-ga-pharmacies/4192-salem-rd-covington-ga-30016/storeid=8419,Mo-Su 08:00-22:00,CVS Pharmacy,Q2078880
200329501,exxonmobil,GX #269,,COVINGTON,GA,,US,+1 770-693-2623,https://www.exxon.com/en/find-station/exxon-covington-ga-gx269-200329501,Mo-Th 06:00-21:00; Fr-Sa 06:00-22:00; Su 06:00-20:00,Exxon,Q109675651
200325521,exxonmobil,NEIGHBORS MARKET COVINGTON,,COVINGTON,GA,,US,+1 470-441-5404,https://www.exxon.com/en/find-station/exxon-covington-ga-neighborsmarketcovington-200325521,Mo-Th 06:00-22:00; Fr-Sa 06:00-23:00; Su 07:00-22:00,Exxon,Q109675651
200323719,exxonmobil,SOUTH FORK COVINGTON,,COVINGTON,GA,,US,+1 470-441-5883,https://www.exxon.com/en/find-station/exxon-covington-ga-southforkcovington-200323719,Mo-Sa 06:00-23:00; Su 07:00-22:00,Exxon,Q109675651
31714,family_dollar_us,FAMILY DOLLAR #11714,,Covington,GA,,US,+1 678-660-7006,https://www.familydollar.com/locations/ga/covington/31714/,Mo-Sa 09:00-22:00; Su 09:00-21:00,Family Dollar,Q5433101
https://local.fedex.com/#25232347,fedex,,,Covington,GA,,US,+1 800-463-3339,https://local.fedex.com/en-us/ga/covington/ssibc,,FedEx,Q459477
https://local.fedex.com/#25236716,fedex,,,Covington,GA,,US,+1 800-463-3339,https://local.fedex.com/en-us/ga/covington/ssial,,FedEx,Q459477
https://local.fedex.com/#25202278,fedex,,,Covington,GA,,US,+1 800-463-3339,https://local.fedex.com/en-us/ga/covington/rbmms,,FedEx,Q459477
https://local.fedex.com/#27755124,fedex,FedEx Authorized ShipCenter,,Covington,GA,,US,+1 770-786-0080,https://local.fedex.com/en-us/ga/covington/60810,,FedEx,Q459477
8740,fresenius_kidney_care_us,Fresenius Kidney Care Newton,,Covington,GA,,US,+1 800-881-5101,https://www.freseniuskidneycare.com/dialysis-centers/georgia/8740,Mo 05:30-21:30; Tu 05:30-17:30; We 05:30-21:30; Th 05:30-17:30; Fr 05:30-21:30; Sa 05:30-17:30,,
https://www.goodyearautoservice.com/en_US/location/Covington-GA-30016-US-000902127,goodyear_us,"Goodyear Auto Service - Covington, Covington, GA | Oil, Brakes & Repairs | #000902127",,Covington,GA,,US,+1 770-788-1556,https://www.goodyearautoservice.com/en_US/location/Covington-GA-30016-US-000902127,Mo-Fr 07:00-18:00; Sa 07:00-17:00; Su 08:00-17:00,Goodyear,Q620875
https://salons.greatclips.com/us/ga/covington/5340-highway-20-s,greatclips,Great Clips,,Covington,GA,,US,+1 770-787-2646,https://salons.greatclips.com/us/ga/covington/5340-highway-20-s,Mo-Fr 08:00-19:00; Sa 09:00-18:00; Su 10:00-17:00,Great Clips,Q5598967
11326,h_r_block,H&R Block,,Covington,GA,,US,+1 770-786-7708,https://www.hrblock.com/local-tax-offices/georgia/covington/5340-hwy-20-s/11326/,,H&R Block,Q5627799
11701,h_r_block,H&R Block,,Covington,GA,,US,+1 770-728-1919,https://www.hrblock.com/local-tax-offices/georgia/covington/3732-salem-rd/11701/,,H&R Block,Q5627799
439,ingles,Covington,,Covington,GA,,US,+1 770-787-8129,https://www.ingles-markets.com/storelocate/storeinfo.php?storenum=439,Mo-Su 07:00-23:00,Ingles,Q6032595
https://office.jacksonhewitt.com/#27575851,jackson_hewitt,Jackson Hewitt,,Covington,GA,,US,+1 470-891-5296,https://office.jacksonhewitt.com/tax-preparation-services-locations/en/ga/covington/4200-salem-road/54558,Mo-Sa 11:00-19:00; Su 12:00-16:00,Jackson Hewitt,Q6117132
https://healthy.kaiserpermanente.org/georgia/facilities/peachtree-immediate-care-covington-343135,kaiser_permanente_us,Peachtree Immediate Care-Covington,,Covington,GA,,US,+1 678-800-1591,https://healthy.kaiserpermanente.org/georgia/facilities/peachtree-immediate-care-covington-343135,,Kaiser Permanente,Q1721601
https://healthy.kaiserpermanente.org/georgia/facilities/fresenius-medical-care-newton-337745,kaiser_permanente_us,Fresenius Medical Care Newton,,Covington,GA,,US,+1 770-786-1005,https://healthy.kaiserpermanente.org/georgia/facilities/fresenius-medical-care-newton-337745,,Kaiser Permanente,Q1721601
157828,marathon_petroleum_us,AP FOODMART INC,,COVINGTON,GA,,US,+1 678-625-2678,,,Marathon,Q458363
157905,marathon_petroleum_us,HWY 162 MARATHON,,COVINGTON,GA,,US,+1 770-385-0304,,,Marathon,Q458363
7572,murphy_usa_us,,,Covington,GA,,US,+1 770-784-0804,,Mo-Sa 04:00-23:30; Su 05:00-23:30,Murphy USA,Q19604459
restaurant_878801,popeyes_us_fr,Popeyes,"4210 Salem Rd Covington, Georgia 30016 - USA",Covington,GA,,US,+1 470-205-0948,https://www.popeyes.com/store-locator/store/restaurant_878801,Mo-Su 10:00-23:00,Popeyes,Q1330910
https://restaurants.subway.com/#14911365,subway,Subway Newton Crossroads,,Covington Newton,GA,,US,+1 770-787-5577,https://restaurants.subway.com/united-states/ga/covington/5340-hwy-20,Mo-Su 09:00-22:00,Subway,Q244457
https://restaurants.subway.com/#14906574,subway,Subway Wal-Mart #4558,,Covington Newton,GA,,US,+1 770-786-2977,https://restaurants.subway.com/united-states/ga/covington/4200-salem-road,Mo-Th 08:30-21:00; Fr-Sa 08:30-21:30; Su 09:00-21:00,Subway,Q244457
https://restaurants.subway.com/#14916013,subway,Subway Salem Road Station,,Covington Newton,GA,,US,+1 770-786-7767,https://restaurants.subway.com/united-states/ga/covington/13015-brown-bridge-rd,Mo-Su 08:00-21:30,Subway,Q244457
https://locations.tacobell.com/#6146607,taco_bell,Taco Bell,,Covington,GA,,US,+1 770-787-4880,https://locations.tacobell.com/ga/covington/12910-brown-bridge-road.html,Mo-Su 07:00-04:00,Taco Bell,Q752941
"Resurgens East Surgery Center, Covington, Georgia",united_surgical_partners_international,Resurgens East Surgery Center,3241 Iris Drive ,Covington,GA,,US,+1 678-712-7624,na,,United Surgical Partners International,Q7893575
,visa,,,COVINGTON,GA,,US,,,,,
,visa,,,COVINGTON,GA,,US,,,,,
,visa,,,COVINGTON,GA,,US,,,,,
,visa,,,COVINGTON,GA,,US,,,,,
,visa,,,COVINGTON,GA,,US,,,,,
,visa,,,COVINGTON,GA,,US,,,,,
,visa,,,COVINGTON,GA,,US,,,,,
,visa,,,COVINGTON,GA,,US,,,,,
,visa,,,COVINGTON,GA,,US,,,,,
,visa,,,COVINGTON,GA,,US,,,,,
,visa,,,COVINGTON,GA,,US,,,,,
,visa,,,COVINGTON,GA,,US,,,,,
,visa,,,COVINGTON,GA,,US,,,,,
,visa,,,COVINGTON,GA,,US,,,,,
,visa,,,COVINGTON,GA,,US,,,,,
,visa,,,COVINGTON,GA,,US,,,,,
,visa,,,COVINGTON,GA,,US,,,,,
,visa,,,COVINGTON,GA,,US,,,,,
,visa,,,COVINGTON,GA,,US,,,,,
,visa,,,COVINGTON,GA,,US,,,,,
,visa,,,COVINGTON,GA,,US,,,,,
,visa,,,COVINGTON,GA,,US,,,,,
,visa,,,COVINGTON,GA,,US,,,,,
,visa,,,COVINGTON,GA,,US,,,,,
,visa,,,COVINGTON,GA,,US,,,,,
,visa,,,COVINGTON,GA,,US,,,,,
,visa,,,COVINGTON,GA,,US,,,,,
,visa,,,COVINGTON,GA,,US,,,,,
,visa,,,COVINGTON,GA,,US,,,,,
,visa,,,COVINGTON,GA,,US,,,,,
,visa,,,COVINGTON,GA,,US,,,,,
,visa,,,COVINGTON,GA,,US,,,,,
,visa,,,CONYERS,GA,,US,,,,,
,visa,,,COVINGTON,GA,,US,,,,,
,visa,,,COVINGTON,GA,,US,,,,,
,visa,,,COVINGTON,GA,,US,,,,,
,visa,,,COVINGTON,GA,,US,,,,,
,visa,,,COVINGTON,GA,,US,,,,,
,visa,,,COVINGTON,GA,,US,,,,,
,visa,,,COVINGTON,GA,,US,,,,,
,visa,,,COVINGTON,GA,,US,,,,,
,visa,,,COVINGTON,GA,,US,,,,,
,visa,,,COVINGTON,GA,,US,,,,,
,visa,,,COVINGTON,GA,,US,,,,,
,visa,,,COVINGTON,GA,,US,,,,,
,visa,,,COVINGTON,GA,,US,,,,,
,visa,,,COVINGTON,GA,,US,,,,,
,visa,,,COVINGTON,GA,,US,,,,,
,visa,,,COVINGTON,GA,,US,,,,,
,visa,,,COVINGTON,GA,,US,,,,,
,visa,,,COVINGTON,GA,,US,,,,,
,visa,,,COVINGTON,GA,,US,,,,,
,visa,,,COVINGTON,GA,,US,,,,,
1740,waffle_house_us,Waffle House #1740,,COVINGTON,GA,,US,+1 770-787-4801,https://locations.wafflehouse.com/covington-ga-1740,24/7,Waffle House,Q1701206
https://www.walgreens.com/locator/walgreens-12955+brown+bridge+rd-covington-ga-30016/id=12621,walgreens,Walgreens,,Covington,GA,,US,+1 770-385-3226,https://www.walgreens.com/locator/walgreens-12955+brown+bridge+rd-covington-ga-30016/id=12621,Mo-Su 09:00-21:00,Walgreens,Q1591889
https://locations.wendys.com/#9251797,wendys,"Wendy's Salem Road in Covington, GA",,Covington,GA,,US,+1 678-625-4540,https://locations.wendys.com/united-states/ga/covington/4220-salem-road,"Mo-Su 06:30-10:30,09:00-21:00",Wendy's,Q550258
8a00c5820daebdff7f4712ef45147130,western_union,DOLLAR GENERAL #24937,,Covington,GA,,US,+1 470-205-0797,https://location.westernunion.com/us/ga/covington/8a00c5820daebdff7f4712ef45147130,Mo-Su 08:00-22:00,Western Union,Q861042
fa160ce4c82a16d40cb384ac2e2171e6,western_union,WALMART #004558,,Covington,GA,,US,+1 678-212-3195,https://location.westernunion.com/us/ga/covington/fa160ce4c82a16d40cb384ac2e2171e6,Mo-Su 07:00-21:00,Western Union,Q861042
