Ref,Spider,Name,Address,City,State,Zipcode,Country,Phone,Website,Hours,Brand,WikiData
4537,action,Samoreau,,Samoreau,,,FR,,https://www.action.com/fr-fr/points-de-vente/samoreau/,,Action,Q2634111
31359_1,bmw_group,PANEL FONTAINEBLEAU,,SAMOREAU,,,FR,+33 1 60 70 61 40,https://partenaire.mini.fr/panelfontainebleau,,BMW,Q26678
7831,carrefour_fr,Market Avon,,Avon,,,FR,+33 1 64 22 48 15,https://www.carrefour.fr/magasin/market-avon,Mo-Sa 09:00-20:30; Su 09:00-12:30,Carrefour Market,Q2689639
https://www.credit-agricole.fr/particulier/agence/brie-picardie/avon-6091.html,credit_agricole,Crédit Agricole,,AVON,,,FR,+33 1 60 72 08 50,https://www.credit-agricole.fr/particulier/agence/brie-picardie/avon-6091.html,"Tu-We 09:00-12:00,14:00-18:00; Th 09:00-12:00,15:00-18:00; Fr 09:00-12:00,14:00-19:00; Sa 08:30-13:00,14:00-16:00",Credit Agricole,Q590952
FordFF42051  FRA,ford,FORD FONTAINEBLEAU - FRANÇOIS 1ER,,Samoreau,,,FR,+33 1 64 22 20 34,www.zelus.fr,,Ford,Q44294
3202,lidl_fr,SAMOREAU,,SAMOREAU,,,FR,,,Mo-Sa 08:30-19:30,Lidl,Q151954
633,mcdonalds_fr,AVON,,AVON,,,FR,+33 1 60 74 04 11,https://www.mcdonalds.fr/restaurants/mcdonalds-avon/633,Mo-Th 09:00-23:00; Fr-Sa 09:00-01:00; Su 09:00-23:00,McDonald's,Q38076
413-opticien-fontainebleau-avon-optical-center,optical_center,Opticien FONTAINEBLEAU - AVON Optical Center,,Avon,,,FR,+33 1 60 72 77 77,https://opticien.optical-center.fr/413-opticien-fontainebleau-avon-optical-center,Mo-Sa 10:00-19:00,Optical Center,Q3354448
26539,relay_fr,Relay Gare de Fontainebleau,,Avon,,,FR,+33 1 64 22 81 45,https://www.relay.com/stores/relay-gare-de-fontainebleau/,Mo-Fr 06:15-13:00; Sa 07:00-12:00,Relay,Q3424298
00001344_001-renault,renault,RENAULT SAMOREAU VO,,SAMOREAU,,,FR,+33 1 64 23 96 75,,,Renault,Q6686
00001280_001-renault,renault,RENAULT FONTAINEBLEAU,,AVON,,,FR,+33 1 64 69 56 56,,,Renault,Q6686
00001280_001-dacia,renault,RENAULT FONTAINEBLEAU,,AVON,,,FR,+33 1 64 69 56 56,,,Dacia,Q27460
,visa,,,AVON,,,FR,,,,,
,visa,,,AVON,,,FR,,,,,
,visa,,,AVON,,,FR,,,,,
,visa,,,AVON,,,FR,,,,,
,visa,,,AVON,,,FR,,,,,
,visa,,,AVON,,,FR,,,,,
6FR800300,volvo,LARSON Fontainebleau by autosphere,,AVON,,,FR,+33 1 60 74 57 77,https://volvocars-concessions.com/fr/avon-fontainebleau,,Volvo,Q215293
