Ref,Spider,Name,Address,City,State,Zipcode,Country,Phone,Website,Hours,Brand,WikiData
2524,bluerhino,Barone Hardware & Auto #4360,,Bronson,MI,,US,+1 517-369-4175,,,Blue Rhino,Q65681213
25748,dollar_general,Dollar General,,Bronson,MI,,US,+1 269-489-8655,https://www.dollargeneral.com/store-directory/mi/bronson/25748,Mo-Su 08:00-22:00,Dollar General,Q145168
https://www.edwardjones.com/us-en/financial-advisor/derek-shaw,edwardjones,Derek Shaw,,Bronson,MI,,US,+1 517-369-9481,https://www.edwardjones.com/us-en/financial-advisor/derek-shaw,Mo-Fr 09:00-16:00,Edward Jones,Q5343830
157044,marathon_petroleum_us,BRONSON MARATHON,,BRONSON,MI,,US,+1 517-369-5165,,,Marathon,Q458363
https://restaurants.subway.com/#14905705,subway,Subway Shell Speed D Mart,,Bronson Branch,MI,,US,+1 517-369-1359,https://restaurants.subway.com/united-states/mi/bronson/215-e-chicago-rd,Mo 06:00-18:30; Tu-Fr 06:00-22:00; Sa 08:00-22:00; Su 09:00-21:00,Subway,Q244457
1355980,usps,BRONSON,,BRONSON,MI,,US,+1 517-369-5135,,"Mo-Fr 09:00-13:30,14:30-16:00; Sa 10:00-12:00",United States Postal Service,Q668687
4902800012,usps_collection_boxes,USPS COLLECTION BOX - BLUE BOX,714 E CHICAGO ST,BRONSON,MI,,US,,,,United States Postal Service,Q668687
4902800010,usps_collection_boxes,USPS COLLECTION BOX - BLUE BOX,220 E CHICAGO ST,BRONSON,MI,,US,,,,United States Postal Service,Q668687
4902800015,usps_collection_boxes,USPS COLLECTION BOX - PO LOBBY,220 E CHICAGO ST,BRONSON,MI,,US,,,,United States Postal Service,Q668687
4902800014,usps_collection_boxes,USPS COLLECTION BOX - PO LOBBY,220 E CHICAGO ST,BRONSON,MI,,US,,,,United States Postal Service,Q668687
4902800001,usps_collection_boxes,USPS COLLECTION BOX - BLUE BOX,215 E CHICAGO ST,BRONSON,MI,,US,,,,United States Postal Service,Q668687
4902800013,usps_collection_boxes,USPS COLLECTION BOX - BLUE BOX,120 W CHICAGO ST,BRONSON,MI,,US,,,,United States Postal Service,Q668687
,visa,,,BRONSON,MI,,US,,,,,
,visa,,,BRONSON,MI,,US,,,,,
,visa,,,BRONSON,MI,,US,,,,,
,visa,,,BRONSON,MI,,US,,,,,
,visa,,,BRONSON,MI,,US,,,,,
,visa,,,BRONSON,MI,,US,,,,,
,visa,,,BRONSON,MI,,US,,,,,
