Ref,Spider,Name,Address,City,State,Zipcode,Country,Phone,Website,Hours,Brand,WikiData
https://stores.advanceautoparts.com/mi/benton-harbor/1740-scottdale-road-m-139,advance_auto_parts_us,Advance Auto Parts,,Benton Harbor,MI,,US,+1 269-926-4408,https://stores.advanceautoparts.com/mi/benton-harbor/1740-scottdale-road-m-139,Mo-Sa 07:30-19:00; Su 09:00-18:00,Advance Auto Parts,Q4686051
https://stores.aldi.us/#4421281,aldi_sud_us,ALDI  1700 Pipestone Road,,Benton Harbor,MI,,US,+1 855-955-2534,https://stores.aldi.us/mi/benton-harbor/1700-pipestone-road,"Mo-Su 08:30-20:00,09:00-20:00",ALDI,Q41171672
https://restaurants.applebees.com/en-us/mi/benton-harbor/2050-pipestone-road-83084,applebees,Connect with this Applebee's,,Benton Harbor,MI,,US,+1 269-925-8808,https://restaurants.applebees.com/en-us/mi/benton-harbor/2050-pipestone-road-83084,Mo-Sa 11:00-24:00; Su 11:00-23:00,Applebees,Q621532
77948,asics_us,Dunham's Sports,1000 E Napier Ave,Benton Harbor,MI,,US,+1 269-927-9969,,,asics,Q327247
62545,asics_us,Finish Line,1800 Pipestone Rd,Benton Harbor,MI,,US,+1 269-927-6746,,,asics,Q327247
2104,autozone_us,AutoZone Auto Parts Benton Harbor,,Benton Harbor,MI,,US,+1 269-925-2288,https://www.autozone.com/locations/mi/benton-harbor/1681-hwy-m-139.html,Mo-Sa 07:30-21:00; Su 08:30-21:00,AutoZone,Q4826087
Lake Michigan College,barnesnoblecollege,Lake Michigan College,,Harbor,MI,,US,,https://www.bncollege.com/campus-stores/,,Barnes & Noble College,Q4861508
https://locations.baskinrobbins.com/mi/benton-harbor/2680-michigan-139-362746-br,baskin_robbins_us,Baskin-Robbinsâ„¢,,Benton Harbor,MI,,US,+1 269-605-4454,https://locations.baskinrobbins.com/mi/benton-harbor/2680-michigan-139-362746-br,Mo-Su 05:00-21:00,Baskin-Robbins,Q584601
BBW02559,bathandbodyworks_us,FAIRPLAIN PLAZA,,BENTON HARBOR,MI,,US,+1 269-487-3251,,Mo-Sa 10:00-21:00; Su 11:00-18:00,Bath & Body Works,Q810773
658,batteriesplus,Shop The Area's Battery And Lighting Experts,,Benton Harbor,MI,,US,+1 269-925-7374,https://www.batteriesplus.com/store-locator/mi/bentonharbor/batteries-plus-658,Mo-Fr 08:00-19:00; Sa 09:00-19:00; Su 10:00-18:00,Batteries Plus Bulbs,Q17005157
https://stores.bestbuy.com/mi/benton-harbor/1515-orchard-xing-376.html,bestbuy,Best Buy Benton Harbor,,Benton Harbor,MI,,US,+1 269-926-6800,https://stores.bestbuy.com/mi/benton-harbor/1515-orchard-xing-376.html,,Best Buy,Q533415
555,biggby_coffee_us,Biggby Coffee,1990 Mall Place Benton Harbor MI 49022,Benton Harbor,MI,,US,+1 269-252-5255,,Mo-Sa 06:00-20:00; Su 07:00-20:00,Biggby Coffee,Q4906876
https://local.biglots.com/#13189801,biglots,Big Lots - Benton Harbor,,Benton Harbor,MI,,US,+1 269-925-9766,https://local.biglots.com/mi/benton-harbor/1950-pipestone-rd,Mo-Sa 09:00-21:00; Su 11:00-19:00,Big Lots,Q4905973
210675,bluerhino,Dollar General #22349,,Benton Harbor,MI,,US,+1 269-285-0217,,,Blue Rhino,Q65681213
163213,bluerhino,Family Dollar #09095,,Benton Harbor,MI,,US,+1 269-926-8214,,,Blue Rhino,Q65681213
198147,bluerhino,Jasleen Express Mart,,Benton Harbor,MI,,US,+1 574-310-9068,,,Blue Rhino,Q65681213
165211,bluerhino,Family Dollar #02018,,BENTON HARBOR,MI,,US,+1 269-927-6867,,,Blue Rhino,Q65681213
197876,bluerhino,Citgo #1,,Benton Harbor,MI,,US,+1 269-363-4746,,,Blue Rhino,Q65681213
151886,bluerhino,Walgreens #10078,,Benton Harbor,MI,,US,+1 269-983-3463,,,Blue Rhino,Q65681213
2518,bluerhino,Lowe's #46,,Benton Harbor,MI,,US,+1 269-927-6000,,,Blue Rhino,Q65681213
200669,bluerhino,Marathon Express,,Benton Harbor,MI,,US,+1 269-757-7463,,,Blue Rhino,Q65681213
2517,bluerhino,Walmart #2062 - Supercenter,,Benton Harbor,MI,,US,+1 269-927-6123,,,Blue Rhino,Q65681213
220475,bluerhino,Dollar General #24018,,BENTON HARBOR,MI,,US,+1 269-285-1490,,,Blue Rhino,Q65681213
200670,bluerhino,Quality Marathon,,Benton Harbor,MI,,US,+1 269-944-3228,,,Blue Rhino,Q65681213
152541,bluerhino,Walgreens #10081,,Portage,MI,,US,+1 269-381-4862,,,Blue Rhino,Q65681213
152542,bluerhino,Walgreens #10080,,Portage,MI,,US,+1 269-324-9988,,,Blue Rhino,Q65681213
46995,bobevans_us,Benton Harbor,,Benton Harbor,MI,,US,+1 269-925-0004,https://www.bobevans.com/locations/benton-harbor,Mo-Su 07:00-21:00,Bob Evans,Q4932386
69075092592154902200100000000000,bp,BP,,Benton Harbor,MI,,US,+1 269-925-2929,,24/7,BP,Q152057
60739912902024902200100000000000,bp,BP,,Benton Harbor,MI,,US,+1 269-925-3548,,24/7,BP,Q152057
821,burlington_us,Burlington,,Benton Harbor,MI,,US,+1 269-925-1820,https://stores.burlington.com/mi/benton-harbor/821,Mo-Th 09:00-22:00; Fr-Sa 09:00-22:30; Su 09:00-22:00,Burlington,Q4999220
https://stores.catofashions.com/#26560239,cato_us,Cato,,,MI,,US,+1 269-927-2170,https://stores.catofashions.com/mi/benton-harbor/1036-fairplain-drive,Mo-Sa 10:00-19:00; Su 13:00-18:00,Cato,Q16956136
2038838,chase_us,Fairplain Plaza - New branch - Newly renovated,,Benton Harbor,MI,,US,+1 269-926-4763,https://locator.chase.com/mi/benton-harbor/1088-e-napier-ave,Mo-Fr 09:00-17:00; Sa 09:00-13:00,Chase,Q524629
11399,chevrolet,LEVALLEY CHEVROLET GMC INC,,Benton Harbor,MI,,US,+1 269-925-3214,https://www.levalley.com,Mo 08:30-18:00; Tu 08:30-19:00; We-Fr 08:30-18:00; Sa 09:00-13:00,Chevrolet,Q29570
63564,citi,ATM Lake Michigan College,,Benton Harbor,MI,,US,,,,Citibank,Q857063
59711,citi,ATM HORIZON BANK,,Benton Harbor,MI,,US,,,,Citibank,Q857063
93252,citi,ATM Walgreens,,Benton Harbor,MI,,US,,,,Citibank,Q857063
om_mi_benton-harbor_1970-pipestone-rd-,cititrends,Citi Trends,,Benton Harbor,MI,,US,+1 269-238-0071,https://locations.cititrends.com/mi/benton-harbor/1970-pipestone-rd-.html,Mo 11:00-20:00; Tu 11:00-20:00; We 11:00-20:00; Th 11:00-20:00; Fr 10:00-21:00; Sa 10:00-21:00; Su 12:00-18:00,Citi Trends,Q5122438
bentonharbor/3363,claires,Shop Ear Piercings & Jewelry at Claires Walmart Benton Harbor,,BENTON HARBOR,MI,,US,+1 269-925-8818,https://stores.claires.com/us/mi/bentonharbor/3363.html,Mo-Su 12:00-20:00,Claire's,Q2974996
70189400,cricket_wireless,Cricket Wireless Authorized Retailer,,Benton Harbor,MI,,US,+1 269-363-9091,https://www.cricketwireless.com/stores/ll/US/MI/Benton-Harbor/1872-M-139,Mo-Fr 10:00-19:00; Sa 10:00-16:00; Su 12:00-16:00,Cricket Wireless,Q5184987
24018,dollar_general,Dollar General,,Benton Harbor,MI,,US,+1 615-855-4000,https://www.dollargeneral.com/store-directory/mi/benton-harbor/24018,Mo-Su 08:00-22:00,Dollar General,Q145168
22349,dollar_general,Dollar General,,Benton Harbor,MI,,US,+1 269-285-0217,https://www.dollargeneral.com/store-directory/mi/benton-harbor/22349,Mo-Su 08:00-22:00,Dollar General,Q145168
1221,dominos_pizza_us,Domino's Pizza,,Benton Harbor,MI,,US,+1 269-252-4499,https://pizza.dominos.com/michigan/benton-harbor/1927-pipestone-rd,Mo-Th 10:30-24:00; Fr-Sa 10:30-01:00; Su 10:30-24:00,Domino's,Q839466
074,dunhams_sports_us,BENTON HARBOR MI,,BENTON HARBOR,MI,,US,+1 269-927-9969,https://www.dunhamssports.com/store-details?storeID=074,Mo-Sa 09:00-21:00; Su 10:00-19:00,Dunham's Sports,Q5315238
362746,dunkin_us,Dunkin',,Benton Harbor,MI,,US,+1 269-605-4454,https://locations.dunkindonuts.com/en/mi/benton-harbor/2680-michigan-139/362746,Mo-Su 05:00-21:00,Dunkin',Q847743
E120N9,enterprise,Benton Harbor,,Benton Harbor,MI,,US,+1 269-925-0118,,,Enterprise Rent-A-Car,Q17085454
26143,family_dollar_us,FAMILY DOLLAR #6143,,Benton Harbor,MI,,US,+1 269-876-5184,https://www.familydollar.com/locations/mi/benton-harbor/26143/,Mo-Sa 09:00-22:00; Su 09:00-21:00,Family Dollar,Q5433101
29095,family_dollar_us,FAMILY DOLLAR #9095,,Benton Harbor,MI,,US,+1 269-876-5185,https://www.familydollar.com/locations/mi/benton-harbor/29095/,Mo-Su 08:00-22:00,Family Dollar,Q5433101
https://locations.53.com/#3034471,fifththirdbank,Fifth Third Bank Napier,,Benton Harbor,MI,,US,+1 269-927-4135,https://locations.53.com/mi/benton-harbor/1295-east-napier-ave..html,Mo-Fr 09:00-17:00; Sa 09:00-12:00,Fifth Third Bank,Q1411810
https://locations.fivebelow.com/mi/benton-harbor/970-e-napier-avenue,five_below,Five Below Fairplain Plaza,,Benton Harbor,MI,,US,,https://locations.fivebelow.com/mi/benton-harbor/970-e-napier-avenue,Mo-Sa 10:00-20:00; Su 11:00-18:00,Five Below,Q5455836
8781,fresenius_kidney_care_us,Fresenius Kidney Care Benton Harbor,,Benton Harbor,MI,,US,+1 800-881-5101,https://www.freseniuskidneycare.com/dialysis-centers/michigan/8781,Mo 04:30-21:30; Tu 04:30-21:00; We 04:30-21:30; Th 04:30-21:00; Fr 04:30-21:30; Sa 04:30-21:00,,
5273,gamestop_us,Fairplain Plaza,,BENTON HARBOR,MI,,US,+1 269-927-3405,https://www.gamestop.com/search/?store=5273,Mo-Th 12:00-19:00; Fr-Sa 11:00-21:00; Su 11:00-19:00,GameStop,Q202210
https://stores.gnc.com/#24059369,gnc,GNC Target Outlot-Benton Harbor,,,MI,,US,+1 269-287-2204,https://stores.gnc.com/all-stores-michigan/benton-harbor/2061-m-139-scottdale-road,Mo-Sa 10:00-19:00; Su 11:00-18:00,GNC,Q4808595
45a20146-458a-e111-8dde-005056934050,goodwill,Benton Harbor Store,,Benton Harbor,MI,,US,+1 269-926-8161,https://www.goodwill.org/locator/location/?store=NDVhMjAxNDYtNDU4YS1lMTExLThkZGUtMDA1MDU2OTM0MDUw&lat=NDIuMDc3OTU=&lng=LTg2LjQyMjM=,,Goodwill,Q5583655
https://www.harborfreight.com/storelocator/1944-pipestone-rd-benton-harbor-49022?number=583,harborfreight,"Harbor Freight Tools Benton Harbor, MI",,Benton Harbor,MI,,US,+1 269-934-0883,https://www.harborfreight.com/storelocator/1944-pipestone-rd-benton-harbor-49022?number=583,Mo-Sa 08:00-20:00; Su 09:00-18:00,Harbor Freight Tools,Q5654601
sbnbhhx-hampton-suites-benton-harbor,hilton,Hampton Inn & Suites Benton Harbor,,,MI,,US,+1 269-927-5878,https://www.hilton.com/ar/hotels/sbnbhhx-hampton-suites-benton-harbor/,,Hampton by Hilton,Q5646230
25786,h_r_block,H&R Block,,Benton Harbor,MI,,US,+1 269-926-8838,https://www.hrblock.com/local-tax-offices/michigan/benton-harbor/1613-mall-dr/25786/,,H&R Block,Q5627799
mi_benton-harbor_breakfast-1981-pipestone-rd-5442,ihop,IHOP Breakfast Restaurants Near You at 1981 Pipestone Rd,,Benton Harbor,MI,,US,+1 269-925-1500,https://restaurants.ihop.com/en-us/mi/benton-harbor/breakfast-1981-pipestone-rd-5442,,IHOP,Q1185675
https://office.jacksonhewitt.com/#27580536,jackson_hewitt,Jackson Hewitt,,Benton Harbor,MI,,US,+1 888-800-1040,https://office.jacksonhewitt.com/tax-preparation-services-locations/en/mi/benton-harbor/1394-mall-dr/13556,Mo 11:00-18:00; Tu 10:00-17:00; We 11:00-18:00; Fr 10:00-17:00; Sa 11:00-17:00,Jackson Hewitt,Q6117132
https://locations.jimmyjohns.com/mi/bentonharbor/sandwiches-4323.html,jimmy_johns,Jimmy John's,,Benton Harbor,MI,,US,+1 269-934-6660,https://locations.jimmyjohns.com/mi/bentonharbor/sandwiches-4323.html,,Jimmy John's,Q1689380
2555,joann_us,JOANN Fabric and Crafts,,Benton Harbor,MI,,US,+1 269-932-4335,https://stores.joann.com/mi/benton-harbor/2555/,Mo-Sa 09:00-21:00; Su 10:00-18:00,JOANN,Q6203968
https://locations.kfc.com/#12434785,kfc,Chicken Nuggets Near Benton Harbor,,Benton Harbor,MI,,US,,https://locations.kfc.com/mi/benton-harbor/1957-m-139-highway/chickennugget,Mo-Su 10:30-22:00,KFC,Q524757
1078,kohls_us,Kohl's,,Benton Harbor,MI,,US,+1 269-925-8470,https://www.kohls.com/stores/mi/bentonharbor-1078.shtml,Mo-Th 09:00-20:00; Fr-Sa 09:00-21:00; Su 09:00-20:00,Kohl's,Q967265
156247,marathon_petroleum_us,SGNDJ INC,,BENTON HARBOR,MI,,US,+1 269-363-4434,,,Marathon,Q458363
157535,marathon_petroleum_us,Marathon Plaza,,BENTON HARBOR,MI,,US,+1 269-757-7720,,,Marathon,Q458363
160628,marathon_petroleum_us,May St Market,,BENTON HARBOR,MI,,US,+1 646-407-5332,,,Marathon,Q458363
156113,marathon_petroleum_us,SUNNY SPOT,,BENTON HARBOR,MI,,US,+1 269-926-0936,,,Marathon,Q458363
157668,marathon_petroleum_us,QUALITY MARATHON,,BENTON HARBOR,MI,,US,+1 269-944-3228,,,Marathon,Q458363
157419,marathon_petroleum_us,MARATHON EXPRESS,,BENTON HARBOR,MI,,US,+1 269-757-7463,,,Marathon,Q458363
SBNCB,marriott,Courtyard St. Joseph Benton Harbor,,Benton Harbor,MI,,US,+1 269-210-3000,https://www.marriott.com/SBNCB,,Courtyard by Marriott,Q1053170
SBNSD,marriott,SpringHill Suites St. Joseph Benton Harbor,,Benton Harbor,MI,,US,+1 269-338-8300,https://www.marriott.com/SBNSD,,SpringHill Suites,Q7580351
18482,mattress_firm_us,Mattress Firm Clearance Center Benton Harbor,,Benton Harbor,MI,,US,+1 269-925-9920,https://www.mattressfirm.com/en-us/stores/mi/benton-harbor/102007/,,Mattress Firm Clearance,Q6791878
8786,michaels,BENTON HARBOR,,Benton Harbor,MI,,US,+1 269-934-7531,https://locations.michaels.com/mi/benton-harbor/8786,Mo-Sa 09:00-21:00; Su 10:00-19:00,Michaels,Q6835667
1761-south-m-139,my_eye_dr,,,Benton Harbor,MI,,US,+1 269-934-0424,https://locations.myeyedr.com/mi/benton-harbor/1761-south-m-139,,MyEyeDr.,Q117864710
460,ollies_bargain_outlet,Ollie's Bargain Outlet,,Benton Harbor,MI,,US,+1 269-285-2884,https://www.ollies.us/locations/1800-m-139-unit-b-benton-harbor-mi/,Mo-Sa 09:00-21:00; Su 10:00-19:00,Ollie's Bargain Outlet,Q7088304
https://locations.oreillyauto.com/mi/bentonharbor/check-engine-light-testing-3970.html,oreilly,Your Benton Harbor O'Reilly Auto Parts Store,,Benton Harbor,MI,,US,+1 269-925-2875,https://locations.oreillyauto.com/mi/bentonharbor/check-engine-light-testing-3970.html,Mo-Sa 07:30-22:00; Su 08:00-21:00,O'Reilly Auto Parts,Q7071951
https://locations.oreillyauto.com/mi/bentonharbor/wiper-installation-3970.html,oreilly,Your Benton Harbor O'Reilly Auto Parts Store,,Benton Harbor,MI,,US,+1 269-925-2875,https://locations.oreillyauto.com/mi/bentonharbor/wiper-installation-3970.html,Mo-Sa 07:30-22:00; Su 08:00-21:00,O'Reilly Auto Parts,Q7071951
https://locations.oreillyauto.com/mi/bentonharbor/battery-testing-3970.html,oreilly,Your Benton Harbor O'Reilly Auto Parts Store,,Benton Harbor,MI,,US,+1 269-925-2875,https://locations.oreillyauto.com/mi/bentonharbor/battery-testing-3970.html,Mo-Sa 07:30-22:00; Su 08:00-21:00,O'Reilly Auto Parts,Q7071951
https://locations.oreillyauto.com/mi/bentonharbor/autopartes-3970.html,oreilly,Tu tienda O'Reilly Auto Parts en Benton Harbor,,Benton Harbor,MI,,US,+1 269-925-2875,https://locations.oreillyauto.com/mi/bentonharbor/autopartes-3970.html,Mo-Sa 07:30-22:00; Su 08:00-21:00,O'Reilly Auto Parts,Q7071951
666,pilot_flyingj,Pilot Travel Center,,Benton Harbor,MI,,US,+1 269-925-7547,https://locations.pilotflyingj.com/us/mi/benton-harbor/1860-east-napier-ave.,,Pilot,Q7194412
mi_benton-harbor_1940-m-139,pizza_hut_us,1940 M 139,,Benton Harbor,MI,,US,+1 269-925-2300,https://locations.pizzahut.com/mi/benton-harbor/1940-m-139,,Pizza Hut,Q191615
restaurant_82227,popeyes_us_fr,Popeyes,"1323 E Napier Ave Benton Harbor, Michigan 49022 - USA",Benton Harbor,MI,,US,+1 269-926-4200,https://www.popeyes.com/store-locator/store/restaurant_82227,Mo-Su 10:30-21:00,Popeyes,Q1330910
home-depot-2768-13657,ppgpaints,HOME DEPOT 2768,,"Benton Harbor, ",MI,,US,+1 269-926-2173,https://www.ppgpaints.com/store-locator/us/michigan/benton-harbor-paint-stores/home-depot-2768-13657,,PPG Paints,Q83891559
fresh-decor-22785,ppgpaints,FRESH DECOR,,"Benton Harbor, ",MI,,US,+1 269-934-0166,https://www.ppgpaints.com/store-locator/us/michigan/benton-harbor-paint-stores/fresh-decor-22785,,PPG Paints,Q83891559
594,rentacenter,Rent-A-Center,,Benton Harbor,MI,,US,+1 269-925-5584,https://locations.rentacenter.com/michigan/benton-harbor/2081-m-139/,Mo-Sa 10:00-18:00,Rent-A-Center,Q7313497
https://restaurants.subway.com/#17196045,subway,Subway Wal-Mart #2062,,Benton Harbor,MI,,US,+1 269-926-4243,https://restaurants.subway.com/united-states/mi/benton-harbor/1400-mall-drive,Mo-Su 09:30-21:30,Subway,Q244457
https://restaurants.subway.com/#14914579,subway,Subway,,Benton Harbor Berrien,MI,,US,+1 269-927-3030,https://restaurants.subway.com/united-states/mi/benton-harbor/2004-s-m-139,Mo-Fr 09:00-22:30; Sa-Su 10:00-22:00,Subway,Q244457
https://locations.tacobell.com/#6145556,taco_bell,Taco Bell,,Benton Harbor,MI,,US,+1 269-925-4453,https://locations.tacobell.com/mi/benton-harbor/1905-m-139.html,Mo-Th 08:00-24:00; Fr-Sa 08:00-01:00; Su 08:00-24:00,Taco Bell,Q752941
084,tjx,Benton Harbor,980 Fairplain Drive,Benton Harbor,MI,,US,+1 269-925-5689,,Mo-Sa 09:30-21:30; Su 10:00-20:00,TJ Maxx,Q10860683
4802,tmobile_us,Mall Place & Fairplain,,Benton Harbor,MI,,US,+1 269-934-9200,https://www.t-mobile.com/store-locator/mi/benton-harbor/mall-place-fairplain,,T-Mobile,Q3511885
1354687,usps,BENTON HARBOR,,BENTON HARBOR,MI,,US,+1 269-926-8227,,Mo-Fr 08:30-17:00; Sa 08:30-12:00,United States Postal Service,Q668687
1443529,usps,ORCHARDS MALL,,BENTON HARBOR,MI,,US,+1 269-925-3458,,Mo-Fr 09:00-17:00; Sa 09:00-11:30,United States Postal Service,Q668687
4902200064,usps_collection_boxes,USPS COLLECTION BOX - BLUE BOX,197 MADELINE AVE,BENTON HARBOR,MI,,US,,,,United States Postal Service,Q668687
4902200054,usps_collection_boxes,USPS COLLECTION BOX - BLUE BOX,185 E MAIN ST,BENTON HARBOR,MI,,US,,,,United States Postal Service,Q668687
4902200053,usps_collection_boxes,USPS COLLECTION BOX - BLUE BOX,200 E WALL ST,BENTON HARBOR,MI,,US,,,,United States Postal Service,Q668687
4902200059,usps_collection_boxes,USPS COLLECTION BOX - BLUE BOX,525 RIVERVIEW DR,BENTON HARBOR,MI,,US,,,,United States Postal Service,Q668687
4902200070,usps_collection_boxes,USPS COLLECTION BOX - PO LOBBY,525 RIVERVIEW DR,BENTON HARBOR,MI,,US,,,,United States Postal Service,Q668687
4902200057,usps_collection_boxes,USPS COLLECTION BOX - PO LOBBY,525 RIVERVIEW DR,BENTON HARBOR,MI,,US,,,,United States Postal Service,Q668687
4902200047,usps_collection_boxes,USPS COLLECTION BOX - BLUE BOX,4781 TERRITORIAL RD,BENTON HARBOR,MI,,US,,,,United States Postal Service,Q668687
4902200032,usps_collection_boxes,USPS COLLECTION BOX - BLUE BOX,130 W NAPIER AVE,BENTON HARBOR,MI,,US,,,,United States Postal Service,Q668687
4902200044,usps_collection_boxes,USPS COLLECTION BOX - BLUE BOX,1860 E NAPIER AVE,BENTON HARBOR,MI,,US,,,,United States Postal Service,Q668687
4902200060,usps_collection_boxes,USPS COLLECTION BOX - BLUE BOX,1800 M 139,BENTON HARBOR,MI,,US,,,,United States Postal Service,Q668687
4902200063,usps_collection_boxes,USPS COLLECTION BOX - BLUE BOX,1800 PIPESTONE RD,BENTON HARBOR,MI,,US,,,,United States Postal Service,Q668687
4902200037,usps_collection_boxes,USPS COLLECTION BOX - BLUE BOX,1905 UNION AVE,BENTON HARBOR,MI,,US,,,,United States Postal Service,Q668687
4902200039,usps_collection_boxes,USPS COLLECTION BOX - BLUE BOX,1400 MALL DR,BENTON HARBOR,MI,,US,,,,United States Postal Service,Q668687
,visa,,,BENTON HARBOR,MI,,US,,,,,
,visa,,,BENTON HARBOR,MI,,US,,,,,
,visa,,,BENTON HARBOR,MI,,US,,,,,
,visa,,,BENTON HARBOR,MI,,US,,,,,
,visa,,,TRAVERSE CITY,MI,,US,,,,,
,visa,,,BENTON HARBOR,MI,,US,,,,,
,visa,,,BENTON HARBOR,MI,,US,,,,,
,visa,,,BENTON HARBOR,MI,,US,,,,,
,visa,,,BENTON HARBOR,MI,,US,,,,,
,visa,,,BENTON HARBOR,MI,,US,,,,,
,visa,,,BENTON HARBOR,MI,,US,,,,,
,visa,,,BENTON HARBOR,MI,,US,,,,,
,visa,,,BENTON HARBOR,MI,,US,,,,,
,visa,,,BENTON HARBOR,MI,,US,,,,,
,visa,,,BENTON HARBOR,MI,,US,,,,,
,visa,,,BENTON HARBOR,MI,,US,,,,,
,visa,,,BENTON HARBOR,MI,,US,,,,,
,visa,,,BENTON HARBOR,MI,,US,,,,,
,visa,,,BENTON HARBOR,MI,,US,,,,,
,visa,,,BENTON HARBOR,MI,,US,,,,,
,visa,,,BENTON HARBOR,MI,,US,,,,,
,visa,,,BENTON HARBOR,MI,,US,,,,,
,visa,,,BENTON HARBOR,MI,,US,,,,,
,visa,,,BENTON TWP.,MI,,US,,,,,
,visa,,,BENTON HARBOR,MI,,US,,,,,
,visa,,,BENTON HARBOR,MI,,US,,,,,
,visa,,,BENTON HARBOR,MI,,US,,,,,
,visa,,,BENTON HARBOR,MI,,US,,,,,
,visa,,,BENTON HARBOR,MI,,US,,,,,
,visa,,,BENTON HARBOR,MI,,US,,,,,
,visa,,,BENTON HARBOR,MI,,US,,,,,
,visa,,,BENTON HARBOR,MI,,US,,,,,
,visa,,,BENTON HARBOR,MI,,US,,,,,
,visa,,,BENTON HARBOR,MI,,US,,,,,
,visa,,,BENTON HARBOR,MI,,US,,,,,
,visa,,,BENTON HARBOR,MI,,US,,,,,
,visa,,,BENTON HARBOR,MI,,US,,,,,
,visa,,,BENTON HRABOR,MI,,US,,,,,
,visa,,,BENTON HARBOR,MI,,US,,,,,
,visa,,,BENTON HARBOR,MI,,US,,,,,
,visa,,,BENTON HARBOR,MI,,US,,,,,
,visa,,,BENTON HARBOR,MI,,US,,,,,
,visa,,,BENTON HARBOR,MI,,US,,,,,
,visa,,,BENTON HARBOR,MI,,US,,,,,
,visa,,,BENTON HARBOR,MI,,US,,,,,
,visa,,,BENTON HARBOR,MI,,US,,,,,
,visa,,,BENTON HARBOR,MI,,US,,,,,
,visa,,,BENTON HARBOR,MI,,US,,,,,
,visa,,,BENTON HARBOR,MI,,US,,,,,
,visa,,,BENTON HARBOR,MI,,US,,,,,
,visa,,,BENTON HARBOR,MI,,US,,,,,
,visa,,,BENTON HARBOR,MI,,US,,,,,
,visa,,,BENTON HARBOR,MI,,US,,,,,
,visa,,,BENTON HARBOR,MI,,US,,,,,
,visa,,,BENTON HARBOR,MI,,US,,,,,
,visa,,,BENTON HARBOR,MI,,US,,,,,
,visa,,,BENTON HARBOR,MI,,US,,,,,
,visa,,,BENTON HARBOR,MI,,US,,,,,
,visa,,,BENTON HARBOR,MI,,US,,,,,
,visa,,,BENTON HARBOR,MI,,US,,,,,
,visa,,,BENTON HARBOR,MI,,US,,,,,
,visa,,,BENTON HARBOR,MI,,US,,,,,
,visa,,,BENTON HARBOR,MI,,US,,,,,
,visa,,,BENTON HARBOR,MI,,US,,,,,
,visa,,,BENTON HARBOR,MI,,US,,,,,
,visa,,,BENTON HARBOR,MI,,US,,,,,
,visa,,,BENTON HARBOR,MI,,US,,,,,
,visa,,,ST. JOSEPH,MI,,US,,,,,
,visa,,,STEVENSVILLE,MI,,US,,,,,
https://www.walgreens.com/locator/walgreens-875+e+napier+ave-benton+harbor-mi-49022/id=10078,walgreens,Walgreens,,Benton Harbor,MI,,US,+1 269-983-3463,https://www.walgreens.com/locator/walgreens-875+e+napier+ave-benton+harbor-mi-49022/id=10078,Mo-Su 08:00-22:00,Walgreens,Q1591889
https://locations.wendys.com/#9250900,wendys,"Wendy's M 139 571 in Benton Harbor, MI",,Benton Harbor,MI,,US,+1 269-926-2510,https://locations.wendys.com/united-states/mi/benton-harbor/1986-m-139,"Mo-Su 06:30-10:30,09:00-22:00",Wendy's,Q550258
https://locations.wendys.com/#9250899,wendys,"Wendy's Petro Ii in Benton Harbor, MI",,Benton Harbor,MI,,US,+1 269-925-6447,https://locations.wendys.com/united-states/mi/benton-harbor/1860-east-napier-avenue,"Mo-Su 06:00-10:30,06:00-24:00",Wendy's,Q550258
a4dc10e119e034ddf60bd8a129805cca,western_union,SUNSHINE MARKET,,Benton Harbor,MI,,US,+1 269-348-9224,https://location.westernunion.com/us/mi/benton-harbor/a4dc10e119e034ddf60bd8a129805cca,Mo-Su 08:00-20:00,Western Union,Q861042
cd9d60fec3a359c1d85dde395bc4a085,western_union,WALMART #002062,,Benton Harbor,MI,,US,+1 269-927-6025,https://location.westernunion.com/us/mi/benton-harbor/cd9d60fec3a359c1d85dde395bc4a085,Mo-Sa 08:00-20:00; Su 10:00-18:00,Western Union,Q861042
150339,wingstop,Wingstop Benton Harbor Mall Drive,1396 Mall Drive,Benton Harbor,MI,,US,+1 269-605-4852,,,Wingstop,Q8025339
