Ref,Spider,Name,Address,City,State,Zipcode,Country,Phone,Website,Hours,Brand,WikiData
2339,autozone_us,AutoZone Auto Parts Lorton,,Lorton,VA,,US,+1 703-337-9063,https://www.autozone.com/locations/va/lorton/7764-gunston-plaza.html,Mo-Sa 07:30-21:00; Su 08:00-20:00,AutoZone,Q4826087
https://locators.bankofamerica.com/va/lorton/financial-centers-lorton-15857.html,bankofamerica,Bank of America Financial Center & Drive-Thru ATM | Lorton Marketplace,,Lorton,VA,,US,+1 703-339-0843,https://locators.bankofamerica.com/va/lorton/financial-centers-lorton-15857.html,Mo-Fr 10:00-16:00,Bank of America,Q487907
88191,bluerhino,Giant Food #798 - GL,,Lorton,VA,,US,+1 703-690-5000,,,Blue Rhino,Q65681213
24972,bluerhino,Food Lion #0943,,Lorton,VA,,US,+1 703-550-9170,,,Blue Rhino,Q65681213
19480171,chase_us,EXTERIOR WU BLDG - 811281,,LORTON,VA,,US,+1 800-935-9935,https://locator.chase.com/va/lorton/9409-lorton-market-st,,Chase,Q524629
va_lorton_9447-lorton-market-st,chipotle, ,,Lorton,VA,,US,+1 703-337-4624,https://locations.chipotle.com/va/lorton/9447-lorton-market-st,,Chipotle,Q465751
4379,dominos_pizza_us,Domino's Pizza,,Lorton,VA,,US,+1 703-550-5100,https://pizza.dominos.com/virginia/lorton/7772-gunston-plz,Mo-Th 10:00-24:00; Fr-Sa 10:00-01:00; Su 10:00-24:00,Domino's,Q839466
353138,dunkin_us,Dunkin',,Lorton,VA,,US,+1 703-372-1815,https://locations.dunkindonuts.com/en/va/lorton/9425-lorton-market-st/353138,Mo-Su 05:00-19:00,Dunkin',Q847743
1301,european_wax_center_us,European Wax Center,,Lorton,VA,,US,+1 571-667-8090,https://locations.waxcenter.com/va/lorton/lorton-shoppes-at-lorton-valley-1301.html,Mo-Fr 09:00-20:00; Sa-Su 09:00-18:00,European Wax Center,Q5413426
900343,extra_space_storage,Lorton Self Storage at 8021 Mims St,,Lorton,VA,,US,+1 571-642-0707,https://www.extraspace.com/storage/facilities/us/virginia/lorton/900343/,Mo-Fr 09:30-18:00; Sa 09:00-17:30,Extra Space Storage,Q5422162
200327261,exxonmobil,"NEWINGTON SERVICE CENTER,LLC",,LORTON,VA,,US,,https://www.exxon.com/en/find-station/exxon-lorton-va-newingtonservicecenterllc-200327261,24/7,Exxon,Q109675651
https://local.fedex.com/#25203182,fedex,,,Lorton,VA,,US,+1 800-463-3339,https://local.fedex.com/en-us/va/lorton/bntfd,,FedEx,Q459477
https://restaurants.fiveguys.com/#15553539,five_guys_us,Five Guys Shoppes of Lorton Valley,,Lorton,VA,,US,+1 703-690-9999,https://restaurants.fiveguys.com/8971-ox-road,"Mo-Su 11:00-21:30,11:00-22:00",Five Guys,Q1131810
4051,fresenius_kidney_care_us,Fresenius Kidney Care Lorton,,Lorton,VA,,US,+1 800-881-5101,https://www.freseniuskidneycare.com/dialysis-centers/virginia/4051,Mo 06:00-23:00; Tu 07:00-16:00; We 06:00-23:00; Th 07:00-16:00; Fr 06:00-23:00; Sa 07:00-22:00,,
0798,giantfood,Giant Food Shoppes At Lorton Valley,,Lorton,VA,,US,+1 703-690-5000,https://stores.giantfood.com/va/lorton/8941-ox-rd,Mo-Su 06:00-22:00,Giant Food,Q5558336
https://www.goldsgym.com/lortonva/,goldsgym,Gold's Gym Lorton,,Lorton,VA,,US,+1 703-339-6339,https://www.goldsgym.com/lortonva/,Mo-Fr 04:30-22:00; Sa-Su 07:00-18:00,Gold's Gym,Q1536234
va_lorton_breakfast-7784-gunston-plz-3438,ihop,IHOP Breakfast Restaurants Near You at 7784 Gunston Plz,,Lorton,VA,,US,+1 703-339-1168,https://restaurants.ihop.com/en-us/va/lorton/breakfast-7784-gunston-plz-3438,,IHOP,Q1185675
000741,kindercare,Silverbrook KinderCare,,Lorton,VA,,US,,https://www.kindercare.com/our-centers/lorton/va/000741,,KinderCare Learning Centers,Q6410551
1460,lidl_us,Lorton VA - Liberty Market,,Lorton,VA,,US,+1 844-747-5435,,,Lidl,Q151954
9419-lorton-market-pl,my_eye_dr,,,Lorton,VA,,US,+1 703-339-9833,https://locations.myeyedr.com/va/lorton/9419-lorton-market-pl,,MyEyeDr.,Q117864710
https://www.orkin.com/locations/virginia-va/lorton-pest-control/branch-331,orkin_us,Orkin,,Lorton,VA,,US,+1 571-348-7002,https://www.orkin.com/locations/virginia-va/lorton-pest-control/branch-331,,Orkin,Q7102943
https://locations.papajohns.com/#10692479,papa_johns,Papa John's,,Lorton,VA,,US,+1 703-550-2345,https://locations.papajohns.com/united-states/va/22079/lorton/7756-gunston-plaza-drive,Mo-Th 10:00-23:00; Fr-Sa 10:00-24:00; Su 10:00-23:00,Papa John's Pizza,Q2759586
restaurant_241389,popeyes_us_fr,Popeyes,"8971 Ox Rd Suite 250 Lorton, Virginia 22079 - USA",Lorton,VA,,US,+1 571-348-0326,https://www.popeyes.com/store-locator/store/restaurant_241389,Mo-Th 10:30-22:00; Fr-Sa 10:30-23:00; Su 10:30-22:00,Popeyes,Q1330910
ppg-paints-9428-21926,ppgpaints,PPG Paints 9428,,"Lorton, ",VA,,US,+1 571-642-2808,https://www.ppgpaints.com/store-locator/us/virginia/lorton-paint-stores/ppg-paints-9428-21926,,PPG Paints,Q83891559
https://www.publicstorage.com/self-storage-va-lorton/1041.html,public_storage_us,Public Storage,,Lorton,VA,,US,+1 571-335-8508,https://www.publicstorage.com/self-storage-va-lorton/1041.html,,Public Storage,Q1156045
https://www.publicstorage.com/self-storage-va-lorton/1827.html,public_storage_us,Public Storage,,Lorton,VA,,US,+1 571-814-5268,https://www.publicstorage.com/self-storage-va-lorton/1827.html,,Public Storage,Q1156045
https://www.publicstorage.com/self-storage-va-lorton/1647.html,public_storage_us,Public Storage,,Lorton,VA,,US,+1 571-322-6943,https://www.publicstorage.com/self-storage-va-lorton/1647.html,,Public Storage,Q1156045
781,pure_barre_us,Fairfax Station | Lorton,,Lorton,VA,,US,+1 703-551-3444,https://www.purebarre.com/location/fairfax-station-lorton-va,,Pure Barre,Q86707084
39244,seven_eleven_ca_us,Bcp Str    8228 Gunston Corner Ln,,Lorton,VA,,US,+1 703-690-2463,https://www.7-eleven.com/locations/va/lorton/8228-gunston-corner-ln-39244,,7-Eleven,Q259340
40390,seven_eleven_ca_us,7-Eleven,,LORTON,VA,,US,+1 703-493-9577,https://www.7-eleven.com/locations/va/lorton/8915-ox-road-40390,,7-Eleven,Q259340
https://restaurants.subway.com/#14902982,subway,Subway Lorton Town Center,,Lorton Fairfax,VA,,US,+1 703-339-0656,https://restaurants.subway.com/united-states/va/lorton/9000-lorton-town-station-blvd,Mo-Su 08:00-21:00,Subway,Q244457
0995352200,sunoco_us,Sunoco,,LORTON,VA,,US,+1 703-643-1439,,,Sunoco,Q1423218
0474632700,sunoco_us,Sunoco,,LORTON,VA,,US,+1 703-493-9577,,,Sunoco,Q1423218
5690,upsstore,Lorton Station Marketplace,9435 Lorton Market St,Lorton,VA,,US,+1 703-372-2950,https://locations.theupsstore.com/va/lorton/9435-lorton-market-st,,UPS Store,Q7771029
1370959,usps,LORTON,,LORTON,VA,,US,+1 703-339-6374,,Mo-Fr 09:00-17:00; Sa 09:00-13:00,United States Postal Service,Q668687
2207900011,usps_collection_boxes,USPS COLLECTION BOX - BLUE BOX,9600 RICHMOND HWY,LORTON,VA,,US,,,,United States Postal Service,Q668687
2207900006,usps_collection_boxes,USPS COLLECTION BOX - BLUE BOX,7726 GUNSTON PLZ,LORTON,VA,,US,,,,United States Postal Service,Q668687
2207900004,usps_collection_boxes,USPS COLLECTION BOX - BLUE BOX,7726 GUNSTON PLZ,LORTON,VA,,US,,,,United States Postal Service,Q668687
2207900020,usps_collection_boxes,USPS COLLECTION BOX - PO LOBBY,7726 GUNSTON PLZ,LORTON,VA,,US,,,,United States Postal Service,Q668687
2207900021,usps_collection_boxes,USPS COLLECTION BOX - PO LOBBY,7726 GUNSTON PLZ,LORTON,VA,,US,,,,United States Postal Service,Q668687
2207900023,usps_collection_boxes,USPS COLLECTION BOX - PO LOBBY,7726 GUNSTON PLZ,LORTON,VA,,US,,,,United States Postal Service,Q668687
2207900009,usps_collection_boxes,USPS COLLECTION BOX - BLUE BOX,7630 FAIRFIELD WOODS CT,LORTON,VA,,US,,,,United States Postal Service,Q668687
2207900003,usps_collection_boxes,USPS COLLECTION BOX - BLUE BOX,7200 TELEGRAPH SQUARE DR,LORTON,VA,,US,,,,United States Postal Service,Q668687
2207900007,usps_collection_boxes,USPS COLLECTION BOX - BLUE BOX,8500 CINDER BED RD,LORTON,VA,,US,,,,United States Postal Service,Q668687
2207900018,usps_collection_boxes,USPS COLLECTION BOX - BLUE BOX,8988 LORTON STATION BLVD,LORTON,VA,,US,,,,United States Postal Service,Q668687
2207900002,usps_collection_boxes,USPS COLLECTION BOX - BLUE BOX,8219 TERMINAL RD,LORTON,VA,,US,,,,United States Postal Service,Q668687
,visa,,,LORTON,VA,,US,,,,,
,visa,,,LORTON,VA,,US,,,,,
,visa,,,LORTON,VA,,US,,,,,
,visa,,,LORTON,VA,,US,,,,,
,visa,,,LORTON,VA,,US,,,,,
,visa,,,LORTON,VA,,US,,,,,
,visa,,,LORTON,VA,,US,,,,,
,visa,,,LORTON,VA,,US,,,,,
,visa,,,LORTON,VA,,US,,,,,
,visa,,,LORTON,VA,,US,,,,,
,visa,,,LORTON,VA,,US,,,,,
,visa,,,LORTON,VA,,US,,,,,
,visa,,,LORTON,VA,,US,,,,,
,visa,,,LORTON,VA,,US,,,,,
,visa,,,LORTON,VA,,US,,,,,
,visa,,,LORTON,VA,,US,,,,,
,visa,,,LORTON,VA,,US,,,,,
,visa,,,LORTON,VA,,US,,,,,
,visa,,,LORTON,VA,,US,,,,,
,visa,,,LORTON,VA,,US,,,,,
,visa,,,LORTON,VA,,US,,,,,
,visa,,,LORTON,VA,,US,,,,,
,visa,,,LORTON,VA,,US,,,,,
,visa,,,LORTON,VA,,US,,,,,
,visa,,,LORTON,VA,,US,,,,,
,visa,,,LORTON,VA,,US,,,,,
,visa,,,LORTON,VA,,US,,,,,
,visa,,,LORTON,VA,,US,,,,,
,visa,,,LORTON,VA,,US,,,,,
,visa,,,LORTON,VA,,US,,,,,
,visa,,,LORTON,VA,,US,,,,,
,visa,,,LORTON,VA,,US,,,,,
,visa,,,LORTON,VA,,US,,,,,
,visa,,,LORTON,VA,,US,,,,,
,visa,,,LORTON,VA,,US,,,,,
,visa,,,LORTON,VA,,US,,,,,
,visa,,,LORTON,VA,,US,,,,,
,visa,,,LORTON,VA,,US,,,,,
,visa,,,LORTON,VA,,US,,,,,
https://www.vocellipizza.com/lortontowncenter_va,vocelli_pizza_us,Lorton Town Center,,Lorton,VA,,US,,https://www.vocellipizza.com/lortontowncenter_va,,Vocelli Pizza,Q7939247
https://www.walgreens.com/locator/walgreens-9372+richmond+hwy-lorton-va-22079/id=11525,walgreens,Walgreens,,Lorton,VA,,US,+1 571-642-0103,https://www.walgreens.com/locator/walgreens-9372+richmond+hwy-lorton-va-22079/id=11525,Mo-Su 07:00-22:00,Walgreens,Q1591889
8994__LORTON__STATION__BLVD_LORTON_VA_22079,wellsfargo,Wells Fargo,8994 LORTON STATION BLVD,LORTON,VA,,US,+1 703-541-5260,https://www.wellsfargo.com/locator/bank/8994__LORTON__STATION__BLVD_LORTON_VA_22079/,Mo-Fr 09:00-17:00,Wells Fargo,Q744149
77d38edab44791ad7e256a17e1a28e9d,western_union,7-ELEVEN #39244,,Lorton,VA,,US,+1 703-690-2463,https://location.westernunion.com/us/va/lorton/77d38edab44791ad7e256a17e1a28e9d,,Western Union,Q861042
