Ref,Spider,Name,Address,City,State,Zipcode,Country,Phone,Website,Hours,Brand,WikiData
5541,abc_pl,abc,,Legionowo,mazowieckie,,PL,,,,abc,Q11683985
2613,abc_pl,abc,,Legionowo,mazowieckie,,PL,,,,abc,Q11683985
5926,abc_pl,abc,,Legionowo,mazowieckie,,PL,,,,abc,Q11683985
4749,abc_pl,abc,,Legionowo,mazowieckie,,PL,,,,abc,Q11683985
12312,abc_pl,abc,,Legionowo,mazowieckie,,PL,,,,abc,Q11683985
PL001261,aldi_nord_pl,ALDI,,Legionowo,Mazowieckie,,PL,+48 800 118 118,,Mo-Sa 07:00-22:00,ALDI,Q41171373
https://www.credit-agricole.pl/kontakt/oddzial/2008-legionowo-pilsudskiego,credit_agricole_pl,"Credit Agricole Piłsudskiego 13, Legionowo",,Legionowo,mazowieckie,,PL,19 019,https://www.credit-agricole.pl/kontakt/oddzial/2008-legionowo-pilsudskiego,Mo-Fr 09:30-17:00,Credit Agricole,Q590952
88,dr_max,"Apteka Dr.Max, Piłsudskiego 13, Legionowo",,Legionowo,Mazowieckie,,PL,+48 22 774 13 70,https://www.drmax.pl/apteki/legionowo-pisudskiego-13,,Dr. Max,Q56317371
12777,itaka_pl,ITAKA LEGIONOWO,,Legionowo,mazowieckie,,PL,+48 884 993 093,https://www.itaka.pl/biura/mazowieckie/legionowo/galeria-gondola/12777/,Mo-Fr 10:00-19:00; Su 10:00-14:00,Itaka,Q16560452
274,mcdonalds_pl,McDonald's,,Legionowo,Mazowieckie,,PL,+48 694 496 036,https://mcdonalds.pl/restauracje/mazowieckie/legionowo/legionowo-ul-jagiellonska-1-3,Mo-Su 07:00-23:00,McDonald's,Q38076
LGE01APP,paczkomat_inpost_pl,Na parkingu,,Legionowo,mazowieckie,,PL,,https://inpost.pl/paczkomat-legionowo-lge01app-piaskowa-paczkomaty-mazowieckie,24/7,Paczkomat,Q110970254
LGE01M,paczkomat_inpost_pl,Przy sklepie Lidl,,Legionowo,mazowieckie,,PL,,https://inpost.pl/paczkomat-legionowo-lge01m-jagiellonska-paczkomaty-mazowieckie,24/7,Paczkomat,Q110970254
LGE02AP,paczkomat_inpost_pl,Przy Galerii Zegrzyńskiej,,Legionowo,mazowieckie,,PL,,https://inpost.pl/paczkomat-legionowo-lge02ap-zegrzynska-paczkomaty-mazowieckie,24/7,Paczkomat,Q110970254
LGE02M,paczkomat_inpost_pl,DH Maxim centrum handlowe,,Legionowo,mazowieckie,,PL,,https://inpost.pl/paczkomat-legionowo-lge02m-siwinskiego-paczkomaty-mazowieckie,24/7,Paczkomat,Q110970254
LGE03AP,paczkomat_inpost_pl,Przy Aptece z Uśmiechem,,Legionowo,mazowieckie,,PL,,https://inpost.pl/paczkomat-legionowo-lge03ap-suwalna-paczkomaty-mazowieckie,24/7,Paczkomat,Q110970254
LGE03M,paczkomat_inpost_pl,"Przy Błękitnym Centrum, na końcu parkingu",,Legionowo,mazowieckie,,PL,,https://inpost.pl/paczkomat-legionowo-lge03m-pilsudskiego-paczkomaty-mazowieckie,24/7,Paczkomat,Q110970254
LGE03N,paczkomat_inpost_pl,Przy markecie Carrefour,,Legionowo,mazowieckie,,PL,,https://inpost.pl/paczkomat-legionowo-lge03n-pilsudskiego-paczkomaty-mazowieckie,24/7,Paczkomat,Q110970254
LGE04A,paczkomat_inpost_pl,Stacja LPG Auto-Gaz,,Legionowo,mazowieckie,,PL,,https://inpost.pl/paczkomat-legionowo-lge04a-jana-iii-sobieskiego-paczkomaty-mazowieckie,24/7,Paczkomat,Q110970254
LGE04M,paczkomat_inpost_pl,"Przy sklepie Społem, po lewej stronie od wejścia",,Legionowo,mazowieckie,,PL,,https://inpost.pl/paczkomat-legionowo-lge04m-przemyslowa-paczkomaty-mazowieckie,24/7,Paczkomat,Q110970254
LGE05A,paczkomat_inpost_pl,Przy Przystanek Pizza,,Legionowo,mazowieckie,,PL,,https://inpost.pl/paczkomat-legionowo-lge05a-tadeusza-kosciuszki-paczkomaty-mazowieckie,24/7,Paczkomat,Q110970254
LGE05M,paczkomat_inpost_pl,Przy sklepie spożywczym,,Legionowo,mazowieckie,,PL,,https://inpost.pl/paczkomat-legionowo-lge05m-sowinskiego-paczkomaty-mazowieckie,24/7,Paczkomat,Q110970254
LGE05N,paczkomat_inpost_pl,Przy sklepie spożywczym Smak,,Legionowo,mazowieckie,,PL,,https://inpost.pl/paczkomat-legionowo-lge05n-targowa-paczkomaty-mazowieckie,24/7,Paczkomat,Q110970254
LGE06A,paczkomat_inpost_pl,Przy Arenie Legionowo,,Legionowo,mazowieckie,,PL,,https://inpost.pl/paczkomat-legionowo-lge06a-boleslawa-chrobrego-paczkomaty-mazowieckie,24/7,Paczkomat,Q110970254
LGE07M,paczkomat_inpost_pl,"Na działce, wejście od strony ulicy Narutowicza",,Legionowo,mazowieckie,,PL,,https://inpost.pl/paczkomat-legionowo-lge07m-wyszynskiego-paczkomaty-mazowieckie,24/7,Paczkomat,Q110970254
LGE08M,paczkomat_inpost_pl,Na działce,,Legionowo,mazowieckie,,PL,,https://inpost.pl/paczkomat-legionowo-lge08m-krasinskiego-paczkomaty-mazowieckie,24/7,Paczkomat,Q110970254
LGE08N,paczkomat_inpost_pl,Przy sklepie Wrzos,,Legionowo,mazowieckie,,PL,,https://inpost.pl/paczkomat-legionowo-lge08n-wrzosowa-paczkomaty-mazowieckie,24/7,Paczkomat,Q110970254
LGE09M,paczkomat_inpost_pl,Przy urzędzie miasta,,Legionowo,mazowieckie,,PL,,https://inpost.pl/paczkomat-legionowo-lge09m-jozefa-pilsudskiego-paczkomaty-mazowieckie,24/7,Paczkomat,Q110970254
LGE09N,paczkomat_inpost_pl,Przy hotelu Bukowiec,,Legionowo,mazowieckie,,PL,,https://inpost.pl/paczkomat-legionowo-lge09n-warszawska-paczkomaty-mazowieckie,24/7,Paczkomat,Q110970254
LGE10M,paczkomat_inpost_pl,Przy budynku hotelowym,,Legionowo,mazowieckie,,PL,,https://inpost.pl/paczkomat-legionowo-lge10m-piotra-wysockiego-paczkomaty-mazowieckie,24/7,Paczkomat,Q110970254
LGE10N,paczkomat_inpost_pl,Przy sklepie meblowym Black Red White,,Legionowo,mazowieckie,,PL,,https://inpost.pl/paczkomat-legionowo-lge10n-chopina-paczkomaty-mazowieckie,24/7,Paczkomat,Q110970254
LGE12M,paczkomat_inpost_pl,Przy sklepie Outlet Vestiti,,Legionowo,mazowieckie,,PL,,https://inpost.pl/paczkomat-legionowo-lge12m-jagiellonska-paczkomaty-mazowieckie,24/7,Paczkomat,Q110970254
POP-LGE11,paczkomat_inpost_pl,SKLEP NINA,,Legionowo,mazowieckie,,PL,,https://inpost.pl/paczkomat-legionowo-pop-lge11-allegionow-paczkomaty-mazowieckie,Mo-Fr 08:00-20:00,Paczkomat,Q110970254
POP-LGE13,paczkomat_inpost_pl,PANTEGO24.PL,,Legionowo,mazowieckie,,PL,,https://inpost.pl/paczkomat-legionowo-pop-lge13-pilsudskiego-paczkomaty-mazowieckie,Mo-Fr 10:00-18:00; Sa 10:00-14:00,Paczkomat,Q110970254
POP-LGE7,paczkomat_inpost_pl,EPAKA,,Legionowo,mazowieckie,,PL,,https://inpost.pl/paczkomat-legionowo-pop-lge7-batorego-paczkomaty-mazowieckie,Mo-Fr 09:00-18:00,Paczkomat,Q110970254
WAW128AP,paczkomat_inpost_pl,Stacja paliw Shell,,Legionowo,mazowieckie,,PL,,https://inpost.pl/paczkomat-legionowo-waw128ap-warszawska-paczkomaty-mazowieckie,24/7,Paczkomat,Q110970254
620,play_pl,Salon Play,Ul. Piłsudskiego 31,Legionowo,mazowieckie,,PL,"790 030 167, 22 784 33 01",,Mo-Fr 10:00-19:00; Sa 10:00-15:00,Play,Q7202998
249319,poczta_polska_pl,UP Legionowo 1,,Legionowo,MAZOWIECKIE,,PL,+48 22 774 26 24,,,Poczta Polska,Q168833
7263,tedi,TEDi Sieć Handlowa Sp. z o.o.,,Legionowo,Mazowieckie,,PL,+48 32 450 36 20,https://www.tedi.com/stores/7263/pl/Mazowieckie/Legionowo/Siwińskiego-2,Mo-Sa 00:00-24:00,TEDi,Q1364603
,visa,,,LEGIONOWO,MAZOWIECKIE,,PL,,,,,
,visa,,,LEGIONOWO,MAZOWIECKIE,,PL,,,,,
,visa,,,LEGIONOWO,MAZOWIECKIE,,PL,,,,,
,visa,,,LEGIONOWO,MAZOWIECKIE,,PL,,,,,
,visa,,,LEGIONOWO,MAZOWIECKIE,,PL,,,,,
,visa,,,LEGIONOWO,MAZOWIECKIE,,PL,,,,,
,visa,,,LEGIONOWO,MAZOWIECKIE,,PL,,,,,
,visa,,,LEGIONOWO,MAZOWIECKIE,,PL,,,,,
,visa,,,LEGIONOWO,MAZOWIECKIE,,PL,,,,,
,visa,,,LEGIONOWO,MAZOWIECKIE,,PL,,,,,
,visa,,,LEGIONOWO,MAZOWIECKIE,,PL,,,,,
,visa,,,LEGIONOWO,MAZOWIECKIE,,PL,,,,,
,visa,,,LEGIONOWO,MAZOWIECKIE,,PL,,,,,
,visa,,,LEGIONOWO,MAZOWIECKIE,,PL,,,,,
,visa,,,LEGIONOWO,MAZOWIECKIE,,PL,,,,,
,visa,,,LEGIONOWO,MAZOWIECKIE,,PL,,,,,
,visa,,,LEGIONOWO,MAZOWIECKIE,,PL,,,,,
,visa,,,LEGIONOWO,MAZOWIECKIE,,PL,,,,,
,visa,,,LEGIONOWO,MAZOWIECKIE,,PL,,,,,
,visa,,,LEGIONOWO,MAZOWIECKIE,,PL,,,,,
,visa,,,LEGIONOWO,MAZOWIECKIE,,PL,,,,,
,visa,,,LEGIONOWO,MAZOWIECKIE,,PL,,,,,
bc65471aa81f44793ee16851484a105a,western_union,KANTOR EXCHANGE GROUP,,Legionowo,MAZOWIECKIE,,PL,(+48) 5681222,https://location.westernunion.com/pl/mazowieckie/legionowo/bc65471aa81f44793ee16851484a105a,Mo-Sa 09:00-21:00; Su 10:00-20:00,Western Union,Q861042
4753fadbd809a298009553cb006304f0,western_union,BANK PEKAO SA,,Legionowo,MAZOWIECKIE,,PL,+48 801 120 224,https://location.westernunion.com/pl/mazowieckie/legionowo/4753fadbd809a298009553cb006304f0,Mo-Fr 09:30-17:00,Western Union,Q861042
335945289369df1128367af11640cb17,western_union,STEFCZYK FINANSE,,Legionowo,MAZOWIECKIE,,PL,+48 22 784 91 95,https://location.westernunion.com/pl/mazowieckie/legionowo/335945289369df1128367af11640cb17,Mo-Fr 09:00-17:00,Western Union,Q861042
