Ref,Spider,Name,Address,City,State,Zipcode,Country,Phone,Website,Hours,Brand,WikiData
3758,anytime_fitness,Anytime Fitness,,Madison,VA,,US,+1 434-616-6671,https://www.anytimefitness.com/gyms/3758/madison-va-22727/,,Anytime Fitness,Q4778364
66304,bluerhino,Food Lion #2567,,Madison,VA,,US,+1 540-948-5182,,,Blue Rhino,Q65681213
12048221953292272700100000000000,bp,BP,,Madison,VA,,US,+1 540-948-4824,,Mo-Th 05:30-23:00; Fr-Sa 05:30-24:00; Su 05:30-23:00,BP,Q152057
68387,citi,ATM PNC AT SHEETZ,,Madison,VA,,US,,,,Citibank,Q857063
25063,citi,ATM 7ELEVEN-FCTI,,Madison,VA,,US,,,,Citibank,Q857063
https://www.efaststop.com/store-locator/pv/3000/id/424,fast_stop_us,EverGRO - Madison Fuel,,Madison,VA,,US,+1 540-672-2977,https://www.efaststop.com/store-locator/pv/3000/id/424,,FAST STOP,Q116734101
https://local.fedex.com/#25231458,fedex,,,Madison,VA,,US,+1 800-463-3339,https://local.fedex.com/en-us/va/madison/dgnaj,,FedEx,Q459477
Motorcraft2490USAEnglish,ford,"Eddins Ford, Inc.",,Virginia,VA,,US,+1 540-948-6806,,,Ford,Q44294
https://www.ford.com/dealerships/dealer-details/va/madison/madison-ford/,ford_dealers_us,Madison Ford,,Madison,VA,,US,+1 540-501-4258,https://www.ford.com/dealerships/dealer-details/va/madison/madison-ford/,Mo-Fr 09:00-19:00; Sa 09:00-17:00,Ford Motor Company,Q44294
https://restaurants.subway.com/#14893593,subway,Subway Madison Plaza,,Madison Madison,VA,,US,+1 540-543-3995,https://restaurants.subway.com/united-states/va/madison/24-madison-plaza-dr,Mo-Fr 08:00-21:30; Sa 09:30-21:00; Su 09:00-21:00,Subway,Q244457
1371372,usps,MADISON,,MADISON,VA,,US,+1 540-948-5702,,Mo-Fr 08:00-16:30; Sa 09:00-12:00,United States Postal Service,Q668687
2272700006,usps_collection_boxes,USPS COLLECTION BOX - BLUE BOX,16 MADISON PLAZA DR,MADISON,VA,,US,,,,United States Postal Service,Q668687
2272700001,usps_collection_boxes,USPS COLLECTION BOX - BLUE BOX,97 COURT SQ,MADISON,VA,,US,,,,United States Postal Service,Q668687
2272700003,usps_collection_boxes,USPS COLLECTION BOX - BLUE BOX,1438 N MAIN ST,MADISON,VA,,US,,,,United States Postal Service,Q668687
2272700009,usps_collection_boxes,USPS COLLECTION BOX - PO LOBBY,1438 N MAIN ST,MADISON,VA,,US,,,,United States Postal Service,Q668687
2272700007,usps_collection_boxes,USPS COLLECTION BOX - PO LOBBY,1438 N MAIN ST,MADISON,VA,,US,,,,United States Postal Service,Q668687
2272700005,usps_collection_boxes,USPS COLLECTION BOX - BLUE BOX,100 MALVERN DR,MADISON,VA,,US,,,,United States Postal Service,Q668687
,visa,,,MADISON,VA,,US,,,,,
,visa,,,MADISON,VA,,US,,,,,
,visa,,,MADISON,VA,,US,,,,,
,visa,,,MADISON,VA,,US,,,,,
,visa,,,MADISON,VA,,US,,,,,
,visa,,,MADISON,VA,,US,,,,,
,visa,,,MADISON,VA,,US,,,,,
,visa,,,MADISON,VA,,US,,,,,
,visa,,,MADISON,VA,,US,,,,,
1264__N__MAIN__ST_MADISON_VA_22727,wellsfargo,Wells Fargo,1264 N MAIN ST,MADISON,VA,,US,+1 540-948-5221,https://www.wellsfargo.com/locator/bank/1264__N__MAIN__ST_MADISON_VA_22727/,Mo-Fr 09:00-17:00,Wells Fargo,Q744149
