Ref,Spider,Name,Address,City,State,Zipcode,Country,Phone,Website,Hours,Brand,WikiData
72026,citi,ATM Racetrac,,Lavon,TX,,US,,,,Citibank,Q857063
60138,citi,ATM Independent Financial,,Lavon,TX,,US,,,,Citibank,Q857063
33783,citi,ATM 7ELEVEN-FCTI,,Lavon,TX,,US,,,,Citibank,Q857063
9226,dominos_pizza_us,Domino's Pizza,,Lavon,TX,,US,+1 469-356-1300,https://pizza.dominos.com/texas/lavon/100-lake-rd,Mo-Th 10:30-24:00; Fr-Sa 10:30-01:00; Su 10:30-24:00,Domino's,Q839466
363548,dunkin_us,Dunkin',,Lavon,TX,,US,+1 469-485-2105,https://locations.dunkindonuts.com/en/tx/lavon/905-texas-hwy-78/363548,Mo 06:00-16:30; Tu-Su 05:00-20:00,Dunkin',Q847743
https://locations.oreillyauto.com/tx/lavon/check-engine-light-testing-5919.html,oreilly,Your Lavon O'Reilly Auto Parts Store,,Lavon,TX,,US,+1 972-914-5152,https://locations.oreillyauto.com/tx/lavon/check-engine-light-testing-5919.html,Mo-Sa 07:30-21:00; Su 09:00-20:00,O'Reilly Auto Parts,Q7071951
https://locations.oreillyauto.com/tx/lavon/wiper-installation-5919.html,oreilly,Your Lavon O'Reilly Auto Parts Store,,Lavon,TX,,US,+1 972-914-5152,https://locations.oreillyauto.com/tx/lavon/wiper-installation-5919.html,Mo-Sa 07:30-21:00; Su 09:00-20:00,O'Reilly Auto Parts,Q7071951
https://locations.oreillyauto.com/tx/lavon/battery-testing-5919.html,oreilly,Your Lavon O'Reilly Auto Parts Store,,Lavon,TX,,US,+1 972-914-5152,https://locations.oreillyauto.com/tx/lavon/battery-testing-5919.html,Mo-Sa 07:30-21:00; Su 09:00-20:00,O'Reilly Auto Parts,Q7071951
https://locations.oreillyauto.com/tx/lavon/autopartes-5919.html,oreilly,Tu tienda O'Reilly Auto Parts en Lavon,,Lavon,TX,,US,+1 972-914-5152,https://locations.oreillyauto.com/tx/lavon/autopartes-5919.html,Mo-Sa 07:30-21:00; Su 09:00-20:00,O'Reilly Auto Parts,Q7071951
https://www.racetrac.com/locations/texas/lavon/atlantis-(72-~-205),racetrac_us,RaceTrac,,Lavon,TX,,US,+1 470-481-4317,https://www.racetrac.com/locations/texas/lavon/atlantis-(72-~-205),,RaceTrac,Q735942
38387,seven_eleven_ca_us,7-11 Str   991 S State Highway 78,,Lavon,TX,,US,+1 214-385-5264,https://www.7-eleven.com/locations/tx/lavon/991-s-state-highway-78-38387,,7-Eleven,Q259340
https://locations.tacobell.com/#1004793166,taco_bell,Taco Bell,,Lavon,TX,,US,+1 469-589-1766,https://locations.tacobell.com/tx/lavon/891-s-state-hwy-78.html,Mo-Th 07:00-02:00; Fr-Sa 07:00-03:00; Su 07:00-02:00,Taco Bell,Q752941
1369972,usps,LAVON,,LAVON,TX,,US,+1 972-853-3871,,"Mo-Fr 08:15-11:30,12:30-16:00; Sa 07:30-09:30",United States Postal Service,Q668687
7516606056,usps_collection_boxes,USPS COLLECTION BOX - PO LOBBY,609 MAIN ST,LAVON,TX,,US,,,,United States Postal Service,Q668687
7516605820,usps_collection_boxes,USPS COLLECTION BOX - PO LOBBY,609 MAIN ST,LAVON,TX,,US,,,,United States Postal Service,Q668687
,visa,,,LAVON,TX,,US,,,,,
,visa,,,LAVON,TX,,US,,,,,
,visa,,,LAVON,TX,,US,,,,,
,visa,,,LAVON,TX,,US,,,,,
,visa,,,LAVON,TX,,US,,,,,
,visa,,,LAVON,TX,,US,,,,,
,visa,,,LAVON,TX,,US,,,,,
,visa,,,LAVON,TX,,US,,,,,
