Ref,Spider,Name,Address,City,State,Zipcode,Country,Phone,Website,Hours,Brand,WikiData
RED0000197,australia_post_au,,,SCARBOROUGH,WA,,AU,,,,Australia Post,Q1142936
RED0000200,australia_post_au,,,SCARBOROUGH,WA,,AU,,,,Australia Post,Q1142936
RED0000203,australia_post_au,,,SCARBOROUGH,WA,,AU,,,,Australia Post,Q1142936
RED0000205,australia_post_au,,,SCARBOROUGH,WA,,AU,,,,Australia Post,Q1142936
RED0000202,australia_post_au,,,SCARBOROUGH,WA,,AU,,,,Australia Post,Q1142936
88903831_UPL,australia_post_au,Scarborough Parcel Locker,,SCARBOROUGH,WA,,AU,,,24/7,Australia Post,Q1142936
621464_PO,australia_post_au,SCARBOROUGH LPO,,SCARBOROUGH,WA,,AU,+61 131318,,,Australia Post,Q1142936
RED0000275,australia_post_au,,,WEMBLEY DOWNS,WA,,AU,,,,Australia Post,Q1142936
620701_PO,australia_post_au,WEMBLEY DOWNS LPO,,WEMBLEY DOWNS,WA,,AU,+61 131318,,,Australia Post,Q1142936
RED0000274,australia_post_au,,,WEMBLEY DOWNS,WA,,AU,,,,Australia Post,Q1142936
RED0000276,australia_post_au,,,WEMBLEY DOWNS,WA,,AU,,,,Australia Post,Q1142936
23836821,bottlemart_au,WHITE SANDS HOTEL,,Scarborough,WA,,AU,+61 8 9341 1119,,,Bottlemart,Q102863175
6203,bp,BP WEST COAST,,SCARBOROUGH,WA,,AU,+61 8 9245 3366,,24/7,BP,Q152057
CT6348,chicken_treat_au,Wembley Downs,,Wembley Downs,WA,,AU,+61 8 6157 5359,https://www.chickentreat.com.au/locations/wembley-downs,Mo-Su 10:00-21:00,Chicken Treat,Q5096274
380,coles_au,Coles Scarborough,,Scarborough,WA,,AU,+61 8 9341 6333,,,Coles Supermarkets,Q1108172
3380,coles_au,Scarborough,,Scarborough,WA,,AU,+61 8 6157 5703,,,Liquorland,Q2283837
6961,coles_au,Coles Express Scarborough,,Scarborough,WA,,AU,+61 8 6157 5654,,,Coles Express,Q5144653
scarborough,lj_hooker_au_nz,LJ Hooker Scarborough,,SCARBOROUGH,WA,,AU,+61 8 9245 3200,https://scarborough.ljhooker.com.au,Mo-Fr 09:00-17:00,LJ Hooker,Q6456509
10111446,shell,SHELL COLES EXPRESS SCARBOROUGH,,SCARBOROUGH,WA,,AU,+61 8 6157 5654,https://find.shell.com/au/fuel/10111446-shell-coles-express-scarborough,24/7,Shell,Q110716465
2327,terry_white_chemmart_au,TerryWhite Chemmart Wembley Downs,,Wembley Downs,WA,,AU,+61 8 9341 3404,https://terrywhitechemmart.com.au/stores/terrywhite-chemmart-wembley-downs,Mo-Th 08:00-19:00; Fr-Su 08:00-18:00,Terry White Chemmart,Q24089773
,visa,,,SCARBOROUGH,WA,,AU,,,,,
,visa,,,SCARBOROUGH,WA,,AU,,,,,
,visa,,,SCARBOROUGH,WA,,AU,,,,,
,visa,,,SCARBOROUGH,WA,,AU,,,,,
,visa,,,SCARBOROUGH,WA,,AU,,,,,
,visa,,,SCARBOROUGH,WA,,AU,,,,,
682511fbc8f25420ea61b3c3c316811f,western_union,AUSTRALIA POST,,Wembley Downs,WA,,AU,+61 1800 501 500,https://location.westernunion.com/au/wa/wembley-downs/682511fbc8f25420ea61b3c3c316811f,Mo-Fr 08:30-17:30; Sa 08:30-12:30,Western Union,Q861042
dd48e6ae515972c683b335e6bffe496a,western_union,AUSTRALIA POST,,Scarborough,WA,,AU,+61 1800 501 500,https://location.westernunion.com/au/wa/scarborough/dd48e6ae515972c683b335e6bffe496a,Mo-Fr 09:00-17:00; Sa 09:00-12:00,Western Union,Q861042
