Ref,Spider,Name,Address,City,State,Zipcode,Country,Phone,Website,Hours,Brand,WikiData
https://stores.advanceautoparts.com/sc/ridgeland/10424-s-jacob-smart-blvd,advance_auto_parts_us,Advance Auto Parts,,Ridgeland,SC,,US,+1 843-726-4114,https://stores.advanceautoparts.com/sc/ridgeland/10424-s-jacob-smart-blvd,Mo-Sa 07:30-21:00; Su 09:00-20:00,Advance Auto Parts,Q4686051
162757,bluerhino,Family Dollar #01455,,RIDGELAND,SC,,US,+1 843-726-8550,,,Blue Rhino,Q65681213
204699,bluerhino,MDI #5870 - B&T Grocery & Market #3,,RIDGELAND,SC,,US,+1 843-726-3084,,,Blue Rhino,Q65681213
215340,bluerhino,EZ Stop #4,,Ridgeland,SC,,US,+1 843-726-2195,,,Blue Rhino,Q65681213
236422,bluerhino,Circle K #2720912,,Ridgeland,SC,,US,+1 843-987-4460,,,Blue Rhino,Q65681213
159416,bluerhino,Tiger Express (Exxon Truck Stop),,Ridgeland,SC,,US,+1 843-726-6240,,,Blue Rhino,Q65681213
159103,bluerhino,General Stores,,Ridgeland,SC,,US,+1 843-717-2495,,,Blue Rhino,Q65681213
68850622561072993600100000000000,bp,Amoco,,Ridgeland,SC,,US,+1 843-717-3256,,24/7,BP,Q152057
57708447037282993600100000000000,bp,BP,,Ridgeland,SC,,US,+1 843-726-6556,,24/7,BP,Q152057
45798836670802993600100000000000,bp,BP,,RIDGELAND,SC,,US,+1 843-726-2195,,24/7,BP,Q152057
128333,bp,Amoco,,Ridgeland,SC,,US,+1 843-645-9011,,,BP,Q152057
SCPSYD,builders_firstsource_us,Cherry Point SC Yard,,Ridgeland,SC,,US,+1 843-987-0810,https://www.bldr.com/location/cherry-point-sc-yard/SCPSYD,Mo-Fr 07:00-16:00,Builders FirstSource,Q27686100
RSC,camping_world_us,Camping World of Ridgeland,"401 Sycamore Dr Ridgeland, SC 29936",Ridgeland,SC,,US,+1 844-976-3787,https://rv.campingworld.com/dealer/wichita-kansasridgeland-south-carolina,,Camping World,Q5028383
93093,citi,ATM Walgreens,,Ridgeland,SC,,US,,,,Citibank,Q857063
41993,citi,ATM Circle K,,Ridgeland,SC,,US,,,,Citibank,Q857063
70035112,cricket_wireless,Cricket Wireless Authorized Retailer,,Ridgeland,SC,,US,+1 843-783-3920,https://www.cricketwireless.com/stores/ll/US/SC/Ridgeland/8120-E-Main-St_,Mo-Sa 10:00-19:00; Su 12:00-18:00,Cricket Wireless,Q5184987
8648,dollartree,DollarTree,,Ridgeland,SC,,US,+1 843-547-6075,,Mo-Sa 09:00-21:00; Su 09:00-20:00,Dollar Tree,Q5289230
9450,dollar_general,Dollar General,,Ridgeland,SC,,US,+1 843-305-5220,https://www.dollargeneral.com/store-directory/sc/ridgeland/9450,Mo-Su 08:00-20:00,Dollar General,Q145168
357875,dunkin_us,Dunkin',,Bluffton,SC,,US,+1 843-705-6464,https://locations.dunkindonuts.com/en/sc/bluffton/6-palmer-grace-dr-e/357875,Mo-Su 05:00-20:00,Dunkin',Q847743
https://www.edwardjones.com/us-en/financial-advisor/kamila-mcdonald,edwardjones,Kamila McDonald,,Ridgeland,SC,,US,+1 843-717-1703,https://www.edwardjones.com/us-en/financial-advisor/kamila-mcdonald,Mo-Fr 08:00-16:00,Edward Jones,Q5343830
https://local.fedex.com/#25205875,fedex,,,Ridgeland,SC,,US,+1 800-463-3339,https://local.fedex.com/en-us/sc/ridgeland/savld,,FedEx,Q459477
https://local.fedex.com/#25229953,fedex,,,Ridgeland,SC,,US,+1 800-463-3339,https://local.fedex.com/en-us/sc/ridgeland/savbd,,FedEx,Q459477
https://local.fedex.com/#27755914,fedex,FedEx Authorized ShipCenter,,Ridgeland,SC,,US,+1 843-645-9330,https://local.fedex.com/en-us/sc/ridgeland/40578,,FedEx,Q459477
1938,fresenius_kidney_care_us,Fresenius Kidney Care The Marshlands Dialysis Center,,Ridgeland,SC,,US,+1 800-881-5101,https://www.freseniuskidneycare.com/dialysis-centers/south-carolina/1938,Mo 05:30-17:30; Tu 05:30-17:00; We 05:30-17:30; Th 05:30-17:00; Fr 05:30-17:30; Sa 05:30-17:00,,
39343,h_r_block,H&R Block,,Ridgeland,SC,,US,+1 843-726-5126,https://www.hrblock.com/local-tax-offices/south-carolina/ridgeland/21-center/39343/,,H&R Block,Q5627799
https://office.jacksonhewitt.com/#27576820,jackson_hewitt,Jackson Hewitt,,Ridgeland,SC,,US,+1 843-593-9411,https://office.jacksonhewitt.com/tax-preparation-services-locations/en/sc/ridgeland/8176-east-main-street/12897,Mo-Sa 10:00-18:00,Jackson Hewitt,Q6117132
https://locations.kfc.com/#11249881,kfc,Chicken Nuggets Near Ridgeland,,Ridgeland,SC,,US,,https://locations.kfc.com/sc/ridgeland/8146-east-main-st/chickennugget,Mo-Th 10:30-21:30; Fr-Sa 10:30-22:00; Su 10:30-21:30,KFC,Q524757
157978,marathon_petroleum_us,Bobops 14,,RIDGELAND,SC,,US,+1 843-645-2627,,,Marathon,Q458363
1270,mightyflame,CRAZY JAX 1,,Ridgeland,SC,,US,+1 843-717-2090,,,Mighty Flame,
https://locations.oreillyauto.com/sc/ridgeland/check-engine-light-testing-4886.html,oreilly,Your Ridgeland O'Reilly Auto Parts Store,,Ridgeland,SC,,US,+1 843-305-7075,https://locations.oreillyauto.com/sc/ridgeland/check-engine-light-testing-4886.html,Mo-Sa 07:30-21:00; Su 08:00-20:00,O'Reilly Auto Parts,Q7071951
https://locations.oreillyauto.com/sc/ridgeland/wiper-installation-4886.html,oreilly,Your Ridgeland O'Reilly Auto Parts Store,,Ridgeland,SC,,US,+1 843-305-7075,https://locations.oreillyauto.com/sc/ridgeland/wiper-installation-4886.html,Mo-Sa 07:30-21:00; Su 08:00-20:00,O'Reilly Auto Parts,Q7071951
https://locations.oreillyauto.com/sc/ridgeland/battery-testing-4886.html,oreilly,Your Ridgeland O'Reilly Auto Parts Store,,Ridgeland,SC,,US,+1 843-305-7075,https://locations.oreillyauto.com/sc/ridgeland/battery-testing-4886.html,Mo-Sa 07:30-21:00; Su 08:00-20:00,O'Reilly Auto Parts,Q7071951
https://locations.oreillyauto.com/sc/ridgeland/autopartes-4886.html,oreilly,Tu tienda O'Reilly Auto Parts en Ridgeland,,Ridgeland,SC,,US,+1 843-305-7075,https://locations.oreillyauto.com/sc/ridgeland/autopartes-4886.html,Mo-Sa 07:30-21:00; Su 08:00-20:00,O'Reilly Auto Parts,Q7071951
617621,penske,Storage Sense Ridgeland,,RIDGELAND,SC,,US,+1 843-379-0195,https://www.pensketruckrental.com/locations/us/south_carolina/ridgeland/617621/,,Penske,Q81234570
333,piggly_wiggly_us,Piggly Wiggly,,Ridgeland,SC,,US,+1 843-726-8626,https://www.thepig.net,,Piggly Wiggly,Q3388303
sc_ridgeland_10856-n-jacob-smart-blvd,pizza_hut_us,10856 N Jacob Smart Blvd,,Ridgeland,SC,,US,+1 843-726-8446,https://locations.pizzahut.com/sc/ridgeland/10856-n-jacob-smart-blvd,,Pizza Hut,Q191615
sc0003,pjs_coffee_us,PJ's Coffee of New Orleans,,Ridgeland,SC,,US,+1 843-726-8888,https://locations.pjscoffee.com/sc/ridgeland/coffee-shop-sc0003.html,Mo-Fr 07:00-15:00; Sa-Su 08:00-15:00,PJ's Coffee of New Orleans,Q7119454
183,south_carolina,Jasper County Courthouse,"265 Russell St, Ridgeland, SC",,SC,,US,+1 843-726-7710,,,,Q1456
228,south_carolina,Jasper County Mental Health Clinic,"1510 Grays Highway, Ridgeland, SC",,SC,,US,+1 843-726-8030,,,,Q1456
335,south_carolina,Jasper County DHHS,"651 Grays Hwy, Ridgeland, SC",,SC,,US,843-726-778,,,,Q1456
450,south_carolina,Pratt Memorial Library,"Post Office Drawer 1540 451A Wilson Street Ridgeland, SC ",,SC,,US,+1 843-726-7744,,,,Q1456
490,south_carolina,Ridgeland DMV,"407 Live Oak Drive Ridgeland, SC 29936",,SC,,US,+1 843-726-6934,,,,Q1456
https://restaurants.subway.com/#14902170,subway,Subway,,Ridgeland Jasper,SC,,US,+1 843-726-3007,https://restaurants.subway.com/united-states/sc/ridgeland/8234-east-main-st,Mo-Su 09:00-22:00,Subway,Q244457
8002325101,sunoco_us,Sunoco,,RIDGELAND,SC,,US,,,,Sunoco,Q1423218
0100736800,sunoco_us,Sunoco,,RIDGELAND,SC,,US,+1 912-417-6459,,Mo-Sa 06:00-22:00; Su 08:00-16:00,Sunoco,Q1423218
1379302,usps,RIDGELAND,,RIDGELAND,SC,,US,+1 843-726-6646,,Mo-Fr 08:30-16:30; Sa 09:00-11:00,United States Postal Service,Q668687
2993600004,usps_collection_boxes,USPS COLLECTION BOX - BLUE BOX,149 RIVERWALK BLVD,RIDGELAND,SC,,US,,,,United States Postal Service,Q668687
2993600001,usps_collection_boxes,USPS COLLECTION BOX - BLUE BOX,7554 W MAIN ST,RIDGELAND,SC,,US,,,,United States Postal Service,Q668687
2993600003,usps_collection_boxes,USPS COLLECTION BOX - PO LOBBY,7554 W MAIN ST,RIDGELAND,SC,,US,,,,United States Postal Service,Q668687
2993600008,usps_collection_boxes,USPS COLLECTION BOX - PO LOBBY,7554 W MAIN ST,RIDGELAND,SC,,US,,,,United States Postal Service,Q668687
,visa,,,RIDGELAND,SC,,US,,,,,
,visa,,,RIDGELAND,SC,,US,,,,,
,visa,,,BLUFFTON,SC,,US,,,,,
,visa,,,RIDGELAND,SC,,US,,,,,
,visa,,,RIDGELAND,SC,,US,,,,,
,visa,,,RIDGELAND,SC,,US,,,,,
,visa,,,RIDGELAND,SC,,US,,,,,
,visa,,,RIDGELAND,SC,,US,,,,,
,visa,,,RIDGELAND,SC,,US,,,,,
,visa,,,RIDGELAND,SC,,US,,,,,
,visa,,,RIDGELAND,SC,,US,,,,,
,visa,,,RIDGELAND,SC,,US,,,,,
,visa,,,RIDGLAND,SC,,US,,,,,
,visa,,,RIDGELAND,SC,,US,,,,,
,visa,,,RIDGELAND,SC,,US,,,,,
,visa,,,RIDGELAND,SC,,US,,,,,
,visa,,,RIDGELAND,SC,,US,,,,,
,visa,,,RIDGELAND,SC,,US,,,,,
,visa,,,RIDGELAND,SC,,US,,,,,
,visa,,,RIDGELAND,SC,,US,,,,,
,visa,,,RIDGELAND,SC,,US,,,,,
,visa,,,RIDGELAND,SC,,US,,,,,
,visa,,,RIDGELAND,SC,,US,,,,,
820,waffle_house_us,Waffle House #820,,RIDGELAND,SC,,US,+1 843-726-4667,https://locations.wafflehouse.com/ridgeland-sc-820,24/7,Waffle House,Q1701206
https://www.walgreens.com/locator/walgreens-8225+e+main+st-ridgeland-sc-29936/id=17239,walgreens,Walgreens,,Ridgeland,SC,,US,+1 843-726-3067,https://www.walgreens.com/locator/walgreens-8225+e+main+st-ridgeland-sc-29936/id=17239,Mo-Su 08:00-21:00,Walgreens,Q1591889
https://locations.wendys.com/#9255254,wendys,"Wendy's Ridgeland in Ridgeland, SC",,Ridgeland,SC,,US,+1 843-645-2306,https://locations.wendys.com/united-states/sc/ridgeland/8480-grahamville-rd,"Mo-Su 06:30-10:30,07:00-22:00",Wendy's,Q550258
7ede243ec2f9c1f7a82b00df56c23c18,western_union,PIGGLY WIGGLY #285,,Ridgeland,SC,,US,+1 843-726-8626,https://location.westernunion.com/us/sc/ridgeland/7ede243ec2f9c1f7a82b00df56c23c18,Mo-Su 08:00-21:00,Western Union,Q861042
3f6d6e93d564430fcd29664c67a27d6c,western_union,ENMARKET #829,,Ridgeland,SC,,US,+1 843-726-8981,https://location.westernunion.com/us/sc/ridgeland/3f6d6e93d564430fcd29664c67a27d6c,Mo-Su 05:00-24:00,Western Union,Q861042
62506343997cbab3c5a3f5c623eef078,western_union,WALGREENS #17239,,Ridgeland,SC,,US,+1 843-726-3067,https://location.westernunion.com/us/sc/ridgeland/62506343997cbab3c5a3f5c623eef078,Mo-Sa 08:00-20:00; Su 08:00-19:00,Western Union,Q861042
