Ref,Spider,Name,Address,City,State,Zipcode,Country,Phone,Website,Hours,Brand,WikiData
https://stores.advanceautoparts.com/sc/port-royal/1501-ribaut-rd,advance_auto_parts_us,Advance Auto Parts,,Port Royal,SC,,US,+1 843-986-5020,https://stores.advanceautoparts.com/sc/port-royal/1501-ribaut-rd,Mo-Sa 07:30-21:00; Su 09:00-20:00,Advance Auto Parts,Q4686051
236420,bluerhino,Circle K #2720490,,Port Royal,SC,,US,+1 843-521-4539,,,Blue Rhino,Q65681213
190888,bluerhino,Piggly Wiggly #193,,Port Royal,SC,,US,+1 843-524-2750,,,Blue Rhino,Q65681213
48033,citi,ATM CVS,,Port Royal,SC,,US,,,,Citibank,Q857063
40610,citi,ATM Circle K,,Port Royal,SC,,US,,,,Citibank,Q857063
3826,cvs_us,CVS Pharmacy,,Port Royal,SC,,US,+1 843-524-5440,https://www.cvs.com/store-locator/port-royal-sc-pharmacies/1500-ribaut-road-port-royal-sc-29935/storeid=3826,Mo-Su 08:00-22:00,CVS Pharmacy,Q2078880
16443,dollar_general,Dollar General,,Port Royal,SC,,US,+1 843-929-1680,https://www.dollargeneral.com/store-directory/sc/port-royal/16443,Mo-Su 08:00-22:00,Dollar General,Q145168
5633,dominos_pizza_us,Domino's Pizza,,Ridgeland,SC,,US,+1 843-645-2111,https://pizza.dominos.com/south-carolina/ridgeland/149-riverwalk-blvd,Mo-Th 10:30-24:00; Fr-Sa 10:30-01:00; Su 10:30-24:00,Domino's,Q839466
https://www.edwardjones.com/us-en/financial-advisor/brian-richter,edwardjones,Brian T Richter,,Port Royal,SC,,US,+1 843-522-9001,https://www.edwardjones.com/us-en/financial-advisor/brian-richter,Mo-Fr 09:00-16:30,Edward Jones,Q5343830
1255,fresenius_kidney_care_us,Fresenius Kidney Care Beaufort/Low Country Dialysis Facility,,Port Royal,SC,,US,+1 800-881-5101,https://www.freseniuskidneycare.com/dialysis-centers/south-carolina/1255,Mo-Sa 06:00-18:00,,
617627,penske,Herring Truck Rental,,PORT ROYAL,SC,,US,+1 843-525-1993,https://www.pensketruckrental.com/locations/us/south_carolina/port_royal/617627/,,Penske,Q81234570
332,piggly_wiggly_us,Piggly Wiggly,,Port Royal,SC,,US,+1 843-524-2750,https://www.thepig.net,,Piggly Wiggly,Q3388303
1378113,usps,PORT ROYAL,,PORT ROYAL,SC,,US,+1 843-524-7457,,"Mo-Fr 08:30-13:00,14:00-16:30; Sa 09:00-11:00",United States Postal Service,Q668687
2993500003,usps_collection_boxes,USPS COLLECTION BOX - BLUE BOX,1625 PARIS AVE,PORT ROYAL,SC,,US,,,,United States Postal Service,Q668687
2993500004,usps_collection_boxes,USPS COLLECTION BOX - PO LOBBY,1625 PARIS AVE,PORT ROYAL,SC,,US,,,,United States Postal Service,Q668687
2993500009,usps_collection_boxes,USPS COLLECTION BOX - PO LOBBY,1625 PARIS AVE,PORT ROYAL,SC,,US,,,,United States Postal Service,Q668687
2993500007,usps_collection_boxes,USPS COLLECTION BOX - BLUE BOX,1345 RIBAUT RD,PORT ROYAL,SC,,US,,,,United States Postal Service,Q668687
,visa,,,PORT ROYAL,SC,,US,,,,,
,visa,,,PORT ROYAL,SC,,US,,,,,
,visa,,,PORT ROYAL,SC,,US,,,,,
,visa,,,PORT ROYAL,SC,,US,,,,,
,visa,,,PORT ROYAL,SC,,US,,,,,
,visa,,,PORT ROYAL,SC,,US,,,,,
,visa,,,PORT ROYAL,SC,,US,,,,,
,visa,,,PORT ROYAL,SC,,US,,,,,
,visa,,,PORT ROYAL,SC,,US,,,,,
,visa,,,PORT ROYAL,SC,,US,,,,,
138270440685df130028fe63ac693ca4,western_union,PIGGLY WIGGLY #286,,Port Royal,SC,,US,+1 843-524-2750,https://location.westernunion.com/us/sc/port-royal/138270440685df130028fe63ac693ca4,Mo-Su 08:00-21:00,Western Union,Q861042
beaufort-jasper-ymca-lowcountry,ymca,Beaufort-Jasper YMCA of the Lowcountry,1801 Richmond Ave,Port Royal,SC,,US,+1 843-522-9622,https://www.ymca.org/locations/beaufort-jasper-ymca-lowcountry,Mo-Th 05:00-21:00; Fr 05:00-20:00; Sa 08:00-17:00; Su 13:00-17:00,YMCA,Q157169
