Ref,Spider,Name,Address,City,State,Zipcode,Country,Phone,Website,Hours,Brand,WikiData
2683,autozone_us,AutoZone Auto Parts Lawrenceville,,Lawrenceville,IL,,US,+1 618-943-7676,https://www.autozone.com/locations/il/lawrenceville/2321-state-st.html,Mo-Sa 07:30-20:00; Su 08:00-19:00,AutoZone,Q4826087
202881,bluerhino,CASEY'S GENERAL STORE #1831,,LAWRENCEVILLE,IL,,US,+1 618-943-4958,,,Blue Rhino,Q65681213
127671,bp,BP,,Lawrenceville,IL,,US,1111111111,,Mo-Su 06:00-20:00,BP,Q152057
55358,citi,ATM FIRST BANK,,Lawrenceville,IL,,US,,,,Citibank,Q857063
47921,citi,ATM CVS,,Lawrenceville,IL,,US,,,,Citibank,Q857063
6386,cvs_us,CVS Pharmacy,,Lawrenceville,IL,,US,+1 618-943-7571,https://www.cvs.com/store-locator/lawrenceville-il-pharmacies/1421-state-st-lawrenceville-il-62439/storeid=6386,Mo-Fr 08:00-20:00; Sa-Su 09:00-20:00,CVS Pharmacy,Q2078880
https://www.edwardjones.com/us-en/financial-advisor/john-hubbard,edwardjones,John D Hubbard,,Lawrenceville,IL,,US,+1 618-943-5330,https://www.edwardjones.com/us-en/financial-advisor/john-hubbard,Mo-Fr 08:00-16:30,Edward Jones,Q5343830
https://www.efaststop.com/store-locator/pv/3000/id/359,fast_stop_us,Lawrenceville FAST STOP Express,,Lawrenceville,IL,,US,+1 618-943-2954,https://www.efaststop.com/store-locator/pv/3000/id/359,,FAST STOP,Q116734101
https://local.fedex.com/#25237183,fedex,,,Lawrenceville,IL,,US,+1 800-463-3339,https://local.fedex.com/en-us/il/lawrenceville/bfrai,,FedEx,Q459477
1502614,hardees_us,Hardee's,,Lawrenceville,IL,,US,+1 618-943-3800,https://locations.hardees.com/il/lawrenceville/1310-state-st,,Hardee's,Q1585088
13010,h_r_block,H&R Block,,Lawrenceville,IL,,US,+1 618-943-5331,https://www.hrblock.com/local-tax-offices/illinois/lawrenceville/709-12th-st/13010/,,H&R Block,Q5627799
161685,marathon_petroleum_us,MACH 1 6,,LAWRENCEVILLE,IL,,US,+1 618-943-2239,,,Marathon,Q458363
https://locations.oreillyauto.com/il/lawrenceville/check-engine-light-testing-5823.html,oreilly,Your Lawrenceville O'Reilly Auto Parts Store,,Lawrenceville,IL,,US,+1 618-707-4051,https://locations.oreillyauto.com/il/lawrenceville/check-engine-light-testing-5823.html,Mo-Sa 07:30-21:00; Su 08:30-20:00,O'Reilly Auto Parts,Q7071951
https://locations.oreillyauto.com/il/lawrenceville/wiper-installation-5823.html,oreilly,Your Lawrenceville O'Reilly Auto Parts Store,,Lawrenceville,IL,,US,+1 618-707-4051,https://locations.oreillyauto.com/il/lawrenceville/wiper-installation-5823.html,Mo-Sa 07:30-21:00; Su 08:30-20:00,O'Reilly Auto Parts,Q7071951
https://locations.oreillyauto.com/il/lawrenceville/battery-testing-5823.html,oreilly,Your Lawrenceville O'Reilly Auto Parts Store,,Lawrenceville,IL,,US,+1 618-707-4051,https://locations.oreillyauto.com/il/lawrenceville/battery-testing-5823.html,Mo-Sa 07:30-21:00; Su 08:30-20:00,O'Reilly Auto Parts,Q7071951
https://locations.oreillyauto.com/il/lawrenceville/autopartes-5823.html,oreilly,Tu tienda O'Reilly Auto Parts en Lawrenceville,,Lawrenceville,IL,,US,+1 618-707-4051,https://locations.oreillyauto.com/il/lawrenceville/autopartes-5823.html,Mo-Sa 07:30-21:00; Su 08:30-20:00,O'Reilly Auto Parts,Q7071951
https://restaurants.subway.com/#14910169,subway,Subway,,Lawrenceville Lawrence,IL,,US,+1 618-943-6647,https://restaurants.subway.com/united-states/il/lawrenceville/913-east-state-street,Mo-Su 09:00-22:00,Subway,Q244457
1369997,usps,LAWRENCEVILLE,,LAWRENCEVILLE,IL,,US,+1 618-943-2912,,Mo-Fr 08:30-17:00; Sa 09:30-12:00,United States Postal Service,Q668687
6243900014,usps_collection_boxes,USPS COLLECTION BOX - PO LOBBY,1014 JEFFERSON ST,LAWRENCEVILLE,IL,,US,,,,United States Postal Service,Q668687
6243900019,usps_collection_boxes,USPS COLLECTION BOX - PO LOBBY,1014 JEFFERSON ST,LAWRENCEVILLE,IL,,US,,,,United States Postal Service,Q668687
6243900003,usps_collection_boxes,USPS COLLECTION BOX - BLUE BOX,1014 JEFFERSON ST,LAWRENCEVILLE,IL,,US,,,,United States Postal Service,Q668687
,visa,,,LAWRENCEVILLE,IL,,US,,,,,
,visa,,,LAWRENCEVILLE,IL,,US,,,,,
,visa,,,LAWRENCEVILLE,IL,,US,,,,,
,visa,,,LAWERENCEVILLE,IL,,US,,,,,
,visa,,,LAWRENCEVILLE,IL,,US,,,,,
,visa,,,LAWRENCEVILLE,IL,,US,,,,,
,visa,,,LAWRENCEVILLE,IL,,US,,,,,
,visa,,,LARENCEVILLE,IL,,US,,,,,
,visa,,,LAWRENCEVILLE,IL,,US,,,,,
,visa,,,LAWERENCEVILLE,IL,,US,,,,,
,visa,,,LAWRENCEVILLE,IL,,US,,,,,
,visa,,,LAWRENCEVILLE,IL,,US,,,,,
,visa,,,LAWRENCEVILLE,IL,,US,,,,,
,visa,,,LAWRENCEVILLE,IL,,US,,,,,
,visa,,,LAWRENCEVILLE,IL,,US,,,,,
,visa,,,LAWRENEVILLE,IL,,US,,,,,
,visa,,,LAWRENCEVILLE,IL,,US,,,,,
,visa,,,LAWRENCEVILLE,IL,,US,,,,,
,visa,,,LAWRENCEVILLE,IL,,US,,,,,
,visa,,,LAWRENCEVILLE,IL,,US,,,,,
,visa,,,LAWRENCEVILLE,IL,,US,,,,,
,visa,,,LAWRENCEVILLE,IL,,US,,,,,
,visa,,,LAWRENCEVILLE,IL,,US,,,,,
,visa,,,LAWRENCEVILLE,IL,,US,,,,,
,visa,,,LAWRENCEVILLE,IL,,US,,,,,
,visa,,,LAWRENCEVILLE,IL,,US,,,,,
,visa,,,LAWRENCEVILLE,IL,,US,,,,,
,visa,,,LAWRENCEVILLE,IL,,US,,,,,
0bd1b10109e3d76e765e4a6173e198e9,western_union,WALMART #000550,,Lawrenceville,IL,,US,+1 618-943-7551,https://location.westernunion.com/us/il/lawrenceville/0bd1b10109e3d76e765e4a6173e198e9,Mo-Su 07:00-21:00,Western Union,Q861042
