Ref,Spider,Name,Address,City,State,Zipcode,Country,Phone,Website,Hours,Brand,WikiData
765,first_cash,First Cash Pawn,,Aguascalientes,Aguascalientes,,MX,+52 449 913 3960,,,First Cash Pawn,
,visa,,,AGUASCALIENTES,AGUASCALIENTES,,MX,,,,,
96b07bea60a683f117bd5fd95140cf65,western_union,FARM GUAD RINCONADA SANTA MONICA,,Aguascalientes,AGUASCALIENTES,,MX,+52 800 833 4700,https://location.westernunion.com/mx/aguascalientes/aguascalientes/96b07bea60a683f117bd5fd95140cf65,Mo-Su 09:00-22:00,Western Union,Q861042
7857028c05fa91550824f7370bfda6b0,western_union,AURRERA SANTA MONICA 0058,,Aguascalientes,AGUASCALIENTES,,MX,+52 800 833 4700,https://location.westernunion.com/mx/aguascalientes/aguascalientes/7857028c05fa91550824f7370bfda6b0,Mo-Su 07:00-23:00,Western Union,Q861042
7bfd636b0333e1927f678af619b852de,western_union,AURRERA SANTA MONICA 0058,,Aguascalientes,AGUASCALIENTES,,MX,+52 800 833 4700,https://location.westernunion.com/mx/aguascalientes/aguascalientes/7bfd636b0333e1927f678af619b852de,Mo-Su 07:00-23:00,Western Union,Q861042
a730a125901d8b048a36123bda003c51,western_union,AURRERA SANTA MONICA 0058,,Aguascalientes,AGUASCALIENTES,,MX,+52 800 833 4700,https://location.westernunion.com/mx/aguascalientes/aguascalientes/a730a125901d8b048a36123bda003c51,Mo-Su 07:00-23:00,Western Union,Q861042
cd839eb498375b9610b75b8d70a39a32,western_union,OXXO SANTA MONICA AGU,,Aguascalientes,AGUASCALIENTES,,MX,+52 81 8389 2121,https://location.westernunion.com/mx/aguascalientes/aguascalientes/cd839eb498375b9610b75b8d70a39a32,Mo-Su 08:00-22:00,Western Union,Q861042
1f7bfad55c66b216037693e55a594adb,western_union,OXXO SANTA MONICA AGU,,Aguascalientes,AGUASCALIENTES,,MX,+52 81 8389 2121,https://location.westernunion.com/mx/aguascalientes/aguascalientes/1f7bfad55c66b216037693e55a594adb,Mo-Su 08:00-22:00,Western Union,Q861042
2a4b25082262b133e56ec3ddce61847e,western_union,OXXO SANTA MONICA AGU,,Aguascalientes,AGUASCALIENTES,,MX,+52 81 8389 2121,https://location.westernunion.com/mx/aguascalientes/aguascalientes/2a4b25082262b133e56ec3ddce61847e,Mo-Su 08:00-22:00,Western Union,Q861042
3eb06040d17a62ecb9c831b91cca9534,western_union,FARM GUAD RINCONADA SANTA MONICA,,Aguascalientes,AGUASCALIENTES,,MX,+52 800 833 4700,https://location.westernunion.com/mx/aguascalientes/aguascalientes/3eb06040d17a62ecb9c831b91cca9534,Mo-Su 09:00-22:00,Western Union,Q861042
cf3ad92bad7060019dea757d732a38f5,western_union,FARM GUAD RINCONADA SANTA MONICA,,Aguascalientes,AGUASCALIENTES,,MX,+52 800 833 4700,https://location.westernunion.com/mx/aguascalientes/aguascalientes/cf3ad92bad7060019dea757d732a38f5,Mo-Su 09:00-22:00,Western Union,Q861042
89b7d8b717ad78168a5bbb177c5eb16f,western_union,AURRERA EXPRESS JULIAN MEDINA 5641,,Aguascalientes,AGUASCALIENTES,,MX,+52 800 833 4700,https://location.westernunion.com/mx/aguascalientes/aguascalientes/89b7d8b717ad78168a5bbb177c5eb16f,Mo-Su 08:00-22:00,Western Union,Q861042
0cb7fecd721007a28860a17fa775c6af,western_union,AURRERA EXPRESS JULIAN MEDINA 5641,,Aguascalientes,AGUASCALIENTES,,MX,+52 800 833 4700,https://location.westernunion.com/mx/aguascalientes/aguascalientes/0cb7fecd721007a28860a17fa775c6af,Mo-Su 08:00-22:00,Western Union,Q861042
e9342d1c114f3b728257ede191deb103,western_union,AURRERA EXPRESS JULIAN MEDINA 5641,,Aguascalientes,AGUASCALIENTES,,MX,+52 800 833 4700,https://location.westernunion.com/mx/aguascalientes/aguascalientes/e9342d1c114f3b728257ede191deb103,Mo-Su 08:00-22:00,Western Union,Q861042
3328e33e08c33d1a80d9afed8e88627c,western_union,OXXO BELISARIO DGZ AGU,,Aguascalientes,AGUASCALIENTES,,MX,+52 81 8389 2121,https://location.westernunion.com/mx/aguascalientes/aguascalientes/3328e33e08c33d1a80d9afed8e88627c,Mo-Su 08:00-22:00,Western Union,Q861042
6402e0125aa1e3d051c83f524f22228a,western_union,OXXO BELISARIO DGZ AGU,,Aguascalientes,AGUASCALIENTES,,MX,+52 81 8389 2121,https://location.westernunion.com/mx/aguascalientes/aguascalientes/6402e0125aa1e3d051c83f524f22228a,Mo-Su 08:00-22:00,Western Union,Q861042
223862edfe3f584adfa515bf716104c5,western_union,OXXO BELISARIO DGZ AGU,,Aguascalientes,AGUASCALIENTES,,MX,+52 81 8389 2121,https://location.westernunion.com/mx/aguascalientes/aguascalientes/223862edfe3f584adfa515bf716104c5,Mo-Su 08:00-22:00,Western Union,Q861042
245e0604907f253127107ab103601da5,western_union,AURRERA EXPRESS PASEO LA ASUNCION 5642,,Aguascalientes,AGUASCALIENTES,,MX,+52 800 833 4700,https://location.westernunion.com/mx/aguascalientes/aguascalientes/245e0604907f253127107ab103601da5,Mo-Su 08:00-22:00,Western Union,Q861042
81f6c0aaaf6a6117f4d5d4f1684c2961,western_union,AURRERA EXPRESS PASEO LA ASUNCION 5642,,Aguascalientes,AGUASCALIENTES,,MX,+52 800 833 4700,https://location.westernunion.com/mx/aguascalientes/aguascalientes/81f6c0aaaf6a6117f4d5d4f1684c2961,Mo-Su 08:00-22:00,Western Union,Q861042
aeb7597cf6dc63f1bab034b783cc14fb,western_union,AURRERA EXPRESS PASEO LA ASUNCION 5642,,Aguascalientes,AGUASCALIENTES,,MX,+52 800 833 4700,https://location.westernunion.com/mx/aguascalientes/aguascalientes/aeb7597cf6dc63f1bab034b783cc14fb,Mo-Su 08:00-22:00,Western Union,Q861042
