Ref,Spider,Name,Address,City,State,Zipcode,Country,Phone,Website,Hours,Brand,WikiData
https://stores.advanceautoparts.com/ny/tonawanda/3445-delaware-ave,advance_auto_parts_us,Advance Auto Parts,,Tonawanda,NY,,US,+1 716-875-3463,https://stores.advanceautoparts.com/ny/tonawanda/3445-delaware-ave,Mo-Fr 07:30-21:00; Sa 07:30-17:00; Su 09:00-16:00,Advance Auto Parts,Q4686051
https://locations.arbys.com/ny/kenmore/3793-delaware-ave.html,arbys_us,"Arby's Fast-Food Drive Through Near You in Kenmore, NY",,Kenmore,NY,,US,+1 716-873-0116,https://locations.arbys.com/ny/kenmore/3793-delaware-ave.html,Mo-Su 10:00-23:00,Arby's,Q630866
https://locators.bankofamerica.com/ny/kenmore/financial-centers-kenmore-13484.html,bankofamerica,Bank of America Financial Center & Drive-Thru ATM | Delaware Sheridan,,Kenmore,NY,,US,+1 716-873-4015,https://locators.bankofamerica.com/ny/kenmore/financial-centers-kenmore-13484.html,Mo-Fr 10:00-16:00,Bank of America,Q487907
152873,bluerhino,Walgreens #10443,,Kenmore,NY,,US,+1 716-873-5348,,,Blue Rhino,Q65681213
209740,bluerhino,Joe's Kwik Mart #490,,Tonawanda,NY,,US,+1 716-463-5213,,,Blue Rhino,Q65681213
140651,bluerhino,Eco Mart,,Buffalo,NY,,US,+1 716-873-2840,,,Blue Rhino,Q65681213
152887,bluerhino,Walgreens #10442,,Kenmore,NY,,US,+1 716-871-1490,,,Blue Rhino,Q65681213
13031,chevrolet,"PADDOCK CHEVROLET, INC.",,Kenmore,NY,,US,+1 716-876-0945,https://www.paddockchevrolet.com,Mo 09:00-19:00; Tu-We 09:00-18:00; Th 09:00-19:00; Fr 09:00-18:00; Sa 09:00-17:00,Chevrolet,Q29570
27960,citi,ATM 7ELEVEN-FCTI,,Kenmore,NY,,US,,,,Citibank,Q857063
25483,citi,ATM 7ELEVEN-FCTI,,Kenmore,NY,,US,,,,Citibank,Q857063
73178,citi,ATM Rite Aid,,Kenmore,NY,,US,,,,Citibank,Q857063
89638,citi,ATM Walgreens,,Buffalo,NY,,US,,,,Citibank,Q857063
25946,citi,ATM 7ELEVEN-FCTI,,Kenmore,NY,,US,,,,Citibank,Q857063
90474,citi,ATM Walgreens,,Kenmore,NY,,US,,,,Citibank,Q857063
73568,citi,ATM Rite Aid,,Kenmore,NY,,US,,,,Citibank,Q857063
880147,citizens_us,Citizens Kenmore,,Tonawanda,NY,,US,+1 716-874-7296,,Mo-Th 09:00-16:00; Fr 09:00-17:00; Sa 09:00-12:00,Citizens,Q5122694
ATM-736,citizens_us,,,Buffalo,NY,,US,+1 716-874-7296,,24/7,Citizens,Q5122694
,credit_union_us,Radius FCU,,Kenmore,NY,,US,+1 716-875-1747,,Mo-Tu 08:30-04:30; We 09:00-04:30; Th-Fr 08:30-04:30; Sa 08:30-12:00,,
3332,dominos_pizza_us,Domino's Pizza,,Kenmore,NY,,US,+1 716-800-2121,https://pizza.dominos.com/new-york/kenmore/3155-delaware-ave,Mo-Th 10:30-24:00; Fr-Sa 10:30-01:00; Su 10:30-24:00,Domino's,Q839466
200328652,exxonmobil,JOE'S KWIK MARTS #0490,,TONAWANDA,NY,,US,+1 716-463-5213,https://www.exxon.com/en/find-station/exxon-tonawanda-ny-joeskwikmarts0490-200328652,Mo-Su 06:00-00:00,Exxon,Q109675651
200323286,exxonmobil,KP SHAH & ASSOCIATES INC.,,KENMORE,NY,,US,+1 917-669-3973,https://www.exxon.com/en/find-station/mobil-kenmore-ny-kpshahassociatesinc-200323286,Mo-Su 06:00-00:00,Mobil,Q109676002
200319492,exxonmobil,KENTON CONVIENCE,,BUFFALO,NY,,US,+1 716-551-6061,https://www.exxon.com/en/find-station/mobil-buffalo-ny-kentonconvience-200319492,Mo-Th 06:00-23:00; Fr-Sa 00:00-24:00; Su 06:00-23:00,Mobil,Q109676002
7543,fresenius_kidney_care_us,Fresenius Kidney Care Kenmore Wny - Nyds,,Buffalo,NY,,US,+1 800-881-5101,https://www.freseniuskidneycare.com/dialysis-centers/new-york/7543,Mo-Sa 06:00-21:00,,
buffalo_craig-maitland,geico,Craig Maitland,,Buffalo,NY,,US,+1 716-517-3300,https://www.geico.com/insurance-agents/new-york/buffalo/craig-maitland/,,GEICO,Q1498689
29810,h_r_block,H&R Block,,Kenmore,NY,,US,+1 716-874-5100,https://www.hrblock.com/local-tax-offices/new-york/kenmore/3193-delaware-ave/29810/,,H&R Block,Q5627799
https://locations.mtb.com/#25082058,mt_bank_us,,,,NY,,US,+1 800-724-2440,https://locations.mtb.com/ny/kenmore/bank-branches-and-atms-kenmore-ny-sa0423.html,24/7,M&T Bank,Q3272257
https://locations.mtb.com/#25081324,mt_bank_us,M&T Bank,,,NY,,US,+1 716-876-0111,https://locations.mtb.com/ny/kenmore/bank-branches-and-atms-kenmore-ny-48.html,Mo-Th 09:00-16:00; Fr 09:00-17:00,M&T Bank,Q3272257
https://locations.mtb.com/#25081337,mt_bank_us,M&T Bank,,,NY,,US,+1 716-874-7294,https://locations.mtb.com/ny/kenmore/bank-branches-and-atms-kenmore-ny-2.html,Mo-Th 09:00-16:00; Fr 09:00-17:00; Sa 09:00-12:00,M&T Bank,Q3272257
usd10b24f3,pandora,About Pandora Jewelry Authorized Retailer - Jo-An&rsquo;s Boutique,,Buffalo,NY,,US,+1 716-875-5588,https://stores.pandora.net/ny/buffalo/pandora-jewelry-usd10b24f3.html,Mo-Sa 10:00-21:00; Su 11:00-17:00,Pandora,Q2241604
00107,rite_aid_us,Rite Aid #00107 Kenmore,,Kenmore,NY,,US,+1 716-447-9128,https://locations2.riteaid.com.yext-cdn.com/ny/kenmore/654-colvin-avenue.html,Mo-Sa 08:00-22:00; Su 09:00-20:00,Rite Aid,Q3433273
03856,rite_aid_us,Rite Aid #03856 Kenmore,,Kenmore,NY,,US,+1 716-447-1757,https://locations2.riteaid.com.yext-cdn.com/ny/kenmore/2865-elmwood-avenue.html,Mo-Sa 08:00-22:00; Su 09:00-20:00,Rite Aid,Q3433273
35149,seven_eleven_ca_us,Bcp Str    2412 Elmwood,,Kenmore,NY,,US,+1 716-876-8734,https://www.7-eleven.com/locations/ny/kenmore/2412-elmwood-35149,,7-Eleven,Q259340
35233,seven_eleven_ca_us,7-11 Str   1490 Sheridan,,Kenmore,NY,,US,+1 716-447-8823,https://www.7-eleven.com/locations/ny/kenmore/1490-sheridan-35233,,7-Eleven,Q259340
40185,seven_eleven_ca_us,7-Eleven,,KENMORE,NY,,US,+1 716-875-5508,https://www.7-eleven.com/locations/ny/kenmore/1311-sheridan-drive-40185,,7-Eleven,Q259340
https://restaurants.subway.com/#14908568,subway,Subway,,Tonawanda Erie,NY,,US,+1 716-875-1782,https://restaurants.subway.com/united-states/ny/tonawanda/3674-delaware-ave,Mo-Sa 08:30-21:00; Su 08:30-20:00,Subway,Q244457
8002075801,sunoco_us,Sunoco,,BUFFALO,NY,,US,,,,Sunoco,Q1423218
0431848100,sunoco_us,Sunoco,,KENMORE,NY,,US,+1 716-875-5508,,,Sunoco,Q1423218
914589,tim_hortons,Tim Hortons,,Kenmore,NY,,US,+1 716-447-6236,,Mo-We 06:00-21:00; Fr 06:00-21:00; Sa-Su 08:00-15:30,Tim Hortons,Q175106
1433787,usps,KENMORE,,BUFFALO,NY,,US,+1 716-874-7017,,Mo-Fr 08:30-17:00; Sa 08:30-13:00,United States Postal Service,Q668687
1421700037,usps_collection_boxes,USPS COLLECTION BOX - BLUE BOX,1141 MILITARY RD,KENMORE,NY,,US,,,,United States Postal Service,Q668687
1421700029,usps_collection_boxes,USPS COLLECTION BOX - BLUE BOX,2260 ELMWOOD AVE,KENMORE,NY,,US,,,,United States Postal Service,Q668687
1421700030,usps_collection_boxes,USPS COLLECTION BOX - BLUE BOX,2333 ELMWOOD AVE,KENMORE,NY,,US,,,,United States Postal Service,Q668687
1421700039,usps_collection_boxes,USPS COLLECTION BOX - BLUE BOX,1601 MILITARY RD,KENMORE,NY,,US,,,,United States Postal Service,Q668687
1421700032,usps_collection_boxes,USPS COLLECTION BOX - BLUE BOX,1490 SHERIDAN DR,KENMORE,NY,,US,,,,United States Postal Service,Q668687
1421700025,usps_collection_boxes,USPS COLLECTION BOX - BLUE BOX,2956 ELMWOOD AVE,KENMORE,NY,,US,,,,United States Postal Service,Q668687
1421700044,usps_collection_boxes,USPS COLLECTION BOX - BLUE BOX,2949 ELMWOOD AVE,KENMORE,NY,,US,,,,United States Postal Service,Q668687
1421700045,usps_collection_boxes,USPS COLLECTION BOX - BLUE BOX,2860 ELMWOOD AVE,KENMORE,NY,,US,,,,United States Postal Service,Q668687
1421700026,usps_collection_boxes,USPS COLLECTION BOX - BLUE BOX,3252 ELMWOOD AVE,KENMORE,NY,,US,,,,United States Postal Service,Q668687
1421700027,usps_collection_boxes,USPS COLLECTION BOX - BLUE BOX,2760 ELMWOOD AVE,KENMORE,NY,,US,,,,United States Postal Service,Q668687
1421700023,usps_collection_boxes,USPS COLLECTION BOX - BLUE BOX,3600 DELAWARE AVE,KENMORE,NY,,US,,,,United States Postal Service,Q668687
1421700014,usps_collection_boxes,USPS COLLECTION BOX - BLUE BOX,3497 DELAWARE AVE,KENMORE,NY,,US,,,,United States Postal Service,Q668687
1421700006,usps_collection_boxes,USPS COLLECTION BOX - BLUE BOX,3411 DELAWARE AVE,KENMORE,NY,,US,,,,United States Postal Service,Q668687
1421700021,usps_collection_boxes,USPS COLLECTION BOX - BLUE BOX,3710 DELAWARE AVE,KENMORE,NY,,US,,,,United States Postal Service,Q668687
1421700031,usps_collection_boxes,USPS COLLECTION BOX - BLUE BOX,2630 ELMWOOD AVE,KENMORE,NY,,US,,,,United States Postal Service,Q668687
1421700022,usps_collection_boxes,USPS COLLECTION BOX - BLUE BOX,3841 DELAWARE AVE,KENMORE,NY,,US,,,,United States Postal Service,Q668687
1421700033,usps_collection_boxes,USPS COLLECTION BOX - BLUE BOX,2516 ELMWOOD AVE,KENMORE,NY,,US,,,,United States Postal Service,Q668687
1421700018,usps_collection_boxes,USPS COLLECTION BOX - BLUE BOX,3100 DELAWARE AVE,KENMORE,NY,,US,,,,United States Postal Service,Q668687
1421700010,usps_collection_boxes,USPS COLLECTION BOX - BLUE BOX,290 DELAWARE RD,KENMORE,NY,,US,,,,United States Postal Service,Q668687
1421700001,usps_collection_boxes,USPS COLLECTION BOX - BLUE BOX,3014 DELAWARE AVE,KENMORE,NY,,US,,,,United States Postal Service,Q668687
1421700002,usps_collection_boxes,USPS COLLECTION BOX - BLUE BOX,3014 DELAWARE AVE,KENMORE,NY,,US,,,,United States Postal Service,Q668687
1421700059,usps_collection_boxes,USPS COLLECTION BOX - PO LOBBY,3014 DELAWARE AVE,KENMORE,NY,,US,,,,United States Postal Service,Q668687
1421700034,usps_collection_boxes,USPS COLLECTION BOX - BLUE BOX,2430 ELMWOOD AVE,KENMORE,NY,,US,,,,United States Postal Service,Q668687
1421700046,usps_collection_boxes,USPS COLLECTION BOX - BLUE BOX,191 DELAWARE RD,KENMORE,NY,,US,,,,United States Postal Service,Q668687
1421700049,usps_collection_boxes,USPS COLLECTION BOX - BLUE BOX,2919 DELAWARE AVE,KENMORE,NY,,US,,,,United States Postal Service,Q668687
1421700024,usps_collection_boxes,USPS COLLECTION BOX - BLUE BOX,2916 DELAWARE AVE,KENMORE,NY,,US,,,,United States Postal Service,Q668687
1421700013,usps_collection_boxes,USPS COLLECTION BOX - BLUE BOX,2866 DELAWARE AVE,KENMORE,NY,,US,,,,United States Postal Service,Q668687
1421700008,usps_collection_boxes,USPS COLLECTION BOX - BLUE BOX,965 COLVIN BLVD,KENMORE,NY,,US,,,,United States Postal Service,Q668687
1421700036,usps_collection_boxes,USPS COLLECTION BOX - BLUE BOX,63 MYRON AVE,KENMORE,NY,,US,,,,United States Postal Service,Q668687
1421700042,usps_collection_boxes,USPS COLLECTION BOX - BLUE BOX,221 KNOWLTON AVE,KENMORE,NY,,US,,,,United States Postal Service,Q668687
1421700057,usps_collection_boxes,USPS COLLECTION BOX - BLUE BOX,1177 KENMORE AVE,KENMORE,NY,,US,,,,United States Postal Service,Q668687
1421700055,usps_collection_boxes,USPS COLLECTION BOX - BLUE BOX,654 COLVIN BLVD,KENMORE,NY,,US,,,,United States Postal Service,Q668687
tonawanda_oil-change-aq5013,valvoline_instant_oil_change,Valvoline,3480 Delaware Avenue ,Tonawanda,NY,,US,+1 716-877-9449,https://store.vioc.com/ny/tonawanda/oil-change-aq5013.html,,Valvoline Instant Oil Change,Q7912852
,visa,,,ORCHARD PARK,NY,,US,,,,,
,visa,,,ORCHARD PARK,NY,,US,,,,,
,visa,,,ORCHARD PARK,NY,,US,,,,,
,visa,,,ORCHARD PARK,NY,,US,,,,,
,visa,,,ORCHARD PARK,NY,,US,,,,,
,visa,,,ORCHARD PARK,NY,,US,,,,,
,visa,,,ORCHARD PARK,NY,,US,,,,,
,visa,,,ORCHARD PARK,NY,,US,,,,,
,visa,,,ORCHARD PARK,NY,,US,,,,,
,visa,,,BUFFALO,NY,,US,,,,,
,visa,,,KENMORE,NY,,US,,,,,
,visa,,,BUFFALO,NY,,US,,,,,
,visa,,,KENMORE,NY,,US,,,,,
,visa,,,KENMORE,NY,,US,,,,,
,visa,,,KENMORE,NY,,US,,,,,
,visa,,,KENMORE,NY,,US,,,,,
,visa,,,KENMORE,NY,,US,,,,,
,visa,,,KENMORE,NY,,US,,,,,
,visa,,,KENMORE,NY,,US,,,,,
,visa,,,KENMORE,NY,,US,,,,,
,visa,,,KENMORE,NY,,US,,,,,
,visa,,,KENMORE,NY,,US,,,,,
,visa,,,KENMORE,NY,,US,,,,,
,visa,,,KENMORE,NY,,US,,,,,
,visa,,,BUFFALO,NY,,US,,,,,
,visa,,,BUFFALO,NY,,US,,,,,
,visa,,,KENMORE,NY,,US,,,,,
,visa,,,TONAWANDA,NY,,US,,,,,
,visa,,,BUFFALO,NY,,US,,,,,
,visa,,,KENMORE,NY,,US,,,,,
,visa,,,KENMORE,NY,,US,,,,,
,visa,,,KENMORE,NY,,US,,,,,
,visa,,,KENMORE,NY,,US,,,,,
,visa,,,TONAWANDA,NY,,US,,,,,
,visa,,,KENMORE,NY,,US,,,,,
,visa,,,KENMORE,NY,,US,,,,,
,visa,,,TONAWANDA,NY,,US,,,,,
,visa,,,KENMORE,NY,,US,,,,,
,visa,,,BUFFALO,NY,,US,,,,,
,visa,,,TONAWANDA,NY,,US,,,,,
,visa,,,BUFFALO,NY,,US,,,,,
,visa,,,KENMORE,NY,,US,,,,,
,visa,,,KENMORE,NY,,US,,,,,
,visa,,,BUFFALO,NY,,US,,,,,
,visa,,,TONAWANDA,NY,,US,,,,,
,visa,,,KENMORE,NY,,US,,,,,
,visa,,,BUFFALO,NY,,US,,,,,
,visa,,,KENMORE,NY,,US,,,,,
,visa,,,KENMORE,NY,,US,,,,,
,visa,,,KENMORE,NY,,US,,,,,
,visa,,,BUFFALO,NY,,US,,,,,
,visa,,,KENMORE,NY,,US,,,,,
,visa,,,KENMORE,NY,,US,,,,,
,visa,,,KENMORE,NY,,US,,,,,
,visa,,,KENMORE,NY,,US,,,,,
,visa,,,KENMORE,NY,,US,,,,,
,visa,,,KENMORE,NY,,US,,,,,
,visa,,,KENMORE,NY,,US,,,,,
,visa,,,KENMORE,NY,,US,,,,,
,visa,,,TONAWANDA,NY,,US,,,,,
,visa,,,KENMORE,NY,,US,,,,,
,visa,,,BUFFALO,NY,,US,,,,,
,visa,,,KENMORE,NY,,US,,,,,
,visa,,,KENMORE,NY,,US,,,,,
,visa,,,KENMORE,NY,,US,,,,,
,visa,,,KENMORE,NY,,US,,,,,
,visa,,,KENMORE,NY,,US,,,,,
,visa,,,KENMORE,NY,,US,,,,,
,visa,,,TONAWANDA,NY,,US,,,,,
,visa,,,TONAWANDA,NY,,US,,,,,
,visa,,,TONAWANDA,NY,,US,,,,,
,visa,,,KENMORE,NY,,US,,,,,
,visa,,,KENMORE,NY,,US,,,,,
,visa,,,TONAWANDA,NY,,US,,,,,
,visa,,,BUFFALO,NY,,US,,,,,
,visa,,,KENMORE,NY,,US,,,,,
,visa,,,KENMORE,NY,,US,,,,,
,visa,,,KENMORE,NY,,US,,,,,
,visa,,,BUFFALO,NY,,US,,,,,
,visa,,,KENMORE,NY,,US,,,,,
,visa,,,KENMORE,NY,,US,,,,,
,visa,,,TONAWANDA,NY,,US,,,,,
https://www.walgreens.com/locator/walgreens-3564+delaware+ave-tonawanda-ny-14217/id=10443,walgreens,Walgreens,,Tonawanda,NY,,US,+1 716-873-5348,https://www.walgreens.com/locator/walgreens-3564+delaware+ave-tonawanda-ny-14217/id=10443,Mo-Su 08:00-21:00,Walgreens,Q1591889
https://www.walgreens.com/locator/walgreens-2739+delaware+ave-kenmore-ny-14217/id=10442,walgreens,Walgreens,,Kenmore,NY,,US,+1 716-871-1490,https://www.walgreens.com/locator/walgreens-2739+delaware+ave-kenmore-ny-14217/id=10442,Mo-Su 08:00-22:00,Walgreens,Q1591889
ae6304df6aeb40b605e2fe598430e563,western_union,7-ELEVEN #35233,,Kenmore,NY,,US,+1 716-447-8823,https://location.westernunion.com/us/ny/kenmore/ae6304df6aeb40b605e2fe598430e563,,Western Union,Q861042
