Ref,Spider,Name,Address,City,State,Zipcode,Country,Phone,Website,Hours,Brand,WikiData
https://locations.99only.com/ca/vannuys/discount-store-450.html,99_cents_only_us,99 Cents Only Stores,,Van Nuys,CA,,US,+1 818-901-6590,https://locations.99only.com/ca/vannuys/discount-store-450.html,Mo 08:00-22:00; Tu 07:00-22:00; We 08:00-22:00; Th 07:00-22:00; Fr-Su 08:00-22:00,99 Cents Only Stores,Q4646294
15643 Sherman Way,allied_universal,Allied Universal,,Van Nuys,CA,,US,+1 818-650-5340,https://www.aus.com/los-angeles-security-services-systems,,Allied Universal,Q4732537
5496,autozone_us,AutoZone Auto Parts Van Nuys,,Van Nuys,CA,,US,+1 818-779-7865,https://www.autozone.com/locations/ca/van-nuys/16500-sherman-way.html,Mo-Sa 07:30-22:00; Su 08:00-21:00,AutoZone,Q4826087
https://locators.bankofamerica.com/ca/vannuys/atm-van-nuys-108554.html,bankofamerica,Bank of America Walk-Up ATM | Van Nuys Airport,,Van Nuys,CA,,US,+1 844-401-8500,https://locators.bankofamerica.com/ca/vannuys/atm-van-nuys-108554.html,,Bank of America,Q487907
https://locations.baskinrobbins.com/ca/van-nuys/7602-balboa-blvd-358513-br,baskin_robbins_us,Baskin-Robbins™,,Van Nuys,CA,,US,+1 818-285-8664,https://locations.baskinrobbins.com/ca/van-nuys/7602-balboa-blvd-358513-br,Mo-Th 10:30-22:00; Fr-Su 10:00-22:00,Baskin-Robbins,Q584601
206575,bluerhino,Rite Aid #05568,,Van Nuys,CA,,US,+1 818-345-1543,,,Blue Rhino,Q65681213
146093,bluerhino,Kenk USA - Sherman Way,,Van Nuys,CA,,US,+1 818-374-9158,,,Blue Rhino,Q65681213
120956,bluerhino,G & M #150,,Van Nuys,CA,,US,+1 818-421-8456,,,Blue Rhino,Q65681213
129614,bluerhino,Food 4 Less #323,,Van Nuys,CA,,US,+1 818-997-0170,,,Blue Rhino,Q65681213
169071,bluerhino,United Pacific  #109,,Van Nuys,CA,,US,+1 818-780-0981,,,Blue Rhino,Q65681213
198009,bluerhino,United Pacific #636,,Van Nuys,CA,,US,+1 818-305-6845,,,Blue Rhino,Q65681213
47724_50002,bmw_group,"Classic Collision, Independent Certified Collision Repair Center of BMW of Sherman Oaks",,Van Nuys,CA,,US,+1 818-909-0660,,,BMW,Q26678
2042573,chase_us,Lake Balboa - New branch,,Van Nuys,CA,,US,+1 818-345-5752,https://locator.chase.com/ca/van-nuys/17200-saticoy-st,Mo-Fr 09:00-17:00; Sa 09:00-14:00,Chase,Q524629
373158,chevron,Chevron Station #373158,16103 SHERMAN WAY,VAN NUYS,CA,,US,+1 818-780-2938,,,Chevron,Q319642
375602,chevron,Chevron Station #375602,16505 VICTORY BLVD,VAN NUYS,CA,,US,+1 818-780-1106,,,Chevron,Q319642
308251,chevron,Chevron Station #308251,15710 ROSCOE BLVD,VAN NUYS,CA,,US,+1 818-891-0307,,,Chevron,Q319642
26613,citi,ATM 7ELEVEN-FCTI,,Van Nuys,CA,,US,,,,Citibank,Q857063
72935,citi,ATM Rite Aid,,Van Nuys,CA,,US,,,,Citibank,Q857063
26483,citi,ATM 7ELEVEN-FCTI,,Van Nuys,CA,,US,,,,Citibank,Q857063
57104,citi,ATM Food 4 Less,,Van Nuys,CA,,US,,,,Citibank,Q857063
26403,citi,ATM 7ELEVEN-FCTI,,Van Nuys,CA,,US,,,,Citibank,Q857063
26308,citi,ATM 7ELEVEN-FCTI,,Van Nuys,CA,,US,,,,Citibank,Q857063
26120,citi,ATM 7ELEVEN-FCTI,,Van Nuys,CA,,US,,,,Citibank,Q857063
20719,coldstone_creamery,Cold Stone Creamery,,Van Nuys,CA,,US,+1 818-342-9917,https://www.coldstonecreamery.com/stores/20719,,Cold Stone Creamery,Q1094923
,credit_union_us,Priority One CU,,Van Nuys,CA,,US,+1 877-762-8663,,Mo-Fr 09:00-05:00,,
247438,dennys,Denny's,,Van Nuys,CA,,US,+1 818-994-0952,https://locations.dennys.com/CA/VAN-NUYS/247438,24/7,Denny's,Q1189695
209399,dennys,Denny's,,Van Nuys,CA,,US,+1 818-892-2860,https://locations.dennys.com/CA/VAN-NUYS/209399,24/7,Denny's,Q1189695
3457,elpolloloco,El Pollo Loco,,Van Nuys,CA,,US,+1 818-774-1173,,,El Pollo Loco,Q2353849
7626,extra_space_storage,Van Nuys Self Storage at 7855 Haskell Ave,,Van Nuys,CA,,US,+1 747-262-7997,https://www.extraspace.com/storage/facilities/us/california/van_nuys/7626/,Mo-Fr 09:30-18:00; Sa 09:00-17:30,Extra Space Storage,Q5422162
7470,extra_space_storage,Lake Balboa Self Storage at 6853 Woodley Ave,,Lake Balboa,CA,,US,+1 818-646-6999,https://www.extraspace.com/storage/facilities/us/california/lake_balboa/7470/,Mo-Fr 09:30-18:00; Sa 09:00-17:30,Extra Space Storage,Q5422162
6041,extra_space_storage,Van Nuys Self Storage at 7736 Haskell Ave,,Van Nuys,CA,,US,+1 818-746-3025,https://www.extraspace.com/storage/facilities/us/california/van_nuys/6041/,Mo-Fr 09:30-18:00; Sa 09:00-17:30,Extra Space Storage,Q5422162
Motorcraft1586USAEnglish,ford,Galpin Lincoln,,California,CA,,US,+1 818-892-3800,,,Ford,Q44294
1559,gamestop_us,Patomac Plaza,,Van Nuys,CA,,US,+1 818-782-0376,https://www.gamestop.com/search/?store=1559,Mo-Th 12:00-20:00; Fr-Sa 12:00-21:00; Su 11:00-20:00,GameStop,Q202210
https://stores.gnc.com/#24059745,gnc,GNC Saticoy Plaza,,,CA,,US,+1 818-708-7543,https://stores.gnc.com/all-stores-california/van-nuys/17234-saticoy-avenue,Mo-Fr 10:00-21:00; Sa 10:00-19:00; Su 10:00-18:00,GNC,Q4808595
3843,h_r_block,H&R Block,,Van Nuys,CA,,US,+1 818-996-9983,https://www.hrblock.com/local-tax-offices/california/van-nuys/saticoy-plaza/3843/,,H&R Block,Q5627799
196,innout,Van Nuys (Balboa),,Van Nuys,CA,,US,,http://locations.in-n-out.com/196,,In-N-Out Burger,Q1205312
https://locations.jackinthebox.com/us/ca/van-nuys/16860-vanowen-st,jackinthebox,Jack in the Box,,Van Nuys,CA,,US,+1 818-779-1350,https://locations.jackinthebox.com/us/ca/van-nuys/16860-vanowen-st,Mo-Su 04:00-04:00,Jack in the Box,Q1538507
https://healthy.kaiserpermanente.org/southern-california/facilities/haemo-stat-inc-340111,kaiser_permanente_us,"Haemo-Stat, Inc.",,Van Nuys,CA,,US,+1 818-908-0371,https://healthy.kaiserpermanente.org/southern-california/facilities/haemo-stat-inc-340111,,Kaiser Permanente,Q1721601
https://healthy.kaiserpermanente.org/southern-california/facilities/growth-extended-inc-lake-balboa-339467,kaiser_permanente_us,"Growth Extended, Inc. - Lake Balboa",,Van Nuys,CA,,US,+1 888-948-9998,https://healthy.kaiserpermanente.org/southern-california/facilities/growth-extended-inc-lake-balboa-339467,,Kaiser Permanente,Q1721601
https://healthy.kaiserpermanente.org/southern-california/facilities/bio-medical-applications-of-california-inc-340155,kaiser_permanente_us,"Bio-Medical Applications of California, Inc.",,Van Nuys,CA,,US,+1 781-699-9698,https://healthy.kaiserpermanente.org/southern-california/facilities/bio-medical-applications-of-california-inc-340155,,Kaiser Permanente,Q1721601
68704,little_free_library,ONEgeneration Intergenerational Center #68704 Van Nuys CA,,Van Nuys,CA,,US,,,,Little Free Library,Q6650101
130931,little_free_library,@Caprino_LFL #130931 Lake Balboa CA,,Lake Balboa,CA,,US,,,,Little Free Library,Q6650101
70514,little_free_library,Kate Fatta #70514 Lake Balboa CA,,Lake Balboa,CA,,US,,,,Little Free Library,Q6650101
102531,little_free_library,Smol Library #102531 Lake Balboa CA,,Lake Balboa,CA,,US,,,,Little Free Library,Q6650101
31444,little_free_library,Erin and Matt Robinson #31444 Lake Balboa CA,,Lake Balboa,CA,,US,,,,Little Free Library,Q6650101
158887,little_free_library,Elms Little Library #158887 Lake Balboa CA,,Lake Balboa,CA,,US,,,,Little Free Library,Q6650101
82551,little_free_library,Buzz’s Book Shed #82551 Van Nuys CA,,Van Nuys,CA,,US,,,,Little Free Library,Q6650101
149450,little_free_library,Steven Leffert #149450 Lake Balboa CA,,Lake Balboa,CA,,US,,,,Little Free Library,Q6650101
157863,little_free_library,Launa Prince #157863 Van Nuys CA,,Van Nuys,CA,,US,,,,Little Free Library,Q6650101
85280,little_free_library,Sarah Barkstelle #85280 #85280 Van Nuys CA,,Van Nuys,CA,,US,,,,Little Free Library,Q6650101
85579,little_free_library,Valley Zen #85579 Van Nuys CA,,Van Nuys,CA,,US,,,,Little Free Library,Q6650101
285880,marathon_petroleum_us,ARCO #42444,,Van Nuys,CA,,US,+1 818-787-2994,,,Arco,Q304769
74166213,moneygram,VALLARTA SUPERMARKETS - #106,,VAN NUYS,CA,,US,+1 818-290-5131,,Mo-Su 06:00-21:00,MoneyGram,Q1944412
1052,national_seating_mobility,Chatsworth,,Van Nuys,CA,,US,+1 818-718-1771,,,National Seating & Mobility,Q116770969
112333,pandaexpress,Saticoy & Louise,,Van Nuys,CA,,US,+1 818-774-0107,https://www.pandaexpress.com/locations/ca/van-nuys/17276-saticoy-st,Mo-Su 09:30-22:30,Panda Express,Q1358690
0000878036,phillips_66_conoco_76,UNITED OIL 0009,,VAN NUYS,CA,,US,+1 818-780-0981,,,U76,Q1658320
ca_van-nuys_17630-vanowens-blvd,pizza_hut_us,17630 Vanowens Blvd,,Van Nuys,CA,,US,+1 818-343-7070,https://locations.pizzahut.com/ca/van-nuys/17630-vanowens-blvd,,Pizza Hut,Q191615
restaurant_241398,popeyes_us_fr,Popeyes,"16500 Sherman Way ** Los Angeles, California 91406 - USA",Los Angeles,CA,,US,+1 818-646-3090,https://www.popeyes.com/store-locator/store/restaurant_241398,Mo-Su 10:00-22:00,Popeyes,Q1330910
home-depot-6661-9240,ppgpaints,HOME DEPOT 6661,,"Van Nuys, ",CA,,US,+1 818-780-5448,https://www.ppgpaints.com/store-locator/us/california/van-nuys-paint-stores/home-depot-6661-9240,,PPG Paints,Q83891559
https://www.publicstorage.com/self-storage-ca-van-nuys/18.html,public_storage_us,Public Storage,,Van Nuys,CA,,US,+1 818-600-4162,https://www.publicstorage.com/self-storage-ca-van-nuys/18.html,,Public Storage,Q1156045
05568,rite_aid_us,Rite Aid #05568 Van Nuys,,Van Nuys,CA,,US,+1 818-345-1543,https://locations2.riteaid.com.yext-cdn.com/ca/van-nuys/17266-saticoy-street.html,Mo-Su 08:00-22:00,Rite Aid,Q3433273
997060,rocket_us,Rocket,,Van Nuys,CA,,US,+1 818-780-0981,,,Rocket,Q121513516
993415,rocket_us,Rocket,,Van Nuys,CA,,US,+1 818-305-6845,,,Rocket,Q121513516
39698,seven_eleven_ca_us,Bcp Store,,Van Nuys,CA,,US,+1 818-994-0289,https://www.7-eleven.com/locations/ca/van-nuys/15317-vanowen-st-39698,,7-Eleven,Q259340
1148,shellrecharge,16851 Victory Blvd,,Los Angeles,CA,,US,,,,Shell Recharge,Q105883058
https://stations.sinclairoil.com/ca/van-nuys/16930-roscoe-blvd,sinclair_us,Sinclair,,Van Nuys,CA,,US,+1 818-881-3810,https://stations.sinclairoil.com/ca/van-nuys/16930-roscoe-blvd,Mo-Su 05:00-23:00,Sinclair,Q1290900
https://restaurants.subway.com/#14896308,subway,Subway,,Van Nuys Los Angeles,CA,,US,+1 818-786-7828,https://restaurants.subway.com/united-states/ca/van-nuys/6800-balboa-blvd,Mo-Sa 08:00-21:30; Su 10:00-20:00,Subway,Q244457
https://restaurants.subway.com/#14899124,subway,Subway,,Van Nuys Los Angeles,CA,,US,+1 818-342-7353,https://restaurants.subway.com/united-states/ca/van-nuys/17224-saticoy-st,Mo-Sa 08:00-22:00; Su 10:00-21:00,Subway,Q244457
https://restaurants.subway.com/#14905893,subway,Subway Airport Plaza,,Van Nuys Los Angeles,CA,,US,+1 818-782-5595,https://restaurants.subway.com/united-states/ca/van-nuys/16500-sherman-way,Mo-Su 07:30-20:30,Subway,Q244457
https://locations.tacobell.com/#6142002,taco_bell,Taco Bell,,Van Nuys,CA,,US,+1 818-779-8512,https://locations.tacobell.com/ca/van-nuys/8256-orion-ave.html,Mo 10:00-01:00; Tu-Th 07:00-01:00; Fr 09:00-02:00; Sa 07:00-02:00; Su 07:00-01:00,Taco Bell,Q752941
https://locations.tacobell.com/#6146059,taco_bell,Taco Bell,,Van Nuys,CA,,US,+1 747-377-4203,https://locations.tacobell.com/ca/van-nuys/15651-sherman-way.html,,Taco Bell,Q752941
040169,uhaul,CCF Upholstery,16935 Saticoy St,Van Nuys,CA,,US,+1 747-202-6531,,Mo-Fr 00:00-18:00; Sa 00:00-16:00,U-Haul,Q7862902
038618,uhaul,Lockstock Express,17639 Sherman Way,Van Nuys,CA,,US,+1 818-609-0665,,Mo-Fr 00:00-17:00; Sa 30:00-16:00,U-Haul,Q7862902
053110,uhaul,A Plus Auto,15709 Saticoy St,Van Nuys,CA,,US,+1 818-939-0345,,Mo-Fr 30:00-18:00,U-Haul,Q7862902
190000,uhaul,Van Nuys Rers,15838 Strathern St,Van Nuys,CA,,US,+1 818-988-3306,,Mo-Fr 00:00-15:00,U-Haul,Q7862902
031449,uhaul,A Ship N Box Depot,16227 Victory Bl,Van Nuys,CA,,US,+1 818-786-0117,,,U-Haul,Q7862902
014408,uhaul,Keep It Self Storage Van Nuys,6827 Woodley Av,Van Nuys,CA,,US,+1 818-787-7699,,Mo-Sa 30:00-16:00,U-Haul,Q7862902
1385721,usps,VAN NUYS,,VAN NUYS,CA,,US,+1 818-374-5650,,Mo-Fr 08:30-19:00; Sa 09:00-17:00,United States Postal Service,Q668687
1440899,usps,VAN NUYS,,VAN NUYS,CA,,US,+1 818-374-5690,,,United States Postal Service,Q668687
9140600051,usps_collection_boxes,USPS COLLECTION BOX - BLUE BOX,16380 ROSCOE BLVD,VAN NUYS,CA,,US,,,,United States Postal Service,Q668687
9140600067,usps_collection_boxes,USPS COLLECTION BOX - BLUE BOX,17200 STAGG ST,VAN NUYS,CA,,US,,,,United States Postal Service,Q668687
9140600060,usps_collection_boxes,USPS COLLECTION BOX - BLUE BOX,16501 SHERMAN WAY,VAN NUYS,CA,,US,,,,United States Postal Service,Q668687
9140600068,usps_collection_boxes,USPS COLLECTION BOX - BLUE BOX,8002 ALDEA AVE,VAN NUYS,CA,,US,,,,United States Postal Service,Q668687
9140600018,usps_collection_boxes,USPS COLLECTION BOX - BLUE BOX,16600 SHERMAN WAY,VAN NUYS,CA,,US,,,,United States Postal Service,Q668687
9140600066,usps_collection_boxes,USPS COLLECTION BOX - PO LOBBY,15701 SHERMAN WAY,VAN NUYS,CA,,US,,,,United States Postal Service,Q668687
9140600069,usps_collection_boxes,USPS COLLECTION BOX - BLUE BOX,7120 HAYVENHURST AVE,VAN NUYS,CA,,US,,,,United States Postal Service,Q668687
9140600061,usps_collection_boxes,USPS COLLECTION BOX - BLUE BOX,7100 HAYVENHURST AVE,VAN NUYS,CA,,US,,,,United States Postal Service,Q668687
9140600026,usps_collection_boxes,USPS COLLECTION BOX - BLUE BOX,6799 WOODLEY AVE,VAN NUYS,CA,,US,,,,United States Postal Service,Q668687
van-nuys-6,vallarta,Van Nuys #6,16040 Sherman Way,Van Nuys,CA,,US,+1 818-290-5131,https://vallartasupermarkets.com/store-locations/van-nuys-6/,Mo-Su 07:00-22:00,Vallarta Supermarkets,Q7911833
,visa,,,NORTH HOLLYWOOD,CA,,US,,,,,
,visa,,,VAN NUYS,CA,,US,,,,,
,visa,,,VAN NUYS,CA,,US,,,,,
,visa,,,VAN NUYS,CA,,US,,,,,
,visa,,,VAN NUYS,CA,,US,,,,,
,visa,,,VAN NUYS,CA,,US,,,,,
,visa,,,VAN NUYS,CA,,US,,,,,
,visa,,,VAN NUYS,CA,,US,,,,,
,visa,,,VAN NUYS,CA,,US,,,,,
,visa,,,VAN NUYS,CA,,US,,,,,
,visa,,,VAN NUYS,CA,,US,,,,,
,visa,,,VAN NUYS,CA,,US,,,,,
,visa,,,VAN NUYS,CA,,US,,,,,
,visa,,,VAN NUYS,CA,,US,,,,,
,visa,,,VAN NUYS,CA,,US,,,,,
,visa,,,VAN NUYS,CA,,US,,,,,
,visa,,,VAN NUYS,CA,,US,,,,,
,visa,,,VAN NUYS,CA,,US,,,,,
,visa,,,VAN NUYS,CA,,US,,,,,
,visa,,,VAN NUYS,CA,,US,,,,,
,visa,,,VAN NUYS,CA,,US,,,,,
,visa,,,VAN NUYS,CA,,US,,,,,
,visa,,,VAN NUYS,CA,,US,,,,,
,visa,,,VAN NUYS,CA,,US,,,,,
,visa,,,VAN NUYS,CA,,US,,,,,
,visa,,,VAN NUYS,CA,,US,,,,,
,visa,,,VAN NUYS,CA,,US,,,,,
,visa,,,VAN NUYS,CA,,US,,,,,
,visa,,,VAN NUYS,CA,,US,,,,,
,visa,,,VAN NUYS,CA,,US,,,,,
,visa,,,VAN NUYS,CA,,US,,,,,
,visa,,,VAN NUYS,CA,,US,,,,,
,visa,,,VAN NUYS,CA,,US,,,,,
,visa,,,VAN NUYS,CA,,US,,,,,
,visa,,,VAN NUYS,CA,,US,,,,,
,visa,,,VAN NUYS,CA,,US,,,,,
,visa,,,VAN NUYS,CA,,US,,,,,
,visa,,,VAN NUYS,CA,,US,,,,,
,visa,,,VAN NUYS,CA,,US,,,,,
,visa,,,VAN NUYS,CA,,US,,,,,
,visa,,,VAN NUYS,CA,,US,,,,,
,visa,,,VAN NUYS,CA,,US,,,,,
,visa,,,VAN NUYS,CA,,US,,,,,
,visa,,,VAN NUYS,CA,,US,,,,,
,visa,,,VAN NUYS,CA,,US,,,,,
,visa,,,VAN NUYS,CA,,US,,,,,
,visa,,,VAN NUYS,CA,,US,,,,,
,visa,,,VAN NUYS,CA,,US,,,,,
,visa,,,VAN NUYS,CA,,US,,,,,
,visa,,,VAN NUYS,CA,,US,,,,,
,visa,,,VAN NUYS,CA,,US,,,,,
,visa,,,VAN NUYS,CA,,US,,,,,
,visa,,,VAN NUYS,CA,,US,,,,,
,visa,,,VAN NUYS,CA,,US,,,,,
,visa,,,VAN NUYS,CA,,US,,,,,
,visa,,,VAN NUYS,CA,,US,,,,,
,visa,,,VAN NUYS,CA,,US,,,,,
,visa,,,VAN NUYS,CA,,US,,,,,
,visa,,,VAN NUYS,CA,,US,,,,,
,visa,,,VAN NUYS,CA,,US,,,,,
,visa,,,LAKE BALBOA,CA,,US,,,,,
,visa,,,VAN NUYS,CA,,US,,,,,
,visa,,,VAN NUYS,CA,,US,,,,,
,visa,,,VAN NUYS,CA,,US,,,,,
,visa,,,VAN NUYS,CA,,US,,,,,
,visa,,,VAN NUYS,CA,,US,,,,,
,visa,,,VAN NUYS,CA,,US,,,,,
,visa,,,VAN NUYS,CA,,US,,,,,
,visa,,,VAN NUYS,CA,,US,,,,,
,visa,,,VAN NUYS,CA,,US,,,,,
,visa,,,VAN NUYS,CA,,US,,,,,
,visa,,,VAN NUYS,CA,,US,,,,,
,visa,,,VAN NUYS,CA,,US,,,,,
,visa,,,VAN NUYS,CA,,US,,,,,
,visa,,,VAN NUYS,CA,,US,,,,,
,visa,,,VAN NUYS,CA,,US,,,,,
,visa,,,VAN NUYS,CA,,US,,,,,
,visa,,,VAN NUYS,CA,,US,,,,,
,visa,,,VAN NUYS,CA,,US,,,,,
,visa,,,VAN NUYS,CA,,US,,,,,
,visa,,,RESEDA,CA,,US,,,,,
17250__SATICOY__ST_VAN__NUYS_CA_91406,wellsfargo,,17250 SATICOY ST,VAN NUYS,CA,,US,+1 800-869-3557,https://www.wellsfargo.com/locator/bank/17250__SATICOY__ST_VAN__NUYS_CA_91406/,,Wells Fargo,Q744149
16530__SHERMAN__WAY_VAN__NUYS_CA_91406,wellsfargo,,16530 SHERMAN WAY,VAN NUYS,CA,,US,+1 800-869-3557,https://www.wellsfargo.com/locator/bank/16530__SHERMAN__WAY_VAN__NUYS_CA_91406/,,Wells Fargo,Q744149
https://locations.wendys.com/#9256179,wendys,"Wendy's White Oak in Van Nuys, CA",,Van Nuys,CA,,US,+1 818-342-3975,https://locations.wendys.com/united-states/ca/van-nuys/17684-sherman-way,"Mo-Su 06:30-10:30,07:00-22:00",Wendy's,Q550258
647a2f4516a0207b6a8adb5b733b55a2,western_union,7-ELEVEN #19356,,Van Nuys,CA,,US,+1 818-600-8942,https://location.westernunion.com/us/ca/van-nuys/647a2f4516a0207b6a8adb5b733b55a2,,Western Union,Q861042
9ab935280b40593819850a3b5c4f0415,western_union,BALBOA MINI MARKET INC,,Van Nuys,CA,,US,+1 818-262-2033,https://location.westernunion.com/us/ca/van-nuys/9ab935280b40593819850a3b5c4f0415,Mo-Sa 08:00-23:00; Su 12:00-20:00,Western Union,Q861042
73ee6fc284eae75c3fbe33d205cacf3b,western_union,BALBOA MINI MARKET INC,,Van Nuys,CA,,US,+1 818-262-2033,https://location.westernunion.com/us/ca/van-nuys/73ee6fc284eae75c3fbe33d205cacf3b,Mo-Sa 08:00-23:00; Su 12:00-20:00,Western Union,Q861042
5b033f72aa1822e5eed6aaef157b5451,western_union,7-ELEVEN #19102,,Van Nuys,CA,,US,+1 818-786-9709,https://location.westernunion.com/us/ca/van-nuys/5b033f72aa1822e5eed6aaef157b5451,,Western Union,Q861042
4885738c42374d54fd20bc541efce45e,western_union,7-ELEVEN #26660,,Van Nuys,CA,,US,+1 818-780-7856,https://location.westernunion.com/us/ca/van-nuys/4885738c42374d54fd20bc541efce45e,,Western Union,Q861042
33a7fe1d6dc9c78a77543bef4ce3c492,western_union,PLS CHECK CASHERS CC461,,Van Nuys,CA,,US,+1 747-267-1177,https://location.westernunion.com/us/ca/van-nuys/33a7fe1d6dc9c78a77543bef4ce3c492,,Western Union,Q861042
710d8caf9283f9a2417c7183b22d6f16,western_union,LA SONRISA,,Van Nuys,CA,,US,+1 818-997-8498,https://location.westernunion.com/us/ca/van-nuys/710d8caf9283f9a2417c7183b22d6f16,Mo-Fr 09:00-20:00; Sa 10:00-19:00; Su 10:00-15:00,Western Union,Q861042
