Ref,Spider,Name,Address,City,State,Zipcode,Country,Phone,Website,Hours,Brand,WikiData
,visa,,,HUEHUETOCA,ESTADO DE MEXICO,,MX,,,,,
,visa,,,HUEHUETOCA,ESTADO DE MEXICO,,MX,,,,,
,visa,,,TEPOTZOTLAN,ESTADO DE MEXICO,,MX,,,,,
,visa,,,TEPOTZOTLAN,ESTADO DE MEXICO,,MX,,,,,
,visa,,,TEPOTZOTLAN,ESTADO DE MEXICO,,MX,,,,,
,visa,,,TEPOTZOTLAN,ESTADO DE MEXICO,,MX,,,,,
,visa,,,TEPOTZOTLAN,ESTADO DE MEXICO,,MX,,,,,
,visa,,,TEPOTZOTLAN,ESTADO DE MEXICO,,MX,,,,,
,visa,,,TEPOTZOTLAN,ESTADO DE MEXICO,,MX,,,,,
,visa,,,TEPOTZOTLAN,ESTADO DE MEXICO,,MX,,,,,
,visa,,,TEPOTZOTLAN,ESTADO DE MEXICO,,MX,,,,,
,visa,,,TEPOTZOTLAN,ESTADO DE MEXICO,,MX,,,,,
,visa,,,TEPOTZOTLAN,ESTADO DE MEXICO,,MX,,,,,
,visa,,,TEPOTZOTLAN,ESTADO DE MEXICO,,MX,,,,,
5e8699b0317e8a4bc22b3c82c7ca605e,western_union,TELECOMM 15048,,Tepotzotlan,ESTADO DE MEXICO,,MX,+52 800 800 8930,https://location.westernunion.com/mx/estado-de-mexico/tepotzotlan/5e8699b0317e8a4bc22b3c82c7ca605e,Mo-Su 09:00-20:00,Western Union,Q861042
815bb3cbcf16d0e9ca289932c34d5cdc,western_union,TELECOMM 15048,,Tepotzotlan,ESTADO DE MEXICO,,MX,+52 800 800 9889,https://location.westernunion.com/mx/estado-de-mexico/tepotzotlan/815bb3cbcf16d0e9ca289932c34d5cdc,Mo-Fr 09:00-15:00; Sa 09:00-12:00,Western Union,Q861042
a484be53a08a2bd40047b8599f32c44b,western_union,TELECOMM 15048,,Tepotzotlan,ESTADO DE MEXICO,,MX,+52 800 800 8930,https://location.westernunion.com/mx/estado-de-mexico/tepotzotlan/a484be53a08a2bd40047b8599f32c44b,Mo-Fr 09:00-15:00,Western Union,Q861042
8de6e5ab9ab964f50245e510ee3e9b2d,western_union,OXXO Tepo Centro MEX,,Tepotzotlan,ESTADO DE MEXICO,,MX,+52 81 8389 2121,https://location.westernunion.com/mx/estado-de-mexico/tepotzotlan/8de6e5ab9ab964f50245e510ee3e9b2d,Mo-Su 08:00-22:00,Western Union,Q861042
7b75f1ebadee84cf7ca4dd790fe5b7a0,western_union,OXXO TEPO CENTRO MEX,,Tepotzotlan,ESTADO DE MEXICO,,MX,+52 81 8389 2121,https://location.westernunion.com/mx/estado-de-mexico/tepotzotlan/7b75f1ebadee84cf7ca4dd790fe5b7a0,Mo-Su 08:00-22:00,Western Union,Q861042
a7a06592279e03867b0e796d28920558,western_union,OXXO TEPO CENTRO MEX,,Tepotzotlan,ESTADO DE MEXICO,,MX,+52 81 8389 2121,https://location.westernunion.com/mx/estado-de-mexico/tepotzotlan/a7a06592279e03867b0e796d28920558,Mo-Su 08:00-22:00,Western Union,Q861042
926fa3e98e760392f1cc9624e73890b3,western_union,OXXO Casa Grande MEX,,Tepotzotlan,ESTADO DE MEXICO,,MX,+52 81 8389 2121,https://location.westernunion.com/mx/estado-de-mexico/tepotzotlan/926fa3e98e760392f1cc9624e73890b3,Mo-Su 08:00-22:00,Western Union,Q861042
9131a37c861bac43c59e57ae66b824a6,western_union,OXXO CASA GRANDE MEX,,Tepotzotlan,ESTADO DE MEXICO,,MX,+52 81 8389 2121,https://location.westernunion.com/mx/estado-de-mexico/tepotzotlan/9131a37c861bac43c59e57ae66b824a6,Mo-Su 08:00-22:00,Western Union,Q861042
d152491627868b0b2af4202e8b62f2bf,western_union,OXXO CASA GRANDE MEX,,Tepotzotlan,ESTADO DE MEXICO,,MX,+52 81 8389 2121,https://location.westernunion.com/mx/estado-de-mexico/tepotzotlan/d152491627868b0b2af4202e8b62f2bf,Mo-Su 08:00-22:00,Western Union,Q861042
9d5a4db71ba608548220a5d33f8ea7d6,western_union,OXXO XOLOC MEX,,Tepotzotlan,ESTADO DE MEXICO,,MX,+52 81 8389 2121,https://location.westernunion.com/mx/estado-de-mexico/tepotzotlan/9d5a4db71ba608548220a5d33f8ea7d6,Mo-Su 08:00-22:00,Western Union,Q861042
dc6eacfd1dea8c0d62789b166ac01a86,western_union,OXXO XOLOC MEX,,Tepotzotlan,ESTADO DE MEXICO,,MX,+52 81 8389 2121,https://location.westernunion.com/mx/estado-de-mexico/tepotzotlan/dc6eacfd1dea8c0d62789b166ac01a86,Mo-Su 08:00-22:00,Western Union,Q861042
b6dfe4399bb313ddf0dd68f4065afad9,western_union,OXXO XOLOC MEX,,Tepotzotlan,ESTADO DE MEXICO,,MX,+52 81 8389 2121,https://location.westernunion.com/mx/estado-de-mexico/tepotzotlan/b6dfe4399bb313ddf0dd68f4065afad9,Mo-Su 08:00-22:00,Western Union,Q861042
