Ref,Spider,Name,Address,City,State,Zipcode,Country,Phone,Website,Hours,Brand,WikiData
https://stores.advanceautoparts.com/tn/livingston/1149-w-main-st,advance_auto_parts_us,Advance Auto Parts,,Livingston,TN,,US,+1 931-823-0711,https://stores.advanceautoparts.com/tn/livingston/1149-w-main-st,Mo-Sa 07:30-21:00; Su 08:00-21:00,Advance Auto Parts,Q4686051
https://locations.arbys.com/tn/livingston/1198-w-main-st.html,arbys_us,"Arby's Fast-Food Drive Through Near You in Livingston, TN",,Livingston,TN,,US,+1 931-823-6161,https://locations.arbys.com/tn/livingston/1198-w-main-st.html,Mo-Su 09:30-23:00,Arby's,Q630866
25294,bluerhino,Food Lion #1381,,Livingston,TN,,US,+1 931-823-8990,,,Blue Rhino,Q65681213
182775,bluerhino,Jerry's IGA #5605,,Livingston,TN,,US,+1 931-823-6439,,,Blue Rhino,Q65681213
153490,bluerhino,Walgreens #12016,,Livingston,TN,,US,+1 931-823-0366,,,Blue Rhino,Q65681213
219626,bluerhino,Potters Ace Hardware #18408,,Livingston,TN,,US,+1 931-823-6471,,,Blue Rhino,Q65681213
17419,chevrolet,CASEY'S FRONTIER CHEVROLET OF LIVINGSTON,,Livingston,TN,,US,+1 931-823-1255,https://www.caseyschevy.com,Mo-Fr 09:00-19:00; Sa 09:00-17:00,Chevrolet,Q29570
34501,citi,ATM AMERICAN BANK & T,,Livingston,TN,,US,,,,Citibank,Q857063
93022,citi,ATM Walgreens,,Livingston,TN,,US,,,,Citibank,Q857063
6176,dominos_pizza_us,Domino's Pizza,,Livingston,TN,,US,+1 931-823-7777,https://pizza.dominos.com/tennessee/livingston/1539-w-main-st,Mo-Th 10:30-24:00; Fr-Sa 10:30-01:00; Su 10:30-24:00,Domino's,Q839466
20472,family_dollar_us,FAMILY DOLLAR #472,,Livingston,TN,,US,+1 931-650-6307,https://www.familydollar.com/locations/tn/livingston/20472/,Mo-Su 09:00-21:00,Family Dollar,Q5433101
https://local.fedex.com/#25206570,fedex,,,Livingston,TN,,US,+1 800-463-3339,https://local.fedex.com/en-us/tn/livingston/azffu,,FedEx,Q459477
1501813,hardees_us,Hardee's,,Livingston,TN,,US,+1 865-326-6555,https://locations.hardees.com/tn/livingston/901-w-main-st,,Hardee's,Q1585088
40398,h_r_block,H&R Block,,Livingston,TN,,US,+1 931-823-5873,https://www.hrblock.com/local-tax-offices/tennessee/livingston/708-n-church/40398/,,H&R Block,Q5627799
Jerry's IGA,iga,Jerry's IGA,"800 Overton Place, Livingston, TN, 38570",Livingston,TN,,US,+1 931-433-6772,http://www.jerrys-iga.com,,IGA,Q3146662
https://locations.kfc.com/#11247672,kfc,Chicken Nuggets Near Livingston,,Livingston,TN,,US,,https://locations.kfc.com/tn/livingston/1349-west-main-street/chickennugget,Mo-Th 10:00-21:00; Fr-Sa 10:00-21:30; Su 10:00-21:00,KFC,Q524757
157912,marathon_petroleum_us,4 WAY MARKET,,LIVINGSTON,TN,,US,+1 931-823-5578,,,Marathon,Q458363
https://locations.oreillyauto.com/tn/livingston/check-engine-light-testing-920.html,oreilly,Your Livingston O'Reilly Auto Parts Store,,Livingston,TN,,US,+1 931-823-5521,https://locations.oreillyauto.com/tn/livingston/check-engine-light-testing-920.html,Mo-Sa 07:30-21:00; Su 09:00-19:30,O'Reilly Auto Parts,Q7071951
https://locations.oreillyauto.com/tn/livingston/wiper-installation-920.html,oreilly,Your Livingston O'Reilly Auto Parts Store,,Livingston,TN,,US,+1 931-823-5521,https://locations.oreillyauto.com/tn/livingston/wiper-installation-920.html,Mo-Sa 07:30-21:00; Su 09:00-19:30,O'Reilly Auto Parts,Q7071951
https://locations.oreillyauto.com/tn/livingston/battery-testing-920.html,oreilly,Your Livingston O'Reilly Auto Parts Store,,Livingston,TN,,US,+1 931-823-5521,https://locations.oreillyauto.com/tn/livingston/battery-testing-920.html,Mo-Sa 07:30-21:00; Su 09:00-19:30,O'Reilly Auto Parts,Q7071951
https://locations.oreillyauto.com/tn/livingston/autopartes-920.html,oreilly,Tu tienda O'Reilly Auto Parts en Livingston,,Livingston,TN,,US,+1 931-823-5521,https://locations.oreillyauto.com/tn/livingston/autopartes-920.html,Mo-Sa 07:30-21:00; Su 09:00-19:30,O'Reilly Auto Parts,Q7071951
tn_livingston_1201-w-main-st,pizza_hut_us,1201 W Main St,,Livingston,TN,,US,+1 931-823-5367,https://locations.pizzahut.com/tn/livingston/1201-w-main-st,,Pizza Hut,Q191615
building-center-inc-27916,ppgpaints,BUILDING CENTER INC,,"Livingston, ",TN,,US,+1 931-823-5621,https://www.ppgpaints.com/store-locator/us/tennessee/livingston-paint-stores/building-center-inc-27916,,PPG Paints,Q83891559
https://restaurants.subway.com/#14916611,subway,Subway Raceway of Livingston,,Livingston Overton,TN,,US,+1 931-977-4270,https://restaurants.subway.com/united-states/tn/livingston/807-west-main-st,Mo-Su 08:00-21:00,Subway,Q244457
https://locations.tacobell.com/#3916756,taco_bell,Taco Bell,,Livingston,TN,,US,+1 423-405-4660,https://locations.tacobell.com/tn/livingston/1475-w-main-st.html,Mo-Sa 07:00-02:00; Su 08:00-02:00,Taco Bell,Q752941
1370700,usps,LIVINGSTON,,LIVINGSTON,TN,,US,+1 931-823-2622,,Mo-Tu 08:30-17:00; We 08:30-12:00; Th-Fr 08:30-17:00; Sa 08:30-12:00,United States Postal Service,Q668687
3857000012,usps_collection_boxes,USPS COLLECTION BOX - BLUE BOX,1010 JOHN T POINDEXTER DR,LIVINGSTON,TN,,US,,,,United States Postal Service,Q668687
3857000004,usps_collection_boxes,USPS COLLECTION BOX - BLUE BOX,115 S SPRING ST,LIVINGSTON,TN,,US,,,,United States Postal Service,Q668687
3857000005,usps_collection_boxes,USPS COLLECTION BOX - BLUE BOX,115 S SPRING ST,LIVINGSTON,TN,,US,,,,United States Postal Service,Q668687
3857000006,usps_collection_boxes,USPS COLLECTION BOX - BLUE BOX,115 S SPRING ST,LIVINGSTON,TN,,US,,,,United States Postal Service,Q668687
3857000001,usps_collection_boxes,USPS COLLECTION BOX - PO LOBBY,105 S COURT SQ,LIVINGSTON,TN,,US,,,,United States Postal Service,Q668687
3857000002,usps_collection_boxes,USPS COLLECTION BOX - PO LOBBY,105 S COURT SQ,LIVINGSTON,TN,,US,,,,United States Postal Service,Q668687
3857000003,usps_collection_boxes,USPS COLLECTION BOX - PO LOBBY,105 S COURT SQ,LIVINGSTON,TN,,US,,,,United States Postal Service,Q668687
3857000013,usps_collection_boxes,USPS COLLECTION BOX - PO LOBBY,105 S COURT SQ,LIVINGSTON,TN,,US,,,,United States Postal Service,Q668687
https://vcahospitals.com/ragland-and-riley,vca,VCA Ragland &amp; Riley Animal Hospital,,Livingston,TN,,US,+1 931-498-3153,https://vcahospitals.com/ragland-and-riley,Mo-Fr 08:00-18:00; Sa 08:00-24:00,VCA,Q7906620
A00000252147,verizon_us,Russell Cellular Livingston,,LIVINGSTON,TN,,US,+1 931-823-8899,https://www.verizon.com/stores/details/tennessee/livingston/russell-cellular-livingston-1527922/,Mo-Sa 09:00-19:00; Su 11:00-17:00,Verizon,Q919641
,visa,,,LIVINGSTON,TN,,US,,,,,
,visa,,,LIVINGTON,TN,,US,,,,,
,visa,,,LIVINGSTON,TN,,US,,,,,
,visa,,,LIVINGSTON,TN,,US,,,,,
,visa,,,LIVINGSTON,TN,,US,,,,,
,visa,,,LIVINGSTON,TN,,US,,,,,
,visa,,,LIVINGSTON,TN,,US,,,,,
,visa,,,LIVINGSTON,TN,,US,,,,,
,visa,,,LIVINGSTON,TN,,US,,,,,
,visa,,,LIVINGSTON,TN,,US,,,,,
,visa,,,LIVINGSTON,TN,,US,,,,,
,visa,,,LIVINGSTON,TN,,US,,,,,
,visa,,,LIVINGSTON,TN,,US,,,,,
,visa,,,LIVINGSTON,TN,,US,,,,,
,visa,,,LIVINGSTON,TN,,US,,,,,
https://www.walgreens.com/locator/walgreens-805+w+main+st-livingston-tn-38570/id=12016,walgreens,Walgreens,,Livingston,TN,,US,+1 931-823-0366,https://www.walgreens.com/locator/walgreens-805+w+main+st-livingston-tn-38570/id=12016,Mo-Sa 08:00-22:00; Su 09:00-21:00,Walgreens,Q1591889
7bc916bdb6cdb7b02bfba31fca031ab3,western_union,FOOD LION #1381,,Livingston,TN,,US,+1 931-823-8990,https://location.westernunion.com/us/tn/livingston/7bc916bdb6cdb7b02bfba31fca031ab3,Mo-Su 06:00-22:00,Western Union,Q861042
842,world_finance_us,,"1061 W Main St, Livingston, TN, 38570",Livingston,TN,,US,+1 931-400-2477,https://www.loansbyworld.com/branches/branch-842,Mo-Fr 09:00-17:30; Sa 09:00-12:00,World Finance,Q3569971
