Ref,Spider,Name,Address,City,State,Zipcode,Country,Phone,Website,Hours,Brand,WikiData
https://stores.aldi.us/#4420208,aldi_sud_us,ALDI  1381 S. Reed Road,,Kokomo,IN,,US,+1 855-444-7007,https://stores.aldi.us/in/kokomo/1381-s-reed-road,Mo-Su 09:00-20:00,ALDI,Q41171672
https://storelocations.ae.com/#1726035,american_eagle_outfitters,American Eagle Store Markland Mall,,Kokomo,IN,,US,+1 765-236-1974,https://storelocations.ae.com/us/in/kokomo/1223-s-reed-road.html,Mo-Sa 10:00-20:00; Su 12:00-18:00,American Eagle Store,Q2842931
1495,anytime_fitness,Anytime Fitness,,Kokomo,IN,,US,+1 765-319-0306,https://www.anytimefitness.com/gyms/1495/kokomo-in-46902/,,Anytime Fitness,Q4778364
https://restaurants.applebees.com/en-us/in/kokomo/3720-south-reed-road-90008,applebees,Connect with this Applebee's,,Kokomo,IN,,US,+1 765-455-2090,https://restaurants.applebees.com/en-us/in/kokomo/3720-south-reed-road-90008,Mo-Su 11:00-24:00,Applebees,Q621532
https://stores.ashleyfurniture.com/store/us/indiana/kokomo/7710000168/,ashley_furniture,"Ashley Store Kokomo, IN",,Kokomo,IN,,US,+1 765-450-5115,https://stores.ashleyfurniture.com/store/us/indiana/kokomo/7710000168/,,Ashley Furniture,Q4805437
78053,asics_us,Dunham's Sports,1156 S Seventeenth St,Kokomo,IN,,US,+1 765-453-0071,,,asics,Q327247
22763,asics_us,Finish Line,S 17th St,Kokomo,IN,,US,+1 765-452-7666,,,asics,Q327247
https://locations.atipt.com/kokomo,ati_physical_therapy,ATI Physical Therapy Kokomo 281,,Kokomo,IN,,US,+1 765-626-0299,https://locations.atipt.com/kokomo,,ATI Physical Therapy,Q50039703
83757,att_us,KOKOMO STORE,,Kokomo,IN,,US,+1 765-868-7383,https://www.att.com/stores/indiana/kokomo/83757,Mo-Fr 09:00-20:00; Sa 10:00-19:00; Su 10:00-17:00,AT&T,Q298594
4449,autozone_us,AutoZone Auto Parts Kokomo,,Kokomo,IN,,US,+1 765-416-0851,https://www.autozone.com/locations/in/kokomo/3253-s-lafountain-st.html,Mo-Th 07:30-20:00; Fr-Sa 07:30-21:00; Su 08:30-20:00,AutoZone,Q4826087
BBW00973,bathandbodyworks_us,MARKLAND MALL,,KOKOMO,IN,,US,+1 765-457-0470,,Mo-Sa 10:00-20:00; Su 12:00-18:00,Bath & Body Works,Q810773
https://stores.bestbuy.com/in/kokomo/1403-s-reed-rd-371.html,bestbuy,Best Buy Kokomo,,Kokomo,IN,,US,+1 765-452-7422,https://stores.bestbuy.com/in/kokomo/1403-s-reed-rd-371.html,,Best Buy,Q533415
26840,bluerhino,Speedway #5163,,Kokomo,IN,,US,+1 765-455-1561,,,Blue Rhino,Q65681213
26837,bluerhino,Speedway #1213,,Kokomo,IN,,US,+1 765-453-0677,,,Blue Rhino,Q65681213
1587,bluerhino,Lowe's #357,,Kokomo,IN,,US,+1 765-453-1000,,,Blue Rhino,Q65681213
203218,bluerhino,CASEY'S GENERAL STORE #2273,,KOKOMO,IN,,US,+1 765-457-8207,,,Blue Rhino,Q65681213
203226,bluerhino,CASEY'S GENERAL STORE #2339,,KOKOMO,IN,,US,+1 765-864-1760,,,Blue Rhino,Q65681213
152688,bluerhino,Walgreens #6944,,Kokomo,IN,,US,+1 765-455-2191,,,Blue Rhino,Q65681213
74946,bluerhino,Rural King Supply #24,,Kokomo,IN,,US,+1 765-864-0043,,,Blue Rhino,Q65681213
10511,bluerhino,Kroger #071 - Central,,Kokomo,IN,,US,+1 765-453-7556,,,Blue Rhino,Q65681213
143868,bluerhino,Kroger #071 - Central - Fuel Site,,Kokomo,IN,,US,(766)-453-7556,,,Blue Rhino,Q65681213
204909,bluerhino,Qwik Stop,,Kokomo,IN,,US,+1 765-452-4961,,,Blue Rhino,Q65681213
204913,bluerhino,Qwik Stop,,Kokomo,IN,,US,+1 317-677-4355,,,Blue Rhino,Q65681213
199428,bluerhino,Krishi Enterprise #5307,,Kokomo,IN,,US,+1 765-865-8226,,,Blue Rhino,Q65681213
26839,bluerhino,Speedway #5162,,Kokomo,IN,,US,+1 765-452-7368,,,Blue Rhino,Q65681213
204911,bluerhino,Buddy's Mart,,Kokomo,IN,,US,+1 317-677-4355,,,Blue Rhino,Q65681213
47126312021254690200100000000000,bp,BP,,Kokomo,IN,,US,+1 765-450-5516,,24/7,BP,Q152057
12532613570264690200100000000000,bp,BP,,Kokomo,IN,,US,1111111111,,24/7,BP,Q152057
https://local.buckle.com/in/kokomo/clothing-505.html,buckle_us,Kokomo Men’s & Women’s Clothing,,Kokomo,IN,,US,+1 765-868-1101,https://local.buckle.com/in/kokomo/clothing-505.html,Mo 10:00-18:00; Tu-Sa 10:00-20:00; Su 12:00-18:00,Buckle,Q4983306
1361,burlington_us,Burlington,,Kokomo,IN,,US,+1 765-513-3038,https://stores.burlington.com/in/kokomo/1361,Mo-Th 09:00-22:00; Fr-Sa 09:00-23:00; Su 09:00-22:00,Burlington,Q4999220
//locations.carters.com/in/kokomo/carters-kokomo-in,carters_us,Carter's Kokomo,,Kokomo,IN,,US,+1 765-457-4145,https://locations.carters.com/in/kokomo/carters-kokomo-in,Mo-Th 10:00-19:00; Fr-Sa 10:00-20:00; Su 12:00-18:00,Carter's,Q5047083
25162,chevrolet,"ERIKS CHEVROLET, INC.",,Kokomo,IN,,US,+1 765-457-8333,https://www.erikschevrolet.com,Mo-Fr 08:00-18:00; Sa 09:00-16:00,Chevrolet,Q29570
001.005.1771,chilis,Kokomo,,Kokomo,IN,,US,+1 765-457-1485,https://www.chilis.com/locations/us/indiana/kokomo/kokomo/,Mo-Th 11:00-22:00; Fr-Sa 11:00-23:00; Su 11:00-22:00,Chili's,Q1072948
in_kokomo_1201-s-reed-rd,chipotle, ,,Kokomo,IN,,US,+1 765-626-0500,https://locations.chipotle.com/in/kokomo/1201-s-reed-rd,,Chipotle,Q465751
https://locations.chuckecheese.com/us/in/kokomo/1919-south-reed-rd.,chuckecheese,Chuck E. Cheese,,Kokomo,IN,,US,+1 765-457-1930,https://locations.chuckecheese.com/us/in/kokomo/1919-south-reed-rd.,Mo-Fr 11:00-21:00; Sa 10:00-22:00; Su 11:00-21:00,Chuck E. Cheese,Q2438391
81362,citi,ATM Target,,Kokomo,IN,,US,,,,Citibank,Q857063
61259,citi,ATM Kroger,,Kokomo,IN,,US,,,,Citibank,Q857063
77557,citi,ATM Speedway,,Kokomo,IN,,US,,,,Citibank,Q857063
90514,citi,ATM Walgreens,,Kokomo,IN,,US,,,,Citibank,Q857063
77807,citi,ATM Speedway,,Kokomo,IN,,US,,,,Citibank,Q857063
50854,citi,ATM CVS,,Kokomo,IN,,US,,,,Citibank,Q857063
kokomo/5130,claires,Shop Ear Piercings & Jewelry at Markland Mall,,KOKOMO,IN,,US,+1 765-459-5992,https://stores.claires.com/us/in/kokomo/5130.html,Mo-Sa 10:00-20:00; Su 12:00-18:00,Claire's,Q2974996
,credit_union_us,Financial Center First CU,,Kokomo,IN,,US,+1 317-916-7700,,Mo 09:00-05:00; Tu 10:00-05:00; We-Th 09:00-05:00; Fr 09:00-06:00; Sa 10:00-01:00,,
,credit_union_us,Solidarity Community FCU,,Kokomo,IN,,US,+1 765-453-4020,,Mo-Fr 09:00-05:00,,
352,culvers_us,"Culver's of Kokomo, IN - Pipeline Way",,Kokomo,IN,,US,+1 765-455-1099,http://www.culvers.com/restaurants/kokomo,Mo-Fr 10:00-23:00; Su 10:00-23:00,Culver's,Q1143589
16029,cvs_us,CVS Pharmacy,,Kokomo,IN,,US,+1 765-868-9151,https://www.cvs.com/store-locator/kokomo-in-pharmacies/1037-s-reed-rd-kokomo-in-46902/storeid=16029,"Mo-Fr 10:00-13:30,14:00-18:00",CVS Pharmacy,Q2078880
6542,cvs_us,CVS Pharmacy,,Kokomo,IN,,US,+1 765-453-3979,https://www.cvs.com/store-locator/kokomo-in-pharmacies/4026-s-00-ew-kokomo-in-46902/storeid=6542,Mo-Th 08:00-22:00; Fr-Sa 08:00-23:00; Su 08:00-22:00,CVS Pharmacy,Q2078880
2631,dominos_pizza_us,Domino's Pizza,,Kokomo,IN,,US,+1 765-456-3891,https://pizza.dominos.com/indiana/kokomo/2304-w-sycamore-st,Mo-Th 10:30-24:00; Fr-Sa 10:30-01:00; Su 10:30-24:00,Domino's,Q839466
2630,dominos_pizza_us,Domino's Pizza,,Kokomo,IN,,US,+1 765-453-9111,https://pizza.dominos.com/indiana/kokomo/2816-s-washington-st,Mo-Th 10:30-24:00; Fr-Sa 10:30-01:00; Su 10:30-24:00,Domino's,Q839466
096,dunhams_sports_us,KOKOMO IN,,KOKOMO,IN,,US,+1 765-453-0071,https://www.dunhamssports.com/store-details?storeID=096,Mo-Sa 09:00-21:00; Su 10:00-19:00,Dunham's Sports,Q5315238
https://www.edwardjones.com/us-en/financial-advisor/steve-rector,edwardjones,Steve Rector,,Kokomo,IN,,US,+1 765-450-5301,https://www.edwardjones.com/us-en/financial-advisor/steve-rector,Mo-Th 08:30-16:30; Fr 08:30-16:00,Edward Jones,Q5343830
E10810,enterprise,Kokomo,,Kokomo,IN,,US,+1 765-457-4980,,,Enterprise Rent-A-Car,Q17085454
200320035,exxonmobil,ONE STOP EXPRESS KOKOMO,,KOKOMO,IN,,US,+1 765-865-8269,https://www.exxon.com/en/find-station/mobil-kokomo-in-onestopexpresskokomo-200320035,24/7,Mobil,Q109676002
23501,family_dollar_us,FAMILY DOLLAR #3501,,Kokomo,IN,,US,+1 765-416-1183,https://www.familydollar.com/locations/in/kokomo/23501/,Mo-Su 08:00-22:00,Family Dollar,Q5433101
https://stores.finishline.com/in/kokomo/markland-mall.html,finishline,Finish Line,,Kokomo,IN,,US,+1 765-452-7666,https://stores.finishline.com/in/kokomo/markland-mall.html,Mo-Sa 11:00-19:00; Su 12:00-18:00,Finish Line,Q5450341
https://locations.fivebelow.com/in/kokomo/1423-s-reed-road,five_below,Five Below Markland Plaza,,Kokomo,IN,,US,,https://locations.fivebelow.com/in/kokomo/1423-s-reed-road,Mo-Sa 10:00-20:00; Su 11:00-18:00,Five Below,Q5455836
https://restaurants.fiveguys.com/#15553556,five_guys_us,Five Guys Kokomo,,Kokomo,IN,,US,+1 765-450-5201,https://restaurants.fiveguys.com/1620-east-blvd,"Mo-Su 11:00-21:30,11:00-22:00",Five Guys,Q1131810
https://stores.footlocker.com/in/kokomo/1206-s-17th-street-6958.html,footlocker,"Foot Locker in Markland Mall: Kokomo, Indiana | Approved | Own It",,Kokomo,IN,,US,+1 765-868-0079,https://stores.footlocker.com/in/kokomo/1206-s-17th-street-6958.html,Mo-Sa 10:00-20:00; Su 12:00-18:00,Foot Locker,Q63335
Motorcraft3181USAEnglish,ford,Kokomo Auto World Inc,,Indiana,IN,,US,+1 765-453-4111,,,Ford,Q44294
https://www.ford.com/dealerships/dealer-details/in/kokomo/brad-howell-inc/,ford_dealers_us,"Brad Howell, Inc.",,Kokomo,IN,,US,+1 765-507-6102,https://www.ford.com/dealerships/dealer-details/in/kokomo/brad-howell-inc/,Mo-Fr 08:00-18:00; Sa 08:00-15:00,Ford Motor Company,Q44294
4347,fresenius_kidney_care_us,Fresenius Kidney Care Kokomo,,Kokomo,IN,,US,+1 800-881-5101,https://www.freseniuskidneycare.com/dialysis-centers/indiana/4347,Mo-Sa 04:30-18:30,,
4465,gamestop_us,Markland Mall,,KOKOMO,IN,,US,+1 765-457-5235,https://www.gamestop.com/search/?store=4465,Mo-Sa 10:00-20:00; Su 12:00-18:00,GameStop,Q202210
https://stores.gnc.com/#24058319,gnc,GNC Markland Mall,,,IN,,US,+1 765-459-8059,https://stores.gnc.com/all-stores-indiana/kokomo/1108-s-17th-st,Mo-Sa 10:00-20:00; Su 12:00-18:00,GNC,Q4808595
https://salons.greatclips.com/us/in/kokomo/3708-s-reed-rd,greatclips,Great Clips,,Kokomo,IN,,US,+1 765-864-0183,https://salons.greatclips.com/us/in/kokomo/3708-s-reed-rd,Mo-Fr 08:00-20:00; Sa 08:00-19:00; Su 10:00-18:00,Great Clips,Q5598967
https://www.harborfreight.com/storelocator/2943-s-washington-street-3-kokomo-46902?number=234,harborfreight,"Harbor Freight Tools Kokomo, IN",,Kokomo,IN,,US,+1 765-864-8350,https://www.harborfreight.com/storelocator/2943-s-washington-street-3-kokomo-46902?number=234,Mo-Sa 08:00-20:00; Su 09:00-18:00,Harbor Freight Tools,Q5654601
14628,h_r_block,H&R Block,,Kokomo,IN,,US,+1 765-455-0733,https://www.hrblock.com/local-tax-offices/indiana/kokomo/maplecrest-plaza/14628/,,H&R Block,Q5627799
in_kokomo_breakfast-50-west-county-rd-300-south-3118,ihop,"IHOP Breakfast Restaurants Near You at 50 West County Rd, 300 South",,Kokomo,IN,,US,+1 765-453-5955,https://restaurants.ihop.com/en-us/in/kokomo/breakfast-50-west-county-rd-300-south-3118,,IHOP,Q1185675
https://locations.jimmyjohns.com/in/kokomo/sandwiches-1692.html,jimmy_johns,Jimmy John's,,Kokomo,IN,,US,+1 765-455-8800,https://locations.jimmyjohns.com/in/kokomo/sandwiches-1692.html,,Jimmy John's,Q1689380
https://locations.kfc.com/#11247989,kfc,Chicken Nuggets Near Kokomo,,Kokomo,IN,,US,,https://locations.kfc.com/in/kokomo/1523-south-reed-rd/chickennugget,Mo-Su 10:30-22:00,KFC,Q524757
301425,kindercare,MicroChips Early Learning Center,,Kokomo,IN,,US,,https://www.kindercare.com/our-centers/kokomo/in/301425,,KinderCare Learning Centers,Q6410551
690,kohls_us,Kohl's,,Kokomo,IN,,US,+1 765-854-0420,https://www.kohls.com/stores/in/kokomo-690.shtml,Mo-Sa 09:00-21:00; Su 09:00-20:00,Kohl's,Q967265
155980,marathon_petroleum_us,MARATHON FOOD MART,,KOKOMO,IN,,US,+1 765-450-8426,,,Marathon,Q458363
160845,marathon_petroleum_us,DIXON PANTRY,,KOKOMO,IN,,US,+1 765-455-0025,,,Marathon,Q458363
158293,marathon_petroleum_us,KOKOMO FOODMART,,Kokomo,IN,,US,+1 765-242-9696,,,Marathon,Q458363
157273,marathon_petroleum_us,BUDDYS MART,,KOKOMO,IN,,US,+1 765-455-2187,,,Marathon,Q458363
285804,marathon_petroleum_us,Kokomo Petroleum Inc,,Kokomo,IN,,US,+1 765-398-3700,,,Arco,Q304769
161160,marathon_petroleum_us,Village Pantry 5561,,KOKOMO,IN,,US,+1 765-457-7876,,,Marathon,Q458363
OKKCY,marriott,Courtyard Kokomo,,Kokomo,IN,,US,+1 765-453-0800,https://www.marriott.com/OKKCY,,Courtyard by Marriott,Q1053170
16965,mattress_firm_us,Mattress Firm Kokomo,,Kokomo,IN,,US,+1 765-626-0173,https://www.mattressfirm.com/en-us/stores/in/kokomo/021019/,,Mattress Firm,Q6791878
https://locations.maurices.com/#11688259,maurices,maurices Markland Mall,,Kokomo,IN,,US,+1 765-456-3348,https://locations.maurices.com/us/in/kokomo/1216-south-17th-street,Mo-Sa 10:00-20:00; Su 12:00-18:00,maurices,Q6793571
2020-south-reed-road,mcalisters_deli,McAlister's Deli Kokomo ,,Kokomo,IN,,US,+1 765-868-4700,https://locations.mcalistersdeli.com/in/kokomo/2020-south-reed-road,Mo-Su 10:30-21:00,McAlister's Deli,Q17020829
3624,mightyflame,DIXIE PANTRY,,KOKOMO,IN,,US,+1 765-621-0609,,,Mighty Flame,
https://locations.oreillyauto.com/in/kokomo/check-engine-light-testing-1997.html,oreilly,Your Kokomo O'Reilly Auto Parts Store,,Kokomo,IN,,US,+1 765-864-0548,https://locations.oreillyauto.com/in/kokomo/check-engine-light-testing-1997.html,Mo-Sa 07:00-22:00; Su 08:00-21:00,O'Reilly Auto Parts,Q7071951
https://locations.oreillyauto.com/in/kokomo/wiper-installation-1997.html,oreilly,Your Kokomo O'Reilly Auto Parts Store,,Kokomo,IN,,US,+1 765-864-0548,https://locations.oreillyauto.com/in/kokomo/wiper-installation-1997.html,Mo-Sa 07:00-22:00; Su 08:00-21:00,O'Reilly Auto Parts,Q7071951
https://locations.oreillyauto.com/in/kokomo/battery-testing-1997.html,oreilly,Your Kokomo O'Reilly Auto Parts Store,,Kokomo,IN,,US,+1 765-864-0548,https://locations.oreillyauto.com/in/kokomo/battery-testing-1997.html,Mo-Sa 07:00-22:00; Su 08:00-21:00,O'Reilly Auto Parts,Q7071951
https://locations.oreillyauto.com/in/kokomo/autopartes-1997.html,oreilly,Tu tienda O'Reilly Auto Parts en Kokomo,,Kokomo,IN,,US,+1 765-864-0548,https://locations.oreillyauto.com/in/kokomo/autopartes-1997.html,Mo-Sa 07:00-22:00; Su 08:00-21:00,O'Reilly Auto Parts,Q7071951
//locations.oshkosh.com/in/kokomo/oshkosh-kokomo-in,oshkosh_us,Oshkosh B'gosh Kokomo,,Kokomo,IN,,US,+1 765-457-4145,https://locations.oshkosh.com/in/kokomo/oshkosh-kokomo-in,Mo-Th 10:00-19:00; Fr-Sa 10:00-20:00; Su 12:00-18:00,OshKosh B'gosh,Q1417347
https://locations.outback.com/#15502530,outbacksteakhouse,Outback Steakhouse,,Kokomo,IN,,US,+1 765-453-6283,https://locations.outback.com/indiana/kokomo/3730-south-reed-road,Mo-Sa 11:00-22:00; Su 11:00-21:00,Outback Steakhouse,Q1064893
113187,pandaexpress,E Markland Ave & Reed Rd (Markland Mall),,Kokomo,IN,,US,+1 765-878-6291,https://www.pandaexpress.com/locations/in/kokomo/1227-s-reed-rd,Mo-Th 10:00-22:00; Fr-Sa 10:00-22:30; Su 10:00-22:00,Panda Express,Q1358690
5326,party_city,Markland Mall,,Kokomo,IN,,US,+1 765-252-1397,https://stores.partycity.com/us/in/kokomo/party-store-pc5326.html,,Party City,Q7140896
https://stores.petco.com/#27959299,petco,Petco Kokomo,,Kokomo,IN,,US,+1 765-457-4958,https://stores.petco.com/in/kokomo/pet-supplies-kokomo-in-1935.html,Mo-Sa 09:00-20:00; Su 10:00-19:00,Petco,Q7171798
in_kokomo_408-e-center-rd,pizza_hut_us,408 E Center Rd,,Kokomo,IN,,US,+1 765-453-1511,https://locations.pizzahut.com/in/kokomo/408-e-center-rd,,Pizza Hut,Q191615
kokomo-glass-shop-inc-28361,ppgpaints,KOKOMO GLASS SHOP INC,,"Kokomo, ",IN,,US,+1 765-459-8026,https://www.ppgpaints.com/store-locator/us/indiana/kokomo-paint-stores/kokomo-glass-shop-inc-28361,,PPG Paints,Q83891559
4248,rentacenter,Rent-A-Center,,Kokomo,IN,,US,+1 765-453-1408,https://locations.rentacenter.com/indiana/kokomo/2901-s-washington-st/,Mo-Sa 10:00-18:00,Rent-A-Center,Q7313497
1114-south-reed-road,rue21,Markland Mall,,Kokomo,IN,,US,,https://stores.rue21.com/in/kokomo/1114-south-reed-road.html,Mo-Sa 10:00-20:00; Su 12:00-18:00,rue21,Q7377762
63,shoe_carnival_us,Shoe Carnival,,Kokomo,IN,,US,+1 765-236-1078,https://stores.shoecarnival.com/in/kokomo/shoe-store-kokomo-in-63.html,Mo-Sa 10:00-21:00; Su 11:00-19:00,Shoe Carnival,Q7500007
7334145826366152024,sleep_number_us,Sleep Number,,Kokomo,IN,,US,,https://www.sleepnumber.com/stores/in/kokomo/1431-s-reed-rd,Mo-Th 10:00-19:00; Fr-Sa 10:00-20:00; Su 11:00-19:00,Sleep Number,Q7447640
145,steak_n_shake,Steak n Shake,,Kokomo,IN,,US,+1 765-453-9595,https://www.steaknshake.com/locations/in-kokomo-s-reed-road/,,Steak N Shake,Q7605233
https://restaurants.subway.com/#14898533,subway,Subway,,Kokomo Howard,IN,,US,+1 765-450-6236,https://restaurants.subway.com/united-states/in/kokomo/401-e-lincoln-road,Mo-Su 09:00-22:00,Subway,Q244457
https://restaurants.subway.com/#14916823,subway,Subway,,Kokomo Howard,IN,,US,+1 765-453-6708,https://restaurants.subway.com/united-states/in/kokomo/2181-katanna-drive,Mo-Su 09:00-22:00,Subway,Q244457
https://restaurants.subway.com/#14909162,subway,Subway,,Kokomo Howard,IN,,US,+1 765-457-7827,https://restaurants.subway.com/united-states/in/kokomo/1714-e-markland-ave,Mo-Su 09:00-22:00,Subway,Q244457
https://locations.tacobell.com/#6143889,taco_bell,Taco Bell,,Kokomo,IN,,US,+1 765-453-3559,https://locations.tacobell.com/in/kokomo/3801-s-reed-rd.html,,Taco Bell,Q752941
https://locations.tacobell.com/#6146537,taco_bell,Taco Bell,,Kokomo,IN,,US,+1 765-457-3647,https://locations.tacobell.com/in/kokomo/1310-north-reed-road.html,Mo-Tu 08:00-03:00; We 08:00-24:00; Th-Su 08:00-03:00,Taco Bell,Q752941
08600,tjx,Kokomo,2138 East Boulevard,Kokomo,IN,,US,+1 765-868-7422,,Mo-Sa 09:30-21:30; Su 10:00-20:00,TJ Maxx,Q10860683
4079,tmobile_us,E Blvd & S Reed Rd,,Kokomo,IN,,US,+1 765-553-5948,https://www.t-mobile.com/store-locator/in/kokomo/e-blvd-s-reed-rd,,T-Mobile,Q3511885
1436194,usps,KOKOMO,,KOKOMO,IN,,US,+1 765-455-8326,,,United States Postal Service,Q668687
1473596,usps,KOKOMO,,KOKOMO,IN,,US,+1 765-455-8338,,,United States Postal Service,Q668687
1578796,usps,KOKOMO IN S&DC,,KOKOMO,IN,,US,+1 765-455-8326,,Mo-Fr 07:30-19:00; Sa 08:30-14:00,United States Postal Service,Q668687
4690200076,usps_collection_boxes,USPS COLLECTION BOX - BLUE BOX,1816 W DEFENBAUGH ST,KOKOMO,IN,,US,,,,United States Postal Service,Q668687
4690200078,usps_collection_boxes,USPS COLLECTION BOX - BLUE BOX,1200 S MAIN ST,KOKOMO,IN,,US,,,,United States Postal Service,Q668687
4690200070,usps_collection_boxes,USPS COLLECTION BOX - BLUE BOX,101 W DEFENBAUGH ST,KOKOMO,IN,,US,,,,United States Postal Service,Q668687
4690200124,usps_collection_boxes,USPS COLLECTION BOX - BLUE BOX,2719 S WEBSTER ST,KOKOMO,IN,,US,,,,United States Postal Service,Q668687
4690200126,usps_collection_boxes,USPS COLLECTION BOX - PO LOBBY,2719 S WEBSTER ST,KOKOMO,IN,,US,,,,United States Postal Service,Q668687
4690200140,usps_collection_boxes,USPS COLLECTION BOX - APC,2719 S WEBSTER ST,KOKOMO,IN,,US,,,,United States Postal Service,Q668687
4690200147,usps_collection_boxes,USPS COLLECTION BOX - PO LOBBY,2719 S WEBSTER ST,KOKOMO,IN,,US,,,,United States Postal Service,Q668687
4690200065,usps_collection_boxes,USPS COLLECTION BOX - BLUE BOX,529 ELK DR,KOKOMO,IN,,US,,,,United States Postal Service,Q668687
4690200121,usps_collection_boxes,USPS COLLECTION BOX - BLUE BOX,3604 BRIARWICK DR,KOKOMO,IN,,US,,,,United States Postal Service,Q668687
4690200132,usps_collection_boxes,USPS COLLECTION BOX - BLUE BOX,1762 HOGAN DR,KOKOMO,IN,,US,,,,United States Postal Service,Q668687
4690200010,usps_collection_boxes,USPS COLLECTION BOX - BLUE BOX,536 SOUTHLEA DR,KOKOMO,IN,,US,,,,United States Postal Service,Q668687
4690200097,usps_collection_boxes,USPS COLLECTION BOX - BLUE BOX,2855 S WASHINGTON ST,KOKOMO,IN,,US,,,,United States Postal Service,Q668687
4690200144,usps_collection_boxes,USPS COLLECTION BOX - BLUE BOX,700 E FIRMIN ST,KOKOMO,IN,,US,,,,United States Postal Service,Q668687
4690200129,usps_collection_boxes,USPS COLLECTION BOX - BLUE BOX,555 SALEM DR,KOKOMO,IN,,US,,,,United States Postal Service,Q668687
4690200138,usps_collection_boxes,USPS COLLECTION BOX - BLUE BOX,800 E HOFFER ST,KOKOMO,IN,,US,,,,United States Postal Service,Q668687
4690200016,usps_collection_boxes,USPS COLLECTION BOX - BLUE BOX,5038 S WEBSTER ST,KOKOMO,IN,,US,,,,United States Postal Service,Q668687
4690200091,usps_collection_boxes,USPS COLLECTION BOX - BLUE BOX,200 E SOUTHWAY BLVD,KOKOMO,IN,,US,,,,United States Postal Service,Q668687
4690200096,usps_collection_boxes,USPS COLLECTION BOX - BLUE BOX,3500 S LAFOUNTAIN ST,KOKOMO,IN,,US,,,,United States Postal Service,Q668687
4690200021,usps_collection_boxes,USPS COLLECTION BOX - BLUE BOX,1139 S ELIZABETH ST,KOKOMO,IN,,US,,,,United States Postal Service,Q668687
4690200020,usps_collection_boxes,USPS COLLECTION BOX - BLUE BOX,1560 S PLATE ST,KOKOMO,IN,,US,,,,United States Postal Service,Q668687
4690200092,usps_collection_boxes,USPS COLLECTION BOX - BLUE BOX,3700 S REED RD,KOKOMO,IN,,US,,,,United States Postal Service,Q668687
4690200084,usps_collection_boxes,USPS COLLECTION BOX - BLUE BOX,1037 S REED RD,KOKOMO,IN,,US,,,,United States Postal Service,Q668687
4690200087,usps_collection_boxes,USPS COLLECTION BOX - BLUE BOX,1700 E BOULEVARD,KOKOMO,IN,,US,,,,United States Postal Service,Q668687
4690200002,usps_collection_boxes,USPS COLLECTION BOX - BLUE BOX,420 E CENTER RD,KOKOMO,IN,,US,,,,United States Postal Service,Q668687
4690200035,usps_collection_boxes,USPS COLLECTION BOX - BLUE BOX,1761 E LINCOLN RD,KOKOMO,IN,,US,,,,United States Postal Service,Q668687
4690200136,usps_collection_boxes,USPS COLLECTION BOX - BLUE BOX,2101 MARK LN,KOKOMO,IN,,US,,,,United States Postal Service,Q668687
4690200001,usps_collection_boxes,USPS COLLECTION BOX - BLUE BOX,3017 MATTHEW DR,KOKOMO,IN,,US,,,,United States Postal Service,Q668687
4690200057,usps_collection_boxes,USPS COLLECTION BOX - BLUE BOX,1901 S GOYER RD,KOKOMO,IN,,US,,,,United States Postal Service,Q668687
4690200013,usps_collection_boxes,USPS COLLECTION BOX - BLUE BOX,1930 S GOYER RD,KOKOMO,IN,,US,,,,United States Postal Service,Q668687
4690200017,usps_collection_boxes,USPS COLLECTION BOX - BLUE BOX,4411 S 00 EW,KOKOMO,IN,,US,,,,United States Postal Service,Q668687
4690200119,usps_collection_boxes,USPS COLLECTION BOX - BLUE BOX,2529 COMMERCE DR,KOKOMO,IN,,US,,,,United States Postal Service,Q668687
4690200012,usps_collection_boxes,USPS COLLECTION BOX - BLUE BOX,4508 E 200 S,KOKOMO,IN,,US,,,,United States Postal Service,Q668687
R00000001994,verizon_us,Kokomo,,Kokomo,IN,,US,+1 765-453-0972,https://www.verizon.com/stores/details/indiana/kokomo/kokomo-202720/,Mo-Sa 10:00-19:00; Su 10:00-17:00,Verizon,Q919641
,visa,,,KOKOMO,IN,,US,,,,,
,visa,,,KOKOMO,IN,,US,,,,,
,visa,,,KOKOMO,IN,,US,,,,,
,visa,,,KOKOMO,IN,,US,,,,,
,visa,,,KOKOMO,IN,,US,,,,,
,visa,,,KOKOMO,IN,,US,,,,,
,visa,,,KOKOMO,IN,,US,,,,,
,visa,,,KOKOMO,IN,,US,,,,,
,visa,,,KOKOMO,IN,,US,,,,,
,visa,,,KOKOMO,IN,,US,,,,,
,visa,,,KOKOMO,IN,,US,,,,,
,visa,,,KOKOMO,IN,,US,,,,,
,visa,,,KOKOMO,IN,,US,,,,,
,visa,,,KOKOMO,IN,,US,,,,,
,visa,,,KOKOMO,IN,,US,,,,,
,visa,,,KOKOMO,IN,,US,,,,,
,visa,,,KOKOMO,IN,,US,,,,,
,visa,,,KOKOMO,IN,,US,,,,,
,visa,,,KOKOMO,IN,,US,,,,,
,visa,,,KOKOMO,IN,,US,,,,,
,visa,,,KOKOMO,IN,,US,,,,,
,visa,,,KOKOMO,IN,,US,,,,,
,visa,,,KOKOMO,IN,,US,,,,,
,visa,,,KOKOMO,IN,,US,,,,,
,visa,,,KOKOMO,IN,,US,,,,,
,visa,,,KOKOMO,IN,,US,,,,,
,visa,,,KOKOMO,IN,,US,,,,,
,visa,,,KOKOMO,IN,,US,,,,,
,visa,,,KOKOMO,IN,,US,,,,,
,visa,,,KOKOMO,IN,,US,,,,,
,visa,,,KOKOMO,IN,,US,,,,,
,visa,,,KOKOMO,IN,,US,,,,,
,visa,,,KOKOMO,IN,,US,,,,,
,visa,,,KOKOMO,IN,,US,,,,,
,visa,,,KOKOMO,IN,,US,,,,,
,visa,,,KOKOMO,IN,,US,,,,,
,visa,,,KOKOMO,IN,,US,,,,,
,visa,,,KOKOMO,IN,,US,,,,,
,visa,,,KOKOMO,IN,,US,,,,,
,visa,,,KOKOMO,IN,,US,,,,,
,visa,,,KOKOMO,IN,,US,,,,,
,visa,,,KOKOMO,IN,,US,,,,,
,visa,,,KOKOMO,IN,,US,,,,,
,visa,,,KOKOMO,IN,,US,,,,,
,visa,,,KOKOMO,IN,,US,,,,,
,visa,,,KOKOMO,IN,,US,,,,,
,visa,,,KOKOMO,IN,,US,,,,,
,visa,,,KOKOMO,IN,,US,,,,,
,visa,,,KOKOMO,IN,,US,,,,,
,visa,,,KOKOMO,IN,,US,,,,,
,visa,,,KOKOMO,IN,,US,,,,,
,visa,,,KOKOMO,IN,,US,,,,,
,visa,,,KOKOMO,IN,,US,,,,,
,visa,,,KOKOMO,IN,,US,,,,,
,visa,,,KOKOMO,IN,,US,,,,,
,visa,,,KOKOMO,IN,,US,,,,,
,visa,,,KOKOMO,IN,,US,,,,,
,visa,,,KOKOMO,IN,,US,,,,,
,visa,,,KOKOMO,IN,,US,,,,,
,visa,,,KOKOMO,IN,,US,,,,,
,visa,,,KOKOMO,IN,,US,,,,,
,visa,,,KOKOMO,IN,,US,,,,,
,visa,,,KOKOMO,IN,,US,,,,,
,visa,,,KOKOMO,IN,,US,,,,,
,visa,,,KOKOMO,IN,,US,,,,,
,visa,,,KOKOMO,IN,,US,,,,,
,visa,,,KOKOMO,IN,,US,,,,,
,visa,,,KOKOMO,IN,,US,,,,,
,visa,,,KOKOMO,IN,,US,,,,,
https://www.walgreens.com/locator/walgreens-3608+s+lafountain+st-kokomo-in-46902/id=6944,walgreens,Walgreens,,Kokomo,IN,,US,+1 765-455-2191,https://www.walgreens.com/locator/walgreens-3608+s+lafountain+st-kokomo-in-46902/id=6944,Mo-Su 07:00-24:00,Walgreens,Q1591889
https://locations.wendys.com/#9253383,wendys,"Wendy's La Fountain 1 in Kokomo, IN",,Kokomo,IN,,US,+1 765-453-3400,https://locations.wendys.com/united-states/in/kokomo/3115-s-lafountain-st,"Mo-Su 06:00-10:30,06:00-22:00",Wendy's,Q550258
8273b966ee1075f6118da48a63d13417,western_union,ADVANCE AMERICA #05534,,Kokomo,IN,,US,+1 765-868-9958,https://location.westernunion.com/us/in/kokomo/8273b966ee1075f6118da48a63d13417,Mo-Th 10:00-18:00; Fr 09:00-19:00; Sa 10:00-14:00,Western Union,Q861042
212918,wingstop,Wingstop Kokomo S. Washington St,2825 S. Washington St.,Kokomo,IN,,US,+1 765-340-7670,,,Wingstop,Q8025339
