Ref,Spider,Name,Address,City,State,Zipcode,Country,Phone,Website,Hours,Brand,WikiData
https://stores.advanceautoparts.com/mi/kalkaska/403-w-mile-rd-nw,advance_auto_parts_us,Advance Auto Parts,,Kalkaska,MI,,US,+1 231-258-4341,https://stores.advanceautoparts.com/mi/kalkaska/403-w-mile-rd-nw,Mo-Sa 07:30-21:00; Su 09:00-20:00,Advance Auto Parts,Q4686051
https://locations.arbys.com/mi/kalkaska/906-n-cedar-st.html,arbys_us,"Arby's Fast-Food Drive Through Near You in Kalkaska, MI",,Kalkaska,MI,,US,+1 231-258-0611,https://locations.arbys.com/mi/kalkaska/906-n-cedar-st.html,Mo-Su 10:00-24:00,Arby's,Q630866
https://bc.pizza/locations/kalkaska/,bcpizza,Kalkaska B.C. Pizza,,Kalkaska,MI,,US,+1 231-258-8100,https://bc.pizza/locations/kalkaska/,Mo-Th 11:00-21:00; Fr-Sa 11:00-22:00; Su 11:00-21:00,BC Pizza,Q117600284
781,biggby_coffee_us,Biggby Coffee,556 S Cedar St Kalkaska MI 49646,Kalkaska,MI,,US,+1 231-384-6105,,Mo-Sa 06:00-20:00; Su 07:00-20:00,Biggby Coffee,Q4906876
205191,bluerhino,MS Gas & Party Store,,Kalkaska,MI,,US,+1 231-258-4435,,,Blue Rhino,Q65681213
104912,bluerhino,Northland Food & Family Center,,Kalkaska,MI,,US,+1 231-258-9114,,,Blue Rhino,Q65681213
222625,bluerhino,Kalkaska EZ Mart #626 (Shell),,Kalkaska,MI,,US,+1 231-258-4800,,,Blue Rhino,Q65681213
206905,bluerhino,Rite Aid #03966,,KALKASKA,MI,,US,+1 231-258-2081,,,Blue Rhino,Q65681213
217601,bluerhino,Family Dollar #1413 - Combo,,KALKASKA,MI,,US,+1 231-518-7023,,,Blue Rhino,Q65681213
59983,bluerhino,Family Fare #1513,,Kalkaska,MI,,US,+1 231-258-2101,,,Blue Rhino,Q65681213
182001,bluerhino,East Lake General Store,,Kalkaska,MI,,US,+1 231-369-2915,,,Blue Rhino,Q65681213
69498760121334964600100000421811,bp,BP,,Kalkaska,MI,,US,+1 231-258-4435,,,BP,Q152057
12296750,chase_us,DRIVE UP - 105599,,KALKASKA,MI,,US,+1 800-935-9935,https://locator.chase.com/mi/kalkaska/102-northland-plaza-rd,,Chase,Q524629
73706,citi,ATM Rite Aid,,Kalkaska,MI,,US,,,,Citibank,Q857063
75810,citi,ATM Shoppers Save,,Kalkaska,MI,,US,,,,Citibank,Q857063
4030 Columbus Drive NEKalkaskaMI,clean_harbors,Clean Harbors,,Kalkaska,MI,,US,+1 231-258-8014,,,Clean Harbors,Q5130494
,credit_union_us,Northland Area FCU,,Kalkaska,MI,,US,+1 989-739-1401,,Mo-Th 09:00-05:00; Fr 09:00-06:00,,
21017,dollar_general,Dollar General,,Kalkaska,MI,,US,+1 231-564-5515,https://www.dollargeneral.com/store-directory/mi/kalkaska/21017,Mo-Su 08:00-22:00,Dollar General,Q145168
https://www.edwardjones.com/us-en/financial-advisor/larry-king,edwardjones,Larry King,,Kalkaska,MI,,US,+1 231-258-5243,https://www.edwardjones.com/us-en/financial-advisor/larry-king,Mo 08:00-17:00; Tu-We 08:30-17:00; Th 08:00-17:00; Fr 08:30-17:00,Edward Jones,Q5343830
1513,family_fare_us,Family Fare - Kalkaska,,Kalkaska,MI,,US,+1 231-258-9966,https://www.shopfamilyfare.com/stores/family-fare-kalkaska,"Mo-Fr 07:00-22:00,09:00-19:00; Sa 07:00-22:00,09:00-17:00; Su 07:00-22:00,10:00-15:00",Family Fare,Q19868045
Motorcraft4904USAEnglish,ford,Kalkaska Ford Sales,,Michigan,MI,,US,+1 231-258-9192,,,Ford,Q44294
Motorcraft4905USAEnglish,ford,Bill Marsh Ford,,Michigan,MI,,US,+1 231-258-9192,,,Ford,Q44294
https://www.ford.com/dealerships/dealer-details/mi/kalkaska/bill-marsh-ford/,ford_dealers_us,Bill Marsh Ford,,Kalkaska,MI,,US,+1 231-413-0006,https://www.ford.com/dealerships/dealer-details/mi/kalkaska/bill-marsh-ford/,,Ford Motor Company,Q44294
122,huntingtonbank,Kalkaska ,,Kalkaska,MI,,US,+1 231-258-2111,https://www.huntington.com/Community/branch-info?locationId=122,Mo-Th 09:00-16:00; Fr 09:00-17:00; Sa-Su 00:00-00:00,Huntington Bank,Q798819
21309,h_r_block,H&R Block,,Kalkaska,MI,,US,+1 231-258-1040,https://www.hrblock.com/local-tax-offices/michigan/kalkaska/114-northland-plaza-mall/21309/,,H&R Block,Q5627799
191029,marathon_petroleum_us,Kalkaska Marathon,,KALKASKA,MI,,US,+1 616-534-2181,,,Marathon,Q458363
286542,marathon_petroleum_us,Next Door 5019,,Kalkaska,MI,,US,+1 231-258-8928,,,Arco,Q304769
161494,marathon_petroleum_us,Bear Lakes Marathon,,KALKASKA,MI,,US,+1 231-258-8809,,,Marathon,Q458363
159989,marathon_petroleum_us,Water's Edge Gas & Party Store LLC,,KALKASKA,MI,,US,+1 231-258-5282,,,Marathon,Q458363
https://locations.oreillyauto.com/mi/kalkaska/check-engine-light-testing-4798.html,oreilly,Your Kalkaska O'Reilly Auto Parts Store,,Kalkaska,MI,,US,+1 231-518-0157,https://locations.oreillyauto.com/mi/kalkaska/check-engine-light-testing-4798.html,Mo-Sa 07:00-21:00; Su 09:00-20:00,O'Reilly Auto Parts,Q7071951
https://locations.oreillyauto.com/mi/kalkaska/wiper-installation-4798.html,oreilly,Your Kalkaska O'Reilly Auto Parts Store,,Kalkaska,MI,,US,+1 231-518-0157,https://locations.oreillyauto.com/mi/kalkaska/wiper-installation-4798.html,Mo-Sa 07:00-21:00; Su 09:00-20:00,O'Reilly Auto Parts,Q7071951
https://locations.oreillyauto.com/mi/kalkaska/battery-testing-4798.html,oreilly,Your Kalkaska O'Reilly Auto Parts Store,,Kalkaska,MI,,US,+1 231-518-0157,https://locations.oreillyauto.com/mi/kalkaska/battery-testing-4798.html,Mo-Sa 07:00-21:00; Su 09:00-20:00,O'Reilly Auto Parts,Q7071951
https://locations.oreillyauto.com/mi/kalkaska/autopartes-4798.html,oreilly,Tu tienda O'Reilly Auto Parts en Kalkaska,,Kalkaska,MI,,US,+1 231-518-0157,https://locations.oreillyauto.com/mi/kalkaska/autopartes-4798.html,Mo-Sa 07:00-21:00; Su 09:00-20:00,O'Reilly Auto Parts,Q7071951
03966,rite_aid_us,Rite Aid #03966 Kalkaska,,Kalkaska,MI,,US,+1 231-258-2081,https://locations2.riteaid.com.yext-cdn.com/mi/kalkaska/902-north-cedar-street.html,Mo-Su 08:00-22:00,Rite Aid,Q3433273
4263,speedee_us,"Kalkaska, MI",,Kalkaska,MI,,US,+1 231-258-2889,https://www.speedeeoil.com/kalkaska-mi-4263/,Mo-Fr 07:30-18:00,SpeeDee Oil Change and Auto Service,Q120537032
https://restaurants.subway.com/#14906690,subway,Subway Northland Plaza,,Kalkaska Kalkaska,MI,,US,+1 231-258-2000,https://restaurants.subway.com/united-states/mi/kalkaska/106-northland-plaza,Mo-Su 09:00-22:00,Subway,Q244457
0566094900,sunoco_us,Sunoco,,KALKASKA,MI,,US,+1 231-369-2915,,Mo-Su 06:00-22:00,Sunoco,Q1423218
https://locations.tacobell.com/#1027879868,taco_bell,Taco Bell,,Kalkaska,MI,,US,+1 231-384-8325,https://locations.tacobell.com/mi/kalkaska/510-north-cedar-st-.html,,Taco Bell,Q752941
1368650,usps,KALKASKA,,KALKASKA,MI,,US,+1 231-258-9361,,Mo-Fr 09:00-16:15; Sa 09:30-11:30,United States Postal Service,Q668687
4964600008,usps_collection_boxes,USPS COLLECTION BOX - PO LOBBY,105 W 3RD ST,KALKASKA,MI,,US,,,,United States Postal Service,Q668687
4964600001,usps_collection_boxes,USPS COLLECTION BOX - BLUE BOX,105 W 3RD ST,KALKASKA,MI,,US,,,,United States Postal Service,Q668687
4964600003,usps_collection_boxes,USPS COLLECTION BOX - PO LOBBY,105 W 3RD ST,KALKASKA,MI,,US,,,,United States Postal Service,Q668687
4964600004,usps_collection_boxes,USPS COLLECTION BOX - BLUE BOX,105 W 3RD ST,KALKASKA,MI,,US,,,,United States Postal Service,Q668687
A00000252401,verizon_us,Team Wireless Kalkaska,,Kalkaska,MI,,US,+1 231-258-5997,https://www.verizon.com/stores/details/michigan/kalkaska/team-wireless-kalkaska-1454822/,Mo-Fr 09:00-19:00; Sa 10:00-18:00; Su 12:00-16:00,Verizon,Q919641
,visa,,,BIRCH RUN,MI,,US,,,,,
,visa,,,KALKASKA,MI,,US,,,,,
,visa,,,KALKASKA,MI,,US,,,,,
,visa,,,KALLKASKA,MI,,US,,,,,
,visa,,,KALKASKA,MI,,US,,,,,
,visa,,,KALKASKA,MI,,US,,,,,
,visa,,,KALKACKA,MI,,US,,,,,
,visa,,,KALKASKA,MI,,US,,,,,
,visa,,,KALKASKA,MI,,US,,,,,
,visa,,,KALKASKA,MI,,US,,,,,
,visa,,,KALKASKA,MI,,US,,,,,
,visa,,,KALKASKA,MI,,US,,,,,
,visa,,,KALKASKA,MI,,US,,,,,
,visa,,,KALKASKA,MI,,US,,,,,
,visa,,,KALKASKA,MI,,US,,,,,
,visa,,,KALKASKA,MI,,US,,,,,
,visa,,,KALKASKA,MI,,US,,,,,
,visa,,,KALKASKA,MI,,US,,,,,
,visa,,,KALKASKA,MI,,US,,,,,
,visa,,,KALKASKA,MI,,US,,,,,
,visa,,,KALKASKA,MI,,US,,,,,
,visa,,,KALKASKA,MI,,US,,,,,
,visa,,,KALKASKA,MI,,US,,,,,
55cd87c87099b4a1ca4cb570f87a3f57,western_union,FAMILY FARE #1513,,Kalkaska,MI,,US,+1 231-258-2101,https://location.westernunion.com/us/mi/kalkaska/55cd87c87099b4a1ca4cb570f87a3f57,Mo-Su 08:00-20:00,Western Union,Q861042
