Ref,Spider,Name,Address,City,State,Zipcode,Country,Phone,Website,Hours,Brand,WikiData
dealer_70114,maserati,FGA INDIA PVT. LTD.,,"BANDRA EAST, MUMBAI",,,IN,+91 22 3946 2682,https://www.maserati.com/in/en/Official-Dealer,,Maserati,Q35962
72533518,moneygram,A N SOLUTIONS,,MUMBAI,,,IN,+91 82867 36492,,Mo-Su 08:00-21:00,MoneyGram,Q1944412
72961818,moneygram,AL WASI ENTERPRISES,,MUMBAI,,,IN,+91 82866 33196,,Mo-Su 08:00-21:00,MoneyGram,Q1944412
72958627,moneygram,ANKIT VAGHANI,,MUMBAI,,,IN,+91 90333 03935,,Mo-Su 08:00-21:00,MoneyGram,Q1944412
73389596,moneygram,AFROZ SHAIKH,,MUMBAI,,,IN,+91 93211 37288,,Mo-Su 08:00-21:00,MoneyGram,Q1944412
73395700,moneygram,LETS BE HUMAN,,MUMBAI,,,IN,+91 76668 11234,,Mo-Su 08:00-21:00,MoneyGram,Q1944412
73386777,moneygram,MANISH JEWELLERS,,MUMBAI,,,IN,+91 99875 18916,,Mo-Su 08:00-21:00,MoneyGram,Q1944412
73397083,moneygram,MOHD FARUKH,,MUMBAI,,,IN,+91 90823 37663,,Mo-Su 08:00-21:00,MoneyGram,Q1944412
73407915,moneygram,NITIN JEWELLERS,,MUMBAI,,,IN,+91 82860 48585,,Mo-Su 08:00-21:00,MoneyGram,Q1944412
73387394,moneygram,ROYAL DECORATORS,,MUMBAI,,,IN,+91 70217 34525,,Mo-Su 08:00-21:00,MoneyGram,Q1944412
73401351,moneygram,S S ENTERPRISE,,MUMBAI,,,IN,+91 81086 39007,,Mo-Su 08:00-21:00,MoneyGram,Q1944412
73417510,moneygram,ABDUL GANI ONLINE,,MUMBAI,,,IN,+91 90227 75251,,Mo-Su 08:00-21:00,MoneyGram,Q1944412
73438829,moneygram,PALKHI JEWELLERS,,MUMBAI,,,IN,+91 98693 12187,,Mo-Su 08:00-21:00,MoneyGram,Q1944412
73438816,moneygram,RANKA JEWELLERS,,MUMBAI,,,IN,+91 98202 86959,,Mo-Su 08:00-21:00,MoneyGram,Q1944412
73535544,moneygram,A N TOURS AND TRAVELS,,MUMBAI,,,IN,+91 93243 88941,,Mo-Su 08:00-21:00,MoneyGram,Q1944412
73547639,moneygram,GURU NANAK INSTITUTE OF TECHNOLOGY,,MUMBAI,,,IN,+91 75066 29663,,Mo-Su 08:00-21:00,MoneyGram,Q1944412
73548340,moneygram,MUKESH JEWELLERS,,MUMBAI,,,IN,+91 98926 75110,,Mo-Su 08:00-21:00,MoneyGram,Q1944412
73534590,moneygram,POONISH SOLUTION,,MUMBAI,,,IN,+91 93223 38724,,Mo-Su 08:00-21:00,MoneyGram,Q1944412
73536679,moneygram,VARIETY STORES,,MUMBAI,,,IN,+91 98676 27186,,Mo-Su 08:00-21:00,MoneyGram,Q1944412
73644516,moneygram,SHUBH YATRA TRAVELS,,MUMBAI,,,IN,+91 99670 06512,,Mo-Su 08:00-21:00,MoneyGram,Q1944412
73828549,moneygram,AL KARIM INTERNATIONAL,,MUMBAI,,,IN,+91 88989 33506,,Mo-Su 08:00-21:00,MoneyGram,Q1944412
73823049,moneygram,ROMALDINA DCOSTA,,MUMBAI,,,IN,+91 99693 20880,,Mo-Su 08:00-21:00,MoneyGram,Q1944412
72968510,moneygram,PANKAJKUMAR SHIVSHANKAR PANDEY,,MUMBAI,,,IN,+91 99876 06801,,Mo-Su 08:00-21:00,MoneyGram,Q1944412
73424985,moneygram,LAXMI GOVIND TOURS AND TRAVELS,,MUMBAI,,,IN,+91 93248 50256,,Mo-Su 08:00-21:00,MoneyGram,Q1944412
74389692,moneygram,PARAM JEWELLERS,,MUMBAI,,,IN,+91 75065 19666,,Mo-Su 08:00-21:00,MoneyGram,Q1944412
74465642,moneygram,SOHAIL COMMUNICTION CSC CENTRE,,MUMBAI,,,IN,+91 96645 96625,,Mo-Su 08:00-21:00,MoneyGram,Q1944412
74465367,moneygram,SONIA JEWELLERS,,MUMBAI,,,IN,+91 98198 56506,,Mo-Su 08:00-21:00,MoneyGram,Q1944412
74559655,moneygram,COSMOS COMPUTERS,,MUMBAI,,,IN,+91 98929 26686,,Mo-Su 08:00-21:00,MoneyGram,Q1944412
74692198,moneygram,GULMOHAR ONLINE SERVICES,,MUMBAI,,,IN,+91 96646 64003,,Mo-Su 08:00-23:00,MoneyGram,Q1944412
72305047,moneygram,EBIX MONEY EXPRESS PVT LTD - BANDRA - MU,,BANDRA,,,IN,+91 70459 96265,,Mo-Su 08:00-22:00,MoneyGram,Q1944412
,visa,,,MUMBAI,,,IN,,,,,
,visa,,,MUMBAI,,,IN,,,,,
,visa,,,MUMBAI,,,IN,,,,,
,visa,,,MUMBAI,,,IN,,,,,
,visa,,,MUMBAI,,,IN,,,,,
,visa,,,MUMBAI,,,IN,,,,,
