Ref,Spider,Name,Address,City,State,Zipcode,Country,Phone,Website,Hours,Brand,WikiData
https://vertretung.allianz.de/anke.dobslaff/,allianz_de,Allianz Versicherung Anke Dobslaff GENERALVERTRETUNG,,Wittstock,,,DE,+49 3394 433273,https://vertretung.allianz.de/anke.dobslaff/,"Mo 09:00-13:00; Tu 09:00-13:00,14:30-18:00; Th 09:00-13:00,14:30-18:00; Fr 09:00-13:00",Allianz SE,Q487292
https://vertretung.allianz.de/andrea1.hoffmann/,allianz_de,Allianz Versicherung Andrea Hoffmann HAUPTVERTRETUNG,,Wittstock/Dosse,,,DE,+49 3394 433483,https://vertretung.allianz.de/andrea1.hoffmann/,"Mo 10:00-16:00; Tu 10:00-13:00,14:00-18:00; We 10:00-16:00; Th 10:00-13:00,14:00-18:00",Allianz SE,Q487292
27006600,bp,Arnold Voß,,Wittstock,,,DE,+49 3394 433198,http://tankstelle.aral.de/tankstelle/27006600,Mo 04:00-22:00; Tu-Fr 05:00-22:00; Sa-Su 06:00-22:00,BP,Q152057
27129,burgerking,Burger King,,Wittstock/Dosse,,,DE,+49 33964 608102,https://www.burgerking.de/store-locator/store/restaurant_88240,Mo-Su 09:00-23:00,Burger King,Q177054
53.162718372512.4839616674,dpd_de,NKD Deutschland GmbH,,Wittstock/Dosse,,,DE,,,,DPD,Q541030
FordGK1FA9A  DEU,ford,Autocenter Dinnebier Fil. Wittstock,,Wittstock,,,DE,+49 3394 471710,ford-dinnebier-wittstock.de,,Ford,Q44294
2760162193,gls_de,Aral Tankstelle Arnold Voß,,Wittstock,,,DE,+49 3394 433198,,Mo 04:00-22:00; Tu-Sa 05:00-22:00; Su 06:00-22:00,General Logistics Systems,Q46495823
2760119308,gls_de,Confiserie Ellen Vernaleken,,Wittstock,,,DE,+49 3394 444774,,"Tu-Fr 09:00-13:00,14:00-18:00; Sa 09:00-12:00",General Logistics Systems,Q46495823
1517,jysk,Wittstock,,Wittstock,,,DE,+49 3394 403790,https://jysk.de/filialen?storeId=1517,Mo-Th 10:00-18:30; Sa 09:30-16:00,JYSK,Q138913
DE5560,kaufland,Kaufland Wittstock,,Wittstock,,,DE,+49 3394 40000,https://filiale.kaufland.de/service/filiale/frankfurt-oder-spitzkrug-multi-center-wittstock-5560.html,Mo-Sa 07:00-22:00,Kaufland,Q685967
208,kik,KiK,,Wittstock Dosse,,,DE,+49 3394 433739,,Mo-Sa 09:00-19:00,KiK,Q883965
8669,lidl_de,,,Wittstock,,,DE,,,Mo-Sa 07:00-20:00,Lidl,Q151954
40138,man_truck_and_bus,WNS Wittstocker Nfz  Handels- & Service GmbH,,Liebenthal,,,DE,+49 33962 7050,,,MAN Truck & Bus,Q708667
https://www.netto.de/geschaefte/wittstock/polthierstrasse-14/b161b1aec8f94099aabbed54ca1bfa62/,netto_salling,Netto Wittstock,,Wittstock,,,DE,,https://www.netto.de/geschaefte/wittstock/polthierstrasse-14/b161b1aec8f94099aabbed54ca1bfa62/,Mo-Sa 07:00-20:00,Netto,Q552652
53.1587699_12.47824,norma_de,NORMA,,Wittstock Dosse,,,DE,,,Mo-Sa 08:00-20:00,Norma,Q450180
https://www.rossmann.de/de/filialen/brandenburg/wittstock-dosse/markt-10.html,rossmann_de,Rossmann Drogerie-Markt Markt 10,,Wittstock/Dosse,,,DE,+49 3394 400130,https://www.rossmann.de/de/filialen/brandenburg/wittstock-dosse/markt-10.html,Mo-Fr 08:00-19:00; Sa 08:00-14:00,Rossmann,Q316004
0d93d899-11ed-4cda-bf4a-f3d16039f396,scania,TSW GmbH Technik Service Wittstocker Kreuz,,Heiligengrabe/Liebenthal,,,DE,+49 33962 50932,,Mo-Fr 07:00-16:00,Scania,Q219960
172110,sparkasse_de,Sparkasse Ostprignitz-Ruppin Geldautomat Rosa-Luxemburg-Straße 9a,,Wittstock,,,DE,+49 3391 810,https://www.sparkasse.de/standorte/geldautomaten/sparkasse-ostprignitz-ruppin-geldautomat-rosa-luxemburg-strasse-9a-172110,Mo-Su 05:00-22:00,Sparkasse,Q13601825
151955,sparkasse_de,Sparkasse Ostprignitz-Ruppin SB-Center Rosa-Luxemburg-Straße 9a,,Wittstock,,,DE,+49 3391 810,https://www.sparkasse.de/standorte/filialen/sparkasse-ostprignitz-ruppin-sb-center-rosa-luxemburg-strasse-9a-151955,Mo-Su 05:00-22:00,Sparkasse,Q13601825
18152,sparkasse_de,"Sparkasse Ostprignitz-Ruppin Geldautomat Wittstock, Markt",,Wittstock,,,DE,+49 3391 810,https://www.sparkasse.de/standorte/geldautomaten/sparkasse-ostprignitz-ruppin-geldautomat-wittstock-markt-18152,Mo-Su 05:00-22:00,Sparkasse,Q13601825
168834,sparkasse_de,Sparkasse Ostprignitz-Ruppin Immobilien Wittstock,,Wittstock,,,DE,+49 3391 811930,https://www.sparkasse.de/standorte/filialen/sparkasse-ostprignitz-ruppin-immobilien-wittstock-168834,"Mo 09:00-13:00,14:00-16:00; Tu 09:00-13:00,14:00-18:00; We 09:00-13:00; Th 09:00-13:00,14:00-18:00; Fr 09:00-13:00",Sparkasse,Q13601825
4988,sparkasse_de,Sparkasse Ostprignitz-Ruppin Geschäftsstelle Wittstock,,Wittstock,,,DE,+49 3391 810,https://www.sparkasse.de/standorte/filialen/sparkasse-ostprignitz-ruppin-geschaeftsstelle-wittstock-4988,"Mo 09:00-13:00,14:00-16:00; Tu 09:00-13:00,14:00-18:00; We 09:00-13:00; Th 09:00-13:00,14:00-18:00; Fr 09:00-13:00",Sparkasse,Q13601825
DE_EXT_12367,totalenergies,Agip Liebenthal,,Liebenthal,,,DE,,https://store.totalenergies.fr/en_EN/DE_EXT_12367,,Agip,Q377915
EX_BP_1826,totalenergies,"ARAL TANKSTELLE WITTSTOCK, PRI",,Wittstock,,,DE,,https://store.totalenergies.fr/en_EN/EX_BP_1826,,Aral,Q565734
ND033803,totalenergies,WITTSTOCK ROSA-LUXEMBURG-STR. 7,,WITTSTOCK,,,DE,+49 3394 444154,https://store.totalenergies.fr/en_EN/ND033803,24/7,,
https://www.vlh.de/bst/1664/Oeffnungszeiten.html,vhl_de,VLH-Beraterin Gudrun Kovacs in Wittstock,,Wittstock,,,DE,+49 3394 440510,https://www.vlh.de/bst/1664/,,Vereinigte Lohnsteuerhilfe e.V.,Q15852617
https://www.vlh.de/bst/1271/Oeffnungszeiten.html,vhl_de,VLH-Beraterin Angela Tretow in Heiligengrabe,,Heiligengrabe,,,DE,+49 33962 50557,https://www.vlh.de/bst/1271/,,Vereinigte Lohnsteuerhilfe e.V.,Q15852617
,visa,,,HEILIGENGRABE,,,DE,,,,,
,visa,,,WITTSTOCK,,,DE,,,,,
,visa,,,WITTSTOCK,,,DE,,,,,
,visa,,,WITTSTOCK,,,DE,,,,,
,visa,,,WITTSTOCK,,,DE,,,,,
https://www.vr.de/standorte/W/Wa-Wm/volks-und-raiffeisenbank-prignitz-eg-filiale-wittstock-9717.html,vr_bank,"Volks- und Raiffeisenbank Prignitz eG, Filiale Wittstock",,Wittstock (Dosse),,,DE,+49 3394 400530,https://www.vrbprignitz.de,"Mo 09:00-13:00; Tu 09:00-13:00,14:00-18:00; We 09:00-13:00; Th 09:00-13:00,14:00-18:00; Fr 09:00-13:00",,
https://www.vr.de/standorte/W/Wa-Wm/berliner-volksbank-eg-filiale-wittstock-9716.html,vr_bank,"Berliner Volksbank eG, Filiale Wittstock",,Wittstock,,,DE,+49 30 30633300,https://www.berliner-volksbank.de,"Mo 10:00-13:00,14:00-16:00; Tu 10:00-13:00,14:00-18:00; We 10:00-13:00; Th 10:00-13:00,14:00-18:00; Fr 10:00-13:00",,
https://www.vr.de/standorte/H/Ha-Hm/volks-und-raiffeisenbank-prignitz-eg-filiale-heiligengrabe-10991.html,vr_bank,"Volks- und Raiffeisenbank Prignitz eG, Filiale Heiligengrabe",,Heiligengrabe,,,DE,+49 33962 50240,https://www.vrbprignitz.de,,,
