Ref,Spider,Name,Address,City,State,Zipcode,Country,Phone,Website,Hours,Brand,WikiData
207073,bluerhino,Love's #843,,Drayton,ND,,US,+1 701-454-3070,,,Blue Rhino,Q65681213
148104,bluerhino,"Halcrows, LLC",,Drayton,ND,,US,+1 701-454-3355,,,Blue Rhino,Q65681213
13074,cenex,"Ewing Oil, LLC",,Drayton,ND,,US,+1 701-454-6277,,,Cenex,Q62127191
60872,citi,ATM KodaBank - Drayton,,Drayton,ND,,US,,,,Citibank,Q857063
10094,little_free_library,Maggie Vold #10094 Drayton ND,,Drayton,ND,,US,,,,Little Free Library,Q6650101
10093,little_free_library,Maggie Vold #10093 Drayton ND,,Drayton,ND,,US,,,,Little Free Library,Q6650101
9568,little_free_library,Maggie Vold #9568 Drayton ND,,Drayton,ND,,US,,,,Little Free Library,Q6650101
53308,little_free_library,Girl Scouts Troop 30135 #53308 Drayton ND,,Drayton,ND,,US,,,,Little Free Library,Q6650101
53307,little_free_library,Girl Scouts Troop 30135 #53307 Drayton ND,,Drayton,ND,,US,,,,Little Free Library,Q6650101
1114,loves,Site 843,,Drayton,ND,,US,+1 701-454-3070,,,Love's,Q1872496
587731,taco_johns_us,Drayton,"7899 160th Ave NE, Drayton ND 58225",Drayton,ND,,US,+1 701-454-0370,https://locations.tacojohns.com/nd/drayton/7899-160th-ave-n-e/,24/7,Taco John's,Q7673962
1361294,usps,DRAYTON,,DRAYTON,ND,,US,+1 701-454-6259,,"Mo-Fr 09:00-12:30,13:30-16:00; Sa 08:30-10:30",United States Postal Service,Q668687
5822500001,usps_collection_boxes,USPS COLLECTION BOX - BLUE BOX,202 S MAIN ST,DRAYTON,ND,,US,,,,United States Postal Service,Q668687
5822500002,usps_collection_boxes,USPS COLLECTION BOX - PO LOBBY,202 S MAIN ST,DRAYTON,ND,,US,,,,United States Postal Service,Q668687
5822500003,usps_collection_boxes,USPS COLLECTION BOX - PO LOBBY,202 S MAIN ST,DRAYTON,ND,,US,,,,United States Postal Service,Q668687
,visa,,,DRAYTON,ND,,US,,,,,
,visa,,,DRAYTON,ND,,US,,,,,
,visa,,,DRAYTON,ND,,US,,,,,
,visa,,,DRAYTON,ND,,US,,,,,
,visa,,,DRAYTON,ND,,US,,,,,
,visa,,,DRAYTON,ND,,US,,,,,
