Ref,Spider,Name,Address,City,State,Zipcode,Country,Phone,Website,Hours,Brand,WikiData
72066836,moneygram,BANGLADESH KRISHI BANK - #905 - KISHORGO,,KISHORGONJ,,,BD,+880 1730-708552,,24/7,MoneyGram,Q1944412
72066962,moneygram,BANGLADESH KRISHI BANK - #918 - KISHORGO,,KISHORGONJ,,,BD,+880 1730-708569,,24/7,MoneyGram,Q1944412
68160694,moneygram,JBL - BHAIRAB BAZAR-0013,,BHAIRAB,,,BD,942471487,,24/7,MoneyGram,Q1944412
69246009,moneygram,NBL - BHAIRAB BAZAR BRANCH,,KISHOREGANJI,,,BD,+880 1730-339955,,24/7,MoneyGram,Q1944412
69252750,moneygram,NBL - BHAIRAB BAZAR BRANCH,,KISHOREGANJ,,,BD,+880 1730-339955,,24/7,MoneyGram,Q1944412
73553490,moneygram,04 NO. BANGAL PARA UNION DIGITAL CENTRE,,KISHOREGANJ,,,BD,+880 1757-114462,,Mo-Su 09:30-17:00,MoneyGram,Q1944412
73689746,moneygram,ISLAMI BANK BANGLADESH LIMITED - KISHORE,,KISHOREGONJ,,,BD,+880 1844-242674,,Mo-Th 09:00-18:00; Fr 00:00-24:00; Sa 09:00-12:00; Su 09:00-18:00,MoneyGram,Q1944412
73714543,moneygram,UNION DIGITAL CENTRE - KISHOREGANJ - UNI,,KISHOREGANJ,,,BD,+880 1744-517929,,Mo-Th 09:30-17:00; Fr-Sa 00:00-24:00; Su 09:30-17:00,MoneyGram,Q1944412
73774114,moneygram,02 NO. AGANAGAR UNION DIGITAL CENTRE - K,,KISHOREGANJ,,,BD,+880 1976-141791,,Mo-Th 09:30-17:00; Fr-Sa 00:00-24:00; Su 09:30-17:00,MoneyGram,Q1944412
73781372,moneygram,AB BANK LIMITED - BENAPOLE BRANCH-ABBL,,KISHOREGANJ,,,BD,880422875664,,Mo-Th 10:00-16:00; Fr-Sa 00:00-24:00; Su 10:00-16:00,MoneyGram,Q1944412
73997263,moneygram,IFIC BANK - #450085 - BHAIRAB BAZAR UPOS,,KISHOREGANJ,,,BD,+880 9666-716250,,Mo-Th 10:00-18:00; Fr-Sa 00:00-24:00; Su 10:00-17:00,MoneyGram,Q1944412
74272369,moneygram,PREMIER BANK - #66122 - BHAIRAB BAZAR-PB,,KISHOREGANJ,,,BD,8800942471122,,Mo-Th 10:00-18:00; Fr 00:00-24:00; Sa 10:00-13:00; Su 10:00-18:00,MoneyGram,Q1944412
74272961,moneygram,PREMIER BANK - #66181 - BASHGARI-PBL,,KISHOREGANJ,,,BD,+880 1730-585533,,Mo-Th 10:00-18:00; Fr 00:00-24:00; Sa 10:00-13:00; Su 10:00-18:00,MoneyGram,Q1944412
74273436,moneygram,PREMIER BANK - #6618101 - BHAIRABPUR UPO,,KISHOREGANJ,,,BD,+880 1730-585533,,Mo-Th 10:00-18:00; Fr 00:00-24:00; Sa 10:00-13:00; Su 10:00-18:00,MoneyGram,Q1944412
74324482,moneygram,BANK ASIA AGENT BANKING SREENAGAR UDC -,,KISHOREGANJ,,,BD,+880 1747-813369,,Mo-Th 09:30-17:00; Fr-Sa 00:00-24:00; Su 09:30-17:00,MoneyGram,Q1944412
74373653,moneygram,BHAIRAB PAURASHAVA DIGITAL CENTRE - KISH,,KISHOREGANJ,,,BD,+880 1747-987334,,Mo-Th 09:30-17:00; Fr-Sa 00:00-24:00; Su 09:30-17:00,MoneyGram,Q1944412
70370126,moneygram,STANDARD BANK LIMITED - KISHOREGANJ - BH,,KISHOREGANJ,,,BD,29471301,,24/7,MoneyGram,Q1944412
74646254,moneygram,BRAC BANK AKBARNAGAR AGENT BANKING OUTLE,,KISHOREGANJ,,,BD,+880 1925-307435,,Mo-Su 08:00-20:00,MoneyGram,Q1944412
74692486,moneygram,UNION DIGITAL CENTRE - KISHOREGANJ - UNI,,KISHOREGANJ,,,BD,+880 1726-257515,,Mo-Th 09:30-17:00; Fr-Sa 00:00-24:00; Su 09:30-17:00,MoneyGram,Q1944412
74757952,moneygram,GAKULNAGAR AGENT BANKING OUTLET - KISHOR,,KISHOREGANJ,,,BD,+880 1671-427029,,24/7,MoneyGram,Q1944412
74823569,moneygram,M/S GRAMEEN ENTERPRISE - #2729 - KISHORE,,KISHOREGANJ,,,BD,+880 1712-915722,,Mo-Su 08:00-20:00,MoneyGram,Q1944412
74900275,moneygram,M/S SADDAM ENTERPRISE - #7580 - KISHOREG,,KISHOREGANJ,,,BD,+880 1739-099710,,Mo-Su 08:00-20:00,MoneyGram,Q1944412
44796558,moneygram,TCBL,,KISHORIGONJ,,,BD,2471567,,24/7,MoneyGram,Q1944412
