Ref,Spider,Name,Address,City,State,Zipcode,Country,Phone,Website,Hours,Brand,WikiData
435,anytime_fitness,Anytime Fitness,,Canyon Lake,TX,,US,+1 830-964-4424,https://www.anytimefitness.com/gyms/435/canyon-lake-tx-78133/,,Anytime Fitness,Q4778364
95250,bluerhino,Fischer's Market #10 (Juniper Ventures of Texas LLC),,Canyon Lake,TX,,US,+1 830-905-3696,,,Blue Rhino,Q65681213
138088,bluerhino,Lowe's Super S #108,,Canyon Lake,TX,,US,+1 830-899-8574,,,Blue Rhino,Q65681213
193368,bluerhino,Brookshire Brothers #79,,Canyon Lake,TX,,US,+1 830-935-3130,,,Blue Rhino,Q65681213
138118,bluerhino,Lowe's Super S #141,,Canyon Lake,TX,,US,+1 830-964-3231,,,Blue Rhino,Q65681213
164645,bluerhino,Family Dollar #08330,,Sattler,TX,,US,+1 830-964-1050,,,Blue Rhino,Q65681213
380838,chevron,Chevron Station #380838,12135 FM 306,CANYON LAKE,TX,,US,+1 210-216-7948,,,Chevron,Q319642
304986,chevron,Chevron Station #304986,2106 OLD SATTLER ROAD,CANYON LAKE,TX,,US,+1 830-899-4699,,,Chevron,Q319642
52938,citi,ATM CVS,,Canyon Lake,TX,,US,,,,Citibank,Q857063
33099,citi,ATM 7ELEVEN-FCTI,,Canyon Lake,TX,,US,,,,Citibank,Q857063
24442,citi,ATM 7ELEVEN-FCTI,,Canyon Lake,TX,,US,,,,Citibank,Q857063
17372,dollar_general,Dollar General,,Canyon Lake,TX,,US,+1 830-282-1580,https://www.dollargeneral.com/store-directory/tx/canyon-lake/17372,Mo-Su 08:00-22:00,Dollar General,Q145168
13433,dollar_general,Dollar General,,Canyon Lake,TX,,US,+1 830-302-4072,https://www.dollargeneral.com/store-directory/tx/canyon-lake/13433,Mo-Su 08:00-22:00,Dollar General,Q145168
https://www.edwardjones.com/us-en/financial-advisor/scott-anderson3,edwardjones,Scott Anderson,,Canyon Lake,TX,,US,+1 830-935-2165,https://www.edwardjones.com/us-en/financial-advisor/scott-anderson3,Mo 08:00-16:00; Tu-Th 08:00-17:00; Fr 08:00-16:00,Edward Jones,Q5343830
200312589,exxonmobil,HANCOCK MINI MART,,CANYON LAKE,TX,,US,+1 830-935-2868,https://www.exxon.com/en/find-station/exxon-canyonlake-tx-hancockminimart-200312589,Mo-Th 06:00-23:00; Fr 06:00-00:00; Sa 07:00-00:00; Su 07:00-22:00,Exxon,Q109675651
https://local.fedex.com/#25233366,fedex,,,Canyon Lake,TX,,US,+1 800-463-3339,https://local.fedex.com/en-us/tx/canyon-lake/nirbh,,FedEx,Q459477
https://local.fedex.com/#25229973,fedex,,,Canyon Lake,TX,,US,+1 800-463-3339,https://local.fedex.com/en-us/tx/canyon-lake/nirbf,,FedEx,Q459477
https://local.fedex.com/#25235901,fedex,,,Canyon Lake,TX,,US,+1 800-463-3339,https://local.fedex.com/en-us/tx/canyon-lake/nirai,,FedEx,Q459477
https://local.fedex.com/#25231972,fedex,,,Canyon Lake,TX,,US,+1 800-463-3339,https://local.fedex.com/en-us/tx/canyon-lake/nirah,,FedEx,Q459477
https://local.fedex.com/#25232425,fedex,,,Canyon Lake,TX,,US,+1 800-463-3339,https://local.fedex.com/en-us/tx/canyon-lake/nirad,,FedEx,Q459477
https://local.fedex.com/#27752646,fedex,FedEx Authorized ShipCenter,,Canyon Lake,TX,,US,+1 830-907-3600,https://local.fedex.com/en-us/tx/canyon-lake/62679,,FedEx,Q459477
42564,h_r_block,H&R Block,,Canyon Lake,TX,,US,+1 830-964-3579,https://www.hrblock.com/local-tax-offices/texas/canyon-lake/1642-fm-2673/42564/,,H&R Block,Q5627799
82731,little_free_library,CLUMC Little Free Library #82731 Canyon Lake TX,,Canyon Lake,TX,,US,,,,Little Free Library,Q6650101
82733,little_free_library,Canyon Springs Resort LFL #82733 Canyon Lake TX,,Canyon Lake,TX,,US,,,,Little Free Library,Q6650101
82732,little_free_library,Ensenada Shores Little Free Library #82732 Canyon Lake TX,,Canyon Lake,TX,,US,,,,Little Free Library,Q6650101
82730,little_free_library,Las Brisas Little Free Library #82730 Canyon Lake TX,,Canyon Lake,TX,,US,,,,Little Free Library,Q6650101
81934,little_free_library,Kim Nance #81934 Canyon lake TX,,Canyon lake,TX,,US,,,,Little Free Library,Q6650101
92920,little_free_library,Treehouse #92920 Canyon Lake TX,,Canyon Lake,TX,,US,,,,Little Free Library,Q6650101
78696,little_free_library,Sponsor: Canyon Lk Presbyterian Church #78696 Canyon Lake TX,,Canyon Lake,TX,,US,,,,Little Free Library,Q6650101
173426,little_free_library,Madrone Trail WORD Parks #173426 #173426 Canyon Lake TX,,Canyon Lake,TX,,US,,,,Little Free Library,Q6650101
82736,little_free_library,Friends of Tye Preston Memorial Library #82736 Canyon Lake TX,,Canyon Lake,TX,,US,,,,Little Free Library,Q6650101
74509,little_free_library,Friends of Tye Preston Memorial Library #74509 Canyon Lake TX,,Canyon Lake,TX,,US,,,,Little Free Library,Q6650101
https://locations.oreillyauto.com/tx/canyonlake/check-engine-light-testing-2456.html,oreilly,Your Canyon Lake O'Reilly Auto Parts Store,,Canyon Lake,TX,,US,+1 830-964-4007,https://locations.oreillyauto.com/tx/canyonlake/check-engine-light-testing-2456.html,Mo-Sa 07:30-22:00; Su 08:00-21:00,O'Reilly Auto Parts,Q7071951
https://locations.oreillyauto.com/tx/canyonlake/wiper-installation-2456.html,oreilly,Your Canyon Lake O'Reilly Auto Parts Store,,Canyon Lake,TX,,US,+1 830-964-4007,https://locations.oreillyauto.com/tx/canyonlake/wiper-installation-2456.html,Mo-Sa 07:30-22:00; Su 08:00-21:00,O'Reilly Auto Parts,Q7071951
https://locations.oreillyauto.com/tx/canyonlake/battery-testing-2456.html,oreilly,Your Canyon Lake O'Reilly Auto Parts Store,,Canyon Lake,TX,,US,+1 830-964-4007,https://locations.oreillyauto.com/tx/canyonlake/battery-testing-2456.html,Mo-Sa 07:30-22:00; Su 08:00-21:00,O'Reilly Auto Parts,Q7071951
https://locations.oreillyauto.com/tx/canyonlake/autopartes-2456.html,oreilly,Tu tienda O'Reilly Auto Parts en Canyon Lake,,Canyon Lake,TX,,US,+1 830-964-4007,https://locations.oreillyauto.com/tx/canyonlake/autopartes-2456.html,Mo-Sa 07:30-22:00; Su 08:00-21:00,O'Reilly Auto Parts,Q7071951
36568,seven_eleven_ca_us,7-Eleven Store,,Canyon Lake,TX,,US,+1 830-899-7009,https://www.7-eleven.com/locations/tx/canyon-lake/8470-fm-2673-36568,,7-Eleven,Q259340
36569,seven_eleven_ca_us,7-Eleven Store,,Canyon Lake,TX,,US,+1 830-899-8570,https://www.7-eleven.com/locations/tx/canyon-lake/10430-fm-2673-36569,,7-Eleven,Q259340
https://restaurants.subway.com/#14909648,subway,Subway Valero Gas Station,,Canyon Lake Comal,TX,,US,+1 830-935-3450,https://restaurants.subway.com/united-states/tx/canyon-lake/17420-fm-306,Mo 10:00-21:00; Tu 10:00-20:00; We-Su 10:00-21:00,Subway,Q244457
https://restaurants.subway.com/#14898009,subway,Subway,,Canyon Lake Comal,TX,,US,+1 830-899-5636,https://restaurants.subway.com/united-states/tx/canyon-lake/7838-fm-2673,Mo-Th 10:00-21:00; Fr 12:00-21:00; Sa-Su 10:00-21:00,Subway,Q244457
0273170100,sunoco_us,Sunoco,,CANYON LAKE,TX,,US,+1 512-203-4514,,,Sunoco,Q1423218
1356919,usps,CANYON LAKE,,CANYON LAKE,TX,,US,+1 830-964-4100,,Mo-Fr 09:00-16:00; Sa 10:00-12:00,United States Postal Service,Q668687
7813300014,usps_collection_boxes,USPS COLLECTION BOX - BLUE BOX,8079 FM 2673,CANYON LAKE,TX,,US,,,,United States Postal Service,Q668687
7813300015,usps_collection_boxes,USPS COLLECTION BOX - BLUE BOX,18134 FM 306,CANYON LAKE,TX,,US,,,,United States Postal Service,Q668687
7813300009,usps_collection_boxes,USPS COLLECTION BOX - BLUE BOX,1300 FM 2673,CANYON LAKE,TX,,US,,,,United States Postal Service,Q668687
7813300012,usps_collection_boxes,USPS COLLECTION BOX - PO LOBBY,1300 FM 2673,CANYON LAKE,TX,,US,,,,United States Postal Service,Q668687
7813300013,usps_collection_boxes,USPS COLLECTION BOX - PO LOBBY,1300 FM 2673,CANYON LAKE,TX,,US,,,,United States Postal Service,Q668687
7813300017,usps_collection_boxes,USPS COLLECTION BOX - PO LOBBY,1300 FM 2673,CANYON LAKE,TX,,US,,,,United States Postal Service,Q668687
0000002035,valero,Food Basket 5,,Canyon Lake,TX,,US,+1 830-899-2080,https://locations.valero.com/en-us/LocationDetails/Index/10390-FM-2673/0000002035,,Valero,Q1283291
,visa,,,CANYON LAKE,TX,,US,,,,,
,visa,,,CANYON LAKE,TX,,US,,,,,
,visa,,,CANYON LAKE,TX,,US,,,,,
,visa,,,CANYON LAKE,TX,,US,,,,,
,visa,,,CANYON LAKE,TX,,US,,,,,
,visa,,,CANYON LAKE,TX,,US,,,,,
,visa,,,CANYON LAKE,TX,,US,,,,,
,visa,,,CANYON LAKE,TX,,US,,,,,
,visa,,,CANYON LAKE,TX,,US,,,,,
,visa,,,CANYON LAKE,TX,,US,,,,,
,visa,,,CANYON LAKE,TX,,US,,,,,
,visa,,,CANYON LAKE,TX,,US,,,,,
,visa,,,CANYON LAKE,TX,,US,,,,,
,visa,,,CANYON LAKE,TX,,US,,,,,
,visa,,,CANYON LAKE,TX,,US,,,,,
,visa,,,NEW BRAUNFELS,TX,,US,,,,,
,visa,,,CANYON LAKE,TX,,US,,,,,
,visa,,,CANYON LAKE,TX,,US,,,,,
,visa,,,CANYON LAKE,TX,,US,,,,,
,visa,,,CANYON LAKE,TX,,US,,,,,
,visa,,,CANYON LAKE,TX,,US,,,,,
,visa,,,CANYON LAKE,TX,,US,,,,,
,visa,,,CANYON LAKE,TX,,US,,,,,
,visa,,,CANYON LAKE,TX,,US,,,,,
,visa,,,CANYON LAKE,TX,,US,,,,,
,visa,,,CANYON LAKE,TX,,US,,,,,
,visa,,,CANYON LAKE,TX,,US,,,,,
,visa,,,CANYON LAKE,TX,,US,,,,,
,visa,,,CANYON LAKE,TX,,US,,,,,
,visa,,,CANYON LAKE,TX,,US,,,,,
,visa,,,SPRING BRANCH,TX,,US,,,,,
8461__FARM__RD__2673_CANYON__LAKE_TX_78133,wellsfargo,,8461 FARM RD 2673,CANYON LAKE,TX,,US,+1 800-869-3557,https://www.wellsfargo.com/locator/bank/8461__FARM__RD__2673_CANYON__LAKE_TX_78133/,,Wells Fargo,Q744149
1121__FM__2673_CANYON__LAKE_TX_78133,wellsfargo,Wells Fargo,1121 FM 2673,CANYON LAKE,TX,,US,+1 830-964-2265,https://www.wellsfargo.com/locator/bank/1121__FM__2673_CANYON__LAKE_TX_78133/,Mo-Fr 09:00-17:00,Wells Fargo,Q744149
78a66690d5f32e7eb9be3bc590d80f25,western_union,BROOKSHIRE BROS #279,,Canyon Lake,TX,,US,+1 830-935-3021,https://location.westernunion.com/us/tx/canyon-lake/78a66690d5f32e7eb9be3bc590d80f25,Mo-Su 08:00-20:00,Western Union,Q861042
