Ref,Spider,Name,Address,City,State,Zipcode,Country,Phone,Website,Hours,Brand,WikiData
19,aaa,Narragansett Branch,,Narragansett,RI,,US,+1 401-789-3000,,,American Automobile Association,Q463436
2594,anytime_fitness,Anytime Fitness,,Narragansett,RI,,US,+1 401-284-0313,https://www.anytimefitness.com/gyms/2594/narragansett-ri-02882/,,Anytime Fitness,Q4778364
59676,bluerhino,Cumberland Farms #1215,,Narragansett,RI,,US,+1 401-789-1927,,,Blue Rhino,Q65681213
179994,bluerhino,Mobil Mart,,Narrangansett,RI,,US,+1 508-406-1183,,,Blue Rhino,Q65681213
55204,bluerhino,Stop & Shop #718,,Narragansett,RI,,US,+1 401-783-9614,,,Blue Rhino,Q65681213
188162,bluerhino,Walgreens #19189,,Narraganset,RI,,US,+1 401-792-7179,,,Blue Rhino,Q65681213
189887,bluerhino,Jerry's Paint & Hardware #16525,,Narrangansett,RI,,US,+1 401-783-4666,,,Blue Rhino,Q65681213
139973,bluerhino,Colbea Enterprise #46,,Narragansett,RI,,US,+1 401-515-2063,,,Blue Rhino,Q65681213
189513,bluerhino,Walgreens# 19394,,Narragansett,RI,,US,+1 401-789-5037,,,Blue Rhino,Q65681213
88622,citi,ATM Walgreens,,Narragansett,RI,,US,,,,Citibank,Q857063
47179,citi,ATM CVS,,Narragansett,RI,,US,,,,Citibank,Q857063
001197,citizens_us,Citizens Narragansett,,Narragansett,RI,,US,+1 401-783-3392,,Mo-Fr 09:00-16:00; Sa 09:00-12:00,Citizens,Q5122694
ATM-263,citizens_us,,,Narragansett,RI,,US,+1 401-788-0047,,,Citizens,Q5122694
ATM-259,citizens_us,,,Narragansett,RI,,US,+1 401-783-3392,,24/7,Citizens,Q5122694
ATM-1425,citizens_us,,,Narragansett,RI,,US,,,,Citizens,Q5122694
ATM-1455,citizens_us,,,Narragansett,RI,,US,,,,Citizens,Q5122694
520471,cumberland_farms_us,Cumberland Farms,,NARRAGANSETT,RI,,US,+1 401-792-3091,https://www.cumberlandfarms.com/find-us/generic-store-page/?id=001293,,Cumberland Farms,Q1143685
519989,cumberland_farms_us,Cumberland Farms,,NARRAGANSETT,RI,,US,+1 401-789-1927,https://www.cumberlandfarms.com/find-us/generic-store-page/?id=001215,,Cumberland Farms,Q1143685
409,cvs_us,CVS Pharmacy,,Narragansett,RI,,US,+1 401-783-1753,https://www.cvs.com/store-locator/narragansett-ri-pharmacies/1123-boston-neck-rd-narragansett-ri-02882/storeid=409,Mo-Su 07:00-23:00,CVS Pharmacy,Q2078880
3936,dominos_pizza_us,Domino's Pizza,,Narragansett,RI,,US,+1 401-782-1202,https://pizza.dominos.com/rhode-island/narragansett/140-point-judith-road,Mo-Th 10:30-24:00; Fr-Sa 10:30-01:00; Su 10:30-24:00,Domino's,Q839466
336043,dunkin_us,Dunkin',,Narragansett,RI,,US,+1 401-789-0546,https://locations.dunkindonuts.com/en/ri/narragansett/1189-boston-neck-rd/336043,Mo-Fr 04:30-19:00; Sa 05:00-19:00; Su 05:00-18:00,Dunkin',Q847743
306498,dunkin_us,Dunkin',,Narragansett,RI,,US,+1 401-782-4220,https://locations.dunkindonuts.com/en/ri/narragansett/94-point-judith-rd/306498,Mo-Su 05:00-19:00,Dunkin',Q847743
https://www.edwardjones.com/us-en/financial-advisor/ian-devine,edwardjones,Ian T Devine,,Narragansett,RI,,US,+1 401-783-2169,https://www.edwardjones.com/us-en/financial-advisor/ian-devine,Mo-Fr 08:00-16:00,Edward Jones,Q5343830
520471,eg_america_us,Cumberland Farms,,NARRAGANSETT,RI,,US,+1 401-792-3091,https://www.cumberlandfarms.com/find-us/generic-store-page/?id=001293,,Cumberland Farms,Q1143685
519989,eg_america_us,Cumberland Farms,,NARRAGANSETT,RI,,US,+1 401-789-1927,https://www.cumberlandfarms.com/find-us/generic-store-page/?id=001215,,Cumberland Farms,Q1143685
E14944,enterprise,Wakefield,,Narragansett,RI,,US,+1 401-783-2859,,,Enterprise Rent-A-Car,Q17085454
E148Q2,enterprise,Narragansett,,Narragansett,RI,,US,+1 401-783-2859,,,Enterprise Rent-A-Car,Q17085454
https://local.fedex.com/#25201083,fedex,,,Narragansett,RI,,US,+1 800-463-3339,https://local.fedex.com/en-us/ri/narragansett/pvdls,,FedEx,Q459477
https://local.fedex.com/#25207175,fedex,,,Narragansett,RI,,US,+1 800-463-3339,https://local.fedex.com/en-us/ri/narragansett/pvdlr,,FedEx,Q459477
Motorcraft3640USAEnglish,ford,Flood Ford Lincoln,,Rhode Island,RI,,US,+1 401-515-2700,,,Ford,Q44294
https://www.ford.com/dealerships/dealer-details/ri/narragansett/flood-ford-of-narragansett/,ford_dealers_us,Flood Ford of Narragansett,,Narragansett,RI,,US,+1 401-443-3292,https://www.ford.com/dealerships/dealer-details/ri/narragansett/flood-ford-of-narragansett/,Mo-Th 08:00-19:00; Fr 08:00-18:00; Sa 08:00-17:00,Ford Motor Company,Q44294
https://salons.greatclips.com/us/ri/narragansett/91-point-judith-rd,greatclips,Great Clips,,Narragansett,RI,,US,+1 401-284-0244,https://salons.greatclips.com/us/ri/narragansett/91-point-judith-rd,Mo-Fr 09:00-18:00; Sa 09:00-17:00; Su 09:00-16:00,Great Clips,Q5598967
salty-brine-ri-beach,indigo,Salty Brine RI Beach,,Narragansett,RI,,US,+1 617-515-0598,,,Indigo,Q3559970
roger-wheeler-ri-beach,indigo,Roger Wheeler RI Beach,,Narragansett,RI,,US,+1 617-515-0598,,,Indigo,Q3559970
scarborough-ri-beach-south,indigo,Scarborough RI Beach South,,Narragansett,RI,,US,+1 617-515-0598,,,Indigo,Q3559970
ri-beaches-office,indigo,RI Beaches Office,,Narragansett,RI,,US,(111) 111-1111,,,Indigo,Q3559970
209-great-island-rd,indigo,209 Great Island Rd,,Narragansett,RI,,US,+1 860-462-7201,,,Indigo,Q3559970
67952,man_truck_and_bus,"RHODE ISLAND ENGINES CO., INC.",,Narragansett,RI,,US,+1 401-789-1021,,,MAN Truck & Bus,Q708667
3746,mightyflame,POINT JUDITH COUNTRY CLUB,,NARRAGANSETT,RI,,US,+1 401-792-9765,,,Mighty Flame,
jerrys-pt-and-hdwe-co-inc-27804,ppgpaints,JERRYS PT & HDWE CO INC,,"Narragansett, ",RI,,US,+1 401-783-4666,https://www.ppgpaints.com/store-locator/us/rhode-island/narragansett-paint-stores/jerrys-pt-and-hdwe-co-inc-27804,,PPG Paints,Q83891559
0718,stop_and_shop,Super Stop & Shop,91 Point Judith Rd,Narragansett,RI,,US,,,,Stop and Shop,Q3658429
28307,tjx,Narragansett,91 Point Judith Rd,Narragansett,RI,,US,+1 401-782-4285,,Mo-Sa 09:30-21:30; Su 10:00-20:00,HomeGoods,Q5887941
10616,tjx,Narragansett,91 Point Judith Road,Narragansett,RI,,US,+1 401-782-4285,,Mo-Sa 09:30-21:30; Su 10:00-20:00,Marshalls,Q15903261
5404,upsstore,Salt Pond Shopping Center,91 Point Judith Rd,Narragansett,RI,,US,+1 401-782-3930,https://locations.theupsstore.com/ri/narragansett/91-point-judith-rd,,UPS Store,Q7771029
1434584,usps,NARRAGANSETT,,NARRAGANSETT,RI,,US,+1 401-783-2691,,Mo-Fr 08:30-17:00; Sa 08:30-13:00,United States Postal Service,Q668687
0288200010,usps_collection_boxes,USPS COLLECTION BOX - BLUE BOX,304 GREAT ISLAND RD,NARRAGANSETT,RI,,US,,,,United States Postal Service,Q668687
0288200015,usps_collection_boxes,USPS COLLECTION BOX - BLUE BOX,120 KNOWLESWAY EXT,NARRAGANSETT,RI,,US,,,,United States Postal Service,Q668687
0288200014,usps_collection_boxes,USPS COLLECTION BOX - BLUE BOX,91 POINT JUDITH RD,NARRAGANSETT,RI,,US,,,,United States Postal Service,Q668687
0288200012,usps_collection_boxes,USPS COLLECTION BOX - BLUE BOX,140 POINT JUDITH RD,NARRAGANSETT,RI,,US,,,,United States Postal Service,Q668687
0288200009,usps_collection_boxes,USPS COLLECTION BOX - BLUE BOX,29 FISH RD,NARRAGANSETT,RI,,US,,,,United States Postal Service,Q668687
0288200005,usps_collection_boxes,USPS COLLECTION BOX - BLUE BOX,887 BOSTON NECK RD,NARRAGANSETT,RI,,US,,,,United States Postal Service,Q668687
0288200013,usps_collection_boxes,USPS COLLECTION BOX - BLUE BOX,29 S PIER RD,NARRAGANSETT,RI,,US,,,,United States Postal Service,Q668687
0288200021,usps_collection_boxes,USPS COLLECTION BOX - PO LOBBY,15 MEMORIAL SQ,NARRAGANSETT,RI,,US,,,,United States Postal Service,Q668687
0288200007,usps_collection_boxes,USPS COLLECTION BOX - BLUE BOX,35 KINGSTOWN RD,NARRAGANSETT,RI,,US,,,,United States Postal Service,Q668687
0288200011,usps_collection_boxes,USPS COLLECTION BOX - BLUE BOX,24 CELESTIAL DR,NARRAGANSETT,RI,,US,,,,United States Postal Service,Q668687
0288200008,usps_collection_boxes,USPS COLLECTION BOX - BLUE BOX,25 5TH AVE,NARRAGANSETT,RI,,US,,,,United States Postal Service,Q668687
,visa,,,NARRAGANSETT,RI,,US,,,,,
,visa,,,NARRAGANSETT,RI,,US,,,,,
,visa,,,NARRAGANSETTE,RI,,US,,,,,
,visa,,,NARRAGANSETT,RI,,US,,,,,
,visa,,,NARRAGANSETT,RI,,US,,,,,
,visa,,,NARRAGANSETT,RI,,US,,,,,
,visa,,,NARRAGANSETT,RI,,US,,,,,
,visa,,,NARRAGANSETT,RI,,US,,,,,
,visa,,,NARRAGANSETT,RI,,US,,,,,
,visa,,,NARRAGANSETT,RI,,US,,,,,
,visa,,,NARRAGANSETT,RI,,US,,,,,
https://www.walgreens.com/locator/walgreens-1193+boston+neck+rd-narragansett-ri-02882/id=19394,walgreens,Walgreens,,Narragansett,RI,,US,+1 401-789-5037,https://www.walgreens.com/locator/walgreens-1193+boston+neck+rd-narragansett-ri-02882/id=19394,Mo-Su 09:00-21:00,Walgreens,Q1591889
https://www.walgreens.com/locator/walgreens-20+woodruff+ave-narragansett-ri-02882/id=19189,walgreens,Walgreens,,Narragansett,RI,,US,+1 401-792-7179,https://www.walgreens.com/locator/walgreens-20+woodruff+ave-narragansett-ri-02882/id=19189,Mo-Fr 07:00-22:00; Sa 08:00-22:00; Su 08:00-21:00,Walgreens,Q1591889
d9cab99abd9b14f45c1c4f39d97e52e6,western_union,WALGREENS #19189,,Narragansett,RI,,US,+1 401-792-7179,https://location.westernunion.com/us/ri/narragansett/d9cab99abd9b14f45c1c4f39d97e52e6,Mo-Su 08:00-21:00,Western Union,Q861042
