Ref,Spider,Name,Address,City,State,Zipcode,Country,Phone,Website,Hours,Brand,WikiData
4513,autozone_us,AutoZone Auto Parts Sullivan,,Sullivan,IN,,US,+1 812-268-5246,https://www.autozone.com/locations/in/sullivan/901-n-section-st.html,Mo-Sa 08:00-21:00; Su 09:00-20:00,AutoZone,Q4826087
228662,bluerhino,Family Dollar #13438,,Sullivan,IN,,US,+1 812-558-7106,,,Blue Rhino,Q65681213
168454,bluerhino,SV - Baeslers Market #610516,,Sullivan,IN,,US,+1 812-268-5218,,,Blue Rhino,Q65681213
139128,bluerhino,Speedway #7716,,Sullivan,IN,,US,+1 812-268-0977,,,Blue Rhino,Q65681213
203185,bluerhino,CASEY'S GENERAL STORE #1791,,SULLIVAN,IN,,US,+1 812-416-5274,,,Blue Rhino,Q65681213
56656,chevrolet,SULLIVAN AUTOMOTIVE GROUP,,Sullivan,IN,,US,+1 812-268-4321,http://www.sullivangm.net,Mo-Fr 09:00-19:00; Sa 09:00-18:00,Chevrolet,Q29570
95167,citi,ATM Western Indiana Credit Union,,Sullivan,IN,,US,,,,Citibank,Q857063
77833,citi,ATM Speedway,,Sullivan,IN,,US,,,,Citibank,Q857063
80449,citi,ATM SPEEDWAY 7716,,Sullivan,IN,,US,,,,Citibank,Q857063
49776,citi,ATM CVS,,Sullivan,IN,,US,,,,Citibank,Q857063
6700,cvs_us,CVS Pharmacy,,Sullivan,IN,,US,+1 812-268-6827,https://www.cvs.com/store-locator/sullivan-in-pharmacies/275-s-section-st-sullivan-in-47882/storeid=6700,Mo-Fr 09:00-21:00; Sa-Su 10:00-18:00,CVS Pharmacy,Q2078880
2668,dominos_pizza_us,Domino's Pizza,,Sullivan,IN,,US,+1 812-268-3300,https://pizza.dominos.com/indiana/sullivan/527-n--section-street,Mo-Th 10:30-24:00; Fr-Sa 10:30-01:00; Su 10:30-24:00,Domino's,Q839466
https://www.edwardjones.com/us-en/financial-advisor/gretchen-burkhart,edwardjones,Gretchen K Burkhart,,Sullivan,IN,,US,+1 812-268-6202,https://www.edwardjones.com/us-en/financial-advisor/gretchen-burkhart,Mo-Fr 08:00-17:00,Edward Jones,Q5343830
2112,extra_space_storage,Sullivan Self Storage at 1912 N Section St,,Sullivan,IN,,US,,https://www.extraspace.com/storage-express/storage/facilities/us/indiana/sullivan/2112/,Mo-Su 06:00-22:00,Extra Space Storage,Q5422162
33438,family_dollar_us,FAMILY DOLLAR #13438,,Sullivan,IN,,US,+1 812-564-5020,https://www.familydollar.com/locations/in/sullivan/33438/,Mo-Su 09:00-21:00,Family Dollar,Q5433101
https://locations.53.com/#3034197,fifththirdbank,Fifth Third Bank Sullivan,,Sullivan,IN,,US,+1 812-268-3302,https://locations.53.com/in/sullivan/201-west-washington-street.html,Mo-Fr 09:00-17:00; Sa 09:00-12:00,Fifth Third Bank,Q1411810
eeb08ecf-458a-e111-8dde-005056934050,goodwill,800 W Wolfe St Store,,Sullivan,IN,,US,+1 812-268-5820,https://www.goodwill.org/locator/location/?store=ZWViMDhlY2YtNDU4YS1lMTExLThkZGUtMDA1MDU2OTM0MDUw&lat=MzkuMDk1NjM=&lng=LTg3LjQwNzAz,,Goodwill,Q5583655
1501065,hardees_us,Hardee's,,Sullivan,IN,,US,+1 812-268-0025,https://locations.hardees.com/in/sullivan/888-w-state-rd-154,,Hardee's,Q1585088
15563,h_r_block,H&R Block,,Sullivan,IN,,US,+1 812-268-4681,https://www.hrblock.com/local-tax-offices/indiana/sullivan/1311-n-section-st/15563/,,H&R Block,Q5627799
155502,marathon_petroleum_us,GOODMANS CONVENIENC STORE,,SULLIVAN,IN,,US,+1 812-268-8800,,,Marathon,Q458363
158881,marathon_petroleum_us,Twelve 14 Inc,,SULLIVAN,IN,,US,+1 812-268-1111,,,Marathon,Q458363
https://locations.oreillyauto.com/in/sullivan/check-engine-light-testing-6498.html,oreilly,Your Sullivan O'Reilly Auto Parts Store,,Sullivan,IN,,US,+1 812-268-4357,https://locations.oreillyauto.com/in/sullivan/check-engine-light-testing-6498.html,Mo-Sa 07:00-21:00; Su 09:00-20:00,O'Reilly Auto Parts,Q7071951
https://locations.oreillyauto.com/in/sullivan/wiper-installation-6498.html,oreilly,Your Sullivan O'Reilly Auto Parts Store,,Sullivan,IN,,US,+1 812-268-4357,https://locations.oreillyauto.com/in/sullivan/wiper-installation-6498.html,Mo-Sa 07:00-21:00; Su 09:00-20:00,O'Reilly Auto Parts,Q7071951
https://locations.oreillyauto.com/in/sullivan/battery-testing-6498.html,oreilly,Your Sullivan O'Reilly Auto Parts Store,,Sullivan,IN,,US,+1 812-268-4357,https://locations.oreillyauto.com/in/sullivan/battery-testing-6498.html,Mo-Sa 07:00-21:00; Su 09:00-20:00,O'Reilly Auto Parts,Q7071951
https://locations.oreillyauto.com/in/sullivan/autopartes-6498.html,oreilly,Tu tienda O'Reilly Auto Parts en Sullivan,,Sullivan,IN,,US,+1 812-268-4357,https://locations.oreillyauto.com/in/sullivan/autopartes-6498.html,Mo-Sa 07:00-21:00; Su 09:00-20:00,O'Reilly Auto Parts,Q7071951
https://locations.papajohns.com/#10690704,papa_johns,Papa John's,,Sullivan,IN,,US,+1 812-268-7500,https://locations.papajohns.com/united-states/in/47882/sullivan/2226-north-section-st,Mo-Su 11:00-21:40,Papa John's Pizza,Q2759586
https://restaurants.subway.com/#14909974,subway,Subway,,Sullivan Sullivan,IN,,US,+1 812-268-7827,https://restaurants.subway.com/united-states/in/sullivan/828-w-wolf-st,Mo-Su 08:00-22:00,Subway,Q244457
0745355800,sunoco_us,Sunoco,,SULLIVAN,IN,,US,+1 812-268-9900,,24/7,Sunoco,Q1423218
1383857,usps,SULLIVAN,,SULLIVAN,IN,,US,+1 812-268-4091,,Mo-Fr 08:30-16:30; Sa 09:00-12:00,United States Postal Service,Q668687
4788200009,usps_collection_boxes,USPS COLLECTION BOX - BLUE BOX,101 S MAIN ST,SULLIVAN,IN,,US,,,,United States Postal Service,Q668687
4788200022,usps_collection_boxes,USPS COLLECTION BOX - BLUE BOX,32 S COURT ST,SULLIVAN,IN,,US,,,,United States Postal Service,Q668687
4788200006,usps_collection_boxes,USPS COLLECTION BOX - BLUE BOX,103 E WASHINGTON ST,SULLIVAN,IN,,US,,,,United States Postal Service,Q668687
4788200024,usps_collection_boxes,USPS COLLECTION BOX - PO LOBBY,103 E WASHINGTON ST,SULLIVAN,IN,,US,,,,United States Postal Service,Q668687
,visa,,,SULLIVAN,IN,,US,,,,,
,visa,,,SULLIVAN,IN,,US,,,,,
,visa,,,SULLIVAN,IN,,US,,,,,
,visa,,,SULLIVAN,IN,,US,,,,,
,visa,,,SULLIVAN,IN,,US,,,,,
,visa,,,SULLIVAN,IN,,US,,,,,
,visa,,,SULLIVAN,IN,,US,,,,,
,visa,,,SULLIVAN,IN,,US,,,,,
,visa,,,SULLIVAN,IN,,US,,,,,
,visa,,,SULLIVAN,IN,,US,,,,,
,visa,,,SULLIVAN,IN,,US,,,,,
,visa,,,SULLIVAN,IN,,US,,,,,
,visa,,,SULLIVAN,IN,,US,,,,,
,visa,,,SULLIVAN,IN,,US,,,,,
,visa,,,SULLIVAN,IN,,US,,,,,
,visa,,,SULLIVAN,IN,,US,,,,,
,visa,,,SULLIVAN,IN,,US,,,,,
,visa,,,SULLIVAN,IN,,US,,,,,
,visa,,,SULLIVAN,IN,,US,,,,,
2eccdc34da1b581c77930965d1e73dec,western_union,WALMART #000617,,Sullivan,IN,,US,+1 812-268-3381,https://location.westernunion.com/us/in/sullivan/2eccdc34da1b581c77930965d1e73dec,Mo-Su 07:00-21:00,Western Union,Q861042
