Ref,Spider,Name,Address,City,State,Zipcode,Country,Phone,Website,Hours,Brand,WikiData
669,biggby_coffee_us,Biggby Coffee,325 Railroad St Hudson MI 49247,Hudson,MI,,US,+1 517-448-3141,,Mo-Sa 05:30-20:00; Su 06:30-20:00,Biggby Coffee,Q4906876
172672,bluerhino,Family Dollar #06725,,Hudson,MI,,US,+1 517-448-8965,,,Blue Rhino,Q65681213
71387,citi,ATM PREMIER BANK,,Hudson,MI,,US,,,,Citibank,Q857063
14158,dollar_general,Dollar General,,Hudson,MI,,US,+1 313-379-6498,https://www.dollargeneral.com/store-directory/mi/hudson/14158,Mo-Su 08:00-23:00,Dollar General,Q145168
https://www.edwardjones.com/us-en/financial-advisor/michelle-jedele,edwardjones,Michelle I Jedele,,Hudson,MI,,US,+1 517-448-3078,https://www.edwardjones.com/us-en/financial-advisor/michelle-jedele,Mo-Fr 08:00-16:30,Edward Jones,Q5343830
21223,h_r_block,H&R Block,,Hudson,MI,,US,+1 517-448-8465,https://www.hrblock.com/local-tax-offices/michigan/hudson/424-railroad-st/21223/,,H&R Block,Q5627799
157440,marathon_petroleum_us,HUDSON GAS LLC 2,,HUDSON,MI,,US,+1 517-448-7373,,,Marathon,Q458363
157438,marathon_petroleum_us,HUDSON GAS LLC 1,,HUDSON,MI,,US,+1 517-448-7508,,,Marathon,Q458363
https://restaurants.subway.com/#14912664,subway,Subway,,Hudson Lenawee,MI,,US,+1 517-448-6666,https://restaurants.subway.com/united-states/mi/hudson/300-w-main,Mo-Su 10:00-21:00,Subway,Q244457
1367562,usps,HUDSON,,HUDSON,MI,,US,+1 517-448-8476,,Mo-Fr 08:30-17:00; Sa 08:30-12:00,United States Postal Service,Q668687
4924700002,usps_collection_boxes,USPS COLLECTION BOX - BLUE BOX,325 RAILROAD ST,HUDSON,MI,,US,,,,United States Postal Service,Q668687
4924700008,usps_collection_boxes,USPS COLLECTION BOX - PO LOBBY,101 HOWARD ST,HUDSON,MI,,US,,,,United States Postal Service,Q668687
4924700001,usps_collection_boxes,USPS COLLECTION BOX - BLUE BOX,101 HOWARD ST,HUDSON,MI,,US,,,,United States Postal Service,Q668687
,visa,,,HUDSON,MI,,US,,,,,
,visa,,,HUDSON,MI,,US,,,,,
,visa,,,HUDSON,MI,,US,,,,,
,visa,,,HUDSON,MI,,US,,,,,
,visa,,,HUDSON,MI,,US,,,,,
,visa,,,HUDSON,MI,,US,,,,,
,visa,,,HUDSON,MI,,US,,,,,
,visa,,,HUDSON,MI,,US,,,,,
