Ref,Spider,Name,Address,City,State,Zipcode,Country,Phone,Website,Hours,Brand,WikiData
1090700266,banque_populaire_fr,LIMOGES WILSON,,LIMOGES,,,FR,+33 5 55 11 06 30,https://agences.banquepopulaire.fr/banque-assurance/agence-limoges-wilson-id1090700266,"Tu-We 09:00-12:30,13:45-18:00; Th 09:00-12:30,14:45-18:00; Fr 09:00-12:30,13:45-18:00; Sa 09:00-12:30",Banque Populaire,Q846647
1090700270,banque_populaire_fr,LIMOGES PREFECTURE,,LIMOGES,,,FR,+33 5 55 12 21 50,https://agences.banquepopulaire.fr/banque-assurance/agence-limoges-prefecture-id1090700270,"Mo-We 09:00-12:15,13:45-18:00; Th 09:00-12:15,14:45-18:00; Fr 09:00-12:15,13:45-18:00",Banque Populaire,Q846647
1090700269,banque_populaire_fr,LIMOGES LES HALLES,,LIMOGES,,,FR,+33 5 55 12 28 80,https://agences.banquepopulaire.fr/banque-assurance/agence-limoges-les-halles-id1090700269,"Tu-We 09:00-12:30,13:45-18:00; Th 09:00-12:30,14:45-18:00; Fr 09:00-12:30,13:45-18:00; Sa 09:00-12:30",Banque Populaire,Q846647
1090700267,banque_populaire_fr,LIMOGES FRANCOIS PERRIN,,LIMOGES,,,FR,+33 5 55 10 33 70,https://agences.banquepopulaire.fr/banque-assurance/agence-limoges-francois-perrin-id1090700267,"Tu-We 09:00-12:30,13:45-18:00; Th 09:00-12:30,14:45-18:00; Fr 09:00-12:30,13:45-18:00; Sa 09:00-12:30",Banque Populaire,Q846647
https://laboratoires.biogroup.fr/#25701953,biogroup_fr,BIOGROUP ASTRALAB Laboratoire Saint Martial - Limoges,,,,,FR,+33 5 55 33 96 40,https://laboratoires.biogroup.fr/haute-vienne/limoges/39-avenue-garibaldi,Mo-Fr 07:00-13:00; Sa 07:00-12:00,Biogroup,Q101559741
https://laboratoires.biogroup.fr/#25701954,biogroup_fr,BIOGROUP ASTRALAB Laboratoire Place d'Aine - Limoges,,,,,FR,+33 5 55 34 10 27,https://laboratoires.biogroup.fr/haute-vienne/limoges/1-place-daine,Mo-Fr 07:00-19:00; Sa 07:00-12:30,Biogroup,Q101559741
32533_1,bmw_group,ADVENTURE,,LIMOGES,,,FR,+33 5 55 10 38 42,https://www.adventure-bmw.com,,BMW Motorrad,Q249173
1528,carrefour_fr,Carrefour City,,Limoges,,,FR,+33 5 55 53 30 31,https://www.carrefour.fr/magasin/city-limoges-bancs,Mo-Sa 07:00-22:00; Su 09:00-13:00,Carrefour City,Q2940187
3610,carrefour_fr,Carrefour Express,,Limoges,,,FR,+33 5 55 06 92 88,https://www.carrefour.fr/magasin/express-limoges-chenieux,Mo-Sa 08:00-22:00; Su 09:00-13:00,Carrefour Express,Q2940190
5255,carrefour_fr,Carrefour City,,Limoges,,,FR,+33 5 55 12 70 71,https://www.carrefour.fr/magasin/city-limoges-mauvendiere,Mo-Sa 07:00-22:00; Su 09:00-13:00,Carrefour City,Q2940187
5256,carrefour_fr,Carrefour City,,Limoges,,,FR,+33 5 55 02 02 99,https://www.carrefour.fr/magasin/city-limoges-baudin,Mo-Sa 07:00-22:00; Su 09:00-13:00,Carrefour City,Q2940187
5257,carrefour_fr,Carrefour City,,Limoges,,,FR,+33 5 55 32 64 51,https://www.carrefour.fr/magasin/city-limoges-fleurus,Mo-Sa 07:00-22:00; Su 09:00-13:00,Carrefour City,Q2940187
5258,carrefour_fr,Carrefour City,,Limoges,,,FR,+33 5 55 50 86 62,https://www.carrefour.fr/magasin/city-limoges-vantaux,Mo-Sa 07:00-22:00; Su 09:00-20:00,Carrefour City,Q2940187
6851,carrefour_fr,Carrefour City,,Limoges,,,FR,+33 5 55 09 80 02,https://www.carrefour.fr/magasin/city-limoges-gay-lussac,"Mo-Sa 07:00-22:00; Su 09:00-13:00,17:00-20:00",Carrefour City,Q2940187
7691,carrefour_fr,Market Limoges Paguenaud,,Limoges,,,FR,+33 5 55 77 94 98,https://www.carrefour.fr/magasin/market-limoges-paguenaud,Mo-Sa 08:30-19:30; Su 09:00-12:00,Carrefour Market,Q2689639
7692,carrefour_fr,Market Limoges Roussillon,,Limoges,,,FR,+33 5 55 50 03 70,https://www.carrefour.fr/magasin/market-limoges-roussillon,Mo-Sa 08:30-19:30; Su 09:00-12:00,Carrefour Market,Q2689639
9097,carrefour_fr,Carrefour City,,Limoges,,,FR,+33 5 55 77 10 29,https://www.carrefour.fr/magasin/city-limoges-perrin,Mo-Sa 07:00-22:00; Su 09:00-20:00,Carrefour City,Q2940187
A46H,carrefour_fr,Carrefour City,,Limoges,,,FR,,https://www.carrefour.fr/magasin/carrefour-city-limoges-pinte,Mo-Sa 07:00-22:00; Su 09:00-13:00,Carrefour City,Q2940187
188746833,century_21_fr,CENTURY 21 Victor Hugo,,LIMOGES,,,FR,+33 5 55 10 97 98,https://www.century21.fr/trouver_agence/agence/188746833/,,Century 21,Q1054480
5471608398,century_21_fr,CENTURY 21 Atrium Immobilier,,LIMOGES,,,FR,+33 5 55 00 30 02,https://www.century21.fr/trouver_agence/agence/5471608398/,,Century 21,Q1054480
limoges,completude,,,LIMOGES ,,,FR,+33 5 55 11 09 02,https://www.completude.com/agence/limoges/,,Complétude,Q2990589
https://www.credit-agricole.fr/particulier/agence/centre-ouest/square-habitat-87-5906.html,credit_agricole,Crédit Agricole,,LIMOGES,,,FR,+33 5 55 49 04 90,https://www.credit-agricole.fr/particulier/agence/centre-ouest/square-habitat-87-5906.html,"Mo-Fr 09:00-12:30,14:00-18:30; Sa 09:00-12:30",Credit Agricole,Q590952
https://www.credit-agricole.fr/particulier/agence/centre-ouest/limoges-liberation-5872.html,credit_agricole,Crédit Agricole,,LIMOGES,,,FR,+33 5 19 78 01 15,https://www.credit-agricole.fr/particulier/agence/centre-ouest/limoges-liberation-5872.html,"Tu-We 08:45-12:30,14:00-18:00; Th 08:45-12:30,15:00-18:00; Fr 08:45-12:30,14:00-18:00; Sa 08:45-12:30",Credit Agricole,Q590952
https://www.credit-agricole.fr/particulier/agence/centre-ouest/limoges-hotel-de-ville-5879.html,credit_agricole,Crédit Agricole,,LIMOGES,,,FR,+33 5 19 78 01 70,https://www.credit-agricole.fr/particulier/agence/centre-ouest/limoges-hotel-de-ville-5879.html,"Tu-We 08:45-12:30,14:00-18:00; Th 08:45-12:30,15:00-18:00; Fr 08:45-12:30,14:00-18:00; Sa 08:45-12:30",Credit Agricole,Q590952
https://www.credit-agricole.fr/particulier/agence/centre-ouest/limoges-espace-jaures-5874.html,credit_agricole,Crédit Agricole,,LIMOGES,,,FR,,https://www.credit-agricole.fr/particulier/agence/centre-ouest/limoges-espace-jaures-5874.html,"Tu-We 08:45-12:30,14:00-18:00; Th 08:45-12:30,15:00-18:00; Fr 08:45-12:30,14:00-18:00; Sa 08:45-12:30",Credit Agricole,Q590952
https://www.credit-agricole.fr/particulier/agence/centre-ouest/limoges-casseaux-5878.html,credit_agricole,Crédit Agricole,,LIMOGES,,,FR,+33 5 19 78 01 65,https://www.credit-agricole.fr/particulier/agence/centre-ouest/limoges-casseaux-5878.html,"Tu-We 08:45-12:30,14:00-18:00; Th 08:45-12:30,15:00-18:00; Fr 08:45-12:30,14:00-18:00; Sa 08:45-12:00",Credit Agricole,Q590952
https://www.credit-agricole.fr/particulier/agence/centre-ouest/limoges-carmes-5873.html,credit_agricole,Crédit Agricole,,LIMOGES,,,FR,+33 5 19 78 01 20,https://www.credit-agricole.fr/particulier/agence/centre-ouest/limoges-carmes-5873.html,"Tu-We 08:45-12:30,14:00-18:00; Th 08:45-12:30,15:00-18:00; Fr 08:45-12:30,14:00-18:00; Sa 08:45-12:30",Credit Agricole,Q590952
https://www.credit-agricole.fr/particulier/agence/centre-ouest/limoges-babylone-5880.html,credit_agricole,Crédit Agricole,,LIMOGES,,,FR,+33 5 19 78 01 80,https://www.credit-agricole.fr/particulier/agence/centre-ouest/limoges-babylone-5880.html,"Tu-We 08:45-12:30,14:00-18:00; Th 08:45-12:30,15:00-18:00; Fr 08:45-12:30,14:00-18:00; Sa 08:45-12:30",Credit Agricole,Q590952
https://www.credit-agricole.fr/particulier/agence/centre-ouest/le-maracana-7586.html,credit_agricole,Crédit Agricole,,Limoges,,,FR,,https://www.credit-agricole.fr/particulier/agence/centre-ouest/le-maracana-7586.html,Tu-Fr 06:30-20:00; Sa 07:00-20:00; Su 07:30-13:00,Credit Agricole,Q590952
https://www.credit-agricole.fr/particulier/agence/centre-ouest/habitat-conseil-87-5905.html,credit_agricole,Crédit Agricole,,LIMOGES,,,FR,+33 5 55 11 92 70,https://www.credit-agricole.fr/particulier/agence/centre-ouest/habitat-conseil-87-5905.html,"Tu-We 08:45-12:30,14:00-18:00; Th 08:45-12:30,15:00-18:00; Fr 08:45-12:30,14:00-18:00; Sa 08:45-12:30",Credit Agricole,Q590952
https://www.credit-agricole.fr/particulier/agence/centre-ouest/espace-jaures-banque-assurance-immobilier-5874.html,credit_agricole,Crédit Agricole,,LIMOGES,,,FR,,https://www.credit-agricole.fr/particulier/agence/centre-ouest/espace-jaures-banque-assurance-immobilier-5874.html,"Tu-We 08:45-12:30,14:00-18:00; Th 08:45-12:30,15:00-18:00; Fr 08:45-12:30,14:00-18:00; Sa 08:45-12:30",Credit Agricole,Q590952
https://www.credit-agricole.fr/particulier/agence/centre-ouest/chanvalon-jean-francois-7588.html,credit_agricole,Crédit Agricole,,Limoges,,,FR,,https://www.credit-agricole.fr/particulier/agence/centre-ouest/chanvalon-jean-francois-7588.html,"Mo-Su 00:00-12:30,12:30-24:00",Credit Agricole,Q590952
https://www.credit-agricole.fr/particulier/agence/centre-ouest/banque-privee-87-5903.html,credit_agricole,Crédit Agricole,,LIMOGES,,,FR,+33 5 55 05 75 76,https://www.credit-agricole.fr/particulier/agence/centre-ouest/banque-privee-87-5903.html,"Mo 09:00-12:30,14:00-17:00; Tu 09:00-12:30,14:00-17:30; We-Th 09:00-12:30,14:00-18:00; Fr 09:00-12:30,14:00-17:30",Credit Agricole,Q590952
https://www.credit-agricole.fr/particulier/agence/centre-ouest/automate-limoges-ventadour-701.html,credit_agricole,Crédit Agricole,,LIMOGES,,,FR,,https://www.credit-agricole.fr/particulier/agence/centre-ouest/automate-limoges-ventadour-701.html,,Credit Agricole,Q590952
https://www.credit-agricole.fr/particulier/agence/centre-ouest/automate-limoges-ventadour-6773.html,credit_agricole,Crédit Agricole,,Limoges,,,FR,,https://www.credit-agricole.fr/particulier/agence/centre-ouest/automate-limoges-ventadour-6773.html,"Mo-Su 00:00-12:30,12:30-24:00",Credit Agricole,Q590952
https://www.credit-agricole.fr/particulier/agence/centre-ouest/automate-limoges-la-motte-705.html,credit_agricole,Crédit Agricole,,LIMOGES,,,FR,,https://www.credit-agricole.fr/particulier/agence/centre-ouest/automate-limoges-la-motte-705.html,,Credit Agricole,Q590952
https://www.credit-agricole.fr/particulier/agence/centre-ouest/automate-limoges-la-motte-6777.html,credit_agricole,Crédit Agricole,,Limoges,,,FR,,https://www.credit-agricole.fr/particulier/agence/centre-ouest/automate-limoges-la-motte-6777.html,"Mo-Su 00:00-12:30,12:30-24:00",Credit Agricole,Q590952
https://www.credit-agricole.fr/particulier/agence/centre-ouest/automate-limoges-jaures-theatre-704.html,credit_agricole,Crédit Agricole,,LIMOGES,,,FR,,https://www.credit-agricole.fr/particulier/agence/centre-ouest/automate-limoges-jaures-theatre-704.html,,Credit Agricole,Q590952
https://www.credit-agricole.fr/particulier/agence/centre-ouest/automate-limoges-jaures-theatre-6776.html,credit_agricole,Crédit Agricole,,Limoges,,,FR,,https://www.credit-agricole.fr/particulier/agence/centre-ouest/automate-limoges-jaures-theatre-6776.html,"Mo-Su 00:00-12:30,12:30-24:00",Credit Agricole,Q590952
https://www.credit-agricole.fr/particulier/agence/centre-ouest/automate-limoges-chu-700.html,credit_agricole,Crédit Agricole,,LIMOGES,,,FR,,https://www.credit-agricole.fr/particulier/agence/centre-ouest/automate-limoges-chu-700.html,,Credit Agricole,Q590952
https://www.credit-agricole.fr/particulier/agence/centre-ouest/automate-limoges-chu-6772.html,credit_agricole,Crédit Agricole,,LIMOGES,,,FR,,https://www.credit-agricole.fr/particulier/agence/centre-ouest/automate-limoges-chu-6772.html,"Mo-Su 00:00-12:30,12:30-24:00",Credit Agricole,Q590952
https://www.credit-agricole.fr/particulier/agence/centre-ouest/agence-entreprise-87-5904.html,credit_agricole,Crédit Agricole,,LIMOGES,,,FR,+33 5 55 05 76 00,https://www.credit-agricole.fr/particulier/agence/centre-ouest/agence-entreprise-87-5904.html,"Mo-Fr 08:15-12:15,13:45-17:30",Credit Agricole,Q590952
https://www.credit-agricole.fr/particulier/agence/centre-ouest/agence-des-professions-liberales-87-5900.html,credit_agricole,Crédit Agricole,,LIMOGES,,,FR,+33 5 19 78 03 60,https://www.credit-agricole.fr/particulier/agence/centre-ouest/agence-des-professions-liberales-87-5900.html,"Mo-We 09:00-12:30,14:00-18:00; Th 09:00-12:30,15:00-18:00; Fr 09:00-12:30,14:00-18:00",Credit Agricole,Q590952
https://www.credit-agricole.fr/particulier/agence/centre-ouest/agence-des-professionnels-87-5902.html,credit_agricole,Crédit Agricole,,LIMOGES,,,FR,+33 5 55 05 72 72,https://www.credit-agricole.fr/particulier/agence/centre-ouest/agence-des-professionnels-87-5902.html,"Mo-We 09:00-12:30,14:00-18:00; Th 09:00-12:15,15:00-18:00; Fr 09:00-12:30,14:00-18:00",Credit Agricole,Q590952
36803,credit_mutuel_fr,CRCM LACO LIMOUSIN ENTREPRISES - AGENCE LIMOGES ENTREPRISES,,LIMOGES,,,FR,+33 2 40 68 23 64,https://www.creditmutuel.fr/fr/caisses/10278/36803/00/000,,Crédit Mutuel,Q642627
36550,credit_mutuel_fr,CAISSE DE CREDIT MUTUEL ENSEIGNANT LIMOGES,,LIMOGES,,,FR,+33 5 55 38 73 74,https://www.creditmutuel.fr/fr/caisses/10278/36550/00/000,,Crédit Mutuel,Q642627
92,croix_rouge_francaise_fr,DELEGATION TERRITORIALE DE LA HAUTE VIENNE,,LIMOGES,,,FR,,https://www.croix-rouge.fr/delegation-territoriale-de-la-haute-vienne,"Mo-Fr 09:00-12:00,14:00-17:00",Croix-Rouge française,Q3003244
1068,croix_rouge_francaise_fr,UNITE LOCALE DE LIMOGES,,LIMOGES,,,FR,,https://www.croix-rouge.fr/unite-locale-de-limoges,We 14:00-17:30; Fr 14:00-19:30; Sa 14:00-17:30,Croix-Rouge française,Q3003244
https://www.dominos.fr/magasin/limoges-perrin_87000,dominos_pizza_fr,Domino's,,LIMOGES,,,FR,,https://www.dominos.fr/magasin/limoges-perrin_87000,,Domino's,Q839466
https://www.dominos.fr/magasin/limoges-fleurus_87000,dominos_pizza_fr,Domino's,,LIMOGES,,,FR,,https://www.dominos.fr/magasin/limoges-fleurus_87000,,Domino's,Q839466
https://www.dominos.fr/magasin/limoges-beaublanc_87000,dominos_pizza_fr,Domino's,,LIMOGES,,,FR,,https://www.dominos.fr/magasin/limoges-beaublanc_87000,,Domino's,Q839466
FordFF36700  FRA,ford,FORD LIMOGES - PAROT,,LIMOGES,,,FR,+33 5 55 30 46 47,https://www.parot-automotive.com/,Mo-Fr 08:30-19:00; Sa 09:00-18:30,Ford,Q44294
F60,gant,GANT Limoges,,Limoges,,,FR,+33 5 55 33 39 16,,Tu-Fr 10:00-19:00; Sa 10:00-12:30,GANT,Q1493667
FR0106,hm,C.Cial Saint Martial Limoges,,Limoges,,,FR,+33 805 08 88 88,,Mo-Sa 09:30-19:30,H&M,Q188326
215,jardiland_fr,Limoges,,Limoges,,,FR,+33 5 55 75 45 00,https://www.jardiland.com/magasins/limoges-sud,"Mo-Sa 09:30-19:00; Su 09:30-12:30,14:30-19:00",Jardiland,Q3162276
https://bureaux.kpmg.fr/#location-107,kpmg_fr,KPMG Avocats Limoges,,Limoges,,,FR,+33 5 87 79 83 00,https://bureaux.kpmg.fr/fr/france-FR/107/kpmg-avocats-limoges/details,Mo-Fr 08:30-18:00,KPMG,Q493751
https://bureaux.kpmg.fr/#location-291,kpmg_fr,KPMG Limoges,,Limoges,,,FR,+33 5 55 11 37 00,https://bureaux.kpmg.fr/fr/france-FR/291/kpmg-limoges/details,"Mo-Fr 08:00-12:00,14:00-17:00",KPMG,Q493751
2540,lidl_fr,LIMOGES Bastiat,,LIMOGES,,,FR,,,Mo-Sa 08:30-20:00,Lidl,Q151954
FR143,longchamp,Le Tilbury,,LIMOGES,,,FR,+33 5 55 33 11 07,,,Longchamp,Q1869471
FR142,longchamp,La Coquette,,LIMOGES,,,FR,+33 5 55 34 47 20,,,Longchamp,Q1869471
1194,mcdonalds_fr,LIMOGES NEXON,,LIMOGES,,,FR,+33 5 55 70 29 32,https://www.mcdonalds.fr/restaurants/mcdonalds-limoges-nexon/1194,Mo-Th 09:30-23:00; Fr-Sa 09:30-23:30; Su 09:30-23:00,McDonald's,Q38076
1277,mcdonalds_fr,LIMOGES CASSEAUX,,LIMOGES,,,FR,+33 5 55 71 86 12,https://www.mcdonalds.fr/restaurants/mcdonalds-limoges-casseaux/1277,Mo-Su 06:00-05:59,McDonald's,Q38076
LJ,micromania_fr,LIMOGES SAINT MARTIAL,,LIMOGES,,,FR,+33 5 55 32 38 76,https://www.micromania.fr/magasin?storeid=LJ,Mo-Sa 09:30-19:30,Micromania,Q3312221
72108529,moneygram,TECH HOUSE - LIMOGES,,LIMOGES,,,FR,+33 9 82 34 35 47,,Mo-Sa 09:00-20:00; Su 00:00-24:00,MoneyGram,Q1944412
72301258,moneygram,KITOKO - #519569465 - LIMOGES,,LIMOGES,,,FR,+33 5 19 56 94 65,,Mo-Sa 09:00-19:00; Su 10:00-15:00,MoneyGram,Q1944412
74610882,moneygram,LE BOULEVARD BEL AIR,,LIMOGES,,,FR,+33 5 55 79 99 69,,Mo-Fr 06:00-19:30; Sa 07:00-17:30; Su 08:00-13:00,MoneyGram,Q1944412
74954373,moneygram,ARIA MULTI-ACCESS - LIMOGES,,LIMOGES,,,FR,+33 7 58 66 86 90,,Mo-Su 08:00-22:00,MoneyGram,Q1944412
71556350,moneygram,COTE AFRIQUE HAIR&BEAUTY - #1 - LIMOGES,,LIMOGES,,,FR,+33 9 87 19 84 24,,Mo-Sa 09:00-21:00; Su 00:00-24:00,MoneyGram,Q1944412
5e46813257b3df36aeaf75a5,newyorker,NEW YORKER | Centre Commercial Saint Martial,"39 Bis Avenue Garibaldi, 87000 Limoges",Limoges,,,FR,+33 5 55 01 76 75,,Mo-Sa 09:30-19:30; Su 10:00-18:00,New Yorker,Q706421
463-opticien-limoges-centre-ville-optical-center,optical_center,Opticien LIMOGES- CENTRE-VILLE Optical Center,,Limoges,,,FR,+33 5 55 34 68 68,https://opticien.optical-center.fr/463-opticien-limoges-centre-ville-optical-center,Mo-Sa 09:00-19:00,Optical Center,Q3354448
frf1643a4f,pandora,Trouvez votre boutique Pandora la plus proche !,,LIMOGES,,,FR,+33 9 71 33 08 62,https://stores.pandora.net/fr-87/limoges/bijoux-pandora-frf1643a4f.html,Mo 14:00-19:00; Tu-Sa 10:00-19:00,Pandora,Q2241604
https://stores.petit-bateau.com/#9115867,petit_bateau,PETIT BATEAU Limoges,,Limoges,,,FR,+33 5 55 33 48 66,https://stores.petit-bateau.com/france/limoges/7-rue-du-clocher,,Petit Bateau,Q3377090
26605,relay_fr,Relay Gare de Limoges,,Limoges,,,FR,+33 5 55 77 85 72,https://www.relay.com/stores/relay-gare-de-limoges/,Mo-Fr 05:30-20:15; Sa 05:30-19:30; Su 07:00-20:30,Relay,Q3424298
00000175_001-renault,renault,RENAULT LIMOGES - FAURIE,,LIMOGES,,,FR,+33 5 55 04 48 48,,,Renault,Q6686
00000175_001-dacia,renault,RENAULT LIMOGES - FAURIE,,LIMOGES,,,FR,+33 5 55 04 48 48,,,Dacia,Q27460
00015219_001-renault,renault,GARAGE LEOBET,,LIMOGES,,,FR,+33 5 55 01 19 80,,,Renault,Q6686
00015219_001-dacia,renault,GARAGE LEOBET,,LIMOGES,,,FR,+33 5 55 01 19 80,,,Dacia,Q27460
25002847_001-renault,renault,ESPACE VENTE LIMOGES,,LIMOGES,,,FR,+33 6 24 86 41 83,,,Renault,Q6686
https://www.sixt.co.uk/car-hire/france/limoges/limoges-train-station/,sixt,Car Hire Limoges Train Station | SIXT rent a car,,Limoges,,,FR,,https://www.sixt.co.uk/car-hire/france/limoges/limoges-train-station/,Mo 07:00-19:00; Tu-Fr 08:00-19:00; Sa-Su 09:00-12:00,SIXT,Q705664
SQLS44091,speed_queen,Laverie Libre-Service Speed Queen,,Limoges,,,FR,(033)+ 7 49 46 86 13,,Mo-Su 06:00-22:00,Speed Queen,Q7575499
https://restaurants.subway.com/#14926263,subway,Subway,,Limoges,,,FR,+33 9 61 05 92 30,https://restaurants.subway.com/france/limoges/26-place-de-la-motte,Mo-Su 11:00-21:00,Subway,Q244457
https://stores.superdry.com/#17497280,superdry,Superdry  Limoges,,Limoges,,,FR,+33 5 55 33 11 16,https://stores.superdry.com/fr/limoges/26-rue-jean-jaures,,Superdry,Q1684445
NF028876,totalenergies,RELAIS LIMOGES GOLF,,LIMOGES,,,FR,+33 5 55 30 36 61,https://store.totalenergies.fr/en_EN/NF028876,Mo-Fr 07:00-21:30; Sa-Su 07:00-20:00,Total Access,Q154037
NF900402,totalenergies,AVIA,,LIMOGES,,,FR,,https://store.totalenergies.fr/en_EN/NF900402,,Avia,Q300147
N790086,united_colors_of_benetton,Benetton Limoges,,LIMOGES,,,FR,null,,,United Colors of Benetton,Q817139
,visa,,,LIMOGES,,,FR,,,,,
,visa,,,LIMOGES,,,FR,,,,,
,visa,,,LIMOGES,,,FR,,,,,
,visa,,,LIMOGES,,,FR,,,,,
,visa,,,LIMOGES,,,FR,,,,,
,visa,,,LIMOGES,,,FR,,,,,
,visa,,,LIMOGES,,,FR,,,,,
,visa,,,LIMOGES,,,FR,,,,,
,visa,,,LIMOGES,,,FR,,,,,
,visa,,,LIMOGES,,,FR,,,,,
,visa,,,LIMOGES,,,FR,,,,,
,visa,,,LIMOGES,,,FR,,,,,
,visa,,,LIMOGES,,,FR,,,,,
,visa,,,LIMOGES,,,FR,,,,,
,visa,,,LIMOGES,,,FR,,,,,
,visa,,,LIMOGES,,,FR,,,,,
,visa,,,LIMOGES,,,FR,,,,,
,visa,,,LIMOGES,,,FR,,,,,
,visa,,,LIMOGES,,,FR,,,,,
,visa,,,LIMOGES,,,FR,,,,,
,visa,,,LIMOGES,,,FR,,,,,
,visa,,,LIMOGES,,,FR,,,,,
,visa,,,LIMOGES,,,FR,,,,,
,visa,,,LIMOGES,,,FR,,,,,
,visa,,,LIMOGES,,,FR,,,,,
,visa,,,LIMOGES,,,FR,,,,,
,visa,,,LIMOGES,,,FR,,,,,
,visa,,,LIMOGES,,,FR,,,,,
,visa,,,LIMOGES,,,FR,,,,,
,visa,,,LIMOGES,,,FR,,,,,
,visa,,,LIMOGES,,,FR,,,,,
,visa,,,LIMOGES,,,FR,,,,,
,visa,,,LIMOGES,,,FR,,,,,
,visa,,,LIMOGES,,,FR,,,,,
,visa,,,LIMOGES,,,FR,,,,,
,visa,,,LIMOGES,,,FR,,,,,
,visa,,,LIMOGES,,,FR,,,,,
,visa,,,LIMOGES,,,FR,,,,,
,visa,,,LIMOGES,,,FR,,,,,
,visa,,,LIMOGES,,,FR,,,,,
,visa,,,LIMOGES,,,FR,,,,,
,visa,,,LIMOGES,,,FR,,,,,
,visa,,,LIMOGES,,,FR,,,,,
,visa,,,LIMOGES,,,FR,,,,,
,visa,,,LIMOGES,,,FR,,,,,
,visa,,,LIMOGES,,,FR,,,,,
,visa,,,LIMOGES,,,FR,,,,,
,visa,,,LIMOGES,,,FR,,,,,
,visa,,,LIMOGES,,,FR,,,,,
,visa,,,LIMOGES,,,FR,,,,,
,visa,,,LIMOGES,,,FR,,,,,
http://magasins.vival.fr/fr/vival-limoges-ste-claire,vival_fr,Vival Limoges Sainte Claire,,Limoges,,,FR,+33 5 19 03 43 03,http://magasins.vival.fr/fr/vival-limoges-ste-claire,Mo-Sa 07:45-20:00; Su 08:30-20:00,Vival,Q7937525
http://magasins.vival.fr/fr/vival-limoges-theodore-bac,vival_fr,Vival Limoges Theodore Bac,,Limoges,,,FR,+33 7 54 51 65 32,http://magasins.vival.fr/fr/vival-limoges-theodore-bac,Mo-Su 08:00-24:00,Vival,Q7937525
6FR166165,volvo,PERICAUD AUTOMOBILES,,LIMOGES,,,FR,+33 5 55 06 34 06,https://volvocars-concessions.com/fr/limoges,,Volvo,Q215293
e22e0bfdaa75f3cd2f35233801f23894,western_union,XPERTPHONE CHENIEUX,,Limoges,,,FR,+33 7 76 09 57 65,https://location.westernunion.com/fr/state/limoges/e22e0bfdaa75f3cd2f35233801f23894,Mo-Sa 12:00-19:00,Western Union,Q861042
8be241eca6f1a025d5e29d3809fe6f7d,western_union,KITOKO AFROSTYLE,,Limoges,,,FR,+33 7 55 23 33 39,https://location.westernunion.com/fr/state/limoges/8be241eca6f1a025d5e29d3809fe6f7d,Mo-Sa 10:00-19:00,Western Union,Q861042
