Ref,Spider,Name,Address,City,State,Zipcode,Country,Phone,Website,Hours,Brand,WikiData
3648,first_cash,First Cash Pawn,,Yuriria,Guanajuato,,MX,+52 445 168 3159,,,First Cash Pawn,
,visa,,,YURIRIA,GUANAJUATO,,MX,,,,,
,visa,,,YURIRIA,GUANAJUATO,,MX,,,,,
,visa,,,YURIRIA,GUANAJUATO,,MX,,,,,
,visa,,,YURIRIA,GUANAJUATO,,MX,,,,,
76085db5d55c72b86160ad0c4c9464e3,western_union,FARM GUAD YURIRIA CENTRO,,Yuriria,GUANAJUATO,,MX,+52 800 833 4700,https://location.westernunion.com/mx/guanajuato/yuriria/76085db5d55c72b86160ad0c4c9464e3,Mo-Su 08:00-22:00,Western Union,Q861042
aaae2c3f7c6e616f4a8c710d79c058e0,western_union,OXXO VALLE MLM,,Yuriria,GUANAJUATO,,MX,+52 81 8389 2121,https://location.westernunion.com/mx/guanajuato/yuriria/aaae2c3f7c6e616f4a8c710d79c058e0,Mo-Su 08:00-22:00,Western Union,Q861042
486de64539777aa5b73839e0196a369a,western_union,OXXO VALLE MLM,,Yuriria,GUANAJUATO,,MX,+52 81 8389 2121,https://location.westernunion.com/mx/guanajuato/yuriria/486de64539777aa5b73839e0196a369a,Mo-Su 08:00-22:00,Western Union,Q861042
90d65235774a6d7b96f87192d098c929,western_union,FARM GUAD YURIRIA CENTRO,,Yuriria,GUANAJUATO,,MX,+52 800 833 4700,https://location.westernunion.com/mx/guanajuato/yuriria/90d65235774a6d7b96f87192d098c929,Mo-Su 08:00-22:00,Western Union,Q861042
cdfceef95904caf48e4165b480489d9a,western_union,CAJA POPULAR ALIANZA YURIRIA,,Yuriria,GUANAJUATO,,MX,+52 81 2133 2160,https://location.westernunion.com/mx/guanajuato/yuriria/cdfceef95904caf48e4165b480489d9a,Mo-Fr 08:00-17:00; Sa 08:00-13:00,Western Union,Q861042
7749e8c0023795960599e1e888935d95,western_union,CAJA POPULAR ALIANZA YURIRIA,,Yuriria,GUANAJUATO,,MX,+52 81 2133 2160,https://location.westernunion.com/mx/guanajuato/yuriria/7749e8c0023795960599e1e888935d95,Mo-Fr 08:00-17:00; Sa 08:00-13:00,Western Union,Q861042
4ae69491e251a729f68eb3db815a1536,western_union,OXXO YURIRIA CONVENTO MLM,,Yuriria,GUANAJUATO,,MX,+52 81 8389 2121,https://location.westernunion.com/mx/guanajuato/yuriria/4ae69491e251a729f68eb3db815a1536,Mo-Su 08:00-22:00,Western Union,Q861042
6e385580e8a7552cd5c4a46a39489d22,western_union,OXXO YURIRIA CONVENTO MLM,,Yuriria,GUANAJUATO,,MX,+52 81 8389 2121,https://location.westernunion.com/mx/guanajuato/yuriria/6e385580e8a7552cd5c4a46a39489d22,Mo-Su 08:00-22:00,Western Union,Q861042
f0c1bf626003773cd5907a44b6e48b42,western_union,OXXO YURIRIA CONVENTO MLM,,Yuriria,GUANAJUATO,,MX,+52 81 8389 2121,https://location.westernunion.com/mx/guanajuato/yuriria/f0c1bf626003773cd5907a44b6e48b42,Mo-Su 08:00-22:00,Western Union,Q861042
926eed91632cce98cd43b7ba2cfaacd0,western_union,EL BODEGON YURIRIA,,Yuriria,GUANAJUATO,,MX,+52 445 168 5836,https://location.westernunion.com/mx/guanajuato/yuriria/926eed91632cce98cd43b7ba2cfaacd0,Mo-Sa 10:00-20:30; Su 10:00-14:00,Western Union,Q861042
832186e34feb5a9b2999b8975141ed37,western_union,EL BODEGON YURIRIA,,Yuriria,GUANAJUATO,,MX,+52 445 168 5836,https://location.westernunion.com/mx/guanajuato/yuriria/832186e34feb5a9b2999b8975141ed37,Mo-Sa 10:00-20:30; Su 10:00-14:00,Western Union,Q861042
cad07df7a654449da24f8bd524f63a82,western_union,EL BODEGON YURIRIA,,Yuriria,GUANAJUATO,,MX,+52 445 168 5836,https://location.westernunion.com/mx/guanajuato/yuriria/cad07df7a654449da24f8bd524f63a82,Mo-Sa 10:00-20:30; Su 10:00-14:00,Western Union,Q861042
60867f0de971d01202030f7c13526dfa,western_union,FARMAPRONTO 1 AP CASH,,Yuriria,GUANAJUATO,,MX,+52 445 168 4035,https://location.westernunion.com/mx/guanajuato/yuriria/60867f0de971d01202030f7c13526dfa,Mo-Su 09:00-16:00,Western Union,Q861042
fcc06149ba49d713a5d98bacb42fccb5,western_union,FARMAPRONTO 1 AP CASH,,Yuriria,GUANAJUATO,,MX,+52 445 168 4035,https://location.westernunion.com/mx/guanajuato/yuriria/fcc06149ba49d713a5d98bacb42fccb5,Mo-Su 09:00-16:00,Western Union,Q861042
07ba23399a7199c3fb8e96545e2b7224,western_union,FARMAPRONTO 1 AP CASH,,Yuriria,GUANAJUATO,,MX,+52 445 168 4035,https://location.westernunion.com/mx/guanajuato/yuriria/07ba23399a7199c3fb8e96545e2b7224,Mo-Su 09:00-16:00,Western Union,Q861042
74343eb02f5c4d15797df249423b73f6,western_union,OXXO NINOS HEROES MLM,,Yuriria,GUANAJUATO,,MX,+52 81 8389 2121,https://location.westernunion.com/mx/guanajuato/yuriria/74343eb02f5c4d15797df249423b73f6,Mo-Su 08:00-22:00,Western Union,Q861042
82dbe75ac5f639bfae1b8984ddf45e63,western_union,OXXO NINOS HEROES MLM,,Yuriria,GUANAJUATO,,MX,+52 81 8389 2121,https://location.westernunion.com/mx/guanajuato/yuriria/82dbe75ac5f639bfae1b8984ddf45e63,Mo-Su 08:00-22:00,Western Union,Q861042
47f08c3291bd73444a858ad1dc92e62b,western_union,OXXO NINOS HEROES MLM,,Yuriria,GUANAJUATO,,MX,+52 81 8389 2121,https://location.westernunion.com/mx/guanajuato/yuriria/47f08c3291bd73444a858ad1dc92e62b,Mo-Su 08:00-22:00,Western Union,Q861042
e91b70439dc29b9cc40dad6836478b54,western_union,OXXO YURIRIA MLM,,Yuriria,GUANAJUATO,,MX,+52 81 8389 2121,https://location.westernunion.com/mx/guanajuato/yuriria/e91b70439dc29b9cc40dad6836478b54,Mo-Su 08:00-22:00,Western Union,Q861042
bd5c749363fc25abf178df3d23e7a4fc,western_union,OXXO YURIRIA MLM,,Yuriria,GUANAJUATO,,MX,+52 81 8389 2121,https://location.westernunion.com/mx/guanajuato/yuriria/bd5c749363fc25abf178df3d23e7a4fc,Mo-Su 08:00-22:00,Western Union,Q861042
cbef42f2845b2bc2a183db9f1bdb625f,western_union,OXXO YURIRIA MLM,,Yuriria,GUANAJUATO,,MX,+52 81 8389 2121,https://location.westernunion.com/mx/guanajuato/yuriria/cbef42f2845b2bc2a183db9f1bdb625f,Mo-Su 08:00-22:00,Western Union,Q861042
4d03be0c6d4c4ab73831a89fcd581080,western_union,AURRERA PLAZA YURIRIA 5340,,Yuriria,GUANAJUATO,,MX,+52 800 833 4700,https://location.westernunion.com/mx/guanajuato/yuriria/4d03be0c6d4c4ab73831a89fcd581080,Mo-Su 08:00-22:00,Western Union,Q861042
ddca79d09e9039e7533a7136f7f3d282,western_union,AURRERA PLAZA YURIRIA 5340,,Yuriria,GUANAJUATO,,MX,+52 800 833 4700,https://location.westernunion.com/mx/guanajuato/yuriria/ddca79d09e9039e7533a7136f7f3d282,Mo-Su 08:00-22:00,Western Union,Q861042
00fb6baa6542085572aa270dc7c80c3f,western_union,AURRERA PLAZA YURIRIA 5340,,Yuriria,GUANAJUATO,,MX,+52 800 833 4700,https://location.westernunion.com/mx/guanajuato/yuriria/00fb6baa6542085572aa270dc7c80c3f,Mo-Su 08:00-22:00,Western Union,Q861042
db00093e317fc38f3774ff410719b6d4,western_union,LA CASA DEL DISCO IMX,,Yuriria,GUANAJUATO,,MX,+52 800 733 3300,https://location.westernunion.com/mx/guanajuato/yuriria/db00093e317fc38f3774ff410719b6d4,Mo-Su 08:00-16:00,Western Union,Q861042
edff7505598c07e164e3f6b5624ef6b3,western_union,LA CASA DEL DISCO IMX,,Yuriria,GUANAJUATO,,MX,+52 800 733 3300,https://location.westernunion.com/mx/guanajuato/yuriria/edff7505598c07e164e3f6b5624ef6b3,Mo-Su 08:00-16:00,Western Union,Q861042
d7c2aa279ee0a32668eacee2d5a37e60,western_union,LA CASA DEL DISCO IMX,,Yuriria,GUANAJUATO,,MX,+52 800 733 3300,https://location.westernunion.com/mx/guanajuato/yuriria/d7c2aa279ee0a32668eacee2d5a37e60,Mo-Su 08:00-16:00,Western Union,Q861042
08d1225cecea5d5c7bfd88ad453eb7ff,western_union,TIENDAS NETO YURIRIA 1806,,Yuriria,GUANAJUATO,,MX,+52 445 168 5581,https://location.westernunion.com/mx/guanajuato/yuriria/08d1225cecea5d5c7bfd88ad453eb7ff,Mo-Su 07:00-22:00,Western Union,Q861042
f789229ea709b961bc273faa35dd4d8e,western_union,TIENDAS NETO YURIRIA 1806,,Yuriria,GUANAJUATO,,MX,+52 445 168 5581,https://location.westernunion.com/mx/guanajuato/yuriria/f789229ea709b961bc273faa35dd4d8e,Mo-Su 07:00-22:00,Western Union,Q861042
238cef81816a2ff746299f7632130f40,western_union,TIENDAS NETO YURIRIA 1806,,Yuriria,GUANAJUATO,,MX,+52 445 168 5581,https://location.westernunion.com/mx/guanajuato/yuriria/238cef81816a2ff746299f7632130f40,Mo-Su 07:00-22:00,Western Union,Q861042
a6ab729d5cce196452f6557428aaae78,western_union,ISSEG YURIRIA FRAY DIEGO DE CHAVEZ 045,,Yuriria,GUANAJUATO,,MX,+52 800 224 7734,https://location.westernunion.com/mx/guanajuato/yuriria/a6ab729d5cce196452f6557428aaae78,Mo-Su 07:00-21:00,Western Union,Q861042
8f71de87d7a8dd0c290d128953a2da5a,western_union,ISSEG YURIRIA FRAY DIEGO DE CHAVEZ 045,,Yuriria,GUANAJUATO,,MX,+52 800 224 7734,https://location.westernunion.com/mx/guanajuato/yuriria/8f71de87d7a8dd0c290d128953a2da5a,Mo-Su 07:00-21:00,Western Union,Q861042
bee1910663e5209fb0f5a2d5c1b7415d,western_union,ISSEG YURIRIA FRAY DIEGO DE CHAVEZ 045,,Yuriria,GUANAJUATO,,MX,+52 800 224 7734,https://location.westernunion.com/mx/guanajuato/yuriria/bee1910663e5209fb0f5a2d5c1b7415d,Mo-Su 07:00-21:00,Western Union,Q861042
84e42b79426936e9f69070b6057f3d91,western_union,ELEKTRA 6138,,Yuriria,GUANAJUATO,,MX,+52 55 1720 8177,https://location.westernunion.com/mx/guanajuato/yuriria/84e42b79426936e9f69070b6057f3d91,Mo-Su 09:00-21:00,Western Union,Q861042
096381e76f628f4c3d444522cd662423,western_union,ELEKTRA 6138,,Yuriria,GUANAJUATO,,MX,+52 55 1720 8177,https://location.westernunion.com/mx/guanajuato/yuriria/096381e76f628f4c3d444522cd662423,Mo-Su 09:00-21:00,Western Union,Q861042
3ff20f32b56eeea711d0dbfabe0be7dc,western_union,ELEKTRA 6138,,Yuriria,GUANAJUATO,,MX,+52 55 1720 8177,https://location.westernunion.com/mx/guanajuato/yuriria/3ff20f32b56eeea711d0dbfabe0be7dc,Mo-Su 09:00-20:00,Western Union,Q861042
90330aa5c38c777c91502259e379e2b2,western_union,OXXO VALLE MLM,,Yuriria,GUANAJUATO,,MX,+52 81 8389 2121,https://location.westernunion.com/mx/guanajuato/yuriria/90330aa5c38c777c91502259e379e2b2,Mo-Su 08:00-22:00,Western Union,Q861042
b0ce11968c1e5551faae088961ba5a8d,western_union,TELECOMM 11057,,Yuriria,GUANAJUATO,,MX,+52 800 800 8930,https://location.westernunion.com/mx/guanajuato/yuriria/b0ce11968c1e5551faae088961ba5a8d,Mo-Sa 09:00-21:00,Western Union,Q861042
bfc5b77199c74e21ec25433a95ba6e33,western_union,TELECOMM 11057,,Yuriria,GUANAJUATO,,MX,+52 800 800 8930,https://location.westernunion.com/mx/guanajuato/yuriria/bfc5b77199c74e21ec25433a95ba6e33,Mo-Su 09:00-20:00,Western Union,Q861042
5eab57299a227ec3375b8e9117a3b1c4,western_union,FARM GUAD YURIRIA CENTRO,,Yuriria,GUANAJUATO,,MX,+52 800 833 4700,https://location.westernunion.com/mx/guanajuato/yuriria/5eab57299a227ec3375b8e9117a3b1c4,Mo-Su 08:00-22:00,Western Union,Q861042
