Ref,Spider,Name,Address,City,State,Zipcode,Country,Phone,Website,Hours,Brand,WikiData
https://stores.advanceautoparts.com/va/lebanon/53-elliott-st,advance_auto_parts_us,Advance Auto Parts,,Lebanon,VA,,US,+1 276-889-3230,https://stores.advanceautoparts.com/va/lebanon/53-elliott-st,Mo-Sa 07:30-21:00; Su 09:00-20:00,Advance Auto Parts,Q4686051
139910,bluerhino,Lebanon Save-A-Lot #22,,Lebanon,VA,,US,+1 276-889-5104,,,Blue Rhino,Q65681213
161312,bluerhino,Walmart #3480 - Supercenter - Fuel Site,,Lebanon,VA,,US,+1 276-889-1654,,,Blue Rhino,Q65681213
59516,bluerhino,Walmart #3480 - Supercenter,,Lebanon,VA,,US,+1 276-889-1654,,,Blue Rhino,Q65681213
12950,burgerking,Burger King,,Lebanon,VA,,US,+1 276-889-5409,https://www.bk.com/store-locator/store/restaurant_7539,Mo-Su 06:00-22:00,Burger King,Q177054
https://stores.catofashions.com/#26559894,cato_us,Cato,,,VA,,US,+1 276-889-5077,https://stores.catofashions.com/va/lebanon/1078-regional-park-road,Mo-Sa 10:00-19:00; Su 13:00-18:00,Cato,Q16956136
66218,citi,ATM NEW PEOPLES BANK INC,,Lebanon,VA,,US,,,,Citibank,Q857063
73817,citi,ATM Roadrunner Market,,Lebanon,VA,,US,,,,Citibank,Q857063
57174,citi,ATM Food City,,Lebanon,VA,,US,,,,Citibank,Q857063
https://www.edwardjones.com/us-en/financial-advisor/david-coleman,edwardjones,David Coleman Jr,,Lebanon,VA,,US,+1 276-889-3984,https://www.edwardjones.com/us-en/financial-advisor/david-coleman,Mo-Th 09:00-17:00; Fr 09:00-16:00,Edward Jones,Q5343830
200310427,exxonmobil,CARGO II,,LEBANON,VA,,US,+1 276-889-2681,https://www.exxon.com/en/find-station/exxon-lebanon-va-cargoii-200310427,Mo-Th 06:00-22:00; Fr 06:00-23:00; Sa 07:00-23:00; Su 09:00-22:00,Exxon,Q109675651
https://local.fedex.com/#26000459,fedex,,,Lebanon,VA,,US,+1 800-463-3339,https://local.fedex.com/en-us/va/lebanon/trigf,,FedEx,Q459477
Motorcraft2166USAEnglish,ford,Freedom Ford of Lebanon,,Virginia,VA,,US,+1 276-889-2227,,,Ford,Q44294
Motorcraft2168USAEnglish,ford,"Bostic Ford Sales, Inc.",,Virginia,VA,,US,+1 276-889-2222,,,Ford,Q44294
2095,fresenius_kidney_care_us,Fresenius Kidney Care Russell County Dialysis Facility,,Lebanon,VA,,US,+1 800-881-5101,https://www.freseniuskidneycare.com/dialysis-centers/virginia/2095,Mo-Sa 05:00-17:30,,
44495,h_r_block,H&R Block,,Lebanon,VA,,US,+1 276-889-1070,https://www.hrblock.com/local-tax-offices/virginia/lebanon/165-pittston-rd/44495/,,H&R Block,Q5627799
https://locations.kfc.com/#11248126,kfc,Chicken Nuggets Near Lebanon,,Lebanon,VA,,US,,https://locations.kfc.com/va/lebanon/23-elliott-street/chickennugget,Mo-Su 10:00-22:00,KFC,Q524757
https://locations.oreillyauto.com/va/lebanon/check-engine-light-testing-1943.html,oreilly,Your Lebanon O'Reilly Auto Parts Store,,Lebanon,VA,,US,+1 276-889-4217,https://locations.oreillyauto.com/va/lebanon/check-engine-light-testing-1943.html,Mo-Sa 07:30-21:00; Su 09:00-20:00,O'Reilly Auto Parts,Q7071951
https://locations.oreillyauto.com/va/lebanon/wiper-installation-1943.html,oreilly,Your Lebanon O'Reilly Auto Parts Store,,Lebanon,VA,,US,+1 276-889-4217,https://locations.oreillyauto.com/va/lebanon/wiper-installation-1943.html,Mo-Sa 07:30-21:00; Su 09:00-20:00,O'Reilly Auto Parts,Q7071951
https://locations.oreillyauto.com/va/lebanon/battery-testing-1943.html,oreilly,Your Lebanon O'Reilly Auto Parts Store,,Lebanon,VA,,US,+1 276-889-4217,https://locations.oreillyauto.com/va/lebanon/battery-testing-1943.html,Mo-Sa 07:30-21:00; Su 09:00-20:00,O'Reilly Auto Parts,Q7071951
https://locations.oreillyauto.com/va/lebanon/autopartes-1943.html,oreilly,Tu tienda O'Reilly Auto Parts en Lebanon,,Lebanon,VA,,US,+1 276-889-4217,https://locations.oreillyauto.com/va/lebanon/autopartes-1943.html,Mo-Sa 07:30-21:00; Su 09:00-20:00,O'Reilly Auto Parts,Q7071951
va_lebanon_161-pittston-rd,pizza_hut_us,161 Pittston Rd,,Lebanon,VA,,US,+1 276-889-3333,https://locations.pizzahut.com/va/lebanon/161-pittston-rd,,Pizza Hut,Q191615
5096190,ponderosa_bonanza_steakhouse_us,Bonanza Steakhouse,"2243 Main St., Lebanon, VA, 24266, USA",Lebanon,VA,,US,+1 276-889-3621,https://pon-bon.com/locations?location=lebanon-lebanon-va,Mo-Sa 11:00-23:00; Su 11:00-20:00,Bonanza Steakhouse,Q64045992
7206,rentacenter,Rent-A-Center,,Lebanon,VA,,US,+1 276-889-1894,https://locations.rentacenter.com/virginia/lebanon/1062-regional-park-rd/,Mo-Th 10:00-18:00; Fr 10:00-19:00; Sa 09:00-18:00,Rent-A-Center,Q7313497
https://restaurants.subway.com/#14897197,subway,Subway Wal-Mart #3480,,Lebanon Russell,VA,,US,+1 276-889-1397,https://restaurants.subway.com/united-states/va/lebanon/775-regional-park-road,Mo-Su 09:00-22:00,Subway,Q244457
0690217501,sunoco_us,Sunoco,,LEBANON,VA,,US,+1 276-889-5534,,Mo-Sa 06:00-23:00; Su 08:00-23:00,Sunoco,Q1423218
https://locations.tacobell.com/#6146486,taco_bell,Taco Bell,,Lebanon,VA,,US,+1 276-889-2011,https://locations.tacobell.com/va/lebanon/1337-east-main-street.html,Mo-Su 07:00-01:00,Taco Bell,Q752941
1370064,usps,LEBANON,,LEBANON,VA,,US,+1 276-889-1451,,"Mo-Fr 08:00-13:00,14:00-16:30; Sa 08:00-10:00",United States Postal Service,Q668687
2426600006,usps_collection_boxes,USPS COLLECTION BOX - PO LOBBY,304 W MAIN ST,LEBANON,VA,,US,,,,United States Postal Service,Q668687
2426600000,usps_collection_boxes,USPS COLLECTION BOX - BLUE BOX,304 W MAIN ST,LEBANON,VA,,US,,,,United States Postal Service,Q668687
2426600004,usps_collection_boxes,USPS COLLECTION BOX - PO LOBBY,304 W MAIN ST,LEBANON,VA,,US,,,,United States Postal Service,Q668687
A00000253653,verizon_us,Russell Cellular Lebanon Regional Park Rd,,LEBANON,VA,,US,+1 276-880-5990,https://www.verizon.com/stores/details/virginia/lebanon/russell-cellular-lebanon-regional-park-rd-1559922/,Mo-Sa 09:00-19:00; Su 11:00-17:00,Verizon,Q919641
,visa,,,LEBANON,VA,,US,,,,,
,visa,,,LEBANON,VA,,US,,,,,
,visa,,,LEBANON,VA,,US,,,,,
,visa,,,LEBANON,VA,,US,,,,,
,visa,,,LEBANON,VA,,US,,,,,
,visa,,,LEBANON,VA,,US,,,,,
,visa,,,LEBANON,VA,,US,,,,,
,visa,,,LEBANON,VA,,US,,,,,
,visa,,,LEBANON,VA,,US,,,,,
,visa,,,LEBANON,VA,,US,,,,,
,visa,,,LEBANON,VA,,US,,,,,
,visa,,,LEBANON,VA,,US,,,,,
,visa,,,LEBANON,VA,,US,,,,,
,visa,,,LEBANON,VA,,US,,,,,
,visa,,,LEBANON,VA,,US,,,,,
https://www.walgreens.com/locator/walgreens-1005+e+main+st-lebanon-va-24266/id=17362,walgreens,Walgreens,,Lebanon,VA,,US,+1 276-889-4149,https://www.walgreens.com/locator/walgreens-1005+e+main+st-lebanon-va-24266/id=17362,Mo-Fr 09:00-19:00; Sa 09:00-18:00; Su 10:00-18:00,Walgreens,Q1591889
https://locations.wendys.com/#9253576,wendys,"Wendy's Lebanon in Lebanon, VA",,Lebanon,VA,,US,+1 276-889-4492,https://locations.wendys.com/united-states/va/lebanon/21-highland-dr,"Mo-Su 06:00-10:30,07:00-22:00",Wendy's,Q550258
062cac734205e0a43652459502725c48,western_union,WALMART #003480,,Lebanon,VA,,US,+1 276-889-1654,https://location.westernunion.com/us/va/lebanon/062cac734205e0a43652459502725c48,Mo-Su 07:00-21:00,Western Union,Q861042
