Ref,Spider,Name,Address,City,State,Zipcode,Country,Phone,Website,Hours,Brand,WikiData
344284,asics_us,"Fit2Run, The Runner's Superstore - Mayaguez","975 Ave Eugenio Maria de Hostos, 118",Mayaguez,PR,,US,+1 787-986-4004,,Mo-Th 09:00-19:00; Fr-Sa 09:00-21:00; Su 11:00-18:00,asics,Q327247
114788,bluerhino,Supermercado Selectos Mayaguez,,Mayaguez,PR,,US,+1 787-834-0065,,,Blue Rhino,Q65681213
117210,bluerhino,American Gasoline Mayaguez,,Mayaguez,PR,,US,+1 787-969-3497,,,Blue Rhino,Q65681213
150597,bluerhino,Walgreens #0374,,Mayaguez,PR,,US,+1 787-805-4005,,,Blue Rhino,Q65681213
150644,bluerhino,Walgreens #0555,,Mayaguez,PR,,US,+1 787-705-6555,,,Blue Rhino,Q65681213
123594,bluerhino,Tu Almacen Monserrate Gonzalez,,Mayaguez,PR,,US,+1 787-832-4303,,,Blue Rhino,Q65681213
142994,bluerhino,Agro Salud,,Mayaguez,PR,,US,+1 787-473-7890,,,Blue Rhino,Q65681213
25351,bluerhino,Walmart #2067,,Mayaguez,PR,,US,+1 787-834-2280,,,Blue Rhino,Q65681213
131161,bluerhino,Farmacia Las Colinas,,Mayaguez,PR,,US,+1 787-832-6074,,,Blue Rhino,Q65681213
141893,bluerhino,Agrocentro El Mamey,,Mayaguez,PR,,US,+1 787-314-7692,,,Blue Rhino,Q65681213
68187,bluerhino,Walmart #5793-Supercenter,,Coto Laurel,PR,,US,+1 787-842-0405,,,Blue Rhino,Q65681213
1428,burlington_us,Burlington,,Mayaguez,PR,,US,+1 787-665-9390,https://stores.burlington.com/pr/mayaguez/1428,Mo-Th 08:00-23:00; Fr-Sa 08:00-24:00; Su 08:00-23:00,Burlington,Q4999220
81241,citi,ATM Supermercado Selecto,,Mayaguez,PR,,US,,,,Citibank,Q857063
75396,citi,ATM Sammy Odeh Sons,,Mayaguez,PR,,US,,,,Citibank,Q857063
91551,citi,ATM Walgreens,,Mayaguez,PR,,US,,,,Citibank,Q857063
22208,coldstone_creamery,Cold Stone Creamery,,Mayaguez,PR,,US,+1 787-806-2653,https://www.coldstonecreamery.com/stores/22208,,Cold Stone Creamery,Q1094923
E1P108,enterprise,Mayaguez,,Mayaguez,PR,,US,+1 844-794-8596,,,Enterprise Rent-A-Car,Q17085454
E1P16T,enterprise,Enterprise Rent-A-Car,,Mayaguez,PR,,US,+1 787-805-3722,,,Enterprise Rent-A-Car,Q17085454
https://stores.footlocker.com/pr/mayaguez/975-avenida-25016.html,footlocker,"Foot Locker in Mayaguez Mall: Mayaguez, Puerto Rico | Approved | Own It",,Mayaguez,PR,,US,+1 787-833-7366,https://stores.footlocker.com/pr/mayaguez/975-avenida-25016.html,Mo-Th 09:00-19:00; Fr-Sa 09:00-21:00; Su 11:00-18:00,Foot Locker,Q63335
1215,fresenius_kidney_care_us,Fresenius Kidney Care Mayaguez,,Mayaguez,PR,,US,+1 800-881-5101,https://www.freseniuskidneycare.com/dialysis-centers/puerto-rico/1215,Mo-Sa 05:00-21:30,,
138,party_city,Villa Capit√°n Bldg. II,,Mayaguez,PR,,US,+1 787-831-5121,https://stores.partycity.com/us/pr/mayaguez/party-store-pc138.html,,Party City,Q7140896
109,rentacenter,Rent-A-Center,,Mayaguez,PR,,US,+1 787-265-5255,https://locations.rentacenter.com/pr/mayaguez/university-plaza-2099-ave-hostos-ste-101/,Mo-Sa 09:00-18:00,Rent-A-Center,Q7313497
6225,sams_club,Mayaguez Sam's Club,,Mayaguez,PR,,US,+1 787-805-2100,https://www.samsclub.com/club/mayaguez-pr-sams-club/6225,Mo 10:00-20:00; Sa 09:00-20:00; Su 10:00-18:00,Sam's Club,Q1972120
547,shoe_carnival_us,Shoe Carnival,,Mayaguez,PR,,US,+1 787-832-2700,https://stores.shoecarnival.com/pr/mayaguez/shoe-store-mayaguez-pr-547.html,Mo-Sa 09:00-21:00; Su 11:00-19:00,Shoe Carnival,Q7500007
28272,tjx,Hormigueros (Mayaguez),State Road #2KM 159.4,Hormigueros (Mayaguez),PR,,US,+1 787-833-2688,,Mo-Sa 09:00-21:00; Su 10:00-20:00,HomeGoods,Q5887941
10630,tjx,Mayaguez,State Road #2 km. 159.4,Mayaguez,PR,,US,+1 787-833-2688,,Mo-Sa 09:00-21:00; Su 10:00-20:00,Marshalls,Q15903261
117G,tmobile_us,Sam's Club Mayaguez,,Mayaguez,PR,,US,+1 787-803-9284,https://www.t-mobile.com/store-locator/pr/mayaguez/sams-club-mayaguez,,T-Mobile,Q3511885
9444,tmobile_us,Mayaguez Mall,,Mayaguez,PR,,US,+1 787-806-1330,https://www.t-mobile.com/store-locator/pr/mayaguez/mayaguez-mall,,T-Mobile,Q3511885
469F,tmobile_us,Walmart Mayaguez,,Mayaguez,PR,,US,+1 939-606-2003,https://www.t-mobile.com/store-locator/pr/mayaguez/walmart-mayaguez,,T-Mobile,Q3511885
1433951,usps,MAYAGUEZ,,MAYAGUEZ,PR,,US,+1 787-265-3138,,Mo-Fr 07:00-17:00; Sa 08:00-13:00,United States Postal Service,Q668687
0068000088,usps_collection_boxes,USPS COLLECTION BOX - BLUE BOX,2765 AVE HOSTOS,MAYAGUEZ,PR,,US,,,,United States Postal Service,Q668687
0068000073,usps_collection_boxes,USPS COLLECTION BOX - BLUE BOX,205 AVE ALGARROBO,MAYAGUEZ,PR,,US,,,,United States Postal Service,Q668687
0068000076,usps_collection_boxes,USPS COLLECTION BOX - BLUE BOX,1445 CARR 108,MAYAGUEZ,PR,,US,,,,United States Postal Service,Q668687
0068000010,usps_collection_boxes,USPS COLLECTION BOX - BLUE BOX,1064 CALLE LINO MINGUELA,MAYAGUEZ,PR,,US,,,,United States Postal Service,Q668687
0068000019,usps_collection_boxes,USPS COLLECTION BOX - BLUE BOX,270 CALLE DE LA CANDELARIA,MAYAGUEZ,PR,,US,,,,United States Postal Service,Q668687
0068000095,usps_collection_boxes,USPS COLLECTION BOX - PO LOBBY,270 CALLE DE LA CANDELARIA,MAYAGUEZ,PR,,US,,,,United States Postal Service,Q668687
0068000007,usps_collection_boxes,USPS COLLECTION BOX - BLUE BOX,259 BLVD ALFONSO VALDES,MAYAGUEZ,PR,,US,,,,United States Postal Service,Q668687
0068000006,usps_collection_boxes,USPS COLLECTION BOX - BLUE BOX,252 BLVD ALFONSO VALDES,MAYAGUEZ,PR,,US,,,,United States Postal Service,Q668687
0068000041,usps_collection_boxes,USPS COLLECTION BOX - BLUE BOX,101 CALLE MENDEZ VIGO W,MAYAGUEZ,PR,,US,,,,United States Postal Service,Q668687
0068000012,usps_collection_boxes,USPS COLLECTION BOX - BLUE BOX,60 CALLE DE LA CANDELARIA W,MAYAGUEZ,PR,,US,,,,United States Postal Service,Q668687
0068000049,usps_collection_boxes,USPS COLLECTION BOX - BLUE BOX,18 CALLE DR RAMON E BETANCES N,MAYAGUEZ,PR,,US,,,,United States Postal Service,Q668687
0068000028,usps_collection_boxes,USPS COLLECTION BOX - BLUE BOX,15 CALLE DE DIEGO E,MAYAGUEZ,PR,,US,,,,United States Postal Service,Q668687
0068000047,usps_collection_boxes,USPS COLLECTION BOX - BLUE BOX,55 CALLE MEDITACION,MAYAGUEZ,PR,,US,,,,United States Postal Service,Q668687
0068000060,usps_collection_boxes,USPS COLLECTION BOX - BLUE BOX,59 CALLE MARTINZ NDL N,MAYAGUEZ,PR,,US,,,,United States Postal Service,Q668687
0068000094,usps_collection_boxes,USPS COLLECTION BOX - PO LOBBY,60 CALLE DE LA CANDELARIA W,MAYAGUEZ,PR,,US,,,,United States Postal Service,Q668687
0068000097,usps_collection_boxes,USPS COLLECTION BOX - PO LOBBY,60 CALLE DE LA CANDELARIA W,MAYAGUEZ,PR,,US,,,,United States Postal Service,Q668687
0068000091,usps_collection_boxes,USPS COLLECTION BOX - BLUE BOX,8 CALLE PERAL S,MAYAGUEZ,PR,,US,,,,United States Postal Service,Q668687
0068000042,usps_collection_boxes,USPS COLLECTION BOX - BLUE BOX,6 CALLE SANTIAGO R PALMER E,MAYAGUEZ,PR,,US,,,,United States Postal Service,Q668687
0068000027,usps_collection_boxes,USPS COLLECTION BOX - BLUE BOX,50 CALLE NENADICH W,MAYAGUEZ,PR,,US,,,,United States Postal Service,Q668687
0068000032,usps_collection_boxes,USPS COLLECTION BOX - BLUE BOX,119 CALLE DR RAMON E BETANCES S,MAYAGUEZ,PR,,US,,,,United States Postal Service,Q668687
0068000025,usps_collection_boxes,USPS COLLECTION BOX - BLUE BOX,111 CALLE RAMOS ANTONINI E,MAYAGUEZ,PR,,US,,,,United States Postal Service,Q668687
0068000050,usps_collection_boxes,USPS COLLECTION BOX - BLUE BOX,169 CALLE MENDEZ VIGO E,MAYAGUEZ,PR,,US,,,,United States Postal Service,Q668687
0068000098,usps_collection_boxes,USPS COLLECTION BOX - PO LOBBY,270 CALLE DE LA CANDELARIA E,MAYAGUEZ,PR,,US,,,,United States Postal Service,Q668687
0068000065,usps_collection_boxes,USPS COLLECTION BOX - BLUE BOX,1 CALLE 1,MAYAGUEZ,PR,,US,,,,United States Postal Service,Q668687
0068000092,usps_collection_boxes,USPS COLLECTION BOX - BLUE BOX,91 AVE HIRAM D CABASSA,MAYAGUEZ,PR,,US,,,,United States Postal Service,Q668687
0068000023,usps_collection_boxes,USPS COLLECTION BOX - BLUE BOX,1 CALLE AMATISTA,MAYAGUEZ,PR,,US,,,,United States Postal Service,Q668687
0068000005,usps_collection_boxes,USPS COLLECTION BOX - BLUE BOX,233 CALLE SAN RAFAEL,MAYAGUEZ,PR,,US,,,,United States Postal Service,Q668687
0068000024,usps_collection_boxes,USPS COLLECTION BOX - BLUE BOX,345 AVE HOSTOS,MAYAGUEZ,PR,,US,,,,United States Postal Service,Q668687
0068000029,usps_collection_boxes,USPS COLLECTION BOX - BLUE BOX,410 AVE HOSTOS,MAYAGUEZ,PR,,US,,,,United States Postal Service,Q668687
0068000089,usps_collection_boxes,USPS COLLECTION BOX - BLUE BOX,345 CALLE DR RAMON E BETANCES S,MAYAGUEZ,PR,,US,,,,United States Postal Service,Q668687
0068000074,usps_collection_boxes,USPS COLLECTION BOX - BLUE BOX,500 CALLE ROBERTO COLE,MAYAGUEZ,PR,,US,,,,United States Postal Service,Q668687
0068000082,usps_collection_boxes,USPS COLLECTION BOX - BLUE BOX,1040 AVE LOS CORAZONES,MAYAGUEZ,PR,,US,,,,United States Postal Service,Q668687
0068000030,usps_collection_boxes,USPS COLLECTION BOX - BLUE BOX,637 AVE STA TERESA JOURNET,MAYAGUEZ,PR,,US,,,,United States Postal Service,Q668687
0068000021,usps_collection_boxes,USPS COLLECTION BOX - BLUE BOX,1020 CALLE WF BRENNAN,MAYAGUEZ,PR,,US,,,,United States Postal Service,Q668687
0068000018,usps_collection_boxes,USPS COLLECTION BOX - BLUE BOX,830 AVE HOSTOS,MAYAGUEZ,PR,,US,,,,United States Postal Service,Q668687
0068000090,usps_collection_boxes,USPS COLLECTION BOX - BLUE BOX,975 AVE HOSTOS,MAYAGUEZ,PR,,US,,,,United States Postal Service,Q668687
,visa,,,MAYAGUEZ,PR,,US,,,,,
,visa,,,MAYAGUEZ,PR,,US,,,,,
,visa,,,MAYAGUEZ,PR,,US,,,,,
,visa,,,MAYAGUEZ,PR,,US,,,,,
https://www.walgreens.com/locator/walgreens-505+ave+hostos-mayaguez-pr-00680/id=555,walgreens,Walgreens,,Mayaguez,PR,,US,+1 787-831-0674,https://www.walgreens.com/locator/walgreens-505+ave+hostos-mayaguez-pr-00680/id=555,Mo-Su 07:00-22:00,Walgreens,Q1591889
1b109d88af4db1ab2f07b38bea1e1616,western_union,FARMACIA SERRANO,,Mayaguez,PR,,US,+1 787-834-3400,https://location.westernunion.com/us/pr/mayaguez/1b109d88af4db1ab2f07b38bea1e1616,Mo-Sa 08:00-20:00; Su 08:00-18:00,Western Union,Q861042
1f149d3eb4691d988c003ef271aa2baf,western_union,PUEBLO #112 MAYAQUEZ,,Mayaguez,PR,,US,+1 787-834-8730,https://location.westernunion.com/us/pr/mayaguez/1f149d3eb4691d988c003ef271aa2baf,Mo-Sa 06:00-22:00; Su 07:00-21:00,Western Union,Q861042
264fa860f47d933cc3e9d5a4a38cbef9,western_union,WALMART #002067,,Mayaguez,PR,,US,+1 787-652-1174,https://location.westernunion.com/us/pr/mayaguez/264fa860f47d933cc3e9d5a4a38cbef9,Mo-Sa 08:00-20:00; Su 10:00-18:00,Western Union,Q861042
3d75d5f0e0fe996658095266bb292c95,western_union,PUEBLO #153 MAYAQUEZ MALL,,Mayaguez,PR,,US,+1 787-831-2520,https://location.westernunion.com/us/pr/mayaguez/3d75d5f0e0fe996658095266bb292c95,Mo-Sa 06:00-22:00; Su 07:00-21:00,Western Union,Q861042
4ae1e09d48c481c7f20bff587c5a5f9d,western_union,MR SPECIAL #4 MAYAGUEZ,,Mayaguez,PR,,US,+1 787-832-3298,https://location.westernunion.com/us/pr/mayaguez/4ae1e09d48c481c7f20bff587c5a5f9d,Mo-Sa 07:00-19:00; Su 08:00-18:00,Western Union,Q861042
da84bd2a9738d93d46bc76e87d0a4ea1,western_union,MAYAGUEZ HOME TOWN MAIL STORE,,Mayaguez,PR,,US,+1 939-935-9490,https://location.westernunion.com/us/pr/mayaguez/da84bd2a9738d93d46bc76e87d0a4ea1,Mo-Fr 08:30-17:30; Sa 09:00-14:00,Western Union,Q861042
