Ref,Spider,Name,Address,City,State,Zipcode,Country,Phone,Website,Hours,Brand,WikiData
188,anytime_fitness,Anytime Fitness,,Newberg,OR,,US,+1 503-538-3303,https://www.anytimefitness.com/gyms/188/newberg-or-97132/,,Anytime Fitness,Q4778364
2214,autozone_us,AutoZone Auto Parts Newberg,,Newberg,OR,,US,+1 503-537-9214,https://www.autozone.com/locations/or/newberg/2320-portland-rd.html,Mo-Sa 07:30-20:00; Su 08:00-20:00,AutoZone,Q4826087
192995,bluerhino,Nap's Thriftway (MEH LLC),,Newberg,OR,,US,+1 503-538-8286,,,Blue Rhino,Q65681213
147230,bluerhino,Bi-Mart - Newberg #634 - Ace #: 28660,,Newberg,OR,,US,+1 503-538-0631,,,Blue Rhino,Q65681213
168411,bluerhino,Triple Oval Holdings LLC,,Newberg,OR,,US,+1 503-537-9071,,,Blue Rhino,Q65681213
209111,bluerhino,Newberg Ace Hardware #17933,,Newberg,OR,,US,+1 503-538-5460,,,Blue Rhino,Q65681213
150901,bluerhino,Walgreens #6664,,Newberg,OR,,US,+1 503-538-9360,,,Blue Rhino,Q65681213
169189,bluerhino,United Pacific  #5458,,Newberg,OR,,US,+1 503-538-0164,,,Blue Rhino,Q65681213
157501,bluerhino,Fred Meyer #00220 - Fuel Site,,Newberg,OR,,US,+1 503-537-1350,,,Blue Rhino,Q65681213
65519,bluerhino,Fred Meyer #00220,,Newberg,OR,,US,+1 503-537-1350,,,Blue Rhino,Q65681213
162047,bluerhino,Wilco #34069,,Newberg,OR,,US,+1 503-537-2659,,,Blue Rhino,Q65681213
CR006871,bmo,Js Restaurant And Lounge,,Newberg,OR,,US,,,,BMO,Q4835981
10688,brookdale_us,Brookdale Newberg,,Newberg,OR,,US,+1 503-538-1705,https://www.brookdale.com/en/communities/brookdale-newberg.html,,Brookdale,Q4974387
26,burgerville,Burgerville,,Newberg,OR,,US,+1 503-538-0914,https://locations.burgerville.com/burgerville-810f3172935c,Mo-Su 06:00-22:00,Burgerville,Q4998570
19606,chevrolet,NEWBERG CHEVROLET,,Newberg,OR,,US,+1 503-476-3309,https://www.newbergchevrolet.com,Mo-Sa 09:00-19:00; Su 10:00-19:00,Chevrolet,Q29570
306377,chevron,Texaco Station #306377,1902 PORTLAND RD.,NEWBERG,OR,,US,+1 503-537-9071,,,Chevron,Q319642
or_newberg_3105-e-portland-rd,chipotle, ,,Newberg,OR,,US,+1 503-476-9009,https://locations.chipotle.com/or/newberg/3105-e-portland-rd,,Chipotle,Q465751
55678,citi,ATM FIRST FEDERAL S&L MCMINNVILLE,,Newberg,OR,,US,,,,Citibank,Q857063
55677,citi,ATM FIRST FEDERAL S&L MCMINNVILLE,,Newberg,OR,,US,,,,Citibank,Q857063
40850,citi,ATM Circle K,,Newberg,OR,,US,,,,Citibank,Q857063
88382,citi,ATM Walgreens,,Newberg,OR,,US,,,,Citibank,Q857063
66944,citi,ATM ONPOINT COMMUNITY CREDIT UNION,,Newberg,OR,,US,,,,Citibank,Q857063
7222,dominos_pizza_us,Domino's Pizza,,NEWBERG,OR,,US,+1 503-538-7777,https://pizza.dominos.com/oregon/newberg/717-east-1st-street,Mo-Th 10:30-24:00; Fr-Sa 10:30-01:00; Su 10:30-24:00,Domino's,Q839466
DB036,dutchbros,"Newberg, OR (Newberg West)",,Newberg,OR,,US,,https://locations.dutchbros.com/dutch-bros-coffee-0d287ffedcaf,Mo-Th 05:00-22:00; Fr-Sa 05:00-23:00; Su 05:00-22:00,Dutch Bros. Coffee,Q5317253
DB081,dutchbros,"Newberg, OR (Newberg East)",,Newberg,OR,,US,,https://locations.dutchbros.com/dutch-bros-coffee-d740b44fb8fc,Mo-Th 05:00-22:00; Fr-Sa 05:00-23:00; Su 05:00-22:00,Dutch Bros. Coffee,Q5317253
https://www.edwardjones.com/us-en/financial-advisor/joel-brydon,edwardjones,Joel M Brydon,,Newberg,OR,,US,+1 503-538-1162,https://www.edwardjones.com/us-en/financial-advisor/joel-brydon,Mo-Fr 08:00-17:00,Edward Jones,Q5343830
E14676,enterprise,Newberg,,Newberg,OR,,US,+1 503-538-4010,,,Enterprise Rent-A-Car,Q17085454
https://restaurants.fiveguys.com/#1018728049,five_guys_us,Five Guys Newberg,,Newberg,OR,,US,+1 971-264-2670,https://restaurants.fiveguys.com/4205-east-crestview-dr,"Mo-Su 11:00-21:30,11:00-22:00",Five Guys,Q1131810
377905,follett,Bruin Store,,Newberg,OR,,US,+1 503-554-2540,https://www.bkstr.com/georgefoxstore/home,Mo-Fr 09:00-17:00; Sa 10:00-18:00; Su 10:00-14:00,,
Motorcraft5035USAEnglish,ford,Newberg Ford,,Oregon,OR,,US,+1 503-538-2171,,,Ford,Q44294
https://www.ford.com/dealerships/dealer-details/or/newberg/newberg-ford/,ford_dealers_us,Newberg Ford,,Newberg,OR,,US,+1 971-385-4189,https://www.ford.com/dealerships/dealer-details/or/newberg/newberg-ford/,Mo-Sa 08:30-19:00; Su 10:00-18:00,Ford Motor Company,Q44294
4901,fresenius_kidney_care_us,Fresenius Kidney Care Newberg,,Newberg,OR,,US,+1 800-881-5101,https://www.freseniuskidneycare.com/dialysis-centers/oregon/4901,Mo 05:00-16:30; Tu 05:00-23:30; We 05:00-16:30; Th 05:00-23:30; Fr 05:00-16:30; Sa 05:00-23:30,,
c9c56c8d-f932-e211-bd7d-005056934050,goodwill,NEWBERG Store,,Newberg,OR,,US,,https://www.goodwill.org/locator/location/?store=YzljNTZjOGQtZjkzMi1lMjExLWJkN2QtMDA1MDU2OTM0MDUw&lat=NDUuMzAyMzY=&lng=LTEyMi45NTc2Mw==,,Goodwill,Q5583655
https://salons.greatclips.com/us/or/newberg/901-n-brutscher-st,greatclips,Great Clips,,Newberg,OR,,US,+1 503-538-6943,https://salons.greatclips.com/us/or/newberg/901-n-brutscher-st,Mo-Fr 09:30-18:00; Sa 09:00-17:00; Su 10:00-18:00,Great Clips,Q5598967
36338,h_r_block,H&R Block,,Newberg,OR,,US,+1 503-538-3640,https://www.hrblock.com/local-tax-offices/oregon/newberg/2504-e-portland-rd/36338/,,H&R Block,Q5627799
https://office.jacksonhewitt.com/#27576978,jackson_hewitt,Jackson Hewitt,,Newberg,OR,,US,+1 503-538-6910,https://office.jacksonhewitt.com/tax-preparation-services-locations/en/or/newberg/3300-portland-road/71674,We-Sa 11:00-19:00,Jackson Hewitt,Q6117132
https://healthy.kaiserpermanente.org/oregon-washington/facilities/retina-consultants-llc-newberg-174328,kaiser_permanente_us,"Retina Consultants, LLC - Newberg",,Newberg,OR,,US,+1 503-371-4350,https://healthy.kaiserpermanente.org/oregon-washington/facilities/retina-consultants-llc-newberg-174328,,Kaiser Permanente,Q1721601
https://healthy.kaiserpermanente.org/oregon-washington/facilities/providence-home-health-yamhill-422757,kaiser_permanente_us,Providence Home Health Yamhill,,Newberg,OR,,US,+1 503-215-4646,https://healthy.kaiserpermanente.org/oregon-washington/facilities/providence-home-health-yamhill-422757,,Kaiser Permanente,Q1721601
https://healthy.kaiserpermanente.org/oregon-washington/facilities/pnrs-newberg-dialysis-center-343452,kaiser_permanente_us,PNRS - Newberg Dialysis Center,,Newberg,OR,,US,+1 503-537-0100,https://healthy.kaiserpermanente.org/oregon-washington/facilities/pnrs-newberg-dialysis-center-343452,,Kaiser Permanente,Q1721601
https://healthy.kaiserpermanente.org/oregon-washington/facilities/newberg-urgent-care-and-medical-center-337115,kaiser_permanente_us,Newberg Urgent Care and Medical Center,,Newberg,OR,,US,+1 800-813-2000,https://healthy.kaiserpermanente.org/oregon-washington/facilities/newberg-urgent-care-and-medical-center-337115,,Kaiser Permanente,Q1721601
https://healthy.kaiserpermanente.org/oregon-washington/facilities/hazelden-betty-ford-foundation-369319,kaiser_permanente_us,Hazelden Betty Ford Foundation,,Newberg,OR,,US,+1 503-554-4300,https://healthy.kaiserpermanente.org/oregon-washington/facilities/hazelden-betty-ford-foundation-369319,,Kaiser Permanente,Q1721601
https://healthy.kaiserpermanente.org/oregon-washington/facilities/eye-health-northwest-pc-portland-road-174216,kaiser_permanente_us,"Eye Health Northwest, PC - Portland Road",,Newberg,OR,,US,+1 503-538-1341,https://healthy.kaiserpermanente.org/oregon-washington/facilities/eye-health-northwest-pc-portland-road-174216,,Kaiser Permanente,Q1721601
145995,little_free_library,Jerry and Kate Stokes #145995 #145995 Newberg OR,,Newberg,OR,,US,,,,Little Free Library,Q6650101
161314,little_free_library,Martha Brown #161314 Newberg OR,,Newberg,OR,,US,,,,Little Free Library,Q6650101
4888,little_free_library,Mary Lynn Thomas #4888 Newberg OR,,Newberg,OR,,US,,,,Little Free Library,Q6650101
30140,little_free_library,Colin Sorensen #30140 Newberg OR,,Newberg,OR,,US,,,,Little Free Library,Q6650101
153971,little_free_library,Yourh Outreach Little Free Library #153971 Newberg OR,,Newberg,OR,,US,,,,Little Free Library,Q6650101
13599,little_free_library,Jennifer Olsen #13599 Newberg OR,,Newberg,OR,,US,,,,Little Free Library,Q6650101
153972,little_free_library,River Street Blue House LFL #153972 Newberg OR,,Newberg,OR,,US,,,,Little Free Library,Q6650101
10240,little_free_library,Lori Dickson #10240 Newberg Or,,Newberg,OR,,US,,,,Little Free Library,Q6650101
93055,little_free_library,Sarah Sahli #93055 Newberg OR,,Newberg,OR,,US,,,,Little Free Library,Q6650101
132219,little_free_library,Ned Knight #132219 Newberg OR,,Newberg,OR,,US,,,,Little Free Library,Q6650101
30139,little_free_library,Amy Sorensen #30139 Newberg OR,,Newberg,OR,,US,,,,Little Free Library,Q6650101
163153,little_free_library,Brynn Buswell #163153 Newberg Oregon,,Newberg,OR,,US,,,,Little Free Library,Q6650101
78181,little_free_library,Little Paper Airplane Library #78181 Newberg OR,,Newberg,OR,,US,,,,Little Free Library,Q6650101
44639,little_free_library,Children's Little Free Library #44639 Newberg OR,,Newberg,OR,,US,,,,Little Free Library,Q6650101
105527,little_free_library,Highland Books #105527 Newberg OR,,Newberg,OR,,US,,,,Little Free Library,Q6650101
40563,little_free_library,Lizzie Tedder #40563 Newberg OR,,Newberg,OR,,US,,,,Little Free Library,Q6650101
https://locations.modpizza.com/#67934409,modpizza,MOD Pizza Newberg,,Newberg,OR,,US,+1 971-385-4139,https://locations.modpizza.com/usa/or/newberg/4105-e.-crestview-dr.,Mo-We 10:30-22:00; Th-Sa 10:30-23:00; Su 10:30-22:00,MOD Pizza,Q19903469
https://locations.oreillyauto.com/or/newberg/wiper-installation-4000.html,oreilly,Your Newberg O'Reilly Auto Parts Store,,Newberg,OR,,US,+1 503-538-1909,https://locations.oreillyauto.com/or/newberg/wiper-installation-4000.html,Mo-Sa 07:30-21:00; Su 08:00-20:00,O'Reilly Auto Parts,Q7071951
https://locations.oreillyauto.com/or/newberg/check-engine-light-testing-4000.html,oreilly,Your Newberg O'Reilly Auto Parts Store,,Newberg,OR,,US,+1 503-538-1909,https://locations.oreillyauto.com/or/newberg/check-engine-light-testing-4000.html,Mo-Sa 07:30-21:00; Su 08:00-20:00,O'Reilly Auto Parts,Q7071951
https://locations.oreillyauto.com/or/newberg/battery-testing-4000.html,oreilly,Your Newberg O'Reilly Auto Parts Store,,Newberg,OR,,US,+1 503-538-1909,https://locations.oreillyauto.com/or/newberg/battery-testing-4000.html,Mo-Sa 07:30-21:00; Su 08:00-20:00,O'Reilly Auto Parts,Q7071951
https://locations.oreillyauto.com/or/newberg/autopartes-4000.html,oreilly,Tu tienda O'Reilly Auto Parts en Newberg,,Newberg,OR,,US,+1 503-538-1909,https://locations.oreillyauto.com/or/newberg/autopartes-4000.html,Mo-Sa 07:30-21:00; Su 08:00-20:00,O'Reilly Auto Parts,Q7071951
113024,pandaexpress,E Portland Rd & Elliot Rd,,Newberg,OR,,US,+1 503-538-0116,https://www.pandaexpress.com/locations/or/newberg/2401-b-e-portland-rd,Mo-We 10:00-21:30; Th-Fr 10:00-22:00; Sa 09:30-22:00; Su 10:00-21:30,Panda Express,Q1358690
https://locations.papamurphys.com/#15430191,papamurphys,Pizza Takeout & Delivery,,Newberg,OR,,US,+1 503-538-2536,https://locations.papamurphys.com/or/newberg/200-north-main-street,Mo-Su 10:00-21:00,Papa Murphy's,Q7132349
0000880574,phillips_66_conoco_76,CF UNITED APRO LLC 2704458,,NEWBERG,OR,,US,+1 503-538-0164,,,U76,Q1658320
https://www.providence.org/locations/or/newberg-medical-center/orthopedic-services,providence_us,Newberg Orthopedic Services,,Newberg,OR,,US,+1 844-943-1070,https://www.providence.org/locations/or/newberg-medical-center/orthopedic-services,,Providence,Q7252430
https://www.providence.org/locations/or/newberg-medical-plaza,providence_us,Newberg Medical Plaza,,Newberg,OR,,US,,https://www.providence.org/locations/or/newberg-medical-plaza,,Providence,Q7252430
https://www.providence.org/locations/or/newberg-medical-plaza/primary-care-newberg,providence_us,Newberg Primary Care,,Newberg,OR,,US,+1 503-537-5900,https://www.providence.org/locations/or/newberg-medical-plaza/primary-care-newberg,Mo-Fr 06:30-17:30,Providence,Q7252430
https://www.providence.org/locations/or/newberg-medical-plaza/newberg-thoracic-surgery-clinic,providence_us,Thoracic Surgery Clinic,,Newberg,OR,,US,+1 503-215-2300,https://www.providence.org/locations/or/newberg-medical-plaza/newberg-thoracic-surgery-clinic,Mo-Fr 08:00-17:00,Providence,Q7252430
https://www.providence.org/locations/or/newberg-medical-center/sleep-eeg-services,providence_us,Sleep EEG Services,,Newberg,OR,,US,+1 503-537-5649,https://www.providence.org/locations/or/newberg-medical-center/sleep-eeg-services,,Providence,Q7252430
https://www.providence.org/locations/or/newberg-medical-center/cardiac-rehabilitation-center,providence_us,Cardiac Rehabilitation Center Newberg,,Newberg,OR,,US,+1 503-216-1250,https://www.providence.org/locations/or/newberg-medical-center/cardiac-rehabilitation-center,Mo-Th 07:30-16:00,Providence,Q7252430
https://www.providence.org/locations/or/newberg-medical-plaza/newberg-breast-surgery-clinic,providence_us,Breast Surgery Clinic,,Newberg,OR,,US,+1 503-216-6407,https://www.providence.org/locations/or/newberg-medical-plaza/newberg-breast-surgery-clinic,Mo-Fr 08:00-17:00,Providence,Q7252430
https://www.providence.org/locations/or/newberg-medical-center/cancer-institute-newberg-clinic,providence_us,Cancer Institute Newberg Clinic,,Newberg,OR,,US,+1 503-537-6040,https://www.providence.org/locations/or/newberg-medical-center/cancer-institute-newberg-clinic,Mo-Fr 08:00-17:00,Providence,Q7252430
https://www.providence.org/locations/or/newberg-medical-center/outpatient-infusion,providence_us,Outpatient Infusion,,Newberg,OR,,US,+1 503-537-6040,https://www.providence.org/locations/or/newberg-medical-center/outpatient-infusion,Mo-Fr 08:00-17:00,Providence,Q7252430
https://www.providence.org/locations/or/newberg-specialty-clinic/orthopedic-surgery-newberg,providence_us,Newberg Orthopedic Surgery,,Newberg,OR,,US,+1 503-537-5620 ext. 4,https://www.providence.org/locations/or/newberg-specialty-clinic/orthopedic-surgery-newberg,Mo-Fr 07:30-17:00,Providence,Q7252430
https://www.providence.org/locations/or/newberg-specialty-clinic,providence_us,Newberg Specialty Clinic,,Newberg,OR,,US,+1 503-537-5620,https://www.providence.org/locations/or/newberg-specialty-clinic,,Providence,Q7252430
https://www.providence.org/locations/or/newberg-specialty-clinic/neurological-specialties,providence_us,Neurological Specialties Newberg,,Newberg,OR,,US,+1 503-537-5620 ext. 3,https://www.providence.org/locations/or/newberg-specialty-clinic/neurological-specialties,Mo-Fr 07:30-17:00,Providence,Q7252430
https://www.providence.org/locations/or/newberg-specialty-clinic/ear-nose-and-throat,providence_us,Ear Nose and Throat Newberg,,Newberg,OR,,US,+1 503-537-5620 ext. 2,https://www.providence.org/locations/or/newberg-specialty-clinic/ear-nose-and-throat,Mo-Fr 07:30-17:00,Providence,Q7252430
https://www.providence.org/locations/or/newberg-medical-plaza/newberg-laboratory,providence_us,Laboratory,,Newberg,OR,,US,+1 503-215-6555,https://www.providence.org/locations/or/newberg-medical-plaza/newberg-laboratory,Mo-Fr 07:00-16:00; Sa 07:00-13:00,Providence,Q7252430
https://www.providence.org/locations/or/newberg-medical-center/occupational-medicine,providence_us,Occupational Medicine Newberg,,Newberg,OR,,US,+1 503-216-7960,https://www.providence.org/locations/or/newberg-medical-center/occupational-medicine,Mo-Fr 08:00-12:00,Providence,Q7252430
https://www.providence.org/locations/or/newberg-medical-center/lactation-services,providence_us,Lactaction Services,,Newberg,OR,,US,+1 503-537-1400,https://www.providence.org/locations/or/newberg-medical-center/lactation-services,Mo-Sa 08:00-16:30,Providence,Q7252430
https://www.providence.org/locations/or/newberg-medical-center/diagnostic-imaging,providence_us,Diagnostic Imaging,,Newberg,OR,,US,+1 503-537-1780,https://www.providence.org/locations/or/newberg-medical-center/diagnostic-imaging,,Providence,Q7252430
https://www.providence.org/locations/or/newberg-medical-center/colorectal-cancer-screening,providence_us,Newberg Colorectal Cancer Screening,,Newberg,OR,,US,+1 844-972-1299,https://www.providence.org/locations/or/newberg-medical-center/colorectal-cancer-screening,,Providence,Q7252430
https://www.providence.org/locations/or/newberg-medical-center/rehabilitation,providence_us,Newberg Rehab,,Newberg,OR,,US,+1 503-537-1863,https://www.providence.org/locations/or/newberg-medical-center/rehabilitation,Mo-Fr 07:00-18:30,Providence,Q7252430
https://www.providence.org/locations/or/newberg-medical-center,providence_us,Newberg Medical Center,,Newberg,OR,,US,+1 503-537-1555,https://www.providence.org/locations/or/newberg-medical-center,,Providence,Q7252430
https://www.providence.org/locations/or/newberg-medical-center/newberg-birth-center,providence_us,Newberg Birth Center,,Newberg,OR,,US,+1 503-537-1758,https://www.providence.org/locations/or/newberg-medical-center/newberg-birth-center,,Providence,Q7252430
https://www.providence.org/locations/or/newberg-medical-center/laboratory,providence_us,Laboratory,,Newberg,OR,,US,+1 503-215-6555,https://www.providence.org/locations/or/newberg-medical-center/laboratory,Mo-Fr 08:00-16:00,Providence,Q7252430
https://www.providence.org/locations/or/newberg-medical-center/anticoagulation-clinic,providence_us,Anticoagulation Clinic,,Newberg,OR,,US,+1 503-537-5872,https://www.providence.org/locations/or/newberg-medical-center/anticoagulation-clinic,,Providence,Q7252430
https://www.providence.org/locations/or/newberg-medical-center/heart-rhythm-consultants,providence_us,Newberg Heart Rhythm Consultants,,Newberg,OR,,US,+1 503-216-1661,https://www.providence.org/locations/or/newberg-medical-center/heart-rhythm-consultants,Mo-Fr 08:00-17:00,Providence,Q7252430
https://www.providence.org/locations/or/newberg-medical-center/heart-clinic,providence_us,Newberg Heart Clinic,,Newberg,OR,,US,+1 844-972-1298,https://www.providence.org/locations/or/newberg-medical-center/heart-clinic,,Providence,Q7252430
https://www.providence.org/locations/or/newberg-specialty-clinic/surgery-newberg,providence_us,Surgery Newberg,,Newberg,OR,,US,503-537-5620 ext. Option 1,https://www.providence.org/locations/or/newberg-specialty-clinic/surgery-newberg,Mo-Fr 07:30-17:00,Providence,Q7252430
https://www.providence.org/locations/or/newberg-medical-center/surgical-services,providence_us,Surgical Services,,Newberg,OR,,US,+1 503-537-1555,https://www.providence.org/locations/or/newberg-medical-center/surgical-services,,Providence,Q7252430
https://www.providence.org/locations/or/newberg-medical-center/pre-surgery-care-clinic,providence_us,Pre Surgery Care Clinic Newberg,,Newberg,OR,,US,+1 503-537-5832,https://www.providence.org/locations/or/newberg-medical-center/pre-surgery-care-clinic,Mo-Fr 09:00-17:00,Providence,Q7252430
https://www.providence.org/locations/or/childrens-development-institute-newberg,providence_us,Childrens Development Institute Newberg,,Newberg,OR,,US,+1 503-216-2339,https://www.providence.org/locations/or/childrens-development-institute-newberg,Mo-Fr 08:00-17:30,Providence,Q7252430
https://www.providence.org/locations/or/home-health-hospice-and-palliative-care,providence_us,Home Health Hospice and Palliative Care,,Newberg,OR,,US,+1 503-537-1462,https://www.providence.org/locations/or/home-health-hospice-and-palliative-care,,Providence,Q7252430
https://www.providence.org/locations/or/newberg-public-schools-health-center,providence_us,Newberg Public Schools Health Center,,Newberg,OR,,US,+1 971-231-5855,https://www.providence.org/locations/or/newberg-public-schools-health-center,Mo-Fr 01:00-05:00,Providence,Q7252430
993526,rocket_us,Rocket,,Newberg,OR,,US,+1 503-538-0164,,,Rocket,Q121513516
2369,round_table_pizza,Round Table Pizza 2512 Portland Rd,,Newberg ,OR,,US,+1 971-281-8900,https://new-ordering.roundtablepizza.com/menu/newberg-portland-rd,,Round Table Pizza,Q7371139
https://local.pharmacy.safeway.com/#5673503,safeway,Safeway Pharmacy,,Newberg,OR,,US,+1 503-538-2430,https://local.pharmacy.safeway.com/safeway/or/newberg/1140-n-springbrook-rd.html,,Safeway,Q1508234
https://local.safeway.com/#5604411,safeway,Safeway,,Newberg,OR,,US,+1 503-537-4001,https://local.safeway.com/safeway/or/newberg/1140-n-springbrook-rd.html,,Safeway,Q1508234
https://restaurants.subway.com/#14898918,subway,Subway,,Newberg Yamhill,OR,,US,+1 503-538-8740,https://restaurants.subway.com/united-states/or/newberg/1006-n-springbrook-rd,Mo-Su 08:30-21:30,Subway,Q244457
https://restaurants.subway.com/#14902021,subway,Subway,,Newberg Yamhill,OR,,US,+1 503-554-1395,https://restaurants.subway.com/united-states/or/newberg/100-s-harrison-st,Mo-Su 08:30-21:30,Subway,Q244457
https://locations.tacobell.com/#6144081,taco_bell,Taco Bell,,Newberg,OR,,US,+1 503-538-7319,https://locations.tacobell.com/or/newberg/3420-portland-road.html,Mo-Su 07:00-03:00,Taco Bell,Q752941
413G,tmobile_us,Crestview Crossing,,Newberg,OR,,US,+1 971-405-5519,https://www.t-mobile.com/store-locator/or/newberg/crestview-crossing,,T-Mobile,Q3511885
3926,upsstore,Newberg,901 Brutscher St Ste D,Newberg,OR,,US,+1 503-554-1959,https://locations.theupsstore.com/or/newberg/901-brutscher-st,,UPS Store,Q7771029
1374929,usps,NEWBERG,,NEWBERG,OR,,US,+1 503-554-8014,,Mo-Fr 09:00-17:00,United States Postal Service,Q668687
1374928,usps,NEWBERG DCU,,NEWBERG,OR,,US,+1 503-538-0561,,,United States Postal Service,Q668687
9713200027,usps_collection_boxes,USPS COLLECTION BOX - BLUE BOX,112 E 1ST ST,NEWBERG,OR,,US,,,,United States Postal Service,Q668687
9713200011,usps_collection_boxes,USPS COLLECTION BOX - BLUE BOX,701 E 3RD ST,NEWBERG,OR,,US,,,,United States Postal Service,Q668687
9713200022,usps_collection_boxes,USPS COLLECTION BOX - BLUE BOX,401 E 1ST ST,NEWBERG,OR,,US,,,,United States Postal Service,Q668687
9713200028,usps_collection_boxes,USPS COLLECTION BOX - PO LOBBY,401 E 1ST ST,NEWBERG,OR,,US,,,,United States Postal Service,Q668687
9713200023,usps_collection_boxes,USPS COLLECTION BOX - BLUE BOX,401 E 1ST ST,NEWBERG,OR,,US,,,,United States Postal Service,Q668687
9713200024,usps_collection_boxes,USPS COLLECTION BOX - BLUE BOX,401 E 1ST ST,NEWBERG,OR,,US,,,,United States Postal Service,Q668687
9713200025,usps_collection_boxes,USPS COLLECTION BOX - PO LOBBY,401 E 1ST ST,NEWBERG,OR,,US,,,,United States Postal Service,Q668687
9713200012,usps_collection_boxes,USPS COLLECTION BOX - BLUE BOX,301 S RIVER ST,NEWBERG,OR,,US,,,,United States Postal Service,Q668687
9713200008,usps_collection_boxes,USPS COLLECTION BOX - BLUE BOX,124 N EVEREST RD,NEWBERG,OR,,US,,,,United States Postal Service,Q668687
9713200007,usps_collection_boxes,USPS COLLECTION BOX - BLUE BOX,1000 N SPRINGBROOK RD,NEWBERG,OR,,US,,,,United States Postal Service,Q668687
9713200006,usps_collection_boxes,USPS COLLECTION BOX - BLUE BOX,1000 N SPRINGBROOK RD,NEWBERG,OR,,US,,,,United States Postal Service,Q668687
9713200020,usps_collection_boxes,USPS COLLECTION BOX - BLUE BOX,1000 N SPRINGBROOK RD,NEWBERG,OR,,US,,,,United States Postal Service,Q668687
9713200021,usps_collection_boxes,USPS COLLECTION BOX - BLUE BOX,3300 PORTLAND RD,NEWBERG,OR,,US,,,,United States Postal Service,Q668687
9713200030,usps_collection_boxes,USPS COLLECTION BOX - PO LOBBY,3745 PORTLAND RD,NEWBERG,OR,,US,,,,United States Postal Service,Q668687
A00000152780,verizon_us,Victra Newberg,,NEWBERG,OR,,US,+1 503-538-6500,https://www.verizon.com/stores/details/oregon/newberg/gowireless-newberg-1730522/,Mo-Sa 10:00-19:00,Verizon,Q919641
,visa,,,NEWBERG,OR,,US,,,,,
,visa,,,NEWBERG,OR,,US,,,,,
,visa,,,NEWBERG,OR,,US,,,,,
,visa,,,NEWBERG,OR,,US,,,,,
,visa,,,NEWBERG,OR,,US,,,,,
,visa,,,NEWBERG,OR,,US,,,,,
,visa,,,NEWBERG,OR,,US,,,,,
,visa,,,NEWBERG,OR,,US,,,,,
,visa,,,NEWBERG,OR,,US,,,,,
,visa,,,NEWBERG,OR,,US,,,,,
,visa,,,NEWBERG,OR,,US,,,,,
,visa,,,NEWBERG,OR,,US,,,,,
,visa,,,NEWBERG,OR,,US,,,,,
,visa,,,NEWBURG,OR,,US,,,,,
,visa,,,NEWBERG,OR,,US,,,,,
,visa,,,NEWBERG,OR,,US,,,,,
,visa,,,NEWBERG,OR,,US,,,,,
,visa,,,NEWBERG,OR,,US,,,,,
,visa,,,NEWBURG,OR,,US,,,,,
,visa,,,NEWBERG,OR,,US,,,,,
,visa,,,NEWBERG,OR,,US,,,,,
,visa,,,NEWBERG,OR,,US,,,,,
,visa,,,NEWBERG,OR,,US,,,,,
,visa,,,NEWBERG,OR,,US,,,,,
,visa,,,NEWBURG,OR,,US,,,,,
,visa,,,NEWBURG,OR,,US,,,,,
,visa,,,NEWBERG,OR,,US,,,,,
,visa,,,NEWBERG,OR,,US,,,,,
,visa,,,NEWBERG,OR,,US,,,,,
,visa,,,NEWBERG,OR,,US,,,,,
,visa,,,NEWBERG,OR,,US,,,,,
,visa,,,NEWBERG,OR,,US,,,,,
,visa,,,NEWBERG,OR,,US,,,,,
,visa,,,NEWBERG,OR,,US,,,,,
,visa,,,NEWBERG,OR,,US,,,,,
,visa,,,NEWBURG,OR,,US,,,,,
,visa,,,NEWBERG,OR,,US,,,,,
,visa,,,NEWBERG,OR,,US,,,,,
,visa,,,NEWBERG,OR,,US,,,,,
,visa,,,NEWBERG,OR,,US,,,,,
,visa,,,NEWBURG,OR,,US,,,,,
,visa,,,NEWBERG,OR,,US,,,,,
,visa,,,NEWBERG,OR,,US,,,,,
https://www.walgreens.com/locator/walgreens-1840+e+portland+rd-newberg-or-97132/id=6664,walgreens,Walgreens,,Newberg,OR,,US,+1 503-538-9360,https://www.walgreens.com/locator/walgreens-1840+e+portland+rd-newberg-or-97132/id=6664,Mo-Su 07:00-22:00,Walgreens,Q1591889
601__E__1ST__ST_NEWBERG_OR_97132,wellsfargo,Wells Fargo,601 E 1ST ST,NEWBERG,OR,,US,+1 503-537-1027,https://www.wellsfargo.com/locator/bank/601__E__1ST__ST_NEWBERG_OR_97132/,Mo-Fr 09:00-17:00,Wells Fargo,Q744149
https://locations.wendys.com/#9254482,wendys,"Wendy's Newberg in Newberg, OR",,Newberg,OR,,US,+1 503-537-9433,https://locations.wendys.com/united-states/or/newberg/3400-portland-rd,"Mo-Su 06:30-10:30,06:30-22:00",Wendy's,Q550258
