Ref,Spider,Name,Address,City,State,Zipcode,Country,Phone,Website,Hours,Brand,WikiData
RBLA_GT_10037676,shell,SHELL LUPITA,,SAN AGUSTIN ACASAGUASTLAN,EL PROGRESO,,GT,+502 4209 0909,,24/7,Shell,Q110716465
RBLA_GT_10090141,shell,SHELL MORAZAN,,MORAZAN,EL PROGRESO,,GT,+502 4950 3535,,24/7,Shell,Q110716465
RBLA_GT_10090733,shell,SHELL SANARATE,,SANARATE,EL PROGRESO,,GT,+502 7925 2510,,,Shell,Q110716465
RBLA_GT_10037721,shell,SHELL SAN RAMON,,EL PROGRESO,EL PROGRESO,,GT,+502 3035 9201,,,Shell,Q110716465
RBLA_GT_10091319,shell,SHELL AGUA CALIENTE,,AGUA CALIENTE,EL PROGRESO,,GT,+502 5696 4159,,24/7,Shell,Q110716465
d5762a87a16c5f1adee158ddbb7d68ac,western_union,CYBERSPACE SOLUTIONS BARRIO EL GOLFO,,Guastatoya,EL PROGRESO,,GT,+502 2271 9600,https://location.westernunion.com/gt/el-progreso/guastatoya/d5762a87a16c5f1adee158ddbb7d68ac,Mo-Su 08:00-23:00,Western Union,Q861042
76db7ab8b0217af23d8a50c22cca5211,western_union,CYBERSPACE SOLUTIONS BARRIO EL GOLFO,,Guastatoya,EL PROGRESO,,GT,+502 2271 9600,https://location.westernunion.com/gt/el-progreso/guastatoya/76db7ab8b0217af23d8a50c22cca5211,Mo-Fr 08:00-17:00; Sa 09:00-13:00,Western Union,Q861042
ac3810ebab4a9358c3088e134a4ad31c,western_union,DISTRIBUIDORA SYG MUNDO DE A 3,,San Agustin Acasaguastlan,EL PROGRESO,,GT,+502 2271 9600,https://location.westernunion.com/gt/el-progreso/san-agustin-acasaguastlan/ac3810ebab4a9358c3088e134a4ad31c,Mo-Su 08:00-23:00,Western Union,Q861042
341529b0463f3b5fad5ef339df56a40c,western_union,DISTRIBUIDORA SYG MUNDO DE A 3,,San Agustin Acasaguastlan,EL PROGRESO,,GT,+502 2271 9600,https://location.westernunion.com/gt/el-progreso/san-agustin-acasaguastlan/341529b0463f3b5fad5ef339df56a40c,Mo-Fr 08:00-17:00; Sa 09:00-13:00,Western Union,Q861042
df4a6bfa377da0176b6b3c3f58a38bbf,western_union,COMERCIAL LO DE CHINA,,El Jicaro,EL PROGRESO,,GT,+502 2271 9600,https://location.westernunion.com/gt/el-progreso/el-jicaro/df4a6bfa377da0176b6b3c3f58a38bbf,Mo-Fr 08:00-17:00; Sa 09:00-13:00,Western Union,Q861042
0f59df9f0e8be1a7ec19e7b34035c879,western_union,COMERCIAL LO DE CHINA,,El Jicaro,EL PROGRESO,,GT,+502 2271 9600,https://location.westernunion.com/gt/el-progreso/el-jicaro/0f59df9f0e8be1a7ec19e7b34035c879,Mo-Su 08:00-23:00,Western Union,Q861042
c526462f5e2c763debeab31310e5add5,western_union,CELULAR CENTER ZONA 3,,Sanarate,EL PROGRESO,,GT,+502 2271 9600,https://location.westernunion.com/gt/el-progreso/sanarate/c526462f5e2c763debeab31310e5add5,Mo-Fr 08:00-17:00; Sa 09:00-13:00,Western Union,Q861042
d455fc040e7c3a4facf8159983cea86e,western_union,CELULAR CENTER ZONA 3,,Sanarate,EL PROGRESO,,GT,+502 2271 9600,https://location.westernunion.com/gt/el-progreso/sanarate/d455fc040e7c3a4facf8159983cea86e,Mo-Su 08:00-23:00,Western Union,Q861042
20f0973498923090443b707172a6627d,western_union,COMERCIAL MIS DESEOS,,San Agustin Acasaguastlan,EL PROGRESO,,GT,+502 2271 9600,https://location.westernunion.com/gt/el-progreso/san-agustin-acasaguastlan/20f0973498923090443b707172a6627d,Mo-Su 08:00-23:00,Western Union,Q861042
f70983c0e5ea0891758b2cc49ba7f2e3,western_union,COMERCIAL MIS DESEOS,,San Agustin Acasaguastlan,EL PROGRESO,,GT,+502 2271 9600,https://location.westernunion.com/gt/el-progreso/san-agustin-acasaguastlan/f70983c0e5ea0891758b2cc49ba7f2e3,Mo-Fr 08:00-17:00; Sa 09:00-13:00,Western Union,Q861042
cc813205343c79ab9e3137c77d249532,western_union,MISCELANEA ANGEL,,San Agustin Acasaguastlan,EL PROGRESO,,GT,+502 2271 9600,https://location.westernunion.com/gt/el-progreso/san-agustin-acasaguastlan/cc813205343c79ab9e3137c77d249532,Mo-Su 08:00-23:00,Western Union,Q861042
293f12a5318bd3dfde0f8e32b9228de0,western_union,MISCELANEA ANGEL,,San Agustin Acasaguastlan,EL PROGRESO,,GT,+502 2271 9600,https://location.westernunion.com/gt/el-progreso/san-agustin-acasaguastlan/293f12a5318bd3dfde0f8e32b9228de0,Mo-Fr 08:00-17:00; Sa 09:00-13:00,Western Union,Q861042
eb756dc69b6c8e652d240184a84ebda7,western_union,FARMACIA AL,,Guastatoya,EL PROGRESO,,GT,+502 2271 9600,https://location.westernunion.com/gt/el-progreso/guastatoya/eb756dc69b6c8e652d240184a84ebda7,Mo-Fr 08:00-17:00; Sa 09:00-13:00,Western Union,Q861042
4142d2ba97cfaad5dc9d9f683027de8b,western_union,TIENDA ABI,,Jutiapa,EL PROGRESO,,GT,+503 2271 9600,https://location.westernunion.com/gt/el-progreso/jutiapa/4142d2ba97cfaad5dc9d9f683027de8b,Mo-Su 08:00-23:00,Western Union,Q861042
b3706e0dfcd65fa947bf71a889d9e8d1,western_union,ZAPATERIA MARIELOS,,Jutiapa,EL PROGRESO,,GT,+503 2271 9600,https://location.westernunion.com/gt/el-progreso/jutiapa/b3706e0dfcd65fa947bf71a889d9e8d1,Mo-Su 08:00-23:00,Western Union,Q861042
aad4d8d43dfbdb458fdea87dab8170ea,western_union,ZAPATERIA MARIELOS,,Jutiapa,EL PROGRESO,,GT,+502 2326 6868,https://location.westernunion.com/gt/el-progreso/jutiapa/aad4d8d43dfbdb458fdea87dab8170ea,Mo-Fr 08:00-17:00; Sa 09:00-13:00,Western Union,Q861042
379553b558931004e396eed46c09c983,western_union,TIENDA CONTRERAS II,,Jutiapa,EL PROGRESO,,GT,+502 4788 5245,https://location.westernunion.com/gt/el-progreso/jutiapa/379553b558931004e396eed46c09c983,Mo-Su 08:00-20:00,Western Union,Q861042
b33d4b7824947a7aaa3b77dd2429b938,western_union,VARIEDADES GIOLEX,,San Agustin Acasaguastlan,EL PROGRESO,,GT,+502 2271 9600,https://location.westernunion.com/gt/el-progreso/san-agustin-acasaguastlan/b33d4b7824947a7aaa3b77dd2429b938,Mo-Fr 08:00-17:00; Sa 09:00-13:00,Western Union,Q861042
931bf3220fe3b72b01f046a1087116cf,western_union,VARIEDADES GIOLEX,,San Agustin Acasaguastlan,EL PROGRESO,,GT,+502 2271 9600,https://location.westernunion.com/gt/el-progreso/san-agustin-acasaguastlan/931bf3220fe3b72b01f046a1087116cf,Mo-Su 08:00-23:00,Western Union,Q861042
c198c9034d50f554566fabf823f3dcc2,western_union,COMERCIAL JHOEL,,Guastatoya,EL PROGRESO,,GT,+502 4219 7144,https://location.westernunion.com/gt/el-progreso/guastatoya/c198c9034d50f554566fabf823f3dcc2,Mo-Su 08:00-18:00,Western Union,Q861042
eb6e9adc7990a28e17338bbfe8e82c37,western_union,ROPA AMERICANA VARIEDADES JEIZEL ENRIQUE,,Jutiapa,EL PROGRESO,,GT,+503 2271 9600,https://location.westernunion.com/gt/el-progreso/jutiapa/eb6e9adc7990a28e17338bbfe8e82c37,Mo-Su 08:00-23:00,Western Union,Q861042
c829401cad076d63e49a372590d20d15,western_union,ROPA AMERICANA VARIEDADES JEIZEL ENRIQUE,,Jutiapa,EL PROGRESO,,GT,+502 2271 9600,https://location.westernunion.com/gt/el-progreso/jutiapa/c829401cad076d63e49a372590d20d15,Mo-Fr 08:00-17:00; Sa 09:00-13:00,Western Union,Q861042
bad4e12b1814dc7651cb2dd9235fa8a3,western_union,ACADEMIA DE INGLES MY ENGLISH CLASS,,Jutiapa,EL PROGRESO,,GT,+502 4583 1971,https://location.westernunion.com/gt/el-progreso/jutiapa/bad4e12b1814dc7651cb2dd9235fa8a3,Mo-Fr 08:00-17:00; Sa-Su 07:00-12:00,Western Union,Q861042
4e5a1e18241f5e81a4959f7f29aeca30,western_union,8007 DCLOSET,,Jutiapa,EL PROGRESO,,GT,+502 4214 8474,https://location.westernunion.com/gt/el-progreso/jutiapa/4e5a1e18241f5e81a4959f7f29aeca30,Mo-Su 08:00-17:00,Western Union,Q861042
d37d8ced981510442af91e1ffa221ebb,western_union,BONITO FLORECER,,Jutiapa,EL PROGRESO,,GT,+502 2271 9600,https://location.westernunion.com/gt/el-progreso/jutiapa/d37d8ced981510442af91e1ffa221ebb,Mo-Fr 08:00-17:00; Sa 09:00-13:00,Western Union,Q861042
86a0b1db794047d564c404b94b606b14,western_union,REFACCIONES EL VALLE,,Jutiapa,EL PROGRESO,,GT,+503 2271 9600,https://location.westernunion.com/gt/el-progreso/jutiapa/86a0b1db794047d564c404b94b606b14,Mo-Su 08:00-23:00,Western Union,Q861042
1a805ed7d88d0b8d571647aee027e08c,western_union,REFACCIONES EL VALLE,,Jutiapa,EL PROGRESO,,GT,+502 2326 6868,https://location.westernunion.com/gt/el-progreso/jutiapa/1a805ed7d88d0b8d571647aee027e08c,Mo-Fr 08:00-17:00; Sa 09:00-13:00,Western Union,Q861042
eb7fe5752ce59f27049f8d900c24a357,western_union,UNICELL GONZALEZ,,Sanarate,EL PROGRESO,,GT,+502 2271 9600,https://location.westernunion.com/gt/el-progreso/sanarate/eb7fe5752ce59f27049f8d900c24a357,Mo-Fr 08:00-17:00; Sa 09:00-13:00,Western Union,Q861042
08c2f3b46ebc284aa712a81ee477f66b,western_union,UNICELL GONZALEZ,,Sanarate,EL PROGRESO,,GT,+502 2271 9600,https://location.westernunion.com/gt/el-progreso/sanarate/08c2f3b46ebc284aa712a81ee477f66b,Mo-Su 08:00-23:00,Western Union,Q861042
31a208db3f41a09a00e85202e078be54,western_union,TIENDA Y REFACCIONES LA BENDICION,,Jutiapa,EL PROGRESO,,GT,+503 2271 9600,https://location.westernunion.com/gt/el-progreso/jutiapa/31a208db3f41a09a00e85202e078be54,Mo-Su 08:00-23:00,Western Union,Q861042
7d65474626727b3f4e2eaf914b709a5c,western_union,TIENDA Y REFACCIONES LA BENDICION,,Jutiapa,EL PROGRESO,,GT,+502 2271 9600,https://location.westernunion.com/gt/el-progreso/jutiapa/7d65474626727b3f4e2eaf914b709a5c,Mo-Fr 08:00-17:00; Sa 09:00-13:00,Western Union,Q861042
f1165f7a057d10c9ca8df888496c409a,western_union,TIENDA Y CENTRO DEPORTIVO EL CAMPO,,Guastatoya,EL PROGRESO,,GT,+502 2271 9600,https://location.westernunion.com/gt/el-progreso/guastatoya/f1165f7a057d10c9ca8df888496c409a,Mo-Fr 08:00-17:00; Sa 09:00-13:00,Western Union,Q861042
d95573d61c551822822abd35885a9078,western_union,TIENDA Y CENTRO DEPORTIVO EL CAMPO,,Guastatoya,EL PROGRESO,,GT,+502 2271 9600,https://location.westernunion.com/gt/el-progreso/guastatoya/d95573d61c551822822abd35885a9078,Mo-Su 08:00-23:00,Western Union,Q861042
ca905a3dfcc17f6e34062ad95e9d617b,western_union,6691 FARMACIA EL DESCUENTO NO 3,,Guastatoya,EL PROGRESO,,GT,+502 2420 3000,https://location.westernunion.com/gt/el-progreso/guastatoya/ca905a3dfcc17f6e34062ad95e9d617b,Mo-Su 08:00-19:00,Western Union,Q861042
bae7caeddfb23a4745304dc506a49692,western_union,S A S EXTREME AUDIO GUASTATOYA Y MAS,,Guastatoya,EL PROGRESO,,GT,+503 2271 9600,https://location.westernunion.com/gt/el-progreso/guastatoya/bae7caeddfb23a4745304dc506a49692,Mo-Su 08:00-23:00,Western Union,Q861042
3a7022f369dfacf9d4188618d478b5ff,western_union,DISTRIBUIDORA ANGELY,,Guastatoya,EL PROGRESO,,GT,+502 2271 9600,https://location.westernunion.com/gt/el-progreso/guastatoya/3a7022f369dfacf9d4188618d478b5ff,Mo-Su 08:00-23:00,Western Union,Q861042
ef5c19d0b66149971f2f2a150b02ab88,western_union,DISTRIBUIDORA ANGELY,,Guastatoya,EL PROGRESO,,GT,+502 2271 9600,https://location.westernunion.com/gt/el-progreso/guastatoya/ef5c19d0b66149971f2f2a150b02ab88,Mo-Fr 08:00-17:00; Sa 09:00-13:00,Western Union,Q861042
2d0d6a3798fc19b01424e20985eb7137,western_union,GOSPEL MOTOS CENTER,,San Agustin Acasaguastlan,EL PROGRESO,,GT,+502 2271 9600,https://location.westernunion.com/gt/el-progreso/san-agustin-acasaguastlan/2d0d6a3798fc19b01424e20985eb7137,Mo-Su 08:00-23:00,Western Union,Q861042
19321bc8a3594d39dc91ded86c0361f5,western_union,GOSPEL MOTOS CENTER,,San Agustin Acasaguastlan,EL PROGRESO,,GT,+502 2271 9600,https://location.westernunion.com/gt/el-progreso/san-agustin-acasaguastlan/19321bc8a3594d39dc91ded86c0361f5,Mo-Fr 08:00-17:00; Sa 09:00-13:00,Western Union,Q861042
a8ff106ed616b7529d81038d424f0378,western_union,BAZAR FLORECITA II,,San Agustin Acasaguastlan,EL PROGRESO,,GT,+502 2271 9600,https://location.westernunion.com/gt/el-progreso/san-agustin-acasaguastlan/a8ff106ed616b7529d81038d424f0378,Mo-Fr 08:00-17:00; Sa 09:00-13:00,Western Union,Q861042
54a41044980860dcf96a0bdebdc10550,western_union,BAZAR FLORECITA II,,San Agustin Acasaguastlan,EL PROGRESO,,GT,+502 2271 9600,https://location.westernunion.com/gt/el-progreso/san-agustin-acasaguastlan/54a41044980860dcf96a0bdebdc10550,Mo-Su 08:00-23:00,Western Union,Q861042
145f227a6a2e626e0aa545481d3c1559,western_union,6653 CULTORA DE BELLEZA MARYH STYLE,,San Agustin Acasaguastlan,EL PROGRESO,,GT,+502 2420 3000,https://location.westernunion.com/gt/el-progreso/san-agustin-acasaguastlan/145f227a6a2e626e0aa545481d3c1559,Mo-Fr 09:00-18:00; Sa 09:00-16:00,Western Union,Q861042
475d40f2f07ebbc8a0408a62295dd3dc,western_union,7927 MISCELANEA ISABEL,,San Agustin Acasaguastlan,EL PROGRESO,,GT,+502 5757 8306,https://location.westernunion.com/gt/el-progreso/san-agustin-acasaguastlan/475d40f2f07ebbc8a0408a62295dd3dc,Mo-Su 07:00-20:00,Western Union,Q861042
48b0c03aa6e5b0b549ed219766f403c0,western_union,COMPU CENTER CASASOLA,,Morazan,EL PROGRESO,,GT,+502 2271 9600,https://location.westernunion.com/gt/el-progreso/morazan/48b0c03aa6e5b0b549ed219766f403c0,Mo-Su 08:00-23:00,Western Union,Q861042
e95f5037f1061c9b2cabea0d19b4e45e,western_union,COMPU CENTER CASASOLA,,Morazan,EL PROGRESO,,GT,+502 2271 9600,https://location.westernunion.com/gt/el-progreso/morazan/e95f5037f1061c9b2cabea0d19b4e45e,Mo-Fr 08:00-17:00; Sa 09:00-13:00,Western Union,Q861042
3493afe8ccda5711b4d267ce4b9e65da,western_union,TRABAJADORES SANARATE,,Sanarate,EL PROGRESO,,GT,+502 2410 2695,https://location.westernunion.com/gt/el-progreso/sanarate/3493afe8ccda5711b4d267ce4b9e65da,Mo-Fr 09:00-18:00; Sa 09:00-13:00,Western Union,Q861042
5343f488c47099ae3c549ce0834dd2b1,western_union,TRABAJADORES SANARATE,,Sanarate,EL PROGRESO,,GT,+502 2410 2695,https://location.westernunion.com/gt/el-progreso/sanarate/5343f488c47099ae3c549ce0834dd2b1,Mo-Fr 09:00-17:00; Sa 09:00-13:00,Western Union,Q861042
0dd709bacd36c8db3b1a9e3cf1c1d6ee,western_union,4257 MINI SUPER LA COLONIA,,Guastatoya,EL PROGRESO,,GT,+502 2420 3000,https://location.westernunion.com/gt/el-progreso/guastatoya/0dd709bacd36c8db3b1a9e3cf1c1d6ee,Mo-Su 08:00-21:00,Western Union,Q861042
3d7e67e41904b596a870724d8b58b700,western_union,4806 OPTICA BISEL,,Sanarate,EL PROGRESO,,GT,+502 2420 3000,https://location.westernunion.com/gt/el-progreso/sanarate/3d7e67e41904b596a870724d8b58b700,Mo-Fr 08:00-19:00; Sa 08:00-12:00,Western Union,Q861042
e25f7b5faa6bab2bcbb591b672bef2cd,western_union,BANRURAL SANSARE,,Sansare,EL PROGRESO,,GT,+502 2326 6868,https://location.westernunion.com/gt/el-progreso/sansare/e25f7b5faa6bab2bcbb591b672bef2cd,Mo-Su 09:00-20:00,Western Union,Q861042
8701a729af006012352f153927d160b3,western_union,MICOOPE GUAYACAN SANSARE 7,,Sansare,EL PROGRESO,,GT,(+502) 79243000000,https://location.westernunion.com/gt/el-progreso/sansare/8701a729af006012352f153927d160b3,Mo-Su 09:00-20:00,Western Union,Q861042
9c13960faa8aabdbc4c5584229eb0755,western_union,VARIEDADES AZU,,Sansare,EL PROGRESO,,GT,+503 2271 9600,https://location.westernunion.com/gt/el-progreso/sansare/9c13960faa8aabdbc4c5584229eb0755,Mo-Su 08:00-23:00,Western Union,Q861042
06943fa71d261c225ab3c187f18e58b5,western_union,VARIEDADES AZU,,Sansare,EL PROGRESO,,GT,+502 2271 9600,https://location.westernunion.com/gt/el-progreso/sansare/06943fa71d261c225ab3c187f18e58b5,Mo-Fr 08:00-17:00; Sa 09:00-13:00,Western Union,Q861042
8d9f6ee1215f4d43d51db68c6351b60b,western_union,BISA FARMACIA EL DESCUENTO NO 3,,San Antonio La Paz,EL PROGRESO,,GT,+502 5705 0525,https://location.westernunion.com/gt/el-progreso/san-antonio-la-paz/8d9f6ee1215f4d43d51db68c6351b60b,Mo-Fr 08:00-17:00; Sa 08:00-12:00,Western Union,Q861042
1488aadb0b2fc457c463c554808d80b6,western_union,BISA COMERCIAL DEL CAMPO,,Sansare,EL PROGRESO,,GT,+502 5001 0446,https://location.westernunion.com/gt/el-progreso/sansare/1488aadb0b2fc457c463c554808d80b6,Mo-Su 08:00-19:00,Western Union,Q861042
2a70db5ce2a188293444795da4e0a271,western_union,AUTO SERVICIOS PORTALES DE BELEM,,Sansare,EL PROGRESO,,GT,+502 7924 3054,https://location.westernunion.com/gt/el-progreso/sansare/2a70db5ce2a188293444795da4e0a271,Mo-Fr 08:00-18:30; Su 08:00-12:30,Western Union,Q861042
df3678d1fbe3fd8fbebbe560a48d0126,western_union,LICEO SENSARE,,Sansare,EL PROGRESO,,GT,+502 2271 9600,https://location.westernunion.com/gt/el-progreso/sansare/df3678d1fbe3fd8fbebbe560a48d0126,Mo-Fr 08:00-17:00; Sa 09:00-13:00,Western Union,Q861042
cede32ae0fb24d3232ffe6987694befe,western_union,LICEO SENSARE,,Sansare,EL PROGRESO,,GT,+502 2271 9600,https://location.westernunion.com/gt/el-progreso/sansare/cede32ae0fb24d3232ffe6987694befe,Mo-Su 08:00-23:00,Western Union,Q861042
9e30415319c4f4e67e140dbbb843e2c8,western_union,LEO CENTER,,Sansare,EL PROGRESO,,GT,+502 2271 9600,https://location.westernunion.com/gt/el-progreso/sansare/9e30415319c4f4e67e140dbbb843e2c8,Mo-Su 08:00-23:00,Western Union,Q861042
303c6d85254f1ee6fecf4f12124b9545,western_union,LEO CENTER,,Sansare,EL PROGRESO,,GT,+502 2271 9600,https://location.westernunion.com/gt/el-progreso/sansare/303c6d85254f1ee6fecf4f12124b9545,Mo-Fr 08:00-17:00; Sa 09:00-13:00,Western Union,Q861042
5db28ab08dd5d652afff1fbda913322b,western_union,MULTISERVICIOS CASTANEDA,,Sansare,EL PROGRESO,,GT,+502 2271 9600,https://location.westernunion.com/gt/el-progreso/sansare/5db28ab08dd5d652afff1fbda913322b,Mo-Fr 08:00-17:00; Sa 09:00-13:00,Western Union,Q861042
7de07d3d279e44c038a253a10d72d622,western_union,MULTISERVICIOS CASTANEDA,,Sansare,EL PROGRESO,,GT,+502 2271 9600,https://location.westernunion.com/gt/el-progreso/sansare/7de07d3d279e44c038a253a10d72d622,Mo-Su 08:00-23:00,Western Union,Q861042
5bed85fe860014148394c1adee027379,western_union,BANRURAL SANSARE,,Sansare,EL PROGRESO,,GT,+502 2271 9600,https://location.westernunion.com/gt/el-progreso/sansare/5bed85fe860014148394c1adee027379,Mo-Fr 08:00-17:00; Sa 09:00-13:00,Western Union,Q861042
af8b549d11863e581b1dec1abbb5d217,western_union,SERVICIOS PHOENIX,,Sansare,EL PROGRESO,,GT,+502 7933 7406,https://location.westernunion.com/gt/el-progreso/sansare/af8b549d11863e581b1dec1abbb5d217,Mo-Su 08:00-18:00,Western Union,Q861042
5410d7c979f56fa62ebe480938b1e042,western_union,SERVICIOS PHOENIX,,Sansare,EL PROGRESO,,GT,+502 7933 7406,https://location.westernunion.com/gt/el-progreso/sansare/5410d7c979f56fa62ebe480938b1e042,Mo-Su 08:00-18:00,Western Union,Q861042
f1a788b605c443e8fa8ec78061813c55,western_union,12808 AUTOSERVICIOS PORTILLO,,Sanarate,EL PROGRESO,,GT,+502 3024 7892,https://location.westernunion.com/gt/el-progreso/sanarate/f1a788b605c443e8fa8ec78061813c55,Mo-Fr 08:00-20:00; Su 08:00-12:00,Western Union,Q861042
453eeaeedffea9be4a4c9aa929029918,western_union,ZIOELY,,San Antonio La Paz,EL PROGRESO,,GT,+502 4840 6480,https://location.westernunion.com/gt/el-progreso/san-antonio-la-paz/453eeaeedffea9be4a4c9aa929029918,Mo-Fr 08:00-17:00; Sa 08:00-12:00,Western Union,Q861042
6f2857621acf8291759360afc578b312,western_union,ZIOELY,,San Antonio La Paz,EL PROGRESO,,GT,+502 4840 6480,https://location.westernunion.com/gt/el-progreso/san-antonio-la-paz/6f2857621acf8291759360afc578b312,Mo-Fr 08:00-17:00; Sa 08:00-12:00,Western Union,Q861042
322551669a5f54031fb567268b87eb77,western_union,7923 ZIOELY,,San Antonio La Paz,EL PROGRESO,,GT,+502 4840 6480,https://location.westernunion.com/gt/el-progreso/san-antonio-la-paz/322551669a5f54031fb567268b87eb77,Mo-Su 07:30-19:00,Western Union,Q861042
58075b7246bd8fac105f74039eb0e5d3,western_union,GO AUTO,,San Antonio La Paz,EL PROGRESO,,GT,+502 2271 9600,https://location.westernunion.com/gt/el-progreso/san-antonio-la-paz/58075b7246bd8fac105f74039eb0e5d3,Mo-Su 08:00-23:00,Western Union,Q861042
f5622a79aafaf5a7d0dfea145e346af3,western_union,GO AUTO,,San Antonio La Paz,EL PROGRESO,,GT,+502 2271 9600,https://location.westernunion.com/gt/el-progreso/san-antonio-la-paz/f5622a79aafaf5a7d0dfea145e346af3,Mo-Fr 08:00-17:00; Sa 09:00-13:00,Western Union,Q861042
cf0f820d614c36472c15cd51eef5ac19,western_union,MISCELANEA MAGIC,,San Antonio La Paz,EL PROGRESO,,GT,+503 2271 9600,https://location.westernunion.com/gt/el-progreso/san-antonio-la-paz/cf0f820d614c36472c15cd51eef5ac19,Mo-Su 08:00-23:00,Western Union,Q861042
f183e497989edf81df59798bd422977a,western_union,SERVICIOS Y TRANSPORTES JUNIORS,,Sanarate,EL PROGRESO,,GT,+503 2271 9600,https://location.westernunion.com/gt/el-progreso/sanarate/f183e497989edf81df59798bd422977a,Mo-Su 08:00-23:00,Western Union,Q861042
6c7ecb079ad88a90a33d6034fd0cce9c,western_union,SERVICIOS Y TRANSPORTES JUNIORS,,Sanarate,EL PROGRESO,,GT,+502 2271 9600,https://location.westernunion.com/gt/el-progreso/sanarate/6c7ecb079ad88a90a33d6034fd0cce9c,Mo-Fr 08:00-17:00; Sa 09:00-13:00,Western Union,Q861042
50df1e20db2cb7cbf0ccbb4cb0380987,western_union,ZIOELY,,San Antonio La Paz,EL PROGRESO,,GT,+502 2271 9600,https://location.westernunion.com/gt/el-progreso/san-antonio-la-paz/50df1e20db2cb7cbf0ccbb4cb0380987,Mo-Su 08:00-23:00,Western Union,Q861042
63623bdf72262921183cfd70536a6f44,western_union,LIBRERIA PROEZA DE DIOS,,San Antonio La Paz,EL PROGRESO,,GT,+502 2271 9600,https://location.westernunion.com/gt/el-progreso/san-antonio-la-paz/63623bdf72262921183cfd70536a6f44,Mo-Fr 08:00-17:00; Sa 09:00-13:00,Western Union,Q861042
fb77578dddd1d14bcb84be0297607783,western_union,LIBRERIA PROEZA DE DIOS,,San Antonio La Paz,EL PROGRESO,,GT,+502 2271 9600,https://location.westernunion.com/gt/el-progreso/san-antonio-la-paz/fb77578dddd1d14bcb84be0297607783,Mo-Su 08:00-23:00,Western Union,Q861042
a2ad92fff7aaf997f5c82a4f243c86de,western_union,BANRURAL SAN ANTONIO LA PAZ 839,,San Antonio La Paz,EL PROGRESO,,GT,+502 2271 9600,https://location.westernunion.com/gt/el-progreso/san-antonio-la-paz/a2ad92fff7aaf997f5c82a4f243c86de,Mo-Su 08:00-23:00,Western Union,Q861042
9f75756e81c30d2ebdbffd65162ef22a,western_union,BANRURAL SAN ANTONIO LA PAZ 839,,San Antonio La Paz,EL PROGRESO,,GT,+502 2271 9600,https://location.westernunion.com/gt/el-progreso/san-antonio-la-paz/9f75756e81c30d2ebdbffd65162ef22a,Mo-Fr 08:00-17:00; Sa 09:00-13:00,Western Union,Q861042
2e96b1ee4df32f23c361866c432683f7,western_union,SERVICIOS PHOENIX,,Sansare,EL PROGRESO,,GT,+503 2271 9600,https://location.westernunion.com/gt/el-progreso/sansare/2e96b1ee4df32f23c361866c432683f7,Mo-Su 08:00-23:00,Western Union,Q861042
fdb63c50a44269acaa9d549764d68f0a,western_union,BISA TIENDA GONZALEZ,,Sanarate,EL PROGRESO,,GT,+502 4677 4444,https://location.westernunion.com/gt/el-progreso/sanarate/fdb63c50a44269acaa9d549764d68f0a,Mo-Fr 08:00-17:00; Sa 08:00-12:00,Western Union,Q861042
30db580a0652300476edaabe617d74d0,western_union,GYTSA TIENDA FLOR DEL CAMPO,,Sanarate,EL PROGRESO,,GT,+502 4404 4782,https://location.westernunion.com/gt/el-progreso/sanarate/30db580a0652300476edaabe617d74d0,Mo-Fr 08:00-17:00; Sa 08:00-12:00,Western Union,Q861042
db9a53f35cf5f77679137df0cbb9881b,western_union,INTER CYBER FRIENDS Y MULTI ORTIZ RUANO,,Sansare,EL PROGRESO,,GT,+502 2271 9600,https://location.westernunion.com/gt/el-progreso/sansare/db9a53f35cf5f77679137df0cbb9881b,Mo-Su 08:00-23:00,Western Union,Q861042
f2da5f421deef9fef1ad3e9e6b4f9e34,western_union,INTER CYBER FRIENDS Y MULTI ORTIZ RUANO,,Sansare,EL PROGRESO,,GT,+502 2271 9600,https://location.westernunion.com/gt/el-progreso/sansare/f2da5f421deef9fef1ad3e9e6b4f9e34,Mo-Fr 08:00-17:00; Sa 09:00-13:00,Western Union,Q861042
e9c2b302052bc3d527039cf1e3de3d9e,western_union,BISA ROSEL CENTER NET,,San Antonio La Paz,EL PROGRESO,,GT,+502 4037 9771,https://location.westernunion.com/gt/el-progreso/san-antonio-la-paz/e9c2b302052bc3d527039cf1e3de3d9e,Mo-Fr 08:00-17:00; Sa 08:00-12:00,Western Union,Q861042
3ee89ce01b57bed1f1d6bfe2d47741db,western_union,BISA FARMACIA EL DESCUENTO,,San Antonio La Paz,EL PROGRESO,,GT,+502 5705 0525,https://location.westernunion.com/gt/el-progreso/san-antonio-la-paz/3ee89ce01b57bed1f1d6bfe2d47741db,Mo-Fr 08:00-17:00; Sa 08:00-12:00,Western Union,Q861042
591efc726a32d366e4fa2b325e162670,western_union,GASOLINERA EL MANANTIAL,,San Antonio La Paz,EL PROGRESO,,GT,+502 2271 9600,https://location.westernunion.com/gt/el-progreso/san-antonio-la-paz/591efc726a32d366e4fa2b325e162670,Mo-Fr 08:00-17:00; Sa 09:00-13:00,Western Union,Q861042
fb3f6986b1237d9ac68c06a5a721915d,western_union,GASOLINERA EL MANANTIAL,,San Antonio La Paz,EL PROGRESO,,GT,+502 2271 9600,https://location.westernunion.com/gt/el-progreso/san-antonio-la-paz/fb3f6986b1237d9ac68c06a5a721915d,Mo 08:00-08:00; Tu-Su 23:00-08:00,Western Union,Q861042
8e3e483bf57b58947ae62b91dd9a8a04,western_union,BISA TIENDA FLORY,,San Antonio La Paz,EL PROGRESO,,GT,+502 4929 3454,https://location.westernunion.com/gt/el-progreso/san-antonio-la-paz/8e3e483bf57b58947ae62b91dd9a8a04,Mo-Su 08:00-19:00,Western Union,Q861042
6cbd120ef1c84eefe37121efa03ebd49,western_union,HOTEL EL PASO TEXAS,,Sanarate,EL PROGRESO,,GT,+503 2271 9600,https://location.westernunion.com/gt/el-progreso/sanarate/6cbd120ef1c84eefe37121efa03ebd49,Mo-Su 08:00-23:00,Western Union,Q861042
1986a362ad924fcc3c02d449083df996,western_union,LIBRERIA Y VARIEDADES ROXY 2,,Sanarate,EL PROGRESO,,GT,+502 2271 9600,https://location.westernunion.com/gt/el-progreso/sanarate/1986a362ad924fcc3c02d449083df996,Mo-Fr 08:00-17:00; Sa 09:00-13:00,Western Union,Q861042
ae66c87d7e470e1ca18de441ee852358,western_union,LIBRERIA Y VARIEDADES ROXY 2,,Sanarate,EL PROGRESO,,GT,+503 2271 9600,https://location.westernunion.com/gt/el-progreso/sanarate/ae66c87d7e470e1ca18de441ee852358,Mo-Su 08:00-23:00,Western Union,Q861042
4f670f48c38669d1c81a24dffc2ad167,western_union,LIBRERIA Y VARIEDADES ROXY,,Sanarate,EL PROGRESO,,GT,+502 2271 9600,https://location.westernunion.com/gt/el-progreso/sanarate/4f670f48c38669d1c81a24dffc2ad167,Mo-Su 08:00-23:00,Western Union,Q861042
8e48e795f6160f277914b278ca399c03,western_union,LIBRERIA Y VARIEDADES ROXY,,Sanarate,EL PROGRESO,,GT,+502 2271 9600,https://location.westernunion.com/gt/el-progreso/sanarate/8e48e795f6160f277914b278ca399c03,Mo-Fr 08:00-17:00; Sa 09:00-13:00,Western Union,Q861042
9bb6343bb9d92cc13ecc6c1cf44bf657,western_union,12273 COMERCIAL ALTAMIRANO,,Sanarate,EL PROGRESO,,GT,+502 4846 2851,https://location.westernunion.com/gt/el-progreso/sanarate/9bb6343bb9d92cc13ecc6c1cf44bf657,Mo-Fr 07:00-18:00; Sa 08:00-17:00; Su 08:00-13:00,Western Union,Q861042
e107870e24b929c849bae3c0b072d780,western_union,BISA COMERCIAL SAN ANTONIO,,Sanarate,EL PROGRESO,,GT,+502 7925 2824,https://location.westernunion.com/gt/el-progreso/sanarate/e107870e24b929c849bae3c0b072d780,Mo-Fr 08:00-17:00; Sa 08:00-12:00,Western Union,Q861042
cae567afc6f85d18108d454bc9e8a57c,western_union,BISA DESPENSA FAMILIAR SANARATE,,Sanarate,EL PROGRESO,,GT,(+502) 18885736372724,https://location.westernunion.com/gt/el-progreso/sanarate/cae567afc6f85d18108d454bc9e8a57c,Mo-Su 07:00-20:00,Western Union,Q861042
a53082974ff1ad1d20ebfde50dac6850,western_union,1331 DESPENSA FAMILIAR SANARATE,,Sanarate,EL PROGRESO,,GT,+502 2420 3000,https://location.westernunion.com/gt/el-progreso/sanarate/a53082974ff1ad1d20ebfde50dac6850,Mo-Su 07:00-20:00,Western Union,Q861042
cdbd01a9644a0d0c319082533df6fe30,western_union,GYTSA COMERCIAL ALTAMIRANO,,Sanarate,EL PROGRESO,,GT,+502 4846 2851,https://location.westernunion.com/gt/el-progreso/sanarate/cdbd01a9644a0d0c319082533df6fe30,Mo-Fr 08:00-17:00; Sa 08:00-12:00; Su 00:00-08:00,Western Union,Q861042
2907978c271fc7a661f1ac3e607ba293,western_union,6863 COMERCIAL SAN ANTONIO,,Sanarate,EL PROGRESO,,GT,+502 2420 3000,https://location.westernunion.com/gt/el-progreso/sanarate/2907978c271fc7a661f1ac3e607ba293,Mo-Su 08:00-18:00,Western Union,Q861042
4145f90a2ef03390233ba3a580813ec9,western_union,INFOSYS,,Sanarate,EL PROGRESO,,GT,+502 2271 9600,https://location.westernunion.com/gt/el-progreso/sanarate/4145f90a2ef03390233ba3a580813ec9,Mo-Fr 08:00-17:00; Sa 09:00-13:00,Western Union,Q861042
a37b227ac43d907f8885776de85bbacd,western_union,BISA ACEITERA GYH,,San Antonio La Paz,EL PROGRESO,,GT,+502 3194 0274,https://location.westernunion.com/gt/el-progreso/san-antonio-la-paz/a37b227ac43d907f8885776de85bbacd,Mo-Su 08:00-19:00,Western Union,Q861042
e8492dc5969e6e31b2cbeec816d4abeb,western_union,10083 COMERCIAL GANDM,,Sanarate,EL PROGRESO,,GT,+502 7925 2187,https://location.westernunion.com/gt/el-progreso/sanarate/e8492dc5969e6e31b2cbeec816d4abeb,Mo-Fr 08:00-17:00; Sa 08:00-12:00,Western Union,Q861042
21eef01368a0c8d9193475f07adb0446,western_union,AZTECA 3006 EKT SANARATE,,Sanarate,EL PROGRESO,,GT,+502 2306 8000,https://location.westernunion.com/gt/el-progreso/sanarate/21eef01368a0c8d9193475f07adb0446,Mo-Su 08:00-19:00,Western Union,Q861042
9f01f834fe0c86327806b66da72160e7,western_union,AGENTE COMERCIAL ARRIAZA,,Sanarate,EL PROGRESO,,GT,+502 2420 3000,https://location.westernunion.com/gt/el-progreso/sanarate/9f01f834fe0c86327806b66da72160e7,Mo-Fr 08:00-17:00; Sa 09:00-13:00,Western Union,Q861042
00a2d983080075125435931cd4b337ea,western_union,330 AGENCIA SANARATE,,Sanarate,EL PROGRESO,,GT,(+502) 1888-5736372724,https://location.westernunion.com/gt/el-progreso/sanarate/00a2d983080075125435931cd4b337ea,Mo-Fr 09:00-17:00; Sa 09:00-13:00,Western Union,Q861042
1acf524cfa130bce5e303ef3ef37fc9b,western_union,BI SANARATE,,Sanarate,EL PROGRESO,,GT,+502 7957 2900,https://location.westernunion.com/gt/el-progreso/sanarate/1acf524cfa130bce5e303ef3ef37fc9b,Mo-Fr 09:00-17:00; Sa 00:00-00:01,Western Union,Q861042
38d6247e4503a234c327b31ab587a2ae,western_union,BISA OPTICA BISEL,,Sanarate,EL PROGRESO,,GT,+502 5175 8814,https://location.westernunion.com/gt/el-progreso/sanarate/38d6247e4503a234c327b31ab587a2ae,Mo-Fr 08:00-17:00; Sa 08:00-12:00,Western Union,Q861042
fccba221a26138e23f180bc10eef7a02,western_union,084 SANARATE,,Sanarate,EL PROGRESO,,GT,(+502) 01801,https://location.westernunion.com/gt/el-progreso/sanarate/fccba221a26138e23f180bc10eef7a02,Mo-Su 09:00-20:00,Western Union,Q861042
2b7f01c00031315e193c47585707bc31,western_union,GYT SANARATE,,Sanarate,EL PROGRESO,,GT,+502 7925 2177,https://location.westernunion.com/gt/el-progreso/sanarate/2b7f01c00031315e193c47585707bc31,Mo-Fr 09:00-17:00; Sa 09:00-13:00,Western Union,Q861042
761eed9e8ee50296bd72e9ac10ee722e,western_union,AGROMERCANTIL SANARATE,,Sanarate,EL PROGRESO,,GT,+502 7925 2148,https://location.westernunion.com/gt/el-progreso/sanarate/761eed9e8ee50296bd72e9ac10ee722e,Mo-Fr 08:00-17:00; Sa 08:00-12:00,Western Union,Q861042
0dce3649d05b92e1b24a4b9c6a02f390,western_union,1270 COMERCIAL ARRIAZA,,Sanarate,EL PROGRESO,,GT,+502 2361 5155,https://location.westernunion.com/gt/el-progreso/sanarate/0dce3649d05b92e1b24a4b9c6a02f390,Mo-Fr 07:00-18:00; Sa-Su 09:00-13:00,Western Union,Q861042
49c0e45af213e139dcbe5519c4b38b6b,western_union,AGROMERCANTIL SANARATE,,Sanarate,EL PROGRESO,,GT,+502 7925 2148,https://location.westernunion.com/gt/el-progreso/sanarate/49c0e45af213e139dcbe5519c4b38b6b,Mo-Fr 08:00-17:00; Sa 09:00-13:00,Western Union,Q861042
e17e757039a78cd83362ac04a9fb3987,western_union,536 SANARATE,,Sanarate,EL PROGRESO,,GT,+502 7925 3899,https://location.westernunion.com/gt/el-progreso/sanarate/e17e757039a78cd83362ac04a9fb3987,Mo-Sa 16:00-22:00,Western Union,Q861042
be42615758fef1241634d3033f5dbbab,western_union,BISA DISTRIBUIDORA AYR,,Sanarate,EL PROGRESO,,GT,+502 5637 9579,https://location.westernunion.com/gt/el-progreso/sanarate/be42615758fef1241634d3033f5dbbab,Mo-Su 08:00-19:00,Western Union,Q861042
ff2633236033bacbd2913564974e57a2,western_union,FARMACIA LA ECONOMICA SANARATE,,Sanarate,EL PROGRESO,,GT,+502 2271 9600,https://location.westernunion.com/gt/el-progreso/sanarate/ff2633236033bacbd2913564974e57a2,Mo-Fr 08:00-17:00; Sa 09:00-13:00,Western Union,Q861042
5ed1295a4db306f5fb2b1d06891eb8af,western_union,FARMACIA LA ECONOMICA SANARATE,,Sanarate,EL PROGRESO,,GT,+502 2271 9600,https://location.westernunion.com/gt/el-progreso/sanarate/5ed1295a4db306f5fb2b1d06891eb8af,Mo-Su 08:00-23:00,Western Union,Q861042
d3e46a926b1c217c6d7eb3c7b9e0b593,western_union,DISTRIBUIDORA A&R,,Sanarate,EL PROGRESO,,GT,+502 5637 9579,https://location.westernunion.com/gt/el-progreso/sanarate/d3e46a926b1c217c6d7eb3c7b9e0b593,Mo-Sa 08:00-19:00,Western Union,Q861042
8ca3d937e824336f561b387d2c3d77ba,western_union,THECNOTIENDA,,Sanarate,EL PROGRESO,,GT,+502 2326 6868,https://location.westernunion.com/gt/el-progreso/sanarate/8ca3d937e824336f561b387d2c3d77ba,Mo-Fr 08:00-17:00; Sa 09:00-13:00,Western Union,Q861042
224df2fb845cda35788f00496d1c04e7,western_union,THECNOTIENDA,,Sanarate,EL PROGRESO,,GT,+502 2271 9600,https://location.westernunion.com/gt/el-progreso/sanarate/224df2fb845cda35788f00496d1c04e7,Mo-Su 08:00-23:00,Western Union,Q861042
025150aedc12ef5961a6bc0150cccd6b,western_union,VARIEDADES LA BONITA,,Sanarate,EL PROGRESO,,GT,+502 2326 6868,https://location.westernunion.com/gt/el-progreso/sanarate/025150aedc12ef5961a6bc0150cccd6b,Mo-Fr 08:00-17:00; Sa 09:00-13:00,Western Union,Q861042
defad4469322858dbd36f15e2be6f2b1,western_union,VARIEDADES LA BONITA,,Sanarate,EL PROGRESO,,GT,+502 2271 9600,https://location.westernunion.com/gt/el-progreso/sanarate/defad4469322858dbd36f15e2be6f2b1,Mo-Su 08:00-23:00,Western Union,Q861042
e039579607c20f11ffb55a22039589a1,western_union,BISA LA CASA DE LOS LACTEOS,,Sanarate,EL PROGRESO,,GT,+502 5995 8955,https://location.westernunion.com/gt/el-progreso/sanarate/e039579607c20f11ffb55a22039589a1,Mo-Su 08:00-19:00,Western Union,Q861042
5de8dcefd1717a30ce228d1d9b6eb58f,western_union,CELULAR CENTER ZONA 1,,Sanarate,EL PROGRESO,,GT,+502 2271 9600,https://location.westernunion.com/gt/el-progreso/sanarate/5de8dcefd1717a30ce228d1d9b6eb58f,Mo-Su 08:00-23:00,Western Union,Q861042
074450fc21b694269af054e87763465f,western_union,CELULAR CENTER ZONA 1,,Sanarate,EL PROGRESO,,GT,+502 2271 9600,https://location.westernunion.com/gt/el-progreso/sanarate/074450fc21b694269af054e87763465f,Mo-Fr 08:00-17:00; Sa 09:00-13:00,Western Union,Q861042
c3fa607bae7fab9f3b23200086634c3d,western_union,COMERCIAL ALEJANDRA,,Sanarate,EL PROGRESO,,GT,+502 2271 9600,https://location.westernunion.com/gt/el-progreso/sanarate/c3fa607bae7fab9f3b23200086634c3d,Mo-Fr 08:00-17:00; Sa 09:00-13:00,Western Union,Q861042
e10fe3ec487ba3792b85829b0990d4b8,western_union,COMERCIAL ALEJANDRA,,Sanarate,EL PROGRESO,,GT,+503 2271 9600,https://location.westernunion.com/gt/el-progreso/sanarate/e10fe3ec487ba3792b85829b0990d4b8,Mo-Su 08:00-23:00,Western Union,Q861042
ccb6ead26222f176bbaf26a51cc6c9b9,western_union,COMERCIAL ARRIAZA,,Sanarate,EL PROGRESO,,GT,+502 7925 2552,https://location.westernunion.com/gt/el-progreso/sanarate/ccb6ead26222f176bbaf26a51cc6c9b9,Mo-Fr 08:00-17:00; Sa 08:00-13:00,Western Union,Q861042
e0a2e7fde88a5db901b006aebe8bafdd,western_union,TIENDA FLORY,,San Antonio La Paz,EL PROGRESO,,GT,+502 4929 3454,https://location.westernunion.com/gt/el-progreso/san-antonio-la-paz/e0a2e7fde88a5db901b006aebe8bafdd,Mo-Sa 08:00-19:00,Western Union,Q861042
7a9ca1559fcf32f56ba30da8a2bd513a,western_union,GYTSA TELEFONIA ELVIS,,San Antonio La Paz,EL PROGRESO,,GT,+502 4929 3454,https://location.westernunion.com/gt/el-progreso/san-antonio-la-paz/7a9ca1559fcf32f56ba30da8a2bd513a,Mo-Fr 08:00-17:00; Sa 08:00-12:00,Western Union,Q861042
c399a569ed287122a161fae7c44bbe25,western_union,12964 TELEFONIA ELVIS,,San Antonio La Paz,EL PROGRESO,,GT,+502 4929 3454,https://location.westernunion.com/gt/el-progreso/san-antonio-la-paz/c399a569ed287122a161fae7c44bbe25,Mo-Fr 07:30-19:30; Sa 07:30-13:30,Western Union,Q861042
aacb0c0f2e0134feb46e1b58d8366ab2,western_union,TELEFONIA ELVIS,,San Antonio La Paz,EL PROGRESO,,GT,+502 2271 9600,https://location.westernunion.com/gt/el-progreso/san-antonio-la-paz/aacb0c0f2e0134feb46e1b58d8366ab2,Mo-Su 08:00-23:00,Western Union,Q861042
4e129032cd4122cb3e54060f395ea781,western_union,VENTA DE MEDICINA MARY,,San Antonio La Paz,EL PROGRESO,,GT,+502 2271 9600,https://location.westernunion.com/gt/el-progreso/san-antonio-la-paz/4e129032cd4122cb3e54060f395ea781,Mo-Su 08:00-23:00,Western Union,Q861042
537a8098dc52d40b293b37e68706b81c,western_union,VENTA DE MEDICINA MARY,,San Antonio La Paz,EL PROGRESO,,GT,+502 2271 9600,https://location.westernunion.com/gt/el-progreso/san-antonio-la-paz/537a8098dc52d40b293b37e68706b81c,Mo-Fr 08:00-17:00; Sa 09:00-13:00,Western Union,Q861042
1b6d0cdb7a7d489e950ea436049e9eeb,western_union,MISCELANEA EL EDEN,,Sanarate,EL PROGRESO,,GT,+502 2271 9600,https://location.westernunion.com/gt/el-progreso/sanarate/1b6d0cdb7a7d489e950ea436049e9eeb,Mo-Su 08:00-23:00,Western Union,Q861042
089a74c0e93835804640d1db66bc8125,western_union,MISCELANEA EL EDEN,,Sanarate,EL PROGRESO,,GT,+502 2271 9600,https://location.westernunion.com/gt/el-progreso/sanarate/089a74c0e93835804640d1db66bc8125,Mo-Fr 08:00-17:00; Sa 09:00-13:00,Western Union,Q861042
720c82d90fcc292f55e679e9ccd32a07,western_union,7018 P&M GRACE EXPRESS,,Sanarate,EL PROGRESO,,GT,+502 5631 4600,https://location.westernunion.com/gt/el-progreso/sanarate/720c82d90fcc292f55e679e9ccd32a07,Mo-Sa 08:00-17:00,Western Union,Q861042
96d2108df7a69c2f38dc6a4e5f24841f,western_union,BISA PYM GRACE EXPRESS,,Sanarate,EL PROGRESO,,GT,+502 5631 4600,https://location.westernunion.com/gt/el-progreso/sanarate/96d2108df7a69c2f38dc6a4e5f24841f,Mo-Fr 08:00-17:00; Sa 08:00-12:00,Western Union,Q861042
2b11747397302582f6ac8b5c161b5270,western_union,COMERCIAL ARRIAZA,,Sanarate,EL PROGRESO,,GT,+502 7925 2552,https://location.westernunion.com/gt/el-progreso/sanarate/2b11747397302582f6ac8b5c161b5270,Mo-Sa 08:00-17:00,Western Union,Q861042
4c3e633d5acdb0c9b510f63b0cd13dc3,western_union,AZTECA 3009 DIST ITALIKA SANARATE,,Sanarate,EL PROGRESO,,GT,+502 2306 8000,https://location.westernunion.com/gt/el-progreso/sanarate/4c3e633d5acdb0c9b510f63b0cd13dc3,Mo-Su 08:00-19:00,Western Union,Q861042
0fc208b3cdf61cbe0f51b5f7d7efa893,western_union,MICOOPE GUAYACAN,,Sanarate,EL PROGRESO,,GT,+502 2302 1302,https://location.westernunion.com/gt/el-progreso/sanarate/0fc208b3cdf61cbe0f51b5f7d7efa893,Mo-Fr 08:00-17:00; Sa-Su 08:00-12:00,Western Union,Q861042
8085731e3f05349891ba0ba2c20dddf7,western_union,TALLER CALDERON,,Sanarate,EL PROGRESO,,GT,+502 5174 4433,https://location.westernunion.com/gt/el-progreso/sanarate/8085731e3f05349891ba0ba2c20dddf7,Mo-Su 08:00-19:00,Western Union,Q861042
dfad6d1384b4aa7dd448956662514d60,western_union,R CHAP FARM CV SANARATE,,Sanarate,EL PROGRESO,,GT,+502 2302 1303,https://location.westernunion.com/gt/el-progreso/sanarate/dfad6d1384b4aa7dd448956662514d60,Mo-Su 08:00-17:00,Western Union,Q861042
0cf23ee664dc3210a19e209b2a756c31,western_union,6929 MAGGI BOUTIQUE,,Sanarate,EL PROGRESO,,GT,+502 5318 5698,https://location.westernunion.com/gt/el-progreso/sanarate/0cf23ee664dc3210a19e209b2a756c31,Mo-Su 08:00-19:00,Western Union,Q861042
81dfc0e6403652aeb645e0a1e04a1e38,western_union,12070 VARIEDADES KIARA,,San Antonio La Paz,EL PROGRESO,,GT,+502 3198 2455,https://location.westernunion.com/gt/el-progreso/san-antonio-la-paz/81dfc0e6403652aeb645e0a1e04a1e38,Mo-Sa 08:30-18:30,Western Union,Q861042
3c7c2cab951f779c446bd1ee8bc62b69,western_union,AGENCIA WAY SANARATE,,Sanarate,EL PROGRESO,,GT,+502 2271 9600,https://location.westernunion.com/gt/el-progreso/sanarate/3c7c2cab951f779c446bd1ee8bc62b69,Mo-Su 08:00-23:00,Western Union,Q861042
618aa4f8d0902d3a9a561ac97e8aed35,western_union,AGENCIA WAY SANARATE,,Sanarate,EL PROGRESO,,GT,+502 2271 9600,https://location.westernunion.com/gt/el-progreso/sanarate/618aa4f8d0902d3a9a561ac97e8aed35,Mo-Fr 08:00-17:00; Sa 09:00-13:00,Western Union,Q861042
1bc057d4b49e63f102d8882fed03f112,western_union,BISA VARIEDADES NISSI,,Sanarate,EL PROGRESO,,GT,+502 5587 9218,https://location.westernunion.com/gt/el-progreso/sanarate/1bc057d4b49e63f102d8882fed03f112,Mo-Fr 08:00-17:00; Sa 08:00-12:00,Western Union,Q861042
679a83b636072469df7df3b4d83ed397,western_union,MICOOPE GUAYACAN,,Sanarate,EL PROGRESO,,GT,+502 2302 1302,https://location.westernunion.com/gt/el-progreso/sanarate/679a83b636072469df7df3b4d83ed397,Mo-Fr 08:00-17:00; Sa-Su 08:00-12:00,Western Union,Q861042
babc828f32e3a8810feff7c69ecb5497,western_union,13202 AGENCIAS WAY SANARATE,,Sanarate,EL PROGRESO,,GT,+502 7925 2816,https://location.westernunion.com/gt/el-progreso/sanarate/babc828f32e3a8810feff7c69ecb5497,Mo-Fr 07:00-18:00; Sa 07:00-13:00,Western Union,Q861042
abd2e0f8c65dd4b79bacd4f7e4304211,western_union,GENESIS EMPRESARIAL SANARATE,,Sanarate,EL PROGRESO,,GT,+502 7925 3636,https://location.westernunion.com/gt/el-progreso/sanarate/abd2e0f8c65dd4b79bacd4f7e4304211,Mo-Fr 08:00-17:00,Western Union,Q861042
178fe4586be6b3715db02d472e52638d,western_union,GENESIS EMPRESARIAL SANARATE,,Sanarate,EL PROGRESO,,GT,+502 7925 3636,https://location.westernunion.com/gt/el-progreso/sanarate/178fe4586be6b3715db02d472e52638d,Mo-Fr 08:00-17:00,Western Union,Q861042
5abe3f6ef1d39e40fc3590088a6d5351,western_union,4469 AGENTE COMERCIAL ALTAMIRANO,,Sanarate,EL PROGRESO,,GT,+502 2420 3000,https://location.westernunion.com/gt/el-progreso/sanarate/5abe3f6ef1d39e40fc3590088a6d5351,Mo-Fr 08:00-17:00; Sa 08:00-13:00,Western Union,Q861042
ece15624ada6d2bcef4f7cb81207fe78,western_union,4849 TIENDA GONZALEZ,,Sanarate,EL PROGRESO,,GT,+502 2420 3000,https://location.westernunion.com/gt/el-progreso/sanarate/ece15624ada6d2bcef4f7cb81207fe78,Mo-Sa 07:00-19:00,Western Union,Q861042
c4aadd69c402cc0f18a766731e4d2ccf,western_union,DAZ SANARATE 7822,,Sanarate,EL PROGRESO,,GT,+52 55 1720 8177,https://location.westernunion.com/gt/el-progreso/sanarate/c4aadd69c402cc0f18a766731e4d2ccf,Mo-Su 09:00-20:00,Western Union,Q861042
ba45337d3c1b0af89d29fe999e611bd8,western_union,MICOOPE GUAYACAN,,Sanarate,EL PROGRESO,,GT,+502 2302 1302,https://location.westernunion.com/gt/el-progreso/sanarate/ba45337d3c1b0af89d29fe999e611bd8,Mo-Fr 08:00-17:00; Sa-Su 08:00-12:00,Western Union,Q861042
cbe35e07c1bb5481e39be59a5acb3377,western_union,ROUSSE,,Sanarate,EL PROGRESO,,GT,+503 2271 9600,https://location.westernunion.com/gt/el-progreso/sanarate/cbe35e07c1bb5481e39be59a5acb3377,Mo-Su 08:00-23:00,Western Union,Q861042
a0d40687b306d0ded0c912127b266cfb,western_union,5540 DESPENSA FAMILIAR SANARATE,,Sanarate,EL PROGRESO,,GT,+502 2420 3000,https://location.westernunion.com/gt/el-progreso/sanarate/a0d40687b306d0ded0c912127b266cfb,Mo-Su 07:00-20:00,Western Union,Q861042
3c64c14594548ec459d73c31497f702a,western_union,BISA DESPENSA FAMILIAR SANARATE LA CRUZ,,Sanarate,EL PROGRESO,,GT,(+502) 18885736372724,https://location.westernunion.com/gt/el-progreso/sanarate/3c64c14594548ec459d73c31497f702a,Mo-Su 07:00-20:00,Western Union,Q861042
fb7a4e770014cb2566163607f4e5eecf,western_union,COMERCIAL WENDY,,Sanarate,EL PROGRESO,,GT,+502 2271 9600,https://location.westernunion.com/gt/el-progreso/sanarate/fb7a4e770014cb2566163607f4e5eecf,Mo-Fr 08:00-17:00; Sa 09:00-13:00,Western Union,Q861042
828e9a7d16241740dc7f8272ff8008f5,western_union,COMERCIAL WENDY,,Sanarate,EL PROGRESO,,GT,+503 2271 9600,https://location.westernunion.com/gt/el-progreso/sanarate/828e9a7d16241740dc7f8272ff8008f5,Mo-Su 08:00-23:00,Western Union,Q861042
79fbc999aff23fccd131d3644b2ddf9e,western_union,BANRURAL AUTOBANCO SANARATE,,Sanarate,EL PROGRESO,,GT,+502 2326 6868,https://location.westernunion.com/gt/el-progreso/sanarate/79fbc999aff23fccd131d3644b2ddf9e,Mo-Su 09:00-20:00,Western Union,Q861042
471e408304a7db333711b34487eacc69,western_union,BANRURAL SANARATE,,Sanarate,EL PROGRESO,,GT,+502 2326 6868,https://location.westernunion.com/gt/el-progreso/sanarate/471e408304a7db333711b34487eacc69,Mo-Su 09:00-20:00,Western Union,Q861042
7f287869a81972a9dae254427fa65506,western_union,BANRURAL AUTOBANCO SANARATE,,Sanarate,EL PROGRESO,,GT,+502 2339 8888,https://location.westernunion.com/gt/el-progreso/sanarate/7f287869a81972a9dae254427fa65506,Mo-Fr 08:30-19:00; Sa 09:00-13:00,Western Union,Q861042
4e2e55eea7c4dfe80ec765cf8f6eded8,western_union,CELULAR CENTER ZONA 2,,Sanarate,EL PROGRESO,,GT,+502 2271 9600,https://location.westernunion.com/gt/el-progreso/sanarate/4e2e55eea7c4dfe80ec765cf8f6eded8,Mo-Fr 08:00-17:00; Sa 09:00-13:00,Western Union,Q861042
54fad1675f8c41d6cfdc3fa688214778,western_union,CELULAR CENTER ZONA 2,,Sanarate,EL PROGRESO,,GT,+502 2271 9600,https://location.westernunion.com/gt/el-progreso/sanarate/54fad1675f8c41d6cfdc3fa688214778,Mo-Su 08:00-23:00,Western Union,Q861042
e6adbb6fe2b95b4d0ea705811296ab94,western_union,VARIEDADES ANA LUCIA,,Sanarate,EL PROGRESO,,GT,+502 2271 9600,https://location.westernunion.com/gt/el-progreso/sanarate/e6adbb6fe2b95b4d0ea705811296ab94,Mo-Su 08:00-23:00,Western Union,Q861042
1bd242d75f5a26e0c5fdad3e73cbb4cd,western_union,VARIEDADES ANA LUCIA,,Sanarate,EL PROGRESO,,GT,+502 2271 9600,https://location.westernunion.com/gt/el-progreso/sanarate/1bd242d75f5a26e0c5fdad3e73cbb4cd,Mo-Fr 08:00-17:00; Sa 09:00-13:00,Western Union,Q861042
da9a051a90aad47a43c6020e3ab6a940,western_union,VARIEDADES NISSI,,Sanarate,EL PROGRESO,,GT,+502 4054 0656,https://location.westernunion.com/gt/el-progreso/sanarate/da9a051a90aad47a43c6020e3ab6a940,Mo-Su 07:00-19:00,Western Union,Q861042
68c436005fd0595f055b0e75253b36fd,western_union,BISA MI MERCADITO,,Sanarate,EL PROGRESO,,GT,+502 3120 3675,https://location.westernunion.com/gt/el-progreso/sanarate/68c436005fd0595f055b0e75253b36fd,Mo-Fr 08:00-17:00; Sa 08:00-12:00,Western Union,Q861042
974d92723b21b96424a9ad6b1bdc6b31,western_union,ABARROTERIA 9 99,,Sanarate,EL PROGRESO,,GT,+503 2271 9600,https://location.westernunion.com/gt/el-progreso/sanarate/974d92723b21b96424a9ad6b1bdc6b31,Mo-Su 08:00-23:00,Western Union,Q861042
df987075289143c08ee06ae842c6f404,western_union,ABARROTERIA 9 99,,Sanarate,EL PROGRESO,,GT,+502 2271 9600,https://location.westernunion.com/gt/el-progreso/sanarate/df987075289143c08ee06ae842c6f404,Mo-Fr 08:00-17:00; Sa 09:00-13:00,Western Union,Q861042
32fc09f2a28263f1968b83183afe5855,western_union,TIENDA EL ESFUERZO,,Sanarate,EL PROGRESO,,GT,+502 2271 9600,https://location.westernunion.com/gt/el-progreso/sanarate/32fc09f2a28263f1968b83183afe5855,Mo-Su 08:00-23:00,Western Union,Q861042
82f728af647f400a01099f212032daa6,western_union,REACCELY,,Sanarate,EL PROGRESO,,GT,+502 5510 6288,https://location.westernunion.com/gt/el-progreso/sanarate/82f728af647f400a01099f212032daa6,Mo-Su 07:00-18:00,Western Union,Q861042
439edf2b62163e7928c686459f3684e5,western_union,GYTSA TIENDA EL ESFUERZO,,Sanarate,EL PROGRESO,,GT,+502 3066 2993,https://location.westernunion.com/gt/el-progreso/sanarate/439edf2b62163e7928c686459f3684e5,Mo-Fr 08:00-17:00; Sa 08:00-12:00,Western Union,Q861042
57634803aa4d8d63299d6615833ca96d,western_union,MI MERCADITO,,Sanarate,EL PROGRESO,,GT,+502 3120 3675,https://location.westernunion.com/gt/el-progreso/sanarate/57634803aa4d8d63299d6615833ca96d,Mo-Su 06:00-20:00,Western Union,Q861042
5b922e918f9c8818498c40974019a6d5,western_union,MARVAL PRODUCCIONES,,Sanarate,EL PROGRESO,,GT,+503 2271 9600,https://location.westernunion.com/gt/el-progreso/sanarate/5b922e918f9c8818498c40974019a6d5,Mo-Su 08:00-23:00,Western Union,Q861042
1a4075e180aa88a3ddbc7a8a3114236f,western_union,MARVAL PRODUCCIONES,,Sanarate,EL PROGRESO,,GT,+502 2271 9600,https://location.westernunion.com/gt/el-progreso/sanarate/1a4075e180aa88a3ddbc7a8a3114236f,Mo-Fr 08:00-17:00; Sa 09:00-13:00,Western Union,Q861042
289a1a851c8daf6118e1f50d3d83626f,western_union,GYTSA AUTOSERVICIOS PORTILLO,,Sanarate,EL PROGRESO,,GT,+502 3024 7892,https://location.westernunion.com/gt/el-progreso/sanarate/289a1a851c8daf6118e1f50d3d83626f,Mo-Fr 08:00-17:00; Sa 08:00-12:00,Western Union,Q861042
cc00e4b4219ffb8d5fdbd14373d30a23,western_union,ARRENDAMIENTOS RUIZ,,Sanarate,EL PROGRESO,,GT,+502 2271 9600,https://location.westernunion.com/gt/el-progreso/sanarate/cc00e4b4219ffb8d5fdbd14373d30a23,Mo-Fr 08:00-17:00; Sa 09:00-13:00,Western Union,Q861042
98bf97902de5e3397ebc2d9ac6785978,western_union,ARRENDAMIENTOS RUIZ,,Sanarate,EL PROGRESO,,GT,+503 2271 9600,https://location.westernunion.com/gt/el-progreso/sanarate/98bf97902de5e3397ebc2d9ac6785978,Mo-Su 08:00-23:00,Western Union,Q861042
c1d5f16c5c25a1bacc16f0841f157eea,western_union,BISA DESPENSA FAMILIAR GUASTATOYA,,Guastatoya,EL PROGRESO,,GT,(+502) 18885736372724,https://location.westernunion.com/gt/el-progreso/guastatoya/c1d5f16c5c25a1bacc16f0841f157eea,Mo-Su 07:00-20:00,Western Union,Q861042
b7ac8d6a3870a859fa68ba4d17de6709,western_union,1327 DESPENSA FAMILIAR GUASTATOYA,,Guastatoya,EL PROGRESO,,GT,+502 2420 3000,https://location.westernunion.com/gt/el-progreso/guastatoya/b7ac8d6a3870a859fa68ba4d17de6709,Mo-Su 07:00-20:00,Western Union,Q861042
565217d9b61beec6af201f073bee6434,western_union,29 GUASTATOYA,,Guastatoya,EL PROGRESO,,GT,+502 7945 1417,https://location.westernunion.com/gt/el-progreso/guastatoya/565217d9b61beec6af201f073bee6434,Mo-Fr 09:00-17:00; Sa 09:00-13:00,Western Union,Q861042
83efaf130f12376345eff2decc9d1135,western_union,GYT GUASTATOYA,,Guastatoya,EL PROGRESO,,GT,+502 7945 1417,https://location.westernunion.com/gt/el-progreso/guastatoya/83efaf130f12376345eff2decc9d1135,Mo-Fr 09:00-17:00; Sa 09:00-13:00,Western Union,Q861042
892701b2896340b1d04a41546c57821e,western_union,BISA COMPUGAME,,Guastatoya,EL PROGRESO,,GT,+502 4709 9233,https://location.westernunion.com/gt/el-progreso/guastatoya/892701b2896340b1d04a41546c57821e,Mo-Fr 08:00-17:00; Sa 08:00-12:00,Western Union,Q861042
d69e85a4301e496232fcd75fb911f714,western_union,TECH ZONE SECURITY,,Guastatoya,EL PROGRESO,,GT,+502 2271 9600,https://location.westernunion.com/gt/el-progreso/guastatoya/d69e85a4301e496232fcd75fb911f714,Mo-Fr 08:00-17:00; Sa 09:00-13:00,Western Union,Q861042
b28dda505c75d1a5062f1760f49a66d1,western_union,TECH ZONE SECURITY,,Guastatoya,EL PROGRESO,,GT,+502 2271 9600,https://location.westernunion.com/gt/el-progreso/guastatoya/b28dda505c75d1a5062f1760f49a66d1,Mo 08:00-08:00; Tu-Su 23:00-08:00,Western Union,Q861042
fd71a84be39a478d7365414e55e32706,western_union,DAKOTA PAWN GUASTATOYA,,Guastatoya,EL PROGRESO,,GT,+502 2271 9600,https://location.westernunion.com/gt/el-progreso/guastatoya/fd71a84be39a478d7365414e55e32706,Mo-Fr 08:00-17:00; Sa 09:00-13:00,Western Union,Q861042
5466127b342aa46dd04678f3010f4755,western_union,DAKOTA PAWN GUASTATOYA,,Guastatoya,EL PROGRESO,,GT,+502 2271 9600,https://location.westernunion.com/gt/el-progreso/guastatoya/5466127b342aa46dd04678f3010f4755,Mo-Su 08:00-23:00,Western Union,Q861042
636d186f55b7110f88db75bbb7bf14d7,western_union,AZTECA 4170 BA EKT PROGRESO GUASTATOYA,,Guastatoya,EL PROGRESO,,GT,+505 2306 8000,https://location.westernunion.com/gt/el-progreso/guastatoya/636d186f55b7110f88db75bbb7bf14d7,Mo-Su 08:00-20:00,Western Union,Q861042
4715f83803a8dcf094205775aa394625,western_union,5593 AGENCIA WAY GUASTATOYA EL PROGRESO,,Guastatoya,EL PROGRESO,,GT,+502 7945 1279,https://location.westernunion.com/gt/el-progreso/guastatoya/4715f83803a8dcf094205775aa394625,Mo-Su 07:30-19:30,Western Union,Q861042
f446463270edbc5f4e8a472431038add,western_union,BISA TIENDA ROSITA,,Guastatoya,EL PROGRESO,,GT,+502 4198 4948,https://location.westernunion.com/gt/el-progreso/guastatoya/f446463270edbc5f4e8a472431038add,Mo-Su 08:00-19:00,Western Union,Q861042
09ce011a3c2dbfaacbb2a21313d73c6f,western_union,GYTSA LIBRERIA Y PAPELERIA VIDA,,Guastatoya,EL PROGRESO,,GT,+502 4215 5054,https://location.westernunion.com/gt/el-progreso/guastatoya/09ce011a3c2dbfaacbb2a21313d73c6f,Mo-Su 08:00-21:00,Western Union,Q861042
511e41fe75f258d062399adb256d3553,western_union,LIBRERIA Y PAPELERIA LOS CANCHES,,Guastatoya,EL PROGRESO,,GT,+502 2271 9600,https://location.westernunion.com/gt/el-progreso/guastatoya/511e41fe75f258d062399adb256d3553,Mo-Fr 08:00-17:00; Sa 09:00-13:00,Western Union,Q861042
88f30bf08db428ba93d819b08f8fc68f,western_union,LIBRERIA Y PAPELERIA LOS CANCHES,,Guastatoya,EL PROGRESO,,GT,+502 2271 9600,https://location.westernunion.com/gt/el-progreso/guastatoya/88f30bf08db428ba93d819b08f8fc68f,Mo-Su 08:00-23:00,Western Union,Q861042
6e94a9ef911c2ea2331c50cedc487b6e,western_union,BISA HIDRO SERVICIOS ARCHILA,,Guastatoya,EL PROGRESO,,GT,+502 4724 1552,https://location.westernunion.com/gt/el-progreso/guastatoya/6e94a9ef911c2ea2331c50cedc487b6e,Mo-Su 08:00-19:00,Western Union,Q861042
9308172717b19c4cf5d43550904ab6b0,western_union,GYTSA LA NEVERIA,,Guastatoya,EL PROGRESO,,GT,+502 5776 8247,https://location.westernunion.com/gt/el-progreso/guastatoya/9308172717b19c4cf5d43550904ab6b0,Mo-Fr 08:00-17:00; Sa 08:00-12:00,Western Union,Q861042
7cfd5d5610ed87693c706f023e37e158,western_union,TRABAJADORES GUASTATOYA,,Guastatoya,EL PROGRESO,,GT,+502 7945 1818,https://location.westernunion.com/gt/el-progreso/guastatoya/7cfd5d5610ed87693c706f023e37e158,Mo-Fr 09:00-17:00; Sa 09:00-13:00,Western Union,Q861042
f058d74ad4f9d8dc24bc5ae4ea0e39cf,western_union,FARMACIA DIVAYDIMON II,,Guastatoya,EL PROGRESO,,GT,+502 2271 9600,https://location.westernunion.com/gt/el-progreso/guastatoya/f058d74ad4f9d8dc24bc5ae4ea0e39cf,Mo-Fr 08:00-17:00; Sa 09:00-13:00,Western Union,Q861042
a1354dfb7b05845e6da23a1afd10868f,western_union,FARMACIA DIVAYDIMON II,,Guastatoya,EL PROGRESO,,GT,+502 2271 9600,https://location.westernunion.com/gt/el-progreso/guastatoya/a1354dfb7b05845e6da23a1afd10868f,Mo-Su 08:00-23:00,Western Union,Q861042
ccc27f53e14bde8f84f34a2e38d47067,western_union,MICOOPE GUAYACAN,,Guastatoya,EL PROGRESO,,GT,+502 2302 1302,https://location.westernunion.com/gt/el-progreso/guastatoya/ccc27f53e14bde8f84f34a2e38d47067,Mo-Fr 08:00-17:00; Sa-Su 08:00-12:00,Western Union,Q861042
c217d25f015cd65000c8ad7c168801e6,western_union,MULTISERVICIOS SIMARI,,Guastatoya,EL PROGRESO,,GT,+502 2271 9600,https://location.westernunion.com/gt/el-progreso/guastatoya/c217d25f015cd65000c8ad7c168801e6,Mo-Su 08:00-23:00,Western Union,Q861042
92e16426ef2141a7e909ee73c9637b32,western_union,MULTISERVICIOS SIMARI,,Guastatoya,EL PROGRESO,,GT,+502 2271 9600,https://location.westernunion.com/gt/el-progreso/guastatoya/92e16426ef2141a7e909ee73c9637b32,Mo-Fr 08:00-17:00; Sa 09:00-13:00,Western Union,Q861042
62d8af40038d70b6af2b2be2f8c65761,western_union,MICOOPE GUAYACAN 1,,Guastatoya,EL PROGRESO,,GT,+502 7720 6500,https://location.westernunion.com/gt/el-progreso/guastatoya/62d8af40038d70b6af2b2be2f8c65761,Mo-Su 09:00-20:00,Western Union,Q861042
a7469db507d5e27aecc8cc32ed4ecc48,western_union,COMERCIAL GALILEA,,Guastatoya,EL PROGRESO,,GT,+502 2271 9600,https://location.westernunion.com/gt/el-progreso/guastatoya/a7469db507d5e27aecc8cc32ed4ecc48,Mo-Fr 08:00-17:00; Sa 09:00-13:00,Western Union,Q861042
883c309a124527a3f312e07fe3a100b3,western_union,COMERCIAL GALILEA,,Guastatoya,EL PROGRESO,,GT,+502 2271 9600,https://location.westernunion.com/gt/el-progreso/guastatoya/883c309a124527a3f312e07fe3a100b3,Mo-Su 08:00-23:00,Western Union,Q861042
fa5f9175513e7b2dd63fb409b738a55a,western_union,12688 DISTRIBUIDORA SANTA MARTA,,Guastatoya,EL PROGRESO,,GT,+502 7945 1259,https://location.westernunion.com/gt/el-progreso/guastatoya/fa5f9175513e7b2dd63fb409b738a55a,Mo-Sa 07:00-18:00; Su 07:00-12:30,Western Union,Q861042
8ba6306b0467d69f2d97ad29c2b32067,western_union,5052 LA NEVERIA,,Guastatoya,EL PROGRESO,,GT,+502 2361 5155,https://location.westernunion.com/gt/el-progreso/guastatoya/8ba6306b0467d69f2d97ad29c2b32067,Mo-Fr 07:00-18:00; Sa-Su 09:00-13:00,Western Union,Q861042
8c44cb56a7d68bfbb80546fffd214771,western_union,BANRURAL GUASTATOYA,,Guastatoya,EL PROGRESO,,GT,+502 2326 6868,https://location.westernunion.com/gt/el-progreso/guastatoya/8c44cb56a7d68bfbb80546fffd214771,Mo-Su 09:00-20:00,Western Union,Q861042
bbb39d2c6f8021a95b6f0a2c5bc2a8c6,western_union,6652 CAPRICHO FRUTAL,,Guastatoya,EL PROGRESO,,GT,+502 2420 3000,https://location.westernunion.com/gt/el-progreso/guastatoya/bbb39d2c6f8021a95b6f0a2c5bc2a8c6,Mo-Su 09:00-17:00,Western Union,Q861042
b1ff8b9ea07d50958a65574f4a1b6e8c,western_union,CYBERSPACE SOLUTIONS LA DEMOCRACIA,,Guastatoya,EL PROGRESO,,GT,+502 2271 9600,https://location.westernunion.com/gt/el-progreso/guastatoya/b1ff8b9ea07d50958a65574f4a1b6e8c,Mo-Su 08:00-23:00,Western Union,Q861042
c73659ec14bed157799cc2ca66c6ddda,western_union,CYBERSPACE SOLUTIONS LA DEMOCRACIA,,Guastatoya,EL PROGRESO,,GT,+502 2271 9600,https://location.westernunion.com/gt/el-progreso/guastatoya/c73659ec14bed157799cc2ca66c6ddda,Mo-Fr 08:00-17:00; Sa 09:00-13:00,Western Union,Q861042
2d416811df3f85db303519a6d0be8555,western_union,TIENDA VICTORIA GUASTATOYA,,Guastatoya,EL PROGRESO,,GT,+502 2271 9600,https://location.westernunion.com/gt/el-progreso/guastatoya/2d416811df3f85db303519a6d0be8555,Mo-Fr 08:00-17:00; Sa 09:00-13:00,Western Union,Q861042
deb3635a846b10a204de4300aefa5853,western_union,TIENDA VICTORIA GUASTATOYA,,Guastatoya,EL PROGRESO,,GT,+502 2271 9600,https://location.westernunion.com/gt/el-progreso/guastatoya/deb3635a846b10a204de4300aefa5853,Mo-Su 08:00-23:00,Western Union,Q861042
d9c46f1d9b7fb3b4a663cff64048b56b,western_union,COMERCIALIZADORA GYA,,Guastatoya,EL PROGRESO,,GT,+502 2271 9600,https://location.westernunion.com/gt/el-progreso/guastatoya/d9c46f1d9b7fb3b4a663cff64048b56b,Mo-Fr 08:00-17:00; Sa 09:00-13:00,Western Union,Q861042
e71c0f0c08224867412f489c2cf68ea9,western_union,COMERCIALIZADORA GYA,,Guastatoya,EL PROGRESO,,GT,+502 2271 9600,https://location.westernunion.com/gt/el-progreso/guastatoya/e71c0f0c08224867412f489c2cf68ea9,Mo-Su 08:00-23:00,Western Union,Q861042
e0afe954f961345d67092ced9d12eb01,western_union,12376 J LEE,,Guastatoya,EL PROGRESO,,GT,+502 5000 0964,https://location.westernunion.com/gt/el-progreso/guastatoya/e0afe954f961345d67092ced9d12eb01,Mo-Fr 08:00-17:00; Sa 08:00-12:00,Western Union,Q861042
aaf39ecee9ae12cb454056a047f580f7,western_union,BISA FARMACIA LUNA SANTA RITA,,Guastatoya,EL PROGRESO,,GT,+502 5411 2379,https://location.westernunion.com/gt/el-progreso/guastatoya/aaf39ecee9ae12cb454056a047f580f7,Mo-Su 08:00-19:00,Western Union,Q861042
73c634809c722ca7b2aad7051671eaaa,western_union,12809 COMPUGAME,,Guastatoya,EL PROGRESO,,GT,+502 4709 9233,https://location.westernunion.com/gt/el-progreso/guastatoya/73c634809c722ca7b2aad7051671eaaa,Mo-Su 09:00-20:30,Western Union,Q861042
55d6f1923aa4a25a582f3a57e425fa7b,western_union,BODY SPECIAL,,Guastatoya,EL PROGRESO,,GT,+502 2271 9600,https://location.westernunion.com/gt/el-progreso/guastatoya/55d6f1923aa4a25a582f3a57e425fa7b,Mo-Fr 08:00-17:00; Sa 09:00-13:00,Western Union,Q861042
f0a92d15e1050e5315632fda6b427564,western_union,BODY SPECIAL,,Guastatoya,EL PROGRESO,,GT,+502 2271 9600,https://location.westernunion.com/gt/el-progreso/guastatoya/f0a92d15e1050e5315632fda6b427564,Mo-Su 08:00-23:00,Western Union,Q861042
ec17d735bad33547d2020575bc762e06,western_union,LIBRERIA Y PAPELERIA EL BARRILITO,,Guastatoya,EL PROGRESO,,GT,+502 2271 9600,https://location.westernunion.com/gt/el-progreso/guastatoya/ec17d735bad33547d2020575bc762e06,Mo-Fr 08:00-17:00; Sa 09:00-13:00,Western Union,Q861042
d1e3f765742602cb9e3a5cf9f5fabf74,western_union,LIBRERIA Y PAPELERIA EL BARRILITO,,Guastatoya,EL PROGRESO,,GT,+502 2271 9600,https://location.westernunion.com/gt/el-progreso/guastatoya/d1e3f765742602cb9e3a5cf9f5fabf74,Mo-Su 08:00-23:00,Western Union,Q861042
293d981432a57c1e911849ee2d7e16bb,western_union,DISTRIBUIDORA SANTA MARTA,,Guastatoya,EL PROGRESO,,GT,+502 7928 8578,https://location.westernunion.com/gt/el-progreso/guastatoya/293d981432a57c1e911849ee2d7e16bb,Mo-Sa 07:30-17:30; Su 07:30-13:00,Western Union,Q861042
1bebe3911ca93a5f62d2bd3313226d94,western_union,DISTRIBUIDORA SANTA MARTA,,Guastatoya,EL PROGRESO,,GT,+502 7928 8578,https://location.westernunion.com/gt/el-progreso/guastatoya/1bebe3911ca93a5f62d2bd3313226d94,Mo-Sa 07:30-17:30; Su 07:30-13:00,Western Union,Q861042
1fbd5d6da5e157a903753fd063579c8d,western_union,TALLER SMART,,Guastatoya,EL PROGRESO,,GT,+502 2271 9600,https://location.westernunion.com/gt/el-progreso/guastatoya/1fbd5d6da5e157a903753fd063579c8d,Mo-Su 08:00-23:00,Western Union,Q861042
6c774c770123e81e07931343cb57fbb0,western_union,TALLER SMART,,Guastatoya,EL PROGRESO,,GT,+502 2271 9600,https://location.westernunion.com/gt/el-progreso/guastatoya/6c774c770123e81e07931343cb57fbb0,Mo-Fr 08:00-17:00; Sa 09:00-13:00,Western Union,Q861042
e6abde69dd0896fce14003f3e4efd76d,western_union,R CHAP FARM CV FCV GUASTATOYA,,Guastatoya,EL PROGRESO,,GT,+502 2302 1303,https://location.westernunion.com/gt/el-progreso/guastatoya/e6abde69dd0896fce14003f3e4efd76d,Mo-Su 08:00-17:00,Western Union,Q861042
f56d8123bd112d7e67ab95116631c241,western_union,COMERCIAL MARELYN,,Guastatoya,EL PROGRESO,,GT,+502 2271 9600,https://location.westernunion.com/gt/el-progreso/guastatoya/f56d8123bd112d7e67ab95116631c241,Mo-Fr 08:00-17:00; Sa 09:00-13:00,Western Union,Q861042
fbd9149263db04887612b840e99b1d93,western_union,COMERCIAL MARELYN,,Guastatoya,EL PROGRESO,,GT,+502 2271 9600,https://location.westernunion.com/gt/el-progreso/guastatoya/fbd9149263db04887612b840e99b1d93,Mo-Su 08:00-23:00,Western Union,Q861042
da7057bc7c12e65292c28bfeec3b87d4,western_union,FARMACIA DYVAYDIMON,,Guastatoya,EL PROGRESO,,GT,+502 2271 9600,https://location.westernunion.com/gt/el-progreso/guastatoya/da7057bc7c12e65292c28bfeec3b87d4,Mo-Fr 08:00-17:00; Sa 09:00-13:00,Western Union,Q861042
9b9d74bbc5a22c00c58e5f0ff3d5b02e,western_union,FARMACIA DYVAYDIMON,,Guastatoya,EL PROGRESO,,GT,+502 2271 9600,https://location.westernunion.com/gt/el-progreso/guastatoya/9b9d74bbc5a22c00c58e5f0ff3d5b02e,Mo-Su 08:00-23:00,Western Union,Q861042
c40d03b73d187b25e0b48a6a00dc60e0,western_union,BISA MULTICOLOR,,Guastatoya,EL PROGRESO,,GT,+502 5018 9952,https://location.westernunion.com/gt/el-progreso/guastatoya/c40d03b73d187b25e0b48a6a00dc60e0,Mo-Fr 08:00-17:00; Sa 08:00-12:00,Western Union,Q861042
c0ff80783ed53faa6709c3e8732603da,western_union,CS-MORALES,,Guastatoya,EL PROGRESO,,GT,+502 4096 3435,https://location.westernunion.com/gt/el-progreso/guastatoya/c0ff80783ed53faa6709c3e8732603da,Mo-Sa 07:00-17:00,Western Union,Q861042
15da6def7e757a6716e6c63cf0da5e99,western_union,TIENDA ROSITA,,Guastatoya,EL PROGRESO,,GT,+502 4198 4948,https://location.westernunion.com/gt/el-progreso/guastatoya/15da6def7e757a6716e6c63cf0da5e99,Mo-Su 08:00-17:00,Western Union,Q861042
f6ba1c32807aa3144d385caf31100602,western_union,BISA COMERCIAL JHOEL,,Guastatoya,EL PROGRESO,,GT,+502 4219 7144,https://location.westernunion.com/gt/el-progreso/guastatoya/f6ba1c32807aa3144d385caf31100602,Mo-Su 08:00-19:00,Western Union,Q861042
0b96736b1563b4b105ecaec47b2f9c85,western_union,HIDRO SERVICIOS ARCHILA,,Guastatoya,EL PROGRESO,,GT,+502 4724 1552,https://location.westernunion.com/gt/el-progreso/guastatoya/0b96736b1563b4b105ecaec47b2f9c85,Mo-Su 08:00-18:00,Western Union,Q861042
0599a83ec4b2c76c8a956de0d975a393,western_union,4933 MULTICOLOR,,Guastatoya,EL PROGRESO,,GT,+502 2420 3000,https://location.westernunion.com/gt/el-progreso/guastatoya/0599a83ec4b2c76c8a956de0d975a393,Mo-Fr 09:00-17:00; Sa 09:00-13:00,Western Union,Q861042
0e8f3c3739ebd636ce462518eab719af,western_union,MISTER PHONE,,Guastatoya,EL PROGRESO,,GT,+502 4118 3190,https://location.westernunion.com/gt/el-progreso/guastatoya/0e8f3c3739ebd636ce462518eab719af,Mo-Sa 08:00-18:00,Western Union,Q861042
f49fdc611335c4e17b95ea9ba10ee0f1,western_union,FERRETERIA MORENO,,Guastatoya,EL PROGRESO,,GT,+502 2271 9600,https://location.westernunion.com/gt/el-progreso/guastatoya/f49fdc611335c4e17b95ea9ba10ee0f1,Mo-Su 08:00-23:00,Western Union,Q861042
e30e3258be30375a76d8083836efcc5b,western_union,FERRETERIA MORENO,,Guastatoya,EL PROGRESO,,GT,+502 2271 9600,https://location.westernunion.com/gt/el-progreso/guastatoya/e30e3258be30375a76d8083836efcc5b,Mo-Fr 08:00-17:00; Sa 09:00-13:00,Western Union,Q861042
fb8e5d0d84fcfecf6ac53ffefcc27b09,western_union,MULTIMARCAS GUASTATOYA,,Guastatoya,EL PROGRESO,,GT,+502 2271 9600,https://location.westernunion.com/gt/el-progreso/guastatoya/fb8e5d0d84fcfecf6ac53ffefcc27b09,Mo-Su 08:00-23:00,Western Union,Q861042
6c93f259fa2e0c14d0495af35914e3ee,western_union,MULTIMARCAS GUASTATOYA,,Guastatoya,EL PROGRESO,,GT,+502 2271 9600,https://location.westernunion.com/gt/el-progreso/guastatoya/6c93f259fa2e0c14d0495af35914e3ee,Mo-Fr 08:00-17:00; Sa 09:00-13:00,Western Union,Q861042
d2813fd5082440151861a80a2d0f6f02,western_union,MISCELANEA EL PROGRESO,,Guastatoya,EL PROGRESO,,GT,+502 2271 9600,https://location.westernunion.com/gt/el-progreso/guastatoya/d2813fd5082440151861a80a2d0f6f02,Mo-Fr 08:00-17:00; Sa 09:00-13:00,Western Union,Q861042
d16585688769c51483ade361001fd8f6,western_union,MISCELANEA EL PROGRESO,,Guastatoya,EL PROGRESO,,GT,+502 2271 9600,https://location.westernunion.com/gt/el-progreso/guastatoya/d16585688769c51483ade361001fd8f6,Mo 08:00-08:00; Tu-Su 23:00-08:00,Western Union,Q861042
1d79bd4d08f78ccd49679b5925c9b31d,western_union,FARMACIA LA FE 2,,Guastatoya,EL PROGRESO,,GT,+502 2271 9600,https://location.westernunion.com/gt/el-progreso/guastatoya/1d79bd4d08f78ccd49679b5925c9b31d,Mo-Su 08:00-23:00,Western Union,Q861042
7019a6db2301d676c1cb5b4b05e5c607,western_union,FARMACIA LA FE 2,,Guastatoya,EL PROGRESO,,GT,+502 2271 9600,https://location.westernunion.com/gt/el-progreso/guastatoya/7019a6db2301d676c1cb5b4b05e5c607,Mo-Fr 08:00-17:00; Sa 09:00-13:00,Western Union,Q861042
b0ccf8e6890eee9db03df20065a90ef9,western_union,GYTSA LIBRERIA Y PAPELERIA VIDA PROGRESO,,Guastatoya,EL PROGRESO,,GT,+502 4215 5054,https://location.westernunion.com/gt/el-progreso/guastatoya/b0ccf8e6890eee9db03df20065a90ef9,Mo-Su 08:00-19:00,Western Union,Q861042
8e13f9ef22a055da3abaa070940342ae,western_union,BISA COMERCIALIZADORA DM,,El Jicaro,EL PROGRESO,,GT,+502 3454 7689,https://location.westernunion.com/gt/el-progreso/el-jicaro/8e13f9ef22a055da3abaa070940342ae,Mo-Su 08:00-19:00,Western Union,Q861042
d752804b0b9e1e1d9bb9bd88c7a2ac5d,western_union,COMERCIALIZADORA DM.,,El Jicaro,EL PROGRESO,,GT,+502 3454 7689,https://location.westernunion.com/gt/el-progreso/el-jicaro/d752804b0b9e1e1d9bb9bd88c7a2ac5d,Mo-Fr 08:00-17:00; Su 08:00-17:00,Western Union,Q861042
0c1daadfc180fd213f11d706ba3a462e,western_union,7008 COMERCIAL I-PRO,,Guastatoya,EL PROGRESO,,GT,+502 3110 0599,https://location.westernunion.com/gt/el-progreso/guastatoya/0c1daadfc180fd213f11d706ba3a462e,Mo-Su 08:00-18:00,Western Union,Q861042
6aa174c73cd2037e73d5b35d774ba197,western_union,GENESIS EMPRESARIAL GUASTATOYA,,Guastatoya,EL PROGRESO,,GT,+502 7945 0198,https://location.westernunion.com/gt/el-progreso/guastatoya/6aa174c73cd2037e73d5b35d774ba197,Mo-Fr 08:00-17:00,Western Union,Q861042
697806e08e75fd84a9f6cd930b5d3f2a,western_union,LA WEB CYBERCAFE SANTA RITA,,Guastatoya,EL PROGRESO,,GT,+502 2271 9600,https://location.westernunion.com/gt/el-progreso/guastatoya/697806e08e75fd84a9f6cd930b5d3f2a,Mo-Su 08:00-23:00,Western Union,Q861042
c529c12a351ad6f595ab1e7e5b099478,western_union,LA WEB CYBERCAFE SANTA RITA,,Guastatoya,EL PROGRESO,,GT,+502 2271 9600,https://location.westernunion.com/gt/el-progreso/guastatoya/c529c12a351ad6f595ab1e7e5b099478,Mo-Fr 08:00-17:00; Sa 09:00-13:00,Western Union,Q861042
aecf908985511d46bca872ee74d3a135,western_union,GYM LA ESTANCIA,,San Cristobal Acasaguastlan,EL PROGRESO,,GT,+503 2271 9600,https://location.westernunion.com/gt/el-progreso/san-cristobal-acasaguastlan/aecf908985511d46bca872ee74d3a135,Mo-Su 08:00-23:00,Western Union,Q861042
d3c8fdb89771ca253866d0923d53ddd8,western_union,COMERCIAL GRACIELA,,Guastatoya,EL PROGRESO,,GT,+502 2271 9600,https://location.westernunion.com/gt/el-progreso/guastatoya/d3c8fdb89771ca253866d0923d53ddd8,Mo 08:00-08:00; Tu-Su 23:00-08:00,Western Union,Q861042
be04061dcb67a9f5f668f72c6175e53f,western_union,COMERCIAL GRACIELA,,Guastatoya,EL PROGRESO,,GT,+502 2271 9600,https://location.westernunion.com/gt/el-progreso/guastatoya/be04061dcb67a9f5f668f72c6175e53f,Mo-Fr 08:00-17:00; Sa 09:00-13:00,Western Union,Q861042
9f20eba1f647815aae548bf736bd07fe,western_union,TIENDA LOS TRES REYES,,Guastatoya,EL PROGRESO,,GT,+502 2271 9600,https://location.westernunion.com/gt/el-progreso/guastatoya/9f20eba1f647815aae548bf736bd07fe,Mo-Fr 08:00-17:00; Sa 09:00-13:00,Western Union,Q861042
13bbd6fba01710bab9f27a1368afde16,western_union,TIENDA LOS TRES REYES,,Guastatoya,EL PROGRESO,,GT,+502 2271 9600,https://location.westernunion.com/gt/el-progreso/guastatoya/13bbd6fba01710bab9f27a1368afde16,Mo-Su 08:00-23:00,Western Union,Q861042
696ef842393d6961cb15d953f1363aec,western_union,MINIEKT EL PROGRESO GUASTATOYA 4170,,Guastatoya,EL PROGRESO,,GT,+52 55 1720 8177,https://location.westernunion.com/gt/el-progreso/guastatoya/696ef842393d6961cb15d953f1363aec,Mo-Fr 09:00-19:00; Sa 09:00-13:00,Western Union,Q861042
6dd73502e9ebb45ac55bee85498c0833,western_union,CHN GUASTATOYA,,Guastatoya,EL PROGRESO,,GT,+502 2230 5826,https://location.westernunion.com/gt/el-progreso/guastatoya/6dd73502e9ebb45ac55bee85498c0833,Mo-Fr 09:00-17:00; Sa 09:00-13:00,Western Union,Q861042
2e1dd75a06a4361d9605077ec6cdffcb,western_union,AGROMERCANTIL GUASTATOYA,,Guastatoya,EL PROGRESO,,GT,+502 7945 2478,https://location.westernunion.com/gt/el-progreso/guastatoya/2e1dd75a06a4361d9605077ec6cdffcb,Mo-Fr 08:00-17:00; Sa 09:00-13:00,Western Union,Q861042
3de761e0b79a1f300ee3b3f9eb6ae588,western_union,TRANSPORTES SAGASTUME,,El Jicaro,EL PROGRESO,,GT,+502 2271 9600,https://location.westernunion.com/gt/el-progreso/el-jicaro/3de761e0b79a1f300ee3b3f9eb6ae588,Mo-Fr 08:00-17:00; Sa 09:00-13:00,Western Union,Q861042
f98bcece03ad0d761b6f2f9764b95454,western_union,TRANSPORTES SAGASTUME,,El Jicaro,EL PROGRESO,,GT,+502 2271 9600,https://location.westernunion.com/gt/el-progreso/el-jicaro/f98bcece03ad0d761b6f2f9764b95454,Mo-Su 08:00-23:00,Western Union,Q861042
ce7ec7f6c59af55acb01e2c82a71158a,western_union,BISA MULTISERVICIOS CARRANZA,,El Jicaro,EL PROGRESO,,GT,+502 5887 5494,https://location.westernunion.com/gt/el-progreso/el-jicaro/ce7ec7f6c59af55acb01e2c82a71158a,Mo-Su 08:00-19:00,Western Union,Q861042
95020f6a4ce1f217f8fecf01f70f2435,western_union,VARIEDADES SAGASTUME,,El Jicaro,EL PROGRESO,,GT,+502 2271 9600,https://location.westernunion.com/gt/el-progreso/el-jicaro/95020f6a4ce1f217f8fecf01f70f2435,Mo-Fr 08:00-17:00; Sa 09:00-13:00,Western Union,Q861042
03c7f95b37ef665241c09341b4d5e8e5,western_union,VARIEDADES SAGASTUME,,El Jicaro,EL PROGRESO,,GT,+503 2271 9600,https://location.westernunion.com/gt/el-progreso/el-jicaro/03c7f95b37ef665241c09341b4d5e8e5,Mo-Su 08:00-23:00,Western Union,Q861042
cba0884dc7b8191db96f883810da7b97,western_union,BANRURAL EL JICARO 774,,El Jicaro,EL PROGRESO,,GT,+502 2271 9600,https://location.westernunion.com/gt/el-progreso/el-jicaro/cba0884dc7b8191db96f883810da7b97,Mo-Fr 08:00-17:00; Sa 09:00-13:00,Western Union,Q861042
c219cbb44834937ce38497b7a7aaa31d,western_union,BANRURAL EL JICARO 774,,El Jicaro,EL PROGRESO,,GT,+502 2271 9600,https://location.westernunion.com/gt/el-progreso/el-jicaro/c219cbb44834937ce38497b7a7aaa31d,Mo-Su 08:00-23:00,Western Union,Q861042
f7fba69f8d261fefffbb9fe546d15e0e,western_union,BISA COMERCIAL EMERSON,,San Cristobal Acasaguastlan,EL PROGRESO,,GT,+502 4636 7804,https://location.westernunion.com/gt/el-progreso/san-cristobal-acasaguastlan/f7fba69f8d261fefffbb9fe546d15e0e,Mo-Su 08:00-19:00,Western Union,Q861042
232a76bdde35892f75f64e13259fde46,western_union,5899 VARIEDADES CYBERG JIMMY,,San Cristobal Acasaguastlan,EL PROGRESO,,GT,+502 2420 3000,https://location.westernunion.com/gt/el-progreso/san-cristobal-acasaguastlan/232a76bdde35892f75f64e13259fde46,Mo-Sa 09:00-21:00; Su 10:00-16:00,Western Union,Q861042
1ab1e2c4868f3963514c3f611c1aa6f2,western_union,BISA VARIEDADES CYBERT JIMMY GAME,,San Cristobal Acasaguastlan,EL PROGRESO,,GT,+502 4212 0554,https://location.westernunion.com/gt/el-progreso/san-cristobal-acasaguastlan/1ab1e2c4868f3963514c3f611c1aa6f2,Mo-Fr 08:00-17:00; Sa 08:00-12:00,Western Union,Q861042
21f123739852c7d2fe467d62a2f5b696,western_union,VARIEDADES EBENEZER,,San Cristobal Acasaguastlan,EL PROGRESO,,GT,+502 2271 9600,https://location.westernunion.com/gt/el-progreso/san-cristobal-acasaguastlan/21f123739852c7d2fe467d62a2f5b696,Mo-Fr 08:00-17:00; Sa 09:00-13:00,Western Union,Q861042
72d63a1b1f7d8177bea85e8db39f362e,western_union,AVICOLA EL ESFUERZO,,San Cristobal Acasaguastlan,EL PROGRESO,,GT,+502 2271 9600,https://location.westernunion.com/gt/el-progreso/san-cristobal-acasaguastlan/72d63a1b1f7d8177bea85e8db39f362e,Mo-Su 08:00-23:00,Western Union,Q861042
1e173f548cde2a7bbf78ba3c2a35972e,western_union,AVICOLA EL ESFUERZO,,San Cristobal Acasaguastlan,EL PROGRESO,,GT,+502 2271 9600,https://location.westernunion.com/gt/el-progreso/san-cristobal-acasaguastlan/1e173f548cde2a7bbf78ba3c2a35972e,Mo-Fr 08:00-17:00; Sa 09:00-13:00,Western Union,Q861042
5f446ea9c5b891668d34a0c39f44ca44,western_union,COMERCIAL GISELL,,San Cristobal Acasaguastlan,EL PROGRESO,,GT,+502 2271 9600,https://location.westernunion.com/gt/el-progreso/san-cristobal-acasaguastlan/5f446ea9c5b891668d34a0c39f44ca44,Mo-Fr 08:00-17:00; Sa 09:00-13:00,Western Union,Q861042
552a4a11c9682e7b6d20b23bd797e451,western_union,COMERCIAL GISELL,,San Cristobal Acasaguastlan,EL PROGRESO,,GT,+502 2271 9600,https://location.westernunion.com/gt/el-progreso/san-cristobal-acasaguastlan/552a4a11c9682e7b6d20b23bd797e451,Mo-Su 08:00-23:00,Western Union,Q861042
28d000cb029ae2a89fef427b6824e304,western_union,BANRURAL SAN CRISTOBAL ACASAGUASTLAN 344,,San Cristobal Acasaguastlan,EL PROGRESO,,GT,+502 2271 9600,https://location.westernunion.com/gt/el-progreso/san-cristobal-acasaguastlan/28d000cb029ae2a89fef427b6824e304,Mo-Su 08:00-23:00,Western Union,Q861042
66c1c93b57a1e2a685a43bf6c8dc781f,western_union,BANRURAL SAN CRISTOBAL ACASAGUASTLAN 344,,San Cristobal Acasaguastlan,EL PROGRESO,,GT,+502 2271 9600,https://location.westernunion.com/gt/el-progreso/san-cristobal-acasaguastlan/66c1c93b57a1e2a685a43bf6c8dc781f,Mo-Fr 08:00-17:00; Sa 09:00-13:00,Western Union,Q861042
17b17b3faf7fe80599fb1ec0faf20262,western_union,5897 ROSEL CENTER NET,,San Antonio La Paz,EL PROGRESO,,GT,+502 2420 3000,https://location.westernunion.com/gt/el-progreso/san-antonio-la-paz/17b17b3faf7fe80599fb1ec0faf20262,Mo-Sa 08:00-17:00; Su 08:00-12:00,Western Union,Q861042
753e17a240a0bb777ba8b2b5b9916526,western_union,COMERCIAL KARIN,,El Jicaro,EL PROGRESO,,GT,+502 2271 9600,https://location.westernunion.com/gt/el-progreso/el-jicaro/753e17a240a0bb777ba8b2b5b9916526,Mo-Fr 08:00-17:00; Sa 09:00-13:00,Western Union,Q861042
89e3675ce6b1352ebc44d8678746ce59,western_union,COMERCIAL KARIN,,El Jicaro,EL PROGRESO,,GT,+502 2271 9600,https://location.westernunion.com/gt/el-progreso/el-jicaro/89e3675ce6b1352ebc44d8678746ce59,Mo-Su 08:00-23:00,Western Union,Q861042
6c1be9b6a26059ce1fca50d00bdce958,western_union,MULTI SERVICIOS IYCASASOLA,,El Jicaro,EL PROGRESO,,GT,+503 2271 9600,https://location.westernunion.com/gt/el-progreso/el-jicaro/6c1be9b6a26059ce1fca50d00bdce958,Mo-Su 08:00-23:00,Western Union,Q861042
bf9d86cd8ba4a69bc1e69ed67c05d8ba,western_union,MULTI SERVICIOS IYCASASOLA,,El Jicaro,EL PROGRESO,,GT,+502 2271 9600,https://location.westernunion.com/gt/el-progreso/el-jicaro/bf9d86cd8ba4a69bc1e69ed67c05d8ba,Mo-Fr 08:00-17:00; Sa 09:00-13:00,Western Union,Q861042
284c6983e2ae4bd4f7386a68c349a9fe,western_union,VARIEDADES AZUR,,El Jicaro,EL PROGRESO,,GT,+503 2271 9600,https://location.westernunion.com/gt/el-progreso/el-jicaro/284c6983e2ae4bd4f7386a68c349a9fe,Mo-Su 08:00-23:00,Western Union,Q861042
ba2c56091755961f150634ea681797b6,western_union,VARIEDADES AZUR,,El Jicaro,EL PROGRESO,,GT,+502 2271 9600,https://location.westernunion.com/gt/el-progreso/el-jicaro/ba2c56091755961f150634ea681797b6,Mo-Fr 08:00-17:00; Sa 09:00-13:00,Western Union,Q861042
b56442d61cf6b01980e701831948027c,western_union,FARMACIA LA FE EL JICARO,,El Jicaro,EL PROGRESO,,GT,+502 2271 9600,https://location.westernunion.com/gt/el-progreso/el-jicaro/b56442d61cf6b01980e701831948027c,Mo-Fr 08:00-17:00; Sa 09:00-13:00,Western Union,Q861042
fcbae75b0927d5ef3cd424c45bbd92f1,western_union,FARMACIA LA FE EL JICARO,,El Jicaro,EL PROGRESO,,GT,+502 2271 9600,https://location.westernunion.com/gt/el-progreso/el-jicaro/fcbae75b0927d5ef3cd424c45bbd92f1,Mo-Su 08:00-23:00,Western Union,Q861042
8e84a760c547bfe1825e23a5d237d60f,western_union,GYTSA DELEMUR V,,San Agustin Acasaguastlan,EL PROGRESO,,GT,+502 7928 8698,https://location.westernunion.com/gt/el-progreso/san-agustin-acasaguastlan/8e84a760c547bfe1825e23a5d237d60f,Mo-Fr 08:00-17:00; Sa 08:00-12:00,Western Union,Q861042
1422e5aeac77d1224452344219a59c16,western_union,BISA PAINT CENTER EL RANCHO,,San Agustin Acasaguastlan,EL PROGRESO,,GT,+502 5018 9952,https://location.westernunion.com/gt/el-progreso/san-agustin-acasaguastlan/1422e5aeac77d1224452344219a59c16,Mo-Su 08:00-19:00,Western Union,Q861042
25480073d7c6606b67157c94030289d4,western_union,BISA COMERCIAL DYG,,San Agustin Acasaguastlan,EL PROGRESO,,GT,+502 4198 4555,https://location.westernunion.com/gt/el-progreso/san-agustin-acasaguastlan/25480073d7c6606b67157c94030289d4,Mo-Su 08:00-19:00,Western Union,Q861042
fe233088271b93934b2693be02052f08,western_union,INTERNET CASASOLA,,San Agustin Acasaguastlan,EL PROGRESO,,GT,+502 2271 9600,https://location.westernunion.com/gt/el-progreso/san-agustin-acasaguastlan/fe233088271b93934b2693be02052f08,Mo-Fr 08:00-17:00; Sa 09:00-13:00,Western Union,Q861042
8457b4290515a57a1c1fba686401c9ef,western_union,INTERNET CASASOLA,,San Agustin Acasaguastlan,EL PROGRESO,,GT,+503 2271 9600,https://location.westernunion.com/gt/el-progreso/san-agustin-acasaguastlan/8457b4290515a57a1c1fba686401c9ef,Mo-Su 08:00-23:00,Western Union,Q861042
6906708cba38d323bcaf8dacd30438e9,western_union,COMERCIAL ALDANA,,San Agustin Acasaguastlan,EL PROGRESO,,GT,+502 2271 9600,https://location.westernunion.com/gt/el-progreso/san-agustin-acasaguastlan/6906708cba38d323bcaf8dacd30438e9,Mo-Su 08:00-23:00,Western Union,Q861042
995d1450c393c6ee9aebbeac632e3302,western_union,680 PS CERVECERIA EL RANCHO,,San Agustin Acasaguastlan,EL PROGRESO,,GT,+502 2286 1644,https://location.westernunion.com/gt/el-progreso/san-agustin-acasaguastlan/995d1450c393c6ee9aebbeac632e3302,Mo-Su 15:30-22:30,Western Union,Q861042
83d3a691b466be2a10265b9d3b1c44bd,western_union,7901 LINDA'S NOVEDADES,,San Agustin Acasaguastlan,EL PROGRESO,,GT,+502 4020 2922,https://location.westernunion.com/gt/el-progreso/san-agustin-acasaguastlan/83d3a691b466be2a10265b9d3b1c44bd,Mo-Su 07:00-20:00,Western Union,Q861042
288890f1f6ccc8a72395e9918d8c1e44,western_union,INTERNET Y COPIAS EL NINO DEL MAR,,San Agustin Acasaguastlan,EL PROGRESO,,GT,+502 2271 9600,https://location.westernunion.com/gt/el-progreso/san-agustin-acasaguastlan/288890f1f6ccc8a72395e9918d8c1e44,Mo-Fr 08:00-17:00; Sa 09:00-13:00,Western Union,Q861042
f64a4c847608638037527a614a2b1f64,western_union,INTERNET Y COPIAS EL NINO DEL MAR,,San Agustin Acasaguastlan,EL PROGRESO,,GT,+503 2271 9600,https://location.westernunion.com/gt/el-progreso/san-agustin-acasaguastlan/f64a4c847608638037527a614a2b1f64,Mo-Su 08:00-23:00,Western Union,Q861042
34bffb89b7b676f919e960e4fc3601ed,western_union,COMERCIAL EMERSON,,San Cristobal Acasaguastlan,EL PROGRESO,,GT,+503 2271 9600,https://location.westernunion.com/gt/el-progreso/san-cristobal-acasaguastlan/34bffb89b7b676f919e960e4fc3601ed,Mo-Su 08:00-23:00,Western Union,Q861042
349c5b090a37509b0da25c4aa24d396a,western_union,COMERCIAL EMERSON,,San Cristobal Acasaguastlan,EL PROGRESO,,GT,+502 2271 9600,https://location.westernunion.com/gt/el-progreso/san-cristobal-acasaguastlan/349c5b090a37509b0da25c4aa24d396a,Mo-Fr 08:00-17:00; Sa 09:00-13:00,Western Union,Q861042
1329ffc4be3dbb93a0c261c63c3d258c,western_union,LIBRERIA LA BENDICION Y MAS,,San Agustin Acasaguastlan,EL PROGRESO,,GT,+502 2271 9600,https://location.westernunion.com/gt/el-progreso/san-agustin-acasaguastlan/1329ffc4be3dbb93a0c261c63c3d258c,Mo-Fr 08:00-17:00; Sa 09:00-13:00,Western Union,Q861042
7262e9e5a6cef7e0c12957dd741f281b,western_union,LIBRERIA LA BENDICION Y MAS,,San Agustin Acasaguastlan,EL PROGRESO,,GT,+502 2271 9600,https://location.westernunion.com/gt/el-progreso/san-agustin-acasaguastlan/7262e9e5a6cef7e0c12957dd741f281b,Mo-Su 08:00-23:00,Western Union,Q861042
3403d9715dbfa31cc67f9f4f991c23d2,western_union,GYTSA COMERCIAL DANDM,,San Agustin Acasaguastlan,EL PROGRESO,,GT,+502 5978 7086,https://location.westernunion.com/gt/el-progreso/san-agustin-acasaguastlan/3403d9715dbfa31cc67f9f4f991c23d2,Mo-Fr 08:00-17:00; Sa 08:00-12:00,Western Union,Q861042
29411fcf836ee6e23eccb0c097819083,western_union,GYTSA COMERCIAL ALDANA,,San Agustin Acasaguastlan,EL PROGRESO,,GT,+502 4658 7710,https://location.westernunion.com/gt/el-progreso/san-agustin-acasaguastlan/29411fcf836ee6e23eccb0c097819083,Mo-Su 08:00-19:00,Western Union,Q861042
211dced507fecb73688f064018f97e0b,western_union,AZTECA 7498 DAZ EL RANCHO,,San Agustin Acasaguastlan,EL PROGRESO,,GT,+505 2306 8000,https://location.westernunion.com/gt/el-progreso/san-agustin-acasaguastlan/211dced507fecb73688f064018f97e0b,Mo-Su 08:00-20:00,Western Union,Q861042
1a78b2567bd050ec0f68a22bccd5c194,western_union,BANRURAL AUTO B LAS CHAMPAS EL RANCH 497,,San Agustin Acasaguastlan,EL PROGRESO,,GT,+502 2271 9600,https://location.westernunion.com/gt/el-progreso/san-agustin-acasaguastlan/1a78b2567bd050ec0f68a22bccd5c194,Mo-Fr 08:00-17:00; Sa 09:00-13:00,Western Union,Q861042
35842244162c57c83ba85349a2a6663b,western_union,BANRURAL AUTO B LAS CHAMPAS EL RANCH 497,,San Agustin Acasaguastlan,EL PROGRESO,,GT,+502 2271 9600,https://location.westernunion.com/gt/el-progreso/san-agustin-acasaguastlan/35842244162c57c83ba85349a2a6663b,Mo-Su 08:00-23:00,Western Union,Q861042
192753d35b213060bd6c7d58ed91d3bd,western_union,BISA DESPENSA FAMILIAR EL RANCHO,,San Agustin Acasaguastlan,EL PROGRESO,,GT,(+502) 18885736372724,https://location.westernunion.com/gt/el-progreso/san-agustin-acasaguastlan/192753d35b213060bd6c7d58ed91d3bd,Mo-Su 07:00-20:00,Western Union,Q861042
f46f60c5d57aae5589288360fd60eaae,western_union,4950 DESPENSA FAMILIAR EL RANCHO,,San Agustin Acasaguastlan,EL PROGRESO,,GT,+502 2420 3000,https://location.westernunion.com/gt/el-progreso/san-agustin-acasaguastlan/f46f60c5d57aae5589288360fd60eaae,Mo-Su 07:00-20:00,Western Union,Q861042
6177295f71264fb90488eacb6dc4e166,western_union,COMERCIAL SAN FRANCISCO,,San Agustin Acasaguastlan,EL PROGRESO,,GT,+502 2271 9600,https://location.westernunion.com/gt/el-progreso/san-agustin-acasaguastlan/6177295f71264fb90488eacb6dc4e166,Mo-Fr 08:00-17:00; Sa 09:00-13:00,Western Union,Q861042
1dec47e90b131438719b39f81e7146cd,western_union,COMERCIAL SAN FRANCISCO,,San Agustin Acasaguastlan,EL PROGRESO,,GT,+503 2271 9600,https://location.westernunion.com/gt/el-progreso/san-agustin-acasaguastlan/1dec47e90b131438719b39f81e7146cd,Mo-Su 08:00-23:00,Western Union,Q861042
8a345c029c16dfb12a0d57c30e56851a,western_union,GYTSA FARMACIAS DE MI TIERRA SAN AGUSTIN,,San Agustin Acasaguastlan,EL PROGRESO,,GT,+502 4416 9858,https://location.westernunion.com/gt/el-progreso/san-agustin-acasaguastlan/8a345c029c16dfb12a0d57c30e56851a,Mo-Su 08:00-19:00,Western Union,Q861042
94006d38529690e22131dea9186aac64,western_union,BISA SUPER TIENDA DONA CONY LYG,,San Agustin Acasaguastlan,EL PROGRESO,,GT,+502 5696 7931,https://location.westernunion.com/gt/el-progreso/san-agustin-acasaguastlan/94006d38529690e22131dea9186aac64,Mo-Su 08:00-19:00,Western Union,Q861042
bd0c94718c875c418ea14e30458a496e,western_union,GYTSA CULTORA DE BELLEZA MARYAH STYLE,,San Agustin Acasaguastlan,EL PROGRESO,,GT,+502 4505 1478,https://location.westernunion.com/gt/el-progreso/san-agustin-acasaguastlan/bd0c94718c875c418ea14e30458a496e,Mo-Fr 08:00-17:00; Sa 08:00-12:00,Western Union,Q861042
30eb619c78e25fc11e68705a6bd4e5a4,western_union,7975 MINISUPER SAN AGUSTIN,,San Agustin Acasaguastlan,EL PROGRESO,,GT,+502 3834 4807,https://location.westernunion.com/gt/el-progreso/san-agustin-acasaguastlan/30eb619c78e25fc11e68705a6bd4e5a4,Mo-Su 08:00-19:00,Western Union,Q861042
7f4b1afa8089da84743dd0cef11be6eb,western_union,MULTISERVICIOS GARCIA,,San Agustin Acasaguastlan,EL PROGRESO,,GT,+502 2271 9600,https://location.westernunion.com/gt/el-progreso/san-agustin-acasaguastlan/7f4b1afa8089da84743dd0cef11be6eb,Mo-Su 08:00-23:00,Western Union,Q861042
0d1984927928796087ba75b529207c06,western_union,MULTISERVICIOS GARCIA,,San Agustin Acasaguastlan,EL PROGRESO,,GT,+502 2271 9600,https://location.westernunion.com/gt/el-progreso/san-agustin-acasaguastlan/0d1984927928796087ba75b529207c06,Mo-Fr 08:00-17:00; Sa 09:00-13:00,Western Union,Q861042
b18a2e3e28f48336ec67d10b5d2f250a,western_union,BANRURAL SAN AGUSTIN ACASAGUASTLAN,,San Agustin Acasaguastlan,EL PROGRESO,,GT,+502 2326 6868,https://location.westernunion.com/gt/el-progreso/san-agustin-acasaguastlan/b18a2e3e28f48336ec67d10b5d2f250a,Mo-Su 09:00-20:00,Western Union,Q861042
56483d1b3b7a31a32d622828735d5ca9,western_union,BANRURAL SAN AGUSTIN ACASAGUASTLAN,,San Agustin Acasaguastlan,EL PROGRESO,,GT,+502 2271 9600,https://location.westernunion.com/gt/el-progreso/san-agustin-acasaguastlan/56483d1b3b7a31a32d622828735d5ca9,Mo-Fr 08:00-17:00; Sa 09:00-13:00,Western Union,Q861042
e3bafc5530a886e9abb5f09345719109,western_union,FARMACIA DE MI BARRIO,,San Agustin Acasaguastlan,EL PROGRESO,,GT,+503 2271 9600,https://location.westernunion.com/gt/el-progreso/san-agustin-acasaguastlan/e3bafc5530a886e9abb5f09345719109,Mo-Su 08:00-23:00,Western Union,Q861042
a95748db1dee44c7b686eb37f8880b73,western_union,FARMACIA DE MI BARRIO,,San Agustin Acasaguastlan,EL PROGRESO,,GT,+502 2271 9600,https://location.westernunion.com/gt/el-progreso/san-agustin-acasaguastlan/a95748db1dee44c7b686eb37f8880b73,Mo-Fr 08:00-17:00; Sa 09:00-13:00,Western Union,Q861042
be427ec0ef3077f4021c6fe8e853aa48,western_union,VARIEDADES EMY,,San Agustin Acasaguastlan,EL PROGRESO,,GT,+503 2271 9600,https://location.westernunion.com/gt/el-progreso/san-agustin-acasaguastlan/be427ec0ef3077f4021c6fe8e853aa48,Mo-Su 08:00-23:00,Western Union,Q861042
fe467817ffe03d5d67b960075bbca033,western_union,LIBRERIA Y VARIEDADES ALE,,San Agustin Acasaguastlan,EL PROGRESO,,GT,+503 2271 9600,https://location.westernunion.com/gt/el-progreso/san-agustin-acasaguastlan/fe467817ffe03d5d67b960075bbca033,Mo-Su 08:00-23:00,Western Union,Q861042
3a756cfb03827b9a29bb29283983d27e,western_union,FASHION BOUTIQUE,,San Agustin Acasaguastlan,EL PROGRESO,,GT,+502 2271 9600,https://location.westernunion.com/gt/el-progreso/san-agustin-acasaguastlan/3a756cfb03827b9a29bb29283983d27e,Mo-Su 08:00-23:00,Western Union,Q861042
30c4e3530e2c3f42ea5ffc80e973ac92,western_union,FASHION BOUTIQUE,,San Agustin Acasaguastlan,EL PROGRESO,,GT,+502 2271 9600,https://location.westernunion.com/gt/el-progreso/san-agustin-acasaguastlan/30c4e3530e2c3f42ea5ffc80e973ac92,Mo-Fr 08:00-17:00; Sa 09:00-13:00,Western Union,Q861042
04584625ced1e8b6656e3dff3f48f6e9,western_union,GENESIS EMPRESARIAL SAN AGUSTIN ACASAGUA,,San Agustin Acasaguastlan,EL PROGRESO,,GT,+502 2383 9000,https://location.westernunion.com/gt/el-progreso/san-agustin-acasaguastlan/04584625ced1e8b6656e3dff3f48f6e9,Mo-Fr 08:00-17:00,Western Union,Q861042
b3049c3ad6b67bc78a160a7b3dad7bd0,western_union,3379 COMERCIAL DANDM,,San Agustin Acasaguastlan,EL PROGRESO,,GT,+502 2361 5155,https://location.westernunion.com/gt/el-progreso/san-agustin-acasaguastlan/b3049c3ad6b67bc78a160a7b3dad7bd0,Mo-Fr 07:00-18:00; Sa-Su 09:00-13:00,Western Union,Q861042
08b8049e58b325880f1f8d9e041e035f,western_union,GYTSA MULTISERV Y TRANSPORTES RODRIGUEZ,,San Agustin Acasaguastlan,EL PROGRESO,,GT,+502 4011 9168,https://location.westernunion.com/gt/el-progreso/san-agustin-acasaguastlan/08b8049e58b325880f1f8d9e041e035f,Mo-Fr 08:00-17:00; Sa 08:00-12:00,Western Union,Q861042
cad275751fdcada60c5932c2c8c486bd,western_union,BAZAR FLORECITA,,San Agustin Acasaguastlan,EL PROGRESO,,GT,+502 2271 9600,https://location.westernunion.com/gt/el-progreso/san-agustin-acasaguastlan/cad275751fdcada60c5932c2c8c486bd,Mo-Su 08:00-23:00,Western Union,Q861042
e8a4cbcbd570dfa7f14b1c64ec43ca12,western_union,BAZAR FLORECITA,,San Agustin Acasaguastlan,EL PROGRESO,,GT,+502 2271 9600,https://location.westernunion.com/gt/el-progreso/san-agustin-acasaguastlan/e8a4cbcbd570dfa7f14b1c64ec43ca12,Mo-Fr 08:00-17:00; Sa 09:00-13:00,Western Union,Q861042
1351f6dc001364661a43f5e78b0677cc,western_union,TRABAJADORES SAN AGUSTIN ACASAGUASTLAN,,San Agustin Acasaguastlan,EL PROGRESO,,GT,+502 2423 4445,https://location.westernunion.com/gt/el-progreso/san-agustin-acasaguastlan/1351f6dc001364661a43f5e78b0677cc,Mo-Fr 09:00-17:00; Sa 09:00-13:00,Western Union,Q861042
d8d630bdd51e6214df26c36ce88ab066,western_union,COMPUSYSTEMS,,San Agustin Acasaguastlan,EL PROGRESO,,GT,+502 3742 5951,https://location.westernunion.com/gt/el-progreso/san-agustin-acasaguastlan/d8d630bdd51e6214df26c36ce88ab066,Mo-Sa 08:00-17:00,Western Union,Q861042
3febfa0959abf2f861cee48f10e4fb00,western_union,FERRETERIA COWO,,Morazan,EL PROGRESO,,GT,+502 2271 9600,https://location.westernunion.com/gt/el-progreso/morazan/3febfa0959abf2f861cee48f10e4fb00,Mo-Fr 08:00-17:00; Sa 09:00-13:00,Western Union,Q861042
190afb0a8300bd7fb01acc09da52e462,western_union,FERRETERIA COWO,,Morazan,EL PROGRESO,,GT,+502 2271 9600,https://location.westernunion.com/gt/el-progreso/morazan/190afb0a8300bd7fb01acc09da52e462,Mo-Su 08:00-23:00,Western Union,Q861042
41379972a13099446968bc21465b0340,western_union,7900 LIBRERIA J & A,,San Agustin Acasaguastlan,EL PROGRESO,,GT,+502 5206 3457,https://location.westernunion.com/gt/el-progreso/san-agustin-acasaguastlan/41379972a13099446968bc21465b0340,Mo-Sa 07:30-19:00,Western Union,Q861042
bedf7d4a9f9bcb14ec8b78b505055bc5,western_union,BISA LINDAS NOVEDADES,,San Agustin Acasaguastlan,EL PROGRESO,,GT,+502 4020 2922,https://location.westernunion.com/gt/el-progreso/san-agustin-acasaguastlan/bedf7d4a9f9bcb14ec8b78b505055bc5,Mo-Su 08:00-19:00,Western Union,Q861042
f0ff179e61577368b630ce4d0920c721,western_union,BISA COMPUSYSTEMS,,San Agustin Acasaguastlan,EL PROGRESO,,GT,+502 3742 5951,https://location.westernunion.com/gt/el-progreso/san-agustin-acasaguastlan/f0ff179e61577368b630ce4d0920c721,Mo-Su 08:00-19:00,Western Union,Q861042
483c155399d240d1b6edc18739b77aed,western_union,SERVINTERNET PLUS,,San Agustin Acasaguastlan,EL PROGRESO,,GT,+503 2271 9600,https://location.westernunion.com/gt/el-progreso/san-agustin-acasaguastlan/483c155399d240d1b6edc18739b77aed,Mo-Su 08:00-23:00,Western Union,Q861042
8cc5600909e2e4405747295103fca6c2,western_union,FERRETERIA SANDOVAL,,San Agustin Acasaguastlan,EL PROGRESO,,GT,+502 2271 9600,https://location.westernunion.com/gt/el-progreso/san-agustin-acasaguastlan/8cc5600909e2e4405747295103fca6c2,Mo-Fr 08:00-17:00; Sa 09:00-13:00,Western Union,Q861042
f26e3bd84410e8e2e76c6890af331d6b,western_union,FERRETERIA SANDOVAL,,San Agustin Acasaguastlan,EL PROGRESO,,GT,+502 2271 9600,https://location.westernunion.com/gt/el-progreso/san-agustin-acasaguastlan/f26e3bd84410e8e2e76c6890af331d6b,Mo-Su 08:00-23:00,Western Union,Q861042
faedafde8bbc48413d85fee45a87906f,western_union,TRABAJADORES SAN AGUSTIN ACASAGUASTLAN,,San Agustin Acasaguastlan,EL PROGRESO,,GT,(+502) 1755,https://location.westernunion.com/gt/el-progreso/san-agustin-acasaguastlan/faedafde8bbc48413d85fee45a87906f,Mo-Fr 09:00-17:30; Sa 09:00-13:00,Western Union,Q861042
dd5c4bec97ca838d622fc11841175855,western_union,VENTA DE MEDICINA EL ANGEL,,Morazan,EL PROGRESO,,GT,+502 2271 9600,https://location.westernunion.com/gt/el-progreso/morazan/dd5c4bec97ca838d622fc11841175855,Mo-Fr 08:00-17:00; Sa 09:00-13:00,Western Union,Q861042
5eab4a77ea8771384a5e4939a8ad9974,western_union,COMERCIAL CHICAMAN,,Morazan,EL PROGRESO,,GT,+502 2271 9600,https://location.westernunion.com/gt/el-progreso/morazan/5eab4a77ea8771384a5e4939a8ad9974,Mo-Su 08:00-23:00,Western Union,Q861042
cf0455d5c4e546532c83656fcddcbe08,western_union,COMERCIAL CHICAMAN,,Morazan,EL PROGRESO,,GT,+502 2271 9600,https://location.westernunion.com/gt/el-progreso/morazan/cf0455d5c4e546532c83656fcddcbe08,Mo-Fr 08:00-17:00; Sa 09:00-13:00,Western Union,Q861042
bab6e399511553939a140585979995c5,western_union,LIBRERIA EMILY ALDEA MARAJUMA,,Morazan,EL PROGRESO,,GT,+502 2271 9600,https://location.westernunion.com/gt/el-progreso/morazan/bab6e399511553939a140585979995c5,Mo 08:00-08:00; Tu-Su 23:00-08:00,Western Union,Q861042
c96bcdf2378e68b71468e450af95f39c,western_union,LIBRERIA EMILY ALDEA MARAJUMA,,Morazan,EL PROGRESO,,GT,+502 2271 9600,https://location.westernunion.com/gt/el-progreso/morazan/c96bcdf2378e68b71468e450af95f39c,Mo-Fr 08:00-17:00; Sa 09:00-13:00,Western Union,Q861042
acb2bcb5e09654ad8a7bfad1b5f6e318,western_union,COMERCIAL ISI,,Morazan,EL PROGRESO,,GT,+502 2271 9600,https://location.westernunion.com/gt/el-progreso/morazan/acb2bcb5e09654ad8a7bfad1b5f6e318,Mo-Fr 08:00-17:00; Sa 09:00-13:00,Western Union,Q861042
b563c310b6917e6e0cb04e3197917bd8,western_union,COMERCIAL ISI,,Morazan,EL PROGRESO,,GT,+502 2271 9600,https://location.westernunion.com/gt/el-progreso/morazan/b563c310b6917e6e0cb04e3197917bd8,Mo-Su 08:00-23:00,Western Union,Q861042
0c20d6a1f8ef486149b455c6b92b3232,western_union,DONDE MEMA,,Morazan,EL PROGRESO,,GT,+502 2271 9600,https://location.westernunion.com/gt/el-progreso/morazan/0c20d6a1f8ef486149b455c6b92b3232,Mo-Fr 08:00-17:00; Sa 09:00-13:00,Western Union,Q861042
2ded94e0e48574977d48c8cc94baae93,western_union,DONDE MEMA,,Morazan,EL PROGRESO,,GT,+502 2271 9600,https://location.westernunion.com/gt/el-progreso/morazan/2ded94e0e48574977d48c8cc94baae93,Mo-Su 08:00-23:00,Western Union,Q861042
89cc5149d8f57cd5a84d5a60eb9783ae,western_union,COMERCIAL BENMATEO,,Morazan,EL PROGRESO,,GT,+502 2271 9600,https://location.westernunion.com/gt/el-progreso/morazan/89cc5149d8f57cd5a84d5a60eb9783ae,Mo-Fr 08:00-17:00; Sa 09:00-13:00,Western Union,Q861042
be38a13c58245ddbd6179d37ddd3ca66,western_union,COMERCIAL BENMATEO,,Morazan,EL PROGRESO,,GT,+503 2271 9600,https://location.westernunion.com/gt/el-progreso/morazan/be38a13c58245ddbd6179d37ddd3ca66,Mo-Su 08:00-23:00,Western Union,Q861042
d341447bb7dd968a3a386b4a63cd44b4,western_union,FARMACIA LA FE MORAZAN,,Morazan,EL PROGRESO,,GT,+502 2271 9600,https://location.westernunion.com/gt/el-progreso/morazan/d341447bb7dd968a3a386b4a63cd44b4,Mo-Fr 08:00-17:00; Sa 09:00-13:00,Western Union,Q861042
f3d8c2a4ed1ae67aaf35fc0c315c608c,western_union,FARMACIA LA FE MORAZAN,,Morazan,EL PROGRESO,,GT,+502 2271 9600,https://location.westernunion.com/gt/el-progreso/morazan/f3d8c2a4ed1ae67aaf35fc0c315c608c,Mo-Su 08:00-23:00,Western Union,Q861042
9059ce8a976b148de649792a4a035965,western_union,DISTRIBUIDORA EL PROGRESO,,Morazan,EL PROGRESO,,GT,+503 2271 9600,https://location.westernunion.com/gt/el-progreso/morazan/9059ce8a976b148de649792a4a035965,Mo-Su 08:00-23:00,Western Union,Q861042
3d250370d2c404da5705da40328a03eb,western_union,DISTRIBUIDORA EL PROGRESO,,Morazan,EL PROGRESO,,GT,+502 2271 9600,https://location.westernunion.com/gt/el-progreso/morazan/3d250370d2c404da5705da40328a03eb,Mo-Fr 08:00-17:00; Sa 09:00-13:00,Western Union,Q861042
40ae1ca95ae0166e8d13af0b045f99b5,western_union,GYTSA FARMACIA EL SHADDAI,,Morazan,EL PROGRESO,,GT,+502 3109 2003,https://location.westernunion.com/gt/el-progreso/morazan/40ae1ca95ae0166e8d13af0b045f99b5,Mo-Su 08:00-19:00,Western Union,Q861042
8536095ea81d2aaadbb53844fac915aa,western_union,MICOOPE GUAYACAN,,Morazan,EL PROGRESO,,GT,+502 2302 1302,https://location.westernunion.com/gt/el-progreso/morazan/8536095ea81d2aaadbb53844fac915aa,Mo-Fr 08:00-17:00; Sa-Su 08:00-12:00,Western Union,Q861042
8aa7268ede86bf3f2fbd24c7b615c015,western_union,7782 FARMACIA EL SHADDAI,,Morazan,EL PROGRESO,,GT,+502 3109 2003,https://location.westernunion.com/gt/el-progreso/morazan/8aa7268ede86bf3f2fbd24c7b615c015,Mo-Su 07:00-20:00,Western Union,Q861042
1cbdbd50bfa19b9d106eda38dd3d9163,western_union,VENTA DE MEDICINA EL ANGEL,,Morazan,EL PROGRESO,,GT,+502 2271 9600,https://location.westernunion.com/gt/el-progreso/morazan/1cbdbd50bfa19b9d106eda38dd3d9163,Mo-Su 08:00-23:00,Western Union,Q861042
4d583b55d83aecf0c37d431afee80874,western_union,EL SUPER,,Morazan,EL PROGRESO,,GT,+503 2271 9600,https://location.westernunion.com/gt/el-progreso/morazan/4d583b55d83aecf0c37d431afee80874,Mo-Su 08:00-23:00,Western Union,Q861042
788436cd87f94aeece10adeeb99319b0,western_union,EL SUPER,,Morazan,EL PROGRESO,,GT,+502 2271 9600,https://location.westernunion.com/gt/el-progreso/morazan/788436cd87f94aeece10adeeb99319b0,Mo-Fr 08:00-17:00; Sa 09:00-13:00,Western Union,Q861042
44463d64aa5afb3d18726b90e7b77538,western_union,LIBRERIA LOS TRES CUATES,,San Agustin Acasaguastlan,EL PROGRESO,,GT,+502 2271 9600,https://location.westernunion.com/gt/el-progreso/san-agustin-acasaguastlan/44463d64aa5afb3d18726b90e7b77538,Mo-Su 08:00-23:00,Western Union,Q861042
2733ccd7843ddfc3d0764350697ddfac,western_union,TIENDA YULEIDY,,San Agustin Acasaguastlan,EL PROGRESO,,GT,+502 2271 9600,https://location.westernunion.com/gt/el-progreso/san-agustin-acasaguastlan/2733ccd7843ddfc3d0764350697ddfac,Mo-Fr 08:00-17:00; Sa 09:00-13:00,Western Union,Q861042
63117b977b0b3a141bc0ff9677364780,western_union,TIENDA YULEIDY,,San Agustin Acasaguastlan,EL PROGRESO,,GT,+502 2271 9600,https://location.westernunion.com/gt/el-progreso/san-agustin-acasaguastlan/63117b977b0b3a141bc0ff9677364780,Mo-Su 08:00-23:00,Western Union,Q861042
9fece1ec34537a3c78cc886ef2a17db0,western_union,AUTO SERVICIOS Y CENTRO DE ELECTRO PORT,,Sansare,EL PROGRESO,,GT,+502 2271 9600,https://location.westernunion.com/gt/el-progreso/sansare/9fece1ec34537a3c78cc886ef2a17db0,Mo-Su 08:00-23:00,Western Union,Q861042
2162f111d799168a016f7b3b92b0b409,western_union,AUTO SERVICIOS Y CENTRO DE ELECTRO PORT,,Sansare,EL PROGRESO,,GT,+502 2271 9600,https://location.westernunion.com/gt/el-progreso/sansare/2162f111d799168a016f7b3b92b0b409,Mo-Fr 08:00-17:00; Sa 09:00-13:00,Western Union,Q861042
952db9e1ad084491ee257690bba0c6c3,western_union,FERRETERIA EL OBRERO,,San Antonio La Paz,EL PROGRESO,,GT,+502 2271 9600,https://location.westernunion.com/gt/el-progreso/san-antonio-la-paz/952db9e1ad084491ee257690bba0c6c3,Mo-Su 08:00-23:00,Western Union,Q861042
436d4f814b04c2480eb6a4854e7505cb,western_union,FERRETERIA EL OBRERO,,San Antonio La Paz,EL PROGRESO,,GT,+502 2271 9600,https://location.westernunion.com/gt/el-progreso/san-antonio-la-paz/436d4f814b04c2480eb6a4854e7505cb,Mo-Fr 08:00-17:00; Sa 09:00-13:00,Western Union,Q861042
cb476dc2fbbbe3a6f1fa60c0e28a903b,western_union,MULTIMARCAS GUASTATOYA 2,,Guastatoya,EL PROGRESO,,GT,+503 2271 9600,https://location.westernunion.com/gt/el-progreso/guastatoya/cb476dc2fbbbe3a6f1fa60c0e28a903b,Mo-Su 08:00-23:00,Western Union,Q861042
