Ref,Spider,Name,Address,City,State,Zipcode,Country,Phone,Website,Hours,Brand,WikiData
0189,bjswholesale,Haverhill,,Haverhill,MA,,US,+1 978-241-1050,https://www.bjs.com/mapDetail;city=0189,Mo-Sa 08:00-21:00,BJ's Wholesale,Q4835754
240202,bluerhino,Circle K #4707503,,Haverhill,MA,,US,+1 978-469-9750,,,Blue Rhino,Q65681213
59075,citi,ATM HAVERHILL BANK,,Haverhill,MA,,US,,,,Citibank,Q857063
92464,citi,ATM Walgreens,,Haverhill,MA,,US,,,,Citibank,Q857063
32098,citi,ATM 7ELEVEN-FCTI,,Bradford,MA,,US,,,,Citibank,Q857063
42274,citi,ATM Circle K,,Haverhill,MA,,US,,,,Citibank,Q857063
530,crunch_fitness,Crunch Fitness,,Haverhill,MA,,US,+1 978-241-6305,https://www.crunch.com/locations/haverhill,,Crunch Fitness,Q5190093
336710,dunkin_us,Dunkin',,Bradford,MA,,US,+1 978-556-9420,https://locations.dunkindonuts.com/en/ma/bradford/15-s-main-street/336710,Mo-Sa 04:00-21:00; Su 05:00-21:00,Dunkin',Q847743
353874,dunkin_us,Dunkin',,Haverhill,MA,,US,+1 978-521-2497,https://locations.dunkindonuts.com/en/ma/haverhill/915-s-main-st/353874,Mo-Su 04:00-22:00,Dunkin',Q847743
501887,extra_space_storage,Haverhill Self Storage at 50 Ferry Rd,,Haverhill,MA,,US,+1 978-521-4100,https://www.extraspace.com/storage/facilities/us/massachusetts/haverhill/501887/,Mo-Fr 09:30-18:00; Sa 09:00-17:30,Extra Space Storage,Q5422162
34422,seven_eleven_ca_us,7-Eleven Store,,Bradford,MA,,US,+1 978-521-6863,https://www.7-eleven.com/locations/ma/bradford/687-s-main-st-34422,,7-Eleven,Q259340
1386379,usps,WARD HILL,,HAVERHILL,MA,,US,+1 978-372-6802,,"Mo-Fr 08:30-12:00,13:00-17:00; Sa 08:30-12:00",United States Postal Service,Q668687
1355625,usps,BRADFORD,,HAVERHILL,MA,,US,+1 978-521-3437,,Mo-Fr 08:30-17:00; Sa 08:30-13:00,United States Postal Service,Q668687
0183500020,usps_collection_boxes,USPS COLLECTION BOX - BLUE BOX,34 ROGERS RD,BRADFORD,MA,,US,,,,United States Postal Service,Q668687
0183500006,usps_collection_boxes,USPS COLLECTION BOX - BLUE BOX,64 LAUREL AVE,BRADFORD,MA,,US,,,,United States Postal Service,Q668687
0183500005,usps_collection_boxes,USPS COLLECTION BOX - BLUE BOX,580 S MAIN ST,BRADFORD,MA,,US,,,,United States Postal Service,Q668687
0183500015,usps_collection_boxes,USPS COLLECTION BOX - BLUE BOX,76 S MAIN ST,BRADFORD,MA,,US,,,,United States Postal Service,Q668687
0183500022,usps_collection_boxes,USPS COLLECTION BOX - PO LOBBY,135 S MAIN ST,BRADFORD,MA,,US,,,,United States Postal Service,Q668687
0183500001,usps_collection_boxes,USPS COLLECTION BOX - BLUE BOX,135 S MAIN ST,BRADFORD,MA,,US,,,,United States Postal Service,Q668687
0183500016,usps_collection_boxes,USPS COLLECTION BOX - BLUE BOX,19 CROSS RD,BRADFORD,MA,,US,,,,United States Postal Service,Q668687
0183500024,usps_collection_boxes,USPS COLLECTION BOX - PO LOBBY,19 CROSS RD,BRADFORD,MA,,US,,,,United States Postal Service,Q668687
0183500012,usps_collection_boxes,USPS COLLECTION BOX - BLUE BOX,20 SALEM ST,BRADFORD,MA,,US,,,,United States Postal Service,Q668687
,visa,,,BRADFORD,MA,,US,,,,,
,visa,,,HAVERHILL,MA,,US,,,,,
,visa,,,HAVERHILL,MA,,US,,,,,
,visa,,,HAVERHILL,MA,,US,,,,,
,visa,,,HAVERHILL,MA,,US,,,,,
,visa,,,BRADFORD,MA,,US,,,,,
,visa,,,BRADFORD,MA,,US,,,,,
,visa,,,HAVERHILL,MA,,US,,,,,
,visa,,,HAVERHILL,MA,,US,,,,,
https://www.walgreens.com/locator/walgreens-68+s+main+st-haverhill-ma-01835/id=17482,walgreens,Walgreens,,Haverhill,MA,,US,+1 978-373-0292,https://www.walgreens.com/locator/walgreens-68+s+main+st-haverhill-ma-01835/id=17482,Mo-Fr 08:00-22:00; Sa 08:00-21:00; Su 09:00-21:00,Walgreens,Q1591889
https://locations.wendys.com/#9251024,wendys,"Wendy's 39 S Main St in Bradford, MA",,Bradford,MA,,US,+1 978-372-6291,https://locations.wendys.com/united-states/ma/bradford/39-s-main-st,"Mo-Fr 06:30-10:30,06:30-22:00; Sa-Su 06:30-11:00,06:30-22:00",Wendy's,Q550258
