Ref,Spider,Name,Address,City,State,Zipcode,Country,Phone,Website,Hours,Brand,WikiData
12536 130th Ln NE,allied_universal,Allied Universal,,Kirkland,WA,,US,+1 510-633-1300,https://www.aus.com/seattle-security-systems-services,,Allied Universal,Q4732537
https://locations.atipt.com/kirkland-evergreen-plaza,ati_physical_therapy,ATI Physical Therapy Kirkland 7174,,Kirkland,WA,,US,+1 425-820-0869,https://locations.atipt.com/kirkland-evergreen-plaza,,ATI Physical Therapy,Q50039703
124016,att_us,TOTEM LAKE,,Kirkland,WA,,US,+1 425-821-0786,https://www.att.com/stores/washington/kirkland/124016,Mo-Sa 10:00-20:00; Su 11:00-18:00,AT&T,Q298594
4118,autozone_us,AutoZone Auto Parts Kirkland,,Kirkland,WA,,US,+1 425-823-4447,https://www.autozone.com/locations/wa/kirkland/12660-totem-lake-blvd.html,Mo-Sa 08:00-21:00; Su 09:00-20:00,AutoZone,Q4826087
https://locators.bankofamerica.com/wa/kirkland/financial-centers-kirkland-15752.html,bankofamerica,Bank of America Financial Center & Walk-Up ATM | Kingsgate,,Kirkland,WA,,US,+1 425-820-0160,https://locators.bankofamerica.com/wa/kirkland/financial-centers-kirkland-15752.html,Mo-Fr 10:00-16:00,Bank of America,Q487907
https://locators.bankofamerica.com/wa/kirkland/financial-centers-kirkland-12650.html,bankofamerica,Bank of America Financial Center & Drive-Thru ATM | Juanita,,Kirkland,WA,,US,+1 425-823-2400,https://locators.bankofamerica.com/wa/kirkland/financial-centers-kirkland-12650.html,Mo-Fr 10:00-16:00,Bank of America,Q487907
https://locators.bankofamerica.com/wa/kirkland/atm-kirkland-110381.html,bankofamerica,Bank of America Walk-Up ATM | Juanita Firs Shopping Center,,Kirkland,WA,,US,+1 844-401-8500,https://locators.bankofamerica.com/wa/kirkland/atm-kirkland-110381.html,,Bank of America,Q487907
128964,bluerhino,QFC #838,,Kirkland,WA,,US,+1 425-821-4885,,,Blue Rhino,Q65681213
139886,bluerhino,Finn Hill Gas Station,,Kirkland,WA,,US,+1 206-724-9700,,,Blue Rhino,Q65681213
214196,bluerhino,Josh Market,,Kirkland,WA,,US,+1 425-319-5463,,,Blue Rhino,Q65681213
155990,bluerhino,Walgreens #6258,,Kirkland,WA,,US,+1 425-825-8841,,,Blue Rhino,Q65681213
128958,bluerhino,QFC #828,,Kirkland,WA,,US,+1 425-821-8502,,,Blue Rhino,Q65681213
218936,bluerhino,BP West Coast Products LLC ARCO AMPM #7055,,Kirkland,WA,,US,+1 425-242-1026,,,Blue Rhino,Q65681213
65544,bluerhino,Fred Meyer #00391,,Kirkland,WA,,US,+1 425-820-3200,,,Blue Rhino,Q65681213
179348,bluerhino,Fred Meyer #391 - Fuel Site,,Kirkland,WA,,US,+1 425-820-3200,,,Blue Rhino,Q65681213
94700,bluerhino,Wen-Jen Chien AM/PM #5230,,Kirkland,WA,,US,+1 425-296-2251,,,Blue Rhino,Q65681213
12293449,chase_us,Totem Hill Fred Meyer,,Kirkland,WA,,US,+1 800-935-9935,https://locator.chase.com/wa/kirkland/12221-120th-ave-ne,,Chase,Q524629
2039962,chase_us,Totem Lake - New branch,,Kirkland,WA,,US,+1 425-821-0110,https://locator.chase.com/wa/kirkland/12028-ne-totem-lake-way,Mo-Fr 09:00-17:00; Sa 09:00-13:00,Chase,Q524629
wa_kirkland_12530-totem-lake-blvd-ne,chipotle, ,,Kirkland,WA,,US,+1 425-814-9849,https://locations.chipotle.com/wa/kirkland/12530-totem-lake-blvd-ne,,Chipotle,Q465751
wa-kirkland/cinemark-totem-lake-kirkland-and-xd,cinemark,Cinemark Totem Lake Kirkland and XD,,Kirkland,WA,,US,+1 425-821-0511,https://www.cinemark.com/theatres/wa-kirkland/cinemark-totem-lake-kirkland-and-xd,,Cinemark,Q707530
25830,citi,ATM 7ELEVEN-FCTI,,Kirkland,WA,,US,,,,Citibank,Q857063
63571,citi,ATM Lake Washington,,Kirkland,WA,,US,,,,Citibank,Q857063
72744,citi,ATM Rite Aid,,Kirkland,WA,,US,,,,Citibank,Q857063
34689,citi,ATM Ampm,,Kirkland,WA,,US,,,,Citibank,Q857063
24970,citi,ATM 7ELEVEN-FCTI,,Kirkland,WA,,US,,,,Citibank,Q857063
60843,citi,ATM Kirkland 76,,Kirkland,WA,,US,,,,Citibank,Q857063
84001,citi,ATM Totem Hill,,Kirkland,WA,,US,,,,Citibank,Q857063
93803,citi,ATM WASHINGTON FEDERAL BANK,,Kirkland,WA,,US,,,,Citibank,Q857063
25543,citi,ATM 7ELEVEN-FCTI,,Kirkland,WA,,US,,,,Citibank,Q857063
71612,citi,ATM Qfc,,Kirkland,WA,,US,,,,Citibank,Q857063
36367,citi,ATM Bartell,,Kirkland,WA,,US,,,,Citibank,Q857063
7139,dominos_pizza_us,Domino's Pizza,,Kirkland,WA,,US,+1 425-820-4660,https://pizza.dominos.com/washington/kirkland/13501-100th-avenue-ne-suite-10,Mo-Th 10:30-24:00; Fr-Sa 10:30-01:00; Su 10:30-24:00,Domino's,Q839466
https://www.edwardjones.com/us-en/financial-advisor/keanan-jacobson,edwardjones,Keanan Jacobson,,Kirkland,WA,,US,+1 425-823-3163,https://www.edwardjones.com/us-en/financial-advisor/keanan-jacobson,Mo-Th 08:30-17:30; Fr 08:30-17:00,Edward Jones,Q5343830
210221,electrify_america,"QFC 828 (Kirkland, WA)",,Kirkland,WA,,US,,,,Electrify America,Q59773555
https://local.fedex.com/#25207404,fedex,,,Kirkland,WA,,US,+1 800-463-3339,https://local.fedex.com/en-us/wa/kirkland/kptz1,,FedEx,Q459477
https://local.fedex.com/#25476688,fedex,,,Kirkland,WA,,US,+1 800-463-3339,https://local.fedex.com/en-us/wa/kirkland/bvuoc,,FedEx,Q459477
https://local.fedex.com/#25477039,fedex,,,Kirkland,WA,,US,+1 800-463-3339,https://local.fedex.com/en-us/wa/kirkland/bvuob,,FedEx,Q459477
https://local.fedex.com/#27760616,fedex,FedEx Authorized ShipCenter,,Kirkland,WA,,US,+1 425-821-2288,https://local.fedex.com/en-us/wa/kirkland/66830,,FedEx,Q459477
https://restaurants.fiveguys.com/#15552294,five_guys_us,Five Guys Totem Lake,,Kirkland,WA,,US,+1 425-814-3256,https://restaurants.fiveguys.com/11220-ne-124th-street,"Mo-Su 11:00-21:30,11:00-22:00",Five Guys,Q1131810
Motorcraft5462USAEnglish,ford,Ford of Kirkland,,Washington,WA,,US,+1 425-821-6611,,,Ford,Q44294
https://www.ford.com/dealerships/dealer-details/wa/kirkland/ford-of-kirkland/,ford_dealers_us,Ford of Kirkland,,Kirkland,WA,,US,+1 425-587-7682,https://www.ford.com/dealerships/dealer-details/wa/kirkland/ford-of-kirkland/,Mo-Sa 09:00-20:00; Su 10:00-19:00,Ford Motor Company,Q44294
7852,gamestop_us,Totem Lake,,KIRKLAND,WA,,US,+1 425-250-8321,https://www.gamestop.com/search/?store=7852,Mo-Th 12:00-19:00; Fr-Sa 11:00-21:00; Su 12:00-19:00,GameStop,Q202210
f04ee869-458a-e111-8dde-005056934050,goodwill,Totem Lake Donation Center,,Kirkland,WA,,US,,https://www.goodwill.org/locator/location/?store=ZjA0ZWU4NjktNDU4YS1lMTExLThkZGUtMDA1MDU2OTM0MDUw&lat=NDcuNzA5NzE=&lng=LTEyMi4xODQ0NQ==,,Goodwill,Q5583655
783bc390-be03-e511-a33c-0050568924e6,goodwill,Juanita Store,,Kirkland,WA,,US,+1 425-823-7430,https://www.goodwill.org/locator/location/?store=NzgzYmMzOTAtYmUwMy1lNTExLWEzM2MtMDA1MDU2ODkyNGU2&lat=NDcuNzE5NDU=&lng=LTEyMi4yMDkwMg==,,Goodwill,Q5583655
https://salons.greatclips.com/us/wa/kirkland/10046-ne-137th-st,greatclips,Great Clips,,Kirkland,WA,,US,+1 425-820-7073,https://salons.greatclips.com/us/wa/kirkland/10046-ne-137th-st,Mo-Fr 09:00-19:00; Sa 09:00-18:00; Su 09:00-17:00,Great Clips,Q5598967
45701,h_r_block,H&R Block,,Kirkland,WA,,US,+1 425-823-6660,https://www.hrblock.com/local-tax-offices/washington/kirkland/11737-124th-ave-ne/45701/,,H&R Block,Q5627799
https://locations.jimmyjohns.com/wa/kirkland/sandwiches-1856.html,jimmy_johns,Jimmy John's,,Kirkland,WA,,US,+1 425-580-8800,https://locations.jimmyjohns.com/wa/kirkland/sandwiches-1856.html,,Jimmy John's,Q1689380
https://locations.jimmyjohns.com/wa/kirkland/sandwiches-1074.html,jimmy_johns,Jimmy John's,,Kirkland,WA,,US,+1 425-828-9000,https://locations.jimmyjohns.com/wa/kirkland/sandwiches-1074.html,,Jimmy John's,Q1689380
https://locations.kfc.com/#11247402,kfc,Chicken Nuggets Near Kirkland,,Kirkland,WA,,US,,https://locations.kfc.com/wa/kirkland/11747-124th-ave-ne/chickennugget,,KFC,Q524757
000389,kindercare,Juanita KinderCare,,Kirkland,WA,,US,,https://www.kindercare.com/our-centers/kirkland/wa/000389,,KinderCare Learning Centers,Q6410551
https://local.lenscrafters.com/wa/kirkland/11901-ne-village-plaza.html,lenscrafters,LensCrafters,,Kirkland,WA,,US,+1 425-602-6152,https://local.lenscrafters.com/wa/kirkland/11901-ne-village-plaza.html,Mo-Sa 09:30-19:00; Su 11:00-18:00,LensCrafters,Q6523209
61875,little_free_library,Tracey Villines #61875 Kirkland WA,,Kirkland,WA,,US,,,,Little Free Library,Q6650101
174103,little_free_library,Little Free Library At Slater Park Condos #174103 Kirkland WA,,Kirkland,WA,,US,,,,Little Free Library,Q6650101
114668,little_free_library,Asbury Park Library #114668 Kirkland WA,,Kirkland,WA,,US,,,,Little Free Library,Q6650101
123704,little_free_library,Firloch Little Library #123704 Kirkland WA,,Kirkland,WA,,US,,,,Little Free Library,Q6650101
131954,little_free_library,Angela Chapman #131954 Kirkland WA,,Kirkland,WA,,US,,,,Little Free Library,Q6650101
135324,little_free_library,Meritage Ridge Community Free Library #135324 Kirkland WA,,Kirkland,WA,,US,,,,Little Free Library,Q6650101
134729,little_free_library,Leeeeetle Free Library #134729 Kirkland WA,,Kirkland,WA,,US,,,,Little Free Library,Q6650101
105810,little_free_library,Cindy Topinka #105810 Kirkland WA,,Kirkland,WA,,US,,,,Little Free Library,Q6650101
98071,little_free_library,Sharon Knowles #98071 Kirkland WA,,Kirkland,WA,,US,,,,Little Free Library,Q6650101
7648,little_free_library,Joan Whittaker #7648 Kirkland WA,,Kirkland,WA,,US,,,,Little Free Library,Q6650101
5033,little_free_library,Midge Markey #5033 Kirkland WA,,Kirkland,WA,,US,,,,Little Free Library,Q6650101
56549,little_free_library,Marcia Schlegel #56549 Kirkland WA,,Kirkland,WA,,US,,,,Little Free Library,Q6650101
46698,little_free_library,Lynne's Little Library #46698 Kirkland WA,,Kirkland,WA,,US,,,,Little Free Library,Q6650101
2165,little_free_library,Sharon Langlois #2165 Kirkland Wa,,Kirkland,WA,,US,,,,Little Free Library,Q6650101
27790,little_free_library,The Emerald City Little Free Library #27790 Kirkland WA,,Kirkland,WA,,US,,,,Little Free Library,Q6650101
47379,little_free_library,Grace Lasker #47379 Kirkland WA,,Kirkland,WA,,US,,,,Little Free Library,Q6650101
96783,little_free_library,Little Goat Hill Library #96783 Kirkland WA,,Kirkland,WA,,US,,,,Little Free Library,Q6650101
117473,little_free_library,"Rath Family Library, Please Read & Share #117473 Kirkland WA",,Kirkland,WA,,US,,,,Little Free Library,Q6650101
105703,little_free_library,Tiny Free Library #105703 Kirkland WA,,Kirkland,WA,,US,,,,Little Free Library,Q6650101
89067,little_free_library,Shooting Stars Scouts LFL #89067 Kirkland WA,,Kirkland,WA,,US,,,,Little Free Library,Q6650101
165111,little_free_library,Claudia Adams #165111 Kirkland WA,,Kirkland,WA,,US,,,,Little Free Library,Q6650101
30865,little_free_library,Kirkland Review #30865 Kirkland WA,,Kirkland,WA,,US,,,,Little Free Library,Q6650101
166042,little_free_library,Little Free Library #166042 Kirkland WA,,Kirkland,WA,,US,,,,Little Free Library,Q6650101
18870,little_free_library,Julie Metteer #18870 Kirkland WA,,Kirkland,WA,,US,,,,Little Free Library,Q6650101
43297,little_free_library,Sullivans' LFL #43297 Kirkland WA,,Kirkland,WA,,US,,,,Little Free Library,Q6650101
105041,little_free_library,Conifer Vista South #105041 Kirkland WA,,Kirkland,WA,,US,,,,Little Free Library,Q6650101
91981,little_free_library,Girl Scout Troop 44323 #91981 Kirkland WA,,Kirkland,WA,,US,,,,Little Free Library,Q6650101
Village at Totem Lake,lululemon,Lululemon,"11900 NE Village Plaza, Suite 188, Kirkland, WA, US, 98034",Kirkland,WA,,US,+1 425-578-5396,https://shop.lululemon.com/stores/us/kirkland/village-at-totem-lake,Mo-Sa 10:00-20:00; Su 11:00-19:00,Lululemon,Q6702957
dealer_6152,maserati,MASERATI OF KIRKLAND,,KIRKLAND,WA,,US,+1 425-821-0900,https://www.maseratiofkirkland.com/,,Maserati,Q35962
3623,mattress_depot_usa_us,Kirkland Store,12539 Totem Lake Blvd NE,Kirkland,WA,,US,+1 425-814-0559,https://www.mattressdepotusa.com/location/kirkland-store/,,Mattress Depot USA,Q108413386
18777,mattress_firm_us,Mattress Firm Kirkland Totem Lake,,Kirkland,WA,,US,+1 425-441-1374,https://www.mattressfirm.com/en-us/stores/wa/kirkland/508059/,,Mattress Firm,Q6791878
https://locations.modpizza.com/#23558310,modpizza,MOD Pizza Totem Lake,,Kirkland,WA,,US,+1 425-243-4840,https://locations.modpizza.com/usa/wa/kirkland/12530-totem-lake-blvd,Mo-We 10:30-22:00; Th-Sa 10:30-23:00; Su 10:30-22:00,MOD Pizza,Q19903469
66547798,moneygram,A1 CASH NOW,,KIRKLAND,WA,,US,+1 425-820-4653,,Mo 10:00-17:00; Tu-Fr 10:00-20:00; Sa-Su 00:00-24:00,MoneyGram,Q1944412
NNA5819,nissan_europe,LEE JOHNSON NISSAN OF KIRKLAND,,KIRKLAND,WA,,US,+1 425-821-1400,https://www.kirklandnissan.com,Mo-Fr 09:00-20:00; Sa 09:00-19:00; Su 11:00-18:00,Nissan,Q20165
https://stores.nordstromrack.com/#9398292,nordstrom_rack,Nordstrom Rack  The Village at Totem Lake Kirkland,,Kirkland,WA,,US,+1 425-202-0205,https://stores.nordstromrack.com/us/wa/kirkland/12520-totem-lake-blvd-ne,Mo-Sa 10:00-21:00; Su 11:00-19:00,Nordstrom Rack,Q21463374
https://locations.oreillyauto.com/wa/kirkland/check-engine-light-testing-2508.html,oreilly,Your Kirkland O'Reilly Auto Parts Store,,Kirkland,WA,,US,+1 425-821-8080,https://locations.oreillyauto.com/wa/kirkland/check-engine-light-testing-2508.html,Mo-Sa 07:30-21:00; Su 08:00-20:00,O'Reilly Auto Parts,Q7071951
https://locations.oreillyauto.com/wa/kirkland/wiper-installation-2508.html,oreilly,Your Kirkland O'Reilly Auto Parts Store,,Kirkland,WA,,US,+1 425-821-8080,https://locations.oreillyauto.com/wa/kirkland/wiper-installation-2508.html,Mo-Sa 07:30-21:00; Su 08:00-20:00,O'Reilly Auto Parts,Q7071951
https://locations.oreillyauto.com/wa/kirkland/battery-testing-2508.html,oreilly,Your Kirkland O'Reilly Auto Parts Store,,Kirkland,WA,,US,+1 425-821-8080,https://locations.oreillyauto.com/wa/kirkland/battery-testing-2508.html,Mo-Sa 07:30-21:00; Su 08:00-20:00,O'Reilly Auto Parts,Q7071951
https://locations.oreillyauto.com/wa/kirkland/autopartes-2508.html,oreilly,Tu tienda O'Reilly Auto Parts en Kirkland,,Kirkland,WA,,US,+1 425-821-8080,https://locations.oreillyauto.com/wa/kirkland/autopartes-2508.html,Mo-Sa 07:30-21:00; Su 08:00-20:00,O'Reilly Auto Parts,Q7071951
125953,pandaexpress,Totem Lake Blvd NE & 120th Ave NE,,Kirkland,WA,,US,+1 425-968-2068,https://www.pandaexpress.com/locations/wa/kirkland/12632-totem-lake-blvd-ne,Mo-Su 09:30-22:00,Panda Express,Q1358690
https://locations.papamurphys.com/#15430411,papamurphys,Pizza Takeout & Delivery,,Kirkland,WA,,US,+1 425-825-7272,https://locations.papamurphys.com/wa/kirkland/11312-ne-124th-street,Mo-Th 11:00-20:00; Fr-Sa 11:00-21:00; Su 11:00-20:00,Papa Murphy's,Q7132349
https://locations.papajohns.com/#10691770,papa_johns,Papa John's,,Kirkland,WA,,US,+1 425-820-9164,https://locations.papajohns.com/united-states/wa/98034/kirkland/13520-100th-ave-ne,Mo-Th 09:45-23:00; Fr-Sa 09:45-24:00; Su 09:45-23:00,Papa John's Pizza,Q2759586
069332,penske,Buttera Motors,,KIRKLAND,WA,,US,+1 425-814-1755,https://www.pensketruckrental.com/locations/us/washington/kirkland/069332/,,Penske,Q81234570
https://stores.petco.com/#27959506,petco,Petco Inglewood-Finn Hill,,Kirkland,WA,,US,+1 425-820-0934,https://stores.petco.com/wa/kirkland/pet-supplies-kirkland-wa-5207.html,Mo-Su 10:00-19:00,Petco,Q7171798
0000856798,phillips_66_conoco_76,KUBER LLC,,KIRKLAND,WA,,US,+1 425-823-8006,,,U76,Q1658320
0000824677,phillips_66_conoco_76,NAMS & HANNAHS INC,,KIRKLAND,WA,,US,+1 425-827-6537,,24/7,U76,Q1658320
wa_kirkland_14330-124th-ave-ne,pizza_hut_us,14330 124th Ave NE,,Kirkland,WA,,US,+1 425-820-8833,https://locations.pizzahut.com/wa/kirkland/14330-124th-ave-ne,,Pizza Hut,Q191615
wa_kirkland_12620-120th-ave-ne,pizza_hut_us,12620 120th Ave NE,,Kirkland,WA,,US,,https://locations.pizzahut.com/wa/kirkland/12620-120th-ave-ne,,Pizza Hut,Q191615
miller-paint-kirkland-25125,ppgpaints,MILLER PAINT KIRKLAND,,"Kirkland, ",WA,,US,+1 425-822-6092,https://www.ppgpaints.com/store-locator/us/washington/kirkland-paint-stores/miller-paint-kirkland-25125,,PPG Paints,Q83891559
https://www.publicstorage.com/self-storage-wa-kirkland/200.html,public_storage_us,Public Storage,,Kirkland,WA,,US,+1 425-285-7741,https://www.publicstorage.com/self-storage-wa-kirkland/200.html,,Public Storage,Q1156045
https://www.publicstorage.com/self-storage-wa-kirkland/1959.html,public_storage_us,Public Storage,,Kirkland,WA,,US,+1 425-285-7787,https://www.publicstorage.com/self-storage-wa-kirkland/1959.html,,Public Storage,Q1156045
https://www.publicstorage.com/self-storage-wa-kirkland/1833.html,public_storage_us,Public Storage,,Kirkland,WA,,US,+1 425-285-7744,https://www.publicstorage.com/self-storage-wa-kirkland/1833.html,,Public Storage,Q1156045
2387,pure_barre_us,Kirkland,,Kirkland,WA,,US,+1 425-522-4890,https://www.purebarre.com/location/kirkland-wa,,Pure Barre,Q86707084
05192,rite_aid_us,Rite Aid #05192 Kirkland,,Kirkland,WA,,US,+1 425-821-1500,https://locations2.riteaid.com.yext-cdn.com/wa/kirkland/12421-totem-lake-boulevard-ne.html,Mo-Fr 07:00-22:00; Sa-Su 07:00-21:00,Rite Aid,Q3433273
462,ross_dress_for_less_us,Kirkland,,Kirkland,WA,,US,+1 425-814-9798,,Mo-Th 10:00-22:00; Fr-Sa 10:00-23:00; Su 10:00-22:00,Ross Dress for Less,Q3442791
https://local.pharmacy.safeway.com/#5673729,safeway,Safeway Pharmacy,,Kirkland,WA,,US,+1 425-821-7455,https://local.pharmacy.safeway.com/safeway/wa/kirkland/14444-124th-ave-ne.html,,Safeway,Q1508234
https://local.pharmacy.safeway.com/#5673546,safeway,Safeway Pharmacy,,Kirkland,WA,,US,+1 425-821-0708,https://local.pharmacy.safeway.com/safeway/wa/kirkland/10020-ne-137th-st.html,,Safeway,Q1508234
https://local.safeway.com/#5604677,safeway,Safeway,,Kirkland,WA,,US,+1 425-821-2112,https://local.safeway.com/safeway/wa/kirkland/14444-124th-ave-ne.html,,Safeway,Q1508234
https://local.safeway.com/#5604457,safeway,Safeway,,Kirkland,WA,,US,+1 425-821-9224,https://local.safeway.com/safeway/wa/kirkland/10020-ne-137th-st.html,,Safeway,Q1508234
https://local.fuel.safeway.com/#9073448,safeway,Safeway Fuel Station,,Kirkland,WA,,US,+1 425-821-2112,https://local.fuel.safeway.com/safeway/wa/kirkland/14452-124th-ave-ne.html,Mo-Su 06:00-22:00,Safeway,Q1508234
https://local.fuel.safeway.com/#9073449,safeway,Safeway Fuel Station,,Kirkland,WA,,US,+1 425-821-9224,https://local.fuel.safeway.com/safeway/wa/kirkland/13615-juanita-woodinville-way-ne.html,Mo-Su 07:00-22:00,Safeway,Q1508234
11576106573469805311,sleep_number_us,Sleep Number,,Kirkland,WA,,US,,https://www.sleepnumber.com/stores/wa/kirkland/11900-ne-village-plaza,Mo-Th 10:00-19:00; Fr-Sa 10:00-20:00; Su 11:00-19:00,Sleep Number,Q7447640
https://restaurants.subway.com/#14895779,subway,Subway Inglewood Village S/C,,Kirkland King,WA,,US,+1 425-823-4332,https://restaurants.subway.com/united-states/wa/kirkland/14130-juanita-drive-ne,Mo-Su 09:00-20:00,Subway,Q244457
https://restaurants.subway.com/#14907537,subway,Subway,,Kirkland King,WA,,US,+1 425-820-7878,https://restaurants.subway.com/united-states/wa/kirkland/13501-100th-avenue-ne,Mo-Fr 08:00-21:30; Sa 09:00-21:30; Su 10:00-21:00,Subway,Q244457
https://restaurants.subway.com/#14898228,subway,Subway,,Kirkland King,WA,,US,+1 425-814-9001,https://restaurants.subway.com/united-states/wa/kirkland/11613-124th-ave-ne,Mo-Fr 07:30-21:00; Sa 08:00-21:00; Su 09:00-21:00,Subway,Q244457
https://restaurants.subway.com/#14900238,subway,Subway,,Kirkland King,WA,,US,+1 425-285-9693,https://restaurants.subway.com/united-states/wa/kirkland/11322-ne-124th-st,Mo-Fr 08:00-22:00; Sa 09:00-21:00; Su 09:00-18:00,Subway,Q244457
8749,supercuts,Totem Lake West,11320 Ne 124th St,Kirkland,WA,,US,+1 425-823-1161,https://www.supercuts.com/checkin/8749,Mo-Sa 09:00-18:00; Su 10:00-17:00,Supercuts,Q7643239
3210,sweetgreen_us,Totem Lake,,Kirkland,WA,,US,+1 425-403-2998,https://order.sweetgreen.com/totem-lake/,Mo-Su 10:30-21:00,Sweetgreen,Q18636413
https://locations.tacobell.com/#6146890,taco_bell,Taco Bell,,Kirkland,WA,,US,+1 425-821-9333,https://locations.tacobell.com/wa/kirkland/11624-124th-ne.html,Mo-Th 07:00-02:00; Fr-Sa 07:00-04:00; Su 07:00-02:00,Taco Bell,Q752941
132,trader_joes_us,Trader Joe's Kirkland (132),,Kirkland,WA,,US,+1 425-814-9181,https://locations.traderjoes.com/wa/kirkland/132/,Mo-Su 08:00-21:00,Trader Joe's,Q688825
9803400035,usps_collection_boxes,USPS COLLECTION BOX - BLUE BOX,14130 JUANITA DR NE,KIRKLAND,WA,,US,,,,United States Postal Service,Q668687
9803400030,usps_collection_boxes,USPS COLLECTION BOX - BLUE BOX,9826 NE 132ND ST,KIRKLAND,WA,,US,,,,United States Postal Service,Q668687
9803400032,usps_collection_boxes,USPS COLLECTION BOX - BLUE BOX,10015 NE 137TH ST,KIRKLAND,WA,,US,,,,United States Postal Service,Q668687
9803400029,usps_collection_boxes,USPS COLLECTION BOX - BLUE BOX,11810 97TH LN NE,KIRKLAND,WA,,US,,,,United States Postal Service,Q668687
9803400000,usps_collection_boxes,USPS COLLECTION BOX - BLUE BOX,11300 NE 122ND WAY,KIRKLAND,WA,,US,,,,United States Postal Service,Q668687
9803400022,usps_collection_boxes,USPS COLLECTION BOX - BLUE BOX,11410 NE 124TH ST,KIRKLAND,WA,,US,,,,United States Postal Service,Q668687
9803400001,usps_collection_boxes,USPS COLLECTION BOX - BLUE BOX,11411 NE 124TH ST,KIRKLAND,WA,,US,,,,United States Postal Service,Q668687
9803400020,usps_collection_boxes,USPS COLLECTION BOX - BLUE BOX,11430 NE 120TH ST,KIRKLAND,WA,,US,,,,United States Postal Service,Q668687
9803400009,usps_collection_boxes,USPS COLLECTION BOX - BLUE BOX,12221 120TH AVE NE,KIRKLAND,WA,,US,,,,United States Postal Service,Q668687
9803400024,usps_collection_boxes,USPS COLLECTION BOX - BLUE BOX,14444 124TH AVE NE,KIRKLAND,WA,,US,,,,United States Postal Service,Q668687
9803400027,usps_collection_boxes,USPS COLLECTION BOX - BLUE BOX,12800 NE 125TH WAY,KIRKLAND,WA,,US,,,,United States Postal Service,Q668687
R00000254474,verizon_us,Totem Lake,,Kirkland,WA,,US,+1 425-202-0784,https://www.verizon.com/stores/details/washington/kirkland/totem-lake-1221622/,Mo-Sa 10:00-19:00; Su 11:00-18:00,Verizon,Q919641
,visa,,,KIRKLAND,WA,,US,,,,,
,visa,,,YAKIMA,WA,,US,,,,,
,visa,,,KIRKLAND,WA,,US,,,,,
,visa,,,KIRKLAND,WA,,US,,,,,
,visa,,,KIRKLAND,WA,,US,,,,,
,visa,,,KIRKLAND,WA,,US,,,,,
,visa,,,KIRKLAND,WA,,US,,,,,
,visa,,,KIRKLAND,WA,,US,,,,,
,visa,,,KIRKLAND,WA,,US,,,,,
,visa,,,KIRKLAND,WA,,US,,,,,
,visa,,,KIRKLAND,WA,,US,,,,,
,visa,,,KIRKLAND,WA,,US,,,,,
,visa,,,KIRKLAND,WA,,US,,,,,
,visa,,,KIRKLAND,WA,,US,,,,,
,visa,,,KIRKLAND,WA,,US,,,,,
,visa,,,KIRKLAND,WA,,US,,,,,
,visa,,,KIRKLAND,WA,,US,,,,,
,visa,,,KIRKLAND,WA,,US,,,,,
,visa,,,KIRKLAND,WA,,US,,,,,
,visa,,,KIRKLAND,WA,,US,,,,,
,visa,,,KIRKLAND,WA,,US,,,,,
,visa,,,KIRKLAND,WA,,US,,,,,
,visa,,,KIRKLAND,WA,,US,,,,,
,visa,,,KIRKLAND,WA,,US,,,,,
,visa,,,"KIRKLAND,",WA,,US,,,,,
,visa,,,KIRKLAND,WA,,US,,,,,
,visa,,,KIRKLAND,WA,,US,,,,,
,visa,,,KIRKLAND,WA,,US,,,,,
,visa,,,KIRKLAND,WA,,US,,,,,
,visa,,,KIRKLAND,WA,,US,,,,,
,visa,,,KIRKLAND,WA,,US,,,,,
,visa,,,KIRKLAND,WA,,US,,,,,
,visa,,,TOTEM LAKE,WA,,US,,,,,
,visa,,,KIRKLAND,WA,,US,,,,,
,visa,,,KIRKLAND,WA,,US,,,,,
,visa,,,KIRKLAND,WA,,US,,,,,
,visa,,,KIRKLAND,WA,,US,,,,,
,visa,,,KIRKLAND,WA,,US,,,,,
,visa,,,KIRKLAND,WA,,US,,,,,
,visa,,,KIRKLAND,WA,,US,,,,,
,visa,,,KIRKLAND,WA,,US,,,,,
,visa,,,KIRKLAND,WA,,US,,,,,
,visa,,,KIRKLAND,WA,,US,,,,,
,visa,,,KIRKLAND,WA,,US,,,,,
,visa,,,KIRKLAND,WA,,US,,,,,
,visa,,,KIRKLAND,WA,,US,,,,,
,visa,,,KIRKLAND,WA,,US,,,,,
,visa,,,KIRKLAND,WA,,US,,,,,
,visa,,,KIRKLAND,WA,,US,,,,,
,visa,,,KIRKLAND,WA,,US,,,,,
https://www.walgreens.com/locator/walgreens-11607+98th+ave+ne-kirkland-wa-98034/id=6258,walgreens,Walgreens,,Kirkland,WA,,US,+1 425-825-8841,https://www.walgreens.com/locator/walgreens-11607+98th+ave+ne-kirkland-wa-98034/id=6258,Mo-Su 07:00-24:00,Walgreens,Q1591889
w21,waxing_the_city_us,Kirkland,,Kirkland,WA,,US,+1 425-297-2000,https://www.waxingthecity.com/locations/w21/us/wa/kirkland/,Mo-Fr 09:00-20:00; Sa 09:00-17:00; Su 10:00-17:00,Waxing the City,Q120599883
9750__NE__117TH__LN_KIRKLAND_WA_98034,wellsfargo,Wells Fargo,9750 NE 117TH LN,KIRKLAND,WA,,US,+1 425-820-5250,https://www.wellsfargo.com/locator/bank/9750__NE__117TH__LN_KIRKLAND_WA_98034/,Mo-Fr 09:00-17:00,Wells Fargo,Q744149
12516__TOTEM__LAKE__BLVD__NE__BLDG__L_KIRKLAND_WA_98034,wellsfargo,Wells Fargo,12516 TOTEM LAKE BLVD NE BLDG L,KIRKLAND,WA,,US,+1 425-947-4000,https://www.wellsfargo.com/locator/bank/12516__TOTEM__LAKE__BLVD__NE__BLDG__L_KIRKLAND_WA_98034/,Mo-Fr 09:00-17:00,Wells Fargo,Q744149
https://locations.wendys.com/#9253348,wendys,"Wendy's Ne 124th St in Kirkland, WA",,Kirkland,WA,,US,+1 425-821-8703,https://locations.wendys.com/united-states/wa/kirkland/11525-ne-124th-street,"Mo-Fr 06:00-10:30,09:00-22:00; Sa-Su 06:30-10:30,09:00-22:00",Wendy's,Q550258
evergreen-hospital-silver-location,whidbeycoffee,Evergreen Hospital Silver Coffee Stand,12040 NE 128th St,Kirkland,WA,,US,-899-1774,https://www.whidbeycoffee.com/pages/evergreen-hospital-silver-location,Mo-Fr 06:00-17:00,Whidbey Coffee,
evergreen-hospital-level-2-location,whidbeycoffee,Evergreen Hospital Level 2 Coffee Kiosk,12040 NE 128th St,Kirkland,WA,,US,-899-1774,https://www.whidbeycoffee.com/pages/evergreen-hospital-level-2-location,Mo-Fr 06:30-17:00,Whidbey Coffee,
evergreen-hospital,whidbeycoffee,Evergreen Hospital Courtyard Location - Coffee Station,12040 NE 128th St,Kirkland,WA,,US,-899-1774,https://www.whidbeycoffee.com/pages/evergreen-hospital,Mo-Fr 06:00-17:00; Sa 07:00-17:00,Whidbey Coffee,
kirkland,whole_foods,Kirkland,12501 120th Ave NE,Kirkland,WA,,US,+1 425-979-3301,https://www.wholefoodsmarket.com/stores/kirkland,Mo-Su 08:00-21:00,Whole Foods,Q1809448
4166,xfinity,Xfinity,,Kirkland,WA,,US,,https://www.xfinity.com/local/wa/kirkland/12632-totem-lake-blvd-ne.html,Mo-Sa 10:00-19:00; Su 11:00-18:00,Xfinity,Q5151002
