Ref,Spider,Name,Address,City,State,Zipcode,Country,Phone,Website,Hours,Brand,WikiData
72135356,moneygram,COPPEL TRANSMISORES - AGUASCALIENTES - 5,,AGUASCALIENTES,AG,,MX,+52 449 916 5054,,Mo-Sa 10:00-20:30; Su 10:00-16:00,MoneyGram,Q1944412
72135398,moneygram,COPPEL TRANSMISORES - AGUASCALIENTES - M,,AGUASCALIENTES,AG,,MX,+52 449 915 0080,,Mo-Sa 10:00-20:30; Su 10:00-16:00,MoneyGram,Q1944412
72135330,moneygram,COPPEL TRANSMISORES - AGUASCALIENTES - P,,AGUASCALIENTES,AG,,MX,+52 449 915 8869,,Mo-Sa 10:00-20:30; Su 11:00-17:00,MoneyGram,Q1944412
72135385,moneygram,COPPEL TRANSMISORES - AGUASCALIENTES - R,,AGUASCALIENTES,AG,,MX,+52 449 915 1509,,Mo-Sa 10:00-20:30; Su 10:00-16:00,MoneyGram,Q1944412
72236284,moneygram,FARMACIAS DEL AHORRO - #1059 - AGUASCALI,,AGUASCALIENTES,AG,,MX,5253224320,,Mo-Su 07:00-23:00,MoneyGram,Q1944412
72236310,moneygram,FARMACIAS DEL AHORRO - #1068 - AGUASCALI,,AGUASCALIENTES,AG,,MX,5253224320,,Mo-Su 07:00-23:00,MoneyGram,Q1944412
72236352,moneygram,FARMACIAS DEL AHORRO - #1075 - AGUASCALI,,AGUASCALIENTES,AG,,MX,5253224320,,Mo-Su 07:00-23:00,MoneyGram,Q1944412
72243837,moneygram,FARMACIAS DEL AHORRO - #2247 - AGUASCALI,,AGUASCALIENTES,AG,,MX,5253224320,,Mo-Su 07:00-23:00,MoneyGram,Q1944412
72233481,moneygram,FARMACIAS DEL AHORRO - #463 - AGUASCALIE,,AGUASCALIENTES,AG,,MX,5253224320,,Mo-Su 07:00-23:00,MoneyGram,Q1944412
69508682,moneygram,MODATELAS - #970 - 28 MODATELAS AGUASCAL,,AGUASCALIENTES,AG,,MX,+52 449 915 3598,,Mo-Su 08:00-20:00,MoneyGram,Q1944412
69510557,moneygram,MODATELAS - #973 - 35 MODATELAS AGUASCAL,,AGUASCALIENTES,AG,,MX,+52 449 918 2246,,Mo-Su 08:00-20:00,MoneyGram,Q1944412
74136382,moneygram,FARMACIA SANTA MARIA - PARIAN,,AGUASCALIENTES,AG,,MX,+52 81 2133 2160,,Mo-Su 07:00-22:00,MoneyGram,Q1944412
74253472,moneygram,CADENA COMERCIAL OXXO SA DE CV - #10GTO5,,AGUASCALIENTES,AG,,MX,5283892121,,Mo-Su 03:00-24:00,MoneyGram,Q1944412
74253511,moneygram,CADENA COMERCIAL OXXO SA DE CV - #10GTO5,,AGUASCALIENTES,AG,,MX,5283892121,,Mo-Su 03:00-24:00,MoneyGram,Q1944412
74253508,moneygram,CADENA COMERCIAL OXXO SA DE CV - #10GTO5,,AGUASCALIENTES,AG,,MX,5283892121,,Mo-Su 03:00-24:00,MoneyGram,Q1944412
74253566,moneygram,CADENA COMERCIAL OXXO SA DE CV - #10GTO5,,AGUASCALIENTES,AG,,MX,5283892121,,Mo-Su 03:00-24:00,MoneyGram,Q1944412
74253540,moneygram,CADENA COMERCIAL OXXO SA DE CV - #10GTO5,,AGUASCALIENTES,AG,,MX,5283892121,,Mo-Su 03:00-24:00,MoneyGram,Q1944412
68812340,moneygram,DINERO EXPRESS - #2090 - AG - ELEKTRA,,AG,AG,,MX,+52 55 1720 8141,,Mo-Su 09:00-21:00,MoneyGram,Q1944412
68831402,moneygram,DINERO EXPRESS - #1504 - AG - ELEKTRA,,AG,AG,,MX,+52 55 1720 8141,,Mo-Su 09:00-21:00,MoneyGram,Q1944412
70387436,moneygram,FARMACIAS GUADALAJARA - MADERO AGUASCALI,,AGUASCALIENTES,AG,,MX,+52 713 278 5436,,Mo-Su 08:00-22:00,MoneyGram,Q1944412
70387708,moneygram,FARMACIAS GUADALAJARA - AGS. PARIAN,,AGUASCALIENTES,AG,,MX,+52 713 278 5436,,Mo-Su 08:00-22:00,MoneyGram,Q1944412
70388370,moneygram,FARMACIAS GUADALAJARA - AGS. 5 DE MAYO,,AGUASCALIENTES,AG,,MX,+52 713 278 5436,,Mo-Su 08:00-22:00,MoneyGram,Q1944412
70394746,moneygram,FARMACIAS GUADALAJARA - JUAREZ AGUASCALI,,AGUASCALIENTES,AG,,MX,+52 713 278 5436,,Mo-Su 08:00-22:00,MoneyGram,Q1944412
74875795,moneygram,CAJA GONZALO VEGA - AGUASCALIENTES CENTR,,AGUASCALIENTES,AG,,MX,+52 81 2133 2160,,Mo-Fr 09:00-18:00; Sa 09:00-14:00; Su 00:00-24:00,MoneyGram,Q1944412
70716955,moneygram,MUEBLES AMERICA 82 AGUASCALIENTES - #281,,AGUASCALIENTES,AG,,MX,+52 201 201 1000,,Mo-Su 09:30-20:30,MoneyGram,Q1944412
70752524,moneygram,ELECZION - #1011 - AGUASCALIENTES - AGUA,,AGUASCALIENTES,AG,,MX,5263180635,,Mo-Su 07:00-23:00,MoneyGram,Q1944412
71006156,moneygram,FARMACIAS GUADALAJARA - #1718 - AGUASCAL,,AGUASCALIENTES,AG,,MX,+52 800 555 6555,,Mo-Su 08:00-22:00,MoneyGram,Q1944412
71112532,moneygram,TELECOMM - #TELECOMM 01001 - AGUASCALIEN,,AGUASCALIENTES,AG,,MX,55118008334700,,Mo-Fr 09:00-17:30; Sa-Su 00:00-24:00,MoneyGram,Q1944412
43521326,moneygram,CAJA POPULAR MEX - #602 - CENTRO AGS,,AGUASCALIENTES,AG,,MX,+52 449 918 2660,,Mo-Fr 09:00-16:00; Sa-Su 09:00-14:00,MoneyGram,Q1944412
41285486,moneygram,BANORTE - #660 - AGS CENTRO,,AGUASCALIENTES,AG,,MX,+52 449 916 1885,,Mo-Fr 08:30-16:30; Sa 09:00-14:00; Su 00:00-24:00,MoneyGram,Q1944412
66285649,moneygram,BANORTE - #660 - AGS CENTRO,,AGUASCALIENTES,AG,,MX,+52 449 916 1885,,Mo-Fr 09:00-20:00; Sa 09:00-16:00; Su 00:00-24:00,MoneyGram,Q1944412
66284242,moneygram,TIENDAS DEL SOL - #15,,AGUASCALIENTES,AG,,MX,+52 800 833 4700,,Mo-Sa 09:30-21:00; Su 10:00-18:00,MoneyGram,Q1944412
41285732,moneygram,BANORTE - #864 - AGS MERCADO,,AGUASCALIENTES,AG,,MX,+52 449 916 3272,,Mo-Fr 09:00-20:00; Sa-Su 00:00-24:00,MoneyGram,Q1944412
41285758,moneygram,BANORTE - #865 - AGS MADERO,,AGUASCALIENTES,AG,,MX,+52 449 916 4540,,Mo-Fr 08:30-16:00; Sa 09:00-14:00; Su 00:00-24:00,MoneyGram,Q1944412
71235228,moneygram,OXXO - 5 DE MAYO AGU,,AGUASCALIENTES,AG,,MX,+52 81 8389 2121,,Mo-Su 03:00-24:00,MoneyGram,Q1944412
71235406,moneygram,OXXO - AZTECA AGU,,AGUASCALIENTES,AG,,MX,+52 81 8389 2121,,Mo-Su 03:00-24:00,MoneyGram,Q1944412
71236052,moneygram,OXXO - CALINDA AGU,,AGUASCALIENTES,AG,,MX,+52 81 8389 2121,,Mo-Su 03:00-24:00,MoneyGram,Q1944412
71234850,moneygram,OXXO - CATEDRAL AGU,,AGUASCALIENTES,AG,,MX,+52 81 8389 2121,,Mo-Su 03:00-24:00,MoneyGram,Q1944412
71235011,moneygram,OXXO - COLON AGU,,AGUASCALIENTES,AG,,MX,+52 81 8389 2121,,Mo-Su 03:00-24:00,MoneyGram,Q1944412
71235309,moneygram,OXXO - COLONIAL AGU,,AGUASCALIENTES,AG,,MX,+52 81 8389 2121,,Mo-Su 03:00-24:00,MoneyGram,Q1944412
71236308,moneygram,OXXO - ENCIERRO AGU,,AGUASCALIENTES,AG,,MX,+52 81 8389 2121,,Mo-Su 03:00-24:00,MoneyGram,Q1944412
71235668,moneygram,OXXO - HIDALGO AGU,,AGUASCALIENTES,AG,,MX,+52 81 8389 2121,,Mo-Su 03:00-24:00,MoneyGram,Q1944412
71234368,moneygram,OXXO - LA MORA AGU,,AGUASCALIENTES,AG,,MX,+52 81 8389 2121,,Mo-Su 03:00-24:00,MoneyGram,Q1944412
71235752,moneygram,OXXO - LOPEZ MATEOS AGU,,AGUASCALIENTES,AG,,MX,+52 81 8389 2121,,Mo-Su 03:00-24:00,MoneyGram,Q1944412
71235079,moneygram,OXXO - MADERO AGU,,AGUASCALIENTES,AG,,MX,+52 81 8389 2121,,Mo-Su 03:00-24:00,MoneyGram,Q1944412
71236599,moneygram,OXXO - MONTORO AGU,,AGUASCALIENTES,AG,,MX,+52 81 8389 2121,,Mo-Su 03:00-24:00,MoneyGram,Q1944412
71236081,moneygram,OXXO - MORELOS II AGU,,AGUASCALIENTES,AG,,MX,+52 81 8389 2121,,Mo-Su 03:00-24:00,MoneyGram,Q1944412
71235299,moneygram,OXXO - PATRIA AGU,,AGUASCALIENTES,AG,,MX,+52 81 8389 2121,,Mo-Su 03:00-24:00,MoneyGram,Q1944412
71234753,moneygram,OXXO - RIVEROYGUTIERREZ AGU,,AGUASCALIENTES,AG,,MX,+52 81 8389 2121,,Mo-Su 03:00-24:00,MoneyGram,Q1944412
71236010,moneygram,OXXO - SAN ANTONIO AGU,,AGUASCALIENTES,AG,,MX,+52 81 8389 2121,,Mo-Su 03:00-24:00,MoneyGram,Q1944412
71236201,moneygram,OXXO - VAZQUEZ DEL MDO. AGU,,AGUASCALIENTES,AG,,MX,+52 81 8389 2121,,Mo-Su 03:00-24:00,MoneyGram,Q1944412
