Ref,Spider,Name,Address,City,State,Zipcode,Country,Phone,Website,Hours,Brand,WikiData
3371,autozone_us,AutoZone Auto Parts Oakland,,Oakland,CA,,US,+1 510-636-8646,https://www.autozone.com/locations/ca/oakland/7200-bancroft-ave.html,Mo-Sa 07:30-20:00; Su 08:00-20:00,AutoZone,Q4826087
https://locators.bankofamerica.com/ca/oakland/atm-oakland-110929.html,bankofamerica,Bank of America Walk-Up ATM | Seminary Point,,Oakland,CA,,US,+1 844-401-8500,https://locators.bankofamerica.com/ca/oakland/atm-oakland-110929.html,,Bank of America,Q487907
171060,bluerhino,Shoprite Supermarket #243584,,Oakland,CA,,US,+1 510-632-5426,,,Blue Rhino,Q65681213
219408,bluerhino,Fast Gas & Mini Mart,,Oakland,CA,,US,+1 510-569-1666,,,Blue Rhino,Q65681213
1102575,carlsjr_us,Carl's Jr.,,Oakland,CA,,US,+1 510-383-8910,https://locations.carlsjr.com/ca/oakland/10770-macarthur-blvd.,,Carl's Jr.,Q1043486
379581,chevron,Chevron Station #379581,3101 98TH AVENUE,OAKLAND,CA,,US,+1 510-635-2374,,,Chevron,Q319642
7301-bancroft-avenue,churchs_chicken,Bancroft Avenue,,Oakland,CA,,US,+1 510-568-5152,https://locations.churchs.com/ca/oakland/7301-bancroft-avenue,,Church's Chicken,Q1089932
91948,citi,ATM Walgreens,,Oakland,CA,,US,,,,Citibank,Q857063
52590,citi,ATM CVS,,Oakland,CA,,US,,,,Citibank,Q857063
57080,citi,ATM Food 4 Less,,Oakland,CA,,US,,,,Citibank,Q857063
8431,cvs_us,CVS Pharmacy,,Oakland,CA,,US,+1 510-569-2795,https://www.cvs.com/store-locator/oakland-ca-pharmacies/7200-bancroft-ave-oakland-ca-94605/storeid=8431,Mo-Su 08:00-20:00,CVS Pharmacy,Q2078880
https://healthy.kaiserpermanente.org/northern-california/facilities/seneca-family-of-agencies-enhanced-care-management-ecm-173449,kaiser_permanente_us,Seneca Family of Agencies - Enhanced Care Management (ECM),,Oakland,CA,,US,+1 510-654-4004,https://healthy.kaiserpermanente.org/northern-california/facilities/seneca-family-of-agencies-enhanced-care-management-ecm-173449,,Kaiser Permanente,Q1721601
https://healthy.kaiserpermanente.org/northern-california/facilities/seneca-family-of-agencies-community-health-worker-chw-173441,kaiser_permanente_us,Seneca Family of Agencies - Community Health Worker (CHW),,Oakland,CA,,US,+1 510-654-4004,https://healthy.kaiserpermanente.org/northern-california/facilities/seneca-family-of-agencies-community-health-worker-chw-173441,,Kaiser Permanente,Q1721601
131028,little_free_library,MiMo Ranch Free Library #131028 Oakland CA,,Oakland,CA,,US,,,,Little Free Library,Q6650101
51773,little_free_library,Umi Vaughan #51773 Oakland CA,,Oakland,CA,,US,,,,Little Free Library,Q6650101
4701,little_free_library,Emily Odza #4701 Oakland CA,,Oakland,CA,,US,,,,Little Free Library,Q6650101
112471,little_free_library,Ms. Kris's 75th Ave Community Library #112471 Oakland CA,,Oakland,CA,,US,,,,Little Free Library,Q6650101
102698,little_free_library,Little Free Library #102698 Oakland CA,,Oakland,CA,,US,,,,Little Free Library,Q6650101
30414,little_free_library,Jil Finnegan #30414 Oakland CA,,Oakland,CA,,US,,,,Little Free Library,Q6650101
44878,little_free_library,Oakland Zoo #44878 Oakland CA,,Oakland,CA,,US,,,,Little Free Library,Q6650101
52798,little_free_library,#52798 Oakland CA,,Oakland,CA,,US,,,,Little Free Library,Q6650101
1121,little_free_library,Lori Katz #1121 Oakland CA,,Oakland,CA,,US,,,,Little Free Library,Q6650101
131797,little_free_library,Ettrick Street Little Library #131797 Oakland CA,,Oakland,CA,,US,,,,Little Free Library,Q6650101
161642,little_free_library,Barbara Kluger #161642 #161642 Oakland CA,,Oakland,CA,,US,,,,Little Free Library,Q6650101
11497,little_free_library,Kitty Sharkey #11497 OAKLAND CA,,OAKLAND,CA,,US,,,,Little Free Library,Q6650101
174768,little_free_library,Bo Brown Liberation Library #174768 Oakland CA,,Oakland,CA,,US,,,,Little Free Library,Q6650101
15857,little_free_library,Courtney Malone #15857 Oakland CA,,Oakland,CA,,US,,,,Little Free Library,Q6650101
67255568,moneygram,CVS - #8431,,OAKLAND,CA,,US,+1 510-569-2795,,Mo-Su 08:00-20:00,MoneyGram,Q1944412
https://locations.tacobell.com/#6142498,taco_bell,Taco Bell,,Oakland,CA,,US,+1 510-568-5231,https://locations.tacobell.com/ca/oakland/6900-bancroft-ave.html,Mo-Th 07:00-02:00; Fr-Sa 07:00-03:00; Su 07:00-02:00,Taco Bell,Q752941
017478,uhaul,Quick Shine Auto Detail,9765 Mountain Bl,Oakland,CA,,US,+1 510-562-5274,,Mo-Sa 00:00-17:00,U-Haul,Q7862902
1361925,usps,EASTMONT,,OAKLAND,CA,,US,+1 510-251-3384,,Mo-Fr 08:30-17:00; Sa 09:00-13:00,United States Postal Service,Q668687
9460500059,usps_collection_boxes,USPS COLLECTION BOX - BLUE BOX,8033 MACARTHUR BLVD,OAKLAND,CA,,US,,,,United States Postal Service,Q668687
9460500068,usps_collection_boxes,USPS COLLECTION BOX - PO LOBBY,8033 MACARTHUR BLVD,OAKLAND,CA,,US,,,,United States Postal Service,Q668687
9460500001,usps_collection_boxes,USPS COLLECTION BOX - BLUE BOX,8033 MACARTHUR BLVD,OAKLAND,CA,,US,,,,United States Postal Service,Q668687
9460500035,usps_collection_boxes,USPS COLLECTION BOX - BLUE BOX,6150 OVERDALE AVE,OAKLAND,CA,,US,,,,United States Postal Service,Q668687
9460500023,usps_collection_boxes,USPS COLLECTION BOX - BLUE BOX,9750 GOLF LINKS RD,OAKLAND,CA,,US,,,,United States Postal Service,Q668687
9460500024,usps_collection_boxes,USPS COLLECTION BOX - BLUE BOX,10800 GOLF LINKS RD,OAKLAND,CA,,US,,,,United States Postal Service,Q668687
9460500008,usps_collection_boxes,USPS COLLECTION BOX - BLUE BOX,6950 BANCROFT AVE,OAKLAND,CA,,US,,,,United States Postal Service,Q668687
9460500019,usps_collection_boxes,USPS COLLECTION BOX - BLUE BOX,6537 FOOTHILL BLVD,OAKLAND,CA,,US,,,,United States Postal Service,Q668687
9460500056,usps_collection_boxes,USPS COLLECTION BOX - BLUE BOX,2960 106TH AVE,OAKLAND,CA,,US,,,,United States Postal Service,Q668687
9460500013,usps_collection_boxes,USPS COLLECTION BOX - BLUE BOX,7300 GREENLY DR,OAKLAND,CA,,US,,,,United States Postal Service,Q668687
9460500018,usps_collection_boxes,USPS COLLECTION BOX - BLUE BOX,45 GRAEAGLE,OAKLAND,CA,,US,,,,United States Postal Service,Q668687
9460500033,usps_collection_boxes,USPS COLLECTION BOX - BLUE BOX,7980 MOUNTAIN BLVD,OAKLAND,CA,,US,,,,United States Postal Service,Q668687
9460500036,usps_collection_boxes,USPS COLLECTION BOX - BLUE BOX,2901 PERALTA OAKS CT,OAKLAND,CA,,US,,,,United States Postal Service,Q668687
9460500005,usps_collection_boxes,USPS COLLECTION BOX - BLUE BOX,5700 FOOTHILL BLVD,OAKLAND,CA,,US,,,,United States Postal Service,Q668687
9460500063,usps_collection_boxes,USPS COLLECTION BOX - BLUE BOX,55 MARLOW DR,OAKLAND,CA,,US,,,,United States Postal Service,Q668687
,visa,,,OAKLAND,CA,,US,,,,,
,visa,,,OAKLAND,CA,,US,,,,,
,visa,,,OAKLAND,CA,,US,,,,,
,visa,,,OAKLAND,CA,,US,,,,,
,visa,,,OAKLAND,CA,,US,,,,,
,visa,,,OAKLAND,CA,,US,,,,,
,visa,,,OAKLAND,CA,,US,,,,,
,visa,,,OAKLAND,CA,,US,,,,,
,visa,,,OAKLAND,CA,,US,,,,,
,visa,,,OAKLAND,CA,,US,,,,,
,visa,,,OAKLAND,CA,,US,,,,,
,visa,,,OAKLAND,CA,,US,,,,,
,visa,,,OAKLAND,CA,,US,,,,,
,visa,,,OAKLAND,CA,,US,,,,,
,visa,,,OAKLAND,CA,,US,,,,,
,visa,,,OAKLAND,CA,,US,,,,,
,visa,,,OAKLAND,CA,,US,,,,,
,visa,,,OAKLAND,CA,,US,,,,,
,visa,,,OAKLAND,CA,,US,,,,,
,visa,,,OAKLAND,CA,,US,,,,,
,visa,,,OAKLAND,CA,,US,,,,,
,visa,,,OAKLAND,CA,,US,,,,,
,visa,,,OAKLAND,CA,,US,,,,,
,visa,,,OAKLAND,CA,,US,,,,,
,visa,,,OAKLAND,CA,,US,,,,,
,visa,,,OAKLAND,CA,,US,,,,,
,visa,,,OAKLAND,CA,,US,,,,,
,visa,,,OAKLAND,CA,,US,,,,,
,visa,,,OAKLAND,CA,,US,,,,,
,visa,,,OAKLAND,CA,,US,,,,,
,visa,,,OAKLAND,CA,,US,,,,,
,visa,,,OAKLAND,CA,,US,,,,,
,visa,,,OAKLAND,CA,,US,,,,,
,visa,,,OAKLAND,CA,,US,,,,,
,visa,,,OAKLAND,CA,,US,,,,,
,visa,,,OAKLAND,CA,,US,,,,,
,visa,,,OAKLAND,CA,,US,,,,,
,visa,,,OAKLAND,CA,,US,,,,,
,visa,,,OAKLAND,CA,,US,,,,,
,visa,,,OAKLAND,CA,,US,,,,,
,visa,,,OAKLAND,CA,,US,,,,,
,visa,,,OAKLAND,CA,,US,,,,,
,visa,,,OAKLAND,CA,,US,,,,,
,visa,,,OAKLAND,CA,,US,,,,,
,visa,,,OAKLAND,CA,,US,,,,,
,visa,,,OAKLAND,CA,,US,,,,,
,visa,,,OAKLAND,CA,,US,,,,,
,visa,,,OAKLAND,CA,,US,,,,,
,visa,,,OAKLAND,CA,,US,,,,,
,visa,,,OAKLAND,CA,,US,,,,,
,visa,,,OAKLAND,CA,,US,,,,,
,visa,,,OAKLAND,CA,,US,,,,,
,visa,,,OAKLAND,CA,,US,,,,,
,visa,,,OAKLAND,CA,,US,,,,,
,visa,,,OAKLAND,CA,,US,,,,,
,visa,,,OAKLAND,CA,,US,,,,,
,visa,,,OAKLAND,CA,,US,,,,,
https://www.walgreens.com/locator/walgreens-5809+foothill+blvd-oakland-ca-94605/id=15330,walgreens,Walgreens,,Oakland,CA,,US,+1 510-564-0404,https://www.walgreens.com/locator/walgreens-5809+foothill+blvd-oakland-ca-94605/id=15330,Mo-Su 08:00-22:00,Walgreens,Q1591889
10700__MACARTHUR__BLVD__6A_OAKLAND_CA_94605,wellsfargo,Wells Fargo,10700 MACARTHUR BLVD 6A,OAKLAND,CA,,US,+1 510-454-8578,https://www.wellsfargo.com/locator/bank/10700__MACARTHUR__BLVD__6A_OAKLAND_CA_94605/,Mo-Fr 09:00-17:00,Wells Fargo,Q744149
dd777f2f54651060b2b2e9b650e1e251,western_union,WALGREENS #15330,,Oakland,CA,,US,+1 510-564-0404,https://location.westernunion.com/us/ca/oakland/dd777f2f54651060b2b2e9b650e1e251,Mo-Su 08:00-21:00,Western Union,Q861042
