Ref,Spider,Name,Address,City,State,Zipcode,Country,Phone,Website,Hours,Brand,WikiData
https://locations.arbys.com/mo/webbcity/1704-south-madison.html,arbys_us,"Arby's Fast-Food Drive Through Near You in Webb City, MO",,Webb City,MO,,US,+1 417-673-1727,https://locations.arbys.com/mo/webbcity/1704-south-madison.html,Mo-Th 09:30-24:00; Fr-Sa 09:30-01:00; Su 09:30-24:00,Arby's,Q630866
360,autozone_us,AutoZone Auto Parts Webb City,,Webb City,MO,,US,+1 417-673-3290,https://www.autozone.com/locations/mo/webb-city/1024-s-madison-st.html,Mo-Fr 07:30-21:00; Sa 07:30-20:00; Su 09:00-19:00,AutoZone,Q4826087
155389,bluerhino,Walgreens #5928,,Webb City,MO,,US,+1 417-673-6758,,,Blue Rhino,Q65681213
215022,bluerhino,White Oak #215,,Webb City,MO,,US,+1 417-673-5995,,,Blue Rhino,Q65681213
90486,bluerhino,Ace - Henkle's Ace Hardware,,Webb City,MO,,US,+1 417-673-2112,,,Blue Rhino,Q65681213
203941,bluerhino,CASEY'S GENERAL STORE #3410,,WEBB CITY,MO,,US,+1 417-673-2454,,,Blue Rhino,Q65681213
203905,bluerhino,CASEY'S GENERAL STORE #3016,,WEBB CITY,MO,,US,+1 417-673-3660,,,Blue Rhino,Q65681213
226125,bluerhino,Atwoods Ranch & Home Goods #15,,Webb City,MO,,US,+1 417-673-3100,,,Blue Rhino,Q65681213
215023,bluerhino,White Oak #218,,Webb City,MO,,US,+1 417-206-2587,,,Blue Rhino,Q65681213
86374,citi,ATM Walgreens,,Webb City,MO,,US,,,,Citibank,Q857063
80338428,cricket_wireless,Cricket Wireless Authorized Retailer,,Webb City,MO,,US,+1 417-717-0506,https://www.cricketwireless.com/stores/ll/US/MO/Webb-City/1500-S-Madison-St,Mo-Sa 10:00-19:00,Cricket Wireless,Q5184987
398,culvers_us,"Culver's of Webb City, MO - S Madison St",,Webb City,MO,,US,+1 417-673-1222,http://www.culvers.com/restaurants/webb-city,Mo-Fr 10:00-22:00; Su 10:00-22:00,Culver's,Q1143589
1685,dominos_pizza_us,Domino's Pizza,,Webb City,MO,,US,+1 417-673-8900,https://pizza.dominos.com/missouri/webb-city/624-s-madison,Mo-Th 10:30-24:00; Fr-Sa 10:30-01:00; Su 10:30-24:00,Domino's,Q839466
1530,dominos_pizza_us,Domino's Pizza,,Webb City,MO,,US,+1 417-614-0707,https://pizza.dominos.com/missouri/webb-city/6015-n-main,Mo-Th 10:30-24:00; Fr-Sa 10:30-01:00; Su 10:30-24:00,Domino's,Q839466
https://www.edwardjones.com/us-en/financial-advisor/matthew-gibson,edwardjones,Matthew Gibson,,Webb City,MO,,US,+1 417-673-0243,https://www.edwardjones.com/us-en/financial-advisor/matthew-gibson,Mo-Th 08:00-17:00; Fr 08:00-15:30,Edward Jones,Q5343830
https://salons.greatclips.com/us/mo/webb-city/1202-s-madison-st,greatclips,Great Clips,,Webb City,MO,,US,+1 417-673-3633,https://salons.greatclips.com/us/mo/webb-city/1202-s-madison-st,Mo-Fr 08:30-19:30; Sa 08:30-18:00; Su 10:00-16:00,Great Clips,Q5598967
65363,h_r_block,H&R Block,,Webb City,MO,,US,+1 417-673-3630,https://www.hrblock.com/local-tax-offices/missouri/webb-city/1010-s-madison/65363/,,H&R Block,Q5627799
https://office.jacksonhewitt.com/#27578419,jackson_hewitt,Jackson Hewitt,,Webb City,MO,,US,+1 417-659-8700,https://office.jacksonhewitt.com/tax-preparation-services-locations/en/mo/webb-city/1212-s-madison-st/50267,Mo-Th 11:00-19:00; Fr 11:00-18:00; Sa 10:00-18:00; Su 13:00-17:00,Jackson Hewitt,Q6117132
https://locations.kfc.com/#11248033,kfc,Chicken Nuggets Near Webb City,,Webb City,MO,,US,,https://locations.kfc.com/mo/webb-city/1731-s-madison-street/chickennugget,Mo-Su 10:30-22:00,KFC,Q524757
https://www.mercy.net/content/mercy/us/en/practice/webb-city/mercy-clinic-webb-city-schools.html,mercy,Mercy Clinic - Webb City Schools,,Webb City,MO,,US,+1 417-673-6015,https://www.mercy.net/practice/mercy-clinic-webb-city-schools,Mo-Fr 07:30-16:00,Mercy,Q30289045
https://www.mercy.net/content/mercy/us/en/practice/webb-city/mercy-gohealth-urgent-care-stones-corner.html,mercy,Mercy-GoHealth Urgent Care - Stone's Corner,,Webb City,MO,,US,+1 417-717-8846,https://www.mercy.nethttps://www.gohealthuc.com/mercy-joplin/locations/stones-corner,Mo-Fr 08:00-20:00; Sa-Su 09:00-17:00,Mercy,Q30289045
https://www.mercy.net/content/mercy/us/en/practice/webb-city/mercy-clinic-family-medicine-stones-corner.html,mercy,Mercy Clinic Family Medicine - Stone's Corner,,Webb City,MO,,US,+1 417-781-0408,https://www.mercy.net/practice/mercy-clinic-family-medicine-stones-corner,Mo-Fr 08:00-16:30,Mercy,Q30289045
https://www.mercy.net/content/mercy/us/en/practice/webb-city/mercy-clinic-sports-medicine-stones-corner.html,mercy,Mercy Clinic Sports Medicine - Stone's Corner,,Webb City,MO,,US,+1 417-781-0408,https://www.mercy.net/practice/mercy-clinic-sports-medicine-stones-corner,Mo-Fr 08:00-16:30,Mercy,Q30289045
71493992,moneygram,WAL-MART - #267,,WEBB CITY,MO,,US,+1 417-673-8288,,Mo-Su 07:00-21:00,MoneyGram,Q1944412
5792,murphy_usa_us,,,Webb City,MO,,US,+1 417-673-1253,,Mo-Sa 05:30-23:30; Su 06:00-23:30,Murphy USA,Q19604459
https://locations.papamurphys.com/#15430879,papamurphys,Pizza Takeout & Delivery,,Webb City,MO,,US,+1 417-673-0707,https://locations.papamurphys.com/mo/webb-city/1715-south-madison,Mo-Th 11:00-20:00; Fr-Sa 11:00-21:00; Su 11:00-20:00,Papa Murphy's,Q7132349
https://locations.papajohns.com/#10691722,papa_johns,Papa John's,,Webb City,MO,,US,+1 417-673-7272,https://locations.papajohns.com/united-states/mo/64870/webb-city/501-s-madison-avenue,Mo-Th 10:30-23:00; Fr-Sa 10:00-24:00; Su 10:00-23:00,Papa John's Pizza,Q2759586
mo_webb-city_1119-s-madison-st,pizza_hut_us,1119 S Madison St,,Webb City,MO,,US,+1 417-673-4696,https://locations.pizzahut.com/mo/webb-city/1119-s-madison-st,,Pizza Hut,Q191615
967,scooters_coffee_us,S Madison & W 7th St,,Webb City,MO,,US,+1 417-850-2190,,Mo-Su 05:30-20:00,Scooter's Coffee,Q117280308
https://restaurants.subway.com/#14899644,subway,Subway Village of Airport Dr,,Webb City Jasper,MO,,US,+1 417-659-8766,https://restaurants.subway.com/united-states/mo/webb-city/6019-n-main-st-rd,Mo-Su 09:00-22:00,Subway,Q244457
https://restaurants.subway.com/#14904209,subway,Subway,,Webb City Jasper,MO,,US,+1 417-673-2900,https://restaurants.subway.com/united-states/mo/webb-city/1612-s-madison,Mo-Su 08:30-21:30,Subway,Q244457
https://locations.tacobell.com/#6145838,taco_bell,Taco Bell,,Webb City,MO,,US,+1 417-673-2135,https://locations.tacobell.com/mo/webb-city/1708-s-madison-st.html,Mo-Th 07:00-01:00; Fr-Sa 07:00-02:00; Su 07:00-01:00,Taco Bell,Q752941
4970,upsstore,Stones Corner Plaza,6031 N Main St Rd,Webb City,MO,,US,+1 417-659-8410,https://locations.theupsstore.com/mo/webb-city/6031-n-main-st-rd,,UPS Store,Q7771029
1386773,usps,WEBB CITY,,WEBB CITY,MO,,US,+1 417-673-4346,,Mo-Fr 08:00-16:30; Sa 08:00-11:00,United States Postal Service,Q668687
6487000019,usps_collection_boxes,USPS COLLECTION BOX - BLUE BOX,1212 S MADISON ST,WEBB CITY,MO,,US,,,,United States Postal Service,Q668687
6487000015,usps_collection_boxes,USPS COLLECTION BOX - BLUE BOX,220 W DAUGHERTY ST,WEBB CITY,MO,,US,,,,United States Postal Service,Q668687
6487000026,usps_collection_boxes,USPS COLLECTION BOX - PO LOBBY,220 W DAUGHERTY ST,WEBB CITY,MO,,US,,,,United States Postal Service,Q668687
,visa,,,WHEATLAND,MO,,US,,,,,
,visa,,,WEBB CITY,MO,,US,,,,,
,visa,,,WEBB CITY,MO,,US,,,,,
,visa,,,WEBB CITY,MO,,US,,,,,
,visa,,,WEBB CITY,MO,,US,,,,,
,visa,,,WEBB CITY,MO,,US,,,,,
,visa,,,WEBB CITY,MO,,US,,,,,
,visa,,,WEBB CITY,MO,,US,,,,,
,visa,,,WEBB CITY,MO,,US,,,,,
,visa,,,WEBB CITY,MO,,US,,,,,
,visa,,,WEBB CITY,MO,,US,,,,,
,visa,,,WEBB CITY,MO,,US,,,,,
,visa,,,WEBB CITY,MO,,US,,,,,
,visa,,,WEBB CITY,MO,,US,,,,,
,visa,,,WEBB CITY,MO,,US,,,,,
,visa,,,WEBB CITY,MO,,US,,,,,
1474,waffle_house_us,Waffle House #1474,,WEBB CITY,MO,,US,+1 417-673-9399,https://locations.wafflehouse.com/webbcity-mo-1474,24/7,Waffle House,Q1701206
https://www.walgreens.com/locator/walgreens-1011+w+macarthur+dr-webb+city-mo-64870/id=5928,walgreens,Walgreens,,Webb City,MO,,US,+1 417-673-6758,https://www.walgreens.com/locator/walgreens-1011+w+macarthur+dr-webb+city-mo-64870/id=5928,Mo-Fr 07:00-22:00; Sa 08:00-22:00; Su 09:00-21:00,Walgreens,Q1591889
https://locations.wendys.com/#9256399,wendys,"Wendy's Webb City in Webb City, MO",,Webb City,MO,,US,+1 417-673-1100,https://locations.wendys.com/united-states/mo/webb-city/1229-madison-avenue,"Mo-Su 06:30-10:30,09:00-22:00",Wendy's,Q550258
5fc47bbd74ac5e57bdacd728aff29286,western_union,WALMART #000267,,Webb City,MO,,US,+1 417-673-8288,https://location.westernunion.com/us/mo/webb-city/5fc47bbd74ac5e57bdacd728aff29286,Mo-Su 07:00-21:00,Western Union,Q861042
1171,world_finance_us,,"501 S Madison St Ste J, Webb City, MO, 64870",Webb City,MO,,US,+1 417-673-2693,https://www.loansbyworld.com/branches/branch-1171,Mo-Fr 09:00-17:30; Sa 09:00-12:00,World Finance,Q3569971
