Ref,Spider,Name,Address,City,State,Zipcode,Country,Phone,Website,Hours,Brand,WikiData
https://vertretung.allianz.de/goedde/,allianz_de,Allianz Versicherung Anna-Lena und Marc Gödde GbR UNKNOWN,,Bonn,,,DE,+49 228 766010,https://vertretung.allianz.de/goedde/,,Allianz SE,Q487292
https://vertretung.allianz.de/thorsten.rahm/,allianz_de,Allianz Versicherung Thorsten Rahm HAUPTVERTRETUNG,,Bonn,,,DE,+49 170 3322038,https://vertretung.allianz.de/thorsten.rahm/,Mo-Fr 09:00-18:00,Allianz SE,Q487292
https://vertretung.allianz.de/agentur.lindlahr/,allianz_de,Allianz Versicherung Peter Lindlahr HAUPTVERTRETUNG,,Bonn,,,DE,+49 228 28692330,https://vertretung.allianz.de/agentur.lindlahr/,Mo-Fr 08:30-17:30,Allianz SE,Q487292
355,deutsche_telekom_de,Telekom Shop Bonn-Zentrale,,Bonn,,,DE,+49 228 1810,https://shopseite.telekom.de/west/bonn/friedrich-ebert-allee-140,Mo-Fr 09:30-18:00,Deutsche Telekom,Q9396
BNJC69,enterprise,Bonn South,,Bonn,,,DE,+49 228 184890,,,Enterprise Rent-A-Car,Q17085454
2760918609,gls_de,Haargenau,,Bonn,,,DE,+49 176 57720091,,Mo-Fr 10:00-18:00; Sa 10:00-16:00,General Logistics Systems,Q46495823
2760913907,gls_de,Nishas Grocery Unverpackt & Mehr,,Bonn,,,DE,+49 228 96491392,,Mo-Fr 11:00-17:30,General Logistics Systems,Q46495823
https://kamps.de/standort/kamps-baeckerei-bonn-friedrich-ebert-allee-63,kamps_de,Kamps,,Bonn,,,DE,+49 228 85466561,https://kamps.de/standort/kamps-baeckerei-bonn-friedrich-ebert-allee-63,Mo-Fr 07:00-17:00,Kamps,Q1723381
https://kamps.de/standort/kamps-baeckerei-bonn-kaiserplatz-18,kamps_de,Kamps,,Bonn,,,DE,+49 228 694559,https://kamps.de/standort/kamps-baeckerei-bonn-kaiserplatz-18,Mo-Fr 06:00-18:30; Sa 08:00-16:30,Kamps,Q1723381
CGNBO,marriott,Bonn Marriott Hotel,,Bonn,,,DE,+49 228 280500,https://www.marriott.com/CGNBO,,Marriott Hotels & Resorts,Q3918608
24394,sparkasse_de,Sparkasse KölnBonn Geldautomat Arndt-/Niebuhrstraße,,Bonn,,,DE,+49 221 2260,https://www.sparkasse.de/standorte/geldautomaten/sparkasse-koeln-bonn-geldautomat-arndt-niebuhrstrasse-24394,Mo-Su 05:00-24:00,Sparkasse,Q13601825
33763,sparkasse_de,Sparkasse KölnBonn SB-Standort Arndt-/Niebuhrstraße,,Bonn,,,DE,+49 221 2260,https://www.sparkasse.de/standorte/filialen/sparkasse-koeln-bonn-sb-standort-arndt-niebuhrstrasse-33763,Mo-Su 05:00-24:00,Sparkasse,Q13601825
33807,sparkasse_de,Sparkasse KölnBonn Geldautomat Bonn-Südstadt,,Bonn,,,DE,+49 221 2260,https://www.sparkasse.de/standorte/geldautomaten/sparkasse-koeln-bonn-geldautomat-bonn-suedstadt-33807,Mo-Su 06:00-23:00,Sparkasse,Q13601825
33808,sparkasse_de,Sparkasse KölnBonn Filiale Bonn-Südstadt,,Bonn,,,DE,+49 221 22630700,https://www.sparkasse.de/standorte/filialen/sparkasse-koeln-bonn-filiale-bonn-suedstadt-33808,Mo-We 09:30-12:30; Th 14:00-18:00; Fr 09:30-12:30,Sparkasse,Q13601825
,visa,,,BONN,,,DE,,,,,
,visa,,,BONN,,,DE,,,,,
,visa,,,BONN,,,DE,,,,,
,visa,,,BONN,,,DE,,,,,
,visa,,,BONN,,,DE,,,,,
