Ref,Spider,Name,Address,City,State,Zipcode,Country,Phone,Website,Hours,Brand,WikiData
RANDHENA4R,bp,Carrera Sales,,RANDBURG,Gauteng,,ZA,+27 11 886 1330,,24/7,BP,Q152057
RANDHANA3R,bp,BP Randburg,,RANDBURG,Gauteng,,ZA,+27 11 791 1560,,24/7,BP,Q152057
ROODCHRA3R,bp,BP Radiokop,,ROODEPOORT,Gauteng,,ZA,+27 11 679 3263,,24/7,BP,Q152057
CG492,the_courier_guy,Ferndale on Republic,"Republic Rd, FerndaleRandburgBy Locksmith & Sandwich Barron",City of Johannesburg Metropolitan Municipality,Gauteng,,ZA,,,,The Courier Guy,Q116753262
CG860,the_courier_guy,Cresta Crossing,BlackheathRandburgnext to medirite,City of Johannesburg Metropolitan Municipality,Gauteng,,ZA,,,,The Courier Guy,Q116753262
,visa,,,RANDBURG,GAUTENG,,ZA,,,,,
,visa,,,RANDBURG,GAUTENG,,ZA,,,,,
,visa,,,RANDBURG,GAUTENG,,ZA,,,,,
,visa,,,RANDBURG,GAUTENG,,ZA,,,,,
,visa,,,RANDBURG,GAUTENG,,ZA,,,,,
,visa,,,RANDBURG,GAUTENG,,ZA,,,,,
,visa,,,RANDBURG,GAUTENG,,ZA,,,,,
,visa,,,RANDBURG,GAUTENG,,ZA,,,,,
,visa,,,RANDBURG,GAUTENG,,ZA,,,,,
,visa,,,RANDBURG,GAUTENG,,ZA,,,,,
,visa,,,RANDBURG,GAUTENG,,ZA,,,,,
,visa,,,RANDBURG,GAUTENG,,ZA,,,,,
,visa,,,RANDBURG,GAUTENG,,ZA,,,,,
,visa,,,RANDBURG,GAUTENG,,ZA,,,,,
,visa,,,RANDBURG,GAUTENG,,ZA,,,,,
,visa,,,RANDBURG,GAUTENG,,ZA,,,,,
,visa,,,RANDBURG,GAUTENG,,ZA,,,,,
,visa,,,RANDBURG,GAUTENG,,ZA,,,,,
,visa,,,RANDBURG,GAUTENG,,ZA,,,,,
,visa,,,JOHANNESBURG,GAUTENG,,ZA,,,,,
,visa,,,RANDBURG,GAUTENG,,ZA,,,,,
,visa,,,RANDBURG,GAUTENG,,ZA,,,,,
,visa,,,RANDBURG,GAUTENG,,ZA,,,,,
,visa,,,RANDBURG,GAUTENG,,ZA,,,,,
,visa,,,JOHANNESSBURG,GAUTENG,,ZA,,,,,
,visa,,,RANDBURG,GAUTENG,,ZA,,,,,
,visa,,,RANDBURG,GAUTENG,,ZA,,,,,
,visa,,,RANDBURG,GAUTENG,,ZA,,,,,
,visa,,,RANDBURG,GAUTENG,,ZA,,,,,
,visa,,,CRESTA,GAUTENG,,ZA,,,,,
,visa,,,RANDBURG,GAUTENG,,ZA,,,,,
,visa,,,RANDBURG,GAUTENG,,ZA,,,,,
,visa,,,RANDBURG,GAUTENG,,ZA,,,,,
,visa,,,RANDBURG,GAUTENG,,ZA,,,,,
,visa,,,RANDBURG,GAUTENG,,ZA,,,,,
,visa,,,RANDBURG,GAUTENG,,ZA,,,,,
,visa,,,RANDBURG,GAUTENG,,ZA,,,,,
,visa,,,RANDBURG,GAUTENG,,ZA,,,,,
,visa,,,RANDBURG,GAUTENG,,ZA,,,,,
,visa,,,RANDBURG,GAUTENG,,ZA,,,,,
,visa,,,RANDBURG,GAUTENG,,ZA,,,,,
,visa,,,RANDBURG,GAUTENG,,ZA,,,,,
,visa,,,RANDBURG,GAUTENG,,ZA,,,,,
,visa,,,RANDBURG,GAUTENG,,ZA,,,,,
,visa,,,RANDBURG,GAUTENG,,ZA,,,,,
