Ref,Spider,Name,Address,City,State,Zipcode,Country,Phone,Website,Hours,Brand,WikiData
169619,bluerhino,Jane Lew All Star Foods #181159,,Jane Lew,WV,,US,+1 304-884-7456,,,Blue Rhino,Q65681213
138270,bluerhino,Jane Lew Home Center #173492,,Jane Lew,WV,,US,+1 304-884-7666,,,Blue Rhino,Q65681213
196310,bluerhino,Jane Lew Go-Mart #89,,Jane Lew,WV,,US,+1 304-884-6672,,,Blue Rhino,Q65681213
209183,bluerhino,Par Mar Store #164,,Jane Lew,WV,,US,+1 304-884-7876,,,Blue Rhino,Q65681213
208900,bluerhino,Par Mar Store #163 (Valero),,Jane Lew,WV,,US,+1 304-884-6500,,,Blue Rhino,Q65681213
32648608020942637800100000000000,bp,BP,,Jane Lew,WV,,US,+1 304-884-7013,,24/7,BP,Q152057
33589,citi,ATM 7ELEVEN-FCTI,,Jane Lew,WV,,US,,,,Citibank,Q857063
https://local.fedex.com/#25230165,fedex,,,Jane Lew,WV,,US,+1 800-463-3339,https://local.fedex.com/en-us/wv/jane-lew/ckbab,,FedEx,Q459477
wv_jane-lew_breakfast-1000-hackers-creek-rd-5686,ihop,IHOP Breakfast Restaurants Near You at 1000 Hackers Creek Rd,,Jane Lew,WV,,US,+1 304-884-7095,https://restaurants.ihop.com/en-us/wv/jane-lew/breakfast-1000-hackers-creek-rd-5686,,IHOP,Q1185675
1158,roadys_us,Par Mar Store #164,,Jane Lew,WV,,US,+1 304-884-7877,,24/7,Roadyâ€™s Truck Stops,Q7339701
35955,seven_eleven_ca_us,7-Eleven Store,,Jane Lew,WV,,US,+1 304-884-7013,https://www.7-eleven.com/locations/wv/jane-lew/94-hackers-creek-rd-35955,,7-Eleven,Q259340
050780,uhaul,R And R Automotive Solutions,481 Broad Run Rd,Jane Lew,WV,,US,+1 304-969-7036,,Mo-Fr 00:00-18:00; Sa 00:00-24:00,U-Haul,Q7862902
1368279,usps,JANE LEW,,JANE LEW,WV,,US,+1 304-884-7985,,"Mo-Fr 08:00-12:00,12:30-16:30; Sa 08:30-10:30",United States Postal Service,Q668687
2637800001,usps_collection_boxes,USPS COLLECTION BOX - BLUE BOX,141 INDUSTRIAL PARK RD,JANE LEW,WV,,US,,,,United States Postal Service,Q668687
2637800003,usps_collection_boxes,USPS COLLECTION BOX - PO LOBBY,141 INDUSTRIAL PARK RD,JANE LEW,WV,,US,,,,United States Postal Service,Q668687
2637800004,usps_collection_boxes,USPS COLLECTION BOX - PO LOBBY,141 INDUSTRIAL PARK RD,JANE LEW,WV,,US,,,,United States Postal Service,Q668687
2637800006,usps_collection_boxes,USPS COLLECTION BOX - PO LOBBY,141 INDUSTRIAL PARK RD,JANE LEW,WV,,US,,,,United States Postal Service,Q668687
0000011529,valero,Par Mar 163,,Jane Lew,WV,,US,+1 304-884-7876,https://locations.valero.com/en-us/LocationDetails/Index/21-ROBINS-WAY/0000011529,24/7,Valero,Q1283291
,visa,,,JANE LEW,WV,,US,,,,,
,visa,,,JANE LEW,WV,,US,,,,,
,visa,,,JANE LEW,WV,,US,,,,,
,visa,,,JANE LEW,WV,,US,,,,,
,visa,,,JANE LEW,WV,,US,,,,,
,visa,,,JANE LEW,WV,,US,,,,,
,visa,,,JANE LEW,WV,,US,,,,,
,visa,,,JANE LEW,WV,,US,,,,,
,visa,,,JANE LEW,WV,,US,,,,,
,visa,,,JANE LEW,WV,,US,,,,,
,visa,,,JANE LEW,WV,,US,,,,,
6675b1c72249c247ccbf4c256a31e9b2,western_union,PAR MAR STORE #164,,Jane Lew,WV,,US,304-123-4567,https://location.westernunion.com/us/wv/jane-lew/6675b1c72249c247ccbf4c256a31e9b2,,Western Union,Q861042
fadf7645bf7591e3bed2d8889f7e6cf5,western_union,PAR MAR STORE #163,,Jane Lew,WV,,US,+1 304-884-6500,https://location.westernunion.com/us/wv/jane-lew/fadf7645bf7591e3bed2d8889f7e6cf5,,Western Union,Q861042
