Ref,Spider,Name,Address,City,State,Zipcode,Country,Phone,Website,Hours,Brand,WikiData
https://stores.advanceautoparts.com/va/hopewell/3609-oaklawn-blvd,advance_auto_parts_us,Advance Auto Parts,,Hopewell,VA,,US,+1 804-541-1294,https://stores.advanceautoparts.com/va/hopewell/3609-oaklawn-blvd,Mo-Sa 07:30-21:00; Su 09:00-20:00,Advance Auto Parts,Q4686051
921,autozone_us,AutoZone Auto Parts Hopewell,,Hopewell,VA,,US,+1 804-541-2791,https://www.autozone.com/locations/va/hopewell/3513-oaklawn-blvd.html,Mo-Sa 07:30-21:00; Su 08:00-20:00,AutoZone,Q4826087
https://locators.bankofamerica.com/va/hopewell/atm-hopewell-1758.html,bankofamerica,Bank of America Drive-Thru ATM | Hopewell Main,,Hopewell,VA,,US,+1 844-401-8500,https://locators.bankofamerica.com/va/hopewell/atm-hopewell-1758.html,,Bank of America,Q487907
https://locators.bankofamerica.com/va/hopewell/atm-hopewell-111151.html,bankofamerica,Bank of America Drive-Thru ATM | Oaklawn Plaza,,Hopewell,VA,,US,+1 844-401-8500,https://locators.bankofamerica.com/va/hopewell/atm-hopewell-111151.html,,Bank of America,Q487907
https://locations.baskinrobbins.com/va/hopewell/5113-oaklawn-blvd-340310-br,baskin_robbins_us,Baskin-Robbinsâ„¢,,Hopewell,VA,,US,+1 804-352-7968,https://locations.baskinrobbins.com/va/hopewell/5113-oaklawn-blvd-340310-br,Mo-Fr 05:00-21:00; Sa-Su 06:00-21:00,Baskin-Robbins,Q584601
https://local.biglots.com/#13190208,biglots,Big Lots - North Prince George,,North Prince George,VA,,US,+1 804-452-7559,https://local.biglots.com/va/north-prince-george/5260-oaklawn-blvd,Mo-Sa 09:00-21:00; Su 09:00-19:00,Big Lots,Q4905973
41161,bluerhino,Food Lion #0844,,Hopewell,VA,,US,+1 804-458-7207,,,Blue Rhino,Q65681213
206247,bluerhino,Rite Aid #00764,,Hopewell,VA,,US,+1 804-458-8688,,,Blue Rhino,Q65681213
156457,bluerhino,Walgreens #12360,,Hopewell,VA,,US,+1 804-452-2542,,,Blue Rhino,Q65681213
206270,bluerhino,Rite Aid #03705,,Hopewell,VA,,US,+1 804-458-1231,,,Blue Rhino,Q65681213
164710,bluerhino,Family Dollar #08835,,Hopewell,VA,,US,+1 804-458-7679,,,Blue Rhino,Q65681213
223169,bluerhino,Breez In #9,,Hopewell,VA,,US,+1 804-415-2035,,,Blue Rhino,Q65681213
197305,bluerhino,Dollar General #20456,,Hopewell,VA,,US,+1 804-481-9098,,,Blue Rhino,Q65681213
va/hopewell/3519-oaklawn-blvd,bojangles,"Bojangles Hopewell, VA",,Hopewell,VA,,US,+1 804-452-4443,https://locations.bojangles.com/va/hopewell/3519-oaklawn-blvd.html,,Bojangles',Q891163
120080,bp,BP,,Hopewell,VA,,US,+1 804-541-2522,,Mo-Su 06:00-22:00,BP,Q152057
364756,captaind,Captain D's,,Hopewell,VA,,US,+1 804-446-3859,https://locations.captainds.com/ll/US/VA/Hopewell/3911-Oaklawn-Blvd,Mo-Th 10:30-22:00; Fr-Sa 10:30-23:00; Su 10:30-22:00,Captain D's,Q5036616
14409,chevrolet,"STROSNIDER CHEVROLET, INC.",,North Prince George,VA,,US,+1 804-458-9865,https://www.strosniderchevrolet.com,Mo-Fr 08:30-19:00; Sa 08:30-16:00,Chevrolet,Q29570
70403,citi,ATM PNC AT WAWA,,Hopewell,VA,,US,,,,Citibank,Q857063
90696,citi,ATM Walgreens,,Hopewell,VA,,US,,,,Citibank,Q857063
27257,citi,ATM 7ELEVEN-FCTI,,Hopewell,VA,,US,,,,Citibank,Q857063
29191,citi,ATM 7ELEVEN-FCTI,,Hopewell,VA,,US,,,,Citibank,Q857063
49736,citi,ATM CVS,,Hopewell,VA,,US,,,,Citibank,Q857063
om_va_hopewell_205-b-cavalier-sq--bay-22,cititrends,Citi Trends,,Hopewell,VA,,US,+1 804-439-9513,https://locations.cititrends.com/va/hopewell/205-b-cavalier-sq--bay-22.html,Mo 11:00-20:00; Tu 11:00-20:00; We 11:00-20:00; Th 11:00-20:00; Fr 10:00-21:00; Sa 10:00-21:00; Su 12:00-18:00,Citi Trends,Q5122438
3471,cookout,"HOPEWELL, VA",,HOPEWELL,VA,,US,,,Mo-Th 10:30-03:00; Fr-Sa 10:30-04:00; Su 10:30-03:00,Cookout,Q5166992
10251,cvs_us,CVS Pharmacy,,Hopewell,VA,,US,+1 804-458-7204,https://www.cvs.com/store-locator/hopewell-va-pharmacies/2704-oaklawn-blvd-hopewell-va-23860/storeid=10251,Mo-Su 07:00-22:00,CVS Pharmacy,Q2078880
246672,dennys,Denny's,,Hopewell,VA,,US,+1 804-452-2712,https://locations.dennys.com/VA/HOPEWELL/246672,24/7,Denny's,Q1189695
nca_836,department_veterans_affairs,City Point National Cemetery,,Hopewell,VA,,US,+1 757-723-7104,https://www.cem.va.gov/cems/nchp/CityPoint.asp,,Department Veterans Affairs,Q592576
4262,dominos_pizza_us,Domino's Pizza,,Hopewell,VA,,US,+1 804-541-1300,https://pizza.dominos.com/virginia/hopewell/2320-oaklawn-blvd-ste-a,Mo-Th 10:00-24:00; Fr-Sa 10:00-01:00; Su 10:00-24:00,Domino's,Q839466
340310,dunkin_us,Dunkin',,Hopewell,VA,,US,+1 804-352-7968,https://locations.dunkindonuts.com/en/va/hopewell/5113-oaklawn-blvd/340310,Mo-Fr 05:00-21:00; Sa-Su 06:00-21:00,Dunkin',Q847743
2021,extra_space_storage,Hopewell Self Storage at 4017 Old Woodlawn St,,Hopewell,VA,,US,+1 804-471-4100,https://www.extraspace.com/storage/facilities/us/virginia/hopewell/2021/,Mo-Fr 09:30-18:00; Sa 09:00-17:30,Extra Space Storage,Q5422162
200326777,exxonmobil,JAMES RIVER,,HOPEWELL,VA,,US,+1 804-415-2035,https://www.exxon.com/en/find-station/exxon-hopewell-va-jamesriver-200326777,24/7,Exxon,Q109675651
200319593,exxonmobil,BREEZE-IN,,HOPEWELL,VA,,US,+1 804-458-6601,https://www.exxon.com/en/find-station/exxon-hopewell-va-breezein-200319593,Mo-Su 06:00-00:00,Exxon,Q109675651
28835,family_dollar_us,FAMILY DOLLAR #8835,,Hopewell,VA,,US,+1 804-352-3228,https://www.familydollar.com/locations/va/hopewell/28835/,Mo-Sa 09:00-22:00; Su 09:00-21:00,Family Dollar,Q5433101
https://local.fedex.com/#25229881,fedex,,,Hopewell,VA,,US,+1 800-463-3339,https://local.fedex.com/en-us/va/hopewell/ptbbi,,FedEx,Q459477
https://local.fedex.com/#25235263,fedex,,,Hopewell,VA,,US,+1 800-463-3339,https://local.fedex.com/en-us/va/hopewell/ptbba,,FedEx,Q459477
https://local.fedex.com/#25203940,fedex,,,Hopewell,VA,,US,+1 800-463-3339,https://local.fedex.com/en-us/va/hopewell/b6iz1,,FedEx,Q459477
2577,firestone_auto_care,Firestone Complete Auto Care,,Hopewell,VA,,US,+1 804-415-4193,https://local.firestonecompleteautocare.com/virginia/hopewell/405-cavalier-square/,,Firestone,Q420837
44262,h_r_block,H&R Block,,Hopewell,VA,,US,+1 804-541-1981,https://www.hrblock.com/local-tax-offices/virginia/hopewell/cavalier-square-shop-ctr/44262/,,H&R Block,Q5627799
https://office.jacksonhewitt.com/#27579948,jackson_hewitt,Jackson Hewitt,,Hopewell,VA,,US,+1 804-458-6570,https://office.jacksonhewitt.com/tax-preparation-services-locations/en/va/hopewell/906-g-crossings-boulevard/18465,Mo-Fr 10:00-17:00,Jackson Hewitt,Q6117132
https://office.jacksonhewitt.com/#27578131,jackson_hewitt,Jackson Hewitt,,Hopewell,VA,,US,+1 804-458-9757,https://office.jacksonhewitt.com/tax-preparation-services-locations/en/va/hopewell/329-cavalier-square-shopping-center/10220,Mo 10:00-19:00; Tu 10:00-18:00; We 10:00-19:00; Th 10:00-18:00; Fr 10:00-19:00; Sa 10:00-17:00,Jackson Hewitt,Q6117132
https://locations.kfc.com/#11249010,kfc,Chicken Nuggets Near Hopewell,,Hopewell,VA,,US,,https://locations.kfc.com/va/hopewell/3011-oaklawn-boulevard/chickennugget,Mo-Su 10:00-22:00,KFC,Q524757
159079,marathon_petroleum_us,AM EXPRESS,,Hopewell,VA,,US,+1 804-458-0977,,,Marathon,Q458363
160214,marathon_petroleum_us,Midget Mart 4,,Hopewell,VA,,US,+1 804-458-0689,,,Marathon,Q458363
https://locations.oreillyauto.com/va/hopewell/wiper-installation-2449.html,oreilly,Your Hopewell O'Reilly Auto Parts Store,,Hopewell,VA,,US,+1 804-541-2729,https://locations.oreillyauto.com/va/hopewell/wiper-installation-2449.html,Mo-Sa 07:30-21:00; Su 09:00-20:00,O'Reilly Auto Parts,Q7071951
https://locations.oreillyauto.com/va/hopewell/battery-testing-2449.html,oreilly,Your Hopewell O'Reilly Auto Parts Store,,Hopewell,VA,,US,+1 804-541-2729,https://locations.oreillyauto.com/va/hopewell/battery-testing-2449.html,Mo-Sa 07:30-21:00; Su 09:00-20:00,O'Reilly Auto Parts,Q7071951
https://locations.oreillyauto.com/va/hopewell/check-engine-light-testing-2449.html,oreilly,Your Hopewell O'Reilly Auto Parts Store,,Hopewell,VA,,US,+1 804-541-2729,https://locations.oreillyauto.com/va/hopewell/check-engine-light-testing-2449.html,Mo-Sa 07:30-21:00; Su 09:00-20:00,O'Reilly Auto Parts,Q7071951
https://locations.oreillyauto.com/va/hopewell/autopartes-2449.html,oreilly,Tu tienda O'Reilly Auto Parts en Hopewell,,Hopewell,VA,,US,+1 804-541-2729,https://locations.oreillyauto.com/va/hopewell/autopartes-2449.html,Mo-Sa 07:30-21:00; Su 09:00-20:00,O'Reilly Auto Parts,Q7071951
https://locations.papajohns.com/#10692991,papa_johns,Papa John's,,Hopewell,VA,,US,+1 804-452-7272,https://locations.papajohns.com/united-states/va/23860/hopewell/5113-oaklawn-blvd,Mo-Th 10:30-23:00; Fr-Sa 10:30-01:00; Su 11:00-23:00,Papa John's Pizza,Q2759586
5570,rentacenter,Rent-A-Center,,Hopewell,VA,,US,+1 804-541-0268,https://locations.rentacenter.com/virginia/hopewell/3516-oaklawn-blvd/,Mo-Sa 10:00-18:00,Rent-A-Center,Q7313497
00764,rite_aid_us,Rite Aid #00764 Hopewell,,Hopewell,VA,,US,+1 804-458-8688,https://locations2.riteaid.com.yext-cdn.com/va/hopewell/5210-oaklawn-boulevard.html,Mo-Su 08:00-22:00,Rite Aid,Q3433273
03705,rite_aid_us,Rite Aid #03705 Hopewell,,Hopewell,VA,,US,+1 804-458-1231,https://locations2.riteaid.com.yext-cdn.com/va/hopewell/2305-oaklawn-boulevard.html,Mo-Fr 08:00-22:00; Sa-Su 09:00-21:00,Rite Aid,Q3433273
5295,ruby_tuesday_us,Ruby Tuesday,5107 OAKLAWN BLVD. HOPEWELL VA 23860,Hopewell,VA,,US,+1 804-452-3713,,Mo-Th 11:00-22:00; Fr-Sa 11:00-23:00; Su 11:00-22:00,Ruby Tuesday,Q7376400
https://restaurants.subway.com/#14913793,subway,Subway,,Hopewell Hopewell City,VA,,US,+1 804-541-8253,https://restaurants.subway.com/united-states/va/hopewell/601-w-randolph-rd,Mo-Sa 08:00-22:00; Su 09:00-21:00,Subway,Q244457
https://restaurants.subway.com/#14896851,subway,Subway Shoppes at Plaza Drive,,Hopewell Hopewell City,VA,,US,+1 804-452-1581,https://restaurants.subway.com/united-states/va/hopewell/906-crossings-boulevard,Mo-Sa 08:00-22:00; Su 09:00-21:00,Subway,Q244457
0298373200,sunoco_us,Sunoco,,HOPEWELL,VA,,US,+1 804-452-0093,,Mo-Su 06:00-00:00,Sunoco,Q1423218
023030,uhaul,Storage City,10115 James River Dr,North Prince George,VA,,US,+1 804-415-7658,,Mo-Sa 30:00-16:00,U-Haul,Q7862902
1367390,usps,HOPEWELL,,HOPEWELL,VA,,US,+1 804-452-4350,,Mo-Fr 09:30-17:00; Sa 10:00-12:00,United States Postal Service,Q668687
2386000017,usps_collection_boxes,USPS COLLECTION BOX - BLUE BOX,5280 OAKLAWN BLVD,HOPEWELL,VA,,US,,,,United States Postal Service,Q668687
2386000021,usps_collection_boxes,USPS COLLECTION BOX - BLUE BOX,300 N 6TH AVE,HOPEWELL,VA,,US,,,,United States Postal Service,Q668687
2386000016,usps_collection_boxes,USPS COLLECTION BOX - BLUE BOX,105 CAVALIER SQ,HOPEWELL,VA,,US,,,,United States Postal Service,Q668687
2386000012,usps_collection_boxes,USPS COLLECTION BOX - BLUE BOX,409 EPPES ST,HOPEWELL,VA,,US,,,,United States Postal Service,Q668687
2386000010,usps_collection_boxes,USPS COLLECTION BOX - BLUE BOX,100 W CITY POINT RD,HOPEWELL,VA,,US,,,,United States Postal Service,Q668687
2386000014,usps_collection_boxes,USPS COLLECTION BOX - BLUE BOX,300 N MAIN ST,HOPEWELL,VA,,US,,,,United States Postal Service,Q668687
2386000015,usps_collection_boxes,USPS COLLECTION BOX - BLUE BOX,210 N MAIN ST,HOPEWELL,VA,,US,,,,United States Postal Service,Q668687
2386000003,usps_collection_boxes,USPS COLLECTION BOX - BLUE BOX,117 W POYTHRESS ST,HOPEWELL,VA,,US,,,,United States Postal Service,Q668687
2386000004,usps_collection_boxes,USPS COLLECTION BOX - BLUE BOX,117 W POYTHRESS ST,HOPEWELL,VA,,US,,,,United States Postal Service,Q668687
2386000024,usps_collection_boxes,USPS COLLECTION BOX - PO LOBBY,117 W POYTHRESS ST,HOPEWELL,VA,,US,,,,United States Postal Service,Q668687
2386000025,usps_collection_boxes,USPS COLLECTION BOX - PO LOBBY,117 W POYTHRESS ST,HOPEWELL,VA,,US,,,,United States Postal Service,Q668687
2386000027,usps_collection_boxes,USPS COLLECTION BOX - PO LOBBY,117 W POYTHRESS ST,HOPEWELL,VA,,US,,,,United States Postal Service,Q668687
2386000013,usps_collection_boxes,USPS COLLECTION BOX - BLUE BOX,207 E CAWSON ST,HOPEWELL,VA,,US,,,,United States Postal Service,Q668687
2386000019,usps_collection_boxes,USPS COLLECTION BOX - BLUE BOX,316 E CAWSON ST,HOPEWELL,VA,,US,,,,United States Postal Service,Q668687
A00000254211,verizon_us,Wireless Zone Hopewell,,Hopewell,VA,,US,+1 804-668-5733,https://www.verizon.com/stores/details/virginia/hopewell/wireless-zone-hopewell-1568422/,Mo-Sa 09:00-19:00; Su 11:00-17:00,Verizon,Q919641
,visa,,,HOPEWELL,VA,,US,,,,,
,visa,,,PRINCE GEORGE,VA,,US,,,,,
,visa,,,HOPEWELL,VA,,US,,,,,
,visa,,,PRINCE GEORGE,VA,,US,,,,,
,visa,,,HOPEWELL,VA,,US,,,,,
,visa,,,HOPEWELL,VA,,US,,,,,
,visa,,,HOPEWELL,VA,,US,,,,,
,visa,,,HOPEWELL,VA,,US,,,,,
,visa,,,HOPEWELL,VA,,US,,,,,
,visa,,,HOPEWELL,VA,,US,,,,,
,visa,,,HOPEWELL,VA,,US,,,,,
,visa,,,HOPEWELL,VA,,US,,,,,
,visa,,,HOPEWELL,VA,,US,,,,,
,visa,,,HOPEWELL,VA,,US,,,,,
,visa,,,HOPEWELL,VA,,US,,,,,
,visa,,,HOPEWELL,VA,,US,,,,,
,visa,,,HOPEWELL,VA,,US,,,,,
,visa,,,HOPEWELL,VA,,US,,,,,
,visa,,,HOPEWELL,VA,,US,,,,,
,visa,,,HOPEWELL,VA,,US,,,,,
,visa,,,HOPEWILL,VA,,US,,,,,
,visa,,,HOPEWELL,VA,,US,,,,,
,visa,,,HOPEWELL,VA,,US,,,,,
,visa,,,HOPEWELL,VA,,US,,,,,
,visa,,,HOPEWELL,VA,,US,,,,,
,visa,,,HOPEWELL,VA,,US,,,,,
,visa,,,HOPEWELL,VA,,US,,,,,
,visa,,,HOPEWELL,VA,,US,,,,,
,visa,,,HOPEWELL,VA,,US,,,,,
,visa,,,HOPEWELL,VA,,US,,,,,
,visa,,,HOPEWELL,VA,,US,,,,,
,visa,,,HOPEWELL,VA,,US,,,,,
,visa,,,HOPWELL,VA,,US,,,,,
,visa,,,HOPEWELL,VA,,US,,,,,
,visa,,,HOPEWELL,VA,,US,,,,,
,visa,,,HOPEWELL,VA,,US,,,,,
,visa,,,HOPEWELL,VA,,US,,,,,
,visa,,,HOPEWELL,VA,,US,,,,,
,visa,,,HOPEWELL,VA,,US,,,,,
,visa,,,HOPEWELL,VA,,US,,,,,
,visa,,,HOPEWELL,VA,,US,,,,,
,visa,,,HOPEWELL,VA,,US,,,,,
,visa,,,HOPEWELL,VA,,US,,,,,
,visa,,,HOPEWELL,VA,,US,,,,,
,visa,,,HOPWELL,VA,,US,,,,,
,visa,,,HOPEWELL,VA,,US,,,,,
,visa,,,HOPEWELL,VA,,US,,,,,
,visa,,,HOPEWELL,VA,,US,,,,,
,visa,,,HOPEWELL,VA,,US,,,,,
,visa,,,HOPEWELL,VA,,US,,,,,
,visa,,,HOPEWELL,VA,,US,,,,,
,visa,,,HOPEWELL,VA,,US,,,,,
,visa,,,HOPEWELL,VA,,US,,,,,
,visa,,,HOPEWELL,VA,,US,,,,,
,visa,,,HOPEWELL,VA,,US,,,,,
,visa,,,HOPEWELL,VA,,US,,,,,
,visa,,,HOPEWELL,VA,,US,,,,,
,visa,,,HOPEWELL,VA,,US,,,,,
,visa,,,HOPEWELL,VA,,US,,,,,
,visa,,,HOPEWELL,VA,,US,,,,,
,visa,,,HOPEWELL,VA,,US,,,,,
,visa,,,HOPEWELL,VA,,US,,,,,
,visa,,,HOPEWELL,VA,,US,,,,,
,visa,,,HOPEWELL,VA,,US,,,,,
,visa,,,HOPEWELL,VA,,US,,,,,
,visa,,,HOPEWELL,VA,,US,,,,,
,visa,,,HOPEWELL,VA,,US,,,,,
,visa,,,HOPEWELL,VA,,US,,,,,
,visa,,,HOPEWELL,VA,,US,,,,,
,visa,,,HOPEWELL,VA,,US,,,,,
,visa,,,HOPEWELL,VA,,US,,,,,
,visa,,,HOPEWELL,VA,,US,,,,,
,visa,,,HOPEWELL,VA,,US,,,,,
,visa,,,HOPEWELL,VA,,US,,,,,
,visa,,,HOPEWELL,VA,,US,,,,,
,visa,,,HOPEWELL,VA,,US,,,,,
,visa,,,HOPEWELL,VA,,US,,,,,
,visa,,,HOPEWELL,VA,,US,,,,,
,visa,,,HOPEWELL,VA,,US,,,,,
,visa,,,HOPEWELL,VA,,US,,,,,
,visa,,,HOPEWELL,VA,,US,,,,,
,visa,,,HOPEWELL,VA,,US,,,,,
,visa,,,HOPEWELL,VA,,US,,,,,
,visa,,,HOPEWELL,VA,,US,,,,,
,visa,,,HOPEWELL,VA,,US,,,,,
,visa,,,HOPEWELL,VA,,US,,,,,
,visa,,,HOPEWELL,VA,,US,,,,,
,visa,,,HOPEWELL,VA,,US,,,,,
846,waffle_house_us,Waffle House #846,,HOPEWELL,VA,,US,+1 804-452-0386,https://locations.wafflehouse.com/hopewell-va-846,24/7,Waffle House,Q1701206
https://www.walgreens.com/locator/walgreens-3901+oaklawn+blvd-hopewell-va-23860/id=12360,walgreens,Walgreens,,Hopewell,VA,,US,+1 804-452-2542,https://www.walgreens.com/locator/walgreens-3901+oaklawn+blvd-hopewell-va-23860/id=12360,Mo-Su 07:00-22:00,Walgreens,Q1591889
425__S__15TH__AVE_HOPEWELL_VA_23860,wellsfargo,Wells Fargo,425 S 15TH AVE,HOPEWELL,VA,,US,+1 804-458-5292,https://www.wellsfargo.com/locator/bank/425__S__15TH__AVE_HOPEWELL_VA_23860/,Mo-Fr 09:00-17:00,Wells Fargo,Q744149
https://locations.wendys.com/#9252970,wendys,"Wendy's Oaklawn Blvd in Hopewell, VA",,Hopewell,VA,,US,+1 804-452-6163,https://locations.wendys.com/united-states/va/hopewell/5103-oaklawn-blvd,"Mo-Su 06:30-10:30,09:00-22:00",Wendy's,Q550258
46cf8c67c92d10f059cb2dc308fc4a63,western_union,CORNER STORE MART 2,,Hopewell,VA,,US,+1 804-452-4000,https://location.westernunion.com/us/va/hopewell/46cf8c67c92d10f059cb2dc308fc4a63,Mo-Su 07:00-22:00,Western Union,Q861042
