Ref,Spider,Name,Address,City,State,Zipcode,Country,Phone,Website,Hours,Brand,WikiData
14262,burger_king_es_pt,Burger King,"CALLE ,MARCELO USERA 109",MADRID,,,ES,+34 914 76 26 74,,Mo-Th 12:00-24:00; Fr-Sa 12:00-01:00; Su 12:00-00:30,Burger King,Q177054
madrid/8210,claires,Compra piercings de oreja y bisutería en Plaza Rio 2,,Madrid,,,ES,+34 911 33 18 97,https://stores.claires.com/es/es-md/madrid/8210.html,Mo-Su 10:00-22:00,Claire's,Q2974996
1003187,dia_es,,,Madrid,,,ES,,,Mo-Sa 09:00-21:30; Su 10:00-21:00,Dia,Q925132
1002307,dia_es,,,Madrid,,,ES,,,Mo-Sa 09:00-21:30; Su 10:00-15:00,Dia,Q925132
14051,dia_es,,,Madrid,,,ES,,,Mo-Sa 09:00-21:30; Su 10:00-15:00,Dia,Q925132
1001488,dia_es,,,Madrid,,,ES,,,Th 09:00-21:30,Dia,Q925132
bicimad_madrid:2008,gbfs,392 - Metro Almendrales,,,,,ES,,https://www.bicimad.com,,bicimad,
bicimad_madrid:2033,gbfs,"393 - Manuel Noya , 29",,,,,ES,,https://www.bicimad.com,,bicimad,
13292,jack_and_jones,Madrid - Plaza Rio 2,,Madrid,,,ES,+34 918 05 85 39,,,Jack & Jones,Q6077665
1125,latagliatella_es,C.C. Plaza Río 2,,Madrid,,,ES,+34 910 58 90 05,https://www.latagliatella.es/restaurantes/madrid/cc-plaza-rio-2-madrid,Mo-Th 13:00-23:00; Fr-Su 12:30-23:00,La Tagliatella,Q113426257
5109,lidl_es,Lidl,,Madrid,,,ES,,,Mo-Sa 09:00-22:00; Su 10:00-22:00,Lidl,Q151954
68243401,moneygram,VIAJES ARENAS - #10156,,MADRID,,,ES,+34 914 76 97 67,,Mo-Su 08:00-24:00,MoneyGram,Q1944412
72683222,moneygram,CASA DE INFORMATICA - #14421,,MADRID,,,ES,+34 915 00 66 90,,Mo-Su 09:30-22:30,MoneyGram,Q1944412
72838637,moneygram,LATIN TRAVEL - #6067,,MADRID,,,ES,+34 910 81 15 13,,Mo-Su 10:00-22:00,MoneyGram,Q1944412
72854378,moneygram,NIOVA TRAVEL TOURS - #14480,,MADRID,,,ES,+34 910 12 49 42,,Mo-Su 08:00-24:00,MoneyGram,Q1944412
72931518,moneygram,LOCUTORIO SAMANTHA - #6106,,MADRID,,,ES,+34 910 53 09 96,,Mo-Su 08:30-22:30,MoneyGram,Q1944412
72952597,moneygram,JORGE LOCUTORIOS VILLAVERDE BAJO - #5847,,MADRID,,,ES,+34 915 00 53 46,,Mo-Su 09:30-23:00,MoneyGram,Q1944412
69066564,moneygram,LOCUTORIO - #11254,,MADRID,,,ES,+34 912 22 93 40,,Mo-Su 08:00-24:00,MoneyGram,Q1944412
73874108,moneygram,ESPERANZA LOCUTORIO Y ENVIOS - #9645,,MADRID,,,ES,+34 919 35 58 86,,Mo-Su 08:00-24:00,MoneyGram,Q1944412
73955289,moneygram,LOCUTORIO SABAYSH - #9705,,MADRID,,,ES,+34 914 69 62 16,,Mo-Su 08:00-24:00,MoneyGram,Q1944412
74071489,moneygram,D&D LOCUTORIO - #15200,,MADRID,,,ES,+34 698 33 75 97,,Mo-Su 10:00-22:00,MoneyGram,Q1944412
73973012,moneygram,MEDINA ENVIOS USERA,,MADRID,,,ES,+34 919 35 88 34,,Mo-Su 09:00-23:00,MoneyGram,Q1944412
74008821,moneygram,EUROPHIL,,MADRID,,,ES,+34 606 19 28 79,,Mo-Su 08:00-24:00,MoneyGram,Q1944412
74262748,moneygram,RG MINI MARKET - #9909,,MADRID,,,ES,+34 919 47 11 51,,Mo-Su 08:00-24:00,MoneyGram,Q1944412
74296675,moneygram,LOCUTORIO BELYS - #9951,,MADRID,,,ES,+34 910 14 33 99,,Mo-Su 08:00-24:00,MoneyGram,Q1944412
74353482,moneygram,AGENCIA DE VIAJES Y ENVIOS ALOHA TOUR -,,MADRID,,,ES,+34 919 35 81 19,,Mo-Su 08:00-24:00,MoneyGram,Q1944412
74415540,moneygram,LOCUTORIO RIO 2 INFORMATICA - #9899,,MADRID,,,ES,+34 914 85 59 05,,Mo-Su 08:00-24:00,MoneyGram,Q1944412
74467420,moneygram,JUDITH TRAVEL - #10096,,MADRID,,,ES,+34 919 47 20 68,,Mo-Su 08:00-24:00,MoneyGram,Q1944412
74469994,moneygram,MINI MARKET USERA - #10097,,MADRID,,,ES,+34 911 62 79 00,,Mo-Su 08:00-24:00,MoneyGram,Q1944412
74492518,moneygram,LOCUTORIO NERY - #15614,,MADRID,,,ES,+34 913 15 45 98,,Mo-Su 09:00-23:00,MoneyGram,Q1944412
74664980,moneygram,PRONTO PAGO OLVIDO,,MADRID,,,ES,+34 911 44 66 67,,Mo-Su 08:00-24:00,MoneyGram,Q1944412
74654275,moneygram,PRONTO PAGO SANTUARIO,,MADRID,,,ES,+34 919 28 37 15,,Mo-Su 08:00-24:00,MoneyGram,Q1944412
74656891,moneygram,SUPER MAX - #10227,,MADRID,,,ES,+34 627 70 85 11,,Mo-Su 08:00-24:00,MoneyGram,Q1944412
74685066,moneygram,SUPERMAX,,MADRID,,,ES,+34 631 66 52 36,,Mo-Su 09:00-23:00,MoneyGram,Q1944412
71033048,moneygram,LOCUTORIO SANTO,,MADRID,,,ES,+34 918 16 28 35,,Mo-Su 08:00-24:00,MoneyGram,Q1944412
65788590,moneygram,UNIVERSAL - #7070,,MADRID,,,ES,+34 914 75 04 70,,Mo-Su 10:00-22:00,MoneyGram,Q1944412
67226296,moneygram,LOCUTORIO LILI - #1662,,MADRID,,,ES,+34 912 22 72 43,,Mo-Su 08:00-24:00,MoneyGram,Q1944412
67336995,moneygram,EUROPHIL - #7012 USE,,MADRID,,,ES,+34 917 61 40 26,,Mo-Fr 09:00-22:00; Sa-Su 10:00-22:00,MoneyGram,Q1944412
SQLS443,speed_queen,Lavandería Autoservicio Speed Queen,,Madrid,,,ES,+34 647 33 75 16,,Mo-Su 08:00-22:00,Speed Queen,Q7575499
SQLS932,speed_queen,Lavandería Autoservicio Speed Queen,,Madrid,,,ES,+34 682 20 89 10,,Mo-Su 09:00-22:00,Speed Queen,Q7575499
SQLS1305,speed_queen,Lavandería Autoservicio Speed Queen,,Madrid,,,ES,+34 647 33 75 16,,Mo-Su 08:00-23:00,Speed Queen,Q7575499
8796400549911,thebodyshop,MADRID CC PLAZA RÍO 2,,MADRID,,,ES,,https://www.thebodyshop.com/es-es/store-details/madrid-cc-plaza-rio-2/7513,,The Body Shop,Q837851
N430237,united_colors_of_benetton,Benetton Madrid,,MADRID,,,ES,+34 910 51 59 94,,Mo-Su 10:00-22:00,United Colors of Benetton,Q817139
,visa,,,MADRID,,,ES,,,,,
,visa,,,MADRID,,,ES,,,,,
,visa,,,MADRID,,,ES,,,,,
,visa,,,MADRID,,,ES,,,,,
,visa,,,MADRID,,,ES,,,,,
,visa,,,MADRID,,,ES,,,,,
,visa,,,MADRID,,,ES,,,,,
,visa,,,MADRID,,,ES,,,,,
,visa,,,MADRID,,,ES,,,,,
,visa,,,MADRID,,,ES,,,,,
,visa,,,MADRID,,,ES,,,,,
,visa,,,MADRID,,,ES,,,,,
,visa,,,MADRID,,,ES,,,,,
