Ref,Spider,Name,Address,City,State,Zipcode,Country,Phone,Website,Hours,Brand,WikiData
https://locations.auntieannes.com/#7205,auntie_annes,Auntie Anne's Suisun City Wal-Mart #3708/Subway #56798,,Suisun City,CA,,US,+1 707-803-5969,https://locations.auntieannes.com/ca/suisun-city/350-walters-rd,Mo-Su 10:00-21:00,Auntie Anne's,Q4822010
5693,autozone_us,AutoZone Auto Parts Suisun City,,Suisun City,CA,,US,+1 707-428-3994,https://www.autozone.com/locations/ca/suisun-city/288-sunset-ave.html,Mo-Sa 07:30-20:00; Su 08:00-20:00,AutoZone,Q4826087
https://locators.bankofamerica.com/ca/suisuncity/atm-suisun-city-108919.html,bankofamerica,Bank of America Walk-Up ATM | Sunset Shopping Center,,Suisun City,CA,,US,+1 844-401-8500,https://locators.bankofamerica.com/ca/suisuncity/atm-suisun-city-108919.html,,Bank of America,Q487907
https://locations.baskinrobbins.com/ca/suisun-city/282-sunset-ave-359593-br,baskin_robbins_us,Baskin-Robbinsâ„¢,,Suisun City,CA,,US,+1 707-440-4204,https://locations.baskinrobbins.com/ca/suisun-city/282-sunset-ave-359593-br,Mo-Su 06:00-21:00,Baskin-Robbins,Q584601
219560,bluerhino,Suisun Ace Hardware #18457,,Suisun City,CA,,US,+1 707-419-4183,,,Blue Rhino,Q65681213
47859_50001,bmw_group,"Alioto's Garage, Independent Certified Collision Repair Center of BMW of Fairfield",,Suisun City,CA,,US,+1 707-422-1072,,,BMW,Q26678
8346040,chase_us,DRIVE UP ISLAND - 197635,,SUISUN CITY,CA,,US,+1 800-935-9935,https://locator.chase.com/ca/suisun-city/278-sunset-ave,,Chase,Q524629
304824,chevron,Chevron Station #304824,1200 ANDERSON DRIVE,SUISUN CITY,CA,,US,+1 707-423-1956,,,Chevron,Q319642
34897,citi,ATM Ampm,,Suisun City,CA,,US,,,,Citibank,Q857063
72789,citi,ATM Rite Aid,,Suisun City,CA,,US,,,,Citibank,Q857063
24920,citi,ATM 7ELEVEN-FCTI,,Suisun City,CA,,US,,,,Citibank,Q857063
32809,citi,ATM 7ELEVEN-FCTI,,Suisun City,CA,,US,,,,Citibank,Q857063
28797,citi,ATM 7ELEVEN-FCTI,,Suisun,CA,,US,,,,Citibank,Q857063
246855,dennys,Denny's,,Cordelia,CA,,US,+1 707-389-4698,https://locations.dennys.com/CA/CORDELIA/246855,24/7,Denny's,Q1189695
359593,dunkin_us,Dunkin',,Suisun City,CA,,US,+1 707-440-4204,https://locations.dunkindonuts.com/en/ca/suisun-city/282-sunset-ave/359593,Mo-Su 06:00-21:00,Dunkin',Q847743
https://www.edwardjones.com/us-en/financial-advisor/benjamin-crombie,edwardjones,Benjamin A Crombie,,Suisun City,CA,,US,+1 707-426-9410,https://www.edwardjones.com/us-en/financial-advisor/benjamin-crombie,Mo-Th 08:00-16:30; Fr 08:00-13:00,Edward Jones,Q5343830
apcschx-hampton-suites-suisun-city-waterfront,hilton,Hampton Inn and Suites Suisun City Waterfront,,,CA,,US,+1 707-429-0900,https://www.hilton.com/ar/hotels/apcschx-hampton-suites-suisun-city-waterfront/,,Hampton by Hilton,Q5646230
4730,h_r_block,H&R Block,,Suisun City,CA,,US,+1 707-421-0146,https://www.hrblock.com/local-tax-offices/california/suisun-city/heritage-park-shopping-center/4730/,,H&R Block,Q5627799
https://locations.jackinthebox.com/us/ca/suisun-city/499-grizzly-island-rd,jackinthebox,Jack in the Box,,Suisun City,CA,,US,+1 707-426-6119,https://locations.jackinthebox.com/us/ca/suisun-city/499-grizzly-island-rd,Mo-Su 04:00-04:00,Jack in the Box,Q1538507
https://office.jacksonhewitt.com/#27579859,jackson_hewitt,Jackson Hewitt,,Suisun City,CA,,US,+1 661-412-0122,https://office.jacksonhewitt.com/tax-preparation-services-locations/en/ca/suisun-city/350-walters-road/53708,Mo-Sa 11:00-19:00; Su 12:00-16:00,Jackson Hewitt,Q6117132
113274,little_free_library,Rotary Club of Cordelia in the Marina #113274 Suisun City CA,,Suisun City,CA,,US,,,,Little Free Library,Q6650101
85902,little_free_library,Bay Street Free Library #85902 Suisun City CA,,Suisun City,CA,,US,,,,Little Free Library,Q6650101
139550,little_free_library,Suisun Mystery House #139550 Suison City CA,,Suison City,CA,,US,,,,Little Free Library,Q6650101
77564,little_free_library,The Mermaid Box #77564 SUISUN CITY CA,,SUISUN CITY,CA,,US,,,,Little Free Library,Q6650101
97540,little_free_library,Lockhart #97540 Suisun CA,,Suisun,CA,,US,,,,Little Free Library,Q6650101
80675,little_free_library,Artesia Little Library #80675 Suisun City CA,,Suisun City,CA,,US,,,,Little Free Library,Q6650101
https://locations.oreillyauto.com/ca/suisuncity/check-engine-light-testing-3657.html,oreilly,Your Suisun City O'Reilly Auto Parts Store,,Suisun City,CA,,US,+1 707-422-8086,https://locations.oreillyauto.com/ca/suisuncity/check-engine-light-testing-3657.html,Mo-Sa 07:30-21:00; Su 07:30-20:00,O'Reilly Auto Parts,Q7071951
https://locations.oreillyauto.com/ca/suisuncity/wiper-installation-3657.html,oreilly,Your Suisun City O'Reilly Auto Parts Store,,Suisun City,CA,,US,+1 707-422-8086,https://locations.oreillyauto.com/ca/suisuncity/wiper-installation-3657.html,Mo-Sa 07:30-21:00; Su 07:30-20:00,O'Reilly Auto Parts,Q7071951
https://locations.oreillyauto.com/ca/suisuncity/battery-testing-3657.html,oreilly,Your Suisun City O'Reilly Auto Parts Store,,Suisun City,CA,,US,+1 707-422-8086,https://locations.oreillyauto.com/ca/suisuncity/battery-testing-3657.html,Mo-Sa 07:30-21:00; Su 07:30-20:00,O'Reilly Auto Parts,Q7071951
https://locations.oreillyauto.com/ca/suisuncity/autopartes-3657.html,oreilly,Tu tienda O'Reilly Auto Parts en Suisun City,,Suisun City,CA,,US,+1 707-422-8086,https://locations.oreillyauto.com/ca/suisuncity/autopartes-3657.html,Mo-Sa 07:30-21:00; Su 07:30-20:00,O'Reilly Auto Parts,Q7071951
111714,pandaexpress,Hwy 12 & Sunset,,Suisun City,CA,,US,+1 707-421-1156,https://www.pandaexpress.com/locations/ca/suisun-city/402-lawler-center-drive,Mo-Su 09:00-22:00,Panda Express,Q1358690
https://locations.papamurphys.com/#15430359,papamurphys,Pizza Takeout & Delivery,,Suisun City,CA,,US,+1 707-434-9999,https://locations.papamurphys.com/ca/suisun-city/131-d-sunset-avenue,Mo-Th 11:00-20:00; Fr-Sa 11:00-21:00; Su 11:00-20:00,Papa Murphy's,Q7132349
0000848431,phillips_66_conoco_76,SUISUN 76,,SUISUN CITY,CA,,US,+1 707-422-9469,,24/7,U76,Q1658320
0000913392,phillips_66_conoco_76,BB 102 WALTERS RD OPERATING INC,,SUISUN CITY,CA,,US,+1 707-419-4720,,,U76,Q1658320
restaurant_83183,popeyes_us_fr,Popeyes,"1210 Anderson Dr Suisun City, California 94585 - USA",Suisun City,CA,,US,+1 707-423-1929,https://www.popeyes.com/store-locator/store/restaurant_83183,Mo-Su 10:00-22:00,Popeyes,Q1330910
05941,rite_aid_us,Rite Aid #05941 Suisun City,,Suisun City,CA,,US,+1 707-426-4242,https://locations2.riteaid.com.yext-cdn.com/ca/suisun-city/135-sunset-avenue.html,Mo-Fr 07:00-22:00; Sa-Su 08:00-21:00,Rite Aid,Q3433273
2307,round_table_pizza,Round Table Pizza 288 Sunset Ave,,Suisun City ,CA,,US,+1 707-421-0155,https://ordering.roundtablepizza.com/site/rtp1161,,Round Table Pizza,Q7371139
38961,seven_eleven_ca_us,7-Eleven,,Suisun City,CA,,US,+1 707-344-3983,https://www.7-eleven.com/locations/ca/suisun-city/301-walters-rd-38961,,7-Eleven,Q259340
39189,seven_eleven_ca_us,Bcp Str    115 Sunset Ave,,Suisun City,CA,,US,+1 707-422-9469,https://www.7-eleven.com/locations/ca/suisun-city/115-sunset-ave-39189,,7-Eleven,Q259340
https://stations.sinclairoil.com/ca/suisun-city/200-sunset-ave,sinclair_us,Sinclair Gas Station,,Suisun City,CA,,US,+1 707-421-0384,https://stations.sinclairoil.com/ca/suisun-city/200-sunset-ave,24/7,Sinclair,Q1290900
https://restaurants.subway.com/#14906840,subway,Subway Wal-Mart #3708,,Suisun City Solano,CA,,US,+1 707-803-5969,https://restaurants.subway.com/united-states/ca/suisun-city/350-walters-road,Mo-Su 08:00-21:00,Subway,Q244457
https://restaurants.subway.com/#14910914,subway,Subway Sunset Shopping Center,,Suisun City Solano,CA,,US,+1 707-437-3000,https://restaurants.subway.com/united-states/ca/suisun-city/121-sunset-avenue,Mo-Sa 06:00-22:00; Su 07:00-21:00,Subway,Q244457
https://locations.tacobell.com/#6147177,taco_bell,Taco Bell,,Suisun City,CA,,US,+1 707-426-5490,https://locations.tacobell.com/ca/suisun-city/107-sunset-ave-.html,Mo-Th 07:00-01:00; Fr-Sa 07:00-02:00; Su 07:00-01:00,Taco Bell,Q752941
5284,upsstore,Sunset Center,131 Sunset Ave Ste E,Suisun City,CA,,US,+1 707-426-6047,https://locations.theupsstore.com/ca/suisun-city/131-sunset-ave,,UPS Store,Q7771029
1448631,usps,FAIRFIELD DETACHED DEL UNIT,,SUISUN CITY,CA,,US,+1 707-425-8246,,,United States Postal Service,Q668687
1383853,usps,SUISUN CITY,,SUISUN CITY,CA,,US,+1 707-425-1334,,Mo-Fr 09:30-17:00; Sa 10:00-13:00,United States Postal Service,Q668687
9458500003,usps_collection_boxes,USPS COLLECTION BOX - BLUE BOX,717 MAIN ST,SUISUN CITY,CA,,US,,,,United States Postal Service,Q668687
9458500001,usps_collection_boxes,USPS COLLECTION BOX - BLUE BOX,301 MAIN ST,SUISUN CITY,CA,,US,,,,United States Postal Service,Q668687
9458500016,usps_collection_boxes,USPS COLLECTION BOX - BLUE BOX,268 SUNSET AVE,SUISUN CITY,CA,,US,,,,United States Postal Service,Q668687
9458500028,usps_collection_boxes,USPS COLLECTION BOX - BLUE BOX,325 MERGANSER DR,SUISUN CITY,CA,,US,,,,United States Postal Service,Q668687
9458500029,usps_collection_boxes,USPS COLLECTION BOX - BLUE BOX,325 MERGANSER DR,SUISUN CITY,CA,,US,,,,United States Postal Service,Q668687
9458500036,usps_collection_boxes,USPS COLLECTION BOX - PO LOBBY,325 MERGANSER DR,SUISUN CITY,CA,,US,,,,United States Postal Service,Q668687
9458500015,usps_collection_boxes,USPS COLLECTION BOX - BLUE BOX,322 MERGANSER DR,SUISUN CITY,CA,,US,,,,United States Postal Service,Q668687
,visa,,,SUISUN CITY,CA,,US,,,,,
,visa,,,SUISUN CITY,CA,,US,,,,,
,visa,,,SUISUN,CA,,US,,,,,
,visa,,,SUISUN CITY,CA,,US,,,,,
,visa,,,SUISUN CITY,CA,,US,,,,,
,visa,,,SUISAN CITY,CA,,US,,,,,
,visa,,,SUISUN,CA,,US,,,,,
,visa,,,SUISUN CITY,CA,,US,,,,,
,visa,,,SUISUN CITY,CA,,US,,,,,
,visa,,,SUISUN CITY,CA,,US,,,,,
,visa,,,SUISUN CITY,CA,,US,,,,,
,visa,,,SUISUN CITY,CA,,US,,,,,
,visa,,,SUISUN CITY,CA,,US,,,,,
,visa,,,SUISUN CITY,CA,,US,,,,,
,visa,,,SUISUN CITY,CA,,US,,,,,
,visa,,,SUISUN CITY,CA,,US,,,,,
,visa,,,SUISUN CITY,CA,,US,,,,,
,visa,,,SUISUN CITY,CA,,US,,,,,
,visa,,,SUISUN CITY,CA,,US,,,,,
,visa,,,SUISUN,CA,,US,,,,,
,visa,,,SUISUN CITY,CA,,US,,,,,
,visa,,,FAIRFIELD,CA,,US,,,,,
,visa,,,CORDELIA,CA,,US,,,,,
,visa,,,SUISUN CITY,CA,,US,,,,,
,visa,,,FAIRFIELD,CA,,US,,,,,
,visa,,,FAIRFIELD,CA,,US,,,,,
,visa,,,SUISUN CITY,CA,,US,,,,,
183__SUNSET__AVE_SUISUN__CITY_CA_94585,wellsfargo,,183 SUNSET AVE,SUISUN CITY,CA,,US,+1 800-869-3557,https://www.wellsfargo.com/locator/bank/183__SUNSET__AVE_SUISUN__CITY_CA_94585/,,Wells Fargo,Q744149
