Ref,Spider,Name,Address,City,State,Zipcode,Country,Phone,Website,Hours,Brand,WikiData
besses-paint-and-decorating-38941,ppgpaints,BESSES PAINT & DECORATING,,"Torrington, ",CT,,US,,https://www.ppgpaints.com/store-locator/us/connecticut/torrington-paint-stores/besses-paint-and-decorating-38941,,PPG Paints,Q83891559
,visa,,,NAUGATUCK,CT,,US,,,,,
,visa,,,TORRINGTON,CT,,US,,,,,
,visa,,,TORRINGTON,CT,,US,,,,,
,visa,,,TORRINGTON,CT,,US,,,,,
,visa,,,TORRINGTON,CT,,US,,,,,
,visa,,,TORRINGTON,CT,,US,,,,,
,visa,,,TORRINGTON,CT,,US,,,,,
,visa,,,TORRINGTON,CT,,US,,,,,
,visa,,,TORRINGTON,CT,,US,,,,,
,visa,,,TORRINGTON,CT,,US,,,,,
,visa,,,TORRINGTON,CT,,US,,,,,
,visa,,,TORRINGTON,CT,,US,,,,,
,visa,,,TORRINGTON,CT,,US,,,,,
,visa,,,TORRINGTON,CT,,US,,,,,
,visa,,,TORRINGTON,CT,,US,,,,,
,visa,,,TORRINGTON,CT,,US,,,,,
,visa,,,TORRINGTON,CT,,US,,,,,
,visa,,,"TORRINGTON,",CT,,US,,,,,
,visa,,,TORRINGTON,CT,,US,,,,,
,visa,,,TORRINGTON,CT,,US,,,,,
,visa,,,TORRINGTON,CT,,US,,,,,
,visa,,,TORRINGTON,CT,,US,,,,,
,visa,,,TORRINGTON,CT,,US,,,,,
,visa,,,TORRINGTON,CT,,US,,,,,
,visa,,,TORRINGTON,CT,,US,,,,,
,visa,,,TORRINGTON,CT,,US,,,,,
,visa,,,TORRINGTON,CT,,US,,,,,
,visa,,,TORRINGTON,CT,,US,,,,,
,visa,,,TORRINGTON,CT,,US,,,,,
,visa,,,TORRINGTON,CT,,US,,,,,
,visa,,,TORRINGTON,CT,,US,,,,,
,visa,,,TORRINGTON,CT,,US,,,,,
,visa,,,TORRINGTON,CT,,US,,,,,
,visa,,,TORRINGTON,CT,,US,,,,,
,visa,,,TORRINGTON,CT,,US,,,,,
,visa,,,TORRINGTON,CT,,US,,,,,
,visa,,,TORRINGTON,CT,,US,,,,,
,visa,,,TORRINGTON,CT,,US,,,,,
,visa,,,TORRINGTON,CT,,US,,,,,
,visa,,,TORRINGTON,CT,,US,,,,,
,visa,,,TORRINGTON,CT,,US,,,,,
,visa,,,TORRINGTON,CT,,US,,,,,
,visa,,,TORRINGTON,CT,,US,,,,,
,visa,,,TORRINGTON,CT,,US,,,,,
,visa,,,TORRINGTON,CT,,US,,,,,
,visa,,,TORRINGTON,CT,,US,,,,,
,visa,,,TORRINGTON,CT,,US,,,,,
,visa,,,TORRINGTON,CT,,US,,,,,
,visa,,,TORRINGTON,CT,,US,,,,,
,visa,,,TORRINGTON,CT,,US,,,,,
,visa,,,TORRIGTON,CT,,US,,,,,
,visa,,,TORRINGTON,CT,,US,,,,,
,visa,,,TORRINGTON,CT,,US,,,,,
