Ref,Spider,Name,Address,City,State,Zipcode,Country,Phone,Website,Hours,Brand,WikiData
3220,autozone_us,AutoZone Auto Parts Lawrence,,Lawrence,MA,,US,+1 978-685-6212,https://www.autozone.com/locations/ma/lawrence/380-broadway.html,Mo-Sa 07:30-21:00; Su 09:00-19:00,AutoZone,Q4826087
32268,chevrolet,"COMMONWEALTH CHEVROLET, INC.",,Lawrence,MA,,US,+1 978-722-1229,https://www.commonwealthchevrolet.com,Mo-Th 09:00-19:00; Fr-Sa 09:00-18:00,Chevrolet,Q29570
49685,citi,ATM CVS,,Lawrence,MA,,US,,,,Citibank,Q857063
78781,citi,ATM Speedway,,Lawrence,MA,,US,,,,Citibank,Q857063
32237,citi,ATM 7ELEVEN-FCTI,,Lawrence,MA,,US,,,,Citibank,Q857063
1786,cvs_us,CVS Pharmacy,,Lawrence,MA,,US,+1 978-688-5924,https://www.cvs.com/store-locator/lawrence-ma-pharmacies/266-broadway-lawrence-ma-01841/storeid=1786,Mo-Th 07:00-23:00; Fr-Sa 07:00-00:00; Su 07:00-23:00,CVS Pharmacy,Q2078880
351443,dunkin_us,Dunkin',,Lawrence,MA,,US,+1 978-588-8500,https://locations.dunkindonuts.com/en/ma/lawrence/123-lawrence-st/351443,Mo-Su 05:00-19:00,Dunkin',Q847743
342158,dunkin_us,Dunkin',,Lawrence,MA,,US,+1 978-989-9093,https://locations.dunkindonuts.com/en/ma/lawrence/100-marston-st/342158,Mo-Su 05:00-20:00,Dunkin',Q847743
E110R6,enterprise,Lawrence Commonwealth Motors,,Lawrence,MA,,US,+1 978-681-5122,,,Enterprise Rent-A-Car,Q17085454
NNA5307,nissan_europe,COMMONWEALTH NISSAN,,LAWRENCE,MA,,US,+1 978-687-3000,https://www.commonwealthnissan.com,Mo-Fr 10:00-15:00; Sa 10:00-14:00,Nissan,Q20165
1555,rentacenter,Rent-A-Center,,Lawrence,MA,,US,+1 978-681-0090,https://locations.rentacenter.com/massachusetts/lawrence/700-essex-st/,Mo-Sa 10:00-18:00,Rent-A-Center,Q7313497
34405,seven_eleven_ca_us,7-Eleven Store,,Lawrence,MA,,US,+1 978-681-1779,https://www.7-eleven.com/locations/ma/lawrence/703-haverhill-st-34405,,7-Eleven,Q259340
0005290205,sunoco_us,Sunoco,,LAWRENCE,MA,,US,+1 978-687-9627,,Mo-Su 06:00-23:00,Sunoco,Q1423218
0184100044,usps_collection_boxes,USPS COLLECTION BOX - BLUE BOX,137 WATER ST,LAWRENCE,MA,,US,,,,United States Postal Service,Q668687
0184100013,usps_collection_boxes,USPS COLLECTION BOX - BLUE BOX,106 AMES ST,LAWRENCE,MA,,US,,,,United States Postal Service,Q668687
0184100038,usps_collection_boxes,USPS COLLECTION BOX - BLUE BOX,526 LOWELL ST,LAWRENCE,MA,,US,,,,United States Postal Service,Q668687
0184100004,usps_collection_boxes,USPS COLLECTION BOX - BLUE BOX,161 BERKELEY ST,LAWRENCE,MA,,US,,,,United States Postal Service,Q668687
0184100016,usps_collection_boxes,USPS COLLECTION BOX - BLUE BOX,310 BROADWAY,LAWRENCE,MA,,US,,,,United States Postal Service,Q668687
0184100026,usps_collection_boxes,USPS COLLECTION BOX - BLUE BOX,301 HAMPSHIRE ST,LAWRENCE,MA,,US,,,,United States Postal Service,Q668687
0184100014,usps_collection_boxes,USPS COLLECTION BOX - BLUE BOX,0 BENNINGTON ST,LAWRENCE,MA,,US,,,,United States Postal Service,Q668687
0184100018,usps_collection_boxes,USPS COLLECTION BOX - BLUE BOX,353 ELM ST,LAWRENCE,MA,,US,,,,United States Postal Service,Q668687
0184100047,usps_collection_boxes,USPS COLLECTION BOX - BLUE BOX,333 LOWELL ST,LAWRENCE,MA,,US,,,,United States Postal Service,Q668687
0184100040,usps_collection_boxes,USPS COLLECTION BOX - BLUE BOX,189 MAPLE ST,LAWRENCE,MA,,US,,,,United States Postal Service,Q668687
0184100012,usps_collection_boxes,USPS COLLECTION BOX - BLUE BOX,25 THORNDIKE ST,LAWRENCE,MA,,US,,,,United States Postal Service,Q668687
0184100035,usps_collection_boxes,USPS COLLECTION BOX - BLUE BOX,277 HAVERHILL ST,LAWRENCE,MA,,US,,,,United States Postal Service,Q668687
0184100042,usps_collection_boxes,USPS COLLECTION BOX - BLUE BOX,46 AVON ST,LAWRENCE,MA,,US,,,,United States Postal Service,Q668687
0184100041,usps_collection_boxes,USPS COLLECTION BOX - BLUE BOX,45 CAMELLA TEOLI WAY,LAWRENCE,MA,,US,,,,United States Postal Service,Q668687
0184100034,usps_collection_boxes,USPS COLLECTION BOX - BLUE BOX,292 PROSPECT ST,LAWRENCE,MA,,US,,,,United States Postal Service,Q668687
0184100037,usps_collection_boxes,USPS COLLECTION BOX - BLUE BOX,126 E HAVERHILL ST,LAWRENCE,MA,,US,,,,United States Postal Service,Q668687
0184100019,usps_collection_boxes,USPS COLLECTION BOX - BLUE BOX,137 NEWBURY ST,LAWRENCE,MA,,US,,,,United States Postal Service,Q668687
0184100023,usps_collection_boxes,USPS COLLECTION BOX - BLUE BOX,131 FERRY ST,LAWRENCE,MA,,US,,,,United States Postal Service,Q668687
0184100056,usps_collection_boxes,USPS COLLECTION BOX - BLUE BOX,1 GENERAL ST,LAWRENCE,MA,,US,,,,United States Postal Service,Q668687
0184100057,usps_collection_boxes,USPS COLLECTION BOX - BLUE BOX,255 E HAVERHILL ST,LAWRENCE,MA,,US,,,,United States Postal Service,Q668687
,visa,,,WALPOLE,MA,,US,,,,,
,visa,,,LAWRENCE,MA,,US,,,,,
,visa,,,LAWRENCE,MA,,US,,,,,
,visa,,,LAWRENCE,MA,,US,,,,,
,visa,,,LAWRENCE,MA,,US,,,,,
,visa,,,LAWRENCE,MA,,US,,,,,
,visa,,,LAWRENCE,MA,,US,,,,,
,visa,,,LAWRENCE,MA,,US,,,,,
,visa,,,LAWRENCE,MA,,US,,,,,
,visa,,,LAWRENCE,MA,,US,,,,,
,visa,,,LAWRENCE,MA,,US,,,,,
,visa,,,LAWRENCE,MA,,US,,,,,
,visa,,,LAWRENCE,MA,,US,,,,,
,visa,,,LAWRENCE,MA,,US,,,,,
,visa,,,LAWRENCE,MA,,US,,,,,
,visa,,,LAWRENCE,MA,,US,,,,,
,visa,,,LAWRENCE,MA,,US,,,,,
,visa,,,LAWRENCE,MA,,US,,,,,
,visa,,,LAWRENCE,MA,,US,,,,,
,visa,,,LAWRENCE,MA,,US,,,,,
,visa,,,LAWRENCE,MA,,US,,,,,
,visa,,,LAWRENCE,MA,,US,,,,,
,visa,,,LAWRENCE,MA,,US,,,,,
,visa,,,LAWRENCE,MA,,US,,,,,
,visa,,,LAWRENCE,MA,,US,,,,,
,visa,,,LAWRENCE,MA,,US,,,,,
,visa,,,LAWRENCE,MA,,US,,,,,
,visa,,,LAWRENCE,MA,,US,,,,,
,visa,,,LAWRENCE,MA,,US,,,,,
,visa,,,LAWRENCE,MA,,US,,,,,
,visa,,,LAWRENCE,MA,,US,,,,,
,visa,,,LAWRENCE,MA,,US,,,,,
,visa,,,LAWRENCE,MA,,US,,,,,
,visa,,,LAWRENCE,MA,,US,,,,,
,visa,,,LAWRENCE,MA,,US,,,,,
,visa,,,LAWRENCE,MA,,US,,,,,
,visa,,,LAWRENCE,MA,,US,,,,,
93b6cdc8145e6d25f47b2129a083e02f,western_union,SOLUTION WIRELESS AND MULTISER,,Lawrence,MA,,US,+1 781-779-4194,https://location.westernunion.com/us/ma/lawrence/93b6cdc8145e6d25f47b2129a083e02f,Mo-Su 09:00-21:00,Western Union,Q861042
75d261aad803af3a0ccb83f6202043c2,western_union,SOLUTION WIRELESS AND MULTISER,,Lawrence,MA,,US,+1 781-779-4194,https://location.westernunion.com/us/ma/lawrence/75d261aad803af3a0ccb83f6202043c2,Mo-Su 09:00-21:00,Western Union,Q861042
6190dda22636dcc1ab2321b251739c77,western_union,DUARTE WIRELESS LLC,,Lawrence,MA,,US,+1 978-258-5983,https://location.westernunion.com/us/ma/lawrence/6190dda22636dcc1ab2321b251739c77,Mo-Su 09:00-19:00,Western Union,Q861042
c7e1b372df02efbf9f785d53f769027a,western_union,DUARTE WIRELESS LLC,,Lawrence,MA,,US,+1 978-258-5983,https://location.westernunion.com/us/ma/lawrence/c7e1b372df02efbf9f785d53f769027a,Mo-Su 09:00-19:00,Western Union,Q861042
aace8ba1c49f8bb49cc487ff2a99dfea,western_union,SUPER MASS GROCERY,,Lawrence,MA,,US,+1 978-655-6296,https://location.westernunion.com/us/ma/lawrence/aace8ba1c49f8bb49cc487ff2a99dfea,Mo-Su 07:00-21:00,Western Union,Q861042
58021087085a9822aa3f8cdd8bab5e79,western_union,M&J MULTISERVICES,,Lawrence,MA,,US,+1 978-813-2112,https://location.westernunion.com/us/ma/lawrence/58021087085a9822aa3f8cdd8bab5e79,Mo-Su 09:00-21:00,Western Union,Q861042
0793f300bffd3734923832a63015499e,western_union,ONE STOP SOLUTIONS II,,Lawrence,MA,,US,+1 978-208-7109,https://location.westernunion.com/us/ma/lawrence/0793f300bffd3734923832a63015499e,Mo-Sa 09:00-21:00; Su 09:00-18:00,Western Union,Q861042
936945ae2f581acfce9e90035c09ae1f,western_union,ONE STOP SOLUTIONS II,,Lawrence,MA,,US,+1 978-208-7109,https://location.westernunion.com/us/ma/lawrence/936945ae2f581acfce9e90035c09ae1f,Mo-Sa 09:00-21:00; Su 09:00-18:00,Western Union,Q861042
38a355c952870a6f044072253d89e970,western_union,L AND J BARBERSHOP MULTISER,,Lawrence,MA,,US,+1 978-736-0092,https://location.westernunion.com/us/ma/lawrence/38a355c952870a6f044072253d89e970,Mo-Su 09:00-22:00,Western Union,Q861042
632184850bdc82082eae6fd57ddbbcdc,western_union,ONE STOP SOLUTIONS,,Lawrence,MA,,US,+1 978-631-9571,https://location.westernunion.com/us/ma/lawrence/632184850bdc82082eae6fd57ddbbcdc,Mo-Sa 09:00-22:00; Su 09:00-20:00,Western Union,Q861042
f72a128ec9001132fd4f06196e1d82be,western_union,SIMAX SOLUTIONS LLC,,Lawrence,MA,,US,+1 978-258-5683,https://location.westernunion.com/us/ma/lawrence/f72a128ec9001132fd4f06196e1d82be,Mo-Su 09:00-21:00,Western Union,Q861042
979fa5dd3c73c5396f91ce679bf11c4b,western_union,K-4 SERVICES # 2,,Lawrence,MA,,US,+1 978-655-4311,https://location.westernunion.com/us/ma/lawrence/979fa5dd3c73c5396f91ce679bf11c4b,Mo-Su 09:00-21:00,Western Union,Q861042
21637edc16ea779b3b1097881253f0cf,western_union,K-4 SERVICES # 2,,Lawrence,MA,,US,+1 978-655-4340,https://location.westernunion.com/us/ma/lawrence/21637edc16ea779b3b1097881253f0cf,Mo-Su 09:00-21:00,Western Union,Q861042
43cf57155fa4ffd8231a62d14b4c7b3c,western_union,HIDALGO AUTO AND SERVICES INC,,Lawrence,MA,,US,+1 978-682-3210,https://location.westernunion.com/us/ma/lawrence/43cf57155fa4ffd8231a62d14b4c7b3c,Mo-Fr 09:00-17:00; Sa 09:00-16:00,Western Union,Q861042
02c2529ee695310859f026393191eb92,western_union,HIDALGO AUTO AND SERVICES I,,Lawrence,MA,,US,+1 978-682-3210,https://location.westernunion.com/us/ma/lawrence/02c2529ee695310859f026393191eb92,Mo-Fr 09:00-17:00; Sa 09:00-16:00,Western Union,Q861042
