Ref,Spider,Name,Address,City,State,Zipcode,Country,Phone,Website,Hours,Brand,WikiData
https://locations.arbys.com/pa/fogelsville/7720-main-st.html,arbys_us,"Arby's Fast-Food Drive Through Near You in Fogelsville, PA",,Fogelsville,PA,,US,+1 610-366-8966,https://locations.arbys.com/pa/fogelsville/7720-main-st.html,Mo-Su 10:00-22:00,Arby's,Q630866
185344,bluerhino,Weis #188,,Fogelsville,PA,,US,+1 610-530-3114,,,Blue Rhino,Q65681213
206214,bluerhino,Rite Aid #11047,,Fogelsville,PA,,US,+1 610-391-0922,,,Blue Rhino,Q65681213
9056,dominos_pizza_us,Domino's Pizza,,Fogelsville,PA,,US,+1 610-915-2500,https://pizza.dominos.com/pennsylvania/fogelsville/7720-main-st,Mo-Th 10:30-24:00; Fr-Sa 10:30-01:00; Su 10:30-24:00,Domino's,Q839466
353983,dunkin_us,Dunkin',,Fogelsville,PA,,US,+1 610-841-4408,https://locations.dunkindonuts.com/en/pa/fogelsville/7721-glenlivet-west-dr/353983,Mo-Sa 05:00-21:00; Su 06:00-21:00,Dunkin',Q847743
9183e06f-458a-e111-8dde-005056934050,goodwill,Goodwill Store & Donation Center,,Fogelsville,PA,,US,+1 610-398-2042,https://www.goodwill.org/locator/location/?store=OTE4M2UwNmYtNDU4YS1lMTExLThkZGUtMDA1MDU2OTM0MDUw&lat=NDAuNTkyNjQ=&lng=LTc1LjY1NTcy,,Goodwill,Q5583655
pa_fogelsville_7720-main-st,pizza_hut_us,7720 Main St,,Fogelsville,PA,,US,+1 610-398-9010,https://locations.pizzahut.com/pa/fogelsville/7720-main-st,,Pizza Hut,Q191615
81114,ritasitalianice,Ritaâ€™s of Fogelsville PA,,Fogelsville,PA,,US,+1 484-460-2692,https://www.ritasice.com/location/ritas-of-fogelsville-pa/,,Rita's Italian Ice,Q7336456
11047,rite_aid_us,Rite Aid #11047 Fogelsville,,Fogelsville,PA,,US,+1 610-391-0922,https://locations2.riteaid.com.yext-cdn.com/pa/fogelsville/7719-main-street.html,Mo-Sa 08:00-22:00; Su 09:00-20:00,Rite Aid,Q3433273
https://restaurants.subway.com/#14910454,subway,Subway,,Fogelsville Lehigh,PA,,US,+1 610-841-8061,https://restaurants.subway.com/united-states/pa/fogelsville/7801-glenlivet-west-drive,Mo-Su 08:30-22:00,Subway,Q244457
81158,supercuts,Lehigh Hills,7751 Glenlivet Drive W Ste 1,Fogelsville,PA,,US,+1 610-841-5647,https://www.supercuts.com/checkin/81158,Mo-Fr 09:00-14:30,Supercuts,Q7643239
1363602,usps,FOGELSVILLE,,FOGELSVILLE,PA,,US,+1 610-395-2911,,Mo-Fr 08:30-17:00; Sa 08:30-12:00,United States Postal Service,Q668687
1805100001,usps_collection_boxes,USPS COLLECTION BOX - BLUE BOX,7918 MAIN ST,FOGELSVILLE,PA,,US,,,,United States Postal Service,Q668687
1805100005,usps_collection_boxes,USPS COLLECTION BOX - PO LOBBY,7918 MAIN ST,FOGELSVILLE,PA,,US,,,,United States Postal Service,Q668687
1805100007,usps_collection_boxes,USPS COLLECTION BOX - BLUE BOX,7918 MAIN ST,FOGELSVILLE,PA,,US,,,,United States Postal Service,Q668687
1805100009,usps_collection_boxes,USPS COLLECTION BOX - PO LOBBY,7918 MAIN ST OFC,FOGELSVILLE,PA,,US,,,,United States Postal Service,Q668687
,visa,,,FOGELSVILLE,PA,,US,,,,,
,visa,,,FOGELSVILLE,PA,,US,,,,,
,visa,,,FOGELSVILLE,PA,,US,,,,,
,visa,,,FOGELSVILLE,PA,,US,,,,,
,visa,,,FOGELSVILLE,PA,,US,,,,,
,visa,,,FOGELSVILLE,PA,,US,,,,,
,visa,,,FOGELSVILLE,PA,,US,,,,,
