Ref,Spider,Name,Address,City,State,Zipcode,Country,Phone,Website,Hours,Brand,WikiData
72135903,moneygram,COPPEL TRANSMISORES - SAN FRANCISCO DEL,,SAN FRANCISCO DEL RINCON,GJ,,MX,+52 466 743 8043,,Mo 10:00-20:30; Tu-Fr 10:00-20:00; Sa 10:00-20:30; Su 10:00-16:00,MoneyGram,Q1944412
72135550,moneygram,COPPEL TRANSMISORES - SAN FRANCISCO DEL,,SAN FRANCISCO DEL RINCON,GJ,,MX,+52 466 744 5552,,Mo 10:30-21:00; Tu-Fr 10:30-20:30; Sa 10:30-21:00; Su 11:00-16:00,MoneyGram,Q1944412
72234888,moneygram,FARMACIAS DEL AHORRO - #807 - SAN FRANCI,,SAN FRANCISCO DEL RINCON,GJ,,MX,5253224320,,Mo-Su 07:00-23:00,MoneyGram,Q1944412
73708562,moneygram,ACEROS Y MATERIALES SAN ANGEL - CONSTRUR,,SAN FRANCISCO DEL RINCON,GJ,,MX,+52 81 2133 2160,,Mo-Sa 09:00-18:00; Su 09:00-13:00,MoneyGram,Q1944412
69509940,moneygram,MODATELAS - #1097 - 70 MODATELAS SN FCO,,SAN FRANCISCO DEL RINCON,GJ,,MX,+52 476 743 4922,,Mo-Su 08:00-20:00,MoneyGram,Q1944412
68819343,moneygram,DINERO EXPRESS - #9506 - SAN FRANCISCO D,,SAN FRANCISCO DEL RINCON,GJ,,MX,+52 55 1720 8141,,Mo-Su 09:00-21:00,MoneyGram,Q1944412
74390539,moneygram,COPPEL TRANSMISORES - SAN FRANCISCO DEL,,SAN FRANCISCO DEL RINCON,GJ,,MX,7594335,,Mo-Sa 10:00-20:30; Su 11:00-17:00,MoneyGram,Q1944412
70395334,moneygram,FARMACIAS GUADALAJARA - SAN FCO. DEL RIN,,SAN FRANCISCO DEL RINCON,GJ,,MX,+52 713 278 5436,,Mo-Su 08:00-22:00,MoneyGram,Q1944412
70401147,moneygram,FARMACIAS GUADALAJARA - PLAZARELLA,,SAN FRANCISCO DEL RINCON,GJ,,MX,+52 713 278 5436,,Mo-Su 08:00-22:00,MoneyGram,Q1944412
74720280,moneygram,SUPERSITO DON CHAVITA - SAN FRANCISCO DE,,SAN FRANCISCO DEL RINCON,GJ,,MX,+52 800 733 3300,,Mo-Sa 10:00-18:00; Su 00:00-24:00,MoneyGram,Q1944412
70754577,moneygram,ELECZION - #1255 - SAN FRANCISCO DEL RIN,,SAN FRANCISCO DEL RINCON,GJ,,MX,5263180635,,Mo-Su 07:00-23:00,MoneyGram,Q1944412
71067386,moneygram,MUEBLES AMERICA 122 CENTRO SAN FRANCISCO,,SAN FRANCISCO DEL RINCON,GJ,,MX,27430576,,Mo-Sa 10:00-20:30; Su 10:00-15:00,MoneyGram,Q1944412
71117184,moneygram,TELECOMM - #TELECOMM 11043 - SAN FRANCIS,,SAN FRANCISCO DEL RINCON,GJ,,MX,55118008334700,,Mo-Fr 09:00-15:00; Sa-Su 00:00-24:00,MoneyGram,Q1944412
71150015,moneygram,ELEKTRA - #9506 - SAN FRANCISCO DEL RINC,,SAN FRANCISCO DEL RINCON,GJ,,MX,+52 55 1720 7000,,Mo-Su 09:00-21:00,MoneyGram,Q1944412
41289136,moneygram,BANORTE - #820 - SAN FRANCISCO DEL RINCO,,SAN FRANCISCO DEL RINCON,GJ,,MX,+52 476 743 4880,,Mo-Fr 09:00-20:00; Sa 09:30-16:30; Su 00:00-24:00,MoneyGram,Q1944412
43522707,moneygram,CAJA POPULAR MEX - #1313 - DEL RINCON,,SAN FRANCISCO DEL RINCON,GJ,,MX,+52 476 743 2379,,Mo-Fr 09:00-16:00; Sa-Su 09:00-14:00,MoneyGram,Q1944412
41289110,moneygram,BANORTE - #819 - SAN FRANCISCO DEL RINCO,,SAN FRANCISCO DEL RINCON,GJ,,MX,+52 476 743 2000,,Mo-Fr 08:30-16:00; Sa-Su 00:00-24:00,MoneyGram,Q1944412
66287265,moneygram,INSTITUTO DE SEGURIDAD SOCIAL DEL ESTADO,,SAN FRANCISCO DEL RINCON,GJ,,MX,+52 800 833 4700,,Mo-Su 09:00-21:00,MoneyGram,Q1944412
66872832,moneygram,INSTITUTO DE SEGURIDAD SOCIAL DEL ESTADO,,SAN FRANCISCO DEL RINCON,GJ,,MX,+52 800 833 4700,,Mo-Su 09:00-21:00,MoneyGram,Q1944412
71263326,moneygram,OXXO - BENITO JUAREZ BJX,,SAN FRANCISCO DEL RINCON,GJ,,MX,+52 81 8389 2121,,Mo-Su 03:00-24:00,MoneyGram,Q1944412
71266569,moneygram,OXXO - SAN FERNANDO BJX,,SAN FRANCISCO DEL RINCON,GJ,,MX,+52 81 8389 2121,,Mo-Su 03:00-24:00,MoneyGram,Q1944412
71266695,moneygram,OXXO - ZAPATA BJX,,SAN FRANCISCO DEL RINCON,GJ,,MX,+52 81 8389 2121,,Mo-Su 03:00-24:00,MoneyGram,Q1944412
71912952,moneygram,SORIANA - #622 - SAN FRANCISCO DE RINCON,,SAN FRANCISCO DE RINCON,GJ,,MX,+52 800 555 6555,,Mo-Su 08:00-22:00,MoneyGram,Q1944412
71210609,moneygram,MUBLES AMERICA 121 PASEO SAN FRANCISCO -,,SAN FRANCISCO DEL RINCON,GJ,,MX,+52 33 1201 1001,,Mo-Su 09:30-20:30,MoneyGram,Q1944412
