Ref,Spider,Name,Address,City,State,Zipcode,Country,Phone,Website,Hours,Brand,WikiData
72864533,moneygram,RICCOOVERSEAS - HYDERABAD,,HYDERABAD,,,IN,+91 86865 22115,,Mo-Su 06:00-23:00,MoneyGram,Q1944412
72896420,moneygram,M/S PAVANI FOREX SERICES,,HYDERABAD,,,IN,+91 93947 23399,,Mo-Su 08:00-21:00,MoneyGram,Q1944412
72892466,moneygram,SAS TRAVEL FOREX,,HYDERABAD,,,IN,+91 92466 78600,,Mo-Su 08:00-21:00,MoneyGram,Q1944412
73280530,moneygram,MUTHOOT FINANCE LTD - #3101 - HYDERABAD,,HYDERABAD,,,IN,+91 40 2415 4466,,Mo-Su 09:00-19:00,MoneyGram,Q1944412
73281843,moneygram,MUTHOOT FINANCE LTD - #3244 - HYDERABAD,,HYDERABAD,,,IN,+91 40 2416 2416,,Mo-Su 09:00-19:00,MoneyGram,Q1944412
73319414,moneygram,MUTHOOT FINCORP LIMITED - #F2263 - MALAK,,HYDERABAD,,,IN,+91 40 6579 3313,,Mo-Sa 09:00-17:30; Su 00:00-24:00,MoneyGram,Q1944412
73326067,moneygram,MUTHOOT FINCORP LIMITED - #F2972 - SHALI,,HYDERABAD,,,IN,+91 40 6678 2227,,Mo-Sa 09:00-17:30; Su 00:00-24:00,MoneyGram,Q1944412
73447632,moneygram,MS ALMADINA WESTERNUNION MONEYTRANSFER,,AMBERPET,,,IN,+91 91603 25549,,Mo-Su 08:00-21:00,MoneyGram,Q1944412
73567703,moneygram,RUSH INN - HYDERABAD,,HYDERABAD,,,IN,+91 86888 87270,,Mo-Su 06:00-23:00,MoneyGram,Q1944412
73643588,moneygram,TULSI NETWORKS,,HYDERABAD,,,IN,+91 77990 00033,,Mo-Su 08:00-21:00,MoneyGram,Q1944412
73726557,moneygram,TRAVELGRAM,,HYDERABAD,,,IN,+91 88854 50095,,Mo-Su 08:00-21:00,MoneyGram,Q1944412
73731694,moneygram,VIMAAN CLICKATRIP,,HYDERABAD,,,IN,+91 76750 42356,,Mo-Su 08:00-21:00,MoneyGram,Q1944412
73661722,moneygram,SWIFT PHARMACY & GENERAL STORE,,HYDERABAD,,,IN,+91 98665 76980,,Mo-Su 08:00-21:00,MoneyGram,Q1944412
73799555,moneygram,FINE MULTI PURPOSE CENTRE,,HYDERABAD,,,IN,+91 98851 13626,,Mo-Su 08:00-21:00,MoneyGram,Q1944412
73798174,moneygram,FINE MULTIPURPOSE CENTRE,,HYDERABAD,,,IN,+91 98850 06727,,Mo-Su 08:00-21:00,MoneyGram,Q1944412
73799678,moneygram,ESHAAN ONLINE SERVICES,,HYDERABAD,,,IN,+91 99481 39356,,Mo-Su 08:00-21:00,MoneyGram,Q1944412
74061994,moneygram,TELANGANA GRAMEENA BANK - HYDERABAD - HY,,HYDERABAD,,,IN,+91 94910 41955,,Mo-Sa 09:00-18:00; Su 00:00-24:00,MoneyGram,Q1944412
74175479,moneygram,ESAF SMALL FINANCE BANK LIMITED - HYDERA,,HYDERABAD-DILSUKHNAGAR,,,IN,+91 87146 06853,,Mo-Sa 09:30-17:30; Su 00:00-24:00,MoneyGram,Q1944412
74220955,moneygram,UNIMONI FINANCIAL SERVICES LIMITED - HYD,,HYDERABAD - DILSUKHNAGAR,,,IN,+91 99490 88318,,Mo-Fr 09:30-18:30; Sa 09:30-14:00; Su 00:00-24:00,MoneyGram,Q1944412
74934128,moneygram,A1 ENTERPRISES,,RANAGAREDDY,,,IN,+91 97018 03090,,Mo-Su 08:00-21:00,MoneyGram,Q1944412
65022382,moneygram,MANAPPURAM FINANCE,,HYDERABAD,,,IN,03240568,,Mo-Sa 10:00-19:00; Su 00:00-24:00,MoneyGram,Q1944412
66711964,moneygram,MANAPPURAM FINANCE - #2217 - HYDERABAD,,HYDERABAD,,,IN,+91 40 3100 4482,,Mo-Sa 10:00-19:00; Su 10:00-16:00,MoneyGram,Q1944412
66939364,moneygram,MANAPPURAM FINANCE - #2166 - HYDERABAD,,HYDERABAD,,,IN,+91 40 3100 4482,,Mo-Sa 10:00-19:00; Su 10:00-16:00,MoneyGram,Q1944412
N230139,united_colors_of_benetton,Benetton Hyderabad,,HYDERABAD,,,IN,+91 40 6663 3862,,Mo-Su 10:00-22:00,United Colors of Benetton,Q817139
N233822,united_colors_of_benetton,Benetton Hyderabad,,HYDERABAD,,,IN,+91 96638 66576,,,United Colors of Benetton,Q817139
,visa,,,HYDERABAD,,,IN,,,,,
,visa,,,HYDERABAD,,,IN,,,,,
,visa,,,HYDERABAD,,,IN,,,,,
,visa,,,HYDERABAD,,,IN,,,,,
,visa,,,HYDERABAD,,,IN,,,,,
,visa,,,HYDERABAD,,,IN,,,,,
,visa,,,HYDERABAD,,,IN,,,,,
,visa,,,HYDERABAD,,,IN,,,,,
