Ref,Spider,Name,Address,City,State,Zipcode,Country,Phone,Website,Hours,Brand,WikiData
https://stores.advanceautoparts.com/ny/cobleskill/849-e-main-st,advance_auto_parts_us,Advance Auto Parts,,Cobleskill,NY,,US,+1 518-234-7231,https://stores.advanceautoparts.com/ny/cobleskill/849-e-main-st,Mo-Sa 07:30-21:00; Su 08:00-20:00,Advance Auto Parts,Q4686051
/locations/propane-offices/new-york/cobleskill/313-east-macarthur-ave,amerigas,"AmerGas Propane | Cobleskill, New York",,Cobleskill,NY,,US,+1 518-234-3571,/locations/propane-offices/new-york/cobleskill/313-east-macarthur-ave,,AmeriGas,Q23130318
https://locations.arbys.com/ny/cobleskill/798-e-main-st.html,arbys_us,"Arby's Fast-Food Drive Through Near You in Cobleskill, NY",,Cobleskill,NY,,US,+1 518-234-4669,https://locations.arbys.com/ny/cobleskill/798-e-main-st.html,Mo-Su 10:00-22:00,Arby's,Q630866
4763,autozone_us,AutoZone Auto Parts Cobleskill,,Cobleskill,NY,,US,+1 518-234-3176,https://www.autozone.com/locations/ny/cobleskill/813-e-main-st.html,Mo-Th 07:30-20:00; Fr-Sa 07:30-19:00; Su 08:00-18:00,AutoZone,Q4826087
145393,bluerhino,Speedway #7698,,Cobleskill,NY,,US,+1 518-234-4435,,,Blue Rhino,Q65681213
191635,bluerhino,Price Chopper #116,,Cobleskill,NY,,US,+1 518-234-7845,,,Blue Rhino,Q65681213
11527,bluerhino,Walmart #2135 - Supercenter,,Cobleskill,NY,,US,+1 518-234-1090,,,Blue Rhino,Q65681213
77599,citi,ATM Speedway,,Cobleskill,NY,,US,,,,Citibank,Q857063
52616,citi,ATM CVS,,Cobleskill,NY,,US,,,,Citibank,Q857063
77185,citi,ATM Speedway,,Cobleskill,NY,,US,,,,Citibank,Q857063
ATM-2257,citizens_us,,,Cobleskill,NY,,US,,,,Citizens,Q5122694
,credit_union_us,First New York FCU,,Cobleskill,NY,,US,+1 518-234-2583,,Mo-Th 09:00-05:00; Fr 09:00-06:00; Sa 09:00-01:00,,
,credit_union_us,SEFCU  a division of Broadview,,Cobleskill,NY,,US,+1 518-234-2740,,Mo 09:00-02:00; Tu-Fr 08:00-06:00; Sa 09:00-02:00,,
7326,cvs_us,CVS Pharmacy,,Cobleskill,NY,,US,+1 518-234-8150,https://www.cvs.com/store-locator/cobleskill-ny-pharmacies/726-east-main-st-cobleskill-ny-12043/storeid=7326,Mo-Su 08:00-21:00,CVS Pharmacy,Q2078880
302632,dunkin_us,Dunkin',,Cobleskill,NY,,US,+1 518-234-9215,https://locations.dunkindonuts.com/en/ny/cobleskill/990-e-main-st/302632,Mo-Su 05:00-19:00,Dunkin',Q847743
200311035,exxonmobil,APPLE MART INC,,COBLESKILL,NY,,US,+1 518-234-4401,https://www.exxon.com/en/find-station/mobil-cobleskill-ny-applemartinc-200311035,Mo-Su 07:00-21:00,Mobil,Q109676002
33907,family_dollar_us,FAMILY DOLLAR #13907,,Cobleskill,NY,,US,+1 518-254-6957,https://www.familydollar.com/locations/ny/cobleskill/33907/,Mo-Sa 09:00-22:00; Su 09:00-21:00,Family Dollar,Q5433101
Motorcraft4200USAEnglish,ford,Aero Ford-Mercury Inc,,New York,NY,,US,+1 518-234-4385,,,Ford,Q44294
116,golub_corporation_us,Price Chopper Cobleskill,,Cobleskill,NY,,US,+1 518-234-7845,https://www.pricechopper.com/stores/ny/cobleskill/price-chopper-116.html,Mo-Su 06:00-23:00,Price Chopper,Q7242574
31257,h_r_block,H&R Block,,Cobleskill,NY,,US,+1 518-234-2831,https://www.hrblock.com/local-tax-offices/new-york/cobleskill/795-e-main-st/31257/,,H&R Block,Q5627799
https://locations.kfc.com/#1021948277,kfc,Chicken Nuggets Near Cobleskill,,Cobleskill,NY,,US,,https://locations.kfc.com/ny/cobleskill/776-east-main-street-26358/chickennugget,Mo-Th 10:00-24:00; Fr-Sa 10:00-01:00; Su 10:00-24:00,KFC,Q524757
https://locations.kfc.com/#11250534,kfc,Chicken Nuggets Near Cobleskill,,Cobleskill,NY,,US,,https://locations.kfc.com/ny/cobleskill/776-east-main-street-026358/chickennugget,Mo-Th 10:00-23:00; Fr-Sa 10:00-24:00; Su 10:00-23:00,KFC,Q524757
327,mightyflame,STEWARTS SHOPS #384,,Cobleskill,NY,,US,+1 518-296-8878,,,Mighty Flame,
https://locations.oreillyauto.com/ny/cobleskill/check-engine-light-testing-6101.html,oreilly,Your Cobleskill O'Reilly Auto Parts Store,,Cobleskill,NY,,US,+1 518-823-1002,https://locations.oreillyauto.com/ny/cobleskill/check-engine-light-testing-6101.html,Mo-Sa 07:30-21:00; Su 08:00-20:00,O'Reilly Auto Parts,Q7071951
https://locations.oreillyauto.com/ny/cobleskill/wiper-installation-6101.html,oreilly,Your Cobleskill O'Reilly Auto Parts Store,,Cobleskill,NY,,US,+1 518-823-1002,https://locations.oreillyauto.com/ny/cobleskill/wiper-installation-6101.html,Mo-Sa 07:30-21:00; Su 08:00-20:00,O'Reilly Auto Parts,Q7071951
https://locations.oreillyauto.com/ny/cobleskill/battery-testing-6101.html,oreilly,Your Cobleskill O'Reilly Auto Parts Store,,Cobleskill,NY,,US,+1 518-823-1002,https://locations.oreillyauto.com/ny/cobleskill/battery-testing-6101.html,Mo-Sa 07:30-21:00; Su 08:00-20:00,O'Reilly Auto Parts,Q7071951
https://locations.oreillyauto.com/ny/cobleskill/autopartes-6101.html,oreilly,O'Reilly Auto Parts,,Cobleskill,NY,,US,+1 518-823-1002,https://locations.oreillyauto.com/ny/cobleskill/autopartes-6101.html,Mo-Sa 07:30-21:00; Su 08:00-20:00,O'Reilly Auto Parts,Q7071951
https://www.plannedparenthood.org/health-center/new-york/cobleskill/12043/cobleskill-center-2783-91110,planned_parenthood,Planned Parenthood,,Cobleskill,NY,,US,,https://www.plannedparenthood.org/health-center/new-york/cobleskill/12043/cobleskill-center-2783-91110,,Planned Parenthood,Q2553262
4479,rentacenter,Rent-A-Center,,Cobleskill,NY,,US,+1 518-234-2220,https://locations.rentacenter.com/new-york/cobleskill/123-merchant-pl/,Mo-Sa 10:00-18:00,Rent-A-Center,Q7313497
145,stewartsshops,Stewart's Shops,,Cobleskill,NY,,US,+1 518-254-0070,https://locations.stewartsshops.com/ll/US/NY/Cobleskill/391-West-Main-Street,Mo-Su 03:30-00:00,Stewart's Shops,Q7615690
384,stewartsshops,Stewart's Shops,,Cobleskill,NY,,US,+1 518-255-7001,https://locations.stewartsshops.com/ll/US/NY/Cobleskill/2668-New-York-7,Mo-Su 04:00-00:00,Stewart's Shops,Q7615690
https://restaurants.subway.com/#14901445,subway,Subway,,Cobleskill Schoharie,NY,,US,+1 518-234-2215,https://restaurants.subway.com/united-states/ny/cobleskill/795-east-main-st,Mo-Tu 08:00-21:00; We 07:00-21:00; Th-Sa 08:00-21:00; Su 08:00-20:00,Subway,Q244457
0107175200,sunoco_us,Sunoco,,COBLESKILL,NY,,US,+1 518-234-7260,,Mo-Su 06:00-22:00,Sunoco,Q1423218
https://locations.tacobell.com/#6142188,taco_bell,Taco Bell,,Cobleskill,NY,,US,+1 518-234-3315,https://locations.tacobell.com/ny/cobleskill/776-east-main-street.html,Mo-Th 10:00-24:00; Fr-Sa 10:00-01:00; Su 10:00-24:00,Taco Bell,Q752941
https://locations.tccrocks.com/ny/cobleskill/980-e-main-st.html,tcc_us,TCC Cobleskill,,Cobleskill,NY,,US,+1 607-353-8560,https://locations.tccrocks.com/ny/cobleskill/980-e-main-st.html,Mo-Sa 09:00-19:00; Su 10:00-17:00,Verizon,Q919641
460G,tmobile_us,SR 7 & Merchant Pl,,Cobleskill,NY,,US,+1 838-248-5884,https://www.t-mobile.com/store-locator/ny/cobleskill/sr-7-merchant-pl,,T-Mobile,Q3511885
1358522,usps,COBLESKILL,,COBLESKILL,NY,,US,+1 518-234-4011,,"Mo-Fr 08:30-13:00,14:00-17:00; Sa 08:30-12:00",United States Postal Service,Q668687
1204300016,usps_collection_boxes,USPS COLLECTION BOX - BLUE BOX,123 MERCHANT PL,COBLESKILL,NY,,US,,,,United States Postal Service,Q668687
1204300012,usps_collection_boxes,USPS COLLECTION BOX - BLUE BOX,813 E MAIN ST,COBLESKILL,NY,,US,,,,United States Postal Service,Q668687
1204300013,usps_collection_boxes,USPS COLLECTION BOX - BLUE BOX,115 PLAZA LN,COBLESKILL,NY,,US,,,,United States Postal Service,Q668687
1204300024,usps_collection_boxes,USPS COLLECTION BOX - PO LOBBY,111 UNION ST,COBLESKILL,NY,,US,,,,United States Postal Service,Q668687
1204300001,usps_collection_boxes,USPS COLLECTION BOX - BLUE BOX,111 UNION ST,COBLESKILL,NY,,US,,,,United States Postal Service,Q668687
1204300002,usps_collection_boxes,USPS COLLECTION BOX - BLUE BOX,111 UNION ST,COBLESKILL,NY,,US,,,,United States Postal Service,Q668687
1204300018,usps_collection_boxes,USPS COLLECTION BOX - PO LOBBY,111 UNION ST,COBLESKILL,NY,,US,,,,United States Postal Service,Q668687
1204300019,usps_collection_boxes,USPS COLLECTION BOX - PO LOBBY,111 UNION ST,COBLESKILL,NY,,US,,,,United States Postal Service,Q668687
A00000232435,verizon_us,TCC Cobleskill,,Cobleskill,NY,,US,+1 518-234-3645,https://www.verizon.com/stores/details/new-york/cobleskill/tcc-cobleskill-1594422/,Mo-Sa 09:00-19:00; Su 10:00-17:00,Verizon,Q919641
,visa,,,COBLESKILL,NY,,US,,,,,
,visa,,,COBLESKILL,NY,,US,,,,,
,visa,,,COBLESKILL,NY,,US,,,,,
,visa,,,COBLESKILL,NY,,US,,,,,
,visa,,,COBLESKILL,NY,,US,,,,,
,visa,,,COBLESKILL,NY,,US,,,,,
,visa,,,SCHENECTADY,NY,,US,,,,,
,visa,,,COBLESKILL,NY,,US,,,,,
,visa,,,COBLESKILL,NY,,US,,,,,
,visa,,,COBLESKILL,NY,,US,,,,,
,visa,,,COBLESKILL,NY,,US,,,,,
,visa,,,COBLESKILL,NY,,US,,,,,
,visa,,,COBLESKILL,NY,,US,,,,,
,visa,,,COBLESKILL,NY,,US,,,,,
,visa,,,COBLESKILL,NY,,US,,,,,
,visa,,,COBBLESKILL,NY,,US,,,,,
,visa,,,COBLESKILL,NY,,US,,,,,
,visa,,,COBLESKILL,NY,,US,,,,,
,visa,,,COBLESKILL,NY,,US,,,,,
,visa,,,COBLESKILL,NY,,US,,,,,
,visa,,,COBLESKILL,NY,,US,,,,,
,visa,,,COBLESKILL,NY,,US,,,,,
,visa,,,COBLESKILL,NY,,US,,,,,
,visa,,,COBLESKILL,NY,,US,,,,,
,visa,,,COBLESKILL,NY,,US,,,,,
,visa,,,COBLESKILL,NY,,US,,,,,
,visa,,,COBLESKILL,NY,,US,,,,,
,visa,,,COBLESKILL,NY,,US,,,,,
bf601b1f63f40e99542542a64a7db96c,western_union,WALMART #002135,,Cobleskill,NY,,US,+1 518-234-1090,https://location.westernunion.com/us/ny/cobleskill/bf601b1f63f40e99542542a64a7db96c,Mo-Su 07:00-21:00,Western Union,Q861042
