Ref,Spider,Name,Address,City,State,Zipcode,Country,Phone,Website,Hours,Brand,WikiData
72276422,moneygram,CADENA COMERCIAL OXXO SA DE CV - #10CUE5,,ACAPULCO DE JUAREZ,GE,,MX,+52 81 8389 2121,,Mo-Su 03:00-24:00,MoneyGram,Q1944412
72420171,moneygram,CADENA COMERCIAL OXXO SA DE CV - #10CUE5,,ACAPULCO DE JUAREZ,GE,,MX,+52 81 8389 2121,,Mo-Su 03:00-24:00,MoneyGram,Q1944412
72238677,moneygram,FARMACIAS DEL AHORRO - #1441 - ACAPULCO,,ACAPULCO DE JUAREZ,GE,,MX,5253224320,,Mo-Su 07:00-23:00,MoneyGram,Q1944412
73839295,moneygram,COPPEL TRANSMISORES - ACAPULCO DE JUAREZ,,ACAPULCO DE JUAREZ,GE,,MX,7594335,,Mo-Sa 10:00-20:00; Su 11:00-20:00,MoneyGram,Q1944412
73956039,moneygram,CADENA COMERCIAL OXXO SA DE CV - #10CUE5,,ACAPULCO DE JUAREZ,GE,,MX,+52 81 8389 2121,,Mo-Su 03:00-24:00,MoneyGram,Q1944412
74024342,moneygram,FARMACIAS GUADALAJARA - #2395 - ACAPULCO,,ACAPULCO DE JUAREZ,GE,,MX,+52 800 555 6559,,Mo-Su 08:00-22:00,MoneyGram,Q1944412
68834690,moneygram,DINERO EXPRESS - #2675 - ACAPULCO DE JUA,,ACAPULCO DE JUAREZ,GE,,MX,+52 55 1720 8141,,Mo-Su 09:00-21:00,MoneyGram,Q1944412
70401257,moneygram,FARMACIAS GUADALAJARA - ACAPULCO GUERRE,,ACAPULCO DE JUAREZ,GE,,MX,+52 713 278 5436,,Mo-Su 08:00-22:00,MoneyGram,Q1944412
70400096,moneygram,FARMACIAS GUADALAJARA - ACAPULCO GUERRE,,ACAPULCO DE JUAREZ,GE,,MX,+52 713 278 5436,,Mo-Su 08:00-22:00,MoneyGram,Q1944412
70527597,moneygram,INTERMEX - #4468 - ACAPULCO - INTERMEX-C,,ACAPULCO,GE,,MX,+52 800 733 3300,,Mo-Sa 09:00-18:30; Su 00:00-24:00,MoneyGram,Q1944412
71117896,moneygram,TELECOMM - #TELECOMM 12049 - ACAPULCO DE,,ACAPULCO DE JUAREZ,GE,,MX,55118008334700,,Mo-Fr 09:00-15:00; Sa-Su 00:00-24:00,MoneyGram,Q1944412
71138066,moneygram,ELEKTRA - #2675 - ACAPULCO DE JUAREZ - B,,ACAPULCO DE JUAREZ,GE,,MX,+52 55 1720 7000,,Mo-Su 09:00-21:00,MoneyGram,Q1944412
43357639,moneygram,BANORTE - #715 - ACAPULCO COSTERA,,ACAPULCO DE JUAREZ,GE,,MX,+52 744 484 6613,,Mo-Sa 09:00-16:00; Su 00:00-24:00,MoneyGram,Q1944412
71237006,moneygram,OXXO - AMERICANA ACA,,ACAPULCO DE JUAREZ,GE,,MX,+52 81 8389 2121,,Mo-Su 03:00-24:00,MoneyGram,Q1944412
71236939,moneygram,OXXO - COSTERA 125 ACA,,ACAPULCO DE JUAREZ,GE,,MX,+52 81 8389 2121,,Mo-Su 03:00-24:00,MoneyGram,Q1944412
71239033,moneygram,OXXO - CUAUHTEMOC 166 ACA,,ACAPULCO DE JUAREZ,GE,,MX,+52 81 8389 2121,,Mo-Su 03:00-24:00,MoneyGram,Q1944412
71238500,moneygram,OXXO - DIANA ACA,,ACAPULCO DE JUAREZ,GE,,MX,+52 81 8389 2121,,Mo-Su 03:00-24:00,MoneyGram,Q1944412
71237572,moneygram,OXXO - FOGON ACA,,ACAPULCO DE JUAREZ,GE,,MX,+52 81 8389 2121,,Mo-Su 03:00-24:00,MoneyGram,Q1944412
71238076,moneygram,OXXO - GALERIA PLAZA ACA,,ACAPULCO DE JUAREZ,GE,,MX,+52 81 8389 2121,,Mo-Su 03:00-24:00,MoneyGram,Q1944412
71237239,moneygram,OXXO - KRYSTAL ACA,,ACAPULCO DE JUAREZ,GE,,MX,+52 81 8389 2121,,Mo-Su 03:00-24:00,MoneyGram,Q1944412
71238733,moneygram,OXXO - LA GRAN PLAZA ACA,,ACAPULCO DE JUAREZ,GE,,MX,+52 81 8389 2121,,Mo-Su 03:00-24:00,MoneyGram,Q1944412
71237653,moneygram,OXXO - PAPAGAYO ACA,,ACAPULCO DE JUAREZ,GE,,MX,+52 81 8389 2121,,Mo-Su 03:00-24:00,MoneyGram,Q1944412
71238623,moneygram,OXXO - PIZARRO ACA,,ACAPULCO DE JUAREZ,GE,,MX,+52 81 8389 2121,,Mo-Su 03:00-24:00,MoneyGram,Q1944412
71237873,moneygram,OXXO - PRINCE ACA,,ACAPULCO DE JUAREZ,GE,,MX,+52 81 8389 2121,,Mo-Su 03:00-24:00,MoneyGram,Q1944412
71239253,moneygram,OXXO - RUIZ MASSIEU ACA,,ACAPULCO DE JUAREZ,GE,,MX,+52 81 8389 2121,,Mo-Su 03:00-24:00,MoneyGram,Q1944412
71239596,moneygram,OXXO - TORRE PALADIO ACA,,ACAPULCO DE JUAREZ,GE,,MX,+52 81 8389 2121,,Mo-Su 03:00-24:00,MoneyGram,Q1944412
71766056,moneygram,CADENA COMERCIAL OXXO SA DE CV - #10CUE5,,ACAPULCO DE JUAREZ,GE,,MX,+52 81 8389 2121,,Mo-Su 03:00-24:00,MoneyGram,Q1944412
