Ref,Spider,Name,Address,City,State,Zipcode,Country,Phone,Website,Hours,Brand,WikiData
https://www.avis.com/en/locations/sa/riyadh/al1,avis,Avis Saudi Arabia Riyadh,,Riyadh,Riyadh,,SA,+966 11 488 4887,https://www.avis.com/en/locations/sa/riyadh/al1,Mo-Th 08:00-17:00; Su 08:00-17:00,Avis,Q791136
https://www.avis.com/en/locations/sa/riyadh/ru2,avis,Avis Saudi Arabia Riyadh,,Riyadh,Riyadh,,SA,(966) 1476 1300,https://www.avis.com/en/locations/sa/riyadh/ru2,Mo-Th 08:00-12:00; Sa-Su 08:00-12:00,Avis,Q791136
location-9239,sbarro,Al Quaser Mall,Al Swaidi AL AM,Riyadh,Riyadh,,SA,,https://sbarro.com/locations/riyadh/riyadh/al-quaser-mall/,,Sbarro,Q2589409
c97649252ebf7342c7367565102e4edb,western_union,ENJAZ  AFIF 119,,Afif,RIYADH,,SA,+966 11 479 8319,https://location.westernunion.com/sa/riyadh/afif/c97649252ebf7342c7367565102e4edb,Mo-Su 07:30-24:00,Western Union,Q861042
5979df29fc8f0791ffdbf6f182ea2b72,western_union,ENJAZ  WADI AL DWASIR 130,,Wadi Al Dawasir,RIYADH,,SA,+966 11 784 1469,https://location.westernunion.com/sa/riyadh/wadi-al-dawasir/5979df29fc8f0791ffdbf6f182ea2b72,Mo-Su 07:30-24:00,Western Union,Q861042
a86fab0387be770278d30f0b29f48ea1,western_union,ENJAZ  AL KHARJ 133,,Al Kharj,RIYADH,,SA,+966 11 549 4297,https://location.westernunion.com/sa/riyadh/al-kharj/a86fab0387be770278d30f0b29f48ea1,Mo-Su 07:30-24:00,Western Union,Q861042
d7643cd50fcf817528d234644ab1dd39,western_union,ENJAZ I NDUSTRIAL DISTRICT 2ND 172,,Riyadh,RIYADH,,SA,+966 11 204 1031,https://location.westernunion.com/sa/riyadh/riyadh/d7643cd50fcf817528d234644ab1dd39,Mo-Su 07:30-24:00,Western Union,Q861042
6d99290576b7a24cdeaf70dd4353f086,western_union,ENJAZ  INDUSTRIAL CITY 179,,Riyadh,RIYADH,,SA,+966 11 479 8319,https://location.westernunion.com/sa/riyadh/riyadh/6d99290576b7a24cdeaf70dd4353f086,Mo-Su 07:30-24:00,Western Union,Q861042
147c2d8136cce5b8ddb894205c6b1bb2,western_union,ENJAZ  HAY BADER 155,,Riyadh,RIYADH,,SA,+966 11 423 5126,https://location.westernunion.com/sa/riyadh/riyadh/147c2d8136cce5b8ddb894205c6b1bb2,Mo-Su 07:30-24:00,Western Union,Q861042
7704facf87b0f1632ecbdcf745e1e256,western_union,ENJAZ  AL AZIZIAH 173,,Riyadh,RIYADH,,SA,+966 11 438 5163,https://location.westernunion.com/sa/riyadh/riyadh/7704facf87b0f1632ecbdcf745e1e256,Mo-Su 07:30-24:00,Western Union,Q861042
b39b08daa310d12aee946ddc80b4606b,western_union,ENJAZ  ALHAYIR ROAD 174,,Riyadh,RIYADH,,SA,+966 11 291 4599,https://location.westernunion.com/sa/riyadh/riyadh/b39b08daa310d12aee946ddc80b4606b,Mo-Su 07:30-24:00,Western Union,Q861042
b09e73947853d06590f9fbb297b1572f,western_union,ENJAZ  AL SUWADI 180,,Riyadh,RIYADH,,SA,+966 11 451 3198,https://location.westernunion.com/sa/riyadh/riyadh/b09e73947853d06590f9fbb297b1572f,Mo-Su 07:30-24:00,Western Union,Q861042
0019e8f68952e72454d1f76c98cfe1a3,western_union,ENJAZ  GHOBAIRAH 163,,Riyadh,RIYADH,,SA,+966 11 459 1404,https://location.westernunion.com/sa/riyadh/riyadh/0019e8f68952e72454d1f76c98cfe1a3,Mo-Su 07:30-24:00,Western Union,Q861042
b172929d8cacd70414050e8b609fe848,western_union,ENJAZ  MANFOUHA 136,,Riyadh,RIYADH,,SA,+966 11 459 1045,https://location.westernunion.com/sa/riyadh/riyadh/b172929d8cacd70414050e8b609fe848,Mo-Su 07:30-24:00,Western Union,Q861042
dfc17d684cbb7b8ce8eff20c7e69a6ed,western_union,ENJAZ  MANFOUHA 2 160,,Riyadh,RIYADH,,SA,+966 11 459 5230,https://location.westernunion.com/sa/riyadh/riyadh/dfc17d684cbb7b8ce8eff20c7e69a6ed,Mo-Su 07:30-24:00,Western Union,Q861042
c60a9b77c92c0c5d7fcaf0a1f5030f6d,western_union,ENJAZ  AL BADEAH 157,,Riyadh,RIYADH,,SA,+966 11 418 2760,https://location.westernunion.com/sa/riyadh/riyadh/c60a9b77c92c0c5d7fcaf0a1f5030f6d,Mo-Su 07:30-24:00,Western Union,Q861042
faac999eef8e758ed6a15b2ae073a49e,western_union,ENJAZ  TUWAIQ 154,,Riyadh,RIYADH,,SA,+966 11 433 3402,https://location.westernunion.com/sa/riyadh/riyadh/faac999eef8e758ed6a15b2ae073a49e,Mo-Su 07:30-24:00,Western Union,Q861042
e401a62a263dde24bd691cd3fb3fb9d1,western_union,ERSAL MONEY TRANSFER,,Riyadh,RIYADH,,SA,+966 9200 33663,https://location.westernunion.com/sa/riyadh/riyadh/e401a62a263dde24bd691cd3fb3fb9d1,Mo-Th 09:30-17:30; Fr 01:30-17:30; Sa-Su 09:30-17:30,Western Union,Q861042
f966abbb9e9587021db802c968127d1f,western_union,ERSAL MONEY TRANSFER,,Riyadh,RIYADH,,SA,+966 9200 33663,https://location.westernunion.com/sa/riyadh/riyadh/f966abbb9e9587021db802c968127d1f,Mo-Su 00:01-24:00,Western Union,Q861042
6ef1a38a04e9a1c2c25f8d96a7e82bfa,western_union,ENJAZ  AL ZOLFI 115,,Al Zulfi,RIYADH,,SA,+966 16 422 5284,https://location.westernunion.com/sa/riyadh/al-zulfi/6ef1a38a04e9a1c2c25f8d96a7e82bfa,Mo-Su 07:30-24:00,Western Union,Q861042
301598a4c7c0609d7fbdbce5f02461aa,western_union,ENJAZ  AL MAJMA A 131,,Al Majma Ah,RIYADH,,SA,+966 16 431 0324,https://location.westernunion.com/sa/riyadh/al-majma-ah/301598a4c7c0609d7fbdbce5f02461aa,Mo-Su 07:30-24:00,Western Union,Q861042
8d088871c488294f9bad395a85fe8c5c,western_union,ENJAZ  SHAGRA 127,,Shaqra,RIYADH,,SA,+966 11 622 1012,https://location.westernunion.com/sa/riyadh/shaqra/8d088871c488294f9bad395a85fe8c5c,Mo-Su 07:30-24:00,Western Union,Q861042
02ae7af1e4ad442aca1537c58bce3279,western_union,ENJAZ  AL MOROOJ 149,,Riyadh,RIYADH,,SA,+966 11 225 2347,https://location.westernunion.com/sa/riyadh/riyadh/02ae7af1e4ad442aca1537c58bce3279,Mo-Su 07:30-24:00,Western Union,Q861042
4efcab3d433d1a62dac90f71ba7a1bdc,western_union,ERSAL MONEY TRANSFER,,Riyadh,RIYADH,,SA,+966 9200 33663,https://location.westernunion.com/sa/riyadh/riyadh/4efcab3d433d1a62dac90f71ba7a1bdc,Mo-Th 09:30-17:30; Fr 01:30-17:30; Sa-Su 09:30-17:30,Western Union,Q861042
48a8805cb12774ac1b5ba9831fb98fdc,western_union,ENJAZ  AL NADHEEM 178,,Riyadh,RIYADH,,SA,+966 11 479 8319,https://location.westernunion.com/sa/riyadh/riyadh/48a8805cb12774ac1b5ba9831fb98fdc,Mo-Su 07:30-24:00,Western Union,Q861042
76a7a0de34631f3eff8e5e61efe708ba,western_union,ENJAZ  GHIRNATAH 176,,Riyadh,RIYADH,,SA,+966 11 209 6987,https://location.westernunion.com/sa/riyadh/riyadh/76a7a0de34631f3eff8e5e61efe708ba,Mo-Su 07:30-24:00,Western Union,Q861042
0329a9b97b1f0b8cfceff3b9a61da815,western_union,ERSAL MONEY TRANSFER,,Riyadh,RIYADH,,SA,+966 9200 33663,https://location.westernunion.com/sa/riyadh/riyadh/0329a9b97b1f0b8cfceff3b9a61da815,Mo-Th 09:30-17:30; Sa-Su 09:30-17:30,Western Union,Q861042
6adc90f4f2c91929c76c12e73dd4e4c6,western_union,ERSAL MONEY TRANSFER,,Riyadh,RIYADH,,SA,+966 9200 33663,https://location.westernunion.com/sa/riyadh/riyadh/6adc90f4f2c91929c76c12e73dd4e4c6,Mo-Th 09:30-17:30; Fr 01:30-17:30; Sa-Su 09:30-17:30,Western Union,Q861042
567e67acce19c3fbeff312d523ac9d05,western_union,ENJAZ  AL MUNSIYAH 185,,Riyadh,RIYADH,,SA,+966 11 203 0749,https://location.westernunion.com/sa/riyadh/riyadh/567e67acce19c3fbeff312d523ac9d05,Mo-Su 07:30-24:00,Western Union,Q861042
c40b83ad818e51c4d59fa3eefd5f9c76,western_union,ENJAZ  AL REBIA 166,,Riyadh,RIYADH,,SA,+966 11 450 1194,https://location.westernunion.com/sa/riyadh/riyadh/c40b83ad818e51c4d59fa3eefd5f9c76,Mo-Su 07:30-24:00,Western Union,Q861042
0b384393e0175705ff4ce26f149e6e70,western_union,ERSAL KIOSK RIMAL,,Riyadh,RIYADH,,SA,+966 9200 33663,https://location.westernunion.com/sa/riyadh/riyadh/0b384393e0175705ff4ce26f149e6e70,Mo-Su 00:01-24:00,Western Union,Q861042
ae3e72644d2a2c29ba82b808cc6e73e5,western_union,ERSAL MONEY TRANSFER,,Riyadh,RIYADH,,SA,+966 9200 33663,https://location.westernunion.com/sa/riyadh/riyadh/ae3e72644d2a2c29ba82b808cc6e73e5,Mo-Th 09:30-17:30; Fr 01:30-17:30; Sa-Su 09:30-17:30,Western Union,Q861042
84690ba0911e4adb7dd5391dc85621f0,western_union,ENJAZ  MALAQA 170,,Riyadh,RIYADH,,SA,+966 11 203 0749,https://location.westernunion.com/sa/riyadh/riyadh/84690ba0911e4adb7dd5391dc85621f0,Mo-Su 07:30-24:00,Western Union,Q861042
8abead012074b42af9eb22536045d5d8,western_union,ENJAZ  DERIYAH 168,,Riyadh,RIYADH,,SA,+966 11 471 8410,https://location.westernunion.com/sa/riyadh/riyadh/8abead012074b42af9eb22536045d5d8,Mo-Su 07:30-24:00,Western Union,Q861042
6ff78bbeb9eda9acae52ea7ffec26144,western_union,RIYADH NORTH INDUSTRIAL,,Riyadh,RIYADH,,SA,+966 9200 33663,https://location.westernunion.com/sa/riyadh/riyadh/6ff78bbeb9eda9acae52ea7ffec26144,Mo-Su 08:00-20:00,Western Union,Q861042
05aa1be47de01a53c63e95c8242caf71,western_union,ERSAL MONEY TRANSFERS,,Riyadh,RIYADH,,SA,+966 9200 33663,https://location.westernunion.com/sa/riyadh/riyadh/05aa1be47de01a53c63e95c8242caf71,Mo-Su 00:01-24:00,Western Union,Q861042
c303927bdb4f165ec5c1a2638f39fbf1,western_union,ENJAZ  KING KHALED AIRPORT 189,,Riyadh,RIYADH,,SA,+966 11 220 4112,https://location.westernunion.com/sa/riyadh/riyadh/c303927bdb4f165ec5c1a2638f39fbf1,,Western Union,Q861042
4917560f920634d7c9cde787e4e775e3,western_union,ENJAZ  AL RABWA 137,,Riyadh,RIYADH,,SA,+966 11 497 1687,https://location.westernunion.com/sa/riyadh/riyadh/4917560f920634d7c9cde787e4e775e3,Mo-Su 07:30-24:00,Western Union,Q861042
77ecb4322bb3a3dc3279a3b6395668d3,western_union,BANK AL BILAD,,Riyadh,RIYADH,,SA,+966 11 479 8319,https://location.westernunion.com/sa/riyadh/riyadh/77ecb4322bb3a3dc3279a3b6395668d3,Mo-Su 00:01-24:00,Western Union,Q861042
75c252434499ba9f10da3fa8b5085c14,western_union,ENJAZ  AL SAADAH 167,,Riyadh,RIYADH,,SA,+966 11 471 8410,https://location.westernunion.com/sa/riyadh/riyadh/75c252434499ba9f10da3fa8b5085c14,Mo-Su 07:30-24:00,Western Union,Q861042
6f1af9f95438de4c63993e99d7db2b40,western_union,ENJAZ  AL OLYA 146,,Riyadh,RIYADH,,SA,+966 11 461 6629,https://location.westernunion.com/sa/riyadh/riyadh/6f1af9f95438de4c63993e99d7db2b40,Mo-Su 07:30-24:00,Western Union,Q861042
a9cf44a4e8b5d8e9d0d37bf9df9c1ee1,western_union,ENJAZ  MILITARY HOSPITAL 140,,Riyadh,RIYADH,,SA,+966 11 473 5829,https://location.westernunion.com/sa/riyadh/riyadh/a9cf44a4e8b5d8e9d0d37bf9df9c1ee1,Mo-Su 07:30-24:00,Western Union,Q861042
29d7a606d46de070d5f5945e8aa40f5a,western_union,ENJAZ  DHAHRAT LABAN 143,,Riyadh,RIYADH,,SA,+966 11 225 1395,https://location.westernunion.com/sa/riyadh/riyadh/29d7a606d46de070d5f5945e8aa40f5a,Mo-Su 07:30-24:00,Western Union,Q861042
f7156becd339a2ef69ef19742453ed49,western_union,ENJAZ  AL NAKHEEL 141,,Riyadh,RIYADH,,SA,+966 11 235 0348,https://location.westernunion.com/sa/riyadh/riyadh/f7156becd339a2ef69ef19742453ed49,Mo-Su 07:30-24:00,Western Union,Q861042
daea855b7849dae5e80d84fbb98a1ae1,western_union,ENJAZ  UM AL HAMAM 158,,Riyadh,RIYADH,,SA,+966 11 281 3892,https://location.westernunion.com/sa/riyadh/riyadh/daea855b7849dae5e80d84fbb98a1ae1,Mo-Su 07:30-24:00,Western Union,Q861042
a7a2c8eacd451fe50202bdfe645fce59,western_union,ENJAZ  AL SOLAIMANYA 164,,Riyadh,RIYADH,,SA,+966 11 288 2540,https://location.westernunion.com/sa/riyadh/riyadh/a7a2c8eacd451fe50202bdfe645fce59,Mo-Su 07:30-24:00,Western Union,Q861042
930d6bae02fafb870efdf407e3d3d99e,western_union,ENJAZ  AL RAWDAH 152,,Riyadh,RIYADH,,SA,+966 11 209 6987,https://location.westernunion.com/sa/riyadh/riyadh/930d6bae02fafb870efdf407e3d3d99e,Mo-Su 07:30-24:00,Western Union,Q861042
db608c629005461be63a1a74b0ae596a,western_union,ERSAL MONEY TRANSFER,,Riyadh,RIYADH,,SA,+966 9200 33663,https://location.westernunion.com/sa/riyadh/riyadh/db608c629005461be63a1a74b0ae596a,Mo-Th 09:30-17:30; Sa-Su 09:30-17:30,Western Union,Q861042
8d8d126f0663ea17c3c4c2e9c5e6c089,western_union,ENJAZ  ALKHALEEG 177,,Riyadh,RIYADH,,SA,+966 11 478 3104,https://location.westernunion.com/sa/riyadh/riyadh/8d8d126f0663ea17c3c4c2e9c5e6c089,Mo-Su 07:30-24:00,Western Union,Q861042
b6f865237450ede14315a3350a524ef4,western_union,ENJAZ  AL TAAMER 139,,Riyadh,RIYADH,,SA,+966 11 414 2162,https://location.westernunion.com/sa/riyadh/riyadh/b6f865237450ede14315a3350a524ef4,Mo-Su 07:30-24:00,Western Union,Q861042
d61202c219fb290ba316c3ab318cf32b,western_union,ENJAZ  KING FAHD ROAD 190,,Riyadh,RIYADH,,SA,+966 11 547 6363,https://location.westernunion.com/sa/riyadh/riyadh/d61202c219fb290ba316c3ab318cf32b,Mo-Su 07:30-24:00,Western Union,Q861042
3b731dcc112b070012284cea89a12f9a,western_union,ENJAZ  KING FAHAD 165,,Riyadh,RIYADH,,SA,+966 11 470 9730,https://location.westernunion.com/sa/riyadh/riyadh/3b731dcc112b070012284cea89a12f9a,Mo-Su 07:30-24:00,Western Union,Q861042
41e1f5e8da8b1027f2ab1de32f3292c7,western_union,ENJAZ  AL SULAY 2 171,,Riyadh,RIYADH,,SA,+966 11 242 7772,https://location.westernunion.com/sa/riyadh/riyadh/41e1f5e8da8b1027f2ab1de32f3292c7,Mo-Su 07:30-24:00,Western Union,Q861042
cf0c7f09758fb2517ceac46511556cc6,western_union,ENJAZ  AL SENAI A 145,,Riyadh,RIYADH,,SA,+966 11 446 8152,https://location.westernunion.com/sa/riyadh/riyadh/cf0c7f09758fb2517ceac46511556cc6,Mo-Su 07:30-24:00,Western Union,Q861042
2c82bc71924f350881ff70c6cd0a7d7c,western_union,ENJAZ  AL BATHA 147,,Riyadh,RIYADH,,SA,+966 11 286 0346,https://location.westernunion.com/sa/riyadh/riyadh/2c82bc71924f350881ff70c6cd0a7d7c,Mo-Su 07:30-24:00,Western Union,Q861042
c4a221f643e178c6c9a34ba0603754c0,western_union,ERSAL MONEY TRANSFER,,Riyadh,RIYADH,,SA,+966 9200 33663,https://location.westernunion.com/sa/riyadh/riyadh/c4a221f643e178c6c9a34ba0603754c0,Mo-Th 09:30-17:30; Fr 01:30-17:30; Sa-Su 09:30-17:30,Western Union,Q861042
c8a3f96b150ac1f0a8721bacd5c289db,western_union,ENJAZ  AL SHEMAISI 148,,Riyadh,RIYADH,,SA,+966 11 435 1593,https://location.westernunion.com/sa/riyadh/riyadh/c8a3f96b150ac1f0a8721bacd5c289db,Mo-Su 07:30-24:00,Western Union,Q861042
5149fcb435978546555e760311068ea7,western_union,ENJAZ  AL KHAZAN 150,,Riyadh,RIYADH,,SA,+966 11 286 5941,https://location.westernunion.com/sa/riyadh/riyadh/5149fcb435978546555e760311068ea7,Mo-Su 07:30-24:00,Western Union,Q861042
40d4751f8caa741fa635e14fccfbd685,western_union,ENJAZ  AL MOZAHMIA 129,,Riyadh,RIYADH,,SA,+966 11 523 2113,https://location.westernunion.com/sa/riyadh/riyadh/40d4751f8caa741fa635e14fccfbd685,Mo-Su 07:30-24:00,Western Union,Q861042
3712338d60ac456e45d5dece779b2e05,western_union,ERSAL MONEY TRANSFER,,Riyadh,RIYADH,,SA,+966 9200 33663,https://location.westernunion.com/sa/riyadh/riyadh/3712338d60ac456e45d5dece779b2e05,Mo-Su 00:01-24:00,Western Union,Q861042
56f1424564aa8a7c441d00ff6a008e1e,western_union,ENJAZ  AL BALAD 153,,Riyadh,RIYADH,,SA,+966 11 404 1272,https://location.westernunion.com/sa/riyadh/riyadh/56f1424564aa8a7c441d00ff6a008e1e,Mo-Su 07:30-24:00,Western Union,Q861042
3c57f5cc597493e2532bc1fe6376a800,western_union,ENJAZ  ALSULAY 161,,Riyadh,RIYADH,,SA,+966 11 241 0923,https://location.westernunion.com/sa/riyadh/riyadh/3c57f5cc597493e2532bc1fe6376a800,Mo-Su 07:30-24:00,Western Union,Q861042
9a01c286dc4931bfaf80a9383c0d55aa,western_union,ERSAL MONEY TRANSFER,,Riyadh,RIYADH,,SA,+966 9200 33663,https://location.westernunion.com/sa/riyadh/riyadh/9a01c286dc4931bfaf80a9383c0d55aa,Mo-Th 09:30-17:30; Fr 01:30-17:30; Sa-Su 09:30-17:30,Western Union,Q861042
4455beccc4df12a8b7a7a85cd34553e9,western_union,KOISK WIZARAT,,Riyadh,RIYADH,,SA,+966 9200 33663,https://location.westernunion.com/sa/riyadh/riyadh/4455beccc4df12a8b7a7a85cd34553e9,Mo-Su 08:00-20:00,Western Union,Q861042
1bf46272ed5dfe9f620f58cab8464a2c,western_union,ERSAL MONEY TRANSFER,,Riyadh,RIYADH,,SA,+966 9200 33663,https://location.westernunion.com/sa/riyadh/riyadh/1bf46272ed5dfe9f620f58cab8464a2c,Mo-Th 09:30-17:30; Fr 01:30-17:30; Sa-Su 09:30-17:30,Western Union,Q861042
ecf5d80c4a6e8a7b3f9bf0fa1f439854,western_union,ENJAZ  AL MONTAZAH 138,,Riyadh,RIYADH,,SA,+966 11 473 5864,https://location.westernunion.com/sa/riyadh/riyadh/ecf5d80c4a6e8a7b3f9bf0fa1f439854,Mo-Su 07:30-24:00,Western Union,Q861042
5c00c89ede66de880db0afbf380797e3,western_union,ENJAZ  AL MALAZ 144,,Riyadh,RIYADH,,SA,+966 11 478 3104,https://location.westernunion.com/sa/riyadh/riyadh/5c00c89ede66de880db0afbf380797e3,Mo-Su 07:30-24:00,Western Union,Q861042
