Ref,Spider,Name,Address,City,State,Zipcode,Country,Phone,Website,Hours,Brand,WikiData
4601,autozone_us,AutoZone Auto Parts Chester,,Chester,PA,,US,+1 610-490-5181,https://www.autozone.com/locations/pa/chester/101-e-9th-st.html,Mo-Sa 07:30-21:00; Su 07:30-20:00,AutoZone,Q4826087
29875,bluerhino,Sunoco #8522,,Chester,PA,,US,+1 610-859-2007,,,Blue Rhino,Q65681213
210649,bluerhino,Dollar General #22866,,Chester,PA,,US,+1 484-816-6921,,,Blue Rhino,Q65681213
226930,bluerhino,"FMLK, Inc.",,Chester,PA,,US,+1 267-333-5443,,,Blue Rhino,Q65681213
ccr,caesars,Harrah's Philadelphia Casino and Racetrack,,Chester,PA,,US,+1 800-480-8020,https://www.caesars.com/harrahs-philly,,Caesars Entertainment,Q18636524
80900,citi,ATM Sunoco,,Chester,PA,,US,,,,Citibank,Q857063
81041,citi,ATM Sunoco,,Chester,PA,,US,,,,Citibank,Q857063
70475,citi,ATM PNC BANK,,Upland,PA,,US,,,,Citibank,Q857063
25793,citi,ATM 7ELEVEN-FCTI,,Chester,PA,,US,,,,Citibank,Q857063
80951,citi,ATM Sunoco,,Chester,PA,,US,,,,Citibank,Q857063
16680,dollar_general,Dollar General,,Chester,PA,,US,+1 484-483-5511,https://www.dollargeneral.com/store-directory/pa/chester/16680,Mo-Su 08:00-21:00,Dollar General,Q145168
16389,dollar_general,Dollar General,,Chester,PA,,US,+1 484-816-7350,https://www.dollargeneral.com/store-directory/pa/chester/16389,Mo-Su 08:00-22:00,Dollar General,Q145168
525-e-15th-street,einsteinbros,Widener University Einstein Bros. Bagels,,Chester,PA,,US,+1 610-490-7025,https://locations.einsteinbros.com/us/pa/chester/525-e-15th-street,,Einstein Bros. Bagels,Q5349788
387410,follett,Widener Campus Store,,Chester,PA,,US,+1 610-490-7012,https://www.bkstr.com/widenerestore/home,,,
Motorcraft2948USAEnglish,ford,Murphy Ford Co,,Pennsylvania,PA,,US,+1 610-494-8800,,,Ford,Q44294
https://www.ford.com/dealerships/dealer-details/pa/chester/murphy-ford-co/,ford_dealers_us,Murphy Ford Co,,Chester,PA,,US,+1 484-361-9355,https://www.ford.com/dealerships/dealer-details/pa/chester/murphy-ford-co/,Mo-Th 09:00-20:00; Fr 09:00-18:00; Sa 09:00-17:00,Ford Motor Company,Q44294
72378,lukoil,69210,"729 Highland Ave, Chester, PA, 19013",Chester,PA,,US,,,24/7,Lukoil,Q329347
https://locations.moes.com/#1261,moes,Moe's Southwest Grill,,Chester,PA,,US,+1 610-490-7025,https://locations.moes.com/pa/chester/1-university-place,,Moe's Southwest Grill,Q6889938
74112487,moneygram,COUSINS FRESH MARKET,,CHESTER,PA,,US,+1 484-483-2500,,Mo-Sa 08:00-20:00; Su 08:00-17:00,MoneyGram,Q1944412
654,rentacenter,Rent-A-Center,,Chester,PA,,US,+1 610-874-4453,https://locations.rentacenter.com/pennsylvania/chester/853-upland-ave-upland-shopping-center/,Mo-Sa 10:00-18:00,Rent-A-Center,Q7313497
0887823302,sunoco_us,Sunoco,,CHESTER,PA,,US,+1 610-485-2327,,Mo-Su 05:00-23:00,Sunoco,Q1423218
0364146106,sunoco_us,Sunoco,,CHESTER,PA,,US,+1 610-859-2007,,24/7,Sunoco,Q1423218
0363107402,sunoco_us,Sunoco,,CHESTER,PA,,US,+1 610-876-0293,,24/7,Sunoco,Q1423218
0004697911,sunoco_us,Sunoco,,CHESTER,PA,,US,+1 610-872-7400,,24/7,Sunoco,Q1423218
6118,true_value_us,Joes True Value Home Center,,Chester,PA,,US,+1 610-497-2140,http://www.truevalue.com/joestruevaluechester,,True Value,Q7847545
1357845,usps,CHESTER,,CHESTER,PA,,US,+1 610-876-1265,,Mo-Fr 08:00-16:30; Sa 09:00-12:00,United States Postal Service,Q668687
1901300118,usps_collection_boxes,USPS COLLECTION BOX - BLUE BOX,2502 SEAPORT DR,CHESTER,PA,,US,,,,United States Postal Service,Q668687
1901300111,usps_collection_boxes,USPS COLLECTION BOX - BLUE BOX,1441 W 7TH ST,CHESTER,PA,,US,,,,United States Postal Service,Q668687
1901300107,usps_collection_boxes,USPS COLLECTION BOX - BLUE BOX,1041 BUTLER ST,CHESTER,PA,,US,,,,United States Postal Service,Q668687
1901300114,usps_collection_boxes,USPS COLLECTION BOX - BLUE BOX,401 W 15TH ST,CHESTER,PA,,US,,,,United States Postal Service,Q668687
1901300102,usps_collection_boxes,USPS COLLECTION BOX - BLUE BOX,401 W 15TH ST,CHESTER,PA,,US,,,,United States Postal Service,Q668687
1901300101,usps_collection_boxes,USPS COLLECTION BOX - BLUE BOX,401 W 15TH ST,CHESTER,PA,,US,,,,United States Postal Service,Q668687
1901300091,usps_collection_boxes,USPS COLLECTION BOX - BLUE BOX,2306 EDGMONT AVE,CHESTER,PA,,US,,,,United States Postal Service,Q668687
1901300097,usps_collection_boxes,USPS COLLECTION BOX - PO LOBBY,400 EDGEMONT AVE,CHESTER,PA,,US,,,,United States Postal Service,Q668687
1901300104,usps_collection_boxes,USPS COLLECTION BOX - BLUE BOX,400 EDGMONT AVE,CHESTER,PA,,US,,,,United States Postal Service,Q668687
1901300121,usps_collection_boxes,USPS COLLECTION BOX - PO LOBBY,400 EDGMONT AVE,CHESTER,PA,,US,,,,United States Postal Service,Q668687
1901300090,usps_collection_boxes,USPS COLLECTION BOX - BLUE BOX,4 E 21ST ST,CHESTER,PA,,US,,,,United States Postal Service,Q668687
1901300100,usps_collection_boxes,USPS COLLECTION BOX - BLUE BOX,100 W 15TH ST,CHESTER,PA,,US,,,,United States Postal Service,Q668687
1901300092,usps_collection_boxes,USPS COLLECTION BOX - BLUE BOX,1 FOURTH ST,CHESTER,PA,,US,,,,United States Postal Service,Q668687
1901300117,usps_collection_boxes,USPS COLLECTION BOX - BLUE BOX,160 E 7TH ST,CHESTER,PA,,US,,,,United States Postal Service,Q668687
1901300122,usps_collection_boxes,USPS COLLECTION BOX - PO LOBBY,1 UNIVERSITY PL,CHESTER,PA,,US,,,,United States Postal Service,Q668687
,visa,,,CHESTER,PA,,US,,,,,
,visa,,,CHESTER,PA,,US,,,,,
,visa,,,CHESTER,PA,,US,,,,,
,visa,,,CHESTER,PA,,US,,,,,
,visa,,,CHESTER,PA,,US,,,,,
,visa,,,CHESTER,PA,,US,,,,,
,visa,,,CHESTER,PA,,US,,,,,
,visa,,,CHESTER,PA,,US,,,,,
,visa,,,UPLAND,PA,,US,,,,,
,visa,,,CHESTER,PA,,US,,,,,
,visa,,,CHESTER,PA,,US,,,,,
,visa,,,CHESTER,PA,,US,,,,,
,visa,,,CHESTER,PA,,US,,,,,
,visa,,,CHESTER,PA,,US,,,,,
,visa,,,CHESTER,PA,,US,,,,,
,visa,,,CHESTER,PA,,US,,,,,
,visa,,,CHESTER,PA,,US,,,,,
,visa,,,CHESTER,PA,,US,,,,,
,visa,,,CHESTER,PA,,US,,,,,
,visa,,,CHESTER,PA,,US,,,,,
,visa,,,CHESTER,PA,,US,,,,,
,visa,,,CHESTER,PA,,US,,,,,
,visa,,,CHESTER,PA,,US,,,,,
,visa,,,CHESTER,PA,,US,,,,,
,visa,,,CHESTER,PA,,US,,,,,
,visa,,,CHESTER,PA,,US,,,,,
,visa,,,CHESTER,PA,,US,,,,,
,visa,,,CHESTER,PA,,US,,,,,
,visa,,,CHESTER,PA,,US,,,,,
,visa,,,CHESTER,PA,,US,,,,,
,visa,,,CHESTER,PA,,US,,,,,
,visa,,,CHESTER,PA,,US,,,,,
,visa,,,CHESTER,PA,,US,,,,,
,visa,,,CHESTER,PA,,US,,,,,
,visa,,,CHESTER,PA,,US,,,,,
,visa,,,CHESTER,PA,,US,,,,,
,visa,,,CHESTER,PA,,US,,,,,
,visa,,,CHESTER,PA,,US,,,,,
,visa,,,CHESTER,PA,,US,,,,,
,visa,,,CHESTER,PA,,US,,,,,
,visa,,,UPLAND,PA,,US,,,,,
,visa,,,CHESTER,PA,,US,,,,,
,visa,,,UPLAND,PA,,US,,,,,
,visa,,,CHESTER,PA,,US,,,,,
,visa,,,CHESTER,PA,,US,,,,,
,visa,,,CHESTER,PA,,US,,,,,
,visa,,,CHESTER,PA,,US,,,,,
,visa,,,CHESTER,PA,,US,,,,,
,visa,,,UPLAND,PA,,US,,,,,
,visa,,,CHESTER,PA,,US,,,,,
,visa,,,CHESTER,PA,,US,,,,,
,visa,,,SHESTER,PA,,US,,,,,
,visa,,,CHESTER,PA,,US,,,,,
,visa,,,CHESTER,PA,,US,,,,,
,visa,,,CHESTER,PA,,US,,,,,
,visa,,,CHESTER,PA,,US,,,,,
,visa,,,CHESTER,PA,,US,,,,,
,visa,,,CHESTER,PA,,US,,,,,
,visa,,,CHESTER,PA,,US,,,,,
,visa,,,CHESTER,PA,,US,,,,,
,visa,,,CHESTER,PA,,US,,,,,
,visa,,,CHETSER,PA,,US,,,,,
,visa,,,CHESTER,PA,,US,,,,,
,visa,,,CHESTER,PA,,US,,,,,
,visa,,,CHESTER,PA,,US,,,,,
,visa,,,CHESTER,PA,,US,,,,,
,visa,,,CHESTER,PA,,US,,,,,
,visa,,,CHESTER,PA,,US,,,,,
,visa,,,CHESTER,PA,,US,,,,,
,visa,,,CHESTER,PA,,US,,,,,
,visa,,,CHESTER,PA,,US,,,,,
,visa,,,CHESTER,PA,,US,,,,,
,visa,,,CHESTER,PA,,US,,,,,
,visa,,,CHESTER,PA,,US,,,,,
,visa,,,CHESTER,PA,,US,,,,,
,visa,,,CHESTER,PA,,US,,,,,
,visa,,,CHESTER,PA,,US,,,,,
,visa,,,CHESTER,PA,,US,,,,,
,visa,,,CHESTER,PA,,US,,,,,
,visa,,,CHESTER,PA,,US,,,,,
,visa,,,CHESTER,PA,,US,,,,,
,visa,,,PHILA.,PA,,US,,,,,
,visa,,,UPLAND,PA,,US,,,,,
,visa,,,CHESTER,PA,,US,,,,,
,visa,,,CHESTER,PA,,US,,,,,
,visa,,,CHESTER,PA,,US,,,,,
,visa,,,CHESTER,PA,,US,,,,,
,visa,,,CHESTER,PA,,US,,,,,
,visa,,,CHESTER,PA,,US,,,,,
,visa,,,CHESTER,PA,,US,,,,,
,visa,,,CHESTER,PA,,US,,,,,
,visa,,,CHESTER,PA,,US,,,,,
,visa,,,CHESTER,PA,,US,,,,,
,visa,,,CHESTER,PA,,US,,,,,
,visa,,,CHESTER,PA,,US,,,,,
,visa,,,CHESTER,PA,,US,,,,,
,visa,,,CHESTER,PA,,US,,,,,
,visa,,,CHESTER,PA,,US,,,,,
,visa,,,CHESTER,PA,,US,,,,,
,visa,,,SHESTER,PA,,US,,,,,
,visa,,,CHESTER,PA,,US,,,,,
,visa,,,CHESTER,PA,,US,,,,,
,visa,,,CHESTER,PA,,US,,,,,
,visa,,,CHESTER,PA,,US,,,,,
,visa,,,CHESTER,PA,,US,,,,,
,visa,,,CHESTER,PA,,US,,,,,
,visa,,,CHESTER,PA,,US,,,,,
,visa,,,CHESTER,PA,,US,,,,,
,visa,,,CHESTER,PA,,US,,,,,
,visa,,,CHESTER,PA,,US,,,,,
,visa,,,CHESTER,PA,,US,,,,,
,visa,,,CHESTER,PA,,US,,,,,
,visa,,,CHESTER,PA,,US,,,,,
,visa,,,BROOKHAVEN,PA,,US,,,,,
,visa,,,CHESTER,PA,,US,,,,,
,visa,,,BROOKHAVEN,PA,,US,,,,,
,visa,,,CHESTER,PA,,US,,,,,
,visa,,,CHESTER,PA,,US,,,,,
,visa,,,CHESTER,PA,,US,,,,,
,visa,,,CHESTER,PA,,US,,,,,
501__AVENUE__OF__THE__STATES_CHESTER_PA_19013,wellsfargo,,501 AVENUE OF THE STATES,CHESTER,PA,,US,+1 800-869-3557,https://www.wellsfargo.com/locator/bank/501__AVENUE__OF__THE__STATES_CHESTER_PA_19013/,,Wells Fargo,Q744149
