Ref,Spider,Name,Address,City,State,Zipcode,Country,Phone,Website,Hours,Brand,WikiData
https://stores.aldi.us/#11544921,aldi_sud_us,ALDI  2929 27th Ave S,,Minneapolis,MN,,US,+1 833-472-7106,https://stores.aldi.us/mn/minneapolis/2929-27th-ave-s,Mo-Su 09:00-20:00,ALDI,Q41171672
4289,anytime_fitness,Anytime Fitness,,Minneapolis,MN,,US,+1 612-444-7464,https://www.anytimefitness.com/gyms/4289/minneapolis-mn-55406/,,Anytime Fitness,Q4778364
4348,autozone_us,AutoZone Auto Parts Minneapolis,,Minneapolis,MN,,US,+1 612-729-0123,https://www.autozone.com/locations/mn/minneapolis/2610-e-lake-st.html,Mo-Sa 07:30-21:00; Su 09:00-20:00,AutoZone,Q4826087
https://www.avis.com/en/locations/us/mn/minneapolis/zm3,avis,Avis U S A Minneapolis,,Minneapolis,MN,,US,+1 612-729-0074,https://www.avis.com/en/locations/us/mn/minneapolis/zm3,Mo-Fr 07:30-17:00; Sa 08:00-13:00; Su 09:00-12:00,Avis,Q791136
182271,bluerhino,Speedway #4021,,Minneapolis,MN,,US,+1 612-721-7306,,,Blue Rhino,Q65681213
239228,bluerhino,Circle K #2746332,,Minneapolis,MN,,US,+1 612-729-4224,,,Blue Rhino,Q65681213
187422,bluerhino,Cub #30854,,Minneapolis,MN,,US,+1 651-345-7157,,,Blue Rhino,Q65681213
91230,citi,ATM Walgreens,,Minneapolis,MN,,US,,,,Citibank,Q857063
82119,citi,ATM Target,,Minneapolis,MN,,US,,,,Citibank,Q857063
90073,citi,ATM Walgreens,,Minneapolis,MN,,US,,,,Citibank,Q857063
85184,citi,ATM TRUSTONE FINANCIA,,Minneapolis,MN,,US,,,,Citibank,Q857063
78322,citi,ATM Speedway,,Minneapolis,MN,,US,,,,Citibank,Q857063
,credit_union_us,TruStone Financial CU,,Minneapolis,MN,,US,+1 800-862-1998,,Mo-Fr 09:00-05:00; Sa 09:00-01:00,,
16010,cvs_us,CVS Pharmacy,,Minneapolis,MN,,US,+1 612-721-1611,https://www.cvs.com/store-locator/minneapolis-mn-pharmacies/2500-e-lake-st-minneapolis-mn-55406/storeid=16010,"Mo-Fr 09:00-13:30,14:00-19:00; Sa 10:00-13:30,14:00-18:00; Su 11:00-13:30,14:00-17:00",CVS Pharmacy,Q2078880
1920,dominos_pizza_us,Domino's Pizza,,Minneapolis,MN,,US,+1 612-729-8388,https://pizza.dominos.com/minnesota/minneapolis/4737-hiawatha-avenue,Mo-We 10:00-01:00; Th-Su 10:00-02:00,Domino's,Q839466
30082,huntingtonbank,Lake St Cub,,Minneapolis,MN,,US,+1 612-317-4834,https://www.huntington.com/Community/branch-info?locationId=30082,Mo-Fr 10:00-18:00; Sa 10:00-15:00; Su 00:00-00:00,Huntington Bank,Q798819
30026,huntingtonbank,Minnehaha,,Minneapolis,MN,,US,+1 612-460-4181,https://www.huntington.com/Community/branch-info?locationId=30026,Mo-Fr 09:00-17:00; Sa-Su 00:00-00:00,Huntington Bank,Q798819
160296,marathon_petroleum_us,Riverside Marathon,,Minneapolis,MN,,US,+1 612-333-3441,,,Marathon,Q458363
72122204,moneygram,CUB FOODS - #30854 - 46TH & HIAWATHA,,MINNEAPOLIS,MN,,US,+1 612-345-7157,,Mo-Su 09:00-19:00,MoneyGram,Q1944412
72786899,moneygram,CUB FOODS - #31944 - LAKE ST,,MINNEAPOLIS,MN,,US,+1 612-721-0906,,Mo-Su 09:00-19:00,MoneyGram,Q1944412
https://locations.oreillyauto.com/mn/minneapolis/check-engine-light-testing-3237.html,oreilly,Your Minneapolis O'Reilly Auto Parts Store,,Minneapolis,MN,,US,+1 612-721-6533,https://locations.oreillyauto.com/mn/minneapolis/check-engine-light-testing-3237.html,Mo-Fr 07:00-19:00; Sa 07:00-17:00; Su 08:00-16:00,O'Reilly Auto Parts,Q7071951
https://locations.oreillyauto.com/mn/minneapolis/wiper-installation-3237.html,oreilly,Your Minneapolis O'Reilly Auto Parts Store,,Minneapolis,MN,,US,+1 612-721-6533,https://locations.oreillyauto.com/mn/minneapolis/wiper-installation-3237.html,Mo-Fr 07:00-19:00; Sa 07:00-17:00; Su 08:00-16:00,O'Reilly Auto Parts,Q7071951
https://locations.oreillyauto.com/mn/minneapolis/battery-testing-3237.html,oreilly,Your Minneapolis O'Reilly Auto Parts Store,,Minneapolis,MN,,US,+1 612-721-6533,https://locations.oreillyauto.com/mn/minneapolis/battery-testing-3237.html,Mo-Fr 07:00-19:00; Sa 07:00-17:00; Su 08:00-16:00,O'Reilly Auto Parts,Q7071951
https://locations.oreillyauto.com/mn/minneapolis/autopartes-3237.html,oreilly,Tu tienda O'Reilly Auto Parts en Minneapolis,,Minneapolis,MN,,US,+1 612-721-6533,https://locations.oreillyauto.com/mn/minneapolis/autopartes-3237.html,Mo-Fr 07:00-19:00; Sa 07:00-17:00; Su 08:00-16:00,O'Reilly Auto Parts,Q7071951
mn_minneapolis_2500-east-lake,pizza_hut_us,2500 East Lake,,Minneapolis,MN,,US,,https://locations.pizzahut.com/mn/minneapolis/2500-east-lake,,Pizza Hut,Q191615
https://www.publicstorage.com/self-storage-mn-minneapolis/1537.html,public_storage_us,Public Storage,,Minneapolis,MN,,US,+1 612-399-6996,https://www.publicstorage.com/self-storage-mn-minneapolis/1537.html,,Public Storage,Q1156045
32433,smilebrands,Midwest Dental Minneapolis Seward,2010 27th Ave S,Minneapolis,MN,,US,+1 612-336-8478,https://midwest-dental.com/locations/minnesota-dental-centers/minneapolis-seward-mn/,,Smile Brands Inc.,Q108286823
https://restaurants.subway.com/#14893760,subway,Subway Parkway Plaza Shopping Center,,Minneapolis Hennepin,MN,,US,+1 612-721-7534,https://restaurants.subway.com/united-states/mn/minneapolis/4741-hiawatha-ave,Mo-Fr 08:00-22:00; Sa 09:00-21:00; Su 10:00-21:00,Subway,Q244457
1574855,usps,MINNEHAHA,,MINNEAPOLIS,MN,,US,+1 612-824-4468,,Mo-Fr 08:30-17:00; Sa 09:00-13:00,United States Postal Service,Q668687
5540600017,usps_collection_boxes,USPS COLLECTION BOX - BLUE BOX,4357 42ND AVE S,MINNEAPOLIS,MN,,US,,,,United States Postal Service,Q668687
5540600030,usps_collection_boxes,USPS COLLECTION BOX - BLUE BOX,3801 MINNEHAHA AVE,MINNEAPOLIS,MN,,US,,,,United States Postal Service,Q668687
5540600020,usps_collection_boxes,USPS COLLECTION BOX - BLUE BOX,4200 46TH AVE S,MINNEAPOLIS,MN,,US,,,,United States Postal Service,Q668687
5540600014,usps_collection_boxes,USPS COLLECTION BOX - BLUE BOX,3347 42ND AVE S,MINNEAPOLIS,MN,,US,,,,United States Postal Service,Q668687
5540600018,usps_collection_boxes,USPS COLLECTION BOX - BLUE BOX,4301 E LAKE ST,MINNEAPOLIS,MN,,US,,,,United States Postal Service,Q668687
5540600034,usps_collection_boxes,USPS COLLECTION BOX - BLUE BOX,3033 27TH AVE S,MINNEAPOLIS,MN,,US,,,,United States Postal Service,Q668687
5540600037,usps_collection_boxes,USPS COLLECTION BOX - BLUE BOX,3033 27TH AVE S,MINNEAPOLIS,MN,,US,,,,United States Postal Service,Q668687
5540600038,usps_collection_boxes,USPS COLLECTION BOX - PO LOBBY,3033 27TH AVE S,MINNEAPOLIS,MN,,US,,,,United States Postal Service,Q668687
5540600003,usps_collection_boxes,USPS COLLECTION BOX - BLUE BOX,2850 26TH AVE S,MINNEAPOLIS,MN,,US,,,,United States Postal Service,Q668687
5540600007,usps_collection_boxes,USPS COLLECTION BOX - BLUE BOX,3024 E 25TH ST,MINNEAPOLIS,MN,,US,,,,United States Postal Service,Q668687
5540600019,usps_collection_boxes,USPS COLLECTION BOX - BLUE BOX,3600 46TH AVE S,MINNEAPOLIS,MN,,US,,,,United States Postal Service,Q668687
5540600024,usps_collection_boxes,USPS COLLECTION BOX - BLUE BOX,2627 E FRANKLIN AVE,MINNEAPOLIS,MN,,US,,,,United States Postal Service,Q668687
5540600033,usps_collection_boxes,USPS COLLECTION BOX - BLUE BOX,4547 HIAWATHA AVE,MINNEAPOLIS,MN,,US,,,,United States Postal Service,Q668687
5540600023,usps_collection_boxes,USPS COLLECTION BOX - BLUE BOX,2401 E FRANKLIN AVE,MINNEAPOLIS,MN,,US,,,,United States Postal Service,Q668687
,visa,,,MINNEAPOLIS,MN,,US,,,,,
,visa,,,MINNEAPOLIS,MN,,US,,,,,
,visa,,,MINNEAPOLIS,MN,,US,,,,,
,visa,,,MINNEAPOLIS,MN,,US,,,,,
,visa,,,MINNEAPOLIS,MN,,US,,,,,
,visa,,,MINNEAPOLIS,MN,,US,,,,,
,visa,,,MINNEAPOLIS,MN,,US,,,,,
,visa,,,MINNEAPOLIS,MN,,US,,,,,
,visa,,,MINNEAPOLIS,MN,,US,,,,,
,visa,,,MINNEAPOLIS,MN,,US,,,,,
,visa,,,MINNEAPOLIS,MN,,US,,,,,
,visa,,,SOUTH MPLS,MN,,US,,,,,
,visa,,,MINNEAPOLIS,MN,,US,,,,,
,visa,,,MINNEAPOLIS,MN,,US,,,,,
,visa,,,MINNEAPOLIS,MN,,US,,,,,
,visa,,,MINNEAPOLIS,MN,,US,,,,,
,visa,,,MINNEAPOLIS,MN,,US,,,,,
,visa,,,MINNEAPOLIS,MN,,US,,,,,
,visa,,,MINNEAPOLIS,MN,,US,,,,,
,visa,,,MINNEAPOLIS,MN,,US,,,,,
,visa,,,MINNEAPOLIS,MN,,US,,,,,
,visa,,,MINNEAPOLIS,MN,,US,,,,,
,visa,,,MINNEAPOLIS,MN,,US,,,,,
,visa,,,MINNEAPOLIS,MN,,US,,,,,
,visa,,,MINNEAPOLIS,MN,,US,,,,,
,visa,,,MINNEAPOLIS,MN,,US,,,,,
,visa,,,MINNEAPOLIS,MN,,US,,,,,
,visa,,,MINNEAPOLIS,MN,,US,,,,,
,visa,,,MINNEAPOLIS,MN,,US,,,,,
,visa,,,MINNEAPOLIS,MN,,US,,,,,
,visa,,,MINNEAPOLIS,MN,,US,,,,,
,visa,,,MINNEAPOLIS,MN,,US,,,,,
,visa,,,MINNEAPOLIS,MN,,US,,,,,
,visa,,,MINNEAPOLIS,MN,,US,,,,,
,visa,,,MINNEAPOLIS,MN,,US,,,,,
,visa,,,MINNEAPOLIS,MN,,US,,,,,
,visa,,,MINNEAPOLIS,MN,,US,,,,,
,visa,,,MINNEAPOLIS,MN,,US,,,,,
,visa,,,MINNEAPOLIS,MN,,US,,,,,
,visa,,,MINNEAPOLIS,MN,,US,,,,,
,visa,,,MINNEAPOLIS,MN,,US,,,,,
,visa,,,MINNEAPOLIS,MN,,US,,,,,
,visa,,,HOPKINS,MN,,US,,,,,
https://www.walgreens.com/locator/walgreens-3121+e+lake+st-minneapolis-mn-55406/id=16279,walgreens,Walgreens,,Minneapolis,MN,,US,+1 612-721-4868,https://www.walgreens.com/locator/walgreens-3121+e+lake+st-minneapolis-mn-55406/id=16279,Mo-Su 09:00-21:00,Walgreens,Q1591889
https://www.walgreens.com/locator/walgreens-4547+hiawatha+ave-minneapolis-mn-55406/id=4119,walgreens,Walgreens,,Minneapolis,MN,,US,+1 612-722-4249,https://www.walgreens.com/locator/walgreens-4547+hiawatha+ave-minneapolis-mn-55406/id=4119,Mo-Su 07:00-22:00,Walgreens,Q1591889
4320__E__LAKE__ST_MINNEAPOLIS_MN_55406,wellsfargo,,4320 E LAKE ST,MINNEAPOLIS,MN,,US,+1 800-869-3557,https://www.wellsfargo.com/locator/bank/4320__E__LAKE__ST_MINNEAPOLIS_MN_55406/,,Wells Fargo,Q744149
2919__27TH__AVE__S_MINNEAPOLIS_MN_55406,wellsfargo,Wells Fargo,2919 27TH AVE S,MINNEAPOLIS,MN,,US,+1 763-329-7841,https://www.wellsfargo.com/locator/bank/2919__27TH__AVE__S_MINNEAPOLIS_MN_55406/,Mo-Fr 09:00-17:00,Wells Fargo,Q744149
2600__E__FRANKLIN__AVE_MINNEAPOLIS_MN_55406,wellsfargo,Wells Fargo,2600 E FRANKLIN AVE,MINNEAPOLIS,MN,,US,+1 612-667-1391,https://www.wellsfargo.com/locator/bank/2600__E__FRANKLIN__AVE_MINNEAPOLIS_MN_55406/,Mo-Fr 09:00-16:00,Wells Fargo,Q744149
https://locations.wendys.com/#9254146,wendys,"Wendy's 411 East Lake in Minneapolis, MN",,Minneapolis,MN,,US,+1 612-450-7728,https://locations.wendys.com/united-states/mn/minneapolis/2931-26th-ave-south,"Mo-Sa 05:00-10:30,06:00-22:00; Su 05:00-10:30,07:00-22:00",Wendy's,Q550258
142f616c2a364b8fef9264bdb6e576e0,western_union,REIDY FOOD MARKET,,Minneapolis,MN,,US,+1 612-729-6111,https://location.westernunion.com/us/mn/minneapolis/142f616c2a364b8fef9264bdb6e576e0,Mo-Fr 07:30-20:00; Sa-Su 08:00-20:00,Western Union,Q861042
