Ref,Spider,Name,Address,City,State,Zipcode,Country,Phone,Website,Hours,Brand,WikiData
546,autozone_us,AutoZone Auto Parts Oklahoma City,,Oklahoma City,OK,,US,+1 405-769-2073,https://www.autozone.com/locations/ok/oklahoma-city/9116-ne-23rd-st.html,Mo-Sa 07:30-21:00; Su 09:00-21:00,AutoZone,Q4826087
151879,bluerhino,Walgreens #9582,,Midwest City,OK,,US,+1 405-769-2712,,,Blue Rhino,Q65681213
140306,bluerhino,Walmart #3430 - Supercenter,,Midwest City,OK,,US,+1 405-769-2164,,,Blue Rhino,Q65681213
127736,bluerhino,"Familiar Food Mart, Inc. - OK13652",,Oklahoma City,OK,,US,+1 405-413-5905,,,Blue Rhino,Q65681213
93288,citi,ATM Walgreens,,Oklahoma City,OK,,US,,,,Citibank,Q857063
9654,dominos_pizza_us,Domino's Pizza,,Oklahoma City,OK,,US,+1 405-437-0032,https://pizza.dominos.com/oklahoma/oklahoma-city/9205-ne-23rd-st,Mo-Th 10:00-24:00; Fr-Sa 10:00-01:00; Su 10:00-24:00,Domino's,Q839466
https://office.jacksonhewitt.com/#27576642,jackson_hewitt,Jackson Hewitt,,Midwest City,OK,,US,+1 901-310-1641,https://office.jacksonhewitt.com/tax-preparation-services-locations/en/ok/midwest-city/9011-ne-23rd-street/53430,Mo-Th 11:00-19:00; Fr 10:00-18:00; Sa 09:00-17:00; Su 13:00-17:00,Jackson Hewitt,Q6117132
https://locations.kfc.com/#11249278,kfc,Chicken Nuggets Near Oklahoma City,,Oklahoma City,OK,,US,,https://locations.kfc.com/ok/oklahoma-city/8950-ne-23rd-street/chickennugget,Mo-Su 10:30-22:30,KFC,Q524757
7321,murphy_usa_us,,,Oklahoma City,OK,,US,+1 405-769-7960,,Mo-Sa 05:00-00:00; Su 06:00-23:30,Murphy USA,Q19604459
0000886645,phillips_66_conoco_76,ONCUE 128,,OKLAHOMA CITY,OK,,US,+1 405-762-6048,,,Phillips 66,Q1656230
8482,regal_nails_us,"Regal Nails, Salon &#038; Spa",9011 NE 23rd,Midwest City,OK,,US,+1 405-769-7300,,,Regal Nails,Q108918028
https://restaurants.subway.com/#14905010,subway,Subway,,Oklahoma City Oklahoma,OK,,US,+1 405-769-3051,https://restaurants.subway.com/united-states/ok/oklahoma-city/9115-ne-23rd-st,Mo-Su 10:00-21:00,Subway,Q244457
https://locations.tacobell.com/#6141808,taco_bell,Taco Bell,,Oklahoma City,OK,,US,+1 405-769-9174,https://locations.tacobell.com/ok/oklahoma-city/9000-ne-23rd-st.html,Mo-Su 08:00-03:00,Taco Bell,Q752941
,visa,,,OKLAHOMA CITY,OK,,US,,,,,
,visa,,,OKLAHOMA CITY,OK,,US,,,,,
,visa,,,OKLAHOMA CITY,OK,,US,,,,,
,visa,,,OKLAHOMA CITY,OK,,US,,,,,
,visa,,,MIDWEST CITY,OK,,US,,,,,
,visa,,,OKLAHOMA CITY,OK,,US,,,,,
,visa,,,MIDWEST CITY,OK,,US,,,,,
,visa,,,SPENCER,OK,,US,,,,,
,visa,,,MIDWEST CITY,OK,,US,,,,,
https://www.walgreens.com/locator/walgreens-8917+ne+23rd+st-oklahoma+city-ok-73141/id=9582,walgreens,Walgreens,,Oklahoma City,OK,,US,+1 405-769-2712,https://www.walgreens.com/locator/walgreens-8917+ne+23rd+st-oklahoma+city-ok-73141/id=9582,Mo-Su 09:00-21:00,Walgreens,Q1591889
154172013ea6339ab900b5f91a5a418d,western_union,WALMART #003430,,Oklahoma City,OK,,US,+1 405-769-2164,https://location.westernunion.com/us/ok/oklahoma-city/154172013ea6339ab900b5f91a5a418d,Mo-Sa 08:00-20:00; Su 10:00-18:00,Western Union,Q861042
