Ref,Spider,Name,Address,City,State,Zipcode,Country,Phone,Website,Hours,Brand,WikiData
152218,bluerhino,Walgreens #4049,,El Sobrante,CA,,US,+1 510-758-1294,,,Blue Rhino,Q65681213
170540,bluerhino,Quick Gas & Mart,,El Sobrante,CA,,US,+1 510-417-2319,,,Blue Rhino,Q65681213
209579,bluerhino,Jacksons #203,,El Sobrante,CA,,US,+1 510-222-2197,,,Blue Rhino,Q65681213
90529,citi,ATM Walgreens,,El Sobrante,CA,,US,,,,Citibank,Q857063
900086,extra_space_storage,El Sobrante Self Storage at 3500 San Pablo Dam Rd,,El Sobrante,CA,,US,+1 510-223-8565,https://www.extraspace.com/storage/facilities/us/california/el_sobrante/900086/,Mo-Fr 09:30-18:00; Sa 09:00-17:30,Extra Space Storage,Q5422162
200324515,exxonmobil,TEXAS GAS,,SAN PABLO,CA,,US,+1 510-243-6601,https://www.exxon.com/en/find-station/mobil-sanpablo-ca-texasgas-200324515,Mo-Fr 06:00-22:00; Sa-Su 07:00-22:00,Mobil,Q109676002
3709,h_r_block,H&R Block,,El Sobrante,CA,,US,+1 510-223-7705,https://www.hrblock.com/local-tax-offices/california/el-sobrante/princeton-plaza/3709/,,H&R Block,Q5627799
https://locations.jackinthebox.com/us/ca/el-sobrante/4080-san-pablo-dam-rd,jackinthebox,Jack in the Box,,El Sobrante,CA,,US,+1 510-223-3354,https://locations.jackinthebox.com/us/ca/el-sobrante/4080-san-pablo-dam-rd,Mo-Su 06:00-02:00,Jack in the Box,Q1538507
https://healthy.kaiserpermanente.org/northern-california/facilities/greenridge-post-acute-328509,kaiser_permanente_us,Greenridge Post-Acute,,El Sobrante,CA,,US,+1 510-758-3100,https://healthy.kaiserpermanente.org/northern-california/facilities/greenridge-post-acute-328509,,Kaiser Permanente,Q1721601
https://healthy.kaiserpermanente.org/northern-california/facilities/davita-el-sobrante-dialysis-339757,kaiser_permanente_us,DaVita El Sobrante Dialysis,,San Pablo,CA,,US,+1 866-544-6741,https://healthy.kaiserpermanente.org/northern-california/facilities/davita-el-sobrante-dialysis-339757,,Kaiser Permanente,Q1721601
301367,kindercare,El Sobrante KinderCare,,San Pablo,CA,,US,,https://www.kindercare.com/our-centers/san-pablo/ca/301367,,KinderCare Learning Centers,Q6410551
86093,little_free_library,Apple Green Little Free Library #86093 Richmond CA,,Richmond,CA,,US,,,,Little Free Library,Q6650101
159596,little_free_library,Nina’s Tiny Library #159596 Richmond CA,,Richmond,CA,,US,,,,Little Free Library,Q6650101
148009,little_free_library,Garden Library #148009 El Sobrante CA,,El Sobrante,CA,,US,,,,Little Free Library,Q6650101
134428,little_free_library,Catherine & Ed’s Little Free Library #134428 El Sobrante CA,,El Sobrante,CA,,US,,,,Little Free Library,Q6650101
115901,little_free_library,Angela Sinclair #115901 El Sobrante CA,,El Sobrante,CA,,US,,,,Little Free Library,Q6650101
180116,little_free_library,Green Team 94803 and a group of neighbors are stewards of this Giving Tree #180116 El Sobrante CA,,El Sobrante,CA,,US,,,,Little Free Library,Q6650101
156238,little_free_library,Birdie’s Books #156238 El Sobrante CA,,El Sobrante,CA,,US,,,,Little Free Library,Q6650101
138324,little_free_library,Fran Library #138324 Richmond CA,,Richmond,CA,,US,,,,Little Free Library,Q6650101
103304,little_free_library,Hatfield’s Little Free Library #103304 Richmond CA,,Richmond,CA,,US,,,,Little Free Library,Q6650101
43293,little_free_library,Kat Johnson #43293 El Sobrante CA,,El Sobrante,CA,,US,,,,Little Free Library,Q6650101
https://www.publicstorage.com/self-storage-ca-san-pablo/1517.html,public_storage_us,Public Storage,,San Pablo,CA,,US,+1 510-417-4307,https://www.publicstorage.com/self-storage-ca-san-pablo/1517.html,,Public Storage,Q1156045
https://stations.sinclairoil.com/ca/el-sobrante/5329a-san-pablo-dam-rd,sinclair_us,Sinclair Gas Station,,El Sobrante,CA,,US,+1 510-758-0261,https://stations.sinclairoil.com/ca/el-sobrante/5329a-san-pablo-dam-rd,Mo-Su 06:00-21:00,Sinclair,Q1290900
https://restaurants.subway.com/#20711836,subway,Subway Princeton Plaza,,San Pablo,CA,,US,+1 510-662-6029,https://restaurants.subway.com/united-states/ca/san-pablo/3340-m-san-pablo-dam-road,Mo-Fr 07:00-21:00; Sa 08:00-21:00; Su 09:00-20:00,Subway,Q244457
033225,uhaul,El Sobrante Arco,3753 San Pablo Dam Rd,El Sobrante,CA,,US,+1 510-243-6749,,Mo-Fr 00:00-18:00; Sa 00:00-17:00,U-Haul,Q7862902
053019,uhaul,Windy Flat Inc,3131 San Pablo Dam Rd,El Sobrante,CA,,US,+1 510-758-5743,,Mo-Tu 00:00-17:00; Th-Fr 00:00-17:00; Sa 00:00-13:00,U-Haul,Q7862902
1440506,usps,EL SOBRANTE,,EL SOBRANTE,CA,,US,+1 510-262-6910,,Mo-Fr 08:30-17:00; Sa 09:00-13:00,United States Postal Service,Q668687
9480300016,usps_collection_boxes,USPS COLLECTION BOX - BLUE BOX,535 APPIAN WAY,SAN PABLO,CA,,US,,,,United States Postal Service,Q668687
9480300026,usps_collection_boxes,USPS COLLECTION BOX - PO LOBBY,535 APPIAN WAY,SAN PABLO,CA,,US,,,,United States Postal Service,Q668687
9480300027,usps_collection_boxes,USPS COLLECTION BOX - APC,535 APPIAN WAY,SAN PABLO,CA,,US,,,,United States Postal Service,Q668687
9480300011,usps_collection_boxes,USPS COLLECTION BOX - BLUE BOX,5020 CARRIAGE DR,SAN PABLO,CA,,US,,,,United States Postal Service,Q668687
9480300013,usps_collection_boxes,USPS COLLECTION BOX - BLUE BOX,5524 CONESTOGA WAY,SAN PABLO,CA,,US,,,,United States Postal Service,Q668687
9480300012,usps_collection_boxes,USPS COLLECTION BOX - BLUE BOX,5444 COUNTRY VIEW DR,SAN PABLO,CA,,US,,,,United States Postal Service,Q668687
9480300008,usps_collection_boxes,USPS COLLECTION BOX - BLUE BOX,4251 HILLTOP DR,SAN PABLO,CA,,US,,,,United States Postal Service,Q668687
9480300007,usps_collection_boxes,USPS COLLECTION BOX - BLUE BOX,4352 APPIAN WAY,SAN PABLO,CA,,US,,,,United States Postal Service,Q668687
9480300001,usps_collection_boxes,USPS COLLECTION BOX - BLUE BOX,3716 SAN PABLO DAM RD,SAN PABLO,CA,,US,,,,United States Postal Service,Q668687
9480300009,usps_collection_boxes,USPS COLLECTION BOX - BLUE BOX,3535 EL PORTAL DR,SAN PABLO,CA,,US,,,,United States Postal Service,Q668687
9480300000,usps_collection_boxes,USPS COLLECTION BOX - BLUE BOX,3360 SAN PABLO DAM RD,SAN PABLO,CA,,US,,,,United States Postal Service,Q668687
0000031232,valero,VALERO EL SOBRANTE,,EL SOBRANTE,CA,,US,+1 510-223-7770,https://locations.valero.com/en-us/LocationDetails/Index/3753-SAN-PABLO-DAM-ROAD/0000031232,,Valero,Q1283291
https://vcahospitals.com/animal-care-clinic,vca,VCA Animal Care Clinic,,San Pablo,CA,,US,+1 510-222-9966,https://vcahospitals.com/animal-care-clinic,Mo-Fr 08:00-19:00; Sa 08:00-18:00,VCA,Q7906620
,visa,,,EL SOBRANTE,CA,,US,,,,,
,visa,,,RICHMOND,CA,,US,,,,,
,visa,,,EL SOBRANTE,CA,,US,,,,,
,visa,,,EL SOBRANTE,CA,,US,,,,,
,visa,,,EL SOBRANTE,CA,,US,,,,,
,visa,,,EL SOBRANTE,CA,,US,,,,,
,visa,,,EL SOBRANTE,CA,,US,,,,,
,visa,,,EL SOBRANTE,CA,,US,,,,,
,visa,,,EL SOBRANTE,CA,,US,,,,,
,visa,,,EL SOBRANTE,CA,,US,,,,,
,visa,,,EL SOBRANTE,CA,,US,,,,,
,visa,,,EL SOBRANTE,CA,,US,,,,,
,visa,,,RICHMOND,CA,,US,,,,,
,visa,,,EL SOBRANTE,CA,,US,,,,,
,visa,,,EL SOBRANTE,CA,,US,,,,,
,visa,,,EL SOBRANTE,CA,,US,,,,,
,visa,,,EL SOBRANTE,CA,,US,,,,,
,visa,,,EL SOBRANTE,CA,,US,,,,,
,visa,,,EL SOBRANTE,CA,,US,,,,,
,visa,,,EL SOBRANTE,CA,,US,,,,,
,visa,,,EL SOBRANTE,CA,,US,,,,,
,visa,,,EL SOBRANTE,CA,,US,,,,,
,visa,,,EL SOBRANTE,CA,,US,,,,,
,visa,,,EL SOBRANTE,CA,,US,,,,,
,visa,,,EL SOBRANTE,CA,,US,,,,,
,visa,,,EL SOBRANTE,CA,,US,,,,,
,visa,,,EL SOBRANTE,CA,,US,,,,,
,visa,,,EL SOBRANTE,CA,,US,,,,,
,visa,,,SAN PABLO,CA,,US,,,,,
,visa,,,SAN PABLO,CA,,US,,,,,
,visa,,,SAN PABLO,CA,,US,,,,,
https://www.walgreens.com/locator/walgreens-3630+san+pablo+dam+rd-el+sobrante-ca-94803/id=4049,walgreens,Walgreens,,El Sobrante,CA,,US,+1 510-758-2365,https://www.walgreens.com/locator/walgreens-3630+san+pablo+dam+rd-el+sobrante-ca-94803/id=4049,Mo-Su 08:00-22:00,Walgreens,Q1591889
3360__SAN__PABLO__DAM__RD_SAN__PABLO_CA_94803,wellsfargo,,3360 SAN PABLO DAM RD,SAN PABLO,CA,,US,+1 800-869-3557,https://www.wellsfargo.com/locator/bank/3360__SAN__PABLO__DAM__RD_SAN__PABLO_CA_94803/,,Wells Fargo,Q744149
