Ref,Spider,Name,Address,City,State,Zipcode,Country,Phone,Website,Hours,Brand,WikiData
https://stores.advanceautoparts.com/fl/palm-bay/4895-babcock-st-ne,advance_auto_parts_us,Advance Auto Parts,,Palm Bay,FL,,US,+1 321-676-7682,https://stores.advanceautoparts.com/fl/palm-bay/4895-babcock-st-ne,Mo-Sa 07:30-21:00; Su 09:00-20:00,Advance Auto Parts,Q4686051
https://stores.aldi.us/#4420322,aldi_sud_us,ALDI  820 Palm Bay Rd NE,,Palm Bay,FL,,US,+1 866-474-1083,https://stores.aldi.us/fl/palm-bay/820-palm-bay-rd-ne,"Mo-Su 08:30-20:00,09:00-20:00",ALDI,Q41171672
2097,anytime_fitness,Anytime Fitness,,Melbourne,FL,,US,+1 321-473-8923,https://www.anytimefitness.com/gyms/2097/melbourne-fl-32905/,,Anytime Fitness,Q4778364
https://restaurants.applebees.com/en-us/fl/melbourne/1545-palm-bay-road-87083,applebees,Connect with this Applebee's,,Melbourne,FL,,US,+1 321-951-4440,https://restaurants.applebees.com/en-us/fl/melbourne/1545-palm-bay-road-87083,Mo-We 11:00-24:00; Th-Sa 11:00-01:00; Su 11:00-24:00,Applebees,Q621532
424,autozone_us,AutoZone Auto Parts Palm Bay,,Palm Bay,FL,,US,+1 321-952-0662,https://www.autozone.com/locations/fl/palm-bay/4601-ne-babcock-st.html,Mo-Sa 07:30-21:00; Su 08:00-20:00,AutoZone,Q4826087
https://locators.bankofamerica.com/fl/palmbay/financial-centers-palm-bay-12187.html,bankofamerica,Bank of America Financial Center with Drive-Thru ATM & Teller Services | Palm Bay,,Palm Bay,FL,,US,+1 321-723-1118,https://locators.bankofamerica.com/fl/palmbay/financial-centers-palm-bay-12187.html,Mo-Fr 09:00-17:00; Sa 09:00-14:00,Bank of America,Q487907
https://stores.basspro.com/us/fl/palm-bay/750-bass-pro-dr-ne.html,bassproshops,"Bass Pro Shops Palm Bay, FL",,Palm Bay,FL,,US,+1 321-674-3700,https://stores.basspro.com/us/fl/palm-bay/750-bass-pro-dr-ne.html,Mo-Sa 09:00-20:00; Su 10:00-19:00,Bass Pro Shops,Q4867953
557,bealls_us,Bealls,,Palm Bay,FL,,US,+1 321-951-7616,https://stores.bealls.com/fl/palmbay/clothing-store-557.html,Mo-Th 09:00-21:00; Fr-Sa 09:00-21:30; Su 10:00-20:00,Bealls,Q4876153
0126,bjswholesale,Melbourne,,Melbourne,FL,,US,+1 321-956-8660,https://www.bjs.com/mapDetail;city=0126,Mo-Sa 08:00-21:00,BJ's Wholesale,Q4835754
153104,bluerhino,Walgreens #5018,,Melbourne,FL,,US,+1 321-676-3556,,,Blue Rhino,Q65681213
228235,bluerhino,U-Haul #781071,,Palm Bay,FL,,US,+1 321-837-9625,,,Blue Rhino,Q65681213
153009,bluerhino,Walgreens #6463,,Palm Bay,FL,,US,+1 321-409-1148,,,Blue Rhino,Q65681213
229695,bluerhino,Thrifty Specialty Produce and Meats #81-0430,,Palm Bay,FL,,US,+1 321-726-8007,,,Blue Rhino,Q65681213
238533,bluerhino,Circle K #2707687,,Palm Bay,FL,,US,+1 321-983-4500,,,Blue Rhino,Q65681213
194015,bluerhino,Family Dollar #11931,,PALM BAY,FL,,US,+1 321-574-6851,,,Blue Rhino,Q65681213
82220729361903290500100000000000,bp,BP,,Palm Bay,FL,,US,+1 321-728-9339,,24/7,BP,Q152057
32101749802803290500100000000000,bp,BP,,Palm Bay,FL,,US,+1 321-952-9609,,,BP,Q152057
43853788505023290500100000000000,bp,BP,,Palm Bay,FL,,US,+1 321-409-5636,,Mo-Sa 06:30-22:00; Su 07:00-21:00,BP,Q152057
https://locations.carrabbas.com/#15502905,carrabbasitaliangrill,"Carrabba's Palm Bay, FL",,Palm Bay,FL,,US,+1 321-956-1900,https://locations.carrabbas.com/florida/palm-bay/1575-palm-bay-road,Mo-Th 11:00-22:00; Fr-Sa 11:00-23:00; Su 11:00-21:00,Carrabba's Italian Grill,Q5045999
380639,chevron,Chevron Station #380639,4750 DIXIE HWY NE,PALM BAY,FL,,US,+1 321-409-0303,,,Chevron,Q319642
001.005.0101,chilis,Palm Bay,,Palm Bay,FL,,US,+1 321-984-0245,https://www.chilis.com/locations/us/florida/palm-bay/palm-bay/,Mo-Th 11:00-23:00; Fr-Sa 11:00-24:00; Su 11:00-23:00,Chili's,Q1072948
41726,citi,ATM Circle K,,Palm Bay,FL,,US,,,,Citibank,Q857063
27003,citi,ATM 7ELEVEN-FCTI,,Palm Bay,FL,,US,,,,Citibank,Q857063
48206,citi,ATM CVS,,Palm Bay,FL,,US,,,,Citibank,Q857063
43083,citi,ATM Circle K,,Palm Bay,FL,,US,,,,Citibank,Q857063
87095,citi,ATM Walgreens,,Melbourne,FL,,US,,,,Citibank,Q857063
25064,citi,ATM 7ELEVEN-FCTI,,Melbourne,FL,,US,,,,Citibank,Q857063
91677,citi,ATM Walgreens,,Palm Bay,FL,,US,,,,Citibank,Q857063
32769,citi,ATM 7ELEVEN-FCTI,,Palm Bay,FL,,US,,,,Citibank,Q857063
95602,citi,ATM Winn Dixie,,Palm Bay,FL,,US,,,,Citibank,Q857063
om_fl_palm-bay_4700-babcock-st-ne,cititrends,Citi Trends,,Palm Bay,FL,,US,+1 321-448-2633,https://locations.cititrends.com/fl/palm-bay/4700-babcock-st-ne.html,Mo 11:00-20:00; Tu 11:00-20:00; We 11:00-20:00; Th 11:00-20:00; Fr 10:00-21:00; Sa 10:00-21:00; Su 12:00-18:00,Citi Trends,Q5122438
ATM-1830,citizens_us,,,Palm Bay,FL,,US,,,,Citizens,Q5122694
,credit_union_us,Launch CU,,Melbourne,FL,,US,+1 321-455-9400,,Mo-We 09:00-05:00; Th-Fr 09:00-06:00,,
,credit_union_us,Launch CU,,Palm Bay,FL,,US,+1 321-455-9400,,Mo-We 09:00-05:00; Th-Fr 09:00-06:00,,
80193318,cricket_wireless,Cricket Wireless Authorized Retailer,,Palm Bay,FL,,US,+1 321-951-4000,https://www.cricketwireless.com/stores/ll/US/FL/Palm-Bay/4651-Babcock-St-NE,Mo-Sa 10:00-19:00; Su 12:00-18:00,Cricket Wireless,Q5184987
520533,cumberland_farms_us,Cumberland Farms,,PALM BAY,FL,,US,+1 321-953-4642,https://www.cumberlandfarms.com/find-us/generic-store-page/?id=009778,,Cumberland Farms,Q1143685
3294,cvs_us,CVS Pharmacy,,Palm Bay,FL,,US,+1 321-725-9961,https://www.cvs.com/store-locator/palm-bay-fl-pharmacies/1599-palm-bay-rd-ne-palm-bay-fl-32905/storeid=3294,Mo-Su 07:00-23:00,CVS Pharmacy,Q2078880
247017,dennys,Denny's,,Palm Bay,FL,,US,+1 321-676-4433,https://locations.dennys.com/FL/PALM-BAY/247017,24/7,Denny's,Q1189695
18285,dollar_general,Dollar General,,Palm Bay,FL,,US,+1 321-405-3260,https://www.dollargeneral.com/store-directory/fl/palm-bay/18285,Mo-Su 08:00-22:00,Dollar General,Q145168
5154,dominos_pizza_us,Domino's Pizza,,Palm Bay,FL,,US,+1 321-984-1712,https://pizza.dominos.com/florida/palm-bay/4700-babcock-st-ne,Mo-Th 11:00-24:00; Fr-Sa 11:00-01:00; Su 11:00-24:00,Domino's,Q839466
335674,dunkin_us,Dunkin',,Palm Bay,FL,,US,+1 321-723-7170,https://locations.dunkindonuts.com/en/fl/palm-bay/898-palm-bay-rd-ne/335674,Mo-Sa 04:00-21:00; Su 05:00-21:00,Dunkin',Q847743
308738,dunkin_us,Dunkin',,Palm Bay,FL,,US,+1 321-674-9959,https://locations.dunkindonuts.com/en/fl/palm-bay/4897-babcock-st-ne/308738,Mo-Su 04:00-20:00,Dunkin',Q847743
https://www.edwardjones.com/us-en/financial-advisor/kaori-fischer,edwardjones,Kaori S Fischer,,Palm Bay,FL,,US,+1 321-499-3558,https://www.edwardjones.com/us-en/financial-advisor/kaori-fischer,Mo-Th 09:00-17:00; Fr 09:00-16:00,Edward Jones,Q5343830
520533,eg_america_us,Cumberland Farms,,PALM BAY,FL,,US,+1 321-953-4642,https://www.cumberlandfarms.com/find-us/generic-store-page/?id=009778,,Cumberland Farms,Q1143685
E10730,enterprise,Palm Bay,,Palm Bay,FL,,US,+1 321-728-7755,,,Enterprise Rent-A-Car,Q17085454
7851,extra_space_storage,Palm Bay Self Storage at 1050 Clearmont St NE,,Palm Bay,FL,,US,+1 321-319-7640,https://www.extraspace.com/storage/facilities/us/florida/palm_bay/7851/,Mo-Fr 09:30-18:00; Sa 09:00-17:30,Extra Space Storage,Q5422162
200326794,exxonmobil,SUNSHINE 825,,PALM BAY,FL,,US,+1 321-473-8906,https://www.exxon.com/en/find-station/mobil-palmbay-fl-sunshine825-200326794,24/7,Mobil,Q109676002
200320955,exxonmobil,GIANT 210,,PALM BAY,FL,,US,+1 321-951-2123,https://www.exxon.com/en/find-station/exxon-palmbay-fl-giant210-200320955,Mo-Su 06:00-23:00,Exxon,Q109675651
200314846,exxonmobil,SUNSHINE FOOD MART #43,,PALM BAY,FL,,US,+1 321-724-5851,https://www.exxon.com/en/find-station/exxon-palmbay-fl-sunshinefoodmart43-200314846,Mo-Sa 06:30-22:00; Su 07:00-21:00,Exxon,Q109675651
31931,family_dollar_us,FAMILY DOLLAR #11931,,Palm Bay,FL,,US,+1 321-327-6224,https://www.familydollar.com/locations/fl/palm-bay/31931/,Mo-Su 08:00-22:00,Family Dollar,Q5433101
https://local.fedex.com/#25203692,fedex,,,Palm Bay,FL,,US,+1 800-463-3339,https://local.fedex.com/en-us/fl/palm-bay/ec5ss,,FedEx,Q459477
https://local.fedex.com/#25457884,fedex,,,Palm Bay,FL,,US,+1 800-463-3339,https://local.fedex.com/en-us/fl/palm-bay/00hc5,,FedEx,Q459477
https://local.fedex.com/#27750097,fedex,FedEx Authorized ShipCenter,,Palm Bay,FL,,US,+1 321-951-4354,https://local.fedex.com/en-us/fl/palm-bay/004rp,,FedEx,Q459477
https://local.fedex.com/#25205257,fedex,,,Melbourne,FL,,US,+1 800-463-3339,https://local.fedex.com/en-us/fl/melbourne/ebtnr,,FedEx,Q459477
7161,firestone_auto_care,Firestone Complete Auto Care,,Palm Bay,FL,,US,+1 321-473-4149,https://local.firestonecompleteautocare.com/florida/palm-bay/1560-palm-bay-rd-ne/,,Firestone,Q420837
2897,first_cash,Cash America Pawn,,Palm Bay,FL,,US,+1 321-473-1099,,,Cash America,Q5048636
4718,fresenius_kidney_care_us,Fresenius Kidney Care Brevard,,Palm Bay,FL,,US,+1 800-881-5101,https://www.freseniuskidneycare.com/dialysis-centers/florida/4718,Mo 06:00-21:00; Tu 06:00-17:00; We 06:00-21:00; Th 06:00-17:00; Fr 06:00-21:00; Sa 06:00-17:00,,
https://www.goldencorral.com/locations/location-detail/865/golden-corral-palm-bay-road/,golden_corral,"Golden Corral 865, Palm bay, FL",,Palm bay,FL,,US,+1 321-722-4142,https://www.goldencorral.com/locations/location-detail/865/golden-corral-palm-bay-road/,,Golden Corral,Q4039560
8594,h_r_block,H&R Block,,Palm Bay,FL,,US,+1 321-723-7794,https://www.hrblock.com/local-tax-offices/florida/palm-bay/4651-s-babcock-st-ne/8594/,,H&R Block,Q5627799
https://locations.ironmountain.com/fl/palm-bay/im024/,iron_mountain,"Iron Mountain in 2280 Wilhelmina Court, Palm Bay, Florida | Secure Shredding, Scanning, IT Asset Disposition, & Records Management",,Palm Bay,FL,,US,+1 800-899-4766,https://locations.ironmountain.com/fl/palm-bay/im024/,,Iron Mountain Incorporated,Q1673079
4305,key_food_us,Key Food Family of Supermarkets,,Palm Bay,FL,,US,+1 305-621-2495,https://keyfoodstores.keyfood.com/store/store/4305,Mo-Su 07:00-22:00,Key Food,Q6398037
https://locations.kfc.com/#11248369,kfc,Chicken Nuggets Near Palm Bay,,Palm Bay,FL,,US,,https://locations.kfc.com/fl/palm-bay/4901-babcock-street-ne/chickennugget,Mo-Su 10:30-22:00,KFC,Q524757
160509,marathon_petroleum_us,COUNTRY FARMS 1,,Palm Bay,FL,,US,+1 321-723-9508,,,Marathon,Q458363
https://locations.oreillyauto.com/fl/melbourne/check-engine-light-testing-4685.html,oreilly,Your Melbourne O'Reilly Auto Parts Store,,Melbourne,FL,,US,+1 321-724-4879,https://locations.oreillyauto.com/fl/melbourne/check-engine-light-testing-4685.html,Mo-Sa 07:30-22:00; Su 08:00-21:00,O'Reilly Auto Parts,Q7071951
https://locations.oreillyauto.com/fl/melbourne/wiper-installation-4685.html,oreilly,Your Melbourne O'Reilly Auto Parts Store,,Melbourne,FL,,US,+1 321-724-4879,https://locations.oreillyauto.com/fl/melbourne/wiper-installation-4685.html,Mo-Sa 07:30-22:00; Su 08:00-21:00,O'Reilly Auto Parts,Q7071951
https://locations.oreillyauto.com/fl/melbourne/battery-testing-4685.html,oreilly,Your Melbourne O'Reilly Auto Parts Store,,Melbourne,FL,,US,+1 321-724-4879,https://locations.oreillyauto.com/fl/melbourne/battery-testing-4685.html,Mo-Sa 07:30-22:00; Su 08:00-21:00,O'Reilly Auto Parts,Q7071951
https://locations.oreillyauto.com/fl/melbourne/autopartes-4685.html,oreilly,Tu tienda O'Reilly Auto Parts en Melbourne,,Melbourne,FL,,US,+1 321-724-4879,https://locations.oreillyauto.com/fl/melbourne/autopartes-4685.html,Mo-Sa 07:30-22:00; Su 08:00-21:00,O'Reilly Auto Parts,Q7071951
https://locations.papajohns.com/#10691398,papa_johns,Papa John's,,Palm Bay,FL,,US,+1 321-723-7272,https://locations.papajohns.com/united-states/fl/32905/palm-bay/4706-babcock-street-ne,Mo-Th 10:00-24:00; Fr-Sa 10:00-01:00; Su 10:00-24:00,Papa John's Pizza,Q2759586
560224,penske,Pnp Enterprises,,PALM BAY,FL,,US,+1 321-722-0636,https://www.pensketruckrental.com/locations/us/florida/palm_bay/560224/,,Penske,Q81234570
93,pinch_a_penny_us,Pinch A Penny,,Palm Bay,FL,,US,+1 321-728-8116,https://pinchapenny.com/stores/palm-bay-fl-93,Mo-Fr 09:00-18:00; Sa 09:00-17:00; Su 11:00-15:00,Pinch A Penny,Q121436109
fl_palm-bay_4850-babcock-st-ne,pizza_hut_us,4850 Babcock St NE,,Palm Bay,FL,,US,+1 321-728-2500,https://locations.pizzahut.com/fl/palm-bay/4850-babcock-st-ne,,Pizza Hut,Q191615
https://www.publicstorage.com/self-storage-fl-palm-bay/6013.html,public_storage_us,Public Storage,,Palm Bay,FL,,US,+1 321-758-9320,https://www.publicstorage.com/self-storage-fl-palm-bay/6013.html,,Public Storage,Q1156045
https://www.publicstorage.com/self-storage-fl-palm-bay/2410.html,public_storage_us,Public Storage,,Palm Bay,FL,,US,+1 321-261-0403,https://www.publicstorage.com/self-storage-fl-palm-bay/2410.html,,Public Storage,Q1156045
https://www.publicstorage.com/self-storage-fl-palm-bay/453.html,public_storage_us,Public Storage,,Palm Bay,FL,,US,+1 321-426-1879,https://www.publicstorage.com/self-storage-fl-palm-bay/453.html,,Public Storage,Q1156045
2822,rentacenter,Rent-A-Center,,Melbourne,FL,,US,+1 321-728-4234,https://locations.rentacenter.com/florida/melbourne/1515-palm-bay-rd/,Mo-Sa 10:00-18:00,Rent-A-Center,Q7313497
32774,seven_eleven_ca_us,7-11 Str   800 Palm Bay Rd Ne,,Palm Bay,FL,,US,+1 321-722-3286,https://www.7-eleven.com/locations/fl/palm-bay/800-palm-bay-rd-ne-32774,,7-Eleven,Q259340
31927,smilebrands,Bright Now! Dental Palm Bay,1051 Port Malabar Boulevard NE,Palm Bay,FL,,US,+1 321-729-6060,https://www.brightnow.com/dentist-near-me/palm-bay-dentist/21050/,,Smile Brands Inc.,Q108286823
1595-palm-bay-road-suite-101,staples,"Staples Palm Bay, FL",,Palm Bay,FL,,US,,https://stores.staples.com/fl/palm-bay/1595-palm-bay-road-suite-101,Mo-Fr 09:00-20:00; Sa 10:00-18:00; Su 12:00-17:00,Staples,Q785943
https://restaurants.subway.com/#14904347,subway,Subway,,Palm Bay Brevard,FL,,US,+1 321-676-2488,https://restaurants.subway.com/united-states/fl/palm-bay/4870-babcock-st-ne,Mo-Sa 08:00-24:00; Su 09:00-24:00,Subway,Q244457
https://locations.tacobell.com/#15440680,taco_bell,Taco Bell,,Palm Bay,FL,,US,+1 321-724-8826,https://locations.tacobell.com/fl/palm-bay/1386-palm-bay-road-ne.html,Mo-Su 07:00-04:00,Taco Bell,Q752941
1438786,usps,PALM BAY,,PALM BAY,FL,,US,+1 321-723-6962,,Mo-Fr 09:00-17:00; Sa 09:00-12:00,United States Postal Service,Q668687
3290500008,usps_collection_boxes,USPS COLLECTION BOX - BLUE BOX,4711 BABCOCK ST NE,PALM BAY,FL,,US,,,,United States Postal Service,Q668687
3290500016,usps_collection_boxes,USPS COLLECTION BOX - PO LOBBY,4660 LIPSCOMB ST NE,PALM BAY,FL,,US,,,,United States Postal Service,Q668687
3290500018,usps_collection_boxes,USPS COLLECTION BOX - BLUE BOX,4660 LIPSCOMB ST NE,PALM BAY,FL,,US,,,,United States Postal Service,Q668687
3290500026,usps_collection_boxes,USPS COLLECTION BOX - PO LOBBY,4660 LIPSCOMB ST NE,PALM BAY,FL,,US,,,,United States Postal Service,Q668687
3290500032,usps_collection_boxes,USPS COLLECTION BOX - PO LOBBY,4660 LIPSCOMB ST NE,PALM BAY,FL,,US,,,,United States Postal Service,Q668687
3290500004,usps_collection_boxes,USPS COLLECTION BOX - BLUE BOX,5270 BABCOCK ST NE,PALM BAY,FL,,US,,,,United States Postal Service,Q668687
3290500001,usps_collection_boxes,USPS COLLECTION BOX - BLUE BOX,2499 PORT MALABAR BLVD NE,PALM BAY,FL,,US,,,,United States Postal Service,Q668687
https://vcahospitals.com/village-fl,vca,VCA Village Animal Hospital,,Palm Bay,FL,,US,+1 321-725-9770,https://vcahospitals.com/village-fl,Mo-We 08:00-20:00; Th-Fr 08:00-18:00; Sa 08:00-15:00,VCA,Q7906620
,visa,,,PALM BAY,FL,,US,,,,,
,visa,,,PALM BAY,FL,,US,,,,,
,visa,,,PALM BAY,FL,,US,,,,,
,visa,,,PALM BAY,FL,,US,,,,,
,visa,,,PALM BAY,FL,,US,,,,,
,visa,,,PALM BAY,FL,,US,,,,,
,visa,,,PALM BAY,FL,,US,,,,,
,visa,,,PALM BAY,FL,,US,,,,,
,visa,,,PALM BAY,FL,,US,,,,,
,visa,,,PALM BAY,FL,,US,,,,,
,visa,,,PALM BAY,FL,,US,,,,,
,visa,,,PALM BAY,FL,,US,,,,,
,visa,,,PALM BAY,FL,,US,,,,,
,visa,,,PALM BAY,FL,,US,,,,,
,visa,,,PALM BAY,FL,,US,,,,,
,visa,,,PALM BAY,FL,,US,,,,,
,visa,,,PALM BAY,FL,,US,,,,,
,visa,,,PALM BAY,FL,,US,,,,,
,visa,,,PALM BAY,FL,,US,,,,,
,visa,,,PALM BAY,FL,,US,,,,,
,visa,,,PALM BAY,FL,,US,,,,,
,visa,,,PALM BAY,FL,,US,,,,,
,visa,,,PALM BAY,FL,,US,,,,,
,visa,,,PALM BAY,FL,,US,,,,,
,visa,,,PALM BAY,FL,,US,,,,,
,visa,,,PALM BAY,FL,,US,,,,,
,visa,,,PALM BAY,FL,,US,,,,,
,visa,,,PALM BAY,FL,,US,,,,,
,visa,,,PALM BAY,FL,,US,,,,,
,visa,,,PALM BAY,FL,,US,,,,,
,visa,,,PALM BAY,FL,,US,,,,,
,visa,,,PALM BAY,FL,,US,,,,,
,visa,,,PALM BAY,FL,,US,,,,,
,visa,,,PALM BAY,FL,,US,,,,,
,visa,,,MELBOURNE,FL,,US,,,,,
,visa,,,PALM BAY,FL,,US,,,,,
,visa,,,PALM BAY,FL,,US,,,,,
,visa,,,PALM BAY,FL,,US,,,,,
,visa,,,PALM BAY,FL,,US,,,,,
,visa,,,PALM BAY,FL,,US,,,,,
,visa,,,PALM BAY,FL,,US,,,,,
,visa,,,PALM BAY,FL,,US,,,,,
,visa,,,PALM BAY,FL,,US,,,,,
,visa,,,PALM BAY,FL,,US,,,,,
,visa,,,PALM BAY,FL,,US,,,,,
,visa,,,PALM BAY,FL,,US,,,,,
,visa,,,PALM BAY,FL,,US,,,,,
,visa,,,PALM BAY,FL,,US,,,,,
,visa,,,PALM BAY,FL,,US,,,,,
,visa,,,PALM BAY,FL,,US,,,,,
,visa,,,PALM BAY,FL,,US,,,,,
,visa,,,PALM BAY,FL,,US,,,,,
,visa,,,PALM BAY,FL,,US,,,,,
,visa,,,PALM BAY,FL,,US,,,,,
,visa,,,PALM BAY,FL,,US,,,,,
,visa,,,PALM BAY,FL,,US,,,,,
,visa,,,PALM BAY,FL,,US,,,,,
,visa,,,PALM BAY,FL,,US,,,,,
,visa,,,PALM BAY,FL,,US,,,,,
,visa,,,MELBOURNE,FL,,US,,,,,
,visa,,,PALM BAY,FL,,US,,,,,
,visa,,,PALM BAY,FL,,US,,,,,
,visa,,,MELBOURNE,FL,,US,,,,,
,visa,,,MELBOURNE,FL,,US,,,,,
,visa,,,PALM BAY,FL,,US,,,,,
,visa,,,PALM BAY,FL,,US,,,,,
,visa,,,MELBOURNE,FL,,US,,,,,
,visa,,,PALM BAY,FL,,US,,,,,
,visa,,,PALM BAY,FL,,US,,,,,
,visa,,,PALM BAY,FL,,US,,,,,
,visa,,,PALM BAY,FL,,US,,,,,
,visa,,,PALM BAY,FL,,US,,,,,
,visa,,,PALM BAY,FL,,US,,,,,
,visa,,,PALM BAY,FL,,US,,,,,
,visa,,,PALM BAY,FL,,US,,,,,
,visa,,,PALM BAY,FL,,US,,,,,
,visa,,,PALM BAY,FL,,US,,,,,
,visa,,,PALM BAY,FL,,US,,,,,
,visa,,,PALM BAY,FL,,US,,,,,
https://www.walgreens.com/locator/walgreens-5245+babcock+st+ne-palm+bay-fl-32905/id=6463,walgreens,Walgreens,,Palm Bay,FL,,US,+1 321-409-1148,https://www.walgreens.com/locator/walgreens-5245+babcock+st+ne-palm+bay-fl-32905/id=6463,Mo-Su 07:00-22:00,Walgreens,Q1591889
https://www.walgreens.com/locator/walgreens-1213+palm+bay+rd-melbourne-fl-32905/id=5018,walgreens,Walgreens,,Melbourne,FL,,US,+1 321-676-4602,https://www.walgreens.com/locator/walgreens-1213+palm+bay+rd-melbourne-fl-32905/id=5018,Mo-Su 08:00-21:00,Walgreens,Q1591889
2200__HARRIS__AVE__NE_PALM__BAY_FL_32905,wellsfargo,Wells Fargo,2200 HARRIS AVE NE,PALM BAY,FL,,US,+1 321-984-7425,https://www.wellsfargo.com/locator/bank/2200__HARRIS__AVE__NE_PALM__BAY_FL_32905/,Mo-Fr 09:00-17:00,Wells Fargo,Q744149
https://locations.wendys.com/#9254772,wendys,"Wendy's Nw Palm Bay Rd in Palm Bay, FL",,Palm Bay,FL,,US,+1 321-676-4500,https://locations.wendys.com/united-states/fl/palm-bay/1755-palm-bay-road-ne,"Mo-Fr 06:30-10:30,07:00-22:00; Sa-Su 06:30-10:30,08:00-22:00",Wendy's,Q550258
69cf16b6f36be6ca8e64ace694a8ed9f,western_union,7-ELEVEN #32774,,Palm Bay,FL,,US,+1 321-722-3286,https://location.westernunion.com/us/fl/palm-bay/69cf16b6f36be6ca8e64ace694a8ed9f,,Western Union,Q861042
e0ae5aede3637dd1313a33f62e09dd55,western_union,THRIFTY SPECIALTY PRODUCE OF P,,Palm Bay,FL,,US,+1 321-726-8007,https://location.westernunion.com/us/fl/palm-bay/e0ae5aede3637dd1313a33f62e09dd55,Mo-Sa 07:30-20:00; Su 08:00-19:00,Western Union,Q861042
74d935ce68226c56543adc3b07ec4226,western_union,LOS PAISANOS ENVIOS,,Palm Bay,FL,,US,+1 321-499-3566,https://location.westernunion.com/us/fl/palm-bay/74d935ce68226c56543adc3b07ec4226,Mo-Fr 10:00-19:00; Sa 10:00-17:00,Western Union,Q861042
df500c66139d61c5a59aa2cc5cd28f52,western_union,LOS PAISANOS ENVIOS,,Palm Bay,FL,,US,+1 321-499-3566,https://location.westernunion.com/us/fl/palm-bay/df500c66139d61c5a59aa2cc5cd28f52,Mo-Fr 10:00-19:00; Sa 10:00-17:00,Western Union,Q861042
0ff66f2b7283f40deebc67d47af509c0,western_union,SFK MULTIPLE SERVICES LLC,,Palm Bay,FL,,US,+1 321-989-8115,https://location.westernunion.com/us/fl/palm-bay/0ff66f2b7283f40deebc67d47af509c0,Mo-Th 09:00-18:00; Fr-Sa 09:00-20:00; Su 13:00-19:00,Western Union,Q861042
9850dc2d9a620fbe9141a0a301038ae4,western_union,ADVANCE AMERICA #00216,,Palm Bay,FL,,US,+1 321-722-2344,https://location.westernunion.com/us/fl/palm-bay/9850dc2d9a620fbe9141a0a301038ae4,Mo-Th 10:00-18:00; Fr-Sa 09:00-18:00,Western Union,Q861042
5aaaf7fc82bf362ed3c3fa2760c43c0b,western_union,BRAVO SUPERMARKET,,Palm Bay,FL,,US,+1 321-837-1112,https://location.westernunion.com/us/fl/palm-bay/5aaaf7fc82bf362ed3c3fa2760c43c0b,Mo-Sa 07:00-20:00; Su 08:00-19:00,Western Union,Q861042
2351,winndixie,MARKETPLACE SHOPPING CTR LIQUO,5270 BABCOCK ST NE UNIT 30B,PALM BAY,FL,,US,+1 321-728-3786,https://www.winndixie.com/storedetails/palm bay/fl?search=2351,,Winn Dixie,Q1264366
2333,winndixie,MARKETPLACE SHOPPING CENTER,"5270 BABCOCK STREET, SUITE 120",PALM BAY,FL,,US,+1 321-728-1876,https://www.winndixie.com/storedetails/palm bay/fl?search=2333,,Winn Dixie,Q1264366
