Ref,Spider,Name,Address,City,State,Zipcode,Country,Phone,Website,Hours,Brand,WikiData
1038278,alamo,Santiago Train Station,,Santiago De Compostela,,,ES,+34 981 59 90 07,,,ALAMO,Q1429287
14603,burger_king_es_pt,Burger King,"Rua de la, Rúa da Senra, 13, 15702 Santiago de Compostela, A Coruña",Santiago de Compostela,,,ES,+34 682 65 49 97,,Mo-Th 12:00-01:00; Fr-Sa 12:00-01:30; Su 12:00-00:30,Burger King,Q177054
1003221,dia_es,,,Santiago de Compostela,,,ES,,,Mo-Sa 09:00-21:00,Dia,Q925132
1001042,dia_es,,,Santiago de Compostela,,,ES,,,Mo-Sa 09:00-21:00,Dia,Q925132
SCQX62,enterprise,Santiago Train Station,,Santiago De Compostela,,,ES,+34 981 59 90 07,,,Enterprise Rent-A-Car,Q17085454
1038280,national,Santiago Train Station,,Santiago De Compostela,,,ES,+34 981 59 90 07,,,NATIONAL,Q1424142
ECISD-RDR50PBSDC,the_north_face_eu,EL CORTE INGLÉS SANTIAGO DE COMPOSTELA,,Santiago de Compostela,,,ES,,www.elcorteingles.es,,The North Face,Q152784
,visa,,,SANTIAGO DE COMPOSTELA,,,ES,,,,,
,visa,,,SANTIAGO DE COMPOSTELA,,,ES,,,,,
,visa,,,SANTIAGO DE COMPOSTELA,,,ES,,,,,
,visa,,,SANTIAGO DE COMPOSTELA,,,ES,,,,,
,visa,,,SANTIAGO DE COMPOSTELA,,,ES,,,,,
,visa,,,SANTIAGO DE C.,,,ES,,,,,
,visa,,,SANTIAGO DE COMPOSTELA,,,ES,,,,,
,visa,,,SANTIAGO DE COMPOSTELA,,,ES,,,,,
,visa,,,SANTIAGO DE COMPOSTELA,,,ES,,,,,
,visa,,,SANTIAGO DE COMPOSTELA,,,ES,,,,,
,visa,,,SANTIAGO DE COMPOSTELA,,,ES,,,,,
,visa,,,SANTIAGO DE COMPOSTELA,,,ES,,,,,
,visa,,,SANTIAGO DE COMPOSTELA,,,ES,,,,,
,visa,,,SANTIAGO DE COMPOSTELA,,,ES,,,,,
,visa,,,SANTIAGO DE COMPOSTELA,,,ES,,,,,
