Ref,Spider,Name,Address,City,State,Zipcode,Country,Phone,Website,Hours,Brand,WikiData
81516,att_us,CEDARHURST STORE,,Cedarhurst,NY,,US,+1 516-371-5790,https://www.att.com/stores/new-york/cedarhurst/81516,Mo-Sa 10:00-21:00; Su 11:00-19:00,AT&T,Q298594
A4BD,capital_one_us,Cedarhurst,,Cedarhurst,NY,,US,,https://locations.capitalone.com/atm/NY/cedarhurst-atm-A4BD,24/7,Capital One,Q1034654
46305,capital_one_us,Cedarhurst,,Cedarhurst,NY,,US,+1 516-569-8822,https://locations.capitalone.com/bank/NY/Nassau-County-Cedarhurst-branch-46305,Mo-Fr 09:00-17:00; Su 09:00-12:00,Capital One,Q1034654
2040480,chase_us,Cedarhurst - New branch,,Cedarhurst,NY,,US,+1 516-791-0530,https://locator.chase.com/ny/cedarhurst/446-central-ave,Mo-Fr 09:00-17:00; Su 09:00-14:00,Chase,Q524629
5367,cvs_us,CVS Pharmacy,,Cedarhurst,NY,,US,+1 516-374-2626,https://www.cvs.com/store-locator/cedarhurst-ny-pharmacies/116-washington-ave-128-cedarhurst-ny-11516/storeid=5367,Mo-Su 08:00-23:00,CVS Pharmacy,Q2078880
0000885205,phillips_66_conoco_76,CEDARHURST CONOCO,,CEDARHURST,NY,,US,+1 516-239-4222,,,Conoco,Q109341187
0790152300,sunoco_us,Sunoco,,CEDARHURST,NY,,US,+1 516-239-1970,,24/7,Sunoco,Q1423218
1357402,usps,CEDARHURST,,CEDARHURST,NY,,US,+1 516-295-1452,,Mo-Fr 09:00-17:00; Sa 09:00-14:00,United States Postal Service,Q668687
1151600014,usps_collection_boxes,USPS COLLECTION BOX - BLUE BOX,370 PEARSALL AVE,CEDARHURST,NY,,US,,,,United States Postal Service,Q668687
1151600009,usps_collection_boxes,USPS COLLECTION BOX - BLUE BOX,467 CENTRAL AVE,CEDARHURST,NY,,US,,,,United States Postal Service,Q668687
1151600020,usps_collection_boxes,USPS COLLECTION BOX - BLUE BOX,133 SPRUCE ST,CEDARHURST,NY,,US,,,,United States Postal Service,Q668687
1151600001,usps_collection_boxes,USPS COLLECTION BOX - BLUE BOX,350 PACIFIC AVE,CEDARHURST,NY,,US,,,,United States Postal Service,Q668687
1151600017,usps_collection_boxes,USPS COLLECTION BOX - BLUE BOX,516 CENTRAL AVE,CEDARHURST,NY,,US,,,,United States Postal Service,Q668687
1151600018,usps_collection_boxes,USPS COLLECTION BOX - BLUE BOX,145 CEDARHURST AVE,CEDARHURST,NY,,US,,,,United States Postal Service,Q668687
1151600015,usps_collection_boxes,USPS COLLECTION BOX - BLUE BOX,420 OAK AVE,CEDARHURST,NY,,US,,,,United States Postal Service,Q668687
1151600019,usps_collection_boxes,USPS COLLECTION BOX - BLUE BOX,623 CENTRAL AVE,CEDARHURST,NY,,US,,,,United States Postal Service,Q668687
1151600013,usps_collection_boxes,USPS COLLECTION BOX - BLUE BOX,335 ROSELLE AVE,CEDARHURST,NY,,US,,,,United States Postal Service,Q668687
1151600022,usps_collection_boxes,USPS COLLECTION BOX - BLUE BOX,288 CEDARHURST AVE,CEDARHURST,NY,,US,,,,United States Postal Service,Q668687
1151600064,usps_collection_boxes,USPS COLLECTION BOX - PO LOBBY,124 GROVE AVE,CEDARHURST,NY,,US,,,,United States Postal Service,Q668687
1151600004,usps_collection_boxes,USPS COLLECTION BOX - BLUE BOX,124 GROVE AVE,CEDARHURST,NY,,US,,,,United States Postal Service,Q668687
1151600002,usps_collection_boxes,USPS COLLECTION BOX - BLUE BOX,124 GROVE AVE,CEDARHURST,NY,,US,,,,United States Postal Service,Q668687
1151600062,usps_collection_boxes,USPS COLLECTION BOX - PO LOBBY,124 GROVE AVE,CEDARHURST,NY,,US,,,,United States Postal Service,Q668687
1151600010,usps_collection_boxes,USPS COLLECTION BOX - BLUE BOX,464 ARLINGTON RD,CEDARHURST,NY,,US,,,,United States Postal Service,Q668687
1151600012,usps_collection_boxes,USPS COLLECTION BOX - BLUE BOX,391 OAKLAND AVE,CEDARHURST,NY,,US,,,,United States Postal Service,Q668687
1151600011,usps_collection_boxes,USPS COLLECTION BOX - BLUE BOX,537 ALBEMARLE RD,CEDARHURST,NY,,US,,,,United States Postal Service,Q668687
1151600008,usps_collection_boxes,USPS COLLECTION BOX - BLUE BOX,663 BRANCH BLVD,CEDARHURST,NY,,US,,,,United States Postal Service,Q668687
1151600007,usps_collection_boxes,USPS COLLECTION BOX - BLUE BOX,481 HARBOR DR,CEDARHURST,NY,,US,,,,United States Postal Service,Q668687
,visa,,,CEDARHURST,NY,,US,,,,,
,visa,,,CEDARHURST,NY,,US,,,,,
,visa,,,CEDARHURST,NY,,US,,,,,
,visa,,,CEDARHURST,NY,,US,,,,,
,visa,,,CEDARHURST,NY,,US,,,,,
,visa,,,CEDARHURST,NY,,US,,,,,
,visa,,,CEDARHURST,NY,,US,,,,,
,visa,,,CEDARHURST,NY,,US,,,,,
,visa,,,CEDARHURST,NY,,US,,,,,
,visa,,,CEDARHURST,NY,,US,,,,,
,visa,,,CEDARHURST,NY,,US,,,,,
,visa,,,CEDARHURST,NY,,US,,,,,
,visa,,,CEDARHURST,NY,,US,,,,,
,visa,,,CEDARHURST,NY,,US,,,,,
,visa,,,CEDARHURST,NY,,US,,,,,
,visa,,,CEDARHURST,NY,,US,,,,,
,visa,,,CEDARHURST,NY,,US,,,,,
