Ref,Spider,Name,Address,City,State,Zipcode,Country,Phone,Website,Hours,Brand,WikiData
https://stores.advanceautoparts.com/wi/kenosha/7545-sheridan-rd,advance_auto_parts_us,Advance Auto Parts,,Kenosha,WI,,US,+1 262-657-5122,https://stores.advanceautoparts.com/wi/kenosha/7545-sheridan-rd,Mo-Sa 07:30-21:00; Su 09:00-20:00,Advance Auto Parts,Q4686051
198918,bluerhino,American-Gas,,Kenosha,WI,,US,+1 262-652-6335,,,Blue Rhino,Q65681213
111393,bluerhino,Morelli's Deli Catering,,Kenosha,WI,,US,+1 262-654-9316,,,Blue Rhino,Q65681213
73408,bluerhino,Speedway #2122,,Kenosha,WI,,US,+1 262-656-1238,,,Blue Rhino,Q65681213
48833979187105314300100000961334,bp,Amoco,,Kenosha,WI,,US,+1 262-653-9637,,24/7,BP,Q152057
66074232015285314300100000000000,bp,BP,,Kenosha,WI,,US,+1 262-605-3026,,Mo-Sa 07:00-23:00; Su 07:00-22:00,BP,Q152057
128584,bp,BP,,Kenosha,WI,,US,+1 262-764-4566,,,BP,Q152057
21221290042115314300100000000000,bp,BP,,Kenosha,WI,,US,+1 262-652-9378,,Mo-Su 05:00-23:00,BP,Q152057
92808,citi,ATM Walgreens,,Kenosha,WI,,US,,,,Citibank,Q857063
49172,citi,ATM CVS,,Kenosha,WI,,US,,,,Citibank,Q857063
85207,citi,ATM TRUSTONE FINANCIAL CREDIT UNION,,Kenosha,WI,,US,,,,Citibank,Q857063
455,culvers_us,"Culver's of Kenosha, WI - Sheridan Rd",,Kenosha,WI,,US,+1 262-484-4046,http://www.culvers.com/restaurants/kenosha-sheridan,Mo-Fr 10:00-00:00; Su 10:00-00:00,Culver's,Q1143589
8774,cvs_us,CVS Pharmacy,,Kenosha,WI,,US,+1 262-658-3731,https://www.cvs.com/store-locator/kenosha-wi-pharmacies/2207-80th-street-kenosha-wi-53143/storeid=8774,Mo-Su 08:00-21:00,CVS Pharmacy,Q2078880
2003,dominos_pizza_us,Domino's Pizza,,Kenosha,WI,,US,+1 262-771-0707,https://pizza.dominos.com/wisconsin/kenosha/8115-sheridan-road,Mo-Th 10:00-01:00; Fr-Sa 10:00-03:00; Su 10:00-01:00,Domino's,Q839466
8004-22nd-avenue,einsteinbros,Lou Perrine's Gas & Grocery #2 Einstein Bros. Bagels,,Kenosha,WI,,US,+1 262-764-2741,https://locations.einsteinbros.com/us/wi/kenosha/8004-22nd-avenue,Mo-Fr 06:00-17:00; Sa-Su 07:00-15:00,Einstein Bros. Bagels,Q5349788
https://local.fedex.com/#25204070,fedex,,,Kenosha,WI,,US,+1 800-463-3339,https://local.fedex.com/en-us/wi/kenosha/tt8ua,,FedEx,Q459477
https://local.fedex.com/#27748691,fedex,FedEx Authorized ShipCenter,,Kenosha,WI,,US,+1 262-654-8000,https://local.fedex.com/en-us/wi/kenosha/75926,,FedEx,Q459477
30202,huntingtonbank,Uptown Brass,,Kenosha,WI,,US,+1 262-552-3704,https://www.huntington.com/Community/branch-info?locationId=30202,Mo-Fr 09:00-17:00; Sa-Su 00:00-00:00,Huntington Bank,Q798819
https://office.jacksonhewitt.com/#27578253,jackson_hewitt,Jackson Hewitt,,Kenosha,WI,,US,+1 262-658-1040,https://office.jacksonhewitt.com/tax-preparation-services-locations/en/wi/kenosha/6207-22nd-ave/13068,Mo-Fr 09:00-19:00; Sa 09:00-17:00; Su 11:00-16:00,Jackson Hewitt,Q6117132
https://locations.oreillyauto.com/wi/kenosha/wiper-installation-5112.html,oreilly,Your Kenosha O'Reilly Auto Parts Store,,Kenosha,WI,,US,+1 262-671-1028,https://locations.oreillyauto.com/wi/kenosha/wiper-installation-5112.html,Mo-Sa 07:30-21:00; Su 08:00-20:00,O'Reilly Auto Parts,Q7071951
https://locations.oreillyauto.com/wi/kenosha/check-engine-light-testing-5112.html,oreilly,Your Kenosha O'Reilly Auto Parts Store,,Kenosha,WI,,US,+1 262-671-1028,https://locations.oreillyauto.com/wi/kenosha/check-engine-light-testing-5112.html,Mo-Sa 07:30-21:00; Su 08:00-20:00,O'Reilly Auto Parts,Q7071951
https://locations.oreillyauto.com/wi/kenosha/battery-testing-5112.html,oreilly,Your Kenosha O'Reilly Auto Parts Store,,Kenosha,WI,,US,+1 262-671-1028,https://locations.oreillyauto.com/wi/kenosha/battery-testing-5112.html,Mo-Sa 07:30-21:00; Su 08:00-20:00,O'Reilly Auto Parts,Q7071951
https://locations.oreillyauto.com/wi/kenosha/autopartes-5112.html,oreilly,Tu tienda O'Reilly Auto Parts en Kenosha,,Kenosha,WI,,US,+1 262-671-1028,https://locations.oreillyauto.com/wi/kenosha/autopartes-5112.html,Mo-Sa 07:30-21:00; Su 08:00-20:00,O'Reilly Auto Parts,Q7071951
https://locations.tacobell.com/#6142097,taco_bell,Taco Bell,,Kenosha,WI,,US,+1 262-652-1790,https://locations.tacobell.com/wi/kenosha/8040-sheridan-rd.html,Mo-Th 08:00-02:00; Fr-Sa 08:00-03:00; Su 08:00-02:00,Taco Bell,Q752941
033407,uhaul,EZ Pack N Ship Ect Inc,8032 22nd Ave,Kenosha,WI,,US,+1 262-671-2661,,Mo-Fr 00:00-18:00; Sa 00:00-14:00,U-Haul,Q7862902
006050,uhaul,Rhodes Auto & Truck Repair,8640 Sheridan Rd,Kenosha,WI,,US,+1 262-553-1469,,Mo-Fr 00:00-17:00; Sa 00:00-24:00,U-Haul,Q7862902
5314300019,usps_collection_boxes,USPS COLLECTION BOX - BLUE BOX,6218 26TH AVE,KENOSHA,WI,,US,,,,United States Postal Service,Q668687
5314300001,usps_collection_boxes,USPS COLLECTION BOX - BLUE BOX,8032 22ND AVE,KENOSHA,WI,,US,,,,United States Postal Service,Q668687
5314300008,usps_collection_boxes,USPS COLLECTION BOX - BLUE BOX,7506 7TH AVE,KENOSHA,WI,,US,,,,United States Postal Service,Q668687
,visa,,,KENOSHA,WI,,US,,,,,
,visa,,,KENOSHA,WI,,US,,,,,
,visa,,,KENOSHA,WI,,US,,,,,
,visa,,,KENOSHA,WI,,US,,,,,
,visa,,,KENOSHA,WI,,US,,,,,
,visa,,,KENOSHA,WI,,US,,,,,
,visa,,,KENOSHA,WI,,US,,,,,
,visa,,,KENOSHA,WI,,US,,,,,
,visa,,,KENOSHA,WI,,US,,,,,
,visa,,,KENOSHA,WI,,US,,,,,
,visa,,,KENOSHA,WI,,US,,,,,
,visa,,,KENOSHA,WI,,US,,,,,
,visa,,,KENOSHA,WI,,US,,,,,
,visa,,,KENOSHA,WI,,US,,,,,
,visa,,,KENOSHA,WI,,US,,,,,
,visa,,,KENOSHA,WI,,US,,,,,
,visa,,,KENOSHA,WI,,US,,,,,
,visa,,,KENOSHA,WI,,US,,,,,
,visa,,,KENOSHA,WI,,US,,,,,
,visa,,,KENOSHA,WI,,US,,,,,
,visa,,,KENOSHA,WI,,US,,,,,
,visa,,,KENOSHA,WI,,US,,,,,
,visa,,,KENOSHA,WI,,US,,,,,
,visa,,,KENOSHA,WI,,US,,,,,
,visa,,,KENOSHA,WI,,US,,,,,
,visa,,,KENOSHA,WI,,US,,,,,
,visa,,,KENOSHA,WI,,US,,,,,
,visa,,,KENOSHA,WI,,US,,,,,
,visa,,,KENOSHA,WI,,US,,,,,
,visa,,,KENOSHA,WI,,US,,,,,
,visa,,,KENOSHA,WI,,US,,,,,
,visa,,,KENOSHA,WI,,US,,,,,
,visa,,,KENOSHA,WI,,US,,,,,
,visa,,,KENOSHA,WI,,US,,,,,
,visa,,,KENOSHA,WI,,US,,,,,
,visa,,,KENOSHA,WI,,US,,,,,
,visa,,,KENOSHA,WI,,US,,,,,
,visa,,,KENOSHA,WI,,US,,,,,
,visa,,,KENOSHA,WI,,US,,,,,
,visa,,,KENOSHA,WI,,US,,,,,
,visa,,,KENOSHA,WI,,US,,,,,
,visa,,,KENOSHA,WI,,US,,,,,
,visa,,,KENOSHA,WI,,US,,,,,
,visa,,,KENOSHA,WI,,US,,,,,
,visa,,,KENOSHA,WI,,US,,,,,
https://www.walgreens.com/locator/walgreens-7525+sheridan+rd-kenosha-wi-53143/id=12413,walgreens,Walgreens,,Kenosha,WI,,US,+1 262-652-2396,https://www.walgreens.com/locator/walgreens-7525+sheridan+rd-kenosha-wi-53143/id=12413,Mo-Fr 07:00-23:00; Sa-Su 07:00-22:00,Walgreens,Q1591889
