Ref,Spider,Name,Address,City,State,Zipcode,Country,Phone,Website,Hours,Brand,WikiData
,carrefour_es,Carrefour Market Vallecas,,Madrid,Madrid,,ES,+34 629 17 58 51,https://www.carrefour.es/tiendas-carrefour/supermercados/carrefour-market/vallecas_-_s.aspx,,Carrefour Market,Q2689639
https://local.fedex.com/#1018303898,fedex,,,Madrid,Madrid,,ES,,https://local.fedex.com/es-es/madrid/rozpa,,FedEx,Q459477
https://local.fedex.com/#1031994162,fedex,,,Madrid,Madrid,,ES,,https://local.fedex.com/es-es/madrid/rozoa,,FedEx,Q459477
https://local.fedex.com/#1018303487,fedex,,,Madrid,Madrid,,ES,,https://local.fedex.com/es-es/madrid/roznd,,FedEx,Q459477
https://local.fedex.com/#1018307699,fedex,,,Madrid,Madrid,,ES,,https://local.fedex.com/es-es/madrid/rozmj,,FedEx,Q459477
https://local.fedex.com/#1018301824,fedex,,,Madrid,Madrid,,ES,,https://local.fedex.com/es-es/madrid/rozfh,,FedEx,Q459477
https://local.fedex.com/#1031995965,fedex,,,Madrid,Madrid,,ES,,https://local.fedex.com/es-es/madrid/rozbh,,FedEx,Q459477
https://local.fedex.com/#1018305388,fedex,,,Madrid,Madrid,,ES,,https://local.fedex.com/es-es/madrid/roz6v,,FedEx,Q459477
https://local.fedex.com/#1018303917,fedex,,,Madrid,Madrid,,ES,,https://local.fedex.com/es-es/madrid/roz6p,,FedEx,Q459477
https://local.fedex.com/#1018305569,fedex,,,Madrid,Madrid,,ES,,https://local.fedex.com/es-es/madrid/roz1d,,FedEx,Q459477
802,mcdonalds_es,Albufera,"Avenida de la Albufera, nº 1 | Esquina Peña Prieta",Madrid,Madrid,,ES,+34 916 03 42 95,,Mo-Th 10:00-23:00; Fr 10:00-24:00; Sa 11:00-24:00; Su 11:00-23:00,McDonald's,Q38076
,visa,,,MADRID,MADRID,,ES,,,,,
,visa,,,MADRID,MADRID,,ES,,,,,
,visa,,,MADRID,MADRID,,ES,,,,,
https://tiendas.vodafone.es/tiendas/comunidad-de-madrid/madrid/vodafone-albufera-madrid,vodafone_es,Vodafone Albufera,,Madrid,Madrid,,ES,+34 645 70 70 70,https://tiendas.vodafone.es/tiendas/comunidad-de-madrid/madrid/vodafone-albufera-madrid,"Mo-Fr 10:00-14:00,17:00-21:00; Sa 10:00-14:00",Vodafone,Q122141
226db3aee477dee140304e1ab96698e4,western_union,CORREOS Y TELEGRAFOS MADRID SUCURSAL 72,,Madrid,MADRID,,ES,+34 915 19 71 97,https://location.westernunion.com/es/madrid/madrid/226db3aee477dee140304e1ab96698e4,Mo-Fr 08:30-20:30; Sa 08:30-14:30,Western Union,Q861042
dd28925a7318f3605a48e8423244121d,western_union,LOCUTORIO INTERNET,,Madrid,MADRID,,ES,+34 913 80 80 11,https://location.westernunion.com/es/madrid/madrid/dd28925a7318f3605a48e8423244121d,Mo-Su 10:00-21:00,Western Union,Q861042
1c516d1ab9392ce9508cd47fbd3fbbd5,western_union,LOCUTORIO INTERNET,,Madrid,MADRID,,ES,+34 911 72 99 79,https://location.westernunion.com/es/madrid/madrid/1c516d1ab9392ce9508cd47fbd3fbbd5,Mo-Su 09:30-23:00,Western Union,Q861042
31102206baec82a48ad6753215306294,western_union,LOCUTORIO,,Madrid,MADRID,,ES,+34 667 06 92 18,https://location.westernunion.com/es/madrid/madrid/31102206baec82a48ad6753215306294,Mo-Su 09:30-22:00,Western Union,Q861042
bf1d157844b43855321019a8f6bf48f0,western_union,TECH MOVIL,,Madrid,MADRID,,ES,+34 910 72 97 72,https://location.westernunion.com/es/madrid/madrid/bf1d157844b43855321019a8f6bf48f0,Mo-Su 10:00-22:00,Western Union,Q861042
d1bd5af26f920188f66534516da05d55,western_union,TECH MOVIL,,Madrid,MADRID,,ES,+34 919 12 07 40,https://location.westernunion.com/es/madrid/madrid/d1bd5af26f920188f66534516da05d55,Mo-Su 10:00-22:00,Western Union,Q861042
ee4e37f81c9489c7e56876fb28c73854,western_union,LOCUTORIO ALIMENTACION YANI,,Madrid,MADRID,,ES,+34 911 94 02 12,https://location.westernunion.com/es/madrid/madrid/ee4e37f81c9489c7e56876fb28c73854,Mo-Su 09:00-23:00,Western Union,Q861042
c80220a5931d2580d35e5e9c4d405765,western_union,SUPER EFECTIVO 2003,,Madrid,MADRID,,ES,+34 914 77 42 98,https://location.westernunion.com/es/madrid/madrid/c80220a5931d2580d35e5e9c4d405765,Mo-Fr 10:00-20:30; Sa 10:00-14:00,Western Union,Q861042
f4a20fd3a4ce3ff081f9bfc1df854be2,western_union,CORREOS Y TELEGRAFOS,,Madrid,MADRID,,ES,+34 915 19 71 97,https://location.westernunion.com/es/madrid/madrid/f4a20fd3a4ce3ff081f9bfc1df854be2,Mo-Fr 08:30-20:30; Sa 08:30-14:30,Western Union,Q861042
3e7157ee4be54cdd0d43f867fe7c7367,western_union,CHANGE EXPRESS V,,Madrid,MADRID,,ES,+34 918 05 66 93,https://location.westernunion.com/es/madrid/madrid/3e7157ee4be54cdd0d43f867fe7c7367,Mo-Su 10:00-21:00,Western Union,Q861042
57227c7b6a144c68b3161eb4454cc343,western_union,GREEN MINIMARKET,,Madrid,MADRID,,ES,+34 659 70 57 17,https://location.westernunion.com/es/madrid/madrid/57227c7b6a144c68b3161eb4454cc343,Mo-Su 09:00-22:00,Western Union,Q861042
626ec942ae900675277568cdfb8e66ab,western_union,LOCUTORIO ALIMENTACION YANI 2,,Madrid,MADRID,,ES,+34 911 94 02 12,https://location.westernunion.com/es/madrid/madrid/626ec942ae900675277568cdfb8e66ab,Mo-Su 10:00-22:00,Western Union,Q861042
e63830b070106deb2095bcbc2428a9ba,western_union,UDDIN TELEFONIA E INFORMATICA,,Madrid,MADRID,,ES,+34 919 12 07 00,https://location.westernunion.com/es/madrid/madrid/e63830b070106deb2095bcbc2428a9ba,Mo-Su 10:00-22:00,Western Union,Q861042
4d4f7d0ed828a97c93c8006774cc9e2f,western_union,LATIN TRAVEL,,Madrid,MADRID,,ES,+34 911 15 96 14,https://location.westernunion.com/es/madrid/madrid/4d4f7d0ed828a97c93c8006774cc9e2f,Mo-Su 10:00-22:00,Western Union,Q861042
c55a0f6a150d3fdb238e9b199528a18a,western_union,TECH MOBILE,,Madrid,MADRID,,ES,+34 910 72 97 72,https://location.westernunion.com/es/madrid/madrid/c55a0f6a150d3fdb238e9b199528a18a,Mo-Su 10:00-22:00,Western Union,Q861042
8df7c3e00c875e6f848dc3ffd6e0c8c5,western_union,LOCUTORIO HUNAIN,,Madrid,MADRID,,ES,+34 632 54 57 27,https://location.westernunion.com/es/madrid/madrid/8df7c3e00c875e6f848dc3ffd6e0c8c5,Mo-Su 09:00-23:00,Western Union,Q861042
aee013ae96304ac6ea2fb7c1718d7470,western_union,LOCUTORIO ROBERT,,Madrid,MADRID,,ES,+34 918 21 78 80,https://location.westernunion.com/es/madrid/madrid/aee013ae96304ac6ea2fb7c1718d7470,Mo-Su 10:00-22:30,Western Union,Q861042
