Ref,Spider,Name,Address,City,State,Zipcode,Country,Phone,Website,Hours,Brand,WikiData
https://locators.bankofamerica.com/pa/levittown/atm-levittown-110851.html,bankofamerica,Bank of America Drive-Thru ATM | Levittown-Newport Plaza,,Levittown,PA,,US,+1 844-401-8500,https://locators.bankofamerica.com/pa/levittown/atm-levittown-110851.html,,Bank of America,Q487907
157742,bluerhino,Giant Food #6324 - Fuel Site - GC,,Levittown,PA,,US,+1 215-946-3149,,,Blue Rhino,Q65681213
90443,bluerhino,Giant Food #6324 - GC,,Levittown,PA,,US,+1 215-949-1408,,,Blue Rhino,Q65681213
//locations.carters.com/pa/levittown/carters-levittown-pa,carters_us,Carter's Levittown,,Levittown,PA,,US,+1 215-949-2860,https://locations.carters.com/pa/levittown/carters-levittown-pa,Mo-Sa 10:00-19:00; Su 11:00-18:00,Carter's,Q5047083
060390,citizens_us,Citizens Levittown,,Levittown,PA,,US,+1 215-943-9300,,Mo-Fr 09:00-16:00; Sa 09:00-12:00,Citizens,Q5122694
ATM-99,citizens_us,,,Levittown,PA,,US,+1 215-943-9300,,24/7,Citizens,Q5122694
ATM-2189,citizens_us,,,Levittown,PA,,US,,,,Citizens,Q5122694
ATM-2339,citizens_us,,,Bristol,PA,,US,,,,Citizens,Q5122694
70227101,cricket_wireless,Cricket Wireless Authorized Retailer,,Levittown,PA,,US,+1 215-943-3701,https://www.cricketwireless.com/stores/ll/US/PA/Levittown/4516-New-Falls-Rd,Mo-Sa 10:00-18:00,Cricket Wireless,Q5184987
300390,dunkin_us,Dunkin',,Levittown,PA,,US,+1 215-945-7577,https://locations.dunkindonuts.com/en/pa/levittown/4001-new-rodgers-rd/300390,Mo-Su 04:00-20:00,Dunkin',Q847743
0623,european_wax_center_us,European Wax Center,,Levittown,PA,,US,+1 267-585-4005,https://locations.waxcenter.com/pa/levittown/levittown-langhorne-square-0623.html,Mo-Fr 09:00-20:00; Sa 09:00-17:00; Su 09:00-16:00,European Wax Center,Q5413426
200318435,exxonmobil,JSB NEWGAS INC,,LEVITTOWN,PA,,US,+1 215-269-8121,https://www.exxon.com/en/find-station/exxon-levittown-pa-jsbnewgasinc-200318435,24/7,Exxon,Q109675651
33915,family_dollar_us,FAMILY DOLLAR #13915,,Levittown,PA,,US,+1 267-585-5738,https://www.familydollar.com/locations/pa/levittown/33915/,Mo-Su 08:00-21:00,Family Dollar,Q5433101
#6324,giantfoodstores,GIANT Levittown,,Levittown,PA,,US,+1 215-949-1408,https://stores.giantfoodstores.com/pa/levittown/4001-new-falls-rd,"Mo-Fr 06:00-23:00,09:00-20:00; Sa 06:00-23:00,09:00-17:00; Su 06:00-23:00,10:00-17:00",Giant,Q5558332
https://stores.gnc.com/#52194455,gnc,GNC LANGHORNE SQUARE,,,PA,,US,+1 408-516-2457,https://stores.gnc.com/all-stores-pennsylvania/levittown/1298-e-lincoln-hwy,Mo-Sa 10:00-19:00; Su 11:00-18:00,GNC,Q4808595
https://www.goodyearautoservice.com/en_US/location/Levittown-PA-19056-US-000900939,goodyear_us,"Goodyear Auto Service - Levittown, Levittown, PA | Oil, Brakes & Repairs | #000900939",,Levittown,PA,,US,+1 215-945-7700,https://www.goodyearautoservice.com/en_US/location/Levittown-PA-19056-US-000900939,Mo-Sa 07:00-18:00,Goodyear,Q620875
2818,gulf_pr_us,LEVITTOWN GULF,,Levittown,PA,,US,+1 215-945-1831,https://www.gulfoil.com/levittown-gulf,,Gulf Oil,Q5617505
36581,h_r_block,H&R Block,,Levittown,PA,,US,+1 215-946-9002,https://www.hrblock.com/local-tax-offices/pennsylvania/levittown/langhorne-square-shop-center/36581/,,H&R Block,Q5627799
https://office.jacksonhewitt.com/#27577002,jackson_hewitt,Jackson Hewitt,,Levittown,PA,,US,+1 267-589-6495,https://office.jacksonhewitt.com/tax-preparation-services-locations/en/pa/levittown/4405-new-falls-road/16766,Mo 10:00-19:00; Tu 10:30-19:00; We 10:00-19:00; Th 14:30-19:00; Fr 10:00-17:00; Sa 10:00-16:00; Su 11:00-16:00,Jackson Hewitt,Q6117132
https://www.jeffersonhealth.org/locations/levittown-family-medical,jefferson_univ_hosp,Levittown Family Medical,,Levittown,PA,,US,+1 215-949-6622,https://www.jeffersonhealth.org/locations/levittown-family-medical,,Jefferson University Hospital,Q59676202
https://locations.massageenvy.com/#1774357,massage_envy,Massage Envy Levittown - Langhorne,,Levittown,PA,,US,+1 267-460-3689,https://locations.massageenvy.com/pennsylvania/levittown/1327-e-lincoln-hwy.html,Mo 10:00-19:00; Tu 13:00-21:00; We 10:00-20:00; Th 10:00-21:00; Fr 10:00-20:00; Sa-Su 10:00-17:00,Massage Envy,Q10327170
restaurant_242109,popeyes_us_fr,Popeyes,"1791 Lincoln Hwy Levittown, Pennsylvania 19056 - USA",Levittown,PA,,US,+1 267-563-8326,https://www.popeyes.com/store-locator/store/restaurant_242109,Mo-Sa 10:00-23:00; Su 10:00-22:00,Popeyes,Q1330910
12535144938100610564,sleep_number_us,Sleep Number,,Levittown,PA,,US,,https://www.sleepnumber.com/stores/pa/levittown/1277-lincoln-highway,Mo-Th 10:00-19:00; Fr-Sa 10:00-20:00; Su 11:00-19:00,Sleep Number,Q7447640
920,sola_salon_studios,Langhorne,,Levittown,PA,,US,+1 267-727-3036,https://www.solasalonstudios.com/locations/langhorne,,Sola Salon Studios,Q64337426
https://restaurants.subway.com/#14898409,subway,Subway,,Levittown Bucks,PA,,US,+1 215-949-0400,https://restaurants.subway.com/united-states/pa/levittown/4000-new-rodgers-road,Mo-Fr 10:00-19:00; Sa-Su 10:00-18:00,Subway,Q244457
https://restaurants.subway.com/#14897195,subway,Subway Wal-Mart #2068,,Levittown Bucks,PA,,US,+1 215-943-3930,https://restaurants.subway.com/united-states/pa/levittown/180-levittown-pkwy,Mo-Fr 08:00-21:00; Sa-Su 07:00-21:00,Subway,Q244457
1044,tjx,Langhorne,1343 Lincoln Hwy,Langhorne,PA,,US,+1 215-949-0575,,Mo-Sa 09:30-21:30; Su 10:00-20:00,Marshalls,Q15903261
https://www.asurion.com/repairs/tech/locations/langhorne,ubreakifix,uBreakiFix by Asurion - Langhorne,,LEVITTOWN,PA,,US,+1 215-478-9002,https://www.asurion.com/repairs/tech/locations/langhorne,We-Sa 10:00-18:00; Su 12:00-17:00,Asurion Tech Repair & Solutions,Q4811938
1905600032,usps_collection_boxes,USPS COLLECTION BOX - BLUE BOX,2 MINTLEAF RD,LEVITTOWN,PA,,US,,,,United States Postal Service,Q668687
1905600030,usps_collection_boxes,USPS COLLECTION BOX - BLUE BOX,4354 NEW FALLS RD,LEVITTOWN,PA,,US,,,,United States Postal Service,Q668687
1905600024,usps_collection_boxes,USPS COLLECTION BOX - BLUE BOX,2 SYCAMORE RD,LEVITTOWN,PA,,US,,,,United States Postal Service,Q668687
1905600028,usps_collection_boxes,USPS COLLECTION BOX - BLUE BOX,2140 TRENTON RD,LEVITTOWN,PA,,US,,,,United States Postal Service,Q668687
levittown_oil-change-an3167,valvoline_instant_oil_change,Valvoline,4101 Veterans Highway ,Levittown,PA,,US,+1 267-202-6870,https://store.vioc.com/pa/levittown/oil-change-an3167.html,,Valvoline Instant Oil Change,Q7912852
,visa,,,LEVITTOWN,PA,,US,,,,,
,visa,,,LEVITTOWN,PA,,US,,,,,
,visa,,,LEVITTOWN,PA,,US,,,,,
,visa,,,LEVITTOWN,PA,,US,,,,,
,visa,,,LEVITTOWN,PA,,US,,,,,
,visa,,,MIDDLETOWN,PA,,US,,,,,
,visa,,,LEVITTOWN,PA,,US,,,,,
,visa,,,LEVITTOWN,PA,,US,,,,,
,visa,,,LEVITTOWN,PA,,US,,,,,
,visa,,,LEVITTOWN,PA,,US,,,,,
,visa,,,LEVITTOWN,PA,,US,,,,,
,visa,,,LEVITTOWN,PA,,US,,,,,
,visa,,,LEVITTOWN,PA,,US,,,,,
,visa,,,LEVITTOWN,PA,,US,,,,,
,visa,,,LEVITTOWN,PA,,US,,,,,
,visa,,,LEVITTOWN,PA,,US,,,,,
,visa,,,LEVITTOWN,PA,,US,,,,,
,visa,,,LEVITTOWN,PA,,US,,,,,
,visa,,,LEVITTOWN,PA,,US,,,,,
,visa,,,LEVITTOWN,PA,,US,,,,,
,visa,,,LEVITTOWN,PA,,US,,,,,
,visa,,,LEVITTOWN,PA,,US,,,,,
,visa,,,LEVITTOWN,PA,,US,,,,,
,visa,,,LEVITTOWN,PA,,US,,,,,
https://www.walgreens.com/locator/walgreens-5200+new+falls+rd-levittown-pa-19056/id=9672,walgreens,Walgreens,,Levittown,PA,,US,+1 215-943-2448,https://www.walgreens.com/locator/walgreens-5200+new+falls+rd-levittown-pa-19056/id=9672,Mo-Su 07:00-22:00,Walgreens,Q1591889
4356__NEW__FALLS__RD_LEVITTOWN_PA_19056,wellsfargo,Wells Fargo,4356 NEW FALLS RD,LEVITTOWN,PA,,US,+1 215-945-2070,https://www.wellsfargo.com/locator/bank/4356__NEW__FALLS__RD_LEVITTOWN_PA_19056/,Mo-Fr 09:00-17:00,Wells Fargo,Q744149
https://locations.wendys.com/#9253604,wendys,"Wendy's 1419 E. Lincoln Highway in Levittown, PA",,Levittown,PA,,US,+1 215-949-8030,https://locations.wendys.com/united-states/pa/levittown/1419-e-lincoln-highway,"Mo-Su 06:30-10:30,07:00-22:00",Wendy's,Q550258
2883d559fbe7a8c063a7625abdcfc9fc,western_union,Z & S FINANCIAL SERVICE CENTER,,Levittown,PA,,US,+1 215-486-5730,https://location.westernunion.com/us/pa/levittown/2883d559fbe7a8c063a7625abdcfc9fc,Mo-Su 08:00-19:00,Western Union,Q861042
b5aabf895361aa87663df65245c765a7,western_union,7-ELEVEN #23853,,Levittown,PA,,US,+1 215-359-5492,https://location.westernunion.com/us/pa/levittown/b5aabf895361aa87663df65245c765a7,,Western Union,Q861042
